"Category,Real Category,Business Name,Address,City,State,Postal Code,Country,Phone,Email,Website,Latitude,Longitude,Map Link,Details Link",Category,Real Category,Business Name,Address,City,State,Postal Code,Country,Phone,Email,Website,Latitude,Longitude,Map Link,Details Link
,building materials,building materials,Sulawesi Utara 95371,"Airmadidi Atas, Kec. Airmadidi, Kabupaten Minahasa Utara, Sulawesi Utara","Kabupaten Minahasa Utara, Sulawesi Utara",SULAWESI UTARA,,Indonesia,,,,14.172.327,1.249.876.821,https://maps.google.com/?cid=0x0:0x80e87fd6189d70fc,
,building materials,Toko Bahan Bangunan,UD. Klabat Indah,"Jl. Ir. Soekarno, Jalur Dua, Kec. Airmadidi, Kabupaten Minahasa Utara, Sulawesi Utara 95371","Jalur Dua, Kec. Airmadidi, Kabupaten Minahasa Utara",SULAWESI UTARA,95371.0,Indonesia,,,,14.288.105,1.249.870.974,https://maps.google.com/?cid=0x0:0x4e1cd39a663a68b5,
,building materials,Toko Bahan Bangunan,Depo Bangunan Baru,"Airmadidi Atas, Kec. Airmadidi, Kabupaten Minahasa Utara, Sulawesi Utara","Kabupaten Minahasa Utara, Sulawesi Utara",SULAWESI UTARA,,Indonesia,08114667779,,,14.209.652,1.249.858.983,https://maps.google.com/?cid=0x0:0x39d09d0fdcf3ce9a,
,building materials,Toko Bahan Bangunan,"Cipta Sarana, Sukur, Airmadidi","Jl. Raya Manado - Bitung, Sukur, Kec. Airmadidi, Kabupaten Minahasa Utara, Sulawesi Utara","Kabupaten Minahasa Utara, Sulawesi Utara",SULAWESI UTARA,,Indonesia,,,,14.476.341,1.249.596.084,https://maps.google.com/?cid=0x0:0x666bbfc04e00e06c,
,building materials,Toko Bahan Bangunan,UD. Ria Jaya,"Sukur, Kec. Airmadidi, Kabupaten Minahasa Utara, Sulawesi Utara","Kabupaten Minahasa Utara, Sulawesi Utara",SULAWESI UTARA,,Indonesia,0811409476,,,14.503.394,1.249.601.121,https://maps.google.com/?cid=0x0:0x7edd56340f1e2460,
,building materials,Toko Bahan Bangunan,Toko Bangunan Alden,"Jl. SBY No.70, Sukur, Kec. Airmadidi, Kabupaten Minahasa Utara, Sulawesi Utara","Kabupaten Minahasa Utara, Sulawesi Utara",SULAWESI UTARA,,Indonesia,082366436061,,,14.611.442,1.249.666.508,https://maps.google.com/?cid=0x0:0xc92a017c991e4486,
,building materials,Pemasok bahan paving blok,Paving block UD SEJAHTERA BERSAMA NUSANTARA,"Airmadidi Atas, Kec. Airmadidi, Kabupaten Minahasa Utara, Sulawesi Utara","Kabupaten Minahasa Utara, Sulawesi Utara",SULAWESI UTARA,,Indonesia,085326400562,,,1.424.603,1.249.908.238,https://maps.google.com/?cid=0x0:0x589f563171dd6b44,
,building materials,Toko Bahan Bangunan,Toko Bangunan Pelangi Jaya,"CXCP+8C6, Jl. Arnold Mononutu, Airmadidi Atas, Kec. Airmadidi, Kabupaten Minahasa Utara, Sulawesi Utara","Kabupaten Minahasa Utara, Sulawesi Utara",SULAWESI UTARA,,Indonesia,0431892154,,,14.207.968,1.249.860.006,https://maps.google.com/?cid=0x0:0xfaa036c485707fb1,
,building materials,Toko,Toko GRAND HARDWARE,"CXJH+22P, Sarongsong I, Kec. Airmadidi, Kabupaten Minahasa Utara, Sulawesi Utara","Kabupaten Minahasa Utara, Sulawesi Utara",SULAWESI UTARA,,Indonesia,,,,14.300.932,1.249.775.741,https://maps.google.com/?cid=0x0:0xd5bea6e4e94329b1,
,building materials,Toko Bahan Bangunan,Toko bangunan Rejeki Jaya,"CXX5+7G4, Jl. Sukur - Likupang, Sukur, Kec. Airmadidi, Kabupaten Minahasa Utara, Sulawesi Utara","Kabupaten Minahasa Utara, Sulawesi Utara",SULAWESI UTARA,,Indonesia,0811431341,,,14.481.495,1.249.588.422,https://maps.google.com/?cid=0x0:0x30a202e84321b74d,
,building materials,Toko Bahan Bangunan,Tk. Bahan bangunan VIFANLIA,"Jl. Raya Manado - Bitung, Sukur, Kec. Airmadidi, Kabupaten Minahasa Utara, Sulawesi Utara","Kabupaten Minahasa Utara, Sulawesi Utara",SULAWESI UTARA,,Indonesia,085341918984,,,14.491.178,1.249.581.447,https://maps.google.com/?cid=0x0:0xc22266a1dd8ff5c0,
,building materials,Toko Perlengkapan Rumah,MR.DIY,"Jl. Raya Manado - Bitung No.871, Airmadidi Atas, Kec. Airmadidi, Kabupaten Minahasa Utara, Sulawesi Utara","Kabupaten Minahasa Utara, Sulawesi Utara",SULAWESI UTARA,,Indonesia,,,,1.419.665,1.249.877.989,https://maps.google.com/?cid=0x0:0x6b10aff0b5f80bb8,
,building materials,Toko Perlengkapan Rumah,Toko Sumber Meubel Elektronik Bangunan,"Jl. Raya Manado - Bitung, Sarongsong I, Kec. Airmadidi, Kabupaten Minahasa Utara, Sulawesi Utara","Kabupaten Minahasa Utara, Sulawesi Utara",SULAWESI UTARA,,Indonesia,085146472422,,,14.279.751,1.249.791.172,https://maps.google.com/?cid=0x0:0xfe4620b5cfc9b497,
,building materials,Toko Bahan Bangunan,TOKO BANGUNAN MS,"Dekat matungkas , kec dimembe, Jl. Raya Likupang, Kec. Airmadidi, Sulawesi Utara 95371","kec dimembe, Jl. Raya Likupang, Kec. Airmadidi",SULAWESI UTARA,95371.0,Indonesia,085396672112,,,14.667.282,124.966.547,https://maps.google.com/?cid=0x0:0x56f7823a657be343,
,building materials,Toko Bahan Bangunan,Toko Bahan Bangunan Adel Jaya,"Jl. Arnold Mononutu, Airmadidi Atas, Kec. Airmadidi, Kota Manado, Sulawesi Utara 95371","Airmadidi Atas, Kec. Airmadidi, Kota Manado",SULAWESI UTARA,95371.0,Indonesia,081356527782,,,14.263.083,124.980.685,https://maps.google.com/?cid=0x0:0x99117017828bdce0,
,building materials,building materials,Sulawesi Utara 95373,"Paniki Atas, Kec. Talawaan, Kabupaten Minahasa Utara, Sulawesi Utara","Kabupaten Minahasa Utara, Sulawesi Utara",SULAWESI UTARA,,Indonesia,,,,14.974.733,1.249.238.636,https://maps.google.com/?cid=0x0:0x3a1e3c0a99b6788f,
,building materials,Pusat Perbelanjaan,Usaha Baru,"FXF9+PWC, Unnamed Road, Matungkas, Dimembe, North Minahasa Regency, North Sulawesi","Kabupaten Minahasa Utara, Sulawesi Utara",SULAWESI UTARA,,Indonesia,082333339858,,,14.743.245,1.249.697.662,https://maps.google.com/?cid=0x0:0x8b25809c16d4290c,
,building materials,Toko Bahan Bangunan,UD.Murni 2 Dimembe - Toko Material dan Bahan Bangunan,"Samping Lorong Olahraga, Jl. Sukur - Likupang, Jaga V, Kec. Dimembe, Kabupaten Minahasa Utara, Sulawesi Utara 95373","Jl. Sukur - Likupang, Jaga V, Kec. Dimembe, Kabupaten Minahasa Utara",SULAWESI UTARA,95373.0,Indonesia,,,,14.907.004,1.249.758.544,https://maps.google.com/?cid=0x0:0xb183ee6014b14e0b,
,building materials,Toko Bahan Bangunan,CV Sang Jaya,"FXGG+8HF De Premium, Matungkas, Kec. Dimembe, Kabupaten Minahasa Utara, Sulawesi Utara","Kabupaten Minahasa Utara, Sulawesi Utara",SULAWESI UTARA,,Indonesia,085159354388,,,14.758.195,1.249.764.143,https://maps.google.com/?cid=0x0:0x7942d1f762dd8f59,
,building materials,Toko Bahan Bangunan,Kios Devin,"FX9C+FPX, Matungkas, Kec. Dimembe, Kabupaten Minahasa Utara, Sulawesi Utara","Kabupaten Minahasa Utara, Sulawesi Utara",SULAWESI UTARA,,Indonesia,,,,14.686.889,1.249.717.395,https://maps.google.com/?cid=0x0:0x7c2c40fb8a21903e,
,building materials,Toko Bahan Bangunan,Bersinar,"Jl. Raya Manado - Bitung, Maumbi, Kec. Kalawat, Kabupaten Minahasa Utara, Sulawesi Utara","Kabupaten Minahasa Utara, Sulawesi Utara",SULAWESI UTARA,,Indonesia,,,,14.809.633,1.249.044.372,https://maps.google.com/?cid=0x0:0x72672058ff597ce7,
,building materials,Toko Bahan Bangunan,Depo Bangunan Baru,"Airmadidi Atas, Kec. Airmadidi, Kabupaten Minahasa Utara, Sulawesi Utara","Kabupaten Minahasa Utara, Sulawesi Utara",SULAWESI UTARA,,Indonesia,08114667779,,,14.209.652,1.249.858.983,https://maps.google.com/?cid=0x0:0x39d09d0fdcf3ce9a,
,building materials,Toko Bahan Bangunan,Duta Bangunan UD,"HX2X+R8M, Wasian, Kec. Dimembe, Kabupaten Minahasa Utara, Sulawesi Utara","Kabupaten Minahasa Utara, Sulawesi Utara",SULAWESI UTARA,,Indonesia,0431893623,,,15.520.905,1.249.982.821,https://maps.google.com/?cid=0x0:0xf6fcbb9443ad3ce9,
,building materials,Toko Bahan Bangunan,Toko Bangunan Berkat Anugerah,"FXGC+56F, Matungkas, Kec. Dimembe, Kabupaten Minahasa Utara, Sulawesi Utara","Kabupaten Minahasa Utara, Sulawesi Utara",SULAWESI UTARA,,Indonesia,085166903897,,,14.754.432,1.249.705.573,https://maps.google.com/?cid=0x0:0x5392f2726457469d,
,building materials,Toko Bahan Bangunan,DeDo Supermarket,"Jl. Raya Manado - Bitung, Maumbi, Kec. Kalawat, Kabupaten Minahasa Utara, Sulawesi Utara","Kabupaten Minahasa Utara, Sulawesi Utara",SULAWESI UTARA,,Indonesia,082363111170,,,14.783.792,1.249.086.253,https://maps.google.com/?cid=0x0:0x2d4a0393891ebb97,
,building materials,Toko Bahan Bangunan,TOKO BANGUNAN MS,"Dekat matungkas , kec dimembe, Jl. Raya Likupang, Kec. Airmadidi, Sulawesi Utara 95371","kec dimembe, Jl. Raya Likupang, Kec. Airmadidi",SULAWESI UTARA,95371.0,Indonesia,085396672112,,,14.667.282,124.966.547,https://maps.google.com/?cid=0x0:0x56f7823a657be343,
,building materials,Kantor Perusahaan,CV Bangunan Karya Mandiri,"Jl. Trans Sulawesi No.mor 88, Tateli, Kec. Mandolang, Kabupaten Minahasa, Sulawesi Utara 95661","Tateli, Kec. Mandolang, Kabupaten Minahasa",SULAWESI UTARA,95661.0,Indonesia,081389898887,,,14.418.019,1.247.530.328,https://maps.google.com/?cid=0x0:0x8c3a90a3b9407031,
,building materials,Toko Bahan Bangunan,TB.MERIBA (Toko Bangunan),"7WX6+4XP, Taler, Tondano Tim., Kabupaten Minahasa, Sulawesi Utara","Kabupaten Minahasa, Sulawesi Utara",SULAWESI UTARA,,Indonesia,085696259199,,,12.978.375,1.249.124.531,https://maps.google.com/?cid=0x0:0x92ba361f80294412,
,building materials,Toko Bahan Bangunan,Toko Sumber Bangunan Pineleng,"CRGQ+VCG, Jl. Raya Manado Tomohon, Pineleng I, Kec. Pineleng, Kabupaten Minahasa, Sulawesi Utara","Kabupaten Minahasa, Sulawesi Utara",SULAWESI UTARA,,Indonesia,,,,14.271.958,1.248.385.828,https://maps.google.com/?cid=0x0:0x5bfd3a32058d5029,
,building materials,Toko Bahan Bangunan,TOKO SURYA JAYA,"Matungkas, Kec. Dimembe, Kabupaten Minahasa Utara, Sulawesi Utara","Kabupaten Minahasa Utara, Sulawesi Utara",SULAWESI UTARA,,Indonesia,085761113781,,,14.753.625,1.249.663.016,https://maps.google.com/?cid=0x0:0xeb72aa0f66a8a80b,
,building materials,building materials,Kec. Dimembe,"Kabupaten Minahasa Utara, Sulawesi Utara","Kabupaten Minahasa Utara, Sulawesi Utara",SULAWESI UTARA,,Indonesia,,,,1.528.553,1.249.927.382,https://maps.google.com/?cid=0x0:0x3bd2dc6d44a266a9,
,building materials,Toko Bahan Bangunan,RR Hollowbrick,"FX85+9WC, Jl. Ir. Soekarno, Matungkas, Kec. Dimembe, Kabupaten Minahasa Utara, Sulawesi Utara","Kabupaten Minahasa Utara, Sulawesi Utara",SULAWESI UTARA,,Indonesia,0815237998888,,,14.650.694,1.249.592.622,https://maps.google.com/?cid=0x0:0xb9ec96033c8f53e4,
,building materials,Toko Bahan Bangunan,Matungkas Jaya (Toko Bangunan),"FXGC+67C, Jl. Sukur - Likupang, Matungkas, Kec. Dimembe, Kabupaten Minahasa Utara, Sulawesi Utara","Kabupaten Minahasa Utara, Sulawesi Utara",SULAWESI UTARA,,Indonesia,082333344765,,,14.755.556,1.249.706.543,https://maps.google.com/?cid=0x0:0x9356ce9cff86f7f2,
,building materials,building materials,Toko Bangunan UD. Gloria - MINUT,"Jl. Soekarno No.D-291, Sarongsong II, Kec. Dimembe, Kabupaten Minahasa Utara, Sulawesi Utara 95371","Sarongsong II, Kec. Dimembe, Kabupaten Minahasa Utara",SULAWESI UTARA,95371.0,Indonesia,081350408451,,,14.610.777,1.249.672.777,https://maps.google.com/?cid=0x0:0xd53f015364e010f4,
,building materials,Toko Bahan Bangunan,Toko Tuama RR,"FXGC+676 Jaga 7, Matungkas, Kec. Dimembe, Kabupaten Minahasa Utara, Sulawesi Utara","Kabupaten Minahasa Utara, Sulawesi Utara",SULAWESI UTARA,,Indonesia,,,,14.755.297,1.249.706.454,https://maps.google.com/?cid=0x0:0xf70291edba8cd4ca,
,building materials,Toko Bahan Bangunan,Toko Bangunan Malak Matungkas,"FXC9+636, Matungkas Jaga X, Kec. Dimembe, Kabupaten Minahasa Utara, Sulawesi Utara","Kabupaten Minahasa Utara, Sulawesi Utara",SULAWESI UTARA,,Indonesia,081356833133,,,14.705.375,1.249.676.406,https://maps.google.com/?cid=0x0:0x1c9d1d8d885ff988,
,building materials,Toko Bahan Bangunan,UD. MURNI 2,"UD.Murni2, Gg. Jaga V Lorong Olahraga No.Samping, Kolongan, Kec. Dimembe, Kabupaten Minahasa Utara, Sulawesi Utara 95373","Gg. Jaga V Lorong Olahraga No.Samping, Kolongan, Kec. Dimembe, Kabupaten Minahasa Utara",SULAWESI UTARA,95373.0,Indonesia,082188475346,,,15.269.921,1.249.531.104,https://maps.google.com/?cid=0x0:0x39f4b15d38daf19e,
,building materials,Grosir,Toko Samudra,"HX3X+HF6, Jl. Sukur - Likupang, Wasian, Kec. Dimembe, Kabupaten Minahasa Utara, Sulawesi Utara","Kabupaten Minahasa Utara, Sulawesi Utara",SULAWESI UTARA,,Indonesia,,,,15.539.114,1.249.986.522,https://maps.google.com/?cid=0x0:0x7a6ca99e7558105b,
,building materials,Toko Perlengkapan Rumah,Toko calista,"Jl. Sukur - Likupang, Wasian, Kec. Dimembe, Kabupaten Minahasa Utara, Sulawesi Utara","Kabupaten Minahasa Utara, Sulawesi Utara",SULAWESI UTARA,,Indonesia,085340002225,,,15.573.416,1.249.992.117,https://maps.google.com/?cid=0x0:0x1699510a19e62861,
,building materials,Toko Bahan Bangunan,Toko Elgio,"G325+5H6 jaga 6, Klabat, Kec. Dimembe, Kabupaten Minahasa Utara, Sulawesi Utara","Kabupaten Minahasa Utara, Sulawesi Utara",SULAWESI UTARA,,Indonesia,,,,15.004.081,1.250.588.788,https://maps.google.com/?cid=0x0:0x91b8dd84ce8d44aa,
,building materials,Toko Bahan Bangunan,Toko Bintang Klabat Pusat Baja Ringan,"Matungkas, Kec. Dimembe, Kabupaten Minahasa Utara, Sulawesi Utara 95373","Kec. Dimembe, Kabupaten Minahasa Utara",SULAWESI UTARA,95373.0,Indonesia,082396732432,,,14.691.659,1.249.672.677,https://maps.google.com/?cid=0x0:0xf7a7af35aeb789b7,
,building materials,Pusat Perbelanjaan,UD Diareta,"GXFQ+MWR, Jl. Sukur - Likupang, Warukapas, Kec. Dimembe, Kabupaten Minahasa Utara, Sulawesi Utara","Kabupaten Minahasa Utara, Sulawesi Utara",SULAWESI UTARA,,Indonesia,085298625599,,,15.242.496,1.249.897.575,https://maps.google.com/?cid=0x0:0xf0abc32cc10421a4,
,building materials,Toko Bahan Bangunan,Toko Welko,"Tatelu Rondor, Jaga 1, Kabupaten Minahasa Utara, Sulawesi Utara 95373","Jaga 1, Kabupaten Minahasa Utara",SULAWESI UTARA,95373.0,Indonesia,082191185558,,,15.418.466,1.249.971.313,https://maps.google.com/?cid=0x0:0xda9ee7149f71f005,
,building materials,Pasar bahan bangunan,Toko Kolongan Jaya,"FW8G+69M, Jl. Raya Manado - Bitung, Kolongan, Kec. Kalawat, Kabupaten Minahasa Utara, Sulawesi Utara","Kabupaten Minahasa Utara, Sulawesi Utara",SULAWESI UTARA,,Indonesia,085240515970,,,1.465.596,1.249.259.371,https://maps.google.com/?cid=0x0:0x7f97f6ae08991b58,
,building materials,Toko Bahan Bangunan,Toko sumber terang,"Jl. Ir. Soekarno No.88, Kolongan Tetempangan, Kec. Kalawat, Kabupaten Minahasa Utara, Sulawesi Utara","Kabupaten Minahasa Utara, Sulawesi Utara",SULAWESI UTARA,,Indonesia,089698079913,,,14.764.815,1.249.366.244,https://maps.google.com/?cid=0x0:0x804c90914228033c,
,building materials,Pemasok Bahan Bangunan,Hollow Brick Prima Watutumou,"FW98+774, Watutumou II, Kec. Kalawat, Kabupaten Minahasa Utara, Sulawesi Utara","Kabupaten Minahasa Utara, Sulawesi Utara",SULAWESI UTARA,,Indonesia,085341734392,,,14.681.253,1.249.157.027,https://maps.google.com/?cid=0x0:0x15e6758db4ee89ff,
,building materials,Pasar bahan bangunan,Toko Kolongan Jaya,"FW8G+69M, Jl. Raya Manado - Bitung, Kolongan, Kec. Kalawat, Kabupaten Minahasa Utara, Sulawesi Utara","Kabupaten Minahasa Utara, Sulawesi Utara",SULAWESI UTARA,,Indonesia,085240515970,,,1.465.596,1.249.259.371,https://maps.google.com/?cid=0x0:0x7f97f6ae08991b58,
,building materials,Toko Bahan Bangunan,Bersinar,"Jl. Raya Manado - Bitung, Maumbi, Kec. Kalawat, Kabupaten Minahasa Utara, Sulawesi Utara","Kabupaten Minahasa Utara, Sulawesi Utara",SULAWESI UTARA,,Indonesia,,,,14.809.633,1.249.044.372,https://maps.google.com/?cid=0x0:0x72672058ff597ce7,
,building materials,Kios,Toko Bangunan dan Sembako,"FW88+HJJ, Watutumou II, Kec. Kalawat, Kabupaten Minahasa Utara, Sulawesi Utara","Kabupaten Minahasa Utara, Sulawesi Utara",SULAWESI UTARA,,Indonesia,087773953145,,,14.664.691,1.249.165.212,https://maps.google.com/?cid=0x0:0x21990419e38de381,
,building materials,Toko bahan makanan,Kel.Malendes.Tumpia (bule/rinto),"Kolongan, Kec. Kalawat, Kabupaten Minahasa Utara, Sulawesi Utara","Kabupaten Minahasa Utara, Sulawesi Utara",SULAWESI UTARA,,Indonesia,089612231389,,,1.450.796,1.249.422.676,https://maps.google.com/?cid=0x0:0xaae9bb0e7f8f1704,
,building materials,Toko Bahan Bangunan,HollowBrick Novel,"Watutumou II, Kec. Kalawat, Manado, Sulawesi Utara 95378","Kec. Kalawat, Manado",SULAWESI UTARA,95378.0,Indonesia,085929645068,,,14.715.637,1.249.173.241,https://maps.google.com/?cid=0x0:0xfdc222aaabc8d452,
,building materials,Toko Bahan Bangunan,TK SUMBER JAYA,"FW8F+MW6, Jl. Raya Manado - Bitung, Kolongan Tetempangan, Kec. Kalawat, Kabupaten Minahasa Utara, Sulawesi Utara 95370","Jl. Raya Manado - Bitung, Kolongan Tetempangan, Kec. Kalawat, Kabupaten Minahasa Utara",SULAWESI UTARA,95370.0,Indonesia,,,,14.666.655,1.249.247.748,https://maps.google.com/?cid=0x0:0x54f2c34ab9d56f79,
,building materials,Toko Bahan Bangunan,sumber alam,"FWF5+QW2, Watutumou, Kec. Kalawat, Kabupaten Minahasa Utara, Sulawesi Utara","Kabupaten Minahasa Utara, Sulawesi Utara",SULAWESI UTARA,,Indonesia,,,,14.743.901,1.249.097.798,https://maps.google.com/?cid=0x0:0xb63c1f1017ce4433,
,building materials,Pemasok kayu,Somil Om texen Maumbi,"FWJ5+JQ4, Jl. Raya Paniki Atas, Maumbi, Kec. Kalawat, Kabupaten Minahasa Utara, Sulawesi Utara","Kabupaten Minahasa Utara, Sulawesi Utara",SULAWESI UTARA,,Indonesia,087754132793,,,14.815.046,124.909.466,https://maps.google.com/?cid=0x0:0xac1803d1c069e917,
,building materials,Toko Bahan Bangunan,Depo Bangunan Baru,"Airmadidi Atas, Kec. Airmadidi, Kabupaten Minahasa Utara, Sulawesi Utara","Kabupaten Minahasa Utara, Sulawesi Utara",SULAWESI UTARA,,Indonesia,08114667779,,,14.209.652,1.249.858.983,https://maps.google.com/?cid=0x0:0x39d09d0fdcf3ce9a,
,building materials,Toko Bahan Bangunan,DeDo Supermarket,"Jl. Raya Manado - Bitung, Maumbi, Kec. Kalawat, Kabupaten Minahasa Utara, Sulawesi Utara","Kabupaten Minahasa Utara, Sulawesi Utara",SULAWESI UTARA,,Indonesia,082363111170,,,14.783.792,1.249.086.253,https://maps.google.com/?cid=0x0:0x2d4a0393891ebb97,
,building materials,Toko Bahan Bangunan,SULINDO BANGUNAN,"Jl. A.A. Maramis, Kairagi Dua, Kec. Mapanget, Kota Manado, Sulawesi Utara","Kota Manado, Sulawesi Utara",SULAWESI UTARA,,Indonesia,081340160552,,,14.981.172,1.248.875.725,https://maps.google.com/?cid=0x0:0xe98de942febc1f6f,
,building materials,Toko,Tk.Maumbi Jaya,"FWC8+WJ9, Watutumou II, Kec. Kalawat, Kabupaten Minahasa Utara, Sulawesi Utara","Kabupaten Minahasa Utara, Sulawesi Utara",SULAWESI UTARA,,Indonesia,,,,14.722.837,1.249.166.076,https://maps.google.com/?cid=0x0:0x568a8aabca453fb6,
,building materials,Toko Bahan Bangunan,Toko Bangunan Chiko Matungkas,"FXF9+7QQ, Jl. Sukur - Likupang, Matungkas, Kec. Dimembe, Kabupaten Minahasa Utara, Sulawesi Utara","Kabupaten Minahasa Utara, Sulawesi Utara",SULAWESI UTARA,,Indonesia,085340940004,,,14.732.046,1.249.694.978,https://maps.google.com/?cid=0x0:0xb10a524c66bf6d30,
,building materials,building materials,Kec. Kauditan,"Kabupaten Minahasa Utara, Sulawesi Utara","Kabupaten Minahasa Utara, Sulawesi Utara",SULAWESI UTARA,,Indonesia,,,,13.931.442,125.042.732,https://maps.google.com/?cid=0x0:0x2d255a96bf594260,
,building materials,Toko Bahan Bangunan,Kios IMANUEL,"desa, Kauditan II, Kec. Kauditan, Kabupaten Minahasa Utara, Sulawesi Utara","Kabupaten Minahasa Utara, Sulawesi Utara",SULAWESI UTARA,,Indonesia,082193319910,,,13.910.229,1.250.480.414,https://maps.google.com/?cid=0x0:0x1a0fb236dec656af,
,building materials,Agen Tenaga Kerja,PT MANADO BERKAH SEJATI,"Jl. Raya Manado - Bitung, Watudambo Dua, Kec. Kauditan, Kabupaten Minahasa Utara, Sulawesi Utara 95372","Watudambo Dua, Kec. Kauditan, Kabupaten Minahasa Utara",SULAWESI UTARA,95372.0,Indonesia,08114349080,,,14.067.468,1.250.730.119,https://maps.google.com/?cid=0x0:0xfe617a32e3864c80,
,building materials,Toko Bahan Bangunan,Batako KINORKOR,"92RR+56Q, Kawiley, Kec. Kauditan, Kabupaten Minahasa Utara, Sulawesi Utara","Kabupaten Minahasa Utara, Sulawesi Utara",SULAWESI UTARA,,Indonesia,085240128612,,,13.904.617,1.250.406.034,https://maps.google.com/?cid=0x0:0xa758ea5d29d8dddd,
,building materials,Toko Bahan Bangunan,UD BYU tatalaksana jual holowbrik,"C35J+Q43, Jl. Raya Manado - Bitung, Watudambo Dua, Kec. Matuari, Kota Bitung, Sulawesi Utara","Kota Bitung, Sulawesi Utara",SULAWESI UTARA,,Indonesia,,,,14.093.822,1.250.802.828,https://maps.google.com/?cid=0x0:0x1ef84469adee1112,
,building materials,Pusat Perbelanjaan,Tk El Jaya,"93W2+XG4, Unnamed Road, Kauditan I, Kec. Kauditan, Kabupaten Minahasa Utara, Sulawesi Utara","Kabupaten Minahasa Utara, Sulawesi Utara",SULAWESI UTARA,,Indonesia,,,,13.973.834,1.250.513.306,https://maps.google.com/?cid=0x0:0xdf9f22b8961d5f4e,
,building materials,Toko Perlengkapan Rumah,Tb El Jaya,"jl.trans Jl. Raya Manado - Bitung No.99, Kauditan II, Kec. Airmadidi, Kabupaten Minahasa Utara, Sulawesi Utara","Kabupaten Minahasa Utara, Sulawesi Utara",SULAWESI UTARA,,Indonesia,085240669235,,,13.974.047,1.250.512.824,https://maps.google.com/?cid=0x0:0xee0a9317a6c72e59,
,building materials,Toko Bahan Bangunan,UD. Klabat Indah,"Jl. Ir. Soekarno, Jalur Dua, Kec. Airmadidi, Kabupaten Minahasa Utara, Sulawesi Utara 95371","Jalur Dua, Kec. Airmadidi, Kabupaten Minahasa Utara",SULAWESI UTARA,95371.0,Indonesia,,,,14.288.105,1.249.870.974,https://maps.google.com/?cid=0x0:0x4e1cd39a663a68b5,
,building materials,Toko Bahan Bangunan,Depo Bangunan Baru,"Airmadidi Atas, Kec. Airmadidi, Kabupaten Minahasa Utara, Sulawesi Utara","Kabupaten Minahasa Utara, Sulawesi Utara",SULAWESI UTARA,,Indonesia,08114667779,,,14.209.652,1.249.858.983,https://maps.google.com/?cid=0x0:0x39d09d0fdcf3ce9a,
,building materials,Toko bahan makanan,Bless mart,"CX7X+3X6, Unnamed Road, Tumaluntung, Kec. Kauditan, Kabupaten Minahasa Utara, Sulawesi Utara","Kabupaten Minahasa Utara, Sulawesi Utara",SULAWESI UTARA,,Indonesia,,,,14.126.746,1.249.998.951,https://maps.google.com/?cid=0x0:0x8c1c8c778b2380e3,
,building materials,Toko Bahan Bangunan,Jual hollow brick padat,"9XW8+8FM, Jl. Sawangan, Sawangan, Kec. Airmadidi, Kabupaten Minahasa Utara, Sulawesi Utara","Kabupaten Minahasa Utara, Sulawesi Utara",SULAWESI UTARA,,Indonesia,08114311305,,,13.958.453,1.249.661.649,https://maps.google.com/?cid=0x0:0xf60ba3bec17ae380,
,building materials,Laboratorium,BlessPray Material,"C232+2W5, Paslaten, Kec. Kauditan, Kabupaten Minahasa Utara, Sulawesi Utara","Kabupaten Minahasa Utara, Sulawesi Utara",SULAWESI UTARA,,Indonesia,,,,14.026.186,125.002.366,https://maps.google.com/?cid=0x0:0x86f46181babbf566,
,building materials,Toko Bahan Bangunan,"Toko Bahan Bangunan Deandre""""","CXFR+3RH, Unnamed Road, Airmadidi Atas, Kec. Airmadidi, Kabupaten Minahasa Utara, Sulawesi Utara","Kabupaten Minahasa Utara, Sulawesi Utara",SULAWESI UTARA,,Indonesia,,,,14.226.814,1.249.920.987,https://maps.google.com/?cid=0x0:0xae28e79f39bf6c0a,
,building materials,building materials,Toko Bangunan UD. Gloria - MINUT,"Jl. Soekarno No.D-291, Sarongsong II, Kec. Dimembe, Kabupaten Minahasa Utara, Sulawesi Utara 95371","Sarongsong II, Kec. Dimembe, Kabupaten Minahasa Utara",SULAWESI UTARA,95371.0,Indonesia,081350408451,,,14.610.777,1.249.672.777,https://maps.google.com/?cid=0x0:0xd53f015364e010f4,
,building materials,Toko Bahan Bangunan,"UD. WENANG PERKASA - Building Material, Tools  Hardware","Jl. Adipura Raya, Kima Atas, Kec. Mapanget, Kota Manado, Sulawesi Utara","Kota Manado, Sulawesi Utara",SULAWESI UTARA,,Indonesia,082188228866,,,15.402.988,1.249.127.666,https://maps.google.com/?cid=0x0:0x162cd36145df143,
,building materials,Toko Bahan Bangunan,"Cipta Sarana, Sukur, Airmadidi","Jl. Raya Manado - Bitung, Sukur, Kec. Airmadidi, Kabupaten Minahasa Utara, Sulawesi Utara","Kabupaten Minahasa Utara, Sulawesi Utara",SULAWESI UTARA,,Indonesia,,,,14.476.341,1.249.596.084,https://maps.google.com/?cid=0x0:0x666bbfc04e00e06c,
,building materials,Toko Bahan Bangunan,Sumber Harapan,"Sarongsong I, Kec. Airmadidi, Kabupaten Minahasa Utara, Sulawesi Utara","Kabupaten Minahasa Utara, Sulawesi Utara",SULAWESI UTARA,,Indonesia,082122228701,,,14.284.998,1.249.789.791,https://maps.google.com/?cid=0x0:0x6102f8e8e85ca953,
,building materials,Toko Bahan Bangunan,Toko Bintang Klabat Pusat Baja Ringan,"Matungkas, Kec. Dimembe, Kabupaten Minahasa Utara, Sulawesi Utara 95373","Kec. Dimembe, Kabupaten Minahasa Utara",SULAWESI UTARA,95373.0,Indonesia,082396732432,,,14.691.659,1.249.672.677,https://maps.google.com/?cid=0x0:0xf7a7af35aeb789b7,
,building materials,Toko Bahan Bangunan,Toko Bangunan Alden,"Jl. SBY No.70, Sukur, Kec. Airmadidi, Kabupaten Minahasa Utara, Sulawesi Utara","Kabupaten Minahasa Utara, Sulawesi Utara",SULAWESI UTARA,,Indonesia,082366436061,,,14.611.442,1.249.666.508,https://maps.google.com/?cid=0x0:0xc92a017c991e4486,
,building materials,Pemasok bahan paving blok,Paving block UD SEJAHTERA BERSAMA NUSANTARA,"Airmadidi Atas, Kec. Airmadidi, Kabupaten Minahasa Utara, Sulawesi Utara","Kabupaten Minahasa Utara, Sulawesi Utara",SULAWESI UTARA,,Indonesia,085326400562,,,1.424.603,1.249.908.238,https://maps.google.com/?cid=0x0:0x589f563171dd6b44,
,building materials,Jasa Konstruksi dan Bangunan,Hollowbrick RATUBLOCK Watudambo,"C38V+HR7, Manembo-nembo Atas, Kec. Matuari, Kota Bitung, Sulawesi Utara","Kota Bitung, Sulawesi Utara",SULAWESI UTARA,,Indonesia,,,,14.164.146,1.250.945.526,https://maps.google.com/?cid=0x0:0x5086f1f8bfbd2ac8,
,building materials,Toko Bahan Bangunan,Toko Bangunan Chiko Matungkas,"FXF9+7QQ, Jl. Sukur - Likupang, Matungkas, Kec. Dimembe, Kabupaten Minahasa Utara, Sulawesi Utara","Kabupaten Minahasa Utara, Sulawesi Utara",SULAWESI UTARA,,Indonesia,085340940004,,,14.732.046,1.249.694.978,https://maps.google.com/?cid=0x0:0xb10a524c66bf6d30,
,building materials,Toko Bahan Bangunan,UD. Ria Jaya,"Sukur, Kec. Airmadidi, Kabupaten Minahasa Utara, Sulawesi Utara","Kabupaten Minahasa Utara, Sulawesi Utara",SULAWESI UTARA,,Indonesia,0811409476,,,14.503.394,1.249.601.121,https://maps.google.com/?cid=0x0:0x7edd56340f1e2460,
,building materials,Toko Bahan Bangunan,RR Hollowbrick,"FX85+9WC, Jl. Ir. Soekarno, Matungkas, Kec. Dimembe, Kabupaten Minahasa Utara, Sulawesi Utara","Kabupaten Minahasa Utara, Sulawesi Utara",SULAWESI UTARA,,Indonesia,0815237998888,,,14.650.694,1.249.592.622,https://maps.google.com/?cid=0x0:0xb9ec96033c8f53e4,
,building materials,Toko Bahan Bangunan,Toko Bangunan Agung Abadi,"Zero Point, Depan SPBU, Ruko Bevalue No.3, Matungkas, Kec. Dimembe, Manado, Sulawesi Utara","Manado, Sulawesi Utara",SULAWESI UTARA,,Indonesia,081356769191,,,14.612.429,1.249.665.856,https://maps.google.com/?cid=0x0:0x924560f0b7bf05bd,
,building materials,Toko Bahan Bangunan,Toko Bahan Bangunan Adel Jaya,"Jl. Arnold Mononutu, Airmadidi Atas, Kec. Airmadidi, Kota Manado, Sulawesi Utara 95371","Airmadidi Atas, Kec. Airmadidi, Kota Manado",SULAWESI UTARA,95371.0,Indonesia,081356527782,,,14.263.083,124.980.685,https://maps.google.com/?cid=0x0:0x99117017828bdce0,
,building materials,building materials,Kec. Kema,"Kabupaten Minahasa Utara, Sulawesi Utara","Kabupaten Minahasa Utara, Sulawesi Utara",SULAWESI UTARA,,Indonesia,,,,13.717.732,1.250.714.941,https://maps.google.com/?cid=0x0:0x9d12383cee2836a3,
,building materials,Agen Tenaga Kerja,PT MANADO BERKAH SEJATI,"Jl. Raya Manado - Bitung, Watudambo Dua, Kec. Kauditan, Kabupaten Minahasa Utara, Sulawesi Utara 95372","Watudambo Dua, Kec. Kauditan, Kabupaten Minahasa Utara",SULAWESI UTARA,95372.0,Indonesia,08114349080,,,14.067.468,1.250.730.119,https://maps.google.com/?cid=0x0:0xfe617a32e3864c80,
,building materials,Toko Bahan Bangunan,Kios IMANUEL,"desa, Kauditan II, Kec. Kauditan, Kabupaten Minahasa Utara, Sulawesi Utara","Kabupaten Minahasa Utara, Sulawesi Utara",SULAWESI UTARA,,Indonesia,082193319910,,,13.910.229,1.250.480.414,https://maps.google.com/?cid=0x0:0x1a0fb236dec656af,
,building materials,Toko Bahan Bangunan,Batako KINORKOR,"92RR+56Q, Kawiley, Kec. Kauditan, Kabupaten Minahasa Utara, Sulawesi Utara","Kabupaten Minahasa Utara, Sulawesi Utara",SULAWESI UTARA,,Indonesia,085240128612,,,13.904.617,1.250.406.034,https://maps.google.com/?cid=0x0:0xa758ea5d29d8dddd,
,building materials,Toko Bahan Bangunan,Toko Bangunan Bintang Ariska,"3 jl.patiwisata kema 3 kode pos 95372, Kema Dua, Kec. Kema, Kabupaten Minahasa Utara, Sulawesi Utara","Kabupaten Minahasa Utara, Sulawesi Utara",SULAWESI UTARA,,Indonesia,085240401177,,,13.640.032,125.073.831,https://maps.google.com/?cid=0x0:0x599f5134a4ba8da0,
,building materials,Pusat Perbelanjaan,Tk El Jaya,"93W2+XG4, Unnamed Road, Kauditan I, Kec. Kauditan, Kabupaten Minahasa Utara, Sulawesi Utara","Kabupaten Minahasa Utara, Sulawesi Utara",SULAWESI UTARA,,Indonesia,,,,13.973.834,1.250.513.306,https://maps.google.com/?cid=0x0:0xdf9f22b8961d5f4e,
,building materials,Toko Bahan Bangunan,Toko Bangunan Chiko Matungkas,"FXF9+7QQ, Jl. Sukur - Likupang, Matungkas, Kec. Dimembe, Kabupaten Minahasa Utara, Sulawesi Utara","Kabupaten Minahasa Utara, Sulawesi Utara",SULAWESI UTARA,,Indonesia,085340940004,,,14.732.046,1.249.694.978,https://maps.google.com/?cid=0x0:0xb10a524c66bf6d30,
,building materials,Toko Bahan Bangunan,"UD. WENANG PERKASA - Building Material, Tools  Hardware","Jl. Adipura Raya, Kima Atas, Kec. Mapanget, Kota Manado, Sulawesi Utara","Kota Manado, Sulawesi Utara",SULAWESI UTARA,,Indonesia,082188228866,,,15.402.988,1.249.127.666,https://maps.google.com/?cid=0x0:0x162cd36145df143,
,building materials,Toko Perlengkapan Rumah,Tb El Jaya,"jl.trans Jl. Raya Manado - Bitung No.99, Kauditan II, Kec. Airmadidi, Kabupaten Minahasa Utara, Sulawesi Utara","Kabupaten Minahasa Utara, Sulawesi Utara",SULAWESI UTARA,,Indonesia,085240669235,,,13.974.047,1.250.512.824,https://maps.google.com/?cid=0x0:0xee0a9317a6c72e59,
,building materials,Kantor Perusahaan,Laboratorium PT NSB BETON INDONESIA,"C35H+QW8, Watudambo Dua, Kec. Matuari, Kabupaten Minahasa Utara, Sulawesi Utara","Kabupaten Minahasa Utara, Sulawesi Utara",SULAWESI UTARA,,Indonesia,081340100231,,,14.094.174,1.250.798.316,https://maps.google.com/?cid=0x0:0xc9f88b0e211e2b7b,
,building materials,Toko,Kios STIVE,"83J7+FG7, Makalisung, Lilang, Kema, North Minahasa Regency, North Sulawesi","Kabupaten Minahasa Utara, Sulawesi Utara",SULAWESI UTARA,,Indonesia,085397610086,,,13.311.529,1.250.637.983,https://maps.google.com/?cid=0x0:0x89afc0afdbbbdb0,
,building materials,Toko Bahan Bangunan,Sambouw Material Bangunan,"Sagerat, WERU SATU, Kota Bitung, Sulawesi Utara 95546","WERU SATU, Kota Bitung",SULAWESI UTARA,95546.0,Indonesia,,,,14.277.442,1.251.047.106,https://maps.google.com/?cid=0x0:0x6b692f4e7abdb66a,
,building materials,Komplek perumahan,Bella Minahasa Mandiri,"Jl. Kauditan - Kema No.2, Kauditan I, Kec. Kauditan, Kabupaten Minahasa Utara, Sulawesi Utara 95372","Kauditan I, Kec. Kauditan, Kabupaten Minahasa Utara",SULAWESI UTARA,95372.0,Indonesia,043852227,,,13.931.567,1.250.432.665,https://maps.google.com/?cid=0x0:0x2cd15458cb657570,
,building materials,Laboratorium,BlessPray Material,"C232+2W5, Paslaten, Kec. Kauditan, Kabupaten Minahasa Utara, Sulawesi Utara","Kabupaten Minahasa Utara, Sulawesi Utara",SULAWESI UTARA,,Indonesia,,,,14.026.186,125.002.366,https://maps.google.com/?cid=0x0:0x86f46181babbf566,
,building materials,Kantor Perusahaan,PLTU SULUT 3,"93FP+JHH, Kema Satu, Kec. Kema, Kabupaten Minahasa Utara, Sulawesi Utara","Kabupaten Minahasa Utara, Sulawesi Utara",SULAWESI UTARA,,Indonesia,,,,13.740.609,1.250.864.987,https://maps.google.com/?cid=0x0:0xc6b90c35cfb42a18,
,building materials,Jasa Konstruksi dan Bangunan,Hollowbrick RATUBLOCK Watudambo,"C38V+HR7, Manembo-nembo Atas, Kec. Matuari, Kota Bitung, Sulawesi Utara","Kota Bitung, Sulawesi Utara",SULAWESI UTARA,,Indonesia,,,,14.164.146,1.250.945.526,https://maps.google.com/?cid=0x0:0x5086f1f8bfbd2ac8,
,building materials,Toko Bahan Bangunan,TB.MERIBA (Toko Bangunan),"7WX6+4XP, Taler, Tondano Tim., Kabupaten Minahasa, Sulawesi Utara","Kabupaten Minahasa, Sulawesi Utara",SULAWESI UTARA,,Indonesia,085696259199,,,12.978.375,1.249.124.531,https://maps.google.com/?cid=0x0:0x92ba361f80294412,
,building materials,Pemasok Bahan Bangunan,Toko Bangunan Cendrawasih,"Taler, Tondano Tim., Kabupaten Minahasa, Sulawesi Utara","Kabupaten Minahasa, Sulawesi Utara",SULAWESI UTARA,,Indonesia,081343561691,,,12.984.892,1.249.127.644,https://maps.google.com/?cid=0x0:0x563050a595f334a3,
,building materials,Taman,Kebun nilam syanet,"Kauditan I, Kec. Kauditan, Kabupaten Minahasa Utara, Sulawesi Utara","Kabupaten Minahasa Utara, Sulawesi Utara",SULAWESI UTARA,,Indonesia,,,,13.976.829,125.043.617,https://maps.google.com/?cid=0x0:0xac9298afbe719e42,
,building materials,Toko Bahan Bangunan,Toko bangunan tetap usaha kamasi 1,"Jl. Kuranga, Talete Dua, Kec. Tomohon Tengah, Kota Tomohon, Sulawesi Utara","Kota Tomohon, Sulawesi Utara",SULAWESI UTARA,,Indonesia,085256670010,,,13.303.169,1.248.348.179,https://maps.google.com/?cid=0x0:0xa51a2dec3d95451d,
,building materials,Toko Bahan Bangunan,UK Home Solution (Utama Karya),"Jl. Yos Sudarso No.2, Kairagi Weru, Kec. Paal Dua, Kota Manado, Sulawesi Utara 95129","Kairagi Weru, Kec. Paal Dua, Kota Manado",SULAWESI UTARA,95129.0,Indonesia,081222882323,,,14.967.511,1.248.771.159,https://maps.google.com/?cid=0x0:0x53122109844f7011,
,building materials,Kantor Perusahaan,AMI Gypsum,"Jl. Raya Manado - Bitung, Girian Weru Dua, Kec. Girian, Kota Bitung, Sulawesi Utara 95545","Girian Weru Dua, Kec. Girian, Kota Bitung",SULAWESI UTARA,95545.0,Indonesia,081356264667,,,14.297.355,1.251.170.961,https://maps.google.com/?cid=0x0:0x251df7d080a893bd,
,building materials,Toko Bahan Bangunan,Murah Jaya,"C4H7+MCH, Jl. S. H. Sarundajang, Girian Weru Satu, Kec. Girian, Kota Bitung, Sulawesi Utara","Kota Bitung, Sulawesi Utara",SULAWESI UTARA,,Indonesia,,,,14.291.917,1.251.135.938,https://maps.google.com/?cid=0x0:0x95036988e3fe4355,
,building materials,Toko,Kesita Abadi UD,"C4J3+PJ7, Girian Atas, Kec. Girian, Kota Bitung, Sulawesi Utara","Kota Bitung, Sulawesi Utara",SULAWESI UTARA,,Indonesia,043837100,,,1.431.786,125.104.061,https://maps.google.com/?cid=0x0:0xc0da0a51e590757e,
,building materials,Toko Kayu,UD Rahmat Kayu,"Jl. Raya Manado - Bitung, Manembo-nembo Atas, Kec. Matuari, Kota Bitung, Sulawesi Utara","Kota Bitung, Sulawesi Utara",SULAWESI UTARA,,Indonesia,085258047004,,,14.176.412,1.250.954.949,https://maps.google.com/?cid=0x0:0xa1af0b6fe6ce183,
,building materials,building materials,Kec. Likupang Bar.,"Kabupaten Minahasa Utara, Sulawesi Utara","Kabupaten Minahasa Utara, Sulawesi Utara",SULAWESI UTARA,,Indonesia,,,,1.692.583,1.250.117.119,https://maps.google.com/?cid=0x0:0x4ad9ed2bf8ddc336,
,building materials,Pasar bahan bangunan,Toko sinar berkat,"Desah, Mubune, Kec. Likupang Bar., Kota manado, Sulawesi Utara 95378","Mubune, Kec. Likupang Bar., Kota manado",SULAWESI UTARA,95378.0,Indonesia,081253583735,,,17.106.689,1.250.110.012,https://maps.google.com/?cid=0x0:0x139ab13effd89977,
,building materials,Toko Bahan Bangunan,Toko bahan bangunan dang listrik EXGLO Tarabitan,"PXPQ+XMX, Tarabitan, Kec. Likupang Bar., Kabupaten Minahasa Utara, Sulawesi Utara","Kabupaten Minahasa Utara, Sulawesi Utara",SULAWESI UTARA,,Indonesia,,,,17.374.822,1.249.892.412,https://maps.google.com/?cid=0x0:0x6f4146ae206562af,
,building materials,Toko Bahan Bangunan,Toko bangunan pak haji pian (Toko Amel),"Likupang II, Kec. Likupang Tim., Kabupaten Minahasa Utara, Sulawesi Utara 95375","Kec. Likupang Tim., Kabupaten Minahasa Utara",SULAWESI UTARA,95375.0,Indonesia,081356520798,,,16.732.482,1.250.612.162,https://maps.google.com/?cid=0x0:0xbcb61ae0385b4a57,
,building materials,Toko Bahan Bangunan,Toko Amazy,"M376+W6V, Likupang I, Kec. Likupang Tim., Kabupaten Minahasa Utara, Sulawesi Utara","Kabupaten Minahasa Utara, Sulawesi Utara",SULAWESI UTARA,,Indonesia,,,,16.648.723,1.250.605.498,https://maps.google.com/?cid=0x0:0x80cd06f913bf475f,
,building materials,Toko bahan makanan,Toko Berkat Usaha,"Jaga 4, Pontoh, Wori, Kabupaten Minahasa Utara, Sulawesi Utara 95376","Pontoh, Wori, Kabupaten Minahasa Utara",SULAWESI UTARA,95376.0,Indonesia,082196763582,,,16.399.345,1.249.220.934,https://maps.google.com/?cid=0x0:0x1b87281e083dfc2b,
,building materials,Toko Bahan Bangunan,Toko Bangunan HJM Kaweruan,"J22C+G3G, Jl. Airmadidi-Likupang, Kaweruan, Kec. Likupang Sel., Kabupaten Minahasa Utara, Sulawesi Utara","Kabupaten Minahasa Utara, Sulawesi Utara",SULAWESI UTARA,,Indonesia,085747398552,,,16.013.088,1.250.201.892,https://maps.google.com/?cid=0x0:0xf45518c24e5ac7ad,
,building materials,Toko Bahan Bangunan,Dhea Jaya,"Dekat, Wineru, Kec. Likupang Tim., Kabupaten Minahasa Utara, Sulawesi Utara 95375","Wineru, Kec. Likupang Tim., Kabupaten Minahasa Utara",SULAWESI UTARA,95375.0,Indonesia,,,,1.660.173,1.251.055.555,https://maps.google.com/?cid=0x0:0x10b842c850f1fcbb,
,building materials,building materials,Kec. Likupang Sel.,"Kabupaten Minahasa Utara, Sulawesi Utara","Kabupaten Minahasa Utara, Sulawesi Utara",SULAWESI UTARA,,Indonesia,,,,16.154.658,1.250.277.057,https://maps.google.com/?cid=0x0:0x1c90d6707d558a25,
,building materials,Toko Bahan Bangunan,Toko bangunan pak haji pian (Toko Amel),"Likupang II, Kec. Likupang Tim., Kabupaten Minahasa Utara, Sulawesi Utara 95375","Kec. Likupang Tim., Kabupaten Minahasa Utara",SULAWESI UTARA,95375.0,Indonesia,081356520798,,,16.732.482,1.250.612.162,https://maps.google.com/?cid=0x0:0xbcb61ae0385b4a57,
,building materials,Toko Bahan Bangunan,Toko bangunan LIKUPANG JAYA,"M395+QRX, Likupang II, Kec. Likupang Tim., Kabupaten Minahasa Utara, Sulawesi Utara","Kabupaten Minahasa Utara, Sulawesi Utara",SULAWESI UTARA,,Indonesia,,,,16.694.616,1.250.597.135,https://maps.google.com/?cid=0x0:0x7aece044884761f5,
,building materials,Grosir,Toko Samudra,"HX3X+HF6, Jl. Sukur - Likupang, Wasian, Kec. Dimembe, Kabupaten Minahasa Utara, Sulawesi Utara","Kabupaten Minahasa Utara, Sulawesi Utara",SULAWESI UTARA,,Indonesia,,,,15.539.114,1.249.986.522,https://maps.google.com/?cid=0x0:0x7a6ca99e7558105b,
,building materials,Toko Perlengkapan Rumah,Toko calista,"Jl. Sukur - Likupang, Wasian, Kec. Dimembe, Kabupaten Minahasa Utara, Sulawesi Utara","Kabupaten Minahasa Utara, Sulawesi Utara",SULAWESI UTARA,,Indonesia,085340002225,,,15.573.416,1.249.992.117,https://maps.google.com/?cid=0x0:0x1699510a19e62861,
,building materials,Pasar bahan bangunan,Toko sinar berkat,"Desah, Mubune, Kec. Likupang Bar., Kota manado, Sulawesi Utara 95378","Mubune, Kec. Likupang Bar., Kota manado",SULAWESI UTARA,95378.0,Indonesia,081253583735,,,17.106.689,1.250.110.012,https://maps.google.com/?cid=0x0:0x139ab13effd89977,
,building materials,Toko Bahan Bangunan,Toko bahan bangunan dang listrik EXGLO Tarabitan,"PXPQ+XMX, Tarabitan, Kec. Likupang Bar., Kabupaten Minahasa Utara, Sulawesi Utara","Kabupaten Minahasa Utara, Sulawesi Utara",SULAWESI UTARA,,Indonesia,,,,17.374.822,1.249.892.412,https://maps.google.com/?cid=0x0:0x6f4146ae206562af,
,building materials,Toko Bahan Bangunan,Toko Bangunan Chiko Matungkas,"FXF9+7QQ, Jl. Sukur - Likupang, Matungkas, Kec. Dimembe, Kabupaten Minahasa Utara, Sulawesi Utara","Kabupaten Minahasa Utara, Sulawesi Utara",SULAWESI UTARA,,Indonesia,085340940004,,,14.732.046,1.249.694.978,https://maps.google.com/?cid=0x0:0xb10a524c66bf6d30,
,building materials,Toko Bahan Bangunan,Toko Bangunan HJM Kaweruan,"J22C+G3G, Jl. Airmadidi-Likupang, Kaweruan, Kec. Likupang Sel., Kabupaten Minahasa Utara, Sulawesi Utara","Kabupaten Minahasa Utara, Sulawesi Utara",SULAWESI UTARA,,Indonesia,085747398552,,,16.013.088,1.250.201.892,https://maps.google.com/?cid=0x0:0xf45518c24e5ac7ad,
,building materials,Kantor Perusahaan,Anugerah Baru,"Jl. Sukur - Likupang lingkungan No.9, Wasian, Kec. Dimembe, Kabupaten Minahasa Utara, Sulawesi Utara","Kabupaten Minahasa Utara, Sulawesi Utara",SULAWESI UTARA,,Indonesia,,,,15.539.155,1.249.986.349,https://maps.google.com/?cid=0x0:0x68ad747c494409b4,
,building materials,Pusat Perbelanjaan,Pasar Likupang Dua (JN),"M3F6+M8J, Tim., Likupang II, Kec. Likupang Tim., Kabupaten Minahasa Utara, Sulawesi Utara","Kabupaten Minahasa Utara, Sulawesi Utara",SULAWESI UTARA,,Indonesia,081210472740,,,16.742.095,125.060.757,https://maps.google.com/?cid=0x0:0x8273c77a322c461d,
,building materials,building materials,Kec. Likupang Tim.,"Kabupaten Minahasa Utara, Sulawesi Utara","Kabupaten Minahasa Utara, Sulawesi Utara",SULAWESI UTARA,,Indonesia,,,,16.567.027,1.251.102.134,https://maps.google.com/?cid=0x0:0xfb7b50a78e0c1b1b,
,building materials,Toko Bahan Bangunan,Toko bangunan pak haji pian (Toko Amel),"Likupang II, Kec. Likupang Tim., Kabupaten Minahasa Utara, Sulawesi Utara 95375","Kec. Likupang Tim., Kabupaten Minahasa Utara",SULAWESI UTARA,95375.0,Indonesia,081356520798,,,16.732.482,1.250.612.162,https://maps.google.com/?cid=0x0:0xbcb61ae0385b4a57,
,building materials,Toko Bahan Bangunan,Toko bangunan LIKUPANG JAYA,"M395+QRX, Likupang II, Kec. Likupang Tim., Kabupaten Minahasa Utara, Sulawesi Utara","Kabupaten Minahasa Utara, Sulawesi Utara",SULAWESI UTARA,,Indonesia,,,,16.694.616,1.250.597.135,https://maps.google.com/?cid=0x0:0x7aece044884761f5,
,building materials,Toko Bahan Bangunan,Dhea Jaya,"Dekat, Wineru, Kec. Likupang Tim., Kabupaten Minahasa Utara, Sulawesi Utara 95375","Wineru, Kec. Likupang Tim., Kabupaten Minahasa Utara",SULAWESI UTARA,95375.0,Indonesia,,,,1.660.173,1.251.055.555,https://maps.google.com/?cid=0x0:0x10b842c850f1fcbb,
,building materials,Tukang Kayu,mebel Zivilia,"M584+XM6, Kinunang, Kec. Likupang Tim., Kabupaten Minahasa Utara, Sulawesi Utara","Kabupaten Minahasa Utara, Sulawesi Utara",SULAWESI UTARA,,Indonesia,,,,16.674.233,1.251.566.395,https://maps.google.com/?cid=0x0:0xc6c70cafe36421a,
,building materials,Grosir,Toko Samudra,"HX3X+HF6, Jl. Sukur - Likupang, Wasian, Kec. Dimembe, Kabupaten Minahasa Utara, Sulawesi Utara","Kabupaten Minahasa Utara, Sulawesi Utara",SULAWESI UTARA,,Indonesia,,,,15.539.114,1.249.986.522,https://maps.google.com/?cid=0x0:0x7a6ca99e7558105b,
,building materials,Toko Perlengkapan Rumah,Toko calista,"Jl. Sukur - Likupang, Wasian, Kec. Dimembe, Kabupaten Minahasa Utara, Sulawesi Utara","Kabupaten Minahasa Utara, Sulawesi Utara",SULAWESI UTARA,,Indonesia,085340002225,,,15.573.416,1.249.992.117,https://maps.google.com/?cid=0x0:0x1699510a19e62861,
,building materials,Pusat Perbelanjaan,Pasar Likupang Dua (JN),"M3F6+M8J, Tim., Likupang II, Kec. Likupang Tim., Kabupaten Minahasa Utara, Sulawesi Utara","Kabupaten Minahasa Utara, Sulawesi Utara",SULAWESI UTARA,,Indonesia,081210472740,,,16.742.095,125.060.757,https://maps.google.com/?cid=0x0:0x8273c77a322c461d,
,building materials,Kantor Perusahaan,Anugerah Baru,"Jl. Sukur - Likupang lingkungan No.9, Wasian, Kec. Dimembe, Kabupaten Minahasa Utara, Sulawesi Utara","Kabupaten Minahasa Utara, Sulawesi Utara",SULAWESI UTARA,,Indonesia,,,,15.539.155,1.249.986.349,https://maps.google.com/?cid=0x0:0x68ad747c494409b4,
,building materials,Toko Bahan Bangunan,Toko Bangunan HJM Kaweruan,"J22C+G3G, Jl. Airmadidi-Likupang, Kaweruan, Kec. Likupang Sel., Kabupaten Minahasa Utara, Sulawesi Utara","Kabupaten Minahasa Utara, Sulawesi Utara",SULAWESI UTARA,,Indonesia,085747398552,,,16.013.088,1.250.201.892,https://maps.google.com/?cid=0x0:0xf45518c24e5ac7ad,
,building materials,Toko bahan makanan,MULTI SMART,"DesaWarukapasKec, Jl. Sukur - Likupang Jaga VII, Kec. Dimembe, Kabupaten Minahasa Utara, Sulawesi Utara","Kabupaten Minahasa Utara, Sulawesi Utara",SULAWESI UTARA,,Indonesia,087761567845,,,15.226.921,1.249.883.092,https://maps.google.com/?cid=0x0:0x39a77d5e39d9eada,
,building materials,Toko Bahan Bangunan,Toko Bangunan Chiko Matungkas,"FXF9+7QQ, Jl. Sukur - Likupang, Matungkas, Kec. Dimembe, Kabupaten Minahasa Utara, Sulawesi Utara","Kabupaten Minahasa Utara, Sulawesi Utara",SULAWESI UTARA,,Indonesia,085340940004,,,14.732.046,1.249.694.978,https://maps.google.com/?cid=0x0:0xb10a524c66bf6d30,
,building materials,Pusat Perbelanjaan,UD Diareta,"GXFQ+MWR, Jl. Sukur - Likupang, Warukapas, Kec. Dimembe, Kabupaten Minahasa Utara, Sulawesi Utara","Kabupaten Minahasa Utara, Sulawesi Utara",SULAWESI UTARA,,Indonesia,085298625599,,,15.242.496,1.249.897.575,https://maps.google.com/?cid=0x0:0xf0abc32cc10421a4,
,building materials,Pasar bahan bangunan,Toko sinar berkat,"Desah, Mubune, Kec. Likupang Bar., Kota manado, Sulawesi Utara 95378","Mubune, Kec. Likupang Bar., Kota manado",SULAWESI UTARA,95378.0,Indonesia,081253583735,,,17.106.689,1.250.110.012,https://maps.google.com/?cid=0x0:0x139ab13effd89977,
,building materials,Toko Bahan Bangunan,Toko bahan bangunan dang listrik EXGLO Tarabitan,"PXPQ+XMX, Tarabitan, Kec. Likupang Bar., Kabupaten Minahasa Utara, Sulawesi Utara","Kabupaten Minahasa Utara, Sulawesi Utara",SULAWESI UTARA,,Indonesia,,,,17.374.822,1.249.892.412,https://maps.google.com/?cid=0x0:0x6f4146ae206562af,
,building materials,Kantor Perusahaan,PLTS Likupang,"M35W+GH9, Jl. Likupang-Girian, Wineru, Kec. Likupang Tim., Kabupaten Minahasa Utara, Sulawesi Utara","Kabupaten Minahasa Utara, Sulawesi Utara",SULAWESI UTARA,,Indonesia,,,,16.587.981,1.250.964.794,https://maps.google.com/?cid=0x0:0xd7187fc216beb02f,
,building materials,Toko Bahan Bangunan,Toko Elgio,"G325+5H6 jaga 6, Klabat, Kec. Dimembe, Kabupaten Minahasa Utara, Sulawesi Utara","Kabupaten Minahasa Utara, Sulawesi Utara",SULAWESI UTARA,,Indonesia,,,,15.004.081,1.250.588.788,https://maps.google.com/?cid=0x0:0x91b8dd84ce8d44aa,
,building materials,building materials,Sulawesi Utara 95373,"Paniki Atas, Kec. Talawaan, Kabupaten Minahasa Utara, Sulawesi Utara","Kabupaten Minahasa Utara, Sulawesi Utara",SULAWESI UTARA,,Indonesia,,,,14.974.733,1.249.238.636,https://maps.google.com/?cid=0x0:0x3a1e3c0a99b6788f,
,building materials,Toko Bahan Bangunan,Toko Permata Bangunan,"Mapanget, Kec. Talawaan, Kabupaten Minahasa Utara, Sulawesi Utara","Kabupaten Minahasa Utara, Sulawesi Utara",SULAWESI UTARA,,Indonesia,085761113911,,,15.353.249,1.249.290.076,https://maps.google.com/?cid=0x0:0xf49bcf0b466cfbd5,
,building materials,Toko Swalayan,Dembet Jaya,"GXH4+4MX, Talawaan, Kec. Talawaan, Kabupaten Minahasa Utara, Sulawesi Utara","Kabupaten Minahasa Utara, Sulawesi Utara",SULAWESI UTARA,,Indonesia,,,,15.278.509,1.249.567.664,https://maps.google.com/?cid=0x0:0xf981b524bc22af6c,
,building materials,Toko Bahan Bangunan,SULINDO BANGUNAN,"Jl. A.A. Maramis, Kairagi Dua, Kec. Mapanget, Kota Manado, Sulawesi Utara","Kota Manado, Sulawesi Utara",SULAWESI UTARA,,Indonesia,081340160552,,,14.981.172,1.248.875.725,https://maps.google.com/?cid=0x0:0xe98de942febc1f6f,
,building materials,Toko Bahan Bangunan,Bersinar,"Jl. Raya Manado - Bitung, Maumbi, Kec. Kalawat, Kabupaten Minahasa Utara, Sulawesi Utara","Kabupaten Minahasa Utara, Sulawesi Utara",SULAWESI UTARA,,Indonesia,,,,14.809.633,1.249.044.372,https://maps.google.com/?cid=0x0:0x72672058ff597ce7,
,building materials,Toko Bahan Bangunan,TB.MERIBA (Toko Bangunan),"7WX6+4XP, Taler, Tondano Tim., Kabupaten Minahasa, Sulawesi Utara","Kabupaten Minahasa, Sulawesi Utara",SULAWESI UTARA,,Indonesia,085696259199,,,12.978.375,1.249.124.531,https://maps.google.com/?cid=0x0:0x92ba361f80294412,
,building materials,Toko Bahan Bangunan,CV. Suma Tirta Kencana,"FVQR+3F3, Kairagi Tiram, Jl. Raya Manado - Bitung, Kairagi Satu, Kec. Mapanget, Kota Manado, Sulawesi Utara","Kota Manado, Sulawesi Utara",SULAWESI UTARA,,Indonesia,0431812333,,,14.878.452,124.890.946,https://maps.google.com/?cid=0x0:0x330362a456611672,
,building materials,Pemasok Bahan Bangunan,Toko Bangunan Cendrawasih,"Taler, Tondano Tim., Kabupaten Minahasa, Sulawesi Utara","Kabupaten Minahasa, Sulawesi Utara",SULAWESI UTARA,,Indonesia,081343561691,,,12.984.892,1.249.127.644,https://maps.google.com/?cid=0x0:0x563050a595f334a3,
,building materials,Pemasok kayu,Somil Om texen Maumbi,"FWJ5+JQ4, Jl. Raya Paniki Atas, Maumbi, Kec. Kalawat, Kabupaten Minahasa Utara, Sulawesi Utara","Kabupaten Minahasa Utara, Sulawesi Utara",SULAWESI UTARA,,Indonesia,087754132793,,,14.815.046,124.909.466,https://maps.google.com/?cid=0x0:0xac1803d1c069e917,
,building materials,Toko Bahan Bangunan,Batako Hollowbrick Murah,"HVMH+G8Q, Bantik, Kec. Talawaan, Kabupaten Minahasa Utara, Sulawesi Utara","Kabupaten Minahasa Utara, Sulawesi Utara",SULAWESI UTARA,,Indonesia,087768382529,,,15.837.948,1.248.783.832,https://maps.google.com/?cid=0x0:0x8dae0cb59e40bc05,
,building materials,Toko Bahan Bangunan,"UD. WENANG PERKASA - Building Material, Tools  Hardware","Jl. Adipura Raya, Kima Atas, Kec. Mapanget, Kota Manado, Sulawesi Utara","Kota Manado, Sulawesi Utara",SULAWESI UTARA,,Indonesia,082188228866,,,15.402.988,1.249.127.666,https://maps.google.com/?cid=0x0:0x162cd36145df143,
,building materials,Toko,"Toko Material, Pasir, Batu, Kerikil, Teras, Fullbrick, Batu Bata","CRHQ+6CC, Pineleng I, Kec. Pineleng, Kabupaten Minahasa, Sulawesi Utara","Kabupaten Minahasa, Sulawesi Utara",SULAWESI UTARA,,Indonesia,081342993174,,,1.428.055,1.248.385.021,https://maps.google.com/?cid=0x0:0x6254618d7117c868,
,building materials,Toko Bahan Bangunan,Tb sinar abadi,"GR7X+C5H, Mahawu, Kec. Tuminting, Kota Manado, Sulawesi Utara 95239","Mahawu, Kec. Tuminting, Kota Manado",SULAWESI UTARA,95239.0,Indonesia,082297952223,,,1.513.567,1.248.479.935,https://maps.google.com/?cid=0x0:0x70aa7336c5a23df1,
,building materials,Toko Bahan Bangunan,Mini Market Dembet Jaya Talawaan,"GXH4+5PG, Talawaan, Kec. Talawaan, Kabupaten Minahasa Utara, Sulawesi Utara","Kabupaten Minahasa Utara, Sulawesi Utara",SULAWESI UTARA,,Indonesia,0431817591,,,1.527.931,124.956.838,https://maps.google.com/?cid=0x0:0xb9c81453db77b644,
,building materials,Toko Bahan Bangunan,Berkat Mandiri Ochang Tk. Bangunan,"Jl. Raya Manado - Wori, Wori, Kabupaten Minahasa Utara, Sulawesi Utara","Kabupaten Minahasa Utara, Sulawesi Utara",SULAWESI UTARA,,Indonesia,085298722828,,,15.782.949,1.248.653.078,https://maps.google.com/?cid=0x0:0x864cde40bfb6c0b4,
,building materials,Toko bahan makanan,Toko Berkat Usaha,"Jaga 4, Pontoh, Wori, Kabupaten Minahasa Utara, Sulawesi Utara 95376","Pontoh, Wori, Kabupaten Minahasa Utara",SULAWESI UTARA,95376.0,Indonesia,082196763582,,,16.399.345,1.249.220.934,https://maps.google.com/?cid=0x0:0x1b87281e083dfc2b,
,building materials,Toko Bahan Bangunan,BERDIKARI Toko Bangunan dan Batako,"HVGC+WQ9, Wori, Kabupaten Minahasa Utara, Sulawesi Utara","Kabupaten Minahasa Utara, Sulawesi Utara",SULAWESI UTARA,,Indonesia,,,,15.772.974,1.248.719.727,https://maps.google.com/?cid=0x0:0x1055786722e03420,
,building materials,Toko Bahan Insulasi,Workshop,"FVWW+H3V, Kairagi Dua, Kec. Mapanget, Kota Manado, Sulawesi Utara","Kota Manado, Sulawesi Utara",SULAWESI UTARA,,Indonesia,,,,14.964.906,1.248.951.671,https://maps.google.com/?cid=0x0:0x3decafe4015986d0,
,building materials,Kantor Perusahaan,WORKSHOP RUMAH KAYU MANADO (PT. Woloan Permai Perkasa),"Woloan Dua, Woloan Satu, Kec. Tomohon Bar., Kota Tomohon, Sulawesi Utara 95422","Woloan Satu, Kec. Tomohon Bar., Kota Tomohon",SULAWESI UTARA,95422.0,Indonesia,08151604111,,,13.113.281,1.248.035.895,https://maps.google.com/?cid=0x0:0x30f6d20ea91f00d5,
,building materials,building materials,Wori,"Kabupaten Minahasa Utara, Sulawesi Utara","Kabupaten Minahasa Utara, Sulawesi Utara",SULAWESI UTARA,,Indonesia,,,,15.986.509,1.248.599.034,https://maps.google.com/?cid=0x0:0x1e44c8cf84925b11,
,building materials,Toko Bahan Bangunan,Toko Bangunan Sinar Perempatan,"HV8F+RQ3, Jl. Wori Kel Pandu, Pandu, Kec. Mapanget, Kota Manado, Sulawesi Utara","Kota Manado, Sulawesi Utara",SULAWESI UTARA,,Indonesia,,,,15.670.063,1.248.744.326,https://maps.google.com/?cid=0x0:0xf0d44e08a6373b8f,
,building materials,Toko Bahan Bangunan,Batako Hollowbrick Murah,"HVMH+G8Q, Bantik, Kec. Talawaan, Kabupaten Minahasa Utara, Sulawesi Utara","Kabupaten Minahasa Utara, Sulawesi Utara",SULAWESI UTARA,,Indonesia,087768382529,,,15.837.948,1.248.783.832,https://maps.google.com/?cid=0x0:0x8dae0cb59e40bc05,
,building materials,Toko Bahan Bangunan,"UD. WENANG PERKASA - Building Material, Tools  Hardware","Jl. Adipura Raya, Kima Atas, Kec. Mapanget, Kota Manado, Sulawesi Utara","Kota Manado, Sulawesi Utara",SULAWESI UTARA,,Indonesia,082188228866,,,15.402.988,1.249.127.666,https://maps.google.com/?cid=0x0:0x162cd36145df143,
,building materials,Toko Bahan Bangunan,Toko Sinar Pandu,"HV4C+JM8, Jl. Raya Manado - Wori, Pandu, Kec. Mapanget, Kota Manado, Sulawesi Utara","Kota Manado, Sulawesi Utara",SULAWESI UTARA,,Indonesia,,,,1.556.528,1.248.716.947,https://maps.google.com/?cid=0x0:0xab4dd425940dbfb5,
,building materials,Kompleks Townhouse,Korpri Abadi,"GWFM+83C, Jl. Manado-Dimembe, Mapanget, Kec. Talawaan, Kabupaten Minahasa Utara, Sulawesi Utara","Kabupaten Minahasa Utara, Sulawesi Utara",SULAWESI UTARA,,Indonesia,,,,15.233.189,12.493.264,https://maps.google.com/?cid=0x0:0xf78ec0cce2cd02f1,
,building materials,Toko Bahan Bangunan,UD MARKOLINK,"Paniki Dua, Kec. Mapanget, Kota Manado, Sulawesi Utara","Kota Manado, Sulawesi Utara",SULAWESI UTARA,,Indonesia,085256732552,,,15.171.433,1.249.257.762,https://maps.google.com/?cid=0x0:0xdadcfef9d0d96e4b,
,building materials,Toko Bahan Bangunan,TOKO CAHAYA ABADI PANDU,"HV6F+976, Pandu, Kec. Mapanget, Kota Manado, Sulawesi Utara","Kota Manado, Sulawesi Utara",SULAWESI UTARA,,Indonesia,,,,15.609.229,1.248.731.305,https://maps.google.com/?cid=0x0:0xd58cd9eec0ca828b,
,building materials,Toko bahan makanan,Kios BERKAT USAHA,"FWR7+32M, Jl. Raya Paniki Atas, Paniki Atas, Kec. Talawaan, Kabupaten Minahasa Utara, Sulawesi Utara","Kabupaten Minahasa Utara, Sulawesi Utara",SULAWESI UTARA,,Indonesia,,,,14.902.221,1.249.125.427,https://maps.google.com/?cid=0x0:0x4ceb9f945ca273e0,
,building materials,Pemasok Semen Ready-mix,PT Varia Usaha Beton,"Jl. Kima Raya 2 Blok S-1b, s-2, Kima Atas, Mapanget, Manado City, North Sulawesi 90242","s-2, Kima Atas, Mapanget, Manado City",SULAWESI UTARA,90242.0,Indonesia,,,,15.580.317,1.249.069.444,https://maps.google.com/?cid=0x0:0xad088e320c56eecf,
,toko bangunan,toko bangunan,Sulawesi Utara 95371,"Airmadidi Atas, Kec. Airmadidi, Kabupaten Minahasa Utara, Sulawesi Utara","Kabupaten Minahasa Utara, Sulawesi Utara",SULAWESI UTARA,,Indonesia,,,,14.172.327,1.249.876.821,https://maps.google.com/?cid=0x0:0x80e87fd6189d70fc,
,toko bangunan,Toko Bahan Bangunan,Depo Bangunan Baru,"Airmadidi Atas, Kec. Airmadidi, Kabupaten Minahasa Utara, Sulawesi Utara","Kabupaten Minahasa Utara, Sulawesi Utara",SULAWESI UTARA,,Indonesia,08114667779,,,14.209.652,1.249.858.983,https://maps.google.com/?cid=0x0:0x39d09d0fdcf3ce9a,
,toko bangunan,Toko Bahan Bangunan,Toko Bangunan Alden,"Jl. SBY No.70, Sukur, Kec. Airmadidi, Kabupaten Minahasa Utara, Sulawesi Utara","Kabupaten Minahasa Utara, Sulawesi Utara",SULAWESI UTARA,,Indonesia,082366436061,,,14.611.442,1.249.666.508,https://maps.google.com/?cid=0x0:0xc92a017c991e4486,
,toko bangunan,Toko Bahan Bangunan,"Toko Bahan Bangunan Deandre""""","CXFR+3RH, Unnamed Road, Airmadidi Atas, Kec. Airmadidi, Kabupaten Minahasa Utara, Sulawesi Utara","Kabupaten Minahasa Utara, Sulawesi Utara",SULAWESI UTARA,,Indonesia,,,,14.226.814,1.249.920.987,https://maps.google.com/?cid=0x0:0xae28e79f39bf6c0a,
,toko bangunan,Toko Bahan Bangunan,Toko Bahan Bangunan Adel Jaya,"Jl. Arnold Mononutu, Airmadidi Atas, Kec. Airmadidi, Kota Manado, Sulawesi Utara 95371","Airmadidi Atas, Kec. Airmadidi, Kota Manado",SULAWESI UTARA,95371.0,Indonesia,081356527782,,,14.263.083,124.980.685,https://maps.google.com/?cid=0x0:0x99117017828bdce0,
,toko bangunan,Toko Bahan Bangunan,Toko bangunan Rejeki Jaya,"CXX5+7G4, Jl. Sukur - Likupang, Sukur, Kec. Airmadidi, Kabupaten Minahasa Utara, Sulawesi Utara","Kabupaten Minahasa Utara, Sulawesi Utara",SULAWESI UTARA,,Indonesia,0811431341,,,14.481.495,1.249.588.422,https://maps.google.com/?cid=0x0:0x30a202e84321b74d,
,toko bangunan,Toko Bahan Bangunan,"Cipta Sarana, Sukur, Airmadidi","Jl. Raya Manado - Bitung, Sukur, Kec. Airmadidi, Kabupaten Minahasa Utara, Sulawesi Utara","Kabupaten Minahasa Utara, Sulawesi Utara",SULAWESI UTARA,,Indonesia,,,,14.476.341,1.249.596.084,https://maps.google.com/?cid=0x0:0x666bbfc04e00e06c,
,toko bangunan,Toko Bahan Bangunan,Toko Bangunan Pelangi Jaya,"CXCP+8C6, Jl. Arnold Mononutu, Airmadidi Atas, Kec. Airmadidi, Kabupaten Minahasa Utara, Sulawesi Utara","Kabupaten Minahasa Utara, Sulawesi Utara",SULAWESI UTARA,,Indonesia,0431892154,,,14.207.968,1.249.860.006,https://maps.google.com/?cid=0x0:0xfaa036c485707fb1,
,toko bangunan,Toko Perlengkapan Rumah,Toko Sumber Meubel Elektronik Bangunan,"Jl. Raya Manado - Bitung, Sarongsong I, Kec. Airmadidi, Kabupaten Minahasa Utara, Sulawesi Utara","Kabupaten Minahasa Utara, Sulawesi Utara",SULAWESI UTARA,,Indonesia,085146472422,,,14.279.751,1.249.791.172,https://maps.google.com/?cid=0x0:0xfe4620b5cfc9b497,
,toko bangunan,Toko Bahan Bangunan,Toko Bangunan Palaron,"Jl Wanua ure, Sukur, Kec. Airmadidi, Manado, Sulawesi Utara 95371","Sukur, Kec. Airmadidi, Manado",SULAWESI UTARA,95371.0,Indonesia,085342896522,,,14.366.318,1.249.650.486,https://maps.google.com/?cid=0x0:0x38b999988966bc93,
,toko bangunan,Toko,Toko GRAND HARDWARE,"CXJH+22P, Sarongsong I, Kec. Airmadidi, Kabupaten Minahasa Utara, Sulawesi Utara","Kabupaten Minahasa Utara, Sulawesi Utara",SULAWESI UTARA,,Indonesia,,,,14.300.932,1.249.775.741,https://maps.google.com/?cid=0x0:0xd5bea6e4e94329b1,
,toko bangunan,Toko Perlengkapan Rumah,MR.DIY,"Jl. Raya Manado - Bitung No.871, Airmadidi Atas, Kec. Airmadidi, Kabupaten Minahasa Utara, Sulawesi Utara","Kabupaten Minahasa Utara, Sulawesi Utara",SULAWESI UTARA,,Indonesia,,,,1.419.665,1.249.877.989,https://maps.google.com/?cid=0x0:0x6b10aff0b5f80bb8,
,toko bangunan,Toko Bahan Bangunan,Toko Bangunan Chiko Matungkas,"FXF9+7QQ, Jl. Sukur - Likupang, Matungkas, Kec. Dimembe, Kabupaten Minahasa Utara, Sulawesi Utara","Kabupaten Minahasa Utara, Sulawesi Utara",SULAWESI UTARA,,Indonesia,085340940004,,,14.732.046,1.249.694.978,https://maps.google.com/?cid=0x0:0xb10a524c66bf6d30,
,toko bangunan,Toko Bahan Bangunan,TOKO SURYA JAYA,"Matungkas, Kec. Dimembe, Kabupaten Minahasa Utara, Sulawesi Utara","Kabupaten Minahasa Utara, Sulawesi Utara",SULAWESI UTARA,,Indonesia,085761113781,,,14.753.625,1.249.663.016,https://maps.google.com/?cid=0x0:0xeb72aa0f66a8a80b,
,toko bangunan,Toko Bahan Bangunan,Tk. Bahan bangunan VIFANLIA,"Jl. Raya Manado - Bitung, Sukur, Kec. Airmadidi, Kabupaten Minahasa Utara, Sulawesi Utara","Kabupaten Minahasa Utara, Sulawesi Utara",SULAWESI UTARA,,Indonesia,085341918984,,,14.491.178,1.249.581.447,https://maps.google.com/?cid=0x0:0xc22266a1dd8ff5c0,
,toko bangunan,Toko Bahan Bangunan,TOKO BANGUNAN MS,"Dekat matungkas , kec dimembe, Jl. Raya Likupang, Kec. Airmadidi, Sulawesi Utara 95371","kec dimembe, Jl. Raya Likupang, Kec. Airmadidi",SULAWESI UTARA,95371.0,Indonesia,085396672112,,,14.667.282,124.966.547,https://maps.google.com/?cid=0x0:0x56f7823a657be343,
,toko bangunan,Toko Bahan Bangunan,TOKO BANGUNAN RIZKY BADAS,"Kawangkoan, Kec. Kalawat, Kabupaten Minahasa Utara, Sulawesi Utara","Kabupaten Minahasa Utara, Sulawesi Utara",SULAWESI UTARA,,Indonesia,081330119059,,,14.590.841,1.249.327.088,https://maps.google.com/?cid=0x0:0x99b35880d1e58868,
,toko bangunan,Toko Alat Tulis Kantor,Toko Trendy Airmadidi,"Rumah Sakit Umum Tonsea, Sarongsong I, Kec. Airmadidi, Kabupaten Minahasa Utara, Sulawesi Utara","Kabupaten Minahasa Utara, Sulawesi Utara",SULAWESI UTARA,,Indonesia,,,,14.273.575,1.249.787.793,https://maps.google.com/?cid=0x0:0xf99c9aa0fefefbbf,
,toko bangunan,Toko Bahan Bangunan,Lancar Jaya Bangunan,"CXJG+X2P, Jl. Raya Manado - Bitung, Sarongsong II, Kec. Airmadidi, Kabupaten Minahasa Utara, Sulawesi Utara","Kabupaten Minahasa Utara, Sulawesi Utara",SULAWESI UTARA,,Indonesia,,,,14.324.515,1.249.750.698,https://maps.google.com/?cid=0x0:0x1a5bcb53e44112e8,
,toko bangunan,Toko bahan makanan,Toko Lancar Jaya Bangunan  Aneka Plastik,"Jl. Raya Manado - Bitung No.Kel, Sarongsong I, Kec. Airmadidi, Kabupaten Minahasa Utara, Sulawesi Utara","Kabupaten Minahasa Utara, Sulawesi Utara",SULAWESI UTARA,,Indonesia,085100170177,,,14.235.877,1.249.834.191,https://maps.google.com/?cid=0x0:0xc218799e8ebb6215,
,toko bangunan,Toko Bahan Bangunan,UD. Ria Jaya,"Sukur, Kec. Airmadidi, Kabupaten Minahasa Utara, Sulawesi Utara","Kabupaten Minahasa Utara, Sulawesi Utara",SULAWESI UTARA,,Indonesia,0811409476,,,14.503.394,1.249.601.121,https://maps.google.com/?cid=0x0:0x7edd56340f1e2460,
,toko bangunan,toko bangunan,Sulawesi Utara 95373,"Paniki Atas, Kec. Talawaan, Kabupaten Minahasa Utara, Sulawesi Utara","Kabupaten Minahasa Utara, Sulawesi Utara",SULAWESI UTARA,,Indonesia,,,,14.974.733,1.249.238.636,https://maps.google.com/?cid=0x0:0x3a1e3c0a99b6788f,
,toko bangunan,Toko Bahan Bangunan,TOKO SURYA JAYA,"Matungkas, Kec. Dimembe, Kabupaten Minahasa Utara, Sulawesi Utara","Kabupaten Minahasa Utara, Sulawesi Utara",SULAWESI UTARA,,Indonesia,085761113781,,,14.753.625,1.249.663.016,https://maps.google.com/?cid=0x0:0xeb72aa0f66a8a80b,
,toko bangunan,Toko Bahan Bangunan,UD.Murni 2 Dimembe - Toko Material dan Bahan Bangunan,"Samping Lorong Olahraga, Jl. Sukur - Likupang, Jaga V, Kec. Dimembe, Kabupaten Minahasa Utara, Sulawesi Utara 95373","Jl. Sukur - Likupang, Jaga V, Kec. Dimembe, Kabupaten Minahasa Utara",SULAWESI UTARA,95373.0,Indonesia,,,,14.907.004,1.249.758.544,https://maps.google.com/?cid=0x0:0xb183ee6014b14e0b,
,toko bangunan,Toko Bahan Bangunan,Toko Bangunan Chiko Matungkas,"FXF9+7QQ, Jl. Sukur - Likupang, Matungkas, Kec. Dimembe, Kabupaten Minahasa Utara, Sulawesi Utara","Kabupaten Minahasa Utara, Sulawesi Utara",SULAWESI UTARA,,Indonesia,085340940004,,,14.732.046,1.249.694.978,https://maps.google.com/?cid=0x0:0xb10a524c66bf6d30,
,toko bangunan,Toko Bahan Bangunan,Toko Bangunan Malak Matungkas,"FXC9+636, Matungkas Jaga X, Kec. Dimembe, Kabupaten Minahasa Utara, Sulawesi Utara","Kabupaten Minahasa Utara, Sulawesi Utara",SULAWESI UTARA,,Indonesia,081356833133,,,14.705.375,1.249.676.406,https://maps.google.com/?cid=0x0:0x1c9d1d8d885ff988,
,toko bangunan,Toko Bahan Bangunan,Toko Bangunan Berkat Anugerah,"FXGC+56F, Matungkas, Kec. Dimembe, Kabupaten Minahasa Utara, Sulawesi Utara","Kabupaten Minahasa Utara, Sulawesi Utara",SULAWESI UTARA,,Indonesia,085166903897,,,14.754.432,1.249.705.573,https://maps.google.com/?cid=0x0:0x5392f2726457469d,
,toko bangunan,Toko Perlengkapan Rumah,Toko Bangunan Jaya Tetey,"GXF6+528, Tetey, Kec. Dimembe, Kabupaten Minahasa Utara, Sulawesi Utara","Kabupaten Minahasa Utara, Sulawesi Utara",SULAWESI UTARA,,Indonesia,081356412097,,,15.229.244,1.249.600.769,https://maps.google.com/?cid=0x0:0x5a0684c8b62a34d,
,toko bangunan,Toko Bahan Bangunan,Toko Bangunan Agung Abadi,"Zero Point, Depan SPBU, Ruko Bevalue No.3, Matungkas, Kec. Dimembe, Manado, Sulawesi Utara","Manado, Sulawesi Utara",SULAWESI UTARA,,Indonesia,081356769191,,,14.612.429,1.249.665.856,https://maps.google.com/?cid=0x0:0x924560f0b7bf05bd,
,toko bangunan,Toko Bahan Bangunan,Duta Bangunan UD,"HX2X+R8M, Wasian, Kec. Dimembe, Kabupaten Minahasa Utara, Sulawesi Utara","Kabupaten Minahasa Utara, Sulawesi Utara",SULAWESI UTARA,,Indonesia,0431893623,,,15.520.905,1.249.982.821,https://maps.google.com/?cid=0x0:0xf6fcbb9443ad3ce9,
,toko bangunan,Toko Bahan Bangunan,DeDo Supermarket,"Jl. Raya Manado - Bitung, Maumbi, Kec. Kalawat, Kabupaten Minahasa Utara, Sulawesi Utara","Kabupaten Minahasa Utara, Sulawesi Utara",SULAWESI UTARA,,Indonesia,082363111170,,,14.783.792,1.249.086.253,https://maps.google.com/?cid=0x0:0x2d4a0393891ebb97,
,toko bangunan,Toko Bahan Bangunan,TOKO BANGUNAN RIZKY BADAS,"Kawangkoan, Kec. Kalawat, Kabupaten Minahasa Utara, Sulawesi Utara","Kabupaten Minahasa Utara, Sulawesi Utara",SULAWESI UTARA,,Indonesia,081330119059,,,14.590.841,1.249.327.088,https://maps.google.com/?cid=0x0:0x99b35880d1e58868,
,toko bangunan,Toko Bahan Bangunan,Triberkat Toko Bangunan,"FV2M+H3P, Sawangan, Kec. Tombulu, Kabupaten Minahasa, Sulawesi Utara","Kabupaten Minahasa, Sulawesi Utara",SULAWESI UTARA,,Indonesia,,,,14.516.151,1.248.823.958,https://maps.google.com/?cid=0x0:0xb1724ee606aad0ec,
,toko bangunan,Kios,Toko Bangunan dan Sembako,"FW88+HJJ, Watutumou II, Kec. Kalawat, Kabupaten Minahasa Utara, Sulawesi Utara","Kabupaten Minahasa Utara, Sulawesi Utara",SULAWESI UTARA,,Indonesia,087773953145,,,14.664.691,1.249.165.212,https://maps.google.com/?cid=0x0:0x21990419e38de381,
,toko bangunan,Toko Bahan Bangunan,TB.MERIBA (Toko Bangunan),"7WX6+4XP, Taler, Tondano Tim., Kabupaten Minahasa, Sulawesi Utara","Kabupaten Minahasa, Sulawesi Utara",SULAWESI UTARA,,Indonesia,085696259199,,,12.978.375,1.249.124.531,https://maps.google.com/?cid=0x0:0x92ba361f80294412,
,toko bangunan,Pemasok Bahan Bangunan,Toko Bangunan Cendrawasih,"Taler, Tondano Tim., Kabupaten Minahasa, Sulawesi Utara","Kabupaten Minahasa, Sulawesi Utara",SULAWESI UTARA,,Indonesia,081343561691,,,12.984.892,1.249.127.644,https://maps.google.com/?cid=0x0:0x563050a595f334a3,
,toko bangunan,Toko Bahan Bangunan,Toko Bangunan Sinar Berkat,"Warembungan, Kec. Pineleng, Kabupaten Minahasa, Sulawesi Utara","Kabupaten Minahasa, Sulawesi Utara",SULAWESI UTARA,,Indonesia,082259753525,,,1.417.257,124.821.793,https://maps.google.com/?cid=0x0:0x9454d0623758efea,
,toko bangunan,Pasar bahan bangunan,Toko Bangunan Wapon Jaya,"Jl. Sea induk, Sea I, Kec. Pineleng, Kabupaten Minahasa, Sulawesi Utara","Kabupaten Minahasa, Sulawesi Utara",SULAWESI UTARA,,Indonesia,085340309099,,,14.291.092,1.247.997.913,https://maps.google.com/?cid=0x0:0x2216e5af37ff6b7a,
,toko bangunan,Grosir,Toko Samudra,"HX3X+HF6, Jl. Sukur - Likupang, Wasian, Kec. Dimembe, Kabupaten Minahasa Utara, Sulawesi Utara","Kabupaten Minahasa Utara, Sulawesi Utara",SULAWESI UTARA,,Indonesia,,,,15.539.114,1.249.986.522,https://maps.google.com/?cid=0x0:0x7a6ca99e7558105b,
,toko bangunan,Toko Perlengkapan Rumah,Toko Sumber Meubel Elektronik Bangunan,"Jl. Raya Manado - Bitung, Sarongsong I, Kec. Airmadidi, Kabupaten Minahasa Utara, Sulawesi Utara","Kabupaten Minahasa Utara, Sulawesi Utara",SULAWESI UTARA,,Indonesia,085146472422,,,14.279.751,1.249.791.172,https://maps.google.com/?cid=0x0:0xfe4620b5cfc9b497,
,toko bangunan,Toko Bahan Bangunan,Toko Elgio,"G325+5H6 jaga 6, Klabat, Kec. Dimembe, Kabupaten Minahasa Utara, Sulawesi Utara","Kabupaten Minahasa Utara, Sulawesi Utara",SULAWESI UTARA,,Indonesia,,,,15.004.081,1.250.588.788,https://maps.google.com/?cid=0x0:0x91b8dd84ce8d44aa,
,toko bangunan,Toko Bahan Bangunan,Depo Bangunan Baru,"Airmadidi Atas, Kec. Airmadidi, Kabupaten Minahasa Utara, Sulawesi Utara","Kabupaten Minahasa Utara, Sulawesi Utara",SULAWESI UTARA,,Indonesia,08114667779,,,14.209.652,1.249.858.983,https://maps.google.com/?cid=0x0:0x39d09d0fdcf3ce9a,
,toko bangunan,Kantor Perusahaan,CV Bangunan Karya Mandiri,"Jl. Trans Sulawesi No.mor 88, Tateli, Kec. Mandolang, Kabupaten Minahasa, Sulawesi Utara 95661","Tateli, Kec. Mandolang, Kabupaten Minahasa",SULAWESI UTARA,95661.0,Indonesia,081389898887,,,14.418.019,1.247.530.328,https://maps.google.com/?cid=0x0:0x8c3a90a3b9407031,
,toko bangunan,Toko Bahan Bangunan,Toko Sumber Bangunan Pineleng,"CRGQ+VCG, Jl. Raya Manado Tomohon, Pineleng I, Kec. Pineleng, Kabupaten Minahasa, Sulawesi Utara","Kabupaten Minahasa, Sulawesi Utara",SULAWESI UTARA,,Indonesia,,,,14.271.958,1.248.385.828,https://maps.google.com/?cid=0x0:0x5bfd3a32058d5029,
,toko bangunan,Toko Bahan Bangunan,Kios Devin,"FX9C+FPX, Matungkas, Kec. Dimembe, Kabupaten Minahasa Utara, Sulawesi Utara","Kabupaten Minahasa Utara, Sulawesi Utara",SULAWESI UTARA,,Indonesia,,,,14.686.889,1.249.717.395,https://maps.google.com/?cid=0x0:0x7c2c40fb8a21903e,
,toko bangunan,Toko Bahan Bangunan,Toko Bangunan Sumber Mas,"6VJ7+Q9H, Jl. Tondano - Kakas, Timu, Kec. Remboken, Kabupaten Minahasa, Sulawesi Utara","Kabupaten Minahasa, Sulawesi Utara",SULAWESI UTARA,,Indonesia,082310002528,,,12.319.396,1.248.634.961,https://maps.google.com/?cid=0x0:0x15d858ffa7b9cdcc,
,toko bangunan,Toko Bahan Bangunan,Toko Bahan Bangunan,"FRWX+995, Jl. Soputan, Singkil Satu, Kec. Singkil, Kota Manado, Sulawesi Utara","Kota Manado, Sulawesi Utara",SULAWESI UTARA,,Indonesia,,,,14.958.803,1.248.484.916,https://maps.google.com/?cid=0x0:0x87a9bba92591a12e,
,toko bangunan,Kios,Toko Bangunan dan Sembako,"FW88+HJJ, Watutumou II, Kec. Kalawat, Kabupaten Minahasa Utara, Sulawesi Utara","Kabupaten Minahasa Utara, Sulawesi Utara",SULAWESI UTARA,,Indonesia,087773953145,,,14.664.691,1.249.165.212,https://maps.google.com/?cid=0x0:0x21990419e38de381,
,toko bangunan,Toko Bahan Bangunan,Toko sumber terang,"Jl. Ir. Soekarno No.88, Kolongan Tetempangan, Kec. Kalawat, Kabupaten Minahasa Utara, Sulawesi Utara","Kabupaten Minahasa Utara, Sulawesi Utara",SULAWESI UTARA,,Indonesia,089698079913,,,14.764.815,1.249.366.244,https://maps.google.com/?cid=0x0:0x804c90914228033c,
,toko bangunan,Toko Bahan Bangunan,TOKO BANGUNAN RIZKY BADAS,"Kawangkoan, Kec. Kalawat, Kabupaten Minahasa Utara, Sulawesi Utara","Kabupaten Minahasa Utara, Sulawesi Utara",SULAWESI UTARA,,Indonesia,081330119059,,,14.590.841,1.249.327.088,https://maps.google.com/?cid=0x0:0x99b35880d1e58868,
,toko bangunan,Toko Bahan Bangunan,Toko Permata Bangunan,"Mapanget, Kec. Talawaan, Kabupaten Minahasa Utara, Sulawesi Utara","Kabupaten Minahasa Utara, Sulawesi Utara",SULAWESI UTARA,,Indonesia,085761113911,,,15.353.249,1.249.290.076,https://maps.google.com/?cid=0x0:0xf49bcf0b466cfbd5,
,toko bangunan,Toko Bahan Bangunan,Bersinar,"Jl. Raya Manado - Bitung, Maumbi, Kec. Kalawat, Kabupaten Minahasa Utara, Sulawesi Utara","Kabupaten Minahasa Utara, Sulawesi Utara",SULAWESI UTARA,,Indonesia,,,,14.809.633,1.249.044.372,https://maps.google.com/?cid=0x0:0x72672058ff597ce7,
,toko bangunan,Toko Bahan Bangunan,TK SUMBER JAYA,"FW8F+MW6, Jl. Raya Manado - Bitung, Kolongan Tetempangan, Kec. Kalawat, Kabupaten Minahasa Utara, Sulawesi Utara 95370","Jl. Raya Manado - Bitung, Kolongan Tetempangan, Kec. Kalawat, Kabupaten Minahasa Utara",SULAWESI UTARA,95370.0,Indonesia,,,,14.666.655,1.249.247.748,https://maps.google.com/?cid=0x0:0x54f2c34ab9d56f79,
,toko bangunan,Toko Bahan Bangunan,Depo Bangunan Baru,"Airmadidi Atas, Kec. Airmadidi, Kabupaten Minahasa Utara, Sulawesi Utara","Kabupaten Minahasa Utara, Sulawesi Utara",SULAWESI UTARA,,Indonesia,08114667779,,,14.209.652,1.249.858.983,https://maps.google.com/?cid=0x0:0x39d09d0fdcf3ce9a,
,toko bangunan,Toko Bahan Bangunan,Pyramid,"Jl. Walanda Maramis 2 No.No, Maumbi, Kec. Kalawat, Kabupaten Minahasa Utara, Sulawesi Utara","Kabupaten Minahasa Utara, Sulawesi Utara",SULAWESI UTARA,,Indonesia,,,,148.128,124.904,https://maps.google.com/?cid=0x0:0x36f5086612750e71,
,toko bangunan,Toko Bahan Bangunan,TOKO SURYA JAYA,"Matungkas, Kec. Dimembe, Kabupaten Minahasa Utara, Sulawesi Utara","Kabupaten Minahasa Utara, Sulawesi Utara",SULAWESI UTARA,,Indonesia,085761113781,,,14.753.625,1.249.663.016,https://maps.google.com/?cid=0x0:0xeb72aa0f66a8a80b,
,toko bangunan,Toko Bahan Bangunan,Toko Bangunan Chiko Matungkas,"FXF9+7QQ, Jl. Sukur - Likupang, Matungkas, Kec. Dimembe, Kabupaten Minahasa Utara, Sulawesi Utara","Kabupaten Minahasa Utara, Sulawesi Utara",SULAWESI UTARA,,Indonesia,085340940004,,,14.732.046,1.249.694.978,https://maps.google.com/?cid=0x0:0xb10a524c66bf6d30,
,toko bangunan,Toko Bahan Bangunan,Triberkat Toko Bangunan,"FV2M+H3P, Sawangan, Kec. Tombulu, Kabupaten Minahasa, Sulawesi Utara","Kabupaten Minahasa, Sulawesi Utara",SULAWESI UTARA,,Indonesia,,,,14.516.151,1.248.823.958,https://maps.google.com/?cid=0x0:0xb1724ee606aad0ec,
,toko bangunan,Toko Bahan Bangunan,sumber alam,"FWF5+QW2, Watutumou, Kec. Kalawat, Kabupaten Minahasa Utara, Sulawesi Utara","Kabupaten Minahasa Utara, Sulawesi Utara",SULAWESI UTARA,,Indonesia,,,,14.743.901,1.249.097.798,https://maps.google.com/?cid=0x0:0xb63c1f1017ce4433,
,toko bangunan,Toko Perlengkapan Rumah,CSA Studio,"Jl. Ring Road, Maumbi, Kec. Kalawat, Kabupaten Minahasa Utara, Sulawesi Utara","Kabupaten Minahasa Utara, Sulawesi Utara",SULAWESI UTARA,,Indonesia,087819545846,,,14.753.199,1.248.896.258,https://maps.google.com/?cid=0x0:0x4875eca3ea872418,
,toko bangunan,toko bangunan,Kec. Kauditan,"Kabupaten Minahasa Utara, Sulawesi Utara","Kabupaten Minahasa Utara, Sulawesi Utara",SULAWESI UTARA,,Indonesia,,,,13.931.442,125.042.732,https://maps.google.com/?cid=0x0:0x2d255a96bf594260,
,toko bangunan,Toko Bahan Bangunan,Kios IMANUEL,"desa, Kauditan II, Kec. Kauditan, Kabupaten Minahasa Utara, Sulawesi Utara","Kabupaten Minahasa Utara, Sulawesi Utara",SULAWESI UTARA,,Indonesia,082193319910,,,13.910.229,1.250.480.414,https://maps.google.com/?cid=0x0:0x1a0fb236dec656af,
,toko bangunan,Komplek perumahan,Kezia home,"CX3V+CGR, Tumaluntung, Kec. Kauditan, Kabupaten Minahasa Utara, Sulawesi Utara","Kabupaten Minahasa Utara, Sulawesi Utara",SULAWESI UTARA,,Indonesia,,,,14.036.121,1.249.937.537,https://maps.google.com/?cid=0x0:0x6ccd979adda3140,
,toko bangunan,Agen Tenaga Kerja,PT MANADO BERKAH SEJATI,"Jl. Raya Manado - Bitung, Watudambo Dua, Kec. Kauditan, Kabupaten Minahasa Utara, Sulawesi Utara 95372","Watudambo Dua, Kec. Kauditan, Kabupaten Minahasa Utara",SULAWESI UTARA,95372.0,Indonesia,08114349080,,,14.067.468,1.250.730.119,https://maps.google.com/?cid=0x0:0xfe617a32e3864c80,
,toko bangunan,Pusat Perbelanjaan,Tk El Jaya,"93W2+XG4, Unnamed Road, Kauditan I, Kec. Kauditan, Kabupaten Minahasa Utara, Sulawesi Utara","Kabupaten Minahasa Utara, Sulawesi Utara",SULAWESI UTARA,,Indonesia,,,,13.973.834,1.250.513.306,https://maps.google.com/?cid=0x0:0xdf9f22b8961d5f4e,
,toko bangunan,Toko Bahan Bangunan,Depo Bangunan Baru,"Airmadidi Atas, Kec. Airmadidi, Kabupaten Minahasa Utara, Sulawesi Utara","Kabupaten Minahasa Utara, Sulawesi Utara",SULAWESI UTARA,,Indonesia,08114667779,,,14.209.652,1.249.858.983,https://maps.google.com/?cid=0x0:0x39d09d0fdcf3ce9a,
,toko bangunan,Toko Bahan Bangunan,UD BYU tatalaksana jual holowbrik,"C35J+Q43, Jl. Raya Manado - Bitung, Watudambo Dua, Kec. Matuari, Kota Bitung, Sulawesi Utara","Kota Bitung, Sulawesi Utara",SULAWESI UTARA,,Indonesia,,,,14.093.822,1.250.802.828,https://maps.google.com/?cid=0x0:0x1ef84469adee1112,
,toko bangunan,toko bangunan,Toko Bangunan UD. Gloria - MINUT,"Jl. Soekarno No.D-291, Sarongsong II, Kec. Dimembe, Kabupaten Minahasa Utara, Sulawesi Utara 95371","Sarongsong II, Kec. Dimembe, Kabupaten Minahasa Utara",SULAWESI UTARA,95371.0,Indonesia,081350408451,,,14.610.777,1.249.672.777,https://maps.google.com/?cid=0x0:0xd53f015364e010f4,
,toko bangunan,Toko Bahan Bangunan,"Toko Bahan Bangunan Deandre""""","CXFR+3RH, Unnamed Road, Airmadidi Atas, Kec. Airmadidi, Kabupaten Minahasa Utara, Sulawesi Utara","Kabupaten Minahasa Utara, Sulawesi Utara",SULAWESI UTARA,,Indonesia,,,,14.226.814,1.249.920.987,https://maps.google.com/?cid=0x0:0xae28e79f39bf6c0a,
,toko bangunan,Toko Bahan Bangunan,Toko Bangunan Alden,"Jl. SBY No.70, Sukur, Kec. Airmadidi, Kabupaten Minahasa Utara, Sulawesi Utara","Kabupaten Minahasa Utara, Sulawesi Utara",SULAWESI UTARA,,Indonesia,082366436061,,,14.611.442,1.249.666.508,https://maps.google.com/?cid=0x0:0xc92a017c991e4486,
,toko bangunan,Toko Bahan Bangunan,TOKO BANGUNAN RIZKY BADAS,"Kawangkoan, Kec. Kalawat, Kabupaten Minahasa Utara, Sulawesi Utara","Kabupaten Minahasa Utara, Sulawesi Utara",SULAWESI UTARA,,Indonesia,081330119059,,,14.590.841,1.249.327.088,https://maps.google.com/?cid=0x0:0x99b35880d1e58868,
,toko bangunan,Toko Bahan Bangunan,Toko Bangunan Chiko Matungkas,"FXF9+7QQ, Jl. Sukur - Likupang, Matungkas, Kec. Dimembe, Kabupaten Minahasa Utara, Sulawesi Utara","Kabupaten Minahasa Utara, Sulawesi Utara",SULAWESI UTARA,,Indonesia,085340940004,,,14.732.046,1.249.694.978,https://maps.google.com/?cid=0x0:0xb10a524c66bf6d30,
,toko bangunan,Toko Bahan Bangunan,TOKO SURYA JAYA,"Matungkas, Kec. Dimembe, Kabupaten Minahasa Utara, Sulawesi Utara","Kabupaten Minahasa Utara, Sulawesi Utara",SULAWESI UTARA,,Indonesia,085761113781,,,14.753.625,1.249.663.016,https://maps.google.com/?cid=0x0:0xeb72aa0f66a8a80b,
,toko bangunan,Toko Bahan Bangunan,Toko Bahan Bangunan Adel Jaya,"Jl. Arnold Mononutu, Airmadidi Atas, Kec. Airmadidi, Kota Manado, Sulawesi Utara 95371","Airmadidi Atas, Kec. Airmadidi, Kota Manado",SULAWESI UTARA,95371.0,Indonesia,081356527782,,,14.263.083,124.980.685,https://maps.google.com/?cid=0x0:0x99117017828bdce0,
,toko bangunan,Toko Perlengkapan Rumah,Tb El Jaya,"jl.trans Jl. Raya Manado - Bitung No.99, Kauditan II, Kec. Airmadidi, Kabupaten Minahasa Utara, Sulawesi Utara","Kabupaten Minahasa Utara, Sulawesi Utara",SULAWESI UTARA,,Indonesia,085240669235,,,13.974.047,1.250.512.824,https://maps.google.com/?cid=0x0:0xee0a9317a6c72e59,
,toko bangunan,Toko Bahan Bangunan,Toko Bangunan Bintang Ariska,"3 jl.patiwisata kema 3 kode pos 95372, Kema Dua, Kec. Kema, Kabupaten Minahasa Utara, Sulawesi Utara","Kabupaten Minahasa Utara, Sulawesi Utara",SULAWESI UTARA,,Indonesia,085240401177,,,13.640.032,125.073.831,https://maps.google.com/?cid=0x0:0x599f5134a4ba8da0,
,toko bangunan,Toko Bahan Bangunan,UD. Klabat Indah,"Jl. Ir. Soekarno, Jalur Dua, Kec. Airmadidi, Kabupaten Minahasa Utara, Sulawesi Utara 95371","Jalur Dua, Kec. Airmadidi, Kabupaten Minahasa Utara",SULAWESI UTARA,95371.0,Indonesia,,,,14.288.105,1.249.870.974,https://maps.google.com/?cid=0x0:0x4e1cd39a663a68b5,
,toko bangunan,Toko Bahan Bangunan,Toko bangunan tetap usaha kamasi 1,"Jl. Kuranga, Talete Dua, Kec. Tomohon Tengah, Kota Tomohon, Sulawesi Utara","Kota Tomohon, Sulawesi Utara",SULAWESI UTARA,,Indonesia,085256670010,,,13.303.169,1.248.348.179,https://maps.google.com/?cid=0x0:0xa51a2dec3d95451d,
,toko bangunan,Toko Bahan Bangunan,Toko bangunan Rejeki Jaya,"CXX5+7G4, Jl. Sukur - Likupang, Sukur, Kec. Airmadidi, Kabupaten Minahasa Utara, Sulawesi Utara","Kabupaten Minahasa Utara, Sulawesi Utara",SULAWESI UTARA,,Indonesia,0811431341,,,14.481.495,1.249.588.422,https://maps.google.com/?cid=0x0:0x30a202e84321b74d,
,toko bangunan,Toko Bahan Bangunan,Triberkat Toko Bangunan,"FV2M+H3P, Sawangan, Kec. Tombulu, Kabupaten Minahasa, Sulawesi Utara","Kabupaten Minahasa, Sulawesi Utara",SULAWESI UTARA,,Indonesia,,,,14.516.151,1.248.823.958,https://maps.google.com/?cid=0x0:0xb1724ee606aad0ec,
,toko bangunan,Jasa Konstruksi dan Bangunan,Hollowbrick RATUBLOCK Watudambo,"C38V+HR7, Manembo-nembo Atas, Kec. Matuari, Kota Bitung, Sulawesi Utara","Kota Bitung, Sulawesi Utara",SULAWESI UTARA,,Indonesia,,,,14.164.146,1.250.945.526,https://maps.google.com/?cid=0x0:0x5086f1f8bfbd2ac8,
,toko bangunan,Toko bahan makanan,Bless mart,"CX7X+3X6, Unnamed Road, Tumaluntung, Kec. Kauditan, Kabupaten Minahasa Utara, Sulawesi Utara","Kabupaten Minahasa Utara, Sulawesi Utara",SULAWESI UTARA,,Indonesia,,,,14.126.746,1.249.998.951,https://maps.google.com/?cid=0x0:0x8c1c8c778b2380e3,
,toko bangunan,Toko Bahan Bangunan,Sumber Harapan,"Sarongsong I, Kec. Airmadidi, Kabupaten Minahasa Utara, Sulawesi Utara","Kabupaten Minahasa Utara, Sulawesi Utara",SULAWESI UTARA,,Indonesia,082122228701,,,14.284.998,1.249.789.791,https://maps.google.com/?cid=0x0:0x6102f8e8e85ca953,
,toko bangunan,toko bangunan,Kec. Kema,"Kabupaten Minahasa Utara, Sulawesi Utara","Kabupaten Minahasa Utara, Sulawesi Utara",SULAWESI UTARA,,Indonesia,,,,13.717.732,1.250.714.941,https://maps.google.com/?cid=0x0:0x9d12383cee2836a3,
,toko bangunan,Toko Bahan Bangunan,Toko Bangunan Bintang Ariska,"3 jl.patiwisata kema 3 kode pos 95372, Kema Dua, Kec. Kema, Kabupaten Minahasa Utara, Sulawesi Utara","Kabupaten Minahasa Utara, Sulawesi Utara",SULAWESI UTARA,,Indonesia,085240401177,,,13.640.032,125.073.831,https://maps.google.com/?cid=0x0:0x599f5134a4ba8da0,
,toko bangunan,Toko Bahan Bangunan,Kios IMANUEL,"desa, Kauditan II, Kec. Kauditan, Kabupaten Minahasa Utara, Sulawesi Utara","Kabupaten Minahasa Utara, Sulawesi Utara",SULAWESI UTARA,,Indonesia,082193319910,,,13.910.229,1.250.480.414,https://maps.google.com/?cid=0x0:0x1a0fb236dec656af,
,toko bangunan,Toko Bahan Bangunan,Toko Bangunan Chiko Matungkas,"FXF9+7QQ, Jl. Sukur - Likupang, Matungkas, Kec. Dimembe, Kabupaten Minahasa Utara, Sulawesi Utara","Kabupaten Minahasa Utara, Sulawesi Utara",SULAWESI UTARA,,Indonesia,085340940004,,,14.732.046,1.249.694.978,https://maps.google.com/?cid=0x0:0xb10a524c66bf6d30,
,toko bangunan,Toko Bahan Bangunan,Batako KINORKOR,"92RR+56Q, Kawiley, Kec. Kauditan, Kabupaten Minahasa Utara, Sulawesi Utara","Kabupaten Minahasa Utara, Sulawesi Utara",SULAWESI UTARA,,Indonesia,085240128612,,,13.904.617,1.250.406.034,https://maps.google.com/?cid=0x0:0xa758ea5d29d8dddd,
,toko bangunan,Toko Bahan Bangunan,UD BYU tatalaksana jual holowbrik,"C35J+Q43, Jl. Raya Manado - Bitung, Watudambo Dua, Kec. Matuari, Kota Bitung, Sulawesi Utara","Kota Bitung, Sulawesi Utara",SULAWESI UTARA,,Indonesia,,,,14.093.822,1.250.802.828,https://maps.google.com/?cid=0x0:0x1ef84469adee1112,
,toko bangunan,Toko Bahan Bangunan,TOKO SURYA JAYA,"Matungkas, Kec. Dimembe, Kabupaten Minahasa Utara, Sulawesi Utara","Kabupaten Minahasa Utara, Sulawesi Utara",SULAWESI UTARA,,Indonesia,085761113781,,,14.753.625,1.249.663.016,https://maps.google.com/?cid=0x0:0xeb72aa0f66a8a80b,
,toko bangunan,Toko Bahan Bangunan,TOKO BANGUNAN RIZKY BADAS,"Kawangkoan, Kec. Kalawat, Kabupaten Minahasa Utara, Sulawesi Utara","Kabupaten Minahasa Utara, Sulawesi Utara",SULAWESI UTARA,,Indonesia,081330119059,,,14.590.841,1.249.327.088,https://maps.google.com/?cid=0x0:0x99b35880d1e58868,
,toko bangunan,toko bangunan,Kec. Likupang Bar.,"Kabupaten Minahasa Utara, Sulawesi Utara","Kabupaten Minahasa Utara, Sulawesi Utara",SULAWESI UTARA,,Indonesia,,,,1.692.583,1.250.117.119,https://maps.google.com/?cid=0x0:0x4ad9ed2bf8ddc336,
,toko bangunan,Toko Bahan Bangunan,Toko bangunan LIKUPANG JAYA,"M395+QRX, Likupang II, Kec. Likupang Tim., Kabupaten Minahasa Utara, Sulawesi Utara","Kabupaten Minahasa Utara, Sulawesi Utara",SULAWESI UTARA,,Indonesia,,,,16.694.616,1.250.597.135,https://maps.google.com/?cid=0x0:0x7aece044884761f5,
,toko bangunan,Pasar bahan bangunan,Toko sinar berkat,"Desah, Mubune, Kec. Likupang Bar., Kota manado, Sulawesi Utara 95378","Mubune, Kec. Likupang Bar., Kota manado",SULAWESI UTARA,95378.0,Indonesia,081253583735,,,17.106.689,1.250.110.012,https://maps.google.com/?cid=0x0:0x139ab13effd89977,
,toko bangunan,Toko Bahan Bangunan,Toko Bangunan Chiko Matungkas,"FXF9+7QQ, Jl. Sukur - Likupang, Matungkas, Kec. Dimembe, Kabupaten Minahasa Utara, Sulawesi Utara","Kabupaten Minahasa Utara, Sulawesi Utara",SULAWESI UTARA,,Indonesia,085340940004,,,14.732.046,1.249.694.978,https://maps.google.com/?cid=0x0:0xb10a524c66bf6d30,
,toko bangunan,Toko Bahan Bangunan,Toko bangunan pak haji pian (Toko Amel),"Likupang II, Kec. Likupang Tim., Kabupaten Minahasa Utara, Sulawesi Utara 95375","Kec. Likupang Tim., Kabupaten Minahasa Utara",SULAWESI UTARA,95375.0,Indonesia,081356520798,,,16.732.482,1.250.612.162,https://maps.google.com/?cid=0x0:0xbcb61ae0385b4a57,
,toko bangunan,Toko Bahan Bangunan,Matungkas Jaya (Toko Bangunan),"FXGC+67C, Jl. Sukur - Likupang, Matungkas, Kec. Dimembe, Kabupaten Minahasa Utara, Sulawesi Utara","Kabupaten Minahasa Utara, Sulawesi Utara",SULAWESI UTARA,,Indonesia,082333344765,,,14.755.556,1.249.706.543,https://maps.google.com/?cid=0x0:0x9356ce9cff86f7f2,
,toko bangunan,Toko Bahan Bangunan,Toko Amazy,"M376+W6V, Likupang I, Kec. Likupang Tim., Kabupaten Minahasa Utara, Sulawesi Utara","Kabupaten Minahasa Utara, Sulawesi Utara",SULAWESI UTARA,,Indonesia,,,,16.648.723,1.250.605.498,https://maps.google.com/?cid=0x0:0x80cd06f913bf475f,
,toko bangunan,Toko Bahan Bangunan,Toko Bangunan HJM Kaweruan,"J22C+G3G, Jl. Airmadidi-Likupang, Kaweruan, Kec. Likupang Sel., Kabupaten Minahasa Utara, Sulawesi Utara","Kabupaten Minahasa Utara, Sulawesi Utara",SULAWESI UTARA,,Indonesia,085747398552,,,16.013.088,1.250.201.892,https://maps.google.com/?cid=0x0:0xf45518c24e5ac7ad,
,toko bangunan,Pasar bahan bangunan,Toko Bangunan Wapon Jaya,"Jl. Sea induk, Sea I, Kec. Pineleng, Kabupaten Minahasa, Sulawesi Utara","Kabupaten Minahasa, Sulawesi Utara",SULAWESI UTARA,,Indonesia,085340309099,,,14.291.092,1.247.997.913,https://maps.google.com/?cid=0x0:0x2216e5af37ff6b7a,
,toko bangunan,Grosir,Toko Samudra,"HX3X+HF6, Jl. Sukur - Likupang, Wasian, Kec. Dimembe, Kabupaten Minahasa Utara, Sulawesi Utara","Kabupaten Minahasa Utara, Sulawesi Utara",SULAWESI UTARA,,Indonesia,,,,15.539.114,1.249.986.522,https://maps.google.com/?cid=0x0:0x7a6ca99e7558105b,
,toko bangunan,Toko Bahan Bangunan,Triberkat Toko Bangunan,"FV2M+H3P, Sawangan, Kec. Tombulu, Kabupaten Minahasa, Sulawesi Utara","Kabupaten Minahasa, Sulawesi Utara",SULAWESI UTARA,,Indonesia,,,,14.516.151,1.248.823.958,https://maps.google.com/?cid=0x0:0xb1724ee606aad0ec,
,toko bangunan,Toko Bahan Bangunan,TOKO SURYA JAYA,"Matungkas, Kec. Dimembe, Kabupaten Minahasa Utara, Sulawesi Utara","Kabupaten Minahasa Utara, Sulawesi Utara",SULAWESI UTARA,,Indonesia,085761113781,,,14.753.625,1.249.663.016,https://maps.google.com/?cid=0x0:0xeb72aa0f66a8a80b,
,toko bangunan,Toko bahan makanan,Toko Berkat Usaha,"Jaga 4, Pontoh, Wori, Kabupaten Minahasa Utara, Sulawesi Utara 95376","Pontoh, Wori, Kabupaten Minahasa Utara",SULAWESI UTARA,95376.0,Indonesia,082196763582,,,16.399.345,1.249.220.934,https://maps.google.com/?cid=0x0:0x1b87281e083dfc2b,
,toko bangunan,Toko Bahan Bangunan,Toko SDT Tanah putih,"PX8H+8XJ, Tanah Putih, Kec. Likupang Bar., Kabupaten Minahasa Utara, Sulawesi Utara","Kabupaten Minahasa Utara, Sulawesi Utara",SULAWESI UTARA,,Indonesia,,,,17.158.179,1.249.799.621,https://maps.google.com/?cid=0x0:0xd48eabd95b5536da,
,toko bangunan,Toko Bahan Bangunan,TOKO BANGUNAN RIZKY BADAS,"Kawangkoan, Kec. Kalawat, Kabupaten Minahasa Utara, Sulawesi Utara","Kabupaten Minahasa Utara, Sulawesi Utara",SULAWESI UTARA,,Indonesia,081330119059,,,14.590.841,1.249.327.088,https://maps.google.com/?cid=0x0:0x99b35880d1e58868,
,toko bangunan,Toko Bahan Bangunan,TOKO BANGUNAN MS,"Dekat matungkas , kec dimembe, Jl. Raya Likupang, Kec. Airmadidi, Sulawesi Utara 95371","kec dimembe, Jl. Raya Likupang, Kec. Airmadidi",SULAWESI UTARA,95371.0,Indonesia,085396672112,,,14.667.282,124.966.547,https://maps.google.com/?cid=0x0:0x56f7823a657be343,
,toko bangunan,Pemasok Bahan Bangunan,Toko Bangunan Cendrawasih,"Taler, Tondano Tim., Kabupaten Minahasa, Sulawesi Utara","Kabupaten Minahasa, Sulawesi Utara",SULAWESI UTARA,,Indonesia,081343561691,,,12.984.892,1.249.127.644,https://maps.google.com/?cid=0x0:0x563050a595f334a3,
,toko bangunan,Toko Bahan Bangunan,Dhea Jaya,"Dekat, Wineru, Kec. Likupang Tim., Kabupaten Minahasa Utara, Sulawesi Utara 95375","Wineru, Kec. Likupang Tim., Kabupaten Minahasa Utara",SULAWESI UTARA,95375.0,Indonesia,,,,1.660.173,1.251.055.555,https://maps.google.com/?cid=0x0:0x10b842c850f1fcbb,
,toko bangunan,Toko Bahan Bangunan,"Toko Bangunan KARTIKA""""","5RFC+69P, Jl. Raya Tompaso, Paslaten, Kec. Langowan Bar., Kabupaten Minahasa, Sulawesi Utara","Kabupaten Minahasa, Sulawesi Utara",SULAWESI UTARA,,Indonesia,08114376335,,,11.730.861,1.248.209.648,https://maps.google.com/?cid=0x0:0x1227a3251ffa40e7,
,toko bangunan,toko bangunan,Kec. Likupang Sel.,"Kabupaten Minahasa Utara, Sulawesi Utara","Kabupaten Minahasa Utara, Sulawesi Utara",SULAWESI UTARA,,Indonesia,,,,16.154.658,1.250.277.057,https://maps.google.com/?cid=0x0:0x1c90d6707d558a25,
,toko bangunan,Toko Bahan Bangunan,Toko bangunan LIKUPANG JAYA,"M395+QRX, Likupang II, Kec. Likupang Tim., Kabupaten Minahasa Utara, Sulawesi Utara","Kabupaten Minahasa Utara, Sulawesi Utara",SULAWESI UTARA,,Indonesia,,,,16.694.616,1.250.597.135,https://maps.google.com/?cid=0x0:0x7aece044884761f5,
,toko bangunan,Toko Bahan Bangunan,Toko bangunan pak haji pian (Toko Amel),"Likupang II, Kec. Likupang Tim., Kabupaten Minahasa Utara, Sulawesi Utara 95375","Kec. Likupang Tim., Kabupaten Minahasa Utara",SULAWESI UTARA,95375.0,Indonesia,081356520798,,,16.732.482,1.250.612.162,https://maps.google.com/?cid=0x0:0xbcb61ae0385b4a57,
,toko bangunan,Toko Bahan Bangunan,Toko Bangunan Chiko Matungkas,"FXF9+7QQ, Jl. Sukur - Likupang, Matungkas, Kec. Dimembe, Kabupaten Minahasa Utara, Sulawesi Utara","Kabupaten Minahasa Utara, Sulawesi Utara",SULAWESI UTARA,,Indonesia,085340940004,,,14.732.046,1.249.694.978,https://maps.google.com/?cid=0x0:0xb10a524c66bf6d30,
,toko bangunan,Toko Bahan Bangunan,Matungkas Jaya (Toko Bangunan),"FXGC+67C, Jl. Sukur - Likupang, Matungkas, Kec. Dimembe, Kabupaten Minahasa Utara, Sulawesi Utara","Kabupaten Minahasa Utara, Sulawesi Utara",SULAWESI UTARA,,Indonesia,082333344765,,,14.755.556,1.249.706.543,https://maps.google.com/?cid=0x0:0x9356ce9cff86f7f2,
,toko bangunan,Toko Bahan Bangunan,Toko Amazy,"M376+W6V, Likupang I, Kec. Likupang Tim., Kabupaten Minahasa Utara, Sulawesi Utara","Kabupaten Minahasa Utara, Sulawesi Utara",SULAWESI UTARA,,Indonesia,,,,16.648.723,1.250.605.498,https://maps.google.com/?cid=0x0:0x80cd06f913bf475f,
,toko bangunan,Grosir,Toko Samudra,"HX3X+HF6, Jl. Sukur - Likupang, Wasian, Kec. Dimembe, Kabupaten Minahasa Utara, Sulawesi Utara","Kabupaten Minahasa Utara, Sulawesi Utara",SULAWESI UTARA,,Indonesia,,,,15.539.114,1.249.986.522,https://maps.google.com/?cid=0x0:0x7a6ca99e7558105b,
,toko bangunan,Toko Perlengkapan Rumah,Toko calista,"Jl. Sukur - Likupang, Wasian, Kec. Dimembe, Kabupaten Minahasa Utara, Sulawesi Utara","Kabupaten Minahasa Utara, Sulawesi Utara",SULAWESI UTARA,,Indonesia,085340002225,,,15.573.416,1.249.992.117,https://maps.google.com/?cid=0x0:0x1699510a19e62861,
,toko bangunan,Pasar bahan bangunan,Toko Bangunan Wapon Jaya,"Jl. Sea induk, Sea I, Kec. Pineleng, Kabupaten Minahasa, Sulawesi Utara","Kabupaten Minahasa, Sulawesi Utara",SULAWESI UTARA,,Indonesia,085340309099,,,14.291.092,1.247.997.913,https://maps.google.com/?cid=0x0:0x2216e5af37ff6b7a,
,toko bangunan,Minimarket,Toko Shine Likupang,"Likupang II, Kec. Likupang Tim., Kabupaten Minahasa Utara, Sulawesi Utara","Kabupaten Minahasa Utara, Sulawesi Utara",SULAWESI UTARA,,Indonesia,04317003033,,,16.718.258,1.250.599.058,https://maps.google.com/?cid=0x0:0x8787e69005b49ed9,
,toko bangunan,Pasar bahan bangunan,Toko sinar berkat,"Desah, Mubune, Kec. Likupang Bar., Kota manado, Sulawesi Utara 95378","Mubune, Kec. Likupang Bar., Kota manado",SULAWESI UTARA,95378.0,Indonesia,081253583735,,,17.106.689,1.250.110.012,https://maps.google.com/?cid=0x0:0x139ab13effd89977,
,toko bangunan,Toko Bahan Bangunan,Toko bahan bangunan dang listrik EXGLO Tarabitan,"PXPQ+XMX, Tarabitan, Kec. Likupang Bar., Kabupaten Minahasa Utara, Sulawesi Utara","Kabupaten Minahasa Utara, Sulawesi Utara",SULAWESI UTARA,,Indonesia,,,,17.374.822,1.249.892.412,https://maps.google.com/?cid=0x0:0x6f4146ae206562af,
,toko bangunan,Toko Bahan Bangunan,Triberkat Toko Bangunan,"FV2M+H3P, Sawangan, Kec. Tombulu, Kabupaten Minahasa, Sulawesi Utara","Kabupaten Minahasa, Sulawesi Utara",SULAWESI UTARA,,Indonesia,,,,14.516.151,1.248.823.958,https://maps.google.com/?cid=0x0:0xb1724ee606aad0ec,
,toko bangunan,toko bangunan,Kec. Likupang Tim.,"Kabupaten Minahasa Utara, Sulawesi Utara","Kabupaten Minahasa Utara, Sulawesi Utara",SULAWESI UTARA,,Indonesia,,,,16.567.027,1.251.102.134,https://maps.google.com/?cid=0x0:0xfb7b50a78e0c1b1b,
,toko bangunan,Toko Bahan Bangunan,Toko bangunan LIKUPANG JAYA,"M395+QRX, Likupang II, Kec. Likupang Tim., Kabupaten Minahasa Utara, Sulawesi Utara","Kabupaten Minahasa Utara, Sulawesi Utara",SULAWESI UTARA,,Indonesia,,,,16.694.616,1.250.597.135,https://maps.google.com/?cid=0x0:0x7aece044884761f5,
,toko bangunan,Toko Bahan Bangunan,Toko bangunan pak haji pian (Toko Amel),"Likupang II, Kec. Likupang Tim., Kabupaten Minahasa Utara, Sulawesi Utara 95375","Kec. Likupang Tim., Kabupaten Minahasa Utara",SULAWESI UTARA,95375.0,Indonesia,081356520798,,,16.732.482,1.250.612.162,https://maps.google.com/?cid=0x0:0xbcb61ae0385b4a57,
,toko bangunan,Toko Bahan Bangunan,Toko Bangunan Chiko Matungkas,"FXF9+7QQ, Jl. Sukur - Likupang, Matungkas, Kec. Dimembe, Kabupaten Minahasa Utara, Sulawesi Utara","Kabupaten Minahasa Utara, Sulawesi Utara",SULAWESI UTARA,,Indonesia,085340940004,,,14.732.046,1.249.694.978,https://maps.google.com/?cid=0x0:0xb10a524c66bf6d30,
,toko bangunan,Toko Bahan Bangunan,Dhea Jaya,"Dekat, Wineru, Kec. Likupang Tim., Kabupaten Minahasa Utara, Sulawesi Utara 95375","Wineru, Kec. Likupang Tim., Kabupaten Minahasa Utara",SULAWESI UTARA,95375.0,Indonesia,,,,1.660.173,1.251.055.555,https://maps.google.com/?cid=0x0:0x10b842c850f1fcbb,
,toko bangunan,Toko Bahan Bangunan,Matungkas Jaya (Toko Bangunan),"FXGC+67C, Jl. Sukur - Likupang, Matungkas, Kec. Dimembe, Kabupaten Minahasa Utara, Sulawesi Utara","Kabupaten Minahasa Utara, Sulawesi Utara",SULAWESI UTARA,,Indonesia,082333344765,,,14.755.556,1.249.706.543,https://maps.google.com/?cid=0x0:0x9356ce9cff86f7f2,
,toko bangunan,Toko Bahan Bangunan,Toko Bangunan HJM Kaweruan,"J22C+G3G, Jl. Airmadidi-Likupang, Kaweruan, Kec. Likupang Sel., Kabupaten Minahasa Utara, Sulawesi Utara","Kabupaten Minahasa Utara, Sulawesi Utara",SULAWESI UTARA,,Indonesia,085747398552,,,16.013.088,1.250.201.892,https://maps.google.com/?cid=0x0:0xf45518c24e5ac7ad,
,toko bangunan,Tukang Kayu,mebel Zivilia,"M584+XM6, Kinunang, Kec. Likupang Tim., Kabupaten Minahasa Utara, Sulawesi Utara","Kabupaten Minahasa Utara, Sulawesi Utara",SULAWESI UTARA,,Indonesia,,,,16.674.233,1.251.566.395,https://maps.google.com/?cid=0x0:0xc6c70cafe36421a,
,toko bangunan,Grosir,Toko Samudra,"HX3X+HF6, Jl. Sukur - Likupang, Wasian, Kec. Dimembe, Kabupaten Minahasa Utara, Sulawesi Utara","Kabupaten Minahasa Utara, Sulawesi Utara",SULAWESI UTARA,,Indonesia,,,,15.539.114,1.249.986.522,https://maps.google.com/?cid=0x0:0x7a6ca99e7558105b,
,toko bangunan,Toko Alat Pancing,TEKNIK JAYA LIKUPANG,"Jalan Raya Likupang No.1, Kabupaten Minahasa Utara, Sulawesi Utara 95375",Kabupaten Minahasa Utara,SULAWESI UTARA,95375.0,Indonesia,085255555715,,,16.729.649,1.250.614.948,https://maps.google.com/?cid=0x0:0x99522b354f5e90bf,
,toko bangunan,Pasar bahan bangunan,Toko sinar berkat,"Desah, Mubune, Kec. Likupang Bar., Kota manado, Sulawesi Utara 95378","Mubune, Kec. Likupang Bar., Kota manado",SULAWESI UTARA,95378.0,Indonesia,081253583735,,,17.106.689,1.250.110.012,https://maps.google.com/?cid=0x0:0x139ab13effd89977,
,toko bangunan,Pusat Perbelanjaan,Pasar Likupang Dua (JN),"M3F6+M8J, Tim., Likupang II, Kec. Likupang Tim., Kabupaten Minahasa Utara, Sulawesi Utara","Kabupaten Minahasa Utara, Sulawesi Utara",SULAWESI UTARA,,Indonesia,081210472740,,,16.742.095,125.060.757,https://maps.google.com/?cid=0x0:0x8273c77a322c461d,
,toko bangunan,Toko Perlengkapan Rumah,Toko calista,"Jl. Sukur - Likupang, Wasian, Kec. Dimembe, Kabupaten Minahasa Utara, Sulawesi Utara","Kabupaten Minahasa Utara, Sulawesi Utara",SULAWESI UTARA,,Indonesia,085340002225,,,15.573.416,1.249.992.117,https://maps.google.com/?cid=0x0:0x1699510a19e62861,
,toko bangunan,Minimarket,Toko Shine Likupang,"Likupang II, Kec. Likupang Tim., Kabupaten Minahasa Utara, Sulawesi Utara","Kabupaten Minahasa Utara, Sulawesi Utara",SULAWESI UTARA,,Indonesia,04317003033,,,16.718.258,1.250.599.058,https://maps.google.com/?cid=0x0:0x8787e69005b49ed9,
,toko bangunan,toko bangunan,Sulawesi Utara 95373,"Paniki Atas, Kec. Talawaan, Kabupaten Minahasa Utara, Sulawesi Utara","Kabupaten Minahasa Utara, Sulawesi Utara",SULAWESI UTARA,,Indonesia,,,,14.974.733,1.249.238.636,https://maps.google.com/?cid=0x0:0x3a1e3c0a99b6788f,
,toko bangunan,Toko Bahan Bangunan,Toko Permata Bangunan,"Mapanget, Kec. Talawaan, Kabupaten Minahasa Utara, Sulawesi Utara","Kabupaten Minahasa Utara, Sulawesi Utara",SULAWESI UTARA,,Indonesia,085761113911,,,15.353.249,1.249.290.076,https://maps.google.com/?cid=0x0:0xf49bcf0b466cfbd5,
,toko bangunan,Toko Bahan Bangunan,Toko. Berkat Usaha Jaya,"Jl. Raya Paniki Atas, Paniki Atas, Kec. Talawaan, Kabupaten Minahasa Utara, Sulawesi Utara","Kabupaten Minahasa Utara, Sulawesi Utara",SULAWESI UTARA,,Indonesia,,,,14.969.998,124.922.084,https://maps.google.com/?cid=0x0:0x12a224968b717703,
,toko bangunan,Pasar bahan bangunan,Toko Kolongan Jaya,"FW8G+69M, Jl. Raya Manado - Bitung, Kolongan, Kec. Kalawat, Kabupaten Minahasa Utara, Sulawesi Utara","Kabupaten Minahasa Utara, Sulawesi Utara",SULAWESI UTARA,,Indonesia,085240515970,,,1.465.596,1.249.259.371,https://maps.google.com/?cid=0x0:0x7f97f6ae08991b58,
,toko bangunan,Toko Bahan Bangunan,TOKO BANGUNAN RIZKY BADAS,"Kawangkoan, Kec. Kalawat, Kabupaten Minahasa Utara, Sulawesi Utara","Kabupaten Minahasa Utara, Sulawesi Utara",SULAWESI UTARA,,Indonesia,081330119059,,,14.590.841,1.249.327.088,https://maps.google.com/?cid=0x0:0x99b35880d1e58868,
,toko bangunan,Toko Bahan Bangunan,Toko sumber terang,"Jl. Ir. Soekarno No.88, Kolongan Tetempangan, Kec. Kalawat, Kabupaten Minahasa Utara, Sulawesi Utara","Kabupaten Minahasa Utara, Sulawesi Utara",SULAWESI UTARA,,Indonesia,089698079913,,,14.764.815,1.249.366.244,https://maps.google.com/?cid=0x0:0x804c90914228033c,
,toko bangunan,Toko Bahan Bangunan,Toko Bangunan Chiko Matungkas,"FXF9+7QQ, Jl. Sukur - Likupang, Matungkas, Kec. Dimembe, Kabupaten Minahasa Utara, Sulawesi Utara","Kabupaten Minahasa Utara, Sulawesi Utara",SULAWESI UTARA,,Indonesia,085340940004,,,14.732.046,1.249.694.978,https://maps.google.com/?cid=0x0:0xb10a524c66bf6d30,
,toko bangunan,Toko Bahan Bangunan,DeDo Supermarket,"Jl. Raya Manado - Bitung, Maumbi, Kec. Kalawat, Kabupaten Minahasa Utara, Sulawesi Utara","Kabupaten Minahasa Utara, Sulawesi Utara",SULAWESI UTARA,,Indonesia,082363111170,,,14.783.792,1.249.086.253,https://maps.google.com/?cid=0x0:0x2d4a0393891ebb97,
,toko bangunan,Toko Bahan Bangunan,Toko Bangunan RACHELY,"Jl. Mapanget Raya No.33, Paniki Dua, Kec. Mapanget, Kota Manado, Sulawesi Utara","Kota Manado, Sulawesi Utara",SULAWESI UTARA,,Indonesia,04317241325,,,15.146.498,1.249.196.768,https://maps.google.com/?cid=0x0:0xaa4d26e978e285df,
,toko bangunan,Pasar bahan bangunan,Toko Bangunan Wapon Jaya,"Jl. Sea induk, Sea I, Kec. Pineleng, Kabupaten Minahasa, Sulawesi Utara","Kabupaten Minahasa, Sulawesi Utara",SULAWESI UTARA,,Indonesia,085340309099,,,14.291.092,1.247.997.913,https://maps.google.com/?cid=0x0:0x2216e5af37ff6b7a,
,toko bangunan,Toko Bahan Bangunan,Triberkat Toko Bangunan,"FV2M+H3P, Sawangan, Kec. Tombulu, Kabupaten Minahasa, Sulawesi Utara","Kabupaten Minahasa, Sulawesi Utara",SULAWESI UTARA,,Indonesia,,,,14.516.151,1.248.823.958,https://maps.google.com/?cid=0x0:0xb1724ee606aad0ec,
,toko bangunan,Toko Bahan Bangunan,TOKO BANGUNAN BRIX JAYA MAPANGET,"Jl. Teterusan Mapanget, Mapanget, Kec. Talawaan, Kabupaten Minahasa Utara, Sulawesi Utara","Kabupaten Minahasa Utara, Sulawesi Utara",SULAWESI UTARA,,Indonesia,081242624864,,,1.533.872,124.934.101,https://maps.google.com/?cid=0x0:0xa7608e60ecd2801c,
,toko bangunan,Pemasok Bahan Bangunan,Toko Bangunan Cendrawasih,"Taler, Tondano Tim., Kabupaten Minahasa, Sulawesi Utara","Kabupaten Minahasa, Sulawesi Utara",SULAWESI UTARA,,Indonesia,081343561691,,,12.984.892,1.249.127.644,https://maps.google.com/?cid=0x0:0x563050a595f334a3,
,toko bangunan,Toko Bahan Bangunan,Toko Bangunan HARAPAN BERKAT Jl. Lenkeng C no 15 GPI,"Perum GPI, Jl. Lengkeng C No.15, Kima Atas, Kec. Mapanget, Kota Manado, Sulawesi Utara","Kota Manado, Sulawesi Utara",SULAWESI UTARA,,Indonesia,081355863161,,,15.468.356,1.248.976.381,https://maps.google.com/?cid=0x0:0xdea2f61d23f1497a,
,toko bangunan,Toko Bahan Bangunan,TB.MERIBA (Toko Bangunan),"7WX6+4XP, Taler, Tondano Tim., Kabupaten Minahasa, Sulawesi Utara","Kabupaten Minahasa, Sulawesi Utara",SULAWESI UTARA,,Indonesia,085696259199,,,12.978.375,1.249.124.531,https://maps.google.com/?cid=0x0:0x92ba361f80294412,
,toko bangunan,Kios,Toko Bangunan dan Sembako,"FW88+HJJ, Watutumou II, Kec. Kalawat, Kabupaten Minahasa Utara, Sulawesi Utara","Kabupaten Minahasa Utara, Sulawesi Utara",SULAWESI UTARA,,Indonesia,087773953145,,,14.664.691,1.249.165.212,https://maps.google.com/?cid=0x0:0x21990419e38de381,
,toko bangunan,Toko Swalayan,Dembet Jaya,"GXH4+4MX, Talawaan, Kec. Talawaan, Kabupaten Minahasa Utara, Sulawesi Utara","Kabupaten Minahasa Utara, Sulawesi Utara",SULAWESI UTARA,,Indonesia,,,,15.278.509,1.249.567.664,https://maps.google.com/?cid=0x0:0xf981b524bc22af6c,
,toko bangunan,Toko Bahan Bangunan,Toko Bangunan Sinar Berkat,"Warembungan, Kec. Pineleng, Kabupaten Minahasa, Sulawesi Utara","Kabupaten Minahasa, Sulawesi Utara",SULAWESI UTARA,,Indonesia,082259753525,,,1.417.257,124.821.793,https://maps.google.com/?cid=0x0:0x9454d0623758efea,
,toko bangunan,Toko Bahan Bangunan,Toko Bahan Bangunan Cendrawasi Teling,"Jl. 14 Februari No.72, Teling Atas, Kec. Wanea, Kota Manado, Sulawesi Utara","Kota Manado, Sulawesi Utara",SULAWESI UTARA,,Indonesia,081340809138,,,14.690.181,1.248.478.735,https://maps.google.com/?cid=0x0:0xb5d5da22cbab2ba5,
,toko bangunan,Toko Bahan Bangunan,Toko Bahan Bangunan,"FRWX+995, Jl. Soputan, Singkil Satu, Kec. Singkil, Kota Manado, Sulawesi Utara","Kota Manado, Sulawesi Utara",SULAWESI UTARA,,Indonesia,,,,14.958.803,1.248.484.916,https://maps.google.com/?cid=0x0:0x87a9bba92591a12e,
,toko bangunan,toko bangunan,Wori,"Kabupaten Minahasa Utara, Sulawesi Utara","Kabupaten Minahasa Utara, Sulawesi Utara",SULAWESI UTARA,,Indonesia,,,,15.986.509,1.248.599.034,https://maps.google.com/?cid=0x0:0x1e44c8cf84925b11,
,toko bangunan,Toko Bahan Bangunan,Berkat Mandiri Ochang Tk. Bangunan,"Jl. Raya Manado - Wori, Wori, Kabupaten Minahasa Utara, Sulawesi Utara","Kabupaten Minahasa Utara, Sulawesi Utara",SULAWESI UTARA,,Indonesia,085298722828,,,15.782.949,1.248.653.078,https://maps.google.com/?cid=0x0:0x864cde40bfb6c0b4,
,toko bangunan,Toko Bahan Bangunan,BERDIKARI Toko Bangunan dan Batako,"HVGC+WQ9, Wori, Kabupaten Minahasa Utara, Sulawesi Utara","Kabupaten Minahasa Utara, Sulawesi Utara",SULAWESI UTARA,,Indonesia,,,,15.772.974,1.248.719.727,https://maps.google.com/?cid=0x0:0x1055786722e03420,
,hardware store,hardware store,Sulawesi Utara 95371,"Airmadidi Atas, Kec. Airmadidi, Kabupaten Minahasa Utara, Sulawesi Utara","Kabupaten Minahasa Utara, Sulawesi Utara",SULAWESI UTARA,,Indonesia,,,,14.172.327,1.249.876.821,https://maps.google.com/?cid=0x0:0x80e87fd6189d70fc,
,hardware store,Toko,Toko GRAND HARDWARE,"CXJH+22P, Sarongsong I, Kec. Airmadidi, Kabupaten Minahasa Utara, Sulawesi Utara","Kabupaten Minahasa Utara, Sulawesi Utara",SULAWESI UTARA,,Indonesia,,,,14.300.932,1.249.775.741,https://maps.google.com/?cid=0x0:0xd5bea6e4e94329b1,
,hardware store,Toko Perlengkapan Rumah,MR.DIY,"Jl. Raya Manado - Bitung No.871, Airmadidi Atas, Kec. Airmadidi, Kabupaten Minahasa Utara, Sulawesi Utara","Kabupaten Minahasa Utara, Sulawesi Utara",SULAWESI UTARA,,Indonesia,,,,1.419.665,1.249.877.989,https://maps.google.com/?cid=0x0:0x6b10aff0b5f80bb8,
,hardware store,Toko Alat Tulis Kantor,Toko Trendy Airmadidi,"Rumah Sakit Umum Tonsea, Sarongsong I, Kec. Airmadidi, Kabupaten Minahasa Utara, Sulawesi Utara","Kabupaten Minahasa Utara, Sulawesi Utara",SULAWESI UTARA,,Indonesia,,,,14.273.575,1.249.787.793,https://maps.google.com/?cid=0x0:0xf99c9aa0fefefbbf,
,hardware store,Toko Bahan Bangunan,Toko Bangunan Alden,"Jl. SBY No.70, Sukur, Kec. Airmadidi, Kabupaten Minahasa Utara, Sulawesi Utara","Kabupaten Minahasa Utara, Sulawesi Utara",SULAWESI UTARA,,Indonesia,082366436061,,,14.611.442,1.249.666.508,https://maps.google.com/?cid=0x0:0xc92a017c991e4486,
,hardware store,Toko Perkakas,Erafone | Ruko Airmadidi,"CXFM+G5P, Airmadidi Atas, Kec. Airmadidi, Kabupaten Minahasa Utara, Sulawesi Utara","Kabupaten Minahasa Utara, Sulawesi Utara",SULAWESI UTARA,,Indonesia,0211500372,,,14.239.434,1.249.830.195,https://maps.google.com/?cid=0x0:0xd86a74b2d32470e7,
,hardware store,Toko Bahan Bangunan,UD. Ria Jaya,"Sukur, Kec. Airmadidi, Kabupaten Minahasa Utara, Sulawesi Utara","Kabupaten Minahasa Utara, Sulawesi Utara",SULAWESI UTARA,,Indonesia,0811409476,,,14.503.394,1.249.601.121,https://maps.google.com/?cid=0x0:0x7edd56340f1e2460,
,hardware store,Toko Bahan Bangunan,Toko Bahan Bangunan Adel Jaya,"Jl. Arnold Mononutu, Airmadidi Atas, Kec. Airmadidi, Kota Manado, Sulawesi Utara 95371","Airmadidi Atas, Kec. Airmadidi, Kota Manado",SULAWESI UTARA,95371.0,Indonesia,081356527782,,,14.263.083,124.980.685,https://maps.google.com/?cid=0x0:0x99117017828bdce0,
,hardware store,Toko bahan makanan,Oni Ning Airmadidi,"CXFJ+4CW, Airmadidi Bawah, Kec. Airmadidi, Kabupaten Minahasa Utara, Sulawesi Utara","Kabupaten Minahasa Utara, Sulawesi Utara",SULAWESI UTARA,,Indonesia,085255318825,,,14.230.926,1.249.809.347,https://maps.google.com/?cid=0x0:0x41f6100c501cdb33,
,hardware store,Toko Elektronik,"Kios BERKAT CELL"" Airmadidi (Sarongsong 1)""","CXHH+C9M, Sarongsong I, Kec. Airmadidi, Kabupaten Minahasa Utara, Sulawesi Utara","Kabupaten Minahasa Utara, Sulawesi Utara",SULAWESI UTARA,,Indonesia,,,,14.285.832,1.249.784.189,https://maps.google.com/?cid=0x0:0x22fbdd0f192493a5,
,hardware store,Tempat Biliar,Ruko,"CXCP+4RC, Jl. Raya Manado - Bitung, Airmadidi Atas, Kec. Airmadidi, Kabupaten Minahasa Utara, Sulawesi Utara","Kabupaten Minahasa Utara, Sulawesi Utara",SULAWESI UTARA,,Indonesia,,,,14.203.226,1.249.870.097,https://maps.google.com/?cid=0x0:0x23f91e6846b03337,
,hardware store,Toko Bahan Bangunan,TOKO BANGUNAN MS,"Dekat matungkas , kec dimembe, Jl. Raya Likupang, Kec. Airmadidi, Sulawesi Utara 95371","kec dimembe, Jl. Raya Likupang, Kec. Airmadidi",SULAWESI UTARA,95371.0,Indonesia,085396672112,,,14.667.282,124.966.547,https://maps.google.com/?cid=0x0:0x56f7823a657be343,
,hardware store,hardware store,Sulawesi Utara 95373,"Paniki Atas, Kec. Talawaan, Kabupaten Minahasa Utara, Sulawesi Utara","Kabupaten Minahasa Utara, Sulawesi Utara",SULAWESI UTARA,,Indonesia,,,,14.974.733,1.249.238.636,https://maps.google.com/?cid=0x0:0x3a1e3c0a99b6788f,
,hardware store,Toko Bahan Bangunan,UD.Murni 2 Dimembe - Toko Material dan Bahan Bangunan,"Samping Lorong Olahraga, Jl. Sukur - Likupang, Jaga V, Kec. Dimembe, Kabupaten Minahasa Utara, Sulawesi Utara 95373","Jl. Sukur - Likupang, Jaga V, Kec. Dimembe, Kabupaten Minahasa Utara",SULAWESI UTARA,95373.0,Indonesia,,,,14.907.004,1.249.758.544,https://maps.google.com/?cid=0x0:0xb183ee6014b14e0b,
,hardware store,Toko,Toko GRAND HARDWARE,"CXJH+22P, Sarongsong I, Kec. Airmadidi, Kabupaten Minahasa Utara, Sulawesi Utara","Kabupaten Minahasa Utara, Sulawesi Utara",SULAWESI UTARA,,Indonesia,,,,14.300.932,1.249.775.741,https://maps.google.com/?cid=0x0:0xd5bea6e4e94329b1,
,hardware store,Toko Perlengkapan Rumah,Grand Hardware,"Komplek Marina Plaza Blok B No. 7-10, Jl. Piere Tendean Boulevard,manado, Manado, Sulawesi Utara, 95111","Jl. Piere Tendean Boulevard,manado, Manado",SULAWESI UTARA,95111.0,Indonesia,085255443510,,,14.924.543,124.838.346,https://maps.google.com/?cid=0x0:0x513c63d19209ca5,
,hardware store,Toko Bahan Bangunan,TOKO BANGUNAN MS,"Dekat matungkas , kec dimembe, Jl. Raya Likupang, Kec. Airmadidi, Sulawesi Utara 95371","kec dimembe, Jl. Raya Likupang, Kec. Airmadidi",SULAWESI UTARA,95371.0,Indonesia,085396672112,,,14.667.282,124.966.547,https://maps.google.com/?cid=0x0:0x56f7823a657be343,
,hardware store,hardware store,Kec. Dimembe,"Kabupaten Minahasa Utara, Sulawesi Utara","Kabupaten Minahasa Utara, Sulawesi Utara",SULAWESI UTARA,,Indonesia,,,,1.528.553,1.249.927.382,https://maps.google.com/?cid=0x0:0x3bd2dc6d44a266a9,
,hardware store,hardware store,Toko Bangunan UD. Gloria - MINUT,"Jl. Soekarno No.D-291, Sarongsong II, Kec. Dimembe, Kabupaten Minahasa Utara, Sulawesi Utara 95371","Sarongsong II, Kec. Dimembe, Kabupaten Minahasa Utara",SULAWESI UTARA,95371.0,Indonesia,081350408451,,,14.610.777,1.249.672.777,https://maps.google.com/?cid=0x0:0xd53f015364e010f4,
,hardware store,Toko Bahan Bangunan,Toko Bintang Klabat Pusat Baja Ringan,"Matungkas, Kec. Dimembe, Kabupaten Minahasa Utara, Sulawesi Utara 95373","Kec. Dimembe, Kabupaten Minahasa Utara",SULAWESI UTARA,95373.0,Indonesia,082396732432,,,14.691.659,1.249.672.677,https://maps.google.com/?cid=0x0:0xf7a7af35aeb789b7,
,hardware store,Toko Bahan Bangunan,Toko Bangunan Chiko Matungkas,"FXF9+7QQ, Jl. Sukur - Likupang, Matungkas, Kec. Dimembe, Kabupaten Minahasa Utara, Sulawesi Utara","Kabupaten Minahasa Utara, Sulawesi Utara",SULAWESI UTARA,,Indonesia,085340940004,,,14.732.046,1.249.694.978,https://maps.google.com/?cid=0x0:0xb10a524c66bf6d30,
,hardware store,Toko Bahan Bangunan,Matungkas Jaya (Toko Bangunan),"FXGC+67C, Jl. Sukur - Likupang, Matungkas, Kec. Dimembe, Kabupaten Minahasa Utara, Sulawesi Utara","Kabupaten Minahasa Utara, Sulawesi Utara",SULAWESI UTARA,,Indonesia,082333344765,,,14.755.556,1.249.706.543,https://maps.google.com/?cid=0x0:0x9356ce9cff86f7f2,
,hardware store,Pusat Perbelanjaan,UD Diareta,"GXFQ+MWR, Jl. Sukur - Likupang, Warukapas, Kec. Dimembe, Kabupaten Minahasa Utara, Sulawesi Utara","Kabupaten Minahasa Utara, Sulawesi Utara",SULAWESI UTARA,,Indonesia,085298625599,,,15.242.496,1.249.897.575,https://maps.google.com/?cid=0x0:0xf0abc32cc10421a4,
,hardware store,Toko Bahan Bangunan,Toko sumber terang,"Jl. Ir. Soekarno No.88, Kolongan Tetempangan, Kec. Kalawat, Kabupaten Minahasa Utara, Sulawesi Utara","Kabupaten Minahasa Utara, Sulawesi Utara",SULAWESI UTARA,,Indonesia,089698079913,,,14.764.815,1.249.366.244,https://maps.google.com/?cid=0x0:0x804c90914228033c,
,hardware store,Toko bahan makanan,Kel.Malendes.Tumpia (bule/rinto),"Kolongan, Kec. Kalawat, Kabupaten Minahasa Utara, Sulawesi Utara","Kabupaten Minahasa Utara, Sulawesi Utara",SULAWESI UTARA,,Indonesia,089612231389,,,1.450.796,1.249.422.676,https://maps.google.com/?cid=0x0:0xaae9bb0e7f8f1704,
,hardware store,Grosir,Toko Samudra,"HX3X+HF6, Jl. Sukur - Likupang, Wasian, Kec. Dimembe, Kabupaten Minahasa Utara, Sulawesi Utara","Kabupaten Minahasa Utara, Sulawesi Utara",SULAWESI UTARA,,Indonesia,,,,15.539.114,1.249.986.522,https://maps.google.com/?cid=0x0:0x7a6ca99e7558105b,
,hardware store,Pasar bahan bangunan,Toko Kolongan Jaya,"FW8G+69M, Jl. Raya Manado - Bitung, Kolongan, Kec. Kalawat, Kabupaten Minahasa Utara, Sulawesi Utara","Kabupaten Minahasa Utara, Sulawesi Utara",SULAWESI UTARA,,Indonesia,085240515970,,,1.465.596,1.249.259.371,https://maps.google.com/?cid=0x0:0x7f97f6ae08991b58,
,hardware store,Toko Bahan Bangunan,Toko sumber terang,"Jl. Ir. Soekarno No.88, Kolongan Tetempangan, Kec. Kalawat, Kabupaten Minahasa Utara, Sulawesi Utara","Kabupaten Minahasa Utara, Sulawesi Utara",SULAWESI UTARA,,Indonesia,089698079913,,,14.764.815,1.249.366.244,https://maps.google.com/?cid=0x0:0x804c90914228033c,
,hardware store,Toko,Toko GRAND HARDWARE,"CXJH+22P, Sarongsong I, Kec. Airmadidi, Kabupaten Minahasa Utara, Sulawesi Utara","Kabupaten Minahasa Utara, Sulawesi Utara",SULAWESI UTARA,,Indonesia,,,,14.300.932,1.249.775.741,https://maps.google.com/?cid=0x0:0xd5bea6e4e94329b1,
,hardware store,Toko Bahan Bangunan,DeDo Supermarket,"Jl. Raya Manado - Bitung, Maumbi, Kec. Kalawat, Kabupaten Minahasa Utara, Sulawesi Utara","Kabupaten Minahasa Utara, Sulawesi Utara",SULAWESI UTARA,,Indonesia,082363111170,,,14.783.792,1.249.086.253,https://maps.google.com/?cid=0x0:0x2d4a0393891ebb97,
,hardware store,Toko Bahan Bangunan,GranD Prima Manado,"Kompleks MonacoBay, Jl. Piere Tendean No.1 Blok A, Kota Manado, Sulawesi Utara 95111","Jl. Piere Tendean No.1 Blok A, Kota Manado",SULAWESI UTARA,95111.0,Indonesia,081244158352,,,1.487.165,124.836.687,https://maps.google.com/?cid=0x0:0x7138f00ecfef2196,
,hardware store,Toko Obat,GShop Kalawat,"jaga 3 Kolongan, Kawangkoan, Kec. Kalawat, Kabupaten Minahasa Utara, Sulawesi Utara 95378","Kawangkoan, Kec. Kalawat, Kabupaten Minahasa Utara",SULAWESI UTARA,95378.0,Indonesia,082156633305,,,14.534.904,1.249.329.351,https://maps.google.com/?cid=0x0:0x1c661e9567103107,
,hardware store,hardware store,Kec. Kauditan,"Kabupaten Minahasa Utara, Sulawesi Utara","Kabupaten Minahasa Utara, Sulawesi Utara",SULAWESI UTARA,,Indonesia,,,,13.931.442,125.042.732,https://maps.google.com/?cid=0x0:0x2d255a96bf594260,
,hardware store,Toko Bahan Bangunan,Kios IMANUEL,"desa, Kauditan II, Kec. Kauditan, Kabupaten Minahasa Utara, Sulawesi Utara","Kabupaten Minahasa Utara, Sulawesi Utara",SULAWESI UTARA,,Indonesia,082193319910,,,13.910.229,1.250.480.414,https://maps.google.com/?cid=0x0:0x1a0fb236dec656af,
,hardware store,Toko,Toko GRAND HARDWARE,"CXJH+22P, Sarongsong I, Kec. Airmadidi, Kabupaten Minahasa Utara, Sulawesi Utara","Kabupaten Minahasa Utara, Sulawesi Utara",SULAWESI UTARA,,Indonesia,,,,14.300.932,1.249.775.741,https://maps.google.com/?cid=0x0:0xd5bea6e4e94329b1,
,hardware store,Komplek perumahan,Kezia home,"CX3V+CGR, Tumaluntung, Kec. Kauditan, Kabupaten Minahasa Utara, Sulawesi Utara","Kabupaten Minahasa Utara, Sulawesi Utara",SULAWESI UTARA,,Indonesia,,,,14.036.121,1.249.937.537,https://maps.google.com/?cid=0x0:0x6ccd979adda3140,
,hardware store,Toko Bahan Bangunan,Grand Hardware,"C4PC+9FV, Jl. Raya Manado - Bitung, Girian Weru Dua, Kec. Girian, Kota Bitung, Sulawesi Utara 95864","Jl. Raya Manado - Bitung, Girian Weru Dua, Kec. Girian, Kota Bitung",SULAWESI UTARA,95864.0,Indonesia,,,,14.359.832,125.121.166,https://maps.google.com/?cid=0x0:0x19a823dd6e850cfd,
,hardware store,Toko Bahan Bangunan,Sumber Harapan,"Sarongsong I, Kec. Airmadidi, Kabupaten Minahasa Utara, Sulawesi Utara","Kabupaten Minahasa Utara, Sulawesi Utara",SULAWESI UTARA,,Indonesia,082122228701,,,14.284.998,1.249.789.791,https://maps.google.com/?cid=0x0:0x6102f8e8e85ca953,
,hardware store,hardware store,Toko Bangunan UD. Gloria - MINUT,"Jl. Soekarno No.D-291, Sarongsong II, Kec. Dimembe, Kabupaten Minahasa Utara, Sulawesi Utara 95371","Sarongsong II, Kec. Dimembe, Kabupaten Minahasa Utara",SULAWESI UTARA,95371.0,Indonesia,081350408451,,,14.610.777,1.249.672.777,https://maps.google.com/?cid=0x0:0xd53f015364e010f4,
,hardware store,Kios,Kauditan,"92H3+J62, Lembean, Kec. Kauditan, Kabupaten Minahasa Utara, Sulawesi Utara","Kabupaten Minahasa Utara, Sulawesi Utara",SULAWESI UTARA,,Indonesia,,,,1.379.006,125.003.015,https://maps.google.com/?cid=0x0:0xa5a1586cc74ca547,
,hardware store,Toko Fotokopi,Greybell Fotocopy And Stationary,"Jl. Arnold Mononutu, Kaasar, Kec. Kauditan, Kabupaten Minahasa Utara, Sulawesi Utara","Kabupaten Minahasa Utara, Sulawesi Utara",SULAWESI UTARA,,Indonesia,081355688717,,,13.989.345,1.250.121.661,https://maps.google.com/?cid=0x0:0x7f6a0d3510f647d2,
,hardware store,Toko Perlengkapan Rumah,MR.DIY,"Jl. Raya Manado - Bitung No.871, Airmadidi Atas, Kec. Airmadidi, Kabupaten Minahasa Utara, Sulawesi Utara","Kabupaten Minahasa Utara, Sulawesi Utara",SULAWESI UTARA,,Indonesia,,,,1.419.665,1.249.877.989,https://maps.google.com/?cid=0x0:0x6b10aff0b5f80bb8,
,hardware store,Toko Bahan Bangunan,Depo Bangunan Baru,"Airmadidi Atas, Kec. Airmadidi, Kabupaten Minahasa Utara, Sulawesi Utara","Kabupaten Minahasa Utara, Sulawesi Utara",SULAWESI UTARA,,Indonesia,08114667779,,,14.209.652,1.249.858.983,https://maps.google.com/?cid=0x0:0x39d09d0fdcf3ce9a,
,hardware store,Toko Bahan Bangunan,"Cipta Sarana, Sukur, Airmadidi","Jl. Raya Manado - Bitung, Sukur, Kec. Airmadidi, Kabupaten Minahasa Utara, Sulawesi Utara","Kabupaten Minahasa Utara, Sulawesi Utara",SULAWESI UTARA,,Indonesia,,,,14.476.341,1.249.596.084,https://maps.google.com/?cid=0x0:0x666bbfc04e00e06c,
,hardware store,Toko Bahan Bangunan,Toko Bintang Klabat Pusat Baja Ringan,"Matungkas, Kec. Dimembe, Kabupaten Minahasa Utara, Sulawesi Utara 95373","Kec. Dimembe, Kabupaten Minahasa Utara",SULAWESI UTARA,95373.0,Indonesia,082396732432,,,14.691.659,1.249.672.677,https://maps.google.com/?cid=0x0:0xf7a7af35aeb789b7,
,hardware store,Toko Bunga,KEMBANG DEISY AIRMADIDI,"Airmadidi Atas, Kec. Airmadidi, Kabupaten Minahasa Utara, Sulawesi Utara","Kabupaten Minahasa Utara, Sulawesi Utara",SULAWESI UTARA,,Indonesia,081244008888,,,14.226.343,1.249.843.667,https://maps.google.com/?cid=0x0:0x6db8531055389581,
,hardware store,Toko Perlengkapan Rumah,Toko Sumber Meubel Elektronik Bangunan,"Jl. Raya Manado - Bitung, Sarongsong I, Kec. Airmadidi, Kabupaten Minahasa Utara, Sulawesi Utara","Kabupaten Minahasa Utara, Sulawesi Utara",SULAWESI UTARA,,Indonesia,085146472422,,,14.279.751,1.249.791.172,https://maps.google.com/?cid=0x0:0xfe4620b5cfc9b497,
,hardware store,Toko Perlengkapan Rumah,Grand Hardware,"Komplek Marina Plaza Blok B No. 7-10, Jl. Piere Tendean Boulevard,manado, Manado, Sulawesi Utara, 95111","Jl. Piere Tendean Boulevard,manado, Manado",SULAWESI UTARA,95111.0,Indonesia,085255443510,,,14.924.543,124.838.346,https://maps.google.com/?cid=0x0:0x513c63d19209ca5,
,hardware store,Toko Bahan Bangunan,Toko Bangunan Imanuel,"Girian Indah, Kec. Girian, Kota Bitung, Sulawesi Utara","Kota Bitung, Sulawesi Utara",SULAWESI UTARA,,Indonesia,082347833391,,,14.404.342,1.251.246.168,https://maps.google.com/?cid=0x0:0xcb39ef8127bda51b,
,hardware store,Toko Alat Tulis Kantor,Toko Trendy Airmadidi,"Rumah Sakit Umum Tonsea, Sarongsong I, Kec. Airmadidi, Kabupaten Minahasa Utara, Sulawesi Utara","Kabupaten Minahasa Utara, Sulawesi Utara",SULAWESI UTARA,,Indonesia,,,,14.273.575,1.249.787.793,https://maps.google.com/?cid=0x0:0xf99c9aa0fefefbbf,
,hardware store,Toko Bahan Bangunan,Toko Bahan Bangunan Adel Jaya,"Jl. Arnold Mononutu, Airmadidi Atas, Kec. Airmadidi, Kota Manado, Sulawesi Utara 95371","Airmadidi Atas, Kec. Airmadidi, Kota Manado",SULAWESI UTARA,95371.0,Indonesia,081356527782,,,14.263.083,124.980.685,https://maps.google.com/?cid=0x0:0x99117017828bdce0,
,hardware store,Toko Bahan Bangunan,TOKO BANGUNAN MS,"Dekat matungkas , kec dimembe, Jl. Raya Likupang, Kec. Airmadidi, Sulawesi Utara 95371","kec dimembe, Jl. Raya Likupang, Kec. Airmadidi",SULAWESI UTARA,95371.0,Indonesia,085396672112,,,14.667.282,124.966.547,https://maps.google.com/?cid=0x0:0x56f7823a657be343,
,hardware store,Toko,Home JhanLee Manenda,"CXVC+5PV, Sukur, Kec. Airmadidi, Kabupaten Minahasa Utara, Sulawesi Utara","Kabupaten Minahasa Utara, Sulawesi Utara",SULAWESI UTARA,,Indonesia,089507929299,,,14.429.902,1.249.717.939,https://maps.google.com/?cid=0x0:0x537118f517954acf,
,hardware store,Kantor Perusahaan,Toko Christopher,"92VR+3RR, Jl. Arnold Mononutu, Kawiley, Kec. Kauditan, Kabupaten Minahasa Utara, Sulawesi Utara","Kabupaten Minahasa Utara, Sulawesi Utara",SULAWESI UTARA,,Indonesia,08124889278,,,13.927.745,1.250.420.047,https://maps.google.com/?cid=0x0:0xf9946406078e5cd,
,hardware store,Pemasok Bahan Bangunan,ELDEMA,"Luaan, Tondano Tim., Kabupaten Minahasa, Sulawesi Utara 95614","Tondano Tim., Kabupaten Minahasa",SULAWESI UTARA,95614.0,Indonesia,085159411023,,,12.952.559,1.249.547.967,https://maps.google.com/?cid=0x0:0x389181ef0a747f78,
,hardware store,Toko Alat Tulis,Zerina Colection,"Kawiley, Kec. Kauditan, Kabupaten Minahasa Utara, Sulawesi Utara","Kabupaten Minahasa Utara, Sulawesi Utara",SULAWESI UTARA,,Indonesia,08114381859,,,13.901.591,1.250.381.208,https://maps.google.com/?cid=0x0:0x516d724a0c1201ee,
,hardware store,hardware store,Kec. Kema,"Kabupaten Minahasa Utara, Sulawesi Utara","Kabupaten Minahasa Utara, Sulawesi Utara",SULAWESI UTARA,,Indonesia,,,,13.717.732,1.250.714.941,https://maps.google.com/?cid=0x0:0x9d12383cee2836a3,
,hardware store,Toko,Toko GRAND HARDWARE,"CXJH+22P, Sarongsong I, Kec. Airmadidi, Kabupaten Minahasa Utara, Sulawesi Utara","Kabupaten Minahasa Utara, Sulawesi Utara",SULAWESI UTARA,,Indonesia,,,,14.300.932,1.249.775.741,https://maps.google.com/?cid=0x0:0xd5bea6e4e94329b1,
,hardware store,Toko Bahan Bangunan,Grand Hardware,"C4PC+9FV, Jl. Raya Manado - Bitung, Girian Weru Dua, Kec. Girian, Kota Bitung, Sulawesi Utara 95864","Jl. Raya Manado - Bitung, Girian Weru Dua, Kec. Girian, Kota Bitung",SULAWESI UTARA,95864.0,Indonesia,,,,14.359.832,125.121.166,https://maps.google.com/?cid=0x0:0x19a823dd6e850cfd,
,hardware store,Toko Perlengkapan Rumah,Grand Hardware,"FR58+3RF, Malalayang Satu, Kec. Malalayang, Kota Manado, Sulawesi Utara","Kota Manado, Sulawesi Utara",SULAWESI UTARA,,Indonesia,,,,14.576.853,1.248.170.507,https://maps.google.com/?cid=0x0:0xfd46d3ac7a01670e,
,hardware store,Toko Alat Tulis,Zerina Colection,"Kawiley, Kec. Kauditan, Kabupaten Minahasa Utara, Sulawesi Utara","Kabupaten Minahasa Utara, Sulawesi Utara",SULAWESI UTARA,,Indonesia,08114381859,,,13.901.591,1.250.381.208,https://maps.google.com/?cid=0x0:0x516d724a0c1201ee,
,hardware store,hardware store,J7c-aMLqFdGXxc8PubKA-QY,,,SULAWESI UTARA,,Indonesia,082177722268,,,1.411.088,125.110.178,https://maps.google.com/?cid=0x0:0xcd23475ab54686af,
,hardware store,hardware store,Toko baut screw,"jaga v, Kema Tiga, Kema, North Minahasa Regency, North Sulawesi 95379","Kema Tiga, Kema, North Minahasa Regency",SULAWESI UTARA,95379.0,Indonesia,,,,13.600.815,1.250.743.913,https://maps.google.com/?cid=0x0:0x83ce317f232a0b2b,
,hardware store,Toko Perlengkapan Rumah,Grand Hardware,"Komplek Marina Plaza Blok B No. 7-10, Jl. Piere Tendean Boulevard,manado, Manado, Sulawesi Utara, 95111","Jl. Piere Tendean Boulevard,manado, Manado",SULAWESI UTARA,95111.0,Indonesia,085255443510,,,14.924.543,124.838.346,https://maps.google.com/?cid=0x0:0x513c63d19209ca5,
,hardware store,Toko Perlengkapan Rumah,Toko Sumber Meubel Elektronik Bangunan,"Jl. Raya Manado - Bitung, Sarongsong I, Kec. Airmadidi, Kabupaten Minahasa Utara, Sulawesi Utara","Kabupaten Minahasa Utara, Sulawesi Utara",SULAWESI UTARA,,Indonesia,085146472422,,,14.279.751,1.249.791.172,https://maps.google.com/?cid=0x0:0xfe4620b5cfc9b497,
,hardware store,Toko Bahan Bangunan,GranD Prima Manado,"Kompleks MonacoBay, Jl. Piere Tendean No.1 Blok A, Kota Manado, Sulawesi Utara 95111","Jl. Piere Tendean No.1 Blok A, Kota Manado",SULAWESI UTARA,95111.0,Indonesia,081244158352,,,1.487.165,124.836.687,https://maps.google.com/?cid=0x0:0x7138f00ecfef2196,
,hardware store,Toko Bahan Bangunan,TB.MERIBA (Toko Bangunan),"7WX6+4XP, Taler, Tondano Tim., Kabupaten Minahasa, Sulawesi Utara","Kabupaten Minahasa, Sulawesi Utara",SULAWESI UTARA,,Indonesia,085696259199,,,12.978.375,1.249.124.531,https://maps.google.com/?cid=0x0:0x92ba361f80294412,
,hardware store,Toko Bahan Bangunan,Toko Bangunan Tandengan,"Jl. Tondano - Kakas, Tandengan, Kec. Eris, Kabupaten Minahasa, Sulawesi Utara","Kabupaten Minahasa, Sulawesi Utara",SULAWESI UTARA,,Indonesia,,,,12.356.425,1.249.243.613,https://maps.google.com/?cid=0x0:0x5da871fb5996e1d4,
,hardware store,Pemasok Bahan Bangunan,Toko Bangunan Cendrawasih,"Taler, Tondano Tim., Kabupaten Minahasa, Sulawesi Utara","Kabupaten Minahasa, Sulawesi Utara",SULAWESI UTARA,,Indonesia,081343561691,,,12.984.892,1.249.127.644,https://maps.google.com/?cid=0x0:0x563050a595f334a3,
,hardware store,Toko Elektronik,PT. INDOTEKNIK DOTCOM GEMILANG,"3, Jl. Bandengan Utara Raya No.85A, RW.16, Penjaringan, Kec. Penjaringan, Jkt Utara, Daerah Khusus Ibukota Jakarta 14440","Jl. Bandengan Utara Raya No.85A, RW.16, Penjaringan, Kec. Penjaringan, Jkt Utara",SULAWESI UTARA,14440.0,Indonesia,02129338828,,,-61.369.179,10.679.436,https://maps.google.com/?cid=0x0:0xf51b4dc3900205ce,
,hardware store,Toko Alat-Alat,Indo Teknik,"Duta Indah Square 2 Blok F No.2, Jl. Teluk Gong Raya, RT.6/RW.9, Pejagalan, Kec. Penjaringan, Jkt Utara, Daerah Khusus Ibukota Jakarta 14450","Jl. Teluk Gong Raya, RT.6/RW.9, Pejagalan, Kec. Penjaringan, Jkt Utara",SULAWESI UTARA,14450.0,Indonesia,02166606979,,,-61.362.434,106.780.681,https://maps.google.com/?cid=0x0:0x9b158796839ddf70,
,hardware store,hardware store,Kec. Likupang Bar.,"Kabupaten Minahasa Utara, Sulawesi Utara","Kabupaten Minahasa Utara, Sulawesi Utara",SULAWESI UTARA,,Indonesia,,,,1.692.583,1.250.117.119,https://maps.google.com/?cid=0x0:0x4ad9ed2bf8ddc336,
,hardware store,Pasar bahan bangunan,Toko sinar berkat,"Desah, Mubune, Kec. Likupang Bar., Kota manado, Sulawesi Utara 95378","Mubune, Kec. Likupang Bar., Kota manado",SULAWESI UTARA,95378.0,Indonesia,081253583735,,,17.106.689,1.250.110.012,https://maps.google.com/?cid=0x0:0x139ab13effd89977,
,hardware store,Toko Bahan Bangunan,Toko bangunan LIKUPANG JAYA,"M395+QRX, Likupang II, Kec. Likupang Tim., Kabupaten Minahasa Utara, Sulawesi Utara","Kabupaten Minahasa Utara, Sulawesi Utara",SULAWESI UTARA,,Indonesia,,,,16.694.616,1.250.597.135,https://maps.google.com/?cid=0x0:0x7aece044884761f5,
,hardware store,Toko Alat Pancing,TEKNIK JAYA LIKUPANG,"Jalan Raya Likupang No.1, Kabupaten Minahasa Utara, Sulawesi Utara 95375",Kabupaten Minahasa Utara,SULAWESI UTARA,95375.0,Indonesia,085255555715,,,16.729.649,1.250.614.948,https://maps.google.com/?cid=0x0:0x99522b354f5e90bf,
,hardware store,Toko Fotokopi,BINTANG FOTOCOPY,"Unnamed Road, Munte, Kec. Likupang Bar., Kabupaten Minahasa Utara, Sulawesi Utara","Kabupaten Minahasa Utara, Sulawesi Utara",SULAWESI UTARA,,Indonesia,085282679714,,,16.919.724,1.250.111.858,https://maps.google.com/?cid=0x0:0xb75ee33645030b1c,
,hardware store,Toko,Cahaya Fotocopy,"Jln. Likupang Jaga IV, Serei, Wori, Kabupaten Minahasa Utara, Sulawesi Utara 95377","Serei, Wori, Kabupaten Minahasa Utara",SULAWESI UTARA,95377.0,Indonesia,082345985049,,,1.736.035,125.007.788,https://maps.google.com/?cid=0x0:0x114b29d5e72d3ec6,
,hardware store,Toko Bahan Bangunan,Dhea Jaya,"Dekat, Wineru, Kec. Likupang Tim., Kabupaten Minahasa Utara, Sulawesi Utara 95375","Wineru, Kec. Likupang Tim., Kabupaten Minahasa Utara",SULAWESI UTARA,95375.0,Indonesia,,,,1.660.173,1.251.055.555,https://maps.google.com/?cid=0x0:0x10b842c850f1fcbb,
,hardware store,hardware store,Kec. Likupang Sel.,"Kabupaten Minahasa Utara, Sulawesi Utara","Kabupaten Minahasa Utara, Sulawesi Utara",SULAWESI UTARA,,Indonesia,,,,16.154.658,1.250.277.057,https://maps.google.com/?cid=0x0:0x1c90d6707d558a25,
,hardware store,Toko Bahan Bangunan,Toko bangunan pak haji pian (Toko Amel),"Likupang II, Kec. Likupang Tim., Kabupaten Minahasa Utara, Sulawesi Utara 95375","Kec. Likupang Tim., Kabupaten Minahasa Utara",SULAWESI UTARA,95375.0,Indonesia,081356520798,,,16.732.482,1.250.612.162,https://maps.google.com/?cid=0x0:0xbcb61ae0385b4a57,
,hardware store,Toko Bahan Bangunan,Toko bangunan LIKUPANG JAYA,"M395+QRX, Likupang II, Kec. Likupang Tim., Kabupaten Minahasa Utara, Sulawesi Utara","Kabupaten Minahasa Utara, Sulawesi Utara",SULAWESI UTARA,,Indonesia,,,,16.694.616,1.250.597.135,https://maps.google.com/?cid=0x0:0x7aece044884761f5,
,hardware store,Grosir,Toko Samudra,"HX3X+HF6, Jl. Sukur - Likupang, Wasian, Kec. Dimembe, Kabupaten Minahasa Utara, Sulawesi Utara","Kabupaten Minahasa Utara, Sulawesi Utara",SULAWESI UTARA,,Indonesia,,,,15.539.114,1.249.986.522,https://maps.google.com/?cid=0x0:0x7a6ca99e7558105b,
,hardware store,Toko Fotokopi,BINTANG FOTOCOPY,"Unnamed Road, Munte, Kec. Likupang Bar., Kabupaten Minahasa Utara, Sulawesi Utara","Kabupaten Minahasa Utara, Sulawesi Utara",SULAWESI UTARA,,Indonesia,085282679714,,,16.919.724,1.250.111.858,https://maps.google.com/?cid=0x0:0xb75ee33645030b1c,
,hardware store,Minimarket,Toko Shine Likupang,"Likupang II, Kec. Likupang Tim., Kabupaten Minahasa Utara, Sulawesi Utara","Kabupaten Minahasa Utara, Sulawesi Utara",SULAWESI UTARA,,Indonesia,04317003033,,,16.718.258,1.250.599.058,https://maps.google.com/?cid=0x0:0x8787e69005b49ed9,
,hardware store,Toko,Toko GRAND HARDWARE,"CXJH+22P, Sarongsong I, Kec. Airmadidi, Kabupaten Minahasa Utara, Sulawesi Utara","Kabupaten Minahasa Utara, Sulawesi Utara",SULAWESI UTARA,,Indonesia,,,,14.300.932,1.249.775.741,https://maps.google.com/?cid=0x0:0xd5bea6e4e94329b1,
,hardware store,hardware store,Kec. Likupang Tim.,"Kabupaten Minahasa Utara, Sulawesi Utara","Kabupaten Minahasa Utara, Sulawesi Utara",SULAWESI UTARA,,Indonesia,,,,16.567.027,1.251.102.134,https://maps.google.com/?cid=0x0:0xfb7b50a78e0c1b1b,
,hardware store,Toko Bahan Bangunan,Toko bangunan pak haji pian (Toko Amel),"Likupang II, Kec. Likupang Tim., Kabupaten Minahasa Utara, Sulawesi Utara 95375","Kec. Likupang Tim., Kabupaten Minahasa Utara",SULAWESI UTARA,95375.0,Indonesia,081356520798,,,16.732.482,1.250.612.162,https://maps.google.com/?cid=0x0:0xbcb61ae0385b4a57,
,hardware store,Toko Bahan Bangunan,Toko bangunan LIKUPANG JAYA,"M395+QRX, Likupang II, Kec. Likupang Tim., Kabupaten Minahasa Utara, Sulawesi Utara","Kabupaten Minahasa Utara, Sulawesi Utara",SULAWESI UTARA,,Indonesia,,,,16.694.616,1.250.597.135,https://maps.google.com/?cid=0x0:0x7aece044884761f5,
,hardware store,Toko Bahan Bangunan,Dhea Jaya,"Dekat, Wineru, Kec. Likupang Tim., Kabupaten Minahasa Utara, Sulawesi Utara 95375","Wineru, Kec. Likupang Tim., Kabupaten Minahasa Utara",SULAWESI UTARA,95375.0,Indonesia,,,,1.660.173,1.251.055.555,https://maps.google.com/?cid=0x0:0x10b842c850f1fcbb,
,hardware store,Toko Alat Tulis,Fotocopy Attarrauf,"Maen, Kec. Likupang Tim., Kabupaten Minahasa Utara, Sulawesi Utara 95375","Kec. Likupang Tim., Kabupaten Minahasa Utara",SULAWESI UTARA,95375.0,Indonesia,085256356306,,,16.570.906,1.251.102.326,https://maps.google.com/?cid=0x0:0x7e666a59f38531b7,
,hardware store,Pasar bahan bangunan,Toko sinar berkat,"Desah, Mubune, Kec. Likupang Bar., Kota manado, Sulawesi Utara 95378","Mubune, Kec. Likupang Bar., Kota manado",SULAWESI UTARA,95378.0,Indonesia,081253583735,,,17.106.689,1.250.110.012,https://maps.google.com/?cid=0x0:0x139ab13effd89977,
,hardware store,hardware store,Sulawesi Utara 95373,"Paniki Atas, Kec. Talawaan, Kabupaten Minahasa Utara, Sulawesi Utara","Kabupaten Minahasa Utara, Sulawesi Utara",SULAWESI UTARA,,Indonesia,,,,14.974.733,1.249.238.636,https://maps.google.com/?cid=0x0:0x3a1e3c0a99b6788f,
,hardware store,Toko,Toko GRAND HARDWARE,"CXJH+22P, Sarongsong I, Kec. Airmadidi, Kabupaten Minahasa Utara, Sulawesi Utara","Kabupaten Minahasa Utara, Sulawesi Utara",SULAWESI UTARA,,Indonesia,,,,14.300.932,1.249.775.741,https://maps.google.com/?cid=0x0:0xd5bea6e4e94329b1,
,hardware store,Toko Perlengkapan Rumah,Grand Hardware,"Komplek Marina Plaza Blok B No. 7-10, Jl. Piere Tendean Boulevard,manado, Manado, Sulawesi Utara, 95111","Jl. Piere Tendean Boulevard,manado, Manado",SULAWESI UTARA,95111.0,Indonesia,085255443510,,,14.924.543,124.838.346,https://maps.google.com/?cid=0x0:0x513c63d19209ca5,
,hardware store,hardware store,Kec. Tebet,"Kota Jakarta Selatan, Daerah Khusus Ibukota Jakarta","Kota Jakarta Selatan, Daerah Khusus Ibukota Jakarta",SULAWESI UTARA,,Indonesia,,,,-62.251.223,1.068.549.881,https://maps.google.com/?cid=0x0:0xd575e31c807295f9,
,hardware store,hardware store,Wori,"Kabupaten Minahasa Utara, Sulawesi Utara","Kabupaten Minahasa Utara, Sulawesi Utara",SULAWESI UTARA,,Indonesia,,,,15.986.509,1.248.599.034,https://maps.google.com/?cid=0x0:0x1e44c8cf84925b11,
,hardware store,Toko,Toko GRAND HARDWARE,"CXJH+22P, Sarongsong I, Kec. Airmadidi, Kabupaten Minahasa Utara, Sulawesi Utara","Kabupaten Minahasa Utara, Sulawesi Utara",SULAWESI UTARA,,Indonesia,,,,14.300.932,1.249.775.741,https://maps.google.com/?cid=0x0:0xd5bea6e4e94329b1,
,hardware store,Toko Perlengkapan Rumah,Grand Hardware,"Komplek Marina Plaza Blok B No. 7-10, Jl. Piere Tendean Boulevard,manado, Manado, Sulawesi Utara, 95111","Jl. Piere Tendean Boulevard,manado, Manado",SULAWESI UTARA,95111.0,Indonesia,085255443510,,,14.924.543,124.838.346,https://maps.google.com/?cid=0x0:0x513c63d19209ca5,
,hardware store,Toko bahan makanan,Toko Berkat Usaha,"Jaga 4, Pontoh, Wori, Kabupaten Minahasa Utara, Sulawesi Utara 95376","Pontoh, Wori, Kabupaten Minahasa Utara",SULAWESI UTARA,95376.0,Indonesia,082196763582,,,16.399.345,1.249.220.934,https://maps.google.com/?cid=0x0:0x1b87281e083dfc2b,
,hardware store,Toko,Toko Lorenzo Jaya,"Pandu, Kec. Mapanget, Kota Manado, Sulawesi Utara","Kota Manado, Sulawesi Utara",SULAWESI UTARA,,Indonesia,082188106410,,,15.675.409,1.248.742.613,https://maps.google.com/?cid=0x0:0x683151a533bde6d5,
,hardware store,Pasar bahan bangunan,Toko sinar berkat,"Desah, Mubune, Kec. Likupang Bar., Kota manado, Sulawesi Utara 95378","Mubune, Kec. Likupang Bar., Kota manado",SULAWESI UTARA,95378.0,Indonesia,081253583735,,,17.106.689,1.250.110.012,https://maps.google.com/?cid=0x0:0x139ab13effd89977,
,hardware store,Toko Bahan Bangunan,"UD. WENANG PERKASA - Building Material, Tools  Hardware","Jl. Adipura Raya, Kima Atas, Kec. Mapanget, Kota Manado, Sulawesi Utara","Kota Manado, Sulawesi Utara",SULAWESI UTARA,,Indonesia,082188228866,,,15.402.988,1.249.127.666,https://maps.google.com/?cid=0x0:0x162cd36145df143,
,hardware store,hardware store,MR.STEEL,"Jl. A.A. Maramis No.332, Paniki Bawah, Kec. Mapanget, Kota Manado, Sulawesi Utara","Kota Manado, Sulawesi Utara",SULAWESI UTARA,,Indonesia,087823472253,,,1.525.177,1.249.211.557,https://maps.google.com/?cid=0x0:0x5aaccb80d4b77d08,
,hardware store,Toko Bahan Bangunan,Toko Bangunan RR Djaya Abadi Pandu,"Jl. Pandu 2, Pandu, Kec. Mapanget, Kota Manado, Sulawesi Utara 95242","Pandu, Kec. Mapanget, Kota Manado",SULAWESI UTARA,95242.0,Indonesia,087872209969,,,15.653.684,1.248.720.056,https://maps.google.com/?cid=0x0:0xa8efe64d1bc65b5e,
,hardware store,Toko Bahan Bangunan,TOKO BERKAT SAUDARA,"GW67+C5J, Jl. A.A. Maramis, Paniki Bawah, Kec. Mapanget, Kota Manado, Sulawesi Utara 95256","Jl. A.A. Maramis, Paniki Bawah, Kec. Mapanget, Kota Manado",SULAWESI UTARA,95256.0,Indonesia,082189277348,,,15.110.625,1.249.129.375,https://maps.google.com/?cid=0x0:0x5576ec1ee953dc56,
,hardware store,Toko Bahan Bangunan,UD MARKOLINK,"Paniki Dua, Kec. Mapanget, Kota Manado, Sulawesi Utara","Kota Manado, Sulawesi Utara",SULAWESI UTARA,,Indonesia,085256732552,,,15.171.433,1.249.257.762,https://maps.google.com/?cid=0x0:0xdadcfef9d0d96e4b,
,hardware store,Toko Alat Tulis,731.Com Pandu,"RW, Lingkungan 6, Pandu, Kec. Bunaken, Kota Manado, Sulawesi Utara","Kota Manado, Sulawesi Utara",SULAWESI UTARA,,Indonesia,085399990038,,,15.691.887,1.248.747.813,https://maps.google.com/?cid=0x0:0x9ae6f50cd0ca2bdb,
,hardware store,Toko,Cahaya Fotocopy,"Jln. Likupang Jaga IV, Serei, Wori, Kabupaten Minahasa Utara, Sulawesi Utara 95377","Serei, Wori, Kabupaten Minahasa Utara",SULAWESI UTARA,95377.0,Indonesia,082345985049,,,1.736.035,125.007.788,https://maps.google.com/?cid=0x0:0x114b29d5e72d3ec6,
,hardware store,Toko Bahan Bangunan,Toko Bangunan HARAPAN BERKAT Jl. Lenkeng C no 15 GPI,"Perum GPI, Jl. Lengkeng C No.15, Kima Atas, Kec. Mapanget, Kota Manado, Sulawesi Utara","Kota Manado, Sulawesi Utara",SULAWESI UTARA,,Indonesia,081355863161,,,15.468.356,1.248.976.381,https://maps.google.com/?cid=0x0:0xdea2f61d23f1497a,
,hardware store,Toko Bahan Bangunan,UK Home Solution (Utama Karya),"Jl. Yos Sudarso No.2, Kairagi Weru, Kec. Paal Dua, Kota Manado, Sulawesi Utara 95129","Kairagi Weru, Kec. Paal Dua, Kota Manado",SULAWESI UTARA,95129.0,Indonesia,081222882323,,,14.967.511,1.248.771.159,https://maps.google.com/?cid=0x0:0x53122109844f7011,
,hardware store,Toko Bahan Bangunan,UD CINDRA,"Jl. Koka Jl. Raya Mapanget, Mapanget Bar., Kec. Mapanget, Kota Manado, Sulawesi Utara 95370","Mapanget Bar., Kec. Mapanget, Kota Manado",SULAWESI UTARA,95370.0,Indonesia,081354995948,,,15.500.134,1.249.195.503,https://maps.google.com/?cid=0x0:0x347197f6feaa58bc,
,hardware store,Toko Bahan Bangunan,Van's Ace Hardware,"2695 N Tracy Blvd, Tracy, CA 95376, Amerika Serikat","Tracy, CA",SULAWESI UTARA,95376.0,Indonesia,12098358286,,,377.560.602,-1.214.357.551,https://maps.google.com/?cid=0x0:0xe01dae5870bcff4a,
,hardware store,Toko Bahan Bangunan,Harbor Freight,"3021 N Tracy Blvd, Tracy, CA 95376, Amerika Serikat","Tracy, CA",SULAWESI UTARA,95376.0,Indonesia,12098398418,,,37.759.985,-1.214.357.888,https://maps.google.com/?cid=0x0:0xf5baee0d739a02ac,
,hardware store,hardware store,Orchard Supply Hardware,"1975 W 11th St, Tracy, CA 95376, Amerika Serikat","Tracy, CA",SULAWESI UTARA,95376.0,Indonesia,12098342808,,,377.407.518,-1.214.521.889,https://maps.google.com/?cid=0x0:0x18275be9b616004,
,home improvement,Toko Perlengkapan Rumah,MR.DIY,"Jl. Raya Manado - Bitung No.871, Airmadidi Atas, Kec. Airmadidi, Kabupaten Minahasa Utara, Sulawesi Utara","Kabupaten Minahasa Utara, Sulawesi Utara",SULAWESI UTARA,,Indonesia,,,,1.419.665,1.249.877.989,https://maps.google.com/?cid=0x0:0x6b10aff0b5f80bb8,
,home improvement,Toko Bunga,KEMBANG DEISY AIRMADIDI,"Airmadidi Atas, Kec. Airmadidi, Kabupaten Minahasa Utara, Sulawesi Utara","Kabupaten Minahasa Utara, Sulawesi Utara",SULAWESI UTARA,,Indonesia,081244008888,,,14.226.343,1.249.843.667,https://maps.google.com/?cid=0x0:0x6db8531055389581,
,home improvement,home improvement,Sulawesi Utara 95371,"Airmadidi Atas, Kec. Airmadidi, Kabupaten Minahasa Utara, Sulawesi Utara","Kabupaten Minahasa Utara, Sulawesi Utara",SULAWESI UTARA,,Indonesia,,,,14.172.327,1.249.876.821,https://maps.google.com/?cid=0x0:0x80e87fd6189d70fc,
,home improvement,Toko Perlengkapan Rumah,Toko Sumber Meubel Elektronik Bangunan,"Jl. Raya Manado - Bitung, Sarongsong I, Kec. Airmadidi, Kabupaten Minahasa Utara, Sulawesi Utara","Kabupaten Minahasa Utara, Sulawesi Utara",SULAWESI UTARA,,Indonesia,085146472422,,,14.279.751,1.249.791.172,https://maps.google.com/?cid=0x0:0xfe4620b5cfc9b497,
,home improvement,Komplek perumahan,HOMELAND MINAHASA UTARA,"Airmadidi Atas, Kec. Airmadidi, Kabupaten Minahasa Utara, Sulawesi Utara 95111","Kec. Airmadidi, Kabupaten Minahasa Utara",SULAWESI UTARA,95111.0,Indonesia,082343973186,,,14.267.451,1.249.950.908,https://maps.google.com/?cid=0x0:0xd2a9263a684d0184,
,home improvement,Komplek perumahan,Rey Home Dimembe,"FXXG+JJR, Dimembe jga 1, Kec. Dimembe, Kabupaten Minahasa Utara, Sulawesi Utara","Kabupaten Minahasa Utara, Sulawesi Utara",SULAWESI UTARA,,Indonesia,,,,14.991.077,1.249.765.531,https://maps.google.com/?cid=0x0:0x2e89ce4646354a0f,
,home improvement,home improvement,Sulawesi Utara 95373,"Paniki Atas, Kec. Talawaan, Kabupaten Minahasa Utara, Sulawesi Utara","Kabupaten Minahasa Utara, Sulawesi Utara",SULAWESI UTARA,,Indonesia,,,,14.974.733,1.249.238.636,https://maps.google.com/?cid=0x0:0x3a1e3c0a99b6788f,
,home improvement,Toko,JoeHome,"Jl. Lalan Ure No.26 Blok C, Matungkas, Kec. Dimembe, Kabupaten Minahasa Utara, Sulawesi Utara 95111","Matungkas, Kec. Dimembe, Kabupaten Minahasa Utara",SULAWESI UTARA,95111.0,Indonesia,,,,14.723.774,1.249.750.074,https://maps.google.com/?cid=0x0:0xd1010957eb6232e2,
,home improvement,Pembangunan Perumahan,My Home,"FXWQ+QM9, Dimembe, Kec. Dimembe, Kabupaten Minahasa Utara, Sulawesi Utara","Kabupaten Minahasa Utara, Sulawesi Utara",SULAWESI UTARA,,Indonesia,,,,14.969.194,1.249.892.412,https://maps.google.com/?cid=0x0:0xec5cc98c8e419c79,
,home improvement,Komplek perumahan,Obi Home,"FXJ5+4J2, Matungkas, Kec. Dimembe, Kabupaten Minahasa Utara, Sulawesi Utara","Kabupaten Minahasa Utara, Sulawesi Utara",SULAWESI UTARA,,Indonesia,,,,14.800.976,1.249.589.011,https://maps.google.com/?cid=0x0:0xb52bbb994d6af3b2,
,home improvement,Toko Mebel,Moha Home's,"CX6X+CW8, Tumaluntung, Kec. Kauditan, Kabupaten Minahasa Utara, Sulawesi Utara","Kabupaten Minahasa Utara, Sulawesi Utara",SULAWESI UTARA,,Indonesia,085240333227,,,14.109.829,124.999.784,https://maps.google.com/?cid=0x0:0x32340c229c6b01b0,
,home improvement,Komplek perumahan,ELOO HOME,"GX98+V83, Tetey, Kec. Dimembe, Kabupaten Minahasa Utara, Sulawesi Utara","Kabupaten Minahasa Utara, Sulawesi Utara",SULAWESI UTARA,,Indonesia,,,,15.196.278,1.249.657.837,https://maps.google.com/?cid=0x0:0xddf158f817746c62,
,home improvement,Kompleks Kondominium,Home (Kel.Rondonuwu-wuisan),"FXF8+879, Matungkas, Kec. Dimembe, Kabupaten Minahasa Utara, Sulawesi Utara","Kabupaten Minahasa Utara, Sulawesi Utara",SULAWESI UTARA,,Indonesia,,,,14.730.003,1.249.656.932,https://maps.google.com/?cid=0x0:0x3d79fe51888203d3,
,home improvement,Toko Mebel,Bellvania home mebel,"FX89+2JM, Matungkas, Kec. Dimembe, Kabupaten Minahasa Utara, Sulawesi Utara","Kabupaten Minahasa Utara, Sulawesi Utara",SULAWESI UTARA,,Indonesia,,,,14.650.004,1.249.689.808,https://maps.google.com/?cid=0x0:0xaff9a920a10e62eb,
,home improvement,Komplek perumahan,Home Diel,"FXJC+HMX, Matungkas, Kec. Dimembe, Kabupaten Minahasa Utara, Sulawesi Utara","Kabupaten Minahasa Utara, Sulawesi Utara",SULAWESI UTARA,,Indonesia,,,,14.814.835,1.249.717.281,https://maps.google.com/?cid=0x0:0x1b4767b0d53f6594,
,home improvement,Layanan Kesehatan di Rumah,Aqua Home Service Dimembe Jaya,"FXXH+V95, Jl. Sukur - Likupang, Dimembe, Kec. Dimembe, Kabupaten Minahasa Utara, Sulawesi Utara","Kabupaten Minahasa Utara, Sulawesi Utara",SULAWESI UTARA,,Indonesia,082293094151,,,14.996.344,1.249.784.991,https://maps.google.com/?cid=0x0:0x967970744911c76c,
,home improvement,Toko Pakaian,Vhita Home,"FXQH+R53, RT.jaga/RW.5, Laikit, Kec. Dimembe, Kabupaten Minahasa Utara, Sulawesi Utara","Kabupaten Minahasa Utara, Sulawesi Utara",SULAWESI UTARA,,Indonesia,,,,1.489.503,124.977.925,https://maps.google.com/?cid=0x0:0x4f6f6a0feebb6a34,
,home improvement,Komplek perumahan,Metonidesefri Home,"Perumahan Geovani Mas C64, Matungkas, Kabupaten Minahasa Utara, Sulawesi Utara","Kabupaten Minahasa Utara, Sulawesi Utara",SULAWESI UTARA,,Indonesia,,,,14.706.097,1.249.877.982,https://maps.google.com/?cid=0x0:0x2594363f4228ceca,
,home improvement,Komplek perumahan,Heinbert Home,"FXFG+GVR Village, Jl. Perumahan Permata Viola blok Mawar E, 54Matungkas, Kec. Dimembe, Kabupaten Minahasa Utara, Sulawesi Utara","Kabupaten Minahasa Utara, Sulawesi Utara",SULAWESI UTARA,,Indonesia,,,,14.738.626,1.249.771.395,https://maps.google.com/?cid=0x0:0xa81cdeb84502191a,
,home improvement,Rumah Kayu,Ojos Home,"FXQF+P6W, Laikit, Kec. Dimembe, Kabupaten Minahasa Utara, Sulawesi Utara","Kabupaten Minahasa Utara, Sulawesi Utara",SULAWESI UTARA,,Indonesia,085756174691,,,14.893.671,1.249.730.803,https://maps.google.com/?cid=0x0:0x59db29fd0efe4a8d,
,home improvement,,ChaidenHome,"FX89+CFC, Matungkas, Kec. Dimembe, Kabupaten Minahasa Utara, Sulawesi Utara","Kabupaten Minahasa Utara, Sulawesi Utara",SULAWESI UTARA,,Indonesia,,,,14.660.525,1.249.686.278,https://maps.google.com/?cid=0x0:0x4b72976058e4053a,
,home improvement,Rumah Kaca,VigaBebhy's Home,"FXF9+M3P, Matungkas, Kec. Dimembe, Kabupaten Minahasa Utara, Sulawesi Utara","Kabupaten Minahasa Utara, Sulawesi Utara",SULAWESI UTARA,,Indonesia,,,,1.474.207,1.249.677.152,https://maps.google.com/?cid=0x0:0x7be9246a31b6b00e,
,home improvement,Komplek perumahan,VENY HOME,"FXRG+FJM, Dimembe, Kec. Dimembe, Kabupaten Minahasa Utara, Sulawesi Utara","Kabupaten Minahasa Utara, Sulawesi Utara",SULAWESI UTARA,,Indonesia,,,,149.128,1.249.764.468,https://maps.google.com/?cid=0x0:0x310d05ea89da7912,
,home improvement,Komplek perumahan,Vinsi Home,"FXHF+6R3, Matungkas, Kec. Dimembe, Kabupaten Minahasa Utara, Sulawesi Utara","Kabupaten Minahasa Utara, Sulawesi Utara",SULAWESI UTARA,,Indonesia,,,,14.778.362,1.249.742.014,https://maps.google.com/?cid=0x0:0x43e0949ae2f576ff,
,home improvement,Komplek perumahan,Hom 3G i6,"Lan Of Grace Residence, Blok i Jl. Ahj Purukan No.6, Matungkas, Kec. Dimembe, Kabupaten Minahasa Utara, Sulawesi Utara","Kabupaten Minahasa Utara, Sulawesi Utara",SULAWESI UTARA,,Indonesia,089620164100,,,14.740.053,1.249.568.562,https://maps.google.com/?cid=0x0:0xc0cb1720726d01a6,
,home improvement,Komplek perumahan,Palandeng Home,"GX4H+4V3, Jl. Sukur - Likupang, Dimembe, Kec. Dimembe, Kabupaten Minahasa Utara, Sulawesi Utara","Kabupaten Minahasa Utara, Sulawesi Utara",SULAWESI UTARA,,Indonesia,,,,15.052.723,1.249.796.844,https://maps.google.com/?cid=0x0:0x162c1eb494cc29c3,
,home improvement,Taman,Home Davis,"FXXG+R87, Dimembe, Kec. Dimembe, Kabupaten Minahasa Utara, Sulawesi Utara","Kabupaten Minahasa Utara, Sulawesi Utara",SULAWESI UTARA,,Indonesia,,,,1.499.531,1.249.757.819,https://maps.google.com/?cid=0x0:0x518744d1d4af6599,
,home improvement,Toko Bahan Bangunan,UD.Murni 2 Dimembe - Toko Material dan Bahan Bangunan,"Samping Lorong Olahraga, Jl. Sukur - Likupang, Jaga V, Kec. Dimembe, Kabupaten Minahasa Utara, Sulawesi Utara 95373","Jl. Sukur - Likupang, Jaga V, Kec. Dimembe, Kabupaten Minahasa Utara",SULAWESI UTARA,95373.0,Indonesia,,,,14.907.004,1.249.758.544,https://maps.google.com/?cid=0x0:0xb183ee6014b14e0b,
,home improvement,Pembangunan Perumahan,Home Didi Aw,"FXMG+CR9, Laikit, Kec. Dimembe, Kabupaten Minahasa Utara, Sulawesi Utara","Kabupaten Minahasa Utara, Sulawesi Utara",SULAWESI UTARA,,Indonesia,,,,14.834.866,124.977.114,https://maps.google.com/?cid=0x0:0x9412216cbad3d4b5,
,home improvement,Komplek perumahan,Home Pa kaya Siwu,"Viola, blok L72, Matungkas, Kec. Dimembe, Kabupaten Minahasa Utara, Sulawesi Utara","Kabupaten Minahasa Utara, Sulawesi Utara",SULAWESI UTARA,,Indonesia,,,,14.686.368,1.249.739.657,https://maps.google.com/?cid=0x0:0xe9cd76c2998297be,
,home improvement,Perusahaan Konstruksi,CV. LIMAR CEMERLANG,"Desa, tetey, Kec. Talawaan, Kabupaten Minahasa Utara, Sulawesi Utara 95373","tetey, Kec. Talawaan, Kabupaten Minahasa Utara",SULAWESI UTARA,95373.0,Indonesia,,,,14.974.547,1.249.238.626,https://maps.google.com/?cid=0x0:0x27d7a005efd10f8e,
,home improvement,home improvement,Kec. Dimembe,"Kabupaten Minahasa Utara, Sulawesi Utara","Kabupaten Minahasa Utara, Sulawesi Utara",SULAWESI UTARA,,Indonesia,,,,1.528.553,1.249.927.382,https://maps.google.com/?cid=0x0:0x3bd2dc6d44a266a9,
,home improvement,Pembangunan Perumahan,Ibrani Home,"Jl. Giovanni Mas blok c no 41, Matungkas, Kec. Dimembe, Kabupaten Minahasa Utara, Sulawesi Utara","Kabupaten Minahasa Utara, Sulawesi Utara",SULAWESI UTARA,,Indonesia,,,,14.710.546,1.249.869.559,https://maps.google.com/?cid=0x0:0x63962302354d1adf,
,home improvement,Komplek perumahan,Meidy Home,"FX9C+PQ4, Jl. Kasuari V, Matungkas, Kec. Dimembe, Kabupaten Minahasa Utara, Sulawesi Utara","Kabupaten Minahasa Utara, Sulawesi Utara",SULAWESI UTARA,,Indonesia,,,,146.926,1.249.719.535,https://maps.google.com/?cid=0x0:0xeb611556741f288b,
,home improvement,Tempat Ibadah,HOME,"Jl. Raya Manado - Bitung No.145, Maumbi, Kec. Kalawat, Kabupaten Minahasa Utara, Sulawesi Utara 95378","Maumbi, Kec. Kalawat, Kabupaten Minahasa Utara",SULAWESI UTARA,95378.0,Indonesia,,,,14.779.361,1.249.071.489,https://maps.google.com/?cid=0x0:0xbffffe25797c682d,
,home improvement,Dapur Umum,Jce Home,"FW6C+V9V, Kalawat, Kec. Kalawat, Kabupaten Minahasa Utara, Sulawesi Utara 95378","Kalawat, Kec. Kalawat, Kabupaten Minahasa Utara",SULAWESI UTARA,95378.0,Indonesia,,,,1.462.247,1.249.209.251,https://maps.google.com/?cid=0x0:0x77371c314b285435,
,home improvement,Dapur Umum,SeanHome,"FWGF+5FM, Watutumou III, Kec. Kalawat, Kabupaten Minahasa Utara, Sulawesi Utara","Kabupaten Minahasa Utara, Sulawesi Utara",SULAWESI UTARA,,Indonesia,,,,1.475.967,124.923.683,https://maps.google.com/?cid=0x0:0x3cb9584ba696abbe,
,home improvement,home improvement,Sulawesi Utara 95378,"Watutumou III, Kec. Kalawat, Kabupaten Minahasa Utara, Sulawesi Utara","Kabupaten Minahasa Utara, Sulawesi Utara",SULAWESI UTARA,,Indonesia,,,,14.749.869,1.249.205.774,https://maps.google.com/?cid=0x0:0xd37a7311fa7fde8b,
,home improvement,Komplek perumahan,@Home,"Gaharu Jl. Viola Blk. B No.123, Watutumou, Kec. Kalawat, Kabupaten Minahasa Utara, Sulawesi Utara","Kabupaten Minahasa Utara, Sulawesi Utara",SULAWESI UTARA,,Indonesia,,,,14.690.247,1.249.109.238,https://maps.google.com/?cid=0x0:0x7ffe27443867c7b3,
,home improvement,Komplek perumahan,Ivan Home,"CWWC+8Q7, Kuwil, Kec. Kalawat, Kabupaten Minahasa Utara, Sulawesi Utara","Kabupaten Minahasa Utara, Sulawesi Utara",SULAWESI UTARA,,Indonesia,,,,14.457.782,1.249.219.269,https://maps.google.com/?cid=0x0:0x49903c50427c8392,
,home improvement,Komplek perumahan,Fhian home,"Blok Pinus No.73, Watutumou II, Kec. Kalawat, Kabupaten Minahasa Utara, Sulawesi Utara","Kabupaten Minahasa Utara, Sulawesi Utara",SULAWESI UTARA,,Indonesia,,,,14.642.127,1.249.184.279,https://maps.google.com/?cid=0x0:0x2bdea77eb5c94fee,
,home improvement,Rumah Kaca,Charis home,"FW2J+J4W, Kawangkoan, Kec. Kalawat, Kabupaten Minahasa Utara, Sulawesi Utara","Kabupaten Minahasa Utara, Sulawesi Utara",SULAWESI UTARA,,Indonesia,082396531984,,,14.516.203,1.249.303.368,https://maps.google.com/?cid=0x0:0xb21c0808084d3c6a,
,home improvement,Rumah Kaca,Naray Home,"FW5G+MCH, Jl. Perum Atas, Kalawat, Kec. Kalawat, Kabupaten Minahasa Utara, Sulawesi Utara","Kabupaten Minahasa Utara, Sulawesi Utara",SULAWESI UTARA,,Indonesia,,,,14.591.906,1.249.261.131,https://maps.google.com/?cid=0x0:0x604d162fc3b3b5e3,
,home improvement,Dapur Umum,EIODIA HOME,"FW4Q+W8C, Kolongan, Kec. Kalawat, Kabupaten Minahasa Utara, Sulawesi Utara","Kabupaten Minahasa Utara, Sulawesi Utara",SULAWESI UTARA,,Indonesia,,,,14.573.177,1.249.382.538,https://maps.google.com/?cid=0x0:0xa1215dac633e7cda,
,home improvement,Servis Komputer,Rawis silangen home,"FW87+9VW, Watutumou II, Kec. Kalawat, Kabupaten Minahasa Utara, Sulawesi Utara","Kabupaten Minahasa Utara, Sulawesi Utara",SULAWESI UTARA,,Indonesia,087858590936,,,1.465.993,124.914.701,https://maps.google.com/?cid=0x0:0xe39aa1d4715fd99f,
,home improvement,Toko umum,Loving home,"FW5G+75W, Kalawat, Kec. Kalawat, Kabupaten Minahasa Utara, Sulawesi Utara","Kabupaten Minahasa Utara, Sulawesi Utara",SULAWESI UTARA,,Indonesia,,,,14.580.778,1.249.253.956,https://maps.google.com/?cid=0x0:0x4b9fb3f5360e6b9e,
,home improvement,Pembangunan Perumahan,?????????? ????????,"Perumaha, Blok B/194, Kawangkoan Baru, Kec. Kalawat, Kabupaten Minahasa Utara, Sulawesi Utara","Kabupaten Minahasa Utara, Sulawesi Utara",SULAWESI UTARA,,Indonesia,,,,14.586.867,1.249.227.169,https://maps.google.com/?cid=0x0:0x1178330971bc14ef,
,home improvement,Dapur Umum,Priskila Suyatno Home,"FW96+X2H, Watutumou, Kec. Kalawat, Kabupaten Minahasa Utara, Sulawesi Utara","Kabupaten Minahasa Utara, Sulawesi Utara",SULAWESI UTARA,,Indonesia,,,,14.699.491,1.249.101.214,https://maps.google.com/?cid=0x0:0x4af715dcb1bc60e6,
,home improvement,Dapur Umum,Maria home,"FWFG+33V, Watutumou III, Kec. Kalawat, Kabupaten Minahasa Utara, Sulawesi Utara","Kabupaten Minahasa Utara, Sulawesi Utara",SULAWESI UTARA,,Indonesia,,,,14.727.757,1.249.250.987,https://maps.google.com/?cid=0x0:0xa471d545ba297ce2,
,home improvement,Taman,vhya home,"FWG4+HQ7, Watutumou, Kec. Kalawat, Kabupaten Minahasa Utara, Sulawesi Utara","Kabupaten Minahasa Utara, Sulawesi Utara",SULAWESI UTARA,,Indonesia,,,,14.763.384,1.249.068.766,https://maps.google.com/?cid=0x0:0x125836b4a7a7f64a,
,home improvement,Komplek perumahan,Key home,"CWCJ+2GQ, Kaleosan, Kec. Kalawat, Kabupaten Minahasa Utara, Sulawesi Utara","Kabupaten Minahasa Utara, Sulawesi Utara",SULAWESI UTARA,,Indonesia,,,,14.200.881,1.249.313.665,https://maps.google.com/?cid=0x0:0x77a953a4edc1f32c,
,home improvement,Komplek perumahan,ITOY HOME,"CXV7+G9M, Sukur, Kec. Airmadidi, Kabupaten Minahasa Utara, Sulawesi Utara","Kabupaten Minahasa Utara, Sulawesi Utara",SULAWESI UTARA,,Indonesia,,,,14.438.362,1.249.634.357,https://maps.google.com/?cid=0x0:0xffe14799b000dcd8,
,home improvement,Dapur Umum,Homee,"FW89+QG3, Watutumou II, Kec. Kalawat, Kabupaten Minahasa Utara, Sulawesi Utara","Kabupaten Minahasa Utara, Sulawesi Utara",SULAWESI UTARA,,Indonesia,,,,14.669.604,1.249.186.556,https://maps.google.com/?cid=0x0:0x5758533a47bdf943,
,home improvement,home improvement,Kec. Kauditan,"Kabupaten Minahasa Utara, Sulawesi Utara","Kabupaten Minahasa Utara, Sulawesi Utara",SULAWESI UTARA,,Indonesia,,,,13.931.442,125.042.732,https://maps.google.com/?cid=0x0:0x2d255a96bf594260,
,home improvement,Komplek perumahan,Kezia home,"CX3V+CGR, Tumaluntung, Kec. Kauditan, Kabupaten Minahasa Utara, Sulawesi Utara","Kabupaten Minahasa Utara, Sulawesi Utara",SULAWESI UTARA,,Indonesia,,,,14.036.121,1.249.937.537,https://maps.google.com/?cid=0x0:0x6ccd979adda3140,
,home improvement,Toko Mebel,Moha Home's,"CX6X+CW8, Tumaluntung, Kec. Kauditan, Kabupaten Minahasa Utara, Sulawesi Utara","Kabupaten Minahasa Utara, Sulawesi Utara",SULAWESI UTARA,,Indonesia,085240333227,,,14.109.829,124.999.784,https://maps.google.com/?cid=0x0:0x32340c229c6b01b0,
,home improvement,Kios,CHIKUK HOME,"93R3+W6Q, Kauditan II, Kec. Kauditan, Kabupaten Minahasa Utara, Sulawesi Utara","Kabupaten Minahasa Utara, Sulawesi Utara",SULAWESI UTARA,,Indonesia,087745647421,,,13.923.499,1.250.531.234,https://maps.google.com/?cid=0x0:0x2b6d2d1d56dcf0f5,
,home improvement,home improvement,PT One Piece Agency,"Jaga 3, Watudambo Dua, Kec. Kauditan, Kabupaten Minahasa Utara, Sulawesi Utara 95372","Watudambo Dua, Kec. Kauditan, Kabupaten Minahasa Utara",SULAWESI UTARA,95372.0,Indonesia,085340999355,,,14.122.904,1.250.847.471,https://maps.google.com/?cid=0x0:0xe15257fea4cfbb56,
,home improvement,Komplek perumahan,Ai home,"93X3+8RF, Kauditan II, Kec. Kauditan, Kabupaten Minahasa Utara, Sulawesi Utara","Kabupaten Minahasa Utara, Sulawesi Utara",SULAWESI UTARA,,Indonesia,,,,13.980.452,1.250.551.455,https://maps.google.com/?cid=0x0:0x7368ddf48fc853c2,
,home improvement,Pembangunan Perumahan,Shaqueena Home,"Perum Agape, Tumaluntung, Kec. Kauditan, Kabupaten Minahasa Utara, Sulawesi Utara 95372","Tumaluntung, Kec. Kauditan, Kabupaten Minahasa Utara",SULAWESI UTARA,95372.0,Indonesia,085173060899,,,14.177.607,1.249.999.057,https://maps.google.com/?cid=0x0:0xeb1701da8252167f,
,home improvement,Kamar Mandi Umum,ciman home,"CX2W+2JH, Paslaten, Kec. Kauditan, Kabupaten Minahasa Utara, Sulawesi Utara","Kabupaten Minahasa Utara, Sulawesi Utara",SULAWESI UTARA,,Indonesia,,,,14.000.505,1.249.966.059,https://maps.google.com/?cid=0x0:0x2acac8e1796d7282,
,home improvement,Komplek perumahan,Queen Home,"C3GP+R84, Watudambo, Kec. Kauditan, Kabupaten Minahasa Utara, Sulawesi Utara","Kabupaten Minahasa Utara, Sulawesi Utara",SULAWESI UTARA,,Indonesia,,,,14.270.125,1.250.858.281,https://maps.google.com/?cid=0x0:0x20ca71cc1acf11db,
,home improvement,Komplek perumahan,NEAhome,"CX6X+CW8, Tumaluntung, Kec. Kauditan, Kabupaten Minahasa Utara, Sulawesi Utara","Kabupaten Minahasa Utara, Sulawesi Utara",SULAWESI UTARA,,Indonesia,,,,14.110.454,1.249.998.432,https://maps.google.com/?cid=0x0:0x8e82b3762a164e12,
,home improvement,Bengkel Sepeda Motor,Jhun HOME,"92WW+F2R, Kauditan I, Kec. Kauditan, Kabupaten Minahasa Utara, Sulawesi Utara","Kabupaten Minahasa Utara, Sulawesi Utara",SULAWESI UTARA,,Indonesia,,,,13.962.289,1.250.450.245,https://maps.google.com/?cid=0x0:0x4a0260533a6e2c40,
,home improvement,Vila,Fhanny's House,"CX3V+CHJ, Tumaluntung, Kec. Kauditan, Kabupaten Minahasa Utara, Sulawesi Utara","Kabupaten Minahasa Utara, Sulawesi Utara",SULAWESI UTARA,,Indonesia,,,,14.035.796,1.249.938.811,https://maps.google.com/?cid=0x0:0x8d5a091e95ee4e86,
,home improvement,Taman bermain,naomi home,"92Q8+FPV, Karegesan, Kec. Kauditan, Kabupaten Minahasa Utara, Sulawesi Utara","Kabupaten Minahasa Utara, Sulawesi Utara",SULAWESI UTARA,,Indonesia,,,,13.894.392,1.250.160.483,https://maps.google.com/?cid=0x0:0x878f250107dc752d,
,home improvement,Rumah Kayu,Home Ojii,"C225+GCC, Lembean, Kec. Kauditan, Kabupaten Minahasa Utara, Sulawesi Utara","Kabupaten Minahasa Utara, Sulawesi Utara",SULAWESI UTARA,,Indonesia,,,,14.013.775,1.250.082.873,https://maps.google.com/?cid=0x0:0xec59f2ba3f826fdc,
,home improvement,Perumahan,Home Rooroh Siwu,"CX5R+F44, Tumaluntung, Kec. Kauditan, Kabupaten Minahasa Utara, Sulawesi Utara","Kabupaten Minahasa Utara, Sulawesi Utara",SULAWESI UTARA,,Indonesia,,,,14.086.384,1.249.903.188,https://maps.google.com/?cid=0x0:0x44d1d901fbbebde,
,home improvement,Toko bahan makanan,Home nay,"C39P+5RH, Watudambo Dua, Kec. Kauditan, Kabupaten Minahasa Utara, Sulawesi Utara","Kabupaten Minahasa Utara, Sulawesi Utara",SULAWESI UTARA,,Indonesia,,,,14.179.495,1.250.871.006,https://maps.google.com/?cid=0x0:0xbefc84695c43e340,
,home improvement,Toko,Home Chyfah,"92X8+2V9, Kaasar, Kec. Kauditan, Kabupaten Minahasa Utara, Sulawesi Utara","Kabupaten Minahasa Utara, Sulawesi Utara",SULAWESI UTARA,,Indonesia,,,,13.975.315,1.250.172.205,https://maps.google.com/?cid=0x0:0xad218badc0ac4f7c,
,home improvement,Komplek perumahan,Prishome,"CX3V+7Q9, Tumaluntung, Kec. Kauditan, Kabupaten Minahasa Utara, Sulawesi Utara","Kabupaten Minahasa Utara, Sulawesi Utara",SULAWESI UTARA,,Indonesia,,,,14.031.531,1.249.944.741,https://maps.google.com/?cid=0x0:0x17424ae166365ffd,
,home improvement,Komplek perumahan,Merlin Tampi home,"92VX+2HP Rumah Om joni, Kauditan II, Kec. Kauditan, Kabupaten Minahasa Utara, Sulawesi Utara","Kabupaten Minahasa Utara, Sulawesi Utara",SULAWESI UTARA,,Indonesia,,,,13.926.485,125.049.058,https://maps.google.com/?cid=0x0:0xa958ff5e0d1290d1,
,home improvement,Pembangunan Perumahan,ALDRIAN.HOME,"C3GF+6RH, Watudambo, Kec. Kauditan, Kabupaten Minahasa Utara, Sulawesi Utara","Kabupaten Minahasa Utara, Sulawesi Utara",SULAWESI UTARA,,Indonesia,,,,14.255.718,1.250.746.026,https://maps.google.com/?cid=0x0:0xc6eb7aa497af590f,
,home improvement,Taman bermain,Jayadex home,"92XW+25G, Kauditan I, Kec. Kauditan, Kabupaten Minahasa Utara, Sulawesi Utara","Kabupaten Minahasa Utara, Sulawesi Utara",SULAWESI UTARA,,Indonesia,,,,13.975.262,125.045.463,https://maps.google.com/?cid=0x0:0xb80cf3496a858747,
,home improvement,Komplek perumahan,RJ home,"C39P+9Q5, Watudambo Dua, Kec. Kauditan, Kabupaten Minahasa Utara, Sulawesi Utara","Kabupaten Minahasa Utara, Sulawesi Utara",SULAWESI UTARA,,Indonesia,,,,14.183.856,1.250.869.866,https://maps.google.com/?cid=0x0:0xeeb6f215a3e076c7,
,home improvement,Grosir Mebel,Dewi mebel,"CX4R+X7X, Jl. Arnold Mononutu, Tumaluntung, Kec. Kauditan, Kabupaten Minahasa Utara, Sulawesi Utara","Kabupaten Minahasa Utara, Sulawesi Utara",SULAWESI UTARA,,Indonesia,085240540112,,,14.074.838,1.249.907.434,https://maps.google.com/?cid=0x0:0x52fa7f2c2103c079,
,home improvement,Toko,Toko GRAND HARDWARE,"CXJH+22P, Sarongsong I, Kec. Airmadidi, Kabupaten Minahasa Utara, Sulawesi Utara","Kabupaten Minahasa Utara, Sulawesi Utara",SULAWESI UTARA,,Indonesia,,,,14.300.932,1.249.775.741,https://maps.google.com/?cid=0x0:0xd5bea6e4e94329b1,
,home improvement,Gedung Apartemen,Hayden Paat Home,"92VW+78P, Kauditan I, Kec. Kauditan, Kabupaten Minahasa Utara, Sulawesi Utara","Kabupaten Minahasa Utara, Sulawesi Utara",SULAWESI UTARA,,Indonesia,,,,13.932.159,1.250.458.275,https://maps.google.com/?cid=0x0:0xfee435acfd2c5836,
,home improvement,Toko Perlengkapan Rumah,Toko Sumber Meubel Elektronik Bangunan,"Jl. Raya Manado - Bitung, Sarongsong I, Kec. Airmadidi, Kabupaten Minahasa Utara, Sulawesi Utara","Kabupaten Minahasa Utara, Sulawesi Utara",SULAWESI UTARA,,Indonesia,085146472422,,,14.279.751,1.249.791.172,https://maps.google.com/?cid=0x0:0xfe4620b5cfc9b497,
,home improvement,home improvement,Kec. Kema,"Kabupaten Minahasa Utara, Sulawesi Utara","Kabupaten Minahasa Utara, Sulawesi Utara",SULAWESI UTARA,,Indonesia,,,,13.717.732,1.250.714.941,https://maps.google.com/?cid=0x0:0x9d12383cee2836a3,
,home improvement,Rumah Kayu,J Home,"93P4+GGC, Jl. Kauditan - Kema, Tontalete, Kec. Kema, Kabupaten Minahasa Utara, Sulawesi Utara","Kabupaten Minahasa Utara, Sulawesi Utara",SULAWESI UTARA,,Indonesia,,,,13.863.113,1.250.562.623,https://maps.google.com/?cid=0x0:0x7d94abbe6d329fea,
,home improvement,Pembangunan Perumahan,Ais home,"93H8+M96, Kema Satu, Kec. Kema, Kabupaten Minahasa Utara, Sulawesi Utara","Kabupaten Minahasa Utara, Sulawesi Utara",SULAWESI UTARA,,Indonesia,,,,13.791.505,1.250.658.844,https://maps.google.com/?cid=0x0:0xc0bfde7030cd26aa,
,home improvement,Komplek perumahan,Vliri home,"93FC+WX6, Kema Satu, Kec. Kema, Kabupaten Minahasa Utara, Sulawesi Utara","Kabupaten Minahasa Utara, Sulawesi Utara",SULAWESI UTARA,,Indonesia,,,,13.751.167,1.250.725.792,https://maps.google.com/?cid=0x0:0x2e83cc410f9995ec,
,home improvement,Komplek perumahan,Kezia home,"CX3V+CGR, Tumaluntung, Kec. Kauditan, Kabupaten Minahasa Utara, Sulawesi Utara","Kabupaten Minahasa Utara, Sulawesi Utara",SULAWESI UTARA,,Indonesia,,,,14.036.121,1.249.937.537,https://maps.google.com/?cid=0x0:0x6ccd979adda3140,
,home improvement,Toko Bahan Bangunan,UK Home Solution (Utama Karya),"Jl. Yos Sudarso No.2, Kairagi Weru, Kec. Paal Dua, Kota Manado, Sulawesi Utara 95129","Kairagi Weru, Kec. Paal Dua, Kota Manado",SULAWESI UTARA,95129.0,Indonesia,081222882323,,,14.967.511,1.248.771.159,https://maps.google.com/?cid=0x0:0x53122109844f7011,
,home improvement,Toko Mebel,Moha Home's,"CX6X+CW8, Tumaluntung, Kec. Kauditan, Kabupaten Minahasa Utara, Sulawesi Utara","Kabupaten Minahasa Utara, Sulawesi Utara",SULAWESI UTARA,,Indonesia,085240333227,,,14.109.829,124.999.784,https://maps.google.com/?cid=0x0:0x32340c229c6b01b0,
,home improvement,Komplek perumahan,Home Hweet Home,"FXHF+8PW, Matungkas, Kec. Dimembe, Kabupaten Minahasa Utara, Sulawesi Utara","Kabupaten Minahasa Utara, Sulawesi Utara",SULAWESI UTARA,,Indonesia,,,,14.783.591,1.249.743.272,https://maps.google.com/?cid=0x0:0x115386d462e695f3,
,home improvement,Minimarket,Home jix,"93Q6+9VW, Jl. Kabima, Tontalete, Kec. Kema, Kabupaten Minahasa Utara, Sulawesi Utara","Kabupaten Minahasa Utara, Sulawesi Utara",SULAWESI UTARA,,Indonesia,,,,13.890.895,125.061.589,https://maps.google.com/?cid=0x0:0x5a88af4ca3e678b7,
,home improvement,Komplek perumahan,Vinsi Home,"FXHF+6R3, Matungkas, Kec. Dimembe, Kabupaten Minahasa Utara, Sulawesi Utara","Kabupaten Minahasa Utara, Sulawesi Utara",SULAWESI UTARA,,Indonesia,,,,14.778.362,1.249.742.014,https://maps.google.com/?cid=0x0:0x43e0949ae2f576ff,
,home improvement,Vila,HOME VILAGE TONTALETE,"93P3+VR9 jaga 1, Tontalete, Kec. Kema, Kabupaten Minahasa Utara, Sulawesi Utara","Kabupaten Minahasa Utara, Sulawesi Utara",SULAWESI UTARA,,Indonesia,,,,13.871.625,1.250.545.957,https://maps.google.com/?cid=0x0:0xdf5b86973f281e18,
,home improvement,Komplek perumahan,Home Kesya kuntag,"GXMR+3Q9, Pasar, Tatelu Satu, Kec. Dimembe, Kabupaten Minahasa Utara, Sulawesi Utara","Kabupaten Minahasa Utara, Sulawesi Utara",SULAWESI UTARA,,Indonesia,,,,15.326.773,1.249.920.056,https://maps.google.com/?cid=0x0:0x1b35893ac70ea1dd,
,home improvement,Taman bermain,naomi home,"92Q8+FPV, Karegesan, Kec. Kauditan, Kabupaten Minahasa Utara, Sulawesi Utara","Kabupaten Minahasa Utara, Sulawesi Utara",SULAWESI UTARA,,Indonesia,,,,13.894.392,1.250.160.483,https://maps.google.com/?cid=0x0:0x878f250107dc752d,
,home improvement,home improvement,HOMEDRIPS,"938H+V58, Unnamed Rd, Kema Tiga, Kec. Kema, Kabupaten Minahasa Utara, Sulawesi Utara","Kabupaten Minahasa Utara, Sulawesi Utara",SULAWESI UTARA,,Indonesia,,,,13.671.535,1.250.779.469,https://maps.google.com/?cid=0x0:0xa981eedca748b041,
,home improvement,home improvement,"Tuolumne, California 95379","Tuolumne, California, Amerika Serikat","Tuolumne, California, Amerika Serikat",SULAWESI UTARA,,Indonesia,,,,379.390.145,-1.201.935.663,https://maps.google.com/?cid=0x0:0xaef31da93330122f,
,home improvement,home improvement,Black Oak Casino Resort,"19400 Tuolumne Rd N, Tuolumne, CA 95379, Amerika Serikat",Tuolumne Rd N,SULAWESI UTARA,19400.0,Indonesia,18777478777,,,37.973.442,-1.202.390.035,https://maps.google.com/?cid=0x0:0x449c412ba51d1f59,
,home improvement,home improvement,Kec. Likupang Bar.,"Kabupaten Minahasa Utara, Sulawesi Utara","Kabupaten Minahasa Utara, Sulawesi Utara",SULAWESI UTARA,,Indonesia,,,,1.692.583,1.250.117.119,https://maps.google.com/?cid=0x0:0x4ad9ed2bf8ddc336,
,home improvement,Komplek perumahan,Thi_thi home,"M46C+XHJ, Maen, Kec. Likupang Tim., Kabupaten Minahasa Utara, Sulawesi Utara","Kabupaten Minahasa Utara, Sulawesi Utara",SULAWESI UTARA,,Indonesia,,,,16.624.525,1.251.213.769,https://maps.google.com/?cid=0x0:0xe0ea1ad7f2b9a80b,
,home improvement,Minimarket,Toko Shine Likupang,"Likupang II, Kec. Likupang Tim., Kabupaten Minahasa Utara, Sulawesi Utara","Kabupaten Minahasa Utara, Sulawesi Utara",SULAWESI UTARA,,Indonesia,04317003033,,,16.718.258,1.250.599.058,https://maps.google.com/?cid=0x0:0x8787e69005b49ed9,
,home improvement,Komplek perumahan,Irfan Home,"M2R6+9H8, Lorong Rumah Tingkat, Munte, Kec. Likupang Bar., Kabupaten Minahasa Utara, Sulawesi Utara","Kabupaten Minahasa Utara, Sulawesi Utara",SULAWESI UTARA,,Indonesia,,,,16.907.418,1.250.114.617,https://maps.google.com/?cid=0x0:0xcede737884dda457,
,home improvement,Pembangunan Perumahan,Ivan Louish Home,"J4XV+P2P, Marinsow, Kec. Likupang Tim., Kabupaten Minahasa Utara, Sulawesi Utara","Kabupaten Minahasa Utara, Sulawesi Utara",SULAWESI UTARA,,Indonesia,,,,1.649.995,125.143.384,https://maps.google.com/?cid=0x0:0x3b372875708d4cbd,
,home improvement,Rumah Kaca,inyo home,"H2M6+5M2, Jl. Sukur - Likupang, Lumpias, Kec. Dimembe, Kabupaten Minahasa Utara, Sulawesi Utara","Kabupaten Minahasa Utara, Sulawesi Utara",SULAWESI UTARA,,Indonesia,,,,1.582.876,12.501.159,https://maps.google.com/?cid=0x0:0xeaa846f7da2ef675,
,home improvement,home improvement,Kec. Likupang Sel.,"Kabupaten Minahasa Utara, Sulawesi Utara","Kabupaten Minahasa Utara, Sulawesi Utara",SULAWESI UTARA,,Indonesia,,,,16.154.658,1.250.277.057,https://maps.google.com/?cid=0x0:0x1c90d6707d558a25,
,home improvement,Minimarket,Toko Shine Likupang,"Likupang II, Kec. Likupang Tim., Kabupaten Minahasa Utara, Sulawesi Utara","Kabupaten Minahasa Utara, Sulawesi Utara",SULAWESI UTARA,,Indonesia,04317003033,,,16.718.258,1.250.599.058,https://maps.google.com/?cid=0x0:0x8787e69005b49ed9,
,home improvement,Komplek perumahan,Thi_thi home,"M46C+XHJ, Maen, Kec. Likupang Tim., Kabupaten Minahasa Utara, Sulawesi Utara","Kabupaten Minahasa Utara, Sulawesi Utara",SULAWESI UTARA,,Indonesia,,,,16.624.525,1.251.213.769,https://maps.google.com/?cid=0x0:0xe0ea1ad7f2b9a80b,
,home improvement,Komplek perumahan,Clau Home,"H5J3+6PC, Pinenek, Kec. Likupang Tim., Kabupaten Minahasa Utara, Sulawesi Utara","Kabupaten Minahasa Utara, Sulawesi Utara",SULAWESI UTARA,,Indonesia,,,,15.805.396,125.154.231,https://maps.google.com/?cid=0x0:0x9885b01204e4bdf2,
,home improvement,Rumah Kaca,inyo home,"H2M6+5M2, Jl. Sukur - Likupang, Lumpias, Kec. Dimembe, Kabupaten Minahasa Utara, Sulawesi Utara","Kabupaten Minahasa Utara, Sulawesi Utara",SULAWESI UTARA,,Indonesia,,,,1.582.876,12.501.159,https://maps.google.com/?cid=0x0:0xeaa846f7da2ef675,
,home improvement,Pastri,Home@Kel_TheRas,"H2X9+GQ3, Kaweruan, Kec. Likupang Sel., Kabupaten Minahasa Utara, Sulawesi Utara","Kabupaten Minahasa Utara, Sulawesi Utara",SULAWESI UTARA,,Indonesia,,,,15.987.323,1.250.194.041,https://maps.google.com/?cid=0x0:0x6d33f0a484099172,
,home improvement,Rumah Kayu,Home Naava,"J27H+Q56, Kokoleh Dua, Kec. Likupang Sel., Kabupaten Minahasa Utara, Sulawesi Utara","Kabupaten Minahasa Utara, Sulawesi Utara",SULAWESI UTARA,,Indonesia,,,,16.144.118,1.250.279.055,https://maps.google.com/?cid=0x0:0x14bcf02e5eeed5db,
,home improvement,Komplek perumahan,Khen home,"J26G+WFM, Kokoleh Dua, Kec. Likupang Sel., Kabupaten Minahasa Utara, Sulawesi Utara","Kabupaten Minahasa Utara, Sulawesi Utara",SULAWESI UTARA,,Indonesia,,,,16.123.337,1.250.261.753,https://maps.google.com/?cid=0x0:0xdfbf81d49274d792,
,home improvement,home improvement,Kec. Likupang Tim.,"Kabupaten Minahasa Utara, Sulawesi Utara","Kabupaten Minahasa Utara, Sulawesi Utara",SULAWESI UTARA,,Indonesia,,,,16.567.027,1.251.102.134,https://maps.google.com/?cid=0x0:0xfb7b50a78e0c1b1b,
,home improvement,Toko Bahan Bangunan,Toko bangunan LIKUPANG JAYA,"M395+QRX, Likupang II, Kec. Likupang Tim., Kabupaten Minahasa Utara, Sulawesi Utara","Kabupaten Minahasa Utara, Sulawesi Utara",SULAWESI UTARA,,Indonesia,,,,16.694.616,1.250.597.135,https://maps.google.com/?cid=0x0:0x7aece044884761f5,
,home improvement,Minimarket,Toko Shine Likupang,"Likupang II, Kec. Likupang Tim., Kabupaten Minahasa Utara, Sulawesi Utara","Kabupaten Minahasa Utara, Sulawesi Utara",SULAWESI UTARA,,Indonesia,04317003033,,,16.718.258,1.250.599.058,https://maps.google.com/?cid=0x0:0x8787e69005b49ed9,
,home improvement,Pembangunan Perumahan,Ivan Louish Home,"J4XV+P2P, Marinsow, Kec. Likupang Tim., Kabupaten Minahasa Utara, Sulawesi Utara","Kabupaten Minahasa Utara, Sulawesi Utara",SULAWESI UTARA,,Indonesia,,,,1.649.995,125.143.384,https://maps.google.com/?cid=0x0:0x3b372875708d4cbd,
,home improvement,Tukang Kayu,mebel Zivilia,"M584+XM6, Kinunang, Kec. Likupang Tim., Kabupaten Minahasa Utara, Sulawesi Utara","Kabupaten Minahasa Utara, Sulawesi Utara",SULAWESI UTARA,,Indonesia,,,,16.674.233,1.251.566.395,https://maps.google.com/?cid=0x0:0xc6c70cafe36421a,
,home improvement,Komplek perumahan,HOME SIN,"M26R+J53, Serawet, Kec. Likupang Tim., Kabupaten Minahasa Utara, Sulawesi Utara","Kabupaten Minahasa Utara, Sulawesi Utara",SULAWESI UTARA,,Indonesia,,,,16.615.031,1.250.404.089,https://maps.google.com/?cid=0x0:0xf9fc1864f86ed754,
,home improvement,Aksesori Mebel,CV. Bregas,"Jln. Maen - Winuri, Desa, Maen, Jaga I, Kabupaten Minahasa Utara, Sulawesi Utara 95375","Desa, Maen, Jaga I, Kabupaten Minahasa Utara",SULAWESI UTARA,95375.0,Indonesia,085342529821,,,16.524.892,1.251.082.076,https://maps.google.com/?cid=0x0:0xa028bb8130f30c53,
,home improvement,Komplek perumahan,Irfan Home,"M2R6+9H8, Lorong Rumah Tingkat, Munte, Kec. Likupang Bar., Kabupaten Minahasa Utara, Sulawesi Utara","Kabupaten Minahasa Utara, Sulawesi Utara",SULAWESI UTARA,,Indonesia,,,,16.907.418,1.250.114.617,https://maps.google.com/?cid=0x0:0xcede737884dda457,
,home improvement,Perhimpunan Pengembang Perumahan,Tia home,"J47P+46, Rinondoran, Kec. Likupang Tim., Kabupaten Minahasa Utara, Sulawesi Utara","Kabupaten Minahasa Utara, Sulawesi Utara",SULAWESI UTARA,,Indonesia,,,,16.128.539,1.251.355.271,https://maps.google.com/?cid=0x0:0xf36fb97ea0d4f39,
,home improvement,Kantor Perusahaan,PLTS Likupang,"M35W+GH9, Jl. Likupang-Girian, Wineru, Kec. Likupang Tim., Kabupaten Minahasa Utara, Sulawesi Utara","Kabupaten Minahasa Utara, Sulawesi Utara",SULAWESI UTARA,,Indonesia,,,,16.587.981,1.250.964.794,https://maps.google.com/?cid=0x0:0xd7187fc216beb02f,
,home improvement,Rumah Kaca,inyo home,"H2M6+5M2, Jl. Sukur - Likupang, Lumpias, Kec. Dimembe, Kabupaten Minahasa Utara, Sulawesi Utara","Kabupaten Minahasa Utara, Sulawesi Utara",SULAWESI UTARA,,Indonesia,,,,1.582.876,12.501.159,https://maps.google.com/?cid=0x0:0xeaa846f7da2ef675,
,home improvement,Rumah Mahyong,Jlloyhome,"J4XR+GM8, Marinsow, Kec. Likupang Tim., Kabupaten Minahasa Utara, Sulawesi Utara","Kabupaten Minahasa Utara, Sulawesi Utara",SULAWESI UTARA,,Indonesia,,,,16.487.854,1.251.417.007,https://maps.google.com/?cid=0x0:0x57da9c47c118aff3,
,home improvement,Pastri,Home@Kel_TheRas,"H2X9+GQ3, Kaweruan, Kec. Likupang Sel., Kabupaten Minahasa Utara, Sulawesi Utara","Kabupaten Minahasa Utara, Sulawesi Utara",SULAWESI UTARA,,Indonesia,,,,15.987.323,1.250.194.041,https://maps.google.com/?cid=0x0:0x6d33f0a484099172,
,home improvement,Vila,@Aim home,"HVVG+XVG, Jl. Likupang, Kima Bajo, Wori, Kabupaten Minahasa Utara, Sulawesi Utara","Kabupaten Minahasa Utara, Sulawesi Utara",SULAWESI UTARA,,Indonesia,,,,15.949.288,124.877.192,https://maps.google.com/?cid=0x0:0xfd2c487d48026456,
,home improvement,Dapur Umum,Rudy Home,"J47M+WJ9, Rinondoran, Kec. Likupang Tim., Kabupaten Minahasa Utara, Sulawesi Utara","Kabupaten Minahasa Utara, Sulawesi Utara",SULAWESI UTARA,,Indonesia,,,,16.147.909,1.251.341.221,https://maps.google.com/?cid=0x0:0xb120e3dff0b69e6,
,home improvement,Kantor Pemerintah,Desa wineru,"J3WG+WWH, Wineru, Kec. Likupang Tim., Kabupaten Minahasa Utara, Sulawesi Utara","Kabupaten Minahasa Utara, Sulawesi Utara",SULAWESI UTARA,,Indonesia,,,,16.473.117,1.250.773.548,https://maps.google.com/?cid=0x0:0x3ce196ef27bb4b7f,
,home improvement,home improvement,Sulawesi Utara 95373,"Paniki Atas, Kec. Talawaan, Kabupaten Minahasa Utara, Sulawesi Utara","Kabupaten Minahasa Utara, Sulawesi Utara",SULAWESI UTARA,,Indonesia,,,,14.974.733,1.249.238.636,https://maps.google.com/?cid=0x0:0x3a1e3c0a99b6788f,
,home improvement,Taman bermain,iten home,"GW2F+64H, Jl. Paniki Baru, Paniki Baru, Kec. Talawaan, Kabupaten Minahasa Utara, Sulawesi Utara","Kabupaten Minahasa Utara, Sulawesi Utara",SULAWESI UTARA,,Indonesia,,,,1.500.594,124.922.824,https://maps.google.com/?cid=0x0:0xcffc88d9f7d4d631,
,home improvement,Komplek perumahan,Aviva T Home,"FWVF+Q4H, Paniki Atas, Kec. Talawaan, Kabupaten Minahasa Utara, Sulawesi Utara","Kabupaten Minahasa Utara, Sulawesi Utara",SULAWESI UTARA,,Indonesia,,,,14.944.318,1.249.228.489,https://maps.google.com/?cid=0x0:0xe9f0e09b3f84610a,
,home improvement,Dapur Umum,Home Talawaan,"GXJ7+Q2W, Talawaan, Kec. Talawaan, Kabupaten Minahasa Utara, Sulawesi Utara","Kabupaten Minahasa Utara, Sulawesi Utara",SULAWESI UTARA,,Indonesia,,,,1.531.978,124.962.593,https://maps.google.com/?cid=0x0:0xc44f06adaaad1c95,
,home improvement,Rumah Kayu,Atey Home,"Jl. Raya Kolongan No.16, Kolongan, Kec. Talawaan, Kabupaten Minahasa Utara, Sulawesi Utara","Kabupaten Minahasa Utara, Sulawesi Utara",SULAWESI UTARA,,Indonesia,081244494229,,,1.527.846,1.249.489.141,https://maps.google.com/?cid=0x0:0xe5eacf513b17416,
,home improvement,Inspektur Tempat Tinggal,ReyHome,"HW8H+645, Wusa, Kec. Talawaan, Kabupaten Minahasa Utara, Sulawesi Utara","Kabupaten Minahasa Utara, Sulawesi Utara",SULAWESI UTARA,,Indonesia,,,,15.655.215,1.249.278.612,https://maps.google.com/?cid=0x0:0xfecd58e5cb6cff22,
,home improvement,Inspektur Tempat Tinggal,Audy home,"FWGH+9Q8, Kolongan Tetempangan, Kec. Kalawat, Kabupaten Minahasa Utara, Sulawesi Utara","Kabupaten Minahasa Utara, Sulawesi Utara",SULAWESI UTARA,,Indonesia,,,,1.475.935,1.249.294.399,https://maps.google.com/?cid=0x0:0xf78545d9344fa9e0,
,home improvement,Rumah Kaca,Hanny Home,"GXG3+Q6X, Gg. Jaga V, Kolongan, Kec. Talawaan, Kabupaten Minahasa Utara, Sulawesi Utara","Kabupaten Minahasa Utara, Sulawesi Utara",SULAWESI UTARA,,Indonesia,08980267273,,,15.269.921,1.249.531.104,https://maps.google.com/?cid=0x0:0xbd0646a2f525c49e,
,home improvement,Komplek perumahan,iky home,"GWJQ+JPJ, Mapanget, Kec. Talawaan, Kabupaten Minahasa Utara, Sulawesi Utara","Kabupaten Minahasa Utara, Sulawesi Utara",SULAWESI UTARA,,Indonesia,,,,15.314.244,1.249.394.454,https://maps.google.com/?cid=0x0:0x2a348c57e94cb0bd,
,home improvement,Rumah Berhantu,Homee,"GWMM+8CC, Mapanget, Kec. Talawaan, Kabupaten Minahasa Utara, Sulawesi Utara","Kabupaten Minahasa Utara, Sulawesi Utara",SULAWESI UTARA,,Indonesia,,,,15.333.146,1.249.335.224,https://maps.google.com/?cid=0x0:0xbddc464c8a942883,
,home improvement,Pembangunan Perumahan,Alice Homes,"GWCQ+MVF, Mapanget, Kec. Talawaan, Kabupaten Minahasa Utara, Sulawesi Utara","Kabupaten Minahasa Utara, Sulawesi Utara",SULAWESI UTARA,,Indonesia,,,,1.521.692,124.939.669,https://maps.google.com/?cid=0x0:0xd208768e551e1ae2,
,home improvement,Rumah Kaca,KEZIA HOME,"GXM7+2XP jaga 5, Talawaan, Kec. Talawaan, Kabupaten Minahasa Utara, Sulawesi Utara","Kabupaten Minahasa Utara, Sulawesi Utara",SULAWESI UTARA,,Indonesia,,,,15.325.963,124.964.945,https://maps.google.com/?cid=0x0:0xdff795ae0b371e51,
,home improvement,Kedai Kopi,Ibra home,"GW9M+93J, Mapanget, Kec. Talawaan, Kabupaten Minahasa Utara, Sulawesi Utara","Kabupaten Minahasa Utara, Sulawesi Utara",SULAWESI UTARA,,Indonesia,082190344109,,,15.184.531,1.249.326.255,https://maps.google.com/?cid=0x0:0xf2e6e464f0bac9d1,
,home improvement,Dapur Umum,EKLESIA HOME,"GXP4+5J4, Talawaan, Kec. Talawaan, Kabupaten Minahasa Utara, Sulawesi Utara","Kabupaten Minahasa Utara, Sulawesi Utara",SULAWESI UTARA,,Indonesia,,,,15.354.085,1.249.565.968,https://maps.google.com/?cid=0x0:0xbeea9d8efa92734,
,home improvement,Dapur Umum,VIKER HOME,"GWFG+RHH, Mapanget, Kec. Talawaan, Kabupaten Minahasa Utara, Sulawesi Utara","Kabupaten Minahasa Utara, Sulawesi Utara",SULAWESI UTARA,,Indonesia,,,,15.246.572,1.249.264.494,https://maps.google.com/?cid=0x0:0x1e59bb328f1691c7,
,home improvement,Toko Pakaian,Vhita house,"GWJP+4RM, Mapanget, Kec. Talawaan, Kabupaten Minahasa Utara, Sulawesi Utara","Kabupaten Minahasa Utara, Sulawesi Utara",SULAWESI UTARA,,Indonesia,089603166129,,,15.303.284,1.249.370.393,https://maps.google.com/?cid=0x0:0x5576f08fcc409533,
,home improvement,Servis Komputer,Rawis silangen home,"FW87+9VW, Watutumou II, Kec. Kalawat, Kabupaten Minahasa Utara, Sulawesi Utara","Kabupaten Minahasa Utara, Sulawesi Utara",SULAWESI UTARA,,Indonesia,087858590936,,,1.465.993,124.914.701,https://maps.google.com/?cid=0x0:0xe39aa1d4715fd99f,
,home improvement,Dapur Umum,Kandou home,"HW5M+X3X, Winetin, Kec. Talawaan, Kabupaten Minahasa Utara, Sulawesi Utara","Kabupaten Minahasa Utara, Sulawesi Utara",SULAWESI UTARA,,Indonesia,,,,15.599.838,1.249.327.308,https://maps.google.com/?cid=0x0:0x271d79d651cd5b0b,
,home improvement,Komplek perumahan,ITOY HOME,"CXV7+G9M, Sukur, Kec. Airmadidi, Kabupaten Minahasa Utara, Sulawesi Utara","Kabupaten Minahasa Utara, Sulawesi Utara",SULAWESI UTARA,,Indonesia,,,,14.438.362,1.249.634.357,https://maps.google.com/?cid=0x0:0xffe14799b000dcd8,
,home improvement,Rumah Kaca,Shera home,"CR6G+M73, Warembungan, Kec. Pineleng, Kabupaten Minahasa, Sulawesi Utara","Kabupaten Minahasa, Sulawesi Utara",SULAWESI UTARA,,Indonesia,0881024581356,,,14.116.003,1.248.254.726,https://maps.google.com/?cid=0x0:0x5a1122adae862f74,
,home improvement,Inspektur Tempat Tinggal,DELLA HOME,"HW96+FF8 JG, Gg. 6, JG VI, Wusa, Talawaan, North Minahasa Regency, North Sulawesi","Kabupaten Minahasa Utara, Sulawesi Utara",SULAWESI UTARA,,Indonesia,,,,1.568.601,1.249.112.096,https://maps.google.com/?cid=0x0:0x4bde1d0cf53b226d,
,home improvement,Komplek perumahan,iWang home,"JW5P+XHX, Teep Warisa, Kec. Talawaan, Kabupaten Minahasa Utara, Sulawesi Utara","Kabupaten Minahasa Utara, Sulawesi Utara",SULAWESI UTARA,,Indonesia,,,,1.609.985,1.249.364.774,https://maps.google.com/?cid=0x0:0x4675b098a6795252,
,home improvement,Komplek perumahan,Home sheyril,"HW5P+H95, Winetin, Kec. Talawaan, Kabupaten Minahasa Utara, Sulawesi Utara","Kabupaten Minahasa Utara, Sulawesi Utara",SULAWESI UTARA,,Indonesia,,,,15.588.752,1.249.359.776,https://maps.google.com/?cid=0x0:0x544086901f40df8,
,home improvement,Perusahaan Konstruksi,CV Yanuar Perkasa Abadi,"Gg. Jaga V, Kolongan, Kec. Talawaan, Kabupaten Minahasa Utara, Sulawesi Utara 95378","Kolongan, Kec. Talawaan, Kabupaten Minahasa Utara",SULAWESI UTARA,95378.0,Indonesia,085242584406,,,15.270.033,1.249.530.826,https://maps.google.com/?cid=0x0:0x8065e9466354c4c1,
,home improvement,home improvement,Wori,"Kabupaten Minahasa Utara, Sulawesi Utara","Kabupaten Minahasa Utara, Sulawesi Utara",SULAWESI UTARA,,Indonesia,,,,15.986.509,1.248.599.034,https://maps.google.com/?cid=0x0:0x1e44c8cf84925b11,
,home improvement,Rumah Kaca,BungaHome,"MXH2+48H, Kulu, Wori, Kabupaten Minahasa Utara, Sulawesi Utara","Kabupaten Minahasa Utara, Sulawesi Utara",SULAWESI UTARA,,Indonesia,,,,16.778.038,1.249.508.445,https://maps.google.com/?cid=0x0:0xc0854dfcfb29f32d,
,home improvement,Kantor Perusahaan,WORKSHOP RUMAH KAYU MANADO (PT. Woloan Permai Perkasa),"Woloan Dua, Woloan Satu, Kec. Tomohon Bar., Kota Tomohon, Sulawesi Utara 95422","Woloan Satu, Kec. Tomohon Bar., Kota Tomohon",SULAWESI UTARA,95422.0,Indonesia,08151604111,,,13.113.281,1.248.035.895,https://maps.google.com/?cid=0x0:0x30f6d20ea91f00d5,
,home improvement,Taman,Om Niu home,"HVV3+VXM, Wori, Kabupaten Minahasa Utara, Sulawesi Utara","Kabupaten Minahasa Utara, Sulawesi Utara",SULAWESI UTARA,,Indonesia,,,,15.947.158,1.248.549.311,https://maps.google.com/?cid=0x0:0x4175db7c4a3129df,
,home improvement,Komplek perumahan,Kris home,"MXH2+F33, Kulu, Wori, Kabupaten Minahasa Utara, Sulawesi Utara","Kabupaten Minahasa Utara, Sulawesi Utara",SULAWESI UTARA,,Indonesia,,,,16.786.006,1.249.502.202,https://maps.google.com/?cid=0x0:0x137431ee336b7dd2,
,home improvement,Komplek perumahan,ITOY HOME,"CXV7+G9M, Sukur, Kec. Airmadidi, Kabupaten Minahasa Utara, Sulawesi Utara","Kabupaten Minahasa Utara, Sulawesi Utara",SULAWESI UTARA,,Indonesia,,,,14.438.362,1.249.634.357,https://maps.google.com/?cid=0x0:0xffe14799b000dcd8,
,home improvement,Komplek perumahan,Obi Home,"FXJ5+4J2, Matungkas, Kec. Dimembe, Kabupaten Minahasa Utara, Sulawesi Utara","Kabupaten Minahasa Utara, Sulawesi Utara",SULAWESI UTARA,,Indonesia,,,,14.800.976,1.249.589.011,https://maps.google.com/?cid=0x0:0xb52bbb994d6af3b2,
,home improvement,Toko Bahan Bangunan,Berkat Mandiri Ochang Tk. Bangunan,"Jl. Raya Manado - Wori, Wori, Kabupaten Minahasa Utara, Sulawesi Utara","Kabupaten Minahasa Utara, Sulawesi Utara",SULAWESI UTARA,,Indonesia,085298722828,,,15.782.949,1.248.653.078,https://maps.google.com/?cid=0x0:0x864cde40bfb6c0b4,
,home improvement,Toko Perlengkapan Rumah,AW Interior Design  Furniture - Workshop,"GWMM+HH5, Jl. Teterusan Mapanget, Mapanget, Kec. Mapanget, Kabupaten Minahasa Utara, Sulawesi Utara","Kabupaten Minahasa Utara, Sulawesi Utara",SULAWESI UTARA,,Indonesia,,,,15.338.913,1.249.339.952,https://maps.google.com/?cid=0x0:0xb494af289cdb17d7,
,home improvement,Toko umum,Deo home,"HVW4+RG7, Jl. Raya Maumbi, Wori, Kabupaten Minahasa Utara, Sulawesi Utara","Kabupaten Minahasa Utara, Sulawesi Utara",SULAWESI UTARA,,Indonesia,,,,15.969.797,1.248.562.259,https://maps.google.com/?cid=0x0:0xc75bec91b2872a09,
,home improvement,home improvement,,,,SULAWESI UTARA,,Indonesia,14083597714,,,376.900.144,-1.209.346.131,https://maps.google.com/?cid=0x0:0x981e0277b259349e,
,home improvement,home improvement,"Tracy, California 95376","Tracy, California, Amerika Serikat","Tracy, California, Amerika Serikat",SULAWESI UTARA,,Indonesia,,,,377.345.254,-12.143.419,https://maps.google.com/?cid=0x0:0xdce84f7b8bf11138,
,home improvement,home improvement,A Lil Bit of Everything,,,SULAWESI UTARA,,Indonesia,12096299629,,,378.910.176,-121.252.829,https://maps.google.com/?cid=0x0:0x233370b4c7c7d710,
,home improvement,Jasa Renovasi Kamar Mandi,Tracy Handyman Pro,"812 W Clover Rd #54, Tracy, CA 95376, Amerika Serikat","Tracy, CA",SULAWESI UTARA,95376.0,Indonesia,12095189053,,,37.760.175,-1.214.377.837,https://maps.google.com/?cid=0x0:0x8751789185a1a4ac,
,home improvement,home improvement,,,,SULAWESI UTARA,,Indonesia,19253213253,,,37.720.781,-121.464.668,https://maps.google.com/?cid=0x0:0x34dd03c5cb4b8e5b,
,home improvement,Perusahaan Konstruksi,"Urias Construction, Inc.","1714 Askren Ct, Tracy, CA 95376, Amerika Serikat","Tracy, CA",SULAWESI UTARA,95376.0,Indonesia,19256780381,,,377.534.287,-1.214.480.252,https://maps.google.com/?cid=0x0:0x1c9a6da1082d8966,
,home improvement,Jasa Tukang,CK Construction,"1363 Evergreen Way, Tracy, CA 95376, Amerika Serikat","Tracy, CA",SULAWESI UTARA,95376.0,Indonesia,12098351179,,,377.426.744,-121.447.515,https://maps.google.com/?cid=0x0:0xede490f7c7809d12,
,home improvement,home improvement,JC Solutions Handyman,,,SULAWESI UTARA,,Indonesia,,,,377.602.185,-1.213.589.135,https://maps.google.com/?cid=0x0:0x431381253df06c13,
,home improvement,home improvement,KK Construction,,,SULAWESI UTARA,,Indonesia,18184056272,,,377.688,-121.428.101,https://maps.google.com/?cid=0x0:0x9caf0bc74231bcc0,
,home improvement,Pengrajin Lemari,"EA CUSTOM WOOD WORK, CABINETRY AND HOME REMODELING.","487 E 6th St D, Tracy, CA 95376, Amerika Serikat","Tracy, CA",SULAWESI UTARA,95376.0,Indonesia,12093216204,,,377.372.221,-121.418.311,https://maps.google.com/?cid=0x0:0xe235560249e0c3a4,
,home improvement,home improvement,,,,SULAWESI UTARA,,Indonesia,12093210047,,,37.590.952,-1.220.170.268,https://maps.google.com/?cid=0x0:0xc83201cdb21e4bce,
,home improvement,Jasa Tukang,Bathroom Pros,"232 W Larch Rd Unit G, Tracy, CA 95304, Amerika Serikat","Tracy, CA",SULAWESI UTARA,95304.0,Indonesia,12092297713,,,377.634.817,-1.214.286.988,https://maps.google.com/?cid=0x0:0x2c8eca6974769038,
,home improvement,Toko Mebel,RH,"2900 N MacArthur Dr suite 100, Tracy, CA 95376, Amerika Serikat","Tracy, CA",SULAWESI UTARA,95376.0,Indonesia,18007621005,,,377.607.024,-121.413.392,https://maps.google.com/?cid=0x0:0xd95d1d4b612999cb,
,home improvement,Toserba,The Home Depot,"2461 Naglee Rd, Tracy, CA 95304, Amerika Serikat","Tracy, CA",SULAWESI UTARA,95304.0,Indonesia,12098348975,,,377.565.131,-1.214.681.529,https://maps.google.com/?cid=0x0:0x691850cba082372b,
,home improvement,Toko bahan makanan,Garden Center at The Home Depot,"2461 Naglee Rd, Tracy, CA 95304, Amerika Serikat","Tracy, CA",SULAWESI UTARA,95304.0,Indonesia,12098348975,,,377.564.436,-1.214.681.315,https://maps.google.com/?cid=0x0:0x2a6c276e5416d83f,
,home improvement,Toko Perlengkapan Lantai,R Villa Flooring Inc,"270 Hawthorne Dr, Tracy, CA 95376, Amerika Serikat","Tracy, CA",SULAWESI UTARA,95376.0,Indonesia,12096378697,,,37.761.933,-1.214.294.355,https://maps.google.com/?cid=0x0:0xd5c1e6a162b35115,
,home improvement,Toko Bahan Bangunan,Diverse Technology Industrial Flooring,"100 Valpico Rd Suite D, Tracy, CA 95376, Amerika Serikat","Tracy, CA",SULAWESI UTARA,95376.0,Indonesia,12093629656,,,377.100.879,-1.214.267.791,https://maps.google.com/?cid=0x0:0xd6bbd1a741e7b81e,
,home improvement,home improvement,DJ Reliable Handyman  Home Repair,,,SULAWESI UTARA,,Indonesia,12098075063,,,37.720.781,-121.464.668,https://maps.google.com/?cid=0x0:0x13ae7185468490d1,
,home improvement,Toko Bahan Bangunan,Van's Ace Hardware,"2695 N Tracy Blvd, Tracy, CA 95376, Amerika Serikat","Tracy, CA",SULAWESI UTARA,95376.0,Indonesia,12098358286,,,377.560.602,-1.214.357.551,https://maps.google.com/?cid=0x0:0xe01dae5870bcff4a,
