Category,Real Category,Business Name,Address,City,State,Postal Code,Country,Phone,Email,Website,Latitude,Longitude,Map Link,Details Link
hotel,hotel,Sulawesi Utara 95711,"Kotamobagu, Kec. Kotamobagu Bar., Kota Kotamobagu, Sulawesi Utara","Kota Kotamobagu, Sulawesi Utara",SULAWESI UTARA,,Indonesia,,,,0.7413349,1.243.125.269,https://maps.google.com/?cid=0x0:0xe2a29556fedf8a93,
hotel,hotel,Hotel Sutanraja Kotamobagu,"Jl. Siliwangi, Kobo Besar, Kec. Kotamobagu Tim., Kota Kotamobagu, Sulawesi Utara 95716","Kobo Besar, Kec. Kotamobagu Tim., Kota Kotamobagu",SULAWESI UTARA,95716,Indonesia,4342621888.0,,,0.7258411,124.324.954,https://maps.google.com/?cid=0x0:0xc880a9c3bf234150,
hotel,hotel,,,,SULAWESI UTARA,,Indonesia,,,,,,https://maps.google.com/?cid=0x0:0xc880a9c3bf234150%7C/g/11cjkq28dv%7Cen-ID,
hotel,hotel,Tamasya Garden Hotel,"P8R8+2G3, Kotamobagu, Kec. Kotamobagu Bar., Kota Kotamobagu, Sulawesi Utara 95716","Kotamobagu, Kec. Kotamobagu Bar., Kota Kotamobagu",SULAWESI UTARA,95716,Indonesia,43421195.0,,,0.7400163,1.243.163.116,https://maps.google.com/?cid=0x0:0x55598f9108b0aaf6,
hotel,hotel,Hotel Senator,"P8R9+2FR, Kotamobagu, Kec. Kotamobagu Bar., Kota Kotamobagu, Sulawesi Utara","Kota Kotamobagu, Sulawesi Utara",SULAWESI UTARA,,Indonesia,,,,0.7401092,1.243.186.494,https://maps.google.com/?cid=0x0:0x39bdad2d836b467d,
hotel,hotel,RedDoorz @ Family Syariah Homestay kotamobagu,"P8H5+95F, Sinindian, Kec. Kotamobagu Tim., Kota Kotamobagu, Sulawesi Utara","Kota Kotamobagu, Sulawesi Utara",SULAWESI UTARA,,Indonesia,895417300072.0,,,0.7284141,1.243.079.715,https://maps.google.com/?cid=0x0:0x56084189945dcd1e,
hotel,hotel,Hotel Totabuan Citawaya Kotamobagu,"Jl. Lintas Sinindian Sinindian Kotamobagu Timur, Mogolaing, Kec. Kotamobagu Bar., Kota Kotamobagu, Sulawesi Utara 95716","Mogolaing, Kec. Kotamobagu Bar., Kota Kotamobagu",SULAWESI UTARA,95716,Indonesia,43424100.0,,,0.7287365,1.243.065.549,https://maps.google.com/?cid=0x0:0xcb6aedbd82abd616,
hotel,hotel,Hotel Tentram,"Jl. Adampe Dolot No.19B, Mogolaing, Kec. Kotamobagu Bar., Kabupaten Bolaang Mongondow, Sulawesi Utara 95716","Mogolaing, Kec. Kotamobagu Bar., Kabupaten Bolaang Mongondow",SULAWESI UTARA,95716,Indonesia,81356129601.0,,,0.7376332,1.243.085.315,https://maps.google.com/?cid=0x0:0x932ee3ba203385c0,
hotel,hotel,Hotel Ade Irma Kotamobagu,"Jl. Panjaitan, Kotamobagu, Kec. Kotamobagu Bar., Kota Kotamobagu, Sulawesi Utara","Kota Kotamobagu, Sulawesi Utara",SULAWESI UTARA,,Indonesia,85656415756.0,,,0.7401203,1.243.122.558,https://maps.google.com/?cid=0x0:0xbed27a97f3b5c1d4,
hotel,hotel,Permata Homestay Kotamobagu,"Depan Rumah Dinas BRI, Jl. Lintas, Sinindian, Kec. Kotamobagu Tim., Kota Kotamobagu, Sulawesi Utara 95718","Jl. Lintas, Sinindian, Kec. Kotamobagu Tim., Kota Kotamobagu",SULAWESI UTARA,95718,Indonesia,895417300072.0,,,0.7280845,1.243.088.849,https://maps.google.com/?cid=0x0:0xb49345ce7fa15337,
hotel,hotel,Hotel Tita 2,"Kotamobagu, Kec. Kotamobagu Bar., Kota Kotamobagu, Sulawesi Utara 95716","Kec. Kotamobagu Bar., Kota Kotamobagu",SULAWESI UTARA,95716,Indonesia,43423567.0,,,0.7400088,1.243.167.784,https://maps.google.com/?cid=0x0:0x53fcc4b84ea71b9e,
hotel,hotel,GG HOTEL,"Mongondow, Kec. Kotamobagu Sel., Kota Kotamobagu, Sulawesi Utara 95716","Kec. Kotamobagu Sel., Kota Kotamobagu",SULAWESI UTARA,95716,Indonesia,85298868559.0,,,0.7255497,1.242.935.748,https://maps.google.com/?cid=0x0:0xc49131574f9f1f68,
hotel,hotel,Hotel Mulia Lolak,"Jl. Trans-Sulawesi, Lalow, Kec. Lolak, Kabupaten Bolaang Mongondow, Sulawesi Utara","Kabupaten Bolaang Mongondow, Sulawesi Utara",SULAWESI UTARA,,Indonesia,85298113269.0,,,0.882613,1.240.267.222,https://maps.google.com/?cid=0x0:0x7cf22d3b0f737f84,
hotel,hotel,Kec. Kotamobagu Bar.,"Kota Kotamobagu, Sulawesi Utara","Kota Kotamobagu, Sulawesi Utara",SULAWESI UTARA,,Indonesia,,,,0.7429438,1.243.085.124,https://maps.google.com/?cid=0x0:0x68204053ca066af1,
hotel,hotel,Hotel Sutanraja Kotamobagu,"Jl. Siliwangi, Kobo Besar, Kec. Kotamobagu Tim., Kota Kotamobagu, Sulawesi Utara 95716","Kobo Besar, Kec. Kotamobagu Tim., Kota Kotamobagu",SULAWESI UTARA,95716,Indonesia,4342621888.0,,,0.7258411,124.324.954,https://maps.google.com/?cid=0x0:0xc880a9c3bf234150,
hotel,hotel,,,,SULAWESI UTARA,,Indonesia,,,,,,https://maps.google.com/?cid=0x0:0xc880a9c3bf234150%7C/g/11cjkq28dv%7Cen-ID,
hotel,hotel,Tamasya Garden Hotel,"P8R8+2G3, Kotamobagu, Kec. Kotamobagu Bar., Kota Kotamobagu, Sulawesi Utara 95716","Kotamobagu, Kec. Kotamobagu Bar., Kota Kotamobagu",SULAWESI UTARA,95716,Indonesia,43421195.0,,,0.7400163,1.243.163.116,https://maps.google.com/?cid=0x0:0x55598f9108b0aaf6,
hotel,hotel,Hotel Senator,"P8R9+2FR, Kotamobagu, Kec. Kotamobagu Bar., Kota Kotamobagu, Sulawesi Utara","Kota Kotamobagu, Sulawesi Utara",SULAWESI UTARA,,Indonesia,,,,0.7401092,1.243.186.494,https://maps.google.com/?cid=0x0:0x39bdad2d836b467d,
hotel,hotel,Hotel Totabuan Citawaya Kotamobagu,"Jl. Lintas Sinindian Sinindian Kotamobagu Timur, Mogolaing, Kec. Kotamobagu Bar., Kota Kotamobagu, Sulawesi Utara 95716","Mogolaing, Kec. Kotamobagu Bar., Kota Kotamobagu",SULAWESI UTARA,95716,Indonesia,43424100.0,,,0.7287365,1.243.065.549,https://maps.google.com/?cid=0x0:0xcb6aedbd82abd616,
hotel,hotel,RedDoorz @ Family Syariah Homestay kotamobagu,"P8H5+95F, Sinindian, Kec. Kotamobagu Tim., Kota Kotamobagu, Sulawesi Utara","Kota Kotamobagu, Sulawesi Utara",SULAWESI UTARA,,Indonesia,895417300072.0,,,0.7284141,1.243.079.715,https://maps.google.com/?cid=0x0:0x56084189945dcd1e,
hotel,hotel,Hotel Tentram,"Jl. Adampe Dolot No.19B, Mogolaing, Kec. Kotamobagu Bar., Kabupaten Bolaang Mongondow, Sulawesi Utara 95716","Mogolaing, Kec. Kotamobagu Bar., Kabupaten Bolaang Mongondow",SULAWESI UTARA,95716,Indonesia,81356129601.0,,,0.7376332,1.243.085.315,https://maps.google.com/?cid=0x0:0x932ee3ba203385c0,
hotel,hotel,GG HOTEL,"Mongondow, Kec. Kotamobagu Sel., Kota Kotamobagu, Sulawesi Utara 95716","Kec. Kotamobagu Sel., Kota Kotamobagu",SULAWESI UTARA,95716,Indonesia,85298868559.0,,,0.7255497,1.242.935.748,https://maps.google.com/?cid=0x0:0xc49131574f9f1f68,
hotel,hotel,Permata Homestay Kotamobagu,"Depan Rumah Dinas BRI, Jl. Lintas, Sinindian, Kec. Kotamobagu Tim., Kota Kotamobagu, Sulawesi Utara 95718","Jl. Lintas, Sinindian, Kec. Kotamobagu Tim., Kota Kotamobagu",SULAWESI UTARA,95718,Indonesia,895417300072.0,,,0.7280845,1.243.088.849,https://maps.google.com/?cid=0x0:0xb49345ce7fa15337,
hotel,hotel,Hotel Tita 2,"Kotamobagu, Kec. Kotamobagu Bar., Kota Kotamobagu, Sulawesi Utara 95716","Kec. Kotamobagu Bar., Kota Kotamobagu",SULAWESI UTARA,95716,Indonesia,43423567.0,,,0.7400088,1.243.167.784,https://maps.google.com/?cid=0x0:0x53fcc4b84ea71b9e,
hotel,hotel,Hotel Ade Irma Kotamobagu,"Jl. Panjaitan, Kotamobagu, Kec. Kotamobagu Bar., Kota Kotamobagu, Sulawesi Utara","Kota Kotamobagu, Sulawesi Utara",SULAWESI UTARA,,Indonesia,85656415756.0,,,0.7401203,1.243.122.558,https://maps.google.com/?cid=0x0:0xbed27a97f3b5c1d4,
hotel,hotel,Hotel Mulia Lolak,"Jl. Trans-Sulawesi, Lalow, Kec. Lolak, Kabupaten Bolaang Mongondow, Sulawesi Utara","Kabupaten Bolaang Mongondow, Sulawesi Utara",SULAWESI UTARA,,Indonesia,85298113269.0,,,0.882613,1.240.267.222,https://maps.google.com/?cid=0x0:0x7cf22d3b0f737f84,
hotel,hotel,Kec. Kotamobagu Sel.,"Kota Kotamobagu, Sulawesi Utara","Kota Kotamobagu, Sulawesi Utara",SULAWESI UTARA,,Indonesia,,,,0.7240463,124.293.299,https://maps.google.com/?cid=0x0:0x270b5a3d87842fb7,
hotel,hotel,Hotel Sutanraja Kotamobagu,"Jl. Siliwangi, Kobo Besar, Kec. Kotamobagu Tim., Kota Kotamobagu, Sulawesi Utara 95716","Kobo Besar, Kec. Kotamobagu Tim., Kota Kotamobagu",SULAWESI UTARA,95716,Indonesia,4342621888.0,,,0.7258411,124.324.954,https://maps.google.com/?cid=0x0:0xc880a9c3bf234150,
hotel,hotel,,,,SULAWESI UTARA,,Indonesia,,,,,,https://maps.google.com/?cid=0x0:0xc880a9c3bf234150%7C/g/11cjkq28dv%7Cen-ID,
hotel,hotel,Tamasya Garden Hotel,"P8R8+2G3, Kotamobagu, Kec. Kotamobagu Bar., Kota Kotamobagu, Sulawesi Utara 95716","Kotamobagu, Kec. Kotamobagu Bar., Kota Kotamobagu",SULAWESI UTARA,95716,Indonesia,43421195.0,,,0.7400163,1.243.163.116,https://maps.google.com/?cid=0x0:0x55598f9108b0aaf6,
hotel,hotel,RedDoorz @ Family Syariah Homestay kotamobagu,"P8H5+95F, Sinindian, Kec. Kotamobagu Tim., Kota Kotamobagu, Sulawesi Utara","Kota Kotamobagu, Sulawesi Utara",SULAWESI UTARA,,Indonesia,895417300072.0,,,0.7284141,1.243.079.715,https://maps.google.com/?cid=0x0:0x56084189945dcd1e,
hotel,hotel,Hotel Senator,"P8R9+2FR, Kotamobagu, Kec. Kotamobagu Bar., Kota Kotamobagu, Sulawesi Utara","Kota Kotamobagu, Sulawesi Utara",SULAWESI UTARA,,Indonesia,,,,0.7401092,1.243.186.494,https://maps.google.com/?cid=0x0:0x39bdad2d836b467d,
hotel,hotel,Hotel Totabuan Citawaya Kotamobagu,"Jl. Lintas Sinindian Sinindian Kotamobagu Timur, Mogolaing, Kec. Kotamobagu Bar., Kota Kotamobagu, Sulawesi Utara 95716","Mogolaing, Kec. Kotamobagu Bar., Kota Kotamobagu",SULAWESI UTARA,95716,Indonesia,43424100.0,,,0.7287365,1.243.065.549,https://maps.google.com/?cid=0x0:0xcb6aedbd82abd616,
hotel,hotel,GG HOTEL,"Mongondow, Kec. Kotamobagu Sel., Kota Kotamobagu, Sulawesi Utara 95716","Kec. Kotamobagu Sel., Kota Kotamobagu",SULAWESI UTARA,95716,Indonesia,85298868559.0,,,0.7255497,1.242.935.748,https://maps.google.com/?cid=0x0:0xc49131574f9f1f68,
hotel,hotel,Permata Homestay Kotamobagu,"Depan Rumah Dinas BRI, Jl. Lintas, Sinindian, Kec. Kotamobagu Tim., Kota Kotamobagu, Sulawesi Utara 95718","Jl. Lintas, Sinindian, Kec. Kotamobagu Tim., Kota Kotamobagu",SULAWESI UTARA,95718,Indonesia,895417300072.0,,,0.7280845,1.243.088.849,https://maps.google.com/?cid=0x0:0xb49345ce7fa15337,
hotel,hotel,Hotel Tentram,"Jl. Adampe Dolot No.19B, Mogolaing, Kec. Kotamobagu Bar., Kabupaten Bolaang Mongondow, Sulawesi Utara 95716","Mogolaing, Kec. Kotamobagu Bar., Kabupaten Bolaang Mongondow",SULAWESI UTARA,95716,Indonesia,81356129601.0,,,0.7376332,1.243.085.315,https://maps.google.com/?cid=0x0:0x932ee3ba203385c0,
hotel,hotel,Hotel Tita 2,"Kotamobagu, Kec. Kotamobagu Bar., Kota Kotamobagu, Sulawesi Utara 95716","Kec. Kotamobagu Bar., Kota Kotamobagu",SULAWESI UTARA,95716,Indonesia,43423567.0,,,0.7400088,1.243.167.784,https://maps.google.com/?cid=0x0:0x53fcc4b84ea71b9e,
hotel,hotel,Hotel Ade Irma Kotamobagu,"Jl. Panjaitan, Kotamobagu, Kec. Kotamobagu Bar., Kota Kotamobagu, Sulawesi Utara","Kota Kotamobagu, Sulawesi Utara",SULAWESI UTARA,,Indonesia,85656415756.0,,,0.7401203,1.243.122.558,https://maps.google.com/?cid=0x0:0xbed27a97f3b5c1d4,
hotel,hotel,Hotel Mulia Lolak,"Jl. Trans-Sulawesi, Lalow, Kec. Lolak, Kabupaten Bolaang Mongondow, Sulawesi Utara","Kabupaten Bolaang Mongondow, Sulawesi Utara",SULAWESI UTARA,,Indonesia,85298113269.0,,,0.882613,1.240.267.222,https://maps.google.com/?cid=0x0:0x7cf22d3b0f737f84,
hotel,hotel,Kec. Kotamobagu Tim.,"Kota Kotamobagu, Sulawesi Utara","Kota Kotamobagu, Sulawesi Utara",SULAWESI UTARA,,Indonesia,,,,0.7377324,1.243.224.496,https://maps.google.com/?cid=0x0:0xf276a13be322dc46,
hotel,hotel,Hotel Sutanraja Kotamobagu,"Jl. Siliwangi, Kobo Besar, Kec. Kotamobagu Tim., Kota Kotamobagu, Sulawesi Utara 95716","Kobo Besar, Kec. Kotamobagu Tim., Kota Kotamobagu",SULAWESI UTARA,95716,Indonesia,4342621888.0,,,0.7258411,124.324.954,https://maps.google.com/?cid=0x0:0xc880a9c3bf234150,
hotel,hotel,,,,SULAWESI UTARA,,Indonesia,,,,,,https://maps.google.com/?cid=0x0:0xc880a9c3bf234150%7C/g/11cjkq28dv%7Cen-ID,
hotel,hotel,Tamasya Garden Hotel,"P8R8+2G3, Kotamobagu, Kec. Kotamobagu Bar., Kota Kotamobagu, Sulawesi Utara 95716","Kotamobagu, Kec. Kotamobagu Bar., Kota Kotamobagu",SULAWESI UTARA,95716,Indonesia,43421195.0,,,0.7400163,1.243.163.116,https://maps.google.com/?cid=0x0:0x55598f9108b0aaf6,
hotel,hotel,Hotel Senator,"P8R9+2FR, Kotamobagu, Kec. Kotamobagu Bar., Kota Kotamobagu, Sulawesi Utara","Kota Kotamobagu, Sulawesi Utara",SULAWESI UTARA,,Indonesia,,,,0.7401092,1.243.186.494,https://maps.google.com/?cid=0x0:0x39bdad2d836b467d,
hotel,hotel,RedDoorz @ Family Syariah Homestay kotamobagu,"P8H5+95F, Sinindian, Kec. Kotamobagu Tim., Kota Kotamobagu, Sulawesi Utara","Kota Kotamobagu, Sulawesi Utara",SULAWESI UTARA,,Indonesia,895417300072.0,,,0.7284141,1.243.079.715,https://maps.google.com/?cid=0x0:0x56084189945dcd1e,
hotel,hotel,Hotel Totabuan Citawaya Kotamobagu,"Jl. Lintas Sinindian Sinindian Kotamobagu Timur, Mogolaing, Kec. Kotamobagu Bar., Kota Kotamobagu, Sulawesi Utara 95716","Mogolaing, Kec. Kotamobagu Bar., Kota Kotamobagu",SULAWESI UTARA,95716,Indonesia,43424100.0,,,0.7287365,1.243.065.549,https://maps.google.com/?cid=0x0:0xcb6aedbd82abd616,
hotel,hotel,Permata Homestay Kotamobagu,"Depan Rumah Dinas BRI, Jl. Lintas, Sinindian, Kec. Kotamobagu Tim., Kota Kotamobagu, Sulawesi Utara 95718","Jl. Lintas, Sinindian, Kec. Kotamobagu Tim., Kota Kotamobagu",SULAWESI UTARA,95718,Indonesia,895417300072.0,,,0.7280845,1.243.088.849,https://maps.google.com/?cid=0x0:0xb49345ce7fa15337,
hotel,hotel,Hotel Tentram,"Jl. Adampe Dolot No.19B, Mogolaing, Kec. Kotamobagu Bar., Kabupaten Bolaang Mongondow, Sulawesi Utara 95716","Mogolaing, Kec. Kotamobagu Bar., Kabupaten Bolaang Mongondow",SULAWESI UTARA,95716,Indonesia,81356129601.0,,,0.7376332,1.243.085.315,https://maps.google.com/?cid=0x0:0x932ee3ba203385c0,
hotel,hotel,GG HOTEL,"Mongondow, Kec. Kotamobagu Sel., Kota Kotamobagu, Sulawesi Utara 95716","Kec. Kotamobagu Sel., Kota Kotamobagu",SULAWESI UTARA,95716,Indonesia,85298868559.0,,,0.7255497,1.242.935.748,https://maps.google.com/?cid=0x0:0xc49131574f9f1f68,
hotel,hotel,Hotel Tita 2,"Kotamobagu, Kec. Kotamobagu Bar., Kota Kotamobagu, Sulawesi Utara 95716","Kec. Kotamobagu Bar., Kota Kotamobagu",SULAWESI UTARA,95716,Indonesia,43423567.0,,,0.7400088,1.243.167.784,https://maps.google.com/?cid=0x0:0x53fcc4b84ea71b9e,
hotel,hotel,Hotel Ade Irma Kotamobagu,"Jl. Panjaitan, Kotamobagu, Kec. Kotamobagu Bar., Kota Kotamobagu, Sulawesi Utara","Kota Kotamobagu, Sulawesi Utara",SULAWESI UTARA,,Indonesia,85656415756.0,,,0.7401203,1.243.122.558,https://maps.google.com/?cid=0x0:0xbed27a97f3b5c1d4,
hotel,hotel,Sulawesi Utara 95716,"Mogolaing, Kec. Kotamobagu Bar., Kota Kotamobagu, Sulawesi Utara","Kota Kotamobagu, Sulawesi Utara",SULAWESI UTARA,,Indonesia,,,,0.7331339,1.243.035.249,https://maps.google.com/?cid=0x0:0xb303343be4233a,
hotel,hotel,Hotel Sutanraja Kotamobagu,"Jl. Siliwangi, Kobo Besar, Kec. Kotamobagu Tim., Kota Kotamobagu, Sulawesi Utara 95716","Kobo Besar, Kec. Kotamobagu Tim., Kota Kotamobagu",SULAWESI UTARA,95716,Indonesia,4342621888.0,,,0.7258411,124.324.954,https://maps.google.com/?cid=0x0:0xc880a9c3bf234150,
hotel,hotel,,,,SULAWESI UTARA,,Indonesia,,,,,,https://maps.google.com/?cid=0x0:0xc880a9c3bf234150%7C/g/11cjkq28dv%7Cen-ID,
hotel,hotel,Tamasya Garden Hotel,"P8R8+2G3, Kotamobagu, Kec. Kotamobagu Bar., Kota Kotamobagu, Sulawesi Utara 95716","Kotamobagu, Kec. Kotamobagu Bar., Kota Kotamobagu",SULAWESI UTARA,95716,Indonesia,43421195.0,,,0.7400163,1.243.163.116,https://maps.google.com/?cid=0x0:0x55598f9108b0aaf6,
hotel,Hotel,RedDoorz @ Family Syariah Homestay kotamobagu,"P8H5+95F, Sinindian, Kec. Kotamobagu Tim., Kota Kotamobagu, Sulawesi Utara","Kota Kotamobagu, Sulawesi Utara",SULAWESI UTARA,,Indonesia,895417300072.0,,,0.7284141,1.243.079.715,https://maps.google.com/?cid=0x0:0x56084189945dcd1e,
hotel,hotel,Hotel Totabuan Citawaya Kotamobagu,"Jl. Lintas Sinindian Sinindian Kotamobagu Timur, Mogolaing, Kec. Kotamobagu Bar., Kota Kotamobagu, Sulawesi Utara 95716","Mogolaing, Kec. Kotamobagu Bar., Kota Kotamobagu",SULAWESI UTARA,95716,Indonesia,43424100.0,,,0.7287365,1.243.065.549,https://maps.google.com/?cid=0x0:0xcb6aedbd82abd616,
hotel,hotel,Hotel Senator,"P8R9+2FR, Kotamobagu, Kec. Kotamobagu Bar., Kota Kotamobagu, Sulawesi Utara","Kota Kotamobagu, Sulawesi Utara",SULAWESI UTARA,,Indonesia,,,,0.7401092,1.243.186.494,https://maps.google.com/?cid=0x0:0x39bdad2d836b467d,
hotel,hotel,Permata Homestay Kotamobagu,"Depan Rumah Dinas BRI, Jl. Lintas, Sinindian, Kec. Kotamobagu Tim., Kota Kotamobagu, Sulawesi Utara 95718","Jl. Lintas, Sinindian, Kec. Kotamobagu Tim., Kota Kotamobagu",SULAWESI UTARA,95718,Indonesia,895417300072.0,,,0.7280845,1.243.088.849,https://maps.google.com/?cid=0x0:0xb49345ce7fa15337,
hotel,hotel,Hotel Tentram,"Jl. Adampe Dolot No.19B, Mogolaing, Kec. Kotamobagu Bar., Kabupaten Bolaang Mongondow, Sulawesi Utara 95716","Mogolaing, Kec. Kotamobagu Bar., Kabupaten Bolaang Mongondow",SULAWESI UTARA,95716,Indonesia,81356129601.0,,,0.7376332,1.243.085.315,https://maps.google.com/?cid=0x0:0x932ee3ba203385c0,
hotel,hotel,GG HOTEL,"Mongondow, Kec. Kotamobagu Sel., Kota Kotamobagu, Sulawesi Utara 95716","Kec. Kotamobagu Sel., Kota Kotamobagu",SULAWESI UTARA,95716,Indonesia,85298868559.0,,,0.7255497,1.242.935.748,https://maps.google.com/?cid=0x0:0xc49131574f9f1f68,
hotel,hotel,Hotel Tita 2,"Kotamobagu, Kec. Kotamobagu Bar., Kota Kotamobagu, Sulawesi Utara 95716","Kec. Kotamobagu Bar., Kota Kotamobagu",SULAWESI UTARA,95716,Indonesia,43423567.0,,,0.7400088,1.243.167.784,https://maps.google.com/?cid=0x0:0x53fcc4b84ea71b9e,
hotel,hotel,Hotel Ade Irma Kotamobagu,"Jl. Panjaitan, Kotamobagu, Kec. Kotamobagu Bar., Kota Kotamobagu, Sulawesi Utara","Kota Kotamobagu, Sulawesi Utara",SULAWESI UTARA,,Indonesia,85656415756.0,,,0.7401203,1.243.122.558,https://maps.google.com/?cid=0x0:0xbed27a97f3b5c1d4,
hotel,hotel,Kec. Kotamobagu Tim.,"Kota Kotamobagu, Sulawesi Utara","Kota Kotamobagu, Sulawesi Utara",SULAWESI UTARA,,Indonesia,,,,0.7377324,1.243.224.496,https://maps.google.com/?cid=0x0:0xf276a13be322dc46,
hotel,hotel,Sulawesi Utara 95718,"Kotabangon, Kec. Kotamobagu Tim., Kota Kotamobagu, Sulawesi Utara","Kota Kotamobagu, Sulawesi Utara",SULAWESI UTARA,,Indonesia,,,,0.7331272,1.243.211.987,https://maps.google.com/?cid=0x0:0x3ca38e005d607719,
hotel,hotel,Hotel Sutanraja Kotamobagu,"Jl. Siliwangi, Kobo Besar, Kec. Kotamobagu Tim., Kota Kotamobagu, Sulawesi Utara 95716","Kobo Besar, Kec. Kotamobagu Tim., Kota Kotamobagu",SULAWESI UTARA,95716,Indonesia,4342621888.0,,,0.7258411,124.324.954,https://maps.google.com/?cid=0x0:0xc880a9c3bf234150,
hotel,hotel,,,,SULAWESI UTARA,,Indonesia,,,,,,https://maps.google.com/?cid=0x0:0xc880a9c3bf234150%7C/g/11cjkq28dv%7Cen-ID,
hotel,hotel,Tamasya Garden Hotel,"P8R8+2G3, Kotamobagu, Kec. Kotamobagu Bar., Kota Kotamobagu, Sulawesi Utara 95716","Kotamobagu, Kec. Kotamobagu Bar., Kota Kotamobagu",SULAWESI UTARA,95716,Indonesia,43421195.0,,,0.7400163,1.243.163.116,https://maps.google.com/?cid=0x0:0x55598f9108b0aaf6,
hotel,hotel,Hotel Senator,"P8R9+2FR, Kotamobagu, Kec. Kotamobagu Bar., Kota Kotamobagu, Sulawesi Utara","Kota Kotamobagu, Sulawesi Utara",SULAWESI UTARA,,Indonesia,,,,0.7401092,1.243.186.494,https://maps.google.com/?cid=0x0:0x39bdad2d836b467d,
hotel,hotel,RedDoorz @ Family Syariah Homestay kotamobagu,"P8H5+95F, Sinindian, Kec. Kotamobagu Tim., Kota Kotamobagu, Sulawesi Utara","Kota Kotamobagu, Sulawesi Utara",SULAWESI UTARA,,Indonesia,895417300072.0,,,0.7284141,1.243.079.715,https://maps.google.com/?cid=0x0:0x56084189945dcd1e,
hotel,hotel,Hotel Totabuan Citawaya Kotamobagu,"Jl. Lintas Sinindian Sinindian Kotamobagu Timur, Mogolaing, Kec. Kotamobagu Bar., Kota Kotamobagu, Sulawesi Utara 95716","Mogolaing, Kec. Kotamobagu Bar., Kota Kotamobagu",SULAWESI UTARA,95716,Indonesia,43424100.0,,,0.7287365,1.243.065.549,https://maps.google.com/?cid=0x0:0xcb6aedbd82abd616,
hotel,hotel,Permata Homestay Kotamobagu,"Depan Rumah Dinas BRI, Jl. Lintas, Sinindian, Kec. Kotamobagu Tim., Kota Kotamobagu, Sulawesi Utara 95718","Jl. Lintas, Sinindian, Kec. Kotamobagu Tim., Kota Kotamobagu",SULAWESI UTARA,95718,Indonesia,895417300072.0,,,0.7280845,1.243.088.849,https://maps.google.com/?cid=0x0:0xb49345ce7fa15337,
hotel,hotel,Hotel Tentram,"Jl. Adampe Dolot No.19B, Mogolaing, Kec. Kotamobagu Bar., Kabupaten Bolaang Mongondow, Sulawesi Utara 95716","Mogolaing, Kec. Kotamobagu Bar., Kabupaten Bolaang Mongondow",SULAWESI UTARA,95716,Indonesia,81356129601.0,,,0.7376332,1.243.085.315,https://maps.google.com/?cid=0x0:0x932ee3ba203385c0,
hotel,hotel,Hotel Tita 2,"Kotamobagu, Kec. Kotamobagu Bar., Kota Kotamobagu, Sulawesi Utara 95716","Kec. Kotamobagu Bar., Kota Kotamobagu",SULAWESI UTARA,95716,Indonesia,43423567.0,,,0.7400088,1.243.167.784,https://maps.google.com/?cid=0x0:0x53fcc4b84ea71b9e,
hotel,hotel,GG HOTEL,"Mongondow, Kec. Kotamobagu Sel., Kota Kotamobagu, Sulawesi Utara 95716","Kec. Kotamobagu Sel., Kota Kotamobagu",SULAWESI UTARA,95716,Indonesia,85298868559.0,,,0.7255497,1.242.935.748,https://maps.google.com/?cid=0x0:0xc49131574f9f1f68,
hotel,Hotel,Hotel Ade Irma Kotamobagu,"Jl. Panjaitan, Kotamobagu, Kec. Kotamobagu Bar., Kota Kotamobagu, Sulawesi Utara","Kota Kotamobagu, Sulawesi Utara",SULAWESI UTARA,,Indonesia,85656415756.0,,,0.7401203,1.243.122.558,https://maps.google.com/?cid=0x0:0xbed27a97f3b5c1d4,
hotel,hotel,Kec. Kotamobagu Tim.,"Kota Kotamobagu, Sulawesi Utara","Kota Kotamobagu, Sulawesi Utara",SULAWESI UTARA,,Indonesia,,,,0.7377324,1.243.224.496,https://maps.google.com/?cid=0x0:0xf276a13be322dc46,
hotel,hotel,Hotel Sutanraja Kotamobagu,"Jl. Siliwangi, Kobo Besar, Kec. Kotamobagu Tim., Kota Kotamobagu, Sulawesi Utara 95716","Kobo Besar, Kec. Kotamobagu Tim., Kota Kotamobagu",SULAWESI UTARA,95716,Indonesia,4342621888.0,,,0.7258411,124.324.954,https://maps.google.com/?cid=0x0:0xc880a9c3bf234150,
hotel,hotel,,,,SULAWESI UTARA,,Indonesia,,,,,,https://maps.google.com/?cid=0x0:0xc880a9c3bf234150%7C/g/11cjkq28dv%7Cen-ID,
hotel,hotel,Tamasya Garden Hotel,"P8R8+2G3, Kotamobagu, Kec. Kotamobagu Bar., Kota Kotamobagu, Sulawesi Utara 95716","Kotamobagu, Kec. Kotamobagu Bar., Kota Kotamobagu",SULAWESI UTARA,95716,Indonesia,43421195.0,,,0.7400163,1.243.163.116,https://maps.google.com/?cid=0x0:0x55598f9108b0aaf6,
hotel,hotel,Hotel Senator,"P8R9+2FR, Kotamobagu, Kec. Kotamobagu Bar., Kota Kotamobagu, Sulawesi Utara","Kota Kotamobagu, Sulawesi Utara",SULAWESI UTARA,,Indonesia,,,,0.7401092,1.243.186.494,https://maps.google.com/?cid=0x0:0x39bdad2d836b467d,
hotel,hotel,RedDoorz @ Family Syariah Homestay kotamobagu,"P8H5+95F, Sinindian, Kec. Kotamobagu Tim., Kota Kotamobagu, Sulawesi Utara","Kota Kotamobagu, Sulawesi Utara",SULAWESI UTARA,,Indonesia,895417300072.0,,,0.7284141,1.243.079.715,https://maps.google.com/?cid=0x0:0x56084189945dcd1e,
hotel,hotel,Hotel Totabuan Citawaya Kotamobagu,"Jl. Lintas Sinindian Sinindian Kotamobagu Timur, Mogolaing, Kec. Kotamobagu Bar., Kota Kotamobagu, Sulawesi Utara 95716","Mogolaing, Kec. Kotamobagu Bar., Kota Kotamobagu",SULAWESI UTARA,95716,Indonesia,43424100.0,,,0.7287365,1.243.065.549,https://maps.google.com/?cid=0x0:0xcb6aedbd82abd616,
hotel,hotel,Hotel Tentram,"Jl. Adampe Dolot No.19B, Mogolaing, Kec. Kotamobagu Bar., Kabupaten Bolaang Mongondow, Sulawesi Utara 95716","Mogolaing, Kec. Kotamobagu Bar., Kabupaten Bolaang Mongondow",SULAWESI UTARA,95716,Indonesia,81356129601.0,,,0.7376332,1.243.085.315,https://maps.google.com/?cid=0x0:0x932ee3ba203385c0,
hotel,hotel,Permata Homestay Kotamobagu,"Depan Rumah Dinas BRI, Jl. Lintas, Sinindian, Kec. Kotamobagu Tim., Kota Kotamobagu, Sulawesi Utara 95718","Jl. Lintas, Sinindian, Kec. Kotamobagu Tim., Kota Kotamobagu",SULAWESI UTARA,95718,Indonesia,895417300072.0,,,0.7280845,1.243.088.849,https://maps.google.com/?cid=0x0:0xb49345ce7fa15337,
hotel,hotel,GG HOTEL,"Mongondow, Kec. Kotamobagu Sel., Kota Kotamobagu, Sulawesi Utara 95716","Kec. Kotamobagu Sel., Kota Kotamobagu",SULAWESI UTARA,95716,Indonesia,85298868559.0,,,0.7255497,1.242.935.748,https://maps.google.com/?cid=0x0:0xc49131574f9f1f68,
hotel,hotel,Hotel Tita 2,"Kotamobagu, Kec. Kotamobagu Bar., Kota Kotamobagu, Sulawesi Utara 95716","Kec. Kotamobagu Bar., Kota Kotamobagu",SULAWESI UTARA,95716,Indonesia,43423567.0,,,0.7400088,1.243.167.784,https://maps.google.com/?cid=0x0:0x53fcc4b84ea71b9e,
hotel,hotel,Hotel Ade Irma Kotamobagu,"Jl. Panjaitan, Kotamobagu, Kec. Kotamobagu Bar., Kota Kotamobagu, Sulawesi Utara","Kota Kotamobagu, Sulawesi Utara",SULAWESI UTARA,,Indonesia,85656415756.0,,,0.7401203,1.243.122.558,https://maps.google.com/?cid=0x0:0xbed27a97f3b5c1d4,
hotel,hotel,Hotel Mulia Lolak,"Jl. Trans-Sulawesi, Lalow, Kec. Lolak, Kabupaten Bolaang Mongondow, Sulawesi Utara","Kabupaten Bolaang Mongondow, Sulawesi Utara",SULAWESI UTARA,,Indonesia,85298113269.0,,,0.882613,1.240.267.222,https://maps.google.com/?cid=0x0:0x7cf22d3b0f737f84,
hotel,hotel,Kec. Kotamobagu Utara,"Kota Kotamobagu, Sulawesi Utara","Kota Kotamobagu, Sulawesi Utara",SULAWESI UTARA,,Indonesia,,,,0.7535564,1.243.211.663,https://maps.google.com/?cid=0x0:0x8857be9cbc156ca2,
hotel,hotel,Hotel Sutanraja Kotamobagu,"Jl. Siliwangi, Kobo Besar, Kec. Kotamobagu Tim., Kota Kotamobagu, Sulawesi Utara 95716","Kobo Besar, Kec. Kotamobagu Tim., Kota Kotamobagu",SULAWESI UTARA,95716,Indonesia,4342621888.0,,,0.7258411,124.324.954,https://maps.google.com/?cid=0x0:0xc880a9c3bf234150,
hotel,hotel,Tamasya Garden Hotel,"P8R8+2G3, Kotamobagu, Kec. Kotamobagu Bar., Kota Kotamobagu, Sulawesi Utara 95716","Kotamobagu, Kec. Kotamobagu Bar., Kota Kotamobagu",SULAWESI UTARA,95716,Indonesia,43421195.0,,,0.7400163,1.243.163.116,https://maps.google.com/?cid=0x0:0x55598f9108b0aaf6,
hotel,hotel,Hotel Senator,"P8R9+2FR, Kotamobagu, Kec. Kotamobagu Bar., Kota Kotamobagu, Sulawesi Utara","Kota Kotamobagu, Sulawesi Utara",SULAWESI UTARA,,Indonesia,,,,0.7401092,1.243.186.494,https://maps.google.com/?cid=0x0:0x39bdad2d836b467d,
hotel,hotel,,,,SULAWESI UTARA,,Indonesia,,,,,,https://maps.google.com/?cid=0x0:0xc880a9c3bf234150%7C/g/11cjkq28dv%7Cen-ID,
hotel,hotel,RedDoorz @ Family Syariah Homestay kotamobagu,"P8H5+95F, Sinindian, Kec. Kotamobagu Tim., Kota Kotamobagu, Sulawesi Utara","Kota Kotamobagu, Sulawesi Utara",SULAWESI UTARA,,Indonesia,895417300072.0,,,0.7284141,1.243.079.715,https://maps.google.com/?cid=0x0:0x56084189945dcd1e,
hotel,hotel,Hotel Tentram,"Jl. Adampe Dolot No.19B, Mogolaing, Kec. Kotamobagu Bar., Kabupaten Bolaang Mongondow, Sulawesi Utara 95716","Mogolaing, Kec. Kotamobagu Bar., Kabupaten Bolaang Mongondow",SULAWESI UTARA,95716,Indonesia,81356129601.0,,,0.7376332,1.243.085.315,https://maps.google.com/?cid=0x0:0x932ee3ba203385c0,
hotel,hotel,Hotel Totabuan Citawaya Kotamobagu,"Jl. Lintas Sinindian Sinindian Kotamobagu Timur, Mogolaing, Kec. Kotamobagu Bar., Kota Kotamobagu, Sulawesi Utara 95716","Mogolaing, Kec. Kotamobagu Bar., Kota Kotamobagu",SULAWESI UTARA,95716,Indonesia,43424100.0,,,0.7287365,1.243.065.549,https://maps.google.com/?cid=0x0:0xcb6aedbd82abd616,
hotel,hotel,GG HOTEL,"Mongondow, Kec. Kotamobagu Sel., Kota Kotamobagu, Sulawesi Utara 95716","Kec. Kotamobagu Sel., Kota Kotamobagu",SULAWESI UTARA,95716,Indonesia,85298868559.0,,,0.7255497,1.242.935.748,https://maps.google.com/?cid=0x0:0xc49131574f9f1f68,
hotel,hotel,Permata Homestay Kotamobagu,"Depan Rumah Dinas BRI, Jl. Lintas, Sinindian, Kec. Kotamobagu Tim., Kota Kotamobagu, Sulawesi Utara 95718","Jl. Lintas, Sinindian, Kec. Kotamobagu Tim., Kota Kotamobagu",SULAWESI UTARA,95718,Indonesia,895417300072.0,,,0.7280845,1.243.088.849,https://maps.google.com/?cid=0x0:0xb49345ce7fa15337,
hotel,hotel,Hotel Tita 2,"Kotamobagu, Kec. Kotamobagu Bar., Kota Kotamobagu, Sulawesi Utara 95716","Kec. Kotamobagu Bar., Kota Kotamobagu",SULAWESI UTARA,95716,Indonesia,43423567.0,,,0.7400088,1.243.167.784,https://maps.google.com/?cid=0x0:0x53fcc4b84ea71b9e,
hotel,hotel,Hotel Ade Irma Kotamobagu,"Jl. Panjaitan, Kotamobagu, Kec. Kotamobagu Bar., Kota Kotamobagu, Sulawesi Utara","Kota Kotamobagu, Sulawesi Utara",SULAWESI UTARA,,Indonesia,85656415756.0,,,0.7401203,1.243.122.558,https://maps.google.com/?cid=0x0:0xbed27a97f3b5c1d4,
hotel,hotel,Hotel Mulia Lolak,"Jl. Trans-Sulawesi, Lalow, Kec. Lolak, Kabupaten Bolaang Mongondow, Sulawesi Utara","Kabupaten Bolaang Mongondow, Sulawesi Utara",SULAWESI UTARA,,Indonesia,85298113269.0,,,0.882613,1.240.267.222,https://maps.google.com/?cid=0x0:0x7cf22d3b0f737f84,
hotel,hotel,Kec. Kotamobagu Utara,"Kota Kotamobagu, Sulawesi Utara","Kota Kotamobagu, Sulawesi Utara",SULAWESI UTARA,,Indonesia,,,,0.7535564,1.243.211.663,https://maps.google.com/?cid=0x0:0x8857be9cbc156ca2,
hotel,hotel,Hotel Sutanraja Kotamobagu,"Jl. Siliwangi, Kobo Besar, Kec. Kotamobagu Tim., Kota Kotamobagu, Sulawesi Utara 95716","Kobo Besar, Kec. Kotamobagu Tim., Kota Kotamobagu",SULAWESI UTARA,95716,Indonesia,4342621888.0,,,0.7258411,124.324.954,https://maps.google.com/?cid=0x0:0xc880a9c3bf234150,
hotel,hotel,,,,SULAWESI UTARA,,Indonesia,,,,,,https://maps.google.com/?cid=0x0:0xc880a9c3bf234150%7C/g/11cjkq28dv%7Cen-ID,
hotel,hotel,Tamasya Garden Hotel,"P8R8+2G3, Kotamobagu, Kec. Kotamobagu Bar., Kota Kotamobagu, Sulawesi Utara 95716","Kotamobagu, Kec. Kotamobagu Bar., Kota Kotamobagu",SULAWESI UTARA,95716,Indonesia,43421195.0,,,0.7400163,1.243.163.116,https://maps.google.com/?cid=0x0:0x55598f9108b0aaf6,
hotel,hotel,Hotel Senator,"P8R9+2FR, Kotamobagu, Kec. Kotamobagu Bar., Kota Kotamobagu, Sulawesi Utara","Kota Kotamobagu, Sulawesi Utara",SULAWESI UTARA,,Indonesia,,,,0.7401092,1.243.186.494,https://maps.google.com/?cid=0x0:0x39bdad2d836b467d,
hotel,hotel,RedDoorz @ Family Syariah Homestay kotamobagu,"P8H5+95F, Sinindian, Kec. Kotamobagu Tim., Kota Kotamobagu, Sulawesi Utara","Kota Kotamobagu, Sulawesi Utara",SULAWESI UTARA,,Indonesia,895417300072.0,,,0.7284141,1.243.079.715,https://maps.google.com/?cid=0x0:0x56084189945dcd1e,
hotel,hotel,Hotel Tentram,"Jl. Adampe Dolot No.19B, Mogolaing, Kec. Kotamobagu Bar., Kabupaten Bolaang Mongondow, Sulawesi Utara 95716","Mogolaing, Kec. Kotamobagu Bar., Kabupaten Bolaang Mongondow",SULAWESI UTARA,95716,Indonesia,81356129601.0,,,0.7376332,1.243.085.315,https://maps.google.com/?cid=0x0:0x932ee3ba203385c0,
hotel,hotel,Hotel Totabuan Citawaya Kotamobagu,"Jl. Lintas Sinindian Sinindian Kotamobagu Timur, Mogolaing, Kec. Kotamobagu Bar., Kota Kotamobagu, Sulawesi Utara 95716","Mogolaing, Kec. Kotamobagu Bar., Kota Kotamobagu",SULAWESI UTARA,95716,Indonesia,43424100.0,,,0.7287365,1.243.065.549,https://maps.google.com/?cid=0x0:0xcb6aedbd82abd616,
hotel,Rumah wisata,Permata Homestay Kotamobagu,"Depan Rumah Dinas BRI, Jl. Lintas, Sinindian, Kec. Kotamobagu Tim., Kota Kotamobagu, Sulawesi Utara 95718","Jl. Lintas, Sinindian, Kec. Kotamobagu Tim., Kota Kotamobagu",SULAWESI UTARA,95718,Indonesia,895417300072.0,,,0.7280845,1.243.088.849,https://maps.google.com/?cid=0x0:0xb49345ce7fa15337,
hotel,hotel,Hotel Tita 2,"Kotamobagu, Kec. Kotamobagu Bar., Kota Kotamobagu, Sulawesi Utara 95716","Kec. Kotamobagu Bar., Kota Kotamobagu",SULAWESI UTARA,95716,Indonesia,43423567.0,,,0.7400088,1.243.167.784,https://maps.google.com/?cid=0x0:0x53fcc4b84ea71b9e,
hotel,hotel,GG HOTEL,"Mongondow, Kec. Kotamobagu Sel., Kota Kotamobagu, Sulawesi Utara 95716","Kec. Kotamobagu Sel., Kota Kotamobagu",SULAWESI UTARA,95716,Indonesia,85298868559.0,,,0.7255497,1.242.935.748,https://maps.google.com/?cid=0x0:0xc49131574f9f1f68,
hotel,hotel,Hotel Ade Irma Kotamobagu,"Jl. Panjaitan, Kotamobagu, Kec. Kotamobagu Bar., Kota Kotamobagu, Sulawesi Utara","Kota Kotamobagu, Sulawesi Utara",SULAWESI UTARA,,Indonesia,85656415756.0,,,0.7401203,1.243.122.558,https://maps.google.com/?cid=0x0:0xbed27a97f3b5c1d4,
hotel,hotel,Hotel Mulia Lolak,"Jl. Trans-Sulawesi, Lalow, Kec. Lolak, Kabupaten Bolaang Mongondow, Sulawesi Utara","Kabupaten Bolaang Mongondow, Sulawesi Utara",SULAWESI UTARA,,Indonesia,85298113269.0,,,0.882613,1.240.267.222,https://maps.google.com/?cid=0x0:0x7cf22d3b0f737f84,
restaurant,Kafe,Login Coffee  Eatery,"Jl. Merdeka, Mogolaing, Kec. Kotamobagu Bar., Kota Kotamobagu, Sulawesi Utara 95716","Mogolaing, Kec. Kotamobagu Bar., Kota Kotamobagu",SULAWESI UTARA,95716,Indonesia,895329002353.0,,,0.7263932,1.243.052.292,https://maps.google.com/?cid=0x0:0x89d4261625d9535e,
restaurant,restaurant,Sulawesi Utara 95711,"Kotamobagu, Kec. Kotamobagu Bar., Kota Kotamobagu, Sulawesi Utara","Kota Kotamobagu, Sulawesi Utara",SULAWESI UTARA,,Indonesia,,,,0.7413349,1.243.125.269,https://maps.google.com/?cid=0x0:0xe2a29556fedf8a93,
restaurant,Kafe,Resto Triston kotamobagu,"P893+W8G, Jl. Darussalam, Motoboi Kecil, Kec. Kotamobagu Sel., Kota Kotamobagu, Sulawesi Utara 95716","Jl. Darussalam, Motoboi Kecil, Kec. Kotamobagu Sel., Kota Kotamobagu",SULAWESI UTARA,95716,Indonesia,85756458687.0,,,0.7198068,124.303.322,https://maps.google.com/?cid=0x0:0x7cbf34d05922d26c,
restaurant,Jawa,RM. PUTRA LAMONGAN Mas Jenggot,"P8R6+7XP, Bar., Kotamobagu, Kec. Kotamobagu Bar., Kota Kotamobagu, Sulawesi Utara","Kota Kotamobagu, Sulawesi Utara",SULAWESI UTARA,,Indonesia,81388279460.0,,,0.740714,1.243.124.411,https://maps.google.com/?cid=0x0:0x117589d8b4de1c65,
restaurant,Restoran,Nasi Tempong 88 Kotamobagu,"Nasi Tempong 88 (depan polres, Jl. Paloko Kinalang, Kotabangon, Kec. Kotamobagu Tim., Kota Kotamobagu, Sulawesi Utara 95711","Jl. Paloko Kinalang, Kotabangon, Kec. Kotamobagu Tim., Kota Kotamobagu",SULAWESI UTARA,95711,Indonesia,85399455485.0,,,0.7320935,1.243.231.669,https://maps.google.com/?cid=0x0:0xe9bf1054d51d3e97,
restaurant,Kedai Kopi,Foodsal Kotamobagu,"Kotabangon, Kec. Kotamobagu Tim., Kota Kotamobagu, Sulawesi Utara","Kota Kotamobagu, Sulawesi Utara",SULAWESI UTARA,,Indonesia,82293625614.0,,,0.7327072,1.243.229.876,https://maps.google.com/?cid=0x0:0x3b2a85ee274634f2,
restaurant,Sate,SATE DIFA KHARIMAH,"Jl. Tni No.3, Gogagoman, Kec. Kotamobagu Bar., Kota Kotamobagu, Sulawesi Utara 95711","Gogagoman, Kec. Kotamobagu Bar., Kota Kotamobagu",SULAWESI UTARA,95711,Indonesia,85823457898.0,,,0.7409312,1.243.123.804,https://maps.google.com/?cid=0x0:0x8805c8c9ea26607c,
restaurant,Restoran,PONDOK TELAGA,"M8H2+WWQ, Unnamed Road, Tungoi II, Kec. Lolayan, Kabupaten Bolaang Mongondow, Sulawesi Utara","Kabupaten Bolaang Mongondow, Sulawesi Utara",SULAWESI UTARA,,Indonesia,,,,0.6798271,1.243.023.652,https://maps.google.com/?cid=0x0:0x9864e65e94d51a38,
restaurant,Kedai Kopi,MAW JUICE CAFE,"Jl. Agoan No.64, Kotamobagu, Kec. Kotamobagu Bar., Kota Kotamobagu, Sulawesi Utara","Kota Kotamobagu, Sulawesi Utara",SULAWESI UTARA,,Indonesia,87890427447.0,,,0.7403923,1.243.131.527,https://maps.google.com/?cid=0x0:0xcba8329679416e73,
restaurant,Klub Malam,Blacklist Bar and Resto,"Kotabangon, Kec. Kotamobagu Tim., Kota Kotamobagu, Sulawesi Utara","Kota Kotamobagu, Sulawesi Utara",SULAWESI UTARA,,Indonesia,87870106828.0,,,0.740479,1.243.223.237,https://maps.google.com/?cid=0x0:0x29f0a3ea99e83504,
restaurant,Restoran,Telaga Indah,"P88Q+M47, Motoboi Besar, Kec. Kotamobagu Tim., Kota Kotamobagu, Sulawesi Utara","Kota Kotamobagu, Sulawesi Utara",SULAWESI UTARA,,Indonesia,,,,0.716659,1.243.377.895,https://maps.google.com/?cid=0x0:0x89d1a4d611b77b44,
restaurant,Rumah Makan,Kuliner,"P844+W52, Pobundayan, Kec. Kotamobagu Sel., Kota Kotamobagu, Sulawesi Utara","Kota Kotamobagu, Sulawesi Utara",SULAWESI UTARA,,Indonesia,82194624978.0,,,0.7072626,1.243.053.836,https://maps.google.com/?cid=0x0:0xbff1a0645f7763fb,
restaurant,restaurant,Rumah Makan Nasi Kuning Sudi mampir,"P8R6+7WH, Kotamobagu, Kec. Kotamobagu Bar., Kota Kotamobagu, Sulawesi Utara","Kota Kotamobagu, Sulawesi Utara",SULAWESI UTARA,,Indonesia,,,,0.7406998,1.243.123.484,https://maps.google.com/?cid=0x0:0x115cc8621964483f,
restaurant,Tempat Minum Bir Luar Ruangan,MABES ASIK ~ DEH,"P8R7+RHR, Kotamobagu, Kec. Kotamobagu Bar., Kota Kotamobagu, Sulawesi Utara","Kota Kotamobagu, Sulawesi Utara",SULAWESI UTARA,,Indonesia,,,,0.7421204,1.243.138.836,https://maps.google.com/?cid=0x0:0xf4df1a919941a188,
restaurant,Kafe,Cafe Alexander,"P8V7+CVP, Bar., Kotamobagu, Kec. Kotamobagu Bar., Kota Kotamobagu, Sulawesi Utara","Kota Kotamobagu, Sulawesi Utara",SULAWESI UTARA,,Indonesia,85397262926.0,,,0.7435971,1.243.146.928,https://maps.google.com/?cid=0x0:0xfd2e69df0f9f2382,
restaurant,Pasar,Pasar 23 Maret Kotamobagu,"P8R5+P93, Gogagoman, Kec. Kotamobagu Bar., Kota Kotamobagu, Sulawesi Utara","Kota Kotamobagu, Sulawesi Utara",SULAWESI UTARA,,Indonesia,,,,0.7417546,1.243.084.275,https://maps.google.com/?cid=0x0:0x7e1ef51b5292d93e,
restaurant,Restoran,D'Talaga Resto,"Jalan Raya Bubak No. 88, Desa Bungko, Kecamatan Kotamobagu Selatan, Tungoi II, Lolayan, Tungoi II, Kec. Lolayan, Kota Kotamobagu, Sulawesi Utara","Kota Kotamobagu, Sulawesi Utara",SULAWESI UTARA,,Indonesia,85256025052.0,,,0.6874044,1.243.016.285,https://maps.google.com/?cid=0x0:0xb70d294f10f25fe2,
restaurant,Kafe,Cafe Bagus Motoboi Kecil,"P7GX+G28, Motoboi Kecil, Kec. Kotamobagu Sel., Kota Kotamobagu, Sulawesi Utara 95711","Motoboi Kecil, Kec. Kotamobagu Sel., Kota Kotamobagu",SULAWESI UTARA,95711,Indonesia,81340064488.0,,,0.726284,124.297.566,https://maps.google.com/?cid=0x0:0x627ea16809e164b8,
restaurant,Kafe,Coffee Town,"P8M9+MCH, Jl. Paloko Kinalang, Kotabangon, Kec. Kotamobagu Tim., Kota Kotamobagu, Sulawesi Utara 95716","Jl. Paloko Kinalang, Kotabangon, Kec. Kotamobagu Tim., Kota Kotamobagu",SULAWESI UTARA,95716,Indonesia,81356515354.0,,,0.73418,1.243.186.189,https://maps.google.com/?cid=0x0:0xef48c767e306ec2d,
restaurant,restaurant,Kec. Kotamobagu Bar.,"Kota Kotamobagu, Sulawesi Utara","Kota Kotamobagu, Sulawesi Utara",SULAWESI UTARA,,Indonesia,,,,0.7429438,1.243.085.124,https://maps.google.com/?cid=0x0:0x68204053ca066af1,
restaurant,Kafe,Login Coffee  Eatery,"Jl. Merdeka, Mogolaing, Kec. Kotamobagu Bar., Kota Kotamobagu, Sulawesi Utara 95716","Mogolaing, Kec. Kotamobagu Bar., Kota Kotamobagu",SULAWESI UTARA,95716,Indonesia,895329002353.0,,,0.7263932,1.243.052.292,https://maps.google.com/?cid=0x0:0x89d4261625d9535e,
restaurant,Restoran,Warung Jawa (Nganjuk),"P8W4+7WF, Unnamed Road, Gogagoman, Bar., Mogolaing, Kec. Kotamobagu Bar., Kota Kotamobagu, Sulawesi Utara 95716","Unnamed Road, Gogagoman, Bar., Mogolaing, Kec. Kotamobagu Bar., Kota Kotamobagu",SULAWESI UTARA,95716,Indonesia,81524637951.0,,,0.7456899,1.243.072.869,https://maps.google.com/?cid=0x0:0x2229c711ca7868cf,
restaurant,Restoran,Pasar Jajan Malam Kotamobagu,"Jl. Datoe Binangkang No.38, Mogolaing, Kec. Kotamobagu Bar., Kota Kotamobagu, Sulawesi Utara 95711","Mogolaing, Kec. Kotamobagu Bar., Kota Kotamobagu",SULAWESI UTARA,95711,Indonesia,,,,0.7386025,12.431.147,https://maps.google.com/?cid=0x0:0xb24de9bb3c1e7afe,
restaurant,Sarapan,Waroeng Bubur Ayam Jakarta Mas Supri Cirebon,"Bar, Jl. Panjaitan No.20, Kotamobagu, Kec. Kotamobagu Bar., Kota Kotamobagu, Sulawesi Utara 95716","Jl. Panjaitan No.20, Kotamobagu, Kec. Kotamobagu Bar., Kota Kotamobagu",SULAWESI UTARA,95716,Indonesia,81524504115.0,,,0.7383649,1.243.122.835,https://maps.google.com/?cid=0x0:0xd1523ed308bfa9f2,
restaurant,Brunch,Rumah Makan Siti Barokah,"P8R4+4MP, Gogagoman, Kec. Kotamobagu Bar., Kota Kotamobagu, Sulawesi Utara 95716","Gogagoman, Kec. Kotamobagu Bar., Kota Kotamobagu",SULAWESI UTARA,95716,Indonesia,,,,0.740336,1.243.066.897,https://maps.google.com/?cid=0x0:0xaeafecf8c24f856a,
restaurant,Restoran,RM Minahasa Tanta Ge',"P8Q9+P2C, Kotamobagu, Kec. Kotamobagu Bar., Kota Kotamobagu, Sulawesi Utara","Kota Kotamobagu, Sulawesi Utara",SULAWESI UTARA,,Indonesia,,,,0.7393024,1.243.175.091,https://maps.google.com/?cid=0x0:0x56170d1b889c9a8,
restaurant,BBQ,Sangdan Korean BBQ Kotamobagu,"Jl. Datoe Binangkang No.15, Kotamobagu, Kec. Kotamobagu Bar., Kota Kotamobagu, Sulawesi Utara 95711","Kotamobagu, Kec. Kotamobagu Bar., Kota Kotamobagu",SULAWESI UTARA,95711,Indonesia,811437775.0,,,0.739641,1.243.111.394,https://maps.google.com/?cid=0x0:0xbe7bb7fc132ea3f9,
restaurant,Restoran,New Pasar Jajan,"P8Q6+CMG, Jl. Panjaitan, Kotamobagu, Kec. Kotamobagu Bar., Kota Kotamobagu, Sulawesi Utara 95716","Jl. Panjaitan, Kotamobagu, Kec. Kotamobagu Bar., Kota Kotamobagu",SULAWESI UTARA,95716,Indonesia,,,,0.7385665,1.243.117.032,https://maps.google.com/?cid=0x0:0x49934cb65199c3be,
restaurant,Restoran,Kyrie Kitchen - An Traditional Food Cafe,"Jl. Bogani No.212, Kotamobagu, Kec. Kotamobagu Bar., Kota Kotamobagu, Sulawesi Utara 95711","Kotamobagu, Kec. Kotamobagu Bar., Kota Kotamobagu",SULAWESI UTARA,95711,Indonesia,85256825533.0,,,0.7429605,1.243.081.073,https://maps.google.com/?cid=0x0:0x428e56c8d9426341,
restaurant,Restoran,ZeroEight Cafe and Resto,"P8R7+3XV, Kotamobagu, Kec. Kotamobagu Bar., Kota Kotamobagu, Sulawesi Utara","Kota Kotamobagu, Sulawesi Utara",SULAWESI UTARA,,Indonesia,81355558656.0,,,0.740237,1.243.149.338,https://maps.google.com/?cid=0x0:0xce73a8231bc5dcc7,
restaurant,Restoran,Restoran AYAM SINGAPURA MOGOLAING,"P8P4+JXM Bar, Mogolaing, Kec. Kotamobagu Bar., Kota Kotamobagu, Sulawesi Utara","Kota Kotamobagu, Sulawesi Utara",SULAWESI UTARA,,Indonesia,85256779505.0,,,0.7365877,1.243.074.294,https://maps.google.com/?cid=0x0:0xc025c5782844119f,
restaurant,Manado,RESTO  CAFE,"P7MV+C9J, Jl. Veteran, Molinow, Kec. Kotamobagu Bar., Kota Kotamobagu, Sulawesi Utara","Kota Kotamobagu, Sulawesi Utara",SULAWESI UTARA,,Indonesia,8124427063.0,,,0.7335817,1.242.933.794,https://maps.google.com/?cid=0x0:0xea1e954d03005cd7,
restaurant,Sulawesi Selatan,Rumah Makan Coto Makassar dan Sop Kondro,"P8R6+Q65, Gogagoman, Kec. Kotamobagu Bar., Kota Kotamobagu, Sulawesi Utara","Kota Kotamobagu, Sulawesi Utara",SULAWESI UTARA,,Indonesia,85240460123.0,,,0.7418905,1.243.106.218,https://maps.google.com/?cid=0x0:0x8c1ccc6bb825eee2,
restaurant,Kafe,Resto Triston kotamobagu,"P893+W8G, Jl. Darussalam, Motoboi Kecil, Kec. Kotamobagu Sel., Kota Kotamobagu, Sulawesi Utara 95716","Jl. Darussalam, Motoboi Kecil, Kec. Kotamobagu Sel., Kota Kotamobagu",SULAWESI UTARA,95716,Indonesia,85756458687.0,,,0.7198068,124.303.322,https://maps.google.com/?cid=0x0:0x7cbf34d05922d26c,
restaurant,Kafe,PDP Shop  Food,"Pangkalan Bus Bandara, Gogagoman, Kotamobagu Barat, Kotamobagu City, North Sulawesi","Kota Kotamobagu, Sulawesi Utara",SULAWESI UTARA,,Indonesia,85340309756.0,,,0.744099,1.243.059.951,https://maps.google.com/?cid=0x0:0x712770802bc26ed3,
restaurant,Indonesia,Minang Putra,"P8Q6+WF6 pengadilan kotamobagu, Kotamobagu, Kec. Kotamobagu Bar., Kota Kotamobagu, Sulawesi Utara 95716","Kotamobagu, Kec. Kotamobagu Bar., Kota Kotamobagu",SULAWESI UTARA,95716,Indonesia,,,,0.7397856,1.243.111.342,https://maps.google.com/?cid=0x0:0xcc003f99b80ceef3,
restaurant,Hidangan Laut,R.M MAS JOKO SEAFOOD LAMONGAN,"Jl. Ratahan - Kotamobagu, Mogolaing, Kec. Kotamobagu Bar., Kota Kotamobagu, Sulawesi Utara 95716","Mogolaing, Kec. Kotamobagu Bar., Kota Kotamobagu",SULAWESI UTARA,95716,Indonesia,81285323078.0,,,0.7337264,1.243.044.381,https://maps.google.com/?cid=0x0:0xa399a6c0d3be7bcc,
restaurant,Restoran,Dapur saturnus,"Jl. Soeprapto. No. 59, gogagoman, kotamobagu barat, belakang positive, coffee, Kota Kotamobagu, Sulawesi Utara 95715","gogagoman, kotamobagu barat, belakang positive, coffee, Kota Kotamobagu",SULAWESI UTARA,95715,Indonesia,85282882822.0,,,0.7437545,1.243.066.535,https://maps.google.com/?cid=0x0:0x8fb2dd11c990f07,
restaurant,Kedai Kopi,Saraba  Gorengan,"P8R6+HCP, Gogagoman, Kec. Kotamobagu Bar., Kota Kotamobagu, Sulawesi Utara","Kota Kotamobagu, Sulawesi Utara",SULAWESI UTARA,,Indonesia,,,,0.7414889,1.243.110.779,https://maps.google.com/?cid=0x0:0xf4beb536250c5da6,
restaurant,restaurant,Sulawesi Utara,,Sulawesi Utara,SULAWESI UTARA,,Indonesia,,,,0.6246932,1.239.750.018,https://maps.google.com/?cid=0x0:0x45891617980cb835,
restaurant,Restoran,D'Talaga Resto,"Jalan Raya Bubak No. 88, Desa Bungko, Kecamatan Kotamobagu Selatan, Tungoi II, Lolayan, Tungoi II, Kec. Lolayan, Kota Kotamobagu, Sulawesi Utara","Kota Kotamobagu, Sulawesi Utara",SULAWESI UTARA,,Indonesia,85256025052.0,,,0.6874044,1.243.016.285,https://maps.google.com/?cid=0x0:0xb70d294f10f25fe2,
restaurant,Padang,Rm hidayah,"Jl. Soeprapto, Gogagoman, Kec. Kotamobagu Bar., Kota Kotamobagu, Sulawesi Utara 95715","Gogagoman, Kec. Kotamobagu Bar., Kota Kotamobagu",SULAWESI UTARA,95715,Indonesia,85368800232.0,,,0.7429124,1.243.088.856,https://maps.google.com/?cid=0x0:0x5bdcc91a0fb8eb2f,
restaurant,Restoran,Nasi Tempong 88 Kotamobagu,"Nasi Tempong 88 (depan polres, Jl. Paloko Kinalang, Kotabangon, Kec. Kotamobagu Tim., Kota Kotamobagu, Sulawesi Utara 95711","Jl. Paloko Kinalang, Kotabangon, Kec. Kotamobagu Tim., Kota Kotamobagu",SULAWESI UTARA,95711,Indonesia,85399455485.0,,,0.7320935,1.243.231.669,https://maps.google.com/?cid=0x0:0xe9bf1054d51d3e97,
restaurant,Pesan-Antar Pizza,Pizza Hut Restoran,"Jl. Adampe Dolot, Mogolaing, Kec. Kotamobagu Bar., Kota Kotamobagu, Sulawesi Utara 95716","Mogolaing, Kec. Kotamobagu Bar., Kota Kotamobagu",SULAWESI UTARA,95716,Indonesia,1500600.0,,,0.7370473,1.243.075.484,https://maps.google.com/?cid=0x0:0xaf87b8f17af7764c,
restaurant,Bakso,Bakso prasmanan kotamobagu,"Jl. Paloko Kinalang jalur dua, Sinindian, Kec. Kotamobagu Tim., Kota Kotamobagu, Sulawesi Utara 95715","Sinindian, Kec. Kotamobagu Tim., Kota Kotamobagu",SULAWESI UTARA,95715,Indonesia,82257834592.0,,,0.734232,1.243.157.253,https://maps.google.com/?cid=0x0:0xf276108919be23de,
restaurant,Restoran,RM PUTRI MINAHASA,"Dekat Perempatan Bobakidan, Kotabangon, Kec. Kotamobagu Tim., Kota Kotamobagu, Sulawesi Utara 95716","Kotabangon, Kec. Kotamobagu Tim., Kota Kotamobagu",SULAWESI UTARA,95716,Indonesia,,,,0.7382976,1.243.169.406,https://maps.google.com/?cid=0x0:0xcf61e9546a5ac55,
restaurant,Restoran,PONDOK TELAGA,"M8H2+WWQ, Unnamed Road, Tungoi II, Kec. Lolayan, Kabupaten Bolaang Mongondow, Sulawesi Utara","Kabupaten Bolaang Mongondow, Sulawesi Utara",SULAWESI UTARA,,Indonesia,,,,0.6798271,1.243.023.652,https://maps.google.com/?cid=0x0:0x9864e65e94d51a38,
restaurant,Kedai Kopi,Foodsal Kotamobagu,"Kotabangon, Kec. Kotamobagu Tim., Kota Kotamobagu, Sulawesi Utara","Kota Kotamobagu, Sulawesi Utara",SULAWESI UTARA,,Indonesia,82293625614.0,,,0.7327072,1.243.229.876,https://maps.google.com/?cid=0x0:0x3b2a85ee274634f2,
restaurant,restaurant,Sulawesi Utara 95716,"Mogolaing, Kec. Kotamobagu Bar., Kota Kotamobagu, Sulawesi Utara","Kota Kotamobagu, Sulawesi Utara",SULAWESI UTARA,,Indonesia,,,,0.7331339,1.243.035.249,https://maps.google.com/?cid=0x0:0xb303343be4233a,
restaurant,Kafe,Cokelat Cafe,"P8M2+JXG, Mogolaing, Kec. Kotamobagu Bar., Kota Kotamobagu, Sulawesi Utara 95716","Mogolaing, Kec. Kotamobagu Bar., Kota Kotamobagu",SULAWESI UTARA,95716,Indonesia,81240598884.0,,,0.734063,1.243.024.398,https://maps.google.com/?cid=0x0:0x7cfb04d3c2bb2efb,
restaurant,Kafe,Resto Triston kotamobagu,"P893+W8G, Jl. Darussalam, Motoboi Kecil, Kec. Kotamobagu Sel., Kota Kotamobagu, Sulawesi Utara 95716","Jl. Darussalam, Motoboi Kecil, Kec. Kotamobagu Sel., Kota Kotamobagu",SULAWESI UTARA,95716,Indonesia,85756458687.0,,,0.7198068,124.303.322,https://maps.google.com/?cid=0x0:0x7cbf34d05922d26c,
restaurant,Restoran,D'Talaga Resto,"Jalan Raya Bubak No. 88, Desa Bungko, Kecamatan Kotamobagu Selatan, Tungoi II, Lolayan, Tungoi II, Kec. Lolayan, Kota Kotamobagu, Sulawesi Utara","Kota Kotamobagu, Sulawesi Utara",SULAWESI UTARA,,Indonesia,85256025052.0,,,0.6874044,1.243.016.285,https://maps.google.com/?cid=0x0:0xb70d294f10f25fe2,
restaurant,Kedai Kopi,Nge_Grill Kotamobagu,"P8C5+HCC, Matali, Kec. Kotamobagu Tim., Kota Kotamobagu, Sulawesi Utara","Kota Kotamobagu, Sulawesi Utara",SULAWESI UTARA,,Indonesia,85340210693.0,,,0.7214362,1.243.085.075,https://maps.google.com/?cid=0x0:0x6bea69e8966d5b01,
restaurant,Hidangan Laut,R.M MAS JOKO SEAFOOD LAMONGAN,"Jl. Ratahan - Kotamobagu, Mogolaing, Kec. Kotamobagu Bar., Kota Kotamobagu, Sulawesi Utara 95716","Mogolaing, Kec. Kotamobagu Bar., Kota Kotamobagu",SULAWESI UTARA,95716,Indonesia,81285323078.0,,,0.7337264,1.243.044.381,https://maps.google.com/?cid=0x0:0xa399a6c0d3be7bcc,
restaurant,Manado,RESTO  CAFE,"P7MV+C9J, Jl. Veteran, Molinow, Kec. Kotamobagu Bar., Kota Kotamobagu, Sulawesi Utara","Kota Kotamobagu, Sulawesi Utara",SULAWESI UTARA,,Indonesia,8124427063.0,,,0.7335817,1.242.933.794,https://maps.google.com/?cid=0x0:0xea1e954d03005cd7,
restaurant,Restoran,Nasi Tempong 88 Kotamobagu,"Nasi Tempong 88 (depan polres, Jl. Paloko Kinalang, Kotabangon, Kec. Kotamobagu Tim., Kota Kotamobagu, Sulawesi Utara 95711","Jl. Paloko Kinalang, Kotabangon, Kec. Kotamobagu Tim., Kota Kotamobagu",SULAWESI UTARA,95711,Indonesia,85399455485.0,,,0.7320935,1.243.231.669,https://maps.google.com/?cid=0x0:0xe9bf1054d51d3e97,
restaurant,Pesan-Antar Pizza,Pizza Hut Restoran,"Jl. Adampe Dolot, Mogolaing, Kec. Kotamobagu Bar., Kota Kotamobagu, Sulawesi Utara 95716","Mogolaing, Kec. Kotamobagu Bar., Kota Kotamobagu",SULAWESI UTARA,95716,Indonesia,1500600.0,,,0.7370473,1.243.075.484,https://maps.google.com/?cid=0x0:0xaf87b8f17af7764c,
restaurant,Rumah Makan,Rumah Makan Bobara Bakar,"P8M3+3FX, Mogolaing, Kec. Kotamobagu Bar., Kota Kotamobagu, Sulawesi Utara 95716","Mogolaing, Kec. Kotamobagu Bar., Kota Kotamobagu",SULAWESI UTARA,95716,Indonesia,,,,0.7327389,1.243.037.335,https://maps.google.com/?cid=0x0:0xee35d688f11fde24,
restaurant,Ikan Bakar,Ikan Bakar Lalapan 88 Matali,"Matali, Kec. Kotamobagu Tim., Kota Kotamobagu, Sulawesi Utara","Kota Kotamobagu, Sulawesi Utara",SULAWESI UTARA,,Indonesia,85648299441.0,,,0.7232859,1.243.084.642,https://maps.google.com/?cid=0x0:0xad318cc0f7c49f9d,
restaurant,Kafe,Kotaku Burger,"P8M4+GCC, Jl. Cemp., Mogolaing, Kec. Kotamobagu Bar., Kota Kotamobagu, Sulawesi Utara 95716","Jl. Cemp., Mogolaing, Kec. Kotamobagu Bar., Kota Kotamobagu",SULAWESI UTARA,95716,Indonesia,895801928941.0,,,0.7338116,1.243.060.049,https://maps.google.com/?cid=0x0:0x91eaa049f3636d5d,
restaurant,Restoran,PONDOK TELAGA,"M8H2+WWQ, Unnamed Road, Tungoi II, Kec. Lolayan, Kabupaten Bolaang Mongondow, Sulawesi Utara","Kabupaten Bolaang Mongondow, Sulawesi Utara",SULAWESI UTARA,,Indonesia,,,,0.6798271,1.243.023.652,https://maps.google.com/?cid=0x0:0x9864e65e94d51a38,
restaurant,Klub Malam,Blacklist Bar and Resto,"Kotabangon, Kec. Kotamobagu Tim., Kota Kotamobagu, Sulawesi Utara","Kota Kotamobagu, Sulawesi Utara",SULAWESI UTARA,,Indonesia,87870106828.0,,,0.740479,1.243.223.237,https://maps.google.com/?cid=0x0:0x29f0a3ea99e83504,
restaurant,Padang,RM PESONA MINANG,"P8J3+X8Q, Jl. Adampe Dolot, Mogolaing, Kec. Kotamobagu Bar., Kota Kotamobagu, Sulawesi Utara 95716","Jl. Adampe Dolot, Mogolaing, Kec. Kotamobagu Bar., Kota Kotamobagu",SULAWESI UTARA,95716,Indonesia,81341909100.0,,,0.7324706,1.243.033.534,https://maps.google.com/?cid=0x0:0x812dbd89b4425631,
restaurant,Kedai Kopi,Foodsal Kotamobagu,"Kotabangon, Kec. Kotamobagu Tim., Kota Kotamobagu, Sulawesi Utara","Kota Kotamobagu, Sulawesi Utara",SULAWESI UTARA,,Indonesia,82293625614.0,,,0.7327072,1.243.229.876,https://maps.google.com/?cid=0x0:0x3b2a85ee274634f2,
restaurant,Rumah Makan,Warung Makan SOFFA MARWAH  SITTA BUTIK,"P8M3+4CM, Jl. Adampe Dolot, Mogolaing, Kec. Kotamobagu Bar., Kota Kotamobagu, Sulawesi Utara","Kota Kotamobagu, Sulawesi Utara",SULAWESI UTARA,,Indonesia,81355685948.0,,,0.732847,1.243.035.542,https://maps.google.com/?cid=0x0:0xf2a02bfdf5d84fa4,
restaurant,Es Krim,Pop Ice Ma Iki Kotamobagu,"Mogolaing, Kec. Kotamobagu Bar., Kota Kotamobagu, Sulawesi Utara 95716","Kec. Kotamobagu Bar., Kota Kotamobagu",SULAWESI UTARA,95716,Indonesia,85248957690.0,,,0.7338078,12.430.601,https://maps.google.com/?cid=0x0:0xf0cb073d6e2c517,
restaurant,Restoran,Telaga Indah,"P88Q+M47, Motoboi Besar, Kec. Kotamobagu Tim., Kota Kotamobagu, Sulawesi Utara","Kota Kotamobagu, Sulawesi Utara",SULAWESI UTARA,,Indonesia,,,,0.716659,1.243.377.895,https://maps.google.com/?cid=0x0:0x89d1a4d611b77b44,
restaurant,Kafe,Cafe Alexander,"P8V7+CVP, Bar., Kotamobagu, Kec. Kotamobagu Bar., Kota Kotamobagu, Sulawesi Utara","Kota Kotamobagu, Sulawesi Utara",SULAWESI UTARA,,Indonesia,85397262926.0,,,0.7435971,1.243.146.928,https://maps.google.com/?cid=0x0:0xfd2e69df0f9f2382,
restaurant,Restoran,Warung Makan De'Rindu,"Motoboi Kecil, Kec. Kotamobagu Sel., Kota Kotamobagu, Sulawesi Utara","Kota Kotamobagu, Sulawesi Utara",SULAWESI UTARA,,Indonesia,89675611156.0,,,0.7274052,1.243.003.944,https://maps.google.com/?cid=0x0:0xe03b8b8f31554d46,
restaurant,Restoran,RM Minahasa Tanta Ge',"P8Q9+P2C, Kotamobagu, Kec. Kotamobagu Bar., Kota Kotamobagu, Sulawesi Utara","Kota Kotamobagu, Sulawesi Utara",SULAWESI UTARA,,Indonesia,,,,0.7393024,1.243.175.091,https://maps.google.com/?cid=0x0:0x56170d1b889c9a8,
restaurant,Restoran,RM PUTRI MINAHASA,"Dekat Perempatan Bobakidan, Kotabangon, Kec. Kotamobagu Tim., Kota Kotamobagu, Sulawesi Utara 95716","Kotabangon, Kec. Kotamobagu Tim., Kota Kotamobagu",SULAWESI UTARA,95716,Indonesia,,,,0.7382976,1.243.169.406,https://maps.google.com/?cid=0x0:0xcf61e9546a5ac55,
restaurant,Restoran,Kantin mama ap,"Jl. Adampe Dolot No.97, Mogolaing, Kec. Kotamobagu Bar., Kota Kotamobagu, Sulawesi Utara 95716","Mogolaing, Kec. Kotamobagu Bar., Kota Kotamobagu",SULAWESI UTARA,95716,Indonesia,82189366859.0,,,0.7334311,1.243.044.723,https://maps.google.com/?cid=0x0:0x76de1b95d1d3b5f3,
restaurant,restaurant,Kec. Kotamobagu Bar.,"Kota Kotamobagu, Sulawesi Utara","Kota Kotamobagu, Sulawesi Utara",SULAWESI UTARA,,Indonesia,,,,0.7429438,1.243.085.124,https://maps.google.com/?cid=0x0:0x68204053ca066af1,
restaurant,Ikan Bakar,Pondok Lembah Bening,"Jl. Lintas Sinindian, Mogolaing, Kec. Kotamobagu Bar., Kota Kotamobagu, Sulawesi Utara 95716","Mogolaing, Kec. Kotamobagu Bar., Kota Kotamobagu",SULAWESI UTARA,95716,Indonesia,43422072.0,,,0.7290668,1.243.066.515,https://maps.google.com/?cid=0x0:0xbd06df974647e59c,
restaurant,Brunch,Rumah Makan Siti Barokah,"P8R4+4MP, Gogagoman, Kec. Kotamobagu Bar., Kota Kotamobagu, Sulawesi Utara 95716","Gogagoman, Kec. Kotamobagu Bar., Kota Kotamobagu",SULAWESI UTARA,95716,Indonesia,,,,0.740336,1.243.066.897,https://maps.google.com/?cid=0x0:0xaeafecf8c24f856a,
restaurant,Restoran,Pasar Jajan Malam Kotamobagu,"Jl. Datoe Binangkang No.38, Mogolaing, Kec. Kotamobagu Bar., Kota Kotamobagu, Sulawesi Utara 95711","Mogolaing, Kec. Kotamobagu Bar., Kota Kotamobagu",SULAWESI UTARA,95711,Indonesia,,,,0.7386025,12.431.147,https://maps.google.com/?cid=0x0:0xb24de9bb3c1e7afe,
restaurant,Restoran,Warung Jawa (Nganjuk),"P8W4+7WF, Unnamed Road, Gogagoman, Bar., Mogolaing, Kec. Kotamobagu Bar., Kota Kotamobagu, Sulawesi Utara 95716","Unnamed Road, Gogagoman, Bar., Mogolaing, Kec. Kotamobagu Bar., Kota Kotamobagu",SULAWESI UTARA,95716,Indonesia,81524637951.0,,,0.7456899,1.243.072.869,https://maps.google.com/?cid=0x0:0x2229c711ca7868cf,
restaurant,restaurant,Kec. Kotamobagu Sel.,"Kota Kotamobagu, Sulawesi Utara","Kota Kotamobagu, Sulawesi Utara",SULAWESI UTARA,,Indonesia,,,,0.7240463,124.293.299,https://maps.google.com/?cid=0x0:0x270b5a3d87842fb7,
restaurant,Restoran,D'Talaga Resto,"Jalan Raya Bubak No. 88, Desa Bungko, Kecamatan Kotamobagu Selatan, Tungoi II, Lolayan, Tungoi II, Kec. Lolayan, Kota Kotamobagu, Sulawesi Utara","Kota Kotamobagu, Sulawesi Utara",SULAWESI UTARA,,Indonesia,85256025052.0,,,0.6874044,1.243.016.285,https://maps.google.com/?cid=0x0:0xb70d294f10f25fe2,
restaurant,Restoran,sq restoran,"P8G2+FP2, Jl. Veteran, Motoboi Kecil, Kec. Kotamobagu Sel., Kota Kotamobagu, Sulawesi Utara 95716","Jl. Veteran, Motoboi Kecil, Kec. Kotamobagu Sel., Kota Kotamobagu",SULAWESI UTARA,95716,Indonesia,85298265831.0,,,0.7261447,1.243.017.581,https://maps.google.com/?cid=0x0:0x1796cbda429a9cb8,
restaurant,Kafe,Login Coffee  Eatery,"Jl. Merdeka, Mogolaing, Kec. Kotamobagu Bar., Kota Kotamobagu, Sulawesi Utara 95716","Mogolaing, Kec. Kotamobagu Bar., Kota Kotamobagu",SULAWESI UTARA,95716,Indonesia,895329002353.0,,,0.7263932,1.243.052.292,https://maps.google.com/?cid=0x0:0x89d4261625d9535e,
restaurant,Kedai Kopi,Nge_Grill Kotamobagu,"P8C5+HCC, Matali, Kec. Kotamobagu Tim., Kota Kotamobagu, Sulawesi Utara","Kota Kotamobagu, Sulawesi Utara",SULAWESI UTARA,,Indonesia,85340210693.0,,,0.7214362,1.243.085.075,https://maps.google.com/?cid=0x0:0x6bea69e8966d5b01,
restaurant,Restoran,Warung Makan De'Rindu,"Motoboi Kecil, Kec. Kotamobagu Sel., Kota Kotamobagu, Sulawesi Utara","Kota Kotamobagu, Sulawesi Utara",SULAWESI UTARA,,Indonesia,89675611156.0,,,0.7274052,1.243.003.944,https://maps.google.com/?cid=0x0:0xe03b8b8f31554d46,
restaurant,Rumah Makan,RUMAH MAKAN SABAR INDAH POBUNDAYAN,"Jl. DC. Manoppo, Pobundayan, Kec. Kotamobagu Sel., Kota Kotamobagu, Sulawesi Utara 95717","Pobundayan, Kec. Kotamobagu Sel., Kota Kotamobagu",SULAWESI UTARA,95717,Indonesia,,,,0.7052521,1.243.029.249,https://maps.google.com/?cid=0x0:0x5442bae12a93b9cf,
restaurant,Rumah Makan,Rumah Makan Bobara Mongkonai Pinggir Jalan,"P7MR+684, Bar., Mongkonai, Kec. Kotamobagu Bar., Kota Kotamobagu, Sulawesi Utara","Kota Kotamobagu, Sulawesi Utara",SULAWESI UTARA,,Indonesia,,,,0.7330089,1.242.908.174,https://maps.google.com/?cid=0x0:0xa784f91e79dc7f0c,
restaurant,Rumah Makan,Cafe  Resto Dapoer Nikita,"Jl. Veteran, Motoboi Kecil, Kec. Kotamobagu Sel., Kota Kotamobagu, Sulawesi Utara 95717","Motoboi Kecil, Kec. Kotamobagu Sel., Kota Kotamobagu",SULAWESI UTARA,95717,Indonesia,81543204105.0,,,0.7253216,1.243.024.756,https://maps.google.com/?cid=0x0:0x90e9642fdcefc1a,
restaurant,Kafe,Cafe Bagus Motoboi Kecil,"P7GX+G28, Motoboi Kecil, Kec. Kotamobagu Sel., Kota Kotamobagu, Sulawesi Utara 95711","Motoboi Kecil, Kec. Kotamobagu Sel., Kota Kotamobagu",SULAWESI UTARA,95711,Indonesia,81340064488.0,,,0.726284,124.297.566,https://maps.google.com/?cid=0x0:0x627ea16809e164b8,
restaurant,Jawa,Permata Laut,"P7MR+68G, Jl. Gatot Subroto, Mongkonai, Kec. Kotamobagu Bar., Kota Kotamobagu, Sulawesi Utara 95716","Jl. Gatot Subroto, Mongkonai, Kec. Kotamobagu Bar., Kota Kotamobagu",SULAWESI UTARA,95716,Indonesia,81244763278.0,,,0.7330505,1.242.908.359,https://maps.google.com/?cid=0x0:0x66c0c20a47f1071a,
restaurant,Restoran,RM. Coto Makassar,"P884+39X, Jl. DC. Manoppo, Pobundayan, Kec. Kotamobagu Sel., Kota Kotamobagu, Sulawesi Utara","Kota Kotamobagu, Sulawesi Utara",SULAWESI UTARA,,Indonesia,,,,0.7152469,1.243.059.731,https://maps.google.com/?cid=0x0:0xf7075382aa084406,
restaurant,Manado,RESTO  CAFE,"P7MV+C9J, Jl. Veteran, Molinow, Kec. Kotamobagu Bar., Kota Kotamobagu, Sulawesi Utara","Kota Kotamobagu, Sulawesi Utara",SULAWESI UTARA,,Indonesia,8124427063.0,,,0.7335817,1.242.933.794,https://maps.google.com/?cid=0x0:0xea1e954d03005cd7,
restaurant,Kafe,Cokelat Cafe,"P8M2+JXG, Mogolaing, Kec. Kotamobagu Bar., Kota Kotamobagu, Sulawesi Utara 95716","Mogolaing, Kec. Kotamobagu Bar., Kota Kotamobagu",SULAWESI UTARA,95716,Indonesia,81240598884.0,,,0.734063,1.243.024.398,https://maps.google.com/?cid=0x0:0x7cfb04d3c2bb2efb,
restaurant,Rumah Makan,Rumah Makan Lamongan88,"P8F4+GGG, Jl. Veteran, Matali, Kec. Kotamobagu Tim., Kota Kotamobagu, Sulawesi Utara 95716","Jl. Veteran, Matali, Kec. Kotamobagu Tim., Kota Kotamobagu",SULAWESI UTARA,95716,Indonesia,,,,0.7238047,1.243.063.243,https://maps.google.com/?cid=0x0:0x62eb567db6648209,
restaurant,Hidangan Laut,R.M MAS JOKO SEAFOOD LAMONGAN,"Jl. Ratahan - Kotamobagu, Mogolaing, Kec. Kotamobagu Bar., Kota Kotamobagu, Sulawesi Utara 95716","Mogolaing, Kec. Kotamobagu Bar., Kota Kotamobagu",SULAWESI UTARA,95716,Indonesia,81285323078.0,,,0.7337264,1.243.044.381,https://maps.google.com/?cid=0x0:0xa399a6c0d3be7bcc,
restaurant,Restoran,Warung Bakso Tunggal Rasa Mas Supri (Mocil),"Jl. Veteran No.33, Motoboi Kecil, Kec. Kotamobagu Sel., Kota Kotamobagu, Sulawesi Utara 95716","Motoboi Kecil, Kec. Kotamobagu Sel., Kota Kotamobagu",SULAWESI UTARA,95716,Indonesia,8991654242.0,,,0.7256895,1.243.024.278,https://maps.google.com/?cid=0x0:0xf4f82c228bba7800,
restaurant,Sarapan,Pondok Racika naskun daun pisang,"P7JX+MP6, Jl. Adampe Dolot, Molinow, Kec. Kotamobagu Bar., Kota Kotamobagu, Sulawesi Utara","Kota Kotamobagu, Sulawesi Utara",SULAWESI UTARA,,Indonesia,82221783750.0,,,0.7316602,1.242.992.718,https://maps.google.com/?cid=0x0:0x50012653e20d257d,
restaurant,Bakso,New Cafe Kharisma ( NCK ),"P8G3+JX4, Mogolaing, Kec. Kotamobagu Bar., Kota Kotamobagu, Sulawesi Utara","Kota Kotamobagu, Sulawesi Utara",SULAWESI UTARA,,Indonesia,82187225819.0,,,0.7265234,1.243.049.624,https://maps.google.com/?cid=0x0:0xbfc4ccecc5bff806,
restaurant,Rumah Makan,R.M Karya Praja,"P8F4+GR2, Jl. Veteran, Motoboi Kecil, Kec. Kotamobagu Sel., Kota Kotamobagu, Sulawesi Utara 95716","Jl. Veteran, Motoboi Kecil, Kec. Kotamobagu Sel., Kota Kotamobagu",SULAWESI UTARA,95716,Indonesia,85340047109.0,,,0.7237655,1.243.070.128,https://maps.google.com/?cid=0x0:0xd3341e1caf2d6f,
restaurant,Donat,Donat Cinta Kotamobagu,"Perumnas, Pobundayan, Permai, Kota Kotamobagu, Sulawesi Utara 95717","Pobundayan, Permai, Kota Kotamobagu",SULAWESI UTARA,95717,Indonesia,82219992392.0,,,0.7122166,1.243.067.354,https://maps.google.com/?cid=0x0:0x45379550ffe03a3c,
restaurant,Rumah Makan,RM bobara bakar,"P7MV+9PR, Jl. Gatot Subroto, Molinow, Kec. Kotamobagu Bar., Kota Kotamobagu, Sulawesi Utara 95716","Jl. Gatot Subroto, Molinow, Kec. Kotamobagu Bar., Kota Kotamobagu",SULAWESI UTARA,95716,Indonesia,,,,0.7334911,1.242.942.553,https://maps.google.com/?cid=0x0:0x8fa85f4a7a26720b,
restaurant,Restoran,Kantin AVP,"Desa Poyowa Besar II, Lorong Aer Panas Jurusan Lapangan Bogani RT.07, Dusun.03, Poyowa Besar II, Kec. Kotamobagu Sel., Kota Kotamobagu, Sulawesi Utara 95717","Lorong Aer Panas Jurusan Lapangan Bogani RT.07, Dusun.03, Poyowa Besar II, Kec. Kotamobagu Sel., Kota Kotamobagu",SULAWESI UTARA,95717,Indonesia,,,,0.7104207,1.243.223.473,https://maps.google.com/?cid=0x0:0x8d81a6f1fb195164,
restaurant,Ikan Bakar,RM AISYAH MOLINOW,"Jl. Gatot Subroto, Molinow, Kec. Kotamobagu Bar., Kota Kotamobagu, Sulawesi Utara","Kota Kotamobagu, Sulawesi Utara",SULAWESI UTARA,,Indonesia,82242433333.0,,,0.7330826,1.242.918.434,https://maps.google.com/?cid=0x0:0xd7b094124cca850e,
restaurant,Indonesia,Depot Baim,"P7HQ+WM2, Jl. Brawijaya, Mongkonai, Kec. Kotamobagu Bar., Kota Kotamobagu, Sulawesi Utara 95716","Jl. Brawijaya, Mongkonai, Kec. Kotamobagu Bar., Kota Kotamobagu",SULAWESI UTARA,95716,Indonesia,85145486421.0,,,0.7297739,1.242.891.438,https://maps.google.com/?cid=0x0:0x3fb6062ef8861313,
restaurant,restaurant,Kec. Kotamobagu Tim.,"Kota Kotamobagu, Sulawesi Utara","Kota Kotamobagu, Sulawesi Utara",SULAWESI UTARA,,Indonesia,,,,0.7377324,1.243.224.496,https://maps.google.com/?cid=0x0:0xf276a13be322dc46,
restaurant,Kedai Kopi,Nge_Grill Kotamobagu,"P8C5+HCC, Matali, Kec. Kotamobagu Tim., Kota Kotamobagu, Sulawesi Utara","Kota Kotamobagu, Sulawesi Utara",SULAWESI UTARA,,Indonesia,85340210693.0,,,0.7214362,1.243.085.075,https://maps.google.com/?cid=0x0:0x6bea69e8966d5b01,
restaurant,Kafe,Login Coffee  Eatery,"Jl. Merdeka, Mogolaing, Kec. Kotamobagu Bar., Kota Kotamobagu, Sulawesi Utara 95716","Mogolaing, Kec. Kotamobagu Bar., Kota Kotamobagu",SULAWESI UTARA,95716,Indonesia,895329002353.0,,,0.7263932,1.243.052.292,https://maps.google.com/?cid=0x0:0x89d4261625d9535e,
restaurant,Ikan Bakar,RM. Babusalam,"P8M9+GM3, Jl. Paloko Kinalang, Sinindian, Kec. Kotamobagu Tim., Kota Kotamobagu, Sulawesi Utara 95716","Jl. Paloko Kinalang, Sinindian, Kec. Kotamobagu Tim., Kota Kotamobagu",SULAWESI UTARA,95716,Indonesia,,,,0.7337519,1.243.191.703,https://maps.google.com/?cid=0x0:0x83a3477d167c4da8,
restaurant,Restoran,RM. Sarang TudeBobara,"P8MC+27P, Kotabangon, Kec. Kotamobagu Tim., Kota Kotamobagu, Sulawesi Utara 95716","Kotabangon, Kec. Kotamobagu Tim., Kota Kotamobagu",SULAWESI UTARA,95716,Indonesia,,,,0.7325773,1.243.207.073,https://maps.google.com/?cid=0x0:0xf44046c2a2bc15c4,
restaurant,Restoran,Nasi Tempong 88 Kotamobagu,"Nasi Tempong 88 (depan polres, Jl. Paloko Kinalang, Kotabangon, Kec. Kotamobagu Tim., Kota Kotamobagu, Sulawesi Utara 95711","Jl. Paloko Kinalang, Kotabangon, Kec. Kotamobagu Tim., Kota Kotamobagu",SULAWESI UTARA,95711,Indonesia,85399455485.0,,,0.7320935,1.243.231.669,https://maps.google.com/?cid=0x0:0xe9bf1054d51d3e97,
restaurant,Kafe,Cafe Kusu Kusu Kotamobagu,"Jl. Yusuf Hasiru No.15, Kotabangon, Kec. Kotamobagu Tim., Kota Kotamobagu, Sulawesi Utara 95716","Kotabangon, Kec. Kotamobagu Tim., Kota Kotamobagu",SULAWESI UTARA,95716,Indonesia,85240350000.0,,,0.7397037,1.243.198.954,https://maps.google.com/?cid=0x0:0x17bec086ddd2bde0,
restaurant,Restoran,Strawberry Cafe  Resto,"P8GF+FMG, Jl. Siliwangi, Tumobuy, Kec. Kotamobagu Tim., Kota Kotamobagu, Sulawesi Utara 95716","Jl. Siliwangi, Tumobuy, Kec. Kotamobagu Tim., Kota Kotamobagu",SULAWESI UTARA,95716,Indonesia,81340475335.0,,,0.7261999,1.243.241.948,https://maps.google.com/?cid=0x0:0x1f481c9bf171fb2d,
restaurant,BBQ,Sangdan Korean BBQ Kotamobagu,"Jl. Datoe Binangkang No.15, Kotamobagu, Kec. Kotamobagu Bar., Kota Kotamobagu, Sulawesi Utara 95711","Kotamobagu, Kec. Kotamobagu Bar., Kota Kotamobagu",SULAWESI UTARA,95711,Indonesia,811437775.0,,,0.739641,1.243.111.394,https://maps.google.com/?cid=0x0:0xbe7bb7fc132ea3f9,
restaurant,Dapur Umum,Kantin Prihatin Kotobangon,"P8PC+RWP, Kotabangon, Kec. Kotamobagu Tim., Kota Kotamobagu, Sulawesi Utara 95716","Kotabangon, Kec. Kotamobagu Tim., Kota Kotamobagu",SULAWESI UTARA,95716,Indonesia,81356200401.0,,,0.7370959,1.243.223.266,https://maps.google.com/?cid=0x0:0x5ea7540e1fb6b916,
restaurant,Kedai Kopi,R.M Rica-Rica Jalur 2,"RM.Jalur 2, Kotabangon, Kec. Kotamobagu Tim., Kota Kotamobagu, Sulawesi Utara","Kota Kotamobagu, Sulawesi Utara",SULAWESI UTARA,,Indonesia,81341852448.0,,,0.7330274,1.243.198.232,https://maps.google.com/?cid=0x0:0xac6c51f4732c954d,
restaurant,Restoran,Warung Makan De'Rindu,"Motoboi Kecil, Kec. Kotamobagu Sel., Kota Kotamobagu, Sulawesi Utara","Kota Kotamobagu, Sulawesi Utara",SULAWESI UTARA,,Indonesia,89675611156.0,,,0.7274052,1.243.003.944,https://maps.google.com/?cid=0x0:0xe03b8b8f31554d46,
restaurant,Mi,Mie Pangsit Ba,"P8M8+F95, Sinindian, Kec. Kotamobagu Tim., Kota Kotamobagu, Sulawesi Utara","Kota Kotamobagu, Sulawesi Utara",SULAWESI UTARA,,Indonesia,,,,0.7336311,1.243.159.767,https://maps.google.com/?cid=0x0:0xf5eef117d3ff240c,
restaurant,Kafe,Kopi KOROT  FOOD KOROT,"P8M9+9X3, Kotabangon, Kec. Kotamobagu Tim., Kota Kotamobagu, Sulawesi Utara 95716","Kotabangon, Kec. Kotamobagu Tim., Kota Kotamobagu",SULAWESI UTARA,95716,Indonesia,,,,0.7333962,1.243.199.231,https://maps.google.com/?cid=0x0:0x28500c5b99726ca3,
restaurant,Restoran,D'Jati Cafe  Resto,"P8RG+8QW, Jl. Tadohe, Bukit Ilongkow, Kotabangon, Kec. Kotamobagu Tim., Kota Kotamobagu, Sulawesi Utara 95716","Jl. Tadohe, Bukit Ilongkow, Kotabangon, Kec. Kotamobagu Tim., Kota Kotamobagu",SULAWESI UTARA,95716,Indonesia,85399514411.0,,,0.7408647,1.243.269.624,https://maps.google.com/?cid=0x0:0x9dca5227945fadbf,
restaurant,Kafe,Angkringan HIKK (Hidangan Istimewa Kampung  Kota),"Jl. Jhoni Suhodo, Kotabangon, Kec. Kotamobagu Tim., Kota Kotamobagu, Sulawesi Utara 95716","Kotabangon, Kec. Kotamobagu Tim., Kota Kotamobagu",SULAWESI UTARA,95716,Indonesia,81244455622.0,,,0.7379687,1.243.194.084,https://maps.google.com/?cid=0x0:0x770bb6fad6d9e6df,
restaurant,Restoran,RM Minahasa Tanta Ge',"P8Q9+P2C, Kotamobagu, Kec. Kotamobagu Bar., Kota Kotamobagu, Sulawesi Utara","Kota Kotamobagu, Sulawesi Utara",SULAWESI UTARA,,Indonesia,,,,0.7393024,1.243.175.091,https://maps.google.com/?cid=0x0:0x56170d1b889c9a8,
restaurant,Dapur Umum,RM. 88 Kotamobagu,"SD Kristen 1, Jl. Siliwangi No.Depan, Tumobuy, Kec. Kotamobagu Tim., Kota Kotamobagu, Sulawesi Utara 95716","Jl. Siliwangi No.Depan, Tumobuy, Kec. Kotamobagu Tim., Kota Kotamobagu",SULAWESI UTARA,95716,Indonesia,82136788885.0,,,0.7266982,1.243.243.561,https://maps.google.com/?cid=0x0:0xe47eb10ea083ef41,
restaurant,Restoran,D'Talaga Resto,"Jalan Raya Bubak No. 88, Desa Bungko, Kecamatan Kotamobagu Selatan, Tungoi II, Lolayan, Tungoi II, Kec. Lolayan, Kota Kotamobagu, Sulawesi Utara","Kota Kotamobagu, Sulawesi Utara",SULAWESI UTARA,,Indonesia,85256025052.0,,,0.6874044,1.243.016.285,https://maps.google.com/?cid=0x0:0xb70d294f10f25fe2,
restaurant,Kedai Kopi,Canteen Fisabilillah,"P898+PWG, Jl. Teuku Umar, Matali, Kec. Kotamobagu Tim., Kota Kotamobagu, Sulawesi Utara","Kota Kotamobagu, Sulawesi Utara",SULAWESI UTARA,,Indonesia,82290571773.0,,,0.7193242,1.243.173.397,https://maps.google.com/?cid=0x0:0x85d963227fa315bf,
restaurant,Brunch,Kedai Al Baroqah MommyJ2,"Jl.Brigjen Kotamso, Kotabangon, Kec. Kotamobagu Tim., Kota Kotamobagu, Sulawesi Utara 95712","Kotabangon, Kec. Kotamobagu Tim., Kota Kotamobagu",SULAWESI UTARA,95712,Indonesia,81241564222.0,,,0.7355892,1.243.162.788,https://maps.google.com/?cid=0x0:0xa397eab16c7f2704,
restaurant,Ikan Bakar,Restoran Kota Terapung,"P89J+CJH, Motoboi Besar, Kec. Kotamobagu Tim., Kota Kotamobagu, Sulawesi Utara","Kota Kotamobagu, Sulawesi Utara",SULAWESI UTARA,,Indonesia,82188468878.0,,,0.7185604,1.243.315.938,https://maps.google.com/?cid=0x0:0xc69273d2ac1149e4,
restaurant,Rumah Makan,Rumah Makan Lamongan88,"P8F4+GGG, Jl. Veteran, Matali, Kec. Kotamobagu Tim., Kota Kotamobagu, Sulawesi Utara 95716","Jl. Veteran, Matali, Kec. Kotamobagu Tim., Kota Kotamobagu",SULAWESI UTARA,95716,Indonesia,,,,0.7238047,1.243.063.243,https://maps.google.com/?cid=0x0:0x62eb567db6648209,
restaurant,Restoran,RM. Priangan,"P8G6+R82, Matali, Kec. Kotamobagu Tim., Kota Kotamobagu, Sulawesi Utara","Kota Kotamobagu, Sulawesi Utara",SULAWESI UTARA,,Indonesia,,,,0.7270024,124.310.753,https://maps.google.com/?cid=0x0:0xced56ba496dd0072,
restaurant,Kedai Kopi,Foodsal Kotamobagu,"Kotabangon, Kec. Kotamobagu Tim., Kota Kotamobagu, Sulawesi Utara","Kota Kotamobagu, Sulawesi Utara",SULAWESI UTARA,,Indonesia,82293625614.0,,,0.7327072,1.243.229.876,https://maps.google.com/?cid=0x0:0x3b2a85ee274634f2,
restaurant,Kafe,Cafe Bagus Motoboi Kecil,"P7GX+G28, Motoboi Kecil, Kec. Kotamobagu Sel., Kota Kotamobagu, Sulawesi Utara 95711","Motoboi Kecil, Kec. Kotamobagu Sel., Kota Kotamobagu",SULAWESI UTARA,95711,Indonesia,81340064488.0,,,0.726284,124.297.566,https://maps.google.com/?cid=0x0:0x627ea16809e164b8,
restaurant,Ayam,Kantin Ma Dea,"P8F4+WRG, Matali, Kec. Kotamobagu Tim., Kota Kotamobagu, Sulawesi Utara","Kota Kotamobagu, Sulawesi Utara",SULAWESI UTARA,,Indonesia,,,,0.7248071,1.243.070.683,https://maps.google.com/?cid=0x0:0x8be65858bdcc0312,
restaurant,Kafe,Coffee Town,"P8M9+MCH, Jl. Paloko Kinalang, Kotabangon, Kec. Kotamobagu Tim., Kota Kotamobagu, Sulawesi Utara 95716","Jl. Paloko Kinalang, Kotabangon, Kec. Kotamobagu Tim., Kota Kotamobagu",SULAWESI UTARA,95716,Indonesia,81356515354.0,,,0.73418,1.243.186.189,https://maps.google.com/?cid=0x0:0xef48c767e306ec2d,
restaurant,Restoran,Pasar Jajan Malam Kotamobagu,"Jl. Datoe Binangkang No.38, Mogolaing, Kec. Kotamobagu Bar., Kota Kotamobagu, Sulawesi Utara 95711","Mogolaing, Kec. Kotamobagu Bar., Kota Kotamobagu",SULAWESI UTARA,95711,Indonesia,,,,0.7386025,12.431.147,https://maps.google.com/?cid=0x0:0xb24de9bb3c1e7afe,
restaurant,restaurant,Sulawesi Utara 95716,"Mogolaing, Kec. Kotamobagu Bar., Kota Kotamobagu, Sulawesi Utara","Kota Kotamobagu, Sulawesi Utara",SULAWESI UTARA,,Indonesia,,,,0.7331339,1.243.035.249,https://maps.google.com/?cid=0x0:0xb303343be4233a,
restaurant,Kafe,Login Coffee  Eatery,"Jl. Merdeka, Mogolaing, Kec. Kotamobagu Bar., Kota Kotamobagu, Sulawesi Utara 95716","Mogolaing, Kec. Kotamobagu Bar., Kota Kotamobagu",SULAWESI UTARA,95716,Indonesia,895329002353.0,,,0.7263932,1.243.052.292,https://maps.google.com/?cid=0x0:0x89d4261625d9535e,
restaurant,Kafe,Resto Triston kotamobagu,"P893+W8G, Jl. Darussalam, Motoboi Kecil, Kec. Kotamobagu Sel., Kota Kotamobagu, Sulawesi Utara 95716","Jl. Darussalam, Motoboi Kecil, Kec. Kotamobagu Sel., Kota Kotamobagu",SULAWESI UTARA,95716,Indonesia,85756458687.0,,,0.7198068,124.303.322,https://maps.google.com/?cid=0x0:0x7cbf34d05922d26c,
restaurant,Restoran,Nasi Tempong 88 Kotamobagu,"Nasi Tempong 88 (depan polres, Jl. Paloko Kinalang, Kotabangon, Kec. Kotamobagu Tim., Kota Kotamobagu, Sulawesi Utara 95711","Jl. Paloko Kinalang, Kotabangon, Kec. Kotamobagu Tim., Kota Kotamobagu",SULAWESI UTARA,95711,Indonesia,85399455485.0,,,0.7320935,1.243.231.669,https://maps.google.com/?cid=0x0:0xe9bf1054d51d3e97,
restaurant,Kafe,Coffee Town,"P8M9+MCH, Jl. Paloko Kinalang, Kotabangon, Kec. Kotamobagu Tim., Kota Kotamobagu, Sulawesi Utara 95716","Jl. Paloko Kinalang, Kotabangon, Kec. Kotamobagu Tim., Kota Kotamobagu",SULAWESI UTARA,95716,Indonesia,81356515354.0,,,0.73418,1.243.186.189,https://maps.google.com/?cid=0x0:0xef48c767e306ec2d,
restaurant,Hidangan Laut,R.M MAS JOKO SEAFOOD LAMONGAN,"Jl. Ratahan - Kotamobagu, Mogolaing, Kec. Kotamobagu Bar., Kota Kotamobagu, Sulawesi Utara 95716","Mogolaing, Kec. Kotamobagu Bar., Kota Kotamobagu",SULAWESI UTARA,95716,Indonesia,81285323078.0,,,0.7337264,1.243.044.381,https://maps.google.com/?cid=0x0:0xa399a6c0d3be7bcc,
restaurant,Kafe,Cafe Bagus Motoboi Kecil,"P7GX+G28, Motoboi Kecil, Kec. Kotamobagu Sel., Kota Kotamobagu, Sulawesi Utara 95711","Motoboi Kecil, Kec. Kotamobagu Sel., Kota Kotamobagu",SULAWESI UTARA,95711,Indonesia,81340064488.0,,,0.726284,124.297.566,https://maps.google.com/?cid=0x0:0x627ea16809e164b8,
restaurant,Restoran,D'Talaga Resto,"Jalan Raya Bubak No. 88, Desa Bungko, Kecamatan Kotamobagu Selatan, Tungoi II, Lolayan, Tungoi II, Kec. Lolayan, Kota Kotamobagu, Sulawesi Utara","Kota Kotamobagu, Sulawesi Utara",SULAWESI UTARA,,Indonesia,85256025052.0,,,0.6874044,1.243.016.285,https://maps.google.com/?cid=0x0:0xb70d294f10f25fe2,
restaurant,Restoran,Warung Makan De'Rindu,"Motoboi Kecil, Kec. Kotamobagu Sel., Kota Kotamobagu, Sulawesi Utara","Kota Kotamobagu, Sulawesi Utara",SULAWESI UTARA,,Indonesia,89675611156.0,,,0.7274052,1.243.003.944,https://maps.google.com/?cid=0x0:0xe03b8b8f31554d46,
restaurant,Ikan Bakar,Ikan Bakar Lalapan 88 Matali,"Matali, Kec. Kotamobagu Tim., Kota Kotamobagu, Sulawesi Utara","Kota Kotamobagu, Sulawesi Utara",SULAWESI UTARA,,Indonesia,85648299441.0,,,0.7232859,1.243.084.642,https://maps.google.com/?cid=0x0:0xad318cc0f7c49f9d,
restaurant,Kedai Kopi,Foodsal Kotamobagu,"Kotabangon, Kec. Kotamobagu Tim., Kota Kotamobagu, Sulawesi Utara","Kota Kotamobagu, Sulawesi Utara",SULAWESI UTARA,,Indonesia,82293625614.0,,,0.7327072,1.243.229.876,https://maps.google.com/?cid=0x0:0x3b2a85ee274634f2,
restaurant,Restoran,PONDOK TELAGA,"M8H2+WWQ, Unnamed Road, Tungoi II, Kec. Lolayan, Kabupaten Bolaang Mongondow, Sulawesi Utara","Kabupaten Bolaang Mongondow, Sulawesi Utara",SULAWESI UTARA,,Indonesia,,,,0.6798271,1.243.023.652,https://maps.google.com/?cid=0x0:0x9864e65e94d51a38,
restaurant,Rumah Makan,Rumah Makan Bobara Bakar,"P8M3+3FX, Mogolaing, Kec. Kotamobagu Bar., Kota Kotamobagu, Sulawesi Utara 95716","Mogolaing, Kec. Kotamobagu Bar., Kota Kotamobagu",SULAWESI UTARA,95716,Indonesia,,,,0.7327389,1.243.037.335,https://maps.google.com/?cid=0x0:0xee35d688f11fde24,
restaurant,Kafe,Kotaku Burger,"P8M4+GCC, Jl. Cemp., Mogolaing, Kec. Kotamobagu Bar., Kota Kotamobagu, Sulawesi Utara 95716","Jl. Cemp., Mogolaing, Kec. Kotamobagu Bar., Kota Kotamobagu",SULAWESI UTARA,95716,Indonesia,895801928941.0,,,0.7338116,1.243.060.049,https://maps.google.com/?cid=0x0:0x91eaa049f3636d5d,
restaurant,Kafe,Manja drinks  food,"P8P4+PW8, Mogolaing, Kec. Kotamobagu Bar., Kota Kotamobagu, Sulawesi Utara","Kota Kotamobagu, Sulawesi Utara",SULAWESI UTARA,,Indonesia,82395385217.0,,,0.7367959,1.243.073.426,https://maps.google.com/?cid=0x0:0xa3565e9bdde5f619,
restaurant,Es Krim,Pop Ice Ma Iki Kotamobagu,"Mogolaing, Kec. Kotamobagu Bar., Kota Kotamobagu, Sulawesi Utara 95716","Kec. Kotamobagu Bar., Kota Kotamobagu",SULAWESI UTARA,95716,Indonesia,85248957690.0,,,0.7338078,12.430.601,https://maps.google.com/?cid=0x0:0xf0cb073d6e2c517,
restaurant,Restoran,Telaga Indah,"P88Q+M47, Motoboi Besar, Kec. Kotamobagu Tim., Kota Kotamobagu, Sulawesi Utara","Kota Kotamobagu, Sulawesi Utara",SULAWESI UTARA,,Indonesia,,,,0.716659,1.243.377.895,https://maps.google.com/?cid=0x0:0x89d1a4d611b77b44,
restaurant,Restoran,Kebuli Abati,"Lorong perumnas depan dinas pariwisata, Mogolaing, Kota Kotamobagu, Sulawesi Utara 95716","Mogolaing, Kota Kotamobagu",SULAWESI UTARA,95716,Indonesia,87730545798.0,,,0.7331505,124.303.536,https://maps.google.com/?cid=0x0:0xf246d9812ea1e166,
restaurant,Padang,RM PESONA MINANG,"P8J3+X8Q, Jl. Adampe Dolot, Mogolaing, Kec. Kotamobagu Bar., Kota Kotamobagu, Sulawesi Utara 95716","Jl. Adampe Dolot, Mogolaing, Kec. Kotamobagu Bar., Kota Kotamobagu",SULAWESI UTARA,95716,Indonesia,81341909100.0,,,0.7324706,1.243.033.534,https://maps.google.com/?cid=0x0:0x812dbd89b4425631,
restaurant,Kedai Kopi,Lapak Mas Aan,"Jl. Cemp. No.91a, Mogolaing, Kec. Kotamobagu Bar., Kota Kotamobagu, Sulawesi Utara 95716","Mogolaing, Kec. Kotamobagu Bar., Kota Kotamobagu",SULAWESI UTARA,95716,Indonesia,8982874395.0,,,0.7341131,1.243.051.091,https://maps.google.com/?cid=0x0:0xe32377d6212bcc56,
restaurant,Kafe,Cafe Kusu Kusu Kotamobagu,"Jl. Yusuf Hasiru No.15, Kotabangon, Kec. Kotamobagu Tim., Kota Kotamobagu, Sulawesi Utara 95716","Kotabangon, Kec. Kotamobagu Tim., Kota Kotamobagu",SULAWESI UTARA,95716,Indonesia,85240350000.0,,,0.7397037,1.243.198.954,https://maps.google.com/?cid=0x0:0x17bec086ddd2bde0,
restaurant,Ikan Bakar,RM. Babusalam,"P8M9+GM3, Jl. Paloko Kinalang, Sinindian, Kec. Kotamobagu Tim., Kota Kotamobagu, Sulawesi Utara 95716","Jl. Paloko Kinalang, Sinindian, Kec. Kotamobagu Tim., Kota Kotamobagu",SULAWESI UTARA,95716,Indonesia,,,,0.7337519,1.243.191.703,https://maps.google.com/?cid=0x0:0x83a3477d167c4da8,
restaurant,Manado,RESTO  CAFE,"P7MV+C9J, Jl. Veteran, Molinow, Kec. Kotamobagu Bar., Kota Kotamobagu, Sulawesi Utara","Kota Kotamobagu, Sulawesi Utara",SULAWESI UTARA,,Indonesia,8124427063.0,,,0.7335817,1.242.933.794,https://maps.google.com/?cid=0x0:0xea1e954d03005cd7,
restaurant,Restoran,RM PUTRI MINAHASA,"Dekat Perempatan Bobakidan, Kotabangon, Kec. Kotamobagu Tim., Kota Kotamobagu, Sulawesi Utara 95716","Kotabangon, Kec. Kotamobagu Tim., Kota Kotamobagu",SULAWESI UTARA,95716,Indonesia,,,,0.7382976,1.243.169.406,https://maps.google.com/?cid=0x0:0xcf61e9546a5ac55,
restaurant,restaurant,Kec. Kotamobagu Tim.,"Kota Kotamobagu, Sulawesi Utara","Kota Kotamobagu, Sulawesi Utara",SULAWESI UTARA,,Indonesia,,,,0.7377324,1.243.224.496,https://maps.google.com/?cid=0x0:0xf276a13be322dc46,
restaurant,Ikan Bakar,Pondok Lembah Bening,"Jl. Lintas Sinindian, Mogolaing, Kec. Kotamobagu Bar., Kota Kotamobagu, Sulawesi Utara 95716","Mogolaing, Kec. Kotamobagu Bar., Kota Kotamobagu",SULAWESI UTARA,95716,Indonesia,43422072.0,,,0.7290668,1.243.066.515,https://maps.google.com/?cid=0x0:0xbd06df974647e59c,
restaurant,BBQ,Sangdan Korean BBQ Kotamobagu,"Jl. Datoe Binangkang No.15, Kotamobagu, Kec. Kotamobagu Bar., Kota Kotamobagu, Sulawesi Utara 95711","Kotamobagu, Kec. Kotamobagu Bar., Kota Kotamobagu",SULAWESI UTARA,95711,Indonesia,811437775.0,,,0.739641,1.243.111.394,https://maps.google.com/?cid=0x0:0xbe7bb7fc132ea3f9,
restaurant,Restoran,RM. Sarang TudeBobara,"P8MC+27P, Kotabangon, Kec. Kotamobagu Tim., Kota Kotamobagu, Sulawesi Utara 95716","Kotabangon, Kec. Kotamobagu Tim., Kota Kotamobagu",SULAWESI UTARA,95716,Indonesia,,,,0.7325773,1.243.207.073,https://maps.google.com/?cid=0x0:0xf44046c2a2bc15c4,
restaurant,Indonesia,R.M MINAHASA TANTA PAT,"Jl. Siliwangi, Tumobuy, Kec. Kotamobagu Tim., Kota Kotamobagu, Sulawesi Utara 95716","Tumobuy, Kec. Kotamobagu Tim., Kota Kotamobagu",SULAWESI UTARA,95716,Indonesia,82195000780.0,,,0.7278241,1.243.239.718,https://maps.google.com/?cid=0x0:0x17ad7a1c9930408d,
restaurant,restaurant,Sulawesi Utara 95718,"Kotabangon, Kec. Kotamobagu Tim., Kota Kotamobagu, Sulawesi Utara","Kota Kotamobagu, Sulawesi Utara",SULAWESI UTARA,,Indonesia,,,,0.7331272,1.243.211.987,https://maps.google.com/?cid=0x0:0x3ca38e005d607719,
restaurant,Kafe,Resto Triston kotamobagu,"P893+W8G, Jl. Darussalam, Motoboi Kecil, Kec. Kotamobagu Sel., Kota Kotamobagu, Sulawesi Utara 95716","Jl. Darussalam, Motoboi Kecil, Kec. Kotamobagu Sel., Kota Kotamobagu",SULAWESI UTARA,95716,Indonesia,85756458687.0,,,0.7198068,124.303.322,https://maps.google.com/?cid=0x0:0x7cbf34d05922d26c,
restaurant,Kedai Kopi,Nge_Grill Kotamobagu,"P8C5+HCC, Matali, Kec. Kotamobagu Tim., Kota Kotamobagu, Sulawesi Utara","Kota Kotamobagu, Sulawesi Utara",SULAWESI UTARA,,Indonesia,85340210693.0,,,0.7214362,1.243.085.075,https://maps.google.com/?cid=0x0:0x6bea69e8966d5b01,
restaurant,Kafe,Coffee Town,"P8M9+MCH, Jl. Paloko Kinalang, Kotabangon, Kec. Kotamobagu Tim., Kota Kotamobagu, Sulawesi Utara 95716","Jl. Paloko Kinalang, Kotabangon, Kec. Kotamobagu Tim., Kota Kotamobagu",SULAWESI UTARA,95716,Indonesia,81356515354.0,,,0.73418,1.243.186.189,https://maps.google.com/?cid=0x0:0xef48c767e306ec2d,
restaurant,Kafe,Login Coffee  Eatery,"Jl. Merdeka, Mogolaing, Kec. Kotamobagu Bar., Kota Kotamobagu, Sulawesi Utara 95716","Mogolaing, Kec. Kotamobagu Bar., Kota Kotamobagu",SULAWESI UTARA,95716,Indonesia,895329002353.0,,,0.7263932,1.243.052.292,https://maps.google.com/?cid=0x0:0x89d4261625d9535e,
restaurant,Restoran,D'Talaga Resto,"Jalan Raya Bubak No. 88, Desa Bungko, Kecamatan Kotamobagu Selatan, Tungoi II, Lolayan, Tungoi II, Kec. Lolayan, Kota Kotamobagu, Sulawesi Utara","Kota Kotamobagu, Sulawesi Utara",SULAWESI UTARA,,Indonesia,85256025052.0,,,0.6874044,1.243.016.285,https://maps.google.com/?cid=0x0:0xb70d294f10f25fe2,
restaurant,Ikan Bakar,Ikan Bakar Lalapan 88 Matali,"Matali, Kec. Kotamobagu Tim., Kota Kotamobagu, Sulawesi Utara","Kota Kotamobagu, Sulawesi Utara",SULAWESI UTARA,,Indonesia,85648299441.0,,,0.7232859,1.243.084.642,https://maps.google.com/?cid=0x0:0xad318cc0f7c49f9d,
restaurant,Restoran,RM. Sarang TudeBobara,"P8MC+27P, Kotabangon, Kec. Kotamobagu Tim., Kota Kotamobagu, Sulawesi Utara 95716","Kotabangon, Kec. Kotamobagu Tim., Kota Kotamobagu",SULAWESI UTARA,95716,Indonesia,,,,0.7325773,1.243.207.073,https://maps.google.com/?cid=0x0:0xf44046c2a2bc15c4,
restaurant,Kafe,Cafe Bagus Motoboi Kecil,"P7GX+G28, Motoboi Kecil, Kec. Kotamobagu Sel., Kota Kotamobagu, Sulawesi Utara 95711","Motoboi Kecil, Kec. Kotamobagu Sel., Kota Kotamobagu",SULAWESI UTARA,95711,Indonesia,81340064488.0,,,0.726284,124.297.566,https://maps.google.com/?cid=0x0:0x627ea16809e164b8,
restaurant,Kedai Kopi,Foodsal Kotamobagu,"Kotabangon, Kec. Kotamobagu Tim., Kota Kotamobagu, Sulawesi Utara","Kota Kotamobagu, Sulawesi Utara",SULAWESI UTARA,,Indonesia,82293625614.0,,,0.7327072,1.243.229.876,https://maps.google.com/?cid=0x0:0x3b2a85ee274634f2,
restaurant,Bar Karaoke,The Love Cafe,"Kotabangon, Kec. Kotamobagu Tim., Kota Kotamobagu, Sulawesi Utara","Kota Kotamobagu, Sulawesi Utara",SULAWESI UTARA,,Indonesia,,,,0.7329134,1.243.222.506,https://maps.google.com/?cid=0x0:0x67c12c8755f9439d,
restaurant,BBQ,Caffe  ngegril,"P8Q9+4Q7, Kotabangon, Kec. Kotamobagu Tim., Kota Kotamobagu, Sulawesi Utara","Kota Kotamobagu, Sulawesi Utara",SULAWESI UTARA,,Indonesia,82251528193.0,,,0.7377848,1.243.194.218,https://maps.google.com/?cid=0x0:0x150fcb1f3bd76345,
restaurant,Restoran,PONDOK TELAGA,"M8H2+WWQ, Unnamed Road, Tungoi II, Kec. Lolayan, Kabupaten Bolaang Mongondow, Sulawesi Utara","Kabupaten Bolaang Mongondow, Sulawesi Utara",SULAWESI UTARA,,Indonesia,,,,0.6798271,1.243.023.652,https://maps.google.com/?cid=0x0:0x9864e65e94d51a38,
restaurant,Restoran,Telaga Indah,"P88Q+M47, Motoboi Besar, Kec. Kotamobagu Tim., Kota Kotamobagu, Sulawesi Utara","Kota Kotamobagu, Sulawesi Utara",SULAWESI UTARA,,Indonesia,,,,0.716659,1.243.377.895,https://maps.google.com/?cid=0x0:0x89d1a4d611b77b44,
restaurant,Klub Malam,Blacklist Bar and Resto,"Kotabangon, Kec. Kotamobagu Tim., Kota Kotamobagu, Sulawesi Utara","Kota Kotamobagu, Sulawesi Utara",SULAWESI UTARA,,Indonesia,87870106828.0,,,0.740479,1.243.223.237,https://maps.google.com/?cid=0x0:0x29f0a3ea99e83504,
restaurant,Kedai Kopi,KYN Coffee,"Matali, Kec. Kotamobagu Tim., Kota Kotamobagu, Sulawesi Utara 95716","Kec. Kotamobagu Tim., Kota Kotamobagu",SULAWESI UTARA,95716,Indonesia,85256763110.0,,,0.7331272,1.243.211.987,https://maps.google.com/?cid=0x0:0xb9af281ded2778a7,
restaurant,Rumah Makan,Kuliner,"P844+W52, Pobundayan, Kec. Kotamobagu Sel., Kota Kotamobagu, Sulawesi Utara","Kota Kotamobagu, Sulawesi Utara",SULAWESI UTARA,,Indonesia,82194624978.0,,,0.7072626,1.243.053.836,https://maps.google.com/?cid=0x0:0xbff1a0645f7763fb,
restaurant,Ikan Bakar,RM. Babusalam,"P8M9+GM3, Jl. Paloko Kinalang, Sinindian, Kec. Kotamobagu Tim., Kota Kotamobagu, Sulawesi Utara 95716","Jl. Paloko Kinalang, Sinindian, Kec. Kotamobagu Tim., Kota Kotamobagu",SULAWESI UTARA,95716,Indonesia,,,,0.7337519,1.243.191.703,https://maps.google.com/?cid=0x0:0x83a3477d167c4da8,
restaurant,Kafe,Manja drinks  food,"P8P4+PW8, Mogolaing, Kec. Kotamobagu Bar., Kota Kotamobagu, Sulawesi Utara","Kota Kotamobagu, Sulawesi Utara",SULAWESI UTARA,,Indonesia,82395385217.0,,,0.7367959,1.243.073.426,https://maps.google.com/?cid=0x0:0xa3565e9bdde5f619,
restaurant,Restoran,Warung Makan De'Rindu,"Motoboi Kecil, Kec. Kotamobagu Sel., Kota Kotamobagu, Sulawesi Utara","Kota Kotamobagu, Sulawesi Utara",SULAWESI UTARA,,Indonesia,89675611156.0,,,0.7274052,1.243.003.944,https://maps.google.com/?cid=0x0:0xe03b8b8f31554d46,
restaurant,Kedai Kopi,D'LEIN Cafe  Coffee Shop,"P8H2+XXW, Jl. Amal, Mogolaing, Kec. Kotamobagu Bar., Kota Kotamobagu, Sulawesi Utara","Kota Kotamobagu, Sulawesi Utara",SULAWESI UTARA,,Indonesia,,,,0.7299791,1.243.024.665,https://maps.google.com/?cid=0x0:0xeff54766eb87c1b7,
restaurant,restaurant,Pondok Senja Resto,"P8M2+75Q, Molinow, Kec. Kotamobagu Bar., Kota Kotamobagu, Sulawesi Utara","Kota Kotamobagu, Sulawesi Utara",SULAWESI UTARA,,Indonesia,,,,0.7338146,1.242.997.013,https://maps.google.com/?cid=0x0:0x883bc99a2d9d9bd5,
restaurant,BBQ,Sangdan Korean BBQ Kotamobagu,"Jl. Datoe Binangkang No.15, Kotamobagu, Kec. Kotamobagu Bar., Kota Kotamobagu, Sulawesi Utara 95711","Kotamobagu, Kec. Kotamobagu Bar., Kota Kotamobagu",SULAWESI UTARA,95711,Indonesia,811437775.0,,,0.739641,1.243.111.394,https://maps.google.com/?cid=0x0:0xbe7bb7fc132ea3f9,
restaurant,Kafe,Kopi KOROT  FOOD KOROT,"P8M9+9X3, Kotabangon, Kec. Kotamobagu Tim., Kota Kotamobagu, Sulawesi Utara 95716","Kotabangon, Kec. Kotamobagu Tim., Kota Kotamobagu",SULAWESI UTARA,95716,Indonesia,,,,0.7333962,1.243.199.231,https://maps.google.com/?cid=0x0:0x28500c5b99726ca3,
restaurant,Kafe,Cafe Kusu Kusu Kotamobagu,"Jl. Yusuf Hasiru No.15, Kotabangon, Kec. Kotamobagu Tim., Kota Kotamobagu, Sulawesi Utara 95716","Kotabangon, Kec. Kotamobagu Tim., Kota Kotamobagu",SULAWESI UTARA,95716,Indonesia,85240350000.0,,,0.7397037,1.243.198.954,https://maps.google.com/?cid=0x0:0x17bec086ddd2bde0,
restaurant,restaurant,Kec. Kotamobagu Tim.,"Kota Kotamobagu, Sulawesi Utara","Kota Kotamobagu, Sulawesi Utara",SULAWESI UTARA,,Indonesia,,,,0.7377324,1.243.224.496,https://maps.google.com/?cid=0x0:0xf276a13be322dc46,
restaurant,Kedai Kopi,Nge_Grill Kotamobagu,"P8C5+HCC, Matali, Kec. Kotamobagu Tim., Kota Kotamobagu, Sulawesi Utara","Kota Kotamobagu, Sulawesi Utara",SULAWESI UTARA,,Indonesia,85340210693.0,,,0.7214362,1.243.085.075,https://maps.google.com/?cid=0x0:0x6bea69e8966d5b01,
restaurant,Kafe,Resto Triston kotamobagu,"P893+W8G, Jl. Darussalam, Motoboi Kecil, Kec. Kotamobagu Sel., Kota Kotamobagu, Sulawesi Utara 95716","Jl. Darussalam, Motoboi Kecil, Kec. Kotamobagu Sel., Kota Kotamobagu",SULAWESI UTARA,95716,Indonesia,85756458687.0,,,0.7198068,124.303.322,https://maps.google.com/?cid=0x0:0x7cbf34d05922d26c,
restaurant,Ikan Bakar,RM. Babusalam,"P8M9+GM3, Jl. Paloko Kinalang, Sinindian, Kec. Kotamobagu Tim., Kota Kotamobagu, Sulawesi Utara 95716","Jl. Paloko Kinalang, Sinindian, Kec. Kotamobagu Tim., Kota Kotamobagu",SULAWESI UTARA,95716,Indonesia,,,,0.7337519,1.243.191.703,https://maps.google.com/?cid=0x0:0x83a3477d167c4da8,
restaurant,Restoran,RM Minahasa Tanta Ge',"P8Q9+P2C, Kotamobagu, Kec. Kotamobagu Bar., Kota Kotamobagu, Sulawesi Utara","Kota Kotamobagu, Sulawesi Utara",SULAWESI UTARA,,Indonesia,,,,0.7393024,1.243.175.091,https://maps.google.com/?cid=0x0:0x56170d1b889c9a8,
restaurant,BBQ,Sangdan Korean BBQ Kotamobagu,"Jl. Datoe Binangkang No.15, Kotamobagu, Kec. Kotamobagu Bar., Kota Kotamobagu, Sulawesi Utara 95711","Kotamobagu, Kec. Kotamobagu Bar., Kota Kotamobagu",SULAWESI UTARA,95711,Indonesia,811437775.0,,,0.739641,1.243.111.394,https://maps.google.com/?cid=0x0:0xbe7bb7fc132ea3f9,
restaurant,Restoran,RM. Sarang TudeBobara,"P8MC+27P, Kotabangon, Kec. Kotamobagu Tim., Kota Kotamobagu, Sulawesi Utara 95716","Kotabangon, Kec. Kotamobagu Tim., Kota Kotamobagu",SULAWESI UTARA,95716,Indonesia,,,,0.7325773,1.243.207.073,https://maps.google.com/?cid=0x0:0xf44046c2a2bc15c4,
restaurant,Kafe,Coffee Town,"P8M9+MCH, Jl. Paloko Kinalang, Kotabangon, Kec. Kotamobagu Tim., Kota Kotamobagu, Sulawesi Utara 95716","Jl. Paloko Kinalang, Kotabangon, Kec. Kotamobagu Tim., Kota Kotamobagu",SULAWESI UTARA,95716,Indonesia,81356515354.0,,,0.73418,1.243.186.189,https://maps.google.com/?cid=0x0:0xef48c767e306ec2d,
restaurant,Restoran,Pasar Jajan Malam Kotamobagu,"Jl. Datoe Binangkang No.38, Mogolaing, Kec. Kotamobagu Bar., Kota Kotamobagu, Sulawesi Utara 95711","Mogolaing, Kec. Kotamobagu Bar., Kota Kotamobagu",SULAWESI UTARA,95711,Indonesia,,,,0.7386025,12.431.147,https://maps.google.com/?cid=0x0:0xb24de9bb3c1e7afe,
restaurant,Restoran,Strawberry Cafe  Resto,"P8GF+FMG, Jl. Siliwangi, Tumobuy, Kec. Kotamobagu Tim., Kota Kotamobagu, Sulawesi Utara 95716","Jl. Siliwangi, Tumobuy, Kec. Kotamobagu Tim., Kota Kotamobagu",SULAWESI UTARA,95716,Indonesia,81340475335.0,,,0.7261999,1.243.241.948,https://maps.google.com/?cid=0x0:0x1f481c9bf171fb2d,
restaurant,Kedai Kopi,Canteen Fisabilillah,"P898+PWG, Jl. Teuku Umar, Matali, Kec. Kotamobagu Tim., Kota Kotamobagu, Sulawesi Utara","Kota Kotamobagu, Sulawesi Utara",SULAWESI UTARA,,Indonesia,82290571773.0,,,0.7193242,1.243.173.397,https://maps.google.com/?cid=0x0:0x85d963227fa315bf,
restaurant,Kafe,Login Coffee  Eatery,"Jl. Merdeka, Mogolaing, Kec. Kotamobagu Bar., Kota Kotamobagu, Sulawesi Utara 95716","Mogolaing, Kec. Kotamobagu Bar., Kota Kotamobagu",SULAWESI UTARA,95716,Indonesia,895329002353.0,,,0.7263932,1.243.052.292,https://maps.google.com/?cid=0x0:0x89d4261625d9535e,
restaurant,Dapur Umum,Kantin Prihatin Kotobangon,"P8PC+RWP, Kotabangon, Kec. Kotamobagu Tim., Kota Kotamobagu, Sulawesi Utara 95716","Kotabangon, Kec. Kotamobagu Tim., Kota Kotamobagu",SULAWESI UTARA,95716,Indonesia,81356200401.0,,,0.7370959,1.243.223.266,https://maps.google.com/?cid=0x0:0x5ea7540e1fb6b916,
restaurant,Restoran,D'Talaga Resto,"Jalan Raya Bubak No. 88, Desa Bungko, Kecamatan Kotamobagu Selatan, Tungoi II, Lolayan, Tungoi II, Kec. Lolayan, Kota Kotamobagu, Sulawesi Utara","Kota Kotamobagu, Sulawesi Utara",SULAWESI UTARA,,Indonesia,85256025052.0,,,0.6874044,1.243.016.285,https://maps.google.com/?cid=0x0:0xb70d294f10f25fe2,
restaurant,Restoran,Nasi Tempong 88 Kotamobagu,"Nasi Tempong 88 (depan polres, Jl. Paloko Kinalang, Kotabangon, Kec. Kotamobagu Tim., Kota Kotamobagu, Sulawesi Utara 95711","Jl. Paloko Kinalang, Kotabangon, Kec. Kotamobagu Tim., Kota Kotamobagu",SULAWESI UTARA,95711,Indonesia,85399455485.0,,,0.7320935,1.243.231.669,https://maps.google.com/?cid=0x0:0xe9bf1054d51d3e97,
restaurant,Restoran,ZeroEight Cafe and Resto,"P8R7+3XV, Kotamobagu, Kec. Kotamobagu Bar., Kota Kotamobagu, Sulawesi Utara","Kota Kotamobagu, Sulawesi Utara",SULAWESI UTARA,,Indonesia,81355558656.0,,,0.740237,1.243.149.338,https://maps.google.com/?cid=0x0:0xce73a8231bc5dcc7,
restaurant,Kafe,Cokelat Cafe,"P8M2+JXG, Mogolaing, Kec. Kotamobagu Bar., Kota Kotamobagu, Sulawesi Utara 95716","Mogolaing, Kec. Kotamobagu Bar., Kota Kotamobagu",SULAWESI UTARA,95716,Indonesia,81240598884.0,,,0.734063,1.243.024.398,https://maps.google.com/?cid=0x0:0x7cfb04d3c2bb2efb,
restaurant,Restoran,D'Jati Cafe  Resto,"P8RG+8QW, Jl. Tadohe, Bukit Ilongkow, Kotabangon, Kec. Kotamobagu Tim., Kota Kotamobagu, Sulawesi Utara 95716","Jl. Tadohe, Bukit Ilongkow, Kotabangon, Kec. Kotamobagu Tim., Kota Kotamobagu",SULAWESI UTARA,95716,Indonesia,85399514411.0,,,0.7408647,1.243.269.624,https://maps.google.com/?cid=0x0:0x9dca5227945fadbf,
restaurant,Restoran,RM PUTRI MINAHASA,"Dekat Perempatan Bobakidan, Kotabangon, Kec. Kotamobagu Tim., Kota Kotamobagu, Sulawesi Utara 95716","Kotabangon, Kec. Kotamobagu Tim., Kota Kotamobagu",SULAWESI UTARA,95716,Indonesia,,,,0.7382976,1.243.169.406,https://maps.google.com/?cid=0x0:0xcf61e9546a5ac55,
restaurant,Mi,Mie Pangsit Ba,"P8M8+F95, Sinindian, Kec. Kotamobagu Tim., Kota Kotamobagu, Sulawesi Utara","Kota Kotamobagu, Sulawesi Utara",SULAWESI UTARA,,Indonesia,,,,0.7336311,1.243.159.767,https://maps.google.com/?cid=0x0:0xf5eef117d3ff240c,
restaurant,restaurant,Sulawesi Utara,,Sulawesi Utara,SULAWESI UTARA,,Indonesia,,,,0.6246932,1.239.750.018,https://maps.google.com/?cid=0x0:0x45891617980cb835,
restaurant,Restoran,Warung Makan De'Rindu,"Motoboi Kecil, Kec. Kotamobagu Sel., Kota Kotamobagu, Sulawesi Utara","Kota Kotamobagu, Sulawesi Utara",SULAWESI UTARA,,Indonesia,89675611156.0,,,0.7274052,1.243.003.944,https://maps.google.com/?cid=0x0:0xe03b8b8f31554d46,
restaurant,Brunch,Nasi Bakar MakNyus,"Kobo Besar, Kec. Kotamobagu Tim., Kota Kotamobagu, Sulawesi Utara 95719","Kec. Kotamobagu Tim., Kota Kotamobagu",SULAWESI UTARA,95719,Indonesia,85257489875.0,,,0.7237283,1.243.232.631,https://maps.google.com/?cid=0x0:0x9c75fe55e147b432,
restaurant,Restoran,Manjo Yukul Kotamobagu,"Kobo Kecil, Kec. Kotamobagu Tim., Kota Kotamobagu, Sulawesi Utara 95719","Kec. Kotamobagu Tim., Kota Kotamobagu",SULAWESI UTARA,95719,Indonesia,82271330997.0,,,0.7158467,1.243.246.731,https://maps.google.com/?cid=0x0:0x3f056eb50c9085e5,
restaurant,Restoran,PONDOK TELAGA,"M8H2+WWQ, Unnamed Road, Tungoi II, Kec. Lolayan, Kabupaten Bolaang Mongondow, Sulawesi Utara","Kabupaten Bolaang Mongondow, Sulawesi Utara",SULAWESI UTARA,,Indonesia,,,,0.6798271,1.243.023.652,https://maps.google.com/?cid=0x0:0x9864e65e94d51a38,
restaurant,Kafe,Cafe Bagus Motoboi Kecil,"P7GX+G28, Motoboi Kecil, Kec. Kotamobagu Sel., Kota Kotamobagu, Sulawesi Utara 95711","Motoboi Kecil, Kec. Kotamobagu Sel., Kota Kotamobagu",SULAWESI UTARA,95711,Indonesia,81340064488.0,,,0.726284,124.297.566,https://maps.google.com/?cid=0x0:0x627ea16809e164b8,
restaurant,Kedai Kopi,Foodsal Kotamobagu,"Kotabangon, Kec. Kotamobagu Tim., Kota Kotamobagu, Sulawesi Utara","Kota Kotamobagu, Sulawesi Utara",SULAWESI UTARA,,Indonesia,82293625614.0,,,0.7327072,1.243.229.876,https://maps.google.com/?cid=0x0:0x3b2a85ee274634f2,
restaurant,restaurant,Hotel Sutanraja Kotamobagu,"Jl. Siliwangi, Kobo Besar, Kec. Kotamobagu Tim., Kota Kotamobagu, Sulawesi Utara 95716","Kobo Besar, Kec. Kotamobagu Tim., Kota Kotamobagu",SULAWESI UTARA,95716,Indonesia,4342621888.0,,,0.7258411,124.324.954,https://maps.google.com/?cid=0x0:0xc880a9c3bf234150,
restaurant,restaurant,,,,SULAWESI UTARA,,Indonesia,,,,,,https://maps.google.com/?cid=0x0:0xc880a9c3bf234150%7C/g/11cjkq28dv%7Cen-ID,
restaurant,restaurant,Kec. Kotamobagu Utara,"Kota Kotamobagu, Sulawesi Utara","Kota Kotamobagu, Sulawesi Utara",SULAWESI UTARA,,Indonesia,,,,0.7535564,1.243.211.663,https://maps.google.com/?cid=0x0:0x8857be9cbc156ca2,
restaurant,Restoran,RM Minahasa Tanta Ge',"P8Q9+P2C, Kotamobagu, Kec. Kotamobagu Bar., Kota Kotamobagu, Sulawesi Utara","Kota Kotamobagu, Sulawesi Utara",SULAWESI UTARA,,Indonesia,,,,0.7393024,1.243.175.091,https://maps.google.com/?cid=0x0:0x56170d1b889c9a8,
restaurant,BBQ,Sangdan Korean BBQ Kotamobagu,"Jl. Datoe Binangkang No.15, Kotamobagu, Kec. Kotamobagu Bar., Kota Kotamobagu, Sulawesi Utara 95711","Kotamobagu, Kec. Kotamobagu Bar., Kota Kotamobagu",SULAWESI UTARA,95711,Indonesia,811437775.0,,,0.739641,1.243.111.394,https://maps.google.com/?cid=0x0:0xbe7bb7fc132ea3f9,
restaurant,Restoran,Pasar Jajan Malam Kotamobagu,"Jl. Datoe Binangkang No.38, Mogolaing, Kec. Kotamobagu Bar., Kota Kotamobagu, Sulawesi Utara 95711","Mogolaing, Kec. Kotamobagu Bar., Kota Kotamobagu",SULAWESI UTARA,95711,Indonesia,,,,0.7386025,12.431.147,https://maps.google.com/?cid=0x0:0xb24de9bb3c1e7afe,
restaurant,Restoran,ZeroEight Cafe and Resto,"P8R7+3XV, Kotamobagu, Kec. Kotamobagu Bar., Kota Kotamobagu, Sulawesi Utara","Kota Kotamobagu, Sulawesi Utara",SULAWESI UTARA,,Indonesia,81355558656.0,,,0.740237,1.243.149.338,https://maps.google.com/?cid=0x0:0xce73a8231bc5dcc7,
restaurant,Brunch,Rumah Makan Siti Barokah,"P8R4+4MP, Gogagoman, Kec. Kotamobagu Bar., Kota Kotamobagu, Sulawesi Utara 95716","Gogagoman, Kec. Kotamobagu Bar., Kota Kotamobagu",SULAWESI UTARA,95716,Indonesia,,,,0.740336,1.243.066.897,https://maps.google.com/?cid=0x0:0xaeafecf8c24f856a,
restaurant,Restoran,Warung Jawa (Nganjuk),"P8W4+7WF, Unnamed Road, Gogagoman, Bar., Mogolaing, Kec. Kotamobagu Bar., Kota Kotamobagu, Sulawesi Utara 95716","Unnamed Road, Gogagoman, Bar., Mogolaing, Kec. Kotamobagu Bar., Kota Kotamobagu",SULAWESI UTARA,95716,Indonesia,81524637951.0,,,0.7456899,1.243.072.869,https://maps.google.com/?cid=0x0:0x2229c711ca7868cf,
restaurant,Kafe,Login Coffee  Eatery,"Jl. Merdeka, Mogolaing, Kec. Kotamobagu Bar., Kota Kotamobagu, Sulawesi Utara 95716","Mogolaing, Kec. Kotamobagu Bar., Kota Kotamobagu",SULAWESI UTARA,95716,Indonesia,895329002353.0,,,0.7263932,1.243.052.292,https://maps.google.com/?cid=0x0:0x89d4261625d9535e,
restaurant,Kafe,Resto Triston kotamobagu,"P893+W8G, Jl. Darussalam, Motoboi Kecil, Kec. Kotamobagu Sel., Kota Kotamobagu, Sulawesi Utara 95716","Jl. Darussalam, Motoboi Kecil, Kec. Kotamobagu Sel., Kota Kotamobagu",SULAWESI UTARA,95716,Indonesia,85756458687.0,,,0.7198068,124.303.322,https://maps.google.com/?cid=0x0:0x7cbf34d05922d26c,
restaurant,Ikan Bakar,RM. Babusalam,"P8M9+GM3, Jl. Paloko Kinalang, Sinindian, Kec. Kotamobagu Tim., Kota Kotamobagu, Sulawesi Utara 95716","Jl. Paloko Kinalang, Sinindian, Kec. Kotamobagu Tim., Kota Kotamobagu",SULAWESI UTARA,95716,Indonesia,,,,0.7337519,1.243.191.703,https://maps.google.com/?cid=0x0:0x83a3477d167c4da8,
restaurant,Restoran,D'Talaga Resto,"Jalan Raya Bubak No. 88, Desa Bungko, Kecamatan Kotamobagu Selatan, Tungoi II, Lolayan, Tungoi II, Kec. Lolayan, Kota Kotamobagu, Sulawesi Utara","Kota Kotamobagu, Sulawesi Utara",SULAWESI UTARA,,Indonesia,85256025052.0,,,0.6874044,1.243.016.285,https://maps.google.com/?cid=0x0:0xb70d294f10f25fe2,
restaurant,Sarapan,Waroeng Bubur Ayam Jakarta Mas Supri Cirebon,"Bar, Jl. Panjaitan No.20, Kotamobagu, Kec. Kotamobagu Bar., Kota Kotamobagu, Sulawesi Utara 95716","Jl. Panjaitan No.20, Kotamobagu, Kec. Kotamobagu Bar., Kota Kotamobagu",SULAWESI UTARA,95716,Indonesia,81524504115.0,,,0.7383649,1.243.122.835,https://maps.google.com/?cid=0x0:0xd1523ed308bfa9f2,
restaurant,Restoran,New Pasar Jajan,"P8Q6+CMG, Jl. Panjaitan, Kotamobagu, Kec. Kotamobagu Bar., Kota Kotamobagu, Sulawesi Utara 95716","Jl. Panjaitan, Kotamobagu, Kec. Kotamobagu Bar., Kota Kotamobagu",SULAWESI UTARA,95716,Indonesia,,,,0.7385665,1.243.117.032,https://maps.google.com/?cid=0x0:0x49934cb65199c3be,
restaurant,Kedai Kopi,Tampa Bakudapa,"Puncak, Passi, Kec. Kotamobagu Bar., Kota Kotamobagu, Sulawesi Utara","Kota Kotamobagu, Sulawesi Utara",SULAWESI UTARA,,Indonesia,,,,0.7529195,1.243.040.024,https://maps.google.com/?cid=0x0:0xd642ca21b9c73a5a,
restaurant,Restoran,Kyrie Kitchen - An Traditional Food Cafe,"Jl. Bogani No.212, Kotamobagu, Kec. Kotamobagu Bar., Kota Kotamobagu, Sulawesi Utara 95711","Kotamobagu, Kec. Kotamobagu Bar., Kota Kotamobagu",SULAWESI UTARA,95711,Indonesia,85256825533.0,,,0.7429605,1.243.081.073,https://maps.google.com/?cid=0x0:0x428e56c8d9426341,
restaurant,Kafe,Cokelat Cafe,"P8M2+JXG, Mogolaing, Kec. Kotamobagu Bar., Kota Kotamobagu, Sulawesi Utara 95716","Mogolaing, Kec. Kotamobagu Bar., Kota Kotamobagu",SULAWESI UTARA,95716,Indonesia,81240598884.0,,,0.734063,1.243.024.398,https://maps.google.com/?cid=0x0:0x7cfb04d3c2bb2efb,
restaurant,Kafe,Coffee Town,"P8M9+MCH, Jl. Paloko Kinalang, Kotabangon, Kec. Kotamobagu Tim., Kota Kotamobagu, Sulawesi Utara 95716","Jl. Paloko Kinalang, Kotabangon, Kec. Kotamobagu Tim., Kota Kotamobagu",SULAWESI UTARA,95716,Indonesia,81356515354.0,,,0.73418,1.243.186.189,https://maps.google.com/?cid=0x0:0xef48c767e306ec2d,
restaurant,Sulawesi Selatan,Rumah Makan Coto Makassar dan Sop Kondro,"P8R6+Q65, Gogagoman, Kec. Kotamobagu Bar., Kota Kotamobagu, Sulawesi Utara","Kota Kotamobagu, Sulawesi Utara",SULAWESI UTARA,,Indonesia,85240460123.0,,,0.7418905,1.243.106.218,https://maps.google.com/?cid=0x0:0x8c1ccc6bb825eee2,
restaurant,Indonesia,Minang Putra,"P8Q6+WF6 pengadilan kotamobagu, Kotamobagu, Kec. Kotamobagu Bar., Kota Kotamobagu, Sulawesi Utara 95716","Kotamobagu, Kec. Kotamobagu Bar., Kota Kotamobagu",SULAWESI UTARA,95716,Indonesia,,,,0.7397856,1.243.111.342,https://maps.google.com/?cid=0x0:0xcc003f99b80ceef3,
restaurant,Restoran,Batu Bogani,"Q828+7GC, Jl. Berkat, Biga, Kec. Kotamobagu Utara, Kota Kotamobagu, Sulawesi Utara","Kota Kotamobagu, Sulawesi Utara",SULAWESI UTARA,,Indonesia,,,,0.7507632,1.243.167.392,https://maps.google.com/?cid=0x0:0x374f857b0a849a82,
restaurant,Mi,Mie Pangsit Ba,"P8M8+F95, Sinindian, Kec. Kotamobagu Tim., Kota Kotamobagu, Sulawesi Utara","Kota Kotamobagu, Sulawesi Utara",SULAWESI UTARA,,Indonesia,,,,0.7336311,1.243.159.767,https://maps.google.com/?cid=0x0:0xf5eef117d3ff240c,
restaurant,Restoran,Mie D'Jakarta Kotamobagu,"P8R8+59F, Jl. Sutoyo, Kotamobagu, Kec. Kotamobagu Bar., Kota Kotamobagu, Sulawesi Utara","Kota Kotamobagu, Sulawesi Utara",SULAWESI UTARA,,Indonesia,81389860720.0,,,0.7404465,1.243.159.339,https://maps.google.com/?cid=0x0:0x459effb3d9ab634e,
restaurant,Brunch,RM Nasi Kuning Mama Didit,"Biga, Kec. Kotamobagu Utara, Kota Kotamobagu, Sulawesi Utara","Kota Kotamobagu, Sulawesi Utara",SULAWESI UTARA,,Indonesia,82296406900.0,,,0.7491615,1.243.173.288,https://maps.google.com/?cid=0x0:0x5924cf487ced7cd6,
restaurant,Jawa,RM. PUTRA LAMONGAN Mas Jenggot,"P8R6+7XP, Bar., Kotamobagu, Kec. Kotamobagu Bar., Kota Kotamobagu, Sulawesi Utara","Kota Kotamobagu, Sulawesi Utara",SULAWESI UTARA,,Indonesia,81388279460.0,,,0.740714,1.243.124.411,https://maps.google.com/?cid=0x0:0x117589d8b4de1c65,
restaurant,Restoran,RM. Sarang TudeBobara,"P8MC+27P, Kotabangon, Kec. Kotamobagu Tim., Kota Kotamobagu, Sulawesi Utara 95716","Kotabangon, Kec. Kotamobagu Tim., Kota Kotamobagu",SULAWESI UTARA,95716,Indonesia,,,,0.7325773,1.243.207.073,https://maps.google.com/?cid=0x0:0xf44046c2a2bc15c4,
restaurant,Rumah Makan,RM. Tinutuan Tanta Nelly,"P8R9+345, Kotamobagu, Kec. Kotamobagu Bar., Kota Kotamobagu, Sulawesi Utara","Kota Kotamobagu, Sulawesi Utara",SULAWESI UTARA,,Indonesia,,,,0.7401408,1.243.178.472,https://maps.google.com/?cid=0x0:0xa4a4a3559fa37981,
restaurant,restaurant,Kec. Kotamobagu Utara,"Kota Kotamobagu, Sulawesi Utara","Kota Kotamobagu, Sulawesi Utara",SULAWESI UTARA,,Indonesia,,,,0.7535564,1.243.211.663,https://maps.google.com/?cid=0x0:0x8857be9cbc156ca2,
restaurant,Kafe,Login Coffee  Eatery,"Jl. Merdeka, Mogolaing, Kec. Kotamobagu Bar., Kota Kotamobagu, Sulawesi Utara 95716","Mogolaing, Kec. Kotamobagu Bar., Kota Kotamobagu",SULAWESI UTARA,95716,Indonesia,895329002353.0,,,0.7263932,1.243.052.292,https://maps.google.com/?cid=0x0:0x89d4261625d9535e,
restaurant,BBQ,Sangdan Korean BBQ Kotamobagu,"Jl. Datoe Binangkang No.15, Kotamobagu, Kec. Kotamobagu Bar., Kota Kotamobagu, Sulawesi Utara 95711","Kotamobagu, Kec. Kotamobagu Bar., Kota Kotamobagu",SULAWESI UTARA,95711,Indonesia,811437775.0,,,0.739641,1.243.111.394,https://maps.google.com/?cid=0x0:0xbe7bb7fc132ea3f9,
restaurant,Restoran,D'Talaga Resto,"Jalan Raya Bubak No. 88, Desa Bungko, Kecamatan Kotamobagu Selatan, Tungoi II, Lolayan, Tungoi II, Kec. Lolayan, Kota Kotamobagu, Sulawesi Utara","Kota Kotamobagu, Sulawesi Utara",SULAWESI UTARA,,Indonesia,85256025052.0,,,0.6874044,1.243.016.285,https://maps.google.com/?cid=0x0:0xb70d294f10f25fe2,
restaurant,Kafe,Resto Triston kotamobagu,"P893+W8G, Jl. Darussalam, Motoboi Kecil, Kec. Kotamobagu Sel., Kota Kotamobagu, Sulawesi Utara 95716","Jl. Darussalam, Motoboi Kecil, Kec. Kotamobagu Sel., Kota Kotamobagu",SULAWESI UTARA,95716,Indonesia,85756458687.0,,,0.7198068,124.303.322,https://maps.google.com/?cid=0x0:0x7cbf34d05922d26c,
restaurant,Restoran,RM Minahasa Tanta Ge',"P8Q9+P2C, Kotamobagu, Kec. Kotamobagu Bar., Kota Kotamobagu, Sulawesi Utara","Kota Kotamobagu, Sulawesi Utara",SULAWESI UTARA,,Indonesia,,,,0.7393024,1.243.175.091,https://maps.google.com/?cid=0x0:0x56170d1b889c9a8,
restaurant,Restoran,Nasi Tempong 88 Kotamobagu,"Nasi Tempong 88 (depan polres, Jl. Paloko Kinalang, Kotabangon, Kec. Kotamobagu Tim., Kota Kotamobagu, Sulawesi Utara 95711","Jl. Paloko Kinalang, Kotabangon, Kec. Kotamobagu Tim., Kota Kotamobagu",SULAWESI UTARA,95711,Indonesia,85399455485.0,,,0.7320935,1.243.231.669,https://maps.google.com/?cid=0x0:0xe9bf1054d51d3e97,
restaurant,Kafe,Cafe Kusu Kusu Kotamobagu,"Jl. Yusuf Hasiru No.15, Kotabangon, Kec. Kotamobagu Tim., Kota Kotamobagu, Sulawesi Utara 95716","Kotabangon, Kec. Kotamobagu Tim., Kota Kotamobagu",SULAWESI UTARA,95716,Indonesia,85240350000.0,,,0.7397037,1.243.198.954,https://maps.google.com/?cid=0x0:0x17bec086ddd2bde0,
restaurant,Kafe,Cokelat Cafe,"P8M2+JXG, Mogolaing, Kec. Kotamobagu Bar., Kota Kotamobagu, Sulawesi Utara 95716","Mogolaing, Kec. Kotamobagu Bar., Kota Kotamobagu",SULAWESI UTARA,95716,Indonesia,81240598884.0,,,0.734063,1.243.024.398,https://maps.google.com/?cid=0x0:0x7cfb04d3c2bb2efb,
restaurant,Restoran,ZeroEight Cafe and Resto,"P8R7+3XV, Kotamobagu, Kec. Kotamobagu Bar., Kota Kotamobagu, Sulawesi Utara","Kota Kotamobagu, Sulawesi Utara",SULAWESI UTARA,,Indonesia,81355558656.0,,,0.740237,1.243.149.338,https://maps.google.com/?cid=0x0:0xce73a8231bc5dcc7,
restaurant,Kafe,Cafe Bagus Motoboi Kecil,"P7GX+G28, Motoboi Kecil, Kec. Kotamobagu Sel., Kota Kotamobagu, Sulawesi Utara 95711","Motoboi Kecil, Kec. Kotamobagu Sel., Kota Kotamobagu",SULAWESI UTARA,95711,Indonesia,81340064488.0,,,0.726284,124.297.566,https://maps.google.com/?cid=0x0:0x627ea16809e164b8,
restaurant,Kedai Kopi,Tampa Bakudapa,"Puncak, Passi, Kec. Kotamobagu Bar., Kota Kotamobagu, Sulawesi Utara","Kota Kotamobagu, Sulawesi Utara",SULAWESI UTARA,,Indonesia,,,,0.7529195,1.243.040.024,https://maps.google.com/?cid=0x0:0xd642ca21b9c73a5a,
restaurant,Ikan Bakar,RM. Babusalam,"P8M9+GM3, Jl. Paloko Kinalang, Sinindian, Kec. Kotamobagu Tim., Kota Kotamobagu, Sulawesi Utara 95716","Jl. Paloko Kinalang, Sinindian, Kec. Kotamobagu Tim., Kota Kotamobagu",SULAWESI UTARA,95716,Indonesia,,,,0.7337519,1.243.191.703,https://maps.google.com/?cid=0x0:0x83a3477d167c4da8,
restaurant,Sulawesi Selatan,Rumah Makan Coto Makassar dan Sop Kondro,"P8R6+Q65, Gogagoman, Kec. Kotamobagu Bar., Kota Kotamobagu, Sulawesi Utara","Kota Kotamobagu, Sulawesi Utara",SULAWESI UTARA,,Indonesia,85240460123.0,,,0.7418905,1.243.106.218,https://maps.google.com/?cid=0x0:0x8c1ccc6bb825eee2,
restaurant,Restoran,RM.SEROJA Kampoeng Baroe,"P8P7+42C, Unnamed Road, Kotamobagu, Kec. Kotamobagu Bar., Kota Kotamobagu, Sulawesi Utara","Kota Kotamobagu, Sulawesi Utara",SULAWESI UTARA,,Indonesia,85823461808.0,,,0.7353107,1.243.125.257,https://maps.google.com/?cid=0x0:0xd443c305efbb8587,
restaurant,Restoran,Pasar Jajan Malam Kotamobagu,"Jl. Datoe Binangkang No.38, Mogolaing, Kec. Kotamobagu Bar., Kota Kotamobagu, Sulawesi Utara 95711","Mogolaing, Kec. Kotamobagu Bar., Kota Kotamobagu",SULAWESI UTARA,95711,Indonesia,,,,0.7386025,12.431.147,https://maps.google.com/?cid=0x0:0xb24de9bb3c1e7afe,
restaurant,Kedai Kopi,Foodsal Kotamobagu,"Kotabangon, Kec. Kotamobagu Tim., Kota Kotamobagu, Sulawesi Utara","Kota Kotamobagu, Sulawesi Utara",SULAWESI UTARA,,Indonesia,82293625614.0,,,0.7327072,1.243.229.876,https://maps.google.com/?cid=0x0:0x3b2a85ee274634f2,
restaurant,Restoran,RM PUTRI MINAHASA,"Dekat Perempatan Bobakidan, Kotabangon, Kec. Kotamobagu Tim., Kota Kotamobagu, Sulawesi Utara 95716","Kotabangon, Kec. Kotamobagu Tim., Kota Kotamobagu",SULAWESI UTARA,95716,Indonesia,,,,0.7382976,1.243.169.406,https://maps.google.com/?cid=0x0:0xcf61e9546a5ac55,
restaurant,Dapur Umum,Kantin Prihatin Kotobangon,"P8PC+RWP, Kotabangon, Kec. Kotamobagu Tim., Kota Kotamobagu, Sulawesi Utara 95716","Kotabangon, Kec. Kotamobagu Tim., Kota Kotamobagu",SULAWESI UTARA,95716,Indonesia,81356200401.0,,,0.7370959,1.243.223.266,https://maps.google.com/?cid=0x0:0x5ea7540e1fb6b916,
restaurant,Restoran,Warung Jawa (Nganjuk),"P8W4+7WF, Unnamed Road, Gogagoman, Bar., Mogolaing, Kec. Kotamobagu Bar., Kota Kotamobagu, Sulawesi Utara 95716","Unnamed Road, Gogagoman, Bar., Mogolaing, Kec. Kotamobagu Bar., Kota Kotamobagu",SULAWESI UTARA,95716,Indonesia,81524637951.0,,,0.7456899,1.243.072.869,https://maps.google.com/?cid=0x0:0x2229c711ca7868cf,
restaurant,Restoran,RM. Sarang TudeBobara,"P8MC+27P, Kotabangon, Kec. Kotamobagu Tim., Kota Kotamobagu, Sulawesi Utara 95716","Kotabangon, Kec. Kotamobagu Tim., Kota Kotamobagu",SULAWESI UTARA,95716,Indonesia,,,,0.7325773,1.243.207.073,https://maps.google.com/?cid=0x0:0xf44046c2a2bc15c4,
restaurant,Restoran,Restoran AYAM SINGAPURA MOGOLAING,"P8P4+JXM Bar, Mogolaing, Kec. Kotamobagu Bar., Kota Kotamobagu, Sulawesi Utara","Kota Kotamobagu, Sulawesi Utara",SULAWESI UTARA,,Indonesia,85256779505.0,,,0.7365877,1.243.074.294,https://maps.google.com/?cid=0x0:0xc025c5782844119f,
restaurant,Restoran,Kyrie Kitchen - An Traditional Food Cafe,"Jl. Bogani No.212, Kotamobagu, Kec. Kotamobagu Bar., Kota Kotamobagu, Sulawesi Utara 95711","Kotamobagu, Kec. Kotamobagu Bar., Kota Kotamobagu",SULAWESI UTARA,95711,Indonesia,85256825533.0,,,0.7429605,1.243.081.073,https://maps.google.com/?cid=0x0:0x428e56c8d9426341,
restaurant,Sarapan,Waroeng Bubur Ayam Jakarta Mas Supri Cirebon,"Bar, Jl. Panjaitan No.20, Kotamobagu, Kec. Kotamobagu Bar., Kota Kotamobagu, Sulawesi Utara 95716","Jl. Panjaitan No.20, Kotamobagu, Kec. Kotamobagu Bar., Kota Kotamobagu",SULAWESI UTARA,95716,Indonesia,81524504115.0,,,0.7383649,1.243.122.835,https://maps.google.com/?cid=0x0:0xd1523ed308bfa9f2,
restaurant,Brunch,Rumah Makan Siti Barokah,"P8R4+4MP, Gogagoman, Kec. Kotamobagu Bar., Kota Kotamobagu, Sulawesi Utara 95716","Gogagoman, Kec. Kotamobagu Bar., Kota Kotamobagu",SULAWESI UTARA,95716,Indonesia,,,,0.740336,1.243.066.897,https://maps.google.com/?cid=0x0:0xaeafecf8c24f856a,
restaurant,Jawa,RM. PUTRA LAMONGAN Mas Jenggot,"P8R6+7XP, Bar., Kotamobagu, Kec. Kotamobagu Bar., Kota Kotamobagu, Sulawesi Utara","Kota Kotamobagu, Sulawesi Utara",SULAWESI UTARA,,Indonesia,81388279460.0,,,0.740714,1.243.124.411,https://maps.google.com/?cid=0x0:0x117589d8b4de1c65,
restaurant,Brunch,RM Nasi Kuning Mama Didit,"Biga, Kec. Kotamobagu Utara, Kota Kotamobagu, Sulawesi Utara","Kota Kotamobagu, Sulawesi Utara",SULAWESI UTARA,,Indonesia,82296406900.0,,,0.7491615,1.243.173.288,https://maps.google.com/?cid=0x0:0x5924cf487ced7cd6,
restaurant,Makanan Siap Saji,KFC Kotamobagu,"Jl. Adampe Dolot, Mogolaing, Kec. Kotamobagu Bar., Kota Kotamobagu, Sulawesi Utara 95711","Mogolaing, Kec. Kotamobagu Bar., Kota Kotamobagu",SULAWESI UTARA,95711,Indonesia,4342601650.0,,,0.7359255,1.243.061.708,https://maps.google.com/?cid=0x0:0x34452fc8d878cadb,
restaurant,Restoran,New Pasar Jajan,"P8Q6+CMG, Jl. Panjaitan, Kotamobagu, Kec. Kotamobagu Bar., Kota Kotamobagu, Sulawesi Utara 95716","Jl. Panjaitan, Kotamobagu, Kec. Kotamobagu Bar., Kota Kotamobagu",SULAWESI UTARA,95716,Indonesia,,,,0.7385665,1.243.117.032,https://maps.google.com/?cid=0x0:0x49934cb65199c3be,
cafe,cafe,Sulawesi Utara 95711,"Kotamobagu, Kec. Kotamobagu Bar., Kota Kotamobagu, Sulawesi Utara","Kota Kotamobagu, Sulawesi Utara",SULAWESI UTARA,,Indonesia,,,,0.7413349,1.243.125.269,https://maps.google.com/?cid=0x0:0xe2a29556fedf8a93,
cafe,Kedai Kopi,CAFE 21,"Jl. S Parman No.21, Kotamobagu, Kec. Kotamobagu Bar., Kota Kotamobagu, Sulawesi Utara 95716","Kotamobagu, Kec. Kotamobagu Bar., Kota Kotamobagu",SULAWESI UTARA,95716,Indonesia,81275343443.0,,,0.7412956,1.243.148.882,https://maps.google.com/?cid=0x0:0xa5fdfbfab74ded2c,
cafe,Kedai Kopi,Point Coffee,"P8V7+QJQ, Kotamobagu, Kec. Kotamobagu Bar., Kota Kotamobagu, Sulawesi Utara","Kota Kotamobagu, Sulawesi Utara",SULAWESI UTARA,,Indonesia,211500280.0,,,0.7444685,1.243.141.038,https://maps.google.com/?cid=0x0:0x907c657c3e127cc3,
cafe,Restoran,Chotaffeein Coffee Shop,"P8QC+Q5V, Kotabangon, Kec. Kotamobagu Tim., Kota Kotamobagu, Sulawesi Utara 95716","Kotabangon, Kec. Kotamobagu Tim., Kota Kotamobagu",SULAWESI UTARA,95716,Indonesia,,,,0.7394923,1.243.204.101,https://maps.google.com/?cid=0x0:0x412dd7b9a78e71ac,
cafe,Kafe,Login Coffee  Eatery,"Jl. Merdeka, Mogolaing, Kec. Kotamobagu Bar., Kota Kotamobagu, Sulawesi Utara 95716","Mogolaing, Kec. Kotamobagu Bar., Kota Kotamobagu",SULAWESI UTARA,95716,Indonesia,895329002353.0,,,0.7263932,1.243.052.292,https://maps.google.com/?cid=0x0:0x89d4261625d9535e,
cafe,Kafe,Cafe Berlayar,"P8M5+79C, Jl. BBI, Mogolaing, Kec. Kotamobagu Bar., Kota Kotamobagu, Sulawesi Utara","Kota Kotamobagu, Sulawesi Utara",SULAWESI UTARA,,Indonesia,,,,0.7331944,124.308.404,https://maps.google.com/?cid=0x0:0x6287e3268381bcf1,
cafe,Kafe,Cokelat Cafe,"P8M2+JXG, Mogolaing, Kec. Kotamobagu Bar., Kota Kotamobagu, Sulawesi Utara 95716","Mogolaing, Kec. Kotamobagu Bar., Kota Kotamobagu",SULAWESI UTARA,95716,Indonesia,81240598884.0,,,0.734063,1.243.024.398,https://maps.google.com/?cid=0x0:0x7cfb04d3c2bb2efb,
cafe,Kafe,Cafe Classic,"P8J3+35V, Mogolaing, Kec. Kotamobagu Bar., Kota Kotamobagu, Sulawesi Utara","Kota Kotamobagu, Sulawesi Utara",SULAWESI UTARA,,Indonesia,,,,0.7302448,1.243.029.118,https://maps.google.com/?cid=0x0:0x737870869d2dd96a,
cafe,Kafe,BIJIMERA COFFEE  ROASTERY,"P8Q9+544, Kotabangon, Kec. Kotamobagu Tim., Kota Kotamobagu, Sulawesi Utara 95716","Kotabangon, Kec. Kotamobagu Tim., Kota Kotamobagu",SULAWESI UTARA,95716,Indonesia,8114343436.0,,,0.7379,1.243.178.253,https://maps.google.com/?cid=0x0:0xcdf2e66da8fe233b,
cafe,Kafe,Cafe Bagus Motoboi Kecil,"P7GX+G28, Motoboi Kecil, Kec. Kotamobagu Sel., Kota Kotamobagu, Sulawesi Utara 95711","Motoboi Kecil, Kec. Kotamobagu Sel., Kota Kotamobagu",SULAWESI UTARA,95711,Indonesia,81340064488.0,,,0.726284,124.297.566,https://maps.google.com/?cid=0x0:0x627ea16809e164b8,
cafe,Kafe,Coffee Town,"P8M9+MCH, Jl. Paloko Kinalang, Kotabangon, Kec. Kotamobagu Tim., Kota Kotamobagu, Sulawesi Utara 95716","Jl. Paloko Kinalang, Kotabangon, Kec. Kotamobagu Tim., Kota Kotamobagu",SULAWESI UTARA,95716,Indonesia,81356515354.0,,,0.73418,1.243.186.189,https://maps.google.com/?cid=0x0:0xef48c767e306ec2d,
cafe,Kafe,200 Meters x chotaffeeiin,"P8V3+XVC, Jl. Soeprapto, Gogagoman, Kec. Kotamobagu Bar., Kota Kotamobagu, Sulawesi Utara","Kota Kotamobagu, Sulawesi Utara",SULAWESI UTARA,,Indonesia,85298831803.0,,,0.744938,1.243.046.557,https://maps.google.com/?cid=0x0:0xde424982f7af5f79,
cafe,Kedai Kopi,kotobangon ID,"Jl. Kolonel Sugiono, Kotabangon, Kec. Kotamobagu Tim., Kota Kotamobagu, Sulawesi Utara","Kota Kotamobagu, Sulawesi Utara",SULAWESI UTARA,,Indonesia,81524730073.0,,,0.7379906,1.243.270.887,https://maps.google.com/?cid=0x0:0xff6c954115a3be87,
cafe,BBQ,A.A GRILL  CAFE,"Jl. Jhoni Suhodo, Kotabangon, Kec. Kotamobagu Tim., Kota Kotamobagu, Sulawesi Utara 95716","Kotabangon, Kec. Kotamobagu Tim., Kota Kotamobagu",SULAWESI UTARA,95716,Indonesia,,,,0.7379327,1.243.197.446,https://maps.google.com/?cid=0x0:0x3b1806e981bd8b38,
cafe,Brunch,Tepi Jalan Kotamobagu,"P8C5+FGP, Jl. DC. Manoppo, Matali, Kec. Kotamobagu Tim., Kota Kotamobagu, Sulawesi Utara 95716","Jl. DC. Manoppo, Matali, Kec. Kotamobagu Tim., Kota Kotamobagu",SULAWESI UTARA,95716,Indonesia,82293155084.0,,,0.7212185,1.243.088.378,https://maps.google.com/?cid=0x0:0x2d40a1bcc1881f71,
cafe,Kedai Kopi,Ruang Coffee,"Jl. Amal, Mogolaing, Kec. Kotamobagu Bar., Kota Kotamobagu, Sulawesi Utara 95716","Mogolaing, Kec. Kotamobagu Bar., Kota Kotamobagu",SULAWESI UTARA,95716,Indonesia,8114330031.0,,,0.7299448,1.243.027.983,https://maps.google.com/?cid=0x0:0x96dd361fbb12583a,
cafe,Kedai Kopi,Mve.coffee,"P8C6+VCH, Jl. Teuku Umar, Matali, Kec. Kotamobagu Tim., Kota Kotamobagu, Sulawesi Utara 95716","Jl. Teuku Umar, Matali, Kec. Kotamobagu Tim., Kota Kotamobagu",SULAWESI UTARA,95716,Indonesia,88804718200.0,,,0.722286,1.243.110.494,https://maps.google.com/?cid=0x0:0x52e0ee265da69858,
cafe,Kedai Kopi,EL COFFEE - Kotamobagu,"Jl. Amal, Mogolaing, Kec. Kotamobagu Bar., Kota Kotamobagu, Sulawesi Utara 95715","Mogolaing, Kec. Kotamobagu Bar., Kota Kotamobagu",SULAWESI UTARA,95715,Indonesia,82192365086.0,,,0.73241,1.243.032.023,https://maps.google.com/?cid=0x0:0x6416a59e07c895c6,
cafe,Kafe,Cafe Rainbow,"P8H5+98R, jl. lintas, Sinindian, Kec. Kotamobagu Tim., Kota Kotamobagu, Sulawesi Utara 95716","jl. lintas, Sinindian, Kec. Kotamobagu Tim., Kota Kotamobagu",SULAWESI UTARA,95716,Indonesia,,,,0.7284933,1.243.082.543,https://maps.google.com/?cid=0x0:0xdd81ad36f6cca8f4,
cafe,Kafe,Cafe Alexander,"P8V7+CVP, Bar., Kotamobagu, Kec. Kotamobagu Bar., Kota Kotamobagu, Sulawesi Utara","Kota Kotamobagu, Sulawesi Utara",SULAWESI UTARA,,Indonesia,85397262926.0,,,0.7435971,1.243.146.928,https://maps.google.com/?cid=0x0:0xfd2e69df0f9f2382,
cafe,Kedai Kopi,MAW JUICE CAFE,"Jl. Agoan No.64, Kotamobagu, Kec. Kotamobagu Bar., Kota Kotamobagu, Sulawesi Utara","Kota Kotamobagu, Sulawesi Utara",SULAWESI UTARA,,Indonesia,87890427447.0,,,0.7403923,1.243.131.527,https://maps.google.com/?cid=0x0:0xcba8329679416e73,
cafe,Kafe,Kedai Kopi Red Corner Kotamobagu,"Jl. Hi. Zakaria Imban, Molinow, Kec. Kotamobagu Bar., Kota Kotamobagu, Sulawesi Utara 95716","Molinow, Kec. Kotamobagu Bar., Kota Kotamobagu",SULAWESI UTARA,95716,Indonesia,82193124800.0,,,0.7266315,1.242.933.702,https://maps.google.com/?cid=0x0:0xda3f3f4fc8c62241,
cafe,Kedai Kopi,Pondok Kopi Aulia. Cafe  Rental Mobil,"Jl. Panjaitan, Kotabangon, Kec. Kotamobagu Tim., Kota Kotamobagu, Sulawesi Utara","Kota Kotamobagu, Sulawesi Utara",SULAWESI UTARA,,Indonesia,82344222984.0,,,0.7378641,1.243.155.675,https://maps.google.com/?cid=0x0:0xdbe8ad56168d6f50,
cafe,Kedai Kopi,SAGOL COFFEE,"P8RC+J83, Kotabangon, Kec. Kotamobagu Tim., Kota Kotamobagu, Sulawesi Utara","Kota Kotamobagu, Sulawesi Utara",SULAWESI UTARA,,Indonesia,,,,0.7415069,1.243.207.958,https://maps.google.com/?cid=0x0:0x334caf569d6f31b6,
cafe,Kedai Kopi,Foodsal Kotamobagu,"Kotabangon, Kec. Kotamobagu Tim., Kota Kotamobagu, Sulawesi Utara","Kota Kotamobagu, Sulawesi Utara",SULAWESI UTARA,,Indonesia,82293625614.0,,,0.7327072,1.243.229.876,https://maps.google.com/?cid=0x0:0x3b2a85ee274634f2,
cafe,Kedai Kopi,KOPI NONGKRONG,"P7CR+4H9, Poyowa Kecil, Kec. Kotamobagu Sel., Kota Kotamobagu, Sulawesi Utara","Kota Kotamobagu, Sulawesi Utara",SULAWESI UTARA,,Indonesia,,,,0.7202772,1.242.914.827,https://maps.google.com/?cid=0x0:0x657263b408929cf5,
cafe,Restoran,Strawberry Cafe  Resto,"P8GF+FMG, Jl. Siliwangi, Tumobuy, Kec. Kotamobagu Tim., Kota Kotamobagu, Sulawesi Utara 95716","Jl. Siliwangi, Tumobuy, Kec. Kotamobagu Tim., Kota Kotamobagu",SULAWESI UTARA,95716,Indonesia,81340475335.0,,,0.7261999,1.243.241.948,https://maps.google.com/?cid=0x0:0x1f481c9bf171fb2d,
cafe,Kafe,Kopi KOROT  FOOD KOROT,"P8M9+9X3, Kotabangon, Kec. Kotamobagu Tim., Kota Kotamobagu, Sulawesi Utara 95716","Kotabangon, Kec. Kotamobagu Tim., Kota Kotamobagu",SULAWESI UTARA,95716,Indonesia,,,,0.7333962,1.243.199.231,https://maps.google.com/?cid=0x0:0x28500c5b99726ca3,
cafe,Kafe,TETES KAFEIN,"Jl. Siliwangi, Kotabangon, Kec. Kotamobagu Tim., Kota Kotamobagu, Sulawesi Utara","Kota Kotamobagu, Sulawesi Utara",SULAWESI UTARA,,Indonesia,89653001278.0,,,0.7356966,1.243.226.127,https://maps.google.com/?cid=0x0:0xb74b53977ad53ab,
cafe,cafe,Kec. Kotamobagu Bar.,"Kota Kotamobagu, Sulawesi Utara","Kota Kotamobagu, Sulawesi Utara",SULAWESI UTARA,,Indonesia,,,,0.7429438,1.243.085.124,https://maps.google.com/?cid=0x0:0x68204053ca066af1,
cafe,Kafe,Cafe Classic,"P8J3+35V, Mogolaing, Kec. Kotamobagu Bar., Kota Kotamobagu, Sulawesi Utara","Kota Kotamobagu, Sulawesi Utara",SULAWESI UTARA,,Indonesia,,,,0.7302448,1.243.029.118,https://maps.google.com/?cid=0x0:0x737870869d2dd96a,
cafe,Kedai Kopi,CAFE 21,"Jl. S Parman No.21, Kotamobagu, Kec. Kotamobagu Bar., Kota Kotamobagu, Sulawesi Utara 95716","Kotamobagu, Kec. Kotamobagu Bar., Kota Kotamobagu",SULAWESI UTARA,95716,Indonesia,81275343443.0,,,0.7412956,1.243.148.882,https://maps.google.com/?cid=0x0:0xa5fdfbfab74ded2c,
cafe,Kafe,Eldian Coffee  Public Bar,"Jl. Hi. Zakaria Imban, Molinow, Kec. Kotamobagu Bar., Kota Kotamobagu, Sulawesi Utara 95716","Molinow, Kec. Kotamobagu Bar., Kota Kotamobagu",SULAWESI UTARA,95716,Indonesia,895396397796.0,,,0.7267094,1.242.938.181,https://maps.google.com/?cid=0x0:0x84c66d8665022fe6,
cafe,Kafe,Bangi Cafe Kotamobagu,"Jl. Adampe Dolot No.22, Mogolaing, Kec. Kotamobagu Bar., Kota Kotamobagu, Sulawesi Utara 95716","Mogolaing, Kec. Kotamobagu Bar., Kota Kotamobagu",SULAWESI UTARA,95716,Indonesia,,,,0.7384627,1.243.086.649,https://maps.google.com/?cid=0x0:0x92d620af5988c08d,
cafe,Kedai Kopi,Putri Dewi Cafe,"Motoboi Kecil, Kec. Kotamobagu Sel., Kota Kotamobagu, Sulawesi Utara 95716","Kec. Kotamobagu Sel., Kota Kotamobagu",SULAWESI UTARA,95716,Indonesia,81340566464.0,,,0.7265916,124.301.655,https://maps.google.com/?cid=0x0:0x5be9794ca18ceb45,
cafe,Restoran,Chotaffeein Coffee Shop,"P8QC+Q5V, Kotabangon, Kec. Kotamobagu Tim., Kota Kotamobagu, Sulawesi Utara 95716","Kotabangon, Kec. Kotamobagu Tim., Kota Kotamobagu",SULAWESI UTARA,95716,Indonesia,,,,0.7394923,1.243.204.101,https://maps.google.com/?cid=0x0:0x412dd7b9a78e71ac,
cafe,Kedai Kopi,Point Coffee,"P8V7+QJQ, Kotamobagu, Kec. Kotamobagu Bar., Kota Kotamobagu, Sulawesi Utara","Kota Kotamobagu, Sulawesi Utara",SULAWESI UTARA,,Indonesia,211500280.0,,,0.7444685,1.243.141.038,https://maps.google.com/?cid=0x0:0x907c657c3e127cc3,
cafe,Kafe,Cokelat Cafe,"P8M2+JXG, Mogolaing, Kec. Kotamobagu Bar., Kota Kotamobagu, Sulawesi Utara 95716","Mogolaing, Kec. Kotamobagu Bar., Kota Kotamobagu",SULAWESI UTARA,95716,Indonesia,81240598884.0,,,0.734063,1.243.024.398,https://maps.google.com/?cid=0x0:0x7cfb04d3c2bb2efb,
cafe,Kafe,Login Coffee  Eatery,"Jl. Merdeka, Mogolaing, Kec. Kotamobagu Bar., Kota Kotamobagu, Sulawesi Utara 95716","Mogolaing, Kec. Kotamobagu Bar., Kota Kotamobagu",SULAWESI UTARA,95716,Indonesia,895329002353.0,,,0.7263932,1.243.052.292,https://maps.google.com/?cid=0x0:0x89d4261625d9535e,
cafe,Restoran,Kedai Kampoeng Bogani,"P8F5+JXV, Matali, Kec. Kotamobagu Tim., Kota Kotamobagu, Sulawesi Utara","Kota Kotamobagu, Sulawesi Utara",SULAWESI UTARA,,Indonesia,4342624102.0,,,0.7241064,1.243.099.081,https://maps.google.com/?cid=0x0:0xc31b033830843db9,
cafe,Kedai Hidangan Penutup,Cooler City Kotamobagu,"Jl. Ahmad Yani No.317, Gogagoman, Kec. Kotamobagu Bar., Kota Kotamobagu, Sulawesi Utara 95711","Gogagoman, Kec. Kotamobagu Bar., Kota Kotamobagu",SULAWESI UTARA,95711,Indonesia,82196825386.0,,,0.740018,1.243.106.072,https://maps.google.com/?cid=0x0:0x3ae5cceec9dcbde7,
cafe,Kafe,Cafe Kusu Kusu Kotamobagu,"Jl. Yusuf Hasiru No.15, Kotabangon, Kec. Kotamobagu Tim., Kota Kotamobagu, Sulawesi Utara 95716","Kotabangon, Kec. Kotamobagu Tim., Kota Kotamobagu",SULAWESI UTARA,95716,Indonesia,85240350000.0,,,0.7397037,1.243.198.954,https://maps.google.com/?cid=0x0:0x17bec086ddd2bde0,
cafe,Kafe,200 Meters x chotaffeeiin,"P8V3+XVC, Jl. Soeprapto, Gogagoman, Kec. Kotamobagu Bar., Kota Kotamobagu, Sulawesi Utara","Kota Kotamobagu, Sulawesi Utara",SULAWESI UTARA,,Indonesia,85298831803.0,,,0.744938,1.243.046.557,https://maps.google.com/?cid=0x0:0xde424982f7af5f79,
cafe,BBQ,A.A GRILL  CAFE,"Jl. Jhoni Suhodo, Kotabangon, Kec. Kotamobagu Tim., Kota Kotamobagu, Sulawesi Utara 95716","Kotabangon, Kec. Kotamobagu Tim., Kota Kotamobagu",SULAWESI UTARA,95716,Indonesia,,,,0.7379327,1.243.197.446,https://maps.google.com/?cid=0x0:0x3b1806e981bd8b38,
cafe,Kafe,Kedai Kopi Red Corner Kotamobagu,"Jl. Hi. Zakaria Imban, Molinow, Kec. Kotamobagu Bar., Kota Kotamobagu, Sulawesi Utara 95716","Molinow, Kec. Kotamobagu Bar., Kota Kotamobagu",SULAWESI UTARA,95716,Indonesia,82193124800.0,,,0.7266315,1.242.933.702,https://maps.google.com/?cid=0x0:0xda3f3f4fc8c62241,
cafe,Kafe,Cafe Bagus Motoboi Kecil,"P7GX+G28, Motoboi Kecil, Kec. Kotamobagu Sel., Kota Kotamobagu, Sulawesi Utara 95711","Motoboi Kecil, Kec. Kotamobagu Sel., Kota Kotamobagu",SULAWESI UTARA,95711,Indonesia,81340064488.0,,,0.726284,124.297.566,https://maps.google.com/?cid=0x0:0x627ea16809e164b8,
cafe,Kafe,BIJIMERA COFFEE  ROASTERY,"P8Q9+544, Kotabangon, Kec. Kotamobagu Tim., Kota Kotamobagu, Sulawesi Utara 95716","Kotabangon, Kec. Kotamobagu Tim., Kota Kotamobagu",SULAWESI UTARA,95716,Indonesia,8114343436.0,,,0.7379,1.243.178.253,https://maps.google.com/?cid=0x0:0xcdf2e66da8fe233b,
cafe,Kafe,Dangas Kotamobagu,"P7JX+PRR, Jl. Adampe Dolot, Molinow, Kec. Kotamobagu Bar., Kota Kotamobagu, Sulawesi Utara","Kota Kotamobagu, Sulawesi Utara",SULAWESI UTARA,,Indonesia,85244630123.0,,,0.7318586,1.242.995.018,https://maps.google.com/?cid=0x0:0xde640d82bdd30838,
cafe,Kantor Pemerintah,Bappelitbangda,"P8P2+2P8, Jl. Kampus, Mogolaing, Kec. Kotamobagu Bar., Kota Kotamobagu, Sulawesi Utara 95716","Jl. Kampus, Mogolaing, Kec. Kotamobagu Bar., Kota Kotamobagu",SULAWESI UTARA,95716,Indonesia,,,,0.7350406,1.243.018.383,https://maps.google.com/?cid=0x0:0x75b958becabf36e0,
cafe,Kedai Kopi,Ruang Coffee,"Jl. Amal, Mogolaing, Kec. Kotamobagu Bar., Kota Kotamobagu, Sulawesi Utara 95716","Mogolaing, Kec. Kotamobagu Bar., Kota Kotamobagu",SULAWESI UTARA,95716,Indonesia,8114330031.0,,,0.7299448,1.243.027.983,https://maps.google.com/?cid=0x0:0x96dd361fbb12583a,
cafe,Kedai Kopi,EL COFFEE - Kotamobagu,"Jl. Amal, Mogolaing, Kec. Kotamobagu Bar., Kota Kotamobagu, Sulawesi Utara 95715","Mogolaing, Kec. Kotamobagu Bar., Kota Kotamobagu",SULAWESI UTARA,95715,Indonesia,82192365086.0,,,0.73241,1.243.032.023,https://maps.google.com/?cid=0x0:0x6416a59e07c895c6,
cafe,Kafe,Sudut Mojago,"P8V7+36G, Kotamobagu, Kec. Kotamobagu Bar., Kota Kotamobagu, Sulawesi Utara","Kota Kotamobagu, Sulawesi Utara",SULAWESI UTARA,,Indonesia,85256827676.0,,,0.7426918,1.243.130.708,https://maps.google.com/?cid=0x0:0xb531479bf51452eb,
cafe,Kedai Kopi,SAGOL COFFEE,"P8RC+J83, Kotabangon, Kec. Kotamobagu Tim., Kota Kotamobagu, Sulawesi Utara","Kota Kotamobagu, Sulawesi Utara",SULAWESI UTARA,,Indonesia,,,,0.7415069,1.243.207.958,https://maps.google.com/?cid=0x0:0x334caf569d6f31b6,
cafe,Kedai Kopi,Foodsal Kotamobagu,"Kotabangon, Kec. Kotamobagu Tim., Kota Kotamobagu, Sulawesi Utara","Kota Kotamobagu, Sulawesi Utara",SULAWESI UTARA,,Indonesia,82293625614.0,,,0.7327072,1.243.229.876,https://maps.google.com/?cid=0x0:0x3b2a85ee274634f2,
cafe,Kafe,Kata Kopi Kotamobagu,"Jl. Ahmad Yani No.317, Kotamobagu, Kec. Kotamobagu Bar., Kota Kotamobagu, Sulawesi Utara 95716","Kotamobagu, Kec. Kotamobagu Bar., Kota Kotamobagu",SULAWESI UTARA,95716,Indonesia,85299181994.0,,,0.740018,1.243.106.072,https://maps.google.com/?cid=0x0:0xfba73c6acf59244d,
cafe,Kedai Kopi,MAW JUICE CAFE,"Jl. Agoan No.64, Kotamobagu, Kec. Kotamobagu Bar., Kota Kotamobagu, Sulawesi Utara","Kota Kotamobagu, Sulawesi Utara",SULAWESI UTARA,,Indonesia,87890427447.0,,,0.7403923,1.243.131.527,https://maps.google.com/?cid=0x0:0xcba8329679416e73,
cafe,cafe,Sulawesi Utara 95716,"Mogolaing, Kec. Kotamobagu Bar., Kota Kotamobagu, Sulawesi Utara","Kota Kotamobagu, Sulawesi Utara",SULAWESI UTARA,,Indonesia,,,,0.7331339,1.243.035.249,https://maps.google.com/?cid=0x0:0xb303343be4233a,
cafe,Kafe,Cafe Classic,"P8J3+35V, Mogolaing, Kec. Kotamobagu Bar., Kota Kotamobagu, Sulawesi Utara","Kota Kotamobagu, Sulawesi Utara",SULAWESI UTARA,,Indonesia,,,,0.7302448,1.243.029.118,https://maps.google.com/?cid=0x0:0x737870869d2dd96a,
cafe,Kedai Kopi,CAFE 21,"Jl. S Parman No.21, Kotamobagu, Kec. Kotamobagu Bar., Kota Kotamobagu, Sulawesi Utara 95716","Kotamobagu, Kec. Kotamobagu Bar., Kota Kotamobagu",SULAWESI UTARA,95716,Indonesia,81275343443.0,,,0.7412956,1.243.148.882,https://maps.google.com/?cid=0x0:0xa5fdfbfab74ded2c,
cafe,Kafe,Bangi Cafe Kotamobagu,"Jl. Adampe Dolot No.22, Mogolaing, Kec. Kotamobagu Bar., Kota Kotamobagu, Sulawesi Utara 95716","Mogolaing, Kec. Kotamobagu Bar., Kota Kotamobagu",SULAWESI UTARA,95716,Indonesia,,,,0.7384627,1.243.086.649,https://maps.google.com/?cid=0x0:0x92d620af5988c08d,
cafe,Kedai Kopi,Mve.coffee,"P8C6+VCH, Jl. Teuku Umar, Matali, Kec. Kotamobagu Tim., Kota Kotamobagu, Sulawesi Utara 95716","Jl. Teuku Umar, Matali, Kec. Kotamobagu Tim., Kota Kotamobagu",SULAWESI UTARA,95716,Indonesia,88804718200.0,,,0.722286,1.243.110.494,https://maps.google.com/?cid=0x0:0x52e0ee265da69858,
cafe,Kafe,Cafe Bagus Motoboi Kecil,"P7GX+G28, Motoboi Kecil, Kec. Kotamobagu Sel., Kota Kotamobagu, Sulawesi Utara 95711","Motoboi Kecil, Kec. Kotamobagu Sel., Kota Kotamobagu",SULAWESI UTARA,95711,Indonesia,81340064488.0,,,0.726284,124.297.566,https://maps.google.com/?cid=0x0:0x627ea16809e164b8,
cafe,Kafe,Login Coffee  Eatery,"Jl. Merdeka, Mogolaing, Kec. Kotamobagu Bar., Kota Kotamobagu, Sulawesi Utara 95716","Mogolaing, Kec. Kotamobagu Bar., Kota Kotamobagu",SULAWESI UTARA,95716,Indonesia,895329002353.0,,,0.7263932,1.243.052.292,https://maps.google.com/?cid=0x0:0x89d4261625d9535e,
cafe,Brunch,Tepi Jalan Kotamobagu,"P8C5+FGP, Jl. DC. Manoppo, Matali, Kec. Kotamobagu Tim., Kota Kotamobagu, Sulawesi Utara 95716","Jl. DC. Manoppo, Matali, Kec. Kotamobagu Tim., Kota Kotamobagu",SULAWESI UTARA,95716,Indonesia,82293155084.0,,,0.7212185,1.243.088.378,https://maps.google.com/?cid=0x0:0x2d40a1bcc1881f71,
cafe,Kedai Kopi,Ruang Coffee,"Jl. Amal, Mogolaing, Kec. Kotamobagu Bar., Kota Kotamobagu, Sulawesi Utara 95716","Mogolaing, Kec. Kotamobagu Bar., Kota Kotamobagu",SULAWESI UTARA,95716,Indonesia,8114330031.0,,,0.7299448,1.243.027.983,https://maps.google.com/?cid=0x0:0x96dd361fbb12583a,
cafe,Restoran,Chotaffeein Coffee Shop,"P8QC+Q5V, Kotabangon, Kec. Kotamobagu Tim., Kota Kotamobagu, Sulawesi Utara 95716","Kotabangon, Kec. Kotamobagu Tim., Kota Kotamobagu",SULAWESI UTARA,95716,Indonesia,,,,0.7394923,1.243.204.101,https://maps.google.com/?cid=0x0:0x412dd7b9a78e71ac,
cafe,Restoran,Kedai Kampoeng Bogani,"P8F5+JXV, Matali, Kec. Kotamobagu Tim., Kota Kotamobagu, Sulawesi Utara","Kota Kotamobagu, Sulawesi Utara",SULAWESI UTARA,,Indonesia,4342624102.0,,,0.7241064,1.243.099.081,https://maps.google.com/?cid=0x0:0xc31b033830843db9,
cafe,Kafe,Kopi KOROT  FOOD KOROT,"P8M9+9X3, Kotabangon, Kec. Kotamobagu Tim., Kota Kotamobagu, Sulawesi Utara 95716","Kotabangon, Kec. Kotamobagu Tim., Kota Kotamobagu",SULAWESI UTARA,95716,Indonesia,,,,0.7333962,1.243.199.231,https://maps.google.com/?cid=0x0:0x28500c5b99726ca3,
cafe,Kafe,Kedai Kopi Red Corner Kotamobagu,"Jl. Hi. Zakaria Imban, Molinow, Kec. Kotamobagu Bar., Kota Kotamobagu, Sulawesi Utara 95716","Molinow, Kec. Kotamobagu Bar., Kota Kotamobagu",SULAWESI UTARA,95716,Indonesia,82193124800.0,,,0.7266315,1.242.933.702,https://maps.google.com/?cid=0x0:0xda3f3f4fc8c62241,
cafe,Kafe,Coffee Town,"P8M9+MCH, Jl. Paloko Kinalang, Kotabangon, Kec. Kotamobagu Tim., Kota Kotamobagu, Sulawesi Utara 95716","Jl. Paloko Kinalang, Kotabangon, Kec. Kotamobagu Tim., Kota Kotamobagu",SULAWESI UTARA,95716,Indonesia,81356515354.0,,,0.73418,1.243.186.189,https://maps.google.com/?cid=0x0:0xef48c767e306ec2d,
cafe,Kafe,200 Meters x chotaffeeiin,"P8V3+XVC, Jl. Soeprapto, Gogagoman, Kec. Kotamobagu Bar., Kota Kotamobagu, Sulawesi Utara","Kota Kotamobagu, Sulawesi Utara",SULAWESI UTARA,,Indonesia,85298831803.0,,,0.744938,1.243.046.557,https://maps.google.com/?cid=0x0:0xde424982f7af5f79,
cafe,Kafe,Cafe Kusu Kusu Kotamobagu,"Jl. Yusuf Hasiru No.15, Kotabangon, Kec. Kotamobagu Tim., Kota Kotamobagu, Sulawesi Utara 95716","Kotabangon, Kec. Kotamobagu Tim., Kota Kotamobagu",SULAWESI UTARA,95716,Indonesia,85240350000.0,,,0.7397037,1.243.198.954,https://maps.google.com/?cid=0x0:0x17bec086ddd2bde0,
cafe,Restoran,Strawberry Cafe  Resto,"P8GF+FMG, Jl. Siliwangi, Tumobuy, Kec. Kotamobagu Tim., Kota Kotamobagu, Sulawesi Utara 95716","Jl. Siliwangi, Tumobuy, Kec. Kotamobagu Tim., Kota Kotamobagu",SULAWESI UTARA,95716,Indonesia,81340475335.0,,,0.7261999,1.243.241.948,https://maps.google.com/?cid=0x0:0x1f481c9bf171fb2d,
cafe,Kafe,Cafe Berlayar,"P8M5+79C, Jl. BBI, Mogolaing, Kec. Kotamobagu Bar., Kota Kotamobagu, Sulawesi Utara","Kota Kotamobagu, Sulawesi Utara",SULAWESI UTARA,,Indonesia,,,,0.7331944,124.308.404,https://maps.google.com/?cid=0x0:0x6287e3268381bcf1,
cafe,Kafe,BIJIMERA COFFEE  ROASTERY,"P8Q9+544, Kotabangon, Kec. Kotamobagu Tim., Kota Kotamobagu, Sulawesi Utara 95716","Kotabangon, Kec. Kotamobagu Tim., Kota Kotamobagu",SULAWESI UTARA,95716,Indonesia,8114343436.0,,,0.7379,1.243.178.253,https://maps.google.com/?cid=0x0:0xcdf2e66da8fe233b,
cafe,Kedai Kopi,Kedai Kita Kotamobagu,"P8P5+H2W, Unnamed Road, Mogolaing, Kec. Kotamobagu Bar., Kota Kotamobagu, Sulawesi Utara 95716","Unnamed Road, Mogolaing, Kec. Kotamobagu Bar., Kota Kotamobagu",SULAWESI UTARA,95716,Indonesia,82233332007.0,,,0.7364949,124.307.569,https://maps.google.com/?cid=0x0:0x6f54d3d2043a59d5,
cafe,Kedai Kopi,EL COFFEE - Kotamobagu,"Jl. Amal, Mogolaing, Kec. Kotamobagu Bar., Kota Kotamobagu, Sulawesi Utara 95715","Mogolaing, Kec. Kotamobagu Bar., Kota Kotamobagu",SULAWESI UTARA,95715,Indonesia,82192365086.0,,,0.73241,1.243.032.023,https://maps.google.com/?cid=0x0:0x6416a59e07c895c6,
cafe,cafe,Kec. Kotamobagu Bar.,"Kota Kotamobagu, Sulawesi Utara","Kota Kotamobagu, Sulawesi Utara",SULAWESI UTARA,,Indonesia,,,,0.7429438,1.243.085.124,https://maps.google.com/?cid=0x0:0x68204053ca066af1,
cafe,Kedai Kopi,Putri Dewi Cafe,"Motoboi Kecil, Kec. Kotamobagu Sel., Kota Kotamobagu, Sulawesi Utara 95716","Kec. Kotamobagu Sel., Kota Kotamobagu",SULAWESI UTARA,95716,Indonesia,81340566464.0,,,0.7265916,124.301.655,https://maps.google.com/?cid=0x0:0x5be9794ca18ceb45,
cafe,Kafe,Eldian Coffee  Public Bar,"Jl. Hi. Zakaria Imban, Molinow, Kec. Kotamobagu Bar., Kota Kotamobagu, Sulawesi Utara 95716","Molinow, Kec. Kotamobagu Bar., Kota Kotamobagu",SULAWESI UTARA,95716,Indonesia,895396397796.0,,,0.7267094,1.242.938.181,https://maps.google.com/?cid=0x0:0x84c66d8665022fe6,
cafe,cafe,Kec. Kotamobagu Sel.,"Kota Kotamobagu, Sulawesi Utara","Kota Kotamobagu, Sulawesi Utara",SULAWESI UTARA,,Indonesia,,,,0.7240463,124.293.299,https://maps.google.com/?cid=0x0:0x270b5a3d87842fb7,
cafe,cafe,Tower Coffee Space,"Jl, Bungko, Kec. Kotamobagu Sel., Kota Kotamobagu, Sulawesi Utara 95717","Bungko, Kec. Kotamobagu Sel., Kota Kotamobagu",SULAWESI UTARA,95717,Indonesia,,,,0.7012241,1.243.021.154,https://maps.google.com/?cid=0x0:0x58144dd94a1d00ba,
cafe,Kedai Kopi,Putri Dewi Cafe,"Motoboi Kecil, Kec. Kotamobagu Sel., Kota Kotamobagu, Sulawesi Utara 95716","Kec. Kotamobagu Sel., Kota Kotamobagu",SULAWESI UTARA,95716,Indonesia,81340566464.0,,,0.7265916,124.301.655,https://maps.google.com/?cid=0x0:0x5be9794ca18ceb45,
cafe,Restoran,Kedai Kampoeng Bogani,"P8F5+JXV, Matali, Kec. Kotamobagu Tim., Kota Kotamobagu, Sulawesi Utara","Kota Kotamobagu, Sulawesi Utara",SULAWESI UTARA,,Indonesia,4342624102.0,,,0.7241064,1.243.099.081,https://maps.google.com/?cid=0x0:0xc31b033830843db9,
cafe,Kedai Kopi,CAFE 21,"Jl. S Parman No.21, Kotamobagu, Kec. Kotamobagu Bar., Kota Kotamobagu, Sulawesi Utara 95716","Kotamobagu, Kec. Kotamobagu Bar., Kota Kotamobagu",SULAWESI UTARA,95716,Indonesia,81275343443.0,,,0.7412956,1.243.148.882,https://maps.google.com/?cid=0x0:0xa5fdfbfab74ded2c,
cafe,Kafe,D' Sabua Cafe,"P882+P3Q, Motoboi Kecil, Kec. Kotamobagu Sel., Kota Kotamobagu, Sulawesi Utara","Kota Kotamobagu, Sulawesi Utara",SULAWESI UTARA,,Indonesia,,,,0.7168369,1.243.002.327,https://maps.google.com/?cid=0x0:0xc5491a2f389f648d,
cafe,Kafe,Cafe Bagus Motoboi Kecil,"P7GX+G28, Motoboi Kecil, Kec. Kotamobagu Sel., Kota Kotamobagu, Sulawesi Utara 95711","Motoboi Kecil, Kec. Kotamobagu Sel., Kota Kotamobagu",SULAWESI UTARA,95711,Indonesia,81340064488.0,,,0.726284,124.297.566,https://maps.google.com/?cid=0x0:0x627ea16809e164b8,
cafe,Kedai Kopi,Viskoz Coffee,"Jl. DC. Manoppo, RT.7/RW.04, Pobundayan, Kec. Kotamobagu Sel., Kota Kotamobagu, Sulawesi Utara 95717","RT.7/RW.04, Pobundayan, Kec. Kotamobagu Sel., Kota Kotamobagu",SULAWESI UTARA,95717,Indonesia,85256717456.0,,,0.7112703,1.243.041.428,https://maps.google.com/?cid=0x0:0x3ca0fa7e0f878be6,
cafe,Kafe,Cafe Rainbow,"P8H5+98R, jl. lintas, Sinindian, Kec. Kotamobagu Tim., Kota Kotamobagu, Sulawesi Utara 95716","jl. lintas, Sinindian, Kec. Kotamobagu Tim., Kota Kotamobagu",SULAWESI UTARA,95716,Indonesia,,,,0.7284933,1.243.082.543,https://maps.google.com/?cid=0x0:0xdd81ad36f6cca8f4,
cafe,Kafe,Cafe Berlayar,"P8M5+79C, Jl. BBI, Mogolaing, Kec. Kotamobagu Bar., Kota Kotamobagu, Sulawesi Utara","Kota Kotamobagu, Sulawesi Utara",SULAWESI UTARA,,Indonesia,,,,0.7331944,124.308.404,https://maps.google.com/?cid=0x0:0x6287e3268381bcf1,
cafe,Kafe,Kedai Kopi Red Corner Kotamobagu,"Jl. Hi. Zakaria Imban, Molinow, Kec. Kotamobagu Bar., Kota Kotamobagu, Sulawesi Utara 95716","Molinow, Kec. Kotamobagu Bar., Kota Kotamobagu",SULAWESI UTARA,95716,Indonesia,82193124800.0,,,0.7266315,1.242.933.702,https://maps.google.com/?cid=0x0:0xda3f3f4fc8c62241,
cafe,Kafe,Bangi Cafe Kotamobagu,"Jl. Adampe Dolot No.22, Mogolaing, Kec. Kotamobagu Bar., Kota Kotamobagu, Sulawesi Utara 95716","Mogolaing, Kec. Kotamobagu Bar., Kota Kotamobagu",SULAWESI UTARA,95716,Indonesia,,,,0.7384627,1.243.086.649,https://maps.google.com/?cid=0x0:0x92d620af5988c08d,
cafe,Brunch,Tepi Jalan Kotamobagu,"P8C5+FGP, Jl. DC. Manoppo, Matali, Kec. Kotamobagu Tim., Kota Kotamobagu, Sulawesi Utara 95716","Jl. DC. Manoppo, Matali, Kec. Kotamobagu Tim., Kota Kotamobagu",SULAWESI UTARA,95716,Indonesia,82293155084.0,,,0.7212185,1.243.088.378,https://maps.google.com/?cid=0x0:0x2d40a1bcc1881f71,
cafe,Kedai Kopi,Rivs Coffee,"P8G2+6PV, Jl. Veteran, Motoboi Kecil, Kec. Kotamobagu Sel., Kota Kotamobagu, Sulawesi Utara","Kota Kotamobagu, Sulawesi Utara",SULAWESI UTARA,,Indonesia,,,,0.7256197,1.243.018.011,https://maps.google.com/?cid=0x0:0x95ab982ae2f81090,
cafe,Kafe,BIJIMERA COFFEE  ROASTERY,"P8Q9+544, Kotabangon, Kec. Kotamobagu Tim., Kota Kotamobagu, Sulawesi Utara 95716","Kotabangon, Kec. Kotamobagu Tim., Kota Kotamobagu",SULAWESI UTARA,95716,Indonesia,8114343436.0,,,0.7379,1.243.178.253,https://maps.google.com/?cid=0x0:0xcdf2e66da8fe233b,
cafe,Kedai Kopi,Cafe Padepokan,"P8G6+QM2, Unnamed Road, Matali, Kec. Kotamobagu Tim., Kota Kotamobagu, Sulawesi Utara 95716","Unnamed Road, Matali, Kec. Kotamobagu Tim., Kota Kotamobagu",SULAWESI UTARA,95716,Indonesia,4342604487.0,,,0.7268979,1.243.116.275,https://maps.google.com/?cid=0x0:0xbd1bf9875e9231df,
cafe,Kafe,Cafe Classic,"P8J3+35V, Mogolaing, Kec. Kotamobagu Bar., Kota Kotamobagu, Sulawesi Utara","Kota Kotamobagu, Sulawesi Utara",SULAWESI UTARA,,Indonesia,,,,0.7302448,1.243.029.118,https://maps.google.com/?cid=0x0:0x737870869d2dd96a,
cafe,Kedai Kopi,KOPI NONGKRONG,"P7CR+4H9, Poyowa Kecil, Kec. Kotamobagu Sel., Kota Kotamobagu, Sulawesi Utara","Kota Kotamobagu, Sulawesi Utara",SULAWESI UTARA,,Indonesia,,,,0.7202772,1.242.914.827,https://maps.google.com/?cid=0x0:0x657263b408929cf5,
cafe,Kafe,Eldian Coffee  Public Bar,"Jl. Hi. Zakaria Imban, Molinow, Kec. Kotamobagu Bar., Kota Kotamobagu, Sulawesi Utara 95716","Molinow, Kec. Kotamobagu Bar., Kota Kotamobagu",SULAWESI UTARA,95716,Indonesia,895396397796.0,,,0.7267094,1.242.938.181,https://maps.google.com/?cid=0x0:0x84c66d8665022fe6,
cafe,Kedai Kopi,Ruang Coffee,"Jl. Amal, Mogolaing, Kec. Kotamobagu Bar., Kota Kotamobagu, Sulawesi Utara 95716","Mogolaing, Kec. Kotamobagu Bar., Kota Kotamobagu",SULAWESI UTARA,95716,Indonesia,8114330031.0,,,0.7299448,1.243.027.983,https://maps.google.com/?cid=0x0:0x96dd361fbb12583a,
cafe,Kafe,200 Meters x chotaffeeiin,"P8V3+XVC, Jl. Soeprapto, Gogagoman, Kec. Kotamobagu Bar., Kota Kotamobagu, Sulawesi Utara","Kota Kotamobagu, Sulawesi Utara",SULAWESI UTARA,,Indonesia,85298831803.0,,,0.744938,1.243.046.557,https://maps.google.com/?cid=0x0:0xde424982f7af5f79,
cafe,Kedai Kopi,Kedai Kampung Mocil,"Motoboi Kecil, Kec. Kotamobagu Sel., Kota Kotamobagu, Sulawesi Utara 95717","Kec. Kotamobagu Sel., Kota Kotamobagu",SULAWESI UTARA,95717,Indonesia,81524733112.0,,,0.7220195,1.242.986.703,https://maps.google.com/?cid=0x0:0x5a97ac4ba9c8a595,
cafe,Kafe,Cafe Tamang Bae,"P864+336, Pobundayan, Kec. Kotamobagu Sel., Kota Kotamobagu, Sulawesi Utara","Kota Kotamobagu, Sulawesi Utara",SULAWESI UTARA,,Indonesia,,,,0.7101642,1.243.051.456,https://maps.google.com/?cid=0x0:0xc22b151ed2e12ee0,
cafe,Kedai Kopi,Warong Kopi Binangoan,"Poyowa Besar I, Kec. Kotamobagu Sel., Kota Kotamobagu, Sulawesi Utara","Kota Kotamobagu, Sulawesi Utara",SULAWESI UTARA,,Indonesia,895393004188.0,,,0.7095143,1.243.242.046,https://maps.google.com/?cid=0x0:0xe9324362b97e2f7a,
cafe,Toko Makanan,D'Pancakes,"P79R+VM2, Poyowa Kecil, Kec. Kotamobagu Sel., Kota Kotamobagu, Sulawesi Utara 95716","Poyowa Kecil, Kec. Kotamobagu Sel., Kota Kotamobagu",SULAWESI UTARA,95716,Indonesia,82346868631.0,,,0.7196303,1.242.916.536,https://maps.google.com/?cid=0x0:0x36e1653bc901b2c4,
cafe,Kedai Kopi,Barter coffee,"Barter coffee, Jl.D.C Manoppo, Pobundayan, Kec. Kotamobagu Sel., Kota Kotamobagu, Sulawesi Utara 95717","Jl.D.C Manoppo, Pobundayan, Kec. Kotamobagu Sel., Kota Kotamobagu",SULAWESI UTARA,95717,Indonesia,82296193639.0,,,0.7185617,1.243.072.815,https://maps.google.com/?cid=0x0:0x4af657efda4b1c7c,
cafe,Restoran,sq restoran,"P8G2+FP2, Jl. Veteran, Motoboi Kecil, Kec. Kotamobagu Sel., Kota Kotamobagu, Sulawesi Utara 95716","Jl. Veteran, Motoboi Kecil, Kec. Kotamobagu Sel., Kota Kotamobagu",SULAWESI UTARA,95716,Indonesia,85298265831.0,,,0.7261447,1.243.017.581,https://maps.google.com/?cid=0x0:0x1796cbda429a9cb8,
cafe,Rumah Makan,Cafe  Resto Dapoer Nikita,"Jl. Veteran, Motoboi Kecil, Kec. Kotamobagu Sel., Kota Kotamobagu, Sulawesi Utara 95717","Motoboi Kecil, Kec. Kotamobagu Sel., Kota Kotamobagu",SULAWESI UTARA,95717,Indonesia,81543204105.0,,,0.7253216,1.243.024.756,https://maps.google.com/?cid=0x0:0x90e9642fdcefc1a,
cafe,Dapur Umum,Kantin AYU,"P78V+22G, Poyowa Kecil, Kec. Kotamobagu Sel., Kota Kotamobagu, Sulawesi Utara","Kota Kotamobagu, Sulawesi Utara",SULAWESI UTARA,,Indonesia,82146576735.0,,,0.7150657,12.429.258,https://maps.google.com/?cid=0x0:0x1251626f944663cc,
cafe,cafe,Kec. Kotamobagu Tim.,"Kota Kotamobagu, Sulawesi Utara","Kota Kotamobagu, Sulawesi Utara",SULAWESI UTARA,,Indonesia,,,,0.7377324,1.243.224.496,https://maps.google.com/?cid=0x0:0xf276a13be322dc46,
cafe,Kafe,Bangi Cafe Kotamobagu,"Jl. Adampe Dolot No.22, Mogolaing, Kec. Kotamobagu Bar., Kota Kotamobagu, Sulawesi Utara 95716","Mogolaing, Kec. Kotamobagu Bar., Kota Kotamobagu",SULAWESI UTARA,95716,Indonesia,,,,0.7384627,1.243.086.649,https://maps.google.com/?cid=0x0:0x92d620af5988c08d,
cafe,Restoran,Kedai Kampoeng Bogani,"P8F5+JXV, Matali, Kec. Kotamobagu Tim., Kota Kotamobagu, Sulawesi Utara","Kota Kotamobagu, Sulawesi Utara",SULAWESI UTARA,,Indonesia,4342624102.0,,,0.7241064,1.243.099.081,https://maps.google.com/?cid=0x0:0xc31b033830843db9,
cafe,Kedai Kopi,CAFE 21,"Jl. S Parman No.21, Kotamobagu, Kec. Kotamobagu Bar., Kota Kotamobagu, Sulawesi Utara 95716","Kotamobagu, Kec. Kotamobagu Bar., Kota Kotamobagu",SULAWESI UTARA,95716,Indonesia,81275343443.0,,,0.7412956,1.243.148.882,https://maps.google.com/?cid=0x0:0xa5fdfbfab74ded2c,
cafe,Kafe,Login Coffee  Eatery,"Jl. Merdeka, Mogolaing, Kec. Kotamobagu Bar., Kota Kotamobagu, Sulawesi Utara 95716","Mogolaing, Kec. Kotamobagu Bar., Kota Kotamobagu",SULAWESI UTARA,95716,Indonesia,895329002353.0,,,0.7263932,1.243.052.292,https://maps.google.com/?cid=0x0:0x89d4261625d9535e,
cafe,Kafe,BIJIMERA COFFEE  ROASTERY,"P8Q9+544, Kotabangon, Kec. Kotamobagu Tim., Kota Kotamobagu, Sulawesi Utara 95716","Kotabangon, Kec. Kotamobagu Tim., Kota Kotamobagu",SULAWESI UTARA,95716,Indonesia,8114343436.0,,,0.7379,1.243.178.253,https://maps.google.com/?cid=0x0:0xcdf2e66da8fe233b,
cafe,Kafe,Kopi KOROT  FOOD KOROT,"P8M9+9X3, Kotabangon, Kec. Kotamobagu Tim., Kota Kotamobagu, Sulawesi Utara 95716","Kotabangon, Kec. Kotamobagu Tim., Kota Kotamobagu",SULAWESI UTARA,95716,Indonesia,,,,0.7333962,1.243.199.231,https://maps.google.com/?cid=0x0:0x28500c5b99726ca3,
cafe,Kafe,TETES KAFEIN,"Jl. Siliwangi, Kotabangon, Kec. Kotamobagu Tim., Kota Kotamobagu, Sulawesi Utara","Kota Kotamobagu, Sulawesi Utara",SULAWESI UTARA,,Indonesia,89653001278.0,,,0.7356966,1.243.226.127,https://maps.google.com/?cid=0x0:0xb74b53977ad53ab,
cafe,Brunch,Tepi Jalan Kotamobagu,"P8C5+FGP, Jl. DC. Manoppo, Matali, Kec. Kotamobagu Tim., Kota Kotamobagu, Sulawesi Utara 95716","Jl. DC. Manoppo, Matali, Kec. Kotamobagu Tim., Kota Kotamobagu",SULAWESI UTARA,95716,Indonesia,82293155084.0,,,0.7212185,1.243.088.378,https://maps.google.com/?cid=0x0:0x2d40a1bcc1881f71,
cafe,Kafe,Cafe Bagus Motoboi Kecil,"P7GX+G28, Motoboi Kecil, Kec. Kotamobagu Sel., Kota Kotamobagu, Sulawesi Utara 95711","Motoboi Kecil, Kec. Kotamobagu Sel., Kota Kotamobagu",SULAWESI UTARA,95711,Indonesia,81340064488.0,,,0.726284,124.297.566,https://maps.google.com/?cid=0x0:0x627ea16809e164b8,
cafe,Kedai Kopi,Point Coffee,"P8V7+QJQ, Kotamobagu, Kec. Kotamobagu Bar., Kota Kotamobagu, Sulawesi Utara","Kota Kotamobagu, Sulawesi Utara",SULAWESI UTARA,,Indonesia,211500280.0,,,0.7444685,1.243.141.038,https://maps.google.com/?cid=0x0:0x907c657c3e127cc3,
cafe,Kafe,Cafe Berlayar,"P8M5+79C, Jl. BBI, Mogolaing, Kec. Kotamobagu Bar., Kota Kotamobagu, Sulawesi Utara","Kota Kotamobagu, Sulawesi Utara",SULAWESI UTARA,,Indonesia,,,,0.7331944,124.308.404,https://maps.google.com/?cid=0x0:0x6287e3268381bcf1,
cafe,BBQ,A.A GRILL  CAFE,"Jl. Jhoni Suhodo, Kotabangon, Kec. Kotamobagu Tim., Kota Kotamobagu, Sulawesi Utara 95716","Kotabangon, Kec. Kotamobagu Tim., Kota Kotamobagu",SULAWESI UTARA,95716,Indonesia,,,,0.7379327,1.243.197.446,https://maps.google.com/?cid=0x0:0x3b1806e981bd8b38,
cafe,Kafe,Cafe Kusu Kusu Kotamobagu,"Jl. Yusuf Hasiru No.15, Kotabangon, Kec. Kotamobagu Tim., Kota Kotamobagu, Sulawesi Utara 95716","Kotabangon, Kec. Kotamobagu Tim., Kota Kotamobagu",SULAWESI UTARA,95716,Indonesia,85240350000.0,,,0.7397037,1.243.198.954,https://maps.google.com/?cid=0x0:0x17bec086ddd2bde0,
cafe,Kafe,JAROD REBORN,"Jl. Merdeka, Matali, Kec. Kotamobagu Tim., Kota Kotamobagu, Sulawesi Utara","Kota Kotamobagu, Sulawesi Utara",SULAWESI UTARA,,Indonesia,81343949707.0,,,0.7256002,1.243.070.366,https://maps.google.com/?cid=0x0:0x3639b1e9e1587154,
cafe,Kedai Kopi,Cafe Padepokan,"P8G6+QM2, Unnamed Road, Matali, Kec. Kotamobagu Tim., Kota Kotamobagu, Sulawesi Utara 95716","Unnamed Road, Matali, Kec. Kotamobagu Tim., Kota Kotamobagu",SULAWESI UTARA,95716,Indonesia,4342604487.0,,,0.7268979,1.243.116.275,https://maps.google.com/?cid=0x0:0xbd1bf9875e9231df,
cafe,Kedai Kopi,kotobangon ID,"Jl. Kolonel Sugiono, Kotabangon, Kec. Kotamobagu Tim., Kota Kotamobagu, Sulawesi Utara","Kota Kotamobagu, Sulawesi Utara",SULAWESI UTARA,,Indonesia,81524730073.0,,,0.7379906,1.243.270.887,https://maps.google.com/?cid=0x0:0xff6c954115a3be87,
cafe,Bar Karaoke,Enting Cafe,"P8QH+32J, Jl. Kolonel Soegiono, Kotabangon, Kec. Kotamobagu Tim., Kota Kotamobagu, Sulawesi Utara","Kota Kotamobagu, Sulawesi Utara",SULAWESI UTARA,,Indonesia,81340870871.0,,,0.737709,1.243.275.137,https://maps.google.com/?cid=0x0:0xfa7815e7731d5d42,
cafe,Kafe,Kedai Kopi Red Corner Kotamobagu,"Jl. Hi. Zakaria Imban, Molinow, Kec. Kotamobagu Bar., Kota Kotamobagu, Sulawesi Utara 95716","Molinow, Kec. Kotamobagu Bar., Kota Kotamobagu",SULAWESI UTARA,95716,Indonesia,82193124800.0,,,0.7266315,1.242.933.702,https://maps.google.com/?cid=0x0:0xda3f3f4fc8c62241,
cafe,Kafe,Cafe Rainbow,"P8H5+98R, jl. lintas, Sinindian, Kec. Kotamobagu Tim., Kota Kotamobagu, Sulawesi Utara 95716","jl. lintas, Sinindian, Kec. Kotamobagu Tim., Kota Kotamobagu",SULAWESI UTARA,95716,Indonesia,,,,0.7284933,1.243.082.543,https://maps.google.com/?cid=0x0:0xdd81ad36f6cca8f4,
cafe,Restoran,Strawberry Cafe  Resto,"P8GF+FMG, Jl. Siliwangi, Tumobuy, Kec. Kotamobagu Tim., Kota Kotamobagu, Sulawesi Utara 95716","Jl. Siliwangi, Tumobuy, Kec. Kotamobagu Tim., Kota Kotamobagu",SULAWESI UTARA,95716,Indonesia,81340475335.0,,,0.7261999,1.243.241.948,https://maps.google.com/?cid=0x0:0x1f481c9bf171fb2d,
cafe,Mi,RM Pangsit Tumobui,"P8H9+4QV, Sinindian, Kec. Kotamobagu Tim., Kota Kotamobagu, Sulawesi Utara","Kota Kotamobagu, Sulawesi Utara",SULAWESI UTARA,,Indonesia,,,,0.727871,1.243.194.247,https://maps.google.com/?cid=0x0:0xfda1697d83586c90,
cafe,Kedai Kopi,Antero Coffee,"P8G5+625, Jl. Merdeka, Matali, Kec. Kotamobagu Tim., Kota Kotamobagu, Sulawesi Utara","Kota Kotamobagu, Sulawesi Utara",SULAWESI UTARA,,Indonesia,,,,0.7255237,1.243.075.978,https://maps.google.com/?cid=0x0:0x658ea7c0a43539a0,
cafe,Kedai Kopi,SAGOL COFFEE,"P8RC+J83, Kotabangon, Kec. Kotamobagu Tim., Kota Kotamobagu, Sulawesi Utara","Kota Kotamobagu, Sulawesi Utara",SULAWESI UTARA,,Indonesia,,,,0.7415069,1.243.207.958,https://maps.google.com/?cid=0x0:0x334caf569d6f31b6,
cafe,cafe,Sulawesi Utara 95716,"Mogolaing, Kec. Kotamobagu Bar., Kota Kotamobagu, Sulawesi Utara","Kota Kotamobagu, Sulawesi Utara",SULAWESI UTARA,,Indonesia,,,,0.7331339,1.243.035.249,https://maps.google.com/?cid=0x0:0xb303343be4233a,
cafe,Brunch,Tepi Jalan Kotamobagu,"P8C5+FGP, Jl. DC. Manoppo, Matali, Kec. Kotamobagu Tim., Kota Kotamobagu, Sulawesi Utara 95716","Jl. DC. Manoppo, Matali, Kec. Kotamobagu Tim., Kota Kotamobagu",SULAWESI UTARA,95716,Indonesia,82293155084.0,,,0.7212185,1.243.088.378,https://maps.google.com/?cid=0x0:0x2d40a1bcc1881f71,
cafe,Kafe,Cafe Classic,"P8J3+35V, Mogolaing, Kec. Kotamobagu Bar., Kota Kotamobagu, Sulawesi Utara","Kota Kotamobagu, Sulawesi Utara",SULAWESI UTARA,,Indonesia,,,,0.7302448,1.243.029.118,https://maps.google.com/?cid=0x0:0x737870869d2dd96a,
cafe,Kedai Kopi,Mve.coffee,"P8C6+VCH, Jl. Teuku Umar, Matali, Kec. Kotamobagu Tim., Kota Kotamobagu, Sulawesi Utara 95716","Jl. Teuku Umar, Matali, Kec. Kotamobagu Tim., Kota Kotamobagu",SULAWESI UTARA,95716,Indonesia,88804718200.0,,,0.722286,1.243.110.494,https://maps.google.com/?cid=0x0:0x52e0ee265da69858,
cafe,Kafe,Cafe Bagus Motoboi Kecil,"P7GX+G28, Motoboi Kecil, Kec. Kotamobagu Sel., Kota Kotamobagu, Sulawesi Utara 95711","Motoboi Kecil, Kec. Kotamobagu Sel., Kota Kotamobagu",SULAWESI UTARA,95711,Indonesia,81340064488.0,,,0.726284,124.297.566,https://maps.google.com/?cid=0x0:0x627ea16809e164b8,
cafe,Restoran,Kedai Kampoeng Bogani,"P8F5+JXV, Matali, Kec. Kotamobagu Tim., Kota Kotamobagu, Sulawesi Utara","Kota Kotamobagu, Sulawesi Utara",SULAWESI UTARA,,Indonesia,4342624102.0,,,0.7241064,1.243.099.081,https://maps.google.com/?cid=0x0:0xc31b033830843db9,
cafe,Kafe,Kopi KOROT  FOOD KOROT,"P8M9+9X3, Kotabangon, Kec. Kotamobagu Tim., Kota Kotamobagu, Sulawesi Utara 95716","Kotabangon, Kec. Kotamobagu Tim., Kota Kotamobagu",SULAWESI UTARA,95716,Indonesia,,,,0.7333962,1.243.199.231,https://maps.google.com/?cid=0x0:0x28500c5b99726ca3,
cafe,Kafe,Cafe Kusu Kusu Kotamobagu,"Jl. Yusuf Hasiru No.15, Kotabangon, Kec. Kotamobagu Tim., Kota Kotamobagu, Sulawesi Utara 95716","Kotabangon, Kec. Kotamobagu Tim., Kota Kotamobagu",SULAWESI UTARA,95716,Indonesia,85240350000.0,,,0.7397037,1.243.198.954,https://maps.google.com/?cid=0x0:0x17bec086ddd2bde0,
cafe,Kafe,Coffee Town,"P8M9+MCH, Jl. Paloko Kinalang, Kotabangon, Kec. Kotamobagu Tim., Kota Kotamobagu, Sulawesi Utara 95716","Jl. Paloko Kinalang, Kotabangon, Kec. Kotamobagu Tim., Kota Kotamobagu",SULAWESI UTARA,95716,Indonesia,81356515354.0,,,0.73418,1.243.186.189,https://maps.google.com/?cid=0x0:0xef48c767e306ec2d,
cafe,Kafe,Cokelat Cafe,"P8M2+JXG, Mogolaing, Kec. Kotamobagu Bar., Kota Kotamobagu, Sulawesi Utara 95716","Mogolaing, Kec. Kotamobagu Bar., Kota Kotamobagu",SULAWESI UTARA,95716,Indonesia,81240598884.0,,,0.734063,1.243.024.398,https://maps.google.com/?cid=0x0:0x7cfb04d3c2bb2efb,
cafe,Kafe,BIJIMERA COFFEE  ROASTERY,"P8Q9+544, Kotabangon, Kec. Kotamobagu Tim., Kota Kotamobagu, Sulawesi Utara 95716","Kotabangon, Kec. Kotamobagu Tim., Kota Kotamobagu",SULAWESI UTARA,95716,Indonesia,8114343436.0,,,0.7379,1.243.178.253,https://maps.google.com/?cid=0x0:0xcdf2e66da8fe233b,
cafe,Kafe,Login Coffee  Eatery,"Jl. Merdeka, Mogolaing, Kec. Kotamobagu Bar., Kota Kotamobagu, Sulawesi Utara 95716","Mogolaing, Kec. Kotamobagu Bar., Kota Kotamobagu",SULAWESI UTARA,95716,Indonesia,895329002353.0,,,0.7263932,1.243.052.292,https://maps.google.com/?cid=0x0:0x89d4261625d9535e,
cafe,Kedai Kopi,Ruang Coffee,"Jl. Amal, Mogolaing, Kec. Kotamobagu Bar., Kota Kotamobagu, Sulawesi Utara 95716","Mogolaing, Kec. Kotamobagu Bar., Kota Kotamobagu",SULAWESI UTARA,95716,Indonesia,8114330031.0,,,0.7299448,1.243.027.983,https://maps.google.com/?cid=0x0:0x96dd361fbb12583a,
cafe,Kafe,Kedai Kopi Red Corner Kotamobagu,"Jl. Hi. Zakaria Imban, Molinow, Kec. Kotamobagu Bar., Kota Kotamobagu, Sulawesi Utara 95716","Molinow, Kec. Kotamobagu Bar., Kota Kotamobagu",SULAWESI UTARA,95716,Indonesia,82193124800.0,,,0.7266315,1.242.933.702,https://maps.google.com/?cid=0x0:0xda3f3f4fc8c62241,
cafe,Kafe,JAROD REBORN,"Jl. Merdeka, Matali, Kec. Kotamobagu Tim., Kota Kotamobagu, Sulawesi Utara","Kota Kotamobagu, Sulawesi Utara",SULAWESI UTARA,,Indonesia,81343949707.0,,,0.7256002,1.243.070.366,https://maps.google.com/?cid=0x0:0x3639b1e9e1587154,
cafe,Kafe,TETES KAFEIN,"Jl. Siliwangi, Kotabangon, Kec. Kotamobagu Tim., Kota Kotamobagu, Sulawesi Utara","Kota Kotamobagu, Sulawesi Utara",SULAWESI UTARA,,Indonesia,89653001278.0,,,0.7356966,1.243.226.127,https://maps.google.com/?cid=0x0:0xb74b53977ad53ab,
cafe,Kafe,Cafe Berlayar,"P8M5+79C, Jl. BBI, Mogolaing, Kec. Kotamobagu Bar., Kota Kotamobagu, Sulawesi Utara","Kota Kotamobagu, Sulawesi Utara",SULAWESI UTARA,,Indonesia,,,,0.7331944,124.308.404,https://maps.google.com/?cid=0x0:0x6287e3268381bcf1,
cafe,Kedai Kopi,SAGOL COFFEE,"P8RC+J83, Kotabangon, Kec. Kotamobagu Tim., Kota Kotamobagu, Sulawesi Utara","Kota Kotamobagu, Sulawesi Utara",SULAWESI UTARA,,Indonesia,,,,0.7415069,1.243.207.958,https://maps.google.com/?cid=0x0:0x334caf569d6f31b6,
cafe,Kafe,Garden Cafe Sutanraja Hotel Kotamobagu,"P8FG+V2V, Kobo Besar, Kec. Kotamobagu Tim., Kota Kotamobagu, Sulawesi Utara","Kota Kotamobagu, Sulawesi Utara",SULAWESI UTARA,,Indonesia,4342621888.0,,,0.72473,1.243.250.385,https://maps.google.com/?cid=0x0:0x1563f315b607bc07,
cafe,Bar Karaoke,AGNES cafe,"P8MF+C44, Jl. A.R. Hakim, Kotabangon, Kec. Kotamobagu Tim., Kota Kotamobagu, Sulawesi Utara 95716","Jl. A.R. Hakim, Kotabangon, Kec. Kotamobagu Tim., Kota Kotamobagu",SULAWESI UTARA,95716,Indonesia,,,,0.7335057,1.243.228.245,https://maps.google.com/?cid=0x0:0x42e0ea9401c2e405,
cafe,Restoran,Strawberry Cafe  Resto,"P8GF+FMG, Jl. Siliwangi, Tumobuy, Kec. Kotamobagu Tim., Kota Kotamobagu, Sulawesi Utara 95716","Jl. Siliwangi, Tumobuy, Kec. Kotamobagu Tim., Kota Kotamobagu",SULAWESI UTARA,95716,Indonesia,81340475335.0,,,0.7261999,1.243.241.948,https://maps.google.com/?cid=0x0:0x1f481c9bf171fb2d,
cafe,Kedai Kopi,CAFE 21,"Jl. S Parman No.21, Kotamobagu, Kec. Kotamobagu Bar., Kota Kotamobagu, Sulawesi Utara 95716","Kotamobagu, Kec. Kotamobagu Bar., Kota Kotamobagu",SULAWESI UTARA,95716,Indonesia,81275343443.0,,,0.7412956,1.243.148.882,https://maps.google.com/?cid=0x0:0xa5fdfbfab74ded2c,
cafe,Kedai Kopi,Cafe Padepokan,"P8G6+QM2, Unnamed Road, Matali, Kec. Kotamobagu Tim., Kota Kotamobagu, Sulawesi Utara 95716","Unnamed Road, Matali, Kec. Kotamobagu Tim., Kota Kotamobagu",SULAWESI UTARA,95716,Indonesia,4342604487.0,,,0.7268979,1.243.116.275,https://maps.google.com/?cid=0x0:0xbd1bf9875e9231df,
cafe,Kedai Kopi,Kedai Kita Kotamobagu,"P8P5+H2W, Unnamed Road, Mogolaing, Kec. Kotamobagu Bar., Kota Kotamobagu, Sulawesi Utara 95716","Unnamed Road, Mogolaing, Kec. Kotamobagu Bar., Kota Kotamobagu",SULAWESI UTARA,95716,Indonesia,82233332007.0,,,0.7364949,124.307.569,https://maps.google.com/?cid=0x0:0x6f54d3d2043a59d5,
cafe,Kafe,Cafe Rainbow,"P8H5+98R, jl. lintas, Sinindian, Kec. Kotamobagu Tim., Kota Kotamobagu, Sulawesi Utara 95716","jl. lintas, Sinindian, Kec. Kotamobagu Tim., Kota Kotamobagu",SULAWESI UTARA,95716,Indonesia,,,,0.7284933,1.243.082.543,https://maps.google.com/?cid=0x0:0xdd81ad36f6cca8f4,
cafe,cafe,Kec. Kotamobagu Tim.,"Kota Kotamobagu, Sulawesi Utara","Kota Kotamobagu, Sulawesi Utara",SULAWESI UTARA,,Indonesia,,,,0.7377324,1.243.224.496,https://maps.google.com/?cid=0x0:0xf276a13be322dc46,
cafe,Kedai Kopi,Putri Dewi Cafe,"Motoboi Kecil, Kec. Kotamobagu Sel., Kota Kotamobagu, Sulawesi Utara 95716","Kec. Kotamobagu Sel., Kota Kotamobagu",SULAWESI UTARA,95716,Indonesia,81340566464.0,,,0.7265916,124.301.655,https://maps.google.com/?cid=0x0:0x5be9794ca18ceb45,
cafe,Kafe,Bangi Cafe Kotamobagu,"Jl. Adampe Dolot No.22, Mogolaing, Kec. Kotamobagu Bar., Kota Kotamobagu, Sulawesi Utara 95716","Mogolaing, Kec. Kotamobagu Bar., Kota Kotamobagu",SULAWESI UTARA,95716,Indonesia,,,,0.7384627,1.243.086.649,https://maps.google.com/?cid=0x0:0x92d620af5988c08d,
cafe,BBQ,A.A GRILL  CAFE,"Jl. Jhoni Suhodo, Kotabangon, Kec. Kotamobagu Tim., Kota Kotamobagu, Sulawesi Utara 95716","Kotabangon, Kec. Kotamobagu Tim., Kota Kotamobagu",SULAWESI UTARA,95716,Indonesia,,,,0.7379327,1.243.197.446,https://maps.google.com/?cid=0x0:0x3b1806e981bd8b38,
cafe,cafe,Sulawesi Utara 95718,"Kotabangon, Kec. Kotamobagu Tim., Kota Kotamobagu, Sulawesi Utara","Kota Kotamobagu, Sulawesi Utara",SULAWESI UTARA,,Indonesia,,,,0.7331272,1.243.211.987,https://maps.google.com/?cid=0x0:0x3ca38e005d607719,
cafe,Restoran,Chotaffeein Coffee Shop,"P8QC+Q5V, Kotabangon, Kec. Kotamobagu Tim., Kota Kotamobagu, Sulawesi Utara 95716","Kotabangon, Kec. Kotamobagu Tim., Kota Kotamobagu",SULAWESI UTARA,95716,Indonesia,,,,0.7394923,1.243.204.101,https://maps.google.com/?cid=0x0:0x412dd7b9a78e71ac,
cafe,Kafe,Cafe Classic,"P8J3+35V, Mogolaing, Kec. Kotamobagu Bar., Kota Kotamobagu, Sulawesi Utara","Kota Kotamobagu, Sulawesi Utara",SULAWESI UTARA,,Indonesia,,,,0.7302448,1.243.029.118,https://maps.google.com/?cid=0x0:0x737870869d2dd96a,
cafe,Kafe,Coffee Town,"P8M9+MCH, Jl. Paloko Kinalang, Kotabangon, Kec. Kotamobagu Tim., Kota Kotamobagu, Sulawesi Utara 95716","Jl. Paloko Kinalang, Kotabangon, Kec. Kotamobagu Tim., Kota Kotamobagu",SULAWESI UTARA,95716,Indonesia,81356515354.0,,,0.73418,1.243.186.189,https://maps.google.com/?cid=0x0:0xef48c767e306ec2d,
cafe,Kafe,BIJIMERA COFFEE  ROASTERY,"P8Q9+544, Kotabangon, Kec. Kotamobagu Tim., Kota Kotamobagu, Sulawesi Utara 95716","Kotabangon, Kec. Kotamobagu Tim., Kota Kotamobagu",SULAWESI UTARA,95716,Indonesia,8114343436.0,,,0.7379,1.243.178.253,https://maps.google.com/?cid=0x0:0xcdf2e66da8fe233b,
cafe,Kafe,TETES KAFEIN,"Jl. Siliwangi, Kotabangon, Kec. Kotamobagu Tim., Kota Kotamobagu, Sulawesi Utara","Kota Kotamobagu, Sulawesi Utara",SULAWESI UTARA,,Indonesia,89653001278.0,,,0.7356966,1.243.226.127,https://maps.google.com/?cid=0x0:0xb74b53977ad53ab,
cafe,Kafe,Login Coffee  Eatery,"Jl. Merdeka, Mogolaing, Kec. Kotamobagu Bar., Kota Kotamobagu, Sulawesi Utara 95716","Mogolaing, Kec. Kotamobagu Bar., Kota Kotamobagu",SULAWESI UTARA,95716,Indonesia,895329002353.0,,,0.7263932,1.243.052.292,https://maps.google.com/?cid=0x0:0x89d4261625d9535e,
cafe,Kedai Kopi,Foodsal Kotamobagu,"Kotabangon, Kec. Kotamobagu Tim., Kota Kotamobagu, Sulawesi Utara","Kota Kotamobagu, Sulawesi Utara",SULAWESI UTARA,,Indonesia,82293625614.0,,,0.7327072,1.243.229.876,https://maps.google.com/?cid=0x0:0x3b2a85ee274634f2,
cafe,Restoran,Strawberry Cafe  Resto,"P8GF+FMG, Jl. Siliwangi, Tumobuy, Kec. Kotamobagu Tim., Kota Kotamobagu, Sulawesi Utara 95716","Jl. Siliwangi, Tumobuy, Kec. Kotamobagu Tim., Kota Kotamobagu",SULAWESI UTARA,95716,Indonesia,81340475335.0,,,0.7261999,1.243.241.948,https://maps.google.com/?cid=0x0:0x1f481c9bf171fb2d,
cafe,Kafe,JAROD REBORN,"Jl. Merdeka, Matali, Kec. Kotamobagu Tim., Kota Kotamobagu, Sulawesi Utara","Kota Kotamobagu, Sulawesi Utara",SULAWESI UTARA,,Indonesia,81343949707.0,,,0.7256002,1.243.070.366,https://maps.google.com/?cid=0x0:0x3639b1e9e1587154,
cafe,Kafe,Kopi KOROT  FOOD KOROT,"P8M9+9X3, Kotabangon, Kec. Kotamobagu Tim., Kota Kotamobagu, Sulawesi Utara 95716","Kotabangon, Kec. Kotamobagu Tim., Kota Kotamobagu",SULAWESI UTARA,95716,Indonesia,,,,0.7333962,1.243.199.231,https://maps.google.com/?cid=0x0:0x28500c5b99726ca3,
cafe,Kedai Kopi,Point Coffee,"P8V7+QJQ, Kotamobagu, Kec. Kotamobagu Bar., Kota Kotamobagu, Sulawesi Utara","Kota Kotamobagu, Sulawesi Utara",SULAWESI UTARA,,Indonesia,211500280.0,,,0.7444685,1.243.141.038,https://maps.google.com/?cid=0x0:0x907c657c3e127cc3,
cafe,Kafe,Cafe Bagus Motoboi Kecil,"P7GX+G28, Motoboi Kecil, Kec. Kotamobagu Sel., Kota Kotamobagu, Sulawesi Utara 95711","Motoboi Kecil, Kec. Kotamobagu Sel., Kota Kotamobagu",SULAWESI UTARA,95711,Indonesia,81340064488.0,,,0.726284,124.297.566,https://maps.google.com/?cid=0x0:0x627ea16809e164b8,
cafe,Kafe,Kedai Kopi Red Corner Kotamobagu,"Jl. Hi. Zakaria Imban, Molinow, Kec. Kotamobagu Bar., Kota Kotamobagu, Sulawesi Utara 95716","Molinow, Kec. Kotamobagu Bar., Kota Kotamobagu",SULAWESI UTARA,95716,Indonesia,82193124800.0,,,0.7266315,1.242.933.702,https://maps.google.com/?cid=0x0:0xda3f3f4fc8c62241,
cafe,Kedai Kopi,Mve.coffee,"P8C6+VCH, Jl. Teuku Umar, Matali, Kec. Kotamobagu Tim., Kota Kotamobagu, Sulawesi Utara 95716","Jl. Teuku Umar, Matali, Kec. Kotamobagu Tim., Kota Kotamobagu",SULAWESI UTARA,95716,Indonesia,88804718200.0,,,0.722286,1.243.110.494,https://maps.google.com/?cid=0x0:0x52e0ee265da69858,
cafe,Bar Karaoke,The Love Cafe,"Kotabangon, Kec. Kotamobagu Tim., Kota Kotamobagu, Sulawesi Utara","Kota Kotamobagu, Sulawesi Utara",SULAWESI UTARA,,Indonesia,,,,0.7329134,1.243.222.506,https://maps.google.com/?cid=0x0:0x67c12c8755f9439d,
cafe,Kedai Kopi,KYN Coffee,"Matali, Kec. Kotamobagu Tim., Kota Kotamobagu, Sulawesi Utara 95716","Kec. Kotamobagu Tim., Kota Kotamobagu",SULAWESI UTARA,95716,Indonesia,85256763110.0,,,0.7331272,1.243.211.987,https://maps.google.com/?cid=0x0:0xb9af281ded2778a7,
cafe,Kafe,Cafe Rainbow,"P8H5+98R, jl. lintas, Sinindian, Kec. Kotamobagu Tim., Kota Kotamobagu, Sulawesi Utara 95716","jl. lintas, Sinindian, Kec. Kotamobagu Tim., Kota Kotamobagu",SULAWESI UTARA,95716,Indonesia,,,,0.7284933,1.243.082.543,https://maps.google.com/?cid=0x0:0xdd81ad36f6cca8f4,
cafe,Kedai Kopi,SAGOL COFFEE,"P8RC+J83, Kotabangon, Kec. Kotamobagu Tim., Kota Kotamobagu, Sulawesi Utara","Kota Kotamobagu, Sulawesi Utara",SULAWESI UTARA,,Indonesia,,,,0.7415069,1.243.207.958,https://maps.google.com/?cid=0x0:0x334caf569d6f31b6,
cafe,Kedai Kopi,Ruang Coffee,"Jl. Amal, Mogolaing, Kec. Kotamobagu Bar., Kota Kotamobagu, Sulawesi Utara 95716","Mogolaing, Kec. Kotamobagu Bar., Kota Kotamobagu",SULAWESI UTARA,95716,Indonesia,8114330031.0,,,0.7299448,1.243.027.983,https://maps.google.com/?cid=0x0:0x96dd361fbb12583a,
cafe,Brunch,Tepi Jalan Kotamobagu,"P8C5+FGP, Jl. DC. Manoppo, Matali, Kec. Kotamobagu Tim., Kota Kotamobagu, Sulawesi Utara 95716","Jl. DC. Manoppo, Matali, Kec. Kotamobagu Tim., Kota Kotamobagu",SULAWESI UTARA,95716,Indonesia,82293155084.0,,,0.7212185,1.243.088.378,https://maps.google.com/?cid=0x0:0x2d40a1bcc1881f71,
cafe,Bar Karaoke,AGNES cafe,"P8MF+C44, Jl. A.R. Hakim, Kotabangon, Kec. Kotamobagu Tim., Kota Kotamobagu, Sulawesi Utara 95716","Jl. A.R. Hakim, Kotabangon, Kec. Kotamobagu Tim., Kota Kotamobagu",SULAWESI UTARA,95716,Indonesia,,,,0.7335057,1.243.228.245,https://maps.google.com/?cid=0x0:0x42e0ea9401c2e405,
cafe,Kedai Kopi,Cafe Padepokan,"P8G6+QM2, Unnamed Road, Matali, Kec. Kotamobagu Tim., Kota Kotamobagu, Sulawesi Utara 95716","Unnamed Road, Matali, Kec. Kotamobagu Tim., Kota Kotamobagu",SULAWESI UTARA,95716,Indonesia,4342604487.0,,,0.7268979,1.243.116.275,https://maps.google.com/?cid=0x0:0xbd1bf9875e9231df,
cafe,Kedai Kopi,CAFE 21,"Jl. S Parman No.21, Kotamobagu, Kec. Kotamobagu Bar., Kota Kotamobagu, Sulawesi Utara 95716","Kotamobagu, Kec. Kotamobagu Bar., Kota Kotamobagu",SULAWESI UTARA,95716,Indonesia,81275343443.0,,,0.7412956,1.243.148.882,https://maps.google.com/?cid=0x0:0xa5fdfbfab74ded2c,
cafe,Kedai Kopi,Pondok Kopi Aulia. Cafe  Rental Mobil,"Jl. Panjaitan, Kotabangon, Kec. Kotamobagu Tim., Kota Kotamobagu, Sulawesi Utara","Kota Kotamobagu, Sulawesi Utara",SULAWESI UTARA,,Indonesia,82344222984.0,,,0.7378641,1.243.155.675,https://maps.google.com/?cid=0x0:0xdbe8ad56168d6f50,
cafe,cafe,Kec. Kotamobagu Tim.,"Kota Kotamobagu, Sulawesi Utara","Kota Kotamobagu, Sulawesi Utara",SULAWESI UTARA,,Indonesia,,,,0.7377324,1.243.224.496,https://maps.google.com/?cid=0x0:0xf276a13be322dc46,
cafe,Kafe,Login Coffee  Eatery,"Jl. Merdeka, Mogolaing, Kec. Kotamobagu Bar., Kota Kotamobagu, Sulawesi Utara 95716","Mogolaing, Kec. Kotamobagu Bar., Kota Kotamobagu",SULAWESI UTARA,95716,Indonesia,895329002353.0,,,0.7263932,1.243.052.292,https://maps.google.com/?cid=0x0:0x89d4261625d9535e,
cafe,Restoran,Kedai Kampoeng Bogani,"P8F5+JXV, Matali, Kec. Kotamobagu Tim., Kota Kotamobagu, Sulawesi Utara","Kota Kotamobagu, Sulawesi Utara",SULAWESI UTARA,,Indonesia,4342624102.0,,,0.7241064,1.243.099.081,https://maps.google.com/?cid=0x0:0xc31b033830843db9,
cafe,Brunch,Tepi Jalan Kotamobagu,"P8C5+FGP, Jl. DC. Manoppo, Matali, Kec. Kotamobagu Tim., Kota Kotamobagu, Sulawesi Utara 95716","Jl. DC. Manoppo, Matali, Kec. Kotamobagu Tim., Kota Kotamobagu",SULAWESI UTARA,95716,Indonesia,82293155084.0,,,0.7212185,1.243.088.378,https://maps.google.com/?cid=0x0:0x2d40a1bcc1881f71,
cafe,Restoran,Chotaffeein Coffee Shop,"P8QC+Q5V, Kotabangon, Kec. Kotamobagu Tim., Kota Kotamobagu, Sulawesi Utara 95716","Kotabangon, Kec. Kotamobagu Tim., Kota Kotamobagu",SULAWESI UTARA,95716,Indonesia,,,,0.7394923,1.243.204.101,https://maps.google.com/?cid=0x0:0x412dd7b9a78e71ac,
cafe,Kafe,JAROD REBORN,"Jl. Merdeka, Matali, Kec. Kotamobagu Tim., Kota Kotamobagu, Sulawesi Utara","Kota Kotamobagu, Sulawesi Utara",SULAWESI UTARA,,Indonesia,81343949707.0,,,0.7256002,1.243.070.366,https://maps.google.com/?cid=0x0:0x3639b1e9e1587154,
cafe,Kafe,Coffee Town,"P8M9+MCH, Jl. Paloko Kinalang, Kotabangon, Kec. Kotamobagu Tim., Kota Kotamobagu, Sulawesi Utara 95716","Jl. Paloko Kinalang, Kotabangon, Kec. Kotamobagu Tim., Kota Kotamobagu",SULAWESI UTARA,95716,Indonesia,81356515354.0,,,0.73418,1.243.186.189,https://maps.google.com/?cid=0x0:0xef48c767e306ec2d,
cafe,Kafe,Kopi KOROT  FOOD KOROT,"P8M9+9X3, Kotabangon, Kec. Kotamobagu Tim., Kota Kotamobagu, Sulawesi Utara 95716","Kotabangon, Kec. Kotamobagu Tim., Kota Kotamobagu",SULAWESI UTARA,95716,Indonesia,,,,0.7333962,1.243.199.231,https://maps.google.com/?cid=0x0:0x28500c5b99726ca3,
cafe,Kedai Kopi,Ruang Coffee,"Jl. Amal, Mogolaing, Kec. Kotamobagu Bar., Kota Kotamobagu, Sulawesi Utara 95716","Mogolaing, Kec. Kotamobagu Bar., Kota Kotamobagu",SULAWESI UTARA,95716,Indonesia,8114330031.0,,,0.7299448,1.243.027.983,https://maps.google.com/?cid=0x0:0x96dd361fbb12583a,
cafe,Kedai Kopi,Foodsal Kotamobagu,"Kotabangon, Kec. Kotamobagu Tim., Kota Kotamobagu, Sulawesi Utara","Kota Kotamobagu, Sulawesi Utara",SULAWESI UTARA,,Indonesia,82293625614.0,,,0.7327072,1.243.229.876,https://maps.google.com/?cid=0x0:0x3b2a85ee274634f2,
cafe,Kafe,Bangi Cafe Kotamobagu,"Jl. Adampe Dolot No.22, Mogolaing, Kec. Kotamobagu Bar., Kota Kotamobagu, Sulawesi Utara 95716","Mogolaing, Kec. Kotamobagu Bar., Kota Kotamobagu",SULAWESI UTARA,95716,Indonesia,,,,0.7384627,1.243.086.649,https://maps.google.com/?cid=0x0:0x92d620af5988c08d,
cafe,Kedai Kopi,CAFE 21,"Jl. S Parman No.21, Kotamobagu, Kec. Kotamobagu Bar., Kota Kotamobagu, Sulawesi Utara 95716","Kotamobagu, Kec. Kotamobagu Bar., Kota Kotamobagu",SULAWESI UTARA,95716,Indonesia,81275343443.0,,,0.7412956,1.243.148.882,https://maps.google.com/?cid=0x0:0xa5fdfbfab74ded2c,
cafe,Kafe,BIJIMERA COFFEE  ROASTERY,"P8Q9+544, Kotabangon, Kec. Kotamobagu Tim., Kota Kotamobagu, Sulawesi Utara 95716","Kotabangon, Kec. Kotamobagu Tim., Kota Kotamobagu",SULAWESI UTARA,95716,Indonesia,8114343436.0,,,0.7379,1.243.178.253,https://maps.google.com/?cid=0x0:0xcdf2e66da8fe233b,
cafe,Kedai Kopi,SAGOL COFFEE,"P8RC+J83, Kotabangon, Kec. Kotamobagu Tim., Kota Kotamobagu, Sulawesi Utara","Kota Kotamobagu, Sulawesi Utara",SULAWESI UTARA,,Indonesia,,,,0.7415069,1.243.207.958,https://maps.google.com/?cid=0x0:0x334caf569d6f31b6,
cafe,Kafe,Cafe Kusu Kusu Kotamobagu,"Jl. Yusuf Hasiru No.15, Kotabangon, Kec. Kotamobagu Tim., Kota Kotamobagu, Sulawesi Utara 95716","Kotabangon, Kec. Kotamobagu Tim., Kota Kotamobagu",SULAWESI UTARA,95716,Indonesia,85240350000.0,,,0.7397037,1.243.198.954,https://maps.google.com/?cid=0x0:0x17bec086ddd2bde0,
cafe,Kafe,Cafe Classic,"P8J3+35V, Mogolaing, Kec. Kotamobagu Bar., Kota Kotamobagu, Sulawesi Utara","Kota Kotamobagu, Sulawesi Utara",SULAWESI UTARA,,Indonesia,,,,0.7302448,1.243.029.118,https://maps.google.com/?cid=0x0:0x737870869d2dd96a,
cafe,Kedai Kopi,kotobangon ID,"Jl. Kolonel Sugiono, Kotabangon, Kec. Kotamobagu Tim., Kota Kotamobagu, Sulawesi Utara","Kota Kotamobagu, Sulawesi Utara",SULAWESI UTARA,,Indonesia,81524730073.0,,,0.7379906,1.243.270.887,https://maps.google.com/?cid=0x0:0xff6c954115a3be87,
cafe,Kafe,Cafe Rainbow,"P8H5+98R, jl. lintas, Sinindian, Kec. Kotamobagu Tim., Kota Kotamobagu, Sulawesi Utara 95716","jl. lintas, Sinindian, Kec. Kotamobagu Tim., Kota Kotamobagu",SULAWESI UTARA,95716,Indonesia,,,,0.7284933,1.243.082.543,https://maps.google.com/?cid=0x0:0xdd81ad36f6cca8f4,
cafe,BBQ,A.A GRILL  CAFE,"Jl. Jhoni Suhodo, Kotabangon, Kec. Kotamobagu Tim., Kota Kotamobagu, Sulawesi Utara 95716","Kotabangon, Kec. Kotamobagu Tim., Kota Kotamobagu",SULAWESI UTARA,95716,Indonesia,,,,0.7379327,1.243.197.446,https://maps.google.com/?cid=0x0:0x3b1806e981bd8b38,
cafe,Kedai Kopi,Antero Coffee,"P8G5+625, Jl. Merdeka, Matali, Kec. Kotamobagu Tim., Kota Kotamobagu, Sulawesi Utara","Kota Kotamobagu, Sulawesi Utara",SULAWESI UTARA,,Indonesia,,,,0.7255237,1.243.075.978,https://maps.google.com/?cid=0x0:0x658ea7c0a43539a0,
cafe,Kedai Kopi,Nge_Grill Kotamobagu,"P8C5+HCC, Matali, Kec. Kotamobagu Tim., Kota Kotamobagu, Sulawesi Utara","Kota Kotamobagu, Sulawesi Utara",SULAWESI UTARA,,Indonesia,85340210693.0,,,0.7214362,1.243.085.075,https://maps.google.com/?cid=0x0:0x6bea69e8966d5b01,
cafe,Kedai Kopi,Cafe Padepokan,"P8G6+QM2, Unnamed Road, Matali, Kec. Kotamobagu Tim., Kota Kotamobagu, Sulawesi Utara 95716","Unnamed Road, Matali, Kec. Kotamobagu Tim., Kota Kotamobagu",SULAWESI UTARA,95716,Indonesia,4342604487.0,,,0.7268979,1.243.116.275,https://maps.google.com/?cid=0x0:0xbd1bf9875e9231df,
cafe,Kedai Kopi,R n F Cafe,"P8H7+V5G, Sinindian, Kec. Kotamobagu Tim., Kota Kotamobagu, Sulawesi Utara 95716","Sinindian, Kec. Kotamobagu Tim., Kota Kotamobagu",SULAWESI UTARA,95716,Indonesia,,,,0.7297532,1.243.129.672,https://maps.google.com/?cid=0x0:0x9529a6cc64c9fd66,
cafe,Bar Karaoke,Enting Cafe,"P8QH+32J, Jl. Kolonel Soegiono, Kotabangon, Kec. Kotamobagu Tim., Kota Kotamobagu, Sulawesi Utara","Kota Kotamobagu, Sulawesi Utara",SULAWESI UTARA,,Indonesia,81340870871.0,,,0.737709,1.243.275.137,https://maps.google.com/?cid=0x0:0xfa7815e7731d5d42,
cafe,Kafe,LalaPho Cafe,"P8H6+CW5, Sinindian, Kec. Kotamobagu Tim., Kota Kotamobagu, Sulawesi Utara","Kota Kotamobagu, Sulawesi Utara",SULAWESI UTARA,,Indonesia,82176490526.0,,,0.7285025,1.243.123.657,https://maps.google.com/?cid=0x0:0xe593d4c16add976e,
cafe,Kedai Kopi,Mve.coffee,"P8C6+VCH, Jl. Teuku Umar, Matali, Kec. Kotamobagu Tim., Kota Kotamobagu, Sulawesi Utara 95716","Jl. Teuku Umar, Matali, Kec. Kotamobagu Tim., Kota Kotamobagu",SULAWESI UTARA,95716,Indonesia,88804718200.0,,,0.722286,1.243.110.494,https://maps.google.com/?cid=0x0:0x52e0ee265da69858,
cafe,cafe,Kec. Kotamobagu Utara,"Kota Kotamobagu, Sulawesi Utara","Kota Kotamobagu, Sulawesi Utara",SULAWESI UTARA,,Indonesia,,,,0.7535564,1.243.211.663,https://maps.google.com/?cid=0x0:0x8857be9cbc156ca2,
cafe,Kafe,kafe c3,"Q829+RWR, Biga, Kec. Kotamobagu Utara, Kota Kotamobagu, Sulawesi Utara","Kota Kotamobagu, Sulawesi Utara",SULAWESI UTARA,,Indonesia,85756156784.0,,,0.7521059,1.243.197.765,https://maps.google.com/?cid=0x0:0xa758f19fec15ac,
cafe,Kafe,Bangi Cafe Kotamobagu,"Jl. Adampe Dolot No.22, Mogolaing, Kec. Kotamobagu Bar., Kota Kotamobagu, Sulawesi Utara 95716","Mogolaing, Kec. Kotamobagu Bar., Kota Kotamobagu",SULAWESI UTARA,95716,Indonesia,,,,0.7384627,1.243.086.649,https://maps.google.com/?cid=0x0:0x92d620af5988c08d,
cafe,Restoran,Chotaffeein Coffee Shop,"P8QC+Q5V, Kotabangon, Kec. Kotamobagu Tim., Kota Kotamobagu, Sulawesi Utara 95716","Kotabangon, Kec. Kotamobagu Tim., Kota Kotamobagu",SULAWESI UTARA,95716,Indonesia,,,,0.7394923,1.243.204.101,https://maps.google.com/?cid=0x0:0x412dd7b9a78e71ac,
cafe,Kedai Kopi,Point Coffee,"P8V7+QJQ, Kotamobagu, Kec. Kotamobagu Bar., Kota Kotamobagu, Sulawesi Utara","Kota Kotamobagu, Sulawesi Utara",SULAWESI UTARA,,Indonesia,211500280.0,,,0.7444685,1.243.141.038,https://maps.google.com/?cid=0x0:0x907c657c3e127cc3,
cafe,Restoran,Kedai Kampoeng Bogani,"P8F5+JXV, Matali, Kec. Kotamobagu Tim., Kota Kotamobagu, Sulawesi Utara","Kota Kotamobagu, Sulawesi Utara",SULAWESI UTARA,,Indonesia,4342624102.0,,,0.7241064,1.243.099.081,https://maps.google.com/?cid=0x0:0xc31b033830843db9,
cafe,Kafe,BIJIMERA COFFEE  ROASTERY,"P8Q9+544, Kotabangon, Kec. Kotamobagu Tim., Kota Kotamobagu, Sulawesi Utara 95716","Kotabangon, Kec. Kotamobagu Tim., Kota Kotamobagu",SULAWESI UTARA,95716,Indonesia,8114343436.0,,,0.7379,1.243.178.253,https://maps.google.com/?cid=0x0:0xcdf2e66da8fe233b,
cafe,Kedai Kopi,SAGOL COFFEE,"P8RC+J83, Kotabangon, Kec. Kotamobagu Tim., Kota Kotamobagu, Sulawesi Utara","Kota Kotamobagu, Sulawesi Utara",SULAWESI UTARA,,Indonesia,,,,0.7415069,1.243.207.958,https://maps.google.com/?cid=0x0:0x334caf569d6f31b6,
cafe,Kafe,Login Coffee  Eatery,"Jl. Merdeka, Mogolaing, Kec. Kotamobagu Bar., Kota Kotamobagu, Sulawesi Utara 95716","Mogolaing, Kec. Kotamobagu Bar., Kota Kotamobagu",SULAWESI UTARA,95716,Indonesia,895329002353.0,,,0.7263932,1.243.052.292,https://maps.google.com/?cid=0x0:0x89d4261625d9535e,
cafe,Kafe,Cafe Kusu Kusu Kotamobagu,"Jl. Yusuf Hasiru No.15, Kotabangon, Kec. Kotamobagu Tim., Kota Kotamobagu, Sulawesi Utara 95716","Kotabangon, Kec. Kotamobagu Tim., Kota Kotamobagu",SULAWESI UTARA,95716,Indonesia,85240350000.0,,,0.7397037,1.243.198.954,https://maps.google.com/?cid=0x0:0x17bec086ddd2bde0,
cafe,BBQ,A.A GRILL  CAFE,"Jl. Jhoni Suhodo, Kotabangon, Kec. Kotamobagu Tim., Kota Kotamobagu, Sulawesi Utara 95716","Kotabangon, Kec. Kotamobagu Tim., Kota Kotamobagu",SULAWESI UTARA,95716,Indonesia,,,,0.7379327,1.243.197.446,https://maps.google.com/?cid=0x0:0x3b1806e981bd8b38,
cafe,Kedai Hidangan Penutup,Cooler City Kotamobagu,"Jl. Ahmad Yani No.317, Gogagoman, Kec. Kotamobagu Bar., Kota Kotamobagu, Sulawesi Utara 95711","Gogagoman, Kec. Kotamobagu Bar., Kota Kotamobagu",SULAWESI UTARA,95711,Indonesia,82196825386.0,,,0.740018,1.243.106.072,https://maps.google.com/?cid=0x0:0x3ae5cceec9dcbde7,
cafe,Kafe,M Classic Cafe Kotabagon,"P8RC+7QR, Kotabangon, Kec. Kotamobagu Tim., Kota Kotamobagu, Sulawesi Utara 95716","Kotabangon, Kec. Kotamobagu Tim., Kota Kotamobagu",SULAWESI UTARA,95716,Indonesia,,,,0.7407405,1.243.219.026,https://maps.google.com/?cid=0x0:0xe27c00eb80b25f81,
cafe,Kafe,Cafe Bagus Motoboi Kecil,"P7GX+G28, Motoboi Kecil, Kec. Kotamobagu Sel., Kota Kotamobagu, Sulawesi Utara 95711","Motoboi Kecil, Kec. Kotamobagu Sel., Kota Kotamobagu",SULAWESI UTARA,95711,Indonesia,81340064488.0,,,0.726284,124.297.566,https://maps.google.com/?cid=0x0:0x627ea16809e164b8,
cafe,Prasmanan,TERSERAH KING OF DRINK cabang S.Parman,"Jl. S Parman No.23, Kotamobagu, Kec. Kotamobagu Bar., Kota Kotamobagu, Sulawesi Utara 95716","Kotamobagu, Kec. Kotamobagu Bar., Kota Kotamobagu",SULAWESI UTARA,95716,Indonesia,,,,0.7418184,124.314.499,https://maps.google.com/?cid=0x0:0x304f31db6cd4a860,
cafe,Restoran,Strawberry Cafe  Resto,"P8GF+FMG, Jl. Siliwangi, Tumobuy, Kec. Kotamobagu Tim., Kota Kotamobagu, Sulawesi Utara 95716","Jl. Siliwangi, Tumobuy, Kec. Kotamobagu Tim., Kota Kotamobagu",SULAWESI UTARA,95716,Indonesia,81340475335.0,,,0.7261999,1.243.241.948,https://maps.google.com/?cid=0x0:0x1f481c9bf171fb2d,
cafe,Brunch,Tepi Jalan Kotamobagu,"P8C5+FGP, Jl. DC. Manoppo, Matali, Kec. Kotamobagu Tim., Kota Kotamobagu, Sulawesi Utara 95716","Jl. DC. Manoppo, Matali, Kec. Kotamobagu Tim., Kota Kotamobagu",SULAWESI UTARA,95716,Indonesia,82293155084.0,,,0.7212185,1.243.088.378,https://maps.google.com/?cid=0x0:0x2d40a1bcc1881f71,
cafe,Kafe,Kopi KOROT  FOOD KOROT,"P8M9+9X3, Kotabangon, Kec. Kotamobagu Tim., Kota Kotamobagu, Sulawesi Utara 95716","Kotabangon, Kec. Kotamobagu Tim., Kota Kotamobagu",SULAWESI UTARA,95716,Indonesia,,,,0.7333962,1.243.199.231,https://maps.google.com/?cid=0x0:0x28500c5b99726ca3,
cafe,Kafe,Coffee Town,"P8M9+MCH, Jl. Paloko Kinalang, Kotabangon, Kec. Kotamobagu Tim., Kota Kotamobagu, Sulawesi Utara 95716","Jl. Paloko Kinalang, Kotabangon, Kec. Kotamobagu Tim., Kota Kotamobagu",SULAWESI UTARA,95716,Indonesia,81356515354.0,,,0.73418,1.243.186.189,https://maps.google.com/?cid=0x0:0xef48c767e306ec2d,
cafe,Kafe,Cafe Classic,"P8J3+35V, Mogolaing, Kec. Kotamobagu Bar., Kota Kotamobagu, Sulawesi Utara","Kota Kotamobagu, Sulawesi Utara",SULAWESI UTARA,,Indonesia,,,,0.7302448,1.243.029.118,https://maps.google.com/?cid=0x0:0x737870869d2dd96a,
cafe,Kafe,Cafe Berlayar,"P8M5+79C, Jl. BBI, Mogolaing, Kec. Kotamobagu Bar., Kota Kotamobagu, Sulawesi Utara","Kota Kotamobagu, Sulawesi Utara",SULAWESI UTARA,,Indonesia,,,,0.7331944,124.308.404,https://maps.google.com/?cid=0x0:0x6287e3268381bcf1,
cafe,Restoran,ZeroEight Cafe and Resto,"P8R7+3XV, Kotamobagu, Kec. Kotamobagu Bar., Kota Kotamobagu, Sulawesi Utara","Kota Kotamobagu, Sulawesi Utara",SULAWESI UTARA,,Indonesia,81355558656.0,,,0.740237,1.243.149.338,https://maps.google.com/?cid=0x0:0xce73a8231bc5dcc7,
cafe,Kafe,200 Meters x chotaffeeiin,"P8V3+XVC, Jl. Soeprapto, Gogagoman, Kec. Kotamobagu Bar., Kota Kotamobagu, Sulawesi Utara","Kota Kotamobagu, Sulawesi Utara",SULAWESI UTARA,,Indonesia,85298831803.0,,,0.744938,1.243.046.557,https://maps.google.com/?cid=0x0:0xde424982f7af5f79,
cafe,Kafe,cK_vapestore Kotamobagu,"P8X9+3PJ, Biga, Kec. Kotamobagu Utara, Kota Kotamobagu, Sulawesi Utara","Kota Kotamobagu, Sulawesi Utara",SULAWESI UTARA,,Indonesia,,,,0.7477082,1.243.192.543,https://maps.google.com/?cid=0x0:0x9e5ea676b4d28943,
cafe,Kedai Kopi,Nami Coffee,"P8X8+R43, Jl. Talenta, Biga, Kec. Kotamobagu Utara, Kota Kotamobagu, Sulawesi Utara","Kota Kotamobagu, Sulawesi Utara",SULAWESI UTARA,,Indonesia,,,,0.7495217,1.243.152.843,https://maps.google.com/?cid=0x0:0xcb64d4d63b0c5763,
cafe,Kafe,Sudut Mojago,"P8V7+36G, Kotamobagu, Kec. Kotamobagu Bar., Kota Kotamobagu, Sulawesi Utara","Kota Kotamobagu, Sulawesi Utara",SULAWESI UTARA,,Indonesia,85256827676.0,,,0.7426918,1.243.130.708,https://maps.google.com/?cid=0x0:0xb531479bf51452eb,
cafe,Kedai Kopi,DEL Coffee,"Q837+M63, Jl. Piere Tendean, Genggulang, Kec. Kotamobagu Utara, Kota Kotamobagu, Sulawesi Utara 95714","Jl. Piere Tendean, Genggulang, Kec. Kotamobagu Utara, Kota Kotamobagu",SULAWESI UTARA,95714,Indonesia,895801361165.0,,,0.7542373,1.243.132.152,https://maps.google.com/?cid=0x0:0x9d1c94bf2710b970,
cafe,Kedai Kopi,CAFE 21,"Jl. S Parman No.21, Kotamobagu, Kec. Kotamobagu Bar., Kota Kotamobagu, Sulawesi Utara 95716","Kotamobagu, Kec. Kotamobagu Bar., Kota Kotamobagu",SULAWESI UTARA,95716,Indonesia,81275343443.0,,,0.7412956,1.243.148.882,https://maps.google.com/?cid=0x0:0xa5fdfbfab74ded2c,
cafe,cafe,Kec. Kotamobagu Utara,"Kota Kotamobagu, Sulawesi Utara","Kota Kotamobagu, Sulawesi Utara",SULAWESI UTARA,,Indonesia,,,,0.7535564,1.243.211.663,https://maps.google.com/?cid=0x0:0x8857be9cbc156ca2,
cafe,Restoran,Chotaffeein Coffee Shop,"P8QC+Q5V, Kotabangon, Kec. Kotamobagu Tim., Kota Kotamobagu, Sulawesi Utara 95716","Kotabangon, Kec. Kotamobagu Tim., Kota Kotamobagu",SULAWESI UTARA,95716,Indonesia,,,,0.7394923,1.243.204.101,https://maps.google.com/?cid=0x0:0x412dd7b9a78e71ac,
cafe,Kafe,BIJIMERA COFFEE  ROASTERY,"P8Q9+544, Kotabangon, Kec. Kotamobagu Tim., Kota Kotamobagu, Sulawesi Utara 95716","Kotabangon, Kec. Kotamobagu Tim., Kota Kotamobagu",SULAWESI UTARA,95716,Indonesia,8114343436.0,,,0.7379,1.243.178.253,https://maps.google.com/?cid=0x0:0xcdf2e66da8fe233b,
cafe,Restoran,Kedai Kampoeng Bogani,"P8F5+JXV, Matali, Kec. Kotamobagu Tim., Kota Kotamobagu, Sulawesi Utara","Kota Kotamobagu, Sulawesi Utara",SULAWESI UTARA,,Indonesia,4342624102.0,,,0.7241064,1.243.099.081,https://maps.google.com/?cid=0x0:0xc31b033830843db9,
cafe,Kedai Kopi,HOLY DRIP COFFEE,"Jl. Yusuf Hasiru, Kotabangon, Kec. Kotamobagu Tim., Kota Kotamobagu, Sulawesi Utara","Kota Kotamobagu, Sulawesi Utara",SULAWESI UTARA,,Indonesia,82293814656.0,,,0.7400332,1.243.193.223,https://maps.google.com/?cid=0x0:0xa45674d27a8355ff,
cafe,Kedai Hidangan Penutup,Cooler City Kotamobagu,"Jl. Ahmad Yani No.317, Gogagoman, Kec. Kotamobagu Bar., Kota Kotamobagu, Sulawesi Utara 95711","Gogagoman, Kec. Kotamobagu Bar., Kota Kotamobagu",SULAWESI UTARA,95711,Indonesia,82196825386.0,,,0.740018,1.243.106.072,https://maps.google.com/?cid=0x0:0x3ae5cceec9dcbde7,
cafe,Kafe,Bangi Cafe Kotamobagu,"Jl. Adampe Dolot No.22, Mogolaing, Kec. Kotamobagu Bar., Kota Kotamobagu, Sulawesi Utara 95716","Mogolaing, Kec. Kotamobagu Bar., Kota Kotamobagu",SULAWESI UTARA,95716,Indonesia,,,,0.7384627,1.243.086.649,https://maps.google.com/?cid=0x0:0x92d620af5988c08d,
cafe,Kedai Kopi,Point Coffee,"P8V7+QJQ, Kotamobagu, Kec. Kotamobagu Bar., Kota Kotamobagu, Sulawesi Utara","Kota Kotamobagu, Sulawesi Utara",SULAWESI UTARA,,Indonesia,211500280.0,,,0.7444685,1.243.141.038,https://maps.google.com/?cid=0x0:0x907c657c3e127cc3,
cafe,BBQ,A.A GRILL  CAFE,"Jl. Jhoni Suhodo, Kotabangon, Kec. Kotamobagu Tim., Kota Kotamobagu, Sulawesi Utara 95716","Kotabangon, Kec. Kotamobagu Tim., Kota Kotamobagu",SULAWESI UTARA,95716,Indonesia,,,,0.7379327,1.243.197.446,https://maps.google.com/?cid=0x0:0x3b1806e981bd8b38,
cafe,Kafe,Cokelat Cafe,"P8M2+JXG, Mogolaing, Kec. Kotamobagu Bar., Kota Kotamobagu, Sulawesi Utara 95716","Mogolaing, Kec. Kotamobagu Bar., Kota Kotamobagu",SULAWESI UTARA,95716,Indonesia,81240598884.0,,,0.734063,1.243.024.398,https://maps.google.com/?cid=0x0:0x7cfb04d3c2bb2efb,
cafe,Kafe,Login Coffee  Eatery,"Jl. Merdeka, Mogolaing, Kec. Kotamobagu Bar., Kota Kotamobagu, Sulawesi Utara 95716","Mogolaing, Kec. Kotamobagu Bar., Kota Kotamobagu",SULAWESI UTARA,95716,Indonesia,895329002353.0,,,0.7263932,1.243.052.292,https://maps.google.com/?cid=0x0:0x89d4261625d9535e,
cafe,Kafe,Cafe Kusu Kusu Kotamobagu,"Jl. Yusuf Hasiru No.15, Kotabangon, Kec. Kotamobagu Tim., Kota Kotamobagu, Sulawesi Utara 95716","Kotabangon, Kec. Kotamobagu Tim., Kota Kotamobagu",SULAWESI UTARA,95716,Indonesia,85240350000.0,,,0.7397037,1.243.198.954,https://maps.google.com/?cid=0x0:0x17bec086ddd2bde0,
cafe,Kafe,Cafe Bagus Motoboi Kecil,"P7GX+G28, Motoboi Kecil, Kec. Kotamobagu Sel., Kota Kotamobagu, Sulawesi Utara 95711","Motoboi Kecil, Kec. Kotamobagu Sel., Kota Kotamobagu",SULAWESI UTARA,95711,Indonesia,81340064488.0,,,0.726284,124.297.566,https://maps.google.com/?cid=0x0:0x627ea16809e164b8,
cafe,Kafe,Kata Kopi Kotamobagu,"Jl. Ahmad Yani No.317, Kotamobagu, Kec. Kotamobagu Bar., Kota Kotamobagu, Sulawesi Utara 95716","Kotamobagu, Kec. Kotamobagu Bar., Kota Kotamobagu",SULAWESI UTARA,95716,Indonesia,85299181994.0,,,0.740018,1.243.106.072,https://maps.google.com/?cid=0x0:0xfba73c6acf59244d,
cafe,Restoran,Strawberry Cafe  Resto,"P8GF+FMG, Jl. Siliwangi, Tumobuy, Kec. Kotamobagu Tim., Kota Kotamobagu, Sulawesi Utara 95716","Jl. Siliwangi, Tumobuy, Kec. Kotamobagu Tim., Kota Kotamobagu",SULAWESI UTARA,95716,Indonesia,81340475335.0,,,0.7261999,1.243.241.948,https://maps.google.com/?cid=0x0:0x1f481c9bf171fb2d,
cafe,Kedai Kopi,Mve.coffee,"P8C6+VCH, Jl. Teuku Umar, Matali, Kec. Kotamobagu Tim., Kota Kotamobagu, Sulawesi Utara 95716","Jl. Teuku Umar, Matali, Kec. Kotamobagu Tim., Kota Kotamobagu",SULAWESI UTARA,95716,Indonesia,88804718200.0,,,0.722286,1.243.110.494,https://maps.google.com/?cid=0x0:0x52e0ee265da69858,
cafe,Kedai Kopi,SAGOL COFFEE,"P8RC+J83, Kotabangon, Kec. Kotamobagu Tim., Kota Kotamobagu, Sulawesi Utara","Kota Kotamobagu, Sulawesi Utara",SULAWESI UTARA,,Indonesia,,,,0.7415069,1.243.207.958,https://maps.google.com/?cid=0x0:0x334caf569d6f31b6,
cafe,Kafe,Kedai Kopi Red Corner Kotamobagu,"Jl. Hi. Zakaria Imban, Molinow, Kec. Kotamobagu Bar., Kota Kotamobagu, Sulawesi Utara 95716","Molinow, Kec. Kotamobagu Bar., Kota Kotamobagu",SULAWESI UTARA,95716,Indonesia,82193124800.0,,,0.7266315,1.242.933.702,https://maps.google.com/?cid=0x0:0xda3f3f4fc8c62241,
cafe,Restoran,Cafe Pink Win,"P8V3+M8C, jln.dayanan, Bar., Gogagoman, Kec. Kotamobagu Bar., Kota Kotamobagu, Sulawesi Utara","Kota Kotamobagu, Sulawesi Utara",SULAWESI UTARA,,Indonesia,82188248593.0,,,0.7441915,1.243.032.771,https://maps.google.com/?cid=0x0:0x910f0a4fa73b99ee,
cafe,Restoran,ZeroEight Cafe and Resto,"P8R7+3XV, Kotamobagu, Kec. Kotamobagu Bar., Kota Kotamobagu, Sulawesi Utara","Kota Kotamobagu, Sulawesi Utara",SULAWESI UTARA,,Indonesia,81355558656.0,,,0.740237,1.243.149.338,https://maps.google.com/?cid=0x0:0xce73a8231bc5dcc7,
cafe,Restoran,ES Teler Juara,"P8V5+4H4, Gogagoman, Kec. Kotamobagu Bar., Kota Kotamobagu, Sulawesi Utara 95716","Gogagoman, Kec. Kotamobagu Bar., Kota Kotamobagu",SULAWESI UTARA,95716,Indonesia,4342621706.0,,,0.7427692,1.243.089.512,https://maps.google.com/?cid=0x0:0x10f5bf4ab9d74dd2,
cafe,Kedai Kopi,DEL Coffee,"Q837+M63, Jl. Piere Tendean, Genggulang, Kec. Kotamobagu Utara, Kota Kotamobagu, Sulawesi Utara 95714","Jl. Piere Tendean, Genggulang, Kec. Kotamobagu Utara, Kota Kotamobagu",SULAWESI UTARA,95714,Indonesia,895801361165.0,,,0.7542373,1.243.132.152,https://maps.google.com/?cid=0x0:0x9d1c94bf2710b970,
cafe,Prasmanan,TERSERAH KING OF DRINK cabang S.Parman,"Jl. S Parman No.23, Kotamobagu, Kec. Kotamobagu Bar., Kota Kotamobagu, Sulawesi Utara 95716","Kotamobagu, Kec. Kotamobagu Bar., Kota Kotamobagu",SULAWESI UTARA,95716,Indonesia,,,,0.7418184,124.314.499,https://maps.google.com/?cid=0x0:0x304f31db6cd4a860,
cafe,Kafe,Sudut Mojago,"P8V7+36G, Kotamobagu, Kec. Kotamobagu Bar., Kota Kotamobagu, Sulawesi Utara","Kota Kotamobagu, Sulawesi Utara",SULAWESI UTARA,,Indonesia,85256827676.0,,,0.7426918,1.243.130.708,https://maps.google.com/?cid=0x0:0xb531479bf51452eb,
cafe,Kafe,200 Meters x chotaffeeiin,"P8V3+XVC, Jl. Soeprapto, Gogagoman, Kec. Kotamobagu Bar., Kota Kotamobagu, Sulawesi Utara","Kota Kotamobagu, Sulawesi Utara",SULAWESI UTARA,,Indonesia,85298831803.0,,,0.744938,1.243.046.557,https://maps.google.com/?cid=0x0:0xde424982f7af5f79,
cafe,Kafe,cK_vapestore Kotamobagu,"P8X9+3PJ, Biga, Kec. Kotamobagu Utara, Kota Kotamobagu, Sulawesi Utara","Kota Kotamobagu, Sulawesi Utara",SULAWESI UTARA,,Indonesia,,,,0.7477082,1.243.192.543,https://maps.google.com/?cid=0x0:0x9e5ea676b4d28943,
