Category,Real Category,Business Name,Address,City,State,Postal Code,Country,Phone,Email,Website,Latitude,Longitude,Map Link,Details Link
mall,mall,Sulawesi Utara 95711,"Kotamobagu, Kec. Kotamobagu Bar., Kota Kotamobagu, Sulawesi Utara","Kota Kotamobagu, Sulawesi Utara",SULAWESI UTARA,,Indonesia,,,,0.7413349,1.243.125.269,https://maps.google.com/?cid=0x0:0xe2a29556fedf8a93,
mall,Pusat Perbelanjaan,PARIS MALL SUPERSTORE,"P8Q5+FJJ, Mogolaing, Kec. Kotamobagu Bar., Kota Kotamobagu, Sulawesi Utara","Kota Kotamobagu, Sulawesi Utara",SULAWESI UTARA,,Indonesia,,,,0.7387169,1.243.090.045,https://maps.google.com/?cid=0x0:0x10725652879cf5c9,
mall,Pusat Perbelanjaan,PARIS MART,"P8Q4+3MV, Jl. Budi, Mogolaing, Kec. Kotamobagu Bar., Kota Kotamobagu, Sulawesi Utara 95716","Jl. Budi, Mogolaing, Kec. Kotamobagu Bar., Kota Kotamobagu",SULAWESI UTARA,95716,Indonesia,,,,0.73774,124.306.685,https://maps.google.com/?cid=0x0:0xa2d6fe151cf0a30,
mall,Kantor Pemerintahan Kota,Kantor Wali Kota Kotamobagu,"P8V7+53R, Jl. Ahmad Yani, Gogagoman, Kec. Kotamobagu Bar., Kota Kotamobagu, Sulawesi Utara","Kota Kotamobagu, Sulawesi Utara",SULAWESI UTARA,,Indonesia,,,,0.7429829,1.243.126.466,https://maps.google.com/?cid=0x0:0x5c35b9af6fe1cf0f,
mall,Toko,Fishop Kotamobagu,"P895+Q29, Jl. DC. Manoppo, Pobundayan, Kec. Kotamobagu Sel., Kota Kotamobagu, Sulawesi Utara","Kota Kotamobagu, Sulawesi Utara",SULAWESI UTARA,,Indonesia,82290150510.0,,,0.7194069,1.243.076.044,https://maps.google.com/?cid=0x0:0x25cbc8895e0fe52a,
mall,Taman,LAPANGAN BUA' HONTINIMBANG MANOPPO,"Kotamobagu, Kec. Kotamobagu Bar., Kota Kotamobagu, Sulawesi Utara","Kota Kotamobagu, Sulawesi Utara",SULAWESI UTARA,,Indonesia,,,,0.7433218,1.243.135.814,https://maps.google.com/?cid=0x0:0x2bbf080fecefcd7c,
mall,Ayam,Texas Chicken - Paris Dep Store,"Jalan A Dampe Dolot No.1, Poyowa Besar II, Kec. Kotamobagu Sel., Kota Kotamobagu, Sulawesi Utara","Kota Kotamobagu, Sulawesi Utara",SULAWESI UTARA,,Indonesia,43422703.0,,,0.7388815,1.243.088.771,https://maps.google.com/?cid=0x0:0x6dd2f2b14722f899,
mall,mall,Kec. Kotamobagu Bar.,"Kota Kotamobagu, Sulawesi Utara","Kota Kotamobagu, Sulawesi Utara",SULAWESI UTARA,,Indonesia,,,,0.7429438,1.243.085.124,https://maps.google.com/?cid=0x0:0x68204053ca066af1,
mall,Pusat Perbelanjaan,PARIS MALL SUPERSTORE,"P8Q5+FJJ, Mogolaing, Kec. Kotamobagu Bar., Kota Kotamobagu, Sulawesi Utara","Kota Kotamobagu, Sulawesi Utara",SULAWESI UTARA,,Indonesia,,,,0.7387169,1.243.090.045,https://maps.google.com/?cid=0x0:0x10725652879cf5c9,
mall,Pusat Perbelanjaan,PARIS MART,"P8Q4+3MV, Jl. Budi, Mogolaing, Kec. Kotamobagu Bar., Kota Kotamobagu, Sulawesi Utara 95716","Jl. Budi, Mogolaing, Kec. Kotamobagu Bar., Kota Kotamobagu",SULAWESI UTARA,95716,Indonesia,,,,0.73774,124.306.685,https://maps.google.com/?cid=0x0:0xa2d6fe151cf0a30,
mall,Toko umum,TOKO TITA KOTAMOBAGU,"Jl. S Parman, Kotamobagu, Kec. Kotamobagu Bar., Kota Kotamobagu, Sulawesi Utara","Kota Kotamobagu, Sulawesi Utara",SULAWESI UTARA,,Indonesia,82393017174.0,,,0.7402973,1.243.167.742,https://maps.google.com/?cid=0x0:0xbbc213869f5d5902,
mall,Toko,Toko Mimi Accessories Kotamobagu,"Jl. Ratahan - Kotamobagu, Mogolaing, Kec. Kotamobagu Bar., Kota Kotamobagu, Sulawesi Utara 95716","Mogolaing, Kec. Kotamobagu Bar., Kota Kotamobagu",SULAWESI UTARA,95716,Indonesia,82188308283.0,,,0.736364,124.307.192,https://maps.google.com/?cid=0x0:0xe96d01a6f21af429,
mall,Toko bahan makanan,Halal Mart AC HPAI Kotamobagu,"P8V4+58C, Gogagoman, Kec. Kotamobagu Bar., Kota Kotamobagu, Sulawesi Utara 95716","Gogagoman, Kec. Kotamobagu Bar., Kota Kotamobagu",SULAWESI UTARA,95716,Indonesia,81244858876.0,,,0.742946,1.243.057.621,https://maps.google.com/?cid=0x0:0x6b05bb8e6456b87,
mall,Toko Pakaian,DilaraShop Kotamobagu,"P8H3+MC5, Mogolaing, Kec. Kotamobagu Bar., Kota Kotamobagu, Sulawesi Utara","Kota Kotamobagu, Sulawesi Utara",SULAWESI UTARA,,Indonesia,85222248585.0,,,0.7291412,1.243.035.955,https://maps.google.com/?cid=0x0:0x5213eb7c8c6a9634,
mall,Bengkel Sepeda Motor,Anugerah Motor Kotamobagu,"P8P8+VGJ, Unnamed Road, Kotabangon, Kec. Kotamobagu Tim., Kota Kotamobagu, Sulawesi Utara 95716","Unnamed Road, Kotabangon, Kec. Kotamobagu Tim., Kota Kotamobagu",SULAWESI UTARA,95716,Indonesia,,,,0.7372137,124.316.269,https://maps.google.com/?cid=0x0:0x3ba14070e473da1e,
mall,Toko,TOKO Bukit Karya Kotamobagu,"P8Q5+RFQ, Jl. Yos Sudarso, Gogagoman, Kec. Kotamobagu Bar., Kota Kotamobagu, Sulawesi Utara 95716","Jl. Yos Sudarso, Gogagoman, Kec. Kotamobagu Bar., Kota Kotamobagu",SULAWESI UTARA,95716,Indonesia,81288840400.0,,,0.7395859,1.243.087.234,https://maps.google.com/?cid=0x0:0xc930d501f2a3d2a7,
mall,Pusat Perbelanjaan,Sulawesi Utara - Kotamobagu - Mongkonai,"P8F9+PXV BaseCamp Bikers Subuhan, Matali, Kec. Kotamobagu Tim., Kota Kotamobagu, Sulawesi Utara","Kota Kotamobagu, Sulawesi Utara",SULAWESI UTARA,,Indonesia,89681054774.0,,,0.7243733,1.243.199.316,https://maps.google.com/?cid=0x0:0x1928e837c01fdbeb,
mall,Toko Pakaian,Tasqy shop,"P8P3+7R8, Mogolaing, Kec. Kotamobagu Bar., Kota Kotamobagu, Sulawesi Utara","Kota Kotamobagu, Sulawesi Utara",SULAWESI UTARA,,Indonesia,,,,0.7356671,1.243.045.809,https://maps.google.com/?cid=0x0:0xc77fa270da7083eb,
mall,Komplek perumahan,Tong pe Rumah,"P8V3+5CV, Gogagoman, Kec. Kotamobagu Bar., Kota Kotamobagu, Sulawesi Utara","Kota Kotamobagu, Sulawesi Utara",SULAWESI UTARA,,Indonesia,85825009242.0,,,0.7429863,1.243.035.446,https://maps.google.com/?cid=0x0:0xd28e6f6fa79cfd96,
mall,Kafe,EC ATOMY IMPERIAL KOTAMOBAGU CENTER,"Jl. Bolian No.162 a, Gogagoman, Kec. Kotamobagu Bar., Kota Kotamobagu, Sulawesi Utara 95711","Gogagoman, Kec. Kotamobagu Bar., Kota Kotamobagu",SULAWESI UTARA,95711,Indonesia,82271147170.0,,,0.7396656,1.243.058.603,https://maps.google.com/?cid=0x0:0xc544d324e907ec88,
mall,Bank,Bni Paris Mall,"P8Q5+GM7, Mogolaing, Kec. Kotamobagu Bar., Kota Kotamobagu, Sulawesi Utara","Kota Kotamobagu, Sulawesi Utara",SULAWESI UTARA,,Indonesia,43422746.0,,,0.7387836,1.243.091.655,https://maps.google.com/?cid=0x0:0x6cd129dcd4b2be95,
mall,Toko,iPhone Store KOTAMOBAGU,"JL. Puskesmas RT 14/06, LING. III, Gogagoman, Kec. Kotamobagu Bar., Kota Kotamobagu, Sulawesi Utara 95715","LING. III, Gogagoman, Kec. Kotamobagu Bar., Kota Kotamobagu",SULAWESI UTARA,95715,Indonesia,895806592120.0,,,0.7429307,1.243.034.677,https://maps.google.com/?cid=0x0:0xd5342bc7c765c949,
mall,Dealer Sepeda Motor,METRO MOTOR KOTAMOBAGU,"P7JX+MW9, Jl. Adampe Dolot, Molinow, Kec. Kotamobagu Bar., Kota Kotamobagu, Sulawesi Utara 95716","Jl. Adampe Dolot, Molinow, Kec. Kotamobagu Bar., Kota Kotamobagu",SULAWESI UTARA,95716,Indonesia,,,,0.7316606,1.242.998.512,https://maps.google.com/?cid=0x0:0x8d8b3f447bc98a48,
mall,Toko Pakaian,ENF MOESLIMWEAR,"Jl. Adampe Dolot, Mogolaing, Kec. Kotamobagu Bar., Kota Kotamobagu, Sulawesi Utara","Kota Kotamobagu, Sulawesi Utara",SULAWESI UTARA,,Indonesia,82243388844.0,,,0.7359016,1.243.064.419,https://maps.google.com/?cid=0x0:0x8c9e6ee09ee06fa2,
mall,Pusat Hiburan Video Game Arkade,Amazone,"P8Q5+8CF, Jl. Adampe Dolot, Mogolaing, Kec. Kotamobagu Bar., Kota Kotamobagu, Sulawesi Utara 95716","Jl. Adampe Dolot, Mogolaing, Kec. Kotamobagu Bar., Kota Kotamobagu",SULAWESI UTARA,95716,Indonesia,,,,0.738313,1.243.085.439,https://maps.google.com/?cid=0x0:0x21dd0f7a89e19c21,
mall,Toko Mebel," SAKURA florist """"","P8R7+PV2, Jl. S Parman, Kotamobagu, Kec. Kotamobagu Bar., Kota Kotamobagu, Sulawesi Utara","Kota Kotamobagu, Sulawesi Utara",SULAWESI UTARA,,Indonesia,85298055384.0,,,0.7417601,1.243.146.511,https://maps.google.com/?cid=0x0:0x153f82ce0fdb14fe,
mall,,Toko Pintu Mas,"P8R5+H5Q, Gogagoman, Kec. Kotamobagu Bar., Kota Kotamobagu, Sulawesi Utara","Kota Kotamobagu, Sulawesi Utara",SULAWESI UTARA,,Indonesia,,,,0.7414663,1.243.079.944,https://maps.google.com/?cid=0x0:0x370388059e2d85e9,
mall,mall,Sulawesi Utara,,Sulawesi Utara,SULAWESI UTARA,,Indonesia,,,,0.6246932,1.239.750.018,https://maps.google.com/?cid=0x0:0x45891617980cb835,
mall,Minimarket,IDM POYOWA BESAR,"P859+VC2, Poyowa Besar II, Kec. Kotamobagu Sel., Kota Kotamobagu, Sulawesi Utara","Kota Kotamobagu, Sulawesi Utara",SULAWESI UTARA,,Indonesia,8114325907.0,,,0.7096333,1.243.185.111,https://maps.google.com/?cid=0x0:0x8b2ee72ada518ab1,
mall,Toko umum,RStore Kotamobagu,"Jl. Siliwangi, Kobo Besar, Kec. Kotamobagu Tim., Kota Kotamobagu, Sulawesi Utara 95719","Kobo Besar, Kec. Kotamobagu Tim., Kota Kotamobagu",SULAWESI UTARA,95719,Indonesia,82340003335.0,,,0.7238171,1.243.259.797,https://maps.google.com/?cid=0x0:0xcb70409fcca8d2e,
mall,Pusat Perbelanjaan,Jakarta pusat,"Q878+W98, Simpang Tiga, Kompleks Mercury Lama, Bilalang Dua, Kec. Kotamobagu Utara, Kota Kotamobagu, Sulawesi Utara","Kota Kotamobagu, Sulawesi Utara",SULAWESI UTARA,,Indonesia,,,,0.7647863,1.243.159.571,https://maps.google.com/?cid=0x0:0x16a9a7215a0c17de,
mall,Kafe,Ruko Bogani,"P863+7JJ, Jl. DC. Manoppo, Pobundayan, Kec. Kotamobagu Sel., Kota Kotamobagu, Sulawesi Utara","Kota Kotamobagu, Sulawesi Utara",SULAWESI UTARA,,Indonesia,85695584363.0,,,0.7107093,1.243.040.027,https://maps.google.com/?cid=0x0:0x2a97d63727efa4ac,
mall,Pasar pakaian,Achiera Fashion Kotamobagu,"P8H8+J73, Jl. I Bantong, Sinindian, Kec. Kotamobagu Tim., Kota Kotamobagu, Sulawesi Utara 95716","Jl. I Bantong, Sinindian, Kec. Kotamobagu Tim., Kota Kotamobagu",SULAWESI UTARA,95716,Indonesia,,,,0.7290192,1.243.156.769,https://maps.google.com/?cid=0x0:0xbfda5c46fe516423,
mall,Pasar,Murah Meriah,"Jl. Brigjend Katamso No.18, Kotabangon, Kec. Kotamobagu Tim., Kota Kotamobagu, Sulawesi Utara 95716","Kotabangon, Kec. Kotamobagu Tim., Kota Kotamobagu",SULAWESI UTARA,95716,Indonesia,,,,0.7370652,1.243.160.768,https://maps.google.com/?cid=0x0:0xc9421165b1dde8bb,
mall,Kios,Ezza Grosir Gogagoman,"P8V4+R76, Jl. Soeprapto, Gogagoman, Kec. Kotamobagu Bar., Kota Kotamobagu, Sulawesi Utara","Kota Kotamobagu, Sulawesi Utara",SULAWESI UTARA,,Indonesia,82187252234.0,,,0.744532,1.243.056.379,https://maps.google.com/?cid=0x0:0x73bdb5d17fa55c10,
mall,mall,Sulawesi Utara 95716,"Mogolaing, Kec. Kotamobagu Bar., Kota Kotamobagu, Sulawesi Utara","Kota Kotamobagu, Sulawesi Utara",SULAWESI UTARA,,Indonesia,,,,0.7331339,1.243.035.249,https://maps.google.com/?cid=0x0:0xb303343be4233a,
mall,Pusat Perbelanjaan,PARIS MALL SUPERSTORE,"P8Q5+FJJ, Mogolaing, Kec. Kotamobagu Bar., Kota Kotamobagu, Sulawesi Utara","Kota Kotamobagu, Sulawesi Utara",SULAWESI UTARA,,Indonesia,,,,0.7387169,1.243.090.045,https://maps.google.com/?cid=0x0:0x10725652879cf5c9,
mall,Pusat Perbelanjaan,PARIS MART,"P8Q4+3MV, Jl. Budi, Mogolaing, Kec. Kotamobagu Bar., Kota Kotamobagu, Sulawesi Utara 95716","Jl. Budi, Mogolaing, Kec. Kotamobagu Bar., Kota Kotamobagu",SULAWESI UTARA,95716,Indonesia,,,,0.73774,124.306.685,https://maps.google.com/?cid=0x0:0xa2d6fe151cf0a30,
mall,Toko,Fishop Kotamobagu,"P895+Q29, Jl. DC. Manoppo, Pobundayan, Kec. Kotamobagu Sel., Kota Kotamobagu, Sulawesi Utara","Kota Kotamobagu, Sulawesi Utara",SULAWESI UTARA,,Indonesia,82290150510.0,,,0.7194069,1.243.076.044,https://maps.google.com/?cid=0x0:0x25cbc8895e0fe52a,
mall,Lapangan Sepak Bola,Lapangan Mogolaing,"P8M4+H3W, Mogolaing, Kec. Kotamobagu Bar., Kota Kotamobagu, Sulawesi Utara","Kota Kotamobagu, Sulawesi Utara",SULAWESI UTARA,,Indonesia,,,,0.7339815,1.243.052.186,https://maps.google.com/?cid=0x0:0xcb8ca7f61728044b,
mall,Kafe,Ruko Bogani,"P863+7JJ, Jl. DC. Manoppo, Pobundayan, Kec. Kotamobagu Sel., Kota Kotamobagu, Sulawesi Utara","Kota Kotamobagu, Sulawesi Utara",SULAWESI UTARA,,Indonesia,85695584363.0,,,0.7107093,1.243.040.027,https://maps.google.com/?cid=0x0:0x2a97d63727efa4ac,
mall,Toko Buku,TOKO KOTA PERMAI,"Gogagoman, Kec. Kotamobagu Bar., Kota Kotamobagu, Sulawesi Utara 95716","Kec. Kotamobagu Bar., Kota Kotamobagu",SULAWESI UTARA,95716,Indonesia,43422005.0,,,0.741143,124.311.141,https://maps.google.com/?cid=0x0:0x1dfcde7ac8f96005,
mall,Taman,TAMAN KOTA,"P8R6+9JQ, Gogagoman, Kec. Kotamobagu Bar., Kota Kotamobagu, Sulawesi Utara 95716","Gogagoman, Kec. Kotamobagu Bar., Kota Kotamobagu",SULAWESI UTARA,95716,Indonesia,,,,0.7409711,124.311.608,https://maps.google.com/?cid=0x0:0x672fb6a327693cca,
mall,Kantor Pemerintahan Kota,Kantor Wali Kota Kotamobagu,"P8V7+53R, Jl. Ahmad Yani, Gogagoman, Kec. Kotamobagu Bar., Kota Kotamobagu, Sulawesi Utara","Kota Kotamobagu, Sulawesi Utara",SULAWESI UTARA,,Indonesia,,,,0.7429829,1.243.126.466,https://maps.google.com/?cid=0x0:0x5c35b9af6fe1cf0f,
mall,mall,Kec. Kotamobagu Bar.,"Kota Kotamobagu, Sulawesi Utara","Kota Kotamobagu, Sulawesi Utara",SULAWESI UTARA,,Indonesia,,,,0.7429438,1.243.085.124,https://maps.google.com/?cid=0x0:0x68204053ca066af1,
mall,Toko,Toko Mimi Accessories Kotamobagu,"Jl. Ratahan - Kotamobagu, Mogolaing, Kec. Kotamobagu Bar., Kota Kotamobagu, Sulawesi Utara 95716","Mogolaing, Kec. Kotamobagu Bar., Kota Kotamobagu",SULAWESI UTARA,95716,Indonesia,82188308283.0,,,0.736364,124.307.192,https://maps.google.com/?cid=0x0:0xe96d01a6f21af429,
mall,Toko umum,TOKO TITA KOTAMOBAGU,"Jl. S Parman, Kotamobagu, Kec. Kotamobagu Bar., Kota Kotamobagu, Sulawesi Utara","Kota Kotamobagu, Sulawesi Utara",SULAWESI UTARA,,Indonesia,82393017174.0,,,0.7402973,1.243.167.742,https://maps.google.com/?cid=0x0:0xbbc213869f5d5902,
mall,Pasar,Mie Tuti pasar serasi,"Jl. Yos Sudarso No.56, Gogagoman, Kec. Kotamobagu Bar., Kota Kotamobagu, Sulawesi Utara","Kota Kotamobagu, Sulawesi Utara",SULAWESI UTARA,,Indonesia,,,,0.7409642,1.243.071.272,https://maps.google.com/?cid=0x0:0x77f21d2c0b7ee25,
mall,Toko bahan makanan,Halal Mart AC HPAI Kotamobagu,"P8V4+58C, Gogagoman, Kec. Kotamobagu Bar., Kota Kotamobagu, Sulawesi Utara 95716","Gogagoman, Kec. Kotamobagu Bar., Kota Kotamobagu",SULAWESI UTARA,95716,Indonesia,81244858876.0,,,0.742946,1.243.057.621,https://maps.google.com/?cid=0x0:0x6b05bb8e6456b87,
mall,Bengkel Sepeda Motor,Anugerah Motor Kotamobagu,"P8P8+VGJ, Unnamed Road, Kotabangon, Kec. Kotamobagu Tim., Kota Kotamobagu, Sulawesi Utara 95716","Unnamed Road, Kotabangon, Kec. Kotamobagu Tim., Kota Kotamobagu",SULAWESI UTARA,95716,Indonesia,,,,0.7372137,124.316.269,https://maps.google.com/?cid=0x0:0x3ba14070e473da1e,
mall,Pusat Perbelanjaan,Toko Air Fresh,"Jl. Yos Sudarso No.54, Gogagoman, Kec. Kotamobagu Bar., Kota Kotamobagu, Sulawesi Utara 95716","Gogagoman, Kec. Kotamobagu Bar., Kota Kotamobagu",SULAWESI UTARA,95716,Indonesia,,,,0.7406581,1.243.076.911,https://maps.google.com/?cid=0x0:0xe6d885485eae2905,
mall,Komplek perumahan,Tong pe Rumah,"P8V3+5CV, Gogagoman, Kec. Kotamobagu Bar., Kota Kotamobagu, Sulawesi Utara","Kota Kotamobagu, Sulawesi Utara",SULAWESI UTARA,,Indonesia,85825009242.0,,,0.7429863,1.243.035.446,https://maps.google.com/?cid=0x0:0xd28e6f6fa79cfd96,
mall,Toko,TOKO Bukit Karya Kotamobagu,"P8Q5+RFQ, Jl. Yos Sudarso, Gogagoman, Kec. Kotamobagu Bar., Kota Kotamobagu, Sulawesi Utara 95716","Jl. Yos Sudarso, Gogagoman, Kec. Kotamobagu Bar., Kota Kotamobagu",SULAWESI UTARA,95716,Indonesia,81288840400.0,,,0.7395859,1.243.087.234,https://maps.google.com/?cid=0x0:0xc930d501f2a3d2a7,
mall,Toko Pakaian,Tasqy shop,"P8P3+7R8, Mogolaing, Kec. Kotamobagu Bar., Kota Kotamobagu, Sulawesi Utara","Kota Kotamobagu, Sulawesi Utara",SULAWESI UTARA,,Indonesia,,,,0.7356671,1.243.045.809,https://maps.google.com/?cid=0x0:0xc77fa270da7083eb,
mall,Pasar,Murah Meriah,"Jl. Brigjend Katamso No.18, Kotabangon, Kec. Kotamobagu Tim., Kota Kotamobagu, Sulawesi Utara 95716","Kotabangon, Kec. Kotamobagu Tim., Kota Kotamobagu",SULAWESI UTARA,95716,Indonesia,,,,0.7370652,1.243.160.768,https://maps.google.com/?cid=0x0:0xc9421165b1dde8bb,
mall,Dealer Sepeda Motor,METRO MOTOR KOTAMOBAGU,"P7JX+MW9, Jl. Adampe Dolot, Molinow, Kec. Kotamobagu Bar., Kota Kotamobagu, Sulawesi Utara 95716","Jl. Adampe Dolot, Molinow, Kec. Kotamobagu Bar., Kota Kotamobagu",SULAWESI UTARA,95716,Indonesia,,,,0.7316606,1.242.998.512,https://maps.google.com/?cid=0x0:0x8d8b3f447bc98a48,
mall,Toko Pakaian,DilaraShop Kotamobagu,"P8H3+MC5, Mogolaing, Kec. Kotamobagu Bar., Kota Kotamobagu, Sulawesi Utara","Kota Kotamobagu, Sulawesi Utara",SULAWESI UTARA,,Indonesia,85222248585.0,,,0.7291412,1.243.035.955,https://maps.google.com/?cid=0x0:0x5213eb7c8c6a9634,
mall,Kafe,EC ATOMY IMPERIAL KOTAMOBAGU CENTER,"Jl. Bolian No.162 a, Gogagoman, Kec. Kotamobagu Bar., Kota Kotamobagu, Sulawesi Utara 95711","Gogagoman, Kec. Kotamobagu Bar., Kota Kotamobagu",SULAWESI UTARA,95711,Indonesia,82271147170.0,,,0.7396656,1.243.058.603,https://maps.google.com/?cid=0x0:0xc544d324e907ec88,
mall,Minimarket,CV. Princess Bintang Karya,"Mongkonai Bar., Kec. Lolayan, Kota Kotamobagu, Sulawesi Utara 95716","Kec. Lolayan, Kota Kotamobagu",SULAWESI UTARA,95716,Indonesia,85256658886.0,,,0.7396851,1.242.740.701,https://maps.google.com/?cid=0x0:0xc25cee1386615963,
mall,Jasa Pembuatan Kunci Duplikat,Ahli kunci duplikat Roberta Kotamobagu,"depan roberta, Jl. Ahmad Yani, Gogagoman, Kec. Kotamobagu Bar., Kota Kotamobagu, Sulawesi Utara 95716","Jl. Ahmad Yani, Gogagoman, Kec. Kotamobagu Bar., Kota Kotamobagu",SULAWESI UTARA,95716,Indonesia,82259929978.0,,,0.7407083,1.243.109.351,https://maps.google.com/?cid=0x0:0x870172f7ed96ef8e,
mall,Toko Pakaian,ENF MOESLIMWEAR,"Jl. Adampe Dolot, Mogolaing, Kec. Kotamobagu Bar., Kota Kotamobagu, Sulawesi Utara","Kota Kotamobagu, Sulawesi Utara",SULAWESI UTARA,,Indonesia,82243388844.0,,,0.7359016,1.243.064.419,https://maps.google.com/?cid=0x0:0x8c9e6ee09ee06fa2,
mall,Pasar pakaian,Achiera Fashion Kotamobagu,"P8H8+J73, Jl. I Bantong, Sinindian, Kec. Kotamobagu Tim., Kota Kotamobagu, Sulawesi Utara 95716","Jl. I Bantong, Sinindian, Kec. Kotamobagu Tim., Kota Kotamobagu",SULAWESI UTARA,95716,Indonesia,,,,0.7290192,1.243.156.769,https://maps.google.com/?cid=0x0:0xbfda5c46fe516423,
mall,Toko Hewan Peliharaan,Pusimeyyong Cat Food,"Jl. Paloko Kinalang No.2, Kotabangon, Kec. Kotamobagu Tim., Kota Kotamobagu, Sulawesi Utara 95716","Kotabangon, Kec. Kotamobagu Tim., Kota Kotamobagu",SULAWESI UTARA,95716,Indonesia,85340406990.0,,,0.7352225,1.243.200.285,https://maps.google.com/?cid=0x0:0x2d8ccfee5668c53f,
mall,mall,Kec. Kotamobagu Sel.,"Kota Kotamobagu, Sulawesi Utara","Kota Kotamobagu, Sulawesi Utara",SULAWESI UTARA,,Indonesia,,,,0.7240463,124.293.299,https://maps.google.com/?cid=0x0:0x270b5a3d87842fb7,
mall,Pusat Perbelanjaan,PARIS MALL SUPERSTORE,"P8Q5+FJJ, Mogolaing, Kec. Kotamobagu Bar., Kota Kotamobagu, Sulawesi Utara","Kota Kotamobagu, Sulawesi Utara",SULAWESI UTARA,,Indonesia,,,,0.7387169,1.243.090.045,https://maps.google.com/?cid=0x0:0x10725652879cf5c9,
mall,Pusat Perbelanjaan,Sulawesi Utara - Kotamobagu - Mongkonai,"P8F9+PXV BaseCamp Bikers Subuhan, Matali, Kec. Kotamobagu Tim., Kota Kotamobagu, Sulawesi Utara","Kota Kotamobagu, Sulawesi Utara",SULAWESI UTARA,,Indonesia,89681054774.0,,,0.7243733,1.243.199.316,https://maps.google.com/?cid=0x0:0x1928e837c01fdbeb,
mall,Pusat Perbelanjaan,PARIS MART,"P8Q4+3MV, Jl. Budi, Mogolaing, Kec. Kotamobagu Bar., Kota Kotamobagu, Sulawesi Utara 95716","Jl. Budi, Mogolaing, Kec. Kotamobagu Bar., Kota Kotamobagu",SULAWESI UTARA,95716,Indonesia,,,,0.73774,124.306.685,https://maps.google.com/?cid=0x0:0xa2d6fe151cf0a30,
mall,Kafe,Ruko Bogani,"P863+7JJ, Jl. DC. Manoppo, Pobundayan, Kec. Kotamobagu Sel., Kota Kotamobagu, Sulawesi Utara","Kota Kotamobagu, Sulawesi Utara",SULAWESI UTARA,,Indonesia,85695584363.0,,,0.7107093,1.243.040.027,https://maps.google.com/?cid=0x0:0x2a97d63727efa4ac,
mall,Toko,Kios Sky,"P76Q+7FG, Kopandakan I, Kec. Kotamobagu Sel., Kota Kotamobagu, Sulawesi Utara","Kota Kotamobagu, Sulawesi Utara",SULAWESI UTARA,,Indonesia,82290065050.0,,,0.710686,1.242.887.042,https://maps.google.com/?cid=0x0:0xaf794d0a1446d8b6,
mall,Pasar,Mie Tuti pasar serasi,"Jl. Yos Sudarso No.56, Gogagoman, Kec. Kotamobagu Bar., Kota Kotamobagu, Sulawesi Utara","Kota Kotamobagu, Sulawesi Utara",SULAWESI UTARA,,Indonesia,,,,0.7409642,1.243.071.272,https://maps.google.com/?cid=0x0:0x77f21d2c0b7ee25,
mall,Toko Pakaian,DilaraShop Kotamobagu,"P8H3+MC5, Mogolaing, Kec. Kotamobagu Bar., Kota Kotamobagu, Sulawesi Utara","Kota Kotamobagu, Sulawesi Utara",SULAWESI UTARA,,Indonesia,85222248585.0,,,0.7291412,1.243.035.955,https://maps.google.com/?cid=0x0:0x5213eb7c8c6a9634,
mall,Pasar,Bagi Cell,"P75M+M4F, Kopandakan I, Kec. Kotamobagu Sel., Kota Kotamobagu, Sulawesi Utara","Kota Kotamobagu, Sulawesi Utara",SULAWESI UTARA,,Indonesia,85256284242.0,,,0.7091754,1.242.827.978,https://maps.google.com/?cid=0x0:0x871d6bd0cfafd410,
mall,Klinik Kesehatan,Klinik totabuancare,"P7FV+M7Q, Jl. Brawijaya, Mongondow, Kec. Kotamobagu Sel., Kota Kotamobagu, Sulawesi Utara","Kota Kotamobagu, Sulawesi Utara",SULAWESI UTARA,,Indonesia,82398408764.0,,,0.724203,1.242.932.312,https://maps.google.com/?cid=0x0:0xdee0980c40cf1620,
mall,Toko,Toko Mimi Accessories Kotamobagu,"Jl. Ratahan - Kotamobagu, Mogolaing, Kec. Kotamobagu Bar., Kota Kotamobagu, Sulawesi Utara 95716","Mogolaing, Kec. Kotamobagu Bar., Kota Kotamobagu",SULAWESI UTARA,95716,Indonesia,82188308283.0,,,0.736364,124.307.192,https://maps.google.com/?cid=0x0:0xe96d01a6f21af429,
mall,Toko umum,TOKO TITA KOTAMOBAGU,"Jl. S Parman, Kotamobagu, Kec. Kotamobagu Bar., Kota Kotamobagu, Sulawesi Utara","Kota Kotamobagu, Sulawesi Utara",SULAWESI UTARA,,Indonesia,82393017174.0,,,0.7402973,1.243.167.742,https://maps.google.com/?cid=0x0:0xbbc213869f5d5902,
mall,Pusat Perbelanjaan,Nadashop_Ktg,"P8F3+M58, Motoboi Kecil, Kec. Kotamobagu Sel., Kota Kotamobagu, Sulawesi Utara","Kota Kotamobagu, Sulawesi Utara",SULAWESI UTARA,,Indonesia,81527286287.0,,,0.7241591,124.302.963,https://maps.google.com/?cid=0x0:0xfef924e3a5570de1,
mall,Pusat Perbelanjaan,PAKAKAT ANGLAR,"P875+987, Unnamed Road, Pobundayan, Kec. Kotamobagu Sel., Kota Kotamobagu, Sulawesi Utara","Kota Kotamobagu, Sulawesi Utara",SULAWESI UTARA,,Indonesia,,,,0.7134189,1.243.083.111,https://maps.google.com/?cid=0x0:0x2db3b558dcaa2f1b,
mall,Toko Pakaian,Tasqy shop,"P8P3+7R8, Mogolaing, Kec. Kotamobagu Bar., Kota Kotamobagu, Sulawesi Utara","Kota Kotamobagu, Sulawesi Utara",SULAWESI UTARA,,Indonesia,,,,0.7356671,1.243.045.809,https://maps.google.com/?cid=0x0:0xc77fa270da7083eb,
mall,Grosir pakaian,Butik Arfa Kotamobagu,"depan SDN 1, Jl. Matoa, Pobundayan, Kec. Kotamobagu Sel., Kota Kotamobagu, Sulawesi Utara","Kota Kotamobagu, Sulawesi Utara",SULAWESI UTARA,,Indonesia,,,,0.7169444,1.243.073.608,https://maps.google.com/?cid=0x0:0xc9a6575ed7b447c2,
mall,Dealer Sepeda Motor,METRO MOTOR KOTAMOBAGU,"P7JX+MW9, Jl. Adampe Dolot, Molinow, Kec. Kotamobagu Bar., Kota Kotamobagu, Sulawesi Utara 95716","Jl. Adampe Dolot, Molinow, Kec. Kotamobagu Bar., Kota Kotamobagu",SULAWESI UTARA,95716,Indonesia,,,,0.7316606,1.242.998.512,https://maps.google.com/?cid=0x0:0x8d8b3f447bc98a48,
mall,Toko umum,RStore Kotamobagu,"Jl. Siliwangi, Kobo Besar, Kec. Kotamobagu Tim., Kota Kotamobagu, Sulawesi Utara 95719","Kobo Besar, Kec. Kotamobagu Tim., Kota Kotamobagu",SULAWESI UTARA,95719,Indonesia,82340003335.0,,,0.7238171,1.243.259.797,https://maps.google.com/?cid=0x0:0xcb70409fcca8d2e,
mall,Toko,Fishop Kotamobagu,"P895+Q29, Jl. DC. Manoppo, Pobundayan, Kec. Kotamobagu Sel., Kota Kotamobagu, Sulawesi Utara","Kota Kotamobagu, Sulawesi Utara",SULAWESI UTARA,,Indonesia,82290150510.0,,,0.7194069,1.243.076.044,https://maps.google.com/?cid=0x0:0x25cbc8895e0fe52a,
mall,Pasar,pasar poyowa kecil,"P79G+R7W, Poyowa Kecil, Kec. Kotamobagu Sel., Kota Kotamobagu, Sulawesi Utara","Kota Kotamobagu, Sulawesi Utara",SULAWESI UTARA,,Indonesia,,,,0.7196214,1.242.757.173,https://maps.google.com/?cid=0x0:0x15ac0ba149817583,
mall,Toko bahan makanan,Kios Faeyza,"Tabang, Kec. Kotamobagu Sel., Kota Kotamobagu, Sulawesi Utara","Kota Kotamobagu, Sulawesi Utara",SULAWESI UTARA,,Indonesia,8981100300.0,,,0.705676,1.243.171.116,https://maps.google.com/?cid=0x0:0xb8ebe35bd501c03,
mall,Pasar pakaian,Achiera Fashion Kotamobagu,"P8H8+J73, Jl. I Bantong, Sinindian, Kec. Kotamobagu Tim., Kota Kotamobagu, Sulawesi Utara 95716","Jl. I Bantong, Sinindian, Kec. Kotamobagu Tim., Kota Kotamobagu",SULAWESI UTARA,95716,Indonesia,,,,0.7290192,1.243.156.769,https://maps.google.com/?cid=0x0:0xbfda5c46fe516423,
mall,Toko Pakaian,Naintri collection,"collection, Jl. DC. Manoppo No.RT 4, Pobundayan, Kec. Kotamobagu Sel., Kota Kotamobagu, Sulawesi Utara","Kota Kotamobagu, Sulawesi Utara",SULAWESI UTARA,,Indonesia,85757833881.0,,,0.7148294,1.243.058.426,https://maps.google.com/?cid=0x0:0x3c27b2cef28b68a9,
mall,Toko,Warung Kalila (Delivery ),"Jl. Losic Losud, Kopandakan I, Kec. Kotamobagu Sel., Kota Kotamobagu, Sulawesi Utara","Kota Kotamobagu, Sulawesi Utara",SULAWESI UTARA,,Indonesia,81354950569.0,,,0.7064213,1.242.921.395,https://maps.google.com/?cid=0x0:0x40116f0855d65004,
mall,Toko,TOKO Bukit Karya Kotamobagu,"P8Q5+RFQ, Jl. Yos Sudarso, Gogagoman, Kec. Kotamobagu Bar., Kota Kotamobagu, Sulawesi Utara 95716","Jl. Yos Sudarso, Gogagoman, Kec. Kotamobagu Bar., Kota Kotamobagu",SULAWESI UTARA,95716,Indonesia,81288840400.0,,,0.7395859,1.243.087.234,https://maps.google.com/?cid=0x0:0xc930d501f2a3d2a7,
mall,mall,Kec. Kotamobagu Tim.,"Kota Kotamobagu, Sulawesi Utara","Kota Kotamobagu, Sulawesi Utara",SULAWESI UTARA,,Indonesia,,,,0.7377324,1.243.224.496,https://maps.google.com/?cid=0x0:0xf276a13be322dc46,
mall,Pusat Perbelanjaan,PARIS MALL SUPERSTORE,"P8Q5+FJJ, Mogolaing, Kec. Kotamobagu Bar., Kota Kotamobagu, Sulawesi Utara","Kota Kotamobagu, Sulawesi Utara",SULAWESI UTARA,,Indonesia,,,,0.7387169,1.243.090.045,https://maps.google.com/?cid=0x0:0x10725652879cf5c9,
mall,Pusat Perbelanjaan,Sulawesi Utara - Kotamobagu - Mongkonai,"P8F9+PXV BaseCamp Bikers Subuhan, Matali, Kec. Kotamobagu Tim., Kota Kotamobagu, Sulawesi Utara","Kota Kotamobagu, Sulawesi Utara",SULAWESI UTARA,,Indonesia,89681054774.0,,,0.7243733,1.243.199.316,https://maps.google.com/?cid=0x0:0x1928e837c01fdbeb,
mall,Toko umum,TOKO TITA KOTAMOBAGU,"Jl. S Parman, Kotamobagu, Kec. Kotamobagu Bar., Kota Kotamobagu, Sulawesi Utara","Kota Kotamobagu, Sulawesi Utara",SULAWESI UTARA,,Indonesia,82393017174.0,,,0.7402973,1.243.167.742,https://maps.google.com/?cid=0x0:0xbbc213869f5d5902,
mall,Pasar,Mie Tuti pasar serasi,"Jl. Yos Sudarso No.56, Gogagoman, Kec. Kotamobagu Bar., Kota Kotamobagu, Sulawesi Utara","Kota Kotamobagu, Sulawesi Utara",SULAWESI UTARA,,Indonesia,,,,0.7409642,1.243.071.272,https://maps.google.com/?cid=0x0:0x77f21d2c0b7ee25,
mall,Toko,Toko Mimi Accessories Kotamobagu,"Jl. Ratahan - Kotamobagu, Mogolaing, Kec. Kotamobagu Bar., Kota Kotamobagu, Sulawesi Utara 95716","Mogolaing, Kec. Kotamobagu Bar., Kota Kotamobagu",SULAWESI UTARA,95716,Indonesia,82188308283.0,,,0.736364,124.307.192,https://maps.google.com/?cid=0x0:0xe96d01a6f21af429,
mall,Bengkel Sepeda Motor,Anugerah Motor Kotamobagu,"P8P8+VGJ, Unnamed Road, Kotabangon, Kec. Kotamobagu Tim., Kota Kotamobagu, Sulawesi Utara 95716","Unnamed Road, Kotabangon, Kec. Kotamobagu Tim., Kota Kotamobagu",SULAWESI UTARA,95716,Indonesia,,,,0.7372137,124.316.269,https://maps.google.com/?cid=0x0:0x3ba14070e473da1e,
mall,Minimarket,IDM POYOWA BESAR,"P859+VC2, Poyowa Besar II, Kec. Kotamobagu Sel., Kota Kotamobagu, Sulawesi Utara","Kota Kotamobagu, Sulawesi Utara",SULAWESI UTARA,,Indonesia,8114325907.0,,,0.7096333,1.243.185.111,https://maps.google.com/?cid=0x0:0x8b2ee72ada518ab1,
mall,Toko umum,RStore Kotamobagu,"Jl. Siliwangi, Kobo Besar, Kec. Kotamobagu Tim., Kota Kotamobagu, Sulawesi Utara 95719","Kobo Besar, Kec. Kotamobagu Tim., Kota Kotamobagu",SULAWESI UTARA,95719,Indonesia,82340003335.0,,,0.7238171,1.243.259.797,https://maps.google.com/?cid=0x0:0xcb70409fcca8d2e,
mall,Toko bahan makanan,Halal Mart AC HPAI Kotamobagu,"P8V4+58C, Gogagoman, Kec. Kotamobagu Bar., Kota Kotamobagu, Sulawesi Utara 95716","Gogagoman, Kec. Kotamobagu Bar., Kota Kotamobagu",SULAWESI UTARA,95716,Indonesia,81244858876.0,,,0.742946,1.243.057.621,https://maps.google.com/?cid=0x0:0x6b05bb8e6456b87,
mall,Pasar pakaian,Achiera Fashion Kotamobagu,"P8H8+J73, Jl. I Bantong, Sinindian, Kec. Kotamobagu Tim., Kota Kotamobagu, Sulawesi Utara 95716","Jl. I Bantong, Sinindian, Kec. Kotamobagu Tim., Kota Kotamobagu",SULAWESI UTARA,95716,Indonesia,,,,0.7290192,1.243.156.769,https://maps.google.com/?cid=0x0:0xbfda5c46fe516423,
mall,Toko Pakaian,DilaraShop Kotamobagu,"P8H3+MC5, Mogolaing, Kec. Kotamobagu Bar., Kota Kotamobagu, Sulawesi Utara","Kota Kotamobagu, Sulawesi Utara",SULAWESI UTARA,,Indonesia,85222248585.0,,,0.7291412,1.243.035.955,https://maps.google.com/?cid=0x0:0x5213eb7c8c6a9634,
mall,Pasar,Murah Meriah,"Jl. Brigjend Katamso No.18, Kotabangon, Kec. Kotamobagu Tim., Kota Kotamobagu, Sulawesi Utara 95716","Kotabangon, Kec. Kotamobagu Tim., Kota Kotamobagu",SULAWESI UTARA,95716,Indonesia,,,,0.7370652,1.243.160.768,https://maps.google.com/?cid=0x0:0xc9421165b1dde8bb,
mall,Toko,TOKO Bukit Karya Kotamobagu,"P8Q5+RFQ, Jl. Yos Sudarso, Gogagoman, Kec. Kotamobagu Bar., Kota Kotamobagu, Sulawesi Utara 95716","Jl. Yos Sudarso, Gogagoman, Kec. Kotamobagu Bar., Kota Kotamobagu",SULAWESI UTARA,95716,Indonesia,81288840400.0,,,0.7395859,1.243.087.234,https://maps.google.com/?cid=0x0:0xc930d501f2a3d2a7,
mall,Toko bahan makanan,Depot amirah,"P88F+WPH, Jl. Teuku Umar, Motoboi Besar, Kec. Kotamobagu Tim., Kota Kotamobagu, Sulawesi Utara","Kota Kotamobagu, Sulawesi Utara",SULAWESI UTARA,,Indonesia,81523748454.0,,,0.717314,1.243.243.645,https://maps.google.com/?cid=0x0:0xdb0b3e0f89fcbfa4,
mall,Dealer Sepeda Motor,METRO MOTOR KOTAMOBAGU,"P7JX+MW9, Jl. Adampe Dolot, Molinow, Kec. Kotamobagu Bar., Kota Kotamobagu, Sulawesi Utara 95716","Jl. Adampe Dolot, Molinow, Kec. Kotamobagu Bar., Kota Kotamobagu",SULAWESI UTARA,95716,Indonesia,,,,0.7316606,1.242.998.512,https://maps.google.com/?cid=0x0:0x8d8b3f447bc98a48,
mall,Toko Pakaian,Tasqy shop,"P8P3+7R8, Mogolaing, Kec. Kotamobagu Bar., Kota Kotamobagu, Sulawesi Utara","Kota Kotamobagu, Sulawesi Utara",SULAWESI UTARA,,Indonesia,,,,0.7356671,1.243.045.809,https://maps.google.com/?cid=0x0:0xc77fa270da7083eb,
mall,Kafe,EC ATOMY IMPERIAL KOTAMOBAGU CENTER,"Jl. Bolian No.162 a, Gogagoman, Kec. Kotamobagu Bar., Kota Kotamobagu, Sulawesi Utara 95711","Gogagoman, Kec. Kotamobagu Bar., Kota Kotamobagu",SULAWESI UTARA,95711,Indonesia,82271147170.0,,,0.7396656,1.243.058.603,https://maps.google.com/?cid=0x0:0xc544d324e907ec88,
mall,Kafe,Ruko Bogani,"P863+7JJ, Jl. DC. Manoppo, Pobundayan, Kec. Kotamobagu Sel., Kota Kotamobagu, Sulawesi Utara","Kota Kotamobagu, Sulawesi Utara",SULAWESI UTARA,,Indonesia,85695584363.0,,,0.7107093,1.243.040.027,https://maps.google.com/?cid=0x0:0x2a97d63727efa4ac,
mall,Komplek perumahan,Tong pe Rumah,"P8V3+5CV, Gogagoman, Kec. Kotamobagu Bar., Kota Kotamobagu, Sulawesi Utara","Kota Kotamobagu, Sulawesi Utara",SULAWESI UTARA,,Indonesia,85825009242.0,,,0.7429863,1.243.035.446,https://maps.google.com/?cid=0x0:0xd28e6f6fa79cfd96,
mall,Toko Hewan Peliharaan,Pusimeyyong Cat Food,"Jl. Paloko Kinalang No.2, Kotabangon, Kec. Kotamobagu Tim., Kota Kotamobagu, Sulawesi Utara 95716","Kotabangon, Kec. Kotamobagu Tim., Kota Kotamobagu",SULAWESI UTARA,95716,Indonesia,85340406990.0,,,0.7352225,1.243.200.285,https://maps.google.com/?cid=0x0:0x2d8ccfee5668c53f,
mall,Pusat Perbelanjaan,Tk mas Monas Hill,"jl.yos sudarso No.51, Matali, Kec. Kotamobagu Tim., Kota Kotamobagu, Sulawesi Utara","Kota Kotamobagu, Sulawesi Utara",SULAWESI UTARA,,Indonesia,,,,0.7243733,1.243.199.316,https://maps.google.com/?cid=0x0:0x7dd6e826cc4dfc91,
mall,Jasa Pembuatan Kunci Duplikat,Ahli kunci duplikat Roberta Kotamobagu,"depan roberta, Jl. Ahmad Yani, Gogagoman, Kec. Kotamobagu Bar., Kota Kotamobagu, Sulawesi Utara 95716","Jl. Ahmad Yani, Gogagoman, Kec. Kotamobagu Bar., Kota Kotamobagu",SULAWESI UTARA,95716,Indonesia,82259929978.0,,,0.7407083,1.243.109.351,https://maps.google.com/?cid=0x0:0x870172f7ed96ef8e,
mall,mall,Sulawesi Utara 95716,"Mogolaing, Kec. Kotamobagu Bar., Kota Kotamobagu, Sulawesi Utara","Kota Kotamobagu, Sulawesi Utara",SULAWESI UTARA,,Indonesia,,,,0.7331339,1.243.035.249,https://maps.google.com/?cid=0x0:0xb303343be4233a,
mall,Pusat Perbelanjaan,PARIS MALL SUPERSTORE,"P8Q5+FJJ, Mogolaing, Kec. Kotamobagu Bar., Kota Kotamobagu, Sulawesi Utara","Kota Kotamobagu, Sulawesi Utara",SULAWESI UTARA,,Indonesia,,,,0.7387169,1.243.090.045,https://maps.google.com/?cid=0x0:0x10725652879cf5c9,
mall,Pusat Perbelanjaan,PARIS MART,"P8Q4+3MV, Jl. Budi, Mogolaing, Kec. Kotamobagu Bar., Kota Kotamobagu, Sulawesi Utara 95716","Jl. Budi, Mogolaing, Kec. Kotamobagu Bar., Kota Kotamobagu",SULAWESI UTARA,95716,Indonesia,,,,0.73774,124.306.685,https://maps.google.com/?cid=0x0:0xa2d6fe151cf0a30,
mall,Toko,Fishop Kotamobagu,"P895+Q29, Jl. DC. Manoppo, Pobundayan, Kec. Kotamobagu Sel., Kota Kotamobagu, Sulawesi Utara","Kota Kotamobagu, Sulawesi Utara",SULAWESI UTARA,,Indonesia,82290150510.0,,,0.7194069,1.243.076.044,https://maps.google.com/?cid=0x0:0x25cbc8895e0fe52a,
mall,Toko bahan makanan,Halal Mart AC HPAI Kotamobagu,"P8V4+58C, Gogagoman, Kec. Kotamobagu Bar., Kota Kotamobagu, Sulawesi Utara 95716","Gogagoman, Kec. Kotamobagu Bar., Kota Kotamobagu",SULAWESI UTARA,95716,Indonesia,81244858876.0,,,0.742946,1.243.057.621,https://maps.google.com/?cid=0x0:0x6b05bb8e6456b87,
mall,mall,Kec. Kotamobagu Tim.,"Kota Kotamobagu, Sulawesi Utara","Kota Kotamobagu, Sulawesi Utara",SULAWESI UTARA,,Indonesia,,,,0.7377324,1.243.224.496,https://maps.google.com/?cid=0x0:0xf276a13be322dc46,
mall,Toko,Toko Mimi Accessories Kotamobagu,"Jl. Ratahan - Kotamobagu, Mogolaing, Kec. Kotamobagu Bar., Kota Kotamobagu, Sulawesi Utara 95716","Mogolaing, Kec. Kotamobagu Bar., Kota Kotamobagu",SULAWESI UTARA,95716,Indonesia,82188308283.0,,,0.736364,124.307.192,https://maps.google.com/?cid=0x0:0xe96d01a6f21af429,
mall,Bengkel Sepeda Motor,Anugerah Motor Kotamobagu,"P8P8+VGJ, Unnamed Road, Kotabangon, Kec. Kotamobagu Tim., Kota Kotamobagu, Sulawesi Utara 95716","Unnamed Road, Kotabangon, Kec. Kotamobagu Tim., Kota Kotamobagu",SULAWESI UTARA,95716,Indonesia,,,,0.7372137,124.316.269,https://maps.google.com/?cid=0x0:0x3ba14070e473da1e,
mall,Toko umum,TOKO TITA KOTAMOBAGU,"Jl. S Parman, Kotamobagu, Kec. Kotamobagu Bar., Kota Kotamobagu, Sulawesi Utara","Kota Kotamobagu, Sulawesi Utara",SULAWESI UTARA,,Indonesia,82393017174.0,,,0.7402973,1.243.167.742,https://maps.google.com/?cid=0x0:0xbbc213869f5d5902,
mall,Toko umum,RStore Kotamobagu,"Jl. Siliwangi, Kobo Besar, Kec. Kotamobagu Tim., Kota Kotamobagu, Sulawesi Utara 95719","Kobo Besar, Kec. Kotamobagu Tim., Kota Kotamobagu",SULAWESI UTARA,95719,Indonesia,82340003335.0,,,0.7238171,1.243.259.797,https://maps.google.com/?cid=0x0:0xcb70409fcca8d2e,
mall,Minimarket,IDM POYOWA BESAR,"P859+VC2, Poyowa Besar II, Kec. Kotamobagu Sel., Kota Kotamobagu, Sulawesi Utara","Kota Kotamobagu, Sulawesi Utara",SULAWESI UTARA,,Indonesia,8114325907.0,,,0.7096333,1.243.185.111,https://maps.google.com/?cid=0x0:0x8b2ee72ada518ab1,
mall,Pasar pakaian,Achiera Fashion Kotamobagu,"P8H8+J73, Jl. I Bantong, Sinindian, Kec. Kotamobagu Tim., Kota Kotamobagu, Sulawesi Utara 95716","Jl. I Bantong, Sinindian, Kec. Kotamobagu Tim., Kota Kotamobagu",SULAWESI UTARA,95716,Indonesia,,,,0.7290192,1.243.156.769,https://maps.google.com/?cid=0x0:0xbfda5c46fe516423,
mall,Toko,TOKO Bukit Karya Kotamobagu,"P8Q5+RFQ, Jl. Yos Sudarso, Gogagoman, Kec. Kotamobagu Bar., Kota Kotamobagu, Sulawesi Utara 95716","Jl. Yos Sudarso, Gogagoman, Kec. Kotamobagu Bar., Kota Kotamobagu",SULAWESI UTARA,95716,Indonesia,81288840400.0,,,0.7395859,1.243.087.234,https://maps.google.com/?cid=0x0:0xc930d501f2a3d2a7,
mall,Toko Hewan Peliharaan,Pusimeyyong Cat Food,"Jl. Paloko Kinalang No.2, Kotabangon, Kec. Kotamobagu Tim., Kota Kotamobagu, Sulawesi Utara 95716","Kotabangon, Kec. Kotamobagu Tim., Kota Kotamobagu",SULAWESI UTARA,95716,Indonesia,85340406990.0,,,0.7352225,1.243.200.285,https://maps.google.com/?cid=0x0:0x2d8ccfee5668c53f,
mall,Pasar,Murah Meriah,"Jl. Brigjend Katamso No.18, Kotabangon, Kec. Kotamobagu Tim., Kota Kotamobagu, Sulawesi Utara 95716","Kotabangon, Kec. Kotamobagu Tim., Kota Kotamobagu",SULAWESI UTARA,95716,Indonesia,,,,0.7370652,1.243.160.768,https://maps.google.com/?cid=0x0:0xc9421165b1dde8bb,
mall,Pasar,Mie Tuti pasar serasi,"Jl. Yos Sudarso No.56, Gogagoman, Kec. Kotamobagu Bar., Kota Kotamobagu, Sulawesi Utara","Kota Kotamobagu, Sulawesi Utara",SULAWESI UTARA,,Indonesia,,,,0.7409642,1.243.071.272,https://maps.google.com/?cid=0x0:0x77f21d2c0b7ee25,
mall,Dealer Sepeda Motor,METRO MOTOR KOTAMOBAGU,"P7JX+MW9, Jl. Adampe Dolot, Molinow, Kec. Kotamobagu Bar., Kota Kotamobagu, Sulawesi Utara 95716","Jl. Adampe Dolot, Molinow, Kec. Kotamobagu Bar., Kota Kotamobagu",SULAWESI UTARA,95716,Indonesia,,,,0.7316606,1.242.998.512,https://maps.google.com/?cid=0x0:0x8d8b3f447bc98a48,
mall,Pusat Perbelanjaan,Toko Air Fresh,"Jl. Yos Sudarso No.54, Gogagoman, Kec. Kotamobagu Bar., Kota Kotamobagu, Sulawesi Utara 95716","Gogagoman, Kec. Kotamobagu Bar., Kota Kotamobagu",SULAWESI UTARA,95716,Indonesia,,,,0.7406581,1.243.076.911,https://maps.google.com/?cid=0x0:0xe6d885485eae2905,
mall,Toko Pakaian,Jayatex,"Jl. Kartini No.30, Gogagoman, Kec. Kotamobagu Bar., Kota Kotamobagu, Sulawesi Utara 95716","Gogagoman, Kec. Kotamobagu Bar., Kota Kotamobagu",SULAWESI UTARA,95716,Indonesia,,,,0.7406522,1.243.089.293,https://maps.google.com/?cid=0x0:0x55fcba297fa768e0,
mall,Jasa Pembuatan Kunci Duplikat,Ahli kunci duplikat Roberta Kotamobagu,"depan roberta, Jl. Ahmad Yani, Gogagoman, Kec. Kotamobagu Bar., Kota Kotamobagu, Sulawesi Utara 95716","Jl. Ahmad Yani, Gogagoman, Kec. Kotamobagu Bar., Kota Kotamobagu",SULAWESI UTARA,95716,Indonesia,82259929978.0,,,0.7407083,1.243.109.351,https://maps.google.com/?cid=0x0:0x870172f7ed96ef8e,
mall,Toko Aksesori Ponsel,Neniolshop dan Pulsa,"Jl. Kesatria, Genggulang, Kec. Kotamobagu Utara, Kota Kotamobagu, Sulawesi Utara 95716","Genggulang, Kec. Kotamobagu Utara, Kota Kotamobagu",SULAWESI UTARA,95716,Indonesia,85240177788.0,,,0.7466207,1.243.124.653,https://maps.google.com/?cid=0x0:0x1378932b05dbd62e,
mall,Toko bahan makanan,Depot amirah,"P88F+WPH, Jl. Teuku Umar, Motoboi Besar, Kec. Kotamobagu Tim., Kota Kotamobagu, Sulawesi Utara","Kota Kotamobagu, Sulawesi Utara",SULAWESI UTARA,,Indonesia,81523748454.0,,,0.717314,1.243.243.645,https://maps.google.com/?cid=0x0:0xdb0b3e0f89fcbfa4,
mall,mall,Sulawesi Utara 95718,"Kotabangon, Kec. Kotamobagu Tim., Kota Kotamobagu, Sulawesi Utara","Kota Kotamobagu, Sulawesi Utara",SULAWESI UTARA,,Indonesia,,,,0.7331272,1.243.211.987,https://maps.google.com/?cid=0x0:0x3ca38e005d607719,
mall,Pusat Perbelanjaan,PARIS MALL SUPERSTORE,"P8Q5+FJJ, Mogolaing, Kec. Kotamobagu Bar., Kota Kotamobagu, Sulawesi Utara","Kota Kotamobagu, Sulawesi Utara",SULAWESI UTARA,,Indonesia,,,,0.7387169,1.243.090.045,https://maps.google.com/?cid=0x0:0x10725652879cf5c9,
mall,Pusat Perbelanjaan,Sulawesi Utara - Kotamobagu - Mongkonai,"P8F9+PXV BaseCamp Bikers Subuhan, Matali, Kec. Kotamobagu Tim., Kota Kotamobagu, Sulawesi Utara","Kota Kotamobagu, Sulawesi Utara",SULAWESI UTARA,,Indonesia,89681054774.0,,,0.7243733,1.243.199.316,https://maps.google.com/?cid=0x0:0x1928e837c01fdbeb,
mall,Pasar pakaian,Achiera Fashion Kotamobagu,"P8H8+J73, Jl. I Bantong, Sinindian, Kec. Kotamobagu Tim., Kota Kotamobagu, Sulawesi Utara 95716","Jl. I Bantong, Sinindian, Kec. Kotamobagu Tim., Kota Kotamobagu",SULAWESI UTARA,95716,Indonesia,,,,0.7290192,1.243.156.769,https://maps.google.com/?cid=0x0:0xbfda5c46fe516423,
mall,Toko bahan makanan,Halal Mart AC HPAI Kotamobagu,"P8V4+58C, Gogagoman, Kec. Kotamobagu Bar., Kota Kotamobagu, Sulawesi Utara 95716","Gogagoman, Kec. Kotamobagu Bar., Kota Kotamobagu",SULAWESI UTARA,95716,Indonesia,81244858876.0,,,0.742946,1.243.057.621,https://maps.google.com/?cid=0x0:0x6b05bb8e6456b87,
mall,Toko,Fishop Kotamobagu,"P895+Q29, Jl. DC. Manoppo, Pobundayan, Kec. Kotamobagu Sel., Kota Kotamobagu, Sulawesi Utara","Kota Kotamobagu, Sulawesi Utara",SULAWESI UTARA,,Indonesia,82290150510.0,,,0.7194069,1.243.076.044,https://maps.google.com/?cid=0x0:0x25cbc8895e0fe52a,
mall,Toko umum,TOKO TITA KOTAMOBAGU,"Jl. S Parman, Kotamobagu, Kec. Kotamobagu Bar., Kota Kotamobagu, Sulawesi Utara","Kota Kotamobagu, Sulawesi Utara",SULAWESI UTARA,,Indonesia,82393017174.0,,,0.7402973,1.243.167.742,https://maps.google.com/?cid=0x0:0xbbc213869f5d5902,
mall,mall,Kec. Kotamobagu Tim.,"Kota Kotamobagu, Sulawesi Utara","Kota Kotamobagu, Sulawesi Utara",SULAWESI UTARA,,Indonesia,,,,0.7377324,1.243.224.496,https://maps.google.com/?cid=0x0:0xf276a13be322dc46,
mall,Pusat Perbelanjaan,PARIS MALL SUPERSTORE,"P8Q5+FJJ, Mogolaing, Kec. Kotamobagu Bar., Kota Kotamobagu, Sulawesi Utara","Kota Kotamobagu, Sulawesi Utara",SULAWESI UTARA,,Indonesia,,,,0.7387169,1.243.090.045,https://maps.google.com/?cid=0x0:0x10725652879cf5c9,
mall,Pusat Perbelanjaan,Sulawesi Utara - Kotamobagu - Mongkonai,"P8F9+PXV BaseCamp Bikers Subuhan, Matali, Kec. Kotamobagu Tim., Kota Kotamobagu, Sulawesi Utara","Kota Kotamobagu, Sulawesi Utara",SULAWESI UTARA,,Indonesia,89681054774.0,,,0.7243733,1.243.199.316,https://maps.google.com/?cid=0x0:0x1928e837c01fdbeb,
mall,Toko umum,RStore Kotamobagu,"Jl. Siliwangi, Kobo Besar, Kec. Kotamobagu Tim., Kota Kotamobagu, Sulawesi Utara 95719","Kobo Besar, Kec. Kotamobagu Tim., Kota Kotamobagu",SULAWESI UTARA,95719,Indonesia,82340003335.0,,,0.7238171,1.243.259.797,https://maps.google.com/?cid=0x0:0xcb70409fcca8d2e,
mall,Toko umum,TOKO TITA KOTAMOBAGU,"Jl. S Parman, Kotamobagu, Kec. Kotamobagu Bar., Kota Kotamobagu, Sulawesi Utara","Kota Kotamobagu, Sulawesi Utara",SULAWESI UTARA,,Indonesia,82393017174.0,,,0.7402973,1.243.167.742,https://maps.google.com/?cid=0x0:0xbbc213869f5d5902,
mall,Pasar,Murah Meriah,"Jl. Brigjend Katamso No.18, Kotabangon, Kec. Kotamobagu Tim., Kota Kotamobagu, Sulawesi Utara 95716","Kotabangon, Kec. Kotamobagu Tim., Kota Kotamobagu",SULAWESI UTARA,95716,Indonesia,,,,0.7370652,1.243.160.768,https://maps.google.com/?cid=0x0:0xc9421165b1dde8bb,
mall,Minimarket,IDM POYOWA BESAR,"P859+VC2, Poyowa Besar II, Kec. Kotamobagu Sel., Kota Kotamobagu, Sulawesi Utara","Kota Kotamobagu, Sulawesi Utara",SULAWESI UTARA,,Indonesia,8114325907.0,,,0.7096333,1.243.185.111,https://maps.google.com/?cid=0x0:0x8b2ee72ada518ab1,
mall,Toko,Toko Mimi Accessories Kotamobagu,"Jl. Ratahan - Kotamobagu, Mogolaing, Kec. Kotamobagu Bar., Kota Kotamobagu, Sulawesi Utara 95716","Mogolaing, Kec. Kotamobagu Bar., Kota Kotamobagu",SULAWESI UTARA,95716,Indonesia,82188308283.0,,,0.736364,124.307.192,https://maps.google.com/?cid=0x0:0xe96d01a6f21af429,
mall,Pasar,Mie Tuti pasar serasi,"Jl. Yos Sudarso No.56, Gogagoman, Kec. Kotamobagu Bar., Kota Kotamobagu, Sulawesi Utara","Kota Kotamobagu, Sulawesi Utara",SULAWESI UTARA,,Indonesia,,,,0.7409642,1.243.071.272,https://maps.google.com/?cid=0x0:0x77f21d2c0b7ee25,
mall,Toko bahan makanan,Halal Mart AC HPAI Kotamobagu,"P8V4+58C, Gogagoman, Kec. Kotamobagu Bar., Kota Kotamobagu, Sulawesi Utara 95716","Gogagoman, Kec. Kotamobagu Bar., Kota Kotamobagu",SULAWESI UTARA,95716,Indonesia,81244858876.0,,,0.742946,1.243.057.621,https://maps.google.com/?cid=0x0:0x6b05bb8e6456b87,
mall,Kafe,Ruko Bogani,"P863+7JJ, Jl. DC. Manoppo, Pobundayan, Kec. Kotamobagu Sel., Kota Kotamobagu, Sulawesi Utara","Kota Kotamobagu, Sulawesi Utara",SULAWESI UTARA,,Indonesia,85695584363.0,,,0.7107093,1.243.040.027,https://maps.google.com/?cid=0x0:0x2a97d63727efa4ac,
mall,Toko,TOKO Bukit Karya Kotamobagu,"P8Q5+RFQ, Jl. Yos Sudarso, Gogagoman, Kec. Kotamobagu Bar., Kota Kotamobagu, Sulawesi Utara 95716","Jl. Yos Sudarso, Gogagoman, Kec. Kotamobagu Bar., Kota Kotamobagu",SULAWESI UTARA,95716,Indonesia,81288840400.0,,,0.7395859,1.243.087.234,https://maps.google.com/?cid=0x0:0xc930d501f2a3d2a7,
mall,Bengkel Sepeda Motor,Anugerah Motor Kotamobagu,"P8P8+VGJ, Unnamed Road, Kotabangon, Kec. Kotamobagu Tim., Kota Kotamobagu, Sulawesi Utara 95716","Unnamed Road, Kotabangon, Kec. Kotamobagu Tim., Kota Kotamobagu",SULAWESI UTARA,95716,Indonesia,,,,0.7372137,124.316.269,https://maps.google.com/?cid=0x0:0x3ba14070e473da1e,
mall,Pasar pakaian,Achiera Fashion Kotamobagu,"P8H8+J73, Jl. I Bantong, Sinindian, Kec. Kotamobagu Tim., Kota Kotamobagu, Sulawesi Utara 95716","Jl. I Bantong, Sinindian, Kec. Kotamobagu Tim., Kota Kotamobagu",SULAWESI UTARA,95716,Indonesia,,,,0.7290192,1.243.156.769,https://maps.google.com/?cid=0x0:0xbfda5c46fe516423,
mall,Komplek perumahan,Tong pe Rumah,"P8V3+5CV, Gogagoman, Kec. Kotamobagu Bar., Kota Kotamobagu, Sulawesi Utara","Kota Kotamobagu, Sulawesi Utara",SULAWESI UTARA,,Indonesia,85825009242.0,,,0.7429863,1.243.035.446,https://maps.google.com/?cid=0x0:0xd28e6f6fa79cfd96,
mall,Toko Pakaian,DilaraShop Kotamobagu,"P8H3+MC5, Mogolaing, Kec. Kotamobagu Bar., Kota Kotamobagu, Sulawesi Utara","Kota Kotamobagu, Sulawesi Utara",SULAWESI UTARA,,Indonesia,85222248585.0,,,0.7291412,1.243.035.955,https://maps.google.com/?cid=0x0:0x5213eb7c8c6a9634,
mall,Jasa Pembuatan Kunci Duplikat,Ahli kunci duplikat Roberta Kotamobagu,"depan roberta, Jl. Ahmad Yani, Gogagoman, Kec. Kotamobagu Bar., Kota Kotamobagu, Sulawesi Utara 95716","Jl. Ahmad Yani, Gogagoman, Kec. Kotamobagu Bar., Kota Kotamobagu",SULAWESI UTARA,95716,Indonesia,82259929978.0,,,0.7407083,1.243.109.351,https://maps.google.com/?cid=0x0:0x870172f7ed96ef8e,
mall,Toko Pakaian,Liquid fashion store,"P8Q6+GR9, Kotamobagu, Kec. Kotamobagu Bar., Kota Kotamobagu, Sulawesi Utara 95716","Kotamobagu, Kec. Kotamobagu Bar., Kota Kotamobagu",SULAWESI UTARA,95716,Indonesia,,,,0.7387813,1.243.120.973,https://maps.google.com/?cid=0x0:0xabddb31c94f22a63,
mall,Toko,Toko Dragon,"P8Q5+X67, Jl. Yos Sudarso, Gogagoman, Kec. Kotamobagu Bar., Kota Kotamobagu, Sulawesi Utara 95716","Jl. Yos Sudarso, Gogagoman, Kec. Kotamobagu Bar., Kota Kotamobagu",SULAWESI UTARA,95716,Indonesia,,,,0.7399177,1.243.080.565,https://maps.google.com/?cid=0x0:0x6e73a4907109ef61,
mall,Toko bahan makanan,Paman Fishing Totabuan,"P8QG+82R, Jl. Kolonel Soegiono, Kotabangon, Kec. Kotamobagu Tim., Kota Kotamobagu, Sulawesi Utara","Kota Kotamobagu, Sulawesi Utara",SULAWESI UTARA,,Indonesia,81233772326.0,,,0.7383746,124.325.025,https://maps.google.com/?cid=0x0:0x4026870735bc42e4,
mall,Toko,iPhone Store KOTAMOBAGU,"JL. Puskesmas RT 14/06, LING. III, Gogagoman, Kec. Kotamobagu Bar., Kota Kotamobagu, Sulawesi Utara 95715","LING. III, Gogagoman, Kec. Kotamobagu Bar., Kota Kotamobagu",SULAWESI UTARA,95715,Indonesia,895806592120.0,,,0.7429307,1.243.034.677,https://maps.google.com/?cid=0x0:0xd5342bc7c765c949,
mall,Toko Hewan Peliharaan,Pusimeyyong Cat Food,"Jl. Paloko Kinalang No.2, Kotabangon, Kec. Kotamobagu Tim., Kota Kotamobagu, Sulawesi Utara 95716","Kotabangon, Kec. Kotamobagu Tim., Kota Kotamobagu",SULAWESI UTARA,95716,Indonesia,85340406990.0,,,0.7352225,1.243.200.285,https://maps.google.com/?cid=0x0:0x2d8ccfee5668c53f,
mall,Toko bahan makanan,Depot amirah,"P88F+WPH, Jl. Teuku Umar, Motoboi Besar, Kec. Kotamobagu Tim., Kota Kotamobagu, Sulawesi Utara","Kota Kotamobagu, Sulawesi Utara",SULAWESI UTARA,,Indonesia,81523748454.0,,,0.717314,1.243.243.645,https://maps.google.com/?cid=0x0:0xdb0b3e0f89fcbfa4,
mall,Toko Ponsel,Meta cell,"P88F+QCW, Motoboi Besar, Kec. Kotamobagu Tim., Kota Kotamobagu, Sulawesi Utara","Kota Kotamobagu, Sulawesi Utara",SULAWESI UTARA,,Indonesia,,,,0.7169983,1.243.235.819,https://maps.google.com/?cid=0x0:0x90846db2b306df94,
mall,Pusat Perbelanjaan,Tk mas Monas Hill,"jl.yos sudarso No.51, Matali, Kec. Kotamobagu Tim., Kota Kotamobagu, Sulawesi Utara","Kota Kotamobagu, Sulawesi Utara",SULAWESI UTARA,,Indonesia,,,,0.7243733,1.243.199.316,https://maps.google.com/?cid=0x0:0x7dd6e826cc4dfc91,
mall,Toko Pakaian,Tasqy shop,"P8P3+7R8, Mogolaing, Kec. Kotamobagu Bar., Kota Kotamobagu, Sulawesi Utara","Kota Kotamobagu, Sulawesi Utara",SULAWESI UTARA,,Indonesia,,,,0.7356671,1.243.045.809,https://maps.google.com/?cid=0x0:0xc77fa270da7083eb,
mall,Dealer Sepeda Motor,METRO MOTOR KOTAMOBAGU,"P7JX+MW9, Jl. Adampe Dolot, Molinow, Kec. Kotamobagu Bar., Kota Kotamobagu, Sulawesi Utara 95716","Jl. Adampe Dolot, Molinow, Kec. Kotamobagu Bar., Kota Kotamobagu",SULAWESI UTARA,95716,Indonesia,,,,0.7316606,1.242.998.512,https://maps.google.com/?cid=0x0:0x8d8b3f447bc98a48,
mall,mall,Kec. Kotamobagu Utara,"Kota Kotamobagu, Sulawesi Utara","Kota Kotamobagu, Sulawesi Utara",SULAWESI UTARA,,Indonesia,,,,0.7535564,1.243.211.663,https://maps.google.com/?cid=0x0:0x8857be9cbc156ca2,
mall,Pusat Perbelanjaan,PARIS MALL SUPERSTORE,"P8Q5+FJJ, Mogolaing, Kec. Kotamobagu Bar., Kota Kotamobagu, Sulawesi Utara","Kota Kotamobagu, Sulawesi Utara",SULAWESI UTARA,,Indonesia,,,,0.7387169,1.243.090.045,https://maps.google.com/?cid=0x0:0x10725652879cf5c9,
mall,Pusat Perbelanjaan,PARIS MART,"P8Q4+3MV, Jl. Budi, Mogolaing, Kec. Kotamobagu Bar., Kota Kotamobagu, Sulawesi Utara 95716","Jl. Budi, Mogolaing, Kec. Kotamobagu Bar., Kota Kotamobagu",SULAWESI UTARA,95716,Indonesia,,,,0.73774,124.306.685,https://maps.google.com/?cid=0x0:0xa2d6fe151cf0a30,
mall,Pusat Perbelanjaan,Jakarta pusat,"Q878+W98, Simpang Tiga, Kompleks Mercury Lama, Bilalang Dua, Kec. Kotamobagu Utara, Kota Kotamobagu, Sulawesi Utara","Kota Kotamobagu, Sulawesi Utara",SULAWESI UTARA,,Indonesia,,,,0.7647863,1.243.159.571,https://maps.google.com/?cid=0x0:0x16a9a7215a0c17de,
mall,Pasar,Mie Tuti pasar serasi,"Jl. Yos Sudarso No.56, Gogagoman, Kec. Kotamobagu Bar., Kota Kotamobagu, Sulawesi Utara","Kota Kotamobagu, Sulawesi Utara",SULAWESI UTARA,,Indonesia,,,,0.7409642,1.243.071.272,https://maps.google.com/?cid=0x0:0x77f21d2c0b7ee25,
mall,Toko,Toko Mimi Accessories Kotamobagu,"Jl. Ratahan - Kotamobagu, Mogolaing, Kec. Kotamobagu Bar., Kota Kotamobagu, Sulawesi Utara 95716","Mogolaing, Kec. Kotamobagu Bar., Kota Kotamobagu",SULAWESI UTARA,95716,Indonesia,82188308283.0,,,0.736364,124.307.192,https://maps.google.com/?cid=0x0:0xe96d01a6f21af429,
mall,Pusat Perbelanjaan,Sulawesi Utara - Kotamobagu - Mongkonai,"P8F9+PXV BaseCamp Bikers Subuhan, Matali, Kec. Kotamobagu Tim., Kota Kotamobagu, Sulawesi Utara","Kota Kotamobagu, Sulawesi Utara",SULAWESI UTARA,,Indonesia,89681054774.0,,,0.7243733,1.243.199.316,https://maps.google.com/?cid=0x0:0x1928e837c01fdbeb,
mall,Bengkel Sepeda Motor,Anugerah Motor Kotamobagu,"P8P8+VGJ, Unnamed Road, Kotabangon, Kec. Kotamobagu Tim., Kota Kotamobagu, Sulawesi Utara 95716","Unnamed Road, Kotabangon, Kec. Kotamobagu Tim., Kota Kotamobagu",SULAWESI UTARA,95716,Indonesia,,,,0.7372137,124.316.269,https://maps.google.com/?cid=0x0:0x3ba14070e473da1e,
mall,Toko,TOKO Bukit Karya Kotamobagu,"P8Q5+RFQ, Jl. Yos Sudarso, Gogagoman, Kec. Kotamobagu Bar., Kota Kotamobagu, Sulawesi Utara 95716","Jl. Yos Sudarso, Gogagoman, Kec. Kotamobagu Bar., Kota Kotamobagu",SULAWESI UTARA,95716,Indonesia,81288840400.0,,,0.7395859,1.243.087.234,https://maps.google.com/?cid=0x0:0xc930d501f2a3d2a7,
mall,Toko bahan makanan,Halal Mart AC HPAI Kotamobagu,"P8V4+58C, Gogagoman, Kec. Kotamobagu Bar., Kota Kotamobagu, Sulawesi Utara 95716","Gogagoman, Kec. Kotamobagu Bar., Kota Kotamobagu",SULAWESI UTARA,95716,Indonesia,81244858876.0,,,0.742946,1.243.057.621,https://maps.google.com/?cid=0x0:0x6b05bb8e6456b87,
mall,Toko,ZAN.id,"Jl. Piere Tendean, Genggulang, Kec. Kotamobagu Utara, Kota Kotamobagu, Sulawesi Utara","Kota Kotamobagu, Sulawesi Utara",SULAWESI UTARA,,Indonesia,89521213076.0,,,0.756491,1.243.164.383,https://maps.google.com/?cid=0x0:0x9aa42b87756b7c9c,
mall,Bank,Bni Paris Mall,"P8Q5+GM7, Mogolaing, Kec. Kotamobagu Bar., Kota Kotamobagu, Sulawesi Utara","Kota Kotamobagu, Sulawesi Utara",SULAWESI UTARA,,Indonesia,43422746.0,,,0.7387836,1.243.091.655,https://maps.google.com/?cid=0x0:0x6cd129dcd4b2be95,
mall,Jasa Pembuatan Kunci Duplikat,Ahli kunci duplikat Roberta Kotamobagu,"depan roberta, Jl. Ahmad Yani, Gogagoman, Kec. Kotamobagu Bar., Kota Kotamobagu, Sulawesi Utara 95716","Jl. Ahmad Yani, Gogagoman, Kec. Kotamobagu Bar., Kota Kotamobagu",SULAWESI UTARA,95716,Indonesia,82259929978.0,,,0.7407083,1.243.109.351,https://maps.google.com/?cid=0x0:0x870172f7ed96ef8e,
mall,Pusat Hiburan Video Game Arkade,Amazone,"P8Q5+8CF, Jl. Adampe Dolot, Mogolaing, Kec. Kotamobagu Bar., Kota Kotamobagu, Sulawesi Utara 95716","Jl. Adampe Dolot, Mogolaing, Kec. Kotamobagu Bar., Kota Kotamobagu",SULAWESI UTARA,95716,Indonesia,,,,0.738313,1.243.085.439,https://maps.google.com/?cid=0x0:0x21dd0f7a89e19c21,
mall,Pusat Perbelanjaan,Toko Air Fresh,"Jl. Yos Sudarso No.54, Gogagoman, Kec. Kotamobagu Bar., Kota Kotamobagu, Sulawesi Utara 95716","Gogagoman, Kec. Kotamobagu Bar., Kota Kotamobagu",SULAWESI UTARA,95716,Indonesia,,,,0.7406581,1.243.076.911,https://maps.google.com/?cid=0x0:0xe6d885485eae2905,
mall,Kafe,EC ATOMY IMPERIAL KOTAMOBAGU CENTER,"Jl. Bolian No.162 a, Gogagoman, Kec. Kotamobagu Bar., Kota Kotamobagu, Sulawesi Utara 95711","Gogagoman, Kec. Kotamobagu Bar., Kota Kotamobagu",SULAWESI UTARA,95711,Indonesia,82271147170.0,,,0.7396656,1.243.058.603,https://maps.google.com/?cid=0x0:0xc544d324e907ec88,
mall,Toko Mebel," SAKURA florist """"","P8R7+PV2, Jl. S Parman, Kotamobagu, Kec. Kotamobagu Bar., Kota Kotamobagu, Sulawesi Utara","Kota Kotamobagu, Sulawesi Utara",SULAWESI UTARA,,Indonesia,85298055384.0,,,0.7417601,1.243.146.511,https://maps.google.com/?cid=0x0:0x153f82ce0fdb14fe,
mall,Toko Pakaian,Tasqy shop,"P8P3+7R8, Mogolaing, Kec. Kotamobagu Bar., Kota Kotamobagu, Sulawesi Utara","Kota Kotamobagu, Sulawesi Utara",SULAWESI UTARA,,Indonesia,,,,0.7356671,1.243.045.809,https://maps.google.com/?cid=0x0:0xc77fa270da7083eb,
mall,Pusat Perbelanjaan,Susanshopktg,"P8R7+GR4, Unnamed Road, Kotamobagu, Kec. Kotamobagu Bar., Kota Kotamobagu, Sulawesi Utara 95716","Unnamed Road, Kotamobagu, Kec. Kotamobagu Bar., Kota Kotamobagu",SULAWESI UTARA,95716,Indonesia,895802000048.0,,,0.7412718,1.243.145.654,https://maps.google.com/?cid=0x0:0xd6dc7f23d428f9d8,
mall,Kios,Ezza Grosir Gogagoman,"P8V4+R76, Jl. Soeprapto, Gogagoman, Kec. Kotamobagu Bar., Kota Kotamobagu, Sulawesi Utara","Kota Kotamobagu, Sulawesi Utara",SULAWESI UTARA,,Indonesia,82187252234.0,,,0.744532,1.243.056.379,https://maps.google.com/?cid=0x0:0x73bdb5d17fa55c10,
mall,Pasar,Murah Meriah,"Jl. Brigjend Katamso No.18, Kotabangon, Kec. Kotamobagu Tim., Kota Kotamobagu, Sulawesi Utara 95716","Kotabangon, Kec. Kotamobagu Tim., Kota Kotamobagu",SULAWESI UTARA,95716,Indonesia,,,,0.7370652,1.243.160.768,https://maps.google.com/?cid=0x0:0xc9421165b1dde8bb,
mall,Komplek perumahan,Tong pe Rumah,"P8V3+5CV, Gogagoman, Kec. Kotamobagu Bar., Kota Kotamobagu, Sulawesi Utara","Kota Kotamobagu, Sulawesi Utara",SULAWESI UTARA,,Indonesia,85825009242.0,,,0.7429863,1.243.035.446,https://maps.google.com/?cid=0x0:0xd28e6f6fa79cfd96,
mall,Toko umum,RStore Kotamobagu,"Jl. Siliwangi, Kobo Besar, Kec. Kotamobagu Tim., Kota Kotamobagu, Sulawesi Utara 95719","Kobo Besar, Kec. Kotamobagu Tim., Kota Kotamobagu",SULAWESI UTARA,95719,Indonesia,82340003335.0,,,0.7238171,1.243.259.797,https://maps.google.com/?cid=0x0:0xcb70409fcca8d2e,
mall,Pusat Perbelanjaan,Ai sticker kotamobagu,"P8M9+HG2, Jl. Paloko Kinalang, Kotabangon, Kec. Kotamobagu Tim., Kota Kotamobagu, Sulawesi Utara 95716","Jl. Paloko Kinalang, Kotabangon, Kec. Kotamobagu Tim., Kota Kotamobagu",SULAWESI UTARA,95716,Indonesia,89658758000.0,,,0.7338757,1.243.187.563,https://maps.google.com/?cid=0x0:0xaebd040b9952a0ce,
mall,Toko Pakaian,ENF MOESLIMWEAR,"Jl. Adampe Dolot, Mogolaing, Kec. Kotamobagu Bar., Kota Kotamobagu, Sulawesi Utara","Kota Kotamobagu, Sulawesi Utara",SULAWESI UTARA,,Indonesia,82243388844.0,,,0.7359016,1.243.064.419,https://maps.google.com/?cid=0x0:0x8c9e6ee09ee06fa2,
mall,Toko umum,Waroeng Sussy Manoppo,"Q837+XM6, Genggulang, Kec. Kotamobagu Utara, Kota Kotamobagu, Sulawesi Utara","Kota Kotamobagu, Sulawesi Utara",SULAWESI UTARA,,Indonesia,,,,0.7549015,1.243.141.402,https://maps.google.com/?cid=0x0:0x6f4f5cbd42f664ef,
mall,Toko,Hj. Isman enogh,"P8X5+98Q, Jl. Piere Tendean, Gogagoman, Kec. Kotamobagu Bar., Kota Kotamobagu, Sulawesi Utara","Kota Kotamobagu, Sulawesi Utara",SULAWESI UTARA,,Indonesia,,,,0.7484526,1.243.083.653,https://maps.google.com/?cid=0x0:0xb0a5173d734a29f4,
mall,,Toko Pintu Mas,"P8R5+H5Q, Gogagoman, Kec. Kotamobagu Bar., Kota Kotamobagu, Sulawesi Utara","Kota Kotamobagu, Sulawesi Utara",SULAWESI UTARA,,Indonesia,,,,0.7414663,1.243.079.944,https://maps.google.com/?cid=0x0:0x370388059e2d85e9,
mall,mall,Kec. Kotamobagu Utara,"Kota Kotamobagu, Sulawesi Utara","Kota Kotamobagu, Sulawesi Utara",SULAWESI UTARA,,Indonesia,,,,0.7535564,1.243.211.663,https://maps.google.com/?cid=0x0:0x8857be9cbc156ca2,
mall,Pusat Perbelanjaan,PARIS MALL SUPERSTORE,"P8Q5+FJJ, Mogolaing, Kec. Kotamobagu Bar., Kota Kotamobagu, Sulawesi Utara","Kota Kotamobagu, Sulawesi Utara",SULAWESI UTARA,,Indonesia,,,,0.7387169,1.243.090.045,https://maps.google.com/?cid=0x0:0x10725652879cf5c9,
mall,Pusat Perbelanjaan,PARIS MART,"P8Q4+3MV, Jl. Budi, Mogolaing, Kec. Kotamobagu Bar., Kota Kotamobagu, Sulawesi Utara 95716","Jl. Budi, Mogolaing, Kec. Kotamobagu Bar., Kota Kotamobagu",SULAWESI UTARA,95716,Indonesia,,,,0.73774,124.306.685,https://maps.google.com/?cid=0x0:0xa2d6fe151cf0a30,
mall,Pasar,Mie Tuti pasar serasi,"Jl. Yos Sudarso No.56, Gogagoman, Kec. Kotamobagu Bar., Kota Kotamobagu, Sulawesi Utara","Kota Kotamobagu, Sulawesi Utara",SULAWESI UTARA,,Indonesia,,,,0.7409642,1.243.071.272,https://maps.google.com/?cid=0x0:0x77f21d2c0b7ee25,
mall,Pusat Perbelanjaan,Jakarta pusat,"Q878+W98, Simpang Tiga, Kompleks Mercury Lama, Bilalang Dua, Kec. Kotamobagu Utara, Kota Kotamobagu, Sulawesi Utara","Kota Kotamobagu, Sulawesi Utara",SULAWESI UTARA,,Indonesia,,,,0.7647863,1.243.159.571,https://maps.google.com/?cid=0x0:0x16a9a7215a0c17de,
mall,Pusat Perbelanjaan,Sulawesi Utara - Kotamobagu - Mongkonai,"P8F9+PXV BaseCamp Bikers Subuhan, Matali, Kec. Kotamobagu Tim., Kota Kotamobagu, Sulawesi Utara","Kota Kotamobagu, Sulawesi Utara",SULAWESI UTARA,,Indonesia,89681054774.0,,,0.7243733,1.243.199.316,https://maps.google.com/?cid=0x0:0x1928e837c01fdbeb,
mall,Toko,TOKO Bukit Karya Kotamobagu,"P8Q5+RFQ, Jl. Yos Sudarso, Gogagoman, Kec. Kotamobagu Bar., Kota Kotamobagu, Sulawesi Utara 95716","Jl. Yos Sudarso, Gogagoman, Kec. Kotamobagu Bar., Kota Kotamobagu",SULAWESI UTARA,95716,Indonesia,81288840400.0,,,0.7395859,1.243.087.234,https://maps.google.com/?cid=0x0:0xc930d501f2a3d2a7,
mall,Toko bahan makanan,Halal Mart AC HPAI Kotamobagu,"P8V4+58C, Gogagoman, Kec. Kotamobagu Bar., Kota Kotamobagu, Sulawesi Utara 95716","Gogagoman, Kec. Kotamobagu Bar., Kota Kotamobagu",SULAWESI UTARA,95716,Indonesia,81244858876.0,,,0.742946,1.243.057.621,https://maps.google.com/?cid=0x0:0x6b05bb8e6456b87,
mall,Toko,Toko Mimi Accessories Kotamobagu,"Jl. Ratahan - Kotamobagu, Mogolaing, Kec. Kotamobagu Bar., Kota Kotamobagu, Sulawesi Utara 95716","Mogolaing, Kec. Kotamobagu Bar., Kota Kotamobagu",SULAWESI UTARA,95716,Indonesia,82188308283.0,,,0.736364,124.307.192,https://maps.google.com/?cid=0x0:0xe96d01a6f21af429,
mall,Bengkel Sepeda Motor,Anugerah Motor Kotamobagu,"P8P8+VGJ, Unnamed Road, Kotabangon, Kec. Kotamobagu Tim., Kota Kotamobagu, Sulawesi Utara 95716","Unnamed Road, Kotabangon, Kec. Kotamobagu Tim., Kota Kotamobagu",SULAWESI UTARA,95716,Indonesia,,,,0.7372137,124.316.269,https://maps.google.com/?cid=0x0:0x3ba14070e473da1e,
mall,Kafe,EC ATOMY IMPERIAL KOTAMOBAGU CENTER,"Jl. Bolian No.162 a, Gogagoman, Kec. Kotamobagu Bar., Kota Kotamobagu, Sulawesi Utara 95711","Gogagoman, Kec. Kotamobagu Bar., Kota Kotamobagu",SULAWESI UTARA,95711,Indonesia,82271147170.0,,,0.7396656,1.243.058.603,https://maps.google.com/?cid=0x0:0xc544d324e907ec88,
mall,Jasa Pembuatan Kunci Duplikat,Ahli kunci duplikat Roberta Kotamobagu,"depan roberta, Jl. Ahmad Yani, Gogagoman, Kec. Kotamobagu Bar., Kota Kotamobagu, Sulawesi Utara 95716","Jl. Ahmad Yani, Gogagoman, Kec. Kotamobagu Bar., Kota Kotamobagu",SULAWESI UTARA,95716,Indonesia,82259929978.0,,,0.7407083,1.243.109.351,https://maps.google.com/?cid=0x0:0x870172f7ed96ef8e,
mall,Pusat Hiburan Video Game Arkade,Amazone,"P8Q5+8CF, Jl. Adampe Dolot, Mogolaing, Kec. Kotamobagu Bar., Kota Kotamobagu, Sulawesi Utara 95716","Jl. Adampe Dolot, Mogolaing, Kec. Kotamobagu Bar., Kota Kotamobagu",SULAWESI UTARA,95716,Indonesia,,,,0.738313,1.243.085.439,https://maps.google.com/?cid=0x0:0x21dd0f7a89e19c21,
mall,Bank,Bni Paris Mall,"P8Q5+GM7, Mogolaing, Kec. Kotamobagu Bar., Kota Kotamobagu, Sulawesi Utara","Kota Kotamobagu, Sulawesi Utara",SULAWESI UTARA,,Indonesia,43422746.0,,,0.7387836,1.243.091.655,https://maps.google.com/?cid=0x0:0x6cd129dcd4b2be95,
mall,Toko,ZAN.id,"Jl. Piere Tendean, Genggulang, Kec. Kotamobagu Utara, Kota Kotamobagu, Sulawesi Utara","Kota Kotamobagu, Sulawesi Utara",SULAWESI UTARA,,Indonesia,89521213076.0,,,0.756491,1.243.164.383,https://maps.google.com/?cid=0x0:0x9aa42b87756b7c9c,
mall,Komplek perumahan,Tong pe Rumah,"P8V3+5CV, Gogagoman, Kec. Kotamobagu Bar., Kota Kotamobagu, Sulawesi Utara","Kota Kotamobagu, Sulawesi Utara",SULAWESI UTARA,,Indonesia,85825009242.0,,,0.7429863,1.243.035.446,https://maps.google.com/?cid=0x0:0xd28e6f6fa79cfd96,
mall,Toko umum,Waroeng Sussy Manoppo,"Q837+XM6, Genggulang, Kec. Kotamobagu Utara, Kota Kotamobagu, Sulawesi Utara","Kota Kotamobagu, Sulawesi Utara",SULAWESI UTARA,,Indonesia,,,,0.7549015,1.243.141.402,https://maps.google.com/?cid=0x0:0x6f4f5cbd42f664ef,
mall,Toko Mebel," SAKURA florist """"","P8R7+PV2, Jl. S Parman, Kotamobagu, Kec. Kotamobagu Bar., Kota Kotamobagu, Sulawesi Utara","Kota Kotamobagu, Sulawesi Utara",SULAWESI UTARA,,Indonesia,85298055384.0,,,0.7417601,1.243.146.511,https://maps.google.com/?cid=0x0:0x153f82ce0fdb14fe,
mall,Kios,Kios 46 Cell,"Jl. Piere Tendean, Genggulang, Kec. Kotamobagu Utara, Kota Kotamobagu, Sulawesi Utara 95714","Genggulang, Kec. Kotamobagu Utara, Kota Kotamobagu",SULAWESI UTARA,95714,Indonesia,85341434878.0,,,0.7556176,1.243.148.301,https://maps.google.com/?cid=0x0:0x448605fc58c47dc5,
mall,Toko Pakaian,Tasqy shop,"P8P3+7R8, Mogolaing, Kec. Kotamobagu Bar., Kota Kotamobagu, Sulawesi Utara","Kota Kotamobagu, Sulawesi Utara",SULAWESI UTARA,,Indonesia,,,,0.7356671,1.243.045.809,https://maps.google.com/?cid=0x0:0xc77fa270da7083eb,
mall,Pusat Perbelanjaan,Susanshopktg,"P8R7+GR4, Unnamed Road, Kotamobagu, Kec. Kotamobagu Bar., Kota Kotamobagu, Sulawesi Utara 95716","Unnamed Road, Kotamobagu, Kec. Kotamobagu Bar., Kota Kotamobagu",SULAWESI UTARA,95716,Indonesia,895802000048.0,,,0.7412718,1.243.145.654,https://maps.google.com/?cid=0x0:0xd6dc7f23d428f9d8,
mall,Toko umum,RStore Kotamobagu,"Jl. Siliwangi, Kobo Besar, Kec. Kotamobagu Tim., Kota Kotamobagu, Sulawesi Utara 95719","Kobo Besar, Kec. Kotamobagu Tim., Kota Kotamobagu",SULAWESI UTARA,95719,Indonesia,82340003335.0,,,0.7238171,1.243.259.797,https://maps.google.com/?cid=0x0:0xcb70409fcca8d2e,
mall,,Toko Pintu Mas,"P8R5+H5Q, Gogagoman, Kec. Kotamobagu Bar., Kota Kotamobagu, Sulawesi Utara","Kota Kotamobagu, Sulawesi Utara",SULAWESI UTARA,,Indonesia,,,,0.7414663,1.243.079.944,https://maps.google.com/?cid=0x0:0x370388059e2d85e9,
mall,Pusat Perbelanjaan,Toko Air Fresh,"Jl. Yos Sudarso No.54, Gogagoman, Kec. Kotamobagu Bar., Kota Kotamobagu, Sulawesi Utara 95716","Gogagoman, Kec. Kotamobagu Bar., Kota Kotamobagu",SULAWESI UTARA,95716,Indonesia,,,,0.7406581,1.243.076.911,https://maps.google.com/?cid=0x0:0xe6d885485eae2905,
mall,Toko,Hj. Isman enogh,"P8X5+98Q, Jl. Piere Tendean, Gogagoman, Kec. Kotamobagu Bar., Kota Kotamobagu, Sulawesi Utara","Kota Kotamobagu, Sulawesi Utara",SULAWESI UTARA,,Indonesia,,,,0.7484526,1.243.083.653,https://maps.google.com/?cid=0x0:0xb0a5173d734a29f4,
mall,Kios,Ezza Grosir Gogagoman,"P8V4+R76, Jl. Soeprapto, Gogagoman, Kec. Kotamobagu Bar., Kota Kotamobagu, Sulawesi Utara","Kota Kotamobagu, Sulawesi Utara",SULAWESI UTARA,,Indonesia,82187252234.0,,,0.744532,1.243.056.379,https://maps.google.com/?cid=0x0:0x73bdb5d17fa55c10,
supermarket,supermarket,Sulawesi Utara 95711,"Kotamobagu, Kec. Kotamobagu Bar., Kota Kotamobagu, Sulawesi Utara","Kota Kotamobagu, Sulawesi Utara",SULAWESI UTARA,,Indonesia,,,,0.7413349,1.243.125.269,https://maps.google.com/?cid=0x0:0xe2a29556fedf8a93,
supermarket,Toko bahan makanan,Abdi Karya Supermarket,"P8Q6+V5G, Gogagoman, Kec. Kotamobagu Bar., Kota Kotamobagu, Sulawesi Utara 95716","Gogagoman, Kec. Kotamobagu Bar., Kota Kotamobagu",SULAWESI UTARA,95716,Indonesia,,,,0.7396987,1.243.104.652,https://maps.google.com/?cid=0x0:0x70155d811c7eb6d,
supermarket,Pusat Perbelanjaan,PARIS MALL SUPERSTORE,"P8Q5+FJJ, Mogolaing, Kec. Kotamobagu Bar., Kota Kotamobagu, Sulawesi Utara","Kota Kotamobagu, Sulawesi Utara",SULAWESI UTARA,,Indonesia,,,,0.7387169,1.243.090.045,https://maps.google.com/?cid=0x0:0x10725652879cf5c9,
supermarket,Minimarket,Alfa Mart,"Jl. K.S. Tubun, Sinindian, Kec. Kotamobagu Tim., Kota Kotamobagu, Sulawesi Utara 95718","Sinindian, Kec. Kotamobagu Tim., Kota Kotamobagu",SULAWESI UTARA,95718,Indonesia,1500959.0,,,0.7342126,1.243.148.311,https://maps.google.com/?cid=0x0:0x5f4008ae48826a2d,
supermarket,Toko bahan makanan,Toko Super Grosir Kotamobagu,"Jl. Bumbongon No.4, Gogagoman, Kec. Kotamobagu Bar., Kota Kotamobagu, Sulawesi Utara","Kota Kotamobagu, Sulawesi Utara",SULAWESI UTARA,,Indonesia,82393271168.0,,,0.7415855,12.431.044,https://maps.google.com/?cid=0x0:0x5160084e5ccb435b,
supermarket,Toko Buku,TOKO KOTA PERMAI,"Gogagoman, Kec. Kotamobagu Bar., Kota Kotamobagu, Sulawesi Utara 95716","Kec. Kotamobagu Bar., Kota Kotamobagu",SULAWESI UTARA,95716,Indonesia,43422005.0,,,0.741143,124.311.141,https://maps.google.com/?cid=0x0:0x1dfcde7ac8f96005,
supermarket,Minimarket,Indomaret Yusuf Hasiru Kotobangon,"P8QC+R95, Jl. Yusuf Hasiru, Kotabangon, Kec. Kotamobagu Tim., Kota Kotamobagu, Sulawesi Utara 95716","Jl. Yusuf Hasiru, Kotabangon, Kec. Kotamobagu Tim., Kota Kotamobagu",SULAWESI UTARA,95716,Indonesia,,,,0.7395009,1.243.209.847,https://maps.google.com/?cid=0x0:0x4a7b2e2ee14060ae,
supermarket,Minimarket,Indomaret Raya Kampus,"P8P2+FF4, Mogolaing, Kec. Kotamobagu Bar., Kota Kotamobagu, Sulawesi Utara","Kota Kotamobagu, Sulawesi Utara",SULAWESI UTARA,,Indonesia,,,,0.7361499,1.243.012.164,https://maps.google.com/?cid=0x0:0x622d2b10bfa24922,
supermarket,supermarket,Sulawesi Utara,,Sulawesi Utara,SULAWESI UTARA,,Indonesia,,,,0.6246932,1.239.750.018,https://maps.google.com/?cid=0x0:0x45891617980cb835,
supermarket,Toko bahan makanan,Abdi Karya Supermarket,"P8Q6+V5G, Gogagoman, Kec. Kotamobagu Bar., Kota Kotamobagu, Sulawesi Utara 95716","Gogagoman, Kec. Kotamobagu Bar., Kota Kotamobagu",SULAWESI UTARA,95716,Indonesia,,,,0.7396987,1.243.104.652,https://maps.google.com/?cid=0x0:0x70155d811c7eb6d,
supermarket,Pusat Perbelanjaan,PARIS MALL SUPERSTORE,"P8Q5+FJJ, Mogolaing, Kec. Kotamobagu Bar., Kota Kotamobagu, Sulawesi Utara","Kota Kotamobagu, Sulawesi Utara",SULAWESI UTARA,,Indonesia,,,,0.7387169,1.243.090.045,https://maps.google.com/?cid=0x0:0x10725652879cf5c9,
supermarket,Minimarket,Alfa Mart,"Jl. K.S. Tubun, Sinindian, Kec. Kotamobagu Tim., Kota Kotamobagu, Sulawesi Utara 95718","Sinindian, Kec. Kotamobagu Tim., Kota Kotamobagu",SULAWESI UTARA,95718,Indonesia,1500959.0,,,0.7342126,1.243.148.311,https://maps.google.com/?cid=0x0:0x5f4008ae48826a2d,
supermarket,Minimarket,Alfamart,"Jl. Gatot Subroto Induk No.30, Mongkonai, Kec. Kotamobagu Bar., Kota Kotamobagu, Sulawesi Utara 95716","Mongkonai, Kec. Kotamobagu Bar., Kota Kotamobagu",SULAWESI UTARA,95716,Indonesia,1500959.0,,,0.7338205,1.242.895.706,https://maps.google.com/?cid=0x0:0x67397fe0a1360f40,
supermarket,Toko Swalayan,Toko Hawai Baru,"Jl. Bogani, Gogagoman, Kec. Kotamobagu Bar., Kota Kotamobagu, Sulawesi Utara 95715","Gogagoman, Kec. Kotamobagu Bar., Kota Kotamobagu",SULAWESI UTARA,95715,Indonesia,,,,0.74112,124.309.507,https://maps.google.com/?cid=0x0:0x2bcdf1678335297c,
supermarket,Minimarket,Alfamart,"Jl. Labot Dugian, Gogagoman, Kec. Kotamobagu Sel., Kota Kotamobagu, Sulawesi Utara 95715","Gogagoman, Kec. Kotamobagu Sel., Kota Kotamobagu",SULAWESI UTARA,95715,Indonesia,1500959.0,,,0.7062284,124.284.602,https://maps.google.com/?cid=0x0:0xb6e4aea7711bd260,
supermarket,Toko Swalayan,Golden Pasar Swalayan,"Ruko Boulevard, Jl. Piere Tendean No.5, Wenang Utara, Kec. Wenang, Kota Manado, Sulawesi Utara","Kota Manado, Sulawesi Utara",SULAWESI UTARA,,Indonesia,,,,14.884.317,1.248.379.329,https://maps.google.com/?cid=0x0:0x2d4fb94562e6ef96,
supermarket,Toko bahan makanan,Toko Super Grosir Kotamobagu,"Jl. Bumbongon No.4, Gogagoman, Kec. Kotamobagu Bar., Kota Kotamobagu, Sulawesi Utara","Kota Kotamobagu, Sulawesi Utara",SULAWESI UTARA,,Indonesia,82393271168.0,,,0.7415855,12.431.044,https://maps.google.com/?cid=0x0:0x5160084e5ccb435b,
supermarket,Pasar,Pasar serasi kotamobagu LAPAK MA'AIN,"P8R4+GJC, Gogagoman, Kec. Kotamobagu Bar., Kota Kotamobagu, Sulawesi Utara","Kota Kotamobagu, Sulawesi Utara",SULAWESI UTARA,,Indonesia,,,,0.7413013,1.243.065.044,https://maps.google.com/?cid=0x0:0x40648d48760f4a10,
supermarket,Toko Swalayan,Jumbo Pasar Swalayan  Restaurant Manado,"Jl. Suprapto No.1, Pinaesaan, Kec. Wenang, Kota Manado, Sulawesi Utara 95122","Pinaesaan, Kec. Wenang, Kota Manado",SULAWESI UTARA,95122,Indonesia,,,,14.927.865,1.248.393.618,https://maps.google.com/?cid=0x0:0x2121652adb7d61d0,
supermarket,Pasar,Pasar 23 Maret Kotamobagu,"P8R5+P93, Gogagoman, Kec. Kotamobagu Bar., Kota Kotamobagu, Sulawesi Utara","Kota Kotamobagu, Sulawesi Utara",SULAWESI UTARA,,Indonesia,,,,0.7417546,1.243.084.275,https://maps.google.com/?cid=0x0:0x7e1ef51b5292d93e,
supermarket,Pusat Perbelanjaan,PARIS MART,"P8Q4+3MV, Jl. Budi, Mogolaing, Kec. Kotamobagu Bar., Kota Kotamobagu, Sulawesi Utara 95716","Jl. Budi, Mogolaing, Kec. Kotamobagu Bar., Kota Kotamobagu",SULAWESI UTARA,95716,Indonesia,,,,0.73774,124.306.685,https://maps.google.com/?cid=0x0:0xa2d6fe151cf0a30,
supermarket,Toko Buah dan Sayuran,Tampa Buah Kotamobagu,"Depan Indomaret, Molinow, Kec. Kotamobagu Bar., Kota Kotamobagu, Sulawesi Utara 95716","Molinow, Kec. Kotamobagu Bar., Kota Kotamobagu",SULAWESI UTARA,95716,Indonesia,82194425575.0,,,0.7325947,1.242.952.923,https://maps.google.com/?cid=0x0:0x372b598be4eaf060,
supermarket,Toko Buah dan Sayuran,FAZA BUAH,"P8F5+C2G, Jl. Veteran, Motoboi Kecil, Kec. Kotamobagu Sel., Kota Kotamobagu, Sulawesi Utara 95716","Jl. Veteran, Motoboi Kecil, Kec. Kotamobagu Sel., Kota Kotamobagu",SULAWESI UTARA,95716,Indonesia,82191413584.0,,,0.72356,1.243.075.787,https://maps.google.com/?cid=0x0:0x3a435c711c2e8783,
supermarket,Toko bahan makanan,Top Mart,"Jl. Stadion Selatan, Ranotana, Kec. Sario, Kota Manado, Sulawesi Utara","Kota Manado, Sulawesi Utara",SULAWESI UTARA,,Indonesia,8114322394.0,,,14.587.562,1.248.368.454,https://maps.google.com/?cid=0x0:0x3552a491a7bcabd,
supermarket,Toko Pakaian,UNDER PRICE KOTAMOBAGU,"P8V4+V28, Jl. Soeprapto, Gogagoman, Kec. Kotamobagu Bar., Kota Kotamobagu, Sulawesi Utara 95716","Jl. Soeprapto, Gogagoman, Kec. Kotamobagu Bar., Kota Kotamobagu",SULAWESI UTARA,95716,Indonesia,85824029533.0,,,0.7446537,124.305.078,https://maps.google.com/?cid=0x0:0x5c5eebf9e8dcae1b,
supermarket,Toko Buku,TOKO KOTA PERMAI,"Gogagoman, Kec. Kotamobagu Bar., Kota Kotamobagu, Sulawesi Utara 95716","Kec. Kotamobagu Bar., Kota Kotamobagu",SULAWESI UTARA,95716,Indonesia,43422005.0,,,0.741143,124.311.141,https://maps.google.com/?cid=0x0:0x1dfcde7ac8f96005,
supermarket,supermarket,Kec. Kotamobagu Bar.,"Kota Kotamobagu, Sulawesi Utara","Kota Kotamobagu, Sulawesi Utara",SULAWESI UTARA,,Indonesia,,,,0.7429438,1.243.085.124,https://maps.google.com/?cid=0x0:0x68204053ca066af1,
supermarket,Toko bahan makanan,Mary Mart,"Jl. Piere Tendean No.25, Gogagoman, Kec. Kotamobagu Bar., Kota Kotamobagu, Sulawesi Utara","Kota Kotamobagu, Sulawesi Utara",SULAWESI UTARA,,Indonesia,,,,0.7458997,1.243.059.551,https://maps.google.com/?cid=0x0:0x11216092c53f3fb5,
supermarket,Toko,Toko Aneka Rasa,"Jl. Bogani No.4, Gogagoman, Kec. Kotamobagu Bar., Kota Kotamobagu, Sulawesi Utara","Kota Kotamobagu, Sulawesi Utara",SULAWESI UTARA,,Indonesia,85341628385.0,,,0.741711,1.243.087.853,https://maps.google.com/?cid=0x0:0xc65a39ba54d83328,
supermarket,Toko,TOKO SINAR TERANG KOTAMOBAGU,"Jl. Kartini No.57, Gogagoman, Kec. Kotamobagu Bar., Kota Kotamobagu, Sulawesi Utara 95716","Gogagoman, Kec. Kotamobagu Bar., Kota Kotamobagu",SULAWESI UTARA,95716,Indonesia,,,,0.7408111,1.243.083.954,https://maps.google.com/?cid=0x0:0x64ed80a7203ff9cf,
supermarket,Toko Swalayan,TOKO TUNAS BARU,"Jl. Kartini No.32, Gogagoman, Kec. Kotamobagu Bar., Kota Kotamobagu, Sulawesi Utara 95716","Gogagoman, Kec. Kotamobagu Bar., Kota Kotamobagu",SULAWESI UTARA,95716,Indonesia,,,,0.741598,1.243.090.884,https://maps.google.com/?cid=0x0:0x349e2abf4a397ae6,
supermarket,Toko bahan makanan,Berkah Sumber Laut,"Gogagoman, Kec. Kotamobagu Bar., Kota Kotamobagu, Sulawesi Utara","Kota Kotamobagu, Sulawesi Utara",SULAWESI UTARA,,Indonesia,81342265182.0,,,0.7451931,1.243.047.026,https://maps.google.com/?cid=0x0:0xe63492df09ed9edd,
supermarket,Toko Makanan Alami,Ruma Cemilan Kotamobagu,"P7JW+HP7, Jl. Adampe Dolot, Molinow, Kec. Kotamobagu Bar., Kota Kotamobagu, Sulawesi Utara 95716","Jl. Adampe Dolot, Molinow, Kec. Kotamobagu Bar., Kota Kotamobagu",SULAWESI UTARA,95716,Indonesia,882189606688.0,,,0.7314031,1.242.968.025,https://maps.google.com/?cid=0x0:0xb6d963e06bb5a3,
supermarket,Toko Perlengkapan Rumah,toko chici,"P8J2+R44, Jl. Adampe Dolot, Poyowa Besar I, Kec. Kotamobagu Bar., Kota Kotamobagu, Sulawesi Utara 95716","Jl. Adampe Dolot, Poyowa Besar I, Kec. Kotamobagu Bar., Kota Kotamobagu",SULAWESI UTARA,95716,Indonesia,82293537200.0,,,0.7320036,1.243.003.282,https://maps.google.com/?cid=0x0:0x52dc57f8b31e09cf,
supermarket,Toko bahan makanan,Kios CHRISSEL,"Jl. Sutoyo No.102, Kotamobagu, Kec. Kotamobagu Bar., Kota Kotamobagu, Sulawesi Utara 95716","Kotamobagu, Kec. Kotamobagu Bar., Kota Kotamobagu",SULAWESI UTARA,95716,Indonesia,81527841268.0,,,0.7403539,1.243.157.935,https://maps.google.com/?cid=0x0:0x4db0d7f45e2c781b,
supermarket,Toko umum,Kios Indah,"P7HQ+RCC, Lorong Arrayyan, Mongkonai, Kec. Kotamobagu Bar., Kota Kotamobagu, Sulawesi Utara 95716","Lorong Arrayyan, Mongkonai, Kec. Kotamobagu Bar., Kota Kotamobagu",SULAWESI UTARA,95716,Indonesia,,,,0.7295532,1.242.885.192,https://maps.google.com/?cid=0x0:0xb19ff1b4810e295,
supermarket,Toko Perlengkapan Rumah,Toko Bangunan Gampang Ingat,"Jl. Ahmad Yani No.34, Kotamobagu, Kec. Kotamobagu Bar., Kota Kotamobagu, Sulawesi Utara 95716","Kotamobagu, Kec. Kotamobagu Bar., Kota Kotamobagu",SULAWESI UTARA,95716,Indonesia,,,,0.7400726,1.243.106.451,https://maps.google.com/?cid=0x0:0x9fdb5bd8f705aecf,
supermarket,Toko bahan makanan,Abdi Karya Supermarket,"P8Q6+V5G, Gogagoman, Kec. Kotamobagu Bar., Kota Kotamobagu, Sulawesi Utara 95716","Gogagoman, Kec. Kotamobagu Bar., Kota Kotamobagu",SULAWESI UTARA,95716,Indonesia,,,,0.7396987,1.243.104.652,https://maps.google.com/?cid=0x0:0x70155d811c7eb6d,
supermarket,supermarket,Sulawesi Utara 95716,"Mogolaing, Kec. Kotamobagu Bar., Kota Kotamobagu, Sulawesi Utara","Kota Kotamobagu, Sulawesi Utara",SULAWESI UTARA,,Indonesia,,,,0.7331339,1.243.035.249,https://maps.google.com/?cid=0x0:0xb303343be4233a,
supermarket,Toko,Toko Dragon,"P8Q5+X67, Jl. Yos Sudarso, Gogagoman, Kec. Kotamobagu Bar., Kota Kotamobagu, Sulawesi Utara 95716","Jl. Yos Sudarso, Gogagoman, Kec. Kotamobagu Bar., Kota Kotamobagu",SULAWESI UTARA,95716,Indonesia,,,,0.7399177,1.243.080.565,https://maps.google.com/?cid=0x0:0x6e73a4907109ef61,
supermarket,Toko,TOKO SINAR TERANG KOTAMOBAGU,"Jl. Kartini No.57, Gogagoman, Kec. Kotamobagu Bar., Kota Kotamobagu, Sulawesi Utara 95716","Gogagoman, Kec. Kotamobagu Bar., Kota Kotamobagu",SULAWESI UTARA,95716,Indonesia,,,,0.7408111,1.243.083.954,https://maps.google.com/?cid=0x0:0x64ed80a7203ff9cf,
supermarket,Minimarket,Alfa Mart,"Jl. K.S. Tubun, Sinindian, Kec. Kotamobagu Tim., Kota Kotamobagu, Sulawesi Utara 95718","Sinindian, Kec. Kotamobagu Tim., Kota Kotamobagu",SULAWESI UTARA,95718,Indonesia,1500959.0,,,0.7342126,1.243.148.311,https://maps.google.com/?cid=0x0:0x5f4008ae48826a2d,
supermarket,Minimarket,Alfamart,"Jl. Gatot Subroto Induk No.30, Mongkonai, Kec. Kotamobagu Bar., Kota Kotamobagu, Sulawesi Utara 95716","Mongkonai, Kec. Kotamobagu Bar., Kota Kotamobagu",SULAWESI UTARA,95716,Indonesia,1500959.0,,,0.7338205,1.242.895.706,https://maps.google.com/?cid=0x0:0x67397fe0a1360f40,
supermarket,Toko Swalayan,umega mart,"Jl. Adampe Dolot RW No.176, RT.12/RW.lingk. 3, Molinow, Kec. Kotamobagu Bar., Kota Kotamobagu, Sulawesi Utara 95716","RT.12/RW.lingk. 3, Molinow, Kec. Kotamobagu Bar., Kota Kotamobagu",SULAWESI UTARA,95716,Indonesia,81244769998.0,,,0.7323853,1.243.018.711,https://maps.google.com/?cid=0x0:0x48f359b7e3d08de2,
supermarket,Toko Buku,TOKO KOTA PERMAI,"Gogagoman, Kec. Kotamobagu Bar., Kota Kotamobagu, Sulawesi Utara 95716","Kec. Kotamobagu Bar., Kota Kotamobagu",SULAWESI UTARA,95716,Indonesia,43422005.0,,,0.741143,124.311.141,https://maps.google.com/?cid=0x0:0x1dfcde7ac8f96005,
supermarket,supermarket,Kec. Kotamobagu Bar.,"Kota Kotamobagu, Sulawesi Utara","Kota Kotamobagu, Sulawesi Utara",SULAWESI UTARA,,Indonesia,,,,0.7429438,1.243.085.124,https://maps.google.com/?cid=0x0:0x68204053ca066af1,
supermarket,Toko Perlengkapan Rumah,toko chici,"P8J2+R44, Jl. Adampe Dolot, Poyowa Besar I, Kec. Kotamobagu Bar., Kota Kotamobagu, Sulawesi Utara 95716","Jl. Adampe Dolot, Poyowa Besar I, Kec. Kotamobagu Bar., Kota Kotamobagu",SULAWESI UTARA,95716,Indonesia,82293537200.0,,,0.7320036,1.243.003.282,https://maps.google.com/?cid=0x0:0x52dc57f8b31e09cf,
supermarket,Toko Makanan Alami,Ruma Cemilan Kotamobagu,"P7JW+HP7, Jl. Adampe Dolot, Molinow, Kec. Kotamobagu Bar., Kota Kotamobagu, Sulawesi Utara 95716","Jl. Adampe Dolot, Molinow, Kec. Kotamobagu Bar., Kota Kotamobagu",SULAWESI UTARA,95716,Indonesia,882189606688.0,,,0.7314031,1.242.968.025,https://maps.google.com/?cid=0x0:0xb6d963e06bb5a3,
supermarket,Toko bahan makanan,Mary Mart,"Jl. Piere Tendean No.25, Gogagoman, Kec. Kotamobagu Bar., Kota Kotamobagu, Sulawesi Utara","Kota Kotamobagu, Sulawesi Utara",SULAWESI UTARA,,Indonesia,,,,0.7458997,1.243.059.551,https://maps.google.com/?cid=0x0:0x11216092c53f3fb5,
supermarket,Toko Swalayan,TOKO TUNAS BARU,"Jl. Kartini No.32, Gogagoman, Kec. Kotamobagu Bar., Kota Kotamobagu, Sulawesi Utara 95716","Gogagoman, Kec. Kotamobagu Bar., Kota Kotamobagu",SULAWESI UTARA,95716,Indonesia,,,,0.741598,1.243.090.884,https://maps.google.com/?cid=0x0:0x349e2abf4a397ae6,
supermarket,Minimarket,Waserda SYAFIRA,"P8QC+V8Q, Jl. Yusuf Hasiru, Kotabangon, Kec. Kotamobagu Tim., Kota Kotamobagu, Sulawesi Utara 95716","Jl. Yusuf Hasiru, Kotabangon, Kec. Kotamobagu Tim., Kota Kotamobagu",SULAWESI UTARA,95716,Indonesia,81356856414.0,,,0.739702,1.243.208.518,https://maps.google.com/?cid=0x0:0x96b5b52b4e158db6,
supermarket,Toko,TOKO MURRAH MERRIAH,"P8P7+RXM, Kotabangon, Kec. Kotamobagu Tim., Kota Kotamobagu, Sulawesi Utara 95716","Kotabangon, Kec. Kotamobagu Tim., Kota Kotamobagu",SULAWESI UTARA,95716,Indonesia,8124430369.0,,,0.7370071,124.315.474,https://maps.google.com/?cid=0x0:0x57f60c586c0f17aa,
supermarket,Toko umum,Kios Alisha,"Jl. Kesatria, RT.006/RW.003, Gogagoman, Kec. Kotamobagu Utara, Kota Kotamobagu, Sulawesi Utara 95716","RT.006/RW.003, Gogagoman, Kec. Kotamobagu Utara, Kota Kotamobagu",SULAWESI UTARA,95716,Indonesia,82195066534.0,,,0.7468429,1.243.124.049,https://maps.google.com/?cid=0x0:0xebfd6b8252966ded,
supermarket,Toko,Toko Aneka Rasa,"Jl. Bogani No.4, Gogagoman, Kec. Kotamobagu Bar., Kota Kotamobagu, Sulawesi Utara","Kota Kotamobagu, Sulawesi Utara",SULAWESI UTARA,,Indonesia,85341628385.0,,,0.741711,1.243.087.853,https://maps.google.com/?cid=0x0:0xc65a39ba54d83328,
supermarket,Toko bahan makanan,Kios Adi,"P8QF+324, Kotabangon, Kec. Kotamobagu Tim., Kota Kotamobagu, Sulawesi Utara 95716","Kotabangon, Kec. Kotamobagu Tim., Kota Kotamobagu",SULAWESI UTARA,95716,Indonesia,,,,0.737627,1.243.225.923,https://maps.google.com/?cid=0x0:0x6604b6dd178acccc,
supermarket,Pemasok makanan dan minuman katering,UD.Usaha Baru,"Jl. S Parman No.21, Kotamobagu, Kec. Kotamobagu Bar., Kota Kotamobagu, Sulawesi Utara 95716","Kotamobagu, Kec. Kotamobagu Bar., Kota Kotamobagu",SULAWESI UTARA,95716,Indonesia,,,,0.7412977,1.243.149.215,https://maps.google.com/?cid=0x0:0xac9e83e9c23d9e99,
supermarket,Toko bahan makanan,AMONG MARKET,"P8Q9+359, Kotabangon, Kec. Kotamobagu Tim., Kota Kotamobagu, Sulawesi Utara 95716","Kotabangon, Kec. Kotamobagu Tim., Kota Kotamobagu",SULAWESI UTARA,95716,Indonesia,85298809392.0,,,0.7376635,1.243.179.809,https://maps.google.com/?cid=0x0:0xa42476d18954f4e1,
supermarket,Toko umum,Kios Indah,"P7HQ+RCC, Lorong Arrayyan, Mongkonai, Kec. Kotamobagu Bar., Kota Kotamobagu, Sulawesi Utara 95716","Lorong Arrayyan, Mongkonai, Kec. Kotamobagu Bar., Kota Kotamobagu",SULAWESI UTARA,95716,Indonesia,,,,0.7295532,1.242.885.192,https://maps.google.com/?cid=0x0:0xb19ff1b4810e295,
supermarket,Toko Mainan,ISTANA GROSIR MAINAN,"P8Q2+8VR, Gogagoman, Kec. Kotamobagu Bar., Kota Kotamobagu, Sulawesi Utara 95716","Gogagoman, Kec. Kotamobagu Bar., Kota Kotamobagu",SULAWESI UTARA,95716,Indonesia,85240049890.0,,,0.7383606,1.243.021.509,https://maps.google.com/?cid=0x0:0x8c0a3eedbda5f84d,
supermarket,Pasar,Kios Anang Gogagoman,"P8W3+2QV, Jl. Soeprapto, Gogagoman, Kec. Kotamobagu Bar., Kota Kotamobagu, Sulawesi Utara 95716","Jl. Soeprapto, Gogagoman, Kec. Kotamobagu Bar., Kota Kotamobagu",SULAWESI UTARA,95716,Indonesia,4342621916.0,,,0.7451132,1.243.044.264,https://maps.google.com/?cid=0x0:0x4245f155e65c047f,
supermarket,supermarket,Kec. Kotamobagu Sel.,"Kota Kotamobagu, Sulawesi Utara","Kota Kotamobagu, Sulawesi Utara",SULAWESI UTARA,,Indonesia,,,,0.7240463,124.293.299,https://maps.google.com/?cid=0x0:0x270b5a3d87842fb7,
supermarket,Toko bahan makanan,Abdi Karya Supermarket,"P8Q6+V5G, Gogagoman, Kec. Kotamobagu Bar., Kota Kotamobagu, Sulawesi Utara 95716","Gogagoman, Kec. Kotamobagu Bar., Kota Kotamobagu",SULAWESI UTARA,95716,Indonesia,,,,0.7396987,1.243.104.652,https://maps.google.com/?cid=0x0:0x70155d811c7eb6d,
supermarket,Pusat Perbelanjaan,PARIS MALL SUPERSTORE,"P8Q5+FJJ, Mogolaing, Kec. Kotamobagu Bar., Kota Kotamobagu, Sulawesi Utara","Kota Kotamobagu, Sulawesi Utara",SULAWESI UTARA,,Indonesia,,,,0.7387169,1.243.090.045,https://maps.google.com/?cid=0x0:0x10725652879cf5c9,
supermarket,Minimarket,Alfa Mart,"Jl. K.S. Tubun, Sinindian, Kec. Kotamobagu Tim., Kota Kotamobagu, Sulawesi Utara 95718","Sinindian, Kec. Kotamobagu Tim., Kota Kotamobagu",SULAWESI UTARA,95718,Indonesia,1500959.0,,,0.7342126,1.243.148.311,https://maps.google.com/?cid=0x0:0x5f4008ae48826a2d,
supermarket,Toko Makanan Alami,Ruma Cemilan Kotamobagu,"P7JW+HP7, Jl. Adampe Dolot, Molinow, Kec. Kotamobagu Bar., Kota Kotamobagu, Sulawesi Utara 95716","Jl. Adampe Dolot, Molinow, Kec. Kotamobagu Bar., Kota Kotamobagu",SULAWESI UTARA,95716,Indonesia,882189606688.0,,,0.7314031,1.242.968.025,https://maps.google.com/?cid=0x0:0xb6d963e06bb5a3,
supermarket,Minimarket,Alfamart Pobundayan,"Jl. DC. Manoppo, Pobundayan, Kec. Kotamobagu Sel., Kota Kotamobagu, Sulawesi Utara 95717","Pobundayan, Kec. Kotamobagu Sel., Kota Kotamobagu",SULAWESI UTARA,95717,Indonesia,1500959.0,,,0.7131325,1.243.049.502,https://maps.google.com/?cid=0x0:0xaf4c073ae67792ef,
supermarket,Minimarket,alfamart Motoboi Kecil,"Jl. Veteran No.Kel, Motoboi Kecil, Kec. Kotamobagu Sel., Kota Kotamobagu, Sulawesi Utara 95717","Motoboi Kecil, Kec. Kotamobagu Sel., Kota Kotamobagu",SULAWESI UTARA,95717,Indonesia,1500959.0,,,0.7278252,124.300.309,https://maps.google.com/?cid=0x0:0xf93da0486cf1320e,
supermarket,Minimarket,Alfamart,"Jl. Gatot Subroto Induk No.30, Mongkonai, Kec. Kotamobagu Bar., Kota Kotamobagu, Sulawesi Utara 95716","Mongkonai, Kec. Kotamobagu Bar., Kota Kotamobagu",SULAWESI UTARA,95716,Indonesia,1500959.0,,,0.7338205,1.242.895.706,https://maps.google.com/?cid=0x0:0x67397fe0a1360f40,
supermarket,Toko Perlengkapan Rumah,toko chici,"P8J2+R44, Jl. Adampe Dolot, Poyowa Besar I, Kec. Kotamobagu Bar., Kota Kotamobagu, Sulawesi Utara 95716","Jl. Adampe Dolot, Poyowa Besar I, Kec. Kotamobagu Bar., Kota Kotamobagu",SULAWESI UTARA,95716,Indonesia,82293537200.0,,,0.7320036,1.243.003.282,https://maps.google.com/?cid=0x0:0x52dc57f8b31e09cf,
supermarket,Pusat Perbelanjaan,Pasar poyowa,"P77M+WGP, Poyowa Kecil, Kec. Kotamobagu Sel., Kota Kotamobagu, Sulawesi Utara","Kota Kotamobagu, Sulawesi Utara",SULAWESI UTARA,,Indonesia,,,,0.7148375,1.242.838.316,https://maps.google.com/?cid=0x0:0xf073a0e8d51977b8,
supermarket,Toko,TOKO SINAR TERANG KOTAMOBAGU,"Jl. Kartini No.57, Gogagoman, Kec. Kotamobagu Bar., Kota Kotamobagu, Sulawesi Utara 95716","Gogagoman, Kec. Kotamobagu Bar., Kota Kotamobagu",SULAWESI UTARA,95716,Indonesia,,,,0.7408111,1.243.083.954,https://maps.google.com/?cid=0x0:0x64ed80a7203ff9cf,
supermarket,Dapur Umum,PAPA ARIF,"Jl. Veteran No.36, Motoboi Kecil, Kec. Kotamobagu Sel., Kota Kotamobagu, Sulawesi Utara 95716","Motoboi Kecil, Kec. Kotamobagu Sel., Kota Kotamobagu",SULAWESI UTARA,95716,Indonesia,85298387487.0,,,0.7250892,124.302.654,https://maps.google.com/?cid=0x0:0x1b55f5c0e9d82eb0,
supermarket,Toko Swalayan,TOKO TUNAS BARU,"Jl. Kartini No.32, Gogagoman, Kec. Kotamobagu Bar., Kota Kotamobagu, Sulawesi Utara 95716","Gogagoman, Kec. Kotamobagu Bar., Kota Kotamobagu",SULAWESI UTARA,95716,Indonesia,,,,0.741598,1.243.090.884,https://maps.google.com/?cid=0x0:0x349e2abf4a397ae6,
supermarket,Minimarket,Alfamart,"Jl. Labot Dugian, Gogagoman, Kec. Kotamobagu Sel., Kota Kotamobagu, Sulawesi Utara 95715","Gogagoman, Kec. Kotamobagu Sel., Kota Kotamobagu",SULAWESI UTARA,95715,Indonesia,1500959.0,,,0.7062284,124.284.602,https://maps.google.com/?cid=0x0:0xb6e4aea7711bd260,
supermarket,Toko bahan makanan,Kios Adi,"P8QF+324, Kotabangon, Kec. Kotamobagu Tim., Kota Kotamobagu, Sulawesi Utara 95716","Kotabangon, Kec. Kotamobagu Tim., Kota Kotamobagu",SULAWESI UTARA,95716,Indonesia,,,,0.737627,1.243.225.923,https://maps.google.com/?cid=0x0:0x6604b6dd178acccc,
supermarket,Toko bahan makanan,Mary Mart,"Jl. Piere Tendean No.25, Gogagoman, Kec. Kotamobagu Bar., Kota Kotamobagu, Sulawesi Utara","Kota Kotamobagu, Sulawesi Utara",SULAWESI UTARA,,Indonesia,,,,0.7458997,1.243.059.551,https://maps.google.com/?cid=0x0:0x11216092c53f3fb5,
supermarket,Minimarket,AlfaMart KS Tubun,"Jl. K.S. Tubun, Matali, Kec. Kotamobagu Tim., Kota Kotamobagu, Sulawesi Utara 95718","Matali, Kec. Kotamobagu Tim., Kota Kotamobagu",SULAWESI UTARA,95718,Indonesia,1500959.0,,,0.7242229,1.243.099.752,https://maps.google.com/?cid=0x0:0x9b0071caf62349a1,
supermarket,Toko Perlengkapan Rumah,Toko Bangunan Gampang Ingat,"Jl. Ahmad Yani No.34, Kotamobagu, Kec. Kotamobagu Bar., Kota Kotamobagu, Sulawesi Utara 95716","Kotamobagu, Kec. Kotamobagu Bar., Kota Kotamobagu",SULAWESI UTARA,95716,Indonesia,,,,0.7400726,1.243.106.451,https://maps.google.com/?cid=0x0:0x9fdb5bd8f705aecf,
supermarket,Toko bahan makanan,AMONG MARKET,"P8Q9+359, Kotabangon, Kec. Kotamobagu Tim., Kota Kotamobagu, Sulawesi Utara 95716","Kotabangon, Kec. Kotamobagu Tim., Kota Kotamobagu",SULAWESI UTARA,95716,Indonesia,85298809392.0,,,0.7376635,1.243.179.809,https://maps.google.com/?cid=0x0:0xa42476d18954f4e1,
supermarket,Toko Mainan,ISTANA GROSIR MAINAN,"P8Q2+8VR, Gogagoman, Kec. Kotamobagu Bar., Kota Kotamobagu, Sulawesi Utara 95716","Gogagoman, Kec. Kotamobagu Bar., Kota Kotamobagu",SULAWESI UTARA,95716,Indonesia,85240049890.0,,,0.7383606,1.243.021.509,https://maps.google.com/?cid=0x0:0x8c0a3eedbda5f84d,
supermarket,Minimarket,Alfamart,"Jl. Desa Poyowa Besar I No.Desa, Poyowa Besar I, Kec. Kotamobagu Sel., Kota Kotamobagu, Sulawesi Utara 95753","Poyowa Besar I, Kec. Kotamobagu Sel., Kota Kotamobagu",SULAWESI UTARA,95753,Indonesia,1500959.0,,,0.71236,1.243.215.859,https://maps.google.com/?cid=0x0:0x9286865c26bf41f9,
supermarket,Pasar Petani,kios Umega,"P838+XVQ, Tabang, Kec. Kotamobagu Sel., Kota Kotamobagu, Sulawesi Utara","Kota Kotamobagu, Sulawesi Utara",SULAWESI UTARA,,Indonesia,,,,0.704967,1.243.172.497,https://maps.google.com/?cid=0x0:0x7a4753e9645aa681,
supermarket,Toko bahan makanan,UD. DAYA CIPTA,"P85F+RPG, Jl. Desa Poyowa Besar I, Poyowa Besar I, Kec. Kotamobagu Sel., Kota Kotamobagu, Sulawesi Utara","Kota Kotamobagu, Sulawesi Utara",SULAWESI UTARA,,Indonesia,81340741910.0,,,0.7095569,1.243.243.363,https://maps.google.com/?cid=0x0:0x56af18ba057f2c72,
supermarket,supermarket,Kec. Kotamobagu Tim.,"Kota Kotamobagu, Sulawesi Utara","Kota Kotamobagu, Sulawesi Utara",SULAWESI UTARA,,Indonesia,,,,0.7377324,1.243.224.496,https://maps.google.com/?cid=0x0:0xf276a13be322dc46,
supermarket,Toko bahan makanan,Abdi Karya Supermarket,"P8Q6+V5G, Gogagoman, Kec. Kotamobagu Bar., Kota Kotamobagu, Sulawesi Utara 95716","Gogagoman, Kec. Kotamobagu Bar., Kota Kotamobagu",SULAWESI UTARA,95716,Indonesia,,,,0.7396987,1.243.104.652,https://maps.google.com/?cid=0x0:0x70155d811c7eb6d,
supermarket,Pusat Perbelanjaan,PARIS MALL SUPERSTORE,"P8Q5+FJJ, Mogolaing, Kec. Kotamobagu Bar., Kota Kotamobagu, Sulawesi Utara","Kota Kotamobagu, Sulawesi Utara",SULAWESI UTARA,,Indonesia,,,,0.7387169,1.243.090.045,https://maps.google.com/?cid=0x0:0x10725652879cf5c9,
supermarket,Toko bahan makanan,Kios Adi,"P8QF+324, Kotabangon, Kec. Kotamobagu Tim., Kota Kotamobagu, Sulawesi Utara 95716","Kotabangon, Kec. Kotamobagu Tim., Kota Kotamobagu",SULAWESI UTARA,95716,Indonesia,,,,0.737627,1.243.225.923,https://maps.google.com/?cid=0x0:0x6604b6dd178acccc,
supermarket,Minimarket,Alfa Mart,"Jl. K.S. Tubun, Sinindian, Kec. Kotamobagu Tim., Kota Kotamobagu, Sulawesi Utara 95718","Sinindian, Kec. Kotamobagu Tim., Kota Kotamobagu",SULAWESI UTARA,95718,Indonesia,1500959.0,,,0.7342126,1.243.148.311,https://maps.google.com/?cid=0x0:0x5f4008ae48826a2d,
supermarket,Minimarket,Indomaret Yusuf Hasiru Kotobangon,"P8QC+R95, Jl. Yusuf Hasiru, Kotabangon, Kec. Kotamobagu Tim., Kota Kotamobagu, Sulawesi Utara 95716","Jl. Yusuf Hasiru, Kotabangon, Kec. Kotamobagu Tim., Kota Kotamobagu",SULAWESI UTARA,95716,Indonesia,,,,0.7395009,1.243.209.847,https://maps.google.com/?cid=0x0:0x4a7b2e2ee14060ae,
supermarket,Toko,TOKO SINAR TERANG KOTAMOBAGU,"Jl. Kartini No.57, Gogagoman, Kec. Kotamobagu Bar., Kota Kotamobagu, Sulawesi Utara 95716","Gogagoman, Kec. Kotamobagu Bar., Kota Kotamobagu",SULAWESI UTARA,95716,Indonesia,,,,0.7408111,1.243.083.954,https://maps.google.com/?cid=0x0:0x64ed80a7203ff9cf,
supermarket,Toko bahan makanan,Mary Mart,"Jl. Piere Tendean No.25, Gogagoman, Kec. Kotamobagu Bar., Kota Kotamobagu, Sulawesi Utara","Kota Kotamobagu, Sulawesi Utara",SULAWESI UTARA,,Indonesia,,,,0.7458997,1.243.059.551,https://maps.google.com/?cid=0x0:0x11216092c53f3fb5,
supermarket,Toko bahan makanan,AMONG MARKET,"P8Q9+359, Kotabangon, Kec. Kotamobagu Tim., Kota Kotamobagu, Sulawesi Utara 95716","Kotabangon, Kec. Kotamobagu Tim., Kota Kotamobagu",SULAWESI UTARA,95716,Indonesia,85298809392.0,,,0.7376635,1.243.179.809,https://maps.google.com/?cid=0x0:0xa42476d18954f4e1,
supermarket,Minimarket,Waserda SYAFIRA,"P8QC+V8Q, Jl. Yusuf Hasiru, Kotabangon, Kec. Kotamobagu Tim., Kota Kotamobagu, Sulawesi Utara 95716","Jl. Yusuf Hasiru, Kotabangon, Kec. Kotamobagu Tim., Kota Kotamobagu",SULAWESI UTARA,95716,Indonesia,81356856414.0,,,0.739702,1.243.208.518,https://maps.google.com/?cid=0x0:0x96b5b52b4e158db6,
supermarket,Toko Swalayan,TOKO TUNAS BARU,"Jl. Kartini No.32, Gogagoman, Kec. Kotamobagu Bar., Kota Kotamobagu, Sulawesi Utara 95716","Gogagoman, Kec. Kotamobagu Bar., Kota Kotamobagu",SULAWESI UTARA,95716,Indonesia,,,,0.741598,1.243.090.884,https://maps.google.com/?cid=0x0:0x349e2abf4a397ae6,
supermarket,Toko bahan makanan,Kios CHRISSEL,"Jl. Sutoyo No.102, Kotamobagu, Kec. Kotamobagu Bar., Kota Kotamobagu, Sulawesi Utara 95716","Kotamobagu, Kec. Kotamobagu Bar., Kota Kotamobagu",SULAWESI UTARA,95716,Indonesia,81527841268.0,,,0.7403539,1.243.157.935,https://maps.google.com/?cid=0x0:0x4db0d7f45e2c781b,
supermarket,Toko Swalayan,Toko Hawai Baru,"Jl. Bogani, Gogagoman, Kec. Kotamobagu Bar., Kota Kotamobagu, Sulawesi Utara 95715","Gogagoman, Kec. Kotamobagu Bar., Kota Kotamobagu",SULAWESI UTARA,95715,Indonesia,,,,0.74112,124.309.507,https://maps.google.com/?cid=0x0:0x2bcdf1678335297c,
supermarket,Toko Makanan Alami,Ruma Cemilan Kotamobagu,"P7JW+HP7, Jl. Adampe Dolot, Molinow, Kec. Kotamobagu Bar., Kota Kotamobagu, Sulawesi Utara 95716","Jl. Adampe Dolot, Molinow, Kec. Kotamobagu Bar., Kota Kotamobagu",SULAWESI UTARA,95716,Indonesia,882189606688.0,,,0.7314031,1.242.968.025,https://maps.google.com/?cid=0x0:0xb6d963e06bb5a3,
supermarket,Toko,TOKO MURRAH MERRIAH,"P8P7+RXM, Kotabangon, Kec. Kotamobagu Tim., Kota Kotamobagu, Sulawesi Utara 95716","Kotabangon, Kec. Kotamobagu Tim., Kota Kotamobagu",SULAWESI UTARA,95716,Indonesia,8124430369.0,,,0.7370071,124.315.474,https://maps.google.com/?cid=0x0:0x57f60c586c0f17aa,
supermarket,Toko umum,TOKO TITA KOTAMOBAGU,"Jl. S Parman, Kotamobagu, Kec. Kotamobagu Bar., Kota Kotamobagu, Sulawesi Utara","Kota Kotamobagu, Sulawesi Utara",SULAWESI UTARA,,Indonesia,82393017174.0,,,0.7402973,1.243.167.742,https://maps.google.com/?cid=0x0:0xbbc213869f5d5902,
supermarket,Minimarket,alfamart Motoboi Kecil,"Jl. Veteran No.Kel, Motoboi Kecil, Kec. Kotamobagu Sel., Kota Kotamobagu, Sulawesi Utara 95717","Motoboi Kecil, Kec. Kotamobagu Sel., Kota Kotamobagu",SULAWESI UTARA,95717,Indonesia,1500959.0,,,0.7278252,124.300.309,https://maps.google.com/?cid=0x0:0xf93da0486cf1320e,
supermarket,Toko Perlengkapan Rumah,toko chici,"P8J2+R44, Jl. Adampe Dolot, Poyowa Besar I, Kec. Kotamobagu Bar., Kota Kotamobagu, Sulawesi Utara 95716","Jl. Adampe Dolot, Poyowa Besar I, Kec. Kotamobagu Bar., Kota Kotamobagu",SULAWESI UTARA,95716,Indonesia,82293537200.0,,,0.7320036,1.243.003.282,https://maps.google.com/?cid=0x0:0x52dc57f8b31e09cf,
supermarket,Toko Perlengkapan Rumah,Toko Bangunan Gampang Ingat,"Jl. Ahmad Yani No.34, Kotamobagu, Kec. Kotamobagu Bar., Kota Kotamobagu, Sulawesi Utara 95716","Kotamobagu, Kec. Kotamobagu Bar., Kota Kotamobagu",SULAWESI UTARA,95716,Indonesia,,,,0.7400726,1.243.106.451,https://maps.google.com/?cid=0x0:0x9fdb5bd8f705aecf,
supermarket,Minimarket,AlfaMart KS Tubun,"Jl. K.S. Tubun, Matali, Kec. Kotamobagu Tim., Kota Kotamobagu, Sulawesi Utara 95718","Matali, Kec. Kotamobagu Tim., Kota Kotamobagu",SULAWESI UTARA,95718,Indonesia,1500959.0,,,0.7242229,1.243.099.752,https://maps.google.com/?cid=0x0:0x9b0071caf62349a1,
supermarket,Toko umum,Kios Alisha,"Jl. Kesatria, RT.006/RW.003, Gogagoman, Kec. Kotamobagu Utara, Kota Kotamobagu, Sulawesi Utara 95716","RT.006/RW.003, Gogagoman, Kec. Kotamobagu Utara, Kota Kotamobagu",SULAWESI UTARA,95716,Indonesia,82195066534.0,,,0.7468429,1.243.124.049,https://maps.google.com/?cid=0x0:0xebfd6b8252966ded,
supermarket,Supermarket Industri,AnugrahMart 399,"P89G+Q2G, Jl. Siliwangi, Motoboi Besar, Kec. Kotamobagu Tim., Kota Kotamobagu, Sulawesi Utara 95716","Jl. Siliwangi, Motoboi Besar, Kec. Kotamobagu Tim., Kota Kotamobagu",SULAWESI UTARA,95716,Indonesia,4342601680.0,,,0.7194304,124.325.068,https://maps.google.com/?cid=0x0:0xa31529c2805c0f50,
supermarket,Toko,Toko Aneka Rasa,"Jl. Bogani No.4, Gogagoman, Kec. Kotamobagu Bar., Kota Kotamobagu, Sulawesi Utara","Kota Kotamobagu, Sulawesi Utara",SULAWESI UTARA,,Indonesia,85341628385.0,,,0.741711,1.243.087.853,https://maps.google.com/?cid=0x0:0xc65a39ba54d83328,
supermarket,Toko bahan makanan,UD PUTRA PRIMA,"P8FF+3WF, Jl. Siliwangi, Kobo Besar, Kec. Kotamobagu Tim., Kota Kotamobagu, Sulawesi Utara 95716","Jl. Siliwangi, Kobo Besar, Kec. Kotamobagu Tim., Kota Kotamobagu",SULAWESI UTARA,95716,Indonesia,85255257567.0,,,0.7226868,1.243.248.029,https://maps.google.com/?cid=0x0:0xfc252ff80d78e210,
supermarket,Kios,KIOS MITRA,"P8G6+X86, Sinindian, Kec. Kotamobagu Tim., Kota Kotamobagu, Sulawesi Utara","Kota Kotamobagu, Sulawesi Utara",SULAWESI UTARA,,Indonesia,,,,0.7274069,1.243.107.554,https://maps.google.com/?cid=0x0:0xdd09c48315e6eaf8,
supermarket,Minimarket,Indomart Pobundayan,"P894+2P3, Pobundayan, Kec. Kotamobagu Sel., Kota Kotamobagu, Sulawesi Utara","Kota Kotamobagu, Sulawesi Utara",SULAWESI UTARA,,Indonesia,,,,0.7175245,1.243.067.941,https://maps.google.com/?cid=0x0:0x4b8b8425721a607d,
supermarket,supermarket,Sulawesi Utara 95716,"Mogolaing, Kec. Kotamobagu Bar., Kota Kotamobagu, Sulawesi Utara","Kota Kotamobagu, Sulawesi Utara",SULAWESI UTARA,,Indonesia,,,,0.7331339,1.243.035.249,https://maps.google.com/?cid=0x0:0xb303343be4233a,
supermarket,Toko bahan makanan,Abdi Karya Supermarket,"P8Q6+V5G, Gogagoman, Kec. Kotamobagu Bar., Kota Kotamobagu, Sulawesi Utara 95716","Gogagoman, Kec. Kotamobagu Bar., Kota Kotamobagu",SULAWESI UTARA,95716,Indonesia,,,,0.7396987,1.243.104.652,https://maps.google.com/?cid=0x0:0x70155d811c7eb6d,
supermarket,Toko,Toko Dragon,"P8Q5+X67, Jl. Yos Sudarso, Gogagoman, Kec. Kotamobagu Bar., Kota Kotamobagu, Sulawesi Utara 95716","Jl. Yos Sudarso, Gogagoman, Kec. Kotamobagu Bar., Kota Kotamobagu",SULAWESI UTARA,95716,Indonesia,,,,0.7399177,1.243.080.565,https://maps.google.com/?cid=0x0:0x6e73a4907109ef61,
supermarket,Minimarket,Alfa Mart,"Jl. K.S. Tubun, Sinindian, Kec. Kotamobagu Tim., Kota Kotamobagu, Sulawesi Utara 95718","Sinindian, Kec. Kotamobagu Tim., Kota Kotamobagu",SULAWESI UTARA,95718,Indonesia,1500959.0,,,0.7342126,1.243.148.311,https://maps.google.com/?cid=0x0:0x5f4008ae48826a2d,
supermarket,Toko Swalayan,umega mart,"Jl. Adampe Dolot RW No.176, RT.12/RW.lingk. 3, Molinow, Kec. Kotamobagu Bar., Kota Kotamobagu, Sulawesi Utara 95716","RT.12/RW.lingk. 3, Molinow, Kec. Kotamobagu Bar., Kota Kotamobagu",SULAWESI UTARA,95716,Indonesia,81244769998.0,,,0.7323853,1.243.018.711,https://maps.google.com/?cid=0x0:0x48f359b7e3d08de2,
supermarket,Toko,TOKO SINAR TERANG KOTAMOBAGU,"Jl. Kartini No.57, Gogagoman, Kec. Kotamobagu Bar., Kota Kotamobagu, Sulawesi Utara 95716","Gogagoman, Kec. Kotamobagu Bar., Kota Kotamobagu",SULAWESI UTARA,95716,Indonesia,,,,0.7408111,1.243.083.954,https://maps.google.com/?cid=0x0:0x64ed80a7203ff9cf,
supermarket,Minimarket,Alfamart,"Jl. Gatot Subroto Induk No.30, Mongkonai, Kec. Kotamobagu Bar., Kota Kotamobagu, Sulawesi Utara 95716","Mongkonai, Kec. Kotamobagu Bar., Kota Kotamobagu",SULAWESI UTARA,95716,Indonesia,1500959.0,,,0.7338205,1.242.895.706,https://maps.google.com/?cid=0x0:0x67397fe0a1360f40,
supermarket,Toko Buku,TOKO KOTA PERMAI,"Gogagoman, Kec. Kotamobagu Bar., Kota Kotamobagu, Sulawesi Utara 95716","Kec. Kotamobagu Bar., Kota Kotamobagu",SULAWESI UTARA,95716,Indonesia,43422005.0,,,0.741143,124.311.141,https://maps.google.com/?cid=0x0:0x1dfcde7ac8f96005,
supermarket,,Toko Lestari,"Gogagoman, Kec. Kotamobagu Bar., Kota Kotamobagu, Sulawesi Utara 95716","Kec. Kotamobagu Bar., Kota Kotamobagu",SULAWESI UTARA,95716,Indonesia,85240824719.0,,,0.7446674,1.243.050.489,https://maps.google.com/?cid=0x0:0x2f6cee83b455b0eb,
supermarket,supermarket,Kec. Kotamobagu Tim.,"Kota Kotamobagu, Sulawesi Utara","Kota Kotamobagu, Sulawesi Utara",SULAWESI UTARA,,Indonesia,,,,0.7377324,1.243.224.496,https://maps.google.com/?cid=0x0:0xf276a13be322dc46,
supermarket,Toko bahan makanan,Kios Adi,"P8QF+324, Kotabangon, Kec. Kotamobagu Tim., Kota Kotamobagu, Sulawesi Utara 95716","Kotabangon, Kec. Kotamobagu Tim., Kota Kotamobagu",SULAWESI UTARA,95716,Indonesia,,,,0.737627,1.243.225.923,https://maps.google.com/?cid=0x0:0x6604b6dd178acccc,
supermarket,Toko Swalayan,TOKO TUNAS BARU,"Jl. Kartini No.32, Gogagoman, Kec. Kotamobagu Bar., Kota Kotamobagu, Sulawesi Utara 95716","Gogagoman, Kec. Kotamobagu Bar., Kota Kotamobagu",SULAWESI UTARA,95716,Indonesia,,,,0.741598,1.243.090.884,https://maps.google.com/?cid=0x0:0x349e2abf4a397ae6,
supermarket,Toko Makanan Alami,Ruma Cemilan Kotamobagu,"P7JW+HP7, Jl. Adampe Dolot, Molinow, Kec. Kotamobagu Bar., Kota Kotamobagu, Sulawesi Utara 95716","Jl. Adampe Dolot, Molinow, Kec. Kotamobagu Bar., Kota Kotamobagu",SULAWESI UTARA,95716,Indonesia,882189606688.0,,,0.7314031,1.242.968.025,https://maps.google.com/?cid=0x0:0xb6d963e06bb5a3,
supermarket,Toko bahan makanan,AMONG MARKET,"P8Q9+359, Kotabangon, Kec. Kotamobagu Tim., Kota Kotamobagu, Sulawesi Utara 95716","Kotabangon, Kec. Kotamobagu Tim., Kota Kotamobagu",SULAWESI UTARA,95716,Indonesia,85298809392.0,,,0.7376635,1.243.179.809,https://maps.google.com/?cid=0x0:0xa42476d18954f4e1,
supermarket,Supermarket Industri,AnugrahMart 399,"P89G+Q2G, Jl. Siliwangi, Motoboi Besar, Kec. Kotamobagu Tim., Kota Kotamobagu, Sulawesi Utara 95716","Jl. Siliwangi, Motoboi Besar, Kec. Kotamobagu Tim., Kota Kotamobagu",SULAWESI UTARA,95716,Indonesia,4342601680.0,,,0.7194304,124.325.068,https://maps.google.com/?cid=0x0:0xa31529c2805c0f50,
supermarket,Toko bahan makanan,Kios CHRISSEL,"Jl. Sutoyo No.102, Kotamobagu, Kec. Kotamobagu Bar., Kota Kotamobagu, Sulawesi Utara 95716","Kotamobagu, Kec. Kotamobagu Bar., Kota Kotamobagu",SULAWESI UTARA,95716,Indonesia,81527841268.0,,,0.7403539,1.243.157.935,https://maps.google.com/?cid=0x0:0x4db0d7f45e2c781b,
supermarket,Minimarket,Waserda SYAFIRA,"P8QC+V8Q, Jl. Yusuf Hasiru, Kotabangon, Kec. Kotamobagu Tim., Kota Kotamobagu, Sulawesi Utara 95716","Jl. Yusuf Hasiru, Kotabangon, Kec. Kotamobagu Tim., Kota Kotamobagu",SULAWESI UTARA,95716,Indonesia,81356856414.0,,,0.739702,1.243.208.518,https://maps.google.com/?cid=0x0:0x96b5b52b4e158db6,
supermarket,Toko umum,Kios Alisha,"Jl. Kesatria, RT.006/RW.003, Gogagoman, Kec. Kotamobagu Utara, Kota Kotamobagu, Sulawesi Utara 95716","RT.006/RW.003, Gogagoman, Kec. Kotamobagu Utara, Kota Kotamobagu",SULAWESI UTARA,95716,Indonesia,82195066534.0,,,0.7468429,1.243.124.049,https://maps.google.com/?cid=0x0:0xebfd6b8252966ded,
supermarket,Toko,TOKO MURRAH MERRIAH,"P8P7+RXM, Kotabangon, Kec. Kotamobagu Tim., Kota Kotamobagu, Sulawesi Utara 95716","Kotabangon, Kec. Kotamobagu Tim., Kota Kotamobagu",SULAWESI UTARA,95716,Indonesia,8124430369.0,,,0.7370071,124.315.474,https://maps.google.com/?cid=0x0:0x57f60c586c0f17aa,
supermarket,Toko bahan makanan,Mary Mart,"Jl. Piere Tendean No.25, Gogagoman, Kec. Kotamobagu Bar., Kota Kotamobagu, Sulawesi Utara","Kota Kotamobagu, Sulawesi Utara",SULAWESI UTARA,,Indonesia,,,,0.7458997,1.243.059.551,https://maps.google.com/?cid=0x0:0x11216092c53f3fb5,
supermarket,Toko Perlengkapan Rumah,toko chici,"P8J2+R44, Jl. Adampe Dolot, Poyowa Besar I, Kec. Kotamobagu Bar., Kota Kotamobagu, Sulawesi Utara 95716","Jl. Adampe Dolot, Poyowa Besar I, Kec. Kotamobagu Bar., Kota Kotamobagu",SULAWESI UTARA,95716,Indonesia,82293537200.0,,,0.7320036,1.243.003.282,https://maps.google.com/?cid=0x0:0x52dc57f8b31e09cf,
supermarket,Toko,Toko Aneka Rasa,"Jl. Bogani No.4, Gogagoman, Kec. Kotamobagu Bar., Kota Kotamobagu, Sulawesi Utara","Kota Kotamobagu, Sulawesi Utara",SULAWESI UTARA,,Indonesia,85341628385.0,,,0.741711,1.243.087.853,https://maps.google.com/?cid=0x0:0xc65a39ba54d83328,
supermarket,Toko bahan makanan,UD PUTRA PRIMA,"P8FF+3WF, Jl. Siliwangi, Kobo Besar, Kec. Kotamobagu Tim., Kota Kotamobagu, Sulawesi Utara 95716","Jl. Siliwangi, Kobo Besar, Kec. Kotamobagu Tim., Kota Kotamobagu",SULAWESI UTARA,95716,Indonesia,85255257567.0,,,0.7226868,1.243.248.029,https://maps.google.com/?cid=0x0:0xfc252ff80d78e210,
supermarket,Toko Perlengkapan Rumah,Toko Bangunan Gampang Ingat,"Jl. Ahmad Yani No.34, Kotamobagu, Kec. Kotamobagu Bar., Kota Kotamobagu, Sulawesi Utara 95716","Kotamobagu, Kec. Kotamobagu Bar., Kota Kotamobagu",SULAWESI UTARA,95716,Indonesia,,,,0.7400726,1.243.106.451,https://maps.google.com/?cid=0x0:0x9fdb5bd8f705aecf,
supermarket,Minimarket,AlfaMart KS Tubun,"Jl. K.S. Tubun, Matali, Kec. Kotamobagu Tim., Kota Kotamobagu, Sulawesi Utara 95718","Matali, Kec. Kotamobagu Tim., Kota Kotamobagu",SULAWESI UTARA,95718,Indonesia,1500959.0,,,0.7242229,1.243.099.752,https://maps.google.com/?cid=0x0:0x9b0071caf62349a1,
supermarket,supermarket,Sulawesi Utara 95718,"Kotabangon, Kec. Kotamobagu Tim., Kota Kotamobagu, Sulawesi Utara","Kota Kotamobagu, Sulawesi Utara",SULAWESI UTARA,,Indonesia,,,,0.7331272,1.243.211.987,https://maps.google.com/?cid=0x0:0x3ca38e005d607719,
supermarket,Toko bahan makanan,Abdi Karya Supermarket,"P8Q6+V5G, Gogagoman, Kec. Kotamobagu Bar., Kota Kotamobagu, Sulawesi Utara 95716","Gogagoman, Kec. Kotamobagu Bar., Kota Kotamobagu",SULAWESI UTARA,95716,Indonesia,,,,0.7396987,1.243.104.652,https://maps.google.com/?cid=0x0:0x70155d811c7eb6d,
supermarket,Minimarket,Alfa Mart,"Jl. K.S. Tubun, Sinindian, Kec. Kotamobagu Tim., Kota Kotamobagu, Sulawesi Utara 95718","Sinindian, Kec. Kotamobagu Tim., Kota Kotamobagu",SULAWESI UTARA,95718,Indonesia,1500959.0,,,0.7342126,1.243.148.311,https://maps.google.com/?cid=0x0:0x5f4008ae48826a2d,
supermarket,Toko,Toko Dragon,"P8Q5+X67, Jl. Yos Sudarso, Gogagoman, Kec. Kotamobagu Bar., Kota Kotamobagu, Sulawesi Utara 95716","Jl. Yos Sudarso, Gogagoman, Kec. Kotamobagu Bar., Kota Kotamobagu",SULAWESI UTARA,95716,Indonesia,,,,0.7399177,1.243.080.565,https://maps.google.com/?cid=0x0:0x6e73a4907109ef61,
supermarket,Minimarket,Indomaret Yusuf Hasiru Kotobangon,"P8QC+R95, Jl. Yusuf Hasiru, Kotabangon, Kec. Kotamobagu Tim., Kota Kotamobagu, Sulawesi Utara 95716","Jl. Yusuf Hasiru, Kotabangon, Kec. Kotamobagu Tim., Kota Kotamobagu",SULAWESI UTARA,95716,Indonesia,,,,0.7395009,1.243.209.847,https://maps.google.com/?cid=0x0:0x4a7b2e2ee14060ae,
supermarket,Minimarket,Indomaret,"P8H7+P47, Unnamed Rd, Tim, Sinindian, Kec. Kotamobagu Tim., Kota Kotamobagu, Sulawesi Utara 95716","Unnamed Rd, Tim, Sinindian, Kec. Kotamobagu Tim., Kota Kotamobagu",SULAWESI UTARA,95716,Indonesia,,,,0.7292806,124.312.786,https://maps.google.com/?cid=0x0:0x944f9897c9c9be5b,
supermarket,Minimarket,Indomaret Raya Kampus,"P8P2+FF4, Mogolaing, Kec. Kotamobagu Bar., Kota Kotamobagu, Sulawesi Utara","Kota Kotamobagu, Sulawesi Utara",SULAWESI UTARA,,Indonesia,,,,0.7361499,1.243.012.164,https://maps.google.com/?cid=0x0:0x622d2b10bfa24922,
supermarket,Minimarket,Indomaret Kobo Kecil,"Kobo Kecil, Kec. Kotamobagu Tim., Kota Kotamobagu, Sulawesi Utara","Kota Kotamobagu, Sulawesi Utara",SULAWESI UTARA,,Indonesia,,,,0.715235,1.243.249.117,https://maps.google.com/?cid=0x0:0x2d505333db6339b6,
supermarket,Minimarket,Indomaret Motoboi Besar,"Jl. Teuku Umar No.72, Motoboi Besar, Kec. Kotamobagu Tim., Kota Kotamobagu, Sulawesi Utara 95719","Motoboi Besar, Kec. Kotamobagu Tim., Kota Kotamobagu",SULAWESI UTARA,95719,Indonesia,,,,0.7175893,1.243.219.358,https://maps.google.com/?cid=0x0:0x20c2a7ccce81da6a,
supermarket,Pusat Perbelanjaan,PARIS MART,"P8Q4+3MV, Jl. Budi, Mogolaing, Kec. Kotamobagu Bar., Kota Kotamobagu, Sulawesi Utara 95716","Jl. Budi, Mogolaing, Kec. Kotamobagu Bar., Kota Kotamobagu",SULAWESI UTARA,95716,Indonesia,,,,0.73774,124.306.685,https://maps.google.com/?cid=0x0:0xa2d6fe151cf0a30,
supermarket,Minimarket,Indomaret Kopandakan 1,"P75P+283, Kopandakan I, Kec. Kotamobagu Sel., Kota Kotamobagu, Sulawesi Utara","Kota Kotamobagu, Sulawesi Utara",SULAWESI UTARA,,Indonesia,211500580.0,,,0.7075216,1.242.858.089,https://maps.google.com/?cid=0x0:0x22928e885bc05ab7,
supermarket,Pasar,Pasar 23 Maret Kotamobagu,"P8R5+P93, Gogagoman, Kec. Kotamobagu Bar., Kota Kotamobagu, Sulawesi Utara","Kota Kotamobagu, Sulawesi Utara",SULAWESI UTARA,,Indonesia,,,,0.7417546,1.243.084.275,https://maps.google.com/?cid=0x0:0x7e1ef51b5292d93e,
supermarket,Pasar,Pasar serasi kotamobagu LAPAK MA'AIN,"P8R4+GJC, Gogagoman, Kec. Kotamobagu Bar., Kota Kotamobagu, Sulawesi Utara","Kota Kotamobagu, Sulawesi Utara",SULAWESI UTARA,,Indonesia,,,,0.7413013,1.243.065.044,https://maps.google.com/?cid=0x0:0x40648d48760f4a10,
supermarket,supermarket,OUTLET SAYUR SYABIL,"P7FX+RX3, Unnamed Road, Motoboi Kecil, Kec. Kotamobagu Sel., Kota Kotamobagu, Sulawesi Utara 95716","Unnamed Road, Motoboi Kecil, Kec. Kotamobagu Sel., Kota Kotamobagu",SULAWESI UTARA,95716,Indonesia,,,,0.7245095,1.242.999.303,https://maps.google.com/?cid=0x0:0xefb583d0d013b74e,
supermarket,supermarket,Aura toko,"P8MC+7F4 AURA,TOKO (C000385929, JL.MATALI, Matali, Kec. Kotamobagu Tim., Kota Kotamobagu, Sulawesi Utara 95718","JL.MATALI, Matali, Kec. Kotamobagu Tim., Kota Kotamobagu",SULAWESI UTARA,95718,Indonesia,,,,0.7331272,1.243.211.987,https://maps.google.com/?cid=0x0:0xb818d143dbce9028,
supermarket,supermarket,Sulawesi Utara,,Sulawesi Utara,SULAWESI UTARA,,Indonesia,,,,0.6246932,1.239.750.018,https://maps.google.com/?cid=0x0:0x45891617980cb835,
supermarket,Toko bahan makanan,Abdi Karya Supermarket,"P8Q6+V5G, Gogagoman, Kec. Kotamobagu Bar., Kota Kotamobagu, Sulawesi Utara 95716","Gogagoman, Kec. Kotamobagu Bar., Kota Kotamobagu",SULAWESI UTARA,95716,Indonesia,,,,0.7396987,1.243.104.652,https://maps.google.com/?cid=0x0:0x70155d811c7eb6d,
supermarket,Pusat Perbelanjaan,PARIS MALL SUPERSTORE,"P8Q5+FJJ, Mogolaing, Kec. Kotamobagu Bar., Kota Kotamobagu, Sulawesi Utara","Kota Kotamobagu, Sulawesi Utara",SULAWESI UTARA,,Indonesia,,,,0.7387169,1.243.090.045,https://maps.google.com/?cid=0x0:0x10725652879cf5c9,
supermarket,Toko Swalayan,Golden Pasar Swalayan,"Ruko Boulevard, Jl. Piere Tendean No.5, Wenang Utara, Kec. Wenang, Kota Manado, Sulawesi Utara","Kota Manado, Sulawesi Utara",SULAWESI UTARA,,Indonesia,,,,14.884.317,1.248.379.329,https://maps.google.com/?cid=0x0:0x2d4fb94562e6ef96,
supermarket,Minimarket,Alfa Mart,"Jl. K.S. Tubun, Sinindian, Kec. Kotamobagu Tim., Kota Kotamobagu, Sulawesi Utara 95718","Sinindian, Kec. Kotamobagu Tim., Kota Kotamobagu",SULAWESI UTARA,95718,Indonesia,1500959.0,,,0.7342126,1.243.148.311,https://maps.google.com/?cid=0x0:0x5f4008ae48826a2d,
supermarket,Toko Swalayan,Cool Supermarket,"8R7Q+J6R, Jl. Babe Palar, Walian, Kec. Tomohon Sel., Kota Tomohon, Sulawesi Utara","Kota Tomohon, Sulawesi Utara",SULAWESI UTARA,,Indonesia,431351252.0,,,1.314.119,1.248.380.117,https://maps.google.com/?cid=0x0:0x37eb35a3e5b2af17,
supermarket,Pusat Perbelanjaan,PARIS MART,"P8Q4+3MV, Jl. Budi, Mogolaing, Kec. Kotamobagu Bar., Kota Kotamobagu, Sulawesi Utara 95716","Jl. Budi, Mogolaing, Kec. Kotamobagu Bar., Kota Kotamobagu",SULAWESI UTARA,95716,Indonesia,,,,0.73774,124.306.685,https://maps.google.com/?cid=0x0:0xa2d6fe151cf0a30,
supermarket,Toko Swalayan,umega mart,"Jl. Adampe Dolot RW No.176, RT.12/RW.lingk. 3, Molinow, Kec. Kotamobagu Bar., Kota Kotamobagu, Sulawesi Utara 95716","RT.12/RW.lingk. 3, Molinow, Kec. Kotamobagu Bar., Kota Kotamobagu",SULAWESI UTARA,95716,Indonesia,81244769998.0,,,0.7323853,1.243.018.711,https://maps.google.com/?cid=0x0:0x48f359b7e3d08de2,
supermarket,supermarket,Kec. Kotamobagu Tim.,"Kota Kotamobagu, Sulawesi Utara","Kota Kotamobagu, Sulawesi Utara",SULAWESI UTARA,,Indonesia,,,,0.7377324,1.243.224.496,https://maps.google.com/?cid=0x0:0xf276a13be322dc46,
supermarket,Minimarket,Indomaret Yusuf Hasiru Kotobangon,"P8QC+R95, Jl. Yusuf Hasiru, Kotabangon, Kec. Kotamobagu Tim., Kota Kotamobagu, Sulawesi Utara 95716","Jl. Yusuf Hasiru, Kotabangon, Kec. Kotamobagu Tim., Kota Kotamobagu",SULAWESI UTARA,95716,Indonesia,,,,0.7395009,1.243.209.847,https://maps.google.com/?cid=0x0:0x4a7b2e2ee14060ae,
supermarket,Toko,TOKO SINAR TERANG KOTAMOBAGU,"Jl. Kartini No.57, Gogagoman, Kec. Kotamobagu Bar., Kota Kotamobagu, Sulawesi Utara 95716","Gogagoman, Kec. Kotamobagu Bar., Kota Kotamobagu",SULAWESI UTARA,95716,Indonesia,,,,0.7408111,1.243.083.954,https://maps.google.com/?cid=0x0:0x64ed80a7203ff9cf,
supermarket,Toko bahan makanan,Kios Adi,"P8QF+324, Kotabangon, Kec. Kotamobagu Tim., Kota Kotamobagu, Sulawesi Utara 95716","Kotabangon, Kec. Kotamobagu Tim., Kota Kotamobagu",SULAWESI UTARA,95716,Indonesia,,,,0.737627,1.243.225.923,https://maps.google.com/?cid=0x0:0x6604b6dd178acccc,
supermarket,Toko Swalayan,TOKO TUNAS BARU,"Jl. Kartini No.32, Gogagoman, Kec. Kotamobagu Bar., Kota Kotamobagu, Sulawesi Utara 95716","Gogagoman, Kec. Kotamobagu Bar., Kota Kotamobagu",SULAWESI UTARA,95716,Indonesia,,,,0.741598,1.243.090.884,https://maps.google.com/?cid=0x0:0x349e2abf4a397ae6,
supermarket,Toko Makanan Alami,Ruma Cemilan Kotamobagu,"P7JW+HP7, Jl. Adampe Dolot, Molinow, Kec. Kotamobagu Bar., Kota Kotamobagu, Sulawesi Utara 95716","Jl. Adampe Dolot, Molinow, Kec. Kotamobagu Bar., Kota Kotamobagu",SULAWESI UTARA,95716,Indonesia,882189606688.0,,,0.7314031,1.242.968.025,https://maps.google.com/?cid=0x0:0xb6d963e06bb5a3,
supermarket,Toko umum,TOKO TITA KOTAMOBAGU,"Jl. S Parman, Kotamobagu, Kec. Kotamobagu Bar., Kota Kotamobagu, Sulawesi Utara","Kota Kotamobagu, Sulawesi Utara",SULAWESI UTARA,,Indonesia,82393017174.0,,,0.7402973,1.243.167.742,https://maps.google.com/?cid=0x0:0xbbc213869f5d5902,
supermarket,Toko,TOKO MURRAH MERRIAH,"P8P7+RXM, Kotabangon, Kec. Kotamobagu Tim., Kota Kotamobagu, Sulawesi Utara 95716","Kotabangon, Kec. Kotamobagu Tim., Kota Kotamobagu",SULAWESI UTARA,95716,Indonesia,8124430369.0,,,0.7370071,124.315.474,https://maps.google.com/?cid=0x0:0x57f60c586c0f17aa,
supermarket,Toko Swalayan,Toko Hawai Baru,"Jl. Bogani, Gogagoman, Kec. Kotamobagu Bar., Kota Kotamobagu, Sulawesi Utara 95715","Gogagoman, Kec. Kotamobagu Bar., Kota Kotamobagu",SULAWESI UTARA,95715,Indonesia,,,,0.74112,124.309.507,https://maps.google.com/?cid=0x0:0x2bcdf1678335297c,
supermarket,Minimarket,Waserda SYAFIRA,"P8QC+V8Q, Jl. Yusuf Hasiru, Kotabangon, Kec. Kotamobagu Tim., Kota Kotamobagu, Sulawesi Utara 95716","Jl. Yusuf Hasiru, Kotabangon, Kec. Kotamobagu Tim., Kota Kotamobagu",SULAWESI UTARA,95716,Indonesia,81356856414.0,,,0.739702,1.243.208.518,https://maps.google.com/?cid=0x0:0x96b5b52b4e158db6,
supermarket,Toko bahan makanan,Mary Mart,"Jl. Piere Tendean No.25, Gogagoman, Kec. Kotamobagu Bar., Kota Kotamobagu, Sulawesi Utara","Kota Kotamobagu, Sulawesi Utara",SULAWESI UTARA,,Indonesia,,,,0.7458997,1.243.059.551,https://maps.google.com/?cid=0x0:0x11216092c53f3fb5,
supermarket,Toko bahan makanan,AMONG MARKET,"P8Q9+359, Kotabangon, Kec. Kotamobagu Tim., Kota Kotamobagu, Sulawesi Utara 95716","Kotabangon, Kec. Kotamobagu Tim., Kota Kotamobagu",SULAWESI UTARA,95716,Indonesia,85298809392.0,,,0.7376635,1.243.179.809,https://maps.google.com/?cid=0x0:0xa42476d18954f4e1,
supermarket,Minimarket,AlfaMart KS Tubun,"Jl. K.S. Tubun, Matali, Kec. Kotamobagu Tim., Kota Kotamobagu, Sulawesi Utara 95718","Matali, Kec. Kotamobagu Tim., Kota Kotamobagu",SULAWESI UTARA,95718,Indonesia,1500959.0,,,0.7242229,1.243.099.752,https://maps.google.com/?cid=0x0:0x9b0071caf62349a1,
supermarket,Minimarket,Indomaret Kobo Kecil,"Kobo Kecil, Kec. Kotamobagu Tim., Kota Kotamobagu, Sulawesi Utara","Kota Kotamobagu, Sulawesi Utara",SULAWESI UTARA,,Indonesia,,,,0.715235,1.243.249.117,https://maps.google.com/?cid=0x0:0x2d505333db6339b6,
supermarket,Pasar,Pasar 23 Maret Kotamobagu,"P8R5+P93, Gogagoman, Kec. Kotamobagu Bar., Kota Kotamobagu, Sulawesi Utara","Kota Kotamobagu, Sulawesi Utara",SULAWESI UTARA,,Indonesia,,,,0.7417546,1.243.084.275,https://maps.google.com/?cid=0x0:0x7e1ef51b5292d93e,
supermarket,Minimarket,alfamart Motoboi Kecil,"Jl. Veteran No.Kel, Motoboi Kecil, Kec. Kotamobagu Sel., Kota Kotamobagu, Sulawesi Utara 95717","Motoboi Kecil, Kec. Kotamobagu Sel., Kota Kotamobagu",SULAWESI UTARA,95717,Indonesia,1500959.0,,,0.7278252,124.300.309,https://maps.google.com/?cid=0x0:0xf93da0486cf1320e,
supermarket,Minimarket,Indomaret Raya Kampus,"P8P2+FF4, Mogolaing, Kec. Kotamobagu Bar., Kota Kotamobagu, Sulawesi Utara","Kota Kotamobagu, Sulawesi Utara",SULAWESI UTARA,,Indonesia,,,,0.7361499,1.243.012.164,https://maps.google.com/?cid=0x0:0x622d2b10bfa24922,
supermarket,Supermarket Industri,AnugrahMart 399,"P89G+Q2G, Jl. Siliwangi, Motoboi Besar, Kec. Kotamobagu Tim., Kota Kotamobagu, Sulawesi Utara 95716","Jl. Siliwangi, Motoboi Besar, Kec. Kotamobagu Tim., Kota Kotamobagu",SULAWESI UTARA,95716,Indonesia,4342601680.0,,,0.7194304,124.325.068,https://maps.google.com/?cid=0x0:0xa31529c2805c0f50,
supermarket,Toko,Toko Aneka Rasa,"Jl. Bogani No.4, Gogagoman, Kec. Kotamobagu Bar., Kota Kotamobagu, Sulawesi Utara","Kota Kotamobagu, Sulawesi Utara",SULAWESI UTARA,,Indonesia,85341628385.0,,,0.741711,1.243.087.853,https://maps.google.com/?cid=0x0:0xc65a39ba54d83328,
supermarket,Toko bahan makanan,Kios CHRISSEL,"Jl. Sutoyo No.102, Kotamobagu, Kec. Kotamobagu Bar., Kota Kotamobagu, Sulawesi Utara 95716","Kotamobagu, Kec. Kotamobagu Bar., Kota Kotamobagu",SULAWESI UTARA,95716,Indonesia,81527841268.0,,,0.7403539,1.243.157.935,https://maps.google.com/?cid=0x0:0x4db0d7f45e2c781b,
supermarket,Kios,KIOS MITRA,"P8G6+X86, Sinindian, Kec. Kotamobagu Tim., Kota Kotamobagu, Sulawesi Utara","Kota Kotamobagu, Sulawesi Utara",SULAWESI UTARA,,Indonesia,,,,0.7274069,1.243.107.554,https://maps.google.com/?cid=0x0:0xdd09c48315e6eaf8,
supermarket,supermarket,Sulawesi Utara,,Sulawesi Utara,SULAWESI UTARA,,Indonesia,,,,0.6246932,1.239.750.018,https://maps.google.com/?cid=0x0:0x45891617980cb835,
supermarket,Toko bahan makanan,Abdi Karya Supermarket,"P8Q6+V5G, Gogagoman, Kec. Kotamobagu Bar., Kota Kotamobagu, Sulawesi Utara 95716","Gogagoman, Kec. Kotamobagu Bar., Kota Kotamobagu",SULAWESI UTARA,95716,Indonesia,,,,0.7396987,1.243.104.652,https://maps.google.com/?cid=0x0:0x70155d811c7eb6d,
supermarket,Pusat Perbelanjaan,PARIS MALL SUPERSTORE,"P8Q5+FJJ, Mogolaing, Kec. Kotamobagu Bar., Kota Kotamobagu, Sulawesi Utara","Kota Kotamobagu, Sulawesi Utara",SULAWESI UTARA,,Indonesia,,,,0.7387169,1.243.090.045,https://maps.google.com/?cid=0x0:0x10725652879cf5c9,
supermarket,Minimarket,Alfamart,"Jl. Diponegoro No.Kel, Biga, Kec. Kotamobagu Utara, Kota Kotamobagu, Sulawesi Utara 95713","Biga, Kec. Kotamobagu Utara, Kota Kotamobagu",SULAWESI UTARA,95713,Indonesia,1500959.0,,,0.7492912,124.317.409,https://maps.google.com/?cid=0x0:0xfd8999966bc62306,
supermarket,Minimarket,Alfa Mart,"Jl. K.S. Tubun, Sinindian, Kec. Kotamobagu Tim., Kota Kotamobagu, Sulawesi Utara 95718","Sinindian, Kec. Kotamobagu Tim., Kota Kotamobagu",SULAWESI UTARA,95718,Indonesia,1500959.0,,,0.7342126,1.243.148.311,https://maps.google.com/?cid=0x0:0x5f4008ae48826a2d,
supermarket,Toko bahan makanan,Toko Super Grosir Kotamobagu,"Jl. Bumbongon No.4, Gogagoman, Kec. Kotamobagu Bar., Kota Kotamobagu, Sulawesi Utara","Kota Kotamobagu, Sulawesi Utara",SULAWESI UTARA,,Indonesia,82393271168.0,,,0.7415855,12.431.044,https://maps.google.com/?cid=0x0:0x5160084e5ccb435b,
supermarket,Toko Swalayan,umega mart,"Jl. Adampe Dolot RW No.176, RT.12/RW.lingk. 3, Molinow, Kec. Kotamobagu Bar., Kota Kotamobagu, Sulawesi Utara 95716","RT.12/RW.lingk. 3, Molinow, Kec. Kotamobagu Bar., Kota Kotamobagu",SULAWESI UTARA,95716,Indonesia,81244769998.0,,,0.7323853,1.243.018.711,https://maps.google.com/?cid=0x0:0x48f359b7e3d08de2,
supermarket,Toko Kue,Fun Bakery Kotamobagu,"Jl. Datoe Binangkang No.7, Kotamobagu, Kec. Kotamobagu Bar., Kota Kotamobagu, Sulawesi Utara 95711","Kotamobagu, Kec. Kotamobagu Bar., Kota Kotamobagu",SULAWESI UTARA,95711,Indonesia,82346715457.0,,,0.7390867,1.243.111.555,https://maps.google.com/?cid=0x0:0x74f06430a9ccc8f,
supermarket,supermarket,Kec. Kotamobagu Utara,"Kota Kotamobagu, Sulawesi Utara","Kota Kotamobagu, Sulawesi Utara",SULAWESI UTARA,,Indonesia,,,,0.7535564,1.243.211.663,https://maps.google.com/?cid=0x0:0x8857be9cbc156ca2,
supermarket,Toko Swalayan,TOKO TUNAS BARU,"Jl. Kartini No.32, Gogagoman, Kec. Kotamobagu Bar., Kota Kotamobagu, Sulawesi Utara 95716","Gogagoman, Kec. Kotamobagu Bar., Kota Kotamobagu",SULAWESI UTARA,95716,Indonesia,,,,0.741598,1.243.090.884,https://maps.google.com/?cid=0x0:0x349e2abf4a397ae6,
supermarket,Toko,TOKO SINAR TERANG KOTAMOBAGU,"Jl. Kartini No.57, Gogagoman, Kec. Kotamobagu Bar., Kota Kotamobagu, Sulawesi Utara 95716","Gogagoman, Kec. Kotamobagu Bar., Kota Kotamobagu",SULAWESI UTARA,95716,Indonesia,,,,0.7408111,1.243.083.954,https://maps.google.com/?cid=0x0:0x64ed80a7203ff9cf,
supermarket,Toko umum,TOKO TITA KOTAMOBAGU,"Jl. S Parman, Kotamobagu, Kec. Kotamobagu Bar., Kota Kotamobagu, Sulawesi Utara","Kota Kotamobagu, Sulawesi Utara",SULAWESI UTARA,,Indonesia,82393017174.0,,,0.7402973,1.243.167.742,https://maps.google.com/?cid=0x0:0xbbc213869f5d5902,
supermarket,Toko bahan makanan,AMONG MARKET,"P8Q9+359, Kotabangon, Kec. Kotamobagu Tim., Kota Kotamobagu, Sulawesi Utara 95716","Kotabangon, Kec. Kotamobagu Tim., Kota Kotamobagu",SULAWESI UTARA,95716,Indonesia,85298809392.0,,,0.7376635,1.243.179.809,https://maps.google.com/?cid=0x0:0xa42476d18954f4e1,
supermarket,Toko Swalayan,Toko Hawai Baru,"Jl. Bogani, Gogagoman, Kec. Kotamobagu Bar., Kota Kotamobagu, Sulawesi Utara 95715","Gogagoman, Kec. Kotamobagu Bar., Kota Kotamobagu",SULAWESI UTARA,95715,Indonesia,,,,0.74112,124.309.507,https://maps.google.com/?cid=0x0:0x2bcdf1678335297c,
supermarket,Toko,TOKO MURRAH MERRIAH,"P8P7+RXM, Kotabangon, Kec. Kotamobagu Tim., Kota Kotamobagu, Sulawesi Utara 95716","Kotabangon, Kec. Kotamobagu Tim., Kota Kotamobagu",SULAWESI UTARA,95716,Indonesia,8124430369.0,,,0.7370071,124.315.474,https://maps.google.com/?cid=0x0:0x57f60c586c0f17aa,
supermarket,Pasar,Pasar 23 Maret Kotamobagu,"P8R5+P93, Gogagoman, Kec. Kotamobagu Bar., Kota Kotamobagu, Sulawesi Utara","Kota Kotamobagu, Sulawesi Utara",SULAWESI UTARA,,Indonesia,,,,0.7417546,1.243.084.275,https://maps.google.com/?cid=0x0:0x7e1ef51b5292d93e,
supermarket,Toko Perlengkapan Rumah,Toko Bangunan Gampang Ingat,"Jl. Ahmad Yani No.34, Kotamobagu, Kec. Kotamobagu Bar., Kota Kotamobagu, Sulawesi Utara 95716","Kotamobagu, Kec. Kotamobagu Bar., Kota Kotamobagu",SULAWESI UTARA,95716,Indonesia,,,,0.7400726,1.243.106.451,https://maps.google.com/?cid=0x0:0x9fdb5bd8f705aecf,
supermarket,Minimarket,Indomaret Yusuf Hasiru Kotobangon,"P8QC+R95, Jl. Yusuf Hasiru, Kotabangon, Kec. Kotamobagu Tim., Kota Kotamobagu, Sulawesi Utara 95716","Jl. Yusuf Hasiru, Kotabangon, Kec. Kotamobagu Tim., Kota Kotamobagu",SULAWESI UTARA,95716,Indonesia,,,,0.7395009,1.243.209.847,https://maps.google.com/?cid=0x0:0x4a7b2e2ee14060ae,
supermarket,Toko umum,Kios Alisha,"Jl. Kesatria, RT.006/RW.003, Gogagoman, Kec. Kotamobagu Utara, Kota Kotamobagu, Sulawesi Utara 95716","RT.006/RW.003, Gogagoman, Kec. Kotamobagu Utara, Kota Kotamobagu",SULAWESI UTARA,95716,Indonesia,82195066534.0,,,0.7468429,1.243.124.049,https://maps.google.com/?cid=0x0:0xebfd6b8252966ded,
supermarket,Pasar,Pasar serasi kotamobagu LAPAK MA'AIN,"P8R4+GJC, Gogagoman, Kec. Kotamobagu Bar., Kota Kotamobagu, Sulawesi Utara","Kota Kotamobagu, Sulawesi Utara",SULAWESI UTARA,,Indonesia,,,,0.7413013,1.243.065.044,https://maps.google.com/?cid=0x0:0x40648d48760f4a10,
supermarket,Toko bahan makanan,Mary Mart,"Jl. Piere Tendean No.25, Gogagoman, Kec. Kotamobagu Bar., Kota Kotamobagu, Sulawesi Utara","Kota Kotamobagu, Sulawesi Utara",SULAWESI UTARA,,Indonesia,,,,0.7458997,1.243.059.551,https://maps.google.com/?cid=0x0:0x11216092c53f3fb5,
supermarket,Toko bahan makanan,Kios Adi,"P8QF+324, Kotabangon, Kec. Kotamobagu Tim., Kota Kotamobagu, Sulawesi Utara 95716","Kotabangon, Kec. Kotamobagu Tim., Kota Kotamobagu",SULAWESI UTARA,95716,Indonesia,,,,0.737627,1.243.225.923,https://maps.google.com/?cid=0x0:0x6604b6dd178acccc,
supermarket,Toko bahan makanan,Berkah Sumber Laut,"Gogagoman, Kec. Kotamobagu Bar., Kota Kotamobagu, Sulawesi Utara","Kota Kotamobagu, Sulawesi Utara",SULAWESI UTARA,,Indonesia,81342265182.0,,,0.7451931,1.243.047.026,https://maps.google.com/?cid=0x0:0xe63492df09ed9edd,
supermarket,Minimarket,Alfamart,"Q86C+38M, Jl. A.P. Mokoginta No.Desa, Pontodon, Kec. Kotamobagu Utara, Kota Kotamobagu, Sulawesi Utara 95753","Jl. A.P. Mokoginta No.Desa, Pontodon, Kec. Kotamobagu Utara, Kota Kotamobagu",SULAWESI UTARA,95753,Indonesia,,,,0.7595112,1.243.176.303,https://maps.google.com/?cid=0x0:0x9e4dee1e1ff62eba,
supermarket,Minimarket,Waserda SYAFIRA,"P8QC+V8Q, Jl. Yusuf Hasiru, Kotabangon, Kec. Kotamobagu Tim., Kota Kotamobagu, Sulawesi Utara 95716","Jl. Yusuf Hasiru, Kotabangon, Kec. Kotamobagu Tim., Kota Kotamobagu",SULAWESI UTARA,95716,Indonesia,81356856414.0,,,0.739702,1.243.208.518,https://maps.google.com/?cid=0x0:0x96b5b52b4e158db6,
supermarket,Toko bahan makanan,Kios CHRISSEL,"Jl. Sutoyo No.102, Kotamobagu, Kec. Kotamobagu Bar., Kota Kotamobagu, Sulawesi Utara 95716","Kotamobagu, Kec. Kotamobagu Bar., Kota Kotamobagu",SULAWESI UTARA,95716,Indonesia,81527841268.0,,,0.7403539,1.243.157.935,https://maps.google.com/?cid=0x0:0x4db0d7f45e2c781b,
supermarket,Minimarket,Alfamart,"Jl. Gatot Subroto Induk No.30, Mongkonai, Kec. Kotamobagu Bar., Kota Kotamobagu, Sulawesi Utara 95716","Mongkonai, Kec. Kotamobagu Bar., Kota Kotamobagu",SULAWESI UTARA,95716,Indonesia,1500959.0,,,0.7338205,1.242.895.706,https://maps.google.com/?cid=0x0:0x67397fe0a1360f40,
supermarket,supermarket,Kotamobagu,"Kota Kotamobagu, Sulawesi Utara","Kota Kotamobagu, Sulawesi Utara",SULAWESI UTARA,,Indonesia,,,,0.7243733,1.243.199.316,https://maps.google.com/?cid=0x0:0x4ef229e43465a95e,
supermarket,Toko bahan makanan,Abdi Karya Supermarket,"P8Q6+V5G, Gogagoman, Kec. Kotamobagu Bar., Kota Kotamobagu, Sulawesi Utara 95716","Gogagoman, Kec. Kotamobagu Bar., Kota Kotamobagu",SULAWESI UTARA,95716,Indonesia,,,,0.7396987,1.243.104.652,https://maps.google.com/?cid=0x0:0x70155d811c7eb6d,
supermarket,Pusat Perbelanjaan,PARIS MALL SUPERSTORE,"P8Q5+FJJ, Mogolaing, Kec. Kotamobagu Bar., Kota Kotamobagu, Sulawesi Utara","Kota Kotamobagu, Sulawesi Utara",SULAWESI UTARA,,Indonesia,,,,0.7387169,1.243.090.045,https://maps.google.com/?cid=0x0:0x10725652879cf5c9,
supermarket,Minimarket,Alfa Mart,"Jl. K.S. Tubun, Sinindian, Kec. Kotamobagu Tim., Kota Kotamobagu, Sulawesi Utara 95718","Sinindian, Kec. Kotamobagu Tim., Kota Kotamobagu",SULAWESI UTARA,95718,Indonesia,1500959.0,,,0.7342126,1.243.148.311,https://maps.google.com/?cid=0x0:0x5f4008ae48826a2d,
supermarket,Pasar,Pasar 23 Maret Kotamobagu,"P8R5+P93, Gogagoman, Kec. Kotamobagu Bar., Kota Kotamobagu, Sulawesi Utara","Kota Kotamobagu, Sulawesi Utara",SULAWESI UTARA,,Indonesia,,,,0.7417546,1.243.084.275,https://maps.google.com/?cid=0x0:0x7e1ef51b5292d93e,
supermarket,Minimarket,Alfamart,"Jl. Diponegoro No.Kel, Biga, Kec. Kotamobagu Utara, Kota Kotamobagu, Sulawesi Utara 95713","Biga, Kec. Kotamobagu Utara, Kota Kotamobagu",SULAWESI UTARA,95713,Indonesia,1500959.0,,,0.7492912,124.317.409,https://maps.google.com/?cid=0x0:0xfd8999966bc62306,
supermarket,Pasar,Pasar serasi kotamobagu LAPAK MA'AIN,"P8R4+GJC, Gogagoman, Kec. Kotamobagu Bar., Kota Kotamobagu, Sulawesi Utara","Kota Kotamobagu, Sulawesi Utara",SULAWESI UTARA,,Indonesia,,,,0.7413013,1.243.065.044,https://maps.google.com/?cid=0x0:0x40648d48760f4a10,
supermarket,Toko bahan makanan,Toko Super Grosir Kotamobagu,"Jl. Bumbongon No.4, Gogagoman, Kec. Kotamobagu Bar., Kota Kotamobagu, Sulawesi Utara","Kota Kotamobagu, Sulawesi Utara",SULAWESI UTARA,,Indonesia,82393271168.0,,,0.7415855,12.431.044,https://maps.google.com/?cid=0x0:0x5160084e5ccb435b,
supermarket,Pusat Perbelanjaan,PARIS MART,"P8Q4+3MV, Jl. Budi, Mogolaing, Kec. Kotamobagu Bar., Kota Kotamobagu, Sulawesi Utara 95716","Jl. Budi, Mogolaing, Kec. Kotamobagu Bar., Kota Kotamobagu",SULAWESI UTARA,95716,Indonesia,,,,0.73774,124.306.685,https://maps.google.com/?cid=0x0:0xa2d6fe151cf0a30,
supermarket,Toko Swalayan,umega mart,"Jl. Adampe Dolot RW No.176, RT.12/RW.lingk. 3, Molinow, Kec. Kotamobagu Bar., Kota Kotamobagu, Sulawesi Utara 95716","RT.12/RW.lingk. 3, Molinow, Kec. Kotamobagu Bar., Kota Kotamobagu",SULAWESI UTARA,95716,Indonesia,81244769998.0,,,0.7323853,1.243.018.711,https://maps.google.com/?cid=0x0:0x48f359b7e3d08de2,
supermarket,Minimarket,Alfamart,"Jl. Desa Poyowa Besar I No.Desa, Poyowa Besar I, Kec. Kotamobagu Sel., Kota Kotamobagu, Sulawesi Utara 95753","Poyowa Besar I, Kec. Kotamobagu Sel., Kota Kotamobagu",SULAWESI UTARA,95753,Indonesia,1500959.0,,,0.71236,1.243.215.859,https://maps.google.com/?cid=0x0:0x9286865c26bf41f9,
supermarket,Toko Buah dan Sayuran,FAZA BUAH,"P8F5+C2G, Jl. Veteran, Motoboi Kecil, Kec. Kotamobagu Sel., Kota Kotamobagu, Sulawesi Utara 95716","Jl. Veteran, Motoboi Kecil, Kec. Kotamobagu Sel., Kota Kotamobagu",SULAWESI UTARA,95716,Indonesia,82191413584.0,,,0.72356,1.243.075.787,https://maps.google.com/?cid=0x0:0x3a435c711c2e8783,
supermarket,Rumah wisata,cek resi,"asmil kodim 1303, Poyowa Besar I, Kec. Kotamobagu Sel., Kota Kotamobagu, Sulawesi Utara 95751","Poyowa Besar I, Kec. Kotamobagu Sel., Kota Kotamobagu",SULAWESI UTARA,95751,Indonesia,82225558160.0,,,0.7135907,1.243.239.275,https://maps.google.com/?cid=0x0:0xce8e3530c94b454a,
supermarket,Toko Buah dan Sayuran,Tampa Buah Kotamobagu,"Depan Indomaret, Molinow, Kec. Kotamobagu Bar., Kota Kotamobagu, Sulawesi Utara 95716","Molinow, Kec. Kotamobagu Bar., Kota Kotamobagu",SULAWESI UTARA,95716,Indonesia,82194425575.0,,,0.7325947,1.242.952.923,https://maps.google.com/?cid=0x0:0x372b598be4eaf060,
supermarket,supermarket,Kec. Kotamobagu Utara,"Kota Kotamobagu, Sulawesi Utara","Kota Kotamobagu, Sulawesi Utara",SULAWESI UTARA,,Indonesia,,,,0.7535564,1.243.211.663,https://maps.google.com/?cid=0x0:0x8857be9cbc156ca2,
supermarket,Toko bahan makanan,Mary Mart,"Jl. Piere Tendean No.25, Gogagoman, Kec. Kotamobagu Bar., Kota Kotamobagu, Sulawesi Utara","Kota Kotamobagu, Sulawesi Utara",SULAWESI UTARA,,Indonesia,,,,0.7458997,1.243.059.551,https://maps.google.com/?cid=0x0:0x11216092c53f3fb5,
supermarket,Toko,Toko Aneka Rasa,"Jl. Bogani No.4, Gogagoman, Kec. Kotamobagu Bar., Kota Kotamobagu, Sulawesi Utara","Kota Kotamobagu, Sulawesi Utara",SULAWESI UTARA,,Indonesia,85341628385.0,,,0.741711,1.243.087.853,https://maps.google.com/?cid=0x0:0xc65a39ba54d83328,
supermarket,Toko,TOKO SINAR TERANG KOTAMOBAGU,"Jl. Kartini No.57, Gogagoman, Kec. Kotamobagu Bar., Kota Kotamobagu, Sulawesi Utara 95716","Gogagoman, Kec. Kotamobagu Bar., Kota Kotamobagu",SULAWESI UTARA,95716,Indonesia,,,,0.7408111,1.243.083.954,https://maps.google.com/?cid=0x0:0x64ed80a7203ff9cf,
supermarket,Minimarket,Alfamart,"Q86C+38M, Jl. A.P. Mokoginta No.Desa, Pontodon, Kec. Kotamobagu Utara, Kota Kotamobagu, Sulawesi Utara 95753","Jl. A.P. Mokoginta No.Desa, Pontodon, Kec. Kotamobagu Utara, Kota Kotamobagu",SULAWESI UTARA,95753,Indonesia,,,,0.7595112,1.243.176.303,https://maps.google.com/?cid=0x0:0x9e4dee1e1ff62eba,
supermarket,Toko Swalayan,TOKO TUNAS BARU,"Jl. Kartini No.32, Gogagoman, Kec. Kotamobagu Bar., Kota Kotamobagu, Sulawesi Utara 95716","Gogagoman, Kec. Kotamobagu Bar., Kota Kotamobagu",SULAWESI UTARA,95716,Indonesia,,,,0.741598,1.243.090.884,https://maps.google.com/?cid=0x0:0x349e2abf4a397ae6,
supermarket,Toko Swalayan,Toko Hawai Baru,"Jl. Bogani, Gogagoman, Kec. Kotamobagu Bar., Kota Kotamobagu, Sulawesi Utara 95715","Gogagoman, Kec. Kotamobagu Bar., Kota Kotamobagu",SULAWESI UTARA,95715,Indonesia,,,,0.74112,124.309.507,https://maps.google.com/?cid=0x0:0x2bcdf1678335297c,
supermarket,Pasar,Raffa,"Q837+6PJ, Genggulang, Kec. Kotamobagu Utara, Kota Kotamobagu, Sulawesi Utara","Kota Kotamobagu, Sulawesi Utara",SULAWESI UTARA,,Indonesia,,,,0.7530782,1.243.142.526,https://maps.google.com/?cid=0x0:0xeae209efcf0f8e90,
supermarket,Toko Perlengkapan Rumah,Toko Bangunan Gampang Ingat,"Jl. Ahmad Yani No.34, Kotamobagu, Kec. Kotamobagu Bar., Kota Kotamobagu, Sulawesi Utara 95716","Kotamobagu, Kec. Kotamobagu Bar., Kota Kotamobagu",SULAWESI UTARA,95716,Indonesia,,,,0.7400726,1.243.106.451,https://maps.google.com/?cid=0x0:0x9fdb5bd8f705aecf,
supermarket,Minimarket,Waserda SYAFIRA,"P8QC+V8Q, Jl. Yusuf Hasiru, Kotabangon, Kec. Kotamobagu Tim., Kota Kotamobagu, Sulawesi Utara 95716","Jl. Yusuf Hasiru, Kotabangon, Kec. Kotamobagu Tim., Kota Kotamobagu",SULAWESI UTARA,95716,Indonesia,81356856414.0,,,0.739702,1.243.208.518,https://maps.google.com/?cid=0x0:0x96b5b52b4e158db6,
supermarket,Toko bahan makanan,Kios CHRISSEL,"Jl. Sutoyo No.102, Kotamobagu, Kec. Kotamobagu Bar., Kota Kotamobagu, Sulawesi Utara 95716","Kotamobagu, Kec. Kotamobagu Bar., Kota Kotamobagu",SULAWESI UTARA,95716,Indonesia,81527841268.0,,,0.7403539,1.243.157.935,https://maps.google.com/?cid=0x0:0x4db0d7f45e2c781b,
supermarket,Toko bahan makanan,Kios Adi,"P8QF+324, Kotabangon, Kec. Kotamobagu Tim., Kota Kotamobagu, Sulawesi Utara 95716","Kotabangon, Kec. Kotamobagu Tim., Kota Kotamobagu",SULAWESI UTARA,95716,Indonesia,,,,0.737627,1.243.225.923,https://maps.google.com/?cid=0x0:0x6604b6dd178acccc,
supermarket,Toko umum,Kios Alisha,"Jl. Kesatria, RT.006/RW.003, Gogagoman, Kec. Kotamobagu Utara, Kota Kotamobagu, Sulawesi Utara 95716","RT.006/RW.003, Gogagoman, Kec. Kotamobagu Utara, Kota Kotamobagu",SULAWESI UTARA,95716,Indonesia,82195066534.0,,,0.7468429,1.243.124.049,https://maps.google.com/?cid=0x0:0xebfd6b8252966ded,
supermarket,Toko bahan makanan,Berkah Sumber Laut,"Gogagoman, Kec. Kotamobagu Bar., Kota Kotamobagu, Sulawesi Utara","Kota Kotamobagu, Sulawesi Utara",SULAWESI UTARA,,Indonesia,81342265182.0,,,0.7451931,1.243.047.026,https://maps.google.com/?cid=0x0:0xe63492df09ed9edd,
supermarket,Toko bahan makanan,AMONG MARKET,"P8Q9+359, Kotabangon, Kec. Kotamobagu Tim., Kota Kotamobagu, Sulawesi Utara 95716","Kotabangon, Kec. Kotamobagu Tim., Kota Kotamobagu",SULAWESI UTARA,95716,Indonesia,85298809392.0,,,0.7376635,1.243.179.809,https://maps.google.com/?cid=0x0:0xa42476d18954f4e1,
