Category,Real Category,Business Name,Address,City,State,Postal Code,Country,Phone,Email,Website,Latitude,Longitude,Map Link,Details Link
komplek housing,komplek housing,Kec. Tebet,"Kota Jakarta Selatan, Daerah Khusus Ibukota Jakarta","Kota Jakarta Selatan, Daerah Khusus Ibukota Jakarta",SULAWESI UTARA,,Indonesia,,,,-62.251.223,1.068.549.881,https://maps.google.com/?cid=0x0:0xd575e31c807295f9,
komplek housing,komplek housing,Kec. Kotamobagu Bar.,"Kota Kotamobagu, Sulawesi Utara","Kota Kotamobagu, Sulawesi Utara",SULAWESI UTARA,,Indonesia,,,,0.7429438,1.243.085.124,https://maps.google.com/?cid=0x0:0x68204053ca066af1,
komplek housing,komplek housing,Sulawesi Utara 95711,"Kotamobagu, Kec. Kotamobagu Bar., Kota Kotamobagu, Sulawesi Utara","Kota Kotamobagu, Sulawesi Utara",SULAWESI UTARA,,Indonesia,,,,0.7413349,1.243.125.269,https://maps.google.com/?cid=0x0:0xe2a29556fedf8a93,
komplek housing,Komplek perumahan,elfrids home,"P8R8+PWR, Jl. Gelora Togop, Kotamobagu, Kec. Kotamobagu Bar., Kota Kotamobagu, Sulawesi Utara 95711","Jl. Gelora Togop, Kotamobagu, Kec. Kotamobagu Bar., Kota Kotamobagu",SULAWESI UTARA,95711,Indonesia,,,,0.7418459,1.243.173.527,https://maps.google.com/?cid=0x0:0xb60e26e62f340359,
komplek housing,Komplek perumahan,Kompleks Rumah Dinas Rutan Kota,"Jl. Aris Munandar No.10, Gogagoman, Kec. Kotamobagu Bar., Kota Kotamobagu, Sulawesi Utara 95711","Gogagoman, Kec. Kotamobagu Bar., Kota Kotamobagu",SULAWESI UTARA,95711,Indonesia,,,,0.7446234,124.312.017,https://maps.google.com/?cid=0x0:0x88f73702e445c439,
komplek housing,Pembangunan Perumahan,Dayoh Santi Home,"P8G9+8CR, Tumobuy, Kec. Kotamobagu Tim., Kota Kotamobagu, Sulawesi Utara 95711","Tumobuy, Kec. Kotamobagu Tim., Kota Kotamobagu",SULAWESI UTARA,95711,Indonesia,,,,0.7258551,1.243.185.177,https://maps.google.com/?cid=0x0:0x839f2e67b040d49f,
komplek housing,Komplek perumahan,Lit  Linda,"P7GR+QVJ, Molinow, Kec. Kotamobagu Sel., Kota Kotamobagu, Sulawesi Utara 95711","Molinow, Kec. Kotamobagu Sel., Kota Kotamobagu",SULAWESI UTARA,95711,Indonesia,,,,0.726959,1.242.921.273,https://maps.google.com/?cid=0x0:0xe08f0fbcf1b43d30,
komplek housing,Pembangunan Perumahan,Kel. Pasambuna-Tengko (Romi-Eby),"P8R8+PWR, Jl. Gelora Togop, Kotamobagu, Kec. Kotamobagu Bar., Kota Kotamobagu, Sulawesi Utara 95711","Jl. Gelora Togop, Kotamobagu, Kec. Kotamobagu Bar., Kota Kotamobagu",SULAWESI UTARA,95711,Indonesia,,,,0.7418784,124.317.257,https://maps.google.com/?cid=0x0:0x14407519dbf72972,
komplek housing,Perumahan,Kost Pink,"Jl. Mawar No.10, RT.07/RW.04, Kotamobagu, Kec. Kotamobagu Bar., Kota Kotamobagu, Sulawesi Utara 95711","RT.07/RW.04, Kotamobagu, Kec. Kotamobagu Bar., Kota Kotamobagu",SULAWESI UTARA,95711,Indonesia,,,,0.737065,1.243.125.477,https://maps.google.com/?cid=0x0:0xbda7618b3b93a411,
komplek housing,Toko,PERTIGAAN MABES AKAMSI,"P8V6+Q9V Sampana, Jl. Bhayangkara, Kotamobagu, Kec. Kotamobagu Bar., Kota Kotamobagu, Sulawesi Utara 95711","Jl. Bhayangkara, Kotamobagu, Kec. Kotamobagu Bar., Kota Kotamobagu",SULAWESI UTARA,95711,Indonesia,,,,0.7444849,1.243.109.216,https://maps.google.com/?cid=0x0:0x59559e1d346cce26,
komplek housing,Komplek perumahan,sampana tengah,"Jl. Aris Munandar No.558, Gogagoman, Kec. Kotamobagu Bar., Kota Kotamobagu, Sulawesi Utara","Kota Kotamobagu, Sulawesi Utara",SULAWESI UTARA,,Indonesia,,,,0.7440447,1.243.109.985,https://maps.google.com/?cid=0x0:0x197ccc93e384d186,
komplek housing,Komplek perumahan,Mama gavin,"P8Q4+JMR, Jl. Kembang, Gogagoman, Kec. Kotamobagu Bar., Kota Kotamobagu, Sulawesi Utara","Kota Kotamobagu, Sulawesi Utara",SULAWESI UTARA,,Indonesia,,,,0.7391229,1.243.066.519,https://maps.google.com/?cid=0x0:0x699a09e92f0bedee,
komplek housing,Komplek perumahan,Mama golden,"Jl. Puskesmas No.48, RT.014/RW.006, Gogagoman, Kotamobagu Barat, Kotamobagu City, North Sulawesi 95715","RT.014/RW.006, Gogagoman, Kotamobagu Barat, Kotamobagu City",SULAWESI UTARA,95715,Indonesia,,,,0.7423423,1.243.033.635,https://maps.google.com/?cid=0x0:0xeef4953d39c0533f,
komplek housing,Komplek perumahan,Fiya,"P8M4+475, Mogolaing, Kec. Kotamobagu Bar., Kota Kotamobagu, Sulawesi Utara","Kota Kotamobagu, Sulawesi Utara",SULAWESI UTARA,,Indonesia,,,,0.7327741,1.243.057.368,https://maps.google.com/?cid=0x0:0xe1bc9c5370a52e58,
komplek housing,Komplek perumahan,Rumah baay,"P8W5+PMQ, Gogagoman, Kec. Kotamobagu Bar., Kota Kotamobagu, Sulawesi Utara 95716","Gogagoman, Kec. Kotamobagu Bar., Kota Kotamobagu",SULAWESI UTARA,95716,Indonesia,,,,0.7468443,1.243.092.419,https://maps.google.com/?cid=0x0:0x9d1938406ed9eb29,
komplek housing,komplek housing,Kec. Kotamobagu Bar.,"Kota Kotamobagu, Sulawesi Utara","Kota Kotamobagu, Sulawesi Utara",SULAWESI UTARA,,Indonesia,,,,0.7429438,1.243.085.124,https://maps.google.com/?cid=0x0:0x68204053ca066af1,
komplek housing,Komplek perumahan,ZILLA HOME STUDIO,"P8J4+PC6, Jl. Cemp., Mogolaing, Kec. Kotamobagu Bar., Kota Kotamobagu, Sulawesi Utara 95716","Jl. Cemp., Mogolaing, Kec. Kotamobagu Bar., Kota Kotamobagu",SULAWESI UTARA,95716,Indonesia,,,,0.7316649,1.243.059.988,https://maps.google.com/?cid=0x0:0xb10b012a91e0abb6,
komplek housing,Komplek perumahan,Lorong kemuning rt 02,"P8V6+F36, Gogagoman, Kec. Kotamobagu Bar., Kota Kotamobagu, Sulawesi Utara 95716","Gogagoman, Kec. Kotamobagu Bar., Kota Kotamobagu",SULAWESI UTARA,95716,Indonesia,,,,0.7436664,1.243.101.316,https://maps.google.com/?cid=0x0:0x5ffe317a882fc7ee,
komplek housing,Komplek perumahan,Sello,"P7HW+Q7J, Jl. Hi. Zakaria Imban, Molinow, Kec. Kotamobagu Bar., Kota Kotamobagu, Sulawesi Utara 95716","Jl. Hi. Zakaria Imban, Molinow, Kec. Kotamobagu Bar., Kota Kotamobagu",SULAWESI UTARA,95716,Indonesia,85696210862.0,,,0.7295512,1.242.954.681,https://maps.google.com/?cid=0x0:0xc4e0326f5c7798ee,
komplek housing,Komplek perumahan,Sharen's House User Kagura,"P8R8+8F3, Jl. S Parman, Kotamobagu, Kec. Kotamobagu Bar., Kota Kotamobagu, Sulawesi Utara 95716","Jl. S Parman, Kotamobagu, Kec. Kotamobagu Bar., Kota Kotamobagu",SULAWESI UTARA,95716,Indonesia,,,,0.7407559,124.316.167,https://maps.google.com/?cid=0x0:0xdcd271d63d057e8e,
komplek housing,Komplek perumahan,Eden home,"P8P8+7VP, Kotabangon, Kec. Kotamobagu Tim., Kota Kotamobagu, Sulawesi Utara 95716","Kotabangon, Kec. Kotamobagu Tim., Kota Kotamobagu",SULAWESI UTARA,95716,Indonesia,,,,0.7357173,1.243.172.044,https://maps.google.com/?cid=0x0:0x2e00c240b3b4a0d3,
komplek housing,Komplek perumahan,Home UchilAdam,"Jl. Tni No.5, Kotamobagu, Kec. Kotamobagu Bar., Kota Kotamobagu, Sulawesi Utara 95716","Kotamobagu, Kec. Kotamobagu Bar., Kota Kotamobagu",SULAWESI UTARA,95716,Indonesia,89531819349.0,,,0.7435287,124.314.559,https://maps.google.com/?cid=0x0:0xb033e8a3ab2b285c,
komplek housing,Komplek perumahan,HM-KM,"P8H8+M37, Jl. I Bantong, Sinindian, Kec. Kotamobagu Tim., Kota Kotamobagu, Sulawesi Utara 95716","Jl. I Bantong, Sinindian, Kec. Kotamobagu Tim., Kota Kotamobagu",SULAWESI UTARA,95716,Indonesia,,,,0.7291559,124.315.187,https://maps.google.com/?cid=0x0:0x375fe423545556ef,
komplek housing,Komplek perumahan,Mac M Walalangi,"Jl. Ahmad Yani No.797, Kotamobagu, Kec. Kotamobagu Bar., Kota Kotamobagu, Sulawesi Utara 95716","Kotamobagu, Kec. Kotamobagu Bar., Kota Kotamobagu",SULAWESI UTARA,95716,Indonesia,,,,0.7457648,1.243.139.484,https://maps.google.com/?cid=0x0:0xffa4f0629f34d702,
komplek housing,Komplek perumahan,Home Aldi Mokodompit,"P8M4+5JX, Jl. Cemp. Lorong Perikanan, Mogolaing, Kec. Kotamobagu Bar., Kota Kotamobagu, Sulawesi Utara 95716","Jl. Cemp. Lorong Perikanan, Mogolaing, Kec. Kotamobagu Bar., Kota Kotamobagu",SULAWESI UTARA,95716,Indonesia,,,,0.7322262,1.243.065.991,https://maps.google.com/?cid=0x0:0x70e13336bc9d05e1,
komplek housing,Komplek perumahan,Assi Family,"Jalan Adempea Jl. Adampe Dolot No.27, Mogolaing, Kec. Kotamobagu Bar., Kota Kotamobagu, Sulawesi Utara 95716","Mogolaing, Kec. Kotamobagu Bar., Kota Kotamobagu",SULAWESI UTARA,95716,Indonesia,81340733509.0,,,0.737792,1.243.079.296,https://maps.google.com/?cid=0x0:0x9bc0bc84870bd30a,
komplek housing,Rumah Kayu,???????? ????????'??,"P8CG+8CW, Kobo Besar, Kec. Kotamobagu Tim., Kota Kotamobagu, Sulawesi Utara 95716","Kobo Besar, Kec. Kotamobagu Tim., Kota Kotamobagu",SULAWESI UTARA,95716,Indonesia,,,,0.7208562,1.243.260.701,https://maps.google.com/?cid=0x0:0x232c50052bb078db,
komplek housing,komplek housing,Dzaky Home,"P8V6+FX8, Kotamobagu, Kec. Kotamobagu Bar., Kota Kotamobagu, Sulawesi Utara 95716","Kotamobagu, Kec. Kotamobagu Bar., Kota Kotamobagu",SULAWESI UTARA,95716,Indonesia,,,,0.7435897,1.243.124.124,https://maps.google.com/?cid=0x0:0x9cd219e3b3243ed7,
komplek housing,Asosiasi/organisasi,sekretariat HR 5,"P8MF+3J3, Kotabangon, Kec. Kotamobagu Tim., Kota Kotamobagu, Sulawesi Utara 95716","Kotabangon, Kec. Kotamobagu Tim., Kota Kotamobagu",SULAWESI UTARA,95716,Indonesia,,,,0.7326134,1.243.240.149,https://maps.google.com/?cid=0x0:0xb82110296d60cd9c,
komplek housing,Komplek perumahan,Rumah Budi,"P7PP+858, Jl. Gatot Subroto, Mongkonai Bar., Kec. Kotamobagu Bar., Kota Kotamobagu, Sulawesi Utara 95716","Jl. Gatot Subroto, Mongkonai Bar., Kec. Kotamobagu Bar., Kota Kotamobagu",SULAWESI UTARA,95716,Indonesia,,,,0.7357556,1.242.852.486,https://maps.google.com/?cid=0x0:0xf0b8e4e7f342ce8d,
komplek housing,Komplek perumahan,Aspol Selektif Blok H1,"Aspol Selektif, Jl. Cemp. Blok H1, Mogolaing, Kotamobagu Barat, Kotamobagu City, North Sulawesi 95716","Jl. Cemp. Blok H1, Mogolaing, Kotamobagu Barat, Kotamobagu City",SULAWESI UTARA,95716,Indonesia,,,,0.7318406,1.243.074.622,https://maps.google.com/?cid=0x0:0x46a2ece2f0e1f1df,
komplek housing,Komplek perumahan,Myhome,"P7GW+5CM, Motoboi Kecil, Kec. Kotamobagu Sel., Kota Kotamobagu, Sulawesi Utara 95716","Motoboi Kecil, Kec. Kotamobagu Sel., Kota Kotamobagu",SULAWESI UTARA,95716,Indonesia,,,,0.7257592,124.296.776,https://maps.google.com/?cid=0x0:0xc61a3f819fd5c972,
komplek housing,Komplek perumahan,Kobandaha's,"Jl. Cendana No.3, Mogolaing, Kec. Kotamobagu Bar., Kota Kotamobagu, Sulawesi Utara 95716","Mogolaing, Kec. Kotamobagu Bar., Kota Kotamobagu",SULAWESI UTARA,95716,Indonesia,,,,0.7308101,1.243.040.529,https://maps.google.com/?cid=0x0:0x8d433c01e45f2391,
komplek housing,Perhimpunan Pengembang Perumahan,alins home,"P8V3+99H, Jl. Pandebulan, Gogagoman, Kec. Kotamobagu Bar., Kota Kotamobagu, Sulawesi Utara 95716","Jl. Pandebulan, Gogagoman, Kec. Kotamobagu Bar., Kota Kotamobagu",SULAWESI UTARA,95716,Indonesia,,,,0.743363,124.303.768,https://maps.google.com/?cid=0x0:0x577c509cc9dc0b8a,
komplek housing,Perumahan,Rumah Puput-Kiswa Mokoginta,"P8H6+VPX, Jl. K.S. Tubun, Sinindian, Kec. Kotamobagu Tim., Kota Kotamobagu, Sulawesi Utara 95716","Jl. K.S. Tubun, Sinindian, Kec. Kotamobagu Tim., Kota Kotamobagu",SULAWESI UTARA,95716,Indonesia,,,,0.7297081,1.243.116.029,https://maps.google.com/?cid=0x0:0x6756a079de3235b9,
komplek housing,Komplek perumahan,Alesha Farzana Ayunindya,"Jl. Lorong Tuodan, Mongkonai, Kec. Kotamobagu Bar., Kota Kotamobagu, Sulawesi Utara 95716","Mongkonai, Kec. Kotamobagu Bar., Kota Kotamobagu",SULAWESI UTARA,95716,Indonesia,,,,0.7308344,1.242.908.072,https://maps.google.com/?cid=0x0:0x92b2713be74e505c,
komplek housing,Komplek perumahan,Rumah Tinggal Haryati Mamonto,"P8J4+83F, Mogolaing, Kec. Kotamobagu Bar., Kota Kotamobagu, Sulawesi Utara 95716","Mogolaing, Kec. Kotamobagu Bar., Kota Kotamobagu",SULAWESI UTARA,95716,Indonesia,,,,0.730803,1.243.051.834,https://maps.google.com/?cid=0x0:0x3ab0bbc6c9a1578a,
komplek housing,Komplek perumahan,Jenni's House User Luo Yi,"P8W8+XFQ, Biga, Kec. Kotamobagu Utara, Kota Kotamobagu, Sulawesi Utara 95716","Biga, Kec. Kotamobagu Utara, Kota Kotamobagu",SULAWESI UTARA,95716,Indonesia,,,,0.7474689,1.243.162.418,https://maps.google.com/?cid=0x0:0xb8b07539d6eb3126,
komplek housing,Komplek perumahan,Unique House,"P8W6+8XM, Jl. Bhayangkara, Gogagoman, Kec. Kotamobagu Bar., Kota Kotamobagu, Sulawesi Utara 95716","Jl. Bhayangkara, Gogagoman, Kec. Kotamobagu Bar., Kota Kotamobagu",SULAWESI UTARA,95716,Indonesia,,,,0.7458356,1.243.124.189,https://maps.google.com/?cid=0x0:0x19a70da96d8f7e13,
komplek housing,Pembangunan Perumahan,Lorong TK Brawijaya,"P7GR+3C2, Unnamed Road, Mongondow, Kec. Kotamobagu Sel., Kota Kotamobagu, Sulawesi Utara 95716","Unnamed Road, Mongondow, Kec. Kotamobagu Sel., Kota Kotamobagu",SULAWESI UTARA,95716,Indonesia,,,,0.7251384,1.242.910.291,https://maps.google.com/?cid=0x0:0xdcfb7c3591ad4e00,
komplek housing,Komplek perumahan,JDCR HOME,"Jl. Hi. Zakaria Imban No.28, Molinow, Kec. Kotamobagu Bar., Kota Kotamobagu, Sulawesi Utara 95716","Molinow, Kec. Kotamobagu Bar., Kota Kotamobagu",SULAWESI UTARA,95716,Indonesia,,,,0.7286289,1.242.963.011,https://maps.google.com/?cid=0x0:0xc2fab0ce59baf639,
komplek housing,Pembangunan Perumahan,Lorong mesjid Baitul Rahman,"P8P6+9R3, Kotamobagu, Kec. Kotamobagu Bar., Kota Kotamobagu, Sulawesi Utara 95716","Kotamobagu, Kec. Kotamobagu Bar., Kota Kotamobagu",SULAWESI UTARA,95716,Indonesia,,,,0.7358981,1.243.120.519,https://maps.google.com/?cid=0x0:0xa4c722d9f3f64fb9,
komplek housing,komplek housing,Kec. Kotamobagu Sel.,"Kota Kotamobagu, Sulawesi Utara","Kota Kotamobagu, Sulawesi Utara",SULAWESI UTARA,,Indonesia,,,,0.7240463,124.293.299,https://maps.google.com/?cid=0x0:0x270b5a3d87842fb7,
komplek housing,Pembangunan Perumahan,HOME STAY,"P86F+383, Jl. Raya Poyowa Besar Dua, RT.06/RW.03, Poyowa Besar I, Kec. Kotamobagu Sel., Kota Kotamobagu, Sulawesi Utara 95717","Jl. Raya Poyowa Besar Dua, RT.06/RW.03, Poyowa Besar I, Kec. Kotamobagu Sel., Kota Kotamobagu",SULAWESI UTARA,95717,Indonesia,,,,0.7101322,1.243.233.106,https://maps.google.com/?cid=0x0:0xa0536ca4226db39e,
komplek housing,Komplek perumahan,Rumah Fitry Mokolintad,"Kopandakan I, Kec. Kotamobagu Sel., Kota Kotamobagu, Sulawesi Utara 95717","Kec. Kotamobagu Sel., Kota Kotamobagu",SULAWESI UTARA,95717,Indonesia,85156788674.0,,,0.7087379,1.242.909.047,https://maps.google.com/?cid=0x0:0x775f919b9cc15af4,
komplek housing,komplek housing,Kec. Kotamobagu Tim.,"Kota Kotamobagu, Sulawesi Utara","Kota Kotamobagu, Sulawesi Utara",SULAWESI UTARA,,Indonesia,,,,0.7377324,1.243.224.496,https://maps.google.com/?cid=0x0:0xf276a13be322dc46,
komplek housing,Hotel,5.12 Residence,"P8X6+5P5, Jl. Kesatria, Gogagoman, Kec. Kotamobagu Utara, Kota Kotamobagu, Sulawesi Utara","Kota Kotamobagu, Sulawesi Utara",SULAWESI UTARA,,Indonesia,82195052561.0,,,0.7488714,1.243.123.599,https://maps.google.com/?cid=0x0:0xbf1769a055c93b1e,
komplek housing,Apartemen sewa liburan,Kost Putri Ajeng,"lorong depan futsal adm, 400m keatas, Jl. Siliwangi, Kotabangon, Kec. Kotamobagu Tim., Kota Kotamobagu, Sulawesi Utara 95712","400m keatas, Jl. Siliwangi, Kotabangon, Kec. Kotamobagu Tim., Kota Kotamobagu",SULAWESI UTARA,95712,Indonesia,,,,0.7330325,1.243.270.544,https://maps.google.com/?cid=0x0:0x2f2c6627fb2da10d,
komplek housing,Toko,House of Light Kotamobagu,"kompleks Hotel Senator, Jl. Yusuf Hasiru No.3, Kotabangon, Kec. Kotamobagu Bar., Kota Kotamobagu, Sulawesi Utara 95712","Jl. Yusuf Hasiru No.3, Kotabangon, Kec. Kotamobagu Bar., Kota Kotamobagu",SULAWESI UTARA,95712,Indonesia,89639513131.0,,,0.7398703,1.243.181.478,https://maps.google.com/?cid=0x0:0xdc7b0fa684f17ba2,
komplek housing,Komplek perumahan,Fiya,"P8M4+475, Mogolaing, Kec. Kotamobagu Bar., Kota Kotamobagu, Sulawesi Utara","Kota Kotamobagu, Sulawesi Utara",SULAWESI UTARA,,Indonesia,,,,0.7327741,1.243.057.368,https://maps.google.com/?cid=0x0:0xe1bc9c5370a52e58,
komplek housing,Komplek perumahan,Rumah baay,"P8W5+PMQ, Gogagoman, Kec. Kotamobagu Bar., Kota Kotamobagu, Sulawesi Utara 95716","Gogagoman, Kec. Kotamobagu Bar., Kota Kotamobagu",SULAWESI UTARA,95716,Indonesia,,,,0.7468443,1.243.092.419,https://maps.google.com/?cid=0x0:0x9d1938406ed9eb29,
komplek housing,komplek housing,Kec. Kotamobagu Tim.,"Kota Kotamobagu, Sulawesi Utara","Kota Kotamobagu, Sulawesi Utara",SULAWESI UTARA,,Indonesia,,,,0.7377324,1.243.224.496,https://maps.google.com/?cid=0x0:0xf276a13be322dc46,
komplek housing,Komplek perumahan,ZILLA HOME STUDIO,"P8J4+PC6, Jl. Cemp., Mogolaing, Kec. Kotamobagu Bar., Kota Kotamobagu, Sulawesi Utara 95716","Jl. Cemp., Mogolaing, Kec. Kotamobagu Bar., Kota Kotamobagu",SULAWESI UTARA,95716,Indonesia,,,,0.7316649,1.243.059.988,https://maps.google.com/?cid=0x0:0xb10b012a91e0abb6,
komplek housing,Rumah Kayu,???????? ????????'??,"P8CG+8CW, Kobo Besar, Kec. Kotamobagu Tim., Kota Kotamobagu, Sulawesi Utara 95716","Kobo Besar, Kec. Kotamobagu Tim., Kota Kotamobagu",SULAWESI UTARA,95716,Indonesia,,,,0.7208562,1.243.260.701,https://maps.google.com/?cid=0x0:0x232c50052bb078db,
komplek housing,Komplek perumahan,Pri Adati,"P8F6+9QJ, Jl Beringin, RT.005/RW.003, Matali, Kec. Kotamobagu Tim., Kota Kotamobagu, Sulawesi Utara 95716","Jl Beringin, RT.005/RW.003, Matali, Kec. Kotamobagu Tim., Kota Kotamobagu",SULAWESI UTARA,95716,Indonesia,85823762410.0,,,0.7234527,1.243.118.976,https://maps.google.com/?cid=0x0:0x3574023ad1709dc0,
komplek housing,Pembangunan Perumahan,Lionel  EL Home,"P8HG+RCG, Jl. Mansosra, Tumobuy, Kec. Kotamobagu Tim., Kota Kotamobagu, Sulawesi Utara 95716","Jl. Mansosra, Tumobuy, Kec. Kotamobagu Tim., Kota Kotamobagu",SULAWESI UTARA,95716,Indonesia,,,,0.7295557,1.243.260.858,https://maps.google.com/?cid=0x0:0x39c4c7931b2d69eb,
komplek housing,Komplek perumahan,Kel.Oway Rochim,"Jl. S Parman No.778, Kotamobagu, Kec. Kotamobagu Bar., Kota Kotamobagu, Sulawesi Utara 95716","Kotamobagu, Kec. Kotamobagu Bar., Kota Kotamobagu",SULAWESI UTARA,95716,Indonesia,,,,0.7417866,1.243.178.653,https://maps.google.com/?cid=0x0:0x7925c45251b89492,
komplek housing,Asosiasi/organisasi,sekretariat HR 5,"P8MF+3J3, Kotabangon, Kec. Kotamobagu Tim., Kota Kotamobagu, Sulawesi Utara 95716","Kotabangon, Kec. Kotamobagu Tim., Kota Kotamobagu",SULAWESI UTARA,95716,Indonesia,,,,0.7326134,1.243.240.149,https://maps.google.com/?cid=0x0:0xb82110296d60cd9c,
komplek housing,Komplek perumahan,Home MAIKEL KONTU MANANSAL,"P8JF+JPX, Jl. Siliwangi, Kotabangon, Kec. Kotamobagu Tim., Kota Kotamobagu, Sulawesi Utara 95716","Jl. Siliwangi, Kotabangon, Kec. Kotamobagu Tim., Kota Kotamobagu",SULAWESI UTARA,95716,Indonesia,,,,0.7313056,1.243.252.882,https://maps.google.com/?cid=0x0:0x88d3dfce665f88db,
komplek housing,Komplek perumahan,Sharen's House User Kagura,"P8R8+8F3, Jl. S Parman, Kotamobagu, Kec. Kotamobagu Bar., Kota Kotamobagu, Sulawesi Utara 95716","Jl. S Parman, Kotamobagu, Kec. Kotamobagu Bar., Kota Kotamobagu",SULAWESI UTARA,95716,Indonesia,,,,0.7407559,124.316.167,https://maps.google.com/?cid=0x0:0xdcd271d63d057e8e,
komplek housing,Komplek perumahan,Eden home,"P8P8+7VP, Kotabangon, Kec. Kotamobagu Tim., Kota Kotamobagu, Sulawesi Utara 95716","Kotabangon, Kec. Kotamobagu Tim., Kota Kotamobagu",SULAWESI UTARA,95716,Indonesia,,,,0.7357173,1.243.172.044,https://maps.google.com/?cid=0x0:0x2e00c240b3b4a0d3,
komplek housing,Komplek perumahan,Lorong kemuning rt 02,"P8V6+F36, Gogagoman, Kec. Kotamobagu Bar., Kota Kotamobagu, Sulawesi Utara 95716","Gogagoman, Kec. Kotamobagu Bar., Kota Kotamobagu",SULAWESI UTARA,95716,Indonesia,,,,0.7436664,1.243.101.316,https://maps.google.com/?cid=0x0:0x5ffe317a882fc7ee,
komplek housing,Komplek perumahan,Home UchilAdam,"Jl. Tni No.5, Kotamobagu, Kec. Kotamobagu Bar., Kota Kotamobagu, Sulawesi Utara 95716","Kotamobagu, Kec. Kotamobagu Bar., Kota Kotamobagu",SULAWESI UTARA,95716,Indonesia,89531819349.0,,,0.7435287,124.314.559,https://maps.google.com/?cid=0x0:0xb033e8a3ab2b285c,
komplek housing,Komplek perumahan,Home Aldi Mokodompit,"P8M4+5JX, Jl. Cemp. Lorong Perikanan, Mogolaing, Kec. Kotamobagu Bar., Kota Kotamobagu, Sulawesi Utara 95716","Jl. Cemp. Lorong Perikanan, Mogolaing, Kec. Kotamobagu Bar., Kota Kotamobagu",SULAWESI UTARA,95716,Indonesia,,,,0.7322262,1.243.065.991,https://maps.google.com/?cid=0x0:0x70e13336bc9d05e1,
komplek housing,Komplek perumahan,Jenni's House User Luo Yi,"P8W8+XFQ, Biga, Kec. Kotamobagu Utara, Kota Kotamobagu, Sulawesi Utara 95716","Biga, Kec. Kotamobagu Utara, Kota Kotamobagu",SULAWESI UTARA,95716,Indonesia,,,,0.7474689,1.243.162.418,https://maps.google.com/?cid=0x0:0xb8b07539d6eb3126,
komplek housing,Komplek perumahan,Home Rivo Kolintama,"P8QG+88X, Jl. Kolonel Soegiono, Kotabangon, Kec. Kotamobagu Tim., Kota Kotamobagu, Sulawesi Utara 95716","Jl. Kolonel Soegiono, Kotabangon, Kec. Kotamobagu Tim., Kota Kotamobagu",SULAWESI UTARA,95716,Indonesia,,,,0.738538,124.326.334,https://maps.google.com/?cid=0x0:0x7d8ff97b35178460,
komplek housing,Komplek perumahan,Mikha home,"P8G9+C5G, Sinindian, Kec. Kotamobagu Tim., Kota Kotamobagu, Sulawesi Utara 95716","Sinindian, Kec. Kotamobagu Tim., Kota Kotamobagu",SULAWESI UTARA,95716,Indonesia,,,,0.7260597,1.243.179.401,https://maps.google.com/?cid=0x0:0xd746e04f316ff165,
komplek housing,komplek housing,Dzaky Home,"P8V6+FX8, Kotamobagu, Kec. Kotamobagu Bar., Kota Kotamobagu, Sulawesi Utara 95716","Kotamobagu, Kec. Kotamobagu Bar., Kota Kotamobagu",SULAWESI UTARA,95716,Indonesia,,,,0.7435897,1.243.124.124,https://maps.google.com/?cid=0x0:0x9cd219e3b3243ed7,
komplek housing,Komplek perumahan,Mac M Walalangi,"Jl. Ahmad Yani No.797, Kotamobagu, Kec. Kotamobagu Bar., Kota Kotamobagu, Sulawesi Utara 95716","Kotamobagu, Kec. Kotamobagu Bar., Kota Kotamobagu",SULAWESI UTARA,95716,Indonesia,,,,0.7457648,1.243.139.484,https://maps.google.com/?cid=0x0:0xffa4f0629f34d702,
komplek housing,Perhimpunan Pengembang Perumahan,Ical House,"P8QC+3F7, Jl. Jhoni Suhodo, Kotabangon, Kec. Kotamobagu Tim., Kota Kotamobagu, Sulawesi Utara 95716","Jl. Jhoni Suhodo, Kotabangon, Kec. Kotamobagu Tim., Kota Kotamobagu",SULAWESI UTARA,95716,Indonesia,,,,0.7376082,1.243.212.024,https://maps.google.com/?cid=0x0:0x28150c581e91586,
komplek housing,Perumahan,Rumah Puput-Kiswa Mokoginta,"P8H6+VPX, Jl. K.S. Tubun, Sinindian, Kec. Kotamobagu Tim., Kota Kotamobagu, Sulawesi Utara 95716","Jl. K.S. Tubun, Sinindian, Kec. Kotamobagu Tim., Kota Kotamobagu",SULAWESI UTARA,95716,Indonesia,,,,0.7297081,1.243.116.029,https://maps.google.com/?cid=0x0:0x6756a079de3235b9,
komplek housing,Komplek perumahan,Mandagi Piri House,"Jl. Mansosra, Tumobuy, Kec. Kotamobagu Tim., Kota Kotamobagu, Sulawesi Utara 95716","Tumobuy, Kec. Kotamobagu Tim., Kota Kotamobagu",SULAWESI UTARA,95716,Indonesia,85298265658.0,,,0.7300985,1.243.306.549,https://maps.google.com/?cid=0x0:0x8d9a156aaf29607b,
komplek housing,Komplek perumahan,Rumah Tinggal Haryati Mamonto,"P8J4+83F, Mogolaing, Kec. Kotamobagu Bar., Kota Kotamobagu, Sulawesi Utara 95716","Mogolaing, Kec. Kotamobagu Bar., Kota Kotamobagu",SULAWESI UTARA,95716,Indonesia,,,,0.730803,1.243.051.834,https://maps.google.com/?cid=0x0:0x3ab0bbc6c9a1578a,
komplek housing,Komplek perumahan,Rumah jalimin,"P8MJ+J2J, Kotabangon, Kec. Kotamobagu Tim., Kota Kotamobagu, Sulawesi Utara 95716","Kotabangon, Kec. Kotamobagu Tim., Kota Kotamobagu",SULAWESI UTARA,95716,Indonesia,,,,0.7340269,1.243.291.492,https://maps.google.com/?cid=0x0:0xa220a189f537364,
komplek housing,Komplek perumahan,Mamangkey-Momongan Family's,"P8HG+RCG, Jl. Mansosra, Tumobuy, Kec. Kotamobagu Tim., Kota Kotamobagu, Sulawesi Utara 95716","Jl. Mansosra, Tumobuy, Kec. Kotamobagu Tim., Kota Kotamobagu",SULAWESI UTARA,95716,Indonesia,,,,0.7292259,1.243.256.999,https://maps.google.com/?cid=0x0:0x24e5e16b8be6236d,
komplek housing,Perumahan,Family LAWANI-TOMPIG,"P8FG+MF4, Jl. Siliwangi, Kobo Besar, Kec. Kotamobagu Tim., Kota Kotamobagu, Sulawesi Utara 95716","Jl. Siliwangi, Kobo Besar, Kec. Kotamobagu Tim., Kota Kotamobagu",SULAWESI UTARA,95716,Indonesia,,,,0.7240803,1.243.261.943,https://maps.google.com/?cid=0x0:0xe2eff8ddede6f97a,
komplek housing,komplek housing,Sulawesi Utara 95718,"Kotabangon, Kec. Kotamobagu Tim., Kota Kotamobagu, Sulawesi Utara","Kota Kotamobagu, Sulawesi Utara",SULAWESI UTARA,,Indonesia,,,,0.7331272,1.243.211.987,https://maps.google.com/?cid=0x0:0x3ca38e005d607719,
komplek housing,Komplek perumahan,Diagon Alley,"P8MC+JC9, Kotabangon, Kec. Kotamobagu Tim., Kota Kotamobagu, Sulawesi Utara","Kota Kotamobagu, Sulawesi Utara",SULAWESI UTARA,,Indonesia,,,,0.7340402,1.243.210.969,https://maps.google.com/?cid=0x0:0x7444c6c5e6b98fcf,
komplek housing,Hotel jangka panjang,KOST REGINA,"P8MC+J5R, Kotabangon, Kec. Kotamobagu Tim., Kota Kotamobagu, Sulawesi Utara","Kota Kotamobagu, Sulawesi Utara",SULAWESI UTARA,,Indonesia,,,,0.734108,1.243.204.055,https://maps.google.com/?cid=0x0:0x6893e475d4a84fb7,
komplek housing,komplek housing,Kotamobagu,"Kota Kotamobagu, Sulawesi Utara","Kota Kotamobagu, Sulawesi Utara",SULAWESI UTARA,,Indonesia,,,,0.7243733,1.243.199.316,https://maps.google.com/?cid=0x0:0x4ef229e43465a95e,
komplek housing,komplek housing,Kec. Kotamobagu Tim.,"Kota Kotamobagu, Sulawesi Utara","Kota Kotamobagu, Sulawesi Utara",SULAWESI UTARA,,Indonesia,,,,0.7377324,1.243.224.496,https://maps.google.com/?cid=0x0:0xf276a13be322dc46,
komplek housing,Komplek perumahan,Dinas Perumahan Rakyat dan Kawasan Permukiman Kota Kotamobagu,"Jl. Arief Rahman Hakim No.22, Biga, Kec. Kotamobagu Utara, Kota Kotamobagu, Sulawesi Utara 95711","Biga, Kec. Kotamobagu Utara, Kota Kotamobagu",SULAWESI UTARA,95711,Indonesia,,,,0.7457382,1.243.172.583,https://maps.google.com/?cid=0x0:0x18858d6ebc983288,
komplek housing,Komplek perumahan,Rumah Dinas KPPN Kotamobagu,"P8M9+X36, Jl. Paloko Kinalang, Kotabangon, Kec. Kotamobagu Tim., Kota Kotamobagu, Sulawesi Utara 95716","Jl. Paloko Kinalang, Kotabangon, Kec. Kotamobagu Tim., Kota Kotamobagu",SULAWESI UTARA,95716,Indonesia,,,,0.7349118,1.243.176.517,https://maps.google.com/?cid=0x0:0xacaf1d6791e263c1,
komplek housing,komplek housing,Kotamobagu,"Kota Kotamobagu, Sulawesi Utara","Kota Kotamobagu, Sulawesi Utara",SULAWESI UTARA,,Indonesia,,,,0.7243733,1.243.199.316,https://maps.google.com/?cid=0x0:0x4ef229e43465a95e,
komplek housing,komplek housing,Kotamobagu,"Kota Kotamobagu, Sulawesi Utara","Kota Kotamobagu, Sulawesi Utara",SULAWESI UTARA,,Indonesia,,,,0.7243733,1.243.199.316,https://maps.google.com/?cid=0x0:0x4ef229e43465a95e,
komplek housing,komplek housing,Kec. Kotamobagu Utara,"Kota Kotamobagu, Sulawesi Utara","Kota Kotamobagu, Sulawesi Utara",SULAWESI UTARA,,Indonesia,,,,0.7535564,1.243.211.663,https://maps.google.com/?cid=0x0:0x8857be9cbc156ca2,
komplek housing,komplek housing,Kotamobagu,"Kota Kotamobagu, Sulawesi Utara","Kota Kotamobagu, Sulawesi Utara",SULAWESI UTARA,,Indonesia,,,,0.7243733,1.243.199.316,https://maps.google.com/?cid=0x0:0x4ef229e43465a95e,
komplek housing,komplek housing,Kec. Kotamobagu Utara,"Kota Kotamobagu, Sulawesi Utara","Kota Kotamobagu, Sulawesi Utara",SULAWESI UTARA,,Indonesia,,,,0.7535564,1.243.211.663,https://maps.google.com/?cid=0x0:0x8857be9cbc156ca2,
perumahan,Toko,markas sambuaga,"Jl. Tni No.7, Kotamobagu, Kec. Kotamobagu Bar., Kota Kotamobagu, Sulawesi Utara 95711","Kotamobagu, Kec. Kotamobagu Bar., Kota Kotamobagu",SULAWESI UTARA,95711,Indonesia,811111111114.0,,,0.7416656,1.243.128.872,https://maps.google.com/?cid=0x0:0x4578807ecdfb22a5,
perumahan,Toko,MARKAS AKAMSI,"Jl. Aris Munandar No.554-10, Gogagoman, Kec. Kotamobagu Bar., Kota Kotamobagu, Sulawesi Utara 95716","Gogagoman, Kec. Kotamobagu Bar., Kota Kotamobagu",SULAWESI UTARA,95716,Indonesia,,,,0.7430151,1.243.121.682,https://maps.google.com/?cid=0x0:0x6c562bf6135d02f,
perumahan,perumahan,Sulawesi Utara 95711,"Kotamobagu, Kec. Kotamobagu Bar., Kota Kotamobagu, Sulawesi Utara","Kota Kotamobagu, Sulawesi Utara",SULAWESI UTARA,,Indonesia,,,,0.7413349,1.243.125.269,https://maps.google.com/?cid=0x0:0xe2a29556fedf8a93,
perumahan,perumahan,Kec. Tebet,"Kota Jakarta Selatan, Daerah Khusus Ibukota Jakarta","Kota Jakarta Selatan, Daerah Khusus Ibukota Jakarta",SULAWESI UTARA,,Indonesia,,,,-62.251.223,1.068.549.881,https://maps.google.com/?cid=0x0:0xd575e31c807295f9,
perumahan,perumahan,Sulawesi Utara,,Sulawesi Utara,SULAWESI UTARA,,Indonesia,,,,0.6246932,1.239.750.018,https://maps.google.com/?cid=0x0:0x45891617980cb835,
perumahan,Pembangunan Perumahan,Perumahan Perbinda Mas,"P8XC+GHV, Biga, Kec. Kotamobagu Utara, Kota Kotamobagu, Sulawesi Utara","Kota Kotamobagu, Sulawesi Utara",SULAWESI UTARA,,Indonesia,,,,0.7488662,1.243.214.289,https://maps.google.com/?cid=0x0:0x5a2577f7c635b30a,
perumahan,perumahan,home liwan,"P8R2+6JC, Gogagoman, Kec. Kotamobagu Bar., Kota Kotamobagu, Sulawesi Utara","Kota Kotamobagu, Sulawesi Utara",SULAWESI UTARA,,Indonesia,,,,0.7405735,1.243.015.302,https://maps.google.com/?cid=0x0:0xf458fd556941095,
perumahan,Pembangunan Perumahan,Perumahan Perbinda Emas,"P8WC+GHR, Unnamed Road, Biga, Kec. Kotamobagu Utara, Kota Kotamobagu, Sulawesi Utara 95716","Unnamed Road, Biga, Kec. Kotamobagu Utara, Kota Kotamobagu",SULAWESI UTARA,95716,Indonesia,,,,0.7463535,1.243.214.007,https://maps.google.com/?cid=0x0:0x30802cbf20391e3b,
perumahan,Komplek perumahan,"Sulawesi Utara, Kotamobagu barat, gogagoman","P8Q4+8GR, Gogagoman, Kec. Kotamobagu Bar., Kota Kotamobagu, Sulawesi Utara","Kota Kotamobagu, Sulawesi Utara",SULAWESI UTARA,,Indonesia,,,,0.7383505,1.243.062.619,https://maps.google.com/?cid=0x0:0x894da1b2d4dbc87,
perumahan,perumahan,Pohuwato marisa,"JXFG+V2C Lokasi, Tapadaka Utara, Kec. Dumoga Utara, Kabupaten Bolaang Mongondow, Sulawesi Utara","Kabupaten Bolaang Mongondow, Sulawesi Utara",SULAWESI UTARA,,Indonesia,,,,0.6246932,1.239.750.018,https://maps.google.com/?cid=0x0:0x34392159c00619fb,
perumahan,Komplek perumahan,Rumah Baai Siti,"Jl. Piere Tendean No.25, Gogagoman, Kec. Kotamobagu Bar., Kota Kotamobagu, Sulawesi Utara","Kota Kotamobagu, Sulawesi Utara",SULAWESI UTARA,,Indonesia,,,,0.746144,124.306.231,https://maps.google.com/?cid=0x0:0x9af0bc89a2681978,
perumahan,perumahan,Mongkonai barat,"P8V5+5CV, Gogagoman, Kec. Kotamobagu Bar., Kota Kotamobagu, Sulawesi Utara","Kota Kotamobagu, Sulawesi Utara",SULAWESI UTARA,,Indonesia,,,,0.7429941,1.243.085.451,https://maps.google.com/?cid=0x0:0xb51e1c82f70c959d,
perumahan,Rumah wisata,Kost Bunda,"P8R4+8R8, Jl. Bolian, Gogagoman, Kec. Kotamobagu Bar., Kota Kotamobagu, Sulawesi Utara 95716","Jl. Bolian, Gogagoman, Kec. Kotamobagu Bar., Kota Kotamobagu",SULAWESI UTARA,95716,Indonesia,8981114765.0,,,0.7407954,1.243.070.888,https://maps.google.com/?cid=0x0:0x10b9cc208e063930,
perumahan,Komplek perumahan,Rumah clive matheos,"P8Q3+VCJ, Gogagoman, Kec. Kotamobagu Bar., Kota Kotamobagu, Sulawesi Utara","Kota Kotamobagu, Sulawesi Utara",SULAWESI UTARA,,Indonesia,,,,0.7397153,1.243.035.264,https://maps.google.com/?cid=0x0:0x2febed04ae687670,
perumahan,Komplek perumahan,Kel.Oway Rochim,"Jl. S Parman No.778, Kotamobagu, Kec. Kotamobagu Bar., Kota Kotamobagu, Sulawesi Utara 95716","Kotamobagu, Kec. Kotamobagu Bar., Kota Kotamobagu",SULAWESI UTARA,95716,Indonesia,,,,0.7417866,1.243.178.653,https://maps.google.com/?cid=0x0:0x7925c45251b89492,
perumahan,Kompleks Kondominium,Rawamangun bawah,"P8P3+R63, Jl. Kampus No.9, Mogolaing, Kec. Kotamobagu Bar., Kota Kotamobagu, Sulawesi Utara","Kota Kotamobagu, Sulawesi Utara",SULAWESI UTARA,,Indonesia,,,,0.7368607,1.243.006.363,https://maps.google.com/?cid=0x0:0xeff11a1243b0fe8d,
perumahan,Komplek perumahan,Tempat Tinggal,"Jl. Aris Munandar No.554, Gogagoman, Kec. Kotamobagu Bar., Kota Kotamobagu, Sulawesi Utara 95711","Gogagoman, Kec. Kotamobagu Bar., Kota Kotamobagu",SULAWESI UTARA,95711,Indonesia,,,,0.7434444,1.243.115.026,https://maps.google.com/?cid=0x0:0x5fe639e0476b437,
perumahan,Komplek perumahan,Rumah saya,"P8V4+GC, Gogagoman, Kec. Kotamobagu Bar., Kota Kotamobagu, Sulawesi Utara","Kota Kotamobagu, Sulawesi Utara",SULAWESI UTARA,,Indonesia,82157724052.0,,,0.7438455,1.243.060.283,https://maps.google.com/?cid=0x0:0x9f97824672e7d0f4,
perumahan,Komplek perumahan,Lorong kemuning rt 02,"P8V6+F36, Gogagoman, Kec. Kotamobagu Bar., Kota Kotamobagu, Sulawesi Utara 95716","Gogagoman, Kec. Kotamobagu Bar., Kota Kotamobagu",SULAWESI UTARA,95716,Indonesia,,,,0.7436664,1.243.101.316,https://maps.google.com/?cid=0x0:0x5ffe317a882fc7ee,
perumahan,Komplek perumahan,RUMAH AYUB,"P8J2+WHH, Jl. Adampe Dolot, Mogolaing, Kec. Kotamobagu Bar., Kota Kotamobagu, Sulawesi Utara","Kota Kotamobagu, Sulawesi Utara",SULAWESI UTARA,,Indonesia,,,,0.7324646,1.243.015.172,https://maps.google.com/?cid=0x0:0xac107b74043d2b7f,
perumahan,Komplek perumahan,Kampung baru,"P8M4+PCF, Mogolaing, Kec. Kotamobagu Bar., Kota Kotamobagu, Sulawesi Utara","Kota Kotamobagu, Sulawesi Utara",SULAWESI UTARA,,Indonesia,,,,0.734321,1.243.060.592,https://maps.google.com/?cid=0x0:0x512608a0ac93b5b3,
perumahan,Pembangunan Perumahan,Mas mogol..,"P8P2+H6C, Mogolaing, Kec. Kotamobagu Bar., Kota Kotamobagu, Sulawesi Utara","Kota Kotamobagu, Sulawesi Utara",SULAWESI UTARA,,Indonesia,,,,0.7364499,1.243.005.033,https://maps.google.com/?cid=0x0:0x6bd4faf9cebb76e2,
perumahan,Komplek perumahan,Mac M Walalangi,"Jl. Ahmad Yani No.797, Kotamobagu, Kec. Kotamobagu Bar., Kota Kotamobagu, Sulawesi Utara 95716","Kotamobagu, Kec. Kotamobagu Bar., Kota Kotamobagu",SULAWESI UTARA,95716,Indonesia,,,,0.7457648,1.243.139.484,https://maps.google.com/?cid=0x0:0xffa4f0629f34d702,
perumahan,Komplek perumahan,Nyonya Rismanto Idrus,"P8V8+H77, Kotamobagu, Kec. Kotamobagu Bar., Kota Kotamobagu, Sulawesi Utara","Kota Kotamobagu, Sulawesi Utara",SULAWESI UTARA,,Indonesia,,,,0.743769,124.315.707,https://maps.google.com/?cid=0x0:0x45e84863afbfc060,
perumahan,Komplek perumahan,Mama golden,"Jl. Puskesmas No.48, RT.014/RW.006, Gogagoman, Kotamobagu Barat, Kotamobagu City, North Sulawesi 95715","RT.014/RW.006, Gogagoman, Kotamobagu Barat, Kotamobagu City",SULAWESI UTARA,95715,Indonesia,,,,0.7423423,1.243.033.635,https://maps.google.com/?cid=0x0:0xeef4953d39c0533f,
perumahan,Komplek perumahan,Mama gavin,"P8Q4+JMR, Jl. Kembang, Gogagoman, Kec. Kotamobagu Bar., Kota Kotamobagu, Sulawesi Utara","Kota Kotamobagu, Sulawesi Utara",SULAWESI UTARA,,Indonesia,,,,0.7391229,1.243.066.519,https://maps.google.com/?cid=0x0:0x699a09e92f0bedee,
perumahan,perumahan,Kec. Kotamobagu Bar.,"Kota Kotamobagu, Sulawesi Utara","Kota Kotamobagu, Sulawesi Utara",SULAWESI UTARA,,Indonesia,,,,0.7429438,1.243.085.124,https://maps.google.com/?cid=0x0:0x68204053ca066af1,
perumahan,Komplek perumahan,Rumah Tinggal Haryati Mamonto,"P8J4+83F, Mogolaing, Kec. Kotamobagu Bar., Kota Kotamobagu, Sulawesi Utara 95716","Mogolaing, Kec. Kotamobagu Bar., Kota Kotamobagu",SULAWESI UTARA,95716,Indonesia,,,,0.730803,1.243.051.834,https://maps.google.com/?cid=0x0:0x3ab0bbc6c9a1578a,
perumahan,Komplek perumahan,Agnes Rumagit Home,"P8Q8+G5G, Kotamobagu, Kec. Kotamobagu Bar., Kota Kotamobagu, Sulawesi Utara","Kota Kotamobagu, Sulawesi Utara",SULAWESI UTARA,,Indonesia,,,,0.7388232,1.243.154.612,https://maps.google.com/?cid=0x0:0x65ba769af911f23e,
perumahan,Komplek perumahan,Izran Home,"P8V5+8PP, Gogagoman, Kec. Kotamobagu Bar., Kota Kotamobagu, Sulawesi Utara","Kota Kotamobagu, Sulawesi Utara",SULAWESI UTARA,,Indonesia,,,,0.7433483,1.243.093.341,https://maps.google.com/?cid=0x0:0x29686e31ebe0c93a,
perumahan,Perhimpunan Pengembang Perumahan,Ray home,"P8V3+8RX, Jl. Pandebulan, Gogagoman, Kec. Kotamobagu Bar., Kota Kotamobagu, Sulawesi Utara","Kota Kotamobagu, Sulawesi Utara",SULAWESI UTARA,,Indonesia,,,,0.7433683,1.243.045.974,https://maps.google.com/?cid=0x0:0x4e31ca81d673b54f,
perumahan,Pembangunan Perumahan,Lorong kelapa,"P8R8+354, Kotamobagu, Kec. Kotamobagu Bar., Kota Kotamobagu, Sulawesi Utara 95716","Kotamobagu, Kec. Kotamobagu Bar., Kota Kotamobagu",SULAWESI UTARA,95716,Indonesia,,,,0.7401313,124.315.447,https://maps.google.com/?cid=0x0:0x52274e47ea446e2b,
perumahan,perumahan,Sulawesi Utara 95716,"Mogolaing, Kec. Kotamobagu Bar., Kota Kotamobagu, Sulawesi Utara","Kota Kotamobagu, Sulawesi Utara",SULAWESI UTARA,,Indonesia,,,,0.7331339,1.243.035.249,https://maps.google.com/?cid=0x0:0xb303343be4233a,
perumahan,Komplek perumahan,Desi,"Jl. Adampe Dolot No.91a, Mogolaing, Kec. Kotamobagu Bar., Kota Kotamobagu, Sulawesi Utara 95716","Mogolaing, Kec. Kotamobagu Bar., Kota Kotamobagu",SULAWESI UTARA,95716,Indonesia,,,,0.7332183,1.243.036.517,https://maps.google.com/?cid=0x0:0x80773f31de46c38b,
perumahan,Komplek perumahan,Fiya,"P8M4+475, Mogolaing, Kec. Kotamobagu Bar., Kota Kotamobagu, Sulawesi Utara","Kota Kotamobagu, Sulawesi Utara",SULAWESI UTARA,,Indonesia,,,,0.7327741,1.243.057.368,https://maps.google.com/?cid=0x0:0xe1bc9c5370a52e58,
perumahan,Komplek perumahan,Rumah,"P8M3+7C7 blakang PU, Jl. Cendana, Mogolaing, Kec. Kotamobagu Bar., Kota Kotamobagu, Sulawesi Utara 95716","Jl. Cendana, Mogolaing, Kec. Kotamobagu Bar., Kota Kotamobagu",SULAWESI UTARA,95716,Indonesia,,,,0.7331505,124.303.536,https://maps.google.com/?cid=0x0:0x7572f2ebe03ceb15,
perumahan,Bed >>u0026 Breakfast,Sabua Pitate Rumah'ku,"P8M3+4C6, Jl. Adampe Dolot, Mogolaing, Kec. Kotamobagu Bar., Kota Kotamobagu, Sulawesi Utara","Kota Kotamobagu, Sulawesi Utara",SULAWESI UTARA,,Indonesia,,,,0.7327776,1.243.035.035,https://maps.google.com/?cid=0x0:0xe468963b8d871202,
perumahan,Komplek perumahan,Baloi Naton Molinow Kotamobagu,"P7JW+XC6, Molinow, Kec. Kotamobagu Bar., Kota Kotamobagu, Sulawesi Utara","Kota Kotamobagu, Sulawesi Utara",SULAWESI UTARA,,Indonesia,,,,0.7324023,1.242.960.088,https://maps.google.com/?cid=0x0:0x1cdedf5c25c38fe5,
perumahan,Komplek perumahan,Deva,"belakang, RW.selektif, Mogolaing, Kotamobagu Barat, Kotamobagu City, North Sulawesi","Kota Kotamobagu, Sulawesi Utara",SULAWESI UTARA,,Indonesia,,,,0.7318412,1.243.088.242,https://maps.google.com/?cid=0x0:0xd837afa8efea5e77,
perumahan,perumahan,Kec. Kotamobagu Sel.,"Kota Kotamobagu, Sulawesi Utara","Kota Kotamobagu, Sulawesi Utara",SULAWESI UTARA,,Indonesia,,,,0.7240463,124.293.299,https://maps.google.com/?cid=0x0:0x270b5a3d87842fb7,
perumahan,Komplek perumahan,Perum Permai Pobundayan,"Perumahan, Pobundayan, Permai, Kota Kotamobagu, Sulawesi Utara 95717","Pobundayan, Permai, Kota Kotamobagu",SULAWESI UTARA,95717,Indonesia,,,,0.7114493,1.243.059.968,https://maps.google.com/?cid=0x0:0xfe5f67d1e5b01c58,
perumahan,Pembangunan Perumahan,Perumahan Griya Permata Indah Kotamobagu,"M7WX+MMX, Jl. Raya Bubak, Bungko, Kec. Kotamobagu Sel., Kota Kotamobagu, Sulawesi Utara 95717","Jl. Raya Bubak, Bungko, Kec. Kotamobagu Sel., Kota Kotamobagu",SULAWESI UTARA,95717,Indonesia,81340134303.0,,,0.6961728,1.243.010.888,https://maps.google.com/?cid=0x0:0x4d61fbd4fe01e498,
perumahan,Toko,Rumah Keripik Azzahra Kotamobagu,"Jl. Siliwangi No.41, RT.003/RW.002, Bungko, Kec. Kotamobagu Sel., Kota Kotamobagu, Sulawesi Utara 95717","RT.003/RW.002, Bungko, Kec. Kotamobagu Sel., Kota Kotamobagu",SULAWESI UTARA,95717,Indonesia,89609694899.0,,,0.703493,1.242.991.524,https://maps.google.com/?cid=0x0:0xa166fcc360488a7a,
perumahan,Perumahan,Perum Griya Perwita Indah,"P895+8MP, Jl. Griya, Pobundayan, Kec. Kotamobagu Sel., Kota Kotamobagu, Sulawesi Utara","Kota Kotamobagu, Sulawesi Utara",SULAWESI UTARA,,Indonesia,,,,0.7183306,1.243.092.071,https://maps.google.com/?cid=0x0:0x42a66577c541df15,
perumahan,Pembangunan Perumahan,HOME STAY,"P86F+383, Jl. Raya Poyowa Besar Dua, RT.06/RW.03, Poyowa Besar I, Kec. Kotamobagu Sel., Kota Kotamobagu, Sulawesi Utara 95717","Jl. Raya Poyowa Besar Dua, RT.06/RW.03, Poyowa Besar I, Kec. Kotamobagu Sel., Kota Kotamobagu",SULAWESI UTARA,95717,Indonesia,,,,0.7101322,1.243.233.106,https://maps.google.com/?cid=0x0:0xa0536ca4226db39e,
perumahan,Komplek perumahan,Perum tabang,"P825+WFC, Tabang, Kec. Kotamobagu Sel., Kota Kotamobagu, Sulawesi Utara","Kota Kotamobagu, Sulawesi Utara",SULAWESI UTARA,,Indonesia,,,,0.7023621,1.243.085.895,https://maps.google.com/?cid=0x0:0x30d9abed4438ae75,
perumahan,Komplek perumahan,Perumahan Puri Citra Indah,"P76W+2CR, Motoboi Kecil, Kec. Kotamobagu Sel., Kota Kotamobagu, Sulawesi Utara","Kota Kotamobagu, Sulawesi Utara",SULAWESI UTARA,,Indonesia,,,,0.7101018,1.242.960.256,https://maps.google.com/?cid=0x0:0xc6e17ca68fcb3724,
perumahan,Pembangunan Perumahan,Rumah,"perum permai No.Blok c, Pobundayan, Kec. Kotamobagu Sel., Kota Kotamobagu, Sulawesi Utara","Kota Kotamobagu, Sulawesi Utara",SULAWESI UTARA,,Indonesia,,,,0.7114493,1.243.059.968,https://maps.google.com/?cid=0x0:0x9d22b89907770b13,
perumahan,Komplek perumahan,PERUMAHAN ENDANG RAHAYU,"P834+82X, Jl. Siliwangi, Bungko, Kec. Kotamobagu Sel., Kota Kotamobagu, Sulawesi Utara","Kota Kotamobagu, Sulawesi Utara",SULAWESI UTARA,,Indonesia,,,,0.7033699,1.243.050.979,https://maps.google.com/?cid=0x0:0xd34e75bbe7dee19,
perumahan,Rumah wisata,Mess PT Trakindo Utama Kotamobagu,"P846+745, Jl. Siliwangi, Tabang, Kec. Kotamobagu Sel., Kota Kotamobagu, Sulawesi Utara","Kota Kotamobagu, Sulawesi Utara",SULAWESI UTARA,,Indonesia,,,,0.7056345,1.243.103.695,https://maps.google.com/?cid=0x0:0x95a4d06f22d5906f,
perumahan,Tempat Ziarah,Pastori GMIBM Bait El Kopandakan,"P75Q+R8M, Kopandakan I, Kec. Kotamobagu Sel., Kota Kotamobagu, Sulawesi Utara","Kota Kotamobagu, Sulawesi Utara",SULAWESI UTARA,,Indonesia,,,,0.7095804,1.242.882.942,https://maps.google.com/?cid=0x0:0x7d7ffdd3c9b849f1,
perumahan,Komplek perumahan,Anto Rini,"P896+J62, Pobundayan, Kec. Kotamobagu Sel., Kota Kotamobagu, Sulawesi Utara","Kota Kotamobagu, Sulawesi Utara",SULAWESI UTARA,,Indonesia,,,,0.7190015,124.310.511,https://maps.google.com/?cid=0x0:0x1edeccacd60fb71e,
perumahan,Komplek perumahan,Rumah Eliezer Yeskiro Sepang,"P76Q+X82, Poyowa Kecil, Kec. Kotamobagu Sel., Kota Kotamobagu, Sulawesi Utara","Kota Kotamobagu, Sulawesi Utara",SULAWESI UTARA,,Indonesia,,,,0.7123904,1.242.882.553,https://maps.google.com/?cid=0x0:0xf0a91544700f59bf,
perumahan,Perhimpunan Pengembang Perumahan,Keluarga Wiriakusuma Paputungan - Sugeha,"Perumahan Pri Citra Indah Blok F 58, Motoboi Kecil","Kota Kotamobagu, Sulawesi Utara",SULAWESI UTARA,,Indonesia,,,,0.7267239,1.242.865.679,https://maps.google.com/?cid=0x0:0xb6ac28ce489dae3e,
perumahan,Komplek perumahan,Perumahan Grand Mutiara Poyowa,"P857+GXR, Poyowa Besar I, Kec. Kotamobagu Sel., Kota Kotamobagu, Sulawesi Utara","Kota Kotamobagu, Sulawesi Utara",SULAWESI UTARA,,Indonesia,,,,0.708869,1.243.148.977,https://maps.google.com/?cid=0x0:0xb572656ba591356,
perumahan,Komplek perumahan,Rumah ayank,"P895+CV2, Jl. Griya, Pobundayan, Pobundayan, Kec. Kotamobagu Sel., Kota Kotamobagu, Sulawesi Utara","Kota Kotamobagu, Sulawesi Utara",SULAWESI UTARA,,Indonesia,,,,0.7186915,1.243.098.515,https://maps.google.com/?cid=0x0:0x7b9135c7bc8c5089,
perumahan,Komplek perumahan,Rumah Marni,"P847+6J8, m Jl. Siliwangi, Tabang, Kec. Kotamobagu Sel., Kota Kotamobagu, Sulawesi Utara 16","Kota Kotamobagu, Sulawesi Utara",SULAWESI UTARA,,Indonesia,,,,0.7056992,1.243.140.662,https://maps.google.com/?cid=0x0:0x27d2008d3c8fb8b4,
perumahan,Perumahan,Rumah Bugenvil,"P864+PR, Pobundayan, Kec. Kotamobagu Sel., Kota Kotamobagu, Sulawesi Utara","Kota Kotamobagu, Sulawesi Utara",SULAWESI UTARA,,Indonesia,,,,0.7118376,124.307.105,https://maps.google.com/?cid=0x0:0x3cd904919b402dd4,
perumahan,Komplek perumahan,rumah Wawan saprol,"P7GX+V36, Motoboi Kecil, Kec. Kotamobagu Sel., Kota Kotamobagu, Sulawesi Utara","Kota Kotamobagu, Sulawesi Utara",SULAWESI UTARA,,Indonesia,,,,0.7271729,1.242.976.383,https://maps.google.com/?cid=0x0:0xf77f677284b40ea3,
perumahan,Pembangunan Perumahan,Mongkonai,"Jl. Brawijaya No.16, Mongondow, Kec. Kotamobagu Sel., Kota Kotamobagu, Sulawesi Utara 95716","Mongondow, Kec. Kotamobagu Sel., Kota Kotamobagu",SULAWESI UTARA,95716,Indonesia,,,,0.7286649,1.242.886.485,https://maps.google.com/?cid=0x0:0x5ecbc76658a25f87,
perumahan,Perhimpunan Pengembang Perumahan,Rumah MASRI  MARIA,"P77R+354, Jl. Hi. Zakaria Imban, Poyowa Kecil, Kec. Kotamobagu Sel., Kota Kotamobagu, Sulawesi Utara","Kota Kotamobagu, Sulawesi Utara",SULAWESI UTARA,,Indonesia,,,,0.7126325,1.242.904.644,https://maps.google.com/?cid=0x0:0x425043e4baefa05b,
perumahan,Komplek perumahan,Lit  Linda,"P7GR+QVJ, Molinow, Kec. Kotamobagu Sel., Kota Kotamobagu, Sulawesi Utara 95711","Molinow, Kec. Kotamobagu Sel., Kota Kotamobagu",SULAWESI UTARA,95711,Indonesia,,,,0.726959,1.242.921.273,https://maps.google.com/?cid=0x0:0xe08f0fbcf1b43d30,
perumahan,Komplek perumahan,Rumah mama vya,"P7JM+799, Mongkonai, Kec. Kotamobagu Sel., Kota Kotamobagu, Sulawesi Utara","Kota Kotamobagu, Sulawesi Utara",SULAWESI UTARA,,Indonesia,,,,0.7305056,1.242.839.222,https://maps.google.com/?cid=0x0:0x539c7efee81004c9,
perumahan,Komplek perumahan,"Kopandakan 1, Kecamatan Kotamobagu Selatan","P75M+XJP, Jalan KNPI, Kopandakan I, Kec. Kotamobagu Sel., Kota Kotamobagu, Sulawesi Utara","Kota Kotamobagu, Sulawesi Utara",SULAWESI UTARA,,Indonesia,,,,0.7099508,1.242.840.885,https://maps.google.com/?cid=0x0:0x3f58082ef2c23ea3,
perumahan,Komplek perumahan,Rumah Ops manager,"P86C+294, Poyowa Besar II, Kec. Kotamobagu Sel., Kota Kotamobagu, Sulawesi Utara","Kota Kotamobagu, Sulawesi Utara",SULAWESI UTARA,,Indonesia,,,,0.7100423,1.243.207.422,https://maps.google.com/?cid=0x0:0xee63de0b10b1a635,
perumahan,Komplek perumahan,Casa de Ivy,"P7GX+XV7, Motoboi Kecil, Kec. Kotamobagu Sel., Kota Kotamobagu, Sulawesi Utara","Kota Kotamobagu, Sulawesi Utara",SULAWESI UTARA,,Indonesia,,,,0.727392,1.242.996.149,https://maps.google.com/?cid=0x0:0xdad2475dd4fdd140,
perumahan,Komplek perumahan,Kebun mama revo,"P7HH+P4J, Mongondow, Kec. Kotamobagu Sel., Kota Kotamobagu, Sulawesi Utara","Kota Kotamobagu, Sulawesi Utara",SULAWESI UTARA,,Indonesia,,,,0.7293333,1.242.777.517,https://maps.google.com/?cid=0x0:0xf434cceed3913948,
perumahan,perumahan,Kec. Kotamobagu Tim.,"Kota Kotamobagu, Sulawesi Utara","Kota Kotamobagu, Sulawesi Utara",SULAWESI UTARA,,Indonesia,,,,0.7377324,1.243.224.496,https://maps.google.com/?cid=0x0:0xf276a13be322dc46,
perumahan,Komplek perumahan,Lorong kemuning rt 02,"P8V6+F36, Gogagoman, Kec. Kotamobagu Bar., Kota Kotamobagu, Sulawesi Utara 95716","Gogagoman, Kec. Kotamobagu Bar., Kota Kotamobagu",SULAWESI UTARA,95716,Indonesia,,,,0.7436664,1.243.101.316,https://maps.google.com/?cid=0x0:0x5ffe317a882fc7ee,
perumahan,Pembangunan Perumahan,Perumahan Perbinda Mas,"P8XC+GHV, Biga, Kec. Kotamobagu Utara, Kota Kotamobagu, Sulawesi Utara","Kota Kotamobagu, Sulawesi Utara",SULAWESI UTARA,,Indonesia,,,,0.7488662,1.243.214.289,https://maps.google.com/?cid=0x0:0x5a2577f7c635b30a,
perumahan,Komplek perumahan,Perumahan puri citra indah motoboi kecil,"P8F9+PXV, Matali, Kec. Kotamobagu Tim., Kota Kotamobagu, Sulawesi Utara","Kota Kotamobagu, Sulawesi Utara",SULAWESI UTARA,,Indonesia,,,,0.7243733,1.243.199.316,https://maps.google.com/?cid=0x0:0xe32be5a06e2f4347,
perumahan,Komplek perumahan,Rumah Besar,"P8H9+F52, Sinindian, Kec. Kotamobagu Tim., Kota Kotamobagu, Sulawesi Utara","Kota Kotamobagu, Sulawesi Utara",SULAWESI UTARA,,Indonesia,,,,0.7286403,1.243.179.048,https://maps.google.com/?cid=0x0:0xe79de17dd2664568,
perumahan,Asosiasi/organisasi,sekretariat HR 5,"P8MF+3J3, Kotabangon, Kec. Kotamobagu Tim., Kota Kotamobagu, Sulawesi Utara 95716","Kotabangon, Kec. Kotamobagu Tim., Kota Kotamobagu",SULAWESI UTARA,95716,Indonesia,,,,0.7326134,1.243.240.149,https://maps.google.com/?cid=0x0:0xb82110296d60cd9c,
perumahan,Komplek perumahan,HM-KM,"P8H8+M37, Jl. I Bantong, Sinindian, Kec. Kotamobagu Tim., Kota Kotamobagu, Sulawesi Utara 95716","Jl. I Bantong, Sinindian, Kec. Kotamobagu Tim., Kota Kotamobagu",SULAWESI UTARA,95716,Indonesia,,,,0.7291559,124.315.187,https://maps.google.com/?cid=0x0:0x375fe423545556ef,
perumahan,Komplek perumahan,Mandagi Piri House,"Jl. Mansosra, Tumobuy, Kec. Kotamobagu Tim., Kota Kotamobagu, Sulawesi Utara 95716","Tumobuy, Kec. Kotamobagu Tim., Kota Kotamobagu",SULAWESI UTARA,95716,Indonesia,85298265658.0,,,0.7300985,1.243.306.549,https://maps.google.com/?cid=0x0:0x8d9a156aaf29607b,
perumahan,Developer Rumah Hunian Khusus,RUMAH DINAS WALIKOTA KOTAMOBAGU,"P8RG+Q7, Kotabangon, Kec. Kotamobagu Tim., Kota Kotamobagu, Sulawesi Utara","Kota Kotamobagu, Sulawesi Utara",SULAWESI UTARA,,Indonesia,,,,0.7418796,1.243.256.466,https://maps.google.com/?cid=0x0:0xbb2aa7a1fd908b62,
perumahan,Pembangunan Perumahan,Bonogh?Land,"P8J8+9RC, Jl. Bougenvil, Sinindian, Kec. Kotamobagu Tim., Kota Kotamobagu, Sulawesi Utara","Kota Kotamobagu, Sulawesi Utara",SULAWESI UTARA,,Indonesia,,,,0.7309426,1.243.170.115,https://maps.google.com/?cid=0x0:0x2f5c96dc2ddb05d5,
perumahan,Komplek perumahan,"Sulawesi Utara, Kotamobagu barat, gogagoman","P8Q4+8GR, Gogagoman, Kec. Kotamobagu Bar., Kota Kotamobagu, Sulawesi Utara","Kota Kotamobagu, Sulawesi Utara",SULAWESI UTARA,,Indonesia,,,,0.7383505,1.243.062.619,https://maps.google.com/?cid=0x0:0x894da1b2d4dbc87,
perumahan,Komplek perumahan,ICEL ONEL HOME,"P8QG+43Q, Kotabangon, Kec. Kotamobagu Tim., Kota Kotamobagu, Sulawesi Utara","Kota Kotamobagu, Sulawesi Utara",SULAWESI UTARA,,Indonesia,,,,0.7378427,1.243.252.438,https://maps.google.com/?cid=0x0:0x5c9205eeec767690,
perumahan,Komplek perumahan,Dila datukramat,"P8H6+PHW, Sinindian, Kec. Kotamobagu Tim., Kota Kotamobagu, Sulawesi Utara","Kota Kotamobagu, Sulawesi Utara",SULAWESI UTARA,,Indonesia,,,,0.7292032,124.311.498,https://maps.google.com/?cid=0x0:0xd91e254e4b1c23c5,
perumahan,Hotel jangka panjang,Kost triple xxx,"P8F9+PXV, Matali, Kec. Kotamobagu Tim., Kota Kotamobagu, Sulawesi Utara","Kota Kotamobagu, Sulawesi Utara",SULAWESI UTARA,,Indonesia,,,,0.7243733,1.243.199.316,https://maps.google.com/?cid=0x0:0x8180250d07f1a1b3,
perumahan,Komplek perumahan,Diagon Alley,"P8MC+JC9, Kotabangon, Kec. Kotamobagu Tim., Kota Kotamobagu, Sulawesi Utara","Kota Kotamobagu, Sulawesi Utara",SULAWESI UTARA,,Indonesia,,,,0.7340402,1.243.210.969,https://maps.google.com/?cid=0x0:0x7444c6c5e6b98fcf,
perumahan,Komplek perumahan,PITOY SULANGI RESIDENCE,"P8P7+3H4, Kotabangon, Kec. Kotamobagu Tim., Kota Kotamobagu, Sulawesi Utara","Kota Kotamobagu, Sulawesi Utara",SULAWESI UTARA,,Indonesia,,,,0.7351453,1.243.139.658,https://maps.google.com/?cid=0x0:0x913260350150b878,
perumahan,Komplek perumahan,Meiky Paendong house,"P8HJ+HHW, Jl. Mansosra, Tumobuy, Kec. Kotamobagu Tim., Kota Kotamobagu, Sulawesi Utara","Kota Kotamobagu, Sulawesi Utara",SULAWESI UTARA,,Indonesia,,,,0.7289793,1.243.314.536,https://maps.google.com/?cid=0x0:0xcb2215dfdac6c712,
perumahan,Komplek perumahan,Rumah Dinas KPPN Kotamobagu,"P8M9+X36, Jl. Paloko Kinalang, Kotabangon, Kec. Kotamobagu Tim., Kota Kotamobagu, Sulawesi Utara 95716","Jl. Paloko Kinalang, Kotabangon, Kec. Kotamobagu Tim., Kota Kotamobagu",SULAWESI UTARA,95716,Indonesia,,,,0.7349118,1.243.176.517,https://maps.google.com/?cid=0x0:0xacaf1d6791e263c1,
perumahan,Pembangunan Perumahan,Fitri iry radif mamonto,"P8QG+M2C, Jl. Tadohe Ilongkow, Kotabangon, Kec. Kotamobagu Tim., Kota Kotamobagu, Sulawesi Utara","Kota Kotamobagu, Sulawesi Utara",SULAWESI UTARA,,Indonesia,,,,0.7391534,1.243.249.748,https://maps.google.com/?cid=0x0:0xc41f00c9ef28e5b0,
perumahan,Pom bensin/SPBU,Lorong depan SPBU kotobangon,"P8Q7+8W2 Lorong depan SPBU, Kotabangon, Kec. Kotamobagu Tim., Kota Kotamobagu, Sulawesi Utara","Kota Kotamobagu, Sulawesi Utara",SULAWESI UTARA,,Indonesia,,,,0.7382566,1.243.147.582,https://maps.google.com/?cid=0x0:0x6a03d6738e3d40ed,
perumahan,Toko,House of Light Kotamobagu,"kompleks Hotel Senator, Jl. Yusuf Hasiru No.3, Kotabangon, Kec. Kotamobagu Bar., Kota Kotamobagu, Sulawesi Utara 95712","Jl. Yusuf Hasiru No.3, Kotabangon, Kec. Kotamobagu Bar., Kota Kotamobagu",SULAWESI UTARA,95712,Indonesia,89639513131.0,,,0.7398703,1.243.181.478,https://maps.google.com/?cid=0x0:0xdc7b0fa684f17ba2,
perumahan,Rumah Sakit,RSIA KASIH FATIMAH,"Jalan Kolonel Soegiono, Kotabangon, Kotamobagu Timur, Kotabangon, Kota Kotamobagu, Sulawesi Utara 95712","Kotabangon, Kotamobagu Timur, Kotabangon, Kota Kotamobagu",SULAWESI UTARA,95712,Indonesia,81245229340.0,,,0.7376255,1.243.287.196,https://maps.google.com/?cid=0x0:0xf127aec75ce2b2ad,
perumahan,Apartemen sewa liburan,Kost Putri Ajeng,"lorong depan futsal adm, 400m keatas, Jl. Siliwangi, Kotabangon, Kec. Kotamobagu Tim., Kota Kotamobagu, Sulawesi Utara 95712","400m keatas, Jl. Siliwangi, Kotabangon, Kec. Kotamobagu Tim., Kota Kotamobagu",SULAWESI UTARA,95712,Indonesia,,,,0.7330325,1.243.270.544,https://maps.google.com/?cid=0x0:0x2f2c6627fb2da10d,
perumahan,Warnet,Supernova M2G Kotamobagu,"P8H4+92R, Jl. Garuda, Mogolaing, Kec. Kotamobagu Bar., Kota Kotamobagu, Sulawesi Utara 95712","Jl. Garuda, Mogolaing, Kec. Kotamobagu Bar., Kota Kotamobagu",SULAWESI UTARA,95712,Indonesia,8114315775.0,,,0.7284975,1.243.050.009,https://maps.google.com/?cid=0x0:0x4c01d0b6bae5f146,
perumahan,Toko,Bogani Grosir Kotamobagu,"Jl. Yusuf Hasiru No.3, Kotamobagu, Kec. Kotamobagu Bar., Kota Kotamobagu, Sulawesi Utara 95712","Kotamobagu, Kec. Kotamobagu Bar., Kota Kotamobagu",SULAWESI UTARA,95712,Indonesia,89639513131.0,,,0.7398703,1.243.181.478,https://maps.google.com/?cid=0x0:0x3f8facd6c75e6c91,
perumahan,Komplek perumahan,POLI LAOH,"P8P8+7VQ, Jl. Paloko Kinalang, Kotabangon, Kec. Kotamobagu Tim., Kota Kotamobagu, Sulawesi Utara 95712","Jl. Paloko Kinalang, Kotabangon, Kec. Kotamobagu Tim., Kota Kotamobagu",SULAWESI UTARA,95712,Indonesia,,,,0.7356034,1.243.174.391,https://maps.google.com/?cid=0x0:0x232249d354e13d3b,
perumahan,Toko Komputer,Insomni,"Jalan Kol Sugiono No.103, Kotabangon, Kec. Kotamobagu Tim., Kota Kotamobagu, Sulawesi Utara 95712","Kotabangon, Kec. Kotamobagu Tim., Kota Kotamobagu",SULAWESI UTARA,95712,Indonesia,8114306281.0,,,0.7378664,1.243.233.443,https://maps.google.com/?cid=0x0:0x9b4bf80ad2ab1cf7,
perumahan,Toko Perlengkapan Rumah,Tira - Homeliving Kotamobagu Resmi,"Jl. Yusuf Hasiru No.06, RT.02/RW.02, Kotabangon, Kec. Kotamobagu Tim., Kota Kotamobagu, Sulawesi Utara 95712","RT.02/RW.02, Kotabangon, Kec. Kotamobagu Tim., Kota Kotamobagu",SULAWESI UTARA,95712,Indonesia,82292006365.0,,,0.7405325,1.243.200.161,https://maps.google.com/?cid=0x0:0x1307456677eec450,
perumahan,Brunch,Kedai Al Baroqah MommyJ2,"Jl.Brigjen Kotamso, Kotabangon, Kec. Kotamobagu Tim., Kota Kotamobagu, Sulawesi Utara 95712","Kotabangon, Kec. Kotamobagu Tim., Kota Kotamobagu",SULAWESI UTARA,95712,Indonesia,81241564222.0,,,0.7355892,1.243.162.788,https://maps.google.com/?cid=0x0:0xa397eab16c7f2704,
perumahan,perumahan,Sulawesi Utara 95716,"Mogolaing, Kec. Kotamobagu Bar., Kota Kotamobagu, Sulawesi Utara","Kota Kotamobagu, Sulawesi Utara",SULAWESI UTARA,,Indonesia,,,,0.7331339,1.243.035.249,https://maps.google.com/?cid=0x0:0xb303343be4233a,
perumahan,Komplek perumahan,Desi,"Jl. Adampe Dolot No.91a, Mogolaing, Kec. Kotamobagu Bar., Kota Kotamobagu, Sulawesi Utara 95716","Mogolaing, Kec. Kotamobagu Bar., Kota Kotamobagu",SULAWESI UTARA,95716,Indonesia,,,,0.7332183,1.243.036.517,https://maps.google.com/?cid=0x0:0x80773f31de46c38b,
perumahan,Komplek perumahan,Fiya,"P8M4+475, Mogolaing, Kec. Kotamobagu Bar., Kota Kotamobagu, Sulawesi Utara","Kota Kotamobagu, Sulawesi Utara",SULAWESI UTARA,,Indonesia,,,,0.7327741,1.243.057.368,https://maps.google.com/?cid=0x0:0xe1bc9c5370a52e58,
perumahan,Rumah Makan,Rumah Makan Bobara Bakar,"P8M3+3FX, Mogolaing, Kec. Kotamobagu Bar., Kota Kotamobagu, Sulawesi Utara 95716","Mogolaing, Kec. Kotamobagu Bar., Kota Kotamobagu",SULAWESI UTARA,95716,Indonesia,,,,0.7327389,1.243.037.335,https://maps.google.com/?cid=0x0:0xee35d688f11fde24,
perumahan,perumahan,Sulawesi Utara 95718,"Kotabangon, Kec. Kotamobagu Tim., Kota Kotamobagu, Sulawesi Utara","Kota Kotamobagu, Sulawesi Utara",SULAWESI UTARA,,Indonesia,,,,0.7331272,1.243.211.987,https://maps.google.com/?cid=0x0:0x3ca38e005d607719,
perumahan,Komplek perumahan,Diagon Alley,"P8MC+JC9, Kotabangon, Kec. Kotamobagu Tim., Kota Kotamobagu, Sulawesi Utara","Kota Kotamobagu, Sulawesi Utara",SULAWESI UTARA,,Indonesia,,,,0.7340402,1.243.210.969,https://maps.google.com/?cid=0x0:0x7444c6c5e6b98fcf,
perumahan,Hotel jangka panjang,KOST REGINA,"P8MC+J5R, Kotabangon, Kec. Kotamobagu Tim., Kota Kotamobagu, Sulawesi Utara","Kota Kotamobagu, Sulawesi Utara",SULAWESI UTARA,,Indonesia,,,,0.734108,1.243.204.055,https://maps.google.com/?cid=0x0:0x6893e475d4a84fb7,
perumahan,Hotel,DS Homestay,"P8M9+JX8, Kotabangon, Kec. Kotamobagu Tim., Kota Kotamobagu, Sulawesi Utara","Kota Kotamobagu, Sulawesi Utara",SULAWESI UTARA,,Indonesia,,,,0.7340391,1.243.199.563,https://maps.google.com/?cid=0x0:0xed978f35086f6e6f,
perumahan,perumahan,Kec. Kotamobagu Tim.,"Kota Kotamobagu, Sulawesi Utara","Kota Kotamobagu, Sulawesi Utara",SULAWESI UTARA,,Indonesia,,,,0.7377324,1.243.224.496,https://maps.google.com/?cid=0x0:0xf276a13be322dc46,
perumahan,Pembangunan Perumahan,Perumahan Perbinda Mas,"P8XC+GHV, Biga, Kec. Kotamobagu Utara, Kota Kotamobagu, Sulawesi Utara","Kota Kotamobagu, Sulawesi Utara",SULAWESI UTARA,,Indonesia,,,,0.7488662,1.243.214.289,https://maps.google.com/?cid=0x0:0x5a2577f7c635b30a,
perumahan,Pembangunan Perumahan,Perumahan Perbinda Emas,"P8WC+GHR, Unnamed Road, Biga, Kec. Kotamobagu Utara, Kota Kotamobagu, Sulawesi Utara 95716","Unnamed Road, Biga, Kec. Kotamobagu Utara, Kota Kotamobagu",SULAWESI UTARA,95716,Indonesia,,,,0.7463535,1.243.214.007,https://maps.google.com/?cid=0x0:0x30802cbf20391e3b,
perumahan,perumahan,Kobo kecil,"P8QC+3XW, Kotabangon, Kec. Kotamobagu Tim., Kota Kotamobagu, Sulawesi Utara","Kota Kotamobagu, Sulawesi Utara",SULAWESI UTARA,,Indonesia,,,,0.7377324,1.243.224.496,https://maps.google.com/?cid=0x0:0xfbb4bdc8d769cd2f,
perumahan,Komplek perumahan,"Sulawesi Utara, Kotamobagu barat, gogagoman","P8Q4+8GR, Gogagoman, Kec. Kotamobagu Bar., Kota Kotamobagu, Sulawesi Utara","Kota Kotamobagu, Sulawesi Utara",SULAWESI UTARA,,Indonesia,,,,0.7383505,1.243.062.619,https://maps.google.com/?cid=0x0:0x894da1b2d4dbc87,
perumahan,Komplek perumahan,VM,"P8HC+4RR, Tumobuy, Kec. Kotamobagu Tim., Kota Kotamobagu, Sulawesi Utara","Kota Kotamobagu, Sulawesi Utara",SULAWESI UTARA,,Indonesia,,,,0.7287405,1.243.217.107,https://maps.google.com/?cid=0x0:0xff3813c911d39618,
perumahan,Asosiasi/organisasi,sekretariat HR 5,"P8MF+3J3, Kotabangon, Kec. Kotamobagu Tim., Kota Kotamobagu, Sulawesi Utara 95716","Kotabangon, Kec. Kotamobagu Tim., Kota Kotamobagu",SULAWESI UTARA,95716,Indonesia,,,,0.7326134,1.243.240.149,https://maps.google.com/?cid=0x0:0xb82110296d60cd9c,
perumahan,Komplek perumahan,HM-KM,"P8H8+M37, Jl. I Bantong, Sinindian, Kec. Kotamobagu Tim., Kota Kotamobagu, Sulawesi Utara 95716","Jl. I Bantong, Sinindian, Kec. Kotamobagu Tim., Kota Kotamobagu",SULAWESI UTARA,95716,Indonesia,,,,0.7291559,124.315.187,https://maps.google.com/?cid=0x0:0x375fe423545556ef,
perumahan,Komplek perumahan,Mandagi Piri House,"Jl. Mansosra, Tumobuy, Kec. Kotamobagu Tim., Kota Kotamobagu, Sulawesi Utara 95716","Tumobuy, Kec. Kotamobagu Tim., Kota Kotamobagu",SULAWESI UTARA,95716,Indonesia,85298265658.0,,,0.7300985,1.243.306.549,https://maps.google.com/?cid=0x0:0x8d9a156aaf29607b,
perumahan,Pembangunan Perumahan,Jacobus Jemmy jia (Gudang KPU Kotamobagu),"Jl. K.S. Tubun No.32, Sinindian, Kec. Kotamobagu Tim., Kota Kotamobagu, Sulawesi Utara 95716","Sinindian, Kec. Kotamobagu Tim., Kota Kotamobagu",SULAWESI UTARA,95716,Indonesia,,,,0.7271444,1.243.115.056,https://maps.google.com/?cid=0x0:0x6fce90ae0e72ce6f,
perumahan,Fasilitas Tentara,Asrama Kodim 1303/BM,"P8W9+G3Q, Jl. Arief Rahman Hakim, Biga, Kec. Kotamobagu Utara, Kota Kotamobagu, Sulawesi Utara","Kota Kotamobagu, Sulawesi Utara",SULAWESI UTARA,,Indonesia,,,,0.7463414,1.243.177.237,https://maps.google.com/?cid=0x0:0xe6e50caf92f1a3be,
perumahan,Komplek perumahan,PITOY SULANGI RESIDENCE,"P8P7+3H4, Kotabangon, Kec. Kotamobagu Tim., Kota Kotamobagu, Sulawesi Utara","Kota Kotamobagu, Sulawesi Utara",SULAWESI UTARA,,Indonesia,,,,0.7351453,1.243.139.658,https://maps.google.com/?cid=0x0:0x913260350150b878,
perumahan,Komplek perumahan,Diagon Alley,"P8MC+JC9, Kotabangon, Kec. Kotamobagu Tim., Kota Kotamobagu, Sulawesi Utara","Kota Kotamobagu, Sulawesi Utara",SULAWESI UTARA,,Indonesia,,,,0.7340402,1.243.210.969,https://maps.google.com/?cid=0x0:0x7444c6c5e6b98fcf,
perumahan,Komplek perumahan,Rumah nonon cantik,"P8F9+PXV, Jalan raya Kotamobagu-Manado, Matali","Kota Kotamobagu, Sulawesi Utara",SULAWESI UTARA,,Indonesia,,,,0.7243733,1.243.199.316,https://maps.google.com/?cid=0x0:0xd653aaef10302c9,
perumahan,Komplek perumahan,Rumah Besar,"P8H9+F52, Sinindian, Kec. Kotamobagu Tim., Kota Kotamobagu, Sulawesi Utara","Kota Kotamobagu, Sulawesi Utara",SULAWESI UTARA,,Indonesia,,,,0.7286403,1.243.179.048,https://maps.google.com/?cid=0x0:0xe79de17dd2664568,
perumahan,Komplek perumahan,Kotamobagu,"P8F9+PXV, Matali, Kec. Kotamobagu Tim., Kota Kotamobagu, Sulawesi Utara","Kota Kotamobagu, Sulawesi Utara",SULAWESI UTARA,,Indonesia,,,,0.7243733,1.243.199.316,https://maps.google.com/?cid=0x0:0x1239309c1ec37eaa,
perumahan,Komplek perumahan,Rumah Dinas KPPN Kotamobagu,"P8M9+X36, Jl. Paloko Kinalang, Kotabangon, Kec. Kotamobagu Tim., Kota Kotamobagu, Sulawesi Utara 95716","Jl. Paloko Kinalang, Kotabangon, Kec. Kotamobagu Tim., Kota Kotamobagu",SULAWESI UTARA,95716,Indonesia,,,,0.7349118,1.243.176.517,https://maps.google.com/?cid=0x0:0xacaf1d6791e263c1,
perumahan,Hotel jangka panjang,Kost triple xxx,"P8F9+PXV, Matali, Kec. Kotamobagu Tim., Kota Kotamobagu, Sulawesi Utara","Kota Kotamobagu, Sulawesi Utara",SULAWESI UTARA,,Indonesia,,,,0.7243733,1.243.199.316,https://maps.google.com/?cid=0x0:0x8180250d07f1a1b3,
perumahan,Developer Rumah Hunian Khusus,RUMAH DINAS WALIKOTA KOTAMOBAGU,"P8RG+Q7, Kotabangon, Kec. Kotamobagu Tim., Kota Kotamobagu, Sulawesi Utara","Kota Kotamobagu, Sulawesi Utara",SULAWESI UTARA,,Indonesia,,,,0.7418796,1.243.256.466,https://maps.google.com/?cid=0x0:0xbb2aa7a1fd908b62,
perumahan,Pembangunan Perumahan,Lionel  EL Home,"P8HG+RCG, Jl. Mansosra, Tumobuy, Kec. Kotamobagu Tim., Kota Kotamobagu, Sulawesi Utara 95716","Jl. Mansosra, Tumobuy, Kec. Kotamobagu Tim., Kota Kotamobagu",SULAWESI UTARA,95716,Indonesia,,,,0.7295557,1.243.260.858,https://maps.google.com/?cid=0x0:0x39c4c7931b2d69eb,
perumahan,Perhimpunan Pengembang Perumahan,Kawasan Kopandakan 1,"P8F9+PXV, Matali, Kec. Kotamobagu Tim., Kota Kotamobagu, Sulawesi Utara","Kota Kotamobagu, Sulawesi Utara",SULAWESI UTARA,,Indonesia,,,,0.7243733,1.243.199.316,https://maps.google.com/?cid=0x0:0xf703ef7acf680dc,
perumahan,Perumahan rakyat,Rumah Beyza,"P8MR+J5Q, Lorong Ampera, Moyag Tampoan, Kec. Kotamobagu Tim., Kota Kotamobagu, Sulawesi Utara","Kota Kotamobagu, Sulawesi Utara",SULAWESI UTARA,,Indonesia,,,,0.7340781,1.243.404.933,https://maps.google.com/?cid=0x0:0x25a14dc5df93fd6d,
perumahan,Komplek perumahan,Rumah keluarga yoko simbala,"P8C6+556, Matali, Kec. Kotamobagu Tim., Kota Kotamobagu, Sulawesi Utara","Kota Kotamobagu, Sulawesi Utara",SULAWESI UTARA,,Indonesia,,,,0.7204111,124.310.385,https://maps.google.com/?cid=0x0:0x68cfd4323105c3ce,
perumahan,Komplek perumahan,Meiky Paendong house,"P8HJ+HHW, Jl. Mansosra, Tumobuy, Kec. Kotamobagu Tim., Kota Kotamobagu, Sulawesi Utara","Kota Kotamobagu, Sulawesi Utara",SULAWESI UTARA,,Indonesia,,,,0.7289793,1.243.314.536,https://maps.google.com/?cid=0x0:0xcb2215dfdac6c712,
perumahan,Pembangunan Perumahan,Fitri iry radif mamonto,"P8QG+M2C, Jl. Tadohe Ilongkow, Kotabangon, Kec. Kotamobagu Tim., Kota Kotamobagu, Sulawesi Utara","Kota Kotamobagu, Sulawesi Utara",SULAWESI UTARA,,Indonesia,,,,0.7391534,1.243.249.748,https://maps.google.com/?cid=0x0:0xc41f00c9ef28e5b0,
perumahan,Komplek perumahan,Dila datukramat,"P8H6+PHW, Sinindian, Kec. Kotamobagu Tim., Kota Kotamobagu, Sulawesi Utara","Kota Kotamobagu, Sulawesi Utara",SULAWESI UTARA,,Indonesia,,,,0.7292032,124.311.498,https://maps.google.com/?cid=0x0:0xd91e254e4b1c23c5,
perumahan,Komplek perumahan,Mamangkey-Momongan Family's,"P8HG+RCG, Jl. Mansosra, Tumobuy, Kec. Kotamobagu Tim., Kota Kotamobagu, Sulawesi Utara 95716","Jl. Mansosra, Tumobuy, Kec. Kotamobagu Tim., Kota Kotamobagu",SULAWESI UTARA,95716,Indonesia,,,,0.7292259,1.243.256.999,https://maps.google.com/?cid=0x0:0x24e5e16b8be6236d,
perumahan,Komplek perumahan,ICEL ONEL HOME,"P8QG+43Q, Kotabangon, Kec. Kotamobagu Tim., Kota Kotamobagu, Sulawesi Utara","Kota Kotamobagu, Sulawesi Utara",SULAWESI UTARA,,Indonesia,,,,0.7378427,1.243.252.438,https://maps.google.com/?cid=0x0:0x5c9205eeec767690,
perumahan,Komplek perumahan,Pri Adati,"P8F6+9QJ, Jl Beringin, RT.005/RW.003, Matali, Kec. Kotamobagu Tim., Kota Kotamobagu, Sulawesi Utara 95716","Jl Beringin, RT.005/RW.003, Matali, Kec. Kotamobagu Tim., Kota Kotamobagu",SULAWESI UTARA,95716,Indonesia,85823762410.0,,,0.7234527,1.243.118.976,https://maps.google.com/?cid=0x0:0x3574023ad1709dc0,
perumahan,perumahan,Aspol No.11,"P8V6+JX2, Jl. Ahmad Yani, Kotamobagu, Kec. Kotamobagu Bar., Kota Kotamobagu, Sulawesi Utara 95713","Jl. Ahmad Yani, Kotamobagu, Kec. Kotamobagu Bar., Kota Kotamobagu",SULAWESI UTARA,95713,Indonesia,,,,0.7444195,1.243.126.014,https://maps.google.com/?cid=0x0:0xac5fbd55c59a1983,
perumahan,perumahan,Kec. Kotamobagu Utara,"Kota Kotamobagu, Sulawesi Utara","Kota Kotamobagu, Sulawesi Utara",SULAWESI UTARA,,Indonesia,,,,0.7535564,1.243.211.663,https://maps.google.com/?cid=0x0:0x8857be9cbc156ca2,
perumahan,perumahan,Lokasi,"Q827+7JW, Jl. Talenta, Genggulang, Kec. Kotamobagu Utara, Kota Kotamobagu, Sulawesi Utara","Kota Kotamobagu, Sulawesi Utara",SULAWESI UTARA,,Indonesia,,,,0.7507375,1.243.140.672,https://maps.google.com/?cid=0x0:0x39abc02eec63ee26,
perumahan,Pembangunan Perumahan,Perumahan Perbinda Mas,"P8XC+GHV, Biga, Kec. Kotamobagu Utara, Kota Kotamobagu, Sulawesi Utara","Kota Kotamobagu, Sulawesi Utara",SULAWESI UTARA,,Indonesia,,,,0.7488662,1.243.214.289,https://maps.google.com/?cid=0x0:0x5a2577f7c635b30a,
perumahan,Perhimpunan Pengembang Perumahan,Perumahan Tampang Indah. Perum Omrades,"P8V5+WXM, Gogagoman, Kec. Kotamobagu Bar., Kota Kotamobagu, Sulawesi Utara","Kota Kotamobagu, Sulawesi Utara",SULAWESI UTARA,,Indonesia,,,,0.7453566,1.243.098.238,https://maps.google.com/?cid=0x0:0xbf006de3ca19af02,
perumahan,perumahan,Kaligis_leng perbinda,"P8XC+8M8, Biga, Kec. Kotamobagu Utara, Kota Kotamobagu, Sulawesi Utara","Kota Kotamobagu, Sulawesi Utara",SULAWESI UTARA,,Indonesia,,,,0.7483989,1.243.217.209,https://maps.google.com/?cid=0x0:0xa62f0002f9452be8,
perumahan,Komplek perumahan,"Sulawesi Utara, Kotamobagu barat, gogagoman","P8Q4+8GR, Gogagoman, Kec. Kotamobagu Bar., Kota Kotamobagu, Sulawesi Utara","Kota Kotamobagu, Sulawesi Utara",SULAWESI UTARA,,Indonesia,,,,0.7383505,1.243.062.619,https://maps.google.com/?cid=0x0:0x894da1b2d4dbc87,
perumahan,Komplek perumahan,Dinas Perumahan Rakyat dan Kawasan Permukiman Kota Kotamobagu,"Jl. Arief Rahman Hakim No.22, Biga, Kec. Kotamobagu Utara, Kota Kotamobagu, Sulawesi Utara 95711","Biga, Kec. Kotamobagu Utara, Kota Kotamobagu",SULAWESI UTARA,95711,Indonesia,,,,0.7457382,1.243.172.583,https://maps.google.com/?cid=0x0:0x18858d6ebc983288,
perumahan,Komplek perumahan,Lorong Talenta Biga,"Q827+4QX, Biga, Kec. Kotamobagu Utara, Kota Kotamobagu, Sulawesi Utara","Kota Kotamobagu, Sulawesi Utara",SULAWESI UTARA,,Indonesia,,,,0.7497005,1.243.140.397,https://maps.google.com/?cid=0x0:0xfafcb6d87e6171f8,
perumahan,Fasilitas Tentara,Asrama Kodim 1303/BM,"P8W9+G3Q, Jl. Arief Rahman Hakim, Biga, Kec. Kotamobagu Utara, Kota Kotamobagu, Sulawesi Utara","Kota Kotamobagu, Sulawesi Utara",SULAWESI UTARA,,Indonesia,,,,0.7463414,1.243.177.237,https://maps.google.com/?cid=0x0:0xe6e50caf92f1a3be,
perumahan,Pengembang Realestat,Tanah,"Q837+566, Genggulang, Kec. Kotamobagu Utara, Kota Kotamobagu, Sulawesi Utara","Kota Kotamobagu, Sulawesi Utara",SULAWESI UTARA,,Indonesia,,,,0.7528977,1.243.129.894,https://maps.google.com/?cid=0x0:0x980811459e34b46c,
perumahan,Komplek perumahan,Rumah Farhan Marto,"Unnamed Road, Pontodon, Kec. Kotamobagu Utara, Kota Kotamobagu, Sulawesi Utara","Kota Kotamobagu, Sulawesi Utara",SULAWESI UTARA,,Indonesia,85157995086.0,,,0.7593752,1.243.285.003,https://maps.google.com/?cid=0x0:0xb456eccfea1eab34,
perumahan,Perhimpunan Pengembang Perumahan,Komplek Pesona Genggulang (PT ANKA),"Q837+FW6, Jl. Ps. Genggulang, Genggulang, Kec. Kotamobagu Utara, Kota Kotamobagu, Sulawesi Utara","Kota Kotamobagu, Sulawesi Utara",SULAWESI UTARA,,Indonesia,,,,0.7536734,1.243.147.691,https://maps.google.com/?cid=0x0:0xfe3e48cc897fcf5e,
perumahan,Komplek perumahan,Rumah Warna Warni(Kukis Kota),"Jl. Diponegoro No.5, Biga, Kec. Kotamobagu Utara, Kota Kotamobagu, Sulawesi Utara","Kota Kotamobagu, Sulawesi Utara",SULAWESI UTARA,,Indonesia,,,,0.7513668,1.243.175.363,https://maps.google.com/?cid=0x0:0xa1ffc52dd061e076,
perumahan,Komplek perumahan,Tempat tinggal (YUSI SILFIA BAMBUENA),"P8X8+7JQ, Jln. Diponegoro, >>","Kota Kotamobagu, Sulawesi Utara",SULAWESI UTARA,,Indonesia,,,,0.7482115,1.243.166.083,https://maps.google.com/?cid=0x0:0x61c5eb9d4e114de8,
perumahan,Komplek perumahan,Anen house,"Q827+VW8, Genggulang, Kec. Kotamobagu Utara, Kota Kotamobagu, Sulawesi Utara","Kota Kotamobagu, Sulawesi Utara",SULAWESI UTARA,,Indonesia,,,,0.7521743,1.243.148.357,https://maps.google.com/?cid=0x0:0x6e75cc740bf6c0a6,
perumahan,Komplek perumahan,Rumah dini,"Q87G+95, Pontodon Tim., Kec. Kotamobagu Utara, Kota Kotamobagu, Sulawesi Utara","Kota Kotamobagu, Sulawesi Utara",SULAWESI UTARA,,Indonesia,,,,0.7634843,1.243.254.071,https://maps.google.com/?cid=0x0:0x8d0d6c8749740ab,
perumahan,Komplek perumahan,Rumah mama sopia/Baai Abyan,"Q856+V57, Bilalang Satu, Kec. Kotamobagu Utara, Kota Kotamobagu, Sulawesi Utara","Kota Kotamobagu, Sulawesi Utara",SULAWESI UTARA,,Indonesia,,,,0.7596544,1.243.104.149,https://maps.google.com/?cid=0x0:0xfde7f4769a2cabeb,
perumahan,Pembangunan Perumahan,Perumahan Griya Permata Indah Kotamobagu,"M7WX+MMX, Jl. Raya Bubak, Bungko, Kec. Kotamobagu Sel., Kota Kotamobagu, Sulawesi Utara 95717","Jl. Raya Bubak, Bungko, Kec. Kotamobagu Sel., Kota Kotamobagu",SULAWESI UTARA,95717,Indonesia,81340134303.0,,,0.6961728,1.243.010.888,https://maps.google.com/?cid=0x0:0x4d61fbd4fe01e498,
perumahan,Komplek perumahan,Jenni's House User Luo Yi,"P8W8+XFQ, Biga, Kec. Kotamobagu Utara, Kota Kotamobagu, Sulawesi Utara 95716","Biga, Kec. Kotamobagu Utara, Kota Kotamobagu",SULAWESI UTARA,95716,Indonesia,,,,0.7474689,1.243.162.418,https://maps.google.com/?cid=0x0:0xb8b07539d6eb3126,
perumahan,Komplek perumahan,Rumah ella,"Q87G+95, Pontodon Tim., Kec. Kotamobagu Utara, Kota Kotamobagu, Sulawesi Utara","Kota Kotamobagu, Sulawesi Utara",SULAWESI UTARA,,Indonesia,,,,0.763204,12.432.539,https://maps.google.com/?cid=0x0:0xc96e4bea71aeafa6,
perumahan,Komplek perumahan,Lorong kemuning rt 02,"P8V6+F36, Gogagoman, Kec. Kotamobagu Bar., Kota Kotamobagu, Sulawesi Utara 95716","Gogagoman, Kec. Kotamobagu Bar., Kota Kotamobagu",SULAWESI UTARA,95716,Indonesia,,,,0.7436664,1.243.101.316,https://maps.google.com/?cid=0x0:0x5ffe317a882fc7ee,
perumahan,Komplek perumahan,Fetty,"Q837+XP3, Genggulang, Kec. Kotamobagu Utara, Kota Kotamobagu, Sulawesi Utara","Kota Kotamobagu, Sulawesi Utara",SULAWESI UTARA,,Indonesia,,,,0.754887,1.243.142.844,https://maps.google.com/?cid=0x0:0x1d499d204c1c5eec,
perumahan,Komplek perumahan,Tyty house,"Q827+4QX, Biga, Kec. Kotamobagu Utara, Kota Kotamobagu, Sulawesi Utara","Kota Kotamobagu, Sulawesi Utara",SULAWESI UTARA,,Indonesia,,,,0.7486942,1.243.139.281,https://maps.google.com/?cid=0x0:0x1ea74c49cf6bfc3b,
perumahan,Komplek perumahan,Mac M Walalangi,"Jl. Ahmad Yani No.797, Kotamobagu, Kec. Kotamobagu Bar., Kota Kotamobagu, Sulawesi Utara 95716","Kotamobagu, Kec. Kotamobagu Bar., Kota Kotamobagu",SULAWESI UTARA,95716,Indonesia,,,,0.7457648,1.243.139.484,https://maps.google.com/?cid=0x0:0xffa4f0629f34d702,
perumahan,Perhimpunan Pengembang Perumahan,Biga Lorong Pende - LORPED,"P8XC+F5P, Biga, Kec. Kotamobagu Utara, Kota Kotamobagu, Sulawesi Utara","Kota Kotamobagu, Sulawesi Utara",SULAWESI UTARA,,Indonesia,81244787085.0,,,0.7487011,1.243.204.466,https://maps.google.com/?cid=0x0:0xf25cb65eb94201f3,
perumahan,perumahan,Kotamobagu,"Kota Kotamobagu, Sulawesi Utara","Kota Kotamobagu, Sulawesi Utara",SULAWESI UTARA,,Indonesia,,,,0.7243733,1.243.199.316,https://maps.google.com/?cid=0x0:0x4ef229e43465a95e,
perumahan,perumahan,Kec. Kotamobagu Utara,"Kota Kotamobagu, Sulawesi Utara","Kota Kotamobagu, Sulawesi Utara",SULAWESI UTARA,,Indonesia,,,,0.7535564,1.243.211.663,https://maps.google.com/?cid=0x0:0x8857be9cbc156ca2,
perumahan,perumahan,Lokasi,"Q827+7JW, Jl. Talenta, Genggulang, Kec. Kotamobagu Utara, Kota Kotamobagu, Sulawesi Utara","Kota Kotamobagu, Sulawesi Utara",SULAWESI UTARA,,Indonesia,,,,0.7507375,1.243.140.672,https://maps.google.com/?cid=0x0:0x39abc02eec63ee26,
perumahan,Pembangunan Perumahan,Perumahan Perbinda Mas,"P8XC+GHV, Biga, Kec. Kotamobagu Utara, Kota Kotamobagu, Sulawesi Utara","Kota Kotamobagu, Sulawesi Utara",SULAWESI UTARA,,Indonesia,,,,0.7488662,1.243.214.289,https://maps.google.com/?cid=0x0:0x5a2577f7c635b30a,
perumahan,perumahan,Kaligis_leng perbinda,"P8XC+8M8, Biga, Kec. Kotamobagu Utara, Kota Kotamobagu, Sulawesi Utara","Kota Kotamobagu, Sulawesi Utara",SULAWESI UTARA,,Indonesia,,,,0.7483989,1.243.217.209,https://maps.google.com/?cid=0x0:0xa62f0002f9452be8,
perumahan,Komplek perumahan,"Sulawesi Utara, Kotamobagu barat, gogagoman","P8Q4+8GR, Gogagoman, Kec. Kotamobagu Bar., Kota Kotamobagu, Sulawesi Utara","Kota Kotamobagu, Sulawesi Utara",SULAWESI UTARA,,Indonesia,,,,0.7383505,1.243.062.619,https://maps.google.com/?cid=0x0:0x894da1b2d4dbc87,
perumahan,Komplek perumahan,Rumah Warna Warni(Kukis Kota),"Jl. Diponegoro No.5, Biga, Kec. Kotamobagu Utara, Kota Kotamobagu, Sulawesi Utara","Kota Kotamobagu, Sulawesi Utara",SULAWESI UTARA,,Indonesia,,,,0.7513668,1.243.175.363,https://maps.google.com/?cid=0x0:0xa1ffc52dd061e076,
perumahan,Perhimpunan Pengembang Perumahan,Perumahan Tampang Indah. Perum Omrades,"P8V5+WXM, Gogagoman, Kec. Kotamobagu Bar., Kota Kotamobagu, Sulawesi Utara","Kota Kotamobagu, Sulawesi Utara",SULAWESI UTARA,,Indonesia,,,,0.7453566,1.243.098.238,https://maps.google.com/?cid=0x0:0xbf006de3ca19af02,
perumahan,Perumahan,Perum Griya Perwita Indah,"P895+8MP, Jl. Griya, Pobundayan, Kec. Kotamobagu Sel., Kota Kotamobagu, Sulawesi Utara","Kota Kotamobagu, Sulawesi Utara",SULAWESI UTARA,,Indonesia,,,,0.7183306,1.243.092.071,https://maps.google.com/?cid=0x0:0x42a66577c541df15,
perumahan,Komplek perumahan,Rumah Farhan Marto,"Unnamed Road, Pontodon, Kec. Kotamobagu Utara, Kota Kotamobagu, Sulawesi Utara","Kota Kotamobagu, Sulawesi Utara",SULAWESI UTARA,,Indonesia,85157995086.0,,,0.7593752,1.243.285.003,https://maps.google.com/?cid=0x0:0xb456eccfea1eab34,
perumahan,perumahan,"Yin"";P8W9+XPG, Biga, Kec. Kotamobagu Utara, Kota Kotamobagu, Sulawesi Utara""","Kota Kotamobagu, Sulawesi Utara",SULAWESI UTARA,,Indonesia,,,,0.747427,1.243.193.414,https://maps.google.com/?cid=0x0:0x448137c330722a9e,,
perumahan,Komplek perumahan,Karenina Montol,"Q859+FQ6, Pontodon, Kec. Kotamobagu Utara, Kota Kotamobagu, Sulawesi Utara","Kota Kotamobagu, Sulawesi Utara",SULAWESI UTARA,,Indonesia,,,,0.7586749,1.243.193.962,https://maps.google.com/?cid=0x0:0x5e3c31eeaf84098c,
perumahan,Komplek perumahan,Dinas Perumahan Rakyat dan Kawasan Permukiman Kota Kotamobagu,"Jl. Arief Rahman Hakim No.22, Biga, Kec. Kotamobagu Utara, Kota Kotamobagu, Sulawesi Utara 95711","Biga, Kec. Kotamobagu Utara, Kota Kotamobagu",SULAWESI UTARA,95711,Indonesia,,,,0.7457382,1.243.172.583,https://maps.google.com/?cid=0x0:0x18858d6ebc983288,
perumahan,Komplek perumahan,Lorong Talenta Biga,"Q827+4QX, Biga, Kec. Kotamobagu Utara, Kota Kotamobagu, Sulawesi Utara","Kota Kotamobagu, Sulawesi Utara",SULAWESI UTARA,,Indonesia,,,,0.7497005,1.243.140.397,https://maps.google.com/?cid=0x0:0xfafcb6d87e6171f8,
perumahan,Komplek perumahan,Rumah dini,"Q87G+95, Pontodon Tim., Kec. Kotamobagu Utara, Kota Kotamobagu, Sulawesi Utara","Kota Kotamobagu, Sulawesi Utara",SULAWESI UTARA,,Indonesia,,,,0.7634843,1.243.254.071,https://maps.google.com/?cid=0x0:0x8d0d6c8749740ab,
perumahan,Pembangunan Perumahan,Perumahan Griya Permata Indah Kotamobagu,"M7WX+MMX, Jl. Raya Bubak, Bungko, Kec. Kotamobagu Sel., Kota Kotamobagu, Sulawesi Utara 95717","Jl. Raya Bubak, Bungko, Kec. Kotamobagu Sel., Kota Kotamobagu",SULAWESI UTARA,95717,Indonesia,81340134303.0,,,0.6961728,1.243.010.888,https://maps.google.com/?cid=0x0:0x4d61fbd4fe01e498,
perumahan,Komplek perumahan,Rumah Tinggal,"Q849+2XR, Jl. A.P. Mokoginta, Upai, Kec. Kotamobagu Utara, Kota Kotamobagu, Sulawesi Utara","Kota Kotamobagu, Sulawesi Utara",SULAWESI UTARA,,Indonesia,,,,0.7551095,1.243.198.807,https://maps.google.com/?cid=0x0:0x657fd327943be6be,
perumahan,Pengembang Realestat,Tanah,"Q837+566, Genggulang, Kec. Kotamobagu Utara, Kota Kotamobagu, Sulawesi Utara","Kota Kotamobagu, Sulawesi Utara",SULAWESI UTARA,,Indonesia,,,,0.7528977,1.243.129.894,https://maps.google.com/?cid=0x0:0x980811459e34b46c,
perumahan,Komplek perumahan,Rumah ella,"Q87G+95, Pontodon Tim., Kec. Kotamobagu Utara, Kota Kotamobagu, Sulawesi Utara","Kota Kotamobagu, Sulawesi Utara",SULAWESI UTARA,,Indonesia,,,,0.763204,12.432.539,https://maps.google.com/?cid=0x0:0xc96e4bea71aeafa6,
perumahan,Komplek perumahan,Rumah mama sopia/Baai Abyan,"Q856+V57, Bilalang Satu, Kec. Kotamobagu Utara, Kota Kotamobagu, Sulawesi Utara","Kota Kotamobagu, Sulawesi Utara",SULAWESI UTARA,,Indonesia,,,,0.7596544,1.243.104.149,https://maps.google.com/?cid=0x0:0xfde7f4769a2cabeb,
perumahan,Komplek perumahan,Rumah Tinggal,"P8V8+8PX, Jl. Gelora Togop, Kotamobagu, Kec. Kotamobagu Bar., Kota Kotamobagu, Sulawesi Utara","Kota Kotamobagu, Sulawesi Utara",SULAWESI UTARA,,Indonesia,,,,0.7433548,1.243.168.633,https://maps.google.com/?cid=0x0:0xdb68d9f371f4aff7,
perumahan,Komplek perumahan,Lorong kemuning rt 02,"P8V6+F36, Gogagoman, Kec. Kotamobagu Bar., Kota Kotamobagu, Sulawesi Utara 95716","Gogagoman, Kec. Kotamobagu Bar., Kota Kotamobagu",SULAWESI UTARA,95716,Indonesia,,,,0.7436664,1.243.101.316,https://maps.google.com/?cid=0x0:0x5ffe317a882fc7ee,
perumahan,Komplek perumahan,Jenni's House User Luo Yi,"P8W8+XFQ, Biga, Kec. Kotamobagu Utara, Kota Kotamobagu, Sulawesi Utara 95716","Biga, Kec. Kotamobagu Utara, Kota Kotamobagu",SULAWESI UTARA,95716,Indonesia,,,,0.7474689,1.243.162.418,https://maps.google.com/?cid=0x0:0xb8b07539d6eb3126,
perumahan,Komplek perumahan,Rumah Baai Siti,"Jl. Piere Tendean No.25, Gogagoman, Kec. Kotamobagu Bar., Kota Kotamobagu, Sulawesi Utara","Kota Kotamobagu, Sulawesi Utara",SULAWESI UTARA,,Indonesia,,,,0.746144,124.306.231,https://maps.google.com/?cid=0x0:0x9af0bc89a2681978,
perumahan,Komplek perumahan,Serly Home,"Q868+382, Bilalang Dua, Kec. Kotamobagu Utara, Kota Kotamobagu, Sulawesi Utara","Kota Kotamobagu, Sulawesi Utara",SULAWESI UTARA,,Indonesia,,,,0.7601476,1.243.157.637,https://maps.google.com/?cid=0x0:0x560ea33c083741a2,
perumahan,Komplek perumahan,Anen house,"Q827+VW8, Genggulang, Kec. Kotamobagu Utara, Kota Kotamobagu, Sulawesi Utara","Kota Kotamobagu, Sulawesi Utara",SULAWESI UTARA,,Indonesia,,,,0.7521743,1.243.148.357,https://maps.google.com/?cid=0x0:0x6e75cc740bf6c0a6,
perumahan,Pembangunan Perumahan,Faiz inayah paino (k'en mita),"Q86C+38M, Pontodon, Kec. Kotamobagu Utara, Kota Kotamobagu, Sulawesi Utara","Kota Kotamobagu, Sulawesi Utara",SULAWESI UTARA,,Indonesia,,,,0.7601867,1.243.208.714,https://maps.google.com/?cid=0x0:0x32823a84abf79796,
