Category;Real Category;Business Name;Address;City;State;Postal Code;Country;Phone;Latitude;Longitude;Map Link
"mall";"mall";"Aceh 23611";"Kec. Johan Pahlawan, Kabupaten Aceh Barat, Aceh";"Kabupaten Aceh Barat, Aceh";"ACEH";"";"Indonesia";"";"4.193957";"96.1261925";"https://maps.google.com/?cid=0x0:0xa5883fcf3488a614"
"mall";"Toko bahan makanan";"Tamini.co";"Jl. Gajah Mada No.1A, Drien Rampak, Kec. Johan Pahlawan, Kabupaten Aceh Barat, Aceh 23617";"Drien Rampak, Kec. Johan Pahlawan, Kabupaten Aceh Barat";"ACEH";"23617";"Indonesia";" 085362117694";"4.1531517";"96.1312331";"https://maps.google.com/?cid=0x0:0x5a12dbb8d74e11bf"
"mall";"Toko";"Suzuya Mall Meulaboh";"Jl. Nasional, Ujung Kalak, Kec. Johan Pahlawan, Kabupaten Aceh Barat, Aceh 23613";"Ujung Kalak, Kec. Johan Pahlawan, Kabupaten Aceh Barat";"ACEH";"23613";"Indonesia";"";"4.1446322";"96.1290008";"https://maps.google.com/?cid=0x0:0x3a4e5173a3751571"
"mall";"Pusat Perbelanjaan";"DAKOTA CELL by RETRO";"Ujong Baroh, Kec. Johan Pahlawan, Kabupaten Aceh Barat, Aceh 23611";"Kec. Johan Pahlawan, Kabupaten Aceh Barat";"ACEH";"23611";"Indonesia";" 082360154545";"4.153085";"96.1266123";"https://maps.google.com/?cid=0x0:0xd468308ce1c72fab"
"mall";"Pusat Perbelanjaan";"Bc HNI MEULABOH";"544F+WW3, Drien Rampak, Kec. Johan Pahlawan, Kabupaten Aceh Barat, Aceh 23611";"Drien Rampak, Kec. Johan Pahlawan, Kabupaten Aceh Barat";"ACEH";"23611";"Indonesia";" 08116854141";"4.1572539";"96.1248116";"https://maps.google.com/?cid=0x0:0xc5799a428d6d01ca"
"mall";"Toko bahan makanan";"Halal Mart Stock Center (SC) Meulaboh";"546H+C28, Drien Rampak, Kec. Johan Pahlawan, Kabupaten Aceh Barat, Aceh 23616";"Drien Rampak, Kec. Johan Pahlawan, Kabupaten Aceh Barat";"ACEH";"23616";"Indonesia";"";"4.1610456";"96.1275883";"https://maps.google.com/?cid=0x0:0x99206aeb1a7a7812"
"mall";"Toko Herbal";"hni-hpai cab. meulaboh";"544G+G7G, Jl. Bakti Pemuda, Drien Rampak, Kec. Johan Pahlawan, Kabupaten Aceh Barat, Aceh 23611";"Jl. Bakti Pemuda, Drien Rampak, Kec. Johan Pahlawan, Kabupaten Aceh Barat";"ACEH";"23611";"Indonesia";" 085358301038";"4.1563217";"96.1257013";"https://maps.google.com/?cid=0x0:0x2f849cd339d13264"
"mall";"Toko Swalayan";"Depot Air Minum Mineral";"54FP+6HF, Jl. Sisingamangaraja, Lapang, Kec. Johan Pahlawan, Kabupaten Aceh Barat, Aceh 23611";"Jl. Sisingamangaraja, Lapang, Kec. Johan Pahlawan, Kabupaten Aceh Barat";"ACEH";"23611";"Indonesia";"";"4.1730519";"96.1364101";"https://maps.google.com/?cid=0x0:0x332493faf878f79c"
"mall";"Toko";"Toko cahaya bulan";"Jl. Singgah Mata, Ujong Baroh, Kec. Johan Pahlawan, Kabupaten Aceh Barat, Aceh 23681";"Ujong Baroh, Kec. Johan Pahlawan, Kabupaten Aceh Barat";"ACEH";"23681";"Indonesia";" 085370106717";"4.1463984";"96.1276054";"https://maps.google.com/?cid=0x0:0x1755c10db38e5a86"
"mall";"Toko";"Jazirah Meulaboh";"Jl. Nasional, Rundeng, Kec. Johan Pahlawan, Kabupaten Aceh Barat, Aceh 23681";"Rundeng, Kec. Johan Pahlawan, Kabupaten Aceh Barat";"ACEH";"23681";"Indonesia";" 082168219770";"4.1510197";"96.1337569";"https://maps.google.com/?cid=0x0:0x40b7b582affb6342"
"mall";"Pusat Bisnis";"mogis.clorist";"545G+4JH, Jl. Domba, Drien Rampak, Kec. Johan Pahlawan, Kabupaten Aceh Barat, Aceh 23611";"Jl. Domba, Drien Rampak, Kec. Johan Pahlawan, Kabupaten Aceh Barat";"ACEH";"23611";"Indonesia";" 082274448809";"4.1578216";"96.1265977";"https://maps.google.com/?cid=0x0:0xac02b4657e680b28"
"mall";"Toserba";"Toko sahabat";"44XF+XWR, Jl. Singgah Mata, Kuta Padang, Kec. Johan Pahlawan, Kabupaten Aceh Barat, Aceh 23612";"Jl. Singgah Mata, Kuta Padang, Kec. Johan Pahlawan, Kabupaten Aceh Barat";"ACEH";"23612";"Indonesia";"";"4.149978";"96.124762";"https://maps.google.com/?cid=0x0:0x9e159d0f0733e05a"
"mall";"Pasar";"Pasar Raya Meulaboh";"tpi, Jl. Nasional, Ujong Baroh, Kec. Johan Pahlawan, Kabupaten Aceh Barat, Aceh 23681";"Jl. Nasional, Ujong Baroh, Kec. Johan Pahlawan, Kabupaten Aceh Barat";"ACEH";"23681";"Indonesia";"";"4.1454691";"96.1295936";"https://maps.google.com/?cid=0x0:0xbbf1067c38bf0e0b"
"mall";"Pusat Perbelanjaan";"Zam-Zam Store";"543J+GJQ, Meulaboh, Drien Rampak, Kec. Johan Pahlawan, Kabupaten Aceh Barat, Aceh 23611";"Meulaboh, Drien Rampak, Kec. Johan Pahlawan, Kabupaten Aceh Barat";"ACEH";"23611";"Indonesia";" 08126936288";"4.1538327";"96.1316248";"https://maps.google.com/?cid=0x0:0x4c92e7559d352b9c"
"mall";"mall";"Aceh 23612";"Kec. Johan Pahlawan, Kabupaten Aceh Barat, Aceh";"Kabupaten Aceh Barat, Aceh";"ACEH";"";"Indonesia";"";"4.1507206";"96.1182429";"https://maps.google.com/?cid=0x0:0x2c0ec8e782c3eb0"
"mall";"Toko bahan makanan";"Tamini.co";"Jl. Gajah Mada No.1A, Drien Rampak, Kec. Johan Pahlawan, Kabupaten Aceh Barat, Aceh 23617";"Drien Rampak, Kec. Johan Pahlawan, Kabupaten Aceh Barat";"ACEH";"23617";"Indonesia";" 085362117694";"4.1531517";"96.1312331";"https://maps.google.com/?cid=0x0:0x5a12dbb8d74e11bf"
"mall";"Toko";"Suzuya Mall Meulaboh";"Jl. Nasional, Ujung Kalak, Kec. Johan Pahlawan, Kabupaten Aceh Barat, Aceh 23613";"Ujung Kalak, Kec. Johan Pahlawan, Kabupaten Aceh Barat";"ACEH";"23613";"Indonesia";"";"4.1446322";"96.1290008";"https://maps.google.com/?cid=0x0:0x3a4e5173a3751571"
"mall";"Pusat Perbelanjaan";"DAKOTA CELL by RETRO";"Ujong Baroh, Kec. Johan Pahlawan, Kabupaten Aceh Barat, Aceh 23611";"Kec. Johan Pahlawan, Kabupaten Aceh Barat";"ACEH";"23611";"Indonesia";" 082360154545";"4.153085";"96.1266123";"https://maps.google.com/?cid=0x0:0xd468308ce1c72fab"
"mall";"Pusat Perbelanjaan";"Bc HNI MEULABOH";"544F+WW3, Drien Rampak, Kec. Johan Pahlawan, Kabupaten Aceh Barat, Aceh 23611";"Drien Rampak, Kec. Johan Pahlawan, Kabupaten Aceh Barat";"ACEH";"23611";"Indonesia";" 08116854141";"4.1572539";"96.1248116";"https://maps.google.com/?cid=0x0:0xc5799a428d6d01ca"
"mall";"Pusat Perbelanjaan";"Harapan Jaya";"44VH+4VR, Jl. Teuku Chik Ali Akbar, Ujong Baroh, Kec. Johan Pahlawan, Kabupaten Aceh Barat, Aceh 23681";"Jl. Teuku Chik Ali Akbar, Ujong Baroh, Kec. Johan Pahlawan, Kabupaten Aceh Barat";"ACEH";"23681";"Indonesia";" 085270966977";"4.1428627";"96.1296364";"https://maps.google.com/?cid=0x0:0x8149c1e4c9336944"
"mall";"Toko";"Toko cahaya bulan";"Jl. Singgah Mata, Ujong Baroh, Kec. Johan Pahlawan, Kabupaten Aceh Barat, Aceh 23681";"Ujong Baroh, Kec. Johan Pahlawan, Kabupaten Aceh Barat";"ACEH";"23681";"Indonesia";" 085370106717";"4.1463984";"96.1276054";"https://maps.google.com/?cid=0x0:0x1755c10db38e5a86"
"mall";"Pasar";"Komplek Pasar Bina Usaha";"44VH+JP2, Ujong Baroh, Kec. Johan Pahlawan, Kabupaten Aceh Barat, Aceh 23681";"Ujong Baroh, Kec. Johan Pahlawan, Kabupaten Aceh Barat";"ACEH";"23681";"Indonesia";"";"4.1440169";"96.1292648";"https://maps.google.com/?cid=0x0:0x297302c5f23de811"
"mall";"Toko";"TOKO HERO";"542G+J59, Jl. Manek Roo, Ujong Baroh, Kec. Johan Pahlawan, Kabupaten Aceh Barat, Aceh 23612";"Jl. Manek Roo, Ujong Baroh, Kec. Johan Pahlawan, Kabupaten Aceh Barat";"ACEH";"23612";"Indonesia";"";"4.1515475";"96.1254945";"https://maps.google.com/?cid=0x0:0xd9c1a48c7bfae83f"
"mall";"Toko";"Toko Jp Sepakat Interior";"44WG+PVF, Kuta Padang, Kec. Johan Pahlawan, Kabupaten Aceh Barat, Aceh 23681";"Kuta Padang, Kec. Johan Pahlawan, Kabupaten Aceh Barat";"ACEH";"23681";"Indonesia";" 082274401115";"4.1468019";"96.1271742";"https://maps.google.com/?cid=0x0:0x2b210b5c5b7eb7eb"
"mall";"Pusat Perbelanjaan";"Jasa Pratama Meulaboh";"44RG+RX6, Jl. Teuku Umar, Ujung Kalak, Kec. Johan Pahlawan, Kabupaten Aceh Barat, Aceh 23681";"Jl. Teuku Umar, Ujung Kalak, Kec. Johan Pahlawan, Kabupaten Aceh Barat";"ACEH";"23681";"Indonesia";"";"4.1420265";"96.1274052";"https://maps.google.com/?cid=0x0:0x467fbb47d25c40ad"
"mall";"Toko";"Jazirah Meulaboh";"Jl. Nasional, Rundeng, Kec. Johan Pahlawan, Kabupaten Aceh Barat, Aceh 23681";"Rundeng, Kec. Johan Pahlawan, Kabupaten Aceh Barat";"ACEH";"23681";"Indonesia";" 082168219770";"4.1510197";"96.1337569";"https://maps.google.com/?cid=0x0:0x40b7b582affb6342"
"mall";"Pusat Perbelanjaan";"JS_GALLERY OLSHOP";"44XH+JF4, Jl. Cut Meutia, Ujong Baroh, Kec. Johan Pahlawan, Kabupaten Aceh Barat, Aceh 23681";"Jl. Cut Meutia, Ujong Baroh, Kec. Johan Pahlawan, Kabupaten Aceh Barat";"ACEH";"23681";"Indonesia";" 085261950064";"4.1490157";"96.1286958";"https://maps.google.com/?cid=0x0:0x3401644ac65d5c68"
"mall";"Pusat Perbelanjaan";"ELFAZZA STORE";"542J+4HP, Jl. Swadaya, Drien Rampak, Kec. Johan Pahlawan, Kabupaten Aceh Barat, Aceh 23681";"Jl. Swadaya, Drien Rampak, Kec. Johan Pahlawan, Kabupaten Aceh Barat";"ACEH";"23681";"Indonesia";" 085277578020";"4.1503451";"96.1314522";"https://maps.google.com/?cid=0x0:0x95b8d5942f25e887"
"mall";"mall";"Aceh 23613";"Kec. Johan Pahlawan, Kabupaten Aceh Barat, Aceh";"Kabupaten Aceh Barat, Aceh";"ACEH";"";"Indonesia";"";"4.1496011";"96.0983734";"https://maps.google.com/?cid=0x0:0x9801922fff087058"
"mall";"Toko";"Suzuya Mall Meulaboh";"Jl. Nasional, Ujung Kalak, Kec. Johan Pahlawan, Kabupaten Aceh Barat, Aceh 23613";"Ujung Kalak, Kec. Johan Pahlawan, Kabupaten Aceh Barat";"ACEH";"23613";"Indonesia";"";"4.1446322";"96.1290008";"https://maps.google.com/?cid=0x0:0x3a4e5173a3751571"
"mall";"Toko bahan makanan";"Tamini.co";"Jl. Gajah Mada No.1A, Drien Rampak, Kec. Johan Pahlawan, Kabupaten Aceh Barat, Aceh 23617";"Drien Rampak, Kec. Johan Pahlawan, Kabupaten Aceh Barat";"ACEH";"23617";"Indonesia";" 085362117694";"4.1531517";"96.1312331";"https://maps.google.com/?cid=0x0:0x5a12dbb8d74e11bf"
"mall";"Toko Ponsel";"I-CELL 3";"543J+QC4, Drien Rampak, Kec. Johan Pahlawan, Kabupaten Aceh Barat, Aceh 23611";"Drien Rampak, Kec. Johan Pahlawan, Kabupaten Aceh Barat";"ACEH";"23611";"Indonesia";" 082162012378";"4.1543919";"96.1310692";"https://maps.google.com/?cid=0x0:0xfebb0af2ea22b9ad"
"mall";"Pusat Perbelanjaan";"ELFAZZA STORE";"542J+4HP, Jl. Swadaya, Drien Rampak, Kec. Johan Pahlawan, Kabupaten Aceh Barat, Aceh 23681";"Jl. Swadaya, Drien Rampak, Kec. Johan Pahlawan, Kabupaten Aceh Barat";"ACEH";"23681";"Indonesia";" 085277578020";"4.1503451";"96.1314522";"https://maps.google.com/?cid=0x0:0x95b8d5942f25e887"
"mall";"Pusat Bisnis";"mogis.clorist";"545G+4JH, Jl. Domba, Drien Rampak, Kec. Johan Pahlawan, Kabupaten Aceh Barat, Aceh 23611";"Jl. Domba, Drien Rampak, Kec. Johan Pahlawan, Kabupaten Aceh Barat";"ACEH";"23611";"Indonesia";" 082274448809";"4.1578216";"96.1265977";"https://maps.google.com/?cid=0x0:0xac02b4657e680b28"
"mall";"Pusat Perbelanjaan";"Suzuya Mall Banda Aceh";"Jl. Teuku Umar, Lamtemen Tim., Kec. Jaya Baru, Kota Banda Aceh, Aceh 23232";"Lamtemen Tim., Kec. Jaya Baru, Kota Banda Aceh";"ACEH";"23232";"Indonesia";" 06518011022";"5.5377324";"95.3068005";"https://maps.google.com/?cid=0x0:0xc5c56efc74442dea"
"mall";"Toko";"Toko ADM";"44VM+M5P, Jl. Teuku Chik Ali Akbar, Rundeng, Kec. Johan Pahlawan, Kabupaten Aceh Barat, Aceh 23681";"Jl. Teuku Chik Ali Akbar, Rundeng, Kec. Johan Pahlawan, Kabupaten Aceh Barat";"ACEH";"23681";"Indonesia";" 085361274206";"4.1442038";"96.1329544";"https://maps.google.com/?cid=0x0:0x99f92b4b90ba373e"
"mall";"Pusat Perbelanjaan";"Plaza Aceh";"Jl. T. Hasan Dek Jl. Teuku Iskandar No.49, Beurawe, Kec. Kuta Alam, Kota Banda Aceh, Aceh 23127";"Beurawe, Kec. Kuta Alam, Kota Banda Aceh";"ACEH";"23127";"Indonesia";" 08116899890";"5.5547881";"95.3308683";"https://maps.google.com/?cid=0x0:0x45c9eb2ec9e62a76"
"mall";"Pusat Perbelanjaan";"HABIL";"44VJ+54H, Ujong Baroh, Kec. Johan Pahlawan, Kabupaten Aceh Barat, Aceh 23681";"Ujong Baroh, Kec. Johan Pahlawan, Kabupaten Aceh Barat";"ACEH";"23681";"Indonesia";" 08527770737";"4.1429458";"96.130374";"https://maps.google.com/?cid=0x0:0xaded44e0380b0dbd"
"mall";"Pusat Perbelanjaan";"Gerai_Finzy";"54JH+FGG, Lapang, Kec. Johan Pahlawan, Kabupaten Aceh Barat, Aceh 23618";"Lapang, Kec. Johan Pahlawan, Kabupaten Aceh Barat";"ACEH";"23618";"Indonesia";" 085260974836";"4.1811979";"96.1288426";"https://maps.google.com/?cid=0x0:0xd3f1d674416b84cc"
"mall";"Pusat Perbelanjaan";"Jasa Pratama Meulaboh";"44RG+RX6, Jl. Teuku Umar, Ujung Kalak, Kec. Johan Pahlawan, Kabupaten Aceh Barat, Aceh 23681";"Jl. Teuku Umar, Ujung Kalak, Kec. Johan Pahlawan, Kabupaten Aceh Barat";"ACEH";"23681";"Indonesia";"";"4.1420265";"96.1274052";"https://maps.google.com/?cid=0x0:0x467fbb47d25c40ad"
"mall";"mall";"Aceh 23614";"Kec. Johan Pahlawan, Kabupaten Aceh Barat, Aceh";"Kabupaten Aceh Barat, Aceh";"ACEH";"";"Indonesia";"";"4.1572395";"96.0983734";"https://maps.google.com/?cid=0x0:0xb8e25ed660b8aa81"
"mall";"Toko";"Suzuya Mall Meulaboh";"Jl. Nasional, Ujung Kalak, Kec. Johan Pahlawan, Kabupaten Aceh Barat, Aceh 23613";"Ujung Kalak, Kec. Johan Pahlawan, Kabupaten Aceh Barat";"ACEH";"23613";"Indonesia";"";"4.1446322";"96.1290008";"https://maps.google.com/?cid=0x0:0x3a4e5173a3751571"
"mall";"Toko bahan makanan";"Tamini.co";"Jl. Gajah Mada No.1A, Drien Rampak, Kec. Johan Pahlawan, Kabupaten Aceh Barat, Aceh 23617";"Drien Rampak, Kec. Johan Pahlawan, Kabupaten Aceh Barat";"ACEH";"23617";"Indonesia";" 085362117694";"4.1531517";"96.1312331";"https://maps.google.com/?cid=0x0:0x5a12dbb8d74e11bf"
"mall";"Pusat Perbelanjaan";"ELFAZZA STORE";"542J+4HP, Jl. Swadaya, Drien Rampak, Kec. Johan Pahlawan, Kabupaten Aceh Barat, Aceh 23681";"Jl. Swadaya, Drien Rampak, Kec. Johan Pahlawan, Kabupaten Aceh Barat";"ACEH";"23681";"Indonesia";" 085277578020";"4.1503451";"96.1314522";"https://maps.google.com/?cid=0x0:0x95b8d5942f25e887"
"mall";"Pusat Bisnis";"mogis.clorist";"545G+4JH, Jl. Domba, Drien Rampak, Kec. Johan Pahlawan, Kabupaten Aceh Barat, Aceh 23611";"Jl. Domba, Drien Rampak, Kec. Johan Pahlawan, Kabupaten Aceh Barat";"ACEH";"23611";"Indonesia";" 082274448809";"4.1578216";"96.1265977";"https://maps.google.com/?cid=0x0:0xac02b4657e680b28"
"mall";"Pusat Perbelanjaan";"Suzuya Mall Banda Aceh";"Jl. Teuku Umar, Lamtemen Tim., Kec. Jaya Baru, Kota Banda Aceh, Aceh 23232";"Lamtemen Tim., Kec. Jaya Baru, Kota Banda Aceh";"ACEH";"23232";"Indonesia";" 06518011022";"5.5377324";"95.3068005";"https://maps.google.com/?cid=0x0:0xc5c56efc74442dea"
"mall";"Pusat Perbelanjaan";"POBIE ACC";"Ujong Baroh, Kec. Johan Pahlawan, Kabupaten Aceh Barat, Aceh";"Kabupaten Aceh Barat, Aceh";"ACEH";"";"Indonesia";" 082335358832";"4.1484805";"96.131815";"https://maps.google.com/?cid=0x0:0x63a169535705297"
"mall";"Pusat Perbelanjaan";"Plaza Aceh";"Jl. T. Hasan Dek Jl. Teuku Iskandar No.49, Beurawe, Kec. Kuta Alam, Kota Banda Aceh, Aceh 23127";"Beurawe, Kec. Kuta Alam, Kota Banda Aceh";"ACEH";"23127";"Indonesia";" 08116899890";"5.5547881";"95.3308683";"https://maps.google.com/?cid=0x0:0x45c9eb2ec9e62a76"
"mall";"Pusat Perbelanjaan";"Gerai_Finzy";"54JH+FGG, Lapang, Kec. Johan Pahlawan, Kabupaten Aceh Barat, Aceh 23618";"Lapang, Kec. Johan Pahlawan, Kabupaten Aceh Barat";"ACEH";"23618";"Indonesia";" 085260974836";"4.1811979";"96.1288426";"https://maps.google.com/?cid=0x0:0xd3f1d674416b84cc"
"mall";"Toko";"Toko ADM";"44VM+M5P, Jl. Teuku Chik Ali Akbar, Rundeng, Kec. Johan Pahlawan, Kabupaten Aceh Barat, Aceh 23681";"Jl. Teuku Chik Ali Akbar, Rundeng, Kec. Johan Pahlawan, Kabupaten Aceh Barat";"ACEH";"23681";"Indonesia";" 085361274206";"4.1442038";"96.1329544";"https://maps.google.com/?cid=0x0:0x99f92b4b90ba373e"
"mall";"Pusat Perbelanjaan";"HABIL";"44VJ+54H, Ujong Baroh, Kec. Johan Pahlawan, Kabupaten Aceh Barat, Aceh 23681";"Ujong Baroh, Kec. Johan Pahlawan, Kabupaten Aceh Barat";"ACEH";"23681";"Indonesia";" 08527770737";"4.1429458";"96.130374";"https://maps.google.com/?cid=0x0:0xaded44e0380b0dbd"
"mall";"Pusat Perbelanjaan";"Jasa Pratama Meulaboh";"44RG+RX6, Jl. Teuku Umar, Ujung Kalak, Kec. Johan Pahlawan, Kabupaten Aceh Barat, Aceh 23681";"Jl. Teuku Umar, Ujung Kalak, Kec. Johan Pahlawan, Kabupaten Aceh Barat";"ACEH";"23681";"Indonesia";"";"4.1420265";"96.1274052";"https://maps.google.com/?cid=0x0:0x467fbb47d25c40ad"
"mall";"Pasar";"Pasar Raya Meulaboh";"tpi, Jl. Nasional, Ujong Baroh, Kec. Johan Pahlawan, Kabupaten Aceh Barat, Aceh 23681";"Jl. Nasional, Ujong Baroh, Kec. Johan Pahlawan, Kabupaten Aceh Barat";"ACEH";"23681";"Indonesia";"";"4.1454691";"96.1295936";"https://maps.google.com/?cid=0x0:0xbbf1067c38bf0e0b"
"mall";"Pusat Perbelanjaan";"Harapan Jaya";"44VH+4VR, Jl. Teuku Chik Ali Akbar, Ujong Baroh, Kec. Johan Pahlawan, Kabupaten Aceh Barat, Aceh 23681";"Jl. Teuku Chik Ali Akbar, Ujong Baroh, Kec. Johan Pahlawan, Kabupaten Aceh Barat";"ACEH";"23681";"Indonesia";" 085270966977";"4.1428627";"96.1296364";"https://maps.google.com/?cid=0x0:0x8149c1e4c9336944"
"mall";"mall";"Aceh 23615";"Kec. Johan Pahlawan, Kabupaten Aceh Barat, Aceh";"Kabupaten Aceh Barat, Aceh";"ACEH";"";"Indonesia";"";"4.1622709";"96.1063204";"https://maps.google.com/?cid=0x0:0xd2bf3e0b78ba4037"
"mall";"Toko";"Suzuya Mall Meulaboh";"Jl. Nasional, Ujung Kalak, Kec. Johan Pahlawan, Kabupaten Aceh Barat, Aceh 23613";"Ujung Kalak, Kec. Johan Pahlawan, Kabupaten Aceh Barat";"ACEH";"23613";"Indonesia";"";"4.1446322";"96.1290008";"https://maps.google.com/?cid=0x0:0x3a4e5173a3751571"
"mall";"Toko bahan makanan";"Tamini.co";"Jl. Gajah Mada No.1A, Drien Rampak, Kec. Johan Pahlawan, Kabupaten Aceh Barat, Aceh 23617";"Drien Rampak, Kec. Johan Pahlawan, Kabupaten Aceh Barat";"ACEH";"23617";"Indonesia";" 085362117694";"4.1531517";"96.1312331";"https://maps.google.com/?cid=0x0:0x5a12dbb8d74e11bf"
"mall";"Pusat Perbelanjaan";"Gerai_Finzy";"54JH+FGG, Lapang, Kec. Johan Pahlawan, Kabupaten Aceh Barat, Aceh 23618";"Lapang, Kec. Johan Pahlawan, Kabupaten Aceh Barat";"ACEH";"23618";"Indonesia";" 085260974836";"4.1811979";"96.1288426";"https://maps.google.com/?cid=0x0:0xd3f1d674416b84cc"
"mall";"Kantor Pemerintah";"Kantor Camat Johan Pahlawan";"44XH+4WQ, Ujong Baroh, Kec. Johan Pahlawan, Kabupaten Aceh Barat, Aceh 23681";"Ujong Baroh, Kec. Johan Pahlawan, Kabupaten Aceh Barat";"ACEH";"23681";"Indonesia";" 06557551872";"4.147842";"96.1298699";"https://maps.google.com/?cid=0x0:0x58973b48b7358851"
"mall";"Minimarket";"TOKO RIZKI ANANDA";"Jl. Meulaboh - Banda Aceh, Seuneubok, Kec. Johan Pahlawan, Kabupaten Aceh Barat, Aceh 23617";"Seuneubok, Kec. Johan Pahlawan, Kabupaten Aceh Barat";"ACEH";"23617";"Indonesia";"";"4.1714695";"96.1135564";"https://maps.google.com/?cid=0x0:0xd1db0829c46c0a4a"
"mall";"Pusat Perbelanjaan";"ZAHWA SuperMarket  Dept Store";"548M+629, Gampa, Kec. Johan Pahlawan, Kabupaten Aceh Barat, Aceh 23611";"Gampa, Kec. Johan Pahlawan, Kabupaten Aceh Barat";"ACEH";"23611";"Indonesia";"";"4.1655405";"96.1326012";"https://maps.google.com/?cid=0x0:0xa76f84b5a7d72faf"
"mall";"Pusat Perbelanjaan";"Bc HNI MEULABOH";"544F+WW3, Drien Rampak, Kec. Johan Pahlawan, Kabupaten Aceh Barat, Aceh 23611";"Drien Rampak, Kec. Johan Pahlawan, Kabupaten Aceh Barat";"ACEH";"23611";"Indonesia";" 08116854141";"4.1572539";"96.1248116";"https://maps.google.com/?cid=0x0:0xc5799a428d6d01ca"
"mall";"Pusat Perbelanjaan";"DAKOTA CELL by RETRO";"Ujong Baroh, Kec. Johan Pahlawan, Kabupaten Aceh Barat, Aceh 23611";"Kec. Johan Pahlawan, Kabupaten Aceh Barat";"ACEH";"23611";"Indonesia";" 082360154545";"4.153085";"96.1266123";"https://maps.google.com/?cid=0x0:0xd468308ce1c72fab"
"mall";"Toko bahan makanan";"Halal Mart Stock Center (SC) Meulaboh";"546H+C28, Drien Rampak, Kec. Johan Pahlawan, Kabupaten Aceh Barat, Aceh 23616";"Drien Rampak, Kec. Johan Pahlawan, Kabupaten Aceh Barat";"ACEH";"23616";"Indonesia";"";"4.1610456";"96.1275883";"https://maps.google.com/?cid=0x0:0x99206aeb1a7a7812"
"mall";"Toko";"Jazirah Meulaboh";"Jl. Nasional, Rundeng, Kec. Johan Pahlawan, Kabupaten Aceh Barat, Aceh 23681";"Rundeng, Kec. Johan Pahlawan, Kabupaten Aceh Barat";"ACEH";"23681";"Indonesia";" 082168219770";"4.1510197";"96.1337569";"https://maps.google.com/?cid=0x0:0x40b7b582affb6342"
"mall";"Pasar";"Pasar Raya Meulaboh";"tpi, Jl. Nasional, Ujong Baroh, Kec. Johan Pahlawan, Kabupaten Aceh Barat, Aceh 23681";"Jl. Nasional, Ujong Baroh, Kec. Johan Pahlawan, Kabupaten Aceh Barat";"ACEH";"23681";"Indonesia";"";"4.1454691";"96.1295936";"https://maps.google.com/?cid=0x0:0xbbf1067c38bf0e0b"
"mall";"Toko";"Toko Jp Sepakat Interior";"44WG+PVF, Kuta Padang, Kec. Johan Pahlawan, Kabupaten Aceh Barat, Aceh 23681";"Kuta Padang, Kec. Johan Pahlawan, Kabupaten Aceh Barat";"ACEH";"23681";"Indonesia";" 082274401115";"4.1468019";"96.1271742";"https://maps.google.com/?cid=0x0:0x2b210b5c5b7eb7eb"
"mall";"Toko";"Toko cahaya bulan";"Jl. Singgah Mata, Ujong Baroh, Kec. Johan Pahlawan, Kabupaten Aceh Barat, Aceh 23681";"Ujong Baroh, Kec. Johan Pahlawan, Kabupaten Aceh Barat";"ACEH";"23681";"Indonesia";" 085370106717";"4.1463984";"96.1276054";"https://maps.google.com/?cid=0x0:0x1755c10db38e5a86"
"mall";"mall";"Aceh 23616";"Kec. Johan Pahlawan, Kabupaten Aceh Barat, Aceh";"Kabupaten Aceh Barat, Aceh";"ACEH";"";"Indonesia";"";"4.1620859";"96.1301677";"https://maps.google.com/?cid=0x0:0xe0be7a42827f0eb0"
"mall";"Toko bahan makanan";"Tamini.co";"Jl. Gajah Mada No.1A, Drien Rampak, Kec. Johan Pahlawan, Kabupaten Aceh Barat, Aceh 23617";"Drien Rampak, Kec. Johan Pahlawan, Kabupaten Aceh Barat";"ACEH";"23617";"Indonesia";" 085362117694";"4.1531517";"96.1312331";"https://maps.google.com/?cid=0x0:0x5a12dbb8d74e11bf"
"mall";"Toko bahan makanan";"Halal Mart Stock Center (SC) Meulaboh";"546H+C28, Drien Rampak, Kec. Johan Pahlawan, Kabupaten Aceh Barat, Aceh 23616";"Drien Rampak, Kec. Johan Pahlawan, Kabupaten Aceh Barat";"ACEH";"23616";"Indonesia";"";"4.1610456";"96.1275883";"https://maps.google.com/?cid=0x0:0x99206aeb1a7a7812"
"mall";"Toko";"Suzuya Mall Meulaboh";"Jl. Nasional, Ujung Kalak, Kec. Johan Pahlawan, Kabupaten Aceh Barat, Aceh 23613";"Ujung Kalak, Kec. Johan Pahlawan, Kabupaten Aceh Barat";"ACEH";"23613";"Indonesia";"";"4.1446322";"96.1290008";"https://maps.google.com/?cid=0x0:0x3a4e5173a3751571"
"mall";"Pusat Perbelanjaan";"Bc HNI MEULABOH";"544F+WW3, Drien Rampak, Kec. Johan Pahlawan, Kabupaten Aceh Barat, Aceh 23611";"Drien Rampak, Kec. Johan Pahlawan, Kabupaten Aceh Barat";"ACEH";"23611";"Indonesia";" 08116854141";"4.1572539";"96.1248116";"https://maps.google.com/?cid=0x0:0xc5799a428d6d01ca"
"mall";"Toko";"Toko Ham Spr";"Rundeng, Kec. Johan Pahlawan, Kabupaten Aceh Barat, Aceh 23616";"Kec. Johan Pahlawan, Kabupaten Aceh Barat";"ACEH";"23616";"Indonesia";" 082276073168";"4.1486818";"96.1349169";"https://maps.google.com/?cid=0x0:0xdbf3341d49a36bc1"
"mall";"Toko Kosmetik";"Marda Ysd kosmetik";"547J+5RQ, Jl. Sisingamangaraja, Gampa, Kec. Johan Pahlawan, Kabupaten Aceh Barat, Aceh 23616";"Jl. Sisingamangaraja, Gampa, Kec. Johan Pahlawan, Kabupaten Aceh Barat";"ACEH";"23616";"Indonesia";" 082285629586";"4.1629594";"96.1321068";"https://maps.google.com/?cid=0x0:0xf5006a00526f4ced"
"mall";"Pusat Perbelanjaan";"DAKOTA CELL by RETRO";"Ujong Baroh, Kec. Johan Pahlawan, Kabupaten Aceh Barat, Aceh 23611";"Kec. Johan Pahlawan, Kabupaten Aceh Barat";"ACEH";"23611";"Indonesia";" 082360154545";"4.153085";"96.1266123";"https://maps.google.com/?cid=0x0:0xd468308ce1c72fab"
"mall";"Pusat Bisnis";"mogis.clorist";"545G+4JH, Jl. Domba, Drien Rampak, Kec. Johan Pahlawan, Kabupaten Aceh Barat, Aceh 23611";"Jl. Domba, Drien Rampak, Kec. Johan Pahlawan, Kabupaten Aceh Barat";"ACEH";"23611";"Indonesia";" 082274448809";"4.1578216";"96.1265977";"https://maps.google.com/?cid=0x0:0xac02b4657e680b28"
"mall";"Toko Herbal";"hni-hpai cab. meulaboh";"544G+G7G, Jl. Bakti Pemuda, Drien Rampak, Kec. Johan Pahlawan, Kabupaten Aceh Barat, Aceh 23611";"Jl. Bakti Pemuda, Drien Rampak, Kec. Johan Pahlawan, Kabupaten Aceh Barat";"ACEH";"23611";"Indonesia";" 085358301038";"4.1563217";"96.1257013";"https://maps.google.com/?cid=0x0:0x2f849cd339d13264"
"mall";"Toko";"Jazirah Meulaboh";"Jl. Nasional, Rundeng, Kec. Johan Pahlawan, Kabupaten Aceh Barat, Aceh 23681";"Rundeng, Kec. Johan Pahlawan, Kabupaten Aceh Barat";"ACEH";"23681";"Indonesia";" 082168219770";"4.1510197";"96.1337569";"https://maps.google.com/?cid=0x0:0x40b7b582affb6342"
"mall";"Toko Ponsel";"I-CELL 3";"543J+QC4, Drien Rampak, Kec. Johan Pahlawan, Kabupaten Aceh Barat, Aceh 23611";"Drien Rampak, Kec. Johan Pahlawan, Kabupaten Aceh Barat";"ACEH";"23611";"Indonesia";" 082162012378";"4.1543919";"96.1310692";"https://maps.google.com/?cid=0x0:0xfebb0af2ea22b9ad"
"mall";"Toserba";"Toko sahabat";"44XF+XWR, Jl. Singgah Mata, Kuta Padang, Kec. Johan Pahlawan, Kabupaten Aceh Barat, Aceh 23612";"Jl. Singgah Mata, Kuta Padang, Kec. Johan Pahlawan, Kabupaten Aceh Barat";"ACEH";"23612";"Indonesia";"";"4.149978";"96.124762";"https://maps.google.com/?cid=0x0:0x9e159d0f0733e05a"
"mall";"Pusat Perbelanjaan";"Zam-Zam Store";"543J+GJQ, Meulaboh, Drien Rampak, Kec. Johan Pahlawan, Kabupaten Aceh Barat, Aceh 23611";"Meulaboh, Drien Rampak, Kec. Johan Pahlawan, Kabupaten Aceh Barat";"ACEH";"23611";"Indonesia";" 08126936288";"4.1538327";"96.1316248";"https://maps.google.com/?cid=0x0:0x4c92e7559d352b9c"
"mall";"mall";"Aceh 23617";"Kec. Johan Pahlawan, Kabupaten Aceh Barat, Aceh";"Kabupaten Aceh Barat, Aceh";"ACEH";"";"Indonesia";"";"4.1660395";"96.1129437";"https://maps.google.com/?cid=0x0:0x4f9f747f1f90c64b"
"mall";"Toko bahan makanan";"Tamini.co";"Jl. Gajah Mada No.1A, Drien Rampak, Kec. Johan Pahlawan, Kabupaten Aceh Barat, Aceh 23617";"Drien Rampak, Kec. Johan Pahlawan, Kabupaten Aceh Barat";"ACEH";"23617";"Indonesia";" 085362117694";"4.1531517";"96.1312331";"https://maps.google.com/?cid=0x0:0x5a12dbb8d74e11bf"
"mall";"Toko";"Suzuya Mall Meulaboh";"Jl. Nasional, Ujung Kalak, Kec. Johan Pahlawan, Kabupaten Aceh Barat, Aceh 23613";"Ujung Kalak, Kec. Johan Pahlawan, Kabupaten Aceh Barat";"ACEH";"23613";"Indonesia";"";"4.1446322";"96.1290008";"https://maps.google.com/?cid=0x0:0x3a4e5173a3751571"
"mall";"Toko Herbal";"hni-hpai cab. meulaboh";"544G+G7G, Jl. Bakti Pemuda, Drien Rampak, Kec. Johan Pahlawan, Kabupaten Aceh Barat, Aceh 23611";"Jl. Bakti Pemuda, Drien Rampak, Kec. Johan Pahlawan, Kabupaten Aceh Barat";"ACEH";"23611";"Indonesia";" 085358301038";"4.1563217";"96.1257013";"https://maps.google.com/?cid=0x0:0x2f849cd339d13264"
"mall";"Toko";"Jazirah Meulaboh";"Jl. Nasional, Rundeng, Kec. Johan Pahlawan, Kabupaten Aceh Barat, Aceh 23681";"Rundeng, Kec. Johan Pahlawan, Kabupaten Aceh Barat";"ACEH";"23681";"Indonesia";" 082168219770";"4.1510197";"96.1337569";"https://maps.google.com/?cid=0x0:0x40b7b582affb6342"
"mall";"Pusat Bisnis";"mogis.clorist";"545G+4JH, Jl. Domba, Drien Rampak, Kec. Johan Pahlawan, Kabupaten Aceh Barat, Aceh 23611";"Jl. Domba, Drien Rampak, Kec. Johan Pahlawan, Kabupaten Aceh Barat";"ACEH";"23611";"Indonesia";" 082274448809";"4.1578216";"96.1265977";"https://maps.google.com/?cid=0x0:0xac02b4657e680b28"
"mall";"Minimarket";"TOKO RIZKI ANANDA";"Jl. Meulaboh - Banda Aceh, Seuneubok, Kec. Johan Pahlawan, Kabupaten Aceh Barat, Aceh 23617";"Seuneubok, Kec. Johan Pahlawan, Kabupaten Aceh Barat";"ACEH";"23617";"Indonesia";"";"4.1714695";"96.1135564";"https://maps.google.com/?cid=0x0:0xd1db0829c46c0a4a"
"mall";"Pusat Perbelanjaan";"POBIE ACC";"Ujong Baroh, Kec. Johan Pahlawan, Kabupaten Aceh Barat, Aceh";"Kabupaten Aceh Barat, Aceh";"ACEH";"";"Indonesia";" 082335358832";"4.1484805";"96.131815";"https://maps.google.com/?cid=0x0:0x63a169535705297"
"mall";"Pusat Perbelanjaan";"ELFAZZA STORE";"542J+4HP, Jl. Swadaya, Drien Rampak, Kec. Johan Pahlawan, Kabupaten Aceh Barat, Aceh 23681";"Jl. Swadaya, Drien Rampak, Kec. Johan Pahlawan, Kabupaten Aceh Barat";"ACEH";"23681";"Indonesia";" 085277578020";"4.1503451";"96.1314522";"https://maps.google.com/?cid=0x0:0x95b8d5942f25e887"
"mall";"Toko Ponsel";"I-CELL 3";"543J+QC4, Drien Rampak, Kec. Johan Pahlawan, Kabupaten Aceh Barat, Aceh 23611";"Drien Rampak, Kec. Johan Pahlawan, Kabupaten Aceh Barat";"ACEH";"23611";"Indonesia";" 082162012378";"4.1543919";"96.1310692";"https://maps.google.com/?cid=0x0:0xfebb0af2ea22b9ad"
"mall";"Kantor Pemerintah";"Kantor Camat Johan Pahlawan";"44XH+4WQ, Ujong Baroh, Kec. Johan Pahlawan, Kabupaten Aceh Barat, Aceh 23681";"Ujong Baroh, Kec. Johan Pahlawan, Kabupaten Aceh Barat";"ACEH";"23681";"Indonesia";" 06557551872";"4.147842";"96.1298699";"https://maps.google.com/?cid=0x0:0x58973b48b7358851"
"mall";"Pusat Perbelanjaan";"Suzuya Mall Banda Aceh";"Jl. Teuku Umar, Lamtemen Tim., Kec. Jaya Baru, Kota Banda Aceh, Aceh 23232";"Lamtemen Tim., Kec. Jaya Baru, Kota Banda Aceh";"ACEH";"23232";"Indonesia";" 06518011022";"5.5377324";"95.3068005";"https://maps.google.com/?cid=0x0:0xc5c56efc74442dea"
"mall";"Pusat Perbelanjaan";"Gerai_Finzy";"54JH+FGG, Lapang, Kec. Johan Pahlawan, Kabupaten Aceh Barat, Aceh 23618";"Lapang, Kec. Johan Pahlawan, Kabupaten Aceh Barat";"ACEH";"23618";"Indonesia";" 085260974836";"4.1811979";"96.1288426";"https://maps.google.com/?cid=0x0:0xd3f1d674416b84cc"
"mall";"Butik";"Ind’s Boutique.";"542C+66W, Jln. Malem Diwa Lr.Geuredong, Kuta Padang, Johan Pahlawan, West Aceh Regency, Aceh 23612";"Jln. Malem Diwa Lr.Geuredong, Kuta Padang, Johan Pahlawan, West Aceh Regency";"ACEH";"23612";"Indonesia";" 081362626295";"4.1506182";"96.1205859";"https://maps.google.com/?cid=0x0:0xe97584ce693647b6"
"mall";"mall";"Aceh 23618";"Kec. Johan Pahlawan, Kabupaten Aceh Barat, Aceh";"Kabupaten Aceh Barat, Aceh";"ACEH";"";"Indonesia";"";"4.186417";"96.1129437";"https://maps.google.com/?cid=0x0:0x4562fc605032d397"
"mall";"Toko bahan makanan";"Tamini.co";"Jl. Gajah Mada No.1A, Drien Rampak, Kec. Johan Pahlawan, Kabupaten Aceh Barat, Aceh 23617";"Drien Rampak, Kec. Johan Pahlawan, Kabupaten Aceh Barat";"ACEH";"23617";"Indonesia";" 085362117694";"4.1531517";"96.1312331";"https://maps.google.com/?cid=0x0:0x5a12dbb8d74e11bf"
"mall";"Toko";"Suzuya Mall Meulaboh";"Jl. Nasional, Ujung Kalak, Kec. Johan Pahlawan, Kabupaten Aceh Barat, Aceh 23613";"Ujung Kalak, Kec. Johan Pahlawan, Kabupaten Aceh Barat";"ACEH";"23613";"Indonesia";"";"4.1446322";"96.1290008";"https://maps.google.com/?cid=0x0:0x3a4e5173a3751571"
"mall";"Pusat Perbelanjaan";"ZAHWA SuperMarket  Dept Store";"548M+629, Gampa, Kec. Johan Pahlawan, Kabupaten Aceh Barat, Aceh 23611";"Gampa, Kec. Johan Pahlawan, Kabupaten Aceh Barat";"ACEH";"23611";"Indonesia";"";"4.1655405";"96.1326012";"https://maps.google.com/?cid=0x0:0xa76f84b5a7d72faf"
"mall";"Toko Swalayan";"Depot Air Minum Mineral";"54FP+6HF, Jl. Sisingamangaraja, Lapang, Kec. Johan Pahlawan, Kabupaten Aceh Barat, Aceh 23611";"Jl. Sisingamangaraja, Lapang, Kec. Johan Pahlawan, Kabupaten Aceh Barat";"ACEH";"23611";"Indonesia";"";"4.1730519";"96.1364101";"https://maps.google.com/?cid=0x0:0x332493faf878f79c"
"mall";"Pusat Perbelanjaan";"Gerai_Finzy";"54JH+FGG, Lapang, Kec. Johan Pahlawan, Kabupaten Aceh Barat, Aceh 23618";"Lapang, Kec. Johan Pahlawan, Kabupaten Aceh Barat";"ACEH";"23618";"Indonesia";" 085260974836";"4.1811979";"96.1288426";"https://maps.google.com/?cid=0x0:0xd3f1d674416b84cc"
"mall";"Pusat Perbelanjaan";"Harapan Jaya";"44VH+4VR, Jl. Teuku Chik Ali Akbar, Ujong Baroh, Kec. Johan Pahlawan, Kabupaten Aceh Barat, Aceh 23681";"Jl. Teuku Chik Ali Akbar, Ujong Baroh, Kec. Johan Pahlawan, Kabupaten Aceh Barat";"ACEH";"23681";"Indonesia";" 085270966977";"4.1428627";"96.1296364";"https://maps.google.com/?cid=0x0:0x8149c1e4c9336944"
"mall";"Toko Perlengkapan Rumah";"Adlya Olshop";"54FP+7P6, Lapang, Kec. Johan Pahlawan, Kabupaten Aceh Barat, Aceh 23611";"Lapang, Kec. Johan Pahlawan, Kabupaten Aceh Barat";"ACEH";"23611";"Indonesia";" 081264388849";"4.1731504";"96.1367765";"https://maps.google.com/?cid=0x0:0x49c69e311efc5296"
"mall";"Pusat Perbelanjaan";"DAKOTA CELL by RETRO";"Ujong Baroh, Kec. Johan Pahlawan, Kabupaten Aceh Barat, Aceh 23611";"Kec. Johan Pahlawan, Kabupaten Aceh Barat";"ACEH";"23611";"Indonesia";" 082360154545";"4.153085";"96.1266123";"https://maps.google.com/?cid=0x0:0xd468308ce1c72fab"
"mall";"Toko";"Toko cahaya bulan";"Jl. Singgah Mata, Ujong Baroh, Kec. Johan Pahlawan, Kabupaten Aceh Barat, Aceh 23681";"Ujong Baroh, Kec. Johan Pahlawan, Kabupaten Aceh Barat";"ACEH";"23681";"Indonesia";" 085370106717";"4.1463984";"96.1276054";"https://maps.google.com/?cid=0x0:0x1755c10db38e5a86"
"mall";"Toko bahan makanan";"Halal Mart Stock Center (SC) Meulaboh";"546H+C28, Drien Rampak, Kec. Johan Pahlawan, Kabupaten Aceh Barat, Aceh 23616";"Drien Rampak, Kec. Johan Pahlawan, Kabupaten Aceh Barat";"ACEH";"23616";"Indonesia";"";"4.1610456";"96.1275883";"https://maps.google.com/?cid=0x0:0x99206aeb1a7a7812"
"mall";"Pusat Perbelanjaan";"Bc HNI MEULABOH";"544F+WW3, Drien Rampak, Kec. Johan Pahlawan, Kabupaten Aceh Barat, Aceh 23611";"Drien Rampak, Kec. Johan Pahlawan, Kabupaten Aceh Barat";"ACEH";"23611";"Indonesia";" 08116854141";"4.1572539";"96.1248116";"https://maps.google.com/?cid=0x0:0xc5799a428d6d01ca"
"mall";"Toko Daging";"Jambo Ayam Potong";"54MW+3WC, Blang Berandang, Kec. Johan Pahlawan, Kabupaten Aceh Barat, Aceh 23618";"Blang Berandang, Kec. Johan Pahlawan, Kabupaten Aceh Barat";"ACEH";"23618";"Indonesia";" 085260211514";"4.1826985";"96.1472659";"https://maps.google.com/?cid=0x0:0xd06ce9b91da35ae5"
"mall";"Toko";"Jazirah Meulaboh";"Jl. Nasional, Rundeng, Kec. Johan Pahlawan, Kabupaten Aceh Barat, Aceh 23681";"Rundeng, Kec. Johan Pahlawan, Kabupaten Aceh Barat";"ACEH";"23681";"Indonesia";" 082168219770";"4.1510197";"96.1337569";"https://maps.google.com/?cid=0x0:0x40b7b582affb6342"
"mall";"mall";"Aceh 23652";"Kabupaten Aceh Barat, Aceh";"Kabupaten Aceh Barat, Aceh";"ACEH";"";"Indonesia";"";"4.2710816";"96.0467429";"https://maps.google.com/?cid=0x0:0x30687e4200a2049b"
"mall";"Toko";"Suzuya Mall Meulaboh";"Jl. Nasional, Ujung Kalak, Kec. Johan Pahlawan, Kabupaten Aceh Barat, Aceh 23613";"Ujung Kalak, Kec. Johan Pahlawan, Kabupaten Aceh Barat";"ACEH";"23613";"Indonesia";"";"4.1446322";"96.1290008";"https://maps.google.com/?cid=0x0:0x3a4e5173a3751571"
"mall";"Pasar";"SHAS Hendri Agusti";"63G8+2F2, Cot Mesjid, Kec. Samatiga, Kabupaten Aceh Barat, Aceh 23652";"Cot Mesjid, Kec. Samatiga, Kabupaten Aceh Barat";"ACEH";"23652";"Indonesia";"";"4.2250226";"96.066156";"https://maps.google.com/?cid=0x0:0x45134242f2cef971"
"mall";"Tempat cuci motor";"Berkat sahabat doorsmeer";"7337+795, Jl. Meulaboh-Kuala Bhee, Deuah, Kec. Samatiga, Kabupaten Aceh Barat, Aceh 23652";"Jl. Meulaboh-Kuala Bhee, Deuah, Kec. Samatiga, Kabupaten Aceh Barat";"ACEH";"23652";"Indonesia";" 082364880009";"4.2531313";"96.063486";"https://maps.google.com/?cid=0x0:0x7374def42ab57072"
"mall";"Toko";"Resti meza";"627Q+P74, JL, Gampong Teungoh, Kec. Samatiga, Kabupaten Aceh Barat, Aceh 23652";"JL, Gampong Teungoh, Kec. Samatiga, Kabupaten Aceh Barat";"ACEH";"23652";"Indonesia";" 082277928085";"4.2142709";"96.0381913";"https://maps.google.com/?cid=0x0:0x31e47783a299469"
"mall";"Toko";"Toko marzuki";"Jl. Alue Raya - Pinem, Cot Seulamat, Kec. Samatiga, Kabupaten Aceh Barat, Aceh 23652";"Cot Seulamat, Kec. Samatiga, Kabupaten Aceh Barat";"ACEH";"23652";"Indonesia";"";"4.2394637";"96.0502895";"https://maps.google.com/?cid=0x0:0x80209b07c4849cec"
"mall";"Pusat Perbelanjaan";"Pusat Perbelanjaan";"93M4+PJV, Lueng Tanoh Tho, Kec. Woyla, Kabupaten Aceh Barat, Aceh 23654";"Lueng Tanoh Tho, Kec. Woyla, Kabupaten Aceh Barat";"ACEH";"23654";"Indonesia";"";"4.384364";"96.0565433";"https://maps.google.com/?cid=0x0:0x13703bf328a1dfc8"
"mall";"Toko Ponsel";"SALSABIL ATK";"Teupin Peuraho, Kec. Arongan Lambalek, Kabupaten Aceh Barat, Aceh 23652";"Kec. Arongan Lambalek, Kabupaten Aceh Barat";"ACEH";"23652";"Indonesia";" 085260046533";"4.3056853";"95.9753861";"https://maps.google.com/?cid=0x0:0xbe8c03d8c889dcd4"
"mall";"Pusat Bisnis";"mogis.clorist";"545G+4JH, Jl. Domba, Drien Rampak, Kec. Johan Pahlawan, Kabupaten Aceh Barat, Aceh 23611";"Jl. Domba, Drien Rampak, Kec. Johan Pahlawan, Kabupaten Aceh Barat";"ACEH";"23611";"Indonesia";" 082274448809";"4.1578216";"96.1265977";"https://maps.google.com/?cid=0x0:0xac02b4657e680b28"
"mall";"Toko sembako pemerintah";"UD.Pasti Jaya Gah";"73MH+R48, Unnamed Road, Beurawang, Kec. Bubon, Kabupaten Aceh Barat, Aceh 23652";"Unnamed Road, Beurawang, Kec. Bubon, Kabupaten Aceh Barat";"ACEH";"23652";"Indonesia";" 082368048900";"4.2845399";"96.0778139";"https://maps.google.com/?cid=0x0:0xcc2caa98de43773a"
"mall";"Toko";"NurbaitiOlshop";"9W5H+7W9, Unnamed Road, Rimba Langgeh, Kec. Arongan Lambalek, Kabupaten Aceh Barat, Aceh 23652";"Unnamed Road, Rimba Langgeh, Kec. Arongan Lambalek, Kabupaten Aceh Barat";"ACEH";"23652";"Indonesia";"";"4.3581618";"95.9298572";"https://maps.google.com/?cid=0x0:0xf0ab70020f223830"
"mall";"Pusat Perbelanjaan";"Suzuya Mall Banda Aceh";"Jl. Teuku Umar, Lamtemen Tim., Kec. Jaya Baru, Kota Banda Aceh, Aceh 23232";"Lamtemen Tim., Kec. Jaya Baru, Kota Banda Aceh";"ACEH";"23232";"Indonesia";" 06518011022";"5.5377324";"95.3068005";"https://maps.google.com/?cid=0x0:0xc5c56efc74442dea"
"mall";"Toko Swalayan";"Ud .barona Kembar";"8X87+2JQ, Drien Rampak, Kec. Arongan Lambalek, Kabupaten Aceh Barat, Aceh 23652";"Drien Rampak, Kec. Arongan Lambalek, Kabupaten Aceh Barat";"ACEH";"23652";"Indonesia";" 082361671812";"4.3150764";"95.9641168";"https://maps.google.com/?cid=0x0:0xa687e83805fc00f7"
"mall";"Toko bahan makanan";"Tamini.co";"Jl. Gajah Mada No.1A, Drien Rampak, Kec. Johan Pahlawan, Kabupaten Aceh Barat, Aceh 23617";"Drien Rampak, Kec. Johan Pahlawan, Kabupaten Aceh Barat";"ACEH";"23617";"Indonesia";" 085362117694";"4.1531517";"96.1312331";"https://maps.google.com/?cid=0x0:0x5a12dbb8d74e11bf"
"mall";"mall";"Kec. Bubon";"Kabupaten Aceh Barat, Aceh";"Kabupaten Aceh Barat, Aceh";"ACEH";"";"Indonesia";"";"4.2943828";"96.0862301";"https://maps.google.com/?cid=0x0:0x80219aee8cc6aaef"
"mall";"Toko sembako pemerintah";"UD.Pasti Jaya Gah";"73MH+R48, Unnamed Road, Beurawang, Kec. Bubon, Kabupaten Aceh Barat, Aceh 23652";"Unnamed Road, Beurawang, Kec. Bubon, Kabupaten Aceh Barat";"ACEH";"23652";"Indonesia";" 082368048900";"4.2845399";"96.0778139";"https://maps.google.com/?cid=0x0:0xcc2caa98de43773a"
"mall";"Pusat Perbelanjaan";"SP. Gunong Meuh Kaway XVI A.Barat";"85FM+9W7, Jl. Geumpang - Tutut, Alue Lhok, Kec. Kaway XVI, Kabupaten Aceh Barat, Aceh 23681";"Jl. Geumpang - Tutut, Alue Lhok, Kec. Kaway XVI, Kabupaten Aceh Barat";"ACEH";"23681";"Indonesia";" 085262730130";"4.3234102";"96.1847897";"https://maps.google.com/?cid=0x0:0x7982fc70e071f648"
"mall";"Pasar";"Keluarga MS";"6377+QVV, Jl. Meulaboh - Banda Aceh, Cot Darat, Kec. Samatiga, Kabupaten Aceh Barat, Aceh 23652";"Jl. Meulaboh - Banda Aceh, Cot Darat, Kec. Samatiga, Kabupaten Aceh Barat";"ACEH";"23652";"Indonesia";" 085260961641";"4.2144851";"96.0646701";"https://maps.google.com/?cid=0x0:0x2b8d87d31cee038c"
"mall";"Toko Ponsel";"NAIDY PONSEL";"857X+9C5, Jl. Geumpang - Tutut, Sawang Teubee, Kec. Kaway XVI, Kabupaten Aceh Barat, Aceh 23681";"Jl. Geumpang - Tutut, Sawang Teubee, Kec. Kaway XVI, Kabupaten Aceh Barat";"ACEH";"23681";"Indonesia";" 085362007792";"4.3133782";"96.1986241";"https://maps.google.com/?cid=0x0:0x3eaafc634c300c85"
"mall";"mall";"UD.jasa mulia";"8572+6M2, Peulanteu Sp, Kec. Bubon, Kabupaten Aceh Barat, Aceh 23681";"Peulanteu Sp, Kec. Bubon, Kabupaten Aceh Barat";"ACEH";"23681";"Indonesia";"";"4.3130027";"96.1516501";"https://maps.google.com/?cid=0x0:0x1c7810ebb38d6c1c"
"mall";"mall";"Aceh 23652";"Kabupaten Aceh Barat, Aceh";"Kabupaten Aceh Barat, Aceh";"ACEH";"";"Indonesia";"";"4.2710816";"96.0467429";"https://maps.google.com/?cid=0x0:0x30687e4200a2049b"
"mall";"Toko";"NurbaitiOlshop";"9W5H+7W9, Unnamed Road, Rimba Langgeh, Kec. Arongan Lambalek, Kabupaten Aceh Barat, Aceh 23652";"Unnamed Road, Rimba Langgeh, Kec. Arongan Lambalek, Kabupaten Aceh Barat";"ACEH";"23652";"Indonesia";"";"4.3581618";"95.9298572";"https://maps.google.com/?cid=0x0:0xf0ab70020f223830"
"mall";"Toko Ponsel";"SALSABIL ATK";"Teupin Peuraho, Kec. Arongan Lambalek, Kabupaten Aceh Barat, Aceh 23652";"Kec. Arongan Lambalek, Kabupaten Aceh Barat";"ACEH";"23652";"Indonesia";" 085260046533";"4.3056853";"95.9753861";"https://maps.google.com/?cid=0x0:0xbe8c03d8c889dcd4"
"mall";"Pasar";"Keluarga MS";"6377+QVV, Jl. Meulaboh - Banda Aceh, Cot Darat, Kec. Samatiga, Kabupaten Aceh Barat, Aceh 23652";"Jl. Meulaboh - Banda Aceh, Cot Darat, Kec. Samatiga, Kabupaten Aceh Barat";"ACEH";"23652";"Indonesia";" 085260961641";"4.2144851";"96.0646701";"https://maps.google.com/?cid=0x0:0x2b8d87d31cee038c"
"mall";"Toko Ponsel";"Adi Jaya Motor";"8X3G+W4P, Teupin Peuraho, Kec. Arongan Lambalek, Kabupaten Aceh Barat, Aceh 23652";"Teupin Peuraho, Kec. Arongan Lambalek, Kabupaten Aceh Barat";"ACEH";"23652";"Indonesia";" 085206550095";"4.3048319";"95.9753267";"https://maps.google.com/?cid=0x0:0x473f21b38e933dbf"
"mall";"Toko Ponsel";"AAN PONSEL";"8X5F+VHR, Jl. Lintas Barat Sumatera, Teupin Peuraho, Kec. Arongan Lambalek, Kabupaten Aceh Barat, Aceh 23652";"Jl. Lintas Barat Sumatera, Teupin Peuraho, Kec. Arongan Lambalek, Kabupaten Aceh Barat";"ACEH";"23652";"Indonesia";" 082370400247";"4.3097304";"95.9738813";"https://maps.google.com/?cid=0x0:0xd1fd17060f2cba2"
"mall";"Pasar";"SHAS Hendri Agusti";"63G8+2F2, Cot Mesjid, Kec. Samatiga, Kabupaten Aceh Barat, Aceh 23652";"Cot Mesjid, Kec. Samatiga, Kabupaten Aceh Barat";"ACEH";"23652";"Indonesia";"";"4.2250226";"96.066156";"https://maps.google.com/?cid=0x0:0x45134242f2cef971"
"mall";"Toko";"Suzuya Mall Meulaboh";"Jl. Nasional, Ujung Kalak, Kec. Johan Pahlawan, Kabupaten Aceh Barat, Aceh 23613";"Ujung Kalak, Kec. Johan Pahlawan, Kabupaten Aceh Barat";"ACEH";"23613";"Indonesia";"";"4.1446322";"96.1290008";"https://maps.google.com/?cid=0x0:0x3a4e5173a3751571"
"mall";"Pusat Perbelanjaan";"Pusat Perbelanjaan";"93M4+PJV, Lueng Tanoh Tho, Kec. Woyla, Kabupaten Aceh Barat, Aceh 23654";"Lueng Tanoh Tho, Kec. Woyla, Kabupaten Aceh Barat";"ACEH";"23654";"Indonesia";"";"4.384364";"96.0565433";"https://maps.google.com/?cid=0x0:0x13703bf328a1dfc8"
"mall";"Tempat cuci motor";"Berkat sahabat doorsmeer";"7337+795, Jl. Meulaboh-Kuala Bhee, Deuah, Kec. Samatiga, Kabupaten Aceh Barat, Aceh 23652";"Jl. Meulaboh-Kuala Bhee, Deuah, Kec. Samatiga, Kabupaten Aceh Barat";"ACEH";"23652";"Indonesia";" 082364880009";"4.2531313";"96.063486";"https://maps.google.com/?cid=0x0:0x7374def42ab57072"
"mall";"Toko";"Toko marzuki";"Jl. Alue Raya - Pinem, Cot Seulamat, Kec. Samatiga, Kabupaten Aceh Barat, Aceh 23652";"Cot Seulamat, Kec. Samatiga, Kabupaten Aceh Barat";"ACEH";"23652";"Indonesia";"";"4.2394637";"96.0502895";"https://maps.google.com/?cid=0x0:0x80209b07c4849cec"
"mall";"Minimarket";"Indomaret Suak Raya";"53PW+RVP, Suak Raya, Kec. Johan Pahlawan, Kabupaten Aceh Barat, Aceh 23618";"Suak Raya, Kec. Johan Pahlawan, Kabupaten Aceh Barat";"ACEH";"23618";"Indonesia";"";"4.1870776";"96.0972109";"https://maps.google.com/?cid=0x0:0xad893c8d136e7e8b"
"mall";"Toko bahan makanan";"Halal Mart Stock Center (SC) Meulaboh";"546H+C28, Drien Rampak, Kec. Johan Pahlawan, Kabupaten Aceh Barat, Aceh 23616";"Drien Rampak, Kec. Johan Pahlawan, Kabupaten Aceh Barat";"ACEH";"23616";"Indonesia";"";"4.1610456";"96.1275883";"https://maps.google.com/?cid=0x0:0x99206aeb1a7a7812"
"mall";"Toko bahan makanan";"Tamini.co";"Jl. Gajah Mada No.1A, Drien Rampak, Kec. Johan Pahlawan, Kabupaten Aceh Barat, Aceh 23617";"Drien Rampak, Kec. Johan Pahlawan, Kabupaten Aceh Barat";"ACEH";"23617";"Indonesia";" 085362117694";"4.1531517";"96.1312331";"https://maps.google.com/?cid=0x0:0x5a12dbb8d74e11bf"
"mall";"Pusat Perbelanjaan";"Pusat Perbelanjaan";"93M4+PJV, Lueng Tanoh Tho, Kec. Woyla, Kabupaten Aceh Barat, Aceh 23654";"Lueng Tanoh Tho, Kec. Woyla, Kabupaten Aceh Barat";"ACEH";"23654";"Indonesia";"";"4.384364";"96.0565433";"https://maps.google.com/?cid=0x0:0x13703bf328a1dfc8"
"mall";"Pusat Perbelanjaan";"UD SAYUR";"93P5+J5Q, Lueng Tanoh Tho, Kec. Woyla, Kabupaten Aceh Barat, Aceh 23654";"Lueng Tanoh Tho, Kec. Woyla, Kabupaten Aceh Barat";"ACEH";"23654";"Indonesia";" 085260818380";"4.3865988";"96.057992";"https://maps.google.com/?cid=0x0:0x60640c82739ebbd8"
"mall";"Pusat Perbelanjaan";"Central Perfume";"93P4+5P3, Lueng Tanoh Tho, Kec. Woyla, Kabupaten Aceh Barat, Aceh 23654";"Lueng Tanoh Tho, Kec. Woyla, Kabupaten Aceh Barat";"ACEH";"23654";"Indonesia";" 08126903967";"4.3853807";"96.056794";"https://maps.google.com/?cid=0x0:0x84aabff4aafb8225"
"mall";"mall";"Kec. Woyla";"Kabupaten Aceh Barat, Aceh";"Kabupaten Aceh Barat, Aceh";"ACEH";"";"Indonesia";"";"4.3842742";"96.0566624";"https://maps.google.com/?cid=0x0:0x1b356ff5d77a878a"
"mall";"Pusat Perbelanjaan";"Pasar Kuala bhee";"92PW+3HP, Lhung Tgk Yah, Kec. Woyla, Kabupaten Aceh Barat, Aceh 23654";"Lhung Tgk Yah, Kec. Woyla, Kabupaten Aceh Barat";"ACEH";"23654";"Indonesia";"";"4.3852195";"96.0464585";"https://maps.google.com/?cid=0x0:0xc89492ff6e53f7ed"
"mall";"Toko Kelontong Asia";"Kios Novi Yazi";"922P+53V, Padang Jawa, Kec. Woyla, Kabupaten Aceh Barat, Aceh 23654";"Padang Jawa, Kec. Woyla, Kabupaten Aceh Barat";"ACEH";"23654";"Indonesia";"";"4.3504802";"96.0351644";"https://maps.google.com/?cid=0x0:0xddeac2c7ec45f1c8"
"mall";"Pusat Perbelanjaan";"Peukan Kuala Bhee";"92PW+7GJ, Kuala Bhee, Kec. Woyla, Kabupaten Aceh Barat, Aceh 23654";"Kuala Bhee, Kec. Woyla, Kabupaten Aceh Barat";"ACEH";"23654";"Indonesia";"";"4.3857056";"96.046259";"https://maps.google.com/?cid=0x0:0x9406d1dd4b0f98ef"
"mall";"Pusat Perbelanjaan";"SP. Gunong Meuh Kaway XVI A.Barat";"85FM+9W7, Jl. Geumpang - Tutut, Alue Lhok, Kec. Kaway XVI, Kabupaten Aceh Barat, Aceh 23681";"Jl. Geumpang - Tutut, Alue Lhok, Kec. Kaway XVI, Kabupaten Aceh Barat";"ACEH";"23681";"Indonesia";" 085262730130";"4.3234102";"96.1847897";"https://maps.google.com/?cid=0x0:0x7982fc70e071f648"
"mall";"Pusat Perbelanjaan";"Ahyal Aqua Pungkie";"76J3+W5F, Jl. Meulaboh - Kaway XVI, Pungkie, Kec. Kaway XVI, Kabupaten Aceh Barat, Aceh 23681";"Jl. Meulaboh - Kaway XVI, Pungkie, Kec. Kaway XVI, Kabupaten Aceh Barat";"ACEH";"23681";"Indonesia";" 085270128453";"4.2823223";"96.2029357";"https://maps.google.com/?cid=0x0:0x72426c0778226a90"
"mall";"Toko Pertanian";",UD Berkah Tani";"93P4+5P3, Lueng Tanoh Tho, Kec. Woyla, Kabupaten Aceh Barat, Aceh 23654";"Lueng Tanoh Tho, Kec. Woyla, Kabupaten Aceh Barat";"ACEH";"23654";"Indonesia";" 082366216322";"4.3853824";"96.0567909";"https://maps.google.com/?cid=0x0:0xea3fa496eea30259"
"mall";"mall";"Kec. Woyla Bar.";"Kabupaten Aceh Barat, Aceh";"Kabupaten Aceh Barat, Aceh";"ACEH";"";"Indonesia";"";"4.3454175";"96.0142448";"https://maps.google.com/?cid=0x0:0xf6bf5c9712518f80"
"mall";"Pusat Perbelanjaan";"Pusat Perbelanjaan";"93M4+PJV, Lueng Tanoh Tho, Kec. Woyla, Kabupaten Aceh Barat, Aceh 23654";"Lueng Tanoh Tho, Kec. Woyla, Kabupaten Aceh Barat";"ACEH";"23654";"Indonesia";"";"4.384364";"96.0565433";"https://maps.google.com/?cid=0x0:0x13703bf328a1dfc8"
"mall";"Pusat Perbelanjaan";"Pasar Kuala bhee";"92PW+3HP, Lhung Tgk Yah, Kec. Woyla, Kabupaten Aceh Barat, Aceh 23654";"Lhung Tgk Yah, Kec. Woyla, Kabupaten Aceh Barat";"ACEH";"23654";"Indonesia";"";"4.3852195";"96.0464585";"https://maps.google.com/?cid=0x0:0xc89492ff6e53f7ed"
"mall";"Pusat Perbelanjaan";"Central Perfume";"93P4+5P3, Lueng Tanoh Tho, Kec. Woyla, Kabupaten Aceh Barat, Aceh 23654";"Lueng Tanoh Tho, Kec. Woyla, Kabupaten Aceh Barat";"ACEH";"23654";"Indonesia";" 08126903967";"4.3853807";"96.056794";"https://maps.google.com/?cid=0x0:0x84aabff4aafb8225"
"mall";"Pusat Perbelanjaan";"Peukan Kuala Bhee";"92PW+7GJ, Kuala Bhee, Kec. Woyla, Kabupaten Aceh Barat, Aceh 23654";"Kuala Bhee, Kec. Woyla, Kabupaten Aceh Barat";"ACEH";"23654";"Indonesia";"";"4.3857056";"96.046259";"https://maps.google.com/?cid=0x0:0x9406d1dd4b0f98ef"
"mall";"Toko";"Suzuya Mall Meulaboh";"Jl. Nasional, Ujung Kalak, Kec. Johan Pahlawan, Kabupaten Aceh Barat, Aceh 23613";"Ujung Kalak, Kec. Johan Pahlawan, Kabupaten Aceh Barat";"ACEH";"23613";"Indonesia";"";"4.1446322";"96.1290008";"https://maps.google.com/?cid=0x0:0x3a4e5173a3751571"
"mall";"Pusat Perbelanjaan";"UD. ZA PRIMA PERKASA WOYLA";"93M5+JGJ, Lueng Buloh, Kec. Woyla, Kabupaten Aceh Barat, Aceh 23654";"Lueng Buloh, Kec. Woyla, Kabupaten Aceh Barat";"ACEH";"23654";"Indonesia";" 082210917081";"4.3840961";"96.0587763";"https://maps.google.com/?cid=0x0:0x7024c555102eebc9"
"mall";"Toko Ponsel";"SALSABIL ATK";"Teupin Peuraho, Kec. Arongan Lambalek, Kabupaten Aceh Barat, Aceh 23652";"Kec. Arongan Lambalek, Kabupaten Aceh Barat";"ACEH";"23652";"Indonesia";" 085260046533";"4.3056853";"95.9753861";"https://maps.google.com/?cid=0x0:0xbe8c03d8c889dcd4"
"mall";"Toko Swalayan";"Ud .barona Kembar";"8X87+2JQ, Drien Rampak, Kec. Arongan Lambalek, Kabupaten Aceh Barat, Aceh 23652";"Drien Rampak, Kec. Arongan Lambalek, Kabupaten Aceh Barat";"ACEH";"23652";"Indonesia";" 082361671812";"4.3150764";"95.9641168";"https://maps.google.com/?cid=0x0:0xa687e83805fc00f7"
"mall";"Pasar";"Keluarga MS";"6377+QVV, Jl. Meulaboh - Banda Aceh, Cot Darat, Kec. Samatiga, Kabupaten Aceh Barat, Aceh 23652";"Jl. Meulaboh - Banda Aceh, Cot Darat, Kec. Samatiga, Kabupaten Aceh Barat";"ACEH";"23652";"Indonesia";" 085260961641";"4.2144851";"96.0646701";"https://maps.google.com/?cid=0x0:0x2b8d87d31cee038c"
"mall";"Toko Buah dan Sayuran";"CBD Buah";"45JF+HCW, Peunaga Rayeuk, Kec. Meureubo, Kabupaten Aceh Barat, Aceh 23681";"Peunaga Rayeuk, Kec. Meureubo, Kabupaten Aceh Barat";"ACEH";"23681";"Indonesia";" 085358540893";"4.1314995";"96.1735677";"https://maps.google.com/?cid=0x0:0x9e9e670bbbeae03a"
"mall";"Toko Ponsel";"Alkun Ponsel";"F44X+QMV, Alue Kuyuen, Kec. Woyla Tim., Kabupaten Aceh Barat, Aceh 23681";"Alue Kuyuen, Kec. Woyla Tim., Kabupaten Aceh Barat";"ACEH";"23681";"Indonesia";"";"4.4569898";"96.1491757";"https://maps.google.com/?cid=0x0:0x43147e959c158788"
"mall";"Pusat Perbelanjaan";"UD SAYUR";"93P5+J5Q, Lueng Tanoh Tho, Kec. Woyla, Kabupaten Aceh Barat, Aceh 23654";"Lueng Tanoh Tho, Kec. Woyla, Kabupaten Aceh Barat";"ACEH";"23654";"Indonesia";" 085260818380";"4.3865988";"96.057992";"https://maps.google.com/?cid=0x0:0x60640c82739ebbd8"
"mall";"Pusat Perbelanjaan";"SP. Gunong Meuh Kaway XVI A.Barat";"85FM+9W7, Jl. Geumpang - Tutut, Alue Lhok, Kec. Kaway XVI, Kabupaten Aceh Barat, Aceh 23681";"Jl. Geumpang - Tutut, Alue Lhok, Kec. Kaway XVI, Kabupaten Aceh Barat";"ACEH";"23681";"Indonesia";" 085262730130";"4.3234102";"96.1847897";"https://maps.google.com/?cid=0x0:0x7982fc70e071f648"
"mall";"mall";"Kec. Woyla Tim.";"Kabupaten Aceh Barat, Aceh";"Kabupaten Aceh Barat, Aceh";"ACEH";"";"Indonesia";"";"4.4569759";"96.1493051";"https://maps.google.com/?cid=0x0:0x35763af430d81337"
"mall";"Pusat Perbelanjaan";"Central Perfume";"93P4+5P3, Lueng Tanoh Tho, Kec. Woyla, Kabupaten Aceh Barat, Aceh 23654";"Lueng Tanoh Tho, Kec. Woyla, Kabupaten Aceh Barat";"ACEH";"23654";"Indonesia";" 08126903967";"4.3853807";"96.056794";"https://maps.google.com/?cid=0x0:0x84aabff4aafb8225"
"mall";"Pusat Perbelanjaan";"Pusat Perbelanjaan";"93M4+PJV, Lueng Tanoh Tho, Kec. Woyla, Kabupaten Aceh Barat, Aceh 23654";"Lueng Tanoh Tho, Kec. Woyla, Kabupaten Aceh Barat";"ACEH";"23654";"Indonesia";"";"4.384364";"96.0565433";"https://maps.google.com/?cid=0x0:0x13703bf328a1dfc8"
"mall";"Toko Ponsel";"Alkun Ponsel";"F44X+QMV, Alue Kuyuen, Kec. Woyla Tim., Kabupaten Aceh Barat, Aceh 23681";"Alue Kuyuen, Kec. Woyla Tim., Kabupaten Aceh Barat";"ACEH";"23681";"Indonesia";"";"4.4569898";"96.1491757";"https://maps.google.com/?cid=0x0:0x43147e959c158788"
"mall";"Pusat Perbelanjaan";"Peukan Kuala Bhee";"92PW+7GJ, Kuala Bhee, Kec. Woyla, Kabupaten Aceh Barat, Aceh 23654";"Kuala Bhee, Kec. Woyla, Kabupaten Aceh Barat";"ACEH";"23654";"Indonesia";"";"4.3857056";"96.046259";"https://maps.google.com/?cid=0x0:0x9406d1dd4b0f98ef"
"mall";"Pusat Perbelanjaan";"UD. ZA PRIMA PERKASA WOYLA";"93M5+JGJ, Lueng Buloh, Kec. Woyla, Kabupaten Aceh Barat, Aceh 23654";"Lueng Buloh, Kec. Woyla, Kabupaten Aceh Barat";"ACEH";"23654";"Indonesia";" 082210917081";"4.3840961";"96.0587763";"https://maps.google.com/?cid=0x0:0x7024c555102eebc9"
"mall";"Pusat Perbelanjaan";"UD SAYUR";"93P5+J5Q, Lueng Tanoh Tho, Kec. Woyla, Kabupaten Aceh Barat, Aceh 23654";"Lueng Tanoh Tho, Kec. Woyla, Kabupaten Aceh Barat";"ACEH";"23654";"Indonesia";" 085260818380";"4.3865988";"96.057992";"https://maps.google.com/?cid=0x0:0x60640c82739ebbd8"
"mall";"Toko Pertanian";",UD Berkah Tani";"93P4+5P3, Lueng Tanoh Tho, Kec. Woyla, Kabupaten Aceh Barat, Aceh 23654";"Lueng Tanoh Tho, Kec. Woyla, Kabupaten Aceh Barat";"ACEH";"23654";"Indonesia";" 082366216322";"4.3853824";"96.0567909";"https://maps.google.com/?cid=0x0:0xea3fa496eea30259"
"mall";"Pusat Perbelanjaan";"Suzuya Mall Banda Aceh";"Jl. Teuku Umar, Lamtemen Tim., Kec. Jaya Baru, Kota Banda Aceh, Aceh 23232";"Lamtemen Tim., Kec. Jaya Baru, Kota Banda Aceh";"ACEH";"23232";"Indonesia";" 06518011022";"5.5377324";"95.3068005";"https://maps.google.com/?cid=0x0:0xc5c56efc74442dea"
"mall";"Toko Kelontong Asia";"Kios Novi Yazi";"922P+53V, Padang Jawa, Kec. Woyla, Kabupaten Aceh Barat, Aceh 23654";"Padang Jawa, Kec. Woyla, Kabupaten Aceh Barat";"ACEH";"23654";"Indonesia";"";"4.3504802";"96.0351644";"https://maps.google.com/?cid=0x0:0xddeac2c7ec45f1c8"
"mall";"Pusat Perbelanjaan";"Kuweh aceh";"C625+828, Jl. Geumpang - Tutut, Meutulang, Kec. Panton Reu, Kabupaten Aceh Barat, Aceh 23681";"Jl. Geumpang - Tutut, Meutulang, Kec. Panton Reu, Kabupaten Aceh Barat";"ACEH";"23681";"Indonesia";" 085260712062";"4.40079";"96.2075747";"https://maps.google.com/?cid=0x0:0x57c8b4ddd3ab093a"
"mall";"Pusat Perbelanjaan";"SP. Gunong Meuh Kaway XVI A.Barat";"85FM+9W7, Jl. Geumpang - Tutut, Alue Lhok, Kec. Kaway XVI, Kabupaten Aceh Barat, Aceh 23681";"Jl. Geumpang - Tutut, Alue Lhok, Kec. Kaway XVI, Kabupaten Aceh Barat";"ACEH";"23681";"Indonesia";" 085262730130";"4.3234102";"96.1847897";"https://maps.google.com/?cid=0x0:0x7982fc70e071f648"
"mall";"mall";"Kec. Kaway XVI";"Kabupaten Aceh Barat, Aceh";"Kabupaten Aceh Barat, Aceh";"ACEH";"";"Indonesia";"";"4.2884024";"96.2079103";"https://maps.google.com/?cid=0x0:0x83baccd3be0e0593"
"mall";"Pusat Perbelanjaan";"SP. Gunong Meuh Kaway XVI A.Barat";"85FM+9W7, Jl. Geumpang - Tutut, Alue Lhok, Kec. Kaway XVI, Kabupaten Aceh Barat, Aceh 23681";"Jl. Geumpang - Tutut, Alue Lhok, Kec. Kaway XVI, Kabupaten Aceh Barat";"ACEH";"23681";"Indonesia";" 085262730130";"4.3234102";"96.1847897";"https://maps.google.com/?cid=0x0:0x7982fc70e071f648"
"mall";"Toko";"UD.Erni Maulisa";"65G6+5C2, Jl. Meulaboh - Kaway XVI, Padang Mancang, Kec. Kaway XVI, Kabupaten Aceh Barat, Aceh 23681";"Jl. Meulaboh - Kaway XVI, Padang Mancang, Kec. Kaway XVI, Kabupaten Aceh Barat";"ACEH";"23681";"Indonesia";" 085359878717";"4.2253997";"96.1610029";"https://maps.google.com/?cid=0x0:0x6c241f21f6ab68fb"
"mall";"Toko umum";"Maunasah rayeuk";"65CC+JC7, Meunasah Rayeuk, Kec. Kaway XVI, Kabupaten Aceh Barat, Aceh 23681";"Meunasah Rayeuk, Kec. Kaway XVI, Kabupaten Aceh Barat";"ACEH";"23681";"Indonesia";" 082370747203";"4.2215419";"96.1710575";"https://maps.google.com/?cid=0x0:0x94e91c61b670b831"
"mall";"Toko Ponsel";"NAIDY PONSEL";"857X+9C5, Jl. Geumpang - Tutut, Sawang Teubee, Kec. Kaway XVI, Kabupaten Aceh Barat, Aceh 23681";"Jl. Geumpang - Tutut, Sawang Teubee, Kec. Kaway XVI, Kabupaten Aceh Barat";"ACEH";"23681";"Indonesia";" 085362007792";"4.3133782";"96.1986241";"https://maps.google.com/?cid=0x0:0x3eaafc634c300c85"
"mall";"Universitas";"Aron Raya Foto Copy  Stationery";"Jalan Meulaboh - Tutut No.KM. 14, Keude Aron, Kec. Kaway XVI, Kabupaten Aceh Barat, Aceh 23681";"Keude Aron, Kec. Kaway XVI, Kabupaten Aceh Barat";"ACEH";"23681";"Indonesia";" 085260318891";"4.2279975";"96.171141";"https://maps.google.com/?cid=0x0:0xde3b999da9604501"
"mall";"Kedai Kopi";"Pasi Jeumpa";"7632+MF6, Pasi Jeumpa, Kec. Kaway XVI, Kabupaten Aceh Barat, Aceh 23681";"Pasi Jeumpa, Kec. Kaway XVI, Kabupaten Aceh Barat";"ACEH";"23681";"Indonesia";"";"4.2541694";"96.2011445";"https://maps.google.com/?cid=0x0:0xc8266bc7ddc0f00b"
"mall";"Toko bahan makanan";"UD.Irmada";"756X+MRV, Unnamed Road, Pasi Meugat, Kec. Kaway XVI, Kabupaten Aceh Barat, Aceh 23681";"Unnamed Road, Pasi Meugat, Kec. Kaway XVI, Kabupaten Aceh Barat";"ACEH";"23681";"Indonesia";" 082166442839";"4.2617363";"96.1995315";"https://maps.google.com/?cid=0x0:0xebb7cacb281f341c"
"mall";"Toko";"Suzuya Mall Meulaboh";"Jl. Nasional, Ujung Kalak, Kec. Johan Pahlawan, Kabupaten Aceh Barat, Aceh 23613";"Ujung Kalak, Kec. Johan Pahlawan, Kabupaten Aceh Barat";"ACEH";"23613";"Indonesia";"";"4.1446322";"96.1290008";"https://maps.google.com/?cid=0x0:0x3a4e5173a3751571"
"mall";"Toko Perlengkapan Rumah";"Keude Alya jaya";"Jl. TGK Di Pancu, Blang Berandang, Kec. Johan Pahlawan, Kabupaten Aceh Barat, Aceh 23681";"Blang Berandang, Kec. Johan Pahlawan, Kabupaten Aceh Barat";"ACEH";"23681";"Indonesia";" 085360101944";"4.195172";"96.1435018";"https://maps.google.com/?cid=0x0:0x426457b3aec6994f"
"mall";"Grosir Barang Kelontong";"Warung Kelontong";"55P2+X57, Jl. Meulaboh - Kaway XVI, Blang Berandang, Kec. Johan Pahlawan, Kabupaten Aceh Barat, Aceh 23681";"Jl. Meulaboh - Kaway XVI, Blang Berandang, Kec. Johan Pahlawan, Kabupaten Aceh Barat";"ACEH";"23681";"Indonesia";" 082166435943";"4.1874051";"96.1504257";"https://maps.google.com/?cid=0x0:0xba89dab8aaf1e38d"
"mall";"Toko";"PANGLONG KAYU UD.FAEYZA";"54PX+MW7, Jl. Meulaboh - Kaway XVI, Blang Berandang, Kec. Johan Pahlawan, Kabupaten Aceh Barat, Aceh 23681";"Jl. Meulaboh - Kaway XVI, Blang Berandang, Kec. Johan Pahlawan, Kabupaten Aceh Barat";"ACEH";"23681";"Indonesia";" 081362844163";"4.1866604";"96.1497823";"https://maps.google.com/?cid=0x0:0xa3dedaf0fd8773db"
"mall";"Kantor Perusahaan";"KILANG PADI. cv muna ingin jaya";"65CC+JC6, Meunasah Rayeuk, Kec. Kaway XVI, Kabupaten Aceh Barat, Aceh 23681";"Meunasah Rayeuk, Kec. Kaway XVI, Kabupaten Aceh Barat";"ACEH";"23681";"Indonesia";"";"4.2215436";"96.1710069";"https://maps.google.com/?cid=0x0:0xf909158468861c2b"
"mall";"Tempat Penggilingan Beras";"Kilang Padi Madu Jaya";"Meunasah Buloh, Kec. Kaway XVI, Kabupaten Aceh Barat, Aceh 23681";"Kec. Kaway XVI, Kabupaten Aceh Barat";"ACEH";"23681";"Indonesia";" 082370530772";"4.2192212";"96.1615161";"https://maps.google.com/?cid=0x0:0x1d5b39973720b9a3"
"mall";"mall";"Aceh 23615";"Kec. Johan Pahlawan, Kabupaten Aceh Barat, Aceh";"Kabupaten Aceh Barat, Aceh";"ACEH";"";"Indonesia";"";"4.1622709";"96.1063204";"https://maps.google.com/?cid=0x0:0xd2bf3e0b78ba4037"
"mall";"Toko";"Suzuya Mall Meulaboh";"Jl. Nasional, Ujung Kalak, Kec. Johan Pahlawan, Kabupaten Aceh Barat, Aceh 23613";"Ujung Kalak, Kec. Johan Pahlawan, Kabupaten Aceh Barat";"ACEH";"23613";"Indonesia";"";"4.1446322";"96.1290008";"https://maps.google.com/?cid=0x0:0x3a4e5173a3751571"
"mall";"Toko Buah dan Sayuran";"CBD Buah";"45JF+HCW, Peunaga Rayeuk, Kec. Meureubo, Kabupaten Aceh Barat, Aceh 23681";"Peunaga Rayeuk, Kec. Meureubo, Kabupaten Aceh Barat";"ACEH";"23681";"Indonesia";" 085358540893";"4.1314995";"96.1735677";"https://maps.google.com/?cid=0x0:0x9e9e670bbbeae03a"
"mall";"Toko bahan makanan";"Halal Mart Stock Center (SC) Meulaboh";"546H+C28, Drien Rampak, Kec. Johan Pahlawan, Kabupaten Aceh Barat, Aceh 23616";"Drien Rampak, Kec. Johan Pahlawan, Kabupaten Aceh Barat";"ACEH";"23616";"Indonesia";"";"4.1610456";"96.1275883";"https://maps.google.com/?cid=0x0:0x99206aeb1a7a7812"
"mall";"Pusat Bisnis";"mogis.clorist";"545G+4JH, Jl. Domba, Drien Rampak, Kec. Johan Pahlawan, Kabupaten Aceh Barat, Aceh 23611";"Jl. Domba, Drien Rampak, Kec. Johan Pahlawan, Kabupaten Aceh Barat";"ACEH";"23611";"Indonesia";" 082274448809";"4.1578216";"96.1265977";"https://maps.google.com/?cid=0x0:0xac02b4657e680b28"
"mall";"Pasar";"Komplek Pasar Bina Usaha";"44VH+JP2, Ujong Baroh, Kec. Johan Pahlawan, Kabupaten Aceh Barat, Aceh 23681";"Ujong Baroh, Kec. Johan Pahlawan, Kabupaten Aceh Barat";"ACEH";"23681";"Indonesia";"";"4.1440169";"96.1292648";"https://maps.google.com/?cid=0x0:0x297302c5f23de811"
"mall";"Pusat Perbelanjaan";"ZAHWA SuperMarket  Dept Store";"548M+629, Gampa, Kec. Johan Pahlawan, Kabupaten Aceh Barat, Aceh 23611";"Gampa, Kec. Johan Pahlawan, Kabupaten Aceh Barat";"ACEH";"23611";"Indonesia";"";"4.1655405";"96.1326012";"https://maps.google.com/?cid=0x0:0xa76f84b5a7d72faf"
"mall";"Pusat Perbelanjaan";"Bc HNI MEULABOH";"544F+WW3, Drien Rampak, Kec. Johan Pahlawan, Kabupaten Aceh Barat, Aceh 23611";"Drien Rampak, Kec. Johan Pahlawan, Kabupaten Aceh Barat";"ACEH";"23611";"Indonesia";" 08116854141";"4.1572539";"96.1248116";"https://maps.google.com/?cid=0x0:0xc5799a428d6d01ca"
"mall";"Toko Pakaian";"Rabbani Meulaboh";"Jl. Nasional No.12, Drien Rampak, Kec. Johan Pahlawan, Kabupaten Aceh Barat, Aceh 23681";"Drien Rampak, Kec. Johan Pahlawan, Kabupaten Aceh Barat";"ACEH";"23681";"Indonesia";" 06557552504";"4.1496164";"96.1322575";"https://maps.google.com/?cid=0x0:0x83bea3e933820b92"
"mall";"Toko";"Toko Beutari Foto Copy";"45X2+9R7, Jl. Lintas Barat Sumatera, Meureubo, Kec. Meureubo, Kabupaten Aceh Barat, Aceh 23681";"Jl. Lintas Barat Sumatera, Meureubo, Kec. Meureubo, Kabupaten Aceh Barat";"ACEH";"23681";"Indonesia";"";"4.148419";"96.1520376";"https://maps.google.com/?cid=0x0:0x13bf0165dd1b17aa"
"mall";"Toko";"Toko Doa Ibu";"45X2+H5Q, Meureubo, Kec. Meureubo, Kabupaten Aceh Barat, Aceh 23681";"Meureubo, Kec. Meureubo, Kabupaten Aceh Barat";"ACEH";"23681";"Indonesia";"";"4.1488212";"96.1509456";"https://maps.google.com/?cid=0x0:0x6c4cc2ccb3b70ade"
"mall";"Toko";"Toko Jp Sepakat Interior";"44WG+PVF, Kuta Padang, Kec. Johan Pahlawan, Kabupaten Aceh Barat, Aceh 23681";"Kuta Padang, Kec. Johan Pahlawan, Kabupaten Aceh Barat";"ACEH";"23681";"Indonesia";" 082274401115";"4.1468019";"96.1271742";"https://maps.google.com/?cid=0x0:0x2b210b5c5b7eb7eb"
"mall";"Toko";"Jazirah Meulaboh";"Jl. Nasional, Rundeng, Kec. Johan Pahlawan, Kabupaten Aceh Barat, Aceh 23681";"Rundeng, Kec. Johan Pahlawan, Kabupaten Aceh Barat";"ACEH";"23681";"Indonesia";" 082168219770";"4.1510197";"96.1337569";"https://maps.google.com/?cid=0x0:0x40b7b582affb6342"
"mall";"Toko Swalayan";"Depot Air Minum Mineral";"54FP+6HF, Jl. Sisingamangaraja, Lapang, Kec. Johan Pahlawan, Kabupaten Aceh Barat, Aceh 23611";"Jl. Sisingamangaraja, Lapang, Kec. Johan Pahlawan, Kabupaten Aceh Barat";"ACEH";"23611";"Indonesia";"";"4.1730519";"96.1364101";"https://maps.google.com/?cid=0x0:0x332493faf878f79c"
"mall";"mall";"Pante Ceureumen";"Kec. Pantai Ceuremen, Kabupaten Aceh Barat, Aceh";"Kabupaten Aceh Barat, Aceh";"ACEH";"";"Indonesia";"";"4.4094535";"96.3093164";"https://maps.google.com/?cid=0x0:0xf240303722d487ec"
"mall";"Toko umum";"Toko Jasa Family";"C76W+84R, Pante Ceureumen, Kec. Pantai Ceuremen, Kabupaten Aceh Barat, Aceh 23681";"Pante Ceureumen, Kec. Pantai Ceuremen, Kabupaten Aceh Barat";"ACEH";"23681";"Indonesia";" 085260283953";"4.4108624";"96.2952812";"https://maps.google.com/?cid=0x0:0xddf5984ef5fec7b3"
"mall";"mall";"Pasar Sabtu Pante Ceureumen";"C882+XPC, Pante Ceureumen, Kec. Pantai Ceuremen, Kabupaten Aceh Barat, Aceh 23681";"Pante Ceureumen, Kec. Pantai Ceuremen, Kabupaten Aceh Barat";"ACEH";"23681";"Indonesia";"";"4.4176153";"96.3013036";"https://maps.google.com/?cid=0x0:0xfa803004d6cae75"
"mall";"mall";"Kec. Panton Reu";"Kabupaten Aceh Barat, Aceh";"Kabupaten Aceh Barat, Aceh";"ACEH";"";"Indonesia";"";"4.4017347";"96.2074781";"https://maps.google.com/?cid=0x0:0x902220a2606eab5"
"mall";"Pusat Perbelanjaan";"Kuweh aceh";"C625+828, Jl. Geumpang - Tutut, Meutulang, Kec. Panton Reu, Kabupaten Aceh Barat, Aceh 23681";"Jl. Geumpang - Tutut, Meutulang, Kec. Panton Reu, Kabupaten Aceh Barat";"ACEH";"23681";"Indonesia";" 085260712062";"4.40079";"96.2075747";"https://maps.google.com/?cid=0x0:0x57c8b4ddd3ab093a"
"mall";"Toko";"riski gas";"C624+5W4, Meutulang, Kec. Panton Reu, Kabupaten Aceh Barat, Aceh 23681";"Meutulang, Kec. Panton Reu, Kabupaten Aceh Barat";"ACEH";"23681";"Indonesia";" 085277974932";"4.4003836";"96.207334";"https://maps.google.com/?cid=0x0:0x8359d74940471cd2"
"mall";"mall";"D'mah_henna";"C646+794, Kuala Manye, Kec. Panton Reu, Kabupaten Aceh Barat, Aceh 23681";"Kuala Manye, Kec. Panton Reu, Kabupaten Aceh Barat";"ACEH";"23681";"Indonesia";" 082272375303";"4.4056314";"96.2109469";"https://maps.google.com/?cid=0x0:0x847b267b702c4dd1"
"mall";"Kantor Pemerintah";"Kantor Camat Panton Reu";"C54X+RFH, Meutulang, Kec. Panton Reu, Kabupaten Aceh Barat, Aceh 23681";"Meutulang, Kec. Panton Reu, Kabupaten Aceh Barat";"ACEH";"23681";"Indonesia";"";"4.4070664";"96.1987482";"https://maps.google.com/?cid=0x0:0x2e73c494d3050be5"
"mall";"Toko Ponsel";"Alkun Ponsel";"F44X+QMV, Alue Kuyuen, Kec. Woyla Tim., Kabupaten Aceh Barat, Aceh 23681";"Alue Kuyuen, Kec. Woyla Tim., Kabupaten Aceh Barat";"ACEH";"23681";"Indonesia";"";"4.4569898";"96.1491757";"https://maps.google.com/?cid=0x0:0x43147e959c158788"
"mall";"Pusat Perbelanjaan";"Pusat Perbelanjaan";"93M4+PJV, Lueng Tanoh Tho, Kec. Woyla, Kabupaten Aceh Barat, Aceh 23654";"Lueng Tanoh Tho, Kec. Woyla, Kabupaten Aceh Barat";"ACEH";"23654";"Indonesia";"";"4.384364";"96.0565433";"https://maps.google.com/?cid=0x0:0x13703bf328a1dfc8"
"mall";"mall";"Aceh 23681";"Kabupaten Aceh Barat, Aceh";"Kabupaten Aceh Barat, Aceh";"ACEH";"";"Indonesia";"";"4.4129708";"96.195132";"https://maps.google.com/?cid=0x0:0x75d543d4e33374a6"
"mall";"Pusat Perbelanjaan";"SAUDI STORE MEULABOH";"44PJ+347, Ps. Aceh, Kec. Johan Pahlawan, Kabupaten Aceh Barat, Aceh 23681";"Ps. Aceh, Kec. Johan Pahlawan, Kabupaten Aceh Barat";"ACEH";"23681";"Indonesia";" 085260009005";"4.1351445";"96.1302992";"https://maps.google.com/?cid=0x0:0x7db39634a3b1c6d8"
"mall";"Pasar";"Keluarga MS";"6377+QVV, Jl. Meulaboh - Banda Aceh, Cot Darat, Kec. Samatiga, Kabupaten Aceh Barat, Aceh 23652";"Jl. Meulaboh - Banda Aceh, Cot Darat, Kec. Samatiga, Kabupaten Aceh Barat";"ACEH";"23652";"Indonesia";" 085260961641";"4.2144851";"96.0646701";"https://maps.google.com/?cid=0x0:0x2b8d87d31cee038c"
"mall";"Toko";"Toko Jp Sepakat Interior";"44WG+PVF, Kuta Padang, Kec. Johan Pahlawan, Kabupaten Aceh Barat, Aceh 23681";"Kuta Padang, Kec. Johan Pahlawan, Kabupaten Aceh Barat";"ACEH";"23681";"Indonesia";" 082274401115";"4.1468019";"96.1271742";"https://maps.google.com/?cid=0x0:0x2b210b5c5b7eb7eb"
"mall";"Pusat Perbelanjaan";"SP. Gunong Meuh Kaway XVI A.Barat";"85FM+9W7, Jl. Geumpang - Tutut, Alue Lhok, Kec. Kaway XVI, Kabupaten Aceh Barat, Aceh 23681";"Jl. Geumpang - Tutut, Alue Lhok, Kec. Kaway XVI, Kabupaten Aceh Barat";"ACEH";"23681";"Indonesia";" 085262730130";"4.3234102";"96.1847897";"https://maps.google.com/?cid=0x0:0x7982fc70e071f648"
"mall";"Toko";"Toko Restu Mama";"44RJ+MF7, Jl. H Daud Dariyah, Ujong Baroh, Kec. Johan Pahlawan, Kabupaten Aceh Barat, Aceh 23681";"Jl. H Daud Dariyah, Ujong Baroh, Kec. Johan Pahlawan, Kabupaten Aceh Barat";"ACEH";"23681";"Indonesia";"";"4.1416573";"96.1311845";"https://maps.google.com/?cid=0x0:0xf5d6b2ce98df49bd"
"mall";"Toko bahan makanan";"Halal Mart Stock Center (SC) Meulaboh";"546H+C28, Drien Rampak, Kec. Johan Pahlawan, Kabupaten Aceh Barat, Aceh 23616";"Drien Rampak, Kec. Johan Pahlawan, Kabupaten Aceh Barat";"ACEH";"23616";"Indonesia";"";"4.1610456";"96.1275883";"https://maps.google.com/?cid=0x0:0x99206aeb1a7a7812"
"mall";"Toko";"Toko cahaya bulan";"Jl. Singgah Mata, Ujong Baroh, Kec. Johan Pahlawan, Kabupaten Aceh Barat, Aceh 23681";"Ujong Baroh, Kec. Johan Pahlawan, Kabupaten Aceh Barat";"ACEH";"23681";"Indonesia";" 085370106717";"4.1463984";"96.1276054";"https://maps.google.com/?cid=0x0:0x1755c10db38e5a86"
"mall";"Pusat Perbelanjaan";"ZAHWA SuperMarket  Dept Store";"548M+629, Gampa, Kec. Johan Pahlawan, Kabupaten Aceh Barat, Aceh 23611";"Gampa, Kec. Johan Pahlawan, Kabupaten Aceh Barat";"ACEH";"23611";"Indonesia";"";"4.1655405";"96.1326012";"https://maps.google.com/?cid=0x0:0xa76f84b5a7d72faf"
"mall";"Pusat Perbelanjaan";"Ahyal Aqua Pungkie";"76J3+W5F, Jl. Meulaboh - Kaway XVI, Pungkie, Kec. Kaway XVI, Kabupaten Aceh Barat, Aceh 23681";"Jl. Meulaboh - Kaway XVI, Pungkie, Kec. Kaway XVI, Kabupaten Aceh Barat";"ACEH";"23681";"Indonesia";" 085270128453";"4.2823223";"96.2029357";"https://maps.google.com/?cid=0x0:0x72426c0778226a90"
"mall";"Pusat Perbelanjaan";"Kuweh aceh";"C625+828, Jl. Geumpang - Tutut, Meutulang, Kec. Panton Reu, Kabupaten Aceh Barat, Aceh 23681";"Jl. Geumpang - Tutut, Meutulang, Kec. Panton Reu, Kabupaten Aceh Barat";"ACEH";"23681";"Indonesia";" 085260712062";"4.40079";"96.2075747";"https://maps.google.com/?cid=0x0:0x57c8b4ddd3ab093a"
"mall";"Toko Perlengkapan Rumah";"Keude Alya jaya";"Jl. TGK Di Pancu, Blang Berandang, Kec. Johan Pahlawan, Kabupaten Aceh Barat, Aceh 23681";"Blang Berandang, Kec. Johan Pahlawan, Kabupaten Aceh Barat";"ACEH";"23681";"Indonesia";" 085360101944";"4.195172";"96.1435018";"https://maps.google.com/?cid=0x0:0x426457b3aec6994f"
"mall";"Toko grosir";"TOKO SOHOI";"44VH+6CG, Jl. Teuku Chik Ali Akbar, Ujung Kalak, Kec. Johan Pahlawan, Kabupaten Aceh Barat, Aceh 23681";"Jl. Teuku Chik Ali Akbar, Ujung Kalak, Kec. Johan Pahlawan, Kabupaten Aceh Barat";"ACEH";"23681";"Indonesia";" 085310674587";"4.1430546";"96.1285728";"https://maps.google.com/?cid=0x0:0x2fa6cf783ecdf617"
"mall";"Pusat Perbelanjaan";"Pusat Perbelanjaan";"93M4+PJV, Lueng Tanoh Tho, Kec. Woyla, Kabupaten Aceh Barat, Aceh 23654";"Lueng Tanoh Tho, Kec. Woyla, Kabupaten Aceh Barat";"ACEH";"23654";"Indonesia";"";"4.384364";"96.0565433";"https://maps.google.com/?cid=0x0:0x13703bf328a1dfc8"
"mall";"Pusat Perbelanjaan";"Suzuya Mall Banda Aceh";"Jl. Teuku Umar, Lamtemen Tim., Kec. Jaya Baru, Kota Banda Aceh, Aceh 23232";"Lamtemen Tim., Kec. Jaya Baru, Kota Banda Aceh";"ACEH";"23232";"Indonesia";" 06518011022";"5.5377324";"95.3068005";"https://maps.google.com/?cid=0x0:0xc5c56efc74442dea"
"mall";"mall";"Aceh 23683";"Kec. Sungai MAS, Kabupaten Aceh Barat, Aceh";"Kabupaten Aceh Barat, Aceh";"ACEH";"";"Indonesia";"";"4.5776801";"96.1102943";"https://maps.google.com/?cid=0x0:0xaddf9b2ca15b53aa"
"mall";"Pusat Perbelanjaan";"Pusat Perbelanjaan";"93M4+PJV, Lueng Tanoh Tho, Kec. Woyla, Kabupaten Aceh Barat, Aceh 23654";"Lueng Tanoh Tho, Kec. Woyla, Kabupaten Aceh Barat";"ACEH";"23654";"Indonesia";"";"4.384364";"96.0565433";"https://maps.google.com/?cid=0x0:0x13703bf328a1dfc8"
"mall";"Pusat Perbelanjaan";"Dkya ponsel";"F524+M4H, Alue Kuyuen, Kec. Woyla Tim., Kabupaten Aceh Barat, Aceh";"Kabupaten Aceh Barat, Aceh";"ACEH";"";"Indonesia";"";"4.451692";"96.1553498";"https://maps.google.com/?cid=0x0:0x4bdb0c269fe830fd"
"supermarket";"supermarket";"Aceh 23611";"Kec. Johan Pahlawan, Kabupaten Aceh Barat, Aceh";"Kabupaten Aceh Barat, Aceh";"ACEH";"";"Indonesia";"";"4.193957";"96.1261925";"https://maps.google.com/?cid=0x0:0xa5883fcf3488a614"
"supermarket";"Pusat Perbelanjaan";"ZAHWA SuperMarket  Dept Store";"548M+629, Gampa, Kec. Johan Pahlawan, Kabupaten Aceh Barat, Aceh 23611";"Gampa, Kec. Johan Pahlawan, Kabupaten Aceh Barat";"ACEH";"23611";"Indonesia";"";"4.1655405";"96.1326012";"https://maps.google.com/?cid=0x0:0xa76f84b5a7d72faf"
"supermarket";"Toko Swalayan";"Sejahtera Swalayan";"543J+V3W, Drien Rampak, Kec. Johan Pahlawan, Kabupaten Aceh Barat, Aceh 23611";"Drien Rampak, Kec. Johan Pahlawan, Kabupaten Aceh Barat";"ACEH";"23611";"Indonesia";"";"4.1547323";"96.1302075";"https://maps.google.com/?cid=0x0:0xff57c374b70bc1c5"
"supermarket";"Toko bahan makanan";"DAMAI BARU SWALAYAN";"548M+34W, Jl. Sisingamangaraja, Gampa, Kec. Johan Pahlawan, Kabupaten Aceh Barat, Aceh 23611";"Jl. Sisingamangaraja, Gampa, Kec. Johan Pahlawan, Kabupaten Aceh Barat";"ACEH";"23611";"Indonesia";" 082252581521";"4.1654188";"96.1329108";"https://maps.google.com/?cid=0x0:0x7e124ab6f26ec2"
"supermarket";"Toko Swalayan";"Swalayan Sultan 2";"54FP+HX8, Lapang, Kec. Johan Pahlawan, Kabupaten Aceh Barat, Aceh 23611";"Lapang, Kec. Johan Pahlawan, Kabupaten Aceh Barat";"ACEH";"23611";"Indonesia";" 085372932343";"4.1739037";"96.1374409";"https://maps.google.com/?cid=0x0:0x66f982241101a80e"
"supermarket";"Toko Swalayan";"Sultan Swalayan";"Jl. Nasional, Rundeng, Kec. Johan Pahlawan, Kabupaten Aceh Barat, Aceh 23681";"Rundeng, Kec. Johan Pahlawan, Kabupaten Aceh Barat";"ACEH";"23681";"Indonesia";"";"4.1501536";"96.132592";"https://maps.google.com/?cid=0x0:0x3c7fc142b4b4ea2f"
"supermarket";"Toko Swalayan";"Pante Barat Swalayan";"545G+5W8, Drien Rampak, Kec. Johan Pahlawan, Kabupaten Aceh Barat, Aceh 23611";"Drien Rampak, Kec. Johan Pahlawan, Kabupaten Aceh Barat";"ACEH";"23611";"Indonesia";"";"4.1579053";"96.1273436";"https://maps.google.com/?cid=0x0:0xe28e037a7b39675"
"supermarket";"Minimarket";"SRC ISWAR";"Lapang, Kec. Johan Pahlawan, Kabupaten Aceh Barat, Aceh 23611";"Kec. Johan Pahlawan, Kabupaten Aceh Barat";"ACEH";"23611";"Indonesia";" 081360689696";"4.1711377";"96.1352529";"https://maps.google.com/?cid=0x0:0xffca5d1f4509278c"
"supermarket";"Minimarket";"ALMUNAWARAH MARKET";"545G+X3G, Drien Rampak, Kec. Johan Pahlawan, Kabupaten Aceh Barat, Aceh 23611";"Drien Rampak, Kec. Johan Pahlawan, Kabupaten Aceh Barat";"ACEH";"23611";"Indonesia";" 082364558686";"4.1599277";"96.1251977";"https://maps.google.com/?cid=0x0:0x733083c21af2502f"
"supermarket";"Pusat Perbelanjaan";"Kedai Faisal";"54VQ+347, Leuhan, Kec. Johan Pahlawan, Kabupaten Aceh Barat, Aceh 23611";"Leuhan, Kec. Johan Pahlawan, Kabupaten Aceh Barat";"ACEH";"23611";"Indonesia";"";"4.1926543";"96.1378003";"https://maps.google.com/?cid=0x0:0x6ff82d7f8a6c2a72"
"supermarket";"Toko Swalayan";"Kios rema";"54WW+WHV, Jl. TGK Di Pancu, Blang Berandang, Kec. Johan Pahlawan, Kabupaten Aceh Barat, Aceh 23681";"Jl. TGK Di Pancu, Blang Berandang, Kec. Johan Pahlawan, Kabupaten Aceh Barat";"ACEH";"23681";"Indonesia";"";"4.1973672";"96.1464228";"https://maps.google.com/?cid=0x0:0x78745acdd846a14d"
"supermarket";"Minimarket";"Toko Putra";"53PX+CCF, Suak Raya, Kec. Johan Pahlawan, Kabupaten Aceh Barat, Aceh 23618";"Suak Raya, Kec. Johan Pahlawan, Kabupaten Aceh Barat";"ACEH";"23618";"Indonesia";" 081260237005";"4.1860626";"96.0985317";"https://maps.google.com/?cid=0x0:0xa098768c71a21894"
"supermarket";"Minimarket";"Awak Droe Cell";"54H4+3R7, Suak Raya, Kec. Johan Pahlawan, Kabupaten Aceh Barat, Aceh 23611";"Suak Raya, Kec. Johan Pahlawan, Kabupaten Aceh Barat";"ACEH";"23611";"Indonesia";" 085359069473";"4.1776561";"96.1070466";"https://maps.google.com/?cid=0x0:0x28ebc8b8e6338932"
"supermarket";"Pasar";"TOKO EZA";"Seuneubok, Kec. Johan Pahlawan, Kabupaten Aceh Barat, Aceh 23611";"Kec. Johan Pahlawan, Kabupaten Aceh Barat";"ACEH";"23611";"Indonesia";"";"4.1757426";"96.1086789";"https://maps.google.com/?cid=0x0:0xbcc6bbfe39edf707"
"supermarket";"supermarket";"Aceh 23612";"Kec. Johan Pahlawan, Kabupaten Aceh Barat, Aceh";"Kabupaten Aceh Barat, Aceh";"ACEH";"";"Indonesia";"";"4.1507206";"96.1182429";"https://maps.google.com/?cid=0x0:0x2c0ec8e782c3eb0"
"supermarket";"Toko Swalayan";"Sejahtera Swalayan";"543J+V3W, Drien Rampak, Kec. Johan Pahlawan, Kabupaten Aceh Barat, Aceh 23611";"Drien Rampak, Kec. Johan Pahlawan, Kabupaten Aceh Barat";"ACEH";"23611";"Indonesia";"";"4.1547323";"96.1302075";"https://maps.google.com/?cid=0x0:0xff57c374b70bc1c5"
"supermarket";"Toko Swalayan";"Sultan Swalayan";"Jl. Nasional, Rundeng, Kec. Johan Pahlawan, Kabupaten Aceh Barat, Aceh 23681";"Rundeng, Kec. Johan Pahlawan, Kabupaten Aceh Barat";"ACEH";"23681";"Indonesia";"";"4.1501536";"96.132592";"https://maps.google.com/?cid=0x0:0x3c7fc142b4b4ea2f"
"supermarket";"Toko Swalayan";"Pante Barat Swalayan";"545G+5W8, Drien Rampak, Kec. Johan Pahlawan, Kabupaten Aceh Barat, Aceh 23611";"Drien Rampak, Kec. Johan Pahlawan, Kabupaten Aceh Barat";"ACEH";"23611";"Indonesia";"";"4.1579053";"96.1273436";"https://maps.google.com/?cid=0x0:0xe28e037a7b39675"
"supermarket";"Toko Peralatan dan Bahan Kue";"Fresh Mart";"Jl. Manek Roo, Kuta Padang, Kec. Johan Pahlawan, Kabupaten Aceh Barat, Aceh";"Kabupaten Aceh Barat, Aceh";"ACEH";"";"Indonesia";" 085362864022";"4.1485813";"96.1227062";"https://maps.google.com/?cid=0x0:0xdcb65df4584198b7"
"supermarket";"Minimarket";"ALMUNAWARAH MARKET";"545G+X3G, Drien Rampak, Kec. Johan Pahlawan, Kabupaten Aceh Barat, Aceh 23611";"Drien Rampak, Kec. Johan Pahlawan, Kabupaten Aceh Barat";"ACEH";"23611";"Indonesia";" 082364558686";"4.1599277";"96.1251977";"https://maps.google.com/?cid=0x0:0x733083c21af2502f"
"supermarket";"Toko bahan makanan";"Kios Army";"44W9+CP2, Jl. Iskandar Muda, Kuta Padang, Kec. Johan Pahlawan, Kabupaten Aceh Barat, Aceh 23612";"Jl. Iskandar Muda, Kuta Padang, Kec. Johan Pahlawan, Kabupaten Aceh Barat";"ACEH";"23612";"Indonesia";" 082167195017";"4.1461585";"96.1190904";"https://maps.google.com/?cid=0x0:0x34b475c5beb0c3d6"
"supermarket";"Toko umum";"FAJAR JAYA MART";"44XF+RCH, Jl. Manek Roo, Kuta Padang, Kec. Johan Pahlawan, Kabupaten Aceh Barat, Aceh 23612";"Jl. Manek Roo, Kuta Padang, Kec. Johan Pahlawan, Kabupaten Aceh Barat";"ACEH";"23612";"Indonesia";" 082238604845";"4.1495695";"96.1236184";"https://maps.google.com/?cid=0x0:0xb7d74d66c8df60a8"
"supermarket";"Toko Swalayan";"Swalayan Sabena";"54FP+9JP, Meulaboh, Lapang, Kec. Johan Pahlawan, Kabupaten Aceh Barat, Aceh 23611";"Meulaboh, Lapang, Kec. Johan Pahlawan, Kabupaten Aceh Barat";"ACEH";"23611";"Indonesia";"";"4.1734683";"96.1365937";"https://maps.google.com/?cid=0x0:0xd6e3bbd2523fcd34"
"supermarket";"Minimarket";"Indomaret Manek Roo";"542G+G3V, Jl. Manek Roo, Ujong Baroh, Kec. Johan Pahlawan, Kabupaten Aceh Barat, Aceh 23612";"Jl. Manek Roo, Ujong Baroh, Kec. Johan Pahlawan, Kabupaten Aceh Barat";"ACEH";"23612";"Indonesia";"";"4.1520401";"96.1260308";"https://maps.google.com/?cid=0x0:0x7aabd98f36fcd0ca"
"supermarket";"Toko bahan makanan";"DAMAI BARU SWALAYAN";"548M+34W, Jl. Sisingamangaraja, Gampa, Kec. Johan Pahlawan, Kabupaten Aceh Barat, Aceh 23611";"Jl. Sisingamangaraja, Gampa, Kec. Johan Pahlawan, Kabupaten Aceh Barat";"ACEH";"23611";"Indonesia";" 082252581521";"4.1654188";"96.1329108";"https://maps.google.com/?cid=0x0:0x7e124ab6f26ec2"
"supermarket";"Toko Swalayan";"Swalayan Sultan 2";"54FP+HX8, Lapang, Kec. Johan Pahlawan, Kabupaten Aceh Barat, Aceh 23611";"Lapang, Kec. Johan Pahlawan, Kabupaten Aceh Barat";"ACEH";"23611";"Indonesia";" 085372932343";"4.1739037";"96.1374409";"https://maps.google.com/?cid=0x0:0x66f982241101a80e"
"supermarket";"Kedai Kopi";"Kupi Gampong";"542F+8VJ, Jl. Manek Roo, Ujong Baroh, Kec. Johan Pahlawan, Kabupaten Aceh Barat, Aceh 23612";"Jl. Manek Roo, Ujong Baroh, Kec. Johan Pahlawan, Kabupaten Aceh Barat";"ACEH";"23612";"Indonesia";"";"4.1508456";"96.1246486";"https://maps.google.com/?cid=0x0:0xf66b9dabb2a02e54"
"supermarket";"Minimarket";"INDOMARET UJUNG MANEK RO";"44W9+CQQ, Kuta Padang, Kec. Johan Pahlawan, Kabupaten Aceh Barat, Aceh 23612";"Kuta Padang, Kec. Johan Pahlawan, Kabupaten Aceh Barat";"ACEH";"23612";"Indonesia";"";"4.1460976";"96.1195663";"https://maps.google.com/?cid=0x0:0xdcc9c806ba3eaff9"
"supermarket";"supermarket";"Aceh 23613";"Kec. Johan Pahlawan, Kabupaten Aceh Barat, Aceh";"Kabupaten Aceh Barat, Aceh";"ACEH";"";"Indonesia";"";"4.1496011";"96.0983734";"https://maps.google.com/?cid=0x0:0x9801922fff087058"
"supermarket";"Toko Swalayan";"Sejahtera Swalayan";"543J+V3W, Drien Rampak, Kec. Johan Pahlawan, Kabupaten Aceh Barat, Aceh 23611";"Drien Rampak, Kec. Johan Pahlawan, Kabupaten Aceh Barat";"ACEH";"23611";"Indonesia";"";"4.1547323";"96.1302075";"https://maps.google.com/?cid=0x0:0xff57c374b70bc1c5"
"supermarket";"Pusat Perbelanjaan";"ZAHWA SuperMarket  Dept Store";"548M+629, Gampa, Kec. Johan Pahlawan, Kabupaten Aceh Barat, Aceh 23611";"Gampa, Kec. Johan Pahlawan, Kabupaten Aceh Barat";"ACEH";"23611";"Indonesia";"";"4.1655405";"96.1326012";"https://maps.google.com/?cid=0x0:0xa76f84b5a7d72faf"
"supermarket";"Toko Swalayan";"Swalayan Sabena";"54FP+9JP, Meulaboh, Lapang, Kec. Johan Pahlawan, Kabupaten Aceh Barat, Aceh 23611";"Meulaboh, Lapang, Kec. Johan Pahlawan, Kabupaten Aceh Barat";"ACEH";"23611";"Indonesia";"";"4.1734683";"96.1365937";"https://maps.google.com/?cid=0x0:0xd6e3bbd2523fcd34"
"supermarket";"Toko Swalayan";"Swalayan Sultan 2";"54FP+HX8, Lapang, Kec. Johan Pahlawan, Kabupaten Aceh Barat, Aceh 23611";"Lapang, Kec. Johan Pahlawan, Kabupaten Aceh Barat";"ACEH";"23611";"Indonesia";" 085372932343";"4.1739037";"96.1374409";"https://maps.google.com/?cid=0x0:0x66f982241101a80e"
"supermarket";"Toko Swalayan";"Pante Barat Swalayan";"545G+5W8, Drien Rampak, Kec. Johan Pahlawan, Kabupaten Aceh Barat, Aceh 23611";"Drien Rampak, Kec. Johan Pahlawan, Kabupaten Aceh Barat";"ACEH";"23611";"Indonesia";"";"4.1579053";"96.1273436";"https://maps.google.com/?cid=0x0:0xe28e037a7b39675"
"supermarket";"Minimarket";"SRC ISWAR";"Lapang, Kec. Johan Pahlawan, Kabupaten Aceh Barat, Aceh 23611";"Kec. Johan Pahlawan, Kabupaten Aceh Barat";"ACEH";"23611";"Indonesia";" 081360689696";"4.1711377";"96.1352529";"https://maps.google.com/?cid=0x0:0xffca5d1f4509278c"
"supermarket";"Toko bahan makanan";"DAMAI BARU SWALAYAN";"548M+34W, Jl. Sisingamangaraja, Gampa, Kec. Johan Pahlawan, Kabupaten Aceh Barat, Aceh 23611";"Jl. Sisingamangaraja, Gampa, Kec. Johan Pahlawan, Kabupaten Aceh Barat";"ACEH";"23611";"Indonesia";" 082252581521";"4.1654188";"96.1329108";"https://maps.google.com/?cid=0x0:0x7e124ab6f26ec2"
"supermarket";"Minimarket";"ALMUNAWARAH MARKET";"545G+X3G, Drien Rampak, Kec. Johan Pahlawan, Kabupaten Aceh Barat, Aceh 23611";"Drien Rampak, Kec. Johan Pahlawan, Kabupaten Aceh Barat";"ACEH";"23611";"Indonesia";" 082364558686";"4.1599277";"96.1251977";"https://maps.google.com/?cid=0x0:0x733083c21af2502f"
"supermarket";"Toko bahan makanan";"Kios Army";"44W9+CP2, Jl. Iskandar Muda, Kuta Padang, Kec. Johan Pahlawan, Kabupaten Aceh Barat, Aceh 23612";"Jl. Iskandar Muda, Kuta Padang, Kec. Johan Pahlawan, Kabupaten Aceh Barat";"ACEH";"23612";"Indonesia";" 082167195017";"4.1461585";"96.1190904";"https://maps.google.com/?cid=0x0:0x34b475c5beb0c3d6"
"supermarket";"Pusat Perbelanjaan";"Kedai Faisal";"54VQ+347, Leuhan, Kec. Johan Pahlawan, Kabupaten Aceh Barat, Aceh 23611";"Leuhan, Kec. Johan Pahlawan, Kabupaten Aceh Barat";"ACEH";"23611";"Indonesia";"";"4.1926543";"96.1378003";"https://maps.google.com/?cid=0x0:0x6ff82d7f8a6c2a72"
"supermarket";"Toko Peralatan dan Bahan Kue";"Fresh Mart";"Jl. Manek Roo, Kuta Padang, Kec. Johan Pahlawan, Kabupaten Aceh Barat, Aceh";"Kabupaten Aceh Barat, Aceh";"ACEH";"";"Indonesia";" 085362864022";"4.1485813";"96.1227062";"https://maps.google.com/?cid=0x0:0xdcb65df4584198b7"
"supermarket";"Toko Swalayan";"Mitra Ummi mart mini market";"Jl. Imam Bonjol No.29, Drien Rampak, Kec. Johan Pahlawan, Kabupaten Aceh Barat, Aceh 23611";"Drien Rampak, Kec. Johan Pahlawan, Kabupaten Aceh Barat";"ACEH";"23611";"Indonesia";"";"4.1605023";"96.1264162";"https://maps.google.com/?cid=0x0:0xca491ea22a029735"
"supermarket";"Minimarket";"TOKO SEMBAKO ALFARIZQI";"Jl. Imam Bonjol No.101, Seuneubok, Kec. Johan Pahlawan, Kabupaten Aceh Barat, Aceh 23616";"Seuneubok, Kec. Johan Pahlawan, Kabupaten Aceh Barat";"ACEH";"23616";"Indonesia";"";"4.1681081";"96.1169662";"https://maps.google.com/?cid=0x0:0x925bf1e26c3cb02f"
"supermarket";"Pusat Perbelanjaan";"ZAHWA SuperMarket  Dept Store";"548M+629, Gampa, Kec. Johan Pahlawan, Kabupaten Aceh Barat, Aceh 23611";"Gampa, Kec. Johan Pahlawan, Kabupaten Aceh Barat";"ACEH";"23611";"Indonesia";"";"4.1655405";"96.1326012";"https://maps.google.com/?cid=0x0:0xa76f84b5a7d72faf"
"supermarket";"supermarket";"Aceh 23614";"Kec. Johan Pahlawan, Kabupaten Aceh Barat, Aceh";"Kabupaten Aceh Barat, Aceh";"ACEH";"";"Indonesia";"";"4.1572395";"96.0983734";"https://maps.google.com/?cid=0x0:0xb8e25ed660b8aa81"
"supermarket";"Toko Swalayan";"Sejahtera Swalayan";"543J+V3W, Drien Rampak, Kec. Johan Pahlawan, Kabupaten Aceh Barat, Aceh 23611";"Drien Rampak, Kec. Johan Pahlawan, Kabupaten Aceh Barat";"ACEH";"23611";"Indonesia";"";"4.1547323";"96.1302075";"https://maps.google.com/?cid=0x0:0xff57c374b70bc1c5"
"supermarket";"Toko Swalayan";"Swalayan Sabena";"54FP+9JP, Meulaboh, Lapang, Kec. Johan Pahlawan, Kabupaten Aceh Barat, Aceh 23611";"Meulaboh, Lapang, Kec. Johan Pahlawan, Kabupaten Aceh Barat";"ACEH";"23611";"Indonesia";"";"4.1734683";"96.1365937";"https://maps.google.com/?cid=0x0:0xd6e3bbd2523fcd34"
"supermarket";"Minimarket";"SRC ISWAR";"Lapang, Kec. Johan Pahlawan, Kabupaten Aceh Barat, Aceh 23611";"Kec. Johan Pahlawan, Kabupaten Aceh Barat";"ACEH";"23611";"Indonesia";" 081360689696";"4.1711377";"96.1352529";"https://maps.google.com/?cid=0x0:0xffca5d1f4509278c"
"supermarket";"Toko Swalayan";"Pante Barat Swalayan";"545G+5W8, Drien Rampak, Kec. Johan Pahlawan, Kabupaten Aceh Barat, Aceh 23611";"Drien Rampak, Kec. Johan Pahlawan, Kabupaten Aceh Barat";"ACEH";"23611";"Indonesia";"";"4.1579053";"96.1273436";"https://maps.google.com/?cid=0x0:0xe28e037a7b39675"
"supermarket";"Toko Swalayan";"Swalayan Sultan 2";"54FP+HX8, Lapang, Kec. Johan Pahlawan, Kabupaten Aceh Barat, Aceh 23611";"Lapang, Kec. Johan Pahlawan, Kabupaten Aceh Barat";"ACEH";"23611";"Indonesia";" 085372932343";"4.1739037";"96.1374409";"https://maps.google.com/?cid=0x0:0x66f982241101a80e"
"supermarket";"Toko bahan makanan";"DAMAI BARU SWALAYAN";"548M+34W, Jl. Sisingamangaraja, Gampa, Kec. Johan Pahlawan, Kabupaten Aceh Barat, Aceh 23611";"Jl. Sisingamangaraja, Gampa, Kec. Johan Pahlawan, Kabupaten Aceh Barat";"ACEH";"23611";"Indonesia";" 082252581521";"4.1654188";"96.1329108";"https://maps.google.com/?cid=0x0:0x7e124ab6f26ec2"
"supermarket";"Minimarket";"ALMUNAWARAH MARKET";"545G+X3G, Drien Rampak, Kec. Johan Pahlawan, Kabupaten Aceh Barat, Aceh 23611";"Drien Rampak, Kec. Johan Pahlawan, Kabupaten Aceh Barat";"ACEH";"23611";"Indonesia";" 082364558686";"4.1599277";"96.1251977";"https://maps.google.com/?cid=0x0:0x733083c21af2502f"
"supermarket";"Toko Peralatan dan Bahan Kue";"Fresh Mart";"Jl. Manek Roo, Kuta Padang, Kec. Johan Pahlawan, Kabupaten Aceh Barat, Aceh";"Kabupaten Aceh Barat, Aceh";"ACEH";"";"Indonesia";" 085362864022";"4.1485813";"96.1227062";"https://maps.google.com/?cid=0x0:0xdcb65df4584198b7"
"supermarket";"Minimarket";"Toko Putra";"53PX+CCF, Suak Raya, Kec. Johan Pahlawan, Kabupaten Aceh Barat, Aceh 23618";"Suak Raya, Kec. Johan Pahlawan, Kabupaten Aceh Barat";"ACEH";"23618";"Indonesia";" 081260237005";"4.1860626";"96.0985317";"https://maps.google.com/?cid=0x0:0xa098768c71a21894"
"supermarket";"Pusat Perbelanjaan";"Kedai Faisal";"54VQ+347, Leuhan, Kec. Johan Pahlawan, Kabupaten Aceh Barat, Aceh 23611";"Leuhan, Kec. Johan Pahlawan, Kabupaten Aceh Barat";"ACEH";"23611";"Indonesia";"";"4.1926543";"96.1378003";"https://maps.google.com/?cid=0x0:0x6ff82d7f8a6c2a72"
"supermarket";"Toko Swalayan";"Toko Ravit";"44PJ+P2X, Ps. Aceh, Kec. Johan Pahlawan, Kabupaten Aceh Barat, Aceh 23681";"Ps. Aceh, Kec. Johan Pahlawan, Kabupaten Aceh Barat";"ACEH";"23681";"Indonesia";"";"4.1368717";"96.1300938";"https://maps.google.com/?cid=0x0:0x52d249e0724e0251"
"supermarket";"Toko Swalayan";"Mitra Ummi mart mini market";"Jl. Imam Bonjol No.29, Drien Rampak, Kec. Johan Pahlawan, Kabupaten Aceh Barat, Aceh 23611";"Drien Rampak, Kec. Johan Pahlawan, Kabupaten Aceh Barat";"ACEH";"23611";"Indonesia";"";"4.1605023";"96.1264162";"https://maps.google.com/?cid=0x0:0xca491ea22a029735"
"supermarket";"supermarket";"Aceh 23615";"Kec. Johan Pahlawan, Kabupaten Aceh Barat, Aceh";"Kabupaten Aceh Barat, Aceh";"ACEH";"";"Indonesia";"";"4.1622709";"96.1063204";"https://maps.google.com/?cid=0x0:0xd2bf3e0b78ba4037"
"supermarket";"Pusat Perbelanjaan";"ZAHWA SuperMarket  Dept Store";"548M+629, Gampa, Kec. Johan Pahlawan, Kabupaten Aceh Barat, Aceh 23611";"Gampa, Kec. Johan Pahlawan, Kabupaten Aceh Barat";"ACEH";"23611";"Indonesia";"";"4.1655405";"96.1326012";"https://maps.google.com/?cid=0x0:0xa76f84b5a7d72faf"
"supermarket";"Toko Swalayan";"Sejahtera Swalayan";"543J+V3W, Drien Rampak, Kec. Johan Pahlawan, Kabupaten Aceh Barat, Aceh 23611";"Drien Rampak, Kec. Johan Pahlawan, Kabupaten Aceh Barat";"ACEH";"23611";"Indonesia";"";"4.1547323";"96.1302075";"https://maps.google.com/?cid=0x0:0xff57c374b70bc1c5"
"supermarket";"Toko Swalayan";"Swalayan Sabena";"54FP+9JP, Meulaboh, Lapang, Kec. Johan Pahlawan, Kabupaten Aceh Barat, Aceh 23611";"Meulaboh, Lapang, Kec. Johan Pahlawan, Kabupaten Aceh Barat";"ACEH";"23611";"Indonesia";"";"4.1734683";"96.1365937";"https://maps.google.com/?cid=0x0:0xd6e3bbd2523fcd34"
"supermarket";"Minimarket";"ALMUNAWARAH MARKET";"545G+X3G, Drien Rampak, Kec. Johan Pahlawan, Kabupaten Aceh Barat, Aceh 23611";"Drien Rampak, Kec. Johan Pahlawan, Kabupaten Aceh Barat";"ACEH";"23611";"Indonesia";" 082364558686";"4.1599277";"96.1251977";"https://maps.google.com/?cid=0x0:0x733083c21af2502f"
"supermarket";"Toko bahan makanan";"DAMAI BARU SWALAYAN";"548M+34W, Jl. Sisingamangaraja, Gampa, Kec. Johan Pahlawan, Kabupaten Aceh Barat, Aceh 23611";"Jl. Sisingamangaraja, Gampa, Kec. Johan Pahlawan, Kabupaten Aceh Barat";"ACEH";"23611";"Indonesia";" 082252581521";"4.1654188";"96.1329108";"https://maps.google.com/?cid=0x0:0x7e124ab6f26ec2"
"supermarket";"Minimarket";"SRC ISWAR";"Lapang, Kec. Johan Pahlawan, Kabupaten Aceh Barat, Aceh 23611";"Kec. Johan Pahlawan, Kabupaten Aceh Barat";"ACEH";"23611";"Indonesia";" 081360689696";"4.1711377";"96.1352529";"https://maps.google.com/?cid=0x0:0xffca5d1f4509278c"
"supermarket";"Toko Swalayan";"Pante Barat Swalayan";"545G+5W8, Drien Rampak, Kec. Johan Pahlawan, Kabupaten Aceh Barat, Aceh 23611";"Drien Rampak, Kec. Johan Pahlawan, Kabupaten Aceh Barat";"ACEH";"23611";"Indonesia";"";"4.1579053";"96.1273436";"https://maps.google.com/?cid=0x0:0xe28e037a7b39675"
"supermarket";"Toko Swalayan";"Swalayan Sultan 2";"54FP+HX8, Lapang, Kec. Johan Pahlawan, Kabupaten Aceh Barat, Aceh 23611";"Lapang, Kec. Johan Pahlawan, Kabupaten Aceh Barat";"ACEH";"23611";"Indonesia";" 085372932343";"4.1739037";"96.1374409";"https://maps.google.com/?cid=0x0:0x66f982241101a80e"
"supermarket";"Toko bahan makanan";"Toko serba ada jaya";"547C+P8W, Jl. Imam Bonjol, Seuneubok, Kec. Johan Pahlawan, Kabupaten Aceh Barat, Aceh 23617";"Jl. Imam Bonjol, Seuneubok, Kec. Johan Pahlawan, Kabupaten Aceh Barat";"ACEH";"23617";"Indonesia";" 082166718139";"4.1643594";"96.1208358";"https://maps.google.com/?cid=0x0:0xff0908fb0f3c9cda"
"supermarket";"Toko bahan makanan";"Kios Army";"44W9+CP2, Jl. Iskandar Muda, Kuta Padang, Kec. Johan Pahlawan, Kabupaten Aceh Barat, Aceh 23612";"Jl. Iskandar Muda, Kuta Padang, Kec. Johan Pahlawan, Kabupaten Aceh Barat";"ACEH";"23612";"Indonesia";" 082167195017";"4.1461585";"96.1190904";"https://maps.google.com/?cid=0x0:0x34b475c5beb0c3d6"
"supermarket";"Pusat Perbelanjaan";"Kedai Faisal";"54VQ+347, Leuhan, Kec. Johan Pahlawan, Kabupaten Aceh Barat, Aceh 23611";"Leuhan, Kec. Johan Pahlawan, Kabupaten Aceh Barat";"ACEH";"23611";"Indonesia";"";"4.1926543";"96.1378003";"https://maps.google.com/?cid=0x0:0x6ff82d7f8a6c2a72"
"supermarket";"Minimarket";"Toko Putra";"53PX+CCF, Suak Raya, Kec. Johan Pahlawan, Kabupaten Aceh Barat, Aceh 23618";"Suak Raya, Kec. Johan Pahlawan, Kabupaten Aceh Barat";"ACEH";"23618";"Indonesia";" 081260237005";"4.1860626";"96.0985317";"https://maps.google.com/?cid=0x0:0xa098768c71a21894"
"supermarket";"Toko Pakaian";"Dinda Shop Meulaboh";"Lrg. Nangka No.47, Ujong Baroh, Kec. Johan Pahlawan, Kabupaten Aceh Barat, Aceh 23615";"Ujong Baroh, Kec. Johan Pahlawan, Kabupaten Aceh Barat";"ACEH";"23615";"Indonesia";" 082211409366";"4.1486208";"96.1280248";"https://maps.google.com/?cid=0x0:0x172cb0f0fd928506"
"supermarket";"supermarket";"Aceh 23616";"Kec. Johan Pahlawan, Kabupaten Aceh Barat, Aceh";"Kabupaten Aceh Barat, Aceh";"ACEH";"";"Indonesia";"";"4.1620859";"96.1301677";"https://maps.google.com/?cid=0x0:0xe0be7a42827f0eb0"
"supermarket";"Toko Swalayan";"Sejahtera Swalayan";"543J+V3W, Drien Rampak, Kec. Johan Pahlawan, Kabupaten Aceh Barat, Aceh 23611";"Drien Rampak, Kec. Johan Pahlawan, Kabupaten Aceh Barat";"ACEH";"23611";"Indonesia";"";"4.1547323";"96.1302075";"https://maps.google.com/?cid=0x0:0xff57c374b70bc1c5"
"supermarket";"Pusat Perbelanjaan";"ZAHWA SuperMarket  Dept Store";"548M+629, Gampa, Kec. Johan Pahlawan, Kabupaten Aceh Barat, Aceh 23611";"Gampa, Kec. Johan Pahlawan, Kabupaten Aceh Barat";"ACEH";"23611";"Indonesia";"";"4.1655405";"96.1326012";"https://maps.google.com/?cid=0x0:0xa76f84b5a7d72faf"
"supermarket";"Toko Swalayan";"Pante Barat Swalayan";"545G+5W8, Drien Rampak, Kec. Johan Pahlawan, Kabupaten Aceh Barat, Aceh 23611";"Drien Rampak, Kec. Johan Pahlawan, Kabupaten Aceh Barat";"ACEH";"23611";"Indonesia";"";"4.1579053";"96.1273436";"https://maps.google.com/?cid=0x0:0xe28e037a7b39675"
"supermarket";"Minimarket";"ALMUNAWARAH MARKET";"545G+X3G, Drien Rampak, Kec. Johan Pahlawan, Kabupaten Aceh Barat, Aceh 23611";"Drien Rampak, Kec. Johan Pahlawan, Kabupaten Aceh Barat";"ACEH";"23611";"Indonesia";" 082364558686";"4.1599277";"96.1251977";"https://maps.google.com/?cid=0x0:0x733083c21af2502f"
"supermarket";"Toko Swalayan";"Swalayan Sultan 2";"54FP+HX8, Lapang, Kec. Johan Pahlawan, Kabupaten Aceh Barat, Aceh 23611";"Lapang, Kec. Johan Pahlawan, Kabupaten Aceh Barat";"ACEH";"23611";"Indonesia";" 085372932343";"4.1739037";"96.1374409";"https://maps.google.com/?cid=0x0:0x66f982241101a80e"
"supermarket";"Minimarket";"SRC ISWAR";"Lapang, Kec. Johan Pahlawan, Kabupaten Aceh Barat, Aceh 23611";"Kec. Johan Pahlawan, Kabupaten Aceh Barat";"ACEH";"23611";"Indonesia";" 081360689696";"4.1711377";"96.1352529";"https://maps.google.com/?cid=0x0:0xffca5d1f4509278c"
"supermarket";"Toko bahan makanan";"Toko Rahmat Ummi";"Drien Rampak, Kec. Johan Pahlawan, Kabupaten Aceh Barat, Aceh 23616";"Kec. Johan Pahlawan, Kabupaten Aceh Barat";"ACEH";"23616";"Indonesia";" 085260726174";"4.161055";"96.1313622";"https://maps.google.com/?cid=0x0:0x4537c08762f0065a"
"supermarket";"Toko bahan makanan";"SYUKUR RAHMAT JAYA";"546J+QHQ, Jl. Sisingamangaraja, Drien Rampak, Kec. Johan Pahlawan, Kabupaten Aceh Barat, Aceh 23616";"Jl. Sisingamangaraja, Drien Rampak, Kec. Johan Pahlawan, Kabupaten Aceh Barat";"ACEH";"23616";"Indonesia";" 085210131167";"4.1619619";"96.1314951";"https://maps.google.com/?cid=0x0:0xf9f0f7f99f075a54"
"supermarket";"Toko Pakaian";"Fm store meulaboh";"547J+4M5, Jl. Sisingamangaraja, Drien Rampak, Kec. Johan Pahlawan, Kabupaten Aceh Barat, Aceh 23616";"Jl. Sisingamangaraja, Drien Rampak, Kec. Johan Pahlawan, Kabupaten Aceh Barat";"ACEH";"23616";"Indonesia";" 085156059736";"4.162773";"96.1317381";"https://maps.google.com/?cid=0x0:0x41b46dd34dd9d188"
"supermarket";"Pasar";"Ali Jaya Kelontong";"Unnamed Road, Seuneubok, Kec. Johan Pahlawan, Kabupaten Aceh Barat, Aceh 23616";"Seuneubok, Kec. Johan Pahlawan, Kabupaten Aceh Barat";"ACEH";"23616";"Indonesia";" 085361700224";"4.1642241";"96.1269796";"https://maps.google.com/?cid=0x0:0x65c72fa58c8be7ed"
"supermarket";"Toko Swalayan";"Mitra Ummi mart mini market";"Jl. Imam Bonjol No.29, Drien Rampak, Kec. Johan Pahlawan, Kabupaten Aceh Barat, Aceh 23611";"Drien Rampak, Kec. Johan Pahlawan, Kabupaten Aceh Barat";"ACEH";"23611";"Indonesia";"";"4.1605023";"96.1264162";"https://maps.google.com/?cid=0x0:0xca491ea22a029735"
"supermarket";"Toko Fotokopi";"Mandiri Usaha";"546J+28H, Jl. Sisingamangaraja, Drien Rampak, Kec. Johan Pahlawan, Kabupaten Aceh Barat, Aceh 23616";"Jl. Sisingamangaraja, Drien Rampak, Kec. Johan Pahlawan, Kabupaten Aceh Barat";"ACEH";"23616";"Indonesia";" 082311531757";"4.1600708";"96.1308461";"https://maps.google.com/?cid=0x0:0x91cba0a62a976ca5"
"supermarket";"Toko Pakaian";"YZ STORE GAMPA";"547J+CWJ, Gampa, Kec. Johan Pahlawan, Kabupaten Aceh Barat, Aceh 23616";"Gampa, Kec. Johan Pahlawan, Kabupaten Aceh Barat";"ACEH";"23616";"Indonesia";" 082297538457";"4.1635807";"96.1322575";"https://maps.google.com/?cid=0x0:0x2fec75b67bb2caed"
"supermarket";"supermarket";"Aceh 23617";"Kec. Johan Pahlawan, Kabupaten Aceh Barat, Aceh";"Kabupaten Aceh Barat, Aceh";"ACEH";"";"Indonesia";"";"4.1660395";"96.1129437";"https://maps.google.com/?cid=0x0:0x4f9f747f1f90c64b"
"supermarket";"Toko Swalayan";"Swalayan Sabena";"54FP+9JP, Meulaboh, Lapang, Kec. Johan Pahlawan, Kabupaten Aceh Barat, Aceh 23611";"Meulaboh, Lapang, Kec. Johan Pahlawan, Kabupaten Aceh Barat";"ACEH";"23611";"Indonesia";"";"4.1734683";"96.1365937";"https://maps.google.com/?cid=0x0:0xd6e3bbd2523fcd34"
"supermarket";"Toko Swalayan";"Sejahtera Swalayan";"543J+V3W, Drien Rampak, Kec. Johan Pahlawan, Kabupaten Aceh Barat, Aceh 23611";"Drien Rampak, Kec. Johan Pahlawan, Kabupaten Aceh Barat";"ACEH";"23611";"Indonesia";"";"4.1547323";"96.1302075";"https://maps.google.com/?cid=0x0:0xff57c374b70bc1c5"
"supermarket";"Toko Swalayan";"Sultan Swalayan";"Jl. Nasional, Rundeng, Kec. Johan Pahlawan, Kabupaten Aceh Barat, Aceh 23681";"Rundeng, Kec. Johan Pahlawan, Kabupaten Aceh Barat";"ACEH";"23681";"Indonesia";"";"4.1501536";"96.132592";"https://maps.google.com/?cid=0x0:0x3c7fc142b4b4ea2f"
"supermarket";"Toko Swalayan";"Swalayan Sultan 2";"54FP+HX8, Lapang, Kec. Johan Pahlawan, Kabupaten Aceh Barat, Aceh 23611";"Lapang, Kec. Johan Pahlawan, Kabupaten Aceh Barat";"ACEH";"23611";"Indonesia";" 085372932343";"4.1739037";"96.1374409";"https://maps.google.com/?cid=0x0:0x66f982241101a80e"
"supermarket";"Toko bahan makanan";"DAMAI BARU SWALAYAN";"548M+34W, Jl. Sisingamangaraja, Gampa, Kec. Johan Pahlawan, Kabupaten Aceh Barat, Aceh 23611";"Jl. Sisingamangaraja, Gampa, Kec. Johan Pahlawan, Kabupaten Aceh Barat";"ACEH";"23611";"Indonesia";" 082252581521";"4.1654188";"96.1329108";"https://maps.google.com/?cid=0x0:0x7e124ab6f26ec2"
"supermarket";"Toko Swalayan";"Pante Barat Swalayan";"545G+5W8, Drien Rampak, Kec. Johan Pahlawan, Kabupaten Aceh Barat, Aceh 23611";"Drien Rampak, Kec. Johan Pahlawan, Kabupaten Aceh Barat";"ACEH";"23611";"Indonesia";"";"4.1579053";"96.1273436";"https://maps.google.com/?cid=0x0:0xe28e037a7b39675"
"supermarket";"Minimarket";"SRC ISWAR";"Lapang, Kec. Johan Pahlawan, Kabupaten Aceh Barat, Aceh 23611";"Kec. Johan Pahlawan, Kabupaten Aceh Barat";"ACEH";"23611";"Indonesia";" 081360689696";"4.1711377";"96.1352529";"https://maps.google.com/?cid=0x0:0xffca5d1f4509278c"
"supermarket";"Toko bahan makanan";"Toko serba ada jaya";"547C+P8W, Jl. Imam Bonjol, Seuneubok, Kec. Johan Pahlawan, Kabupaten Aceh Barat, Aceh 23617";"Jl. Imam Bonjol, Seuneubok, Kec. Johan Pahlawan, Kabupaten Aceh Barat";"ACEH";"23617";"Indonesia";" 082166718139";"4.1643594";"96.1208358";"https://maps.google.com/?cid=0x0:0xff0908fb0f3c9cda"
"supermarket";"Minimarket";"ALMUNAWARAH MARKET";"545G+X3G, Drien Rampak, Kec. Johan Pahlawan, Kabupaten Aceh Barat, Aceh 23611";"Drien Rampak, Kec. Johan Pahlawan, Kabupaten Aceh Barat";"ACEH";"23611";"Indonesia";" 082364558686";"4.1599277";"96.1251977";"https://maps.google.com/?cid=0x0:0x733083c21af2502f"
"supermarket";"Toko bahan makanan";"UD. Harkat Tamita";"5498+2HP, Jl. arona, Seuneubok, Kec. Johan Pahlawan, Kabupaten Aceh Barat, Aceh 23617";"Jl. arona, Seuneubok, Kec. Johan Pahlawan, Kabupaten Aceh Barat";"ACEH";"23617";"Indonesia";"";"4.1675882";"96.1164643";"https://maps.google.com/?cid=0x0:0x9db914fa9ed386f2"
"supermarket";"Minimarket";"Family Aqua";"5498+RGC, Seuneubok, Kec. Johan Pahlawan, Kabupaten Aceh Barat, Aceh 23617";"Seuneubok, Kec. Johan Pahlawan, Kabupaten Aceh Barat";"ACEH";"23617";"Indonesia";" 085359855559";"4.169575";"96.116252";"https://maps.google.com/?cid=0x0:0xf6e1b8fde5aa87d9"
"supermarket";"Kedai Kopi";"A. Rafar";"5489+CWX, Seuneubok, Kec. Johan Pahlawan, Kabupaten Aceh Barat, Aceh 23617";"Seuneubok, Kec. Johan Pahlawan, Kabupaten Aceh Barat";"ACEH";"23617";"Indonesia";" 085277285560";"4.166108";"96.119857";"https://maps.google.com/?cid=0x0:0xf6d11faaf7baf7b"
"supermarket";"Toko Swalayan";"Mitra Ummi mart mini market";"Jl. Imam Bonjol No.29, Drien Rampak, Kec. Johan Pahlawan, Kabupaten Aceh Barat, Aceh 23611";"Drien Rampak, Kec. Johan Pahlawan, Kabupaten Aceh Barat";"ACEH";"23611";"Indonesia";"";"4.1605023";"96.1264162";"https://maps.google.com/?cid=0x0:0xca491ea22a029735"
"supermarket";"supermarket";"Aceh 23618";"Kec. Johan Pahlawan, Kabupaten Aceh Barat, Aceh";"Kabupaten Aceh Barat, Aceh";"ACEH";"";"Indonesia";"";"4.186417";"96.1129437";"https://maps.google.com/?cid=0x0:0x4562fc605032d397"
"supermarket";"Toko Swalayan";"Swalayan Sabena";"54FP+9JP, Meulaboh, Lapang, Kec. Johan Pahlawan, Kabupaten Aceh Barat, Aceh 23611";"Meulaboh, Lapang, Kec. Johan Pahlawan, Kabupaten Aceh Barat";"ACEH";"23611";"Indonesia";"";"4.1734683";"96.1365937";"https://maps.google.com/?cid=0x0:0xd6e3bbd2523fcd34"
"supermarket";"Pusat Perbelanjaan";"ZAHWA SuperMarket  Dept Store";"548M+629, Gampa, Kec. Johan Pahlawan, Kabupaten Aceh Barat, Aceh 23611";"Gampa, Kec. Johan Pahlawan, Kabupaten Aceh Barat";"ACEH";"23611";"Indonesia";"";"4.1655405";"96.1326012";"https://maps.google.com/?cid=0x0:0xa76f84b5a7d72faf"
"supermarket";"Toko Swalayan";"Swalayan Sultan 2";"54FP+HX8, Lapang, Kec. Johan Pahlawan, Kabupaten Aceh Barat, Aceh 23611";"Lapang, Kec. Johan Pahlawan, Kabupaten Aceh Barat";"ACEH";"23611";"Indonesia";" 085372932343";"4.1739037";"96.1374409";"https://maps.google.com/?cid=0x0:0x66f982241101a80e"
"supermarket";"Toko Swalayan";"Sejahtera Swalayan";"543J+V3W, Drien Rampak, Kec. Johan Pahlawan, Kabupaten Aceh Barat, Aceh 23611";"Drien Rampak, Kec. Johan Pahlawan, Kabupaten Aceh Barat";"ACEH";"23611";"Indonesia";"";"4.1547323";"96.1302075";"https://maps.google.com/?cid=0x0:0xff57c374b70bc1c5"
"supermarket";"Toko bahan makanan";"DAMAI BARU SWALAYAN";"548M+34W, Jl. Sisingamangaraja, Gampa, Kec. Johan Pahlawan, Kabupaten Aceh Barat, Aceh 23611";"Jl. Sisingamangaraja, Gampa, Kec. Johan Pahlawan, Kabupaten Aceh Barat";"ACEH";"23611";"Indonesia";" 082252581521";"4.1654188";"96.1329108";"https://maps.google.com/?cid=0x0:0x7e124ab6f26ec2"
"supermarket";"Minimarket";"Toko Putra";"53PX+CCF, Suak Raya, Kec. Johan Pahlawan, Kabupaten Aceh Barat, Aceh 23618";"Suak Raya, Kec. Johan Pahlawan, Kabupaten Aceh Barat";"ACEH";"23618";"Indonesia";" 081260237005";"4.1860626";"96.0985317";"https://maps.google.com/?cid=0x0:0xa098768c71a21894"
"supermarket";"Toko Swalayan";"Sultan Swalayan";"Jl. Nasional, Rundeng, Kec. Johan Pahlawan, Kabupaten Aceh Barat, Aceh 23681";"Rundeng, Kec. Johan Pahlawan, Kabupaten Aceh Barat";"ACEH";"23681";"Indonesia";"";"4.1501536";"96.132592";"https://maps.google.com/?cid=0x0:0x3c7fc142b4b4ea2f"
"supermarket";"Minimarket";"Awak Droe Cell";"54H4+3R7, Suak Raya, Kec. Johan Pahlawan, Kabupaten Aceh Barat, Aceh 23611";"Suak Raya, Kec. Johan Pahlawan, Kabupaten Aceh Barat";"ACEH";"23611";"Indonesia";" 085359069473";"4.1776561";"96.1070466";"https://maps.google.com/?cid=0x0:0x28ebc8b8e6338932"
"supermarket";"Pusat Perbelanjaan";"Kedai Faisal";"54VQ+347, Leuhan, Kec. Johan Pahlawan, Kabupaten Aceh Barat, Aceh 23611";"Leuhan, Kec. Johan Pahlawan, Kabupaten Aceh Barat";"ACEH";"23611";"Indonesia";"";"4.1926543";"96.1378003";"https://maps.google.com/?cid=0x0:0x6ff82d7f8a6c2a72"
"supermarket";"Minimarket";"Barasok Jaya";"Perumnas No.3, Lapang, Kec. Johan Pahlawan, Kabupaten Aceh Barat, Aceh 62318";"Lapang, Kec. Johan Pahlawan, Kabupaten Aceh Barat";"ACEH";"62318";"Indonesia";" 082223681072";"4.1823251";"96.1348649";"https://maps.google.com/?cid=0x0:0x2597ee9367e984f7"
"supermarket";"Toko Swalayan";"Pante Barat Swalayan";"545G+5W8, Drien Rampak, Kec. Johan Pahlawan, Kabupaten Aceh Barat, Aceh 23611";"Drien Rampak, Kec. Johan Pahlawan, Kabupaten Aceh Barat";"ACEH";"23611";"Indonesia";"";"4.1579053";"96.1273436";"https://maps.google.com/?cid=0x0:0xe28e037a7b39675"
"supermarket";"Toko";"Suak Raya Warung";"54M2+RPF, Suak Raya, Kec. Johan Pahlawan, Kabupaten Aceh Barat, Aceh 23618";"Suak Raya, Kec. Johan Pahlawan, Kabupaten Aceh Barat";"ACEH";"23618";"Indonesia";"";"4.184555";"96.101789";"https://maps.google.com/?cid=0x0:0x4078438b0a89c2eb"
"supermarket";"Minimarket";"ALMUNAWARAH MARKET";"545G+X3G, Drien Rampak, Kec. Johan Pahlawan, Kabupaten Aceh Barat, Aceh 23611";"Drien Rampak, Kec. Johan Pahlawan, Kabupaten Aceh Barat";"ACEH";"23611";"Indonesia";" 082364558686";"4.1599277";"96.1251977";"https://maps.google.com/?cid=0x0:0x733083c21af2502f"
"supermarket";"supermarket";"Aceh 23652";"Kabupaten Aceh Barat, Aceh";"Kabupaten Aceh Barat, Aceh";"ACEH";"";"Indonesia";"";"4.2710816";"96.0467429";"https://maps.google.com/?cid=0x0:0x30687e4200a2049b"
"supermarket";"Toko Swalayan";"Toko Jaya Mart";"73C9+P93, Unnamed Road, Keureuseng, Kec. Samatiga, Kabupaten Aceh Barat, Aceh 23652";"Unnamed Road, Keureuseng, Kec. Samatiga, Kabupaten Aceh Barat";"ACEH";"23652";"Indonesia";"";"4.2717786";"96.0684132";"https://maps.google.com/?cid=0x0:0xb1f07ca1efb4b89"
"supermarket";"Minimarket";"UD.Nasehat Ibu";"626J+2R6, Gampong Cot, Kec. Samatiga, Kabupaten Aceh Barat, Aceh 23652";"Gampong Cot, Kec. Samatiga, Kabupaten Aceh Barat";"ACEH";"23652";"Indonesia";" 082254423531";"4.2100339";"96.0320031";"https://maps.google.com/?cid=0x0:0x1cb265e7eea7ae00"
"supermarket";"Toko Swalayan";"Peka Swalayan";"6368+W4F, Cot Darat, Kec. Samatiga, Kabupaten Aceh Barat, Aceh 23652";"Cot Darat, Kec. Samatiga, Kabupaten Aceh Barat";"ACEH";"23652";"Indonesia";" 085277462572";"4.2123073";"96.065297";"https://maps.google.com/?cid=0x0:0x8c60396f30ce3b4"
"supermarket";"Grosir";"Toko Hidup Baru";"6377+7CV, Jl. Meulaboh - Banda Aceh, Cot Darat, Kec. Samatiga, Kabupaten Aceh Barat, Aceh 23652";"Jl. Meulaboh - Banda Aceh, Cot Darat, Kec. Samatiga, Kabupaten Aceh Barat";"ACEH";"23652";"Indonesia";" 082276624700";"4.2132447";"96.0635565";"https://maps.google.com/?cid=0x0:0x4121ebd944923908"
"supermarket";"Toko";"Lelem kupi";"6356+9W3, Jl. Meulaboh - Banda Aceh, Suak Timah, Kec. Samatiga, Kabupaten Aceh Barat, Aceh 23652";"Jl. Meulaboh - Banda Aceh, Suak Timah, Kec. Samatiga, Kabupaten Aceh Barat";"ACEH";"23652";"Indonesia";" 082369459160";"4.2083846";"96.0623012";"https://maps.google.com/?cid=0x0:0x84377e1611a4f61"
"supermarket";"Toko Swalayan";"Kios Marhalin";"9W4F+8JV, Seuneubok Teungoh, Kec. Arongan Lambalek, Kabupaten Aceh Barat, Aceh 23652";"Seuneubok Teungoh, Kec. Arongan Lambalek, Kabupaten Aceh Barat";"ACEH";"23652";"Indonesia";"";"4.3558542";"95.9240566";"https://maps.google.com/?cid=0x0:0x8e7f2158d419cf4f"
"supermarket";"Pusat Perbelanjaan";"ZAHWA SuperMarket  Dept Store";"548M+629, Gampa, Kec. Johan Pahlawan, Kabupaten Aceh Barat, Aceh 23611";"Gampa, Kec. Johan Pahlawan, Kabupaten Aceh Barat";"ACEH";"23611";"Indonesia";"";"4.1655405";"96.1326012";"https://maps.google.com/?cid=0x0:0xa76f84b5a7d72faf"
"supermarket";"Toko Swalayan";"Swalayan Sabena";"54FP+9JP, Meulaboh, Lapang, Kec. Johan Pahlawan, Kabupaten Aceh Barat, Aceh 23611";"Meulaboh, Lapang, Kec. Johan Pahlawan, Kabupaten Aceh Barat";"ACEH";"23611";"Indonesia";"";"4.1734683";"96.1365937";"https://maps.google.com/?cid=0x0:0xd6e3bbd2523fcd34"
"supermarket";"Toko Swalayan";"Arongan Cell";"9W69+7QQ, Seuneubok Teungoh, Kec. Arongan Lambalek, Kabupaten Aceh Barat, Aceh 23652";"Seuneubok Teungoh, Kec. Arongan Lambalek, Kabupaten Aceh Barat";"ACEH";"23652";"Indonesia";" 085262605500";"4.3607088";"95.919485";"https://maps.google.com/?cid=0x0:0xd638417777e7d62d"
"supermarket";"Minimarket";"NEXT MART";"6377+5FW, Cot Darat, Kec. Samatiga, Kabupaten Aceh Barat, Aceh 23652";"Cot Darat, Kec. Samatiga, Kabupaten Aceh Barat";"ACEH";"23652";"Indonesia";" 08116888987";"4.2129964";"96.0636931";"https://maps.google.com/?cid=0x0:0x14cdf1509c9148e4"
"supermarket";"Toko bahan makanan";"Jambo Goreng Bunda";"626J+2R6, Gampong Cot, Kec. Samatiga, Kabupaten Aceh Barat, Aceh 23652";"Gampong Cot, Kec. Samatiga, Kabupaten Aceh Barat";"ACEH";"23652";"Indonesia";"";"4.2099211";"96.0316379";"https://maps.google.com/?cid=0x0:0xbd622bf8426acf42"
"supermarket";"Toko";"Toko Aris Jaya";"8XH3+C23, Simpang Peut, Kec. Arongan Lambalek, Kabupaten Aceh Barat, Aceh 23652";"Simpang Peut, Kec. Arongan Lambalek, Kabupaten Aceh Barat";"ACEH";"23652";"Indonesia";" 085260758400";"4.3285217";"95.9525359";"https://maps.google.com/?cid=0x0:0x1e9efe5202c09c57"
"supermarket";"Toko bahan makanan";"DAMAI BARU SWALAYAN";"548M+34W, Jl. Sisingamangaraja, Gampa, Kec. Johan Pahlawan, Kabupaten Aceh Barat, Aceh 23611";"Jl. Sisingamangaraja, Gampa, Kec. Johan Pahlawan, Kabupaten Aceh Barat";"ACEH";"23611";"Indonesia";" 082252581521";"4.1654188";"96.1329108";"https://maps.google.com/?cid=0x0:0x7e124ab6f26ec2"
"supermarket";"supermarket";"Kec. Bubon";"Kabupaten Aceh Barat, Aceh";"Kabupaten Aceh Barat, Aceh";"ACEH";"";"Indonesia";"";"4.2943828";"96.0862301";"https://maps.google.com/?cid=0x0:0x80219aee8cc6aaef"
"supermarket";"Toko Swalayan";"Toko Jaya Mart";"73C9+P93, Unnamed Road, Keureuseng, Kec. Samatiga, Kabupaten Aceh Barat, Aceh 23652";"Unnamed Road, Keureuseng, Kec. Samatiga, Kabupaten Aceh Barat";"ACEH";"23652";"Indonesia";"";"4.2717786";"96.0684132";"https://maps.google.com/?cid=0x0:0xb1f07ca1efb4b89"
"supermarket";"Minimarket";"Toko sinar husna";"73VJ+GF7, Kuta Padang, Kec. Bubon, Kabupaten Aceh Barat, Aceh";"Kabupaten Aceh Barat, Aceh";"ACEH";"";"Indonesia";" 085297611791";"4.2937824";"96.0811584";"https://maps.google.com/?cid=0x0:0xf40c130de9a36fe"
"supermarket";"Pusat Perbelanjaan";"ZAHWA SuperMarket  Dept Store";"548M+629, Gampa, Kec. Johan Pahlawan, Kabupaten Aceh Barat, Aceh 23611";"Gampa, Kec. Johan Pahlawan, Kabupaten Aceh Barat";"ACEH";"23611";"Indonesia";"";"4.1655405";"96.1326012";"https://maps.google.com/?cid=0x0:0xa76f84b5a7d72faf"
"supermarket";"Toko bahan makanan";"DAMAI BARU SWALAYAN";"548M+34W, Jl. Sisingamangaraja, Gampa, Kec. Johan Pahlawan, Kabupaten Aceh Barat, Aceh 23611";"Jl. Sisingamangaraja, Gampa, Kec. Johan Pahlawan, Kabupaten Aceh Barat";"ACEH";"23611";"Indonesia";" 082252581521";"4.1654188";"96.1329108";"https://maps.google.com/?cid=0x0:0x7e124ab6f26ec2"
"supermarket";"supermarket";"Goreng Cek Din";"73VP+3HF, Kuta Padang, Kec. Bubon, Kabupaten Aceh Barat, Aceh 23652";"Kuta Padang, Kec. Bubon, Kabupaten Aceh Barat";"ACEH";"23652";"Indonesia";"";"4.2927868";"96.0864474";"https://maps.google.com/?cid=0x0:0x383d9a83ba487013"
"supermarket";"Hidangan Laut";"TOKO HIJRIAN";"45R6+827, Langung, Kec. Meureubo, Kabupaten Aceh Barat, Aceh 23681";"Langung, Kec. Meureubo, Kabupaten Aceh Barat";"ACEH";"23681";"Indonesia";" 081263846371";"4.1407888";"96.1600382";"https://maps.google.com/?cid=0x0:0xc2b9fcd00d53b2cf"
"supermarket";"Toko Swalayan";"Swalayan Sultan 2";"54FP+HX8, Lapang, Kec. Johan Pahlawan, Kabupaten Aceh Barat, Aceh 23611";"Lapang, Kec. Johan Pahlawan, Kabupaten Aceh Barat";"ACEH";"23611";"Indonesia";" 085372932343";"4.1739037";"96.1374409";"https://maps.google.com/?cid=0x0:0x66f982241101a80e"
"supermarket";"Kios";"Kedei Mak teuk";"8456+Q7C, Seumuleng, Kec. Bubon, Kabupaten Aceh Barat, Aceh 23654";"Seumuleng, Kec. Bubon, Kabupaten Aceh Barat";"ACEH";"23654";"Indonesia";"";"4.3094281";"96.1106461";"https://maps.google.com/?cid=0x0:0xf8aaa0fd457f95a1"
"supermarket";"Minimarket";"UD.Nasehat Ibu";"626J+2R6, Gampong Cot, Kec. Samatiga, Kabupaten Aceh Barat, Aceh 23652";"Gampong Cot, Kec. Samatiga, Kabupaten Aceh Barat";"ACEH";"23652";"Indonesia";" 082254423531";"4.2100339";"96.0320031";"https://maps.google.com/?cid=0x0:0x1cb265e7eea7ae00"
"supermarket";"Toko Swalayan";"Sejahtera Swalayan";"543J+V3W, Drien Rampak, Kec. Johan Pahlawan, Kabupaten Aceh Barat, Aceh 23611";"Drien Rampak, Kec. Johan Pahlawan, Kabupaten Aceh Barat";"ACEH";"23611";"Indonesia";"";"4.1547323";"96.1302075";"https://maps.google.com/?cid=0x0:0xff57c374b70bc1c5"
"supermarket";"Toko Swalayan";"Kios Marhalin";"9W4F+8JV, Seuneubok Teungoh, Kec. Arongan Lambalek, Kabupaten Aceh Barat, Aceh 23652";"Seuneubok Teungoh, Kec. Arongan Lambalek, Kabupaten Aceh Barat";"ACEH";"23652";"Indonesia";"";"4.3558542";"95.9240566";"https://maps.google.com/?cid=0x0:0x8e7f2158d419cf4f"
"supermarket";"Grosir";"Toko Hidup Baru";"6377+7CV, Jl. Meulaboh - Banda Aceh, Cot Darat, Kec. Samatiga, Kabupaten Aceh Barat, Aceh 23652";"Jl. Meulaboh - Banda Aceh, Cot Darat, Kec. Samatiga, Kabupaten Aceh Barat";"ACEH";"23652";"Indonesia";" 082276624700";"4.2132447";"96.0635565";"https://maps.google.com/?cid=0x0:0x4121ebd944923908"
"supermarket";"Toko Swalayan";"Kedai Cek Nun";"7XVH+GPR, Jl. Meulaboh - Banda Aceh, Peuribu, Kec. Arongan Lambalek, Kabupaten Aceh Barat, Aceh 23652";"Jl. Meulaboh - Banda Aceh, Peuribu, Kec. Arongan Lambalek, Kabupaten Aceh Barat";"ACEH";"23652";"Indonesia";" 082363502222";"4.2938733";"95.9792561";"https://maps.google.com/?cid=0x0:0x11f10ffcb9672665"
"supermarket";"supermarket";"Aceh 23652";"Kabupaten Aceh Barat, Aceh";"Kabupaten Aceh Barat, Aceh";"ACEH";"";"Indonesia";"";"4.2710816";"96.0467429";"https://maps.google.com/?cid=0x0:0x30687e4200a2049b"
"supermarket";"Toko Swalayan";"Arongan Cell";"9W69+7QQ, Seuneubok Teungoh, Kec. Arongan Lambalek, Kabupaten Aceh Barat, Aceh 23652";"Seuneubok Teungoh, Kec. Arongan Lambalek, Kabupaten Aceh Barat";"ACEH";"23652";"Indonesia";" 085262605500";"4.3607088";"95.919485";"https://maps.google.com/?cid=0x0:0xd638417777e7d62d"
"supermarket";"Toko Swalayan";"Usaha Barona";"9W69+F9W, Seuneubok Teungoh, Kec. Arongan Lambalek, Kabupaten Aceh Barat, Aceh 23652";"Seuneubok Teungoh, Kec. Arongan Lambalek, Kabupaten Aceh Barat";"ACEH";"23652";"Indonesia";"";"4.3612262";"95.9184687";"https://maps.google.com/?cid=0x0:0xa1cb9f4685741f4c"
"supermarket";"Toko Swalayan";"Kios Marhalin";"9W4F+8JV, Seuneubok Teungoh, Kec. Arongan Lambalek, Kabupaten Aceh Barat, Aceh 23652";"Seuneubok Teungoh, Kec. Arongan Lambalek, Kabupaten Aceh Barat";"ACEH";"23652";"Indonesia";"";"4.3558542";"95.9240566";"https://maps.google.com/?cid=0x0:0x8e7f2158d419cf4f"
"supermarket";"Toko Swalayan";"UD. ALDI";"8X87+5MG, Drien Rampak, Kec. Arongan Lambalek, Kabupaten Aceh Barat, Aceh 23652";"Drien Rampak, Kec. Arongan Lambalek, Kabupaten Aceh Barat";"ACEH";"23652";"Indonesia";" 081264973879";"4.3154375";"95.9642031";"https://maps.google.com/?cid=0x0:0x61a34c61eb1b40e4"
"supermarket";"Toko Swalayan";"Toko Jaya Mart";"73C9+P93, Unnamed Road, Keureuseng, Kec. Samatiga, Kabupaten Aceh Barat, Aceh 23652";"Unnamed Road, Keureuseng, Kec. Samatiga, Kabupaten Aceh Barat";"ACEH";"23652";"Indonesia";"";"4.2717786";"96.0684132";"https://maps.google.com/?cid=0x0:0xb1f07ca1efb4b89"
"supermarket";"Toko Swalayan";"Kedai Cek Nun";"7XVH+GPR, Jl. Meulaboh - Banda Aceh, Peuribu, Kec. Arongan Lambalek, Kabupaten Aceh Barat, Aceh 23652";"Jl. Meulaboh - Banda Aceh, Peuribu, Kec. Arongan Lambalek, Kabupaten Aceh Barat";"ACEH";"23652";"Indonesia";" 082363502222";"4.2938733";"95.9792561";"https://maps.google.com/?cid=0x0:0x11f10ffcb9672665"
"supermarket";"Toko Swalayan";"Peka Swalayan";"6368+W4F, Cot Darat, Kec. Samatiga, Kabupaten Aceh Barat, Aceh 23652";"Cot Darat, Kec. Samatiga, Kabupaten Aceh Barat";"ACEH";"23652";"Indonesia";" 085277462572";"4.2123073";"96.065297";"https://maps.google.com/?cid=0x0:0x8c60396f30ce3b4"
"supermarket";"Minimarket";"UD.Nasehat Ibu";"626J+2R6, Gampong Cot, Kec. Samatiga, Kabupaten Aceh Barat, Aceh 23652";"Gampong Cot, Kec. Samatiga, Kabupaten Aceh Barat";"ACEH";"23652";"Indonesia";" 082254423531";"4.2100339";"96.0320031";"https://maps.google.com/?cid=0x0:0x1cb265e7eea7ae00"
"supermarket";"Kantor Perusahaan";"PT. UMMICO";"8XM3+4V6, Simpang Peut, Kec. Arongan Lambalek, Kabupaten Aceh Barat, Aceh 23652";"Simpang Peut, Kec. Arongan Lambalek, Kabupaten Aceh Barat";"ACEH";"23652";"Indonesia";"";"4.332794";"95.9546331";"https://maps.google.com/?cid=0x0:0xa3c366a0e6eddf51"
"supermarket";"Minimarket";"Martabak Kak Yam";"8X52+FWC, Kubu, Kec. Arongan Lambalek, Kabupaten Aceh Barat, Aceh 23652";"Kubu, Kec. Arongan Lambalek, Kabupaten Aceh Barat";"ACEH";"23652";"Indonesia";"";"4.3086883";"95.952252";"https://maps.google.com/?cid=0x0:0x3b98db0bf5f361e6"
"supermarket";"Grosir";"Toko Hidup Baru";"6377+7CV, Jl. Meulaboh - Banda Aceh, Cot Darat, Kec. Samatiga, Kabupaten Aceh Barat, Aceh 23652";"Jl. Meulaboh - Banda Aceh, Cot Darat, Kec. Samatiga, Kabupaten Aceh Barat";"ACEH";"23652";"Indonesia";" 082276624700";"4.2132447";"96.0635565";"https://maps.google.com/?cid=0x0:0x4121ebd944923908"
"supermarket";"Pembangunan Perumahan";"Rumah musa";"9W93+PH9, Seuneubok Teungoh, Kec. Arongan Lambalek, Kabupaten Aceh Barat, Aceh 23652";"Seuneubok Teungoh, Kec. Arongan Lambalek, Kabupaten Aceh Barat";"ACEH";"23652";"Indonesia";"";"4.3692755";"95.9039975";"https://maps.google.com/?cid=0x0:0xb8988bf9e26c18d4"
"supermarket";"Toko bahan makanan";"Toko sempurna";"73C9+P93, Unnamed Road, Keureuseng, Kec. Samatiga, Kabupaten Aceh Barat, Aceh 23652";"Unnamed Road, Keureuseng, Kec. Samatiga, Kabupaten Aceh Barat";"ACEH";"23652";"Indonesia";"";"4.2717501";"96.0684077";"https://maps.google.com/?cid=0x0:0xced02d10c79ca8d1"
"supermarket";"supermarket";"Kec. Woyla";"Kabupaten Aceh Barat, Aceh";"Kabupaten Aceh Barat, Aceh";"ACEH";"";"Indonesia";"";"4.3842742";"96.0566624";"https://maps.google.com/?cid=0x0:0x1b356ff5d77a878a"
"supermarket";"supermarket";"UD.KEUDEI DESA";"92QQ+FGP, Unnamed Road, Bakat, Kec. Woyla, Kabupaten Aceh Barat, Aceh 23654";"Unnamed Road, Bakat, Kec. Woyla, Kabupaten Aceh Barat";"ACEH";"23654";"Indonesia";" 082166760449";"4.3887149";"96.0388152";"https://maps.google.com/?cid=0x0:0x4b67e8b847d15ab8"
"supermarket";"";"Woyla";"rumah dekat mesjid, Lorong tengoh Jl. Gajah, Blang Mee, Kec. Woyla, Kabupaten Aceh Barat, Aceh 23654";"Lorong tengoh Jl. Gajah, Blang Mee, Kec. Woyla, Kabupaten Aceh Barat";"ACEH";"23654";"Indonesia";" 085762785310";"4.3963082";"96.0646498";"https://maps.google.com/?cid=0x0:0x2fcff9e2879325d1"
"supermarket";"Toko bahan makanan";"UD.REJA";"C3R3+RMV, Pasi Janeng, Kec. Woyla Tim., Kabupaten Aceh Barat, Aceh 23654";"Pasi Janeng, Kec. Woyla Tim., Kabupaten Aceh Barat";"ACEH";"23654";"Indonesia";"";"4.442103";"96.0541716";"https://maps.google.com/?cid=0x0:0x98316873a0e89a1d"
"supermarket";"Grosir Barang Kelontong";"Ud.aja mandiri";"Keulembah, Aceh 23654";"Kabupaten Aceh Barat, Aceh";"ACEH";"";"Indonesia";" 082276438535";"4.4047459";"96.0479783";"https://maps.google.com/?cid=0x0:0x930cc30ca771518d"
"supermarket";"Toko bahan makanan";"UD. Riandi / toko Samsuddin";"93M4+MC2, Jl.seunebok, Kuala Bhee, Kec. Woyla, Kabupaten Aceh Barat, Aceh 23654";"Jl.seunebok, Kuala Bhee, Kec. Woyla, Kabupaten Aceh Barat";"ACEH";"23654";"Indonesia";"";"4.3841327";"96.0560167";"https://maps.google.com/?cid=0x0:0x2ea07f58d982a597"
"supermarket";"Toko";"UD.Dua S Barona (Seuneubok Woyla)";"93P5+J5Q, Lueng Tanoh Tho, Kec. Woyla, Kabupaten Aceh Barat, Aceh 23654";"Lueng Tanoh Tho, Kec. Woyla, Kabupaten Aceh Barat";"ACEH";"23654";"Indonesia";"";"4.3865988";"96.057992";"https://maps.google.com/?cid=0x0:0x9278ae516b19df4b"
"supermarket";"Toko bahan makanan";"Kedai Ayah";"8XVW+M9F, Unnamed Road, Woyla Bar, Lueng Baro, Kec. Woyla Bar., Kabupaten Aceh Barat, Aceh 23654";"Unnamed Road, Woyla Bar, Lueng Baro, Kec. Woyla Bar., Kabupaten Aceh Barat";"ACEH";"23654";"Indonesia";"";"4.3441928";"95.995911";"https://maps.google.com/?cid=0x0:0x86ee926a8c803403"
"supermarket";"Toko Aksesori Ponsel";"Woyla Cell";"92PW+3H9, Kuala Bhee, Kec. Woyla, Kabupaten Aceh Barat, Aceh 23654";"Kuala Bhee, Kec. Woyla, Kabupaten Aceh Barat";"ACEH";"23654";"Indonesia";" 085210034511";"4.3851702";"96.0464792";"https://maps.google.com/?cid=0x0:0xbe69d46fe34a1b44"
"supermarket";"Toserba";"Helmi Market";"93M2+X8P, Tingkeum Panyang, Kec. Woyla, Kabupaten Aceh Barat, Aceh 23654";"Tingkeum Panyang, Kec. Woyla, Kabupaten Aceh Barat";"ACEH";"23654";"Indonesia";"";"4.3849985";"96.0509438";"https://maps.google.com/?cid=0x0:0x11c7c0fca1fd9ee3"
"supermarket";"Toko bahan makanan";"Kios Adek Muradi";"82V9+JHP, Pasi Mali, Kec. Woyla Bar., Kabupaten Aceh Barat, Aceh 23654";"Pasi Mali, Kec. Woyla Bar., Kabupaten Aceh Barat";"ACEH";"23654";"Indonesia";" 082276015924";"4.3440879";"96.01896";"https://maps.google.com/?cid=0x0:0xd48364eeee5d9fdc"
"supermarket";"Toko Bahan Bangunan";"Ud.nisya beujaya woyla";"92PW+7F6, Desa keulembah, Kec. Woyla, Kabupaten Aceh Barat, Aceh";"Kabupaten Aceh Barat, Aceh";"ACEH";"";"Indonesia";"";"4.3856687";"96.0461494";"https://maps.google.com/?cid=0x0:0xbc6c5b9227e7b666"
"supermarket";"Minimarket";"UD.BARU M2";"F22W+W56, Cot Punti, Kec. Woyla Tim., Kabupaten Aceh Barat, Aceh 23654";"Cot Punti, Kec. Woyla Tim., Kabupaten Aceh Barat";"ACEH";"23654";"Indonesia";"";"4.4522755";"96.0453896";"https://maps.google.com/?cid=0x0:0x24e208667008355b"
"supermarket";"Toko Kelontong Asia";"UD.OM gemoy/tadastory";"93XC+65C, Alue Sikaya, Kec. Woyla, Kabupaten Aceh Barat, Aceh 23654";"Alue Sikaya, Kec. Woyla, Kabupaten Aceh Barat";"ACEH";"23654";"Indonesia";"";"4.3980536";"96.0703836";"https://maps.google.com/?cid=0x0:0xf13ab16ab096258f"
"supermarket";"supermarket";"Kec. Woyla Bar.";"Kabupaten Aceh Barat, Aceh";"Kabupaten Aceh Barat, Aceh";"ACEH";"";"Indonesia";"";"4.3454175";"96.0142448";"https://maps.google.com/?cid=0x0:0xf6bf5c9712518f80"
"supermarket";"Toko bahan makanan";"Kedai Ayah";"8XVW+M9F, Unnamed Road, Woyla Bar, Lueng Baro, Kec. Woyla Bar., Kabupaten Aceh Barat, Aceh 23654";"Unnamed Road, Woyla Bar, Lueng Baro, Kec. Woyla Bar., Kabupaten Aceh Barat";"ACEH";"23654";"Indonesia";"";"4.3441928";"95.995911";"https://maps.google.com/?cid=0x0:0x86ee926a8c803403"
"supermarket";"Grosir Barang Kelontong";"Ud.aja mandiri";"Keulembah, Aceh 23654";"Kabupaten Aceh Barat, Aceh";"ACEH";"";"Indonesia";" 082276438535";"4.4047459";"96.0479783";"https://maps.google.com/?cid=0x0:0x930cc30ca771518d"
"supermarket";"Toko bahan makanan";"Kios Adek Muradi";"82V9+JHP, Pasi Mali, Kec. Woyla Bar., Kabupaten Aceh Barat, Aceh 23654";"Pasi Mali, Kec. Woyla Bar., Kabupaten Aceh Barat";"ACEH";"23654";"Indonesia";" 082276015924";"4.3440879";"96.01896";"https://maps.google.com/?cid=0x0:0xd48364eeee5d9fdc"
"supermarket";"Kedai Kopi";"UD.HIJRAH";"Bakat, Kec. Woyla, Kabupaten Aceh Barat, Aceh 23654";"Kec. Woyla, Kabupaten Aceh Barat";"ACEH";"23654";"Indonesia";"";"4.3887149";"96.0388152";"https://maps.google.com/?cid=0x0:0x305a5ead6055cb20"
"supermarket";"Toko Swalayan";"Swalayan Sultan 2";"54FP+HX8, Lapang, Kec. Johan Pahlawan, Kabupaten Aceh Barat, Aceh 23611";"Lapang, Kec. Johan Pahlawan, Kabupaten Aceh Barat";"ACEH";"23611";"Indonesia";" 085372932343";"4.1739037";"96.1374409";"https://maps.google.com/?cid=0x0:0x66f982241101a80e"
"supermarket";"Toko Swalayan";"Kedai M. Sani";"8XVW+7PR, Lueng Baro, Kec. Woyla Bar., Kabupaten Aceh Barat, Aceh 23654";"Lueng Baro, Kec. Woyla Bar., Kabupaten Aceh Barat";"ACEH";"23654";"Indonesia";"";"4.3432594";"95.9965634";"https://maps.google.com/?cid=0x0:0x37c6cfdedd17f322"
"supermarket";"Toko bahan makanan";"UD. Riandi / toko Samsuddin";"93M4+MC2, Jl.seunebok, Kuala Bhee, Kec. Woyla, Kabupaten Aceh Barat, Aceh 23654";"Jl.seunebok, Kuala Bhee, Kec. Woyla, Kabupaten Aceh Barat";"ACEH";"23654";"Indonesia";"";"4.3841327";"96.0560167";"https://maps.google.com/?cid=0x0:0x2ea07f58d982a597"
"supermarket";"Toko Swalayan";"Peka Swalayan";"6368+W4F, Cot Darat, Kec. Samatiga, Kabupaten Aceh Barat, Aceh 23652";"Cot Darat, Kec. Samatiga, Kabupaten Aceh Barat";"ACEH";"23652";"Indonesia";" 085277462572";"4.2123073";"96.065297";"https://maps.google.com/?cid=0x0:0x8c60396f30ce3b4"
"supermarket";"Toko Swalayan";"Usaha Barona";"9W69+F9W, Seuneubok Teungoh, Kec. Arongan Lambalek, Kabupaten Aceh Barat, Aceh 23652";"Seuneubok Teungoh, Kec. Arongan Lambalek, Kabupaten Aceh Barat";"ACEH";"23652";"Indonesia";"";"4.3612262";"95.9184687";"https://maps.google.com/?cid=0x0:0xa1cb9f4685741f4c"
"supermarket";"Toko Swalayan";"Kios Marhalin";"9W4F+8JV, Seuneubok Teungoh, Kec. Arongan Lambalek, Kabupaten Aceh Barat, Aceh 23652";"Seuneubok Teungoh, Kec. Arongan Lambalek, Kabupaten Aceh Barat";"ACEH";"23652";"Indonesia";"";"4.3558542";"95.9240566";"https://maps.google.com/?cid=0x0:0x8e7f2158d419cf4f"
"supermarket";"Toko Swalayan";"Kedai Cek Nun";"7XVH+GPR, Jl. Meulaboh - Banda Aceh, Peuribu, Kec. Arongan Lambalek, Kabupaten Aceh Barat, Aceh 23652";"Jl. Meulaboh - Banda Aceh, Peuribu, Kec. Arongan Lambalek, Kabupaten Aceh Barat";"ACEH";"23652";"Indonesia";" 082363502222";"4.2938733";"95.9792561";"https://maps.google.com/?cid=0x0:0x11f10ffcb9672665"
"supermarket";"Grosir";"WOYTA JAYA";"44VF+WQ3, Jl. Syiah Kuala, Kuta Padang, Kec. Johan Pahlawan, Kabupaten Aceh Barat, Aceh 23681";"Jl. Syiah Kuala, Kuta Padang, Kec. Johan Pahlawan, Kabupaten Aceh Barat";"ACEH";"23681";"Indonesia";" 085348927524";"4.1447592";"96.1244213";"https://maps.google.com/?cid=0x0:0xe8ee279a742c3a2"
"supermarket";"Toko Swalayan";"Arongan Cell";"9W69+7QQ, Seuneubok Teungoh, Kec. Arongan Lambalek, Kabupaten Aceh Barat, Aceh 23652";"Seuneubok Teungoh, Kec. Arongan Lambalek, Kabupaten Aceh Barat";"ACEH";"23652";"Indonesia";" 085262605500";"4.3607088";"95.919485";"https://maps.google.com/?cid=0x0:0xd638417777e7d62d"
"supermarket";"supermarket";"Kec. Woyla Tim.";"Kabupaten Aceh Barat, Aceh";"Kabupaten Aceh Barat, Aceh";"ACEH";"";"Indonesia";"";"4.4569759";"96.1493051";"https://maps.google.com/?cid=0x0:0x35763af430d81337"
"supermarket";"Grosir Barang Kelontong";"Ud.aja mandiri";"Keulembah, Aceh 23654";"Kabupaten Aceh Barat, Aceh";"ACEH";"";"Indonesia";" 082276438535";"4.4047459";"96.0479783";"https://maps.google.com/?cid=0x0:0x930cc30ca771518d"
"supermarket";"Toko bahan makanan";"UD.REJA";"C3R3+RMV, Pasi Janeng, Kec. Woyla Tim., Kabupaten Aceh Barat, Aceh 23654";"Pasi Janeng, Kec. Woyla Tim., Kabupaten Aceh Barat";"ACEH";"23654";"Indonesia";"";"4.442103";"96.0541716";"https://maps.google.com/?cid=0x0:0x98316873a0e89a1d"
"supermarket";"Toko bahan makanan";"UD. Riandi / toko Samsuddin";"93M4+MC2, Jl.seunebok, Kuala Bhee, Kec. Woyla, Kabupaten Aceh Barat, Aceh 23654";"Jl.seunebok, Kuala Bhee, Kec. Woyla, Kabupaten Aceh Barat";"ACEH";"23654";"Indonesia";"";"4.3841327";"96.0560167";"https://maps.google.com/?cid=0x0:0x2ea07f58d982a597"
"supermarket";"Minimarket";"UD.BARU M2";"F22W+W56, Cot Punti, Kec. Woyla Tim., Kabupaten Aceh Barat, Aceh 23654";"Cot Punti, Kec. Woyla Tim., Kabupaten Aceh Barat";"ACEH";"23654";"Indonesia";"";"4.4522755";"96.0453896";"https://maps.google.com/?cid=0x0:0x24e208667008355b"
"supermarket";"Toko bahan makanan";"Kedai Ayah";"8XVW+M9F, Unnamed Road, Woyla Bar, Lueng Baro, Kec. Woyla Bar., Kabupaten Aceh Barat, Aceh 23654";"Unnamed Road, Woyla Bar, Lueng Baro, Kec. Woyla Bar., Kabupaten Aceh Barat";"ACEH";"23654";"Indonesia";"";"4.3441928";"95.995911";"https://maps.google.com/?cid=0x0:0x86ee926a8c803403"
"supermarket";"Toko bahan makanan";"DAMAI BARU SWALAYAN";"548M+34W, Jl. Sisingamangaraja, Gampa, Kec. Johan Pahlawan, Kabupaten Aceh Barat, Aceh 23611";"Jl. Sisingamangaraja, Gampa, Kec. Johan Pahlawan, Kabupaten Aceh Barat";"ACEH";"23611";"Indonesia";" 082252581521";"4.1654188";"96.1329108";"https://maps.google.com/?cid=0x0:0x7e124ab6f26ec2"
"supermarket";"Toko Swalayan";"Swalayan Sultan 2";"54FP+HX8, Lapang, Kec. Johan Pahlawan, Kabupaten Aceh Barat, Aceh 23611";"Lapang, Kec. Johan Pahlawan, Kabupaten Aceh Barat";"ACEH";"23611";"Indonesia";" 085372932343";"4.1739037";"96.1374409";"https://maps.google.com/?cid=0x0:0x66f982241101a80e"
"supermarket";"Toko Swalayan";"Swalayan Sabena";"54FP+9JP, Meulaboh, Lapang, Kec. Johan Pahlawan, Kabupaten Aceh Barat, Aceh 23611";"Meulaboh, Lapang, Kec. Johan Pahlawan, Kabupaten Aceh Barat";"ACEH";"23611";"Indonesia";"";"4.1734683";"96.1365937";"https://maps.google.com/?cid=0x0:0xd6e3bbd2523fcd34"
"supermarket";"Toko Swalayan";"UD RIKI RINI";"F27Q+5G7, Cot Punti, Kec. Woyla Tim., Kabupaten Aceh Barat, Aceh 23654";"Cot Punti, Kec. Woyla Tim., Kabupaten Aceh Barat";"ACEH";"23654";"Indonesia";"";"4.4629";"96.0388036";"https://maps.google.com/?cid=0x0:0xbfaa4211469e5152"
"supermarket";"Hidangan Laut";"TOKO HIJRIAN";"45R6+827, Langung, Kec. Meureubo, Kabupaten Aceh Barat, Aceh 23681";"Langung, Kec. Meureubo, Kabupaten Aceh Barat";"ACEH";"23681";"Indonesia";" 081263846371";"4.1407888";"96.1600382";"https://maps.google.com/?cid=0x0:0xc2b9fcd00d53b2cf"
"supermarket";"Toko Swalayan";"Pante Barat Swalayan";"545G+5W8, Drien Rampak, Kec. Johan Pahlawan, Kabupaten Aceh Barat, Aceh 23611";"Drien Rampak, Kec. Johan Pahlawan, Kabupaten Aceh Barat";"ACEH";"23611";"Indonesia";"";"4.1579053";"96.1273436";"https://maps.google.com/?cid=0x0:0xe28e037a7b39675"
"supermarket";"Toko";"Lelem kupi";"6356+9W3, Jl. Meulaboh - Banda Aceh, Suak Timah, Kec. Samatiga, Kabupaten Aceh Barat, Aceh 23652";"Jl. Meulaboh - Banda Aceh, Suak Timah, Kec. Samatiga, Kabupaten Aceh Barat";"ACEH";"23652";"Indonesia";" 082369459160";"4.2083846";"96.0623012";"https://maps.google.com/?cid=0x0:0x84377e1611a4f61"
"supermarket";"Pusat Perbelanjaan";"Kedai Faisal";"54VQ+347, Leuhan, Kec. Johan Pahlawan, Kabupaten Aceh Barat, Aceh 23611";"Leuhan, Kec. Johan Pahlawan, Kabupaten Aceh Barat";"ACEH";"23611";"Indonesia";"";"4.1926543";"96.1378003";"https://maps.google.com/?cid=0x0:0x6ff82d7f8a6c2a72"
"supermarket";"supermarket";"Kec. Kaway XVI";"Kabupaten Aceh Barat, Aceh";"Kabupaten Aceh Barat, Aceh";"ACEH";"";"Indonesia";"";"4.2884024";"96.2079103";"https://maps.google.com/?cid=0x0:0x83baccd3be0e0593"
"supermarket";"Mi";"Keuramat Swalayan";"85XM+FP4, Padang Sikabu, Kec. Kaway XVI, Kabupaten Aceh Barat, Aceh 23681";"Padang Sikabu, Kec. Kaway XVI, Kabupaten Aceh Barat";"ACEH";"23681";"Indonesia";"";"4.3486415";"96.1843398";"https://maps.google.com/?cid=0x0:0x40886e69cf0bdaa0"
"supermarket";"Pusat Perbelanjaan";"ZAHWA SuperMarket  Dept Store";"548M+629, Gampa, Kec. Johan Pahlawan, Kabupaten Aceh Barat, Aceh 23611";"Gampa, Kec. Johan Pahlawan, Kabupaten Aceh Barat";"ACEH";"23611";"Indonesia";"";"4.1655405";"96.1326012";"https://maps.google.com/?cid=0x0:0xa76f84b5a7d72faf"
"supermarket";"Pusat Perbelanjaan";"Toko Berkat Rizky";"65C6+V9H, Jl. Meulaboh - Kaway XVI, Meunasah Buloh, Kec. Kaway XVI, Kabupaten Aceh Barat, Aceh 23681";"Jl. Meulaboh - Kaway XVI, Meunasah Buloh, Kec. Kaway XVI, Kabupaten Aceh Barat";"ACEH";"23681";"Indonesia";" 085277541128";"4.2221855";"96.1609885";"https://maps.google.com/?cid=0x0:0xe797916f7cb84f49"
"supermarket";"Toko bahan makanan";"rumah krupuk";"8652+WWC, Pasi Kumbang, Kec. Kaway XVI, Kabupaten Aceh Barat, Aceh 23681";"Pasi Kumbang, Kec. Kaway XVI, Kabupaten Aceh Barat";"ACEH";"23681";"Indonesia";"";"4.3098235";"96.2022712";"https://maps.google.com/?cid=0x0:0x2cb0202b63143ff9"
"supermarket";"Toko Swalayan";"Swalayan Sabena";"54FP+9JP, Meulaboh, Lapang, Kec. Johan Pahlawan, Kabupaten Aceh Barat, Aceh 23611";"Meulaboh, Lapang, Kec. Johan Pahlawan, Kabupaten Aceh Barat";"ACEH";"23611";"Indonesia";"";"4.1734683";"96.1365937";"https://maps.google.com/?cid=0x0:0xd6e3bbd2523fcd34"
"supermarket";"Toko bahan makanan";"DAMAI BARU SWALAYAN";"548M+34W, Jl. Sisingamangaraja, Gampa, Kec. Johan Pahlawan, Kabupaten Aceh Barat, Aceh 23611";"Jl. Sisingamangaraja, Gampa, Kec. Johan Pahlawan, Kabupaten Aceh Barat";"ACEH";"23611";"Indonesia";" 082252581521";"4.1654188";"96.1329108";"https://maps.google.com/?cid=0x0:0x7e124ab6f26ec2"
"supermarket";"Minimarket";"RO 2A Aqua Bang Agus";"6554+3M4, Jl. Meulaboh - Kaway XVI, Alue Tampak, Kec. Kaway XVI, Kabupaten Aceh Barat, Aceh 23681";"Jl. Meulaboh - Kaway XVI, Alue Tampak, Kec. Kaway XVI, Kabupaten Aceh Barat";"ACEH";"23681";"Indonesia";" 085260759495";"4.2076321";"96.1567016";"https://maps.google.com/?cid=0x0:0x5cf4c6504b30418a"
"supermarket";"Kantor Perusahaan";"Keude MUJI";"54HR+J9J, Jl. Meulaboh - Kaway XVI, Lapang, Kec. Johan Pahlawan, Kabupaten Aceh Barat, Aceh 23618";"Jl. Meulaboh - Kaway XVI, Lapang, Kec. Johan Pahlawan, Kabupaten Aceh Barat";"ACEH";"23618";"Indonesia";"";"4.1790958";"96.140884";"https://maps.google.com/?cid=0x0:0xae696f57f136b737"
"supermarket";"Toko Swalayan";"Swalayan Sultan 2";"54FP+HX8, Lapang, Kec. Johan Pahlawan, Kabupaten Aceh Barat, Aceh 23611";"Lapang, Kec. Johan Pahlawan, Kabupaten Aceh Barat";"ACEH";"23611";"Indonesia";" 085372932343";"4.1739037";"96.1374409";"https://maps.google.com/?cid=0x0:0x66f982241101a80e"
"supermarket";"Toko bahan makanan";"Toko Amira Juice";"55P2+VX5, Jl. Meulaboh - Kaway XVI, Blang Berandang, Kec. Johan Pahlawan, Kabupaten Aceh Barat, Aceh 23681";"Jl. Meulaboh - Kaway XVI, Blang Berandang, Kec. Johan Pahlawan, Kabupaten Aceh Barat";"ACEH";"23681";"Indonesia";" 085261414141";"4.1871345";"96.1524879";"https://maps.google.com/?cid=0x0:0x8282fda2fc815935"
"supermarket";"Toko Swalayan";"Kios rema";"54WW+WHV, Jl. TGK Di Pancu, Blang Berandang, Kec. Johan Pahlawan, Kabupaten Aceh Barat, Aceh 23681";"Jl. TGK Di Pancu, Blang Berandang, Kec. Johan Pahlawan, Kabupaten Aceh Barat";"ACEH";"23681";"Indonesia";"";"4.1973672";"96.1464228";"https://maps.google.com/?cid=0x0:0x78745acdd846a14d"
"supermarket";"Minimarket";"UD.RIDWAN";"75FV+8MH, Meunasah Gantung, Kec. Kaway XVI, Kabupaten Aceh Barat, Aceh 23681";"Meunasah Gantung, Kec. Kaway XVI, Kabupaten Aceh Barat";"ACEH";"23681";"Indonesia";"";"4.2744639";"96.1945566";"https://maps.google.com/?cid=0x0:0x4aa1175abd32d054"
"supermarket";"Pusat Perbelanjaan";"Kedai Faisal";"54VQ+347, Leuhan, Kec. Johan Pahlawan, Kabupaten Aceh Barat, Aceh 23611";"Leuhan, Kec. Johan Pahlawan, Kabupaten Aceh Barat";"ACEH";"23611";"Indonesia";"";"4.1926543";"96.1378003";"https://maps.google.com/?cid=0x0:0x6ff82d7f8a6c2a72"
"supermarket";"Hidangan Laut";"TOKO HIJRIAN";"45R6+827, Langung, Kec. Meureubo, Kabupaten Aceh Barat, Aceh 23681";"Langung, Kec. Meureubo, Kabupaten Aceh Barat";"ACEH";"23681";"Indonesia";" 081263846371";"4.1407888";"96.1600382";"https://maps.google.com/?cid=0x0:0xc2b9fcd00d53b2cf"
"supermarket";"supermarket";"Aceh 23615";"Kec. Johan Pahlawan, Kabupaten Aceh Barat, Aceh";"Kabupaten Aceh Barat, Aceh";"ACEH";"";"Indonesia";"";"4.1622709";"96.1063204";"https://maps.google.com/?cid=0x0:0xd2bf3e0b78ba4037"
"supermarket";"Minimarket";"IndoMaret Simpang Meureubo";"45X2+HG3, Ujong Drien, Kec. Meureubo, Kabupaten Aceh Barat, Aceh 23681";"Ujong Drien, Kec. Meureubo, Kabupaten Aceh Barat";"ACEH";"23681";"Indonesia";" 081264320769";"4.1488869";"96.1512865";"https://maps.google.com/?cid=0x0:0x13c341dda8a33775"
"supermarket";"Toko Peralatan dan Bahan Kue";"Fresh Mart";"Jl. Manek Roo, Kuta Padang, Kec. Johan Pahlawan, Kabupaten Aceh Barat, Aceh";"Kabupaten Aceh Barat, Aceh";"ACEH";"";"Indonesia";" 085362864022";"4.1485813";"96.1227062";"https://maps.google.com/?cid=0x0:0xdcb65df4584198b7"
"supermarket";"Toko Swalayan";"Ultramen";"45PJ+QR8, Paya Peunaga, Kec. Meureubo, Kabupaten Aceh Barat, Aceh 23681";"Paya Peunaga, Kec. Meureubo, Kabupaten Aceh Barat";"ACEH";"23681";"Indonesia";"";"4.1369399";"96.1820391";"https://maps.google.com/?cid=0x0:0x4f2fda33212f1ade"
"supermarket";"Toko Kue";"Toko Eva Kalori";"Jl. Manek Roo No.112, Ujong Baroh, Kec. Johan Pahlawan, Kabupaten Aceh Barat, Aceh 23617";"Ujong Baroh, Kec. Johan Pahlawan, Kabupaten Aceh Barat";"ACEH";"23617";"Indonesia";" 085260131330";"4.1533564";"96.126995";"https://maps.google.com/?cid=0x0:0x4dda13082273804b"
"supermarket";"Toko bahan makanan";"Keude nenek";"547C+M6G, Jl. Beringin Maju, Seuneubok, Kec. Johan Pahlawan, Kabupaten Aceh Barat, Aceh";"Kabupaten Aceh Barat, Aceh";"ACEH";"";"Indonesia";"";"4.1641901";"96.1205872";"https://maps.google.com/?cid=0x0:0x502565a16a118192"
"supermarket";"Minimarket";"TOKO SEMBAKO ALFARIZQI";"Jl. Imam Bonjol No.101, Seuneubok, Kec. Johan Pahlawan, Kabupaten Aceh Barat, Aceh 23616";"Seuneubok, Kec. Johan Pahlawan, Kabupaten Aceh Barat";"ACEH";"23616";"Indonesia";"";"4.1681081";"96.1169662";"https://maps.google.com/?cid=0x0:0x925bf1e26c3cb02f"
"supermarket";"Toko bahan makanan";"UD. Harkat Tamita";"5498+2HP, Jl. arona, Seuneubok, Kec. Johan Pahlawan, Kabupaten Aceh Barat, Aceh 23617";"Jl. arona, Seuneubok, Kec. Johan Pahlawan, Kabupaten Aceh Barat";"ACEH";"23617";"Indonesia";"";"4.1675882";"96.1164643";"https://maps.google.com/?cid=0x0:0x9db914fa9ed386f2"
"supermarket";"Pom bensin/SPBU";"SPBU 14-236415";"543V+C7J, Jl. Meulaboh - Tapaktuan No.km2, Pasi Pinang, Kec. Meureubo, Kabupaten Aceh Barat, Aceh 23681";"Jl. Meulaboh - Tapaktuan No.km2, Pasi Pinang, Kec. Meureubo, Kabupaten Aceh Barat";"ACEH";"23681";"Indonesia";" 081360674099";"4.153569";"96.1436947";"https://maps.google.com/?cid=0x0:0x2dbac66cf55dbe63"
"supermarket";"Minimarket";"Ananda Mart Meureudu";"Mesjid Tuha, Kec. Meureudu, Kabupaten Pidie Jaya, Aceh";"Kabupaten Pidie Jaya, Aceh";"ACEH";"";"Indonesia";" 0895601928880";"5.2454921";"96.2488379";"https://maps.google.com/?cid=0x0:0x58e3509bd9f97d9d"
"supermarket";"Kedai Kopi";"STREET KUPIE premium";"jln. gurute II, Kuta Padang, Kec. Johan Pahlawan, Kabupaten Aceh Barat, Aceh 23612";"Kuta Padang, Kec. Johan Pahlawan, Kabupaten Aceh Barat";"ACEH";"23612";"Indonesia";" 085260245237";"4.1505568";"96.1232607";"https://maps.google.com/?cid=0x0:0xfe50cb4686254e08"
"supermarket";"Toko Pakaian";"kedeu wardah";"Jl. Syiah Kuala, Suak Ribee, Kec. Johan Pahlawan, Kabupaten Aceh Barat, Aceh";"Kabupaten Aceh Barat, Aceh";"ACEH";"";"Indonesia";" 082272118982";"4.1614441";"96.1082757";"https://maps.google.com/?cid=0x0:0xc13242c06dc4554a"
"supermarket";"Toko Kue";"Bumbu Dapur Kita";"5487+CV4, Jl. Bungong Jaroe, Seuneubok, Kec. Johan Pahlawan, Kabupaten Aceh Barat, Aceh 23617";"Jl. Bungong Jaroe, Seuneubok, Kec. Johan Pahlawan, Kabupaten Aceh Barat";"ACEH";"23617";"Indonesia";" 082273734756";"4.1660144";"96.1147092";"https://maps.google.com/?cid=0x0:0xcce3212ab8d067ec"
"supermarket";"Toko bahan makanan";"Toko Dek Liza";"C855+QPP, Panteceureumen, Suak awe, Kec. Pantai Ceuremen, Kabupaten Aceh Barat, Aceh 23681";"Panteceureumen, Suak awe, Kec. Pantai Ceuremen, Kabupaten Aceh Barat";"ACEH";"23681";"Indonesia";"";"4.4094535";"96.3093164";"https://maps.google.com/?cid=0x0:0x587389aec2562373"
"supermarket";"supermarket";"Pante Ceureumen";"Kec. Pantai Ceuremen, Kabupaten Aceh Barat, Aceh";"Kabupaten Aceh Barat, Aceh";"ACEH";"";"Indonesia";"";"4.4094535";"96.3093164";"https://maps.google.com/?cid=0x0:0xf240303722d487ec"
"supermarket";"Toko";"DAWEUT ART STUDIO";"C882+WP8, Unnamed Road, Pante Ceureumen, Kec. Pantai Ceuremen, Kabupaten Aceh Barat, Aceh 23681";"Unnamed Road, Pante Ceureumen, Kec. Pantai Ceuremen, Kabupaten Aceh Barat";"ACEH";"23681";"Indonesia";"";"4.417286";"96.3018356";"https://maps.google.com/?cid=0x0:0x58344e90cc607da4"
"supermarket";"Toko umum";"Minimarket Juanda";"Manjeng, Kec. Pantai Ceuremen, Kabupaten Aceh Barat, Aceh 23681";"Kec. Pantai Ceuremen, Kabupaten Aceh Barat";"ACEH";"23681";"Indonesia";"";"4.4053946";"96.2846032";"https://maps.google.com/?cid=0x0:0xc2fd1bf47d71d6e9"
"supermarket";"Kedai Kopi";"Warung Kopi Dekat Sungai";"C893+MWJ, Unnamed Road, Pante Ceureumen, Kec. Pantai Ceuremen, Kabupaten Aceh Barat, Aceh 23681";"Unnamed Road, Pante Ceureumen, Kec. Pantai Ceuremen, Kabupaten Aceh Barat";"ACEH";"23681";"Indonesia";"";"4.4192232";"96.3047768";"https://maps.google.com/?cid=0x0:0x27c8b95b549fd09f"
"supermarket";"Kios";"TOKO MICI";"C882+XV9, Pante Ceureumen, Kec. Pantai Ceuremen, Kabupaten Aceh Barat, Aceh 23681";"Pante Ceureumen, Kec. Pantai Ceuremen, Kabupaten Aceh Barat";"ACEH";"23681";"Indonesia";" 085210838798";"4.4175799";"96.3022866";"https://maps.google.com/?cid=0x0:0x74734dec01e083"
"supermarket";"Toko umum";"Toko Abas Pante Ceuremen";"C882+XV9, Pante Ceureumen, Kec. Pantai Ceuremen, Kabupaten Aceh Barat, Aceh 23681";"Pante Ceureumen, Kec. Pantai Ceuremen, Kabupaten Aceh Barat";"ACEH";"23681";"Indonesia";"";"4.4174046";"96.3022491";"https://maps.google.com/?cid=0x0:0x668b16a8013478a1"
"supermarket";"Toko Pakaian";"AIRA GALLERY";"DESA PANTE CERMIN, Pante Ceureumen, Kec. Pantai Ceuremen, Kabupaten Aceh Barat, Aceh 23681";"Pante Ceureumen, Kec. Pantai Ceuremen, Kabupaten Aceh Barat";"ACEH";"23681";"Indonesia";" 081263845650";"4.4133213";"96.2968111";"https://maps.google.com/?cid=0x0:0x3b9f2e2e651a1192"
"supermarket";"Toko Swalayan";"Daweut Art Studio Pante ceureumen";"C855+QPP, Pante Ceureumen, Kec. Pantai Ceuremen, Kabupaten Aceh Barat, Aceh 23681";"Pante Ceureumen, Kec. Pantai Ceuremen, Kabupaten Aceh Barat";"ACEH";"23681";"Indonesia";" 085260240407";"4.4094535";"96.3093164";"https://maps.google.com/?cid=0x0:0x8fb99953378b7f16"
"supermarket";"Toko Percetakan";"Nayna Florist And Printing";"C893+42C, Pante Ceureumen, Kec. Pantai Ceuremen, Kabupaten Aceh Barat, Aceh 23681";"Pante Ceureumen, Kec. Pantai Ceuremen, Kabupaten Aceh Barat";"ACEH";"23681";"Indonesia";" 081262981728";"4.4178211";"96.3025147";"https://maps.google.com/?cid=0x0:0x8bc13a00d0dc4329"
"supermarket";"Kafe";"warkop Bang Jali";"C76W+R83, Unnamed Road, Pante Ceureumen, Kec. Pantai Ceuremen, Kabupaten Aceh Barat, Aceh 23681";"Unnamed Road, Pante Ceureumen, Kec. Pantai Ceuremen, Kabupaten Aceh Barat";"ACEH";"23681";"Indonesia";"";"4.4120235";"96.2957869";"https://maps.google.com/?cid=0x0:0x470f0d41f6786335"
"supermarket";"Departemen Kepolisian";"Apotik masriyanti";"C882+VHG, Pante Ceureumen, Kec. Pantai Ceuremen, Kabupaten Aceh Barat, Aceh";"Kabupaten Aceh Barat, Aceh";"ACEH";"";"Indonesia";" 085277371709";"4.4171951";"96.3014591";"https://maps.google.com/?cid=0x0:0x68bc9ee6917b9180"
"supermarket";"Toko Alat Tulis Kantor";"Jasa Bunda ATK";"Pante Ceureumen, Kec. Pantai Ceuremen, Kabupaten Aceh Barat, Aceh 23681";"Kec. Pantai Ceuremen, Kabupaten Aceh Barat";"ACEH";"23681";"Indonesia";"";"4.4154622";"96.2991114";"https://maps.google.com/?cid=0x0:0xe2ea6c293b2f5a92"
"supermarket";"Toko Ponsel";"Kedei Lian pulsa";"Manjeng, Kec. Pantai Ceuremen, Kabupaten Aceh Barat, Aceh 23681";"Kec. Pantai Ceuremen, Kabupaten Aceh Barat";"ACEH";"23681";"Indonesia";"";"4.4105911";"96.2948857";"https://maps.google.com/?cid=0x0:0xc78c17e7bccb7d90"
"supermarket";"supermarket";"Kec. Panton Reu";"Kabupaten Aceh Barat, Aceh";"Kabupaten Aceh Barat, Aceh";"ACEH";"";"Indonesia";"";"4.4017347";"96.2074781";"https://maps.google.com/?cid=0x0:0x902220a2606eab5"
"supermarket";"Kafe";"Warkop dodi";"96W6+H6M hp, Jl.meulaboh, Manggie, Kec. Panton Reu, Kabupaten Aceh Barat, Aceh 23681";"Jl.meulaboh, Manggie, Kec. Panton Reu, Kabupaten Aceh Barat";"ACEH";"23681";"Indonesia";"";"4.3964588";"96.210546";"https://maps.google.com/?cid=0x0:0xcf3eca05602ed08c"
"supermarket";"Mi";"Keuramat Swalayan";"85XM+FP4, Padang Sikabu, Kec. Kaway XVI, Kabupaten Aceh Barat, Aceh 23681";"Padang Sikabu, Kec. Kaway XVI, Kabupaten Aceh Barat";"ACEH";"23681";"Indonesia";"";"4.3486415";"96.1843398";"https://maps.google.com/?cid=0x0:0x40886e69cf0bdaa0"
"supermarket";"Toko bahan makanan";"Toko Dek Liza";"C855+QPP, Panteceureumen, Suak awe, Kec. Pantai Ceuremen, Kabupaten Aceh Barat, Aceh 23681";"Panteceureumen, Suak awe, Kec. Pantai Ceuremen, Kabupaten Aceh Barat";"ACEH";"23681";"Indonesia";"";"4.4094535";"96.3093164";"https://maps.google.com/?cid=0x0:0x587389aec2562373"
"supermarket";"Toko bahan makanan";"SimpangLima Grocery Store";"Jl. Tengku Angkasa H Abdullah Ujong Rimba No 20, Kp. Baru, Kec. Baiturrahman, Kota Banda Aceh, Aceh 23242";"Kp. Baru, Kec. Baiturrahman, Kota Banda Aceh";"ACEH";"23242";"Indonesia";" 0811686677";"5.5504966";"95.3167777";"https://maps.google.com/?cid=0x0:0x22361fe0a56c2da4"
"supermarket";"Toko";"DAWEUT ART STUDIO";"C882+WP8, Unnamed Road, Pante Ceureumen, Kec. Pantai Ceuremen, Kabupaten Aceh Barat, Aceh 23681";"Unnamed Road, Pante Ceureumen, Kec. Pantai Ceuremen, Kabupaten Aceh Barat";"ACEH";"23681";"Indonesia";"";"4.417286";"96.3018356";"https://maps.google.com/?cid=0x0:0x58344e90cc607da4"
"supermarket";"Toko Swalayan";"KEUDE SAYUR DAMAI DAMAI";"Padang Sikabu, Kec. Kaway XVI, Kabupaten Aceh Barat, Aceh 23681";"Kec. Kaway XVI, Kabupaten Aceh Barat";"ACEH";"23681";"Indonesia";"";"4.3439018";"96.185469";"https://maps.google.com/?cid=0x0:0x50310b8a34a98626"
"supermarket";"Grosir Barang Kelontong";"Berkah Sembako";"Keude Suwak Awe, Kec. Pantai Ceuremen, Kabupaten Aceh Barat, Aceh 23681";"Kec. Pantai Ceuremen, Kabupaten Aceh Barat";"ACEH";"23681";"Indonesia";"";"4.3708701";"96.2246521";"https://maps.google.com/?cid=0x0:0x91ea32cbfed07a50"
"supermarket";"Kedai Kopi";"Rumah Nurul";"9698+G29, Lhok Guci, Kec. Pantai Ceuremen, Kabupaten Aceh Barat, Aceh 23681";"Lhok Guci, Kec. Pantai Ceuremen, Kabupaten Aceh Barat";"ACEH";"23681";"Indonesia";"";"4.3687975";"96.2151011";"https://maps.google.com/?cid=0x0:0xb6350675735b210d"
"supermarket";"supermarket";"UD.USAHA BARU";"C624+3XC, Meutulang, Kec. Panton Reu, Kabupaten Aceh Barat, Aceh 23681";"Meutulang, Kec. Panton Reu, Kabupaten Aceh Barat";"ACEH";"23681";"Indonesia";" 085358300229";"4.4001924";"96.2073897";"https://maps.google.com/?cid=0x0:0xccce772ef48a49a"
"supermarket";"Pusat Perbelanjaan";"ZAHWA SuperMarket  Dept Store";"548M+629, Gampa, Kec. Johan Pahlawan, Kabupaten Aceh Barat, Aceh 23611";"Gampa, Kec. Johan Pahlawan, Kabupaten Aceh Barat";"ACEH";"23611";"Indonesia";"";"4.1655405";"96.1326012";"https://maps.google.com/?cid=0x0:0xa76f84b5a7d72faf"
"supermarket";"Kantor Pemerintah";"Kantor Camat Panton Reu";"C54X+RFH, Meutulang, Kec. Panton Reu, Kabupaten Aceh Barat, Aceh 23681";"Meutulang, Kec. Panton Reu, Kabupaten Aceh Barat";"ACEH";"23681";"Indonesia";"";"4.4070664";"96.1987482";"https://maps.google.com/?cid=0x0:0x2e73c494d3050be5"
"supermarket";"Toko Swalayan";"Sultan Swalayan";"Jl. Nasional, Rundeng, Kec. Johan Pahlawan, Kabupaten Aceh Barat, Aceh 23681";"Rundeng, Kec. Johan Pahlawan, Kabupaten Aceh Barat";"ACEH";"23681";"Indonesia";"";"4.1501536";"96.132592";"https://maps.google.com/?cid=0x0:0x3c7fc142b4b4ea2f"
"supermarket";"Hidangan Laut";"TOKO HIJRIAN";"45R6+827, Langung, Kec. Meureubo, Kabupaten Aceh Barat, Aceh 23681";"Langung, Kec. Meureubo, Kabupaten Aceh Barat";"ACEH";"23681";"Indonesia";" 081263846371";"4.1407888";"96.1600382";"https://maps.google.com/?cid=0x0:0xc2b9fcd00d53b2cf"
"supermarket";"supermarket";"Aceh 23681";"Kabupaten Aceh Barat, Aceh";"Kabupaten Aceh Barat, Aceh";"ACEH";"";"Indonesia";"";"4.4129708";"96.195132";"https://maps.google.com/?cid=0x0:0x75d543d4e33374a6"
"supermarket";"Toko Peralatan dan Bahan Kue";"Fresh Mart";"Jl. Manek Roo, Kuta Padang, Kec. Johan Pahlawan, Kabupaten Aceh Barat, Aceh";"Kabupaten Aceh Barat, Aceh";"ACEH";"";"Indonesia";" 085362864022";"4.1485813";"96.1227062";"https://maps.google.com/?cid=0x0:0xdcb65df4584198b7"
"supermarket";"Toko bahan makanan";"Toko Dek Liza";"C855+QPP, Panteceureumen, Suak awe, Kec. Pantai Ceuremen, Kabupaten Aceh Barat, Aceh 23681";"Panteceureumen, Suak awe, Kec. Pantai Ceuremen, Kabupaten Aceh Barat";"ACEH";"23681";"Indonesia";"";"4.4094535";"96.3093164";"https://maps.google.com/?cid=0x0:0x587389aec2562373"
"supermarket";"Toko Swalayan";"KEUDE SAYUR DAMAI DAMAI";"Padang Sikabu, Kec. Kaway XVI, Kabupaten Aceh Barat, Aceh 23681";"Kec. Kaway XVI, Kabupaten Aceh Barat";"ACEH";"23681";"Indonesia";"";"4.3439018";"96.185469";"https://maps.google.com/?cid=0x0:0x50310b8a34a98626"
"supermarket";"Toko umum";"Minimarket Juanda";"Manjeng, Kec. Pantai Ceuremen, Kabupaten Aceh Barat, Aceh 23681";"Kec. Pantai Ceuremen, Kabupaten Aceh Barat";"ACEH";"23681";"Indonesia";"";"4.4053946";"96.2846032";"https://maps.google.com/?cid=0x0:0xc2fd1bf47d71d6e9"
"supermarket";"Toko";"DAWEUT ART STUDIO";"C882+WP8, Unnamed Road, Pante Ceureumen, Kec. Pantai Ceuremen, Kabupaten Aceh Barat, Aceh 23681";"Unnamed Road, Pante Ceureumen, Kec. Pantai Ceuremen, Kabupaten Aceh Barat";"ACEH";"23681";"Indonesia";"";"4.417286";"96.3018356";"https://maps.google.com/?cid=0x0:0x58344e90cc607da4"
"supermarket";"Toko bahan makanan";"TOKO BERKAH MART";"Meutulang, Kec. Panton Reu, Kabupaten Aceh Barat, Aceh 23681";"Kec. Panton Reu, Kabupaten Aceh Barat";"ACEH";"23681";"Indonesia";" 085260555456";"4.4026345";"96.2070749";"https://maps.google.com/?cid=0x0:0xd3aaa4610c188346"
"supermarket";"Toko bahan makanan";"rumah krupuk";"8652+WWC, Pasi Kumbang, Kec. Kaway XVI, Kabupaten Aceh Barat, Aceh 23681";"Pasi Kumbang, Kec. Kaway XVI, Kabupaten Aceh Barat";"ACEH";"23681";"Indonesia";"";"4.3098235";"96.2022712";"https://maps.google.com/?cid=0x0:0x2cb0202b63143ff9"
"supermarket";"Toko Bahan Bangunan";"UD Bangun Perdana";"85FM+9W7 gunong meuh, Jl. Geumpang - Tutut, Alue Lhok, Kec. Kaway XVI, Kabupaten Aceh Barat, Aceh 23681";"Jl. Geumpang - Tutut, Alue Lhok, Kec. Kaway XVI, Kabupaten Aceh Barat";"ACEH";"23681";"Indonesia";"";"4.3231812";"96.1846772";"https://maps.google.com/?cid=0x0:0x8a6c03f23f41e57f"
"supermarket";"Kios Majalah";"Kios samsul";"96PJ+VR, Cot Manggie, Kec. Pantai Ceuremen, Kabupaten Aceh Barat, Aceh";"Kabupaten Aceh Barat, Aceh";"ACEH";"";"Indonesia";" 082274810818";"4.387256";"96.2320386";"https://maps.google.com/?cid=0x0:0xdce5dd64cc01db4a"
"supermarket";"Toko Elektronik";"PLAY FOTO";"Meutulang, Kec. Panton Reu, Kabupaten Aceh Barat, Aceh 23681";"Kec. Panton Reu, Kabupaten Aceh Barat";"ACEH";"23681";"Indonesia";" 083121827088";"4.400155";"96.2076509";"https://maps.google.com/?cid=0x0:0x828226aeb0066585"
"supermarket";"Minimarket";"UD.Reza Usaha";"85HX+Q5F, Tegal Sari, Kec. Pantai Ceuremen, Kabupaten Aceh Barat, Aceh 23681";"Tegal Sari, Kec. Pantai Ceuremen, Kabupaten Aceh Barat";"ACEH";"23681";"Indonesia";"";"4.3294484";"96.1979168";"https://maps.google.com/?cid=0x0:0xf458fa305d2619da"
"supermarket";"Kedai Kopi";"mari jajan";"96P3+HR2, Jl. Geumpang - Tutut, Manggie, Kec. Panton Reu, Kabupaten Aceh Barat, Aceh 23681";"Jl. Geumpang - Tutut, Manggie, Kec. Panton Reu, Kabupaten Aceh Barat";"ACEH";"23681";"Indonesia";" 082290668462";"4.3863845";"96.2045212";"https://maps.google.com/?cid=0x0:0xeb1a6d84a4eb812f"
"supermarket";"Grosir Barang Kelontong";"Toko RmFt.Jaya bersama";"Suwak Awe, Kec. Pantai Ceuremen, Kabupaten Aceh Barat, Aceh 23681";"Kec. Pantai Ceuremen, Kabupaten Aceh Barat";"ACEH";"23681";"Indonesia";" 082271231996";"4.3449741";"96.1999413";"https://maps.google.com/?cid=0x0:0xc952e221d825efb3"
"supermarket";"supermarket";"Aceh 23683";"Kec. Sungai MAS, Kabupaten Aceh Barat, Aceh";"Kabupaten Aceh Barat, Aceh";"ACEH";"";"Indonesia";"";"4.5776801";"96.1102943";"https://maps.google.com/?cid=0x0:0xaddf9b2ca15b53aa"
"supermarket";"Toko bahan makanan";"UD. Teuku Ady";"G27H+G58, Gaseu, Kec. Sungai MAS, Kabupaten Aceh Barat, Aceh 23683";"Gaseu, Kec. Sungai MAS, Kabupaten Aceh Barat";"ACEH";"23683";"Indonesia";"";"4.5137961";"96.0279545";"https://maps.google.com/?cid=0x0:0xa94d64201692a8bc"
"supermarket";"Pasar";"A  Q MARKET";"Desa :, Tutut, Kec. Sungai MAS, Kabupaten Aceh Barat, Aceh 23685";"Tutut, Kec. Sungai MAS, Kabupaten Aceh Barat";"ACEH";"23685";"Indonesia";"";"4.5235168";"96.1236471";"https://maps.google.com/?cid=0x0:0xc6ee2a028a8d7c17"
"supermarket";"Toserba";"Helmi Market";"93M2+X8P, Tingkeum Panyang, Kec. Woyla, Kabupaten Aceh Barat, Aceh 23654";"Tingkeum Panyang, Kec. Woyla, Kabupaten Aceh Barat";"ACEH";"23654";"Indonesia";"";"4.3849985";"96.0509438";"https://maps.google.com/?cid=0x0:0x11c7c0fca1fd9ee3"
"supermarket";"Kedai Kopi";"Waroeng kupi bang jamal";"H3PV+W2H, Jl. Geumpang - Tutut, Drien Sibak, Kec. Sungai MAS, Kabupaten Aceh Barat, Aceh 23683";"Jl. Geumpang - Tutut, Drien Sibak, Kec. Sungai MAS, Kabupaten Aceh Barat";"ACEH";"23683";"Indonesia";"";"4.587321";"96.092618";"https://maps.google.com/?cid=0x0:0x5cb5154d3c36c803"
"supermarket";"Toko";"UD SM Beujaya";"F533+P34, Alue Kuyuen, Kec. Woyla Tim., Kabupaten Aceh Barat, Aceh";"Kabupaten Aceh Barat, Aceh";"ACEH";"";"Indonesia";"";"4.4542745";"96.1526985";"https://maps.google.com/?cid=0x0:0x49f17b89662e22db"
"supermarket";"Toko bahan makanan";"Suri Mursalin";"G22M+J4W, Paya Baro, Kec. Woyla Tim., Kabupaten Aceh Barat, Aceh 23654";"Paya Baro, Kec. Woyla Tim., Kabupaten Aceh Barat";"ACEH";"23654";"Indonesia";"";"4.501777";"96.0328202";"https://maps.google.com/?cid=0x0:0xfcff79b0b26c0c3f"
"supermarket";"Toko umum";"UD. AAA FAMILY";"Tuwi Kareung I, Kec. Pasie Raya, Kabupaten Aceh Jaya, Aceh 23653";"Kec. Pasie Raya, Kabupaten Aceh Jaya";"ACEH";"23653";"Indonesia";"";"4.5062069";"95.8870595";"https://maps.google.com/?cid=0x0:0xfd00d3a381cc950d"
"supermarket";"Toko bahan makanan";"UD. Riandi / toko Samsuddin";"93M4+MC2, Jl.seunebok, Kuala Bhee, Kec. Woyla, Kabupaten Aceh Barat, Aceh 23654";"Jl.seunebok, Kuala Bhee, Kec. Woyla, Kabupaten Aceh Barat";"ACEH";"23654";"Indonesia";"";"4.3841327";"96.0560167";"https://maps.google.com/?cid=0x0:0x2ea07f58d982a597"
"supermarket";"Toko bahan makanan";"Toko Dek Liza";"C855+QPP, Panteceureumen, Suak awe, Kec. Pantai Ceuremen, Kabupaten Aceh Barat, Aceh 23681";"Panteceureumen, Suak awe, Kec. Pantai Ceuremen, Kabupaten Aceh Barat";"ACEH";"23681";"Indonesia";"";"4.4094535";"96.3093164";"https://maps.google.com/?cid=0x0:0x587389aec2562373"
"supermarket";"Grosir Barang Kelontong";"Ud.aja mandiri";"Keulembah, Aceh 23654";"Kabupaten Aceh Barat, Aceh";"ACEH";"";"Indonesia";" 082276438535";"4.4047459";"96.0479783";"https://maps.google.com/?cid=0x0:0x930cc30ca771518d"
"supermarket";"Toko";"Lisma Store";"93M3+P98, Tingkeum Panyang, Kec. Woyla, Kabupaten Aceh Barat, Aceh 23654";"Tingkeum Panyang, Kec. Woyla, Kabupaten Aceh Barat";"ACEH";"23654";"Indonesia";" 082224441264";"4.384337";"96.0534674";"https://maps.google.com/?cid=0x0:0x963883f808ee0e8d"
"supermarket";"Minimarket";"UD.BARU M2";"F22W+W56, Cot Punti, Kec. Woyla Tim., Kabupaten Aceh Barat, Aceh 23654";"Cot Punti, Kec. Woyla Tim., Kabupaten Aceh Barat";"ACEH";"23654";"Indonesia";"";"4.4522755";"96.0453896";"https://maps.google.com/?cid=0x0:0x24e208667008355b"
"supermarket";"Toko bahan makanan";"TOKO BERKAH MART";"Meutulang, Kec. Panton Reu, Kabupaten Aceh Barat, Aceh 23681";"Kec. Panton Reu, Kabupaten Aceh Barat";"ACEH";"23681";"Indonesia";" 085260555456";"4.4026345";"96.2070749";"https://maps.google.com/?cid=0x0:0xd3aaa4610c188346"
