Category;Real Category;Business Name;Address;City;State;Postal Code;Country;Phone;Latitude;Longitude;Map Link
"perumahan";"perumahan";"Aceh 23611";"Kec. Johan Pahlawan, Kabupaten Aceh Barat, Aceh";"Kabupaten Aceh Barat, Aceh";"ACEH";"";"Indonesia";"";"4.193957";"96.1261925";"https://maps.google.com/?cid=0x0:0xa5883fcf3488a614"
"perumahan";"Kompleks Townhouse";"Komplek Perumahan Army";"54VQ+H34, Leuhan, Kec. Johan Pahlawan, Kabupaten Aceh Barat, Aceh 23611";"Leuhan, Kec. Johan Pahlawan, Kabupaten Aceh Barat";"ACEH";"23611";"Indonesia";" 085260242578";"4.1938943";"96.1376912";"https://maps.google.com/?cid=0x0:0xbb7dbd004146e043"
"perumahan";"Komplek perumahan";"Rumah";"54FM+Q8G, Lapang, Kec. Johan Pahlawan, Kabupaten Aceh Barat, Aceh 23611";"Lapang, Kec. Johan Pahlawan, Kabupaten Aceh Barat";"ACEH";"23611";"Indonesia";"";"4.1745005";"96.1329943";"https://maps.google.com/?cid=0x0:0x6c381d6dfbdba580"
"perumahan";"Komplek perumahan";"Perumahan Lapang Minimalis";"54VF+8MM, Lapang, Kec. Johan Pahlawan, Kabupaten Aceh Barat, Aceh 23611";"Lapang, Kec. Johan Pahlawan, Kabupaten Aceh Barat";"ACEH";"23611";"Indonesia";"";"4.1933452";"96.1241729";"https://maps.google.com/?cid=0x0:0xb112758221b0fa8e"
"perumahan";"";"Perumahan CRS";"54QR+Q7V, Leuhan, Kec. Johan Pahlawan, Kabupaten Aceh Barat, Aceh 23611";"Leuhan, Kec. Johan Pahlawan, Kabupaten Aceh Barat";"ACEH";"23611";"Indonesia";" 08116888712";"4.1894782";"96.1406711";"https://maps.google.com/?cid=0x0:0x949d599ef62290d"
"perumahan";"Perumahan";"Perumahan Gen Residence";"54CC+589, Seuneubok, Kec. Johan Pahlawan, Kabupaten Aceh Barat, Aceh 23617";"Seuneubok, Kec. Johan Pahlawan, Kabupaten Aceh Barat";"ACEH";"23617";"Indonesia";"";"4.1700601";"96.1214031";"https://maps.google.com/?cid=0x0:0x308bdf86ab45b089"
"perumahan";"Komplek perumahan";"Perumahan IOM";"54RW+MWX, Jl. TGK Di Pancu, Blang Berandang, Kec. Johan Pahlawan, Kabupaten Aceh Barat, Aceh 23681";"Jl. TGK Di Pancu, Blang Berandang, Kec. Johan Pahlawan, Kabupaten Aceh Barat";"ACEH";"23681";"Indonesia";"";"4.1917391";"96.1473614";"https://maps.google.com/?cid=0x0:0xdc7f0068d917eb2c"
"perumahan";"Pembangunan Perumahan";"Perumahan Griya Nova";"54VG+WVV, Lapang, Kec. Johan Pahlawan, Kabupaten Aceh Barat, Aceh 23611";"Lapang, Kec. Johan Pahlawan, Kabupaten Aceh Barat";"ACEH";"23611";"Indonesia";"";"4.194874";"96.127157";"https://maps.google.com/?cid=0x0:0x9e102b2271f94c27"
"perumahan";"Komplek perumahan";"Rumah Aminnullah";"547R+WC, Gampa, Kec. Johan Pahlawan, Kabupaten Aceh Barat, Aceh";"Kabupaten Aceh Barat, Aceh";"ACEH";"";"Indonesia";"";"4.164756";"96.1410946";"https://maps.google.com/?cid=0x0:0x9d53c3745f411d20"
"perumahan";"Komplek perumahan";"Rumah";"Lorong Apel No.119, Ujong Baroh, Kec. Johan Pahlawan, Kabupaten Aceh Barat, Aceh 23615";"Ujong Baroh, Kec. Johan Pahlawan, Kabupaten Aceh Barat";"ACEH";"23615";"Indonesia";"";"4.1536028";"96.1248842";"https://maps.google.com/?cid=0x0:0x194d0d75c580b4eb"
"perumahan";"Perumahan";"Perumahan Padang Seurahet 2";"54WQ+QJJ, Unnamed Rd, Blang Berandang, Kec. Johan Pahlawan, Kabupaten Aceh Barat, Aceh 23611";"Unnamed Rd, Blang Berandang, Kec. Johan Pahlawan, Kabupaten Aceh Barat";"ACEH";"23611";"Indonesia";"";"4.1969559";"96.1390192";"https://maps.google.com/?cid=0x0:0x86c41a32e77a7a4b"
"perumahan";"Komplek perumahan";"Perumahan Syariah Meulaboh";"54VF+8MM, Lapang, Kec. Johan Pahlawan, Kabupaten Aceh Barat, Aceh 23611";"Lapang, Kec. Johan Pahlawan, Kabupaten Aceh Barat";"ACEH";"23611";"Indonesia";" 082214832859";"4.1933458";"96.1241737";"https://maps.google.com/?cid=0x0:0xd0a4ed9386542116"
"perumahan";"Pembangunan Perumahan";"GRIYA ASRI PMC";"54FH+4XH, Lapang, Kec. Johan Pahlawan, Kabupaten Aceh Barat, Aceh 23611";"Lapang, Kec. Johan Pahlawan, Kabupaten Aceh Barat";"ACEH";"23611";"Indonesia";"";"4.172812";"96.1299804";"https://maps.google.com/?cid=0x0:0x183b4a11449e2e0f"
"perumahan";"Komplek perumahan";"Gen Residence 2";"Suak Raya, Kec. Johan Pahlawan, Kabupaten Aceh Barat, Aceh 23611";"Kec. Johan Pahlawan, Kabupaten Aceh Barat";"ACEH";"23611";"Indonesia";" 082165522261";"4.1762029";"96.1068573";"https://maps.google.com/?cid=0x0:0xe54ef04672ca816f"
"perumahan";"perumahan";"Aceh 23612";"Kec. Johan Pahlawan, Kabupaten Aceh Barat, Aceh";"Kabupaten Aceh Barat, Aceh";"ACEH";"";"Indonesia";"";"4.1507206";"96.1182429";"https://maps.google.com/?cid=0x0:0x2c0ec8e782c3eb0"
"perumahan";"Komplek perumahan";"Rumah";"Lorong Apel No.119, Ujong Baroh, Kec. Johan Pahlawan, Kabupaten Aceh Barat, Aceh 23615";"Ujong Baroh, Kec. Johan Pahlawan, Kabupaten Aceh Barat";"ACEH";"23615";"Indonesia";"";"4.1536028";"96.1248842";"https://maps.google.com/?cid=0x0:0x194d0d75c580b4eb"
"perumahan";"Komplek perumahan";"Rumah Teuku Raja Usman";"44XJ+935, Lorong Kuini, Ujong Baroh, Kec. Johan Pahlawan, Kabupaten Aceh Barat, Aceh";"Kabupaten Aceh Barat, Aceh";"ACEH";"";"Indonesia";"";"4.1483878";"96.1302252";"https://maps.google.com/?cid=0x0:0x4e590ff0e579a72f"
"perumahan";"Komplek perumahan";"H. Evendi Ibrahim";"542F+858, Kuta Padang, Kec. Johan Pahlawan, Kabupaten Aceh Barat, Aceh 23612";"Kuta Padang, Kec. Johan Pahlawan, Kabupaten Aceh Barat";"ACEH";"23612";"Indonesia";" 0811681498";"4.1507991";"96.1229451";"https://maps.google.com/?cid=0x0:0xa1476ff300ab0152"
"perumahan";"Pembangunan Perumahan";"Lorong Anggur";"Lrg. Anggur No.220, Ujong Baroh, Kec. Johan Pahlawan, Kabupaten Aceh Barat, Aceh 23611";"Ujong Baroh, Kec. Johan Pahlawan, Kabupaten Aceh Barat";"ACEH";"23611";"Indonesia";"";"4.1545906";"96.1253274";"https://maps.google.com/?cid=0x0:0xa9a10b24dfeba3a7"
"perumahan";"Kompleks Townhouse";"Komplek Perumahan Army";"54VQ+H34, Leuhan, Kec. Johan Pahlawan, Kabupaten Aceh Barat, Aceh 23611";"Leuhan, Kec. Johan Pahlawan, Kabupaten Aceh Barat";"ACEH";"23611";"Indonesia";" 085260242578";"4.1938943";"96.1376912";"https://maps.google.com/?cid=0x0:0xbb7dbd004146e043"
"perumahan";"Komplek perumahan";"Rumah Firnaaa";"5438+QQF, Jl. Kuta Paya, Suak Ribee, Kec. Johan Pahlawan, Kabupaten Aceh Barat, Aceh";"Kabupaten Aceh Barat, Aceh";"ACEH";"";"Indonesia";"";"4.154654";"96.1162849";"https://maps.google.com/?cid=0x0:0x768fb40a90345e93"
"perumahan";"Komplek perumahan";"Komplek KPR BTN";"544C+V9H, Seuneubok, Kec. Johan Pahlawan, Kabupaten Aceh Barat, Aceh 23611";"Seuneubok, Kec. Johan Pahlawan, Kabupaten Aceh Barat";"ACEH";"23611";"Indonesia";"";"4.1571879";"96.1209793";"https://maps.google.com/?cid=0x0:0xd5dfe1ba1df1c0cc"
"perumahan";"Perhimpunan Pengembang Perumahan";"Rumah cepii";"44VF+97J, Jl. Kuta Asan, Ujung Kalak, Kec. Johan Pahlawan, Kabupaten Aceh Barat, Aceh";"Kabupaten Aceh Barat, Aceh";"ACEH";"";"Indonesia";"";"4.1434504";"96.1231525";"https://maps.google.com/?cid=0x0:0x96a728571ccd9592"
"perumahan";"Komplek perumahan";"Rumah Ilham";"Lrg. Anggur No.187, Ujong Baroh, Kec. Johan Pahlawan, Kabupaten Aceh Barat, Aceh 23611";"Ujong Baroh, Kec. Johan Pahlawan, Kabupaten Aceh Barat";"ACEH";"23611";"Indonesia";"";"4.1547144";"96.1250392";"https://maps.google.com/?cid=0x0:0xd7a14003232b058b"
"perumahan";"Pembangunan Perumahan";"Rumah asrajuddin";"Suak Ribee, Kec. Johan Pahlawan, Kabupaten Aceh Barat, Aceh 23612";"Kec. Johan Pahlawan, Kabupaten Aceh Barat";"ACEH";"23612";"Indonesia";"";"4.1548454";"96.1126675";"https://maps.google.com/?cid=0x0:0xb725ff44a4d7388c"
"perumahan";"Komplek perumahan";"Rumah indah";"542F+P53, Kuta Padang, Kec. Johan Pahlawan, Kabupaten Aceh Barat, Aceh";"Kabupaten Aceh Barat, Aceh";"ACEH";"";"Indonesia";"";"4.1517538";"96.1229065";"https://maps.google.com/?cid=0x0:0xf7f86992071a1eed"
"perumahan";"Komplek perumahan";"Rumah Yuli";"545C+2FJ, Jl. Beringin Jaya, Seuneubok, Kec. Johan Pahlawan, Kabupaten Aceh Barat, Aceh";"Kabupaten Aceh Barat, Aceh";"ACEH";"";"Indonesia";"";"4.1575903";"96.1211383";"https://maps.google.com/?cid=0x0:0xd4aee0ea58628d26"
"perumahan";"Komplek perumahan";"home sweet home";"5428+RRX, Suak Ribee, Kec. Johan Pahlawan, Kabupaten Aceh Barat, Aceh 23612";"Suak Ribee, Kec. Johan Pahlawan, Kabupaten Aceh Barat";"ACEH";"23612";"Indonesia";"";"4.1521065";"96.1171084";"https://maps.google.com/?cid=0x0:0x19230537bd613f44"
"perumahan";"perumahan";"Aceh 23613";"Kec. Johan Pahlawan, Kabupaten Aceh Barat, Aceh";"Kabupaten Aceh Barat, Aceh";"ACEH";"";"Indonesia";"";"4.1496011";"96.0983734";"https://maps.google.com/?cid=0x0:0x9801922fff087058"
"perumahan";"Kompleks Townhouse";"Komplek Perumahan Army";"54VQ+H34, Leuhan, Kec. Johan Pahlawan, Kabupaten Aceh Barat, Aceh 23611";"Leuhan, Kec. Johan Pahlawan, Kabupaten Aceh Barat";"ACEH";"23611";"Indonesia";" 085260242578";"4.1938943";"96.1376912";"https://maps.google.com/?cid=0x0:0xbb7dbd004146e043"
"perumahan";"Komplek perumahan";"Rumah";"Lorong Apel No.119, Ujong Baroh, Kec. Johan Pahlawan, Kabupaten Aceh Barat, Aceh 23615";"Ujong Baroh, Kec. Johan Pahlawan, Kabupaten Aceh Barat";"ACEH";"23615";"Indonesia";"";"4.1536028";"96.1248842";"https://maps.google.com/?cid=0x0:0x194d0d75c580b4eb"
"perumahan";"Komplek perumahan";"Rumah Teuku Raja Usman";"44XJ+935, Lorong Kuini, Ujong Baroh, Kec. Johan Pahlawan, Kabupaten Aceh Barat, Aceh";"Kabupaten Aceh Barat, Aceh";"ACEH";"";"Indonesia";"";"4.1483878";"96.1302252";"https://maps.google.com/?cid=0x0:0x4e590ff0e579a72f"
"perumahan";"Komplek perumahan";"Rumah mas juli";"54HR+94C, Lapang, Kec. Johan Pahlawan, Kabupaten Aceh Barat, Aceh 23618";"Lapang, Kec. Johan Pahlawan, Kabupaten Aceh Barat";"ACEH";"23618";"Indonesia";"";"4.1784375";"96.1402656";"https://maps.google.com/?cid=0x0:0xab6d65a0eee06a4c"
"perumahan";"Komplek perumahan";"Khamila olshop";"5455+6MF, Jl. Padat Karya, dusun III, Suak Ribee, Kec. Johan Pahlawan, Kabupaten Aceh Barat, Aceh";"Kabupaten Aceh Barat, Aceh";"ACEH";"";"Indonesia";"";"4.1580573";"96.1091688";"https://maps.google.com/?cid=0x0:0x8faea3c2f7c6fd76"
"perumahan";"Dokter Keluarga";"Rumah orang tua";"5479+746, Jl. Beringin Maju, Seuneubok, Kec. Johan Pahlawan, Kabupaten Aceh Barat, Aceh 23617";"Jl. Beringin Maju, Seuneubok, Kec. Johan Pahlawan, Kabupaten Aceh Barat";"ACEH";"23617";"Indonesia";"";"4.1637652";"96.1180177";"https://maps.google.com/?cid=0x0:0x6681f2256a111caa"
"perumahan";"Pembangunan Perumahan";"Lorong Anggur";"Lrg. Anggur No.220, Ujong Baroh, Kec. Johan Pahlawan, Kabupaten Aceh Barat, Aceh 23611";"Ujong Baroh, Kec. Johan Pahlawan, Kabupaten Aceh Barat";"ACEH";"23611";"Indonesia";"";"4.1545906";"96.1253274";"https://maps.google.com/?cid=0x0:0xa9a10b24dfeba3a7"
"perumahan";"Perumahan";"Perumahan Gen Residence";"54CC+589, Seuneubok, Kec. Johan Pahlawan, Kabupaten Aceh Barat, Aceh 23617";"Seuneubok, Kec. Johan Pahlawan, Kabupaten Aceh Barat";"ACEH";"23617";"Indonesia";"";"4.1700601";"96.1214031";"https://maps.google.com/?cid=0x0:0x308bdf86ab45b089"
"perumahan";"Komplek perumahan";"Komplek KPR BTN";"544C+V9H, Seuneubok, Kec. Johan Pahlawan, Kabupaten Aceh Barat, Aceh 23611";"Seuneubok, Kec. Johan Pahlawan, Kabupaten Aceh Barat";"ACEH";"23611";"Indonesia";"";"4.1571879";"96.1209793";"https://maps.google.com/?cid=0x0:0xd5dfe1ba1df1c0cc"
"perumahan";"Komplek perumahan";"Rumah Firnaaa";"5438+QQF, Jl. Kuta Paya, Suak Ribee, Kec. Johan Pahlawan, Kabupaten Aceh Barat, Aceh";"Kabupaten Aceh Barat, Aceh";"ACEH";"";"Indonesia";"";"4.154654";"96.1162849";"https://maps.google.com/?cid=0x0:0x768fb40a90345e93"
"perumahan";"Komplek perumahan";"rumah";"542F+85H, Kuta Padang, Kec. Johan Pahlawan, Kabupaten Aceh Barat, Aceh 23612";"Kuta Padang, Kec. Johan Pahlawan, Kabupaten Aceh Barat";"ACEH";"23612";"Indonesia";"";"4.1506928";"96.1224214";"https://maps.google.com/?cid=0x0:0xa3cb1ad089f38c38"
"perumahan";"Komplek perumahan";"Rumah ahmad";"5455+WXJ, Jl. Syiah Kuala, Suak Ribee, Kec. Johan Pahlawan, Kabupaten Aceh Barat, Aceh 23615";"Jl. Syiah Kuala, Suak Ribee, Kec. Johan Pahlawan, Kabupaten Aceh Barat";"ACEH";"23615";"Indonesia";"";"4.1598401";"96.1098884";"https://maps.google.com/?cid=0x0:0x26d1c0b85a83f12e"
"perumahan";"Pembangunan Perumahan";"Rumah asrajuddin";"Suak Ribee, Kec. Johan Pahlawan, Kabupaten Aceh Barat, Aceh 23612";"Kec. Johan Pahlawan, Kabupaten Aceh Barat";"ACEH";"23612";"Indonesia";"";"4.1548454";"96.1126675";"https://maps.google.com/?cid=0x0:0xb725ff44a4d7388c"
"perumahan";"perumahan";"Aceh 23614";"Kec. Johan Pahlawan, Kabupaten Aceh Barat, Aceh";"Kabupaten Aceh Barat, Aceh";"ACEH";"";"Indonesia";"";"4.1572395";"96.0983734";"https://maps.google.com/?cid=0x0:0xb8e25ed660b8aa81"
"perumahan";"Komplek perumahan";"Khamila olshop";"5455+6MF, Jl. Padat Karya, dusun III, Suak Ribee, Kec. Johan Pahlawan, Kabupaten Aceh Barat, Aceh";"Kabupaten Aceh Barat, Aceh";"ACEH";"";"Indonesia";"";"4.1580573";"96.1091688";"https://maps.google.com/?cid=0x0:0x8faea3c2f7c6fd76"
"perumahan";"Kompleks Townhouse";"Komplek Perumahan Army";"54VQ+H34, Leuhan, Kec. Johan Pahlawan, Kabupaten Aceh Barat, Aceh 23611";"Leuhan, Kec. Johan Pahlawan, Kabupaten Aceh Barat";"ACEH";"23611";"Indonesia";" 085260242578";"4.1938943";"96.1376912";"https://maps.google.com/?cid=0x0:0xbb7dbd004146e043"
"perumahan";"Komplek perumahan";"Aldian";"5474+2G, Suak Sigadeng, Kec. Johan Pahlawan, Kabupaten Aceh Barat, Aceh 23615";"Suak Sigadeng, Kec. Johan Pahlawan, Kabupaten Aceh Barat";"ACEH";"23615";"Indonesia";" 081257807090";"4.1625405";"96.1063013";"https://maps.google.com/?cid=0x0:0x50861c1e3467baff"
"perumahan";"Komplek perumahan";"Perumahan Caritas BB.2";"54WR+H56, Blang Berandang, Kec. Johan Pahlawan, Kabupaten Aceh Barat, Aceh 23611";"Blang Berandang, Kec. Johan Pahlawan, Kabupaten Aceh Barat";"ACEH";"23611";"Indonesia";"";"4.1964175";"96.1404039";"https://maps.google.com/?cid=0x0:0x3ec600bb73092ddf"
"perumahan";"Pembangunan Perumahan";"Ket Kel Suak raya";"5474+FV6, Suak Sigadeng, Kec. Johan Pahlawan, Kabupaten Aceh Barat, Aceh";"Kabupaten Aceh Barat, Aceh";"ACEH";"";"Indonesia";"";"4.1636599";"96.1071552";"https://maps.google.com/?cid=0x0:0xe5f9d486e5726cfe"
"perumahan";"Komplek perumahan";"Suak Sigadeng Residence";"Jln.H.Daud Dariah 2.Suak Indra puri kec.Johan Pahlawan Kab.Aceh Barat, Suak Sigadeng, Kec. Johan Pahlawan, Kabupaten Aceh Barat, Aceh 23617";"Suak Sigadeng, Kec. Johan Pahlawan, Kabupaten Aceh Barat";"ACEH";"23617";"Indonesia";"";"4.1682757";"96.1096597";"https://maps.google.com/?cid=0x0:0xa8e7f4090a282665"
"perumahan";"Komplek perumahan";"Griya Fahmi Rizki Suak Sigadeng";"5484+7P, Suak Sigadeng, Kec. Johan Pahlawan, Kabupaten Aceh Barat, Aceh";"Kabupaten Aceh Barat, Aceh";"ACEH";"";"Indonesia";"";"4.1656448";"96.1068659";"https://maps.google.com/?cid=0x0:0x834b4d225cd35dec"
"perumahan";"Inspektur Tempat Tinggal";"sewa";"44WP+FXP, Rundeng, Kec. Johan Pahlawan, Kabupaten Aceh Barat, Aceh 23681";"Rundeng, Kec. Johan Pahlawan, Kabupaten Aceh Barat";"ACEH";"23681";"Indonesia";"";"4.1462096";"96.1374454";"https://maps.google.com/?cid=0x0:0x55ab44e24a3548be"
"perumahan";"Pembangunan Perumahan";"Meulaboh, Suak Ribee";"5437+QXP, Suak Ribee, Kec. Johan Pahlawan, Kabupaten Aceh Barat, Aceh 23612";"Suak Ribee, Kec. Johan Pahlawan, Kabupaten Aceh Barat";"ACEH";"23612";"Indonesia";"";"4.1544508";"96.1149451";"https://maps.google.com/?cid=0x0:0x5f9c8a50ad94ae60"
"perumahan";"Pembangunan Perumahan";"Komplek Perumahan Caritas BB.1";"54XW+PH8, Blang Berandang, Kec. Johan Pahlawan, Kabupaten Aceh Barat, Aceh 23681";"Blang Berandang, Kec. Johan Pahlawan, Kabupaten Aceh Barat";"ACEH";"23681";"Indonesia";"";"4.1992843";"96.1464644";"https://maps.google.com/?cid=0x0:0x906f99c6914c67f5"
"perumahan";"Indonesia";"Dapur Hijrah";"5476+573, Jl. Bungong Jaroe, Suak Ribee, Kec. Johan Pahlawan, Kabupaten Aceh Barat, Aceh 23617";"Jl. Bungong Jaroe, Suak Ribee, Kec. Johan Pahlawan, Kabupaten Aceh Barat";"ACEH";"23617";"Indonesia";" 082273344404";"4.163143";"96.1100593";"https://maps.google.com/?cid=0x0:0xb1db966b7fa445b2"
"perumahan";"Komplek perumahan";"Komplek Griya Lapang";"54VF+3JQ, Lapang, Kec. Johan Pahlawan, Kabupaten Aceh Barat, Aceh 23611";"Lapang, Kec. Johan Pahlawan, Kabupaten Aceh Barat";"ACEH";"23611";"Indonesia";"";"4.1927002";"96.1241006";"https://maps.google.com/?cid=0x0:0x5f8aca88fbbd5be"
"perumahan";"Komplek perumahan";"Rumah baru";"543M+PGH, Jl. Gajah Mada, Drien Rampak, Kec. Johan Pahlawan, Kabupaten Aceh Barat, Aceh";"Kabupaten Aceh Barat, Aceh";"ACEH";"";"Indonesia";"";"4.1543139";"96.1338737";"https://maps.google.com/?cid=0x0:0x3926a701fbbe4617"
"perumahan";"perumahan";"Aceh 23615";"Kec. Johan Pahlawan, Kabupaten Aceh Barat, Aceh";"Kabupaten Aceh Barat, Aceh";"ACEH";"";"Indonesia";"";"4.1622709";"96.1063204";"https://maps.google.com/?cid=0x0:0xd2bf3e0b78ba4037"
"perumahan";"Komplek perumahan";"Rumah";"Lorong Apel No.119, Ujong Baroh, Kec. Johan Pahlawan, Kabupaten Aceh Barat, Aceh 23615";"Ujong Baroh, Kec. Johan Pahlawan, Kabupaten Aceh Barat";"ACEH";"23615";"Indonesia";"";"4.1536028";"96.1248842";"https://maps.google.com/?cid=0x0:0x194d0d75c580b4eb"
"perumahan";"Komplek perumahan";"Komplek KPR BTN";"544C+V9H, Seuneubok, Kec. Johan Pahlawan, Kabupaten Aceh Barat, Aceh 23611";"Seuneubok, Kec. Johan Pahlawan, Kabupaten Aceh Barat";"ACEH";"23611";"Indonesia";"";"4.1571879";"96.1209793";"https://maps.google.com/?cid=0x0:0xd5dfe1ba1df1c0cc"
"perumahan";"Komplek perumahan";"Aldian";"5474+2G, Suak Sigadeng, Kec. Johan Pahlawan, Kabupaten Aceh Barat, Aceh 23615";"Suak Sigadeng, Kec. Johan Pahlawan, Kabupaten Aceh Barat";"ACEH";"23615";"Indonesia";" 081257807090";"4.1625405";"96.1063013";"https://maps.google.com/?cid=0x0:0x50861c1e3467baff"
"perumahan";"Dokter Keluarga";"Rumah orang tua";"5479+746, Jl. Beringin Maju, Seuneubok, Kec. Johan Pahlawan, Kabupaten Aceh Barat, Aceh 23617";"Jl. Beringin Maju, Seuneubok, Kec. Johan Pahlawan, Kabupaten Aceh Barat";"ACEH";"23617";"Indonesia";"";"4.1637652";"96.1180177";"https://maps.google.com/?cid=0x0:0x6681f2256a111caa"
"perumahan";"Pembangunan Perumahan";"Rumah merah putih dhe_yura";"547C+F7J, Jl. Beringin Maju, Seuneubok, Kec. Johan Pahlawan, Kabupaten Aceh Barat, Aceh";"Kabupaten Aceh Barat, Aceh";"ACEH";"";"Indonesia";"";"4.1637134";"96.1206353";"https://maps.google.com/?cid=0x0:0xe39e29f62da22e1d"
"perumahan";"Pembangunan Perumahan";"Heri";"5457+FQF, Suak Ribee, Kec. Johan Pahlawan, Kabupaten Aceh Barat, Aceh 23615";"Suak Ribee, Kec. Johan Pahlawan, Kabupaten Aceh Barat";"ACEH";"23615";"Indonesia";"";"4.1587227";"96.114418";"https://maps.google.com/?cid=0x0:0x1823340f1254ce5b"
"perumahan";"Komplek perumahan";"Rumah Firnaaa";"5438+QQF, Jl. Kuta Paya, Suak Ribee, Kec. Johan Pahlawan, Kabupaten Aceh Barat, Aceh";"Kabupaten Aceh Barat, Aceh";"ACEH";"";"Indonesia";"";"4.154654";"96.1162849";"https://maps.google.com/?cid=0x0:0x768fb40a90345e93"
"perumahan";"Pembangunan Perumahan";"Perumahan Sultan";"5469+PJW, Seuneubok, Kec. Johan Pahlawan, Kabupaten Aceh Barat, Aceh 23617";"Seuneubok, Kec. Johan Pahlawan, Kabupaten Aceh Barat";"ACEH";"23617";"Indonesia";"";"4.1617585";"96.1191259";"https://maps.google.com/?cid=0x0:0x906ed515a05ffab"
"perumahan";"Komplek perumahan";"Rumah ahmad";"5455+WXJ, Jl. Syiah Kuala, Suak Ribee, Kec. Johan Pahlawan, Kabupaten Aceh Barat, Aceh 23615";"Jl. Syiah Kuala, Suak Ribee, Kec. Johan Pahlawan, Kabupaten Aceh Barat";"ACEH";"23615";"Indonesia";"";"4.1598401";"96.1098884";"https://maps.google.com/?cid=0x0:0x26d1c0b85a83f12e"
"perumahan";"Komplek perumahan";"Khairan";"5457+4HF, Jl. Kuta Paya, Suak Ribee, Kec. Johan Pahlawan, Kabupaten Aceh Barat, Aceh 23615";"Jl. Kuta Paya, Suak Ribee, Kec. Johan Pahlawan, Kabupaten Aceh Barat";"ACEH";"23615";"Indonesia";"";"4.1578036";"96.1139159";"https://maps.google.com/?cid=0x0:0x870fdc8746c1540a"
"perumahan";"Komplek perumahan";"Rumah Teuku Raja Usman";"44XJ+935, Lorong Kuini, Ujong Baroh, Kec. Johan Pahlawan, Kabupaten Aceh Barat, Aceh";"Kabupaten Aceh Barat, Aceh";"ACEH";"";"Indonesia";"";"4.1483878";"96.1302252";"https://maps.google.com/?cid=0x0:0x4e590ff0e579a72f"
"perumahan";"Komplek perumahan";"Rumah Yuli";"545C+2FJ, Jl. Beringin Jaya, Seuneubok, Kec. Johan Pahlawan, Kabupaten Aceh Barat, Aceh";"Kabupaten Aceh Barat, Aceh";"ACEH";"";"Indonesia";"";"4.1575903";"96.1211383";"https://maps.google.com/?cid=0x0:0xd4aee0ea58628d26"
"perumahan";"Pembangunan Perumahan";"Perumahan Griya Nova";"54VG+WVV, Lapang, Kec. Johan Pahlawan, Kabupaten Aceh Barat, Aceh 23611";"Lapang, Kec. Johan Pahlawan, Kabupaten Aceh Barat";"ACEH";"23611";"Indonesia";"";"4.194874";"96.127157";"https://maps.google.com/?cid=0x0:0x9e102b2271f94c27"
"perumahan";"perumahan";"Aceh 23616";"Kec. Johan Pahlawan, Kabupaten Aceh Barat, Aceh";"Kabupaten Aceh Barat, Aceh";"ACEH";"";"Indonesia";"";"4.1620859";"96.1301677";"https://maps.google.com/?cid=0x0:0xe0be7a42827f0eb0"
"perumahan";"Komplek perumahan";"!®";"Gampa, Kec. Johan Pahlawan, Kabupaten Aceh Barat, Aceh 23617";"Kec. Johan Pahlawan, Kabupaten Aceh Barat";"ACEH";"23617";"Indonesia";" 085360322230";"4.1689375";"96.1288125";"https://maps.google.com/?cid=0x0:0x2bb3ff7d9f91ea77"
"perumahan";"Kompleks Townhouse";"Komplek Perumahan Army";"54VQ+H34, Leuhan, Kec. Johan Pahlawan, Kabupaten Aceh Barat, Aceh 23611";"Leuhan, Kec. Johan Pahlawan, Kabupaten Aceh Barat";"ACEH";"23611";"Indonesia";" 085260242578";"4.1938943";"96.1376912";"https://maps.google.com/?cid=0x0:0xbb7dbd004146e043"
"perumahan";"Komplek perumahan";"Rumah";"54FM+Q8G, Lapang, Kec. Johan Pahlawan, Kabupaten Aceh Barat, Aceh 23611";"Lapang, Kec. Johan Pahlawan, Kabupaten Aceh Barat";"ACEH";"23611";"Indonesia";"";"4.1745005";"96.1329943";"https://maps.google.com/?cid=0x0:0x6c381d6dfbdba580"
"perumahan";"Komplek perumahan";"Rumah";"Lorong Apel No.119, Ujong Baroh, Kec. Johan Pahlawan, Kabupaten Aceh Barat, Aceh 23615";"Ujong Baroh, Kec. Johan Pahlawan, Kabupaten Aceh Barat";"ACEH";"23615";"Indonesia";"";"4.1536028";"96.1248842";"https://maps.google.com/?cid=0x0:0x194d0d75c580b4eb"
"perumahan";"Komplek perumahan";"Komplek Rumah Dinas Dinas Kesehatan";"545J+CGP, Jl. Kesehatan, Drien Rampak, Kec. Johan Pahlawan, Kabupaten Aceh Barat, Aceh 23611";"Jl. Kesehatan, Drien Rampak, Kec. Johan Pahlawan, Kabupaten Aceh Barat";"ACEH";"23611";"Indonesia";"";"4.1585799";"96.1313356";"https://maps.google.com/?cid=0x0:0x8d22f4ff55c879b3"
"perumahan";"Komplek perumahan";"Rumah Apon Jais";"548J+QX9, Jl. Sisingamangaraja Lrg. Sejahtera, Gampa, Kec. Johan Pahlawan, Kabupaten Aceh Barat, Aceh 23611";"Jl. Sisingamangaraja Lrg. Sejahtera, Gampa, Kec. Johan Pahlawan, Kabupaten Aceh Barat";"ACEH";"23611";"Indonesia";"";"4.1669199";"96.1324874";"https://maps.google.com/?cid=0x0:0x48225efe9f60e71e"
"perumahan";"Perumahan";"Perumahan Gen Residence";"54CC+589, Seuneubok, Kec. Johan Pahlawan, Kabupaten Aceh Barat, Aceh 23617";"Seuneubok, Kec. Johan Pahlawan, Kabupaten Aceh Barat";"ACEH";"23617";"Indonesia";"";"4.1700601";"96.1214031";"https://maps.google.com/?cid=0x0:0x308bdf86ab45b089"
"perumahan";"Dokter Keluarga";"Rumah orang tua";"5479+746, Jl. Beringin Maju, Seuneubok, Kec. Johan Pahlawan, Kabupaten Aceh Barat, Aceh 23617";"Jl. Beringin Maju, Seuneubok, Kec. Johan Pahlawan, Kabupaten Aceh Barat";"ACEH";"23617";"Indonesia";"";"4.1637652";"96.1180177";"https://maps.google.com/?cid=0x0:0x6681f2256a111caa"
"perumahan";"Komplek perumahan";"Rumah Teuku Raja Usman";"44XJ+935, Lorong Kuini, Ujong Baroh, Kec. Johan Pahlawan, Kabupaten Aceh Barat, Aceh";"Kabupaten Aceh Barat, Aceh";"ACEH";"";"Indonesia";"";"4.1483878";"96.1302252";"https://maps.google.com/?cid=0x0:0x4e590ff0e579a72f"
"perumahan";"Pembangunan Perumahan";"Tanah Kampung Darat";"546P+5XM, Kp. Darat, Kec. Johan Pahlawan, Kabupaten Aceh Barat, Aceh 23616";"Kp. Darat, Kec. Johan Pahlawan, Kabupaten Aceh Barat";"ACEH";"23616";"Indonesia";"";"4.1604599";"96.1374304";"https://maps.google.com/?cid=0x0:0xa952d02dfe8716dd"
"perumahan";"Komplek perumahan";"Sudirman";"546M+5W6, Kp. Darat, Kec. Johan Pahlawan, Kabupaten Aceh Barat, Aceh 23616";"Kp. Darat, Kec. Johan Pahlawan, Kabupaten Aceh Barat";"ACEH";"23616";"Indonesia";"";"4.1611328";"96.1350024";"https://maps.google.com/?cid=0x0:0x6312f5026bef5025"
"perumahan";"Komplek perumahan";"No.214";"547H+5Q6, Jl. BKKBN, Drien Rampak, Kec. Johan Pahlawan, Kabupaten Aceh Barat, Aceh 23616";"Jl. BKKBN, Drien Rampak, Kec. Johan Pahlawan, Kabupaten Aceh Barat";"ACEH";"23616";"Indonesia";"";"4.1629028";"96.1293891";"https://maps.google.com/?cid=0x0:0x1603a80f169cf4cc"
"perumahan";"Pembangunan Perumahan";"House FR";"546F+832, Seuneubok, Kec. Johan Pahlawan, Kabupaten Aceh Barat, Aceh 23616";"Seuneubok, Kec. Johan Pahlawan, Kabupaten Aceh Barat";"ACEH";"23616";"Indonesia";"";"4.1602558";"96.12259";"https://maps.google.com/?cid=0x0:0xb5d32f68a5aafb5d"
"perumahan";"perumahan";"Aceh 23617";"Kec. Johan Pahlawan, Kabupaten Aceh Barat, Aceh";"Kabupaten Aceh Barat, Aceh";"ACEH";"";"Indonesia";"";"4.1660395";"96.1129437";"https://maps.google.com/?cid=0x0:0x4f9f747f1f90c64b"
"perumahan";"Komplek perumahan";"!®";"Gampa, Kec. Johan Pahlawan, Kabupaten Aceh Barat, Aceh 23617";"Kec. Johan Pahlawan, Kabupaten Aceh Barat";"ACEH";"23617";"Indonesia";" 085360322230";"4.1689375";"96.1288125";"https://maps.google.com/?cid=0x0:0x2bb3ff7d9f91ea77"
"perumahan";"Perumahan";"Perumahan Gen Residence";"54CC+589, Seuneubok, Kec. Johan Pahlawan, Kabupaten Aceh Barat, Aceh 23617";"Seuneubok, Kec. Johan Pahlawan, Kabupaten Aceh Barat";"ACEH";"23617";"Indonesia";"";"4.1700601";"96.1214031";"https://maps.google.com/?cid=0x0:0x308bdf86ab45b089"
"perumahan";"Masjid";"Masjid Agung Baitul Makmur Kabupaten Aceh Barat";"Jl. Imam Bonjol No.100, Drien Rampak, Kec. Johan Pahlawan, Kabupaten Aceh Barat, Aceh 23611";"Drien Rampak, Kec. Johan Pahlawan, Kabupaten Aceh Barat";"ACEH";"23611";"Indonesia";"";"4.1587055";"96.1249118";"https://maps.google.com/?cid=0x0:0x7bd6dedc9ee1ea71"
"perumahan";"Komplek perumahan";"Suak Sigadeng Residence";"Jln.H.Daud Dariah 2.Suak Indra puri kec.Johan Pahlawan Kab.Aceh Barat, Suak Sigadeng, Kec. Johan Pahlawan, Kabupaten Aceh Barat, Aceh 23617";"Suak Sigadeng, Kec. Johan Pahlawan, Kabupaten Aceh Barat";"ACEH";"23617";"Indonesia";"";"4.1682757";"96.1096597";"https://maps.google.com/?cid=0x0:0xa8e7f4090a282665"
"perumahan";"Komplek perumahan";"Griya Fahmi Rizki Seuneubok";"5487+563, Jl. Singgah Mata, Seuneubok, Kec. Johan Pahlawan, Kabupaten Aceh Barat, Aceh 23617";"Jl. Singgah Mata, Seuneubok, Kec. Johan Pahlawan, Kabupaten Aceh Barat";"ACEH";"23617";"Indonesia";"";"4.1658448";"96.1125029";"https://maps.google.com/?cid=0x0:0xf64b64e2b3f7d615"
"perumahan";"Dokter Keluarga";"Rumah orang tua";"5479+746, Jl. Beringin Maju, Seuneubok, Kec. Johan Pahlawan, Kabupaten Aceh Barat, Aceh 23617";"Jl. Beringin Maju, Seuneubok, Kec. Johan Pahlawan, Kabupaten Aceh Barat";"ACEH";"23617";"Indonesia";"";"4.1637652";"96.1180177";"https://maps.google.com/?cid=0x0:0x6681f2256a111caa"
"perumahan";"perumahan";"KOMPLEK PERMATA RESIDENCE";"54C7+V92, Seuneubok, Kec. Johan Pahlawan, Kabupaten Aceh Barat, Aceh 23617";"Seuneubok, Kec. Johan Pahlawan, Kabupaten Aceh Barat";"ACEH";"23617";"Indonesia";" 085297400259";"4.1731535";"96.1135939";"https://maps.google.com/?cid=0x0:0x407105fe93304dad"
"perumahan";"Pembangunan Perumahan";"Perumahan Sultan";"5469+PJW, Seuneubok, Kec. Johan Pahlawan, Kabupaten Aceh Barat, Aceh 23617";"Seuneubok, Kec. Johan Pahlawan, Kabupaten Aceh Barat";"ACEH";"23617";"Indonesia";"";"4.1617585";"96.1191259";"https://maps.google.com/?cid=0x0:0x906ed515a05ffab"
"perumahan";"Komplek perumahan";"Komplek KPR BTN";"544C+V9H, Seuneubok, Kec. Johan Pahlawan, Kabupaten Aceh Barat, Aceh 23611";"Seuneubok, Kec. Johan Pahlawan, Kabupaten Aceh Barat";"ACEH";"23611";"Indonesia";"";"4.1571879";"96.1209793";"https://maps.google.com/?cid=0x0:0xd5dfe1ba1df1c0cc"
"perumahan";"Komplek perumahan";"Rumah muntahar";"54FC+R6V, Seuneubok, Kec. Johan Pahlawan, Kabupaten Aceh Barat, Aceh 23611";"Seuneubok, Kec. Johan Pahlawan, Kabupaten Aceh Barat";"ACEH";"23611";"Indonesia";"";"4.1746041";"96.1205395";"https://maps.google.com/?cid=0x0:0x252ae028982e8f37"
"perumahan";"Komplek perumahan";"Rumah yahbang";"54C9+VJ2, Seuneubok, Kec. Johan Pahlawan, Kabupaten Aceh Barat, Aceh 23617";"Seuneubok, Kec. Johan Pahlawan, Kabupaten Aceh Barat";"ACEH";"23617";"Indonesia";"";"4.1721337";"96.1190257";"https://maps.google.com/?cid=0x0:0xff17ed843742a94e"
"perumahan";"Komplek perumahan";"Rumah Zakaria";"5479+5MR Ke, Jalan Kebun Pasi, Seuneubok, Kec. Johan Pahlawan, Kabupaten Aceh Barat, Aceh";"Kabupaten Aceh Barat, Aceh";"ACEH";"";"Indonesia";"";"4.1629951";"96.119144";"https://maps.google.com/?cid=0x0:0x42acae0502eaf568"
"perumahan";"Kompleks Townhouse";"Komplek Perumahan Army";"54VQ+H34, Leuhan, Kec. Johan Pahlawan, Kabupaten Aceh Barat, Aceh 23611";"Leuhan, Kec. Johan Pahlawan, Kabupaten Aceh Barat";"ACEH";"23611";"Indonesia";" 085260242578";"4.1938943";"96.1376912";"https://maps.google.com/?cid=0x0:0xbb7dbd004146e043"
"perumahan";"Komplek perumahan";"Rumah";"54FM+Q8G, Lapang, Kec. Johan Pahlawan, Kabupaten Aceh Barat, Aceh 23611";"Lapang, Kec. Johan Pahlawan, Kabupaten Aceh Barat";"ACEH";"23611";"Indonesia";"";"4.1745005";"96.1329943";"https://maps.google.com/?cid=0x0:0x6c381d6dfbdba580"
"perumahan";"perumahan";"Aceh 23618";"Kec. Johan Pahlawan, Kabupaten Aceh Barat, Aceh";"Kabupaten Aceh Barat, Aceh";"ACEH";"";"Indonesia";"";"4.186417";"96.1129437";"https://maps.google.com/?cid=0x0:0x4562fc605032d397"
"perumahan";"Komplek perumahan";"Rumah mas juli";"54HR+94C, Lapang, Kec. Johan Pahlawan, Kabupaten Aceh Barat, Aceh 23618";"Lapang, Kec. Johan Pahlawan, Kabupaten Aceh Barat";"ACEH";"23618";"Indonesia";"";"4.1784375";"96.1402656";"https://maps.google.com/?cid=0x0:0xab6d65a0eee06a4c"
"perumahan";"Pembangunan Perumahan";"Perumahan Griya Nova";"54VG+WVV, Lapang, Kec. Johan Pahlawan, Kabupaten Aceh Barat, Aceh 23611";"Lapang, Kec. Johan Pahlawan, Kabupaten Aceh Barat";"ACEH";"23611";"Indonesia";"";"4.194874";"96.127157";"https://maps.google.com/?cid=0x0:0x9e102b2271f94c27"
"perumahan";"Komplek perumahan";"Perumahan Lapang Minimalis";"54VF+8MM, Lapang, Kec. Johan Pahlawan, Kabupaten Aceh Barat, Aceh 23611";"Lapang, Kec. Johan Pahlawan, Kabupaten Aceh Barat";"ACEH";"23611";"Indonesia";"";"4.1933452";"96.1241729";"https://maps.google.com/?cid=0x0:0xb112758221b0fa8e"
"perumahan";"Pembangunan Perumahan";"Komplek griya nova indah";"54WG+PG2, Lapang, Kec. Johan Pahlawan, Kabupaten Aceh Barat, Aceh 23611";"Lapang, Kec. Johan Pahlawan, Kabupaten Aceh Barat";"ACEH";"23611";"Indonesia";"";"4.1967699";"96.1262619";"https://maps.google.com/?cid=0x0:0x185025c5097af313"
"perumahan";"Komplek perumahan";"LOKASI TANAH DIJUAL";"54MP+C58, Lapang, Kec. Johan Pahlawan, Kabupaten Aceh Barat, Aceh 23618";"Lapang, Kec. Johan Pahlawan, Kabupaten Aceh Barat";"ACEH";"23618";"Indonesia";" 08529651115";"4.1835439";"96.135442";"https://maps.google.com/?cid=0x0:0xb822a6ae9d6078b4"
"perumahan";"Pembangunan Perumahan";"Jalan T.A.STOM";"54M2+4XF, Suak Raya, Kec. Johan Pahlawan, Kabupaten Aceh Barat, Aceh 23618";"Suak Raya, Kec. Johan Pahlawan, Kabupaten Aceh Barat";"ACEH";"23618";"Indonesia";"";"4.1828058";"96.102424";"https://maps.google.com/?cid=0x0:0x5c85666ca006ced0"
"perumahan";"Perumahan";"Perumahan grand ketapang";"Leuhan, Kec. Johan Pahlawan, Kabupaten Aceh Barat, Aceh 23611";"Kec. Johan Pahlawan, Kabupaten Aceh Barat";"ACEH";"23611";"Indonesia";"";"4.1954799";"96.1317447";"https://maps.google.com/?cid=0x0:0x510b0ba8b6be8fda"
"perumahan";"";"Perumahan CRS";"54QR+Q7V, Leuhan, Kec. Johan Pahlawan, Kabupaten Aceh Barat, Aceh 23611";"Leuhan, Kec. Johan Pahlawan, Kabupaten Aceh Barat";"ACEH";"23611";"Indonesia";" 08116888712";"4.1894782";"96.1406711";"https://maps.google.com/?cid=0x0:0x949d599ef62290d"
"perumahan";"Perumahan";"Griya Nova Indah";"54QJ+FFG, Lapang, Kec. Johan Pahlawan, Kabupaten Aceh Barat, Aceh 23611";"Lapang, Kec. Johan Pahlawan, Kabupaten Aceh Barat";"ACEH";"23611";"Indonesia";"";"4.1886943";"96.1312005";"https://maps.google.com/?cid=0x0:0x8d71767cb2021fa6"
"perumahan";"Komplek perumahan";"Pak Fauzul Family";"54MP+C58, Lapang, Kec. Johan Pahlawan, Kabupaten Aceh Barat, Aceh 23618";"Lapang, Kec. Johan Pahlawan, Kabupaten Aceh Barat";"ACEH";"23618";"Indonesia";"";"4.1840134";"96.1351662";"https://maps.google.com/?cid=0x0:0xc386915ba9111f39"
"perumahan";"Komplek perumahan";"Komplek Griya Lapang";"54VF+3JQ, Lapang, Kec. Johan Pahlawan, Kabupaten Aceh Barat, Aceh 23611";"Lapang, Kec. Johan Pahlawan, Kabupaten Aceh Barat";"ACEH";"23611";"Indonesia";"";"4.1927002";"96.1241006";"https://maps.google.com/?cid=0x0:0x5f8aca88fbbd5be"
"perumahan";"Komplek perumahan";"Rumah muntahar";"54FC+R6V, Seuneubok, Kec. Johan Pahlawan, Kabupaten Aceh Barat, Aceh 23611";"Seuneubok, Kec. Johan Pahlawan, Kabupaten Aceh Barat";"ACEH";"23611";"Indonesia";"";"4.1746041";"96.1205395";"https://maps.google.com/?cid=0x0:0x252ae028982e8f37"
"perumahan";"perumahan";"Aceh 23652";"Kabupaten Aceh Barat, Aceh";"Kabupaten Aceh Barat, Aceh";"ACEH";"";"Indonesia";"";"4.2710816";"96.0467429";"https://maps.google.com/?cid=0x0:0x30687e4200a2049b"
"perumahan";"Komplek perumahan";"Perumahan Para Indah, Cot Seumeureueng";"63CH+VJ7, Cot Seumeureng, Kec. Samatiga, Kabupaten Aceh Barat, Aceh 23652";"Cot Seumeureng, Kec. Samatiga, Kabupaten Aceh Barat";"ACEH";"23652";"Indonesia";"";"4.2221531";"96.0790617";"https://maps.google.com/?cid=0x0:0xfdcb24e2f1a05540"
"perumahan";"Perhimpunan Pengembang Perumahan";"Rumah manusia";"63H8+CXF, Cot Seumeureng, Kec. Samatiga, Kabupaten Aceh Barat, Aceh 23652";"Cot Seumeureng, Kec. Samatiga, Kabupaten Aceh Barat";"ACEH";"23652";"Indonesia";"";"4.2285385";"96.0677435";"https://maps.google.com/?cid=0x0:0x1cfba607e59e15fd"
"perumahan";"Kompleks Apartemen";"DESA UJONGA KECAMATAN SAMATIGA";"63P8+38C, Rangkileh, Kec. Samatiga, Kabupaten Aceh Barat, Aceh 23652";"Rangkileh, Kec. Samatiga, Kabupaten Aceh Barat";"ACEH";"23652";"Indonesia";"";"4.2351846";"96.0657715";"https://maps.google.com/?cid=0x0:0xf741ceba42443460"
"perumahan";"Komplek perumahan";"Rumah Ku";"7327+QGJ, Reusak, Kec. Samatiga, Kabupaten Aceh Barat, Aceh 23652";"Reusak, Kec. Samatiga, Kabupaten Aceh Barat";"ACEH";"23652";"Indonesia";"";"4.2520649";"96.063791";"https://maps.google.com/?cid=0x0:0x430a43f16400071a"
"perumahan";"Komplek perumahan";"Rossi's House";"626J+2R6, Gampong Cot, Kec. Samatiga, Kabupaten Aceh Barat, Aceh 23652";"Gampong Cot, Kec. Samatiga, Kabupaten Aceh Barat";"ACEH";"23652";"Indonesia";" 085260527112";"4.2118396";"96.0315291";"https://maps.google.com/?cid=0x0:0x32f0aa959e7ab59f"
"perumahan";"Komplek perumahan";"Rumah";"725X+8QC, Reusak, Kec. Samatiga, Kabupaten Aceh Barat, Aceh 23652";"Reusak, Kec. Samatiga, Kabupaten Aceh Barat";"ACEH";"23652";"Indonesia";"";"4.258302";"96.0493896";"https://maps.google.com/?cid=0x0:0xac8f5e58ea756195"
"perumahan";"Komplek perumahan";"Rumah zaki";"63MG+GHC, Paya Lumpat, Kec. Samatiga, Kabupaten Aceh Barat, Aceh 23652";"Paya Lumpat, Kec. Samatiga, Kabupaten Aceh Barat";"ACEH";"23652";"Indonesia";"";"4.2338159";"96.0763763";"https://maps.google.com/?cid=0x0:0xedb49a15c0e4fc31"
"perumahan";"Dapur Umum";"Toko toke Malaya(Surya)";"6377+CHV, Cot Darat, Kec. Samatiga, Kabupaten Aceh Barat, Aceh 23652";"Cot Darat, Kec. Samatiga, Kabupaten Aceh Barat";"ACEH";"23652";"Indonesia";"";"4.2135731";"96.0639326";"https://maps.google.com/?cid=0x0:0xcbb4d88be41e0ea"
"perumahan";"Perhimpunan Pengembang Perumahan";"Rumah roy";"Cot Seumeureng, Kec. Samatiga, Kabupaten Aceh Barat, Aceh 23652";"Kec. Samatiga, Kabupaten Aceh Barat";"ACEH";"23652";"Indonesia";"";"4.2244932";"96.0766843";"https://maps.google.com/?cid=0x0:0x3ccc47f6862deeac"
"perumahan";"Komplek perumahan";"Rumah Said Ismail ( Abu Yet )";"63JH+GQV, Paya Lumpat, Kec. Samatiga, Kabupaten Aceh Barat, Aceh 23652";"Paya Lumpat, Kec. Samatiga, Kabupaten Aceh Barat";"ACEH";"23652";"Indonesia";"";"4.2325491";"96.0792415";"https://maps.google.com/?cid=0x0:0x9a758d34565ee1db"
"perumahan";"Komplek perumahan";"Suak sauke";"62H9+53C, Suak Seukee, Kec. Samatiga, Kabupaten Aceh Barat, Aceh 23652";"Suak Seukee, Kec. Samatiga, Kabupaten Aceh Barat";"ACEH";"23652";"Indonesia";"";"4.2279402";"96.0176373";"https://maps.google.com/?cid=0x0:0x1a024660e5323df5"
"perumahan";"Pembangunan Perumahan";"Rumah uki";"63GG+R7W, Cot Seumeureng, Kec. Samatiga, Kabupaten Aceh Barat, Aceh 23652";"Cot Seumeureng, Kec. Samatiga, Kabupaten Aceh Barat";"ACEH";"23652";"Indonesia";"";"4.2271097";"96.0757024";"https://maps.google.com/?cid=0x0:0x38dab348a0d59e2d"
"perumahan";"Komplek perumahan";"Rumah almarh.usman Mahmud dan saniah";"63MG+R6Q, Paya Lumpat, Kec. Samatiga, Kabupaten Aceh Barat, Aceh 23652";"Paya Lumpat, Kec. Samatiga, Kabupaten Aceh Barat";"ACEH";"23652";"Indonesia";"";"4.234997";"96.0752118";"https://maps.google.com/?cid=0x0:0x3b695259a0ef0dcc"
"perumahan";"perumahan";"Kec. Bubon";"Kabupaten Aceh Barat, Aceh";"Kabupaten Aceh Barat, Aceh";"ACEH";"";"Indonesia";"";"4.2943828";"96.0862301";"https://maps.google.com/?cid=0x0:0x80219aee8cc6aaef"
"perumahan";"Komplek perumahan";"Istana Bakeuti";"73WQ+FFJ, Layung, Kec. Bubon, Kabupaten Aceh Barat, Aceh";"Kabupaten Aceh Barat, Aceh";"ACEH";"";"Indonesia";"";"4.2958095";"96.0896344";"https://maps.google.com/?cid=0x0:0xfa8f9a9045fa7bde"
"perumahan";"Komplek perumahan";"Rumah pipi";"845R+438, Suak Pangkat, Kec. Bubon, Kabupaten Aceh Barat, Aceh 23654";"Suak Pangkat, Kec. Bubon, Kabupaten Aceh Barat";"ACEH";"23654";"Indonesia";"";"4.307796";"96.1402025";"https://maps.google.com/?cid=0x0:0xaa933bf0759bcdb1"
"perumahan";"Komplek perumahan";"Layaung";"835J+JFV, Layung, Kec. Bubon, Kabupaten Aceh Barat, Aceh";"Kabupaten Aceh Barat, Aceh";"ACEH";"";"Indonesia";"";"4.3091028";"96.0811584";"https://maps.google.com/?cid=0x0:0xec2e2b342e767d69"
"perumahan";"Pembangunan Perumahan";"Jambo squat syedara";"8588+WJ3, Blang Sibeutong, Kec. Bubon, Kabupaten Aceh Barat, Aceh 23681";"Blang Sibeutong, Kec. Bubon, Kabupaten Aceh Barat";"ACEH";"23681";"Indonesia";"";"4.3172538";"96.1658802";"https://maps.google.com/?cid=0x0:0x203fb37030d82010"
"perumahan";"Pusat Pendidikan";"PERUMAHAN GRIYA MAHONI";"5567+9HG, Ranto Panyang Tim., Kec. Meureubo, Kabupaten Aceh Barat, Aceh 23681";"Ranto Panyang Tim., Kec. Meureubo, Kabupaten Aceh Barat";"ACEH";"23681";"Indonesia";" 0811681867";"4.1609262";"96.1639456";"https://maps.google.com/?cid=0x0:0x939fd442867a77db"
"perumahan";"Komplek perumahan";"Rumah rosmaini";"73WQ+MR9, Layung, Kec. Bubon, Kabupaten Aceh Barat, Aceh 23652";"Layung, Kec. Bubon, Kabupaten Aceh Barat";"ACEH";"23652";"Indonesia";"";"4.2966724";"96.0896109";"https://maps.google.com/?cid=0x0:0x7df026a6404c44e1"
"perumahan";"Komplek perumahan";"Rumah neng Lilis";"73FC+G9, Pange, Kec. Samatiga, Kabupaten Aceh Barat, Aceh 23652";"Pange, Kec. Samatiga, Kabupaten Aceh Barat";"ACEH";"23652";"Indonesia";"";"4.2740925";"96.070764";"https://maps.google.com/?cid=0x0:0x725586dff1e9a788"
"perumahan";"Pertanian";"Kebun Jeruk Nipis";"73WQ+FFJ, Layung, Kec. Bubon, Kabupaten Aceh Barat, Aceh";"Kabupaten Aceh Barat, Aceh";"ACEH";"";"Indonesia";"";"4.2955143";"96.0895097";"https://maps.google.com/?cid=0x0:0x832a224ea282fbac"
"perumahan";"Perumahan";"Perumahan Griya Mahoni Alpen";"Griya Mahoni Alpen No.5 Blok C, Paya Peunaga, Kec. Meureubo, Kabupaten Aceh Barat, Aceh 23671";"Paya Peunaga, Kec. Meureubo, Kabupaten Aceh Barat";"ACEH";"23671";"Indonesia";" 085260036754";"4.1452331";"96.1893683";"https://maps.google.com/?cid=0x0:0x806473112726643a"
"perumahan";"Komplek perumahan";"حسب الله و نعم الوكيل";"845Q+7C9, Seuneubok Trap, Kec. Bubon, Kabupaten Aceh Barat, Aceh";"Kabupaten Aceh Barat, Aceh";"ACEH";"";"Indonesia";"";"4.308165";"96.1385991";"https://maps.google.com/?cid=0x0:0x473a7ee6126f496c"
"perumahan";"Kantor Pemerintah";"Komtan";"73PH+CM2, Kuala, Kec. Bubon, Kabupaten Aceh Barat, Aceh";"Kabupaten Aceh Barat, Aceh";"ACEH";"";"Indonesia";"";"4.2860058";"96.0791513";"https://maps.google.com/?cid=0x0:0xa849b1905b9a8964"
"perumahan";"Unit Gawat Darurat";"Puskesdes Rambung";"73MH+CXJ, Rambong, Kec. Bubon, Kabupaten Aceh Barat, Aceh 23652";"Rambong, Kec. Bubon, Kabupaten Aceh Barat";"ACEH";"23652";"Indonesia";"";"4.2835979";"96.0798902";"https://maps.google.com/?cid=0x0:0x7e9d80888b6f3787"
"perumahan";"Pembangunan Perumahan";"Rumah jack";"832W+F24, Jl. Alue Lhok, Alue Bakong, Kec. Bubon, Kabupaten Aceh Barat, Aceh 23654";"Jl. Alue Lhok, Alue Bakong, Kec. Bubon, Kabupaten Aceh Barat";"ACEH";"23654";"Indonesia";"";"4.3011451";"96.0950764";"https://maps.google.com/?cid=0x0:0x6bfd6dbd1cc12111"
"perumahan";"perumahan";"Aceh 23652";"Kabupaten Aceh Barat, Aceh";"Kabupaten Aceh Barat, Aceh";"ACEH";"";"Indonesia";"";"4.2710816";"96.0467429";"https://maps.google.com/?cid=0x0:0x30687e4200a2049b"
"perumahan";"Perhimpunan Pengembang Perumahan";"Hendriyani";"8WFM+84X, Suak Ie Beusou, Kec. Arongan Lambalek, Kabupaten Aceh Barat, Aceh 23652";"Suak Ie Beusou, Kec. Arongan Lambalek, Kabupaten Aceh Barat";"ACEH";"23652";"Indonesia";"";"4.3233575";"95.9328598";"https://maps.google.com/?cid=0x0:0xff619b4d740c5fc9"
"perumahan";"Komplek perumahan";"Rumah keluarga";"8X52+FWC, Kubu, Kec. Arongan Lambalek, Kabupaten Aceh Barat, Aceh 23652";"Kubu, Kec. Arongan Lambalek, Kabupaten Aceh Barat";"ACEH";"23652";"Indonesia";"";"4.308271";"95.951696";"https://maps.google.com/?cid=0x0:0x158a8ebc8a7e94b2"
"perumahan";"Peternak";"Perumahan Desa Suak Bidok";"9W69+X8Q, Suak Bidok, Kec. Arongan Lambalek, Kabupaten Aceh Barat, Aceh 23652";"Suak Bidok, Kec. Arongan Lambalek, Kabupaten Aceh Barat";"ACEH";"23652";"Indonesia";"";"4.3624644";"95.9183659";"https://maps.google.com/?cid=0x0:0xfca680c89862f37c"
"perumahan";"Komplek perumahan";"Rumah Muzahar";"8XJ5+XPF, Unnamed Road, Panton Makmur, Kec. Arongan Lambalek, Kabupaten Aceh Barat, Aceh 23652";"Unnamed Road, Panton Makmur, Kec. Arongan Lambalek, Kabupaten Aceh Barat";"ACEH";"23652";"Indonesia";"";"4.3324252";"95.9593046";"https://maps.google.com/?cid=0x0:0x3cecbc2d7797bf5c"
"perumahan";"Komplek perumahan";"DS. COT KUMBANG";"7XQR+6RC, Keub, Kec. Arongan Lambalek, Kabupaten Aceh Barat, Aceh 23652";"Keub, Kec. Arongan Lambalek, Kabupaten Aceh Barat";"ACEH";"23652";"Indonesia";"";"4.2880676";"95.9920271";"https://maps.google.com/?cid=0x0:0x7473b7d19f60866c"
"perumahan";"Komplek perumahan";"baharuddin";"8WXP+C7M, Rimba Langgeh, Kec. Arongan Lambalek, Kabupaten Aceh Barat, Aceh 23652";"Rimba Langgeh, Kec. Arongan Lambalek, Kabupaten Aceh Barat";"ACEH";"23652";"Indonesia";"";"4.3485807";"95.9356872";"https://maps.google.com/?cid=0x0:0x29e1499d8cfe7f66"
"perumahan";"Komplek perumahan";"SAIFULLAH";"8X34+RHG, Kubu, Kec. Arongan Lambalek, Kabupaten Aceh Barat, Aceh 23652";"Kubu, Kec. Arongan Lambalek, Kabupaten Aceh Barat";"ACEH";"23652";"Indonesia";"";"4.3045502";"95.9564527";"https://maps.google.com/?cid=0x0:0xd17d0f3fa18846f3"
"perumahan";"Komplek perumahan";"Kubu";"8X25+F72, Kubu, Kec. Arongan Lambalek, Kabupaten Aceh Barat, Aceh 23652";"Kubu, Kec. Arongan Lambalek, Kabupaten Aceh Barat";"ACEH";"23652";"Indonesia";"";"4.3011353";"95.9581464";"https://maps.google.com/?cid=0x0:0xa59878b571d2301f"
"perumahan";"Komplek perumahan";"Rumah Bang Sams";"8X53+37H, Kubu, Kec. Arongan Lambalek, Kabupaten Aceh Barat, Aceh 23652";"Kubu, Kec. Arongan Lambalek, Kabupaten Aceh Barat";"ACEH";"23652";"Indonesia";"";"4.3086398";"95.9524099";"https://maps.google.com/?cid=0x0:0x9c5bee00a14538b"
"perumahan";"Pembangunan Perumahan";"Polindes rimbalanggeh";"8WVP+GJ2, Rimba Langgeh, Kec. Arongan Lambalek, Kabupaten Aceh Barat, Aceh 23652";"Rimba Langgeh, Kec. Arongan Lambalek, Kabupaten Aceh Barat";"ACEH";"23652";"Indonesia";"";"4.3438276";"95.936546";"https://maps.google.com/?cid=0x0:0xbdebf0c391b1c881"
"perumahan";"Komplek perumahan";"Rumoh tgk melaboh";"8X97+63Q, Drien Rampak, Kec. Arongan Lambalek, Kabupaten Aceh Barat, Aceh 23652";"Drien Rampak, Kec. Arongan Lambalek, Kabupaten Aceh Barat";"ACEH";"23652";"Indonesia";"";"4.3180755";"95.962727";"https://maps.google.com/?cid=0x0:0xb8ee33d82a09ffc3"
"perumahan";"Pembangunan Perumahan";"Arif";"8XH3+49G, Cot Buloh, Kec. Arongan Lambalek, Kabupaten Aceh Barat, Aceh";"Kabupaten Aceh Barat, Aceh";"ACEH";"";"Indonesia";"";"4.3278227";"95.953442";"https://maps.google.com/?cid=0x0:0x8ad74aa77a15b558"
"perumahan";"Komplek perumahan";"teupin peuraho";"8X4G+X56, Jl. Meulaboh - Banda Aceh, Teupin Peuraho, Kec. Arongan Lambalek, Kabupaten Aceh Barat, Aceh 23652";"Jl. Meulaboh - Banda Aceh, Teupin Peuraho, Kec. Arongan Lambalek, Kabupaten Aceh Barat";"ACEH";"23652";"Indonesia";"";"4.307405";"95.9754014";"https://maps.google.com/?cid=0x0:0x8955965c3b39a465"
"perumahan";"Pembangunan Perumahan";"Rumah saya";"82MH+6QR, Ie Itam Baroh, Kec. Woyla, Kabupaten Aceh Barat, Aceh 23654";"Ie Itam Baroh, Kec. Woyla, Kabupaten Aceh Barat";"ACEH";"23654";"Indonesia";"";"4.3331012";"96.0293839";"https://maps.google.com/?cid=0x0:0xd803da2269fc1f06"
"perumahan";"Komplek perumahan";"Mauri";"82RJ+Q2J, Ie Itam Tunong, Kec. Woyla, Kabupaten Aceh Barat, Aceh 23654";"Ie Itam Tunong, Kec. Woyla, Kabupaten Aceh Barat";"ACEH";"23654";"Indonesia";"";"4.3419617";"96.0300243";"https://maps.google.com/?cid=0x0:0x29c3f1137eea8e5d"
"perumahan";"perumahan";"Kec. Woyla";"Kabupaten Aceh Barat, Aceh";"Kabupaten Aceh Barat, Aceh";"ACEH";"";"Indonesia";"";"4.3842742";"96.0566624";"https://maps.google.com/?cid=0x0:0x1b356ff5d77a878a"
"perumahan";"Sekolah Menengah Atas";"MESS SMA N 1 WOYLA";"93P2+9X6, Jl. Tgk Disarah, Tingkeum Panyang, Kec. Woyla, Kabupaten Aceh Barat, Aceh 23654";"Jl. Tgk Disarah, Tingkeum Panyang, Kec. Woyla, Kabupaten Aceh Barat";"ACEH";"23654";"Indonesia";"";"4.3859101";"96.0523889";"https://maps.google.com/?cid=0x0:0xf26323f4bde9ce44"
"perumahan";"Komplek perumahan";"𝑅𝑢𝑚𝑎ℎ 𝑤𝑎𝑛";"82J5+X94, Kulam Kaju, Kec. Woyla Bar., Kabupaten Aceh Barat, Aceh 23654";"Kulam Kaju, Kec. Woyla Bar., Kabupaten Aceh Barat";"ACEH";"23654";"Indonesia";"";"4.3323768";"96.0089943";"https://maps.google.com/?cid=0x0:0xdeddd134e7006c9c"
"perumahan";"Gedung Apartemen";"Wakdoy";"926W+63R, Aron Tunong, Kec. Woyla, Kabupaten Aceh Barat, Aceh 23654";"Aron Tunong, Kec. Woyla, Kabupaten Aceh Barat";"ACEH";"23654";"Indonesia";"";"4.3599334";"96.0453219";"https://maps.google.com/?cid=0x0:0xb3048ced0e7e9ec1"
"perumahan";"Perhimpunan Pengembang Perumahan";"Simpang Ie Sayang Woyla Barat";"92C8+27G, Ie Sayang, Kec. Woyla Bar., Kabupaten Aceh Barat, Aceh 23654";"Ie Sayang, Kec. Woyla Bar., Kabupaten Aceh Barat";"ACEH";"23654";"Indonesia";"";"4.3700533";"96.0157057";"https://maps.google.com/?cid=0x0:0x2795b2fa3cc0fdc7"
"perumahan";"Komplek perumahan";"Rumah santi";"83MQ+V7H, Cot Murong, Kec. Woyla, Kabupaten Aceh Barat, Aceh 23654";"Cot Murong, Kec. Woyla, Kabupaten Aceh Barat";"ACEH";"23654";"Indonesia";"";"4.3346905";"96.0882306";"https://maps.google.com/?cid=0x0:0x791e3410741fe110"
"perumahan";"Pembangunan Perumahan";"Woyla tiimur";"C4MC+4V4, Alue Meuganda, Kec. Woyla Tim., Kabupaten Aceh Barat, Aceh";"Kabupaten Aceh Barat, Aceh";"ACEH";"";"Indonesia";"";"4.4327676";"96.1222175";"https://maps.google.com/?cid=0x0:0x9030d2d2b65e5d97"
"perumahan";"perumahan";"Rumah nenek ayyubi";"933R+Q7Q, Suak Tring, Kec. Woyla, Kabupaten Aceh Barat, Aceh 23654";"Suak Tring, Kec. Woyla, Kabupaten Aceh Barat";"ACEH";"23654";"Indonesia";"";"4.3537494";"96.0913232";"https://maps.google.com/?cid=0x0:0x6e834cd7a6fdbf9a"
"perumahan";"Pembangunan Perumahan";"RUMAH HUSSAINI";"92GM+66V, Ulee Pulo, Kec. Woyla Bar., Kabupaten Aceh Barat, Aceh 23654";"Ulee Pulo, Kec. Woyla Bar., Kabupaten Aceh Barat";"ACEH";"23654";"Indonesia";"";"4.3756068";"96.0330568";"https://maps.google.com/?cid=0x0:0xaa134965de51a502"
"perumahan";"Komplek perumahan";"Alue payang";"C24W+7P7, Alue Panyang, Kec. Woyla, Kabupaten Aceh Barat, Aceh 23654";"Alue Panyang, Kec. Woyla, Kabupaten Aceh Barat";"ACEH";"23654";"Indonesia";"";"4.4056672";"96.0467975";"https://maps.google.com/?cid=0x0:0x24a336ff56924ee4"
"perumahan";"";"Perumahan OF7 KTS";"C32X+HMV, Paya Luah, Kec. Woyla, Kabupaten Aceh Barat, Aceh 23654";"Paya Luah, Kec. Woyla, Kabupaten Aceh Barat";"ACEH";"23654";"Indonesia";"";"4.4014786";"96.099186";"https://maps.google.com/?cid=0x0:0x2c80d386c4fe8beb"
"perumahan";"Komplek perumahan";"Rumah tgk ayyub";"83MQ+PJ3, Cot Murong, Kec. Woyla, Kabupaten Aceh Barat, Aceh 23654";"Cot Murong, Kec. Woyla, Kabupaten Aceh Barat";"ACEH";"23654";"Indonesia";"";"4.3342566";"96.0890436";"https://maps.google.com/?cid=0x0:0xfa619471ab1cbacc"
"perumahan";"perumahan";"Kec. Woyla Bar.";"Kabupaten Aceh Barat, Aceh";"Kabupaten Aceh Barat, Aceh";"ACEH";"";"Indonesia";"";"4.3454175";"96.0142448";"https://maps.google.com/?cid=0x0:0xf6bf5c9712518f80"
"perumahan";"Perhimpunan Pengembang Perumahan";"Simpang Ie Sayang Woyla Barat";"92C8+27G, Ie Sayang, Kec. Woyla Bar., Kabupaten Aceh Barat, Aceh 23654";"Ie Sayang, Kec. Woyla Bar., Kabupaten Aceh Barat";"ACEH";"23654";"Indonesia";"";"4.3700533";"96.0157057";"https://maps.google.com/?cid=0x0:0x2795b2fa3cc0fdc7"
"perumahan";"Pemakaman";"TPU desa Lueng Baro Woyla barat";"8XRW+GQ, Lueng Baro, Kec. Woyla Bar., Kabupaten Aceh Barat, Aceh 23654";"Lueng Baro, Kec. Woyla Bar., Kabupaten Aceh Barat";"ACEH";"23654";"Indonesia";"";"4.3412533";"95.996945";"https://maps.google.com/?cid=0x0:0x3d054ab3cd92b04f"
"perumahan";"Komplek perumahan";"𝑅𝑢𝑚𝑎ℎ 𝑤𝑎𝑛";"82J5+X94, Kulam Kaju, Kec. Woyla Bar., Kabupaten Aceh Barat, Aceh 23654";"Kulam Kaju, Kec. Woyla Bar., Kabupaten Aceh Barat";"ACEH";"23654";"Indonesia";"";"4.3323768";"96.0089943";"https://maps.google.com/?cid=0x0:0xdeddd134e7006c9c"
"perumahan";"Komplek perumahan";"Rumah ayah";"8X6W+VR3, Blang Luah Lm, Kec. Woyla Bar., Kabupaten Aceh Barat, Aceh 23654";"Blang Luah Lm, Kec. Woyla Bar., Kabupaten Aceh Barat";"ACEH";"23654";"Indonesia";"";"4.3124147";"95.9974508";"https://maps.google.com/?cid=0x0:0x45de2661ffcd3d88"
"perumahan";"Komplek perumahan";"Rumah Lia Zahara";"8XXW+JR6, Mon Pasong, Kec. Woyla Bar., Kabupaten Aceh Barat, Aceh 23654";"Mon Pasong, Kec. Woyla Bar., Kabupaten Aceh Barat";"ACEH";"23654";"Indonesia";"";"4.3490263";"95.9970304";"https://maps.google.com/?cid=0x0:0x4d8930bd7091f114"
"perumahan";"Pembangunan Perumahan";"Rumah saya";"82MH+6QR, Ie Itam Baroh, Kec. Woyla, Kabupaten Aceh Barat, Aceh 23654";"Ie Itam Baroh, Kec. Woyla, Kabupaten Aceh Barat";"ACEH";"23654";"Indonesia";"";"4.3331012";"96.0293839";"https://maps.google.com/?cid=0x0:0xd803da2269fc1f06"
"perumahan";"Pembangunan Perumahan";"Ali woybar";"8XRW+GQ, Lueng Baro, Kec. Woyla Bar., Kabupaten Aceh Barat, Aceh 23654";"Lueng Baro, Kec. Woyla Bar., Kabupaten Aceh Barat";"ACEH";"23654";"Indonesia";"";"4.3406033";"95.9965691";"https://maps.google.com/?cid=0x0:0xfc97e6ee6a6b4c14"
"perumahan";"Pembangunan Perumahan";"RUMAH HUSSAINI";"92GM+66V, Ulee Pulo, Kec. Woyla Bar., Kabupaten Aceh Barat, Aceh 23654";"Ulee Pulo, Kec. Woyla Bar., Kabupaten Aceh Barat";"ACEH";"23654";"Indonesia";"";"4.3756068";"96.0330568";"https://maps.google.com/?cid=0x0:0xaa134965de51a502"
"perumahan";"Komplek perumahan";"ISA electronics w.y.b";"8X9P+4M, Lubuk Pasi Ara, Kec. Woyla Bar., Kabupaten Aceh Barat, Aceh";"Kabupaten Aceh Barat, Aceh";"ACEH";"";"Indonesia";" 082360950947";"4.3179277";"95.9866449";"https://maps.google.com/?cid=0x0:0x82f453f238a4566f"
"perumahan";"Komplek perumahan";"Rumah afrizal";"8297+6H, Napai, Kec. Woyla Bar., Kabupaten Aceh Barat, Aceh";"Kabupaten Aceh Barat, Aceh";"ACEH";"";"Indonesia";"";"4.3180033";"96.0139508";"https://maps.google.com/?cid=0x0:0x56b713314b6fef4a"
"perumahan";"Gedung Apartemen";"Wakdoy";"926W+63R, Aron Tunong, Kec. Woyla, Kabupaten Aceh Barat, Aceh 23654";"Aron Tunong, Kec. Woyla, Kabupaten Aceh Barat";"ACEH";"23654";"Indonesia";"";"4.3599334";"96.0453219";"https://maps.google.com/?cid=0x0:0xb3048ced0e7e9ec1"
"perumahan";"Komplek perumahan";"Rumah Ramos";"82C8+3VR, Napai, Kec. Woyla Bar., Kabupaten Aceh Barat, Aceh 23654";"Napai, Kec. Woyla Bar., Kabupaten Aceh Barat";"ACEH";"23654";"Indonesia";"";"4.3200911";"96.0168439";"https://maps.google.com/?cid=0x0:0x2747bf6d05aae195"
"perumahan";"Komplek perumahan";"Lorong Abi";"929V+CQQ, Pasi Aceh, Kec. Woyla, Kabupaten Aceh Barat, Aceh 23654";"Pasi Aceh, Kec. Woyla, Kabupaten Aceh Barat";"ACEH";"23654";"Indonesia";"";"4.3685727";"96.0444872";"https://maps.google.com/?cid=0x0:0x930fa87f7b016bc"
"perumahan";"perumahan";"Kec. Woyla Tim.";"Kabupaten Aceh Barat, Aceh";"Kabupaten Aceh Barat, Aceh";"ACEH";"";"Indonesia";"";"4.4569759";"96.1493051";"https://maps.google.com/?cid=0x0:0x35763af430d81337"
"perumahan";"Pembangunan Perumahan";"Woyla tiimur";"C4MC+4V4, Alue Meuganda, Kec. Woyla Tim., Kabupaten Aceh Barat, Aceh";"Kabupaten Aceh Barat, Aceh";"ACEH";"";"Indonesia";"";"4.4327676";"96.1222175";"https://maps.google.com/?cid=0x0:0x9030d2d2b65e5d97"
"perumahan";"Perhimpunan Pengembang Perumahan";"Ridwan";"C37F+GM, Seuneubok Dalam, Kec. Woyla Tim., Kabupaten Aceh Barat, Aceh";"Kabupaten Aceh Barat, Aceh";"ACEH";"";"Indonesia";"";"4.4138072";"96.0741372";"https://maps.google.com/?cid=0x0:0x9c37191816635086"
"perumahan";"Pembangunan Perumahan";"Gp.Rambong";"F26G+GQ5, Rambong, Kec. Woyla Tim., Kabupaten Aceh Barat, Aceh 23654";"Rambong, Kec. Woyla Tim., Kabupaten Aceh Barat";"ACEH";"23654";"Indonesia";"";"4.4612687";"96.0269907";"https://maps.google.com/?cid=0x0:0x315dfee338ef28be"
"perumahan";"Komplek perumahan";"Nila sari";"C3Q7+V29, Tangkeh, Kec. Woyla Tim., Kabupaten Aceh Barat, Aceh 23654";"Tangkeh, Kec. Woyla Tim., Kabupaten Aceh Barat";"ACEH";"23654";"Indonesia";"";"4.4396578";"96.0626246";"https://maps.google.com/?cid=0x0:0x839eee755cb8e9cd"
"perumahan";"Kompleks Townhouse";"Perumahan budha tzu-chi aceh barat";"F533+P34 komplek budha tzu chi, Jalan Haji dariah, Alue Kuyuen, Kec. Woyla Tim., Kabupaten Aceh Barat, Aceh";"Kabupaten Aceh Barat, Aceh";"ACEH";"";"Indonesia";" 082273306205";"4.4542745";"96.1526985";"https://maps.google.com/?cid=0x0:0xbfac0f1ce1247b55"
"perumahan";"Komplek perumahan";"Rumah ku";"G23J+24Q, Paya Baro, Kec. Woyla Tim., Kabupaten Aceh Barat, Aceh";"Kabupaten Aceh Barat, Aceh";"ACEH";"";"Indonesia";"";"4.5025878";"96.0303589";"https://maps.google.com/?cid=0x0:0x7b6888576f6c4761"
"perumahan";"Pembangunan Perumahan";"rumah nazaruddin";"C388+J4J, Paya Meugeundrang, Kec. Woyla Tim., Kabupaten Aceh Barat, Aceh 23654";"Paya Meugeundrang, Kec. Woyla Tim., Kabupaten Aceh Barat";"ACEH";"23654";"Indonesia";"";"4.4165999";"96.0652719";"https://maps.google.com/?cid=0x0:0xdfd1bbe44e53de88"
"perumahan";"Komplek perumahan";"Wahidin Al Fatta S.H";"F2HF+957, Jawi, Kec. Woyla, Kabupaten Aceh Barat, Aceh 23654";"Jawi, Kec. Woyla, Kabupaten Aceh Barat";"ACEH";"23654";"Indonesia";"";"4.4784009";"96.0229282";"https://maps.google.com/?cid=0x0:0x4dccba3b0e932a51"
"perumahan";"Komplek perumahan";"MHd.DiaZ";"93XC+66P, Alue Sikaya, Kec. Woyla, Kabupaten Aceh Barat, Aceh 23654";"Alue Sikaya, Kec. Woyla, Kabupaten Aceh Barat";"ACEH";"23654";"Indonesia";"";"4.3980965";"96.0705843";"https://maps.google.com/?cid=0x0:0x1b05cadb779b51df"
"perumahan";"Pembangunan Perumahan";"Kawasan Rawan Konflik";"F2PG+2W, Gampong Baro Wt, Kec. Woyla Tim., Kabupaten Aceh Barat, Aceh";"Kabupaten Aceh Barat, Aceh";"ACEH";"";"Indonesia";"";"4.4850292";"96.0273599";"https://maps.google.com/?cid=0x0:0xc824af0f70247701"
"perumahan";"Komplek perumahan";"Rumah pratu khalid";"G22J+MW7, Paya Baro, Kec. Woyla Tim., Kabupaten Aceh Barat, Aceh";"Kabupaten Aceh Barat, Aceh";"ACEH";"";"Indonesia";"";"4.5018849";"96.0318184";"https://maps.google.com/?cid=0x0:0xc59062e7054ef224"
"perumahan";"";"Rumah Syahrul Ramadhan";"C2XR+WW, Panton, Kec. Woyla, Kabupaten Aceh Barat, Aceh";"Kabupaten Aceh Barat, Aceh";"ACEH";"";"Indonesia";"";"4.4497533";"96.0422817";"https://maps.google.com/?cid=0x0:0xe22bcf5c868ca839"
"perumahan";"perumahan";"Alue drien";"93P5+J5Q, Lueng Tanoh Tho, Kec. Woyla, Kabupaten Aceh Barat, Aceh 23654";"Lueng Tanoh Tho, Kec. Woyla, Kabupaten Aceh Barat";"ACEH";"23654";"Indonesia";"";"4.3865988";"96.057992";"https://maps.google.com/?cid=0x0:0x7085c2b74d6af986"
"perumahan";"perumahan";"Kec. Kaway XVI";"Kabupaten Aceh Barat, Aceh";"Kabupaten Aceh Barat, Aceh";"ACEH";"";"Indonesia";"";"4.2884024";"96.2079103";"https://maps.google.com/?cid=0x0:0x83baccd3be0e0593"
"perumahan";"perumahan";"rumah Adin";"9635+Q9W, Lhok Sari, Kec. Pantai Ceuremen, Kabupaten Aceh Barat, Aceh 23681";"Lhok Sari, Kec. Pantai Ceuremen, Kabupaten Aceh Barat";"ACEH";"23681";"Indonesia";"";"4.3544966";"96.208466";"https://maps.google.com/?cid=0x0:0xa1c922ba2b6780e7"
"perumahan";"Komplek perumahan";"Rumah pidos";"54XW+GRG, Pasi Jambu, Kec. Kaway XVI, Kabupaten Aceh Barat, Aceh 23681";"Pasi Jambu, Kec. Kaway XVI, Kabupaten Aceh Barat";"ACEH";"23681";"Indonesia";"";"4.1988093";"96.1470685";"https://maps.google.com/?cid=0x0:0xcbf5112917fb74d"
"perumahan";"Komplek perumahan";"Rumah ori";"65G7+FGW, Jl. Meulaboh - Kaway XVI, Mesjid, Kec. Kaway XVI, Kabupaten Aceh Barat, Aceh";"Kabupaten Aceh Barat, Aceh";"ACEH";"";"Indonesia";"";"4.2262281";"96.1638437";"https://maps.google.com/?cid=0x0:0x869842dc026a182a"
"perumahan";"Kompleks Kondominium";"Rumah Amay";"65G7+5JH, Mesjid, Kec. Kaway XVI, Kabupaten Aceh Barat, Aceh 23681";"Mesjid, Kec. Kaway XVI, Kabupaten Aceh Barat";"ACEH";"23681";"Indonesia";"";"4.2254376";"96.1641022";"https://maps.google.com/?cid=0x0:0x3a950b8266d535d7"
"perumahan";"Komplek perumahan";"Rumah jannatul";"65G8+8CJ, Mesjid, Kec. Kaway XVI, Kabupaten Aceh Barat, Aceh 23681";"Mesjid, Kec. Kaway XVI, Kabupaten Aceh Barat";"ACEH";"23681";"Indonesia";"";"4.2254607";"96.1660344";"https://maps.google.com/?cid=0x0:0x330d7ed7013a3f44"
"perumahan";"Kafe";"Desa Marek";"55P5+FQV, Marek, Kec. Kaway XVI, Kabupaten Aceh Barat, Aceh 23681";"Marek, Kec. Kaway XVI, Kabupaten Aceh Barat";"ACEH";"23681";"Indonesia";"";"4.1859083";"96.1598167";"https://maps.google.com/?cid=0x0:0x4c80cb6d96e89dba"
"perumahan";"Komplek perumahan";"zahra asyifa";"65G9+45F, Jl. Meulaboh - Kaway XVI, Keude Aron, Kec. Kaway XVI, Kabupaten Aceh Barat, Aceh 23681";"Jl. Meulaboh - Kaway XVI, Keude Aron, Kec. Kaway XVI, Kabupaten Aceh Barat";"ACEH";"23681";"Indonesia";"";"4.2247053";"96.167576";"https://maps.google.com/?cid=0x0:0xbca56f787db9753e"
"perumahan";"Komplek perumahan";"Apa";"85RJ+5Q8, Padang Sikabu, Kec. Kaway XVI, Kabupaten Aceh Barat, Aceh 23681";"Padang Sikabu, Kec. Kaway XVI, Kabupaten Aceh Barat";"ACEH";"23681";"Indonesia";"";"4.3404007";"96.1819666";"https://maps.google.com/?cid=0x0:0x7046e58f02f248c"
"perumahan";"Komplek perumahan";"Rumah RA";"65GF+8MM, Beureugang, Kec. Kaway XVI, Kabupaten Aceh Barat, Aceh 23681";"Beureugang, Kec. Kaway XVI, Kabupaten Aceh Barat";"ACEH";"23681";"Indonesia";"";"4.2258291";"96.1741824";"https://maps.google.com/?cid=0x0:0xe92a241b43e09255"
"perumahan";"Komplek perumahan";"Selina";"65H9+6X3, Keude Aron, Kec. Kaway XVI, Kabupaten Aceh Barat, Aceh 23681";"Keude Aron, Kec. Kaway XVI, Kabupaten Aceh Barat";"ACEH";"23681";"Indonesia";"";"4.2280197";"96.1699336";"https://maps.google.com/?cid=0x0:0xc171e29f894312a1"
"perumahan";"Toko umum";"Rumah cut zulrahmi";"65M8+863, Mesjid, Kec. Kaway XVI, Kabupaten Aceh Barat, Aceh 23681";"Mesjid, Kec. Kaway XVI, Kabupaten Aceh Barat";"ACEH";"23681";"Indonesia";"";"4.233265";"96.1655395";"https://maps.google.com/?cid=0x0:0x333ec2a4795602a"
"perumahan";"Komplek perumahan";"GUBUK DERITA";"863C+JV, Blang Dalam, Kec. Kaway XVI, Kabupaten Aceh Barat, Aceh";"Kabupaten Aceh Barat, Aceh";"ACEH";"";"Indonesia";"";"4.303985";"96.222097";"https://maps.google.com/?cid=0x0:0x28734bafe23ac4d"
"perumahan";"Komplek perumahan";"wahyupratama";"65FC+JHQ, Jl. Meulaboh - Kaway XVI, Keude Aron, Kec. Kaway XVI, Kabupaten Aceh Barat, Aceh 23681";"Jl. Meulaboh - Kaway XVI, Keude Aron, Kec. Kaway XVI, Kabupaten Aceh Barat";"ACEH";"23681";"Indonesia";"";"4.2240817";"96.1714932";"https://maps.google.com/?cid=0x0:0x992f365d8820dc1b"
"perumahan";"perumahan";"Aceh 23615";"Kec. Johan Pahlawan, Kabupaten Aceh Barat, Aceh";"Kabupaten Aceh Barat, Aceh";"ACEH";"";"Indonesia";"";"4.1622709";"96.1063204";"https://maps.google.com/?cid=0x0:0xd2bf3e0b78ba4037"
"perumahan";"Pusat Pendidikan";"PERUMAHAN GRIYA MAHONI";"5567+9HG, Ranto Panyang Tim., Kec. Meureubo, Kabupaten Aceh Barat, Aceh 23681";"Ranto Panyang Tim., Kec. Meureubo, Kabupaten Aceh Barat";"ACEH";"23681";"Indonesia";" 0811681867";"4.1609262";"96.1639456";"https://maps.google.com/?cid=0x0:0x939fd442867a77db"
"perumahan";"Masjid";"Perumahan Pasi Mesjid";"54FW+7V2, Pasi Mesjid, Kec. Meureubo, Kabupaten Aceh Barat, Aceh 23611";"Pasi Mesjid, Kec. Meureubo, Kabupaten Aceh Barat";"ACEH";"23611";"Indonesia";"";"4.1731325";"96.1471252";"https://maps.google.com/?cid=0x0:0x24cb99c44b7461c"
"perumahan";"Dokter Keluarga";"Rumah orang tua";"5479+746, Jl. Beringin Maju, Seuneubok, Kec. Johan Pahlawan, Kabupaten Aceh Barat, Aceh 23617";"Jl. Beringin Maju, Seuneubok, Kec. Johan Pahlawan, Kabupaten Aceh Barat";"ACEH";"23617";"Indonesia";"";"4.1637652";"96.1180177";"https://maps.google.com/?cid=0x0:0x6681f2256a111caa"
"perumahan";"Komplek perumahan";"Komplek KPR BTN";"544C+V9H, Seuneubok, Kec. Johan Pahlawan, Kabupaten Aceh Barat, Aceh 23611";"Seuneubok, Kec. Johan Pahlawan, Kabupaten Aceh Barat";"ACEH";"23611";"Indonesia";"";"4.1571879";"96.1209793";"https://maps.google.com/?cid=0x0:0xd5dfe1ba1df1c0cc"
"perumahan";"Perumahan";"Perumahan Griya Mahoni Alpen";"Griya Mahoni Alpen No.5 Blok C, Paya Peunaga, Kec. Meureubo, Kabupaten Aceh Barat, Aceh 23671";"Paya Peunaga, Kec. Meureubo, Kabupaten Aceh Barat";"ACEH";"23671";"Indonesia";" 085260036754";"4.1452331";"96.1893683";"https://maps.google.com/?cid=0x0:0x806473112726643a"
"perumahan";"Komplek perumahan";"Rumah sahrul";"5469+PJW, Seuneubok, Kec. Johan Pahlawan, Kabupaten Aceh Barat, Aceh 23617";"Seuneubok, Kec. Johan Pahlawan, Kabupaten Aceh Barat";"ACEH";"23617";"Indonesia";"";"4.1617939";"96.1190916";"https://maps.google.com/?cid=0x0:0xc4a162eddc763385"
"perumahan";"Komplek perumahan";"Rumah";"Lorong Apel No.119, Ujong Baroh, Kec. Johan Pahlawan, Kabupaten Aceh Barat, Aceh 23615";"Ujong Baroh, Kec. Johan Pahlawan, Kabupaten Aceh Barat";"ACEH";"23615";"Indonesia";"";"4.1536028";"96.1248842";"https://maps.google.com/?cid=0x0:0x194d0d75c580b4eb"
"perumahan";"Komplek perumahan";"Lr. Meuria Dusun Pulo";"545C+6PC, Jl. Beringin Jaya, Seuneubok, Kec. Johan Pahlawan, Kabupaten Aceh Barat, Aceh 23611";"Jl. Beringin Jaya, Seuneubok, Kec. Johan Pahlawan, Kabupaten Aceh Barat";"ACEH";"23611";"Indonesia";"";"4.1580666";"96.1217604";"https://maps.google.com/?cid=0x0:0x3f78c519cff57c2a"
"perumahan";"Komplek perumahan";"Rumah muntahar";"54FC+R6V, Seuneubok, Kec. Johan Pahlawan, Kabupaten Aceh Barat, Aceh 23611";"Seuneubok, Kec. Johan Pahlawan, Kabupaten Aceh Barat";"ACEH";"23611";"Indonesia";"";"4.1746041";"96.1205395";"https://maps.google.com/?cid=0x0:0x252ae028982e8f37"
"perumahan";"Pembangunan Perumahan";"rumah saya";"546F+FWW, Seuneubok, Kec. Johan Pahlawan, Kabupaten Aceh Barat, Aceh";"Kabupaten Aceh Barat, Aceh";"ACEH";"";"Indonesia";"";"4.1612282";"96.1248162";"https://maps.google.com/?cid=0x0:0x6ab9d5ba69e3d205"
"perumahan";"perumahan";"N/A";"";"";"ACEH";"";"Indonesia";" 082366666094";"4.1583442";"96.1460696";"https://maps.google.com/?cid=0x0:0x74328f2ce881c342"
"perumahan";"Komplek perumahan";"Griya Fahmi Rizki Seuneubok";"5487+563, Jl. Singgah Mata, Seuneubok, Kec. Johan Pahlawan, Kabupaten Aceh Barat, Aceh 23617";"Jl. Singgah Mata, Seuneubok, Kec. Johan Pahlawan, Kabupaten Aceh Barat";"ACEH";"23617";"Indonesia";"";"4.1658448";"96.1125029";"https://maps.google.com/?cid=0x0:0xf64b64e2b3f7d615"
"perumahan";"Komplek perumahan";"Rumah Firnaaa";"5438+QQF, Jl. Kuta Paya, Suak Ribee, Kec. Johan Pahlawan, Kabupaten Aceh Barat, Aceh";"Kabupaten Aceh Barat, Aceh";"ACEH";"";"Indonesia";"";"4.154654";"96.1162849";"https://maps.google.com/?cid=0x0:0x768fb40a90345e93"
"perumahan";"Komplek perumahan";"RUMAH MINIMALIS TGK H. ADAMAN";"C882+QJW, Jl, Pante Ceureumen, Kec. Pantai Ceuremen, Kabupaten Aceh Barat, Aceh";"Kabupaten Aceh Barat, Aceh";"ACEH";"";"Indonesia";"";"4.4169755";"96.3015708";"https://maps.google.com/?cid=0x0:0xc51bd9c67c4b98da"
"perumahan";"Komplek perumahan";"Rumah Yanti";"C75V+JC9, Manjeng, Kec. Pantai Ceuremen, Kabupaten Aceh Barat, Aceh 23681";"Manjeng, Kec. Pantai Ceuremen, Kabupaten Aceh Barat";"ACEH";"23681";"Indonesia";"";"4.4090434";"96.2935969";"https://maps.google.com/?cid=0x0:0x50c7ecf5325f5f46"
"perumahan";"Komplek perumahan";"Sane home";"97GP+H56, Seumantok, Kec. Pantai Ceuremen, Kabupaten Aceh Barat, Aceh";"Kabupaten Aceh Barat, Aceh";"ACEH";"";"Indonesia";"";"4.3764158";"96.2853999";"https://maps.google.com/?cid=0x0:0xc9709ec49a19126c"
"perumahan";"perumahan";"Pante Ceureumen";"Kec. Pantai Ceuremen, Kabupaten Aceh Barat, Aceh";"Kabupaten Aceh Barat, Aceh";"ACEH";"";"Indonesia";"";"4.4094535";"96.3093164";"https://maps.google.com/?cid=0x0:0xf240303722d487ec"
"perumahan";"Rumah Duka";"Pante cermen";"97XX+PFF, Manjeng, Kec. Pantai Ceuremen, Kabupaten Aceh Barat, Aceh 23681";"Manjeng, Kec. Pantai Ceuremen, Kabupaten Aceh Barat";"ACEH";"23681";"Indonesia";"";"4.3993139";"96.2986857";"https://maps.google.com/?cid=0x0:0xe39b89509b7606d7"
"perumahan";"perumahan";"Kec. Pantai Ceuremen";"Kabupaten Aceh Barat, Aceh";"Kabupaten Aceh Barat, Aceh";"ACEH";"";"Indonesia";"";"4.3861159";"96.2466783";"https://maps.google.com/?cid=0x0:0x1943ff76684c9aeb"
"perumahan";"Pembangunan Perumahan";"Krung meulaboh";"98JC+JP, Sikundo, Kec. Pantai Ceuremen, Kabupaten Aceh Barat, Aceh";"Kabupaten Aceh Barat, Aceh";"ACEH";"";"Indonesia";"";"4.3815981";"96.3218553";"https://maps.google.com/?cid=0x0:0x56aa93fc5f14de57"
"perumahan";"Komplek perumahan";"Jembatan lango";"C892+CCR, Lango, Kec. Pantai Ceuremen, Kabupaten Aceh Barat, Aceh 23681";"Lango, Kec. Pantai Ceuremen, Kabupaten Aceh Barat";"ACEH";"23681";"Indonesia";"";"4.4186225";"96.3010089";"https://maps.google.com/?cid=0x0:0x9f0f9760bb5ba68f"
"perumahan";"Kedai Kopi";"Warung Kopi Dekat Sungai";"C893+MWJ, Unnamed Road, Pante Ceureumen, Kec. Pantai Ceuremen, Kabupaten Aceh Barat, Aceh 23681";"Unnamed Road, Pante Ceureumen, Kec. Pantai Ceuremen, Kabupaten Aceh Barat";"ACEH";"23681";"Indonesia";"";"4.4192232";"96.3047768";"https://maps.google.com/?cid=0x0:0x27c8b95b549fd09f"
"perumahan";"Gedung Apartemen";"Rumah wanz";"C8P4+9VJ, Keutambang, Kec. Pantai Ceuremen, Kabupaten Aceh Barat, Aceh 23681";"Keutambang, Kec. Pantai Ceuremen, Kabupaten Aceh Barat";"ACEH";"23681";"Indonesia";"";"4.435945";"96.30719";"https://maps.google.com/?cid=0x0:0x935434db9365f8aa"
"perumahan";"Perhimpunan Pengembang Perumahan";"Rumah argun";"85WW+MJP, Gunong Tarok, Kec. Pantai Ceuremen, Kabupaten Aceh Barat, Aceh 23681";"Gunong Tarok, Kec. Pantai Ceuremen, Kabupaten Aceh Barat";"ACEH";"23681";"Indonesia";"";"4.3467071";"96.1965791";"https://maps.google.com/?cid=0x0:0x91d00c49a1177c88"
"perumahan";"Komplek perumahan";"Rumah Jamarullah/Rahma/Rizal";"C8F2+V9P, Lango, Kec. Pantai Ceuremen, Kabupaten Aceh Barat, Aceh 23681";"Lango, Kec. Pantai Ceuremen, Kabupaten Aceh Barat";"ACEH";"23681";"Indonesia";"";"4.4235615";"96.3005692";"https://maps.google.com/?cid=0x0:0xc68c6ec0546d6fac"
"perumahan";"Perhimpunan Pengembang Perumahan";"Rumah iskandari";"9699+PJ7, Lhok Guci, Kec. Pantai Ceuremen, Kabupaten Aceh Barat, Aceh 23681";"Lhok Guci, Kec. Pantai Ceuremen, Kabupaten Aceh Barat";"ACEH";"23681";"Indonesia";"";"4.3692943";"96.2190386";"https://maps.google.com/?cid=0x0:0x5e22bf4beb2c0e32"
"perumahan";"Komplek perumahan";"RUMAH ARIEL";"9697+8XR, Lhok Guci, Kec. Pantai Ceuremen, Kabupaten Aceh Barat, Aceh 23681";"Lhok Guci, Kec. Pantai Ceuremen, Kabupaten Aceh Barat";"ACEH";"23681";"Indonesia";"";"4.3684648";"96.2147839";"https://maps.google.com/?cid=0x0:0xa3f281927df6bf28"
"perumahan";"perumahan";"rumah Adin";"9635+Q9W, Lhok Sari, Kec. Pantai Ceuremen, Kabupaten Aceh Barat, Aceh 23681";"Lhok Sari, Kec. Pantai Ceuremen, Kabupaten Aceh Barat";"ACEH";"23681";"Indonesia";"";"4.3544966";"96.208466";"https://maps.google.com/?cid=0x0:0xa1c922ba2b6780e7"
"perumahan";"perumahan";"Kec. Panton Reu";"Kabupaten Aceh Barat, Aceh";"Kabupaten Aceh Barat, Aceh";"ACEH";"";"Indonesia";"";"4.4017347";"96.2074781";"https://maps.google.com/?cid=0x0:0x902220a2606eab5"
"perumahan";"Perhimpunan Pengembang Perumahan";"Rumah Kasmi";"956R+CW, Babah Krueng Manggie, Kec. Panton Reu, Kabupaten Aceh Barat, Aceh 23681";"Babah Krueng Manggie, Kec. Panton Reu, Kabupaten Aceh Barat";"ACEH";"23681";"Indonesia";"";"4.361115";"96.1923836";"https://maps.google.com/?cid=0x0:0x9439c9effaf689f1"
"perumahan";"Komplek perumahan";"Rumah Putri Maharani";"95MX+C46, Jl. Geumpang - Tutut, Gampong Baro, Kec. Panton Reu, Kabupaten Aceh Barat, Aceh 23681";"Jl. Geumpang - Tutut, Gampong Baro, Kec. Panton Reu, Kabupaten Aceh Barat";"ACEH";"23681";"Indonesia";"";"4.3835041";"96.1977738";"https://maps.google.com/?cid=0x0:0x79ea25592c913a84"
"perumahan";"Rumah Penampungan Satwa";"Gunung Mata Ie Kabupaten Aceh Barat Aceh Indonesia";"957M+FX, Gn. Mata Ie, Kec. Panton Reu, Kabupaten Aceh Barat, Aceh";"Kabupaten Aceh Barat, Aceh";"ACEH";"";"Indonesia";"";"4.3636993";"96.184945";"https://maps.google.com/?cid=0x0:0x3c3327f1b1d04cc8"
"perumahan";"Perhimpunan Pengembang Perumahan";"Ruma t .m.yusuf";"C6QG+GG, Antong, Kec. Panton Reu, Kabupaten Aceh Barat, Aceh";"Kabupaten Aceh Barat, Aceh";"ACEH";"";"Indonesia";"";"4.438785";"96.2263057";"https://maps.google.com/?cid=0x0:0x5fde63ec08b6526b"
"perumahan";"Kantor Perusahaan";"Perumahan Karyawan PT. SAPTA SENTOSA JAYA ABADI";"F537+RP5, Unnamed Road, Baro Paya, Kec. Panton Reu, Kabupaten Aceh Barat, Aceh 23681";"Unnamed Road, Baro Paya, Kec. Panton Reu, Kabupaten Aceh Barat";"ACEH";"23681";"Indonesia";"";"4.4545144";"96.164364";"https://maps.google.com/?cid=0x0:0xd4902e5ca063995a"
"perumahan";"Pembangunan Perumahan";"Rumah M. Amin";"956M+RW, Gn. Mata Ie, Kec. Panton Reu, Kabupaten Aceh Barat, Aceh";"Kabupaten Aceh Barat, Aceh";"ACEH";"";"Indonesia";"";"4.3620175";"96.1848575";"https://maps.google.com/?cid=0x0:0xc8c101e40da7f8d2"
"perumahan";"Pembangunan Perumahan";"Syarifah Marhamah";"C5QJ+VX, Baro Paya, Kec. Panton Reu, Kabupaten Aceh Barat, Aceh";"Kabupaten Aceh Barat, Aceh";"ACEH";"";"Indonesia";"";"4.4397263";"96.182435";"https://maps.google.com/?cid=0x0:0x5d4e3b1c5e0a292c"
"perumahan";"Komplek perumahan";"Desa lek lek";"95HP+2G5, Lek Lek, Kec. Panton Reu, Kabupaten Aceh Barat, Aceh 23681";"Lek Lek, Kec. Panton Reu, Kabupaten Aceh Barat";"ACEH";"23681";"Indonesia";"";"4.3767038";"96.186765";"https://maps.google.com/?cid=0x0:0x20ebb1575b3624c7"
"perumahan";"Pembangunan Perumahan";"Perumahan Khazanah";"F533+P34, Alue Kuyuen, Kec. Woyla Tim., Kabupaten Aceh Barat, Aceh 23681";"Alue Kuyuen, Kec. Woyla Tim., Kabupaten Aceh Barat";"ACEH";"23681";"Indonesia";"";"4.4542745";"96.1526985";"https://maps.google.com/?cid=0x0:0x9dd447ac1e729af4"
"perumahan";"Komplek perumahan";"Rumah Yanti";"C75V+JC9, Manjeng, Kec. Pantai Ceuremen, Kabupaten Aceh Barat, Aceh 23681";"Manjeng, Kec. Pantai Ceuremen, Kabupaten Aceh Barat";"ACEH";"23681";"Indonesia";"";"4.4090434";"96.2935969";"https://maps.google.com/?cid=0x0:0x50c7ecf5325f5f46"
"perumahan";"Pembangunan Perumahan";"Mariana pulsa";"C5JJ+9PX, Mugo Rayeuk, Kec. Panton Reu, Kabupaten Aceh Barat, Aceh 23681";"Mugo Rayeuk, Kec. Panton Reu, Kabupaten Aceh Barat";"ACEH";"23681";"Indonesia";"";"4.4309926";"96.1818684";"https://maps.google.com/?cid=0x0:0x16c84d48f3114636"
"perumahan";"Rumah Sakit";"Puskesmas Panton Reu";"C625+J3G, Jl. Geumpang - Tutut, Meutulang, Kec. Panton Reu, Kabupaten Aceh Barat, Aceh 23681";"Jl. Geumpang - Tutut, Meutulang, Kec. Panton Reu, Kabupaten Aceh Barat";"ACEH";"23681";"Indonesia";"";"4.4015727";"96.2077069";"https://maps.google.com/?cid=0x0:0x70c8ab58ec907af7"
"perumahan";"perumahan";"rumah Adin";"9635+Q9W, Lhok Sari, Kec. Pantai Ceuremen, Kabupaten Aceh Barat, Aceh 23681";"Lhok Sari, Kec. Pantai Ceuremen, Kabupaten Aceh Barat";"ACEH";"23681";"Indonesia";"";"4.3544966";"96.208466";"https://maps.google.com/?cid=0x0:0xa1c922ba2b6780e7"
"perumahan";"perumahan";"Aceh 23681";"Kabupaten Aceh Barat, Aceh";"Kabupaten Aceh Barat, Aceh";"ACEH";"";"Indonesia";"";"4.4129708";"96.195132";"https://maps.google.com/?cid=0x0:0x75d543d4e33374a6"
"perumahan";"Komplek perumahan";"Rumah Marzuki Arsyad Husdi";"C8W4+2H, Lawet, Kec. Pantai Ceuremen, Kabupaten Aceh Barat, Aceh 23681";"Lawet, Kec. Pantai Ceuremen, Kabupaten Aceh Barat";"ACEH";"23681";"Indonesia";"";"4.4450846";"96.3064699";"https://maps.google.com/?cid=0x0:0x3ecf62e4c9249764"
"perumahan";"Perhimpunan Pengembang Perumahan";"M Husein";"G383+72G, Gleung, Kec. Sungai MAS, Kabupaten Aceh Barat, Aceh 23683";"Gleung, Kec. Sungai MAS, Kabupaten Aceh Barat";"ACEH";"23683";"Indonesia";"";"4.5160448";"96.0514967";"https://maps.google.com/?cid=0x0:0x1ddc98b46128389d"
"perumahan";"Perhimpunan Pengembang Perumahan";"Rm.kanda mansur Lb";"G24R+QCJ, Leubok Beutong, Kec. Sungai MAS, Kabupaten Aceh Barat, Aceh";"Kabupaten Aceh Barat, Aceh";"ACEH";"";"Indonesia";"";"4.5069586";"96.0410133";"https://maps.google.com/?cid=0x0:0xd43dacbae250cf34"
"perumahan";"";"Perumahan OF7 KTS";"C32X+HMV, Paya Luah, Kec. Woyla, Kabupaten Aceh Barat, Aceh 23654";"Paya Luah, Kec. Woyla, Kabupaten Aceh Barat";"ACEH";"23654";"Indonesia";"";"4.4014786";"96.099186";"https://maps.google.com/?cid=0x0:0x2c80d386c4fe8beb"
"perumahan";"Komplek perumahan";"Rumah pidos";"54XW+GRG, Pasi Jambu, Kec. Kaway XVI, Kabupaten Aceh Barat, Aceh 23681";"Pasi Jambu, Kec. Kaway XVI, Kabupaten Aceh Barat";"ACEH";"23681";"Indonesia";"";"4.1988093";"96.1470685";"https://maps.google.com/?cid=0x0:0xcbf5112917fb74d"
"perumahan";"Pertanian";"Gampong Ulee Pulo";"92FM+W53, Drien Sibak, Kec. Sungai MAS, Kabupaten Aceh Barat, Aceh 23654";"Drien Sibak, Kec. Sungai MAS, Kabupaten Aceh Barat";"ACEH";"23654";"Indonesia";"";"4.374768";"96.0329289";"https://maps.google.com/?cid=0x0:0xb58b903587b89b0"
"perumahan";"Komplek perumahan";"Rumah Yanti";"C75V+JC9, Manjeng, Kec. Pantai Ceuremen, Kabupaten Aceh Barat, Aceh 23681";"Manjeng, Kec. Pantai Ceuremen, Kabupaten Aceh Barat";"ACEH";"23681";"Indonesia";"";"4.4090434";"96.2935969";"https://maps.google.com/?cid=0x0:0x50c7ecf5325f5f46"
"perumahan";"Pembangunan Perumahan";"Perumahan Khazanah";"F533+P34, Alue Kuyuen, Kec. Woyla Tim., Kabupaten Aceh Barat, Aceh 23681";"Alue Kuyuen, Kec. Woyla Tim., Kabupaten Aceh Barat";"ACEH";"23681";"Indonesia";"";"4.4542745";"96.1526985";"https://maps.google.com/?cid=0x0:0x9dd447ac1e729af4"
"perumahan";"Komplek perumahan";"Griya Fahmi Rizki Seuneubok";"5487+563, Jl. Singgah Mata, Seuneubok, Kec. Johan Pahlawan, Kabupaten Aceh Barat, Aceh 23617";"Jl. Singgah Mata, Seuneubok, Kec. Johan Pahlawan, Kabupaten Aceh Barat";"ACEH";"23617";"Indonesia";"";"4.1658448";"96.1125029";"https://maps.google.com/?cid=0x0:0xf64b64e2b3f7d615"
"perumahan";"Komplek perumahan";"GUBUK DERITA";"863C+JV, Blang Dalam, Kec. Kaway XVI, Kabupaten Aceh Barat, Aceh";"Kabupaten Aceh Barat, Aceh";"ACEH";"";"Indonesia";"";"4.303985";"96.222097";"https://maps.google.com/?cid=0x0:0x28734bafe23ac4d"
"perumahan";"Komplek perumahan";"RUMAH MINIMALIS TGK H. ADAMAN";"C882+QJW, Jl, Pante Ceureumen, Kec. Pantai Ceuremen, Kabupaten Aceh Barat, Aceh";"Kabupaten Aceh Barat, Aceh";"ACEH";"";"Indonesia";"";"4.4169755";"96.3015708";"https://maps.google.com/?cid=0x0:0xc51bd9c67c4b98da"
"perumahan";"Perhimpunan Pengembang Perumahan";"Rumah Kasmi";"956R+CW, Babah Krueng Manggie, Kec. Panton Reu, Kabupaten Aceh Barat, Aceh 23681";"Babah Krueng Manggie, Kec. Panton Reu, Kabupaten Aceh Barat";"ACEH";"23681";"Indonesia";"";"4.361115";"96.1923836";"https://maps.google.com/?cid=0x0:0x9439c9effaf689f1"
"perumahan";"perumahan";"Aceh 23683";"Kec. Sungai MAS, Kabupaten Aceh Barat, Aceh";"Kabupaten Aceh Barat, Aceh";"ACEH";"";"Indonesia";"";"4.5776801";"96.1102943";"https://maps.google.com/?cid=0x0:0xaddf9b2ca15b53aa"
"perumahan";"Perhimpunan Pengembang Perumahan";"M Husein";"G383+72G, Gleung, Kec. Sungai MAS, Kabupaten Aceh Barat, Aceh 23683";"Gleung, Kec. Sungai MAS, Kabupaten Aceh Barat";"ACEH";"23683";"Indonesia";"";"4.5160448";"96.0514967";"https://maps.google.com/?cid=0x0:0x1ddc98b46128389d"
"perumahan";"Peternakan Ayam";"Ayam potong..mas toro";"G494+QPM, Unnamed Road, Tungkop, Kec. Sungai MAS, Kabupaten Aceh Barat, Aceh 23683";"Unnamed Road, Tungkop, Kec. Sungai MAS, Kabupaten Aceh Barat";"ACEH";"23683";"Indonesia";"";"4.5194681";"96.1068002";"https://maps.google.com/?cid=0x0:0x9e764fa8b8fd8493"
"perumahan";"Perhimpunan Pengembang Perumahan";"Rm.kanda mansur Lb";"G24R+QCJ, Leubok Beutong, Kec. Sungai MAS, Kabupaten Aceh Barat, Aceh";"Kabupaten Aceh Barat, Aceh";"ACEH";"";"Indonesia";"";"4.5069586";"96.0410133";"https://maps.google.com/?cid=0x0:0xd43dacbae250cf34"
"perumahan";"perumahan";"Kec. Sungai MAS";"Kabupaten Aceh Barat, Aceh";"Kabupaten Aceh Barat, Aceh";"ACEH";"";"Indonesia";"";"4.5223988";"96.1135301";"https://maps.google.com/?cid=0x0:0x8d8ecfff411f2b20"
"perumahan";"Kompleks Townhouse";"Perumahan budha tzu-chi aceh barat";"F533+P34 komplek budha tzu chi, Jalan Haji dariah, Alue Kuyuen, Kec. Woyla Tim., Kabupaten Aceh Barat, Aceh";"Kabupaten Aceh Barat, Aceh";"ACEH";"";"Indonesia";" 082273306205";"4.4542745";"96.1526985";"https://maps.google.com/?cid=0x0:0xbfac0f1ce1247b55"
"perumahan";"Pembangunan Perumahan";"Babah rot";"J3JH+HF9, Drien Sibak, Kec. Sungai MAS, Kabupaten Aceh Barat, Aceh";"Kabupaten Aceh Barat, Aceh";"ACEH";"";"Indonesia";"";"4.6314006";"96.0787379";"https://maps.google.com/?cid=0x0:0xb4901fb084b0be43"
"perumahan";"Bidan";"Rumah Bersalin Bidan Wiwik, Amd.Keb";"G498+5WH, Geudong, Kec. Sungai MAS, Kabupaten Aceh Barat, Aceh";"Kabupaten Aceh Barat, Aceh";"ACEH";"";"Indonesia";" 082279112104";"4.5179263";"96.1173554";"https://maps.google.com/?cid=0x0:0x6e999a2855c374e4"
"perumahan";"perumahan";"Rumah ahay";"jalan pesisir No.KM 25, Tungkop, Sungai Mas, West Aceh Regency, Aceh";"Kabupaten Aceh Barat, Aceh";"ACEH";"";"Indonesia";"";"4.5223988";"96.1135301";"https://maps.google.com/?cid=0x0:0x876e0d40b2a89561"
"perumahan";"Perhimpunan Pengembang Perumahan";"Rumah Kak nun";"G4RG+MF4, Tutut, Kec. Sungai MAS, Kabupaten Aceh Barat, Aceh 23683";"Tutut, Kec. Sungai MAS, Kabupaten Aceh Barat";"ACEH";"23683";"Indonesia";"";"4.541626";"96.1261925";"https://maps.google.com/?cid=0x0:0xfb4a6e981cfbda3e"
"perumahan";"perumahan";"rumah Adin";"9635+Q9W, Lhok Sari, Kec. Pantai Ceuremen, Kabupaten Aceh Barat, Aceh 23681";"Lhok Sari, Kec. Pantai Ceuremen, Kabupaten Aceh Barat";"ACEH";"23681";"Indonesia";"";"4.3544966";"96.208466";"https://maps.google.com/?cid=0x0:0xa1c922ba2b6780e7"
"perumahan";"Komplek perumahan";"Rumoh khairunnas";"G38H+CR, Tanoh Mirah, Kec. Sungai MAS, Kabupaten Aceh Barat, Aceh";"Kabupaten Aceh Barat, Aceh";"ACEH";"";"Indonesia";"";"4.516104";"96.0795965";"https://maps.google.com/?cid=0x0:0x400871d0a2b00f8d"
"housing complex";"housing complex";"Aceh 23611";"Kec. Johan Pahlawan, Kabupaten Aceh Barat, Aceh";"Kabupaten Aceh Barat, Aceh";"ACEH";"";"Indonesia";"";"4.193957";"96.1261925";"https://maps.google.com/?cid=0x0:0xa5883fcf3488a614"
"housing complex";"Komplek perumahan";"!®";"Gampa, Kec. Johan Pahlawan, Kabupaten Aceh Barat, Aceh 23617";"Kec. Johan Pahlawan, Kabupaten Aceh Barat";"ACEH";"23617";"Indonesia";" 085360322230";"4.1689375";"96.1288125";"https://maps.google.com/?cid=0x0:0x2bb3ff7d9f91ea77"
"housing complex";"Komplek perumahan";"Rumah muntahar";"54FC+R6V, Seuneubok, Kec. Johan Pahlawan, Kabupaten Aceh Barat, Aceh 23611";"Seuneubok, Kec. Johan Pahlawan, Kabupaten Aceh Barat";"ACEH";"23611";"Indonesia";"";"4.1746041";"96.1205395";"https://maps.google.com/?cid=0x0:0x252ae028982e8f37"
"housing complex";"Komplek perumahan";"Rumah";"54FM+Q8G, Lapang, Kec. Johan Pahlawan, Kabupaten Aceh Barat, Aceh 23611";"Lapang, Kec. Johan Pahlawan, Kabupaten Aceh Barat";"ACEH";"23611";"Indonesia";"";"4.1745005";"96.1329943";"https://maps.google.com/?cid=0x0:0x6c381d6dfbdba580"
"housing complex";"Komplek perumahan";"Rumah Aminnullah";"547R+WC, Gampa, Kec. Johan Pahlawan, Kabupaten Aceh Barat, Aceh";"Kabupaten Aceh Barat, Aceh";"ACEH";"";"Indonesia";"";"4.164756";"96.1410946";"https://maps.google.com/?cid=0x0:0x9d53c3745f411d20"
"housing complex";"Komplek perumahan";"Rumah";"Lorong Apel No.119, Ujong Baroh, Kec. Johan Pahlawan, Kabupaten Aceh Barat, Aceh 23615";"Ujong Baroh, Kec. Johan Pahlawan, Kabupaten Aceh Barat";"ACEH";"23615";"Indonesia";"";"4.1536028";"96.1248842";"https://maps.google.com/?cid=0x0:0x194d0d75c580b4eb"
"housing complex";"Kompleks Townhouse";"Komplek Perumahan Army";"54VQ+H34, Leuhan, Kec. Johan Pahlawan, Kabupaten Aceh Barat, Aceh 23611";"Leuhan, Kec. Johan Pahlawan, Kabupaten Aceh Barat";"ACEH";"23611";"Indonesia";" 085260242578";"4.1938943";"96.1376912";"https://maps.google.com/?cid=0x0:0xbb7dbd004146e043"
"housing complex";"Komplek perumahan";"RUMAH LUTFI ABDULLAH";"Lorong Ketapel 2, dusun Cit Kandeh, Lapang, Kec. Johan Pahlawan, Kabupaten Aceh Barat, Aceh 23611";"dusun Cit Kandeh, Lapang, Kec. Johan Pahlawan, Kabupaten Aceh Barat";"ACEH";"23611";"Indonesia";"";"4.174744";"96.1340252";"https://maps.google.com/?cid=0x0:0x153f3b0783628158"
"housing complex";"Komplek perumahan";"rumah orang sukses";"54JH+5R6, Lapang, Kec. Johan Pahlawan, Kabupaten Aceh Barat, Aceh";"Kabupaten Aceh Barat, Aceh";"ACEH";"";"Indonesia";"";"4.1804053";"96.1295222";"https://maps.google.com/?cid=0x0:0x3b79bd436f67f628"
"housing complex";"Komplek perumahan";"ilham house";"54QR+Q93, Leuhan, Kec. Johan Pahlawan, Kabupaten Aceh Barat, Aceh 23611";"Leuhan, Kec. Johan Pahlawan, Kabupaten Aceh Barat";"ACEH";"23611";"Indonesia";"";"4.1895594";"96.1409675";"https://maps.google.com/?cid=0x0:0x4f98b5994ecaa628"
"housing complex";"Komplek perumahan";"Rumah desi";"54VR+HM5, Meulaboh, Blang Berandang, Kec. Johan Pahlawan, Kabupaten Aceh Barat, Aceh 23611";"Meulaboh, Blang Berandang, Kec. Johan Pahlawan, Kabupaten Aceh Barat";"ACEH";"23611";"Indonesia";"";"4.1938905";"96.1417496";"https://maps.google.com/?cid=0x0:0xb8a614cc14be9e40"
"housing complex";"Komplek perumahan";"Dinda house";"543P+J2P, Drien Rampak, Kec. Johan Pahlawan, Kabupaten Aceh Barat, Aceh 23611";"Drien Rampak, Kec. Johan Pahlawan, Kabupaten Aceh Barat";"ACEH";"23611";"Indonesia";"";"4.1542609";"96.1350917";"https://maps.google.com/?cid=0x0:0xdc0f623b93aec6ba"
"housing complex";"Komplek perumahan";"Rumah Teuku Raja Usman";"44XJ+935, Lorong Kuini, Ujong Baroh, Kec. Johan Pahlawan, Kabupaten Aceh Barat, Aceh";"Kabupaten Aceh Barat, Aceh";"ACEH";"";"Indonesia";"";"4.1483878";"96.1302252";"https://maps.google.com/?cid=0x0:0x4e590ff0e579a72f"
"housing complex";"Komplek perumahan";"Rumah Della Vian";"54C9+MRX, Seuneubok, Kec. Johan Pahlawan, Kabupaten Aceh Barat, Aceh";"Kabupaten Aceh Barat, Aceh";"ACEH";"";"Indonesia";"";"4.1717408";"96.119603";"https://maps.google.com/?cid=0x0:0xe38d3260a7d7771f"
"housing complex";"Komplek perumahan";"Rumah Teuku Raja Usman";"44XJ+935, Lorong Kuini, Ujong Baroh, Kec. Johan Pahlawan, Kabupaten Aceh Barat, Aceh";"Kabupaten Aceh Barat, Aceh";"ACEH";"";"Indonesia";"";"4.1483878";"96.1302252";"https://maps.google.com/?cid=0x0:0x4e590ff0e579a72f"
"housing complex";"housing complex";"Aceh 23612";"Kec. Johan Pahlawan, Kabupaten Aceh Barat, Aceh";"Kabupaten Aceh Barat, Aceh";"ACEH";"";"Indonesia";"";"4.1507206";"96.1182429";"https://maps.google.com/?cid=0x0:0x2c0ec8e782c3eb0"
"housing complex";"Komplek perumahan";"Rumah";"Lorong Apel No.119, Ujong Baroh, Kec. Johan Pahlawan, Kabupaten Aceh Barat, Aceh 23615";"Ujong Baroh, Kec. Johan Pahlawan, Kabupaten Aceh Barat";"ACEH";"23615";"Indonesia";"";"4.1536028";"96.1248842";"https://maps.google.com/?cid=0x0:0x194d0d75c580b4eb"
"housing complex";"Pembangunan Perumahan";"Lorong Anggur";"Lrg. Anggur No.220, Ujong Baroh, Kec. Johan Pahlawan, Kabupaten Aceh Barat, Aceh 23611";"Ujong Baroh, Kec. Johan Pahlawan, Kabupaten Aceh Barat";"ACEH";"23611";"Indonesia";"";"4.1545906";"96.1253274";"https://maps.google.com/?cid=0x0:0xa9a10b24dfeba3a7"
"housing complex";"Pembangunan Perumahan";"Home";"Lr. Nek Amik, Jl. Singgah Mata II No.6, Seuneubok, Johan Pahlawan, West Aceh Regency, Aceh 23617";"Jl. Singgah Mata II No.6, Seuneubok, Johan Pahlawan, West Aceh Regency";"ACEH";"23617";"Indonesia";"";"4.1559682";"96.1208386";"https://maps.google.com/?cid=0x0:0x5db38dacad2f0d87"
"housing complex";"Komplek perumahan";"Rumah Ilham";"Lrg. Anggur No.187, Ujong Baroh, Kec. Johan Pahlawan, Kabupaten Aceh Barat, Aceh 23611";"Ujong Baroh, Kec. Johan Pahlawan, Kabupaten Aceh Barat";"ACEH";"23611";"Indonesia";"";"4.1547144";"96.1250392";"https://maps.google.com/?cid=0x0:0xd7a14003232b058b"
"housing complex";"Perhimpunan Pengembang Perumahan";"Rumah cepii";"44VF+97J, Jl. Kuta Asan, Ujung Kalak, Kec. Johan Pahlawan, Kabupaten Aceh Barat, Aceh";"Kabupaten Aceh Barat, Aceh";"ACEH";"";"Indonesia";"";"4.1434504";"96.1231525";"https://maps.google.com/?cid=0x0:0x96a728571ccd9592"
"housing complex";"Komplek perumahan";"Lr. Hj. Asiah";"44XJ+XHW, Jl. Swadaya, Drien Rampak, Kec. Johan Pahlawan, Kabupaten Aceh Barat, Aceh 23681";"Jl. Swadaya, Drien Rampak, Kec. Johan Pahlawan, Kabupaten Aceh Barat";"ACEH";"23681";"Indonesia";"";"4.1499855";"96.1314605";"https://maps.google.com/?cid=0x0:0xc467a73dc3ff82ef"
"housing complex";"Komplek perumahan";"Rumah Firnaaa";"5438+QQF, Jl. Kuta Paya, Suak Ribee, Kec. Johan Pahlawan, Kabupaten Aceh Barat, Aceh";"Kabupaten Aceh Barat, Aceh";"ACEH";"";"Indonesia";"";"4.154654";"96.1162849";"https://maps.google.com/?cid=0x0:0x768fb40a90345e93"
"housing complex";"Komplek perumahan";"Khamila olshop";"5455+6MF, Jl. Padat Karya, dusun III, Suak Ribee, Kec. Johan Pahlawan, Kabupaten Aceh Barat, Aceh";"Kabupaten Aceh Barat, Aceh";"ACEH";"";"Indonesia";"";"4.1580573";"96.1091688";"https://maps.google.com/?cid=0x0:0x8faea3c2f7c6fd76"
"housing complex";"Komplek perumahan";"Wahyu’s House";"543P+J2P, Drien Rampak, Kec. Johan Pahlawan, Kabupaten Aceh Barat, Aceh 23611";"Drien Rampak, Kec. Johan Pahlawan, Kabupaten Aceh Barat";"ACEH";"23611";"Indonesia";"";"4.1542608";"96.1350913";"https://maps.google.com/?cid=0x0:0xf8fc09578f01bf49"
"housing complex";"Komplek perumahan";"Celsi";"44VH+F7J, Ujung Kalak, Kec. Johan Pahlawan, Kabupaten Aceh Barat, Aceh";"Kabupaten Aceh Barat, Aceh";"ACEH";"";"Indonesia";"";"4.143712";"96.1281351";"https://maps.google.com/?cid=0x0:0x7bc9f33ecd70a578"
"housing complex";"Komplek perumahan";"Yeniesha";"Jl. PPI No.27 blok D1 no 3rt 01, Ujong Baroh, Kec. Johan Pahlawan, Kabupaten Aceh Barat, Aceh 23681";"Ujong Baroh, Kec. Johan Pahlawan, Kabupaten Aceh Barat";"ACEH";"23681";"Indonesia";"";"4.142526";"96.1317056";"https://maps.google.com/?cid=0x0:0xc1893d960d511242"
"housing complex";"Komplek perumahan";"Dinda house";"543P+J2P, Drien Rampak, Kec. Johan Pahlawan, Kabupaten Aceh Barat, Aceh 23611";"Drien Rampak, Kec. Johan Pahlawan, Kabupaten Aceh Barat";"ACEH";"23611";"Indonesia";"";"4.1542609";"96.1350917";"https://maps.google.com/?cid=0x0:0xdc0f623b93aec6ba"
"housing complex";"housing complex";"Aceh 23613";"Kec. Johan Pahlawan, Kabupaten Aceh Barat, Aceh";"Kabupaten Aceh Barat, Aceh";"ACEH";"";"Indonesia";"";"4.1496011";"96.0983734";"https://maps.google.com/?cid=0x0:0x9801922fff087058"
"housing complex";"Komplek perumahan";"Rumah";"Lorong Apel No.119, Ujong Baroh, Kec. Johan Pahlawan, Kabupaten Aceh Barat, Aceh 23615";"Ujong Baroh, Kec. Johan Pahlawan, Kabupaten Aceh Barat";"ACEH";"23615";"Indonesia";"";"4.1536028";"96.1248842";"https://maps.google.com/?cid=0x0:0x194d0d75c580b4eb"
"housing complex";"Komplek perumahan";"!®";"Gampa, Kec. Johan Pahlawan, Kabupaten Aceh Barat, Aceh 23617";"Kec. Johan Pahlawan, Kabupaten Aceh Barat";"ACEH";"23617";"Indonesia";" 085360322230";"4.1689375";"96.1288125";"https://maps.google.com/?cid=0x0:0x2bb3ff7d9f91ea77"
"housing complex";"Kompleks Townhouse";"Komplek Perumahan Army";"54VQ+H34, Leuhan, Kec. Johan Pahlawan, Kabupaten Aceh Barat, Aceh 23611";"Leuhan, Kec. Johan Pahlawan, Kabupaten Aceh Barat";"ACEH";"23611";"Indonesia";" 085260242578";"4.1938943";"96.1376912";"https://maps.google.com/?cid=0x0:0xbb7dbd004146e043"
"housing complex";"Perumahan";"Perumahan Gen Residence";"54CC+589, Seuneubok, Kec. Johan Pahlawan, Kabupaten Aceh Barat, Aceh 23617";"Seuneubok, Kec. Johan Pahlawan, Kabupaten Aceh Barat";"ACEH";"23617";"Indonesia";"";"4.1700601";"96.1214031";"https://maps.google.com/?cid=0x0:0x308bdf86ab45b089"
"housing complex";"Komplek perumahan";"Khamila olshop";"5455+6MF, Jl. Padat Karya, dusun III, Suak Ribee, Kec. Johan Pahlawan, Kabupaten Aceh Barat, Aceh";"Kabupaten Aceh Barat, Aceh";"ACEH";"";"Indonesia";"";"4.1580573";"96.1091688";"https://maps.google.com/?cid=0x0:0x8faea3c2f7c6fd76"
"housing complex";"Komplek perumahan";"rumah orang sukses";"54JH+5R6, Lapang, Kec. Johan Pahlawan, Kabupaten Aceh Barat, Aceh";"Kabupaten Aceh Barat, Aceh";"ACEH";"";"Indonesia";"";"4.1804053";"96.1295222";"https://maps.google.com/?cid=0x0:0x3b79bd436f67f628"
"housing complex";"Komplek perumahan";"rumah";"542F+85H, Kuta Padang, Kec. Johan Pahlawan, Kabupaten Aceh Barat, Aceh 23612";"Kuta Padang, Kec. Johan Pahlawan, Kabupaten Aceh Barat";"ACEH";"23612";"Indonesia";"";"4.1506928";"96.1224214";"https://maps.google.com/?cid=0x0:0xa3cb1ad089f38c38"
"housing complex";"Komplek perumahan";"Rumah mas juli";"54HR+94C, Lapang, Kec. Johan Pahlawan, Kabupaten Aceh Barat, Aceh 23618";"Lapang, Kec. Johan Pahlawan, Kabupaten Aceh Barat";"ACEH";"23618";"Indonesia";"";"4.1784375";"96.1402656";"https://maps.google.com/?cid=0x0:0xab6d65a0eee06a4c"
"housing complex";"";"Perumahan CRS";"54QR+Q7V, Leuhan, Kec. Johan Pahlawan, Kabupaten Aceh Barat, Aceh 23611";"Leuhan, Kec. Johan Pahlawan, Kabupaten Aceh Barat";"ACEH";"23611";"Indonesia";" 08116888712";"4.1894782";"96.1406711";"https://maps.google.com/?cid=0x0:0x949d599ef62290d"
"housing complex";"Komplek perumahan";"Komplek islamik";"54VR+CQ6, Blang Berandang, Kec. Johan Pahlawan, Kabupaten Aceh Barat, Aceh 23611";"Blang Berandang, Kec. Johan Pahlawan, Kabupaten Aceh Barat";"ACEH";"23611";"Indonesia";"";"4.1932973";"96.1424771";"https://maps.google.com/?cid=0x0:0x4195cec628c2d6cc"
"housing complex";"Komplek perumahan";"Rumah";"54FM+Q8G, Lapang, Kec. Johan Pahlawan, Kabupaten Aceh Barat, Aceh 23611";"Lapang, Kec. Johan Pahlawan, Kabupaten Aceh Barat";"ACEH";"23611";"Indonesia";"";"4.1745005";"96.1329943";"https://maps.google.com/?cid=0x0:0x6c381d6dfbdba580"
"housing complex";"Komplek perumahan";"!®";"Gampa, Kec. Johan Pahlawan, Kabupaten Aceh Barat, Aceh 23617";"Kec. Johan Pahlawan, Kabupaten Aceh Barat";"ACEH";"23617";"Indonesia";" 085360322230";"4.1689375";"96.1288125";"https://maps.google.com/?cid=0x0:0x2bb3ff7d9f91ea77"
"housing complex";"housing complex";"Aceh 23614";"Kec. Johan Pahlawan, Kabupaten Aceh Barat, Aceh";"Kabupaten Aceh Barat, Aceh";"ACEH";"";"Indonesia";"";"4.1572395";"96.0983734";"https://maps.google.com/?cid=0x0:0xb8e25ed660b8aa81"
"housing complex";"Komplek perumahan";"Aldian";"5474+2G, Suak Sigadeng, Kec. Johan Pahlawan, Kabupaten Aceh Barat, Aceh 23615";"Suak Sigadeng, Kec. Johan Pahlawan, Kabupaten Aceh Barat";"ACEH";"23615";"Indonesia";" 081257807090";"4.1625405";"96.1063013";"https://maps.google.com/?cid=0x0:0x50861c1e3467baff"
"housing complex";"Komplek perumahan";"Suak Sigadeng Residence";"Jln.H.Daud Dariah 2.Suak Indra puri kec.Johan Pahlawan Kab.Aceh Barat, Suak Sigadeng, Kec. Johan Pahlawan, Kabupaten Aceh Barat, Aceh 23617";"Suak Sigadeng, Kec. Johan Pahlawan, Kabupaten Aceh Barat";"ACEH";"23617";"Indonesia";"";"4.1682757";"96.1096597";"https://maps.google.com/?cid=0x0:0xa8e7f4090a282665"
"housing complex";"Komplek perumahan";"Khamila olshop";"5455+6MF, Jl. Padat Karya, dusun III, Suak Ribee, Kec. Johan Pahlawan, Kabupaten Aceh Barat, Aceh";"Kabupaten Aceh Barat, Aceh";"ACEH";"";"Indonesia";"";"4.1580573";"96.1091688";"https://maps.google.com/?cid=0x0:0x8faea3c2f7c6fd76"
"housing complex";"Pembangunan Perumahan";"Ket Kel Suak raya";"5474+FV6, Suak Sigadeng, Kec. Johan Pahlawan, Kabupaten Aceh Barat, Aceh";"Kabupaten Aceh Barat, Aceh";"ACEH";"";"Indonesia";"";"4.1636599";"96.1071552";"https://maps.google.com/?cid=0x0:0xe5f9d486e5726cfe"
"housing complex";"";"Perumahan CRS";"54QR+Q7V, Leuhan, Kec. Johan Pahlawan, Kabupaten Aceh Barat, Aceh 23611";"Leuhan, Kec. Johan Pahlawan, Kabupaten Aceh Barat";"ACEH";"23611";"Indonesia";" 08116888712";"4.1894782";"96.1406711";"https://maps.google.com/?cid=0x0:0x949d599ef62290d"
"housing complex";"Komplek perumahan";"Perumahan Caritas BB.2";"54WR+H56, Blang Berandang, Kec. Johan Pahlawan, Kabupaten Aceh Barat, Aceh 23611";"Blang Berandang, Kec. Johan Pahlawan, Kabupaten Aceh Barat";"ACEH";"23611";"Indonesia";"";"4.1964175";"96.1404039";"https://maps.google.com/?cid=0x0:0x3ec600bb73092ddf"
"housing complex";"Komplek perumahan";"Griya Fahmi Rizki Suak Sigadeng";"5484+7P, Suak Sigadeng, Kec. Johan Pahlawan, Kabupaten Aceh Barat, Aceh";"Kabupaten Aceh Barat, Aceh";"ACEH";"";"Indonesia";"";"4.1656448";"96.1068659";"https://maps.google.com/?cid=0x0:0x834b4d225cd35dec"
"housing complex";"Komplek perumahan";"Komplek islamik";"54VR+CQ6, Blang Berandang, Kec. Johan Pahlawan, Kabupaten Aceh Barat, Aceh 23611";"Blang Berandang, Kec. Johan Pahlawan, Kabupaten Aceh Barat";"ACEH";"23611";"Indonesia";"";"4.1932973";"96.1424771";"https://maps.google.com/?cid=0x0:0x4195cec628c2d6cc"
"housing complex";"Indonesia";"Dapur Hijrah";"5476+573, Jl. Bungong Jaroe, Suak Ribee, Kec. Johan Pahlawan, Kabupaten Aceh Barat, Aceh 23617";"Jl. Bungong Jaroe, Suak Ribee, Kec. Johan Pahlawan, Kabupaten Aceh Barat";"ACEH";"23617";"Indonesia";" 082273344404";"4.163143";"96.1100593";"https://maps.google.com/?cid=0x0:0xb1db966b7fa445b2"
"housing complex";"Komplek perumahan";"Rumah";"54FP+MGG, Jl. Sisingamangaraja, Lapang, Kec. Johan Pahlawan, Kabupaten Aceh Barat, Aceh 23611";"Jl. Sisingamangaraja, Lapang, Kec. Johan Pahlawan, Kabupaten Aceh Barat";"ACEH";"23611";"Indonesia";"";"4.1740333";"96.1362663";"https://maps.google.com/?cid=0x0:0xddf25bfe987d8251"
"housing complex";"Dokter Keluarga";"Rumah orang tua";"5479+746, Jl. Beringin Maju, Seuneubok, Kec. Johan Pahlawan, Kabupaten Aceh Barat, Aceh 23617";"Jl. Beringin Maju, Seuneubok, Kec. Johan Pahlawan, Kabupaten Aceh Barat";"ACEH";"23617";"Indonesia";"";"4.1637652";"96.1180177";"https://maps.google.com/?cid=0x0:0x6681f2256a111caa"
"housing complex";"Komplek perumahan";"!®";"Gampa, Kec. Johan Pahlawan, Kabupaten Aceh Barat, Aceh 23617";"Kec. Johan Pahlawan, Kabupaten Aceh Barat";"ACEH";"23617";"Indonesia";" 085360322230";"4.1689375";"96.1288125";"https://maps.google.com/?cid=0x0:0x2bb3ff7d9f91ea77"
"housing complex";"Pembangunan Perumahan";"Rumah merah putih dhe_yura";"547C+F7J, Jl. Beringin Maju, Seuneubok, Kec. Johan Pahlawan, Kabupaten Aceh Barat, Aceh";"Kabupaten Aceh Barat, Aceh";"ACEH";"";"Indonesia";"";"4.1637134";"96.1206353";"https://maps.google.com/?cid=0x0:0xe39e29f62da22e1d"
"housing complex";"housing complex";"Aceh 23615";"Kec. Johan Pahlawan, Kabupaten Aceh Barat, Aceh";"Kabupaten Aceh Barat, Aceh";"ACEH";"";"Indonesia";"";"4.1622709";"96.1063204";"https://maps.google.com/?cid=0x0:0xd2bf3e0b78ba4037"
"housing complex";"Komplek perumahan";"Rumah muntahar";"54FC+R6V, Seuneubok, Kec. Johan Pahlawan, Kabupaten Aceh Barat, Aceh 23611";"Seuneubok, Kec. Johan Pahlawan, Kabupaten Aceh Barat";"ACEH";"23611";"Indonesia";"";"4.1746041";"96.1205395";"https://maps.google.com/?cid=0x0:0x252ae028982e8f37"
"housing complex";"Perumahan";"Perumahan Gen Residence";"54CC+589, Seuneubok, Kec. Johan Pahlawan, Kabupaten Aceh Barat, Aceh 23617";"Seuneubok, Kec. Johan Pahlawan, Kabupaten Aceh Barat";"ACEH";"23617";"Indonesia";"";"4.1700601";"96.1214031";"https://maps.google.com/?cid=0x0:0x308bdf86ab45b089"
"housing complex";"Komplek perumahan";"rumah orang sukses";"54JH+5R6, Lapang, Kec. Johan Pahlawan, Kabupaten Aceh Barat, Aceh";"Kabupaten Aceh Barat, Aceh";"ACEH";"";"Indonesia";"";"4.1804053";"96.1295222";"https://maps.google.com/?cid=0x0:0x3b79bd436f67f628"
"housing complex";"Komplek perumahan";"Suak Sigadeng Residence";"Jln.H.Daud Dariah 2.Suak Indra puri kec.Johan Pahlawan Kab.Aceh Barat, Suak Sigadeng, Kec. Johan Pahlawan, Kabupaten Aceh Barat, Aceh 23617";"Suak Sigadeng, Kec. Johan Pahlawan, Kabupaten Aceh Barat";"ACEH";"23617";"Indonesia";"";"4.1682757";"96.1096597";"https://maps.google.com/?cid=0x0:0xa8e7f4090a282665"
"housing complex";"Komplek perumahan";"Rumah mas juli";"54HR+94C, Lapang, Kec. Johan Pahlawan, Kabupaten Aceh Barat, Aceh 23618";"Lapang, Kec. Johan Pahlawan, Kabupaten Aceh Barat";"ACEH";"23618";"Indonesia";"";"4.1784375";"96.1402656";"https://maps.google.com/?cid=0x0:0xab6d65a0eee06a4c"
"housing complex";"Kompleks Townhouse";"Komplek Perumahan Army";"54VQ+H34, Leuhan, Kec. Johan Pahlawan, Kabupaten Aceh Barat, Aceh 23611";"Leuhan, Kec. Johan Pahlawan, Kabupaten Aceh Barat";"ACEH";"23611";"Indonesia";" 085260242578";"4.1938943";"96.1376912";"https://maps.google.com/?cid=0x0:0xbb7dbd004146e043"
"housing complex";"Komplek perumahan";"Khamila olshop";"5455+6MF, Jl. Padat Karya, dusun III, Suak Ribee, Kec. Johan Pahlawan, Kabupaten Aceh Barat, Aceh";"Kabupaten Aceh Barat, Aceh";"ACEH";"";"Indonesia";"";"4.1580573";"96.1091688";"https://maps.google.com/?cid=0x0:0x8faea3c2f7c6fd76"
"housing complex";"Pembangunan Perumahan";"Perumahan Sultan";"5469+PJW, Seuneubok, Kec. Johan Pahlawan, Kabupaten Aceh Barat, Aceh 23617";"Seuneubok, Kec. Johan Pahlawan, Kabupaten Aceh Barat";"ACEH";"23617";"Indonesia";"";"4.1617585";"96.1191259";"https://maps.google.com/?cid=0x0:0x906ed515a05ffab"
"housing complex";"Komplek perumahan";"Aldian";"5474+2G, Suak Sigadeng, Kec. Johan Pahlawan, Kabupaten Aceh Barat, Aceh 23615";"Suak Sigadeng, Kec. Johan Pahlawan, Kabupaten Aceh Barat";"ACEH";"23615";"Indonesia";" 081257807090";"4.1625405";"96.1063013";"https://maps.google.com/?cid=0x0:0x50861c1e3467baff"
"housing complex";"Komplek perumahan";"Rumah Teuku Raja Usman";"44XJ+935, Lorong Kuini, Ujong Baroh, Kec. Johan Pahlawan, Kabupaten Aceh Barat, Aceh";"Kabupaten Aceh Barat, Aceh";"ACEH";"";"Indonesia";"";"4.1483878";"96.1302252";"https://maps.google.com/?cid=0x0:0x4e590ff0e579a72f"
"housing complex";"housing complex";"Aceh 23616";"Kec. Johan Pahlawan, Kabupaten Aceh Barat, Aceh";"Kabupaten Aceh Barat, Aceh";"ACEH";"";"Indonesia";"";"4.1620859";"96.1301677";"https://maps.google.com/?cid=0x0:0xe0be7a42827f0eb0"
"housing complex";"Komplek perumahan";"!®";"Gampa, Kec. Johan Pahlawan, Kabupaten Aceh Barat, Aceh 23617";"Kec. Johan Pahlawan, Kabupaten Aceh Barat";"ACEH";"23617";"Indonesia";" 085360322230";"4.1689375";"96.1288125";"https://maps.google.com/?cid=0x0:0x2bb3ff7d9f91ea77"
"housing complex";"Komplek perumahan";"Rumah";"54FM+Q8G, Lapang, Kec. Johan Pahlawan, Kabupaten Aceh Barat, Aceh 23611";"Lapang, Kec. Johan Pahlawan, Kabupaten Aceh Barat";"ACEH";"23611";"Indonesia";"";"4.1745005";"96.1329943";"https://maps.google.com/?cid=0x0:0x6c381d6dfbdba580"
"housing complex";"Komplek perumahan";"HAMIDI";"545R+Q8J, Kp. Darat, Kec. Johan Pahlawan, Kabupaten Aceh Barat, Aceh";"Kabupaten Aceh Barat, Aceh";"ACEH";"";"Indonesia";"";"4.1594571";"96.1407694";"https://maps.google.com/?cid=0x0:0xe050ca5b81a7f828"
"housing complex";"Komplek perumahan";"Rumah";"Lorong Apel No.119, Ujong Baroh, Kec. Johan Pahlawan, Kabupaten Aceh Barat, Aceh 23615";"Ujong Baroh, Kec. Johan Pahlawan, Kabupaten Aceh Barat";"ACEH";"23615";"Indonesia";"";"4.1536028";"96.1248842";"https://maps.google.com/?cid=0x0:0x194d0d75c580b4eb"
"housing complex";"Komplek perumahan";"Rumah Aminnullah";"547R+WC, Gampa, Kec. Johan Pahlawan, Kabupaten Aceh Barat, Aceh";"Kabupaten Aceh Barat, Aceh";"ACEH";"";"Indonesia";"";"4.164756";"96.1410946";"https://maps.google.com/?cid=0x0:0x9d53c3745f411d20"
"housing complex";"Komplek perumahan";"Rumah Teuku Raja Usman";"44XJ+935, Lorong Kuini, Ujong Baroh, Kec. Johan Pahlawan, Kabupaten Aceh Barat, Aceh";"Kabupaten Aceh Barat, Aceh";"ACEH";"";"Indonesia";"";"4.1483878";"96.1302252";"https://maps.google.com/?cid=0x0:0x4e590ff0e579a72f"
"housing complex";"Pembangunan Perumahan";"B 063";"Jl. Kesehatan No.194, Drien Rampak, Kec. Johan Pahlawan, Kabupaten Aceh Barat, Aceh 23616";"Drien Rampak, Kec. Johan Pahlawan, Kabupaten Aceh Barat";"ACEH";"23616";"Indonesia";"";"4.1579813";"96.1306547";"https://maps.google.com/?cid=0x0:0x3bee4c037ad78895"
"housing complex";"Komplek perumahan";"Rumah";"54FM+Q8G, Lapang, Kec. Johan Pahlawan, Kabupaten Aceh Barat, Aceh 23611";"Lapang, Kec. Johan Pahlawan, Kabupaten Aceh Barat";"ACEH";"23611";"Indonesia";"";"4.1745005";"96.1329943";"https://maps.google.com/?cid=0x0:0x6c381d6dfbdba580"
"housing complex";"Komplek perumahan";"!®";"Gampa, Kec. Johan Pahlawan, Kabupaten Aceh Barat, Aceh 23617";"Kec. Johan Pahlawan, Kabupaten Aceh Barat";"ACEH";"23617";"Indonesia";" 085360322230";"4.1689375";"96.1288125";"https://maps.google.com/?cid=0x0:0x2bb3ff7d9f91ea77"
"housing complex";"housing complex";"Aceh 23618";"Kec. Johan Pahlawan, Kabupaten Aceh Barat, Aceh";"Kabupaten Aceh Barat, Aceh";"ACEH";"";"Indonesia";"";"4.186417";"96.1129437";"https://maps.google.com/?cid=0x0:0x4562fc605032d397"
"housing complex";"Komplek perumahan";"Rumah";"54FM+Q8G, Lapang, Kec. Johan Pahlawan, Kabupaten Aceh Barat, Aceh 23611";"Lapang, Kec. Johan Pahlawan, Kabupaten Aceh Barat";"ACEH";"23611";"Indonesia";"";"4.1745005";"96.1329943";"https://maps.google.com/?cid=0x0:0x6c381d6dfbdba580"
"housing complex";"Komplek perumahan";"Pak Fauzul Family";"54MP+C58, Lapang, Kec. Johan Pahlawan, Kabupaten Aceh Barat, Aceh 23618";"Lapang, Kec. Johan Pahlawan, Kabupaten Aceh Barat";"ACEH";"23618";"Indonesia";"";"4.1840134";"96.1351662";"https://maps.google.com/?cid=0x0:0xc386915ba9111f39"
"housing complex";"Kompleks Townhouse";"Komplek Perumahan Army";"54VQ+H34, Leuhan, Kec. Johan Pahlawan, Kabupaten Aceh Barat, Aceh 23611";"Leuhan, Kec. Johan Pahlawan, Kabupaten Aceh Barat";"ACEH";"23611";"Indonesia";" 085260242578";"4.1938943";"96.1376912";"https://maps.google.com/?cid=0x0:0xbb7dbd004146e043"
"housing complex";"Komplek perumahan";"Rumah mas juli";"54HR+94C, Lapang, Kec. Johan Pahlawan, Kabupaten Aceh Barat, Aceh 23618";"Lapang, Kec. Johan Pahlawan, Kabupaten Aceh Barat";"ACEH";"23618";"Indonesia";"";"4.1784375";"96.1402656";"https://maps.google.com/?cid=0x0:0xab6d65a0eee06a4c"
"housing complex";"Komplek perumahan";"!®";"Gampa, Kec. Johan Pahlawan, Kabupaten Aceh Barat, Aceh 23617";"Kec. Johan Pahlawan, Kabupaten Aceh Barat";"ACEH";"23617";"Indonesia";" 085360322230";"4.1689375";"96.1288125";"https://maps.google.com/?cid=0x0:0x2bb3ff7d9f91ea77"
"housing complex";"Komplek perumahan";"ilham house";"54QR+Q93, Leuhan, Kec. Johan Pahlawan, Kabupaten Aceh Barat, Aceh 23611";"Leuhan, Kec. Johan Pahlawan, Kabupaten Aceh Barat";"ACEH";"23611";"Indonesia";"";"4.1895594";"96.1409675";"https://maps.google.com/?cid=0x0:0x4f98b5994ecaa628"
"housing complex";"Komplek perumahan";"House Orang Baik";"54MR+WPF, Jl. Putroe Ijo, Leuhan, Kec. Johan Pahlawan, Kabupaten Aceh Barat, Aceh 23611";"Jl. Putroe Ijo, Leuhan, Kec. Johan Pahlawan, Kabupaten Aceh Barat";"ACEH";"23611";"Indonesia";"";"4.1848149";"96.1418043";"https://maps.google.com/?cid=0x0:0xc9d054f6900afb4"
"housing complex";"Komplek perumahan";"RUMAH LUTFI ABDULLAH";"Lorong Ketapel 2, dusun Cit Kandeh, Lapang, Kec. Johan Pahlawan, Kabupaten Aceh Barat, Aceh 23611";"dusun Cit Kandeh, Lapang, Kec. Johan Pahlawan, Kabupaten Aceh Barat";"ACEH";"23611";"Indonesia";"";"4.174744";"96.1340252";"https://maps.google.com/?cid=0x0:0x153f3b0783628158"
"housing complex";"Perumahan";"Perumahan Gen Residence";"54CC+589, Seuneubok, Kec. Johan Pahlawan, Kabupaten Aceh Barat, Aceh 23617";"Seuneubok, Kec. Johan Pahlawan, Kabupaten Aceh Barat";"ACEH";"23617";"Indonesia";"";"4.1700601";"96.1214031";"https://maps.google.com/?cid=0x0:0x308bdf86ab45b089"
"housing complex";"Komplek perumahan";"Komplek Griya Lapang";"54VF+3JQ, Lapang, Kec. Johan Pahlawan, Kabupaten Aceh Barat, Aceh 23611";"Lapang, Kec. Johan Pahlawan, Kabupaten Aceh Barat";"ACEH";"23611";"Indonesia";"";"4.1927002";"96.1241006";"https://maps.google.com/?cid=0x0:0x5f8aca88fbbd5be"
"housing complex";"Pembangunan Perumahan";"Perumahan Griya Nova";"54VG+WVV, Lapang, Kec. Johan Pahlawan, Kabupaten Aceh Barat, Aceh 23611";"Lapang, Kec. Johan Pahlawan, Kabupaten Aceh Barat";"ACEH";"23611";"Indonesia";"";"4.194874";"96.127157";"https://maps.google.com/?cid=0x0:0x9e102b2271f94c27"
"housing complex";"Komplek perumahan";"Rumah muntahar";"54FC+R6V, Seuneubok, Kec. Johan Pahlawan, Kabupaten Aceh Barat, Aceh 23611";"Seuneubok, Kec. Johan Pahlawan, Kabupaten Aceh Barat";"ACEH";"23611";"Indonesia";"";"4.1746041";"96.1205395";"https://maps.google.com/?cid=0x0:0x252ae028982e8f37"
"housing complex";"Pembangunan Perumahan";"Jalan T.A.STOM";"54M2+4XF, Suak Raya, Kec. Johan Pahlawan, Kabupaten Aceh Barat, Aceh 23618";"Suak Raya, Kec. Johan Pahlawan, Kabupaten Aceh Barat";"ACEH";"23618";"Indonesia";"";"4.1828058";"96.102424";"https://maps.google.com/?cid=0x0:0x5c85666ca006ced0"
"housing complex";"Perhimpunan Pengembang Perumahan";"Rumah manusia";"63H8+CXF, Cot Seumeureng, Kec. Samatiga, Kabupaten Aceh Barat, Aceh 23652";"Cot Seumeureng, Kec. Samatiga, Kabupaten Aceh Barat";"ACEH";"23652";"Indonesia";"";"4.2285385";"96.0677435";"https://maps.google.com/?cid=0x0:0x1cfba607e59e15fd"
"housing complex";"Komplek perumahan";"Perumahan Para Indah, Cot Seumeureueng";"63CH+VJ7, Cot Seumeureng, Kec. Samatiga, Kabupaten Aceh Barat, Aceh 23652";"Cot Seumeureng, Kec. Samatiga, Kabupaten Aceh Barat";"ACEH";"23652";"Indonesia";"";"4.2221531";"96.0790617";"https://maps.google.com/?cid=0x0:0xfdcb24e2f1a05540"
"housing complex";"housing complex";"Aceh 23652";"Kabupaten Aceh Barat, Aceh";"Kabupaten Aceh Barat, Aceh";"ACEH";"";"Indonesia";"";"4.2710816";"96.0467429";"https://maps.google.com/?cid=0x0:0x30687e4200a2049b"
"housing complex";"Komplek perumahan";"Rossi's House";"626J+2R6, Gampong Cot, Kec. Samatiga, Kabupaten Aceh Barat, Aceh 23652";"Gampong Cot, Kec. Samatiga, Kabupaten Aceh Barat";"ACEH";"23652";"Indonesia";" 085260527112";"4.2118396";"96.0315291";"https://maps.google.com/?cid=0x0:0x32f0aa959e7ab59f"
"housing complex";"Komplek perumahan";"Tika Nya JAEMIN";"Suak Seumaseh, Kec. Samatiga, Kabupaten Aceh Barat, Aceh";"Kabupaten Aceh Barat, Aceh";"ACEH";"";"Indonesia";"";"4.2721329";"95.9739313";"https://maps.google.com/?cid=0x0:0xeda8d97d0b59dcc1"
"housing complex";"Pembangunan Perumahan";"Desa Puco Leung";"62GV+327, Jl. Alue Raya - Pinem, Pucok Lueng, Kec. Samatiga, Kabupaten Aceh Barat, Aceh 23652";"Jl. Alue Raya - Pinem, Pucok Lueng, Kec. Samatiga, Kabupaten Aceh Barat";"ACEH";"23652";"Indonesia";"";"4.2251572";"96.0425351";"https://maps.google.com/?cid=0x0:0x427e0c5db9a30aff"
"housing complex";"Komplek perumahan";"Saiful Dja'far's House";"63MH+644, Paya Lumpat, Kec. Samatiga, Kabupaten Aceh Barat, Aceh 23652";"Paya Lumpat, Kec. Samatiga, Kabupaten Aceh Barat";"ACEH";"23652";"Indonesia";"";"4.2330109";"96.0778226";"https://maps.google.com/?cid=0x0:0xd7dab375a642669a"
"housing complex";"Komplek perumahan";"Rumah Ku";"7327+QGJ, Reusak, Kec. Samatiga, Kabupaten Aceh Barat, Aceh 23652";"Reusak, Kec. Samatiga, Kabupaten Aceh Barat";"ACEH";"23652";"Indonesia";"";"4.2520649";"96.063791";"https://maps.google.com/?cid=0x0:0x430a43f16400071a"
"housing complex";"Perhimpunan Pengembang Perumahan";"Badoenk house";"62JW+GH7, Alue Raya, Kec. Samatiga, Kabupaten Aceh Barat, Aceh 23652";"Alue Raya, Kec. Samatiga, Kabupaten Aceh Barat";"ACEH";"23652";"Indonesia";"";"4.2312875";"96.0464219";"https://maps.google.com/?cid=0x0:0x6abaaf3ba284f794"
"housing complex";"Komplek perumahan";"Penthouse";"628R+F43, Gampong Teungoh, Kec. Samatiga, Kabupaten Aceh Barat, Aceh 23652";"Gampong Teungoh, Kec. Samatiga, Kabupaten Aceh Barat";"ACEH";"23652";"Indonesia";"";"4.2163077";"96.0401534";"https://maps.google.com/?cid=0x0:0xadefc52036f102d4"
"housing complex";"Pembangunan Perumahan";"Rumah c'yan";"63FJ+CXX, Jalan ujong beurasok, Cot Seumeureng, Kec. Samatiga, Kabupaten Aceh Barat, Aceh 23652";"Jalan ujong beurasok, Cot Seumeureng, Kec. Samatiga, Kabupaten Aceh Barat";"ACEH";"23652";"Indonesia";"";"4.2236104";"96.0824825";"https://maps.google.com/?cid=0x0:0xd9021cc690ff46c6"
"housing complex";"Komplek perumahan";"Suak sauke";"62H9+53C, Suak Seukee, Kec. Samatiga, Kabupaten Aceh Barat, Aceh 23652";"Suak Seukee, Kec. Samatiga, Kabupaten Aceh Barat";"ACEH";"23652";"Indonesia";"";"4.2279402";"96.0176373";"https://maps.google.com/?cid=0x0:0x1a024660e5323df5"
"housing complex";"Komplek perumahan";"Rumah zaki";"63MG+GHC, Paya Lumpat, Kec. Samatiga, Kabupaten Aceh Barat, Aceh 23652";"Paya Lumpat, Kec. Samatiga, Kabupaten Aceh Barat";"ACEH";"23652";"Indonesia";"";"4.2338159";"96.0763763";"https://maps.google.com/?cid=0x0:0xedb49a15c0e4fc31"
"housing complex";"housing complex";"Rumah Yah LoeT";"63MF+5VR, Paya Lumpat, Kec. Samatiga, Kabupaten Aceh Barat, Aceh 23652";"Paya Lumpat, Kec. Samatiga, Kabupaten Aceh Barat";"ACEH";"23652";"Indonesia";"";"4.232916";"96.0740739";"https://maps.google.com/?cid=0x0:0x10b5309cec28d585"
"housing complex";"housing complex";"Kec. Bubon";"Kabupaten Aceh Barat, Aceh";"Kabupaten Aceh Barat, Aceh";"ACEH";"";"Indonesia";"";"4.2943828";"96.0862301";"https://maps.google.com/?cid=0x0:0x80219aee8cc6aaef"
"housing complex";"Komplek perumahan";"Rumah pipi";"845R+438, Suak Pangkat, Kec. Bubon, Kabupaten Aceh Barat, Aceh 23654";"Suak Pangkat, Kec. Bubon, Kabupaten Aceh Barat";"ACEH";"23654";"Indonesia";"";"4.307796";"96.1402025";"https://maps.google.com/?cid=0x0:0xaa933bf0759bcdb1"
"housing complex";"Komplek perumahan";"حسب الله و نعم الوكيل";"845Q+7C9, Seuneubok Trap, Kec. Bubon, Kabupaten Aceh Barat, Aceh";"Kabupaten Aceh Barat, Aceh";"ACEH";"";"Indonesia";"";"4.308165";"96.1385991";"https://maps.google.com/?cid=0x0:0x473a7ee6126f496c"
"housing complex";"Komplek perumahan";"Istana Bakeuti";"73WQ+FFJ, Layung, Kec. Bubon, Kabupaten Aceh Barat, Aceh";"Kabupaten Aceh Barat, Aceh";"ACEH";"";"Indonesia";"";"4.2958095";"96.0896344";"https://maps.google.com/?cid=0x0:0xfa8f9a9045fa7bde"
"housing complex";"Kantor Pemerintah";"Desa Blang sibeutong";"8583+6F, Peulanteu Sp, Kec. Bubon, Kabupaten Aceh Barat, Aceh";"Kabupaten Aceh Barat, Aceh";"ACEH";"";"Indonesia";"";"4.3155112";"96.153733";"https://maps.google.com/?cid=0x0:0x743e72d5f4f42ee6"
"housing complex";"Pembangunan Perumahan";"Jambo squat syedara";"8588+WJ3, Blang Sibeutong, Kec. Bubon, Kabupaten Aceh Barat, Aceh 23681";"Blang Sibeutong, Kec. Bubon, Kabupaten Aceh Barat";"ACEH";"23681";"Indonesia";"";"4.3172538";"96.1658802";"https://maps.google.com/?cid=0x0:0x203fb37030d82010"
"housing complex";"Komplek perumahan";"Rumah rosmaini";"73WQ+MR9, Layung, Kec. Bubon, Kabupaten Aceh Barat, Aceh 23652";"Layung, Kec. Bubon, Kabupaten Aceh Barat";"ACEH";"23652";"Indonesia";"";"4.2966724";"96.0896109";"https://maps.google.com/?cid=0x0:0x7df026a6404c44e1"
"housing complex";"Komplek perumahan";"Rumah pipi";"8469+JF, Kuala Pling, Kec. Bubon, Kabupaten Aceh Barat, Aceh";"Kabupaten Aceh Barat, Aceh";"ACEH";"";"Indonesia";"";"4.3110521";"96.1183268";"https://maps.google.com/?cid=0x0:0xaf75d404ab068de0"
"housing complex";"Komplek perumahan";"Samping rumah di ris";"832W+RF6, Alue Bakong, Kec. Bubon, Kabupaten Aceh Barat, Aceh";"Kabupaten Aceh Barat, Aceh";"ACEH";"";"Indonesia";"";"4.3020341";"96.0961397";"https://maps.google.com/?cid=0x0:0x6cc8f8c94ad566d1"
"housing complex";"Pembangunan Perumahan";"Rumah jack";"832W+F24, Jl. Alue Lhok, Alue Bakong, Kec. Bubon, Kabupaten Aceh Barat, Aceh 23654";"Jl. Alue Lhok, Alue Bakong, Kec. Bubon, Kabupaten Aceh Barat";"ACEH";"23654";"Indonesia";"";"4.3011451";"96.0950764";"https://maps.google.com/?cid=0x0:0x6bfd6dbd1cc12111"
"housing complex";"housing complex";"rumah Adin";"9635+Q9W, Lhok Sari, Kec. Pantai Ceuremen, Kabupaten Aceh Barat, Aceh 23681";"Lhok Sari, Kec. Pantai Ceuremen, Kabupaten Aceh Barat";"ACEH";"23681";"Indonesia";"";"4.3544966";"96.208466";"https://maps.google.com/?cid=0x0:0xa1c922ba2b6780e7"
"housing complex";"Komplek perumahan";"Usaha Jual Beli Sawit";"84CH+MWR, Unnamed Road, Cot Keumuneng, Kec. Bubon, Kabupaten Aceh Barat, Aceh 23654";"Unnamed Road, Cot Keumuneng, Kec. Bubon, Kabupaten Aceh Barat";"ACEH";"23654";"Indonesia";"";"4.321729";"96.1297636";"https://maps.google.com/?cid=0x0:0x856480091f166e8d"
"housing complex";"Kompleks Apartemen";"dasa seumuleng";"8495+J3R, Seumuleng, Kec. Bubon, Kabupaten Aceh Barat, Aceh 23654";"Seumuleng, Kec. Bubon, Kabupaten Aceh Barat";"ACEH";"23654";"Indonesia";"";"4.3191065";"96.107645";"https://maps.google.com/?cid=0x0:0xd08b81b9af95ee87"
"housing complex";"Perhimpunan Pengembang Perumahan";"Badoenk house";"62JW+GH7, Alue Raya, Kec. Samatiga, Kabupaten Aceh Barat, Aceh 23652";"Alue Raya, Kec. Samatiga, Kabupaten Aceh Barat";"ACEH";"23652";"Indonesia";"";"4.2312875";"96.0464219";"https://maps.google.com/?cid=0x0:0x6abaaf3ba284f794"
"housing complex";"Perhimpunan Pengembang Perumahan";"Hendriyani";"8WFM+84X, Suak Ie Beusou, Kec. Arongan Lambalek, Kabupaten Aceh Barat, Aceh 23652";"Suak Ie Beusou, Kec. Arongan Lambalek, Kabupaten Aceh Barat";"ACEH";"23652";"Indonesia";"";"4.3233575";"95.9328598";"https://maps.google.com/?cid=0x0:0xff619b4d740c5fc9"
"housing complex";"Komplek perumahan";"DS. COT KUMBANG";"7XQR+6RC, Keub, Kec. Arongan Lambalek, Kabupaten Aceh Barat, Aceh 23652";"Keub, Kec. Arongan Lambalek, Kabupaten Aceh Barat";"ACEH";"23652";"Indonesia";"";"4.2880676";"95.9920271";"https://maps.google.com/?cid=0x0:0x7473b7d19f60866c"
"housing complex";"housing complex";"Aceh 23652";"Kabupaten Aceh Barat, Aceh";"Kabupaten Aceh Barat, Aceh";"ACEH";"";"Indonesia";"";"4.2710816";"96.0467429";"https://maps.google.com/?cid=0x0:0x30687e4200a2049b"
"housing complex";"Komplek perumahan";"Gudang cek to";"9WG7+88, Peulanteu Lb, Kec. Arongan Lambalek, Kabupaten Aceh Barat, Aceh";"Kabupaten Aceh Barat, Aceh";"ACEH";"";"Indonesia";"";"4.3758569";"95.9133021";"https://maps.google.com/?cid=0x0:0xc5ace0c24ccb1471"
"housing complex";"Pembangunan Perumahan";"Tempat orang mninggal";"8XWC+823, Alue Batee, Kec. Arongan Lambalek, Kabupaten Aceh Barat, Aceh";"Kabupaten Aceh Barat, Aceh";"ACEH";"";"Indonesia";"";"4.3457539";"95.9700399";"https://maps.google.com/?cid=0x0:0x12aea9c4bd520dfd"
"housing complex";"Komplek perumahan";"Rumah biru";"9W6C+8HW, Seuneubok Teungoh, Kec. Arongan Lambalek, Kabupaten Aceh Barat, Aceh";"Kabupaten Aceh Barat, Aceh";"ACEH";"";"Indonesia";"";"4.3608733";"95.9214437";"https://maps.google.com/?cid=0x0:0x635b50509534ef4e"
"housing complex";"Komplek perumahan";"Rumah keluarga";"8X52+FWC, Kubu, Kec. Arongan Lambalek, Kabupaten Aceh Barat, Aceh 23652";"Kubu, Kec. Arongan Lambalek, Kabupaten Aceh Barat";"ACEH";"23652";"Indonesia";"";"4.308271";"95.951696";"https://maps.google.com/?cid=0x0:0x158a8ebc8a7e94b2"
"housing complex";"Komplek perumahan";"Rumah mukhtar";"9W88+78F, Seuneubok Teungoh, Kec. Arongan Lambalek, Kabupaten Aceh Barat, Aceh 23652";"Seuneubok Teungoh, Kec. Arongan Lambalek, Kabupaten Aceh Barat";"ACEH";"23652";"Indonesia";"";"4.3656865";"95.9157954";"https://maps.google.com/?cid=0x0:0xc4d41d389ff9eee7"
"housing complex";"Pembangunan Perumahan";"Arif";"8XH3+49G, Cot Buloh, Kec. Arongan Lambalek, Kabupaten Aceh Barat, Aceh";"Kabupaten Aceh Barat, Aceh";"ACEH";"";"Indonesia";"";"4.3278227";"95.953442";"https://maps.google.com/?cid=0x0:0x8ad74aa77a15b558"
"housing complex";"Komplek perumahan";"Kubu";"8X25+F72, Kubu, Kec. Arongan Lambalek, Kabupaten Aceh Barat, Aceh 23652";"Kubu, Kec. Arongan Lambalek, Kabupaten Aceh Barat";"ACEH";"23652";"Indonesia";"";"4.3011353";"95.9581464";"https://maps.google.com/?cid=0x0:0xa59878b571d2301f"
"housing complex";"Komplek perumahan";"Rossi's House";"626J+2R6, Gampong Cot, Kec. Samatiga, Kabupaten Aceh Barat, Aceh 23652";"Gampong Cot, Kec. Samatiga, Kabupaten Aceh Barat";"ACEH";"23652";"Indonesia";" 085260527112";"4.2118396";"96.0315291";"https://maps.google.com/?cid=0x0:0x32f0aa959e7ab59f"
"housing complex";"Pembangunan Perumahan";"Ujb";"8X7G+FM, Teupin Peuraho, Kec. Arongan Lambalek, Kabupaten Aceh Barat, Aceh";"Kabupaten Aceh Barat, Aceh";"ACEH";"";"Indonesia";"";"4.313689";"95.97669";"https://maps.google.com/?cid=0x0:0xb48e1383743fef29"
"housing complex";"Perhimpunan Pengembang Perumahan";"Rumah manusia";"63H8+CXF, Cot Seumeureng, Kec. Samatiga, Kabupaten Aceh Barat, Aceh 23652";"Cot Seumeureng, Kec. Samatiga, Kabupaten Aceh Barat";"ACEH";"23652";"Indonesia";"";"4.2285385";"96.0677435";"https://maps.google.com/?cid=0x0:0x1cfba607e59e15fd"
"housing complex";"Kantor Perusahaan";"Kuta Teungoh";"8X2Q+3RC, Kuta Teungoh, Kec. Arongan Lambalek, Kabupaten Aceh Barat, Aceh";"Kabupaten Aceh Barat, Aceh";"ACEH";"";"Indonesia";"";"4.3001775";"95.9895129";"https://maps.google.com/?cid=0x0:0xd199b088dd559582"
"housing complex";"Komplek perumahan";"Kadiaman ABANG,DA";"93XC+6FW, Alue Sikaya, Kec. Woyla, Kabupaten Aceh Barat, Aceh 23654";"Alue Sikaya, Kec. Woyla, Kabupaten Aceh Barat";"ACEH";"23654";"Indonesia";"";"4.3980754";"96.0716864";"https://maps.google.com/?cid=0x0:0x6e1622a1528f715"
"housing complex";"housing complex";"Kec. Woyla";"Kabupaten Aceh Barat, Aceh";"Kabupaten Aceh Barat, Aceh";"ACEH";"";"Indonesia";"";"4.3842742";"96.0566624";"https://maps.google.com/?cid=0x0:0x1b356ff5d77a878a"
"housing complex";"Komplek perumahan";"MHd.DiaZ";"93XC+66P, Alue Sikaya, Kec. Woyla, Kabupaten Aceh Barat, Aceh 23654";"Alue Sikaya, Kec. Woyla, Kabupaten Aceh Barat";"ACEH";"23654";"Indonesia";"";"4.3980965";"96.0705843";"https://maps.google.com/?cid=0x0:0x1b05cadb779b51df"
"housing complex";"Komplek perumahan";"Rumah Abdullah U";"82C5+7XQ, Napai, Kec. Woyla Bar., Kabupaten Aceh Barat, Aceh 23654";"Napai, Kec. Woyla Bar., Kabupaten Aceh Barat";"ACEH";"23654";"Indonesia";"";"4.32072";"96.0099768";"https://maps.google.com/?cid=0x0:0xc4ba6592884f4b24"
"housing complex";"Pembangunan Perumahan";"Rumah saya";"82MH+6QR, Ie Itam Baroh, Kec. Woyla, Kabupaten Aceh Barat, Aceh 23654";"Ie Itam Baroh, Kec. Woyla, Kabupaten Aceh Barat";"ACEH";"23654";"Indonesia";"";"4.3331012";"96.0293839";"https://maps.google.com/?cid=0x0:0xd803da2269fc1f06"
"housing complex";"Pembangunan Perumahan";"Home syifa";"82R7+79R, Pasi Jeut, Kec. Woyla Bar., Kabupaten Aceh Barat, Aceh 23654";"Pasi Jeut, Kec. Woyla Bar., Kabupaten Aceh Barat";"ACEH";"23654";"Indonesia";"";"4.3407316";"96.0133912";"https://maps.google.com/?cid=0x0:0x92e41773144d481c"
"housing complex";"Komplek perumahan";"Rumah santi";"83MQ+V7H, Cot Murong, Kec. Woyla, Kabupaten Aceh Barat, Aceh 23654";"Cot Murong, Kec. Woyla, Kabupaten Aceh Barat";"ACEH";"23654";"Indonesia";"";"4.3346905";"96.0882306";"https://maps.google.com/?cid=0x0:0x791e3410741fe110"
"housing complex";"Komplek perumahan";"Rumah tgk ayyub";"83MQ+PJ3, Cot Murong, Kec. Woyla, Kabupaten Aceh Barat, Aceh 23654";"Cot Murong, Kec. Woyla, Kabupaten Aceh Barat";"ACEH";"23654";"Indonesia";"";"4.3342566";"96.0890436";"https://maps.google.com/?cid=0x0:0xfa619471ab1cbacc"
"housing complex";"Komplek perumahan";"rf.edien";"83VW+XHC, Cot Lagan Cm, Kec. Woyla, Kabupaten Aceh Barat, Aceh 23654";"Cot Lagan Cm, Kec. Woyla, Kabupaten Aceh Barat";"ACEH";"23654";"Indonesia";"";"4.345533";"96.0967788";"https://maps.google.com/?cid=0x0:0x8c5283910e5561ca"
"housing complex";"Masjid";"Gampong Lueng Tgk Yah";"93H5+HCX, Lhung Tgk Yah, Kec. Woyla, Kabupaten Aceh Barat, Aceh 23654";"Lhung Tgk Yah, Kec. Woyla, Kabupaten Aceh Barat";"ACEH";"23654";"Indonesia";"";"4.3789916";"96.0586227";"https://maps.google.com/?cid=0x0:0xbf86c22ca62ea50c"
"housing complex";"Pembangunan Perumahan";"Ali woybar";"8XRW+GQ, Lueng Baro, Kec. Woyla Bar., Kabupaten Aceh Barat, Aceh 23654";"Lueng Baro, Kec. Woyla Bar., Kabupaten Aceh Barat";"ACEH";"23654";"Indonesia";"";"4.3406033";"95.9965691";"https://maps.google.com/?cid=0x0:0xfc97e6ee6a6b4c14"
"housing complex";"Pembangunan Perumahan";"Gp.Rambong";"F26G+GQ5, Rambong, Kec. Woyla Tim., Kabupaten Aceh Barat, Aceh 23654";"Rambong, Kec. Woyla Tim., Kabupaten Aceh Barat";"ACEH";"23654";"Indonesia";"";"4.4612687";"96.0269907";"https://maps.google.com/?cid=0x0:0x315dfee338ef28be"
"housing complex";"";"Rumah heri";"83VV+GC9, Cot Lagan Cm, Kec. Woyla, Kabupaten Aceh Barat, Aceh";"Kabupaten Aceh Barat, Aceh";"ACEH";"";"Indonesia";"";"4.3439206";"96.094055";"https://maps.google.com/?cid=0x0:0x1ca2f9369ce70059"
"housing complex";"Komplek perumahan";"Alue payang";"C24W+7P7, Alue Panyang, Kec. Woyla, Kabupaten Aceh Barat, Aceh 23654";"Alue Panyang, Kec. Woyla, Kabupaten Aceh Barat";"ACEH";"23654";"Indonesia";"";"4.4056672";"96.0467975";"https://maps.google.com/?cid=0x0:0x24a336ff56924ee4"
"housing complex";"housing complex";"Kec. Woyla Bar.";"Kabupaten Aceh Barat, Aceh";"Kabupaten Aceh Barat, Aceh";"ACEH";"";"Indonesia";"";"4.3454175";"96.0142448";"https://maps.google.com/?cid=0x0:0xf6bf5c9712518f80"
"housing complex";"housing complex";"Kec. Woyla Tim.";"Kabupaten Aceh Barat, Aceh";"Kabupaten Aceh Barat, Aceh";"ACEH";"";"Indonesia";"";"4.4569759";"96.1493051";"https://maps.google.com/?cid=0x0:0x35763af430d81337"
"housing complex";"housing complex";"Kec. Kaway XVI";"Kabupaten Aceh Barat, Aceh";"Kabupaten Aceh Barat, Aceh";"ACEH";"";"Indonesia";"";"4.2884024";"96.2079103";"https://maps.google.com/?cid=0x0:0x83baccd3be0e0593"
"housing complex";"Komplek perumahan";"Rumah asyikin";"65G5+6PH, Padang Mancang, Kec. Kaway XVI, Kabupaten Aceh Barat, Aceh 23681";"Padang Mancang, Kec. Kaway XVI, Kabupaten Aceh Barat";"ACEH";"23681";"Indonesia";"";"4.2255693";"96.1593524";"https://maps.google.com/?cid=0x0:0x84be0a4f8366d5d0"
"housing complex";"Komplek perumahan";"zahra asyifa";"65G9+45F, Jl. Meulaboh - Kaway XVI, Keude Aron, Kec. Kaway XVI, Kabupaten Aceh Barat, Aceh 23681";"Jl. Meulaboh - Kaway XVI, Keude Aron, Kec. Kaway XVI, Kabupaten Aceh Barat";"ACEH";"23681";"Indonesia";"";"4.2247053";"96.167576";"https://maps.google.com/?cid=0x0:0xbca56f787db9753e"
"housing complex";"Komplek perumahan";"Rumah ori";"65G7+FGW, Jl. Meulaboh - Kaway XVI, Mesjid, Kec. Kaway XVI, Kabupaten Aceh Barat, Aceh";"Kabupaten Aceh Barat, Aceh";"ACEH";"";"Indonesia";"";"4.2262281";"96.1638437";"https://maps.google.com/?cid=0x0:0x869842dc026a182a"
"housing complex";"Komplek perumahan";"Rumah pidos";"54XW+GRG, Pasi Jambu, Kec. Kaway XVI, Kabupaten Aceh Barat, Aceh 23681";"Pasi Jambu, Kec. Kaway XVI, Kabupaten Aceh Barat";"ACEH";"23681";"Indonesia";"";"4.1988093";"96.1470685";"https://maps.google.com/?cid=0x0:0xcbf5112917fb74d"
"housing complex";"housing complex";"rumah Adin";"9635+Q9W, Lhok Sari, Kec. Pantai Ceuremen, Kabupaten Aceh Barat, Aceh 23681";"Lhok Sari, Kec. Pantai Ceuremen, Kabupaten Aceh Barat";"ACEH";"23681";"Indonesia";"";"4.3544966";"96.208466";"https://maps.google.com/?cid=0x0:0xa1c922ba2b6780e7"
"housing complex";"Komplek perumahan";"Rumah RA";"65GF+8MM, Beureugang, Kec. Kaway XVI, Kabupaten Aceh Barat, Aceh 23681";"Beureugang, Kec. Kaway XVI, Kabupaten Aceh Barat";"ACEH";"23681";"Indonesia";"";"4.2258291";"96.1741824";"https://maps.google.com/?cid=0x0:0xe92a241b43e09255"
"housing complex";"Kompleks Kondominium";"Rumah Amay";"65G7+5JH, Mesjid, Kec. Kaway XVI, Kabupaten Aceh Barat, Aceh 23681";"Mesjid, Kec. Kaway XVI, Kabupaten Aceh Barat";"ACEH";"23681";"Indonesia";"";"4.2254376";"96.1641022";"https://maps.google.com/?cid=0x0:0x3a950b8266d535d7"
"housing complex";"Komplek perumahan";"Lhok rameuan";"66Q4+M7, Muko, Kec. Kaway XVI, Kabupaten Aceh Barat, Aceh";"Kabupaten Aceh Barat, Aceh";"ACEH";"";"Indonesia";"";"4.2392073";"96.2057449";"https://maps.google.com/?cid=0x0:0xac577bf2663a36af"
"housing complex";"Toko umum";"Rumah cut zulrahmi";"65M8+863, Mesjid, Kec. Kaway XVI, Kabupaten Aceh Barat, Aceh 23681";"Mesjid, Kec. Kaway XVI, Kabupaten Aceh Barat";"ACEH";"23681";"Indonesia";"";"4.233265";"96.1655395";"https://maps.google.com/?cid=0x0:0x333ec2a4795602a"
"housing complex";"Komplek perumahan";"house ikram";"54QQ+FW4, Leuhan, Kec. Johan Pahlawan, Kabupaten Aceh Barat, Aceh";"Kabupaten Aceh Barat, Aceh";"ACEH";"";"Indonesia";"";"4.1891361";"96.1401384";"https://maps.google.com/?cid=0x0:0x28ca91886fd3f244"
"housing complex";"Komplek perumahan";"Rumah Ema";"65M2+WG, Simpang, Kec. Kaway XVI, Kabupaten Aceh Barat, Aceh";"Kabupaten Aceh Barat, Aceh";"ACEH";"";"Indonesia";"";"4.2348276";"96.1513148";"https://maps.google.com/?cid=0x0:0x9f341d12cacd1f8b"
"housing complex";"Komplek perumahan";"Mery House";"6554+QQ7, Alue Tampak, Kec. Kaway XVI, Kabupaten Aceh Barat, Aceh 23681";"Alue Tampak, Kec. Kaway XVI, Kabupaten Aceh Barat";"ACEH";"23681";"Indonesia";"";"4.2094013";"96.15693";"https://maps.google.com/?cid=0x0:0x3e97e18fb699b41e"
"housing complex";"Komplek perumahan";"RumahCalvinVerdonk";"76M5+C9, Pungkie, Kec. Kaway XVI, Kabupaten Aceh Barat, Aceh";"Kabupaten Aceh Barat, Aceh";"ACEH";"";"Indonesia";"";"4.2835289";"96.2083878";"https://maps.google.com/?cid=0x0:0x2e1046e993b90fe1"
"housing complex";"housing complex";"Aceh 23615";"Kec. Johan Pahlawan, Kabupaten Aceh Barat, Aceh";"Kabupaten Aceh Barat, Aceh";"ACEH";"";"Indonesia";"";"4.1622709";"96.1063204";"https://maps.google.com/?cid=0x0:0xd2bf3e0b78ba4037"
"housing complex";"Pusat Perbelanjaan";"I store 87";"54FW+2WF, Pasi Mesjid, Kec. Meureubo, Kabupaten Aceh Barat, Aceh";"Kabupaten Aceh Barat, Aceh";"ACEH";"";"Indonesia";"";"4.1725736";"96.1472892";"https://maps.google.com/?cid=0x0:0xb3ec827f0a7bdd8e"
"housing complex";"Komplek perumahan";"Rumah";"Lorong Apel No.119, Ujong Baroh, Kec. Johan Pahlawan, Kabupaten Aceh Barat, Aceh 23615";"Ujong Baroh, Kec. Johan Pahlawan, Kabupaten Aceh Barat";"ACEH";"23615";"Indonesia";"";"4.1536028";"96.1248842";"https://maps.google.com/?cid=0x0:0x194d0d75c580b4eb"
"housing complex";"Pembangunan Perumahan";"Rumah merah putih dhe_yura";"547C+F7J, Jl. Beringin Maju, Seuneubok, Kec. Johan Pahlawan, Kabupaten Aceh Barat, Aceh";"Kabupaten Aceh Barat, Aceh";"ACEH";"";"Indonesia";"";"4.1637134";"96.1206353";"https://maps.google.com/?cid=0x0:0xe39e29f62da22e1d"
"housing complex";"Komplek perumahan";"Misha,muezza,ocil house";"5437+XPR, Jl. Syiah Kuala lorong widuri No.2, Suak Ribee, Kec. Johan Pahlawan, Kabupaten Aceh Barat, Aceh";"Kabupaten Aceh Barat, Aceh";"ACEH";"";"Indonesia";"";"4.1549846";"96.1142826";"https://maps.google.com/?cid=0x0:0xb536cc8b199d3964"
"housing complex";"housing complex";"KOMPLEK PERMATA RESIDENCE";"54C7+V92, Seuneubok, Kec. Johan Pahlawan, Kabupaten Aceh Barat, Aceh 23617";"Seuneubok, Kec. Johan Pahlawan, Kabupaten Aceh Barat";"ACEH";"23617";"Indonesia";" 085297400259";"4.1731535";"96.1135939";"https://maps.google.com/?cid=0x0:0x407105fe93304dad"
"housing complex";"Komplek perumahan";"Suak Sigadeng Residence";"Jln.H.Daud Dariah 2.Suak Indra puri kec.Johan Pahlawan Kab.Aceh Barat, Suak Sigadeng, Kec. Johan Pahlawan, Kabupaten Aceh Barat, Aceh 23617";"Suak Sigadeng, Kec. Johan Pahlawan, Kabupaten Aceh Barat";"ACEH";"23617";"Indonesia";"";"4.1682757";"96.1096597";"https://maps.google.com/?cid=0x0:0xa8e7f4090a282665"
"housing complex";"Komplek perumahan";"!®";"Gampa, Kec. Johan Pahlawan, Kabupaten Aceh Barat, Aceh 23617";"Kec. Johan Pahlawan, Kabupaten Aceh Barat";"ACEH";"23617";"Indonesia";" 085360322230";"4.1689375";"96.1288125";"https://maps.google.com/?cid=0x0:0x2bb3ff7d9f91ea77"
"housing complex";"Pembangunan Perumahan";"rumah saya";"546F+FWW, Seuneubok, Kec. Johan Pahlawan, Kabupaten Aceh Barat, Aceh";"Kabupaten Aceh Barat, Aceh";"ACEH";"";"Indonesia";"";"4.1612282";"96.1248162";"https://maps.google.com/?cid=0x0:0x6ab9d5ba69e3d205"
"housing complex";"Komplek perumahan";"Rumah muntahar";"54FC+R6V, Seuneubok, Kec. Johan Pahlawan, Kabupaten Aceh Barat, Aceh 23611";"Seuneubok, Kec. Johan Pahlawan, Kabupaten Aceh Barat";"ACEH";"23611";"Indonesia";"";"4.1746041";"96.1205395";"https://maps.google.com/?cid=0x0:0x252ae028982e8f37"
"housing complex";"Pembangunan Perumahan";"Perumahan Sultan";"5469+PJW, Seuneubok, Kec. Johan Pahlawan, Kabupaten Aceh Barat, Aceh 23617";"Seuneubok, Kec. Johan Pahlawan, Kabupaten Aceh Barat";"ACEH";"23617";"Indonesia";"";"4.1617585";"96.1191259";"https://maps.google.com/?cid=0x0:0x906ed515a05ffab"
"housing complex";"Dokter Keluarga";"Rumah orang tua";"5479+746, Jl. Beringin Maju, Seuneubok, Kec. Johan Pahlawan, Kabupaten Aceh Barat, Aceh 23617";"Jl. Beringin Maju, Seuneubok, Kec. Johan Pahlawan, Kabupaten Aceh Barat";"ACEH";"23617";"Indonesia";"";"4.1637652";"96.1180177";"https://maps.google.com/?cid=0x0:0x6681f2256a111caa"
"housing complex";"Perumahan";"Perumahan Gen Residence";"54CC+589, Seuneubok, Kec. Johan Pahlawan, Kabupaten Aceh Barat, Aceh 23617";"Seuneubok, Kec. Johan Pahlawan, Kabupaten Aceh Barat";"ACEH";"23617";"Indonesia";"";"4.1700601";"96.1214031";"https://maps.google.com/?cid=0x0:0x308bdf86ab45b089"
"housing complex";"Pembangunan Perumahan";"House FR";"546F+832, Seuneubok, Kec. Johan Pahlawan, Kabupaten Aceh Barat, Aceh 23616";"Seuneubok, Kec. Johan Pahlawan, Kabupaten Aceh Barat";"ACEH";"23616";"Indonesia";"";"4.1602558";"96.12259";"https://maps.google.com/?cid=0x0:0xb5d32f68a5aafb5d"
"housing complex";"Komplek perumahan";"RUMAH MINIMALIS TGK H. ADAMAN";"C882+QJW, Jl, Pante Ceureumen, Kec. Pantai Ceuremen, Kabupaten Aceh Barat, Aceh";"Kabupaten Aceh Barat, Aceh";"ACEH";"";"Indonesia";"";"4.4169755";"96.3015708";"https://maps.google.com/?cid=0x0:0xc51bd9c67c4b98da"
"housing complex";"housing complex";"Pante Ceureumen";"Kec. Pantai Ceuremen, Kabupaten Aceh Barat, Aceh";"Kabupaten Aceh Barat, Aceh";"ACEH";"";"Indonesia";"";"4.4094535";"96.3093164";"https://maps.google.com/?cid=0x0:0xf240303722d487ec"
"housing complex";"Komplek perumahan";"Rumah Yanti";"C75V+JC9, Manjeng, Kec. Pantai Ceuremen, Kabupaten Aceh Barat, Aceh 23681";"Manjeng, Kec. Pantai Ceuremen, Kabupaten Aceh Barat";"ACEH";"23681";"Indonesia";"";"4.4090434";"96.2935969";"https://maps.google.com/?cid=0x0:0x50c7ecf5325f5f46"
"housing complex";"Pembangunan Perumahan";"Rumah sudir";"C8X7+FJ, Canggai, Kec. Pantai Ceuremen, Kabupaten Aceh Barat, Aceh";"Kabupaten Aceh Barat, Aceh";"ACEH";"";"Indonesia";"";"4.4493493";"96.3139482";"https://maps.google.com/?cid=0x0:0x29ccfb4856b803c1"
"housing complex";"Komplek perumahan";"Rumah fitri";"968V+J56, Menuang Kinco, Kec. Pantai Ceuremen, Kabupaten Aceh Barat, Aceh 23681";"Menuang Kinco, Kec. Pantai Ceuremen, Kabupaten Aceh Barat";"ACEH";"23681";"Indonesia";"";"4.3665463";"96.2429045";"https://maps.google.com/?cid=0x0:0xe76f544a7056480c"
"housing complex";"Komplek perumahan";"Rumah Jamarullah/Rahma/Rizal";"C8F2+V9P, Lango, Kec. Pantai Ceuremen, Kabupaten Aceh Barat, Aceh 23681";"Lango, Kec. Pantai Ceuremen, Kabupaten Aceh Barat";"ACEH";"23681";"Indonesia";"";"4.4235615";"96.3005692";"https://maps.google.com/?cid=0x0:0xc68c6ec0546d6fac"
"housing complex";"Perhimpunan Pengembang Perumahan";"Rumah iskandari";"9699+PJ7, Lhok Guci, Kec. Pantai Ceuremen, Kabupaten Aceh Barat, Aceh 23681";"Lhok Guci, Kec. Pantai Ceuremen, Kabupaten Aceh Barat";"ACEH";"23681";"Indonesia";"";"4.3692943";"96.2190386";"https://maps.google.com/?cid=0x0:0x5e22bf4beb2c0e32"
"housing complex";"Komplek perumahan";"Rumah kak pen";"98JC+JP, Sikundo, Kec. Pantai Ceuremen, Kabupaten Aceh Barat, Aceh";"Kabupaten Aceh Barat, Aceh";"ACEH";"";"Indonesia";"";"4.3817569";"96.3210644";"https://maps.google.com/?cid=0x0:0x24ca142592d36221"
"housing complex";"Pembangunan Perumahan";"𝑺𝒆𝒖𝒎𝒂𝒏𝒕𝒐𝒌";"97XC+QJG, Seumantok, Kec. Pantai Ceuremen, Kabupaten Aceh Barat, Aceh 23680";"Seumantok, Kec. Pantai Ceuremen, Kabupaten Aceh Barat";"ACEH";"23680";"Indonesia";"";"4.3994375";"96.2715781";"https://maps.google.com/?cid=0x0:0x35cf722efc5e4627"
"housing complex";"Gedung Apartemen";"Rumah IBNU KATAB";"C8V4+W98, Lawet, Kec. Pantai Ceuremen, Kabupaten Aceh Barat, Aceh 23681";"Lawet, Kec. Pantai Ceuremen, Kabupaten Aceh Barat";"ACEH";"23681";"Indonesia";"";"4.4447826";"96.3059546";"https://maps.google.com/?cid=0x0:0xceb9e339bc2b1fdd"
"housing complex";"Komplek perumahan";"Juli maulidia";"98JC+GM8, Sikundo, Kec. Pantai Ceuremen, Kabupaten Aceh Barat, Aceh 23681";"Sikundo, Kec. Pantai Ceuremen, Kabupaten Aceh Barat";"ACEH";"23681";"Indonesia";"";"4.3812845";"96.3216964";"https://maps.google.com/?cid=0x0:0x6e7a1ee9650e2b7e"
"housing complex";"housing complex";"rumah Adin";"9635+Q9W, Lhok Sari, Kec. Pantai Ceuremen, Kabupaten Aceh Barat, Aceh 23681";"Lhok Sari, Kec. Pantai Ceuremen, Kabupaten Aceh Barat";"ACEH";"23681";"Indonesia";"";"4.3544966";"96.208466";"https://maps.google.com/?cid=0x0:0xa1c922ba2b6780e7"
"housing complex";"Pembangunan Perumahan";"Yah Li sound sistem";"952Q+RXV, Babah Krueng Teklep, Kec. Pantai Ceuremen, Kabupaten Aceh Barat, Aceh 23681";"Babah Krueng Teklep, Kec. Pantai Ceuremen, Kabupaten Aceh Barat";"ACEH";"23681";"Indonesia";"";"4.352543";"96.189683";"https://maps.google.com/?cid=0x0:0x7031b9de1a558fb5"
"housing complex";"Pusat Perbelanjaan";"Suwak awe";"9623+4Q3, Suwak Awe, Kec. Pantai Ceuremen, Kabupaten Aceh Barat, Aceh 23681";"Suwak Awe, Kec. Pantai Ceuremen, Kabupaten Aceh Barat";"ACEH";"23681";"Indonesia";"";"4.3502534";"96.2044182";"https://maps.google.com/?cid=0x0:0x95cb4b97a5e16678"
"housing complex";"Pembangunan Perumahan";"Dusun ingin sejati";"C649+2JJ, Kuala Manye, Kec. Panton Reu, Kabupaten Aceh Barat, Aceh 23681";"Kuala Manye, Kec. Panton Reu, Kabupaten Aceh Barat";"ACEH";"23681";"Indonesia";"";"4.4050976";"96.2190137";"https://maps.google.com/?cid=0x0:0x93f21378c2bf78fe"
"housing complex";"housing complex";"Kec. Panton Reu";"Kabupaten Aceh Barat, Aceh";"Kabupaten Aceh Barat, Aceh";"ACEH";"";"Indonesia";"";"4.4017347";"96.2074781";"https://maps.google.com/?cid=0x0:0x902220a2606eab5"
"housing complex";"housing complex";"rumah Adin";"9635+Q9W, Lhok Sari, Kec. Pantai Ceuremen, Kabupaten Aceh Barat, Aceh 23681";"Lhok Sari, Kec. Pantai Ceuremen, Kabupaten Aceh Barat";"ACEH";"23681";"Indonesia";"";"4.3544966";"96.208466";"https://maps.google.com/?cid=0x0:0xa1c922ba2b6780e7"
"housing complex";"Komplek perumahan";"Rumah Putri Maharani";"95MX+C46, Jl. Geumpang - Tutut, Gampong Baro, Kec. Panton Reu, Kabupaten Aceh Barat, Aceh 23681";"Jl. Geumpang - Tutut, Gampong Baro, Kec. Panton Reu, Kabupaten Aceh Barat";"ACEH";"23681";"Indonesia";"";"4.3835041";"96.1977738";"https://maps.google.com/?cid=0x0:0x79ea25592c913a84"
"housing complex";"Pembangunan Perumahan";"Syarifah Marhamah";"C5QJ+VX, Baro Paya, Kec. Panton Reu, Kabupaten Aceh Barat, Aceh";"Kabupaten Aceh Barat, Aceh";"ACEH";"";"Indonesia";"";"4.4397263";"96.182435";"https://maps.google.com/?cid=0x0:0x5d4e3b1c5e0a292c"
"housing complex";"Perhimpunan Pengembang Perumahan";"Rumah Kasmi";"956R+CW, Babah Krueng Manggie, Kec. Panton Reu, Kabupaten Aceh Barat, Aceh 23681";"Babah Krueng Manggie, Kec. Panton Reu, Kabupaten Aceh Barat";"ACEH";"23681";"Indonesia";"";"4.361115";"96.1923836";"https://maps.google.com/?cid=0x0:0x9439c9effaf689f1"
"housing complex";"Pembangunan Perumahan";"Rumah M. Amin";"956M+RW, Gn. Mata Ie, Kec. Panton Reu, Kabupaten Aceh Barat, Aceh";"Kabupaten Aceh Barat, Aceh";"ACEH";"";"Indonesia";"";"4.3620175";"96.1848575";"https://maps.google.com/?cid=0x0:0xc8c101e40da7f8d2"
"housing complex";"Komplek perumahan";"Desa lek lek";"95HP+2G5, Lek Lek, Kec. Panton Reu, Kabupaten Aceh Barat, Aceh 23681";"Lek Lek, Kec. Panton Reu, Kabupaten Aceh Barat";"ACEH";"23681";"Indonesia";"";"4.3767038";"96.186765";"https://maps.google.com/?cid=0x0:0x20ebb1575b3624c7"
"housing complex";"Kantor Perusahaan";"Mess PT Sapta sentosa jaya abadi";"C5XC+WC9, Baro Paya, Kec. Panton Reu, Kabupaten Aceh Barat, Aceh";"Kabupaten Aceh Barat, Aceh";"ACEH";"";"Indonesia";"";"4.4497807";"96.1711021";"https://maps.google.com/?cid=0x0:0xc43ee12b4e1ed7a6"
"housing complex";"Pembangunan Perumahan";"Perumahan Khazanah";"F533+P34, Alue Kuyuen, Kec. Woyla Tim., Kabupaten Aceh Barat, Aceh 23681";"Alue Kuyuen, Kec. Woyla Tim., Kabupaten Aceh Barat";"ACEH";"23681";"Indonesia";"";"4.4542745";"96.1526985";"https://maps.google.com/?cid=0x0:0x9dd447ac1e729af4"
"housing complex";"Komplek perumahan";"Rumah Yanti";"C75V+JC9, Manjeng, Kec. Pantai Ceuremen, Kabupaten Aceh Barat, Aceh 23681";"Manjeng, Kec. Pantai Ceuremen, Kabupaten Aceh Barat";"ACEH";"23681";"Indonesia";"";"4.4090434";"96.2935969";"https://maps.google.com/?cid=0x0:0x50c7ecf5325f5f46"
"housing complex";"Pembangunan Perumahan";"Mariana pulsa";"C5JJ+9PX, Mugo Rayeuk, Kec. Panton Reu, Kabupaten Aceh Barat, Aceh 23681";"Mugo Rayeuk, Kec. Panton Reu, Kabupaten Aceh Barat";"ACEH";"23681";"Indonesia";"";"4.4309926";"96.1818684";"https://maps.google.com/?cid=0x0:0x16c84d48f3114636"
"housing complex";"Komplek perumahan";"Apa";"85RJ+5Q8, Padang Sikabu, Kec. Kaway XVI, Kabupaten Aceh Barat, Aceh 23681";"Padang Sikabu, Kec. Kaway XVI, Kabupaten Aceh Barat";"ACEH";"23681";"Indonesia";"";"4.3404007";"96.1819666";"https://maps.google.com/?cid=0x0:0x7046e58f02f248c"
"housing complex";"Kompleks Townhouse";"Perumahan budha tzu-chi aceh barat";"F533+P34 komplek budha tzu chi, Jalan Haji dariah, Alue Kuyuen, Kec. Woyla Tim., Kabupaten Aceh Barat, Aceh";"Kabupaten Aceh Barat, Aceh";"ACEH";"";"Indonesia";" 082273306205";"4.4542745";"96.1526985";"https://maps.google.com/?cid=0x0:0xbfac0f1ce1247b55"
"housing complex";"Perhimpunan Pengembang Perumahan";"M Husein";"G383+72G, Gleung, Kec. Sungai MAS, Kabupaten Aceh Barat, Aceh 23683";"Gleung, Kec. Sungai MAS, Kabupaten Aceh Barat";"ACEH";"23683";"Indonesia";"";"4.5160448";"96.0514967";"https://maps.google.com/?cid=0x0:0x1ddc98b46128389d"
"housing complex";"Komplek perumahan";"Rumoh khairunnas";"G38H+CR, Tanoh Mirah, Kec. Sungai MAS, Kabupaten Aceh Barat, Aceh";"Kabupaten Aceh Barat, Aceh";"ACEH";"";"Indonesia";"";"4.516104";"96.0795965";"https://maps.google.com/?cid=0x0:0x400871d0a2b00f8d"
"housing complex";"housing complex";"Aceh 23681";"Kabupaten Aceh Barat, Aceh";"Kabupaten Aceh Barat, Aceh";"ACEH";"";"Indonesia";"";"4.4129708";"96.195132";"https://maps.google.com/?cid=0x0:0x75d543d4e33374a6"
"housing complex";"Perhimpunan Pengembang Perumahan";"Rm.kanda mansur Lb";"G24R+QCJ, Leubok Beutong, Kec. Sungai MAS, Kabupaten Aceh Barat, Aceh";"Kabupaten Aceh Barat, Aceh";"ACEH";"";"Indonesia";"";"4.5069586";"96.0410133";"https://maps.google.com/?cid=0x0:0xd43dacbae250cf34"
"housing complex";"Pertanian";"Gampong Ulee Pulo";"92FM+W53, Drien Sibak, Kec. Sungai MAS, Kabupaten Aceh Barat, Aceh 23654";"Drien Sibak, Kec. Sungai MAS, Kabupaten Aceh Barat";"ACEH";"23654";"Indonesia";"";"4.374768";"96.0329289";"https://maps.google.com/?cid=0x0:0xb58b903587b89b0"
"housing complex";"Komplek perumahan";"Temporary Mess";"55WX+RJQ, Balee, Kec. Meureubo, Kabupaten Aceh Barat, Aceh 23681";"Balee, Kec. Meureubo, Kabupaten Aceh Barat";"ACEH";"23681";"Indonesia";"";"4.1979079";"96.1985119";"https://maps.google.com/?cid=0x0:0x33ee96ff9606dfbe"
"housing complex";"Komplek perumahan";"Rumah mas juli";"54HR+94C, Lapang, Kec. Johan Pahlawan, Kabupaten Aceh Barat, Aceh 23618";"Lapang, Kec. Johan Pahlawan, Kabupaten Aceh Barat";"ACEH";"23618";"Indonesia";"";"4.1784375";"96.1402656";"https://maps.google.com/?cid=0x0:0xab6d65a0eee06a4c"
"housing complex";"Komplek perumahan";"Rumah desi";"54VR+HM5, Meulaboh, Blang Berandang, Kec. Johan Pahlawan, Kabupaten Aceh Barat, Aceh 23611";"Meulaboh, Blang Berandang, Kec. Johan Pahlawan, Kabupaten Aceh Barat";"ACEH";"23611";"Indonesia";"";"4.1938905";"96.1417496";"https://maps.google.com/?cid=0x0:0xb8a614cc14be9e40"
"housing complex";"Komplek perumahan";"Saiful Dja'far's House";"63MH+644, Paya Lumpat, Kec. Samatiga, Kabupaten Aceh Barat, Aceh 23652";"Paya Lumpat, Kec. Samatiga, Kabupaten Aceh Barat";"ACEH";"23652";"Indonesia";"";"4.2330109";"96.0778226";"https://maps.google.com/?cid=0x0:0xd7dab375a642669a"
"housing complex";"Komplek perumahan";"Rumah asyikin";"65G5+6PH, Padang Mancang, Kec. Kaway XVI, Kabupaten Aceh Barat, Aceh 23681";"Padang Mancang, Kec. Kaway XVI, Kabupaten Aceh Barat";"ACEH";"23681";"Indonesia";"";"4.2255693";"96.1593524";"https://maps.google.com/?cid=0x0:0x84be0a4f8366d5d0"
"housing complex";"Komplek perumahan";"Rumah pidos";"54XW+GRG, Pasi Jambu, Kec. Kaway XVI, Kabupaten Aceh Barat, Aceh 23681";"Pasi Jambu, Kec. Kaway XVI, Kabupaten Aceh Barat";"ACEH";"23681";"Indonesia";"";"4.1988093";"96.1470685";"https://maps.google.com/?cid=0x0:0xcbf5112917fb74d"
"housing complex";"Kompleks Kondominium";"Rumah Amay";"65G7+5JH, Mesjid, Kec. Kaway XVI, Kabupaten Aceh Barat, Aceh 23681";"Mesjid, Kec. Kaway XVI, Kabupaten Aceh Barat";"ACEH";"23681";"Indonesia";"";"4.2254376";"96.1641022";"https://maps.google.com/?cid=0x0:0x3a950b8266d535d7"
"housing complex";"";"Perumahan OF7 KTS";"C32X+HMV, Paya Luah, Kec. Woyla, Kabupaten Aceh Barat, Aceh 23654";"Paya Luah, Kec. Woyla, Kabupaten Aceh Barat";"ACEH";"23654";"Indonesia";"";"4.4014786";"96.099186";"https://maps.google.com/?cid=0x0:0x2c80d386c4fe8beb"
"housing complex";"Komplek perumahan";"MHd.DiaZ";"93XC+66P, Alue Sikaya, Kec. Woyla, Kabupaten Aceh Barat, Aceh 23654";"Alue Sikaya, Kec. Woyla, Kabupaten Aceh Barat";"ACEH";"23654";"Indonesia";"";"4.3980965";"96.0705843";"https://maps.google.com/?cid=0x0:0x1b05cadb779b51df"
"housing complex";"Perhimpunan Pengembang Perumahan";"M Husein";"G383+72G, Gleung, Kec. Sungai MAS, Kabupaten Aceh Barat, Aceh 23683";"Gleung, Kec. Sungai MAS, Kabupaten Aceh Barat";"ACEH";"23683";"Indonesia";"";"4.5160448";"96.0514967";"https://maps.google.com/?cid=0x0:0x1ddc98b46128389d"
"housing complex";"Komplek perumahan";"Rumoh khairunnas";"G38H+CR, Tanoh Mirah, Kec. Sungai MAS, Kabupaten Aceh Barat, Aceh";"Kabupaten Aceh Barat, Aceh";"ACEH";"";"Indonesia";"";"4.516104";"96.0795965";"https://maps.google.com/?cid=0x0:0x400871d0a2b00f8d"
