Category,Real Category,Business Name,Address,City,State,Postal Code,Country,Phone,Latitude,Longitude,Map Link
cafe,cafe,Distrik Anggi,"Kab. Pegunungan Arfak, Papua Bar.","Kab. Pegunungan Arfak, Papua Bar.",PAPUA BARAT,,Indonesia,,-1.3260424,133.9158721,https://maps.google.com/?cid=0x0:0xfcf8f2554dc74d7d
cafe,Kedai Kopi,Wisdom Caffe,"MWF8+H8Q, Jl. Pasir Putih, Kenari Tinggi, Distrik Anggi, Kabupaten Manokwari, Papua Bar.","Kabupaten Manokwari, Papua Bar.",PAPUA BARAT,,Indonesia,,-1.3260424,133.9158721,https://maps.google.com/?cid=0x0:0xe21e944d6e56515f
cafe,Padang,Rumah Makan Pesona Anggi,"MWG8+H6X, Suteibey, Distrik Anggi, Kabupaten Manokwari, Papua Bar. 98354","Suteibey, Distrik Anggi, Kabupaten Manokwari",PAPUA BARAT,98354.0,Indonesia,81248476719.0,-1.3235004,133.9156232,https://maps.google.com/?cid=0x0:0xf98382fbcaabfb74
cafe,Pusat Perbelanjaan,Toko anggi jaya,"MWF7+6VJ Snomeba/Snoembebaba Airport, Imbai, Distrik Anggi, Kabupaten Manokwari, Papua Bar. 98354","Imbai, Distrik Anggi, Kabupaten Manokwari",PAPUA BARAT,98354.0,Indonesia,82399480074.0,-1.3269171,133.9146373,https://maps.google.com/?cid=0x0:0xfbef5cdf383f76ce
cafe,Rumah Makan,Warung Segeri Indah,"Ingebai / Imbeisba, Distrik Anggi, Kab. Pegunungan Arfak, Papua Bar. 98355","Distrik Anggi, Kab. Pegunungan Arfak",PAPUA BARAT,98355.0,Indonesia,,-1.3244725,133.9174685,https://maps.google.com/?cid=0x0:0x57fe42ee9f5808f
cafe,Toko bahan makanan,Pasar Masyarakat Anggi,"MWF7+W3W Snomeba/Snoembebaba Airport, Imbai, Distrik Anggi, Kabupaten Manokwari, Papua Bar. 98354","Imbai, Distrik Anggi, Kabupaten Manokwari",PAPUA BARAT,98354.0,Indonesia,,-1.3251258,133.9127163,https://maps.google.com/?cid=0x0:0x9e991bffdfa645eb
cafe,Kafe,Cafee Anggi Kusnadi,"FW5M+9J6, Pabuaran, Kec. Sukamakmur, Kabupaten Bogor, Jawa Barat 16830","Pabuaran, Kec. Sukamakmur, Kabupaten Bogor",PAPUA BARAT,16830.0,Indonesia,81213552325.0,-6.5415835,106.9340156,https://maps.google.com/?cid=0x0:0xc1165b35a82b0911
cafe,Kafe,Cafe Anggie,"HQX8+H2W, Sawangan Baru, Kec. Sawangan, Kota Depok, Jawa Barat 16511","Sawangan Baru, Kec. Sawangan, Kota Depok",PAPUA BARAT,16511.0,Indonesia,,-6.4010059,106.7650738,https://maps.google.com/?cid=0x0:0xf4db9d33e6258b39
cafe,Kafe,Kedai Anggita,"MR3G+HQ9 Tower, Jl. Utama No.3, RT.3/RW.15, Srengseng Sawah, Kec. Jagakarsa, Kota Jakarta Selatan, Daerah Khusus Ibukota Jakarta 12640","Jl. Utama No.3, RT.3/RW.15, Srengseng Sawah, Kec. Jagakarsa, Kota Jakarta Selatan",PAPUA BARAT,12640.0,Indonesia,,-6.3460431,106.8270227,https://maps.google.com/?cid=0x0:0x983961d428bdc522
cafe,Kedai Kopi,Warung Emak anggi,"V2X2+G4C Des, Jl. PLTGU Muara Tawar No. 1 Jl. Kp. Pegadungan, RT.02/RW.17, Pantai Makmur, Kec. Tarumajaya, Kabupaten Bekasi, Jawa Barat 17212","Jl. PLTGU Muara Tawar No. 1 Jl. Kp. Pegadungan, RT.02/RW.17, Pantai Makmur, Kec. Tarumajaya, Kabupaten Bekasi",PAPUA BARAT,17212.0,Indonesia,,-6.1011942,107.0002762,https://maps.google.com/?cid=0x0:0x9edcfe554155d958
cafe,Kedai Kopi,Rumah Anggi,"Jl. Pekayon 1 No.25, RT.2/RW.3, Ragunan, Ps. Minggu, Kota Jakarta Selatan, Daerah Khusus Ibukota Jakarta 12540","RT.2/RW.3, Ragunan, Ps. Minggu, Kota Jakarta Selatan",PAPUA BARAT,12540.0,Indonesia,,-6.2826715,106.8245792,https://maps.google.com/?cid=0x0:0xd85cd07ae54c5cad
cafe,Kafe,Anggie 05,"HP46+W7W, Unnamed Road, Iwul, Kec. Parung, Kabupaten Bogor, Jawa Barat 16330","Unnamed Road, Iwul, Kec. Parung, Kabupaten Bogor",PAPUA BARAT,16330.0,Indonesia,89638766892.0,-6.4426327,106.7107147,https://maps.google.com/?cid=0x0:0xc0fb230a3bfad166
cafe,cafe,Kec. Anggi Gida,"Kab. Pegunungan Arfak, Papua Bar.","Kab. Pegunungan Arfak, Papua Bar.",PAPUA BARAT,,Indonesia,,-1.3668114,133.9609514,https://maps.google.com/?cid=0x0:0xb4bc71d5f83c5185
cafe,cafe,Danau Anggi Gida,"Kab. Pegunungan Arfak, Papua Bar.","Kab. Pegunungan Arfak, Papua Bar.",PAPUA BARAT,,Indonesia,,-1.3963314,133.9532149,https://maps.google.com/?cid=0x0:0xd222eb659585412a
cafe,cafe,Anggi Gida,"Kab. Pegunungan Arfak, Papua Bar.","Kab. Pegunungan Arfak, Papua Bar.",PAPUA BARAT,,Indonesia,,-1.3958835,133.9722816,https://maps.google.com/?cid=0x0:0x8008ad12448ea805
cafe,Kedai Kopi,Wisdom Caffe,"MWF8+H8Q, Jl. Pasir Putih, Kenari Tinggi, Distrik Anggi, Kabupaten Manokwari, Papua Bar.","Kabupaten Manokwari, Papua Bar.",PAPUA BARAT,,Indonesia,,-1.3260424,133.9158721,https://maps.google.com/?cid=0x0:0xe21e944d6e56515f
cafe,Pusat Perbelanjaan,Toko anggi jaya,"MWF7+6VJ Snomeba/Snoembebaba Airport, Imbai, Distrik Anggi, Kabupaten Manokwari, Papua Bar. 98354","Imbai, Distrik Anggi, Kabupaten Manokwari",PAPUA BARAT,98354.0,Indonesia,82399480074.0,-1.3269171,133.9146373,https://maps.google.com/?cid=0x0:0xfbef5cdf383f76ce
cafe,Rumah Makan,Warung Makan,"MWG8+6X4, Suteibey, Distrik Anggi, Kab. Pegunungan Arfak, Papua Bar.","Kab. Pegunungan Arfak, Papua Bar.",PAPUA BARAT,,Indonesia,,-1.3244789,133.9174574,https://maps.google.com/?cid=0x0:0x2b8056b740f400f8
cafe,Toko bahan makanan,Pasar Masyarakat Anggi,"MWF7+W3W Snomeba/Snoembebaba Airport, Imbai, Distrik Anggi, Kabupaten Manokwari, Papua Bar. 98354","Imbai, Distrik Anggi, Kabupaten Manokwari",PAPUA BARAT,98354.0,Indonesia,,-1.3251258,133.9127163,https://maps.google.com/?cid=0x0:0x9e991bffdfa645eb
cafe,Rumah Makan,Warung Segeri Indah,"Ingebai / Imbeisba, Distrik Anggi, Kab. Pegunungan Arfak, Papua Bar. 98355","Distrik Anggi, Kab. Pegunungan Arfak",PAPUA BARAT,98355.0,Indonesia,,-1.3244725,133.9174685,https://maps.google.com/?cid=0x0:0x57fe42ee9f5808f
cafe,cafe,Cafe bambu,"JXJ3+P7G, Sibiogud, Kec. Anggi Gida, Kabupaten Manokwari, Papua Bar. 98354","Sibiogud, Kec. Anggi Gida, Kabupaten Manokwari",PAPUA BARAT,98354.0,Indonesia,82399116683.0,-1.3681761,133.9532149,https://maps.google.com/?cid=0x0:0xa9c6e12063011897
cafe,Kafe,Cafe Anggie,"HQX8+H2W, Sawangan Baru, Kec. Sawangan, Kota Depok, Jawa Barat 16511","Sawangan Baru, Kec. Sawangan, Kota Depok",PAPUA BARAT,16511.0,Indonesia,,-6.4010059,106.7650738,https://maps.google.com/?cid=0x0:0xf4db9d33e6258b39
cafe,Klub Malam,cafe anggita,"C33W+638, Jl. H. A. M. M. Rifaddin, Loa Janan Ulu, Kec. Loa Janan, Kota Samarinda, Kalimantan Timur 75251","Jl. H. A. M. M. Rifaddin, Loa Janan Ulu, Kec. Loa Janan, Kota Samarinda",PAPUA BARAT,75251.0,Indonesia,,-0.5969528,117.0951906,https://maps.google.com/?cid=0x0:0x36d2a161b1e6d01b
cafe,Sesuai untuk keluarga,Dapur anggie,"Jl. Nanas 4 No.24, Parung Panjang, Kec. Parung Panjang, Kabupaten Bogor, Jawa Barat 16360","Parung Panjang, Kec. Parung Panjang, Kabupaten Bogor",PAPUA BARAT,16360.0,Indonesia,82246929250.0,-6.356444,106.5658108,https://maps.google.com/?cid=0x0:0xef36f7757662ce6c
cafe,cafe,kem,"XM83+P9, Ijigrek, Distrik Catubouw, Kab. Pegunungan Arfak, Papua Bar.","Kab. Pegunungan Arfak, Papua Bar.",PAPUA BARAT,,Indonesia,,-1.0332255,133.6534235,https://maps.google.com/?cid=0x0:0xeebe2af171fc323
cafe,cafe,Papua Bar. 98359,Papua Bar.,Papua Bar.,PAPUA BARAT,,Indonesia,,-1.5213839,133.7525619,https://maps.google.com/?cid=0x0:0xc8a895044b18d7c8
cafe,Kedai Kopi,Coffee Shop Ss,"Jl. Kebun Cengkeh No.L7, irman jaya, Kec. Manokwari Bar., Kabupaten Manokwari, Papua Bar. 98312","irman jaya, Kec. Manokwari Bar., Kabupaten Manokwari",PAPUA BARAT,98312.0,Indonesia,,-0.8400307,134.0536764,https://maps.google.com/?cid=0x0:0x6af1aabb6b0c17cd
cafe,Kedai Kopi,Wisdom Caffe,"MWF8+H8Q, Jl. Pasir Putih, Kenari Tinggi, Distrik Anggi, Kabupaten Manokwari, Papua Bar.","Kabupaten Manokwari, Papua Bar.",PAPUA BARAT,,Indonesia,,-1.3260424,133.9158721,https://maps.google.com/?cid=0x0:0xe21e944d6e56515f
cafe,Kedai Kopi,Do.pyocoffee,"Jl. Sungai Maruni masuk No.km 10, Klawuyuk, Distrik Sorong Timur, Kota Sorong, Papua Bar. 98416","Klawuyuk, Distrik Sorong Timur, Kota Sorong",PAPUA BARAT,98416.0,Indonesia,,-0.8880443,131.3199144,https://maps.google.com/?cid=0x0:0xe98eb1eac6ada00d
cafe,Kafe,Coffee Brothers,"Maniwak, Manggurai PEMDA, Iriati, Distrik Wasior, Kabupaten Teluk Wondama, Papua Bar. 98362","Manggurai PEMDA, Iriati, Distrik Wasior, Kabupaten Teluk Wondama",PAPUA BARAT,98362.0,Indonesia,85244343890.0,-2.761305,134.5119245,https://maps.google.com/?cid=0x0:0x40dcc2c8a660e005
cafe,Kedai Kopi,Diyufawa Cafe,"Jl Pasir Putih Kwawi no 110, Pasir Putih, Kec. Manokwari Tim., Kabupaten Manokwari, Papua Bar. 98313","Pasir Putih, Kec. Manokwari Tim., Kabupaten Manokwari",PAPUA BARAT,98313.0,Indonesia,81340910204.0,-0.8703272,134.1077651,https://maps.google.com/?cid=0x0:0xe53177a6026f5212
cafe,Kedai Kopi,Kopi Djuang - Kopi Kue Abepura,"9MR8+8VW Sebelah LPKT ERVICOM, Jl. Raya Abepura Jl. Kali Acai, Kota Baru, Kec. Abepura, Kota Jayapura, Papua 99351","Jl. Raya Abepura Jl. Kali Acai, Kota Baru, Kec. Abepura, Kota Jayapura",PAPUA BARAT,99351.0,Indonesia,,-2.6091271,140.6672017,https://maps.google.com/?cid=0x0:0x348557384f451d62
cafe,Kedai Kopi,Kopi Djuang Jayapura,"Jl. Setiapura II, Gurabesi, Kec. Jayapura Utara, Kota Jayapura, Papua 99221","Gurabesi, Kec. Jayapura Utara, Kota Jayapura",PAPUA BARAT,99221.0,Indonesia,82199559321.0,-2.5449826,140.700933,https://maps.google.com/?cid=0x0:0x91e028251801a721
cafe,Kafe,Tana Papua Coffee and Roastery,"Jl. Raya Abepura, Vim, Kec. Abepura, Kota Jayapura, Papua 99220","Vim, Kec. Abepura, Kota Jayapura",PAPUA BARAT,99220.0,Indonesia,82175416609.0,-2.6047712,140.6727079,https://maps.google.com/?cid=0x0:0x747c727d4b94ebf6
cafe,cafe,Hingk,"Kab. Pegunungan Arfak, Papua Bar.","Kab. Pegunungan Arfak, Papua Bar.",PAPUA BARAT,,Indonesia,,-1.2205844,133.9627492,https://maps.google.com/?cid=0x0:0x3f01e43bc4522fcd
cafe,Korea,EXO Korean Cafe,"Udapi Hilir, Distrik Prafi, Kabupaten Manokwari, Papua Bar. 98356","Distrik Prafi, Kabupaten Manokwari",PAPUA BARAT,98356.0,Indonesia,81245008384.0,-0.8842664,133.8223763,https://maps.google.com/?cid=0x0:0x928b6ce6058bb3fd
cafe,Kedai Kopi,KOPIkir Sendiri Cafe,"425R+QWW Kantor bupati, Sowi, Distrik Manokwari, Kabupaten Manokwari, Papua Bar.","Kabupaten Manokwari, Papua Bar.",PAPUA BARAT,,Indonesia,81354179269.0,-0.8905188,134.0423211,https://maps.google.com/?cid=0x0:0xe18448fb10dff5fd
cafe,Kedai Kopi,Yampi Cafe,"4R8C+J62, Jl. Poros, Aimasi/Sp III Aimasi, Distrik Prafi, Kabupaten Manokwari, Papua Bar. 98356","Jl. Poros, Aimasi/Sp III Aimasi, Distrik Prafi, Kabupaten Manokwari",PAPUA BARAT,98356.0,Indonesia,,-0.8834888,133.8205183,https://maps.google.com/?cid=0x0:0xc35cf86e29fff038
cafe,Indonesia,Cafe Pantai Fasharkan TNI AL,"43H9+C4, Sanggeng, Kec. Manokwari Bar., Kabupaten Manokwari, Papua Bar.","Kabupaten Manokwari, Papua Bar.",PAPUA BARAT,,Indonesia,,-0.8715115,134.0678559,https://maps.google.com/?cid=0x0:0x7da1dcd9f7d226d3
cafe,cafe,Warkopin aja,"3222+RWH, Anday, Distrik Manokwari, Kabupaten Manokwari, Papua Bar. 98315","Anday, Distrik Manokwari, Kabupaten Manokwari",PAPUA BARAT,98315.0,Indonesia,,-0.948599,134.0016671,https://maps.google.com/?cid=0x0:0x534abc6a41bb787d
cafe,cafe,KOPI LAIN HATI ESAU SESA MANOKWARI PAPUA BARAT,"425W+QH9, Sowi, Distrik Manokwari, Kabupaten Manokwari, Papua Bar. 98315","Sowi, Distrik Manokwari, Kabupaten Manokwari",PAPUA BARAT,98315.0,Indonesia,,-0.8905625,134.0464375,https://maps.google.com/?cid=0x0:0xeeac4629465f5523
cafe,cafe,Wedrink Manokwari,"Jl. Drs Esau Sesa, Sowi, Distrik Manokwari, Kabupaten Manokwari, Papua Bar. 98312","Sowi, Distrik Manokwari, Kabupaten Manokwari",PAPUA BARAT,98312.0,Indonesia,81398818808.0,-0.8910755,134.0464671,https://maps.google.com/?cid=0x0:0xac9d0570bd188aa0
cafe,Kedai Kopi,STEAK  SHAKE,"Bar. Papua Bar. 98356, Udapi Hilir, Distrik Prafi, Kabupaten Manokwari, Papua Bar. 98356","Udapi Hilir, Distrik Prafi, Kabupaten Manokwari",PAPUA BARAT,98356.0,Indonesia,,-0.8843499,133.8210703,https://maps.google.com/?cid=0x0:0x65787006c10c733
cafe,Restoran,Cafe Laut,"Jl. Pasir Putih No.7, Pasir Putih, Kec. Manokwari Tim., Kabupaten Manokwari, Papua Bar. 98313","Pasir Putih, Kec. Manokwari Tim., Kabupaten Manokwari",PAPUA BARAT,98313.0,Indonesia,,-0.8790277,134.0896794,https://maps.google.com/?cid=0x0:0xd7761569d030427e
cafe,Restoran,Inggandi Beach Restaurant,"43GV+7Q3, Jl. Pasir Putih No.33, Pasir Putih, Kec. Manokwari Tim., Kabupaten Manokwari, Papua Bar. 98313","Jl. Pasir Putih No.33, Pasir Putih, Kec. Manokwari Tim., Kabupaten Manokwari",PAPUA BARAT,98313.0,Indonesia,81240372255.0,-0.8780927,134.0933631,https://maps.google.com/?cid=0x0:0xba66c7a3124731e6
cafe,Kedai Kopi,Coffee Shop Ss,"Jl. Kebun Cengkeh No.L7, irman jaya, Kec. Manokwari Bar., Kabupaten Manokwari, Papua Bar. 98312","irman jaya, Kec. Manokwari Bar., Kabupaten Manokwari",PAPUA BARAT,98312.0,Indonesia,,-0.8400307,134.0536764,https://maps.google.com/?cid=0x0:0x6af1aabb6b0c17cd
cafe,Kafe,Warkop The Joint,"bambu kuning No.4, Sowi, Distrik Manokwari, Kabupaten Manokwari, Papua Bar. 98313","Sowi, Distrik Manokwari, Kabupaten Manokwari",PAPUA BARAT,98313.0,Indonesia,82397008155.0,-0.9171291,134.0381344,https://maps.google.com/?cid=0x0:0x3a7d647af2873292
cafe,Kedai Kopi,Yudha cafe,"32CP+4JR Kodam, Anday, Distrik Manokwari, Kabupaten Manokwari, Papua Bar.","Kabupaten Manokwari, Papua Bar.",PAPUA BARAT,,Indonesia,82248242183.0,-0.929647,134.0365093,https://maps.google.com/?cid=0x0:0x4c4168ac9da84251
cafe,cafe,Kec. Membey,"Kab. Pegunungan Arfak, Papua Bar.","Kab. Pegunungan Arfak, Papua Bar.",PAPUA BARAT,,Indonesia,,-1.3416452,134.0336402,https://maps.google.com/?cid=0x0:0x6db50f43a0973078
cafe,Kafe,RESISTANCE CAFE (24 JAM),"Ruko, Jl. Pacific Permai, belakang kantor, KADIN, Papua",Papua,PAPUA BARAT,,Indonesia,,-2.5376957,140.7086088,https://maps.google.com/?cid=0x0:0x633297421a426da1
cafe,Kedai Kopi,Kedai For Rest,"Jl. Yos Sudarso, Sanggeng, Kec. Manokwari Bar., Kabupaten Manokwari, Papua Bar. 98312","Sanggeng, Kec. Manokwari Bar., Kabupaten Manokwari",PAPUA BARAT,98312.0,Indonesia,85354223994.0,-0.8704591,134.0640764,https://maps.google.com/?cid=0x0:0x9fe045cbbcce5c07
cafe,Kedai Kopi,Wisdom Caffe,"MWF8+H8Q, Jl. Pasir Putih, Kenari Tinggi, Distrik Anggi, Kabupaten Manokwari, Papua Bar.","Kabupaten Manokwari, Papua Bar.",PAPUA BARAT,,Indonesia,,-1.3260424,133.9158721,https://maps.google.com/?cid=0x0:0xe21e944d6e56515f
cafe,Padang,Rumah Makan Pesona Anggi,"MWG8+H6X, Suteibey, Distrik Anggi, Kabupaten Manokwari, Papua Bar. 98354","Suteibey, Distrik Anggi, Kabupaten Manokwari",PAPUA BARAT,98354.0,Indonesia,81248476719.0,-1.3235004,133.9156232,https://maps.google.com/?cid=0x0:0xf98382fbcaabfb74
cafe,Kafe,Waanal Coffee And Resto,"Jl. Cendrawasih, Karang Senang, Kec. Kuala Kencana, Kabupaten Mimika, Papua 99910","Karang Senang, Kec. Kuala Kencana, Kabupaten Mimika",PAPUA BARAT,99910.0,Indonesia,81248677897.0,-4.4916566,136.8474106,https://maps.google.com/?cid=0x0:0xe6f6936c8a14d771
cafe,Kafe,Jamer Time RTB,"43W9+4VF, Jl. Merdeka, Manokwari Tim., Kec. Manokwari Bar., Kabupaten Manokwari, Papua Bar. 98312","Jl. Merdeka, Manokwari Tim., Kec. Manokwari Bar., Kabupaten Manokwari",PAPUA BARAT,98312.0,Indonesia,,-0.8546855,134.0696782,https://maps.google.com/?cid=0x0:0x46c05e97494c1b8e
cafe,Kedai Kopi,Z COFFEE,"42HX+V6C, Jl. Trikora Rendani, Wosi, Kec. Manokwari Bar., Kabupaten Manokwari, Papua Bar. 98312","Jl. Trikora Rendani, Wosi, Kec. Manokwari Bar., Kabupaten Manokwari",PAPUA BARAT,98312.0,Indonesia,81247192526.0,-0.8703133,134.0480103,https://maps.google.com/?cid=0x0:0x52fc52684fc7839c
cafe,Kedai Kopi,Pondok Kopi Matoa,"Jl. Gn. Salju, Amban, Kec. Manokwari Bar., Kabupaten Manokwari, Papua Bar. 98314","Amban, Kec. Manokwari Bar., Kabupaten Manokwari",PAPUA BARAT,98314.0,Indonesia,8114860000.0,-0.8369567,134.0586793,https://maps.google.com/?cid=0x0:0xc2d60275e273b8e2
cafe,Kafe,HONAI KOPI,"Jl. Angkasa Mulyono, Amban, Kec. Manokwari Bar., Kabupaten Manokwari, Papua Bar. 98312","Amban, Kec. Manokwari Bar., Kabupaten Manokwari",PAPUA BARAT,98312.0,Indonesia,82198853071.0,-0.8440426,134.0548234,https://maps.google.com/?cid=0x0:0xc2bdbdcd3365a4df
cafe,Restoran,R.M. MANGGA DUA,"M6MH+JCF, Jl. Manokwari - Bintuni, Sindang Jaya, Kec. Oransbari, Kab. Manokwari Selatan, Papua Bar. 98353","Jl. Manokwari - Bintuni, Sindang Jaya, Kec. Oransbari, Kab. Manokwari Selatan",PAPUA BARAT,98353.0,Indonesia,,-1.3159443,134.228541,https://maps.google.com/?cid=0x0:0x4cccf41410bd39c7
cafe,Kafe,Shalon dan Cafe Janah,"M6F7+29X, Akeju, Kec. Oransbari, Kabupaten Manokwari, Papua Bar. 98353","Akeju, Kec. Oransbari, Kabupaten Manokwari",PAPUA BARAT,98353.0,Indonesia,82238397420.0,-1.3273886,134.2134985,https://maps.google.com/?cid=0x0:0xc16faef60b354aca
cafe,Indonesia,Waroeng sawah,"M67P+J24, Unnamed Road, Muari, Kec. Oransbari, Kab. Manokwari Selatan, Papua Bar. 98353","Unnamed Road, Muari, Kec. Oransbari, Kab. Manokwari Selatan",PAPUA BARAT,98353.0,Indonesia,,-1.3359848,134.2350903,https://maps.google.com/?cid=0x0:0xff152faff9a9e1e5
cafe,Kedai Kopi,ME Coffee,"Seberang Saga, Jl. Cenderawasih Pos No. 86 Ardipura, Entrop, Distrik Jayapura Selatan, Kota Jayapura, Papua 99221","Jl. Cenderawasih Pos No. 86 Ardipura, Entrop, Distrik Jayapura Selatan, Kota Jayapura",PAPUA BARAT,99221.0,Indonesia,8114828411.0,-2.5665645,140.7020391,https://maps.google.com/?cid=0x0:0xcedc6b8445b20d5a
cafe,cafe,Papua Bar. 98359,Papua Bar.,Papua Bar.,PAPUA BARAT,,Indonesia,,-1.5213839,133.7525619,https://maps.google.com/?cid=0x0:0xc8a895044b18d7c8
cafe,Kedai Kopi,Cafe Hollandia Weref,"Jl Weref, Jl. Argapura Jl. Argapura Canon, Pohon Mangga Weref, Kota Jayapura, Papua 99222","Jl. Argapura Jl. Argapura Canon, Pohon Mangga Weref, Kota Jayapura",PAPUA BARAT,99222.0,Indonesia,81247713921.0,-2.5488345,140.7142902,https://maps.google.com/?cid=0x0:0x87f9b22942a90ec8
cafe,Rumah Makan,Warung Segeri Indah,"Ingebai / Imbeisba, Distrik Anggi, Kab. Pegunungan Arfak, Papua Bar. 98355","Distrik Anggi, Kab. Pegunungan Arfak",PAPUA BARAT,98355.0,Indonesia,,-1.3244725,133.9174685,https://maps.google.com/?cid=0x0:0x57fe42ee9f5808f
cafe,Kafe,Waanal Coffee And Resto,"Jl. Cendrawasih, Karang Senang, Kec. Kuala Kencana, Kabupaten Mimika, Papua 99910","Karang Senang, Kec. Kuala Kencana, Kabupaten Mimika",PAPUA BARAT,99910.0,Indonesia,81248677897.0,-4.4916566,136.8474106,https://maps.google.com/?cid=0x0:0xe6f6936c8a14d771
cafe,Kedai Kopi,Wisdom Caffe,"MWF8+H8Q, Jl. Pasir Putih, Kenari Tinggi, Distrik Anggi, Kabupaten Manokwari, Papua Bar.","Kabupaten Manokwari, Papua Bar.",PAPUA BARAT,,Indonesia,,-1.3260424,133.9158721,https://maps.google.com/?cid=0x0:0xe21e944d6e56515f
cafe,Restoran,Oâ Snack Kafe Otoritas,"Jl. Trikora Rendani, Sowi, Distrik Manokwari, Kabupaten Manokwari, Papua Bar. 98313","Sowi, Distrik Manokwari, Kabupaten Manokwari",PAPUA BARAT,98313.0,Indonesia,,-0.8859283,134.0517921,https://maps.google.com/?cid=0x0:0x2b1b712fbfee7434
cafe,Kafe,Oriestom Cafe  Restaurant,"43F2+G88, Jl. Trikora Rendani, Wosi, Kec. Manokwari Bar., Kabupaten Manokwari, Papua Bar. 98312","Jl. Trikora Rendani, Wosi, Kec. Manokwari Bar., Kabupaten Manokwari",PAPUA BARAT,98312.0,Indonesia,,-0.8762199,134.0508422,https://maps.google.com/?cid=0x0:0xe50589caa694703f
cafe,cafe,,,,PAPUA BARAT,,Indonesia,,,,https://maps.google.com/?cid=0x0:0x2b1b712fbfee7434u0026onu0026midu003d/g/11tt8hp39j
cafe,cafe,Taige,"Distrik Taige, Kab. Pegunungan Arfak, Papua Bar.","Kab. Pegunungan Arfak, Papua Bar.",PAPUA BARAT,,Indonesia,,-1.3061081,133.8589634,https://maps.google.com/?cid=0x0:0xaa3439167fad271d
cafe,cafe,Dapur lathifa,"3262+MPJ, Jl. Manokwari - Maruni, Anday, Distrik Manokwari, Kabupaten Manokwari, Papua Bar. 98315","Jl. Manokwari - Maruni, Anday, Distrik Manokwari, Kabupaten Manokwari",PAPUA BARAT,98315.0,Indonesia,85216325001.0,-0.9372011,134.0026461,https://maps.google.com/?cid=0x0:0x69502e62a2eb7af7
cafe,Pujasera,Torang Kofie Manokwari,"Jl. Yos Sudarso No.8, Manokwari Bar., Kec. Manokwari Bar., Kabupaten Manokwari, Papua Bar. 98312","Manokwari Bar., Kec. Manokwari Bar., Kabupaten Manokwari",PAPUA BARAT,98312.0,Indonesia,8114869988.0,-0.8568949,134.0673228,https://maps.google.com/?cid=0x0:0xf637fe327424a42
cafe,cafe,,,,PAPUA BARAT,,Indonesia,,,,https://maps.google.com/?cid=0x0:0xf637fe327424a42u0026onu003dHot+Brown+Sugar+Coffeeu0026midu003d/g/11tbws_byz
cafe,cafe,,,,PAPUA BARAT,,Indonesia,,,,https://maps.google.com/?cid=0x0:0xf637fe327424a42u0026onu003dChoco+Charlotte+Cakeu0026midu003d/g/11tbws_byz
cafe,cafe,,,,PAPUA BARAT,,Indonesia,,,,https://maps.google.com/?cid=0x0:0xf637fe327424a42u0026onu003dKus+Alpukatu0026midu003d/g/11tbws_byz
cafe,cafe,,,,PAPUA BARAT,,Indonesia,,,,https://maps.google.com/?cid=0x0:0xf637fe327424a42u0026onu003dKasbi+Goreng+Sambal+Matahu0026midu003d/g/11tbws_byz
cafe,cafe,,,,PAPUA BARAT,,Indonesia,,,,https://maps.google.com/?cid=0x0:0xf637fe327424a42u0026onu003dKopi+Gula+Aren+Hot+Dan+Apple+Pieu0026midu003d/g/11tbws_byz
cafe,cafe,,,,PAPUA BARAT,,Indonesia,,,,https://maps.google.com/?cid=0x0:0xf637fe327424a42u0026onu003dPisang+Goreng+Crispyu0026midu003d/g/11tbws_byz
cafe,cafe,,,,PAPUA BARAT,,Indonesia,,,,https://maps.google.com/?cid=0x0:0xf637fe327424a42u0026onu003dNasi+Ayam+Ramesu0026midu003d/g/11tbws_byz
cafe,cafe,,,,PAPUA BARAT,,Indonesia,,,,https://maps.google.com/?cid=0x0:0xf637fe327424a42u0026onu003dAyam+Onion+French+Friesu0026midu003d/g/11tbws_byz
cafe,cafe,,,,PAPUA BARAT,,Indonesia,,,,https://maps.google.com/?cid=0x0:0xf637fe327424a42u0026onu003dKasbi+Singkong+Goreng+Sambal+Matahu0026midu003d/g/11tbws_byz
cafe,cafe,,,,PAPUA BARAT,,Indonesia,,,,https://maps.google.com/?cid=0x0:0xf637fe327424a42u0026onu003dCappuccinou0026midu003d/g/11tbws_byz
cafe,cafe,,,,PAPUA BARAT,,Indonesia,,,,https://maps.google.com/?cid=0x0:0xf637fe327424a42u0026onu003dBanana+Choco+Chips+Cakeu0026midu003d/g/11tbws_byz
cafe,Indonesia,Cafe Pantai Fasharkan TNI AL,"43H9+C4, Sanggeng, Kec. Manokwari Bar., Kabupaten Manokwari, Papua Bar.","Kabupaten Manokwari, Papua Bar.",PAPUA BARAT,,Indonesia,,-0.8715115,134.0678559,https://maps.google.com/?cid=0x0:0x7da1dcd9f7d226d3
cafe,cafe,Papua Bar. 98315,"Kabupaten Manokwari, Papua Bar.","Kabupaten Manokwari, Papua Bar.",PAPUA BARAT,,Indonesia,,-1.0762009,133.4452148,https://maps.google.com/?cid=0x0:0xe20d605d60a391b5
cafe,Korea,EXO Korean Cafe,"Udapi Hilir, Distrik Prafi, Kabupaten Manokwari, Papua Bar. 98356","Distrik Prafi, Kabupaten Manokwari",PAPUA BARAT,98356.0,Indonesia,81245008384.0,-0.8842664,133.8223763,https://maps.google.com/?cid=0x0:0x928b6ce6058bb3fd
cafe,Minimarket,Alma Cafe,"4R6V+MP3, Udapi Hilir, Distrik Prafi, Kabupaten Manokwari, Papua Bar.","Kabupaten Manokwari, Papua Bar.",PAPUA BARAT,,Indonesia,85250884487.0,-0.8883733,133.8443,https://maps.google.com/?cid=0x0:0xd4a45aa360eb0400
cafe,Kedai Kopi,Vetcoffee,"Sowi, Distrik Manokwari, Kabupaten Manokwari, Papua Bar. 98315","Distrik Manokwari, Kabupaten Manokwari",PAPUA BARAT,98315.0,Indonesia,81355937646.0,-0.8867838,134.0463915,https://maps.google.com/?cid=0x0:0x99b834a0ad36b9d9
cafe,cafe,fondes cafe  hobbies,"Sowi, Distrik Manokwari, Kabupaten Manokwari, Papua Bar.","Kabupaten Manokwari, Papua Bar.",PAPUA BARAT,,Indonesia,,-0.88554,134.033095,https://maps.google.com/?cid=0x0:0x79bf0769ef3e8a44
cafe,Kedai Kopi,cafein.coffe,"427Q+545, Jl. Mako Brimob, Sowi, Distrik Manokwari, Kabupaten Manokwari, Papua Bar. 98315","Jl. Mako Brimob, Sowi, Distrik Manokwari, Kabupaten Manokwari",PAPUA BARAT,98315.0,Indonesia,85391837778.0,-0.8871873,134.037867,https://maps.google.com/?cid=0x0:0x194e0a32d960d35c
cafe,Kafe,Wilchof Cafe,"Manokwari Tim., Kec. Manokwari Bar., Kabupaten Manokwari, Papua Bar. 98312","Kec. Manokwari Bar., Kabupaten Manokwari",PAPUA BARAT,98312.0,Indonesia,8124801913.0,-0.8418764,134.0699628,https://maps.google.com/?cid=0x0:0xdf7fa1241fcb9fab
cafe,Kedai Kopi,STEAK  SHAKE,"Bar. Papua Bar. 98356, Udapi Hilir, Distrik Prafi, Kabupaten Manokwari, Papua Bar. 98356","Udapi Hilir, Distrik Prafi, Kabupaten Manokwari",PAPUA BARAT,98356.0,Indonesia,,-0.8843499,133.8210703,https://maps.google.com/?cid=0x0:0x65787006c10c733
cafe,Restoran,Oâ Snack Kafe Otoritas,"Jl. Trikora Rendani, Sowi, Distrik Manokwari, Kabupaten Manokwari, Papua Bar. 98313","Sowi, Distrik Manokwari, Kabupaten Manokwari",PAPUA BARAT,98313.0,Indonesia,,-0.8859283,134.0517921,https://maps.google.com/?cid=0x0:0x2b1b712fbfee7434
cafe,Restoran,Cipto Roso  cafe oyisam,"jalan propinsi, Anday, Distrik Manokwari, Kabupaten Manokwari, Papua Bar.","Kabupaten Manokwari, Papua Bar.",PAPUA BARAT,,Indonesia,82210315723.0,-0.930477,134.0176925,https://maps.google.com/?cid=0x0:0xb0e291aca0e01819
cafe,Kedai Kopi,Ekaria Rawandari,"Sp 4 jalur 8 poros, Udapi Hilir, Distrik Prafi, Kabupaten Manokwari, Papua Bar. 98315","Udapi Hilir, Distrik Prafi, Kabupaten Manokwari",PAPUA BARAT,98315.0,Indonesia,81344021010.0,-0.8603606,133.8482142,https://maps.google.com/?cid=0x0:0x873e8d4f8350493e
cafe,Restoran,Garo Rica,"Jl. Pertanian Wosi No.18, Udapi Hilir, Kecamatan Manokwari Barat, Kabupaten Manokwari, Papua Bar. 98312","Udapi Hilir, Kecamatan Manokwari Barat, Kabupaten Manokwari",PAPUA BARAT,98312.0,Indonesia,81344757627.0,-0.8843551,133.83651,https://maps.google.com/?cid=0x0:0xdad9ce68da8cadb4
cafe,Rumah Makan,ZAFIRAH CAKE  CAFE,"4RCG+6GC, Udapi Hilir, Distrik Prafi, Kabupaten Manokwari, Papua Bar. 98356","Udapi Hilir, Distrik Prafi, Kabupaten Manokwari",PAPUA BARAT,98356.0,Indonesia,81354012348.0,-0.8794333,133.8262506,https://maps.google.com/?cid=0x0:0xb279174a0f5ac61a
cafe,cafe,Papua Bar. 98352,"Kabupaten Manokwari, Papua Bar.","Kabupaten Manokwari, Papua Bar.",PAPUA BARAT,,Indonesia,,-1.0122519,133.9055155,https://maps.google.com/?cid=0x0:0x665ab61075e0d624
cafe,Korea,EXO Korean Cafe,"Udapi Hilir, Distrik Prafi, Kabupaten Manokwari, Papua Bar. 98356","Distrik Prafi, Kabupaten Manokwari",PAPUA BARAT,98356.0,Indonesia,81245008384.0,-0.8842664,133.8223763,https://maps.google.com/?cid=0x0:0x928b6ce6058bb3fd
cafe,cafe,Warkopin aja,"3222+RWH, Anday, Distrik Manokwari, Kabupaten Manokwari, Papua Bar. 98315","Anday, Distrik Manokwari, Kabupaten Manokwari",PAPUA BARAT,98315.0,Indonesia,,-0.948599,134.0016671,https://maps.google.com/?cid=0x0:0x534abc6a41bb787d
cafe,Dapur Umum,SAUNG TANI,"3VGW+72W, Prafi Mulia, Distrik Prafi, Kabupaten Manokwari, Papua Bar. 98352","Prafi Mulia, Distrik Prafi, Kabupaten Manokwari",PAPUA BARAT,98352.0,Indonesia,,-0.9242548,133.8950633,https://maps.google.com/?cid=0x0:0x7e782d9e0f280b0a
cafe,Indonesia,Cafe Pantai Fasharkan TNI AL,"43H9+C4, Sanggeng, Kec. Manokwari Bar., Kabupaten Manokwari, Papua Bar.","Kabupaten Manokwari, Papua Bar.",PAPUA BARAT,,Indonesia,,-0.8715115,134.0678559,https://maps.google.com/?cid=0x0:0x7da1dcd9f7d226d3
cafe,Kedai Kopi,Garasi Ipok (Kopi),"Wosi, Kec. Manokwari Bar., Kabupaten Manokwari, Papua Bar. 98312","Kec. Manokwari Bar., Kabupaten Manokwari",PAPUA BARAT,98312.0,Indonesia,,-0.8752236,134.0501855,https://maps.google.com/?cid=0x0:0x12e09be1a67f324f
cafe,Kedai Kopi,KOPIkir Sendiri Cafe,"425R+QWW Kantor bupati, Sowi, Distrik Manokwari, Kabupaten Manokwari, Papua Bar.","Kabupaten Manokwari, Papua Bar.",PAPUA BARAT,,Indonesia,81354179269.0,-0.8905188,134.0423211,https://maps.google.com/?cid=0x0:0xe18448fb10dff5fd
cafe,Kedai Kopi,STEAK  SHAKE,"Bar. Papua Bar. 98356, Udapi Hilir, Distrik Prafi, Kabupaten Manokwari, Papua Bar. 98356","Udapi Hilir, Distrik Prafi, Kabupaten Manokwari",PAPUA BARAT,98356.0,Indonesia,,-0.8843499,133.8210703,https://maps.google.com/?cid=0x0:0x65787006c10c733
cafe,Kedai Kopi,Vetcoffee,"Sowi, Distrik Manokwari, Kabupaten Manokwari, Papua Bar. 98315","Distrik Manokwari, Kabupaten Manokwari",PAPUA BARAT,98315.0,Indonesia,81355937646.0,-0.8867838,134.0463915,https://maps.google.com/?cid=0x0:0x99b834a0ad36b9d9
cafe,Minimarket,Alma Cafe,"4R6V+MP3, Udapi Hilir, Distrik Prafi, Kabupaten Manokwari, Papua Bar.","Kabupaten Manokwari, Papua Bar.",PAPUA BARAT,,Indonesia,85250884487.0,-0.8883733,133.8443,https://maps.google.com/?cid=0x0:0xd4a45aa360eb0400
cafe,Kedai Kopi,CAFFE PANDOS,"32FV+MGC pantai dosa arfai, Anday, Distrik Manokwari, Kabupaten Manokwari, Papua Bar. 98315","Anday, Distrik Manokwari, Kabupaten Manokwari",PAPUA BARAT,98315.0,Indonesia,,-0.9258218,134.0437809,https://maps.google.com/?cid=0x0:0x17b3e75a07d288a0
cafe,Kafe,Angkringan NGOBAS,"3VPR+M6V, Unnamed Road, Prafi Mulia, Distrik Prafi, Kabupaten Manokwari, Papua Bar. 98352","Unnamed Road, Prafi Mulia, Distrik Prafi, Kabupaten Manokwari",PAPUA BARAT,98352.0,Indonesia,,-0.9132548,133.8905448,https://maps.google.com/?cid=0x0:0x3d87fa28882a5232
cafe,Padang,RM Sabar Menanti,"3VJV+G4R, Prafi Mulia, Distrik Prafi, Kabupaten Manokwari, Papua Bar. 98352","Prafi Mulia, Distrik Prafi, Kabupaten Manokwari",PAPUA BARAT,98352.0,Indonesia,82199543692.0,-0.9186418,133.8927765,https://maps.google.com/?cid=0x0:0x9ccd68e273cb940f
cafe,Nasi,Makan Lesehan Mba Ida,"3VMH+6QG, Jl. Sorong - Manokwari, Prafi Mulia, Distrik Prafi, Kabupaten Manokwari, Papua Bar. 98356","Jl. Sorong - Manokwari, Prafi Mulia, Distrik Prafi, Kabupaten Manokwari",PAPUA BARAT,98356.0,Indonesia,,-0.916942,133.8794645,https://maps.google.com/?cid=0x0:0x50e73a273c46dfdd
cafe,cafe,Papua Bar. 98357,"Kabupaten Manokwari, Papua Bar.","Kabupaten Manokwari, Papua Bar.",PAPUA BARAT,,Indonesia,,-0.8227418,133.5606946,https://maps.google.com/?cid=0x0:0x3e375139d962692c
cafe,Kedai Kopi,Yampi Cafe,"4R8C+J62, Jl. Poros, Aimasi/Sp III Aimasi, Distrik Prafi, Kabupaten Manokwari, Papua Bar. 98356","Jl. Poros, Aimasi/Sp III Aimasi, Distrik Prafi, Kabupaten Manokwari",PAPUA BARAT,98356.0,Indonesia,,-0.8834888,133.8205183,https://maps.google.com/?cid=0x0:0xc35cf86e29fff038
cafe,Korea,EXO Korean Cafe,"Udapi Hilir, Distrik Prafi, Kabupaten Manokwari, Papua Bar. 98356","Distrik Prafi, Kabupaten Manokwari",PAPUA BARAT,98356.0,Indonesia,81245008384.0,-0.8842664,133.8223763,https://maps.google.com/?cid=0x0:0x928b6ce6058bb3fd
cafe,Indonesia,Cafe Pantai Fasharkan TNI AL,"43H9+C4, Sanggeng, Kec. Manokwari Bar., Kabupaten Manokwari, Papua Bar.","Kabupaten Manokwari, Papua Bar.",PAPUA BARAT,,Indonesia,,-0.8715115,134.0678559,https://maps.google.com/?cid=0x0:0x7da1dcd9f7d226d3
cafe,Kedai Kopi,Ekaria Rawandari,"Sp 4 jalur 8 poros, Udapi Hilir, Distrik Prafi, Kabupaten Manokwari, Papua Bar. 98315","Udapi Hilir, Distrik Prafi, Kabupaten Manokwari",PAPUA BARAT,98315.0,Indonesia,81344021010.0,-0.8603606,133.8482142,https://maps.google.com/?cid=0x0:0x873e8d4f8350493e
cafe,Kafe,Tela - Tela  coffe,"4RFJ+HC2, Udapi Hilir, Distrik Prafi, Kabupaten Manokwari, Papua Bar. 98356","Udapi Hilir, Distrik Prafi, Kabupaten Manokwari",PAPUA BARAT,98356.0,Indonesia,82198622728.0,-0.8761137,133.8310275,https://maps.google.com/?cid=0x0:0x440f117744a63147
cafe,Minimarket,Alma Cafe,"4R6V+MP3, Udapi Hilir, Distrik Prafi, Kabupaten Manokwari, Papua Bar.","Kabupaten Manokwari, Papua Bar.",PAPUA BARAT,,Indonesia,85250884487.0,-0.8883733,133.8443,https://maps.google.com/?cid=0x0:0xd4a45aa360eb0400
cafe,Rumah Makan,ZAFIRAH CAKE  CAFE,"4RCG+6GC, Udapi Hilir, Distrik Prafi, Kabupaten Manokwari, Papua Bar. 98356","Udapi Hilir, Distrik Prafi, Kabupaten Manokwari",PAPUA BARAT,98356.0,Indonesia,81354012348.0,-0.8794333,133.8262506,https://maps.google.com/?cid=0x0:0xb279174a0f5ac61a
cafe,Kedai Kopi,"se.rasa coffee, Manokwari","Bar, Udapi Hilir, Distrik Prafi, Kabupaten Manokwari, Papua Bar. 98356","Udapi Hilir, Distrik Prafi, Kabupaten Manokwari",PAPUA BARAT,98356.0,Indonesia,81240951908.0,-0.8792473,133.8265157,https://maps.google.com/?cid=0x0:0x4d99722bf1a67811
cafe,Kedai Kopi,Kedai Zaida,"6P3G+G9G, Sumber Boga, Distrik Masni, Kabupaten Manokwari, Papua Bar. 98357","Sumber Boga, Distrik Masni, Kabupaten Manokwari",PAPUA BARAT,98357.0,Indonesia,82197773694.0,-0.7961751,133.7259525,https://maps.google.com/?cid=0x0:0x21b495b31b1acbc1
cafe,Es Krim,CokelatClassic,"4QWJ+5XJ, Jl. POROS SP V, Macuan, Distrik Masni, Kabupaten Manokwari, Papua Bar. 98357","Jl. POROS SP V, Macuan, Distrik Masni, Kabupaten Manokwari",PAPUA BARAT,98357.0,Indonesia,85354565689.0,-0.8545261,133.7823964,https://maps.google.com/?cid=0x0:0x6b2c15d407a262ce
cafe,Brunch,WM.Pandhawi,"5JX4+25F, Meyof I, Distrik Sidey, Kabupaten Manokwari, Papua Bar. 98357","Meyof I, Distrik Sidey, Kabupaten Manokwari",PAPUA BARAT,98357.0,Indonesia,,-0.8024412,133.6054285,https://maps.google.com/?cid=0x0:0x35c8be23c2b4856c
cafe,Kafe,Wilchof Cafe,"Manokwari Tim., Kec. Manokwari Bar., Kabupaten Manokwari, Papua Bar. 98312","Kec. Manokwari Bar., Kabupaten Manokwari",PAPUA BARAT,98312.0,Indonesia,8124801913.0,-0.8418764,134.0699628,https://maps.google.com/?cid=0x0:0xdf7fa1241fcb9fab
cafe,Kedai Kopi,Daffa Cafe  Daffa Wash,"Aimasi/Sp III Aimasi, Jalur 9 No.Atas, Waseki Indah, Distrik Prafi, Kabupaten Manokwari, Papua Bar. 98356","Jalur 9 No.Atas, Waseki Indah, Distrik Prafi, Kabupaten Manokwari",PAPUA BARAT,98356.0,Indonesia,,-0.8798178,133.805728,https://maps.google.com/?cid=0x0:0xc4893af4ea2f0753
hotel,hotel,,,,PAPUA BARAT,,Indonesia,,,,https://maps.google.com/?cid=0x0:0x92c98d5e96ee2a8f%7C/g/1yl475f47%7Cid-ID
hotel,hotel,Swiss Belhotel Manokwari,"Jl. Yos Sudarso Manokwari No.8, Manokwari Bar., Kec. Manokwari Bar., Kabupaten Manokwari, Papua Bar. 98312","Manokwari Bar., Kec. Manokwari Bar., Kabupaten Manokwari",PAPUA BARAT,98312.0,Indonesia,8114854000.0,-0.8572937,134.0672125,https://maps.google.com/?cid=0x0:0x92c98d5e96ee2a8f
hotel,hotel,Amban Beach House,"Amban, Pantai, Kabupaten Manokwari, Papua Bar. 98312","Pantai, Kabupaten Manokwari",PAPUA BARAT,98312.0,Indonesia,85251590060.0,-0.8151637,134.0780254,https://maps.google.com/?cid=0x0:0x6bfad7f54baf0beb
hotel,hotel,Aston Niu Manokwari,"Sogun Hill, Jl. Drs Esau Sesa No.3 Blok B, Sowi, Distrik Manokwari, Kabupaten Manokwari, Papua Bar. 98315","Jl. Drs Esau Sesa No.3 Blok B, Sowi, Distrik Manokwari, Kabupaten Manokwari",PAPUA BARAT,98315.0,Indonesia,81369878787.0,-0.8978109,134.0416499,https://maps.google.com/?cid=0x0:0xe96b706fef94b3a2
hotel,hotel,The Alexander Hotel,"43V9+HX4, Jl. Jend. Sudirman, Padarni, Kec. Manokwari Bar., Kabupaten Manokwari, Papua Bar. 98312","Jl. Jend. Sudirman, Padarni, Kec. Manokwari Bar., Kabupaten Manokwari",PAPUA BARAT,98312.0,Indonesia,9862214551.0,-0.8561036,134.06994,https://maps.google.com/?cid=0x0:0xdc6bdc355d4e63ab
hotel,Rumah wisata,anggiarka,"Jl. Tlk. Amurang No.13 3, RT.3/RW.8, Ps. Minggu, Kota Jakarta Selatan, Daerah Khusus Ibukota Jakarta 12520","RT.3/RW.8, Ps. Minggu, Kota Jakarta Selatan",PAPUA BARAT,12520.0,Indonesia,,-6.299084,106.8378698,https://maps.google.com/?cid=0x0:0x4eda03c123fda243
hotel,Rumah wisata,Anggit Guest House,"JPCG+WX3, Pd. Petir, Kec. Bojongsari, Kota Depok, Jawa Barat 16517","Pd. Petir, Kec. Bojongsari, Kota Depok",PAPUA BARAT,16517.0,Indonesia,87788705032.0,-6.3777366,106.7274319,https://maps.google.com/?cid=0x0:0x11f914fa1d417106
hotel,Hotel,Anggi Andaresta,"Kp. Sawah asep. RT. 011/004, desa, Srogol, Kec. Cigombong, Kabupaten Bogor","Kabupaten Bogor, Jawa Barat",PAPUA BARAT,,Indonesia,,-6.7387297,106.8213575,https://maps.google.com/?cid=0x0:0x7dfdb388d28a2d20
hotel,hotel,Pulau Mansinam,"Mansinam, Kec. Manokwari Tim., Kabupaten Manokwari, Papua Bar.","Kabupaten Manokwari, Papua Bar.",PAPUA BARAT,,Indonesia,,-0.9141667,134.1083333,https://maps.google.com/?cid=0x0:0x94a3a276c08ef3eb
hotel,hotel,Anggit hotel,"Jl. Raya Bojong Gede No.21, Bojong Baru, Kecamatan Bojonggede, Kabupaten Bogor, Jawa Barat 16920","Bojong Baru, Kecamatan Bojonggede, Kabupaten Bogor",PAPUA BARAT,16920.0,Indonesia,,-6.4753622,106.8037595,https://maps.google.com/?cid=0x0:0x412e8f195415ad0f
hotel,Rumah wisata,Anggi Doman Abdurahman Places,"HQFX+5H4, Cipayung Jaya, Kec. Cipayung, Kota Depok, Jawa Barat 16437","Cipayung Jaya, Kec. Cipayung, Kota Depok",PAPUA BARAT,16437.0,Indonesia,,-6.4271157,106.7989445,https://maps.google.com/?cid=0x0:0x515d73adc81376de
hotel,hotel,Danau Anggi Gida,"Kab. Pegunungan Arfak, Papua Bar.","Kab. Pegunungan Arfak, Papua Bar.",PAPUA BARAT,,Indonesia,,-1.3963314,133.9532149,https://maps.google.com/?cid=0x0:0xd222eb659585412a
hotel,hotel,Anggi Gida,"Kab. Pegunungan Arfak, Papua Bar.","Kab. Pegunungan Arfak, Papua Bar.",PAPUA BARAT,,Indonesia,,-1.3958835,133.9722816,https://maps.google.com/?cid=0x0:0x8008ad12448ea805
hotel,hotel,Kec. Anggi Gida,"Kab. Pegunungan Arfak, Papua Bar.","Kab. Pegunungan Arfak, Papua Bar.",PAPUA BARAT,,Indonesia,,-1.3668114,133.9609514,https://maps.google.com/?cid=0x0:0xb4bc71d5f83c5185
hotel,hotel,Papua Bar. 98358,"Kabupaten Manokwari, Papua Bar.","Kabupaten Manokwari, Papua Bar.",PAPUA BARAT,,Indonesia,,-1.0707188,133.7525619,https://maps.google.com/?cid=0x0:0x566a5a268f3890ee
hotel,hotel,Swiss Belhotel Manokwari,"Jl. Yos Sudarso Manokwari No.8, Manokwari Bar., Kec. Manokwari Bar., Kabupaten Manokwari, Papua Bar. 98312","Manokwari Bar., Kec. Manokwari Bar., Kabupaten Manokwari",PAPUA BARAT,98312.0,Indonesia,8114854000.0,-0.8572937,134.0672125,https://maps.google.com/?cid=0x0:0x92c98d5e96ee2a8f
hotel,hotel,Hotel Rama,"42JW+GWX, Jl. Trikora Rendani, Wosi, Kec. Manokwari Bar., Kabupaten Manokwari, Papua Bar. 98312","Jl. Trikora Rendani, Wosi, Kec. Manokwari Bar., Kabupaten Manokwari",PAPUA BARAT,98312.0,Indonesia,,-0.8686391,134.0473473,https://maps.google.com/?cid=0x0:0xbc8387651670c591
hotel,hotel,Hotel Triton,"Jl. Gn. Salju No.6, Manokwari Bar., Kec. Manokwari Bar., Kabupaten Manokwari, Papua Bar. 98311","Manokwari Bar., Kec. Manokwari Bar., Kabupaten Manokwari",PAPUA BARAT,98311.0,Indonesia,986212666.0,-0.8532727,134.068781,https://maps.google.com/?cid=0x0:0x6021b02b4fb20af
hotel,hotel,Aimas Hotel And Convention Center,"Klamasen, Distrik Mariat, Kabupaten Sorong, Papua Bar. 98416","Distrik Mariat, Kabupaten Sorong",PAPUA BARAT,98416.0,Indonesia,8114887778.0,-0.9780957,131.3535192,https://maps.google.com/?cid=0x0:0x622ceae2f7c756cf
hotel,hotel,Aston Niu Manokwari,"Sogun Hill, Jl. Drs Esau Sesa No.3 Blok B, Sowi, Distrik Manokwari, Kabupaten Manokwari, Papua Bar. 98315","Jl. Drs Esau Sesa No.3 Blok B, Sowi, Distrik Manokwari, Kabupaten Manokwari",PAPUA BARAT,98315.0,Indonesia,81369878787.0,-0.8978109,134.0416499,https://maps.google.com/?cid=0x0:0xe96b706fef94b3a2
hotel,hotel,Vitta Hotel Manokwari,"32PP+MFR, Jl. Trikora Taman Ria, Sowi, Distrik Manokwari, Kabupaten Manokwari, Papua Bar. 98315","Jl. Trikora Taman Ria, Sowi, Distrik Manokwari, Kabupaten Manokwari",PAPUA BARAT,98315.0,Indonesia,81367287972.0,-0.9131667,134.0359179,https://maps.google.com/?cid=0x0:0x4ec173a9ed9776eb
hotel,hotel,,,,PAPUA BARAT,,Indonesia,,,,https://maps.google.com/?cid=0x0:0xe96b706fef94b3a2%7C/g/120jr49w%7Cid-ID
hotel,hotel,Mansinam Beach Hotel,"43CR+H6X, Jl. Pasir Putih No.7, Pasir Putih, Kec. Manokwari Tim., Kabupaten Manokwari, Papua Bar. 98313","Jl. Pasir Putih No.7, Pasir Putih, Kec. Manokwari Tim., Kabupaten Manokwari",PAPUA BARAT,98313.0,Indonesia,986213585.0,-0.878422,134.0901197,https://maps.google.com/?cid=0x0:0x7d51b487bac82f8f
hotel,hotel,Mahanaim Hotel dan Homestay Manokwari,"jln trikora kalidingin no 109, Wosi, Kec. Manokwari Bar., Kabupaten Manokwari, Papua Bar. 98312","Wosi, Kec. Manokwari Bar., Kabupaten Manokwari",PAPUA BARAT,98312.0,Indonesia,8124830147.0,-0.8699305,134.0471193,https://maps.google.com/?cid=0x0:0xeec6727952b4f3e6
hotel,hotel,Amban Beach House,"Amban, Pantai, Kabupaten Manokwari, Papua Bar. 98312","Pantai, Kabupaten Manokwari",PAPUA BARAT,98312.0,Indonesia,85251590060.0,-0.8151637,134.0780254,https://maps.google.com/?cid=0x0:0x6bfad7f54baf0beb
hotel,hotel,RAMA TRANSITO HOTEL,"42RV+276, Unnamed Road, Wosi, Kec. Manokwari Bar., Kabupaten Manokwari, Papua Bar. 98312","Unnamed Road, Wosi, Kec. Manokwari Bar., Kabupaten Manokwari",PAPUA BARAT,98312.0,Indonesia,82198250318.0,-0.8599684,134.0431297,https://maps.google.com/?cid=0x0:0x61e002737b3747f1
hotel,hotel,Quattrick Dee Homestay,"Jl. KPR Reremi Permai, Manokwari Bar., Kec. Manokwari Bar., Kabupaten Manokwari, Papua Bar. 98312","Manokwari Bar., Kec. Manokwari Bar., Kabupaten Manokwari",PAPUA BARAT,98312.0,Indonesia,895417300072.0,-0.8533263,134.0555329,https://maps.google.com/?cid=0x0:0xf2c8eb1ca8dee63b
hotel,hotel,,,,PAPUA BARAT,,Indonesia,,,,https://maps.google.com/?cid=0x0:0xf2c8eb1ca8dee63b%7C/g/11h4kv3ppk%7Cid-ID
hotel,hotel,Papua Bar. 98359,Papua Bar.,Papua Bar.,PAPUA BARAT,,Indonesia,,-1.5213839,133.7525619,https://maps.google.com/?cid=0x0:0xc8a895044b18d7c8
hotel,hotel,Vitta Hotel Manokwari,"32PP+MFR, Jl. Trikora Taman Ria, Sowi, Distrik Manokwari, Kabupaten Manokwari, Papua Bar. 98315","Jl. Trikora Taman Ria, Sowi, Distrik Manokwari, Kabupaten Manokwari",PAPUA BARAT,98315.0,Indonesia,81367287972.0,-0.9131667,134.0359179,https://maps.google.com/?cid=0x0:0x4ec173a9ed9776eb
hotel,hotel,,,,PAPUA BARAT,,Indonesia,,,,https://maps.google.com/?cid=0x0:0x4a37ba927853645b%7C/g/11y0l8mjv%7Cid-ID
hotel,hotel,Mahanaim Hotel dan Homestay Manokwari,"jln trikora kalidingin no 109, Wosi, Kec. Manokwari Bar., Kabupaten Manokwari, Papua Bar. 98312","Wosi, Kec. Manokwari Bar., Kabupaten Manokwari",PAPUA BARAT,98312.0,Indonesia,8124830147.0,-0.8699305,134.0471193,https://maps.google.com/?cid=0x0:0xeec6727952b4f3e6
hotel,hotel,The ignislo sorong hotel,"Basuki Rahmat Street KM 7 Sorong, Malaingkedi, Sorong Utara, Sorong City, West Papua 98412","Malaingkedi, Sorong Utara, Sorong City",PAPUA BARAT,98412.0,Indonesia,,-0.8885403,131.2925628,https://maps.google.com/?cid=0x0:0x9992b24f2542a546
hotel,hotel,RAMA TRANSITO HOTEL,"42RV+276, Unnamed Road, Wosi, Kec. Manokwari Bar., Kabupaten Manokwari, Papua Bar. 98312","Unnamed Road, Wosi, Kec. Manokwari Bar., Kabupaten Manokwari",PAPUA BARAT,98312.0,Indonesia,82198250318.0,-0.8599684,134.0431297,https://maps.google.com/?cid=0x0:0x61e002737b3747f1
hotel,hotel,M Hotel Sorong,"Jl. Sungai Maruni, Klawuyuk, Kec. Sorong Utara, Kota Sorong, Papua Bar. 98416","Klawuyuk, Kec. Sorong Utara, Kota Sorong",PAPUA BARAT,98416.0,Indonesia,8114863111.0,-0.8858638,131.3227746,https://maps.google.com/?cid=0x0:0x9b9160ef43d35fd5
hotel,hotel,,,,PAPUA BARAT,,Indonesia,,,,https://maps.google.com/?cid=0x0:0x9b9160ef43d35fd5%7C/g/11clwlw14h%7Cid-ID
hotel,hotel,Penginapan Kofiyau,"46MX+QV7, Unnamed Road, Klasuur, Distrik Sorong, Kota Sorong, Papua Bar. 98411","Unnamed Road, Klasuur, Distrik Sorong, Kota Sorong",PAPUA BARAT,98411.0,Indonesia,82398017326.0,-0.86559,131.2496721,https://maps.google.com/?cid=0x0:0xfc32a1234a9c5c47
hotel,hotel,Frances Homestay,"CJF8+H7, Kurkapa, Kabupaten Raja Ampat, Papua Bar.","Kabupaten Raja Ampat, Papua Bar.",PAPUA BARAT,,Indonesia,,-0.5737089,130.6207701,https://maps.google.com/?cid=0x0:0x2da7e8e00eb3b56a
hotel,hotel,Valdos Hotel Manokwari,"43J5+F44, Jl. Trikora Wosi, Wosi, Kec. Manokwari Bar., Kabupaten Manokwari, Papua Bar. 98312","Jl. Trikora Wosi, Wosi, Kec. Manokwari Bar., Kabupaten Manokwari",PAPUA BARAT,98312.0,Indonesia,986213044.0,-0.8688721,134.0578193,https://maps.google.com/?cid=0x0:0x60b28ba9ef2d716e
hotel,hotel,Hotel Fujita Papua,"Jl. Drs Esau Sesa, Wosi, Kec. Manokwari Bar., Kabupaten Manokwari, Papua Bar. 98312","Wosi, Kec. Manokwari Bar., Kabupaten Manokwari",PAPUA BARAT,98312.0,Indonesia,9862210707.0,-0.8727087,134.0465433,https://maps.google.com/?cid=0x0:0x12ad8f54a87fdc03
hotel,hotel,JESONE Hotel  Resto,"Jl. Basuki Rahmat No.KM 7, South Remu, Sorong Manoi, Sorong City, West Papua 98412","South Remu, Sorong Manoi, Sorong City",PAPUA BARAT,98412.0,Indonesia,82198134499.0,-0.8859307,131.2879742,https://maps.google.com/?cid=0x0:0xf06b0978fb75d6f1
hotel,hotel,Lin Hotel,"Jl. Merdeka, Padarni, Kec. Manokwari Bar., Kabupaten Manokwari, Papua Bar. 98312","Padarni, Kec. Manokwari Bar., Kabupaten Manokwari",PAPUA BARAT,98312.0,Indonesia,9862210524.0,-0.8548281,134.0697853,https://maps.google.com/?cid=0x0:0xed579408172519e3
hotel,hotel,Hingk,"Kab. Pegunungan Arfak, Papua Bar.","Kab. Pegunungan Arfak, Papua Bar.",PAPUA BARAT,,Indonesia,,-1.2205844,133.9627492,https://maps.google.com/?cid=0x0:0x3f01e43bc4522fcd
hotel,hotel,Vitta Hotel Manokwari,"32PP+MFR, Jl. Trikora Taman Ria, Sowi, Distrik Manokwari, Kabupaten Manokwari, Papua Bar. 98315","Jl. Trikora Taman Ria, Sowi, Distrik Manokwari, Kabupaten Manokwari",PAPUA BARAT,98315.0,Indonesia,81367287972.0,-0.9131667,134.0359179,https://maps.google.com/?cid=0x0:0x4ec173a9ed9776eb
hotel,hotel,Hotel Rama,"42JW+GWX, Jl. Trikora Rendani, Wosi, Kec. Manokwari Bar., Kabupaten Manokwari, Papua Bar. 98312","Jl. Trikora Rendani, Wosi, Kec. Manokwari Bar., Kabupaten Manokwari",PAPUA BARAT,98312.0,Indonesia,,-0.8686391,134.0473473,https://maps.google.com/?cid=0x0:0xbc8387651670c591
hotel,hotel,,,,PAPUA BARAT,,Indonesia,,,,https://maps.google.com/?cid=0x0:0xe96b706fef94b3a2%7C/g/120jr49w%7Cid-ID
hotel,hotel,Mahanaim Hotel dan Homestay Manokwari,"jln trikora kalidingin no 109, Wosi, Kec. Manokwari Bar., Kabupaten Manokwari, Papua Bar. 98312","Wosi, Kec. Manokwari Bar., Kabupaten Manokwari",PAPUA BARAT,98312.0,Indonesia,8124830147.0,-0.8699305,134.0471193,https://maps.google.com/?cid=0x0:0xeec6727952b4f3e6
hotel,hotel,Aston Niu Manokwari,"Sogun Hill, Jl. Drs Esau Sesa No.3 Blok B, Sowi, Distrik Manokwari, Kabupaten Manokwari, Papua Bar. 98315","Jl. Drs Esau Sesa No.3 Blok B, Sowi, Distrik Manokwari, Kabupaten Manokwari",PAPUA BARAT,98315.0,Indonesia,81369878787.0,-0.8978109,134.0416499,https://maps.google.com/?cid=0x0:0xe96b706fef94b3a2
hotel,hotel,,,,PAPUA BARAT,,Indonesia,,,,https://maps.google.com/?cid=0x0:0x92c98d5e96ee2a8f%7C/g/1yl475f47%7Cid-ID
hotel,hotel,Swiss Belhotel Manokwari,"Jl. Yos Sudarso Manokwari No.8, Manokwari Bar., Kec. Manokwari Bar., Kabupaten Manokwari, Papua Bar. 98312","Manokwari Bar., Kec. Manokwari Bar., Kabupaten Manokwari",PAPUA BARAT,98312.0,Indonesia,8114854000.0,-0.8572937,134.0672125,https://maps.google.com/?cid=0x0:0x92c98d5e96ee2a8f
hotel,hotel,Mansinam Beach Hotel,"43CR+H6X, Jl. Pasir Putih No.7, Pasir Putih, Kec. Manokwari Tim., Kabupaten Manokwari, Papua Bar. 98313","Jl. Pasir Putih No.7, Pasir Putih, Kec. Manokwari Tim., Kabupaten Manokwari",PAPUA BARAT,98313.0,Indonesia,986213585.0,-0.878422,134.0901197,https://maps.google.com/?cid=0x0:0x7d51b487bac82f8f
hotel,hotel,Quattrick Dee Homestay,"Jl. KPR Reremi Permai, Manokwari Bar., Kec. Manokwari Bar., Kabupaten Manokwari, Papua Bar. 98312","Manokwari Bar., Kec. Manokwari Bar., Kabupaten Manokwari",PAPUA BARAT,98312.0,Indonesia,895417300072.0,-0.8533263,134.0555329,https://maps.google.com/?cid=0x0:0xf2c8eb1ca8dee63b
hotel,hotel,RAMA TRANSITO HOTEL,"42RV+276, Unnamed Road, Wosi, Kec. Manokwari Bar., Kabupaten Manokwari, Papua Bar. 98312","Unnamed Road, Wosi, Kec. Manokwari Bar., Kabupaten Manokwari",PAPUA BARAT,98312.0,Indonesia,82198250318.0,-0.8599684,134.0431297,https://maps.google.com/?cid=0x0:0x61e002737b3747f1
hotel,hotel,,,,PAPUA BARAT,,Indonesia,,,,https://maps.google.com/?cid=0x0:0xf2c8eb1ca8dee63b%7C/g/11h4kv3ppk%7Cid-ID
hotel,hotel,RedDoorz near Reremi Pemancar Manokwari,"JL. Ekonomi Reremi Manokwari, SMKN 3, Kabupaten Manokwari, Papua Bar. 98312","SMKN 3, Kabupaten Manokwari",PAPUA BARAT,98312.0,Indonesia,895417300072.0,-0.8564389,134.0627895,https://maps.google.com/?cid=0x0:0xe2ead707b1bdd259
hotel,hotel,Oriestom Bay Hotel,"43F2+G29, Jl. Trikora Rendani, Wosi, Kec. Manokwari Bar., Kabupaten Manokwari, Papua Bar. 98312","Jl. Trikora Rendani, Wosi, Kec. Manokwari Bar., Kabupaten Manokwari",PAPUA BARAT,98312.0,Indonesia,81240197780.0,-0.8762108,134.0501061,https://maps.google.com/?cid=0x0:0x8bd50034329ebf97
hotel,hotel,Kec. Membey,"Kab. Pegunungan Arfak, Papua Bar.","Kab. Pegunungan Arfak, Papua Bar.",PAPUA BARAT,,Indonesia,,-1.3416452,134.0336402,https://maps.google.com/?cid=0x0:0x6db50f43a0973078
hotel,hotel,Vitta Hotel Manokwari,"32PP+MFR, Jl. Trikora Taman Ria, Sowi, Distrik Manokwari, Kabupaten Manokwari, Papua Bar. 98315","Jl. Trikora Taman Ria, Sowi, Distrik Manokwari, Kabupaten Manokwari",PAPUA BARAT,98315.0,Indonesia,81367287972.0,-0.9131667,134.0359179,https://maps.google.com/?cid=0x0:0x4ec173a9ed9776eb
hotel,hotel,Swiss Belhotel Manokwari,"Jl. Yos Sudarso Manokwari No.8, Manokwari Bar., Kec. Manokwari Bar., Kabupaten Manokwari, Papua Bar. 98312","Manokwari Bar., Kec. Manokwari Bar., Kabupaten Manokwari",PAPUA BARAT,98312.0,Indonesia,8114854000.0,-0.8572937,134.0672125,https://maps.google.com/?cid=0x0:0x92c98d5e96ee2a8f
hotel,hotel,Mahanaim Hotel dan Homestay Manokwari,"jln trikora kalidingin no 109, Wosi, Kec. Manokwari Bar., Kabupaten Manokwari, Papua Bar. 98312","Wosi, Kec. Manokwari Bar., Kabupaten Manokwari",PAPUA BARAT,98312.0,Indonesia,8124830147.0,-0.8699305,134.0471193,https://maps.google.com/?cid=0x0:0xeec6727952b4f3e6
hotel,hotel,Aston Niu Manokwari,"Sogun Hill, Jl. Drs Esau Sesa No.3 Blok B, Sowi, Distrik Manokwari, Kabupaten Manokwari, Papua Bar. 98315","Jl. Drs Esau Sesa No.3 Blok B, Sowi, Distrik Manokwari, Kabupaten Manokwari",PAPUA BARAT,98315.0,Indonesia,81369878787.0,-0.8978109,134.0416499,https://maps.google.com/?cid=0x0:0xe96b706fef94b3a2
hotel,hotel,,,,PAPUA BARAT,,Indonesia,,,,https://maps.google.com/?cid=0x0:0xe96b706fef94b3a2%7C/g/120jr49w%7Cid-ID
hotel,hotel,Mansinam Beach Hotel,"43CR+H6X, Jl. Pasir Putih No.7, Pasir Putih, Kec. Manokwari Tim., Kabupaten Manokwari, Papua Bar. 98313","Jl. Pasir Putih No.7, Pasir Putih, Kec. Manokwari Tim., Kabupaten Manokwari",PAPUA BARAT,98313.0,Indonesia,986213585.0,-0.878422,134.0901197,https://maps.google.com/?cid=0x0:0x7d51b487bac82f8f
hotel,hotel,Aston Sorong Hotel  Conference Center,"476V+J9X, Jl. Basuki Rahmat, Malaingkedi, Kec. Sorong Utara, Kota Sorong, Papua Bar. 98412","Jl. Basuki Rahmat, Malaingkedi, Kec. Sorong Utara, Kota Sorong",PAPUA BARAT,98412.0,Indonesia,81148500888.0,-0.8887467,131.2931592,https://maps.google.com/?cid=0x0:0x110a6a5f0a67a7f7
hotel,hotel,RAMA TRANSITO HOTEL,"42RV+276, Unnamed Road, Wosi, Kec. Manokwari Bar., Kabupaten Manokwari, Papua Bar. 98312","Unnamed Road, Wosi, Kec. Manokwari Bar., Kabupaten Manokwari",PAPUA BARAT,98312.0,Indonesia,82198250318.0,-0.8599684,134.0431297,https://maps.google.com/?cid=0x0:0x61e002737b3747f1
hotel,hotel,The ignislo sorong hotel,"Basuki Rahmat Street KM 7 Sorong, Malaingkedi, Sorong Utara, Sorong City, West Papua 98412","Malaingkedi, Sorong Utara, Sorong City",PAPUA BARAT,98412.0,Indonesia,,-0.8885403,131.2925628,https://maps.google.com/?cid=0x0:0x9992b24f2542a546
hotel,hotel,M Hotel Sorong,"Jl. Sungai Maruni, Klawuyuk, Kec. Sorong Utara, Kota Sorong, Papua Bar. 98416","Klawuyuk, Kec. Sorong Utara, Kota Sorong",PAPUA BARAT,98416.0,Indonesia,8114863111.0,-0.8858638,131.3227746,https://maps.google.com/?cid=0x0:0x9b9160ef43d35fd5
hotel,hotel,,,,PAPUA BARAT,,Indonesia,,,,https://maps.google.com/?cid=0x0:0x9b9160ef43d35fd5%7C/g/11clwlw14h%7Cid-ID
hotel,hotel,Oriestom Bay Hotel,"43F2+G29, Jl. Trikora Rendani, Wosi, Kec. Manokwari Bar., Kabupaten Manokwari, Papua Bar. 98312","Jl. Trikora Rendani, Wosi, Kec. Manokwari Bar., Kabupaten Manokwari",PAPUA BARAT,98312.0,Indonesia,81240197780.0,-0.8762108,134.0501061,https://maps.google.com/?cid=0x0:0x8bd50034329ebf97
hotel,hotel,Lin Hotel,"Jl. Merdeka, Padarni, Kec. Manokwari Bar., Kabupaten Manokwari, Papua Bar. 98312","Padarni, Kec. Manokwari Bar., Kabupaten Manokwari",PAPUA BARAT,98312.0,Indonesia,9862210524.0,-0.8548281,134.0697853,https://maps.google.com/?cid=0x0:0xed579408172519e3
hotel,hotel,Papua Bar. 98359,Papua Bar.,Papua Bar.,PAPUA BARAT,,Indonesia,,-1.5213839,133.7525619,https://maps.google.com/?cid=0x0:0xc8a895044b18d7c8
hotel,hotel,The Luxio Hotel,"Jl. Basuki Rahmat KM.12 Sorong, Malaingkedi, Kec. Sorong Utara, West Papua, Papua Bar. 98412","Malaingkedi, Kec. Sorong Utara, West Papua",PAPUA BARAT,98412.0,Indonesia,81344807777.0,-0.9040377,131.3236469,https://maps.google.com/?cid=0x0:0x4a37ba927853645b
hotel,hotel,,,,PAPUA BARAT,,Indonesia,,,,https://maps.google.com/?cid=0x0:0x4a37ba927853645b%7C/g/11y0l8mjv%7Cid-ID
hotel,hotel,,,,PAPUA BARAT,,Indonesia,,,,https://maps.google.com/?cid=0x0:0x9b9160ef43d35fd5%7C/g/11clwlw14h%7Cid-ID
hotel,hotel,M Hotel Sorong,"Jl. Sungai Maruni, Klawuyuk, Kec. Sorong Utara, Kota Sorong, Papua Bar. 98416","Klawuyuk, Kec. Sorong Utara, Kota Sorong",PAPUA BARAT,98416.0,Indonesia,8114863111.0,-0.8858638,131.3227746,https://maps.google.com/?cid=0x0:0x9b9160ef43d35fd5
hotel,hotel,Kasuari Valley Beach Resort Sorong,"Tj. Kasuari, Distrik Sorong Barat, Kota Sorong, Papua Bar. 98411","Distrik Sorong Barat, Kota Sorong",PAPUA BARAT,98411.0,Indonesia,81247423939.0,-0.8229453,131.2259207,https://maps.google.com/?cid=0x0:0x7ae87156c62b6490
hotel,hotel,Frances Homestay,"CJF8+H7, Kurkapa, Kabupaten Raja Ampat, Papua Bar.","Kabupaten Raja Ampat, Papua Bar.",PAPUA BARAT,,Indonesia,,-0.5737089,130.6207701,https://maps.google.com/?cid=0x0:0x2da7e8e00eb3b56a
hotel,hotel,Amoryg resort,"Yendirap, sawendarak, Kabupaten Raja Ampat, Papua Bar.","Kabupaten Raja Ampat, Papua Bar.",PAPUA BARAT,,Indonesia,82340182481.0,-0.612278,130.5646907,https://maps.google.com/?cid=0x0:0xc823d7af2ac05194
hotel,hotel,Hotel Raja Ampat,"Jl. Fundar Sakela No.1, Waisai, City, Kabupaten Raja Ampat, Papua Bar. 98482","Waisai, City, Kabupaten Raja Ampat",PAPUA BARAT,98482.0,Indonesia,81298260747.0,-0.4224417,130.8199523,https://maps.google.com/?cid=0x0:0x3bda491b055b084
hotel,hotel,Penginapan Kofiyau,"46MX+QV7, Unnamed Road, Klasuur, Distrik Sorong, Kota Sorong, Papua Bar. 98411","Unnamed Road, Klasuur, Distrik Sorong, Kota Sorong",PAPUA BARAT,98411.0,Indonesia,82398017326.0,-0.86559,131.2496721,https://maps.google.com/?cid=0x0:0xfc32a1234a9c5c47
hotel,hotel,Oriestom Bay Hotel,"43F2+G29, Jl. Trikora Rendani, Wosi, Kec. Manokwari Bar., Kabupaten Manokwari, Papua Bar. 98312","Jl. Trikora Rendani, Wosi, Kec. Manokwari Bar., Kabupaten Manokwari",PAPUA BARAT,98312.0,Indonesia,81240197780.0,-0.8762108,134.0501061,https://maps.google.com/?cid=0x0:0x8bd50034329ebf97
hotel,hotel,hotel oriestom,"43PG+J4M, Jl. Merdeka, Manokwari Tim., Kec. Manokwari Bar., Kabupaten Manokwari, Papua Bar. 98312","Jl. Merdeka, Manokwari Tim., Kec. Manokwari Bar., Kabupaten Manokwari",PAPUA BARAT,98312.0,Indonesia,62986211519.0,-0.8634113,134.0752839,https://maps.google.com/?cid=0x0:0x215631a03bde85f8
hotel,hotel,Fajar Roon Hotel,"Jl. Trikora Wosi, Wosi, Kec. Manokwari Bar., Kabupaten Manokwari, Papua Bar. 98312","Wosi, Kec. Manokwari Bar., Kabupaten Manokwari",PAPUA BARAT,98312.0,Indonesia,85333112338.0,-0.8680273,134.0564644,https://maps.google.com/?cid=0x0:0xec6cf3d20bba5444
hotel,hotel,Aries Hotel,"43HH+X36, Jl. Bhayangkara, Manokwari Tim., Kec. Manokwari Bar., Kabupaten Manokwari, Papua Bar. 98312","Jl. Bhayangkara, Manokwari Tim., Kec. Manokwari Bar., Kabupaten Manokwari",PAPUA BARAT,98312.0,Indonesia,85348704163.0,-0.8700859,134.077642,https://maps.google.com/?cid=0x0:0x3725d1ade6fcfeff
hotel,hotel,Taige,"Distrik Taige, Kab. Pegunungan Arfak, Papua Bar.","Kab. Pegunungan Arfak, Papua Bar.",PAPUA BARAT,,Indonesia,,-1.3061081,133.8589634,https://maps.google.com/?cid=0x0:0xaa3439167fad271d
hotel,hotel,Vitta Hotel Manokwari,"32PP+MFR, Jl. Trikora Taman Ria, Sowi, Distrik Manokwari, Kabupaten Manokwari, Papua Bar. 98315","Jl. Trikora Taman Ria, Sowi, Distrik Manokwari, Kabupaten Manokwari",PAPUA BARAT,98315.0,Indonesia,81367287972.0,-0.9131667,134.0359179,https://maps.google.com/?cid=0x0:0x4ec173a9ed9776eb
hotel,hotel,Mahanaim Hotel dan Homestay Manokwari,"jln trikora kalidingin no 109, Wosi, Kec. Manokwari Bar., Kabupaten Manokwari, Papua Bar. 98312","Wosi, Kec. Manokwari Bar., Kabupaten Manokwari",PAPUA BARAT,98312.0,Indonesia,8124830147.0,-0.8699305,134.0471193,https://maps.google.com/?cid=0x0:0xeec6727952b4f3e6
hotel,hotel,Hotel Fujita Papua,"Jl. Drs Esau Sesa, Wosi, Kec. Manokwari Bar., Kabupaten Manokwari, Papua Bar. 98312","Wosi, Kec. Manokwari Bar., Kabupaten Manokwari",PAPUA BARAT,98312.0,Indonesia,9862210707.0,-0.8727087,134.0465433,https://maps.google.com/?cid=0x0:0x12ad8f54a87fdc03
hotel,hotel,Hotel Grand Cempaka,"Jl. Pangkalan Asem No.3 1, RT.1/RW.7, Galur, Kec. Johar Baru, Kota Jakarta Pusat, Daerah Khusus Ibukota Jakarta 10530","RT.1/RW.7, Galur, Kec. Johar Baru, Kota Jakarta Pusat",PAPUA BARAT,10530.0,Indonesia,214260066.0,-6.1744353,106.8575567,https://maps.google.com/?cid=0x0:0x49398b86b27076b2
hotel,hotel,Tavia Heritage Hotel,"Jl. Letjen Suprapto No.1, RT.1/RW.1, Cemp. Putih Bar., Kec. Cemp. Putih, Kota Jakarta Pusat, Daerah Khusus Ibukota Jakarta 10520","RT.1/RW.1, Cemp. Putih Bar., Kec. Cemp. Putih, Kota Jakarta Pusat",PAPUA BARAT,10520.0,Indonesia,214260066.0,-6.1735209,106.8608205,https://maps.google.com/?cid=0x0:0xf9f58715a5d229a7
hotel,hotel,Eline Guesthouse Syariah,"Jl. Cemp. Putih Tengah XX B No.8 3, RT.3/RW.6, Cemp. Putih Tim., Kec. Cemp. Putih, Kota Jakarta Pusat, Daerah Khusus Ibukota Jakarta 10510","RT.3/RW.6, Cemp. Putih Tim., Kec. Cemp. Putih, Kota Jakarta Pusat",PAPUA BARAT,10510.0,Indonesia,8128020355.0,-6.1781284,106.8668433,https://maps.google.com/?cid=0x0:0xd6a44ee6368b0292
hotel,Museum Sejarah Lokal,Monumen Nasional,"Merdeka Square, Jalan Lapangan Monas, Gambir, Kecamatan Gambir, Kota Jakarta Pusat, Daerah Khusus Ibukota Jakarta 10110","Jalan Lapangan Monas, Gambir, Kecamatan Gambir, Kota Jakarta Pusat",PAPUA BARAT,10110.0,Indonesia,213853040.0,-6.1753924,106.8271528,https://maps.google.com/?cid=0x0:0x3d2ad6e1e0e9bcc8
hotel,Layanan Transportasi,Stasiun Pasar Senen,"Jl. Pasar Senen No.14, Senen, Kec. Senen, Kota Jakarta Pusat, Daerah Khusus Ibukota Jakarta 10410","Senen, Kec. Senen, Kota Jakarta Pusat",PAPUA BARAT,10410.0,Indonesia,,-6.1747,106.84435,https://maps.google.com/?cid=0x0:0x26d8e8d36c8b8021
hotel,Kafe,Harmoni Coffee Shop,"Tavia Heritage Hotel, Jl. Letjen Suprapto No.1, RT.1/RW.3, Cemp. Putih Bar., Kec. Cemp. Putih, DKI Jakarta, Daerah Khusus Ibukota Jakarta 10520","Jl. Letjen Suprapto No.1, RT.1/RW.3, Cemp. Putih Bar., Kec. Cemp. Putih, DKI Jakarta",PAPUA BARAT,10520.0,Indonesia,214260066.0,-6.1735943,106.8607749,https://maps.google.com/?cid=0x0:0x306ab5e956a3b496
hotel,hotel,Papua Bar. 98315,"Kabupaten Manokwari, Papua Bar.","Kabupaten Manokwari, Papua Bar.",PAPUA BARAT,,Indonesia,,-1.0762009,133.4452148,https://maps.google.com/?cid=0x0:0xe20d605d60a391b5
hotel,hotel,,,,PAPUA BARAT,,Indonesia,,,,https://maps.google.com/?cid=0x0:0x92c98d5e96ee2a8f%7C/g/1yl475f47%7Cid-ID
hotel,hotel,Swiss Belhotel Manokwari,"Jl. Yos Sudarso Manokwari No.8, Manokwari Bar., Kec. Manokwari Bar., Kabupaten Manokwari, Papua Bar. 98312","Manokwari Bar., Kec. Manokwari Bar., Kabupaten Manokwari",PAPUA BARAT,98312.0,Indonesia,8114854000.0,-0.8572937,134.0672125,https://maps.google.com/?cid=0x0:0x92c98d5e96ee2a8f
hotel,hotel,,,,PAPUA BARAT,,Indonesia,,,,https://maps.google.com/?cid=0x0:0xe96b706fef94b3a2%7C/g/120jr49w%7Cid-ID
hotel,hotel,Aston Niu Manokwari,"Sogun Hill, Jl. Drs Esau Sesa No.3 Blok B, Sowi, Distrik Manokwari, Kabupaten Manokwari, Papua Bar. 98315","Jl. Drs Esau Sesa No.3 Blok B, Sowi, Distrik Manokwari, Kabupaten Manokwari",PAPUA BARAT,98315.0,Indonesia,81369878787.0,-0.8978109,134.0416499,https://maps.google.com/?cid=0x0:0xe96b706fef94b3a2
hotel,hotel,Hotel Triton,"Jl. Gn. Salju No.6, Manokwari Bar., Kec. Manokwari Bar., Kabupaten Manokwari, Papua Bar. 98311","Manokwari Bar., Kec. Manokwari Bar., Kabupaten Manokwari",PAPUA BARAT,98311.0,Indonesia,986212666.0,-0.8532727,134.068781,https://maps.google.com/?cid=0x0:0x6021b02b4fb20af
hotel,hotel,Mansinam Beach Hotel,"43CR+H6X, Jl. Pasir Putih No.7, Pasir Putih, Kec. Manokwari Tim., Kabupaten Manokwari, Papua Bar. 98313","Jl. Pasir Putih No.7, Pasir Putih, Kec. Manokwari Tim., Kabupaten Manokwari",PAPUA BARAT,98313.0,Indonesia,986213585.0,-0.878422,134.0901197,https://maps.google.com/?cid=0x0:0x7d51b487bac82f8f
hotel,hotel,Vitta Hotel Manokwari,"32PP+MFR, Jl. Trikora Taman Ria, Sowi, Distrik Manokwari, Kabupaten Manokwari, Papua Bar. 98315","Jl. Trikora Taman Ria, Sowi, Distrik Manokwari, Kabupaten Manokwari",PAPUA BARAT,98315.0,Indonesia,81367287972.0,-0.9131667,134.0359179,https://maps.google.com/?cid=0x0:0x4ec173a9ed9776eb
hotel,hotel,RAMA TRANSITO HOTEL,"42RV+276, Unnamed Road, Wosi, Kec. Manokwari Bar., Kabupaten Manokwari, Papua Bar. 98312","Unnamed Road, Wosi, Kec. Manokwari Bar., Kabupaten Manokwari",PAPUA BARAT,98312.0,Indonesia,82198250318.0,-0.8599684,134.0431297,https://maps.google.com/?cid=0x0:0x61e002737b3747f1
hotel,hotel,RedDoorz near Reremi Pemancar Manokwari,"JL. Ekonomi Reremi Manokwari, SMKN 3, Kabupaten Manokwari, Papua Bar. 98312","SMKN 3, Kabupaten Manokwari",PAPUA BARAT,98312.0,Indonesia,895417300072.0,-0.8564389,134.0627895,https://maps.google.com/?cid=0x0:0xe2ead707b1bdd259
hotel,hotel,Mahanaim Hotel dan Homestay Manokwari,"jln trikora kalidingin no 109, Wosi, Kec. Manokwari Bar., Kabupaten Manokwari, Papua Bar. 98312","Wosi, Kec. Manokwari Bar., Kabupaten Manokwari",PAPUA BARAT,98312.0,Indonesia,8124830147.0,-0.8699305,134.0471193,https://maps.google.com/?cid=0x0:0xeec6727952b4f3e6
hotel,hotel,Amban Beach House,"Amban, Pantai, Kabupaten Manokwari, Papua Bar. 98312","Pantai, Kabupaten Manokwari",PAPUA BARAT,98312.0,Indonesia,85251590060.0,-0.8151637,134.0780254,https://maps.google.com/?cid=0x0:0x6bfad7f54baf0beb
hotel,hotel,,,,PAPUA BARAT,,Indonesia,,,,https://maps.google.com/?cid=0x0:0xf2c8eb1ca8dee63b%7C/g/11h4kv3ppk%7Cid-ID
hotel,hotel,Quattrick Dee Homestay,"Jl. KPR Reremi Permai, Manokwari Bar., Kec. Manokwari Bar., Kabupaten Manokwari, Papua Bar. 98312","Manokwari Bar., Kec. Manokwari Bar., Kabupaten Manokwari",PAPUA BARAT,98312.0,Indonesia,895417300072.0,-0.8533263,134.0555329,https://maps.google.com/?cid=0x0:0xf2c8eb1ca8dee63b
hotel,hotel,Papua Bar. 98352,"Kabupaten Manokwari, Papua Bar.","Kabupaten Manokwari, Papua Bar.",PAPUA BARAT,,Indonesia,,-1.0122519,133.9055155,https://maps.google.com/?cid=0x0:0x665ab61075e0d624
hotel,hotel,Aston Niu Manokwari,"Sogun Hill, Jl. Drs Esau Sesa No.3 Blok B, Sowi, Distrik Manokwari, Kabupaten Manokwari, Papua Bar. 98315","Jl. Drs Esau Sesa No.3 Blok B, Sowi, Distrik Manokwari, Kabupaten Manokwari",PAPUA BARAT,98315.0,Indonesia,81369878787.0,-0.8978109,134.0416499,https://maps.google.com/?cid=0x0:0xe96b706fef94b3a2
hotel,hotel,Vitta Hotel Manokwari,"32PP+MFR, Jl. Trikora Taman Ria, Sowi, Distrik Manokwari, Kabupaten Manokwari, Papua Bar. 98315","Jl. Trikora Taman Ria, Sowi, Distrik Manokwari, Kabupaten Manokwari",PAPUA BARAT,98315.0,Indonesia,81367287972.0,-0.9131667,134.0359179,https://maps.google.com/?cid=0x0:0x4ec173a9ed9776eb
hotel,hotel,Hotel Rama,"42JW+GWX, Jl. Trikora Rendani, Wosi, Kec. Manokwari Bar., Kabupaten Manokwari, Papua Bar. 98312","Jl. Trikora Rendani, Wosi, Kec. Manokwari Bar., Kabupaten Manokwari",PAPUA BARAT,98312.0,Indonesia,,-0.8686391,134.0473473,https://maps.google.com/?cid=0x0:0xbc8387651670c591
hotel,hotel,,,,PAPUA BARAT,,Indonesia,,,,https://maps.google.com/?cid=0x0:0x92c98d5e96ee2a8f%7C/g/1yl475f47%7Cid-ID
hotel,hotel,Hotel Triton,"Jl. Gn. Salju No.6, Manokwari Bar., Kec. Manokwari Bar., Kabupaten Manokwari, Papua Bar. 98311","Manokwari Bar., Kec. Manokwari Bar., Kabupaten Manokwari",PAPUA BARAT,98311.0,Indonesia,986212666.0,-0.8532727,134.068781,https://maps.google.com/?cid=0x0:0x6021b02b4fb20af
hotel,hotel,Swiss Belhotel Manokwari,"Jl. Yos Sudarso Manokwari No.8, Manokwari Bar., Kec. Manokwari Bar., Kabupaten Manokwari, Papua Bar. 98312","Manokwari Bar., Kec. Manokwari Bar., Kabupaten Manokwari",PAPUA BARAT,98312.0,Indonesia,8114854000.0,-0.8572937,134.0672125,https://maps.google.com/?cid=0x0:0x92c98d5e96ee2a8f
hotel,hotel,Aimas Hotel And Convention Center,"Klamasen, Distrik Mariat, Kabupaten Sorong, Papua Bar. 98416","Distrik Mariat, Kabupaten Sorong",PAPUA BARAT,98416.0,Indonesia,8114887778.0,-0.9780957,131.3535192,https://maps.google.com/?cid=0x0:0x622ceae2f7c756cf
hotel,hotel,RAMA TRANSITO HOTEL,"42RV+276, Unnamed Road, Wosi, Kec. Manokwari Bar., Kabupaten Manokwari, Papua Bar. 98312","Unnamed Road, Wosi, Kec. Manokwari Bar., Kabupaten Manokwari",PAPUA BARAT,98312.0,Indonesia,82198250318.0,-0.8599684,134.0431297,https://maps.google.com/?cid=0x0:0x61e002737b3747f1
hotel,hotel,Mahanaim Hotel dan Homestay Manokwari,"jln trikora kalidingin no 109, Wosi, Kec. Manokwari Bar., Kabupaten Manokwari, Papua Bar. 98312","Wosi, Kec. Manokwari Bar., Kabupaten Manokwari",PAPUA BARAT,98312.0,Indonesia,8124830147.0,-0.8699305,134.0471193,https://maps.google.com/?cid=0x0:0xeec6727952b4f3e6
hotel,hotel,Mansinam Beach Hotel,"43CR+H6X, Jl. Pasir Putih No.7, Pasir Putih, Kec. Manokwari Tim., Kabupaten Manokwari, Papua Bar. 98313","Jl. Pasir Putih No.7, Pasir Putih, Kec. Manokwari Tim., Kabupaten Manokwari",PAPUA BARAT,98313.0,Indonesia,986213585.0,-0.878422,134.0901197,https://maps.google.com/?cid=0x0:0x7d51b487bac82f8f
hotel,hotel,Aston Sorong Hotel  Conference Center,"476V+J9X, Jl. Basuki Rahmat, Malaingkedi, Kec. Sorong Utara, Kota Sorong, Papua Bar. 98412","Jl. Basuki Rahmat, Malaingkedi, Kec. Sorong Utara, Kota Sorong",PAPUA BARAT,98412.0,Indonesia,81148500888.0,-0.8887467,131.2931592,https://maps.google.com/?cid=0x0:0x110a6a5f0a67a7f7
hotel,hotel,Quattrick Dee Homestay,"Jl. KPR Reremi Permai, Manokwari Bar., Kec. Manokwari Bar., Kabupaten Manokwari, Papua Bar. 98312","Manokwari Bar., Kec. Manokwari Bar., Kabupaten Manokwari",PAPUA BARAT,98312.0,Indonesia,895417300072.0,-0.8533263,134.0555329,https://maps.google.com/?cid=0x0:0xf2c8eb1ca8dee63b
hotel,hotel,Amban Beach House,"Amban, Pantai, Kabupaten Manokwari, Papua Bar. 98312","Pantai, Kabupaten Manokwari",PAPUA BARAT,98312.0,Indonesia,85251590060.0,-0.8151637,134.0780254,https://maps.google.com/?cid=0x0:0x6bfad7f54baf0beb
hotel,hotel,Papua Bar. 98357,"Kabupaten Manokwari, Papua Bar.","Kabupaten Manokwari, Papua Bar.",PAPUA BARAT,,Indonesia,,-0.8227418,133.5606946,https://maps.google.com/?cid=0x0:0x3e375139d962692c
hotel,hotel,Swiss Belhotel Manokwari,"Jl. Yos Sudarso Manokwari No.8, Manokwari Bar., Kec. Manokwari Bar., Kabupaten Manokwari, Papua Bar. 98312","Manokwari Bar., Kec. Manokwari Bar., Kabupaten Manokwari",PAPUA BARAT,98312.0,Indonesia,8114854000.0,-0.8572937,134.0672125,https://maps.google.com/?cid=0x0:0x92c98d5e96ee2a8f
hotel,hotel,Hotel Triton,"Jl. Gn. Salju No.6, Manokwari Bar., Kec. Manokwari Bar., Kabupaten Manokwari, Papua Bar. 98311","Manokwari Bar., Kec. Manokwari Bar., Kabupaten Manokwari",PAPUA BARAT,98311.0,Indonesia,986212666.0,-0.8532727,134.068781,https://maps.google.com/?cid=0x0:0x6021b02b4fb20af
hotel,hotel,Hotel Rama,"42JW+GWX, Jl. Trikora Rendani, Wosi, Kec. Manokwari Bar., Kabupaten Manokwari, Papua Bar. 98312","Jl. Trikora Rendani, Wosi, Kec. Manokwari Bar., Kabupaten Manokwari",PAPUA BARAT,98312.0,Indonesia,,-0.8686391,134.0473473,https://maps.google.com/?cid=0x0:0xbc8387651670c591
hotel,hotel,,,,PAPUA BARAT,,Indonesia,,,,https://maps.google.com/?cid=0x0:0xe96b706fef94b3a2%7C/g/120jr49w%7Cid-ID
hotel,hotel,Aston Niu Manokwari,"Sogun Hill, Jl. Drs Esau Sesa No.3 Blok B, Sowi, Distrik Manokwari, Kabupaten Manokwari, Papua Bar. 98315","Jl. Drs Esau Sesa No.3 Blok B, Sowi, Distrik Manokwari, Kabupaten Manokwari",PAPUA BARAT,98315.0,Indonesia,81369878787.0,-0.8978109,134.0416499,https://maps.google.com/?cid=0x0:0xe96b706fef94b3a2
hotel,hotel,Aimas Hotel And Convention Center,"Klamasen, Distrik Mariat, Kabupaten Sorong, Papua Bar. 98416","Distrik Mariat, Kabupaten Sorong",PAPUA BARAT,98416.0,Indonesia,8114887778.0,-0.9780957,131.3535192,https://maps.google.com/?cid=0x0:0x622ceae2f7c756cf
hotel,hotel,Vitta Hotel Manokwari,"32PP+MFR, Jl. Trikora Taman Ria, Sowi, Distrik Manokwari, Kabupaten Manokwari, Papua Bar. 98315","Jl. Trikora Taman Ria, Sowi, Distrik Manokwari, Kabupaten Manokwari",PAPUA BARAT,98315.0,Indonesia,81367287972.0,-0.9131667,134.0359179,https://maps.google.com/?cid=0x0:0x4ec173a9ed9776eb
hotel,hotel,Mansinam Beach Hotel,"43CR+H6X, Jl. Pasir Putih No.7, Pasir Putih, Kec. Manokwari Tim., Kabupaten Manokwari, Papua Bar. 98313","Jl. Pasir Putih No.7, Pasir Putih, Kec. Manokwari Tim., Kabupaten Manokwari",PAPUA BARAT,98313.0,Indonesia,986213585.0,-0.878422,134.0901197,https://maps.google.com/?cid=0x0:0x7d51b487bac82f8f
hotel,hotel,Mahanaim Hotel dan Homestay Manokwari,"jln trikora kalidingin no 109, Wosi, Kec. Manokwari Bar., Kabupaten Manokwari, Papua Bar. 98312","Wosi, Kec. Manokwari Bar., Kabupaten Manokwari",PAPUA BARAT,98312.0,Indonesia,8124830147.0,-0.8699305,134.0471193,https://maps.google.com/?cid=0x0:0xeec6727952b4f3e6
hotel,hotel,RAMA TRANSITO HOTEL,"42RV+276, Unnamed Road, Wosi, Kec. Manokwari Bar., Kabupaten Manokwari, Papua Bar. 98312","Unnamed Road, Wosi, Kec. Manokwari Bar., Kabupaten Manokwari",PAPUA BARAT,98312.0,Indonesia,82198250318.0,-0.8599684,134.0431297,https://maps.google.com/?cid=0x0:0x61e002737b3747f1
hotel,hotel,VEGA PRIME Hotel  Convention,"Jl. Frans Kaisiepo, Malaingkedi, Kec. Sorong Utara, Kota Sorong, Papua Bar. 98412","Malaingkedi, Kec. Sorong Utara, Kota Sorong",PAPUA BARAT,98412.0,Indonesia,81148501658.0,-0.8863935,131.2926608,https://maps.google.com/?cid=0x0:0x9490ccc0d9334885
hotel,hotel,,,,PAPUA BARAT,,Indonesia,,,,https://maps.google.com/?cid=0x0:0x56f2eb1c250a17fa%7C/g/11g8bwyjxb%7Cid-ID
hotel,hotel,favehotel Sorong,"Klabulu, Jl. Basuki Rahmat Malaimsimsa, RT.001/RW.005, Kecamatan Malaimsimsa, Kota Sorong, Papua Bar. 98419","Jl. Basuki Rahmat Malaimsimsa, RT.001/RW.005, Kecamatan Malaimsimsa, Kota Sorong",PAPUA BARAT,98419.0,Indonesia,9513173888.0,-0.8892152,131.2985379,https://maps.google.com/?cid=0x0:0x56f2eb1c250a17fa
restaurant,restaurant,Distrik Anggi,"Kab. Pegunungan Arfak, Papua Bar.","Kab. Pegunungan Arfak, Papua Bar.",PAPUA BARAT,,Indonesia,,-1.3260424,133.9158721,https://maps.google.com/?cid=0x0:0xfcf8f2554dc74d7d
restaurant,Padang,Rumah Makan Pesona Anggi,"MWG8+H6X, Suteibey, Distrik Anggi, Kabupaten Manokwari, Papua Bar. 98354","Suteibey, Distrik Anggi, Kabupaten Manokwari",PAPUA BARAT,98354.0,Indonesia,81248476719.0,-1.3235004,133.9156232,https://maps.google.com/?cid=0x0:0xf98382fbcaabfb74
restaurant,Rumah Makan,Warung Makan,"MWG8+6X4, Suteibey, Distrik Anggi, Kab. Pegunungan Arfak, Papua Bar.","Kab. Pegunungan Arfak, Papua Bar.",PAPUA BARAT,,Indonesia,,-1.3244789,133.9174574,https://maps.google.com/?cid=0x0:0x2b8056b740f400f8
restaurant,Rumah Makan,Warung Segeri Indah,"Ingebai / Imbeisba, Distrik Anggi, Kab. Pegunungan Arfak, Papua Bar. 98355","Distrik Anggi, Kab. Pegunungan Arfak",PAPUA BARAT,98355.0,Indonesia,,-1.3244725,133.9174685,https://maps.google.com/?cid=0x0:0x57fe42ee9f5808f
restaurant,Ayam,Anggi Chad,"HP7H+JQ6, Unnamed Road, Pemagarsari, Kec. Parung, Kabupaten Bogor, Jawa Barat 16330","Unnamed Road, Pemagarsari, Kec. Parung, Kabupaten Bogor",PAPUA BARAT,16330.0,Indonesia,859599518687.0,-6.4359696,106.7293837,https://maps.google.com/?cid=0x0:0xb57805845662d079
restaurant,Sunda,Anggi,"QJGH+84W, Jl. Ke Gn. Sari, RT.002/RW.003, Panunggangan Bar., Kec. Cibodas, Kota Tangerang, Banten 15138","Jl. Ke Gn. Sari, RT.002/RW.003, Panunggangan Bar., Kec. Cibodas, Kota Tangerang",PAPUA BARAT,15138.0,Indonesia,,-6.224125,106.6278253,https://maps.google.com/?cid=0x0:0x78c68e066901f66e
restaurant,Brunch,Kedai anggita,"Jl. Kampung Bojong No.39c, RT.7/RW.19, Abadijaya, Kec. Sukmajaya, Kota Depok, Jawa Barat 16418","RT.7/RW.19, Abadijaya, Kec. Sukmajaya, Kota Depok",PAPUA BARAT,16418.0,Indonesia,82113155923.0,-6.3905406,106.854707,https://maps.google.com/?cid=0x0:0x5b54f91e2a378dd1
restaurant,Kafe,Cafe Anggie,"HQX8+H2W, Sawangan Baru, Kec. Sawangan, Kota Depok, Jawa Barat 16511","Sawangan Baru, Kec. Sawangan, Kota Depok",PAPUA BARAT,16511.0,Indonesia,,-6.4010059,106.7650738,https://maps.google.com/?cid=0x0:0xf4db9d33e6258b39
restaurant,Kafe,Anggie 05,"HP46+W7W, Unnamed Road, Iwul, Kec. Parung, Kabupaten Bogor, Jawa Barat 16330","Unnamed Road, Iwul, Kec. Parung, Kabupaten Bogor",PAPUA BARAT,16330.0,Indonesia,89638766892.0,-6.4426327,106.7107147,https://maps.google.com/?cid=0x0:0xc0fb230a3bfad166
restaurant,Katering,Anggi Katering,"Jl. Bulak Rantai No.46 9, RT.9/RW.1, Kp. Tengah, Kec. Kramat jati, Kota Jakarta Timur, Daerah Khusus Ibukota Jakarta 13540","RT.9/RW.1, Kp. Tengah, Kec. Kramat jati, Kota Jakarta Timur",PAPUA BARAT,13540.0,Indonesia,81292332485.0,-6.2850932,106.8707004,https://maps.google.com/?cid=0x0:0x30baea6a1dd01674
restaurant,Sesuai untuk keluarga,Anjungan Lite (Cafe  Resto),"Jl. Raden Fatah No.85, RT.001/RW.003, Parung Serab, Kec. Ciledug, Kota Tangerang, Banten 15153","RT.001/RW.003, Parung Serab, Kec. Ciledug, Kota Tangerang",PAPUA BARAT,15153.0,Indonesia,81299530003.0,-6.2509957,106.7026268,https://maps.google.com/?cid=0x0:0x2044114b3e57f0bb
restaurant,Indonesia,Dapur Neng Anggi,"Perumahan Harapan Kita, Jl. Soka I No.25 Blok G-1, Bencongan Indah, Kec. Klp. Dua, Kabupaten Tangerang, Banten 15810","Jl. Soka I No.25 Blok G-1, Bencongan Indah, Kec. Klp. Dua, Kabupaten Tangerang",PAPUA BARAT,15810.0,Indonesia,82122519025.0,-6.2228024,106.5993864,https://maps.google.com/?cid=0x0:0xaaf5bb875fc1df27
restaurant,Restoran,Warung Makan Anggi Ashter 22,"Srengsem, Kec. Panjang, Kota Bandar Lampung, Lampung","Kota Bandar Lampung, Lampung",PAPUA BARAT,,Indonesia,,-5.5014922,105.3335312,https://maps.google.com/?cid=0x0:0x1501fa4c1dca4dc2
restaurant,Restoran,Anggi Food,"RRW4+X89, Jl. Duri Utara II, RT.9/RW.1, Duri Utara, Kec. Tambora, Kota Jakarta Barat, Daerah Khusus Ibukota Jakarta 11270","Jl. Duri Utara II, RT.9/RW.1, Duri Utara, Kec. Tambora, Kota Jakarta Barat",PAPUA BARAT,11270.0,Indonesia,,-6.1525823,106.805862,https://maps.google.com/?cid=0x0:0xf42b00b74c72f7a2
restaurant,restaurant,Kec. Anggi Gida,"Kab. Pegunungan Arfak, Papua Bar.","Kab. Pegunungan Arfak, Papua Bar.",PAPUA BARAT,,Indonesia,,-1.3668114,133.9609514,https://maps.google.com/?cid=0x0:0xb4bc71d5f83c5185
restaurant,Padang,Rumah Makan Pesona Anggi,"MWG8+H6X, Suteibey, Distrik Anggi, Kabupaten Manokwari, Papua Bar. 98354","Suteibey, Distrik Anggi, Kabupaten Manokwari",PAPUA BARAT,98354.0,Indonesia,81248476719.0,-1.3235004,133.9156232,https://maps.google.com/?cid=0x0:0xf98382fbcaabfb74
restaurant,restaurant,Anggi Gida,"Kab. Pegunungan Arfak, Papua Bar.","Kab. Pegunungan Arfak, Papua Bar.",PAPUA BARAT,,Indonesia,,-1.3958835,133.9722816,https://maps.google.com/?cid=0x0:0x8008ad12448ea805
restaurant,Rumah Makan,Warung Makan,"MWG8+6X4, Suteibey, Distrik Anggi, Kab. Pegunungan Arfak, Papua Bar.","Kab. Pegunungan Arfak, Papua Bar.",PAPUA BARAT,,Indonesia,,-1.3244789,133.9174574,https://maps.google.com/?cid=0x0:0x2b8056b740f400f8
restaurant,Rumah Makan,Warung Segeri Indah,"Ingebai / Imbeisba, Distrik Anggi, Kab. Pegunungan Arfak, Papua Bar. 98355","Distrik Anggi, Kab. Pegunungan Arfak",PAPUA BARAT,98355.0,Indonesia,,-1.3244725,133.9174685,https://maps.google.com/?cid=0x0:0x57fe42ee9f5808f
restaurant,Korea,EXO Korean Cafe,"Udapi Hilir, Distrik Prafi, Kabupaten Manokwari, Papua Bar. 98356","Distrik Prafi, Kabupaten Manokwari",PAPUA BARAT,98356.0,Indonesia,81245008384.0,-0.8842664,133.8223763,https://maps.google.com/?cid=0x0:0x928b6ce6058bb3fd
restaurant,restaurant,Papua Bar. 98358,"Kabupaten Manokwari, Papua Bar.","Kabupaten Manokwari, Papua Bar.",PAPUA BARAT,,Indonesia,,-1.0707188,133.7525619,https://maps.google.com/?cid=0x0:0x566a5a268f3890ee
restaurant,Restoran,Inggandi Beach Restaurant,"43GV+7Q3, Jl. Pasir Putih No.33, Pasir Putih, Kec. Manokwari Tim., Kabupaten Manokwari, Papua Bar. 98313","Jl. Pasir Putih No.33, Pasir Putih, Kec. Manokwari Tim., Kabupaten Manokwari",PAPUA BARAT,98313.0,Indonesia,81240372255.0,-0.8780927,134.0933631,https://maps.google.com/?cid=0x0:0xba66c7a3124731e6
restaurant,Restoran,Garo Rica,"Jl. Pertanian Wosi No.18, Udapi Hilir, Kecamatan Manokwari Barat, Kabupaten Manokwari, Papua Bar. 98312","Udapi Hilir, Kecamatan Manokwari Barat, Kabupaten Manokwari",PAPUA BARAT,98312.0,Indonesia,81344757627.0,-0.8843551,133.83651,https://maps.google.com/?cid=0x0:0xdad9ce68da8cadb4
restaurant,Kedai Kopi,STEAK  SHAKE,"Bar. Papua Bar. 98356, Udapi Hilir, Distrik Prafi, Kabupaten Manokwari, Papua Bar. 98356","Udapi Hilir, Distrik Prafi, Kabupaten Manokwari",PAPUA BARAT,98356.0,Indonesia,,-0.8843499,133.8210703,https://maps.google.com/?cid=0x0:0x65787006c10c733
restaurant,Restoran,Resto Celeng Kiman Neyeng Family,"3VMH+X6P, Desay, Distrik Prafi, Kabupaten Manokwari, Papua Bar. 98356","Desay, Distrik Prafi, Kabupaten Manokwari",PAPUA BARAT,98356.0,Indonesia,82260054174.0,-0.9150316,133.8780732,https://maps.google.com/?cid=0x0:0x541c788dd06c7e60
restaurant,Kedai Kopi,Yampi Cafe,"4R8C+J62, Jl. Poros, Aimasi/Sp III Aimasi, Distrik Prafi, Kabupaten Manokwari, Papua Bar. 98356","Jl. Poros, Aimasi/Sp III Aimasi, Distrik Prafi, Kabupaten Manokwari",PAPUA BARAT,98356.0,Indonesia,,-0.8834888,133.8205183,https://maps.google.com/?cid=0x0:0xc35cf86e29fff038
restaurant,restaurant,YessJajan,"Jl. Poros No.Sp 3, Udapi Hilir, Distrik Prafi, Kabupaten Manokwari, Papua Bar. 98316","Udapi Hilir, Distrik Prafi, Kabupaten Manokwari",PAPUA BARAT,98316.0,Indonesia,82238080032.0,-0.8747585,133.8340829,https://maps.google.com/?cid=0x0:0x7c635f3e5dd2b5ef
restaurant,Brunch,Warung Makan BUTUTIK,"4R9G+H5X, Udapi Hilir, Distrik Prafi, Kabupaten Manokwari, Papua Bar. 98356","Udapi Hilir, Distrik Prafi, Kabupaten Manokwari",PAPUA BARAT,98356.0,Indonesia,82199020725.0,-0.8810189,133.8254831,https://maps.google.com/?cid=0x0:0xe96e2acbee8e6d57
restaurant,Padang,RM Sabar Menanti,"3VJV+G4R, Prafi Mulia, Distrik Prafi, Kabupaten Manokwari, Papua Bar. 98352","Prafi Mulia, Distrik Prafi, Kabupaten Manokwari",PAPUA BARAT,98352.0,Indonesia,82199543692.0,-0.9186418,133.8927765,https://maps.google.com/?cid=0x0:0x9ccd68e273cb940f
restaurant,Dapur Umum,Rumah Makan Barokah,"Jl. Poros, Udapi Hilir, Distrik Prafi, Kabupaten Manokwari, Papua Bar. 98356","Udapi Hilir, Distrik Prafi, Kabupaten Manokwari",PAPUA BARAT,98356.0,Indonesia,,-0.8853347,133.8369152,https://maps.google.com/?cid=0x0:0x17000892748e0728
restaurant,restaurant,RM Singgah Indah,"3VJV+P9X SP 1, Prafi Mulia, Prafi, Manokwari Regency, West Papua","Kabupaten Manokwari, Papua Bar.",PAPUA BARAT,,Indonesia,85344126333.0,-0.9181449,133.8934694,https://maps.google.com/?cid=0x0:0xee871fb14259fa6d
restaurant,restaurant,Papua Bar. 98359,Papua Bar.,Papua Bar.,PAPUA BARAT,,Indonesia,,-1.5213839,133.7525619,https://maps.google.com/?cid=0x0:0xc8a895044b18d7c8
restaurant,Padang,Rumah Makan Pesona Anggi,"MWG8+H6X, Suteibey, Distrik Anggi, Kabupaten Manokwari, Papua Bar. 98354","Suteibey, Distrik Anggi, Kabupaten Manokwari",PAPUA BARAT,98354.0,Indonesia,81248476719.0,-1.3235004,133.9156232,https://maps.google.com/?cid=0x0:0xf98382fbcaabfb74
restaurant,Rumah Makan,Warung Segeri Indah,"Ingebai / Imbeisba, Distrik Anggi, Kab. Pegunungan Arfak, Papua Bar. 98355","Distrik Anggi, Kab. Pegunungan Arfak",PAPUA BARAT,98355.0,Indonesia,,-1.3244725,133.9174685,https://maps.google.com/?cid=0x0:0x57fe42ee9f5808f
restaurant,Padang,Resto Yougwa Danau Sentani,"Jl. Batu Ceper No.73 15, RT.15/RW.1, Kb. Klp., Kecamatan Gambir, Kota Jakarta Pusat, Daerah Khusus Ibukota Jakarta 10120","RT.15/RW.1, Kb. Klp., Kecamatan Gambir, Kota Jakarta Pusat",PAPUA BARAT,10120.0,Indonesia,8119622272.0,-6.162043,106.8243928,https://maps.google.com/?cid=0x0:0xd6689d47fce71c89
restaurant,Indonesia,Yougwa Danau Sentani,"Senayan Park Mall Lantai LG #20-25, Jl. Gerbang Pemuda No.3, RT.1/RW.3, Gelora, Kecamatan Tanah Abang, Kota Jakarta Pusat, Daerah Khusus Ibukota Jakarta 10270","Jl. Gerbang Pemuda No.3, RT.1/RW.3, Gelora, Kecamatan Tanah Abang, Kota Jakarta Pusat",PAPUA BARAT,10270.0,Indonesia,2129633388.0,-6.2122871,106.8053997,https://maps.google.com/?cid=0x0:0x25579f89f3dead39
restaurant,Ikan Bakar,D'Jimbaran Papua,"9PX8+3VF, Engros, Kec. Abepura, Kota Jayapura, Papua","Kota Jayapura, Papua",PAPUA BARAT,,Indonesia,,-2.6020736,140.7168784,https://maps.google.com/?cid=0x0:0xb6125c5e0138c416
restaurant,Rumah Makan,Warung Makan,"MWG8+6X4, Suteibey, Distrik Anggi, Kab. Pegunungan Arfak, Papua Bar.","Kab. Pegunungan Arfak, Papua Bar.",PAPUA BARAT,,Indonesia,,-1.3244789,133.9174574,https://maps.google.com/?cid=0x0:0x2b8056b740f400f8
restaurant,Restoran,Inggandi Beach Restaurant,"43GV+7Q3, Jl. Pasir Putih No.33, Pasir Putih, Kec. Manokwari Tim., Kabupaten Manokwari, Papua Bar. 98313","Jl. Pasir Putih No.33, Pasir Putih, Kec. Manokwari Tim., Kabupaten Manokwari",PAPUA BARAT,98313.0,Indonesia,81240372255.0,-0.8780927,134.0933631,https://maps.google.com/?cid=0x0:0xba66c7a3124731e6
restaurant,Steak,Daddy's Smokehouse Papua,"Jl. Hamadi Pante, Tobati, Distrik Jayapura Selatan, Kota Jayapura, Papua","Kota Jayapura, Papua",PAPUA BARAT,,Indonesia,85243038489.0,-2.5753776,140.7088077,https://maps.google.com/?cid=0x0:0xd7b55155f0360b06
restaurant,Vila,Cafe  Resto Efata,"Unnamed Road, Doyo Lama, Distrik Waibu, Kabupaten Jayapura, Papua 99352","Doyo Lama, Distrik Waibu, Kabupaten Jayapura",PAPUA BARAT,99352.0,Indonesia,81393727460.0,-2.5656718,140.4652682,https://maps.google.com/?cid=0x0:0xdf6899334b660461
restaurant,Hidangan Laut,Republik Seafood,"Sawagumu, Kec. Sorong Utara, Kota Sorong, Papua Bar. 98412","Kec. Sorong Utara, Kota Sorong",PAPUA BARAT,98412.0,Indonesia,81344615005.0,-0.8883945,131.3109228,https://maps.google.com/?cid=0x0:0xec5acb934a352d67
restaurant,Hidangan Laut,Marina Star Restaurant Seafood,"Kompleks, Jl. Bubara Jl. Pelabuhan Perikanan, Distrik Sorong, Kota Sorong, Papua Bar. 98414","Jl. Bubara Jl. Pelabuhan Perikanan, Distrik Sorong, Kota Sorong",PAPUA BARAT,98414.0,Indonesia,81240250548.0,-0.8790069,131.2552456,https://maps.google.com/?cid=0x0:0x6d780e763a272c1a
restaurant,Pizza,Pizzeria Terrazza di Sorong,"Behind SKKMIGAS, dibelakang SKKMIGAS, Jl. Arfak, Kp. Baru, Kota Sorong, Papua Bar. 98414","dibelakang SKKMIGAS, Jl. Arfak, Kp. Baru, Kota Sorong",PAPUA BARAT,98414.0,Indonesia,81356867669.0,-0.8737438,131.25222,https://maps.google.com/?cid=0x0:0xf46c05068677dc1
restaurant,restaurant,Distrik Didohu,"Kab. Pegunungan Arfak, Papua Bar.","Kab. Pegunungan Arfak, Papua Bar.",PAPUA BARAT,,Indonesia,,-1.2738304,133.6341625,https://maps.google.com/?cid=0x0:0xbce404f07805cebf
restaurant,restaurant,Hingk,"Kab. Pegunungan Arfak, Papua Bar.","Kab. Pegunungan Arfak, Papua Bar.",PAPUA BARAT,,Indonesia,,-1.2205844,133.9627492,https://maps.google.com/?cid=0x0:0x3f01e43bc4522fcd
restaurant,Restoran,Inggandi Beach Restaurant,"43GV+7Q3, Jl. Pasir Putih No.33, Pasir Putih, Kec. Manokwari Tim., Kabupaten Manokwari, Papua Bar. 98313","Jl. Pasir Putih No.33, Pasir Putih, Kec. Manokwari Tim., Kabupaten Manokwari",PAPUA BARAT,98313.0,Indonesia,81240372255.0,-0.8780927,134.0933631,https://maps.google.com/?cid=0x0:0xba66c7a3124731e6
restaurant,China,TIGA NAGA,"32CJ+3XM, Jl. Manokwari - Maruni, Sowi, Distrik Manokwari, Kabupaten Manokwari, Papua Bar. 98315","Jl. Manokwari - Maruni, Sowi, Distrik Manokwari, Kabupaten Manokwari",PAPUA BARAT,98315.0,Indonesia,82233333692.0,-0.9297774,134.0324097,https://maps.google.com/?cid=0x0:0xfc6c21a1ade37455
restaurant,Padang,RM Kharunia Ketapang 2,"22X3+PPW, Jl. Manokwari - Bintuni, Anday, Distrik Manokwari, Kabupaten Manokwari, Papua Bar. 98315","Jl. Manokwari - Bintuni, Anday, Distrik Manokwari, Kabupaten Manokwari",PAPUA BARAT,98315.0,Indonesia,,-0.9506381,134.004338,https://maps.google.com/?cid=0x0:0x434f8dc228dd2920
restaurant,Sesuai untuk keluarga,Rumah Makan Segeri,"224G+GQP, Jl. Manokwari - Bintuni, Maruni, Distrik Manokwari, Kabupaten Manokwari, Papua Bar. 98315","Jl. Manokwari - Bintuni, Maruni, Distrik Manokwari, Kabupaten Manokwari",PAPUA BARAT,98315.0,Indonesia,,-0.993664,134.026939,https://maps.google.com/?cid=0x0:0x7fba6dd234646c72
restaurant,Minimarket,Pusat Kuliner Teras Kasuari,"32CP+F29, Jl. Manokwari - Maruni, Anday, Distrik Manokwari, Kabupaten Manokwari, Papua Bar. 98315","Jl. Manokwari - Maruni, Anday, Distrik Manokwari, Kabupaten Manokwari",PAPUA BARAT,98315.0,Indonesia,,-0.928827,134.0351169,https://maps.google.com/?cid=0x0:0x466a4c86a9105e6b
restaurant,Kafe,Oriestom Cafe  Restaurant,"43F2+G88, Jl. Trikora Rendani, Wosi, Kec. Manokwari Bar., Kabupaten Manokwari, Papua Bar. 98312","Jl. Trikora Rendani, Wosi, Kec. Manokwari Bar., Kabupaten Manokwari",PAPUA BARAT,98312.0,Indonesia,,-0.8762199,134.0508422,https://maps.google.com/?cid=0x0:0xe50589caa694703f
restaurant,restaurant,RM Singgah Indah,"3VJV+P9X SP 1, Prafi Mulia, Prafi, Manokwari Regency, West Papua","Kabupaten Manokwari, Papua Bar.",PAPUA BARAT,,Indonesia,85344126333.0,-0.9181449,133.8934694,https://maps.google.com/?cid=0x0:0xee871fb14259fa6d
restaurant,Nasi,Makan Lesehan Mba Ida,"3VMH+6QG, Jl. Sorong - Manokwari, Prafi Mulia, Distrik Prafi, Kabupaten Manokwari, Papua Bar. 98356","Jl. Sorong - Manokwari, Prafi Mulia, Distrik Prafi, Kabupaten Manokwari",PAPUA BARAT,98356.0,Indonesia,,-0.916942,133.8794645,https://maps.google.com/?cid=0x0:0x50e73a273c46dfdd
restaurant,Restoran,Cafe Laut,"Jl. Pasir Putih No.7, Pasir Putih, Kec. Manokwari Tim., Kabupaten Manokwari, Papua Bar. 98313","Pasir Putih, Kec. Manokwari Tim., Kabupaten Manokwari",PAPUA BARAT,98313.0,Indonesia,,-0.8790277,134.0896794,https://maps.google.com/?cid=0x0:0xd7761569d030427e
restaurant,Restoran,Resto Celeng Kiman Neyeng Family,"3VMH+X6P, Desay, Distrik Prafi, Kabupaten Manokwari, Papua Bar. 98356","Desay, Distrik Prafi, Kabupaten Manokwari",PAPUA BARAT,98356.0,Indonesia,82260054174.0,-0.9150316,133.8780732,https://maps.google.com/?cid=0x0:0x541c788dd06c7e60
restaurant,Padang,RUMAH MAKAN PADANG RR,"dan TVRI, Alamat. Jl. Brigjen Marinir (Purn) Abraham O. Atururi, Arfai, Manokwari Bersebelahan dengan jalan naik ke KPU, Kabupaten Manokwari, Papua Bar. 98315","Alamat. Jl. Brigjen Marinir (Purn) Abraham O. Atururi, Arfai, Manokwari Bersebelahan dengan jalan naik ke KPU, Kabupaten Manokwari",PAPUA BARAT,98315.0,Indonesia,81374835447.0,-0.9250156,134.0272695,https://maps.google.com/?cid=0x0:0xca806fa734f903bd
restaurant,Rumah Makan,RM. KLATEN INDAH,"42HX+69P, Wosi, Kec. Manokwari Bar., Kabupaten Manokwari, Papua Bar. 98312","Wosi, Kec. Manokwari Bar., Kabupaten Manokwari",PAPUA BARAT,98312.0,Indonesia,8124839844.0,-0.8719116,134.0484466,https://maps.google.com/?cid=0x0:0xd958f755cbb90a48
restaurant,Brunch,WM. Gombong,"Jl. Manokwari - Maruni, Anday, Distrik Manokwari, Kabupaten Manokwari, Papua Bar. 98315","Anday, Distrik Manokwari, Kabupaten Manokwari",PAPUA BARAT,98315.0,Indonesia,,-0.9281282,134.042352,https://maps.google.com/?cid=0x0:0xfcb3811170667c71
restaurant,Restoran,Inggandi Beach Restaurant,"43GV+7Q3, Jl. Pasir Putih No.33, Pasir Putih, Kec. Manokwari Tim., Kabupaten Manokwari, Papua Bar. 98313","Jl. Pasir Putih No.33, Pasir Putih, Kec. Manokwari Tim., Kabupaten Manokwari",PAPUA BARAT,98313.0,Indonesia,81240372255.0,-0.8780927,134.0933631,https://maps.google.com/?cid=0x0:0xba66c7a3124731e6
restaurant,restaurant,Kec. Membey,"Kab. Pegunungan Arfak, Papua Bar.","Kab. Pegunungan Arfak, Papua Bar.",PAPUA BARAT,,Indonesia,,-1.3416452,134.0336402,https://maps.google.com/?cid=0x0:0x6db50f43a0973078
restaurant,Restoran,R.M. MANGGA DUA,"M6MH+JCF, Jl. Manokwari - Bintuni, Sindang Jaya, Kec. Oransbari, Kab. Manokwari Selatan, Papua Bar. 98353","Jl. Manokwari - Bintuni, Sindang Jaya, Kec. Oransbari, Kab. Manokwari Selatan",PAPUA BARAT,98353.0,Indonesia,,-1.3159443,134.228541,https://maps.google.com/?cid=0x0:0x4cccf41410bd39c7
restaurant,Padang,Rumah Makan Pesona Anggi,"MWG8+H6X, Suteibey, Distrik Anggi, Kabupaten Manokwari, Papua Bar. 98354","Suteibey, Distrik Anggi, Kabupaten Manokwari",PAPUA BARAT,98354.0,Indonesia,81248476719.0,-1.3235004,133.9156232,https://maps.google.com/?cid=0x0:0xf98382fbcaabfb74
restaurant,Indonesia,Waroeng sawah,"M67P+J24, Unnamed Road, Muari, Kec. Oransbari, Kab. Manokwari Selatan, Papua Bar. 98353","Unnamed Road, Muari, Kec. Oransbari, Kab. Manokwari Selatan",PAPUA BARAT,98353.0,Indonesia,,-1.3359848,134.2350903,https://maps.google.com/?cid=0x0:0xff152faff9a9e1e5
restaurant,Dapur Umum,Rumah makan aulia. Oransbari,"M6J9+P7C, Jl. Manokwari - Bintuni, Sidomulyo, Kec. Oransbari, Kab. Manokwari Selatan, Papua Bar. 98353","Jl. Manokwari - Bintuni, Sidomulyo, Kec. Oransbari, Kab. Manokwari Selatan",PAPUA BARAT,98353.0,Indonesia,,-1.3181876,134.2181507,https://maps.google.com/?cid=0x0:0xfa78230c4e484df4
restaurant,Indonesia,RUMAH MAKAN PAOTERE ORANSBARI MANOKWARI SELATAN,"M6J9+J4Q, Sidomulyo, Kec. Oransbari, Kab. Manokwari Selatan, Papua Bar. 98353","Sidomulyo, Kec. Oransbari, Kab. Manokwari Selatan",PAPUA BARAT,98353.0,Indonesia,82198935488.0,-1.3184086,134.2178642,https://maps.google.com/?cid=0x0:0x479ba19d179f77b5
restaurant,Padang,Warung Makan Putri Tunggal,"M67F+XGC, Margomulyo, Kec. Oransbari, Kabupaten Manokwari, Papua Bar. 98353","Margomulyo, Kec. Oransbari, Kabupaten Manokwari",PAPUA BARAT,98353.0,Indonesia,,-1.3350724,134.2237771,https://maps.google.com/?cid=0x0:0xb455b352ffee6102
restaurant,Brunch,RM. PAPUA TURATEA,"M68C+XH9, Margomulyo, Kec. Oransbari, Kabupaten Manokwari, Papua Bar. 98353","Margomulyo, Kec. Oransbari, Kabupaten Manokwari",PAPUA BARAT,98353.0,Indonesia,82196466955.0,-1.3325994,134.2214754,https://maps.google.com/?cid=0x0:0xd7922be73a387289
restaurant,Brunch,R.M. Otawar Oransbari,"M638+FXP, Muari, Kec. Oransbari, Kabupaten Manokwari, Papua Bar. 98353","Muari, Kec. Oransbari, Kabupaten Manokwari",PAPUA BARAT,98353.0,Indonesia,,-1.3462858,134.2174427,https://maps.google.com/?cid=0x0:0x811a68840257a9d5
restaurant,Nasi,Rumah Makan Sederhana,"M69C+CC2, Margomulyo, Kec. Oransbari, Kabupaten Manokwari, Papua Bar. 98353","Margomulyo, Kec. Oransbari, Kabupaten Manokwari",PAPUA BARAT,98353.0,Indonesia,81229006341.0,-1.3315287,134.2210189,https://maps.google.com/?cid=0x0:0x548aede3c41a2904
restaurant,Rumah Makan,Rumah Makan 2 Putra,"J6P6+X9J, Jalan Manokwari - Bintuni, Ransiki Kota, Manokwari Selatan, Muari, Oransbari, South Manokwari Regency, West Papua 98353","Jalan Manokwari - Bintuni, Ransiki Kota, Manokwari Selatan, Muari, Oransbari, South Manokwari Regency",PAPUA BARAT,98353.0,Indonesia,,-1.3625256,134.2108787,https://maps.google.com/?cid=0x0:0x86fa010bd6b13ba6
restaurant,Padang,Rumah Makan Padang Anak Mande,"4R99+887, Waseki Indah, Distrik Prafi, Kabupaten Manokwari, Papua Bar. 98356","Waseki Indah, Distrik Prafi, Kabupaten Manokwari",PAPUA BARAT,98356.0,Indonesia,,-0.8817893,133.8182996,https://maps.google.com/?cid=0x0:0xe1fe5c7f06d231e5
restaurant,Rumah Makan,Warung Makan,"MWG8+6X4, Suteibey, Distrik Anggi, Kab. Pegunungan Arfak, Papua Bar.","Kab. Pegunungan Arfak, Papua Bar.",PAPUA BARAT,,Indonesia,,-1.3244789,133.9174574,https://maps.google.com/?cid=0x0:0x2b8056b740f400f8
restaurant,Rumah Makan,Warung Makan,"MWG8+6X4, Suteibey, Distrik Anggi, Kab. Pegunungan Arfak, Papua Bar.","Kab. Pegunungan Arfak, Papua Bar.",PAPUA BARAT,,Indonesia,,-1.3244789,133.9174574,https://maps.google.com/?cid=0x0:0x2b8056b740f400f8
restaurant,Padang,Rumah Makan Pesona Anggi,"MWG8+H6X, Suteibey, Distrik Anggi, Kabupaten Manokwari, Papua Bar. 98354","Suteibey, Distrik Anggi, Kabupaten Manokwari",PAPUA BARAT,98354.0,Indonesia,81248476719.0,-1.3235004,133.9156232,https://maps.google.com/?cid=0x0:0xf98382fbcaabfb74
restaurant,restaurant,Papua Bar. 98359,Papua Bar.,Papua Bar.,PAPUA BARAT,,Indonesia,,-1.5213839,133.7525619,https://maps.google.com/?cid=0x0:0xc8a895044b18d7c8
restaurant,Restoran,Mama Kitchen,"43Q8+XGJ, Jl. Yos Sudarso Manokwari, Manokwari Bar., Kec. Manokwari Bar., Kabupaten Manokwari, Papua Bar. 98312","Jl. Yos Sudarso Manokwari, Manokwari Bar., Kec. Manokwari Bar., Kabupaten Manokwari",PAPUA BARAT,98312.0,Indonesia,,-0.8600399,134.0662509,https://maps.google.com/?cid=0x0:0x35ccbf1f61fb92dd
restaurant,restaurant,,,,PAPUA BARAT,,Indonesia,,,,https://maps.google.com/?cid=0x0:0x9a4bd0f96556840eu0026onu0026midu003d/g/11whdcnvsx
restaurant,China,Ta wan - Manokwari,"Jl. Yos Sudarso No.8 LG Floor, Sanggeng, Kec. Manokwari Bar., Kabupaten Manokwari, Papua Bar. 98311","Sanggeng, Kec. Manokwari Bar., Kabupaten Manokwari",PAPUA BARAT,98311.0,Indonesia,,-0.8650032,134.0655736,https://maps.google.com/?cid=0x0:0x9a4bd0f96556840e
restaurant,Restoran,Billy Cafe,"Jl. Merdeka No.57, Padarni, Kec. Manokwari Bar., Kabupaten Manokwari, Papua Bar. 98312","Padarni, Kec. Manokwari Bar., Kabupaten Manokwari",PAPUA BARAT,98312.0,Indonesia,81240501959.0,-0.8596376,134.0734046,https://maps.google.com/?cid=0x0:0x245b68c7c99f326f
restaurant,restaurant,,,,PAPUA BARAT,,Indonesia,,,,https://maps.google.com/?cid=0x0:0xba66c7a3124731e6u0026onu003dPapedau0026midu003d/g/11cjnncbf3
restaurant,restaurant,,,,PAPUA BARAT,,Indonesia,,,,https://maps.google.com/?cid=0x0:0xba66c7a3124731e6u0026onu003dKakap+Merah+Kuah+Kuningu0026midu003d/g/11cjnncbf3
restaurant,restaurant,,,,PAPUA BARAT,,Indonesia,,,,https://maps.google.com/?cid=0x0:0xba66c7a3124731e6u0026onu003dMenu+Lengkapu0026midu003d/g/11cjnncbf3
restaurant,restaurant,,,,PAPUA BARAT,,Indonesia,,,,https://maps.google.com/?cid=0x0:0xba66c7a3124731e6u0026onu003dJeruk+Hangatu0026midu003d/g/11cjnncbf3
restaurant,restaurant,,,,PAPUA BARAT,,Indonesia,,,,https://maps.google.com/?cid=0x0:0xba66c7a3124731e6u0026onu003dEs+Campuru0026midu003d/g/11cjnncbf3
restaurant,restaurant,,,,PAPUA BARAT,,Indonesia,,,,https://maps.google.com/?cid=0x0:0xba66c7a3124731e6u0026onu003dKepiting+Saus+Padangu0026midu003d/g/11cjnncbf3
restaurant,restaurant,,,,PAPUA BARAT,,Indonesia,,,,https://maps.google.com/?cid=0x0:0xba66c7a3124731e6u0026onu003dKakap+Asam+Manisu0026midu003d/g/11cjnncbf3
restaurant,restaurant,,,,PAPUA BARAT,,Indonesia,,,,https://maps.google.com/?cid=0x0:0xba66c7a3124731e6u0026onu003dSate+Garou0026midu003d/g/11cjnncbf3
restaurant,restaurant,,,,PAPUA BARAT,,Indonesia,,,,https://maps.google.com/?cid=0x0:0xba66c7a3124731e6u0026onu003dTom+Yum+Soupu0026midu003d/g/11cjnncbf3
restaurant,restaurant,,,,PAPUA BARAT,,Indonesia,,,,https://maps.google.com/?cid=0x0:0xba66c7a3124731e6u0026onu003dTahu+Spesial+Inggandiu0026midu003d/g/11cjnncbf3
restaurant,restaurant,Papua Bar. 98315,"Kabupaten Manokwari, Papua Bar.","Kabupaten Manokwari, Papua Bar.",PAPUA BARAT,,Indonesia,,-1.0762009,133.4452148,https://maps.google.com/?cid=0x0:0xe20d605d60a391b5
restaurant,China,TIGA NAGA,"32CJ+3XM, Jl. Manokwari - Maruni, Sowi, Distrik Manokwari, Kabupaten Manokwari, Papua Bar. 98315","Jl. Manokwari - Maruni, Sowi, Distrik Manokwari, Kabupaten Manokwari",PAPUA BARAT,98315.0,Indonesia,82233333692.0,-0.9297774,134.0324097,https://maps.google.com/?cid=0x0:0xfc6c21a1ade37455
restaurant,Rumah Makan,Bakso Jeletot Wonogiri,"427W+2HC, Jl. Drs Esau Sesa, Sowi, Distrik Manokwari, Kabupaten Manokwari, Papua Bar. 98315","Jl. Drs Esau Sesa, Sowi, Distrik Manokwari, Kabupaten Manokwari",PAPUA BARAT,98315.0,Indonesia,,-0.8874439,134.0463883,https://maps.google.com/?cid=0x0:0xf9899a5bfcea7156
restaurant,Korea,EXO Korean Cafe,"Udapi Hilir, Distrik Prafi, Kabupaten Manokwari, Papua Bar. 98356","Distrik Prafi, Kabupaten Manokwari",PAPUA BARAT,98356.0,Indonesia,81245008384.0,-0.8842664,133.8223763,https://maps.google.com/?cid=0x0:0x928b6ce6058bb3fd
restaurant,Minimarket,Pusat Kuliner Teras Kasuari,"32CP+F29, Jl. Manokwari - Maruni, Anday, Distrik Manokwari, Kabupaten Manokwari, Papua Bar. 98315","Jl. Manokwari - Maruni, Anday, Distrik Manokwari, Kabupaten Manokwari",PAPUA BARAT,98315.0,Indonesia,,-0.928827,134.0351169,https://maps.google.com/?cid=0x0:0x466a4c86a9105e6b
restaurant,Toko,Kedai Arfai,"329F+GJV, Jalan, Anday, Distrik Manokwari, Kabupaten Manokwari, Papua Bar. 98315","Jalan, Anday, Distrik Manokwari, Kabupaten Manokwari",PAPUA BARAT,98315.0,Indonesia,81248670707.0,-0.9311299,134.0240433,https://maps.google.com/?cid=0x0:0xa86acab0c9a2eca8
restaurant,Dapur Umum,Rumah Makan Barokah,"Jl. Poros, Udapi Hilir, Distrik Prafi, Kabupaten Manokwari, Papua Bar. 98356","Udapi Hilir, Distrik Prafi, Kabupaten Manokwari",PAPUA BARAT,98356.0,Indonesia,,-0.8853347,133.8369152,https://maps.google.com/?cid=0x0:0x17000892748e0728
restaurant,Brunch,Rumah Makan Robema,"Anday, Distrik Manokwari, Kabupaten Manokwari, Papua Bar. 98315","Distrik Manokwari, Kabupaten Manokwari",PAPUA BARAT,98315.0,Indonesia,85276136715.0,-0.9309665,134.0172974,https://maps.google.com/?cid=0x0:0xdbce2ad74cede746
restaurant,restaurant,YessJajan,"Jl. Poros No.Sp 3, Udapi Hilir, Distrik Prafi, Kabupaten Manokwari, Papua Bar. 98316","Udapi Hilir, Distrik Prafi, Kabupaten Manokwari",PAPUA BARAT,98316.0,Indonesia,82238080032.0,-0.8747585,133.8340829,https://maps.google.com/?cid=0x0:0x7c635f3e5dd2b5ef
restaurant,Nasi Goreng,Warung Makan Umega Jaya,"3X5X+4X7, Jl. Trikora Maripi, Anday, Distrik Manokwari, Kabupaten Manokwari, Papua Bar. 98315","Jl. Trikora Maripi, Anday, Distrik Manokwari, Kabupaten Manokwari",PAPUA BARAT,98315.0,Indonesia,82397133545.0,-0.9422143,133.9999142,https://maps.google.com/?cid=0x0:0x5c9e89e8376b9c77
restaurant,Restoran,Resto Celeng Kiman Neyeng Family,"3VMH+X6P, Desay, Distrik Prafi, Kabupaten Manokwari, Papua Bar. 98356","Desay, Distrik Prafi, Kabupaten Manokwari",PAPUA BARAT,98356.0,Indonesia,82260054174.0,-0.9150316,133.8780732,https://maps.google.com/?cid=0x0:0x541c788dd06c7e60
restaurant,Komplek perumahan,Rendani Kantin,"4342+G65, Sowi, Distrik Manokwari, Kabupaten Manokwari, Papua Bar. 98315","Sowi, Distrik Manokwari, Kabupaten Manokwari",PAPUA BARAT,98315.0,Indonesia,962212688.0,-0.8937311,134.0505998,https://maps.google.com/?cid=0x0:0xb870fd57b3ae7b36
restaurant,Rumah Makan,BALAI JAGONG SP4,"Udapi Hilir, Distrik Prafi, Kabupaten Manokwari, Papua Bar. 98356","Distrik Prafi, Kabupaten Manokwari",PAPUA BARAT,98356.0,Indonesia,,-0.8762998,133.8313201,https://maps.google.com/?cid=0x0:0x5147bb3efa2e0da9
restaurant,Indonesia,Warung Ibu Dinda Jl Raya Maripi depan Rumah sakit BHAYANGKARA POLDA PAPUA BARAT,"Jl. Manokwari - Bintuni, Anday, Distrik Manokwari, Kabupaten Manokwari, Papua Bar. 98315","Anday, Distrik Manokwari, Kabupaten Manokwari",PAPUA BARAT,98315.0,Indonesia,,-0.9497526,134.0030809,https://maps.google.com/?cid=0x0:0x9fdf5b3da5950983
restaurant,Korea,EXO Korean Cafe,"Udapi Hilir, Distrik Prafi, Kabupaten Manokwari, Papua Bar. 98356","Distrik Prafi, Kabupaten Manokwari",PAPUA BARAT,98356.0,Indonesia,81245008384.0,-0.8842664,133.8223763,https://maps.google.com/?cid=0x0:0x928b6ce6058bb3fd
restaurant,restaurant,Papua Bar. 98352,"Kabupaten Manokwari, Papua Bar.","Kabupaten Manokwari, Papua Bar.",PAPUA BARAT,,Indonesia,,-1.0122519,133.9055155,https://maps.google.com/?cid=0x0:0x665ab61075e0d624
restaurant,Restoran,Resto Celeng Kiman Neyeng Family,"3VMH+X6P, Desay, Distrik Prafi, Kabupaten Manokwari, Papua Bar. 98356","Desay, Distrik Prafi, Kabupaten Manokwari",PAPUA BARAT,98356.0,Indonesia,82260054174.0,-0.9150316,133.8780732,https://maps.google.com/?cid=0x0:0x541c788dd06c7e60
restaurant,Padang,RM Sabar Menanti,"3VJV+G4R, Prafi Mulia, Distrik Prafi, Kabupaten Manokwari, Papua Bar. 98352","Prafi Mulia, Distrik Prafi, Kabupaten Manokwari",PAPUA BARAT,98352.0,Indonesia,82199543692.0,-0.9186418,133.8927765,https://maps.google.com/?cid=0x0:0x9ccd68e273cb940f
restaurant,restaurant,RM Singgah Indah,"3VJV+P9X SP 1, Prafi Mulia, Prafi, Manokwari Regency, West Papua","Kabupaten Manokwari, Papua Bar.",PAPUA BARAT,,Indonesia,85344126333.0,-0.9181449,133.8934694,https://maps.google.com/?cid=0x0:0xee871fb14259fa6d
restaurant,Padang,W.R. BAROKAH âNGUDI ROSOâ,"2WGW+7H6, Unnamed Road, Dindey, Kec. Warmare, Kabupaten Manokwari, Papua Bar. 98352","Unnamed Road, Dindey, Kec. Warmare, Kabupaten Manokwari",PAPUA BARAT,98352.0,Indonesia,,-0.974332,133.9463847,https://maps.google.com/?cid=0x0:0x12db3df9fc36f398
restaurant,Nasi,Makan Lesehan Mba Ida,"3VMH+6QG, Jl. Sorong - Manokwari, Prafi Mulia, Distrik Prafi, Kabupaten Manokwari, Papua Bar. 98356","Jl. Sorong - Manokwari, Prafi Mulia, Distrik Prafi, Kabupaten Manokwari",PAPUA BARAT,98356.0,Indonesia,,-0.916942,133.8794645,https://maps.google.com/?cid=0x0:0x50e73a273c46dfdd
restaurant,Padang,RM Kharunia Ketapang 2,"22X3+PPW, Jl. Manokwari - Bintuni, Anday, Distrik Manokwari, Kabupaten Manokwari, Papua Bar. 98315","Jl. Manokwari - Bintuni, Anday, Distrik Manokwari, Kabupaten Manokwari",PAPUA BARAT,98315.0,Indonesia,,-0.9506381,134.004338,https://maps.google.com/?cid=0x0:0x434f8dc228dd2920
restaurant,Dapur Umum,Warung makan wardha,"3VJV+844, Unnamed Road, Prafi Mulia, Distrik Prafi, Kabupaten Manokwari, Papua Bar. 98352","Unnamed Road, Prafi Mulia, Distrik Prafi, Kabupaten Manokwari",PAPUA BARAT,98352.0,Indonesia,82394568193.0,-0.9192436,133.8928332,https://maps.google.com/?cid=0x0:0x4214f5aabeefee44
restaurant,Restoran,Garo Rica,"Jl. Pertanian Wosi No.18, Udapi Hilir, Kecamatan Manokwari Barat, Kabupaten Manokwari, Papua Bar. 98312","Udapi Hilir, Kecamatan Manokwari Barat, Kabupaten Manokwari",PAPUA BARAT,98312.0,Indonesia,81344757627.0,-0.8843551,133.83651,https://maps.google.com/?cid=0x0:0xdad9ce68da8cadb4
restaurant,Padang,RUMAH MAKAN PADANG RR,"dan TVRI, Alamat. Jl. Brigjen Marinir (Purn) Abraham O. Atururi, Arfai, Manokwari Bersebelahan dengan jalan naik ke KPU, Kabupaten Manokwari, Papua Bar. 98315","Alamat. Jl. Brigjen Marinir (Purn) Abraham O. Atururi, Arfai, Manokwari Bersebelahan dengan jalan naik ke KPU, Kabupaten Manokwari",PAPUA BARAT,98315.0,Indonesia,81374835447.0,-0.9250156,134.0272695,https://maps.google.com/?cid=0x0:0xca806fa734f903bd
restaurant,Sesuai untuk keluarga,Rumah Makan Segeri,"224G+GQP, Jl. Manokwari - Bintuni, Maruni, Distrik Manokwari, Kabupaten Manokwari, Papua Bar. 98315","Jl. Manokwari - Bintuni, Maruni, Distrik Manokwari, Kabupaten Manokwari",PAPUA BARAT,98315.0,Indonesia,,-0.993664,134.026939,https://maps.google.com/?cid=0x0:0x7fba6dd234646c72
restaurant,Dapur Umum,Rumah Makan Barokah,"Jl. Poros, Udapi Hilir, Distrik Prafi, Kabupaten Manokwari, Papua Bar. 98356","Udapi Hilir, Distrik Prafi, Kabupaten Manokwari",PAPUA BARAT,98356.0,Indonesia,,-0.8853347,133.8369152,https://maps.google.com/?cid=0x0:0x17000892748e0728
restaurant,Toko Tahu,Rumah Industri Tahu,"3VMW+MC8, Prafi Mulia, Distrik Prafi, Kabupaten Manokwari, Papua Bar. 98352","Prafi Mulia, Distrik Prafi, Kabupaten Manokwari",PAPUA BARAT,98352.0,Indonesia,82238511122.0,-0.9158333,133.896077,https://maps.google.com/?cid=0x0:0x4cde56edd88c1f1b
restaurant,restaurant,Papua Bar. 98357,"Kabupaten Manokwari, Papua Bar.","Kabupaten Manokwari, Papua Bar.",PAPUA BARAT,,Indonesia,,-0.8227418,133.5606946,https://maps.google.com/?cid=0x0:0x3e375139d962692c
restaurant,Korea,EXO Korean Cafe,"Udapi Hilir, Distrik Prafi, Kabupaten Manokwari, Papua Bar. 98356","Distrik Prafi, Kabupaten Manokwari",PAPUA BARAT,98356.0,Indonesia,81245008384.0,-0.8842664,133.8223763,https://maps.google.com/?cid=0x0:0x928b6ce6058bb3fd
restaurant,Rumah Makan,Warung Makan Ibu Nunuk,"4QVJ+38J, Macuan, Distrik Masni, Kabupaten Manokwari, Papua Bar. 98356","Macuan, Distrik Masni, Kabupaten Manokwari",PAPUA BARAT,98356.0,Indonesia,,-0.8572955,133.7807754,https://maps.google.com/?cid=0x0:0xb8d37f02fdbfd71
restaurant,Restoran,Garo Rica,"Jl. Pertanian Wosi No.18, Udapi Hilir, Kecamatan Manokwari Barat, Kabupaten Manokwari, Papua Bar. 98312","Udapi Hilir, Kecamatan Manokwari Barat, Kabupaten Manokwari",PAPUA BARAT,98312.0,Indonesia,81344757627.0,-0.8843551,133.83651,https://maps.google.com/?cid=0x0:0xdad9ce68da8cadb4
restaurant,Brunch,WM.Pandhawi,"5JX4+25F, Meyof I, Distrik Sidey, Kabupaten Manokwari, Papua Bar. 98357","Meyof I, Distrik Sidey, Kabupaten Manokwari",PAPUA BARAT,98357.0,Indonesia,,-0.8024412,133.6054285,https://maps.google.com/?cid=0x0:0x35c8be23c2b4856c
restaurant,Restoran,warung deva idriz,"4PV5+P7W, Ririnfos, Distrik Masni, Kabupaten Manokwari, Papua Bar. 98357","Ririnfos, Distrik Masni, Kabupaten Manokwari",PAPUA BARAT,98357.0,Indonesia,85320668685.0,-0.8556374,133.7082117,https://maps.google.com/?cid=0x0:0xc1289732127f8f78
restaurant,Dapur Umum,Rumah Makan Barokah,"Jl. Poros, Udapi Hilir, Distrik Prafi, Kabupaten Manokwari, Papua Bar. 98356","Udapi Hilir, Distrik Prafi, Kabupaten Manokwari",PAPUA BARAT,98356.0,Indonesia,,-0.8853347,133.8369152,https://maps.google.com/?cid=0x0:0x17000892748e0728
restaurant,Kedai Kopi,KEDAI TAMA JAYA,"Jalan Mubrani Meyof 1, Meyof I, Distrik Sidey, Kabupaten Manokwari, Papua Bar. 98357","Meyof I, Distrik Sidey, Kabupaten Manokwari",PAPUA BARAT,98357.0,Indonesia,81240786402.0,-0.8010455,133.6049348,https://maps.google.com/?cid=0x0:0xc165f0d8b955468c
restaurant,Dapur Umum,Sate Kambing Tawakal,"Unnamed Road, Macuan, Distrik Masni, Kabupaten Manokwari, Papua Bar. 98356","Macuan, Distrik Masni, Kabupaten Manokwari",PAPUA BARAT,98356.0,Indonesia,81344485899.0,-0.8548149,133.7814184,https://maps.google.com/?cid=0x0:0xe13f27735c7eeb63
restaurant,Rumah Makan,BALAI JAGONG SP4,"Udapi Hilir, Distrik Prafi, Kabupaten Manokwari, Papua Bar. 98356","Distrik Prafi, Kabupaten Manokwari",PAPUA BARAT,98356.0,Indonesia,,-0.8762998,133.8313201,https://maps.google.com/?cid=0x0:0x5147bb3efa2e0da9
restaurant,Rumah Makan,Warung PAPEDA KANIA PONDOK PELANGI (Raja Papeda),"SP3 Jalur2 bawah Aimasi, Kabupaten Manokwari, Papua Bar.","Kabupaten Manokwari, Papua Bar.",PAPUA BARAT,,Indonesia,82293369876.0,-0.8756478,133.8182007,https://maps.google.com/?cid=0x0:0x65c523ad5b4ced40
restaurant,Restoran,Warung Makan Indah Jaya,"Unnamed Road, Waseki Indah, Distrik Prafi, Kabupaten Manokwari, Papua Bar. 98356","Waseki Indah, Distrik Prafi, Kabupaten Manokwari",PAPUA BARAT,98356.0,Indonesia,,-0.8767155,133.812115,https://maps.google.com/?cid=0x0:0x7f38f1c70f6c1268
restaurant,Restoran,Lesehan Kinanti,"Jl. Sorong - Manokwari, Macuan, Distrik Masni, Kabupaten Manokwari, Papua Bar. 98356","Macuan, Distrik Masni, Kabupaten Manokwari",PAPUA BARAT,98356.0,Indonesia,,-0.8645079,133.7819898,https://maps.google.com/?cid=0x0:0xa2d701f63353a384
restaurant,Nasi,Warung Makan Adem Ayem,"6H2R+4Q3, Meyof I, Distrik Sidey, Kabupaten Manokwari, Papua Bar. 98357","Meyof I, Distrik Sidey, Kabupaten Manokwari",PAPUA BARAT,98357.0,Indonesia,,-0.7997344,133.591924,https://maps.google.com/?cid=0x0:0x8f53995adb844a3c
