Category,Real Category,Business Name,Address,City,State,Postal Code,Country,Phone,Latitude,Longitude,Map Link
toko bangunan,toko bangunan,Distrik Anggi,"Kab. Pegunungan Arfak, Papua Bar.","Kab. Pegunungan Arfak, Papua Bar.",PAPUA BARAT,,Indonesia,,-1.3260424,133.9158721,https://maps.google.com/?cid=0x0:0xfcf8f2554dc74d7d
toko bangunan,Toko Bahan Bangunan,ANEKA BANGUNAN,"Wosi, Kec. Manokwari Bar., Kabupaten Manokwari, Papua Bar. 98312","Kec. Manokwari Bar., Kabupaten Manokwari",PAPUA BARAT,98312.0,Indonesia,81344843001.0,-0.8631883,134.0498559,https://maps.google.com/?cid=0x0:0x3598159af16f30ea
toko bangunan,Toko Bahan Bangunan,Toko Bangunan ATIGA,"5355+F7H, Jl. Angkasa Mulyono, Amban, Kec. Manokwari Bar., Kabupaten Manokwari, Papua Bar. 98312","Jl. Angkasa Mulyono, Amban, Kec. Manokwari Bar., Kabupaten Manokwari",PAPUA BARAT,98312.0,Indonesia,,-0.8413134,134.0582405,https://maps.google.com/?cid=0x0:0x6a0ea28d5492ed54
toko bangunan,Pemasok Bahan Bangunan,Toko bangunan Sumber Makmur,"32CM+75G, Jl. Manokwari - Maruni, Anday, Distrik Manokwari, Kabupaten Manokwari, Papua Bar. 98315","Jl. Manokwari - Maruni, Anday, Distrik Manokwari, Kabupaten Manokwari",PAPUA BARAT,98315.0,Indonesia,8114846060.0,-0.9293075,134.0329487,https://maps.google.com/?cid=0x0:0xa0a85c7270dde255
toko bangunan,Toko Bahan Bangunan,Toko Bangunan FIRMAN,"Jl. Trikora Wosi No.168, Wosi, Kec. Manokwari Bar., Kabupaten Manokwari, Papua Bar. 98312","Wosi, Kec. Manokwari Bar., Kabupaten Manokwari",PAPUA BARAT,98312.0,Indonesia,8114118555.0,-0.8672239,134.0562233,https://maps.google.com/?cid=0x0:0xad10e51218925944
toko bangunan,Toko Bahan Bangunan,PAPUA BANGUNAN,"42GX+945, Wosi, Kec. Manokwari Bar., Kabupaten Manokwari, Papua Bar. 98312","Wosi, Kec. Manokwari Bar., Kabupaten Manokwari",PAPUA BARAT,98312.0,Indonesia,82198055550.0,-0.874101,134.0478473,https://maps.google.com/?cid=0x0:0x2c3683b193d9430f
toko bangunan,Toko Bahan Bangunan,Toko Bangunan Saudara,"Jl. Pasir, pantai, Wosi, Kec. Manokwari Bar., Kabupaten Manokwari, Papua Bar. 98312","pantai, Wosi, Kec. Manokwari Bar., Kabupaten Manokwari",PAPUA BARAT,98312.0,Indonesia,81219608601.0,-0.8691435,134.0499159,https://maps.google.com/?cid=0x0:0xd3c286debc960345
toko bangunan,Toko Bahan Bangunan,Toko bangunan Cahaya Indah,"43H6+JCC, Jl. Trikora Wosi, Sanggeng, Kec. Manokwari Bar., Kabupaten Manokwari, Papua Bar. 98312","Jl. Trikora Wosi, Sanggeng, Kec. Manokwari Bar., Kabupaten Manokwari",PAPUA BARAT,98312.0,Indonesia,81248361373.0,-0.8709308,134.0610281,https://maps.google.com/?cid=0x0:0x7dfb05fd51f1167b
toko bangunan,Toko Bahan Bangunan,DepoTeguh,"43QF+MP2, Padarni, Kec. Manokwari Bar., Kabupaten Manokwari, Papua Bar. 98312","Padarni, Kec. Manokwari Bar., Kabupaten Manokwari",PAPUA BARAT,98312.0,Indonesia,,-0.8608702,134.0742546,https://maps.google.com/?cid=0x0:0xa7aa87e22e73b4ed
toko bangunan,Toko Bahan Bangunan,Toko Bangunan,"Jl. Trikora Taman Ria No.4, Sowi, Distrik Manokwari, Kabupaten Manokwari, Papua Bar. 98315","Sowi, Distrik Manokwari, Kabupaten Manokwari",PAPUA BARAT,98315.0,Indonesia,,-0.906996,134.035784,https://maps.google.com/?cid=0x0:0xe97020a60705142f
toko bangunan,Toko Bahan Bangunan,Toko Bangunan,"Jl. Gn. Salju No.70, Amban, Kec. Manokwari Bar., Kabupaten Manokwari, Papua Bar. 98314","Amban, Kec. Manokwari Bar., Kabupaten Manokwari",PAPUA BARAT,98314.0,Indonesia,,-0.8378489,134.0648609,https://maps.google.com/?cid=0x0:0x39e90745f521cce
toko bangunan,Toko Bahan Bangunan,Toko Bangunan Ria-Utama,"Unnamed Road, Malaingkedi, Papua Bar. 98412, Malaingkedi, Kecamatan Sorong Manoi, Kota Sorong, Papua Bar. 98412","Malaingkedi, Papua Bar.",PAPUA BARAT,98412.0,Indonesia,82199656081.0,-0.8774608,131.2993409,https://maps.google.com/?cid=0x0:0x6fa2bf791344f50d
toko bangunan,Toko Bahan Bangunan,Toko Central Bangunan,"42JW+2CG, Wosi, Kec. Manokwari Bar., Kabupaten Manokwari, Papua Bar. 98312","Wosi, Kec. Manokwari Bar., Kabupaten Manokwari",PAPUA BARAT,98312.0,Indonesia,,-0.8696454,134.0463667,https://maps.google.com/?cid=0x0:0x7ec708d770758168
toko bangunan,Toko Bahan Bangunan,Matrial Anggiat Jaya,"Jl. Kapuk Ps. Alam No.201 20, RT.20/RW.16, Kapuk, Kecamatan Cengkareng, Kota Jakarta Barat, Daerah Khusus Ibukota Jakarta 11720","RT.20/RW.16, Kapuk, Kecamatan Cengkareng, Kota Jakarta Barat",PAPUA BARAT,11720.0,Indonesia,,-6.1399669,106.745169,https://maps.google.com/?cid=0x0:0xc74964abbd1d13be
toko bangunan,toko bangunan,Kec. Anggi Gida,"Kab. Pegunungan Arfak, Papua Bar.","Kab. Pegunungan Arfak, Papua Bar.",PAPUA BARAT,,Indonesia,,-1.3668114,133.9609514,https://maps.google.com/?cid=0x0:0xb4bc71d5f83c5185
toko bangunan,Toko Bahan Bangunan,ANEKA BANGUNAN,"Wosi, Kec. Manokwari Bar., Kabupaten Manokwari, Papua Bar. 98312","Kec. Manokwari Bar., Kabupaten Manokwari",PAPUA BARAT,98312.0,Indonesia,81344843001.0,-0.8631883,134.0498559,https://maps.google.com/?cid=0x0:0x3598159af16f30ea
toko bangunan,Toko Bahan Bangunan,PAPUA BANGUNAN,"42GX+945, Wosi, Kec. Manokwari Bar., Kabupaten Manokwari, Papua Bar. 98312","Wosi, Kec. Manokwari Bar., Kabupaten Manokwari",PAPUA BARAT,98312.0,Indonesia,82198055550.0,-0.874101,134.0478473,https://maps.google.com/?cid=0x0:0x2c3683b193d9430f
toko bangunan,toko bangunan,Papua Bar. 98358,"Kabupaten Manokwari, Papua Bar.","Kabupaten Manokwari, Papua Bar.",PAPUA BARAT,,Indonesia,,-1.0707188,133.7525619,https://maps.google.com/?cid=0x0:0x566a5a268f3890ee
toko bangunan,Toko Bahan Bangunan,ANEKA BANGUNAN,"Wosi, Kec. Manokwari Bar., Kabupaten Manokwari, Papua Bar. 98312","Kec. Manokwari Bar., Kabupaten Manokwari",PAPUA BARAT,98312.0,Indonesia,81344843001.0,-0.8631883,134.0498559,https://maps.google.com/?cid=0x0:0x3598159af16f30ea
toko bangunan,Pemasok Bahan Bangunan,Depo Makmur Manokwari,"43P2+QWR, Jl. Trikora Wosi, Wosi, Kec. Manokwari Bar., Kabupaten Manokwari, Papua Bar. 98312","Jl. Trikora Wosi, Wosi, Kec. Manokwari Bar., Kabupaten Manokwari",PAPUA BARAT,98312.0,Indonesia,81248426402.0,-0.8630402,134.0521741,https://maps.google.com/?cid=0x0:0x387befda163fc63b
toko bangunan,Pemasok Bahan Bangunan,Toko bangunan Sumber Makmur,"32CM+75G, Jl. Manokwari - Maruni, Anday, Distrik Manokwari, Kabupaten Manokwari, Papua Bar. 98315","Jl. Manokwari - Maruni, Anday, Distrik Manokwari, Kabupaten Manokwari",PAPUA BARAT,98315.0,Indonesia,8114846060.0,-0.9293075,134.0329487,https://maps.google.com/?cid=0x0:0xa0a85c7270dde255
toko bangunan,Toko Bahan Bangunan,PAPUA BANGUNAN,"42GX+945, Wosi, Kec. Manokwari Bar., Kabupaten Manokwari, Papua Bar. 98312","Wosi, Kec. Manokwari Bar., Kabupaten Manokwari",PAPUA BARAT,98312.0,Indonesia,82198055550.0,-0.874101,134.0478473,https://maps.google.com/?cid=0x0:0x2c3683b193d9430f
toko bangunan,Toko Bahan Bangunan,Toko Central Bangunan,"42JW+2CG, Wosi, Kec. Manokwari Bar., Kabupaten Manokwari, Papua Bar. 98312","Wosi, Kec. Manokwari Bar., Kabupaten Manokwari",PAPUA BARAT,98312.0,Indonesia,,-0.8696454,134.0463667,https://maps.google.com/?cid=0x0:0x7ec708d770758168
toko bangunan,Toko Bahan Bangunan,Toko Bangunan ATIGA,"5355+F7H, Jl. Angkasa Mulyono, Amban, Kec. Manokwari Bar., Kabupaten Manokwari, Papua Bar. 98312","Jl. Angkasa Mulyono, Amban, Kec. Manokwari Bar., Kabupaten Manokwari",PAPUA BARAT,98312.0,Indonesia,,-0.8413134,134.0582405,https://maps.google.com/?cid=0x0:0x6a0ea28d5492ed54
toko bangunan,Toko Bahan Bangunan,Toko bangunan Cahaya Indah,"43H6+JCC, Jl. Trikora Wosi, Sanggeng, Kec. Manokwari Bar., Kabupaten Manokwari, Papua Bar. 98312","Jl. Trikora Wosi, Sanggeng, Kec. Manokwari Bar., Kabupaten Manokwari",PAPUA BARAT,98312.0,Indonesia,81248361373.0,-0.8709308,134.0610281,https://maps.google.com/?cid=0x0:0x7dfb05fd51f1167b
toko bangunan,Toko Elektronik,Toko Bangunan Sumber Baru,"SP3, Aimasi, Jl. Poros, Distrik Prafi, Kabupaten Manokwari, Papua Bar. 98356","Aimasi, Jl. Poros, Distrik Prafi, Kabupaten Manokwari",PAPUA BARAT,98356.0,Indonesia,81234807007.0,-0.883667,133.820223,https://maps.google.com/?cid=0x0:0x7475be84d164c6b6
toko bangunan,Toko Bahan Bangunan,Toko Bangunan FIRMAN,"Jl. Trikora Wosi No.168, Wosi, Kec. Manokwari Bar., Kabupaten Manokwari, Papua Bar. 98312","Wosi, Kec. Manokwari Bar., Kabupaten Manokwari",PAPUA BARAT,98312.0,Indonesia,8114118555.0,-0.8672239,134.0562233,https://maps.google.com/?cid=0x0:0xad10e51218925944
toko bangunan,Toko Bahan Bangunan,Depo Bangunan Mbanyu Mili,"3VQM+2GP depan balai kampung sp 2, Prafi Mulia, Distrik Prafi, Kabupaten Manokwari, Papua Bar. 98356","Prafi Mulia, Distrik Prafi, Kabupaten Manokwari",PAPUA BARAT,98356.0,Indonesia,85254126242.0,-0.9124191,133.8838245,https://maps.google.com/?cid=0x0:0x72bb281db456c91a
toko bangunan,Toko Bahan Bangunan,Toko Bangunan Saudara,"Jl. Pasir, pantai, Wosi, Kec. Manokwari Bar., Kabupaten Manokwari, Papua Bar. 98312","pantai, Wosi, Kec. Manokwari Bar., Kabupaten Manokwari",PAPUA BARAT,98312.0,Indonesia,81219608601.0,-0.8691435,134.0499159,https://maps.google.com/?cid=0x0:0xd3c286debc960345
toko bangunan,Toko Bahan Bangunan,Toko Bangunan,"Jl. Trikora Taman Ria No.4, Sowi, Distrik Manokwari, Kabupaten Manokwari, Papua Bar. 98315","Sowi, Distrik Manokwari, Kabupaten Manokwari",PAPUA BARAT,98315.0,Indonesia,,-0.906996,134.035784,https://maps.google.com/?cid=0x0:0xe97020a60705142f
toko bangunan,Toko Bahan Bangunan,Royal Bangunan (PT. Papua Jaya Bangunan),"43P8+87R, Jl. Percetakan Negara, Sanggeng, Kec. Manokwari Bar., Kabupaten Manokwari, Papua Bar. 98312","Jl. Percetakan Negara, Sanggeng, Kec. Manokwari Bar., Kabupaten Manokwari",PAPUA BARAT,98312.0,Indonesia,87784554955.0,-0.8641385,134.0656252,https://maps.google.com/?cid=0x0:0x99b3b4ac0bad58a
toko bangunan,toko bangunan,Papua Bar. 98359,Papua Bar.,Papua Bar.,PAPUA BARAT,,Indonesia,,-1.5213839,133.7525619,https://maps.google.com/?cid=0x0:0xc8a895044b18d7c8
toko bangunan,Pemasok Bahan Bangunan,Toko bangunan Sumber Makmur,"32CM+75G, Jl. Manokwari - Maruni, Anday, Distrik Manokwari, Kabupaten Manokwari, Papua Bar. 98315","Jl. Manokwari - Maruni, Anday, Distrik Manokwari, Kabupaten Manokwari",PAPUA BARAT,98315.0,Indonesia,8114846060.0,-0.9293075,134.0329487,https://maps.google.com/?cid=0x0:0xa0a85c7270dde255
toko bangunan,Toko Bahan Bangunan,PAPUA BANGUNAN,"42GX+945, Wosi, Kec. Manokwari Bar., Kabupaten Manokwari, Papua Bar. 98312","Wosi, Kec. Manokwari Bar., Kabupaten Manokwari",PAPUA BARAT,98312.0,Indonesia,82198055550.0,-0.874101,134.0478473,https://maps.google.com/?cid=0x0:0x2c3683b193d9430f
toko bangunan,toko bangunan,Distrik Didohu,"Kab. Pegunungan Arfak, Papua Bar.","Kab. Pegunungan Arfak, Papua Bar.",PAPUA BARAT,,Indonesia,,-1.2738304,133.6341625,https://maps.google.com/?cid=0x0:0xbce404f07805cebf
toko bangunan,Toko Bahan Bangunan,DepoTeguh,"43QF+MP2, Padarni, Kec. Manokwari Bar., Kabupaten Manokwari, Papua Bar. 98312","Padarni, Kec. Manokwari Bar., Kabupaten Manokwari",PAPUA BARAT,98312.0,Indonesia,,-0.8608702,134.0742546,https://maps.google.com/?cid=0x0:0xa7aa87e22e73b4ed
toko bangunan,Toko Bahan Bangunan,ANEKA BANGUNAN,"Wosi, Kec. Manokwari Bar., Kabupaten Manokwari, Papua Bar. 98312","Kec. Manokwari Bar., Kabupaten Manokwari",PAPUA BARAT,98312.0,Indonesia,81344843001.0,-0.8631883,134.0498559,https://maps.google.com/?cid=0x0:0x3598159af16f30ea
toko bangunan,Pemasok Bahan Bangunan,Depo Makmur Manokwari,"43P2+QWR, Jl. Trikora Wosi, Wosi, Kec. Manokwari Bar., Kabupaten Manokwari, Papua Bar. 98312","Jl. Trikora Wosi, Wosi, Kec. Manokwari Bar., Kabupaten Manokwari",PAPUA BARAT,98312.0,Indonesia,81248426402.0,-0.8630402,134.0521741,https://maps.google.com/?cid=0x0:0x387befda163fc63b
toko bangunan,Toko Bahan Bangunan,Toko Bangunan Saudara,"Jl. Pasir, pantai, Wosi, Kec. Manokwari Bar., Kabupaten Manokwari, Papua Bar. 98312","pantai, Wosi, Kec. Manokwari Bar., Kabupaten Manokwari",PAPUA BARAT,98312.0,Indonesia,81219608601.0,-0.8691435,134.0499159,https://maps.google.com/?cid=0x0:0xd3c286debc960345
toko bangunan,Toko Bahan Bangunan,toko bangunan,"329G+VJ9, jln trikora arfai logpond, Anday, Kabupaten Manokwari","Kabupaten Manokwari, Papua Bar.",PAPUA BARAT,,Indonesia,,-0.9303319,134.0266147,https://maps.google.com/?cid=0x0:0x7ae5f49d1c059992
toko bangunan,toko bangunan,Hingk,"Kab. Pegunungan Arfak, Papua Bar.","Kab. Pegunungan Arfak, Papua Bar.",PAPUA BARAT,,Indonesia,,-1.2205844,133.9627492,https://maps.google.com/?cid=0x0:0x3f01e43bc4522fcd
toko bangunan,Pemasok Bahan Bangunan,Toko bangunan Sumber Makmur,"32CM+75G, Jl. Manokwari - Maruni, Anday, Distrik Manokwari, Kabupaten Manokwari, Papua Bar. 98315","Jl. Manokwari - Maruni, Anday, Distrik Manokwari, Kabupaten Manokwari",PAPUA BARAT,98315.0,Indonesia,8114846060.0,-0.9293075,134.0329487,https://maps.google.com/?cid=0x0:0xa0a85c7270dde255
toko bangunan,Pemasok Bahan Bangunan,Depo Makmur Manokwari,"43P2+QWR, Jl. Trikora Wosi, Wosi, Kec. Manokwari Bar., Kabupaten Manokwari, Papua Bar. 98312","Jl. Trikora Wosi, Wosi, Kec. Manokwari Bar., Kabupaten Manokwari",PAPUA BARAT,98312.0,Indonesia,81248426402.0,-0.8630402,134.0521741,https://maps.google.com/?cid=0x0:0x387befda163fc63b
toko bangunan,Toko Bahan Bangunan,Fajar Bangunan,"Sowi, Distrik Manokwari, Kabupaten Manokwari, Papua Bar. 98315","Distrik Manokwari, Kabupaten Manokwari",PAPUA BARAT,98315.0,Indonesia,,-0.9062643,134.0359839,https://maps.google.com/?cid=0x0:0x9d0563299ba4e3f6
toko bangunan,Toko Bahan Bangunan,DepoTeguh,"43QF+MP2, Padarni, Kec. Manokwari Bar., Kabupaten Manokwari, Papua Bar. 98312","Padarni, Kec. Manokwari Bar., Kabupaten Manokwari",PAPUA BARAT,98312.0,Indonesia,,-0.8608702,134.0742546,https://maps.google.com/?cid=0x0:0xa7aa87e22e73b4ed
toko bangunan,Toko Bahan Bangunan,PAPUA BANGUNAN,"42GX+945, Wosi, Kec. Manokwari Bar., Kabupaten Manokwari, Papua Bar. 98312","Wosi, Kec. Manokwari Bar., Kabupaten Manokwari",PAPUA BARAT,98312.0,Indonesia,82198055550.0,-0.874101,134.0478473,https://maps.google.com/?cid=0x0:0x2c3683b193d9430f
toko bangunan,Toko Bahan Bangunan,Toko Bangunan Kencana Jaya,"sp 3, jalur 9, Aimasi, Waseki Indah, Distrik Prafi, Kabupaten Manokwari, Papua Bar. 98356","jalur 9, Aimasi, Waseki Indah, Distrik Prafi, Kabupaten Manokwari",PAPUA BARAT,98356.0,Indonesia,81390965850.0,-0.8809697,133.8052293,https://maps.google.com/?cid=0x0:0x372086303669e4f6
toko bangunan,Toko Elektronik,Toko Bangunan Sumber Baru,"SP3, Aimasi, Jl. Poros, Distrik Prafi, Kabupaten Manokwari, Papua Bar. 98356","Aimasi, Jl. Poros, Distrik Prafi, Kabupaten Manokwari",PAPUA BARAT,98356.0,Indonesia,81234807007.0,-0.883667,133.820223,https://maps.google.com/?cid=0x0:0x7475be84d164c6b6
toko bangunan,Toko Bahan Bangunan,Toko Bangunan Saudara,"Jl. Pasir, pantai, Wosi, Kec. Manokwari Bar., Kabupaten Manokwari, Papua Bar. 98312","pantai, Wosi, Kec. Manokwari Bar., Kabupaten Manokwari",PAPUA BARAT,98312.0,Indonesia,81219608601.0,-0.8691435,134.0499159,https://maps.google.com/?cid=0x0:0xd3c286debc960345
toko bangunan,Toko Bahan Bangunan,Toko Bangunan,"Jl. Trikora Taman Ria No.4, Sowi, Distrik Manokwari, Kabupaten Manokwari, Papua Bar. 98315","Sowi, Distrik Manokwari, Kabupaten Manokwari",PAPUA BARAT,98315.0,Indonesia,,-0.906996,134.035784,https://maps.google.com/?cid=0x0:0xe97020a60705142f
toko bangunan,Toko Perlengkapan Rumah,Depo teguh arfai,"Jln.abraham ataruri arfai, Kabupaten Manokwari, Papua Bar. 98312",Kabupaten Manokwari,PAPUA BARAT,98312.0,Indonesia,82174980586.0,-0.9297824,134.0264328,https://maps.google.com/?cid=0x0:0x6ccc9231f12738e9
toko bangunan,Toko Bahan Bangunan,Toko Bangunan,"Jl. Gn. Salju No.70, Amban, Kec. Manokwari Bar., Kabupaten Manokwari, Papua Bar. 98314","Amban, Kec. Manokwari Bar., Kabupaten Manokwari",PAPUA BARAT,98314.0,Indonesia,,-0.8378489,134.0648609,https://maps.google.com/?cid=0x0:0x39e90745f521cce
toko bangunan,Toko Bahan Bangunan,Depo Bangunan Mbanyu Mili,"3VQM+2GP depan balai kampung sp 2, Prafi Mulia, Distrik Prafi, Kabupaten Manokwari, Papua Bar. 98356","Prafi Mulia, Distrik Prafi, Kabupaten Manokwari",PAPUA BARAT,98356.0,Indonesia,85254126242.0,-0.9124191,133.8838245,https://maps.google.com/?cid=0x0:0x72bb281db456c91a
toko bangunan,Toko Bahan Bangunan,Cabang Buana Karya Group,"427W+3FJ, Jl. Drs Esau Sesa, Sowi, Distrik Manokwari, Kabupaten Manokwari, Papua Bar. 98315","Jl. Drs Esau Sesa, Sowi, Distrik Manokwari, Kabupaten Manokwari",PAPUA BARAT,98315.0,Indonesia,,-0.8872785,134.0461277,https://maps.google.com/?cid=0x0:0xd5ae321c41153a59
toko bangunan,toko bangunan,Kec. Membey,"Kab. Pegunungan Arfak, Papua Bar.","Kab. Pegunungan Arfak, Papua Bar.",PAPUA BARAT,,Indonesia,,-1.3416452,134.0336402,https://maps.google.com/?cid=0x0:0x6db50f43a0973078
toko bangunan,Toko Bahan Bangunan,ANEKA BANGUNAN,"Wosi, Kec. Manokwari Bar., Kabupaten Manokwari, Papua Bar. 98312","Kec. Manokwari Bar., Kabupaten Manokwari",PAPUA BARAT,98312.0,Indonesia,81344843001.0,-0.8631883,134.0498559,https://maps.google.com/?cid=0x0:0x3598159af16f30ea
toko bangunan,Pemasok Bahan Bangunan,Depo Makmur Manokwari,"43P2+QWR, Jl. Trikora Wosi, Wosi, Kec. Manokwari Bar., Kabupaten Manokwari, Papua Bar. 98312","Jl. Trikora Wosi, Wosi, Kec. Manokwari Bar., Kabupaten Manokwari",PAPUA BARAT,98312.0,Indonesia,81248426402.0,-0.8630402,134.0521741,https://maps.google.com/?cid=0x0:0x387befda163fc63b
toko bangunan,Toko Bahan Bangunan,PAPUA BANGUNAN,"42GX+945, Wosi, Kec. Manokwari Bar., Kabupaten Manokwari, Papua Bar. 98312","Wosi, Kec. Manokwari Bar., Kabupaten Manokwari",PAPUA BARAT,98312.0,Indonesia,82198055550.0,-0.874101,134.0478473,https://maps.google.com/?cid=0x0:0x2c3683b193d9430f
toko bangunan,Toko Bahan Bangunan,Fajar Bangunan,"Sowi, Distrik Manokwari, Kabupaten Manokwari, Papua Bar. 98315","Distrik Manokwari, Kabupaten Manokwari",PAPUA BARAT,98315.0,Indonesia,,-0.9062643,134.0359839,https://maps.google.com/?cid=0x0:0x9d0563299ba4e3f6
toko bangunan,Toko Bahan Bangunan,Toko Bangunan,"Jl. Trikora Taman Ria No.4, Sowi, Distrik Manokwari, Kabupaten Manokwari, Papua Bar. 98315","Sowi, Distrik Manokwari, Kabupaten Manokwari",PAPUA BARAT,98315.0,Indonesia,,-0.906996,134.035784,https://maps.google.com/?cid=0x0:0xe97020a60705142f
toko bangunan,Toko Bahan Bangunan,DepoTeguh,"43QF+MP2, Padarni, Kec. Manokwari Bar., Kabupaten Manokwari, Papua Bar. 98312","Padarni, Kec. Manokwari Bar., Kabupaten Manokwari",PAPUA BARAT,98312.0,Indonesia,,-0.8608702,134.0742546,https://maps.google.com/?cid=0x0:0xa7aa87e22e73b4ed
toko bangunan,Toko Bahan Bangunan,Toko Central Bangunan,"42JW+2CG, Wosi, Kec. Manokwari Bar., Kabupaten Manokwari, Papua Bar. 98312","Wosi, Kec. Manokwari Bar., Kabupaten Manokwari",PAPUA BARAT,98312.0,Indonesia,,-0.8696454,134.0463667,https://maps.google.com/?cid=0x0:0x7ec708d770758168
toko bangunan,Toko Bahan Bangunan,Toko mentari,"4R74+WP, Waseki Indah, Distrik Prafi, Kabupaten Manokwari, Papua Bar.","Kabupaten Manokwari, Papua Bar.",PAPUA BARAT,,Indonesia,,-0.8853016,133.8068212,https://maps.google.com/?cid=0x0:0xdc35c757e123f91e
toko bangunan,Toko Bahan Bangunan,Toko Bangunan,"Jl. Gn. Salju No.70, Amban, Kec. Manokwari Bar., Kabupaten Manokwari, Papua Bar. 98314","Amban, Kec. Manokwari Bar., Kabupaten Manokwari",PAPUA BARAT,98314.0,Indonesia,,-0.8378489,134.0648609,https://maps.google.com/?cid=0x0:0x39e90745f521cce
toko bangunan,Toko Bahan Bangunan,Supermarket Multi Bangunan,"Jl Baru No.98, Wai Mhorock, Abepura, Jayapura City, Papua 99225","Wai Mhorock, Abepura, Jayapura City",PAPUA BARAT,99225.0,Indonesia,967588677.0,-2.6077336,140.6742812,https://maps.google.com/?cid=0x0:0x3b19f301c68f1d6f
toko bangunan,Toko Bahan Bangunan,"Papua Bangunan, CV PAPUA ABADI","Jl. Basuki Rahmat No.780, Klawuyuk, Distrik Sorong Timur, Kota Sorong, Papua Bar. 98416","Klawuyuk, Distrik Sorong Timur, Kota Sorong",PAPUA BARAT,98416.0,Indonesia,81332017550.0,-0.8954087,131.3186922,https://maps.google.com/?cid=0x0:0x851804bc3aa7f033
toko bangunan,Toko Bahan Bangunan,Toko Bangunan Alva Center,"3299+WR4, Anday, Distrik Manokwari, Kabupaten Manokwari, Papua Bar. 98315","Anday, Distrik Manokwari, Kabupaten Manokwari",PAPUA BARAT,98315.0,Indonesia,82248894866.0,-0.9302448,134.0195768,https://maps.google.com/?cid=0x0:0xb10f5dd5b0339319
toko bangunan,Toko Bahan Bangunan,Toko Bangunan ATIGA,"5355+F7H, Jl. Angkasa Mulyono, Amban, Kec. Manokwari Bar., Kabupaten Manokwari, Papua Bar. 98312","Jl. Angkasa Mulyono, Amban, Kec. Manokwari Bar., Kabupaten Manokwari",PAPUA BARAT,98312.0,Indonesia,,-0.8413134,134.0582405,https://maps.google.com/?cid=0x0:0x6a0ea28d5492ed54
toko bangunan,toko bangunan,Papua Bar. 98359,Papua Bar.,Papua Bar.,PAPUA BARAT,,Indonesia,,-1.5213839,133.7525619,https://maps.google.com/?cid=0x0:0xc8a895044b18d7c8
toko bangunan,Pemasok Bahan Bangunan,Toko bangunan Sumber Makmur,"32CM+75G, Jl. Manokwari - Maruni, Anday, Distrik Manokwari, Kabupaten Manokwari, Papua Bar. 98315","Jl. Manokwari - Maruni, Anday, Distrik Manokwari, Kabupaten Manokwari",PAPUA BARAT,98315.0,Indonesia,8114846060.0,-0.9293075,134.0329487,https://maps.google.com/?cid=0x0:0xa0a85c7270dde255
toko bangunan,Toko Bahan Bangunan,PAPUA BANGUNAN,"42GX+945, Wosi, Kec. Manokwari Bar., Kabupaten Manokwari, Papua Bar. 98312","Wosi, Kec. Manokwari Bar., Kabupaten Manokwari",PAPUA BARAT,98312.0,Indonesia,82198055550.0,-0.874101,134.0478473,https://maps.google.com/?cid=0x0:0x2c3683b193d9430f
toko bangunan,Toko Perlengkapan Rumah,TOKO PRABOTAN RUMAH TANGGA,"Jl. Komjen. Pol. M. Jasin No.16-101, Tugu, Kec. Cimanggis, Kota Depok, Jawa Barat 16451","Tugu, Kec. Cimanggis, Kota Depok",PAPUA BARAT,16451.0,Indonesia,87881671266.0,-6.3556506,106.8546222,https://maps.google.com/?cid=0x0:0x5269064dfbd28699
toko bangunan,Pemasok Bahan Bangunan,Depo Makmur Manokwari,"43P2+QWR, Jl. Trikora Wosi, Wosi, Kec. Manokwari Bar., Kabupaten Manokwari, Papua Bar. 98312","Jl. Trikora Wosi, Wosi, Kec. Manokwari Bar., Kabupaten Manokwari",PAPUA BARAT,98312.0,Indonesia,81248426402.0,-0.8630402,134.0521741,https://maps.google.com/?cid=0x0:0x387befda163fc63b
toko bangunan,Toko Bahan Bangunan,ANEKA BANGUNAN,"Wosi, Kec. Manokwari Bar., Kabupaten Manokwari, Papua Bar. 98312","Kec. Manokwari Bar., Kabupaten Manokwari",PAPUA BARAT,98312.0,Indonesia,81344843001.0,-0.8631883,134.0498559,https://maps.google.com/?cid=0x0:0x3598159af16f30ea
toko bangunan,toko bangunan,Taige,"Distrik Taige, Kab. Pegunungan Arfak, Papua Bar.","Kab. Pegunungan Arfak, Papua Bar.",PAPUA BARAT,,Indonesia,,-1.3061081,133.8589634,https://maps.google.com/?cid=0x0:0xaa3439167fad271d
toko bangunan,Toko Bahan Bangunan,ANEKA BANGUNAN,"Wosi, Kec. Manokwari Bar., Kabupaten Manokwari, Papua Bar. 98312","Kec. Manokwari Bar., Kabupaten Manokwari",PAPUA BARAT,98312.0,Indonesia,81344843001.0,-0.8631883,134.0498559,https://maps.google.com/?cid=0x0:0x3598159af16f30ea
toko bangunan,Toko Bahan Bangunan,Fajar Bangunan,"Sowi, Distrik Manokwari, Kabupaten Manokwari, Papua Bar. 98315","Distrik Manokwari, Kabupaten Manokwari",PAPUA BARAT,98315.0,Indonesia,,-0.9062643,134.0359839,https://maps.google.com/?cid=0x0:0x9d0563299ba4e3f6
toko bangunan,Toko Bahan Bangunan,PAPUA BANGUNAN,"42GX+945, Wosi, Kec. Manokwari Bar., Kabupaten Manokwari, Papua Bar. 98312","Wosi, Kec. Manokwari Bar., Kabupaten Manokwari",PAPUA BARAT,98312.0,Indonesia,82198055550.0,-0.874101,134.0478473,https://maps.google.com/?cid=0x0:0x2c3683b193d9430f
toko bangunan,Toko Bahan Bangunan,Toko Tigase Pratama,"43M3+RGP, Wosi, Kec. Manokwari Bar., Kabupaten Manokwari, Papua Bar. 98312","Wosi, Kec. Manokwari Bar., Kabupaten Manokwari",PAPUA BARAT,98312.0,Indonesia,,-0.8655207,134.0539605,https://maps.google.com/?cid=0x0:0xef96868012a14cc1
toko bangunan,Pemasok Bahan Bangunan,Toko bangunan Sumber Makmur,"32CM+75G, Jl. Manokwari - Maruni, Anday, Distrik Manokwari, Kabupaten Manokwari, Papua Bar. 98315","Jl. Manokwari - Maruni, Anday, Distrik Manokwari, Kabupaten Manokwari",PAPUA BARAT,98315.0,Indonesia,8114846060.0,-0.9293075,134.0329487,https://maps.google.com/?cid=0x0:0xa0a85c7270dde255
toko bangunan,Toko Bahan Bangunan,Toko Bangunan Saudara,"Jl. Pasir, pantai, Wosi, Kec. Manokwari Bar., Kabupaten Manokwari, Papua Bar. 98312","pantai, Wosi, Kec. Manokwari Bar., Kabupaten Manokwari",PAPUA BARAT,98312.0,Indonesia,81219608601.0,-0.8691435,134.0499159,https://maps.google.com/?cid=0x0:0xd3c286debc960345
toko bangunan,Toko Bahan Bangunan,ELTIGA Hard Ware,"4R99+HQ9, Jl. Pendidikan, Udapi Hilir, Distrik Prafi, Kabupaten Manokwari, Papua Bar. 98356","Jl. Pendidikan, Udapi Hilir, Distrik Prafi, Kabupaten Manokwari",PAPUA BARAT,98356.0,Indonesia,986811156.0,-0.8810887,133.8194861,https://maps.google.com/?cid=0x0:0x233be94230012a5d
toko bangunan,Toko Bahan Bangunan,Toko Karya Abadi,"WJ4X+24P, Tuasai, Distrik Bintuni, Kabupaten Teluk Bintuni, Papua Bar. 98364","Tuasai, Distrik Bintuni, Kabupaten Teluk Bintuni",PAPUA BARAT,98364.0,Indonesia,82244443838.0,-2.094909,133.6478193,https://maps.google.com/?cid=0x0:0x860a78b44fea4433
toko bangunan,Toko Bahan Bangunan,Toko Central Bangunan,"42JW+2CG, Wosi, Kec. Manokwari Bar., Kabupaten Manokwari, Papua Bar. 98312","Wosi, Kec. Manokwari Bar., Kabupaten Manokwari",PAPUA BARAT,98312.0,Indonesia,,-0.8696454,134.0463667,https://maps.google.com/?cid=0x0:0x7ec708d770758168
toko bangunan,Toko Bahan Bangunan,toko bangunan,"329G+VJ9, jln trikora arfai logpond, Anday, Kabupaten Manokwari","Kabupaten Manokwari, Papua Bar.",PAPUA BARAT,,Indonesia,,-0.9303319,134.0266147,https://maps.google.com/?cid=0x0:0x7ae5f49d1c059992
toko bangunan,Toko Bahan Bangunan,DepoTeguh,"43QF+MP2, Padarni, Kec. Manokwari Bar., Kabupaten Manokwari, Papua Bar. 98312","Padarni, Kec. Manokwari Bar., Kabupaten Manokwari",PAPUA BARAT,98312.0,Indonesia,,-0.8608702,134.0742546,https://maps.google.com/?cid=0x0:0xa7aa87e22e73b4ed
toko bangunan,Pemasok Bahan Bangunan,Depo Makmur Manokwari,"43P2+QWR, Jl. Trikora Wosi, Wosi, Kec. Manokwari Bar., Kabupaten Manokwari, Papua Bar. 98312","Jl. Trikora Wosi, Wosi, Kec. Manokwari Bar., Kabupaten Manokwari",PAPUA BARAT,98312.0,Indonesia,81248426402.0,-0.8630402,134.0521741,https://maps.google.com/?cid=0x0:0x387befda163fc63b
toko bangunan,Toko Bahan Bangunan,Toko Target Hardware,"8W62+QV4, Sukaresmi, Kec. Megamendung, Kabupaten Bogor, Jawa Barat 16770","Sukaresmi, Kec. Megamendung, Kabupaten Bogor",PAPUA BARAT,16770.0,Indonesia,8128740243.0,-6.6878595,106.901972,https://maps.google.com/?cid=0x0:0xff7599d2bdcffb8d
toko bangunan,toko bangunan,Papua Bar. 98315,"Kabupaten Manokwari, Papua Bar.","Kabupaten Manokwari, Papua Bar.",PAPUA BARAT,,Indonesia,,-1.0762009,133.4452148,https://maps.google.com/?cid=0x0:0xe20d605d60a391b5
toko bangunan,Toko Bahan Bangunan,Fajar Bangunan,"Sowi, Distrik Manokwari, Kabupaten Manokwari, Papua Bar. 98315","Distrik Manokwari, Kabupaten Manokwari",PAPUA BARAT,98315.0,Indonesia,,-0.9062643,134.0359839,https://maps.google.com/?cid=0x0:0x9d0563299ba4e3f6
toko bangunan,Toko Perlengkapan Rumah,Depo teguh arfai,"Jln.abraham ataruri arfai, Kabupaten Manokwari, Papua Bar. 98312",Kabupaten Manokwari,PAPUA BARAT,98312.0,Indonesia,82174980586.0,-0.9297824,134.0264328,https://maps.google.com/?cid=0x0:0x6ccc9231f12738e9
toko bangunan,Pemasok Bahan Bangunan,Toko bangunan Sumber Makmur,"32CM+75G, Jl. Manokwari - Maruni, Anday, Distrik Manokwari, Kabupaten Manokwari, Papua Bar. 98315","Jl. Manokwari - Maruni, Anday, Distrik Manokwari, Kabupaten Manokwari",PAPUA BARAT,98315.0,Indonesia,8114846060.0,-0.9293075,134.0329487,https://maps.google.com/?cid=0x0:0xa0a85c7270dde255
toko bangunan,Toko Bahan Bangunan,ANEKA BANGUNAN,"Wosi, Kec. Manokwari Bar., Kabupaten Manokwari, Papua Bar. 98312","Kec. Manokwari Bar., Kabupaten Manokwari",PAPUA BARAT,98312.0,Indonesia,81344843001.0,-0.8631883,134.0498559,https://maps.google.com/?cid=0x0:0x3598159af16f30ea
toko bangunan,Toko Perlengkapan Rumah,ARFAI JAYA BANGUNAN,"Jalan trikora arfai salak, Anday, Distrik Manokwari, Kabupaten Manokwari, Papua Bar. 98315","Anday, Distrik Manokwari, Kabupaten Manokwari",PAPUA BARAT,98315.0,Indonesia,82174980586.0,-0.9306827,134.0172536,https://maps.google.com/?cid=0x0:0x50b3c85320438418
toko bangunan,Toko Bahan Bangunan,Toko Bangunan Kencana Jaya,"sp 3, jalur 9, Aimasi, Waseki Indah, Distrik Prafi, Kabupaten Manokwari, Papua Bar. 98356","jalur 9, Aimasi, Waseki Indah, Distrik Prafi, Kabupaten Manokwari",PAPUA BARAT,98356.0,Indonesia,81390965850.0,-0.8809697,133.8052293,https://maps.google.com/?cid=0x0:0x372086303669e4f6
toko bangunan,Toko Bahan Bangunan,PAPUA BANGUNAN,"42GX+945, Wosi, Kec. Manokwari Bar., Kabupaten Manokwari, Papua Bar. 98312","Wosi, Kec. Manokwari Bar., Kabupaten Manokwari",PAPUA BARAT,98312.0,Indonesia,82198055550.0,-0.874101,134.0478473,https://maps.google.com/?cid=0x0:0x2c3683b193d9430f
toko bangunan,Toko Bahan Bangunan,Toko Bangunan Alva Center,"3299+WR4, Anday, Distrik Manokwari, Kabupaten Manokwari, Papua Bar. 98315","Anday, Distrik Manokwari, Kabupaten Manokwari",PAPUA BARAT,98315.0,Indonesia,82248894866.0,-0.9302448,134.0195768,https://maps.google.com/?cid=0x0:0xb10f5dd5b0339319
toko bangunan,Toko Bahan Bangunan,DepoTeguh,"43QF+MP2, Padarni, Kec. Manokwari Bar., Kabupaten Manokwari, Papua Bar. 98312","Padarni, Kec. Manokwari Bar., Kabupaten Manokwari",PAPUA BARAT,98312.0,Indonesia,,-0.8608702,134.0742546,https://maps.google.com/?cid=0x0:0xa7aa87e22e73b4ed
toko bangunan,Toko Bahan Bangunan,Sakura Bangunan,"32PP+6RW, Jl. Trikora Taman Ria, Sowi, Distrik Manokwari, Kabupaten Manokwari, Papua Bar. 98315","Jl. Trikora Taman Ria, Sowi, Distrik Manokwari, Kabupaten Manokwari",PAPUA BARAT,98315.0,Indonesia,81241419493.0,-0.9143793,134.0370816,https://maps.google.com/?cid=0x0:0x9c791776501512b6
toko bangunan,Toko Bahan Bangunan,Toko bangunan Cahaya Indah,"43H6+JCC, Jl. Trikora Wosi, Sanggeng, Kec. Manokwari Bar., Kabupaten Manokwari, Papua Bar. 98312","Jl. Trikora Wosi, Sanggeng, Kec. Manokwari Bar., Kabupaten Manokwari",PAPUA BARAT,98312.0,Indonesia,81248361373.0,-0.8709308,134.0610281,https://maps.google.com/?cid=0x0:0x7dfb05fd51f1167b
toko bangunan,Toko Bahan Bangunan,Toko Sumber Makmur,"42GX+258, Wosi, Kec. Manokwari Bar., Kabupaten Manokwari, Papua Bar. 98312","Wosi, Kec. Manokwari Bar., Kabupaten Manokwari",PAPUA BARAT,98312.0,Indonesia,8124825561.0,-0.8749549,134.0479559,https://maps.google.com/?cid=0x0:0x533cede6c4b2437d
toko bangunan,Toko Bahan Bangunan,Toko Bangunan FIRMAN,"Jl. Trikora Wosi No.168, Wosi, Kec. Manokwari Bar., Kabupaten Manokwari, Papua Bar. 98312","Wosi, Kec. Manokwari Bar., Kabupaten Manokwari",PAPUA BARAT,98312.0,Indonesia,8114118555.0,-0.8672239,134.0562233,https://maps.google.com/?cid=0x0:0xad10e51218925944
toko bangunan,toko bangunan,Papua Bar. 98352,"Kabupaten Manokwari, Papua Bar.","Kabupaten Manokwari, Papua Bar.",PAPUA BARAT,,Indonesia,,-1.0122519,133.9055155,https://maps.google.com/?cid=0x0:0x665ab61075e0d624
toko bangunan,Toko Bahan Bangunan,Depo Bangunan Mbanyu Mili,"3VQM+2GP depan balai kampung sp 2, Prafi Mulia, Distrik Prafi, Kabupaten Manokwari, Papua Bar. 98356","Prafi Mulia, Distrik Prafi, Kabupaten Manokwari",PAPUA BARAT,98356.0,Indonesia,85254126242.0,-0.9124191,133.8838245,https://maps.google.com/?cid=0x0:0x72bb281db456c91a
toko bangunan,Toko Bahan Bangunan,Toko Bangunan Kencana Jaya,"sp 3, jalur 9, Aimasi, Waseki Indah, Distrik Prafi, Kabupaten Manokwari, Papua Bar. 98356","jalur 9, Aimasi, Waseki Indah, Distrik Prafi, Kabupaten Manokwari",PAPUA BARAT,98356.0,Indonesia,81390965850.0,-0.8809697,133.8052293,https://maps.google.com/?cid=0x0:0x372086303669e4f6
toko bangunan,Toko Perlengkapan Rumah,Depo teguh arfai,"Jln.abraham ataruri arfai, Kabupaten Manokwari, Papua Bar. 98312",Kabupaten Manokwari,PAPUA BARAT,98312.0,Indonesia,82174980586.0,-0.9297824,134.0264328,https://maps.google.com/?cid=0x0:0x6ccc9231f12738e9
toko bangunan,Toko Perlengkapan Rumah,ARFAI JAYA BANGUNAN,"Jalan trikora arfai salak, Anday, Distrik Manokwari, Kabupaten Manokwari, Papua Bar. 98315","Anday, Distrik Manokwari, Kabupaten Manokwari",PAPUA BARAT,98315.0,Indonesia,82174980586.0,-0.9306827,134.0172536,https://maps.google.com/?cid=0x0:0x50b3c85320438418
toko bangunan,Toko Bahan Bangunan,Toko Bangunan ATIGA,"5355+F7H, Jl. Angkasa Mulyono, Amban, Kec. Manokwari Bar., Kabupaten Manokwari, Papua Bar. 98312","Jl. Angkasa Mulyono, Amban, Kec. Manokwari Bar., Kabupaten Manokwari",PAPUA BARAT,98312.0,Indonesia,,-0.8413134,134.0582405,https://maps.google.com/?cid=0x0:0x6a0ea28d5492ed54
toko bangunan,Toko Bahan Bangunan,Gudang Tigase Pratama,"Jl. Reremi Puncak, Manokwari Bar., Kec. Manokwari Bar., Kabupaten Manokwari, Papua Bar. 98312","Manokwari Bar., Kec. Manokwari Bar., Kabupaten Manokwari",PAPUA BARAT,98312.0,Indonesia,85397520354.0,-0.8495164,134.0532569,https://maps.google.com/?cid=0x0:0xb40a25d0c79962aa
toko bangunan,Grosir Perlengkapan Rumah Tangga,"Penjualan Sembako, Barang Bangunan DLL, Layanan Antar Sampai Di Tempat","Unnamed Road, Dindey, Kec. Warmare, Kabupaten Manokwari, Papua Bar. 98352","Dindey, Kec. Warmare, Kabupaten Manokwari",PAPUA BARAT,98352.0,Indonesia,81242998984.0,-0.9736771,133.9457575,https://maps.google.com/?cid=0x0:0xd7582d0f7842e3bd
toko bangunan,Toko Bahan Bangunan,PAPUA BANGUNAN,"42GX+945, Wosi, Kec. Manokwari Bar., Kabupaten Manokwari, Papua Bar. 98312","Wosi, Kec. Manokwari Bar., Kabupaten Manokwari",PAPUA BARAT,98312.0,Indonesia,82198055550.0,-0.874101,134.0478473,https://maps.google.com/?cid=0x0:0x2c3683b193d9430f
toko bangunan,Toko Bahan Bangunan,Toko Tigase Pratama,"43M3+RGP, Wosi, Kec. Manokwari Bar., Kabupaten Manokwari, Papua Bar. 98312","Wosi, Kec. Manokwari Bar., Kabupaten Manokwari",PAPUA BARAT,98312.0,Indonesia,,-0.8655207,134.0539605,https://maps.google.com/?cid=0x0:0xef96868012a14cc1
toko bangunan,Pemasok Bahan Bangunan,Toko bangunan Sumber Makmur,"32CM+75G, Jl. Manokwari - Maruni, Anday, Distrik Manokwari, Kabupaten Manokwari, Papua Bar. 98315","Jl. Manokwari - Maruni, Anday, Distrik Manokwari, Kabupaten Manokwari",PAPUA BARAT,98315.0,Indonesia,8114846060.0,-0.9293075,134.0329487,https://maps.google.com/?cid=0x0:0xa0a85c7270dde255
toko bangunan,Toko Bahan Bangunan,Toko anugrah jaya,"3262+877, Jl. Manokwari - Maruni, Anday, Distrik Manokwari, Kabupaten Manokwari, Papua Bar. 98315","Jl. Manokwari - Maruni, Anday, Distrik Manokwari, Kabupaten Manokwari",PAPUA BARAT,98315.0,Indonesia,,-0.9392236,134.0006725,https://maps.google.com/?cid=0x0:0x107f5c9001f2d2d3
toko bangunan,Toko Bahan Bangunan,Toko mentari,"4R74+WP, Waseki Indah, Distrik Prafi, Kabupaten Manokwari, Papua Bar.","Kabupaten Manokwari, Papua Bar.",PAPUA BARAT,,Indonesia,,-0.8853016,133.8068212,https://maps.google.com/?cid=0x0:0xdc35c757e123f91e
toko bangunan,Toko Bahan Bangunan,toko bangunan,"329G+VJ9, jln trikora arfai logpond, Anday, Kabupaten Manokwari","Kabupaten Manokwari, Papua Bar.",PAPUA BARAT,,Indonesia,,-0.9303319,134.0266147,https://maps.google.com/?cid=0x0:0x7ae5f49d1c059992
toko bangunan,Toko Bahan Bangunan,Toko Bangunan Kencana Jaya,"sp 3, jalur 9, Aimasi, Waseki Indah, Distrik Prafi, Kabupaten Manokwari, Papua Bar. 98356","jalur 9, Aimasi, Waseki Indah, Distrik Prafi, Kabupaten Manokwari",PAPUA BARAT,98356.0,Indonesia,81390965850.0,-0.8809697,133.8052293,https://maps.google.com/?cid=0x0:0x372086303669e4f6
toko bangunan,toko bangunan,Papua Bar. 98357,"Kabupaten Manokwari, Papua Bar.","Kabupaten Manokwari, Papua Bar.",PAPUA BARAT,,Indonesia,,-0.8227418,133.5606946,https://maps.google.com/?cid=0x0:0x3e375139d962692c
toko bangunan,Toko Bahan Bangunan,toko Randi jaya,"4RF6+MC8, Waseki Indah, Distrik Prafi, Kabupaten Manokwari, Papua Bar. 98356","Waseki Indah, Distrik Prafi, Kabupaten Manokwari",PAPUA BARAT,98356.0,Indonesia,,-0.8758433,133.8110847,https://maps.google.com/?cid=0x0:0x4a345df7b5e52ca5
toko bangunan,Toko Bahan Bangunan,Toko mentari,"4R74+WP, Waseki Indah, Distrik Prafi, Kabupaten Manokwari, Papua Bar.","Kabupaten Manokwari, Papua Bar.",PAPUA BARAT,,Indonesia,,-0.8853016,133.8068212,https://maps.google.com/?cid=0x0:0xdc35c757e123f91e
toko bangunan,Toko Bahan Bangunan,ANEKA BANGUNAN,"Wosi, Kec. Manokwari Bar., Kabupaten Manokwari, Papua Bar. 98312","Kec. Manokwari Bar., Kabupaten Manokwari",PAPUA BARAT,98312.0,Indonesia,81344843001.0,-0.8631883,134.0498559,https://maps.google.com/?cid=0x0:0x3598159af16f30ea
toko bangunan,Toko Bahan Bangunan,Toko jelita,"6PC3+RVM, Unnamed Road, Wariori, Distrik Masni, Kabupaten Manokwari, Papua Bar. 98357","Unnamed Road, Wariori, Distrik Masni, Kabupaten Manokwari",PAPUA BARAT,98357.0,Indonesia,82358787299.0,-0.7779015,133.704657,https://maps.google.com/?cid=0x0:0xe57c13405547f320
toko bangunan,Toko Bahan Bangunan,DepoTeguh,"43QF+MP2, Padarni, Kec. Manokwari Bar., Kabupaten Manokwari, Papua Bar. 98312","Padarni, Kec. Manokwari Bar., Kabupaten Manokwari",PAPUA BARAT,98312.0,Indonesia,,-0.8608702,134.0742546,https://maps.google.com/?cid=0x0:0xa7aa87e22e73b4ed
toko bangunan,Toko Bahan Bangunan,Gudang Tigase Pratama,"Jl. Reremi Puncak, Manokwari Bar., Kec. Manokwari Bar., Kabupaten Manokwari, Papua Bar. 98312","Manokwari Bar., Kec. Manokwari Bar., Kabupaten Manokwari",PAPUA BARAT,98312.0,Indonesia,85397520354.0,-0.8495164,134.0532569,https://maps.google.com/?cid=0x0:0xb40a25d0c79962aa
toko bangunan,Toko Bahan Bangunan,Fajar Bangunan,"Sowi, Distrik Manokwari, Kabupaten Manokwari, Papua Bar. 98315","Distrik Manokwari, Kabupaten Manokwari",PAPUA BARAT,98315.0,Indonesia,,-0.9062643,134.0359839,https://maps.google.com/?cid=0x0:0x9d0563299ba4e3f6
toko bangunan,Toko Perlengkapan Rumah,Depo teguh arfai,"Jln.abraham ataruri arfai, Kabupaten Manokwari, Papua Bar. 98312",Kabupaten Manokwari,PAPUA BARAT,98312.0,Indonesia,82174980586.0,-0.9297824,134.0264328,https://maps.google.com/?cid=0x0:0x6ccc9231f12738e9
toko bangunan,Toko Bahan Bangunan,ELTIGA Hard Ware,"4R99+HQ9, Jl. Pendidikan, Udapi Hilir, Distrik Prafi, Kabupaten Manokwari, Papua Bar. 98356","Jl. Pendidikan, Udapi Hilir, Distrik Prafi, Kabupaten Manokwari",PAPUA BARAT,98356.0,Indonesia,986811156.0,-0.8810887,133.8194861,https://maps.google.com/?cid=0x0:0x233be94230012a5d
toko bangunan,Toko Bahan Bangunan,Toko Tigase Pratama,"43M3+RGP, Wosi, Kec. Manokwari Bar., Kabupaten Manokwari, Papua Bar. 98312","Wosi, Kec. Manokwari Bar., Kabupaten Manokwari",PAPUA BARAT,98312.0,Indonesia,,-0.8655207,134.0539605,https://maps.google.com/?cid=0x0:0xef96868012a14cc1
toko bangunan,Toko Bahan Bangunan,Toko Bangunan ATIGA,"5355+F7H, Jl. Angkasa Mulyono, Amban, Kec. Manokwari Bar., Kabupaten Manokwari, Papua Bar. 98312","Jl. Angkasa Mulyono, Amban, Kec. Manokwari Bar., Kabupaten Manokwari",PAPUA BARAT,98312.0,Indonesia,,-0.8413134,134.0582405,https://maps.google.com/?cid=0x0:0x6a0ea28d5492ed54
toko bangunan,Pemasok Bahan Bangunan,Depo Makmur Manokwari,"43P2+QWR, Jl. Trikora Wosi, Wosi, Kec. Manokwari Bar., Kabupaten Manokwari, Papua Bar. 98312","Jl. Trikora Wosi, Wosi, Kec. Manokwari Bar., Kabupaten Manokwari",PAPUA BARAT,98312.0,Indonesia,81248426402.0,-0.8630402,134.0521741,https://maps.google.com/?cid=0x0:0x387befda163fc63b
building materials,building materials,Distrik Anggi,"Kab. Pegunungan Arfak, Papua Bar.","Kab. Pegunungan Arfak, Papua Bar.",PAPUA BARAT,,Indonesia,,-1.3260424,133.9158721,https://maps.google.com/?cid=0x0:0xfcf8f2554dc74d7d
building materials,Pemasok Bahan Bangunan,Depo Makmur Manokwari,"43P2+QWR, Jl. Trikora Wosi, Wosi, Kec. Manokwari Bar., Kabupaten Manokwari, Papua Bar. 98312","Jl. Trikora Wosi, Wosi, Kec. Manokwari Bar., Kabupaten Manokwari",PAPUA BARAT,98312.0,Indonesia,81248426402.0,-0.8630402,134.0521741,https://maps.google.com/?cid=0x0:0x387befda163fc63b
building materials,Toko Bahan Bangunan,Toko Bangunan,"Jl. Gn. Salju No.70, Amban, Kec. Manokwari Bar., Kabupaten Manokwari, Papua Bar. 98314","Amban, Kec. Manokwari Bar., Kabupaten Manokwari",PAPUA BARAT,98314.0,Indonesia,,-0.8378489,134.0648609,https://maps.google.com/?cid=0x0:0x39e90745f521cce
building materials,Toko Bahan Bangunan,DepoTeguh,"43QF+MP2, Padarni, Kec. Manokwari Bar., Kabupaten Manokwari, Papua Bar. 98312","Padarni, Kec. Manokwari Bar., Kabupaten Manokwari",PAPUA BARAT,98312.0,Indonesia,,-0.8608702,134.0742546,https://maps.google.com/?cid=0x0:0xa7aa87e22e73b4ed
building materials,Toko Bahan Bangunan,Matrial Anggiat Jaya,"Jl. Kapuk Ps. Alam No.201 20, RT.20/RW.16, Kapuk, Kecamatan Cengkareng, Kota Jakarta Barat, Daerah Khusus Ibukota Jakarta 11720","RT.20/RW.16, Kapuk, Kecamatan Cengkareng, Kota Jakarta Barat",PAPUA BARAT,11720.0,Indonesia,,-6.1399669,106.745169,https://maps.google.com/?cid=0x0:0xc74964abbd1d13be
building materials,Toko Bahan Bangunan,TB. MAJU MAPAN,"Jl. Pedongkelan Raya No.1 15, RT.15/RW.12, Kapuk, Kecamatan Cengkareng, Kota Jakarta Barat, Daerah Khusus Ibukota Jakarta 11720","RT.15/RW.12, Kapuk, Kecamatan Cengkareng, Kota Jakarta Barat",PAPUA BARAT,11720.0,Indonesia,,-6.1390787,106.750869,https://maps.google.com/?cid=0x0:0xb7eca6db13a59d95
building materials,building materials,Kec. Anggi Gida,"Kab. Pegunungan Arfak, Papua Bar.","Kab. Pegunungan Arfak, Papua Bar.",PAPUA BARAT,,Indonesia,,-1.3668114,133.9609514,https://maps.google.com/?cid=0x0:0xb4bc71d5f83c5185
building materials,building materials,Danau Anggi Gida,"Kab. Pegunungan Arfak, Papua Bar.","Kab. Pegunungan Arfak, Papua Bar.",PAPUA BARAT,,Indonesia,,-1.3963314,133.9532149,https://maps.google.com/?cid=0x0:0xd222eb659585412a
building materials,building materials,Papua Bar. 98358,"Kabupaten Manokwari, Papua Bar.","Kabupaten Manokwari, Papua Bar.",PAPUA BARAT,,Indonesia,,-1.0707188,133.7525619,https://maps.google.com/?cid=0x0:0x566a5a268f3890ee
building materials,Toko Bahan Bangunan,Depo Bangunan Mbanyu Mili,"3VQM+2GP depan balai kampung sp 2, Prafi Mulia, Distrik Prafi, Kabupaten Manokwari, Papua Bar. 98356","Prafi Mulia, Distrik Prafi, Kabupaten Manokwari",PAPUA BARAT,98356.0,Indonesia,85254126242.0,-0.9124191,133.8838245,https://maps.google.com/?cid=0x0:0x72bb281db456c91a
building materials,Toko Bahan Bangunan,PAPUA BANGUNAN,"42GX+945, Wosi, Kec. Manokwari Bar., Kabupaten Manokwari, Papua Bar. 98312","Wosi, Kec. Manokwari Bar., Kabupaten Manokwari",PAPUA BARAT,98312.0,Indonesia,82198055550.0,-0.874101,134.0478473,https://maps.google.com/?cid=0x0:0x2c3683b193d9430f
building materials,Toko Elektronik,Toko Bangunan Sumber Baru,"SP3, Aimasi, Jl. Poros, Distrik Prafi, Kabupaten Manokwari, Papua Bar. 98356","Aimasi, Jl. Poros, Distrik Prafi, Kabupaten Manokwari",PAPUA BARAT,98356.0,Indonesia,81234807007.0,-0.883667,133.820223,https://maps.google.com/?cid=0x0:0x7475be84d164c6b6
building materials,Pemasok kayu,STAN Kayu,"4V33+M49, Kampung nimbay, RT.3/RW.3, Nimbay, Kec. Warmare, Kabupaten Manokwari, Papua Bar.","Kabupaten Manokwari, Papua Bar.",PAPUA BARAT,,Indonesia,,-0.8958481,133.8528672,https://maps.google.com/?cid=0x0:0x5090c4df82a6b386
building materials,Toserba,TOKO MAJU MAKMUR,"4R8F+95V, Udapi Hilir, Distrik Prafi, Kabupaten Manokwari, Papua Bar. 98356","Udapi Hilir, Distrik Prafi, Kabupaten Manokwari",PAPUA BARAT,98356.0,Indonesia,,-0.884108,133.8229369,https://maps.google.com/?cid=0x0:0x5dd0e3c69ab93bdc
building materials,Toko Bahan Bangunan,Toko mentari,"4R74+WP, Waseki Indah, Distrik Prafi, Kabupaten Manokwari, Papua Bar.","Kabupaten Manokwari, Papua Bar.",PAPUA BARAT,,Indonesia,,-0.8853016,133.8068212,https://maps.google.com/?cid=0x0:0xdc35c757e123f91e
building materials,Toko Bahan Bangunan,toko Randi jaya,"4RF6+MC8, Waseki Indah, Distrik Prafi, Kabupaten Manokwari, Papua Bar. 98356","Waseki Indah, Distrik Prafi, Kabupaten Manokwari",PAPUA BARAT,98356.0,Indonesia,,-0.8758433,133.8110847,https://maps.google.com/?cid=0x0:0x4a345df7b5e52ca5
building materials,Toko Bahan Bangunan,Toko Bangunan Kencana Jaya,"sp 3, jalur 9, Aimasi, Waseki Indah, Distrik Prafi, Kabupaten Manokwari, Papua Bar. 98356","jalur 9, Aimasi, Waseki Indah, Distrik Prafi, Kabupaten Manokwari",PAPUA BARAT,98356.0,Indonesia,81390965850.0,-0.8809697,133.8052293,https://maps.google.com/?cid=0x0:0x372086303669e4f6
building materials,Toko Bahan Bangunan,97 material,"Jl. Trikora Rendani, Sowi, Distrik Manokwari, Kabupaten Manokwari, Papua Bar.","Kabupaten Manokwari, Papua Bar.",PAPUA BARAT,,Indonesia,82198516299.0,-0.8852765,134.0507225,https://maps.google.com/?cid=0x0:0x5467f352903e2c83
building materials,building materials,Distrik Catubouw,"Kab. Pegunungan Arfak, Papua Bar.","Kab. Pegunungan Arfak, Papua Bar.",PAPUA BARAT,,Indonesia,,-1.0434381,133.7142484,https://maps.google.com/?cid=0x0:0x75b017c2013f8105
building materials,building materials,Papua Bar. 98359,Papua Bar.,Papua Bar.,PAPUA BARAT,,Indonesia,,-1.5213839,133.7525619,https://maps.google.com/?cid=0x0:0xc8a895044b18d7c8
building materials,Toko Bahan Bangunan,Depo Bangunan Mbanyu Mili,"3VQM+2GP depan balai kampung sp 2, Prafi Mulia, Distrik Prafi, Kabupaten Manokwari, Papua Bar. 98356","Prafi Mulia, Distrik Prafi, Kabupaten Manokwari",PAPUA BARAT,98356.0,Indonesia,85254126242.0,-0.9124191,133.8838245,https://maps.google.com/?cid=0x0:0x72bb281db456c91a
building materials,Toserba,TOKO MAJU MAKMUR,"4R8F+95V, Udapi Hilir, Distrik Prafi, Kabupaten Manokwari, Papua Bar. 98356","Udapi Hilir, Distrik Prafi, Kabupaten Manokwari",PAPUA BARAT,98356.0,Indonesia,,-0.884108,133.8229369,https://maps.google.com/?cid=0x0:0x5dd0e3c69ab93bdc
building materials,Toko Bahan Bangunan,"Homega HPL, PVC Sheet  Vinyl Floor","Jl. Nusa Indah No.21 13, RT.13/RW.1, Kapuk, Kecamatan Cengkareng, Kota Jakarta Barat, Daerah Khusus Ibukota Jakarta 11720","RT.13/RW.1, Kapuk, Kecamatan Cengkareng, Kota Jakarta Barat",PAPUA BARAT,11720.0,Indonesia,87888516600.0,-6.1447897,106.7737816,https://maps.google.com/?cid=0x0:0xff511affcfef33b5
building materials,Kantor Perusahaan,PT. CONCH WEST PAPUA CEMENT,"Maruni, Distrik Manokwari, Kabupaten Manokwari, Papua Bar. 98315","Distrik Manokwari, Kabupaten Manokwari",PAPUA BARAT,98315.0,Indonesia,8254369023.0,-0.9959717,134.0251397,https://maps.google.com/?cid=0x0:0x3a08c2b6d4ba4792
building materials,Toko Bahan Bangunan,Homega Hpl  Flooring,"Jelambar Baru, Kec. Grogol petamburan, Kota Jakarta Barat, Daerah Khusus Ibukota Jakarta","Kota Jakarta Barat, Daerah Khusus Ibukota Jakarta",PAPUA BARAT,,Indonesia,,-6.1439583,106.7839978,https://maps.google.com/?cid=0x0:0xb618508423189e86
building materials,building materials,Hingk,"Kab. Pegunungan Arfak, Papua Bar.","Kab. Pegunungan Arfak, Papua Bar.",PAPUA BARAT,,Indonesia,,-1.2205844,133.9627492,https://maps.google.com/?cid=0x0:0x3f01e43bc4522fcd
building materials,Pemasok Bahan Bangunan,Toko bangunan Sumber Makmur,"32CM+75G, Jl. Manokwari - Maruni, Anday, Distrik Manokwari, Kabupaten Manokwari, Papua Bar. 98315","Jl. Manokwari - Maruni, Anday, Distrik Manokwari, Kabupaten Manokwari",PAPUA BARAT,98315.0,Indonesia,8114846060.0,-0.9293075,134.0329487,https://maps.google.com/?cid=0x0:0xa0a85c7270dde255
building materials,Toko Bahan Bangunan,Fajar Bangunan,"Sowi, Distrik Manokwari, Kabupaten Manokwari, Papua Bar. 98315","Distrik Manokwari, Kabupaten Manokwari",PAPUA BARAT,98315.0,Indonesia,,-0.9062643,134.0359839,https://maps.google.com/?cid=0x0:0x9d0563299ba4e3f6
building materials,Toko Bahan Bangunan,Cabang Buana Karya Group,"427W+3FJ, Jl. Drs Esau Sesa, Sowi, Distrik Manokwari, Kabupaten Manokwari, Papua Bar. 98315","Jl. Drs Esau Sesa, Sowi, Distrik Manokwari, Kabupaten Manokwari",PAPUA BARAT,98315.0,Indonesia,,-0.8872785,134.0461277,https://maps.google.com/?cid=0x0:0xd5ae321c41153a59
building materials,Toko Bahan Bangunan,PAPUA BANGUNAN,"42GX+945, Wosi, Kec. Manokwari Bar., Kabupaten Manokwari, Papua Bar. 98312","Wosi, Kec. Manokwari Bar., Kabupaten Manokwari",PAPUA BARAT,98312.0,Indonesia,82198055550.0,-0.874101,134.0478473,https://maps.google.com/?cid=0x0:0x2c3683b193d9430f
building materials,Toko Bahan Bangunan,Depo Bangunan Mbanyu Mili,"3VQM+2GP depan balai kampung sp 2, Prafi Mulia, Distrik Prafi, Kabupaten Manokwari, Papua Bar. 98356","Prafi Mulia, Distrik Prafi, Kabupaten Manokwari",PAPUA BARAT,98356.0,Indonesia,85254126242.0,-0.9124191,133.8838245,https://maps.google.com/?cid=0x0:0x72bb281db456c91a
building materials,Toko Perlengkapan Rumah,Depo teguh arfai,"Jln.abraham ataruri arfai, Kabupaten Manokwari, Papua Bar. 98312",Kabupaten Manokwari,PAPUA BARAT,98312.0,Indonesia,82174980586.0,-0.9297824,134.0264328,https://maps.google.com/?cid=0x0:0x6ccc9231f12738e9
building materials,Grosir Perlengkapan Rumah Tangga,"Penjualan Sembako, Barang Bangunan DLL, Layanan Antar Sampai Di Tempat","Unnamed Road, Dindey, Kec. Warmare, Kabupaten Manokwari, Papua Bar. 98352","Dindey, Kec. Warmare, Kabupaten Manokwari",PAPUA BARAT,98352.0,Indonesia,81242998984.0,-0.9736771,133.9457575,https://maps.google.com/?cid=0x0:0xd7582d0f7842e3bd
building materials,Toko Bahan Bangunan,Sakura Bangunan,"32PP+6RW, Jl. Trikora Taman Ria, Sowi, Distrik Manokwari, Kabupaten Manokwari, Papua Bar. 98315","Jl. Trikora Taman Ria, Sowi, Distrik Manokwari, Kabupaten Manokwari",PAPUA BARAT,98315.0,Indonesia,81241419493.0,-0.9143793,134.0370816,https://maps.google.com/?cid=0x0:0x9c791776501512b6
building materials,Toko Bahan Bangunan,97 material,"Jl. Trikora Rendani, Sowi, Distrik Manokwari, Kabupaten Manokwari, Papua Bar.","Kabupaten Manokwari, Papua Bar.",PAPUA BARAT,,Indonesia,82198516299.0,-0.8852765,134.0507225,https://maps.google.com/?cid=0x0:0x5467f352903e2c83
building materials,Toko Bahan Bangunan,Toko anugrah jaya,"3262+877, Jl. Manokwari - Maruni, Anday, Distrik Manokwari, Kabupaten Manokwari, Papua Bar. 98315","Jl. Manokwari - Maruni, Anday, Distrik Manokwari, Kabupaten Manokwari",PAPUA BARAT,98315.0,Indonesia,,-0.9392236,134.0006725,https://maps.google.com/?cid=0x0:0x107f5c9001f2d2d3
building materials,Toko Elektronik,Toko Bangunan Sumber Baru,"SP3, Aimasi, Jl. Poros, Distrik Prafi, Kabupaten Manokwari, Papua Bar. 98356","Aimasi, Jl. Poros, Distrik Prafi, Kabupaten Manokwari",PAPUA BARAT,98356.0,Indonesia,81234807007.0,-0.883667,133.820223,https://maps.google.com/?cid=0x0:0x7475be84d164c6b6
building materials,Toko Bahan Bangunan,SENTRAL BESI,"425W+FJM, Sowi, Distrik Manokwari, Kabupaten Manokwari, Papua Bar. 98315","Sowi, Distrik Manokwari, Kabupaten Manokwari",PAPUA BARAT,98315.0,Indonesia,,-0.8912959,134.0465601,https://maps.google.com/?cid=0x0:0x3e1b4f46810bb10e
building materials,Toko Perlengkapan Rumah,ARFAI JAYA BANGUNAN,"Jalan trikora arfai salak, Anday, Distrik Manokwari, Kabupaten Manokwari, Papua Bar. 98315","Anday, Distrik Manokwari, Kabupaten Manokwari",PAPUA BARAT,98315.0,Indonesia,82174980586.0,-0.9306827,134.0172536,https://maps.google.com/?cid=0x0:0x50b3c85320438418
building materials,building materials,Kec. Membey,"Kab. Pegunungan Arfak, Papua Bar.","Kab. Pegunungan Arfak, Papua Bar.",PAPUA BARAT,,Indonesia,,-1.3416452,134.0336402,https://maps.google.com/?cid=0x0:0x6db50f43a0973078
building materials,Toko Bahan Bangunan,Depo Bangunan Mbanyu Mili,"3VQM+2GP depan balai kampung sp 2, Prafi Mulia, Distrik Prafi, Kabupaten Manokwari, Papua Bar. 98356","Prafi Mulia, Distrik Prafi, Kabupaten Manokwari",PAPUA BARAT,98356.0,Indonesia,85254126242.0,-0.9124191,133.8838245,https://maps.google.com/?cid=0x0:0x72bb281db456c91a
building materials,Toko Bahan Bangunan,PAPUA BANGUNAN,"42GX+945, Wosi, Kec. Manokwari Bar., Kabupaten Manokwari, Papua Bar. 98312","Wosi, Kec. Manokwari Bar., Kabupaten Manokwari",PAPUA BARAT,98312.0,Indonesia,82198055550.0,-0.874101,134.0478473,https://maps.google.com/?cid=0x0:0x2c3683b193d9430f
building materials,Toko Bahan Bangunan,Wapoga Mutiara Timber. PT,"43MJ+WXW, Manokwari Tim., Kec. Manokwari Bar., Kabupaten Manokwari, Papua Bar. 98312","Manokwari Tim., Kec. Manokwari Bar., Kabupaten Manokwari",PAPUA BARAT,98312.0,Indonesia,962211770.0,-0.86514,134.082441,https://maps.google.com/?cid=0x0:0x23cc3c5246cb2c52
building materials,Toko Bahan Bangunan,PT. Bintuni Utama Murni Wood Industries,"Jl. Jend. Sudirman No.40, Padarni, Kec. Manokwari Bar., Kabupaten Manokwari, Papua Bar. 98312","Padarni, Kec. Manokwari Bar., Kabupaten Manokwari",PAPUA BARAT,98312.0,Indonesia,986211170.0,-0.8600523,134.0722125,https://maps.google.com/?cid=0x0:0xf2f8ff6d20bb8f63
building materials,Toko Swalayan,BOMART,"Jl. SMPN/Rivaria Dalam No.49, RT.03/RW.RT 01, Bedahan, Kec. Sawangan, Kota Depok, Jawa Barat 16519","RT.03/RW.RT 01, Bedahan, Kec. Sawangan, Kota Depok",PAPUA BARAT,16519.0,Indonesia,85710684118.0,-6.4174599,106.7620917,https://maps.google.com/?cid=0x0:0xd7df3dd8b0363611
building materials,building materials,CV. Bomar Yurindo Sejahtera,"Jl. Raya Kalimulya, Kalimulya, Kec. Cilodong, Kota Depok, Jawa Barat 16413","Kalimulya, Kec. Cilodong, Kota Depok",PAPUA BARAT,16413.0,Indonesia,87782212213.0,-6.4294575,106.8226944,https://maps.google.com/?cid=0x0:0x4148743f5d64f64d
building materials,building materials,Papua Bar. 98359,Papua Bar.,Papua Bar.,PAPUA BARAT,,Indonesia,,-1.5213839,133.7525619,https://maps.google.com/?cid=0x0:0xc8a895044b18d7c8
building materials,building materials,Distrik Sururey,"Danau, Kab. Pegunungan Arfak, Papua Bar.","Kab. Pegunungan Arfak, Papua Bar.",PAPUA BARAT,,Indonesia,,-1.4064846,133.8840956,https://maps.google.com/?cid=0x0:0xd9219852feca5c52
building materials,building materials,Distrik Sugurey,"Kab. Pegunungan Arfak, Papua Bar.","Kab. Pegunungan Arfak, Papua Bar.",PAPUA BARAT,,Indonesia,,-1.3909626,133.8744048,https://maps.google.com/?cid=0x0:0x76f12f3430086b8b
building materials,building materials,Taige,"Distrik Taige, Kab. Pegunungan Arfak, Papua Bar.","Kab. Pegunungan Arfak, Papua Bar.",PAPUA BARAT,,Indonesia,,-1.3061081,133.8589634,https://maps.google.com/?cid=0x0:0xaa3439167fad271d
building materials,Toko Bahan Bangunan,Depo Bangunan Mbanyu Mili,"3VQM+2GP depan balai kampung sp 2, Prafi Mulia, Distrik Prafi, Kabupaten Manokwari, Papua Bar. 98356","Prafi Mulia, Distrik Prafi, Kabupaten Manokwari",PAPUA BARAT,98356.0,Indonesia,85254126242.0,-0.9124191,133.8838245,https://maps.google.com/?cid=0x0:0x72bb281db456c91a
building materials,Toko Bahan Bangunan,Tiptore Building Material,"Jl. Poros Kuda Mati, Klp. Lima, Kec. Merauke, Kabupaten Merauke, Papua 99616","Klp. Lima, Kec. Merauke, Kabupaten Merauke",PAPUA BARAT,99616.0,Indonesia,82293657714.0,-8.5061763,140.4257632,https://maps.google.com/?cid=0x0:0xbf132c61e5517b30
building materials,Toko Bahan Bangunan,Gudang Tigase Pratama,"Jl. Reremi Puncak, Manokwari Bar., Kec. Manokwari Bar., Kabupaten Manokwari, Papua Bar. 98312","Manokwari Bar., Kec. Manokwari Bar., Kabupaten Manokwari",PAPUA BARAT,98312.0,Indonesia,85397520354.0,-0.8495164,134.0532569,https://maps.google.com/?cid=0x0:0xb40a25d0c79962aa
building materials,Toko Bahan Bangunan,Toko Bangunan ATIGA,"5355+F7H, Jl. Angkasa Mulyono, Amban, Kec. Manokwari Bar., Kabupaten Manokwari, Papua Bar. 98312","Jl. Angkasa Mulyono, Amban, Kec. Manokwari Bar., Kabupaten Manokwari",PAPUA BARAT,98312.0,Indonesia,,-0.8413134,134.0582405,https://maps.google.com/?cid=0x0:0x6a0ea28d5492ed54
building materials,Toko Bahan Bangunan,PAPUA BANGUNAN,"42GX+945, Wosi, Kec. Manokwari Bar., Kabupaten Manokwari, Papua Bar. 98312","Wosi, Kec. Manokwari Bar., Kabupaten Manokwari",PAPUA BARAT,98312.0,Indonesia,82198055550.0,-0.874101,134.0478473,https://maps.google.com/?cid=0x0:0x2c3683b193d9430f
building materials,Toko Bahan Bangunan,Toko Karya Abadi,"WJ4X+24P, Tuasai, Distrik Bintuni, Kabupaten Teluk Bintuni, Papua Bar. 98364","Tuasai, Distrik Bintuni, Kabupaten Teluk Bintuni",PAPUA BARAT,98364.0,Indonesia,82244443838.0,-2.094909,133.6478193,https://maps.google.com/?cid=0x0:0x860a78b44fea4433
building materials,Toko Bahan Bangunan,Toko Rahayu Babo,"FF52+F2R, Unnamed Road, Nusei, Babo, Kabupaten Teluk Bintuni, Papua Bar. 98363","Unnamed Road, Nusei, Babo, Kabupaten Teluk Bintuni",PAPUA BARAT,98363.0,Indonesia,85244200777.0,-2.5412733,133.45003,https://maps.google.com/?cid=0x0:0x2d6ca9cad594f391
building materials,Toko Bahan Bangunan,Wapoga Mutiara Timber. PT,"43MJ+WXW, Manokwari Tim., Kec. Manokwari Bar., Kabupaten Manokwari, Papua Bar. 98312","Manokwari Tim., Kec. Manokwari Bar., Kabupaten Manokwari",PAPUA BARAT,98312.0,Indonesia,962211770.0,-0.86514,134.082441,https://maps.google.com/?cid=0x0:0x23cc3c5246cb2c52
building materials,Pemasok lantai kayu dan laminasi,"Damara Flooring - Distributor Lantai Vinyl, SPC, WPC Taco dan Marvel","Ruko, Jl. Urbana Place Jl. Merpati Raya No.A10, Sawah Lama, Kec. Ciputat, Kota Tangerang Selatan, Banten 15413","Jl. Urbana Place Jl. Merpati Raya No.A10, Sawah Lama, Kec. Ciputat, Kota Tangerang Selatan",PAPUA BARAT,15413.0,Indonesia,85700488827.0,-6.3028289,106.7266152,https://maps.google.com/?cid=0x0:0xc1987c1ff95e3712
building materials,Pemasok Bahan Bangunan,Tk prafi indah,"43Q6+CR7 Sp 4 jalur 7, Manokwari Bar., Kec. Manokwari Bar., Kabupaten Manokwari, Papua Bar.","Kabupaten Manokwari, Papua Bar.",PAPUA BARAT,,Indonesia,,-0.8614531,134.0620421,https://maps.google.com/?cid=0x0:0x4e824d1ad5cc0ad8
building materials,Pemasok lantai kayu dan laminasi,Central Flooring Distributor Lantai Vinyl SPC Parket Tangerang Selatan,"Samping Mixue, Jl.Ceger Raya No.38b, Jl. Ceger Raya No.38A, Jurang Manggu Tim., Kec. Pd. Aren, Kota Tangerang Selatan, Banten 15222","Jl.Ceger Raya No.38b, Jl. Ceger Raya No.38A, Jurang Manggu Tim., Kec. Pd. Aren, Kota Tangerang Selatan",PAPUA BARAT,15222.0,Indonesia,81292267494.0,-6.2619354,106.737692,https://maps.google.com/?cid=0x0:0x56d6deb32270ffe5
building materials,building materials,Papua Bar. 98315,"Kabupaten Manokwari, Papua Bar.","Kabupaten Manokwari, Papua Bar.",PAPUA BARAT,,Indonesia,,-1.0762009,133.4452148,https://maps.google.com/?cid=0x0:0xe20d605d60a391b5
building materials,Toko Bahan Bangunan,Fajar Bangunan,"Sowi, Distrik Manokwari, Kabupaten Manokwari, Papua Bar. 98315","Distrik Manokwari, Kabupaten Manokwari",PAPUA BARAT,98315.0,Indonesia,,-0.9062643,134.0359839,https://maps.google.com/?cid=0x0:0x9d0563299ba4e3f6
building materials,Toko Perlengkapan Rumah,Depo teguh arfai,"Jln.abraham ataruri arfai, Kabupaten Manokwari, Papua Bar. 98312",Kabupaten Manokwari,PAPUA BARAT,98312.0,Indonesia,82174980586.0,-0.9297824,134.0264328,https://maps.google.com/?cid=0x0:0x6ccc9231f12738e9
building materials,Toko Bahan Bangunan,Sakura Bangunan,"32PP+6RW, Jl. Trikora Taman Ria, Sowi, Distrik Manokwari, Kabupaten Manokwari, Papua Bar. 98315","Jl. Trikora Taman Ria, Sowi, Distrik Manokwari, Kabupaten Manokwari",PAPUA BARAT,98315.0,Indonesia,81241419493.0,-0.9143793,134.0370816,https://maps.google.com/?cid=0x0:0x9c791776501512b6
building materials,Perusahaan Konstruksi,Cv. Baru tela perkasa,"32RP+WHR, Sowi, Distrik Manokwari, Kabupaten Manokwari, Papua Bar. 98315","Sowi, Distrik Manokwari, Kabupaten Manokwari",PAPUA BARAT,98315.0,Indonesia,,-0.9076461,134.0363936,https://maps.google.com/?cid=0x0:0x6e486d6414af863b
building materials,Toko Bahan Bangunan,Cabang Buana Karya Group,"427W+3FJ, Jl. Drs Esau Sesa, Sowi, Distrik Manokwari, Kabupaten Manokwari, Papua Bar. 98315","Jl. Drs Esau Sesa, Sowi, Distrik Manokwari, Kabupaten Manokwari",PAPUA BARAT,98315.0,Indonesia,,-0.8872785,134.0461277,https://maps.google.com/?cid=0x0:0xd5ae321c41153a59
building materials,Toko Perlengkapan Rumah,ARFAI JAYA BANGUNAN,"Jalan trikora arfai salak, Anday, Distrik Manokwari, Kabupaten Manokwari, Papua Bar. 98315","Anday, Distrik Manokwari, Kabupaten Manokwari",PAPUA BARAT,98315.0,Indonesia,82174980586.0,-0.9306827,134.0172536,https://maps.google.com/?cid=0x0:0x50b3c85320438418
building materials,Toko Bahan Bangunan,PAPUA BANGUNAN,"42GX+945, Wosi, Kec. Manokwari Bar., Kabupaten Manokwari, Papua Bar. 98312","Wosi, Kec. Manokwari Bar., Kabupaten Manokwari",PAPUA BARAT,98312.0,Indonesia,82198055550.0,-0.874101,134.0478473,https://maps.google.com/?cid=0x0:0x2c3683b193d9430f
building materials,Toko Bahan Bangunan,SENTRAL BESI,"425W+FJM, Sowi, Distrik Manokwari, Kabupaten Manokwari, Papua Bar. 98315","Sowi, Distrik Manokwari, Kabupaten Manokwari",PAPUA BARAT,98315.0,Indonesia,,-0.8912959,134.0465601,https://maps.google.com/?cid=0x0:0x3e1b4f46810bb10e
building materials,Toko Bahan Bangunan,DepoTeguh,"43QF+MP2, Padarni, Kec. Manokwari Bar., Kabupaten Manokwari, Papua Bar. 98312","Padarni, Kec. Manokwari Bar., Kabupaten Manokwari",PAPUA BARAT,98312.0,Indonesia,,-0.8608702,134.0742546,https://maps.google.com/?cid=0x0:0xa7aa87e22e73b4ed
building materials,Pemasok Bahan Bangunan,Depo Makmur Manokwari,"43P2+QWR, Jl. Trikora Wosi, Wosi, Kec. Manokwari Bar., Kabupaten Manokwari, Papua Bar. 98312","Jl. Trikora Wosi, Wosi, Kec. Manokwari Bar., Kabupaten Manokwari",PAPUA BARAT,98312.0,Indonesia,81248426402.0,-0.8630402,134.0521741,https://maps.google.com/?cid=0x0:0x387befda163fc63b
building materials,Pemasok Bahan Bangunan,Toko bangunan Sumber Makmur,"32CM+75G, Jl. Manokwari - Maruni, Anday, Distrik Manokwari, Kabupaten Manokwari, Papua Bar. 98315","Jl. Manokwari - Maruni, Anday, Distrik Manokwari, Kabupaten Manokwari",PAPUA BARAT,98315.0,Indonesia,8114846060.0,-0.9293075,134.0329487,https://maps.google.com/?cid=0x0:0xa0a85c7270dde255
building materials,Perusahaan Konstruksi,   () tempat penjualan Material/Batu Tela berkualitas,"3282+RXP, Anday, Distrik Manokwari, Kabupaten Manokwari, Papua Bar. 98315","Anday, Distrik Manokwari, Kabupaten Manokwari",PAPUA BARAT,98315.0,Indonesia,,-0.9322267,134.0025019,https://maps.google.com/?cid=0x0:0x238067c4769e15ac
building materials,Toko Bahan Bangunan,ANEKA BANGUNAN,"Wosi, Kec. Manokwari Bar., Kabupaten Manokwari, Papua Bar. 98312","Kec. Manokwari Bar., Kabupaten Manokwari",PAPUA BARAT,98312.0,Indonesia,81344843001.0,-0.8631883,134.0498559,https://maps.google.com/?cid=0x0:0x3598159af16f30ea
building materials,building materials,Papua Bar. 98352,"Kabupaten Manokwari, Papua Bar.","Kabupaten Manokwari, Papua Bar.",PAPUA BARAT,,Indonesia,,-1.0122519,133.9055155,https://maps.google.com/?cid=0x0:0x665ab61075e0d624
building materials,Grosir Perlengkapan Rumah Tangga,"Penjualan Sembako, Barang Bangunan DLL, Layanan Antar Sampai Di Tempat","Unnamed Road, Dindey, Kec. Warmare, Kabupaten Manokwari, Papua Bar. 98352","Dindey, Kec. Warmare, Kabupaten Manokwari",PAPUA BARAT,98352.0,Indonesia,81242998984.0,-0.9736771,133.9457575,https://maps.google.com/?cid=0x0:0xd7582d0f7842e3bd
building materials,Toko Bahan Bangunan,Depo Bangunan Mbanyu Mili,"3VQM+2GP depan balai kampung sp 2, Prafi Mulia, Distrik Prafi, Kabupaten Manokwari, Papua Bar. 98356","Prafi Mulia, Distrik Prafi, Kabupaten Manokwari",PAPUA BARAT,98356.0,Indonesia,85254126242.0,-0.9124191,133.8838245,https://maps.google.com/?cid=0x0:0x72bb281db456c91a
building materials,Toko Bahan Bangunan,Fajar Bangunan,"Sowi, Distrik Manokwari, Kabupaten Manokwari, Papua Bar. 98315","Distrik Manokwari, Kabupaten Manokwari",PAPUA BARAT,98315.0,Indonesia,,-0.9062643,134.0359839,https://maps.google.com/?cid=0x0:0x9d0563299ba4e3f6
building materials,Toko Bahan Bangunan,ELTIGA Hard Ware,"4R99+HQ9, Jl. Pendidikan, Udapi Hilir, Distrik Prafi, Kabupaten Manokwari, Papua Bar. 98356","Jl. Pendidikan, Udapi Hilir, Distrik Prafi, Kabupaten Manokwari",PAPUA BARAT,98356.0,Indonesia,986811156.0,-0.8810887,133.8194861,https://maps.google.com/?cid=0x0:0x233be94230012a5d
building materials,Perusahaan Konstruksi,   () tempat penjualan Material/Batu Tela berkualitas,"3282+RXP, Anday, Distrik Manokwari, Kabupaten Manokwari, Papua Bar. 98315","Anday, Distrik Manokwari, Kabupaten Manokwari",PAPUA BARAT,98315.0,Indonesia,,-0.9322267,134.0025019,https://maps.google.com/?cid=0x0:0x238067c4769e15ac
building materials,Toko Perlengkapan Rumah,ARFAI JAYA BANGUNAN,"Jalan trikora arfai salak, Anday, Distrik Manokwari, Kabupaten Manokwari, Papua Bar. 98315","Anday, Distrik Manokwari, Kabupaten Manokwari",PAPUA BARAT,98315.0,Indonesia,82174980586.0,-0.9306827,134.0172536,https://maps.google.com/?cid=0x0:0x50b3c85320438418
building materials,Toko Bahan Bangunan,PAPUA BANGUNAN,"42GX+945, Wosi, Kec. Manokwari Bar., Kabupaten Manokwari, Papua Bar. 98312","Wosi, Kec. Manokwari Bar., Kabupaten Manokwari",PAPUA BARAT,98312.0,Indonesia,82198055550.0,-0.874101,134.0478473,https://maps.google.com/?cid=0x0:0x2c3683b193d9430f
building materials,Toko Bahan Bangunan,Sakura Bangunan,"32PP+6RW, Jl. Trikora Taman Ria, Sowi, Distrik Manokwari, Kabupaten Manokwari, Papua Bar. 98315","Jl. Trikora Taman Ria, Sowi, Distrik Manokwari, Kabupaten Manokwari",PAPUA BARAT,98315.0,Indonesia,81241419493.0,-0.9143793,134.0370816,https://maps.google.com/?cid=0x0:0x9c791776501512b6
building materials,Toko Bahan Bangunan,Cabang Buana Karya Group,"427W+3FJ, Jl. Drs Esau Sesa, Sowi, Distrik Manokwari, Kabupaten Manokwari, Papua Bar. 98315","Jl. Drs Esau Sesa, Sowi, Distrik Manokwari, Kabupaten Manokwari",PAPUA BARAT,98315.0,Indonesia,,-0.8872785,134.0461277,https://maps.google.com/?cid=0x0:0xd5ae321c41153a59
building materials,Perusahaan Konstruksi,Cv. Baru tela perkasa,"32RP+WHR, Sowi, Distrik Manokwari, Kabupaten Manokwari, Papua Bar. 98315","Sowi, Distrik Manokwari, Kabupaten Manokwari",PAPUA BARAT,98315.0,Indonesia,,-0.9076461,134.0363936,https://maps.google.com/?cid=0x0:0x6e486d6414af863b
building materials,Toko Bahan Bangunan,97 material,"Jl. Trikora Rendani, Sowi, Distrik Manokwari, Kabupaten Manokwari, Papua Bar.","Kabupaten Manokwari, Papua Bar.",PAPUA BARAT,,Indonesia,82198516299.0,-0.8852765,134.0507225,https://maps.google.com/?cid=0x0:0x5467f352903e2c83
building materials,Pemasok Bahan Bangunan,Toko bangunan Sumber Makmur,"32CM+75G, Jl. Manokwari - Maruni, Anday, Distrik Manokwari, Kabupaten Manokwari, Papua Bar. 98315","Jl. Manokwari - Maruni, Anday, Distrik Manokwari, Kabupaten Manokwari",PAPUA BARAT,98315.0,Indonesia,8114846060.0,-0.9293075,134.0329487,https://maps.google.com/?cid=0x0:0xa0a85c7270dde255
building materials,Toko Bahan Bangunan,Toko anugrah jaya,"3262+877, Jl. Manokwari - Maruni, Anday, Distrik Manokwari, Kabupaten Manokwari, Papua Bar. 98315","Jl. Manokwari - Maruni, Anday, Distrik Manokwari, Kabupaten Manokwari",PAPUA BARAT,98315.0,Indonesia,,-0.9392236,134.0006725,https://maps.google.com/?cid=0x0:0x107f5c9001f2d2d3
building materials,Toko Bahan Bangunan,ELTIGA Hard Ware,"4R99+HQ9, Jl. Pendidikan, Udapi Hilir, Distrik Prafi, Kabupaten Manokwari, Papua Bar. 98356","Jl. Pendidikan, Udapi Hilir, Distrik Prafi, Kabupaten Manokwari",PAPUA BARAT,98356.0,Indonesia,986811156.0,-0.8810887,133.8194861,https://maps.google.com/?cid=0x0:0x233be94230012a5d
building materials,building materials,Papua Bar. 98357,"Kabupaten Manokwari, Papua Bar.","Kabupaten Manokwari, Papua Bar.",PAPUA BARAT,,Indonesia,,-0.8227418,133.5606946,https://maps.google.com/?cid=0x0:0x3e375139d962692c
building materials,Toko Bahan Bangunan,DepoTeguh,"43QF+MP2, Padarni, Kec. Manokwari Bar., Kabupaten Manokwari, Papua Bar. 98312","Padarni, Kec. Manokwari Bar., Kabupaten Manokwari",PAPUA BARAT,98312.0,Indonesia,,-0.8608702,134.0742546,https://maps.google.com/?cid=0x0:0xa7aa87e22e73b4ed
building materials,Toko Bahan Bangunan,toko Randi jaya,"4RF6+MC8, Waseki Indah, Distrik Prafi, Kabupaten Manokwari, Papua Bar. 98356","Waseki Indah, Distrik Prafi, Kabupaten Manokwari",PAPUA BARAT,98356.0,Indonesia,,-0.8758433,133.8110847,https://maps.google.com/?cid=0x0:0x4a345df7b5e52ca5
building materials,Toko Bahan Bangunan,Toko jelita,"6PC3+RVM, Unnamed Road, Wariori, Distrik Masni, Kabupaten Manokwari, Papua Bar. 98357","Unnamed Road, Wariori, Distrik Masni, Kabupaten Manokwari",PAPUA BARAT,98357.0,Indonesia,82358787299.0,-0.7779015,133.704657,https://maps.google.com/?cid=0x0:0xe57c13405547f320
building materials,Toko Bahan Bangunan,Gudang Tigase Pratama,"Jl. Reremi Puncak, Manokwari Bar., Kec. Manokwari Bar., Kabupaten Manokwari, Papua Bar. 98312","Manokwari Bar., Kec. Manokwari Bar., Kabupaten Manokwari",PAPUA BARAT,98312.0,Indonesia,85397520354.0,-0.8495164,134.0532569,https://maps.google.com/?cid=0x0:0xb40a25d0c79962aa
building materials,Toko Bahan Bangunan,Depo Bangunan Mbanyu Mili,"3VQM+2GP depan balai kampung sp 2, Prafi Mulia, Distrik Prafi, Kabupaten Manokwari, Papua Bar. 98356","Prafi Mulia, Distrik Prafi, Kabupaten Manokwari",PAPUA BARAT,98356.0,Indonesia,85254126242.0,-0.9124191,133.8838245,https://maps.google.com/?cid=0x0:0x72bb281db456c91a
building materials,Pemasok Bahan Bangunan,Depo Makmur Manokwari,"43P2+QWR, Jl. Trikora Wosi, Wosi, Kec. Manokwari Bar., Kabupaten Manokwari, Papua Bar. 98312","Jl. Trikora Wosi, Wosi, Kec. Manokwari Bar., Kabupaten Manokwari",PAPUA BARAT,98312.0,Indonesia,81248426402.0,-0.8630402,134.0521741,https://maps.google.com/?cid=0x0:0x387befda163fc63b
building materials,Toko Bahan Bangunan,ANEKA BANGUNAN,"Wosi, Kec. Manokwari Bar., Kabupaten Manokwari, Papua Bar. 98312","Kec. Manokwari Bar., Kabupaten Manokwari",PAPUA BARAT,98312.0,Indonesia,81344843001.0,-0.8631883,134.0498559,https://maps.google.com/?cid=0x0:0x3598159af16f30ea
building materials,Toko Bahan Bangunan,Toko mentari,"4R74+WP, Waseki Indah, Distrik Prafi, Kabupaten Manokwari, Papua Bar.","Kabupaten Manokwari, Papua Bar.",PAPUA BARAT,,Indonesia,,-0.8853016,133.8068212,https://maps.google.com/?cid=0x0:0xdc35c757e123f91e
building materials,Toko Bahan Bangunan,Fajar Bangunan,"Sowi, Distrik Manokwari, Kabupaten Manokwari, Papua Bar. 98315","Distrik Manokwari, Kabupaten Manokwari",PAPUA BARAT,98315.0,Indonesia,,-0.9062643,134.0359839,https://maps.google.com/?cid=0x0:0x9d0563299ba4e3f6
building materials,Toko Elektronik,Toko Bangunan Sumber Baru,"SP3, Aimasi, Jl. Poros, Distrik Prafi, Kabupaten Manokwari, Papua Bar. 98356","Aimasi, Jl. Poros, Distrik Prafi, Kabupaten Manokwari",PAPUA BARAT,98356.0,Indonesia,81234807007.0,-0.883667,133.820223,https://maps.google.com/?cid=0x0:0x7475be84d164c6b6
building materials,Toko Bahan Bangunan,TB.Makmur 168,"Jl. Angkasa Mulyono No.168, Amban, Kec. Manokwari Bar., Kabupaten Manokwari, Papua Bar. 98312","Amban, Kec. Manokwari Bar., Kabupaten Manokwari",PAPUA BARAT,98312.0,Indonesia,,-0.8440656,134.0541395,https://maps.google.com/?cid=0x0:0xc82c532be62ab924
building materials,Toko Perlengkapan Rumah,Depo teguh arfai,"Jln.abraham ataruri arfai, Kabupaten Manokwari, Papua Bar. 98312",Kabupaten Manokwari,PAPUA BARAT,98312.0,Indonesia,82174980586.0,-0.9297824,134.0264328,https://maps.google.com/?cid=0x0:0x6ccc9231f12738e9
hardware store,Toko Perlengkapan Rumah,Depo teguh arfai,"Jln.abraham ataruri arfai, Kabupaten Manokwari, Papua Bar. 98312",Kabupaten Manokwari,PAPUA BARAT,98312.0,Indonesia,82174980586.0,-0.9297824,134.0264328,https://maps.google.com/?cid=0x0:0x6ccc9231f12738e9
hardware store,Toko Bahan Bangunan,DepoTeguh,"43QF+MP2, Padarni, Kec. Manokwari Bar., Kabupaten Manokwari, Papua Bar. 98312","Padarni, Kec. Manokwari Bar., Kabupaten Manokwari",PAPUA BARAT,98312.0,Indonesia,,-0.8608702,134.0742546,https://maps.google.com/?cid=0x0:0xa7aa87e22e73b4ed
hardware store,hardware store,Danau Anggi Gida,"Kab. Pegunungan Arfak, Papua Bar.","Kab. Pegunungan Arfak, Papua Bar.",PAPUA BARAT,,Indonesia,,-1.3963314,133.9532149,https://maps.google.com/?cid=0x0:0xd222eb659585412a
hardware store,Toko Bahan Bangunan,Toko Bangunan ATIGA,"5355+F7H, Jl. Angkasa Mulyono, Amban, Kec. Manokwari Bar., Kabupaten Manokwari, Papua Bar. 98312","Jl. Angkasa Mulyono, Amban, Kec. Manokwari Bar., Kabupaten Manokwari",PAPUA BARAT,98312.0,Indonesia,,-0.8413134,134.0582405,https://maps.google.com/?cid=0x0:0x6a0ea28d5492ed54
hardware store,Toko Bahan Bangunan,ELTIGA Hard Ware,"4R99+HQ9, Jl. Pendidikan, Udapi Hilir, Distrik Prafi, Kabupaten Manokwari, Papua Bar. 98356","Jl. Pendidikan, Udapi Hilir, Distrik Prafi, Kabupaten Manokwari",PAPUA BARAT,98356.0,Indonesia,986811156.0,-0.8810887,133.8194861,https://maps.google.com/?cid=0x0:0x233be94230012a5d
hardware store,Toko Bahan Bangunan,Toko Bangunan ATIGA,"5355+F7H, Jl. Angkasa Mulyono, Amban, Kec. Manokwari Bar., Kabupaten Manokwari, Papua Bar. 98312","Jl. Angkasa Mulyono, Amban, Kec. Manokwari Bar., Kabupaten Manokwari",PAPUA BARAT,98312.0,Indonesia,,-0.8413134,134.0582405,https://maps.google.com/?cid=0x0:0x6a0ea28d5492ed54
hardware store,Toko Bahan Bangunan,ELTIGA Hard Ware,"4R99+HQ9, Jl. Pendidikan, Udapi Hilir, Distrik Prafi, Kabupaten Manokwari, Papua Bar. 98356","Jl. Pendidikan, Udapi Hilir, Distrik Prafi, Kabupaten Manokwari",PAPUA BARAT,98356.0,Indonesia,986811156.0,-0.8810887,133.8194861,https://maps.google.com/?cid=0x0:0x233be94230012a5d
hardware store,hardware store,Distrik Didohu,"Kab. Pegunungan Arfak, Papua Bar.","Kab. Pegunungan Arfak, Papua Bar.",PAPUA BARAT,,Indonesia,,-1.2738304,133.6341625,https://maps.google.com/?cid=0x0:0xbce404f07805cebf
hardware store,Toko Perlengkapan Rumah,Depo teguh arfai,"Jln.abraham ataruri arfai, Kabupaten Manokwari, Papua Bar. 98312",Kabupaten Manokwari,PAPUA BARAT,98312.0,Indonesia,82174980586.0,-0.9297824,134.0264328,https://maps.google.com/?cid=0x0:0x6ccc9231f12738e9
hardware store,Toko Bahan Bangunan,DepoTeguh,"43QF+MP2, Padarni, Kec. Manokwari Bar., Kabupaten Manokwari, Papua Bar. 98312","Padarni, Kec. Manokwari Bar., Kabupaten Manokwari",PAPUA BARAT,98312.0,Indonesia,,-0.8608702,134.0742546,https://maps.google.com/?cid=0x0:0xa7aa87e22e73b4ed
hardware store,hardware store,Kec. Membey,"Kab. Pegunungan Arfak, Papua Bar.","Kab. Pegunungan Arfak, Papua Bar.",PAPUA BARAT,,Indonesia,,-1.3416452,134.0336402,https://maps.google.com/?cid=0x0:0x6db50f43a0973078
hardware store,hardware store,Papua Bar. 98359,Papua Bar.,Papua Bar.,PAPUA BARAT,,Indonesia,,-1.5213839,133.7525619,https://maps.google.com/?cid=0x0:0xc8a895044b18d7c8
hardware store,hardware store,Distrik Sugurey,"Kab. Pegunungan Arfak, Papua Bar.","Kab. Pegunungan Arfak, Papua Bar.",PAPUA BARAT,,Indonesia,,-1.3909626,133.8744048,https://maps.google.com/?cid=0x0:0x76f12f3430086b8b
hardware store,Toko Bahan Bangunan,Toko Bangunan ATIGA,"5355+F7H, Jl. Angkasa Mulyono, Amban, Kec. Manokwari Bar., Kabupaten Manokwari, Papua Bar. 98312","Jl. Angkasa Mulyono, Amban, Kec. Manokwari Bar., Kabupaten Manokwari",PAPUA BARAT,98312.0,Indonesia,,-0.8413134,134.0582405,https://maps.google.com/?cid=0x0:0x6a0ea28d5492ed54
hardware store,Toko Bahan Bangunan,ELTIGA Hard Ware,"4R99+HQ9, Jl. Pendidikan, Udapi Hilir, Distrik Prafi, Kabupaten Manokwari, Papua Bar. 98356","Jl. Pendidikan, Udapi Hilir, Distrik Prafi, Kabupaten Manokwari",PAPUA BARAT,98356.0,Indonesia,986811156.0,-0.8810887,133.8194861,https://maps.google.com/?cid=0x0:0x233be94230012a5d
hardware store,hardware store,SWC TAMING JAYA,"15-G  17-G, jalan, Medan Taming Sari 3, Taman Taming Jaya, 43300 Balakong, Selangor, Malaysia",Balakong,PAPUA BARAT,43300.0,Indonesia,,3.0234612,101.7408005,https://maps.google.com/?cid=0x0:0xd18ebc8529c356c9
hardware store,Toko Bahan Bangunan,Nippon Tat Feng Hardware Trading ,"21, Jalan, Medan Taming Sari 3, Pusat Perniagaan Taming Jaya 1, 43300 Seri Kembangan, Selangor, Malaysia",Seri Kembangan,PAPUA BARAT,43300.0,Indonesia,60122231748.0,3.0234417,101.7409811,https://maps.google.com/?cid=0x0:0xa25ff8599605f3d1
hardware store,Toko Perlengkapan Rumah,Depo teguh arfai,"Jln.abraham ataruri arfai, Kabupaten Manokwari, Papua Bar. 98312",Kabupaten Manokwari,PAPUA BARAT,98312.0,Indonesia,82174980586.0,-0.9297824,134.0264328,https://maps.google.com/?cid=0x0:0x6ccc9231f12738e9
hardware store,Toko Bahan Bangunan,DepoTeguh,"43QF+MP2, Padarni, Kec. Manokwari Bar., Kabupaten Manokwari, Papua Bar. 98312","Padarni, Kec. Manokwari Bar., Kabupaten Manokwari",PAPUA BARAT,98312.0,Indonesia,,-0.8608702,134.0742546,https://maps.google.com/?cid=0x0:0xa7aa87e22e73b4ed
hardware store,hardware store,Papua Bar. 98315,"Kabupaten Manokwari, Papua Bar.","Kabupaten Manokwari, Papua Bar.",PAPUA BARAT,,Indonesia,,-1.0762009,133.4452148,https://maps.google.com/?cid=0x0:0xe20d605d60a391b5
hardware store,Toko Bahan Bangunan,ELTIGA Hard Ware,"4R99+HQ9, Jl. Pendidikan, Udapi Hilir, Distrik Prafi, Kabupaten Manokwari, Papua Bar. 98356","Jl. Pendidikan, Udapi Hilir, Distrik Prafi, Kabupaten Manokwari",PAPUA BARAT,98356.0,Indonesia,986811156.0,-0.8810887,133.8194861,https://maps.google.com/?cid=0x0:0x233be94230012a5d
hardware store,Pemasok Bahan Bangunan,Depo Makmur Manokwari,"43P2+QWR, Jl. Trikora Wosi, Wosi, Kec. Manokwari Bar., Kabupaten Manokwari, Papua Bar. 98312","Jl. Trikora Wosi, Wosi, Kec. Manokwari Bar., Kabupaten Manokwari",PAPUA BARAT,98312.0,Indonesia,81248426402.0,-0.8630402,134.0521741,https://maps.google.com/?cid=0x0:0x387befda163fc63b
hardware store,Toko Fotokopi,TOKO ANGKASA FC,"Prafi Mulia, Distrik Prafi, Kabupaten Manokwari, Papua Bar. 98352","Distrik Prafi, Kabupaten Manokwari",PAPUA BARAT,98352.0,Indonesia,81386688414.0,-0.9219137,133.8960375,https://maps.google.com/?cid=0x0:0x52d0f890f855d153
hardware store,Toko Bahan Bangunan,PAPUA BANGUNAN,"42GX+945, Wosi, Kec. Manokwari Bar., Kabupaten Manokwari, Papua Bar. 98312","Wosi, Kec. Manokwari Bar., Kabupaten Manokwari",PAPUA BARAT,98312.0,Indonesia,82198055550.0,-0.874101,134.0478473,https://maps.google.com/?cid=0x0:0x2c3683b193d9430f
hardware store,Toko Bahan Bangunan,ANEKA BANGUNAN,"Wosi, Kec. Manokwari Bar., Kabupaten Manokwari, Papua Bar. 98312","Kec. Manokwari Bar., Kabupaten Manokwari",PAPUA BARAT,98312.0,Indonesia,81344843001.0,-0.8631883,134.0498559,https://maps.google.com/?cid=0x0:0x3598159af16f30ea
hardware store,Toko Perlengkapan Rumah,ARFAI JAYA BANGUNAN,"Jalan trikora arfai salak, Anday, Distrik Manokwari, Kabupaten Manokwari, Papua Bar. 98315","Anday, Distrik Manokwari, Kabupaten Manokwari",PAPUA BARAT,98315.0,Indonesia,82174980586.0,-0.9306827,134.0172536,https://maps.google.com/?cid=0x0:0x50b3c85320438418
hardware store,Toko,MR.DIY,"Jl. Trikora Sowi No.15-17, RT.001/RW.006, Sowi, Distrik Manokwari, Kabupaten Manokwari, Papua Bar. 98313","RT.001/RW.006, Sowi, Distrik Manokwari, Kabupaten Manokwari",PAPUA BARAT,98313.0,Indonesia,,-0.907455,134.035278,https://maps.google.com/?cid=0x0:0x8283803b5fd01b68
hardware store,Toko Bahan Bangunan,Sakura Bangunan,"32PP+6RW, Jl. Trikora Taman Ria, Sowi, Distrik Manokwari, Kabupaten Manokwari, Papua Bar. 98315","Jl. Trikora Taman Ria, Sowi, Distrik Manokwari, Kabupaten Manokwari",PAPUA BARAT,98315.0,Indonesia,81241419493.0,-0.9143793,134.0370816,https://maps.google.com/?cid=0x0:0x9c791776501512b6
hardware store,Toko Bahan Bangunan,PT. Krisbow Indonesia,"Jalan Merdeka No.39, Padarni, Manokwari Barat, Manokwari Tim., Kec. Manokwari Bar., Kabupaten Manokwari, Papua Bar. 98312","Padarni, Manokwari Barat, Manokwari Tim., Kec. Manokwari Bar., Kabupaten Manokwari",PAPUA BARAT,98312.0,Indonesia,81248423250.0,-0.8616299,134.0740729,https://maps.google.com/?cid=0x0:0x10c87e4c2287d8be
hardware store,Toko Elektronik,CV. MAKARIOS,"Jl. Drs Esau Sesa Jalan Baru No.Ruko, Sowi, Distrik Manokwari, Kabupaten Manokwari, Papua Bar. 98315","Sowi, Distrik Manokwari, Kabupaten Manokwari",PAPUA BARAT,98315.0,Indonesia,813440454.0,-0.8864007,134.0460821,https://maps.google.com/?cid=0x0:0x29cec310ef1ca8c0
hardware store,Toko Perlengkapan Olahraga,EIGER Adventure Store Manokwari,"Komplek Ruko Transito, Jl. Trikora Blk. 3, Wosi, Kec. Manokwari Bar., Kabupaten Manokwari, Papua Bar. 98312","Jl. Trikora Blk. 3, Wosi, Kec. Manokwari Bar., Kabupaten Manokwari",PAPUA BARAT,98312.0,Indonesia,81120057686.0,-0.8666174,134.0462646,https://maps.google.com/?cid=0x0:0x9a97d47cd42a066c
hardware store,hardware store,Papua Bar. 98352,"Kabupaten Manokwari, Papua Bar.","Kabupaten Manokwari, Papua Bar.",PAPUA BARAT,,Indonesia,,-1.0122519,133.9055155,https://maps.google.com/?cid=0x0:0x665ab61075e0d624
hardware store,Toko Perlengkapan Rumah,Depo teguh arfai,"Jln.abraham ataruri arfai, Kabupaten Manokwari, Papua Bar. 98312",Kabupaten Manokwari,PAPUA BARAT,98312.0,Indonesia,82174980586.0,-0.9297824,134.0264328,https://maps.google.com/?cid=0x0:0x6ccc9231f12738e9
hardware store,Toko Fotokopi,TOKO ANGKASA FC,"Prafi Mulia, Distrik Prafi, Kabupaten Manokwari, Papua Bar. 98352","Distrik Prafi, Kabupaten Manokwari",PAPUA BARAT,98352.0,Indonesia,81386688414.0,-0.9219137,133.8960375,https://maps.google.com/?cid=0x0:0x52d0f890f855d153
hardware store,Toko Bahan Bangunan,Fajar Bangunan,"Sowi, Distrik Manokwari, Kabupaten Manokwari, Papua Bar. 98315","Distrik Manokwari, Kabupaten Manokwari",PAPUA BARAT,98315.0,Indonesia,,-0.9062643,134.0359839,https://maps.google.com/?cid=0x0:0x9d0563299ba4e3f6
hardware store,Toko Bahan Bangunan,ELTIGA Hard Ware,"4R99+HQ9, Jl. Pendidikan, Udapi Hilir, Distrik Prafi, Kabupaten Manokwari, Papua Bar. 98356","Jl. Pendidikan, Udapi Hilir, Distrik Prafi, Kabupaten Manokwari",PAPUA BARAT,98356.0,Indonesia,986811156.0,-0.8810887,133.8194861,https://maps.google.com/?cid=0x0:0x233be94230012a5d
hardware store,Toko Perlengkapan Rumah,ARFAI JAYA BANGUNAN,"Jalan trikora arfai salak, Anday, Distrik Manokwari, Kabupaten Manokwari, Papua Bar. 98315","Anday, Distrik Manokwari, Kabupaten Manokwari",PAPUA BARAT,98315.0,Indonesia,82174980586.0,-0.9306827,134.0172536,https://maps.google.com/?cid=0x0:0x50b3c85320438418
hardware store,Toko Bahan Bangunan,Toko mentari,"4R74+WP, Waseki Indah, Distrik Prafi, Kabupaten Manokwari, Papua Bar.","Kabupaten Manokwari, Papua Bar.",PAPUA BARAT,,Indonesia,,-0.8853016,133.8068212,https://maps.google.com/?cid=0x0:0xdc35c757e123f91e
hardware store,Toko Bahan Bangunan,Toko Bangunan ATIGA,"5355+F7H, Jl. Angkasa Mulyono, Amban, Kec. Manokwari Bar., Kabupaten Manokwari, Papua Bar. 98312","Jl. Angkasa Mulyono, Amban, Kec. Manokwari Bar., Kabupaten Manokwari",PAPUA BARAT,98312.0,Indonesia,,-0.8413134,134.0582405,https://maps.google.com/?cid=0x0:0x6a0ea28d5492ed54
hardware store,Toko Bahan Bangunan,ELTIGA Hard Ware,"4R99+HQ9, Jl. Pendidikan, Udapi Hilir, Distrik Prafi, Kabupaten Manokwari, Papua Bar. 98356","Jl. Pendidikan, Udapi Hilir, Distrik Prafi, Kabupaten Manokwari",PAPUA BARAT,98356.0,Indonesia,986811156.0,-0.8810887,133.8194861,https://maps.google.com/?cid=0x0:0x233be94230012a5d
hardware store,Toko Bahan Bangunan,DepoTeguh,"43QF+MP2, Padarni, Kec. Manokwari Bar., Kabupaten Manokwari, Papua Bar. 98312","Padarni, Kec. Manokwari Bar., Kabupaten Manokwari",PAPUA BARAT,98312.0,Indonesia,,-0.8608702,134.0742546,https://maps.google.com/?cid=0x0:0xa7aa87e22e73b4ed
hardware store,hardware store,Papua Bar. 98357,"Kabupaten Manokwari, Papua Bar.","Kabupaten Manokwari, Papua Bar.",PAPUA BARAT,,Indonesia,,-0.8227418,133.5606946,https://maps.google.com/?cid=0x0:0x3e375139d962692c
hardware store,Toko Bahan Bangunan,Toko mentari,"4R74+WP, Waseki Indah, Distrik Prafi, Kabupaten Manokwari, Papua Bar.","Kabupaten Manokwari, Papua Bar.",PAPUA BARAT,,Indonesia,,-0.8853016,133.8068212,https://maps.google.com/?cid=0x0:0xdc35c757e123f91e
hardware store,Toko Perlengkapan Rumah,Depo teguh arfai,"Jln.abraham ataruri arfai, Kabupaten Manokwari, Papua Bar. 98312",Kabupaten Manokwari,PAPUA BARAT,98312.0,Indonesia,82174980586.0,-0.9297824,134.0264328,https://maps.google.com/?cid=0x0:0x6ccc9231f12738e9
supermarket bangunan,Pemasok Bahan Bangunan,Depo Makmur Manokwari,"43P2+QWR, Jl. Trikora Wosi, Wosi, Kec. Manokwari Bar., Kabupaten Manokwari, Papua Bar. 98312","Jl. Trikora Wosi, Wosi, Kec. Manokwari Bar., Kabupaten Manokwari",PAPUA BARAT,98312.0,Indonesia,81248426402.0,-0.8630402,134.0521741,https://maps.google.com/?cid=0x0:0x387befda163fc63b
supermarket bangunan,supermarket bangunan,Distrik Anggi,"Kab. Pegunungan Arfak, Papua Bar.","Kab. Pegunungan Arfak, Papua Bar.",PAPUA BARAT,,Indonesia,,-1.3260424,133.9158721,https://maps.google.com/?cid=0x0:0xfcf8f2554dc74d7d
supermarket bangunan,Toko Bahan Bangunan,Toko Bangunan ATIGA,"5355+F7H, Jl. Angkasa Mulyono, Amban, Kec. Manokwari Bar., Kabupaten Manokwari, Papua Bar. 98312","Jl. Angkasa Mulyono, Amban, Kec. Manokwari Bar., Kabupaten Manokwari",PAPUA BARAT,98312.0,Indonesia,,-0.8413134,134.0582405,https://maps.google.com/?cid=0x0:0x6a0ea28d5492ed54
supermarket bangunan,Toko Bahan Bangunan,ANEKA BANGUNAN,"Wosi, Kec. Manokwari Bar., Kabupaten Manokwari, Papua Bar. 98312","Kec. Manokwari Bar., Kabupaten Manokwari",PAPUA BARAT,98312.0,Indonesia,81344843001.0,-0.8631883,134.0498559,https://maps.google.com/?cid=0x0:0x3598159af16f30ea
supermarket bangunan,Toko Bahan Bangunan,Toko Bangunan FIRMAN,"Jl. Trikora Wosi No.168, Wosi, Kec. Manokwari Bar., Kabupaten Manokwari, Papua Bar. 98312","Wosi, Kec. Manokwari Bar., Kabupaten Manokwari",PAPUA BARAT,98312.0,Indonesia,8114118555.0,-0.8672239,134.0562233,https://maps.google.com/?cid=0x0:0xad10e51218925944
supermarket bangunan,Toko Bahan Bangunan,Supermarket Multi Bangunan,"Jl Baru No.98, Wai Mhorock, Abepura, Jayapura City, Papua 99225","Wai Mhorock, Abepura, Jayapura City",PAPUA BARAT,99225.0,Indonesia,967588677.0,-2.6077336,140.6742812,https://maps.google.com/?cid=0x0:0x3b19f301c68f1d6f
supermarket bangunan,Toko Bahan Bangunan,Toko Bangunan,"Jl. Trikora Taman Ria No.4, Sowi, Distrik Manokwari, Kabupaten Manokwari, Papua Bar. 98315","Sowi, Distrik Manokwari, Kabupaten Manokwari",PAPUA BARAT,98315.0,Indonesia,,-0.906996,134.035784,https://maps.google.com/?cid=0x0:0xe97020a60705142f
supermarket bangunan,Toko Bahan Bangunan,Toko Bangunan Saudara,"Jl. Pasir, pantai, Wosi, Kec. Manokwari Bar., Kabupaten Manokwari, Papua Bar. 98312","pantai, Wosi, Kec. Manokwari Bar., Kabupaten Manokwari",PAPUA BARAT,98312.0,Indonesia,81219608601.0,-0.8691435,134.0499159,https://maps.google.com/?cid=0x0:0xd3c286debc960345
supermarket bangunan,Toko Bahan Bangunan,Toko Bangunan,"Jl. Gn. Salju No.70, Amban, Kec. Manokwari Bar., Kabupaten Manokwari, Papua Bar. 98314","Amban, Kec. Manokwari Bar., Kabupaten Manokwari",PAPUA BARAT,98314.0,Indonesia,,-0.8378489,134.0648609,https://maps.google.com/?cid=0x0:0x39e90745f521cce
supermarket bangunan,Toko Bahan Bangunan,Toko bangunan Cahaya Indah,"43H6+JCC, Jl. Trikora Wosi, Sanggeng, Kec. Manokwari Bar., Kabupaten Manokwari, Papua Bar. 98312","Jl. Trikora Wosi, Sanggeng, Kec. Manokwari Bar., Kabupaten Manokwari",PAPUA BARAT,98312.0,Indonesia,81248361373.0,-0.8709308,134.0610281,https://maps.google.com/?cid=0x0:0x7dfb05fd51f1167b
supermarket bangunan,Toko Bahan Bangunan,Toko Bangunan Ria-Utama,"Unnamed Road, Malaingkedi, Papua Bar. 98412, Malaingkedi, Kecamatan Sorong Manoi, Kota Sorong, Papua Bar. 98412","Malaingkedi, Papua Bar.",PAPUA BARAT,98412.0,Indonesia,82199656081.0,-0.8774608,131.2993409,https://maps.google.com/?cid=0x0:0x6fa2bf791344f50d
supermarket bangunan,Toko Bahan Bangunan,Toko Central Bangunan,"42JW+2CG, Wosi, Kec. Manokwari Bar., Kabupaten Manokwari, Papua Bar. 98312","Wosi, Kec. Manokwari Bar., Kabupaten Manokwari",PAPUA BARAT,98312.0,Indonesia,,-0.8696454,134.0463667,https://maps.google.com/?cid=0x0:0x7ec708d770758168
supermarket bangunan,Toko Bahan Bangunan,Supermarket Bahan Bangunan Tirta Bangunan,"Jl. Raya Babakan Madang, Sentul, Kec. Babakan Madang, Kabupaten Bogor, Jawa Barat 16810","Sentul, Kec. Babakan Madang, Kabupaten Bogor",PAPUA BARAT,16810.0,Indonesia,8881300271.0,-6.5601203,106.8537161,https://maps.google.com/?cid=0x0:0xc9e77a7f8f9d2f66
supermarket bangunan,Toko Bahan Bangunan,Toko Bahan Bangunan Aneka Maju,"Blok i14 8, Jl. Pd. Kelapa Raya No.8, RT.7/RW.9, Pd. Klp., Kec. Duren Sawit, Kota Jakarta Timur, Daerah Khusus Ibukota Jakarta 13450","Jl. Pd. Kelapa Raya No.8, RT.7/RW.9, Pd. Klp., Kec. Duren Sawit, Kota Jakarta Timur",PAPUA BARAT,13450.0,Indonesia,218651606.0,-6.2366944,106.9342234,https://maps.google.com/?cid=0x0:0xc1d06a35075c2497
supermarket bangunan,supermarket bangunan,Kec. Anggi Gida,"Kab. Pegunungan Arfak, Papua Bar.","Kab. Pegunungan Arfak, Papua Bar.",PAPUA BARAT,,Indonesia,,-1.3668114,133.9609514,https://maps.google.com/?cid=0x0:0xb4bc71d5f83c5185
supermarket bangunan,supermarket bangunan,Danau Anggi Gida,"Kab. Pegunungan Arfak, Papua Bar.","Kab. Pegunungan Arfak, Papua Bar.",PAPUA BARAT,,Indonesia,,-1.3963314,133.9532149,https://maps.google.com/?cid=0x0:0xd222eb659585412a
supermarket bangunan,Toko Bahan Bangunan,Supermarket Multi Bangunan,"Jl Baru No.98, Wai Mhorock, Abepura, Jayapura City, Papua 99225","Wai Mhorock, Abepura, Jayapura City",PAPUA BARAT,99225.0,Indonesia,967588677.0,-2.6077336,140.6742812,https://maps.google.com/?cid=0x0:0x3b19f301c68f1d6f
supermarket bangunan,supermarket bangunan,Papua Bar. 98358,"Kabupaten Manokwari, Papua Bar.","Kabupaten Manokwari, Papua Bar.",PAPUA BARAT,,Indonesia,,-1.0707188,133.7525619,https://maps.google.com/?cid=0x0:0x566a5a268f3890ee
supermarket bangunan,Toko Elektronik,Toko Bangunan Sumber Baru,"SP3, Aimasi, Jl. Poros, Distrik Prafi, Kabupaten Manokwari, Papua Bar. 98356","Aimasi, Jl. Poros, Distrik Prafi, Kabupaten Manokwari",PAPUA BARAT,98356.0,Indonesia,81234807007.0,-0.883667,133.820223,https://maps.google.com/?cid=0x0:0x7475be84d164c6b6
supermarket bangunan,Toko Bahan Bangunan,Depo Bangunan Mbanyu Mili,"3VQM+2GP depan balai kampung sp 2, Prafi Mulia, Distrik Prafi, Kabupaten Manokwari, Papua Bar. 98356","Prafi Mulia, Distrik Prafi, Kabupaten Manokwari",PAPUA BARAT,98356.0,Indonesia,85254126242.0,-0.9124191,133.8838245,https://maps.google.com/?cid=0x0:0x72bb281db456c91a
supermarket bangunan,Toko Bahan Bangunan,Supermarket Multi Bangunan,"Jl Baru No.98, Wai Mhorock, Abepura, Jayapura City, Papua 99225","Wai Mhorock, Abepura, Jayapura City",PAPUA BARAT,99225.0,Indonesia,967588677.0,-2.6077336,140.6742812,https://maps.google.com/?cid=0x0:0x3b19f301c68f1d6f
supermarket bangunan,Toko Bahan Bangunan,Toko Rahayu Babo,"FF52+F2R, Unnamed Road, Nusei, Babo, Kabupaten Teluk Bintuni, Papua Bar. 98363","Unnamed Road, Nusei, Babo, Kabupaten Teluk Bintuni",PAPUA BARAT,98363.0,Indonesia,85244200777.0,-2.5412733,133.45003,https://maps.google.com/?cid=0x0:0x2d6ca9cad594f391
supermarket bangunan,Toserba,TOKO MAJU MAKMUR,"4R8F+95V, Udapi Hilir, Distrik Prafi, Kabupaten Manokwari, Papua Bar. 98356","Udapi Hilir, Distrik Prafi, Kabupaten Manokwari",PAPUA BARAT,98356.0,Indonesia,,-0.884108,133.8229369,https://maps.google.com/?cid=0x0:0x5dd0e3c69ab93bdc
supermarket bangunan,Toko Perlengkapan Rumah,Toko Bangunan URI,"Q93M+R2X, Uri, Kec. Waropen Bawah, Kabupaten Waropen, Papua 98261","Uri, Kec. Waropen Bawah, Kabupaten Waropen",PAPUA BARAT,98261.0,Indonesia,,-2.24502,136.382778,https://maps.google.com/?cid=0x0:0xedc722ce6d2e6662
supermarket bangunan,Toko Bahan Bangunan,Toko Bangunan Ria-Utama,"Unnamed Road, Malaingkedi, Papua Bar. 98412, Malaingkedi, Kecamatan Sorong Manoi, Kota Sorong, Papua Bar. 98412","Malaingkedi, Papua Bar.",PAPUA BARAT,98412.0,Indonesia,82199656081.0,-0.8774608,131.2993409,https://maps.google.com/?cid=0x0:0x6fa2bf791344f50d
supermarket bangunan,Toko Bahan Bangunan,Toko Bangunan USAHA JAYA,"Jln Raya Tanah Hitam, Asano, Abepura, Jayapura City, Papua 93351","Asano, Abepura, Jayapura City",PAPUA BARAT,93351.0,Indonesia,811482182.0,-2.6176324,140.683841,https://maps.google.com/?cid=0x0:0xb6995fd87d51be7
supermarket bangunan,Toko Bahan Bangunan,Toko mentari,"4R74+WP, Waseki Indah, Distrik Prafi, Kabupaten Manokwari, Papua Bar.","Kabupaten Manokwari, Papua Bar.",PAPUA BARAT,,Indonesia,,-0.8853016,133.8068212,https://maps.google.com/?cid=0x0:0xdc35c757e123f91e
supermarket bangunan,Toko Swalayan,Toko Depo Bangunan,"379V+Q4W, Fak Fak Selatan, Distrik Fakfak, Kabupaten Fakfak, Papua Bar. 98611","Fak Fak Selatan, Distrik Fakfak, Kabupaten Fakfak",PAPUA BARAT,98611.0,Indonesia,81332930235.0,-2.9305033,132.292834,https://maps.google.com/?cid=0x0:0x8845a3bfe8af225c
supermarket bangunan,Toko Bahan Bangunan,Toko Bangunan Mamta Jaya,"Entrop, Distrik Jayapura Selatan, Kota Jayapura, Papua 99221","Distrik Jayapura Selatan, Kota Jayapura",PAPUA BARAT,99221.0,Indonesia,85198498008.0,-2.5674278,140.6991484,https://maps.google.com/?cid=0x0:0x2e3a73f71cf583d9
supermarket bangunan,Toko Bahan Bangunan,Gudang Toko Depo Bangunan,"37FJ+7G5, Jl. Fakfak - Torea, Tanama, Distrik Fakfak, Kabupaten Fakfak, Papua Bar. 98614","Jl. Fakfak - Torea, Tanama, Distrik Fakfak, Kabupaten Fakfak",PAPUA BARAT,98614.0,Indonesia,,-2.9268666,132.2813702,https://maps.google.com/?cid=0x0:0x605ba6cbab94e804
supermarket bangunan,Toko Bahan Bangunan,TOKO BANGUNAN,"38G3+5PF, Fak Fak Utara, Distrik Fakfak, Kabupaten Fakfak, Papua Bar. 98651","Fak Fak Utara, Distrik Fakfak, Kabupaten Fakfak",PAPUA BARAT,98651.0,Indonesia,83121529512.0,-2.9245593,132.3042975,https://maps.google.com/?cid=0x0:0x3e3de1be5a573a7
supermarket bangunan,supermarket bangunan,Papua Bar. 98359,Papua Bar.,Papua Bar.,PAPUA BARAT,,Indonesia,,-1.5213839,133.7525619,https://maps.google.com/?cid=0x0:0xc8a895044b18d7c8
supermarket bangunan,Toko Bahan Bangunan,Supermarket Multi Bangunan,"Jl Baru No.98, Wai Mhorock, Abepura, Jayapura City, Papua 99225","Wai Mhorock, Abepura, Jayapura City",PAPUA BARAT,99225.0,Indonesia,967588677.0,-2.6077336,140.6742812,https://maps.google.com/?cid=0x0:0x3b19f301c68f1d6f
supermarket bangunan,Pemasok Bahan Bangunan,Depo Makmur Manokwari,"43P2+QWR, Jl. Trikora Wosi, Wosi, Kec. Manokwari Bar., Kabupaten Manokwari, Papua Bar. 98312","Jl. Trikora Wosi, Wosi, Kec. Manokwari Bar., Kabupaten Manokwari",PAPUA BARAT,98312.0,Indonesia,81248426402.0,-0.8630402,134.0521741,https://maps.google.com/?cid=0x0:0x387befda163fc63b
supermarket bangunan,Toko Bahan Bangunan,Toko Bangunan Depo Makmur,"38XF+C65, Jl. Basuki Rahmat, Klawuyuk, Distrik Sorong Timur, Kota Sorong, Papua Bar. 98416","Jl. Basuki Rahmat, Klawuyuk, Distrik Sorong Timur, Kota Sorong",PAPUA BARAT,98416.0,Indonesia,,-0.9013289,131.3229895,https://maps.google.com/?cid=0x0:0x371e6c734b67edcc
supermarket bangunan,Toko Bahan Bangunan,Toko Duta Bangunan,"Jalan Sempan Nawaripi, Inauga, Kec. Mimika Baru, Kabupaten Mimika, Papua 99971","Inauga, Kec. Mimika Baru, Kabupaten Mimika",PAPUA BARAT,99971.0,Indonesia,,-4.573777,136.883006,https://maps.google.com/?cid=0x0:0xcf9557e74c78736d
supermarket bangunan,Toko Bahan Bangunan,Toko Bangunan Ria-Utama,"Unnamed Road, Malaingkedi, Papua Bar. 98412, Malaingkedi, Kecamatan Sorong Manoi, Kota Sorong, Papua Bar. 98412","Malaingkedi, Papua Bar.",PAPUA BARAT,98412.0,Indonesia,82199656081.0,-0.8774608,131.2993409,https://maps.google.com/?cid=0x0:0x6fa2bf791344f50d
supermarket bangunan,Toko Perlengkapan Rumah,Toko Bangunan URI,"Q93M+R2X, Uri, Kec. Waropen Bawah, Kabupaten Waropen, Papua 98261","Uri, Kec. Waropen Bawah, Kabupaten Waropen",PAPUA BARAT,98261.0,Indonesia,,-2.24502,136.382778,https://maps.google.com/?cid=0x0:0xedc722ce6d2e6662
supermarket bangunan,Toko Bahan Bangunan,Gudang Toko Depo Bangunan,"37FJ+7G5, Jl. Fakfak - Torea, Tanama, Distrik Fakfak, Kabupaten Fakfak, Papua Bar. 98614","Jl. Fakfak - Torea, Tanama, Distrik Fakfak, Kabupaten Fakfak",PAPUA BARAT,98614.0,Indonesia,,-2.9268666,132.2813702,https://maps.google.com/?cid=0x0:0x605ba6cbab94e804
supermarket bangunan,Toko Swalayan,Toko Depo Bangunan,"379V+Q4W, Fak Fak Selatan, Distrik Fakfak, Kabupaten Fakfak, Papua Bar. 98611","Fak Fak Selatan, Distrik Fakfak, Kabupaten Fakfak",PAPUA BARAT,98611.0,Indonesia,81332930235.0,-2.9305033,132.292834,https://maps.google.com/?cid=0x0:0x8845a3bfe8af225c
supermarket bangunan,Toko Bahan Bangunan,TOKO BANGUNAN,"38G3+5PF, Fak Fak Utara, Distrik Fakfak, Kabupaten Fakfak, Papua Bar. 98651","Fak Fak Utara, Distrik Fakfak, Kabupaten Fakfak",PAPUA BARAT,98651.0,Indonesia,83121529512.0,-2.9245593,132.3042975,https://maps.google.com/?cid=0x0:0x3e3de1be5a573a7
supermarket bangunan,supermarket bangunan,Hingk,"Kab. Pegunungan Arfak, Papua Bar.","Kab. Pegunungan Arfak, Papua Bar.",PAPUA BARAT,,Indonesia,,-1.2205844,133.9627492,https://maps.google.com/?cid=0x0:0x3f01e43bc4522fcd
supermarket bangunan,Toko Bahan Bangunan,DepoTeguh,"43QF+MP2, Padarni, Kec. Manokwari Bar., Kabupaten Manokwari, Papua Bar. 98312","Padarni, Kec. Manokwari Bar., Kabupaten Manokwari",PAPUA BARAT,98312.0,Indonesia,,-0.8608702,134.0742546,https://maps.google.com/?cid=0x0:0xa7aa87e22e73b4ed
supermarket bangunan,Toko Bahan Bangunan,Toko Sumber Makmur,"42GX+258, Wosi, Kec. Manokwari Bar., Kabupaten Manokwari, Papua Bar. 98312","Wosi, Kec. Manokwari Bar., Kabupaten Manokwari",PAPUA BARAT,98312.0,Indonesia,8124825561.0,-0.8749549,134.0479559,https://maps.google.com/?cid=0x0:0x533cede6c4b2437d
supermarket bangunan,Pemasok Bahan Bangunan,Toko bangunan Sumber Makmur,"32CM+75G, Jl. Manokwari - Maruni, Anday, Distrik Manokwari, Kabupaten Manokwari, Papua Bar. 98315","Jl. Manokwari - Maruni, Anday, Distrik Manokwari, Kabupaten Manokwari",PAPUA BARAT,98315.0,Indonesia,8114846060.0,-0.9293075,134.0329487,https://maps.google.com/?cid=0x0:0xa0a85c7270dde255
supermarket bangunan,Toko Bahan Bangunan,Fajar Bangunan,"Sowi, Distrik Manokwari, Kabupaten Manokwari, Papua Bar. 98315","Distrik Manokwari, Kabupaten Manokwari",PAPUA BARAT,98315.0,Indonesia,,-0.9062643,134.0359839,https://maps.google.com/?cid=0x0:0x9d0563299ba4e3f6
supermarket bangunan,Pemasok Bahan Bangunan,Depo Makmur Manokwari,"43P2+QWR, Jl. Trikora Wosi, Wosi, Kec. Manokwari Bar., Kabupaten Manokwari, Papua Bar. 98312","Jl. Trikora Wosi, Wosi, Kec. Manokwari Bar., Kabupaten Manokwari",PAPUA BARAT,98312.0,Indonesia,81248426402.0,-0.8630402,134.0521741,https://maps.google.com/?cid=0x0:0x387befda163fc63b
supermarket bangunan,Toko Elektronik,Toko Bangunan Sumber Baru,"SP3, Aimasi, Jl. Poros, Distrik Prafi, Kabupaten Manokwari, Papua Bar. 98356","Aimasi, Jl. Poros, Distrik Prafi, Kabupaten Manokwari",PAPUA BARAT,98356.0,Indonesia,81234807007.0,-0.883667,133.820223,https://maps.google.com/?cid=0x0:0x7475be84d164c6b6
supermarket bangunan,Toko Perlengkapan Rumah,Depo teguh arfai,"Jln.abraham ataruri arfai, Kabupaten Manokwari, Papua Bar. 98312",Kabupaten Manokwari,PAPUA BARAT,98312.0,Indonesia,82174980586.0,-0.9297824,134.0264328,https://maps.google.com/?cid=0x0:0x6ccc9231f12738e9
supermarket bangunan,Toko Bahan Bangunan,PAPUA BANGUNAN,"42GX+945, Wosi, Kec. Manokwari Bar., Kabupaten Manokwari, Papua Bar. 98312","Wosi, Kec. Manokwari Bar., Kabupaten Manokwari",PAPUA BARAT,98312.0,Indonesia,82198055550.0,-0.874101,134.0478473,https://maps.google.com/?cid=0x0:0x2c3683b193d9430f
supermarket bangunan,Toko Bahan Bangunan,Toko Bangunan Kencana Jaya,"sp 3, jalur 9, Aimasi, Waseki Indah, Distrik Prafi, Kabupaten Manokwari, Papua Bar. 98356","jalur 9, Aimasi, Waseki Indah, Distrik Prafi, Kabupaten Manokwari",PAPUA BARAT,98356.0,Indonesia,81390965850.0,-0.8809697,133.8052293,https://maps.google.com/?cid=0x0:0x372086303669e4f6
supermarket bangunan,Toko Bahan Bangunan,Toko Bangunan,"Jl. Trikora Taman Ria No.4, Sowi, Distrik Manokwari, Kabupaten Manokwari, Papua Bar. 98315","Sowi, Distrik Manokwari, Kabupaten Manokwari",PAPUA BARAT,98315.0,Indonesia,,-0.906996,134.035784,https://maps.google.com/?cid=0x0:0xe97020a60705142f
supermarket bangunan,supermarket bangunan,Sumber rejeki bangunan,"3XMX+V9Q, Warmumi, Distrik Manokwari, Kabupaten Manokwari, Papua Bar. 98315","Warmumi, Distrik Manokwari, Kabupaten Manokwari",PAPUA BARAT,98315.0,Indonesia,,-0.9152789,133.9984859,https://maps.google.com/?cid=0x0:0xa40b98ec94e615a3
supermarket bangunan,Toko Bahan Bangunan,Toko Bangunan,"Jl. Gn. Salju No.70, Amban, Kec. Manokwari Bar., Kabupaten Manokwari, Papua Bar. 98314","Amban, Kec. Manokwari Bar., Kabupaten Manokwari",PAPUA BARAT,98314.0,Indonesia,,-0.8378489,134.0648609,https://maps.google.com/?cid=0x0:0x39e90745f521cce
supermarket bangunan,Toko Bahan Bangunan,toko bangunan,"329G+VJ9, jln trikora arfai logpond, Anday, Kabupaten Manokwari","Kabupaten Manokwari, Papua Bar.",PAPUA BARAT,,Indonesia,,-0.9303319,134.0266147,https://maps.google.com/?cid=0x0:0x7ae5f49d1c059992
supermarket bangunan,Toko Bahan Bangunan,Supermarket Multi Bangunan,"Jl Baru No.98, Wai Mhorock, Abepura, Jayapura City, Papua 99225","Wai Mhorock, Abepura, Jayapura City",PAPUA BARAT,99225.0,Indonesia,967588677.0,-2.6077336,140.6742812,https://maps.google.com/?cid=0x0:0x3b19f301c68f1d6f
supermarket bangunan,supermarket bangunan,Kec. Membey,"Kab. Pegunungan Arfak, Papua Bar.","Kab. Pegunungan Arfak, Papua Bar.",PAPUA BARAT,,Indonesia,,-1.3416452,134.0336402,https://maps.google.com/?cid=0x0:0x6db50f43a0973078
supermarket bangunan,Toko Bahan Bangunan,Toko Multi Bangunan,"Q97H+9V2, Sarafambai, Kec. Waropen Bawah, Kabupaten Waropen, Papua 98261","Sarafambai, Kec. Waropen Bawah, Kabupaten Waropen",PAPUA BARAT,98261.0,Indonesia,,-2.2366153,136.3796343,https://maps.google.com/?cid=0x0:0x8fe10ca526096f47
supermarket bangunan,Toko Bahan Bangunan,Toko Bangunan USAHA JAYA,"Jln Raya Tanah Hitam, Asano, Abepura, Jayapura City, Papua 93351","Asano, Abepura, Jayapura City",PAPUA BARAT,93351.0,Indonesia,811482182.0,-2.6176324,140.683841,https://maps.google.com/?cid=0x0:0xb6995fd87d51be7
supermarket bangunan,Toko Bahan Bangunan,Toko Bangunan Mamta Jaya,"Entrop, Distrik Jayapura Selatan, Kota Jayapura, Papua 99221","Distrik Jayapura Selatan, Kota Jayapura",PAPUA BARAT,99221.0,Indonesia,85198498008.0,-2.5674278,140.6991484,https://maps.google.com/?cid=0x0:0x2e3a73f71cf583d9
supermarket bangunan,Toko Bahan Bangunan,Toko Rahayu Babo,"FF52+F2R, Unnamed Road, Nusei, Babo, Kabupaten Teluk Bintuni, Papua Bar. 98363","Unnamed Road, Nusei, Babo, Kabupaten Teluk Bintuni",PAPUA BARAT,98363.0,Indonesia,85244200777.0,-2.5412733,133.45003,https://maps.google.com/?cid=0x0:0x2d6ca9cad594f391
supermarket bangunan,Toko Bahan Bangunan,Toko Karya Abadi,"WJ4X+24P, Tuasai, Distrik Bintuni, Kabupaten Teluk Bintuni, Papua Bar. 98364","Tuasai, Distrik Bintuni, Kabupaten Teluk Bintuni",PAPUA BARAT,98364.0,Indonesia,82244443838.0,-2.094909,133.6478193,https://maps.google.com/?cid=0x0:0x860a78b44fea4433
supermarket bangunan,Toko Perlengkapan Rumah,Toko Bangunan URI,"Q93M+R2X, Uri, Kec. Waropen Bawah, Kabupaten Waropen, Papua 98261","Uri, Kec. Waropen Bawah, Kabupaten Waropen",PAPUA BARAT,98261.0,Indonesia,,-2.24502,136.382778,https://maps.google.com/?cid=0x0:0xedc722ce6d2e6662
supermarket bangunan,Toko Bahan Bangunan,DEPO BANGUNAN SINAR MATAHARI,"379X+243, Jl. Fakfak - Torea, Wagom Sel., Distrik Fakfak, Kabupaten Fakfak, Papua Bar. 98651","Jl. Fakfak - Torea, Wagom Sel., Distrik Fakfak, Kabupaten Fakfak",PAPUA BARAT,98651.0,Indonesia,81232387999.0,-2.9324935,132.2978043,https://maps.google.com/?cid=0x0:0x35e53a9d40e95e48
supermarket bangunan,Toko Perlengkapan Rumah,Toko bangunan imam Maliki,"M67F+XF2, Jl. Manokwari - Bintuni, Margomulyo, Kec. Oransbari, Kab. Manokwari Selatan, Papua Bar. 98353","Jl. Manokwari - Bintuni, Margomulyo, Kec. Oransbari, Kab. Manokwari Selatan",PAPUA BARAT,98353.0,Indonesia,,-1.335116,134.2236557,https://maps.google.com/?cid=0x0:0x8146ca56ddd49935
supermarket bangunan,Toko Bahan Bangunan,Tokoh bagunan fajriani h.m,"WJ3W+GJ5, Tuasai, Distrik Bintuni, Kabupaten Teluk Bintuni, Papua Bar. 98364","Tuasai, Distrik Bintuni, Kabupaten Teluk Bintuni",PAPUA BARAT,98364.0,Indonesia,,-2.0953093,133.6466562,https://maps.google.com/?cid=0x0:0x107c1e110f767af6
supermarket bangunan,Toko Bahan Bangunan,Toko Bangunan,"Jl. Gn. Salju No.70, Amban, Kec. Manokwari Bar., Kabupaten Manokwari, Papua Bar. 98314","Amban, Kec. Manokwari Bar., Kabupaten Manokwari",PAPUA BARAT,98314.0,Indonesia,,-0.8378489,134.0648609,https://maps.google.com/?cid=0x0:0x39e90745f521cce
supermarket bangunan,Toko Bahan Bangunan,Tirta Bangunan Supermarket,"Jl. Siliwangi No.1, Depok, Kec. Pancoran Mas, Kota Depok, Jawa Barat 16431","Depok, Kec. Pancoran Mas, Kota Depok",PAPUA BARAT,16431.0,Indonesia,2177211585.0,-6.3994435,106.820465,https://maps.google.com/?cid=0x0:0x6c5691b15a29e9f8
supermarket bangunan,Toko Bahan Bangunan,Tirta Bangunan Supermarket,"Jl. Raya Sawangan No.88, Pancoran MAS, Kec. Pancoran Mas, Kota Depok, Jawa Barat 16436","Pancoran MAS, Kec. Pancoran Mas, Kota Depok",PAPUA BARAT,16436.0,Indonesia,2177216007.0,-6.3956644,106.8033311,https://maps.google.com/?cid=0x0:0xb2a503adeb35329d
supermarket bangunan,supermarket bangunan,Papua Bar. 98359,Papua Bar.,Papua Bar.,PAPUA BARAT,,Indonesia,,-1.5213839,133.7525619,https://maps.google.com/?cid=0x0:0xc8a895044b18d7c8
supermarket bangunan,Toko Bahan Bangunan,Supermarket Multi Bangunan,"Jl Baru No.98, Wai Mhorock, Abepura, Jayapura City, Papua 99225","Wai Mhorock, Abepura, Jayapura City",PAPUA BARAT,99225.0,Indonesia,967588677.0,-2.6077336,140.6742812,https://maps.google.com/?cid=0x0:0x3b19f301c68f1d6f
supermarket bangunan,Pemasok Bahan Bangunan,Depo Makmur Manokwari,"43P2+QWR, Jl. Trikora Wosi, Wosi, Kec. Manokwari Bar., Kabupaten Manokwari, Papua Bar. 98312","Jl. Trikora Wosi, Wosi, Kec. Manokwari Bar., Kabupaten Manokwari",PAPUA BARAT,98312.0,Indonesia,81248426402.0,-0.8630402,134.0521741,https://maps.google.com/?cid=0x0:0x387befda163fc63b
supermarket bangunan,Toko Bahan Bangunan,Toko Bangunan Ria-Utama,"Unnamed Road, Malaingkedi, Papua Bar. 98412, Malaingkedi, Kecamatan Sorong Manoi, Kota Sorong, Papua Bar. 98412","Malaingkedi, Papua Bar.",PAPUA BARAT,98412.0,Indonesia,82199656081.0,-0.8774608,131.2993409,https://maps.google.com/?cid=0x0:0x6fa2bf791344f50d
supermarket bangunan,Toko Bahan Bangunan,DepoTeguh,"43QF+MP2, Padarni, Kec. Manokwari Bar., Kabupaten Manokwari, Papua Bar. 98312","Padarni, Kec. Manokwari Bar., Kabupaten Manokwari",PAPUA BARAT,98312.0,Indonesia,,-0.8608702,134.0742546,https://maps.google.com/?cid=0x0:0xa7aa87e22e73b4ed
supermarket bangunan,Toko Bahan Bangunan,Supermarket Multi Bangunan,"Jl Baru No.98, Wai Mhorock, Abepura, Jayapura City, Papua 99225","Wai Mhorock, Abepura, Jayapura City",PAPUA BARAT,99225.0,Indonesia,967588677.0,-2.6077336,140.6742812,https://maps.google.com/?cid=0x0:0x3b19f301c68f1d6f
supermarket bangunan,Toko Bahan Bangunan,Tokoh bagunan fajriani h.m,"WJ3W+GJ5, Tuasai, Distrik Bintuni, Kabupaten Teluk Bintuni, Papua Bar. 98364","Tuasai, Distrik Bintuni, Kabupaten Teluk Bintuni",PAPUA BARAT,98364.0,Indonesia,,-2.0953093,133.6466562,https://maps.google.com/?cid=0x0:0x107c1e110f767af6
supermarket bangunan,Toko Bahan Bangunan,Padma Bangunan,"Wai Mhorock, Kec. Abepura, Kota Jayapura, Papua 99225","Kec. Abepura, Kota Jayapura",PAPUA BARAT,99225.0,Indonesia,9675180108.0,-2.6096427,140.6725314,https://maps.google.com/?cid=0x0:0x908e38e219cfc28
supermarket bangunan,Toko Cat,Cat Tembok Danapaint,"Jl. Siliwangi No.88, Depok, Kec. Pancoran Mas, Kota Depok, Jawa Barat 16431","Depok, Kec. Pancoran Mas, Kota Depok",PAPUA BARAT,16431.0,Indonesia,89523500251.0,-6.3994639,106.8204635,https://maps.google.com/?cid=0x0:0x9630484e498f8b9b
supermarket bangunan,Toko Bahan Bangunan,TB. Mandiri Bangunan,"Jl. Siliwangi No.35, Depok, Kec. Pancoran Mas, Kota Depok, Jawa Barat 16431","Depok, Kec. Pancoran Mas, Kota Depok",PAPUA BARAT,16431.0,Indonesia,81319800448.0,-6.3999656,106.8241999,https://maps.google.com/?cid=0x0:0x96198a3208770b4f
supermarket bangunan,Toko Bahan Bangunan,Fajar Bangunan,"Sowi, Distrik Manokwari, Kabupaten Manokwari, Papua Bar. 98315","Distrik Manokwari, Kabupaten Manokwari",PAPUA BARAT,98315.0,Indonesia,,-0.9062643,134.0359839,https://maps.google.com/?cid=0x0:0x9d0563299ba4e3f6
supermarket bangunan,Toko Perlengkapan Rumah,Depo teguh arfai,"Jln.abraham ataruri arfai, Kabupaten Manokwari, Papua Bar. 98312",Kabupaten Manokwari,PAPUA BARAT,98312.0,Indonesia,82174980586.0,-0.9297824,134.0264328,https://maps.google.com/?cid=0x0:0x6ccc9231f12738e9
supermarket bangunan,supermarket bangunan,Papua Bar. 98315,"Kabupaten Manokwari, Papua Bar.","Kabupaten Manokwari, Papua Bar.",PAPUA BARAT,,Indonesia,,-1.0762009,133.4452148,https://maps.google.com/?cid=0x0:0xe20d605d60a391b5
supermarket bangunan,Pemasok Bahan Bangunan,Toko bangunan Sumber Makmur,"32CM+75G, Jl. Manokwari - Maruni, Anday, Distrik Manokwari, Kabupaten Manokwari, Papua Bar. 98315","Jl. Manokwari - Maruni, Anday, Distrik Manokwari, Kabupaten Manokwari",PAPUA BARAT,98315.0,Indonesia,8114846060.0,-0.9293075,134.0329487,https://maps.google.com/?cid=0x0:0xa0a85c7270dde255
supermarket bangunan,Toko Bahan Bangunan,ANEKA BANGUNAN,"Wosi, Kec. Manokwari Bar., Kabupaten Manokwari, Papua Bar. 98312","Kec. Manokwari Bar., Kabupaten Manokwari",PAPUA BARAT,98312.0,Indonesia,81344843001.0,-0.8631883,134.0498559,https://maps.google.com/?cid=0x0:0x3598159af16f30ea
supermarket bangunan,Toko Bahan Bangunan,Toko Bangunan,"Jl. Trikora Taman Ria No.4, Sowi, Distrik Manokwari, Kabupaten Manokwari, Papua Bar. 98315","Sowi, Distrik Manokwari, Kabupaten Manokwari",PAPUA BARAT,98315.0,Indonesia,,-0.906996,134.035784,https://maps.google.com/?cid=0x0:0xe97020a60705142f
supermarket bangunan,Toko Bahan Bangunan,Toko Bangunan FIRMAN,"Jl. Trikora Wosi No.168, Wosi, Kec. Manokwari Bar., Kabupaten Manokwari, Papua Bar. 98312","Wosi, Kec. Manokwari Bar., Kabupaten Manokwari",PAPUA BARAT,98312.0,Indonesia,8114118555.0,-0.8672239,134.0562233,https://maps.google.com/?cid=0x0:0xad10e51218925944
supermarket bangunan,Toko Bahan Bangunan,Toko Bangunan Kencana Jaya,"sp 3, jalur 9, Aimasi, Waseki Indah, Distrik Prafi, Kabupaten Manokwari, Papua Bar. 98356","jalur 9, Aimasi, Waseki Indah, Distrik Prafi, Kabupaten Manokwari",PAPUA BARAT,98356.0,Indonesia,81390965850.0,-0.8809697,133.8052293,https://maps.google.com/?cid=0x0:0x372086303669e4f6
supermarket bangunan,Toko Bahan Bangunan,PAPUA BANGUNAN,"42GX+945, Wosi, Kec. Manokwari Bar., Kabupaten Manokwari, Papua Bar. 98312","Wosi, Kec. Manokwari Bar., Kabupaten Manokwari",PAPUA BARAT,98312.0,Indonesia,82198055550.0,-0.874101,134.0478473,https://maps.google.com/?cid=0x0:0x2c3683b193d9430f
supermarket bangunan,Toko Bahan Bangunan,Toko Bangunan Alva Center,"3299+WR4, Anday, Distrik Manokwari, Kabupaten Manokwari, Papua Bar. 98315","Anday, Distrik Manokwari, Kabupaten Manokwari",PAPUA BARAT,98315.0,Indonesia,82248894866.0,-0.9302448,134.0195768,https://maps.google.com/?cid=0x0:0xb10f5dd5b0339319
supermarket bangunan,Toko Bahan Bangunan,Toko Tigase Pratama,"43M3+RGP, Wosi, Kec. Manokwari Bar., Kabupaten Manokwari, Papua Bar. 98312","Wosi, Kec. Manokwari Bar., Kabupaten Manokwari",PAPUA BARAT,98312.0,Indonesia,,-0.8655207,134.0539605,https://maps.google.com/?cid=0x0:0xef96868012a14cc1
supermarket bangunan,Toko Perlengkapan Rumah,ARFAI JAYA BANGUNAN,"Jalan trikora arfai salak, Anday, Distrik Manokwari, Kabupaten Manokwari, Papua Bar. 98315","Anday, Distrik Manokwari, Kabupaten Manokwari",PAPUA BARAT,98315.0,Indonesia,82174980586.0,-0.9306827,134.0172536,https://maps.google.com/?cid=0x0:0x50b3c85320438418
supermarket bangunan,Toko Bahan Bangunan,Toko bangunan Cahaya Indah,"43H6+JCC, Jl. Trikora Wosi, Sanggeng, Kec. Manokwari Bar., Kabupaten Manokwari, Papua Bar. 98312","Jl. Trikora Wosi, Sanggeng, Kec. Manokwari Bar., Kabupaten Manokwari",PAPUA BARAT,98312.0,Indonesia,81248361373.0,-0.8709308,134.0610281,https://maps.google.com/?cid=0x0:0x7dfb05fd51f1167b
supermarket bangunan,Toko Bahan Bangunan,Sakura Bangunan,"32PP+6RW, Jl. Trikora Taman Ria, Sowi, Distrik Manokwari, Kabupaten Manokwari, Papua Bar. 98315","Jl. Trikora Taman Ria, Sowi, Distrik Manokwari, Kabupaten Manokwari",PAPUA BARAT,98315.0,Indonesia,81241419493.0,-0.9143793,134.0370816,https://maps.google.com/?cid=0x0:0x9c791776501512b6
supermarket bangunan,supermarket bangunan,Papua Bar. 98352,"Kabupaten Manokwari, Papua Bar.","Kabupaten Manokwari, Papua Bar.",PAPUA BARAT,,Indonesia,,-1.0122519,133.9055155,https://maps.google.com/?cid=0x0:0x665ab61075e0d624
supermarket bangunan,Toko Bahan Bangunan,Depo Bangunan Mbanyu Mili,"3VQM+2GP depan balai kampung sp 2, Prafi Mulia, Distrik Prafi, Kabupaten Manokwari, Papua Bar. 98356","Prafi Mulia, Distrik Prafi, Kabupaten Manokwari",PAPUA BARAT,98356.0,Indonesia,85254126242.0,-0.9124191,133.8838245,https://maps.google.com/?cid=0x0:0x72bb281db456c91a
supermarket bangunan,Toko Perlengkapan Rumah,Depo teguh arfai,"Jln.abraham ataruri arfai, Kabupaten Manokwari, Papua Bar. 98312",Kabupaten Manokwari,PAPUA BARAT,98312.0,Indonesia,82174980586.0,-0.9297824,134.0264328,https://maps.google.com/?cid=0x0:0x6ccc9231f12738e9
supermarket bangunan,Toko Bahan Bangunan,Toko Bangunan Kencana Jaya,"sp 3, jalur 9, Aimasi, Waseki Indah, Distrik Prafi, Kabupaten Manokwari, Papua Bar. 98356","jalur 9, Aimasi, Waseki Indah, Distrik Prafi, Kabupaten Manokwari",PAPUA BARAT,98356.0,Indonesia,81390965850.0,-0.8809697,133.8052293,https://maps.google.com/?cid=0x0:0x372086303669e4f6
supermarket bangunan,Toko Bahan Bangunan,Toko Bangunan ATIGA,"5355+F7H, Jl. Angkasa Mulyono, Amban, Kec. Manokwari Bar., Kabupaten Manokwari, Papua Bar. 98312","Jl. Angkasa Mulyono, Amban, Kec. Manokwari Bar., Kabupaten Manokwari",PAPUA BARAT,98312.0,Indonesia,,-0.8413134,134.0582405,https://maps.google.com/?cid=0x0:0x6a0ea28d5492ed54
supermarket bangunan,Toko Bahan Bangunan,Supermarket Multi Bangunan,"Jl Baru No.98, Wai Mhorock, Abepura, Jayapura City, Papua 99225","Wai Mhorock, Abepura, Jayapura City",PAPUA BARAT,99225.0,Indonesia,967588677.0,-2.6077336,140.6742812,https://maps.google.com/?cid=0x0:0x3b19f301c68f1d6f
supermarket bangunan,Pemasok Bahan Bangunan,Toko bangunan Sumber Makmur,"32CM+75G, Jl. Manokwari - Maruni, Anday, Distrik Manokwari, Kabupaten Manokwari, Papua Bar. 98315","Jl. Manokwari - Maruni, Anday, Distrik Manokwari, Kabupaten Manokwari",PAPUA BARAT,98315.0,Indonesia,8114846060.0,-0.9293075,134.0329487,https://maps.google.com/?cid=0x0:0xa0a85c7270dde255
supermarket bangunan,Toko Bahan Bangunan,PAPUA BANGUNAN,"42GX+945, Wosi, Kec. Manokwari Bar., Kabupaten Manokwari, Papua Bar. 98312","Wosi, Kec. Manokwari Bar., Kabupaten Manokwari",PAPUA BARAT,98312.0,Indonesia,82198055550.0,-0.874101,134.0478473,https://maps.google.com/?cid=0x0:0x2c3683b193d9430f
supermarket bangunan,Toko Elektronik,Toko Bangunan Sumber Baru,"SP3, Aimasi, Jl. Poros, Distrik Prafi, Kabupaten Manokwari, Papua Bar. 98356","Aimasi, Jl. Poros, Distrik Prafi, Kabupaten Manokwari",PAPUA BARAT,98356.0,Indonesia,81234807007.0,-0.883667,133.820223,https://maps.google.com/?cid=0x0:0x7475be84d164c6b6
supermarket bangunan,Toko Bahan Bangunan,ELTIGA Hard Ware,"4R99+HQ9, Jl. Pendidikan, Udapi Hilir, Distrik Prafi, Kabupaten Manokwari, Papua Bar. 98356","Jl. Pendidikan, Udapi Hilir, Distrik Prafi, Kabupaten Manokwari",PAPUA BARAT,98356.0,Indonesia,986811156.0,-0.8810887,133.8194861,https://maps.google.com/?cid=0x0:0x233be94230012a5d
supermarket bangunan,Toko Bahan Bangunan,Toko mentari,"4R74+WP, Waseki Indah, Distrik Prafi, Kabupaten Manokwari, Papua Bar.","Kabupaten Manokwari, Papua Bar.",PAPUA BARAT,,Indonesia,,-0.8853016,133.8068212,https://maps.google.com/?cid=0x0:0xdc35c757e123f91e
supermarket bangunan,Toko Perlengkapan Rumah,ARFAI JAYA BANGUNAN,"Jalan trikora arfai salak, Anday, Distrik Manokwari, Kabupaten Manokwari, Papua Bar. 98315","Anday, Distrik Manokwari, Kabupaten Manokwari",PAPUA BARAT,98315.0,Indonesia,82174980586.0,-0.9306827,134.0172536,https://maps.google.com/?cid=0x0:0x50b3c85320438418
supermarket bangunan,Toko Bahan Bangunan,toko bangunan,"329G+VJ9, jln trikora arfai logpond, Anday, Kabupaten Manokwari","Kabupaten Manokwari, Papua Bar.",PAPUA BARAT,,Indonesia,,-0.9303319,134.0266147,https://maps.google.com/?cid=0x0:0x7ae5f49d1c059992
supermarket bangunan,Toko Bahan Bangunan,Toko Bangunan,"Jl. Trikora Taman Ria No.4, Sowi, Distrik Manokwari, Kabupaten Manokwari, Papua Bar. 98315","Sowi, Distrik Manokwari, Kabupaten Manokwari",PAPUA BARAT,98315.0,Indonesia,,-0.906996,134.035784,https://maps.google.com/?cid=0x0:0xe97020a60705142f
supermarket bangunan,supermarket bangunan,Papua Bar. 98357,"Kabupaten Manokwari, Papua Bar.","Kabupaten Manokwari, Papua Bar.",PAPUA BARAT,,Indonesia,,-0.8227418,133.5606946,https://maps.google.com/?cid=0x0:0x3e375139d962692c
supermarket bangunan,Toko Bahan Bangunan,Toko Bangunan Kencana Jaya,"sp 3, jalur 9, Aimasi, Waseki Indah, Distrik Prafi, Kabupaten Manokwari, Papua Bar. 98356","jalur 9, Aimasi, Waseki Indah, Distrik Prafi, Kabupaten Manokwari",PAPUA BARAT,98356.0,Indonesia,81390965850.0,-0.8809697,133.8052293,https://maps.google.com/?cid=0x0:0x372086303669e4f6
supermarket bangunan,Toko Bahan Bangunan,DepoTeguh,"43QF+MP2, Padarni, Kec. Manokwari Bar., Kabupaten Manokwari, Papua Bar. 98312","Padarni, Kec. Manokwari Bar., Kabupaten Manokwari",PAPUA BARAT,98312.0,Indonesia,,-0.8608702,134.0742546,https://maps.google.com/?cid=0x0:0xa7aa87e22e73b4ed
supermarket bangunan,Toko Elektronik,Toko Bangunan Sumber Baru,"SP3, Aimasi, Jl. Poros, Distrik Prafi, Kabupaten Manokwari, Papua Bar. 98356","Aimasi, Jl. Poros, Distrik Prafi, Kabupaten Manokwari",PAPUA BARAT,98356.0,Indonesia,81234807007.0,-0.883667,133.820223,https://maps.google.com/?cid=0x0:0x7475be84d164c6b6
supermarket bangunan,Toko Bahan Bangunan,ANEKA BANGUNAN,"Wosi, Kec. Manokwari Bar., Kabupaten Manokwari, Papua Bar. 98312","Kec. Manokwari Bar., Kabupaten Manokwari",PAPUA BARAT,98312.0,Indonesia,81344843001.0,-0.8631883,134.0498559,https://maps.google.com/?cid=0x0:0x3598159af16f30ea
supermarket bangunan,Toko Bahan Bangunan,ELTIGA Hard Ware,"4R99+HQ9, Jl. Pendidikan, Udapi Hilir, Distrik Prafi, Kabupaten Manokwari, Papua Bar. 98356","Jl. Pendidikan, Udapi Hilir, Distrik Prafi, Kabupaten Manokwari",PAPUA BARAT,98356.0,Indonesia,986811156.0,-0.8810887,133.8194861,https://maps.google.com/?cid=0x0:0x233be94230012a5d
supermarket bangunan,Toko Bahan Bangunan,toko Randi jaya,"4RF6+MC8, Waseki Indah, Distrik Prafi, Kabupaten Manokwari, Papua Bar. 98356","Waseki Indah, Distrik Prafi, Kabupaten Manokwari",PAPUA BARAT,98356.0,Indonesia,,-0.8758433,133.8110847,https://maps.google.com/?cid=0x0:0x4a345df7b5e52ca5
supermarket bangunan,Toko Bahan Bangunan,Toko mentari,"4R74+WP, Waseki Indah, Distrik Prafi, Kabupaten Manokwari, Papua Bar.","Kabupaten Manokwari, Papua Bar.",PAPUA BARAT,,Indonesia,,-0.8853016,133.8068212,https://maps.google.com/?cid=0x0:0xdc35c757e123f91e
supermarket bangunan,Toko,Toko Tapanuli Jaya ( Sinaga ),"Jln. Merpati SP 4, Udapi Hilir, Distrik Prafi, Kabupaten Manokwari, Papua Bar. 98356","Udapi Hilir, Distrik Prafi, Kabupaten Manokwari",PAPUA BARAT,98356.0,Indonesia,81370126543.0,-0.876799,133.8286786,https://maps.google.com/?cid=0x0:0xb117b9a8f7d4a0e6
supermarket bangunan,Toko Bahan Bangunan,Toko jelita,"6PC3+RVM, Unnamed Road, Wariori, Distrik Masni, Kabupaten Manokwari, Papua Bar. 98357","Unnamed Road, Wariori, Distrik Masni, Kabupaten Manokwari",PAPUA BARAT,98357.0,Indonesia,82358787299.0,-0.7779015,133.704657,https://maps.google.com/?cid=0x0:0xe57c13405547f320
supermarket bangunan,Toko Bahan Bangunan,Supermarket Multi Bangunan,"Jl Baru No.98, Wai Mhorock, Abepura, Jayapura City, Papua 99225","Wai Mhorock, Abepura, Jayapura City",PAPUA BARAT,99225.0,Indonesia,967588677.0,-2.6077336,140.6742812,https://maps.google.com/?cid=0x0:0x3b19f301c68f1d6f
supermarket bangunan,Toko Bahan Bangunan,Fajar Bangunan,"Sowi, Distrik Manokwari, Kabupaten Manokwari, Papua Bar. 98315","Distrik Manokwari, Kabupaten Manokwari",PAPUA BARAT,98315.0,Indonesia,,-0.9062643,134.0359839,https://maps.google.com/?cid=0x0:0x9d0563299ba4e3f6
supermarket bangunan,Toko Bahan Bangunan,Gudang Tigase Pratama,"Jl. Reremi Puncak, Manokwari Bar., Kec. Manokwari Bar., Kabupaten Manokwari, Papua Bar. 98312","Manokwari Bar., Kec. Manokwari Bar., Kabupaten Manokwari",PAPUA BARAT,98312.0,Indonesia,85397520354.0,-0.8495164,134.0532569,https://maps.google.com/?cid=0x0:0xb40a25d0c79962aa
supermarket bangunan,Toko Perlengkapan Rumah,Depo teguh arfai,"Jln.abraham ataruri arfai, Kabupaten Manokwari, Papua Bar. 98312",Kabupaten Manokwari,PAPUA BARAT,98312.0,Indonesia,82174980586.0,-0.9297824,134.0264328,https://maps.google.com/?cid=0x0:0x6ccc9231f12738e9
