Category,Real Category,Business Name,Address,City,State,Postal Code,Country,Phone,Latitude,Longitude,Map Link
mall,Rumah Makan,Kios dan Rumah Makan Se-7 Tujuh,"Pegunungan Arfak, dekat rumah jabatab bupati, pertigaan depan pasar Rakyat, Ingebai / Imbeisba, Distrik Anggi, Arfak Pegaf, Papua Bar. 98354","dekat rumah jabatab bupati, pertigaan depan pasar Rakyat, Ingebai / Imbeisba, Distrik Anggi, Arfak Pegaf",PAPUA BARAT,98354.0,Indonesia,82195386469.0,-1.324782,133.9132739,https://maps.google.com/?cid=0x0:0x1f3490aa77448bf
mall,Toko Makanan,Kios Gibran,"MWG3+C2Q, Unnamed Road, Hungku, Distrik Anggi, Kab. Pegunungan Arfak, Papua Bar. 98354","Unnamed Road, Hungku, Distrik Anggi, Kab. Pegunungan Arfak",PAPUA BARAT,98354.0,Indonesia,,-1.3239227,133.9026164,https://maps.google.com/?cid=0x0:0x67920db939302780
mall,Toko Pakaian,ANGGI BOUTIQUE,"FQGW+QV2, Cilebut Bar., Kec. Sukaraja, Kabupaten Bogor, Jawa Barat 16710","Cilebut Bar., Kec. Sukaraja, Kabupaten Bogor",PAPUA BARAT,16710.0,Indonesia,,-6.523118,106.7970572,https://maps.google.com/?cid=0x0:0xbae868edab0e69b5
mall,Toko,ANGGI VSHOP,"Jl. Formula IV No.11 Blok A5, Sukamanah, Kec. Sukatani, Kabupaten Bekasi, Jawa Barat 17630","Sukamanah, Kec. Sukatani, Kabupaten Bekasi",PAPUA BARAT,17630.0,Indonesia,85959619315.0,-6.2146944,107.1564308,https://maps.google.com/?cid=0x0:0x8057157ef4974876
mall,Toko Pakaian,ANGGI,"Bl. M Square, Lantai 1 Blok B No 107, Jl. Melawai 5, RT.3/RW.1, Melawai, Kec. Kby. Baru, DKI Jakarta, Daerah Khusus Ibukota Jakarta 12160","Lantai 1 Blok B No 107, Jl. Melawai 5, RT.3/RW.1, Melawai, Kec. Kby. Baru, DKI Jakarta",PAPUA BARAT,12160.0,Indonesia,81289111220.0,-6.244572,106.800679,https://maps.google.com/?cid=0x0:0xad6e9d4ccc2bf379
mall,Pusat Perbelanjaan,Warung Anggie,"Cisauk residence blk A1, Cisauk, Kec. Cisauk, Kabupaten Tangerang, Banten 15341","Cisauk, Kec. Cisauk, Kabupaten Tangerang",PAPUA BARAT,15341.0,Indonesia,89522895888.0,-6.3390781,106.6328539,https://maps.google.com/?cid=0x0:0x7d884146b20c04d
mall,Pusat Perbelanjaan,Anggi_nursery,"8QR8+FHR, Jl. Raya Pondok Bitung, Sukamantri, Kec. Tamansari, Kabupaten Bogor, Jawa Barat 16610","Jl. Raya Pondok Bitung, Sukamantri, Kec. Tamansari, Kabupaten Bogor",PAPUA BARAT,16610.0,Indonesia,83815745983.0,-6.6587723,106.7664049,https://maps.google.com/?cid=0x0:0xd84895286a60e6bb
mall,mall,Kec. Anggi Gida,"Kab. Pegunungan Arfak, Papua Bar.","Kab. Pegunungan Arfak, Papua Bar.",PAPUA BARAT,,Indonesia,,-1.3668114,133.9609514,https://maps.google.com/?cid=0x0:0xb4bc71d5f83c5185
mall,mall,Danau Anggi Gida,"Kab. Pegunungan Arfak, Papua Bar.","Kab. Pegunungan Arfak, Papua Bar.",PAPUA BARAT,,Indonesia,,-1.3963314,133.9532149,https://maps.google.com/?cid=0x0:0xd222eb659585412a
mall,mall,Anggi Gida,"Kab. Pegunungan Arfak, Papua Bar.","Kab. Pegunungan Arfak, Papua Bar.",PAPUA BARAT,,Indonesia,,-1.3958835,133.9722816,https://maps.google.com/?cid=0x0:0x8008ad12448ea805
mall,Pusat Perbelanjaan,Manokwari City Mall (MCM),"Jl. Yos Sudarso Manokwari, Manokwari Bar., Kec. Manokwari Bar., Kabupaten Manokwari, Papua Bar. 98312","Manokwari Bar., Kec. Manokwari Bar., Kabupaten Manokwari",PAPUA BARAT,98312.0,Indonesia,8114918899.0,-0.85693,134.0678051,https://maps.google.com/?cid=0x0:0x7e7b90df1d787501
mall,mall,Papua Bar. 98358,"Kabupaten Manokwari, Papua Bar.","Kabupaten Manokwari, Papua Bar.",PAPUA BARAT,,Indonesia,,-1.0707188,133.7525619,https://maps.google.com/?cid=0x0:0x566a5a268f3890ee
mall,Toko bahan makanan,Kalawai Mart,"42GW+JX7, Jl. Drs Esau Sesa, Wosi, Kec. Manokwari Bar., Kabupaten Manokwari, Papua Bar. 98312","Jl. Drs Esau Sesa, Wosi, Kec. Manokwari Bar., Kabupaten Manokwari",PAPUA BARAT,98312.0,Indonesia,82239404628.0,-0.8734685,134.0474365,https://maps.google.com/?cid=0x0:0xa03f46416c062468
mall,Minimarket,HADI MART,"4R69+JQ7, Udapi Hilir, Distrik Prafi, Kabupaten Manokwari, Papua Bar.","Kabupaten Manokwari, Papua Bar.",PAPUA BARAT,,Indonesia,,-0.8881049,133.8190029,https://maps.google.com/?cid=0x0:0x6098dac7ad9de118
mall,Pusat Perbelanjaan,Toserba PRAFI INDAH,"4RCM+M94, Udapi Hilir, Distrik Prafi, Kabupaten Manokwari, Papua Bar. 98356","Udapi Hilir, Distrik Prafi, Kabupaten Manokwari",PAPUA BARAT,98356.0,Indonesia,81248929649.0,-0.8783629,133.8334382,https://maps.google.com/?cid=0x0:0xb249f2095645ca6
mall,Toko Kue,Cita Cake  Cookies,"4RFJ+36X, Unnamed Road, Udapi Hilir, Distrik Prafi, Kabupaten Manokwari, Papua Bar. 98356","Unnamed Road, Udapi Hilir, Distrik Prafi, Kabupaten Manokwari",PAPUA BARAT,98356.0,Indonesia,82197590975.0,-0.8772529,133.8306072,https://maps.google.com/?cid=0x0:0x6857b8318baa9232
mall,Pusat Perbelanjaan,Papa Dika,"4RF6+MVC, Waseki Indah, Distrik Prafi, Kabupaten Manokwari, Papua Bar. 98356","Waseki Indah, Distrik Prafi, Kabupaten Manokwari",PAPUA BARAT,98356.0,Indonesia,85258009788.0,-0.8758135,133.8121396,https://maps.google.com/?cid=0x0:0xa4eaf29aa9267a2
mall,Pusat Perbelanjaan,Central Park,"Jl. Letjen S. Parman No.Kav. 28, Tj. Duren Sel., Kec. Grogol petamburan, Kota Jakarta Barat, Daerah Khusus Ibukota Jakarta 11470","Tj. Duren Sel., Kec. Grogol petamburan, Kota Jakarta Barat",PAPUA BARAT,11470.0,Indonesia,2156989999.0,-6.1771373,106.7909788,https://maps.google.com/?cid=0x0:0xe816d65037c3207a
mall,Toko,CV.JADI JAYA PERKASA,"4RCH+R69, Udapi Hilir, Distrik Prafi, Kabupaten Manokwari, Papua Bar. 98356","Udapi Hilir, Distrik Prafi, Kabupaten Manokwari",PAPUA BARAT,98356.0,Indonesia,82198469906.0,-0.8779611,133.8281023,https://maps.google.com/?cid=0x0:0x1895d17700023f60
mall,Pusat Perbelanjaan,Blok M Plaza,"Jl. Bulungan No.76, RT.6/RW.6, Kramat Pela, Kec. Kby. Baru, Kota Jakarta Selatan, Daerah Khusus Ibukota Jakarta 12130","RT.6/RW.6, Kramat Pela, Kec. Kby. Baru, Kota Jakarta Selatan",PAPUA BARAT,12130.0,Indonesia,217209288.0,-6.2441189,106.7976404,https://maps.google.com/?cid=0x0:0x3e110f817acb352d
mall,Kios,Kios Bobon,"4R9F+5RQ, Udapi Hilir, Distrik Prafi, Kabupaten Manokwari, Papua Bar. 98356","Udapi Hilir, Distrik Prafi, Kabupaten Manokwari",PAPUA BARAT,98356.0,Indonesia,,-0.8820475,133.8246024,https://maps.google.com/?cid=0x0:0xfd7fbb9b1dc93973
mall,Toko,Lapak ''Mbak Mi'',"4RF6+4X3, Waseki Indah, Distrik Prafi, Kabupaten Manokwari, Papua Bar. 98356","Waseki Indah, Distrik Prafi, Kabupaten Manokwari",PAPUA BARAT,98356.0,Indonesia,,-0.8772362,133.8124245,https://maps.google.com/?cid=0x0:0xe6a67d1ebd34d292
mall,Pusat Perbelanjaan,Pasaraya Blok M,"Jl. Iskandarsyah II No.2, RT.3/RW.1, Melawai, Kec. Kby. Baru, Kota Jakarta Selatan, Daerah Khusus Ibukota Jakarta 12160","RT.3/RW.1, Melawai, Kec. Kby. Baru, Kota Jakarta Selatan",PAPUA BARAT,12160.0,Indonesia,217260170.0,-6.2437383,106.8030197,https://maps.google.com/?cid=0x0:0x4b1c6d654a7fbee5
mall,Pasar,BAROKAH 2,"3VPJ+JXR, Desay, Distrik Prafi, Kabupaten Manokwari, Papua Bar. 98356","Desay, Distrik Prafi, Kabupaten Manokwari",PAPUA BARAT,98356.0,Indonesia,85254092288.0,-0.9133997,133.8823875,https://maps.google.com/?cid=0x0:0x20dbaa9222b8b821
mall,mall,Papua Bar. 98359,Papua Bar.,Papua Bar.,PAPUA BARAT,,Indonesia,,-1.5213839,133.7525619,https://maps.google.com/?cid=0x0:0xc8a895044b18d7c8
mall,Pusat Perbelanjaan,Lippo Mall Puri,"Jl. Puri Indah Raya Blok U 1, RT.3/RW.2, Kembangan Sel., Kec. Kembangan, Kota Jakarta Barat, Daerah Khusus Ibukota Jakarta 11610","RT.3/RW.2, Kembangan Sel., Kec. Kembangan, Kota Jakarta Barat",PAPUA BARAT,11610.0,Indonesia,2129111111.0,-6.1884554,106.7389094,https://maps.google.com/?cid=0x0:0x41cca4768f8bf65b
mall,Pusat Perbelanjaan,Manokwari City Mall (MCM),"Jl. Yos Sudarso Manokwari, Manokwari Bar., Kec. Manokwari Bar., Kabupaten Manokwari, Papua Bar. 98312","Manokwari Bar., Kec. Manokwari Bar., Kabupaten Manokwari",PAPUA BARAT,98312.0,Indonesia,8114918899.0,-0.85693,134.0678051,https://maps.google.com/?cid=0x0:0x7e7b90df1d787501
mall,Pusat Perbelanjaan,Pluit Village Mall,"Jl. Pluit Indah, RT.6/RW.4, Pluit, Kec. Penjaringan, Jkt Utara, Daerah Khusus Ibukota Jakarta 14450","RT.6/RW.4, Pluit, Kec. Penjaringan, Jkt Utara",PAPUA BARAT,14450.0,Indonesia,216683888.0,-6.1164462,106.7896199,https://maps.google.com/?cid=0x0:0xdacb917bfb866141
mall,Pusat Perbelanjaan,Mal Ciputra Jakarta,"Jl. Letjen S. Parman, RT.11/RW.1, Tj. Duren Utara, Kec. Grogol petamburan, Kota Jakarta Barat, Daerah Khusus Ibukota Jakarta 11470","RT.11/RW.1, Tj. Duren Utara, Kec. Grogol petamburan, Kota Jakarta Barat",PAPUA BARAT,11470.0,Indonesia,,-6.1683907,106.7866182,https://maps.google.com/?cid=0x0:0xc1a27eebd0600293
mall,Pusat Perbelanjaan,MOI Kelapa Gading,"Mall Of Indonesia, Jl. Boulevard Bar. Raya Lt. 2, RT.18/RW.8, Klp. Gading Bar., Kec. Klp. Gading, Jkt Utara, Daerah Khusus Ibukota Jakarta 14240","Jl. Boulevard Bar. Raya Lt. 2, RT.18/RW.8, Klp. Gading Bar., Kec. Klp. Gading, Jkt Utara",PAPUA BARAT,14240.0,Indonesia,81217393609.0,-6.1506741,106.8908571,https://maps.google.com/?cid=0x0:0x11e13e124ce7f530
mall,Toko Perhiasan,Naughty Hadi Mall,"Jl. Yos Sudarso No.8, Manokwari Bar., Kec. Manokwari Bar., Kabupaten Manokwari, Papua Bar. 98312","Manokwari Bar., Kec. Manokwari Bar., Kabupaten Manokwari",PAPUA BARAT,98312.0,Indonesia,,-0.8571975,134.0675484,https://maps.google.com/?cid=0x0:0x4fdc9271213b8a6b
mall,Pusat Perbelanjaan,Mall Senayan City,"Jl. Asia Afrika No.Lot 19, Gelora, Kecamatan Tanah Abang, Kota Jakarta Pusat, Daerah Khusus Ibukota Jakarta 10270","Gelora, Kecamatan Tanah Abang, Kota Jakarta Pusat",PAPUA BARAT,10270.0,Indonesia,2172781000.0,-6.2271953,106.7970117,https://maps.google.com/?cid=0x0:0x300c043104acc004
mall,Minimarket,Hadi Supermarket Manokwari,"43V9+632, Jl. Yos Sudarso Manokwari, Manokwari Bar., Barat, Kabupaten Manokwari, Papua Bar. 98312","Jl. Yos Sudarso Manokwari, Manokwari Bar., Barat, Kabupaten Manokwari",PAPUA BARAT,98312.0,Indonesia,81344231138.0,-0.8569848,134.0676451,https://maps.google.com/?cid=0x0:0x9eff32c2ea26d6a2
mall,Pusat Perbelanjaan,PARAGON SQUARE Mall  Hotel Sorong,"4874+4RH Paragon Square Mall, Jl. Basuki Rahmat Lt. 2, Sawagumu, Kec. Sorong Utara, Kota Sorong, Papua Bar. 98412","Jl. Basuki Rahmat Lt. 2, Sawagumu, Kec. Sorong Utara, Kota Sorong",PAPUA BARAT,98412.0,Indonesia,81247232214.0,-0.8871443,131.3071264,https://maps.google.com/?cid=0x0:0xd02481be48cb6e05
mall,Pusat Perbelanjaan,Grand Indonesia Shopping Town,"Jl. M.H. Thamrin No.1, Menteng, Kec. Menteng, Kota Jakarta Pusat, Daerah Khusus Ibukota Jakarta 10310","Menteng, Kec. Menteng, Kota Jakarta Pusat",PAPUA BARAT,10310.0,Indonesia,2123580001.0,-6.1965848,106.8224882,https://maps.google.com/?cid=0x0:0xccfcc89b95aaf1ae
mall,Toko Swalayan,AEON Mall Deltamas - Cikarang Bekasi,"Jl. Ganesha Boulevard, Kota Deltamas, Kec. Cikarang Pusat, Kabupaten Bekasi, Jawa Barat 17530","Kota Deltamas, Kec. Cikarang Pusat, Kabupaten Bekasi",PAPUA BARAT,17530.0,Indonesia,2138733333.0,-6.3519407,107.1954494,https://maps.google.com/?cid=0x0:0xa692ce22e7339115
mall,Toko Makanan,Kios Gibran,"MWG3+C2Q, Unnamed Road, Hungku, Distrik Anggi, Kab. Pegunungan Arfak, Papua Bar. 98354","Unnamed Road, Hungku, Distrik Anggi, Kab. Pegunungan Arfak",PAPUA BARAT,98354.0,Indonesia,,-1.3239227,133.9026164,https://maps.google.com/?cid=0x0:0x67920db939302780
mall,Agen real estat,Green Sedayu Mall,"Blk. B17, Jl. Taman Palem Lestari No.2, RT.7/RW.13, Cengkareng Bar., Kecamatan Cengkareng, Kota Jakarta Barat, Daerah Khusus Ibukota Jakarta 11730","Jl. Taman Palem Lestari No.2, RT.7/RW.13, Cengkareng Bar., Kecamatan Cengkareng, Kota Jakarta Barat",PAPUA BARAT,11730.0,Indonesia,81386635688.0,-6.1388522,106.7287214,https://maps.google.com/?cid=0x0:0xd7fefe5d9828a2b1
mall,Pusat Perbelanjaan,Manokwari City Mall (MCM),"Jl. Yos Sudarso Manokwari, Manokwari Bar., Kec. Manokwari Bar., Kabupaten Manokwari, Papua Bar. 98312","Manokwari Bar., Kec. Manokwari Bar., Kabupaten Manokwari",PAPUA BARAT,98312.0,Indonesia,8114918899.0,-0.85693,134.0678051,https://maps.google.com/?cid=0x0:0x7e7b90df1d787501
mall,Pusat Perbelanjaan,Belakang Manokwari city mall,"43W7+F3H, Manokwari Bar., Kec. Manokwari Bar., Kabupaten Manokwari, Papua Bar. 98312","Manokwari Bar., Kec. Manokwari Bar., Kabupaten Manokwari",PAPUA BARAT,98312.0,Indonesia,,-0.8538079,134.0627452,https://maps.google.com/?cid=0x0:0x59f633fd28048da4
mall,Komplek perumahan,Fanindi Pantai,"43R9+J9P Bar, Padarni, Kec. Manokwari Bar., Kabupaten Manokwari, Papua Bar. 98312","Padarni, Kec. Manokwari Bar., Kabupaten Manokwari",PAPUA BARAT,98312.0,Indonesia,81344477231.0,-0.8584193,134.0684588,https://maps.google.com/?cid=0x0:0xfea55ca67440bcde
mall,Toko Perlengkapan Rumah,Mitra ilhamiqbal,"223G+PM9, Jl. Manokwari - Bintuni, Doput, Distrik Manokwari, Kabupaten Manokwari, Papua Bar. 98315","Jl. Manokwari - Bintuni, Doput, Distrik Manokwari, Kabupaten Manokwari",PAPUA BARAT,98315.0,Indonesia,81344054885.0,-0.995708,134.02673,https://maps.google.com/?cid=0x0:0x281ad3d2f3150760
mall,Toko,Kios Ilham,"Kp. Baru, bimiyourang ingkuaisi, Kabupaten Manokwari, Papua Bar. 98315","bimiyourang ingkuaisi, Kabupaten Manokwari",PAPUA BARAT,98315.0,Indonesia,85354340791.0,-0.9114379,133.914042,https://maps.google.com/?cid=0x0:0xcd2c203278019f1d
mall,mall,Kec. Membey,"Kab. Pegunungan Arfak, Papua Bar.","Kab. Pegunungan Arfak, Papua Bar.",PAPUA BARAT,,Indonesia,,-1.3416452,134.0336402,https://maps.google.com/?cid=0x0:0x6db50f43a0973078
mall,Pusat Perbelanjaan,Manokwari City Mall (MCM),"Jl. Yos Sudarso Manokwari, Manokwari Bar., Kec. Manokwari Bar., Kabupaten Manokwari, Papua Bar. 98312","Manokwari Bar., Kec. Manokwari Bar., Kabupaten Manokwari",PAPUA BARAT,98312.0,Indonesia,8114918899.0,-0.85693,134.0678051,https://maps.google.com/?cid=0x0:0x7e7b90df1d787501
mall,Pusat Perbelanjaan,Mega Mall Sorong,"Jalan Basuki Rahmat Klabulu, Malaimsimsa, Malaingkedi, Kec. Sorong Utara, Kota Sorong, Papua Bar. 98412","Malaimsimsa, Malaingkedi, Kec. Sorong Utara, Kota Sorong",PAPUA BARAT,98412.0,Indonesia,,-0.8873097,131.3012842,https://maps.google.com/?cid=0x0:0x364e52ce8985aa7
mall,Pusat Perbelanjaan,Mall Jayapura,"APO, Jl. Samratulangi, Bayangkara, Kec. Jayapura Utara, Kota Jayapura, Papua 99112","Jl. Samratulangi, Bayangkara, Kec. Jayapura Utara, Kota Jayapura",PAPUA BARAT,99112.0,Indonesia,9675150000.0,-2.5351775,140.7061874,https://maps.google.com/?cid=0x0:0x54294cb27964023
mall,Toko Makanan,Kios Gibran,"MWG3+C2Q, Unnamed Road, Hungku, Distrik Anggi, Kab. Pegunungan Arfak, Papua Bar. 98354","Unnamed Road, Hungku, Distrik Anggi, Kab. Pegunungan Arfak",PAPUA BARAT,98354.0,Indonesia,,-1.3239227,133.9026164,https://maps.google.com/?cid=0x0:0x67920db939302780
mall,Pusat Perbelanjaan,Mall Of Indonesia,"Jl. Boulevard Bar. Raya No.12, RT.18/RW.19, Klp. Gading Bar., Kec. Klp. Gading, Jkt Utara, Daerah Khusus Ibukota Jakarta 14240","RT.18/RW.19, Klp. Gading Bar., Kec. Klp. Gading, Jkt Utara",PAPUA BARAT,14240.0,Indonesia,2145867888.0,-6.1514549,106.8918949,https://maps.google.com/?cid=0x0:0x3431c7aaadd1f1b6
mall,Toko,Aryshop.mkw,"428H+GQJ, Unnamed Road, Sowi, Distrik Manokwari, Kabupaten Manokwari, Papua Bar. 98315","Unnamed Road, Sowi, Distrik Manokwari, Kabupaten Manokwari",PAPUA BARAT,98315.0,Indonesia,82198471223.0,-0.8836695,134.0293952,https://maps.google.com/?cid=0x0:0xaf2005c47d861a40
mall,Pusat Perbelanjaan,Milton Plaza,"2800 Milton Way, Milton, WA 98354, Amerika Serikat","Milton, WA",PAPUA BARAT,98354.0,Indonesia,,47.2509439,-122.2950615,https://maps.google.com/?cid=0x0:0xdb068b34dbc9340a
mall,Pusat Perbelanjaan,South Tacoma Plaza,"8720 S Tacoma Way, Lakewood, WA 98499, Amerika Serikat","Lakewood, WA",PAPUA BARAT,98499.0,Indonesia,,47.1785436,-122.4850002,https://maps.google.com/?cid=0x0:0x63fc5d90bad35ae4
mall,Masakan Asia,Milton Wok,"2800 Milton Way #4A, Milton, WA 98354, Amerika Serikat","Milton, WA",PAPUA BARAT,98354.0,Indonesia,12539522888.0,47.2503856,-122.2956149,https://maps.google.com/?cid=0x0:0x227707ba602498f8
mall,Pizza,Domino's Pizza,"2800 Milton Way, Milton, WA 98354, Amerika Serikat","Milton, WA",PAPUA BARAT,98354.0,Indonesia,12539270303.0,47.2503914,-122.2959487,https://maps.google.com/?cid=0x0:0xfbcbe433455d2805
mall,Jepang,Yoko Teriyaki,"2800 Milton Way #18, Milton, WA 98354, Amerika Serikat","Milton, WA",PAPUA BARAT,98354.0,Indonesia,12539523266.0,47.251714,-122.2951072,https://maps.google.com/?cid=0x0:0xbe85beae70db5bd1
mall,Tempat Fitness,Planet Fitness,"2800 Milton Way, Milton, WA 98354, Amerika Serikat","Milton, WA",PAPUA BARAT,98354.0,Indonesia,12532923775.0,47.2510152,-122.2957753,https://maps.google.com/?cid=0x0:0xf9ccf43a04a3329
mall,Salon Kuku,Milton Nails,"2800 Milton Way #7, Milton, WA 98354, Amerika Serikat","Milton, WA",PAPUA BARAT,98354.0,Indonesia,12535680662.0,47.2506027,-122.2955627,https://maps.google.com/?cid=0x0:0x743af61b1134f20b
mall,mall,Papua Bar. 98359,Papua Bar.,Papua Bar.,PAPUA BARAT,,Indonesia,,-1.5213839,133.7525619,https://maps.google.com/?cid=0x0:0xc8a895044b18d7c8
mall,Pusat Perbelanjaan,Manokwari City Mall (MCM),"Jl. Yos Sudarso Manokwari, Manokwari Bar., Kec. Manokwari Bar., Kabupaten Manokwari, Papua Bar. 98312","Manokwari Bar., Kec. Manokwari Bar., Kabupaten Manokwari",PAPUA BARAT,98312.0,Indonesia,8114918899.0,-0.85693,134.0678051,https://maps.google.com/?cid=0x0:0x7e7b90df1d787501
mall,Pusat Perbelanjaan,Mega Mall Sorong,"Jalan Basuki Rahmat Klabulu, Malaimsimsa, Malaingkedi, Kec. Sorong Utara, Kota Sorong, Papua Bar. 98412","Malaimsimsa, Malaingkedi, Kec. Sorong Utara, Kota Sorong",PAPUA BARAT,98412.0,Indonesia,,-0.8873097,131.3012842,https://maps.google.com/?cid=0x0:0x364e52ce8985aa7
mall,Pusat Perbelanjaan,PARAGON SQUARE Mall  Hotel Sorong,"4874+4RH Paragon Square Mall, Jl. Basuki Rahmat Lt. 2, Sawagumu, Kec. Sorong Utara, Kota Sorong, Papua Bar. 98412","Jl. Basuki Rahmat Lt. 2, Sawagumu, Kec. Sorong Utara, Kota Sorong",PAPUA BARAT,98412.0,Indonesia,81247232214.0,-0.8871443,131.3071264,https://maps.google.com/?cid=0x0:0xd02481be48cb6e05
mall,Toko Makanan,Kios Gibran,"MWG3+C2Q, Unnamed Road, Hungku, Distrik Anggi, Kab. Pegunungan Arfak, Papua Bar. 98354","Unnamed Road, Hungku, Distrik Anggi, Kab. Pegunungan Arfak",PAPUA BARAT,98354.0,Indonesia,,-1.3239227,133.9026164,https://maps.google.com/?cid=0x0:0x67920db939302780
mall,Pusat Perbelanjaan,Belakang Manokwari city mall,"43W7+F3H, Manokwari Bar., Kec. Manokwari Bar., Kabupaten Manokwari, Papua Bar. 98312","Manokwari Bar., Kec. Manokwari Bar., Kabupaten Manokwari",PAPUA BARAT,98312.0,Indonesia,,-0.8538079,134.0627452,https://maps.google.com/?cid=0x0:0x59f633fd28048da4
mall,Komplek perumahan,Fanindi Pantai,"43R9+J9P Bar, Padarni, Kec. Manokwari Bar., Kabupaten Manokwari, Papua Bar. 98312","Padarni, Kec. Manokwari Bar., Kabupaten Manokwari",PAPUA BARAT,98312.0,Indonesia,81344477231.0,-0.8584193,134.0684588,https://maps.google.com/?cid=0x0:0xfea55ca67440bcde
mall,Pusat Perbelanjaan,Manokwari City Mall (MCM),"Jl. Yos Sudarso Manokwari, Manokwari Bar., Kec. Manokwari Bar., Kabupaten Manokwari, Papua Bar. 98312","Manokwari Bar., Kec. Manokwari Bar., Kabupaten Manokwari",PAPUA BARAT,98312.0,Indonesia,8114918899.0,-0.85693,134.0678051,https://maps.google.com/?cid=0x0:0x7e7b90df1d787501
mall,Pusat Perbelanjaan,Belakang Manokwari city mall,"43W7+F3H, Manokwari Bar., Kec. Manokwari Bar., Kabupaten Manokwari, Papua Bar. 98312","Manokwari Bar., Kec. Manokwari Bar., Kabupaten Manokwari",PAPUA BARAT,98312.0,Indonesia,,-0.8538079,134.0627452,https://maps.google.com/?cid=0x0:0x59f633fd28048da4
mall,Komplek perumahan,Fanindi Pantai,"43R9+J9P Bar, Padarni, Kec. Manokwari Bar., Kabupaten Manokwari, Papua Bar. 98312","Padarni, Kec. Manokwari Bar., Kabupaten Manokwari",PAPUA BARAT,98312.0,Indonesia,81344477231.0,-0.8584193,134.0684588,https://maps.google.com/?cid=0x0:0xfea55ca67440bcde
mall,Pusat Perbelanjaan,Mall Senayan City,"Jl. Asia Afrika No.Lot 19, Gelora, Kecamatan Tanah Abang, Kota Jakarta Pusat, Daerah Khusus Ibukota Jakarta 10270","Gelora, Kecamatan Tanah Abang, Kota Jakarta Pusat",PAPUA BARAT,10270.0,Indonesia,2172781000.0,-6.2271953,106.7970117,https://maps.google.com/?cid=0x0:0x300c043104acc004
mall,Toserba,METRO Plaza Senayan,"Mall Plaza Senayan, Central Jakarta Ground Floor, Jl. Asia Afrika No.8, RT.1/RW.3, Gelora, Kecamatan Tanah Abang, Kota Jakarta Pusat, Daerah Khusus Ibukota Jakarta 10270","Central Jakarta Ground Floor, Jl. Asia Afrika No.8, RT.1/RW.3, Gelora, Kecamatan Tanah Abang, Kota Jakarta Pusat",PAPUA BARAT,10270.0,Indonesia,215725428.0,-6.2263718,106.7987176,https://maps.google.com/?cid=0x0:0xae0a818b2266470f
mall,Brasserie,UNION Plaza Senayan,"Plaza Senayan, Jl. Asia Afrika No.8 Ground Floor, Gelora, Kecamatan Tanah Abang, Kota Jakarta Pusat, Daerah Khusus Ibukota Jakarta 10270","Jl. Asia Afrika No.8 Ground Floor, Gelora, Kecamatan Tanah Abang, Kota Jakarta Pusat",PAPUA BARAT,10270.0,Indonesia,2157905861.0,-6.224386,106.7990009,https://maps.google.com/?cid=0x0:0xbf8f02390870ee8e
mall,Pusat Perbelanjaan,Mall Plaza Senayan,"Jl. Asia Afrika No.8, RT.1/RW.3, Gelora, Kecamatan Tanah Abang, Kota Jakarta Pusat, Daerah Khusus Ibukota Jakarta 10270","RT.1/RW.3, Gelora, Kecamatan Tanah Abang, Kota Jakarta Pusat",PAPUA BARAT,10270.0,Indonesia,215725555.0,-6.2254775,106.7992649,https://maps.google.com/?cid=0x0:0x788e3a1eef75ac94
mall,Restoran,Monolog Coffee Company Plaza Senayan,"Plaza Senayan Mall, Palm Gate Entrance, Jl. Asia Afrika No.8 CP 101 B, Gelora, Jakarta 10270","Palm Gate Entrance, Jl. Asia Afrika No.8 CP 101 B, Gelora",PAPUA BARAT,10270.0,Indonesia,215725144.0,-6.2255785,106.7990353,https://maps.google.com/?cid=0x0:0x8de7aee6b0e4167d
mall,Ramen,Marutama Ramen,"Sentral Senayan I, Jl. Asia Afrika No.8 Lantai Basement Unit.10BC, RT.1/RW.3, Gelora, Kecamatan Tanah Abang, Kota Jakarta Pusat, Daerah Khusus Ibukota Jakarta 10270","Jl. Asia Afrika No.8 Lantai Basement Unit.10BC, RT.1/RW.3, Gelora, Kecamatan Tanah Abang, Kota Jakarta Pusat",PAPUA BARAT,10270.0,Indonesia,215724050.0,-6.224101,106.7994056,https://maps.google.com/?cid=0x0:0x7072e91e6d5b49a5
mall,Restoran,Bakerzin Plaza Senayan,"Jl. Asia Afrika No.19, RT.1/RW.3, Gelora, Kecamatan Tanah Abang, Kota Jakarta Pusat, Daerah Khusus Ibukota Jakarta 10270","RT.1/RW.3, Gelora, Kecamatan Tanah Abang, Kota Jakarta Pusat",PAPUA BARAT,10270.0,Indonesia,,-6.2271849,106.7972822,https://maps.google.com/?cid=0x0:0xb58c14e9bb2e675a
mall,mall,Papua Bar. 98315,"Kabupaten Manokwari, Papua Bar.","Kabupaten Manokwari, Papua Bar.",PAPUA BARAT,,Indonesia,,-1.0762009,133.4452148,https://maps.google.com/?cid=0x0:0xe20d605d60a391b5
mall,Pusat Perbelanjaan,Manokwari City Mall (MCM),"Jl. Yos Sudarso Manokwari, Manokwari Bar., Kec. Manokwari Bar., Kabupaten Manokwari, Papua Bar. 98312","Manokwari Bar., Kec. Manokwari Bar., Kabupaten Manokwari",PAPUA BARAT,98312.0,Indonesia,8114918899.0,-0.85693,134.0678051,https://maps.google.com/?cid=0x0:0x7e7b90df1d787501
mall,Toko Perlengkapan Rumah,Mitra ilhamiqbal,"223G+PM9, Jl. Manokwari - Bintuni, Doput, Distrik Manokwari, Kabupaten Manokwari, Papua Bar. 98315","Jl. Manokwari - Bintuni, Doput, Distrik Manokwari, Kabupaten Manokwari",PAPUA BARAT,98315.0,Indonesia,81344054885.0,-0.995708,134.02673,https://maps.google.com/?cid=0x0:0x281ad3d2f3150760
mall,Toko bahan makanan,Kalawai Mart,"42GW+JX7, Jl. Drs Esau Sesa, Wosi, Kec. Manokwari Bar., Kabupaten Manokwari, Papua Bar. 98312","Jl. Drs Esau Sesa, Wosi, Kec. Manokwari Bar., Kabupaten Manokwari",PAPUA BARAT,98312.0,Indonesia,82239404628.0,-0.8734685,134.0474365,https://maps.google.com/?cid=0x0:0xa03f46416c062468
mall,Pusat Perbelanjaan,Fita,"6Q7V+X3G, Unnamed Road, Kali Merah, Distrik Masni, Kabupaten Manokwari, Papua Bar. 98357","Unnamed Road, Kali Merah, Distrik Masni, Kabupaten Manokwari",PAPUA BARAT,98357.0,Indonesia,,-0.7850552,133.7926999,https://maps.google.com/?cid=0x0:0xe6bb3d6961a3981c
mall,Toko,Dunia Rack Manokwari,"Jl. Trikora Taman Ria, Sowi, Distrik Manokwari, Kabupaten Manokwari, Papua Bar. 98315","Sowi, Distrik Manokwari, Kabupaten Manokwari",PAPUA BARAT,98315.0,Indonesia,81222247457.0,-0.9154402,134.0373334,https://maps.google.com/?cid=0x0:0x3121253bf1499799
mall,Pusat Perbelanjaan,Pusat produk Nasa,"426W+R6W, Jl. Drs Esau Sesa, Wosi, Kec. Manokwari Bar., Kabupaten Manokwari, Papua Bar. 98315","Jl. Drs Esau Sesa, Wosi, Kec. Manokwari Bar., Kabupaten Manokwari",PAPUA BARAT,98315.0,Indonesia,85292444274.0,-0.8878896,134.0455711,https://maps.google.com/?cid=0x0:0x688c4d2951c510bc
mall,mall,Testega,"Kab. Pegunungan Arfak, Papua Bar.","Kab. Pegunungan Arfak, Papua Bar.",PAPUA BARAT,,Indonesia,,-1.1310182,133.5222313,https://maps.google.com/?cid=0x0:0x7b55dc5dc5535711
mall,Toko bahan makanan,Toko Axel,"Jl. Drs Esau Sesa, Wosi, Kec. Manokwari Bar., Kabupaten Manokwari, Papua Bar. 98312","Wosi, Kec. Manokwari Bar., Kabupaten Manokwari",PAPUA BARAT,98312.0,Indonesia,81330452323.0,-0.8747999,134.0478065,https://maps.google.com/?cid=0x0:0x97bf68176f1bfae
mall,Pasar,BAROKAH 2,"3VPJ+JXR, Desay, Distrik Prafi, Kabupaten Manokwari, Papua Bar. 98356","Desay, Distrik Prafi, Kabupaten Manokwari",PAPUA BARAT,98356.0,Indonesia,85254092288.0,-0.9133997,133.8823875,https://maps.google.com/?cid=0x0:0x20dbaa9222b8b821
mall,Toko,Toko Tangguh,"42JX+8W9, Wosi, Kec. Manokwari Bar., Kabupaten Manokwari, Papua Bar. 98312","Wosi, Kec. Manokwari Bar., Kabupaten Manokwari",PAPUA BARAT,98312.0,Indonesia,,-0.869218,134.0498678,https://maps.google.com/?cid=0x0:0xb7a8a87411d5d22
mall,Pemasok aksesori mebel,Papua Interior Design,"Toko Fajar Bangunan, Jl. Trikora Sowi No.2, Marampa, Manokwari Bar, Manokwari Regency, West Papua 98312","Jl. Trikora Sowi No.2, Marampa, Manokwari Bar, Manokwari Regency",PAPUA BARAT,98312.0,Indonesia,82210468918.0,-0.9062417,134.0359215,https://maps.google.com/?cid=0x0:0x5bee2e8bf9fb537a
mall,Toko Kesehatan dan Kecantikan,Al Haedar,"42HX+9M9, Jl. Pasir, Wosi, Papua Bar.",Papua Bar.,PAPUA BARAT,,Indonesia,,-0.8715971,134.0492491,https://maps.google.com/?cid=0x0:0xda42612c1ad6f599
mall,Toko,Fitri Syamsul,"3262+MPJ, Jl. Manokwari - Maruni, Anday, Distrik Manokwari, Kabupaten Manokwari, Papua Bar. 98315","Jl. Manokwari - Maruni, Anday, Distrik Manokwari, Kabupaten Manokwari",PAPUA BARAT,98315.0,Indonesia,82248203152.0,-0.9382989,134.0017807,https://maps.google.com/?cid=0x0:0xef0f65a0e5132fb8
mall,mall,Papua Bar. 98352,"Kabupaten Manokwari, Papua Bar.","Kabupaten Manokwari, Papua Bar.",PAPUA BARAT,,Indonesia,,-1.0122519,133.9055155,https://maps.google.com/?cid=0x0:0x665ab61075e0d624
mall,Pasar,BAROKAH 2,"3VPJ+JXR, Desay, Distrik Prafi, Kabupaten Manokwari, Papua Bar. 98356","Desay, Distrik Prafi, Kabupaten Manokwari",PAPUA BARAT,98356.0,Indonesia,85254092288.0,-0.9133997,133.8823875,https://maps.google.com/?cid=0x0:0x20dbaa9222b8b821
mall,Pusat Perbelanjaan,Pasar Warmare,"2XH3+92V, Umcen, Kec. Warmare, Kabupaten Manokwari, Papua Bar. 98352","Umcen, Kec. Warmare, Kabupaten Manokwari",PAPUA BARAT,98352.0,Indonesia,,-0.9715019,133.9525521,https://maps.google.com/?cid=0x0:0xb955e8fe56eaf987
mall,Pusat Perbelanjaan,Manokwari City Mall (MCM),"Jl. Yos Sudarso Manokwari, Manokwari Bar., Kec. Manokwari Bar., Kabupaten Manokwari, Papua Bar. 98312","Manokwari Bar., Kec. Manokwari Bar., Kabupaten Manokwari",PAPUA BARAT,98312.0,Indonesia,8114918899.0,-0.85693,134.0678051,https://maps.google.com/?cid=0x0:0x7e7b90df1d787501
mall,Toko Perlengkapan Rumah,Mitra ilhamiqbal,"223G+PM9, Jl. Manokwari - Bintuni, Doput, Distrik Manokwari, Kabupaten Manokwari, Papua Bar. 98315","Jl. Manokwari - Bintuni, Doput, Distrik Manokwari, Kabupaten Manokwari",PAPUA BARAT,98315.0,Indonesia,81344054885.0,-0.995708,134.02673,https://maps.google.com/?cid=0x0:0x281ad3d2f3150760
mall,Toko,Qiara Travel,"Unnamed Road, Prafi Mulia, Distrik Prafi, Kabupaten Manokwari, Papua Bar. 98352","Prafi Mulia, Distrik Prafi, Kabupaten Manokwari",PAPUA BARAT,98352.0,Indonesia,85244245740.0,-0.9142662,133.8940632,https://maps.google.com/?cid=0x0:0x4126a3ca4100b324
mall,mall,Testega,"Kab. Pegunungan Arfak, Papua Bar.","Kab. Pegunungan Arfak, Papua Bar.",PAPUA BARAT,,Indonesia,,-1.1310182,133.5222313,https://maps.google.com/?cid=0x0:0x7b55dc5dc5535711
mall,Pusat Perbelanjaan,Toserba PRAFI INDAH,"4RCM+M94, Udapi Hilir, Distrik Prafi, Kabupaten Manokwari, Papua Bar. 98356","Udapi Hilir, Distrik Prafi, Kabupaten Manokwari",PAPUA BARAT,98356.0,Indonesia,81248929649.0,-0.8783629,133.8334382,https://maps.google.com/?cid=0x0:0xb249f2095645ca6
mall,Pusat Perbelanjaan,Toko Aulian,"3WJ2+28X, Jalur 1, Prafi Mulia, Distrik Prafi, Kabupaten Manokwari, Papua Bar. 98352","Jalur 1, Prafi Mulia, Distrik Prafi, Kabupaten Manokwari",PAPUA BARAT,98352.0,Indonesia,,-0.9198829,133.900859,https://maps.google.com/?cid=0x0:0xc6bb938d92bf3422
mall,Minimarket,HADI MART,"4R69+JQ7, Udapi Hilir, Distrik Prafi, Kabupaten Manokwari, Papua Bar.","Kabupaten Manokwari, Papua Bar.",PAPUA BARAT,,Indonesia,,-0.8881049,133.8190029,https://maps.google.com/?cid=0x0:0x6098dac7ad9de118
mall,Toko bahan makanan,Kalawai Mart,"42GW+JX7, Jl. Drs Esau Sesa, Wosi, Kec. Manokwari Bar., Kabupaten Manokwari, Papua Bar. 98312","Jl. Drs Esau Sesa, Wosi, Kec. Manokwari Bar., Kabupaten Manokwari",PAPUA BARAT,98312.0,Indonesia,82239404628.0,-0.8734685,134.0474365,https://maps.google.com/?cid=0x0:0xa03f46416c062468
mall,Toko Swalayan,Ari Cakra / Ruko Tumper,"4R8C+79W, Bar, Udapi Hilir, Distrik Prafi, Kabupaten Manokwari, Papua Bar. 98356","Bar, Udapi Hilir, Distrik Prafi, Kabupaten Manokwari",PAPUA BARAT,98356.0,Indonesia,81248273515.0,-0.8842605,133.8209488,https://maps.google.com/?cid=0x0:0x70f17f6d133c6822
mall,Toko,Dunia Rack Manokwari,"Jl. Trikora Taman Ria, Sowi, Distrik Manokwari, Kabupaten Manokwari, Papua Bar. 98315","Sowi, Distrik Manokwari, Kabupaten Manokwari",PAPUA BARAT,98315.0,Indonesia,81222247457.0,-0.9154402,134.0373334,https://maps.google.com/?cid=0x0:0x3121253bf1499799
mall,Pemasok aksesori mebel,Papua Interior Design,"Toko Fajar Bangunan, Jl. Trikora Sowi No.2, Marampa, Manokwari Bar, Manokwari Regency, West Papua 98312","Jl. Trikora Sowi No.2, Marampa, Manokwari Bar, Manokwari Regency",PAPUA BARAT,98312.0,Indonesia,82210468918.0,-0.9062417,134.0359215,https://maps.google.com/?cid=0x0:0x5bee2e8bf9fb537a
mall,mall,Papua Bar. 98357,"Kabupaten Manokwari, Papua Bar.","Kabupaten Manokwari, Papua Bar.",PAPUA BARAT,,Indonesia,,-0.8227418,133.5606946,https://maps.google.com/?cid=0x0:0x3e375139d962692c
mall,Pusat Perbelanjaan,Fita,"6Q7V+X3G, Unnamed Road, Kali Merah, Distrik Masni, Kabupaten Manokwari, Papua Bar. 98357","Unnamed Road, Kali Merah, Distrik Masni, Kabupaten Manokwari",PAPUA BARAT,98357.0,Indonesia,,-0.7850552,133.7926999,https://maps.google.com/?cid=0x0:0xe6bb3d6961a3981c
mall,mall,Testega,"Kab. Pegunungan Arfak, Papua Bar.","Kab. Pegunungan Arfak, Papua Bar.",PAPUA BARAT,,Indonesia,,-1.1310182,133.5222313,https://maps.google.com/?cid=0x0:0x7b55dc5dc5535711
mall,Pusat Perbelanjaan,Ita,"5HW9+W7, Meyof I, Distrik Sidey, Kabupaten Manokwari, Papua Bar.","Kabupaten Manokwari, Papua Bar.",PAPUA BARAT,,Indonesia,,-0.8026335,133.5681788,https://maps.google.com/?cid=0x0:0x799cf323886155ab
mall,Pusat Perbelanjaan,Toserba PRAFI INDAH,"4RCM+M94, Udapi Hilir, Distrik Prafi, Kabupaten Manokwari, Papua Bar. 98356","Udapi Hilir, Distrik Prafi, Kabupaten Manokwari",PAPUA BARAT,98356.0,Indonesia,81248929649.0,-0.8783629,133.8334382,https://maps.google.com/?cid=0x0:0xb249f2095645ca6
mall,Toko,Toko Sahabat Anda,"4QVJ+QMV, Macuan, Distrik Masni, Kabupaten Manokwari, Papua Bar. 98356","Macuan, Distrik Masni, Kabupaten Manokwari",PAPUA BARAT,98356.0,Indonesia,85244596324.0,-0.855501,133.7816592,https://maps.google.com/?cid=0x0:0xd80119a794a57fd7
mall,Pusat Perbelanjaan,Papa Dika,"4RF6+MVC, Waseki Indah, Distrik Prafi, Kabupaten Manokwari, Papua Bar. 98356","Waseki Indah, Distrik Prafi, Kabupaten Manokwari",PAPUA BARAT,98356.0,Indonesia,85258009788.0,-0.8758135,133.8121396,https://maps.google.com/?cid=0x0:0xa4eaf29aa9267a2
mall,Toko,Lapak ''Mbak Mi'',"4RF6+4X3, Waseki Indah, Distrik Prafi, Kabupaten Manokwari, Papua Bar. 98356","Waseki Indah, Distrik Prafi, Kabupaten Manokwari",PAPUA BARAT,98356.0,Indonesia,,-0.8772362,133.8124245,https://maps.google.com/?cid=0x0:0xe6a67d1ebd34d292
mall,Pusat Perbelanjaan,Manokwari City Mall (MCM),"Jl. Yos Sudarso Manokwari, Manokwari Bar., Kec. Manokwari Bar., Kabupaten Manokwari, Papua Bar. 98312","Manokwari Bar., Kec. Manokwari Bar., Kabupaten Manokwari",PAPUA BARAT,98312.0,Indonesia,8114918899.0,-0.85693,134.0678051,https://maps.google.com/?cid=0x0:0x7e7b90df1d787501
mall,Toko,KIOS POJOK AURMIOS,"6J2X+HF, Aurmios, Distrik Masni, Kabupaten Manokwari, Papua Bar. 98357","Aurmios, Distrik Masni, Kabupaten Manokwari",PAPUA BARAT,98357.0,Indonesia,,-0.7986116,133.6486903,https://maps.google.com/?cid=0x0:0x1bdd8b4a673ccc7f
mall,Toko bahan makanan,Kios Mama Nina,"6J9X+P8X, Kampung kamantiar, Aurmios, warikon, Kabupaten Manokwari, Papua Bar. 98357","Kampung kamantiar, Aurmios, warikon, Kabupaten Manokwari",PAPUA BARAT,98357.0,Indonesia,,-0.7806323,133.6483463,https://maps.google.com/?cid=0x0:0x1c82adb8965aebe4
mall,Toko bahan makanan,Kios duduk,"5Q2J+F3G, Macuan, Distrik Masni, Kabupaten Manokwari, Papua Bar.","Kabupaten Manokwari, Papua Bar.",PAPUA BARAT,,Indonesia,,-0.8488012,133.7802113,https://maps.google.com/?cid=0x0:0xa1d39dc9e8f38c30
mall,Toko Swalayan,Ari Cakra / Ruko Tumper,"4R8C+79W, Bar, Udapi Hilir, Distrik Prafi, Kabupaten Manokwari, Papua Bar. 98356","Bar, Udapi Hilir, Distrik Prafi, Kabupaten Manokwari",PAPUA BARAT,98356.0,Indonesia,81248273515.0,-0.8842605,133.8209488,https://maps.google.com/?cid=0x0:0x70f17f6d133c6822
mall,Toko Kue,Cita Cake  Cookies,"4RFJ+36X, Unnamed Road, Udapi Hilir, Distrik Prafi, Kabupaten Manokwari, Papua Bar. 98356","Unnamed Road, Udapi Hilir, Distrik Prafi, Kabupaten Manokwari",PAPUA BARAT,98356.0,Indonesia,82197590975.0,-0.8772529,133.8306072,https://maps.google.com/?cid=0x0:0x6857b8318baa9232
supermarket,supermarket,Distrik Anggi,"Kab. Pegunungan Arfak, Papua Bar.","Kab. Pegunungan Arfak, Papua Bar.",PAPUA BARAT,,Indonesia,,-1.3260424,133.9158721,https://maps.google.com/?cid=0x0:0xfcf8f2554dc74d7d
supermarket,Pusat Perbelanjaan,Toko anggi jaya,"MWF7+6VJ Snomeba/Snoembebaba Airport, Imbai, Distrik Anggi, Kabupaten Manokwari, Papua Bar. 98354","Imbai, Distrik Anggi, Kabupaten Manokwari",PAPUA BARAT,98354.0,Indonesia,82399480074.0,-1.3269171,133.9146373,https://maps.google.com/?cid=0x0:0xfbef5cdf383f76ce
supermarket,Printer Digital,AzrielPrint,"MWG4+F9F, Hungku, Distrik Anggi, Kabupaten Manokwari, Papua Bar. 98354","Hungku, Distrik Anggi, Kabupaten Manokwari",PAPUA BARAT,98354.0,Indonesia,81248941243.0,-1.3238132,133.9059269,https://maps.google.com/?cid=0x0:0x1bdc9bdbb4f9f638
supermarket,Toko Swalayan,Anggi shop,"HRQ2+XR3, Jl. Gg. Kopi Jl. Pitara, Pancoran MAS, Kec. Pancoran Mas, Kota Depok, Jawa Barat 16436","Jl. Gg. Kopi Jl. Pitara, Pancoran MAS, Kec. Pancoran Mas, Kota Depok",PAPUA BARAT,16436.0,Indonesia,83875482019.0,-6.410113,106.80204,https://maps.google.com/?cid=0x0:0x5201869f6d29e354
supermarket,Toko Swalayan,Warung Anggi,"Gg. Golf Jl. Raya Parung Bingung No.4, RT.04/RW.13, Rangkapan Jaya Baru, Kec. Pancoran Mas, Kota Depok, Jawa Barat 16434","RT.04/RW.13, Rangkapan Jaya Baru, Kec. Pancoran Mas, Kota Depok",PAPUA BARAT,16434.0,Indonesia,,-6.3896932,106.7718358,https://maps.google.com/?cid=0x0:0x8c6c9e91a698e115
supermarket,Toko Swalayan,Toko Anggie,"Jl. Situ Pete No.35-32, RT.02/RW.09, Sukadamai, Kec. Tanah Sereal, Kota Bogor, Jawa Barat 16165","RT.02/RW.09, Sukadamai, Kec. Tanah Sereal, Kota Bogor",PAPUA BARAT,16165.0,Indonesia,8978527991.0,-6.5502319,106.785981,https://maps.google.com/?cid=0x0:0xabb83941298ca04d
supermarket,Toko bahan makanan,Toko Anggi,"Gg. Musholla Nurul Huda IV No.60-71, Pd. Aren, Kec. Pd. Aren, Kota Tangerang Selatan, Banten 15224","Pd. Aren, Kec. Pd. Aren, Kota Tangerang Selatan",PAPUA BARAT,15224.0,Indonesia,,-6.2615422,106.7120192,https://maps.google.com/?cid=0x0:0xe2f2985368a0d097
supermarket,Minimarket,Warung Anggit,"MQJ8+654, Jl. Karya, Pisangan, Kec. Ciputat Tim., Kota Tangerang Selatan, Banten 15419","Jl. Karya, Pisangan, Kec. Ciputat Tim., Kota Tangerang Selatan",PAPUA BARAT,15419.0,Indonesia,,-6.3194813,106.7654458,https://maps.google.com/?cid=0x0:0x7ec0ea81084db8ef
supermarket,Toko Swalayan,Amin.mart,"Jl. Gn. Indah VI No.24, Cireundeu, Kec. Ciputat Tim., Kota Tangerang Selatan, Banten 15419","Cireundeu, Kec. Ciputat Tim., Kota Tangerang Selatan",PAPUA BARAT,15419.0,Indonesia,217412584.0,-6.3074639,106.7669316,https://maps.google.com/?cid=0x0:0xfc002daaf92da8a6
supermarket,Toko bahan makanan,Toko Anggi,"Blok B21, Jl. RE Martadinata, Ciputat, South Tangerang City, Banten 15411","Jl. RE Martadinata, Ciputat, South Tangerang City",PAPUA BARAT,15411.0,Indonesia,81360009883.0,-6.3244045,106.746276,https://maps.google.com/?cid=0x0:0x43053bfe19b2a404
supermarket,Toko bahan makanan,TOKO ANGGI,"Jl. Sungai Barito No.Rt.02/01 # 27 2, RT.2/RW.1, Semper Bar., Kec. Cilincing, Jkt Utara, Daerah Khusus Ibukota Jakarta 14130","RT.2/RW.1, Semper Bar., Kec. Cilincing, Jkt Utara",PAPUA BARAT,14130.0,Indonesia,87882438055.0,-6.1290593,106.9192801,https://maps.google.com/?cid=0x0:0x96a1f80644f68398
supermarket,Toko Swalayan,Toko Anggi,"jl.kalianyar raya Rt.006/04 no.1, RT.4/RW.4, Kali Anyar, Kec. Tambora, Kota Jakarta Barat, Daerah Khusus Ibukota Jakarta 11310","RT.4/RW.4, Kali Anyar, Kec. Tambora, Kota Jakarta Barat",PAPUA BARAT,11310.0,Indonesia,,-6.1580582,106.798504,https://maps.google.com/?cid=0x0:0x4c08e51a7b9211fd
supermarket,Minimarket,Warung Anggita,"Jl. Kayu Manis VII No.11A 2, RT.2/RW.7, Kayu Manis, Kec. Matraman, Kota Jakarta Timur, Daerah Khusus Ibukota Jakarta 13130","RT.2/RW.7, Kayu Manis, Kec. Matraman, Kota Jakarta Timur",PAPUA BARAT,13130.0,Indonesia,85230943768.0,-6.2048157,106.8618142,https://maps.google.com/?cid=0x0:0x92ef5e7f910f2f32
supermarket,Pusat Perbelanjaan,Warung Anggi,"Jl. Nias perumahan pondok aren No.1, RT.05/RW.02, Ciluar, Kec. Bogor Utara, Kota Bogor, Jawa Barat 16156","RT.05/RW.02, Ciluar, Kec. Bogor Utara, Kota Bogor",PAPUA BARAT,16156.0,Indonesia,,-6.5548461,106.8281012,https://maps.google.com/?cid=0x0:0xe001930ca64fa642
supermarket,supermarket,Kec. Anggi Gida,"Kab. Pegunungan Arfak, Papua Bar.","Kab. Pegunungan Arfak, Papua Bar.",PAPUA BARAT,,Indonesia,,-1.3668114,133.9609514,https://maps.google.com/?cid=0x0:0xb4bc71d5f83c5185
supermarket,supermarket,Anggi Gida,"Kab. Pegunungan Arfak, Papua Bar.","Kab. Pegunungan Arfak, Papua Bar.",PAPUA BARAT,,Indonesia,,-1.3958835,133.9722816,https://maps.google.com/?cid=0x0:0x8008ad12448ea805
supermarket,supermarket,Danau Anggi Gida,"Kab. Pegunungan Arfak, Papua Bar.","Kab. Pegunungan Arfak, Papua Bar.",PAPUA BARAT,,Indonesia,,-1.3963314,133.9532149,https://maps.google.com/?cid=0x0:0xd222eb659585412a
supermarket,supermarket,PASAR RAKYAT ANGGI GIDA,"JXM6+787, Ingisrow, Kec. Anggi Gida, Kabupaten Manokwari, Papua Bar. 98354","Ingisrow, Kec. Anggi Gida, Kabupaten Manokwari",PAPUA BARAT,98354.0,Indonesia,,-1.3668414,133.9607842,https://maps.google.com/?cid=0x0:0x9471fec486dbb789
supermarket,supermarket,Papua Bar. 98358,"Kabupaten Manokwari, Papua Bar.","Kabupaten Manokwari, Papua Bar.",PAPUA BARAT,,Indonesia,,-1.0707188,133.7525619,https://maps.google.com/?cid=0x0:0x566a5a268f3890ee
supermarket,Toko Swalayan,PT. ANGGUN SWALAYAN,"Unnamed Road, Papua Bar. 98356, Udapi Hilir, Distrik Prafi, Kabupaten Manokwari, Papua Bar. 98356",Papua Bar.,PAPUA BARAT,98356.0,Indonesia,,-0.8765216,133.8291573,https://maps.google.com/?cid=0x0:0x25497da2a488e925
supermarket,supermarket,Kampung Tomstera distrik sururey,"RPV7+VPF, Unti, Distrik Catubouw, Kab. Pegunungan Arfak, Papua Bar.","Kab. Pegunungan Arfak, Papua Bar.",PAPUA BARAT,,Indonesia,,-1.1553114,133.7142831,https://maps.google.com/?cid=0x0:0xfdf450e858dc9229
supermarket,Toko Swalayan,pravit,"4R99+3CV sp 3, jl. raya, kampung aimasi, Distrik Prafi, Kabupaten Manokwari, Papua Bar.","Kabupaten Manokwari, Papua Bar.",PAPUA BARAT,,Indonesia,,-0.8822668,133.8185332,https://maps.google.com/?cid=0x0:0x772180392091d070
supermarket,Toko,Kios Ari1,"4RC8+27P, Waseki Indah, Distrik Prafi, Kabupaten Manokwari, Papua Bar. 98356","Waseki Indah, Distrik Prafi, Kabupaten Manokwari",PAPUA BARAT,98356.0,Indonesia,82399106766.0,-0.8799178,133.8156997,https://maps.google.com/?cid=0x0:0xb2e8069c11d42ee2
supermarket,Toko bahan makanan,Kios ABID,"3VJV+849, Unnamed Road, Prafi Mulia, Distrik Prafi, Kabupaten Manokwari, Papua Bar. 98352","Unnamed Road, Prafi Mulia, Distrik Prafi, Kabupaten Manokwari",PAPUA BARAT,98352.0,Indonesia,85244027521.0,-0.9192097,133.8928584,https://maps.google.com/?cid=0x0:0x465a98b0249b96b1
supermarket,Minimarket,toko thiara,"3VWP+Q86, Desay, Distrik Prafi, Kabupaten Manokwari, Papua Bar. 98356","Desay, Distrik Prafi, Kabupaten Manokwari",PAPUA BARAT,98356.0,Indonesia,82198142255.0,-0.9030835,133.8857549,https://maps.google.com/?cid=0x0:0xa1c181c3cb79e0e3
supermarket,Toko,Toko Tapanuli Jaya ( Sinaga ),"Jln. Merpati SP 4, Udapi Hilir, Distrik Prafi, Kabupaten Manokwari, Papua Bar. 98356","Udapi Hilir, Distrik Prafi, Kabupaten Manokwari",PAPUA BARAT,98356.0,Indonesia,81370126543.0,-0.876799,133.8286786,https://maps.google.com/?cid=0x0:0xb117b9a8f7d4a0e6
supermarket,Toko,TATA MART,"4R8F+WGV, Udapi Hilir, Distrik Prafi, Kabupaten Manokwari, Papua Bar. 98356","Udapi Hilir, Distrik Prafi, Kabupaten Manokwari",PAPUA BARAT,98356.0,Indonesia,,-0.882548,133.8237803,https://maps.google.com/?cid=0x0:0x61b664dd362ecf73
supermarket,Pusat Perbelanjaan,Papua Supermarket  Dept. Store,"4869+F77 Bar, Sawagumu, Kec. Sorong Utara, Kota Sorong, Papua Bar. 98416","Sawagumu, Kec. Sorong Utara, Kota Sorong",PAPUA BARAT,98416.0,Indonesia,9513160123.0,-0.888831,131.3181847,https://maps.google.com/?cid=0x0:0x7b5f0926a74ad213
supermarket,Toko Pertanian,KIOS HIJAU,"3VPJ+8JG, Desay, Distrik Prafi, Kabupaten Manokwari, Papua Bar. 98356","Desay, Distrik Prafi, Kabupaten Manokwari",PAPUA BARAT,98356.0,Indonesia,82399497770.0,-0.9141931,133.8815923,https://maps.google.com/?cid=0x0:0xe9f7a609f32810a9
supermarket,Pasar,7NAGA SWALAYAN Sp3 prafi Manokwari,"depan bank papua, Jl. Poros No.sp 3, Waseki Indah, Distrik Prafi, Kabupaten Manokwari, Papua Bar. 98356","Jl. Poros No.sp 3, Waseki Indah, Distrik Prafi, Kabupaten Manokwari",PAPUA BARAT,98356.0,Indonesia,85211934307.0,-0.8814679,133.8180343,https://maps.google.com/?cid=0x0:0x4ab419fa3fd0a1bd
supermarket,Pusat Perbelanjaan,Toko anggi jaya,"MWF7+6VJ Snomeba/Snoembebaba Airport, Imbai, Distrik Anggi, Kabupaten Manokwari, Papua Bar. 98354","Imbai, Distrik Anggi, Kabupaten Manokwari",PAPUA BARAT,98354.0,Indonesia,82399480074.0,-1.3269171,133.9146373,https://maps.google.com/?cid=0x0:0xfbef5cdf383f76ce
supermarket,Toko Pertanian,Toko Wonosari Tani#Hijab Nadhifa,"4RCG+GQM, Jl. Merpati, Udapi Hilir, Distrik Prafi, Kabupaten Manokwari, Papua Bar. 98356","Jl. Merpati, Udapi Hilir, Distrik Prafi, Kabupaten Manokwari",PAPUA BARAT,98356.0,Indonesia,82238515584.0,-0.8786593,133.8269165,https://maps.google.com/?cid=0x0:0x53c00044807d4b18
supermarket,supermarket,Papua Bar. 98359,Papua Bar.,Papua Bar.,PAPUA BARAT,,Indonesia,,-1.5213839,133.7525619,https://maps.google.com/?cid=0x0:0xc8a895044b18d7c8
supermarket,Kantor Perusahaan,Supermarket GOTA,"4868+2X3, Jl. Sungai Maruni, Sawagumu, Distrik Sorong Timur, Kota Sorong, Papua Bar. 98416","Jl. Sungai Maruni, Sawagumu, Distrik Sorong Timur, Kota Sorong",PAPUA BARAT,98416.0,Indonesia,,-0.8900646,131.3173945,https://maps.google.com/?cid=0x0:0xe80a2989cd86300
supermarket,Pusat Perbelanjaan,Papua Supermarket  Dept. Store,"4869+F77 Bar, Sawagumu, Kec. Sorong Utara, Kota Sorong, Papua Bar. 98416","Sawagumu, Kec. Sorong Utara, Kota Sorong",PAPUA BARAT,98416.0,Indonesia,9513160123.0,-0.888831,131.3181847,https://maps.google.com/?cid=0x0:0x7b5f0926a74ad213
supermarket,Toko,Toko Anggi jaya,"43Q8+JHW, Jl. Yos Sudarso Manokwari, Manokwari Bar., Kec. Manokwari Bar., Kabupaten Manokwari, Papua Bar. 98312","Jl. Yos Sudarso Manokwari, Manokwari Bar., Kec. Manokwari Bar., Kabupaten Manokwari",PAPUA BARAT,98312.0,Indonesia,,-0.8608856,134.0664437,https://maps.google.com/?cid=0x0:0xfdb3f180ecb67984
supermarket,supermarket,Hingk,"Kab. Pegunungan Arfak, Papua Bar.","Kab. Pegunungan Arfak, Papua Bar.",PAPUA BARAT,,Indonesia,,-1.2205844,133.9627492,https://maps.google.com/?cid=0x0:0x3f01e43bc4522fcd
supermarket,Pusat Perbelanjaan,Hadi supermarket,"32XQ+W6X, Sowi, Distrik Manokwari, Kabupaten Manokwari, Papua Bar.","Kabupaten Manokwari, Papua Bar.",PAPUA BARAT,,Indonesia,,-0.9001308,134.0381223,https://maps.google.com/?cid=0x0:0xe361d5fae3f38b24
supermarket,Toko,Toko BERINGIN,"42HX+7F9, Jl. Trikora Rendani, Wosi, Kec. Manokwari Bar., Kabupaten Manokwari, Papua Bar. 98312","Jl. Trikora Rendani, Wosi, Kec. Manokwari Bar., Kabupaten Manokwari",PAPUA BARAT,98312.0,Indonesia,,-0.8718349,134.04874,https://maps.google.com/?cid=0x0:0x224dd396e71e5c8d
supermarket,Toko Swalayan,Orchid Mart Taman Ria,"42GX+PG9, Jl. Trikora Rendani, Wosi, Kec. Manokwari Bar., Kabupaten Manokwari, Papua Bar. 98312","Jl. Trikora Rendani, Wosi, Kec. Manokwari Bar., Kabupaten Manokwari",PAPUA BARAT,98312.0,Indonesia,9862214900.0,-0.8732036,134.0488716,https://maps.google.com/?cid=0x0:0x8e7d672683eda775
supermarket,Pasar,Rayna Mart,"3299+V6J, Jl. Manokwari - Maruni, Anday, Distrik Manokwari, Kabupaten Manokwari, Papua Bar. 98315","Jl. Manokwari - Maruni, Anday, Distrik Manokwari, Kabupaten Manokwari",PAPUA BARAT,98315.0,Indonesia,,-0.9302797,134.0180044,https://maps.google.com/?cid=0x0:0xd03fbe6e4931b509
supermarket,Toko Swalayan,TOKO NAGAMAS,"Jl. Trikora Arfai 2, Anday, Distrik Manokwari, Kabupaten Manokwari, Papua Bar. 98315","Anday, Distrik Manokwari, Kabupaten Manokwari",PAPUA BARAT,98315.0,Indonesia,81344606452.0,-0.9316606,134.0161149,https://maps.google.com/?cid=0x0:0xca638fa5f96368e
supermarket,Toko Swalayan,PT. ANGGUN SWALAYAN,"Unnamed Road, Papua Bar. 98356, Udapi Hilir, Distrik Prafi, Kabupaten Manokwari, Papua Bar. 98356",Papua Bar.,PAPUA BARAT,98356.0,Indonesia,,-0.8765216,133.8291573,https://maps.google.com/?cid=0x0:0x25497da2a488e925
supermarket,Toko bahan makanan,M Mart,"3298+CF6, Jl. Manokwari - Maruni, Anday, Distrik Manokwari, Kabupaten Manokwari, Papua Bar. 98315","Jl. Manokwari - Maruni, Anday, Distrik Manokwari, Kabupaten Manokwari",PAPUA BARAT,98315.0,Indonesia,,-0.9314628,134.0161443,https://maps.google.com/?cid=0x0:0x875c29792e1da315
supermarket,Minimarket,Kios Merah Anday,"Anday, Distrik Manokwari, Kabupaten Manokwari, Papua Bar. 98315","Distrik Manokwari, Kabupaten Manokwari",PAPUA BARAT,98315.0,Indonesia,85218713512.0,-0.9324459,134.0114189,https://maps.google.com/?cid=0x0:0xce53730c2173a74c
supermarket,Toko umum,Rumah dijual kios kezia maripi,"Jl. Manokwari - Bintuni, Maripi, Distrik Manokwari, Kabupaten Manokwari, Papua Bar. 98315","Maripi, Distrik Manokwari, Kabupaten Manokwari",PAPUA BARAT,98315.0,Indonesia,82199380339.0,-0.9533922,134.0019071,https://maps.google.com/?cid=0x0:0xf77a170dc66b3dba
supermarket,Toko Makanan Sehat,Toko Bambu Kuning,"32JQ+6QW, jln.trikora, Sowi, Distrik Manokwari, Kabupaten Manokwari, Papua Bar. 98315","jln.trikora, Sowi, Distrik Manokwari, Kabupaten Manokwari",PAPUA BARAT,98315.0,Indonesia,,-0.9193866,134.039448,https://maps.google.com/?cid=0x0:0xb10505a43bf03636
supermarket,Toko bahan makanan,Kios yunhie,"Unnamed Road, Sowi, Distrik Manokwari, Kabupaten Manokwari, Papua Bar. 98315","Sowi, Distrik Manokwari, Kabupaten Manokwari",PAPUA BARAT,98315.0,Indonesia,82238560682.0,-0.8877825,134.0324049,https://maps.google.com/?cid=0x0:0x4b02b8d32949f3d4
supermarket,Toko Swalayan,BERINGIN Fresh Mart,"32HV+3QM Arfai, Sowi, Distrik Manokwari, Kabupaten Manokwari, Papua Bar. 98315","Sowi, Distrik Manokwari, Kabupaten Manokwari",PAPUA BARAT,98315.0,Indonesia,,-0.922286,134.0444094,https://maps.google.com/?cid=0x0:0x94e44e9f58daf0e2
supermarket,Toko Swalayan,Swalayan new harapan,"Jl. Trans Papua No.km. 2, Persatuan, Mandobo, Boven Digoel Regency, Papua 99663","Persatuan, Mandobo, Boven Digoel Regency",PAPUA BARAT,99663.0,Indonesia,81248781111.0,-6.1254842,140.3275427,https://maps.google.com/?cid=0x0:0xdcc4bfc1d76c22dd
supermarket,supermarket,Kec. Membey,"Kab. Pegunungan Arfak, Papua Bar.","Kab. Pegunungan Arfak, Papua Bar.",PAPUA BARAT,,Indonesia,,-1.3416452,134.0336402,https://maps.google.com/?cid=0x0:0x6db50f43a0973078
supermarket,Pusat Perbelanjaan,Toko anggi jaya,"MWF7+6VJ Snomeba/Snoembebaba Airport, Imbai, Distrik Anggi, Kabupaten Manokwari, Papua Bar. 98354","Imbai, Distrik Anggi, Kabupaten Manokwari",PAPUA BARAT,98354.0,Indonesia,82399480074.0,-1.3269171,133.9146373,https://maps.google.com/?cid=0x0:0xfbef5cdf383f76ce
supermarket,Pusat Perbelanjaan,Hadi supermarket,"32XQ+W6X, Sowi, Distrik Manokwari, Kabupaten Manokwari, Papua Bar.","Kabupaten Manokwari, Papua Bar.",PAPUA BARAT,,Indonesia,,-0.9001308,134.0381223,https://maps.google.com/?cid=0x0:0xe361d5fae3f38b24
supermarket,Minimarket,Kios Merah Anday,"Anday, Distrik Manokwari, Kabupaten Manokwari, Papua Bar. 98315","Distrik Manokwari, Kabupaten Manokwari",PAPUA BARAT,98315.0,Indonesia,85218713512.0,-0.9324459,134.0114189,https://maps.google.com/?cid=0x0:0xce53730c2173a74c
supermarket,Toko bahan makanan,Kalawai Mart,"42GW+JX7, Jl. Drs Esau Sesa, Wosi, Kec. Manokwari Bar., Kabupaten Manokwari, Papua Bar. 98312","Jl. Drs Esau Sesa, Wosi, Kec. Manokwari Bar., Kabupaten Manokwari",PAPUA BARAT,98312.0,Indonesia,82239404628.0,-0.8734685,134.0474365,https://maps.google.com/?cid=0x0:0xa03f46416c062468
supermarket,Toko,Abadimart,"M6MH+M34, Jl. Manokwari - Bintuni, Sindang Jaya, Kec. Oransbari, Kab. Manokwari Selatan, Papua Bar. 98353","Jl. Manokwari - Bintuni, Sindang Jaya, Kec. Oransbari, Kab. Manokwari Selatan",PAPUA BARAT,98353.0,Indonesia,81217219693.0,-1.3158629,134.2277172,https://maps.google.com/?cid=0x0:0xc337dcce5b722689
supermarket,Toko bahan makanan,Grocery Outlet,"900 Meridian Ave E Ste 36, Milton, WA 98354, Amerika Serikat","Milton, WA",PAPUA BARAT,98354.0,Indonesia,12532814740.0,47.2465257,-122.2955516,https://maps.google.com/?cid=0x0:0xb35d69bde32dea8
supermarket,Toko bahan makanan,A Grocery,"505 Meridian Ave E, Edgewood, WA 98371, Amerika Serikat","Edgewood, WA",PAPUA BARAT,98371.0,Indonesia,12539270505.0,47.2528616,-122.293236,https://maps.google.com/?cid=0x0:0xf50f1a9bbd9a0f3e
supermarket,Pusat Perbelanjaan,Surprise Lake Square,"900 Meridian Ave E, Milton, WA 98354, Amerika Serikat","Milton, WA",PAPUA BARAT,98354.0,Indonesia,,47.2489044,-122.2958994,https://maps.google.com/?cid=0x0:0x325c175c8164c496
supermarket,supermarket,Papua Bar. 98359,Papua Bar.,Papua Bar.,PAPUA BARAT,,Indonesia,,-1.5213839,133.7525619,https://maps.google.com/?cid=0x0:0xc8a895044b18d7c8
supermarket,Toko Swalayan,Surya Mart,"C8V2+G83, Jl. Irian Kepi, Kepi, Kec. Obaa, Kabupaten Mappi, Papua 99881","Jl. Irian Kepi, Kepi, Kec. Obaa, Kabupaten Mappi",PAPUA BARAT,99881.0,Indonesia,85254867242.0,-6.5562444,139.3007867,https://maps.google.com/?cid=0x0:0x160bad2921fdf723
supermarket,Pusat Perbelanjaan,Papua Supermarket  Dept. Store,"4869+F77 Bar, Sawagumu, Kec. Sorong Utara, Kota Sorong, Papua Bar. 98416","Sawagumu, Kec. Sorong Utara, Kota Sorong",PAPUA BARAT,98416.0,Indonesia,9513160123.0,-0.888831,131.3181847,https://maps.google.com/?cid=0x0:0x7b5f0926a74ad213
supermarket,Pusat Perbelanjaan,Toko anggi jaya,"MWF7+6VJ Snomeba/Snoembebaba Airport, Imbai, Distrik Anggi, Kabupaten Manokwari, Papua Bar. 98354","Imbai, Distrik Anggi, Kabupaten Manokwari",PAPUA BARAT,98354.0,Indonesia,82399480074.0,-1.3269171,133.9146373,https://maps.google.com/?cid=0x0:0xfbef5cdf383f76ce
supermarket,supermarket,Distrik Sururey,"Danau, Kab. Pegunungan Arfak, Papua Bar.","Kab. Pegunungan Arfak, Papua Bar.",PAPUA BARAT,,Indonesia,,-1.4064846,133.8840956,https://maps.google.com/?cid=0x0:0xd9219852feca5c52
supermarket,supermarket,Taige,"Distrik Taige, Kab. Pegunungan Arfak, Papua Bar.","Kab. Pegunungan Arfak, Papua Bar.",PAPUA BARAT,,Indonesia,,-1.3061081,133.8589634,https://maps.google.com/?cid=0x0:0xaa3439167fad271d
supermarket,Minimarket,SAGA Supermarket  Dept. Store,"Jalan A. Yani, Ruko Kuda Laut, Klademak, Kecamatan Sorong Manoi, Kota Sorong, Papua Bar. 98414","Ruko Kuda Laut, Klademak, Kecamatan Sorong Manoi, Kota Sorong",PAPUA BARAT,98414.0,Indonesia,951322784.0,-0.8765248,131.2576755,https://maps.google.com/?cid=0x0:0x963043ed646a7e1e
supermarket,Minimarket,toko thiara,"3VWP+Q86, Desay, Distrik Prafi, Kabupaten Manokwari, Papua Bar. 98356","Desay, Distrik Prafi, Kabupaten Manokwari",PAPUA BARAT,98356.0,Indonesia,82198142255.0,-0.9030835,133.8857549,https://maps.google.com/?cid=0x0:0xa1c181c3cb79e0e3
supermarket,Toko bahan makanan,Grocery Outlet,"900 Meridian Ave E Ste 36, Milton, WA 98354, Amerika Serikat","Milton, WA",PAPUA BARAT,98354.0,Indonesia,12532814740.0,47.2465257,-122.2955516,https://maps.google.com/?cid=0x0:0xb35d69bde32dea8
supermarket,Toko bahan makanan,A Grocery,"505 Meridian Ave E, Edgewood, WA 98371, Amerika Serikat","Edgewood, WA",PAPUA BARAT,98371.0,Indonesia,12539270505.0,47.2528616,-122.293236,https://maps.google.com/?cid=0x0:0xf50f1a9bbd9a0f3e
supermarket,Pusat Perbelanjaan,Surprise Lake Square,"900 Meridian Ave E, Milton, WA 98354, Amerika Serikat","Milton, WA",PAPUA BARAT,98354.0,Indonesia,,47.2489044,-122.2958994,https://maps.google.com/?cid=0x0:0x325c175c8164c496
supermarket,supermarket,Papua Bar. 98315,"Kabupaten Manokwari, Papua Bar.","Kabupaten Manokwari, Papua Bar.",PAPUA BARAT,,Indonesia,,-1.0762009,133.4452148,https://maps.google.com/?cid=0x0:0xe20d605d60a391b5
supermarket,Toko Swalayan,TOKO NAGAMAS,"Jl. Trikora Arfai 2, Anday, Distrik Manokwari, Kabupaten Manokwari, Papua Bar. 98315","Anday, Distrik Manokwari, Kabupaten Manokwari",PAPUA BARAT,98315.0,Indonesia,81344606452.0,-0.9316606,134.0161149,https://maps.google.com/?cid=0x0:0xca638fa5f96368e
supermarket,Toko Swalayan,PT. ANGGUN SWALAYAN,"Unnamed Road, Papua Bar. 98356, Udapi Hilir, Distrik Prafi, Kabupaten Manokwari, Papua Bar. 98356",Papua Bar.,PAPUA BARAT,98356.0,Indonesia,,-0.8765216,133.8291573,https://maps.google.com/?cid=0x0:0x25497da2a488e925
supermarket,Toko Swalayan,Orchid Swalayan,"43RF+C74, Jl. Merdeka, Padarni, Kec. Manokwari Bar., Kabupaten Manokwari, Papua Bar. 98312","Jl. Merdeka, Padarni, Kec. Manokwari Bar., Kabupaten Manokwari",PAPUA BARAT,98312.0,Indonesia,986211094.0,-0.8589972,134.0731963,https://maps.google.com/?cid=0x0:0xa0da1efaf3ec9af4
supermarket,Toko Swalayan,Orchid Mart Taman Ria,"42GX+PG9, Jl. Trikora Rendani, Wosi, Kec. Manokwari Bar., Kabupaten Manokwari, Papua Bar. 98312","Jl. Trikora Rendani, Wosi, Kec. Manokwari Bar., Kabupaten Manokwari",PAPUA BARAT,98312.0,Indonesia,9862214900.0,-0.8732036,134.0488716,https://maps.google.com/?cid=0x0:0x8e7d672683eda775
supermarket,Minimarket,Toko Delta,"4RF6+P85, Waseki Indah, Distrik Prafi, Kabupaten Manokwari, Papua Bar. 98356","Waseki Indah, Distrik Prafi, Kabupaten Manokwari",PAPUA BARAT,98356.0,Indonesia,82219229801.0,-0.8757266,133.810845,https://maps.google.com/?cid=0x0:0x49421937820da7dc
supermarket,Pasar,Rayna Mart,"3299+V6J, Jl. Manokwari - Maruni, Anday, Distrik Manokwari, Kabupaten Manokwari, Papua Bar. 98315","Jl. Manokwari - Maruni, Anday, Distrik Manokwari, Kabupaten Manokwari",PAPUA BARAT,98315.0,Indonesia,,-0.9302797,134.0180044,https://maps.google.com/?cid=0x0:0xd03fbe6e4931b509
supermarket,Pasar,M-Mart Sanggeng,"Jl. Yos Sudarso No.54, Sanggeng, Kec. Manokwari Bar., Kabupaten Manokwari, Papua Bar. 98312","Sanggeng, Kec. Manokwari Bar., Kabupaten Manokwari",PAPUA BARAT,98312.0,Indonesia,,-0.8665539,134.0650674,https://maps.google.com/?cid=0x0:0x1e595ebe8f27df5e
supermarket,Minimarket,toko thiara,"3VWP+Q86, Desay, Distrik Prafi, Kabupaten Manokwari, Papua Bar. 98356","Desay, Distrik Prafi, Kabupaten Manokwari",PAPUA BARAT,98356.0,Indonesia,82198142255.0,-0.9030835,133.8857549,https://maps.google.com/?cid=0x0:0xa1c181c3cb79e0e3
supermarket,Toko Swalayan,Marymart,"Brigjen Marinir (Purn) Abraham O Atururi, Kabupaten Manokwari, Papua Bar. 98313",Kabupaten Manokwari,PAPUA BARAT,98313.0,Indonesia,85399967344.0,-0.9162916,134.0277939,https://maps.google.com/?cid=0x0:0x40e57b02f08f1232
supermarket,Minimarket,KIOS KEMBAR ARFAI,"3298+MP3, Jl. Manokwari - Maruni, Anday, Distrik Manokwari, Kabupaten Manokwari, Papua Bar. 98315","Jl. Manokwari - Maruni, Anday, Distrik Manokwari, Kabupaten Manokwari",PAPUA BARAT,98315.0,Indonesia,,-0.9308556,134.0168071,https://maps.google.com/?cid=0x0:0x97d65575b75c9d2f
supermarket,Minimarket,Kios Merah Anday,"Anday, Distrik Manokwari, Kabupaten Manokwari, Papua Bar. 98315","Distrik Manokwari, Kabupaten Manokwari",PAPUA BARAT,98315.0,Indonesia,85218713512.0,-0.9324459,134.0114189,https://maps.google.com/?cid=0x0:0xce53730c2173a74c
supermarket,Kios,Kios Elan No. AA 17,"427H+9MR, Sowi, Distrik Manokwari, Kabupaten Manokwari, Papua Bar. 98315","Sowi, Distrik Manokwari, Kabupaten Manokwari",PAPUA BARAT,98315.0,Indonesia,,-0.8865096,134.0291275,https://maps.google.com/?cid=0x0:0xf4085fdc6fef4d87
supermarket,Minimarket,Tirza Mart,"5352+FQ7, Jl.Kebun Cengkeh, Irmanjaya, Amban, Kec. Manokwari Bar., Kabupaten Manokwari, Papua Bar. 98312","Jl.Kebun Cengkeh, Irmanjaya, Amban, Kec. Manokwari Bar., Kabupaten Manokwari",PAPUA BARAT,98312.0,Indonesia,,-0.8413307,134.0519265,https://maps.google.com/?cid=0x0:0xa875129817221faf
supermarket,supermarket,Papua Bar. 98352,"Kabupaten Manokwari, Papua Bar.","Kabupaten Manokwari, Papua Bar.",PAPUA BARAT,,Indonesia,,-1.0122519,133.9055155,https://maps.google.com/?cid=0x0:0x665ab61075e0d624
supermarket,Minimarket,toko thiara,"3VWP+Q86, Desay, Distrik Prafi, Kabupaten Manokwari, Papua Bar. 98356","Desay, Distrik Prafi, Kabupaten Manokwari",PAPUA BARAT,98356.0,Indonesia,82198142255.0,-0.9030835,133.8857549,https://maps.google.com/?cid=0x0:0xa1c181c3cb79e0e3
supermarket,Toko Airsoft Gun,"Toko Elektro,Obat Pertanian  Service Senapan Angin","3VPG+4W2, Desay, Distrik Prafi, Kabupaten Manokwari, Papua Bar. 98356","Desay, Distrik Prafi, Kabupaten Manokwari",PAPUA BARAT,98356.0,Indonesia,85254629132.0,-0.9147263,133.8772588,https://maps.google.com/?cid=0x0:0x312fe39275638d43
supermarket,Toko Pertanian,KIOS HIJAU,"3VPJ+8JG, Desay, Distrik Prafi, Kabupaten Manokwari, Papua Bar. 98356","Desay, Distrik Prafi, Kabupaten Manokwari",PAPUA BARAT,98356.0,Indonesia,82399497770.0,-0.9141931,133.8815923,https://maps.google.com/?cid=0x0:0xe9f7a609f32810a9
supermarket,Toko Swalayan,PT. ANGGUN SWALAYAN,"Unnamed Road, Papua Bar. 98356, Udapi Hilir, Distrik Prafi, Kabupaten Manokwari, Papua Bar. 98356",Papua Bar.,PAPUA BARAT,98356.0,Indonesia,,-0.8765216,133.8291573,https://maps.google.com/?cid=0x0:0x25497da2a488e925
supermarket,Toko bahan makanan,Kios Esa,"2WQ3+G4R, Ibuwau, Kec. Warmare, Kabupaten Manokwari, Papua Bar.","Kabupaten Manokwari, Papua Bar.",PAPUA BARAT,,Indonesia,82399363608.0,-0.9611346,133.9027767,https://maps.google.com/?cid=0x0:0x19b2f3606ab3dab1
supermarket,Toko Swalayan,TOKO NAGAMAS,"Jl. Trikora Arfai 2, Anday, Distrik Manokwari, Kabupaten Manokwari, Papua Bar. 98315","Anday, Distrik Manokwari, Kabupaten Manokwari",PAPUA BARAT,98315.0,Indonesia,81344606452.0,-0.9316606,134.0161149,https://maps.google.com/?cid=0x0:0xca638fa5f96368e
supermarket,Minimarket,Minimarket Prafi,"3VVP+5PW, Desay, Distrik Prafi, Kabupaten Manokwari, Papua Bar. 98356","Desay, Distrik Prafi, Kabupaten Manokwari",PAPUA BARAT,98356.0,Indonesia,,-0.9070129,133.8868394,https://maps.google.com/?cid=0x0:0x8d5bfe04fb607dc0
supermarket,Minimarket,Kios Nurrahma,"2WQ7+F9G, Cening/Sotea, Kec. Warmare, Kabupaten Manokwari, Papua Bar.","Kabupaten Manokwari, Papua Bar.",PAPUA BARAT,,Indonesia,,-0.9613022,133.9134432,https://maps.google.com/?cid=0x0:0x7419cd66e9eba0f2
supermarket,Toko Swalayan,pravit,"4R99+3CV sp 3, jl. raya, kampung aimasi, Distrik Prafi, Kabupaten Manokwari, Papua Bar.","Kabupaten Manokwari, Papua Bar.",PAPUA BARAT,,Indonesia,,-0.8822668,133.8185332,https://maps.google.com/?cid=0x0:0x772180392091d070
supermarket,Minimarket,Toko Delta,"4RF6+P85, Waseki Indah, Distrik Prafi, Kabupaten Manokwari, Papua Bar. 98356","Waseki Indah, Distrik Prafi, Kabupaten Manokwari",PAPUA BARAT,98356.0,Indonesia,82219229801.0,-0.8757266,133.810845,https://maps.google.com/?cid=0x0:0x49421937820da7dc
supermarket,Toko umum,Barsun,"3VRP+H9M, Desay, Distrik Prafi, Kabupaten Manokwari, Papua Bar. 98356","Desay, Distrik Prafi, Kabupaten Manokwari",PAPUA BARAT,98356.0,Indonesia,81344507329.0,-0.908529,133.8859271,https://maps.google.com/?cid=0x0:0xc433bfbc93eaafb2
supermarket,Toko,Toko Cahaya Matahati,"3VMH+F9P, Jl. Sorong - Manokwari, Nimbay, Kec. Warmare, Kabupaten Manokwari, Papua Bar. 98356","Jl. Sorong - Manokwari, Nimbay, Kec. Warmare, Kabupaten Manokwari",PAPUA BARAT,98356.0,Indonesia,,-0.9162918,133.8784508,https://maps.google.com/?cid=0x0:0xb4f705d478e1c6b6
supermarket,Toko,Toko BERINGIN,"42HX+7F9, Jl. Trikora Rendani, Wosi, Kec. Manokwari Bar., Kabupaten Manokwari, Papua Bar. 98312","Jl. Trikora Rendani, Wosi, Kec. Manokwari Bar., Kabupaten Manokwari",PAPUA BARAT,98312.0,Indonesia,,-0.8718349,134.04874,https://maps.google.com/?cid=0x0:0x224dd396e71e5c8d
supermarket,supermarket,Papua Bar. 98357,"Kabupaten Manokwari, Papua Bar.","Kabupaten Manokwari, Papua Bar.",PAPUA BARAT,,Indonesia,,-0.8227418,133.5606946,https://maps.google.com/?cid=0x0:0x3e375139d962692c
supermarket,Toko Swalayan,PT. ANGGUN SWALAYAN,"Unnamed Road, Papua Bar. 98356, Udapi Hilir, Distrik Prafi, Kabupaten Manokwari, Papua Bar. 98356",Papua Bar.,PAPUA BARAT,98356.0,Indonesia,,-0.8765216,133.8291573,https://maps.google.com/?cid=0x0:0x25497da2a488e925
supermarket,Minimarket,Toko Delta,"4RF6+P85, Waseki Indah, Distrik Prafi, Kabupaten Manokwari, Papua Bar. 98356","Waseki Indah, Distrik Prafi, Kabupaten Manokwari",PAPUA BARAT,98356.0,Indonesia,82219229801.0,-0.8757266,133.810845,https://maps.google.com/?cid=0x0:0x49421937820da7dc
supermarket,Toko,Toko Tapanuli Jaya ( Sinaga ),"Jln. Merpati SP 4, Udapi Hilir, Distrik Prafi, Kabupaten Manokwari, Papua Bar. 98356","Udapi Hilir, Distrik Prafi, Kabupaten Manokwari",PAPUA BARAT,98356.0,Indonesia,81370126543.0,-0.876799,133.8286786,https://maps.google.com/?cid=0x0:0xb117b9a8f7d4a0e6
supermarket,Toko umum,Senu Wibowo,"5JWX+WGM, Unnamed Road, Aurmios, Distrik Masni, Kabupaten Manokwari, Papua Bar. 98357","Unnamed Road, Aurmios, Distrik Masni, Kabupaten Manokwari",PAPUA BARAT,98357.0,Indonesia,,-0.8026727,133.648801,https://maps.google.com/?cid=0x0:0xb2737eea2c28d750
supermarket,Toko Swalayan,pravit,"4R99+3CV sp 3, jl. raya, kampung aimasi, Distrik Prafi, Kabupaten Manokwari, Papua Bar.","Kabupaten Manokwari, Papua Bar.",PAPUA BARAT,,Indonesia,,-0.8822668,133.8185332,https://maps.google.com/?cid=0x0:0x772180392091d070
supermarket,Pasar,7NAGA SWALAYAN Sp3 prafi Manokwari,"depan bank papua, Jl. Poros No.sp 3, Waseki Indah, Distrik Prafi, Kabupaten Manokwari, Papua Bar. 98356","Jl. Poros No.sp 3, Waseki Indah, Distrik Prafi, Kabupaten Manokwari",PAPUA BARAT,98356.0,Indonesia,85211934307.0,-0.8814679,133.8180343,https://maps.google.com/?cid=0x0:0x4ab419fa3fd0a1bd
supermarket,Toko Swalayan,Master Yaseen Traders,"6MFR+J4V Head, Wariori, Masni, Manokwari Regency, West Papua 98357","Wariori, Masni, Manokwari Regency",PAPUA BARAT,98357.0,Indonesia,,-0.7758995,133.6902872,https://maps.google.com/?cid=0x0:0x4fa9fdc7d7075237
supermarket,Pemasok Air Minum Dalam Kemasan,Depot Air Minum TWIN AIR,"6HVV+97R, Jl. Mubrani, Sidey Baru, Distrik Sidey, Kabupaten Manokwari, Papua Bar. 98357","Jl. Mubrani, Sidey Baru, Distrik Sidey, Kabupaten Manokwari",PAPUA BARAT,98357.0,Indonesia,82397007710.0,-0.7565049,133.5931468,https://maps.google.com/?cid=0x0:0x95ee4bedfbef4478
supermarket,Toko,Toko Melati,"Jalan Poros SP 6, RT.03/RW04, Bowi Subur, Distrik Masni, Kabupaten Manokwari, Papua Bar. 98357","RT.03/RW04, Bowi Subur, Distrik Masni, Kabupaten Manokwari",PAPUA BARAT,98357.0,Indonesia,,-0.8112919,133.7339588,https://maps.google.com/?cid=0x0:0xfa3937e140ba6934
supermarket,Toko,KIOS MINANG JAYA,"5QG7+WF5, Meiforga, Distrik Masni, Kabupaten Manokwari, Papua Bar. 98357","Meiforga, Distrik Masni, Kabupaten Manokwari",PAPUA BARAT,98357.0,Indonesia,,-0.8227353,133.7637305,https://maps.google.com/?cid=0x0:0xbd1aa7020957e206
supermarket,Minimarket,Tirza Mart,"5352+FQ7, Jl.Kebun Cengkeh, Irmanjaya, Amban, Kec. Manokwari Bar., Kabupaten Manokwari, Papua Bar. 98312","Jl.Kebun Cengkeh, Irmanjaya, Amban, Kec. Manokwari Bar., Kabupaten Manokwari",PAPUA BARAT,98312.0,Indonesia,,-0.8413307,134.0519265,https://maps.google.com/?cid=0x0:0xa875129817221faf
supermarket,Toko,Kios Ari1,"4RC8+27P, Waseki Indah, Distrik Prafi, Kabupaten Manokwari, Papua Bar. 98356","Waseki Indah, Distrik Prafi, Kabupaten Manokwari",PAPUA BARAT,98356.0,Indonesia,82399106766.0,-0.8799178,133.8156997,https://maps.google.com/?cid=0x0:0xb2e8069c11d42ee2
supermarket,Toko Pertanian,Toko Wonosari Tani#Hijab Nadhifa,"4RCG+GQM, Jl. Merpati, Udapi Hilir, Distrik Prafi, Kabupaten Manokwari, Papua Bar. 98356","Jl. Merpati, Udapi Hilir, Distrik Prafi, Kabupaten Manokwari",PAPUA BARAT,98356.0,Indonesia,82238515584.0,-0.8786593,133.8269165,https://maps.google.com/?cid=0x0:0x53c00044807d4b18
