Category,Real Category,Business Name,Address,City,State,Postal Code,Country,Phone,Latitude,Longitude,Map Link
perumahan,Perhimpunan Pengembang Perumahan,IRAI,"MWF8+GR2, Suteibey, Distrik Anggi, Kab. Pegunungan Arfak, Papua Bar. 98354","Suteibey, Distrik Anggi, Kab. Pegunungan Arfak",PAPUA BARAT,98354.0,Indonesia,,-1.3262457,133.9170123,https://maps.google.com/?cid=0x0:0xcbb75642b28d0c5
perumahan,Pembangunan Perumahan,Anggimer kepala danau,"HVVH+RQC, Unnamed Road, Danau, Distrik Sururey, Kab. Pegunungan Arfak, Papua Bar. 98354","Unnamed Road, Danau, Distrik Sururey, Kab. Pegunungan Arfak",PAPUA BARAT,98354.0,Indonesia,,-1.4054341,133.8793778,https://maps.google.com/?cid=0x0:0xbd6ceb327ceaefac
perumahan,perumahan,Distrik Anggi,"Kab. Pegunungan Arfak, Papua Bar.","Kab. Pegunungan Arfak, Papua Bar.",PAPUA BARAT,,Indonesia,,-1.3260424,133.9158721,https://maps.google.com/?cid=0x0:0xfcf8f2554dc74d7d
perumahan,Pembangunan Perumahan,Kampung Tuabyam,"JW9Q+5J4, Tuabyam, Kec. Anggi Gida, Kabupaten Manokwari, Papua Bar.","Kabupaten Manokwari, Papua Bar.",PAPUA BARAT,,Indonesia,,-1.3821247,133.9390669,https://maps.google.com/?cid=0x0:0x53b431ecf9a2ae46
perumahan,Padang,Rumah Makan Pesona Anggi,"MWG8+H6X, Suteibey, Distrik Anggi, Kabupaten Manokwari, Papua Bar. 98354","Suteibey, Distrik Anggi, Kabupaten Manokwari",PAPUA BARAT,98354.0,Indonesia,81248476719.0,-1.3235004,133.9156232,https://maps.google.com/?cid=0x0:0xf98382fbcaabfb74
perumahan,Kelompok Bermain,Rumah Baca Arfak Maman Hob,"JWV8+8XG, Testega Pamaha, Distrik Anggi, Kabupaten Manokwari, Papua Bar. 98354","Testega Pamaha, Distrik Anggi, Kabupaten Manokwari",PAPUA BARAT,98354.0,Indonesia,,-1.3566817,133.9174448,https://maps.google.com/?cid=0x0:0x2d8aa65292c13a67
perumahan,perumahan,Kec. Anggi Gida,"Kab. Pegunungan Arfak, Papua Bar.","Kab. Pegunungan Arfak, Papua Bar.",PAPUA BARAT,,Indonesia,,-1.3668114,133.9609514,https://maps.google.com/?cid=0x0:0xb4bc71d5f83c5185
perumahan,Pembangunan Perumahan,Kampung Udohotma,"JW22+W2Q, Danau, Kec. Anggi Gida, Kabupaten Manokwari, Papua Bar.","Kabupaten Manokwari, Papua Bar.",PAPUA BARAT,,Indonesia,,-1.3976623,133.9001055,https://maps.google.com/?cid=0x0:0xb07741e7925c9718
perumahan,Taman,Danau Anggi Pegunungan Arfak,"JXJQ+JQX, Danau, Kec. Anggi Gida, Kab. Pegunungan Arfak, Papua Bar. 98355","Danau, Kec. Anggi Gida, Kab. Pegunungan Arfak",PAPUA BARAT,98355.0,Indonesia,,-1.3683792,133.9894831,https://maps.google.com/?cid=0x0:0x96fe567b4713de68
perumahan,Komplek perumahan,Ingisrow,"JXP6+2HG, Ingisrow, Kec. Anggi Gida, Kabupaten Manokwari, Papua Bar.","Kabupaten Manokwari, Papua Bar.",PAPUA BARAT,,Indonesia,,-1.3649262,133.9614661,https://maps.google.com/?cid=0x0:0x10e582e2ce16bedc
perumahan,Rumah Sakit,Puskesmas Anggi,"MWG8+7RC, Ingebai / Imbeisba, Distrik Anggi, Kabupaten Manokwari, Papua Bar. 98354","Ingebai / Imbeisba, Distrik Anggi, Kabupaten Manokwari",PAPUA BARAT,98354.0,Indonesia,,-1.3243092,133.9170174,https://maps.google.com/?cid=0x0:0xa4549469f319fe37
perumahan,Pembangunan Perumahan,Kampung Sauggemeba,"JV5F+HR7, Sururey, Distrik Sururey, Kab. Pegunungan Arfak, Papua Bar.","Kab. Pegunungan Arfak, Papua Bar.",PAPUA BARAT,,Indonesia,,-1.3910896,133.8745438,https://maps.google.com/?cid=0x0:0xa52c031469fceef0
perumahan,Pembangunan Perumahan,kampung kobrey,"JW67+J33, Kobrey, Distrik Sururey, Kabupaten Manokwari, Papua Bar.","Kabupaten Manokwari, Papua Bar.",PAPUA BARAT,,Indonesia,,-1.3884759,133.9126734,https://maps.google.com/?cid=0x0:0x2ea46324038c90a3
perumahan,Rumah Makan,Kios dan Rumah Makan Se-7 Tujuh,"Pegunungan Arfak, dekat rumah jabatab bupati, pertigaan depan pasar Rakyat, Ingebai / Imbeisba, Distrik Anggi, Arfak Pegaf, Papua Bar. 98354","dekat rumah jabatab bupati, pertigaan depan pasar Rakyat, Ingebai / Imbeisba, Distrik Anggi, Arfak Pegaf",PAPUA BARAT,98354.0,Indonesia,82195386469.0,-1.324782,133.9132739,https://maps.google.com/?cid=0x0:0x1f3490aa77448bf
perumahan,Pembangunan Perumahan,Anggimer kepala danau,"HVVH+RQC, Unnamed Road, Danau, Distrik Sururey, Kab. Pegunungan Arfak, Papua Bar. 98354","Unnamed Road, Danau, Distrik Sururey, Kab. Pegunungan Arfak",PAPUA BARAT,98354.0,Indonesia,,-1.4054341,133.8793778,https://maps.google.com/?cid=0x0:0xbd6ceb327ceaefac
perumahan,perumahan,Kec. Anggi Gida,"Kab. Pegunungan Arfak, Papua Bar.","Kab. Pegunungan Arfak, Papua Bar.",PAPUA BARAT,,Indonesia,,-1.3668114,133.9609514,https://maps.google.com/?cid=0x0:0xb4bc71d5f83c5185
perumahan,perumahan,Anggi Gida,"Kab. Pegunungan Arfak, Papua Bar.","Kab. Pegunungan Arfak, Papua Bar.",PAPUA BARAT,,Indonesia,,-1.3958835,133.9722816,https://maps.google.com/?cid=0x0:0x8008ad12448ea805
perumahan,Pembangunan Perumahan,Kampung Udohotma,"JW22+W2Q, Danau, Kec. Anggi Gida, Kabupaten Manokwari, Papua Bar.","Kabupaten Manokwari, Papua Bar.",PAPUA BARAT,,Indonesia,,-1.3976623,133.9001055,https://maps.google.com/?cid=0x0:0xb07741e7925c9718
perumahan,Pembangunan Perumahan,Kampung Tuabyam,"JW9Q+5J4, Tuabyam, Kec. Anggi Gida, Kabupaten Manokwari, Papua Bar.","Kabupaten Manokwari, Papua Bar.",PAPUA BARAT,,Indonesia,,-1.3821247,133.9390669,https://maps.google.com/?cid=0x0:0x53b431ecf9a2ae46
perumahan,Perhimpunan Pengembang Perumahan,IRAI,"MWF8+GR2, Suteibey, Distrik Anggi, Kab. Pegunungan Arfak, Papua Bar. 98354","Suteibey, Distrik Anggi, Kab. Pegunungan Arfak",PAPUA BARAT,98354.0,Indonesia,,-1.3262457,133.9170123,https://maps.google.com/?cid=0x0:0xcbb75642b28d0c5
perumahan,Komplek perumahan,Ingisrow,"JXP6+2HG, Ingisrow, Kec. Anggi Gida, Kabupaten Manokwari, Papua Bar.","Kabupaten Manokwari, Papua Bar.",PAPUA BARAT,,Indonesia,,-1.3649262,133.9614661,https://maps.google.com/?cid=0x0:0x10e582e2ce16bedc
perumahan,Taman,Danau Anggi Pegunungan Arfak,"JXJQ+JQX, Danau, Kec. Anggi Gida, Kab. Pegunungan Arfak, Papua Bar. 98355","Danau, Kec. Anggi Gida, Kab. Pegunungan Arfak",PAPUA BARAT,98355.0,Indonesia,,-1.3683792,133.9894831,https://maps.google.com/?cid=0x0:0x96fe567b4713de68
perumahan,Pembangunan Perumahan,kampung kobrey,"JW67+J33, Kobrey, Distrik Sururey, Kabupaten Manokwari, Papua Bar.","Kabupaten Manokwari, Papua Bar.",PAPUA BARAT,,Indonesia,,-1.3884759,133.9126734,https://maps.google.com/?cid=0x0:0x2ea46324038c90a3
perumahan,Kantor Pemerintah,Kampung Imbai,"MWC7+V8H, Imbai, Distrik Anggi, Kab. Pegunungan Arfak, Papua Bar.","Kab. Pegunungan Arfak, Papua Bar.",PAPUA BARAT,,Indonesia,,-1.3278086,133.9133714,https://maps.google.com/?cid=0x0:0xc7f065c24a4e4781
perumahan,Padang,Rumah Makan Pesona Anggi,"MWG8+H6X, Suteibey, Distrik Anggi, Kabupaten Manokwari, Papua Bar. 98354","Suteibey, Distrik Anggi, Kabupaten Manokwari",PAPUA BARAT,98354.0,Indonesia,81248476719.0,-1.3235004,133.9156232,https://maps.google.com/?cid=0x0:0xf98382fbcaabfb74
perumahan,Perhimpunan Pengembang Perumahan,Kampung Inyaub,"JV4F+F6H, Sururey, Distrik Sururey, Kab. Pegunungan Arfak, Papua Bar.","Kab. Pegunungan Arfak, Papua Bar.",PAPUA BARAT,,Indonesia,,-1.3938193,133.8731248,https://maps.google.com/?cid=0x0:0x9715d2506213d50d
perumahan,Pembangunan Perumahan,Kampung Sauggemeba,"JV5F+HR7, Sururey, Distrik Sururey, Kab. Pegunungan Arfak, Papua Bar.","Kab. Pegunungan Arfak, Papua Bar.",PAPUA BARAT,,Indonesia,,-1.3910896,133.8745438,https://maps.google.com/?cid=0x0:0xa52c031469fceef0
perumahan,perumahan,Papua Bar. 98358,"Kabupaten Manokwari, Papua Bar.","Kabupaten Manokwari, Papua Bar.",PAPUA BARAT,,Indonesia,,-1.0707188,133.7525619,https://maps.google.com/?cid=0x0:0x566a5a268f3890ee
perumahan,Komplek perumahan,Wasirawi,"XJ5Q+Q3, Ijigrek, Distrik Catubouw, Kab. Pegunungan Arfak, Papua Bar.","Kab. Pegunungan Arfak, Papua Bar.",PAPUA BARAT,,Indonesia,,-1.0405695,133.6376967,https://maps.google.com/?cid=0x0:0x7f3b0dc8460c40d
perumahan,Komplek perumahan,Rumah pendulangan,"XJ6V+GJ, Ijigrek, Distrik Catubouw, Kab. Pegunungan Arfak, Papua Bar.","Kab. Pegunungan Arfak, Papua Bar.",PAPUA BARAT,,Indonesia,,-1.0386353,133.6440501,https://maps.google.com/?cid=0x0:0xf91cdf4a8bd1138e
perumahan,Pembangunan Perumahan,Desa Bingrayud,"RR3F+MQ, Coijud, Distrik Catubouw, Kabupaten Manokwari, Papua Bar.","Kabupaten Manokwari, Papua Bar.",PAPUA BARAT,,Indonesia,,-1.1958493,133.8244976,https://maps.google.com/?cid=0x0:0x44f6923fd56bcffe
perumahan,Komplek perumahan,Hp Wasrawi,"RQ2X+53, Coijud, Distrik Catubouw, Kabupaten Manokwari, Papua Bar.","Kabupaten Manokwari, Papua Bar.",PAPUA BARAT,,Indonesia,,-1.1996111,133.7976389,https://maps.google.com/?cid=0x0:0x719170824e3365fa
perumahan,Perhimpunan Pengembang Perumahan,Coisi,"RRGR+RV, Coisi, Distrik Minyambouw, Kab. Pegunungan Arfak, Papua Bar.","Kab. Pegunungan Arfak, Papua Bar.",PAPUA BARAT,,Indonesia,,-1.1729007,133.84215,https://maps.google.com/?cid=0x0:0x16aea23f3e380f5e
perumahan,Pembangunan Perumahan,AWL.PERENCANAAN ANSUINYAI,"RR3F+C8, Coijud, Distrik Catubouw, Kab. Pegunungan Arfak, Papua Bar.","Kab. Pegunungan Arfak, Papua Bar.",PAPUA BARAT,,Indonesia,,-1.1963944,133.823325,https://maps.google.com/?cid=0x0:0xa17db3ce3e7e40ca
perumahan,Pembangunan Perumahan,Kampung Syou,"VWV6+9H7, Figoud, Distrik Minyambouw, Kab. Pegunungan Arfak, Papua Bar.","Kab. Pegunungan Arfak, Papua Bar.",PAPUA BARAT,,Indonesia,,-1.1065764,133.9114365,https://maps.google.com/?cid=0x0:0xc8c9ccaba7a3eca1
perumahan,Pembangunan Perumahan,Kampung Usti,"RPV7+RM9, Unti, Distrik Catubouw, Kab. Pegunungan Arfak, Papua Bar.","Kab. Pegunungan Arfak, Papua Bar.",PAPUA BARAT,,Indonesia,,-1.1554562,133.7142484,https://maps.google.com/?cid=0x0:0x7f8deb47f7061698
perumahan,perumahan,Papua Bar. 98359,Papua Bar.,Papua Bar.,PAPUA BARAT,,Indonesia,,-1.5213839,133.7525619,https://maps.google.com/?cid=0x0:0xc8a895044b18d7c8
perumahan,Balai masyarakat,Desa Horna,"9MM6+W68, Horna, Distrik Dataran Beimes, Kabupaten Teluk Bintuni, Papua Bar.","Kabupaten Teluk Bintuni, Papua Bar.",PAPUA BARAT,,Indonesia,,-1.6152004,133.6605719,https://maps.google.com/?cid=0x0:0x64b42d55af592552
perumahan,Kantor Pemerintah,Dataran Isim,"9V88+36, Menci, Distrik Dataran Beimes, Kabupaten Teluk Bintuni, Papua Bar.","Kabupaten Teluk Bintuni, Papua Bar.",PAPUA BARAT,,Indonesia,,-1.634777,133.865501,https://maps.google.com/?cid=0x0:0x92d045cbf9cbba8b
perumahan,Perhimpunan Pengembang Perumahan,IRAI,"MWF8+GR2, Suteibey, Distrik Anggi, Kab. Pegunungan Arfak, Papua Bar. 98354","Suteibey, Distrik Anggi, Kab. Pegunungan Arfak",PAPUA BARAT,98354.0,Indonesia,,-1.3262457,133.9170123,https://maps.google.com/?cid=0x0:0xcbb75642b28d0c5
perumahan,Pembangunan Perumahan,Kampung Udohotma,"JW22+W2Q, Danau, Kec. Anggi Gida, Kabupaten Manokwari, Papua Bar.","Kabupaten Manokwari, Papua Bar.",PAPUA BARAT,,Indonesia,,-1.3976623,133.9001055,https://maps.google.com/?cid=0x0:0xb07741e7925c9718
perumahan,perumahan,The Samallo's Home,"JV7G+J3F, Danau, Distrik Sururey, Kab. Pegunungan Arfak, Papua Bar. 98354","Danau, Distrik Sururey, Kab. Pegunungan Arfak",PAPUA BARAT,98354.0,Indonesia,,-1.3858628,133.8755459,https://maps.google.com/?cid=0x0:0x6c6ca11ecd2b5d96
perumahan,Kantor Pemerintah,Kampung Imbai,"MWC7+V8H, Imbai, Distrik Anggi, Kab. Pegunungan Arfak, Papua Bar.","Kab. Pegunungan Arfak, Papua Bar.",PAPUA BARAT,,Indonesia,,-1.3278086,133.9133714,https://maps.google.com/?cid=0x0:0xc7f065c24a4e4781
perumahan,Pembangunan Perumahan,Kampung Sauggemeba,"JV5F+HR7, Sururey, Distrik Sururey, Kab. Pegunungan Arfak, Papua Bar.","Kab. Pegunungan Arfak, Papua Bar.",PAPUA BARAT,,Indonesia,,-1.3910896,133.8745438,https://maps.google.com/?cid=0x0:0xa52c031469fceef0
perumahan,Perhimpunan Pengembang Perumahan,Kampung Inyaub,"JV4F+F6H, Sururey, Distrik Sururey, Kab. Pegunungan Arfak, Papua Bar.","Kab. Pegunungan Arfak, Papua Bar.",PAPUA BARAT,,Indonesia,,-1.3938193,133.8731248,https://maps.google.com/?cid=0x0:0x9715d2506213d50d
perumahan,Pembangunan Perumahan,kampung kobrey,"JW67+J33, Kobrey, Distrik Sururey, Kabupaten Manokwari, Papua Bar.","Kabupaten Manokwari, Papua Bar.",PAPUA BARAT,,Indonesia,,-1.3884759,133.9126734,https://maps.google.com/?cid=0x0:0x2ea46324038c90a3
perumahan,perumahan,Hingk,"Kab. Pegunungan Arfak, Papua Bar.","Kab. Pegunungan Arfak, Papua Bar.",PAPUA BARAT,,Indonesia,,-1.2205844,133.9627492,https://maps.google.com/?cid=0x0:0x3f01e43bc4522fcd
perumahan,Perhimpunan Pengembang Perumahan,KAMPUNG ARIGAU UNBEY,"2238+8QF, Hingk, Kec. Warmare, Kabupaten Manokwari, Papua Bar. 98315","Hingk, Kec. Warmare, Kabupaten Manokwari",PAPUA BARAT,98315.0,Indonesia,,-0.9966983,134.0169101,https://maps.google.com/?cid=0x0:0x75ee947851a1e720
perumahan,Komplek perumahan,Perumahan Layak Huni Kampung Warkomi,"X329+WVF, Jl. Manokwari - Bintuni, Warkomi, Distrik Manokwari, Kabupaten Manokwari, Papua Bar. 98315","Jl. Manokwari - Bintuni, Warkomi, Distrik Manokwari, Kabupaten Manokwari",PAPUA BARAT,98315.0,Indonesia,81252405507.0,-1.0476992,134.0696756,https://maps.google.com/?cid=0x0:0xe0df1ee4d741f9eb
perumahan,Komplek perumahan,Distrik hingk kamping cainosi kabupaten pegunungan arfak,"32WQ+4QR, Sowi, Distrik Manokwari, Kabupaten Manokwari, Papua Bar. 98315","Sowi, Distrik Manokwari, Kabupaten Manokwari",PAPUA BARAT,98315.0,Indonesia,,-0.9046258,134.039359,https://maps.google.com/?cid=0x0:0xfc279198633068f1
perumahan,Pembangunan Perumahan,KAMPUNG PERSIPAN ARIGAU UNBEY,"QXH7+Q39, Kwok I, Hingk, Kabupaten Manokwari, Papua Bar.","Kabupaten Manokwari, Papua Bar.",PAPUA BARAT,,Indonesia,,-1.2205844,133.9627492,https://maps.google.com/?cid=0x0:0xe534ca913a49b263
perumahan,Balai Pertemuan Desa,Kampung kawanua,"X2R9+CR9, Doput, Distrik Manokwari, Kabupaten Manokwari, Papua Bar. 98315","Doput, Distrik Manokwari, Kabupaten Manokwari",PAPUA BARAT,98315.0,Indonesia,,-1.0087133,134.0187873,https://maps.google.com/?cid=0x0:0xdc22ea75d8a8e191
perumahan,Komplek perumahan,Perumahan Fulica Griya Anday,"3275+42W, Anday, Distrik Manokwari, Kabupaten Manokwari, Papua Bar. 98315","Anday, Distrik Manokwari, Kabupaten Manokwari",PAPUA BARAT,98315.0,Indonesia,,-0.9371498,134.0075767,https://maps.google.com/?cid=0x0:0xda26f11aa914a80
perumahan,Pembangunan Perumahan,Desa Bingrayud,"RR3F+MQ, Coijud, Distrik Catubouw, Kabupaten Manokwari, Papua Bar.","Kabupaten Manokwari, Papua Bar.",PAPUA BARAT,,Indonesia,,-1.1958493,133.8244976,https://maps.google.com/?cid=0x0:0x44f6923fd56bcffe
perumahan,Komplek perumahan,Rumah Duren Manokwari,"32C8+8VF, Jl. Trikora Arfai II Perumahan Arfai Indah Permai, Anday, Distrik Manokwari, Kabupaten Manokwari, Papua Bar. 98315","Jl. Trikora Arfai II Perumahan Arfai Indah Permai, Anday, Distrik Manokwari, Kabupaten Manokwari",PAPUA BARAT,98315.0,Indonesia,81344337743.0,-0.9291952,134.0171866,https://maps.google.com/?cid=0x0:0x94ba15b177c2d6f3
perumahan,Balai masyarakat,Posko KKN UNIPA KAMPUNG DUWIN 2025,"Duwin Umsini, Kec. Warmare, Kabupaten Manokwari, Papua Bar. 98352","Kec. Warmare, Kabupaten Manokwari",PAPUA BARAT,98352.0,Indonesia,,-0.9814605,133.9605112,https://maps.google.com/?cid=0x0:0x2496d18d4b5dd8f1
perumahan,Komplek perumahan,Rumah sekretaris kampung TAMER ( Agus Wonggor),"XXXQ+M8C, Tanah Merah, Kec. Warmare, Kabupaten Supiori, Papua","Kabupaten Supiori, Papua",PAPUA BARAT,,Indonesia,,-1.0010132,133.9872656,https://maps.google.com/?cid=0x0:0x642ed1003cbd8b7a
perumahan,perumahan,Rizky D,"224J+RQW, Maruni, Distrik Manokwari, Kabupaten Manokwari, Papua Bar. 98315","Maruni, Distrik Manokwari, Kabupaten Manokwari",PAPUA BARAT,98315.0,Indonesia,,-0.9926586,134.0322213,https://maps.google.com/?cid=0x0:0x13c308fca2171c7f
perumahan,Pembangunan Perumahan,KAPUNG PERSIAPAN ARIGAU UNBEY,"2229+M38, Hingk, Kec. Warmare, Kabupaten Manokwari, Papua Bar. 98315","Hingk, Kec. Warmare, Kabupaten Manokwari",PAPUA BARAT,98315.0,Indonesia,,-0.9983351,134.0177187,https://maps.google.com/?cid=0x0:0xa04c167dae725582
perumahan,Tempat Budi Daya Makanan Laut,Rumah Kepiting dan Udang Bintuni,"22W2+9G3, Maruni, Distrik Manokwari, Kabupaten Manokwari, Papua Bar. 98315","Maruni, Distrik Manokwari, Kabupaten Manokwari",PAPUA BARAT,98315.0,Indonesia,82198416429.0,-0.9541219,134.0012979,https://maps.google.com/?cid=0x0:0x3fe13d404862f90c
perumahan,perumahan,Kec. Membey,"Kab. Pegunungan Arfak, Papua Bar.","Kab. Pegunungan Arfak, Papua Bar.",PAPUA BARAT,,Indonesia,,-1.3416452,134.0336402,https://maps.google.com/?cid=0x0:0x6db50f43a0973078
perumahan,perumahan,Rumah Aila,"M6PC+28G, Sidomulyo, Kec. Oransbari, Kab. Manokwari Selatan, Papua Bar. 98353","Sidomulyo, Kec. Oransbari, Kab. Manokwari Selatan",PAPUA BARAT,98353.0,Indonesia,,-1.315208,134.220505,https://maps.google.com/?cid=0x0:0x4a7d7ee98c7578ee
perumahan,perumahan,3.Asis tata,"M66H+MWP, Muari, Kec. Oransbari, Kab. Manokwari Selatan, Papua Bar.","Kab. Manokwari Selatan, Papua Bar.",PAPUA BARAT,,Indonesia,,-1.338505,134.229732,https://maps.google.com/?cid=0x0:0x593370041473a262
perumahan,Kantor Pemerintah,Kampung Imbai,"MWC7+V8H, Imbai, Distrik Anggi, Kab. Pegunungan Arfak, Papua Bar.","Kab. Pegunungan Arfak, Papua Bar.",PAPUA BARAT,,Indonesia,,-1.3278086,133.9133714,https://maps.google.com/?cid=0x0:0xc7f065c24a4e4781
perumahan,Perhimpunan Pengembang Perumahan,IRAI,"MWF8+GR2, Suteibey, Distrik Anggi, Kab. Pegunungan Arfak, Papua Bar. 98354","Suteibey, Distrik Anggi, Kab. Pegunungan Arfak",PAPUA BARAT,98354.0,Indonesia,,-1.3262457,133.9170123,https://maps.google.com/?cid=0x0:0xcbb75642b28d0c5
perumahan,Pembangunan Perumahan,Anggimer kepala danau,"HVVH+RQC, Unnamed Road, Danau, Distrik Sururey, Kab. Pegunungan Arfak, Papua Bar. 98354","Unnamed Road, Danau, Distrik Sururey, Kab. Pegunungan Arfak",PAPUA BARAT,98354.0,Indonesia,,-1.4054341,133.8793778,https://maps.google.com/?cid=0x0:0xbd6ceb327ceaefac
perumahan,Pembangunan Perumahan,Kampung Tuabyam,"JW9Q+5J4, Tuabyam, Kec. Anggi Gida, Kabupaten Manokwari, Papua Bar.","Kabupaten Manokwari, Papua Bar.",PAPUA BARAT,,Indonesia,,-1.3821247,133.9390669,https://maps.google.com/?cid=0x0:0x53b431ecf9a2ae46
perumahan,Pembangunan Perumahan,kampung kobrey,"JW67+J33, Kobrey, Distrik Sururey, Kabupaten Manokwari, Papua Bar.","Kabupaten Manokwari, Papua Bar.",PAPUA BARAT,,Indonesia,,-1.3884759,133.9126734,https://maps.google.com/?cid=0x0:0x2ea46324038c90a3
perumahan,Balai masyarakat,PERUMAHAN KAMPUNG MBISOY PUKBEY,"P66H+CQ, Watariri, Kec. Oransbari, Kabupaten Manokwari, Papua Bar.","Kabupaten Manokwari, Papua Bar.",PAPUA BARAT,,Indonesia,,-1.2889998,134.2294174,https://maps.google.com/?cid=0x0:0x9d65d1e1fec80b2f
perumahan,Balai masyarakat,PERUMAHAN KAMPUNG MBISOY PUKBEY,"P63M+HXM, Warbiadi, Kec. Oransbari, Kabupaten Manokwari, Papua Bar. 98353","Warbiadi, Kec. Oransbari, Kabupaten Manokwari",PAPUA BARAT,98353.0,Indonesia,,-1.2960344,134.234916,https://maps.google.com/?cid=0x0:0x8daee7893ed907b5
perumahan,Komplek perumahan,Ingisrow,"JXP6+2HG, Ingisrow, Kec. Anggi Gida, Kabupaten Manokwari, Papua Bar.","Kabupaten Manokwari, Papua Bar.",PAPUA BARAT,,Indonesia,,-1.3649262,133.9614661,https://maps.google.com/?cid=0x0:0x10e582e2ce16bedc
perumahan,Pembangunan Perumahan,Kampung Mambrema,"H3CR+F9W, Mambrema, Distrik Ransiki, Kab. Manokwari Selatan, Papua Bar. 98355","Mambrema, Distrik Ransiki, Kab. Manokwari Selatan",PAPUA BARAT,98355.0,Indonesia,,-1.4287573,134.0909447,https://maps.google.com/?cid=0x0:0xfd21aaf060f4b5a2
perumahan,Pembangunan Perumahan,Lokasi elthom,"M6G9+6H3, Akeju, Kec. Oransbari, Kab. Manokwari Selatan, Papua Bar. 98353","Akeju, Kec. Oransbari, Kab. Manokwari Selatan",PAPUA BARAT,98353.0,Indonesia,,-1.3244833,134.218929,https://maps.google.com/?cid=0x0:0xb09a1f9381be4097
perumahan,Komplek perumahan,Rumah Mas Fi,"M6J9+GVG, Sidomulyo, Kec. Oransbari, Kabupaten Manokwari, Papua Bar. 98353","Sidomulyo, Kec. Oransbari, Kabupaten Manokwari",PAPUA BARAT,98353.0,Indonesia,,-1.3198379,134.2192861,https://maps.google.com/?cid=0x0:0x541d2e07baad2b6d
perumahan,perumahan,Papua Bar. 98359,Papua Bar.,Papua Bar.,PAPUA BARAT,,Indonesia,,-1.5213839,133.7525619,https://maps.google.com/?cid=0x0:0xc8a895044b18d7c8
perumahan,Pembangunan Perumahan,Anggimer kepala danau,"HVVH+RQC, Unnamed Road, Danau, Distrik Sururey, Kab. Pegunungan Arfak, Papua Bar. 98354","Unnamed Road, Danau, Distrik Sururey, Kab. Pegunungan Arfak",PAPUA BARAT,98354.0,Indonesia,,-1.4054341,133.8793778,https://maps.google.com/?cid=0x0:0xbd6ceb327ceaefac
perumahan,Pembangunan Perumahan,Kampung Sauggemeba,"JV5F+HR7, Sururey, Distrik Sururey, Kab. Pegunungan Arfak, Papua Bar.","Kab. Pegunungan Arfak, Papua Bar.",PAPUA BARAT,,Indonesia,,-1.3910896,133.8745438,https://maps.google.com/?cid=0x0:0xa52c031469fceef0
perumahan,Balai masyarakat,Desa Horna,"9MM6+W68, Horna, Distrik Dataran Beimes, Kabupaten Teluk Bintuni, Papua Bar.","Kabupaten Teluk Bintuni, Papua Bar.",PAPUA BARAT,,Indonesia,,-1.6152004,133.6605719,https://maps.google.com/?cid=0x0:0x64b42d55af592552
perumahan,Kantor Pemerintah,Dataran Isim,"9V88+36, Menci, Distrik Dataran Beimes, Kabupaten Teluk Bintuni, Papua Bar.","Kabupaten Teluk Bintuni, Papua Bar.",PAPUA BARAT,,Indonesia,,-1.634777,133.865501,https://maps.google.com/?cid=0x0:0x92d045cbf9cbba8b
perumahan,Perhimpunan Pengembang Perumahan,IRAI,"MWF8+GR2, Suteibey, Distrik Anggi, Kab. Pegunungan Arfak, Papua Bar. 98354","Suteibey, Distrik Anggi, Kab. Pegunungan Arfak",PAPUA BARAT,98354.0,Indonesia,,-1.3262457,133.9170123,https://maps.google.com/?cid=0x0:0xcbb75642b28d0c5
perumahan,perumahan,Distrik Sururey,"Danau, Kab. Pegunungan Arfak, Papua Bar.","Kab. Pegunungan Arfak, Papua Bar.",PAPUA BARAT,,Indonesia,,-1.4064846,133.8840956,https://maps.google.com/?cid=0x0:0xd9219852feca5c52
perumahan,Pembangunan Perumahan,kampung kobrey,"JW67+J33, Kobrey, Distrik Sururey, Kabupaten Manokwari, Papua Bar.","Kabupaten Manokwari, Papua Bar.",PAPUA BARAT,,Indonesia,,-1.3884759,133.9126734,https://maps.google.com/?cid=0x0:0x2ea46324038c90a3
perumahan,Pembangunan Perumahan,Lampung Kobrey,"HVVP+J3, Danau, Distrik Sururey, Kabupaten Manokwari, Papua Bar.","Kabupaten Manokwari, Papua Bar.",PAPUA BARAT,,Indonesia,,-1.4059758,133.8851228,https://maps.google.com/?cid=0x0:0x1b491cbfcd68fa79
perumahan,Kantor Pemerintah,Kampung Imbai,"MWC7+V8H, Imbai, Distrik Anggi, Kab. Pegunungan Arfak, Papua Bar.","Kab. Pegunungan Arfak, Papua Bar.",PAPUA BARAT,,Indonesia,,-1.3278086,133.9133714,https://maps.google.com/?cid=0x0:0xc7f065c24a4e4781
perumahan,Pembangunan Perumahan,Kampung Udohotma,"JW22+W2Q, Danau, Kec. Anggi Gida, Kabupaten Manokwari, Papua Bar.","Kabupaten Manokwari, Papua Bar.",PAPUA BARAT,,Indonesia,,-1.3976623,133.9001055,https://maps.google.com/?cid=0x0:0xb07741e7925c9718
perumahan,Pembangunan Perumahan,Kampung Tuabyam,"JW9Q+5J4, Tuabyam, Kec. Anggi Gida, Kabupaten Manokwari, Papua Bar.","Kabupaten Manokwari, Papua Bar.",PAPUA BARAT,,Indonesia,,-1.3821247,133.9390669,https://maps.google.com/?cid=0x0:0x53b431ecf9a2ae46
perumahan,perumahan,The Samallo's Home,"JV7G+J3F, Danau, Distrik Sururey, Kab. Pegunungan Arfak, Papua Bar. 98354","Danau, Distrik Sururey, Kab. Pegunungan Arfak",PAPUA BARAT,98354.0,Indonesia,,-1.3858628,133.8755459,https://maps.google.com/?cid=0x0:0x6c6ca11ecd2b5d96
perumahan,Polisi Lalu Lintas,Polres Mansel,"FWP2+979, Wama, Distrik Neney, Kab. Manokwari Selatan, Papua Bar.","Kab. Manokwari Selatan, Papua Bar.",PAPUA BARAT,,Indonesia,,-1.5140762,133.900743,https://maps.google.com/?cid=0x0:0x467621878032a394
perumahan,perumahan,Puskesmas Taige,"MVR3+5P, Deroubu, Distrik Taige, Kab. Pegunungan Arfak, Papua Bar.","Kab. Pegunungan Arfak, Papua Bar.",PAPUA BARAT,,Indonesia,,-1.309505,133.854345,https://maps.google.com/?cid=0x0:0x88a11c483bc74c5d
perumahan,perumahan,Distrik Taige,"Kab. Pegunungan Arfak, Papua Bar.","Kab. Pegunungan Arfak, Papua Bar.",PAPUA BARAT,,Indonesia,,-1.3349517,133.8773025,https://maps.google.com/?cid=0x0:0x2d97549ab4ee4715
perumahan,perumahan,Agen minyak tanah irianto,"MV8G+3W9, Siskedouw, Distrik Taige, Kabupaten Manokwari, Papua Bar.","Kabupaten Manokwari, Papua Bar.",PAPUA BARAT,,Indonesia,,-1.3348391,133.8773631,https://maps.google.com/?cid=0x0:0x93c16bf80456d31
perumahan,perumahan,Papua Bar. 98315,"Kabupaten Manokwari, Papua Bar.","Kabupaten Manokwari, Papua Bar.",PAPUA BARAT,,Indonesia,,-1.0762009,133.4452148,https://maps.google.com/?cid=0x0:0xe20d605d60a391b5
perumahan,Komplek perumahan,Distrik Testega,"VG9C+HVX, Testega, Kab. Pegunungan Arfak, Papua Bar.","Kab. Pegunungan Arfak, Papua Bar.",PAPUA BARAT,,Indonesia,,-1.1310182,133.5222313,https://maps.google.com/?cid=0x0:0xf4838e49ffe1be99
perumahan,Komplek perumahan,Rumah Guru SMP Testega,"VG9C+HVX, Testega, Kab. Pegunungan Arfak, Papua Bar.","Kab. Pegunungan Arfak, Papua Bar.",PAPUA BARAT,,Indonesia,,-1.1310182,133.5222313,https://maps.google.com/?cid=0x0:0x45257f64f2b719ac
perumahan,Komplek perumahan,Meigehenawu,"RCJ8+PG3, Meigehenawu, Testega, Kab. Pegunungan Arfak, Papua Bar. 98315","Meigehenawu, Testega, Kab. Pegunungan Arfak",PAPUA BARAT,98315.0,Indonesia,,-1.1682333,133.4163028,https://maps.google.com/?cid=0x0:0xdb55e21be7a922bb
perumahan,Komplek perumahan,Perumahan guru SMK,"4RCP+8W4, Udapi Hilir, Distrik Prafi, Kabupaten Manokwari, Papua Bar. 98356","Udapi Hilir, Distrik Prafi, Kabupaten Manokwari",PAPUA BARAT,98356.0,Indonesia,,-0.8792466,133.8373271,https://maps.google.com/?cid=0x0:0xe1528937faf56bd0
perumahan,Taman,Perumahan Bukit Sowi Indah,"426J+HMF, Unnamed Road, Sowi, Distrik Manokwari, Kabupaten Manokwari, Papua Bar. 98315","Unnamed Road, Sowi, Distrik Manokwari, Kabupaten Manokwari",PAPUA BARAT,98315.0,Indonesia,,-0.8885742,134.0316604,https://maps.google.com/?cid=0x0:0xe4de0d0d8a8f199e
perumahan,Komplek perumahan,Sogun Permai 5,"429F+V9J, Jl. Drs Esau Sesa, Sowi, Distrik Manokwari, Kabupaten Manokwari, Papua Bar. 98315","Jl. Drs Esau Sesa, Sowi, Distrik Manokwari, Kabupaten Manokwari",PAPUA BARAT,98315.0,Indonesia,,-0.8802862,134.0233934,https://maps.google.com/?cid=0x0:0x9e11038dcbfdad68
perumahan,Komplek perumahan,Workshop TESPER,"VG9C+HVX, Testega, Kab. Pegunungan Arfak, Papua Bar.","Kab. Pegunungan Arfak, Papua Bar.",PAPUA BARAT,,Indonesia,,-1.1310182,133.5222313,https://maps.google.com/?cid=0x0:0xb9d9fad0d263c78c
perumahan,Komplek perumahan,Perum,"32RM+JJX, Sowi, Distrik Manokwari, Kabupaten Manokwari, Papua Bar. 98315","Sowi, Distrik Manokwari, Kabupaten Manokwari",PAPUA BARAT,98315.0,Indonesia,,-0.9083809,134.0341132,https://maps.google.com/?cid=0x0:0xca8125596550c942
perumahan,Komplek perumahan,Rumah pendulangan,"XJ6V+GJ, Ijigrek, Distrik Catubouw, Kab. Pegunungan Arfak, Papua Bar.","Kab. Pegunungan Arfak, Papua Bar.",PAPUA BARAT,,Indonesia,,-1.0386353,133.6440501,https://maps.google.com/?cid=0x0:0xf91cdf4a8bd1138e
perumahan,Komplek perumahan,Rumah Pak Karno,"4V4Q+XP4, Matoa, Distrik Prafi, Kabupaten Manokwari, Papua Bar. 98315","Matoa, Distrik Prafi, Kabupaten Manokwari",PAPUA BARAT,98315.0,Indonesia,,-0.8926041,133.889319,https://maps.google.com/?cid=0x0:0xbebba061ab1fbb38
perumahan,Komplek perumahan,RUMAH EVI,"5Q9C+CQ9, Unnamed Road, Meiforga, Masni, Manokwari Regency, West Papua 98357","Unnamed Road, Meiforga, Masni, Manokwari Regency",PAPUA BARAT,98357.0,Indonesia,,-0.8314603,133.7719723,https://maps.google.com/?cid=0x0:0x835e140097cb836d
perumahan,Pembangunan Perumahan,Pak Hasim,"sp3, Jalur 2, Waseki Indah, Distrik Prafi, Kabupaten Manokwari, Papua Bar. 98356","Jalur 2, Waseki Indah, Distrik Prafi, Kabupaten Manokwari",PAPUA BARAT,98356.0,Indonesia,,-0.8824042,133.8128836,https://maps.google.com/?cid=0x0:0xd334c16140bd1305
perumahan,Pembangunan Perumahan,Perumahan Weluri,"3X8V+97F, Weluri, Distrik Manokwari, Kabupaten Manokwari, Papua Bar. 98315","Weluri, Distrik Manokwari, Kabupaten Manokwari",PAPUA BARAT,98315.0,Indonesia,,-0.9340575,133.9931596,https://maps.google.com/?cid=0x0:0x417060e06eafa489
perumahan,perumahan,Papua Bar. 98352,"Kabupaten Manokwari, Papua Bar.","Kabupaten Manokwari, Papua Bar.",PAPUA BARAT,,Indonesia,,-1.0122519,133.9055155,https://maps.google.com/?cid=0x0:0x665ab61075e0d624
perumahan,Pembangunan Perumahan,PERTIGAAN KE MAYAMBOUW,"2VQP+32V, Snaimboy, Kec. Warmare, Kabupaten Manokwari, Papua Bar. 98352","Snaimboy, Kec. Warmare, Kabupaten Manokwari",PAPUA BARAT,98352.0,Indonesia,,-0.9622506,133.8850335,https://maps.google.com/?cid=0x0:0xba410d7b451e0216
perumahan,Komplek perumahan,Distrik Testega,"VG9C+HVX, Testega, Kab. Pegunungan Arfak, Papua Bar.","Kab. Pegunungan Arfak, Papua Bar.",PAPUA BARAT,,Indonesia,,-1.1310182,133.5222313,https://maps.google.com/?cid=0x0:0xf4838e49ffe1be99
perumahan,Komplek perumahan,Hariyanto/Murni,"2VWF+H2F, Kampung BEDIP JAYA, Kec. Warmare, Kabupaten Manokwari, Papua Bar.","Kabupaten Manokwari, Papua Bar.",PAPUA BARAT,,Indonesia,,-0.953554,133.8725559,https://maps.google.com/?cid=0x0:0xe002e3413ca8e7a0
perumahan,Pembangunan Perumahan,KAMPUNG BEDIB JAYA,"2VWF+R6X, Nimbay, Kec. Warmare, Kabupaten Manokwari, Papua Bar. 98352","Nimbay, Kec. Warmare, Kabupaten Manokwari",PAPUA BARAT,98352.0,Indonesia,,-0.9528805,133.8730986,https://maps.google.com/?cid=0x0:0xf9bb10bc2b203338
perumahan,perumahan,Restu home,"3VGX+9MQ, Prafi Mulia, Distrik Prafi, Kabupaten Manokwari, Papua Bar.","Kabupaten Manokwari, Papua Bar.",PAPUA BARAT,,Indonesia,,-0.9240849,133.8993331,https://maps.google.com/?cid=0x0:0x3f5fb58049b0691f
perumahan,Komplek perumahan,Rumah,"3VJR+GFP, Prafi Mulia, Distrik Prafi, Kabupaten Manokwari, Papua Bar.","Kabupaten Manokwari, Papua Bar.",PAPUA BARAT,,Indonesia,,-0.9196079,133.8968159,https://maps.google.com/?cid=0x0:0x8db156a94978aeb6
perumahan,Komplek perumahan,Perumahan Fulica Griya Anday,"3275+42W, Anday, Distrik Manokwari, Kabupaten Manokwari, Papua Bar. 98315","Anday, Distrik Manokwari, Kabupaten Manokwari",PAPUA BARAT,98315.0,Indonesia,,-0.9371498,134.0075767,https://maps.google.com/?cid=0x0:0xda26f11aa914a80
perumahan,Komplek perumahan,Rumah Haji Tukiran,"3WF2+R3C, Jalur 6, Prafi Mulia, Distrik Prafi, Kabupaten Manokwari, Papua Bar. 98352","Jalur 6, Prafi Mulia, Distrik Prafi, Kabupaten Manokwari",PAPUA BARAT,98352.0,Indonesia,,-0.9254492,133.9001395,https://maps.google.com/?cid=0x0:0xf7cbb63e3848bf27
perumahan,perumahan,Uripncuw,"2WR5+34, Cening/Sotea, Kec. Warmare, Kabupaten Manokwari, Papua Bar.","Kabupaten Manokwari, Papua Bar.",PAPUA BARAT,,Indonesia,,-0.9599019,133.9078684,https://maps.google.com/?cid=0x0:0xc0873415aae1f241
perumahan,Komplek perumahan,Kompleks SP2,"3VVM+Q9H, Desay, Distrik Prafi, Kabupaten Manokwari, Papua Bar. 98356","Desay, Distrik Prafi, Kabupaten Manokwari",PAPUA BARAT,98356.0,Indonesia,,-0.9055574,133.8834758,https://maps.google.com/?cid=0x0:0x6d9581e5f5dd6ec4
perumahan,Pembangunan Perumahan,Bapak Sakhrir Effendi,"3VHV+V29, Prafi Mulia, Distrik Prafi, Kabupaten Manokwari, Papua Bar. 98352","Prafi Mulia, Distrik Prafi, Kabupaten Manokwari",PAPUA BARAT,98352.0,Indonesia,,-0.9203394,133.8925951,https://maps.google.com/?cid=0x0:0x1589fe4465c4e0eb
perumahan,Balai masyarakat,Posko KKN UNIPA KAMPUNG DUWIN 2025,"Duwin Umsini, Kec. Warmare, Kabupaten Manokwari, Papua Bar. 98352","Kec. Warmare, Kabupaten Manokwari",PAPUA BARAT,98352.0,Indonesia,,-0.9814605,133.9605112,https://maps.google.com/?cid=0x0:0x2496d18d4b5dd8f1
perumahan,Perhimpunan Pengembang Perumahan,Kamp. Berpai,"3WQ6+96V, Ingkwoisi, Distrik Prafi, Kabupaten Manokwari, Papua Bar. 98315","Ingkwoisi, Distrik Prafi, Kabupaten Manokwari",PAPUA BARAT,98315.0,Indonesia,,-0.911515,133.9105571,https://maps.google.com/?cid=0x0:0x9533786da12ca2af
perumahan,perumahan,Papua Bar. 98357,"Kabupaten Manokwari, Papua Bar.","Kabupaten Manokwari, Papua Bar.",PAPUA BARAT,,Indonesia,,-0.8227418,133.5606946,https://maps.google.com/?cid=0x0:0x3e375139d962692c
perumahan,Komplek perumahan,Distrik Testega,"VG9C+HVX, Testega, Kab. Pegunungan Arfak, Papua Bar.","Kab. Pegunungan Arfak, Papua Bar.",PAPUA BARAT,,Indonesia,,-1.1310182,133.5222313,https://maps.google.com/?cid=0x0:0xf4838e49ffe1be99
perumahan,Komplek perumahan,Rumah Guru SMP Testega,"VG9C+HVX, Testega, Kab. Pegunungan Arfak, Papua Bar.","Kab. Pegunungan Arfak, Papua Bar.",PAPUA BARAT,,Indonesia,,-1.1310182,133.5222313,https://maps.google.com/?cid=0x0:0x45257f64f2b719ac
perumahan,Komplek perumahan,RUMAH EVI,"5Q9C+CQ9, Unnamed Road, Meiforga, Masni, Manokwari Regency, West Papua 98357","Unnamed Road, Meiforga, Masni, Manokwari Regency",PAPUA BARAT,98357.0,Indonesia,,-0.8314603,133.7719723,https://maps.google.com/?cid=0x0:0x835e140097cb836d
perumahan,Komplek perumahan,Posko unipa 2023/2024,"5PRJ+X88, Bowi Subur, Distrik Masni, Kabupaten Manokwari, Papua Bar. 98357","Bowi Subur, Distrik Masni, Kabupaten Manokwari",PAPUA BARAT,98357.0,Indonesia,82199626277.0,-0.8075872,133.7308432,https://maps.google.com/?cid=0x0:0x11a902b4e03345dc
perumahan,Minimarket,Kompleks balagu,"6MFX+CP6, Wariori, Distrik Masni, Kabupaten Manokwari, Papua Bar. 98357","Wariori, Distrik Masni, Kabupaten Manokwari",PAPUA BARAT,98357.0,Indonesia,,-0.7754878,133.6985352,https://maps.google.com/?cid=0x0:0x177df3b1332de92c
perumahan,Pembangunan Perumahan,PERUMAHAN,"6P9J+QGX, Unnamed Road, Sumber Boga, Distrik Masni, Kabupaten Manokwari, Papua Bar. 98357","Unnamed Road, Sumber Boga, Distrik Masni, Kabupaten Manokwari",PAPUA BARAT,98357.0,Indonesia,,-0.78052,133.731366,https://maps.google.com/?cid=0x0:0x6f2aabec16bf17f7
perumahan,Pembangunan Perumahan,Nasifa,"5PHJ+592, Bowi Subur, Distrik Masni, Kabupaten Manokwari, Papua Bar. 98357","Bowi Subur, Distrik Masni, Kabupaten Manokwari",PAPUA BARAT,98357.0,Indonesia,,-0.8221094,133.730885,https://maps.google.com/?cid=0x0:0x94d6f6973a72356d
perumahan,Komplek perumahan,Rissa,"5P28+9JX, Membowi, Distrik Masni, Kabupaten Manokwari, Papua Bar. 98357","Membowi, Distrik Masni, Kabupaten Manokwari",PAPUA BARAT,98357.0,Indonesia,,-0.8490024,133.7166089,https://maps.google.com/?cid=0x0:0xf28e21b4cf2f017d
perumahan,Komplek perumahan,Sumber Boga,"6P7G+74C, Sumber Boga, Distrik Masni, Kabupaten Manokwari, Papua Bar. 98357","Sumber Boga, Distrik Masni, Kabupaten Manokwari",PAPUA BARAT,98357.0,Indonesia,,-0.7868201,133.7252805,https://maps.google.com/?cid=0x0:0xe316734dcbc0eeea
perumahan,Balai Pertemuan Desa,Rumah Kepala Kampung,"5P7G+RQR, Jowen, Distrik Masni, Kabupaten Manokwari, Papua Bar.","Kabupaten Manokwari, Papua Bar.",PAPUA BARAT,,Indonesia,,-0.8353887,133.7268912,https://maps.google.com/?cid=0x0:0x58c32ec169fef89a
perumahan,perumahan,Ini Rmh winta ya,"6P92+X64, Wariori, Distrik Masni, Kabupaten Manokwari, Papua Bar. 98357","Wariori, Distrik Masni, Kabupaten Manokwari",PAPUA BARAT,98357.0,Indonesia,,-0.780025,133.699485,https://maps.google.com/?cid=0x0:0x1c06b3d8ffcbd8e1
perumahan,Komplek perumahan,Wardiaman Satia House,"6P8F+9WF, Sumber Boga, Distrik Masni, Kabupaten Manokwari, Papua Bar. 98357","Sumber Boga, Distrik Masni, Kabupaten Manokwari",PAPUA BARAT,98357.0,Indonesia,,-0.78407,133.7247964,https://maps.google.com/?cid=0x0:0x2945538497588e3d
perumahan,Taman,Wasegi indah,"4Q3J+HGJ, Waseki Indah, Distrik Prafi, Kabupaten Manokwari, Papua Bar. 98356","Waseki Indah, Distrik Prafi, Kabupaten Manokwari",PAPUA BARAT,98356.0,Indonesia,,-0.8960377,133.7812773,https://maps.google.com/?cid=0x0:0x63cafe02c6847af7
housing complex,housing complex,The Samallo's Home,"JV7G+J3F, Danau, Distrik Sururey, Kab. Pegunungan Arfak, Papua Bar. 98354","Danau, Distrik Sururey, Kab. Pegunungan Arfak",PAPUA BARAT,98354.0,Indonesia,,-1.3858628,133.8755459,https://maps.google.com/?cid=0x0:0x6c6ca11ecd2b5d96
housing complex,Komplek perumahan,Anggi house,"CRV1, Blk. M4, Cihideung Udik, Kec. Ciampea, Kabupaten Bogor, Jawa Barat 16620","Blk. M4, Cihideung Udik, Kec. Ciampea, Kabupaten Bogor",PAPUA BARAT,16620.0,Indonesia,,-6.5767841,106.7176156,https://maps.google.com/?cid=0x0:0x583b18c5d7fc80f7
housing complex,Pembangunan Perumahan,Anggi House,"GWXM+WCM, Kp. Narogong, RT.08/RW.03, Kembang Kuning, Kec. Klapanunggal, Kabupaten Bogor, Jawa Barat","Kabupaten Bogor, Jawa Barat",PAPUA BARAT,,Indonesia,,-6.4501741,106.9335411,https://maps.google.com/?cid=0x0:0x8a8243e58f69b2b9
housing complex,Perhimpunan Pengembang Perumahan,anggi house,"Jl. Raya Muhtar No.10, Sawangan Baru, Kec. Sawangan, Kota Depok, Jawa Barat 16511","Sawangan Baru, Kec. Sawangan, Kota Depok",PAPUA BARAT,16511.0,Indonesia,,-6.403537,106.7649017,https://maps.google.com/?cid=0x0:0xe5c3925243df976
housing complex,Komplek perumahan,Anggi house,"Jl. Ibnu Armah 1 No.9g, Pangkalan Jati Baru, Kec. Cinere, Kota Depok, Jawa Barat 16513","Pangkalan Jati Baru, Kec. Cinere, Kota Depok",PAPUA BARAT,16513.0,Indonesia,,-6.326569,106.7978094,https://maps.google.com/?cid=0x0:0x5ce90a85c0db7494
housing complex,Komplek perumahan,Rumah anggi,"MR34+428, Gg. H. Amsar, RT.12/RW.4, Cipedak, Kec. Jagakarsa, Kota Jakarta Selatan, Daerah Khusus Ibukota Jakarta 12630","Gg. H. Amsar, RT.12/RW.4, Cipedak, Kec. Jagakarsa, Kota Jakarta Selatan",PAPUA BARAT,12630.0,Indonesia,,-6.3472192,106.8050732,https://maps.google.com/?cid=0x0:0x9ec65d806df6e4a5
housing complex,Komplek perumahan,ANGGI HOUSE,"Jl. Kampung Bojong No.19 Blok M, RT.1/RW.19, Abadijaya, Kec. Sukmajaya, Kota Depok, Jawa Barat 16417","RT.1/RW.19, Abadijaya, Kec. Sukmajaya, Kota Depok",PAPUA BARAT,16417.0,Indonesia,,-6.3921753,106.8558986,https://maps.google.com/?cid=0x0:0xdee0ba3eed0a6c42
housing complex,Komplek perumahan,Rumah Anggi,"JQC4+FWP, Cinangka, Kec. Sawangan, Kota Depok, Jawa Barat 16516","Cinangka, Kec. Sawangan, Kota Depok",PAPUA BARAT,16516.0,Indonesia,,-6.3787769,106.7573317,https://maps.google.com/?cid=0x0:0x53e0b6c4a57e5f55
housing complex,Komplek perumahan,Anggi,"PX82+MMC, Bekasi, RT.07/RW.02, Jatikramat, Kec. Jatiasih, Kota Bks, Jawa Barat 17421","Bekasi, RT.07/RW.02, Jatikramat, Kec. Jatiasih, Kota Bks",PAPUA BARAT,17421.0,Indonesia,,-6.2833097,106.9516523,https://maps.google.com/?cid=0x0:0xa8e67b8241a11d4e
housing complex,Gedung Apartemen,Apartemen Anggi,"Jl. Pintu Air No.36, RT.006/RW.002, Karang Tengah, Kec. Karang Tengah, Kota Tangerang, Banten 15157","RT.006/RW.002, Karang Tengah, Kec. Karang Tengah, Kota Tangerang",PAPUA BARAT,15157.0,Indonesia,,-6.2213675,106.7040518,https://maps.google.com/?cid=0x0:0x426ecfd018d0585
housing complex,Komplek perumahan,Anggi,"Perum pabuaran Asri blok C5 no 11 RT 11/08, Pabuaran mekar, Kec. Cibinong, Kabupaten Bogor, Jawa Barat 16916","Pabuaran mekar, Kec. Cibinong, Kabupaten Bogor",PAPUA BARAT,16916.0,Indonesia,,-6.4519873,106.8469836,https://maps.google.com/?cid=0x0:0x24b622e9db5864fe
housing complex,Gedung Apartemen,Anggi,"Jl. Kp. Waringin Jaya No.17, Waringin Jaya, Kecamatan Bojonggede, Kabupaten Bogor, Jawa Barat 16920","Waringin Jaya, Kecamatan Bojonggede, Kabupaten Bogor",PAPUA BARAT,16920.0,Indonesia,,-6.5118662,106.7905703,https://maps.google.com/?cid=0x0:0x81d80f7a729ef802
housing complex,Komplek perumahan,Rumah Anggia,"Jl. Babeh No.48, RT.005/RW.006, Sukatani, Kec. Tapos, Kota Depok, Jawa Barat 16454","RT.005/RW.006, Sukatani, Kec. Tapos, Kota Depok",PAPUA BARAT,16454.0,Indonesia,,-6.3976577,106.8875838,https://maps.google.com/?cid=0x0:0xf02253f3e07e717d
housing complex,Gedung Apartemen,Rumah Anggi,"Jl. Tlk. Tomini No.D2/3, RW.19, Ciangsana, Kec. Gn. Putri, Kabupaten Bogor, Jawa Barat 16968","RW.19, Ciangsana, Kec. Gn. Putri, Kabupaten Bogor",PAPUA BARAT,16968.0,Indonesia,,-6.3658478,106.9515234,https://maps.google.com/?cid=0x0:0x78707d15bca8c8b
housing complex,housing complex,Kec. Anggi Gida,"Kab. Pegunungan Arfak, Papua Bar.","Kab. Pegunungan Arfak, Papua Bar.",PAPUA BARAT,,Indonesia,,-1.3668114,133.9609514,https://maps.google.com/?cid=0x0:0xb4bc71d5f83c5185
housing complex,housing complex,Danau Anggi Gida,"Kab. Pegunungan Arfak, Papua Bar.","Kab. Pegunungan Arfak, Papua Bar.",PAPUA BARAT,,Indonesia,,-1.3963314,133.9532149,https://maps.google.com/?cid=0x0:0xd222eb659585412a
housing complex,housing complex,Anggi Gida,"Kab. Pegunungan Arfak, Papua Bar.","Kab. Pegunungan Arfak, Papua Bar.",PAPUA BARAT,,Indonesia,,-1.3958835,133.9722816,https://maps.google.com/?cid=0x0:0x8008ad12448ea805
housing complex,housing complex,The Samallo's Home,"JV7G+J3F, Danau, Distrik Sururey, Kab. Pegunungan Arfak, Papua Bar. 98354","Danau, Distrik Sururey, Kab. Pegunungan Arfak",PAPUA BARAT,98354.0,Indonesia,,-1.3858628,133.8755459,https://maps.google.com/?cid=0x0:0x6c6ca11ecd2b5d96
housing complex,housing complex,Papua Bar. 98358,"Kabupaten Manokwari, Papua Bar.","Kabupaten Manokwari, Papua Bar.",PAPUA BARAT,,Indonesia,,-1.0707188,133.7525619,https://maps.google.com/?cid=0x0:0x566a5a268f3890ee
housing complex,Komplek perumahan,Wasirawi,"XJ5Q+Q3, Ijigrek, Distrik Catubouw, Kab. Pegunungan Arfak, Papua Bar.","Kab. Pegunungan Arfak, Papua Bar.",PAPUA BARAT,,Indonesia,,-1.0405695,133.6376967,https://maps.google.com/?cid=0x0:0x7f3b0dc8460c40d
housing complex,Komplek perumahan,Rumah pendulangan,"XJ6V+GJ, Ijigrek, Distrik Catubouw, Kab. Pegunungan Arfak, Papua Bar.","Kab. Pegunungan Arfak, Papua Bar.",PAPUA BARAT,,Indonesia,,-1.0386353,133.6440501,https://maps.google.com/?cid=0x0:0xf91cdf4a8bd1138e
housing complex,Pembangunan Perumahan,AWL.PERENCANAAN ANSUINYAI,"RR3F+C8, Coijud, Distrik Catubouw, Kab. Pegunungan Arfak, Papua Bar.","Kab. Pegunungan Arfak, Papua Bar.",PAPUA BARAT,,Indonesia,,-1.1963944,133.823325,https://maps.google.com/?cid=0x0:0xa17db3ce3e7e40ca
housing complex,Pembangunan Perumahan,KAMPUNG UMPUG DISTRIK MINYAMBOUW PAGUNGAN ARFAK,"KAMPUNG UMPUG, Kab. Pegunungan Arfak, Papua Bar. 98351",Kab. Pegunungan Arfak,PAPUA BARAT,98351.0,Indonesia,82399128801.0,-1.0470329,133.8775283,https://maps.google.com/?cid=0x0:0xfa04b5762a5c4a7f
housing complex,Komplek perumahan,Hp Wasrawi,"RQ2X+53, Coijud, Distrik Catubouw, Kabupaten Manokwari, Papua Bar.","Kabupaten Manokwari, Papua Bar.",PAPUA BARAT,,Indonesia,,-1.1996111,133.7976389,https://maps.google.com/?cid=0x0:0x719170824e3365fa
housing complex,housing complex,Distrik Catubouw,"Kab. Pegunungan Arfak, Papua Bar.","Kab. Pegunungan Arfak, Papua Bar.",PAPUA BARAT,,Indonesia,,-1.0434381,133.7142484,https://maps.google.com/?cid=0x0:0x75b017c2013f8105
housing complex,Pembangunan Perumahan,Kampung Syou,"VWV6+9H7, Figoud, Distrik Minyambouw, Kab. Pegunungan Arfak, Papua Bar.","Kab. Pegunungan Arfak, Papua Bar.",PAPUA BARAT,,Indonesia,,-1.1065764,133.9114365,https://maps.google.com/?cid=0x0:0xc8c9ccaba7a3eca1
housing complex,Komplek perumahan,Rumah Guru SMP Testega,"VG9C+HVX, Testega, Kab. Pegunungan Arfak, Papua Bar.","Kab. Pegunungan Arfak, Papua Bar.",PAPUA BARAT,,Indonesia,,-1.1310182,133.5222313,https://maps.google.com/?cid=0x0:0x45257f64f2b719ac
housing complex,Pembangunan Perumahan,PERTIGAAN KE MAYAMBOUW,"2VQP+32V, Snaimboy, Kec. Warmare, Kabupaten Manokwari, Papua Bar. 98352","Snaimboy, Kec. Warmare, Kabupaten Manokwari",PAPUA BARAT,98352.0,Indonesia,,-0.9622506,133.8850335,https://maps.google.com/?cid=0x0:0xba410d7b451e0216
housing complex,housing complex,karetji,"4RF8+98F, Waseki Indah, Distrik Prafi, Kabupaten Manokwari, Papua Bar. 98356","Waseki Indah, Distrik Prafi, Kabupaten Manokwari",PAPUA BARAT,98356.0,Indonesia,,-0.8771715,133.8158708,https://maps.google.com/?cid=0x0:0xd35afeea41dec81f
housing complex,Pembangunan Perumahan,KAMPUNG BEDIB JAYA,"2VWF+R6X, Nimbay, Kec. Warmare, Kabupaten Manokwari, Papua Bar. 98352","Nimbay, Kec. Warmare, Kabupaten Manokwari",PAPUA BARAT,98352.0,Indonesia,,-0.9528805,133.8730986,https://maps.google.com/?cid=0x0:0xf9bb10bc2b203338
housing complex,Pembangunan Perumahan,Rumah Sekretaris Kamp. Ibuwau,"2VQX+G8, Ibuwau, Kec. Warmare, Kabupaten Manokwari, Papua Bar.","Kabupaten Manokwari, Papua Bar.",PAPUA BARAT,,Indonesia,,-0.9612101,133.8984009,https://maps.google.com/?cid=0x0:0x2da538c90cb24079
housing complex,Komplek perumahan,Workshop TESPER,"VG9C+HVX, Testega, Kab. Pegunungan Arfak, Papua Bar.","Kab. Pegunungan Arfak, Papua Bar.",PAPUA BARAT,,Indonesia,,-1.1310182,133.5222313,https://maps.google.com/?cid=0x0:0xb9d9fad0d263c78c
housing complex,housing complex,Papua Bar. 98359,Papua Bar.,Papua Bar.,PAPUA BARAT,,Indonesia,,-1.5213839,133.7525619,https://maps.google.com/?cid=0x0:0xc8a895044b18d7c8
housing complex,Balai masyarakat,Desa Horna,"9MM6+W68, Horna, Distrik Dataran Beimes, Kabupaten Teluk Bintuni, Papua Bar.","Kabupaten Teluk Bintuni, Papua Bar.",PAPUA BARAT,,Indonesia,,-1.6152004,133.6605719,https://maps.google.com/?cid=0x0:0x64b42d55af592552
housing complex,Kantor Pemerintah,Dataran Isim,"9V88+36, Menci, Distrik Dataran Beimes, Kabupaten Teluk Bintuni, Papua Bar.","Kabupaten Teluk Bintuni, Papua Bar.",PAPUA BARAT,,Indonesia,,-1.634777,133.865501,https://maps.google.com/?cid=0x0:0x92d045cbf9cbba8b
housing complex,housing complex,The Samallo's Home,"JV7G+J3F, Danau, Distrik Sururey, Kab. Pegunungan Arfak, Papua Bar. 98354","Danau, Distrik Sururey, Kab. Pegunungan Arfak",PAPUA BARAT,98354.0,Indonesia,,-1.3858628,133.8755459,https://maps.google.com/?cid=0x0:0x6c6ca11ecd2b5d96
housing complex,Pembangunan Perumahan,Anggimer kepala danau,"HVVH+RQC, Unnamed Road, Danau, Distrik Sururey, Kab. Pegunungan Arfak, Papua Bar. 98354","Unnamed Road, Danau, Distrik Sururey, Kab. Pegunungan Arfak",PAPUA BARAT,98354.0,Indonesia,,-1.4054341,133.8793778,https://maps.google.com/?cid=0x0:0xbd6ceb327ceaefac
housing complex,housing complex,Hingk,"Kab. Pegunungan Arfak, Papua Bar.","Kab. Pegunungan Arfak, Papua Bar.",PAPUA BARAT,,Indonesia,,-1.2205844,133.9627492,https://maps.google.com/?cid=0x0:0x3f01e43bc4522fcd
housing complex,Balai Pertemuan Desa,Kampung kawanua,"X2R9+CR9, Doput, Distrik Manokwari, Kabupaten Manokwari, Papua Bar. 98315","Doput, Distrik Manokwari, Kabupaten Manokwari",PAPUA BARAT,98315.0,Indonesia,,-1.0087133,134.0187873,https://maps.google.com/?cid=0x0:0xdc22ea75d8a8e191
housing complex,Toko umum,Kios Zane,"X2QC+R8F, Doput, Distrik Manokwari, Kabupaten Manokwari, Papua Bar. 98315","Doput, Distrik Manokwari, Kabupaten Manokwari",PAPUA BARAT,98315.0,Indonesia,,-1.0101254,134.020714,https://maps.google.com/?cid=0x0:0x71514b9e990776c4
housing complex,Balai masyarakat,Balai Kampung Tanah Merah,"XXXM+GQ7, Tanah Merah, Kec. Warmare, Kabupaten Manokwari, Papua Bar.","Kabupaten Manokwari, Papua Bar.",PAPUA BARAT,,Indonesia,,-1.0012106,133.9844154,https://maps.google.com/?cid=0x0:0x1a2fa8387fb2f12f
housing complex,housing complex,Kampung nik,"425W+FGM, Sowi, Distrik Manokwari, Kabupaten Manokwari, Papua Bar.","Kabupaten Manokwari, Papua Bar.",PAPUA BARAT,,Indonesia,,-0.8912986,134.0463068,https://maps.google.com/?cid=0x0:0x51db8b5b66eaf456
housing complex,Komplek perumahan,Rumah Kel.Saghawari-Linggar,"Anday, Distrik Manokwari, Kabupaten Manokwari, Papua Bar. 98315","Distrik Manokwari, Kabupaten Manokwari",PAPUA BARAT,98315.0,Indonesia,,-0.9477432,134.0077798,https://maps.google.com/?cid=0x0:0x688a88e2ff218317
housing complex,Komplek perumahan,Rumah sekretaris kampung TAMER ( Agus Wonggor),"XXXQ+M8C, Tanah Merah, Kec. Warmare, Kabupaten Supiori, Papua","Kabupaten Supiori, Papua",PAPUA BARAT,,Indonesia,,-1.0010132,133.9872656,https://maps.google.com/?cid=0x0:0x642ed1003cbd8b7a
housing complex,housing complex,belakang pltd,"32CM+576, Jl. Manokwari - Maruni, Anday, Distrik Manokwari, Kabupaten Manokwari, Papua Bar. 98315","Jl. Manokwari - Maruni, Anday, Distrik Manokwari, Kabupaten Manokwari",PAPUA BARAT,98315.0,Indonesia,,-0.9295879,134.0331421,https://maps.google.com/?cid=0x0:0x7e8947e89878b65
housing complex,Pembangunan Perumahan,KAMPUNG PERSIPAN ARIGAU UNBEY,"QXH7+Q39, Kwok I, Hingk, Kabupaten Manokwari, Papua Bar.","Kabupaten Manokwari, Papua Bar.",PAPUA BARAT,,Indonesia,,-1.2205844,133.9627492,https://maps.google.com/?cid=0x0:0xe534ca913a49b263
housing complex,Pembangunan Perumahan,Kampung Misapmeysi,"X2W9+WMR, Misapmeysi, Distrik Manokwari, Kabupaten Manokwari, Papua Bar.","Kabupaten Manokwari, Papua Bar.",PAPUA BARAT,,Indonesia,,-1.002628,134.0191393,https://maps.google.com/?cid=0x0:0x74b7069f263abbe5
housing complex,Tempat Budi Daya Makanan Laut,Rumah Kepiting dan Udang Bintuni,"22W2+9G3, Maruni, Distrik Manokwari, Kabupaten Manokwari, Papua Bar. 98315","Maruni, Distrik Manokwari, Kabupaten Manokwari",PAPUA BARAT,98315.0,Indonesia,82198416429.0,-0.9541219,134.0012979,https://maps.google.com/?cid=0x0:0x3fe13d404862f90c
housing complex,housing complex,Rizky D,"224J+RQW, Maruni, Distrik Manokwari, Kabupaten Manokwari, Papua Bar. 98315","Maruni, Distrik Manokwari, Kabupaten Manokwari",PAPUA BARAT,98315.0,Indonesia,,-0.9926586,134.0322213,https://maps.google.com/?cid=0x0:0x13c308fca2171c7f
housing complex,Pembangunan Perumahan,Pondok Vania,"X2QC+R8F, Doput, Distrik Manokwari, Kabupaten Manokwari, Papua Bar. 98315","Doput, Distrik Manokwari, Kabupaten Manokwari",PAPUA BARAT,98315.0,Indonesia,,-1.0099523,134.0208042,https://maps.google.com/?cid=0x0:0xf4b58e1c5de567e7
housing complex,Area Mendaki,Tempat biasa,"Jl. Trikora Maripi No.2, Sanggeng, Distrik Manokwari, Kabupaten Manokwari, Papua Bar.","Kabupaten Manokwari, Papua Bar.",PAPUA BARAT,,Indonesia,,-0.930519,134.0187604,https://maps.google.com/?cid=0x0:0xf1c713ba7cfce510
housing complex,housing complex,Kec. Membey,"Kab. Pegunungan Arfak, Papua Bar.","Kab. Pegunungan Arfak, Papua Bar.",PAPUA BARAT,,Indonesia,,-1.3416452,134.0336402,https://maps.google.com/?cid=0x0:0x6db50f43a0973078
housing complex,housing complex,Rumah Aila,"M6PC+28G, Sidomulyo, Kec. Oransbari, Kab. Manokwari Selatan, Papua Bar. 98353","Sidomulyo, Kec. Oransbari, Kab. Manokwari Selatan",PAPUA BARAT,98353.0,Indonesia,,-1.315208,134.220505,https://maps.google.com/?cid=0x0:0x4a7d7ee98c7578ee
housing complex,housing complex,3.Asis tata,"M66H+MWP, Muari, Kec. Oransbari, Kab. Manokwari Selatan, Papua Bar.","Kab. Manokwari Selatan, Papua Bar.",PAPUA BARAT,,Indonesia,,-1.338505,134.229732,https://maps.google.com/?cid=0x0:0x593370041473a262
housing complex,Pembangunan Perumahan,Lokasi elthom,"M6G9+6H3, Akeju, Kec. Oransbari, Kab. Manokwari Selatan, Papua Bar. 98353","Akeju, Kec. Oransbari, Kab. Manokwari Selatan",PAPUA BARAT,98353.0,Indonesia,,-1.3244833,134.218929,https://maps.google.com/?cid=0x0:0xb09a1f9381be4097
housing complex,Pembangunan Perumahan,Kampung Tuabyam,"JW9Q+5J4, Tuabyam, Kec. Anggi Gida, Kabupaten Manokwari, Papua Bar.","Kabupaten Manokwari, Papua Bar.",PAPUA BARAT,,Indonesia,,-1.3821247,133.9390669,https://maps.google.com/?cid=0x0:0x53b431ecf9a2ae46
housing complex,Pembangunan Perumahan,Kampung Mambrema,"H3CR+F9W, Mambrema, Distrik Ransiki, Kab. Manokwari Selatan, Papua Bar. 98355","Mambrema, Distrik Ransiki, Kab. Manokwari Selatan",PAPUA BARAT,98355.0,Indonesia,,-1.4287573,134.0909447,https://maps.google.com/?cid=0x0:0xfd21aaf060f4b5a2
housing complex,Pembangunan Perumahan,Aryawenmoho Nenei Manokwari Selatan Papua Barat Indonesia,"G2F5+8FH, Aryawenmoho, Distrik Neney, Kab. Manokwari Selatan, Papua Bar. 98355","Aryawenmoho, Distrik Neney, Kab. Manokwari Selatan",PAPUA BARAT,98355.0,Indonesia,82239363710.0,-1.4766952,134.00872,https://maps.google.com/?cid=0x0:0x6ac8888d0791e628
housing complex,Balai masyarakat,PERUMAHAN KAMPUNG MBISOY PUKBEY,"P66H+CQ, Watariri, Kec. Oransbari, Kabupaten Manokwari, Papua Bar.","Kabupaten Manokwari, Papua Bar.",PAPUA BARAT,,Indonesia,,-1.2889998,134.2294174,https://maps.google.com/?cid=0x0:0x9d65d1e1fec80b2f
housing complex,Pembangunan Perumahan,Lembur Kuring,"M6H9+34H, Jl. Manokwari - Bintuni, Akeju, Kec. Oransbari, Kab. Manokwari Selatan, Papua Bar. 98353","Jl. Manokwari - Bintuni, Akeju, Kec. Oransbari, Kab. Manokwari Selatan",PAPUA BARAT,98353.0,Indonesia,,-1.3222986,134.2178912,https://maps.google.com/?cid=0x0:0x1c30b7b21f3a33c
housing complex,Pembangunan Perumahan,Rumah Mualim,"M6J9+Q66, Sidomulyo, Kec. Oransbari, Kab. Manokwari Selatan, Papua Bar.","Kab. Manokwari Selatan, Papua Bar.",PAPUA BARAT,,Indonesia,,-1.3180949,134.2180207,https://maps.google.com/?cid=0x0:0x7c51d04ca92c4e2d
housing complex,Balai masyarakat,PERUMAHAN KAMPUNG MBISOY PUKBEY,"P63M+HXM, Warbiadi, Kec. Oransbari, Kabupaten Manokwari, Papua Bar. 98353","Warbiadi, Kec. Oransbari, Kabupaten Manokwari",PAPUA BARAT,98353.0,Indonesia,,-1.2960344,134.234916,https://maps.google.com/?cid=0x0:0x8daee7893ed907b5
housing complex,housing complex,The Samallo's Home,"JV7G+J3F, Danau, Distrik Sururey, Kab. Pegunungan Arfak, Papua Bar. 98354","Danau, Distrik Sururey, Kab. Pegunungan Arfak",PAPUA BARAT,98354.0,Indonesia,,-1.3858628,133.8755459,https://maps.google.com/?cid=0x0:0x6c6ca11ecd2b5d96
housing complex,Pembangunan Perumahan,Wahyudi,"M6H9+HHQ, Sidomulyo, Kec. Oransbari, Kab. Manokwari Selatan, Papua Bar. 98353","Sidomulyo, Kec. Oransbari, Kab. Manokwari Selatan",PAPUA BARAT,98353.0,Indonesia,,-1.3208725,134.2181702,https://maps.google.com/?cid=0x0:0xfa2d97c1797fd973
housing complex,Pembangunan Perumahan,Anggimer kepala danau,"HVVH+RQC, Unnamed Road, Danau, Distrik Sururey, Kab. Pegunungan Arfak, Papua Bar. 98354","Unnamed Road, Danau, Distrik Sururey, Kab. Pegunungan Arfak",PAPUA BARAT,98354.0,Indonesia,,-1.4054341,133.8793778,https://maps.google.com/?cid=0x0:0xbd6ceb327ceaefac
housing complex,housing complex,Papua Bar. 98359,Papua Bar.,Papua Bar.,PAPUA BARAT,,Indonesia,,-1.5213839,133.7525619,https://maps.google.com/?cid=0x0:0xc8a895044b18d7c8
housing complex,Pembangunan Perumahan,Anggimer kepala danau,"HVVH+RQC, Unnamed Road, Danau, Distrik Sururey, Kab. Pegunungan Arfak, Papua Bar. 98354","Unnamed Road, Danau, Distrik Sururey, Kab. Pegunungan Arfak",PAPUA BARAT,98354.0,Indonesia,,-1.4054341,133.8793778,https://maps.google.com/?cid=0x0:0xbd6ceb327ceaefac
housing complex,Balai masyarakat,Desa Horna,"9MM6+W68, Horna, Distrik Dataran Beimes, Kabupaten Teluk Bintuni, Papua Bar.","Kabupaten Teluk Bintuni, Papua Bar.",PAPUA BARAT,,Indonesia,,-1.6152004,133.6605719,https://maps.google.com/?cid=0x0:0x64b42d55af592552
housing complex,Kantor Pemerintah,Dataran Isim,"9V88+36, Menci, Distrik Dataran Beimes, Kabupaten Teluk Bintuni, Papua Bar.","Kabupaten Teluk Bintuni, Papua Bar.",PAPUA BARAT,,Indonesia,,-1.634777,133.865501,https://maps.google.com/?cid=0x0:0x92d045cbf9cbba8b
housing complex,housing complex,The Samallo's Home,"JV7G+J3F, Danau, Distrik Sururey, Kab. Pegunungan Arfak, Papua Bar. 98354","Danau, Distrik Sururey, Kab. Pegunungan Arfak",PAPUA BARAT,98354.0,Indonesia,,-1.3858628,133.8755459,https://maps.google.com/?cid=0x0:0x6c6ca11ecd2b5d96
housing complex,Pembangunan Perumahan,Kampung Sauggemeba,"JV5F+HR7, Sururey, Distrik Sururey, Kab. Pegunungan Arfak, Papua Bar.","Kab. Pegunungan Arfak, Papua Bar.",PAPUA BARAT,,Indonesia,,-1.3910896,133.8745438,https://maps.google.com/?cid=0x0:0xa52c031469fceef0
housing complex,Perhimpunan Pengembang Perumahan,IRAI,"MWF8+GR2, Suteibey, Distrik Anggi, Kab. Pegunungan Arfak, Papua Bar. 98354","Suteibey, Distrik Anggi, Kab. Pegunungan Arfak",PAPUA BARAT,98354.0,Indonesia,,-1.3262457,133.9170123,https://maps.google.com/?cid=0x0:0xcbb75642b28d0c5
housing complex,Pembangunan Perumahan,kampung kobrey,"JW67+J33, Kobrey, Distrik Sururey, Kabupaten Manokwari, Papua Bar.","Kabupaten Manokwari, Papua Bar.",PAPUA BARAT,,Indonesia,,-1.3884759,133.9126734,https://maps.google.com/?cid=0x0:0x2ea46324038c90a3
housing complex,Pembangunan Perumahan,Lampung Kobrey,"HVVP+J3, Danau, Distrik Sururey, Kabupaten Manokwari, Papua Bar.","Kabupaten Manokwari, Papua Bar.",PAPUA BARAT,,Indonesia,,-1.4059758,133.8851228,https://maps.google.com/?cid=0x0:0x1b491cbfcd68fa79
housing complex,Kantor Pemerintah,Kampung Imbai,"MWC7+V8H, Imbai, Distrik Anggi, Kab. Pegunungan Arfak, Papua Bar.","Kab. Pegunungan Arfak, Papua Bar.",PAPUA BARAT,,Indonesia,,-1.3278086,133.9133714,https://maps.google.com/?cid=0x0:0xc7f065c24a4e4781
housing complex,Pembangunan Perumahan,Kampung Udohotma,"JW22+W2Q, Danau, Kec. Anggi Gida, Kabupaten Manokwari, Papua Bar.","Kabupaten Manokwari, Papua Bar.",PAPUA BARAT,,Indonesia,,-1.3976623,133.9001055,https://maps.google.com/?cid=0x0:0xb07741e7925c9718
housing complex,housing complex,Taige,"Distrik Taige, Kab. Pegunungan Arfak, Papua Bar.","Kab. Pegunungan Arfak, Papua Bar.",PAPUA BARAT,,Indonesia,,-1.3061081,133.8589634,https://maps.google.com/?cid=0x0:0xaa3439167fad271d
housing complex,Kompleks Kondominium,Teega Residence - Tower B,"Lebuh Laksamana, Kota Iskandar, 79100 Iskandar Puteri, Johor Darul Ta'zim, Malaysia",Iskandar Puteri,PAPUA BARAT,79100.0,Indonesia,6075099965.0,1.4150922,103.6544861,https://maps.google.com/?cid=0x0:0x593950c90770dddc
housing complex,Kompleks Kondominium,Teega Residence  Cabana,"Lebuh Laksamana, Puteri Harbour, 79250 Iskandar Puteri, Johor Darul Ta'zim, Malaysia",Iskandar Puteri,PAPUA BARAT,79250.0,Indonesia,60177666356.0,1.4149817,103.6533379,https://maps.google.com/?cid=0x0:0xb904b1fbb261f0b7
housing complex,housing complex,Papua Bar. 98315,"Kabupaten Manokwari, Papua Bar.","Kabupaten Manokwari, Papua Bar.",PAPUA BARAT,,Indonesia,,-1.0762009,133.4452148,https://maps.google.com/?cid=0x0:0xe20d605d60a391b5
housing complex,Komplek perumahan,Distrik Testega,"VG9C+HVX, Testega, Kab. Pegunungan Arfak, Papua Bar.","Kab. Pegunungan Arfak, Papua Bar.",PAPUA BARAT,,Indonesia,,-1.1310182,133.5222313,https://maps.google.com/?cid=0x0:0xf4838e49ffe1be99
housing complex,Komplek perumahan,Rumah Guru SMP Testega,"VG9C+HVX, Testega, Kab. Pegunungan Arfak, Papua Bar.","Kab. Pegunungan Arfak, Papua Bar.",PAPUA BARAT,,Indonesia,,-1.1310182,133.5222313,https://maps.google.com/?cid=0x0:0x45257f64f2b719ac
housing complex,Komplek perumahan,Workshop TESPER,"VG9C+HVX, Testega, Kab. Pegunungan Arfak, Papua Bar.","Kab. Pegunungan Arfak, Papua Bar.",PAPUA BARAT,,Indonesia,,-1.1310182,133.5222313,https://maps.google.com/?cid=0x0:0xb9d9fad0d263c78c
housing complex,housing complex,Mamaneng house,"3288+RR9, Jl. Manokwari - Maruni, Sowi, Distrik Manokwari, Kabupaten Manokwari, Papua Bar. 98315","Jl. Manokwari - Maruni, Sowi, Distrik Manokwari, Kabupaten Manokwari",PAPUA BARAT,98315.0,Indonesia,,-0.9329565,134.0171115,https://maps.google.com/?cid=0x0:0xb0e67b0392c9093f
housing complex,Pembangunan Perumahan,Ama Zon Lawa,"3XMW+79X, Warmumi, Distrik Manokwari, Kabupaten Manokwari, Papua Bar. 98315","Warmumi, Distrik Manokwari, Kabupaten Manokwari",PAPUA BARAT,98315.0,Indonesia,,-0.9167576,133.9959843,https://maps.google.com/?cid=0x0:0x9037d9d73b6a5e29
housing complex,Komplek perumahan,Tarsono,"4R8J+XMJ, Unnamed Road, Udapi Hilir, Distrik Prafi, Kabupaten Manokwari, Papua Bar. 98356","Unnamed Road, Udapi Hilir, Distrik Prafi, Kabupaten Manokwari",PAPUA BARAT,98356.0,Indonesia,,-0.8825345,133.8316271,https://maps.google.com/?cid=0x0:0xb6593ee32cf4e3fc
housing complex,Inspektur Tempat Tinggal,"Jalur E, SP4","4RFH+WW6, Udapi Hilir, Distrik Prafi, Kabupaten Manokwari, Papua Bar. 98356","Udapi Hilir, Distrik Prafi, Kabupaten Manokwari",PAPUA BARAT,98356.0,Indonesia,,-0.8752142,133.8297595,https://maps.google.com/?cid=0x0:0x32f87a7854b77327
housing complex,housing complex,Lokasi Acara,"4RGH+G7X, RT.SP/RW.4, Udapi Hilir, Distrik Prafi, Kabupaten Manokwari, Papua Bar.","Kabupaten Manokwari, Papua Bar.",PAPUA BARAT,,Indonesia,,-0.8736113,133.8282172,https://maps.google.com/?cid=0x0:0x672648161549b68b
housing complex,Komplek perumahan,Perumahan citra transad residence,"3X7W+2G3, Weluri, Distrik Manokwari, Kabupaten Manokwari, Papua Bar. 98315","Weluri, Distrik Manokwari, Kabupaten Manokwari",PAPUA BARAT,98315.0,Indonesia,,-0.9374874,133.9963093,https://maps.google.com/?cid=0x0:0x54d5a59569c43cde
housing complex,Gedung Apartemen,Pak De Huda Pupuk Organik,"4RGJ+4RF, Udapi Hilir, Distrik Prafi, Kabupaten Manokwari, Papua Bar. 98356","Udapi Hilir, Distrik Prafi, Kabupaten Manokwari",PAPUA BARAT,98356.0,Indonesia,,-0.8746918,133.8320533,https://maps.google.com/?cid=0x0:0x9d132605131bdddc
housing complex,housing complex,karetji,"4RF8+98F, Waseki Indah, Distrik Prafi, Kabupaten Manokwari, Papua Bar. 98356","Waseki Indah, Distrik Prafi, Kabupaten Manokwari",PAPUA BARAT,98356.0,Indonesia,,-0.8771715,133.8158708,https://maps.google.com/?cid=0x0:0xd35afeea41dec81f
housing complex,Komplek perumahan,komplex prapatan,"3VRP+GMX, Desay, Distrik Prafi, Kabupaten Manokwari, Papua Bar. 98356","Desay, Distrik Prafi, Kabupaten Manokwari",PAPUA BARAT,98356.0,Indonesia,,-0.908776,133.886616,https://maps.google.com/?cid=0x0:0xcfd47dc8c2f161d1
housing complex,housing complex,Papua Bar. 98352,"Kabupaten Manokwari, Papua Bar.","Kabupaten Manokwari, Papua Bar.",PAPUA BARAT,,Indonesia,,-1.0122519,133.9055155,https://maps.google.com/?cid=0x0:0x665ab61075e0d624
housing complex,Pembangunan Perumahan,KAMPUNG BEDIB JAYA,"2VWF+R6X, Nimbay, Kec. Warmare, Kabupaten Manokwari, Papua Bar. 98352","Nimbay, Kec. Warmare, Kabupaten Manokwari",PAPUA BARAT,98352.0,Indonesia,,-0.9528805,133.8730986,https://maps.google.com/?cid=0x0:0xf9bb10bc2b203338
housing complex,housing complex,Restu home,"3VGX+9MQ, Prafi Mulia, Distrik Prafi, Kabupaten Manokwari, Papua Bar.","Kabupaten Manokwari, Papua Bar.",PAPUA BARAT,,Indonesia,,-0.9240849,133.8993331,https://maps.google.com/?cid=0x0:0x3f5fb58049b0691f
housing complex,Balai masyarakat,Posko KKN UNIPA KAMPUNG DUWIN 2025,"Duwin Umsini, Kec. Warmare, Kabupaten Manokwari, Papua Bar. 98352","Kec. Warmare, Kabupaten Manokwari",PAPUA BARAT,98352.0,Indonesia,,-0.9814605,133.9605112,https://maps.google.com/?cid=0x0:0x2496d18d4b5dd8f1
housing complex,Pembangunan Perumahan,Bapak Sakhrir Effendi,"3VHV+V29, Prafi Mulia, Distrik Prafi, Kabupaten Manokwari, Papua Bar. 98352","Prafi Mulia, Distrik Prafi, Kabupaten Manokwari",PAPUA BARAT,98352.0,Indonesia,,-0.9203394,133.8925951,https://maps.google.com/?cid=0x0:0x1589fe4465c4e0eb
housing complex,Pembangunan Perumahan,Rumah Sekretaris Kamp. Ibuwau,"2VQX+G8, Ibuwau, Kec. Warmare, Kabupaten Manokwari, Papua Bar.","Kabupaten Manokwari, Papua Bar.",PAPUA BARAT,,Indonesia,,-0.9612101,133.8984009,https://maps.google.com/?cid=0x0:0x2da538c90cb24079
housing complex,housing complex,"Rumah Pak Suyadi, S.Hut","3VMW+MC8, Prafi Mulia, Distrik Prafi, Kabupaten Manokwari, Papua Bar. 98352","Prafi Mulia, Distrik Prafi, Kabupaten Manokwari",PAPUA BARAT,98352.0,Indonesia,,-0.9158064,133.8961797,https://maps.google.com/?cid=0x0:0x83f991d6849ff141
housing complex,Komplek perumahan,Hariyanto/Murni,"2VWF+H2F, Kampung BEDIP JAYA, Kec. Warmare, Kabupaten Manokwari, Papua Bar.","Kabupaten Manokwari, Papua Bar.",PAPUA BARAT,,Indonesia,,-0.953554,133.8725559,https://maps.google.com/?cid=0x0:0xe002e3413ca8e7a0
housing complex,Pembangunan Perumahan,Akong Hadi Prawoto,"3VHW+9JM, Prafi Mulia, Distrik Prafi, Kabupaten Manokwari, Papua Bar. 98352","Prafi Mulia, Distrik Prafi, Kabupaten Manokwari",PAPUA BARAT,98352.0,Indonesia,,-0.9215466,133.8965323,https://maps.google.com/?cid=0x0:0x24459f1b49d8e9a8
housing complex,housing complex,Rumah Pak Imam Safingi,"3VMR+477, Prafi Mulia, Distrik Prafi, Kabupaten Manokwari, Papua Bar. 98356","Prafi Mulia, Distrik Prafi, Kabupaten Manokwari",PAPUA BARAT,98356.0,Indonesia,,-0.9172491,133.8906441,https://maps.google.com/?cid=0x0:0x5b1226ca41c39e86
housing complex,Komplek perumahan,Dusun 2 Kampung Meniy,"2WC9+3XQ, Meniy, Kec. Warmare, Kabupaten Manokwari, Papua Bar. 98352","Meniy, Kec. Warmare, Kabupaten Manokwari",PAPUA BARAT,98352.0,Indonesia,,-0.9797986,133.9199832,https://maps.google.com/?cid=0x0:0xb1c8c0ff3a69bd54
housing complex,Komplek perumahan,Rumah Haji Tukiran,"3WF2+R3C, Jalur 6, Prafi Mulia, Distrik Prafi, Kabupaten Manokwari, Papua Bar. 98352","Jalur 6, Prafi Mulia, Distrik Prafi, Kabupaten Manokwari",PAPUA BARAT,98352.0,Indonesia,,-0.9254492,133.9001395,https://maps.google.com/?cid=0x0:0xf7cbb63e3848bf27
housing complex,Balai Pertemuan Desa,Kampung kawanua,"X2R9+CR9, Doput, Distrik Manokwari, Kabupaten Manokwari, Papua Bar. 98315","Doput, Distrik Manokwari, Kabupaten Manokwari",PAPUA BARAT,98315.0,Indonesia,,-1.0087133,134.0187873,https://maps.google.com/?cid=0x0:0xdc22ea75d8a8e191
housing complex,Komplek perumahan,komplex prapatan,"3VRP+GMX, Desay, Distrik Prafi, Kabupaten Manokwari, Papua Bar. 98356","Desay, Distrik Prafi, Kabupaten Manokwari",PAPUA BARAT,98356.0,Indonesia,,-0.908776,133.886616,https://maps.google.com/?cid=0x0:0xcfd47dc8c2f161d1
housing complex,housing complex,Papua Bar. 98357,"Kabupaten Manokwari, Papua Bar.","Kabupaten Manokwari, Papua Bar.",PAPUA BARAT,,Indonesia,,-0.8227418,133.5606946,https://maps.google.com/?cid=0x0:0x3e375139d962692c
housing complex,Komplek perumahan,Distrik Testega,"VG9C+HVX, Testega, Kab. Pegunungan Arfak, Papua Bar.","Kab. Pegunungan Arfak, Papua Bar.",PAPUA BARAT,,Indonesia,,-1.1310182,133.5222313,https://maps.google.com/?cid=0x0:0xf4838e49ffe1be99
housing complex,Komplek perumahan,Rumah Guru SMP Testega,"VG9C+HVX, Testega, Kab. Pegunungan Arfak, Papua Bar.","Kab. Pegunungan Arfak, Papua Bar.",PAPUA BARAT,,Indonesia,,-1.1310182,133.5222313,https://maps.google.com/?cid=0x0:0x45257f64f2b719ac
housing complex,Komplek perumahan,Meigehenawu,"RCJ8+PG3, Meigehenawu, Testega, Kab. Pegunungan Arfak, Papua Bar. 98315","Meigehenawu, Testega, Kab. Pegunungan Arfak",PAPUA BARAT,98315.0,Indonesia,,-1.1682333,133.4163028,https://maps.google.com/?cid=0x0:0xdb55e21be7a922bb
housing complex,Pembangunan Perumahan,House of Mutia,"Jalur 13 Poros No.SP 10, Sidey Baru, Distrik Sidey, Kabupaten Manokwari, Papua Bar. 98357","Sidey Baru, Distrik Sidey, Kabupaten Manokwari",PAPUA BARAT,98357.0,Indonesia,,-0.7532278,133.5900418,https://maps.google.com/?cid=0x0:0x927be45e11726ab7
housing complex,housing complex,The executor,"6HGQ+GR2 sp 10, Jalur 12 timur, Sidey Baru, Distrik Sidey, Kabupaten Manokwari, Papua Bar. 98357","Jalur 12 timur, Sidey Baru, Distrik Sidey, Kabupaten Manokwari",PAPUA BARAT,98357.0,Indonesia,,-0.7737318,133.5895225,https://maps.google.com/?cid=0x0:0x68ae900d4f50a1eb
housing complex,Komplek perumahan,Rumah pendulangan,"XJ6V+GJ, Ijigrek, Distrik Catubouw, Kab. Pegunungan Arfak, Papua Bar.","Kab. Pegunungan Arfak, Papua Bar.",PAPUA BARAT,,Indonesia,,-1.0386353,133.6440501,https://maps.google.com/?cid=0x0:0xf91cdf4a8bd1138e
housing complex,Komplek perumahan,RUMAH EVI,"5Q9C+CQ9, Unnamed Road, Meiforga, Masni, Manokwari Regency, West Papua 98357","Unnamed Road, Meiforga, Masni, Manokwari Regency",PAPUA BARAT,98357.0,Indonesia,,-0.8314603,133.7719723,https://maps.google.com/?cid=0x0:0x835e140097cb836d
housing complex,Komplek perumahan,Posko unipa 2023/2024,"5PRJ+X88, Bowi Subur, Distrik Masni, Kabupaten Manokwari, Papua Bar. 98357","Bowi Subur, Distrik Masni, Kabupaten Manokwari",PAPUA BARAT,98357.0,Indonesia,82199626277.0,-0.8075872,133.7308432,https://maps.google.com/?cid=0x0:0x11a902b4e03345dc
housing complex,housing complex,House off the Ghaffar,"6HXR+6X6, Sidey Baru, Distrik Sidey, Kabupaten Manokwari, Papua Bar.","Kabupaten Manokwari, Papua Bar.",PAPUA BARAT,,Indonesia,,-0.7519438,133.5924109,https://maps.google.com/?cid=0x0:0x1ebd4228ee1be6d5
housing complex,Komplek perumahan,Workshop TESPER,"VG9C+HVX, Testega, Kab. Pegunungan Arfak, Papua Bar.","Kab. Pegunungan Arfak, Papua Bar.",PAPUA BARAT,,Indonesia,,-1.1310182,133.5222313,https://maps.google.com/?cid=0x0:0xb9d9fad0d263c78c
housing complex,Komplek perumahan,Wardiaman Satia House,"6P8F+9WF, Sumber Boga, Distrik Masni, Kabupaten Manokwari, Papua Bar. 98357","Sumber Boga, Distrik Masni, Kabupaten Manokwari",PAPUA BARAT,98357.0,Indonesia,,-0.78407,133.7247964,https://maps.google.com/?cid=0x0:0x2945538497588e3d
housing complex,Perhimpunan Pengembang Perumahan,Abdul latif firmansyach,"5PWR+72, Bowi Subur, Distrik Masni, Kabupaten Manokwari, Papua Bar. 98357","Bowi Subur, Distrik Masni, Kabupaten Manokwari",PAPUA BARAT,98357.0,Indonesia,,-0.8043426,133.7400249,https://maps.google.com/?cid=0x0:0xb484f1eb80c52fc0
housing complex,housing complex,Keluarga padwa,"5PPM+QQR, Bowi Subur, Distrik Masni, Kabupaten Manokwari, Papua Bar. 98357","Bowi Subur, Distrik Masni, Kabupaten Manokwari",PAPUA BARAT,98357.0,Indonesia,,-0.8130125,133.7343906,https://maps.google.com/?cid=0x0:0x4de55b2cbe3bbc15
