Category,Real Category,Business Name,Address,City,State,Postal Code,Country,Phone,Latitude,Longitude,Map Link
toko bangunan,toko bangunan,Kec. Morotai Jaya,"Kabupaten Pulau Morotai, Maluku Utara","Kabupaten Pulau Morotai, Maluku Utara",MALUKU UTARA,,Indonesia,,2.5756265,128.5236947,https://maps.google.com/?cid=0x0:0xbdf281ebc27a14d0
toko bangunan,Toko Bahan Bangunan,TOKO BANGUNAN AFLAH,"3844+8W5, Darame, Kec. Morotai Sel., Kabupaten Pulau Morotai, Maluku Utara","Kabupaten Pulau Morotai, Maluku Utara",MALUKU UTARA,,Indonesia,81289549001.0,2.0561242,128.307455,https://maps.google.com/?cid=0x0:0x68857e0f7831bbee
toko bangunan,Toko Perlengkapan Rumah,Toko Mitra Bangunan,"27XV+RFV, Yayasan, Kec. Morotai Sel., Kabupaten Pulau Morotai, Maluku Utara","Kabupaten Pulau Morotai, Maluku Utara",MALUKU UTARA,,Indonesia,83125236425.0,2.0495677,128.2938019,https://maps.google.com/?cid=0x0:0x14f2338821c2f1d
toko bangunan,Toko Bahan Bangunan,Toko MONALISA Morotai,"372R+8PP Pelabuhan Speedboat Daruba, Yayasan, Kec. Morotai Sel., Kabupaten Pulau Morotai, Maluku Utara","Kabupaten Pulau Morotai, Maluku Utara",MALUKU UTARA,,Indonesia,,2.0508255,128.2918214,https://maps.google.com/?cid=0x0:0xbc5e048861ba1339
toko bangunan,Toko Bahan Bangunan,Toko bangunan  Rumah roti Singga Dulu,"372V+6Q9, Darame, Kec. Morotai Sel., Kabupaten Pulau Morotai, Maluku Utara","Kabupaten Pulau Morotai, Maluku Utara",MALUKU UTARA,,Indonesia,82378990826.0,2.050397,128.294782,https://maps.google.com/?cid=0x0:0x1054b26b0c7b4557
toko bangunan,Toko Perlengkapan Rumah,Putra Daerah,"372R+MWH, Daruba, Kec. Morotai Sel., Kabupaten Pulau Morotai, Maluku Utara","Kabupaten Pulau Morotai, Maluku Utara",MALUKU UTARA,,Indonesia,,2.0516793,128.2923451,https://maps.google.com/?cid=0x0:0xbad7cc8c5cd1a7f
toko bangunan,Toko Perlengkapan Rumah,TB. SEDERHANA,"Jl. Raya Darame, Darame, Kec. Morotai Sel., Kabupaten Pulau Morotai, Maluku Utara","Kabupaten Pulau Morotai, Maluku Utara",MALUKU UTARA,,Indonesia,82282403347.0,2.0516562,128.300861,https://maps.google.com/?cid=0x0:0x44b029479ddd72a0
toko bangunan,Toko Bahan Bangunan,Toko Bangunan Mahkota Jaya,"13, Jl. Tomang Tinggi Raya No.43, RT.13/RW.7, Tomang, Kec. Grogol petamburan, Kota Jakarta Barat, Daerah Khusus Ibukota Jakarta 11440","Jl. Tomang Tinggi Raya No.43, RT.13/RW.7, Tomang, Kec. Grogol petamburan, Kota Jakarta Barat",MALUKU UTARA,11440.0,Indonesia,215606769.0,-6.171893,106.7957951,https://maps.google.com/?cid=0x0:0xdf91e3e0700c97ca
toko bangunan,Toko Bahan Bangunan,Sinar Abadi Home Centre,"Jalan Pahlawan Sindang Raya No.175, RT.01/RW.06, Bondongan, Kec. Bogor Sel., Kota Bogor, Jawa Barat 16131","RT.01/RW.06, Bondongan, Kec. Bogor Sel., Kota Bogor",MALUKU UTARA,16131.0,Indonesia,87885886482.0,-6.6164259,106.8048575,https://maps.google.com/?cid=0x0:0xb41f7d99aa9dd9bf
toko bangunan,Toko Bahan Bangunan,Toko Bangunan Hari-hari,"Jl. Mandala Utara No.21, RT.17/RW.4, Tomang, Kec. Grogol petamburan, Kota Jakarta Barat, Daerah Khusus Ibukota Jakarta 11440","RT.17/RW.4, Tomang, Kec. Grogol petamburan, Kota Jakarta Barat",MALUKU UTARA,11440.0,Indonesia,215642893.0,-6.1721247,106.7983298,https://maps.google.com/?cid=0x0:0x91aa30314dd11ef
toko bangunan,Toko Bahan Bangunan,Rekan Bangunan,"Jl. H. Nonon Sonthanie No.8-9, RT.006/RW.002, Duren Jaya, Kec. Bekasi Tim., Kota Bks, Jawa Barat 17111","RT.006/RW.002, Duren Jaya, Kec. Bekasi Tim., Kota Bks",MALUKU UTARA,17111.0,Indonesia,85219793880.0,-6.2426518,107.0145379,https://maps.google.com/?cid=0x0:0x7dc0dd11c341e824
toko bangunan,toko bangunan,Kec. Morotai Sel.,"Kabupaten Pulau Morotai, Maluku Utara","Kabupaten Pulau Morotai, Maluku Utara",MALUKU UTARA,,Indonesia,,2.0501311,128.2940593,https://maps.google.com/?cid=0x0:0x8cbfaede8bbbfd0d
toko bangunan,Toko Bahan Bangunan,TB. Sumber Bangunan Morotai,"Daruba, Kec. Morotai Sel., Kabupaten Pulau Morotai, Maluku Utara","Kabupaten Pulau Morotai, Maluku Utara",MALUKU UTARA,,Indonesia,81241776090.0,2.0519689,128.2923467,https://maps.google.com/?cid=0x0:0xc9cba2c1d22b4c15
toko bangunan,Toko Perlengkapan Rumah,Toko Mitra Bangunan,"27XV+RFV, Yayasan, Kec. Morotai Sel., Kabupaten Pulau Morotai, Maluku Utara","Kabupaten Pulau Morotai, Maluku Utara",MALUKU UTARA,,Indonesia,83125236425.0,2.0495677,128.2938019,https://maps.google.com/?cid=0x0:0x14f2338821c2f1d
toko bangunan,Toko Bahan Bangunan,Toko bangunan  Rumah roti Singga Dulu,"372V+6Q9, Darame, Kec. Morotai Sel., Kabupaten Pulau Morotai, Maluku Utara","Kabupaten Pulau Morotai, Maluku Utara",MALUKU UTARA,,Indonesia,82378990826.0,2.050397,128.294782,https://maps.google.com/?cid=0x0:0x1054b26b0c7b4557
toko bangunan,Toko Bahan Bangunan,Toko MONALISA Morotai,"372R+8PP Pelabuhan Speedboat Daruba, Yayasan, Kec. Morotai Sel., Kabupaten Pulau Morotai, Maluku Utara","Kabupaten Pulau Morotai, Maluku Utara",MALUKU UTARA,,Indonesia,,2.0508255,128.2918214,https://maps.google.com/?cid=0x0:0xbc5e048861ba1339
toko bangunan,Toko Perlengkapan Rumah,TB. SEDERHANA,"Jl. Raya Darame, Darame, Kec. Morotai Sel., Kabupaten Pulau Morotai, Maluku Utara","Kabupaten Pulau Morotai, Maluku Utara",MALUKU UTARA,,Indonesia,82282403347.0,2.0516562,128.300861,https://maps.google.com/?cid=0x0:0x44b029479ddd72a0
toko bangunan,Toko Perlengkapan Rumah,Putra Daerah,"372R+MWH, Daruba, Kec. Morotai Sel., Kabupaten Pulau Morotai, Maluku Utara","Kabupaten Pulau Morotai, Maluku Utara",MALUKU UTARA,,Indonesia,,2.0516793,128.2923451,https://maps.google.com/?cid=0x0:0xbad7cc8c5cd1a7f
toko bangunan,Toko Perlengkapan Rumah,Tk. Moro Karya,"Jl. Kampung cina, Daruba, Pulau, Kec. Morotai Sel., Kabupaten Pulau Morotai, Maluku Utara 97771","Daruba, Pulau, Kec. Morotai Sel., Kabupaten Pulau Morotai",MALUKU UTARA,97771.0,Indonesia,,2.0514694,128.2918474,https://maps.google.com/?cid=0x0:0xc67ddb7091eabf23
toko bangunan,Kantor Perusahaan,Mordist Group,"Jl. Raya Wayabula Morotai Selatan, Gotalamo, Kec. Morotai Sel., Kabupaten Pulau Morotai, Maluku Utara 97771","Gotalamo, Kec. Morotai Sel., Kabupaten Pulau Morotai",MALUKU UTARA,97771.0,Indonesia,85299303006.0,2.0584701,128.3067258,https://maps.google.com/?cid=0x0:0x2a10f69c6be80fb4
toko bangunan,Toko Mebel Dapur,Mandiri mebel,"Darame, Kec. Morotai Sel., Kabupaten Pulau Morotai, Maluku Utara","Kabupaten Pulau Morotai, Maluku Utara",MALUKU UTARA,,Indonesia,82152068508.0,2.0583106,128.3102835,https://maps.google.com/?cid=0x0:0x5ab3196b887e81ed
toko bangunan,Toko,Toko Makastemor,"373V+42M, Daruba, Kec. Morotai Sel., Kabupaten Pulau Morotai, Maluku Utara","Kabupaten Pulau Morotai, Maluku Utara",MALUKU UTARA,,Indonesia,85256618012.0,2.0528433,128.2925371,https://maps.google.com/?cid=0x0:0x8926dcf2943cc9cb
toko bangunan,Toko,CENTRALMART MOROTAI,"3844+CVC, Gotalamo, Kec. Morotai Sel., Kabupaten Pulau Morotai, Maluku Utara","Kabupaten Pulau Morotai, Maluku Utara",MALUKU UTARA,,Indonesia,81390728877.0,2.0560646,128.3071429,https://maps.google.com/?cid=0x0:0xb009c4efd3c1184f
toko bangunan,Pusat Perbelanjaan,SETIA PRESS',"4H45+VC5, Sangowo, Kec. Morotai Tim., Kabupaten Pulau Morotai, Maluku Utara","Kabupaten Pulau Morotai, Maluku Utara",MALUKU UTARA,,Indonesia,,2.107146,128.5585973,https://maps.google.com/?cid=0x0:0x5855a763223b4510
toko bangunan,toko bangunan,Kec. Morotai Sel. Bar.,"Kabupaten Pulau Morotai, Maluku Utara","Kabupaten Pulau Morotai, Maluku Utara",MALUKU UTARA,,Indonesia,,2.2801376,128.2016017,https://maps.google.com/?cid=0x0:0x69328259284f1b6b
toko bangunan,Toko Perlengkapan Rumah,Toko Mitra Bangunan,"27XV+RFV, Yayasan, Kec. Morotai Sel., Kabupaten Pulau Morotai, Maluku Utara","Kabupaten Pulau Morotai, Maluku Utara",MALUKU UTARA,,Indonesia,83125236425.0,2.0495677,128.2938019,https://maps.google.com/?cid=0x0:0x14f2338821c2f1d
toko bangunan,Toko Bahan Bangunan,Toko bangunan  Rumah roti Singga Dulu,"372V+6Q9, Darame, Kec. Morotai Sel., Kabupaten Pulau Morotai, Maluku Utara","Kabupaten Pulau Morotai, Maluku Utara",MALUKU UTARA,,Indonesia,82378990826.0,2.050397,128.294782,https://maps.google.com/?cid=0x0:0x1054b26b0c7b4557
toko bangunan,Toko Bahan Bangunan,TB. Sumber Bangunan Morotai,"Daruba, Kec. Morotai Sel., Kabupaten Pulau Morotai, Maluku Utara","Kabupaten Pulau Morotai, Maluku Utara",MALUKU UTARA,,Indonesia,81241776090.0,2.0519689,128.2923467,https://maps.google.com/?cid=0x0:0xc9cba2c1d22b4c15
toko bangunan,Toko Bahan Bangunan,Toko MONALISA Morotai,"372R+8PP Pelabuhan Speedboat Daruba, Yayasan, Kec. Morotai Sel., Kabupaten Pulau Morotai, Maluku Utara","Kabupaten Pulau Morotai, Maluku Utara",MALUKU UTARA,,Indonesia,,2.0508255,128.2918214,https://maps.google.com/?cid=0x0:0xbc5e048861ba1339
toko bangunan,Toko Perlengkapan Rumah,TB. SEDERHANA,"Jl. Raya Darame, Darame, Kec. Morotai Sel., Kabupaten Pulau Morotai, Maluku Utara","Kabupaten Pulau Morotai, Maluku Utara",MALUKU UTARA,,Indonesia,82282403347.0,2.0516562,128.300861,https://maps.google.com/?cid=0x0:0x44b029479ddd72a0
toko bangunan,Toko Perlengkapan Rumah,Putra Daerah,"372R+MWH, Daruba, Kec. Morotai Sel., Kabupaten Pulau Morotai, Maluku Utara","Kabupaten Pulau Morotai, Maluku Utara",MALUKU UTARA,,Indonesia,,2.0516793,128.2923451,https://maps.google.com/?cid=0x0:0xbad7cc8c5cd1a7f
toko bangunan,Kantor Perusahaan,Mordist Group,"Jl. Raya Wayabula Morotai Selatan, Gotalamo, Kec. Morotai Sel., Kabupaten Pulau Morotai, Maluku Utara 97771","Gotalamo, Kec. Morotai Sel., Kabupaten Pulau Morotai",MALUKU UTARA,97771.0,Indonesia,85299303006.0,2.0584701,128.3067258,https://maps.google.com/?cid=0x0:0x2a10f69c6be80fb4
toko bangunan,Toko Perlengkapan Rumah,Tk. Moro Karya,"Jl. Kampung cina, Daruba, Pulau, Kec. Morotai Sel., Kabupaten Pulau Morotai, Maluku Utara 97771","Daruba, Pulau, Kec. Morotai Sel., Kabupaten Pulau Morotai",MALUKU UTARA,97771.0,Indonesia,,2.0514694,128.2918474,https://maps.google.com/?cid=0x0:0xc67ddb7091eabf23
toko bangunan,Toko Mebel Dapur,Mandiri mebel,"Darame, Kec. Morotai Sel., Kabupaten Pulau Morotai, Maluku Utara","Kabupaten Pulau Morotai, Maluku Utara",MALUKU UTARA,,Indonesia,82152068508.0,2.0583106,128.3102835,https://maps.google.com/?cid=0x0:0x5ab3196b887e81ed
toko bangunan,Toko Bahan Bangunan,Toko Bangunan SENTOSA,"P266+52G O.Sasingan, Wosia, Kec. Tobelo Tengah, Kabupaten Halmahera Utara, Maluku Utara","Kabupaten Halmahera Utara, Maluku Utara",MALUKU UTARA,,Indonesia,82144648989.0,1.7104491,128.0100684,https://maps.google.com/?cid=0x0:0xe043f9c8ba78bb16
toko bangunan,Toko,Toko Makastemor,"373V+42M, Daruba, Kec. Morotai Sel., Kabupaten Pulau Morotai, Maluku Utara","Kabupaten Pulau Morotai, Maluku Utara",MALUKU UTARA,,Indonesia,85256618012.0,2.0528433,128.2925371,https://maps.google.com/?cid=0x0:0x8926dcf2943cc9cb
toko bangunan,Pusat Perbelanjaan,SETIA PRESS',"4H45+VC5, Sangowo, Kec. Morotai Tim., Kabupaten Pulau Morotai, Maluku Utara","Kabupaten Pulau Morotai, Maluku Utara",MALUKU UTARA,,Indonesia,,2.107146,128.5585973,https://maps.google.com/?cid=0x0:0x5855a763223b4510
toko bangunan,toko bangunan,Maluku Utara,,Maluku Utara,MALUKU UTARA,,Indonesia,,1.5709993,127.8087693,https://maps.google.com/?cid=0x0:0x1030bfbcaf71ac0
toko bangunan,Toko Perlengkapan Rumah,Toko Mitra Bangunan,"27XV+RFV, Yayasan, Kec. Morotai Sel., Kabupaten Pulau Morotai, Maluku Utara","Kabupaten Pulau Morotai, Maluku Utara",MALUKU UTARA,,Indonesia,83125236425.0,2.0495677,128.2938019,https://maps.google.com/?cid=0x0:0x14f2338821c2f1d
toko bangunan,Toko Bahan Bangunan,TB. Sumber Bangunan Morotai,"Daruba, Kec. Morotai Sel., Kabupaten Pulau Morotai, Maluku Utara","Kabupaten Pulau Morotai, Maluku Utara",MALUKU UTARA,,Indonesia,81241776090.0,2.0519689,128.2923467,https://maps.google.com/?cid=0x0:0xc9cba2c1d22b4c15
toko bangunan,Toko Bahan Bangunan,Toko MONALISA Morotai,"372R+8PP Pelabuhan Speedboat Daruba, Yayasan, Kec. Morotai Sel., Kabupaten Pulau Morotai, Maluku Utara","Kabupaten Pulau Morotai, Maluku Utara",MALUKU UTARA,,Indonesia,,2.0508255,128.2918214,https://maps.google.com/?cid=0x0:0xbc5e048861ba1339
toko bangunan,Toko Bahan Bangunan,TOKO BANGUNAN AFLAH,"3844+8W5, Darame, Kec. Morotai Sel., Kabupaten Pulau Morotai, Maluku Utara","Kabupaten Pulau Morotai, Maluku Utara",MALUKU UTARA,,Indonesia,81289549001.0,2.0561242,128.307455,https://maps.google.com/?cid=0x0:0x68857e0f7831bbee
toko bangunan,Toko Perlengkapan Rumah,Putra Daerah,"372R+MWH, Daruba, Kec. Morotai Sel., Kabupaten Pulau Morotai, Maluku Utara","Kabupaten Pulau Morotai, Maluku Utara",MALUKU UTARA,,Indonesia,,2.0516793,128.2923451,https://maps.google.com/?cid=0x0:0xbad7cc8c5cd1a7f
toko bangunan,Toko Bahan Bangunan,Toko Mitra Bangunan,"Jl. Pahlawan Revolusi No.3, Muhajirin, Kec. Ternate Tengah, Kota Ternate, Maluku Utara 97721","Muhajirin, Kec. Ternate Tengah, Kota Ternate",MALUKU UTARA,97721.0,Indonesia,8124217777.0,0.7863051,127.3886452,https://maps.google.com/?cid=0x0:0x182c1f07e66842a
toko bangunan,Kantor Perusahaan,Mordist Group,"Jl. Raya Wayabula Morotai Selatan, Gotalamo, Kec. Morotai Sel., Kabupaten Pulau Morotai, Maluku Utara 97771","Gotalamo, Kec. Morotai Sel., Kabupaten Pulau Morotai",MALUKU UTARA,97771.0,Indonesia,85299303006.0,2.0584701,128.3067258,https://maps.google.com/?cid=0x0:0x2a10f69c6be80fb4
toko bangunan,Toko Bahan Bangunan,Makmur Utama Supermarket Bahan Bangunan,"Jl. Yasin Gamsungi No.2 Kec. ternate tengah, Kel, Makassar Tim., Makassar Timur, Kota Ternate, Maluku Utara 97724","Kel, Makassar Tim., Makassar Timur, Kota Ternate",MALUKU UTARA,97724.0,Indonesia,8114313799.0,0.7940352,127.3876695,https://maps.google.com/?cid=0x0:0x2f492ae87bf64247
toko bangunan,Toko Bahan Bangunan,Makmur Utama Supermarket Bahan Bangunan,"Jambula, Kec. Pulau Ternate, Kota Ternate, Maluku Utara","Kota Ternate, Maluku Utara",MALUKU UTARA,,Indonesia,8114313899.0,0.7581804,127.3220409,https://maps.google.com/?cid=0x0:0xe3a01731f7851efa
toko bangunan,Toko Perlengkapan Rumah,Tk. Moro Karya,"Jl. Kampung cina, Daruba, Pulau, Kec. Morotai Sel., Kabupaten Pulau Morotai, Maluku Utara 97771","Daruba, Pulau, Kec. Morotai Sel., Kabupaten Pulau Morotai",MALUKU UTARA,97771.0,Indonesia,,2.0514694,128.2918474,https://maps.google.com/?cid=0x0:0xc67ddb7091eabf23
toko bangunan,Toko Bahan Bangunan,Toko Sejati Bangunan,"Jalan Raya Wosia, Depan Saro Nifero, Samping Dealer Honda CV.Lion, Mahia, Kec. Tobelo, Maluku Utara 97762","Depan Saro Nifero, Samping Dealer Honda CV.Lion, Mahia, Kec. Tobelo",MALUKU UTARA,97762.0,Indonesia,82195215789.0,1.7063845,128.0084905,https://maps.google.com/?cid=0x0:0xe07acc47d25781c8
toko bangunan,Toko Bahan Bangunan,Makmur Utama Supermarket Bahan bangunan,"Tj. Niara, Kec. Tobelo Tengah, Kabupaten Halmahera Utara, Maluku Utara","Kabupaten Halmahera Utara, Maluku Utara",MALUKU UTARA,,Indonesia,85117420324.0,1.7019679,128.0155893,https://maps.google.com/?cid=0x0:0x47ecdf114648cbc2
toko bangunan,Pasar bahan bangunan,Toko Sumber Bangunan,"P2G6+2MM, Gamsungi, Kec. Tobelo, Kabupaten Halmahera Utara, Maluku Utara","Kabupaten Halmahera Utara, Maluku Utara",MALUKU UTARA,,Indonesia,9242621455.0,1.7250967,128.0116677,https://maps.google.com/?cid=0x0:0x14835095227102f4
toko bangunan,toko bangunan,Kec. Morotai Tim.,"Kabupaten Pulau Morotai, Maluku Utara","Kabupaten Pulau Morotai, Maluku Utara",MALUKU UTARA,,Indonesia,,2.1068727,128.557235,https://maps.google.com/?cid=0x0:0xfe2c10e8a9e17d56
toko bangunan,Toko Bahan Bangunan,TOKO BANGUNAN AFLAH,"3844+8W5, Darame, Kec. Morotai Sel., Kabupaten Pulau Morotai, Maluku Utara","Kabupaten Pulau Morotai, Maluku Utara",MALUKU UTARA,,Indonesia,81289549001.0,2.0561242,128.307455,https://maps.google.com/?cid=0x0:0x68857e0f7831bbee
toko bangunan,Toko Perlengkapan Rumah,Toko Mitra Bangunan,"27XV+RFV, Yayasan, Kec. Morotai Sel., Kabupaten Pulau Morotai, Maluku Utara","Kabupaten Pulau Morotai, Maluku Utara",MALUKU UTARA,,Indonesia,83125236425.0,2.0495677,128.2938019,https://maps.google.com/?cid=0x0:0x14f2338821c2f1d
toko bangunan,Toko Bahan Bangunan,Toko bangunan  Rumah roti Singga Dulu,"372V+6Q9, Darame, Kec. Morotai Sel., Kabupaten Pulau Morotai, Maluku Utara","Kabupaten Pulau Morotai, Maluku Utara",MALUKU UTARA,,Indonesia,82378990826.0,2.050397,128.294782,https://maps.google.com/?cid=0x0:0x1054b26b0c7b4557
toko bangunan,Toko Bahan Bangunan,Toko MONALISA Morotai,"372R+8PP Pelabuhan Speedboat Daruba, Yayasan, Kec. Morotai Sel., Kabupaten Pulau Morotai, Maluku Utara","Kabupaten Pulau Morotai, Maluku Utara",MALUKU UTARA,,Indonesia,,2.0508255,128.2918214,https://maps.google.com/?cid=0x0:0xbc5e048861ba1339
toko bangunan,Pusat Perbelanjaan,SETIA PRESS',"4H45+VC5, Sangowo, Kec. Morotai Tim., Kabupaten Pulau Morotai, Maluku Utara","Kabupaten Pulau Morotai, Maluku Utara",MALUKU UTARA,,Indonesia,,2.107146,128.5585973,https://maps.google.com/?cid=0x0:0x5855a763223b4510
toko bangunan,Toko Perlengkapan Rumah,Putra Daerah,"372R+MWH, Daruba, Kec. Morotai Sel., Kabupaten Pulau Morotai, Maluku Utara","Kabupaten Pulau Morotai, Maluku Utara",MALUKU UTARA,,Indonesia,,2.0516793,128.2923451,https://maps.google.com/?cid=0x0:0xbad7cc8c5cd1a7f
toko bangunan,toko bangunan,Maluku Utara,,Maluku Utara,MALUKU UTARA,,Indonesia,,1.5709993,127.8087693,https://maps.google.com/?cid=0x0:0x1030bfbcaf71ac0
toko bangunan,Toko Perlengkapan Rumah,Toko Mitra Bangunan,"27XV+RFV, Yayasan, Kec. Morotai Sel., Kabupaten Pulau Morotai, Maluku Utara","Kabupaten Pulau Morotai, Maluku Utara",MALUKU UTARA,,Indonesia,83125236425.0,2.0495677,128.2938019,https://maps.google.com/?cid=0x0:0x14f2338821c2f1d
toko bangunan,Toko Bahan Bangunan,Toko bangunan  Rumah roti Singga Dulu,"372V+6Q9, Darame, Kec. Morotai Sel., Kabupaten Pulau Morotai, Maluku Utara","Kabupaten Pulau Morotai, Maluku Utara",MALUKU UTARA,,Indonesia,82378990826.0,2.050397,128.294782,https://maps.google.com/?cid=0x0:0x1054b26b0c7b4557
toko bangunan,Toko Bahan Bangunan,TB. Sumber Bangunan Morotai,"Daruba, Kec. Morotai Sel., Kabupaten Pulau Morotai, Maluku Utara","Kabupaten Pulau Morotai, Maluku Utara",MALUKU UTARA,,Indonesia,81241776090.0,2.0519689,128.2923467,https://maps.google.com/?cid=0x0:0xc9cba2c1d22b4c15
toko bangunan,Toko Bahan Bangunan,Toko MONALISA Morotai,"372R+8PP Pelabuhan Speedboat Daruba, Yayasan, Kec. Morotai Sel., Kabupaten Pulau Morotai, Maluku Utara","Kabupaten Pulau Morotai, Maluku Utara",MALUKU UTARA,,Indonesia,,2.0508255,128.2918214,https://maps.google.com/?cid=0x0:0xbc5e048861ba1339
toko bangunan,Toko Perlengkapan Rumah,Putra Daerah,"372R+MWH, Daruba, Kec. Morotai Sel., Kabupaten Pulau Morotai, Maluku Utara","Kabupaten Pulau Morotai, Maluku Utara",MALUKU UTARA,,Indonesia,,2.0516793,128.2923451,https://maps.google.com/?cid=0x0:0xbad7cc8c5cd1a7f
toko bangunan,Toko Perlengkapan Rumah,TB. SEDERHANA,"Jl. Raya Darame, Darame, Kec. Morotai Sel., Kabupaten Pulau Morotai, Maluku Utara","Kabupaten Pulau Morotai, Maluku Utara",MALUKU UTARA,,Indonesia,82282403347.0,2.0516562,128.300861,https://maps.google.com/?cid=0x0:0x44b029479ddd72a0
toko bangunan,Pusat Perbelanjaan,SETIA PRESS',"4H45+VC5, Sangowo, Kec. Morotai Tim., Kabupaten Pulau Morotai, Maluku Utara","Kabupaten Pulau Morotai, Maluku Utara",MALUKU UTARA,,Indonesia,,2.107146,128.5585973,https://maps.google.com/?cid=0x0:0x5855a763223b4510
toko bangunan,Toko Perlengkapan Rumah,Tk. Moro Karya,"Jl. Kampung cina, Daruba, Pulau, Kec. Morotai Sel., Kabupaten Pulau Morotai, Maluku Utara 97771","Daruba, Pulau, Kec. Morotai Sel., Kabupaten Pulau Morotai",MALUKU UTARA,97771.0,Indonesia,,2.0514694,128.2918474,https://maps.google.com/?cid=0x0:0xc67ddb7091eabf23
toko bangunan,Toko Bahan Bangunan,Toko Sejati Bangunan,"Jalan Raya Wosia, Depan Saro Nifero, Samping Dealer Honda CV.Lion, Mahia, Kec. Tobelo, Maluku Utara 97762","Depan Saro Nifero, Samping Dealer Honda CV.Lion, Mahia, Kec. Tobelo",MALUKU UTARA,97762.0,Indonesia,82195215789.0,1.7063845,128.0084905,https://maps.google.com/?cid=0x0:0xe07acc47d25781c8
toko bangunan,Toko Bahan Bangunan,Toko Bangunan SENTOSA,"P266+52G O.Sasingan, Wosia, Kec. Tobelo Tengah, Kabupaten Halmahera Utara, Maluku Utara","Kabupaten Halmahera Utara, Maluku Utara",MALUKU UTARA,,Indonesia,82144648989.0,1.7104491,128.0100684,https://maps.google.com/?cid=0x0:0xe043f9c8ba78bb16
toko bangunan,Toko Bahan Bangunan,Toko Mitra Bangunan,"Jl. Pahlawan Revolusi No.3, Muhajirin, Kec. Ternate Tengah, Kota Ternate, Maluku Utara 97721","Muhajirin, Kec. Ternate Tengah, Kota Ternate",MALUKU UTARA,97721.0,Indonesia,8124217777.0,0.7863051,127.3886452,https://maps.google.com/?cid=0x0:0x182c1f07e66842a
toko bangunan,Toko Bahan Bangunan,Makmur Utama Supermarket Bahan Bangunan,"Jl. Yasin Gamsungi No.2 Kec. ternate tengah, Kel, Makassar Tim., Makassar Timur, Kota Ternate, Maluku Utara 97724","Kel, Makassar Tim., Makassar Timur, Kota Ternate",MALUKU UTARA,97724.0,Indonesia,8114313799.0,0.7940352,127.3876695,https://maps.google.com/?cid=0x0:0x2f492ae87bf64247
toko bangunan,Pasar bahan bangunan,Toko Sumber Bangunan,"P2G6+2MM, Gamsungi, Kec. Tobelo, Kabupaten Halmahera Utara, Maluku Utara","Kabupaten Halmahera Utara, Maluku Utara",MALUKU UTARA,,Indonesia,9242621455.0,1.7250967,128.0116677,https://maps.google.com/?cid=0x0:0x14835095227102f4
toko bangunan,toko bangunan,Kec. Morotai Tim.,"Kabupaten Pulau Morotai, Maluku Utara","Kabupaten Pulau Morotai, Maluku Utara",MALUKU UTARA,,Indonesia,,2.1068727,128.557235,https://maps.google.com/?cid=0x0:0xfe2c10e8a9e17d56
toko bangunan,Toko Perlengkapan Rumah,Toko Mitra Bangunan,"27XV+RFV, Yayasan, Kec. Morotai Sel., Kabupaten Pulau Morotai, Maluku Utara","Kabupaten Pulau Morotai, Maluku Utara",MALUKU UTARA,,Indonesia,83125236425.0,2.0495677,128.2938019,https://maps.google.com/?cid=0x0:0x14f2338821c2f1d
toko bangunan,Toko Bahan Bangunan,Toko bangunan  Rumah roti Singga Dulu,"372V+6Q9, Darame, Kec. Morotai Sel., Kabupaten Pulau Morotai, Maluku Utara","Kabupaten Pulau Morotai, Maluku Utara",MALUKU UTARA,,Indonesia,82378990826.0,2.050397,128.294782,https://maps.google.com/?cid=0x0:0x1054b26b0c7b4557
toko bangunan,Toko Bahan Bangunan,TB. Sumber Bangunan Morotai,"Daruba, Kec. Morotai Sel., Kabupaten Pulau Morotai, Maluku Utara","Kabupaten Pulau Morotai, Maluku Utara",MALUKU UTARA,,Indonesia,81241776090.0,2.0519689,128.2923467,https://maps.google.com/?cid=0x0:0xc9cba2c1d22b4c15
toko bangunan,Toko Bahan Bangunan,Toko MONALISA Morotai,"372R+8PP Pelabuhan Speedboat Daruba, Yayasan, Kec. Morotai Sel., Kabupaten Pulau Morotai, Maluku Utara","Kabupaten Pulau Morotai, Maluku Utara",MALUKU UTARA,,Indonesia,,2.0508255,128.2918214,https://maps.google.com/?cid=0x0:0xbc5e048861ba1339
toko bangunan,Pusat Perbelanjaan,SETIA PRESS',"4H45+VC5, Sangowo, Kec. Morotai Tim., Kabupaten Pulau Morotai, Maluku Utara","Kabupaten Pulau Morotai, Maluku Utara",MALUKU UTARA,,Indonesia,,2.107146,128.5585973,https://maps.google.com/?cid=0x0:0x5855a763223b4510
toko bangunan,Toko Perlengkapan Rumah,Putra Daerah,"372R+MWH, Daruba, Kec. Morotai Sel., Kabupaten Pulau Morotai, Maluku Utara","Kabupaten Pulau Morotai, Maluku Utara",MALUKU UTARA,,Indonesia,,2.0516793,128.2923451,https://maps.google.com/?cid=0x0:0xbad7cc8c5cd1a7f
toko bangunan,Toko Perlengkapan Rumah,TB. SEDERHANA,"Jl. Raya Darame, Darame, Kec. Morotai Sel., Kabupaten Pulau Morotai, Maluku Utara","Kabupaten Pulau Morotai, Maluku Utara",MALUKU UTARA,,Indonesia,82282403347.0,2.0516562,128.300861,https://maps.google.com/?cid=0x0:0x44b029479ddd72a0
toko bangunan,Toko Mebel Dapur,Mandiri mebel,"Darame, Kec. Morotai Sel., Kabupaten Pulau Morotai, Maluku Utara","Kabupaten Pulau Morotai, Maluku Utara",MALUKU UTARA,,Indonesia,82152068508.0,2.0583106,128.3102835,https://maps.google.com/?cid=0x0:0x5ab3196b887e81ed
toko bangunan,Pusat Perbelanjaan,Central Besi Putih Morotai,"3876+28W, Gotalamo, Kec. Morotai Sel., Kabupaten Pulau Morotai, Maluku Utara","Kabupaten Pulau Morotai, Maluku Utara",MALUKU UTARA,,Indonesia,82299709947.0,2.0626146,128.3108283,https://maps.google.com/?cid=0x0:0x25e8f1b24438310b
toko bangunan,Toko Bahan Bangunan,Toko Bangunan SENTOSA,"P266+52G O.Sasingan, Wosia, Kec. Tobelo Tengah, Kabupaten Halmahera Utara, Maluku Utara","Kabupaten Halmahera Utara, Maluku Utara",MALUKU UTARA,,Indonesia,82144648989.0,1.7104491,128.0100684,https://maps.google.com/?cid=0x0:0xe043f9c8ba78bb16
toko bangunan,Toko Perlengkapan Rumah,Tk. Moro Karya,"Jl. Kampung cina, Daruba, Pulau, Kec. Morotai Sel., Kabupaten Pulau Morotai, Maluku Utara 97771","Daruba, Pulau, Kec. Morotai Sel., Kabupaten Pulau Morotai",MALUKU UTARA,97771.0,Indonesia,,2.0514694,128.2918474,https://maps.google.com/?cid=0x0:0xc67ddb7091eabf23
toko bangunan,toko bangunan,Maluku Utara,,Maluku Utara,MALUKU UTARA,,Indonesia,,1.5709993,127.8087693,https://maps.google.com/?cid=0x0:0x1030bfbcaf71ac0
toko bangunan,Toko Bahan Bangunan,Toko bangunan  Rumah roti Singga Dulu,"372V+6Q9, Darame, Kec. Morotai Sel., Kabupaten Pulau Morotai, Maluku Utara","Kabupaten Pulau Morotai, Maluku Utara",MALUKU UTARA,,Indonesia,82378990826.0,2.050397,128.294782,https://maps.google.com/?cid=0x0:0x1054b26b0c7b4557
toko bangunan,Toko Bahan Bangunan,TOKO BANGUNAN AFLAH,"3844+8W5, Darame, Kec. Morotai Sel., Kabupaten Pulau Morotai, Maluku Utara","Kabupaten Pulau Morotai, Maluku Utara",MALUKU UTARA,,Indonesia,81289549001.0,2.0561242,128.307455,https://maps.google.com/?cid=0x0:0x68857e0f7831bbee
toko bangunan,Toko Bahan Bangunan,TB. Sumber Bangunan Morotai,"Daruba, Kec. Morotai Sel., Kabupaten Pulau Morotai, Maluku Utara","Kabupaten Pulau Morotai, Maluku Utara",MALUKU UTARA,,Indonesia,81241776090.0,2.0519689,128.2923467,https://maps.google.com/?cid=0x0:0xc9cba2c1d22b4c15
toko bangunan,Toko Bahan Bangunan,Toko MONALISA Morotai,"372R+8PP Pelabuhan Speedboat Daruba, Yayasan, Kec. Morotai Sel., Kabupaten Pulau Morotai, Maluku Utara","Kabupaten Pulau Morotai, Maluku Utara",MALUKU UTARA,,Indonesia,,2.0508255,128.2918214,https://maps.google.com/?cid=0x0:0xbc5e048861ba1339
toko bangunan,Toko Perlengkapan Rumah,Putra Daerah,"372R+MWH, Daruba, Kec. Morotai Sel., Kabupaten Pulau Morotai, Maluku Utara","Kabupaten Pulau Morotai, Maluku Utara",MALUKU UTARA,,Indonesia,,2.0516793,128.2923451,https://maps.google.com/?cid=0x0:0xbad7cc8c5cd1a7f
toko bangunan,Toko Bahan Bangunan,Toko Mitra Bangunan,"Jl. Pahlawan Revolusi No.3, Muhajirin, Kec. Ternate Tengah, Kota Ternate, Maluku Utara 97721","Muhajirin, Kec. Ternate Tengah, Kota Ternate",MALUKU UTARA,97721.0,Indonesia,8124217777.0,0.7863051,127.3886452,https://maps.google.com/?cid=0x0:0x182c1f07e66842a
toko bangunan,Pasar bahan bangunan,Toko Sumber Bangunan,"P2G6+2MM, Gamsungi, Kec. Tobelo, Kabupaten Halmahera Utara, Maluku Utara","Kabupaten Halmahera Utara, Maluku Utara",MALUKU UTARA,,Indonesia,9242621455.0,1.7250967,128.0116677,https://maps.google.com/?cid=0x0:0x14835095227102f4
toko bangunan,Toko Bahan Bangunan,Makmur Utama Supermarket Bahan Bangunan,"Jl. Yasin Gamsungi No.2 Kec. ternate tengah, Kel, Makassar Tim., Makassar Timur, Kota Ternate, Maluku Utara 97724","Kel, Makassar Tim., Makassar Timur, Kota Ternate",MALUKU UTARA,97724.0,Indonesia,8114313799.0,0.7940352,127.3876695,https://maps.google.com/?cid=0x0:0x2f492ae87bf64247
toko bangunan,Pasar bahan bangunan,Toko Intisari2,"PHRH+XHX, Jl. Hijra, Galala, Oba Utara, Kota Tidore Kepulauan, Maluku Utara","Kota Tidore Kepulauan, Maluku Utara",MALUKU UTARA,,Indonesia,8124751378.0,0.7424771,127.5789924,https://maps.google.com/?cid=0x0:0x25129a2cfa046c97
toko bangunan,Toko Bahan Bangunan,Toko Sejati Bangunan,"Jalan Raya Wosia, Depan Saro Nifero, Samping Dealer Honda CV.Lion, Mahia, Kec. Tobelo, Maluku Utara 97762","Depan Saro Nifero, Samping Dealer Honda CV.Lion, Mahia, Kec. Tobelo",MALUKU UTARA,97762.0,Indonesia,82195215789.0,1.7063845,128.0084905,https://maps.google.com/?cid=0x0:0xe07acc47d25781c8
toko bangunan,Toko Bahan Bangunan,Toko Bangunan SENTOSA,"P266+52G O.Sasingan, Wosia, Kec. Tobelo Tengah, Kabupaten Halmahera Utara, Maluku Utara","Kabupaten Halmahera Utara, Maluku Utara",MALUKU UTARA,,Indonesia,82144648989.0,1.7104491,128.0100684,https://maps.google.com/?cid=0x0:0xe043f9c8ba78bb16
toko bangunan,Pusat Perbelanjaan,SETIA PRESS',"4H45+VC5, Sangowo, Kec. Morotai Tim., Kabupaten Pulau Morotai, Maluku Utara","Kabupaten Pulau Morotai, Maluku Utara",MALUKU UTARA,,Indonesia,,2.107146,128.5585973,https://maps.google.com/?cid=0x0:0x5855a763223b4510
toko bangunan,toko bangunan,Kec. Morotai Tim.,"Kabupaten Pulau Morotai, Maluku Utara","Kabupaten Pulau Morotai, Maluku Utara",MALUKU UTARA,,Indonesia,,2.1068727,128.557235,https://maps.google.com/?cid=0x0:0xfe2c10e8a9e17d56
toko bangunan,toko bangunan,Maluku Utara,,Maluku Utara,MALUKU UTARA,,Indonesia,,1.5709993,127.8087693,https://maps.google.com/?cid=0x0:0x1030bfbcaf71ac0
toko bangunan,Toko Bahan Bangunan,TOKO BANGUNAN AFLAH,"3844+8W5, Darame, Kec. Morotai Sel., Kabupaten Pulau Morotai, Maluku Utara","Kabupaten Pulau Morotai, Maluku Utara",MALUKU UTARA,,Indonesia,81289549001.0,2.0561242,128.307455,https://maps.google.com/?cid=0x0:0x68857e0f7831bbee
toko bangunan,Toko Perlengkapan Rumah,Toko Mitra Bangunan,"27XV+RFV, Yayasan, Kec. Morotai Sel., Kabupaten Pulau Morotai, Maluku Utara","Kabupaten Pulau Morotai, Maluku Utara",MALUKU UTARA,,Indonesia,83125236425.0,2.0495677,128.2938019,https://maps.google.com/?cid=0x0:0x14f2338821c2f1d
toko bangunan,Toko Bahan Bangunan,Toko bangunan  Rumah roti Singga Dulu,"372V+6Q9, Darame, Kec. Morotai Sel., Kabupaten Pulau Morotai, Maluku Utara","Kabupaten Pulau Morotai, Maluku Utara",MALUKU UTARA,,Indonesia,82378990826.0,2.050397,128.294782,https://maps.google.com/?cid=0x0:0x1054b26b0c7b4557
toko bangunan,Toko Bahan Bangunan,Makmur Utama Supermarket Bahan Bangunan,"Jl. Yasin Gamsungi No.2 Kec. ternate tengah, Kel, Makassar Tim., Makassar Timur, Kota Ternate, Maluku Utara 97724","Kel, Makassar Tim., Makassar Timur, Kota Ternate",MALUKU UTARA,97724.0,Indonesia,8114313799.0,0.7940352,127.3876695,https://maps.google.com/?cid=0x0:0x2f492ae87bf64247
toko bangunan,Toko Bahan Bangunan,Makmur Utama Supermarket Bahan Bangunan,"Jambula, Kec. Pulau Ternate, Kota Ternate, Maluku Utara","Kota Ternate, Maluku Utara",MALUKU UTARA,,Indonesia,8114313899.0,0.7581804,127.3220409,https://maps.google.com/?cid=0x0:0xe3a01731f7851efa
toko bangunan,Toko Perlengkapan Rumah,Putra Daerah,"372R+MWH, Daruba, Kec. Morotai Sel., Kabupaten Pulau Morotai, Maluku Utara","Kabupaten Pulau Morotai, Maluku Utara",MALUKU UTARA,,Indonesia,,2.0516793,128.2923451,https://maps.google.com/?cid=0x0:0xbad7cc8c5cd1a7f
toko bangunan,Toko Bahan Bangunan,Toko MONALISA Morotai,"372R+8PP Pelabuhan Speedboat Daruba, Yayasan, Kec. Morotai Sel., Kabupaten Pulau Morotai, Maluku Utara","Kabupaten Pulau Morotai, Maluku Utara",MALUKU UTARA,,Indonesia,,2.0508255,128.2918214,https://maps.google.com/?cid=0x0:0xbc5e048861ba1339
toko bangunan,Toko Bahan Bangunan,Toko Sejati Bangunan,"Jalan Raya Wosia, Depan Saro Nifero, Samping Dealer Honda CV.Lion, Mahia, Kec. Tobelo, Maluku Utara 97762","Depan Saro Nifero, Samping Dealer Honda CV.Lion, Mahia, Kec. Tobelo",MALUKU UTARA,97762.0,Indonesia,82195215789.0,1.7063845,128.0084905,https://maps.google.com/?cid=0x0:0xe07acc47d25781c8
toko bangunan,Pasar bahan bangunan,Toko Sumber Bangunan,"P2G6+2MM, Gamsungi, Kec. Tobelo, Kabupaten Halmahera Utara, Maluku Utara","Kabupaten Halmahera Utara, Maluku Utara",MALUKU UTARA,,Indonesia,9242621455.0,1.7250967,128.0116677,https://maps.google.com/?cid=0x0:0x14835095227102f4
toko bangunan,Pasar bahan bangunan,Toko Intisari2,"PHRH+XHX, Jl. Hijra, Galala, Oba Utara, Kota Tidore Kepulauan, Maluku Utara","Kota Tidore Kepulauan, Maluku Utara",MALUKU UTARA,,Indonesia,8124751378.0,0.7424771,127.5789924,https://maps.google.com/?cid=0x0:0x25129a2cfa046c97
toko bangunan,Toko Bahan Bangunan,Toko Mitra Bangunan,"Jl. Pahlawan Revolusi No.3, Muhajirin, Kec. Ternate Tengah, Kota Ternate, Maluku Utara 97721","Muhajirin, Kec. Ternate Tengah, Kota Ternate",MALUKU UTARA,97721.0,Indonesia,8124217777.0,0.7863051,127.3886452,https://maps.google.com/?cid=0x0:0x182c1f07e66842a
toko bangunan,toko bangunan,Maluku Utara,,Maluku Utara,MALUKU UTARA,,Indonesia,,1.5709993,127.8087693,https://maps.google.com/?cid=0x0:0x1030bfbcaf71ac0
toko bangunan,Toko Perlengkapan Rumah,Toko Mitra Bangunan,"27XV+RFV, Yayasan, Kec. Morotai Sel., Kabupaten Pulau Morotai, Maluku Utara","Kabupaten Pulau Morotai, Maluku Utara",MALUKU UTARA,,Indonesia,83125236425.0,2.0495677,128.2938019,https://maps.google.com/?cid=0x0:0x14f2338821c2f1d
toko bangunan,Toko Bahan Bangunan,TB. Sumber Bangunan Morotai,"Daruba, Kec. Morotai Sel., Kabupaten Pulau Morotai, Maluku Utara","Kabupaten Pulau Morotai, Maluku Utara",MALUKU UTARA,,Indonesia,81241776090.0,2.0519689,128.2923467,https://maps.google.com/?cid=0x0:0xc9cba2c1d22b4c15
toko bangunan,Toko Bahan Bangunan,TOKO BANGUNAN AFLAH,"3844+8W5, Darame, Kec. Morotai Sel., Kabupaten Pulau Morotai, Maluku Utara","Kabupaten Pulau Morotai, Maluku Utara",MALUKU UTARA,,Indonesia,81289549001.0,2.0561242,128.307455,https://maps.google.com/?cid=0x0:0x68857e0f7831bbee
toko bangunan,Toko Perlengkapan Rumah,TB. SEDERHANA,"Jl. Raya Darame, Darame, Kec. Morotai Sel., Kabupaten Pulau Morotai, Maluku Utara","Kabupaten Pulau Morotai, Maluku Utara",MALUKU UTARA,,Indonesia,82282403347.0,2.0516562,128.300861,https://maps.google.com/?cid=0x0:0x44b029479ddd72a0
toko bangunan,Toko Bahan Bangunan,Toko MONALISA Morotai,"372R+8PP Pelabuhan Speedboat Daruba, Yayasan, Kec. Morotai Sel., Kabupaten Pulau Morotai, Maluku Utara","Kabupaten Pulau Morotai, Maluku Utara",MALUKU UTARA,,Indonesia,,2.0508255,128.2918214,https://maps.google.com/?cid=0x0:0xbc5e048861ba1339
toko bangunan,Toko Perlengkapan Rumah,Putra Daerah,"372R+MWH, Daruba, Kec. Morotai Sel., Kabupaten Pulau Morotai, Maluku Utara","Kabupaten Pulau Morotai, Maluku Utara",MALUKU UTARA,,Indonesia,,2.0516793,128.2923451,https://maps.google.com/?cid=0x0:0xbad7cc8c5cd1a7f
toko bangunan,Toko Bahan Bangunan,Toko Mitra Bangunan,"Jl. Pahlawan Revolusi No.3, Muhajirin, Kec. Ternate Tengah, Kota Ternate, Maluku Utara 97721","Muhajirin, Kec. Ternate Tengah, Kota Ternate",MALUKU UTARA,97721.0,Indonesia,8124217777.0,0.7863051,127.3886452,https://maps.google.com/?cid=0x0:0x182c1f07e66842a
toko bangunan,Toko Bahan Bangunan,Makmur Utama Supermarket Bahan Bangunan,"Jl. Yasin Gamsungi No.2 Kec. ternate tengah, Kel, Makassar Tim., Makassar Timur, Kota Ternate, Maluku Utara 97724","Kel, Makassar Tim., Makassar Timur, Kota Ternate",MALUKU UTARA,97724.0,Indonesia,8114313799.0,0.7940352,127.3876695,https://maps.google.com/?cid=0x0:0x2f492ae87bf64247
toko bangunan,Toko Bahan Bangunan,Makmur Utama Supermarket Bahan Bangunan,"Jambula, Kec. Pulau Ternate, Kota Ternate, Maluku Utara","Kota Ternate, Maluku Utara",MALUKU UTARA,,Indonesia,8114313899.0,0.7581804,127.3220409,https://maps.google.com/?cid=0x0:0xe3a01731f7851efa
toko bangunan,Pasar bahan bangunan,Toko Sumber Bangunan,"P2G6+2MM, Gamsungi, Kec. Tobelo, Kabupaten Halmahera Utara, Maluku Utara","Kabupaten Halmahera Utara, Maluku Utara",MALUKU UTARA,,Indonesia,9242621455.0,1.7250967,128.0116677,https://maps.google.com/?cid=0x0:0x14835095227102f4
toko bangunan,Toko Bahan Bangunan,Toko Sejati Bangunan,"Jalan Raya Wosia, Depan Saro Nifero, Samping Dealer Honda CV.Lion, Mahia, Kec. Tobelo, Maluku Utara 97762","Depan Saro Nifero, Samping Dealer Honda CV.Lion, Mahia, Kec. Tobelo",MALUKU UTARA,97762.0,Indonesia,82195215789.0,1.7063845,128.0084905,https://maps.google.com/?cid=0x0:0xe07acc47d25781c8
toko bangunan,Toko Bahan Bangunan,Toko Bangunan SENTOSA,"P266+52G O.Sasingan, Wosia, Kec. Tobelo Tengah, Kabupaten Halmahera Utara, Maluku Utara","Kabupaten Halmahera Utara, Maluku Utara",MALUKU UTARA,,Indonesia,82144648989.0,1.7104491,128.0100684,https://maps.google.com/?cid=0x0:0xe043f9c8ba78bb16
toko bangunan,Toko Bahan Bangunan,Makmur Utama Supermarket Bahan bangunan,"Tj. Niara, Kec. Tobelo Tengah, Kabupaten Halmahera Utara, Maluku Utara","Kabupaten Halmahera Utara, Maluku Utara",MALUKU UTARA,,Indonesia,85117420324.0,1.7019679,128.0155893,https://maps.google.com/?cid=0x0:0x47ecdf114648cbc2
toko bangunan,toko bangunan,Kec. Morotai Utara,"Kabupaten Pulau Morotai, Maluku Utara","Kabupaten Pulau Morotai, Maluku Utara",MALUKU UTARA,,Indonesia,,2.3951437,128.6629022,https://maps.google.com/?cid=0x0:0x365307e3c5aab3fb
toko bangunan,Toko Bahan Bangunan,TOKO BANGUNAN AFLAH,"3844+8W5, Darame, Kec. Morotai Sel., Kabupaten Pulau Morotai, Maluku Utara","Kabupaten Pulau Morotai, Maluku Utara",MALUKU UTARA,,Indonesia,81289549001.0,2.0561242,128.307455,https://maps.google.com/?cid=0x0:0x68857e0f7831bbee
toko bangunan,Toko Perlengkapan Rumah,Toko Mitra Bangunan,"27XV+RFV, Yayasan, Kec. Morotai Sel., Kabupaten Pulau Morotai, Maluku Utara","Kabupaten Pulau Morotai, Maluku Utara",MALUKU UTARA,,Indonesia,83125236425.0,2.0495677,128.2938019,https://maps.google.com/?cid=0x0:0x14f2338821c2f1d
toko bangunan,Toko Bahan Bangunan,Toko bangunan  Rumah roti Singga Dulu,"372V+6Q9, Darame, Kec. Morotai Sel., Kabupaten Pulau Morotai, Maluku Utara","Kabupaten Pulau Morotai, Maluku Utara",MALUKU UTARA,,Indonesia,82378990826.0,2.050397,128.294782,https://maps.google.com/?cid=0x0:0x1054b26b0c7b4557
toko bangunan,Toko Bahan Bangunan,Toko MONALISA Morotai,"372R+8PP Pelabuhan Speedboat Daruba, Yayasan, Kec. Morotai Sel., Kabupaten Pulau Morotai, Maluku Utara","Kabupaten Pulau Morotai, Maluku Utara",MALUKU UTARA,,Indonesia,,2.0508255,128.2918214,https://maps.google.com/?cid=0x0:0xbc5e048861ba1339
toko bangunan,Toko Perlengkapan Rumah,Putra Daerah,"372R+MWH, Daruba, Kec. Morotai Sel., Kabupaten Pulau Morotai, Maluku Utara","Kabupaten Pulau Morotai, Maluku Utara",MALUKU UTARA,,Indonesia,,2.0516793,128.2923451,https://maps.google.com/?cid=0x0:0xbad7cc8c5cd1a7f
toko bangunan,Toko Perlengkapan Rumah,TB. SEDERHANA,"Jl. Raya Darame, Darame, Kec. Morotai Sel., Kabupaten Pulau Morotai, Maluku Utara","Kabupaten Pulau Morotai, Maluku Utara",MALUKU UTARA,,Indonesia,82282403347.0,2.0516562,128.300861,https://maps.google.com/?cid=0x0:0x44b029479ddd72a0
toko bangunan,Pasar bahan bangunan,Toko Sumber Bangunan,"P2G6+2MM, Gamsungi, Kec. Tobelo, Kabupaten Halmahera Utara, Maluku Utara","Kabupaten Halmahera Utara, Maluku Utara",MALUKU UTARA,,Indonesia,9242621455.0,1.7250967,128.0116677,https://maps.google.com/?cid=0x0:0x14835095227102f4
toko bangunan,Toko Mebel Dapur,Mandiri mebel,"Darame, Kec. Morotai Sel., Kabupaten Pulau Morotai, Maluku Utara","Kabupaten Pulau Morotai, Maluku Utara",MALUKU UTARA,,Indonesia,82152068508.0,2.0583106,128.3102835,https://maps.google.com/?cid=0x0:0x5ab3196b887e81ed
toko bangunan,Toko Bahan Bangunan,Toko Bangunan SENTOSA,"P266+52G O.Sasingan, Wosia, Kec. Tobelo Tengah, Kabupaten Halmahera Utara, Maluku Utara","Kabupaten Halmahera Utara, Maluku Utara",MALUKU UTARA,,Indonesia,82144648989.0,1.7104491,128.0100684,https://maps.google.com/?cid=0x0:0xe043f9c8ba78bb16
toko bangunan,Pusat Perbelanjaan,Central Besi Putih Morotai,"3876+28W, Gotalamo, Kec. Morotai Sel., Kabupaten Pulau Morotai, Maluku Utara","Kabupaten Pulau Morotai, Maluku Utara",MALUKU UTARA,,Indonesia,82299709947.0,2.0626146,128.3108283,https://maps.google.com/?cid=0x0:0x25e8f1b24438310b
toko bangunan,Toko Perlengkapan Rumah,Tk. Moro Karya,"Jl. Kampung cina, Daruba, Pulau, Kec. Morotai Sel., Kabupaten Pulau Morotai, Maluku Utara 97771","Daruba, Pulau, Kec. Morotai Sel., Kabupaten Pulau Morotai",MALUKU UTARA,97771.0,Indonesia,,2.0514694,128.2918474,https://maps.google.com/?cid=0x0:0xc67ddb7091eabf23
building materials,Toko Bahan Bangunan,TOKO BANGUNAN AFLAH,"3844+8W5, Darame, Kec. Morotai Sel., Kabupaten Pulau Morotai, Maluku Utara","Kabupaten Pulau Morotai, Maluku Utara",MALUKU UTARA,,Indonesia,81289549001.0,2.0561242,128.307455,https://maps.google.com/?cid=0x0:0x68857e0f7831bbee
building materials,building materials,Kec. Morotai Jaya,"Kabupaten Pulau Morotai, Maluku Utara","Kabupaten Pulau Morotai, Maluku Utara",MALUKU UTARA,,Indonesia,,2.5756265,128.5236947,https://maps.google.com/?cid=0x0:0xbdf281ebc27a14d0
building materials,Toko Bahan Bangunan,Toko MONALISA Morotai,"372R+8PP Pelabuhan Speedboat Daruba, Yayasan, Kec. Morotai Sel., Kabupaten Pulau Morotai, Maluku Utara","Kabupaten Pulau Morotai, Maluku Utara",MALUKU UTARA,,Indonesia,,2.0508255,128.2918214,https://maps.google.com/?cid=0x0:0xbc5e048861ba1339
building materials,Toko Bahan Bangunan,TB. Sumber Bangunan Morotai,"Daruba, Kec. Morotai Sel., Kabupaten Pulau Morotai, Maluku Utara","Kabupaten Pulau Morotai, Maluku Utara",MALUKU UTARA,,Indonesia,81241776090.0,2.0519689,128.2923467,https://maps.google.com/?cid=0x0:0xc9cba2c1d22b4c15
building materials,Toko Perlengkapan Rumah,TB. SEDERHANA,"Jl. Raya Darame, Darame, Kec. Morotai Sel., Kabupaten Pulau Morotai, Maluku Utara","Kabupaten Pulau Morotai, Maluku Utara",MALUKU UTARA,,Indonesia,82282403347.0,2.0516562,128.300861,https://maps.google.com/?cid=0x0:0x44b029479ddd72a0
building materials,Toko Perlengkapan Rumah,Putra Daerah,"372R+MWH, Daruba, Kec. Morotai Sel., Kabupaten Pulau Morotai, Maluku Utara","Kabupaten Pulau Morotai, Maluku Utara",MALUKU UTARA,,Indonesia,,2.0516793,128.2923451,https://maps.google.com/?cid=0x0:0xbad7cc8c5cd1a7f
building materials,Toko Perlengkapan Rumah,JEFRI SUPPLIER BAHAN BANGUNAN,"Jl. Industri Jl. Rw. Bogo, Pasir Mukti, Kec. Citeureup, Kabupaten Bogor Jawa Barat 16810, Kabupaten Bogor, Jawa Barat 16811","Pasir Mukti, Kec. Citeureup, Kabupaten Bogor Jawa Barat",MALUKU UTARA,16810.0,Indonesia,85747107419.0,-6.5023051,106.8983691,https://maps.google.com/?cid=0x0:0x817997c380156414
building materials,Toko Bahan Bangunan,Toko bangunan  Rumah roti Singga Dulu,"372V+6Q9, Darame, Kec. Morotai Sel., Kabupaten Pulau Morotai, Maluku Utara","Kabupaten Pulau Morotai, Maluku Utara",MALUKU UTARA,,Indonesia,82378990826.0,2.050397,128.294782,https://maps.google.com/?cid=0x0:0x1054b26b0c7b4557
building materials,Toko Perlengkapan Rumah,Toko Bangunan Mekar Jaya,"FVRX+M35, Pasir Mukti, Kec. Citeureup, Kabupaten Bogor, Jawa Barat 16810","Pasir Mukti, Kec. Citeureup, Kabupaten Bogor",MALUKU UTARA,16810.0,Indonesia,,-6.5083633,106.897739,https://maps.google.com/?cid=0x0:0xcf86c9bb6248d188
building materials,building materials,Kec. Morotai Sel.,"Kabupaten Pulau Morotai, Maluku Utara","Kabupaten Pulau Morotai, Maluku Utara",MALUKU UTARA,,Indonesia,,2.0501311,128.2940593,https://maps.google.com/?cid=0x0:0x8cbfaede8bbbfd0d
building materials,Toko Perlengkapan Rumah,Toko Mitra Bangunan,"27XV+RFV, Yayasan, Kec. Morotai Sel., Kabupaten Pulau Morotai, Maluku Utara","Kabupaten Pulau Morotai, Maluku Utara",MALUKU UTARA,,Indonesia,83125236425.0,2.0495677,128.2938019,https://maps.google.com/?cid=0x0:0x14f2338821c2f1d
building materials,Toko Bahan Bangunan,TOKO BANGUNAN AFLAH,"3844+8W5, Darame, Kec. Morotai Sel., Kabupaten Pulau Morotai, Maluku Utara","Kabupaten Pulau Morotai, Maluku Utara",MALUKU UTARA,,Indonesia,81289549001.0,2.0561242,128.307455,https://maps.google.com/?cid=0x0:0x68857e0f7831bbee
building materials,Toko Perlengkapan Rumah,Putra Daerah,"372R+MWH, Daruba, Kec. Morotai Sel., Kabupaten Pulau Morotai, Maluku Utara","Kabupaten Pulau Morotai, Maluku Utara",MALUKU UTARA,,Indonesia,,2.0516793,128.2923451,https://maps.google.com/?cid=0x0:0xbad7cc8c5cd1a7f
building materials,Toko Perlengkapan Rumah,TB. SEDERHANA,"Jl. Raya Darame, Darame, Kec. Morotai Sel., Kabupaten Pulau Morotai, Maluku Utara","Kabupaten Pulau Morotai, Maluku Utara",MALUKU UTARA,,Indonesia,82282403347.0,2.0516562,128.300861,https://maps.google.com/?cid=0x0:0x44b029479ddd72a0
building materials,Toko Bahan Bangunan,Toko MONALISA Morotai,"372R+8PP Pelabuhan Speedboat Daruba, Yayasan, Kec. Morotai Sel., Kabupaten Pulau Morotai, Maluku Utara","Kabupaten Pulau Morotai, Maluku Utara",MALUKU UTARA,,Indonesia,,2.0508255,128.2918214,https://maps.google.com/?cid=0x0:0xbc5e048861ba1339
building materials,Toko Perlengkapan Rumah,Tk. Moro Karya,"Jl. Kampung cina, Daruba, Pulau, Kec. Morotai Sel., Kabupaten Pulau Morotai, Maluku Utara 97771","Daruba, Pulau, Kec. Morotai Sel., Kabupaten Pulau Morotai",MALUKU UTARA,97771.0,Indonesia,,2.0514694,128.2918474,https://maps.google.com/?cid=0x0:0xc67ddb7091eabf23
building materials,Toko Bahan Bangunan,Toko bangunan  Rumah roti Singga Dulu,"372V+6Q9, Darame, Kec. Morotai Sel., Kabupaten Pulau Morotai, Maluku Utara","Kabupaten Pulau Morotai, Maluku Utara",MALUKU UTARA,,Indonesia,82378990826.0,2.050397,128.294782,https://maps.google.com/?cid=0x0:0x1054b26b0c7b4557
building materials,Toko Bahan Bangunan,TB. Sumber Bangunan Morotai,"Daruba, Kec. Morotai Sel., Kabupaten Pulau Morotai, Maluku Utara","Kabupaten Pulau Morotai, Maluku Utara",MALUKU UTARA,,Indonesia,81241776090.0,2.0519689,128.2923467,https://maps.google.com/?cid=0x0:0xc9cba2c1d22b4c15
building materials,Pusat Perbelanjaan,SETIA PRESS',"4H45+VC5, Sangowo, Kec. Morotai Tim., Kabupaten Pulau Morotai, Maluku Utara","Kabupaten Pulau Morotai, Maluku Utara",MALUKU UTARA,,Indonesia,,2.107146,128.5585973,https://maps.google.com/?cid=0x0:0x5855a763223b4510
building materials,Pusat Perbelanjaan,Central Besi Putih Morotai,"3876+28W, Gotalamo, Kec. Morotai Sel., Kabupaten Pulau Morotai, Maluku Utara","Kabupaten Pulau Morotai, Maluku Utara",MALUKU UTARA,,Indonesia,82299709947.0,2.0626146,128.3108283,https://maps.google.com/?cid=0x0:0x25e8f1b24438310b
building materials,building materials,Kec. Morotai Sel. Bar.,"Kabupaten Pulau Morotai, Maluku Utara","Kabupaten Pulau Morotai, Maluku Utara",MALUKU UTARA,,Indonesia,,2.2801376,128.2016017,https://maps.google.com/?cid=0x0:0x69328259284f1b6b
building materials,Toko Perlengkapan Rumah,Toko Mitra Bangunan,"27XV+RFV, Yayasan, Kec. Morotai Sel., Kabupaten Pulau Morotai, Maluku Utara","Kabupaten Pulau Morotai, Maluku Utara",MALUKU UTARA,,Indonesia,83125236425.0,2.0495677,128.2938019,https://maps.google.com/?cid=0x0:0x14f2338821c2f1d
building materials,Toko Bahan Bangunan,Toko MONALISA Morotai,"372R+8PP Pelabuhan Speedboat Daruba, Yayasan, Kec. Morotai Sel., Kabupaten Pulau Morotai, Maluku Utara","Kabupaten Pulau Morotai, Maluku Utara",MALUKU UTARA,,Indonesia,,2.0508255,128.2918214,https://maps.google.com/?cid=0x0:0xbc5e048861ba1339
building materials,Toko Perlengkapan Rumah,Tk. Moro Karya,"Jl. Kampung cina, Daruba, Pulau, Kec. Morotai Sel., Kabupaten Pulau Morotai, Maluku Utara 97771","Daruba, Pulau, Kec. Morotai Sel., Kabupaten Pulau Morotai",MALUKU UTARA,97771.0,Indonesia,,2.0514694,128.2918474,https://maps.google.com/?cid=0x0:0xc67ddb7091eabf23
building materials,Toko Bahan Bangunan,TOKO BANGUNAN AFLAH,"3844+8W5, Darame, Kec. Morotai Sel., Kabupaten Pulau Morotai, Maluku Utara","Kabupaten Pulau Morotai, Maluku Utara",MALUKU UTARA,,Indonesia,81289549001.0,2.0561242,128.307455,https://maps.google.com/?cid=0x0:0x68857e0f7831bbee
building materials,Toko Perlengkapan Rumah,TB. SEDERHANA,"Jl. Raya Darame, Darame, Kec. Morotai Sel., Kabupaten Pulau Morotai, Maluku Utara","Kabupaten Pulau Morotai, Maluku Utara",MALUKU UTARA,,Indonesia,82282403347.0,2.0516562,128.300861,https://maps.google.com/?cid=0x0:0x44b029479ddd72a0
building materials,Toko Perlengkapan Rumah,Putra Daerah,"372R+MWH, Daruba, Kec. Morotai Sel., Kabupaten Pulau Morotai, Maluku Utara","Kabupaten Pulau Morotai, Maluku Utara",MALUKU UTARA,,Indonesia,,2.0516793,128.2923451,https://maps.google.com/?cid=0x0:0xbad7cc8c5cd1a7f
building materials,Toko Bahan Bangunan,Toko bangunan  Rumah roti Singga Dulu,"372V+6Q9, Darame, Kec. Morotai Sel., Kabupaten Pulau Morotai, Maluku Utara","Kabupaten Pulau Morotai, Maluku Utara",MALUKU UTARA,,Indonesia,82378990826.0,2.050397,128.294782,https://maps.google.com/?cid=0x0:0x1054b26b0c7b4557
building materials,Toko Bahan Bangunan,TB. Sumber Bangunan Morotai,"Daruba, Kec. Morotai Sel., Kabupaten Pulau Morotai, Maluku Utara","Kabupaten Pulau Morotai, Maluku Utara",MALUKU UTARA,,Indonesia,81241776090.0,2.0519689,128.2923467,https://maps.google.com/?cid=0x0:0xc9cba2c1d22b4c15
building materials,Pusat Perbelanjaan,SETIA PRESS',"4H45+VC5, Sangowo, Kec. Morotai Tim., Kabupaten Pulau Morotai, Maluku Utara","Kabupaten Pulau Morotai, Maluku Utara",MALUKU UTARA,,Indonesia,,2.107146,128.5585973,https://maps.google.com/?cid=0x0:0x5855a763223b4510
building materials,Pusat Perbelanjaan,Central Besi Putih Morotai,"3876+28W, Gotalamo, Kec. Morotai Sel., Kabupaten Pulau Morotai, Maluku Utara","Kabupaten Pulau Morotai, Maluku Utara",MALUKU UTARA,,Indonesia,82299709947.0,2.0626146,128.3108283,https://maps.google.com/?cid=0x0:0x25e8f1b24438310b
building materials,Toko,Toko Makastemor,"373V+42M, Daruba, Kec. Morotai Sel., Kabupaten Pulau Morotai, Maluku Utara","Kabupaten Pulau Morotai, Maluku Utara",MALUKU UTARA,,Indonesia,85256618012.0,2.0528433,128.2925371,https://maps.google.com/?cid=0x0:0x8926dcf2943cc9cb
building materials,Park and ride,Bendung Tiley,"672G+PC6, Ngele Ngele Kecil, Kec. Morotai Sel. Bar., Kabupaten Pulau Morotai, Maluku Utara","Kabupaten Pulau Morotai, Maluku Utara",MALUKU UTARA,,Indonesia,,2.2017867,128.2760247,https://maps.google.com/?cid=0x0:0x89a81ac8ca0a83ba
building materials,building materials,Kec. Morotai Tim.,"Kabupaten Pulau Morotai, Maluku Utara","Kabupaten Pulau Morotai, Maluku Utara",MALUKU UTARA,,Indonesia,,2.1068727,128.557235,https://maps.google.com/?cid=0x0:0xfe2c10e8a9e17d56
building materials,Pusat Perbelanjaan,SETIA PRESS',"4H45+VC5, Sangowo, Kec. Morotai Tim., Kabupaten Pulau Morotai, Maluku Utara","Kabupaten Pulau Morotai, Maluku Utara",MALUKU UTARA,,Indonesia,,2.107146,128.5585973,https://maps.google.com/?cid=0x0:0x5855a763223b4510
building materials,Toko Bahan Bangunan,TOKO BANGUNAN AFLAH,"3844+8W5, Darame, Kec. Morotai Sel., Kabupaten Pulau Morotai, Maluku Utara","Kabupaten Pulau Morotai, Maluku Utara",MALUKU UTARA,,Indonesia,81289549001.0,2.0561242,128.307455,https://maps.google.com/?cid=0x0:0x68857e0f7831bbee
building materials,Toko Bahan Bangunan,Toko MONALISA Morotai,"372R+8PP Pelabuhan Speedboat Daruba, Yayasan, Kec. Morotai Sel., Kabupaten Pulau Morotai, Maluku Utara","Kabupaten Pulau Morotai, Maluku Utara",MALUKU UTARA,,Indonesia,,2.0508255,128.2918214,https://maps.google.com/?cid=0x0:0xbc5e048861ba1339
building materials,Toko Perlengkapan Rumah,Tk. Moro Karya,"Jl. Kampung cina, Daruba, Pulau, Kec. Morotai Sel., Kabupaten Pulau Morotai, Maluku Utara 97771","Daruba, Pulau, Kec. Morotai Sel., Kabupaten Pulau Morotai",MALUKU UTARA,97771.0,Indonesia,,2.0514694,128.2918474,https://maps.google.com/?cid=0x0:0xc67ddb7091eabf23
building materials,building materials,Kec. Morotai Tim.,"Kabupaten Pulau Morotai, Maluku Utara","Kabupaten Pulau Morotai, Maluku Utara",MALUKU UTARA,,Indonesia,,2.1068727,128.557235,https://maps.google.com/?cid=0x0:0xfe2c10e8a9e17d56
building materials,Toko Bahan Bangunan,TOKO BANGUNAN AFLAH,"3844+8W5, Darame, Kec. Morotai Sel., Kabupaten Pulau Morotai, Maluku Utara","Kabupaten Pulau Morotai, Maluku Utara",MALUKU UTARA,,Indonesia,81289549001.0,2.0561242,128.307455,https://maps.google.com/?cid=0x0:0x68857e0f7831bbee
building materials,Toko Bahan Bangunan,Toko MONALISA Morotai,"372R+8PP Pelabuhan Speedboat Daruba, Yayasan, Kec. Morotai Sel., Kabupaten Pulau Morotai, Maluku Utara","Kabupaten Pulau Morotai, Maluku Utara",MALUKU UTARA,,Indonesia,,2.0508255,128.2918214,https://maps.google.com/?cid=0x0:0xbc5e048861ba1339
building materials,Pusat Perbelanjaan,Central Besi Putih Morotai,"3876+28W, Gotalamo, Kec. Morotai Sel., Kabupaten Pulau Morotai, Maluku Utara","Kabupaten Pulau Morotai, Maluku Utara",MALUKU UTARA,,Indonesia,82299709947.0,2.0626146,128.3108283,https://maps.google.com/?cid=0x0:0x25e8f1b24438310b
building materials,Toko Perlengkapan Rumah,Putra Daerah,"372R+MWH, Daruba, Kec. Morotai Sel., Kabupaten Pulau Morotai, Maluku Utara","Kabupaten Pulau Morotai, Maluku Utara",MALUKU UTARA,,Indonesia,,2.0516793,128.2923451,https://maps.google.com/?cid=0x0:0xbad7cc8c5cd1a7f
building materials,building materials,Kec. Morotai Tim.,"Kabupaten Pulau Morotai, Maluku Utara","Kabupaten Pulau Morotai, Maluku Utara",MALUKU UTARA,,Indonesia,,2.1068727,128.557235,https://maps.google.com/?cid=0x0:0xfe2c10e8a9e17d56
building materials,Pusat Perbelanjaan,SETIA PRESS',"4H45+VC5, Sangowo, Kec. Morotai Tim., Kabupaten Pulau Morotai, Maluku Utara","Kabupaten Pulau Morotai, Maluku Utara",MALUKU UTARA,,Indonesia,,2.107146,128.5585973,https://maps.google.com/?cid=0x0:0x5855a763223b4510
building materials,Toko Bahan Bangunan,TOKO BANGUNAN AFLAH,"3844+8W5, Darame, Kec. Morotai Sel., Kabupaten Pulau Morotai, Maluku Utara","Kabupaten Pulau Morotai, Maluku Utara",MALUKU UTARA,,Indonesia,81289549001.0,2.0561242,128.307455,https://maps.google.com/?cid=0x0:0x68857e0f7831bbee
building materials,Toko Perlengkapan Rumah,Toko Mitra Bangunan,"27XV+RFV, Yayasan, Kec. Morotai Sel., Kabupaten Pulau Morotai, Maluku Utara","Kabupaten Pulau Morotai, Maluku Utara",MALUKU UTARA,,Indonesia,83125236425.0,2.0495677,128.2938019,https://maps.google.com/?cid=0x0:0x14f2338821c2f1d
building materials,Toko Perlengkapan Rumah,TB. SEDERHANA,"Jl. Raya Darame, Darame, Kec. Morotai Sel., Kabupaten Pulau Morotai, Maluku Utara","Kabupaten Pulau Morotai, Maluku Utara",MALUKU UTARA,,Indonesia,82282403347.0,2.0516562,128.300861,https://maps.google.com/?cid=0x0:0x44b029479ddd72a0
building materials,Toko Bahan Bangunan,TB. Sumber Bangunan Morotai,"Daruba, Kec. Morotai Sel., Kabupaten Pulau Morotai, Maluku Utara","Kabupaten Pulau Morotai, Maluku Utara",MALUKU UTARA,,Indonesia,81241776090.0,2.0519689,128.2923467,https://maps.google.com/?cid=0x0:0xc9cba2c1d22b4c15
building materials,Toko Mebel Dapur,Mandiri mebel,"Darame, Kec. Morotai Sel., Kabupaten Pulau Morotai, Maluku Utara","Kabupaten Pulau Morotai, Maluku Utara",MALUKU UTARA,,Indonesia,82152068508.0,2.0583106,128.3102835,https://maps.google.com/?cid=0x0:0x5ab3196b887e81ed
building materials,Toko Perlengkapan Rumah,Putra Daerah,"372R+MWH, Daruba, Kec. Morotai Sel., Kabupaten Pulau Morotai, Maluku Utara","Kabupaten Pulau Morotai, Maluku Utara",MALUKU UTARA,,Indonesia,,2.0516793,128.2923451,https://maps.google.com/?cid=0x0:0xbad7cc8c5cd1a7f
building materials,Toko Bahan Bangunan,Toko bangunan  Rumah roti Singga Dulu,"372V+6Q9, Darame, Kec. Morotai Sel., Kabupaten Pulau Morotai, Maluku Utara","Kabupaten Pulau Morotai, Maluku Utara",MALUKU UTARA,,Indonesia,82378990826.0,2.050397,128.294782,https://maps.google.com/?cid=0x0:0x1054b26b0c7b4557
building materials,Toko Perlengkapan Rumah,Tk. Moro Karya,"Jl. Kampung cina, Daruba, Pulau, Kec. Morotai Sel., Kabupaten Pulau Morotai, Maluku Utara 97771","Daruba, Pulau, Kec. Morotai Sel., Kabupaten Pulau Morotai",MALUKU UTARA,97771.0,Indonesia,,2.0514694,128.2918474,https://maps.google.com/?cid=0x0:0xc67ddb7091eabf23
building materials,building materials,Kec. Morotai Tim.,"Kabupaten Pulau Morotai, Maluku Utara","Kabupaten Pulau Morotai, Maluku Utara",MALUKU UTARA,,Indonesia,,2.1068727,128.557235,https://maps.google.com/?cid=0x0:0xfe2c10e8a9e17d56
building materials,Toko Bahan Bangunan,TB. Sumber Bangunan Morotai,"Daruba, Kec. Morotai Sel., Kabupaten Pulau Morotai, Maluku Utara","Kabupaten Pulau Morotai, Maluku Utara",MALUKU UTARA,,Indonesia,81241776090.0,2.0519689,128.2923467,https://maps.google.com/?cid=0x0:0xc9cba2c1d22b4c15
building materials,Toko Bahan Bangunan,Toko MONALISA Morotai,"372R+8PP Pelabuhan Speedboat Daruba, Yayasan, Kec. Morotai Sel., Kabupaten Pulau Morotai, Maluku Utara","Kabupaten Pulau Morotai, Maluku Utara",MALUKU UTARA,,Indonesia,,2.0508255,128.2918214,https://maps.google.com/?cid=0x0:0xbc5e048861ba1339
building materials,Toko Perlengkapan Rumah,Toko Mitra Bangunan,"27XV+RFV, Yayasan, Kec. Morotai Sel., Kabupaten Pulau Morotai, Maluku Utara","Kabupaten Pulau Morotai, Maluku Utara",MALUKU UTARA,,Indonesia,83125236425.0,2.0495677,128.2938019,https://maps.google.com/?cid=0x0:0x14f2338821c2f1d
building materials,Toko Bahan Bangunan,TOKO BANGUNAN AFLAH,"3844+8W5, Darame, Kec. Morotai Sel., Kabupaten Pulau Morotai, Maluku Utara","Kabupaten Pulau Morotai, Maluku Utara",MALUKU UTARA,,Indonesia,81289549001.0,2.0561242,128.307455,https://maps.google.com/?cid=0x0:0x68857e0f7831bbee
building materials,Toko Bahan Bangunan,Toko bangunan  Rumah roti Singga Dulu,"372V+6Q9, Darame, Kec. Morotai Sel., Kabupaten Pulau Morotai, Maluku Utara","Kabupaten Pulau Morotai, Maluku Utara",MALUKU UTARA,,Indonesia,82378990826.0,2.050397,128.294782,https://maps.google.com/?cid=0x0:0x1054b26b0c7b4557
building materials,Toko Perlengkapan Rumah,Putra Daerah,"372R+MWH, Daruba, Kec. Morotai Sel., Kabupaten Pulau Morotai, Maluku Utara","Kabupaten Pulau Morotai, Maluku Utara",MALUKU UTARA,,Indonesia,,2.0516793,128.2923451,https://maps.google.com/?cid=0x0:0xbad7cc8c5cd1a7f
building materials,Toko Perlengkapan Rumah,Tk. Moro Karya,"Jl. Kampung cina, Daruba, Pulau, Kec. Morotai Sel., Kabupaten Pulau Morotai, Maluku Utara 97771","Daruba, Pulau, Kec. Morotai Sel., Kabupaten Pulau Morotai",MALUKU UTARA,97771.0,Indonesia,,2.0514694,128.2918474,https://maps.google.com/?cid=0x0:0xc67ddb7091eabf23
building materials,Toko,Kios Satu Putra,"4H56+8XV, Jl. Sangowo, Sangowo, Kec. Morotai Tim., Kabupaten Pulau Morotai, Maluku Utara","Kabupaten Pulau Morotai, Maluku Utara",MALUKU UTARA,,Indonesia,,2.107792,128.562527,https://maps.google.com/?cid=0x0:0x5c5637576dd2ebca
building materials,building materials,Kec. Morotai Tim.,"Kabupaten Pulau Morotai, Maluku Utara","Kabupaten Pulau Morotai, Maluku Utara",MALUKU UTARA,,Indonesia,,2.1068727,128.557235,https://maps.google.com/?cid=0x0:0xfe2c10e8a9e17d56
building materials,Toko Bahan Bangunan,TOKO BANGUNAN AFLAH,"3844+8W5, Darame, Kec. Morotai Sel., Kabupaten Pulau Morotai, Maluku Utara","Kabupaten Pulau Morotai, Maluku Utara",MALUKU UTARA,,Indonesia,81289549001.0,2.0561242,128.307455,https://maps.google.com/?cid=0x0:0x68857e0f7831bbee
building materials,Toko Bahan Bangunan,Toko MONALISA Morotai,"372R+8PP Pelabuhan Speedboat Daruba, Yayasan, Kec. Morotai Sel., Kabupaten Pulau Morotai, Maluku Utara","Kabupaten Pulau Morotai, Maluku Utara",MALUKU UTARA,,Indonesia,,2.0508255,128.2918214,https://maps.google.com/?cid=0x0:0xbc5e048861ba1339
building materials,Toko Bahan Bangunan,TB. Sumber Bangunan Morotai,"Daruba, Kec. Morotai Sel., Kabupaten Pulau Morotai, Maluku Utara","Kabupaten Pulau Morotai, Maluku Utara",MALUKU UTARA,,Indonesia,81241776090.0,2.0519689,128.2923467,https://maps.google.com/?cid=0x0:0xc9cba2c1d22b4c15
building materials,Toko Perlengkapan Rumah,Putra Daerah,"372R+MWH, Daruba, Kec. Morotai Sel., Kabupaten Pulau Morotai, Maluku Utara","Kabupaten Pulau Morotai, Maluku Utara",MALUKU UTARA,,Indonesia,,2.0516793,128.2923451,https://maps.google.com/?cid=0x0:0xbad7cc8c5cd1a7f
building materials,building materials,Kec. Morotai Tim.,"Kabupaten Pulau Morotai, Maluku Utara","Kabupaten Pulau Morotai, Maluku Utara",MALUKU UTARA,,Indonesia,,2.1068727,128.557235,https://maps.google.com/?cid=0x0:0xfe2c10e8a9e17d56
building materials,Toko Bahan Bangunan,TOKO BANGUNAN AFLAH,"3844+8W5, Darame, Kec. Morotai Sel., Kabupaten Pulau Morotai, Maluku Utara","Kabupaten Pulau Morotai, Maluku Utara",MALUKU UTARA,,Indonesia,81289549001.0,2.0561242,128.307455,https://maps.google.com/?cid=0x0:0x68857e0f7831bbee
building materials,Toko Perlengkapan Rumah,Toko Mitra Bangunan,"27XV+RFV, Yayasan, Kec. Morotai Sel., Kabupaten Pulau Morotai, Maluku Utara","Kabupaten Pulau Morotai, Maluku Utara",MALUKU UTARA,,Indonesia,83125236425.0,2.0495677,128.2938019,https://maps.google.com/?cid=0x0:0x14f2338821c2f1d
building materials,Toko Bahan Bangunan,TB. Sumber Bangunan Morotai,"Daruba, Kec. Morotai Sel., Kabupaten Pulau Morotai, Maluku Utara","Kabupaten Pulau Morotai, Maluku Utara",MALUKU UTARA,,Indonesia,81241776090.0,2.0519689,128.2923467,https://maps.google.com/?cid=0x0:0xc9cba2c1d22b4c15
building materials,Toko Perlengkapan Rumah,Putra Daerah,"372R+MWH, Daruba, Kec. Morotai Sel., Kabupaten Pulau Morotai, Maluku Utara","Kabupaten Pulau Morotai, Maluku Utara",MALUKU UTARA,,Indonesia,,2.0516793,128.2923451,https://maps.google.com/?cid=0x0:0xbad7cc8c5cd1a7f
building materials,Toko Perlengkapan Rumah,Tk. Moro Karya,"Jl. Kampung cina, Daruba, Pulau, Kec. Morotai Sel., Kabupaten Pulau Morotai, Maluku Utara 97771","Daruba, Pulau, Kec. Morotai Sel., Kabupaten Pulau Morotai",MALUKU UTARA,97771.0,Indonesia,,2.0514694,128.2918474,https://maps.google.com/?cid=0x0:0xc67ddb7091eabf23
building materials,Pusat Perbelanjaan,SETIA PRESS',"4H45+VC5, Sangowo, Kec. Morotai Tim., Kabupaten Pulau Morotai, Maluku Utara","Kabupaten Pulau Morotai, Maluku Utara",MALUKU UTARA,,Indonesia,,2.107146,128.5585973,https://maps.google.com/?cid=0x0:0x5855a763223b4510
building materials,Toko,Kios Satu Putra,"4H56+8XV, Jl. Sangowo, Sangowo, Kec. Morotai Tim., Kabupaten Pulau Morotai, Maluku Utara","Kabupaten Pulau Morotai, Maluku Utara",MALUKU UTARA,,Indonesia,,2.107792,128.562527,https://maps.google.com/?cid=0x0:0x5c5637576dd2ebca
building materials,building materials,Kec. Morotai Tim.,"Kabupaten Pulau Morotai, Maluku Utara","Kabupaten Pulau Morotai, Maluku Utara",MALUKU UTARA,,Indonesia,,2.1068727,128.557235,https://maps.google.com/?cid=0x0:0xfe2c10e8a9e17d56
building materials,Pusat Perbelanjaan,SETIA PRESS',"4H45+VC5, Sangowo, Kec. Morotai Tim., Kabupaten Pulau Morotai, Maluku Utara","Kabupaten Pulau Morotai, Maluku Utara",MALUKU UTARA,,Indonesia,,2.107146,128.5585973,https://maps.google.com/?cid=0x0:0x5855a763223b4510
building materials,Toko Bahan Bangunan,TOKO BANGUNAN AFLAH,"3844+8W5, Darame, Kec. Morotai Sel., Kabupaten Pulau Morotai, Maluku Utara","Kabupaten Pulau Morotai, Maluku Utara",MALUKU UTARA,,Indonesia,81289549001.0,2.0561242,128.307455,https://maps.google.com/?cid=0x0:0x68857e0f7831bbee
building materials,Toko Perlengkapan Rumah,Toko Mitra Bangunan,"27XV+RFV, Yayasan, Kec. Morotai Sel., Kabupaten Pulau Morotai, Maluku Utara","Kabupaten Pulau Morotai, Maluku Utara",MALUKU UTARA,,Indonesia,83125236425.0,2.0495677,128.2938019,https://maps.google.com/?cid=0x0:0x14f2338821c2f1d
building materials,Toko Perlengkapan Rumah,TB. SEDERHANA,"Jl. Raya Darame, Darame, Kec. Morotai Sel., Kabupaten Pulau Morotai, Maluku Utara","Kabupaten Pulau Morotai, Maluku Utara",MALUKU UTARA,,Indonesia,82282403347.0,2.0516562,128.300861,https://maps.google.com/?cid=0x0:0x44b029479ddd72a0
building materials,Toko,Kios Satu Putra,"4H56+8XV, Jl. Sangowo, Sangowo, Kec. Morotai Tim., Kabupaten Pulau Morotai, Maluku Utara","Kabupaten Pulau Morotai, Maluku Utara",MALUKU UTARA,,Indonesia,,2.107792,128.562527,https://maps.google.com/?cid=0x0:0x5c5637576dd2ebca
building materials,Toko Bahan Bangunan,TB. Sumber Bangunan Morotai,"Daruba, Kec. Morotai Sel., Kabupaten Pulau Morotai, Maluku Utara","Kabupaten Pulau Morotai, Maluku Utara",MALUKU UTARA,,Indonesia,81241776090.0,2.0519689,128.2923467,https://maps.google.com/?cid=0x0:0xc9cba2c1d22b4c15
building materials,Toko Bahan Bangunan,Toko MONALISA Morotai,"372R+8PP Pelabuhan Speedboat Daruba, Yayasan, Kec. Morotai Sel., Kabupaten Pulau Morotai, Maluku Utara","Kabupaten Pulau Morotai, Maluku Utara",MALUKU UTARA,,Indonesia,,2.0508255,128.2918214,https://maps.google.com/?cid=0x0:0xbc5e048861ba1339
building materials,building materials,Kec. Morotai Utara,"Kabupaten Pulau Morotai, Maluku Utara","Kabupaten Pulau Morotai, Maluku Utara",MALUKU UTARA,,Indonesia,,2.3951437,128.6629022,https://maps.google.com/?cid=0x0:0x365307e3c5aab3fb
building materials,Toko Bahan Bangunan,TB. Sumber Bangunan Morotai,"Daruba, Kec. Morotai Sel., Kabupaten Pulau Morotai, Maluku Utara","Kabupaten Pulau Morotai, Maluku Utara",MALUKU UTARA,,Indonesia,81241776090.0,2.0519689,128.2923467,https://maps.google.com/?cid=0x0:0xc9cba2c1d22b4c15
building materials,Toko Perlengkapan Rumah,Toko Mitra Bangunan,"27XV+RFV, Yayasan, Kec. Morotai Sel., Kabupaten Pulau Morotai, Maluku Utara","Kabupaten Pulau Morotai, Maluku Utara",MALUKU UTARA,,Indonesia,83125236425.0,2.0495677,128.2938019,https://maps.google.com/?cid=0x0:0x14f2338821c2f1d
building materials,Toko Bahan Bangunan,Toko bangunan  Rumah roti Singga Dulu,"372V+6Q9, Darame, Kec. Morotai Sel., Kabupaten Pulau Morotai, Maluku Utara","Kabupaten Pulau Morotai, Maluku Utara",MALUKU UTARA,,Indonesia,82378990826.0,2.050397,128.294782,https://maps.google.com/?cid=0x0:0x1054b26b0c7b4557
building materials,Pusat Perbelanjaan,Central Besi Putih Morotai,"3876+28W, Gotalamo, Kec. Morotai Sel., Kabupaten Pulau Morotai, Maluku Utara","Kabupaten Pulau Morotai, Maluku Utara",MALUKU UTARA,,Indonesia,82299709947.0,2.0626146,128.3108283,https://maps.google.com/?cid=0x0:0x25e8f1b24438310b
hardware store,Toko Bahan Bangunan,Toko MONALISA Morotai,"372R+8PP Pelabuhan Speedboat Daruba, Yayasan, Kec. Morotai Sel., Kabupaten Pulau Morotai, Maluku Utara","Kabupaten Pulau Morotai, Maluku Utara",MALUKU UTARA,,Indonesia,,2.0508255,128.2918214,https://maps.google.com/?cid=0x0:0xbc5e048861ba1339
hardware store,hardware store,Kec. Morotai Jaya,"Kabupaten Pulau Morotai, Maluku Utara","Kabupaten Pulau Morotai, Maluku Utara",MALUKU UTARA,,Indonesia,,2.5756265,128.5236947,https://maps.google.com/?cid=0x0:0xbdf281ebc27a14d0
hardware store,Toko Perlengkapan Rumah,Toko Mitra Bangunan,"27XV+RFV, Yayasan, Kec. Morotai Sel., Kabupaten Pulau Morotai, Maluku Utara","Kabupaten Pulau Morotai, Maluku Utara",MALUKU UTARA,,Indonesia,83125236425.0,2.0495677,128.2938019,https://maps.google.com/?cid=0x0:0x14f2338821c2f1d
hardware store,hardware store,Kec. Morotai Sel.,"Kabupaten Pulau Morotai, Maluku Utara","Kabupaten Pulau Morotai, Maluku Utara",MALUKU UTARA,,Indonesia,,2.0501311,128.2940593,https://maps.google.com/?cid=0x0:0x8cbfaede8bbbfd0d
hardware store,Toko Bahan Bangunan,TB. Sumber Bangunan Morotai,"Daruba, Kec. Morotai Sel., Kabupaten Pulau Morotai, Maluku Utara","Kabupaten Pulau Morotai, Maluku Utara",MALUKU UTARA,,Indonesia,81241776090.0,2.0519689,128.2923467,https://maps.google.com/?cid=0x0:0xc9cba2c1d22b4c15
hardware store,Toko Perlengkapan Rumah,Mr Diy Morotai,"3866+VJH, Gotalamo, Kec. Morotai Sel., Kabupaten Pulau Morotai, Maluku Utara","Kabupaten Pulau Morotai, Maluku Utara",MALUKU UTARA,,Indonesia,,2.0628904,128.3117261,https://maps.google.com/?cid=0x0:0x99ba186e93689fc1
hardware store,Toko Perlengkapan Rumah,Putra Daerah,"372R+MWH, Daruba, Kec. Morotai Sel., Kabupaten Pulau Morotai, Maluku Utara","Kabupaten Pulau Morotai, Maluku Utara",MALUKU UTARA,,Indonesia,,2.0516793,128.2923451,https://maps.google.com/?cid=0x0:0xbad7cc8c5cd1a7f
hardware store,Toko,Toko Makastemor,"373V+42M, Daruba, Kec. Morotai Sel., Kabupaten Pulau Morotai, Maluku Utara","Kabupaten Pulau Morotai, Maluku Utara",MALUKU UTARA,,Indonesia,85256618012.0,2.0528433,128.2925371,https://maps.google.com/?cid=0x0:0x8926dcf2943cc9cb
hardware store,Toko Perlengkapan Rumah,TB. SEDERHANA,"Jl. Raya Darame, Darame, Kec. Morotai Sel., Kabupaten Pulau Morotai, Maluku Utara","Kabupaten Pulau Morotai, Maluku Utara",MALUKU UTARA,,Indonesia,82282403347.0,2.0516562,128.300861,https://maps.google.com/?cid=0x0:0x44b029479ddd72a0
hardware store,Toko,CENTRALMART MOROTAI,"3844+CVC, Gotalamo, Kec. Morotai Sel., Kabupaten Pulau Morotai, Maluku Utara","Kabupaten Pulau Morotai, Maluku Utara",MALUKU UTARA,,Indonesia,81390728877.0,2.0560646,128.3071429,https://maps.google.com/?cid=0x0:0xb009c4efd3c1184f
hardware store,Toko Alat Tulis Kantor,Toko Alat Tulis (ALSUSS),"3834+M2C, Jl. Raya Darame, Daruba, Kec. Morotai Sel., Kabupaten Pulau Morotai, Maluku Utara 97771","Jl. Raya Darame, Daruba, Kec. Morotai Sel., Kabupaten Pulau Morotai",MALUKU UTARA,97771.0,Indonesia,82199600344.0,2.0541827,128.3050215,https://maps.google.com/?cid=0x0:0xb189d5659a5c38f3
hardware store,Toko bahan makanan,Toko Ion,"Darame, Kec. Morotai Sel., Kabupaten Pulau Morotai, Maluku Utara 97771","Kec. Morotai Sel., Kabupaten Pulau Morotai",MALUKU UTARA,97771.0,Indonesia,81271341190.0,2.0521652,128.3020745,https://maps.google.com/?cid=0x0:0x21a0fac59bb7eb82
hardware store,Toko Buku,Toko ATKa RIA (A2 Fotocopy),"Jln. SMA Muhammadiyah Tanah Tinggi, Gotalamo, Kec. Morotai Sel., Kabupaten Pulau Morotai, Maluku Utara 97771","Gotalamo, Kec. Morotai Sel., Kabupaten Pulau Morotai",MALUKU UTARA,97771.0,Indonesia,85211009814.0,2.0554718,128.3009878,https://maps.google.com/?cid=0x0:0x8dc315924e1de29a
hardware store,Toko Alat Tulis Kantor,Toko Sulis,"Depan Kantor Desa, Sabatai Tua, Kec. Morotai Sel., Kabupaten Pulau Morotai, Maluku Utara 97771","Sabatai Tua, Kec. Morotai Sel., Kabupaten Pulau Morotai",MALUKU UTARA,97771.0,Indonesia,81242152058.0,2.0587561,128.4174418,https://maps.google.com/?cid=0x0:0xce112f3c1fc5a5a0
hardware store,Toko Perlengkapan Rumah,MJ GORDEN,"372W+7RF, Darame, Kec. Morotai Sel., Kabupaten Pulau Morotai, Maluku Utara 97771","Darame, Kec. Morotai Sel., Kabupaten Pulau Morotai",MALUKU UTARA,97771.0,Indonesia,,2.0506922,128.2970567,https://maps.google.com/?cid=0x0:0x7068e7105485003d
hardware store,Toko Alat Tulis Kantor,Toko Alqis,"Daeo, Kec. Morotai Sel., Kabupaten Pulau Morotai, Maluku Utara 97771","Kec. Morotai Sel., Kabupaten Pulau Morotai",MALUKU UTARA,97771.0,Indonesia,81344348440.0,2.05661,128.4722807,https://maps.google.com/?cid=0x0:0x95b7efe13dd70b07
hardware store,hardware store,Kec. Morotai Sel. Bar.,"Kabupaten Pulau Morotai, Maluku Utara","Kabupaten Pulau Morotai, Maluku Utara",MALUKU UTARA,,Indonesia,,2.2801376,128.2016017,https://maps.google.com/?cid=0x0:0x69328259284f1b6b
hardware store,Toko Perlengkapan Rumah,Mr Diy Morotai,"3866+VJH, Gotalamo, Kec. Morotai Sel., Kabupaten Pulau Morotai, Maluku Utara","Kabupaten Pulau Morotai, Maluku Utara",MALUKU UTARA,,Indonesia,,2.0628904,128.3117261,https://maps.google.com/?cid=0x0:0x99ba186e93689fc1
hardware store,Toko Bahan Bangunan,TB. Sumber Bangunan Morotai,"Daruba, Kec. Morotai Sel., Kabupaten Pulau Morotai, Maluku Utara","Kabupaten Pulau Morotai, Maluku Utara",MALUKU UTARA,,Indonesia,81241776090.0,2.0519689,128.2923467,https://maps.google.com/?cid=0x0:0xc9cba2c1d22b4c15
hardware store,Toko,Toko Makastemor,"373V+42M, Daruba, Kec. Morotai Sel., Kabupaten Pulau Morotai, Maluku Utara","Kabupaten Pulau Morotai, Maluku Utara",MALUKU UTARA,,Indonesia,85256618012.0,2.0528433,128.2925371,https://maps.google.com/?cid=0x0:0x8926dcf2943cc9cb
hardware store,Toko Perlengkapan Rumah,Putra Daerah,"372R+MWH, Daruba, Kec. Morotai Sel., Kabupaten Pulau Morotai, Maluku Utara","Kabupaten Pulau Morotai, Maluku Utara",MALUKU UTARA,,Indonesia,,2.0516793,128.2923451,https://maps.google.com/?cid=0x0:0xbad7cc8c5cd1a7f
hardware store,Toko bahan makanan,Toko Ion,"Darame, Kec. Morotai Sel., Kabupaten Pulau Morotai, Maluku Utara 97771","Kec. Morotai Sel., Kabupaten Pulau Morotai",MALUKU UTARA,97771.0,Indonesia,81271341190.0,2.0521652,128.3020745,https://maps.google.com/?cid=0x0:0x21a0fac59bb7eb82
hardware store,Toko Alat Tulis Kantor,Toko Sulis,"Depan Kantor Desa, Sabatai Tua, Kec. Morotai Sel., Kabupaten Pulau Morotai, Maluku Utara 97771","Sabatai Tua, Kec. Morotai Sel., Kabupaten Pulau Morotai",MALUKU UTARA,97771.0,Indonesia,81242152058.0,2.0587561,128.4174418,https://maps.google.com/?cid=0x0:0xce112f3c1fc5a5a0
hardware store,Toko,CENTRALMART MOROTAI,"3844+CVC, Gotalamo, Kec. Morotai Sel., Kabupaten Pulau Morotai, Maluku Utara","Kabupaten Pulau Morotai, Maluku Utara",MALUKU UTARA,,Indonesia,81390728877.0,2.0560646,128.3071429,https://maps.google.com/?cid=0x0:0xb009c4efd3c1184f
hardware store,Toko Elektronik,Toko Mars,"Daruba, Kec. Morotai Sel., Kabupaten Pulau Morotai, Maluku Utara","Kabupaten Pulau Morotai, Maluku Utara",MALUKU UTARA,,Indonesia,81244142800.0,2.0513706,128.2922248,https://maps.google.com/?cid=0x0:0x7faaa6da3fd3c82d
hardware store,hardware store,Maluku Utara,,Maluku Utara,MALUKU UTARA,,Indonesia,,1.5709993,127.8087693,https://maps.google.com/?cid=0x0:0x1030bfbcaf71ac0
hardware store,Toko Bahan Bangunan,TOKO BANGUNAN AFLAH,"3844+8W5, Darame, Kec. Morotai Sel., Kabupaten Pulau Morotai, Maluku Utara","Kabupaten Pulau Morotai, Maluku Utara",MALUKU UTARA,,Indonesia,81289549001.0,2.0561242,128.307455,https://maps.google.com/?cid=0x0:0x68857e0f7831bbee
hardware store,Toko Perlengkapan Rumah,Putra Daerah,"372R+MWH, Daruba, Kec. Morotai Sel., Kabupaten Pulau Morotai, Maluku Utara","Kabupaten Pulau Morotai, Maluku Utara",MALUKU UTARA,,Indonesia,,2.0516793,128.2923451,https://maps.google.com/?cid=0x0:0xbad7cc8c5cd1a7f
hardware store,Toko Alat Tulis Kantor,Toko Alat Tulis (ALSUSS),"3834+M2C, Jl. Raya Darame, Daruba, Kec. Morotai Sel., Kabupaten Pulau Morotai, Maluku Utara 97771","Jl. Raya Darame, Daruba, Kec. Morotai Sel., Kabupaten Pulau Morotai",MALUKU UTARA,97771.0,Indonesia,82199600344.0,2.0541827,128.3050215,https://maps.google.com/?cid=0x0:0xb189d5659a5c38f3
hardware store,Toko Alat Tulis Kantor,Toko Sulis,"Depan Kantor Desa, Sabatai Tua, Kec. Morotai Sel., Kabupaten Pulau Morotai, Maluku Utara 97771","Sabatai Tua, Kec. Morotai Sel., Kabupaten Pulau Morotai",MALUKU UTARA,97771.0,Indonesia,81242152058.0,2.0587561,128.4174418,https://maps.google.com/?cid=0x0:0xce112f3c1fc5a5a0
hardware store,Toko bahan makanan,Toko Ion,"Darame, Kec. Morotai Sel., Kabupaten Pulau Morotai, Maluku Utara 97771","Kec. Morotai Sel., Kabupaten Pulau Morotai",MALUKU UTARA,97771.0,Indonesia,81271341190.0,2.0521652,128.3020745,https://maps.google.com/?cid=0x0:0x21a0fac59bb7eb82
hardware store,Toko,Toko Makastemor,"373V+42M, Daruba, Kec. Morotai Sel., Kabupaten Pulau Morotai, Maluku Utara","Kabupaten Pulau Morotai, Maluku Utara",MALUKU UTARA,,Indonesia,85256618012.0,2.0528433,128.2925371,https://maps.google.com/?cid=0x0:0x8926dcf2943cc9cb
hardware store,Toko,CENTRALMART MOROTAI,"3844+CVC, Gotalamo, Kec. Morotai Sel., Kabupaten Pulau Morotai, Maluku Utara","Kabupaten Pulau Morotai, Maluku Utara",MALUKU UTARA,,Indonesia,81390728877.0,2.0560646,128.3071429,https://maps.google.com/?cid=0x0:0xb009c4efd3c1184f
hardware store,Toko Perlengkapan Rumah,MJ GORDEN,"372W+7RF, Darame, Kec. Morotai Sel., Kabupaten Pulau Morotai, Maluku Utara 97771","Darame, Kec. Morotai Sel., Kabupaten Pulau Morotai",MALUKU UTARA,97771.0,Indonesia,,2.0506922,128.2970567,https://maps.google.com/?cid=0x0:0x7068e7105485003d
hardware store,Toko Alat Tulis Kantor,Toko Alqis,"Daeo, Kec. Morotai Sel., Kabupaten Pulau Morotai, Maluku Utara 97771","Kec. Morotai Sel., Kabupaten Pulau Morotai",MALUKU UTARA,97771.0,Indonesia,81344348440.0,2.05661,128.4722807,https://maps.google.com/?cid=0x0:0x95b7efe13dd70b07
hardware store,hardware store,Kec. Morotai Tim.,"Kabupaten Pulau Morotai, Maluku Utara","Kabupaten Pulau Morotai, Maluku Utara",MALUKU UTARA,,Indonesia,,2.1068727,128.557235,https://maps.google.com/?cid=0x0:0xfe2c10e8a9e17d56
hardware store,Perusahaan Daerah Air Minum (PDAM),PT. HARTA SAMUDRA MOROTAI,"3F7Q+3GV, Unnamed Road, Daeo, Kec. Morotai Sel., Kabupaten Pulau Morotai, Maluku Utara","Kabupaten Pulau Morotai, Maluku Utara",MALUKU UTARA,,Indonesia,,2.06274,128.488788,https://maps.google.com/?cid=0x0:0xfec594e74ecf8d63
hardware store,hardware store,Kec. Morotai Tim.,"Kabupaten Pulau Morotai, Maluku Utara","Kabupaten Pulau Morotai, Maluku Utara",MALUKU UTARA,,Indonesia,,2.1068727,128.557235,https://maps.google.com/?cid=0x0:0xfe2c10e8a9e17d56
hardware store,Toko Bahan Bangunan,TOKO BANGUNAN AFLAH,"3844+8W5, Darame, Kec. Morotai Sel., Kabupaten Pulau Morotai, Maluku Utara","Kabupaten Pulau Morotai, Maluku Utara",MALUKU UTARA,,Indonesia,81289549001.0,2.0561242,128.307455,https://maps.google.com/?cid=0x0:0x68857e0f7831bbee
hardware store,Toko Perlengkapan Rumah,Putra Daerah,"372R+MWH, Daruba, Kec. Morotai Sel., Kabupaten Pulau Morotai, Maluku Utara","Kabupaten Pulau Morotai, Maluku Utara",MALUKU UTARA,,Indonesia,,2.0516793,128.2923451,https://maps.google.com/?cid=0x0:0xbad7cc8c5cd1a7f
hardware store,Toko Alat Tulis Kantor,Toko Sulis,"Depan Kantor Desa, Sabatai Tua, Kec. Morotai Sel., Kabupaten Pulau Morotai, Maluku Utara 97771","Sabatai Tua, Kec. Morotai Sel., Kabupaten Pulau Morotai",MALUKU UTARA,97771.0,Indonesia,81242152058.0,2.0587561,128.4174418,https://maps.google.com/?cid=0x0:0xce112f3c1fc5a5a0
hardware store,Perusahaan Daerah Air Minum (PDAM),PT. HARTA SAMUDRA MOROTAI,"3F7Q+3GV, Unnamed Road, Daeo, Kec. Morotai Sel., Kabupaten Pulau Morotai, Maluku Utara","Kabupaten Pulau Morotai, Maluku Utara",MALUKU UTARA,,Indonesia,,2.06274,128.488788,https://maps.google.com/?cid=0x0:0xfec594e74ecf8d63
hardware store,Toko Bahan Bangunan,TB. Sumber Bangunan Morotai,"Daruba, Kec. Morotai Sel., Kabupaten Pulau Morotai, Maluku Utara","Kabupaten Pulau Morotai, Maluku Utara",MALUKU UTARA,,Indonesia,81241776090.0,2.0519689,128.2923467,https://maps.google.com/?cid=0x0:0xc9cba2c1d22b4c15
hardware store,Toko Bahan Bangunan,Toko bangunan  Rumah roti Singga Dulu,"372V+6Q9, Darame, Kec. Morotai Sel., Kabupaten Pulau Morotai, Maluku Utara","Kabupaten Pulau Morotai, Maluku Utara",MALUKU UTARA,,Indonesia,82378990826.0,2.050397,128.294782,https://maps.google.com/?cid=0x0:0x1054b26b0c7b4557
hardware store,Toko Perlengkapan Rumah,Tk. Moro Karya,"Jl. Kampung cina, Daruba, Pulau, Kec. Morotai Sel., Kabupaten Pulau Morotai, Maluku Utara 97771","Daruba, Pulau, Kec. Morotai Sel., Kabupaten Pulau Morotai",MALUKU UTARA,97771.0,Indonesia,,2.0514694,128.2918474,https://maps.google.com/?cid=0x0:0xc67ddb7091eabf23
hardware store,hardware store,Maluku Utara,,Maluku Utara,MALUKU UTARA,,Indonesia,,1.5709993,127.8087693,https://maps.google.com/?cid=0x0:0x1030bfbcaf71ac0
hardware store,Toko Bahan Bangunan,TB. Sumber Bangunan Morotai,"Daruba, Kec. Morotai Sel., Kabupaten Pulau Morotai, Maluku Utara","Kabupaten Pulau Morotai, Maluku Utara",MALUKU UTARA,,Indonesia,81241776090.0,2.0519689,128.2923467,https://maps.google.com/?cid=0x0:0xc9cba2c1d22b4c15
hardware store,Toko,CENTRALMART MOROTAI,"3844+CVC, Gotalamo, Kec. Morotai Sel., Kabupaten Pulau Morotai, Maluku Utara","Kabupaten Pulau Morotai, Maluku Utara",MALUKU UTARA,,Indonesia,81390728877.0,2.0560646,128.3071429,https://maps.google.com/?cid=0x0:0xb009c4efd3c1184f
hardware store,Toko Bahan Bangunan,TOKO BANGUNAN AFLAH,"3844+8W5, Darame, Kec. Morotai Sel., Kabupaten Pulau Morotai, Maluku Utara","Kabupaten Pulau Morotai, Maluku Utara",MALUKU UTARA,,Indonesia,81289549001.0,2.0561242,128.307455,https://maps.google.com/?cid=0x0:0x68857e0f7831bbee
hardware store,Toko,Toko Makastemor,"373V+42M, Daruba, Kec. Morotai Sel., Kabupaten Pulau Morotai, Maluku Utara","Kabupaten Pulau Morotai, Maluku Utara",MALUKU UTARA,,Indonesia,85256618012.0,2.0528433,128.2925371,https://maps.google.com/?cid=0x0:0x8926dcf2943cc9cb
hardware store,Toko bahan makanan,Toko Ion,"Darame, Kec. Morotai Sel., Kabupaten Pulau Morotai, Maluku Utara 97771","Kec. Morotai Sel., Kabupaten Pulau Morotai",MALUKU UTARA,97771.0,Indonesia,81271341190.0,2.0521652,128.3020745,https://maps.google.com/?cid=0x0:0x21a0fac59bb7eb82
hardware store,Toko Alat Tulis Kantor,Toko Alqis,"Daeo, Kec. Morotai Sel., Kabupaten Pulau Morotai, Maluku Utara 97771","Kec. Morotai Sel., Kabupaten Pulau Morotai",MALUKU UTARA,97771.0,Indonesia,81344348440.0,2.05661,128.4722807,https://maps.google.com/?cid=0x0:0x95b7efe13dd70b07
hardware store,hardware store,Kec. Morotai Tim.,"Kabupaten Pulau Morotai, Maluku Utara","Kabupaten Pulau Morotai, Maluku Utara",MALUKU UTARA,,Indonesia,,2.1068727,128.557235,https://maps.google.com/?cid=0x0:0xfe2c10e8a9e17d56
hardware store,Toko Alat Tulis Kantor,Toko Sulis,"Depan Kantor Desa, Sabatai Tua, Kec. Morotai Sel., Kabupaten Pulau Morotai, Maluku Utara 97771","Sabatai Tua, Kec. Morotai Sel., Kabupaten Pulau Morotai",MALUKU UTARA,97771.0,Indonesia,81242152058.0,2.0587561,128.4174418,https://maps.google.com/?cid=0x0:0xce112f3c1fc5a5a0
hardware store,hardware store,Kec. Morotai Tim.,"Kabupaten Pulau Morotai, Maluku Utara","Kabupaten Pulau Morotai, Maluku Utara",MALUKU UTARA,,Indonesia,,2.1068727,128.557235,https://maps.google.com/?cid=0x0:0xfe2c10e8a9e17d56
hardware store,Toko Bahan Bangunan,TOKO BANGUNAN AFLAH,"3844+8W5, Darame, Kec. Morotai Sel., Kabupaten Pulau Morotai, Maluku Utara","Kabupaten Pulau Morotai, Maluku Utara",MALUKU UTARA,,Indonesia,81289549001.0,2.0561242,128.307455,https://maps.google.com/?cid=0x0:0x68857e0f7831bbee
hardware store,Toko Perlengkapan Rumah,Putra Daerah,"372R+MWH, Daruba, Kec. Morotai Sel., Kabupaten Pulau Morotai, Maluku Utara","Kabupaten Pulau Morotai, Maluku Utara",MALUKU UTARA,,Indonesia,,2.0516793,128.2923451,https://maps.google.com/?cid=0x0:0xbad7cc8c5cd1a7f
hardware store,Perusahaan Daerah Air Minum (PDAM),PT. HARTA SAMUDRA MOROTAI,"3F7Q+3GV, Unnamed Road, Daeo, Kec. Morotai Sel., Kabupaten Pulau Morotai, Maluku Utara","Kabupaten Pulau Morotai, Maluku Utara",MALUKU UTARA,,Indonesia,,2.06274,128.488788,https://maps.google.com/?cid=0x0:0xfec594e74ecf8d63
hardware store,Toko Alat Tulis Kantor,Toko Alqis,"Daeo, Kec. Morotai Sel., Kabupaten Pulau Morotai, Maluku Utara 97771","Kec. Morotai Sel., Kabupaten Pulau Morotai",MALUKU UTARA,97771.0,Indonesia,81344348440.0,2.05661,128.4722807,https://maps.google.com/?cid=0x0:0x95b7efe13dd70b07
hardware store,Toko,Toko Makastemor,"373V+42M, Daruba, Kec. Morotai Sel., Kabupaten Pulau Morotai, Maluku Utara","Kabupaten Pulau Morotai, Maluku Utara",MALUKU UTARA,,Indonesia,85256618012.0,2.0528433,128.2925371,https://maps.google.com/?cid=0x0:0x8926dcf2943cc9cb
hardware store,Toko,CENTRALMART MOROTAI,"3844+CVC, Gotalamo, Kec. Morotai Sel., Kabupaten Pulau Morotai, Maluku Utara","Kabupaten Pulau Morotai, Maluku Utara",MALUKU UTARA,,Indonesia,81390728877.0,2.0560646,128.3071429,https://maps.google.com/?cid=0x0:0xb009c4efd3c1184f
hardware store,Toko bahan makanan,Toko Ion,"Darame, Kec. Morotai Sel., Kabupaten Pulau Morotai, Maluku Utara 97771","Kec. Morotai Sel., Kabupaten Pulau Morotai",MALUKU UTARA,97771.0,Indonesia,81271341190.0,2.0521652,128.3020745,https://maps.google.com/?cid=0x0:0x21a0fac59bb7eb82
hardware store,hardware store,Maluku Utara,,Maluku Utara,MALUKU UTARA,,Indonesia,,1.5709993,127.8087693,https://maps.google.com/?cid=0x0:0x1030bfbcaf71ac0
hardware store,Toko Bahan Bangunan,TOKO BANGUNAN AFLAH,"3844+8W5, Darame, Kec. Morotai Sel., Kabupaten Pulau Morotai, Maluku Utara","Kabupaten Pulau Morotai, Maluku Utara",MALUKU UTARA,,Indonesia,81289549001.0,2.0561242,128.307455,https://maps.google.com/?cid=0x0:0x68857e0f7831bbee
hardware store,Toko Perlengkapan Rumah,Putra Daerah,"372R+MWH, Daruba, Kec. Morotai Sel., Kabupaten Pulau Morotai, Maluku Utara","Kabupaten Pulau Morotai, Maluku Utara",MALUKU UTARA,,Indonesia,,2.0516793,128.2923451,https://maps.google.com/?cid=0x0:0xbad7cc8c5cd1a7f
hardware store,Toko,CENTRALMART MOROTAI,"3844+CVC, Gotalamo, Kec. Morotai Sel., Kabupaten Pulau Morotai, Maluku Utara","Kabupaten Pulau Morotai, Maluku Utara",MALUKU UTARA,,Indonesia,81390728877.0,2.0560646,128.3071429,https://maps.google.com/?cid=0x0:0xb009c4efd3c1184f
hardware store,hardware store,Kec. Morotai Tim.,"Kabupaten Pulau Morotai, Maluku Utara","Kabupaten Pulau Morotai, Maluku Utara",MALUKU UTARA,,Indonesia,,2.1068727,128.557235,https://maps.google.com/?cid=0x0:0xfe2c10e8a9e17d56
hardware store,Toko Alat Tulis Kantor,Toko Alqis,"Daeo, Kec. Morotai Sel., Kabupaten Pulau Morotai, Maluku Utara 97771","Kec. Morotai Sel., Kabupaten Pulau Morotai",MALUKU UTARA,97771.0,Indonesia,81344348440.0,2.05661,128.4722807,https://maps.google.com/?cid=0x0:0x95b7efe13dd70b07
hardware store,Toko Alat Tulis Kantor,Toko Sulis,"Depan Kantor Desa, Sabatai Tua, Kec. Morotai Sel., Kabupaten Pulau Morotai, Maluku Utara 97771","Sabatai Tua, Kec. Morotai Sel., Kabupaten Pulau Morotai",MALUKU UTARA,97771.0,Indonesia,81242152058.0,2.0587561,128.4174418,https://maps.google.com/?cid=0x0:0xce112f3c1fc5a5a0
hardware store,hardware store,Kec. Morotai Tim.,"Kabupaten Pulau Morotai, Maluku Utara","Kabupaten Pulau Morotai, Maluku Utara",MALUKU UTARA,,Indonesia,,2.1068727,128.557235,https://maps.google.com/?cid=0x0:0xfe2c10e8a9e17d56
hardware store,Toko Bahan Bangunan,TOKO BANGUNAN AFLAH,"3844+8W5, Darame, Kec. Morotai Sel., Kabupaten Pulau Morotai, Maluku Utara","Kabupaten Pulau Morotai, Maluku Utara",MALUKU UTARA,,Indonesia,81289549001.0,2.0561242,128.307455,https://maps.google.com/?cid=0x0:0x68857e0f7831bbee
hardware store,Toko Perlengkapan Rumah,Putra Daerah,"372R+MWH, Daruba, Kec. Morotai Sel., Kabupaten Pulau Morotai, Maluku Utara","Kabupaten Pulau Morotai, Maluku Utara",MALUKU UTARA,,Indonesia,,2.0516793,128.2923451,https://maps.google.com/?cid=0x0:0xbad7cc8c5cd1a7f
hardware store,Toko Alat Tulis Kantor,Toko Alqis,"Daeo, Kec. Morotai Sel., Kabupaten Pulau Morotai, Maluku Utara 97771","Kec. Morotai Sel., Kabupaten Pulau Morotai",MALUKU UTARA,97771.0,Indonesia,81344348440.0,2.05661,128.4722807,https://maps.google.com/?cid=0x0:0x95b7efe13dd70b07
hardware store,hardware store,Maluku Utara,,Maluku Utara,MALUKU UTARA,,Indonesia,,1.5709993,127.8087693,https://maps.google.com/?cid=0x0:0x1030bfbcaf71ac0
hardware store,Toko Bahan Bangunan,TOKO BANGUNAN AFLAH,"3844+8W5, Darame, Kec. Morotai Sel., Kabupaten Pulau Morotai, Maluku Utara","Kabupaten Pulau Morotai, Maluku Utara",MALUKU UTARA,,Indonesia,81289549001.0,2.0561242,128.307455,https://maps.google.com/?cid=0x0:0x68857e0f7831bbee
hardware store,Toko Perlengkapan Rumah,Putra Daerah,"372R+MWH, Daruba, Kec. Morotai Sel., Kabupaten Pulau Morotai, Maluku Utara","Kabupaten Pulau Morotai, Maluku Utara",MALUKU UTARA,,Indonesia,,2.0516793,128.2923451,https://maps.google.com/?cid=0x0:0xbad7cc8c5cd1a7f
hardware store,Toko,Toko Makastemor,"373V+42M, Daruba, Kec. Morotai Sel., Kabupaten Pulau Morotai, Maluku Utara","Kabupaten Pulau Morotai, Maluku Utara",MALUKU UTARA,,Indonesia,85256618012.0,2.0528433,128.2925371,https://maps.google.com/?cid=0x0:0x8926dcf2943cc9cb
hardware store,Toko bahan makanan,Toko Ion,"Darame, Kec. Morotai Sel., Kabupaten Pulau Morotai, Maluku Utara 97771","Kec. Morotai Sel., Kabupaten Pulau Morotai",MALUKU UTARA,97771.0,Indonesia,81271341190.0,2.0521652,128.3020745,https://maps.google.com/?cid=0x0:0x21a0fac59bb7eb82
hardware store,hardware store,Kec. Morotai Tim.,"Kabupaten Pulau Morotai, Maluku Utara","Kabupaten Pulau Morotai, Maluku Utara",MALUKU UTARA,,Indonesia,,2.1068727,128.557235,https://maps.google.com/?cid=0x0:0xfe2c10e8a9e17d56
hardware store,Toko Alat Tulis Kantor,Toko Sulis,"Depan Kantor Desa, Sabatai Tua, Kec. Morotai Sel., Kabupaten Pulau Morotai, Maluku Utara 97771","Sabatai Tua, Kec. Morotai Sel., Kabupaten Pulau Morotai",MALUKU UTARA,97771.0,Indonesia,81242152058.0,2.0587561,128.4174418,https://maps.google.com/?cid=0x0:0xce112f3c1fc5a5a0
hardware store,Toko Alat Tulis Kantor,Toko Alqis,"Daeo, Kec. Morotai Sel., Kabupaten Pulau Morotai, Maluku Utara 97771","Kec. Morotai Sel., Kabupaten Pulau Morotai",MALUKU UTARA,97771.0,Indonesia,81344348440.0,2.05661,128.4722807,https://maps.google.com/?cid=0x0:0x95b7efe13dd70b07
hardware store,Toko Perlengkapan Rumah,Putra Daerah,"372R+MWH, Daruba, Kec. Morotai Sel., Kabupaten Pulau Morotai, Maluku Utara","Kabupaten Pulau Morotai, Maluku Utara",MALUKU UTARA,,Indonesia,,2.0516793,128.2923451,https://maps.google.com/?cid=0x0:0xbad7cc8c5cd1a7f
hardware store,Toko Bahan Bangunan,TB. Sumber Bangunan Morotai,"Daruba, Kec. Morotai Sel., Kabupaten Pulau Morotai, Maluku Utara","Kabupaten Pulau Morotai, Maluku Utara",MALUKU UTARA,,Indonesia,81241776090.0,2.0519689,128.2923467,https://maps.google.com/?cid=0x0:0xc9cba2c1d22b4c15
hardware store,hardware store,Kec. Morotai Utara,"Kabupaten Pulau Morotai, Maluku Utara","Kabupaten Pulau Morotai, Maluku Utara",MALUKU UTARA,,Indonesia,,2.3951437,128.6629022,https://maps.google.com/?cid=0x0:0x365307e3c5aab3fb
supermarket bangunan,supermarket bangunan,Kec. Morotai Jaya,"Kabupaten Pulau Morotai, Maluku Utara","Kabupaten Pulau Morotai, Maluku Utara",MALUKU UTARA,,Indonesia,,2.5756265,128.5236947,https://maps.google.com/?cid=0x0:0xbdf281ebc27a14d0
supermarket bangunan,Toko Bahan Bangunan,TB. Sumber Bangunan Morotai,"Daruba, Kec. Morotai Sel., Kabupaten Pulau Morotai, Maluku Utara","Kabupaten Pulau Morotai, Maluku Utara",MALUKU UTARA,,Indonesia,81241776090.0,2.0519689,128.2923467,https://maps.google.com/?cid=0x0:0xc9cba2c1d22b4c15
supermarket bangunan,Toko Bahan Bangunan,TOKO BANGUNAN AFLAH,"3844+8W5, Darame, Kec. Morotai Sel., Kabupaten Pulau Morotai, Maluku Utara","Kabupaten Pulau Morotai, Maluku Utara",MALUKU UTARA,,Indonesia,81289549001.0,2.0561242,128.307455,https://maps.google.com/?cid=0x0:0x68857e0f7831bbee
supermarket bangunan,Toko Bahan Bangunan,Toko MONALISA Morotai,"372R+8PP Pelabuhan Speedboat Daruba, Yayasan, Kec. Morotai Sel., Kabupaten Pulau Morotai, Maluku Utara","Kabupaten Pulau Morotai, Maluku Utara",MALUKU UTARA,,Indonesia,,2.0508255,128.2918214,https://maps.google.com/?cid=0x0:0xbc5e048861ba1339
supermarket bangunan,Toko Bahan Bangunan,Makmur Utama Supermarket Bahan Bangunan,"Jambula, Kec. Pulau Ternate, Kota Ternate, Maluku Utara","Kota Ternate, Maluku Utara",MALUKU UTARA,,Indonesia,8114313899.0,0.7581804,127.3220409,https://maps.google.com/?cid=0x0:0xe3a01731f7851efa
supermarket bangunan,Toko Bahan Bangunan,Makmur Utama Supermarket Bahan Bangunan,"Jl. Yasin Gamsungi No.2 Kec. ternate tengah, Kel, Makassar Tim., Makassar Timur, Kota Ternate, Maluku Utara 97724","Kel, Makassar Tim., Makassar Timur, Kota Ternate",MALUKU UTARA,97724.0,Indonesia,8114313799.0,0.7940352,127.3876695,https://maps.google.com/?cid=0x0:0x2f492ae87bf64247
supermarket bangunan,Toko Perlengkapan Rumah,Putra Daerah,"372R+MWH, Daruba, Kec. Morotai Sel., Kabupaten Pulau Morotai, Maluku Utara","Kabupaten Pulau Morotai, Maluku Utara",MALUKU UTARA,,Indonesia,,2.0516793,128.2923451,https://maps.google.com/?cid=0x0:0xbad7cc8c5cd1a7f
supermarket bangunan,Toko bahan makanan,SBA (Supermarket Bangunan Abadi),"Jl. Pd. Kacang No.88B, Pd. Kacang Bar., Kec. Pd. Aren, Kota Tangerang Selatan, Banten 15226","Pd. Kacang Bar., Kec. Pd. Aren, Kota Tangerang Selatan",MALUKU UTARA,15226.0,Indonesia,2173460185.0,-6.254577,106.688324,https://maps.google.com/?cid=0x0:0x370ec3ee4dda53b
supermarket bangunan,Toko Bahan Bangunan,Makmur Utama Supermarket Bahan bangunan,"Tj. Niara, Kec. Tobelo Tengah, Kabupaten Halmahera Utara, Maluku Utara","Kabupaten Halmahera Utara, Maluku Utara",MALUKU UTARA,,Indonesia,85117420324.0,1.7019679,128.0155893,https://maps.google.com/?cid=0x0:0x47ecdf114648cbc2
supermarket bangunan,Toko Bahan Bangunan,Sinar Abadi Home Centre,"Jalan Pahlawan Sindang Raya No.175, RT.01/RW.06, Bondongan, Kec. Bogor Sel., Kota Bogor, Jawa Barat 16131","RT.01/RW.06, Bondongan, Kec. Bogor Sel., Kota Bogor",MALUKU UTARA,16131.0,Indonesia,87885886482.0,-6.6164259,106.8048575,https://maps.google.com/?cid=0x0:0xb41f7d99aa9dd9bf
supermarket bangunan,Toko Bahan Bangunan,Pratama Supermarket Bahan Bangunan,"Jl. Raya Lemahabang No.27, Mekarmukti, Kec. Cikarang Utara, Kabupaten Bekasi, Jawa Barat 17530","Mekarmukti, Kec. Cikarang Utara, Kabupaten Bekasi",MALUKU UTARA,17530.0,Indonesia,218934974.0,-6.2894221,107.1531609,https://maps.google.com/?cid=0x0:0x167f4446dd2fadda
supermarket bangunan,Pemasok Bahan Bangunan,Supermarket Bangunan Abadi ( Bangunan Abadi ) Meruya,"Jl. Meruya Ilir Raya No.13 3, RT.3/RW.2, Meruya Utara, Kec. Kembangan, Kota Jakarta Barat, Daerah Khusus Ibukota Jakarta 11610","RT.3/RW.2, Meruya Utara, Kec. Kembangan, Kota Jakarta Barat",MALUKU UTARA,11610.0,Indonesia,215856801.0,-6.1976477,106.7425118,https://maps.google.com/?cid=0x0:0x13872e6ebcfc2cac
supermarket bangunan,Toko Bahan Bangunan,Toko Bangunan Hari-hari,"Jl. Mandala Utara No.21, RT.17/RW.4, Tomang, Kec. Grogol petamburan, Kota Jakarta Barat, Daerah Khusus Ibukota Jakarta 11440","RT.17/RW.4, Tomang, Kec. Grogol petamburan, Kota Jakarta Barat",MALUKU UTARA,11440.0,Indonesia,215642893.0,-6.1721247,106.7983298,https://maps.google.com/?cid=0x0:0x91aa30314dd11ef
supermarket bangunan,Toko Bahan Bangunan,Rekan Bangunan,"Jl. H. Nonon Sonthanie No.8-9, RT.006/RW.002, Duren Jaya, Kec. Bekasi Tim., Kota Bks, Jawa Barat 17111","RT.006/RW.002, Duren Jaya, Kec. Bekasi Tim., Kota Bks",MALUKU UTARA,17111.0,Indonesia,85219793880.0,-6.2426518,107.0145379,https://maps.google.com/?cid=0x0:0x7dc0dd11c341e824
supermarket bangunan,supermarket bangunan,Kec. Morotai Sel.,"Kabupaten Pulau Morotai, Maluku Utara","Kabupaten Pulau Morotai, Maluku Utara",MALUKU UTARA,,Indonesia,,2.0501311,128.2940593,https://maps.google.com/?cid=0x0:0x8cbfaede8bbbfd0d
supermarket bangunan,Toko Perlengkapan Rumah,Toko Mitra Bangunan,"27XV+RFV, Yayasan, Kec. Morotai Sel., Kabupaten Pulau Morotai, Maluku Utara","Kabupaten Pulau Morotai, Maluku Utara",MALUKU UTARA,,Indonesia,83125236425.0,2.0495677,128.2938019,https://maps.google.com/?cid=0x0:0x14f2338821c2f1d
supermarket bangunan,Toko Bahan Bangunan,TB. Sumber Bangunan Morotai,"Daruba, Kec. Morotai Sel., Kabupaten Pulau Morotai, Maluku Utara","Kabupaten Pulau Morotai, Maluku Utara",MALUKU UTARA,,Indonesia,81241776090.0,2.0519689,128.2923467,https://maps.google.com/?cid=0x0:0xc9cba2c1d22b4c15
supermarket bangunan,Toko Bahan Bangunan,Toko bangunan  Rumah roti Singga Dulu,"372V+6Q9, Darame, Kec. Morotai Sel., Kabupaten Pulau Morotai, Maluku Utara","Kabupaten Pulau Morotai, Maluku Utara",MALUKU UTARA,,Indonesia,82378990826.0,2.050397,128.294782,https://maps.google.com/?cid=0x0:0x1054b26b0c7b4557
supermarket bangunan,Toko Bahan Bangunan,Toko MONALISA Morotai,"372R+8PP Pelabuhan Speedboat Daruba, Yayasan, Kec. Morotai Sel., Kabupaten Pulau Morotai, Maluku Utara","Kabupaten Pulau Morotai, Maluku Utara",MALUKU UTARA,,Indonesia,,2.0508255,128.2918214,https://maps.google.com/?cid=0x0:0xbc5e048861ba1339
supermarket bangunan,Toko Perlengkapan Rumah,Putra Daerah,"372R+MWH, Daruba, Kec. Morotai Sel., Kabupaten Pulau Morotai, Maluku Utara","Kabupaten Pulau Morotai, Maluku Utara",MALUKU UTARA,,Indonesia,,2.0516793,128.2923451,https://maps.google.com/?cid=0x0:0xbad7cc8c5cd1a7f
supermarket bangunan,Toko Perlengkapan Rumah,Tk. Moro Karya,"Jl. Kampung cina, Daruba, Pulau, Kec. Morotai Sel., Kabupaten Pulau Morotai, Maluku Utara 97771","Daruba, Pulau, Kec. Morotai Sel., Kabupaten Pulau Morotai",MALUKU UTARA,97771.0,Indonesia,,2.0514694,128.2918474,https://maps.google.com/?cid=0x0:0xc67ddb7091eabf23
supermarket bangunan,supermarket bangunan,Kec. Morotai Sel. Bar.,"Kabupaten Pulau Morotai, Maluku Utara","Kabupaten Pulau Morotai, Maluku Utara",MALUKU UTARA,,Indonesia,,2.2801376,128.2016017,https://maps.google.com/?cid=0x0:0x69328259284f1b6b
supermarket bangunan,Toko Bahan Bangunan,TOKO BANGUNAN AFLAH,"3844+8W5, Darame, Kec. Morotai Sel., Kabupaten Pulau Morotai, Maluku Utara","Kabupaten Pulau Morotai, Maluku Utara",MALUKU UTARA,,Indonesia,81289549001.0,2.0561242,128.307455,https://maps.google.com/?cid=0x0:0x68857e0f7831bbee
supermarket bangunan,Toko Perlengkapan Rumah,Toko Mitra Bangunan,"27XV+RFV, Yayasan, Kec. Morotai Sel., Kabupaten Pulau Morotai, Maluku Utara","Kabupaten Pulau Morotai, Maluku Utara",MALUKU UTARA,,Indonesia,83125236425.0,2.0495677,128.2938019,https://maps.google.com/?cid=0x0:0x14f2338821c2f1d
supermarket bangunan,Pemasok Bahan Bangunan,Supermarket Bangunan Abadi ( Bangunan Abadi ) Meruya,"Jl. Meruya Ilir Raya No.13 3, RT.3/RW.2, Meruya Utara, Kec. Kembangan, Kota Jakarta Barat, Daerah Khusus Ibukota Jakarta 11610","RT.3/RW.2, Meruya Utara, Kec. Kembangan, Kota Jakarta Barat",MALUKU UTARA,11610.0,Indonesia,215856801.0,-6.1976477,106.7425118,https://maps.google.com/?cid=0x0:0x13872e6ebcfc2cac
supermarket bangunan,Toko bahan makanan,SBA (Supermarket Bangunan Abadi),"Jl. Pd. Kacang No.88B, Pd. Kacang Bar., Kec. Pd. Aren, Kota Tangerang Selatan, Banten 15226","Pd. Kacang Bar., Kec. Pd. Aren, Kota Tangerang Selatan",MALUKU UTARA,15226.0,Indonesia,2173460185.0,-6.254577,106.688324,https://maps.google.com/?cid=0x0:0x370ec3ee4dda53b
supermarket bangunan,supermarket bangunan,Kec. Morotai Tim.,"Kabupaten Pulau Morotai, Maluku Utara","Kabupaten Pulau Morotai, Maluku Utara",MALUKU UTARA,,Indonesia,,2.1068727,128.557235,https://maps.google.com/?cid=0x0:0xfe2c10e8a9e17d56
supermarket bangunan,Toko Bahan Bangunan,TOKO BANGUNAN AFLAH,"3844+8W5, Darame, Kec. Morotai Sel., Kabupaten Pulau Morotai, Maluku Utara","Kabupaten Pulau Morotai, Maluku Utara",MALUKU UTARA,,Indonesia,81289549001.0,2.0561242,128.307455,https://maps.google.com/?cid=0x0:0x68857e0f7831bbee
supermarket bangunan,Toko Bahan Bangunan,TB. Sumber Bangunan Morotai,"Daruba, Kec. Morotai Sel., Kabupaten Pulau Morotai, Maluku Utara","Kabupaten Pulau Morotai, Maluku Utara",MALUKU UTARA,,Indonesia,81241776090.0,2.0519689,128.2923467,https://maps.google.com/?cid=0x0:0xc9cba2c1d22b4c15
supermarket bangunan,supermarket bangunan,Kec. Morotai Tim.,"Kabupaten Pulau Morotai, Maluku Utara","Kabupaten Pulau Morotai, Maluku Utara",MALUKU UTARA,,Indonesia,,2.1068727,128.557235,https://maps.google.com/?cid=0x0:0xfe2c10e8a9e17d56
supermarket bangunan,Toko Bahan Bangunan,TB. Sumber Bangunan Morotai,"Daruba, Kec. Morotai Sel., Kabupaten Pulau Morotai, Maluku Utara","Kabupaten Pulau Morotai, Maluku Utara",MALUKU UTARA,,Indonesia,81241776090.0,2.0519689,128.2923467,https://maps.google.com/?cid=0x0:0xc9cba2c1d22b4c15
supermarket bangunan,Toko Bahan Bangunan,TOKO BANGUNAN AFLAH,"3844+8W5, Darame, Kec. Morotai Sel., Kabupaten Pulau Morotai, Maluku Utara","Kabupaten Pulau Morotai, Maluku Utara",MALUKU UTARA,,Indonesia,81289549001.0,2.0561242,128.307455,https://maps.google.com/?cid=0x0:0x68857e0f7831bbee
supermarket bangunan,Toko Bahan Bangunan,Toko MONALISA Morotai,"372R+8PP Pelabuhan Speedboat Daruba, Yayasan, Kec. Morotai Sel., Kabupaten Pulau Morotai, Maluku Utara","Kabupaten Pulau Morotai, Maluku Utara",MALUKU UTARA,,Indonesia,,2.0508255,128.2918214,https://maps.google.com/?cid=0x0:0xbc5e048861ba1339
supermarket bangunan,Toko Bahan Bangunan,Makmur Utama Supermarket Bahan Bangunan,"Jl. Yasin Gamsungi No.2 Kec. ternate tengah, Kel, Makassar Tim., Makassar Timur, Kota Ternate, Maluku Utara 97724","Kel, Makassar Tim., Makassar Timur, Kota Ternate",MALUKU UTARA,97724.0,Indonesia,8114313799.0,0.7940352,127.3876695,https://maps.google.com/?cid=0x0:0x2f492ae87bf64247
supermarket bangunan,Toko Bahan Bangunan,Makmur Utama Supermarket Bahan Bangunan,"Jambula, Kec. Pulau Ternate, Kota Ternate, Maluku Utara","Kota Ternate, Maluku Utara",MALUKU UTARA,,Indonesia,8114313899.0,0.7581804,127.3220409,https://maps.google.com/?cid=0x0:0xe3a01731f7851efa
supermarket bangunan,Toko Perlengkapan Rumah,Putra Daerah,"372R+MWH, Daruba, Kec. Morotai Sel., Kabupaten Pulau Morotai, Maluku Utara","Kabupaten Pulau Morotai, Maluku Utara",MALUKU UTARA,,Indonesia,,2.0516793,128.2923451,https://maps.google.com/?cid=0x0:0xbad7cc8c5cd1a7f
supermarket bangunan,Toko Perlengkapan Rumah,Toko Mitra Bangunan,"27XV+RFV, Yayasan, Kec. Morotai Sel., Kabupaten Pulau Morotai, Maluku Utara","Kabupaten Pulau Morotai, Maluku Utara",MALUKU UTARA,,Indonesia,83125236425.0,2.0495677,128.2938019,https://maps.google.com/?cid=0x0:0x14f2338821c2f1d
supermarket bangunan,supermarket bangunan,Kec. Morotai Tim.,"Kabupaten Pulau Morotai, Maluku Utara","Kabupaten Pulau Morotai, Maluku Utara",MALUKU UTARA,,Indonesia,,2.1068727,128.557235,https://maps.google.com/?cid=0x0:0xfe2c10e8a9e17d56
supermarket bangunan,Toko Bahan Bangunan,TOKO BANGUNAN AFLAH,"3844+8W5, Darame, Kec. Morotai Sel., Kabupaten Pulau Morotai, Maluku Utara","Kabupaten Pulau Morotai, Maluku Utara",MALUKU UTARA,,Indonesia,81289549001.0,2.0561242,128.307455,https://maps.google.com/?cid=0x0:0x68857e0f7831bbee
supermarket bangunan,Toko Bahan Bangunan,TB. Sumber Bangunan Morotai,"Daruba, Kec. Morotai Sel., Kabupaten Pulau Morotai, Maluku Utara","Kabupaten Pulau Morotai, Maluku Utara",MALUKU UTARA,,Indonesia,81241776090.0,2.0519689,128.2923467,https://maps.google.com/?cid=0x0:0xc9cba2c1d22b4c15
supermarket bangunan,Toko Bahan Bangunan,Toko bangunan  Rumah roti Singga Dulu,"372V+6Q9, Darame, Kec. Morotai Sel., Kabupaten Pulau Morotai, Maluku Utara","Kabupaten Pulau Morotai, Maluku Utara",MALUKU UTARA,,Indonesia,82378990826.0,2.050397,128.294782,https://maps.google.com/?cid=0x0:0x1054b26b0c7b4557
supermarket bangunan,supermarket bangunan,Kec. Morotai Tim.,"Kabupaten Pulau Morotai, Maluku Utara","Kabupaten Pulau Morotai, Maluku Utara",MALUKU UTARA,,Indonesia,,2.1068727,128.557235,https://maps.google.com/?cid=0x0:0xfe2c10e8a9e17d56
supermarket bangunan,Toko Bahan Bangunan,TB. Sumber Bangunan Morotai,"Daruba, Kec. Morotai Sel., Kabupaten Pulau Morotai, Maluku Utara","Kabupaten Pulau Morotai, Maluku Utara",MALUKU UTARA,,Indonesia,81241776090.0,2.0519689,128.2923467,https://maps.google.com/?cid=0x0:0xc9cba2c1d22b4c15
supermarket bangunan,Toko Bahan Bangunan,TOKO BANGUNAN AFLAH,"3844+8W5, Darame, Kec. Morotai Sel., Kabupaten Pulau Morotai, Maluku Utara","Kabupaten Pulau Morotai, Maluku Utara",MALUKU UTARA,,Indonesia,81289549001.0,2.0561242,128.307455,https://maps.google.com/?cid=0x0:0x68857e0f7831bbee
supermarket bangunan,Toko Bahan Bangunan,Makmur Utama Supermarket Bahan bangunan,"Tj. Niara, Kec. Tobelo Tengah, Kabupaten Halmahera Utara, Maluku Utara","Kabupaten Halmahera Utara, Maluku Utara",MALUKU UTARA,,Indonesia,85117420324.0,1.7019679,128.0155893,https://maps.google.com/?cid=0x0:0x47ecdf114648cbc2
supermarket bangunan,Toko Bahan Bangunan,Toko MONALISA Morotai,"372R+8PP Pelabuhan Speedboat Daruba, Yayasan, Kec. Morotai Sel., Kabupaten Pulau Morotai, Maluku Utara","Kabupaten Pulau Morotai, Maluku Utara",MALUKU UTARA,,Indonesia,,2.0508255,128.2918214,https://maps.google.com/?cid=0x0:0xbc5e048861ba1339
supermarket bangunan,Toko Bahan Bangunan,Makmur Utama Supermarket Bahan Bangunan,"Jl. Yasin Gamsungi No.2 Kec. ternate tengah, Kel, Makassar Tim., Makassar Timur, Kota Ternate, Maluku Utara 97724","Kel, Makassar Tim., Makassar Timur, Kota Ternate",MALUKU UTARA,97724.0,Indonesia,8114313799.0,0.7940352,127.3876695,https://maps.google.com/?cid=0x0:0x2f492ae87bf64247
supermarket bangunan,Toko Bahan Bangunan,Makmur Utama Supermarket Bahan Bangunan,"Jambula, Kec. Pulau Ternate, Kota Ternate, Maluku Utara","Kota Ternate, Maluku Utara",MALUKU UTARA,,Indonesia,8114313899.0,0.7581804,127.3220409,https://maps.google.com/?cid=0x0:0xe3a01731f7851efa
supermarket bangunan,Toko Perlengkapan Rumah,Putra Daerah,"372R+MWH, Daruba, Kec. Morotai Sel., Kabupaten Pulau Morotai, Maluku Utara","Kabupaten Pulau Morotai, Maluku Utara",MALUKU UTARA,,Indonesia,,2.0516793,128.2923451,https://maps.google.com/?cid=0x0:0xbad7cc8c5cd1a7f
supermarket bangunan,supermarket bangunan,Kec. Morotai Tim.,"Kabupaten Pulau Morotai, Maluku Utara","Kabupaten Pulau Morotai, Maluku Utara",MALUKU UTARA,,Indonesia,,2.1068727,128.557235,https://maps.google.com/?cid=0x0:0xfe2c10e8a9e17d56
supermarket bangunan,Toko Bahan Bangunan,TB. Sumber Bangunan Morotai,"Daruba, Kec. Morotai Sel., Kabupaten Pulau Morotai, Maluku Utara","Kabupaten Pulau Morotai, Maluku Utara",MALUKU UTARA,,Indonesia,81241776090.0,2.0519689,128.2923467,https://maps.google.com/?cid=0x0:0xc9cba2c1d22b4c15
supermarket bangunan,Toko Bahan Bangunan,TOKO BANGUNAN AFLAH,"3844+8W5, Darame, Kec. Morotai Sel., Kabupaten Pulau Morotai, Maluku Utara","Kabupaten Pulau Morotai, Maluku Utara",MALUKU UTARA,,Indonesia,81289549001.0,2.0561242,128.307455,https://maps.google.com/?cid=0x0:0x68857e0f7831bbee
supermarket bangunan,Toko Bahan Bangunan,Makmur Utama Supermarket Bahan Bangunan,"Jl. Yasin Gamsungi No.2 Kec. ternate tengah, Kel, Makassar Tim., Makassar Timur, Kota Ternate, Maluku Utara 97724","Kel, Makassar Tim., Makassar Timur, Kota Ternate",MALUKU UTARA,97724.0,Indonesia,8114313799.0,0.7940352,127.3876695,https://maps.google.com/?cid=0x0:0x2f492ae87bf64247
supermarket bangunan,Toko Perlengkapan Rumah,Putra Daerah,"372R+MWH, Daruba, Kec. Morotai Sel., Kabupaten Pulau Morotai, Maluku Utara","Kabupaten Pulau Morotai, Maluku Utara",MALUKU UTARA,,Indonesia,,2.0516793,128.2923451,https://maps.google.com/?cid=0x0:0xbad7cc8c5cd1a7f
supermarket bangunan,Toko Bahan Bangunan,Makmur Utama Supermarket Bahan bangunan,"Tj. Niara, Kec. Tobelo Tengah, Kabupaten Halmahera Utara, Maluku Utara","Kabupaten Halmahera Utara, Maluku Utara",MALUKU UTARA,,Indonesia,85117420324.0,1.7019679,128.0155893,https://maps.google.com/?cid=0x0:0x47ecdf114648cbc2
supermarket bangunan,Toko Bahan Bangunan,Toko Sejati Bangunan,"Jalan Raya Wosia, Depan Saro Nifero, Samping Dealer Honda CV.Lion, Mahia, Kec. Tobelo, Maluku Utara 97762","Depan Saro Nifero, Samping Dealer Honda CV.Lion, Mahia, Kec. Tobelo",MALUKU UTARA,97762.0,Indonesia,82195215789.0,1.7063845,128.0084905,https://maps.google.com/?cid=0x0:0xe07acc47d25781c8
supermarket bangunan,Toko Bahan Bangunan,Toko Bangunan SENTOSA,"P266+52G O.Sasingan, Wosia, Kec. Tobelo Tengah, Kabupaten Halmahera Utara, Maluku Utara","Kabupaten Halmahera Utara, Maluku Utara",MALUKU UTARA,,Indonesia,82144648989.0,1.7104491,128.0100684,https://maps.google.com/?cid=0x0:0xe043f9c8ba78bb16
supermarket bangunan,Toko Bahan Bangunan,Makmur Utama Supermarket Bahan Bangunan,"Jambula, Kec. Pulau Ternate, Kota Ternate, Maluku Utara","Kota Ternate, Maluku Utara",MALUKU UTARA,,Indonesia,8114313899.0,0.7581804,127.3220409,https://maps.google.com/?cid=0x0:0xe3a01731f7851efa
supermarket bangunan,Pasar bahan bangunan,Toko Sumber Bangunan,"P2G6+2MM, Gamsungi, Kec. Tobelo, Kabupaten Halmahera Utara, Maluku Utara","Kabupaten Halmahera Utara, Maluku Utara",MALUKU UTARA,,Indonesia,9242621455.0,1.7250967,128.0116677,https://maps.google.com/?cid=0x0:0x14835095227102f4
supermarket bangunan,Toko Perlengkapan Rumah,Toko Mitra Bangunan,"27XV+RFV, Yayasan, Kec. Morotai Sel., Kabupaten Pulau Morotai, Maluku Utara","Kabupaten Pulau Morotai, Maluku Utara",MALUKU UTARA,,Indonesia,83125236425.0,2.0495677,128.2938019,https://maps.google.com/?cid=0x0:0x14f2338821c2f1d
supermarket bangunan,supermarket bangunan,Kec. Morotai Tim.,"Kabupaten Pulau Morotai, Maluku Utara","Kabupaten Pulau Morotai, Maluku Utara",MALUKU UTARA,,Indonesia,,2.1068727,128.557235,https://maps.google.com/?cid=0x0:0xfe2c10e8a9e17d56
supermarket bangunan,Toko Bahan Bangunan,TB. Sumber Bangunan Morotai,"Daruba, Kec. Morotai Sel., Kabupaten Pulau Morotai, Maluku Utara","Kabupaten Pulau Morotai, Maluku Utara",MALUKU UTARA,,Indonesia,81241776090.0,2.0519689,128.2923467,https://maps.google.com/?cid=0x0:0xc9cba2c1d22b4c15
supermarket bangunan,Toko Bahan Bangunan,TOKO BANGUNAN AFLAH,"3844+8W5, Darame, Kec. Morotai Sel., Kabupaten Pulau Morotai, Maluku Utara","Kabupaten Pulau Morotai, Maluku Utara",MALUKU UTARA,,Indonesia,81289549001.0,2.0561242,128.307455,https://maps.google.com/?cid=0x0:0x68857e0f7831bbee
supermarket bangunan,Toko Bahan Bangunan,Makmur Utama Supermarket Bahan bangunan,"Tj. Niara, Kec. Tobelo Tengah, Kabupaten Halmahera Utara, Maluku Utara","Kabupaten Halmahera Utara, Maluku Utara",MALUKU UTARA,,Indonesia,85117420324.0,1.7019679,128.0155893,https://maps.google.com/?cid=0x0:0x47ecdf114648cbc2
supermarket bangunan,Toko Bahan Bangunan,Makmur Utama Supermarket Bahan Bangunan,"Jl. Yasin Gamsungi No.2 Kec. ternate tengah, Kel, Makassar Tim., Makassar Timur, Kota Ternate, Maluku Utara 97724","Kel, Makassar Tim., Makassar Timur, Kota Ternate",MALUKU UTARA,97724.0,Indonesia,8114313799.0,0.7940352,127.3876695,https://maps.google.com/?cid=0x0:0x2f492ae87bf64247
supermarket bangunan,Toko Bahan Bangunan,Makmur Utama Supermarket Bahan Bangunan,"Jambula, Kec. Pulau Ternate, Kota Ternate, Maluku Utara","Kota Ternate, Maluku Utara",MALUKU UTARA,,Indonesia,8114313899.0,0.7581804,127.3220409,https://maps.google.com/?cid=0x0:0xe3a01731f7851efa
supermarket bangunan,Toko Perlengkapan Rumah,Putra Daerah,"372R+MWH, Daruba, Kec. Morotai Sel., Kabupaten Pulau Morotai, Maluku Utara","Kabupaten Pulau Morotai, Maluku Utara",MALUKU UTARA,,Indonesia,,2.0516793,128.2923451,https://maps.google.com/?cid=0x0:0xbad7cc8c5cd1a7f
supermarket bangunan,Toko Bahan Bangunan,Toko Sejati Bangunan,"Jalan Raya Wosia, Depan Saro Nifero, Samping Dealer Honda CV.Lion, Mahia, Kec. Tobelo, Maluku Utara 97762","Depan Saro Nifero, Samping Dealer Honda CV.Lion, Mahia, Kec. Tobelo",MALUKU UTARA,97762.0,Indonesia,82195215789.0,1.7063845,128.0084905,https://maps.google.com/?cid=0x0:0xe07acc47d25781c8
supermarket bangunan,Toko Bahan Bangunan,Toko Bangunan SENTOSA,"P266+52G O.Sasingan, Wosia, Kec. Tobelo Tengah, Kabupaten Halmahera Utara, Maluku Utara","Kabupaten Halmahera Utara, Maluku Utara",MALUKU UTARA,,Indonesia,82144648989.0,1.7104491,128.0100684,https://maps.google.com/?cid=0x0:0xe043f9c8ba78bb16
supermarket bangunan,Toko,CENTRALMART MOROTAI,"3844+CVC, Gotalamo, Kec. Morotai Sel., Kabupaten Pulau Morotai, Maluku Utara","Kabupaten Pulau Morotai, Maluku Utara",MALUKU UTARA,,Indonesia,81390728877.0,2.0560646,128.3071429,https://maps.google.com/?cid=0x0:0xb009c4efd3c1184f
supermarket bangunan,Toko,Toko Makastemor,"373V+42M, Daruba, Kec. Morotai Sel., Kabupaten Pulau Morotai, Maluku Utara","Kabupaten Pulau Morotai, Maluku Utara",MALUKU UTARA,,Indonesia,85256618012.0,2.0528433,128.2925371,https://maps.google.com/?cid=0x0:0x8926dcf2943cc9cb
supermarket bangunan,supermarket bangunan,Kec. Morotai Tim.,"Kabupaten Pulau Morotai, Maluku Utara","Kabupaten Pulau Morotai, Maluku Utara",MALUKU UTARA,,Indonesia,,2.1068727,128.557235,https://maps.google.com/?cid=0x0:0xfe2c10e8a9e17d56
supermarket bangunan,Toko Bahan Bangunan,TOKO BANGUNAN AFLAH,"3844+8W5, Darame, Kec. Morotai Sel., Kabupaten Pulau Morotai, Maluku Utara","Kabupaten Pulau Morotai, Maluku Utara",MALUKU UTARA,,Indonesia,81289549001.0,2.0561242,128.307455,https://maps.google.com/?cid=0x0:0x68857e0f7831bbee
supermarket bangunan,Toko Bahan Bangunan,TB. Sumber Bangunan Morotai,"Daruba, Kec. Morotai Sel., Kabupaten Pulau Morotai, Maluku Utara","Kabupaten Pulau Morotai, Maluku Utara",MALUKU UTARA,,Indonesia,81241776090.0,2.0519689,128.2923467,https://maps.google.com/?cid=0x0:0xc9cba2c1d22b4c15
supermarket bangunan,Toko Bahan Bangunan,Toko bangunan  Rumah roti Singga Dulu,"372V+6Q9, Darame, Kec. Morotai Sel., Kabupaten Pulau Morotai, Maluku Utara","Kabupaten Pulau Morotai, Maluku Utara",MALUKU UTARA,,Indonesia,82378990826.0,2.050397,128.294782,https://maps.google.com/?cid=0x0:0x1054b26b0c7b4557
supermarket bangunan,supermarket bangunan,Kec. Morotai Utara,"Kabupaten Pulau Morotai, Maluku Utara","Kabupaten Pulau Morotai, Maluku Utara",MALUKU UTARA,,Indonesia,,2.3951437,128.6629022,https://maps.google.com/?cid=0x0:0x365307e3c5aab3fb
supermarket bangunan,Toko Bahan Bangunan,TB. Sumber Bangunan Morotai,"Daruba, Kec. Morotai Sel., Kabupaten Pulau Morotai, Maluku Utara","Kabupaten Pulau Morotai, Maluku Utara",MALUKU UTARA,,Indonesia,81241776090.0,2.0519689,128.2923467,https://maps.google.com/?cid=0x0:0xc9cba2c1d22b4c15
supermarket bangunan,Toko Bahan Bangunan,TOKO BANGUNAN AFLAH,"3844+8W5, Darame, Kec. Morotai Sel., Kabupaten Pulau Morotai, Maluku Utara","Kabupaten Pulau Morotai, Maluku Utara",MALUKU UTARA,,Indonesia,81289549001.0,2.0561242,128.307455,https://maps.google.com/?cid=0x0:0x68857e0f7831bbee
supermarket bangunan,Toko Bahan Bangunan,Toko MONALISA Morotai,"372R+8PP Pelabuhan Speedboat Daruba, Yayasan, Kec. Morotai Sel., Kabupaten Pulau Morotai, Maluku Utara","Kabupaten Pulau Morotai, Maluku Utara",MALUKU UTARA,,Indonesia,,2.0508255,128.2918214,https://maps.google.com/?cid=0x0:0xbc5e048861ba1339
supermarket bangunan,Toko Bahan Bangunan,Makmur Utama Supermarket Bahan Bangunan,"Jl. Yasin Gamsungi No.2 Kec. ternate tengah, Kel, Makassar Tim., Makassar Timur, Kota Ternate, Maluku Utara 97724","Kel, Makassar Tim., Makassar Timur, Kota Ternate",MALUKU UTARA,97724.0,Indonesia,8114313799.0,0.7940352,127.3876695,https://maps.google.com/?cid=0x0:0x2f492ae87bf64247
supermarket bangunan,Toko Perlengkapan Rumah,Putra Daerah,"372R+MWH, Daruba, Kec. Morotai Sel., Kabupaten Pulau Morotai, Maluku Utara","Kabupaten Pulau Morotai, Maluku Utara",MALUKU UTARA,,Indonesia,,2.0516793,128.2923451,https://maps.google.com/?cid=0x0:0xbad7cc8c5cd1a7f
supermarket bangunan,Toko Perlengkapan Rumah,Toko Mitra Bangunan,"27XV+RFV, Yayasan, Kec. Morotai Sel., Kabupaten Pulau Morotai, Maluku Utara","Kabupaten Pulau Morotai, Maluku Utara",MALUKU UTARA,,Indonesia,83125236425.0,2.0495677,128.2938019,https://maps.google.com/?cid=0x0:0x14f2338821c2f1d
