Category,Real Category,Business Name,Address,City,State,Postal Code,Country,Phone,Latitude,Longitude,Map Link
mall,mall,Kec. Morotai Jaya,"Kabupaten Pulau Morotai, Maluku Utara","Kabupaten Pulau Morotai, Maluku Utara",MALUKU UTARA,,Indonesia,,2.5756265,128.5236947,https://maps.google.com/?cid=0x0:0xbdf281ebc27a14d0
mall,Pasar,Pasar Sayur dan Buah,"3866+F8G, Unnamed Road, Gotalamo, Kec. Morotai Sel., Kabupaten Pulau Morotai, Maluku Utara","Kabupaten Pulau Morotai, Maluku Utara",MALUKU UTARA,,Indonesia,,2.0611829,128.3108272,https://maps.google.com/?cid=0x0:0xf4eca1ea77ec0934
mall,mall,Goahira morotai utara,"Goahira, Kec. Morotai Utara, Kabupaten Pulau Morotai, Maluku Utara","Kabupaten Pulau Morotai, Maluku Utara",MALUKU UTARA,,Indonesia,,2.3921988,128.6630192,https://maps.google.com/?cid=0x0:0xff0636379b89d84c
mall,Minimarket,Central Bussines Daruba,"3876+27J, Gotalamo, Kec. Morotai Sel., Kabupaten Pulau Morotai, Maluku Utara","Kabupaten Pulau Morotai, Maluku Utara",MALUKU UTARA,,Indonesia,,2.0625862,128.3106294,https://maps.google.com/?cid=0x0:0x6b488728ab7c1e4b
mall,Toko,CENTRALMART MOROTAI,"3844+CVC, Gotalamo, Kec. Morotai Sel., Kabupaten Pulau Morotai, Maluku Utara","Kabupaten Pulau Morotai, Maluku Utara",MALUKU UTARA,,Indonesia,81390728877.0,2.0560646,128.3071429,https://maps.google.com/?cid=0x0:0xb009c4efd3c1184f
mall,Toko,Toko Makastemor,"373V+42M, Daruba, Kec. Morotai Sel., Kabupaten Pulau Morotai, Maluku Utara","Kabupaten Pulau Morotai, Maluku Utara",MALUKU UTARA,,Indonesia,85256618012.0,2.0528433,128.2925371,https://maps.google.com/?cid=0x0:0x8926dcf2943cc9cb
mall,Toko,Kios Delon,"3832+P8J, Gotalamo, Kec. Morotai Sel., Kabupaten Pulau Morotai, Maluku Utara","Kabupaten Pulau Morotai, Maluku Utara",MALUKU UTARA,,Indonesia,,2.0543363,128.3007511,https://maps.google.com/?cid=0x0:0xca39e7d6911b29bf
mall,Pusat Perbelanjaan,Central Besi Putih Morotai,"3876+28W, Gotalamo, Kec. Morotai Sel., Kabupaten Pulau Morotai, Maluku Utara","Kabupaten Pulau Morotai, Maluku Utara",MALUKU UTARA,,Indonesia,82299709947.0,2.0626146,128.3108283,https://maps.google.com/?cid=0x0:0x25e8f1b24438310b
mall,mall,Raja Ponsel Acc Daruba,"3X3V+VQC, Daruba, Morotai Sel., Kabupaten Pulau Morotai, Maluku Utara","Kabupaten Pulau Morotai, Maluku Utara",MALUKU UTARA,,Indonesia,82314417777.0,-3.9453166,119.9944035,https://maps.google.com/?cid=0x0:0xd8fe65442e4ef60d
mall,Toko,Adhy Wijaya Jarwis,"4H42+JXH, Sangowo, Kec. Morotai Tim., Kabupaten Pulau Morotai, Maluku Utara","Kabupaten Pulau Morotai, Maluku Utara",MALUKU UTARA,,Indonesia,85242670953.0,2.1065691,128.5524848,https://maps.google.com/?cid=0x0:0x443718d954287a2e
mall,mall,Kec. Morotai Sel.,"Kabupaten Pulau Morotai, Maluku Utara","Kabupaten Pulau Morotai, Maluku Utara",MALUKU UTARA,,Indonesia,,2.0501311,128.2940593,https://maps.google.com/?cid=0x0:0x8cbfaede8bbbfd0d
mall,Toko,Mll Morotai,"3865+PCG, Gotalamo, Kec. Morotai Sel., Kabupaten Pulau Morotai, Maluku Utara","Kabupaten Pulau Morotai, Maluku Utara",MALUKU UTARA,,Indonesia,,2.0618239,128.3085638,https://maps.google.com/?cid=0x0:0xa27c99c2185f918f
mall,Pasar,Pasar Sayur dan Buah,"3866+F8G, Unnamed Road, Gotalamo, Kec. Morotai Sel., Kabupaten Pulau Morotai, Maluku Utara","Kabupaten Pulau Morotai, Maluku Utara",MALUKU UTARA,,Indonesia,,2.0611829,128.3108272,https://maps.google.com/?cid=0x0:0xf4eca1ea77ec0934
mall,Minimarket,Central Bussines Daruba,"3876+27J, Gotalamo, Kec. Morotai Sel., Kabupaten Pulau Morotai, Maluku Utara","Kabupaten Pulau Morotai, Maluku Utara",MALUKU UTARA,,Indonesia,,2.0625862,128.3106294,https://maps.google.com/?cid=0x0:0x6b488728ab7c1e4b
mall,Toko Penyewaan Video Game,Toko Planet Distro . Game Multimedia,"373R+2X9, Joubela, Kec. Morotai Sel., Kabupaten Pulau Morotai, Maluku Utara","Kabupaten Pulau Morotai, Maluku Utara",MALUKU UTARA,,Indonesia,82291225800.0,2.0525484,128.2924819,https://maps.google.com/?cid=0x0:0x596f7cba77c82e7b
mall,Toko,NHI ACC,"374V+4XJ, Unnamed Road, Daruba, Kec. Morotai Sel., Kabupaten Pulau Morotai, Maluku Utara","Kabupaten Pulau Morotai, Maluku Utara",MALUKU UTARA,,Indonesia,81212095001.0,2.0553301,128.2949006,https://maps.google.com/?cid=0x0:0x375a2cd91ae633c4
mall,Masjid,Morotai Islamic Center,"3854+XVF, Gotalamo, Kec. Morotai Sel., Kabupaten Pulau Morotai, Maluku Utara","Kabupaten Pulau Morotai, Maluku Utara",MALUKU UTARA,,Indonesia,,2.0599311,128.307183,https://maps.google.com/?cid=0x0:0x30b79b43696ce66
mall,Pusat Perbelanjaan,DAENG PANCING,"372R+7F6, Daruba, Kec. Morotai Sel., Kabupaten Pulau Morotai, Maluku Utara","Kabupaten Pulau Morotai, Maluku Utara",MALUKU UTARA,,Indonesia,81245849077.0,2.0506569,128.2911368,https://maps.google.com/?cid=0x0:0xea0f56faf1165f9
mall,Toko,Kios Delon,"3832+P8J, Gotalamo, Kec. Morotai Sel., Kabupaten Pulau Morotai, Maluku Utara","Kabupaten Pulau Morotai, Maluku Utara",MALUKU UTARA,,Indonesia,,2.0543363,128.3007511,https://maps.google.com/?cid=0x0:0xca39e7d6911b29bf
mall,Pusat Perbelanjaan,Central Besi Putih Morotai,"3876+28W, Gotalamo, Kec. Morotai Sel., Kabupaten Pulau Morotai, Maluku Utara","Kabupaten Pulau Morotai, Maluku Utara",MALUKU UTARA,,Indonesia,82299709947.0,2.0626146,128.3108283,https://maps.google.com/?cid=0x0:0x25e8f1b24438310b
mall,Pusat Perbelanjaan,Oleh oleh besi putih,"373V+66C, Daruba, Taman, Kabupaten Pulau Morotai, Maluku Utara","Kabupaten Pulau Morotai, Maluku Utara",MALUKU UTARA,,Indonesia,81212095001.0,2.0530616,128.2930027,https://maps.google.com/?cid=0x0:0x56db2a045f3b688
mall,Pusat Perbelanjaan,"Rumah Kel. Benaino Dailangi - Adam, Queen Olshop","3822+6Q3, Darame, Kec. Morotai Sel., Kabupaten Pulau Morotai, Maluku Utara","Kabupaten Pulau Morotai, Maluku Utara",MALUKU UTARA,,Indonesia,82194339692.0,2.0505133,128.3019266,https://maps.google.com/?cid=0x0:0xd4386a23b199bf1a
mall,Toko Ponsel,ASWAJA PONSEL,"372V+V27, Daruba, Kec. Morotai Sel., Kabupaten Pulau Morotai, Maluku Utara","Kabupaten Pulau Morotai, Maluku Utara",MALUKU UTARA,,Indonesia,82190399902.0,2.0521658,128.2925355,https://maps.google.com/?cid=0x0:0x9cf822477529ec42
mall,Toko,CENTRALMART MOROTAI,"3844+CVC, Gotalamo, Kec. Morotai Sel., Kabupaten Pulau Morotai, Maluku Utara","Kabupaten Pulau Morotai, Maluku Utara",MALUKU UTARA,,Indonesia,81390728877.0,2.0560646,128.3071429,https://maps.google.com/?cid=0x0:0xb009c4efd3c1184f
mall,mall,Kec. Morotai Sel. Bar.,"Kabupaten Pulau Morotai, Maluku Utara","Kabupaten Pulau Morotai, Maluku Utara",MALUKU UTARA,,Indonesia,,2.2801376,128.2016017,https://maps.google.com/?cid=0x0:0x69328259284f1b6b
mall,Toko,Mll Morotai,"3865+PCG, Gotalamo, Kec. Morotai Sel., Kabupaten Pulau Morotai, Maluku Utara","Kabupaten Pulau Morotai, Maluku Utara",MALUKU UTARA,,Indonesia,,2.0618239,128.3085638,https://maps.google.com/?cid=0x0:0xa27c99c2185f918f
mall,Pasar,Pasar Sayur dan Buah,"3866+F8G, Unnamed Road, Gotalamo, Kec. Morotai Sel., Kabupaten Pulau Morotai, Maluku Utara","Kabupaten Pulau Morotai, Maluku Utara",MALUKU UTARA,,Indonesia,,2.0611829,128.3108272,https://maps.google.com/?cid=0x0:0xf4eca1ea77ec0934
mall,Minimarket,Central Bussines Daruba,"3876+27J, Gotalamo, Kec. Morotai Sel., Kabupaten Pulau Morotai, Maluku Utara","Kabupaten Pulau Morotai, Maluku Utara",MALUKU UTARA,,Indonesia,,2.0625862,128.3106294,https://maps.google.com/?cid=0x0:0x6b488728ab7c1e4b
mall,Masjid,Morotai Islamic Center,"3854+XVF, Gotalamo, Kec. Morotai Sel., Kabupaten Pulau Morotai, Maluku Utara","Kabupaten Pulau Morotai, Maluku Utara",MALUKU UTARA,,Indonesia,,2.0599311,128.307183,https://maps.google.com/?cid=0x0:0x30b79b43696ce66
mall,Toko,Kios Delon,"3832+P8J, Gotalamo, Kec. Morotai Sel., Kabupaten Pulau Morotai, Maluku Utara","Kabupaten Pulau Morotai, Maluku Utara",MALUKU UTARA,,Indonesia,,2.0543363,128.3007511,https://maps.google.com/?cid=0x0:0xca39e7d6911b29bf
mall,Toko Perlengkapan Rumah,Mr Diy Morotai,"3866+VJH, Gotalamo, Kec. Morotai Sel., Kabupaten Pulau Morotai, Maluku Utara","Kabupaten Pulau Morotai, Maluku Utara",MALUKU UTARA,,Indonesia,,2.0628904,128.3117261,https://maps.google.com/?cid=0x0:0x99ba186e93689fc1
mall,Pusat Perbelanjaan,Central Besi Putih Morotai,"3876+28W, Gotalamo, Kec. Morotai Sel., Kabupaten Pulau Morotai, Maluku Utara","Kabupaten Pulau Morotai, Maluku Utara",MALUKU UTARA,,Indonesia,82299709947.0,2.0626146,128.3108283,https://maps.google.com/?cid=0x0:0x25e8f1b24438310b
mall,Toko,CENTRALMART MOROTAI,"3844+CVC, Gotalamo, Kec. Morotai Sel., Kabupaten Pulau Morotai, Maluku Utara","Kabupaten Pulau Morotai, Maluku Utara",MALUKU UTARA,,Indonesia,81390728877.0,2.0560646,128.3071429,https://maps.google.com/?cid=0x0:0xb009c4efd3c1184f
mall,Toko,Kios Satu Putra,"4H56+8XV, Jl. Sangowo, Sangowo, Kec. Morotai Tim., Kabupaten Pulau Morotai, Maluku Utara","Kabupaten Pulau Morotai, Maluku Utara",MALUKU UTARA,,Indonesia,,2.107792,128.562527,https://maps.google.com/?cid=0x0:0x5c5637576dd2ebca
mall,Toko Penyewaan Video Game,Toko Planet Distro . Game Multimedia,"373R+2X9, Joubela, Kec. Morotai Sel., Kabupaten Pulau Morotai, Maluku Utara","Kabupaten Pulau Morotai, Maluku Utara",MALUKU UTARA,,Indonesia,82291225800.0,2.0525484,128.2924819,https://maps.google.com/?cid=0x0:0x596f7cba77c82e7b
mall,Toko,NHI ACC,"374V+4XJ, Unnamed Road, Daruba, Kec. Morotai Sel., Kabupaten Pulau Morotai, Maluku Utara","Kabupaten Pulau Morotai, Maluku Utara",MALUKU UTARA,,Indonesia,81212095001.0,2.0553301,128.2949006,https://maps.google.com/?cid=0x0:0x375a2cd91ae633c4
mall,Toko,Adhy Wijaya Jarwis,"4H42+JXH, Sangowo, Kec. Morotai Tim., Kabupaten Pulau Morotai, Maluku Utara","Kabupaten Pulau Morotai, Maluku Utara",MALUKU UTARA,,Indonesia,85242670953.0,2.1065691,128.5524848,https://maps.google.com/?cid=0x0:0x443718d954287a2e
mall,Kantor Pemerintah,Kantor Bupati Pulau Morotai,"3859+F99, Unnamed Road, Darame, Kec. Morotai Sel., Kabupaten Pulau Morotai, Maluku Utara","Kabupaten Pulau Morotai, Maluku Utara",MALUKU UTARA,,Indonesia,,2.058665,128.3184967,https://maps.google.com/?cid=0x0:0xc12d66380702ddc0
mall,mall,Maluku Utara,,Maluku Utara,MALUKU UTARA,,Indonesia,,1.5709993,127.8087693,https://maps.google.com/?cid=0x0:0x1030bfbcaf71ac0
mall,Toko,Toko Makastemor,"373V+42M, Daruba, Kec. Morotai Sel., Kabupaten Pulau Morotai, Maluku Utara","Kabupaten Pulau Morotai, Maluku Utara",MALUKU UTARA,,Indonesia,85256618012.0,2.0528433,128.2925371,https://maps.google.com/?cid=0x0:0x8926dcf2943cc9cb
mall,Minimarket,Central Bussines Daruba,"3876+27J, Gotalamo, Kec. Morotai Sel., Kabupaten Pulau Morotai, Maluku Utara","Kabupaten Pulau Morotai, Maluku Utara",MALUKU UTARA,,Indonesia,,2.0625862,128.3106294,https://maps.google.com/?cid=0x0:0x6b488728ab7c1e4b
mall,Pusat Perbelanjaan,Central Besi Putih Morotai,"3876+28W, Gotalamo, Kec. Morotai Sel., Kabupaten Pulau Morotai, Maluku Utara","Kabupaten Pulau Morotai, Maluku Utara",MALUKU UTARA,,Indonesia,82299709947.0,2.0626146,128.3108283,https://maps.google.com/?cid=0x0:0x25e8f1b24438310b
mall,Toko,CENTRALMART MOROTAI,"3844+CVC, Gotalamo, Kec. Morotai Sel., Kabupaten Pulau Morotai, Maluku Utara","Kabupaten Pulau Morotai, Maluku Utara",MALUKU UTARA,,Indonesia,81390728877.0,2.0560646,128.3071429,https://maps.google.com/?cid=0x0:0xb009c4efd3c1184f
mall,Toko,Kios Satu Putra,"4H56+8XV, Jl. Sangowo, Sangowo, Kec. Morotai Tim., Kabupaten Pulau Morotai, Maluku Utara","Kabupaten Pulau Morotai, Maluku Utara",MALUKU UTARA,,Indonesia,,2.107792,128.562527,https://maps.google.com/?cid=0x0:0x5c5637576dd2ebca
mall,Toko bahan makanan,Toko Ion,"Darame, Kec. Morotai Sel., Kabupaten Pulau Morotai, Maluku Utara 97771","Kec. Morotai Sel., Kabupaten Pulau Morotai",MALUKU UTARA,97771.0,Indonesia,81271341190.0,2.0521652,128.3020745,https://maps.google.com/?cid=0x0:0x21a0fac59bb7eb82
mall,mall,A3Mart Alrazzaq,"Sangowo, barat, Kabupaten Pulau Morotai, Maluku Utara 97771","barat, Kabupaten Pulau Morotai",MALUKU UTARA,97771.0,Indonesia,,2.1062993,128.5526613,https://maps.google.com/?cid=0x0:0x2ce9fb16d3bfb326
mall,mall,Kec. Morotai Tim.,"Kabupaten Pulau Morotai, Maluku Utara","Kabupaten Pulau Morotai, Maluku Utara",MALUKU UTARA,,Indonesia,,2.1068727,128.557235,https://maps.google.com/?cid=0x0:0xfe2c10e8a9e17d56
mall,Toko,Adhy Wijaya Jarwis,"4H42+JXH, Sangowo, Kec. Morotai Tim., Kabupaten Pulau Morotai, Maluku Utara","Kabupaten Pulau Morotai, Maluku Utara",MALUKU UTARA,,Indonesia,85242670953.0,2.1065691,128.5524848,https://maps.google.com/?cid=0x0:0x443718d954287a2e
mall,mall,Maluku Utara,,Maluku Utara,MALUKU UTARA,,Indonesia,,1.5709993,127.8087693,https://maps.google.com/?cid=0x0:0x1030bfbcaf71ac0
mall,Minimarket,Central Bussines Daruba,"3876+27J, Gotalamo, Kec. Morotai Sel., Kabupaten Pulau Morotai, Maluku Utara","Kabupaten Pulau Morotai, Maluku Utara",MALUKU UTARA,,Indonesia,,2.0625862,128.3106294,https://maps.google.com/?cid=0x0:0x6b488728ab7c1e4b
mall,Toko,Toko Makastemor,"373V+42M, Daruba, Kec. Morotai Sel., Kabupaten Pulau Morotai, Maluku Utara","Kabupaten Pulau Morotai, Maluku Utara",MALUKU UTARA,,Indonesia,85256618012.0,2.0528433,128.2925371,https://maps.google.com/?cid=0x0:0x8926dcf2943cc9cb
mall,Pusat Perbelanjaan,Central Besi Putih Morotai,"3876+28W, Gotalamo, Kec. Morotai Sel., Kabupaten Pulau Morotai, Maluku Utara","Kabupaten Pulau Morotai, Maluku Utara",MALUKU UTARA,,Indonesia,82299709947.0,2.0626146,128.3108283,https://maps.google.com/?cid=0x0:0x25e8f1b24438310b
mall,Toko,CENTRALMART MOROTAI,"3844+CVC, Gotalamo, Kec. Morotai Sel., Kabupaten Pulau Morotai, Maluku Utara","Kabupaten Pulau Morotai, Maluku Utara",MALUKU UTARA,,Indonesia,81390728877.0,2.0560646,128.3071429,https://maps.google.com/?cid=0x0:0xb009c4efd3c1184f
mall,mall,Kec. Morotai Tim.,"Kabupaten Pulau Morotai, Maluku Utara","Kabupaten Pulau Morotai, Maluku Utara",MALUKU UTARA,,Indonesia,,2.1068727,128.557235,https://maps.google.com/?cid=0x0:0xfe2c10e8a9e17d56
mall,Toko,Adhy Wijaya Jarwis,"4H42+JXH, Sangowo, Kec. Morotai Tim., Kabupaten Pulau Morotai, Maluku Utara","Kabupaten Pulau Morotai, Maluku Utara",MALUKU UTARA,,Indonesia,85242670953.0,2.1065691,128.5524848,https://maps.google.com/?cid=0x0:0x443718d954287a2e
mall,Toko,Kios Satu Putra,"4H56+8XV, Jl. Sangowo, Sangowo, Kec. Morotai Tim., Kabupaten Pulau Morotai, Maluku Utara","Kabupaten Pulau Morotai, Maluku Utara",MALUKU UTARA,,Indonesia,,2.107792,128.562527,https://maps.google.com/?cid=0x0:0x5c5637576dd2ebca
mall,mall,Maluku Utara,,Maluku Utara,MALUKU UTARA,,Indonesia,,1.5709993,127.8087693,https://maps.google.com/?cid=0x0:0x1030bfbcaf71ac0
mall,Toko,Toko Makastemor,"373V+42M, Daruba, Kec. Morotai Sel., Kabupaten Pulau Morotai, Maluku Utara","Kabupaten Pulau Morotai, Maluku Utara",MALUKU UTARA,,Indonesia,85256618012.0,2.0528433,128.2925371,https://maps.google.com/?cid=0x0:0x8926dcf2943cc9cb
mall,Minimarket,Central Bussines Daruba,"3876+27J, Gotalamo, Kec. Morotai Sel., Kabupaten Pulau Morotai, Maluku Utara","Kabupaten Pulau Morotai, Maluku Utara",MALUKU UTARA,,Indonesia,,2.0625862,128.3106294,https://maps.google.com/?cid=0x0:0x6b488728ab7c1e4b
mall,Toko,CENTRALMART MOROTAI,"3844+CVC, Gotalamo, Kec. Morotai Sel., Kabupaten Pulau Morotai, Maluku Utara","Kabupaten Pulau Morotai, Maluku Utara",MALUKU UTARA,,Indonesia,81390728877.0,2.0560646,128.3071429,https://maps.google.com/?cid=0x0:0xb009c4efd3c1184f
mall,Pusat Perbelanjaan,Central Besi Putih Morotai,"3876+28W, Gotalamo, Kec. Morotai Sel., Kabupaten Pulau Morotai, Maluku Utara","Kabupaten Pulau Morotai, Maluku Utara",MALUKU UTARA,,Indonesia,82299709947.0,2.0626146,128.3108283,https://maps.google.com/?cid=0x0:0x25e8f1b24438310b
mall,Toko,Kios Satu Putra,"4H56+8XV, Jl. Sangowo, Sangowo, Kec. Morotai Tim., Kabupaten Pulau Morotai, Maluku Utara","Kabupaten Pulau Morotai, Maluku Utara",MALUKU UTARA,,Indonesia,,2.107792,128.562527,https://maps.google.com/?cid=0x0:0x5c5637576dd2ebca
mall,Masjid,Morotai,"372W+MQG, Gotalamo, Kec. Morotai Sel., Kabupaten Pulau Morotai, Maluku Utara","Kabupaten Pulau Morotai, Maluku Utara",MALUKU UTARA,,Indonesia,,2.0516981,128.2970128,https://maps.google.com/?cid=0x0:0x685ceff7036c2d40
mall,Toko bahan makanan,Toko Ion,"Darame, Kec. Morotai Sel., Kabupaten Pulau Morotai, Maluku Utara 97771","Kec. Morotai Sel., Kabupaten Pulau Morotai",MALUKU UTARA,97771.0,Indonesia,81271341190.0,2.0521652,128.3020745,https://maps.google.com/?cid=0x0:0x21a0fac59bb7eb82
mall,Museum,Museum Perang Dunia II,"277M+G7P, Juanga, Kec. Morotai Sel., Kabupaten Pulau Morotai, Maluku Utara","Kabupaten Pulau Morotai, Maluku Utara",MALUKU UTARA,,Indonesia,,2.0138474,128.2832038,https://maps.google.com/?cid=0x0:0xf4e5bfd07f9312e
mall,mall,Kec. Morotai Tim.,"Kabupaten Pulau Morotai, Maluku Utara","Kabupaten Pulau Morotai, Maluku Utara",MALUKU UTARA,,Indonesia,,2.1068727,128.557235,https://maps.google.com/?cid=0x0:0xfe2c10e8a9e17d56
mall,Toko,Adhy Wijaya Jarwis,"4H42+JXH, Sangowo, Kec. Morotai Tim., Kabupaten Pulau Morotai, Maluku Utara","Kabupaten Pulau Morotai, Maluku Utara",MALUKU UTARA,,Indonesia,85242670953.0,2.1065691,128.5524848,https://maps.google.com/?cid=0x0:0x443718d954287a2e
mall,mall,Maluku Utara,,Maluku Utara,MALUKU UTARA,,Indonesia,,1.5709993,127.8087693,https://maps.google.com/?cid=0x0:0x1030bfbcaf71ac0
mall,Toko,Toko Makastemor,"373V+42M, Daruba, Kec. Morotai Sel., Kabupaten Pulau Morotai, Maluku Utara","Kabupaten Pulau Morotai, Maluku Utara",MALUKU UTARA,,Indonesia,85256618012.0,2.0528433,128.2925371,https://maps.google.com/?cid=0x0:0x8926dcf2943cc9cb
mall,Minimarket,Central Bussines Daruba,"3876+27J, Gotalamo, Kec. Morotai Sel., Kabupaten Pulau Morotai, Maluku Utara","Kabupaten Pulau Morotai, Maluku Utara",MALUKU UTARA,,Indonesia,,2.0625862,128.3106294,https://maps.google.com/?cid=0x0:0x6b488728ab7c1e4b
mall,Toko,Kios Delon,"3832+P8J, Gotalamo, Kec. Morotai Sel., Kabupaten Pulau Morotai, Maluku Utara","Kabupaten Pulau Morotai, Maluku Utara",MALUKU UTARA,,Indonesia,,2.0543363,128.3007511,https://maps.google.com/?cid=0x0:0xca39e7d6911b29bf
mall,Pusat Perbelanjaan,Central Besi Putih Morotai,"3876+28W, Gotalamo, Kec. Morotai Sel., Kabupaten Pulau Morotai, Maluku Utara","Kabupaten Pulau Morotai, Maluku Utara",MALUKU UTARA,,Indonesia,82299709947.0,2.0626146,128.3108283,https://maps.google.com/?cid=0x0:0x25e8f1b24438310b
mall,Toko,CENTRALMART MOROTAI,"3844+CVC, Gotalamo, Kec. Morotai Sel., Kabupaten Pulau Morotai, Maluku Utara","Kabupaten Pulau Morotai, Maluku Utara",MALUKU UTARA,,Indonesia,81390728877.0,2.0560646,128.3071429,https://maps.google.com/?cid=0x0:0xb009c4efd3c1184f
mall,Toko,Kios Satu Putra,"4H56+8XV, Jl. Sangowo, Sangowo, Kec. Morotai Tim., Kabupaten Pulau Morotai, Maluku Utara","Kabupaten Pulau Morotai, Maluku Utara",MALUKU UTARA,,Indonesia,,2.107792,128.562527,https://maps.google.com/?cid=0x0:0x5c5637576dd2ebca
mall,Toko bahan makanan,Toko Ion,"Darame, Kec. Morotai Sel., Kabupaten Pulau Morotai, Maluku Utara 97771","Kec. Morotai Sel., Kabupaten Pulau Morotai",MALUKU UTARA,97771.0,Indonesia,81271341190.0,2.0521652,128.3020745,https://maps.google.com/?cid=0x0:0x21a0fac59bb7eb82
mall,mall,Kec. Morotai Tim.,"Kabupaten Pulau Morotai, Maluku Utara","Kabupaten Pulau Morotai, Maluku Utara",MALUKU UTARA,,Indonesia,,2.1068727,128.557235,https://maps.google.com/?cid=0x0:0xfe2c10e8a9e17d56
mall,Toko,Adhy Wijaya Jarwis,"4H42+JXH, Sangowo, Kec. Morotai Tim., Kabupaten Pulau Morotai, Maluku Utara","Kabupaten Pulau Morotai, Maluku Utara",MALUKU UTARA,,Indonesia,85242670953.0,2.1065691,128.5524848,https://maps.google.com/?cid=0x0:0x443718d954287a2e
mall,mall,Kec. Morotai Tim.,"Kabupaten Pulau Morotai, Maluku Utara","Kabupaten Pulau Morotai, Maluku Utara",MALUKU UTARA,,Indonesia,,2.1068727,128.557235,https://maps.google.com/?cid=0x0:0xfe2c10e8a9e17d56
mall,Toko,Toko Makastemor,"373V+42M, Daruba, Kec. Morotai Sel., Kabupaten Pulau Morotai, Maluku Utara","Kabupaten Pulau Morotai, Maluku Utara",MALUKU UTARA,,Indonesia,85256618012.0,2.0528433,128.2925371,https://maps.google.com/?cid=0x0:0x8926dcf2943cc9cb
mall,Toko,Adhy Wijaya Jarwis,"4H42+JXH, Sangowo, Kec. Morotai Tim., Kabupaten Pulau Morotai, Maluku Utara","Kabupaten Pulau Morotai, Maluku Utara",MALUKU UTARA,,Indonesia,85242670953.0,2.1065691,128.5524848,https://maps.google.com/?cid=0x0:0x443718d954287a2e
mall,Minimarket,Central Bussines Daruba,"3876+27J, Gotalamo, Kec. Morotai Sel., Kabupaten Pulau Morotai, Maluku Utara","Kabupaten Pulau Morotai, Maluku Utara",MALUKU UTARA,,Indonesia,,2.0625862,128.3106294,https://maps.google.com/?cid=0x0:0x6b488728ab7c1e4b
mall,mall,Kec. Morotai Tim.,"Kabupaten Pulau Morotai, Maluku Utara","Kabupaten Pulau Morotai, Maluku Utara",MALUKU UTARA,,Indonesia,,2.1068727,128.557235,https://maps.google.com/?cid=0x0:0xfe2c10e8a9e17d56
mall,Toko,Adhy Wijaya Jarwis,"4H42+JXH, Sangowo, Kec. Morotai Tim., Kabupaten Pulau Morotai, Maluku Utara","Kabupaten Pulau Morotai, Maluku Utara",MALUKU UTARA,,Indonesia,85242670953.0,2.1065691,128.5524848,https://maps.google.com/?cid=0x0:0x443718d954287a2e
mall,Toko,Kios Satu Putra,"4H56+8XV, Jl. Sangowo, Sangowo, Kec. Morotai Tim., Kabupaten Pulau Morotai, Maluku Utara","Kabupaten Pulau Morotai, Maluku Utara",MALUKU UTARA,,Indonesia,,2.107792,128.562527,https://maps.google.com/?cid=0x0:0x5c5637576dd2ebca
mall,mall,Kec. Morotai Tim.,"Kabupaten Pulau Morotai, Maluku Utara","Kabupaten Pulau Morotai, Maluku Utara",MALUKU UTARA,,Indonesia,,2.1068727,128.557235,https://maps.google.com/?cid=0x0:0xfe2c10e8a9e17d56
mall,Toko,Adhy Wijaya Jarwis,"4H42+JXH, Sangowo, Kec. Morotai Tim., Kabupaten Pulau Morotai, Maluku Utara","Kabupaten Pulau Morotai, Maluku Utara",MALUKU UTARA,,Indonesia,85242670953.0,2.1065691,128.5524848,https://maps.google.com/?cid=0x0:0x443718d954287a2e
mall,Toko,Toko Makastemor,"373V+42M, Daruba, Kec. Morotai Sel., Kabupaten Pulau Morotai, Maluku Utara","Kabupaten Pulau Morotai, Maluku Utara",MALUKU UTARA,,Indonesia,85256618012.0,2.0528433,128.2925371,https://maps.google.com/?cid=0x0:0x8926dcf2943cc9cb
mall,mall,Goahira morotai utara,"Goahira, Kec. Morotai Utara, Kabupaten Pulau Morotai, Maluku Utara","Kabupaten Pulau Morotai, Maluku Utara",MALUKU UTARA,,Indonesia,,2.3921988,128.6630192,https://maps.google.com/?cid=0x0:0xff0636379b89d84c
mall,Bengkel Sepeda Motor,Mia ngongano bengkel,"9MR7+V6C, Goahira, Kec. Morotai Utara, Kabupaten Pulau Morotai, Maluku Utara","Kabupaten Pulau Morotai, Maluku Utara",MALUKU UTARA,,Indonesia,,2.3922776,128.6635522,https://maps.google.com/?cid=0x0:0x24ea7d8abcb7e4b4
supermarket,supermarket,Kec. Morotai Jaya,"Kabupaten Pulau Morotai, Maluku Utara","Kabupaten Pulau Morotai, Maluku Utara",MALUKU UTARA,,Indonesia,,2.5756265,128.5236947,https://maps.google.com/?cid=0x0:0xbdf281ebc27a14d0
supermarket,Komplek perumahan,Didi,"HJ69+PQW, Towara, Kec. Morotai Jaya, Kabupaten Pulau Morotai, Maluku Utara","Kabupaten Pulau Morotai, Maluku Utara",MALUKU UTARA,,Indonesia,,2.5618563,128.6194376,https://maps.google.com/?cid=0x0:0xd3197f5a983f4a26
supermarket,Toko,Wadan pos,"HGFF+CM3, Sopi, Kec. Morotai Jaya, Kabupaten Pulau Morotai, Maluku Utara","Kabupaten Pulau Morotai, Maluku Utara",MALUKU UTARA,,Indonesia,,2.5735027,128.5241668,https://maps.google.com/?cid=0x0:0xa03c8824d797c4f7
supermarket,Toko Pertanian,Toko tani Tasya,"9C82+788, Tutuhu, Kec. Morotai Sel. Bar., Kabupaten Pulau Morotai, Maluku Utara","Kabupaten Pulau Morotai, Maluku Utara",MALUKU UTARA,,Indonesia,82395728522.0,2.3656672,128.4008357,https://maps.google.com/?cid=0x0:0x6206f99633950b7c
supermarket,Toko,Toko Riyan,"HGFF+W25, Sopi, Kec. Morotai Jaya, Kabupaten Pulau Morotai, Maluku Utara","Kabupaten Pulau Morotai, Maluku Utara",MALUKU UTARA,,Indonesia,,2.574755,128.5226174,https://maps.google.com/?cid=0x0:0x41875874e74cf4a1
supermarket,Toko umum,Toko 4 basudara,"9C82+788, Tutuhu, Kec. Morotai Sel. Bar., Kabupaten Pulau Morotai, Maluku Utara","Kabupaten Pulau Morotai, Maluku Utara",MALUKU UTARA,,Indonesia,,2.3656672,128.4008357,https://maps.google.com/?cid=0x0:0xd2c9ca6aff1b4715
supermarket,Toko,Toko Rian,"Sopi majiko, Kec. Morotai Jaya, Kabupaten Pulau Morotai, Maluku Utara","Kabupaten Pulau Morotai, Maluku Utara",MALUKU UTARA,,Indonesia,,2.5591281,128.4955043,https://maps.google.com/?cid=0x0:0x3c25aad91fb0e421
supermarket,Toko umum,Toko FADIRA,"GJJH+FX7, Desa, Lusuo, Kec. Morotai Utara, Kabupaten Pulau Morotai, Maluku Utara","Kabupaten Pulau Morotai, Maluku Utara",MALUKU UTARA,,Indonesia,,2.5311658,128.6299159,https://maps.google.com/?cid=0x0:0x2b014f2d97272e41
supermarket,Komplek perumahan,Rumah kembar,"GC89+CFH, Hapo, Kec. Morotai Jaya, Kabupaten Pulau Morotai, Maluku Utara","Kabupaten Pulau Morotai, Maluku Utara",MALUKU UTARA,,Indonesia,,2.516061,128.4187389,https://maps.google.com/?cid=0x0:0xa45bbf733129b8a7
supermarket,Toko,CENTRALMART MOROTAI,"3844+CVC, Gotalamo, Kec. Morotai Sel., Kabupaten Pulau Morotai, Maluku Utara","Kabupaten Pulau Morotai, Maluku Utara",MALUKU UTARA,,Indonesia,81390728877.0,2.0560646,128.3071429,https://maps.google.com/?cid=0x0:0xb009c4efd3c1184f
supermarket,Toko,Mayco,"9MW7+6P6, Bere Bere, Kec. Morotai Utara, Kabupaten Pulau Morotai, Maluku Utara","Kabupaten Pulau Morotai, Maluku Utara",MALUKU UTARA,,Indonesia,82349287487.0,2.3955492,128.6642616,https://maps.google.com/?cid=0x0:0x88022b368fe79bf
supermarket,Toko sembako pemerintah,RIZKY Toko Sembako Dan Rumah Makan,"Desa, Loleo, Kec. Morotai Jaya, Kabupaten Pulau Morotai, Maluku Utara 97773","Loleo, Kec. Morotai Jaya, Kabupaten Pulau Morotai",MALUKU UTARA,97773.0,Indonesia,82399378890.0,2.5826011,128.6039017,https://maps.google.com/?cid=0x0:0xe0bd739444634a90
supermarket,Minimarket,MJ Mart Daruba Morotai,"372R+CR2 Pelabuhan Speedboat Daruba, Yayasan, Kec. Morotai Sel., Kabupaten Pulau Morotai, Maluku Utara","Kabupaten Pulau Morotai, Maluku Utara",MALUKU UTARA,,Indonesia,8111007506.0,2.0510204,128.2920252,https://maps.google.com/?cid=0x0:0xd26e48325d526a1b
supermarket,Toko,Kios ika moms 2 putri,"Joubela, Kec. Morotai Sel., Kabupaten Pulau Morotai, Maluku Utara 97771","Kec. Morotai Sel., Kabupaten Pulau Morotai",MALUKU UTARA,97771.0,Indonesia,81355715180.0,2.0429159,128.3576874,https://maps.google.com/?cid=0x0:0xcc325a86366a853
supermarket,supermarket,Maluku Utara,,Maluku Utara,MALUKU UTARA,,Indonesia,,1.5709993,127.8087693,https://maps.google.com/?cid=0x0:0x1030bfbcaf71ac0
supermarket,Minimarket,Alfiyah Mart,"Daruba, Kec. Morotai Sel., Kabupaten Pulau Morotai, Maluku Utara","Kabupaten Pulau Morotai, Maluku Utara",MALUKU UTARA,,Indonesia,,2.0520257,128.2921486,https://maps.google.com/?cid=0x0:0xb6ba80453d1a8db4
supermarket,Toko bahan makanan,BUMDes MART,"Jl. Taman Kota, Daruba, Kec. Morotai Sel., Kabupaten Pulau Morotai, Maluku Utara 97771","Daruba, Kec. Morotai Sel., Kabupaten Pulau Morotai",MALUKU UTARA,97771.0,Indonesia,81247211131.0,2.0512633,128.2909064,https://maps.google.com/?cid=0x0:0x65e6e08e1d5e3295
supermarket,Toko,CENTRALMART MOROTAI,"3844+CVC, Gotalamo, Kec. Morotai Sel., Kabupaten Pulau Morotai, Maluku Utara","Kabupaten Pulau Morotai, Maluku Utara",MALUKU UTARA,,Indonesia,81390728877.0,2.0560646,128.3071429,https://maps.google.com/?cid=0x0:0xb009c4efd3c1184f
supermarket,Minimarket,MJ Mart Daruba Morotai,"372R+CR2 Pelabuhan Speedboat Daruba, Yayasan, Kec. Morotai Sel., Kabupaten Pulau Morotai, Maluku Utara","Kabupaten Pulau Morotai, Maluku Utara",MALUKU UTARA,,Indonesia,8111007506.0,2.0510204,128.2920252,https://maps.google.com/?cid=0x0:0xd26e48325d526a1b
supermarket,Toko bahan makanan,Toko Ion,"Darame, Kec. Morotai Sel., Kabupaten Pulau Morotai, Maluku Utara 97771","Kec. Morotai Sel., Kabupaten Pulau Morotai",MALUKU UTARA,97771.0,Indonesia,81271341190.0,2.0521652,128.3020745,https://maps.google.com/?cid=0x0:0x21a0fac59bb7eb82
supermarket,Toko Perlengkapan Rumah,Toko Garuda,"372R+7R7, Daruba, Kec. Morotai Sel., Kabupaten Pulau Morotai, Maluku Utara","Kabupaten Pulau Morotai, Maluku Utara",MALUKU UTARA,,Indonesia,,2.0506583,128.2920507,https://maps.google.com/?cid=0x0:0x28efa7194e171141
supermarket,Toko bahan makanan,Alfiyahmart 2,"372W+MQG, Gotalamo, Kec. Morotai Sel., Kabupaten Pulau Morotai, Maluku Utara","Kabupaten Pulau Morotai, Maluku Utara",MALUKU UTARA,,Indonesia,,2.051695,128.2969595,https://maps.google.com/?cid=0x0:0xd862b59c3287a373
supermarket,Toko umum,Toko sembako A.M,"Pandanga, Kec. Morotai Sel., Kabupaten Pulau Morotai, Maluku Utara 97771","Kec. Morotai Sel., Kabupaten Pulau Morotai",MALUKU UTARA,97771.0,Indonesia,,2.0284868,128.2905573,https://maps.google.com/?cid=0x0:0x1534f82a3f38d93a
supermarket,Toko,Shinhwan,"Kode pos 97771, Yayasan, Kec. Morotai Sel., Kabupaten Pulau Morotai, Maluku Utara 97771","Yayasan, Kec. Morotai Sel., Kabupaten Pulau Morotai",MALUKU UTARA,97771.0,Indonesia,81334011136.0,2.0481114,128.2917352,https://maps.google.com/?cid=0x0:0x366f490cdc2e9bfc
supermarket,Layanan Binatu,Laundry tiga putri,"Jl. Raya Darame, Darame, Kec. Morotai Sel., Kabupaten Pulau Morotai, Maluku Utara 97771","Darame, Kec. Morotai Sel., Kabupaten Pulau Morotai",MALUKU UTARA,97771.0,Indonesia,82192051157.0,2.0512527,128.2992307,https://maps.google.com/?cid=0x0:0xfcebc6d6434345cf
supermarket,Warnet,Rental Playstation Alya Game,"Yayasan South Morotai Morotai Selatan Yayasan, Daruba, Kec. Morotai Sel., Kabupaten Pulau Morotai, Maluku Utara 97771","Daruba, Kec. Morotai Sel., Kabupaten Pulau Morotai",MALUKU UTARA,97771.0,Indonesia,85256085278.0,2.0494692,128.2935238,https://maps.google.com/?cid=0x0:0xb450af5263e3c546
supermarket,Toko Buku,Toko ATKa RIA (A2 Fotocopy),"Jln. SMA Muhammadiyah Tanah Tinggi, Gotalamo, Kec. Morotai Sel., Kabupaten Pulau Morotai, Maluku Utara 97771","Gotalamo, Kec. Morotai Sel., Kabupaten Pulau Morotai",MALUKU UTARA,97771.0,Indonesia,85211009814.0,2.0554718,128.3009878,https://maps.google.com/?cid=0x0:0x8dc315924e1de29a
supermarket,Toko Alat Tulis Kantor,Toko Alat Tulis (ALSUSS),"3834+M2C, Jl. Raya Darame, Daruba, Kec. Morotai Sel., Kabupaten Pulau Morotai, Maluku Utara 97771","Jl. Raya Darame, Daruba, Kec. Morotai Sel., Kabupaten Pulau Morotai",MALUKU UTARA,97771.0,Indonesia,82199600344.0,2.0541827,128.3050215,https://maps.google.com/?cid=0x0:0xb189d5659a5c38f3
supermarket,supermarket,Kec. Morotai Sel. Bar.,"Kabupaten Pulau Morotai, Maluku Utara","Kabupaten Pulau Morotai, Maluku Utara",MALUKU UTARA,,Indonesia,,2.2801376,128.2016017,https://maps.google.com/?cid=0x0:0x69328259284f1b6b
supermarket,Toko umum,TOKO CENDIKA,"664R+MGH, Tiley, Kec. Morotai Sel. Bar., Kabupaten Pulau Morotai, Maluku Utara","Kabupaten Pulau Morotai, Maluku Utara",MALUKU UTARA,,Indonesia,,2.2070347,128.2420145,https://maps.google.com/?cid=0x0:0x92dfda27209526d8
supermarket,supermarket,Desa raja,"67Q2+H9P, Raja, Kec. Morotai Sel. Bar., Kabupaten Pulau Morotai, Maluku Utara","Kabupaten Pulau Morotai, Maluku Utara",MALUKU UTARA,,Indonesia,,2.2389747,128.2509493,https://maps.google.com/?cid=0x0:0x9f3bdc4da133ae6c
supermarket,Toko umum,Kios SELA,"75VH+PVV, Posi Posi Rao, Kec. Morotai Sel. Bar., Kabupaten Pulau Morotai, Maluku Utara","Kabupaten Pulau Morotai, Maluku Utara",MALUKU UTARA,,Indonesia,,2.2943694,128.1796772,https://maps.google.com/?cid=0x0:0x12b8bd6a191e3f2
supermarket,Toko,Kios Alif,"75HX+MQ8, Wayabula, Kec. Morotai Sel. Bar., Kabupaten Pulau Morotai, Maluku Utara","Kabupaten Pulau Morotai, Maluku Utara",MALUKU UTARA,,Indonesia,,2.2791736,128.1994447,https://maps.google.com/?cid=0x0:0x515c0d35265de7d9
supermarket,Toko umum,kios wili,"8577+PCW, Posi Posi Rao, Kec. Morotai Sel. Bar., Kabupaten Pulau Morotai, Maluku Utara","Kabupaten Pulau Morotai, Maluku Utara",MALUKU UTARA,,Indonesia,,2.3143719,128.1635743,https://maps.google.com/?cid=0x0:0x533edee63bd3ddf9
supermarket,Minimarket,TOKO RIZKA,"38W6+GMJ Tugu dan taman KTM, Jl. Raya Wayabula Morotai Selatan, Dehegila, Kec. Morotai Sel., Kabupaten Pulau Morotai, Maluku Utara","Kabupaten Pulau Morotai, Maluku Utara",MALUKU UTARA,,Indonesia,,2.096161,128.3115112,https://maps.google.com/?cid=0x0:0x2314a6b85f5dbe48
supermarket,Minimarket,Alfiyah Mart,"Daruba, Kec. Morotai Sel., Kabupaten Pulau Morotai, Maluku Utara","Kabupaten Pulau Morotai, Maluku Utara",MALUKU UTARA,,Indonesia,,2.0520257,128.2921486,https://maps.google.com/?cid=0x0:0xb6ba80453d1a8db4
supermarket,Toko Pertanian,Toko tani Tasya,"9C82+788, Tutuhu, Kec. Morotai Sel. Bar., Kabupaten Pulau Morotai, Maluku Utara","Kabupaten Pulau Morotai, Maluku Utara",MALUKU UTARA,,Indonesia,82395728522.0,2.3656672,128.4008357,https://maps.google.com/?cid=0x0:0x6206f99633950b7c
supermarket,Toko,CENTRALMART MOROTAI,"3844+CVC, Gotalamo, Kec. Morotai Sel., Kabupaten Pulau Morotai, Maluku Utara","Kabupaten Pulau Morotai, Maluku Utara",MALUKU UTARA,,Indonesia,81390728877.0,2.0560646,128.3071429,https://maps.google.com/?cid=0x0:0xb009c4efd3c1184f
supermarket,Toko,Kios ika moms 2 putri,"Joubela, Kec. Morotai Sel., Kabupaten Pulau Morotai, Maluku Utara 97771","Kec. Morotai Sel., Kabupaten Pulau Morotai",MALUKU UTARA,97771.0,Indonesia,81355715180.0,2.0429159,128.3576874,https://maps.google.com/?cid=0x0:0xcc325a86366a853
supermarket,Toko,Kios Aisah,"Unnamed Road, Wayabula, Kec. Morotai Sel. Bar., Kabupaten Pulau Morotai, Maluku Utara","Kabupaten Pulau Morotai, Maluku Utara",MALUKU UTARA,,Indonesia,85254134606.0,2.2782282,128.2009449,https://maps.google.com/?cid=0x0:0xd8929fdcc6567e6c
supermarket,Minimarket,kios willi,"75WJ+FCG, Posi Posi Rao, Kec. Morotai Sel. Bar., Kabupaten Pulau Morotai, Maluku Utara","Kabupaten Pulau Morotai, Maluku Utara",MALUKU UTARA,,Indonesia,,2.2961875,128.1810781,https://maps.google.com/?cid=0x0:0xfefe734960cdacf4
supermarket,Minimarket,MJ Mart Daruba Morotai,"372R+CR2 Pelabuhan Speedboat Daruba, Yayasan, Kec. Morotai Sel., Kabupaten Pulau Morotai, Maluku Utara","Kabupaten Pulau Morotai, Maluku Utara",MALUKU UTARA,,Indonesia,8111007506.0,2.0510204,128.2920252,https://maps.google.com/?cid=0x0:0xd26e48325d526a1b
supermarket,supermarket,Kec. Morotai Tim.,"Kabupaten Pulau Morotai, Maluku Utara","Kabupaten Pulau Morotai, Maluku Utara",MALUKU UTARA,,Indonesia,,2.1068727,128.557235,https://maps.google.com/?cid=0x0:0xfe2c10e8a9e17d56
supermarket,Pusat Perbelanjaan,Toko Alun Saputra,"4G2W+R2P, Sambiki, Kec. Morotai Tim., Kabupaten Pulau Morotai, Maluku Utara","Kabupaten Pulau Morotai, Maluku Utara",MALUKU UTARA,,Indonesia,81243146676.0,2.1020766,128.5450736,https://maps.google.com/?cid=0x0:0xe790717c605c6b96
supermarket,Toko,CENTRALMART MOROTAI,"3844+CVC, Gotalamo, Kec. Morotai Sel., Kabupaten Pulau Morotai, Maluku Utara","Kabupaten Pulau Morotai, Maluku Utara",MALUKU UTARA,,Indonesia,81390728877.0,2.0560646,128.3071429,https://maps.google.com/?cid=0x0:0xb009c4efd3c1184f
supermarket,Kios,Toko Erfan,"5JX5+PJV, Buho Buho, Kec. Morotai Tim., Kabupaten Pulau Morotai, Maluku Utara","Kabupaten Pulau Morotai, Maluku Utara",MALUKU UTARA,,Indonesia,,2.199448,128.6086443,https://maps.google.com/?cid=0x0:0x9cb539acd48cc0eb
supermarket,Toko,Kios ika moms 2 putri,"Joubela, Kec. Morotai Sel., Kabupaten Pulau Morotai, Maluku Utara 97771","Kec. Morotai Sel., Kabupaten Pulau Morotai",MALUKU UTARA,97771.0,Indonesia,81355715180.0,2.0429159,128.3576874,https://maps.google.com/?cid=0x0:0xcc325a86366a853
supermarket,supermarket,Aldian tou,"4H42+Q3G, Sangowo, Kec. Morotai Tim., Kabupaten Pulau Morotai, Maluku Utara","Kabupaten Pulau Morotai, Maluku Utara",MALUKU UTARA,,Indonesia,,2.106946,128.5501895,https://maps.google.com/?cid=0x0:0x708dd34aa713524e
supermarket,Toko umum,LINK MEISYA,"Daeo, Kec. Morotai Sel., Kabupaten Pulau Morotai, Maluku Utara","Kabupaten Pulau Morotai, Maluku Utara",MALUKU UTARA,,Indonesia,,2.0576505,128.4780048,https://maps.google.com/?cid=0x0:0xc899e871875ab625
supermarket,Restoran,Garden Cafe,"6J68+JX, Lifao, Kec. Morotai Tim., Kabupaten Pulau Morotai, Maluku Utara","Kabupaten Pulau Morotai, Maluku Utara",MALUKU UTARA,,Indonesia,,2.2115656,128.6174231,https://maps.google.com/?cid=0x0:0x44dfea5c9fc90a42
supermarket,Toko,Kios Aco,"5H5M+FW2, Mira, Kec. Morotai Tim., Kabupaten Pulau Morotai, Maluku Utara","Kabupaten Pulau Morotai, Maluku Utara",MALUKU UTARA,,Indonesia,,2.1586375,128.5847656,https://maps.google.com/?cid=0x0:0x7563422035bb9906
supermarket,Toko,KIOS SAMIN,"5H5M+CQV, Mira, Kec. Morotai Tim., Kabupaten Pulau Morotai, Maluku Utara","Kabupaten Pulau Morotai, Maluku Utara",MALUKU UTARA,,Indonesia,,2.1586187,128.5844373,https://maps.google.com/?cid=0x0:0xf0a3581aff72bd1b
supermarket,Toko umum,Kios christin,"5JX5+FMH, Buho Buho, Kec. Morotai Tim., Kabupaten Pulau Morotai, Maluku Utara","Kabupaten Pulau Morotai, Maluku Utara",MALUKU UTARA,,Indonesia,,2.1989732,128.6081954,https://maps.google.com/?cid=0x0:0x28280245e0e709ec
supermarket,Toko umum,Toko novi,"4G4X+VRM, Jembatan Jl. Sangowo, Sangowo, Kec. Morotai Tim., Kabupaten Pulau Morotai, Maluku Utara","Kabupaten Pulau Morotai, Maluku Utara",MALUKU UTARA,,Indonesia,,2.1072149,128.5495465,https://maps.google.com/?cid=0x0:0xfecdbce14f6a0fe8
supermarket,Toko,AJWIN TOU,"Jl. Sangowo, Sangowo, Kec. Morotai Tim., Kabupaten Pulau Morotai, Maluku Utara","Kabupaten Pulau Morotai, Maluku Utara",MALUKU UTARA,,Indonesia,81391676625.0,2.1070373,128.5502291,https://maps.google.com/?cid=0x0:0x1f9cb6431f9b0c36
supermarket,supermarket,Kec. Morotai Tim.,"Kabupaten Pulau Morotai, Maluku Utara","Kabupaten Pulau Morotai, Maluku Utara",MALUKU UTARA,,Indonesia,,2.1068727,128.557235,https://maps.google.com/?cid=0x0:0xfe2c10e8a9e17d56
supermarket,Toko,CENTRALMART MOROTAI,"3844+CVC, Gotalamo, Kec. Morotai Sel., Kabupaten Pulau Morotai, Maluku Utara","Kabupaten Pulau Morotai, Maluku Utara",MALUKU UTARA,,Indonesia,81390728877.0,2.0560646,128.3071429,https://maps.google.com/?cid=0x0:0xb009c4efd3c1184f
supermarket,Toko umum,LINK MEISYA,"Daeo, Kec. Morotai Sel., Kabupaten Pulau Morotai, Maluku Utara","Kabupaten Pulau Morotai, Maluku Utara",MALUKU UTARA,,Indonesia,,2.0576505,128.4780048,https://maps.google.com/?cid=0x0:0xc899e871875ab625
supermarket,Kios,Toko Erfan,"5JX5+PJV, Buho Buho, Kec. Morotai Tim., Kabupaten Pulau Morotai, Maluku Utara","Kabupaten Pulau Morotai, Maluku Utara",MALUKU UTARA,,Indonesia,,2.199448,128.6086443,https://maps.google.com/?cid=0x0:0x9cb539acd48cc0eb
supermarket,Toko,Hidup Baru Daeo,"Unnamed Road, Daeo, Kec. Morotai Sel., Kabupaten Pulau Morotai, Maluku Utara","Kabupaten Pulau Morotai, Maluku Utara",MALUKU UTARA,,Indonesia,82259237937.0,2.055884,128.4741415,https://maps.google.com/?cid=0x0:0x4db952e896d98c5b
supermarket,Restoran,Garden Cafe,"6J68+JX, Lifao, Kec. Morotai Tim., Kabupaten Pulau Morotai, Maluku Utara","Kabupaten Pulau Morotai, Maluku Utara",MALUKU UTARA,,Indonesia,,2.2115656,128.6174231,https://maps.google.com/?cid=0x0:0x44dfea5c9fc90a42
supermarket,Toko Perlengkapan Rumah,MORODADI MART,"38XC+33J, 38XC+337DehegilaKec, Kec. Morotai Sel., Kabupaten Pulau Morotai, Maluku Utara","Kabupaten Pulau Morotai, Maluku Utara",MALUKU UTARA,,Indonesia,,2.0977003,128.3201375,https://maps.google.com/?cid=0x0:0x7f7d83601c947d4b
supermarket,Pusat Perbelanjaan,Toko Alun Saputra,"4G2W+R2P, Sambiki, Kec. Morotai Tim., Kabupaten Pulau Morotai, Maluku Utara","Kabupaten Pulau Morotai, Maluku Utara",MALUKU UTARA,,Indonesia,81243146676.0,2.1020766,128.5450736,https://maps.google.com/?cid=0x0:0xe790717c605c6b96
supermarket,Toko,Toko Makastemor,"373V+42M, Daruba, Kec. Morotai Sel., Kabupaten Pulau Morotai, Maluku Utara","Kabupaten Pulau Morotai, Maluku Utara",MALUKU UTARA,,Indonesia,85256618012.0,2.0528433,128.2925371,https://maps.google.com/?cid=0x0:0x8926dcf2943cc9cb
supermarket,Toko bahan makanan,Toko Talha,"4H42+JMG, Sangowo, Kec. Morotai Tim., Kabupaten Pulau Morotai, Maluku Utara","Kabupaten Pulau Morotai, Maluku Utara",MALUKU UTARA,,Indonesia,,2.1065644,128.5516996,https://maps.google.com/?cid=0x0:0x1fc35db48691976b
supermarket,supermarket,Aldian tou,"4H42+Q3G, Sangowo, Kec. Morotai Tim., Kabupaten Pulau Morotai, Maluku Utara","Kabupaten Pulau Morotai, Maluku Utara",MALUKU UTARA,,Indonesia,,2.106946,128.5501895,https://maps.google.com/?cid=0x0:0x708dd34aa713524e
supermarket,Toko bahan makanan,Toko Ion,"Darame, Kec. Morotai Sel., Kabupaten Pulau Morotai, Maluku Utara 97771","Kec. Morotai Sel., Kabupaten Pulau Morotai",MALUKU UTARA,97771.0,Indonesia,81271341190.0,2.0521652,128.3020745,https://maps.google.com/?cid=0x0:0x21a0fac59bb7eb82
supermarket,Pusat Perbelanjaan,Kios Dua Putra,"3F4G+F2P, Daeo, Kec. Morotai Sel., Kabupaten Pulau Morotai, Maluku Utara","Kabupaten Pulau Morotai, Maluku Utara",MALUKU UTARA,,Indonesia,,2.056209,128.4750872,https://maps.google.com/?cid=0x0:0x842e7ccb3243a29
supermarket,supermarket,Kios Zafran 2,"3C5F+H5Q, Sabatai Tua, Kec. Morotai Sel., Kabupaten Pulau Morotai, Maluku Utara","Kabupaten Pulau Morotai, Maluku Utara",MALUKU UTARA,,Indonesia,,2.0589534,128.4229773,https://maps.google.com/?cid=0x0:0x49a5b8031f25cc72
supermarket,supermarket,Kec. Morotai Tim.,"Kabupaten Pulau Morotai, Maluku Utara","Kabupaten Pulau Morotai, Maluku Utara",MALUKU UTARA,,Indonesia,,2.1068727,128.557235,https://maps.google.com/?cid=0x0:0xfe2c10e8a9e17d56
supermarket,Kios,Toko Erfan,"5JX5+PJV, Buho Buho, Kec. Morotai Tim., Kabupaten Pulau Morotai, Maluku Utara","Kabupaten Pulau Morotai, Maluku Utara",MALUKU UTARA,,Indonesia,,2.199448,128.6086443,https://maps.google.com/?cid=0x0:0x9cb539acd48cc0eb
supermarket,Pusat Perbelanjaan,Toko Alun Saputra,"4G2W+R2P, Sambiki, Kec. Morotai Tim., Kabupaten Pulau Morotai, Maluku Utara","Kabupaten Pulau Morotai, Maluku Utara",MALUKU UTARA,,Indonesia,81243146676.0,2.1020766,128.5450736,https://maps.google.com/?cid=0x0:0xe790717c605c6b96
supermarket,Toko,CENTRALMART MOROTAI,"3844+CVC, Gotalamo, Kec. Morotai Sel., Kabupaten Pulau Morotai, Maluku Utara","Kabupaten Pulau Morotai, Maluku Utara",MALUKU UTARA,,Indonesia,81390728877.0,2.0560646,128.3071429,https://maps.google.com/?cid=0x0:0xb009c4efd3c1184f
supermarket,supermarket,Aldian tou,"4H42+Q3G, Sangowo, Kec. Morotai Tim., Kabupaten Pulau Morotai, Maluku Utara","Kabupaten Pulau Morotai, Maluku Utara",MALUKU UTARA,,Indonesia,,2.106946,128.5501895,https://maps.google.com/?cid=0x0:0x708dd34aa713524e
supermarket,Toko umum,LINK MEISYA,"Daeo, Kec. Morotai Sel., Kabupaten Pulau Morotai, Maluku Utara","Kabupaten Pulau Morotai, Maluku Utara",MALUKU UTARA,,Indonesia,,2.0576505,128.4780048,https://maps.google.com/?cid=0x0:0xc899e871875ab625
supermarket,Minimarket,MR MART,"3844+VM7, Gotalamo, Kec. Morotai Sel., Kabupaten Pulau Morotai, Maluku Utara","Kabupaten Pulau Morotai, Maluku Utara",MALUKU UTARA,,Indonesia,,2.0571718,128.3067094,https://maps.google.com/?cid=0x0:0x6940e8eb83ef145b
supermarket,Restoran,Garden Cafe,"6J68+JX, Lifao, Kec. Morotai Tim., Kabupaten Pulau Morotai, Maluku Utara","Kabupaten Pulau Morotai, Maluku Utara",MALUKU UTARA,,Indonesia,,2.2115656,128.6174231,https://maps.google.com/?cid=0x0:0x44dfea5c9fc90a42
supermarket,Toko,Kios Aco,"5H5M+FW2, Mira, Kec. Morotai Tim., Kabupaten Pulau Morotai, Maluku Utara","Kabupaten Pulau Morotai, Maluku Utara",MALUKU UTARA,,Indonesia,,2.1586375,128.5847656,https://maps.google.com/?cid=0x0:0x7563422035bb9906
supermarket,Toko,KIOS SAMIN,"5H5M+CQV, Mira, Kec. Morotai Tim., Kabupaten Pulau Morotai, Maluku Utara","Kabupaten Pulau Morotai, Maluku Utara",MALUKU UTARA,,Indonesia,,2.1586187,128.5844373,https://maps.google.com/?cid=0x0:0xf0a3581aff72bd1b
supermarket,Toko umum,Kios christin,"5JX5+FMH, Buho Buho, Kec. Morotai Tim., Kabupaten Pulau Morotai, Maluku Utara","Kabupaten Pulau Morotai, Maluku Utara",MALUKU UTARA,,Indonesia,,2.1989732,128.6081954,https://maps.google.com/?cid=0x0:0x28280245e0e709ec
supermarket,Toko umum,Toko novi,"4G4X+VRM, Jembatan Jl. Sangowo, Sangowo, Kec. Morotai Tim., Kabupaten Pulau Morotai, Maluku Utara","Kabupaten Pulau Morotai, Maluku Utara",MALUKU UTARA,,Indonesia,,2.1072149,128.5495465,https://maps.google.com/?cid=0x0:0xfecdbce14f6a0fe8
supermarket,Minimarket,MJ Mart Daruba Morotai,"372R+CR2 Pelabuhan Speedboat Daruba, Yayasan, Kec. Morotai Sel., Kabupaten Pulau Morotai, Maluku Utara","Kabupaten Pulau Morotai, Maluku Utara",MALUKU UTARA,,Indonesia,8111007506.0,2.0510204,128.2920252,https://maps.google.com/?cid=0x0:0xd26e48325d526a1b
supermarket,Toko,CENTRALMART MOROTAI,"3844+CVC, Gotalamo, Kec. Morotai Sel., Kabupaten Pulau Morotai, Maluku Utara","Kabupaten Pulau Morotai, Maluku Utara",MALUKU UTARA,,Indonesia,81390728877.0,2.0560646,128.3071429,https://maps.google.com/?cid=0x0:0xb009c4efd3c1184f
supermarket,supermarket,Maluku Utara,,Maluku Utara,MALUKU UTARA,,Indonesia,,1.5709993,127.8087693,https://maps.google.com/?cid=0x0:0x1030bfbcaf71ac0
supermarket,Minimarket,MJ Mart Daruba Morotai,"372R+CR2 Pelabuhan Speedboat Daruba, Yayasan, Kec. Morotai Sel., Kabupaten Pulau Morotai, Maluku Utara","Kabupaten Pulau Morotai, Maluku Utara",MALUKU UTARA,,Indonesia,8111007506.0,2.0510204,128.2920252,https://maps.google.com/?cid=0x0:0xd26e48325d526a1b
supermarket,Toko bahan makanan,Toko Ion,"Darame, Kec. Morotai Sel., Kabupaten Pulau Morotai, Maluku Utara 97771","Kec. Morotai Sel., Kabupaten Pulau Morotai",MALUKU UTARA,97771.0,Indonesia,81271341190.0,2.0521652,128.3020745,https://maps.google.com/?cid=0x0:0x21a0fac59bb7eb82
supermarket,Toko,Toko Makastemor,"373V+42M, Daruba, Kec. Morotai Sel., Kabupaten Pulau Morotai, Maluku Utara","Kabupaten Pulau Morotai, Maluku Utara",MALUKU UTARA,,Indonesia,85256618012.0,2.0528433,128.2925371,https://maps.google.com/?cid=0x0:0x8926dcf2943cc9cb
supermarket,Toko Bahan Bangunan,TOKO BANGUNAN AFLAH,"3844+8W5, Darame, Kec. Morotai Sel., Kabupaten Pulau Morotai, Maluku Utara","Kabupaten Pulau Morotai, Maluku Utara",MALUKU UTARA,,Indonesia,81289549001.0,2.0561242,128.307455,https://maps.google.com/?cid=0x0:0x68857e0f7831bbee
supermarket,Toko Perlengkapan Rumah,Putra Daerah,"372R+MWH, Daruba, Kec. Morotai Sel., Kabupaten Pulau Morotai, Maluku Utara","Kabupaten Pulau Morotai, Maluku Utara",MALUKU UTARA,,Indonesia,,2.0516793,128.2923451,https://maps.google.com/?cid=0x0:0xbad7cc8c5cd1a7f
supermarket,Indonesia,Sangowo timur,"4H45+WGC, Sangowo, kec mortim, Kabupaten Pulau Morotai, Maluku Utara","Kabupaten Pulau Morotai, Maluku Utara",MALUKU UTARA,,Indonesia,,2.1073173,128.558775,https://maps.google.com/?cid=0x0:0xfcda083530eb9a6f
supermarket,Toko sembako pemerintah,RIZKY Toko Sembako Dan Rumah Makan,"Desa, Loleo, Kec. Morotai Jaya, Kabupaten Pulau Morotai, Maluku Utara 97773","Loleo, Kec. Morotai Jaya, Kabupaten Pulau Morotai",MALUKU UTARA,97773.0,Indonesia,82399378890.0,2.5826011,128.6039017,https://maps.google.com/?cid=0x0:0xe0bd739444634a90
supermarket,supermarket,Pasar Baru,"372W+WHH, Gotalamo, Kec. Morotai Sel., Kabupaten Pulau Morotai, Maluku Utara","Kabupaten Pulau Morotai, Maluku Utara",MALUKU UTARA,,Indonesia,,2.0523091,128.2964885,https://maps.google.com/?cid=0x0:0xfec5bff55b9d18e
supermarket,supermarket,Toko Dion,"372V+W2Q, Daruba, Kec. Morotai Sel., Kabupaten Pulau Morotai, Maluku Utara","Kabupaten Pulau Morotai, Maluku Utara",MALUKU UTARA,,Indonesia,,2.0523296,128.292614,https://maps.google.com/?cid=0x0:0x1387aa867a2e35fb
supermarket,supermarket,Kec. Morotai Tim.,"Kabupaten Pulau Morotai, Maluku Utara","Kabupaten Pulau Morotai, Maluku Utara",MALUKU UTARA,,Indonesia,,2.1068727,128.557235,https://maps.google.com/?cid=0x0:0xfe2c10e8a9e17d56
supermarket,Kios,Toko Erfan,"5JX5+PJV, Buho Buho, Kec. Morotai Tim., Kabupaten Pulau Morotai, Maluku Utara","Kabupaten Pulau Morotai, Maluku Utara",MALUKU UTARA,,Indonesia,,2.199448,128.6086443,https://maps.google.com/?cid=0x0:0x9cb539acd48cc0eb
supermarket,supermarket,Kec. Morotai Tim.,"Kabupaten Pulau Morotai, Maluku Utara","Kabupaten Pulau Morotai, Maluku Utara",MALUKU UTARA,,Indonesia,,2.1068727,128.557235,https://maps.google.com/?cid=0x0:0xfe2c10e8a9e17d56
supermarket,Kios,Toko Erfan,"5JX5+PJV, Buho Buho, Kec. Morotai Tim., Kabupaten Pulau Morotai, Maluku Utara","Kabupaten Pulau Morotai, Maluku Utara",MALUKU UTARA,,Indonesia,,2.199448,128.6086443,https://maps.google.com/?cid=0x0:0x9cb539acd48cc0eb
supermarket,Pusat Perbelanjaan,Toko Alun Saputra,"4G2W+R2P, Sambiki, Kec. Morotai Tim., Kabupaten Pulau Morotai, Maluku Utara","Kabupaten Pulau Morotai, Maluku Utara",MALUKU UTARA,,Indonesia,81243146676.0,2.1020766,128.5450736,https://maps.google.com/?cid=0x0:0xe790717c605c6b96
supermarket,Toko,KIOS SAMIN,"5H5M+CQV, Mira, Kec. Morotai Tim., Kabupaten Pulau Morotai, Maluku Utara","Kabupaten Pulau Morotai, Maluku Utara",MALUKU UTARA,,Indonesia,,2.1586187,128.5844373,https://maps.google.com/?cid=0x0:0xf0a3581aff72bd1b
supermarket,Toko bahan makanan,Toko Talha,"4H42+JMG, Sangowo, Kec. Morotai Tim., Kabupaten Pulau Morotai, Maluku Utara","Kabupaten Pulau Morotai, Maluku Utara",MALUKU UTARA,,Indonesia,,2.1065644,128.5516996,https://maps.google.com/?cid=0x0:0x1fc35db48691976b
supermarket,Restoran,Garden Cafe,"6J68+JX, Lifao, Kec. Morotai Tim., Kabupaten Pulau Morotai, Maluku Utara","Kabupaten Pulau Morotai, Maluku Utara",MALUKU UTARA,,Indonesia,,2.2115656,128.6174231,https://maps.google.com/?cid=0x0:0x44dfea5c9fc90a42
supermarket,Toko umum,LINK MEISYA,"Daeo, Kec. Morotai Sel., Kabupaten Pulau Morotai, Maluku Utara","Kabupaten Pulau Morotai, Maluku Utara",MALUKU UTARA,,Indonesia,,2.0576505,128.4780048,https://maps.google.com/?cid=0x0:0xc899e871875ab625
supermarket,supermarket,Aldian tou,"4H42+Q3G, Sangowo, Kec. Morotai Tim., Kabupaten Pulau Morotai, Maluku Utara","Kabupaten Pulau Morotai, Maluku Utara",MALUKU UTARA,,Indonesia,,2.106946,128.5501895,https://maps.google.com/?cid=0x0:0x708dd34aa713524e
supermarket,Toko,Kios Aco,"5H5M+FW2, Mira, Kec. Morotai Tim., Kabupaten Pulau Morotai, Maluku Utara","Kabupaten Pulau Morotai, Maluku Utara",MALUKU UTARA,,Indonesia,,2.1586375,128.5847656,https://maps.google.com/?cid=0x0:0x7563422035bb9906
supermarket,Toko umum,Toko novi,"4G4X+VRM, Jembatan Jl. Sangowo, Sangowo, Kec. Morotai Tim., Kabupaten Pulau Morotai, Maluku Utara","Kabupaten Pulau Morotai, Maluku Utara",MALUKU UTARA,,Indonesia,,2.1072149,128.5495465,https://maps.google.com/?cid=0x0:0xfecdbce14f6a0fe8
supermarket,Toko,Kios Hanum,"3F7Q+8V3, Baru, Daeo, Kec. Morotai Sel., Kabupaten Pulau Morotai, Maluku Utara","Kabupaten Pulau Morotai, Maluku Utara",MALUKU UTARA,,Indonesia,,2.063266,128.4896735,https://maps.google.com/?cid=0x0:0x7fc8e86daf1fd820
supermarket,Toko umum,Kios christin,"5JX5+FMH, Buho Buho, Kec. Morotai Tim., Kabupaten Pulau Morotai, Maluku Utara","Kabupaten Pulau Morotai, Maluku Utara",MALUKU UTARA,,Indonesia,,2.1989732,128.6081954,https://maps.google.com/?cid=0x0:0x28280245e0e709ec
supermarket,Toko,AJWIN TOU,"Jl. Sangowo, Sangowo, Kec. Morotai Tim., Kabupaten Pulau Morotai, Maluku Utara","Kabupaten Pulau Morotai, Maluku Utara",MALUKU UTARA,,Indonesia,81391676625.0,2.1070373,128.5502291,https://maps.google.com/?cid=0x0:0x1f9cb6431f9b0c36
supermarket,Toko,CENTRALMART MOROTAI,"3844+CVC, Gotalamo, Kec. Morotai Sel., Kabupaten Pulau Morotai, Maluku Utara","Kabupaten Pulau Morotai, Maluku Utara",MALUKU UTARA,,Indonesia,81390728877.0,2.0560646,128.3071429,https://maps.google.com/?cid=0x0:0xb009c4efd3c1184f
supermarket,supermarket,Kec. Morotai Tim.,"Kabupaten Pulau Morotai, Maluku Utara","Kabupaten Pulau Morotai, Maluku Utara",MALUKU UTARA,,Indonesia,,2.1068727,128.557235,https://maps.google.com/?cid=0x0:0xfe2c10e8a9e17d56
supermarket,Kios,Toko Erfan,"5JX5+PJV, Buho Buho, Kec. Morotai Tim., Kabupaten Pulau Morotai, Maluku Utara","Kabupaten Pulau Morotai, Maluku Utara",MALUKU UTARA,,Indonesia,,2.199448,128.6086443,https://maps.google.com/?cid=0x0:0x9cb539acd48cc0eb
supermarket,Toko bahan makanan,Toko Talha,"4H42+JMG, Sangowo, Kec. Morotai Tim., Kabupaten Pulau Morotai, Maluku Utara","Kabupaten Pulau Morotai, Maluku Utara",MALUKU UTARA,,Indonesia,,2.1065644,128.5516996,https://maps.google.com/?cid=0x0:0x1fc35db48691976b
supermarket,Toko umum,LINK MEISYA,"Daeo, Kec. Morotai Sel., Kabupaten Pulau Morotai, Maluku Utara","Kabupaten Pulau Morotai, Maluku Utara",MALUKU UTARA,,Indonesia,,2.0576505,128.4780048,https://maps.google.com/?cid=0x0:0xc899e871875ab625
supermarket,Restoran,Garden Cafe,"6J68+JX, Lifao, Kec. Morotai Tim., Kabupaten Pulau Morotai, Maluku Utara","Kabupaten Pulau Morotai, Maluku Utara",MALUKU UTARA,,Indonesia,,2.2115656,128.6174231,https://maps.google.com/?cid=0x0:0x44dfea5c9fc90a42
supermarket,supermarket,Aldian tou,"4H42+Q3G, Sangowo, Kec. Morotai Tim., Kabupaten Pulau Morotai, Maluku Utara","Kabupaten Pulau Morotai, Maluku Utara",MALUKU UTARA,,Indonesia,,2.106946,128.5501895,https://maps.google.com/?cid=0x0:0x708dd34aa713524e
supermarket,Toko,CENTRALMART MOROTAI,"3844+CVC, Gotalamo, Kec. Morotai Sel., Kabupaten Pulau Morotai, Maluku Utara","Kabupaten Pulau Morotai, Maluku Utara",MALUKU UTARA,,Indonesia,81390728877.0,2.0560646,128.3071429,https://maps.google.com/?cid=0x0:0xb009c4efd3c1184f
supermarket,Toko,Kios Aco,"5H5M+FW2, Mira, Kec. Morotai Tim., Kabupaten Pulau Morotai, Maluku Utara","Kabupaten Pulau Morotai, Maluku Utara",MALUKU UTARA,,Indonesia,,2.1586375,128.5847656,https://maps.google.com/?cid=0x0:0x7563422035bb9906
supermarket,Toko umum,Kios christin,"5JX5+FMH, Buho Buho, Kec. Morotai Tim., Kabupaten Pulau Morotai, Maluku Utara","Kabupaten Pulau Morotai, Maluku Utara",MALUKU UTARA,,Indonesia,,2.1989732,128.6081954,https://maps.google.com/?cid=0x0:0x28280245e0e709ec
supermarket,Toko,Kios ika moms 2 putri,"Joubela, Kec. Morotai Sel., Kabupaten Pulau Morotai, Maluku Utara 97771","Kec. Morotai Sel., Kabupaten Pulau Morotai",MALUKU UTARA,97771.0,Indonesia,81355715180.0,2.0429159,128.3576874,https://maps.google.com/?cid=0x0:0xcc325a86366a853
supermarket,Toko,AJWIN TOU,"Jl. Sangowo, Sangowo, Kec. Morotai Tim., Kabupaten Pulau Morotai, Maluku Utara","Kabupaten Pulau Morotai, Maluku Utara",MALUKU UTARA,,Indonesia,81391676625.0,2.1070373,128.5502291,https://maps.google.com/?cid=0x0:0x1f9cb6431f9b0c36
supermarket,Toko umum,Toko novi,"4G4X+VRM, Jembatan Jl. Sangowo, Sangowo, Kec. Morotai Tim., Kabupaten Pulau Morotai, Maluku Utara","Kabupaten Pulau Morotai, Maluku Utara",MALUKU UTARA,,Indonesia,,2.1072149,128.5495465,https://maps.google.com/?cid=0x0:0xfecdbce14f6a0fe8
supermarket,Toko,KIOS SAMIN,"5H5M+CQV, Mira, Kec. Morotai Tim., Kabupaten Pulau Morotai, Maluku Utara","Kabupaten Pulau Morotai, Maluku Utara",MALUKU UTARA,,Indonesia,,2.1586187,128.5844373,https://maps.google.com/?cid=0x0:0xf0a3581aff72bd1b
supermarket,supermarket,Kec. Morotai Tim.,"Kabupaten Pulau Morotai, Maluku Utara","Kabupaten Pulau Morotai, Maluku Utara",MALUKU UTARA,,Indonesia,,2.1068727,128.557235,https://maps.google.com/?cid=0x0:0xfe2c10e8a9e17d56
supermarket,Kios,Toko Erfan,"5JX5+PJV, Buho Buho, Kec. Morotai Tim., Kabupaten Pulau Morotai, Maluku Utara","Kabupaten Pulau Morotai, Maluku Utara",MALUKU UTARA,,Indonesia,,2.199448,128.6086443,https://maps.google.com/?cid=0x0:0x9cb539acd48cc0eb
supermarket,Toko bahan makanan,Toko Talha,"4H42+JMG, Sangowo, Kec. Morotai Tim., Kabupaten Pulau Morotai, Maluku Utara","Kabupaten Pulau Morotai, Maluku Utara",MALUKU UTARA,,Indonesia,,2.1065644,128.5516996,https://maps.google.com/?cid=0x0:0x1fc35db48691976b
supermarket,Toko,CENTRALMART MOROTAI,"3844+CVC, Gotalamo, Kec. Morotai Sel., Kabupaten Pulau Morotai, Maluku Utara","Kabupaten Pulau Morotai, Maluku Utara",MALUKU UTARA,,Indonesia,81390728877.0,2.0560646,128.3071429,https://maps.google.com/?cid=0x0:0xb009c4efd3c1184f
supermarket,Toko umum,LINK MEISYA,"Daeo, Kec. Morotai Sel., Kabupaten Pulau Morotai, Maluku Utara","Kabupaten Pulau Morotai, Maluku Utara",MALUKU UTARA,,Indonesia,,2.0576505,128.4780048,https://maps.google.com/?cid=0x0:0xc899e871875ab625
supermarket,supermarket,Aldian tou,"4H42+Q3G, Sangowo, Kec. Morotai Tim., Kabupaten Pulau Morotai, Maluku Utara","Kabupaten Pulau Morotai, Maluku Utara",MALUKU UTARA,,Indonesia,,2.106946,128.5501895,https://maps.google.com/?cid=0x0:0x708dd34aa713524e
supermarket,Restoran,Garden Cafe,"6J68+JX, Lifao, Kec. Morotai Tim., Kabupaten Pulau Morotai, Maluku Utara","Kabupaten Pulau Morotai, Maluku Utara",MALUKU UTARA,,Indonesia,,2.2115656,128.6174231,https://maps.google.com/?cid=0x0:0x44dfea5c9fc90a42
supermarket,Toko,Kios Aco,"5H5M+FW2, Mira, Kec. Morotai Tim., Kabupaten Pulau Morotai, Maluku Utara","Kabupaten Pulau Morotai, Maluku Utara",MALUKU UTARA,,Indonesia,,2.1586375,128.5847656,https://maps.google.com/?cid=0x0:0x7563422035bb9906
supermarket,Toko umum,Kios christin,"5JX5+FMH, Buho Buho, Kec. Morotai Tim., Kabupaten Pulau Morotai, Maluku Utara","Kabupaten Pulau Morotai, Maluku Utara",MALUKU UTARA,,Indonesia,,2.1989732,128.6081954,https://maps.google.com/?cid=0x0:0x28280245e0e709ec
supermarket,Toko,KIOS SAMIN,"5H5M+CQV, Mira, Kec. Morotai Tim., Kabupaten Pulau Morotai, Maluku Utara","Kabupaten Pulau Morotai, Maluku Utara",MALUKU UTARA,,Indonesia,,2.1586187,128.5844373,https://maps.google.com/?cid=0x0:0xf0a3581aff72bd1b
supermarket,Toko,Kios ika moms 2 putri,"Joubela, Kec. Morotai Sel., Kabupaten Pulau Morotai, Maluku Utara 97771","Kec. Morotai Sel., Kabupaten Pulau Morotai",MALUKU UTARA,97771.0,Indonesia,81355715180.0,2.0429159,128.3576874,https://maps.google.com/?cid=0x0:0xcc325a86366a853
supermarket,Toko umum,Toko novi,"4G4X+VRM, Jembatan Jl. Sangowo, Sangowo, Kec. Morotai Tim., Kabupaten Pulau Morotai, Maluku Utara","Kabupaten Pulau Morotai, Maluku Utara",MALUKU UTARA,,Indonesia,,2.1072149,128.5495465,https://maps.google.com/?cid=0x0:0xfecdbce14f6a0fe8
supermarket,Minimarket,MJ Mart Daruba Morotai,"372R+CR2 Pelabuhan Speedboat Daruba, Yayasan, Kec. Morotai Sel., Kabupaten Pulau Morotai, Maluku Utara","Kabupaten Pulau Morotai, Maluku Utara",MALUKU UTARA,,Indonesia,8111007506.0,2.0510204,128.2920252,https://maps.google.com/?cid=0x0:0xd26e48325d526a1b
supermarket,supermarket,Kec. Morotai Utara,"Kabupaten Pulau Morotai, Maluku Utara","Kabupaten Pulau Morotai, Maluku Utara",MALUKU UTARA,,Indonesia,,2.3951437,128.6629022,https://maps.google.com/?cid=0x0:0x365307e3c5aab3fb
supermarket,Toko,CENTRALMART MOROTAI,"3844+CVC, Gotalamo, Kec. Morotai Sel., Kabupaten Pulau Morotai, Maluku Utara","Kabupaten Pulau Morotai, Maluku Utara",MALUKU UTARA,,Indonesia,81390728877.0,2.0560646,128.3071429,https://maps.google.com/?cid=0x0:0xb009c4efd3c1184f
supermarket,Toko,Kios ika moms 2 putri,"Joubela, Kec. Morotai Sel., Kabupaten Pulau Morotai, Maluku Utara 97771","Kec. Morotai Sel., Kabupaten Pulau Morotai",MALUKU UTARA,97771.0,Indonesia,81355715180.0,2.0429159,128.3576874,https://maps.google.com/?cid=0x0:0xcc325a86366a853
supermarket,Toko bahan makanan,Toko Ion,"Darame, Kec. Morotai Sel., Kabupaten Pulau Morotai, Maluku Utara 97771","Kec. Morotai Sel., Kabupaten Pulau Morotai",MALUKU UTARA,97771.0,Indonesia,81271341190.0,2.0521652,128.3020745,https://maps.google.com/?cid=0x0:0x21a0fac59bb7eb82
supermarket,Toko,Toko Makastemor,"373V+42M, Daruba, Kec. Morotai Sel., Kabupaten Pulau Morotai, Maluku Utara","Kabupaten Pulau Morotai, Maluku Utara",MALUKU UTARA,,Indonesia,85256618012.0,2.0528433,128.2925371,https://maps.google.com/?cid=0x0:0x8926dcf2943cc9cb
supermarket,Toko Pakaian,WP KK Indonesia,"Jl. Ravelnet, Darame, Kec. Morotai Sel., Kabupaten Pulau Morotai, Maluku Utara","Kabupaten Pulau Morotai, Maluku Utara",MALUKU UTARA,,Indonesia,82378858826.0,2.0575256,128.3017189,https://maps.google.com/?cid=0x0:0x7281d70682492984
supermarket,Toko Bahan Bangunan,TOKO BANGUNAN AFLAH,"3844+8W5, Darame, Kec. Morotai Sel., Kabupaten Pulau Morotai, Maluku Utara","Kabupaten Pulau Morotai, Maluku Utara",MALUKU UTARA,,Indonesia,81289549001.0,2.0561242,128.307455,https://maps.google.com/?cid=0x0:0x68857e0f7831bbee
supermarket,Toko,Mayco,"9MW7+6P6, Bere Bere, Kec. Morotai Utara, Kabupaten Pulau Morotai, Maluku Utara","Kabupaten Pulau Morotai, Maluku Utara",MALUKU UTARA,,Indonesia,82349287487.0,2.3955492,128.6642616,https://maps.google.com/?cid=0x0:0x88022b368fe79bf
supermarket,Toko Makanan,Warung Pojok Ibu Mira,"9MW8+Q2J, Bere Bere, Kec. Morotai Utara, Kabupaten Pulau Morotai, Maluku Utara","Kabupaten Pulau Morotai, Maluku Utara",MALUKU UTARA,,Indonesia,,2.3969737,128.6650101,https://maps.google.com/?cid=0x0:0xb75e064f308da0dc
supermarket,Toko Pertanian,Toko tani Tasya,"9C82+788, Tutuhu, Kec. Morotai Sel. Bar., Kabupaten Pulau Morotai, Maluku Utara","Kabupaten Pulau Morotai, Maluku Utara",MALUKU UTARA,,Indonesia,82395728522.0,2.3656672,128.4008357,https://maps.google.com/?cid=0x0:0x6206f99633950b7c
supermarket,Komplek perumahan,Didi,"HJ69+PQW, Towara, Kec. Morotai Jaya, Kabupaten Pulau Morotai, Maluku Utara","Kabupaten Pulau Morotai, Maluku Utara",MALUKU UTARA,,Indonesia,,2.5618563,128.6194376,https://maps.google.com/?cid=0x0:0xd3197f5a983f4a26
supermarket,Toko umum,Toko,"8JXV+9R, Tawakali, Kec. Morotai Utara, Kabupaten Pulau Morotai, Maluku Utara","Kabupaten Pulau Morotai, Maluku Utara",MALUKU UTARA,,Indonesia,,2.3484547,128.64403,https://maps.google.com/?cid=0x0:0x3215e936df5d470a
supermarket,Toko,Kios iqbal,"9MP7+4Q, Kenari, Kec. Morotai Utara, Kabupaten Pulau Morotai, Maluku Utara","Kabupaten Pulau Morotai, Maluku Utara",MALUKU UTARA,,Indonesia,,2.3853627,128.6643701,https://maps.google.com/?cid=0x0:0xbf20b0a90bd71d37
supermarket,Toko umum,Toko 4 basudara,"9C82+788, Tutuhu, Kec. Morotai Sel. Bar., Kabupaten Pulau Morotai, Maluku Utara","Kabupaten Pulau Morotai, Maluku Utara",MALUKU UTARA,,Indonesia,,2.3656672,128.4008357,https://maps.google.com/?cid=0x0:0xd2c9ca6aff1b4715
