Category;Real Category;Business Name;Address;City;State;Postal Code;Country;Phone;Email;Website;Latitude;Longitude;Map Link;Details Link
"hotel";"hotel";"Kec. Aek Kuo";"Kabupaten Labuhanbatu Utara, Sumatera Utara";"Kabupaten Labuhanbatu Utara, Sumatera Utara";"SUMATERA UTARA";"";"Indonesia";"";"";"";"2.3161726";"99.8203062";"https://maps.google.com/?cid=0x0:0x4039d80b220d250";""
"hotel";"hotel";"Hotel Cahaya Baru";"9PV2+PJC, Bandar Durian, Kec. Aek Natas, Kabupaten Labuhanbatu Utara, Sumatera Utara 21455";"Bandar Durian, Kec. Aek Natas, Kabupaten Labuhanbatu Utara";"SUMATERA UTARA";"21455";"Indonesia";" 082366883304";"";"";"2.3943004";"99.701522";"https://maps.google.com/?cid=0x0:0xa02a390c094baa5f";""
"hotel";"hotel";"Hotel Permata Warna";"Jalan Pejuang No.45, East Aek Kanopan, Kualuh Hulu, North Labuhan Batu Regency, North Sumatra 21273";"East Aek Kanopan, Kualuh Hulu, North Labuhan Batu Regency";"SUMATERA UTARA";"21273";"Indonesia";" 06246941747";"";"";"2.571314";"99.6529359";"https://maps.google.com/?cid=0x0:0x43e3f04a33101711";""
"hotel";"hotel";"Hotel JSN ULOS";"Jl. Jenderal Sudirman No.12, Aek Kanopan Tim., Kec. Kualuh Hulu, Kabupaten Labuhanbatu Utara, Sumatera Utara 21273";"Aek Kanopan Tim., Kec. Kualuh Hulu, Kabupaten Labuhanbatu Utara";"SUMATERA UTARA";"21273";"Indonesia";"";"";"";"2.5775751";"99.6526209";"https://maps.google.com/?cid=0x0:0xb9d59a623b1548a";""
"hotel";"hotel";"Hotel Ajiziah";"Jl. Lintas Sumatra No.16, Damuli Pekan, Kec. Kualuh Sel., Kabupaten Labuhanbatu Utara, Sumatera Utara 21457";"Damuli Pekan, Kec. Kualuh Sel., Kabupaten Labuhanbatu Utara";"SUMATERA UTARA";"21457";"Indonesia";" 081374040007";"";"";"2.5069981";"99.6337277";"https://maps.google.com/?cid=0x0:0x6ebf63839f857f4e";""
"hotel";"hotel";"Hotel Arkemo 3";"Jl. Lintas Sumatra, Tanah Tinggi, Kec. Air Putih, Kabupaten Batu Bara, Sumatera Utara 21256";"Tanah Tinggi, Kec. Air Putih, Kabupaten Batu Bara";"SUMATERA UTARA";"21256";"Indonesia";" 082365048276";"";"";"3.2625746";"99.3777782";"https://maps.google.com/?cid=0x0:0x6a749a4520b342ec";""
"hotel";"hotel";"OYO 90834 Hotel Anugrah";"99, Aek Kanopan, Labuhanbatu Utara, Sumatera Utara, Rantauprapat, Sumatera Utara 21273";"Aek Kanopan, Labuhanbatu Utara, Sumatera Utara, Rantauprapat";"SUMATERA UTARA";"21273";"Indonesia";" 02129707601";"";"";"2.5811219";"99.6556867";"https://maps.google.com/?cid=0x0:0x6d9d43a86b236831";""
"hotel";"hotel";"RedDoorz Syariah @ Wisma Kampung Baru Rantauprapat";"Kartini, Jl. Kp. Baru No.18, Rantauprapat, Kec. Rantau Utara, Kab. Labuhanbatu, Sumatera Utara 21411";"Jl. Kp. Baru No.18, Rantauprapat, Kec. Rantau Utara, Kab. Labuhanbatu";"SUMATERA UTARA";"21411";"Indonesia";" 0895417300072";"";"";"2.0980906";"99.8375611";"https://maps.google.com/?cid=0x0:0xd1d574404e9a8ca7";""
"hotel";"hotel";"N/A";"";"";"SUMATERA UTARA";"";"Indonesia";"";"";"";"";"";"https://maps.google.com/?cid=0x0:0xd1d574404e9a8ca7%7C/g/11j4f_2fsk%7Cen-ID";""
"hotel";"hotel";"Hotel Terang";"3X6M+MV2, Pd. Batu, Kec. Bilah Hulu, Kab. Labuhanbatu, Sumatera Utara 21451";"Pd. Batu, Kec. Bilah Hulu, Kab. Labuhanbatu";"SUMATERA UTARA";"21451";"Indonesia";" 083178292665";"";"";"2.0616383";"99.984632";"https://maps.google.com/?cid=0x0:0x930a22b990ec8a12";""
"hotel";"hotel";"Sumatera Utara 21455";"Kabupaten Labuhanbatu Utara, Sumatera Utara";"Kabupaten Labuhanbatu Utara, Sumatera Utara";"SUMATERA UTARA";"";"Indonesia";"";"";"";"2.1543963";"99.5006143";"https://maps.google.com/?cid=0x0:0x391266e2c2e7c92";""
"hotel";"hotel";"Shangrila Hotel";"Jl. Lintas Sumatra No.16 Ledong Barat, Aek Kanopan Tim., Kabupaten Asahan, Sumatera Utara 21273";"Aek Kanopan Tim., Kabupaten Asahan";"SUMATERA UTARA";"21273";"Indonesia";" 081281080081";"";"";"2.5889972";"99.651732";"https://maps.google.com/?cid=0x0:0x10b5f72b102cc302";""
"hotel";"hotel";"N/A";"";"";"SUMATERA UTARA";"";"Indonesia";"";"";"";"";"";"https://maps.google.com/?cid=0x0:0x10b5f72b102cc302%7C/g/11n__5z3xd%7Cen-ID";""
"hotel";"hotel";"N/A";"";"";"SUMATERA UTARA";"";"Indonesia";"";"";"";"";"";"https://maps.google.com/?cid=0x0:0x6ef11848e2651023%7C/g/1pzsncsbx%7Cen-ID";""
"hotel";"hotel";"SUZUYA HOTEL RANTAUPRAPAT";"Jl. Jend. Ahmad Yani, Rantauprapat, Kec. Rantau Utara, Kab. Labuhanbatu, Sumatera Utara 21411";"Rantauprapat, Kec. Rantau Utara, Kab. Labuhanbatu";"SUMATERA UTARA";"21411";"Indonesia";" 082360377987";"";"";"2.0974797";"99.8333174";"https://maps.google.com/?cid=0x0:0xbeee33753399aa2";""
"hotel";"hotel";"Hotel Permata Warna";"Jalan Pejuang No.45, East Aek Kanopan, Kualuh Hulu, North Labuhan Batu Regency, North Sumatra 21273";"East Aek Kanopan, Kualuh Hulu, North Labuhan Batu Regency";"SUMATERA UTARA";"21273";"Indonesia";" 06246941747";"";"";"2.571314";"99.6529359";"https://maps.google.com/?cid=0x0:0x43e3f04a33101711";""
"hotel";"hotel";"Hotel Cahaya Baru";"9PV2+PJC, Bandar Durian, Kec. Aek Natas, Kabupaten Labuhanbatu Utara, Sumatera Utara 21455";"Bandar Durian, Kec. Aek Natas, Kabupaten Labuhanbatu Utara";"SUMATERA UTARA";"21455";"Indonesia";" 082366883304";"";"";"2.3943004";"99.701522";"https://maps.google.com/?cid=0x0:0xa02a390c094baa5f";""
"hotel";"hotel";"Platinum Hotel Rantauprapat";"Jl. Jend. Ahmad Yani No.28, Bakaran Batu, Kec. Rantau Sel., Kab. Labuhanbatu, Sumatera Utara 21411";"Bakaran Batu, Kec. Rantau Sel., Kab. Labuhanbatu";"SUMATERA UTARA";"21411";"Indonesia";" 085262971383";"";"";"2.090235";"99.8419876";"https://maps.google.com/?cid=0x0:0x960596cea42e5129";""
"hotel";"hotel";"AHZA SYARIAH guest house";"Jl. Syukur, Kartini, Kec. Rantau Utara, Kab. Labuhanbatu, Sumatera Utara 21411";"Kartini, Kec. Rantau Utara, Kab. Labuhanbatu";"SUMATERA UTARA";"21411";"Indonesia";" 082169177040";"";"";"2.0975822";"99.8362281";"https://maps.google.com/?cid=0x0:0x9044beb33c26e24a";""
"hotel";"hotel";"RedDoorz Syariah @ Wisma Kampung Baru Rantauprapat";"Kartini, Jl. Kp. Baru No.18, Rantauprapat, Kec. Rantau Utara, Kab. Labuhanbatu, Sumatera Utara 21411";"Jl. Kp. Baru No.18, Rantauprapat, Kec. Rantau Utara, Kab. Labuhanbatu";"SUMATERA UTARA";"21411";"Indonesia";" 0895417300072";"";"";"2.0980906";"99.8375611";"https://maps.google.com/?cid=0x0:0xd1d574404e9a8ca7";""
"hotel";"hotel";"N/A";"";"";"SUMATERA UTARA";"";"Indonesia";"";"";"";"";"";"https://maps.google.com/?cid=0x0:0xd1d574404e9a8ca7%7C/g/11j4f_2fsk%7Cen-ID";""
"hotel";"hotel";"Hotel Anugrah";"Jl. Sukarame, Aek Kanopan Tim., Kec. Kualuh Hulu, Kabupaten Labuhanbatu Utara, Sumatera Utara 21273";"Aek Kanopan Tim., Kec. Kualuh Hulu, Kabupaten Labuhanbatu Utara";"SUMATERA UTARA";"21273";"Indonesia";" 081375292073";"";"";"2.5810821";"99.6556698";"https://maps.google.com/?cid=0x0:0x29d417ea19b072bb";""
"hotel";"hotel";"Hotel JSN ULOS";"Jl. Jenderal Sudirman No.12, Aek Kanopan Tim., Kec. Kualuh Hulu, Kabupaten Labuhanbatu Utara, Sumatera Utara 21273";"Aek Kanopan Tim., Kec. Kualuh Hulu, Kabupaten Labuhanbatu Utara";"SUMATERA UTARA";"21273";"Indonesia";"";"";"";"2.5775751";"99.6526209";"https://maps.google.com/?cid=0x0:0xb9d59a623b1548a";""
"hotel";"hotel";"RedDoorz Syariah @ RPCC Rantauprapat";"Jl. Ika Bina No.6 AB, Rantauprapat, Kec. Rantau Sel., Kab. Labuhanbatu, Sumatera Utara 21411";"Rantauprapat, Kec. Rantau Sel., Kab. Labuhanbatu";"SUMATERA UTARA";"21411";"Indonesia";" 0895417300072";"";"";"2.0970135";"99.8411899";"https://maps.google.com/?cid=0x0:0x45cbbf2c49f19c98";""
"hotel";"hotel";"Green House";"Jl. Cemara Jl. Padang Matinggi No.122, Rantauprapat, Kec. Rantau Utara, Kab. Labuhanbatu, Sumatera Utara 21411";"Rantauprapat, Kec. Rantau Utara, Kab. Labuhanbatu";"SUMATERA UTARA";"21411";"Indonesia";" 0895417300072";"";"";"2.1117495";"99.8297782";"https://maps.google.com/?cid=0x0:0x12a508a05eb9d767";""
"hotel";"hotel";"N/A";"";"";"SUMATERA UTARA";"";"Indonesia";"";"";"";"";"";"https://maps.google.com/?cid=0x0:0x12a508a05eb9d767%7C/g/11n8p52dpj%7Cen-ID";""
"hotel";"hotel";"D'Homestay Rantauprapat";"Jalan Ikabina, AB Jl. Kp. Baru No.6, Rantauprapat, Sumatera Utara 21412";"AB Jl. Kp. Baru No.6, Rantauprapat";"SUMATERA UTARA";"21412";"Indonesia";" 085361912474";"";"";"2.0971282";"99.8414255";"https://maps.google.com/?cid=0x0:0x9cd8fb3d69957bf2";""
"hotel";"hotel";"OYO 90834 Hotel Anugrah";"99, Aek Kanopan, Labuhanbatu Utara, Sumatera Utara, Rantauprapat, Sumatera Utara 21273";"Aek Kanopan, Labuhanbatu Utara, Sumatera Utara, Rantauprapat";"SUMATERA UTARA";"21273";"Indonesia";" 02129707601";"";"";"2.5811219";"99.6556867";"https://maps.google.com/?cid=0x0:0x6d9d43a86b236831";""
"hotel";"hotel";"NUANSA HOTEL";"Jl. SM. Raja No.15, Rantauprapat, Kec. Rantau Sel., Kab. Labuhanbatu, Sumatera Utara 22727";"Rantauprapat, Kec. Rantau Sel., Kab. Labuhanbatu";"SUMATERA UTARA";"22727";"Indonesia";" 085296901661";"";"";"2.0908764";"99.8424088";"https://maps.google.com/?cid=0x0:0x18316a4db5c6bca2";""
"hotel";"hotel";"OYO 92748 Hotel Tepian Batang Hari";"4G8W+42X, Jl. Lintas Sumatra, Poldung, Kec. Aek Natas, Sumatera Utara, 35363";"Jl. Lintas Sumatra, Poldung, Kec. Aek Natas";"SUMATERA UTARA";"35363";"Indonesia";" 082174980897";"";"";"2.115354";"99.545097";"https://maps.google.com/?cid=0x0:0x227b22d2b0d9861a";""
"hotel";"hotel";"SUPER OYO 2200 Hotel Gunung Sari";"Jl. Imam Bonjol, Rantauprapat, Kec. Rantau Utara, Kab. Labuhanbatu, Sumatera Utara 21411";"Rantauprapat, Kec. Rantau Utara, Kab. Labuhanbatu";"SUMATERA UTARA";"21411";"Indonesia";" 02129707601";"";"";"2.099743";"99.825594";"https://maps.google.com/?cid=0x0:0x5a0be9e902b55f47";""
"hotel";"hotel";"N/A";"";"";"SUMATERA UTARA";"";"Indonesia";"";"";"";"";"";"https://maps.google.com/?cid=0x0:0x5a0be9e902b55f47%7C/g/11fm_mgqd0%7Cen-ID";""
"hotel";"hotel";"Hotel Ajiziah";"Jl. Lintas Sumatra No.16, Damuli Pekan, Kec. Kualuh Sel., Kabupaten Labuhanbatu Utara, Sumatera Utara 21457";"Damuli Pekan, Kec. Kualuh Sel., Kabupaten Labuhanbatu Utara";"SUMATERA UTARA";"21457";"Indonesia";" 081374040007";"";"";"2.5069981";"99.6337277";"https://maps.google.com/?cid=0x0:0x6ebf63839f857f4e";""
"hotel";"hotel";"Wisma Niagara";"3RXH+7RP, Gg. Diponegoro, Rantauprapat, Kec. Rantau Utara, Kab. Labuhanbatu, Sumatera Utara 21411";"Gg. Diponegoro, Rantauprapat, Kec. Rantau Utara, Kab. Labuhanbatu";"SUMATERA UTARA";"21411";"Indonesia";" 085270075588";"";"";"2.0982249";"99.8295769";"https://maps.google.com/?cid=0x0:0xb87f5f1641142715";""
"hotel";"hotel";"Wisma Putri Deli Hotel";"Rantau Prapat, Jl. SM. Raja No.65, Bakaran Batu, Kec. Rantau Sel., Kab. Labuhanbatu, Sumatera Utara 21411";"Jl. SM. Raja No.65, Bakaran Batu, Kec. Rantau Sel., Kab. Labuhanbatu";"SUMATERA UTARA";"21411";"Indonesia";" 062423188";"";"";"2.0890182";"99.8454004";"https://maps.google.com/?cid=0x0:0xc897e471a165a6e6";""
"hotel";"hotel";"Hotel Terang";"3X6M+MV2, Pd. Batu, Kec. Bilah Hulu, Kab. Labuhanbatu, Sumatera Utara 21451";"Pd. Batu, Kec. Bilah Hulu, Kab. Labuhanbatu";"SUMATERA UTARA";"21451";"Indonesia";" 083178292665";"";"";"2.0616383";"99.984632";"https://maps.google.com/?cid=0x0:0x930a22b990ec8a12";""
"hotel";"hotel";"Sumatera Utara 21474";"Kec. Kualuh Hilir, Kabupaten Labuhanbatu Utara, Sumatera Utara";"Kabupaten Labuhanbatu Utara, Sumatera Utara";"SUMATERA UTARA";"";"Indonesia";"";"";"";"2.5204832";"100.0135929";"https://maps.google.com/?cid=0x0:0x556108f16bd7ca29";""
"hotel";"hotel";"Shangrila Hotel";"Jl. Lintas Sumatra No.16 Ledong Barat, Aek Kanopan Tim., Kabupaten Asahan, Sumatera Utara 21273";"Aek Kanopan Tim., Kabupaten Asahan";"SUMATERA UTARA";"21273";"Indonesia";" 081281080081";"";"";"2.5889972";"99.651732";"https://maps.google.com/?cid=0x0:0x10b5f72b102cc302";""
"hotel";"hotel";"N/A";"";"";"SUMATERA UTARA";"";"Indonesia";"";"";"";"";"";"https://maps.google.com/?cid=0x0:0x10b5f72b102cc302%7C/g/11n__5z3xd%7Cen-ID";""
"hotel";"hotel";"Hotel Anugrah";"Jl. Sukarame, Aek Kanopan Tim., Kec. Kualuh Hulu, Kabupaten Labuhanbatu Utara, Sumatera Utara 21273";"Aek Kanopan Tim., Kec. Kualuh Hulu, Kabupaten Labuhanbatu Utara";"SUMATERA UTARA";"21273";"Indonesia";" 081375292073";"";"";"2.5810821";"99.6556698";"https://maps.google.com/?cid=0x0:0x29d417ea19b072bb";""
"hotel";"hotel";"Hotel JSN ULOS";"Jl. Jenderal Sudirman No.12, Aek Kanopan Tim., Kec. Kualuh Hulu, Kabupaten Labuhanbatu Utara, Sumatera Utara 21273";"Aek Kanopan Tim., Kec. Kualuh Hulu, Kabupaten Labuhanbatu Utara";"SUMATERA UTARA";"21273";"Indonesia";"";"";"";"2.5775751";"99.6526209";"https://maps.google.com/?cid=0x0:0xb9d59a623b1548a";""
"hotel";"hotel";"Hotel Buluh Pagar Indah";"VMCF+J7J, Air Tlk. Hessa, Kec. Air Batu, Kabupaten Asahan, Sumatera Utara 21272";"Air Tlk. Hessa, Kec. Air Batu, Kabupaten Asahan";"SUMATERA UTARA";"21272";"Indonesia";"";"";"";"2.871576";"99.6731411";"https://maps.google.com/?cid=0x0:0xf8afe9da391a295a";""
"hotel";"hotel";"OYO 90834 Hotel Anugrah";"99, Aek Kanopan, Labuhanbatu Utara, Sumatera Utara, Rantauprapat, Sumatera Utara 21273";"Aek Kanopan, Labuhanbatu Utara, Sumatera Utara, Rantauprapat";"SUMATERA UTARA";"21273";"Indonesia";" 02129707601";"";"";"2.5811219";"99.6556867";"https://maps.google.com/?cid=0x0:0x6d9d43a86b236831";""
"hotel";"hotel";"Hotel Cahaya Baru";"9PV2+PJC, Bandar Durian, Kec. Aek Natas, Kabupaten Labuhanbatu Utara, Sumatera Utara 21455";"Bandar Durian, Kec. Aek Natas, Kabupaten Labuhanbatu Utara";"SUMATERA UTARA";"21455";"Indonesia";" 082366883304";"";"";"2.3943004";"99.701522";"https://maps.google.com/?cid=0x0:0xa02a390c094baa5f";""
"hotel";"hotel";"Sumatera Utara 21457";"Kec. Kualuh Sel., Kabupaten Labuhanbatu Utara, Sumatera Utara";"Kabupaten Labuhanbatu Utara, Sumatera Utara";"SUMATERA UTARA";"";"Indonesia";"";"";"";"2.4644513";"99.6786894";"https://maps.google.com/?cid=0x0:0xbeeda126e9c5dc9c";""
"hotel";"hotel";"Hotel Permata Warna";"Jalan Pejuang No.45, East Aek Kanopan, Kualuh Hulu, North Labuhan Batu Regency, North Sumatra 21273";"East Aek Kanopan, Kualuh Hulu, North Labuhan Batu Regency";"SUMATERA UTARA";"21273";"Indonesia";" 06246941747";"";"";"2.571314";"99.6529359";"https://maps.google.com/?cid=0x0:0x43e3f04a33101711";""
"hotel";"hotel";"Hotel Anugrah";"Jl. Sukarame, Aek Kanopan Tim., Kec. Kualuh Hulu, Kabupaten Labuhanbatu Utara, Sumatera Utara 21273";"Aek Kanopan Tim., Kec. Kualuh Hulu, Kabupaten Labuhanbatu Utara";"SUMATERA UTARA";"21273";"Indonesia";" 081375292073";"";"";"2.5810821";"99.6556698";"https://maps.google.com/?cid=0x0:0x29d417ea19b072bb";""
"hotel";"hotel";"Hotel Ajiziah";"Jl. Lintas Sumatra No.16, Damuli Pekan, Kec. Kualuh Sel., Kabupaten Labuhanbatu Utara, Sumatera Utara 21457";"Damuli Pekan, Kec. Kualuh Sel., Kabupaten Labuhanbatu Utara";"SUMATERA UTARA";"21457";"Indonesia";" 081374040007";"";"";"2.5069981";"99.6337277";"https://maps.google.com/?cid=0x0:0x6ebf63839f857f4e";""
"hotel";"hotel";"Hotel Cahaya Baru";"9PV2+PJC, Bandar Durian, Kec. Aek Natas, Kabupaten Labuhanbatu Utara, Sumatera Utara 21455";"Bandar Durian, Kec. Aek Natas, Kabupaten Labuhanbatu Utara";"SUMATERA UTARA";"21455";"Indonesia";" 082366883304";"";"";"2.3943004";"99.701522";"https://maps.google.com/?cid=0x0:0xa02a390c094baa5f";""
"hotel";"hotel";"OYO 90834 Hotel Anugrah";"99, Aek Kanopan, Labuhanbatu Utara, Sumatera Utara, Rantauprapat, Sumatera Utara 21273";"Aek Kanopan, Labuhanbatu Utara, Sumatera Utara, Rantauprapat";"SUMATERA UTARA";"21273";"Indonesia";" 02129707601";"";"";"2.5811219";"99.6556867";"https://maps.google.com/?cid=0x0:0x6d9d43a86b236831";""
"hotel";"hotel";"Shangrila Hotel";"Jl. Lintas Sumatra No.16 Ledong Barat, Aek Kanopan Tim., Kabupaten Asahan, Sumatera Utara 21273";"Aek Kanopan Tim., Kabupaten Asahan";"SUMATERA UTARA";"21273";"Indonesia";" 081281080081";"";"";"2.5889972";"99.651732";"https://maps.google.com/?cid=0x0:0x10b5f72b102cc302";""
"hotel";"hotel";"N/A";"";"";"SUMATERA UTARA";"";"Indonesia";"";"";"";"";"";"https://maps.google.com/?cid=0x0:0x10b5f72b102cc302%7C/g/11n__5z3xd%7Cen-ID";""
"hotel";"Tujuan Wisata";"Alun-Alun Aek Kanopan";"HM65+PR, Aek Kanopan Tim., Kec. Kualuh Hulu, Kabupaten Labuhanbatu Utara, Sumatera Utara";"Kabupaten Labuhanbatu Utara, Sumatera Utara";"SUMATERA UTARA";"";"Indonesia";"";"";"";"2.5609713";"99.6592003";"https://maps.google.com/?cid=0x0:0x5a76b806cdd36496";""
"hotel";"Sekolah Menengah Atas";"SMA Negri 1 Kualuh Hilir";"H29P+JC4, pasar bilah, Sungai Sentang, Kec. Kualuh Hilir, Kabupaten Labuhanbatu Utara, Sumatera Utara 21474";"pasar bilah, Sungai Sentang, Kec. Kualuh Hilir, Kabupaten Labuhanbatu Utara";"SUMATERA UTARA";"21474";"Indonesia";"";"";"";"2.5690088";"100.0360922";"https://maps.google.com/?cid=0x0:0x9c7568b7ef52106a";""
"hotel";"hotel";"Sumatera Utara 21457";"Kec. Kualuh Sel., Kabupaten Labuhanbatu Utara, Sumatera Utara";"Kabupaten Labuhanbatu Utara, Sumatera Utara";"SUMATERA UTARA";"";"Indonesia";"";"";"";"2.4644513";"99.6786894";"https://maps.google.com/?cid=0x0:0xbeeda126e9c5dc9c";""
"hotel";"hotel";"Hotel Permata Warna";"Jalan Pejuang No.45, East Aek Kanopan, Kualuh Hulu, North Labuhan Batu Regency, North Sumatra 21273";"East Aek Kanopan, Kualuh Hulu, North Labuhan Batu Regency";"SUMATERA UTARA";"21273";"Indonesia";" 06246941747";"";"";"2.571314";"99.6529359";"https://maps.google.com/?cid=0x0:0x43e3f04a33101711";""
"hotel";"hotel";"Hotel Ajiziah";"Jl. Lintas Sumatra No.16, Damuli Pekan, Kec. Kualuh Sel., Kabupaten Labuhanbatu Utara, Sumatera Utara 21457";"Damuli Pekan, Kec. Kualuh Sel., Kabupaten Labuhanbatu Utara";"SUMATERA UTARA";"21457";"Indonesia";" 081374040007";"";"";"2.5069981";"99.6337277";"https://maps.google.com/?cid=0x0:0x6ebf63839f857f4e";""
"hotel";"hotel";"Hotel JSN ULOS";"Jl. Jenderal Sudirman No.12, Aek Kanopan Tim., Kec. Kualuh Hulu, Kabupaten Labuhanbatu Utara, Sumatera Utara 21273";"Aek Kanopan Tim., Kec. Kualuh Hulu, Kabupaten Labuhanbatu Utara";"SUMATERA UTARA";"21273";"Indonesia";"";"";"";"2.5775751";"99.6526209";"https://maps.google.com/?cid=0x0:0xb9d59a623b1548a";""
"hotel";"hotel";"Hotel Cahaya Baru";"9PV2+PJC, Bandar Durian, Kec. Aek Natas, Kabupaten Labuhanbatu Utara, Sumatera Utara 21455";"Bandar Durian, Kec. Aek Natas, Kabupaten Labuhanbatu Utara";"SUMATERA UTARA";"21455";"Indonesia";" 082366883304";"";"";"2.3943004";"99.701522";"https://maps.google.com/?cid=0x0:0xa02a390c094baa5f";""
"hotel";"hotel";"OYO 90834 Hotel Anugrah";"99, Aek Kanopan, Labuhanbatu Utara, Sumatera Utara, Rantauprapat, Sumatera Utara 21273";"Aek Kanopan, Labuhanbatu Utara, Sumatera Utara, Rantauprapat";"SUMATERA UTARA";"21273";"Indonesia";" 02129707601";"";"";"2.5811219";"99.6556867";"https://maps.google.com/?cid=0x0:0x6d9d43a86b236831";""
"hotel";"hotel";"Marbau";"Kec. Marbau, Kabupaten Labuhanbatu Utara, Sumatera Utara";"Kabupaten Labuhanbatu Utara, Sumatera Utara";"SUMATERA UTARA";"";"Indonesia";"";"";"";"2.2347056";"99.8292338";"https://maps.google.com/?cid=0x0:0xeb63ab49f9f5d52a";""
"hotel";"hotel";"Permata Land Hotel  Resort";"Jl. Jend. Ahmad Yani No.133, Kartini, Kec. Rantau Utara, Kab. Labuhanbatu, Sumatera Utara 21411";"Kartini, Kec. Rantau Utara, Kab. Labuhanbatu";"SUMATERA UTARA";"21411";"Indonesia";" 082364407500";"";"";"2.0966402";"99.8336415";"https://maps.google.com/?cid=0x0:0x6ef11848e2651023";""
"hotel";"hotel";"N/A";"";"";"SUMATERA UTARA";"";"Indonesia";"";"";"";"";"";"https://maps.google.com/?cid=0x0:0x6ef11848e2651023%7C/g/1pzsncsbx%7Cen-ID";""
"hotel";"hotel";"AHZA SYARIAH guest house";"Jl. Syukur, Kartini, Kec. Rantau Utara, Kab. Labuhanbatu, Sumatera Utara 21411";"Kartini, Kec. Rantau Utara, Kab. Labuhanbatu";"SUMATERA UTARA";"21411";"Indonesia";" 082169177040";"";"";"2.0975822";"99.8362281";"https://maps.google.com/?cid=0x0:0x9044beb33c26e24a";""
"hotel";"hotel";"D'Homestay Rantauprapat";"Jalan Ikabina, AB Jl. Kp. Baru No.6, Rantauprapat, Sumatera Utara 21412";"AB Jl. Kp. Baru No.6, Rantauprapat";"SUMATERA UTARA";"21412";"Indonesia";" 085361912474";"";"";"2.0971282";"99.8414255";"https://maps.google.com/?cid=0x0:0x9cd8fb3d69957bf2";""
"hotel";"hotel";"Wisma Pandowo Syariah Hotel";"Jalan lintas sumatera utara km 98 Simpang kuala tanjung Seberang tugu inalum, Sei Suka/Deras, Kec. Sei Suka, Kabupaten Batu Bara, Sumatera Utara 21257";"Sei Suka/Deras, Kec. Sei Suka, Kabupaten Batu Bara";"SUMATERA UTARA";"21257";"Indonesia";" 082272509773";"";"";"3.3012511";"99.3386154";"https://maps.google.com/?cid=0x0:0x345d710bcd96c3e1";""
"hotel";"hotel";"RedDoorz Syariah @ Wisma Kampung Baru Rantauprapat";"Kartini, Jl. Kp. Baru No.18, Rantauprapat, Kec. Rantau Utara, Kab. Labuhanbatu, Sumatera Utara 21411";"Jl. Kp. Baru No.18, Rantauprapat, Kec. Rantau Utara, Kab. Labuhanbatu";"SUMATERA UTARA";"21411";"Indonesia";" 0895417300072";"";"";"2.0980906";"99.8375611";"https://maps.google.com/?cid=0x0:0xd1d574404e9a8ca7";""
"hotel";"hotel";"N/A";"";"";"SUMATERA UTARA";"";"Indonesia";"";"";"";"";"";"https://maps.google.com/?cid=0x0:0xd1d574404e9a8ca7%7C/g/11j4f_2fsk%7Cen-ID";""
"hotel";"hotel";"RedDoorz Syariah @ RPCC Rantauprapat";"Jl. Ika Bina No.6 AB, Rantauprapat, Kec. Rantau Sel., Kab. Labuhanbatu, Sumatera Utara 21411";"Rantauprapat, Kec. Rantau Sel., Kab. Labuhanbatu";"SUMATERA UTARA";"21411";"Indonesia";" 0895417300072";"";"";"2.0970135";"99.8411899";"https://maps.google.com/?cid=0x0:0x45cbbf2c49f19c98";""
"hotel";"hotel";"Hotel Marina";"Jl. Padang Sidempuan No.Km.10.27, Pandan, Kec. Pandan, Kabupaten Tapanuli Tengah, Sumatera Utara 22611";"Pandan, Kec. Pandan, Kabupaten Tapanuli Tengah";"SUMATERA UTARA";"22611";"Indonesia";" 0631371193";"";"";"1.6826132";"98.8215725";"https://maps.google.com/?cid=0x0:0x22810db9158b570e";""
"hotel";"hotel";"Green House";"Jl. Cemara Jl. Padang Matinggi No.122, Rantauprapat, Kec. Rantau Utara, Kab. Labuhanbatu, Sumatera Utara 21411";"Rantauprapat, Kec. Rantau Utara, Kab. Labuhanbatu";"SUMATERA UTARA";"21411";"Indonesia";" 0895417300072";"";"";"2.1117495";"99.8297782";"https://maps.google.com/?cid=0x0:0x12a508a05eb9d767";""
"hotel";"hotel";"N/A";"";"";"SUMATERA UTARA";"";"Indonesia";"";"";"";"";"";"https://maps.google.com/?cid=0x0:0x12a508a05eb9d767%7C/g/11n8p52dpj%7Cen-ID";""
"hotel";"hotel";"Platinum Hotel Rantauprapat";"Jl. Jend. Ahmad Yani No.28, Bakaran Batu, Kec. Rantau Sel., Kab. Labuhanbatu, Sumatera Utara 21411";"Bakaran Batu, Kec. Rantau Sel., Kab. Labuhanbatu";"SUMATERA UTARA";"21411";"Indonesia";" 085262971383";"";"";"2.090235";"99.8419876";"https://maps.google.com/?cid=0x0:0x960596cea42e5129";""
"hotel";"hotel";"Hotel Permata Warna";"Jalan Pejuang No.45, East Aek Kanopan, Kualuh Hulu, North Labuhan Batu Regency, North Sumatra 21273";"East Aek Kanopan, Kualuh Hulu, North Labuhan Batu Regency";"SUMATERA UTARA";"21273";"Indonesia";" 06246941747";"";"";"2.571314";"99.6529359";"https://maps.google.com/?cid=0x0:0x43e3f04a33101711";""
"hotel";"hotel";"NUANSA HOTEL";"Jl. SM. Raja No.15, Rantauprapat, Kec. Rantau Sel., Kab. Labuhanbatu, Sumatera Utara 22727";"Rantauprapat, Kec. Rantau Sel., Kab. Labuhanbatu";"SUMATERA UTARA";"22727";"Indonesia";" 085296901661";"";"";"2.0908764";"99.8424088";"https://maps.google.com/?cid=0x0:0x18316a4db5c6bca2";""
"hotel";"hotel";"N/A";"";"";"SUMATERA UTARA";"";"Indonesia";"";"";"";"";"";"https://maps.google.com/?cid=0x0:0xabb98d75781aff78%7C/g/11b6nrb67w%7Cen-ID";""
"hotel";"hotel";"Hotel Sere Nauli";"Jl. Sisingamangaraja No.1, Ps. Laguboti, Kec. Laguboti, Toba, Sumatera Utara 22381";"Ps. Laguboti, Kec. Laguboti, Toba";"SUMATERA UTARA";"22381";"Indonesia";" 0632331003";"";"";"2.3528556";"99.1217736";"https://maps.google.com/?cid=0x0:0xabb98d75781aff78";""
"hotel";"hotel";"Purba Margana Hotel  Resto";"Bandara, Aek Godang, Gunung tua, Kabupaten Padang Lawas Utara, Sumatera Utara 22740";"Aek Godang, Gunung tua, Kabupaten Padang Lawas Utara";"SUMATERA UTARA";"22740";"Indonesia";" 081319009123";"";"";"1.4081582";"99.4218092";"https://maps.google.com/?cid=0x0:0xb9d59df1456583ba";""
"hotel";"hotel";"N/A";"";"";"SUMATERA UTARA";"";"Indonesia";"";"";"";"";"";"https://maps.google.com/?cid=0x0:0x5a0be9e902b55f47%7C/g/11fm_mgqd0%7Cen-ID";""
"hotel";"hotel";"SUPER OYO 2200 Hotel Gunung Sari";"Jl. Imam Bonjol, Rantauprapat, Kec. Rantau Utara, Kab. Labuhanbatu, Sumatera Utara 21411";"Rantauprapat, Kec. Rantau Utara, Kab. Labuhanbatu";"SUMATERA UTARA";"21411";"Indonesia";" 02129707601";"";"";"2.099743";"99.825594";"https://maps.google.com/?cid=0x0:0x5a0be9e902b55f47";""
"hotel";"hotel";"Simarmata Hotel  Cafe";"Perdagangan, Jl. Rajamin Purba, Kabupaten Simalungun, Sumatera Utara 21184";"Jl. Rajamin Purba, Kabupaten Simalungun";"SUMATERA UTARA";"21184";"Indonesia";" 087897968197";"";"";"3.1609207";"99.3145783";"https://maps.google.com/?cid=0x0:0x3bed9071c0e9d507";""
"hotel";"hotel";"Mariana inn Hotel dan Cafe";"Jl. Lintas Sumatra No.km 100, Sei Suka/Deras, Kec. Sei Suka, Kabupaten Batu Bara, Sumatera Utara 21257";"Sei Suka/Deras, Kec. Sei Suka, Kabupaten Batu Bara";"SUMATERA UTARA";"21257";"Indonesia";" 081262300300";"";"";"3.3012057";"99.3448055";"https://maps.google.com/?cid=0x0:0xa5889721ce1f59b4";""
"hotel";"hotel";"Budi Mulia Hotel";"Jl. Kol. TPR Sinaga No.19, Parapat, Kec. Girsang Sipangan Bolon, Kabupaten Simalungun, Sumatera Utara 21174";"Parapat, Kec. Girsang Sipangan Bolon, Kabupaten Simalungun";"SUMATERA UTARA";"21174";"Indonesia";" 085166904208";"";"";"2.6643373";"98.9353334";"https://maps.google.com/?cid=0x0:0xb05e9cd0c9a4fb9e";""
"hotel";"hotel";"Dhaksina Hotel";"Jl. Sisingamangaraja No.20, RT.02/RW.02, Mesjid, Kec. Medan Kota, Kota Medan, Sumatera Utara 20213";"RT.02/RW.02, Mesjid, Kec. Medan Kota, Kota Medan";"SUMATERA UTARA";"20213";"Indonesia";" 0617320000";"";"";"3.5781335";"98.6864112";"https://maps.google.com/?cid=0x0:0x19d68a5c7ad5c8ea";""
"hotel";"hotel";"N/A";"";"";"SUMATERA UTARA";"";"Indonesia";"";"";"";"";"";"https://maps.google.com/?cid=0x0:0x19d68a5c7ad5c8ea%7C/g/1tf91hx5%7Cen-ID";""
"hotel";"hotel";"Hotel Al Marwah";"Jl. Kihajar Dewantara No.99, Bangun Raya, Kec. Barumun, Kabupaten Padang Lawas, Sumatera Utara 22763";"Bangun Raya, Kec. Barumun, Kabupaten Padang Lawas";"SUMATERA UTARA";"22763";"Indonesia";" 0636421999";"";"";"1.0505243";"99.7476122";"https://maps.google.com/?cid=0x0:0xf97a008892e1c4fb";""
"hotel";"hotel";"Ambaroba Hotel";"Jl. Lkr. Tuktuk Kelurahan No.10, Tuktuk Siadong, Simanindo, Kabupaten Samosir, Sumatera Utara 22395";"Tuktuk Siadong, Simanindo, Kabupaten Samosir";"SUMATERA UTARA";"22395";"Indonesia";" 0625451351";"";"";"2.6759489";"98.8570188";"https://maps.google.com/?cid=0x0:0x3e188d26fcafdbac";""
"hotel";"hotel";"Marroan 2, Penginapan View Danau";"Jl. Lkr. Tuktuk, Tuktuk Siadong, Simanindo, Kabupaten Samosir, Sumatera Utara 22395";"Tuktuk Siadong, Simanindo, Kabupaten Samosir";"SUMATERA UTARA";"22395";"Indonesia";"";"";"";"2.6723051";"98.860334";"https://maps.google.com/?cid=0x0:0x2e109a5befb22a22";""
"hotel";"Rumah wisata";"Rumah Rizky Marbau";"Marbau, Kec. Marbau, Kabupaten Labuhanbatu Utara, Sumatera Utara 21452";"Kec. Marbau, Kabupaten Labuhanbatu Utara";"SUMATERA UTARA";"21452";"Indonesia";"";"";"";"2.266589";"99.8349041";"https://maps.google.com/?cid=0x0:0xebdce22ef0c48824";""
"hotel";"hotel";"Sumatera Utara 21454";"Kec. Na IX-X, Kabupaten Labuhanbatu Utara, Sumatera Utara";"Kabupaten Labuhanbatu Utara, Sumatera Utara";"SUMATERA UTARA";"";"Indonesia";"";"";"";"2.1532664";"99.6786894";"https://maps.google.com/?cid=0x0:0xa1d048494249269a";""
"hotel";"hotel";"Permata Land Hotel  Resort";"Jl. Jend. Ahmad Yani No.133, Kartini, Kec. Rantau Utara, Kab. Labuhanbatu, Sumatera Utara 21411";"Kartini, Kec. Rantau Utara, Kab. Labuhanbatu";"SUMATERA UTARA";"21411";"Indonesia";" 082364407500";"";"";"2.0966402";"99.8336415";"https://maps.google.com/?cid=0x0:0x6ef11848e2651023";""
"hotel";"hotel";"N/A";"";"";"SUMATERA UTARA";"";"Indonesia";"";"";"";"";"";"https://maps.google.com/?cid=0x0:0x6ef11848e2651023%7C/g/1pzsncsbx%7Cen-ID";""
"hotel";"hotel";"AHZA SYARIAH guest house";"Jl. Syukur, Kartini, Kec. Rantau Utara, Kab. Labuhanbatu, Sumatera Utara 21411";"Kartini, Kec. Rantau Utara, Kab. Labuhanbatu";"SUMATERA UTARA";"21411";"Indonesia";" 082169177040";"";"";"2.0975822";"99.8362281";"https://maps.google.com/?cid=0x0:0x9044beb33c26e24a";""
"hotel";"hotel";"Green House";"Jl. Cemara Jl. Padang Matinggi No.122, Rantauprapat, Kec. Rantau Utara, Kab. Labuhanbatu, Sumatera Utara 21411";"Rantauprapat, Kec. Rantau Utara, Kab. Labuhanbatu";"SUMATERA UTARA";"21411";"Indonesia";" 0895417300072";"";"";"2.1117495";"99.8297782";"https://maps.google.com/?cid=0x0:0x12a508a05eb9d767";""
"hotel";"hotel";"N/A";"";"";"SUMATERA UTARA";"";"Indonesia";"";"";"";"";"";"https://maps.google.com/?cid=0x0:0x12a508a05eb9d767%7C/g/11n8p52dpj%7Cen-ID";""
"hotel";"hotel";"RedDoorz Syariah @ Wisma Kampung Baru Rantauprapat";"Kartini, Jl. Kp. Baru No.18, Rantauprapat, Kec. Rantau Utara, Kab. Labuhanbatu, Sumatera Utara 21411";"Jl. Kp. Baru No.18, Rantauprapat, Kec. Rantau Utara, Kab. Labuhanbatu";"SUMATERA UTARA";"21411";"Indonesia";" 0895417300072";"";"";"2.0980906";"99.8375611";"https://maps.google.com/?cid=0x0:0xd1d574404e9a8ca7";""
"hotel";"hotel";"N/A";"";"";"SUMATERA UTARA";"";"Indonesia";"";"";"";"";"";"https://maps.google.com/?cid=0x0:0xd1d574404e9a8ca7%7C/g/11j4f_2fsk%7Cen-ID";""
"hotel";"hotel";"Platinum Hotel Rantauprapat";"Jl. Jend. Ahmad Yani No.28, Bakaran Batu, Kec. Rantau Sel., Kab. Labuhanbatu, Sumatera Utara 21411";"Bakaran Batu, Kec. Rantau Sel., Kab. Labuhanbatu";"SUMATERA UTARA";"21411";"Indonesia";" 085262971383";"";"";"2.090235";"99.8419876";"https://maps.google.com/?cid=0x0:0x960596cea42e5129";""
"hotel";"hotel";"RedDoorz Syariah @ RPCC Rantauprapat";"Jl. Ika Bina No.6 AB, Rantauprapat, Kec. Rantau Sel., Kab. Labuhanbatu, Sumatera Utara 21411";"Rantauprapat, Kec. Rantau Sel., Kab. Labuhanbatu";"SUMATERA UTARA";"21411";"Indonesia";" 0895417300072";"";"";"2.0970135";"99.8411899";"https://maps.google.com/?cid=0x0:0x45cbbf2c49f19c98";""
"hotel";"hotel";"D'Homestay Rantauprapat";"Jalan Ikabina, AB Jl. Kp. Baru No.6, Rantauprapat, Sumatera Utara 21412";"AB Jl. Kp. Baru No.6, Rantauprapat";"SUMATERA UTARA";"21412";"Indonesia";" 085361912474";"";"";"2.0971282";"99.8414255";"https://maps.google.com/?cid=0x0:0x9cd8fb3d69957bf2";""
"hotel";"hotel";"Hotel Istana IX";"Kota Pinang, Kec. Kota Pinang, Kab. Labuhanbatu Selatan, Sumatera Utara 21464";"Kec. Kota Pinang, Kab. Labuhanbatu Selatan";"SUMATERA UTARA";"21464";"Indonesia";" 081160600991";"";"";"1.896335";"100.0767925";"https://maps.google.com/?cid=0x0:0x3a9bdcb8f1ec40af";""
"hotel";"hotel";"SUPER OYO 2200 Hotel Gunung Sari";"Jl. Imam Bonjol, Rantauprapat, Kec. Rantau Utara, Kab. Labuhanbatu, Sumatera Utara 21411";"Rantauprapat, Kec. Rantau Utara, Kab. Labuhanbatu";"SUMATERA UTARA";"21411";"Indonesia";" 02129707601";"";"";"2.099743";"99.825594";"https://maps.google.com/?cid=0x0:0x5a0be9e902b55f47";""
"hotel";"hotel";"N/A";"";"";"SUMATERA UTARA";"";"Indonesia";"";"";"";"";"";"https://maps.google.com/?cid=0x0:0x5a0be9e902b55f47%7C/g/11fm_mgqd0%7Cen-ID";""
"hotel";"hotel";"NUANSA HOTEL";"Jl. SM. Raja No.15, Rantauprapat, Kec. Rantau Sel., Kab. Labuhanbatu, Sumatera Utara 22727";"Rantauprapat, Kec. Rantau Sel., Kab. Labuhanbatu";"SUMATERA UTARA";"22727";"Indonesia";" 085296901661";"";"";"2.0908764";"99.8424088";"https://maps.google.com/?cid=0x0:0x18316a4db5c6bca2";""
"hotel";"hotel";"Wisma Niagara";"3RXH+7RP, Gg. Diponegoro, Rantauprapat, Kec. Rantau Utara, Kab. Labuhanbatu, Sumatera Utara 21411";"Gg. Diponegoro, Rantauprapat, Kec. Rantau Utara, Kab. Labuhanbatu";"SUMATERA UTARA";"21411";"Indonesia";" 085270075588";"";"";"2.0982249";"99.8295769";"https://maps.google.com/?cid=0x0:0xb87f5f1641142715";""
"hotel";"hotel";"Hotel Cahaya Baru";"9PV2+PJC, Bandar Durian, Kec. Aek Natas, Kabupaten Labuhanbatu Utara, Sumatera Utara 21455";"Bandar Durian, Kec. Aek Natas, Kabupaten Labuhanbatu Utara";"SUMATERA UTARA";"21455";"Indonesia";" 082366883304";"";"";"2.3943004";"99.701522";"https://maps.google.com/?cid=0x0:0xa02a390c094baa5f";""
"hotel";"hotel";"Wisma Merlin";"Jl. Bilah No.1 A, Rantauprapat, Kec. Rantau Utara, Kab. Labuhanbatu, Sumatera Utara 21411";"Rantauprapat, Kec. Rantau Utara, Kab. Labuhanbatu";"SUMATERA UTARA";"21411";"Indonesia";" 085360213333";"";"";"2.0997687";"99.8291799";"https://maps.google.com/?cid=0x0:0x1d2b4fe83db58d52";""
"hotel";"hotel";"OYO 92748 Hotel Tepian Batang Hari";"4G8W+42X, Jl. Lintas Sumatra, Poldung, Kec. Aek Natas, Sumatera Utara, 35363";"Jl. Lintas Sumatra, Poldung, Kec. Aek Natas";"SUMATERA UTARA";"35363";"Indonesia";" 082174980897";"";"";"2.115354";"99.545097";"https://maps.google.com/?cid=0x0:0x227b22d2b0d9861a";""
"hotel";"hotel";"Wisma Putri Deli Hotel";"Rantau Prapat, Jl. SM. Raja No.65, Bakaran Batu, Kec. Rantau Sel., Kab. Labuhanbatu, Sumatera Utara 21411";"Jl. SM. Raja No.65, Bakaran Batu, Kec. Rantau Sel., Kab. Labuhanbatu";"SUMATERA UTARA";"21411";"Indonesia";" 062423188";"";"";"2.0890182";"99.8454004";"https://maps.google.com/?cid=0x0:0xc897e471a165a6e6";""
"hotel";"hotel";"wisma sunshine";"Jl. Urip Sumodiharjo, Bina Raga, Kec. Rantau Utara, Kab. Labuhanbatu, Sumatera Utara 21411";"Bina Raga, Kec. Rantau Utara, Kab. Labuhanbatu";"SUMATERA UTARA";"21411";"Indonesia";" 02129707601";"";"";"2.0972734";"99.826607";"https://maps.google.com/?cid=0x0:0xd9604aa1acdf1fae";""
"hotel";"hotel";"Hotel JSN ULOS";"Jl. Jenderal Sudirman No.12, Aek Kanopan Tim., Kec. Kualuh Hulu, Kabupaten Labuhanbatu Utara, Sumatera Utara 21273";"Aek Kanopan Tim., Kec. Kualuh Hulu, Kabupaten Labuhanbatu Utara";"SUMATERA UTARA";"21273";"Indonesia";"";"";"";"2.5775751";"99.6526209";"https://maps.google.com/?cid=0x0:0xb9d59a623b1548a";""
"hotel";"hotel";"Hotel Ajiziah";"Jl. Lintas Sumatra No.16, Damuli Pekan, Kec. Kualuh Sel., Kabupaten Labuhanbatu Utara, Sumatera Utara 21457";"Damuli Pekan, Kec. Kualuh Sel., Kabupaten Labuhanbatu Utara";"SUMATERA UTARA";"21457";"Indonesia";" 081374040007";"";"";"2.5069981";"99.6337277";"https://maps.google.com/?cid=0x0:0x6ebf63839f857f4e";""
"hotel";"hotel";"Ryfana Syariah Residance  Kost";"Jl. Kp. Baru Jl. Kuntum Bumi, Sioldengan, Kec. Rantau Sel., Kab. Labuhanbatu, Sumatera Utara 21411";"Sioldengan, Kec. Rantau Sel., Kab. Labuhanbatu";"SUMATERA UTARA";"21411";"Indonesia";" 081265718994";"";"";"2.0985171";"99.8376728";"https://maps.google.com/?cid=0x0:0x9dc2682812004c4c";""
"hotel";"hotel";"Hotel 211";"MW8V+RQM, Pardamean Ajibata, Kec. Ajibata, Toba, Sumatera Utara 21174";"Pardamean Ajibata, Kec. Ajibata, Toba";"SUMATERA UTARA";"21174";"Indonesia";" 08170084128";"";"";"2.6670883";"98.9444301";"https://maps.google.com/?cid=0x0:0xb8cf7b883ac4990d";""
"hotel";"hotel";"RedDoorz @ MCLOS Syariah Guest House Rantau Perapat";"3RXP+2FQ, Kartini, Kec. Rantau Utara, Kab. Labuhanbatu, Sumatera Utara 21411";"Kartini, Kec. Rantau Utara, Kab. Labuhanbatu";"SUMATERA UTARA";"21411";"Indonesia";" 0895417300072";"";"";"2.0975625";"99.8361875";"https://maps.google.com/?cid=0x0:0xbcf83be0bb2ac771";""
"restaurant";"restaurant";"Kec. Aek Kuo";"Kabupaten Labuhanbatu Utara, Sumatera Utara";"Kabupaten Labuhanbatu Utara, Sumatera Utara";"SUMATERA UTARA";"";"Indonesia";"";"";"";"2.3161726";"99.8203062";"https://maps.google.com/?cid=0x0:0x4039d80b220d250";""
"restaurant";"Toko umum";"Warung Ibuk Evi";"9QG7+MXW, Purworejo, Kec. Aek Kuo, Kabupaten Labuhanbatu Utara, Sumatera Utara 21455";"Purworejo, Kec. Aek Kuo, Kabupaten Labuhanbatu Utara";"SUMATERA UTARA";"21455";"Indonesia";"";"";"";"2.3767252";"99.7649474";"https://maps.google.com/?cid=0x0:0x835a775f98543a66";""
"restaurant";"Makanan Kecil";"Sabena Dapoer Mamak";"Dusun 2 Aek Marbatu, Gang Setia, Kp. Pajak, Kabupaten Labuhanbatu Utara, Sumatera Utara 21454";"Gang Setia, Kp. Pajak, Kabupaten Labuhanbatu Utara";"SUMATERA UTARA";"21454";"Indonesia";" 085275294865";"";"";"2.3144787";"99.7407796";"https://maps.google.com/?cid=0x0:0x4e1009426644f7b8";""
"restaurant";"Restoran";"Dapur Queeni";"perumahan mulia indah Gang Suluk, Kp. Pajak, Kec. Na IX-X, Kabupaten Labuhanbatu Utara, Sumatera Utara 21454";"Kp. Pajak, Kec. Na IX-X, Kabupaten Labuhanbatu Utara";"SUMATERA UTARA";"21454";"Indonesia";" 08116747850";"";"";"2.3004525";"99.7453752";"https://maps.google.com/?cid=0x0:0x753e46e062b5660e";""
"restaurant";"Restoran";"Warung miso samin";"8R7C+8GH, Perkebunan Panigoran, Kec. Aek Kuo, Kabupaten Labuhanbatu Utara, Sumatera Utara 21455";"Perkebunan Panigoran, Kec. Aek Kuo, Kabupaten Labuhanbatu Utara";"SUMATERA UTARA";"21455";"Indonesia";"";"";"";"2.3133044";"99.8213558";"https://maps.google.com/?cid=0x0:0xfc39de270a442704";""
"restaurant";"Ikan Bakar";"Ikan Bakar Pamingke";"8PMP+88C, Pangkalan, Kec. Aek Natas, Kabupaten Labuhanbatu Utara, Sumatera Utara 21455";"Pangkalan, Kec. Aek Natas, Kabupaten Labuhanbatu Utara";"SUMATERA UTARA";"21455";"Indonesia";" 081263286590";"";"";"2.33332";"99.735755";"https://maps.google.com/?cid=0x0:0xddac8bfbe4a82646";""
"restaurant";"Restoran";"Miso mamak aditya";"9QG7+P39, Unnamed Road, Purworejo, Kec. Aek Kuo, Kabupaten Labuhanbatu Utara, Sumatera Utara 21455";"Unnamed Road, Purworejo, Kec. Aek Kuo, Kabupaten Labuhanbatu Utara";"SUMATERA UTARA";"21455";"Indonesia";" 082385966312";"";"";"2.3767782";"99.7627482";"https://maps.google.com/?cid=0x0:0x4c0cb047898ea9e1";""
"restaurant";"restaurant";"Warung buk gini";"8R6R+X65, Pondok 8, Kec. Aek Kuo, Kabupaten Labuhanbatu Utara, Sumatera Utara 21455";"Pondok 8, Kec. Aek Kuo, Kabupaten Labuhanbatu Utara";"SUMATERA UTARA";"21455";"Indonesia";"";"";"";"2.3129093";"99.8404806";"https://maps.google.com/?cid=0x0:0xec6343de85e6e3f7";""
"restaurant";"Toko Makanan Sehat";"Warung Mak Tito";"8R79+XR6, Jl. Besar Sidomulyo, Perkebunan Panigoran, Kec. Aek Kuo, Kabupaten Labuhanbatu Utara, Sumatera Utara 21455";"Jl. Besar Sidomulyo, Perkebunan Panigoran, Kec. Aek Kuo, Kabupaten Labuhanbatu Utara";"SUMATERA UTARA";"21455";"Indonesia";"";"";"";"2.3142868";"99.8188205";"https://maps.google.com/?cid=0x0:0xa04bcebd65b13df7";""
"restaurant";"Indonesia";"Warung Mbak Jum";"8PVG+4WV, Unnamed Road, Pangkalan, Kec. Aek Natas, Kabupaten Labuhanbatu Utara, Sumatera Utara 21455";"Unnamed Road, Pangkalan, Kec. Aek Natas, Kabupaten Labuhanbatu Utara";"SUMATERA UTARA";"21455";"Indonesia";"";"";"";"2.3428686";"99.7272885";"https://maps.google.com/?cid=0x0:0x11d9551d21896353";""
"restaurant";"Masakan Asia";"Rm.Lidya";"7RCW+H2J, Jl. Besar Simpang Empat, Perkebunan Brussel, Kec. Marbau, Kabupaten Labuhanbatu Utara, Sumatera Utara 21452";"Jl. Besar Simpang Empat, Perkebunan Brussel, Kec. Marbau, Kabupaten Labuhanbatu Utara";"SUMATERA UTARA";"21452";"Indonesia";" 082277864922";"";"";"2.2714704";"99.8450218";"https://maps.google.com/?cid=0x0:0x47da9ffdf76142bc";""
"restaurant";"Sarapan";"KEDAI SARAPAN PAGI BUKLEK TATIK/ROMO";"8R6R+XG9, Perk. Padang Halaban, Sidomulyo, Kec. Aek Kuo, Kabupaten Labuhanbatu Utara, Sumatera Utara 21455";"Perk. Padang Halaban, Sidomulyo, Kec. Aek Kuo, Kabupaten Labuhanbatu Utara";"SUMATERA UTARA";"21455";"Indonesia";" 081264476088";"";"";"2.3124241";"99.8413563";"https://maps.google.com/?cid=0x0:0x8856bca806e499da";""
"restaurant";"Dapur Umum";"Bon Appetit Cafe and Resto";"Jl. Lintas Sumatra No.245, Aek Kanopan Tim., Kec. Kualuh Hulu, Kabupaten Labuhanbatu Utara, Sumatera Utara 21457";"Aek Kanopan Tim., Kec. Kualuh Hulu, Kabupaten Labuhanbatu Utara";"SUMATERA UTARA";"21457";"Indonesia";" 081262451819";"";"";"2.5812216";"99.6566038";"https://maps.google.com/?cid=0x0:0x8fb79bdf397e1cc8";""
"restaurant";"Bakso";"Bakso Wulandari 2";"Jl. Padang Maninjau Dusun 10, Padang Maninjau, Kec. Aek Kuo, Kabupaten Labuhanbatu Utara, Sumatera Utara 21455";"Padang Maninjau, Kec. Aek Kuo, Kabupaten Labuhanbatu Utara";"SUMATERA UTARA";"21455";"Indonesia";" 085361308330";"";"";"2.3241864";"99.7755438";"https://maps.google.com/?cid=0x0:0x798db1d9eaa6cab";""
"restaurant";"Bakso";"Baksoarema";"8P3R+55Q, Kp. Pajak, Kec. Na IX-X, Kabupaten Labuhanbatu Utara, Sumatera Utara 21455";"Kp. Pajak, Kec. Na IX-X, Kabupaten Labuhanbatu Utara";"SUMATERA UTARA";"21455";"Indonesia";" 081362531507";"";"";"2.3029515";"99.7404782";"https://maps.google.com/?cid=0x0:0xf1b61188cd17ba8a";""
"restaurant";"restaurant";"Rumah buk sun";"8Q88+428, Padang Maninjau, Kec. Aek Kuo, Kabupaten Labuhanbatu Utara, Sumatera Utara 21455";"Padang Maninjau, Kec. Aek Kuo, Kabupaten Labuhanbatu Utara";"SUMATERA UTARA";"21455";"Indonesia";"";"";"";"2.3152855";"99.7650804";"https://maps.google.com/?cid=0x0:0x2ec5dd013f5048ca";""
"restaurant";"Padang";"Rumah Makan Putra Padang";"7QM4+VM8, Aek Kota Batu, Kec. Na IX-X, Kabupaten Labuhanbatu Utara, Sumatera Utara 21454";"Aek Kota Batu, Kec. Na IX-X, Kabupaten Labuhanbatu Utara";"SUMATERA UTARA";"21454";"Indonesia";" 081260272778";"";"";"2.2846579";"99.7567016";"https://maps.google.com/?cid=0x0:0x975fc07c040b4a2c";""
"restaurant";"Bakso";"Warung bakso suii";"8P5W+QGQ, Jl. Padang Maninjau, Pulo Jantan, Kec. Aek Kuo, Kabupaten Labuhanbatu Utara, Sumatera Utara 21455";"Jl. Padang Maninjau, Pulo Jantan, Kec. Aek Kuo, Kabupaten Labuhanbatu Utara";"SUMATERA UTARA";"21455";"Indonesia";"";"";"";"2.3094641";"99.7463496";"https://maps.google.com/?cid=0x0:0x331df3515fd2ce71";""
"restaurant";"Rumah Makan";"Rumah Makan Putri Tunggal";"7QJ6+923, Aek Kota Batu, Kec. Na IX-X, Kabupaten Labuhanbatu Utara, Sumatera Utara";"Kabupaten Labuhanbatu Utara, Sumatera Utara";"SUMATERA UTARA";"";"Indonesia";" 082161284141";"";"";"2.2808786";"99.7600326";"https://maps.google.com/?cid=0x0:0x5e6ee0b8e2fd9546";""
"restaurant";"Kedai Kopi";"JOGJA FOOD Cafe  Resto";"7PWX+34H, Pulo Jantan, Kec. Na IX-X, Kabupaten Labuhanbatu Utara, Sumatera Utara 21455";"Pulo Jantan, Kec. Na IX-X, Kabupaten Labuhanbatu Utara";"SUMATERA UTARA";"21455";"Indonesia";" 082276718900";"";"";"2.2951922";"99.747863";"https://maps.google.com/?cid=0x0:0xb3744ed7bbf18d27";""
"restaurant";"Ayam";"Ayam Geprek Bu Mimi";"8R6R+X65, Pondok 7, Kec. Aek Kuo, Kabupaten Labuhanbatu Utara, Sumatera Utara 21455";"Pondok 7, Kec. Aek Kuo, Kabupaten Labuhanbatu Utara";"SUMATERA UTARA";"21455";"Indonesia";" 085261619510";"";"";"2.3123961";"99.8405939";"https://maps.google.com/?cid=0x0:0xb7e95207f50ca256";""
"restaurant";"Restoran";"Rumah pak awal";"8V4F+9R, Aek Hitetoras, Kec. Marbau, Kabupaten Labuhanbatu Utara, Sumatera Utara 21455";"Aek Hitetoras, Kec. Marbau, Kabupaten Labuhanbatu Utara";"SUMATERA UTARA";"21455";"Indonesia";"";"";"";"2.3064869";"99.8745723";"https://maps.google.com/?cid=0x0:0xfe31488126373820";""
"restaurant";"Kafe";"Warung wati miso kampung";"8P6P+V8J, Pulo Jantan, Kec. Na IX-X, Kabupaten Labuhanbatu Utara, Sumatera Utara 21455";"Pulo Jantan, Kec. Na IX-X, Kabupaten Labuhanbatu Utara";"SUMATERA UTARA";"21455";"Indonesia";"";"";"";"2.3122014";"99.7357669";"https://maps.google.com/?cid=0x0:0xb21032b906f3ce43";""
"restaurant";"Restoran";"Warung mie show Budi Anduk";"8QPM+X5R, Purworejo, Kec. Aek Kuo, Kabupaten Labuhanbatu Utara, Sumatera Utara 21455";"Purworejo, Kec. Aek Kuo, Kabupaten Labuhanbatu Utara";"SUMATERA UTARA";"21455";"Indonesia";"";"";"";"2.3374966";"99.7829031";"https://maps.google.com/?cid=0x0:0xd9d0334bcc34f23c";""
"restaurant";"Kedai Kopi";"Rumah pentong";"8R6C+2M5, Unnamed Road, Perkebunan Panigoran, Kec. Aek Kuo, Kabupaten Labuhanbatu Utara, Sumatera Utara 21455";"Unnamed Road, Perkebunan Panigoran, Kec. Aek Kuo, Kabupaten Labuhanbatu Utara";"SUMATERA UTARA";"21455";"Indonesia";"";"";"";"2.3100043";"99.8217456";"https://maps.google.com/?cid=0x0:0x94c61960d6dfd0bc";""
"restaurant";"Toko Makanan Sehat";"Mak Srik Kuliner";"Depan Pertamina, Aek Kota Batu, Kec. Na IX-X, Kabupaten Labuhanbatu Utara, Sumatera Utara 21454";"Aek Kota Batu, Kec. Na IX-X, Kabupaten Labuhanbatu Utara";"SUMATERA UTARA";"21454";"Indonesia";" 081360125697";"";"";"2.2838235";"99.7577232";"https://maps.google.com/?cid=0x0:0x3436413a180b6d1f";""
"restaurant";"restaurant";"Sumatera Utara 21455";"Kabupaten Labuhanbatu Utara, Sumatera Utara";"Kabupaten Labuhanbatu Utara, Sumatera Utara";"SUMATERA UTARA";"";"Indonesia";"";"";"";"2.1543963";"99.5006143";"https://maps.google.com/?cid=0x0:0x391266e2c2e7c92";""
"restaurant";"Padang";"RM Sudi Mampir";"CM3V+648, Bandar Durian, Kec. Aek Natas, Kabupaten Labuhanbatu Utara, Sumatera Utara 21455";"Bandar Durian, Kec. Aek Natas, Kabupaten Labuhanbatu Utara";"SUMATERA UTARA";"21455";"Indonesia";"";"";"";"2.4030489";"99.6928322";"https://maps.google.com/?cid=0x0:0x31eeaae77b0e97e8";""
"restaurant";"Padang";"RM.SINAR HARAPAN MINANG";"9PQ4+J3Q, Unnamed Road, Bandar Durian, Kec. Aek Natas, Kabupaten Labuhanbatu Utara, Sumatera Utara 21455";"Unnamed Road, Bandar Durian, Kec. Aek Natas, Kabupaten Labuhanbatu Utara";"SUMATERA UTARA";"21455";"Indonesia";"";"";"";"2.3890785";"99.7052361";"https://maps.google.com/?cid=0x0:0x69f78b10ae28cc75";""
"restaurant";"Padang";"RM NITA";"CM7M+PV8, Bandar Durian, Kec. Aek Natas, Kabupaten Labuhanbatu Utara, Sumatera Utara 21457";"Bandar Durian, Kec. Aek Natas, Kabupaten Labuhanbatu Utara";"SUMATERA UTARA";"21457";"Indonesia";"";"";"";"2.4143";"99.6847084";"https://maps.google.com/?cid=0x0:0x75a0d8a1d3a07d7d";""
"restaurant";"Padang";"RM.KA'ITA";"CM2W+988, Bandar Durian, Kec. Aek Natas, Kabupaten Labuhanbatu Utara, Sumatera Utara 21455";"Bandar Durian, Kec. Aek Natas, Kabupaten Labuhanbatu Utara";"SUMATERA UTARA";"21455";"Indonesia";"";"";"";"2.4009145";"99.6958262";"https://maps.google.com/?cid=0x0:0x8950188efd9ca46c";""
"restaurant";"Makanan Kecil";"Sabena Dapoer Mamak";"Dusun 2 Aek Marbatu, Gang Setia, Kp. Pajak, Kabupaten Labuhanbatu Utara, Sumatera Utara 21454";"Gang Setia, Kp. Pajak, Kabupaten Labuhanbatu Utara";"SUMATERA UTARA";"21454";"Indonesia";" 085275294865";"";"";"2.3144787";"99.7407796";"https://maps.google.com/?cid=0x0:0x4e1009426644f7b8";""
"restaurant";"Restoran";"Miso Bu Muase";"CP6X+VWF, Unnamed Road, Pangkalan, Kec. Aek Natas, Kabupaten Labuhanbatu Utara, Sumatera Utara 21455";"Unnamed Road, Pangkalan, Kec. Aek Natas, Kabupaten Labuhanbatu Utara";"SUMATERA UTARA";"21455";"Indonesia";"";"";"";"2.4121949";"99.7497909";"https://maps.google.com/?cid=0x0:0x9946b3ec32c2a26a";""
"restaurant";"Padang";"Rumah Makan Khas Minang Surya Minang";"CM2V+RQP, Bandar Durian, Kec. Aek Natas, Kabupaten Labuhanbatu Utara, Sumatera Utara 21455";"Bandar Durian, Kec. Aek Natas, Kabupaten Labuhanbatu Utara";"SUMATERA UTARA";"21455";"Indonesia";"";"";"";"2.4020795";"99.6944502";"https://maps.google.com/?cid=0x0:0xa7ba75caff6f453a";""
"restaurant";"Ikan Bakar";"Ikan Bakar Pamingke";"8PMP+88C, Pangkalan, Kec. Aek Natas, Kabupaten Labuhanbatu Utara, Sumatera Utara 21455";"Pangkalan, Kec. Aek Natas, Kabupaten Labuhanbatu Utara";"SUMATERA UTARA";"21455";"Indonesia";" 081263286590";"";"";"2.33332";"99.735755";"https://maps.google.com/?cid=0x0:0xddac8bfbe4a82646";""
"restaurant";"Tujuan Wisata";"Turunan Jaugan Simonis";"Simonis, Kec. Aek Natas, Kabupaten Labuhanbatu Utara, Sumatera Utara 21455";"Kec. Aek Natas, Kabupaten Labuhanbatu Utara";"SUMATERA UTARA";"21455";"Indonesia";"";"";"";"2.2918583";"99.636919";"https://maps.google.com/?cid=0x0:0x529312ec09bc5c4";""
"restaurant";"restaurant";"Sehken Cafe (Hotel Kalang Ulu)";"Kearah Berastagi resort / vihara dharma shanti, Jl. Mimpin Tua No.98, desa Sempajaya peceren, berastagi, Karo, Sumatera Utara 22152";"Jl. Mimpin Tua No.98, desa Sempajaya peceren, berastagi, Karo";"SUMATERA UTARA";"22152";"Indonesia";" 085225481162";"";"";"2.1166463";"99.5449662";"https://maps.google.com/?cid=0x0:0xe8eeda68c1e5dac3";""
"restaurant";"Padang";"RM.Rampah Indah";"9MWX+HV6, Bandar Durian, Kec. Aek Natas, Kabupaten Labuhanbatu Utara, Sumatera Utara 21455";"Bandar Durian, Kec. Aek Natas, Kabupaten Labuhanbatu Utara";"SUMATERA UTARA";"21455";"Indonesia";"";"";"";"2.39641";"99.6996533";"https://maps.google.com/?cid=0x0:0x5d2a97a1815cefd";""
"restaurant";"Indonesia";"Warung Mbak Jum";"8PVG+4WV, Unnamed Road, Pangkalan, Kec. Aek Natas, Kabupaten Labuhanbatu Utara, Sumatera Utara 21455";"Unnamed Road, Pangkalan, Kec. Aek Natas, Kabupaten Labuhanbatu Utara";"SUMATERA UTARA";"21455";"Indonesia";"";"";"";"2.3428686";"99.7272885";"https://maps.google.com/?cid=0x0:0x11d9551d21896353";""
"restaurant";"restaurant";"restoran mak kembar";"8PWC+J4X, Jalan Bandar Durian, Bandar Durian, Kec. Aek Natas, Kabupaten Labuhanbatu Utara, Sumatera Utara 21455";"Jalan Bandar Durian, Bandar Durian, Kec. Aek Natas, Kabupaten Labuhanbatu Utara";"SUMATERA UTARA";"21455";"Indonesia";"";"";"";"2.3466092";"99.7203624";"https://maps.google.com/?cid=0x0:0x9730119a8d09bd61";""
"restaurant";"Kafe";"Warung Bg Sonang";"7M84+564, Meranti Omas, Kec. Na IX-X, Kabupaten Labuhanbatu Utara, Sumatera Utara 21455";"Meranti Omas, Kec. Na IX-X, Kabupaten Labuhanbatu Utara";"SUMATERA UTARA";"21455";"Indonesia";" 082370340308";"";"";"2.2653977";"99.655584";"https://maps.google.com/?cid=0x0:0xe07067c5e566d769";""
"restaurant";"Padang";"RM SARUNAI MINANG";"8PWC+Q39, Bandar Durian, Kec. Aek Natas, Kabupaten Labuhanbatu Utara, Sumatera Utara 21455";"Bandar Durian, Kec. Aek Natas, Kabupaten Labuhanbatu Utara";"SUMATERA UTARA";"21455";"Indonesia";"";"";"";"2.346907";"99.7202463";"https://maps.google.com/?cid=0x0:0x3ad6922fe762ed93";""
"restaurant";"Restoran";"Samuki";"7JWW+3PX, Simonis, Kec. Aek Natas, Kabupaten Labuhanbatu Utara, Sumatera Utara 21455";"Simonis, Kec. Aek Natas, Kabupaten Labuhanbatu Utara";"SUMATERA UTARA";"21455";"Indonesia";"";"";"";"2.2952428";"99.6468695";"https://maps.google.com/?cid=0x0:0x6226704920e21b64";""
"restaurant";"Dapur Umum";"Hoka Burger  Kebab";"Jl. Lintas Sumatra No.16, Bandar Durian, Kec. Aek Natas, Kabupaten Labuhanbatu Utara, Sumatera Utara 21455";"Bandar Durian, Kec. Aek Natas, Kabupaten Labuhanbatu Utara";"SUMATERA UTARA";"21455";"Indonesia";" 082274044354";"";"";"2.3524337";"99.7157134";"https://maps.google.com/?cid=0x0:0x78ed8da574da9269";""
"restaurant";"Padang";"RM BUK ERNA";"CM2W+38W, Bandar Durian, Kec. Aek Natas, Kabupaten Labuhanbatu Utara, Sumatera Utara 21455";"Bandar Durian, Kec. Aek Natas, Kabupaten Labuhanbatu Utara";"SUMATERA UTARA";"21455";"Indonesia";" 081263238406";"";"";"2.4002325";"99.6958344";"https://maps.google.com/?cid=0x0:0xdc78bf494a205657";""
"restaurant";"Indonesia";"Warung Mbak Ayu";"Simonis, Kec. Aek Natas, Kabupaten Labuhanbatu Utara, Sumatera Utara 21455";"Kec. Aek Natas, Kabupaten Labuhanbatu Utara";"SUMATERA UTARA";"21455";"Indonesia";"";"";"";"2.2933178";"99.6402806";"https://maps.google.com/?cid=0x0:0x291e551f41c14046";""
"restaurant";"Dapur Umum";"Bon Appetit Cafe and Resto";"Jl. Lintas Sumatra No.245, Aek Kanopan Tim., Kec. Kualuh Hulu, Kabupaten Labuhanbatu Utara, Sumatera Utara 21457";"Aek Kanopan Tim., Kec. Kualuh Hulu, Kabupaten Labuhanbatu Utara";"SUMATERA UTARA";"21457";"Indonesia";" 081262451819";"";"";"2.5812216";"99.6566038";"https://maps.google.com/?cid=0x0:0x8fb79bdf397e1cc8";""
"restaurant";"Padang";"RM WAK ENON";"CM7M+WWH, Bandar Durian, Kec. Aek Natas, Kabupaten Labuhanbatu Utara, Sumatera Utara 21457";"Bandar Durian, Kec. Aek Natas, Kabupaten Labuhanbatu Utara";"SUMATERA UTARA";"21457";"Indonesia";"";"";"";"2.4148103";"99.6848448";"https://maps.google.com/?cid=0x0:0xdd1be64f4c23a683";""
"restaurant";"Indonesia";"Kabupaten labuhan batu utara, aek natas,kolam blok 2";"8PQH+77, Pangkalan, Kec. Aek Natas, Kabupaten Labuhanbatu Utara, Sumatera Utara";"Kabupaten Labuhanbatu Utara, Sumatera Utara";"SUMATERA UTARA";"";"Indonesia";"";"";"";"2.338133";"99.72817";"https://maps.google.com/?cid=0x0:0x929c7425cdba22a5";""
"restaurant";"Bakso";"RM MAKAN SM";"8P8M+M27, Bangun Rejo, Kec. Na IX-X, Kabupaten Labuhanbatu Utara, Sumatera Utara 21455";"Bangun Rejo, Kec. Na IX-X, Kabupaten Labuhanbatu Utara";"SUMATERA UTARA";"21455";"Indonesia";"";"";"";"2.3166737";"99.7325476";"https://maps.google.com/?cid=0x0:0x6afab5889e437d95";""
"restaurant";"Indonesia";"Warung Tuk Tuk Mbak Lilik";"9P57+V23, Unnamed Road, Bandar Durian, Kec. Aek Natas, Kabupaten Labuhanbatu Utara, Sumatera Utara 21455";"Unnamed Road, Bandar Durian, Kec. Aek Natas, Kabupaten Labuhanbatu Utara";"SUMATERA UTARA";"21455";"Indonesia";"";"";"";"2.3596418";"99.7125605";"https://maps.google.com/?cid=0x0:0x4ac325ce2d9348dc";""
"restaurant";"Jawa";"Warung miso WA'O";"CQ62+RQ9, Unnamed Road, Pangkalan, Kec. Aek Natas, Kabupaten Labuhanbatu Utara, Sumatera Utara 21455";"Unnamed Road, Pangkalan, Kec. Aek Natas, Kabupaten Labuhanbatu Utara";"SUMATERA UTARA";"21455";"Indonesia";"";"";"";"2.4120268";"99.7519923";"https://maps.google.com/?cid=0x0:0xd3bd356ae284e2b2";""
"restaurant";"restaurant";"Sumatera Utara 21474";"Kec. Kualuh Hilir, Kabupaten Labuhanbatu Utara, Sumatera Utara";"Kabupaten Labuhanbatu Utara, Sumatera Utara";"SUMATERA UTARA";"";"Indonesia";"";"";"";"2.5204832";"100.0135929";"https://maps.google.com/?cid=0x0:0x556108f16bd7ca29";""
"restaurant";"Brunch";"Cafe ling-ling";"SMK negeri 1, Sungai Sentang, Kec. Kualuh Hilir, Kabupaten Labuhanbatu Utara, Sumatera Utara 21474";"Sungai Sentang, Kec. Kualuh Hilir, Kabupaten Labuhanbatu Utara";"SUMATERA UTARA";"21474";"Indonesia";" 081260053126";"";"";"2.534698";"100.0224718";"https://maps.google.com/?cid=0x0:0xfc8339cff1ba459a";""
"restaurant";"Kedai Kopi";"LESEHAN BERSAMA MAS YOGA";"Unnamed Road, Kuala Bangka, Kec. Kualuh Hilir, Kabupaten Labuhanbatu Utara, Sumatera Utara 21474";"Kuala Bangka, Kec. Kualuh Hilir, Kabupaten Labuhanbatu Utara";"SUMATERA UTARA";"21474";"Indonesia";" 082363630335";"";"";"2.4968046";"99.9433056";"https://maps.google.com/?cid=0x0:0x6a1670f8ee06c083";""
"restaurant";"Restoran";"Bakso Medan";"Jl. Ahmad Yani, Kp. Mesjid, Kec. Kualuh Hilir, Kabupaten Labuhanbatu Utara, Sumatera Utara 21474";"Kp. Mesjid, Kec. Kualuh Hilir, Kabupaten Labuhanbatu Utara";"SUMATERA UTARA";"21474";"Indonesia";" 081370049396";"";"";"2.5824115";"100.0137103";"https://maps.google.com/?cid=0x0:0x6794b1ffa4a87d2e";""
"restaurant";"Toko umum";"Sei sentang";"G294+VP, Sungai Sentang, Kec. Kualuh Hilir, Kabupaten Labuhanbatu Utara, Sumatera Utara 21474";"Sungai Sentang, Kec. Kualuh Hilir, Kabupaten Labuhanbatu Utara";"SUMATERA UTARA";"21474";"Indonesia";"";"";"";"2.5196875";"100.0068125";"https://maps.google.com/?cid=0x0:0x8ae9f655e36da77b";""
"restaurant";"Restoran";"Warung makan pratama";"HX6P+H9, Sungai Sentang, Kec. Kualuh Hilir, Kabupaten Labuhanbatu Utara, Sumatera Utara 21474";"Sungai Sentang, Kec. Kualuh Hilir, Kabupaten Labuhanbatu Utara";"SUMATERA UTARA";"21474";"Indonesia";"";"";"";"2.5607897";"99.9848419";"https://maps.google.com/?cid=0x0:0xc633b288558cf356";""
"restaurant";"Makanan Kecil";"Rumah Makan Dwi";"J3M7+H76, Tj. Mangedar, Kec. Kualuh Hilir, Kabupaten Labuhanbatu Utara, Sumatera Utara 21473";"Tj. Mangedar, Kec. Kualuh Hilir, Kabupaten Labuhanbatu Utara";"SUMATERA UTARA";"21473";"Indonesia";"";"";"";"2.6339237";"100.0631373";"https://maps.google.com/?cid=0x0:0xb0f78c007290d09e";""
"restaurant";"Rumah Makan";"Rm Bang Jojo";"Kampung Jawa, Kuala Bangka, Kec. Kualuh Hilir, Kabupaten Labuhanbatu Utara, Sumatera Utara 21474";"Kuala Bangka, Kec. Kualuh Hilir, Kabupaten Labuhanbatu Utara";"SUMATERA UTARA";"21474";"Indonesia";" 085217179880";"";"";"2.508034";"99.950612";"https://maps.google.com/?cid=0x0:0x9a3141ca5670ad54";""
"restaurant";"Makanan Kecil";"Warung sukur";"H27V+W92, Kp. Mesjid, Kec. Kualuh Hilir, Kabupaten Labuhanbatu Utara, Sumatera Utara";"Kabupaten Labuhanbatu Utara, Sumatera Utara";"SUMATERA UTARA";"";"Indonesia";" 085233112736";"";"";"2.5647517";"100.04338";"https://maps.google.com/?cid=0x0:0xc81e3eb5c1348a98";""
"restaurant";"Kedai Kopi";"RZK caffe";"GX52+42F, Kuala Bangka, Kec. Kualuh Hilir, Kabupaten Labuhanbatu Utara, Sumatera Utara 21474";"Kuala Bangka, Kec. Kualuh Hilir, Kabupaten Labuhanbatu Utara";"SUMATERA UTARA";"21474";"Indonesia";" 082361345679";"";"";"2.5077976";"99.9500225";"https://maps.google.com/?cid=0x0:0xc5dce37fef5c4c58";""
"restaurant";"Taman";"Teluk Pulai";"MW7X+HJC, Unnamed Road, Teluk Pulai Dalam, Kualuh Leidong, North Labuhan Batu Regency, North Sumatra 21475";"Unnamed Road, Teluk Pulai Dalam, Kualuh Leidong, North Labuhan Batu Regency";"SUMATERA UTARA";"21475";"Indonesia";"";"";"";"2.6639458";"99.9490103";"https://maps.google.com/?cid=0x0:0xbafbf28b891be101";""
"restaurant";"Rumah Makan";"WarungMakanDwi";"J333+73Q, Tlk. Piai, Kec. Kualuh Hilir, Kabupaten Labuhanbatu Utara, Sumatera Utara 21474";"Tlk. Piai, Kec. Kualuh Hilir, Kabupaten Labuhanbatu Utara";"SUMATERA UTARA";"21474";"Indonesia";" 081277161203";"";"";"2.6032119";"100.0527498";"https://maps.google.com/?cid=0x0:0xb782f8e6ac6383aa";""
"restaurant";"Sarapan";"Warkop Mak Ira";"H2P7+9VF, Kp. Mesjid, Kec. Kualuh Hilir, Kabupaten Labuhanbatu Utara, Sumatera Utara 21474";"Kp. Mesjid, Kec. Kualuh Hilir, Kabupaten Labuhanbatu Utara";"SUMATERA UTARA";"21474";"Indonesia";"";"";"";"2.5859434";"100.0146723";"https://maps.google.com/?cid=0x0:0x142a257cc5d4f356";""
"restaurant";"Toko bahan makanan";"Tamren sitorus";"GW4P+XHJ, Kuala Bangka, Kec. Kualuh Hilir, Kabupaten Labuhanbatu Utara, Sumatera Utara";"Kabupaten Labuhanbatu Utara, Sumatera Utara";"SUMATERA UTARA";"";"Indonesia";"";"";"";"2.5056862";"99.9365586";"https://maps.google.com/?cid=0x0:0x4c7686b9a1f9a980";""
"restaurant";"Makanan Kecil";"Warung buk srik";"M2PH+6V, Tj. Mangedar, Kec. Kualuh Hilir, Kabupaten Labuhanbatu Utara, Sumatera Utara 21474";"Tj. Mangedar, Kec. Kualuh Hilir, Kabupaten Labuhanbatu Utara";"SUMATERA UTARA";"21474";"Indonesia";"";"";"";"2.6855885";"100.0297111";"https://maps.google.com/?cid=0x0:0x5d4e0720ec032787";""
"restaurant";"China";"RM Zahira (Khas Kualuh)";"Jl. Lintas Sumatra Membang Muda, RW.Afdiling 1, Aek Kanopan, Kec. Kualuh Hulu, Kabupaten Labuhanbatu Utara, Sumatera Utara 21457";"RW.Afdiling 1, Aek Kanopan, Kec. Kualuh Hulu, Kabupaten Labuhanbatu Utara";"SUMATERA UTARA";"21457";"Indonesia";" 085359484442";"";"";"2.5368703";"99.6600639";"https://maps.google.com/?cid=0x0:0xbaae050555735a16";""
"restaurant";"Kafe";"Warung Bg Tanjung";"H255+GPF, Sungai Sentang, Kec. Kualuh Hilir, Kabupaten Labuhanbatu Utara, Sumatera Utara 21474";"Sungai Sentang, Kec. Kualuh Hilir, Kabupaten Labuhanbatu Utara";"SUMATERA UTARA";"21474";"Indonesia";" 082163956265";"";"";"2.5588216";"100.0092996";"https://maps.google.com/?cid=0x0:0x9987a4404f06619a";""
"restaurant";"Rumah Makan";"Warung RR";"J3M7+H76, Tj. Mangedar, Kec. Kualuh Hilir, Kabupaten Labuhanbatu Utara, Sumatera Utara 21473";"Tj. Mangedar, Kec. Kualuh Hilir, Kabupaten Labuhanbatu Utara";"SUMATERA UTARA";"21473";"Indonesia";"";"";"";"2.6340826";"100.0630262";"https://maps.google.com/?cid=0x0:0x1e26aeca653c4927";""
"restaurant";"Sarapan";"Warung Sarapan Shakila Nst";"H2M7+97R SPSI, Jalan Tangkahan, Kp. Mesjid, Kec. Kualuh Hilir, Kabupaten Labuhanbatu Utara, Sumatera Utara";"Kabupaten Labuhanbatu Utara, Sumatera Utara";"SUMATERA UTARA";"";"Indonesia";" 082164392528";"";"";"2.5834893";"100.0131513";"https://maps.google.com/?cid=0x0:0x6465b430358ec256";""
"restaurant";"Sarapan";"Rumah makan mamak";"J25F+66J, Sungai Apung, Kec. Kualuh Hilir, Kabupaten Labuhanbatu Utara, Sumatera Utara";"Kabupaten Labuhanbatu Utara, Sumatera Utara";"SUMATERA UTARA";"";"Indonesia";"";"";"";"2.6080866";"100.023001";"https://maps.google.com/?cid=0x0:0x5e034ea4eaa50270";""
"restaurant";"Kedai Kopi";"kedai kopi mak.markus";"M2MG+5GP, Tj. Mangedar, Kec. Kualuh Hilir, Kabupaten Labuhanbatu Utara, Sumatera Utara 21474";"Tj. Mangedar, Kec. Kualuh Hilir, Kabupaten Labuhanbatu Utara";"SUMATERA UTARA";"21474";"Indonesia";" 085261951859";"";"";"2.682969";"100.0263306";"https://maps.google.com/?cid=0x0:0x29f7c76a757ace90";""
"restaurant";"Kedai Kopi";"WARUNG AGUS BANDREK TsT . jadi kan lah rasa syukur lebih dari segala nya.";"GX52+C78, Kuala Bangka, Kec. Kualuh Hilir, Kabupaten Labuhanbatu Utara, Sumatera Utara 21474";"Kuala Bangka, Kec. Kualuh Hilir, Kabupaten Labuhanbatu Utara";"SUMATERA UTARA";"21474";"Indonesia";"";"";"";"2.5085261";"99.9507052";"https://maps.google.com/?cid=0x0:0xcb73a30e288912fc";""
"restaurant";"Restoran";"Warung Bang Roma";"GW7X+433, Unnamed Road, Kuala Bangka, Kec. Kualuh Hilir, Kabupaten Labuhanbatu Utara, Sumatera Utara 21474";"Unnamed Road, Kuala Bangka, Kec. Kualuh Hilir, Kabupaten Labuhanbatu Utara";"SUMATERA UTARA";"21474";"Indonesia";" 081212500161";"";"";"2.5127522";"99.9476782";"https://maps.google.com/?cid=0x0:0xe73e88c2fd6b080a";""
"restaurant";"Kafe";"Warung Bang Jambang";"HX8W+8RV, Sungai Sentang, Kec. Kualuh Hilir, Kabupaten Labuhanbatu Utara, Sumatera Utara 21474";"Sungai Sentang, Kec. Kualuh Hilir, Kabupaten Labuhanbatu Utara";"SUMATERA UTARA";"21474";"Indonesia";"";"";"";"2.5658698";"99.9970453";"https://maps.google.com/?cid=0x0:0x4ac91b67526b3194";""
"restaurant";"restaurant";"Sumatera Utara 21457";"Kec. Kualuh Sel., Kabupaten Labuhanbatu Utara, Sumatera Utara";"Kabupaten Labuhanbatu Utara, Sumatera Utara";"SUMATERA UTARA";"";"Indonesia";"";"";"";"2.4644513";"99.6786894";"https://maps.google.com/?cid=0x0:0xbeeda126e9c5dc9c";""
"restaurant";"Kedai Kopi";"RM F1000";"Jl. Lintas Sumatra No.16, Damuli Pekan, Kec. Kualuh Sel., Kabupaten Labuhanbatu Utara, Sumatera Utara 21457";"Damuli Pekan, Kec. Kualuh Sel., Kabupaten Labuhanbatu Utara";"SUMATERA UTARA";"21457";"Indonesia";"";"";"";"2.5012476";"99.6301323";"https://maps.google.com/?cid=0x0:0x998819426345fd5f";""
"restaurant";"Perhimpunan Pengembang Perumahan";"Rumah Makan Batak Sinar Toba";"Jl. Lintas Sumatra No.Km.235-236, Gn. Melayu, Kec. Kualuh Sel., Kabupaten Labuhanbatu Utara, Sumatera Utara 21457";"Gn. Melayu, Kec. Kualuh Sel., Kabupaten Labuhanbatu Utara";"SUMATERA UTARA";"21457";"Indonesia";"";"";"";"2.4546732";"99.6544266";"https://maps.google.com/?cid=0x0:0xb37af048292ce119";""
"restaurant";"Restoran";"Keisya Cafe Londut";"Unnamed Road, Perkebunan Londut, Kec. Kualuh Hulu, Kabupaten Labuhanbatu Utara, Sumatera Utara 21457";"Perkebunan Londut, Kec. Kualuh Hulu, Kabupaten Labuhanbatu Utara";"SUMATERA UTARA";"21457";"Indonesia";" 082274283125";"";"";"2.5630959";"99.5501405";"https://maps.google.com/?cid=0x0:0x72102dc32a538fb6";""
"restaurant";"Padang";"Warung Rambat Citro";"GPH4+878, JL Kampung Banjar, Tanjung Pasir, Kualuh Selatan, Labuhan Batu Utara, Gunting Saga, Medan, Kabupaten Labuhanbatu Utara, Sumatera Utara 21457";"JL Kampung Banjar, Tanjung Pasir, Kualuh Selatan, Labuhan Batu Utara, Gunting Saga, Medan, Kabupaten Labuhanbatu Utara";"SUMATERA UTARA";"21457";"Indonesia";" 081260740405";"";"";"2.5282944";"99.7056967";"https://maps.google.com/?cid=0x0:0xc0b2e5afbcd4453";""
"restaurant";"Padang";"Rumah Makan NR";"FJJJ+33X, Perk. Damuli, Kec. Kualuh Sel., Kabupaten Labuhanbatu Utara, Sumatera Utara 21457";"Perk. Damuli, Kec. Kualuh Sel., Kabupaten Labuhanbatu Utara";"SUMATERA UTARA";"21457";"Indonesia";" 085212453652";"";"";"2.4802479";"99.6302445";"https://maps.google.com/?cid=0x0:0x417968c8c2dbde41";""
"restaurant";"China";"RM Zahira (Khas Kualuh)";"Jl. Lintas Sumatra Membang Muda, RW.Afdiling 1, Aek Kanopan, Kec. Kualuh Hulu, Kabupaten Labuhanbatu Utara, Sumatera Utara 21457";"RW.Afdiling 1, Aek Kanopan, Kec. Kualuh Hulu, Kabupaten Labuhanbatu Utara";"SUMATERA UTARA";"21457";"Indonesia";" 085359484442";"";"";"2.5368703";"99.6600639";"https://maps.google.com/?cid=0x0:0xbaae050555735a16";""
"restaurant";"Padang";"Sinar Padang";"GMF3+48P, Sidua Dua, Kec. Kualuh Sel., Kabupaten Labuhanbatu Utara, Sumatera Utara 21457";"Sidua Dua, Kec. Kualuh Sel., Kabupaten Labuhanbatu Utara";"SUMATERA UTARA";"21457";"Indonesia";" 082274451626";"";"";"2.5228381";"99.6533183";"https://maps.google.com/?cid=0x0:0x67996353ed84f294";""
"restaurant";"Restoran";"RM 33 LABURA";"FJ9V+WCP, Jl. Lintas, Damuli Pekan, Kec. Kualuh Sel., Kabupaten Labuhanbatu Utara, Sumatera Utara 21457";"Jl. Lintas, Damuli Pekan, Kec. Kualuh Sel., Kabupaten Labuhanbatu Utara";"SUMATERA UTARA";"21457";"Indonesia";" 085275848643";"";"";"2.4698389";"99.6435684";"https://maps.google.com/?cid=0x0:0x13afd8daf751186b";""
"restaurant";"Padang";"RM. Rifai";"JL Lintas Sumatera, Membang Muda, Afdiling 1, Aek Kanopan, Kec. Kualuh Hulu, Kabupaten Labuhanbatu Utara, Sumatera Utara 21457";"Membang Muda, Afdiling 1, Aek Kanopan, Kec. Kualuh Hulu, Kabupaten Labuhanbatu Utara";"SUMATERA UTARA";"21457";"Indonesia";" 081288655776";"";"";"2.5378254";"99.6602505";"https://maps.google.com/?cid=0x0:0x176424f2fe19a17";""
"restaurant";"Kedai Kopi";"NIK Coffee  Roestery";"Jl. Nusa Indah, Aek Kanopan, Kec. Kualuh Hulu, Kabupaten Labuhanbatu Utara, Sumatera Utara 21457";"Aek Kanopan, Kec. Kualuh Hulu, Kabupaten Labuhanbatu Utara";"SUMATERA UTARA";"21457";"Indonesia";" 081269766376";"";"";"2.5735112";"99.6445325";"https://maps.google.com/?cid=0x0:0xa6aafd37dda87b9b";""
"restaurant";"Dapur Umum";"Warung Nasi Loly";"GMF3+5HM, Sidua Dua, Kec. Kualuh Sel., Kabupaten Labuhanbatu Utara, Sumatera Utara 21457";"Sidua Dua, Kec. Kualuh Sel., Kabupaten Labuhanbatu Utara";"SUMATERA UTARA";"21457";"Indonesia";"";"";"";"2.5229545";"99.6539344";"https://maps.google.com/?cid=0x0:0x333a7a92c8fbb6af";""
"restaurant";"Padang";"RMS Sitorus";"FM24+3J7 rumah makan di dekat, Siamporik, Kec. Kualuh Sel., Kabupaten Labuhanbatu Utara, Sumatera Utara 21457";"Siamporik, Kec. Kualuh Sel., Kabupaten Labuhanbatu Utara";"SUMATERA UTARA";"21457";"Indonesia";" 081375786881";"";"";"2.4501707";"99.6565553";"https://maps.google.com/?cid=0x0:0xd9fe2c9a4c5e49d8";""
"restaurant";"Padang";"OMBAK PADANG";"FJVG+X7M, Jl. Lintas Sumatra, Damuli Pekan, Kec. Kualuh Sel., Kabupaten Labuhanbatu Utara, Sumatera Utara 21457";"Jl. Lintas Sumatra, Damuli Pekan, Kec. Kualuh Sel., Kabupaten Labuhanbatu Utara";"SUMATERA UTARA";"21457";"Indonesia";"";"";"";"2.4949526";"99.6256584";"https://maps.google.com/?cid=0x0:0x1330ae6083bf5a3f";""
"restaurant";"Dapur Umum";"Bon Appetit Cafe and Resto";"Jl. Lintas Sumatra No.245, Aek Kanopan Tim., Kec. Kualuh Hulu, Kabupaten Labuhanbatu Utara, Sumatera Utara 21457";"Aek Kanopan Tim., Kec. Kualuh Hulu, Kabupaten Labuhanbatu Utara";"SUMATERA UTARA";"21457";"Indonesia";" 081262451819";"";"";"2.5812216";"99.6566038";"https://maps.google.com/?cid=0x0:0x8fb79bdf397e1cc8";""
"restaurant";"Rumah Makan";"Ayam Penyet Cindelaras Damuli";"FJJJ+52R, Jl. Lintas Sumatra, Perk. Damuli, Kec. Kualuh Sel., Kabupaten Labuhanbatu Utara, Sumatera Utara 21457";"Jl. Lintas Sumatra, Perk. Damuli, Kec. Kualuh Sel., Kabupaten Labuhanbatu Utara";"SUMATERA UTARA";"21457";"Indonesia";" 081264164023";"";"";"2.4804887";"99.6300168";"https://maps.google.com/?cid=0x0:0x50c77652ee2558af";""
"restaurant";"Kedai Kopi";"DKI Coffee Shop";"Jl. Lintas Sumatra, Perk. Damuli, Kec. Kualuh Sel., Kabupaten Labuhanbatu Utara, Sumatera Utara 21457";"Perk. Damuli, Kec. Kualuh Sel., Kabupaten Labuhanbatu Utara";"SUMATERA UTARA";"21457";"Indonesia";" 083164731088";"";"";"2.4872831";"99.6273289";"https://maps.google.com/?cid=0x0:0x7f160cb99261bebc";""
"restaurant";"Restoran";"RM Pancuran Mas";"CMM8+CWP, Jl. Lintas Sumatra, Siamporik, Kec. Kualuh Sel., Kabupaten Labuhanbatu Utara, Sumatera Utara 21457";"Jl. Lintas Sumatra, Siamporik, Kec. Kualuh Sel., Kabupaten Labuhanbatu Utara";"SUMATERA UTARA";"21457";"Indonesia";" 081362173333";"";"";"2.4335829";"99.6673273";"https://maps.google.com/?cid=0x0:0xecd5789ae3129049";""
"restaurant";"Restoran";"RM.KENARI";"FJCV+P6G, Gn. Melayu, Kec. Kualuh Sel., Kabupaten Labuhanbatu Utara, Sumatera Utara 21457";"Gn. Melayu, Kec. Kualuh Sel., Kabupaten Labuhanbatu Utara";"SUMATERA UTARA";"21457";"Indonesia";" 085370213223";"";"";"2.4718205";"99.6430672";"https://maps.google.com/?cid=0x0:0xd0eac00fba46558f";""
"restaurant";"Restoran";"RM BPS";"FM24+3C3, Jl. Lintas Sumatra, Siamporik, Kec. Kualuh Sel., Kabupaten Labuhanbatu Utara, Sumatera Utara 21457";"Jl. Lintas Sumatra, Siamporik, Kec. Kualuh Sel., Kabupaten Labuhanbatu Utara";"SUMATERA UTARA";"21457";"Indonesia";" 082368116140";"";"";"2.4501438";"99.656059";"https://maps.google.com/?cid=0x0:0x3342ae4b9c751d79";""
"restaurant";"Kedai Kopi";"CK 3 Resto  Coffee";"Jl. Sidorukun, kamp. Terutung no. 44, Aek Kanopan, Kabupaten Labuhanbatu Utara, Sumatera Utara 21457";"kamp. Terutung no. 44, Aek Kanopan, Kabupaten Labuhanbatu Utara";"SUMATERA UTARA";"21457";"Indonesia";" 081396527758";"";"";"2.5777384";"99.644918";"https://maps.google.com/?cid=0x0:0x5dcd6a6490086d64";""
"restaurant";"Padang";"Rumah Makan Sinar Lubuak Padang";"Jl. Lintas Sumatra No.186, Aek Kanopan Tim., Kec. Kualuh Hulu, Kabupaten Labuhanbatu Utara, Sumatera Utara 21273";"Aek Kanopan Tim., Kec. Kualuh Hulu, Kabupaten Labuhanbatu Utara";"SUMATERA UTARA";"21273";"Indonesia";"";"";"";"2.5721335";"99.6532947";"https://maps.google.com/?cid=0x0:0x362acdea2dabb946";""
"restaurant";"Dapur Umum";"Rumah Makan Jaguar";"FJ5W+CM, Gn. Melayu, Kec. Kualuh Sel., Kabupaten Labuhanbatu Utara, Sumatera Utara";"Kabupaten Labuhanbatu Utara, Sumatera Utara";"SUMATERA UTARA";"";"Indonesia";"";"";"";"2.4585672";"99.6467093";"https://maps.google.com/?cid=0x0:0x57b9cc502b1e19bb";""
"restaurant";"Restoran";"MAHASURA NASI UDUK LAMONGAN";"HMH3+667, Jl. Jenderal Sudirman, Aek Kanopan Tim., Kec. Kualuh Hulu, Kabupaten Labuhanbatu Utara, Sumatera Utara 21457";"Jl. Jenderal Sudirman, Aek Kanopan Tim., Kec. Kualuh Hulu, Kabupaten Labuhanbatu Utara";"SUMATERA UTARA";"21457";"Indonesia";"";"";"";"2.5780274";"99.6530617";"https://maps.google.com/?cid=0x0:0x99546817441b9bd6";""
"restaurant";"Kafe";"Warung Kak Ross";"GMM9+G65, Perkebunan Membang Muda, Kec. Kualuh Hulu, Kabupaten Labuhanbatu Utara, Sumatera Utara 21457";"Perkebunan Membang Muda, Kec. Kualuh Hulu, Kabupaten Labuhanbatu Utara";"SUMATERA UTARA";"21457";"Indonesia";"";"";"";"2.5337501";"99.6681031";"https://maps.google.com/?cid=0x0:0x226678c312c0fb92";""
"restaurant";"Sekolah menengah";"SMA Negeri 1 Kualuh Leidong";"QX99+8WM, Tj. Leidong, Kec. Kualuh Leidong, Kabupaten Labuhanbatu Utara, Sumatera Utara 21475";"Tj. Leidong, Kec. Kualuh Leidong, Kabupaten Labuhanbatu Utara";"SUMATERA UTARA";"21475";"Indonesia";"";"";"";"2.7683452";"99.969798";"https://maps.google.com/?cid=0x0:0x54c07c109d70454";""
"restaurant";"Sekolah Menengah Atas";"SMA Negri 1 Kualuh Hilir";"H29P+JC4, pasar bilah, Sungai Sentang, Kec. Kualuh Hilir, Kabupaten Labuhanbatu Utara, Sumatera Utara 21474";"pasar bilah, Sungai Sentang, Kec. Kualuh Hilir, Kabupaten Labuhanbatu Utara";"SUMATERA UTARA";"21474";"Indonesia";"";"";"";"2.5690088";"100.0360922";"https://maps.google.com/?cid=0x0:0x9c7568b7ef52106a";""
"restaurant";"restaurant";"Sumatera Utara 21475";"Kabupaten Labuhanbatu Utara, Sumatera Utara";"Kabupaten Labuhanbatu Utara, Sumatera Utara";"SUMATERA UTARA";"";"Indonesia";"";"";"";"2.6776582";"99.9241575";"https://maps.google.com/?cid=0x0:0x4167985b8fd2cef8";""
"restaurant";"restaurant";"Sumatera Utara 21457";"Kec. Kualuh Sel., Kabupaten Labuhanbatu Utara, Sumatera Utara";"Kabupaten Labuhanbatu Utara, Sumatera Utara";"SUMATERA UTARA";"";"Indonesia";"";"";"";"2.4644513";"99.6786894";"https://maps.google.com/?cid=0x0:0xbeeda126e9c5dc9c";""
"restaurant";"Kedai Kopi";"RM F1000";"Jl. Lintas Sumatra No.16, Damuli Pekan, Kec. Kualuh Sel., Kabupaten Labuhanbatu Utara, Sumatera Utara 21457";"Damuli Pekan, Kec. Kualuh Sel., Kabupaten Labuhanbatu Utara";"SUMATERA UTARA";"21457";"Indonesia";"";"";"";"2.5012476";"99.6301323";"https://maps.google.com/?cid=0x0:0x998819426345fd5f";""
"restaurant";"Restoran";"RM 33 LABURA";"FJ9V+WCP, Jl. Lintas, Damuli Pekan, Kec. Kualuh Sel., Kabupaten Labuhanbatu Utara, Sumatera Utara 21457";"Jl. Lintas, Damuli Pekan, Kec. Kualuh Sel., Kabupaten Labuhanbatu Utara";"SUMATERA UTARA";"21457";"Indonesia";" 085275848643";"";"";"2.4698389";"99.6435684";"https://maps.google.com/?cid=0x0:0x13afd8daf751186b";""
"restaurant";"Ayam Penyet";"RM MAS YADI CV.ADS";"FJGM+WCM, Perk. Damuli, Kec. Kualuh Sel., Kabupaten Labuhanbatu Utara, Sumatera Utara 21457";"Perk. Damuli, Kec. Kualuh Sel., Kabupaten Labuhanbatu Utara";"SUMATERA UTARA";"21457";"Indonesia";"";"";"";"2.4773424";"99.6335429";"https://maps.google.com/?cid=0x0:0xf392d679b12d4626";""
"restaurant";"Padang";"Warung Rambat Citro";"GPH4+878, JL Kampung Banjar, Tanjung Pasir, Kualuh Selatan, Labuhan Batu Utara, Gunting Saga, Medan, Kabupaten Labuhanbatu Utara, Sumatera Utara 21457";"JL Kampung Banjar, Tanjung Pasir, Kualuh Selatan, Labuhan Batu Utara, Gunting Saga, Medan, Kabupaten Labuhanbatu Utara";"SUMATERA UTARA";"21457";"Indonesia";" 081260740405";"";"";"2.5282944";"99.7056967";"https://maps.google.com/?cid=0x0:0xc0b2e5afbcd4453";""
"restaurant";"Rumah Makan";"RM. Pak Gunawan";"GMH6+F2Q, Unnamed Road, Gunting Saga, Kualuh Selatan, North Labuhan Batu Regency, North Sumatra 21457";"Unnamed Road, Gunting Saga, Kualuh Selatan, North Labuhan Batu Regency";"SUMATERA UTARA";"21457";"Indonesia";"";"";"";"2.5287133";"99.6601034";"https://maps.google.com/?cid=0x0:0x9f5224d8d9b81c85";""
"restaurant";"Dapur Umum";"Bon Appetit Cafe and Resto";"Jl. Lintas Sumatra No.245, Aek Kanopan Tim., Kec. Kualuh Hulu, Kabupaten Labuhanbatu Utara, Sumatera Utara 21457";"Aek Kanopan Tim., Kec. Kualuh Hulu, Kabupaten Labuhanbatu Utara";"SUMATERA UTARA";"21457";"Indonesia";" 081262451819";"";"";"2.5812216";"99.6566038";"https://maps.google.com/?cid=0x0:0x8fb79bdf397e1cc8";""
"restaurant";"Padang";"RMS Sitorus";"FM24+3J7 rumah makan di dekat, Siamporik, Kec. Kualuh Sel., Kabupaten Labuhanbatu Utara, Sumatera Utara 21457";"Siamporik, Kec. Kualuh Sel., Kabupaten Labuhanbatu Utara";"SUMATERA UTARA";"21457";"Indonesia";" 081375786881";"";"";"2.4501707";"99.6565553";"https://maps.google.com/?cid=0x0:0xd9fe2c9a4c5e49d8";""
"restaurant";"Padang";"Sinar Padang";"GMF3+48P, Sidua Dua, Kec. Kualuh Sel., Kabupaten Labuhanbatu Utara, Sumatera Utara 21457";"Sidua Dua, Kec. Kualuh Sel., Kabupaten Labuhanbatu Utara";"SUMATERA UTARA";"21457";"Indonesia";" 082274451626";"";"";"2.5228381";"99.6533183";"https://maps.google.com/?cid=0x0:0x67996353ed84f294";""
"restaurant";"Padang";"Rumah Makan NR";"FJJJ+33X, Perk. Damuli, Kec. Kualuh Sel., Kabupaten Labuhanbatu Utara, Sumatera Utara 21457";"Perk. Damuli, Kec. Kualuh Sel., Kabupaten Labuhanbatu Utara";"SUMATERA UTARA";"21457";"Indonesia";" 085212453652";"";"";"2.4802479";"99.6302445";"https://maps.google.com/?cid=0x0:0x417968c8c2dbde41";""
"restaurant";"Restoran";"RM BPS";"FM24+3C3, Jl. Lintas Sumatra, Siamporik, Kec. Kualuh Sel., Kabupaten Labuhanbatu Utara, Sumatera Utara 21457";"Jl. Lintas Sumatra, Siamporik, Kec. Kualuh Sel., Kabupaten Labuhanbatu Utara";"SUMATERA UTARA";"21457";"Indonesia";" 082368116140";"";"";"2.4501438";"99.656059";"https://maps.google.com/?cid=0x0:0x3342ae4b9c751d79";""
"restaurant";"Padang";"Rumah Makan Ara Jaya";"FJCV+F8P, Gn. Melayu, Kec. Kualuh Sel., Kabupaten Labuhanbatu Utara, Sumatera Utara 21457";"Gn. Melayu, Kec. Kualuh Sel., Kabupaten Labuhanbatu Utara";"SUMATERA UTARA";"21457";"Indonesia";" 082387060808";"";"";"2.4712139";"99.6433142";"https://maps.google.com/?cid=0x0:0x1092b254c87e79cc";""
"restaurant";"Restoran";"RM Pancuran Mas";"CMM8+CWP, Jl. Lintas Sumatra, Siamporik, Kec. Kualuh Sel., Kabupaten Labuhanbatu Utara, Sumatera Utara 21457";"Jl. Lintas Sumatra, Siamporik, Kec. Kualuh Sel., Kabupaten Labuhanbatu Utara";"SUMATERA UTARA";"21457";"Indonesia";" 081362173333";"";"";"2.4335829";"99.6673273";"https://maps.google.com/?cid=0x0:0xecd5789ae3129049";""
"restaurant";"Padang";"OMBAK PADANG";"FJVG+X7M, Jl. Lintas Sumatra, Damuli Pekan, Kec. Kualuh Sel., Kabupaten Labuhanbatu Utara, Sumatera Utara 21457";"Jl. Lintas Sumatra, Damuli Pekan, Kec. Kualuh Sel., Kabupaten Labuhanbatu Utara";"SUMATERA UTARA";"21457";"Indonesia";"";"";"";"2.4949526";"99.6256584";"https://maps.google.com/?cid=0x0:0x1330ae6083bf5a3f";""
"restaurant";"Rumah Makan";"Ayam Penyet Cindelaras Damuli";"FJJJ+52R, Jl. Lintas Sumatra, Perk. Damuli, Kec. Kualuh Sel., Kabupaten Labuhanbatu Utara, Sumatera Utara 21457";"Jl. Lintas Sumatra, Perk. Damuli, Kec. Kualuh Sel., Kabupaten Labuhanbatu Utara";"SUMATERA UTARA";"21457";"Indonesia";" 081264164023";"";"";"2.4804887";"99.6300168";"https://maps.google.com/?cid=0x0:0x50c77652ee2558af";""
"restaurant";"Dapur Umum";"Rumah Makan Jaguar";"FJ5W+CM, Gn. Melayu, Kec. Kualuh Sel., Kabupaten Labuhanbatu Utara, Sumatera Utara";"Kabupaten Labuhanbatu Utara, Sumatera Utara";"SUMATERA UTARA";"";"Indonesia";"";"";"";"2.4585672";"99.6467093";"https://maps.google.com/?cid=0x0:0x57b9cc502b1e19bb";""
"restaurant";"Dapur Umum";"Warung Nasi Loly";"GMF3+5HM, Sidua Dua, Kec. Kualuh Sel., Kabupaten Labuhanbatu Utara, Sumatera Utara 21457";"Sidua Dua, Kec. Kualuh Sel., Kabupaten Labuhanbatu Utara";"SUMATERA UTARA";"21457";"Indonesia";"";"";"";"2.5229545";"99.6539344";"https://maps.google.com/?cid=0x0:0x333a7a92c8fbb6af";""
"restaurant";"Restoran";"RM.KENARI";"FJCV+P6G, Gn. Melayu, Kec. Kualuh Sel., Kabupaten Labuhanbatu Utara, Sumatera Utara 21457";"Gn. Melayu, Kec. Kualuh Sel., Kabupaten Labuhanbatu Utara";"SUMATERA UTARA";"21457";"Indonesia";" 085370213223";"";"";"2.4718205";"99.6430672";"https://maps.google.com/?cid=0x0:0xd0eac00fba46558f";""
"restaurant";"Restoran";"RM Abang Adek (A B Try)";"GMH6+F4C, Unnamed Road, Gunting Saga, Kec. Kualuh Sel., Kabupaten Labuhanbatu Utara, Sumatera Utara 21457";"Unnamed Road, Gunting Saga, Kec. Kualuh Sel., Kabupaten Labuhanbatu Utara";"SUMATERA UTARA";"21457";"Indonesia";"";"";"";"2.5286922";"99.6602733";"https://maps.google.com/?cid=0x0:0x73b532f71c0d4961";""
"restaurant";"Kafe";"Rm ambarita";"CMQ7+RC7, Siamporik, Kec. Kualuh Sel., Kabupaten Labuhanbatu Utara, Sumatera Utara";"Kabupaten Labuhanbatu Utara, Sumatera Utara";"SUMATERA UTARA";"";"Indonesia";" 082268993213";"";"";"2.439546";"99.6635418";"https://maps.google.com/?cid=0x0:0xe4b29a03e3444cfb";""
"restaurant";"Rumah Makan";"Rumah Makan Family";"JL Kampung Banjar Lorong 2, Tanjung Pasir, Kualuh Selatan, Labuhan Batu Utara, Gunting Saga, Medan, Kabupaten Labuhanbatu Utara, Sumatera Utara 21457";"Tanjung Pasir, Kualuh Selatan, Labuhan Batu Utara, Gunting Saga, Medan, Kabupaten Labuhanbatu Utara";"SUMATERA UTARA";"21457";"Indonesia";" 081264137170";"";"";"2.529392";"99.7047668";"https://maps.google.com/?cid=0x0:0x24435463c51270dd";""
"restaurant";"Rumah Makan";"RM. Keluarga";"JL Lintas Sumatera, Lingkungan 11 Pekan Timur, Gunting Saga, Kualuh Selatan, Gunting Saga, Aekanopan, Kabupaten Labuhanbatu Utara, Sumatera Utara 21457";"Lingkungan 11 Pekan Timur, Gunting Saga, Kualuh Selatan, Gunting Saga, Aekanopan, Kabupaten Labuhanbatu Utara";"SUMATERA UTARA";"21457";"Indonesia";" 085262855154";"";"";"2.5304311";"99.6611414";"https://maps.google.com/?cid=0x0:0x71a236087bfebcd5";""
"restaurant";"Indonesia";"Warung Bunda Misi";"GPJ3+Q5X, JL Kampung Banjar, Tanjung Pasir, Kualuh Selatan, Labuhan Batu Utara, Gunting Saga, Medan, Kabupaten Labuhanbatu Utara, Sumatera Utara 21457";"JL Kampung Banjar, Tanjung Pasir, Kualuh Selatan, Labuhan Batu Utara, Gunting Saga, Medan, Kabupaten Labuhanbatu Utara";"SUMATERA UTARA";"21457";"Indonesia";" 085370354477";"";"";"2.5319972";"99.7029722";"https://maps.google.com/?cid=0x0:0xa9689518287b8da4";""
"restaurant";"China";"RM Zahira (Khas Kualuh)";"Jl. Lintas Sumatra Membang Muda, RW.Afdiling 1, Aek Kanopan, Kec. Kualuh Hulu, Kabupaten Labuhanbatu Utara, Sumatera Utara 21457";"RW.Afdiling 1, Aek Kanopan, Kec. Kualuh Hulu, Kabupaten Labuhanbatu Utara";"SUMATERA UTARA";"21457";"Indonesia";" 085359484442";"";"";"2.5368703";"99.6600639";"https://maps.google.com/?cid=0x0:0xbaae050555735a16";""
"restaurant";"restaurant";"WARUNG LESEHAN SARASA";"JL.DUSUN 4 PALIA, Gn. Melayu, Kec. Kualuh Sel., Kabupaten Labuhanbatu Utara, Sumatera Utara 21457";"Gn. Melayu, Kec. Kualuh Sel., Kabupaten Labuhanbatu Utara";"SUMATERA UTARA";"21457";"Indonesia";"";"";"";"2.4751419";"99.6399489";"https://maps.google.com/?cid=0x0:0x79cafeeb0695ab85";""
"restaurant";"Restoran";"Rumah Makan Ajo Minang";"7R7J+VFX, Marbau, Kec. Marbau, Kabupaten Labuhanbatu Utara, Sumatera Utara 21452";"Marbau, Kec. Marbau, Kabupaten Labuhanbatu Utara";"SUMATERA UTARA";"21452";"Indonesia";"";"";"";"2.2648486";"99.8312858";"https://maps.google.com/?cid=0x0:0x855fe27f18dc49d2";""
"restaurant";"Kafe";"COC CAFE Simpang Marbau";"Simpang Marbau, Kec. Na IX-X, Kabupaten Labuhanbatu Utara, Sumatera Utara 21454";"Kec. Na IX-X, Kabupaten Labuhanbatu Utara";"SUMATERA UTARA";"21454";"Indonesia";" 082299773616";"";"";"2.2648639";"99.7747978";"https://maps.google.com/?cid=0x0:0xbb5f541b1b1d9593";""
"restaurant";"Masakan Asia";"Rm.Lidya";"7RCW+H2J, Jl. Besar Simpang Empat, Perkebunan Brussel, Kec. Marbau, Kabupaten Labuhanbatu Utara, Sumatera Utara 21452";"Jl. Besar Simpang Empat, Perkebunan Brussel, Kec. Marbau, Kabupaten Labuhanbatu Utara";"SUMATERA UTARA";"21452";"Indonesia";" 082277864922";"";"";"2.2714704";"99.8450218";"https://maps.google.com/?cid=0x0:0x47da9ffdf76142bc";""
"restaurant";"Bakso";"Bakso Isi Mas Gimo";"7R7J+VC5, Jl. Masjid, Marbau, Kec. Marbau, Kabupaten Labuhanbatu Utara, Sumatera Utara 21452";"Jl. Masjid, Marbau, Kec. Marbau, Kabupaten Labuhanbatu Utara";"SUMATERA UTARA";"21452";"Indonesia";"";"";"";"2.2646272";"99.831103";"https://maps.google.com/?cid=0x0:0x44a7edc947a35fe4";""
"restaurant";"Bakso";"SM Cafe  Snack";"7RCV+9R5, Jl. Besar Simpang Empat, Perkebunan Brussel, Kec. Marbau, Kabupaten Labuhanbatu Utara, Sumatera Utara 21452";"Jl. Besar Simpang Empat, Perkebunan Brussel, Kec. Marbau, Kabupaten Labuhanbatu Utara";"SUMATERA UTARA";"21452";"Indonesia";" 082168099678";"";"";"2.2708899";"99.8446006";"https://maps.google.com/?cid=0x0:0xd9c75f47880d8acc";""
"restaurant";"Bakso";"bakso barokah";"7RCX+VR2, Perkebunan Brussel, Kec. Marbau, Kabupaten Labuhanbatu Utara, Sumatera Utara 21452";"Perkebunan Brussel, Kec. Marbau, Kabupaten Labuhanbatu Utara";"SUMATERA UTARA";"21452";"Indonesia";"";"";"";"2.2721295";"99.849523";"https://maps.google.com/?cid=0x0:0x3423198cb0c60823";""
"restaurant";"Restoran";"Warung pondok sederhana";"Dusun 1 Desa Simpang Empat, Marbau, Kec. Marbau, Kabupaten Labuhanbatu Utara, Sumatera Utara 21452";"Marbau, Kec. Marbau, Kabupaten Labuhanbatu Utara";"SUMATERA UTARA";"21452";"Indonesia";" 085264538893";"";"";"2.266813";"99.8346722";"https://maps.google.com/?cid=0x0:0x772b690ef0cdaaa";""
"restaurant";"Steak";"Bos steak cafe";"7RCR+4P7, Jl. Besar Simpang Empat, Perkebunan Brussel, Kec. Marbau, Kabupaten Labuhanbatu Utara, Sumatera Utara 21452";"Jl. Besar Simpang Empat, Perkebunan Brussel, Kec. Marbau, Kabupaten Labuhanbatu Utara";"SUMATERA UTARA";"21452";"Indonesia";"";"";"";"2.2702999";"99.8417858";"https://maps.google.com/?cid=0x0:0x2c83a2e1515b8c14";""
"restaurant";"Restoran";"Warung Joglo";"7Q79+8G3, Simpang Marbau, Kec. Na IX-X, Kabupaten Labuhanbatu Utara, Sumatera Utara 21452";"Simpang Marbau, Kec. Na IX-X, Kabupaten Labuhanbatu Utara";"SUMATERA UTARA";"21452";"Indonesia";" 081263632307";"";"";"2.2632618";"99.768788";"https://maps.google.com/?cid=0x0:0xf63b2b1098c176a6";""
"restaurant";"Bakso";"Warung Bakso Rezasenopati";"6RRC+MFR, Jl. Besar Marbau Sel., Marbau, Kec. Marbau, Kabupaten Labuhanbatu Utara, Sumatera Utara 21452";"Jl. Besar Marbau Sel., Marbau, Kec. Marbau, Kabupaten Labuhanbatu Utara";"SUMATERA UTARA";"21452";"Indonesia";"";"";"";"2.2417418";"99.8211393";"https://maps.google.com/?cid=0x0:0xe1055a5563f23213";""
"restaurant";"Nasi";"warung mas supri";"7RCW+M7H, Simpang Empat, Kec. Marbau, Kabupaten Labuhanbatu Utara, Sumatera Utara";"Kabupaten Labuhanbatu Utara, Sumatera Utara";"SUMATERA UTARA";"";"Indonesia";"";"";"";"2.2716852";"99.8457298";"https://maps.google.com/?cid=0x0:0x5c0de1626a934645";""
"restaurant";"Bakso";"Bakso Tiara";"7R9R+C73, Perkebunan Brussel, Kec. Marbau, Kabupaten Labuhanbatu Utara, Sumatera Utara 21452";"Perkebunan Brussel, Kec. Marbau, Kabupaten Labuhanbatu Utara";"SUMATERA UTARA";"21452";"Indonesia";"";"";"";"2.2685047";"99.8406729";"https://maps.google.com/?cid=0x0:0x80265417b51b0653";""
"restaurant";"Kafe";"Family Zus";"7R7H+6WF, Jl. Besar, Marbau, Kec. Marbau, Kabupaten Labuhanbatu Utara, Sumatera Utara 21452";"Jl. Besar, Marbau, Kec. Marbau, Kabupaten Labuhanbatu Utara";"SUMATERA UTARA";"21452";"Indonesia";" 081265383445";"";"";"2.2630665";"99.8297973";"https://maps.google.com/?cid=0x0:0x688aefca674310bd";""
"restaurant";"Bakso";"Bakso Bakar";"7RCV+GQV, Perkebunan Brussel, Kec. Marbau, Kabupaten Labuhanbatu Utara, Sumatera Utara 21452";"Perkebunan Brussel, Kec. Marbau, Kabupaten Labuhanbatu Utara";"SUMATERA UTARA";"21452";"Indonesia";" 081260091400";"";"";"2.2713516";"99.8444373";"https://maps.google.com/?cid=0x0:0xbb737f9b0b100b9e";""
"restaurant";"Padang";"RM AMPERA";"7Q79+3V9, Desa, Simpang Marbau, Kec. Na IX-X, Kabupaten Labuhanbatu Utara, Sumatera Utara 21454";"Desa, Simpang Marbau, Kec. Na IX-X, Kabupaten Labuhanbatu Utara";"SUMATERA UTARA";"21454";"Indonesia";"";"";"";"2.2626672";"99.7697209";"https://maps.google.com/?cid=0x0:0x5cd5f69103ac3090";""
"restaurant";"Sate";"sate madura melati";"Unnamed Road, Belongkut 5K, Bulungihit, Kec. Marbau, Kabupaten Labuhanbatu Utara, Sumatera Utara 21452";"Belongkut 5K, Bulungihit, Kec. Marbau, Kabupaten Labuhanbatu Utara";"SUMATERA UTARA";"21452";"Indonesia";" 085359246099";"";"";"2.2664741";"99.8828593";"https://maps.google.com/?cid=0x0:0xb56c3c38cd82fef1";""
"restaurant";"restaurant";"Bermula Kuliner Dimsum Boba Marbau";"Jl. Lintas Sumatra, Kp. Pajak, Kec. Na IX-X, Kabupaten Labuhanbatu Utara, Sumatera Utara 21452";"Kp. Pajak, Kec. Na IX-X, Kabupaten Labuhanbatu Utara";"SUMATERA UTARA";"21452";"Indonesia";"";"";"";"2.2634419";"99.7685761";"https://maps.google.com/?cid=0x0:0xe497e73715f1cffb";""
"restaurant";"restaurant";"Rm melayu";"6RMH+VMQ, Marbau, Kec. Marbau, Kabupaten Labuhanbatu Utara, Sumatera Utara 21452";"Marbau, Kec. Marbau, Kabupaten Labuhanbatu Utara";"SUMATERA UTARA";"21452";"Indonesia";"";"";"";"2.2347056";"99.8292338";"https://maps.google.com/?cid=0x0:0x26d2efd50832c9";""
"restaurant";"Restoran";"Warung Bg gembul";"7V2V+MC4, Tubiran, Kec. Marbau, Kabupaten Labuhanbatu Utara, Sumatera Utara 21452";"Tubiran, Kec. Marbau, Kabupaten Labuhanbatu Utara";"SUMATERA UTARA";"21452";"Indonesia";" 082277864922";"";"";"2.2516386";"99.8935744";"https://maps.google.com/?cid=0x0:0x652e007e308f4e71";""
"restaurant";"Kedai Kopi";"Wan's Coffee";"6RMH+6G4, Marbau, Kec. Marbau, Kabupaten Labuhanbatu Utara, Sumatera Utara 21452";"Marbau, Kec. Marbau, Kabupaten Labuhanbatu Utara";"SUMATERA UTARA";"21452";"Indonesia";"";"";"";"2.2330078";"99.8288128";"https://maps.google.com/?cid=0x0:0x598c33e206171148";""
"restaurant";"Rumah Makan";"Warung Wak Ben";"7W22+M3P, Dusun IV Sipare pareTengan, Tubiran, Kec. Marbau, Kabupaten Labuhanbatu Utara, Sumatera Utara 21452";"Dusun IV Sipare pareTengan, Tubiran, Kec. Marbau, Kabupaten Labuhanbatu Utara";"SUMATERA UTARA";"21452";"Indonesia";"";"";"";"2.2517054";"99.9001988";"https://maps.google.com/?cid=0x0:0xbf7144e743e72509";""
"restaurant";"Makanan Kecil";"MY DIMSUM";"7R7J+Q95, Jl. Masjid, Marbau, Kec. Marbau, Kabupaten Labuhanbatu Utara, Sumatera Utara 21452";"Jl. Masjid, Marbau, Kec. Marbau, Kabupaten Labuhanbatu Utara";"SUMATERA UTARA";"21452";"Indonesia";"";"";"";"2.2643997";"99.8309937";"https://maps.google.com/?cid=0x0:0x3f8f4bcc9d9a8008";""
"restaurant";"Bakso";"MM Cafe";"6R8G+P6J, Babussalam, Kec. Marbau, Kabupaten Labuhanbatu Utara, Sumatera Utara 21452";"Babussalam, Kec. Marbau, Kabupaten Labuhanbatu Utara";"SUMATERA UTARA";"21452";"Indonesia";"";"";"";"2.216846";"99.825513";"https://maps.google.com/?cid=0x0:0x45a4df7c795aa93d";""
"restaurant";"Dapur Umum";"Raja Kebab  Burger cabang Merbau";"Jl. Besar, Simpang Empat, Kec. Marbau, Kabupaten Labuhanbatu Utara, Sumatera Utara 21452";"Simpang Empat, Kec. Marbau, Kabupaten Labuhanbatu Utara";"SUMATERA UTARA";"21452";"Indonesia";" 081375525100";"";"";"2.2702312";"99.8412619";"https://maps.google.com/?cid=0x0:0x73cd913b08458d71";""
"restaurant";"Kedai Kopi";"Mie Aceh Mardiah";"7R6C+H3W, Marbau, Kec. Marbau, Kabupaten Labuhanbatu Utara, Sumatera Utara 21452";"Marbau, Kec. Marbau, Kabupaten Labuhanbatu Utara";"SUMATERA UTARA";"21452";"Indonesia";"";"";"";"2.2614908";"99.820217";"https://maps.google.com/?cid=0x0:0xf55d859a79966f33";""
"restaurant";"Rumah Makan";"Warung Podomoro";"7V4R+492, Jl. sipare - pare tengah, Tubiran, Kec. Marbau, Kabupaten Labuhanbatu Utara, Sumatera Utara 21452";"Jl. sipare - pare tengah, Tubiran, Kec. Marbau, Kabupaten Labuhanbatu Utara";"SUMATERA UTARA";"21452";"Indonesia";" 081360740081";"";"";"2.2552586";"99.8908751";"https://maps.google.com/?cid=0x0:0x714184dc1b58257e";""
"restaurant";"Bakso";"Bunda cafe Bakso mercon";"Jl. Besar Marbau Sel., Marbau, Kec. Marbau, Kabupaten Labuhanbatu Utara, Sumatera Utara 21452";"Marbau, Kec. Marbau, Kabupaten Labuhanbatu Utara";"SUMATERA UTARA";"21452";"Indonesia";" 082363288092";"";"";"2.2368827";"99.8247744";"https://maps.google.com/?cid=0x0:0xb65acbfd942b06e0";""
"restaurant";"Kafe";"BATU SATU CAFE (BSC)";"Jl. Sisingamangaraja, Simpang Empat, Kec. Marbau, Kabupaten Labuhanbatu Utara, Sumatera Utara 21452";"Simpang Empat, Kec. Marbau, Kabupaten Labuhanbatu Utara";"SUMATERA UTARA";"21452";"Indonesia";"";"";"";"2.2585939";"99.8117225";"https://maps.google.com/?cid=0x0:0x786b7b98fafa1807";""
"restaurant";"Dapur Umum";"WAROENG AYAM GEPREK NENEK";"6RPG+P2H, Jl. Besar Marbau Sel., Marbau, Kec. Marbau, Kabupaten Labuhanbatu Utara, Sumatera Utara 21452";"Jl. Besar Marbau Sel., Marbau, Kec. Marbau, Kabupaten Labuhanbatu Utara";"SUMATERA UTARA";"21452";"Indonesia";" 081362420285";"";"";"2.2368049";"99.8251207";"https://maps.google.com/?cid=0x0:0x1ca6ae2726f329cd";""
"restaurant";"restaurant";"Sumatera Utara 21454";"Kec. Na IX-X, Kabupaten Labuhanbatu Utara, Sumatera Utara";"Kabupaten Labuhanbatu Utara, Sumatera Utara";"SUMATERA UTARA";"";"Indonesia";"";"";"";"2.1532664";"99.6786894";"https://maps.google.com/?cid=0x0:0xa1d048494249269a";""
"restaurant";"Kafe";"Cafe AY";"Jalan kota raja depan kantor samsat, Pulo Jantan, Kec. Na IX-X, Kabupaten Labuhanbatu Utara, Sumatera Utara 21454";"Pulo Jantan, Kec. Na IX-X, Kabupaten Labuhanbatu Utara";"SUMATERA UTARA";"21454";"Indonesia";" 082224146951";"";"";"2.2963129";"99.7454593";"https://maps.google.com/?cid=0x0:0x225bf30437192814";""
"restaurant";"Kafe";"HIGHWAY CAFE AND KITCHEN";"Pulo Jantan, Kec. Na IX-X, Kabupaten Labuhanbatu Utara, Sumatera Utara";"Kabupaten Labuhanbatu Utara, Sumatera Utara";"SUMATERA UTARA";"";"Indonesia";" 083136423530";"";"";"2.2975158";"99.7435227";"https://maps.google.com/?cid=0x0:0x531c4741e57d7730";""
"restaurant";"Kafe";"Warung Bg Sonang";"7M84+564, Meranti Omas, Kec. Na IX-X, Kabupaten Labuhanbatu Utara, Sumatera Utara 21455";"Meranti Omas, Kec. Na IX-X, Kabupaten Labuhanbatu Utara";"SUMATERA UTARA";"21455";"Indonesia";" 082370340308";"";"";"2.2653977";"99.655584";"https://maps.google.com/?cid=0x0:0xe07067c5e566d769";""
"restaurant";"Restoran";"Dapur Queeni";"perumahan mulia indah Gang Suluk, Kp. Pajak, Kec. Na IX-X, Kabupaten Labuhanbatu Utara, Sumatera Utara 21454";"Kp. Pajak, Kec. Na IX-X, Kabupaten Labuhanbatu Utara";"SUMATERA UTARA";"21454";"Indonesia";" 08116747850";"";"";"2.3004525";"99.7453752";"https://maps.google.com/?cid=0x0:0x753e46e062b5660e";""
"restaurant";"Ayam Penyet";"Light caffe  resto";"AH25, Simpang Marbau, Kp. Pajak, Kec. Na IX-X, Kabupaten Labuhanbatu Utara, Sumatera Utara 21452";"Simpang Marbau, Kp. Pajak, Kec. Na IX-X, Kabupaten Labuhanbatu Utara";"SUMATERA UTARA";"21452";"Indonesia";"";"";"";"2.2648295";"99.7671781";"https://maps.google.com/?cid=0x0:0xaebe000891c912eb";""
"restaurant";"Padang";"RM AMPERA";"7Q79+3V9, Desa, Simpang Marbau, Kec. Na IX-X, Kabupaten Labuhanbatu Utara, Sumatera Utara 21454";"Desa, Simpang Marbau, Kec. Na IX-X, Kabupaten Labuhanbatu Utara";"SUMATERA UTARA";"21454";"Indonesia";"";"";"";"2.2626672";"99.7697209";"https://maps.google.com/?cid=0x0:0x5cd5f69103ac3090";""
"restaurant";"Bakso";"Baksoarema";"8P3R+55Q, Kp. Pajak, Kec. Na IX-X, Kabupaten Labuhanbatu Utara, Sumatera Utara 21455";"Kp. Pajak, Kec. Na IX-X, Kabupaten Labuhanbatu Utara";"SUMATERA UTARA";"21455";"Indonesia";" 081362531507";"";"";"2.3029515";"99.7404782";"https://maps.google.com/?cid=0x0:0xf1b61188cd17ba8a";""
"restaurant";"Jawa";"Rumah Makan Yanti";"7Q87+VH3 aek, simpang, Emplasmen Aek Nabara, Na IX-X, North Labuhan Batu Regency, North Sumatra 21454";"simpang, Emplasmen Aek Nabara, Na IX-X, North Labuhan Batu Regency";"SUMATERA UTARA";"21454";"Indonesia";"";"";"";"2.2671381";"99.7639154";"https://maps.google.com/?cid=0x0:0x7678010990633123";""
"restaurant";"Nasi Uduk";"Warung Penyet Maulana";"7QR2+X4V Sumatera, Jl. Lintas Sumatra, Pulo Jantan, Kec. Na IX-X, Kabupaten Labuhanbatu Utara, Sumatera Utara 21454";"Jl. Lintas Sumatra, Pulo Jantan, Kec. Na IX-X, Kabupaten Labuhanbatu Utara";"SUMATERA UTARA";"21454";"Indonesia";" 082260006480";"";"";"2.2924947";"99.7503026";"https://maps.google.com/?cid=0x0:0xbc142aff057f626c";""
"restaurant";"Rumah Makan";"Rumah Makan Putri Tunggal";"7QJ6+923, Aek Kota Batu, Kec. Na IX-X, Kabupaten Labuhanbatu Utara, Sumatera Utara";"Kabupaten Labuhanbatu Utara, Sumatera Utara";"SUMATERA UTARA";"";"Indonesia";" 082161284141";"";"";"2.2808786";"99.7600326";"https://maps.google.com/?cid=0x0:0x5e6ee0b8e2fd9546";""
"restaurant";"Padang";"Rumah Makan Lina Supriani";"7QM5+7CV, Aek Kota Batu, Kec. Na IX-X, Kabupaten Labuhanbatu Utara, Sumatera Utara 21452";"Aek Kota Batu, Kec. Na IX-X, Kabupaten Labuhanbatu Utara";"SUMATERA UTARA";"21452";"Indonesia";" 081362243467";"";"";"2.283226";"99.7585463";"https://maps.google.com/?cid=0x0:0xf8dd7689cbc9a2ce";""
"restaurant";"Bakso";"RM MAKAN SM";"8P8M+M27, Bangun Rejo, Kec. Na IX-X, Kabupaten Labuhanbatu Utara, Sumatera Utara 21455";"Bangun Rejo, Kec. Na IX-X, Kabupaten Labuhanbatu Utara";"SUMATERA UTARA";"21455";"Indonesia";"";"";"";"2.3166737";"99.7325476";"https://maps.google.com/?cid=0x0:0x6afab5889e437d95";""
"restaurant";"Padang";"RM Berkah";"Jl. Lintas Sumatra, Pulo Jantan, Kec. Na IX-X, Kabupaten Labuhanbatu Utara, Sumatera Utara";"Kabupaten Labuhanbatu Utara, Sumatera Utara";"SUMATERA UTARA";"";"Indonesia";" 08566542981";"";"";"2.2928465";"99.7499261";"https://maps.google.com/?cid=0x0:0x628bd94230a9fd17";""
"restaurant";"Nasi";"Warung Makan Bunda Aira";"7M83+HPF, Meranti Omas, Kec. Na IX-X, Kabupaten Labuhanbatu Utara, Sumatera Utara 21455";"Meranti Omas, Kec. Na IX-X, Kabupaten Labuhanbatu Utara";"SUMATERA UTARA";"21455";"Indonesia";" 082277223627";"";"";"2.2664414";"99.6542938";"https://maps.google.com/?cid=0x0:0xa0fece6afb214ffa";""
"restaurant";"Toko Makanan Sehat";"RM.Kak Ris";"7QF6+2Q8, Aek Kota Batu, Kec. Na IX-X, Kabupaten Labuhanbatu Utara, Sumatera Utara 21454";"Aek Kota Batu, Kec. Na IX-X, Kabupaten Labuhanbatu Utara";"SUMATERA UTARA";"21454";"Indonesia";" 082361022894";"";"";"2.2725088";"99.761965";"https://maps.google.com/?cid=0x0:0x453e45c2bd4c4acc";""
"restaurant";"Brunch";"Warung Makan Mak DINDA";"5QWC+FVW, Jalan, Simpang Marbau, Kec. Na IX-X, Kabupaten Labuhanbatu Utara, Sumatera Utara";"Kabupaten Labuhanbatu Utara, Sumatera Utara";"SUMATERA UTARA";"";"Indonesia";"";"";"";"2.1962489";"99.7721902";"https://maps.google.com/?cid=0x0:0xfdd7727b6003b643";""
"restaurant";"Kafe";"Wak Asiman";"5M7Q+5WW, Sungai Raja, Kec. Na IX-X, Kabupaten Labuhanbatu Utara, Sumatera Utara 21454";"Sungai Raja, Kec. Na IX-X, Kabupaten Labuhanbatu Utara";"SUMATERA UTARA";"21454";"Indonesia";" 085358102863";"";"";"2.1629805";"99.6898253";"https://maps.google.com/?cid=0x0:0x79b46e06812d093e";""
"restaurant";"Makanan Kecil";"Rumah Makan Buk Upik";"Jl. Lintas Sumatra, Kp. Pajak, Kec. Na IX-X, Kabupaten Labuhanbatu Utara, Sumatera Utara 21452";"Kp. Pajak, Kec. Na IX-X, Kabupaten Labuhanbatu Utara";"SUMATERA UTARA";"21452";"Indonesia";"";"";"";"2.2629431";"99.7691542";"https://maps.google.com/?cid=0x0:0x3aef049b9748f2dc";""
"restaurant";"Bakso";"BAKSO BAROKAH";"7Q79+M32, Kp. Pajak, Kec. Na IX-X, Kabupaten Labuhanbatu Utara, Sumatera Utara 21452";"Kp. Pajak, Kec. Na IX-X, Kabupaten Labuhanbatu Utara";"SUMATERA UTARA";"21452";"Indonesia";"";"";"";"2.264143";"99.7676538";"https://maps.google.com/?cid=0x0:0x10d5a511e8927657";""
"restaurant";"Kedai Kopi";"JOGJA FOOD Cafe  Resto";"7PWX+34H, Pulo Jantan, Kec. Na IX-X, Kabupaten Labuhanbatu Utara, Sumatera Utara 21455";"Pulo Jantan, Kec. Na IX-X, Kabupaten Labuhanbatu Utara";"SUMATERA UTARA";"21455";"Indonesia";" 082276718900";"";"";"2.2951922";"99.747863";"https://maps.google.com/?cid=0x0:0xb3744ed7bbf18d27";""
"restaurant";"Padang";"Rumah Makan  Restoran Minang Bahagia";"7QM5+C27, Aek Kota Batu, Kec. Na IX-X, Kabupaten Labuhanbatu Utara, Sumatera Utara 21454";"Aek Kota Batu, Kec. Na IX-X, Kabupaten Labuhanbatu Utara";"SUMATERA UTARA";"21454";"Indonesia";" 082362655666";"";"";"2.2835409";"99.7575322";"https://maps.google.com/?cid=0x0:0xb956685c30eeb106";""
"restaurant";"Hidangan Laut";"DERVI CRAB 24";"7QJ5+MM4, Aek Kota Batu, Kec. Na IX-X, Kabupaten Labuhanbatu Utara, Sumatera Utara 21452";"Aek Kota Batu, Kec. Na IX-X, Kabupaten Labuhanbatu Utara";"SUMATERA UTARA";"21452";"Indonesia";" 082277598734";"";"";"2.2816321";"99.7592152";"https://maps.google.com/?cid=0x0:0x84c23466d742a914";""
"restaurant";"Restoran";"Rahasia Rasa Jaya";"Dusun V Jl. Suka Bangsa, Simpang Marbau, Kec. Na IX-X, Kabupaten Labuhanbatu Utara, Sumatera Utara 21454";"Simpang Marbau, Kec. Na IX-X, Kabupaten Labuhanbatu Utara";"SUMATERA UTARA";"21454";"Indonesia";" 085762862415";"";"";"2.2512668";"99.7666048";"https://maps.google.com/?cid=0x0:0x68caa608f9c7ba26";""
"restaurant";"Nasi Uduk";"Nasi Uduk Azzahra";"8P4R+4CJ, Pulo Jantan, Kec. Na IX-X, Kabupaten Labuhanbatu Utara, Sumatera Utara 21455";"Pulo Jantan, Kec. Na IX-X, Kabupaten Labuhanbatu Utara";"SUMATERA UTARA";"21455";"Indonesia";"";"";"";"2.3053346";"99.7410258";"https://maps.google.com/?cid=0x0:0x2b4bdf0a5e35789e";""
"cafe";"cafe";"Kec. Aek Kuo";"Kabupaten Labuhanbatu Utara, Sumatera Utara";"Kabupaten Labuhanbatu Utara, Sumatera Utara";"SUMATERA UTARA";"";"Indonesia";"";"";"";"2.3161726";"99.8203062";"https://maps.google.com/?cid=0x0:0x4039d80b220d250";""
"cafe";"Kedai Kopi";"Guna Caffe";"8Q73+J2, Padang Maninjau, Kec. Aek Kuo, Kabupaten Labuhanbatu Utara, Sumatera Utara";"Kabupaten Labuhanbatu Utara, Sumatera Utara";"SUMATERA UTARA";"";"Indonesia";" 082273467073";"";"";"2.3140858";"99.7526156";"https://maps.google.com/?cid=0x0:0x740117af0ebc13f2";""
"cafe";"Kedai Kopi";"CS. Pemuda 45(kedai kopi)";"Jl. Besar Simpang Empat, Perkebunan Brussel, Kec. Marbau, Kabupaten Labuhanbatu Utara, Sumatera Utara 21452";"Perkebunan Brussel, Kec. Marbau, Kabupaten Labuhanbatu Utara";"SUMATERA UTARA";"21452";"Indonesia";" 082364404480";"";"";"2.2717195";"99.8461552";"https://maps.google.com/?cid=0x0:0x45740af9a86ee53e";""
"cafe";"Kedai Kopi";"Kafe Ujung Gober";"8RWH+84Q, Purworejo, Kec. Aek Kuo, Kabupaten Labuhanbatu Utara, Sumatera Utara 21455";"Purworejo, Kec. Aek Kuo, Kabupaten Labuhanbatu Utara";"SUMATERA UTARA";"21455";"Indonesia";" 082164285878";"";"";"2.3458404";"99.8278725";"https://maps.google.com/?cid=0x0:0xe6c8708beeea676c";""
"cafe";"Kedai Kopi";"Angga cafe's";"CR5Q+847, Bandar Selamat, Kec. Aek Kuo, Kabupaten Labuhanbatu Utara, Sumatera Utara 21455";"Bandar Selamat, Kec. Aek Kuo, Kabupaten Labuhanbatu Utara";"SUMATERA UTARA";"21455";"Indonesia";" 082275966828";"";"";"2.4082881";"99.8377831";"https://maps.google.com/?cid=0x0:0x55f62ecdf728273";""
"cafe";"Kafe";"MIMIK X CAFE";"Jl. Padang Maninjau, Padang Maninjau, Kec. Aek Kuo, Kabupaten Labuhanbatu Utara, Sumatera Utara 21455";"Padang Maninjau, Kec. Aek Kuo, Kabupaten Labuhanbatu Utara";"SUMATERA UTARA";"21455";"Indonesia";" 082276506935";"";"";"2.3148647";"99.7582831";"https://maps.google.com/?cid=0x0:0x2871cea39b808104";""
"cafe";"Kafe";"Sp Dayat";"8VHJ+5Q6, Perk. Padang Halaban, Kec. Aek Kuo, Kabupaten Labuhanbatu Utara, Sumatera Utara 21455";"Perk. Padang Halaban, Kec. Aek Kuo, Kabupaten Labuhanbatu Utara";"SUMATERA UTARA";"21455";"Indonesia";" 082364186106";"";"";"2.3279103";"99.8818944";"https://maps.google.com/?cid=0x0:0x905a6e60c4d5727";""
"cafe";"Kafe";"COC CAFE Simpang Marbau";"Simpang Marbau, Kec. Na IX-X, Kabupaten Labuhanbatu Utara, Sumatera Utara 21454";"Kec. Na IX-X, Kabupaten Labuhanbatu Utara";"SUMATERA UTARA";"21454";"Indonesia";" 082299773616";"";"";"2.2648639";"99.7747978";"https://maps.google.com/?cid=0x0:0xbb5f541b1b1d9593";""
"cafe";"Kedai Kopi";"Coffee  Cafe";"7R8Q+F7P, Perkebunan Brussel, Kec. Marbau, Kabupaten Labuhanbatu Utara, Sumatera Utara 21452";"Perkebunan Brussel, Kec. Marbau, Kabupaten Labuhanbatu Utara";"SUMATERA UTARA";"21452";"Indonesia";"";"";"";"2.2662102";"99.8381989";"https://maps.google.com/?cid=0x0:0xe75ff770d2809508";""
"cafe";"Kedai Kopi";"Coffeeshop KAFENEIO";"8P7M+V8F, Bangun Rejo, Kec. Na IX-X, Kabupaten Labuhanbatu Utara, Sumatera Utara 21455";"Bangun Rejo, Kec. Na IX-X, Kabupaten Labuhanbatu Utara";"SUMATERA UTARA";"21455";"Indonesia";" 082276115084";"";"";"2.3146918";"99.7332815";"https://maps.google.com/?cid=0x0:0xff0c3dccc85ccd8f";""
"cafe";"Kafe";"Kedai coffie ujung";"8RWF+MH3, Unnamed Road, Purworejo, Kec. Aek Kuo, Kabupaten Labuhanbatu Utara, Sumatera Utara 21455";"Unnamed Road, Purworejo, Kec. Aek Kuo, Kabupaten Labuhanbatu Utara";"SUMATERA UTARA";"21455";"Indonesia";" 082166888287";"";"";"2.3466267";"99.8239066";"https://maps.google.com/?cid=0x0:0x3e65489905d5dc7f";""
"cafe";"Kedai Kopi";"Cafe Adam Alif";"9QWR+G42, Unnamed Road, Bandar Selamat, Aek Kuo, North Labuhan Batu Regency, North Sumatra 21455";"Unnamed Road, Bandar Selamat, Aek Kuo, North Labuhan Batu Regency";"SUMATERA UTARA";"21455";"Indonesia";"";"";"";"2.3962609";"99.7902537";"https://maps.google.com/?cid=0x0:0x70e3e168ef28ee90";""
"cafe";"Toko umum";"Warung Ibuk Evi";"9QG7+MXW, Purworejo, Kec. Aek Kuo, Kabupaten Labuhanbatu Utara, Sumatera Utara 21455";"Purworejo, Kec. Aek Kuo, Kabupaten Labuhanbatu Utara";"SUMATERA UTARA";"21455";"Indonesia";"";"";"";"2.3767252";"99.7649474";"https://maps.google.com/?cid=0x0:0x835a775f98543a66";""
"cafe";"Kedai Kopi";"RHL Cafe and Resto";"Link III Simpang Panigoran, Aek Kota Batu, Kec. Na IX-X, Kabupaten Labuhanbatu Utara, Sumatera Utara 21454";"Aek Kota Batu, Kec. Na IX-X, Kabupaten Labuhanbatu Utara";"SUMATERA UTARA";"21454";"Indonesia";" 081263224296";"";"";"2.2797818";"99.7614118";"https://maps.google.com/?cid=0x0:0x967feb0293ba02e8";""
"cafe";"Kafe";"The Lim's";"7PVX+P8W, Jl. Lintas Sumatra, Pulo Jantan, Kec. Na IX-X, Kabupaten Labuhanbatu Utara, Sumatera Utara 21455";"Jl. Lintas Sumatra, Pulo Jantan, Kec. Na IX-X, Kabupaten Labuhanbatu Utara";"SUMATERA UTARA";"21455";"Indonesia";" 081260570078";"";"";"2.2943626";"99.7483194";"https://maps.google.com/?cid=0x0:0xb8cb6dd0767ccf9";""
"cafe";"Kedai Kopi";"Rumah pentong";"8R6C+2M5, Unnamed Road, Perkebunan Panigoran, Kec. Aek Kuo, Kabupaten Labuhanbatu Utara, Sumatera Utara 21455";"Unnamed Road, Perkebunan Panigoran, Kec. Aek Kuo, Kabupaten Labuhanbatu Utara";"SUMATERA UTARA";"21455";"Indonesia";"";"";"";"2.3100043";"99.8217456";"https://maps.google.com/?cid=0x0:0x94c61960d6dfd0bc";""
"cafe";"Restoran";"Warung kopi pohon mangga";"8VJP+H2M, Perk. Padang Halaban, Kec. Aek Kuo, Kabupaten Labuhanbatu Utara, Sumatera Utara 21455";"Perk. Padang Halaban, Kec. Aek Kuo, Kabupaten Labuhanbatu Utara";"SUMATERA UTARA";"21455";"Indonesia";"";"";"";"2.3314604";"99.8850586";"https://maps.google.com/?cid=0x0:0xd07618b5d3845b63";""
"cafe";"Kedai Kopi";"Heraloka Coffee  Eatry";"AH25, Aek Kota Batu, Kec. Na IX-X, Kabupaten Labuhanbatu Utara, Sumatera Utara 21454";"Aek Kota Batu, Kec. Na IX-X, Kabupaten Labuhanbatu Utara";"SUMATERA UTARA";"21454";"Indonesia";" 082162700700";"";"";"2.2826488";"99.7593765";"https://maps.google.com/?cid=0x0:0x5c9d6465c684fb88";""
"cafe";"Kedai Kopi";"Cafe WJ";"Jl. Masjid, Perkebunan Brussel, Kec. Marbau, Kabupaten Labuhanbatu Utara, Sumatera Utara 21452";"Perkebunan Brussel, Kec. Marbau, Kabupaten Labuhanbatu Utara";"SUMATERA UTARA";"21452";"Indonesia";" 085260476990";"";"";"2.2668574";"99.8370814";"https://maps.google.com/?cid=0x0:0xc80264ba3ce6db3c";""
"cafe";"Kafe";"OZCAL COFFEE";"Jl. Suka Bangsa, Kp. Pajak, Kec. Na IX-X, Kabupaten Labuhanbatu Utara, Sumatera Utara 21452";"Kp. Pajak, Kec. Na IX-X, Kabupaten Labuhanbatu Utara";"SUMATERA UTARA";"21452";"Indonesia";" 082368489250";"";"";"2.2585556";"99.7702133";"https://maps.google.com/?cid=0x0:0xdd205788db25a918";""
"cafe";"Toko Ponsel";"Aidil Rafi Cell";"8RRM+MJ5, Purworejo, Kec. Aek Kuo, Kabupaten Labuhanbatu Utara, Sumatera Utara 21455";"Purworejo, Kec. Aek Kuo, Kabupaten Labuhanbatu Utara";"SUMATERA UTARA";"21455";"Indonesia";" 081271816508";"";"";"2.3416332";"99.8341011";"https://maps.google.com/?cid=0x0:0x454badc6f39cc57";""
"cafe";"cafe";"Rumah buk sun";"8Q88+428, Padang Maninjau, Kec. Aek Kuo, Kabupaten Labuhanbatu Utara, Sumatera Utara 21455";"Padang Maninjau, Kec. Aek Kuo, Kabupaten Labuhanbatu Utara";"SUMATERA UTARA";"21455";"Indonesia";"";"";"";"2.3152855";"99.7650804";"https://maps.google.com/?cid=0x0:0x2ec5dd013f5048ca";""
"cafe";"Restoran";"Warung miso samin";"8R7C+8GH, Perkebunan Panigoran, Kec. Aek Kuo, Kabupaten Labuhanbatu Utara, Sumatera Utara 21455";"Perkebunan Panigoran, Kec. Aek Kuo, Kabupaten Labuhanbatu Utara";"SUMATERA UTARA";"21455";"Indonesia";"";"";"";"2.3133044";"99.8213558";"https://maps.google.com/?cid=0x0:0xfc39de270a442704";""
"cafe";"Toko Aksesori Ponsel";"Studio Band Putra Ponsel";"8QCH+CFX, Padang Maninjau, Kec. Aek Kuo, Kabupaten Labuhanbatu Utara, Sumatera Utara 21455";"Padang Maninjau, Kec. Aek Kuo, Kabupaten Labuhanbatu Utara";"SUMATERA UTARA";"21455";"Indonesia";" 082168780821";"";"";"2.3211245";"99.7787343";"https://maps.google.com/?cid=0x0:0x2f4372a696ebbffc";""
"cafe";"Sarapan";"KEDAI SARAPAN PAGI BUKLEK TATIK/ROMO";"8R6R+XG9, Perk. Padang Halaban, Sidomulyo, Kec. Aek Kuo, Kabupaten Labuhanbatu Utara, Sumatera Utara 21455";"Perk. Padang Halaban, Sidomulyo, Kec. Aek Kuo, Kabupaten Labuhanbatu Utara";"SUMATERA UTARA";"21455";"Indonesia";" 081264476088";"";"";"2.3124241";"99.8413563";"https://maps.google.com/?cid=0x0:0x8856bca806e499da";""
"cafe";"cafe";"Sumatera Utara 21455";"Kabupaten Labuhanbatu Utara, Sumatera Utara";"Kabupaten Labuhanbatu Utara, Sumatera Utara";"SUMATERA UTARA";"";"Indonesia";"";"";"";"2.1543963";"99.5006143";"https://maps.google.com/?cid=0x0:0x391266e2c2e7c92";""
"cafe";"Indonesia";"Anwar Cafe";"7JVW+J25, Simonis, Kec. Aek Natas, Kabupaten Labuhanbatu Utara, Sumatera Utara";"Kabupaten Labuhanbatu Utara, Sumatera Utara";"SUMATERA UTARA";"";"Indonesia";"";"";"";"2.2940057";"99.6451156";"https://maps.google.com/?cid=0x0:0xcac959a8ad79891a";""
"cafe";"Restoran";"Aura Cafe  Karaoke";"7PVX+X2W, Pulo Jantan, Kec. Na IX-X, Kabupaten Labuhanbatu Utara, Sumatera Utara 21455";"Pulo Jantan, Kec. Na IX-X, Kabupaten Labuhanbatu Utara";"SUMATERA UTARA";"21455";"Indonesia";"";"";"";"2.2949966";"99.7475874";"https://maps.google.com/?cid=0x0:0xd452ed6a452ccc70";""
"cafe";"cafe";"Sehken Cafe (Hotel Kalang Ulu)";"Kearah Berastagi resort / vihara dharma shanti, Jl. Mimpin Tua No.98, desa Sempajaya peceren, berastagi, Karo, Sumatera Utara 22152";"Jl. Mimpin Tua No.98, desa Sempajaya peceren, berastagi, Karo";"SUMATERA UTARA";"22152";"Indonesia";" 085225481162";"";"";"2.1166463";"99.5449662";"https://maps.google.com/?cid=0x0:0xe8eeda68c1e5dac3";""
"cafe";"Kedai Kopi";"Hoeta Coffee";"7JRW+Q8M, Simonis, Kec. Aek Natas, Kabupaten Labuhanbatu Utara, Sumatera Utara 21455";"Simonis, Kec. Aek Natas, Kabupaten Labuhanbatu Utara";"SUMATERA UTARA";"21455";"Indonesia";"";"";"";"2.2919587";"99.6458043";"https://maps.google.com/?cid=0x0:0xcd2e70222aacc6ca";""
"cafe";"Tujuan Wisata";"Turunan Jaugan Simonis";"Simonis, Kec. Aek Natas, Kabupaten Labuhanbatu Utara, Sumatera Utara 21455";"Kec. Aek Natas, Kabupaten Labuhanbatu Utara";"SUMATERA UTARA";"21455";"Indonesia";"";"";"";"2.2918583";"99.636919";"https://maps.google.com/?cid=0x0:0x529312ec09bc5c4";""
"cafe";"Kafe";"Al - cafe";"7M93+PG2, Meranti Omas, Kec. Na IX-X, Kabupaten Labuhanbatu Utara, Sumatera Utara 21455";"Meranti Omas, Kec. Na IX-X, Kabupaten Labuhanbatu Utara";"SUMATERA UTARA";"21455";"Indonesia";"";"";"";"2.2699686";"99.6540656";"https://maps.google.com/?cid=0x0:0x682d805e5ec84f21";""
"cafe";"Kedai Kopi";"Angga cafe's";"CR5Q+847, Bandar Selamat, Kec. Aek Kuo, Kabupaten Labuhanbatu Utara, Sumatera Utara 21455";"Bandar Selamat, Kec. Aek Kuo, Kabupaten Labuhanbatu Utara";"SUMATERA UTARA";"21455";"Indonesia";" 082275966828";"";"";"2.4082881";"99.8377831";"https://maps.google.com/?cid=0x0:0x55f62ecdf728273";""
"cafe";"Kedai Kopi";"Heraloka Coffee  Eatry";"AH25, Aek Kota Batu, Kec. Na IX-X, Kabupaten Labuhanbatu Utara, Sumatera Utara 21454";"Aek Kota Batu, Kec. Na IX-X, Kabupaten Labuhanbatu Utara";"SUMATERA UTARA";"21454";"Indonesia";" 082162700700";"";"";"2.2826488";"99.7593765";"https://maps.google.com/?cid=0x0:0x5c9d6465c684fb88";""
"cafe";"cafe";"Simangumban";"4G8W+42X, Poldung, Kec. Aek Natas, Kabupaten Labuhanbatu Utara, Sumatera Utara";"Kabupaten Labuhanbatu Utara, Sumatera Utara";"SUMATERA UTARA";"";"Indonesia";"";"";"";"2.1153547";"99.5450974";"https://maps.google.com/?cid=0x0:0xda768cebb2ce6cd7";""
"cafe";"Kafe";"Supardi Cafe";"7Q96+WFQ, Aek Kota Batu, Kec. Na IX-X, Kabupaten Labuhanbatu Utara, Sumatera Utara 21454";"Aek Kota Batu, Kec. Na IX-X, Kabupaten Labuhanbatu Utara";"SUMATERA UTARA";"21454";"Indonesia";"";"";"";"2.2698362";"99.7612364";"https://maps.google.com/?cid=0x0:0xb82c799ad4e6400e";""
"cafe";"Kedai Kopi";"Gias cafe  rooftop";"Jl. Sisingamangaraja, Perkebunan Brussel, Kec. Marbau, Kabupaten Labuhanbatu Utara, Sumatera Utara 21452";"Perkebunan Brussel, Kec. Marbau, Kabupaten Labuhanbatu Utara";"SUMATERA UTARA";"21452";"Indonesia";" 082264641988";"";"";"2.2632561";"99.7706471";"https://maps.google.com/?cid=0x0:0xcc3b336b05df5eab";""
"cafe";"Kedai Kopi";"KEDAI KOPI NETRAL";"Pulo Jantan, Kec. Na IX-X, Kabupaten Labuhanbatu Utara, Sumatera Utara 21455";"Kec. Na IX-X, Kabupaten Labuhanbatu Utara";"SUMATERA UTARA";"21455";"Indonesia";" 081375745967";"";"";"2.2943365";"99.7487237";"https://maps.google.com/?cid=0x0:0x6caf239fc76184d3";""
"cafe";"Kafe";"Dak^te Cafe";"8P2R+R79, Jl. Lintas Sumatra, Kp. Pajak, Kec. Na IX-X, Kabupaten Labuhanbatu Utara, Sumatera Utara 21455";"Jl. Lintas Sumatra, Kp. Pajak, Kec. Na IX-X, Kabupaten Labuhanbatu Utara";"SUMATERA UTARA";"21455";"Indonesia";" 08116227181";"";"";"2.3020371";"99.7407207";"https://maps.google.com/?cid=0x0:0x94305d1c9035c242";""
"cafe";"Padang";"RM Sudi Mampir";"CM3V+648, Bandar Durian, Kec. Aek Natas, Kabupaten Labuhanbatu Utara, Sumatera Utara 21455";"Bandar Durian, Kec. Aek Natas, Kabupaten Labuhanbatu Utara";"SUMATERA UTARA";"21455";"Indonesia";"";"";"";"2.4030489";"99.6928322";"https://maps.google.com/?cid=0x0:0x31eeaae77b0e97e8";""
"cafe";"Kedai Kopi";"WR Kel Si";"7JQJ+WMW, Jl. Sibito, Simonis, Kec. Aek Natas, Kabupaten Labuhanbatu Utara, Sumatera Utara 21455";"Jl. Sibito, Simonis, Kec. Aek Natas, Kabupaten Labuhanbatu Utara";"SUMATERA UTARA";"21455";"Indonesia";"";"";"";"2.2901259";"99.6309901";"https://maps.google.com/?cid=0x0:0x2714ed4dccdea125";""
"cafe";"Padang";"RM.KA'ITA";"CM2W+988, Bandar Durian, Kec. Aek Natas, Kabupaten Labuhanbatu Utara, Sumatera Utara 21455";"Bandar Durian, Kec. Aek Natas, Kabupaten Labuhanbatu Utara";"SUMATERA UTARA";"21455";"Indonesia";"";"";"";"2.4009145";"99.6958262";"https://maps.google.com/?cid=0x0:0x8950188efd9ca46c";""
"cafe";"Kedai Kopi";"Coffeeshop KAFENEIO";"8P7M+V8F, Bangun Rejo, Kec. Na IX-X, Kabupaten Labuhanbatu Utara, Sumatera Utara 21455";"Bangun Rejo, Kec. Na IX-X, Kabupaten Labuhanbatu Utara";"SUMATERA UTARA";"21455";"Indonesia";" 082276115084";"";"";"2.3146918";"99.7332815";"https://maps.google.com/?cid=0x0:0xff0c3dccc85ccd8f";""
"cafe";"Restoran";"Miso Bu Muase";"CP6X+VWF, Unnamed Road, Pangkalan, Kec. Aek Natas, Kabupaten Labuhanbatu Utara, Sumatera Utara 21455";"Unnamed Road, Pangkalan, Kec. Aek Natas, Kabupaten Labuhanbatu Utara";"SUMATERA UTARA";"21455";"Indonesia";"";"";"";"2.4121949";"99.7497909";"https://maps.google.com/?cid=0x0:0x9946b3ec32c2a26a";""
"cafe";"Kafe";"The Lim's";"7PVX+P8W, Jl. Lintas Sumatra, Pulo Jantan, Kec. Na IX-X, Kabupaten Labuhanbatu Utara, Sumatera Utara 21455";"Jl. Lintas Sumatra, Pulo Jantan, Kec. Na IX-X, Kabupaten Labuhanbatu Utara";"SUMATERA UTARA";"21455";"Indonesia";" 081260570078";"";"";"2.2943626";"99.7483194";"https://maps.google.com/?cid=0x0:0xb8cb6dd0767ccf9";""
"cafe";"Kedai Kopi";"Guna Caffe";"8Q73+J2, Padang Maninjau, Kec. Aek Kuo, Kabupaten Labuhanbatu Utara, Sumatera Utara";"Kabupaten Labuhanbatu Utara, Sumatera Utara";"SUMATERA UTARA";"";"Indonesia";" 082273467073";"";"";"2.3140858";"99.7526156";"https://maps.google.com/?cid=0x0:0x740117af0ebc13f2";""
"cafe";"Kedai Kopi";"Eisen.Siahaan";"Jl. Lintas Sumatra No.16, Kp. Yaman, Kec. Aek Natas, Kabupaten Labuhanbatu Utara, Sumatera Utara 21455";"Kp. Yaman, Kec. Aek Natas, Kabupaten Labuhanbatu Utara";"SUMATERA UTARA";"21455";"Indonesia";"";"";"";"2.3423";"99.7242";"https://maps.google.com/?cid=0x0:0xd5858d363dfa2b3";""
"cafe";"Dapur Umum";"Bon Appetit Cafe and Resto";"Jl. Lintas Sumatra No.245, Aek Kanopan Tim., Kec. Kualuh Hulu, Kabupaten Labuhanbatu Utara, Sumatera Utara 21457";"Aek Kanopan Tim., Kec. Kualuh Hulu, Kabupaten Labuhanbatu Utara";"SUMATERA UTARA";"21457";"Indonesia";" 081262451819";"";"";"2.5812216";"99.6566038";"https://maps.google.com/?cid=0x0:0x8fb79bdf397e1cc8";""
"cafe";"Kafe";"MIMIK X CAFE";"Jl. Padang Maninjau, Padang Maninjau, Kec. Aek Kuo, Kabupaten Labuhanbatu Utara, Sumatera Utara 21455";"Padang Maninjau, Kec. Aek Kuo, Kabupaten Labuhanbatu Utara";"SUMATERA UTARA";"21455";"Indonesia";" 082276506935";"";"";"2.3148647";"99.7582831";"https://maps.google.com/?cid=0x0:0x2871cea39b808104";""
"cafe";"Perhimpunan Pengembang Perumahan";"Bandar durian dolok tenang";"8PVF+XMC, Jl. Lintas Sumatra, Kp. Yaman, Kec. Aek Natas, Kabupaten Labuhanbatu Utara, Sumatera Utara 21455";"Jl. Lintas Sumatra, Kp. Yaman, Kec. Aek Natas, Kabupaten Labuhanbatu Utara";"SUMATERA UTARA";"21455";"Indonesia";"";"";"";"2.3445243";"99.7239167";"https://maps.google.com/?cid=0x0:0x720066972a626474";""
"cafe";"Kedai Kopi";"Teras kopi halimbe";"8M76+3HM, Perkebunan Aek Pamingke, Kec. Aek Natas, Kabupaten Labuhanbatu Utara, Sumatera Utara 21455";"Perkebunan Aek Pamingke, Kec. Aek Natas, Kabupaten Labuhanbatu Utara";"SUMATERA UTARA";"21455";"Indonesia";"";"";"";"2.3128989";"99.6608666";"https://maps.google.com/?cid=0x0:0x5fb70b0b9dc12ce3";""
"cafe";"Kafe";"ND coffee";"7QG6+HW7, Jl. Lintas Sumatra, Aek Kota Batu, Kec. Na IX-X, Kabupaten Labuhanbatu Utara, Sumatera Utara 21454";"Jl. Lintas Sumatra, Aek Kota Batu, Kec. Na IX-X, Kabupaten Labuhanbatu Utara";"SUMATERA UTARA";"21454";"Indonesia";" 081396948368";"";"";"2.2763596";"99.7623689";"https://maps.google.com/?cid=0x0:0x7cd487ea0b33ae9f";""
"cafe";"cafe";"Sumatera Utara 21474";"Kec. Kualuh Hilir, Kabupaten Labuhanbatu Utara, Sumatera Utara";"Kabupaten Labuhanbatu Utara, Sumatera Utara";"SUMATERA UTARA";"";"Indonesia";"";"";"";"2.5204832";"100.0135929";"https://maps.google.com/?cid=0x0:0x556108f16bd7ca29";""
"cafe";"Kedai Kopi";"RZK caffe";"GX52+42F, Kuala Bangka, Kec. Kualuh Hilir, Kabupaten Labuhanbatu Utara, Sumatera Utara 21474";"Kuala Bangka, Kec. Kualuh Hilir, Kabupaten Labuhanbatu Utara";"SUMATERA UTARA";"21474";"Indonesia";" 082361345679";"";"";"2.5077976";"99.9500225";"https://maps.google.com/?cid=0x0:0xc5dce37fef5c4c58";""
"cafe";"Kedai Kopi";"kedai kopi mak.markus";"M2MG+5GP, Tj. Mangedar, Kec. Kualuh Hilir, Kabupaten Labuhanbatu Utara, Sumatera Utara 21474";"Tj. Mangedar, Kec. Kualuh Hilir, Kabupaten Labuhanbatu Utara";"SUMATERA UTARA";"21474";"Indonesia";" 085261951859";"";"";"2.682969";"100.0263306";"https://maps.google.com/?cid=0x0:0x29f7c76a757ace90";""
"cafe";"Kedai Kopi";"Keadi kopi Amri";"H336+4C7, Pasar Bilah, Kec. Kualuh Hilir, Kabupaten Labuhanbatu Utara, Sumatera Utara 21474";"Pasar Bilah, Kec. Kualuh Hilir, Kabupaten Labuhanbatu Utara";"SUMATERA UTARA";"21474";"Indonesia";"";"";"";"2.5527839";"100.0610515";"https://maps.google.com/?cid=0x0:0x92c2311f25a96733";""
"cafe";"Kedai Kopi";"Cafe Simp. Mangga Runtuh";"H2J9+HFV, Unnamed Road, Pasar Bilah Pangkal, Sungai Apung, Kec. Kualuh Hilir, Kabupaten Labuhanbatu Utara, Sumatera Utara 21474";"Unnamed Road, Pasar Bilah Pangkal, Sungai Apung, Kec. Kualuh Hilir, Kabupaten Labuhanbatu Utara";"SUMATERA UTARA";"21474";"Indonesia";"";"";"";"2.5814967";"100.0186817";"https://maps.google.com/?cid=0x0:0xce311e329248bf87";""
"cafe";"Kedai Kopi";"WARUNG AGUS BANDREK TsT . jadi kan lah rasa syukur lebih dari segala nya.";"GX52+C78, Kuala Bangka, Kec. Kualuh Hilir, Kabupaten Labuhanbatu Utara, Sumatera Utara 21474";"Kuala Bangka, Kec. Kualuh Hilir, Kabupaten Labuhanbatu Utara";"SUMATERA UTARA";"21474";"Indonesia";"";"";"";"2.5085261";"99.9507052";"https://maps.google.com/?cid=0x0:0xcb73a30e288912fc";""
"cafe";"cafe";"Sumatra Utara kabupaten labuhan batu Utara Indonesia";"GWF5+C3, Kuala Bangka, Kec. Kualuh Hilir, Kabupaten Labuhanbatu Utara, Sumatera Utara";"Kabupaten Labuhanbatu Utara, Sumatera Utara";"SUMATERA UTARA";"";"Indonesia";"";"";"";"2.5235213";"99.9076607";"https://maps.google.com/?cid=0x0:0x44c612e62e861b15";""
"cafe";"Sarapan";"Warkop Mak Ira";"H2P7+9VF, Kp. Mesjid, Kec. Kualuh Hilir, Kabupaten Labuhanbatu Utara, Sumatera Utara 21474";"Kp. Mesjid, Kec. Kualuh Hilir, Kabupaten Labuhanbatu Utara";"SUMATERA UTARA";"21474";"Indonesia";"";"";"";"2.5859434";"100.0146723";"https://maps.google.com/?cid=0x0:0x142a257cc5d4f356";""
"cafe";"Kafe";"Warung Bg Tanjung";"H255+GPF, Sungai Sentang, Kec. Kualuh Hilir, Kabupaten Labuhanbatu Utara, Sumatera Utara 21474";"Sungai Sentang, Kec. Kualuh Hilir, Kabupaten Labuhanbatu Utara";"SUMATERA UTARA";"21474";"Indonesia";" 082163956265";"";"";"2.5588216";"100.0092996";"https://maps.google.com/?cid=0x0:0x9987a4404f06619a";""
"cafe";"Restoran";"CK Cafe Aek Kanopan";"Jl. Angkatan No.212, Aek Kanopan, Kec. Kualuh Hulu, Kabupaten Labuhanbatu Utara, Sumatera Utara 21457";"Aek Kanopan, Kec. Kualuh Hulu, Kabupaten Labuhanbatu Utara";"SUMATERA UTARA";"21457";"Indonesia";" 085233063333";"";"";"2.5670483";"99.6489026";"https://maps.google.com/?cid=0x0:0xd09a6b60ff37c40";""
"cafe";"Kedai Kopi";"(warung Kak IRMA)";"H2FJ+86F, Sungai Sentang, Kec. Kualuh Hilir, Kabupaten Labuhanbatu Utara, Sumatera Utara";"Kabupaten Labuhanbatu Utara, Sumatera Utara";"SUMATERA UTARA";"";"Indonesia";"";"";"";"2.5733155";"100.0305424";"https://maps.google.com/?cid=0x0:0x384b441e1ba6b851";""
"cafe";"Rumah Makan";"Warung Bang TURIS";"GW6X+GR3, Kuala Bangka, Kec. Kualuh Hilir, Kabupaten Labuhanbatu Utara, Sumatera Utara 21474";"Kuala Bangka, Kec. Kualuh Hilir, Kabupaten Labuhanbatu Utara";"SUMATERA UTARA";"21474";"Indonesia";" 082272139341";"";"";"2.5112828";"99.9494435";"https://maps.google.com/?cid=0x0:0xfd2e9d18038d7aee";""
"cafe";"Minimarket";"HARIANJA DO AU";"GVCQ+PJ4, Kuala Bangka, Kec. Kualuh Hilir, Kabupaten Labuhanbatu Utara, Sumatera Utara";"Kabupaten Labuhanbatu Utara, Sumatera Utara";"SUMATERA UTARA";"";"Indonesia";" 082250005702";"";"";"2.5217611";"99.8890653";"https://maps.google.com/?cid=0x0:0xf9a8afa4f22fbef8";""
"cafe";"Rumah Makan";"WARUNG MAKAN SIPORMAN";"FVQ5+JC6, Kuala Bangka, Kec. Kualuh Hilir, Kabupaten Labuhanbatu Utara, Sumatera Utara 21474";"Kuala Bangka, Kec. Kualuh Hilir, Kabupaten Labuhanbatu Utara";"SUMATERA UTARA";"21474";"Indonesia";" 085261506952";"";"";"2.4890356";"99.8585173";"https://maps.google.com/?cid=0x0:0x640ae23c8e414aa4";""
"cafe";"Kedai Kopi";"Warung kopi kak ellem";"J29V+HF, Tlk. Piai, Kec. Kualuh Hilir, Kabupaten Labuhanbatu Utara, Sumatera Utara";"Kabupaten Labuhanbatu Utara, Sumatera Utara";"SUMATERA UTARA";"";"Indonesia";"";"";"";"2.618943";"100.0435976";"https://maps.google.com/?cid=0x0:0xa3b0b99d53c9fd9b";""
"cafe";"Makanan Kecil";"Warung sukur";"H27V+W92, Kp. Mesjid, Kec. Kualuh Hilir, Kabupaten Labuhanbatu Utara, Sumatera Utara";"Kabupaten Labuhanbatu Utara, Sumatera Utara";"SUMATERA UTARA";"";"Indonesia";" 085233112736";"";"";"2.5647517";"100.04338";"https://maps.google.com/?cid=0x0:0xc81e3eb5c1348a98";""
"cafe";"Kedai Kopi";"Warung Pakpahan";"J2MJ+RC7, Jln, Tj. Mangedar, Kec. Kualuh Hilir, Kabupaten Labuhanbatu Utara, Sumatera Utara";"Kabupaten Labuhanbatu Utara, Sumatera Utara";"SUMATERA UTARA";"";"Indonesia";"";"";"";"2.6345346";"100.031058";"https://maps.google.com/?cid=0x0:0xabf6b3b4729f5aa1";""
"cafe";"Toko umum";"Sei sentang";"G294+VP, Sungai Sentang, Kec. Kualuh Hilir, Kabupaten Labuhanbatu Utara, Sumatera Utara 21474";"Sungai Sentang, Kec. Kualuh Hilir, Kabupaten Labuhanbatu Utara";"SUMATERA UTARA";"21474";"Indonesia";"";"";"";"2.5196875";"100.0068125";"https://maps.google.com/?cid=0x0:0x8ae9f655e36da77b";""
"cafe";"Kafe";"warung pangaribuan";"FXHM+7P, Sungai Sentang, Kec. Kualuh Hilir, Kabupaten Labuhanbatu Utara, Sumatera Utara";"Kabupaten Labuhanbatu Utara, Sumatera Utara";"SUMATERA UTARA";"";"Indonesia";"";"";"";"2.4782475";"99.9843273";"https://maps.google.com/?cid=0x0:0x5fd806193c26267e";""
"cafe";"Kafe";"Warung Bang Jambang";"HX8W+8RV, Sungai Sentang, Kec. Kualuh Hilir, Kabupaten Labuhanbatu Utara, Sumatera Utara 21474";"Sungai Sentang, Kec. Kualuh Hilir, Kabupaten Labuhanbatu Utara";"SUMATERA UTARA";"21474";"Indonesia";"";"";"";"2.5658698";"99.9970453";"https://maps.google.com/?cid=0x0:0x4ac91b67526b3194";""
"cafe";"Kedai Kopi";"LESEHAN BERSAMA MAS YOGA";"Unnamed Road, Kuala Bangka, Kec. Kualuh Hilir, Kabupaten Labuhanbatu Utara, Sumatera Utara 21474";"Kuala Bangka, Kec. Kualuh Hilir, Kabupaten Labuhanbatu Utara";"SUMATERA UTARA";"21474";"Indonesia";" 082363630335";"";"";"2.4968046";"99.9433056";"https://maps.google.com/?cid=0x0:0x6a1670f8ee06c083";""
"cafe";"Rumah Makan";"Rm Bang Jojo";"Kampung Jawa, Kuala Bangka, Kec. Kualuh Hilir, Kabupaten Labuhanbatu Utara, Sumatera Utara 21474";"Kuala Bangka, Kec. Kualuh Hilir, Kabupaten Labuhanbatu Utara";"SUMATERA UTARA";"21474";"Indonesia";" 085217179880";"";"";"2.508034";"99.950612";"https://maps.google.com/?cid=0x0:0x9a3141ca5670ad54";""
"cafe";"Kedai Kopi";"kedai kopi airezkia";"H2P7+FF, Sungai Apung, Kec. Kualuh Hilir, Kabupaten Labuhanbatu Utara, Sumatera Utara";"Kabupaten Labuhanbatu Utara, Sumatera Utara";"SUMATERA UTARA";"";"Indonesia";"";"";"";"2.5860956";"100.0136921";"https://maps.google.com/?cid=0x0:0xe3e3b0960432a1d3";""
"cafe";"cafe";"Sumatera Utara 21457";"Kec. Kualuh Sel., Kabupaten Labuhanbatu Utara, Sumatera Utara";"Kabupaten Labuhanbatu Utara, Sumatera Utara";"SUMATERA UTARA";"";"Indonesia";"";"";"";"2.4644513";"99.6786894";"https://maps.google.com/?cid=0x0:0xbeeda126e9c5dc9c";""
"cafe";"Kedai Kopi";"Batik Cafe";"Aek Kanopan Tim., Kec. Kualuh Hulu, Kabupaten Labuhanbatu Utara, Sumatera Utara 21273";"Kec. Kualuh Hulu, Kabupaten Labuhanbatu Utara";"SUMATERA UTARA";"21273";"Indonesia";" 081374923868";"";"";"2.5765062";"99.6504889";"https://maps.google.com/?cid=0x0:0x2f1175f193bd4f97";""
"cafe";"Kedai Kopi";"NIK Coffee  Roestery";"Jl. Nusa Indah, Aek Kanopan, Kec. Kualuh Hulu, Kabupaten Labuhanbatu Utara, Sumatera Utara 21457";"Aek Kanopan, Kec. Kualuh Hulu, Kabupaten Labuhanbatu Utara";"SUMATERA UTARA";"21457";"Indonesia";" 081269766376";"";"";"2.5735112";"99.6445325";"https://maps.google.com/?cid=0x0:0xa6aafd37dda87b9b";""
"cafe";"Restoran";"Resto dan Kafe Labura Q";"Damuli Pekan, Kec. Kualuh Sel., Kabupaten Labuhanbatu Utara, Sumatera Utara 21457";"Kec. Kualuh Sel., Kabupaten Labuhanbatu Utara";"SUMATERA UTARA";"21457";"Indonesia";"";"";"";"2.5069612";"99.6334192";"https://maps.google.com/?cid=0x0:0xd240504bf427c9e7";""
"cafe";"Kedai Kopi";"KOPILUR2023";"Jl. Pembangunan, Aek Kanopan Tim., Kec. Kualuh Hulu, Kabupaten Labuhanbatu Utara, Sumatera Utara 21457";"Aek Kanopan Tim., Kec. Kualuh Hulu, Kabupaten Labuhanbatu Utara";"SUMATERA UTARA";"21457";"Indonesia";" 081224811071";"";"";"2.5666";"99.6502126";"https://maps.google.com/?cid=0x0:0xe7c83f833d4077f3";""
"cafe";"Kafe";"BUMI CAFE";"Dusun III No.pasar 4, Perk. Damuli, Kualuh Selatan, North Labuhan Batu Regency, North Sumatra 21457";"Perk. Damuli, Kualuh Selatan, North Labuhan Batu Regency";"SUMATERA UTARA";"21457";"Indonesia";" 081289530669";"";"";"2.4611137";"99.6178755";"https://maps.google.com/?cid=0x0:0x7491023e48aaad99";""
"cafe";"Kedai Kopi";"DKI Coffee Shop";"Jl. Lintas Sumatra, Perk. Damuli, Kec. Kualuh Sel., Kabupaten Labuhanbatu Utara, Sumatera Utara 21457";"Perk. Damuli, Kec. Kualuh Sel., Kabupaten Labuhanbatu Utara";"SUMATERA UTARA";"21457";"Indonesia";" 083164731088";"";"";"2.4872831";"99.6273289";"https://maps.google.com/?cid=0x0:0x7f160cb99261bebc";""
"cafe";"Kedai Kopi";"Hokki Space Coffee";"Jl besar wonosari No.Lk 2, Aek Kanopan, Kec. Kualuh Hulu, Kabupaten Labuhanbatu Utara, Sumatera Utara 21457";"Aek Kanopan, Kec. Kualuh Hulu, Kabupaten Labuhanbatu Utara";"SUMATERA UTARA";"21457";"Indonesia";" 085213480857";"";"";"2.5685016";"99.646259";"https://maps.google.com/?cid=0x0:0x1ee8601f39cace80";""
"cafe";"Kedai Kopi";"Seduh cafe labura";"Jln kapten Zubit.lk III, Aek Kanopan, Sumatera Utara 21457";"Aek Kanopan";"SUMATERA UTARA";"21457";"Indonesia";" 081333920195";"";"";"2.5692598";"99.6522831";"https://maps.google.com/?cid=0x0:0xf8cfc99beeac1c9b";""
"cafe";"Kedai Kopi";"Cafe Nada";"FJPH+PGF, Jl. Lintas Sumatra, Perk. Damuli, Kec. Kualuh Sel., Kabupaten Labuhanbatu Utara, Sumatera Utara 21457";"Jl. Lintas Sumatra, Perk. Damuli, Kec. Kualuh Sel., Kabupaten Labuhanbatu Utara";"SUMATERA UTARA";"21457";"Indonesia";"";"";"";"2.4868093";"99.6287923";"https://maps.google.com/?cid=0x0:0x579c28bffc04ce36";""
"cafe";"Kedai Kopi";"M2s coffee";"GPG5+FHH, Aek Kanopan, Kec. Kualuh Sel., Kabupaten Labuhanbatu Utara, Sumatera Utara 21457";"Aek Kanopan, Kec. Kualuh Sel., Kabupaten Labuhanbatu Utara";"SUMATERA UTARA";"21457";"Indonesia";"";"";"";"2.525728";"99.7092428";"https://maps.google.com/?cid=0x0:0x3b5ebff90b70ec47";""
"cafe";"Kedai Kopi";"D'JENGGOT COFFE";"Jalan Kapten Zubit, Parluasan, Aek Kanopan Tim., Kec. Kualuh Hulu, Kabupaten Labuhanbatu Utara, Sumatera Utara 21457";"Parluasan, Aek Kanopan Tim., Kec. Kualuh Hulu, Kabupaten Labuhanbatu Utara";"SUMATERA UTARA";"21457";"Indonesia";" 082397379003";"";"";"2.5691727";"99.6520404";"https://maps.google.com/?cid=0x0:0x2822fa1b76162423";""
"cafe";"Kedai Kopi";"CK 3 Resto  Coffee";"Jl. Sidorukun, kamp. Terutung no. 44, Aek Kanopan, Kabupaten Labuhanbatu Utara, Sumatera Utara 21457";"kamp. Terutung no. 44, Aek Kanopan, Kabupaten Labuhanbatu Utara";"SUMATERA UTARA";"21457";"Indonesia";" 081396527758";"";"";"2.5777384";"99.644918";"https://maps.google.com/?cid=0x0:0x5dcd6a6490086d64";""
"cafe";"Restoran";"Kafe Buk Menik";"HM46+PWR, Perkebunan Membang Muda, Kec. Kualuh Hulu, Kabupaten Labuhanbatu Utara, Sumatera Utara 21273";"Perkebunan Membang Muda, Kec. Kualuh Hulu, Kabupaten Labuhanbatu Utara";"SUMATERA UTARA";"21273";"Indonesia";"";"";"";"2.5568635";"99.6622754";"https://maps.google.com/?cid=0x0:0x78bc6e1178702b76";""
"cafe";"Sarapan";"Wonosari food and drink";"Jl. Utama Wonosari No.Lk. 3, Aek Kanopan, Kec. Kualuh Hulu, Kabupaten Labuhanbatu Utara, Sumatera Utara 21457";"Aek Kanopan, Kec. Kualuh Hulu, Kabupaten Labuhanbatu Utara";"SUMATERA UTARA";"21457";"Indonesia";"";"";"";"2.5684924";"99.6459603";"https://maps.google.com/?cid=0x0:0x3861f0c4199f7e40";""
"cafe";"Kafe";"Cafe Mamah Vhanesyah..";"HJ2F+P48, Parpaudangan, Kec. Kualuh Hulu, Kabupaten Labuhanbatu Utara, Sumatera Utara 21457";"Parpaudangan, Kec. Kualuh Hulu, Kabupaten Labuhanbatu Utara";"SUMATERA UTARA";"21457";"Indonesia";"";"";"";"2.5517953";"99.622822";"https://maps.google.com/?cid=0x0:0x6db4d41ef2ce3f9a";""
"cafe";"Kedai Kopi";"Daily Coffee";"Jl. Nusa Indah Pulo Tarutung No.Lk. 2, Aek Kanopan, Kec. Kualuh Hulu, Kabupaten Labuhanbatu Utara, Sumatera Utara 21457";"Aek Kanopan, Kec. Kualuh Hulu, Kabupaten Labuhanbatu Utara";"SUMATERA UTARA";"21457";"Indonesia";" 082294750195";"";"";"2.5733013";"99.6410826";"https://maps.google.com/?cid=0x0:0x36428e59e0413000";""
"cafe";"Kafe";"Tasya Cafe";"HPGP+P76, Sukarame, Kec. Kualuh Hulu, Kabupaten Labuhanbatu Utara, Sumatera Utara 21457";"Sukarame, Kec. Kualuh Hulu, Kabupaten Labuhanbatu Utara";"SUMATERA UTARA";"21457";"Indonesia";"";"";"";"2.5767805";"99.7356264";"https://maps.google.com/?cid=0x0:0x6b1efac8b06372c3";""
"cafe";"Kedai Kopi";"J Coffee";"GJ5P+P55, Jalan Lintas Sumatera simpang Sawo dusun simpang Siranggong desa, Damuli Pekan, Kec. Kualuh Sel., Kabupaten Labuhanbatu Utara, Sumatera Utara 21457";"Jalan Lintas Sumatera simpang Sawo dusun simpang Siranggong desa, Damuli Pekan, Kec. Kualuh Sel., Kabupaten Labuhanbatu Utara";"SUMATERA UTARA";"21457";"Indonesia";" 081260750000";"";"";"2.509271";"99.635496";"https://maps.google.com/?cid=0x0:0x1d90d4276f883819";""
"cafe";"Kedai Kopi";"Rinducoffee";"Jl.abdul wahid.desa.sukarame, Aek kanopan, Kec. Kualuh Hulu, Kabupaten Labuhanbatu Utara, Sumatera Utara 21457";"Aek kanopan, Kec. Kualuh Hulu, Kabupaten Labuhanbatu Utara";"SUMATERA UTARA";"21457";"Indonesia";" 082276274877";"";"";"2.5768236";"99.7418987";"https://maps.google.com/?cid=0x0:0x2f04a610697cc72e";""
"cafe";"Kedai Kopi";"Warung Kopi Si Jampang";"Jl. Lintas Sumatra No.130, Aek Kanopan Tim., Kec. Kualuh Hulu, Kabupaten Labuhanbatu Utara, Sumatera Utara 21273";"Aek Kanopan Tim., Kec. Kualuh Hulu, Kabupaten Labuhanbatu Utara";"SUMATERA UTARA";"21273";"Indonesia";"";"";"";"2.5709638";"99.6532264";"https://maps.google.com/?cid=0x0:0xbfb9f96be764ecd4";""
"cafe";"Kedai Kopi";"Caisar Cafe";"HM93+M7W, Jl. Lintas Sumatra, Aek Kanopan Tim., Kec. Kualuh Hulu, Kabupaten Labuhanbatu Utara, Sumatera Utara 21273";"Jl. Lintas Sumatra, Aek Kanopan Tim., Kec. Kualuh Hulu, Kabupaten Labuhanbatu Utara";"SUMATERA UTARA";"21273";"Indonesia";"";"";"";"2.5692265";"99.6532129";"https://maps.google.com/?cid=0x0:0x5a0011ab275a0ee0";""
"cafe";"Kedai Kopi";"Festiv All Cafe Labura";"HJGR+23, Aek Kanopan, Kec. Kualuh Hulu, Kabupaten Labuhanbatu Utara, Sumatera Utara";"Kabupaten Labuhanbatu Utara, Sumatera Utara";"SUMATERA UTARA";"";"Indonesia";"";"";"";"2.5750878";"99.6401762";"https://maps.google.com/?cid=0x0:0x950bda59f817af98";""
"cafe";"Kedai Kopi";"Dc 2coffe shop";"Jalan. Abdulrahman Rangkuti dusun 2londut, Aek kanopan, Kec. Kualuh Hulu, Kabupaten Labuhanbatu Utara, Sumatera Utara 21457";"Aek kanopan, Kec. Kualuh Hulu, Kabupaten Labuhanbatu Utara";"SUMATERA UTARA";"21457";"Indonesia";" 081374589525";"";"";"2.5711946";"99.5563966";"https://maps.google.com/?cid=0x0:0x5195fa0a65fa8b26";""
"cafe";"Dapur Umum";"Bon Appetit Cafe and Resto";"Jl. Lintas Sumatra No.245, Aek Kanopan Tim., Kec. Kualuh Hulu, Kabupaten Labuhanbatu Utara, Sumatera Utara 21457";"Aek Kanopan Tim., Kec. Kualuh Hulu, Kabupaten Labuhanbatu Utara";"SUMATERA UTARA";"21457";"Indonesia";" 081262451819";"";"";"2.5812216";"99.6566038";"https://maps.google.com/?cid=0x0:0x8fb79bdf397e1cc8";""
"cafe";"Kafe";"FH CAFE";"Asian Highway No.25 16, East Aek Kanopan, Kualuh Hulu, Asahan Regency, North Sumatra 21273";"East Aek Kanopan, Kualuh Hulu, Asahan Regency";"SUMATERA UTARA";"21273";"Indonesia";" 082164517310";"";"";"2.5829549";"99.652533";"https://maps.google.com/?cid=0x0:0x8a527d659785cac5";""
"cafe";"Kedai Kopi";"Cafe NeLayan";"QWFW+2F9, Jl. Tj. Balai - Tj. Ledong, Pangkalan Lunang, Kec. Kualuh Leidong, Kabupaten Labuhanbatu Utara, Sumatera Utara 21475";"Jl. Tj. Balai - Tj. Ledong, Pangkalan Lunang, Kec. Kualuh Leidong, Kabupaten Labuhanbatu Utara";"SUMATERA UTARA";"21475";"Indonesia";"";"";"";"2.7725389";"99.9462273";"https://maps.google.com/?cid=0x0:0x7a5090cb359e8eda";""
"cafe";"Kafe";"Cafe titik temu";"QWFW+2F9, Jl. Tj. Balai - Tj. Ledong, Pangkalan Lunang, Kec. Kualuh Leidong, Kabupaten Labuhanbatu Utara, Sumatera Utara 21475";"Jl. Tj. Balai - Tj. Ledong, Pangkalan Lunang, Kec. Kualuh Leidong, Kabupaten Labuhanbatu Utara";"SUMATERA UTARA";"21475";"Indonesia";" 082167832940";"";"";"2.7725394";"99.9462251";"https://maps.google.com/?cid=0x0:0x23c030e9c1ae15c8";""
"cafe";"cafe";"Sumatera Utara 21475";"Kabupaten Labuhanbatu Utara, Sumatera Utara";"Kabupaten Labuhanbatu Utara, Sumatera Utara";"SUMATERA UTARA";"";"Indonesia";"";"";"";"2.6776582";"99.9241575";"https://maps.google.com/?cid=0x0:0x4167985b8fd2cef8";""
"cafe";"Kedai Kopi";"Warung dinda";"QW6R+W9R, Pangkalan Lunang, Kec. Kualuh Leidong, Kabupaten Labuhanbatu Utara, Sumatera Utara";"Kabupaten Labuhanbatu Utara, Sumatera Utara";"SUMATERA UTARA";"";"Indonesia";"";"";"";"2.7623703";"99.9408763";"https://maps.google.com/?cid=0x0:0x7d88e92e4a58ee9b";""
"cafe";"cafe";"Sumatera Utara 21457";"Kec. Kualuh Sel., Kabupaten Labuhanbatu Utara, Sumatera Utara";"Kabupaten Labuhanbatu Utara, Sumatera Utara";"SUMATERA UTARA";"";"Indonesia";"";"";"";"2.4644513";"99.6786894";"https://maps.google.com/?cid=0x0:0xbeeda126e9c5dc9c";""
"cafe";"Restoran";"Resto dan Kafe Labura Q";"Damuli Pekan, Kec. Kualuh Sel., Kabupaten Labuhanbatu Utara, Sumatera Utara 21457";"Kec. Kualuh Sel., Kabupaten Labuhanbatu Utara";"SUMATERA UTARA";"21457";"Indonesia";"";"";"";"2.5069612";"99.6334192";"https://maps.google.com/?cid=0x0:0xd240504bf427c9e7";""
"cafe";"Kedai Kopi";"Batik Cafe";"Aek Kanopan Tim., Kec. Kualuh Hulu, Kabupaten Labuhanbatu Utara, Sumatera Utara 21273";"Kec. Kualuh Hulu, Kabupaten Labuhanbatu Utara";"SUMATERA UTARA";"21273";"Indonesia";" 081374923868";"";"";"2.5765062";"99.6504889";"https://maps.google.com/?cid=0x0:0x2f1175f193bd4f97";""
"cafe";"Kedai Kopi";"Cafe Nada";"FJPH+PGF, Jl. Lintas Sumatra, Perk. Damuli, Kec. Kualuh Sel., Kabupaten Labuhanbatu Utara, Sumatera Utara 21457";"Jl. Lintas Sumatra, Perk. Damuli, Kec. Kualuh Sel., Kabupaten Labuhanbatu Utara";"SUMATERA UTARA";"21457";"Indonesia";"";"";"";"2.4868093";"99.6287923";"https://maps.google.com/?cid=0x0:0x579c28bffc04ce36";""
"cafe";"Kedai Kopi";"NIK Coffee  Roestery";"Jl. Nusa Indah, Aek Kanopan, Kec. Kualuh Hulu, Kabupaten Labuhanbatu Utara, Sumatera Utara 21457";"Aek Kanopan, Kec. Kualuh Hulu, Kabupaten Labuhanbatu Utara";"SUMATERA UTARA";"21457";"Indonesia";" 081269766376";"";"";"2.5735112";"99.6445325";"https://maps.google.com/?cid=0x0:0xa6aafd37dda87b9b";""
"cafe";"Restoran";"CK Cafe Aek Kanopan";"Jl. Angkatan No.212, Aek Kanopan, Kec. Kualuh Hulu, Kabupaten Labuhanbatu Utara, Sumatera Utara 21457";"Aek Kanopan, Kec. Kualuh Hulu, Kabupaten Labuhanbatu Utara";"SUMATERA UTARA";"21457";"Indonesia";" 085233063333";"";"";"2.5670483";"99.6489026";"https://maps.google.com/?cid=0x0:0xd09a6b60ff37c40";""
"cafe";"Kedai Kopi";"Seduh cafe labura";"Jln kapten Zubit.lk III, Aek Kanopan, Sumatera Utara 21457";"Aek Kanopan";"SUMATERA UTARA";"21457";"Indonesia";" 081333920195";"";"";"2.5692598";"99.6522831";"https://maps.google.com/?cid=0x0:0xf8cfc99beeac1c9b";""
"cafe";"Kedai Kopi";"M2s coffee";"GPG5+FHH, Aek Kanopan, Kec. Kualuh Sel., Kabupaten Labuhanbatu Utara, Sumatera Utara 21457";"Aek Kanopan, Kec. Kualuh Sel., Kabupaten Labuhanbatu Utara";"SUMATERA UTARA";"21457";"Indonesia";"";"";"";"2.525728";"99.7092428";"https://maps.google.com/?cid=0x0:0x3b5ebff90b70ec47";""
"cafe";"Kedai Kopi";"DKI Coffee Shop";"Jl. Lintas Sumatra, Perk. Damuli, Kec. Kualuh Sel., Kabupaten Labuhanbatu Utara, Sumatera Utara 21457";"Perk. Damuli, Kec. Kualuh Sel., Kabupaten Labuhanbatu Utara";"SUMATERA UTARA";"21457";"Indonesia";" 083164731088";"";"";"2.4872831";"99.6273289";"https://maps.google.com/?cid=0x0:0x7f160cb99261bebc";""
"cafe";"Kedai Kopi";"J Coffee";"GJ5P+P55, Jalan Lintas Sumatera simpang Sawo dusun simpang Siranggong desa, Damuli Pekan, Kec. Kualuh Sel., Kabupaten Labuhanbatu Utara, Sumatera Utara 21457";"Jalan Lintas Sumatera simpang Sawo dusun simpang Siranggong desa, Damuli Pekan, Kec. Kualuh Sel., Kabupaten Labuhanbatu Utara";"SUMATERA UTARA";"21457";"Indonesia";" 081260750000";"";"";"2.509271";"99.635496";"https://maps.google.com/?cid=0x0:0x1d90d4276f883819";""
"cafe";"Kafe";"Cafe Mamah Vhanesyah..";"HJ2F+P48, Parpaudangan, Kec. Kualuh Hulu, Kabupaten Labuhanbatu Utara, Sumatera Utara 21457";"Parpaudangan, Kec. Kualuh Hulu, Kabupaten Labuhanbatu Utara";"SUMATERA UTARA";"21457";"Indonesia";"";"";"";"2.5517953";"99.622822";"https://maps.google.com/?cid=0x0:0x6db4d41ef2ce3f9a";""
"cafe";"Kedai Kopi";"CK 3 Resto  Coffee";"Jl. Sidorukun, kamp. Terutung no. 44, Aek Kanopan, Kabupaten Labuhanbatu Utara, Sumatera Utara 21457";"kamp. Terutung no. 44, Aek Kanopan, Kabupaten Labuhanbatu Utara";"SUMATERA UTARA";"21457";"Indonesia";" 081396527758";"";"";"2.5777384";"99.644918";"https://maps.google.com/?cid=0x0:0x5dcd6a6490086d64";""
"cafe";"Restoran";"Kafe Buk Menik";"HM46+PWR, Perkebunan Membang Muda, Kec. Kualuh Hulu, Kabupaten Labuhanbatu Utara, Sumatera Utara 21273";"Perkebunan Membang Muda, Kec. Kualuh Hulu, Kabupaten Labuhanbatu Utara";"SUMATERA UTARA";"21273";"Indonesia";"";"";"";"2.5568635";"99.6622754";"https://maps.google.com/?cid=0x0:0x78bc6e1178702b76";""
"cafe";"Kedai Kopi";"RM F1000";"Jl. Lintas Sumatra No.16, Damuli Pekan, Kec. Kualuh Sel., Kabupaten Labuhanbatu Utara, Sumatera Utara 21457";"Damuli Pekan, Kec. Kualuh Sel., Kabupaten Labuhanbatu Utara";"SUMATERA UTARA";"21457";"Indonesia";"";"";"";"2.5012476";"99.6301323";"https://maps.google.com/?cid=0x0:0x998819426345fd5f";""
"cafe";"Dapur Umum";"Bon Appetit Cafe and Resto";"Jl. Lintas Sumatra No.245, Aek Kanopan Tim., Kec. Kualuh Hulu, Kabupaten Labuhanbatu Utara, Sumatera Utara 21457";"Aek Kanopan Tim., Kec. Kualuh Hulu, Kabupaten Labuhanbatu Utara";"SUMATERA UTARA";"21457";"Indonesia";" 081262451819";"";"";"2.5812216";"99.6566038";"https://maps.google.com/?cid=0x0:0x8fb79bdf397e1cc8";""
"cafe";"Sarapan";"Wonosari food and drink";"Jl. Utama Wonosari No.Lk. 3, Aek Kanopan, Kec. Kualuh Hulu, Kabupaten Labuhanbatu Utara, Sumatera Utara 21457";"Aek Kanopan, Kec. Kualuh Hulu, Kabupaten Labuhanbatu Utara";"SUMATERA UTARA";"21457";"Indonesia";"";"";"";"2.5684924";"99.6459603";"https://maps.google.com/?cid=0x0:0x3861f0c4199f7e40";""
"cafe";"Kafe seni";"Warung BW Kampung Banjar";"Jalan Lintas Kampung Banjar Ujung Desa Tanjung Pasir, Aek Kanopan, Kec. Kualuh Sel., Kabupaten Labuhanbatu Utara, Sumatera Utara 21457";"Aek Kanopan, Kec. Kualuh Sel., Kabupaten Labuhanbatu Utara";"SUMATERA UTARA";"21457";"Indonesia";"";"";"";"2.5208225";"99.714907";"https://maps.google.com/?cid=0x0:0x58351cc81c3ae076";""
"cafe";"Kedai Kopi";"Efek Rumah Kopi Space";"Jl. Sukarame No.10A Ledong Timur, Aek Kanopan Tim., Sumatera Utara 21457";"Aek Kanopan Tim.";"SUMATERA UTARA";"21457";"Indonesia";" 082161344434";"";"";"2.580511";"99.6544844";"https://maps.google.com/?cid=0x0:0x479c2d423786f42b";""
"cafe";"Kedai Kopi";"GS coffe";"FJGW+7CF, Jl. Besar Tegal Lego, Gn. Melayu, Kec. Kualuh Sel., Kabupaten Labuhanbatu Utara, Sumatera Utara 21457";"Jl. Besar Tegal Lego, Gn. Melayu, Kec. Kualuh Sel., Kabupaten Labuhanbatu Utara";"SUMATERA UTARA";"21457";"Indonesia";" 085371717717";"";"";"2.4756863";"99.6460585";"https://maps.google.com/?cid=0x0:0x5edb7489f51cd800";""
"cafe";"Kafe";"FH Resto and Cafe";"FJGM+QRJ, Perk. Damuli, Kec. Kualuh Sel., Kabupaten Labuhanbatu Utara, Sumatera Utara 21457";"Perk. Damuli, Kec. Kualuh Sel., Kabupaten Labuhanbatu Utara";"SUMATERA UTARA";"21457";"Indonesia";"";"";"";"2.4769529";"99.6345293";"https://maps.google.com/?cid=0x0:0xa1ca33e06dbade5e";""
"cafe";"Restoran";"RM 33 LABURA";"FJ9V+WCP, Jl. Lintas, Damuli Pekan, Kec. Kualuh Sel., Kabupaten Labuhanbatu Utara, Sumatera Utara 21457";"Jl. Lintas, Damuli Pekan, Kec. Kualuh Sel., Kabupaten Labuhanbatu Utara";"SUMATERA UTARA";"21457";"Indonesia";" 085275848643";"";"";"2.4698389";"99.6435684";"https://maps.google.com/?cid=0x0:0x13afd8daf751186b";""
"cafe";"Dapur Umum";"Warung Kak Nur";"Sidua Dua, Kec. Kualuh Sel., Kabupaten Labuhanbatu Utara, Sumatera Utara 21457";"Kec. Kualuh Sel., Kabupaten Labuhanbatu Utara";"SUMATERA UTARA";"21457";"Indonesia";"";"";"";"2.5217954";"99.6530929";"https://maps.google.com/?cid=0x0:0x4800c9106e7dfe0d";""
"cafe";"Padang";"Warung Rambat Citro";"GPH4+878, JL Kampung Banjar, Tanjung Pasir, Kualuh Selatan, Labuhan Batu Utara, Gunting Saga, Medan, Kabupaten Labuhanbatu Utara, Sumatera Utara 21457";"JL Kampung Banjar, Tanjung Pasir, Kualuh Selatan, Labuhan Batu Utara, Gunting Saga, Medan, Kabupaten Labuhanbatu Utara";"SUMATERA UTARA";"21457";"Indonesia";" 081260740405";"";"";"2.5282944";"99.7056967";"https://maps.google.com/?cid=0x0:0xc0b2e5afbcd4453";""
"cafe";"Perhimpunan Pengembang Perumahan";"Rumah Makan Batak Sinar Toba";"Jl. Lintas Sumatra No.Km.235-236, Gn. Melayu, Kec. Kualuh Sel., Kabupaten Labuhanbatu Utara, Sumatera Utara 21457";"Gn. Melayu, Kec. Kualuh Sel., Kabupaten Labuhanbatu Utara";"SUMATERA UTARA";"21457";"Indonesia";"";"";"";"2.4546732";"99.6544266";"https://maps.google.com/?cid=0x0:0xb37af048292ce119";""
"cafe";"Rumah Makan";"RM Siagian";"CMR6+5W7, Siamporik, Kec. Kualuh Sel., Kabupaten Labuhanbatu Utara, Sumatera Utara 21457";"Siamporik, Kec. Kualuh Sel., Kabupaten Labuhanbatu Utara";"SUMATERA UTARA";"21457";"Indonesia";" 02272366845";"";"";"2.4404013";"99.6623106";"https://maps.google.com/?cid=0x0:0x4ddce5dfa153dde1";""
"cafe";"Kafe";"Burger Rafiq";"GMG4+2Q9, Jl. Lintas Sumatra, Sidua Dua, Kec. Kualuh Sel., Kabupaten Labuhanbatu Utara, Sumatera Utara 21457";"Jl. Lintas Sumatra, Sidua Dua, Kec. Kualuh Sel., Kabupaten Labuhanbatu Utara";"SUMATERA UTARA";"21457";"Indonesia";" 081260532003";"";"";"2.5250399";"99.6569787";"https://maps.google.com/?cid=0x0:0xa8345289d9088103";""
"cafe";"Kafe";"RM 9Gian";"CMR6+5WF, Jl. Lintas Sumatra, Siamporik, Kec. Kualuh Sel., Kabupaten Labuhanbatu Utara, Sumatera Utara 21457";"Jl. Lintas Sumatra, Siamporik, Kec. Kualuh Sel., Kabupaten Labuhanbatu Utara";"SUMATERA UTARA";"21457";"Indonesia";"";"";"";"2.440428";"99.6623036";"https://maps.google.com/?cid=0x0:0x3d4d3b6cbbfee5a0";""
"cafe";"Restoran";"Kede Diki";"FJGW+79M, Gn. Melayu, Kec. Kualuh Sel., Kabupaten Labuhanbatu Utara, Sumatera Utara 21457";"Gn. Melayu, Kec. Kualuh Sel., Kabupaten Labuhanbatu Utara";"SUMATERA UTARA";"21457";"Indonesia";" 082283973336";"";"";"2.4757115";"99.6459136";"https://maps.google.com/?cid=0x0:0x5b1a7f96fbf6313e";""
"cafe";"Kedai Kopi";"Coffeemilk Terasku";"FJFQ+XW2, Gn. Melayu, Kec. Kualuh Sel., Kabupaten Labuhanbatu Utara, Sumatera Utara 21457";"Gn. Melayu, Kec. Kualuh Sel., Kabupaten Labuhanbatu Utara";"SUMATERA UTARA";"21457";"Indonesia";"";"";"";"2.4749247";"99.6397467";"https://maps.google.com/?cid=0x0:0xb202200eec9294d0";""
"cafe";"Kedai Kopi";"Wan's Coffee";"6RMH+6G4, Marbau, Kec. Marbau, Kabupaten Labuhanbatu Utara, Sumatera Utara 21452";"Marbau, Kec. Marbau, Kabupaten Labuhanbatu Utara";"SUMATERA UTARA";"21452";"Indonesia";"";"";"";"2.2330078";"99.8288128";"https://maps.google.com/?cid=0x0:0x598c33e206171148";""
"cafe";"Kafe";"COC CAFE Simpang Marbau";"Simpang Marbau, Kec. Na IX-X, Kabupaten Labuhanbatu Utara, Sumatera Utara 21454";"Kec. Na IX-X, Kabupaten Labuhanbatu Utara";"SUMATERA UTARA";"21454";"Indonesia";" 082299773616";"";"";"2.2648639";"99.7747978";"https://maps.google.com/?cid=0x0:0xbb5f541b1b1d9593";""
"cafe";"Kedai Kopi";"Phr Coffee rumah bukit";"samping kantor camat, Jl. Besar, Marbau, Kec. Marbau, Kabupaten Labuhanbatu Utara, Sumatera Utara 21452";"Jl. Besar, Marbau, Kec. Marbau, Kabupaten Labuhanbatu Utara";"SUMATERA UTARA";"21452";"Indonesia";" 085668134230";"";"";"2.2612389";"99.8277803";"https://maps.google.com/?cid=0x0:0x55573b4380bcba10";""
"cafe";"Bakso";"MM Cafe";"6R8G+P6J, Babussalam, Kec. Marbau, Kabupaten Labuhanbatu Utara, Sumatera Utara 21452";"Babussalam, Kec. Marbau, Kabupaten Labuhanbatu Utara";"SUMATERA UTARA";"21452";"Indonesia";"";"";"";"2.216846";"99.825513";"https://maps.google.com/?cid=0x0:0x45a4df7c795aa93d";""
"cafe";"Kedai Kopi";"Cafe WJ";"Jl. Masjid, Perkebunan Brussel, Kec. Marbau, Kabupaten Labuhanbatu Utara, Sumatera Utara 21452";"Perkebunan Brussel, Kec. Marbau, Kabupaten Labuhanbatu Utara";"SUMATERA UTARA";"21452";"Indonesia";" 085260476990";"";"";"2.2668574";"99.8370814";"https://maps.google.com/?cid=0x0:0xc80264ba3ce6db3c";""
"cafe";"Kafe";"BATU SATU CAFE (BSC)";"Jl. Sisingamangaraja, Simpang Empat, Kec. Marbau, Kabupaten Labuhanbatu Utara, Sumatera Utara 21452";"Simpang Empat, Kec. Marbau, Kabupaten Labuhanbatu Utara";"SUMATERA UTARA";"21452";"Indonesia";"";"";"";"2.2585939";"99.8117225";"https://maps.google.com/?cid=0x0:0x786b7b98fafa1807";""
"cafe";"Pertanian";"Kedai Kopi Netral";"7V2V+MRX, Jl. Pulo Padang - Marbau, Tubiran, Kec. Marbau, Kabupaten Labuhanbatu Utara, Sumatera Utara 21452";"Jl. Pulo Padang - Marbau, Tubiran, Kec. Marbau, Kabupaten Labuhanbatu Utara";"SUMATERA UTARA";"21452";"Indonesia";" 081375745967";"";"";"2.2517391";"99.8946052";"https://maps.google.com/?cid=0x0:0xd8cf36facd4a5a98";""
"cafe";"Bakso";"Bunda cafe Bakso mercon";"Jl. Besar Marbau Sel., Marbau, Kec. Marbau, Kabupaten Labuhanbatu Utara, Sumatera Utara 21452";"Marbau, Kec. Marbau, Kabupaten Labuhanbatu Utara";"SUMATERA UTARA";"21452";"Indonesia";" 082363288092";"";"";"2.2368827";"99.8247744";"https://maps.google.com/?cid=0x0:0xb65acbfd942b06e0";""
"cafe";"Kedai Kopi";"HDT Cafe";"7R6F+CFP, Marbau, Kec. Marbau, Kabupaten Labuhanbatu Utara, Sumatera Utara 21452";"Marbau, Kec. Marbau, Kabupaten Labuhanbatu Utara";"SUMATERA UTARA";"21452";"Indonesia";" 082277774140";"";"";"2.2610851";"99.8236934";"https://maps.google.com/?cid=0x0:0x5078ae65254ef6d6";""
"cafe";"Kedai Kopi";"ONO Kopi Simpang marbau";"Simpang Empat, dusun II, Kabupaten Labuhanbatu Utara, Sumatera Utara 21454";"dusun II, Kabupaten Labuhanbatu Utara";"SUMATERA UTARA";"21454";"Indonesia";"";"";"";"2.26083";"99.7728033";"https://maps.google.com/?cid=0x0:0x5ab0523109be1da1";""
"cafe";"Kedai Kopi";"DEWI CAFE";"7RCW+PVG, Perkebunan Brussel, Kec. Marbau, Kabupaten Labuhanbatu Utara, Sumatera Utara 21452";"Perkebunan Brussel, Kec. Marbau, Kabupaten Labuhanbatu Utara";"SUMATERA UTARA";"21452";"Indonesia";"";"";"";"2.2718065";"99.8472043";"https://maps.google.com/?cid=0x0:0xe525f862b2139db6";""
"cafe";"Kafe";"Family Zus";"7R7H+6WF, Jl. Besar, Marbau, Kec. Marbau, Kabupaten Labuhanbatu Utara, Sumatera Utara 21452";"Jl. Besar, Marbau, Kec. Marbau, Kabupaten Labuhanbatu Utara";"SUMATERA UTARA";"21452";"Indonesia";" 081265383445";"";"";"2.2630665";"99.8297973";"https://maps.google.com/?cid=0x0:0x688aefca674310bd";""
"cafe";"Bakso";"SM Cafe  Snack";"7RCV+9R5, Jl. Besar Simpang Empat, Perkebunan Brussel, Kec. Marbau, Kabupaten Labuhanbatu Utara, Sumatera Utara 21452";"Jl. Besar Simpang Empat, Perkebunan Brussel, Kec. Marbau, Kabupaten Labuhanbatu Utara";"SUMATERA UTARA";"21452";"Indonesia";" 082168099678";"";"";"2.2708899";"99.8446006";"https://maps.google.com/?cid=0x0:0xd9c75f47880d8acc";""
"cafe";"Kedai Kopi";"Becofffee";"Dusun 2, Bulungihit, Kec. Marbau, Kabupaten Labuhanbatu Utara, Sumatera Utara 21452";"Bulungihit, Kec. Marbau, Kabupaten Labuhanbatu Utara";"SUMATERA UTARA";"21452";"Indonesia";" 082272813797";"";"";"2.2762749";"99.8754981";"https://maps.google.com/?cid=0x0:0x38ca181d70b3bad4";""
"cafe";"Pusat Kegiatan Warga";"wak Amat Cafe";"7V7J+468, Tubiran, Kec. Marbau, Kabupaten Labuhanbatu Utara, Sumatera Utara 21452";"Tubiran, Kec. Marbau, Kabupaten Labuhanbatu Utara";"SUMATERA UTARA";"21452";"Indonesia";" 082276832515";"";"";"2.2627936";"99.8805735";"https://maps.google.com/?cid=0x0:0x26542609b664105d";""
"cafe";"Brunch";"Warung Mak Citra";"5VJP+247, Jalan Pulo Padang, Marbau, North Labuhan Batu Regency, North Sumatra 21452";"Jalan Pulo Padang, Marbau, North Labuhan Batu Regency";"SUMATERA UTARA";"21452";"Indonesia";" 085270701502";"";"";"2.180048";"99.8853115";"https://maps.google.com/?cid=0x0:0xd40e1286e87ecd2f";""
"cafe";"Kedai Kopi";"RASYID FHOTO KOPI";"Jl. Besar Marbau Sel., Marbau, Kec. Marbau, Kabupaten Labuhanbatu Utara, Sumatera Utara 21452";"Marbau, Kec. Marbau, Kabupaten Labuhanbatu Utara";"SUMATERA UTARA";"21452";"Indonesia";" 082268100155";"";"";"2.2301029";"99.832987";"https://maps.google.com/?cid=0x0:0x75e0194b466ce263";""
"cafe";"Kedai Kopi";"Warkop Fani Kupi Aceh";"7R5H+XP8, Jl. Besar, Marbau, Kec. Marbau, Kabupaten Labuhanbatu Utara, Sumatera Utara 21452";"Jl. Besar, Marbau, Kec. Marbau, Kabupaten Labuhanbatu Utara";"SUMATERA UTARA";"21452";"Indonesia";" 085378354641";"";"";"2.2599013";"99.829318";"https://maps.google.com/?cid=0x0:0xb8fa7866c9f1e3b4";""
"cafe";"Kedai Kopi";"Rosteri kopi yuskopie";"Jl. Besar, Marbau, Kec. Marbau, Kabupaten Labuhanbatu Utara, Sumatera Utara 21452";"Marbau, Kec. Marbau, Kabupaten Labuhanbatu Utara";"SUMATERA UTARA";"21452";"Indonesia";" 082277306524";"";"";"2.2615788";"99.8284023";"https://maps.google.com/?cid=0x0:0x19a450efab7b456d";""
"cafe";"Kedai Kopi";"CASTLE CAFE";"7V4R+G2Q, Jl. Pulo Padang - Marbau, Tubiran, Kec. Marbau, Kabupaten Labuhanbatu Utara, Sumatera Utara 21452";"Jl. Pulo Padang - Marbau, Tubiran, Kec. Marbau, Kabupaten Labuhanbatu Utara";"SUMATERA UTARA";"21452";"Indonesia";"";"";"";"2.2565884";"99.8900472";"https://maps.google.com/?cid=0x0:0x6aeb3c381a222f43";""
"cafe";"Kedai Kopi";"Coffee  Cafe";"7R8Q+F7P, Perkebunan Brussel, Kec. Marbau, Kabupaten Labuhanbatu Utara, Sumatera Utara 21452";"Perkebunan Brussel, Kec. Marbau, Kabupaten Labuhanbatu Utara";"SUMATERA UTARA";"21452";"Indonesia";"";"";"";"2.2662102";"99.8381989";"https://maps.google.com/?cid=0x0:0xe75ff770d2809508";""
"cafe";"Kedai Kopi";"CS. Pemuda 45(kedai kopi)";"Jl. Besar Simpang Empat, Perkebunan Brussel, Kec. Marbau, Kabupaten Labuhanbatu Utara, Sumatera Utara 21452";"Perkebunan Brussel, Kec. Marbau, Kabupaten Labuhanbatu Utara";"SUMATERA UTARA";"21452";"Indonesia";" 082364404480";"";"";"2.2717195";"99.8461552";"https://maps.google.com/?cid=0x0:0x45740af9a86ee53e";""
"cafe";"Kedai Kopi";"Monggo Meriki Cafe "PHR Coffee"";"7V2X+PGJ, Dusun IV Sipare pareTengan, Tubiran, Kec. Marbau, Kabupaten Labuhanbatu Utara, Sumatera Utara 21452";"Dusun IV Sipare pareTengan, Tubiran, Kec. Marbau, Kabupaten Labuhanbatu Utara";"SUMATERA UTARA";"21452";"Indonesia";"";"";"";"2.2518466";"99.8987604";"https://maps.google.com/?cid=0x0:0x7ef2b374013d52a4";""
"cafe";"Kedai Kopi";"WIN KUPIE GAYO";"7V7G+QX8, Jl. Pulo Padang - Marbau, Belongkut, Kec. Marbau, Kabupaten Labuhanbatu Utara, Sumatera Utara 21452";"Jl. Pulo Padang - Marbau, Belongkut, Kec. Marbau, Kabupaten Labuhanbatu Utara";"SUMATERA UTARA";"21452";"Indonesia";" 082168139989";"";"";"2.2644034";"99.8774501";"https://maps.google.com/?cid=0x0:0x13436c72f65b0bd3";""
"cafe";"Kantin sekolah";"Kantin Danu Winata";"dusun 3 kampung jawa, Marbau Sel., Kec. Marbau, Kabupaten Labuhanbatu Utara, Sumatera Utara 21452";"Marbau Sel., Kec. Marbau, Kabupaten Labuhanbatu Utara";"SUMATERA UTARA";"21452";"Indonesia";" 082361114584";"";"";"2.2350736";"99.8271123";"https://maps.google.com/?cid=0x0:0x5e5f6f2918cb450f";""
"cafe";"Kedai Kopi";"SARANG KOPI";"7VC3+Q8R, Perkebunan Brussel, Kec. Marbau, Kabupaten Labuhanbatu Utara, Sumatera Utara 21452";"Perkebunan Brussel, Kec. Marbau, Kabupaten Labuhanbatu Utara";"SUMATERA UTARA";"21452";"Indonesia";"";"";"";"2.2719774";"99.8532747";"https://maps.google.com/?cid=0x0:0x9c51062220701235";""
"cafe";"Restoran";"CAFE HITAM PUTIH SIMPANG4 LABURA";"7R8Q+F9C, Simpang Empat, Kec. Marbau, Kabupaten Labuhanbatu Utara, Sumatera Utara 21452";"Simpang Empat, Kec. Marbau, Kabupaten Labuhanbatu Utara";"SUMATERA UTARA";"21452";"Indonesia";" 082163138814";"";"";"2.266186";"99.8383997";"https://maps.google.com/?cid=0x0:0x9077ace7e4204c51";""
"cafe";"cafe";"Sumatera Utara 21454";"Kec. Na IX-X, Kabupaten Labuhanbatu Utara, Sumatera Utara";"Kabupaten Labuhanbatu Utara, Sumatera Utara";"SUMATERA UTARA";"";"Indonesia";"";"";"";"2.1532664";"99.6786894";"https://maps.google.com/?cid=0x0:0xa1d048494249269a";""
"cafe";"Kedai Kopi";"RHL Cafe and Resto";"Link III Simpang Panigoran, Aek Kota Batu, Kec. Na IX-X, Kabupaten Labuhanbatu Utara, Sumatera Utara 21454";"Aek Kota Batu, Kec. Na IX-X, Kabupaten Labuhanbatu Utara";"SUMATERA UTARA";"21454";"Indonesia";" 081263224296";"";"";"2.2797818";"99.7614118";"https://maps.google.com/?cid=0x0:0x967feb0293ba02e8";""
"cafe";"Kedai Kopi";"Heraloka Coffee  Eatry";"AH25, Aek Kota Batu, Kec. Na IX-X, Kabupaten Labuhanbatu Utara, Sumatera Utara 21454";"Aek Kota Batu, Kec. Na IX-X, Kabupaten Labuhanbatu Utara";"SUMATERA UTARA";"21454";"Indonesia";" 082162700700";"";"";"2.2826488";"99.7593765";"https://maps.google.com/?cid=0x0:0x5c9d6465c684fb88";""
"cafe";"Kafe";"Supardi Cafe";"7Q96+WFQ, Aek Kota Batu, Kec. Na IX-X, Kabupaten Labuhanbatu Utara, Sumatera Utara 21454";"Aek Kota Batu, Kec. Na IX-X, Kabupaten Labuhanbatu Utara";"SUMATERA UTARA";"21454";"Indonesia";"";"";"";"2.2698362";"99.7612364";"https://maps.google.com/?cid=0x0:0xb82c799ad4e6400e";""
"cafe";"Kafe";"Al - cafe";"7M93+PG2, Meranti Omas, Kec. Na IX-X, Kabupaten Labuhanbatu Utara, Sumatera Utara 21455";"Meranti Omas, Kec. Na IX-X, Kabupaten Labuhanbatu Utara";"SUMATERA UTARA";"21455";"Indonesia";"";"";"";"2.2699686";"99.6540656";"https://maps.google.com/?cid=0x0:0x682d805e5ec84f21";""
"cafe";"Restoran";"Aura Cafe  Karaoke";"7PVX+X2W, Pulo Jantan, Kec. Na IX-X, Kabupaten Labuhanbatu Utara, Sumatera Utara 21455";"Pulo Jantan, Kec. Na IX-X, Kabupaten Labuhanbatu Utara";"SUMATERA UTARA";"21455";"Indonesia";"";"";"";"2.2949966";"99.7475874";"https://maps.google.com/?cid=0x0:0xd452ed6a452ccc70";""
"cafe";"Kafe";"OZCAL COFFEE";"Jl. Suka Bangsa, Kp. Pajak, Kec. Na IX-X, Kabupaten Labuhanbatu Utara, Sumatera Utara 21452";"Kp. Pajak, Kec. Na IX-X, Kabupaten Labuhanbatu Utara";"SUMATERA UTARA";"21452";"Indonesia";" 082368489250";"";"";"2.2585556";"99.7702133";"https://maps.google.com/?cid=0x0:0xdd205788db25a918";""
"cafe";"Kedai Kopi";"KEDAI KOPI NETRAL";"Pulo Jantan, Kec. Na IX-X, Kabupaten Labuhanbatu Utara, Sumatera Utara 21455";"Kec. Na IX-X, Kabupaten Labuhanbatu Utara";"SUMATERA UTARA";"21455";"Indonesia";" 081375745967";"";"";"2.2943365";"99.7487237";"https://maps.google.com/?cid=0x0:0x6caf239fc76184d3";""
"cafe";"Kafe";"Cafe AY";"Jalan kota raja depan kantor samsat, Pulo Jantan, Kec. Na IX-X, Kabupaten Labuhanbatu Utara, Sumatera Utara 21454";"Pulo Jantan, Kec. Na IX-X, Kabupaten Labuhanbatu Utara";"SUMATERA UTARA";"21454";"Indonesia";" 082224146951";"";"";"2.2963129";"99.7454593";"https://maps.google.com/?cid=0x0:0x225bf30437192814";""
"cafe";"Kedai Kopi";"Coffee 25 hours";"7QH7+JQJ, Pulo Jantan, Kec. Na IX-X, Kabupaten Labuhanbatu Utara, Sumatera Utara 21452";"Pulo Jantan, Kec. Na IX-X, Kabupaten Labuhanbatu Utara";"SUMATERA UTARA";"21452";"Indonesia";" 085371570233";"";"";"2.2790881";"99.7643954";"https://maps.google.com/?cid=0x0:0xeda97bffa157b711";""
"cafe";"Kedai Kopi";"Khanza Boba  Mini Cafe";"Jl. Lintas Sumatra No.Utara, Aek Kota Batu, Kec. Na IX-X, Kabupaten Labuhanbatu Utara, Sumatera Utara";"Kabupaten Labuhanbatu Utara, Sumatera Utara";"SUMATERA UTARA";"";"Indonesia";"";"";"";"2.2761302";"99.7621144";"https://maps.google.com/?cid=0x0:0xb3692698fba67481";""
"cafe";"Kedai Kopi";"Coffeeshop KAFENEIO";"8P7M+V8F, Bangun Rejo, Kec. Na IX-X, Kabupaten Labuhanbatu Utara, Sumatera Utara 21455";"Bangun Rejo, Kec. Na IX-X, Kabupaten Labuhanbatu Utara";"SUMATERA UTARA";"21455";"Indonesia";" 082276115084";"";"";"2.3146918";"99.7332815";"https://maps.google.com/?cid=0x0:0xff0c3dccc85ccd8f";""
"cafe";"Kafe";"ND coffee";"7QG6+HW7, Jl. Lintas Sumatra, Aek Kota Batu, Kec. Na IX-X, Kabupaten Labuhanbatu Utara, Sumatera Utara 21454";"Jl. Lintas Sumatra, Aek Kota Batu, Kec. Na IX-X, Kabupaten Labuhanbatu Utara";"SUMATERA UTARA";"21454";"Indonesia";" 081396948368";"";"";"2.2763596";"99.7623689";"https://maps.google.com/?cid=0x0:0x7cd487ea0b33ae9f";""
"cafe";"Kafe";"Dak^te Cafe";"8P2R+R79, Jl. Lintas Sumatra, Kp. Pajak, Kec. Na IX-X, Kabupaten Labuhanbatu Utara, Sumatera Utara 21455";"Jl. Lintas Sumatra, Kp. Pajak, Kec. Na IX-X, Kabupaten Labuhanbatu Utara";"SUMATERA UTARA";"21455";"Indonesia";" 08116227181";"";"";"2.3020371";"99.7407207";"https://maps.google.com/?cid=0x0:0x94305d1c9035c242";""
"cafe";"Kedai Kopi";"Kedai kopi Remedi";"Pulo jantan, Kec. Na IX-X, Kabupaten Labuhanbatu Utara, Sumatera Utara 21454";"Kec. Na IX-X, Kabupaten Labuhanbatu Utara";"SUMATERA UTARA";"21454";"Indonesia";" 082227394700";"";"";"2.2835682";"99.7669665";"https://maps.google.com/?cid=0x0:0x6af8847007a7f13d";""
"cafe";"Kedai Kopi";"Hasian Cafe";"Jl. Lintas Sumatra, Kp. Pajak, Kec. Na IX-X, Kabupaten Labuhanbatu Utara, Sumatera Utara 21455";"Kp. Pajak, Kec. Na IX-X, Kabupaten Labuhanbatu Utara";"SUMATERA UTARA";"21455";"Indonesia";" 085362729924";"";"";"2.2971126";"99.7441245";"https://maps.google.com/?cid=0x0:0x63d418208d679450";""
"cafe";"Kedai Kopi";"Maranti coffee";"7J6W+34J, Dusun I Balai Desa, Meranti Omas, Kec. Na IX-X, Kabupaten Labuhanbatu Utara, Sumatera Utara";"Kabupaten Labuhanbatu Utara, Sumatera Utara";"SUMATERA UTARA";"";"Indonesia";"";"";"";"2.2602168";"99.6452714";"https://maps.google.com/?cid=0x0:0x2ec3fef01187cc1c";""
"cafe";"Kafe";"Radjane Kopi";"Kota raja, Kp. Pajak, Kec. Na IX-X, Kabupaten Labuhanbatu Utara, Sumatera Utara 21454";"Kp. Pajak, Kec. Na IX-X, Kabupaten Labuhanbatu Utara";"SUMATERA UTARA";"21454";"Indonesia";" 082268834702";"";"";"2.2945343";"99.7481254";"https://maps.google.com/?cid=0x0:0x8d75177363b89f13";""
"cafe";"Kafe";"The ModHouse Cafe";"6QFG+83J, Berangir Pd. Turi, Simpang Marbau, Kec. Na IX-X, Kabupaten Labuhanbatu Utara, Sumatera Utara 21452";"Berangir Pd. Turi, Simpang Marbau, Kec. Na IX-X, Kabupaten Labuhanbatu Utara";"SUMATERA UTARA";"21452";"Indonesia";" 082288825235";"";"";"2.2233315";"99.7751514";"https://maps.google.com/?cid=0x0:0xe53cf94ee79b0006";""
"cafe";"Kafe";"Wak Asiman";"5M7Q+5WW, Sungai Raja, Kec. Na IX-X, Kabupaten Labuhanbatu Utara, Sumatera Utara 21454";"Sungai Raja, Kec. Na IX-X, Kabupaten Labuhanbatu Utara";"SUMATERA UTARA";"21454";"Indonesia";" 085358102863";"";"";"2.1629805";"99.6898253";"https://maps.google.com/?cid=0x0:0x79b46e06812d093e";""
"cafe";"Kedai Kopi";"ONO Kopi Simpang marbau";"Simpang Empat, dusun II, Kabupaten Labuhanbatu Utara, Sumatera Utara 21454";"dusun II, Kabupaten Labuhanbatu Utara";"SUMATERA UTARA";"21454";"Indonesia";"";"";"";"2.26083";"99.7728033";"https://maps.google.com/?cid=0x0:0x5ab0523109be1da1";""
"cafe";"Kafe";"BATU SATU CAFE (BSC)";"Jl. Sisingamangaraja, Simpang Empat, Kec. Marbau, Kabupaten Labuhanbatu Utara, Sumatera Utara 21452";"Simpang Empat, Kec. Marbau, Kabupaten Labuhanbatu Utara";"SUMATERA UTARA";"21452";"Indonesia";"";"";"";"2.2585939";"99.8117225";"https://maps.google.com/?cid=0x0:0x786b7b98fafa1807";""
"cafe";"Kedai Kopi";"CASTLE CAFE";"7V4R+G2Q, Jl. Pulo Padang - Marbau, Tubiran, Kec. Marbau, Kabupaten Labuhanbatu Utara, Sumatera Utara 21452";"Jl. Pulo Padang - Marbau, Tubiran, Kec. Marbau, Kabupaten Labuhanbatu Utara";"SUMATERA UTARA";"21452";"Indonesia";"";"";"";"2.2565884";"99.8900472";"https://maps.google.com/?cid=0x0:0x6aeb3c381a222f43";""
"cafe";"cafe";"N/A";"";"";"SUMATERA UTARA";"";"Indonesia";"";"";"";"";"";"https://maps.google.com/?cid=0x0:0xbb5f541b1b1d9593u0026onu003dNasi+Ayam+Penyetu0026midu003d/g/11gjxz6hc6";""
"cafe";"cafe";"N/A";"";"";"SUMATERA UTARA";"";"Indonesia";"";"";"";"";"";"https://maps.google.com/?cid=0x0:0xbb5f541b1b1d9593u0026onu003dBurger+Daging+Kejuu0026midu003d/g/11gjxz6hc6";""
"cafe";"cafe";"N/A";"";"";"SUMATERA UTARA";"";"Indonesia";"";"";"";"";"";"https://maps.google.com/?cid=0x0:0xbb5f541b1b1d9593u0026onu003dCoklat+Panasu0026midu003d/g/11gjxz6hc6";""
"cafe";"cafe";"N/A";"";"";"SUMATERA UTARA";"";"Indonesia";"";"";"";"";"";"https://maps.google.com/?cid=0x0:0xbb5f541b1b1d9593u0026onu0026midu003d/g/11gjxz6hc6";""
"cafe";"Kafe";"Warkop MAHADANA";"Jl. Lintas Sumatra No.simpang, Perkebunan Panigoran, Kec. Na IX-X, Kabupaten Labuhanbatu Utara, Sumatera Utara 21452";"Perkebunan Panigoran, Kec. Na IX-X, Kabupaten Labuhanbatu Utara";"SUMATERA UTARA";"21452";"Indonesia";" 082370766072";"";"";"2.2787623";"99.7618214";"https://maps.google.com/?cid=0x0:0x3a8af9bb48af9c93";""
