Category;Real Category;Business Name;Address;City;State;Postal Code;Country;Phone;Email;Website;Latitude;Longitude;Map Link;Details Link
building materials;building materials;Kec. Aek Kuo;"Kabupaten Labuhanbatu Utara, Sumatera Utara";"Kabupaten Labuhanbatu Utara, Sumatera Utara";SUMATERA UTARA;;Indonesia;;;;23.161.726;998.203.062;https://maps.google.com/?cid=0x0:0x4039d80b220d250;
building materials;Toko Bahan Bangunan;Toko Sinar(Binsar Kalit);"Jl. Stasiun Padang Halaban, Sidomulyo dusun 1, Perkebunan Panigoran, Kec. Aek Kuo, Kabupaten Labuhanbatu Utara, Sumatera Utara 21455";"Sidomulyo dusun 1, Perkebunan Panigoran, Kec. Aek Kuo, Kabupaten Labuhanbatu Utara";SUMATERA UTARA;21455;Indonesia;085275599551;;;23.162.003;998.199.099;https://maps.google.com/?cid=0x0:0xdc54c85be1179442;
building materials;;UD ULFAH;"7RCR+4JX, Perkebunan Brussel, Kec. Marbau, Kabupaten Labuhanbatu Utara, Sumatera Utara 21452";"Perkebunan Brussel, Kec. Marbau, Kabupaten Labuhanbatu Utara";SUMATERA UTARA;21452;Indonesia;;;;2.270.355;99.841.616;https://maps.google.com/?cid=0x0:0xe1ea2beb2bf222d1;
building materials;Toko Bahan Bangunan;Sukses Bersama;"7PVX+CM5, Jl. Lintas Sumatra, Pulo Jantan, Kec. Na IX-X, Kabupaten Labuhanbatu Utara, Sumatera Utara";"Kabupaten Labuhanbatu Utara, Sumatera Utara";SUMATERA UTARA;;Indonesia;082365221195;;;22.939.196;997.491.616;https://maps.google.com/?cid=0x0:0x9bf14eb388cffe63;
building materials;Toko Bahan Bangunan;UD. Gery Jaya;"Jl. Masjid No.3533, Marbau, Kec. Marbau, Kabupaten Labuhanbatu Utara, Sumatera Utara 21452";"Marbau, Kec. Marbau, Kabupaten Labuhanbatu Utara";SUMATERA UTARA;21452;Indonesia;081264007962;;;22.645.387;998.310.477;https://maps.google.com/?cid=0x0:0x97a14095ea8d6e89;
building materials;Toko Bahan Bangunan;SAHABAT MARBAU SEJAHTERA;"7Q6C+FG4, Desa, Simpang Empat, Kec. Na IX-X, Kabupaten Labuhanbatu Utara, Sumatera Utara 21454";"Desa, Simpang Empat, Kec. Na IX-X, Kabupaten Labuhanbatu Utara";SUMATERA UTARA;21454;Indonesia;085360246400;;;22.611.467;997.713.362;https://maps.google.com/?cid=0x0:0xe3b979b19446e89c;
building materials;Developer Rumah Hunian Khusus;PT. RAJA BATU ABADI;"8PFH+2VF, Desa, Kp. Yaman, Kec. Aek Natas, Kabupaten Labuhanbatu Utara, Sumatera Utara 21455";"Desa, Kp. Yaman, Kec. Aek Natas, Kabupaten Labuhanbatu Utara";SUMATERA UTARA;21455;Indonesia;082163109600;;;2.322.557;997.296.743;https://maps.google.com/?cid=0x0:0xf93a4bffc0eddbbc;
building materials;Perusahaan desain industri;BATU NISAN - AHLI UKIR PRASASTI Kp.Pajak;"8P2R+3XW, Kampung Pajak, Gg, Kilang, Kec. Na IX-X, Kabupaten Labuhanbatu Utara, Sumatera Utara 21455";"Kampung Pajak, Gg, Kilang, Kec. Na IX-X, Kabupaten Labuhanbatu Utara";SUMATERA UTARA;21455;Indonesia;;;;23.002.263;997.424.473;https://maps.google.com/?cid=0x0:0xe138cc4c0ebc7048;
building materials;Toko Bahan Bangunan;PANGLONG SINAR BARU;"Asian Highway No.25, Aek Kota Batu, Na IX-X, North Labuhan Batu Regency, North Sumatra 21452";"Aek Kota Batu, Na IX-X, North Labuhan Batu Regency";SUMATERA UTARA;21452;Indonesia;;;;22.777.005;997.620.653;https://maps.google.com/?cid=0x0:0x97db0291e6c848bb;
building materials;Toko;UD. MAJU JAYA;"Ujung Padang, Kec. Aek Natas, Kabupaten Labuhanbatu Utara, Sumatera Utara";"Kabupaten Labuhanbatu Utara, Sumatera Utara";SUMATERA UTARA;;Indonesia;;;;2.454.954;997.791.011;https://maps.google.com/?cid=0x0:0x29820a56d80bef0b;
building materials;Toko Bahan Bangunan;Panglong Sabar Jaya;"CQR5+CXF, Unnamed Road, Pangkalan, Aek Natas, North Labuhan Batu Regency, North Sumatra 21455";"Unnamed Road, Pangkalan, Aek Natas, North Labuhan Batu Regency";SUMATERA UTARA;21455;Indonesia;;;;2.441.062;99.759.937;https://maps.google.com/?cid=0x0:0x1abae6aec0fda194;
building materials;Toko Bahan Bangunan;TB.AR SINAGA;"Jl. Lintas Sumatra No.utara, Kp. Pajak, Kec. Na IX-X, Kabupaten Labuhanbatu Utara, Sumatera Utara 21454";"Kp. Pajak, Kec. Na IX-X, Kabupaten Labuhanbatu Utara";SUMATERA UTARA;21454;Indonesia;;;;23.009.775;997.411.794;https://maps.google.com/?cid=0x0:0xfa76d6cea3084ed4;
building materials;Toko;Ud. Bagus Baja;"Pulo Jantan, Kec. Na IX-X, Kabupaten Labuhanbatu Utara, Sumatera Utara";"Kabupaten Labuhanbatu Utara, Sumatera Utara";SUMATERA UTARA;;Indonesia;;;;22.975.136;997.441.198;https://maps.google.com/?cid=0x0:0xfacd0e34f158d58b;
building materials;Bank;Agen Brilink Julmukabbah Hsb / UCOK LEO;"Jl. Besar Rintis, Ujung Padang, Kec. Aek Natas, Kabupaten Labuhanbatu Utara, Sumatera Utara 21455";"Ujung Padang, Kec. Aek Natas, Kabupaten Labuhanbatu Utara";SUMATERA UTARA;21455;Indonesia;;;;2.436.052;997.654.147;https://maps.google.com/?cid=0x0:0xfcc4637103ea7b67;
building materials;Toko Perlengkapan Rumah;Panglong Bintang jaya;"7V6P+78, Tubiran, Kec. Marbau, Kabupaten Labuhanbatu Utara, Sumatera Utara 21452";"Tubiran, Kec. Marbau, Kabupaten Labuhanbatu Utara";SUMATERA UTARA;21452;Indonesia;;;;22.606.481;998.858.269;https://maps.google.com/?cid=0x0:0x38f9195d178defa;
building materials;Toko Bahan Bangunan;TANJUNG JAYA;"Simpang 4 Inpres T.1000, Jl. Besar Marbau Sel., Marbau, Kec. Marbau, Kabupaten Labuhanbatu Utara, Sumatera Utara 21452";"Jl. Besar Marbau Sel., Marbau, Kec. Marbau, Kabupaten Labuhanbatu Utara";SUMATERA UTARA;21452;Indonesia;;;;22.300.117;998.306.876;https://maps.google.com/?cid=0x0:0xce313d3400fa0f64;
building materials;Toko Perlengkapan Rumah;Toko S. Munthe;"7QH6+HP8, Jl. Lintas Sumatra, Aek Kota Batu, Kec. Na IX-X, Kabupaten Labuhanbatu Utara, Sumatera Utara 21452";"Jl. Lintas Sumatra, Aek Kota Batu, Kec. Na IX-X, Kabupaten Labuhanbatu Utara";SUMATERA UTARA;21452;Indonesia;082166908813;;;22.789.153;997.618.383;https://maps.google.com/?cid=0x0:0xf61bdae7e73a4ec8;
building materials;building materials;Sumatera Utara 21455;"Kabupaten Labuhanbatu Utara, Sumatera Utara";"Kabupaten Labuhanbatu Utara, Sumatera Utara";SUMATERA UTARA;;Indonesia;;;;21.543.963;995.006.143;https://maps.google.com/?cid=0x0:0x391266e2c2e7c92;
building materials;Toko Bahan Bangunan;Arfan sagala;"Jl.linsum terang bulan, Aek kanopan, Kec. Aek Natas, Kabupaten Labuhanbatu Utara, Sumatera Utara 21455";"Aek kanopan, Kec. Aek Natas, Kabupaten Labuhanbatu Utara";SUMATERA UTARA;21455;Indonesia;083827358143;;;24.185.046;996.825.956;https://maps.google.com/?cid=0x0:0x4bf5f307911fc0e0;
building materials;Toko Bahan Bangunan;Expo Aek Kanopan;"Jl. Lintas Sumatra No.16, Aek Kanopan Tim., Kec. Kualuh Hulu, Kabupaten Asahan, Sumatera Utara 21273";"Aek Kanopan Tim., Kec. Kualuh Hulu, Kabupaten Asahan";SUMATERA UTARA;21273;Indonesia;087773968995;;;25.833.843;99.652.778;https://maps.google.com/?cid=0x0:0x46317fde463bea60;
building materials;Toko Alat-Alat;Putra Makita;"Jl. Lintas Sumatra No.9, Pulo Jantan, Kec. Na IX-X, Kabupaten Labuhanbatu Utara, Sumatera Utara 21455";"Pulo Jantan, Kec. Na IX-X, Kabupaten Labuhanbatu Utara";SUMATERA UTARA;21455;Indonesia;;;;22.967.877;997.447.643;https://maps.google.com/?cid=0x0:0x2cf6848a886da12c;
building materials;;UD ULFAH;"7RCR+4JX, Perkebunan Brussel, Kec. Marbau, Kabupaten Labuhanbatu Utara, Sumatera Utara 21452";"Perkebunan Brussel, Kec. Marbau, Kabupaten Labuhanbatu Utara";SUMATERA UTARA;21452;Indonesia;;;;2.270.355;99.841.616;https://maps.google.com/?cid=0x0:0xe1ea2beb2bf222d1;
building materials;Toko Bahan Bangunan;PANGLONG SUBUR JAYA;"Jl. Lintas Sumatra No.16, Kp. Yaman, Kec. Aek Natas, Kabupaten Labuhanbatu Utara, Sumatera Utara 21455";"Kp. Yaman, Kec. Aek Natas, Kabupaten Labuhanbatu Utara";SUMATERA UTARA;21455;Indonesia;;;;23.422.867;997.221.916;https://maps.google.com/?cid=0x0:0x6f56956c78b73227;
building materials;Toko Bahan Bangunan;SAHABAT MARBAU SEJAHTERA;"7Q6C+FG4, Desa, Simpang Empat, Kec. Na IX-X, Kabupaten Labuhanbatu Utara, Sumatera Utara 21454";"Desa, Simpang Empat, Kec. Na IX-X, Kabupaten Labuhanbatu Utara";SUMATERA UTARA;21454;Indonesia;085360246400;;;22.611.467;997.713.362;https://maps.google.com/?cid=0x0:0xe3b979b19446e89c;
building materials;Toko Bahan Bangunan;PANGLONG SINAR BARU;"Asian Highway No.25, Aek Kota Batu, Na IX-X, North Labuhan Batu Regency, North Sumatra 21452";"Aek Kota Batu, Na IX-X, North Labuhan Batu Regency";SUMATERA UTARA;21452;Indonesia;;;;22.777.005;997.620.653;https://maps.google.com/?cid=0x0:0x97db0291e6c848bb;
building materials;Toko Bahan Bangunan;Panglong Sabar Jaya;"CQR5+CXF, Unnamed Road, Pangkalan, Aek Natas, North Labuhan Batu Regency, North Sumatra 21455";"Unnamed Road, Pangkalan, Aek Natas, North Labuhan Batu Regency";SUMATERA UTARA;21455;Indonesia;;;;2.441.062;99.759.937;https://maps.google.com/?cid=0x0:0x1abae6aec0fda194;
building materials;Toko Bahan Bangunan;Sukses Bersama;"7PVX+CM5, Jl. Lintas Sumatra, Pulo Jantan, Kec. Na IX-X, Kabupaten Labuhanbatu Utara, Sumatera Utara";"Kabupaten Labuhanbatu Utara, Sumatera Utara";SUMATERA UTARA;;Indonesia;082365221195;;;22.939.196;997.491.616;https://maps.google.com/?cid=0x0:0x9bf14eb388cffe63;
building materials;Toko Bahan Bangunan;TB.AR SINAGA;"Jl. Lintas Sumatra No.utara, Kp. Pajak, Kec. Na IX-X, Kabupaten Labuhanbatu Utara, Sumatera Utara 21454";"Kp. Pajak, Kec. Na IX-X, Kabupaten Labuhanbatu Utara";SUMATERA UTARA;21454;Indonesia;;;;23.009.775;997.411.794;https://maps.google.com/?cid=0x0:0xfa76d6cea3084ed4;
building materials;Toko;Mandiri Jaya UD;"Jl. Lintas Sumatera Ledong Barat, Aek Kanopan, Kec. Aek Ledong, Kabupaten Asahan, Sumatera Utara 21273";"Aek Kanopan, Kec. Aek Ledong, Kabupaten Asahan";SUMATERA UTARA;21273;Indonesia;085261555199;;;25.917.512;996.452.823;https://maps.google.com/?cid=0x0:0xb19620fb18f67d43;
building materials;Perusahaan desain industri;BATU NISAN - AHLI UKIR PRASASTI Kp.Pajak;"8P2R+3XW, Kampung Pajak, Gg, Kilang, Kec. Na IX-X, Kabupaten Labuhanbatu Utara, Sumatera Utara 21455";"Kampung Pajak, Gg, Kilang, Kec. Na IX-X, Kabupaten Labuhanbatu Utara";SUMATERA UTARA;21455;Indonesia;;;;23.002.263;997.424.473;https://maps.google.com/?cid=0x0:0xe138cc4c0ebc7048;
building materials;Toko Bahan Bangunan;UD. Gery Jaya;"Jl. Masjid No.3533, Marbau, Kec. Marbau, Kabupaten Labuhanbatu Utara, Sumatera Utara 21452";"Marbau, Kec. Marbau, Kabupaten Labuhanbatu Utara";SUMATERA UTARA;21452;Indonesia;081264007962;;;22.645.387;998.310.477;https://maps.google.com/?cid=0x0:0x97a14095ea8d6e89;
building materials;Toko Cat;Toko Bangun Jaya;"Jl. Jenderal Sudirman No.168, Aek Kanopan Tim., Kec. Kualuh Hulu, Kabupaten Labuhanbatu Utara, Sumatera Utara 21273";"Aek Kanopan Tim., Kec. Kualuh Hulu, Kabupaten Labuhanbatu Utara";SUMATERA UTARA;21273;Indonesia;083872566044;;;25.718.276;996.531.224;https://maps.google.com/?cid=0x0:0xfcf638a83824a00;
building materials;Toko Perlengkapan Rumah;Toko S. Munthe;"7QH6+HP8, Jl. Lintas Sumatra, Aek Kota Batu, Kec. Na IX-X, Kabupaten Labuhanbatu Utara, Sumatera Utara 21452";"Jl. Lintas Sumatra, Aek Kota Batu, Kec. Na IX-X, Kabupaten Labuhanbatu Utara";SUMATERA UTARA;21452;Indonesia;082166908813;;;22.789.153;997.618.383;https://maps.google.com/?cid=0x0:0xf61bdae7e73a4ec8;
building materials;Toko;UD. MAJU JAYA;"Ujung Padang, Kec. Aek Natas, Kabupaten Labuhanbatu Utara, Sumatera Utara";"Kabupaten Labuhanbatu Utara, Sumatera Utara";SUMATERA UTARA;;Indonesia;;;;2.454.954;997.791.011;https://maps.google.com/?cid=0x0:0x29820a56d80bef0b;
building materials;Toko Bahan Bangunan;Toko Baru;"Jl. Jenderal Sudirman No.26, Aek Kanopan Tim., Kec. Kualuh Hulu, Kabupaten Labuhanbatu Utara, Sumatera Utara 21454";"Aek Kanopan Tim., Kec. Kualuh Hulu, Kabupaten Labuhanbatu Utara";SUMATERA UTARA;21454;Indonesia;085261388838;;;25.675.378;996.540.722;https://maps.google.com/?cid=0x0:0x3013c9afdd5d5fa3;
building materials;Toko Perlengkapan Rumah;Panglong Bintang jaya;"7V6P+78, Tubiran, Kec. Marbau, Kabupaten Labuhanbatu Utara, Sumatera Utara 21452";"Tubiran, Kec. Marbau, Kabupaten Labuhanbatu Utara";SUMATERA UTARA;21452;Indonesia;;;;22.606.481;998.858.269;https://maps.google.com/?cid=0x0:0x38f9195d178defa;
building materials;Toko Bahan Bangunan;UD. FAJAR BARU;"Jl. Lintas Sumatra No.13, Ael Loba Pekan, Kec. Aek Kuasan, Kabupaten Asahan, Sumatera Utara 21273";"Ael Loba Pekan, Kec. Aek Kuasan, Kabupaten Asahan";SUMATERA UTARA;21273;Indonesia;083872566033;;;26.513.208;996.325.911;https://maps.google.com/?cid=0x0:0x2d8f58efaf166722;
building materials;building materials;Kec. Aek Natas;"Kabupaten Labuhanbatu Utara, Sumatera Utara";"Kabupaten Labuhanbatu Utara, Sumatera Utara";SUMATERA UTARA;;Indonesia;;;;23.459.816;997.209.993;https://maps.google.com/?cid=0x0:0xd7db60ca7133d417;
building materials;Developer Rumah Hunian Khusus;PT. RAJA BATU ABADI;"8PFH+2VF, Desa, Kp. Yaman, Kec. Aek Natas, Kabupaten Labuhanbatu Utara, Sumatera Utara 21455";"Desa, Kp. Yaman, Kec. Aek Natas, Kabupaten Labuhanbatu Utara";SUMATERA UTARA;21455;Indonesia;082163109600;;;2.322.557;997.296.743;https://maps.google.com/?cid=0x0:0xf93a4bffc0eddbbc;
building materials;Bank;Agen Brilink Julmukabbah Hsb / UCOK LEO;"Jl. Besar Rintis, Ujung Padang, Kec. Aek Natas, Kabupaten Labuhanbatu Utara, Sumatera Utara 21455";"Ujung Padang, Kec. Aek Natas, Kabupaten Labuhanbatu Utara";SUMATERA UTARA;21455;Indonesia;;;;2.436.052;997.654.147;https://maps.google.com/?cid=0x0:0xfcc4637103ea7b67;
building materials;Toko Perlengkapan Rumah;Tangkahan Pasir;"GP7P+CR, Tj. Pasir, Kec. Kualuh Sel., Kabupaten Labuhanbatu Utara, Sumatera Utara";"Kabupaten Labuhanbatu Utara, Sumatera Utara";SUMATERA UTARA;;Indonesia;;;;25.136.043;997.370.413;https://maps.google.com/?cid=0x0:0x957d430514c03d18;
building materials;building materials;Scaffolding Lift Passenger Lift Material - CV Mulya Perkasa;"Jl. Angkatan No.208, Aek Kanopan, Kec. Kualuh Hulu, Kabupaten Labuhanbatu Utara, Sumatera Utara 21273";"Aek Kanopan, Kec. Kualuh Hulu, Kabupaten Labuhanbatu Utara";SUMATERA UTARA;21273;Indonesia;;;;2.567.416;99.648.903;https://maps.google.com/?cid=0x0:0xc59695aec8d2ac51;
building materials;Toko Bahan Bangunan;Usaha Adek;"2VQG+H2J, JL Besar Tanjung Siram, Sigambal, Rantau Selatan, Rantauprapat, Kec. Bilah Hulu, Kab. Labuhanbatu, Sumatera Utara 21425";"JL Besar Tanjung Siram, Sigambal, Rantau Selatan, Rantauprapat, Kec. Bilah Hulu, Kab. Labuhanbatu";SUMATERA UTARA;21425;Indonesia;062423373;;;20.389.714;998.750.074;https://maps.google.com/?cid=0x0:0x5e942f62056f99b0;
building materials;Toko Bahan Bangunan;Randy. UD;"HJ88+XXV, Aek Kanopan, Kec. Kualuh Hulu, Kabupaten Labuhanbatu Utara, Sumatera Utara 21273";"Aek Kanopan, Kec. Kualuh Hulu, Kabupaten Labuhanbatu Utara";SUMATERA UTARA;21273;Indonesia;0624693701;;;2.567.495;99.617.434;https://maps.google.com/?cid=0x0:0x15e86acb2493d1e5;
building materials;building materials;Panglong dua putri;"GP7R+P29, Jl. Tj. Pasir, Tj. Pasir, Kec. Kualuh Sel., Kabupaten Labuhanbatu Utara, Sumatera Utara 21457";"Jl. Tj. Pasir, Tj. Pasir, Kec. Kualuh Sel., Kabupaten Labuhanbatu Utara";SUMATERA UTARA;21457;Indonesia;;;;25.143.372;997.402.134;https://maps.google.com/?cid=0x0:0xcc5811d00da2bf69;
building materials;Toko;Ud. Bagus Baja;"Pulo Jantan, Kec. Na IX-X, Kabupaten Labuhanbatu Utara, Sumatera Utara";"Kabupaten Labuhanbatu Utara, Sumatera Utara";SUMATERA UTARA;;Indonesia;;;;22.975.136;997.441.198;https://maps.google.com/?cid=0x0:0xfacd0e34f158d58b;
building materials;building materials;Sumatera Utara 21474;"Kec. Kualuh Hilir, Kabupaten Labuhanbatu Utara, Sumatera Utara";"Kabupaten Labuhanbatu Utara, Sumatera Utara";SUMATERA UTARA;;Indonesia;;;;25.204.832;1.000.135.929;https://maps.google.com/?cid=0x0:0x556108f16bd7ca29;
building materials;Toko Bahan Bangunan;UD Mekar Sari;"HR6X+P92, Unnamed Road, Sonomartani, Kec. Kualuh Hulu, Kabupaten Labuhanbatu Utara, Sumatera Utara 21475";"Unnamed Road, Sonomartani, Kec. Kualuh Hulu, Kabupaten Labuhanbatu Utara";SUMATERA UTARA;21475;Indonesia;;;;25.617.708;998.483.912;https://maps.google.com/?cid=0x0:0xa299b0bf14a7403b;
building materials;Toko Cat;Toko Bangun Jaya;"Jl. Jenderal Sudirman No.168, Aek Kanopan Tim., Kec. Kualuh Hulu, Kabupaten Labuhanbatu Utara, Sumatera Utara 21273";"Aek Kanopan Tim., Kec. Kualuh Hulu, Kabupaten Labuhanbatu Utara";SUMATERA UTARA;21273;Indonesia;083872566044;;;25.718.276;996.531.224;https://maps.google.com/?cid=0x0:0xfcf638a83824a00;
building materials;Toko;UD. Tani mulia;"H28R+2VG, Sungai Sentang, Kec. Kualuh Hilir, Kabupaten Labuhanbatu Utara, Sumatera Utara 21474";"Sungai Sentang, Kec. Kualuh Hilir, Kabupaten Labuhanbatu Utara";SUMATERA UTARA;21474;Indonesia;;;;25.650.569;1.000.422.003;https://maps.google.com/?cid=0x0:0x4c2bab930d2e6965;
building materials;Toko Bahan Bangunan;UD. FARIS JAYA;"HV69+W9Q, Dusun III Mekarsari, Sonomartani, Kec. Kualuh Hulu, Kabupaten Labuhanbatu Utara";"Kabupaten Labuhanbatu Utara, Sumatera Utara";SUMATERA UTARA;;Indonesia;;;;25.623.485;998.684.746;https://maps.google.com/?cid=0x0:0x3c5542853f248dfd;
building materials;;UD ULFAH;"7RCR+4JX, Perkebunan Brussel, Kec. Marbau, Kabupaten Labuhanbatu Utara, Sumatera Utara 21452";"Perkebunan Brussel, Kec. Marbau, Kabupaten Labuhanbatu Utara";SUMATERA UTARA;21452;Indonesia;;;;2.270.355;99.841.616;https://maps.google.com/?cid=0x0:0xe1ea2beb2bf222d1;
building materials;Toko Aksesori Ponsel;ALHARIR TOP UP;"Jln. Pasar bilah No.1B, Kp. Mesjid, Kec. Kualuh Hilir, Kabupaten Labuhanbatu Utara, Sumatera Utara 21474";"Kp. Mesjid, Kec. Kualuh Hilir, Kabupaten Labuhanbatu Utara";SUMATERA UTARA;21474;Indonesia;;;;25.738.048;1.000.531.118;https://maps.google.com/?cid=0x0:0xdb07621dd6423dd0;
building materials;Toko Perlengkapan Rumah;Rmh keluarga FauziFauziah panlong;"PWGW+HF8, Dusun bahagia, Tlk. Pulai Luar, Kec. Kualuh Leidong, Kabupaten Labuhanbatu Utara, Sumatera Utara";"Kabupaten Labuhanbatu Utara, Sumatera Utara";SUMATERA UTARA;;Indonesia;;;;27.264.154;999.461.935;https://maps.google.com/?cid=0x0:0xce4c235e33d4a43e;
building materials;Toko Bahan Bangunan;Toko Sinar(Binsar Kalit);"Jl. Stasiun Padang Halaban, Sidomulyo dusun 1, Perkebunan Panigoran, Kec. Aek Kuo, Kabupaten Labuhanbatu Utara, Sumatera Utara 21455";"Sidomulyo dusun 1, Perkebunan Panigoran, Kec. Aek Kuo, Kabupaten Labuhanbatu Utara";SUMATERA UTARA;21455;Indonesia;085275599551;;;23.162.003;998.199.099;https://maps.google.com/?cid=0x0:0xdc54c85be1179442;
building materials;building materials;UD.YIN panglong;"H2J7+VVW, Kampung Mesjid, Kec. Kualuh Hilir, Kabupaten Labuhanbatu Utara, Sumatera Utara";"Kabupaten Labuhanbatu Utara, Sumatera Utara";SUMATERA UTARA;;Indonesia;;;;25.822.278;1.000.146.909;https://maps.google.com/?cid=0x0:0xb7f3fe12a413947b;
building materials;building materials;UD BERKAH KELUARGA;"Pasar bilah 1B, Kp. Mesjid, Kec. Kualuh Hilir, Kabupaten Labuhanbatu Utara, Sumatera Utara 21474";"Kp. Mesjid, Kec. Kualuh Hilir, Kabupaten Labuhanbatu Utara";SUMATERA UTARA;21474;Indonesia;085206641661;;;25.703.349;1.000.346.403;https://maps.google.com/?cid=0x0:0x7f29016e7915ac88;
building materials;building materials;Panglong ILHAM JAFAR;"HV59+WFW, Sonomartani, Kec. Kualuh Hulu, Kabupaten Labuhanbatu Utara, Sumatera Utara 21475";"Sonomartani, Kec. Kualuh Hulu, Kabupaten Labuhanbatu Utara";SUMATERA UTARA;21475;Indonesia;;;;25.598.825;998.686.209;https://maps.google.com/?cid=0x0:0xceb9f4fef85e6ae9;
building materials;building materials;Sumatera Utara 21457;"Kec. Kualuh Sel., Kabupaten Labuhanbatu Utara, Sumatera Utara";"Kabupaten Labuhanbatu Utara, Sumatera Utara";SUMATERA UTARA;;Indonesia;;;;24.644.513;996.786.894;https://maps.google.com/?cid=0x0:0xbeeda126e9c5dc9c;
building materials;Toko Bahan Bangunan;Expo Aek Kanopan;"Jl. Lintas Sumatra No.16, Aek Kanopan Tim., Kec. Kualuh Hulu, Kabupaten Asahan, Sumatera Utara 21273";"Aek Kanopan Tim., Kec. Kualuh Hulu, Kabupaten Asahan";SUMATERA UTARA;21273;Indonesia;087773968995;;;25.833.843;99.652.778;https://maps.google.com/?cid=0x0:0x46317fde463bea60;
building materials;Toko Bahan Bangunan;UD Mekar Sari;"HR6X+P92, Unnamed Road, Sonomartani, Kec. Kualuh Hulu, Kabupaten Labuhanbatu Utara, Sumatera Utara 21475";"Unnamed Road, Sonomartani, Kec. Kualuh Hulu, Kabupaten Labuhanbatu Utara";SUMATERA UTARA;21475;Indonesia;;;;25.617.708;998.483.912;https://maps.google.com/?cid=0x0:0xa299b0bf14a7403b;
building materials;Toko Bahan Bangunan;Ridho Gipsum;"GJ4M+63P, Damuli Pekan, Kec. Kualuh Sel., Kabupaten Labuhanbatu Utara, Sumatera Utara 21457";"Damuli Pekan, Kec. Kualuh Sel., Kabupaten Labuhanbatu Utara";SUMATERA UTARA;21457;Indonesia;081260868548;;;25.055.862;996.327.054;https://maps.google.com/?cid=0x0:0xc66759207ef6e8d8;
building materials;Toko Cat;Toko Bangun Jaya;"Jl. Jenderal Sudirman No.168, Aek Kanopan Tim., Kec. Kualuh Hulu, Kabupaten Labuhanbatu Utara, Sumatera Utara 21273";"Aek Kanopan Tim., Kec. Kualuh Hulu, Kabupaten Labuhanbatu Utara";SUMATERA UTARA;21273;Indonesia;083872566044;;;25.718.276;996.531.224;https://maps.google.com/?cid=0x0:0xfcf638a83824a00;
building materials;Toko bahan makanan;Subur Jaya. UD;"JL Kampung Banjar Lorong 2, Tanjung Pasir, Kualuh Selatan, Labuhan Batu Utara, Gunting Saga, Medan, Kabupaten Labuhanbatu Utara, Sumatera Utara 21457";"Tanjung Pasir, Kualuh Selatan, Labuhan Batu Utara, Gunting Saga, Medan, Kabupaten Labuhanbatu Utara";SUMATERA UTARA;21457;Indonesia;081375543508;;;25.307.944;997.042.528;https://maps.google.com/?cid=0x0:0x31586b7e82409d0b;
building materials;Toko Bahan Bangunan;Iis manja pane panglong;"GJWH+W3V, Jl. Al Washliyah, Parpaudangan, Kec. Kualuh Hulu, Kabupaten Labuhanbatu Utara, Sumatera Utara 21457";"Jl. Al Washliyah, Parpaudangan, Kec. Kualuh Hulu, Kabupaten Labuhanbatu Utara";SUMATERA UTARA;21457;Indonesia;;;;25.473.694;996.276.874;https://maps.google.com/?cid=0x0:0x258da0cf0a06437a;
building materials;building materials;UD. Rahmadi;"GGRG+P62, Perkebunan Londut, Kec. Kualuh Hulu, Kabupaten Labuhanbatu Utara, Sumatera Utara 21457";"Perkebunan Londut, Kec. Kualuh Hulu, Kabupaten Labuhanbatu Utara";SUMATERA UTARA;21457;Indonesia;;;;25.417.904;99.525.462;https://maps.google.com/?cid=0x0:0xbb3bd4565aac03e9;
building materials;building materials;Scaffolding Lift Passenger Lift Material - CV Mulya Perkasa;"Jl. Angkatan No.208, Aek Kanopan, Kec. Kualuh Hulu, Kabupaten Labuhanbatu Utara, Sumatera Utara 21273";"Aek Kanopan, Kec. Kualuh Hulu, Kabupaten Labuhanbatu Utara";SUMATERA UTARA;21273;Indonesia;;;;2.567.416;99.648.903;https://maps.google.com/?cid=0x0:0xc59695aec8d2ac51;
building materials;Toko Bahan Bangunan;Toko Baru;"Jl. Jenderal Sudirman No.26, Aek Kanopan Tim., Kec. Kualuh Hulu, Kabupaten Labuhanbatu Utara, Sumatera Utara 21454";"Aek Kanopan Tim., Kec. Kualuh Hulu, Kabupaten Labuhanbatu Utara";SUMATERA UTARA;21454;Indonesia;085261388838;;;25.675.378;996.540.722;https://maps.google.com/?cid=0x0:0x3013c9afdd5d5fa3;
building materials;Toko Bahan Bangunan;UD. TIO JAYA MANDIRI;"Jl. Lintas Sumatra No.4c, Perk. Damuli, Kec. Kualuh Sel., Kabupaten Labuhanbatu Utara, Sumatera Utara 21457";"Perk. Damuli, Kec. Kualuh Sel., Kabupaten Labuhanbatu Utara";SUMATERA UTARA;21457;Indonesia;;;;24.761.326;996.359.499;https://maps.google.com/?cid=0x0:0x2b60f587c5f24cb1;
building materials;Toko Bahan Bangunan;Randy. UD;"HJ88+XXV, Aek Kanopan, Kec. Kualuh Hulu, Kabupaten Labuhanbatu Utara, Sumatera Utara 21273";"Aek Kanopan, Kec. Kualuh Hulu, Kabupaten Labuhanbatu Utara";SUMATERA UTARA;21273;Indonesia;0624693701;;;2.567.495;99.617.434;https://maps.google.com/?cid=0x0:0x15e86acb2493d1e5;
building materials;Toko Bahan Bangunan;Cahaya beton;"FJXH+73H, Dusun sukadame, Damuli Pekan, Kec. Kualuh Sel., Kabupaten Labuhanbatu Utara, Sumatera Utara 21457";"Dusun sukadame, Damuli Pekan, Kec. Kualuh Sel., Kabupaten Labuhanbatu Utara";SUMATERA UTARA;21457;Indonesia;085270145578;;;2.498.184;996.277.457;https://maps.google.com/?cid=0x0:0x475aa42c0decb21;
building materials;Toko Bahan Bangunan;Arfan sagala;"Jl.linsum terang bulan, Aek kanopan, Kec. Aek Natas, Kabupaten Labuhanbatu Utara, Sumatera Utara 21455";"Aek kanopan, Kec. Aek Natas, Kabupaten Labuhanbatu Utara";SUMATERA UTARA;21455;Indonesia;083827358143;;;24.185.046;996.825.956;https://maps.google.com/?cid=0x0:0x4bf5f307911fc0e0;
building materials;Toko Bahan Bangunan;UD. Agung;"JL Lintas Sumatera, Lingkungan 1, Gunting Saga, Kualuh Selatan, Sidua Dua, Aekanopan, Kabupaten Labuhanbatu Utara, Sumatera Utara 21457";"Lingkungan 1, Gunting Saga, Kualuh Selatan, Sidua Dua, Aekanopan, Kabupaten Labuhanbatu Utara";SUMATERA UTARA;21457;Indonesia;081375056477;;;25.239.722;996.550.833;https://maps.google.com/?cid=0x0:0x396499f6738640e6;
building materials;Toko Bahan Bangunan;UD.MANDIRI PUTRA;"HPGQ+PHP, Sukarame, Kec. Kualuh Hulu, Kabupaten Labuhanbatu Utara, Sumatera Utara 21457";"Sukarame, Kec. Kualuh Hulu, Kabupaten Labuhanbatu Utara";SUMATERA UTARA;21457;Indonesia;;;;2.576.828;99.738.955;https://maps.google.com/?cid=0x0:0x39b38a2580c8b15a;
building materials;Toko Perlengkapan Rumah;Tangkahan Pasir;"GP7P+CR, Tj. Pasir, Kec. Kualuh Sel., Kabupaten Labuhanbatu Utara, Sumatera Utara";"Kabupaten Labuhanbatu Utara, Sumatera Utara";SUMATERA UTARA;;Indonesia;;;;25.136.043;997.370.413;https://maps.google.com/?cid=0x0:0x957d430514c03d18;
building materials;Toko Bahan Bangunan;Tb. Lucky star;"Jl. Jenderal Sudirman No.64, Bunut, Kec. Kualuh Hulu, Kabupaten Asahan, Sumatera Utara 21273";"Bunut, Kec. Kualuh Hulu, Kabupaten Asahan";SUMATERA UTARA;21273;Indonesia;;;;25.692.048;996.534.152;https://maps.google.com/?cid=0x0:0xdc1bcc11a9b589fb;
building materials;Toko Bahan Bangunan;Berkat Jaya;"HJ88+XXP, Jl. Jenderal Sudirman, Aek Kanopan, Kec. Kualuh Hulu, Kabupaten Labuhanbatu Utara, Sumatera Utara 21273";"Jl. Jenderal Sudirman, Aek Kanopan, Kec. Kualuh Hulu, Kabupaten Labuhanbatu Utara";SUMATERA UTARA;21273;Indonesia;081375742349;;;2.567.452;9.961.745;https://maps.google.com/?cid=0x0:0x11f82103f3ecce86;
building materials;building materials;Panglong dua putri;"GP7R+P29, Jl. Tj. Pasir, Tj. Pasir, Kec. Kualuh Sel., Kabupaten Labuhanbatu Utara, Sumatera Utara 21457";"Jl. Tj. Pasir, Tj. Pasir, Kec. Kualuh Sel., Kabupaten Labuhanbatu Utara";SUMATERA UTARA;21457;Indonesia;;;;25.143.372;997.402.134;https://maps.google.com/?cid=0x0:0xcc5811d00da2bf69;
building materials;Toko Swalayan;UD SETIA TANI JAYA;"FJH4+RGV, Perk. Damuli, Kec. Kualuh Sel., Kabupaten Labuhanbatu Utara, Sumatera Utara 21457";"Perk. Damuli, Kec. Kualuh Sel., Kabupaten Labuhanbatu Utara";SUMATERA UTARA;21457;Indonesia;;;;24.796.225;996.063.006;https://maps.google.com/?cid=0x0:0xca37fdcc9fd9933d;
building materials;Toko;Mandiri Jaya UD;"Jl. Lintas Sumatera Ledong Barat, Aek Kanopan, Kec. Aek Ledong, Kabupaten Asahan, Sumatera Utara 21273";"Aek Kanopan, Kec. Aek Ledong, Kabupaten Asahan";SUMATERA UTARA;21273;Indonesia;085261555199;;;25.917.512;996.452.823;https://maps.google.com/?cid=0x0:0xb19620fb18f67d43;
building materials;Toko Bahan Bangunan;Jaya baru;"Jl. Lintas Sumatra No.340, Aek Kanopan Tim., Kec. Kualuh Hulu, Kabupaten Asahan, Sumatera Utara 21273";"Aek Kanopan Tim., Kec. Kualuh Hulu, Kabupaten Asahan";SUMATERA UTARA;21273;Indonesia;;;;2.577.293;996.526.261;https://maps.google.com/?cid=0x0:0x9d61738c218e3888;
building materials;building materials;Panglong Daim;"Pasar 6 Sidomulyo, Air Hitam, Kec. Kualuh Leidong, Kabupaten Labuhanbatu Utara, Sumatera Utara 21475";"Air Hitam, Kec. Kualuh Leidong, Kabupaten Labuhanbatu Utara";SUMATERA UTARA;21475;Indonesia;;;;27.015.081;99.901.743;https://maps.google.com/?cid=0x0:0x4ba17afca602c893;
building materials;building materials;Sumatera Utara 21457;"Kec. Kualuh Sel., Kabupaten Labuhanbatu Utara, Sumatera Utara";"Kabupaten Labuhanbatu Utara, Sumatera Utara";SUMATERA UTARA;;Indonesia;;;;24.644.513;996.786.894;https://maps.google.com/?cid=0x0:0xbeeda126e9c5dc9c;
building materials;Toko Perlengkapan Rumah;Panglong Usaha Baru;"FJRG+XCW, Jl. Lintas Sumatra, Damuli Pekan, Kec. Kualuh Sel., Kabupaten Labuhanbatu Utara, Sumatera Utara 21457";"Jl. Lintas Sumatra, Damuli Pekan, Kec. Kualuh Sel., Kabupaten Labuhanbatu Utara";SUMATERA UTARA;21457;Indonesia;;;;24.924.857;996.260.791;https://maps.google.com/?cid=0x0:0x1911e3eaae41f3ab;
building materials;Toko Bahan Bangunan;Ridho Gipsum;"GJ4M+63P, Damuli Pekan, Kec. Kualuh Sel., Kabupaten Labuhanbatu Utara, Sumatera Utara 21457";"Damuli Pekan, Kec. Kualuh Sel., Kabupaten Labuhanbatu Utara";SUMATERA UTARA;21457;Indonesia;081260868548;;;25.055.862;996.327.054;https://maps.google.com/?cid=0x0:0xc66759207ef6e8d8;
building materials;Toko bahan makanan;Subur Jaya. UD;"JL Kampung Banjar Lorong 2, Tanjung Pasir, Kualuh Selatan, Labuhan Batu Utara, Gunting Saga, Medan, Kabupaten Labuhanbatu Utara, Sumatera Utara 21457";"Tanjung Pasir, Kualuh Selatan, Labuhan Batu Utara, Gunting Saga, Medan, Kabupaten Labuhanbatu Utara";SUMATERA UTARA;21457;Indonesia;081375543508;;;25.307.944;997.042.528;https://maps.google.com/?cid=0x0:0x31586b7e82409d0b;
building materials;Toko Cat;Toko Bangun Jaya;"Jl. Jenderal Sudirman No.168, Aek Kanopan Tim., Kec. Kualuh Hulu, Kabupaten Labuhanbatu Utara, Sumatera Utara 21273";"Aek Kanopan Tim., Kec. Kualuh Hulu, Kabupaten Labuhanbatu Utara";SUMATERA UTARA;21273;Indonesia;083872566044;;;25.718.276;996.531.224;https://maps.google.com/?cid=0x0:0xfcf638a83824a00;
building materials;Toko Bahan Bangunan;UD Mekar Sari;"HR6X+P92, Unnamed Road, Sonomartani, Kec. Kualuh Hulu, Kabupaten Labuhanbatu Utara, Sumatera Utara 21475";"Unnamed Road, Sonomartani, Kec. Kualuh Hulu, Kabupaten Labuhanbatu Utara";SUMATERA UTARA;21475;Indonesia;;;;25.617.708;998.483.912;https://maps.google.com/?cid=0x0:0xa299b0bf14a7403b;
building materials;Toko Bahan Bangunan;Iis manja pane panglong;"GJWH+W3V, Jl. Al Washliyah, Parpaudangan, Kec. Kualuh Hulu, Kabupaten Labuhanbatu Utara, Sumatera Utara 21457";"Jl. Al Washliyah, Parpaudangan, Kec. Kualuh Hulu, Kabupaten Labuhanbatu Utara";SUMATERA UTARA;21457;Indonesia;;;;25.473.694;996.276.874;https://maps.google.com/?cid=0x0:0x258da0cf0a06437a;
building materials;Toko Bahan Bangunan;Cahaya beton;"FJXH+73H, Dusun sukadame, Damuli Pekan, Kec. Kualuh Sel., Kabupaten Labuhanbatu Utara, Sumatera Utara 21457";"Dusun sukadame, Damuli Pekan, Kec. Kualuh Sel., Kabupaten Labuhanbatu Utara";SUMATERA UTARA;21457;Indonesia;085270145578;;;2.498.184;996.277.457;https://maps.google.com/?cid=0x0:0x475aa42c0decb21;
building materials;Toko Bahan Bangunan;UD. Agung;"JL Lintas Sumatera, Lingkungan 1, Gunting Saga, Kualuh Selatan, Sidua Dua, Aekanopan, Kabupaten Labuhanbatu Utara, Sumatera Utara 21457";"Lingkungan 1, Gunting Saga, Kualuh Selatan, Sidua Dua, Aekanopan, Kabupaten Labuhanbatu Utara";SUMATERA UTARA;21457;Indonesia;081375056477;;;25.239.722;996.550.833;https://maps.google.com/?cid=0x0:0x396499f6738640e6;
building materials;Toko Bahan Bangunan;Arfan sagala;"Jl.linsum terang bulan, Aek kanopan, Kec. Aek Natas, Kabupaten Labuhanbatu Utara, Sumatera Utara 21455";"Aek kanopan, Kec. Aek Natas, Kabupaten Labuhanbatu Utara";SUMATERA UTARA;21455;Indonesia;083827358143;;;24.185.046;996.825.956;https://maps.google.com/?cid=0x0:0x4bf5f307911fc0e0;
building materials;Toko Bahan Bangunan;UD. TIO JAYA MANDIRI;"Jl. Lintas Sumatra No.4c, Perk. Damuli, Kec. Kualuh Sel., Kabupaten Labuhanbatu Utara, Sumatera Utara 21457";"Perk. Damuli, Kec. Kualuh Sel., Kabupaten Labuhanbatu Utara";SUMATERA UTARA;21457;Indonesia;;;;24.761.326;996.359.499;https://maps.google.com/?cid=0x0:0x2b60f587c5f24cb1;
building materials;building materials;UD. Rahmadi;"GGRG+P62, Perkebunan Londut, Kec. Kualuh Hulu, Kabupaten Labuhanbatu Utara, Sumatera Utara 21457";"Perkebunan Londut, Kec. Kualuh Hulu, Kabupaten Labuhanbatu Utara";SUMATERA UTARA;21457;Indonesia;;;;25.417.904;99.525.462;https://maps.google.com/?cid=0x0:0xbb3bd4565aac03e9;
building materials;Toko Bahan Bangunan;Randy. UD;"HJ88+XXV, Aek Kanopan, Kec. Kualuh Hulu, Kabupaten Labuhanbatu Utara, Sumatera Utara 21273";"Aek Kanopan, Kec. Kualuh Hulu, Kabupaten Labuhanbatu Utara";SUMATERA UTARA;21273;Indonesia;0624693701;;;2.567.495;99.617.434;https://maps.google.com/?cid=0x0:0x15e86acb2493d1e5;
building materials;Toko Bahan Bangunan;Toko Baru;"Jl. Jenderal Sudirman No.26, Aek Kanopan Tim., Kec. Kualuh Hulu, Kabupaten Labuhanbatu Utara, Sumatera Utara 21454";"Aek Kanopan Tim., Kec. Kualuh Hulu, Kabupaten Labuhanbatu Utara";SUMATERA UTARA;21454;Indonesia;085261388838;;;25.675.378;996.540.722;https://maps.google.com/?cid=0x0:0x3013c9afdd5d5fa3;
building materials;Toko Bahan Bangunan;UD.MANDIRI PUTRA;"HPGQ+PHP, Sukarame, Kec. Kualuh Hulu, Kabupaten Labuhanbatu Utara, Sumatera Utara 21457";"Sukarame, Kec. Kualuh Hulu, Kabupaten Labuhanbatu Utara";SUMATERA UTARA;21457;Indonesia;;;;2.576.828;99.738.955;https://maps.google.com/?cid=0x0:0x39b38a2580c8b15a;
building materials;Toko Perlengkapan Rumah;Tangkahan Pasir;"GP7P+CR, Tj. Pasir, Kec. Kualuh Sel., Kabupaten Labuhanbatu Utara, Sumatera Utara";"Kabupaten Labuhanbatu Utara, Sumatera Utara";SUMATERA UTARA;;Indonesia;;;;25.136.043;997.370.413;https://maps.google.com/?cid=0x0:0x957d430514c03d18;
building materials;Toko Swalayan;UD SETIA TANI JAYA;"FJH4+RGV, Perk. Damuli, Kec. Kualuh Sel., Kabupaten Labuhanbatu Utara, Sumatera Utara 21457";"Perk. Damuli, Kec. Kualuh Sel., Kabupaten Labuhanbatu Utara";SUMATERA UTARA;21457;Indonesia;;;;24.796.225;996.063.006;https://maps.google.com/?cid=0x0:0xca37fdcc9fd9933d;
building materials;building materials;Panglong dua putri;"GP7R+P29, Jl. Tj. Pasir, Tj. Pasir, Kec. Kualuh Sel., Kabupaten Labuhanbatu Utara, Sumatera Utara 21457";"Jl. Tj. Pasir, Tj. Pasir, Kec. Kualuh Sel., Kabupaten Labuhanbatu Utara";SUMATERA UTARA;21457;Indonesia;;;;25.143.372;997.402.134;https://maps.google.com/?cid=0x0:0xcc5811d00da2bf69;
building materials;Toko Bahan Bangunan;Tb. Lucky star;"Jl. Jenderal Sudirman No.64, Bunut, Kec. Kualuh Hulu, Kabupaten Asahan, Sumatera Utara 21273";"Bunut, Kec. Kualuh Hulu, Kabupaten Asahan";SUMATERA UTARA;21273;Indonesia;;;;25.692.048;996.534.152;https://maps.google.com/?cid=0x0:0xdc1bcc11a9b589fb;
building materials;Toko Bahan Bangunan;Jaya baru;"Jl. Lintas Sumatra No.340, Aek Kanopan Tim., Kec. Kualuh Hulu, Kabupaten Asahan, Sumatera Utara 21273";"Aek Kanopan Tim., Kec. Kualuh Hulu, Kabupaten Asahan";SUMATERA UTARA;21273;Indonesia;;;;2.577.293;996.526.261;https://maps.google.com/?cid=0x0:0x9d61738c218e3888;
building materials;building materials;Scaffolding Lift Passenger Lift Material - CV Mulya Perkasa;"Jl. Angkatan No.208, Aek Kanopan, Kec. Kualuh Hulu, Kabupaten Labuhanbatu Utara, Sumatera Utara 21273";"Aek Kanopan, Kec. Kualuh Hulu, Kabupaten Labuhanbatu Utara";SUMATERA UTARA;21273;Indonesia;;;;2.567.416;99.648.903;https://maps.google.com/?cid=0x0:0xc59695aec8d2ac51;
building materials;Toko;Mandiri Jaya UD;"Jl. Lintas Sumatera Ledong Barat, Aek Kanopan, Kec. Aek Ledong, Kabupaten Asahan, Sumatera Utara 21273";"Aek Kanopan, Kec. Aek Ledong, Kabupaten Asahan";SUMATERA UTARA;21273;Indonesia;085261555199;;;25.917.512;996.452.823;https://maps.google.com/?cid=0x0:0xb19620fb18f67d43;
building materials;Kantor Perusahaan;PT. Powerblock Indonesia;"Jl. Biak No.60, Cideng, Kecamatan Gambir, Kota Jakarta Pusat, Daerah Khusus Ibukota Jakarta 10150";"Cideng, Kecamatan Gambir, Kota Jakarta Pusat";SUMATERA UTARA;10150;Indonesia;08111373711;;;-61.667.801;1.068.084.455;https://maps.google.com/?cid=0x0:0xa6f33905b9df6ce5;
building materials;Toko Bahan Bangunan;SAHABAT MARBAU SEJAHTERA;"7Q6C+FG4, Desa, Simpang Empat, Kec. Na IX-X, Kabupaten Labuhanbatu Utara, Sumatera Utara 21454";"Desa, Simpang Empat, Kec. Na IX-X, Kabupaten Labuhanbatu Utara";SUMATERA UTARA;21454;Indonesia;085360246400;;;22.611.467;997.713.362;https://maps.google.com/?cid=0x0:0xe3b979b19446e89c;
building materials;Toko Bahan Bangunan;TANJUNG JAYA;"Simpang 4 Inpres T.1000, Jl. Besar Marbau Sel., Marbau, Kec. Marbau, Kabupaten Labuhanbatu Utara, Sumatera Utara 21452";"Jl. Besar Marbau Sel., Marbau, Kec. Marbau, Kabupaten Labuhanbatu Utara";SUMATERA UTARA;21452;Indonesia;;;;22.300.117;998.306.876;https://maps.google.com/?cid=0x0:0xce313d3400fa0f64;
building materials;;UD ULFAH;"7RCR+4JX, Perkebunan Brussel, Kec. Marbau, Kabupaten Labuhanbatu Utara, Sumatera Utara 21452";"Perkebunan Brussel, Kec. Marbau, Kabupaten Labuhanbatu Utara";SUMATERA UTARA;21452;Indonesia;;;;2.270.355;99.841.616;https://maps.google.com/?cid=0x0:0xe1ea2beb2bf222d1;
building materials;Toko Bahan Bangunan;UD. Gery Jaya;"Jl. Masjid No.3533, Marbau, Kec. Marbau, Kabupaten Labuhanbatu Utara, Sumatera Utara 21452";"Marbau, Kec. Marbau, Kabupaten Labuhanbatu Utara";SUMATERA UTARA;21452;Indonesia;081264007962;;;22.645.387;998.310.477;https://maps.google.com/?cid=0x0:0x97a14095ea8d6e89;
building materials;Toko Perlengkapan Rumah;Panglong Bintang jaya;"7V6P+78, Tubiran, Kec. Marbau, Kabupaten Labuhanbatu Utara, Sumatera Utara 21452";"Tubiran, Kec. Marbau, Kabupaten Labuhanbatu Utara";SUMATERA UTARA;21452;Indonesia;;;;22.606.481;998.858.269;https://maps.google.com/?cid=0x0:0x38f9195d178defa;
building materials;Toko Bahan Bangunan;Panglong Cahaya Maju;"7V6J+JM3, Jl. Pulo Padang - Marbau, Tubiran, Kec. Marbau, Kabupaten Labuhanbatu Utara, Sumatera Utara 21452";"Jl. Pulo Padang - Marbau, Tubiran, Kec. Marbau, Kabupaten Labuhanbatu Utara";SUMATERA UTARA;21452;Indonesia;;;;22.615.145;99.881.679;https://maps.google.com/?cid=0x0:0x63ef037044262b62;
building materials;building materials;Sumatera Utara 21454;"Kec. Na IX-X, Kabupaten Labuhanbatu Utara, Sumatera Utara";"Kabupaten Labuhanbatu Utara, Sumatera Utara";SUMATERA UTARA;;Indonesia;;;;21.532.664;996.786.894;https://maps.google.com/?cid=0x0:0xa1d048494249269a;
building materials;Toko Bahan Bangunan;SAHABAT MARBAU SEJAHTERA;"7Q6C+FG4, Desa, Simpang Empat, Kec. Na IX-X, Kabupaten Labuhanbatu Utara, Sumatera Utara 21454";"Desa, Simpang Empat, Kec. Na IX-X, Kabupaten Labuhanbatu Utara";SUMATERA UTARA;21454;Indonesia;085360246400;;;22.611.467;997.713.362;https://maps.google.com/?cid=0x0:0xe3b979b19446e89c;
building materials;Toko Alat-Alat;Putra Makita;"Jl. Lintas Sumatra No.9, Pulo Jantan, Kec. Na IX-X, Kabupaten Labuhanbatu Utara, Sumatera Utara 21455";"Pulo Jantan, Kec. Na IX-X, Kabupaten Labuhanbatu Utara";SUMATERA UTARA;21455;Indonesia;;;;22.967.877;997.447.643;https://maps.google.com/?cid=0x0:0x2cf6848a886da12c;
building materials;Toko Bahan Bangunan;Sukses Bersama;"7PVX+CM5, Jl. Lintas Sumatra, Pulo Jantan, Kec. Na IX-X, Kabupaten Labuhanbatu Utara, Sumatera Utara";"Kabupaten Labuhanbatu Utara, Sumatera Utara";SUMATERA UTARA;;Indonesia;082365221195;;;22.939.196;997.491.616;https://maps.google.com/?cid=0x0:0x9bf14eb388cffe63;
building materials;Toko Bahan Bangunan;PANGLONG SINAR BARU;"Asian Highway No.25, Aek Kota Batu, Na IX-X, North Labuhan Batu Regency, North Sumatra 21452";"Aek Kota Batu, Na IX-X, North Labuhan Batu Regency";SUMATERA UTARA;21452;Indonesia;;;;22.777.005;997.620.653;https://maps.google.com/?cid=0x0:0x97db0291e6c848bb;
building materials;Toko Perlengkapan Rumah;Toko S. Munthe;"7QH6+HP8, Jl. Lintas Sumatra, Aek Kota Batu, Kec. Na IX-X, Kabupaten Labuhanbatu Utara, Sumatera Utara 21452";"Jl. Lintas Sumatra, Aek Kota Batu, Kec. Na IX-X, Kabupaten Labuhanbatu Utara";SUMATERA UTARA;21452;Indonesia;082166908813;;;22.789.153;997.618.383;https://maps.google.com/?cid=0x0:0xf61bdae7e73a4ec8;
building materials;Toko;Toko Baru Simpang Panigoran;"7QJ6+4H3, Simpang Panigoran Kel, Aek Kota Batu, Kec. Na IX-X, Kabupaten Labuhanbatu Utara, Sumatera Utara 21454";"Simpang Panigoran Kel, Aek Kota Batu, Kec. Na IX-X, Kabupaten Labuhanbatu Utara";SUMATERA UTARA;21454;Indonesia;085362290008;;;22.802.589;997.614.084;https://maps.google.com/?cid=0x0:0xd59eaa985e19e388;
building materials;Perusahaan desain industri;BATU NISAN - AHLI UKIR PRASASTI Kp.Pajak;"8P2R+3XW, Kampung Pajak, Gg, Kilang, Kec. Na IX-X, Kabupaten Labuhanbatu Utara, Sumatera Utara 21455";"Kampung Pajak, Gg, Kilang, Kec. Na IX-X, Kabupaten Labuhanbatu Utara";SUMATERA UTARA;21455;Indonesia;;;;23.002.263;997.424.473;https://maps.google.com/?cid=0x0:0xe138cc4c0ebc7048;
building materials;Toko;Ud. Bagus Baja;"Pulo Jantan, Kec. Na IX-X, Kabupaten Labuhanbatu Utara, Sumatera Utara";"Kabupaten Labuhanbatu Utara, Sumatera Utara";SUMATERA UTARA;;Indonesia;;;;22.975.136;997.441.198;https://maps.google.com/?cid=0x0:0xfacd0e34f158d58b;
building materials;Toko Bahan Bangunan;Asia Maju Interior;"Jl. K. H. Ahmad Dahlan No.72, Rantauprapat, Kec. Rantau Utara, Kab. Labuhanbatu, Sumatera Utara 21411";"Rantauprapat, Kec. Rantau Utara, Kab. Labuhanbatu";SUMATERA UTARA;21411;Indonesia;085758127923;;;21.009.124;998.260.709;https://maps.google.com/?cid=0x0:0xeee35a5d8af3dbc2;
building materials;Toko Bahan Bangunan;Cahaya Baru Bangunan;"Jl. Kualuh No.19, Kartini, Kec. Rantau Utara, Kab. Labuhanbatu, Sumatera Utara 21412";"Kartini, Kec. Rantau Utara, Kab. Labuhanbatu";SUMATERA UTARA;21412;Indonesia;083177680118;;;20.985.605;998.306.258;https://maps.google.com/?cid=0x0:0x669369efb561664c;
building materials;Toko Bahan Bangunan;Usaha Abang Adik;"Jl. Urip Sumodiharjo No.164, Sirandorung, Kec. Rantau Utara, Kab. Labuhanbatu, Sumatera Utara 21411";"Sirandorung, Kec. Rantau Utara, Kab. Labuhanbatu";SUMATERA UTARA;21411;Indonesia;085758127923;;;20.966.891;998.277.131;https://maps.google.com/?cid=0x0:0xa99a6937ca90457;
building materials;Toko Bahan Bangunan;Usaha Adek;"2VQG+H2J, JL Besar Tanjung Siram, Sigambal, Rantau Selatan, Rantauprapat, Kec. Bilah Hulu, Kab. Labuhanbatu, Sumatera Utara 21425";"JL Besar Tanjung Siram, Sigambal, Rantau Selatan, Rantauprapat, Kec. Bilah Hulu, Kab. Labuhanbatu";SUMATERA UTARA;21425;Indonesia;062423373;;;20.389.714;998.750.074;https://maps.google.com/?cid=0x0:0x5e942f62056f99b0;
building materials;building materials;Sukses Bersama;"7QF6+8PC, Jl. Lintas Sumatra, Kp. Pajak, Kec. Na IX-X, Kabupaten Labuhanbatu Utara, Sumatera Utara";"Kabupaten Labuhanbatu Utara, Sumatera Utara";SUMATERA UTARA;;Indonesia;;;;22.733.199;997.617.757;https://maps.google.com/?cid=0x0:0xd1772a256a7524a7;
toko bangunan;toko bangunan;Kec. Aek Kuo;"Kabupaten Labuhanbatu Utara, Sumatera Utara";"Kabupaten Labuhanbatu Utara, Sumatera Utara";SUMATERA UTARA;;Indonesia;;;;23.161.726;998.203.062;https://maps.google.com/?cid=0x0:0x4039d80b220d250;
toko bangunan;Toko Bahan Bangunan;Toko Sinar(Binsar Kalit);"Jl. Stasiun Padang Halaban, Sidomulyo dusun 1, Perkebunan Panigoran, Kec. Aek Kuo, Kabupaten Labuhanbatu Utara, Sumatera Utara 21455";"Sidomulyo dusun 1, Perkebunan Panigoran, Kec. Aek Kuo, Kabupaten Labuhanbatu Utara";SUMATERA UTARA;21455;Indonesia;085275599551;;;23.162.003;998.199.099;https://maps.google.com/?cid=0x0:0xdc54c85be1179442;
toko bangunan;Toko Bahan Bangunan;Sukses Bersama;"7PVX+CM5, Jl. Lintas Sumatra, Pulo Jantan, Kec. Na IX-X, Kabupaten Labuhanbatu Utara, Sumatera Utara";"Kabupaten Labuhanbatu Utara, Sumatera Utara";SUMATERA UTARA;;Indonesia;082365221195;;;22.939.196;997.491.616;https://maps.google.com/?cid=0x0:0x9bf14eb388cffe63;
toko bangunan;Toko Bahan Bangunan;UD. Gery Jaya;"Jl. Masjid No.3533, Marbau, Kec. Marbau, Kabupaten Labuhanbatu Utara, Sumatera Utara 21452";"Marbau, Kec. Marbau, Kabupaten Labuhanbatu Utara";SUMATERA UTARA;21452;Indonesia;081264007962;;;22.645.387;998.310.477;https://maps.google.com/?cid=0x0:0x97a14095ea8d6e89;
toko bangunan;Toko;UD.ngatimin;"8R7Q+6MV, Perk. Padang Halaban, Kec. Aek Kuo, Kabupaten Labuhanbatu Utara, Sumatera Utara 21455";"Perk. Padang Halaban, Kec. Aek Kuo, Kabupaten Labuhanbatu Utara";SUMATERA UTARA;21455;Indonesia;085290344964;;;2.313.118;998.391.677;https://maps.google.com/?cid=0x0:0xdabeaeef62adca93;
toko bangunan;Toko Bahan Bangunan;PANGLONG SINAR BARU;"Asian Highway No.25, Aek Kota Batu, Na IX-X, North Labuhan Batu Regency, North Sumatra 21452";"Aek Kota Batu, Na IX-X, North Labuhan Batu Regency";SUMATERA UTARA;21452;Indonesia;;;;22.777.005;997.620.653;https://maps.google.com/?cid=0x0:0x97db0291e6c848bb;
toko bangunan;Toko Perlengkapan Rumah;Toko S. Munthe;"7QH6+HP8, Jl. Lintas Sumatra, Aek Kota Batu, Kec. Na IX-X, Kabupaten Labuhanbatu Utara, Sumatera Utara 21452";"Jl. Lintas Sumatra, Aek Kota Batu, Kec. Na IX-X, Kabupaten Labuhanbatu Utara";SUMATERA UTARA;21452;Indonesia;082166908813;;;22.789.153;997.618.383;https://maps.google.com/?cid=0x0:0xf61bdae7e73a4ec8;
toko bangunan;Toko;UD. MAJU JAYA;"Ujung Padang, Kec. Aek Natas, Kabupaten Labuhanbatu Utara, Sumatera Utara";"Kabupaten Labuhanbatu Utara, Sumatera Utara";SUMATERA UTARA;;Indonesia;;;;2.454.954;997.791.011;https://maps.google.com/?cid=0x0:0x29820a56d80bef0b;
toko bangunan;Toko Bahan Bangunan;Panglong Sabar Jaya;"CQR5+CXF, Unnamed Road, Pangkalan, Aek Natas, North Labuhan Batu Regency, North Sumatra 21455";"Unnamed Road, Pangkalan, Aek Natas, North Labuhan Batu Regency";SUMATERA UTARA;21455;Indonesia;;;;2.441.062;99.759.937;https://maps.google.com/?cid=0x0:0x1abae6aec0fda194;
toko bangunan;Toko Cat;Toko Bangun Jaya;"Jl. Jenderal Sudirman No.168, Aek Kanopan Tim., Kec. Kualuh Hulu, Kabupaten Labuhanbatu Utara, Sumatera Utara 21273";"Aek Kanopan Tim., Kec. Kualuh Hulu, Kabupaten Labuhanbatu Utara";SUMATERA UTARA;21273;Indonesia;083872566044;;;25.718.276;996.531.224;https://maps.google.com/?cid=0x0:0xfcf638a83824a00;
toko bangunan;Toko Bahan Bangunan;Cahaya Baru Bangunan;"Jl. Kualuh No.19, Kartini, Kec. Rantau Utara, Kab. Labuhanbatu, Sumatera Utara 21412";"Kartini, Kec. Rantau Utara, Kab. Labuhanbatu";SUMATERA UTARA;21412;Indonesia;083177680118;;;20.985.605;998.306.258;https://maps.google.com/?cid=0x0:0x669369efb561664c;
toko bangunan;Perusahaan desain industri;BATU NISAN - AHLI UKIR PRASASTI Kp.Pajak;"8P2R+3XW, Kampung Pajak, Gg, Kilang, Kec. Na IX-X, Kabupaten Labuhanbatu Utara, Sumatera Utara 21455";"Kampung Pajak, Gg, Kilang, Kec. Na IX-X, Kabupaten Labuhanbatu Utara";SUMATERA UTARA;21455;Indonesia;;;;23.002.263;997.424.473;https://maps.google.com/?cid=0x0:0xe138cc4c0ebc7048;
toko bangunan;Toko Pakaian;Everlasting Distro;"8PRF+GF2, Kp. Yaman, Kec. Aek Natas, Kabupaten Labuhanbatu Utara, Sumatera Utara 21455";"Kp. Yaman, Kec. Aek Natas, Kabupaten Labuhanbatu Utara";SUMATERA UTARA;21455;Indonesia;08126399323;;;2.341.267;997.236.373;https://maps.google.com/?cid=0x0:0xea606187e57e14bb;
toko bangunan;Toko Bahan Bangunan;SAHABAT MARBAU SEJAHTERA;"7Q6C+FG4, Desa, Simpang Empat, Kec. Na IX-X, Kabupaten Labuhanbatu Utara, Sumatera Utara 21454";"Desa, Simpang Empat, Kec. Na IX-X, Kabupaten Labuhanbatu Utara";SUMATERA UTARA;21454;Indonesia;085360246400;;;22.611.467;997.713.362;https://maps.google.com/?cid=0x0:0xe3b979b19446e89c;
toko bangunan;;UD ULFAH;"7RCR+4JX, Perkebunan Brussel, Kec. Marbau, Kabupaten Labuhanbatu Utara, Sumatera Utara 21452";"Perkebunan Brussel, Kec. Marbau, Kabupaten Labuhanbatu Utara";SUMATERA UTARA;21452;Indonesia;;;;2.270.355;99.841.616;https://maps.google.com/?cid=0x0:0xe1ea2beb2bf222d1;
toko bangunan;Toko Bahan Bangunan;TB.AR SINAGA;"Jl. Lintas Sumatra No.utara, Kp. Pajak, Kec. Na IX-X, Kabupaten Labuhanbatu Utara, Sumatera Utara 21454";"Kp. Pajak, Kec. Na IX-X, Kabupaten Labuhanbatu Utara";SUMATERA UTARA;21454;Indonesia;;;;23.009.775;997.411.794;https://maps.google.com/?cid=0x0:0xfa76d6cea3084ed4;
toko bangunan;toko bangunan;Sumatera Utara 21455;"Kabupaten Labuhanbatu Utara, Sumatera Utara";"Kabupaten Labuhanbatu Utara, Sumatera Utara";SUMATERA UTARA;;Indonesia;;;;21.543.963;995.006.143;https://maps.google.com/?cid=0x0:0x391266e2c2e7c92;
toko bangunan;Toko Bahan Bangunan;Arfan sagala;"Jl.linsum terang bulan, Aek kanopan, Kec. Aek Natas, Kabupaten Labuhanbatu Utara, Sumatera Utara 21455";"Aek kanopan, Kec. Aek Natas, Kabupaten Labuhanbatu Utara";SUMATERA UTARA;21455;Indonesia;083827358143;;;24.185.046;996.825.956;https://maps.google.com/?cid=0x0:0x4bf5f307911fc0e0;
toko bangunan;Toko Bahan Bangunan;Expo Aek Kanopan;"Jl. Lintas Sumatra No.16, Aek Kanopan Tim., Kec. Kualuh Hulu, Kabupaten Asahan, Sumatera Utara 21273";"Aek Kanopan Tim., Kec. Kualuh Hulu, Kabupaten Asahan";SUMATERA UTARA;21273;Indonesia;087773968995;;;25.833.843;99.652.778;https://maps.google.com/?cid=0x0:0x46317fde463bea60;
toko bangunan;Toko Bahan Bangunan;PANGLONG SUBUR JAYA;"Jl. Lintas Sumatra No.16, Kp. Yaman, Kec. Aek Natas, Kabupaten Labuhanbatu Utara, Sumatera Utara 21455";"Kp. Yaman, Kec. Aek Natas, Kabupaten Labuhanbatu Utara";SUMATERA UTARA;21455;Indonesia;;;;23.422.867;997.221.916;https://maps.google.com/?cid=0x0:0x6f56956c78b73227;
toko bangunan;Toko Alat-Alat;Putra Makita;"Jl. Lintas Sumatra No.9, Pulo Jantan, Kec. Na IX-X, Kabupaten Labuhanbatu Utara, Sumatera Utara 21455";"Pulo Jantan, Kec. Na IX-X, Kabupaten Labuhanbatu Utara";SUMATERA UTARA;21455;Indonesia;;;;22.967.877;997.447.643;https://maps.google.com/?cid=0x0:0x2cf6848a886da12c;
toko bangunan;Toko Cat;Toko Bangun Jaya;"Jl. Jenderal Sudirman No.168, Aek Kanopan Tim., Kec. Kualuh Hulu, Kabupaten Labuhanbatu Utara, Sumatera Utara 21273";"Aek Kanopan Tim., Kec. Kualuh Hulu, Kabupaten Labuhanbatu Utara";SUMATERA UTARA;21273;Indonesia;083872566044;;;25.718.276;996.531.224;https://maps.google.com/?cid=0x0:0xfcf638a83824a00;
toko bangunan;Toko;UD.NATAS;"9MXX+68J, Bandar Durian, Kec. Aek Natas, Kabupaten Labuhanbatu Utara, Sumatera Utara 21455";"Bandar Durian, Kec. Aek Natas, Kabupaten Labuhanbatu Utara";SUMATERA UTARA;21455;Indonesia;;;;23.980.758;996.982.791;https://maps.google.com/?cid=0x0:0x16a7a1ddc0d4d3d;
toko bangunan;Toko Bahan Bangunan;PANGLONG SINAR BARU;"Asian Highway No.25, Aek Kota Batu, Na IX-X, North Labuhan Batu Regency, North Sumatra 21452";"Aek Kota Batu, Na IX-X, North Labuhan Batu Regency";SUMATERA UTARA;21452;Indonesia;;;;22.777.005;997.620.653;https://maps.google.com/?cid=0x0:0x97db0291e6c848bb;
toko bangunan;Toko Bahan Bangunan;Panglong Sabar Jaya;"CQR5+CXF, Unnamed Road, Pangkalan, Aek Natas, North Labuhan Batu Regency, North Sumatra 21455";"Unnamed Road, Pangkalan, Aek Natas, North Labuhan Batu Regency";SUMATERA UTARA;21455;Indonesia;;;;2.441.062;99.759.937;https://maps.google.com/?cid=0x0:0x1abae6aec0fda194;
toko bangunan;Toko Bahan Bangunan;Sukses Bersama;"7PVX+CM5, Jl. Lintas Sumatra, Pulo Jantan, Kec. Na IX-X, Kabupaten Labuhanbatu Utara, Sumatera Utara";"Kabupaten Labuhanbatu Utara, Sumatera Utara";SUMATERA UTARA;;Indonesia;082365221195;;;22.939.196;997.491.616;https://maps.google.com/?cid=0x0:0x9bf14eb388cffe63;
toko bangunan;Toko Bahan Bangunan;SAHABAT MARBAU SEJAHTERA;"7Q6C+FG4, Desa, Simpang Empat, Kec. Na IX-X, Kabupaten Labuhanbatu Utara, Sumatera Utara 21454";"Desa, Simpang Empat, Kec. Na IX-X, Kabupaten Labuhanbatu Utara";SUMATERA UTARA;21454;Indonesia;085360246400;;;22.611.467;997.713.362;https://maps.google.com/?cid=0x0:0xe3b979b19446e89c;
toko bangunan;Grosir;Toko Bangunan UD.Sianjur Abadi;"Jl. Aek Nabara - Negeri Lama No.327, Kp. Padang, Kec. Pangkatan, Kab. Labuhanbatu, Sumatera Utara 21462";"Kp. Padang, Kec. Pangkatan, Kab. Labuhanbatu";SUMATERA UTARA;21462;Indonesia;083177680118;;;21.946.735;1.000.427.859;https://maps.google.com/?cid=0x0:0xc5192b7baab41e4;
toko bangunan;Toko Bahan Bangunan;Toko Bangunan Cahaya Baru Aek Nabara;"Jl. Ampera No.51, Pd. Batu, Kec. Bilah Hulu, Kab. Labuhanbatu, Sumatera Utara 21451";"Pd. Batu, Kec. Bilah Hulu, Kab. Labuhanbatu";SUMATERA UTARA;21451;Indonesia;062429440;;;20.637.436;999.551.252;https://maps.google.com/?cid=0x0:0x11fdccb4453c9fa0;
toko bangunan;Toko Bahan Bangunan;Toko Baru;"Jl. Jenderal Sudirman No.26, Aek Kanopan Tim., Kec. Kualuh Hulu, Kabupaten Labuhanbatu Utara, Sumatera Utara 21454";"Aek Kanopan Tim., Kec. Kualuh Hulu, Kabupaten Labuhanbatu Utara";SUMATERA UTARA;21454;Indonesia;085261388838;;;25.675.378;996.540.722;https://maps.google.com/?cid=0x0:0x3013c9afdd5d5fa3;
toko bangunan;Toko Bahan Bangunan;UD. FAJAR BARU;"Jl. Lintas Sumatra No.13, Ael Loba Pekan, Kec. Aek Kuasan, Kabupaten Asahan, Sumatera Utara 21273";"Ael Loba Pekan, Kec. Aek Kuasan, Kabupaten Asahan";SUMATERA UTARA;21273;Indonesia;083872566033;;;26.513.208;996.325.911;https://maps.google.com/?cid=0x0:0x2d8f58efaf166722;
toko bangunan;Perusahaan desain industri;BATU NISAN - AHLI UKIR PRASASTI Kp.Pajak;"8P2R+3XW, Kampung Pajak, Gg, Kilang, Kec. Na IX-X, Kabupaten Labuhanbatu Utara, Sumatera Utara 21455";"Kampung Pajak, Gg, Kilang, Kec. Na IX-X, Kabupaten Labuhanbatu Utara";SUMATERA UTARA;21455;Indonesia;;;;23.002.263;997.424.473;https://maps.google.com/?cid=0x0:0xe138cc4c0ebc7048;
toko bangunan;Toko Bahan Bangunan;TB.AR SINAGA;"Jl. Lintas Sumatra No.utara, Kp. Pajak, Kec. Na IX-X, Kabupaten Labuhanbatu Utara, Sumatera Utara 21454";"Kp. Pajak, Kec. Na IX-X, Kabupaten Labuhanbatu Utara";SUMATERA UTARA;21454;Indonesia;;;;23.009.775;997.411.794;https://maps.google.com/?cid=0x0:0xfa76d6cea3084ed4;
toko bangunan;Toko;UD.ngatimin;"8R7Q+6MV, Perk. Padang Halaban, Kec. Aek Kuo, Kabupaten Labuhanbatu Utara, Sumatera Utara 21455";"Perk. Padang Halaban, Kec. Aek Kuo, Kabupaten Labuhanbatu Utara";SUMATERA UTARA;21455;Indonesia;085290344964;;;2.313.118;998.391.677;https://maps.google.com/?cid=0x0:0xdabeaeef62adca93;
toko bangunan;Toko Perlengkapan Rumah;Panglong Bintang jaya;"7V6P+78, Tubiran, Kec. Marbau, Kabupaten Labuhanbatu Utara, Sumatera Utara 21452";"Tubiran, Kec. Marbau, Kabupaten Labuhanbatu Utara";SUMATERA UTARA;21452;Indonesia;;;;22.606.481;998.858.269;https://maps.google.com/?cid=0x0:0x38f9195d178defa;
toko bangunan;Toko Perlengkapan Rumah;Toko S. Munthe;"7QH6+HP8, Jl. Lintas Sumatra, Aek Kota Batu, Kec. Na IX-X, Kabupaten Labuhanbatu Utara, Sumatera Utara 21452";"Jl. Lintas Sumatra, Aek Kota Batu, Kec. Na IX-X, Kabupaten Labuhanbatu Utara";SUMATERA UTARA;21452;Indonesia;082166908813;;;22.789.153;997.618.383;https://maps.google.com/?cid=0x0:0xf61bdae7e73a4ec8;
toko bangunan;Toko;Mandiri Jaya UD;"Jl. Lintas Sumatera Ledong Barat, Aek Kanopan, Kec. Aek Ledong, Kabupaten Asahan, Sumatera Utara 21273";"Aek Kanopan, Kec. Aek Ledong, Kabupaten Asahan";SUMATERA UTARA;21273;Indonesia;085261555199;;;25.917.512;996.452.823;https://maps.google.com/?cid=0x0:0xb19620fb18f67d43;
toko bangunan;toko bangunan;Kec. Aek Natas;"Kabupaten Labuhanbatu Utara, Sumatera Utara";"Kabupaten Labuhanbatu Utara, Sumatera Utara";SUMATERA UTARA;;Indonesia;;;;23.459.816;997.209.993;https://maps.google.com/?cid=0x0:0xd7db60ca7133d417;
toko bangunan;Bank;Agen Brilink Julmukabbah Hsb / UCOK LEO;"Jl. Besar Rintis, Ujung Padang, Kec. Aek Natas, Kabupaten Labuhanbatu Utara, Sumatera Utara 21455";"Ujung Padang, Kec. Aek Natas, Kabupaten Labuhanbatu Utara";SUMATERA UTARA;21455;Indonesia;;;;2.436.052;997.654.147;https://maps.google.com/?cid=0x0:0xfcc4637103ea7b67;
toko bangunan;toko bangunan;Sumatera Utara 21474;"Kec. Kualuh Hilir, Kabupaten Labuhanbatu Utara, Sumatera Utara";"Kabupaten Labuhanbatu Utara, Sumatera Utara";SUMATERA UTARA;;Indonesia;;;;25.204.832;1.000.135.929;https://maps.google.com/?cid=0x0:0x556108f16bd7ca29;
toko bangunan;Toko Bahan Bangunan;UD Mekar Sari;"HR6X+P92, Unnamed Road, Sonomartani, Kec. Kualuh Hulu, Kabupaten Labuhanbatu Utara, Sumatera Utara 21475";"Unnamed Road, Sonomartani, Kec. Kualuh Hulu, Kabupaten Labuhanbatu Utara";SUMATERA UTARA;21475;Indonesia;;;;25.617.708;998.483.912;https://maps.google.com/?cid=0x0:0xa299b0bf14a7403b;
toko bangunan;Toko Cat;Toko Bangun Jaya;"Jl. Jenderal Sudirman No.168, Aek Kanopan Tim., Kec. Kualuh Hulu, Kabupaten Labuhanbatu Utara, Sumatera Utara 21273";"Aek Kanopan Tim., Kec. Kualuh Hulu, Kabupaten Labuhanbatu Utara";SUMATERA UTARA;21273;Indonesia;083872566044;;;25.718.276;996.531.224;https://maps.google.com/?cid=0x0:0xfcf638a83824a00;
toko bangunan;Toko Bahan Bangunan;UD. FARIS JAYA;"HV69+W9Q, Dusun III Mekarsari, Sonomartani, Kec. Kualuh Hulu, Kabupaten Labuhanbatu Utara";"Kabupaten Labuhanbatu Utara, Sumatera Utara";SUMATERA UTARA;;Indonesia;;;;25.623.485;998.684.746;https://maps.google.com/?cid=0x0:0x3c5542853f248dfd;
toko bangunan;Toko Perlengkapan Rumah;Rmh keluarga FauziFauziah panlong;"PWGW+HF8, Dusun bahagia, Tlk. Pulai Luar, Kec. Kualuh Leidong, Kabupaten Labuhanbatu Utara, Sumatera Utara";"Kabupaten Labuhanbatu Utara, Sumatera Utara";SUMATERA UTARA;;Indonesia;;;;27.264.154;999.461.935;https://maps.google.com/?cid=0x0:0xce4c235e33d4a43e;
toko bangunan;toko bangunan;UD.YIN panglong;"H2J7+VVW, Kampung Mesjid, Kec. Kualuh Hilir, Kabupaten Labuhanbatu Utara, Sumatera Utara";"Kabupaten Labuhanbatu Utara, Sumatera Utara";SUMATERA UTARA;;Indonesia;;;;25.822.278;1.000.146.909;https://maps.google.com/?cid=0x0:0xb7f3fe12a413947b;
toko bangunan;toko bangunan;UD BERKAH KELUARGA;"Pasar bilah 1B, Kp. Mesjid, Kec. Kualuh Hilir, Kabupaten Labuhanbatu Utara, Sumatera Utara 21474";"Kp. Mesjid, Kec. Kualuh Hilir, Kabupaten Labuhanbatu Utara";SUMATERA UTARA;21474;Indonesia;085206641661;;;25.703.349;1.000.346.403;https://maps.google.com/?cid=0x0:0x7f29016e7915ac88;
toko bangunan;toko bangunan;Panglong ILHAM JAFAR;"HV59+WFW, Sonomartani, Kec. Kualuh Hulu, Kabupaten Labuhanbatu Utara, Sumatera Utara 21475";"Sonomartani, Kec. Kualuh Hulu, Kabupaten Labuhanbatu Utara";SUMATERA UTARA;21475;Indonesia;;;;25.598.825;998.686.209;https://maps.google.com/?cid=0x0:0xceb9f4fef85e6ae9;
toko bangunan;Toko;Yuda Kramik;"dusun suka mulia desa, Damuli Pekan, Kec. Kualuh Sel., Kabupaten Labuhanbatu Utara, Sumatera Utara 21457";"Damuli Pekan, Kec. Kualuh Sel., Kabupaten Labuhanbatu Utara";SUMATERA UTARA;21457;Indonesia;081265356745;;;25.136.392;996.383.471;https://maps.google.com/?cid=0x0:0xb074c6c19bb26777;
toko bangunan;Produsen;Pabrik Batu Bata Silalahi;"GWJG+PJ4, Kuala Bangka, Kec. Kualuh Hilir, Kabupaten Labuhanbatu Utara, Sumatera Utara 21474";"Kuala Bangka, Kec. Kualuh Hilir, Kabupaten Labuhanbatu Utara";SUMATERA UTARA;21474;Indonesia;085166900668;;;25.317.535;999.265.914;https://maps.google.com/?cid=0x0:0xbb65f31c07d8e989;
toko bangunan;toko bangunan;Sumatera Utara 21457;"Kec. Kualuh Sel., Kabupaten Labuhanbatu Utara, Sumatera Utara";"Kabupaten Labuhanbatu Utara, Sumatera Utara";SUMATERA UTARA;;Indonesia;;;;24.644.513;996.786.894;https://maps.google.com/?cid=0x0:0xbeeda126e9c5dc9c;
toko bangunan;Toko Cat;Toko Bangun Jaya;"Jl. Jenderal Sudirman No.168, Aek Kanopan Tim., Kec. Kualuh Hulu, Kabupaten Labuhanbatu Utara, Sumatera Utara 21273";"Aek Kanopan Tim., Kec. Kualuh Hulu, Kabupaten Labuhanbatu Utara";SUMATERA UTARA;21273;Indonesia;083872566044;;;25.718.276;996.531.224;https://maps.google.com/?cid=0x0:0xfcf638a83824a00;
toko bangunan;Toko Bahan Bangunan;Expo Aek Kanopan;"Jl. Lintas Sumatra No.16, Aek Kanopan Tim., Kec. Kualuh Hulu, Kabupaten Asahan, Sumatera Utara 21273";"Aek Kanopan Tim., Kec. Kualuh Hulu, Kabupaten Asahan";SUMATERA UTARA;21273;Indonesia;087773968995;;;25.833.843;99.652.778;https://maps.google.com/?cid=0x0:0x46317fde463bea60;
toko bangunan;Toko Perlengkapan Rumah;Panglong Usaha Baru;"FJRG+XCW, Jl. Lintas Sumatra, Damuli Pekan, Kec. Kualuh Sel., Kabupaten Labuhanbatu Utara, Sumatera Utara 21457";"Jl. Lintas Sumatra, Damuli Pekan, Kec. Kualuh Sel., Kabupaten Labuhanbatu Utara";SUMATERA UTARA;21457;Indonesia;;;;24.924.857;996.260.791;https://maps.google.com/?cid=0x0:0x1911e3eaae41f3ab;
toko bangunan;Toko bahan makanan;Subur Jaya. UD;"JL Kampung Banjar Lorong 2, Tanjung Pasir, Kualuh Selatan, Labuhan Batu Utara, Gunting Saga, Medan, Kabupaten Labuhanbatu Utara, Sumatera Utara 21457";"Tanjung Pasir, Kualuh Selatan, Labuhan Batu Utara, Gunting Saga, Medan, Kabupaten Labuhanbatu Utara";SUMATERA UTARA;21457;Indonesia;081375543508;;;25.307.944;997.042.528;https://maps.google.com/?cid=0x0:0x31586b7e82409d0b;
toko bangunan;Toko Bahan Bangunan;Iis manja pane panglong;"GJWH+W3V, Jl. Al Washliyah, Parpaudangan, Kec. Kualuh Hulu, Kabupaten Labuhanbatu Utara, Sumatera Utara 21457";"Jl. Al Washliyah, Parpaudangan, Kec. Kualuh Hulu, Kabupaten Labuhanbatu Utara";SUMATERA UTARA;21457;Indonesia;;;;25.473.694;996.276.874;https://maps.google.com/?cid=0x0:0x258da0cf0a06437a;
toko bangunan;Toko Bahan Bangunan;Ridho Gipsum;"GJ4M+63P, Damuli Pekan, Kec. Kualuh Sel., Kabupaten Labuhanbatu Utara, Sumatera Utara 21457";"Damuli Pekan, Kec. Kualuh Sel., Kabupaten Labuhanbatu Utara";SUMATERA UTARA;21457;Indonesia;081260868548;;;25.055.862;996.327.054;https://maps.google.com/?cid=0x0:0xc66759207ef6e8d8;
toko bangunan;Toko Bahan Bangunan;UD Mekar Sari;"HR6X+P92, Unnamed Road, Sonomartani, Kec. Kualuh Hulu, Kabupaten Labuhanbatu Utara, Sumatera Utara 21475";"Unnamed Road, Sonomartani, Kec. Kualuh Hulu, Kabupaten Labuhanbatu Utara";SUMATERA UTARA;21475;Indonesia;;;;25.617.708;998.483.912;https://maps.google.com/?cid=0x0:0xa299b0bf14a7403b;
toko bangunan;Toko Bahan Bangunan;Arfan sagala;"Jl.linsum terang bulan, Aek kanopan, Kec. Aek Natas, Kabupaten Labuhanbatu Utara, Sumatera Utara 21455";"Aek kanopan, Kec. Aek Natas, Kabupaten Labuhanbatu Utara";SUMATERA UTARA;21455;Indonesia;083827358143;;;24.185.046;996.825.956;https://maps.google.com/?cid=0x0:0x4bf5f307911fc0e0;
toko bangunan;Toko Bahan Bangunan;UD. TIO JAYA MANDIRI;"Jl. Lintas Sumatra No.4c, Perk. Damuli, Kec. Kualuh Sel., Kabupaten Labuhanbatu Utara, Sumatera Utara 21457";"Perk. Damuli, Kec. Kualuh Sel., Kabupaten Labuhanbatu Utara";SUMATERA UTARA;21457;Indonesia;;;;24.761.326;996.359.499;https://maps.google.com/?cid=0x0:0x2b60f587c5f24cb1;
toko bangunan;Toko Bahan Bangunan;UD. Agung;"JL Lintas Sumatera, Lingkungan 1, Gunting Saga, Kualuh Selatan, Sidua Dua, Aekanopan, Kabupaten Labuhanbatu Utara, Sumatera Utara 21457";"Lingkungan 1, Gunting Saga, Kualuh Selatan, Sidua Dua, Aekanopan, Kabupaten Labuhanbatu Utara";SUMATERA UTARA;21457;Indonesia;081375056477;;;25.239.722;996.550.833;https://maps.google.com/?cid=0x0:0x396499f6738640e6;
toko bangunan;Toko;Yuda Kramik;"dusun suka mulia desa, Damuli Pekan, Kec. Kualuh Sel., Kabupaten Labuhanbatu Utara, Sumatera Utara 21457";"Damuli Pekan, Kec. Kualuh Sel., Kabupaten Labuhanbatu Utara";SUMATERA UTARA;21457;Indonesia;081265356745;;;25.136.392;996.383.471;https://maps.google.com/?cid=0x0:0xb074c6c19bb26777;
toko bangunan;Toko Bahan Bangunan;Cahaya beton;"FJXH+73H, Dusun sukadame, Damuli Pekan, Kec. Kualuh Sel., Kabupaten Labuhanbatu Utara, Sumatera Utara 21457";"Dusun sukadame, Damuli Pekan, Kec. Kualuh Sel., Kabupaten Labuhanbatu Utara";SUMATERA UTARA;21457;Indonesia;085270145578;;;2.498.184;996.277.457;https://maps.google.com/?cid=0x0:0x475aa42c0decb21;
toko bangunan;Toko Bahan Bangunan;Cahaya Baru Bangunan;"Jl. Kualuh No.19, Kartini, Kec. Rantau Utara, Kab. Labuhanbatu, Sumatera Utara 21412";"Kartini, Kec. Rantau Utara, Kab. Labuhanbatu";SUMATERA UTARA;21412;Indonesia;083177680118;;;20.985.605;998.306.258;https://maps.google.com/?cid=0x0:0x669369efb561664c;
toko bangunan;Toko Bahan Bangunan;Randy. UD;"HJ88+XXV, Aek Kanopan, Kec. Kualuh Hulu, Kabupaten Labuhanbatu Utara, Sumatera Utara 21273";"Aek Kanopan, Kec. Kualuh Hulu, Kabupaten Labuhanbatu Utara";SUMATERA UTARA;21273;Indonesia;0624693701;;;2.567.495;99.617.434;https://maps.google.com/?cid=0x0:0x15e86acb2493d1e5;
toko bangunan;Toko;Mandiri Jaya UD;"Jl. Lintas Sumatera Ledong Barat, Aek Kanopan, Kec. Aek Ledong, Kabupaten Asahan, Sumatera Utara 21273";"Aek Kanopan, Kec. Aek Ledong, Kabupaten Asahan";SUMATERA UTARA;21273;Indonesia;085261555199;;;25.917.512;996.452.823;https://maps.google.com/?cid=0x0:0xb19620fb18f67d43;
toko bangunan;Toko Bahan Bangunan;UD.MANDIRI PUTRA;"HPGQ+PHP, Sukarame, Kec. Kualuh Hulu, Kabupaten Labuhanbatu Utara, Sumatera Utara 21457";"Sukarame, Kec. Kualuh Hulu, Kabupaten Labuhanbatu Utara";SUMATERA UTARA;21457;Indonesia;;;;2.576.828;99.738.955;https://maps.google.com/?cid=0x0:0x39b38a2580c8b15a;
toko bangunan;Toko Bahan Bangunan;Berkat Jaya;"HJ88+XXP, Jl. Jenderal Sudirman, Aek Kanopan, Kec. Kualuh Hulu, Kabupaten Labuhanbatu Utara, Sumatera Utara 21273";"Jl. Jenderal Sudirman, Aek Kanopan, Kec. Kualuh Hulu, Kabupaten Labuhanbatu Utara";SUMATERA UTARA;21273;Indonesia;081375742349;;;2.567.452;9.961.745;https://maps.google.com/?cid=0x0:0x11f82103f3ecce86;
toko bangunan;Toko Bahan Bangunan;Jaya baru;"Jl. Lintas Sumatra No.340, Aek Kanopan Tim., Kec. Kualuh Hulu, Kabupaten Asahan, Sumatera Utara 21273";"Aek Kanopan Tim., Kec. Kualuh Hulu, Kabupaten Asahan";SUMATERA UTARA;21273;Indonesia;;;;2.577.293;996.526.261;https://maps.google.com/?cid=0x0:0x9d61738c218e3888;
toko bangunan;Toko Bahan Bangunan;Tb. Lucky star;"Jl. Jenderal Sudirman No.64, Bunut, Kec. Kualuh Hulu, Kabupaten Asahan, Sumatera Utara 21273";"Bunut, Kec. Kualuh Hulu, Kabupaten Asahan";SUMATERA UTARA;21273;Indonesia;;;;25.692.048;996.534.152;https://maps.google.com/?cid=0x0:0xdc1bcc11a9b589fb;
toko bangunan;Toko Perlengkapan Rumah;Tangkahan Pasir;"GP7P+CR, Tj. Pasir, Kec. Kualuh Sel., Kabupaten Labuhanbatu Utara, Sumatera Utara";"Kabupaten Labuhanbatu Utara, Sumatera Utara";SUMATERA UTARA;;Indonesia;;;;25.136.043;997.370.413;https://maps.google.com/?cid=0x0:0x957d430514c03d18;
toko bangunan;toko bangunan;UD. Rahmadi;"GGRG+P62, Perkebunan Londut, Kec. Kualuh Hulu, Kabupaten Labuhanbatu Utara, Sumatera Utara 21457";"Perkebunan Londut, Kec. Kualuh Hulu, Kabupaten Labuhanbatu Utara";SUMATERA UTARA;21457;Indonesia;;;;25.417.904;99.525.462;https://maps.google.com/?cid=0x0:0xbb3bd4565aac03e9;
toko bangunan;toko bangunan;Panglong dua putri;"GP7R+P29, Jl. Tj. Pasir, Tj. Pasir, Kec. Kualuh Sel., Kabupaten Labuhanbatu Utara, Sumatera Utara 21457";"Jl. Tj. Pasir, Tj. Pasir, Kec. Kualuh Sel., Kabupaten Labuhanbatu Utara";SUMATERA UTARA;21457;Indonesia;;;;25.143.372;997.402.134;https://maps.google.com/?cid=0x0:0xcc5811d00da2bf69;
toko bangunan;Toko Swalayan;UD SETIA TANI JAYA;"FJH4+RGV, Perk. Damuli, Kec. Kualuh Sel., Kabupaten Labuhanbatu Utara, Sumatera Utara 21457";"Perk. Damuli, Kec. Kualuh Sel., Kabupaten Labuhanbatu Utara";SUMATERA UTARA;21457;Indonesia;;;;24.796.225;996.063.006;https://maps.google.com/?cid=0x0:0xca37fdcc9fd9933d;
toko bangunan;Pusat Perbelanjaan;Ledong;"QX3H+6G5, Tj. Leidong, Kec. Kualuh Leidong, Kabupaten Labuhanbatu Utara, Sumatera Utara";"Kabupaten Labuhanbatu Utara, Sumatera Utara";SUMATERA UTARA;;Indonesia;;;;27.530.059;9.997.886;https://maps.google.com/?cid=0x0:0xb3455aeccd13b73a;
toko bangunan;Toko bahan makanan;SG Leidong;"QX4H+84H, Tj. Leidong, Kec. Kualuh Leidong, Kabupaten Labuhanbatu Utara, Sumatera Utara 21475";"Tj. Leidong, Kec. Kualuh Leidong, Kabupaten Labuhanbatu Utara";SUMATERA UTARA;21475;Indonesia;;;;27.558.175;999.778.571;https://maps.google.com/?cid=0x0:0xe8c3cd0a648778a9;
toko bangunan;Toko Cat;Toko Bangun Jaya;"Jl. Jenderal Sudirman No.168, Aek Kanopan Tim., Kec. Kualuh Hulu, Kabupaten Labuhanbatu Utara, Sumatera Utara 21273";"Aek Kanopan Tim., Kec. Kualuh Hulu, Kabupaten Labuhanbatu Utara";SUMATERA UTARA;21273;Indonesia;083872566044;;;25.718.276;996.531.224;https://maps.google.com/?cid=0x0:0xfcf638a83824a00;
toko bangunan;Toko Elektronik;Toko Uli (Elektronik dan Bangunan);"QW2F+X3H, Jl. Pangkalan Lunang - Sungai Dua - Klp. Sebatang - Tlk. Pulai, Klp. Sebatang, Kec. Kualuh Leidong, Kabupaten Labuhanbatu Utara, Sumatera Utara 21475";"Jl. Pangkalan Lunang - Sungai Dua - Klp. Sebatang - Tlk. Pulai, Klp. Sebatang, Kec. Kualuh Leidong, Kabupaten Labuhanbatu Utara";SUMATERA UTARA;21475;Indonesia;;;;27.524.295;999.227.226;https://maps.google.com/?cid=0x0:0x14e761696a313df0;
toko bangunan;Toko Bahan Bangunan;UD. BIMACOLOR;"QWCR+JXH, Jl. Pangkalan Lunang - Sungai Dua - Klp. Sebatang - Tlk. Pulai, Klp. Sebatang, Kec. Kualuh Leidong, Kabupaten Labuhanbatu Utara, Sumatera Utara 21475";"Jl. Pangkalan Lunang - Sungai Dua - Klp. Sebatang - Tlk. Pulai, Klp. Sebatang, Kec. Kualuh Leidong, Kabupaten Labuhanbatu Utara";SUMATERA UTARA;21475;Indonesia;082166697071;;;2.771.565;999.424.719;https://maps.google.com/?cid=0x0:0x8d754770382c63c9;
toko bangunan;toko bangunan;Sumatera Utara 21457;"Kec. Kualuh Sel., Kabupaten Labuhanbatu Utara, Sumatera Utara";"Kabupaten Labuhanbatu Utara, Sumatera Utara";SUMATERA UTARA;;Indonesia;;;;24.644.513;996.786.894;https://maps.google.com/?cid=0x0:0xbeeda126e9c5dc9c;
toko bangunan;Toko Perlengkapan Rumah;Panglong Usaha Baru;"FJRG+XCW, Jl. Lintas Sumatra, Damuli Pekan, Kec. Kualuh Sel., Kabupaten Labuhanbatu Utara, Sumatera Utara 21457";"Jl. Lintas Sumatra, Damuli Pekan, Kec. Kualuh Sel., Kabupaten Labuhanbatu Utara";SUMATERA UTARA;21457;Indonesia;;;;24.924.857;996.260.791;https://maps.google.com/?cid=0x0:0x1911e3eaae41f3ab;
toko bangunan;Toko Cat;Toko Bangun Jaya;"Jl. Jenderal Sudirman No.168, Aek Kanopan Tim., Kec. Kualuh Hulu, Kabupaten Labuhanbatu Utara, Sumatera Utara 21273";"Aek Kanopan Tim., Kec. Kualuh Hulu, Kabupaten Labuhanbatu Utara";SUMATERA UTARA;21273;Indonesia;083872566044;;;25.718.276;996.531.224;https://maps.google.com/?cid=0x0:0xfcf638a83824a00;
toko bangunan;Toko Bahan Bangunan;Expo Aek Kanopan;"Jl. Lintas Sumatra No.16, Aek Kanopan Tim., Kec. Kualuh Hulu, Kabupaten Asahan, Sumatera Utara 21273";"Aek Kanopan Tim., Kec. Kualuh Hulu, Kabupaten Asahan";SUMATERA UTARA;21273;Indonesia;087773968995;;;25.833.843;99.652.778;https://maps.google.com/?cid=0x0:0x46317fde463bea60;
toko bangunan;Toko Bahan Bangunan;Ridho Gipsum;"GJ4M+63P, Damuli Pekan, Kec. Kualuh Sel., Kabupaten Labuhanbatu Utara, Sumatera Utara 21457";"Damuli Pekan, Kec. Kualuh Sel., Kabupaten Labuhanbatu Utara";SUMATERA UTARA;21457;Indonesia;081260868548;;;25.055.862;996.327.054;https://maps.google.com/?cid=0x0:0xc66759207ef6e8d8;
toko bangunan;Toko Bahan Bangunan;UD Mekar Sari;"HR6X+P92, Unnamed Road, Sonomartani, Kec. Kualuh Hulu, Kabupaten Labuhanbatu Utara, Sumatera Utara 21475";"Unnamed Road, Sonomartani, Kec. Kualuh Hulu, Kabupaten Labuhanbatu Utara";SUMATERA UTARA;21475;Indonesia;;;;25.617.708;998.483.912;https://maps.google.com/?cid=0x0:0xa299b0bf14a7403b;
toko bangunan;Toko Bahan Bangunan;Iis manja pane panglong;"GJWH+W3V, Jl. Al Washliyah, Parpaudangan, Kec. Kualuh Hulu, Kabupaten Labuhanbatu Utara, Sumatera Utara 21457";"Jl. Al Washliyah, Parpaudangan, Kec. Kualuh Hulu, Kabupaten Labuhanbatu Utara";SUMATERA UTARA;21457;Indonesia;;;;25.473.694;996.276.874;https://maps.google.com/?cid=0x0:0x258da0cf0a06437a;
toko bangunan;Toko Bahan Bangunan;UD. Agung;"JL Lintas Sumatera, Lingkungan 1, Gunting Saga, Kualuh Selatan, Sidua Dua, Aekanopan, Kabupaten Labuhanbatu Utara, Sumatera Utara 21457";"Lingkungan 1, Gunting Saga, Kualuh Selatan, Sidua Dua, Aekanopan, Kabupaten Labuhanbatu Utara";SUMATERA UTARA;21457;Indonesia;081375056477;;;25.239.722;996.550.833;https://maps.google.com/?cid=0x0:0x396499f6738640e6;
toko bangunan;Toko Bahan Bangunan;Arfan sagala;"Jl.linsum terang bulan, Aek kanopan, Kec. Aek Natas, Kabupaten Labuhanbatu Utara, Sumatera Utara 21455";"Aek kanopan, Kec. Aek Natas, Kabupaten Labuhanbatu Utara";SUMATERA UTARA;21455;Indonesia;083827358143;;;24.185.046;996.825.956;https://maps.google.com/?cid=0x0:0x4bf5f307911fc0e0;
toko bangunan;Toko Bahan Bangunan;Toko Baru;"Jl. Jenderal Sudirman No.26, Aek Kanopan Tim., Kec. Kualuh Hulu, Kabupaten Labuhanbatu Utara, Sumatera Utara 21454";"Aek Kanopan Tim., Kec. Kualuh Hulu, Kabupaten Labuhanbatu Utara";SUMATERA UTARA;21454;Indonesia;085261388838;;;25.675.378;996.540.722;https://maps.google.com/?cid=0x0:0x3013c9afdd5d5fa3;
toko bangunan;Toko;Yuda Kramik;"dusun suka mulia desa, Damuli Pekan, Kec. Kualuh Sel., Kabupaten Labuhanbatu Utara, Sumatera Utara 21457";"Damuli Pekan, Kec. Kualuh Sel., Kabupaten Labuhanbatu Utara";SUMATERA UTARA;21457;Indonesia;081265356745;;;25.136.392;996.383.471;https://maps.google.com/?cid=0x0:0xb074c6c19bb26777;
toko bangunan;Toko Bahan Bangunan;UD. TIO JAYA MANDIRI;"Jl. Lintas Sumatra No.4c, Perk. Damuli, Kec. Kualuh Sel., Kabupaten Labuhanbatu Utara, Sumatera Utara 21457";"Perk. Damuli, Kec. Kualuh Sel., Kabupaten Labuhanbatu Utara";SUMATERA UTARA;21457;Indonesia;;;;24.761.326;996.359.499;https://maps.google.com/?cid=0x0:0x2b60f587c5f24cb1;
toko bangunan;Toko Bahan Bangunan;Cahaya beton;"FJXH+73H, Dusun sukadame, Damuli Pekan, Kec. Kualuh Sel., Kabupaten Labuhanbatu Utara, Sumatera Utara 21457";"Dusun sukadame, Damuli Pekan, Kec. Kualuh Sel., Kabupaten Labuhanbatu Utara";SUMATERA UTARA;21457;Indonesia;085270145578;;;2.498.184;996.277.457;https://maps.google.com/?cid=0x0:0x475aa42c0decb21;
toko bangunan;Toko Perlengkapan Rumah;Tangkahan Pasir;"GP7P+CR, Tj. Pasir, Kec. Kualuh Sel., Kabupaten Labuhanbatu Utara, Sumatera Utara";"Kabupaten Labuhanbatu Utara, Sumatera Utara";SUMATERA UTARA;;Indonesia;;;;25.136.043;997.370.413;https://maps.google.com/?cid=0x0:0x957d430514c03d18;
toko bangunan;toko bangunan;Panglong dua putri;"GP7R+P29, Jl. Tj. Pasir, Tj. Pasir, Kec. Kualuh Sel., Kabupaten Labuhanbatu Utara, Sumatera Utara 21457";"Jl. Tj. Pasir, Tj. Pasir, Kec. Kualuh Sel., Kabupaten Labuhanbatu Utara";SUMATERA UTARA;21457;Indonesia;;;;25.143.372;997.402.134;https://maps.google.com/?cid=0x0:0xcc5811d00da2bf69;
toko bangunan;Toko Bahan Bangunan;Randy. UD;"HJ88+XXV, Aek Kanopan, Kec. Kualuh Hulu, Kabupaten Labuhanbatu Utara, Sumatera Utara 21273";"Aek Kanopan, Kec. Kualuh Hulu, Kabupaten Labuhanbatu Utara";SUMATERA UTARA;21273;Indonesia;0624693701;;;2.567.495;99.617.434;https://maps.google.com/?cid=0x0:0x15e86acb2493d1e5;
toko bangunan;Toko Swalayan;UD SETIA TANI JAYA;"FJH4+RGV, Perk. Damuli, Kec. Kualuh Sel., Kabupaten Labuhanbatu Utara, Sumatera Utara 21457";"Perk. Damuli, Kec. Kualuh Sel., Kabupaten Labuhanbatu Utara";SUMATERA UTARA;21457;Indonesia;;;;24.796.225;996.063.006;https://maps.google.com/?cid=0x0:0xca37fdcc9fd9933d;
toko bangunan;Toko Bahan Bangunan;UD.MANDIRI PUTRA;"HPGQ+PHP, Sukarame, Kec. Kualuh Hulu, Kabupaten Labuhanbatu Utara, Sumatera Utara 21457";"Sukarame, Kec. Kualuh Hulu, Kabupaten Labuhanbatu Utara";SUMATERA UTARA;21457;Indonesia;;;;2.576.828;99.738.955;https://maps.google.com/?cid=0x0:0x39b38a2580c8b15a;
toko bangunan;Toko Bahan Bangunan;Jaya baru;"Jl. Lintas Sumatra No.340, Aek Kanopan Tim., Kec. Kualuh Hulu, Kabupaten Asahan, Sumatera Utara 21273";"Aek Kanopan Tim., Kec. Kualuh Hulu, Kabupaten Asahan";SUMATERA UTARA;21273;Indonesia;;;;2.577.293;996.526.261;https://maps.google.com/?cid=0x0:0x9d61738c218e3888;
toko bangunan;toko bangunan;UD. Rahmadi;"GGRG+P62, Perkebunan Londut, Kec. Kualuh Hulu, Kabupaten Labuhanbatu Utara, Sumatera Utara 21457";"Perkebunan Londut, Kec. Kualuh Hulu, Kabupaten Labuhanbatu Utara";SUMATERA UTARA;21457;Indonesia;;;;25.417.904;99.525.462;https://maps.google.com/?cid=0x0:0xbb3bd4565aac03e9;
toko bangunan;Toko Bahan Bangunan;Panglong Sabar Jaya;"CQR5+CXF, Unnamed Road, Pangkalan, Aek Natas, North Labuhan Batu Regency, North Sumatra 21455";"Unnamed Road, Pangkalan, Aek Natas, North Labuhan Batu Regency";SUMATERA UTARA;21455;Indonesia;;;;2.441.062;99.759.937;https://maps.google.com/?cid=0x0:0x1abae6aec0fda194;
toko bangunan;Toko Bahan Bangunan;SAHABAT MARBAU SEJAHTERA;"7Q6C+FG4, Desa, Simpang Empat, Kec. Na IX-X, Kabupaten Labuhanbatu Utara, Sumatera Utara 21454";"Desa, Simpang Empat, Kec. Na IX-X, Kabupaten Labuhanbatu Utara";SUMATERA UTARA;21454;Indonesia;085360246400;;;22.611.467;997.713.362;https://maps.google.com/?cid=0x0:0xe3b979b19446e89c;
toko bangunan;Toko Perlengkapan Rumah;Panglong Bintang jaya;"7V6P+78, Tubiran, Kec. Marbau, Kabupaten Labuhanbatu Utara, Sumatera Utara 21452";"Tubiran, Kec. Marbau, Kabupaten Labuhanbatu Utara";SUMATERA UTARA;21452;Indonesia;;;;22.606.481;998.858.269;https://maps.google.com/?cid=0x0:0x38f9195d178defa;
toko bangunan;Toko Bahan Bangunan;Tunggal Jaya;"Jl. Suniaraja No.58, Braga, Kec. Sumur Bandung, Kota Bandung, Jawa Barat 40111";"Braga, Kec. Sumur Bandung, Kota Bandung";SUMATERA UTARA;40111;Indonesia;0224234343;;;-69.154.064;1.076.056.896;https://maps.google.com/?cid=0x0:0xce8517d65860a871;
toko bangunan;toko bangunan;Sumatera Utara 21452;"Kabupaten Labuhanbatu Utara, Sumatera Utara";"Kabupaten Labuhanbatu Utara, Sumatera Utara";SUMATERA UTARA;;Indonesia;;;;22.296.655;998.571.416;https://maps.google.com/?cid=0x0:0x1ac7ea716a32cbd4;
toko bangunan;Toko Bahan Bangunan;Panglong Cahaya Maju;"7V6J+JM3, Jl. Pulo Padang - Marbau, Tubiran, Kec. Marbau, Kabupaten Labuhanbatu Utara, Sumatera Utara 21452";"Jl. Pulo Padang - Marbau, Tubiran, Kec. Marbau, Kabupaten Labuhanbatu Utara";SUMATERA UTARA;21452;Indonesia;;;;22.615.145;99.881.679;https://maps.google.com/?cid=0x0:0x63ef037044262b62;
toko bangunan;Toko Bahan Bangunan;UD. Gery Jaya;"Jl. Masjid No.3533, Marbau, Kec. Marbau, Kabupaten Labuhanbatu Utara, Sumatera Utara 21452";"Marbau, Kec. Marbau, Kabupaten Labuhanbatu Utara";SUMATERA UTARA;21452;Indonesia;081264007962;;;22.645.387;998.310.477;https://maps.google.com/?cid=0x0:0x97a14095ea8d6e89;
toko bangunan;;UD ULFAH;"7RCR+4JX, Perkebunan Brussel, Kec. Marbau, Kabupaten Labuhanbatu Utara, Sumatera Utara 21452";"Perkebunan Brussel, Kec. Marbau, Kabupaten Labuhanbatu Utara";SUMATERA UTARA;21452;Indonesia;;;;2.270.355;99.841.616;https://maps.google.com/?cid=0x0:0xe1ea2beb2bf222d1;
toko bangunan;Toko Bahan Bangunan;Cahaya Baru Bangunan;"Jl. Kualuh No.19, Kartini, Kec. Rantau Utara, Kab. Labuhanbatu, Sumatera Utara 21412";"Kartini, Kec. Rantau Utara, Kab. Labuhanbatu";SUMATERA UTARA;21412;Indonesia;083177680118;;;20.985.605;998.306.258;https://maps.google.com/?cid=0x0:0x669369efb561664c;
toko bangunan;;Bengkel Arif jaya las;"7Q9P+2P, Perkebunan Brussel, Kec. Marbau, Kabupaten Labuhanbatu Utara, Sumatera Utara";"Kabupaten Labuhanbatu Utara, Sumatera Utara";SUMATERA UTARA;;Indonesia;;;;2.267.517;997.867.977;https://maps.google.com/?cid=0x0:0xae5c0eea5e05277b;
toko bangunan;Toko Bahan Bangunan;PANGLONG SINAR BARU;"Asian Highway No.25, Aek Kota Batu, Na IX-X, North Labuhan Batu Regency, North Sumatra 21452";"Aek Kota Batu, Na IX-X, North Labuhan Batu Regency";SUMATERA UTARA;21452;Indonesia;;;;22.777.005;997.620.653;https://maps.google.com/?cid=0x0:0x97db0291e6c848bb;
toko bangunan;Toko Bahan Bangunan;Sukses Bersama;"7PVX+CM5, Jl. Lintas Sumatra, Pulo Jantan, Kec. Na IX-X, Kabupaten Labuhanbatu Utara, Sumatera Utara";"Kabupaten Labuhanbatu Utara, Sumatera Utara";SUMATERA UTARA;;Indonesia;082365221195;;;22.939.196;997.491.616;https://maps.google.com/?cid=0x0:0x9bf14eb388cffe63;
toko bangunan;Toko Perlengkapan Rumah;Toko S. Munthe;"7QH6+HP8, Jl. Lintas Sumatra, Aek Kota Batu, Kec. Na IX-X, Kabupaten Labuhanbatu Utara, Sumatera Utara 21452";"Jl. Lintas Sumatra, Aek Kota Batu, Kec. Na IX-X, Kabupaten Labuhanbatu Utara";SUMATERA UTARA;21452;Indonesia;082166908813;;;22.789.153;997.618.383;https://maps.google.com/?cid=0x0:0xf61bdae7e73a4ec8;
toko bangunan;Toko Alat-Alat;Putra Makita;"Jl. Lintas Sumatra No.9, Pulo Jantan, Kec. Na IX-X, Kabupaten Labuhanbatu Utara, Sumatera Utara 21455";"Pulo Jantan, Kec. Na IX-X, Kabupaten Labuhanbatu Utara";SUMATERA UTARA;21455;Indonesia;;;;22.967.877;997.447.643;https://maps.google.com/?cid=0x0:0x2cf6848a886da12c;
toko bangunan;toko bangunan;PANGLONG CINTA BARU;"Kp. Pajak, Kec. Na IX-X, Kabupaten Labuhanbatu Utara, Sumatera Utara";"Kabupaten Labuhanbatu Utara, Sumatera Utara";SUMATERA UTARA;;Indonesia;081372351500;;;22.611.997;997.722.826;https://maps.google.com/?cid=0x0:0x6d726aea84ab2063;
toko bangunan;Grosir;Toko Bangunan UD.Sianjur Abadi;"Jl. Aek Nabara - Negeri Lama No.327, Kp. Padang, Kec. Pangkatan, Kab. Labuhanbatu, Sumatera Utara 21462";"Kp. Padang, Kec. Pangkatan, Kab. Labuhanbatu";SUMATERA UTARA;21462;Indonesia;083177680118;;;21.946.735;1.000.427.859;https://maps.google.com/?cid=0x0:0xc5192b7baab41e4;
toko bangunan;Perusahaan desain industri;BATU NISAN - AHLI UKIR PRASASTI Kp.Pajak;"8P2R+3XW, Kampung Pajak, Gg, Kilang, Kec. Na IX-X, Kabupaten Labuhanbatu Utara, Sumatera Utara 21455";"Kampung Pajak, Gg, Kilang, Kec. Na IX-X, Kabupaten Labuhanbatu Utara";SUMATERA UTARA;21455;Indonesia;;;;23.002.263;997.424.473;https://maps.google.com/?cid=0x0:0xe138cc4c0ebc7048;
toko bangunan;Toko Bahan Bangunan;TB.AR SINAGA;"Jl. Lintas Sumatra No.utara, Kp. Pajak, Kec. Na IX-X, Kabupaten Labuhanbatu Utara, Sumatera Utara 21454";"Kp. Pajak, Kec. Na IX-X, Kabupaten Labuhanbatu Utara";SUMATERA UTARA;21454;Indonesia;;;;23.009.775;997.411.794;https://maps.google.com/?cid=0x0:0xfa76d6cea3084ed4;
toko bangunan;Toko Bahan Bangunan;Home Smart Rantauprapat;"Jl. SM. Raja No.63, Bakaran Batu, Kec. Rantau Sel., Kab. Labuhanbatu, Sumatera Utara 21421";"Bakaran Batu, Kec. Rantau Sel., Kab. Labuhanbatu";SUMATERA UTARA;21421;Indonesia;081540951635;;;20.892.817;998.462.142;https://maps.google.com/?cid=0x0:0x7276b2ff8eeffdec;
toko bangunan;Toko Bahan Bangunan;Toko Sinar(Binsar Kalit);"Jl. Stasiun Padang Halaban, Sidomulyo dusun 1, Perkebunan Panigoran, Kec. Aek Kuo, Kabupaten Labuhanbatu Utara, Sumatera Utara 21455";"Sidomulyo dusun 1, Perkebunan Panigoran, Kec. Aek Kuo, Kabupaten Labuhanbatu Utara";SUMATERA UTARA;21455;Indonesia;085275599551;;;23.162.003;998.199.099;https://maps.google.com/?cid=0x0:0xdc54c85be1179442;
toko bangunan;Toko;Ud. Bagus Baja;"Pulo Jantan, Kec. Na IX-X, Kabupaten Labuhanbatu Utara, Sumatera Utara";"Kabupaten Labuhanbatu Utara, Sumatera Utara";SUMATERA UTARA;;Indonesia;;;;22.975.136;997.441.198;https://maps.google.com/?cid=0x0:0xfacd0e34f158d58b;
toko bangunan;Toko Bahan Bangunan;Ud. Asp Jaya;"Simpang Marbau, Kec. Na IX-X, Kabupaten Labuhanbatu Utara, Sumatera Utara";"Kabupaten Labuhanbatu Utara, Sumatera Utara";SUMATERA UTARA;;Indonesia;;;;2.187.666;997.702.896;https://maps.google.com/?cid=0x0:0x4265697d5c439156;
toko bangunan;toko bangunan;Sumatera Utara 21454;"Kec. Na IX-X, Kabupaten Labuhanbatu Utara, Sumatera Utara";"Kabupaten Labuhanbatu Utara, Sumatera Utara";SUMATERA UTARA;;Indonesia;;;;21.532.664;996.786.894;https://maps.google.com/?cid=0x0:0xa1d048494249269a;
toko bangunan;Toko Bahan Bangunan;SAHABAT MARBAU SEJAHTERA;"7Q6C+FG4, Desa, Simpang Empat, Kec. Na IX-X, Kabupaten Labuhanbatu Utara, Sumatera Utara 21454";"Desa, Simpang Empat, Kec. Na IX-X, Kabupaten Labuhanbatu Utara";SUMATERA UTARA;21454;Indonesia;085360246400;;;22.611.467;997.713.362;https://maps.google.com/?cid=0x0:0xe3b979b19446e89c;
toko bangunan;Toko Bahan Bangunan;Sukses Bersama;"7PVX+CM5, Jl. Lintas Sumatra, Pulo Jantan, Kec. Na IX-X, Kabupaten Labuhanbatu Utara, Sumatera Utara";"Kabupaten Labuhanbatu Utara, Sumatera Utara";SUMATERA UTARA;;Indonesia;082365221195;;;22.939.196;997.491.616;https://maps.google.com/?cid=0x0:0x9bf14eb388cffe63;
toko bangunan;Toko Alat-Alat;Putra Makita;"Jl. Lintas Sumatra No.9, Pulo Jantan, Kec. Na IX-X, Kabupaten Labuhanbatu Utara, Sumatera Utara 21455";"Pulo Jantan, Kec. Na IX-X, Kabupaten Labuhanbatu Utara";SUMATERA UTARA;21455;Indonesia;;;;22.967.877;997.447.643;https://maps.google.com/?cid=0x0:0x2cf6848a886da12c;
toko bangunan;Toko Perlengkapan Rumah;Toko S. Munthe;"7QH6+HP8, Jl. Lintas Sumatra, Aek Kota Batu, Kec. Na IX-X, Kabupaten Labuhanbatu Utara, Sumatera Utara 21452";"Jl. Lintas Sumatra, Aek Kota Batu, Kec. Na IX-X, Kabupaten Labuhanbatu Utara";SUMATERA UTARA;21452;Indonesia;082166908813;;;22.789.153;997.618.383;https://maps.google.com/?cid=0x0:0xf61bdae7e73a4ec8;
toko bangunan;Toko Bahan Bangunan;TB.AR SINAGA;"Jl. Lintas Sumatra No.utara, Kp. Pajak, Kec. Na IX-X, Kabupaten Labuhanbatu Utara, Sumatera Utara 21454";"Kp. Pajak, Kec. Na IX-X, Kabupaten Labuhanbatu Utara";SUMATERA UTARA;21454;Indonesia;;;;23.009.775;997.411.794;https://maps.google.com/?cid=0x0:0xfa76d6cea3084ed4;
toko bangunan;Perusahaan desain industri;BATU NISAN - AHLI UKIR PRASASTI Kp.Pajak;"8P2R+3XW, Kampung Pajak, Gg, Kilang, Kec. Na IX-X, Kabupaten Labuhanbatu Utara, Sumatera Utara 21455";"Kampung Pajak, Gg, Kilang, Kec. Na IX-X, Kabupaten Labuhanbatu Utara";SUMATERA UTARA;21455;Indonesia;;;;23.002.263;997.424.473;https://maps.google.com/?cid=0x0:0xe138cc4c0ebc7048;
toko bangunan;Toko Bahan Bangunan;Cahaya Baru Bangunan;"Jl. Kualuh No.19, Kartini, Kec. Rantau Utara, Kab. Labuhanbatu, Sumatera Utara 21412";"Kartini, Kec. Rantau Utara, Kab. Labuhanbatu";SUMATERA UTARA;21412;Indonesia;083177680118;;;20.985.605;998.306.258;https://maps.google.com/?cid=0x0:0x669369efb561664c;
toko bangunan;Toko Bahan Bangunan;Toko Bangunan Harapan Baru;"3VH3+F97, Bakaran Batu, Kec. Rantau Sel., Kab. Labuhanbatu, Sumatera Utara 21418";"Bakaran Batu, Kec. Rantau Sel., Kab. Labuhanbatu";SUMATERA UTARA;21418;Indonesia;085814747394;;;20.786.682;998.534.364;https://maps.google.com/?cid=0x0:0xc7ff6cc7c37b364c;
toko bangunan;Toko Bahan Bangunan;Asia Maju Interior;"Jl. K. H. Ahmad Dahlan No.72, Rantauprapat, Kec. Rantau Utara, Kab. Labuhanbatu, Sumatera Utara 21411";"Rantauprapat, Kec. Rantau Utara, Kab. Labuhanbatu";SUMATERA UTARA;21411;Indonesia;085758127923;;;21.009.124;998.260.709;https://maps.google.com/?cid=0x0:0xeee35a5d8af3dbc2;
toko bangunan;Toko Bahan Bangunan;Asia Maju;"3VM2+WFJ, Jl. SM. Raja, Bakaran Batu, Kec. Rantau Sel., Kab. Labuhanbatu, Sumatera Utara 21418";"Jl. SM. Raja, Bakaran Batu, Kec. Rantau Sel., Kab. Labuhanbatu";SUMATERA UTARA;21418;Indonesia;082162913486;;;20.848.478;998.511.295;https://maps.google.com/?cid=0x0:0x72b1c232dc79ac2f;
toko bangunan;Toko Bahan Bangunan;TOKO 3464;"Jalan Besar Juhar, Desa No.48, Juhar Ginting, Juhar, Kabupaten Karo, Sumatera Utara 22163";"Desa No.48, Juhar Ginting, Juhar, Kabupaten Karo";SUMATERA UTARA;22163;Indonesia;081269073566;;;21.153.547;995.450.974;https://maps.google.com/?cid=0x0:0x60946127e5877b6e;
toko bangunan;Toko;Ud. Bagus Baja;"Pulo Jantan, Kec. Na IX-X, Kabupaten Labuhanbatu Utara, Sumatera Utara";"Kabupaten Labuhanbatu Utara, Sumatera Utara";SUMATERA UTARA;;Indonesia;;;;22.975.136;997.441.198;https://maps.google.com/?cid=0x0:0xfacd0e34f158d58b;
toko bangunan;toko bangunan;Sukses Bersama;"7QF6+8PC, Jl. Lintas Sumatra, Kp. Pajak, Kec. Na IX-X, Kabupaten Labuhanbatu Utara, Sumatera Utara";"Kabupaten Labuhanbatu Utara, Sumatera Utara";SUMATERA UTARA;;Indonesia;;;;22.733.199;997.617.757;https://maps.google.com/?cid=0x0:0xd1772a256a7524a7;
hardware store;hardware store;Kec. Aek Kuo;"Kabupaten Labuhanbatu Utara, Sumatera Utara";"Kabupaten Labuhanbatu Utara, Sumatera Utara";SUMATERA UTARA;;Indonesia;;;;23.161.726;998.203.062;https://maps.google.com/?cid=0x0:0x4039d80b220d250;
hardware store;Toko Bahan Bangunan;Sukses Bersama;"7PVX+CM5, Jl. Lintas Sumatra, Pulo Jantan, Kec. Na IX-X, Kabupaten Labuhanbatu Utara, Sumatera Utara";"Kabupaten Labuhanbatu Utara, Sumatera Utara";SUMATERA UTARA;;Indonesia;082365221195;;;22.939.196;997.491.616;https://maps.google.com/?cid=0x0:0x9bf14eb388cffe63;
hardware store;Toko Alat-Alat;Putra Makita;"Jl. Lintas Sumatra No.9, Pulo Jantan, Kec. Na IX-X, Kabupaten Labuhanbatu Utara, Sumatera Utara 21455";"Pulo Jantan, Kec. Na IX-X, Kabupaten Labuhanbatu Utara";SUMATERA UTARA;21455;Indonesia;;;;22.967.877;997.447.643;https://maps.google.com/?cid=0x0:0x2cf6848a886da12c;
hardware store;Toko Bahan Bangunan;TB.AR SINAGA;"Jl. Lintas Sumatra No.utara, Kp. Pajak, Kec. Na IX-X, Kabupaten Labuhanbatu Utara, Sumatera Utara 21454";"Kp. Pajak, Kec. Na IX-X, Kabupaten Labuhanbatu Utara";SUMATERA UTARA;21454;Indonesia;;;;23.009.775;997.411.794;https://maps.google.com/?cid=0x0:0xfa76d6cea3084ed4;
hardware store;Komplek perumahan;Simpang Tugu;"8QMF+WG2, Purworejo, Kec. Aek Kuo, Kabupaten Labuhanbatu Utara, Sumatera Utara 21455";"Purworejo, Kec. Aek Kuo, Kabupaten Labuhanbatu Utara";SUMATERA UTARA;21455;Indonesia;;;;2.334.755;997.737.772;https://maps.google.com/?cid=0x0:0x267c3454913889c3;
hardware store;Toko Bahan Bangunan;Panglong Sabar Jaya;"CQR5+CXF, Unnamed Road, Pangkalan, Aek Natas, North Labuhan Batu Regency, North Sumatra 21455";"Unnamed Road, Pangkalan, Aek Natas, North Labuhan Batu Regency";SUMATERA UTARA;21455;Indonesia;;;;2.441.062;99.759.937;https://maps.google.com/?cid=0x0:0x1abae6aec0fda194;
hardware store;hardware store;Sumatera Utara 21455;"Kabupaten Labuhanbatu Utara, Sumatera Utara";"Kabupaten Labuhanbatu Utara, Sumatera Utara";SUMATERA UTARA;;Indonesia;;;;21.543.963;995.006.143;https://maps.google.com/?cid=0x0:0x391266e2c2e7c92;
hardware store;Toko Bahan Bangunan;Sukses Bersama;"7PVX+CM5, Jl. Lintas Sumatra, Pulo Jantan, Kec. Na IX-X, Kabupaten Labuhanbatu Utara, Sumatera Utara";"Kabupaten Labuhanbatu Utara, Sumatera Utara";SUMATERA UTARA;;Indonesia;082365221195;;;22.939.196;997.491.616;https://maps.google.com/?cid=0x0:0x9bf14eb388cffe63;
hardware store;Toko Alat-Alat;Putra Makita;"Jl. Lintas Sumatra No.9, Pulo Jantan, Kec. Na IX-X, Kabupaten Labuhanbatu Utara, Sumatera Utara 21455";"Pulo Jantan, Kec. Na IX-X, Kabupaten Labuhanbatu Utara";SUMATERA UTARA;21455;Indonesia;;;;22.967.877;997.447.643;https://maps.google.com/?cid=0x0:0x2cf6848a886da12c;
hardware store;Toko Bahan Bangunan;Expo Aek Kanopan;"Jl. Lintas Sumatra No.16, Aek Kanopan Tim., Kec. Kualuh Hulu, Kabupaten Asahan, Sumatera Utara 21273";"Aek Kanopan Tim., Kec. Kualuh Hulu, Kabupaten Asahan";SUMATERA UTARA;21273;Indonesia;087773968995;;;25.833.843;99.652.778;https://maps.google.com/?cid=0x0:0x46317fde463bea60;
hardware store;Toko Perlengkapan Rumah;MR.DIY;"Jl. Lintas Sumatra No.16, Aek Kanopan Tim., Kec. Kualuh Hulu, Kabupaten Asahan, Sumatera Utara 21273";"Aek Kanopan Tim., Kec. Kualuh Hulu, Kabupaten Asahan";SUMATERA UTARA;21273;Indonesia;;;;25.824.093;996.527.535;https://maps.google.com/?cid=0x0:0x1a3860b2c869ec62;
hardware store;Toko Bahan Bangunan;Toko Baru;"Jl. Jenderal Sudirman No.26, Aek Kanopan Tim., Kec. Kualuh Hulu, Kabupaten Labuhanbatu Utara, Sumatera Utara 21454";"Aek Kanopan Tim., Kec. Kualuh Hulu, Kabupaten Labuhanbatu Utara";SUMATERA UTARA;21454;Indonesia;085261388838;;;25.675.378;996.540.722;https://maps.google.com/?cid=0x0:0x3013c9afdd5d5fa3;
hardware store;Toko Bahan Bangunan;TB.AR SINAGA;"Jl. Lintas Sumatra No.utara, Kp. Pajak, Kec. Na IX-X, Kabupaten Labuhanbatu Utara, Sumatera Utara 21454";"Kp. Pajak, Kec. Na IX-X, Kabupaten Labuhanbatu Utara";SUMATERA UTARA;21454;Indonesia;;;;23.009.775;997.411.794;https://maps.google.com/?cid=0x0:0xfa76d6cea3084ed4;
hardware store;Bank;Agen Brilink Julmukabbah Hsb / UCOK LEO;"Jl. Besar Rintis, Ujung Padang, Kec. Aek Natas, Kabupaten Labuhanbatu Utara, Sumatera Utara 21455";"Ujung Padang, Kec. Aek Natas, Kabupaten Labuhanbatu Utara";SUMATERA UTARA;21455;Indonesia;;;;2.436.052;997.654.147;https://maps.google.com/?cid=0x0:0xfcc4637103ea7b67;
hardware store;Toko Bahan Bangunan;PANGLONG SUBUR JAYA;"Jl. Lintas Sumatra No.16, Kp. Yaman, Kec. Aek Natas, Kabupaten Labuhanbatu Utara, Sumatera Utara 21455";"Kp. Yaman, Kec. Aek Natas, Kabupaten Labuhanbatu Utara";SUMATERA UTARA;21455;Indonesia;;;;23.422.867;997.221.916;https://maps.google.com/?cid=0x0:0x6f56956c78b73227;
hardware store;Toko Bahan Bangunan;Panglong Sabar Jaya;"CQR5+CXF, Unnamed Road, Pangkalan, Aek Natas, North Labuhan Batu Regency, North Sumatra 21455";"Unnamed Road, Pangkalan, Aek Natas, North Labuhan Batu Regency";SUMATERA UTARA;21455;Indonesia;;;;2.441.062;99.759.937;https://maps.google.com/?cid=0x0:0x1abae6aec0fda194;
hardware store;Toko Perlengkapan Rumah;Toko S. Munthe;"7QH6+HP8, Jl. Lintas Sumatra, Aek Kota Batu, Kec. Na IX-X, Kabupaten Labuhanbatu Utara, Sumatera Utara 21452";"Jl. Lintas Sumatra, Aek Kota Batu, Kec. Na IX-X, Kabupaten Labuhanbatu Utara";SUMATERA UTARA;21452;Indonesia;082166908813;;;22.789.153;997.618.383;https://maps.google.com/?cid=0x0:0xf61bdae7e73a4ec8;
hardware store;Toko Bahan Bangunan;Asia Maju;"3VM2+WFJ, Jl. SM. Raja, Bakaran Batu, Kec. Rantau Sel., Kab. Labuhanbatu, Sumatera Utara 21418";"Jl. SM. Raja, Bakaran Batu, Kec. Rantau Sel., Kab. Labuhanbatu";SUMATERA UTARA;21418;Indonesia;082162913486;;;20.848.478;998.511.295;https://maps.google.com/?cid=0x0:0x72b1c232dc79ac2f;
hardware store;Toko Bahan Bangunan;UD Mekar Sari;"HR6X+P92, Unnamed Road, Sonomartani, Kec. Kualuh Hulu, Kabupaten Labuhanbatu Utara, Sumatera Utara 21475";"Unnamed Road, Sonomartani, Kec. Kualuh Hulu, Kabupaten Labuhanbatu Utara";SUMATERA UTARA;21475;Indonesia;;;;25.617.708;998.483.912;https://maps.google.com/?cid=0x0:0xa299b0bf14a7403b;
hardware store;Dealer Motor Bekas;PANCA NAGA MANDIRI AEK KANOPAN;"PANCA NAGA MANDIRI, Jl. Jenderal Sudirman No.265-269, Aek Kanopan Tim., Kec. Kualuh Hulu, Kabupaten Labuhanbatu Utara, Sumatera Utara 21457";"Jl. Jenderal Sudirman No.265-269, Aek Kanopan Tim., Kec. Kualuh Hulu, Kabupaten Labuhanbatu Utara";SUMATERA UTARA;21457;Indonesia;082250626474;;;25.751.656;996.527.141;https://maps.google.com/?cid=0x0:0x982ee19e5e4d8e74;
hardware store;Toko Bahan Bangunan;Usaha Adek;"2VQG+H2J, JL Besar Tanjung Siram, Sigambal, Rantau Selatan, Rantauprapat, Kec. Bilah Hulu, Kab. Labuhanbatu, Sumatera Utara 21425";"JL Besar Tanjung Siram, Sigambal, Rantau Selatan, Rantauprapat, Kec. Bilah Hulu, Kab. Labuhanbatu";SUMATERA UTARA;21425;Indonesia;062423373;;;20.389.714;998.750.074;https://maps.google.com/?cid=0x0:0x5e942f62056f99b0;
hardware store;Toko Bahan Bangunan;TOKO 3464;"Jalan Besar Juhar, Desa No.48, Juhar Ginting, Juhar, Kabupaten Karo, Sumatera Utara 22163";"Desa No.48, Juhar Ginting, Juhar, Kabupaten Karo";SUMATERA UTARA;22163;Indonesia;081269073566;;;21.153.547;995.450.974;https://maps.google.com/?cid=0x0:0x60946127e5877b6e;
hardware store;hardware store;Kec. Aek Natas;"Kabupaten Labuhanbatu Utara, Sumatera Utara";"Kabupaten Labuhanbatu Utara, Sumatera Utara";SUMATERA UTARA;;Indonesia;;;;23.459.816;997.209.993;https://maps.google.com/?cid=0x0:0xd7db60ca7133d417;
hardware store;hardware store;Sumatera Utara 21474;"Kec. Kualuh Hilir, Kabupaten Labuhanbatu Utara, Sumatera Utara";"Kabupaten Labuhanbatu Utara, Sumatera Utara";SUMATERA UTARA;;Indonesia;;;;25.204.832;1.000.135.929;https://maps.google.com/?cid=0x0:0x556108f16bd7ca29;
hardware store;Toko Bahan Bangunan;UD Mekar Sari;"HR6X+P92, Unnamed Road, Sonomartani, Kec. Kualuh Hulu, Kabupaten Labuhanbatu Utara, Sumatera Utara 21475";"Unnamed Road, Sonomartani, Kec. Kualuh Hulu, Kabupaten Labuhanbatu Utara";SUMATERA UTARA;21475;Indonesia;;;;25.617.708;998.483.912;https://maps.google.com/?cid=0x0:0xa299b0bf14a7403b;
hardware store;Toko Buku;FAMILY CELULER FOTOCOPY;"Unnamed Road, Sungai Apung, Kec. Kualuh Hilir, Kabupaten Labuhanbatu Utara, Sumatera Utara 21474";"Sungai Apung, Kec. Kualuh Hilir, Kabupaten Labuhanbatu Utara";SUMATERA UTARA;21474;Indonesia;082167674052;;;25.824.378;1.000.167.822;https://maps.google.com/?cid=0x0:0x87b47ced05c9883c;
hardware store;hardware store;Sumatera Utara 21457;"Kec. Kualuh Sel., Kabupaten Labuhanbatu Utara, Sumatera Utara";"Kabupaten Labuhanbatu Utara, Sumatera Utara";SUMATERA UTARA;;Indonesia;;;;24.644.513;996.786.894;https://maps.google.com/?cid=0x0:0xbeeda126e9c5dc9c;
hardware store;Toko Perlengkapan Rumah;MR.DIY;"Jl. Lintas Sumatra No.16, Aek Kanopan Tim., Kec. Kualuh Hulu, Kabupaten Asahan, Sumatera Utara 21273";"Aek Kanopan Tim., Kec. Kualuh Hulu, Kabupaten Asahan";SUMATERA UTARA;21273;Indonesia;;;;25.824.093;996.527.535;https://maps.google.com/?cid=0x0:0x1a3860b2c869ec62;
hardware store;Toko Bahan Bangunan;Toko Baru;"Jl. Jenderal Sudirman No.26, Aek Kanopan Tim., Kec. Kualuh Hulu, Kabupaten Labuhanbatu Utara, Sumatera Utara 21454";"Aek Kanopan Tim., Kec. Kualuh Hulu, Kabupaten Labuhanbatu Utara";SUMATERA UTARA;21454;Indonesia;085261388838;;;25.675.378;996.540.722;https://maps.google.com/?cid=0x0:0x3013c9afdd5d5fa3;
hardware store;Toko Bahan Bangunan;Expo Aek Kanopan;"Jl. Lintas Sumatra No.16, Aek Kanopan Tim., Kec. Kualuh Hulu, Kabupaten Asahan, Sumatera Utara 21273";"Aek Kanopan Tim., Kec. Kualuh Hulu, Kabupaten Asahan";SUMATERA UTARA;21273;Indonesia;087773968995;;;25.833.843;99.652.778;https://maps.google.com/?cid=0x0:0x46317fde463bea60;
hardware store;;Toko Pasrah;"Asian Highway No.25, West Ledong, Aek Ledong, Asahan Regency, North Sumatra 21273";"West Ledong, Aek Ledong, Asahan Regency";SUMATERA UTARA;21273;Indonesia;;;;25.818.788;996.528.053;https://maps.google.com/?cid=0x0:0x3bc12cbf62111ff4;
hardware store;Dealer Motor Bekas;PANCA NAGA MANDIRI AEK KANOPAN;"PANCA NAGA MANDIRI, Jl. Jenderal Sudirman No.265-269, Aek Kanopan Tim., Kec. Kualuh Hulu, Kabupaten Labuhanbatu Utara, Sumatera Utara 21457";"Jl. Jenderal Sudirman No.265-269, Aek Kanopan Tim., Kec. Kualuh Hulu, Kabupaten Labuhanbatu Utara";SUMATERA UTARA;21457;Indonesia;082250626474;;;25.751.656;996.527.141;https://maps.google.com/?cid=0x0:0x982ee19e5e4d8e74;
hardware store;Toko Bahan Bangunan;Tb. Lucky star;"Jl. Jenderal Sudirman No.64, Bunut, Kec. Kualuh Hulu, Kabupaten Asahan, Sumatera Utara 21273";"Bunut, Kec. Kualuh Hulu, Kabupaten Asahan";SUMATERA UTARA;21273;Indonesia;;;;25.692.048;996.534.152;https://maps.google.com/?cid=0x0:0xdc1bcc11a9b589fb;
hardware store;Toko Perlengkapan Rumah;Home Shop NURANI;"Jl. Nusa Indah pulo tarutung 1, Aek Kanopan, Kec. Kualuh Hulu, Kabupaten Labuhanbatu Utara, Sumatera Utara 21273";"Aek Kanopan, Kec. Kualuh Hulu, Kabupaten Labuhanbatu Utara";SUMATERA UTARA;21273;Indonesia;;;;25.734.584;996.425.727;https://maps.google.com/?cid=0x0:0x3f0847df4a045ba8;
hardware store;Bank;Agen Brilink Julmukabbah Hsb / UCOK LEO;"Jl. Besar Rintis, Ujung Padang, Kec. Aek Natas, Kabupaten Labuhanbatu Utara, Sumatera Utara 21455";"Ujung Padang, Kec. Aek Natas, Kabupaten Labuhanbatu Utara";SUMATERA UTARA;21455;Indonesia;;;;2.436.052;997.654.147;https://maps.google.com/?cid=0x0:0xfcc4637103ea7b67;
hardware store;Toko Alat-Alat;Putra Makita;"Jl. Lintas Sumatra No.9, Pulo Jantan, Kec. Na IX-X, Kabupaten Labuhanbatu Utara, Sumatera Utara 21455";"Pulo Jantan, Kec. Na IX-X, Kabupaten Labuhanbatu Utara";SUMATERA UTARA;21455;Indonesia;;;;22.967.877;997.447.643;https://maps.google.com/?cid=0x0:0x2cf6848a886da12c;
hardware store;;Putra Gorden;"GH5X+42C, Jl. Lintas Dusun I, Damuli Pekan, Kec. Kualuh Sel., Kabupaten Labuhanbatu Utara, Sumatera Utara 21457";"Jl. Lintas Dusun I, Damuli Pekan, Kec. Kualuh Sel., Kabupaten Labuhanbatu Utara";SUMATERA UTARA;21457;Indonesia;082367436005;;;25.078.234;995.975.125;https://maps.google.com/?cid=0x0:0x2d288204bc7b05de;
hardware store;Toko Bahan Bangunan;Panglong Sabar Jaya;"CQR5+CXF, Unnamed Road, Pangkalan, Aek Natas, North Labuhan Batu Regency, North Sumatra 21455";"Unnamed Road, Pangkalan, Aek Natas, North Labuhan Batu Regency";SUMATERA UTARA;21455;Indonesia;;;;2.441.062;99.759.937;https://maps.google.com/?cid=0x0:0x1abae6aec0fda194;
hardware store;Toko Bahan Bangunan;Sukses Bersama;"7PVX+CM5, Jl. Lintas Sumatra, Pulo Jantan, Kec. Na IX-X, Kabupaten Labuhanbatu Utara, Sumatera Utara";"Kabupaten Labuhanbatu Utara, Sumatera Utara";SUMATERA UTARA;;Indonesia;082365221195;;;22.939.196;997.491.616;https://maps.google.com/?cid=0x0:0x9bf14eb388cffe63;
hardware store;Dealer Motor Bekas;PT. Alfa Scorpii - Aek Kanopan;"Jl. Lintas Sumatra No.17, Ledong Tim., Kec. Aek Ledong, Kabupaten Asahan, Sumatera Utara 21275";"Ledong Tim., Kec. Aek Ledong, Kabupaten Asahan";SUMATERA UTARA;21275;Indonesia;085373392201;;;25.842.194;996.524.938;https://maps.google.com/?cid=0x0:0xb1c0de78838630a8;
hardware store;Toko Bahan Bangunan;PANGLONG SUBUR JAYA;"Jl. Lintas Sumatra No.16, Kp. Yaman, Kec. Aek Natas, Kabupaten Labuhanbatu Utara, Sumatera Utara 21455";"Kp. Yaman, Kec. Aek Natas, Kabupaten Labuhanbatu Utara";SUMATERA UTARA;21455;Indonesia;;;;23.422.867;997.221.916;https://maps.google.com/?cid=0x0:0x6f56956c78b73227;
hardware store;Toko Perlengkapan Rumah;Toko S. Munthe;"7QH6+HP8, Jl. Lintas Sumatra, Aek Kota Batu, Kec. Na IX-X, Kabupaten Labuhanbatu Utara, Sumatera Utara 21452";"Jl. Lintas Sumatra, Aek Kota Batu, Kec. Na IX-X, Kabupaten Labuhanbatu Utara";SUMATERA UTARA;21452;Indonesia;082166908813;;;22.789.153;997.618.383;https://maps.google.com/?cid=0x0:0xf61bdae7e73a4ec8;
hardware store;Toko Ponsel;J.S Cellular;"Jl. Banten, Aek Kanopan, Kec. Aek Ledong, Kabupaten Asahan, Sumatera Utara 21273";"Aek Kanopan, Kec. Aek Ledong, Kabupaten Asahan";SUMATERA UTARA;21273;Indonesia;085270622294;;;25.826.428;996.540.847;https://maps.google.com/?cid=0x0:0x54d137f3a691e6fa;
hardware store;Toko Bahan Bangunan;TB.AR SINAGA;"Jl. Lintas Sumatra No.utara, Kp. Pajak, Kec. Na IX-X, Kabupaten Labuhanbatu Utara, Sumatera Utara 21454";"Kp. Pajak, Kec. Na IX-X, Kabupaten Labuhanbatu Utara";SUMATERA UTARA;21454;Indonesia;;;;23.009.775;997.411.794;https://maps.google.com/?cid=0x0:0xfa76d6cea3084ed4;
hardware store;hardware store;Kec. Kualuh Hulu;"Kabupaten Labuhanbatu Utara, Sumatera Utara";"Kabupaten Labuhanbatu Utara, Sumatera Utara";SUMATERA UTARA;;Indonesia;;;;25.682.041;996.535.274;https://maps.google.com/?cid=0x0:0x4039d80b220f020;
hardware store;Sekolah menengah;SMA Negeri 1 Kualuh Leidong;"QX99+8WM, Tj. Leidong, Kec. Kualuh Leidong, Kabupaten Labuhanbatu Utara, Sumatera Utara 21475";"Tj. Leidong, Kec. Kualuh Leidong, Kabupaten Labuhanbatu Utara";SUMATERA UTARA;21475;Indonesia;;;;27.683.452;99.969.798;https://maps.google.com/?cid=0x0:0x54c07c109d70454;
hardware store;Sekolah Menengah Atas;SMA Negri 1 Kualuh Hilir;"H29P+JC4, pasar bilah, Sungai Sentang, Kec. Kualuh Hilir, Kabupaten Labuhanbatu Utara, Sumatera Utara 21474";"pasar bilah, Sungai Sentang, Kec. Kualuh Hilir, Kabupaten Labuhanbatu Utara";SUMATERA UTARA;21474;Indonesia;;;;25.690.088;1.000.360.922;https://maps.google.com/?cid=0x0:0x9c7568b7ef52106a;
hardware store;hardware store;Sumatera Utara 21457;"Kec. Kualuh Sel., Kabupaten Labuhanbatu Utara, Sumatera Utara";"Kabupaten Labuhanbatu Utara, Sumatera Utara";SUMATERA UTARA;;Indonesia;;;;24.644.513;996.786.894;https://maps.google.com/?cid=0x0:0xbeeda126e9c5dc9c;
hardware store;Toko Bahan Bangunan;Toko Baru;"Jl. Jenderal Sudirman No.26, Aek Kanopan Tim., Kec. Kualuh Hulu, Kabupaten Labuhanbatu Utara, Sumatera Utara 21454";"Aek Kanopan Tim., Kec. Kualuh Hulu, Kabupaten Labuhanbatu Utara";SUMATERA UTARA;21454;Indonesia;085261388838;;;25.675.378;996.540.722;https://maps.google.com/?cid=0x0:0x3013c9afdd5d5fa3;
hardware store;Toko Bahan Bangunan;UD Mekar Sari;"HR6X+P92, Unnamed Road, Sonomartani, Kec. Kualuh Hulu, Kabupaten Labuhanbatu Utara, Sumatera Utara 21475";"Unnamed Road, Sonomartani, Kec. Kualuh Hulu, Kabupaten Labuhanbatu Utara";SUMATERA UTARA;21475;Indonesia;;;;25.617.708;998.483.912;https://maps.google.com/?cid=0x0:0xa299b0bf14a7403b;
hardware store;;Toko Pasrah;"Asian Highway No.25, West Ledong, Aek Ledong, Asahan Regency, North Sumatra 21273";"West Ledong, Aek Ledong, Asahan Regency";SUMATERA UTARA;21273;Indonesia;;;;25.818.788;996.528.053;https://maps.google.com/?cid=0x0:0x3bc12cbf62111ff4;
hardware store;Toko Bahan Bangunan;Tb. Lucky star;"Jl. Jenderal Sudirman No.64, Bunut, Kec. Kualuh Hulu, Kabupaten Asahan, Sumatera Utara 21273";"Bunut, Kec. Kualuh Hulu, Kabupaten Asahan";SUMATERA UTARA;21273;Indonesia;;;;25.692.048;996.534.152;https://maps.google.com/?cid=0x0:0xdc1bcc11a9b589fb;
hardware store;Toko Bahan Bangunan;Sukses Bersama;"7PVX+CM5, Jl. Lintas Sumatra, Pulo Jantan, Kec. Na IX-X, Kabupaten Labuhanbatu Utara, Sumatera Utara";"Kabupaten Labuhanbatu Utara, Sumatera Utara";SUMATERA UTARA;;Indonesia;082365221195;;;22.939.196;997.491.616;https://maps.google.com/?cid=0x0:0x9bf14eb388cffe63;
hardware store;Toko Bahan Bangunan;Panglong Sabar Jaya;"CQR5+CXF, Unnamed Road, Pangkalan, Aek Natas, North Labuhan Batu Regency, North Sumatra 21455";"Unnamed Road, Pangkalan, Aek Natas, North Labuhan Batu Regency";SUMATERA UTARA;21455;Indonesia;;;;2.441.062;99.759.937;https://maps.google.com/?cid=0x0:0x1abae6aec0fda194;
hardware store;Dealer Motor Bekas;PANCA NAGA MANDIRI AEK KANOPAN;"PANCA NAGA MANDIRI, Jl. Jenderal Sudirman No.265-269, Aek Kanopan Tim., Kec. Kualuh Hulu, Kabupaten Labuhanbatu Utara, Sumatera Utara 21457";"Jl. Jenderal Sudirman No.265-269, Aek Kanopan Tim., Kec. Kualuh Hulu, Kabupaten Labuhanbatu Utara";SUMATERA UTARA;21457;Indonesia;082250626474;;;25.751.656;996.527.141;https://maps.google.com/?cid=0x0:0x982ee19e5e4d8e74;
hardware store;;Putra Gorden;"GH5X+42C, Jl. Lintas Dusun I, Damuli Pekan, Kec. Kualuh Sel., Kabupaten Labuhanbatu Utara, Sumatera Utara 21457";"Jl. Lintas Dusun I, Damuli Pekan, Kec. Kualuh Sel., Kabupaten Labuhanbatu Utara";SUMATERA UTARA;21457;Indonesia;082367436005;;;25.078.234;995.975.125;https://maps.google.com/?cid=0x0:0x2d288204bc7b05de;
hardware store;Toko Perlengkapan Rumah;Home Shop NURANI;"Jl. Nusa Indah pulo tarutung 1, Aek Kanopan, Kec. Kualuh Hulu, Kabupaten Labuhanbatu Utara, Sumatera Utara 21273";"Aek Kanopan, Kec. Kualuh Hulu, Kabupaten Labuhanbatu Utara";SUMATERA UTARA;21273;Indonesia;;;;25.734.584;996.425.727;https://maps.google.com/?cid=0x0:0x3f0847df4a045ba8;
hardware store;Toko Alat-Alat;Putra Makita;"Jl. Lintas Sumatra No.9, Pulo Jantan, Kec. Na IX-X, Kabupaten Labuhanbatu Utara, Sumatera Utara 21455";"Pulo Jantan, Kec. Na IX-X, Kabupaten Labuhanbatu Utara";SUMATERA UTARA;21455;Indonesia;;;;22.967.877;997.447.643;https://maps.google.com/?cid=0x0:0x2cf6848a886da12c;
hardware store;Bank;Agen Brilink Julmukabbah Hsb / UCOK LEO;"Jl. Besar Rintis, Ujung Padang, Kec. Aek Natas, Kabupaten Labuhanbatu Utara, Sumatera Utara 21455";"Ujung Padang, Kec. Aek Natas, Kabupaten Labuhanbatu Utara";SUMATERA UTARA;21455;Indonesia;;;;2.436.052;997.654.147;https://maps.google.com/?cid=0x0:0xfcc4637103ea7b67;
hardware store;Toko Bahan Bangunan;TB.AR SINAGA;"Jl. Lintas Sumatra No.utara, Kp. Pajak, Kec. Na IX-X, Kabupaten Labuhanbatu Utara, Sumatera Utara 21454";"Kp. Pajak, Kec. Na IX-X, Kabupaten Labuhanbatu Utara";SUMATERA UTARA;21454;Indonesia;;;;23.009.775;997.411.794;https://maps.google.com/?cid=0x0:0xfa76d6cea3084ed4;
hardware store;Toko Perlengkapan Rumah;MR.DIY;"Jl. Lintas Sumatra No.16, Aek Kanopan Tim., Kec. Kualuh Hulu, Kabupaten Asahan, Sumatera Utara 21273";"Aek Kanopan Tim., Kec. Kualuh Hulu, Kabupaten Asahan";SUMATERA UTARA;21273;Indonesia;;;;25.824.093;996.527.535;https://maps.google.com/?cid=0x0:0x1a3860b2c869ec62;
hardware store;Toko Bahan Bangunan;PANGLONG SUBUR JAYA;"Jl. Lintas Sumatra No.16, Kp. Yaman, Kec. Aek Natas, Kabupaten Labuhanbatu Utara, Sumatera Utara 21455";"Kp. Yaman, Kec. Aek Natas, Kabupaten Labuhanbatu Utara";SUMATERA UTARA;21455;Indonesia;;;;23.422.867;997.221.916;https://maps.google.com/?cid=0x0:0x6f56956c78b73227;
hardware store;Toko Ponsel;J.S Cellular;"Jl. Banten, Aek Kanopan, Kec. Aek Ledong, Kabupaten Asahan, Sumatera Utara 21273";"Aek Kanopan, Kec. Aek Ledong, Kabupaten Asahan";SUMATERA UTARA;21273;Indonesia;085270622294;;;25.826.428;996.540.847;https://maps.google.com/?cid=0x0:0x54d137f3a691e6fa;
hardware store;Dealer Motor Bekas;PT. Alfa Scorpii - Aek Kanopan;"Jl. Lintas Sumatra No.17, Ledong Tim., Kec. Aek Ledong, Kabupaten Asahan, Sumatera Utara 21275";"Ledong Tim., Kec. Aek Ledong, Kabupaten Asahan";SUMATERA UTARA;21275;Indonesia;085373392201;;;25.842.194;996.524.938;https://maps.google.com/?cid=0x0:0xb1c0de78838630a8;
hardware store;Toko Bahan Bangunan;SAHABAT MARBAU SEJAHTERA;"7Q6C+FG4, Desa, Simpang Empat, Kec. Na IX-X, Kabupaten Labuhanbatu Utara, Sumatera Utara 21454";"Desa, Simpang Empat, Kec. Na IX-X, Kabupaten Labuhanbatu Utara";SUMATERA UTARA;21454;Indonesia;085360246400;;;22.611.467;997.713.362;https://maps.google.com/?cid=0x0:0xe3b979b19446e89c;
hardware store;Toko Bahan Bangunan;TANJUNG JAYA;"Simpang 4 Inpres T.1000, Jl. Besar Marbau Sel., Marbau, Kec. Marbau, Kabupaten Labuhanbatu Utara, Sumatera Utara 21452";"Jl. Besar Marbau Sel., Marbau, Kec. Marbau, Kabupaten Labuhanbatu Utara";SUMATERA UTARA;21452;Indonesia;;;;22.300.117;998.306.876;https://maps.google.com/?cid=0x0:0xce313d3400fa0f64;
hardware store;Toko Alat-Alat;Putra Makita;"Jl. Lintas Sumatra No.9, Pulo Jantan, Kec. Na IX-X, Kabupaten Labuhanbatu Utara, Sumatera Utara 21455";"Pulo Jantan, Kec. Na IX-X, Kabupaten Labuhanbatu Utara";SUMATERA UTARA;21455;Indonesia;;;;22.967.877;997.447.643;https://maps.google.com/?cid=0x0:0x2cf6848a886da12c;
hardware store;hardware store;Sumatera Utara 21454;"Kec. Na IX-X, Kabupaten Labuhanbatu Utara, Sumatera Utara";"Kabupaten Labuhanbatu Utara, Sumatera Utara";SUMATERA UTARA;;Indonesia;;;;21.532.664;996.786.894;https://maps.google.com/?cid=0x0:0xa1d048494249269a;
hardware store;Toko Bahan Bangunan;Sukses Bersama;"7PVX+CM5, Jl. Lintas Sumatra, Pulo Jantan, Kec. Na IX-X, Kabupaten Labuhanbatu Utara, Sumatera Utara";"Kabupaten Labuhanbatu Utara, Sumatera Utara";SUMATERA UTARA;;Indonesia;082365221195;;;22.939.196;997.491.616;https://maps.google.com/?cid=0x0:0x9bf14eb388cffe63;
hardware store;Toko Bahan Bangunan;TB.AR SINAGA;"Jl. Lintas Sumatra No.utara, Kp. Pajak, Kec. Na IX-X, Kabupaten Labuhanbatu Utara, Sumatera Utara 21454";"Kp. Pajak, Kec. Na IX-X, Kabupaten Labuhanbatu Utara";SUMATERA UTARA;21454;Indonesia;;;;23.009.775;997.411.794;https://maps.google.com/?cid=0x0:0xfa76d6cea3084ed4;
hardware store;Toko Perlengkapan Rumah;Toko S. Munthe;"7QH6+HP8, Jl. Lintas Sumatra, Aek Kota Batu, Kec. Na IX-X, Kabupaten Labuhanbatu Utara, Sumatera Utara 21452";"Jl. Lintas Sumatra, Aek Kota Batu, Kec. Na IX-X, Kabupaten Labuhanbatu Utara";SUMATERA UTARA;21452;Indonesia;082166908813;;;22.789.153;997.618.383;https://maps.google.com/?cid=0x0:0xf61bdae7e73a4ec8;
hardware store;Toko Bahan Bangunan;Asia Maju;"3VM2+WFJ, Jl. SM. Raja, Bakaran Batu, Kec. Rantau Sel., Kab. Labuhanbatu, Sumatera Utara 21418";"Jl. SM. Raja, Bakaran Batu, Kec. Rantau Sel., Kab. Labuhanbatu";SUMATERA UTARA;21418;Indonesia;082162913486;;;20.848.478;998.511.295;https://maps.google.com/?cid=0x0:0x72b1c232dc79ac2f;
hardware store;Toko Bahan Bangunan;Cahaya Baru Bangunan;"Jl. Kualuh No.19, Kartini, Kec. Rantau Utara, Kab. Labuhanbatu, Sumatera Utara 21412";"Kartini, Kec. Rantau Utara, Kab. Labuhanbatu";SUMATERA UTARA;21412;Indonesia;083177680118;;;20.985.605;998.306.258;https://maps.google.com/?cid=0x0:0x669369efb561664c;
hardware store;Toko Bahan Bangunan;Home Smart Rantauprapat;"Jl. SM. Raja No.63, Bakaran Batu, Kec. Rantau Sel., Kab. Labuhanbatu, Sumatera Utara 21421";"Bakaran Batu, Kec. Rantau Sel., Kab. Labuhanbatu";SUMATERA UTARA;21421;Indonesia;081540951635;;;20.892.817;998.462.142;https://maps.google.com/?cid=0x0:0x7276b2ff8eeffdec;
hardware store;Toko;MR.DIY;"Jl. Jend. Ahmad Yani No.46, Kartini, Kec. Rantau Utara, Kab. Labuhanbatu, Sumatera Utara 21411";"Kartini, Kec. Rantau Utara, Kab. Labuhanbatu";SUMATERA UTARA;21411;Indonesia;083876691970;;;21.001.436;998.303.802;https://maps.google.com/?cid=0x0:0x9d8e5a26006826d3;
hardware store;Toko Bahan Bangunan;Usaha Adek;"2VQG+H2J, JL Besar Tanjung Siram, Sigambal, Rantau Selatan, Rantauprapat, Kec. Bilah Hulu, Kab. Labuhanbatu, Sumatera Utara 21425";"JL Besar Tanjung Siram, Sigambal, Rantau Selatan, Rantauprapat, Kec. Bilah Hulu, Kab. Labuhanbatu";SUMATERA UTARA;21425;Indonesia;062423373;;;20.389.714;998.750.074;https://maps.google.com/?cid=0x0:0x5e942f62056f99b0;
hardware store;Toko Bahan Bangunan;TOKO 3464;"Jalan Besar Juhar, Desa No.48, Juhar Ginting, Juhar, Kabupaten Karo, Sumatera Utara 22163";"Desa No.48, Juhar Ginting, Juhar, Kabupaten Karo";SUMATERA UTARA;22163;Indonesia;081269073566;;;21.153.547;995.450.974;https://maps.google.com/?cid=0x0:0x60946127e5877b6e;
hardware store;Toko;MR.DIY;"Suzuya Mall Rantauprapat, Jl. SM. Raja Lt. 3, Bakaran Batu, Kec. Rantau Sel., Kab. Labuhanbatu, Sumatera Utara 21418";"Jl. SM. Raja Lt. 3, Bakaran Batu, Kec. Rantau Sel., Kab. Labuhanbatu";SUMATERA UTARA;21418;Indonesia;02130022789;;;20.821.843;998.521.177;https://maps.google.com/?cid=0x0:0x4b63e1014d98e2ca;
hardware store;hardware store;Fotocopy Yudha;"Lingkungan III, Simpang Panigoran, Kec. Na IX-X, Kabupaten Labuhanbatu Utara, Sumatera Utara 21454";"Simpang Panigoran, Kec. Na IX-X, Kabupaten Labuhanbatu Utara";SUMATERA UTARA;21454;Indonesia;;;;22.812.705;99.760.138;https://maps.google.com/?cid=0x0:0x155c6d97adb1ac95;
hardware store;Toko Bahan Bangunan;PANGLONG SUBUR JAYA;"Jl. Lintas Sumatra No.16, Kp. Yaman, Kec. Aek Natas, Kabupaten Labuhanbatu Utara, Sumatera Utara 21455";"Kp. Yaman, Kec. Aek Natas, Kabupaten Labuhanbatu Utara";SUMATERA UTARA;21455;Indonesia;;;;23.422.867;997.221.916;https://maps.google.com/?cid=0x0:0x6f56956c78b73227;
hardware store;Toko Bahan Bangunan;Benteng Jaya;"Bakaran Batu, Kec. Rantau Sel., Kab. Labuhanbatu, Sumatera Utara";"Kab. Labuhanbatu, Sumatera Utara";SUMATERA UTARA;;Indonesia;;;;20.888.941;998.448.932;https://maps.google.com/?cid=0x0:0xdc3faf8fe386ce04;
hardware store;Toko bahan makanan;TOKO ZET HAA;"Jl. SM. Raja, Bakaran Batu, Kec. Rantau Sel., Kab. Labuhanbatu, Sumatera Utara 21412";"Bakaran Batu, Kec. Rantau Sel., Kab. Labuhanbatu";SUMATERA UTARA;21412;Indonesia;085368857494;;;20.744.758;998.555.486;https://maps.google.com/?cid=0x0:0xd50d08824b12043e;
hardware store;Toko Aksesori Pakaian;Toko pulau indah;"3RPJ+F7Q, Jl. Sirandorung, Padang Bulan, Kec. Rantau Utara, Kab. Labuhanbatu, Sumatera Utara 21411";"Jl. Sirandorung, Padang Bulan, Kec. Rantau Utara, Kab. Labuhanbatu";SUMATERA UTARA;21411;Indonesia;;;;2.086.201;99.830.728;https://maps.google.com/?cid=0x0:0xb71308870245f7bd;
home improvement;home improvement;Kec. Aek Kuo;"Kabupaten Labuhanbatu Utara, Sumatera Utara";"Kabupaten Labuhanbatu Utara, Sumatera Utara";SUMATERA UTARA;;Indonesia;;;;23.161.726;998.203.062;https://maps.google.com/?cid=0x0:0x4039d80b220d250;
home improvement;Toko Ponsel;"UD Masa Baru Service Kampung Pajak , Labura .";"Kp. Pajak, Kec. Na IX-X, Kabupaten Labuhanbatu Utara, Sumatera Utara 21455";"Kec. Na IX-X, Kabupaten Labuhanbatu Utara";SUMATERA UTARA;21455;Indonesia;082297952223;;;23.074.665;99.741.467;https://maps.google.com/?cid=0x0:0x3c3c85626b1d3531;
home improvement;Toko Mebel;Usaha opa Lala (Ponidi strum) anggun mebel;"Jl. Sisingamangaraja, Aek Tapa, Kec. Marbau, Kabupaten Labuhanbatu Utara, Sumatera Utara 21452";"Aek Tapa, Kec. Marbau, Kabupaten Labuhanbatu Utara";SUMATERA UTARA;21452;Indonesia;081362790248;;;22.628.581;997.916.999;https://maps.google.com/?cid=0x0:0x7d6fa47de3d7bc37;
home improvement;home improvement;Sumatera Utara 21474;"Kec. Kualuh Hilir, Kabupaten Labuhanbatu Utara, Sumatera Utara";"Kabupaten Labuhanbatu Utara, Sumatera Utara";SUMATERA UTARA;;Indonesia;;;;25.204.832;1.000.135.929;https://maps.google.com/?cid=0x0:0x556108f16bd7ca29;
home improvement;Perhimpunan Pengembang Perumahan;IBRAHIMKANDAR;"PWMP+28P, Klp. Sebatang, Kec. Kualuh Leidong, Kabupaten Labuhanbatu Utara, Sumatera Utara 21475";"Klp. Sebatang, Kec. Kualuh Leidong, Kabupaten Labuhanbatu Utara";SUMATERA UTARA;21475;Indonesia;;;;27.312.978;999.379.421;https://maps.google.com/?cid=0x0:0x9c6bd351a671f67b;
home improvement;Pertanian;Maruli group;"H3F7+99, Kp. Mesjid, Kec. Kualuh Hilir, Kabupaten Labuhanbatu Utara, Sumatera Utara 21473";"Kp. Mesjid, Kec. Kualuh Hilir, Kabupaten Labuhanbatu Utara";SUMATERA UTARA;21473;Indonesia;082267610832;;;25.734.099;1.000.633.951;https://maps.google.com/?cid=0x0:0x2b8ace5e4527ea6a;
home improvement;Jasa Konstruksi dan Bangunan;Workshop PHLM;"8R8Q+WR3, Sidomulyo, Kec. Aek Kuo, Kabupaten Labuhanbatu Utara, Sumatera Utara 21455";"Sidomulyo, Kec. Aek Kuo, Kabupaten Labuhanbatu Utara";SUMATERA UTARA;21455;Indonesia;;;;23.172.629;998.395.445;https://maps.google.com/?cid=0x0:0xdaeba1bac5ff4ece;
home improvement;Toko Lemari;Putat pasar lima seisentang;"G2C7+5CW, Putat pasar lima sei Sentang, baru, Kec. Kualuh Hilir, Kab. Labuhanbatu, Sumatera Utara";"Kab. Labuhanbatu, Sumatera Utara";SUMATERA UTARA;;Indonesia;;;;25.204.832;1.000.135.929;https://maps.google.com/?cid=0x0:0x31a36a84d547e3c9;
home improvement;Jasa Konstruksi dan Bangunan;UD.VARIL;"924X+3M4, Jl. Sidomulyo II, Perkebunan Negeri Lama, Kec. Bilah Hilir, Kab. Labuhanbatu, Sumatera Utara 21471";"Jl. Sidomulyo II, Perkebunan Negeri Lama, Kec. Bilah Hilir, Kab. Labuhanbatu";SUMATERA UTARA;21471;Indonesia;082249166342;;;23.551.271;1.000.492.128;https://maps.google.com/?cid=0x0:0xfa69ced2c9999af4;
home improvement;Grosir Barang Kelontong;Kedai Kelontong Afan;"MWV2+3HC, Air Hitam, Kec. Kualuh Leidong, Kabupaten Labuhanbatu Utara, Sumatera Utara 21475";"Air Hitam, Kec. Kualuh Leidong, Kabupaten Labuhanbatu Utara";SUMATERA UTARA;21475;Indonesia;;;;2.692.688;999.013.841;https://maps.google.com/?cid=0x0:0x693429aba9273ba4;
home improvement;home improvement;Sumatera Utara 21457;"Kec. Kualuh Sel., Kabupaten Labuhanbatu Utara, Sumatera Utara";"Kabupaten Labuhanbatu Utara, Sumatera Utara";SUMATERA UTARA;;Indonesia;;;;24.644.513;996.786.894;https://maps.google.com/?cid=0x0:0xbeeda126e9c5dc9c;
home improvement;Pusat Perbelanjaan;ASIA BARU;"HMC3+455, Aek Kanopan Tim., Kec. Kualuh Hulu, Kabupaten Labuhanbatu Utara, Sumatera Utara 21273";"Aek Kanopan Tim., Kec. Kualuh Hulu, Kabupaten Labuhanbatu Utara";SUMATERA UTARA;21273;Indonesia;085370011688;;;25.702.709;996.529.954;https://maps.google.com/?cid=0x0:0xfad8e734f4260b83;
home improvement;Toko Bahan Bangunan;Toko Baru;"Jl. Jenderal Sudirman No.26, Aek Kanopan Tim., Kec. Kualuh Hulu, Kabupaten Labuhanbatu Utara, Sumatera Utara 21454";"Aek Kanopan Tim., Kec. Kualuh Hulu, Kabupaten Labuhanbatu Utara";SUMATERA UTARA;21454;Indonesia;085261388838;;;25.675.378;996.540.722;https://maps.google.com/?cid=0x0:0x3013c9afdd5d5fa3;
home improvement;Toko Alat Tulis;Tania_Olshop;"perumahan grand amora, Jl. Simpang Jl. Sukarame, Aek Kanopan, Kec. Aek Ledong, Kabupaten Asahan, Sumatera Utara 21457";"Jl. Simpang Jl. Sukarame, Aek Kanopan, Kec. Aek Ledong, Kabupaten Asahan";SUMATERA UTARA;21457;Indonesia;081263028518;;;25.839.409;996.521.168;https://maps.google.com/?cid=0x0:0x52b3c54a75bbc836;
home improvement;Grosir Barang Kelontong;Kedai Kelontong Afan;"MWV2+3HC, Air Hitam, Kec. Kualuh Leidong, Kabupaten Labuhanbatu Utara, Sumatera Utara 21475";"Air Hitam, Kec. Kualuh Leidong, Kabupaten Labuhanbatu Utara";SUMATERA UTARA;21475;Indonesia;;;;2.692.688;999.013.841;https://maps.google.com/?cid=0x0:0x693429aba9273ba4;
home improvement;home improvement;Kec. Aek Ledong;"Kabupaten Asahan, Sumatera Utara";"Kabupaten Asahan, Sumatera Utara";SUMATERA UTARA;;Indonesia;;;;26.175.209;996.619.484;https://maps.google.com/?cid=0x0:0xc1c99dd1a36fec7c;
home improvement;home improvement;Sumatera Utara 21475;"Kabupaten Labuhanbatu Utara, Sumatera Utara";"Kabupaten Labuhanbatu Utara, Sumatera Utara";SUMATERA UTARA;;Indonesia;;;;26.776.582;999.241.575;https://maps.google.com/?cid=0x0:0x4167985b8fd2cef8;
home improvement;Sekolah menengah;SMA Negeri 1 Kualuh Leidong;"QX99+8WM, Tj. Leidong, Kec. Kualuh Leidong, Kabupaten Labuhanbatu Utara, Sumatera Utara 21475";"Tj. Leidong, Kec. Kualuh Leidong, Kabupaten Labuhanbatu Utara";SUMATERA UTARA;21475;Indonesia;;;;27.683.452;99.969.798;https://maps.google.com/?cid=0x0:0x54c07c109d70454;
home improvement;home improvement;Sumatera Utara 21457;"Kec. Kualuh Sel., Kabupaten Labuhanbatu Utara, Sumatera Utara";"Kabupaten Labuhanbatu Utara, Sumatera Utara";SUMATERA UTARA;;Indonesia;;;;24.644.513;996.786.894;https://maps.google.com/?cid=0x0:0xbeeda126e9c5dc9c;
home improvement;Bengkel AC;CV. Remaja Teknik;"Jl. Ps. III No.12, Sukarame, Kec. Kualuh Hulu, Kabupaten Labuhanbatu Utara, Sumatera Utara 21457";"Sukarame, Kec. Kualuh Hulu, Kabupaten Labuhanbatu Utara";SUMATERA UTARA;21457;Indonesia;082367333536;;;25.722.527;997.277.411;https://maps.google.com/?cid=0x0:0xd882be4a7ee612b0;
home improvement;Pusat Perbelanjaan;ASIA BARU;"HMC3+455, Aek Kanopan Tim., Kec. Kualuh Hulu, Kabupaten Labuhanbatu Utara, Sumatera Utara 21273";"Aek Kanopan Tim., Kec. Kualuh Hulu, Kabupaten Labuhanbatu Utara";SUMATERA UTARA;21273;Indonesia;085370011688;;;25.702.709;996.529.954;https://maps.google.com/?cid=0x0:0xfad8e734f4260b83;
home improvement;Pabrikan mebel;Lilik Panglong dan Meubel;"Jl. Seto No.Lk.4 Wonosari, Aek Kanopan, Kec. Kualuh Hulu, Kabupaten Labuhanbatu Utara, Sumatera Utara 21457";"Aek Kanopan, Kec. Kualuh Hulu, Kabupaten Labuhanbatu Utara";SUMATERA UTARA;21457;Indonesia;;;;25.702.345;996.400.773;https://maps.google.com/?cid=0x0:0x6c0a2a500b20fde6;
home improvement;home improvement;Scaffolding Lift Passenger Lift Material - CV Mulya Perkasa;"Jl. Angkatan No.208, Aek Kanopan, Kec. Kualuh Hulu, Kabupaten Labuhanbatu Utara, Sumatera Utara 21273";"Aek Kanopan, Kec. Kualuh Hulu, Kabupaten Labuhanbatu Utara";SUMATERA UTARA;21273;Indonesia;;;;2.567.416;99.648.903;https://maps.google.com/?cid=0x0:0xc59695aec8d2ac51;
home improvement;Jasa Konstruksi dan Bangunan;Eka;"GJ6F+QQG, Damuli Pekan, Kec. Kualuh Sel., Kabupaten Labuhanbatu Utara, Sumatera Utara 21457";"Damuli Pekan, Kec. Kualuh Sel., Kabupaten Labuhanbatu Utara";SUMATERA UTARA;21457;Indonesia;082274031801;;;2.511.938;99.624.463;https://maps.google.com/?cid=0x0:0x963e58106b5fbd1d;
home improvement;Perumahan;Perumahan Griya Santiara Pertiwi Damuli;"GJ5J+PM8, Damuli Pekan, Kec. Kualuh Sel., Kabupaten Labuhanbatu Utara, Sumatera Utara 21457";"Damuli Pekan, Kec. Kualuh Sel., Kabupaten Labuhanbatu Utara";SUMATERA UTARA;21457;Indonesia;081396179308;;;2.509.284;99.631.718;https://maps.google.com/?cid=0x0:0xb2a9af5e99339ba5;
home improvement;Perusahaan Konstruksi;lias;"HJ88+XXV, Aek Kanopan, Kec. Kualuh Hulu, Kabupaten Labuhanbatu Utara, Sumatera Utara 21273";"Aek Kanopan, Kec. Kualuh Hulu, Kabupaten Labuhanbatu Utara";SUMATERA UTARA;21273;Indonesia;;;;25.674.938;996.174.332;https://maps.google.com/?cid=0x0:0x3740ebbcafe6171e;
home improvement;Toko Bahan Bangunan;Toko Baru;"Jl. Jenderal Sudirman No.26, Aek Kanopan Tim., Kec. Kualuh Hulu, Kabupaten Labuhanbatu Utara, Sumatera Utara 21454";"Aek Kanopan Tim., Kec. Kualuh Hulu, Kabupaten Labuhanbatu Utara";SUMATERA UTARA;21454;Indonesia;085261388838;;;25.675.378;996.540.722;https://maps.google.com/?cid=0x0:0x3013c9afdd5d5fa3;
home improvement;Bangunan Bersejarah;RajaPlafon Labura;"FJQG+XJ5, Jl. Lintas Sumatra, Damuli Pekan, Kec. Kualuh Sel., Kabupaten Labuhanbatu Utara, Sumatera Utara";"Kabupaten Labuhanbatu Utara, Sumatera Utara";SUMATERA UTARA;;Indonesia;;;;24.898.819;996.266.018;https://maps.google.com/?cid=0x0:0xbe1698e10978dd93;
home improvement;Jasa Konstruksi dan Bangunan;Budi las;"FJ2H+4P8, Lobu Huala, Kec. Kualuh Sel., Kabupaten Labuhanbatu Utara, Sumatera Utara 21457";"Lobu Huala, Kec. Kualuh Sel., Kabupaten Labuhanbatu Utara";SUMATERA UTARA;21457;Indonesia;;;;24.502.861;996.294.494;https://maps.google.com/?cid=0x0:0xd73acb848f5fcb6b;
home improvement;Layanan Keamanan;PIAN CCTV;"Jl. Jenderal Sudirman, Aek Kanopan, Kec. Kualuh Hulu, Kabupaten Labuhanbatu Utara, Sumatera Utara 21457";"Aek Kanopan, Kec. Kualuh Hulu, Kabupaten Labuhanbatu Utara";SUMATERA UTARA;21457;Indonesia;082144444235;;;25.756.829;99.652.917;https://maps.google.com/?cid=0x0:0x46896d9bd6f3db73;
home improvement;Jasa Konstruksi dan Bangunan;ucok;"HJ9W+CG6, Aek Kanopan, Kec. Kualuh Hulu, Kabupaten Labuhanbatu Utara, Sumatera Utara 21273";"Aek Kanopan, Kec. Kualuh Hulu, Kabupaten Labuhanbatu Utara";SUMATERA UTARA;21273;Indonesia;081265611216;;;25.685.427;996.462.609;https://maps.google.com/?cid=0x0:0x77f6fda3ec2dd2ce;
home improvement;Jasa Konstruksi dan Bangunan;Workshop PHLM;"8R8Q+WR3, Sidomulyo, Kec. Aek Kuo, Kabupaten Labuhanbatu Utara, Sumatera Utara 21455";"Sidomulyo, Kec. Aek Kuo, Kabupaten Labuhanbatu Utara";SUMATERA UTARA;21455;Indonesia;;;;23.172.629;998.395.445;https://maps.google.com/?cid=0x0:0xdaeba1bac5ff4ece;
home improvement;home improvement;WAHYU PRASASTI;"Jl. Ps. III No.5, Sukarame, Kec. Kualuh Hulu, Kabupaten Labuhanbatu Utara, Sumatera Utara 21457";"Sukarame, Kec. Kualuh Hulu, Kabupaten Labuhanbatu Utara";SUMATERA UTARA;21457;Indonesia;;;;25.752.572;99.727.883;https://maps.google.com/?cid=0x0:0xbf2475c4fc9d146a;
home improvement;Tukang las aluminium;Adi batu angin;"HJ2G+4XG, Parpaudangan, Kec. Kualuh Hulu, Kabupaten Labuhanbatu Utara, Sumatera Utara 21457";"Parpaudangan, Kec. Kualuh Hulu, Kabupaten Labuhanbatu Utara";SUMATERA UTARA;21457;Indonesia;;;;25.503.789;996.275.744;https://maps.google.com/?cid=0x0:0x55f0b476cef15cca;
home improvement;Pembuat Rumah Kayu Log;Mario BOR;"HGGW+8PV, Perkebunan Londut, Kec. Kualuh Hulu, Kabupaten Labuhanbatu Utara, Sumatera Utara 21457";"Perkebunan Londut, Kec. Kualuh Hulu, Kabupaten Labuhanbatu Utara";SUMATERA UTARA;21457;Indonesia;;;;25.757.974;99.546.856;https://maps.google.com/?cid=0x0:0x4575f2680dce6cdb;
home improvement;Tukang Ledeng;Lubis tukang sumurbor;"Aek Kanopan Tim., Kec. Kualuh Hulu, Kabupaten Labuhanbatu Utara, Sumatera Utara 21273";"Kec. Kualuh Hulu, Kabupaten Labuhanbatu Utara";SUMATERA UTARA;21273;Indonesia;;;;2.571.757;996.548.807;https://maps.google.com/?cid=0x0:0x2f3a193ab840d709;
home improvement;Toko;PIAN CCTV;"Jalan Lintas Sumatera Utara - Ledong Barat, Aek Kanopan, Kabupaten Asahan, Sumatera Utara 21457";"Aek Kanopan, Kabupaten Asahan";SUMATERA UTARA;21457;Indonesia;082110001276;;;25.858.353;996.523.994;https://maps.google.com/?cid=0x0:0x2c6a5a74edde050f;
home improvement;Toko Ponsel;"UD Masa Baru Service Kampung Pajak , Labura .";"Kp. Pajak, Kec. Na IX-X, Kabupaten Labuhanbatu Utara, Sumatera Utara 21455";"Kec. Na IX-X, Kabupaten Labuhanbatu Utara";SUMATERA UTARA;21455;Indonesia;082297952223;;;23.074.665;99.741.467;https://maps.google.com/?cid=0x0:0x3c3c85626b1d3531;
home improvement;Toko;Hasan Elektronik;"FJPG+WW7, Perk. Damuli, Kec. Kualuh Sel., Kabupaten Labuhanbatu Utara, Sumatera Utara 21457";"Perk. Damuli, Kec. Kualuh Sel., Kabupaten Labuhanbatu Utara";SUMATERA UTARA;21457;Indonesia;;;;25.099.083;996.360.898;https://maps.google.com/?cid=0x0:0x562f2c8560490f46;
home improvement;Bengkel Elektronik;FUGO SERVIS;"HP66+6CJ, Lingkungan 9 sidodadi BLOK 80, Perkebunan Membang Muda, Kec. Kualuh Hulu, Kabupaten Labuhanbatu Utara, Sumatera Utara 21457";"Lingkungan 9 sidodadi BLOK 80, Perkebunan Membang Muda, Kec. Kualuh Hulu, Kabupaten Labuhanbatu Utara";SUMATERA UTARA;21457;Indonesia;082161963828;;;25.605.875;997.110.156;https://maps.google.com/?cid=0x0:0xd62f9e5ec152f6b0;
home improvement;Toko Alat Tulis;Tania_Olshop;"perumahan grand amora, Jl. Simpang Jl. Sukarame, Aek Kanopan, Kec. Aek Ledong, Kabupaten Asahan, Sumatera Utara 21457";"Jl. Simpang Jl. Sukarame, Aek Kanopan, Kec. Aek Ledong, Kabupaten Asahan";SUMATERA UTARA;21457;Indonesia;081263028518;;;25.839.409;996.521.168;https://maps.google.com/?cid=0x0:0x52b3c54a75bbc836;
home improvement;Grosir Barang Kelontong;Kedai Kelontong Afan;"MWV2+3HC, Air Hitam, Kec. Kualuh Leidong, Kabupaten Labuhanbatu Utara, Sumatera Utara 21475";"Air Hitam, Kec. Kualuh Leidong, Kabupaten Labuhanbatu Utara";SUMATERA UTARA;21475;Indonesia;;;;2.692.688;999.013.841;https://maps.google.com/?cid=0x0:0x693429aba9273ba4;
home improvement;Toko Mebel;Furnitur;"7W23+G39, Jl. Pulo Padang - Marbau, Tubiran, Kec. Marbau, Kabupaten Labuhanbatu Utara, Sumatera Utara 21452";"Jl. Pulo Padang - Marbau, Tubiran, Kec. Marbau, Kabupaten Labuhanbatu Utara";SUMATERA UTARA;21452;Indonesia;;;;2.250.351;99.902.656;https://maps.google.com/?cid=0x0:0x2e8b829b89591f2f;
home improvement;Aksesori Mebel;MARBAU PERABOT;"7R7H+6X4, Jl. Besar, Marbau, Kec. Marbau, Kabupaten Labuhanbatu Utara, Sumatera Utara 21452";"Jl. Besar, Marbau, Kec. Marbau, Kabupaten Labuhanbatu Utara";SUMATERA UTARA;21452;Indonesia;;;;22.630.211;998.299.607;https://maps.google.com/?cid=0x0:0x3f4fe69f132fbdef;
home improvement;Hotel;Nasution;"7RCR+4HC, Lingkungan II, Merbau, Kec. Marbau, Kabupaten Labuhanbatu Utara, Sumatera Utara";"Kabupaten Labuhanbatu Utara, Sumatera Utara";SUMATERA UTARA;;Indonesia;;;;22.703.137;998.413.885;https://maps.google.com/?cid=0x0:0xedfd03faa18373c2;
home improvement;home improvement;Sumatera Utara 21454;"Kec. Na IX-X, Kabupaten Labuhanbatu Utara, Sumatera Utara";"Kabupaten Labuhanbatu Utara, Sumatera Utara";SUMATERA UTARA;;Indonesia;;;;21.532.664;996.786.894;https://maps.google.com/?cid=0x0:0xa1d048494249269a;
home improvement;Toko Ponsel;"UD Masa Baru Service Kampung Pajak , Labura .";"Kp. Pajak, Kec. Na IX-X, Kabupaten Labuhanbatu Utara, Sumatera Utara 21455";"Kec. Na IX-X, Kabupaten Labuhanbatu Utara";SUMATERA UTARA;21455;Indonesia;082297952223;;;23.074.665;99.741.467;https://maps.google.com/?cid=0x0:0x3c3c85626b1d3531;
home improvement;Pengrajin Lemari;Bmw almanium service;"Jl. Suka Bangsa, Simpang Marbau, Kec. Na IX-X, Kabupaten Labuhanbatu Utara, Sumatera Utara 21454";"Simpang Marbau, Kec. Na IX-X, Kabupaten Labuhanbatu Utara";SUMATERA UTARA;21454;Indonesia;082370890886;;;22.451.793;997.666.909;https://maps.google.com/?cid=0x0:0xde8fdf8afc3a7e41;
home improvement;home improvement;Kec. Na IX-X;"Kabupaten Labuhanbatu Utara, Sumatera Utara";"Kabupaten Labuhanbatu Utara, Sumatera Utara";SUMATERA UTARA;;Indonesia;;;;22.624.377;997.697.495;https://maps.google.com/?cid=0x0:0x2781bb78dc209a8d;
home improvement;Toko Mebel;Interrior;"Jl. Besar Jl. Lintas Sumatra, Kp. Pajak, kota raja, Kabupaten Labuhanbatu Utara, Sumatera Utara 21455";"Kp. Pajak, kota raja, Kabupaten Labuhanbatu Utara";SUMATERA UTARA;21455;Indonesia;082285419519;;;22.948.208;99.747.762;https://maps.google.com/?cid=0x0:0x1fd86dab1958e5b5;
home improvement;Toko Mebel;Usaha opa Lala (Ponidi strum) anggun mebel;"Jl. Sisingamangaraja, Aek Tapa, Kec. Marbau, Kabupaten Labuhanbatu Utara, Sumatera Utara 21452";"Aek Tapa, Kec. Marbau, Kabupaten Labuhanbatu Utara";SUMATERA UTARA;21452;Indonesia;081362790248;;;22.628.581;997.916.999;https://maps.google.com/?cid=0x0:0x7d6fa47de3d7bc37;
home improvement;Toko;MR.DIY;"Jl. Jend. Ahmad Yani No.46, Kartini, Kec. Rantau Utara, Kab. Labuhanbatu, Sumatera Utara 21411";"Kartini, Kec. Rantau Utara, Kab. Labuhanbatu";SUMATERA UTARA;21411;Indonesia;083876691970;;;21.001.436;998.303.802;https://maps.google.com/?cid=0x0:0x9d8e5a26006826d3;
home improvement;Perusahaan Konstruksi;PT. REYHAN JAYA MANDIRI;"Jl. Binanga, Kampung Pajak, Kec. Na IX-X, Kabupaten Labuhanbatu Utara, Sumatera Utara 21452";"Kampung Pajak, Kec. Na IX-X, Kabupaten Labuhanbatu Utara";SUMATERA UTARA;21452;Indonesia;081270567343;;;22.961.863;997.393.726;https://maps.google.com/?cid=0x0:0x3e953a3e6a99ebad;
home improvement;home improvement;"em4daOyVL66N4-EPrf-jiQc-,null,null,1,null,""https://www.google.com/maps/preview/place/CV.+AIFAS/@-2.44565,117.8888,3986a,13.1y/datau003d!4m2!3m1!1s0x50466074de2367f:0x2718786570734fe6""";;;SUMATERA UTARA;;Indonesia;085276742727;;;-244.565;1.178.888;https://maps.google.com/?cid=0x0:0x2718786570734fe6;
home improvement;Toko Bahan Bangunan;Usaha Adek;"2VQG+H2J, JL Besar Tanjung Siram, Sigambal, Rantau Selatan, Rantauprapat, Kec. Bilah Hulu, Kab. Labuhanbatu, Sumatera Utara 21425";"JL Besar Tanjung Siram, Sigambal, Rantau Selatan, Rantauprapat, Kec. Bilah Hulu, Kab. Labuhanbatu";SUMATERA UTARA;21425;Indonesia;062423373;;;20.389.714;998.750.074;https://maps.google.com/?cid=0x0:0x5e942f62056f99b0;
home improvement;Kantor Perusahaan;Mas Suryo maju;"4P3X+8P, Aek Buru Sel., Kec. Bilah Bar., Kab. Labuhanbatu, Sumatera Utara";"Kab. Labuhanbatu, Sumatera Utara";SUMATERA UTARA;;Indonesia;;;;21.033.567;997.493.717;https://maps.google.com/?cid=0x0:0x9878033f8dbd8953;
home improvement;Pembangunan Perumahan;Cv. Sibinurang 71;"Perumahan griya mutiara indah No.02 blok F, Rantau prapat, Kec. Rantau Sel., Kab. Labuhanbatu, Sumatera Utara 21412";"Rantau prapat, Kec. Rantau Sel., Kab. Labuhanbatu";SUMATERA UTARA;21412;Indonesia;085261998276;;;20.767.494;998.583.802;https://maps.google.com/?cid=0x0:0x985b01b204375a63;
home improvement;Kantor Perusahaan;PT Karaniya Sukses Bersama;"Kompleks Cahaya Baru Asri, Jl. H. Adam Malik No.36, Rantauprapat, Kec. Rantau Sel., Kab. Labuhanbatu, Sumatera Utara 21412";"Jl. H. Adam Malik No.36, Rantauprapat, Kec. Rantau Sel., Kab. Labuhanbatu";SUMATERA UTARA;21412;Indonesia;082365221195;;;20.799.671;998.366.713;https://maps.google.com/?cid=0x0:0xbf08f8730e40687;
home improvement;Aksesori Mebel;MARBAU PERABOT;"7R7H+6X4, Jl. Besar, Marbau, Kec. Marbau, Kabupaten Labuhanbatu Utara, Sumatera Utara 21452";"Jl. Besar, Marbau, Kec. Marbau, Kabupaten Labuhanbatu Utara";SUMATERA UTARA;21452;Indonesia;;;;22.630.211;998.299.607;https://maps.google.com/?cid=0x0:0x3f4fe69f132fbdef;
home improvement;Toko Perlengkapan Rumah;ALLEGRO INTERIOR  CUSTOM FURNITURE;"Jl. Perumahan Perisai Indah Blok E19, Bakaran Batu, Kec. Rantau Sel., Rantauprapat, Sumatera Utara 21421";"Bakaran Batu, Kec. Rantau Sel., Rantauprapat";SUMATERA UTARA;21421;Indonesia;08116297006;;;2.086.068;99.841.857;https://maps.google.com/?cid=0x0:0xe51d236f5b7f860a;
home improvement;Toko Mebel;yenni bakeware;"Jl.Ksatria Sumber beji b Gg yudha No, RW.8, Rantauprapat, Kec. Rantau Sel., Kab. Labuhanbatu, Sumatera Utara 21415";"RW.8, Rantauprapat, Kec. Rantau Sel., Kab. Labuhanbatu";SUMATERA UTARA;21415;Indonesia;081292888271;;;20.835.837;998.375.458;https://maps.google.com/?cid=0x0:0x13f2cb92f531ec96;
home improvement;Toko;MR.DIY;"Suzuya Mall Rantauprapat, Jl. SM. Raja Lt. 3, Bakaran Batu, Kec. Rantau Sel., Kab. Labuhanbatu, Sumatera Utara 21418";"Jl. SM. Raja Lt. 3, Bakaran Batu, Kec. Rantau Sel., Kab. Labuhanbatu";SUMATERA UTARA;21418;Indonesia;02130022789;;;20.821.843;998.521.177;https://maps.google.com/?cid=0x0:0x4b63e1014d98e2ca;
home improvement;Toko;Istana Jati Jepara SHS;"Jl. Dewi Sartika No.83 A, Rantauprapat, Kec. Rantau Sel., Kab. Labuhanbatu, Sumatera Utara 21419";"Rantauprapat, Kec. Rantau Sel., Kab. Labuhanbatu";SUMATERA UTARA;21419;Indonesia;082162345969;;;20.968.819;998.490.435;https://maps.google.com/?cid=0x0:0xbdfbd724002d9177;
home improvement;Toko Mebel;Toko Bunda Mursida;"JL Sudirman, Labuhanbatu, Pantau Utara, Komplek Pajak Lama Blok A No. 5, Rantauprapat, Kec. Rantau Utara, Kab. Labuhanbatu, Sumatera Utara 21411";"Labuhanbatu, Pantau Utara, Komplek Pajak Lama Blok A No. 5, Rantauprapat, Kec. Rantau Utara, Kab. Labuhanbatu";SUMATERA UTARA;21411;Indonesia;082367401064;;;21.017.562;998.264.556;https://maps.google.com/?cid=0x0:0xfa8af40f04c56183;
home improvement;Toko Perlengkapan Rumah;Gudang bintang terang;"Jl. Durian No.32, Rantauprapat, Kec. Rantau Utara, Kab. Labuhanbatu, Sumatera Utara 21411";"Rantauprapat, Kec. Rantau Utara, Kab. Labuhanbatu";SUMATERA UTARA;21411;Indonesia;;;;20.997.213;998.247.036;https://maps.google.com/?cid=0x0:0x25765e1ea4a38301;
home improvement;home improvement;Taboshu Channel;;;SUMATERA UTARA;;Indonesia;081397223862;;;-244.565;1.178.888;https://maps.google.com/?cid=0x0:0x2d2c4066531f30a7;
home improvement;Toko Jam;Lain lain;"Siringo-Ringo, Kec. Rantau Utara, Kab. Labuhanbatu, Sumatera Utara 21411";"Kec. Rantau Utara, Kab. Labuhanbatu";SUMATERA UTARA;21411;Indonesia;;;;20.945.742;998.192.543;https://maps.google.com/?cid=0x0:0x1b826a1c9fe4b43c;
