Category;Real Category;Business Name;Address;City;State;Postal Code;Country;Phone;Email;Website;Latitude;Longitude;Map Link;Details Link
"supermarket";"Toko Perlengkapan Rumah";"Kedai Ninje/Nahda";"8QPJ+MCC, Purworejo, Kec. Aek Kuo, Kabupaten Labuhanbatu Utara, Sumatera Utara 21455";"Purworejo, Kec. Aek Kuo, Kabupaten Labuhanbatu Utara";"SUMATERA UTARA";"21455";"Indonesia";" 08222136528";"";"";"2.3366876";"99.7810161";"https://maps.google.com/?cid=0x0:0x59f0d62fd9479f97";""
"mall";"mall";"Kec. Aek Kuo";"Kabupaten Labuhanbatu Utara, Sumatera Utara";"Kabupaten Labuhanbatu Utara, Sumatera Utara";"SUMATERA UTARA";"";"Indonesia";"";"";"";"2.3161726";"99.8203062";"https://maps.google.com/?cid=0x0:0x4039d80b220d250";""
"mall";"Pusat Perbelanjaan";"Lestarindo Mart";"CQ2R+QCJ, Bandar Selamat, Kec. Aek Kuo, Kabupaten Labuhanbatu Utara, Sumatera Utara 21455";"Bandar Selamat, Kec. Aek Kuo, Kabupaten Labuhanbatu Utara";"SUMATERA UTARA";"21455";"Indonesia";" 085261977878";"";"";"2.4019623";"99.791001";"https://maps.google.com/?cid=0x0:0x25e437be1dfc061e";""
"mall";"Pusat Perbelanjaan";"Lestari Bersama";"CQ5R+34C, Bandar Selamat, Kec. Aek Kuo, Kabupaten Labuhanbatu Utara, Sumatera Utara 21455";"Bandar Selamat, Kec. Aek Kuo, Kabupaten Labuhanbatu Utara";"SUMATERA UTARA";"21455";"Indonesia";" 085276633500";"";"";"2.4076804";"99.7902607";"https://maps.google.com/?cid=0x0:0x3505c2b66ffb7fd3";""
"mall";"Toko";"Pekan Aek korsik simpang AMD";"8RRM+V3P, Unnamed Road, Purworejo, Kec. Aek Kuo, Kabupaten Labuhanbatu Utara, Sumatera Utara 21455";"Unnamed Road, Purworejo, Kec. Aek Kuo, Kabupaten Labuhanbatu Utara";"SUMATERA UTARA";"21455";"Indonesia";"";"";"";"2.3422065";"99.8327185";"https://maps.google.com/?cid=0x0:0x2fd48e1d8da97eed";""
"mall";"Toko";"Kede wak iyah";"8VHJ+8VC, Unnamed Road, Perk. Padang Halaban, Kec. Aek Kuo, Kabupaten Labuhanbatu Utara, Sumatera Utara 21455";"Unnamed Road, Perk. Padang Halaban, Kec. Aek Kuo, Kabupaten Labuhanbatu Utara";"SUMATERA UTARA";"21455";"Indonesia";"";"";"";"2.3283161";"99.8821278";"https://maps.google.com/?cid=0x0:0x9293a5ade69aa368";""
"mall";"Pusat Perbelanjaan";"ISNA Ponsel";"CQ3R+HG8, Unnamed Road, Bandar Selamat, Kec. Aek Kuo, Kabupaten Labuhanbatu Utara, Sumatera Utara 21455";"Unnamed Road, Bandar Selamat, Kec. Aek Kuo, Kabupaten Labuhanbatu Utara";"SUMATERA UTARA";"21455";"Indonesia";" 082161280059";"";"";"2.4039089";"99.7913386";"https://maps.google.com/?cid=0x0:0x51c86a6deb76ffde";""
"mall";"Toko";"Toko adiblack";"8VH7+7X4, Unnamed Road, Perk. Padang Halaban, Kec. Aek Kuo, Kabupaten Labuhanbatu Utara, Sumatera Utara 21455";"Unnamed Road, Perk. Padang Halaban, Kec. Aek Kuo, Kabupaten Labuhanbatu Utara";"SUMATERA UTARA";"21455";"Indonesia";" 09586658867";"";"";"2.328127";"99.8649622";"https://maps.google.com/?cid=0x0:0x2054b53fa3b9281c";""
"mall";"";"HIFZHI GRAFIKA";"8RVJ+4M2, Dusun I Desa, Aek Korsik, Kec. Aek Kuo, Kabupaten Labuhanbatu Utara, Sumatera Utara 21455";"Dusun I Desa, Aek Korsik, Kec. Aek Kuo, Kabupaten Labuhanbatu Utara";"SUMATERA UTARA";"21455";"Indonesia";" 082167929124";"";"";"2.3427516";"99.8316518";"https://maps.google.com/?cid=0x0:0x11020cd2224a460c";""
"mall";"Toko Ponsel";"Duan Ponsel";"9QG6+RF8, Purworejo, Kec. Aek Kuo, Kabupaten Labuhanbatu Utara, Sumatera Utara 21455";"Purworejo, Kec. Aek Kuo, Kabupaten Labuhanbatu Utara";"SUMATERA UTARA";"21455";"Indonesia";" 081260193199";"";"";"2.3770314";"99.7612104";"https://maps.google.com/?cid=0x0:0x3d440b5b68db8420";""
"mall";"Toko umum";"Mora Camp Store";"8PRG+P8C, Pangkalan, Kec. Aek Natas, Kabupaten Labuhanbatu Utara, Sumatera Utara 21455";"Pangkalan, Kec. Aek Natas, Kabupaten Labuhanbatu Utara";"SUMATERA UTARA";"21455";"Indonesia";"";"";"";"2.3418104";"99.725766";"https://maps.google.com/?cid=0x0:0xde3a5202b6c98c6f";""
"mall";"Pembangunan Perumahan";"Pekan Aek Hitetoras";"8V4F+RJ7, Aek Hitetoras, Kec. Marbau, Kabupaten Labuhanbatu Utara, Sumatera Utara 21455";"Aek Hitetoras, Kec. Marbau, Kabupaten Labuhanbatu Utara";"SUMATERA UTARA";"21455";"Indonesia";"";"";"";"2.3070464";"99.8740375";"https://maps.google.com/?cid=0x0:0x15a34344395dd2b8";""
"mall";"Toko";"Syaiful Ponsel";"CQP8+C5G, Ujung Padang, Kec. Aek Natas, Kabupaten Labuhanbatu Utara, Sumatera Utara 21455";"Ujung Padang, Kec. Aek Natas, Kabupaten Labuhanbatu Utara";"SUMATERA UTARA";"21455";"Indonesia";" 085358025800";"";"";"2.4360679";"99.7654483";"https://maps.google.com/?cid=0x0:0xf54e84551b66402c";""
"mall";"Pusat Perbelanjaan";"Warung Anna";"8QC9+CQG, Padang Maninjau, Kec. Aek Kuo, Kabupaten Labuhanbatu Utara, Sumatera Utara 21455";"Padang Maninjau, Kec. Aek Kuo, Kabupaten Labuhanbatu Utara";"SUMATERA UTARA";"21455";"Indonesia";"";"";"";"2.3210592";"99.7694649";"https://maps.google.com/?cid=0x0:0x935d58d8c1975928";""
"mall";"Toko Ponsel";"Nuri Phone Cell";"8P5W+QG4, Padang Maninjau, Kec. Aek Kuo, Kabupaten Labuhanbatu Utara, Sumatera Utara 21455";"Padang Maninjau, Kec. Aek Kuo, Kabupaten Labuhanbatu Utara";"SUMATERA UTARA";"21455";"Indonesia";" 082165819636";"";"";"2.3093777";"99.7463372";"https://maps.google.com/?cid=0x0:0xff74d9a162712c5a";""
"mall";"Pusat Perbelanjaan";"Warung Juntak";"8QC9+CQP, Padang Maninjau, Kec. Aek Kuo, Kabupaten Labuhanbatu Utara, Sumatera Utara 21455";"Padang Maninjau, Kec. Aek Kuo, Kabupaten Labuhanbatu Utara";"SUMATERA UTARA";"21455";"Indonesia";"";"";"";"2.321084";"99.769452";"https://maps.google.com/?cid=0x0:0x63183e0f7135b1ee";""
"mall";"Pusat Perbelanjaan";"UD. NORA";"Unnamed Road, Pangkalan, Kec. Aek Natas, Kabupaten Labuhanbatu Utara, Sumatera Utara 21455";"Pangkalan, Kec. Aek Natas, Kabupaten Labuhanbatu Utara";"SUMATERA UTARA";"21455";"Indonesia";" 081234913700";"";"";"2.4115608";"99.7576682";"https://maps.google.com/?cid=0x0:0x7ad71ab25ff559b1";""
"mall";"Pasar Grosir Sayur";"Pekan aek kota batu";"Aek Kota Batu, Kec. Na IX-X, Kabupaten Labuhanbatu Utara, Sumatera Utara 21454";"Kec. Na IX-X, Kabupaten Labuhanbatu Utara";"SUMATERA UTARA";"21454";"Indonesia";"";"";"";"2.2698713";"99.7621956";"https://maps.google.com/?cid=0x0:0x59496131afd47261";""
"mall";"Toko Elektronik";"Nanda Ponsel";"8V99+CP3, Unnamed Road, Perk. Padang Halaban, Kec. Aek Kuo, Kabupaten Labuhanbatu Utara, Sumatera Utara 21455";"Unnamed Road, Perk. Padang Halaban, Kec. Aek Kuo, Kabupaten Labuhanbatu Utara";"SUMATERA UTARA";"21455";"Indonesia";"";"";"";"2.3185171";"99.8692888";"https://maps.google.com/?cid=0x0:0xbf5875970c23e222";""
"mall";"Toko";"KEDAI BUK SRIANA";"8VJ7+5MF, Karang Anyer, Kec. Aek Kuo, Kabupaten Labuhanbatu Utara, Sumatera Utara";"Kabupaten Labuhanbatu Utara, Sumatera Utara";"SUMATERA UTARA";"";"Indonesia";"";"";"";"2.3304312";"99.8641613";"https://maps.google.com/?cid=0x0:0xc32518f3a8aa4d67";""
"mall";"Warnet";"warnet samosir";"Pangkalan, Kabupaten Labuhanbatu Utara, Sumatera Utara 21455, Indonesia Hapoltahan Nauli, Aek Kanopan, Kec. Aek Natas, Kabupaten Labuhanbatu Utara, Sumatera Utara 21456";"Kabupaten Labuhanbatu Utara, Sumatera Utara";"SUMATERA UTARA";"21455";"Indonesia";" 082243458094";"";"";"2.4088836";"99.7531047";"https://maps.google.com/?cid=0x0:0xc9d35cda793c6a2d";""
"mall";"Toko";"UD RAJALI";"8V9F+78J, Dusun VI, Aek Hitetoras, Kec. Marbau, Kabupaten Labuhanbatu Utara, Sumatera Utara 21455";"Dusun VI, Aek Hitetoras, Kec. Marbau, Kabupaten Labuhanbatu Utara";"SUMATERA UTARA";"21455";"Indonesia";" 085371425828";"";"";"2.318222";"99.8732627";"https://maps.google.com/?cid=0x0:0x915f76173acca4ad";""
"mall";"Pusat Perbelanjaan";"Toko NELAYAN";"Jl. Jenderal Sudirman No.89, Purworejo, Kec. Aek Kuo, Kabupaten Labuhanbatu Utara, Sumatera Utara 21273";"Purworejo, Kec. Aek Kuo, Kabupaten Labuhanbatu Utara";"SUMATERA UTARA";"21273";"Indonesia";" 081370388331";"";"";"2.3465637";"99.8124935";"https://maps.google.com/?cid=0x0:0xddde6187bcf33103";""
"mall";"mall";"Sumatera Utara 21455";"Kabupaten Labuhanbatu Utara, Sumatera Utara";"Kabupaten Labuhanbatu Utara, Sumatera Utara";"SUMATERA UTARA";"";"Indonesia";"";"";"";"2.1543963";"99.5006143";"https://maps.google.com/?cid=0x0:0x391266e2c2e7c92";""
"mall";"Polisi Sipil";"Polsek BANDAR DURIAN Aek NATAS";"8PWC+CFH, Kp. Yaman, Kec. Aek Natas, Kabupaten Labuhanbatu Utara, Sumatera Utara 21455";"Kp. Yaman, Kec. Aek Natas, Kabupaten Labuhanbatu Utara";"SUMATERA UTARA";"21455";"Indonesia";"";"";"";"2.3460581";"99.7212344";"https://maps.google.com/?cid=0x0:0x45a4aa5f3f7dbbe3";""
"mall";"Toko umum";"Mora Camp Store";"8PRG+P8C, Pangkalan, Kec. Aek Natas, Kabupaten Labuhanbatu Utara, Sumatera Utara 21455";"Pangkalan, Kec. Aek Natas, Kabupaten Labuhanbatu Utara";"SUMATERA UTARA";"21455";"Indonesia";"";"";"";"2.3418104";"99.725766";"https://maps.google.com/?cid=0x0:0xde3a5202b6c98c6f";""
"mall";"Pusat Perbelanjaan";"UD. NORA";"Unnamed Road, Pangkalan, Kec. Aek Natas, Kabupaten Labuhanbatu Utara, Sumatera Utara 21455";"Pangkalan, Kec. Aek Natas, Kabupaten Labuhanbatu Utara";"SUMATERA UTARA";"21455";"Indonesia";" 081234913700";"";"";"2.4115608";"99.7576682";"https://maps.google.com/?cid=0x0:0x7ad71ab25ff559b1";""
"mall";"Toko";"Syaiful Ponsel";"CQP8+C5G, Ujung Padang, Kec. Aek Natas, Kabupaten Labuhanbatu Utara, Sumatera Utara 21455";"Ujung Padang, Kec. Aek Natas, Kabupaten Labuhanbatu Utara";"SUMATERA UTARA";"21455";"Indonesia";" 085358025800";"";"";"2.4360679";"99.7654483";"https://maps.google.com/?cid=0x0:0xf54e84551b66402c";""
"mall";"Pasar Grosir Sayur";"Pekan aek kota batu";"Aek Kota Batu, Kec. Na IX-X, Kabupaten Labuhanbatu Utara, Sumatera Utara 21454";"Kec. Na IX-X, Kabupaten Labuhanbatu Utara";"SUMATERA UTARA";"21454";"Indonesia";"";"";"";"2.2698713";"99.7621956";"https://maps.google.com/?cid=0x0:0x59496131afd47261";""
"mall";"Kantor Pemerintahan Regional";"Pekan Desa Adian Torop";"CPPV+V46, Adian Torop, Kec. Aek Natas, Kabupaten Labuhanbatu Utara, Sumatera Utara 21455";"Adian Torop, Kec. Aek Natas, Kabupaten Labuhanbatu Utara";"SUMATERA UTARA";"21455";"Indonesia";"";"";"";"2.4371582";"99.7427775";"https://maps.google.com/?cid=0x0:0x35edeaa4625c1d86";""
"mall";"Warnet";"warnet samosir";"Pangkalan, Kabupaten Labuhanbatu Utara, Sumatera Utara 21455, Indonesia Hapoltahan Nauli, Aek Kanopan, Kec. Aek Natas, Kabupaten Labuhanbatu Utara, Sumatera Utara 21456";"Kabupaten Labuhanbatu Utara, Sumatera Utara";"SUMATERA UTARA";"21455";"Indonesia";" 082243458094";"";"";"2.4088836";"99.7531047";"https://maps.google.com/?cid=0x0:0xc9d35cda793c6a2d";""
"mall";"Kantor Perusahaan";"AGIAN FHOTO";"CM9M+57W, Jalan Lintas Sumatera, Desa Terang Bulan, Aek Natas, Bandar Durian, Kec. Aek Natas, Kabupaten Labuhanbatu Utara, Sumatera Utara 21457";"Jalan Lintas Sumatera, Desa Terang Bulan, Aek Natas, Bandar Durian, Kec. Aek Natas, Kabupaten Labuhanbatu Utara";"SUMATERA UTARA";"21457";"Indonesia";" 082367433169";"";"";"2.4179864";"99.6831906";"https://maps.google.com/?cid=0x0:0x9563de7ce213ab39";""
"mall";"Bengkel Sepeda Motor";"BENGKEL LAS";"9MWX+VHV, Bandar Durian, Kec. Aek Natas, Kabupaten Labuhanbatu Utara, Sumatera Utara 21455";"Bandar Durian, Kec. Aek Natas, Kabupaten Labuhanbatu Utara";"SUMATERA UTARA";"21455";"Indonesia";"";"";"";"2.397229";"99.6989144";"https://maps.google.com/?cid=0x0:0x83dd07f05a832d6f";""
"mall";"Toko Ponsel";"Duan Ponsel";"9QG6+RF8, Purworejo, Kec. Aek Kuo, Kabupaten Labuhanbatu Utara, Sumatera Utara 21455";"Purworejo, Kec. Aek Kuo, Kabupaten Labuhanbatu Utara";"SUMATERA UTARA";"21455";"Indonesia";" 081260193199";"";"";"2.3770314";"99.7612104";"https://maps.google.com/?cid=0x0:0x3d440b5b68db8420";""
"mall";"";"HIFZHI GRAFIKA";"8RVJ+4M2, Dusun I Desa, Aek Korsik, Kec. Aek Kuo, Kabupaten Labuhanbatu Utara, Sumatera Utara 21455";"Dusun I Desa, Aek Korsik, Kec. Aek Kuo, Kabupaten Labuhanbatu Utara";"SUMATERA UTARA";"21455";"Indonesia";" 082167929124";"";"";"2.3427516";"99.8316518";"https://maps.google.com/?cid=0x0:0x11020cd2224a460c";""
"mall";"Pusat Perbelanjaan";"Suzuya Mall Rantau Prapat";"Jl. SM. Raja, Bakaran Batu, Kec. Rantau Sel., Kab. Labuhanbatu, Sumatera Utara 21418";"Bakaran Batu, Kec. Rantau Sel., Kab. Labuhanbatu";"SUMATERA UTARA";"21418";"Indonesia";"";"";"";"2.0821821";"99.8521185";"https://maps.google.com/?cid=0x0:0x2ae73160b301c509";""
"mall";"Toko";"Toko Irsyad";"7M83+7RF, Meranti Omas, Kec. Na IX-X, Kabupaten Labuhanbatu Utara, Sumatera Utara 21455";"Meranti Omas, Kec. Na IX-X, Kabupaten Labuhanbatu Utara";"SUMATERA UTARA";"21455";"Indonesia";" 081235009254";"";"";"2.2656821";"99.6545366";"https://maps.google.com/?cid=0x0:0x81a4834fb0796a49";""
"mall";"Pusat Perbelanjaan";"UD. Aldi";"7M84+JG9, Unnamed Road, Meranti Omas, Kec. Na IX-X, Kabupaten Labuhanbatu Utara, Sumatera Utara 21455";"Unnamed Road, Meranti Omas, Kec. Na IX-X, Kabupaten Labuhanbatu Utara";"SUMATERA UTARA";"21455";"Indonesia";" 082364411245";"";"";"2.266527";"99.6563491";"https://maps.google.com/?cid=0x0:0xfbf025f044d9f770";""
"mall";"Minimarket";"Simpang Marbau";"7Q69+XV8, Jl. Lintas Sumatra, Simpang Marbau, Kec. Na IX-X, Kabupaten Labuhanbatu Utara, Sumatera Utara 21454";"Jl. Lintas Sumatra, Simpang Marbau, Kec. Na IX-X, Kabupaten Labuhanbatu Utara";"SUMATERA UTARA";"21454";"Indonesia";"";"";"";"2.2624057";"99.7697032";"https://maps.google.com/?cid=0x0:0x686c7bf7559aa7c4";""
"mall";"Toko";"Pekan Aek korsik simpang AMD";"8RRM+V3P, Unnamed Road, Purworejo, Kec. Aek Kuo, Kabupaten Labuhanbatu Utara, Sumatera Utara 21455";"Unnamed Road, Purworejo, Kec. Aek Kuo, Kabupaten Labuhanbatu Utara";"SUMATERA UTARA";"21455";"Indonesia";"";"";"";"2.3422065";"99.8327185";"https://maps.google.com/?cid=0x0:0x2fd48e1d8da97eed";""
"mall";"Pemasok Produk Promosi";"Creatif Reklame";"8P6P+RC7, Pulo Jantan, Kec. Na IX-X, Kabupaten Labuhanbatu Utara, Sumatera Utara 21455";"Pulo Jantan, Kec. Na IX-X, Kabupaten Labuhanbatu Utara";"SUMATERA UTARA";"21455";"Indonesia";" 082168453624";"";"";"2.3120256";"99.7360384";"https://maps.google.com/?cid=0x0:0x342a3cda54aa94a6";""
"mall";"Pusat Perbelanjaan";"Warung Anna";"8QC9+CQG, Padang Maninjau, Kec. Aek Kuo, Kabupaten Labuhanbatu Utara, Sumatera Utara 21455";"Padang Maninjau, Kec. Aek Kuo, Kabupaten Labuhanbatu Utara";"SUMATERA UTARA";"21455";"Indonesia";"";"";"";"2.3210592";"99.7694649";"https://maps.google.com/?cid=0x0:0x935d58d8c1975928";""
"mall";"Toko Swalayan";"Alfamidi Simpang Marbau";"7Q79+9GW, Kp. Pajak, Kec. Na IX-X, Kabupaten Labuhanbatu Utara, Sumatera Utara 21452";"Kp. Pajak, Kec. Na IX-X, Kabupaten Labuhanbatu Utara";"SUMATERA UTARA";"21452";"Indonesia";"";"";"";"2.2634835";"99.7688143";"https://maps.google.com/?cid=0x0:0xb2f77d09e8afb65c";""
"mall";"mall";"Kec. Aek Natas";"Kabupaten Labuhanbatu Utara, Sumatera Utara";"Kabupaten Labuhanbatu Utara, Sumatera Utara";"SUMATERA UTARA";"";"Indonesia";"";"";"";"2.3459816";"99.7209993";"https://maps.google.com/?cid=0x0:0xd7db60ca7133d417";""
"mall";"Pusat Perbelanjaan";"Lestarindo Mart";"CQ2R+QCJ, Bandar Selamat, Kec. Aek Kuo, Kabupaten Labuhanbatu Utara, Sumatera Utara 21455";"Bandar Selamat, Kec. Aek Kuo, Kabupaten Labuhanbatu Utara";"SUMATERA UTARA";"21455";"Indonesia";" 085261977878";"";"";"2.4019623";"99.791001";"https://maps.google.com/?cid=0x0:0x25e437be1dfc061e";""
"mall";"Pusat Perbelanjaan";"Lestari Bersama";"CQ5R+34C, Bandar Selamat, Kec. Aek Kuo, Kabupaten Labuhanbatu Utara, Sumatera Utara 21455";"Bandar Selamat, Kec. Aek Kuo, Kabupaten Labuhanbatu Utara";"SUMATERA UTARA";"21455";"Indonesia";" 085276633500";"";"";"2.4076804";"99.7902607";"https://maps.google.com/?cid=0x0:0x3505c2b66ffb7fd3";""
"mall";"Pusat Perbelanjaan";"Warung Juntak";"8QC9+CQP, Padang Maninjau, Kec. Aek Kuo, Kabupaten Labuhanbatu Utara, Sumatera Utara 21455";"Padang Maninjau, Kec. Aek Kuo, Kabupaten Labuhanbatu Utara";"SUMATERA UTARA";"21455";"Indonesia";"";"";"";"2.321084";"99.769452";"https://maps.google.com/?cid=0x0:0x63183e0f7135b1ee";""
"mall";"Pusat Perbelanjaan";"ISNA Ponsel";"CQ3R+HG8, Unnamed Road, Bandar Selamat, Kec. Aek Kuo, Kabupaten Labuhanbatu Utara, Sumatera Utara 21455";"Unnamed Road, Bandar Selamat, Kec. Aek Kuo, Kabupaten Labuhanbatu Utara";"SUMATERA UTARA";"21455";"Indonesia";" 082161280059";"";"";"2.4039089";"99.7913386";"https://maps.google.com/?cid=0x0:0x51c86a6deb76ffde";""
"mall";"Toko Ponsel";"Nuri Phone Cell";"8P5W+QG4, Padang Maninjau, Kec. Aek Kuo, Kabupaten Labuhanbatu Utara, Sumatera Utara 21455";"Padang Maninjau, Kec. Aek Kuo, Kabupaten Labuhanbatu Utara";"SUMATERA UTARA";"21455";"Indonesia";" 082165819636";"";"";"2.3093777";"99.7463372";"https://maps.google.com/?cid=0x0:0xff74d9a162712c5a";""
"mall";"Toko Ponsel";"NEHA CELL 29";"9P29+QJ5, Bandar Durian, Kec. Aek Natas, Kabupaten Labuhanbatu Utara, Sumatera Utara 21455";"Bandar Durian, Kec. Aek Natas, Kabupaten Labuhanbatu Utara";"SUMATERA UTARA";"21455";"Indonesia";" 085277878386";"";"";"2.3518981";"99.7191225";"https://maps.google.com/?cid=0x0:0x35a5e98a033c151e";""
"mall";"mall";"Sumatera Utara 21474";"Kec. Kualuh Hilir, Kabupaten Labuhanbatu Utara, Sumatera Utara";"Kabupaten Labuhanbatu Utara, Sumatera Utara";"SUMATERA UTARA";"";"Indonesia";"";"";"";"2.5204832";"100.0135929";"https://maps.google.com/?cid=0x0:0x556108f16bd7ca29";""
"mall";"Pasar";"Teluk Bayur Kuala Bangka";"GW4P+XHJ, Kuala Bangka, Kec. Kualuh Hilir, Kabupaten Labuhanbatu Utara, Sumatera Utara 21474";"Kuala Bangka, Kec. Kualuh Hilir, Kabupaten Labuhanbatu Utara";"SUMATERA UTARA";"21474";"Indonesia";" 085270728897";"";"";"2.5074596";"99.9363989";"https://maps.google.com/?cid=0x0:0x3c04529af39dd952";""
"mall";"Toko Ponsel";"Berkah Ponsel";"G2GH+Q54, Sungai Sentang, Kec. Kualuh Hilir, Kabupaten Labuhanbatu Utara, Sumatera Utara 21474";"Sungai Sentang, Kec. Kualuh Hilir, Kabupaten Labuhanbatu Utara";"SUMATERA UTARA";"21474";"Indonesia";" 082167118286";"";"";"2.5268865";"100.0279467";"https://maps.google.com/?cid=0x0:0x6be0d5b99cc3e245";""
"mall";"Toko umum";"Zahra saragih";"H326+VWV, Unnamed Road, Sungai Sentang, Kec. Kualuh Hilir, Kabupaten Labuhanbatu Utara, Sumatera Utara 21474";"Unnamed Road, Sungai Sentang, Kec. Kualuh Hilir, Kabupaten Labuhanbatu Utara";"SUMATERA UTARA";"21474";"Indonesia";" 085270312972";"";"";"2.5522293";"100.0623075";"https://maps.google.com/?cid=0x0:0x6aa1b6c5083c2826";""
"mall";"Pusat Perbelanjaan";"Kede khayla";"G2V9+35, Sungai Sentang, Kec. Kualuh Hilir, Kabupaten Labuhanbatu Utara, Sumatera Utara 21474";"Sungai Sentang, Kec. Kualuh Hilir, Kabupaten Labuhanbatu Utara";"SUMATERA UTARA";"21474";"Indonesia";"";"";"";"2.5415311";"100.0187493";"https://maps.google.com/?cid=0x0:0x3bac56922a0fa276";""
"mall";"Pusat Bisnis";"Ponsel cek mu";"H2M7+R6G, Unnamed Road, Sungai Apung, Kec. Kualuh Hilir, Kabupaten Labuhanbatu Utara, Sumatera Utara";"Kabupaten Labuhanbatu Utara, Sumatera Utara";"SUMATERA UTARA";"";"Indonesia";" 082366883988";"";"";"2.5845609";"100.0130861";"https://maps.google.com/?cid=0x0:0x47c8d0aae1f0d965";""
"mall";"Pusat Perbelanjaan";"UD Samudera";"H2P7+9V7, lingkungan ujung tanjung, Kp. Mesjid, Kec. Kualuh Hilir, Kabupaten Labuhanbatu Utara, Sumatera Utara 21474";"lingkungan ujung tanjung, Kp. Mesjid, Kec. Kualuh Hilir, Kabupaten Labuhanbatu Utara";"SUMATERA UTARA";"21474";"Indonesia";" 085361892966";"";"";"2.5859111";"100.0146723";"https://maps.google.com/?cid=0x0:0x2cc390be908532d5";""
"mall";"Pasar";"JP";"P25R+H3, Tj. Mangedar, Kec. Kualuh Hilir, Kabupaten Labuhanbatu Utara, Sumatera Utara";"Kabupaten Labuhanbatu Utara, Sumatera Utara";"SUMATERA UTARA";"";"Indonesia";"";"";"";"2.7089473";"100.0401621";"https://maps.google.com/?cid=0x0:0x559b9d477b2c522e";""
"mall";"Toko Swalayan";"Toko Rafa start";"GX52+42F, Kuala Bangka, Kec. Kualuh Hilir, Kabupaten Labuhanbatu Utara, Sumatera Utara 21474";"Kuala Bangka, Kec. Kualuh Hilir, Kabupaten Labuhanbatu Utara";"SUMATERA UTARA";"21474";"Indonesia";"";"";"";"2.5078098";"99.950051";"https://maps.google.com/?cid=0x0:0x1672bdde8ba5b1ab";""
"mall";"Toko";"Zhena phonsel/toko nelaya";"H2P7+9VG, Lingkungan, ujung tanjung, Kec. Kualuh Hilir, Kabupaten Labuhanbatu Utara, Sumatera Utara";"Kabupaten Labuhanbatu Utara, Sumatera Utara";"SUMATERA UTARA";"";"Indonesia";" 081371013476";"";"";"2.5859396";"100.0146905";"https://maps.google.com/?cid=0x0:0xec74d2b1a3b868f9";""
"mall";"Pusat Perbelanjaan";"UD.BAYU";"G2PC+5X, Sungai Sentang, Kec. Kualuh Hilir, Kabupaten Labuhanbatu Utara, Sumatera Utara 21474";"Sungai Sentang, Kec. Kualuh Hilir, Kabupaten Labuhanbatu Utara";"SUMATERA UTARA";"21474";"Indonesia";"";"";"";"2.5354502";"100.0224787";"https://maps.google.com/?cid=0x0:0xefc9b358ddcb116c";""
"mall";"Toko bahan makanan";"Grosir sembako PTR MJG";"GWJG+23F, Unnamed Road, Tlk. Binjai, Kuala Bangka, Kec. Kualuh Hilir, Kabupaten Labuhanbatu Utara, Sumatera Utara 21474";"Unnamed Road, Tlk. Binjai, Kuala Bangka, Kec. Kualuh Hilir, Kabupaten Labuhanbatu Utara";"SUMATERA UTARA";"21474";"Indonesia";" 081260409161";"";"";"2.5300699";"99.9251842";"https://maps.google.com/?cid=0x0:0xf18246f92ee53d56";""
"mall";"Pusat Perbelanjaan";"Kedai Pak Kujep Meri Berjaya";"H2JC+3QR, Sungai Sentang, Kec. Kualuh Hilir, Kabupaten Labuhanbatu Utara, Sumatera Utara";"Kabupaten Labuhanbatu Utara, Sumatera Utara";"SUMATERA UTARA";"";"Indonesia";" 082363549005";"";"";"2.5802312";"100.0218792";"https://maps.google.com/?cid=0x0:0x4c9a788f412292d8";""
"mall";"Toko";"DTangkahan mangga";"H2P7+C92, Sungai Apung, Kec. Kualuh Hilir, Kabupaten Labuhanbatu Utara, Sumatera Utara";"Kabupaten Labuhanbatu Utara, Sumatera Utara";"SUMATERA UTARA";"";"Indonesia";"";"";"";"2.5860176";"100.0133877";"https://maps.google.com/?cid=0x0:0xb5dddf03f6a1212d";""
"mall";"Toko Perlengkapan Rumah";"Warung abdi";"GWHF+V7M, Unnamed Road, Tlk. Binjai, Kuala Bangka, Kec. Kualuh Hilir, Kabupaten Labuhanbatu Utara, Sumatera Utara 21474";"Unnamed Road, Tlk. Binjai, Kuala Bangka, Kec. Kualuh Hilir, Kabupaten Labuhanbatu Utara";"SUMATERA UTARA";"21474";"Indonesia";" 082165270639";"";"";"2.5297249";"99.9231726";"https://maps.google.com/?cid=0x0:0xf35fb5db0021bb0f";""
"mall";"Pusat Perbelanjaan";"UD DIELBARA";"Dusun Putat Pasar 3, Sungai Sentang, Kec. Kualuh Hilir, Kabupaten Labuhanbatu Utara, Sumatera Utara 21474";"Sungai Sentang, Kec. Kualuh Hilir, Kabupaten Labuhanbatu Utara";"SUMATERA UTARA";"21474";"Indonesia";" 082173736604";"";"";"2.5204832";"100.0135929";"https://maps.google.com/?cid=0x0:0x760f6a1ee21c47a7";""
"mall";"Toko Swalayan";"UD.wandi";"G2JF+JRV, Unnamed Road, Sungai Sentang, Kec. Kualuh Hilir, Kabupaten Labuhanbatu Utara, Sumatera Utara 21474";"Unnamed Road, Sungai Sentang, Kec. Kualuh Hilir, Kabupaten Labuhanbatu Utara";"SUMATERA UTARA";"21474";"Indonesia";" 081376784226";"";"";"2.5316121";"100.0245491";"https://maps.google.com/?cid=0x0:0x11510a3eb645c0e3";""
"mall";"Pusat Perbelanjaan";"Warung Sembako Jhony Situmorang";"GWPJ+6C9, Tlk. Binjai, Kec. Kualuh Hilir, Kabupaten Labuhanbatu Utara, Sumatera Utara 21474";"Tlk. Binjai, Kec. Kualuh Hilir, Kabupaten Labuhanbatu Utara";"SUMATERA UTARA";"21474";"Indonesia";"";"";"";"2.5355419";"99.9310968";"https://maps.google.com/?cid=0x0:0x32804e7fb8713898";""
"mall";"Toko";"Kede Wak Pinto 33";"G2PX+C92, Wonorejo pasar 33, Sungai Sentang, Kec. Kualuh Hilir, Kabupaten Labuhanbatu Utara, Sumatera Utara";"Kabupaten Labuhanbatu Utara, Sumatera Utara";"SUMATERA UTARA";"";"Indonesia";" 085358363108";"";"";"2.536005";"100.0484017";"https://maps.google.com/?cid=0x0:0x87db4351bd6a135b";""
"mall";"Toko umum";"Kedai Tindaon";"FWHJ+45, Kuala Bangka, Kec. Kualuh Hilir, Kabupaten Labuhanbatu Utara, Sumatera Utara";"Kabupaten Labuhanbatu Utara, Sumatera Utara";"SUMATERA UTARA";"";"Indonesia";"";"";"";"2.4777666";"99.9305163";"https://maps.google.com/?cid=0x0:0x8123b98cb97be263";""
"mall";"mall";"Sumatera Utara 21457";"Kec. Kualuh Sel., Kabupaten Labuhanbatu Utara, Sumatera Utara";"Kabupaten Labuhanbatu Utara, Sumatera Utara";"SUMATERA UTARA";"";"Indonesia";"";"";"";"2.4644513";"99.6786894";"https://maps.google.com/?cid=0x0:0xbeeda126e9c5dc9c";""
"mall";"Toko Pakaian Bayi";"VALENCIA  Babyshop";"Jl. Jenderal Sudirman No.75, Aek Kanopan Tim., Kec. Kualuh Hulu, Kabupaten Labuhanbatu Utara, Sumatera Utara 21273";"Aek Kanopan Tim., Kec. Kualuh Hulu, Kabupaten Labuhanbatu Utara";"SUMATERA UTARA";"21273";"Indonesia";"";"";"";"2.5692081";"99.6531512";"https://maps.google.com/?cid=0x0:0x9c07ffc6ee446495";""
"mall";"Toko Perlengkapan Rumah";"ELYAS / AMBARRUKMO";"Aek Kanopan, Kec. Kualuh Hulu, Kabupaten Labuhanbatu Utara, Sumatera Utara 21273";"Kec. Kualuh Hulu, Kabupaten Labuhanbatu Utara";"SUMATERA UTARA";"21273";"Indonesia";" 081284291293";"";"";"2.5685098";"99.6470901";"https://maps.google.com/?cid=0x0:0xb9cb33b8e159b6cd";""
"mall";"Toko";"Mini So";"HMG3+435, Aek Kanopan Tim., Kec. Kualuh Hulu, Kabupaten Labuhanbatu Utara, Sumatera Utara 21273";"Aek Kanopan Tim., Kec. Kualuh Hulu, Kabupaten Labuhanbatu Utara";"SUMATERA UTARA";"21273";"Indonesia";"";"";"";"2.5752601";"99.6527469";"https://maps.google.com/?cid=0x0:0xf97e946717beac5f";""
"mall";"Toko Perkakas";"Istana Kado";"Jl. Jenderal Sudirman No.104, Aek Kanopan Tim., Kec. Kualuh Hulu, Kabupaten Labuhanbatu Utara, Sumatera Utara 21273";"Aek Kanopan Tim., Kec. Kualuh Hulu, Kabupaten Labuhanbatu Utara";"SUMATERA UTARA";"21273";"Indonesia";" 082164524186";"";"";"2.5703348";"99.6532942";"https://maps.google.com/?cid=0x0:0x6373546f9b102d02";""
"mall";"mall";"Timbul Jaya";"HJ9V+94P, Jl. Utama Wonosari, Aek Kanopan, Kec. Kualuh Hulu, Kabupaten Labuhanbatu Utara, Sumatera Utara 21273";"Jl. Utama Wonosari, Aek Kanopan, Kec. Kualuh Hulu, Kabupaten Labuhanbatu Utara";"SUMATERA UTARA";"21273";"Indonesia";"";"";"";"2.5684625";"99.6428346";"https://maps.google.com/?cid=0x0:0xd6d8d3323783343d";""
"mall";"Komplek perumahan";"PEKAN PULO DOGOM";"Pulo Dogom, Kec. Kualuh Hulu, Kabupaten Labuhanbatu Utara, Sumatera Utara 21457";"Kec. Kualuh Hulu, Kabupaten Labuhanbatu Utara";"SUMATERA UTARA";"21457";"Indonesia";"";"";"";"2.5621034";"99.5566641";"https://maps.google.com/?cid=0x0:0x57730cd50ac95601";""
"mall";"Toko";"UD.RAGIL";"HJ8V+WXR, Aek Kanopan, Kec. Kualuh Hulu, Kabupaten Labuhanbatu Utara, Sumatera Utara 21273";"Aek Kanopan, Kec. Kualuh Hulu, Kabupaten Labuhanbatu Utara";"SUMATERA UTARA";"21273";"Indonesia";" 082256089922";"";"";"2.5673717";"99.6448946";"https://maps.google.com/?cid=0x0:0xd198e0671dde2e15";""
"mall";"Toko Pakaian";"Rahmad Pasaribu Store";"Jl. Lintas Sumatra No.16, Damuli Pekan, Kec. Kualuh Sel., Kabupaten Labuhanbatu Utara, Sumatera Utara 21457";"Damuli Pekan, Kec. Kualuh Sel., Kabupaten Labuhanbatu Utara";"SUMATERA UTARA";"21457";"Indonesia";" 085277418596";"";"";"2.5069932";"99.6337246";"https://maps.google.com/?cid=0x0:0xcd7c154ec8f1f7f5";""
"mall";"Toko Perlengkapan Rumah";"MR.DIY";"Jl. Lintas Sumatra No.16, Aek Kanopan Tim., Kec. Kualuh Hulu, Kabupaten Asahan, Sumatera Utara 21273";"Aek Kanopan Tim., Kec. Kualuh Hulu, Kabupaten Asahan";"SUMATERA UTARA";"21273";"Indonesia";"";"";"";"2.5824093";"99.6527535";"https://maps.google.com/?cid=0x0:0x1a3860b2c869ec62";""
"mall";"Toko Suku Cadang Mobil";"Prima Accesories";"HJ8X+QXW, Aek Kanopan Tim., Kec. Kualuh Hulu, Kabupaten Labuhanbatu Utara, Sumatera Utara 21273";"Aek Kanopan Tim., Kec. Kualuh Hulu, Kabupaten Labuhanbatu Utara";"SUMATERA UTARA";"21273";"Indonesia";"";"";"";"2.5669795";"99.6499609";"https://maps.google.com/?cid=0x0:0x3841076f2fc5a692";""
"mall";"Pusat Perbelanjaan";"Annisa Accesories";"Jl. Lintas Sumatra No.199, Aek Kanopan Tim., Kec. Kualuh Hulu, Kabupaten Labuhanbatu Utara, Sumatera Utara 21273";"Aek Kanopan Tim., Kec. Kualuh Hulu, Kabupaten Labuhanbatu Utara";"SUMATERA UTARA";"21273";"Indonesia";" 082369497252";"";"";"2.5722888";"99.6528773";"https://maps.google.com/?cid=0x0:0x94d251ec5a76f8cb";""
"mall";"Toko Suvenir";"TOKO GREEN";"HPHW+9XH, Jl. Abdul Wahid, Sukarame, Kec. Kualuh Hulu, Kabupaten Labuhanbatu Utara, Sumatera Utara 21457";"Jl. Abdul Wahid, Sukarame, Kec. Kualuh Hulu, Kabupaten Labuhanbatu Utara";"SUMATERA UTARA";"21457";"Indonesia";"";"";"";"2.578441";"99.7474765";"https://maps.google.com/?cid=0x0:0x2e83831ffe7ca44b";""
"mall";"Pusat Perbelanjaan";"UD.SUBUR INTANI";"FJGQ+3X2, Gn. Melayu, Kec. Kualuh Sel., Kabupaten Labuhanbatu Utara, Sumatera Utara 21457";"Gn. Melayu, Kec. Kualuh Sel., Kabupaten Labuhanbatu Utara";"SUMATERA UTARA";"21457";"Indonesia";"";"";"";"2.4751418";"99.6398973";"https://maps.google.com/?cid=0x0:0xb63e1d49c43aefcc";""
"mall";"Pusat Perbelanjaan";"JMASTERSEL SHOP";"HM84+F4M, Jl. Lintas Sumatra, Aek Kanopan Tim., Kec. Kualuh Hulu, Kabupaten Labuhanbatu Utara, Sumatera Utara 21273";"Jl. Lintas Sumatra, Aek Kanopan Tim., Kec. Kualuh Hulu, Kabupaten Labuhanbatu Utara";"SUMATERA UTARA";"21273";"Indonesia";" 085372407777";"";"";"2.5662025";"99.6553037";"https://maps.google.com/?cid=0x0:0xb31daf25dd4e0dfa";""
"mall";"Pusat Perbelanjaan";"UD. Alam Raya";"Jl. Lintas Sumatra No.16, Aek Kanopan Tim., Kec. Kualuh Hulu, Kabupaten Asahan, Sumatera Utara 21273";"Aek Kanopan Tim., Kec. Kualuh Hulu, Kabupaten Asahan";"SUMATERA UTARA";"21273";"Indonesia";"";"";"";"2.5795356";"99.6526681";"https://maps.google.com/?cid=0x0:0xc634b9dd752459b6";""
"mall";"Toko bahan makanan";"Kedai mbak ayu";"GJCR+5WP, Sidua Dua, Kec. Kualuh Sel., Kabupaten Labuhanbatu Utara, Sumatera Utara 21457";"Sidua Dua, Kec. Kualuh Sel., Kabupaten Labuhanbatu Utara";"SUMATERA UTARA";"21457";"Indonesia";" 082166525631";"";"";"2.5204623";"99.6423336";"https://maps.google.com/?cid=0x0:0x2b12f519453ee2c8";""
"mall";"Toko Ponsel";"biru ponsel";"HPGQ+M8M, Jl. Abdul Wahid, Sukarame, Kec. Kualuh Hulu, Kabupaten Labuhanbatu Utara, Sumatera Utara 21457";"Jl. Abdul Wahid, Sukarame, Kec. Kualuh Hulu, Kabupaten Labuhanbatu Utara";"SUMATERA UTARA";"21457";"Indonesia";" 085261349797";"";"";"2.5767058";"99.7382883";"https://maps.google.com/?cid=0x0:0x7d3f8bd74a212f80";""
"mall";"Toko Perlengkapan Rumah";"Mulia Jaya Aek Kanopan";"Jl. Jenderal Sudirman No.16, Aek Kanopan Tim., Kec. Kualuh Hulu, Kabupaten Asahan, Sumatera Utara 21273";"Aek Kanopan Tim., Kec. Kualuh Hulu, Kabupaten Asahan";"SUMATERA UTARA";"21273";"Indonesia";" 081399779898";"";"";"2.5786867";"99.6529159";"https://maps.google.com/?cid=0x0:0x5d28bac6b4dcc31e";""
"mall";"Toko Pakaian";"Toko Nova Rcti";"Jalan Mayor Muhammad Siddik, Aek Kanopan, Kec. Kualuh Hulu, Kabupaten Labuhanbatu Utara, Sumatera Utara 21273";"Aek Kanopan, Kec. Kualuh Hulu, Kabupaten Labuhanbatu Utara";"SUMATERA UTARA";"21273";"Indonesia";"";"";"";"2.5671579";"99.6501426";"https://maps.google.com/?cid=0x0:0x5c40a9dd6ca15030";""
"mall";"Pasar";"U.D RIZKY";"HPHM+22G, Jl. Abdul Wahid, Sukarame Baru, Kec. Kualuh Hulu, Kabupaten Labuhanbatu Utara, Sumatera Utara 21457";"Jl. Abdul Wahid, Sukarame Baru, Kec. Kualuh Hulu, Kabupaten Labuhanbatu Utara";"SUMATERA UTARA";"21457";"Indonesia";"";"";"";"2.5775553";"99.732575";"https://maps.google.com/?cid=0x0:0xdc1eb0286c19d6b7";""
"mall";"Toko Pakaian";"SHEINA DATA STORE";"Jl. Utama Wonosari No.176, Aek Kanopan, Kec. Kualuh Hulu, Kabupaten Labuhanbatu Utara, Sumatera Utara 21273";"Aek Kanopan, Kec. Kualuh Hulu, Kabupaten Labuhanbatu Utara";"SUMATERA UTARA";"21273";"Indonesia";" 082272287989";"";"";"2.5683337";"99.6488449";"https://maps.google.com/?cid=0x0:0xd90d67aaf51b366";""
"mall";"Toko Pakan Hewan";"UD PERDANA TANI";"HQJ3+523, Sukarame Baru, Kec. Kualuh Hulu, Kabupaten Labuhanbatu Utara, Sumatera Utara 21457";"Sukarame Baru, Kec. Kualuh Hulu, Kabupaten Labuhanbatu Utara";"SUMATERA UTARA";"21457";"Indonesia";"";"";"";"2.5803825";"99.7525429";"https://maps.google.com/?cid=0x0:0x324929b55a03d3fd";""
"mall";"mall";"AO";"Jl. H. Iwan Maksum No.999, Tj. Leidong, Kec. Kualuh Leidong, Kabupaten Labuhanbatu Utara, Sumatera Utara 21475";"Tj. Leidong, Kec. Kualuh Leidong, Kabupaten Labuhanbatu Utara";"SUMATERA UTARA";"21475";"Indonesia";"";"";"";"2.753026";"99.9789643";"https://maps.google.com/?cid=0x0:0x7536013e4662d2bd";""
"mall";"Pusat Perbelanjaan";"Ledong";"QX3H+6G5, Tj. Leidong, Kec. Kualuh Leidong, Kabupaten Labuhanbatu Utara, Sumatera Utara";"Kabupaten Labuhanbatu Utara, Sumatera Utara";"SUMATERA UTARA";"";"Indonesia";"";"";"";"2.7530059";"99.97886";"https://maps.google.com/?cid=0x0:0xb3455aeccd13b73a";""
"mall";"Toko bahan makanan";"SG Leidong";"QX4H+84H, Tj. Leidong, Kec. Kualuh Leidong, Kabupaten Labuhanbatu Utara, Sumatera Utara 21475";"Tj. Leidong, Kec. Kualuh Leidong, Kabupaten Labuhanbatu Utara";"SUMATERA UTARA";"21475";"Indonesia";"";"";"";"2.7558175";"99.9778571";"https://maps.google.com/?cid=0x0:0xe8c3cd0a648778a9";""
"mall";"mall";"Sumatera Utara 21457";"Kec. Kualuh Sel., Kabupaten Labuhanbatu Utara, Sumatera Utara";"Kabupaten Labuhanbatu Utara, Sumatera Utara";"SUMATERA UTARA";"";"Indonesia";"";"";"";"2.4644513";"99.6786894";"https://maps.google.com/?cid=0x0:0xbeeda126e9c5dc9c";""
"mall";"Toko Pakaian Bayi";"VALENCIA  Babyshop";"Jl. Jenderal Sudirman No.75, Aek Kanopan Tim., Kec. Kualuh Hulu, Kabupaten Labuhanbatu Utara, Sumatera Utara 21273";"Aek Kanopan Tim., Kec. Kualuh Hulu, Kabupaten Labuhanbatu Utara";"SUMATERA UTARA";"21273";"Indonesia";"";"";"";"2.5692081";"99.6531512";"https://maps.google.com/?cid=0x0:0x9c07ffc6ee446495";""
"mall";"Toko Perlengkapan Rumah";"ELYAS / AMBARRUKMO";"Aek Kanopan, Kec. Kualuh Hulu, Kabupaten Labuhanbatu Utara, Sumatera Utara 21273";"Kec. Kualuh Hulu, Kabupaten Labuhanbatu Utara";"SUMATERA UTARA";"21273";"Indonesia";" 081284291293";"";"";"2.5685098";"99.6470901";"https://maps.google.com/?cid=0x0:0xb9cb33b8e159b6cd";""
"mall";"Toko bahan makanan";"Kedai mbak ayu";"GJCR+5WP, Sidua Dua, Kec. Kualuh Sel., Kabupaten Labuhanbatu Utara, Sumatera Utara 21457";"Sidua Dua, Kec. Kualuh Sel., Kabupaten Labuhanbatu Utara";"SUMATERA UTARA";"21457";"Indonesia";" 082166525631";"";"";"2.5204623";"99.6423336";"https://maps.google.com/?cid=0x0:0x2b12f519453ee2c8";""
"mall";"Pusat Perbelanjaan";"UD.SUBUR INTANI";"FJGQ+3X2, Gn. Melayu, Kec. Kualuh Sel., Kabupaten Labuhanbatu Utara, Sumatera Utara 21457";"Gn. Melayu, Kec. Kualuh Sel., Kabupaten Labuhanbatu Utara";"SUMATERA UTARA";"21457";"Indonesia";"";"";"";"2.4751418";"99.6398973";"https://maps.google.com/?cid=0x0:0xb63e1d49c43aefcc";""
"mall";"Toko";"Pasar Ikan Gultom Agensi";"GPH5+2CR, Unnamed Road, Gunting Saga, Kec. Kualuh Sel., Kabupaten Labuhanbatu Utara, Sumatera Utara 21457";"Unnamed Road, Gunting Saga, Kec. Kualuh Sel., Kabupaten Labuhanbatu Utara";"SUMATERA UTARA";"21457";"Indonesia";"";"";"";"2.5276041";"99.7085194";"https://maps.google.com/?cid=0x0:0xd77c4d5d1e548e4b";""
"mall";"Toko";"Mini So";"HMG3+435, Aek Kanopan Tim., Kec. Kualuh Hulu, Kabupaten Labuhanbatu Utara, Sumatera Utara 21273";"Aek Kanopan Tim., Kec. Kualuh Hulu, Kabupaten Labuhanbatu Utara";"SUMATERA UTARA";"21273";"Indonesia";"";"";"";"2.5752601";"99.6527469";"https://maps.google.com/?cid=0x0:0xf97e946717beac5f";""
"mall";"Toko";"Simpang Tugu Londut";"HH72+Q7V, HH72+Q8RPerkebunan LondutKec, Kec. Kualuh Hulu, Kabupaten Labuhanbatu Utara, Sumatera Utara 21457";"HH72+Q8RPerkebunan LondutKec, Kec. Kualuh Hulu, Kabupaten Labuhanbatu Utara";"SUMATERA UTARA";"21457";"Indonesia";"";"";"";"2.5644929";"99.5506692";"https://maps.google.com/?cid=0x0:0x190f71ca10735b4e";""
"mall";"Toserba";"SRC. Anton. Lubis";"GJ8R+2W8, Jl. Lintas Sumatra, Sidua Dua, Kec. Kualuh Sel., Kabupaten Labuhanbatu Utara, Sumatera Utara 21457";"Jl. Lintas Sumatra, Sidua Dua, Kec. Kualuh Sel., Kabupaten Labuhanbatu Utara";"SUMATERA UTARA";"21457";"Indonesia";" 081270174102";"";"";"2.5150431";"99.6423331";"https://maps.google.com/?cid=0x0:0xc7db1b7a40ab33c";""
"mall";"mall";"Timbul Jaya";"HJ9V+94P, Jl. Utama Wonosari, Aek Kanopan, Kec. Kualuh Hulu, Kabupaten Labuhanbatu Utara, Sumatera Utara 21273";"Jl. Utama Wonosari, Aek Kanopan, Kec. Kualuh Hulu, Kabupaten Labuhanbatu Utara";"SUMATERA UTARA";"21273";"Indonesia";"";"";"";"2.5684625";"99.6428346";"https://maps.google.com/?cid=0x0:0xd6d8d3323783343d";""
"mall";"Toko Ponsel";"biru ponsel";"HPGQ+M8M, Jl. Abdul Wahid, Sukarame, Kec. Kualuh Hulu, Kabupaten Labuhanbatu Utara, Sumatera Utara 21457";"Jl. Abdul Wahid, Sukarame, Kec. Kualuh Hulu, Kabupaten Labuhanbatu Utara";"SUMATERA UTARA";"21457";"Indonesia";" 085261349797";"";"";"2.5767058";"99.7382883";"https://maps.google.com/?cid=0x0:0x7d3f8bd74a212f80";""
"mall";"Toko Perkakas";"Istana Kado";"Jl. Jenderal Sudirman No.104, Aek Kanopan Tim., Kec. Kualuh Hulu, Kabupaten Labuhanbatu Utara, Sumatera Utara 21273";"Aek Kanopan Tim., Kec. Kualuh Hulu, Kabupaten Labuhanbatu Utara";"SUMATERA UTARA";"21273";"Indonesia";" 082164524186";"";"";"2.5703348";"99.6532942";"https://maps.google.com/?cid=0x0:0x6373546f9b102d02";""
"mall";"Toko Suvenir";"TOKO GREEN";"HPHW+9XH, Jl. Abdul Wahid, Sukarame, Kec. Kualuh Hulu, Kabupaten Labuhanbatu Utara, Sumatera Utara 21457";"Jl. Abdul Wahid, Sukarame, Kec. Kualuh Hulu, Kabupaten Labuhanbatu Utara";"SUMATERA UTARA";"21457";"Indonesia";"";"";"";"2.578441";"99.7474765";"https://maps.google.com/?cid=0x0:0x2e83831ffe7ca44b";""
"mall";"Pasar";"Pekan Rabu Damuli";"FJRG+H7Q, Damuli Pekan, Kec. Kualuh Sel., Kabupaten Labuhanbatu Utara, Sumatera Utara 21457";"Damuli Pekan, Kec. Kualuh Sel., Kabupaten Labuhanbatu Utara";"SUMATERA UTARA";"21457";"Indonesia";"";"";"";"2.4914587";"99.625725";"https://maps.google.com/?cid=0x0:0x1a7fec756cca4b88";""
"mall";"Kedai Pernak-pernik";"Kedai Juni";"GM77+XF4, Gunting Saga, Kec. Kualuh Sel., Kabupaten Labuhanbatu Utara, Sumatera Utara 21457";"Gunting Saga, Kec. Kualuh Sel., Kabupaten Labuhanbatu Utara";"SUMATERA UTARA";"21457";"Indonesia";"";"";"";"2.5148802";"99.6637056";"https://maps.google.com/?cid=0x0:0x37b4e8f598e40320";""
"mall";"Toko Suku Cadang Mobil";"Prima Accesories";"HJ8X+QXW, Aek Kanopan Tim., Kec. Kualuh Hulu, Kabupaten Labuhanbatu Utara, Sumatera Utara 21273";"Aek Kanopan Tim., Kec. Kualuh Hulu, Kabupaten Labuhanbatu Utara";"SUMATERA UTARA";"21273";"Indonesia";"";"";"";"2.5669795";"99.6499609";"https://maps.google.com/?cid=0x0:0x3841076f2fc5a692";""
"mall";"Toko Perlengkapan Rumah";"Mulia Jaya Aek Kanopan";"Jl. Jenderal Sudirman No.16, Aek Kanopan Tim., Kec. Kualuh Hulu, Kabupaten Asahan, Sumatera Utara 21273";"Aek Kanopan Tim., Kec. Kualuh Hulu, Kabupaten Asahan";"SUMATERA UTARA";"21273";"Indonesia";" 081399779898";"";"";"2.5786867";"99.6529159";"https://maps.google.com/?cid=0x0:0x5d28bac6b4dcc31e";""
"mall";"Toko";"Distributor Center HPAI-MAHDY ARINANI RITONGA";"FJGV+392, Gn. Melayu, Kec. Kualuh Sel., Kabupaten Labuhanbatu Utara, Sumatera Utara 21457";"Gn. Melayu, Kec. Kualuh Sel., Kabupaten Labuhanbatu Utara";"SUMATERA UTARA";"21457";"Indonesia";" 082166763123";"";"";"2.4751465";"99.6433869";"https://maps.google.com/?cid=0x0:0x8f4a434da014524b";""
"mall";"Pusat Perbelanjaan";"Annisa Accesories";"Jl. Lintas Sumatra No.199, Aek Kanopan Tim., Kec. Kualuh Hulu, Kabupaten Labuhanbatu Utara, Sumatera Utara 21273";"Aek Kanopan Tim., Kec. Kualuh Hulu, Kabupaten Labuhanbatu Utara";"SUMATERA UTARA";"21273";"Indonesia";" 082369497252";"";"";"2.5722888";"99.6528773";"https://maps.google.com/?cid=0x0:0x94d251ec5a76f8cb";""
"mall";"Toko Aksesori Ponsel";"Iman Ponsel";"damuli kebun pasar 3, Perk. Damuli, Kec. Kualuh Sel., Kabupaten Labuhanbatu Utara, Sumatera Utara 21457";"Perk. Damuli, Kec. Kualuh Sel., Kabupaten Labuhanbatu Utara";"SUMATERA UTARA";"21457";"Indonesia";" 082383350005";"";"";"2.4790199";"99.6249";"https://maps.google.com/?cid=0x0:0x37abf3d455d353a5";""
"mall";"Komplek perumahan";"PEKAN PULO DOGOM";"Pulo Dogom, Kec. Kualuh Hulu, Kabupaten Labuhanbatu Utara, Sumatera Utara 21457";"Kec. Kualuh Hulu, Kabupaten Labuhanbatu Utara";"SUMATERA UTARA";"21457";"Indonesia";"";"";"";"2.5621034";"99.5566641";"https://maps.google.com/?cid=0x0:0x57730cd50ac95601";""
"mall";"Pasar";"U.D RIZKY";"HPHM+22G, Jl. Abdul Wahid, Sukarame Baru, Kec. Kualuh Hulu, Kabupaten Labuhanbatu Utara, Sumatera Utara 21457";"Jl. Abdul Wahid, Sukarame Baru, Kec. Kualuh Hulu, Kabupaten Labuhanbatu Utara";"SUMATERA UTARA";"21457";"Indonesia";"";"";"";"2.5775553";"99.732575";"https://maps.google.com/?cid=0x0:0xdc1eb0286c19d6b7";""
"mall";"Pusat Perbelanjaan";"UD.TANI PUTRA";"FJ6Q+WXJ, Gn. Melayu, Kec. Kualuh Sel., Kabupaten Labuhanbatu Utara, Sumatera Utara 21457";"Gn. Melayu, Kec. Kualuh Sel., Kabupaten Labuhanbatu Utara";"SUMATERA UTARA";"21457";"Indonesia";"";"";"";"2.4623347";"99.6398958";"https://maps.google.com/?cid=0x0:0x45e29abb1fd88cb8";""
"mall";"Minimarket";"Simpang Marbau";"7Q69+XV8, Jl. Lintas Sumatra, Simpang Marbau, Kec. Na IX-X, Kabupaten Labuhanbatu Utara, Sumatera Utara 21454";"Jl. Lintas Sumatra, Simpang Marbau, Kec. Na IX-X, Kabupaten Labuhanbatu Utara";"SUMATERA UTARA";"21454";"Indonesia";"";"";"";"2.2624057";"99.7697032";"https://maps.google.com/?cid=0x0:0x686c7bf7559aa7c4";""
"mall";"Toko";"Ud Zahara Marbau";"7R6H+P9G, Jl. Besar, Marbau, Kec. Marbau, Kabupaten Labuhanbatu Utara, Sumatera Utara 21452";"Jl. Besar, Marbau, Kec. Marbau, Kabupaten Labuhanbatu Utara";"SUMATERA UTARA";"21452";"Indonesia";" 082167462574";"";"";"2.2618124";"99.8284477";"https://maps.google.com/?cid=0x0:0x19b116640e911a7b";""
"mall";"Pusat Perbelanjaan";"Toko MasToy";"6RMH+Q49, Jalan Besar Selatan, Marbau, Kec. Marbau, Kabupaten Labuhanbatu Utara, Sumatera Utara 21452";"Jalan Besar Selatan, Marbau, Kec. Marbau, Kabupaten Labuhanbatu Utara";"SUMATERA UTARA";"21452";"Indonesia";"";"";"";"2.2344196";"99.8278642";"https://maps.google.com/?cid=0x0:0xc40f58395c36d25f";""
"mall";"Pusat Perbelanjaan";"Suzuya Mall Rantau Prapat";"Jl. SM. Raja, Bakaran Batu, Kec. Rantau Sel., Kab. Labuhanbatu, Sumatera Utara 21418";"Bakaran Batu, Kec. Rantau Sel., Kab. Labuhanbatu";"SUMATERA UTARA";"21418";"Indonesia";"";"";"";"2.0821821";"99.8521185";"https://maps.google.com/?cid=0x0:0x2ae73160b301c509";""
"mall";"Kantor Pemerintah";"Kantor Camat Marbau";"Jl. Besar No.15, Marbau, Kec. Marbau, Kabupaten Labuhanbatu Utara, Sumatera Utara 21452";"Marbau, Kec. Marbau, Kabupaten Labuhanbatu Utara";"SUMATERA UTARA";"21452";"Indonesia";"";"";"";"2.2607098";"99.8274177";"https://maps.google.com/?cid=0x0:0x57fce9d092b9d160";""
"mall";"Mal outlet";"Suzuya City Mall";"3RWM+W77, Jl. Lintas Sumatra, Kartini, Kec. Rantau Utara, Kab. Labuhanbatu, Sumatera Utara 21411";"Jl. Lintas Sumatra, Kartini, Kec. Rantau Utara, Kab. Labuhanbatu";"SUMATERA UTARA";"21411";"Indonesia";"";"";"";"2.0972805";"99.8331848";"https://maps.google.com/?cid=0x0:0x4fc73a7e51056f58";""
"mall";"Toko Swalayan";"Alfamidi Simpang Marbau";"7Q79+9GW, Kp. Pajak, Kec. Na IX-X, Kabupaten Labuhanbatu Utara, Sumatera Utara 21452";"Kp. Pajak, Kec. Na IX-X, Kabupaten Labuhanbatu Utara";"SUMATERA UTARA";"21452";"Indonesia";"";"";"";"2.2634835";"99.7688143";"https://maps.google.com/?cid=0x0:0xb2f77d09e8afb65c";""
"mall";"Pusat Perbelanjaan";"Depot Arummi";"6RRQ+QJV, Marbau, Kec. Marbau, Kabupaten Labuhanbatu Utara, Sumatera Utara 21452";"Marbau, Kec. Marbau, Kabupaten Labuhanbatu Utara";"SUMATERA UTARA";"21452";"Indonesia";" 082277235674";"";"";"2.2419783";"99.8390471";"https://maps.google.com/?cid=0x0:0x3865d87965d5d8fa";""
"mall";"Pusat Perbelanjaan";"GLOBAL STAR";"GLOBAL STAR, JL.SUDIRMAN No.17, Marbau, Kec. Marbau, Kabupaten Labuhanbatu Utara, Sumatera Utara 21452";"JL.SUDIRMAN No.17, Marbau, Kec. Marbau, Kabupaten Labuhanbatu Utara";"SUMATERA UTARA";"21452";"Indonesia";"";"";"";"2.2619191";"99.8283079";"https://maps.google.com/?cid=0x0:0x482b7448ad0e271d";""
"mall";"Pusat Perbelanjaan";"Kedai abiyu";"7V8V+X38, Bulungihit, Kec. Marbau, Kabupaten Labuhanbatu Utara, Sumatera Utara 21452";"Bulungihit, Kec. Marbau, Kabupaten Labuhanbatu Utara";"SUMATERA UTARA";"21452";"Indonesia";"";"";"";"2.2674028";"99.8927131";"https://maps.google.com/?cid=0x0:0x4990aa02bafd9a8f";""
"mall";"Toko Bunga";"WEDW FLORIST";"7R64+R9J, Jl. Sisingamangaraja, Perkebunan Brussel, Kec. Marbau, Kabupaten Labuhanbatu Utara, Sumatera Utara 21452";"Jl. Sisingamangaraja, Perkebunan Brussel, Kec. Marbau, Kabupaten Labuhanbatu Utara";"SUMATERA UTARA";"21452";"Indonesia";" 08126433661";"";"";"2.2620908";"99.8058861";"https://maps.google.com/?cid=0x0:0xf552b2cdc44ae2ec";""
"mall";"Pusat Perbelanjaan";"pekan pajak";"Jalan Jendral Sudirman No.110, Marbau, Kec. Marbau, Kabupaten Labuhanbatu Utara, Sumatera Utara 21452";"Marbau, Kec. Marbau, Kabupaten Labuhanbatu Utara";"SUMATERA UTARA";"21452";"Indonesia";"";"";"";"2.2620489";"99.8287896";"https://maps.google.com/?cid=0x0:0xd97ee1f128a8fadf";""
"mall";"Toko umum";"TOKO KURNIA";"Dusun Sumberjo No.RT 1, Simpang Marbau, Kec. Na IX-X, Kabupaten Labuhanbatu Utara, Sumatera Utara 21452";"Simpang Marbau, Kec. Na IX-X, Kabupaten Labuhanbatu Utara";"SUMATERA UTARA";"21452";"Indonesia";"";"";"";"2.2166124";"99.7712182";"https://maps.google.com/?cid=0x0:0x328b45606ec09134";""
"mall";"Grosir";"Grosir NAZWA";"6R8G+J9R, Unnamed Road, Babussalam, Kec. Marbau, Kabupaten Labuhanbatu Utara, Sumatera Utara 21452";"Unnamed Road, Babussalam, Kec. Marbau, Kabupaten Labuhanbatu Utara";"SUMATERA UTARA";"21452";"Indonesia";"";"";"";"2.2166048";"99.8259039";"https://maps.google.com/?cid=0x0:0x1ce6f48385246b11";""
"mall";"Toko Ponsel";"Bang Black Store ( Service HP Terbaik, Grosir Paket Data, Grosir Pulsa,  PPOB)";"Street Jl. Soekarno-Hatta, Marbau, Kec. Marbau, Kabupaten Labuhanbatu Utara, Sumatera Utara 21452";"Marbau, Kec. Marbau, Kabupaten Labuhanbatu Utara";"SUMATERA UTARA";"21452";"Indonesia";" 082272277306";"";"";"2.2610438";"99.8268925";"https://maps.google.com/?cid=0x0:0x6f5846df524aa2bb";""
"mall";"Toko";"Kedai jajan Sani";"7R9M+X5G, Jl. Besar Simpang Empat, Perkebunan Brussel, Kec. Marbau, Kabupaten Labuhanbatu Utara, Sumatera Utara 21452";"Jl. Besar Simpang Empat, Perkebunan Brussel, Kec. Marbau, Kabupaten Labuhanbatu Utara";"SUMATERA UTARA";"21452";"Indonesia";"";"";"";"2.2699391";"99.8329506";"https://maps.google.com/?cid=0x0:0xa3ea5a43a039c251";""
"mall";"Pusat Perbelanjaan";"Kadai abiyu";"6VVW+HFQ, Tubiran, Kec. Marbau, Kabupaten Labuhanbatu Utara, Sumatera Utara 21452";"Tubiran, Kec. Marbau, Kabupaten Labuhanbatu Utara";"SUMATERA UTARA";"21452";"Indonesia";"";"";"";"2.2439553";"99.8962279";"https://maps.google.com/?cid=0x0:0xb15026f2101e49ac";""
"mall";"mall";"Kedai Naura";"7V28+H6C, Belongkut, Kec. Marbau, Kabupaten Labuhanbatu Utara, Sumatera Utara 21452";"Belongkut, Kec. Marbau, Kabupaten Labuhanbatu Utara";"SUMATERA UTARA";"21452";"Indonesia";"";"";"";"2.2514443";"99.8655158";"https://maps.google.com/?cid=0x0:0x289c2e4e0a74eef";""
"mall";"Minimarket";"Resinda Park Mall";"Jl. Resinda Raya No.2, Purwadana, Kec. Karawang Bar., Karawang, Jawa Barat 41361";"Purwadana, Kec. Karawang Bar., Karawang";"SUMATERA UTARA";"41361";"Indonesia";" 02678605000";"";"";"-6.3015668";"107.2781092";"https://maps.google.com/?cid=0x0:0xda154d0574b5d068";""
"mall";"Pusat Perbelanjaan";"Botani Square";"Jl. Raya Pajajaran No.40, Tugu Kujang, Kecamatan Bogor Tengah, Kota Bogor, Jawa Barat 16127";"Tugu Kujang, Kecamatan Bogor Tengah, Kota Bogor";"SUMATERA UTARA";"16127";"Indonesia";" 02518386658";"";"";"-6.6014221";"106.8071254";"https://maps.google.com/?cid=0x0:0x9edb391e7c74be19";""
"mall";"Pasar";"KEDAI SAYUR SAMPURAN";"6WX3+F68, Sipare Pare Tengah, Kec. Marbau, Kabupaten Labuhanbatu Utara, Sumatera Utara 21452";"Sipare Pare Tengah, Kec. Marbau, Kabupaten Labuhanbatu Utara";"SUMATERA UTARA";"21452";"Indonesia";" 082370695249";"";"";"2.248664";"99.9030771";"https://maps.google.com/?cid=0x0:0x42b51d171f9200ec";""
"mall";"Toko";"UD RAJALI";"8V9F+78J, Dusun VI, Aek Hitetoras, Kec. Marbau, Kabupaten Labuhanbatu Utara, Sumatera Utara 21455";"Dusun VI, Aek Hitetoras, Kec. Marbau, Kabupaten Labuhanbatu Utara";"SUMATERA UTARA";"21455";"Indonesia";" 085371425828";"";"";"2.318222";"99.8732627";"https://maps.google.com/?cid=0x0:0x915f76173acca4ad";""
"mall";"Pusat Perbelanjaan";"Toko Masri";"7VMC+VXR, Kampung 3, Bulungihit, Kec. Marbau, Kabupaten Labuhanbatu Utara, Sumatera Utara 21452";"Kampung 3, Bulungihit, Kec. Marbau, Kabupaten Labuhanbatu Utara";"SUMATERA UTARA";"21452";"Indonesia";"";"";"";"2.2847286";"99.8723968";"https://maps.google.com/?cid=0x0:0x342e3848b185791a";""
"mall";"Pusat Perbelanjaan";"Toko Salwa Mart";"4RF4+MQF, Aek Paing, Kec. Rantau Utara, Kab. Labuhanbatu, Sumatera Utara 21411";"Aek Paing, Kec. Rantau Utara, Kab. Labuhanbatu";"SUMATERA UTARA";"21411";"Indonesia";" 081361408197";"";"";"2.1241875";"99.8069323";"https://maps.google.com/?cid=0x0:0xb1ce60ebfe2192e7";""
"mall";"Toko Ponsel";"Ud.Ragam Ponsel. Dewa Dan Raja";"7VGF+8RP, Bulungihit, Kec. Marbau, Kabupaten Labuhanbatu Utara, Sumatera Utara 21452";"Bulungihit, Kec. Marbau, Kabupaten Labuhanbatu Utara";"SUMATERA UTARA";"21452";"Indonesia";" 081396126077";"";"";"2.2758447";"99.8745672";"https://maps.google.com/?cid=0x0:0xc89f61168d478643";""
"mall";"Pembangunan Perumahan";"Doorsmeer fadly";"6WF5+W57, Sipare Pare Tengah, Kec. Marbau, Kabupaten Labuhanbatu Utara, Sumatera Utara 21452";"Sipare Pare Tengah, Kec. Marbau, Kabupaten Labuhanbatu Utara";"SUMATERA UTARA";"21452";"Indonesia";"";"";"";"2.2247991";"99.9079105";"https://maps.google.com/?cid=0x0:0x5b10bc3a909a0420";""
"mall";"";"Marbau";"7RCR+4HC, Perkebunan Brussel, Kec. Marbau, Kabupaten Labuhanbatu Utara, Sumatera Utara 21452";"Perkebunan Brussel, Kec. Marbau, Kabupaten Labuhanbatu Utara";"SUMATERA UTARA";"21452";"Indonesia";"";"";"";"2.2703137";"99.8413885";"https://maps.google.com/?cid=0x0:0xeec180ae3bd13df";""
"mall";"Toko Fotokopi";"Poto kopy melina";"7Q69+XV6, Simpang Marbau, Kec. Na IX-X, Kabupaten Labuhanbatu Utara, Sumatera Utara 21452";"Simpang Marbau, Kec. Na IX-X, Kabupaten Labuhanbatu Utara";"SUMATERA UTARA";"21452";"Indonesia";"";"";"";"2.262404";"99.7696406";"https://maps.google.com/?cid=0x0:0x1b47ee3bcdb50806";""
"mall";"mall";"Sumatera Utara 21454";"Kec. Na IX-X, Kabupaten Labuhanbatu Utara, Sumatera Utara";"Kabupaten Labuhanbatu Utara, Sumatera Utara";"SUMATERA UTARA";"";"Indonesia";"";"";"";"2.1532664";"99.6786894";"https://maps.google.com/?cid=0x0:0xa1d048494249269a";""
"mall";"Minimarket";"Simpang Marbau";"7Q69+XV8, Jl. Lintas Sumatra, Simpang Marbau, Kec. Na IX-X, Kabupaten Labuhanbatu Utara, Sumatera Utara 21454";"Jl. Lintas Sumatra, Simpang Marbau, Kec. Na IX-X, Kabupaten Labuhanbatu Utara";"SUMATERA UTARA";"21454";"Indonesia";"";"";"";"2.2624057";"99.7697032";"https://maps.google.com/?cid=0x0:0x686c7bf7559aa7c4";""
"mall";"Toko Swalayan";"Alfamidi Simpang Marbau";"7Q79+9GW, Kp. Pajak, Kec. Na IX-X, Kabupaten Labuhanbatu Utara, Sumatera Utara 21452";"Kp. Pajak, Kec. Na IX-X, Kabupaten Labuhanbatu Utara";"SUMATERA UTARA";"21452";"Indonesia";"";"";"";"2.2634835";"99.7688143";"https://maps.google.com/?cid=0x0:0xb2f77d09e8afb65c";""
"mall";"Toko";"Kede Buk Erni";"5QR5+2QH, Simpang Marbau, Kec. Na IX-X, Kabupaten Labuhanbatu Utara, Sumatera Utara 21454";"Simpang Marbau, Kec. Na IX-X, Kabupaten Labuhanbatu Utara";"SUMATERA UTARA";"21454";"Indonesia";" 082277975677";"";"";"2.1900518";"99.7594941";"https://maps.google.com/?cid=0x0:0xa13ac2d34490a0f5";""
"mall";"Toko bahan makanan";"Kios Sayur Rimbaya";"4PFC+V88, Batu Tunggal, Kec. Na IX-X, Kabupaten Labuhanbatu Utara, Sumatera Utara 21454";"Batu Tunggal, Kec. Na IX-X, Kabupaten Labuhanbatu Utara";"SUMATERA UTARA";"21454";"Indonesia";" 082294933909";"";"";"2.124651";"99.7208318";"https://maps.google.com/?cid=0x0:0x4941e800abcbfc7c";""
"mall";"Pasar Grosir Sayur";"Pekan aek kota batu";"Aek Kota Batu, Kec. Na IX-X, Kabupaten Labuhanbatu Utara, Sumatera Utara 21454";"Kec. Na IX-X, Kabupaten Labuhanbatu Utara";"SUMATERA UTARA";"21454";"Indonesia";"";"";"";"2.2698713";"99.7621956";"https://maps.google.com/?cid=0x0:0x59496131afd47261";""
"mall";"Pusat Perbelanjaan";"Ivo collections";"7P65+GGW, Meranti Omas, Kec. Na IX-X, Kabupaten Labuhanbatu Utara, Sumatera Utara 21454";"Meranti Omas, Kec. Na IX-X, Kabupaten Labuhanbatu Utara";"SUMATERA UTARA";"21454";"Indonesia";" 081370145001";"";"";"2.2613606";"99.7088262";"https://maps.google.com/?cid=0x0:0x8eeb00e57d1a2e1e";""
"mall";"Toko Swalayan";"TOKO LARIS BERKAH LABURA (Iwi Tanjung) / CEMILAN LARIS BERKAH LABURA";"Aek Merah, Aek Kota Batu, Kec. Na IX-X, Kabupaten Labuhanbatu Utara, Sumatera Utara 21454";"Aek Kota Batu, Kec. Na IX-X, Kabupaten Labuhanbatu Utara";"SUMATERA UTARA";"21454";"Indonesia";" 081269400464";"";"";"2.2739462";"99.7617808";"https://maps.google.com/?cid=0x0:0xe461fe1d8d5a2ca6";""
"mall";"Toko";"TOKO SUHA";"SMA Aek Kota Batu, Jalan, Silumajang, Na IX-X, North Labuhan Batu Regency, North Sumatra 21454";"Jalan, Silumajang, Na IX-X, North Labuhan Batu Regency";"SUMATERA UTARA";"21454";"Indonesia";"";"";"";"2.2367014";"99.7017148";"https://maps.google.com/?cid=0x0:0x4161d4bcac9b2bdc";""
"mall";"Pusat Perbelanjaan";"UD. Aldi";"7M84+JG9, Unnamed Road, Meranti Omas, Kec. Na IX-X, Kabupaten Labuhanbatu Utara, Sumatera Utara 21455";"Unnamed Road, Meranti Omas, Kec. Na IX-X, Kabupaten Labuhanbatu Utara";"SUMATERA UTARA";"21455";"Indonesia";" 082364411245";"";"";"2.266527";"99.6563491";"https://maps.google.com/?cid=0x0:0xfbf025f044d9f770";""
"mall";"Pusat Perbelanjaan";"Arif Koncet";"5QQ4+WWR, Unnamed Road, Perkebunan Berangir, Kec. Na IX-X, Kabupaten Labuhanbatu Utara, Sumatera Utara 21454";"Unnamed Road, Perkebunan Berangir, Kec. Na IX-X, Kabupaten Labuhanbatu Utara";"SUMATERA UTARA";"21454";"Indonesia";"";"";"";"2.1898631";"99.7572646";"https://maps.google.com/?cid=0x0:0xc9cc29c1c8f7a53e";""
"mall";"Pusat Perbelanjaan";"FR GROSIR";"6Q2C+5F8, Simpang Marbau, Kec. Na IX-X, Kabupaten Labuhanbatu Utara, Sumatera Utara 21452";"Simpang Marbau, Kec. Na IX-X, Kabupaten Labuhanbatu Utara";"SUMATERA UTARA";"21452";"Indonesia";" 085296164669";"";"";"2.2004055";"99.7712041";"https://maps.google.com/?cid=0x0:0xfb99e22f2ee0e28f";""
"mall";"Toko";"Srda Shop";"7Q4C+C9H, Kp. Pajak, Kec. Na IX-X, Kabupaten Labuhanbatu Utara, Sumatera Utara 21452";"Kp. Pajak, Kec. Na IX-X, Kabupaten Labuhanbatu Utara";"SUMATERA UTARA";"21452";"Indonesia";" 083176031904";"";"";"2.2560623";"99.7709919";"https://maps.google.com/?cid=0x0:0xe73a7b201ad55923";""
"mall";"Toko Fotokopi";"Poto kopy melina";"7Q69+XV6, Simpang Marbau, Kec. Na IX-X, Kabupaten Labuhanbatu Utara, Sumatera Utara 21452";"Simpang Marbau, Kec. Na IX-X, Kabupaten Labuhanbatu Utara";"SUMATERA UTARA";"21452";"Indonesia";"";"";"";"2.262404";"99.7696406";"https://maps.google.com/?cid=0x0:0x1b47ee3bcdb50806";""
"mall";"Pusat Perbelanjaan";"TOKO TORA";"6PQ5+FHW, Jl. SMA Aek Kota Batu, Silumajang, Kec. Na IX-X, Kabupaten Labuhanbatu Utara, Sumatera Utara 21454";"Jl. SMA Aek Kota Batu, Silumajang, Kec. Na IX-X, Kabupaten Labuhanbatu Utara";"SUMATERA UTARA";"21454";"Indonesia";"";"";"";"2.2387392";"99.7089402";"https://maps.google.com/?cid=0x0:0xa0a461dac90f1c15";""
"mall";"Pemasok Produk Promosi";"Creatif Reklame";"8P6P+RC7, Pulo Jantan, Kec. Na IX-X, Kabupaten Labuhanbatu Utara, Sumatera Utara 21455";"Pulo Jantan, Kec. Na IX-X, Kabupaten Labuhanbatu Utara";"SUMATERA UTARA";"21455";"Indonesia";" 082168453624";"";"";"2.3120256";"99.7360384";"https://maps.google.com/?cid=0x0:0x342a3cda54aa94a6";""
"mall";"Gudang";"UD.ALIWANSAH";"8P2R+7FW, Gg. Bahagia, Kp. Pajak, Kec. Na IX-X, Kabupaten Labuhanbatu Utara, Sumatera Utara 21455";"Gg. Bahagia, Kp. Pajak, Kec. Na IX-X, Kabupaten Labuhanbatu Utara";"SUMATERA UTARA";"21455";"Indonesia";"";"";"";"2.3007374";"99.7412181";"https://maps.google.com/?cid=0x0:0x5268f0e29b7ece21";""
"mall";"Toko umum";"TOKO KURNIA";"Dusun Sumberjo No.RT 1, Simpang Marbau, Kec. Na IX-X, Kabupaten Labuhanbatu Utara, Sumatera Utara 21452";"Simpang Marbau, Kec. Na IX-X, Kabupaten Labuhanbatu Utara";"SUMATERA UTARA";"21452";"Indonesia";"";"";"";"2.2166124";"99.7712182";"https://maps.google.com/?cid=0x0:0x328b45606ec09134";""
"mall";"Pusat Perbelanjaan";"Stokis HPAI";"6Q6C+QV6, Sumberjo, Kec. Na IX-X, Kabupaten Labuhanbatu Utara, Sumatera Utara 21452";"Sumberjo, Kec. Na IX-X, Kabupaten Labuhanbatu Utara";"SUMATERA UTARA";"21452";"Indonesia";" 085373243317";"";"";"2.211922";"99.7721283";"https://maps.google.com/?cid=0x0:0xbc42bf52539afb3d";""
"mall";"Toko";"Toko Irsyad";"7M83+7RF, Meranti Omas, Kec. Na IX-X, Kabupaten Labuhanbatu Utara, Sumatera Utara 21455";"Meranti Omas, Kec. Na IX-X, Kabupaten Labuhanbatu Utara";"SUMATERA UTARA";"21455";"Indonesia";" 081235009254";"";"";"2.2656821";"99.6545366";"https://maps.google.com/?cid=0x0:0x81a4834fb0796a49";""
"mall";"Pusat Perbelanjaan";"Darwin Ritonga";"3M3R+526, Tj. Medan, Kec. Bilah Bar., Kab. Labuhanbatu, Sumatera Utara 21454";"Tj. Medan, Kec. Bilah Bar., Kab. Labuhanbatu";"SUMATERA UTARA";"21454";"Indonesia";"";"";"";"2.0529207";"99.6900058";"https://maps.google.com/?cid=0x0:0xd5688f10a12de3f6";""
"supermarket";"supermarket";"Kec. Aek Kuo";"Kabupaten Labuhanbatu Utara, Sumatera Utara";"Kabupaten Labuhanbatu Utara, Sumatera Utara";"SUMATERA UTARA";"";"Indonesia";"";"";"";"2.3161726";"99.8203062";"https://maps.google.com/?cid=0x0:0x4039d80b220d250";""
"supermarket";"Toko";"Toko Ema Kembar";"8RRM+R5J, Aek Korsik, Kec. Aek Kuo, Kabupaten Labuhanbatu Utara, Sumatera Utara 21455";"Aek Korsik, Kec. Aek Kuo, Kabupaten Labuhanbatu Utara";"SUMATERA UTARA";"21455";"Indonesia";" 081361012010";"";"";"2.3420876";"99.8328827";"https://maps.google.com/?cid=0x0:0x8aae1c291a04386b";""
"supermarket";"Pusat Perbelanjaan";"Cici mart";"8Q8C+VGJ, Padang Maninjau, Kec. Aek Kuo, Kabupaten Labuhanbatu Utara, Sumatera Utara 21455";"Padang Maninjau, Kec. Aek Kuo, Kabupaten Labuhanbatu Utara";"SUMATERA UTARA";"21455";"Indonesia";"";"";"";"2.3172141";"99.771261";"https://maps.google.com/?cid=0x0:0xd9454a3c201b4ede";""
"supermarket";"Toko Perlengkapan Rumah";"Toko Mini ZK Klinten Pangaribuan";"8VW7+GQG, Perk. Padang Halaban, Kec. Aek Kuo, Kabupaten Labuhanbatu Utara, Sumatera Utara 21455";"Perk. Padang Halaban, Kec. Aek Kuo, Kabupaten Labuhanbatu Utara";"SUMATERA UTARA";"21455";"Indonesia";" 082167132433";"";"";"2.3463144";"99.8644557";"https://maps.google.com/?cid=0x0:0xf1c422249cf42bea";""
"supermarket";"Penyedia Layanan Internet";"ALYA VOUCHER at Simpang Empat, Marbau";"7RCV+63G, Perkebunan Brussel, Kec. Marbau, Kabupaten Labuhanbatu Utara, Sumatera Utara 21452";"Perkebunan Brussel, Kec. Marbau, Kabupaten Labuhanbatu Utara";"SUMATERA UTARA";"21452";"Indonesia";"";"";"";"2.2705563";"99.8426942";"https://maps.google.com/?cid=0x0:0xac62478f325748da";""
"supermarket";"Toko";"Labuhanbatu utara";"8RW6+JXH, Purworejo, Kec. Aek Kuo, Kabupaten Labuhanbatu Utara, Sumatera Utara";"Kabupaten Labuhanbatu Utara, Sumatera Utara";"SUMATERA UTARA";"";"Indonesia";"";"";"";"2.3465638";"99.8124935";"https://maps.google.com/?cid=0x0:0x240b019197bd73cf";""
"supermarket";"Dapur Umum";"Warung Mbak Aseh";"8VGJ+WV5, Perk. Padang Halaban, Kec. Aek Kuo, Kabupaten Labuhanbatu Utara, Sumatera Utara 21455";"Perk. Padang Halaban, Kec. Aek Kuo, Kabupaten Labuhanbatu Utara";"SUMATERA UTARA";"21455";"Indonesia";"";"";"";"2.3271882";"99.8823993";"https://maps.google.com/?cid=0x0:0x98a23b0926398fef";""
"supermarket";"Toko umum";"BranMart";"Aek Hitetoras, Kec. Marbau, Kabupaten Labuhanbatu Utara, Sumatera Utara 21455";"Kec. Marbau, Kabupaten Labuhanbatu Utara";"SUMATERA UTARA";"21455";"Indonesia";"";"";"";"2.3063121";"99.8744009";"https://maps.google.com/?cid=0x0:0xd6c3fa77b6257592";""
"supermarket";"Mi";"Warung "Beriman" Wak IYUS";"Komplek Perumahan Pabrik Sofindo Gg. Volly Desa Perk. Aek Pamienke Sumut 21455, Pangkalan, Kec. Aek Natas, Kabupaten Labuhanbatu Utara, Sumatera Utara 21455";"Pangkalan, Kec. Aek Natas, Kabupaten Labuhanbatu Utara";"SUMATERA UTARA";"21455";"Indonesia";" 081360403871";"";"";"2.3416094";"99.7253553";"https://maps.google.com/?cid=0x0:0x2fff4ac31b4d0466";""
"supermarket";"Pusat Perbelanjaan";"ALFAMIDI KAMPUNG PAJAK";"7PXR+PMX, Jl. Lintas Sumatra, Pulo Jantan, Kec. Na IX-X, Kabupaten Labuhanbatu Utara, Sumatera Utara 21455";"Jl. Lintas Sumatra, Pulo Jantan, Kec. Na IX-X, Kabupaten Labuhanbatu Utara";"SUMATERA UTARA";"21455";"Indonesia";" 081584472102";"";"";"2.2993594";"99.7417464";"https://maps.google.com/?cid=0x0:0xc8786263d8d370d1";""
"supermarket";"Toko";"SAHATMA JAYA PLASTIK";"8P3R+886, Kp. Pajak, Kec. Na IX-X, Kabupaten Labuhanbatu Utara, Sumatera Utara 21455";"Kp. Pajak, Kec. Na IX-X, Kabupaten Labuhanbatu Utara";"SUMATERA UTARA";"21455";"Indonesia";" 082165728087";"";"";"2.3032959";"99.7407676";"https://maps.google.com/?cid=0x0:0x11f5d555133edfe";""
"supermarket";"Restoran";"Warung bang Toyib";"8RGC+3G, Perkebunan Panigoran, Kec. Aek Kuo, Kabupaten Labuhanbatu Utara, Sumatera Utara";"Kabupaten Labuhanbatu Utara, Sumatera Utara";"SUMATERA UTARA";"";"Indonesia";"";"";"";"2.3251332";"99.821265";"https://maps.google.com/?cid=0x0:0xc5b809f7f764c419";""
"supermarket";"Toko Swalayan";"TOKO RIO";"8V6G+C5Q, Unnamed Road, Aek Hitetoras, Kec. Marbau, Kabupaten Labuhanbatu Utara, Sumatera Utara 21455";"Unnamed Road, Aek Hitetoras, Kec. Marbau, Kabupaten Labuhanbatu Utara";"SUMATERA UTARA";"21455";"Indonesia";"";"";"";"2.3110986";"99.8754956";"https://maps.google.com/?cid=0x0:0xc428aacf2d7fba8b";""
"supermarket";"Toko bahan makanan";"Indomaret Kp Pajak";"8P2R+5HW, Kp. Pajak, Kec. Na IX-X, Kabupaten Labuhanbatu Utara, Sumatera Utara 21455";"Kp. Pajak, Kec. Na IX-X, Kabupaten Labuhanbatu Utara";"SUMATERA UTARA";"21455";"Indonesia";"";"";"";"2.3004987";"99.7414628";"https://maps.google.com/?cid=0x0:0x78d7aaccdf1ed924";""
"supermarket";"Toko Perlengkapan Rumah";"Kedai Ninje/Nahda";"8QPJ+MCC, Purworejo, Kec. Aek Kuo, Kabupaten Labuhanbatu Utara, Sumatera Utara 21455";"Purworejo, Kec. Aek Kuo, Kabupaten Labuhanbatu Utara";"SUMATERA UTARA";"21455";"Indonesia";" 08222136528";"";"";"2.3366876";"99.7810161";"https://maps.google.com/?cid=0x0:0x59f0d62fd9479f97";""
"supermarket";"Toko";"Elyasha kedai";"9R42+GGW, Dusun II, Purworejo, Kec. Aek Kuo, Kabupaten Labuhanbatu Utara, Sumatera Utara 21455";"Dusun II, Purworejo, Kec. Aek Kuo, Kabupaten Labuhanbatu Utara";"SUMATERA UTARA";"21455";"Indonesia";"";"";"";"2.3563732";"99.8013351";"https://maps.google.com/?cid=0x0:0x28b3105ac9d56cca";""
"supermarket";"Toko";"Kedai Buk Ummi";"8PVF+XMC, Jl. Lintas Sumatra, Kp. Yaman, Kec. Aek Natas, Kabupaten Labuhanbatu Utara, Sumatera Utara 21455";"Jl. Lintas Sumatra, Kp. Yaman, Kec. Aek Natas, Kabupaten Labuhanbatu Utara";"SUMATERA UTARA";"21455";"Indonesia";"";"";"";"2.3449359";"99.7241449";"https://maps.google.com/?cid=0x0:0x58e9ea72d683106d";""
"supermarket";"Toko";"Kedai Isa";"8V2C+8R4, Aek Hitetoras, Kec. Marbau, Kabupaten Labuhanbatu Utara, Sumatera Utara";"Kabupaten Labuhanbatu Utara, Sumatera Utara";"SUMATERA UTARA";"";"Indonesia";"";"";"";"2.3007515";"99.8720824";"https://maps.google.com/?cid=0x0:0xcc8bc1968d2abeea";""
"supermarket";"Toko bahan makanan";"Kedai kelontong muslim";"8RW6+JXH, 5PMGsungai raja, Kec. Aek Kuo, Kabupaten Labuhanbatu Utara, Sumatera Utara";"Kabupaten Labuhanbatu Utara, Sumatera Utara";"SUMATERA UTARA";"";"Indonesia";"";"";"";"2.3465638";"99.8124935";"https://maps.google.com/?cid=0x0:0x6cf78b7110e6c96e";""
"supermarket";"Toko bahan makanan";"Toko Edo";"Simpang Marbau, Kec. Na IX-X, Kabupaten Labuhanbatu Utara, Sumatera Utara";"Kabupaten Labuhanbatu Utara, Sumatera Utara";"SUMATERA UTARA";"";"Indonesia";"";"";"";"2.2245452";"99.7712412";"https://maps.google.com/?cid=0x0:0xff86a3d2c1ba4566";""
"supermarket";"Indonesia";"Warung nasib";"9PPW+56V, Unnamed Road, Pangkalan, Aek Natas, North Labuhan Batu Regency, North Sumatra 21455";"Unnamed Road, Pangkalan, Aek Natas, North Labuhan Batu Regency";"SUMATERA UTARA";"21455";"Indonesia";"";"";"";"2.3854798";"99.7455463";"https://maps.google.com/?cid=0x0:0x3d7742141091eda4";""
"supermarket";"supermarket";"Sumatera Utara 21455";"Kabupaten Labuhanbatu Utara, Sumatera Utara";"Kabupaten Labuhanbatu Utara, Sumatera Utara";"SUMATERA UTARA";"";"Indonesia";"";"";"";"2.1543963";"99.5006143";"https://maps.google.com/?cid=0x0:0x391266e2c2e7c92";""
"supermarket";"supermarket";"Sumatra Utara";"4G8W+42X, Poldung, Kec. Aek Natas, Kabupaten Labuhanbatu Utara, Sumatera Utara";"Kabupaten Labuhanbatu Utara, Sumatera Utara";"SUMATERA UTARA";"";"Indonesia";"";"";"";"2.1153547";"99.5450974";"https://maps.google.com/?cid=0x0:0x248b37ed01e59dc1";""
"supermarket";"Toko";"TOKO RAHMA";"Jl. Lintas Sumatra No.29, Bandar Durian, Kec. Aek Natas, Kabupaten Labuhanbatu Utara, Sumatera Utara 21455";"Bandar Durian, Kec. Aek Natas, Kabupaten Labuhanbatu Utara";"SUMATERA UTARA";"21455";"Indonesia";" 082267859197";"";"";"2.35272";"99.7159967";"https://maps.google.com/?cid=0x0:0xf8a967413b957809";""
"supermarket";"Toko umum";"Aira syahna";"9P98+3RC Si bio bio, Terang Bulan, Kec. Aek Natas, Kabupaten Labuhanbatu Utara, Sumatera Utara 21455";"Terang Bulan, Kec. Aek Natas, Kabupaten Labuhanbatu Utara";"SUMATERA UTARA";"21455";"Indonesia";"";"";"";"2.3676969";"99.7170036";"https://maps.google.com/?cid=0x0:0xd10263809cfb5627";""
"supermarket";"Pusat Perbelanjaan";"ALFAMIDI KAMPUNG PAJAK";"7PXR+PMX, Jl. Lintas Sumatra, Pulo Jantan, Kec. Na IX-X, Kabupaten Labuhanbatu Utara, Sumatera Utara 21455";"Jl. Lintas Sumatra, Pulo Jantan, Kec. Na IX-X, Kabupaten Labuhanbatu Utara";"SUMATERA UTARA";"21455";"Indonesia";" 081584472102";"";"";"2.2993594";"99.7417464";"https://maps.google.com/?cid=0x0:0xc8786263d8d370d1";""
"supermarket";"Toko";"SAHATMA JAYA PLASTIK";"8P3R+886, Kp. Pajak, Kec. Na IX-X, Kabupaten Labuhanbatu Utara, Sumatera Utara 21455";"Kp. Pajak, Kec. Na IX-X, Kabupaten Labuhanbatu Utara";"SUMATERA UTARA";"21455";"Indonesia";" 082165728087";"";"";"2.3032959";"99.7407676";"https://maps.google.com/?cid=0x0:0x11f5d555133edfe";""
"supermarket";"Toko umum";"Ridho Munthe";"7M83+9JG, Unnamed Road, Meranti Omas, Kec. Na IX-X, Kabupaten Labuhanbatu Utara, Sumatera Utara 21455";"Unnamed Road, Meranti Omas, Kec. Na IX-X, Kabupaten Labuhanbatu Utara";"SUMATERA UTARA";"21455";"Indonesia";" 081264458509";"";"";"2.2659282";"99.6540761";"https://maps.google.com/?cid=0x0:0x2f8e3d869cedc0be";""
"supermarket";"Toko";"Kode reva pohan";"9P98+3QX, Unnamed Road, Bandar Durian, Kec. Aek Natas, Kabupaten Labuhanbatu Utara, Sumatera Utara 21455";"Unnamed Road, Bandar Durian, Kec. Aek Natas, Kabupaten Labuhanbatu Utara";"SUMATERA UTARA";"21455";"Indonesia";"";"";"";"2.3677435";"99.7169831";"https://maps.google.com/?cid=0x0:0xd1024d2a0ebf47f5";""
"supermarket";"Toko bahan makanan";"Indomaret Kp Pajak";"8P2R+5HW, Kp. Pajak, Kec. Na IX-X, Kabupaten Labuhanbatu Utara, Sumatera Utara 21455";"Kp. Pajak, Kec. Na IX-X, Kabupaten Labuhanbatu Utara";"SUMATERA UTARA";"21455";"Indonesia";"";"";"";"2.3004987";"99.7414628";"https://maps.google.com/?cid=0x0:0x78d7aaccdf1ed924";""
"supermarket";"Toko";"Kedai Isa";"8V2C+8R4, Aek Hitetoras, Kec. Marbau, Kabupaten Labuhanbatu Utara, Sumatera Utara";"Kabupaten Labuhanbatu Utara, Sumatera Utara";"SUMATERA UTARA";"";"Indonesia";"";"";"";"2.3007515";"99.8720824";"https://maps.google.com/?cid=0x0:0xcc8bc1968d2abeea";""
"supermarket";"Toko bahan makanan";"INDOMARET";"7QJ6+2CH, Aek Kota Batu, Kec. Na IX-X, Kabupaten Labuhanbatu Utara, Sumatera Utara 21452";"Aek Kota Batu, Kec. Na IX-X, Kabupaten Labuhanbatu Utara";"SUMATERA UTARA";"21452";"Indonesia";"";"";"";"2.2800735";"99.7611198";"https://maps.google.com/?cid=0x0:0xcacb33864b79c94f";""
"supermarket";"Toko";"UD.AMIR MTH/UBAN-UBAN";"7JQW+CR, Simonis, Kec. Aek Natas, Kabupaten Labuhanbatu Utara, Sumatera Utara 21455";"Simonis, Kec. Aek Natas, Kabupaten Labuhanbatu Utara";"SUMATERA UTARA";"21455";"Indonesia";"";"";"";"2.2890462";"99.6474359";"https://maps.google.com/?cid=0x0:0xb8a55bd0585b3fdd";""
"supermarket";"Mi";"Warung "Beriman" Wak IYUS";"Komplek Perumahan Pabrik Sofindo Gg. Volly Desa Perk. Aek Pamienke Sumut 21455, Pangkalan, Kec. Aek Natas, Kabupaten Labuhanbatu Utara, Sumatera Utara 21455";"Pangkalan, Kec. Aek Natas, Kabupaten Labuhanbatu Utara";"SUMATERA UTARA";"21455";"Indonesia";" 081360403871";"";"";"2.3416094";"99.7253553";"https://maps.google.com/?cid=0x0:0x2fff4ac31b4d0466";""
"supermarket";"Pusat Perbelanjaan";"Cici mart";"8Q8C+VGJ, Padang Maninjau, Kec. Aek Kuo, Kabupaten Labuhanbatu Utara, Sumatera Utara 21455";"Padang Maninjau, Kec. Aek Kuo, Kabupaten Labuhanbatu Utara";"SUMATERA UTARA";"21455";"Indonesia";"";"";"";"2.3172141";"99.771261";"https://maps.google.com/?cid=0x0:0xd9454a3c201b4ede";""
"supermarket";"Indonesia";"Warung nasib";"9PPW+56V, Unnamed Road, Pangkalan, Aek Natas, North Labuhan Batu Regency, North Sumatra 21455";"Unnamed Road, Pangkalan, Aek Natas, North Labuhan Batu Regency";"SUMATERA UTARA";"21455";"Indonesia";"";"";"";"2.3854798";"99.7455463";"https://maps.google.com/?cid=0x0:0x3d7742141091eda4";""
"supermarket";"Toko";"Kedai Buk Ummi";"8PVF+XMC, Jl. Lintas Sumatra, Kp. Yaman, Kec. Aek Natas, Kabupaten Labuhanbatu Utara, Sumatera Utara 21455";"Jl. Lintas Sumatra, Kp. Yaman, Kec. Aek Natas, Kabupaten Labuhanbatu Utara";"SUMATERA UTARA";"21455";"Indonesia";"";"";"";"2.3449359";"99.7241449";"https://maps.google.com/?cid=0x0:0x58e9ea72d683106d";""
"supermarket";"Toko bahan makanan";"Toko Edo";"Simpang Marbau, Kec. Na IX-X, Kabupaten Labuhanbatu Utara, Sumatera Utara";"Kabupaten Labuhanbatu Utara, Sumatera Utara";"SUMATERA UTARA";"";"Indonesia";"";"";"";"2.2245452";"99.7712412";"https://maps.google.com/?cid=0x0:0xff86a3d2c1ba4566";""
"supermarket";"Toko";"ARA Mart";"8P2V+Q3J, Jl. Padang Maninjau, Pulo Jantan, Kec. Na IX-X, Kabupaten Labuhanbatu Utara, Sumatera Utara 21455";"Jl. Padang Maninjau, Pulo Jantan, Kec. Na IX-X, Kabupaten Labuhanbatu Utara";"SUMATERA UTARA";"21455";"Indonesia";"";"";"";"2.3019644";"99.7426393";"https://maps.google.com/?cid=0x0:0x4c4dc13b38d0648e";""
"supermarket";"Toko bahan makanan";"Kemenyan gum benzoin";"4G8W+42X Agus, Poldung, Kec. Aek Natas, Kabupaten Labuhanbatu Utara, Sumatera Utara 00000";"Poldung, Kec. Aek Natas, Kabupaten Labuhanbatu Utara";"SUMATERA UTARA";"00000";"Indonesia";" 085261429585";"";"";"2.1153547";"99.5450974";"https://maps.google.com/?cid=0x0:0x8a1465f93b57467c";""
"supermarket";"supermarket";"Kedai Fariz Silaen";"7PQ4+7QC DSN IV ADIAN KULIM, Jl. Simonis, Bangun Rejo, Kec. Na IX-X, Kabupaten Labuhanbatu Utara, Sumatera Utara 21455";"Jl. Simonis, Bangun Rejo, Kec. Na IX-X, Kabupaten Labuhanbatu Utara";"SUMATERA UTARA";"21455";"Indonesia";"";"";"";"2.2881792";"99.7069016";"https://maps.google.com/?cid=0x0:0xf57b91963fc4abc3";""
"supermarket";"Toko bahan makanan";"Sunshine";"Jl. Soekarno-Hatta No.16, Marbau, Kec. Marbau, Kabupaten Labuhanbatu Utara, Sumatera Utara 21452";"Marbau, Kec. Marbau, Kabupaten Labuhanbatu Utara";"SUMATERA UTARA";"21452";"Indonesia";" 081211063116";"";"";"2.2611167";"99.8245089";"https://maps.google.com/?cid=0x0:0x4b0469d384fb75b3";""
"supermarket";"Kedai Kopi";"Durian Nanjombal";"4G8W+42X, Dusun Nanjombal.Desa Tanjung Mulia.Kecamatan STTU jehe.Kabupaten Pakpak Barat Provinsi Sumatera Utara.Jln lintas Subulussalam Sidikalangi, Poldung";"Kabupaten Labuhanbatu Utara, Sumatera Utara";"SUMATERA UTARA";"";"Indonesia";"";"";"";"2.1153547";"99.5450974";"https://maps.google.com/?cid=0x0:0x7b6de9ff301a6238";""
"supermarket";"supermarket";"Sumatera Utara 21474";"Kec. Kualuh Hilir, Kabupaten Labuhanbatu Utara, Sumatera Utara";"Kabupaten Labuhanbatu Utara, Sumatera Utara";"SUMATERA UTARA";"";"Indonesia";"";"";"";"2.5204832";"100.0135929";"https://maps.google.com/?cid=0x0:0x556108f16bd7ca29";""
"supermarket";"Toko";"UD. Tani mulia";"H28R+2VG, Sungai Sentang, Kec. Kualuh Hilir, Kabupaten Labuhanbatu Utara, Sumatera Utara 21474";"Sungai Sentang, Kec. Kualuh Hilir, Kabupaten Labuhanbatu Utara";"SUMATERA UTARA";"21474";"Indonesia";"";"";"";"2.5650569";"100.0422003";"https://maps.google.com/?cid=0x0:0x4c2bab930d2e6965";""
"supermarket";"Toko umum";"Kede bang sahor.";"H26X+5WV, Unnamed Road, Sungai Sentang, Kec. Kualuh Hilir, Kabupaten Labuhanbatu Utara, Sumatera Utara 21474";"Unnamed Road, Sungai Sentang, Kec. Kualuh Hilir, Kabupaten Labuhanbatu Utara";"SUMATERA UTARA";"21474";"Indonesia";"";"";"";"2.5604759";"100.0497842";"https://maps.google.com/?cid=0x0:0x4a177ceeea1b7faa";""
"supermarket";"Toko Swalayan";"Aco";"QX3G+3RX, Jl.Ahmad Yani, Tj. Leidong, Kec. Kualuh Leidong, Kabupaten Labuhanbatu Utara, Sumatera Utara 21475";"Jl.Ahmad Yani, Tj. Leidong, Kec. Kualuh Leidong, Kabupaten Labuhanbatu Utara";"SUMATERA UTARA";"21475";"Indonesia";"";"";"";"2.7527311";"99.9771007";"https://maps.google.com/?cid=0x0:0xdc04f7e89c0282c8";""
"supermarket";"Toko Perlengkapan Rumah";"Toko Serba Ada";"Kuala Bangka, Kec. Kualuh Hilir, Kabupaten Labuhanbatu Utara, Sumatera Utara";"Kabupaten Labuhanbatu Utara, Sumatera Utara";"SUMATERA UTARA";"";"Indonesia";" 081269834354";"";"";"2.5102143";"99.9531151";"https://maps.google.com/?cid=0x0:0xd242382576e30224";""
"supermarket";"Toko bahan makanan";"Faisal";"J269+V4W, Tj. Mangedar, Kec. Kualuh Hilir, Kabupaten Labuhanbatu Utara, Sumatera Utara 21474";"Tj. Mangedar, Kec. Kualuh Hilir, Kabupaten Labuhanbatu Utara";"SUMATERA UTARA";"21474";"Indonesia";"";"";"";"2.6122253";"100.017825";"https://maps.google.com/?cid=0x0:0xab69cfd67f0c3b00";""
"supermarket";"Pasar";"Ulakjoring";"GWQM+885, Kuala Bangka, Kec. Kualuh Hilir, Kabupaten Labuhanbatu Utara, Sumatera Utara 21474";"Kuala Bangka, Kec. Kualuh Hilir, Kabupaten Labuhanbatu Utara";"SUMATERA UTARA";"21474";"Indonesia";" 081269977501";"";"";"2.538252";"99.9333698";"https://maps.google.com/?cid=0x0:0xec5cc10736f050b4";""
"supermarket";"Toko umum";"Kedai Berkah Jumsul Ahmadi";"G3W2+MG7, Kampung Mesjid, Kec. Kualuh Hilir, Kabupaten Labuhanbatu Utara, Sumatera Utara";"Kabupaten Labuhanbatu Utara, Sumatera Utara";"SUMATERA UTARA";"";"Indonesia";"";"";"";"2.5466655";"100.0513079";"https://maps.google.com/?cid=0x0:0x543f400580f7476b";""
"supermarket";"Toko umum";"Lapisan";"FXVX+V3, Sungai Sentang, Kec. Kualuh Hilir, Kabupaten Labuhanbatu Utara, Sumatera Utara";"Kabupaten Labuhanbatu Utara, Sumatera Utara";"SUMATERA UTARA";"";"Indonesia";"";"";"";"2.4946284";"99.9977276";"https://maps.google.com/?cid=0x0:0x1130f2656710b16d";""
"supermarket";"Toko umum";"Kedai Pak Hasan Biah Berkah";"H2JC+362, Unnamed Road, Sentang River, Kualuh Hilir, North Labuhan Batu Regency, North Sumatra";"Kabupaten Labuhanbatu Utara, Sumatera Utara";"SUMATERA UTARA";"";"Indonesia";"";"";"";"2.5801478";"100.0205307";"https://maps.google.com/?cid=0x0:0xff7d49d5e71bec72";""
"supermarket";"Toko bahan makanan";"Kedai juliani";"GX62+5CF, Kuala Bangka, Kec. Kualuh Hilir, Kabupaten Labuhanbatu Utara, Sumatera Utara 21474";"Kuala Bangka, Kec. Kualuh Hilir, Kabupaten Labuhanbatu Utara";"SUMATERA UTARA";"21474";"Indonesia";" 081350376010";"";"";"2.5111615";"99.9512144";"https://maps.google.com/?cid=0x0:0xa6299af4cf41721f";""
"supermarket";"Toko umum";"Warung Dewi Sundari";"Sungai Sentang, Kec. Kualuh Hilir, Kabupaten Labuhanbatu Utara, Sumatera Utara 21474";"Kec. Kualuh Hilir, Kabupaten Labuhanbatu Utara";"SUMATERA UTARA";"21474";"Indonesia";"";"";"";"2.4551544";"100.0148083";"https://maps.google.com/?cid=0x0:0xb8f1c569a9a89241";""
"supermarket";"Toko bahan makanan";"Al aqil";"GW3V+P93, Kuala Bangka, Kec. Kualuh Hilir, Kabupaten Labuhanbatu Utara, Sumatera Utara";"Kabupaten Labuhanbatu Utara, Sumatera Utara";"SUMATERA UTARA";"";"Indonesia";"";"";"";"2.5043496";"99.9435035";"https://maps.google.com/?cid=0x0:0x824ae735933eb61a";""
"supermarket";"Kedai Kopi";"Warung simbolon";"M25J+GFH, Tj. Mangedar, Kec. Kualuh Hilir, Kabupaten Labuhanbatu Utara, Sumatera Utara 21474";"Tj. Mangedar, Kec. Kualuh Hilir, Kabupaten Labuhanbatu Utara";"SUMATERA UTARA";"21474";"Indonesia";"";"";"";"2.6588125";"100.0312344";"https://maps.google.com/?cid=0x0:0x2af94eae0a13fdbd";""
"supermarket";"Minimarket";"TOKO MKR";"GX62+59Q, Kuala Bangka, Kec. Kualuh Hilir, Kabupaten Labuhanbatu Utara, Sumatera Utara";"Kabupaten Labuhanbatu Utara, Sumatera Utara";"SUMATERA UTARA";"";"Indonesia";"";"";"";"2.5104526";"99.9509884";"https://maps.google.com/?cid=0x0:0xecca801481dcdf10";""
"supermarket";"Toko";"UD MIRZA BALQIS";"Dusun selamat 45 desa, Sei Jawi Jawi, Kec. Panai Hulu, Kab. Labuhanbatu, Sumatera Utara 21474";"Sei Jawi Jawi, Kec. Panai Hulu, Kab. Labuhanbatu";"SUMATERA UTARA";"21474";"Indonesia";"";"";"";"2.4876164";"100.0458984";"https://maps.google.com/?cid=0x0:0x6dd3e9794c1d6044";""
"supermarket";"Toko Perlengkapan Rumah";"Heri tempe";"G2PX+JH, Sungai Sentang, Kec. Kualuh Hilir, Kabupaten Labuhanbatu Utara, Sumatera Utara";"Kabupaten Labuhanbatu Utara, Sumatera Utara";"SUMATERA UTARA";"";"Indonesia";"";"";"";"2.536532";"100.0489651";"https://maps.google.com/?cid=0x0:0x942810005f578167";""
"supermarket";"Minimarket";"Grosir Yatmaji";"HV59+RFG, Sonomartani, Kec. Kualuh Hulu, Kabupaten Labuhanbatu Utara, Sumatera Utara 21475";"Sonomartani, Kec. Kualuh Hulu, Kabupaten Labuhanbatu Utara";"SUMATERA UTARA";"21475";"Indonesia";" 081397809774";"";"";"2.5595613";"99.8686981";"https://maps.google.com/?cid=0x0:0x7b9c257f42401e78";""
"supermarket";"Toko";"Warung ulan sari";"H2J7+86C, Sungai Apung, Kec. Kualuh Hilir, Kabupaten Labuhanbatu Utara, Sumatera Utara 21474";"Sungai Apung, Kec. Kualuh Hilir, Kabupaten Labuhanbatu Utara";"SUMATERA UTARA";"21474";"Indonesia";"";"";"";"2.5808057";"100.0130188";"https://maps.google.com/?cid=0x0:0x92b311da1a167166";""
"supermarket";"Toko bahan makanan";"Warung Pak.Santy Sitorus";"Tanjung Gulama No.mor 5, Kuala Bangka, Kec. Kualuh Hilir, Kabupaten Labuhanbatu Utara, Sumatera Utara 21474";"Kuala Bangka, Kec. Kualuh Hilir, Kabupaten Labuhanbatu Utara";"SUMATERA UTARA";"21474";"Indonesia";" 082370666645";"";"";"2.5327485";"99.9660383";"https://maps.google.com/?cid=0x0:0x398c4a9b557df50c";""
"supermarket";"supermarket";"Sumatera Utara 21457";"Kec. Kualuh Sel., Kabupaten Labuhanbatu Utara, Sumatera Utara";"Kabupaten Labuhanbatu Utara, Sumatera Utara";"SUMATERA UTARA";"";"Indonesia";"";"";"";"2.4644513";"99.6786894";"https://maps.google.com/?cid=0x0:0xbeeda126e9c5dc9c";""
"supermarket";"Toko";"Kedai Mbak Elis";"HH84+PJ4, Perkebunan Kanopan Ulu, Kec. Kualuh Hulu, Kabupaten Labuhanbatu Utara, Sumatera Utara 21457";"Perkebunan Kanopan Ulu, Kec. Kualuh Hulu, Kabupaten Labuhanbatu Utara";"SUMATERA UTARA";"21457";"Indonesia";"";"";"";"2.5667554";"99.556593";"https://maps.google.com/?cid=0x0:0x9de52e7cd4c161ca";""
"supermarket";"Minimarket";"Lutfi Mart";"Gn. Melayu, Kec. Kualuh Sel., Kabupaten Labuhanbatu Utara, Sumatera Utara 21457";"Kec. Kualuh Sel., Kabupaten Labuhanbatu Utara";"SUMATERA UTARA";"21457";"Indonesia";" 085362218198";"";"";"2.4722986";"99.6433062";"https://maps.google.com/?cid=0x0:0xaf01d1456b4daad8";""
"supermarket";"Toko";"Toko AW";"GMH6+22Q, Gunting Saga, Kec. Kualuh Sel., Kabupaten Labuhanbatu Utara, Sumatera Utara 21457";"Gunting Saga, Kec. Kualuh Sel., Kabupaten Labuhanbatu Utara";"SUMATERA UTARA";"21457";"Indonesia";"";"";"";"2.5275874";"99.6601074";"https://maps.google.com/?cid=0x0:0xf7a02d53280a630b";""
"supermarket";"Toko bahan makanan";"kios tumbur ( dedek )";"HH89+93V, Unnamed Road, Perkebunan Kanopan Ulu, Kec. Kualuh Hulu, Kabupaten Labuhanbatu Utara, Sumatera Utara 21457";"Unnamed Road, Perkebunan Kanopan Ulu, Kec. Kualuh Hulu, Kabupaten Labuhanbatu Utara";"SUMATERA UTARA";"21457";"Indonesia";" 081269116581";"";"";"2.5659887";"99.5676813";"https://maps.google.com/?cid=0x0:0x15026790288a48cb";""
"supermarket";"Toko umum";"SRC faisal";"HP83+2CX, Jl. Abdul Wahid, Perkebunan Membang Muda, Kec. Kualuh Hulu, Kabupaten Labuhanbatu Utara, Sumatera Utara 21457";"Jl. Abdul Wahid, Perkebunan Membang Muda, Kec. Kualuh Hulu, Kabupaten Labuhanbatu Utara";"SUMATERA UTARA";"21457";"Indonesia";" 082165402693";"";"";"2.5651162";"99.7036146";"https://maps.google.com/?cid=0x0:0xeccf079d8dcbf283";""
"supermarket";"Toko bahan makanan";"SJ_Mart";"Jl. Jenderal Sudirman, Perkebunan Londut, Kec. Kualuh Hulu, Kabupaten Labuhanbatu Utara, Sumatera Utara 21273";"Perkebunan Londut, Kec. Kualuh Hulu, Kabupaten Labuhanbatu Utara";"SUMATERA UTARA";"21273";"Indonesia";" 085261381930";"";"";"2.5638777";"99.5502944";"https://maps.google.com/?cid=0x0:0x279a51857be19eb";""
"supermarket";"Toko bahan makanan";"Kios Nisa";"HH87+5VX, Pulo Dogom, Kec. Kualuh Hulu, Kabupaten Labuhanbatu Utara, Sumatera Utara 21457";"Pulo Dogom, Kec. Kualuh Hulu, Kabupaten Labuhanbatu Utara";"SUMATERA UTARA";"21457";"Indonesia";" 081360317339";"";"";"2.56549";"99.5647231";"https://maps.google.com/?cid=0x0:0xaed1e54fd4a8ddc7";""
"supermarket";"Minimarket";"Alfamidi Angkatan Aek Kanopan";"HJ9X+6G9, Jl. Angkatan, Aek Kanopan, Kec. Kualuh Hulu, Kabupaten Labuhanbatu Utara, Sumatera Utara 21273";"Jl. Angkatan, Aek Kanopan, Kec. Kualuh Hulu, Kabupaten Labuhanbatu Utara";"SUMATERA UTARA";"21273";"Indonesia";"";"";"";"2.5680259";"99.6488559";"https://maps.google.com/?cid=0x0:0xab5f943541641581";""
"supermarket";"Toko bahan makanan";"TOKO AUREL";"HJFR+77G, Aek Kanopan Tim., Kec. Kualuh Hulu, Kabupaten Labuhanbatu Utara, Sumatera Utara 21457";"Aek Kanopan Tim., Kec. Kualuh Hulu, Kabupaten Labuhanbatu Utara";"SUMATERA UTARA";"21457";"Indonesia";" 082167227703";"";"";"2.5731785";"99.6407175";"https://maps.google.com/?cid=0x0:0x7dbcd00d48a949ea";""
"supermarket";"Grosir Barang Kelontong";"GROSIR JUANDA";"Jl. Lintas Sumatra No.4, Perk. Damuli, Kec. Kualuh Sel., Kabupaten Labuhanbatu Utara, Sumatera Utara 21457";"Perk. Damuli, Kec. Kualuh Sel., Kabupaten Labuhanbatu Utara";"SUMATERA UTARA";"21457";"Indonesia";" 082273370985";"";"";"2.4776657";"99.6327366";"https://maps.google.com/?cid=0x0:0xdf0f051c2396aa7f";""
"supermarket";"Toko";"Toko Leandro Marpaung";"HM74+QHH, Aek Kanopan Tim., Kec. Kualuh Hulu, Kabupaten Labuhanbatu Utara, Sumatera Utara 21273";"Aek Kanopan Tim., Kec. Kualuh Hulu, Kabupaten Labuhanbatu Utara";"SUMATERA UTARA";"21273";"Indonesia";" 085270142700";"";"";"2.5644335";"99.6564788";"https://maps.google.com/?cid=0x0:0x4b82046d7761751";""
"supermarket";"Toko Swalayan";"Tambunan mart";"Jl.kapten jobit tanjung, Bandar Lama, Kec. Kualuh Sel., Kabupaten Labuhanbatu Utara, Sumatera Utara 21457";"Bandar Lama, Kec. Kualuh Sel., Kabupaten Labuhanbatu Utara";"SUMATERA UTARA";"21457";"Indonesia";" 082164958699";"";"";"2.5185807";"99.6003596";"https://maps.google.com/?cid=0x0:0x2bc3c97d4d1c6129";""
"supermarket";"Toko";"Toko Nek Ina";"HH8C+H7V, Perkebunan Kanopan Ulu, Kec. Kualuh Hulu, Kabupaten Labuhanbatu Utara, Sumatera Utara 21457";"Perkebunan Kanopan Ulu, Kec. Kualuh Hulu, Kabupaten Labuhanbatu Utara";"SUMATERA UTARA";"21457";"Indonesia";"";"";"";"2.5664787";"99.5706636";"https://maps.google.com/?cid=0x0:0x1ed13d241a90a127";""
"supermarket";"Kedai Pernak-pernik";"Kedai wak bandung";"FMC2+8P, Gn. Melayu, Kec. Kualuh Sel., Kabupaten Labuhanbatu Utara, Sumatera Utara";"Kabupaten Labuhanbatu Utara, Sumatera Utara";"SUMATERA UTARA";"";"Indonesia";"";"";"";"2.470815";"99.6518483";"https://maps.google.com/?cid=0x0:0xa77612ba7d65b5d6";""
"supermarket";"Toko bahan makanan";"Warung Irma";"HP66+C5J, Perkebunan Labuhan H., Kec. Kualuh Hulu, Kabupaten Labuhanbatu Utara, Sumatera Utara 21457";"Perkebunan Labuhan H., Kec. Kualuh Hulu, Kabupaten Labuhanbatu Utara";"SUMATERA UTARA";"21457";"Indonesia";"";"";"";"2.5610778";"99.7103936";"https://maps.google.com/?cid=0x0:0xa264eee3aa7e1d92";""
"supermarket";"Minimarket";"Indomaret Sudirman";"Jl. Jenderal Sudirman No.340, Aek Kanopan Tim., Kec. Kualuh Hulu, Kabupaten Labuhanbatu Utara, Sumatera Utara 21457";"Aek Kanopan Tim., Kec. Kualuh Hulu, Kabupaten Labuhanbatu Utara";"SUMATERA UTARA";"21457";"Indonesia";" 08116004496";"";"";"2.5758709";"99.6527032";"https://maps.google.com/?cid=0x0:0x9435d5160ef2a443";""
"supermarket";"Minimarket";"Toko Rini Sinaga";"Jl. Lintas Sumatra No.4c, Perk. Damuli, Kec. Kualuh Sel., Kabupaten Labuhanbatu Utara, Sumatera Utara 21457";"Perk. Damuli, Kec. Kualuh Sel., Kabupaten Labuhanbatu Utara";"SUMATERA UTARA";"21457";"Indonesia";"";"";"";"2.4762039";"99.6359395";"https://maps.google.com/?cid=0x0:0x1db6ee8deb88bd8d";""
"supermarket";"Toko Kelontong Asia";"Toko sembako Abucek";"HMJ3+5C4, Jl. Sukarame, Aek Kanopan Tim., Kec. Kualuh Hulu, Kabupaten Labuhanbatu Utara, Sumatera Utara 21273";"Jl. Sukarame, Aek Kanopan Tim., Kec. Kualuh Hulu, Kabupaten Labuhanbatu Utara";"SUMATERA UTARA";"21273";"Indonesia";"";"";"";"2.5803905";"99.6535912";"https://maps.google.com/?cid=0x0:0xc5ff32aaa14e3a58";""
"supermarket";"Pemasok Pupuk";"UD Deny Tani";"FJXG+CQR, Unnamed Road, Damuli Pekan, Kec. Kualuh Sel., Kabupaten Labuhanbatu Utara, Sumatera Utara 21457";"Unnamed Road, Damuli Pekan, Kec. Kualuh Sel., Kabupaten Labuhanbatu Utara";"SUMATERA UTARA";"21457";"Indonesia";"";"";"";"2.4986088";"99.6268936";"https://maps.google.com/?cid=0x0:0xd1c05754e5e44531";""
"supermarket";"Minimarket";"Kios Pak Dram";"HG7F+84H, Perkebunan Londut, Kec. Kualuh Hulu, Kabupaten Labuhanbatu Utara, Sumatera Utara 21457";"Perkebunan Londut, Kec. Kualuh Hulu, Kabupaten Labuhanbatu Utara";"SUMATERA UTARA";"21457";"Indonesia";" 081264506776";"";"";"2.5633154";"99.5228528";"https://maps.google.com/?cid=0x0:0x8bd08bda5f9ac9a2";""
"supermarket";"Pusat Perbelanjaan";"UD. Putra Tunggal";"HH72+P8J, Unnamed Road, Perkebunan Londut, Kec. Kualuh Hulu, Kabupaten Labuhanbatu Utara, Sumatera Utara 21457";"Unnamed Road, Perkebunan Londut, Kec. Kualuh Hulu, Kabupaten Labuhanbatu Utara";"SUMATERA UTARA";"21457";"Indonesia";" 085377646999";"";"";"2.5643422";"99.5507775";"https://maps.google.com/?cid=0x0:0xfe073723ca39ce1b";""
"supermarket";"Toko bahan makanan";"Indomaret Damuli Kebun";"Jl. Lintas Sumatra No.4c, Perk. Damuli, Kec. Kualuh Sel., Kabupaten Labuhanbatu Utara, Sumatera Utara 21457";"Perk. Damuli, Kec. Kualuh Sel., Kabupaten Labuhanbatu Utara";"SUMATERA UTARA";"21457";"Indonesia";"";"";"";"2.4768546";"99.6347621";"https://maps.google.com/?cid=0x0:0x2282c31664411b85";""
"supermarket";"Toko bahan makanan";"UD.Kios Wartono";"Dusun 1 Kampung Jawa, Pulo Dogom, Kec. Kualuh Hulu, Kabupaten Labuhanbatu Utara, Sumatera Utara 21457";"Pulo Dogom, Kec. Kualuh Hulu, Kabupaten Labuhanbatu Utara";"SUMATERA UTARA";"21457";"Indonesia";"";"";"";"2.5679273";"99.5586399";"https://maps.google.com/?cid=0x0:0x4d18749d64aade96";""
"supermarket";"Toko Swalayan";"Aco";"QX3G+3RX, Jl.Ahmad Yani, Tj. Leidong, Kec. Kualuh Leidong, Kabupaten Labuhanbatu Utara, Sumatera Utara 21475";"Jl.Ahmad Yani, Tj. Leidong, Kec. Kualuh Leidong, Kabupaten Labuhanbatu Utara";"SUMATERA UTARA";"21475";"Indonesia";"";"";"";"2.7527311";"99.9771007";"https://maps.google.com/?cid=0x0:0xdc04f7e89c0282c8";""
"supermarket";"Toko bahan makanan";"Kedai Klontong Wak Ulis";"QX4J+766, Tj. Leidong, Kec. Kualuh Leidong, Kabupaten Labuhanbatu Utara, Sumatera Utara 21475";"Tj. Leidong, Kec. Kualuh Leidong, Kabupaten Labuhanbatu Utara";"SUMATERA UTARA";"21475";"Indonesia";" 085206010134";"";"";"2.7556625";"99.9805014";"https://maps.google.com/?cid=0x0:0x48b303ac0fda65a1";""
"supermarket";"supermarket";"Sumatera Utara 21475";"Kabupaten Labuhanbatu Utara, Sumatera Utara";"Kabupaten Labuhanbatu Utara, Sumatera Utara";"SUMATERA UTARA";"";"Indonesia";"";"";"";"2.6776582";"99.9241575";"https://maps.google.com/?cid=0x0:0x4167985b8fd2cef8";""
"supermarket";"supermarket";"Sumatera Utara 21457";"Kec. Kualuh Sel., Kabupaten Labuhanbatu Utara, Sumatera Utara";"Kabupaten Labuhanbatu Utara, Sumatera Utara";"SUMATERA UTARA";"";"Indonesia";"";"";"";"2.4644513";"99.6786894";"https://maps.google.com/?cid=0x0:0xbeeda126e9c5dc9c";""
"supermarket";"Minimarket";"Lutfi Mart";"Gn. Melayu, Kec. Kualuh Sel., Kabupaten Labuhanbatu Utara, Sumatera Utara 21457";"Kec. Kualuh Sel., Kabupaten Labuhanbatu Utara";"SUMATERA UTARA";"21457";"Indonesia";" 085362218198";"";"";"2.4722986";"99.6433062";"https://maps.google.com/?cid=0x0:0xaf01d1456b4daad8";""
"supermarket";"Toko";"Kedai Mbak Elis";"HH84+PJ4, Perkebunan Kanopan Ulu, Kec. Kualuh Hulu, Kabupaten Labuhanbatu Utara, Sumatera Utara 21457";"Perkebunan Kanopan Ulu, Kec. Kualuh Hulu, Kabupaten Labuhanbatu Utara";"SUMATERA UTARA";"21457";"Indonesia";"";"";"";"2.5667554";"99.556593";"https://maps.google.com/?cid=0x0:0x9de52e7cd4c161ca";""
"supermarket";"Grosir Barang Kelontong";"GROSIR JUANDA";"Jl. Lintas Sumatra No.4, Perk. Damuli, Kec. Kualuh Sel., Kabupaten Labuhanbatu Utara, Sumatera Utara 21457";"Perk. Damuli, Kec. Kualuh Sel., Kabupaten Labuhanbatu Utara";"SUMATERA UTARA";"21457";"Indonesia";" 082273370985";"";"";"2.4776657";"99.6327366";"https://maps.google.com/?cid=0x0:0xdf0f051c2396aa7f";""
"supermarket";"Toko bahan makanan";"SJ_Mart";"Jl. Jenderal Sudirman, Perkebunan Londut, Kec. Kualuh Hulu, Kabupaten Labuhanbatu Utara, Sumatera Utara 21273";"Perkebunan Londut, Kec. Kualuh Hulu, Kabupaten Labuhanbatu Utara";"SUMATERA UTARA";"21273";"Indonesia";" 085261381930";"";"";"2.5638777";"99.5502944";"https://maps.google.com/?cid=0x0:0x279a51857be19eb";""
"supermarket";"Toko umum";"SRC faisal";"HP83+2CX, Jl. Abdul Wahid, Perkebunan Membang Muda, Kec. Kualuh Hulu, Kabupaten Labuhanbatu Utara, Sumatera Utara 21457";"Jl. Abdul Wahid, Perkebunan Membang Muda, Kec. Kualuh Hulu, Kabupaten Labuhanbatu Utara";"SUMATERA UTARA";"21457";"Indonesia";" 082165402693";"";"";"2.5651162";"99.7036146";"https://maps.google.com/?cid=0x0:0xeccf079d8dcbf283";""
"supermarket";"Kedai Pernak-pernik";"Kedai wak bandung";"FMC2+8P, Gn. Melayu, Kec. Kualuh Sel., Kabupaten Labuhanbatu Utara, Sumatera Utara";"Kabupaten Labuhanbatu Utara, Sumatera Utara";"SUMATERA UTARA";"";"Indonesia";"";"";"";"2.470815";"99.6518483";"https://maps.google.com/?cid=0x0:0xa77612ba7d65b5d6";""
"supermarket";"Toko bahan makanan";"Kios Nisa";"HH87+5VX, Pulo Dogom, Kec. Kualuh Hulu, Kabupaten Labuhanbatu Utara, Sumatera Utara 21457";"Pulo Dogom, Kec. Kualuh Hulu, Kabupaten Labuhanbatu Utara";"SUMATERA UTARA";"21457";"Indonesia";" 081360317339";"";"";"2.56549";"99.5647231";"https://maps.google.com/?cid=0x0:0xaed1e54fd4a8ddc7";""
"supermarket";"Minimarket";"Alfamidi Aek Kanopan Timur";"HMG3+Q5V, Jl. Jenderal Sudirman, Aek Kanopan Tim., Kec. Kualuh Hulu, Kabupaten Labuhanbatu Utara, Sumatera Utara 21273";"Jl. Jenderal Sudirman, Aek Kanopan Tim., Kec. Kualuh Hulu, Kabupaten Labuhanbatu Utara";"SUMATERA UTARA";"21273";"Indonesia";" 081243875215";"";"";"2.576994";"99.6529148";"https://maps.google.com/?cid=0x0:0x41c8a802c3a12043";""
"supermarket";"Toko Swalayan";"UD Tani Jaya";"CMV5+P96, Siamporik, Kec. Kualuh Sel., Kabupaten Labuhanbatu Utara, Sumatera Utara 21457";"Siamporik, Kec. Kualuh Sel., Kabupaten Labuhanbatu Utara";"SUMATERA UTARA";"21457";"Indonesia";"";"";"";"2.444292";"99.6583814";"https://maps.google.com/?cid=0x0:0x227a9bb798a16c9f";""
"supermarket";"Toko Kelontong Asia";"Kedai Risdan Sitorus";"GM78+4CW, Unnamed Road, Gunting Saga, Kec. Kualuh Sel., Kabupaten Labuhanbatu Utara, Sumatera Utara 21457";"Unnamed Road, Gunting Saga, Kec. Kualuh Sel., Kabupaten Labuhanbatu Utara";"SUMATERA UTARA";"21457";"Indonesia";" 085206047594";"";"";"2.5128746";"99.6660888";"https://maps.google.com/?cid=0x0:0x31e6f697be83f2e9";""
"supermarket";"Minimarket";"Alfamidi Angkatan Aek Kanopan";"HJ9X+6G9, Jl. Angkatan, Aek Kanopan, Kec. Kualuh Hulu, Kabupaten Labuhanbatu Utara, Sumatera Utara 21273";"Jl. Angkatan, Aek Kanopan, Kec. Kualuh Hulu, Kabupaten Labuhanbatu Utara";"SUMATERA UTARA";"21273";"Indonesia";"";"";"";"2.5680259";"99.6488559";"https://maps.google.com/?cid=0x0:0xab5f943541641581";""
"supermarket";"Pemasok Pupuk";"UD Deny Tani";"FJXG+CQR, Unnamed Road, Damuli Pekan, Kec. Kualuh Sel., Kabupaten Labuhanbatu Utara, Sumatera Utara 21457";"Unnamed Road, Damuli Pekan, Kec. Kualuh Sel., Kabupaten Labuhanbatu Utara";"SUMATERA UTARA";"21457";"Indonesia";"";"";"";"2.4986088";"99.6268936";"https://maps.google.com/?cid=0x0:0xd1c05754e5e44531";""
"supermarket";"Toko";"Toko Leandro Marpaung";"HM74+QHH, Aek Kanopan Tim., Kec. Kualuh Hulu, Kabupaten Labuhanbatu Utara, Sumatera Utara 21273";"Aek Kanopan Tim., Kec. Kualuh Hulu, Kabupaten Labuhanbatu Utara";"SUMATERA UTARA";"21273";"Indonesia";" 085270142700";"";"";"2.5644335";"99.6564788";"https://maps.google.com/?cid=0x0:0x4b82046d7761751";""
"supermarket";"Toko Perlengkapan Rumah";"Toko DianNst";"FJXQ+HV8, Simp.siranggong, Damuli Pekan, Kec. Kualuh Sel., Kabupaten Labuhanbatu Utara, Sumatera Utara 21457";"Simp.siranggong, Damuli Pekan, Kec. Kualuh Sel., Kabupaten Labuhanbatu Utara";"SUMATERA UTARA";"21457";"Indonesia";" 082364505010";"";"";"2.4989068";"99.639703";"https://maps.google.com/?cid=0x0:0x1039f30bb8206986";""
"supermarket";"Toko Kelontong Asia";"Toko sembako Abucek";"HMJ3+5C4, Jl. Sukarame, Aek Kanopan Tim., Kec. Kualuh Hulu, Kabupaten Labuhanbatu Utara, Sumatera Utara 21273";"Jl. Sukarame, Aek Kanopan Tim., Kec. Kualuh Hulu, Kabupaten Labuhanbatu Utara";"SUMATERA UTARA";"21273";"Indonesia";"";"";"";"2.5803905";"99.6535912";"https://maps.google.com/?cid=0x0:0xc5ff32aaa14e3a58";""
"supermarket";"Toko bahan makanan";"Kedai sembako Wak herman";"HP83+2CX, Jl. Abdul Wahid, Perkebunan Membang Muda, Kec. Kualuh Hulu, Kabupaten Labuhanbatu Utara, Sumatera Utara 21457";"Jl. Abdul Wahid, Perkebunan Membang Muda, Kec. Kualuh Hulu, Kabupaten Labuhanbatu Utara";"SUMATERA UTARA";"21457";"Indonesia";"";"";"";"2.5646248";"99.7040834";"https://maps.google.com/?cid=0x0:0x47f48c9dfa1a011";""
"supermarket";"Toko";"Kedai PAK IWAN";"HJCR+25X, Unnamed Road, Aek Kanopan, Kec. Kualuh Hulu, Kabupaten Labuhanbatu Utara, Sumatera Utara 21273";"Unnamed Road, Aek Kanopan, Kec. Kualuh Hulu, Kabupaten Labuhanbatu Utara";"SUMATERA UTARA";"21273";"Indonesia";" 082246443830";"";"";"2.5701138";"99.6404828";"https://maps.google.com/?cid=0x0:0x3f7eff5982f1311f";""
"supermarket";"Kios";"Kios Bg Darwis";"GMPX+9P2, Simpang Desa Kp Banjar, Jl. Raya Kp. Besar, Tj. Pasir, Kec. Kualuh Sel., Kabupaten Labuhanbatu Utara, Sumatera Utara 21457";"Simpang Desa Kp Banjar, Jl. Raya Kp. Besar, Tj. Pasir, Kec. Kualuh Sel., Kabupaten Labuhanbatu Utara";"SUMATERA UTARA";"21457";"Indonesia";"";"";"";"2.5358912";"99.6992731";"https://maps.google.com/?cid=0x0:0xfdcc5fe832526c7d";""
"supermarket";"Toko Swalayan";"DEN Market";"Aek Bange, Kec. Aek Ledong, Kabupaten Asahan, Sumatera Utara 21273";"Kec. Aek Ledong, Kabupaten Asahan";"SUMATERA UTARA";"21273";"Indonesia";" 082168292138";"";"";"2.5990466";"99.5657239";"https://maps.google.com/?cid=0x0:0xef577923a7837fb3";""
"supermarket";"Toko Swalayan";"Tambunan mart";"Jl.kapten jobit tanjung, Bandar Lama, Kec. Kualuh Sel., Kabupaten Labuhanbatu Utara, Sumatera Utara 21457";"Bandar Lama, Kec. Kualuh Sel., Kabupaten Labuhanbatu Utara";"SUMATERA UTARA";"21457";"Indonesia";" 082164958699";"";"";"2.5185807";"99.6003596";"https://maps.google.com/?cid=0x0:0x2bc3c97d4d1c6129";""
"supermarket";"Toko bahan makanan";"kios tumbur ( dedek )";"HH89+93V, Unnamed Road, Perkebunan Kanopan Ulu, Kec. Kualuh Hulu, Kabupaten Labuhanbatu Utara, Sumatera Utara 21457";"Unnamed Road, Perkebunan Kanopan Ulu, Kec. Kualuh Hulu, Kabupaten Labuhanbatu Utara";"SUMATERA UTARA";"21457";"Indonesia";" 081269116581";"";"";"2.5659887";"99.5676813";"https://maps.google.com/?cid=0x0:0x15026790288a48cb";""
"supermarket";"Minimarket";"Toko Rini Sinaga";"Jl. Lintas Sumatra No.4c, Perk. Damuli, Kec. Kualuh Sel., Kabupaten Labuhanbatu Utara, Sumatera Utara 21457";"Perk. Damuli, Kec. Kualuh Sel., Kabupaten Labuhanbatu Utara";"SUMATERA UTARA";"21457";"Indonesia";"";"";"";"2.4762039";"99.6359395";"https://maps.google.com/?cid=0x0:0x1db6ee8deb88bd8d";""
"supermarket";"Toko bahan makanan";"TOKO AUREL";"HJFR+77G, Aek Kanopan Tim., Kec. Kualuh Hulu, Kabupaten Labuhanbatu Utara, Sumatera Utara 21457";"Aek Kanopan Tim., Kec. Kualuh Hulu, Kabupaten Labuhanbatu Utara";"SUMATERA UTARA";"21457";"Indonesia";" 082167227703";"";"";"2.5731785";"99.6407175";"https://maps.google.com/?cid=0x0:0x7dbcd00d48a949ea";""
"supermarket";"Toko bahan makanan";"Indomaret Damuli Kebun";"Jl. Lintas Sumatra No.4c, Perk. Damuli, Kec. Kualuh Sel., Kabupaten Labuhanbatu Utara, Sumatera Utara 21457";"Perk. Damuli, Kec. Kualuh Sel., Kabupaten Labuhanbatu Utara";"SUMATERA UTARA";"21457";"Indonesia";"";"";"";"2.4768546";"99.6347621";"https://maps.google.com/?cid=0x0:0x2282c31664411b85";""
"supermarket";"Minimarket";"Kios DIVA";"Dusun 1A, Perk. Damuli, Kec. Kualuh Sel., Kabupaten Labuhanbatu Utara, Sumatera Utara 21457";"Perk. Damuli, Kec. Kualuh Sel., Kabupaten Labuhanbatu Utara";"SUMATERA UTARA";"21457";"Indonesia";"";"";"";"2.4935271";"99.5924639";"https://maps.google.com/?cid=0x0:0xf7de8c070ab5d28a";""
"supermarket";"Minimarket";"Indomaret | Marbau";"7R6H+P9Q, Jl. Besar, Marbau, Kec. Marbau, Kabupaten Labuhanbatu Utara, Sumatera Utara 21452";"Jl. Besar, Marbau, Kec. Marbau, Kabupaten Labuhanbatu Utara";"SUMATERA UTARA";"21452";"Indonesia";" 082167462574";"";"";"2.2618264";"99.8284896";"https://maps.google.com/?cid=0x0:0x88d3a64cd043df48";""
"supermarket";"Toko bahan makanan";"Sunshine";"Jl. Soekarno-Hatta No.16, Marbau, Kec. Marbau, Kabupaten Labuhanbatu Utara, Sumatera Utara 21452";"Marbau, Kec. Marbau, Kabupaten Labuhanbatu Utara";"SUMATERA UTARA";"21452";"Indonesia";" 081211063116";"";"";"2.2611167";"99.8245089";"https://maps.google.com/?cid=0x0:0x4b0469d384fb75b3";""
"supermarket";"";"Marbau";"7RCR+4HC, Perkebunan Brussel, Kec. Marbau, Kabupaten Labuhanbatu Utara, Sumatera Utara 21452";"Perkebunan Brussel, Kec. Marbau, Kabupaten Labuhanbatu Utara";"SUMATERA UTARA";"21452";"Indonesia";"";"";"";"2.2703137";"99.8413885";"https://maps.google.com/?cid=0x0:0xeec180ae3bd13df";""
"supermarket";"Toko Perlengkapan Rumah";"HJ.WADIMEN";"6VH4+VV6, Lobu Rampah, Kec. Marbau, Kabupaten Labuhanbatu Utara, Sumatera Utara 21452";"Lobu Rampah, Kec. Marbau, Kabupaten Labuhanbatu Utara";"SUMATERA UTARA";"21452";"Indonesia";"";"";"";"2.2296655";"99.8571416";"https://maps.google.com/?cid=0x0:0x2258b45568cfca35";""
"supermarket";"Toko bahan makanan";"Toko 21";"7R74+35V, Jl. Sisingamangaraja, Perkebunan Brussel, Kec. Marbau, Kabupaten Labuhanbatu Utara, Sumatera Utara 21452";"Jl. Sisingamangaraja, Perkebunan Brussel, Kec. Marbau, Kabupaten Labuhanbatu Utara";"SUMATERA UTARA";"21452";"Indonesia";"";"";"";"2.2627446";"99.8054144";"https://maps.google.com/?cid=0x0:0x9d001493ec278c70";""
"supermarket";"Toko";"Kedai Beni";"Bulungihit, Kec. Marbau, Kabupaten Labuhanbatu Utara, Sumatera Utara 21452";"Kec. Marbau, Kabupaten Labuhanbatu Utara";"SUMATERA UTARA";"21452";"Indonesia";" 081397527241";"";"";"2.2667448";"99.8823068";"https://maps.google.com/?cid=0x0:0x8ab840629372d4b0";""
"supermarket";"Toko umum";"BranMart";"Aek Hitetoras, Kec. Marbau, Kabupaten Labuhanbatu Utara, Sumatera Utara 21455";"Kec. Marbau, Kabupaten Labuhanbatu Utara";"SUMATERA UTARA";"21455";"Indonesia";"";"";"";"2.3063121";"99.8744009";"https://maps.google.com/?cid=0x0:0xd6c3fa77b6257592";""
"supermarket";"Toko bahan makanan";"Kedai naura";"Lobu Rampah, Kec. Marbau, Kabupaten Labuhanbatu Utara, Sumatera Utara 21452";"Kec. Marbau, Kabupaten Labuhanbatu Utara";"SUMATERA UTARA";"21452";"Indonesia";"";"";"";"2.2296655";"99.8571416";"https://maps.google.com/?cid=0x0:0x27843ded045a688a";""
"supermarket";"Toko Swalayan";"Kedai Tambah Dan Butet";"7V7H+Q8X, Belongkut, Kec. Marbau, Kabupaten Labuhanbatu Utara, Sumatera Utara 21452";"Belongkut, Kec. Marbau, Kabupaten Labuhanbatu Utara";"SUMATERA UTARA";"21452";"Indonesia";"";"";"";"2.2644911";"99.8783709";"https://maps.google.com/?cid=0x0:0x96bcbbe5d269c3bf";""
"supermarket";"Toko Swalayan";"Kedai Buk evi";"6V78+MVH, Unnamed Road, Perkebunan Milano, Kec. Marbau, Kabupaten Labuhanbatu Utara, Sumatera Utara 21452";"Unnamed Road, Perkebunan Milano, Kec. Marbau, Kabupaten Labuhanbatu Utara";"SUMATERA UTARA";"21452";"Indonesia";"";"";"";"2.2141822";"99.8672482";"https://maps.google.com/?cid=0x0:0xf308c1e591bc77d5";""
"supermarket";"supermarket";"Sumatera Utara 21452";"Kabupaten Labuhanbatu Utara, Sumatera Utara";"Kabupaten Labuhanbatu Utara, Sumatera Utara";"SUMATERA UTARA";"";"Indonesia";"";"";"";"2.2296655";"99.8571416";"https://maps.google.com/?cid=0x0:0x1ac7ea716a32cbd4";""
"supermarket";"Penyedia Layanan Internet";"ALYA VOUCHER at Simpang Empat, Marbau";"7RCV+63G, Perkebunan Brussel, Kec. Marbau, Kabupaten Labuhanbatu Utara, Sumatera Utara 21452";"Perkebunan Brussel, Kec. Marbau, Kabupaten Labuhanbatu Utara";"SUMATERA UTARA";"21452";"Indonesia";"";"";"";"2.2705563";"99.8426942";"https://maps.google.com/?cid=0x0:0xac62478f325748da";""
"supermarket";"Toko bahan makanan";"Toko Edo";"Simpang Marbau, Kec. Na IX-X, Kabupaten Labuhanbatu Utara, Sumatera Utara";"Kabupaten Labuhanbatu Utara, Sumatera Utara";"SUMATERA UTARA";"";"Indonesia";"";"";"";"2.2245452";"99.7712412";"https://maps.google.com/?cid=0x0:0xff86a3d2c1ba4566";""
"supermarket";"Toko bahan makanan";"UD. INDAH SAGALA";"7R7H+3H2, Jl. Besar, Marbau, Kec. Marbau, Kabupaten Labuhanbatu Utara, Sumatera Utara 21452";"Jl. Besar, Marbau, Kec. Marbau, Kabupaten Labuhanbatu Utara";"SUMATERA UTARA";"21452";"Indonesia";" 081375566612";"";"";"2.2626413";"99.8289036";"https://maps.google.com/?cid=0x0:0x4f59dc0b89896331";""
"supermarket";"Toko Perlengkapan Rumah";"ADI PONSEL";"6V3X+59W, Jl. Pulo Padang - Marbau, Sumber Mulyo, Kec. Marbau, Kab. Labuhanbatu, Sumatera Utara 21452";"Jl. Pulo Padang - Marbau, Sumber Mulyo, Kec. Marbau, Kab. Labuhanbatu";"SUMATERA UTARA";"21452";"Indonesia";" 085270859111";"";"";"2.2029822";"99.8984533";"https://maps.google.com/?cid=0x0:0xde117717042a9165";""
"supermarket";"Toko";"Langit jaya";"Jl. Besar Pekan, Marbau, Kec. Marbau, Kabupaten Labuhanbatu Utara, Sumatera Utara 21452";"Marbau, Kec. Marbau, Kabupaten Labuhanbatu Utara";"SUMATERA UTARA";"21452";"Indonesia";" 082162902022";"";"";"2.2621253";"99.8291886";"https://maps.google.com/?cid=0x0:0xfc32cda561b9ac04";""
"supermarket";"Toko bahan makanan";"Ud. Fuji";"7R7J+C3H, Marbau, Kec. Marbau, Kabupaten Labuhanbatu Utara, Sumatera Utara 21452";"Marbau, Kec. Marbau, Kabupaten Labuhanbatu Utara";"SUMATERA UTARA";"21452";"Indonesia";" 082167462574";"";"";"2.2635644";"99.8302319";"https://maps.google.com/?cid=0x0:0xa48351b413cbb3a0";""
"supermarket";"Toko Swalayan";"Kedei Indri";"6W55+J36, Sumber Mulyo, Kec. Marbau, Kabupaten Labuhanbatu Utara, Sumatera Utara 21452";"Sumber Mulyo, Kec. Marbau, Kabupaten Labuhanbatu Utara";"SUMATERA UTARA";"21452";"Indonesia";"";"";"";"2.2090322";"99.9076261";"https://maps.google.com/?cid=0x0:0xa67008c742bca532";""
"supermarket";"Kantor Perusahaan";"Pt perkebunan milano afd 2";"6V78+MW9, Unnamed Road, Perkebunan Milano, Kec. Marbau, Kabupaten Labuhanbatu Utara, Sumatera Utara 21452";"Unnamed Road, Perkebunan Milano, Kec. Marbau, Kabupaten Labuhanbatu Utara";"SUMATERA UTARA";"21452";"Indonesia";"";"";"";"2.214159";"99.867347";"https://maps.google.com/?cid=0x0:0xc186d6a83026a15";""
"supermarket";"Minimarket";"Indomaret Spbu Sungai Raja";"6Q3C+PPP, Simpang Marbau, Kec. Na IX-X, Kabupaten Labuhanbatu Utara, Sumatera Utara 21452";"Simpang Marbau, Kec. Na IX-X, Kabupaten Labuhanbatu Utara";"SUMATERA UTARA";"21452";"Indonesia";" 08116004502";"";"";"2.204331";"99.7718379";"https://maps.google.com/?cid=0x0:0xd9ff7963eaa67b06";""
"supermarket";"supermarket";"Sumatera Utara 21454";"Kec. Na IX-X, Kabupaten Labuhanbatu Utara, Sumatera Utara";"Kabupaten Labuhanbatu Utara, Sumatera Utara";"SUMATERA UTARA";"";"Indonesia";"";"";"";"2.1532664";"99.6786894";"https://maps.google.com/?cid=0x0:0xa1d048494249269a";""
"supermarket";"Toko bahan makanan";"Kedai Bang Mulyadi Hasibuan";"3JPV+QV6, Pematang, Kec. Na IX-X, Kabupaten Labuhanbatu Utara, Sumatera Utara 21454";"Pematang, Kec. Na IX-X, Kabupaten Labuhanbatu Utara";"SUMATERA UTARA";"21454";"Indonesia";" 082360920102";"";"";"2.086923";"99.644653";"https://maps.google.com/?cid=0x0:0xeb8b554a81c7746b";""
"supermarket";"Pusat Perbelanjaan";"ALFAMIDI KAMPUNG PAJAK";"7PXR+PMX, Jl. Lintas Sumatra, Pulo Jantan, Kec. Na IX-X, Kabupaten Labuhanbatu Utara, Sumatera Utara 21455";"Jl. Lintas Sumatra, Pulo Jantan, Kec. Na IX-X, Kabupaten Labuhanbatu Utara";"SUMATERA UTARA";"21455";"Indonesia";" 081584472102";"";"";"2.2993594";"99.7417464";"https://maps.google.com/?cid=0x0:0xc8786263d8d370d1";""
"supermarket";"Toko";"SAHATMA JAYA PLASTIK";"8P3R+886, Kp. Pajak, Kec. Na IX-X, Kabupaten Labuhanbatu Utara, Sumatera Utara 21455";"Kp. Pajak, Kec. Na IX-X, Kabupaten Labuhanbatu Utara";"SUMATERA UTARA";"21455";"Indonesia";" 082165728087";"";"";"2.3032959";"99.7407676";"https://maps.google.com/?cid=0x0:0x11f5d555133edfe";""
"supermarket";"Toko umum";"Ridho Munthe";"7M83+9JG, Unnamed Road, Meranti Omas, Kec. Na IX-X, Kabupaten Labuhanbatu Utara, Sumatera Utara 21455";"Unnamed Road, Meranti Omas, Kec. Na IX-X, Kabupaten Labuhanbatu Utara";"SUMATERA UTARA";"21455";"Indonesia";" 081264458509";"";"";"2.2659282";"99.6540761";"https://maps.google.com/?cid=0x0:0x2f8e3d869cedc0be";""
"supermarket";"supermarket";"Sumatra Utara";"4G8W+42X, Poldung, Kec. Aek Natas, Kabupaten Labuhanbatu Utara, Sumatera Utara";"Kabupaten Labuhanbatu Utara, Sumatera Utara";"SUMATERA UTARA";"";"Indonesia";"";"";"";"2.1153547";"99.5450974";"https://maps.google.com/?cid=0x0:0x248b37ed01e59dc1";""
"supermarket";"Pusat Perbelanjaan";"UD. Yusuf hasibuan";"7Q98+2HW PT.kapuas, Jl. Lintas Sumatra, Kp. Pajak, Kec. Na IX-X, Kabupaten Labuhanbatu Utara, Sumatera Utara 21452";"Jl. Lintas Sumatra, Kp. Pajak, Kec. Na IX-X, Kabupaten Labuhanbatu Utara";"SUMATERA UTARA";"21452";"Indonesia";"";"";"";"2.2676001";"99.7664628";"https://maps.google.com/?cid=0x0:0x2a58cd29d627c6b1";""
"supermarket";"Grosir";"RAZEEQ JAYA";"8P2R+5F4, Kp. Pajak, Kec. Na IX-X, Kabupaten Labuhanbatu Utara, Sumatera Utara";"Kabupaten Labuhanbatu Utara, Sumatera Utara";"SUMATERA UTARA";"";"Indonesia";"";"";"";"2.3003764";"99.7412166";"https://maps.google.com/?cid=0x0:0x69f3d9b56a669978";""
"supermarket";"Toko bahan makanan";"Indomaret Kp Pajak";"8P2R+5HW, Kp. Pajak, Kec. Na IX-X, Kabupaten Labuhanbatu Utara, Sumatera Utara 21455";"Kp. Pajak, Kec. Na IX-X, Kabupaten Labuhanbatu Utara";"SUMATERA UTARA";"21455";"Indonesia";"";"";"";"2.3004987";"99.7414628";"https://maps.google.com/?cid=0x0:0x78d7aaccdf1ed924";""
"supermarket";"Toko";"ARA Mart";"8P2V+Q3J, Jl. Padang Maninjau, Pulo Jantan, Kec. Na IX-X, Kabupaten Labuhanbatu Utara, Sumatera Utara 21455";"Jl. Padang Maninjau, Pulo Jantan, Kec. Na IX-X, Kabupaten Labuhanbatu Utara";"SUMATERA UTARA";"21455";"Indonesia";"";"";"";"2.3019644";"99.7426393";"https://maps.google.com/?cid=0x0:0x4c4dc13b38d0648e";""
"supermarket";"Toko";"Kedai wijaya";"5PHV+R42, Pasang Lela, Kec. Na IX-X, Kabupaten Labuhanbatu Utara, Sumatera Utara 21454";"Pasang Lela, Kec. Na IX-X, Kabupaten Labuhanbatu Utara";"SUMATERA UTARA";"21454";"Indonesia";"";"";"";"2.1795071";"99.7427775";"https://maps.google.com/?cid=0x0:0x18df7659b2d5950f";""
"supermarket";"Toko bahan makanan";"INDOMARET";"7QJ6+2CH, Aek Kota Batu, Kec. Na IX-X, Kabupaten Labuhanbatu Utara, Sumatera Utara 21452";"Aek Kota Batu, Kec. Na IX-X, Kabupaten Labuhanbatu Utara";"SUMATERA UTARA";"21452";"Indonesia";"";"";"";"2.2800735";"99.7611198";"https://maps.google.com/?cid=0x0:0xcacb33864b79c94f";""
"supermarket";"Minimarket";"KEDAI NANO";"7Q6C+8V9, Simpang Empat, Kec. Na IX-X, Kabupaten Labuhanbatu Utara, Sumatera Utara 21452";"Simpang Empat, Kec. Na IX-X, Kabupaten Labuhanbatu Utara";"SUMATERA UTARA";"21452";"Indonesia";" 081269377828";"";"";"2.2609484";"99.7725293";"https://maps.google.com/?cid=0x0:0x3e53cb0aa52cb4bb";""
"supermarket";"Pusat Perbelanjaan";"TOKO KURNIA (BQ2)";"Dusun Sumberjo,RT/RW:001/002,Perk.Berangir, Simpang Marbau, Kec. Na IX-X, Kabupaten Labuhanbatu Utara, Sumatera Utara 21452";"Simpang Marbau, Kec. Na IX-X, Kabupaten Labuhanbatu Utara";"SUMATERA UTARA";"21452";"Indonesia";" 085920551555";"";"";"2.1963477";"99.7622921";"https://maps.google.com/?cid=0x0:0x2ff4c9336d93987e";""
"supermarket";"Toko";"TOKO ANI";"7Q4C+C9H, Kp. Pajak, Kec. Na IX-X, Kabupaten Labuhanbatu Utara, Sumatera Utara 21452";"Kp. Pajak, Kec. Na IX-X, Kabupaten Labuhanbatu Utara";"SUMATERA UTARA";"21452";"Indonesia";"";"";"";"2.2560796";"99.7705921";"https://maps.google.com/?cid=0x0:0x3af2b30b5350ec47";""
"supermarket";"Minimarket";"Indomaret Spbu Sungai Raja";"6Q3C+PPP, Simpang Marbau, Kec. Na IX-X, Kabupaten Labuhanbatu Utara, Sumatera Utara 21452";"Simpang Marbau, Kec. Na IX-X, Kabupaten Labuhanbatu Utara";"SUMATERA UTARA";"21452";"Indonesia";" 08116004502";"";"";"2.204331";"99.7718379";"https://maps.google.com/?cid=0x0:0xd9ff7963eaa67b06";""
"supermarket";"Pasar";"Sayur Mayur Meisha";"8P2R+3G4, Kp. Pajak, Kec. Na IX-X, Kabupaten Labuhanbatu Utara, Sumatera Utara";"Kabupaten Labuhanbatu Utara, Sumatera Utara";"SUMATERA UTARA";"";"Indonesia";"";"";"";"2.3001282";"99.7413379";"https://maps.google.com/?cid=0x0:0x6f58fe89857b2253";""
"supermarket";"supermarket";"Kedai Fariz Silaen";"7PQ4+7QC DSN IV ADIAN KULIM, Jl. Simonis, Bangun Rejo, Kec. Na IX-X, Kabupaten Labuhanbatu Utara, Sumatera Utara 21455";"Jl. Simonis, Bangun Rejo, Kec. Na IX-X, Kabupaten Labuhanbatu Utara";"SUMATERA UTARA";"21455";"Indonesia";"";"";"";"2.2881792";"99.7069016";"https://maps.google.com/?cid=0x0:0xf57b91963fc4abc3";""
"supermarket";"";"toko Azis";"6M9J+M8G, Jl. SMA Aek Kota Batu, Silumajang, Kec. Na IX-X, Kabupaten Labuhanbatu Utara, Sumatera Utara 21454";"Jl. SMA Aek Kota Batu, Silumajang, Kec. Na IX-X, Kabupaten Labuhanbatu Utara";"SUMATERA UTARA";"21454";"Indonesia";"";"";"";"2.2191899";"99.6808148";"https://maps.google.com/?cid=0x0:0x14ea626f3b1d8181";""
"supermarket";"Minimarket";"UD.Mentari jaya grosir";"7QH6+HP8, Jl. Lintas Sumatra, Aek Kota Batu, Kec. Na IX-X, Kabupaten Labuhanbatu Utara, Sumatera Utara 21452";"Jl. Lintas Sumatra, Aek Kota Batu, Kec. Na IX-X, Kabupaten Labuhanbatu Utara";"SUMATERA UTARA";"21452";"Indonesia";"";"";"";"2.2789166";"99.7618458";"https://maps.google.com/?cid=0x0:0x70d887ba727bf50e";""
"supermarket";"Toko bahan makanan";"Tugi zee";"5QP6+FWR, Sungai Raja, Kec. Na IX-X, Kabupaten Labuhanbatu Utara, Sumatera Utara 21452";"Sungai Raja, Kec. Na IX-X, Kabupaten Labuhanbatu Utara";"SUMATERA UTARA";"21452";"Indonesia";"";"";"";"2.1862352";"99.7622678";"https://maps.google.com/?cid=0x0:0x587f801640314967";""
