Category;Real Category;Business Name;Address;City;State;Postal Code;Country;Phone;Email;Website;Latitude;Longitude;Map Link;Details Link
"komplek housing";"komplek housing";"Kec. Aek Kuo";"Kabupaten Labuhanbatu Utara, Sumatera Utara";"Kabupaten Labuhanbatu Utara, Sumatera Utara";"SUMATERA UTARA";"";"Indonesia";"";"";"";"2.3161726";"99.8203062";"https://maps.google.com/?cid=0x0:0x4039d80b220d250";""
"komplek housing";"Komplek perumahan";"My home Sirait/br Pakpahan";"8R69+PR6, Perkebunan Panigoran, Kec. Aek Kuo, Kabupaten Labuhanbatu Utara, Sumatera Utara 21455";"Perkebunan Panigoran, Kec. Aek Kuo, Kabupaten Labuhanbatu Utara";"SUMATERA UTARA";"21455";"Indonesia";"";"";"";"2.311784";"99.8195025";"https://maps.google.com/?cid=0x0:0xd62ea28eede8fd2";""
"komplek housing";"Komplek perumahan";"Sahat jowanda volli";"9R7H+RX7, Purworejo, Kec. Aek Kuo, Kabupaten Labuhanbatu Utara, Sumatera Utara 21455";"Purworejo, Kec. Aek Kuo, Kabupaten Labuhanbatu Utara";"SUMATERA UTARA";"21455";"Indonesia";"";"";"";"2.3645477";"99.8299334";"https://maps.google.com/?cid=0x0:0x736523df096e0c25";""
"komplek housing";"Komplek perumahan";"Rumah";"9R25+W3, Purworejo, Kec. Aek Kuo, Kabupaten Labuhanbatu Utara, Sumatera Utara";"Kabupaten Labuhanbatu Utara, Sumatera Utara";"SUMATERA UTARA";"";"Indonesia";"";"";"";"2.352364";"99.80771";"https://maps.google.com/?cid=0x0:0xb9c0306d1af45ae";""
"komplek housing";"Komplek perumahan";"Rumah opung shelma panjaitan";"8RRJ+7R8, Purworejo, Kec. Aek Kuo, Kabupaten Labuhanbatu Utara, Sumatera Utara 21455";"Purworejo, Kec. Aek Kuo, Kabupaten Labuhanbatu Utara";"SUMATERA UTARA";"21455";"Indonesia";"";"";"";"2.3406506";"99.8320753";"https://maps.google.com/?cid=0x0:0x3d21decbcfbf175a";""
"komplek housing";"Komplek perumahan";"Gang masjid";"9Q6V+W64, Purworejo, Kec. Aek Kuo, Kabupaten Labuhanbatu Utara, Sumatera Utara 21455";"Purworejo, Kec. Aek Kuo, Kabupaten Labuhanbatu Utara";"SUMATERA UTARA";"21455";"Indonesia";"";"";"";"2.3622644";"99.7930801";"https://maps.google.com/?cid=0x0:0x712de678a1ff0a86";""
"komplek housing";"Komplek perumahan";"Rumah TIWI";"8RWM+J9X, Jl.lobu, Aek Korsik, Kec. Aek Kuo, Kabupaten Labuhanbatu Utara, Sumatera Utara";"Kabupaten Labuhanbatu Utara, Sumatera Utara";"SUMATERA UTARA";"";"Indonesia";"";"";"";"2.3466072";"99.8334698";"https://maps.google.com/?cid=0x0:0x39d8319cdf64d3d9";""
"komplek housing";"Pembangunan Perumahan";"PATOK BESI";"8VJ8+489, Karang Anyer, Kec. Aek Kuo, Kabupaten Labuhanbatu Utara, Sumatera Utara 21455";"Karang Anyer, Kec. Aek Kuo, Kabupaten Labuhanbatu Utara";"SUMATERA UTARA";"21455";"Indonesia";"";"";"";"2.3302995";"99.865845";"https://maps.google.com/?cid=0x0:0x7a0a927aadff8db8";""
"komplek housing";"Perumahan";"Rumah riska";"8RVV+69, Aek Korsik, Kec. Aek Kuo, Kabupaten Labuhanbatu Utara, Sumatera Utara";"Kabupaten Labuhanbatu Utara, Sumatera Utara";"SUMATERA UTARA";"";"Indonesia";"";"";"";"2.3431232";"99.843455";"https://maps.google.com/?cid=0x0:0xde83b853e0f5b7b5";""
"komplek housing";"Komplek perumahan";"Rumah Asisten Bibitan PHLE";"8R67+M6R, Perkebunan Panigoran, Kec. Aek Kuo, Kabupaten Labuhanbatu Utara, Sumatera Utara 21455";"Perkebunan Panigoran, Kec. Aek Kuo, Kabupaten Labuhanbatu Utara";"SUMATERA UTARA";"21455";"Indonesia";"";"";"";"2.3117364";"99.8130075";"https://maps.google.com/?cid=0x0:0xff77f3fa2456b4d2";""
"komplek housing";"Komplek perumahan";"Purworejo";"9R42+GGW, Purworejo, Kec. Aek Kuo, Kabupaten Labuhanbatu Utara, Sumatera Utara 21455";"Purworejo, Kec. Aek Kuo, Kabupaten Labuhanbatu Utara";"SUMATERA UTARA";"21455";"Indonesia";"";"";"";"2.3563732";"99.8013351";"https://maps.google.com/?cid=0x0:0x1ad938333aa25bbd";""
"komplek housing";"Pembangunan Perumahan";"Dusun 8 sentiasa";"8RQH+HX6, Purworejo, Kec. Aek Kuo, Kabupaten Labuhanbatu Utara, Sumatera Utara 21455";"Purworejo, Kec. Aek Kuo, Kabupaten Labuhanbatu Utara";"SUMATERA UTARA";"21455";"Indonesia";"";"";"";"2.3388867";"99.829867";"https://maps.google.com/?cid=0x0:0x3dcaa99bd2bd4bf5";""
"komplek housing";"Perumahan";"Simpang asisten pondok mangga mangga";"9PCW+JH, Pangkalan, Kec. Aek Natas, Kabupaten Labuhanbatu Utara, Sumatera Utara";"Kabupaten Labuhanbatu Utara, Sumatera Utara";"SUMATERA UTARA";"";"Indonesia";"";"";"";"2.3716072";"99.7463863";"https://maps.google.com/?cid=0x0:0xf1ac614d07458d0";""
"komplek housing";"Gedung Apartemen";"Pos perumahan staf";"CR5Q+6R, Bandar Selamat, Kec. Aek Kuo, Kabupaten Labuhanbatu Utara, Sumatera Utara";"Kabupaten Labuhanbatu Utara, Sumatera Utara";"SUMATERA UTARA";"";"Indonesia";"";"";"";"2.4080658";"99.8395291";"https://maps.google.com/?cid=0x0:0x1ec64e159ebe99ba";""
"komplek housing";"Komplek perumahan";"Lorong Kates";"CQ65+WM2, Pangkalan, Kec. Aek Natas, Kabupaten Labuhanbatu Utara, Sumatera Utara 21455";"Pangkalan, Kec. Aek Natas, Kabupaten Labuhanbatu Utara";"SUMATERA UTARA";"21455";"Indonesia";"";"";"";"2.4122539";"99.7591561";"https://maps.google.com/?cid=0x0:0x788b76e9667769dc";""
"komplek housing";"Komplek perumahan";"Rumah Marhamah Dasopang";"8RVJ+WVV, Dusun 2, Aek Korsik, Kec. Aek Kuo, Kabupaten Labuhanbatu Utara, Sumatera Utara";"Kabupaten Labuhanbatu Utara, Sumatera Utara";"SUMATERA UTARA";"";"Indonesia";"";"";"";"2.3448615";"99.8321779";"https://maps.google.com/?cid=0x0:0xf82eeb0db8c9ce10";""
"komplek housing";"Komplek perumahan";"Rumah Simatupang";"CR7F+VF2, Bandar Selamat, Kec. Aek Kuo, Kabupaten Labuhanbatu Utara, Sumatera Utara 21455";"Bandar Selamat, Kec. Aek Kuo, Kabupaten Labuhanbatu Utara";"SUMATERA UTARA";"21455";"Indonesia";"";"";"";"2.4146377";"99.8236533";"https://maps.google.com/?cid=0x0:0x3ef9dc7775546f83";""
"komplek housing";"Komplek perumahan";"Rumah pak lubis";"CR7X+P8J, Bandar Selamat, Kec. Aek Kuo, Kabupaten Labuhanbatu Utara, Sumatera Utara 21455";"Bandar Selamat, Kec. Aek Kuo, Kabupaten Labuhanbatu Utara";"SUMATERA UTARA";"21455";"Indonesia";"";"";"";"2.4143345";"99.8482809";"https://maps.google.com/?cid=0x0:0xbb26eab2a8da9e20";""
"komplek housing";"Komplek perumahan";"Kadus dusun 4";"8VJP+H2M, Perk. Padang Halaban, Kec. Aek Kuo, Kabupaten Labuhanbatu Utara, Sumatera Utara 21455";"Perk. Padang Halaban, Kec. Aek Kuo, Kabupaten Labuhanbatu Utara";"SUMATERA UTARA";"21455";"Indonesia";"";"";"";"2.3314604";"99.8850586";"https://maps.google.com/?cid=0x0:0xd637f7f77426cedb";""
"komplek housing";"Perumahan";"Kampung Darat (Magorjo)";"CP2W+RGP, Pangkalan, Kec. Aek Natas, Kabupaten Labuhanbatu Utara, Sumatera Utara 21455";"Pangkalan, Kec. Aek Natas, Kabupaten Labuhanbatu Utara";"SUMATERA UTARA";"21455";"Indonesia";"";"";"";"2.4020903";"99.7463194";"https://maps.google.com/?cid=0x0:0x517f027e355455ff";""
"komplek housing";"Kantor Perusahaan";"Perumahan Staff PT.Sinarmas (Emplacement Padang Halaban)";"Karang Anyer, Kec. Aek Kuo, Kabupaten Labuhanbatu Utara, Sumatera Utara 21455";"Kec. Aek Kuo, Kabupaten Labuhanbatu Utara";"SUMATERA UTARA";"21455";"Indonesia";"";"";"";"2.323664";"99.8362918";"https://maps.google.com/?cid=0x0:0xd53eceead5718a77";""
"komplek housing";"Perumahan";"Kavlingan Anugerah Kamsino";"Jl. Padang Maninjau No.7, Pulo Jantan, Kec. Na IX-X, Kabupaten Labuhanbatu Utara, Sumatera Utara 21455";"Pulo Jantan, Kec. Na IX-X, Kabupaten Labuhanbatu Utara";"SUMATERA UTARA";"21455";"Indonesia";"";"";"";"2.30243";"99.743954";"https://maps.google.com/?cid=0x0:0x682d5a2bac9e0fec";""
"komplek housing";"Komplek perumahan";"Rumah ny Yani";"9QW8+4XM, Bandar Selamat, Kec. Aek Kuo, Kabupaten Labuhanbatu Utara, Sumatera Utara 21455";"Bandar Selamat, Kec. Aek Kuo, Kabupaten Labuhanbatu Utara";"SUMATERA UTARA";"21455";"Indonesia";"";"";"";"2.3953333";"99.7674314";"https://maps.google.com/?cid=0x0:0xa81141a77c4b0017";""
"komplek housing";"Komplek perumahan";"Rumah sitinjak";"CQ53+WX5, Pangkalan, Kec. Aek Natas, Kabupaten Labuhanbatu Utara, Sumatera Utara 21455";"Pangkalan, Kec. Aek Natas, Kabupaten Labuhanbatu Utara";"SUMATERA UTARA";"21455";"Indonesia";"";"";"";"2.409757";"99.7549944";"https://maps.google.com/?cid=0x0:0x20047faa6edaad7a";""
"komplek housing";"Komplek perumahan";"Rumah Ketua BPD P. Halaban";"8R7R+JM7, Sidomulyo, Kec. Aek Kuo, Kabupaten Labuhanbatu Utara, Sumatera Utara 21455";"Sidomulyo, Kec. Aek Kuo, Kabupaten Labuhanbatu Utara";"SUMATERA UTARA";"21455";"Indonesia";"";"";"";"2.3140439";"99.8416813";"https://maps.google.com/?cid=0x0:0xdb4bf616ff056fb7";""
"komplek housing";"Perumahan";"Kampung Pamaratan";"CQ64+3CV, Pangkalan, Kec. Aek Natas, Kabupaten Labuhanbatu Utara, Sumatera Utara 21455";"Pangkalan, Kec. Aek Natas, Kabupaten Labuhanbatu Utara";"SUMATERA UTARA";"21455";"Indonesia";"";"";"";"2.410238";"99.7560416";"https://maps.google.com/?cid=0x0:0xb1bdd6c7f79f1459";""
"komplek housing";"Pembangunan Perumahan";"Rumah Putra";"CQ4R+22F Sei Tualang Rt 2 Belang Rumah Mak Adam, Bandar Selamat, Kec. Aek Kuo, Kabupaten Labuhanbatu Utara, Sumatera Utara 21455";"Bandar Selamat, Kec. Aek Kuo, Kabupaten Labuhanbatu Utara";"SUMATERA UTARA";"21455";"Indonesia";"";"";"";"2.4050625";"99.7900469";"https://maps.google.com/?cid=0x0:0x5ee75cb7f4d0b9a2";""
"komplek housing";"Komplek perumahan";"Rumah Wira Indra pradana";"8R6R+X65, Pondok 7, Kec. Aek Kuo, Kabupaten Labuhanbatu Utara, Sumatera Utara 21455";"Pondok 7, Kec. Aek Kuo, Kabupaten Labuhanbatu Utara";"SUMATERA UTARA";"21455";"Indonesia";"";"";"";"2.3129331";"99.8407285";"https://maps.google.com/?cid=0x0:0xf015108965cb184c";""
"komplek housing";"Masjid";"Panigoran";"8R8F+WFC, Perkebunan Panigoran, Kec. Aek Kuo, Kabupaten Labuhanbatu Utara, Sumatera Utara 21455";"Perkebunan Panigoran, Kec. Aek Kuo, Kabupaten Labuhanbatu Utara";"SUMATERA UTARA";"21455";"Indonesia";"";"";"";"2.317308";"99.8236533";"https://maps.google.com/?cid=0x0:0xad5bd10f2350926";""
"komplek housing";"komplek housing";"Sumatera Utara 21455";"Kabupaten Labuhanbatu Utara, Sumatera Utara";"Kabupaten Labuhanbatu Utara, Sumatera Utara";"SUMATERA UTARA";"";"Indonesia";"";"";"";"2.1543963";"99.5006143";"https://maps.google.com/?cid=0x0:0x391266e2c2e7c92";""
"komplek housing";"Gedung Apartemen";"Perum Situmorang";"7JVW+M5R, Jl. Simonis, Simonis, Kec. Aek Natas, Kabupaten Labuhanbatu Utara, Sumatera Utara 21455";"Jl. Simonis, Simonis, Kec. Aek Natas, Kabupaten Labuhanbatu Utara";"SUMATERA UTARA";"21455";"Indonesia";"";"";"";"2.2933504";"99.6454415";"https://maps.google.com/?cid=0x0:0x1a4a116a1efcbf04";""
"komplek housing";"Perumahan";"Kampung Pamaratan";"CQ64+3CV, Pangkalan, Kec. Aek Natas, Kabupaten Labuhanbatu Utara, Sumatera Utara 21455";"Pangkalan, Kec. Aek Natas, Kabupaten Labuhanbatu Utara";"SUMATERA UTARA";"21455";"Indonesia";"";"";"";"2.410238";"99.7560416";"https://maps.google.com/?cid=0x0:0xb1bdd6c7f79f1459";""
"komplek housing";"Komplek perumahan";"Darussalam";"7J78+HQ, Rombisan, Kec. Aek Natas, Kabupaten Labuhanbatu Utara, Sumatera Utara 21455";"Rombisan, Kec. Aek Natas, Kabupaten Labuhanbatu Utara";"SUMATERA UTARA";"21455";"Indonesia";"";"";"";"2.26387";"99.6169544";"https://maps.google.com/?cid=0x0:0xb215be45faca368f";""
"komplek housing";"Komplek perumahan";"My home Sirait/br Pakpahan";"8R69+PR6, Perkebunan Panigoran, Kec. Aek Kuo, Kabupaten Labuhanbatu Utara, Sumatera Utara 21455";"Perkebunan Panigoran, Kec. Aek Kuo, Kabupaten Labuhanbatu Utara";"SUMATERA UTARA";"21455";"Indonesia";"";"";"";"2.311784";"99.8195025";"https://maps.google.com/?cid=0x0:0xd62ea28eede8fd2";""
"komplek housing";"komplek housing";"Sukajaya";"4G8W+42X, Poldung, Kec. Aek Natas, Kabupaten Labuhanbatu Utara, Sumatera Utara";"Kabupaten Labuhanbatu Utara, Sumatera Utara";"SUMATERA UTARA";"";"Indonesia";"";"";"";"2.1153547";"99.5450974";"https://maps.google.com/?cid=0x0:0x328ef5c01222139d";""
"komplek housing";"Komplek perumahan";"Rumah sitinjak";"CQ53+WX5, Pangkalan, Kec. Aek Natas, Kabupaten Labuhanbatu Utara, Sumatera Utara 21455";"Pangkalan, Kec. Aek Natas, Kabupaten Labuhanbatu Utara";"SUMATERA UTARA";"21455";"Indonesia";"";"";"";"2.409757";"99.7549944";"https://maps.google.com/?cid=0x0:0x20047faa6edaad7a";""
"komplek housing";"Komplek perumahan";"Lorong Kates";"CQ65+WM2, Pangkalan, Kec. Aek Natas, Kabupaten Labuhanbatu Utara, Sumatera Utara 21455";"Pangkalan, Kec. Aek Natas, Kabupaten Labuhanbatu Utara";"SUMATERA UTARA";"21455";"Indonesia";"";"";"";"2.4122539";"99.7591561";"https://maps.google.com/?cid=0x0:0x788b76e9667769dc";""
"komplek housing";"Komplek perumahan";"Sarah Sagala";"8JHQ+FG, Perkebunan Aek Pamingke, Kec. Aek Natas, Kabupaten Labuhanbatu Utara, Sumatera Utara 21455";"Perkebunan Aek Pamingke, Kec. Aek Natas, Kabupaten Labuhanbatu Utara";"SUMATERA UTARA";"21455";"Indonesia";"";"";"";"2.3287126";"99.6388529";"https://maps.google.com/?cid=0x0:0xf25d3bed9d42eefc";""
"komplek housing";"Perumahan";"Kampung Darat (Magorjo)";"CP2W+RGP, Pangkalan, Kec. Aek Natas, Kabupaten Labuhanbatu Utara, Sumatera Utara 21455";"Pangkalan, Kec. Aek Natas, Kabupaten Labuhanbatu Utara";"SUMATERA UTARA";"21455";"Indonesia";"";"";"";"2.4020903";"99.7463194";"https://maps.google.com/?cid=0x0:0x517f027e355455ff";""
"komplek housing";"Kebun Raya";"Perumahan huta barat";"6JQC+6Q, Meranti Omas, Kec. Na IX-X, Kabupaten Labuhanbatu Utara, Sumatera Utara 21455";"Meranti Omas, Kec. Na IX-X, Kabupaten Labuhanbatu Utara";"SUMATERA UTARA";"21455";"Indonesia";"";"";"";"2.2380131";"99.6218881";"https://maps.google.com/?cid=0x0:0x82f30f05c13731ea";""
"komplek housing";"Komplek perumahan";"RUMAH SIHOMBING";"9P65+74V, Bandar Durian, Kec. Aek Natas, Kabupaten Labuhanbatu Utara, Sumatera Utara 21455";"Bandar Durian, Kec. Aek Natas, Kabupaten Labuhanbatu Utara";"SUMATERA UTARA";"21455";"Indonesia";"";"";"";"2.3607489";"99.7077915";"https://maps.google.com/?cid=0x0:0x471d8ab804131029";""
"komplek housing";"Perhimpunan Pengembang Perumahan";"Bandar Berseri";"Jl. Lintas Sumatra No.9-16, Bandar Durian, Kec. Aek Natas, Kabupaten Labuhanbatu Utara, Sumatera Utara 21455";"Bandar Durian, Kec. Aek Natas, Kabupaten Labuhanbatu Utara";"SUMATERA UTARA";"21455";"Indonesia";"";"";"";"2.3521514";"99.7141657";"https://maps.google.com/?cid=0x0:0xadc20785c6763c42";""
"komplek housing";"Komplek perumahan";"Kampung Rintis Kacang";"CQ72+PC5, Pangkalan, Kec. Aek Natas, Kabupaten Labuhanbatu Utara, Sumatera Utara 21455";"Pangkalan, Kec. Aek Natas, Kabupaten Labuhanbatu Utara";"SUMATERA UTARA";"21455";"Indonesia";"";"";"";"2.414273";"99.7511167";"https://maps.google.com/?cid=0x0:0x352816bb019ca585";""
"komplek housing";"Perkebunan Pohon";"Aek pamienke";"9P4M+PQM, Pangkalan, Kec. Aek Natas, Kabupaten Labuhanbatu Utara, Sumatera Utara 21455";"Pangkalan, Kec. Aek Natas, Kabupaten Labuhanbatu Utara";"SUMATERA UTARA";"21455";"Indonesia";"";"";"";"2.3568465";"99.7344154";"https://maps.google.com/?cid=0x0:0xdb3832d3961bed79";""
"komplek housing";"";"Keluarga Pasaribu";"CP8M+5FW, Terang Bulan, Kec. Aek Natas, Kabupaten Labuhanbatu Utara, Sumatera Utara 21455";"Terang Bulan, Kec. Aek Natas, Kabupaten Labuhanbatu Utara";"SUMATERA UTARA";"21455";"Indonesia";"";"";"";"2.4154925";"99.7337027";"https://maps.google.com/?cid=0x0:0xe74c28830125b62e";""
"komplek housing";"Perumahan";"Bg tapa";"7MVG+QJC, Jl. Simonis, Simonis, Kec. Aek Natas, Kabupaten Labuhanbatu Utara, Sumatera Utara 21455";"Jl. Simonis, Simonis, Kec. Aek Natas, Kabupaten Labuhanbatu Utara";"SUMATERA UTARA";"21455";"Indonesia";"";"";"";"2.2944308";"99.6765011";"https://maps.google.com/?cid=0x0:0x34bf9fa9c63c7f58";""
"komplek housing";"Pembangunan Perumahan";"N sirait";"4G8W+42X, Poldung, Kec. Aek Natas, Kabupaten Labuhanbatu Utara, Sumatera Utara";"Kabupaten Labuhanbatu Utara, Sumatera Utara";"SUMATERA UTARA";"";"Indonesia";"";"";"";"2.1153547";"99.5450974";"https://maps.google.com/?cid=0x0:0x852767f62d7fa475";""
"komplek housing";"Komplek perumahan";"Kampung Ringo Ringo Pangkalan (Kp.Jawa)";"CP6V+9XM, Pangkalan, Kec. Aek Natas, Kabupaten Labuhanbatu Utara, Sumatera Utara 21455";"Pangkalan, Kec. Aek Natas, Kabupaten Labuhanbatu Utara";"SUMATERA UTARA";"21455";"Indonesia";"";"";"";"2.4109522";"99.7449217";"https://maps.google.com/?cid=0x0:0xb52bd6b324e65030";""
"komplek housing";"Pembangunan Perumahan";"Rumah parlin";"4G8W+42X, Poldung, Kec. Aek Natas, Kabupaten Labuhanbatu Utara, Sumatera Utara 21455";"Poldung, Kec. Aek Natas, Kabupaten Labuhanbatu Utara";"SUMATERA UTARA";"21455";"Indonesia";"";"";"";"2.1153547";"99.5450974";"https://maps.google.com/?cid=0x0:0xdfa79e2a1a5ad0";""
"komplek housing";"komplek housing";"Kec. Aek Natas";"Kabupaten Labuhanbatu Utara, Sumatera Utara";"Kabupaten Labuhanbatu Utara, Sumatera Utara";"SUMATERA UTARA";"";"Indonesia";"";"";"";"2.3459816";"99.7209993";"https://maps.google.com/?cid=0x0:0xd7db60ca7133d417";""
"komplek housing";"Komplek perumahan";"Kpg. Sabolah";"7M85+F89, Meranti Omas, Kec. Na IX-X, Kabupaten Labuhanbatu Utara, Sumatera Utara 21455";"Meranti Omas, Kec. Na IX-X, Kabupaten Labuhanbatu Utara";"SUMATERA UTARA";"21455";"Indonesia";"";"";"";"2.2666912";"99.6591346";"https://maps.google.com/?cid=0x0:0x4e07d798e1b69255";""
"komplek housing";"Komplek perumahan";"Markus Pane";"CQ63+CG6, Pangkalan, Kec. Aek Natas, Kabupaten Labuhanbatu Utara, Sumatera Utara 21455";"Pangkalan, Kec. Aek Natas, Kabupaten Labuhanbatu Utara";"SUMATERA UTARA";"21455";"Indonesia";"";"";"";"2.411047";"99.7537783";"https://maps.google.com/?cid=0x0:0xa19f6144a8a419a3";""
"komplek housing";"Komplek perumahan";"Rumah ny Yani";"9QW8+4XM, Bandar Selamat, Kec. Aek Kuo, Kabupaten Labuhanbatu Utara, Sumatera Utara 21455";"Bandar Selamat, Kec. Aek Kuo, Kabupaten Labuhanbatu Utara";"SUMATERA UTARA";"21455";"Indonesia";"";"";"";"2.3953333";"99.7674314";"https://maps.google.com/?cid=0x0:0xa81141a77c4b0017";""
"komplek housing";"Perumahan";"Kavlingan Anugerah Kamsino";"Jl. Padang Maninjau No.7, Pulo Jantan, Kec. Na IX-X, Kabupaten Labuhanbatu Utara, Sumatera Utara 21455";"Pulo Jantan, Kec. Na IX-X, Kabupaten Labuhanbatu Utara";"SUMATERA UTARA";"21455";"Indonesia";"";"";"";"2.30243";"99.743954";"https://maps.google.com/?cid=0x0:0x682d5a2bac9e0fec";""
"komplek housing";"komplek housing";"Sumatera Utara 21474";"Kec. Kualuh Hilir, Kabupaten Labuhanbatu Utara, Sumatera Utara";"Kabupaten Labuhanbatu Utara, Sumatera Utara";"SUMATERA UTARA";"";"Indonesia";"";"";"";"2.5204832";"100.0135929";"https://maps.google.com/?cid=0x0:0x556108f16bd7ca29";""
"komplek housing";"Perhimpunan Pengembang Perumahan";"YusMil Family";"Pasar Bilah No.2 b, Kp. Mesjid, Kec. Kualuh Hilir, Kabupaten Labuhanbatu Utara, Sumatera Utara 21474";"Kp. Mesjid, Kec. Kualuh Hilir, Kabupaten Labuhanbatu Utara";"SUMATERA UTARA";"21474";"Indonesia";"";"";"";"2.5584237";"100.0628905";"https://maps.google.com/?cid=0x0:0xda9243a62d060946";""
"komplek housing";"Komplek perumahan";"Rumah akmal dan Keisha";"GX52+9W3, Unnamed Road, Kuala Bangka, Kec. Kualuh Hilir, Kabupaten Labuhanbatu Utara, Sumatera Utara 21474";"Unnamed Road, Kuala Bangka, Kec. Kualuh Hilir, Kabupaten Labuhanbatu Utara";"SUMATERA UTARA";"21474";"Indonesia";"";"";"";"2.508389";"99.952306";"https://maps.google.com/?cid=0x0:0x68d0ed6460db0615";""
"komplek housing";"Komplek perumahan";"A.mesra pakpahan";"JXCH+6JW, Tj. Mangedar, Kec. Kualuh Hilir, Kabupaten Labuhanbatu Utara, Sumatera Utara";"Kabupaten Labuhanbatu Utara, Sumatera Utara";"SUMATERA UTARA";"";"Indonesia";"";"";"";"2.6206008";"99.9790745";"https://maps.google.com/?cid=0x0:0x8f5dc250ac03e972";""
"komplek housing";"Komplek perumahan";"Mhd ifan";"H3H2+4PP, Kp. Mesjid, Kec. Kualuh Hilir, Kabupaten Labuhanbatu Utara, Sumatera Utara";"Kabupaten Labuhanbatu Utara, Sumatera Utara";"SUMATERA UTARA";"";"Indonesia";"";"";"";"2.5778256";"100.0518203";"https://maps.google.com/?cid=0x0:0xf01de1779ace1be";""
"komplek housing";"Perhimpunan Pengembang Perumahan";"Petran m.soleh";"F2WV+2C, Sungai Sentang, Kec. Kualuh Hilir, Kabupaten Labuhanbatu Utara, Sumatera Utara 21474";"Sungai Sentang, Kec. Kualuh Hilir, Kabupaten Labuhanbatu Utara";"SUMATERA UTARA";"21474";"Indonesia";"";"";"";"2.4949655";"100.043534";"https://maps.google.com/?cid=0x0:0x9b6a343d60e7bdcd";""
"komplek housing";"Komplek perumahan";"Sunarsun";"GXW5+879, Kuala Bangka, Kec. Kualuh Hilir, Kabupaten Labuhanbatu Utara, Sumatera Utara 21474";"Kuala Bangka, Kec. Kualuh Hilir, Kabupaten Labuhanbatu Utara";"SUMATERA UTARA";"21474";"Indonesia";"";"";"";"2.5452926";"99.957421";"https://maps.google.com/?cid=0x0:0xa878d1e2fd704ca8";""
"komplek housing";"Komplek perumahan";"Rumah Op.Aila";"M354+P28, Tj. Mangedar, Kec. Kualuh Hilir, Kabupaten Labuhanbatu Utara, Sumatera Utara";"Kabupaten Labuhanbatu Utara, Sumatera Utara";"SUMATERA UTARA";"";"Indonesia";"";"";"";"2.6592928";"100.0550897";"https://maps.google.com/?cid=0x0:0x240189fb8a6b1157";""
"komplek housing";"Komplek perumahan";"Bangun karya";"J3V7+H6, Tj. Mangedar, Kec. Kualuh Hilir, Kabupaten Labuhanbatu Utara, Sumatera Utara";"Kabupaten Labuhanbatu Utara, Sumatera Utara";"SUMATERA UTARA";"";"Indonesia";"";"";"";"2.643966";"100.0630571";"https://maps.google.com/?cid=0x0:0x66580ca72ee12550";""
"komplek housing";"Komplek perumahan";"Mhd Rizki";"H2VJ+QHQ, Kp. Mesjid, Kec. Kualuh Hilir, Kabupaten Labuhanbatu Utara, Sumatera Utara";"Kabupaten Labuhanbatu Utara, Sumatera Utara";"SUMATERA UTARA";"";"Indonesia";"";"";"";"2.594803";"100.030643";"https://maps.google.com/?cid=0x0:0xf21008252b97f4c1";""
"komplek housing";"Komplek perumahan";"Rumah tahir";"GXW5+879, Kuala Bangka, Kec. Kualuh Hilir, Kabupaten Labuhanbatu Utara, Sumatera Utara 21474";"Kuala Bangka, Kec. Kualuh Hilir, Kabupaten Labuhanbatu Utara";"SUMATERA UTARA";"21474";"Indonesia";"";"";"";"2.545452";"99.9575863";"https://maps.google.com/?cid=0x0:0x9100a2285d1b78a2";""
"komplek housing";"Menara komunikasi";"Dusun pardomuan";"M2JQ+QJ, Tj. Mangedar, Kec. Kualuh Hilir, Kabupaten Labuhanbatu Utara, Sumatera Utara";"Kabupaten Labuhanbatu Utara, Sumatera Utara";"SUMATERA UTARA";"";"Indonesia";"";"";"";"2.6819201";"100.0390986";"https://maps.google.com/?cid=0x0:0x526ddbad51ba40da";""
"komplek housing";"Otoritas Pelabuhan";"Pantai belanak";"HXCF+W5J, Sungai Apung, Kec. Kualuh Hilir, Kabupaten Labuhanbatu Utara, Sumatera Utara 21474";"Sungai Apung, Kec. Kualuh Hilir, Kabupaten Labuhanbatu Utara";"SUMATERA UTARA";"21474";"Indonesia";"";"";"";"2.5723385";"99.9728819";"https://maps.google.com/?cid=0x0:0x164ac94ec25dfd89";""
"komplek housing";"Perhimpunan Pengembang Perumahan";"Rumah nek anggah";"GXW5+879, Kuala Bangka, Kec. Kualuh Hilir, Kabupaten Labuhanbatu Utara, Sumatera Utara 21474";"Kuala Bangka, Kec. Kualuh Hilir, Kabupaten Labuhanbatu Utara";"SUMATERA UTARA";"21474";"Indonesia";"";"";"";"2.5456992";"99.9579692";"https://maps.google.com/?cid=0x0:0xe1573f8285e66abc";""
"komplek housing";"Komplek perumahan";"Rumah Dinas Asisten Divisi 4 KULE";"GR3M+H4, Tj. Pasir, Kec. Kualuh Sel., Kabupaten Labuhanbatu Utara, Sumatera Utara";"Kabupaten Labuhanbatu Utara, Sumatera Utara";"SUMATERA UTARA";"";"Indonesia";"";"";"";"2.5038803";"99.8328646";"https://maps.google.com/?cid=0x0:0x33fd41c1c8b3ba7e";""
"komplek housing";"Pembangunan Perumahan";"Kp Jawa";"H3F3+H35, Kp. Mesjid, Kec. Kualuh Hilir, Kabupaten Labuhanbatu Utara, Sumatera Utara";"Kabupaten Labuhanbatu Utara, Sumatera Utara";"SUMATERA UTARA";"";"Indonesia";"";"";"";"2.5738889";"100.0527498";"https://maps.google.com/?cid=0x0:0xb9e169bcd8e7da18";""
"komplek housing";"Komplek perumahan";"RUMAH PAK INDRA";"H282+76H, Sungai Sentang, Kec. Kualuh Hilir, Kabupaten Labuhanbatu Utara, Sumatera Utara";"Kabupaten Labuhanbatu Utara, Sumatera Utara";"SUMATERA UTARA";"";"Indonesia";" 085297203237";"";"";"2.5656943";"100.0005959";"https://maps.google.com/?cid=0x0:0x943d680c327302d9";""
"komplek housing";"Komplek perumahan";"Sarah Simatupang";"GW4X+RPX, Kuala Bangka, Kec. Kualuh Hilir, Kabupaten Labuhanbatu Utara, Sumatera Utara 21474";"Kuala Bangka, Kec. Kualuh Hilir, Kabupaten Labuhanbatu Utara";"SUMATERA UTARA";"21474";"Indonesia";"";"";"";"2.5070866";"99.9494393";"https://maps.google.com/?cid=0x0:0x518d7e05ebbde94d";""
"komplek housing";"Komplek perumahan";"RUMAH TOGU TAMPUBOLON";"FWGH+QQ7, Kuala Bangka, Kec. Kualuh Hilir, Kabupaten Labuhanbatu Utara, Sumatera Utara";"Kabupaten Labuhanbatu Utara, Sumatera Utara";"SUMATERA UTARA";"";"Indonesia";"";"";"";"2.476907";"99.9294301";"https://maps.google.com/?cid=0x0:0x2ee87ca05ee11b1e";""
"komplek housing";"Komplek perumahan";"rumah sari";"GW7X+HR9, Kuala Bangka, Kec. Kualuh Hilir, Kabupaten Labuhanbatu Utara, Sumatera Utara 21474";"Kuala Bangka, Kec. Kualuh Hilir, Kabupaten Labuhanbatu Utara";"SUMATERA UTARA";"21474";"Indonesia";"";"";"";"2.513541";"99.949852";"https://maps.google.com/?cid=0x0:0xcf82a36dd01c8209";""
"komplek housing";"Perumahan";"A.prendi sinambela";"JX9H+P2W, Tj. Mangedar, Kec. Kualuh Hilir, Kabupaten Labuhanbatu Utara, Sumatera Utara 21475";"Tj. Mangedar, Kec. Kualuh Hilir, Kabupaten Labuhanbatu Utara";"SUMATERA UTARA";"21475";"Indonesia";"";"";"";"2.6194127";"99.9776089";"https://maps.google.com/?cid=0x0:0x1b6b5d5992476d2f";""
"komplek housing";"Komplek perumahan";"St.Am.sijabat";"MWRX+QH St.Am Sijabat, Tlk. Pulai Luar, Kec. Kualuh Leidong, Kabupaten Labuhanbatu Utara, Sumatera Utara";"Kabupaten Labuhanbatu Utara, Sumatera Utara";"SUMATERA UTARA";"";"Indonesia";"";"";"";"2.691946";"99.9489513";"https://maps.google.com/?cid=0x0:0xdb899db457b36197";""
"komplek housing";"komplek housing";"Kec. Kualuh Hilir";"Kabupaten Labuhanbatu Utara, Sumatera Utara";"Kabupaten Labuhanbatu Utara, Sumatera Utara";"SUMATERA UTARA";"";"Indonesia";"";"";"";"2.5824914";"100.0132215";"https://maps.google.com/?cid=0x0:0x4039d80b2210210";""
"komplek housing";"Komplek perumahan";"Rumah buk NURHAYATI";"GX62+5CF, Kuala Bangka, Kec. Kualuh Hilir, Kabupaten Labuhanbatu Utara, Sumatera Utara 21474";"Kuala Bangka, Kec. Kualuh Hilir, Kabupaten Labuhanbatu Utara";"SUMATERA UTARA";"21474";"Indonesia";"";"";"";"2.511391";"99.9512912";"https://maps.google.com/?cid=0x0:0x8f961d433733f05a";""
"komplek housing";"Komplek perumahan";"Sofyan suhayni Siahaan";"GX52+24J, Kuala Bangka, Kec. Kualuh Hilir, Kabupaten Labuhanbatu Utara, Sumatera Utara 21474";"Kuala Bangka, Kec. Kualuh Hilir, Kabupaten Labuhanbatu Utara";"SUMATERA UTARA";"21474";"Indonesia";"";"";"";"2.5066966";"99.9511812";"https://maps.google.com/?cid=0x0:0x2aa63424174af263";""
"komplek housing";"Gedung Apartemen";"simbolon family";"HXR8+MGP, Sungai Apung, Kec. Kualuh Hilir, Kabupaten Labuhanbatu Utara, Sumatera Utara 21474";"Sungai Apung, Kec. Kualuh Hilir, Kabupaten Labuhanbatu Utara";"SUMATERA UTARA";"21474";"Indonesia";"";"";"";"2.591475";"99.9664349";"https://maps.google.com/?cid=0x0:0x16956ed3fe01d561";""
"komplek housing";"Pembangunan Perumahan";"Rumah Adly Rtg";"GW4X+RPX, Kuala Bangka, Kec. Kualuh Hilir, Kabupaten Labuhanbatu Utara, Sumatera Utara 21474";"Kuala Bangka, Kec. Kualuh Hilir, Kabupaten Labuhanbatu Utara";"SUMATERA UTARA";"21474";"Indonesia";"";"";"";"2.5069438";"99.9494669";"https://maps.google.com/?cid=0x0:0x57b18d83fc6bff26";""
"komplek housing";"Komplek perumahan";"PTR MARLUGA";"GWJG+99, Kuala Bangka, Kec. Kualuh Hilir, Kabupaten Labuhanbatu Utara, Sumatera Utara 21474";"Kuala Bangka, Kec. Kualuh Hilir, Kabupaten Labuhanbatu Utara";"SUMATERA UTARA";"21474";"Indonesia";"";"";"";"2.5310321";"99.9258861";"https://maps.google.com/?cid=0x0:0x27185c0c2c43af5b";""
"komplek housing";"Komplek perumahan";"Op.Monika sinaga/br.tamba";"M22X+FPQ, Tj. Mangedar, Kec. Kualuh Hilir, Kabupaten Labuhanbatu Utara, Sumatera Utara 21474";"Tj. Mangedar, Kec. Kualuh Hilir, Kabupaten Labuhanbatu Utara";"SUMATERA UTARA";"21474";"Indonesia";"";"";"";"2.651188";"100.0493294";"https://maps.google.com/?cid=0x0:0x7dd7eba4d7c79af7";""
"komplek housing";"komplek housing";"Sumatera Utara 21457";"Kec. Kualuh Sel., Kabupaten Labuhanbatu Utara, Sumatera Utara";"Kabupaten Labuhanbatu Utara, Sumatera Utara";"SUMATERA UTARA";"";"Indonesia";"";"";"";"2.4644513";"99.6786894";"https://maps.google.com/?cid=0x0:0xbeeda126e9c5dc9c";""
"komplek housing";"Komplek perumahan";"Rumah ikwa";"HH94+J5R, Perkebunan Londut, Kec. Kualuh Hulu, Kabupaten Labuhanbatu Utara, Sumatera Utara 21457";"Perkebunan Londut, Kec. Kualuh Hulu, Kabupaten Labuhanbatu Utara";"SUMATERA UTARA";"21457";"Indonesia";"";"";"";"2.5693294";"99.5558045";"https://maps.google.com/?cid=0x0:0xe874657e7cbfe9e4";""
"komplek housing";"Komplek perumahan";"RUMAH OPUNG HOMBING";"HPHW+8P6, Jl. Abdul Wahid, Sukarame, Kec. Kualuh Hulu, Kabupaten Labuhanbatu Utara, Sumatera Utara 21457";"Jl. Abdul Wahid, Sukarame, Kec. Kualuh Hulu, Kabupaten Labuhanbatu Utara";"SUMATERA UTARA";"21457";"Indonesia";"";"";"";"2.5782953";"99.7467563";"https://maps.google.com/?cid=0x0:0xcb2ad1e0e7ad2124";""
"komplek housing";"Komplek perumahan";"Lorong Parsaoran";"HH5P+JHR, Pulo Dogom, Kec. Kualuh Hulu, Kabupaten Labuhanbatu Utara, Sumatera Utara 21457";"Pulo Dogom, Kec. Kualuh Hulu, Kabupaten Labuhanbatu Utara";"SUMATERA UTARA";"21457";"Indonesia";"";"";"";"2.5591173";"99.5863975";"https://maps.google.com/?cid=0x0:0x90d290a1e5f888a8";""
"komplek housing";"Komplek perumahan";"Zx";"GPP6+PC, Perkebunan Hanna, Kec. Kualuh Hulu, Kabupaten Labuhanbatu Utara, Sumatera Utara";"Kabupaten Labuhanbatu Utara, Sumatera Utara";"SUMATERA UTARA";"";"Indonesia";"";"";"";"2.5368506";"99.7110132";"https://maps.google.com/?cid=0x0:0x6d7d6e1d7c9c6539";""
"komplek housing";"Komplek perumahan";"AEKSIALA";"CMVQ+C3, Siamporik, Kec. Kualuh Sel., Kabupaten Labuhanbatu Utara, Sumatera Utara 21457";"Siamporik, Kec. Kualuh Sel., Kabupaten Labuhanbatu Utara";"SUMATERA UTARA";"21457";"Indonesia";"";"";"";"2.4429824";"99.687337";"https://maps.google.com/?cid=0x0:0x929f22c47848504c";""
"komplek housing";"Komplek perumahan";"Rumah";"HH64+9H4, Pulo Dogom, Kec. Kualuh Hulu, Kabupaten Labuhanbatu Utara, Sumatera Utara 21457";"Pulo Dogom, Kec. Kualuh Hulu, Kabupaten Labuhanbatu Utara";"SUMATERA UTARA";"21457";"Indonesia";"";"";"";"2.560888";"99.5564635";"https://maps.google.com/?cid=0x0:0x9851cfb263019dc1";""
"komplek housing";"Komplek perumahan";"Rumah Yogi Silitonga";"HP8J+HF7, Sukarame, Kec. Kualuh Hulu, Kabupaten Labuhanbatu Utara, Sumatera Utara 21457";"Sukarame, Kec. Kualuh Hulu, Kabupaten Labuhanbatu Utara";"SUMATERA UTARA";"21457";"Indonesia";"";"";"";"2.5664135";"99.7311843";"https://maps.google.com/?cid=0x0:0xa941505672b45247";""
"komplek housing";"komplek housing";"Rumah Silaen";"GJ4J+7CC, Damuli Pekan, Kec. Kualuh Sel., Kabupaten Labuhanbatu Utara, Sumatera Utara 21457";"Damuli Pekan, Kec. Kualuh Sel., Kabupaten Labuhanbatu Utara";"SUMATERA UTARA";"21457";"Indonesia";"";"";"";"2.5056891";"99.6310052";"https://maps.google.com/?cid=0x0:0xa91edbae61f3d27c";""
"komplek housing";"Komplek perumahan";"Rumah wawi";"HR6W+PXF, Sonomartani, Kec. Kualuh Hulu, Kabupaten Labuhanbatu Utara, Sumatera Utara 21475";"Sonomartani, Kec. Kualuh Hulu, Kabupaten Labuhanbatu Utara";"SUMATERA UTARA";"21475";"Indonesia";" 082285026473";"";"";"2.562856";"99.8479151";"https://maps.google.com/?cid=0x0:0xd26b5b5d86a7bdf5";""
"komplek housing";"komplek housing";"Hadza baiti";"HH73+2GM, Pulo Dogom, Kec. Kualuh Hulu, Kabupaten Labuhanbatu Utara, Sumatera Utara 21457";"Pulo Dogom, Kec. Kualuh Hulu, Kabupaten Labuhanbatu Utara";"SUMATERA UTARA";"21457";"Indonesia";"";"";"";"2.562468";"99.552755";"https://maps.google.com/?cid=0x0:0x6bc0670a78232e09";""
"komplek housing";"Pembangunan Perumahan";"Rumah A. HIDAYAT NASUTION";"FMVG+R8M, Damuli Pekan, Kec. Kualuh Sel., Kabupaten Labuhanbatu Utara, Sumatera Utara 21457";"Damuli Pekan, Kec. Kualuh Sel., Kabupaten Labuhanbatu Utara";"SUMATERA UTARA";"21457";"Indonesia";"";"";"";"2.4939193";"99.6758343";"https://maps.google.com/?cid=0x0:0xd8bc34702b6ae793";""
"komplek housing";"Perhimpunan Pengembang Perumahan";"Rumah aikimilakuo";"FJXC+6MG, Damuli Pekan, Kec. Kualuh Sel., Kabupaten Labuhanbatu Utara, Sumatera Utara 21457";"Damuli Pekan, Kec. Kualuh Sel., Kabupaten Labuhanbatu Utara";"SUMATERA UTARA";"21457";"Indonesia";"";"";"";"2.498524";"99.6213147";"https://maps.google.com/?cid=0x0:0xfb04ce7814ae9f03";""
"komplek housing";"komplek housing";"Riau";"HJ88+XXV, Aek Kanopan, Kec. Kualuh Hulu, Kabupaten Labuhanbatu Utara, Sumatera Utara 21273";"Aek Kanopan, Kec. Kualuh Hulu, Kabupaten Labuhanbatu Utara";"SUMATERA UTARA";"21273";"Indonesia";"";"";"";"2.5674938";"99.6174332";"https://maps.google.com/?cid=0x0:0x2c841a8748bd51a3";""
"komplek housing";"Komplek perumahan";"SIANTURI BK";"Jl. Kapten Zubit No.41, Aek Kanopan Tim., Kec. Kualuh Hulu, Kabupaten Labuhanbatu Utara, Sumatera Utara 21273";"Aek Kanopan Tim., Kec. Kualuh Hulu, Kabupaten Labuhanbatu Utara";"SUMATERA UTARA";"21273";"Indonesia";"";"";"";"2.5691455";"99.6513002";"https://maps.google.com/?cid=0x0:0xc410ef2494ce5679";""
"komplek housing";"Komplek perumahan";"Adhon's Home";"JRQ2+C76, Sonomartani, Kec. Kualuh Hulu, Kabupaten Labuhanbatu Utara, Sumatera Utara 21457";"Sonomartani, Kec. Kualuh Hulu, Kabupaten Labuhanbatu Utara";"SUMATERA UTARA";"21457";"Indonesia";"";"";"";"2.6382318";"99.8011503";"https://maps.google.com/?cid=0x0:0x2e9091fd332e19df";""
"komplek housing";"Perkebunan Pohon";"Perumahan emplasmen kebun membang muda";"HM2G+358, Perkebunan Membang Muda, Kec. Kualuh Hulu, Kabupaten Labuhanbatu Utara, Sumatera Utara 21457";"Perkebunan Membang Muda, Kec. Kualuh Hulu, Kabupaten Labuhanbatu Utara";"SUMATERA UTARA";"21457";"Indonesia";"";"";"";"2.5501622";"99.6754412";"https://maps.google.com/?cid=0x0:0xc78973e29268305c";""
"komplek housing";"Komplek perumahan";"Rumah ANTON";"Jl. Raja Lobu No.184, Sukarame, Kec. Kualuh Hulu, Kabupaten Labuhanbatu Utara, Sumatera Utara 21457";"Sukarame, Kec. Kualuh Hulu, Kabupaten Labuhanbatu Utara";"SUMATERA UTARA";"21457";"Indonesia";"";"";"";"2.5694221";"99.7187091";"https://maps.google.com/?cid=0x0:0x5a3a98fc587d2eee";""
"komplek housing";"Pembangunan Perumahan";"komplek perumahan puri londut";"HH94+WVM, jalan m.sukat dusun ll, Perkebunan Londut, Kec. Kualuh Hulu, Kabupaten Labuhanbatu Utara, Sumatera Utara";"Kabupaten Labuhanbatu Utara, Sumatera Utara";"SUMATERA UTARA";"";"Indonesia";"";"";"";"2.5698415";"99.5571811";"https://maps.google.com/?cid=0x0:0x474840371a3ab79c";""
"komplek housing";"Komplek perumahan";"Rumah bpk.Mukmin famly";"HPW9+XX, Sukarame, Kec. Kualuh Hulu, Kabupaten Labuhanbatu Utara, Sumatera Utara 21455";"Sukarame, Kec. Kualuh Hulu, Kabupaten Labuhanbatu Utara";"SUMATERA UTARA";"21455";"Indonesia";" 085373840019";"";"";"2.5974988";"99.719953";"https://maps.google.com/?cid=0x0:0x8fac2481e8ae7e97";""
"komplek housing";"Perhimpunan Pengembang Perumahan";"Randy's house";"JH22+2QH, Perkebunan Londut, Kec. Kualuh Hulu, Kabupaten Labuhanbatu Utara, Sumatera Utara";"Kabupaten Labuhanbatu Utara, Sumatera Utara";"SUMATERA UTARA";"";"Indonesia";"";"";"";"2.6000744";"99.5519847";"https://maps.google.com/?cid=0x0:0xe16255672361682f";""
"komplek housing";"Komplek perumahan";"Rumah Pak Sudirman Sinaga";"HM62+VW, Aek Kanopan Tim., Kec. Kualuh Hulu, Kabupaten Labuhanbatu Utara, Sumatera Utara";"Kabupaten Labuhanbatu Utara, Sumatera Utara";"SUMATERA UTARA";"";"Indonesia";"";"";"";"2.5622377";"99.6522835";"https://maps.google.com/?cid=0x0:0xcd7af187ca6dc0c2";""
"komplek housing";"Komplek perumahan";"Rumah Nambela / Br. Tampubolon";"Jl. Kesehatan No.31, Aek Kanopan, Kec. Kualuh Hulu, Kabupaten Labuhanbatu Utara, Sumatera Utara 21273";"Aek Kanopan, Kec. Kualuh Hulu, Kabupaten Labuhanbatu Utara";"SUMATERA UTARA";"21273";"Indonesia";"";"";"";"2.5649165";"99.6458777";"https://maps.google.com/?cid=0x0:0xd52ab1c96eb47a45";""
"komplek housing";"komplek housing";"Kec. Kualuh Hulu";"Kabupaten Labuhanbatu Utara, Sumatera Utara";"Kabupaten Labuhanbatu Utara, Sumatera Utara";"SUMATERA UTARA";"";"Indonesia";"";"";"";"2.5682041";"99.6535274";"https://maps.google.com/?cid=0x0:0x4039d80b220f020";""
"komplek housing";"Komplek perumahan";"room";"Jl. Anggrek, Perkebunan Londut, Kec. Kualuh Hulu, Kabupaten Labuhanbatu Utara, Sumatera Utara 21457";"Perkebunan Londut, Kec. Kualuh Hulu, Kabupaten Labuhanbatu Utara";"SUMATERA UTARA";"21457";"Indonesia";"";"";"";"2.5410247";"99.5294424";"https://maps.google.com/?cid=0x0:0x4c4ebabee7e16c66";""
"komplek housing";"Komplek perumahan";"House Nanang S and Family";"Charly 18 perk GDLP, mahulu, Sonomartani, Kec. Kualuh Hulu, Kabupaten Labuhanbatu Utara, Sumatera Utara 21457";"mahulu, Sonomartani, Kec. Kualuh Hulu, Kabupaten Labuhanbatu Utara";"SUMATERA UTARA";"21457";"Indonesia";"";"";"";"2.6391153";"99.8085192";"https://maps.google.com/?cid=0x0:0xd2f333ccd66823e3";""
"komplek housing";"Komplek perumahan";"Rumah Pak Ismail Rambe";"GH4Q+MWF, Bandar Lama, Kec. Kualuh Sel., Kabupaten Labuhanbatu Utara, Sumatera Utara 21457";"Bandar Lama, Kec. Kualuh Sel., Kabupaten Labuhanbatu Utara";"SUMATERA UTARA";"21457";"Indonesia";"";"";"";"2.5066862";"99.5897894";"https://maps.google.com/?cid=0x0:0x498ba9abea474fcf";""
"komplek housing";"Komplek perumahan";"PINGGIR JALAN JL SEUKARNO HATA";"GJ7Q+583, Damuli Pekan, Kec. Kualuh Sel., Kabupaten Labuhanbatu Utara, Sumatera Utara 21457";"Damuli Pekan, Kec. Kualuh Sel., Kabupaten Labuhanbatu Utara";"SUMATERA UTARA";"21457";"Indonesia";"";"";"";"2.5128785";"99.6383039";"https://maps.google.com/?cid=0x0:0xda1cbeb04bdf295d";""
"komplek housing";"komplek housing";"Rumah Rakasa";"GJXH+X6W, Jl. Al Washliyah, Parpaudangan, Kec. Kualuh Hulu, Kabupaten Labuhanbatu Utara, Sumatera Utara 21457";"Jl. Al Washliyah, Parpaudangan, Kec. Kualuh Hulu, Kabupaten Labuhanbatu Utara";"SUMATERA UTARA";"21457";"Indonesia";"";"";"";"2.5499781";"99.628092";"https://maps.google.com/?cid=0x0:0x7005c32b873a2996";""
"komplek housing";"komplek housing";"Kec. Aek Ledong";"Kabupaten Asahan, Sumatera Utara";"Kabupaten Asahan, Sumatera Utara";"SUMATERA UTARA";"";"Indonesia";"";"";"";"2.6175209";"99.6619484";"https://maps.google.com/?cid=0x0:0xc1c99dd1a36fec7c";""
"komplek housing";"Pusat Perbelanjaan";"Ledong";"QX3H+6G5, Tj. Leidong, Kec. Kualuh Leidong, Kabupaten Labuhanbatu Utara, Sumatera Utara";"Kabupaten Labuhanbatu Utara, Sumatera Utara";"SUMATERA UTARA";"";"Indonesia";"";"";"";"2.7530059";"99.97886";"https://maps.google.com/?cid=0x0:0xb3455aeccd13b73a";""
"komplek housing";"Toko bahan makanan";"SG Leidong";"QX4H+84H, Tj. Leidong, Kec. Kualuh Leidong, Kabupaten Labuhanbatu Utara, Sumatera Utara 21475";"Tj. Leidong, Kec. Kualuh Leidong, Kabupaten Labuhanbatu Utara";"SUMATERA UTARA";"21475";"Indonesia";"";"";"";"2.7558175";"99.9778571";"https://maps.google.com/?cid=0x0:0xe8c3cd0a648778a9";""
"komplek housing";"komplek housing";"Sumatera Utara 21457";"Kec. Kualuh Sel., Kabupaten Labuhanbatu Utara, Sumatera Utara";"Kabupaten Labuhanbatu Utara, Sumatera Utara";"SUMATERA UTARA";"";"Indonesia";"";"";"";"2.4644513";"99.6786894";"https://maps.google.com/?cid=0x0:0xbeeda126e9c5dc9c";""
"komplek housing";"Komplek perumahan";"AEKSIALA";"CMVQ+C3, Siamporik, Kec. Kualuh Sel., Kabupaten Labuhanbatu Utara, Sumatera Utara 21457";"Siamporik, Kec. Kualuh Sel., Kabupaten Labuhanbatu Utara";"SUMATERA UTARA";"21457";"Indonesia";"";"";"";"2.4429824";"99.687337";"https://maps.google.com/?cid=0x0:0x929f22c47848504c";""
"komplek housing";"komplek housing";"Rumah Silaen";"GJ4J+7CC, Damuli Pekan, Kec. Kualuh Sel., Kabupaten Labuhanbatu Utara, Sumatera Utara 21457";"Damuli Pekan, Kec. Kualuh Sel., Kabupaten Labuhanbatu Utara";"SUMATERA UTARA";"21457";"Indonesia";"";"";"";"2.5056891";"99.6310052";"https://maps.google.com/?cid=0x0:0xa91edbae61f3d27c";""
"komplek housing";"Komplek perumahan";"Zx";"GPP6+PC, Perkebunan Hanna, Kec. Kualuh Hulu, Kabupaten Labuhanbatu Utara, Sumatera Utara";"Kabupaten Labuhanbatu Utara, Sumatera Utara";"SUMATERA UTARA";"";"Indonesia";"";"";"";"2.5368506";"99.7110132";"https://maps.google.com/?cid=0x0:0x6d7d6e1d7c9c6539";""
"komplek housing";"Perhimpunan Pengembang Perumahan";"Rumah aikimilakuo";"FJXC+6MG, Damuli Pekan, Kec. Kualuh Sel., Kabupaten Labuhanbatu Utara, Sumatera Utara 21457";"Damuli Pekan, Kec. Kualuh Sel., Kabupaten Labuhanbatu Utara";"SUMATERA UTARA";"21457";"Indonesia";"";"";"";"2.498524";"99.6213147";"https://maps.google.com/?cid=0x0:0xfb04ce7814ae9f03";""
"komplek housing";"Komplek perumahan";"Rumah Yogi Silitonga";"HP8J+HF7, Sukarame, Kec. Kualuh Hulu, Kabupaten Labuhanbatu Utara, Sumatera Utara 21457";"Sukarame, Kec. Kualuh Hulu, Kabupaten Labuhanbatu Utara";"SUMATERA UTARA";"21457";"Indonesia";"";"";"";"2.5664135";"99.7311843";"https://maps.google.com/?cid=0x0:0xa941505672b45247";""
"komplek housing";"Pembangunan Perumahan";"Rumah A. HIDAYAT NASUTION";"FMVG+R8M, Damuli Pekan, Kec. Kualuh Sel., Kabupaten Labuhanbatu Utara, Sumatera Utara 21457";"Damuli Pekan, Kec. Kualuh Sel., Kabupaten Labuhanbatu Utara";"SUMATERA UTARA";"21457";"Indonesia";"";"";"";"2.4939193";"99.6758343";"https://maps.google.com/?cid=0x0:0xd8bc34702b6ae793";""
"komplek housing";"Perkebunan Pohon";"Perumahan emplasmen kebun membang muda";"HM2G+358, Perkebunan Membang Muda, Kec. Kualuh Hulu, Kabupaten Labuhanbatu Utara, Sumatera Utara 21457";"Perkebunan Membang Muda, Kec. Kualuh Hulu, Kabupaten Labuhanbatu Utara";"SUMATERA UTARA";"21457";"Indonesia";"";"";"";"2.5501622";"99.6754412";"https://maps.google.com/?cid=0x0:0xc78973e29268305c";""
"komplek housing";"Perhimpunan Pengembang Perumahan";"Rumah bang yanto";"GM93+MMR, Sidua Dua, Kec. Kualuh Sel., Kabupaten Labuhanbatu Utara, Sumatera Utara 21457";"Sidua Dua, Kec. Kualuh Sel., Kabupaten Labuhanbatu Utara";"SUMATERA UTARA";"21457";"Indonesia";"";"";"";"2.5200237";"99.6540719";"https://maps.google.com/?cid=0x0:0xc31f901642a8ffbe";""
"komplek housing";"Komplek perumahan";"Rumah Pak Ismail Rambe";"GH4Q+MWF, Bandar Lama, Kec. Kualuh Sel., Kabupaten Labuhanbatu Utara, Sumatera Utara 21457";"Bandar Lama, Kec. Kualuh Sel., Kabupaten Labuhanbatu Utara";"SUMATERA UTARA";"21457";"Indonesia";"";"";"";"2.5066862";"99.5897894";"https://maps.google.com/?cid=0x0:0x498ba9abea474fcf";""
"komplek housing";"Perhimpunan Pengembang Perumahan";"Dusun 1";"HMJ3+6RH, Jl. Sukarame, Aek Kanopan Tim., Kec. Kualuh Hulu, Kabupaten Labuhanbatu Utara, Sumatera Utara 21273";"Jl. Sukarame, Aek Kanopan Tim., Kec. Kualuh Hulu, Kabupaten Labuhanbatu Utara";"SUMATERA UTARA";"21273";"Indonesia";"";"";"";"2.579922";"99.654727";"https://maps.google.com/?cid=0x0:0x53fc426abeef18a5";""
"komplek housing";"Komplek perumahan";"RUMAH OPUNG HOMBING";"HPHW+8P6, Jl. Abdul Wahid, Sukarame, Kec. Kualuh Hulu, Kabupaten Labuhanbatu Utara, Sumatera Utara 21457";"Jl. Abdul Wahid, Sukarame, Kec. Kualuh Hulu, Kabupaten Labuhanbatu Utara";"SUMATERA UTARA";"21457";"Indonesia";"";"";"";"2.5782953";"99.7467563";"https://maps.google.com/?cid=0x0:0xcb2ad1e0e7ad2124";""
"komplek housing";"Komplek perumahan";"Rumah Luciyana Sirait";"FPH3+P46, Dusun Parsaoran, Simangalam, Kec. Kualuh Sel., Kabupaten Labuhanbatu Utara, Sumatera Utara 21457";"Dusun Parsaoran, Simangalam, Kec. Kualuh Sel., Kabupaten Labuhanbatu Utara";"SUMATERA UTARA";"21457";"Indonesia";"";"";"";"2.4792751";"99.7027677";"https://maps.google.com/?cid=0x0:0x573872ecffa3570c";""
"komplek housing";"komplek housing";"Ky";"GP98+PM5, Tj. Pasir, Kec. Kualuh Sel., Kabupaten Labuhanbatu Utara, Sumatera Utara 21457";"Tj. Pasir, Kec. Kualuh Sel., Kabupaten Labuhanbatu Utara";"SUMATERA UTARA";"21457";"Indonesia";"";"";"";"2.5192687";"99.7167474";"https://maps.google.com/?cid=0x0:0xf3bc9a198c18a216";""
"komplek housing";"Komplek perumahan";"Rumah Op. Evran Purba";"Barisan Rel, Simangalam, Kualuh Selatan, North Labuhan Batu Regency, North Sumatra 21457";"Simangalam, Kualuh Selatan, North Labuhan Batu Regency";"SUMATERA UTARA";"21457";"Indonesia";"";"";"";"2.4823984";"99.6998381";"https://maps.google.com/?cid=0x0:0xaf58588cffae8334";""
"komplek housing";"Komplek perumahan";"Lorong Parsaoran";"HH5P+JHR, Pulo Dogom, Kec. Kualuh Hulu, Kabupaten Labuhanbatu Utara, Sumatera Utara 21457";"Pulo Dogom, Kec. Kualuh Hulu, Kabupaten Labuhanbatu Utara";"SUMATERA UTARA";"21457";"Indonesia";"";"";"";"2.5591173";"99.5863975";"https://maps.google.com/?cid=0x0:0x90d290a1e5f888a8";""
"komplek housing";"Komplek perumahan";"Rumah Nambela / Br. Tampubolon";"Jl. Kesehatan No.31, Aek Kanopan, Kec. Kualuh Hulu, Kabupaten Labuhanbatu Utara, Sumatera Utara 21273";"Aek Kanopan, Kec. Kualuh Hulu, Kabupaten Labuhanbatu Utara";"SUMATERA UTARA";"21273";"Indonesia";"";"";"";"2.5649165";"99.6458777";"https://maps.google.com/?cid=0x0:0xd52ab1c96eb47a45";""
"komplek housing";"Komplek perumahan";"PINGGIR JALAN JL SEUKARNO HATA";"GJ7Q+583, Damuli Pekan, Kec. Kualuh Sel., Kabupaten Labuhanbatu Utara, Sumatera Utara 21457";"Damuli Pekan, Kec. Kualuh Sel., Kabupaten Labuhanbatu Utara";"SUMATERA UTARA";"21457";"Indonesia";"";"";"";"2.5128785";"99.6383039";"https://maps.google.com/?cid=0x0:0xda1cbeb04bdf295d";""
"komplek housing";"Komplek perumahan";"SIANTURI BK";"Jl. Kapten Zubit No.41, Aek Kanopan Tim., Kec. Kualuh Hulu, Kabupaten Labuhanbatu Utara, Sumatera Utara 21273";"Aek Kanopan Tim., Kec. Kualuh Hulu, Kabupaten Labuhanbatu Utara";"SUMATERA UTARA";"21273";"Indonesia";"";"";"";"2.5691455";"99.6513002";"https://maps.google.com/?cid=0x0:0xc410ef2494ce5679";""
"komplek housing";"Komplek perumahan";"Rumah";"HH64+9H4, Pulo Dogom, Kec. Kualuh Hulu, Kabupaten Labuhanbatu Utara, Sumatera Utara 21457";"Pulo Dogom, Kec. Kualuh Hulu, Kabupaten Labuhanbatu Utara";"SUMATERA UTARA";"21457";"Indonesia";"";"";"";"2.560888";"99.5564635";"https://maps.google.com/?cid=0x0:0x9851cfb263019dc1";""
"komplek housing";"Asosiasi/organisasi";"Kantor F. SPTSI-KSPSI";"FJXC+6MG, Damuli Pekan, Kec. Kualuh Sel., Kabupaten Labuhanbatu Utara, Sumatera Utara 21457";"Damuli Pekan, Kec. Kualuh Sel., Kabupaten Labuhanbatu Utara";"SUMATERA UTARA";"21457";"Indonesia";" 081263405658";"";"";"2.4985636";"99.6213334";"https://maps.google.com/?cid=0x0:0xd982a8e107cca072";""
"komplek housing";"komplek housing";"Kec. Kualuh Sel.";"Kabupaten Labuhanbatu Utara, Sumatera Utara";"Kabupaten Labuhanbatu Utara, Sumatera Utara";"SUMATERA UTARA";"";"Indonesia";"";"";"";"2.4799318";"99.6306971";"https://maps.google.com/?cid=0x0:0x4039d80b220d840";""
"komplek housing";"Gedung Apartemen";"KAVLING SAWO INDAH DAMULI PEKAN";"Simpang sawo, Damuli Pekan, Kec. Kualuh Sel., Kabupaten Labuhanbatu Utara, Sumatera Utara 21457";"Damuli Pekan, Kec. Kualuh Sel., Kabupaten Labuhanbatu Utara";"SUMATERA UTARA";"21457";"Indonesia";"";"";"";"2.5109542";"99.6281782";"https://maps.google.com/?cid=0x0:0xc385c80389f8968c";""
"komplek housing";"Komplek perumahan";"Gg. Welman Sinaga";"GPF7+GJ2, Gunting Saga, Kec. Kualuh Sel., Kabupaten Labuhanbatu Utara, Sumatera Utara 21457";"Gunting Saga, Kec. Kualuh Sel., Kabupaten Labuhanbatu Utara";"SUMATERA UTARA";"21457";"Indonesia";"";"";"";"2.5237529";"99.7140274";"https://maps.google.com/?cid=0x0:0xe894b7713ad48512";""
"komplek housing";"komplek housing";"nisvi";"FMG4+HVC, Jalan Kampung Lalang, Gn. Melayu, Kec. Kualuh Sel., Kabupaten Labuhanbatu Utara, Sumatera Utara 21457";"Jalan Kampung Lalang, Gn. Melayu, Kec. Kualuh Sel., Kabupaten Labuhanbatu Utara";"SUMATERA UTARA";"21457";"Indonesia";"";"";"";"2.4764481";"99.6571551";"https://maps.google.com/?cid=0x0:0x2abf8c2d0d625b7a";""
"komplek housing";"Komplek perumahan";"Rumah Sekdes";"GJCV+RHC, Sidua Dua, Kec. Kualuh Sel., Kabupaten Labuhanbatu Utara, Sumatera Utara 21457";"Sidua Dua, Kec. Kualuh Sel., Kabupaten Labuhanbatu Utara";"SUMATERA UTARA";"21457";"Indonesia";"";"";"";"2.5220589";"99.6438758";"https://maps.google.com/?cid=0x0:0x3072ad6442c5ccaf";""
"komplek housing";"Komplek perumahan";"Bendahara ritonga";"FJHH+JGW, Perk. Damuli, Kec. Kualuh Sel., Kabupaten Labuhanbatu Utara, Sumatera Utara 21457";"Perk. Damuli, Kec. Kualuh Sel., Kabupaten Labuhanbatu Utara";"SUMATERA UTARA";"21457";"Indonesia";"";"";"";"2.4795689";"99.6289403";"https://maps.google.com/?cid=0x0:0x4194b45d3459763d";""
"komplek housing";"komplek housing";"DUSUN IV GALUGUR";"GH8P+62V, Bandar Lama, Kec. Kualuh Sel., Kabupaten Labuhanbatu Utara, Sumatera Utara 21457";"Bandar Lama, Kec. Kualuh Sel., Kabupaten Labuhanbatu Utara";"SUMATERA UTARA";"21457";"Indonesia";"";"";"";"2.5156141";"99.5850352";"https://maps.google.com/?cid=0x0:0xaf4fbdf05fda812b";""
"komplek housing";"komplek housing";"Kebun sawit Barani siregar";"CMWR+X8W, Siamporik, Kec. Kualuh Sel., Kabupaten Labuhanbatu Utara, Sumatera Utara 21457";"Siamporik, Kec. Kualuh Sel., Kabupaten Labuhanbatu Utara";"SUMATERA UTARA";"21457";"Indonesia";"";"";"";"2.4474929";"99.6908205";"https://maps.google.com/?cid=0x0:0x3a5a55b929ead945";""
"komplek housing";"komplek housing";"Sumatera Utara 21452";"Kabupaten Labuhanbatu Utara, Sumatera Utara";"Kabupaten Labuhanbatu Utara, Sumatera Utara";"SUMATERA UTARA";"";"Indonesia";"";"";"";"2.2296655";"99.8571416";"https://maps.google.com/?cid=0x0:0x1ac7ea716a32cbd4";""
"komplek housing";"komplek housing";"Marbau";"Kec. Marbau, Kabupaten Labuhanbatu Utara, Sumatera Utara";"Kabupaten Labuhanbatu Utara, Sumatera Utara";"SUMATERA UTARA";"";"Indonesia";"";"";"";"2.2347056";"99.8292338";"https://maps.google.com/?cid=0x0:0xeb63ab49f9f5d52a";""
"komplek housing";"Pembangunan Perumahan";"Belongkut Kecamatan Marbau Kabupaten labuhan batu Utara Sumatra Utara";"Jl. Pulo Padang - Marbau No.16, Belongkut, Kec. Marbau, Kabupaten Labuhanbatu Utara, Sumatera Utara 21452";"Belongkut, Kec. Marbau, Kabupaten Labuhanbatu Utara";"SUMATERA UTARA";"21452";"Indonesia";"";"";"";"2.2604204";"99.8717824";"https://maps.google.com/?cid=0x0:0x808f8e22f8be83e";""
"komplek housing";"Pembangunan Perumahan";"HOME MAS BONDAN";"6RQ9+MW5, Marbau, Kec. Marbau, Kabupaten Labuhanbatu Utara, Sumatera Utara 21452";"Marbau, Kec. Marbau, Kabupaten Labuhanbatu Utara";"SUMATERA UTARA";"21452";"Indonesia";"";"";"";"2.2391441";"99.8198606";"https://maps.google.com/?cid=0x0:0x668ce262443af906";""
"komplek housing";"Perhimpunan Pengembang Perumahan";"Rumah";"6RHP+X7H, Marbau, Kec. Marbau, Kabupaten Labuhanbatu Utara, Sumatera Utara 21452";"Marbau, Kec. Marbau, Kabupaten Labuhanbatu Utara";"SUMATERA UTARA";"21452";"Indonesia";"";"";"";"2.2302221";"99.8367997";"https://maps.google.com/?cid=0x0:0x6be5161b834c094d";""
"komplek housing";"Komplek perumahan";"Jalan tekus";"7VC2+6VH, Jl. Pulo Padang - Marbau, Perkebunan Brussel, Kec. Marbau, Kabupaten Labuhanbatu Utara, Sumatera Utara 21452";"Jl. Pulo Padang - Marbau, Perkebunan Brussel, Kec. Marbau, Kabupaten Labuhanbatu Utara";"SUMATERA UTARA";"21452";"Indonesia";"";"";"";"2.2706886";"99.8521118";"https://maps.google.com/?cid=0x0:0x337f066f855ce034";""
"komplek housing";"komplek housing";"Kec. Marbau";"Kabupaten Labuhanbatu Utara, Sumatera Utara";"Kabupaten Labuhanbatu Utara, Sumatera Utara";"SUMATERA UTARA";"";"Indonesia";"";"";"";"2.2703137";"99.8413885";"https://maps.google.com/?cid=0x0:0x4039d80b220d4b0";""
"komplek housing";"Komplek perumahan";"Rumah Guntur S. Nasution";"Jl. Jenderal Ahmad Yani No.42 SimpangEmpat, Marbau, Kec. Marbau, Kabupaten Labuhanbatu Utara, Sumatera Utara 21452";"Marbau, Kec. Marbau, Kabupaten Labuhanbatu Utara";"SUMATERA UTARA";"21452";"Indonesia";"";"";"";"2.2631504";"99.8304236";"https://maps.google.com/?cid=0x0:0x3ac07e8bf414e4ac";""
"komplek housing";"Pembangunan Perumahan";"Adan Munthe";"Kpg8, dusun 4, Belongkut, Kec. Marbau, Kabupaten Labuhanbatu Utara, Sumatera Utara 21452";"dusun 4, Belongkut, Kec. Marbau, Kabupaten Labuhanbatu Utara";"SUMATERA UTARA";"21452";"Indonesia";"";"";"";"2.2606011";"99.872853";"https://maps.google.com/?cid=0x0:0xcac03b6ad362976a";""
"komplek housing";"Komplek perumahan";"Dipa";"6W72+396, Jalan Pulo Padang, Marbau, North Labuhan Batu Regency, North Sumatra 21452";"Jalan Pulo Padang, Marbau, North Labuhan Batu Regency";"SUMATERA UTARA";"21452";"Indonesia";"";"";"";"2.2126669";"99.9008904";"https://maps.google.com/?cid=0x0:0x58a23663df968990";""
"komplek housing";"Pusat Perbelanjaan";"Simpang merbau";"5VP7+93X, Marbau Sel., Kec. Marbau, Kabupaten Labuhanbatu Utara, Sumatera Utara 21452";"Marbau Sel., Kec. Marbau, Kabupaten Labuhanbatu Utara";"SUMATERA UTARA";"21452";"Indonesia";"";"";"";"2.1859887";"99.8627243";"https://maps.google.com/?cid=0x0:0xfc84499be207b29a";""
"komplek housing";"Komplek perumahan";"Simpang Rumbia";"7V85+3X6, Jl. Pulo Padang - Marbau, Perkebunan Brussel, Kec. Marbau, Kabupaten Labuhanbatu Utara, Sumatera Utara 21452";"Jl. Pulo Padang - Marbau, Perkebunan Brussel, Kec. Marbau, Kabupaten Labuhanbatu Utara";"SUMATERA UTARA";"21452";"Indonesia";"";"";"";"2.2651749";"99.8598764";"https://maps.google.com/?cid=0x0:0x92ed07f827365cc9";""
"komplek housing";"Perhimpunan Pengembang Perumahan";"Dsn V Sinar Jadi";"6RHP+X7H, Marbau, Kec. Marbau, Kabupaten Labuhanbatu Utara, Sumatera Utara 21452";"Marbau, Kec. Marbau, Kabupaten Labuhanbatu Utara";"SUMATERA UTARA";"21452";"Indonesia";"";"";"";"2.2299317";"99.8357339";"https://maps.google.com/?cid=0x0:0x28d815363b8c3d3b";""
"komplek housing";"Komplek perumahan";"Belongkut 5 k";"7V28+H6C, Belongkut, Kec. Marbau, Kabupaten Labuhanbatu Utara, Sumatera Utara 21452";"Belongkut, Kec. Marbau, Kabupaten Labuhanbatu Utara";"SUMATERA UTARA";"21452";"Indonesia";"";"";"";"2.2514443";"99.8655158";"https://maps.google.com/?cid=0x0:0xa09cdebee95bd7c5";""
"komplek housing";"Perhimpunan Pengembang Perumahan";"Rmh jm";"6WF4+QXJ, Dsn 1, Sipare Pare Tengah, Kec. Marbau, Kabupaten Labuhanbatu Utara, Sumatera Utara 21452";"Dsn 1, Sipare Pare Tengah, Kec. Marbau, Kabupaten Labuhanbatu Utara";"SUMATERA UTARA";"21452";"Indonesia";"";"";"";"2.2244749";"99.9073986";"https://maps.google.com/?cid=0x0:0xba223625f6e84686";""
"komplek housing";"Pembangunan Perumahan";"Afriandi's Home";"6QCF+MQC, Simpang Marbau, Kec. Na IX-X, Kabupaten Labuhanbatu Utara, Sumatera Utara 21452";"Simpang Marbau, Kec. Na IX-X, Kabupaten Labuhanbatu Utara";"SUMATERA UTARA";"21452";"Indonesia";"";"";"";"2.2216874";"99.7743777";"https://maps.google.com/?cid=0x0:0xbdcc854f9c227e88";""
"komplek housing";"Komplek perumahan";"Rumah Fauzan Htj";"6V2X+2HG, Jl. Pulo Padang - Marbau, Sumber Mulyo, Kec. Marbau, Kabupaten Labuhanbatu Utara, Sumatera Utara 21452";"Jl. Pulo Padang - Marbau, Sumber Mulyo, Kec. Marbau, Kabupaten Labuhanbatu Utara";"SUMATERA UTARA";"21452";"Indonesia";"";"";"";"2.2000575";"99.8989557";"https://maps.google.com/?cid=0x0:0xe55c9233bb9d77bd";""
"komplek housing";"Pembangunan Perumahan";"Kebun lubis";"6V5X+P42, Jl. Pulo Padang - Marbau, Sipare Pare Tengah, Kec. Marbau, Kabupaten Labuhanbatu Utara, Sumatera Utara 21452";"Jl. Pulo Padang - Marbau, Sipare Pare Tengah, Kec. Marbau, Kabupaten Labuhanbatu Utara";"SUMATERA UTARA";"21452";"Indonesia";"";"";"";"2.209748";"99.8977";"https://maps.google.com/?cid=0x0:0x2e5c8f4ace45d0f1";""
"komplek housing";"Gedung Apartemen";"putrii oktaviani";"6R5W+XPF, Perkebunan Milano, Kec. Marbau, Kabupaten Labuhanbatu Utara, Sumatera Utara 21452";"Perkebunan Milano, Kec. Marbau, Kabupaten Labuhanbatu Utara";"SUMATERA UTARA";"21452";"Indonesia";"";"";"";"2.209237";"99.846189";"https://maps.google.com/?cid=0x0:0xe58ff537cef0de69";""
"komplek housing";"Komplek perumahan";"rumah liaaa";"6R5W+XPF, Perkebunan Milano, Kec. Marbau, Kabupaten Labuhanbatu Utara, Sumatera Utara 21452";"Perkebunan Milano, Kec. Marbau, Kabupaten Labuhanbatu Utara";"SUMATERA UTARA";"21452";"Indonesia";"";"";"";"2.211787";"99.845676";"https://maps.google.com/?cid=0x0:0xae801954c71ca86b";""
"komplek housing";"Komplek perumahan";"Griya Billa";"7VHF+6V9, Jl. Besar Desa Bulungihit, Bulungihit, Kec. Marbau, Kabupaten Labuhanbatu Utara, Sumatera Utara 21452";"Jl. Besar Desa Bulungihit, Bulungihit, Kec. Marbau, Kabupaten Labuhanbatu Utara";"SUMATERA UTARA";"21452";"Indonesia";" 082273773838";"";"";"2.2780407";"99.8747343";"https://maps.google.com/?cid=0x0:0xe55482ea52a7cc7b";""
"komplek housing";"Kantor Hubungan Masyarakat";"Rumah dinas";"6QCF+GM6, Jl. Berangir, Simpang Marbau, Kec. Na IX-X, Kabupaten Labuhanbatu Utara, Sumatera Utara 21452";"Jl. Berangir, Simpang Marbau, Kec. Na IX-X, Kabupaten Labuhanbatu Utara";"SUMATERA UTARA";"21452";"Indonesia";"";"";"";"2.2212894";"99.7741348";"https://maps.google.com/?cid=0x0:0x1d84d8f16c782606";""
"komplek housing";"komplek housing";"Sumatera Utara 21454";"Kec. Na IX-X, Kabupaten Labuhanbatu Utara, Sumatera Utara";"Kabupaten Labuhanbatu Utara, Sumatera Utara";"SUMATERA UTARA";"";"Indonesia";"";"";"";"2.1532664";"99.6786894";"https://maps.google.com/?cid=0x0:0xa1d048494249269a";""
"komplek housing";"Pembangunan Perumahan";"Di sini";"4JM5+CF9, Batu Tunggal, Kec. Na IX-X, Kabupaten Labuhanbatu Utara, Sumatera Utara";"Kabupaten Labuhanbatu Utara, Sumatera Utara";"SUMATERA UTARA";"";"Indonesia";"";"";"";"2.1335313";"99.6087375";"https://maps.google.com/?cid=0x0:0xf378948c38290766";""
"komplek housing";"Perhimpunan Pengembang Perumahan";"Sumberejo";"5M7Q+5WW, Sungai Raja, Kec. Na IX-X, Kabupaten Labuhanbatu Utara, Sumatera Utara 21454";"Sungai Raja, Kec. Na IX-X, Kabupaten Labuhanbatu Utara";"SUMATERA UTARA";"21454";"Indonesia";"";"";"";"2.1629805";"99.6898255";"https://maps.google.com/?cid=0x0:0x4b2b31df977e9630";""
"komplek housing";"Kebun Raya";"Perumahan huta barat";"6JQC+6Q, Meranti Omas, Kec. Na IX-X, Kabupaten Labuhanbatu Utara, Sumatera Utara 21455";"Meranti Omas, Kec. Na IX-X, Kabupaten Labuhanbatu Utara";"SUMATERA UTARA";"21455";"Indonesia";"";"";"";"2.2380131";"99.6218881";"https://maps.google.com/?cid=0x0:0x82f30f05c13731ea";""
"komplek housing";"Komplek perumahan";"Bagas partidoan";"4PF3+HPR, Batu Tunggal, Kec. Na IX-X, Kabupaten Labuhanbatu Utara, Sumatera Utara 21454";"Batu Tunggal, Kec. Na IX-X, Kabupaten Labuhanbatu Utara";"SUMATERA UTARA";"21454";"Indonesia";"";"";"";"2.1250117";"99.7043032";"https://maps.google.com/?cid=0x0:0x3fa46c42d2eb1088";""
"komplek housing";"Komplek perumahan";"Solehuddin Dalimunte";"3MMR+8HX, Pematang, Kec. Na IX-X, Kabupaten Labuhanbatu Utara, Sumatera Utara";"Kabupaten Labuhanbatu Utara, Sumatera Utara";"SUMATERA UTARA";"";"Indonesia";"";"";"";"2.083354";"99.6914795";"https://maps.google.com/?cid=0x0:0x9dbe98e4061156e8";""
"komplek housing";"Komplek perumahan";"Kpg. Sabolah";"7M85+F89, Meranti Omas, Kec. Na IX-X, Kabupaten Labuhanbatu Utara, Sumatera Utara 21455";"Meranti Omas, Kec. Na IX-X, Kabupaten Labuhanbatu Utara";"SUMATERA UTARA";"21455";"Indonesia";"";"";"";"2.2666912";"99.6591346";"https://maps.google.com/?cid=0x0:0x4e07d798e1b69255";""
"komplek housing";"Komplek perumahan";"Rumah Wak Nano";"7QP5+QQ, Kp. Pajak, Kec. Na IX-X, Kabupaten Labuhanbatu Utara, Sumatera Utara";"Kabupaten Labuhanbatu Utara, Sumatera Utara";"SUMATERA UTARA";"";"Indonesia";"";"";"";"2.286891";"99.75949";"https://maps.google.com/?cid=0x0:0x2bbe4fa45ae9ca1a";""
"komplek housing";"Komplek perumahan";"KEDAI";"6QX8+GJ3, Aek Kota Batu, Kec. Na IX-X, Kabupaten Labuhanbatu Utara, Sumatera Utara 21452";"Aek Kota Batu, Kec. Na IX-X, Kabupaten Labuhanbatu Utara";"SUMATERA UTARA";"21452";"Indonesia";"";"";"";"2.2471025";"99.7665605";"https://maps.google.com/?cid=0x0:0xe0f0768e1a6ea1ca";""
"komplek housing";"Pembangunan Perumahan";"Lorong wonosari";"6QG2+QG, Perkebunan Berangir, Kec. Na IX-X, Kabupaten Labuhanbatu Utara, Sumatera Utara";"Kabupaten Labuhanbatu Utara, Sumatera Utara";"SUMATERA UTARA";"";"Indonesia";"";"";"";"2.226889";"99.751315";"https://maps.google.com/?cid=0x0:0x415efe429973d52b";""
"komplek housing";"Komplek perumahan";"Aceh";"4H38+X57, Hatapang, Kec. Na IX-X, Kabupaten Labuhanbatu Utara, Sumatera Utara";"Kabupaten Labuhanbatu Utara, Sumatera Utara";"SUMATERA UTARA";"";"Indonesia";"";"";"";"2.1049005";"99.5654175";"https://maps.google.com/?cid=0x0:0x6dc4123d3cc0c241";""
"komplek housing";"Komplek perumahan";"Rumah cunek";"7QH7+8JH, Kp. Pajak, Kec. Na IX-X, Kabupaten Labuhanbatu Utara, Sumatera Utara 21454";"Kp. Pajak, Kec. Na IX-X, Kabupaten Labuhanbatu Utara";"SUMATERA UTARA";"21454";"Indonesia";"";"";"";"2.2781406";"99.7642151";"https://maps.google.com/?cid=0x0:0xeac2cecaef5351c4";""
"komplek housing";"Pembangunan Perumahan";"Kampung peceran";"7M84+44V, Meranti Omas, Kec. Na IX-X, Kabupaten Labuhanbatu Utara, Sumatera Utara 21455";"Meranti Omas, Kec. Na IX-X, Kabupaten Labuhanbatu Utara";"SUMATERA UTARA";"21455";"Indonesia";"";"";"";"2.2653757";"99.6553692";"https://maps.google.com/?cid=0x0:0xd6b151a96c5c1f50";""
"komplek housing";"Perumahan";"Kavlingan Anugerah Kamsino";"Jl. Padang Maninjau No.7, Pulo Jantan, Kec. Na IX-X, Kabupaten Labuhanbatu Utara, Sumatera Utara 21455";"Pulo Jantan, Kec. Na IX-X, Kabupaten Labuhanbatu Utara";"SUMATERA UTARA";"21455";"Indonesia";"";"";"";"2.30243";"99.743954";"https://maps.google.com/?cid=0x0:0x682d5a2bac9e0fec";""
"komplek housing";"komplek housing";"Soelaeman jr";"4MFQ+MW4 Suka rakyat 2 (Getek Belakang, Batu Tunggal, Kec. Na IX-X, Kab Laura, Sumatera Utara 21454";"Batu Tunggal, Kec. Na IX-X, Kab Laura";"SUMATERA UTARA";"21454";"Indonesia";"";"";"";"2.1241332";"99.6898316";"https://maps.google.com/?cid=0x0:0xc3b259e3a2b299a7";""
"komplek housing";"Perumahan";"Perumahan kebun PT Binanga karya";"PT, Jl. Binanga, Pulo Jantan, Kec. Na IX-X, Kabupaten Labuhanbatu Utara, Sumatera Utara 21455";"Jl. Binanga, Pulo Jantan, Kec. Na IX-X, Kabupaten Labuhanbatu Utara";"SUMATERA UTARA";"21455";"Indonesia";"";"";"";"2.2931346";"99.7336145";"https://maps.google.com/?cid=0x0:0x19fcd12119e33902";""
"komplek housing";"Perumahan";"Rumah Harahap";"7Q7C+H63, Kp. Pajak, Kec. Na IX-X, Kabupaten Labuhanbatu Utara, Sumatera Utara 21454";"Kp. Pajak, Kec. Na IX-X, Kabupaten Labuhanbatu Utara";"SUMATERA UTARA";"21454";"Indonesia";"";"";"";"2.2650198";"99.7709685";"https://maps.google.com/?cid=0x0:0x545b6442a82b7b65";""
"komplek housing";"Komplek perumahan";"Zea Ollsop";"4MFQ+MW4, Batu Tunggal, Kec. Na IX-X, Kabupaten Labuhanbatu Utara, Sumatera Utara 21454";"Batu Tunggal, Kec. Na IX-X, Kabupaten Labuhanbatu Utara";"SUMATERA UTARA";"21454";"Indonesia";"";"";"";"2.1241332";"99.6898316";"https://maps.google.com/?cid=0x0:0x5255585b51645e3a";""
"komplek housing";"Komplek perumahan";"Rumah pak Abdul wahab";"7QP3+9RM, Aek Kota Batu, Kec. Na IX-X, Kabupaten Labuhanbatu Utara, Sumatera Utara 21454";"Aek Kota Batu, Kec. Na IX-X, Kabupaten Labuhanbatu Utara";"SUMATERA UTARA";"21454";"Indonesia";"";"";"";"2.2859667";"99.7545528";"https://maps.google.com/?cid=0x0:0x5141a0a7694e5aec";""
"komplek housing";"Komplek perumahan";"Markas BK DAK🔥";"6PWM+3HQ, Jl. SMA Aek Kota Batu, Perkebunan Berangir, Kec. Na IX-X, Kabupaten Labuhanbatu Utara, Sumatera Utara 21454";"Jl. SMA Aek Kota Batu, Perkebunan Berangir, Kec. Na IX-X, Kabupaten Labuhanbatu Utara";"SUMATERA UTARA";"21454";"Indonesia";"";"";"";"2.2452121";"99.7339758";"https://maps.google.com/?cid=0x0:0x41b14de7d6c03883";""
"komplek housing";"komplek housing";"Kec. Na IX-X";"Kabupaten Labuhanbatu Utara, Sumatera Utara";"Kabupaten Labuhanbatu Utara, Sumatera Utara";"SUMATERA UTARA";"";"Indonesia";"";"";"";"2.2624377";"99.7697495";"https://maps.google.com/?cid=0x0:0x2781bb78dc209a8d";""
"komplek housing";"komplek housing";"Rumah dek Irzan";"7QP3+MX2, Aek Kota Batu, Kec. Na IX-X, Kabupaten Labuhanbatu Utara, Sumatera Utara 21454";"Aek Kota Batu, Kec. Na IX-X, Kabupaten Labuhanbatu Utara";"SUMATERA UTARA";"21454";"Indonesia";"";"";"";"2.287226";"99.755485";"https://maps.google.com/?cid=0x0:0x132185243b7e2954";""
"komplek housing";"Komplek perumahan";"Rumah MJR";"3M2Q+HC, Tj. Medan, Kec. Bilah Bar., Kab. Labuhanbatu, Sumatera Utara 21454";"Tj. Medan, Kec. Bilah Bar., Kab. Labuhanbatu";"SUMATERA UTARA";"21454";"Indonesia";" 082267011361";"";"";"2.0519203";"99.6878209";"https://maps.google.com/?cid=0x0:0xe366225ef7340da";""
"komplek housing";"Pembangunan Perumahan";"Rumah bang mutte";"4MFQ+MW4, Huta baru, Batu Tunggal, Kec. Na IX-X, Kabupaten Labuhanbatu Utara, Sumatera Utara 21454";"Huta baru, Batu Tunggal, Kec. Na IX-X, Kabupaten Labuhanbatu Utara";"SUMATERA UTARA";"21454";"Indonesia";"";"";"";"2.1241332";"99.6898316";"https://maps.google.com/?cid=0x0:0xe4f4ed1f67ae84f0";""
"komplek housing";"Area Perburuan";"TONGKRONGAN ANAK MUDA BATU TUNGGAL";"4QP2+4P2 TONGKRONGAN ANAK MUDA, Batu Tunggal, Kec. Bilah Bar., Kab. Labuhanbatu, Sumatera Utara 21454";"Batu Tunggal, Kec. Bilah Bar., Kab. Labuhanbatu";"SUMATERA UTARA";"21454";"Indonesia";"";"";"";"2.1352613";"99.7517613";"https://maps.google.com/?cid=0x0:0x48968d530054cacd";""
"komplek housing";"Komplek perumahan";"Rumah Dokter Syukri Harahap";"7QJ6+4J2, Simpang Panigoran Kel, Aek Kota Batu, Kec. Na IX-X, Kabupaten Labuhanbatu Utara, Sumatera Utara 21454";"Simpang Panigoran Kel, Aek Kota Batu, Kec. Na IX-X, Kabupaten Labuhanbatu Utara";"SUMATERA UTARA";"21454";"Indonesia";"";"";"";"2.2804146";"99.7616422";"https://maps.google.com/?cid=0x0:0x9fd5d0d1e42f7d4f";""
"komplek housing";"komplek housing";"PASARIBU HOUSE";"4QP4+CHP, Jl. Aek Buru Batu Tunggal, Afdeling I. Rantau Prapat, Kec. Na IX-X, Kab. Labuhanbatu, Sumatera Utara 21454";"Jl. Aek Buru Batu Tunggal, Afdeling I. Rantau Prapat, Kec. Na IX-X, Kab. Labuhanbatu";"SUMATERA UTARA";"21454";"Indonesia";"";"";"";"2.1356347";"99.7564451";"https://maps.google.com/?cid=0x0:0xec9dfa368b01539";""
"komplek housing";"Perhimpunan Pengembang Perumahan";"Rahmat Toni Pardomuan Sagala";"5PHV+R42, dusun 3, Pasang Lela, Kec. Na IX-X, Kabupaten Labuhanbatu Utara, Sumatera Utara 21454";"dusun 3, Pasang Lela, Kec. Na IX-X, Kabupaten Labuhanbatu Utara";"SUMATERA UTARA";"21454";"Indonesia";"";"";"";"2.1795071";"99.7427775";"https://maps.google.com/?cid=0x0:0x1e13c6545b7c680b";""
"perumahan";"perumahan";"Kec. Aek Kuo";"Kabupaten Labuhanbatu Utara, Sumatera Utara";"Kabupaten Labuhanbatu Utara, Sumatera Utara";"SUMATERA UTARA";"";"Indonesia";"";"";"";"2.3161726";"99.8203062";"https://maps.google.com/?cid=0x0:0x4039d80b220d250";""
"perumahan";"Pembangunan Perumahan";"Perumahan Pondok kresek";"8RHP+C68, Perkebunan Panigoran, Kec. Aek Kuo, Kabupaten Labuhanbatu Utara, Sumatera Utara 21455";"Perkebunan Panigoran, Kec. Aek Kuo, Kabupaten Labuhanbatu Utara";"SUMATERA UTARA";"21455";"Indonesia";"";"";"";"2.3285401";"99.8355837";"https://maps.google.com/?cid=0x0:0x1c32de65cea8410d";""
"perumahan";"Komplek perumahan";"Rumah";"9R25+W3, Purworejo, Kec. Aek Kuo, Kabupaten Labuhanbatu Utara, Sumatera Utara";"Kabupaten Labuhanbatu Utara, Sumatera Utara";"SUMATERA UTARA";"";"Indonesia";"";"";"";"2.352364";"99.80771";"https://maps.google.com/?cid=0x0:0xb9c0306d1af45ae";""
"perumahan";"Komplek perumahan";"Rumah TIWI";"8RWM+J9X, Jl.lobu, Aek Korsik, Kec. Aek Kuo, Kabupaten Labuhanbatu Utara, Sumatera Utara";"Kabupaten Labuhanbatu Utara, Sumatera Utara";"SUMATERA UTARA";"";"Indonesia";"";"";"";"2.3466072";"99.8334698";"https://maps.google.com/?cid=0x0:0x39d8319cdf64d3d9";""
"perumahan";"Kantor Perusahaan";"Perumahan Staff PT.Sinarmas (Emplacement Padang Halaban)";"Karang Anyer, Kec. Aek Kuo, Kabupaten Labuhanbatu Utara, Sumatera Utara 21455";"Kec. Aek Kuo, Kabupaten Labuhanbatu Utara";"SUMATERA UTARA";"21455";"Indonesia";"";"";"";"2.323664";"99.8362918";"https://maps.google.com/?cid=0x0:0xd53eceead5718a77";""
"perumahan";"Penginapan";"Simpang aek marbatu";"8P6Q+G5H, Jl. Lintas Sumatra, Pulo Jantan, Kec. Na IX-X, Kabupaten Labuhanbatu Utara, Sumatera Utara 21455";"Jl. Lintas Sumatra, Pulo Jantan, Kec. Na IX-X, Kabupaten Labuhanbatu Utara";"SUMATERA UTARA";"21455";"Indonesia";"";"";"";"2.3113046";"99.7379835";"https://maps.google.com/?cid=0x0:0x26d59a8dfc87c03d";""
"perumahan";"Komplek perumahan";"My home Sirait/br Pakpahan";"8R69+PR6, Perkebunan Panigoran, Kec. Aek Kuo, Kabupaten Labuhanbatu Utara, Sumatera Utara 21455";"Perkebunan Panigoran, Kec. Aek Kuo, Kabupaten Labuhanbatu Utara";"SUMATERA UTARA";"21455";"Indonesia";"";"";"";"2.311784";"99.8195025";"https://maps.google.com/?cid=0x0:0xd62ea28eede8fd2";""
"perumahan";"Komplek perumahan";"Sahat jowanda volli";"9R7H+RX7, Purworejo, Kec. Aek Kuo, Kabupaten Labuhanbatu Utara, Sumatera Utara 21455";"Purworejo, Kec. Aek Kuo, Kabupaten Labuhanbatu Utara";"SUMATERA UTARA";"21455";"Indonesia";"";"";"";"2.3645477";"99.8299334";"https://maps.google.com/?cid=0x0:0x736523df096e0c25";""
"perumahan";"Perumahan";"Borneo Home";"8Q75+X44, Dusun 4, Padang Maninjau, Kec. Aek Kuo, Kabupaten Labuhanbatu Utara, Sumatera Utara 21455";"Dusun 4, Padang Maninjau, Kec. Aek Kuo, Kabupaten Labuhanbatu Utara";"SUMATERA UTARA";"21455";"Indonesia";" 081376340734";"";"";"2.3148798";"99.7578258";"https://maps.google.com/?cid=0x0:0x1949976826775580";""
"perumahan";"Pembangunan Perumahan";"PATOK BESI";"8VJ8+489, Karang Anyer, Kec. Aek Kuo, Kabupaten Labuhanbatu Utara, Sumatera Utara 21455";"Karang Anyer, Kec. Aek Kuo, Kabupaten Labuhanbatu Utara";"SUMATERA UTARA";"21455";"Indonesia";"";"";"";"2.3302995";"99.865845";"https://maps.google.com/?cid=0x0:0x7a0a927aadff8db8";""
"perumahan";"Komplek perumahan";"Rumah opung shelma panjaitan";"8RRJ+7R8, Purworejo, Kec. Aek Kuo, Kabupaten Labuhanbatu Utara, Sumatera Utara 21455";"Purworejo, Kec. Aek Kuo, Kabupaten Labuhanbatu Utara";"SUMATERA UTARA";"21455";"Indonesia";"";"";"";"2.3406506";"99.8320753";"https://maps.google.com/?cid=0x0:0x3d21decbcfbf175a";""
"perumahan";"Perhimpunan Pengembang Perumahan";"Pondok hansip padang halaban";"8R6Q+MW9, Sidomulyo, Kec. Aek Kuo, Kabupaten Labuhanbatu Utara, Sumatera Utara 21455";"Sidomulyo, Kec. Aek Kuo, Kabupaten Labuhanbatu Utara";"SUMATERA UTARA";"21455";"Indonesia";"";"";"";"2.3116624";"99.8398641";"https://maps.google.com/?cid=0x0:0x922eef11e4f7fcec";""
"perumahan";"Pembangunan Perumahan";"Perumahan Pks Torganda Gambangan Jaya";"9RQH+32M, Bandar Selamat, Kec. Aek Kuo, Kabupaten Labuhanbatu Utara, Sumatera Utara 21455";"Bandar Selamat, Kec. Aek Kuo, Kabupaten Labuhanbatu Utara";"SUMATERA UTARA";"21455";"Indonesia";"";"";"";"2.3877037";"99.8275377";"https://maps.google.com/?cid=0x0:0xbef2884ed32bc3ee";""
"perumahan";"Komplek perumahan";"Rumah ny Yani";"9QW8+4XM, Bandar Selamat, Kec. Aek Kuo, Kabupaten Labuhanbatu Utara, Sumatera Utara 21455";"Bandar Selamat, Kec. Aek Kuo, Kabupaten Labuhanbatu Utara";"SUMATERA UTARA";"21455";"Indonesia";"";"";"";"2.3953333";"99.7674314";"https://maps.google.com/?cid=0x0:0xa81141a77c4b0017";""
"perumahan";"Komplek perumahan";"Rumah Simatupang";"CR7F+VF2, Bandar Selamat, Kec. Aek Kuo, Kabupaten Labuhanbatu Utara, Sumatera Utara 21455";"Bandar Selamat, Kec. Aek Kuo, Kabupaten Labuhanbatu Utara";"SUMATERA UTARA";"21455";"Indonesia";"";"";"";"2.4146377";"99.8236533";"https://maps.google.com/?cid=0x0:0x3ef9dc7775546f83";""
"perumahan";"Pembangunan Perumahan";"Rumah dika ganzz";"9Q7V+X58, Purworejo, Kec. Aek Kuo, Kabupaten Labuhanbatu Utara, Sumatera Utara 21455";"Purworejo, Kec. Aek Kuo, Kabupaten Labuhanbatu Utara";"SUMATERA UTARA";"21455";"Indonesia";"";"";"";"2.3649115";"99.7929557";"https://maps.google.com/?cid=0x0:0xc879918ce86c1258";""
"perumahan";"Perumahan";"Rumah riska";"8RVV+69, Aek Korsik, Kec. Aek Kuo, Kabupaten Labuhanbatu Utara, Sumatera Utara";"Kabupaten Labuhanbatu Utara, Sumatera Utara";"SUMATERA UTARA";"";"Indonesia";"";"";"";"2.3431232";"99.843455";"https://maps.google.com/?cid=0x0:0xde83b853e0f5b7b5";""
"perumahan";"Komplek perumahan";"Gang masjid";"9Q6V+W64, Purworejo, Kec. Aek Kuo, Kabupaten Labuhanbatu Utara, Sumatera Utara 21455";"Purworejo, Kec. Aek Kuo, Kabupaten Labuhanbatu Utara";"SUMATERA UTARA";"21455";"Indonesia";"";"";"";"2.3622644";"99.7930801";"https://maps.google.com/?cid=0x0:0x712de678a1ff0a86";""
"perumahan";"Komplek perumahan";"Rumah pak lubis";"CR7X+P8J, Bandar Selamat, Kec. Aek Kuo, Kabupaten Labuhanbatu Utara, Sumatera Utara 21455";"Bandar Selamat, Kec. Aek Kuo, Kabupaten Labuhanbatu Utara";"SUMATERA UTARA";"21455";"Indonesia";"";"";"";"2.4143345";"99.8482809";"https://maps.google.com/?cid=0x0:0xbb26eab2a8da9e20";""
"perumahan";"Komplek perumahan";"Rumah Asisten Bibitan PHLE";"8R67+M6R, Perkebunan Panigoran, Kec. Aek Kuo, Kabupaten Labuhanbatu Utara, Sumatera Utara 21455";"Perkebunan Panigoran, Kec. Aek Kuo, Kabupaten Labuhanbatu Utara";"SUMATERA UTARA";"21455";"Indonesia";"";"";"";"2.3117364";"99.8130075";"https://maps.google.com/?cid=0x0:0xff77f3fa2456b4d2";""
"perumahan";"Komplek perumahan";"Purworejo";"9R42+GGW, Purworejo, Kec. Aek Kuo, Kabupaten Labuhanbatu Utara, Sumatera Utara 21455";"Purworejo, Kec. Aek Kuo, Kabupaten Labuhanbatu Utara";"SUMATERA UTARA";"21455";"Indonesia";"";"";"";"2.3563732";"99.8013351";"https://maps.google.com/?cid=0x0:0x1ad938333aa25bbd";""
"perumahan";"Pusat Kesehatan Masyarakat";"Rumah Dinas Puskesmas Aek korsik Labura";"Jln .protokol No.4, Aek Korsik, Kec. Aek Kuo, Kabupaten Labuhanbatu Utara, Sumatera Utara";"Kabupaten Labuhanbatu Utara, Sumatera Utara";"SUMATERA UTARA";"";"Indonesia";"";"";"";"2.3402801";"99.8343381";"https://maps.google.com/?cid=0x0:0xe4d34e3688b6b0e8";""
"perumahan";"perumahan";"Sumatera Utara 21455";"Kabupaten Labuhanbatu Utara, Sumatera Utara";"Kabupaten Labuhanbatu Utara, Sumatera Utara";"SUMATERA UTARA";"";"Indonesia";"";"";"";"2.1543963";"99.5006143";"https://maps.google.com/?cid=0x0:0x391266e2c2e7c92";""
"perumahan";"Gedung Apartemen";"Perum Situmorang";"7JVW+M5R, Jl. Simonis, Simonis, Kec. Aek Natas, Kabupaten Labuhanbatu Utara, Sumatera Utara 21455";"Jl. Simonis, Simonis, Kec. Aek Natas, Kabupaten Labuhanbatu Utara";"SUMATERA UTARA";"21455";"Indonesia";"";"";"";"2.2933504";"99.6454415";"https://maps.google.com/?cid=0x0:0x1a4a116a1efcbf04";""
"perumahan";"Perumahan";"Kampung Pamaratan";"CQ64+3CV, Pangkalan, Kec. Aek Natas, Kabupaten Labuhanbatu Utara, Sumatera Utara 21455";"Pangkalan, Kec. Aek Natas, Kabupaten Labuhanbatu Utara";"SUMATERA UTARA";"21455";"Indonesia";"";"";"";"2.410238";"99.7560416";"https://maps.google.com/?cid=0x0:0xb1bdd6c7f79f1459";""
"perumahan";"Komplek perumahan";"Rumah sitinjak";"CQ53+WX5, Pangkalan, Kec. Aek Natas, Kabupaten Labuhanbatu Utara, Sumatera Utara 21455";"Pangkalan, Kec. Aek Natas, Kabupaten Labuhanbatu Utara";"SUMATERA UTARA";"21455";"Indonesia";"";"";"";"2.409757";"99.7549944";"https://maps.google.com/?cid=0x0:0x20047faa6edaad7a";""
"perumahan";"Komplek perumahan";"Darussalam";"7J78+HQ, Rombisan, Kec. Aek Natas, Kabupaten Labuhanbatu Utara, Sumatera Utara 21455";"Rombisan, Kec. Aek Natas, Kabupaten Labuhanbatu Utara";"SUMATERA UTARA";"21455";"Indonesia";"";"";"";"2.26387";"99.6169544";"https://maps.google.com/?cid=0x0:0xb215be45faca368f";""
"perumahan";"Penginapan";"Simpang aek marbatu";"8P6Q+G5H, Jl. Lintas Sumatra, Pulo Jantan, Kec. Na IX-X, Kabupaten Labuhanbatu Utara, Sumatera Utara 21455";"Jl. Lintas Sumatra, Pulo Jantan, Kec. Na IX-X, Kabupaten Labuhanbatu Utara";"SUMATERA UTARA";"21455";"Indonesia";"";"";"";"2.3113046";"99.7379835";"https://maps.google.com/?cid=0x0:0x26d59a8dfc87c03d";""
"perumahan";"Komplek perumahan";"Rumah Nababan";"9P65+C5C, Bandar Durian, Kec. Aek Natas, Kabupaten Labuhanbatu Utara, Sumatera Utara";"Kabupaten Labuhanbatu Utara, Sumatera Utara";"SUMATERA UTARA";"";"Indonesia";"";"";"";"2.3610715";"99.7079018";"https://maps.google.com/?cid=0x0:0x6f40957e03f403a5";""
"perumahan";"Komplek perumahan";"Lorong Kates";"CQ65+WM2, Pangkalan, Kec. Aek Natas, Kabupaten Labuhanbatu Utara, Sumatera Utara 21455";"Pangkalan, Kec. Aek Natas, Kabupaten Labuhanbatu Utara";"SUMATERA UTARA";"21455";"Indonesia";"";"";"";"2.4122539";"99.7591561";"https://maps.google.com/?cid=0x0:0x788b76e9667769dc";""
"perumahan";"Perhimpunan Pengembang Perumahan";"Bandar Berseri";"Jl. Lintas Sumatra No.9-16, Bandar Durian, Kec. Aek Natas, Kabupaten Labuhanbatu Utara, Sumatera Utara 21455";"Bandar Durian, Kec. Aek Natas, Kabupaten Labuhanbatu Utara";"SUMATERA UTARA";"21455";"Indonesia";"";"";"";"2.3521514";"99.7141657";"https://maps.google.com/?cid=0x0:0xadc20785c6763c42";""
"perumahan";"perumahan";"Sukajaya";"4G8W+42X, Poldung, Kec. Aek Natas, Kabupaten Labuhanbatu Utara, Sumatera Utara";"Kabupaten Labuhanbatu Utara, Sumatera Utara";"SUMATERA UTARA";"";"Indonesia";"";"";"";"2.1153547";"99.5450974";"https://maps.google.com/?cid=0x0:0x328ef5c01222139d";""
"perumahan";"Perumahan";"Kampung Darat (Magorjo)";"CP2W+RGP, Pangkalan, Kec. Aek Natas, Kabupaten Labuhanbatu Utara, Sumatera Utara 21455";"Pangkalan, Kec. Aek Natas, Kabupaten Labuhanbatu Utara";"SUMATERA UTARA";"21455";"Indonesia";"";"";"";"2.4020903";"99.7463194";"https://maps.google.com/?cid=0x0:0x517f027e355455ff";""
"perumahan";"Komplek perumahan";"Sarah Sagala";"8JHQ+FG, Perkebunan Aek Pamingke, Kec. Aek Natas, Kabupaten Labuhanbatu Utara, Sumatera Utara 21455";"Perkebunan Aek Pamingke, Kec. Aek Natas, Kabupaten Labuhanbatu Utara";"SUMATERA UTARA";"21455";"Indonesia";"";"";"";"2.3287126";"99.6388529";"https://maps.google.com/?cid=0x0:0xf25d3bed9d42eefc";""
"perumahan";"Komplek perumahan";"Kampung Rintis Kacang";"CQ72+PC5, Pangkalan, Kec. Aek Natas, Kabupaten Labuhanbatu Utara, Sumatera Utara 21455";"Pangkalan, Kec. Aek Natas, Kabupaten Labuhanbatu Utara";"SUMATERA UTARA";"21455";"Indonesia";"";"";"";"2.414273";"99.7511167";"https://maps.google.com/?cid=0x0:0x352816bb019ca585";""
"perumahan";"Pembangunan Perumahan";"P.siantar";"4G8W+42X, Poldung, Kec. Aek Natas, Kabupaten Labuhanbatu Utara, Sumatera Utara 21455";"Poldung, Kec. Aek Natas, Kabupaten Labuhanbatu Utara";"SUMATERA UTARA";"21455";"Indonesia";"";"";"";"2.1153547";"99.5450974";"https://maps.google.com/?cid=0x0:0x4a90babc10094460";""
"perumahan";"Pembangunan Perumahan";"Rumah parlin";"4G8W+42X, Poldung, Kec. Aek Natas, Kabupaten Labuhanbatu Utara, Sumatera Utara 21455";"Poldung, Kec. Aek Natas, Kabupaten Labuhanbatu Utara";"SUMATERA UTARA";"21455";"Indonesia";"";"";"";"2.1153547";"99.5450974";"https://maps.google.com/?cid=0x0:0xdfa79e2a1a5ad0";""
"perumahan";"Perhimpunan Pengembang Perumahan";"Toko AD rumah pak iwan nst";"8PWC+C88, Kp. Yaman, Kec. Aek Natas, Kabupaten Labuhanbatu Utara, Sumatera Utara 21455";"Kp. Yaman, Kec. Aek Natas, Kabupaten Labuhanbatu Utara";"SUMATERA UTARA";"21455";"Indonesia";"";"";"";"2.3462296";"99.7209498";"https://maps.google.com/?cid=0x0:0x80f5b8e1023bb649";""
"perumahan";"Perumahan";"Bg tapa";"7MVG+QJC, Jl. Simonis, Simonis, Kec. Aek Natas, Kabupaten Labuhanbatu Utara, Sumatera Utara 21455";"Jl. Simonis, Simonis, Kec. Aek Natas, Kabupaten Labuhanbatu Utara";"SUMATERA UTARA";"21455";"Indonesia";"";"";"";"2.2944308";"99.6765011";"https://maps.google.com/?cid=0x0:0x34bf9fa9c63c7f58";""
"perumahan";"Komplek perumahan";"RUMAH SIHOMBING";"9P65+74V, Bandar Durian, Kec. Aek Natas, Kabupaten Labuhanbatu Utara, Sumatera Utara 21455";"Bandar Durian, Kec. Aek Natas, Kabupaten Labuhanbatu Utara";"SUMATERA UTARA";"21455";"Indonesia";"";"";"";"2.3607489";"99.7077915";"https://maps.google.com/?cid=0x0:0x471d8ab804131029";""
"perumahan";"Perkebunan Pohon";"Aek pamienke";"9P4M+PQM, Pangkalan, Kec. Aek Natas, Kabupaten Labuhanbatu Utara, Sumatera Utara 21455";"Pangkalan, Kec. Aek Natas, Kabupaten Labuhanbatu Utara";"SUMATERA UTARA";"21455";"Indonesia";"";"";"";"2.3568465";"99.7344154";"https://maps.google.com/?cid=0x0:0xdb3832d3961bed79";""
"perumahan";"";"Keluarga Pasaribu";"CP8M+5FW, Terang Bulan, Kec. Aek Natas, Kabupaten Labuhanbatu Utara, Sumatera Utara 21455";"Terang Bulan, Kec. Aek Natas, Kabupaten Labuhanbatu Utara";"SUMATERA UTARA";"21455";"Indonesia";"";"";"";"2.4154925";"99.7337027";"https://maps.google.com/?cid=0x0:0xe74c28830125b62e";""
"perumahan";"Komplek perumahan";"Air batu";"9PR4+WH, Terang Bulan, Kec. Aek Natas, Kabupaten Labuhanbatu Utara, Sumatera Utara 21455";"Terang Bulan, Kec. Aek Natas, Kabupaten Labuhanbatu Utara";"SUMATERA UTARA";"21455";"Indonesia";"";"";"";"2.3937465";"99.7077379";"https://maps.google.com/?cid=0x0:0xb60aacd110c251aa";""
"perumahan";"Bar";"Pondok seng";"8PXM+226, Jl. Lintas Sumatra, Bandar Durian, Kec. Aek Natas, Kabupaten Labuhanbatu Utara, Sumatera Utara 21455";"Jl. Lintas Sumatra, Bandar Durian, Kec. Aek Natas, Kabupaten Labuhanbatu Utara";"SUMATERA UTARA";"21455";"Indonesia";"";"";"";"2.3475354";"99.732527";"https://maps.google.com/?cid=0x0:0x2b4bd46af3090b20";""
"perumahan";"Perhimpunan Pengembang Perumahan";"Bandar durian bawah";"Jl. Lintas Sumatra No.3, Bandar Durian, Kec. Aek Natas, Kabupaten Labuhanbatu Utara, Sumatera Utara 21455";"Bandar Durian, Kec. Aek Natas, Kabupaten Labuhanbatu Utara";"SUMATERA UTARA";"21455";"Indonesia";"";"";"";"2.346679";"99.7224322";"https://maps.google.com/?cid=0x0:0x7ac4be5096f94c45";""
"perumahan";"Komplek perumahan";"Simpang Kampung Darat";"9QV2+PH4, Pangkalan, Kec. Aek Natas, Kabupaten Labuhanbatu Utara, Sumatera Utara 21455";"Pangkalan, Kec. Aek Natas, Kabupaten Labuhanbatu Utara";"SUMATERA UTARA";"21455";"Indonesia";"";"";"";"2.394253";"99.7514389";"https://maps.google.com/?cid=0x0:0x9b79c451fbaee72c";""
"perumahan";"perumahan";"Sumatera Utara 21474";"Kec. Kualuh Hilir, Kabupaten Labuhanbatu Utara, Sumatera Utara";"Kabupaten Labuhanbatu Utara, Sumatera Utara";"SUMATERA UTARA";"";"Indonesia";"";"";"";"2.5204832";"100.0135929";"https://maps.google.com/?cid=0x0:0x556108f16bd7ca29";""
"perumahan";"Komplek perumahan";"Rumah akmal dan Keisha";"GX52+9W3, Unnamed Road, Kuala Bangka, Kec. Kualuh Hilir, Kabupaten Labuhanbatu Utara, Sumatera Utara 21474";"Unnamed Road, Kuala Bangka, Kec. Kualuh Hilir, Kabupaten Labuhanbatu Utara";"SUMATERA UTARA";"21474";"Indonesia";"";"";"";"2.508389";"99.952306";"https://maps.google.com/?cid=0x0:0x68d0ed6460db0615";""
"perumahan";"Perhimpunan Pengembang Perumahan";"YusMil Family";"Pasar Bilah No.2 b, Kp. Mesjid, Kec. Kualuh Hilir, Kabupaten Labuhanbatu Utara, Sumatera Utara 21474";"Kp. Mesjid, Kec. Kualuh Hilir, Kabupaten Labuhanbatu Utara";"SUMATERA UTARA";"21474";"Indonesia";"";"";"";"2.5584237";"100.0628905";"https://maps.google.com/?cid=0x0:0xda9243a62d060946";""
"perumahan";"Komplek perumahan";"Keluarga Endut";"Pasar Bilah No.2 b, Kp. Mesjid, Kec. Kualuh Hilir, Kabupaten Labuhanbatu Utara, Sumatera Utara 21474";"Kp. Mesjid, Kec. Kualuh Hilir, Kabupaten Labuhanbatu Utara";"SUMATERA UTARA";"21474";"Indonesia";" 085373027171";"";"";"2.558895";"100.0630122";"https://maps.google.com/?cid=0x0:0xa1e46fb78ea93910";""
"perumahan";"Komplek perumahan";"rumah pekerja ringo labuara";"HXG2+W3, Sungai Apung, Kec. Kualuh Hilir, Kabupaten Labuhanbatu Utara, Sumatera Utara 21474";"Sungai Apung, Kec. Kualuh Hilir, Kabupaten Labuhanbatu Utara";"SUMATERA UTARA";"21474";"Indonesia";"";"";"";"2.5773586";"99.9501652";"https://maps.google.com/?cid=0x0:0xdf6cbbb4676e9f0b";""
"perumahan";"Masjid";"Tumbu'an kampung mesjid";"G3W2+FX, Sungai Sentang, Kec. Kualuh Hilir, Kabupaten Labuhanbatu Utara, Sumatera Utara 21474";"Sungai Sentang, Kec. Kualuh Hilir, Kabupaten Labuhanbatu Utara";"SUMATERA UTARA";"21474";"Indonesia";"";"";"";"2.5461466";"100.0524621";"https://maps.google.com/?cid=0x0:0xa4a539658625cae0";""
"perumahan";"Perhimpunan Pengembang Perumahan";"Petran m.soleh";"F2WV+2C, Sungai Sentang, Kec. Kualuh Hilir, Kabupaten Labuhanbatu Utara, Sumatera Utara 21474";"Sungai Sentang, Kec. Kualuh Hilir, Kabupaten Labuhanbatu Utara";"SUMATERA UTARA";"21474";"Indonesia";"";"";"";"2.4949655";"100.043534";"https://maps.google.com/?cid=0x0:0x9b6a343d60e7bdcd";""
"perumahan";"Perhimpunan Pengembang Perumahan";"Teluk piai";"J23R+W48, Tlk. Piai, Kec. Kualuh Hilir, Kabupaten Labuhanbatu Utara, Sumatera Utara 21474";"Tlk. Piai, Kec. Kualuh Hilir, Kabupaten Labuhanbatu Utara";"SUMATERA UTARA";"21474";"Indonesia";"";"";"";"2.6047947";"100.0403165";"https://maps.google.com/?cid=0x0:0xec3ae6d1282a3a0d";""
"perumahan";"Komplek perumahan";"Sunarsun";"GXW5+879, Kuala Bangka, Kec. Kualuh Hilir, Kabupaten Labuhanbatu Utara, Sumatera Utara 21474";"Kuala Bangka, Kec. Kualuh Hilir, Kabupaten Labuhanbatu Utara";"SUMATERA UTARA";"21474";"Indonesia";"";"";"";"2.5452926";"99.957421";"https://maps.google.com/?cid=0x0:0xa878d1e2fd704ca8";""
"perumahan";"Menara komunikasi";"Dusun pardomuan";"M2JQ+QJ, Tj. Mangedar, Kec. Kualuh Hilir, Kabupaten Labuhanbatu Utara, Sumatera Utara";"Kabupaten Labuhanbatu Utara, Sumatera Utara";"SUMATERA UTARA";"";"Indonesia";"";"";"";"2.6819201";"100.0390986";"https://maps.google.com/?cid=0x0:0x526ddbad51ba40da";""
"perumahan";"Komplek perumahan";"Rumah tahir";"GXW5+879, Kuala Bangka, Kec. Kualuh Hilir, Kabupaten Labuhanbatu Utara, Sumatera Utara 21474";"Kuala Bangka, Kec. Kualuh Hilir, Kabupaten Labuhanbatu Utara";"SUMATERA UTARA";"21474";"Indonesia";"";"";"";"2.545452";"99.9575863";"https://maps.google.com/?cid=0x0:0x9100a2285d1b78a2";""
"perumahan";"Komplek perumahan";"Rumah Op.Aila";"M354+P28, Tj. Mangedar, Kec. Kualuh Hilir, Kabupaten Labuhanbatu Utara, Sumatera Utara";"Kabupaten Labuhanbatu Utara, Sumatera Utara";"SUMATERA UTARA";"";"Indonesia";"";"";"";"2.6592928";"100.0550897";"https://maps.google.com/?cid=0x0:0x240189fb8a6b1157";""
"perumahan";"Komplek perumahan";"rumah sari";"GW7X+HR9, Kuala Bangka, Kec. Kualuh Hilir, Kabupaten Labuhanbatu Utara, Sumatera Utara 21474";"Kuala Bangka, Kec. Kualuh Hilir, Kabupaten Labuhanbatu Utara";"SUMATERA UTARA";"21474";"Indonesia";"";"";"";"2.513541";"99.949852";"https://maps.google.com/?cid=0x0:0xcf82a36dd01c8209";""
"perumahan";"Komplek perumahan";"A.mesra pakpahan";"JXCH+6JW, Tj. Mangedar, Kec. Kualuh Hilir, Kabupaten Labuhanbatu Utara, Sumatera Utara";"Kabupaten Labuhanbatu Utara, Sumatera Utara";"SUMATERA UTARA";"";"Indonesia";"";"";"";"2.6206008";"99.9790745";"https://maps.google.com/?cid=0x0:0x8f5dc250ac03e972";""
"perumahan";"Pembangunan Perumahan";"Rumah Adly Rtg";"GW4X+RPX, Kuala Bangka, Kec. Kualuh Hilir, Kabupaten Labuhanbatu Utara, Sumatera Utara 21474";"Kuala Bangka, Kec. Kualuh Hilir, Kabupaten Labuhanbatu Utara";"SUMATERA UTARA";"21474";"Indonesia";"";"";"";"2.5069438";"99.9494669";"https://maps.google.com/?cid=0x0:0x57b18d83fc6bff26";""
"perumahan";"Pembangunan Perumahan";"Rumah Bang Tanjung Kualuh Hilir";"GX52+QR3, Kuala Bangka, Kec. Kualuh Hilir, Kabupaten Labuhanbatu Utara, Sumatera Utara";"Kabupaten Labuhanbatu Utara, Sumatera Utara";"SUMATERA UTARA";"";"Indonesia";"";"";"";"2.5093929";"99.9520333";"https://maps.google.com/?cid=0x0:0xf6d07b25894151bb";""
"perumahan";"Perhimpunan Pengembang Perumahan";"KNU";"F237+QJ, Sungai Sentang, Kec. Kualuh Hilir, Kabupaten Labuhanbatu Utara, Sumatera Utara";"Kabupaten Labuhanbatu Utara, Sumatera Utara";"SUMATERA UTARA";"";"Indonesia";"";"";"";"2.4544961";"100.0140093";"https://maps.google.com/?cid=0x0:0x8d1dc42595672224";""
"perumahan";"Perhimpunan Pengembang Perumahan";"Rumah nek anggah";"GXW5+879, Kuala Bangka, Kec. Kualuh Hilir, Kabupaten Labuhanbatu Utara, Sumatera Utara 21474";"Kuala Bangka, Kec. Kualuh Hilir, Kabupaten Labuhanbatu Utara";"SUMATERA UTARA";"21474";"Indonesia";"";"";"";"2.5456992";"99.9579692";"https://maps.google.com/?cid=0x0:0xe1573f8285e66abc";""
"perumahan";"Komplek perumahan";"Nurli Ritonga";"H2F6+7Q, Sungai Sentang, Kec. Kualuh Hilir, Kabupaten Labuhanbatu Utara, Sumatera Utara 21474";"Sungai Sentang, Kec. Kualuh Hilir, Kabupaten Labuhanbatu Utara";"SUMATERA UTARA";"21474";"Indonesia";"";"";"";"2.5731393";"100.0119899";"https://maps.google.com/?cid=0x0:0x5adbb52ccfe7b769";""
"perumahan";"Pembangunan Perumahan";"Kp Jawa";"H3F3+H35, Kp. Mesjid, Kec. Kualuh Hilir, Kabupaten Labuhanbatu Utara, Sumatera Utara";"Kabupaten Labuhanbatu Utara, Sumatera Utara";"SUMATERA UTARA";"";"Indonesia";"";"";"";"2.5738889";"100.0527498";"https://maps.google.com/?cid=0x0:0xb9e169bcd8e7da18";""
"perumahan";"Rumah Kayu";"Desa Bangun Horas Blok I";"M24R+8X3, Tj. Mangedar, Kec. Kualuh Hilir, Kabupaten Labuhanbatu Utara, Sumatera Utara 21474";"Tj. Mangedar, Kec. Kualuh Hilir, Kabupaten Labuhanbatu Utara";"SUMATERA UTARA";"21474";"Indonesia";" 082272053433";"";"";"2.6558111";"100.0424794";"https://maps.google.com/?cid=0x0:0xb62b08782892efe8";""
"perumahan";"Komplek perumahan";"Rumah buk NURHAYATI";"GX62+5CF, Kuala Bangka, Kec. Kualuh Hilir, Kabupaten Labuhanbatu Utara, Sumatera Utara 21474";"Kuala Bangka, Kec. Kualuh Hilir, Kabupaten Labuhanbatu Utara";"SUMATERA UTARA";"21474";"Indonesia";"";"";"";"2.511391";"99.9512912";"https://maps.google.com/?cid=0x0:0x8f961d433733f05a";""
"perumahan";"Pusat Pendidikan";"Rumah Tahfidz Adzkia";"H2HF+2J4, Sungai Sentang, Kec. Kualuh Hilir, Kabupaten Labuhanbatu Utara, Sumatera Utara 21474";"Sungai Sentang, Kec. Kualuh Hilir, Kabupaten Labuhanbatu Utara";"SUMATERA UTARA";"21474";"Indonesia";"";"";"";"2.5775057";"100.0240884";"https://maps.google.com/?cid=0x0:0x221eac50b7ad8e22";""
"perumahan";"Otoritas Pelabuhan";"Pantai belanak";"HXCF+W5J, Sungai Apung, Kec. Kualuh Hilir, Kabupaten Labuhanbatu Utara, Sumatera Utara 21474";"Sungai Apung, Kec. Kualuh Hilir, Kabupaten Labuhanbatu Utara";"SUMATERA UTARA";"21474";"Indonesia";"";"";"";"2.5723385";"99.9728819";"https://maps.google.com/?cid=0x0:0x164ac94ec25dfd89";""
"perumahan";"Perumahan";"A.prendi sinambela";"JX9H+P2W, Tj. Mangedar, Kec. Kualuh Hilir, Kabupaten Labuhanbatu Utara, Sumatera Utara 21475";"Tj. Mangedar, Kec. Kualuh Hilir, Kabupaten Labuhanbatu Utara";"SUMATERA UTARA";"21475";"Indonesia";"";"";"";"2.6194127";"99.9776089";"https://maps.google.com/?cid=0x0:0x1b6b5d5992476d2f";""
"perumahan";"Perhimpunan Pengembang Perumahan";"Dian pratama";"G2W8+G96, Unnamed Road, Sungai Sentang, Kec. Kualuh Hilir, Kabupaten Labuhanbatu Utara, Sumatera Utara 21474";"Unnamed Road, Sungai Sentang, Kec. Kualuh Hilir, Kabupaten Labuhanbatu Utara";"SUMATERA UTARA";"21474";"Indonesia";"";"";"";"2.546284";"100.0158826";"https://maps.google.com/?cid=0x0:0x10474b1e433abc6";""
"perumahan";"Komplek perumahan";"Sarah Simatupang";"GW4X+RPX, Kuala Bangka, Kec. Kualuh Hilir, Kabupaten Labuhanbatu Utara, Sumatera Utara 21474";"Kuala Bangka, Kec. Kualuh Hilir, Kabupaten Labuhanbatu Utara";"SUMATERA UTARA";"21474";"Indonesia";"";"";"";"2.5070866";"99.9494393";"https://maps.google.com/?cid=0x0:0x518d7e05ebbde94d";""
"perumahan";"Komplek perumahan";"RUMAH TOGU TAMPUBOLON";"FWGH+QQ7, Kuala Bangka, Kec. Kualuh Hilir, Kabupaten Labuhanbatu Utara, Sumatera Utara";"Kabupaten Labuhanbatu Utara, Sumatera Utara";"SUMATERA UTARA";"";"Indonesia";"";"";"";"2.476907";"99.9294301";"https://maps.google.com/?cid=0x0:0x2ee87ca05ee11b1e";""
"perumahan";"Toko";"Fayruz Bisnis Center";"H2FJ+J48, Lingkungan Pasar Bilah I.B, Kp. Mesjid, Kec. Kualuh Hilir, Kabupaten Labuhanbatu Utara, Sumatera Utara 21474";"Lingkungan Pasar Bilah I.B, Kp. Mesjid, Kec. Kualuh Hilir, Kabupaten Labuhanbatu Utara";"SUMATERA UTARA";"21474";"Indonesia";"";"";"";"2.5740306";"100.0303384";"https://maps.google.com/?cid=0x0:0xc872e49d0fe0712f";""
"perumahan";"perumahan";"Sumatera Utara 21457";"Kec. Kualuh Sel., Kabupaten Labuhanbatu Utara, Sumatera Utara";"Kabupaten Labuhanbatu Utara, Sumatera Utara";"SUMATERA UTARA";"";"Indonesia";"";"";"";"2.4644513";"99.6786894";"https://maps.google.com/?cid=0x0:0xbeeda126e9c5dc9c";""
"perumahan";"perumahan";"Rumah Silaen";"GJ4J+7CC, Damuli Pekan, Kec. Kualuh Sel., Kabupaten Labuhanbatu Utara, Sumatera Utara 21457";"Damuli Pekan, Kec. Kualuh Sel., Kabupaten Labuhanbatu Utara";"SUMATERA UTARA";"21457";"Indonesia";"";"";"";"2.5056891";"99.6310052";"https://maps.google.com/?cid=0x0:0xa91edbae61f3d27c";""
"perumahan";"Komplek perumahan";"Rumah ikwa";"HH94+J5R, Perkebunan Londut, Kec. Kualuh Hulu, Kabupaten Labuhanbatu Utara, Sumatera Utara 21457";"Perkebunan Londut, Kec. Kualuh Hulu, Kabupaten Labuhanbatu Utara";"SUMATERA UTARA";"21457";"Indonesia";"";"";"";"2.5693294";"99.5558045";"https://maps.google.com/?cid=0x0:0xe874657e7cbfe9e4";""
"perumahan";"Developer Rumah Hunian Khusus";"Perumahan Santiara Pertiwi";"Jl. Lintas Sumatra No.16, Damuli Pekan, Kec. Kualuh Sel., Kabupaten Labuhanbatu Utara, Sumatera Utara 21457";"Damuli Pekan, Kec. Kualuh Sel., Kabupaten Labuhanbatu Utara";"SUMATERA UTARA";"21457";"Indonesia";" 081269359165";"";"";"2.5048587";"99.6316969";"https://maps.google.com/?cid=0x0:0x1a55169d9fdb6fb3";""
"perumahan";"Komplek perumahan";"Rumah Yogi Silitonga";"HP8J+HF7, Sukarame, Kec. Kualuh Hulu, Kabupaten Labuhanbatu Utara, Sumatera Utara 21457";"Sukarame, Kec. Kualuh Hulu, Kabupaten Labuhanbatu Utara";"SUMATERA UTARA";"21457";"Indonesia";"";"";"";"2.5664135";"99.7311843";"https://maps.google.com/?cid=0x0:0xa941505672b45247";""
"perumahan";"Komplek perumahan";"Lorong Parsaoran";"HH5P+JHR, Pulo Dogom, Kec. Kualuh Hulu, Kabupaten Labuhanbatu Utara, Sumatera Utara 21457";"Pulo Dogom, Kec. Kualuh Hulu, Kabupaten Labuhanbatu Utara";"SUMATERA UTARA";"21457";"Indonesia";"";"";"";"2.5591173";"99.5863975";"https://maps.google.com/?cid=0x0:0x90d290a1e5f888a8";""
"perumahan";"Komplek perumahan";"Rumah putrivirautami";"HGGW+8PV, Perkebunan Londut, Kec. Kualuh Hulu, Kabupaten Labuhanbatu Utara, Sumatera Utara 21457";"Perkebunan Londut, Kec. Kualuh Hulu, Kabupaten Labuhanbatu Utara";"SUMATERA UTARA";"21457";"Indonesia";"";"";"";"2.5746803";"99.5464543";"https://maps.google.com/?cid=0x0:0xfd52341e2439638c";""
"perumahan";"Perhimpunan Pengembang Perumahan";"Dusun 1";"HMJ3+6RH, Jl. Sukarame, Aek Kanopan Tim., Kec. Kualuh Hulu, Kabupaten Labuhanbatu Utara, Sumatera Utara 21273";"Jl. Sukarame, Aek Kanopan Tim., Kec. Kualuh Hulu, Kabupaten Labuhanbatu Utara";"SUMATERA UTARA";"21273";"Indonesia";"";"";"";"2.579922";"99.654727";"https://maps.google.com/?cid=0x0:0x53fc426abeef18a5";""
"perumahan";"Komplek perumahan";"RUMAH OPUNG HOMBING";"HPHW+8P6, Jl. Abdul Wahid, Sukarame, Kec. Kualuh Hulu, Kabupaten Labuhanbatu Utara, Sumatera Utara 21457";"Jl. Abdul Wahid, Sukarame, Kec. Kualuh Hulu, Kabupaten Labuhanbatu Utara";"SUMATERA UTARA";"21457";"Indonesia";"";"";"";"2.5782953";"99.7467563";"https://maps.google.com/?cid=0x0:0xcb2ad1e0e7ad2124";""
"perumahan";"Masjid";"Perumahan Labura Permai";"Jalan Pejuang No.45, East Aek Kanopan, Kualuh Hulu, North Labuhan Batu Regency, North Sumatra 21273";"East Aek Kanopan, Kualuh Hulu, North Labuhan Batu Regency";"SUMATERA UTARA";"21273";"Indonesia";"";"";"";"2.5717088";"99.6518061";"https://maps.google.com/?cid=0x0:0x56cec173ea2702c9";""
"perumahan";"Perumahan";"Perumahan Puri Damuli Minimalis 1";"GJ5Q+WPQ, Unnamed Road, Damuli Pekan, Kec. Kualuh Sel., Kabupaten Labuhanbatu Utara, Sumatera Utara 21457";"Unnamed Road, Damuli Pekan, Kec. Kualuh Sel., Kabupaten Labuhanbatu Utara";"SUMATERA UTARA";"21457";"Indonesia";"";"";"";"2.5098257";"99.63937";"https://maps.google.com/?cid=0x0:0x7ee7ec647c0980b5";""
"perumahan";"Pembangunan Perumahan";"Brand Stuff";"FJGQ+3X2 Kode Pos, Palia Dusun IV A, Gn. Melayu, Kec. Kualuh Sel., Kabupaten Labuhanbatu Utara, Sumatera Utara 21458";"Palia Dusun IV A, Gn. Melayu, Kec. Kualuh Sel., Kabupaten Labuhanbatu Utara";"SUMATERA UTARA";"21458";"Indonesia";"";"";"";"2.4751391";"99.6399057";"https://maps.google.com/?cid=0x0:0x36a3dd16083c400a";""
"perumahan";"Komplek perumahan";"Perumahan KOIN";"GPH3+7MR, Gunting Saga, Kec. Kualuh Sel., Kabupaten Labuhanbatu Utara, Sumatera Utara 21457";"Gunting Saga, Kec. Kualuh Sel., Kabupaten Labuhanbatu Utara";"SUMATERA UTARA";"21457";"Indonesia";"";"";"";"2.5282354";"99.7041387";"https://maps.google.com/?cid=0x0:0x621a9503e4b5783f";""
"perumahan";"Komplek perumahan";"Rumah ANTON";"Jl. Raja Lobu No.184, Sukarame, Kec. Kualuh Hulu, Kabupaten Labuhanbatu Utara, Sumatera Utara 21457";"Sukarame, Kec. Kualuh Hulu, Kabupaten Labuhanbatu Utara";"SUMATERA UTARA";"21457";"Indonesia";"";"";"";"2.5694221";"99.7187091";"https://maps.google.com/?cid=0x0:0x5a3a98fc587d2eee";""
"perumahan";"Komplek perumahan";"AEKSIALA";"CMVQ+C3, Siamporik, Kec. Kualuh Sel., Kabupaten Labuhanbatu Utara, Sumatera Utara 21457";"Siamporik, Kec. Kualuh Sel., Kabupaten Labuhanbatu Utara";"SUMATERA UTARA";"21457";"Indonesia";"";"";"";"2.4429824";"99.687337";"https://maps.google.com/?cid=0x0:0x929f22c47848504c";""
"perumahan";"Perhimpunan Pengembang Perumahan";"Rumah aikimilakuo";"FJXC+6MG, Damuli Pekan, Kec. Kualuh Sel., Kabupaten Labuhanbatu Utara, Sumatera Utara 21457";"Damuli Pekan, Kec. Kualuh Sel., Kabupaten Labuhanbatu Utara";"SUMATERA UTARA";"21457";"Indonesia";"";"";"";"2.498524";"99.6213147";"https://maps.google.com/?cid=0x0:0xfb04ce7814ae9f03";""
"perumahan";"Kompleks Townhouse";"Endri (PJKA) Ira watty (Endira_Olshoop)";"HJC5+V2W, Aek Kanopan, Kec. Kualuh Hulu, Kabupaten Labuhanbatu Utara, Sumatera Utara 21457";"Aek Kanopan, Kec. Kualuh Hulu, Kabupaten Labuhanbatu Utara";"SUMATERA UTARA";"21457";"Indonesia";"";"";"";"2.5722406";"99.6075761";"https://maps.google.com/?cid=0x0:0x44ffde77821b1628";""
"perumahan";"Komplek perumahan";"Rumah Pak Sudirman Sinaga";"HM62+VW, Aek Kanopan Tim., Kec. Kualuh Hulu, Kabupaten Labuhanbatu Utara, Sumatera Utara";"Kabupaten Labuhanbatu Utara, Sumatera Utara";"SUMATERA UTARA";"";"Indonesia";"";"";"";"2.5622377";"99.6522835";"https://maps.google.com/?cid=0x0:0xcd7af187ca6dc0c2";""
"perumahan";"Komplek perumahan";"Darma 172";"FJFX+PX5, Jl. Besar Tegal Lego, Gn. Melayu, Kec. Kualuh Sel., Kabupaten Labuhanbatu Utara, Sumatera Utara 21457";"Jl. Besar Tegal Lego, Gn. Melayu, Kec. Kualuh Sel., Kabupaten Labuhanbatu Utara";"SUMATERA UTARA";"21457";"Indonesia";"";"";"";"2.4742608";"99.6499933";"https://maps.google.com/?cid=0x0:0x1ee73bf45e933403";""
"perumahan";"Komplek perumahan";"Rumah desi";"HH64+F63, Pulo Dogom, Kec. Kualuh Hulu, Kabupaten Labuhanbatu Utara, Sumatera Utara 21457";"Pulo Dogom, Kec. Kualuh Hulu, Kabupaten Labuhanbatu Utara";"SUMATERA UTARA";"21457";"Indonesia";"";"";"";"2.5611454";"99.5555369";"https://maps.google.com/?cid=0x0:0xffd15161565b36a";""
"perumahan";"Komplek perumahan";"Zx";"GPP6+PC, Perkebunan Hanna, Kec. Kualuh Hulu, Kabupaten Labuhanbatu Utara, Sumatera Utara";"Kabupaten Labuhanbatu Utara, Sumatera Utara";"SUMATERA UTARA";"";"Indonesia";"";"";"";"2.5368506";"99.7110132";"https://maps.google.com/?cid=0x0:0x6d7d6e1d7c9c6539";""
"perumahan";"Perumahan";"Perumaan Citra Damuli Permai";"GJ5J+PM9, Damuli Pekan, Kec. Kualuh Sel., Kabupaten Labuhanbatu Utara, Sumatera Utara 21457";"Damuli Pekan, Kec. Kualuh Sel., Kabupaten Labuhanbatu Utara";"SUMATERA UTARA";"21457";"Indonesia";" 081375829374";"";"";"2.5092844";"99.631719";"https://maps.google.com/?cid=0x0:0x3fcecf994434a64";""
"perumahan";"Kompleks Townhouse";"Perumahan mega residence";"HJGV+WG9, Aek Kanopan, Kec. Kualuh Hulu, Kabupaten Labuhanbatu Utara, Sumatera Utara 21273";"Aek Kanopan, Kec. Kualuh Hulu, Kabupaten Labuhanbatu Utara";"SUMATERA UTARA";"21273";"Indonesia";"";"";"";"2.5772927";"99.6438561";"https://maps.google.com/?cid=0x0:0xfa5ee0837baebeab";""
"perumahan";"perumahan";"Kec. Kualuh Leidong";"Kabupaten Labuhanbatu Utara, Sumatera Utara";"Kabupaten Labuhanbatu Utara, Sumatera Utara";"SUMATERA UTARA";"";"Indonesia";"";"";"";"2.7530059";"99.97886";"https://maps.google.com/?cid=0x0:0xf029388057b8ffef";""
"perumahan";"perumahan";"Sumatera Utara 21457";"Kec. Kualuh Sel., Kabupaten Labuhanbatu Utara, Sumatera Utara";"Kabupaten Labuhanbatu Utara, Sumatera Utara";"SUMATERA UTARA";"";"Indonesia";"";"";"";"2.4644513";"99.6786894";"https://maps.google.com/?cid=0x0:0xbeeda126e9c5dc9c";""
"perumahan";"Developer Rumah Hunian Khusus";"Perumahan Santiara Pertiwi";"Jl. Lintas Sumatra No.16, Damuli Pekan, Kec. Kualuh Sel., Kabupaten Labuhanbatu Utara, Sumatera Utara 21457";"Damuli Pekan, Kec. Kualuh Sel., Kabupaten Labuhanbatu Utara";"SUMATERA UTARA";"21457";"Indonesia";" 081269359165";"";"";"2.5048587";"99.6316969";"https://maps.google.com/?cid=0x0:0x1a55169d9fdb6fb3";""
"perumahan";"perumahan";"Rumah Silaen";"GJ4J+7CC, Damuli Pekan, Kec. Kualuh Sel., Kabupaten Labuhanbatu Utara, Sumatera Utara 21457";"Damuli Pekan, Kec. Kualuh Sel., Kabupaten Labuhanbatu Utara";"SUMATERA UTARA";"21457";"Indonesia";"";"";"";"2.5056891";"99.6310052";"https://maps.google.com/?cid=0x0:0xa91edbae61f3d27c";""
"perumahan";"Perumahan";"Perumahan Puri Damuli Minimalis 1";"GJ5Q+WPQ, Unnamed Road, Damuli Pekan, Kec. Kualuh Sel., Kabupaten Labuhanbatu Utara, Sumatera Utara 21457";"Unnamed Road, Damuli Pekan, Kec. Kualuh Sel., Kabupaten Labuhanbatu Utara";"SUMATERA UTARA";"21457";"Indonesia";"";"";"";"2.5098257";"99.63937";"https://maps.google.com/?cid=0x0:0x7ee7ec647c0980b5";""
"perumahan";"Perhimpunan Pengembang Perumahan";"Rumah aikimilakuo";"FJXC+6MG, Damuli Pekan, Kec. Kualuh Sel., Kabupaten Labuhanbatu Utara, Sumatera Utara 21457";"Damuli Pekan, Kec. Kualuh Sel., Kabupaten Labuhanbatu Utara";"SUMATERA UTARA";"21457";"Indonesia";"";"";"";"2.498524";"99.6213147";"https://maps.google.com/?cid=0x0:0xfb04ce7814ae9f03";""
"perumahan";"Perumahan";"Perumaan Citra Damuli Permai";"GJ5J+PM9, Damuli Pekan, Kec. Kualuh Sel., Kabupaten Labuhanbatu Utara, Sumatera Utara 21457";"Damuli Pekan, Kec. Kualuh Sel., Kabupaten Labuhanbatu Utara";"SUMATERA UTARA";"21457";"Indonesia";" 081375829374";"";"";"2.5092844";"99.631719";"https://maps.google.com/?cid=0x0:0x3fcecf994434a64";""
"perumahan";"Pembangunan Perumahan";"Brand Stuff";"FJGQ+3X2 Kode Pos, Palia Dusun IV A, Gn. Melayu, Kec. Kualuh Sel., Kabupaten Labuhanbatu Utara, Sumatera Utara 21458";"Palia Dusun IV A, Gn. Melayu, Kec. Kualuh Sel., Kabupaten Labuhanbatu Utara";"SUMATERA UTARA";"21458";"Indonesia";"";"";"";"2.4751391";"99.6399057";"https://maps.google.com/?cid=0x0:0x36a3dd16083c400a";""
"perumahan";"Komplek perumahan";"Darma 172";"FJFX+PX5, Jl. Besar Tegal Lego, Gn. Melayu, Kec. Kualuh Sel., Kabupaten Labuhanbatu Utara, Sumatera Utara 21457";"Jl. Besar Tegal Lego, Gn. Melayu, Kec. Kualuh Sel., Kabupaten Labuhanbatu Utara";"SUMATERA UTARA";"21457";"Indonesia";"";"";"";"2.4742608";"99.6499933";"https://maps.google.com/?cid=0x0:0x1ee73bf45e933403";""
"perumahan";"Perhimpunan Pengembang Perumahan";"Perumahan Tiara Asri Damuli";"FJXC+CGW, Jl. Perumahan Tiara Asri Dusun II, Desa, Damuli Pekan, Kec. Kualuh Sel., Kabupaten Labuhanbatu Utara, Sumatera Utara 21457";"Jl. Perumahan Tiara Asri Dusun II, Desa, Damuli Pekan, Kec. Kualuh Sel., Kabupaten Labuhanbatu Utara";"SUMATERA UTARA";"21457";"Indonesia";" 081370709809";"";"";"2.4986208";"99.6213352";"https://maps.google.com/?cid=0x0:0x3867deb0a6fe0653";""
"perumahan";"Pembangunan Perumahan";"Rumah A. HIDAYAT NASUTION";"FMVG+R8M, Damuli Pekan, Kec. Kualuh Sel., Kabupaten Labuhanbatu Utara, Sumatera Utara 21457";"Damuli Pekan, Kec. Kualuh Sel., Kabupaten Labuhanbatu Utara";"SUMATERA UTARA";"21457";"Indonesia";"";"";"";"2.4939193";"99.6758343";"https://maps.google.com/?cid=0x0:0xd8bc34702b6ae793";""
"perumahan";"Komplek perumahan";"Perumahan KOIN";"GPH3+7MR, Gunting Saga, Kec. Kualuh Sel., Kabupaten Labuhanbatu Utara, Sumatera Utara 21457";"Gunting Saga, Kec. Kualuh Sel., Kabupaten Labuhanbatu Utara";"SUMATERA UTARA";"21457";"Indonesia";"";"";"";"2.5282354";"99.7041387";"https://maps.google.com/?cid=0x0:0x621a9503e4b5783f";""
"perumahan";"Komplek perumahan";"Rumah Pak Ismail Rambe";"GH4Q+MWF, Bandar Lama, Kec. Kualuh Sel., Kabupaten Labuhanbatu Utara, Sumatera Utara 21457";"Bandar Lama, Kec. Kualuh Sel., Kabupaten Labuhanbatu Utara";"SUMATERA UTARA";"21457";"Indonesia";"";"";"";"2.5066862";"99.5897894";"https://maps.google.com/?cid=0x0:0x498ba9abea474fcf";""
"perumahan";"Komplek perumahan";"Rumah Yogi Silitonga";"HP8J+HF7, Sukarame, Kec. Kualuh Hulu, Kabupaten Labuhanbatu Utara, Sumatera Utara 21457";"Sukarame, Kec. Kualuh Hulu, Kabupaten Labuhanbatu Utara";"SUMATERA UTARA";"21457";"Indonesia";"";"";"";"2.5664135";"99.7311843";"https://maps.google.com/?cid=0x0:0xa941505672b45247";""
"perumahan";"Komplek perumahan";"Kualuh Residence";"FJ9V+2QF, Gn. Melayu, Kec. Kualuh Sel., Kabupaten Labuhanbatu Utara, Sumatera Utara 21457";"Gn. Melayu, Kec. Kualuh Sel., Kabupaten Labuhanbatu Utara";"SUMATERA UTARA";"21457";"Indonesia";"";"";"";"2.466296";"99.644795";"https://maps.google.com/?cid=0x0:0x82e59fe75a0f8097";""
"perumahan";"Komplek perumahan";"Rumah Luciyana Sirait";"FPH3+P46, Dusun Parsaoran, Simangalam, Kec. Kualuh Sel., Kabupaten Labuhanbatu Utara, Sumatera Utara 21457";"Dusun Parsaoran, Simangalam, Kec. Kualuh Sel., Kabupaten Labuhanbatu Utara";"SUMATERA UTARA";"21457";"Indonesia";"";"";"";"2.4792751";"99.7027677";"https://maps.google.com/?cid=0x0:0x573872ecffa3570c";""
"perumahan";"Perhimpunan Pengembang Perumahan";"Rumah bang yanto";"GM93+MMR, Sidua Dua, Kec. Kualuh Sel., Kabupaten Labuhanbatu Utara, Sumatera Utara 21457";"Sidua Dua, Kec. Kualuh Sel., Kabupaten Labuhanbatu Utara";"SUMATERA UTARA";"21457";"Indonesia";"";"";"";"2.5200237";"99.6540719";"https://maps.google.com/?cid=0x0:0xc31f901642a8ffbe";""
"perumahan";"Komplek perumahan";"Dsn I Desa simangalam";"FP49+6C, Simangalam, Kec. Kualuh Sel., Kabupaten Labuhanbatu Utara, Sumatera Utara 21457";"Simangalam, Kec. Kualuh Sel., Kabupaten Labuhanbatu Utara";"SUMATERA UTARA";"21457";"Indonesia";"";"";"";"2.45558";"99.7186";"https://maps.google.com/?cid=0x0:0x7e2712ae15a33f38";""
"perumahan";"Komplek perumahan";"Simpang Hasang";"FJXQ+HV8, Damuli Pekan, Kec. Kualuh Sel., Kabupaten Labuhanbatu Utara, Sumatera Utara 21457";"Damuli Pekan, Kec. Kualuh Sel., Kabupaten Labuhanbatu Utara";"SUMATERA UTARA";"21457";"Indonesia";"";"";"";"2.4989068";"99.639703";"https://maps.google.com/?cid=0x0:0x705eeb7076abc310";""
"perumahan";"Komplek perumahan";"Lorong Parsaoran";"HH5P+JHR, Pulo Dogom, Kec. Kualuh Hulu, Kabupaten Labuhanbatu Utara, Sumatera Utara 21457";"Pulo Dogom, Kec. Kualuh Hulu, Kabupaten Labuhanbatu Utara";"SUMATERA UTARA";"21457";"Indonesia";"";"";"";"2.5591173";"99.5863975";"https://maps.google.com/?cid=0x0:0x90d290a1e5f888a8";""
"perumahan";"Perumahan";"Perumahan Puri Minimalis 3";"GJ8Q+CRM, Sidua Dua, Kec. Kualuh Sel., Kabupaten Labuhanbatu Utara, Sumatera Utara 21457";"Sidua Dua, Kec. Kualuh Sel., Kabupaten Labuhanbatu Utara";"SUMATERA UTARA";"21457";"Indonesia";"";"";"";"2.5160887";"99.6395598";"https://maps.google.com/?cid=0x0:0x60433f0b0bdb0a4b";""
"perumahan";"Komplek perumahan";"Rumah ikwa";"HH94+J5R, Perkebunan Londut, Kec. Kualuh Hulu, Kabupaten Labuhanbatu Utara, Sumatera Utara 21457";"Perkebunan Londut, Kec. Kualuh Hulu, Kabupaten Labuhanbatu Utara";"SUMATERA UTARA";"21457";"Indonesia";"";"";"";"2.5693294";"99.5558045";"https://maps.google.com/?cid=0x0:0xe874657e7cbfe9e4";""
"perumahan";"Komplek perumahan";"Rumah Op. Evran Purba";"Barisan Rel, Simangalam, Kualuh Selatan, North Labuhan Batu Regency, North Sumatra 21457";"Simangalam, Kualuh Selatan, North Labuhan Batu Regency";"SUMATERA UTARA";"21457";"Indonesia";"";"";"";"2.4823984";"99.6998381";"https://maps.google.com/?cid=0x0:0xaf58588cffae8334";""
"perumahan";"Komplek perumahan";"ARTISYAH HAMDAYANI NASUTION";"FJHJ+35H, Perk. Damuli, Kec. Kualuh Sel., Kabupaten Labuhanbatu Utara, Sumatera Utara 21457";"Perk. Damuli, Kec. Kualuh Sel., Kabupaten Labuhanbatu Utara";"SUMATERA UTARA";"21457";"Indonesia";"";"";"";"2.477009";"99.630367";"https://maps.google.com/?cid=0x0:0xadafae2471fb1500";""
"perumahan";"perumahan";"Sumatera Utara 21452";"Kabupaten Labuhanbatu Utara, Sumatera Utara";"Kabupaten Labuhanbatu Utara, Sumatera Utara";"SUMATERA UTARA";"";"Indonesia";"";"";"";"2.2296655";"99.8571416";"https://maps.google.com/?cid=0x0:0x1ac7ea716a32cbd4";""
"perumahan";"perumahan";"Marbau";"Kec. Marbau, Kabupaten Labuhanbatu Utara, Sumatera Utara";"Kabupaten Labuhanbatu Utara, Sumatera Utara";"SUMATERA UTARA";"";"Indonesia";"";"";"";"2.2347056";"99.8292338";"https://maps.google.com/?cid=0x0:0xeb63ab49f9f5d52a";""
"perumahan";"Pembangunan Perumahan";"Belongkut Kecamatan Marbau Kabupaten labuhan batu Utara Sumatra Utara";"Jl. Pulo Padang - Marbau No.16, Belongkut, Kec. Marbau, Kabupaten Labuhanbatu Utara, Sumatera Utara 21452";"Belongkut, Kec. Marbau, Kabupaten Labuhanbatu Utara";"SUMATERA UTARA";"21452";"Indonesia";"";"";"";"2.2604204";"99.8717824";"https://maps.google.com/?cid=0x0:0x808f8e22f8be83e";""
"perumahan";"Perhimpunan Pengembang Perumahan";"Rumah";"6RHP+X7H, Marbau, Kec. Marbau, Kabupaten Labuhanbatu Utara, Sumatera Utara 21452";"Marbau, Kec. Marbau, Kabupaten Labuhanbatu Utara";"SUMATERA UTARA";"21452";"Indonesia";"";"";"";"2.2302221";"99.8367997";"https://maps.google.com/?cid=0x0:0x6be5161b834c094d";""
"perumahan";"Kantor Perusahaan";"perumahan perkebunan marbau selatan";"6VH4+VV6, marbau selatan Dusun VII AFD III, Lobu Rampah, Kec. Marbau, Kabupaten Labuhanbatu Utara, Sumatera Utara 21452";"marbau selatan Dusun VII AFD III, Lobu Rampah, Kec. Marbau, Kabupaten Labuhanbatu Utara";"SUMATERA UTARA";"21452";"Indonesia";"";"";"";"2.2296655";"99.8571416";"https://maps.google.com/?cid=0x0:0x1b0b14ff1bc04de0";""
"perumahan";"Komplek perumahan";"RUMAH WAK ROBOT";"7R69+MG3, Jl. Sisingamangaraja, Simpang Empat, Kec. Marbau, Kabupaten Labuhanbatu Utara, Sumatera Utara 21452";"Jl. Sisingamangaraja, Simpang Empat, Kec. Marbau, Kabupaten Labuhanbatu Utara";"SUMATERA UTARA";"21452";"Indonesia";"";"";"";"2.2614934";"99.8182838";"https://maps.google.com/?cid=0x0:0x96fbc762fef7dca0";""
"perumahan";"Gedung Apartemen";"Rumah maulana";"7V57+J8F, Unnamed Road, Perkebunan Brussel, Kec. Marbau, Kabupaten Labuhanbatu Utara, Sumatera Utara 21452";"Unnamed Road, Perkebunan Brussel, Kec. Marbau, Kabupaten Labuhanbatu Utara";"SUMATERA UTARA";"21452";"Indonesia";" 081366485181";"";"";"2.259075";"99.863308";"https://maps.google.com/?cid=0x0:0xcc5665e29508d389";""
"perumahan";"Komplek perumahan";"Hone Bunda Riris";"6RPC+66, Marbau, Kec. Marbau, Kabupaten Labuhanbatu Utara, Sumatera Utara 21452";"Marbau, Kec. Marbau, Kabupaten Labuhanbatu Utara";"SUMATERA UTARA";"21452";"Indonesia";" 082370133663";"";"";"2.2356002";"99.820516";"https://maps.google.com/?cid=0x0:0x85cc4c80b6c9052d";""
"perumahan";"Pembangunan Perumahan";"HOME MAS BONDAN";"6RQ9+MW5, Marbau, Kec. Marbau, Kabupaten Labuhanbatu Utara, Sumatera Utara 21452";"Marbau, Kec. Marbau, Kabupaten Labuhanbatu Utara";"SUMATERA UTARA";"21452";"Indonesia";"";"";"";"2.2391441";"99.8198606";"https://maps.google.com/?cid=0x0:0x668ce262443af906";""
"perumahan";"Pembangunan Perumahan";"Adan Munthe";"Kpg8, dusun 4, Belongkut, Kec. Marbau, Kabupaten Labuhanbatu Utara, Sumatera Utara 21452";"dusun 4, Belongkut, Kec. Marbau, Kabupaten Labuhanbatu Utara";"SUMATERA UTARA";"21452";"Indonesia";"";"";"";"2.2606011";"99.872853";"https://maps.google.com/?cid=0x0:0xcac03b6ad362976a";""
"perumahan";"Komplek perumahan";"Rumah Guntur S. Nasution";"Jl. Jenderal Ahmad Yani No.42 SimpangEmpat, Marbau, Kec. Marbau, Kabupaten Labuhanbatu Utara, Sumatera Utara 21452";"Marbau, Kec. Marbau, Kabupaten Labuhanbatu Utara";"SUMATERA UTARA";"21452";"Indonesia";"";"";"";"2.2631504";"99.8304236";"https://maps.google.com/?cid=0x0:0x3ac07e8bf414e4ac";""
"perumahan";"Komplek perumahan";"Jalan tekus";"7VC2+6VH, Jl. Pulo Padang - Marbau, Perkebunan Brussel, Kec. Marbau, Kabupaten Labuhanbatu Utara, Sumatera Utara 21452";"Jl. Pulo Padang - Marbau, Perkebunan Brussel, Kec. Marbau, Kabupaten Labuhanbatu Utara";"SUMATERA UTARA";"21452";"Indonesia";"";"";"";"2.2706886";"99.8521118";"https://maps.google.com/?cid=0x0:0x337f066f855ce034";""
"perumahan";"Komplek perumahan";"Belongkut 5 k";"7V28+H6C, Belongkut, Kec. Marbau, Kabupaten Labuhanbatu Utara, Sumatera Utara 21452";"Belongkut, Kec. Marbau, Kabupaten Labuhanbatu Utara";"SUMATERA UTARA";"21452";"Indonesia";"";"";"";"2.2514443";"99.8655158";"https://maps.google.com/?cid=0x0:0xa09cdebee95bd7c5";""
"perumahan";"Komplek perumahan";"Simpang Rumbia";"7V85+3X6, Jl. Pulo Padang - Marbau, Perkebunan Brussel, Kec. Marbau, Kabupaten Labuhanbatu Utara, Sumatera Utara 21452";"Jl. Pulo Padang - Marbau, Perkebunan Brussel, Kec. Marbau, Kabupaten Labuhanbatu Utara";"SUMATERA UTARA";"21452";"Indonesia";"";"";"";"2.2651749";"99.8598764";"https://maps.google.com/?cid=0x0:0x92ed07f827365cc9";""
"perumahan";"Komplek perumahan";"Rumah Suprapto";"Belongkut, Jl. Dusun II, Perkebunan Brussel, Kec. Marbau, Kabupaten Labuhanbatu Utara, Sumatera Utara 21452";"Jl. Dusun II, Perkebunan Brussel, Kec. Marbau, Kabupaten Labuhanbatu Utara";"SUMATERA UTARA";"21452";"Indonesia";"";"";"";"2.2697965";"99.8376316";"https://maps.google.com/?cid=0x0:0x3d962bd4518f84f3";""
"perumahan";"Pembangunan Perumahan";"Rumah jm";"7V5V+4F3, Tubiran, Kec. Marbau, Kabupaten Labuhanbatu Utara, Sumatera Utara 21452";"Tubiran, Kec. Marbau, Kabupaten Labuhanbatu Utara";"SUMATERA UTARA";"21452";"Indonesia";"";"";"";"2.2569634";"99.8934229";"https://maps.google.com/?cid=0x0:0x24befa97dd725430";""
"perumahan";"Komplek perumahan";"rumah liaaa";"6R5W+XPF, Perkebunan Milano, Kec. Marbau, Kabupaten Labuhanbatu Utara, Sumatera Utara 21452";"Perkebunan Milano, Kec. Marbau, Kabupaten Labuhanbatu Utara";"SUMATERA UTARA";"21452";"Indonesia";"";"";"";"2.211787";"99.845676";"https://maps.google.com/?cid=0x0:0xae801954c71ca86b";""
"perumahan";"Perhimpunan Pengembang Perumahan";"Sijuara";"7V2W+WW6, Jl. Pulo Padang - Marbau, Tubiran, Kec. Marbau, Kabupaten Labuhanbatu Utara, Sumatera Utara 21452";"Jl. Pulo Padang - Marbau, Tubiran, Kec. Marbau, Kabupaten Labuhanbatu Utara";"SUMATERA UTARA";"21452";"Indonesia";"";"";"";"2.2530916";"99.8971283";"https://maps.google.com/?cid=0x0:0xffade8555be08d37";""
"perumahan";"Komplek perumahan";"Syahnal Sihombing's Home";"7R5Q+VR, Marbau, Kec. Marbau, Kabupaten Labuhanbatu Utara, Sumatera Utara 21452";"Marbau, Kec. Marbau, Kabupaten Labuhanbatu Utara";"SUMATERA UTARA";"21452";"Indonesia";"";"";"";"2.2596988";"99.8395533";"https://maps.google.com/?cid=0x0:0x370307bc7222c55c";""
"perumahan";"Komplek perumahan";"Wak gomes";"7V3R+XJ5, Jl. Pulo Padang - Marbau, Tubiran, Kec. Marbau, Kabupaten Labuhanbatu Utara, Sumatera Utara 21452";"Jl. Pulo Padang - Marbau, Tubiran, Kec. Marbau, Kabupaten Labuhanbatu Utara";"SUMATERA UTARA";"21452";"Indonesia";"";"";"";"2.2548844";"99.8916032";"https://maps.google.com/?cid=0x0:0x3dd1c032ba63bb29";""
"perumahan";"Komplek perumahan";"Perumahan putra nuansa Kotabaru";"HFVC+Q46, Pucung, Kec. Kota Baru, Karawang, Jawa Barat 41374";"Pucung, Kec. Kota Baru, Karawang";"SUMATERA UTARA";"41374";"Indonesia";"";"";"";"-6.4055794";"107.4702633";"https://maps.google.com/?cid=0x0:0x396df35213564612";""
"perumahan";"perumahan";"Sumatera Utara 21454";"Kec. Na IX-X, Kabupaten Labuhanbatu Utara, Sumatera Utara";"Kabupaten Labuhanbatu Utara, Sumatera Utara";"SUMATERA UTARA";"";"Indonesia";"";"";"";"2.1532664";"99.6786894";"https://maps.google.com/?cid=0x0:0xa1d048494249269a";""
"perumahan";"Komplek perumahan";"PT. Binanga";"7PXR+GRQ, Kp. Pajak, Kec. Na IX-X, Kabupaten Labuhanbatu Utara, Sumatera Utara 21455";"Kp. Pajak, Kec. Na IX-X, Kabupaten Labuhanbatu Utara";"SUMATERA UTARA";"21455";"Indonesia";" 085260091669";"";"";"2.2988431";"99.7421047";"https://maps.google.com/?cid=0x0:0x8e83508913899e04";""
"perumahan";"Perhimpunan Pengembang Perumahan";"Perumahan NAIRA";"7QP3+CMQ, Aek Kota Batu, Kec. Na IX-X, Kabupaten Labuhanbatu Utara, Sumatera Utara 21454";"Aek Kota Batu, Kec. Na IX-X, Kabupaten Labuhanbatu Utara";"SUMATERA UTARA";"21454";"Indonesia";"";"";"";"2.2860987";"99.7542236";"https://maps.google.com/?cid=0x0:0x2378aaef00afad21";""
"perumahan";"Kantor Pemerintah";"Desa Hatapang";"5JJJ+XM2, Hatapang, Kec. Na IX-X, Kabupaten Labuhanbatu Utara, Sumatera Utara 21454";"Hatapang, Kec. Na IX-X, Kabupaten Labuhanbatu Utara";"SUMATERA UTARA";"21454";"Indonesia";"";"";"";"2.1822171";"99.6316692";"https://maps.google.com/?cid=0x0:0x8a6362594fca50fe";""
"perumahan";"Perhimpunan Pengembang Perumahan";"Sumberejo";"5M7Q+5WW, Sungai Raja, Kec. Na IX-X, Kabupaten Labuhanbatu Utara, Sumatera Utara 21454";"Sungai Raja, Kec. Na IX-X, Kabupaten Labuhanbatu Utara";"SUMATERA UTARA";"21454";"Indonesia";"";"";"";"2.1629805";"99.6898255";"https://maps.google.com/?cid=0x0:0x4b2b31df977e9630";""
"perumahan";"Perumahan";"Anugrah Labura Permai";"8P5W+XF5, Jl. Padang Maninjau, Pulo Jantan, Kec. Na IX-X, Kabupaten Labuhanbatu Utara, Sumatera Utara 21455";"Jl. Padang Maninjau, Pulo Jantan, Kec. Na IX-X, Kabupaten Labuhanbatu Utara";"SUMATERA UTARA";"21455";"Indonesia";"";"";"";"2.3098919";"99.7462353";"https://maps.google.com/?cid=0x0:0x6886efa5b0eee627";""
"perumahan";"Kantor Hubungan Masyarakat";"Desa pasang lela";"5PHV+R42, Pasang Lela, Kec. Na IX-X, Kabupaten Labuhanbatu Utara, Sumatera Utara 21454";"Pasang Lela, Kec. Na IX-X, Kabupaten Labuhanbatu Utara";"SUMATERA UTARA";"21454";"Indonesia";"";"";"";"2.1795071";"99.7427775";"https://maps.google.com/?cid=0x0:0x85a562fcaab07dc4";""
"perumahan";"Perumahan";"Simpang simonis";"Jl. Simonis No.12-184, Pulo Jantan, Kec. Na IX-X, Kabupaten Labuhanbatu Utara, Sumatera Utara 21455";"Pulo Jantan, Kec. Na IX-X, Kabupaten Labuhanbatu Utara";"SUMATERA UTARA";"21455";"Indonesia";"";"";"";"2.3007647";"99.7410455";"https://maps.google.com/?cid=0x0:0x70b6056a495d4e4a";""
"perumahan";"Perumahan";"Perumahan PT Siagian Agro Persada";"Jl. Binanga, Kp. Pajak, Kec. Na IX-X, Kabupaten Labuhanbatu Utara, Sumatera Utara 21455";"Kp. Pajak, Kec. Na IX-X, Kabupaten Labuhanbatu Utara";"SUMATERA UTARA";"21455";"Indonesia";" 082178655663";"";"";"2.2949633";"99.7387988";"https://maps.google.com/?cid=0x0:0x5e70c4d0afc26d13";""
"perumahan";"Komplek perumahan";"Ilham panjaitan";"7QF6+2WW, Kp. Pajak, Kec. Na IX-X, Kabupaten Labuhanbatu Utara, Sumatera Utara 21454";"Kp. Pajak, Kec. Na IX-X, Kabupaten Labuhanbatu Utara";"SUMATERA UTARA";"21454";"Indonesia";" 082267339141";"";"";"2.2726095";"99.7623131";"https://maps.google.com/?cid=0x0:0xcfa8b826b46f1c84";""
"perumahan";"Komplek perumahan";"Pulo jantan";"7QQ6+9X9, Pulo Jantan, Kec. Na IX-X, Kabupaten Labuhanbatu Utara, Sumatera Utara 21452";"Pulo Jantan, Kec. Na IX-X, Kabupaten Labuhanbatu Utara";"SUMATERA UTARA";"21452";"Indonesia";"";"";"";"2.2884001";"99.7624931";"https://maps.google.com/?cid=0x0:0x9edf5587773a4988";""
"perumahan";"Komplek perumahan";"Bagas partidoan";"4PF3+HPR, Batu Tunggal, Kec. Na IX-X, Kabupaten Labuhanbatu Utara, Sumatera Utara 21454";"Batu Tunggal, Kec. Na IX-X, Kabupaten Labuhanbatu Utara";"SUMATERA UTARA";"21454";"Indonesia";"";"";"";"2.1250117";"99.7043032";"https://maps.google.com/?cid=0x0:0x3fa46c42d2eb1088";""
"perumahan";"Komplek perumahan";"Silumajang";"6PQ3+75G, Silumajang, Kec. Na IX-X, Kabupaten Labuhanbatu Utara, Sumatera Utara 21454";"Silumajang, Kec. Na IX-X, Kabupaten Labuhanbatu Utara";"SUMATERA UTARA";"21454";"Indonesia";"";"";"";"2.2381787";"99.702949";"https://maps.google.com/?cid=0x0:0x7947642a7d7df5a7";""
"perumahan";"Komplek perumahan";"RUMAH AYANG";"8P2R+CQW, Padang Maninjau, Kec. Na IX-X, Kabupaten Labuhanbatu Utara, Sumatera Utara 21455";"Padang Maninjau, Kec. Na IX-X, Kabupaten Labuhanbatu Utara";"SUMATERA UTARA";"21455";"Indonesia";"";"";"";"2.3011064";"99.7419444";"https://maps.google.com/?cid=0x0:0x8c8cd13a59d0c3dc";""
"perumahan";"Pembangunan Perumahan";"bp wonogiri";"5QR5+W7, Simpang, Bendungan, Kec. Na IX-X, Kabupaten Labuhanbatu Utara, Sumatera Utara";"Kabupaten Labuhanbatu Utara, Sumatera Utara";"SUMATERA UTARA";"";"Indonesia";"";"";"";"2.1923739";"99.7582462";"https://maps.google.com/?cid=0x0:0xf608fb77136afa44";""
"perumahan";"Komplek perumahan";"Rumah cunek";"7QH7+8JH, Kp. Pajak, Kec. Na IX-X, Kabupaten Labuhanbatu Utara, Sumatera Utara 21454";"Kp. Pajak, Kec. Na IX-X, Kabupaten Labuhanbatu Utara";"SUMATERA UTARA";"21454";"Indonesia";"";"";"";"2.2781406";"99.7642151";"https://maps.google.com/?cid=0x0:0xeac2cecaef5351c4";""
"perumahan";"Komplek perumahan";"Mawar";"5QW6+GWM, Simpang Marbau, Kec. Na IX-X, Kabupaten Labuhanbatu Utara, Sumatera Utara";"Kabupaten Labuhanbatu Utara, Sumatera Utara";"SUMATERA UTARA";"";"Indonesia";"";"";"";"2.1963477";"99.7622922";"https://maps.google.com/?cid=0x0:0xc23bba6b8ee29ae2";""
"perumahan";"Perumahan";"Perumahan kebun PT Binanga karya";"PT, Jl. Binanga, Pulo Jantan, Kec. Na IX-X, Kabupaten Labuhanbatu Utara, Sumatera Utara 21455";"Jl. Binanga, Pulo Jantan, Kec. Na IX-X, Kabupaten Labuhanbatu Utara";"SUMATERA UTARA";"21455";"Indonesia";"";"";"";"2.2931346";"99.7336145";"https://maps.google.com/?cid=0x0:0x19fcd12119e33902";""
"perumahan";"Kebun Raya";"Perumahan huta barat";"6JQC+6Q, Meranti Omas, Kec. Na IX-X, Kabupaten Labuhanbatu Utara, Sumatera Utara 21455";"Meranti Omas, Kec. Na IX-X, Kabupaten Labuhanbatu Utara";"SUMATERA UTARA";"21455";"Indonesia";"";"";"";"2.2380131";"99.6218881";"https://maps.google.com/?cid=0x0:0x82f30f05c13731ea";""
"perumahan";"Pembangunan Perumahan";"Rumah bang mutte";"4MFQ+MW4, Huta baru, Batu Tunggal, Kec. Na IX-X, Kabupaten Labuhanbatu Utara, Sumatera Utara 21454";"Huta baru, Batu Tunggal, Kec. Na IX-X, Kabupaten Labuhanbatu Utara";"SUMATERA UTARA";"21454";"Indonesia";"";"";"";"2.1241332";"99.6898316";"https://maps.google.com/?cid=0x0:0xe4f4ed1f67ae84f0";""
"perumahan";"perumahan";"Soelaeman jr";"4MFQ+MW4 Suka rakyat 2 (Getek Belakang, Batu Tunggal, Kec. Na IX-X, Kab Laura, Sumatera Utara 21454";"Batu Tunggal, Kec. Na IX-X, Kab Laura";"SUMATERA UTARA";"21454";"Indonesia";"";"";"";"2.1241332";"99.6898316";"https://maps.google.com/?cid=0x0:0xc3b259e3a2b299a7";""
"perumahan";"Perumahan";"Rumah Harahap";"7Q7C+H63, Kp. Pajak, Kec. Na IX-X, Kabupaten Labuhanbatu Utara, Sumatera Utara 21454";"Kp. Pajak, Kec. Na IX-X, Kabupaten Labuhanbatu Utara";"SUMATERA UTARA";"21454";"Indonesia";"";"";"";"2.2650198";"99.7709685";"https://maps.google.com/?cid=0x0:0x545b6442a82b7b65";""
"perumahan";"Komplek perumahan";"Rumah Nek Ribu";"7QH7+7G2, Kp. Pajak, Kec. Na IX-X, Kabupaten Labuhanbatu Utara, Sumatera Utara";"Kabupaten Labuhanbatu Utara, Sumatera Utara";"SUMATERA UTARA";"";"Indonesia";"";"";"";"2.2781358";"99.7637645";"https://maps.google.com/?cid=0x0:0xb8efcd1f84cca94a";""
"perumahan";"Pembangunan Perumahan";"Lorong wonosari";"6QG2+QG, Perkebunan Berangir, Kec. Na IX-X, Kabupaten Labuhanbatu Utara, Sumatera Utara";"Kabupaten Labuhanbatu Utara, Sumatera Utara";"SUMATERA UTARA";"";"Indonesia";"";"";"";"2.226889";"99.751315";"https://maps.google.com/?cid=0x0:0x415efe429973d52b";""
"perumahan";"Komplek perumahan";"Rumah Wak Nano";"7QP5+QQ, Kp. Pajak, Kec. Na IX-X, Kabupaten Labuhanbatu Utara, Sumatera Utara";"Kabupaten Labuhanbatu Utara, Sumatera Utara";"SUMATERA UTARA";"";"Indonesia";"";"";"";"2.286891";"99.75949";"https://maps.google.com/?cid=0x0:0x2bbe4fa45ae9ca1a";""
"perumahan";"Komplek perumahan";"Rumah Dokter Syukri Harahap";"7QJ6+4J2, Simpang Panigoran Kel, Aek Kota Batu, Kec. Na IX-X, Kabupaten Labuhanbatu Utara, Sumatera Utara 21454";"Simpang Panigoran Kel, Aek Kota Batu, Kec. Na IX-X, Kabupaten Labuhanbatu Utara";"SUMATERA UTARA";"21454";"Indonesia";"";"";"";"2.2804146";"99.7616422";"https://maps.google.com/?cid=0x0:0x9fd5d0d1e42f7d4f";""
"perumahan";"perumahan";"Rumah dek Irzan";"7QP3+MX2, Aek Kota Batu, Kec. Na IX-X, Kabupaten Labuhanbatu Utara, Sumatera Utara 21454";"Aek Kota Batu, Kec. Na IX-X, Kabupaten Labuhanbatu Utara";"SUMATERA UTARA";"21454";"Indonesia";"";"";"";"2.287226";"99.755485";"https://maps.google.com/?cid=0x0:0x132185243b7e2954";""
