Category,Real Category,Business Name,Address,City,State,Postal Code,Country,Phone,Email,Website,Latitude,Longitude,Map Link,Details Link
hardware store,Servis Komputer,TOKO HOMBOL COMPUTER KALABAHI,"Kampung Baru. Jln Ki Hajar Dewontoro Kelurahan Nusa Kenari Kecamatan Teluk Mutiara Kabupaten Alor Provinsi Nusa Tenggara Timur Kalabahi, Kabupaten Alor, Nusa Tenggara Tim. 85819",Kabupaten Alor,NUSA TENGGARA TIMUR,85819.0,Indonesia,82144219099,,,-82.136.535,124.520.826,https://maps.google.com/?cid=0x0:0xff23a28ae02558ef,
hardware store,Toko Komputer,Kalabahi Cyber,"Jl. Lamoru No.26, Binongko, Kec. Tlk. Mutiara, Kabupaten Alor, Nusa Tenggara Tim. 85813","Binongko, Kec. Tlk. Mutiara, Kabupaten Alor",NUSA TENGGARA TIMUR,85813.0,Indonesia,8123740223,,,-82.184.844,124.514.092,https://maps.google.com/?cid=0x0:0x415defa83423b864,
hardware store,hardware store,Kec. Alor Bar. Laut,"Kabupaten Alor, Nusa Tenggara Tim.","Kabupaten Alor, Nusa Tenggara Tim.",NUSA TENGGARA TIMUR,,Indonesia,,,,-81.618.154,1.244.536.235,https://maps.google.com/?cid=0x0:0x8149820c885abe83,
hardware store,Pusat Perbelanjaan,Sinar Kencana Alor - Toko Bangunan,"Jl. Jend. Sudirman, Kalabahi Kota, Kec. Tlk. Mutiara, Kabupaten Alor, Nusa Tenggara Tim.","Kabupaten Alor, Nusa Tenggara Tim.",NUSA TENGGARA TIMUR,,Indonesia,82228000848,,,-82.165.322,1.245.274.066,https://maps.google.com/?cid=0x0:0xf8954eac934992e1,
hardware store,Toko,Daya prima Bangunan,"QHRC+CCM, Jl. Soekarno Hatta, Welai Tim., Kec. Tlk. Mutiara, Kabupaten Alor, Nusa Tenggara Tim.","Kabupaten Alor, Nusa Tenggara Tim.",NUSA TENGGARA TIMUR,,Indonesia,,,,-82.089.143,1.245.710.541,https://maps.google.com/?cid=0x0:0x657f2d9e261cc672,
hardware store,Toko Alat Tulis Kantor,FOTOCOPY BARANUSA 1,"Jl. Hasanudin No.12-19, Binongko, Kec. Tlk. Mutiara, Kabupaten Alor, Nusa Tenggara Tim.","Kabupaten Alor, Nusa Tenggara Tim.",NUSA TENGGARA TIMUR,,Indonesia,82146279127,,,-8.220.133,124.510.647,https://maps.google.com/?cid=0x0:0x9f766aa55ca3bf53,
hardware store,Toko,Toko lancar bangunan,"QHQ6+CPH, Welai Tim., Kec. Tlk. Mutiara, Kabupaten Alor, Nusa Tenggara Tim.","Kabupaten Alor, Nusa Tenggara Tim.",NUSA TENGGARA TIMUR,,Indonesia,,,,-82.114.421,1.245.618.588,https://maps.google.com/?cid=0x0:0x423f09fbf0e1baf7,
hardware store,hardware store,Kec. Alor Barat Daya,"Kabupaten Alor, Nusa Tenggara Tim.","Kabupaten Alor, Nusa Tenggara Tim.",NUSA TENGGARA TIMUR,,Indonesia,,,,-84.363.579,1.245.459.622,https://maps.google.com/?cid=0x0:0xb408571cc95fa77f,
hardware store,Toserba,MR. DIY Cabang Alor,"Kalabahi Tengah, Kec. Tlk. Mutiara, Kabupaten Alor, Nusa Tenggara Tim.","Kabupaten Alor, Nusa Tenggara Tim.",NUSA TENGGARA TIMUR,,Indonesia,,,,-82.170.688,1.245.306.782,https://maps.google.com/?cid=0x0:0x8dc85a5abe3152ba,
hardware store,Toko,Daya prima Bangunan,"QHRC+CCM, Jl. Soekarno Hatta, Welai Tim., Kec. Tlk. Mutiara, Kabupaten Alor, Nusa Tenggara Tim.","Kabupaten Alor, Nusa Tenggara Tim.",NUSA TENGGARA TIMUR,,Indonesia,,,,-82.089.143,1.245.710.541,https://maps.google.com/?cid=0x0:0x657f2d9e261cc672,
hardware store,Toko Alat Tulis Kantor,FOTOCOPY BARANUSA 1,"Jl. Hasanudin No.12-19, Binongko, Kec. Tlk. Mutiara, Kabupaten Alor, Nusa Tenggara Tim.","Kabupaten Alor, Nusa Tenggara Tim.",NUSA TENGGARA TIMUR,,Indonesia,82146279127,,,-8.220.133,124.510.647,https://maps.google.com/?cid=0x0:0x9f766aa55ca3bf53,
hardware store,Servis Komputer,TOKO HOMBOL COMPUTER KALABAHI,"Kampung Baru. Jln Ki Hajar Dewontoro Kelurahan Nusa Kenari Kecamatan Teluk Mutiara Kabupaten Alor Provinsi Nusa Tenggara Timur Kalabahi, Kabupaten Alor, Nusa Tenggara Tim. 85819",Kabupaten Alor,NUSA TENGGARA TIMUR,85819.0,Indonesia,82144219099,,,-82.136.535,124.520.826,https://maps.google.com/?cid=0x0:0xff23a28ae02558ef,
hardware store,Toko Komputer,Kalabahi Cyber,"Jl. Lamoru No.26, Binongko, Kec. Tlk. Mutiara, Kabupaten Alor, Nusa Tenggara Tim. 85813","Binongko, Kec. Tlk. Mutiara, Kabupaten Alor",NUSA TENGGARA TIMUR,85813.0,Indonesia,8123740223,,,-82.184.844,124.514.092,https://maps.google.com/?cid=0x0:0x415defa83423b864,
hardware store,hardware store,Kec. Alor Tengah Utara,"Kabupaten Alor, Nusa Tenggara Tim.","Kabupaten Alor, Nusa Tenggara Tim.",NUSA TENGGARA TIMUR,,Indonesia,,,,-82.013.597,124.594.223,https://maps.google.com/?cid=0x0:0xd061b93c2c5cdea5,
hardware store,Toko,Daya prima Bangunan,"QHRC+CCM, Jl. Soekarno Hatta, Welai Tim., Kec. Tlk. Mutiara, Kabupaten Alor, Nusa Tenggara Tim.","Kabupaten Alor, Nusa Tenggara Tim.",NUSA TENGGARA TIMUR,,Indonesia,,,,-82.089.143,1.245.710.541,https://maps.google.com/?cid=0x0:0x657f2d9e261cc672,
hardware store,Pusat Perbelanjaan,Sinar Kencana Alor - Toko Bangunan,"Jl. Jend. Sudirman, Kalabahi Kota, Kec. Tlk. Mutiara, Kabupaten Alor, Nusa Tenggara Tim.","Kabupaten Alor, Nusa Tenggara Tim.",NUSA TENGGARA TIMUR,,Indonesia,82228000848,,,-82.165.322,1.245.274.066,https://maps.google.com/?cid=0x0:0xf8954eac934992e1,
hardware store,Toko Perlengkapan Rumah,Toko Bangunan Champion,"QGMX+63R, Mutiara, Kec. Tlk. Mutiara, Kabupaten Alor, Nusa Tenggara Tim.","Kabupaten Alor, Nusa Tenggara Tim.",NUSA TENGGARA TIMUR,,Indonesia,81338757523,,,-82.168.892,1.245.476.484,https://maps.google.com/?cid=0x0:0x43281458e96c59c8,
hardware store,Toko,Toko lancar bangunan,"QHQ6+CPH, Welai Tim., Kec. Tlk. Mutiara, Kabupaten Alor, Nusa Tenggara Tim.","Kabupaten Alor, Nusa Tenggara Tim.",NUSA TENGGARA TIMUR,,Indonesia,,,,-82.114.421,1.245.618.588,https://maps.google.com/?cid=0x0:0x423f09fbf0e1baf7,
hardware store,Servis Komputer,TOKO HOMBOL COMPUTER KALABAHI,"Kampung Baru. Jln Ki Hajar Dewontoro Kelurahan Nusa Kenari Kecamatan Teluk Mutiara Kabupaten Alor Provinsi Nusa Tenggara Timur Kalabahi, Kabupaten Alor, Nusa Tenggara Tim. 85819",Kabupaten Alor,NUSA TENGGARA TIMUR,85819.0,Indonesia,82144219099,,,-82.136.535,124.520.826,https://maps.google.com/?cid=0x0:0xff23a28ae02558ef,
hardware store,hardware store,Kec. Alor Tim.,"Kabupaten Alor, Nusa Tenggara Tim.","Kabupaten Alor, Nusa Tenggara Tim.",NUSA TENGGARA TIMUR,,Indonesia,,,,-82.589.872,1.249.317.271,https://maps.google.com/?cid=0x0:0x3a01566565bdfc49,
hardware store,Toko Komputer,Kalabahi Cyber,"Jl. Lamoru No.26, Binongko, Kec. Tlk. Mutiara, Kabupaten Alor, Nusa Tenggara Tim. 85813","Binongko, Kec. Tlk. Mutiara, Kabupaten Alor",NUSA TENGGARA TIMUR,85813.0,Indonesia,8123740223,,,-82.184.844,124.514.092,https://maps.google.com/?cid=0x0:0x415defa83423b864,
hardware store,Toko,JAYA BANGUNAN,"Jl. Jend. Sudirman, Kalabahi Tim., Kec. Tlk. Mutiara, Kabupaten Alor, Nusa Tenggara Tim.","Kabupaten Alor, Nusa Tenggara Tim.",NUSA TENGGARA TIMUR,,Indonesia,81332358999,,,-82.175.091,1.245.342.652,https://maps.google.com/?cid=0x0:0x2d8b71dd71fb717e,
hardware store,hardware store,Kec. Alor Tim. Laut,"Kabupaten Alor, Nusa Tenggara Tim.","Kabupaten Alor, Nusa Tenggara Tim.",NUSA TENGGARA TIMUR,,Indonesia,,,,-81.799.236,1.247.610.394,https://maps.google.com/?cid=0x0:0x3df0ef994605c355,
hardware store,Servis Komputer,TOKO HOMBOL COMPUTER KALABAHI,"Kampung Baru. Jln Ki Hajar Dewontoro Kelurahan Nusa Kenari Kecamatan Teluk Mutiara Kabupaten Alor Provinsi Nusa Tenggara Timur Kalabahi, Kabupaten Alor, Nusa Tenggara Tim. 85819",Kabupaten Alor,NUSA TENGGARA TIMUR,85819.0,Indonesia,82144219099,,,-82.136.535,124.520.826,https://maps.google.com/?cid=0x0:0xff23a28ae02558ef,
hardware store,Toko Komputer,Kalabahi Cyber,"Jl. Lamoru No.26, Binongko, Kec. Tlk. Mutiara, Kabupaten Alor, Nusa Tenggara Tim. 85813","Binongko, Kec. Tlk. Mutiara, Kabupaten Alor",NUSA TENGGARA TIMUR,85813.0,Indonesia,8123740223,,,-82.184.844,124.514.092,https://maps.google.com/?cid=0x0:0x415defa83423b864,
hardware store,Pemasok Bahan Bangunan,Syarikat Abdul Aziz,"Lot 584, Jalan Tampin, Batu 15E, Kampung Jelatang, 78000, Alor Gajah, Melaka, 78000, Malaysia","Kampung Jelatang,",NUSA TENGGARA TIMUR,78000.0,Indonesia,6065565904,,,23.894.486,1.022.203.004,https://maps.google.com/?cid=0x0:0xc6af017a5edb50e6,
hardware store,Servis Komputer,TOKO HOMBOL COMPUTER KALABAHI,"Kampung Baru. Jln Ki Hajar Dewontoro Kelurahan Nusa Kenari Kecamatan Teluk Mutiara Kabupaten Alor Provinsi Nusa Tenggara Timur Kalabahi, Kabupaten Alor, Nusa Tenggara Tim. 85819",Kabupaten Alor,NUSA TENGGARA TIMUR,85819.0,Indonesia,82144219099,,,-82.136.535,124.520.826,https://maps.google.com/?cid=0x0:0xff23a28ae02558ef,
hardware store,Toko Komputer,Kalabahi Cyber,"Jl. Lamoru No.26, Binongko, Kec. Tlk. Mutiara, Kabupaten Alor, Nusa Tenggara Tim. 85813","Binongko, Kec. Tlk. Mutiara, Kabupaten Alor",NUSA TENGGARA TIMUR,85813.0,Indonesia,8123740223,,,-82.184.844,124.514.092,https://maps.google.com/?cid=0x0:0x415defa83423b864,
hardware store,hardware store,Kec. Kabola,"Kabupaten Alor, Nusa Tenggara Tim.","Kabupaten Alor, Nusa Tenggara Tim.",NUSA TENGGARA TIMUR,,Indonesia,,,,-81.406.175,1.245.896.567,https://maps.google.com/?cid=0x0:0x992478f27187b5b7,
hardware store,Toko,Daya prima Bangunan,"QHRC+CCM, Jl. Soekarno Hatta, Welai Tim., Kec. Tlk. Mutiara, Kabupaten Alor, Nusa Tenggara Tim.","Kabupaten Alor, Nusa Tenggara Tim.",NUSA TENGGARA TIMUR,,Indonesia,,,,-82.089.143,1.245.710.541,https://maps.google.com/?cid=0x0:0x657f2d9e261cc672,
hardware store,Pusat Perbelanjaan,Sinar Kencana Alor - Toko Bangunan,"Jl. Jend. Sudirman, Kalabahi Kota, Kec. Tlk. Mutiara, Kabupaten Alor, Nusa Tenggara Tim.","Kabupaten Alor, Nusa Tenggara Tim.",NUSA TENGGARA TIMUR,,Indonesia,82228000848,,,-82.165.322,1.245.274.066,https://maps.google.com/?cid=0x0:0xf8954eac934992e1,
hardware store,Toko Alat Tulis Kantor,FOTOCOPY BARANUSA 1,"Jl. Hasanudin No.12-19, Binongko, Kec. Tlk. Mutiara, Kabupaten Alor, Nusa Tenggara Tim.","Kabupaten Alor, Nusa Tenggara Tim.",NUSA TENGGARA TIMUR,,Indonesia,82146279127,,,-8.220.133,124.510.647,https://maps.google.com/?cid=0x0:0x9f766aa55ca3bf53,
hardware store,Servis Komputer,TOKO HOMBOL COMPUTER KALABAHI,"Kampung Baru. Jln Ki Hajar Dewontoro Kelurahan Nusa Kenari Kecamatan Teluk Mutiara Kabupaten Alor Provinsi Nusa Tenggara Timur Kalabahi, Kabupaten Alor, Nusa Tenggara Tim. 85819",Kabupaten Alor,NUSA TENGGARA TIMUR,85819.0,Indonesia,82144219099,,,-82.136.535,124.520.826,https://maps.google.com/?cid=0x0:0xff23a28ae02558ef,
hardware store,Toko Komputer,Kalabahi Cyber,"Jl. Lamoru No.26, Binongko, Kec. Tlk. Mutiara, Kabupaten Alor, Nusa Tenggara Tim. 85813","Binongko, Kec. Tlk. Mutiara, Kabupaten Alor",NUSA TENGGARA TIMUR,85813.0,Indonesia,8123740223,,,-82.184.844,124.514.092,https://maps.google.com/?cid=0x0:0x415defa83423b864,
hardware store,hardware store,Kec. Kabola,"Kabupaten Alor, Nusa Tenggara Tim.","Kabupaten Alor, Nusa Tenggara Tim.",NUSA TENGGARA TIMUR,,Indonesia,,,,-81.406.175,1.245.896.567,https://maps.google.com/?cid=0x0:0x992478f27187b5b7,
hardware store,Toko,Daya prima Bangunan,"QHRC+CCM, Jl. Soekarno Hatta, Welai Tim., Kec. Tlk. Mutiara, Kabupaten Alor, Nusa Tenggara Tim.","Kabupaten Alor, Nusa Tenggara Tim.",NUSA TENGGARA TIMUR,,Indonesia,,,,-82.089.143,1.245.710.541,https://maps.google.com/?cid=0x0:0x657f2d9e261cc672,
hardware store,Pusat Perbelanjaan,Sinar Kencana Alor - Toko Bangunan,"Jl. Jend. Sudirman, Kalabahi Kota, Kec. Tlk. Mutiara, Kabupaten Alor, Nusa Tenggara Tim.","Kabupaten Alor, Nusa Tenggara Tim.",NUSA TENGGARA TIMUR,,Indonesia,82228000848,,,-82.165.322,1.245.274.066,https://maps.google.com/?cid=0x0:0xf8954eac934992e1,
hardware store,Sekolah Dasar,SD GMIT 007 Kabola,"Mutiara, Kec. Tlk. Mutiara, Kabupaten Alor, Nusa Tenggara Tim.","Kabupaten Alor, Nusa Tenggara Tim.",NUSA TENGGARA TIMUR,,Indonesia,,,,-82.162.379,1.245.432.948,https://maps.google.com/?cid=0x0:0x66cdbc658cca5f30,
hardware store,Toko Alat Tulis Kantor,FOTOCOPY BARANUSA 1,"Jl. Hasanudin No.12-19, Binongko, Kec. Tlk. Mutiara, Kabupaten Alor, Nusa Tenggara Tim.","Kabupaten Alor, Nusa Tenggara Tim.",NUSA TENGGARA TIMUR,,Indonesia,82146279127,,,-8.220.133,124.510.647,https://maps.google.com/?cid=0x0:0x9f766aa55ca3bf53,
hardware store,hardware store,Kec. Lembur,"Kabupaten Alor, Nusa Tenggara Tim.","Kabupaten Alor, Nusa Tenggara Tim.",NUSA TENGGARA TIMUR,,Indonesia,,,,-81.525.332,1.247.419.671,https://maps.google.com/?cid=0x0:0xfe79e9f6a1e20bd9,
hardware store,Butik,Barang Baru,"Cipondoh, Perumahan Taman Royal 1, Komplek Ruko Pinus Niaga Center No. 18, RT.004/RW.016, Tanah Tinggi, Kec. Tangerang, Kota Tangerang, Banten 15141","Perumahan Taman Royal 1, Komplek Ruko Pinus Niaga Center No. 18, RT.004/RW.016, Tanah Tinggi, Kec. Tangerang, Kota Tangerang",NUSA TENGGARA TIMUR,15141.0,Indonesia,2155701881,,,-61.809.157,1.066.607.922,https://maps.google.com/?cid=0x0:0x408383690d889dab,
hardware store,Butik,Barangbaru Butik Online,"JL. Daan Mogot, Km. 19, 5 C1/17, Simprug, Cipondoh, RT.003/RW.002, Kb. Besar, Kec. Tangerang, Kota Tangerang, Banten 15122","Km. 19, 5 C1/17, Simprug, Cipondoh, RT.003/RW.002, Kb. Besar, Kec. Tangerang, Kota Tangerang",NUSA TENGGARA TIMUR,15122.0,Indonesia,2170011801,,,-61.611.522,1.066.817.284,https://maps.google.com/?cid=0x0:0x259a94f256898042,
hardware store,Tujuan Wisata,Air Terjun Mataru,"MM94+939 Legiman, Desa, Taman Mataru, Mataru, Alor Regency, East Nusa Tenggara","Kabupaten Alor, Nusa Tenggara Tim.",NUSA TENGGARA TIMUR,,Indonesia,,,,-83.315.805,1.246.552.328,https://maps.google.com/?cid=0x0:0xfdbbf526e58b7bba,
hardware store,Tujuan Wisata,Air Terjun Manna,"RGWG+9R8, Alila Tim., Kec. Kabola, Kabupaten Alor, Nusa Tenggara Tim.","Kabupaten Alor, Nusa Tenggara Tim.",NUSA TENGGARA TIMUR,,Indonesia,,,,-8.154.076,124.527.078,https://maps.google.com/?cid=0x0:0xabc67265d3105abc,
hardware store,hardware store,Nusa Tenggara Tim.,,Nusa Tenggara Tim.,NUSA TENGGARA TIMUR,,Indonesia,,,,-86.573.819,1.210.793.705,https://maps.google.com/?cid=0x0:0x1030bfbcaf71ae0,
hardware store,Kios,Kios Merlin Bakunase,"RH8Q+WQR, Air Nona, Kec. Kota Raja, Kota Kupang, Nusa Tenggara Tim.","Kota Kupang, Nusa Tenggara Tim.",NUSA TENGGARA TIMUR,,Indonesia,85253457167,,,-101.826.313,1.235.893.769,https://maps.google.com/?cid=0x0:0x3a8c0547ffa8fec4,
hardware store,Toko Ponsel,Jawara store,"samping prodia, Jl. Cak Doko No.54, Oetete, Kec. Oebobo, Kota Kupang, Nusa Tenggara Tim. 85111","Jl. Cak Doko No.54, Oetete, Kec. Oebobo, Kota Kupang",NUSA TENGGARA TIMUR,85111.0,Indonesia,81234888166,,,-10.164.615,1.235.913.339,https://maps.google.com/?cid=0x0:0x84166f96793710df,
hardware store,hardware store,Kec. Pantar,"Kabupaten Alor, Nusa Tenggara Tim.","Kabupaten Alor, Nusa Tenggara Tim.",NUSA TENGGARA TIMUR,,Indonesia,,,,-82.529.949,1.242.147.118,https://maps.google.com/?cid=0x0:0x3684b30a9a0625e0,
hardware store,hardware store,,,,NUSA TENGGARA TIMUR,,Indonesia,2129986624,,,-244.565,1.178.888,https://maps.google.com/?cid=0x0:0xbf54891ed7e24812,
hardware store,hardware store,Kec. Pantar Bar.,"Kabupaten Alor, Nusa Tenggara Tim.","Kabupaten Alor, Nusa Tenggara Tim.",NUSA TENGGARA TIMUR,,Indonesia,,,,-83.599.628,1.240.945.669,https://maps.google.com/?cid=0x0:0xdd9980259e181660,
hardware store,Kios,"USAHA,99","Baraler, Kec. Pantar Bar., Kabupaten Alor, Nusa Tenggara Tim.","Kabupaten Alor, Nusa Tenggara Tim.",NUSA TENGGARA TIMUR,,Indonesia,,,,-83.599.208,1.240.827.622,https://maps.google.com/?cid=0x0:0x2eda15f482e23c83,
hardware store,Toko Perlengkapan Rumah,Kios 3A,"Blang Merang, Kec. Pantar Bar., Kabupaten Alor, Nusa Tenggara Tim.","Kabupaten Alor, Nusa Tenggara Tim.",NUSA TENGGARA TIMUR,,Indonesia,,,,-8.359.206,1.240.942.378,https://maps.google.com/?cid=0x0:0xac7bae0b487fe2b7,
hardware store,hardware store,Kec. Pantar Bar. Laut,"Kabupaten Alor, Nusa Tenggara Tim.","Kabupaten Alor, Nusa Tenggara Tim.",NUSA TENGGARA TIMUR,,Indonesia,,,,-83.963.257,1.239.525.669,https://maps.google.com/?cid=0x0:0x38d29f383dad7cad,
hardware store,Sekolah,SMP Negeri Latuna,"J345+R5M, Kalondama, Kec. Pantar Bar., Kabupaten Alor, Nusa Tenggara Tim.","Kabupaten Alor, Nusa Tenggara Tim.",NUSA TENGGARA TIMUR,,Indonesia,,,,-83.929.162,1.240.579.179,https://maps.google.com/?cid=0x0:0x90321cc3d642136a,
hardware store,Sekolah menengah,SMP Ton,"J5GP+QM3, Unnamed Road, Lalafang, Kec. Pantar Tim., Kabupaten Alor, Nusa Tenggara Tim.","Kabupaten Alor, Nusa Tenggara Tim.",NUSA TENGGARA TIMUR,,Indonesia,,,,-83.731.142,1.241.866.663,https://maps.google.com/?cid=0x0:0xa2205615e05fb96c,
hardware store,Toko Komputer,Kalabahi Cyber,"Jl. Lamoru No.26, Binongko, Kec. Tlk. Mutiara, Kabupaten Alor, Nusa Tenggara Tim. 85813","Binongko, Kec. Tlk. Mutiara, Kabupaten Alor",NUSA TENGGARA TIMUR,85813.0,Indonesia,8123740223,,,-82.184.844,124.514.092,https://maps.google.com/?cid=0x0:0x415defa83423b864,
hardware store,Toko Perlengkapan Rumah,Kios 3A,"Blang Merang, Kec. Pantar Bar., Kabupaten Alor, Nusa Tenggara Tim.","Kabupaten Alor, Nusa Tenggara Tim.",NUSA TENGGARA TIMUR,,Indonesia,,,,-8.359.206,1.240.942.378,https://maps.google.com/?cid=0x0:0xac7bae0b487fe2b7,
hardware store,Kios,"USAHA,99","Baraler, Kec. Pantar Bar., Kabupaten Alor, Nusa Tenggara Tim.","Kabupaten Alor, Nusa Tenggara Tim.",NUSA TENGGARA TIMUR,,Indonesia,,,,-83.599.208,1.240.827.622,https://maps.google.com/?cid=0x0:0x2eda15f482e23c83,
hardware store,Kios,"USAHA,99","Baraler, Kec. Pantar Bar., Kabupaten Alor, Nusa Tenggara Tim.","Kabupaten Alor, Nusa Tenggara Tim.",NUSA TENGGARA TIMUR,,Indonesia,,,,-83.599.208,1.240.827.622,https://maps.google.com/?cid=0x0:0x2eda15f482e23c83,
hardware store,Toko Perlengkapan Rumah,Kios 3A,"Blang Merang, Kec. Pantar Bar., Kabupaten Alor, Nusa Tenggara Tim.","Kabupaten Alor, Nusa Tenggara Tim.",NUSA TENGGARA TIMUR,,Indonesia,,,,-8.359.206,1.240.942.378,https://maps.google.com/?cid=0x0:0xac7bae0b487fe2b7,
hardware store,hardware store,Kec. Pulau Pura,"Kabupaten Alor, Nusa Tenggara Tim.","Kabupaten Alor, Nusa Tenggara Tim.",NUSA TENGGARA TIMUR,,Indonesia,,,,-83.101.888,1.243.205.613,https://maps.google.com/?cid=0x0:0x5273b339ab12c66f,
hardware store,hardware store,Pulau Pura,"Pura Sel., Kec. Pulau Pura, Kabupaten Alor, Nusa Tenggara Tim.","Kabupaten Alor, Nusa Tenggara Tim.",NUSA TENGGARA TIMUR,,Indonesia,,,,-83.005.556,1.243.475,https://maps.google.com/?cid=0x0:0xf65d516a0a2b1f3,
hardware store,hardware store,Nusa Tenggara Tim.,,Nusa Tenggara Tim.,NUSA TENGGARA TIMUR,,Indonesia,,,,-86.573.819,1.210.793.705,https://maps.google.com/?cid=0x0:0x1030bfbcaf71ae0,
hardware store,Servis Komputer,TOKO HOMBOL COMPUTER KALABAHI,"Kampung Baru. Jln Ki Hajar Dewontoro Kelurahan Nusa Kenari Kecamatan Teluk Mutiara Kabupaten Alor Provinsi Nusa Tenggara Timur Kalabahi, Kabupaten Alor, Nusa Tenggara Tim. 85819",Kabupaten Alor,NUSA TENGGARA TIMUR,85819.0,Indonesia,82144219099,,,-82.136.535,124.520.826,https://maps.google.com/?cid=0x0:0xff23a28ae02558ef,
hardware store,Toko Bahan Bangunan,UD. Sumber Logam,"Jl. Jenderal Sudirman No.49, Kuanino, Kec. Kota Raja, Kota Kupang, Nusa Tenggara Tim.","Kota Kupang, Nusa Tenggara Tim.",NUSA TENGGARA TIMUR,,Indonesia,81337811116,,,-101.714.636,1.235.905.003,https://maps.google.com/?cid=0x0:0x2834c9c645cae3f1,
hardware store,Toko Komputer,Kalabahi Cyber,"Jl. Lamoru No.26, Binongko, Kec. Tlk. Mutiara, Kabupaten Alor, Nusa Tenggara Tim. 85813","Binongko, Kec. Tlk. Mutiara, Kabupaten Alor",NUSA TENGGARA TIMUR,85813.0,Indonesia,8123740223,,,-82.184.844,124.514.092,https://maps.google.com/?cid=0x0:0x415defa83423b864,
hardware store,Toko Pakaian,AZKO PARAMOUNT SERPONG,"Raya  Blok BA-5 No.22-25 Kel, Jl. Gading Serpong Boulevard No.40-45, West Pakulonan, Kelapa Dua, Tangerang Regency, Banten 15810","Jl. Gading Serpong Boulevard No.40-45, West Pakulonan, Kelapa Dua, Tangerang Regency",NUSA TENGGARA TIMUR,15810.0,Indonesia,81210602313,,,-62.379.346,10.663.138,https://maps.google.com/?cid=0x0:0xae480ec2f8d32543,
hardware store,Pusat Perbelanjaan,AZKO - QBIG BSD City,"Jl. BSD Raya Utama No.03-05 Blok H/G, Lengkong Kulon, Kec. Pagedangan, Kabupaten Tangerang, Banten 15331","Lengkong Kulon, Kec. Pagedangan, Kabupaten Tangerang",NUSA TENGGARA TIMUR,15331.0,Indonesia,,,,-62.861.749,1.066.382.841,https://maps.google.com/?cid=0x0:0x28ebdcdfaba15b7e,
hardware store,hardware store,Kec. Tlk. Mutiara,"Kabupaten Alor, Nusa Tenggara Tim.","Kabupaten Alor, Nusa Tenggara Tim.",NUSA TENGGARA TIMUR,,Indonesia,,,,-82.165.759,1.245.218.191,https://maps.google.com/?cid=0x0:0x36ef9ebbaaa54623,
hardware store,Servis Komputer,TOKO HOMBOL COMPUTER KALABAHI,"Kampung Baru. Jln Ki Hajar Dewontoro Kelurahan Nusa Kenari Kecamatan Teluk Mutiara Kabupaten Alor Provinsi Nusa Tenggara Timur Kalabahi, Kabupaten Alor, Nusa Tenggara Tim. 85819",Kabupaten Alor,NUSA TENGGARA TIMUR,85819.0,Indonesia,82144219099,,,-82.136.535,124.520.826,https://maps.google.com/?cid=0x0:0xff23a28ae02558ef,
hardware store,Toko Elektronik,Prima Elektronik NTT,"Jl. no 48, Jl. Jend. Sudirman, Kalabahi Tengah, Kalabahi, Alor, Kabupaten Alor, Nusa Tenggara Tim.","Kabupaten Alor, Nusa Tenggara Tim.",NUSA TENGGARA TIMUR,,Indonesia,82144395445,,,-8.216.539,1.245.275.963,https://maps.google.com/?cid=0x0:0xf69980622b8ba2bb,
hardware store,Pembangunan Perumahan,Lautingara,"QGP8+6F4, Kalabahi Kota, Kec. Tlk. Mutiara, Kabupaten Alor, Nusa Tenggara Tim.","Kabupaten Alor, Nusa Tenggara Tim.",NUSA TENGGARA TIMUR,,Indonesia,,,,-82.144.829,1.245.162.013,https://maps.google.com/?cid=0x0:0x691600ef340b725e,
hardware store,Pembangunan Perumahan,Kalabahi alor nusa Tenggara Timur,"QGJ6+46F, Binongko, Kec. Tlk. Mutiara, Kabupaten Alor, Nusa Tenggara Tim.","Kabupaten Alor, Nusa Tenggara Tim.",NUSA TENGGARA TIMUR,,Indonesia,,,,-8.219.686,1.245.105.588,https://maps.google.com/?cid=0x0:0x26e730fe8bf6c5ca,
hardware store,Gereja,Klbahi,"QGP9+97V, Kalabahi Kota, Kec. Tlk. Mutiara, Kabupaten Alor, Nusa Tenggara Tim.","Kabupaten Alor, Nusa Tenggara Tim.",NUSA TENGGARA TIMUR,,Indonesia,,,,-82.140.195,1.245.181.705,https://maps.google.com/?cid=0x0:0x6ef60fcf0e324977,
hardware store,Toserba,MR. DIY Cabang Alor,"Kalabahi Tengah, Kec. Tlk. Mutiara, Kabupaten Alor, Nusa Tenggara Tim.","Kabupaten Alor, Nusa Tenggara Tim.",NUSA TENGGARA TIMUR,,Indonesia,,,,-82.170.688,1.245.306.782,https://maps.google.com/?cid=0x0:0x8dc85a5abe3152ba,
hardware store,Toko Alat Tulis Kantor,FOTOCOPY BARANUSA 1,"Jl. Hasanudin No.12-19, Binongko, Kec. Tlk. Mutiara, Kabupaten Alor, Nusa Tenggara Tim.","Kabupaten Alor, Nusa Tenggara Tim.",NUSA TENGGARA TIMUR,,Indonesia,82146279127,,,-8.220.133,124.510.647,https://maps.google.com/?cid=0x0:0x9f766aa55ca3bf53,
hardware store,Toko,Daya prima Bangunan,"QHRC+CCM, Jl. Soekarno Hatta, Welai Tim., Kec. Tlk. Mutiara, Kabupaten Alor, Nusa Tenggara Tim.","Kabupaten Alor, Nusa Tenggara Tim.",NUSA TENGGARA TIMUR,,Indonesia,,,,-82.089.143,1.245.710.541,https://maps.google.com/?cid=0x0:0x657f2d9e261cc672,
hardware store,Pusat Perbelanjaan,Sinar Kencana Alor - Toko Bangunan,"Jl. Jend. Sudirman, Kalabahi Kota, Kec. Tlk. Mutiara, Kabupaten Alor, Nusa Tenggara Tim.","Kabupaten Alor, Nusa Tenggara Tim.",NUSA TENGGARA TIMUR,,Indonesia,82228000848,,,-82.165.322,1.245.274.066,https://maps.google.com/?cid=0x0:0xf8954eac934992e1,
hardware store,Taman Kota,Kalabahi,"QGJR+J52, Kalabahi Tim., Kec. Tlk. Mutiara, Kabupaten Alor, Nusa Tenggara Tim.","Kabupaten Alor, Nusa Tenggara Tim.",NUSA TENGGARA TIMUR,,Indonesia,,,,-8.218.496,1.245.403.772,https://maps.google.com/?cid=0x0:0xa4425011737a7879,
hardware store,Servis Komputer,TOKO HOMBOL COMPUTER KALABAHI,"Kampung Baru. Jln Ki Hajar Dewontoro Kelurahan Nusa Kenari Kecamatan Teluk Mutiara Kabupaten Alor Provinsi Nusa Tenggara Timur Kalabahi, Kabupaten Alor, Nusa Tenggara Tim. 85819",Kabupaten Alor,NUSA TENGGARA TIMUR,85819.0,Indonesia,82144219099,,,-82.136.535,124.520.826,https://maps.google.com/?cid=0x0:0xff23a28ae02558ef,
hardware store,hardware store,Kec. Tlk. Mutiara,"Kabupaten Alor, Nusa Tenggara Tim.","Kabupaten Alor, Nusa Tenggara Tim.",NUSA TENGGARA TIMUR,,Indonesia,,,,-82.165.759,1.245.218.191,https://maps.google.com/?cid=0x0:0x36ef9ebbaaa54623,
hardware store,Masjid,Masjid. An-Nur Sawah Lama,"Sawah Lama, T.Timur, Lendola, Kec. Tlk. Mutiara, Kabupaten Alor, Nusa Tenggara Tim.","Kabupaten Alor, Nusa Tenggara Tim.",NUSA TENGGARA TIMUR,,Indonesia,,,,-82.111.747,1.245.260.928,https://maps.google.com/?cid=0x0:0x4e1e8d831f4f5d77,
hardware store,Toko,Kadelang Market,"QGGV+P4M, Kadelang, Kalabahi Tim., Kec. Tlk. Mutiara, Kabupaten Alor, Nusa Tenggara Tim.","Kabupaten Alor, Nusa Tenggara Tim.",NUSA TENGGARA TIMUR,,Indonesia,,,,-82.231.731,124.542.809,https://maps.google.com/?cid=0x0:0xe5c15609490b2a1b,
hardware store,Pembangunan Perumahan,Lautingara,"QGP8+6F4, Kalabahi Kota, Kec. Tlk. Mutiara, Kabupaten Alor, Nusa Tenggara Tim.","Kabupaten Alor, Nusa Tenggara Tim.",NUSA TENGGARA TIMUR,,Indonesia,,,,-82.144.829,1.245.162.013,https://maps.google.com/?cid=0x0:0x691600ef340b725e,
hardware store,Jembatan,Jembatan Beldang,"QGHW+783, Mutiara, Kec. Tlk. Mutiara, Kabupaten Alor, Nusa Tenggara Tim.","Kabupaten Alor, Nusa Tenggara Tim.",NUSA TENGGARA TIMUR,,Indonesia,,,,-82.218.568,1.245.457.913,https://maps.google.com/?cid=0x0:0xbb9e72034b1be24b,
hardware store,Gereja,Klbahi,"QGP9+97V, Kalabahi Kota, Kec. Tlk. Mutiara, Kabupaten Alor, Nusa Tenggara Tim.","Kabupaten Alor, Nusa Tenggara Tim.",NUSA TENGGARA TIMUR,,Indonesia,,,,-82.140.195,1.245.181.705,https://maps.google.com/?cid=0x0:0x6ef60fcf0e324977,
hardware store,Sekolah Dasar,SD inpres 6 Kalabahi tengah,"QGRM+4W4, Kalabahi Tengah, Kec. Tlk. Mutiara, Kabupaten Alor, Nusa Tenggara Tim.","Kabupaten Alor, Nusa Tenggara Tim.",NUSA TENGGARA TIMUR,,Indonesia,,,,-82.097.401,1.245.348.382,https://maps.google.com/?cid=0x0:0xb055186809196539,
hardware store,Sekolah Dasar,SD Inpres Bungawaru,"Jl. Jambu No.3, Kalabahi Kota, Kec. Tlk. Mutiara, Kabupaten Alor, Nusa Tenggara Tim.","Kabupaten Alor, Nusa Tenggara Tim.",NUSA TENGGARA TIMUR,,Indonesia,3862222457,,,-82.153.839,1.245.354.204,https://maps.google.com/?cid=0x0:0x247203ab9445d6ff,
hardware store,hardware store,O2,"QGMM+3W7, Kalabahi Tim., Kec. Tlk. Mutiara, Kabupaten Alor, Nusa Tenggara Tim.","Kabupaten Alor, Nusa Tenggara Tim.",NUSA TENGGARA TIMUR,,Indonesia,,,,-82.173.431,124.534.793,https://maps.google.com/?cid=0x0:0x3c88c816e137cb20,
hardware store,Toserba,MR. DIY Cabang Alor,"Kalabahi Tengah, Kec. Tlk. Mutiara, Kabupaten Alor, Nusa Tenggara Tim.","Kabupaten Alor, Nusa Tenggara Tim.",NUSA TENGGARA TIMUR,,Indonesia,,,,-82.170.688,1.245.306.782,https://maps.google.com/?cid=0x0:0x8dc85a5abe3152ba,
hardware store,Pusat Perbelanjaan,Sinar Kencana Alor - Toko Bangunan,"Jl. Jend. Sudirman, Kalabahi Kota, Kec. Tlk. Mutiara, Kabupaten Alor, Nusa Tenggara Tim.","Kabupaten Alor, Nusa Tenggara Tim.",NUSA TENGGARA TIMUR,,Indonesia,82228000848,,,-82.165.322,1.245.274.066,https://maps.google.com/?cid=0x0:0xf8954eac934992e1,
hardware store,Toko,Daya prima Bangunan,"QHRC+CCM, Jl. Soekarno Hatta, Welai Tim., Kec. Tlk. Mutiara, Kabupaten Alor, Nusa Tenggara Tim.","Kabupaten Alor, Nusa Tenggara Tim.",NUSA TENGGARA TIMUR,,Indonesia,,,,-82.089.143,1.245.710.541,https://maps.google.com/?cid=0x0:0x657f2d9e261cc672,
hardware store,Toko Alat Tulis Kantor,FOTOCOPY BARANUSA 1,"Jl. Hasanudin No.12-19, Binongko, Kec. Tlk. Mutiara, Kabupaten Alor, Nusa Tenggara Tim.","Kabupaten Alor, Nusa Tenggara Tim.",NUSA TENGGARA TIMUR,,Indonesia,82146279127,,,-8.220.133,124.510.647,https://maps.google.com/?cid=0x0:0x9f766aa55ca3bf53,
hardware store,hardware store,Kec. Tlk. Mutiara,"Kabupaten Alor, Nusa Tenggara Tim.","Kabupaten Alor, Nusa Tenggara Tim.",NUSA TENGGARA TIMUR,,Indonesia,,,,-82.165.759,1.245.218.191,https://maps.google.com/?cid=0x0:0x36ef9ebbaaa54623,
hardware store,Servis Komputer,TOKO HOMBOL COMPUTER KALABAHI,"Kampung Baru. Jln Ki Hajar Dewontoro Kelurahan Nusa Kenari Kecamatan Teluk Mutiara Kabupaten Alor Provinsi Nusa Tenggara Timur Kalabahi, Kabupaten Alor, Nusa Tenggara Tim. 85819",Kabupaten Alor,NUSA TENGGARA TIMUR,85819.0,Indonesia,82144219099,,,-82.136.535,124.520.826,https://maps.google.com/?cid=0x0:0xff23a28ae02558ef,
hardware store,Toko Elektronik,Prima Elektronik NTT,"Jl. no 48, Jl. Jend. Sudirman, Kalabahi Tengah, Kalabahi, Alor, Kabupaten Alor, Nusa Tenggara Tim.","Kabupaten Alor, Nusa Tenggara Tim.",NUSA TENGGARA TIMUR,,Indonesia,82144395445,,,-8.216.539,1.245.275.963,https://maps.google.com/?cid=0x0:0xf69980622b8ba2bb,
hardware store,Pembangunan Perumahan,Lautingara,"QGP8+6F4, Kalabahi Kota, Kec. Tlk. Mutiara, Kabupaten Alor, Nusa Tenggara Tim.","Kabupaten Alor, Nusa Tenggara Tim.",NUSA TENGGARA TIMUR,,Indonesia,,,,-82.144.829,1.245.162.013,https://maps.google.com/?cid=0x0:0x691600ef340b725e,
hardware store,Gereja,Klbahi,"QGP9+97V, Kalabahi Kota, Kec. Tlk. Mutiara, Kabupaten Alor, Nusa Tenggara Tim.","Kabupaten Alor, Nusa Tenggara Tim.",NUSA TENGGARA TIMUR,,Indonesia,,,,-82.140.195,1.245.181.705,https://maps.google.com/?cid=0x0:0x6ef60fcf0e324977,
hardware store,Jembatan,Jembatan Beldang,"QGHW+783, Mutiara, Kec. Tlk. Mutiara, Kabupaten Alor, Nusa Tenggara Tim.","Kabupaten Alor, Nusa Tenggara Tim.",NUSA TENGGARA TIMUR,,Indonesia,,,,-82.218.568,1.245.457.913,https://maps.google.com/?cid=0x0:0xbb9e72034b1be24b,
hardware store,Sekolah Dasar,SD Inpres Bungawaru,"Jl. Jambu No.3, Kalabahi Kota, Kec. Tlk. Mutiara, Kabupaten Alor, Nusa Tenggara Tim.","Kabupaten Alor, Nusa Tenggara Tim.",NUSA TENGGARA TIMUR,,Indonesia,3862222457,,,-82.153.839,1.245.354.204,https://maps.google.com/?cid=0x0:0x247203ab9445d6ff,
hardware store,Toserba,MR. DIY Cabang Alor,"Kalabahi Tengah, Kec. Tlk. Mutiara, Kabupaten Alor, Nusa Tenggara Tim.","Kabupaten Alor, Nusa Tenggara Tim.",NUSA TENGGARA TIMUR,,Indonesia,,,,-82.170.688,1.245.306.782,https://maps.google.com/?cid=0x0:0x8dc85a5abe3152ba,
hardware store,Pusat Perbelanjaan,Sinar Kencana Alor - Toko Bangunan,"Jl. Jend. Sudirman, Kalabahi Kota, Kec. Tlk. Mutiara, Kabupaten Alor, Nusa Tenggara Tim.","Kabupaten Alor, Nusa Tenggara Tim.",NUSA TENGGARA TIMUR,,Indonesia,82228000848,,,-82.165.322,1.245.274.066,https://maps.google.com/?cid=0x0:0xf8954eac934992e1,
hardware store,Toko,Daya prima Bangunan,"QHRC+CCM, Jl. Soekarno Hatta, Welai Tim., Kec. Tlk. Mutiara, Kabupaten Alor, Nusa Tenggara Tim.","Kabupaten Alor, Nusa Tenggara Tim.",NUSA TENGGARA TIMUR,,Indonesia,,,,-82.089.143,1.245.710.541,https://maps.google.com/?cid=0x0:0x657f2d9e261cc672,
hardware store,Toko Alat Tulis Kantor,FOTOCOPY BARANUSA 1,"Jl. Hasanudin No.12-19, Binongko, Kec. Tlk. Mutiara, Kabupaten Alor, Nusa Tenggara Tim.","Kabupaten Alor, Nusa Tenggara Tim.",NUSA TENGGARA TIMUR,,Indonesia,82146279127,,,-8.220.133,124.510.647,https://maps.google.com/?cid=0x0:0x9f766aa55ca3bf53,
hardware store,hardware store,Kec. Tlk. Mutiara,"Kabupaten Alor, Nusa Tenggara Tim.","Kabupaten Alor, Nusa Tenggara Tim.",NUSA TENGGARA TIMUR,,Indonesia,,,,-82.165.759,1.245.218.191,https://maps.google.com/?cid=0x0:0x36ef9ebbaaa54623,
hardware store,Servis Komputer,TOKO HOMBOL COMPUTER KALABAHI,"Kampung Baru. Jln Ki Hajar Dewontoro Kelurahan Nusa Kenari Kecamatan Teluk Mutiara Kabupaten Alor Provinsi Nusa Tenggara Timur Kalabahi, Kabupaten Alor, Nusa Tenggara Tim. 85819",Kabupaten Alor,NUSA TENGGARA TIMUR,85819.0,Indonesia,82144219099,,,-82.136.535,124.520.826,https://maps.google.com/?cid=0x0:0xff23a28ae02558ef,
hardware store,Toko Komputer,Lia Computer,"Jend. Sudirman Street No.100, Kalabahi Kota, Kec. Tlk. Mutiara, Kabupaten Alor, Nusa Tenggara Tim.","Kabupaten Alor, Nusa Tenggara Tim.",NUSA TENGGARA TIMUR,,Indonesia,81339425953,,,-82.139.883,1.245.183.415,https://maps.google.com/?cid=0x0:0x1fe99b387b3ab250,
hardware store,Toko,Kadelang Market,"QGGV+P4M, Kadelang, Kalabahi Tim., Kec. Tlk. Mutiara, Kabupaten Alor, Nusa Tenggara Tim.","Kabupaten Alor, Nusa Tenggara Tim.",NUSA TENGGARA TIMUR,,Indonesia,,,,-82.231.731,124.542.809,https://maps.google.com/?cid=0x0:0xe5c15609490b2a1b,
hardware store,Servis Komputer,Kiseki Computer,"QGJW+MG9, Mutiara, Kec. Tlk. Mutiara, Kabupaten Alor, Nusa Tenggara Tim.","Kabupaten Alor, Nusa Tenggara Tim.",NUSA TENGGARA TIMUR,,Indonesia,81232851268,,,-82.183.497,1.245.463.458,https://maps.google.com/?cid=0x0:0x24c5c94d98d80c6b,
hardware store,Jembatan,Jembatan Beldang,"QGHW+783, Mutiara, Kec. Tlk. Mutiara, Kabupaten Alor, Nusa Tenggara Tim.","Kabupaten Alor, Nusa Tenggara Tim.",NUSA TENGGARA TIMUR,,Indonesia,,,,-82.218.568,1.245.457.913,https://maps.google.com/?cid=0x0:0xbb9e72034b1be24b,
hardware store,Sekolah Dasar,SD Inpres Bungawaru,"Jl. Jambu No.3, Kalabahi Kota, Kec. Tlk. Mutiara, Kabupaten Alor, Nusa Tenggara Tim.","Kabupaten Alor, Nusa Tenggara Tim.",NUSA TENGGARA TIMUR,,Indonesia,3862222457,,,-82.153.839,1.245.354.204,https://maps.google.com/?cid=0x0:0x247203ab9445d6ff,
hardware store,Sekolah Dasar,SD GMIT 007 Kabola,"Mutiara, Kec. Tlk. Mutiara, Kabupaten Alor, Nusa Tenggara Tim.","Kabupaten Alor, Nusa Tenggara Tim.",NUSA TENGGARA TIMUR,,Indonesia,,,,-82.162.379,1.245.432.948,https://maps.google.com/?cid=0x0:0x66cdbc658cca5f30,
hardware store,Hostel,hombol lendola,"HOMBOL, Lendola, Kec. Tlk. Mutiara, Kabupaten Alor, Nusa Tenggara Tim. 85830","Lendola, Kec. Tlk. Mutiara, Kabupaten Alor",NUSA TENGGARA TIMUR,85830.0,Indonesia,82145596246,,,-82.096.257,1.245.219.429,https://maps.google.com/?cid=0x0:0x7446935a929f707d,
hardware store,hardware store,O2,"QGMM+3W7, Kalabahi Tim., Kec. Tlk. Mutiara, Kabupaten Alor, Nusa Tenggara Tim.","Kabupaten Alor, Nusa Tenggara Tim.",NUSA TENGGARA TIMUR,,Indonesia,,,,-82.173.431,124.534.793,https://maps.google.com/?cid=0x0:0x3c88c816e137cb20,
hardware store,Toko,Daya prima Bangunan,"QHRC+CCM, Jl. Soekarno Hatta, Welai Tim., Kec. Tlk. Mutiara, Kabupaten Alor, Nusa Tenggara Tim.","Kabupaten Alor, Nusa Tenggara Tim.",NUSA TENGGARA TIMUR,,Indonesia,,,,-82.089.143,1.245.710.541,https://maps.google.com/?cid=0x0:0x657f2d9e261cc672,
hardware store,Toserba,MR. DIY Cabang Alor,"Kalabahi Tengah, Kec. Tlk. Mutiara, Kabupaten Alor, Nusa Tenggara Tim.","Kabupaten Alor, Nusa Tenggara Tim.",NUSA TENGGARA TIMUR,,Indonesia,,,,-82.170.688,1.245.306.782,https://maps.google.com/?cid=0x0:0x8dc85a5abe3152ba,
hardware store,Pusat Perbelanjaan,Sinar Kencana Alor - Toko Bangunan,"Jl. Jend. Sudirman, Kalabahi Kota, Kec. Tlk. Mutiara, Kabupaten Alor, Nusa Tenggara Tim.","Kabupaten Alor, Nusa Tenggara Tim.",NUSA TENGGARA TIMUR,,Indonesia,82228000848,,,-82.165.322,1.245.274.066,https://maps.google.com/?cid=0x0:0xf8954eac934992e1,
hardware store,Toko Alat Tulis Kantor,FOTOCOPY BARANUSA 1,"Jl. Hasanudin No.12-19, Binongko, Kec. Tlk. Mutiara, Kabupaten Alor, Nusa Tenggara Tim.","Kabupaten Alor, Nusa Tenggara Tim.",NUSA TENGGARA TIMUR,,Indonesia,82146279127,,,-8.220.133,124.510.647,https://maps.google.com/?cid=0x0:0x9f766aa55ca3bf53,
hardware store,Servis Komputer,TOKO HOMBOL COMPUTER KALABAHI,"Kampung Baru. Jln Ki Hajar Dewontoro Kelurahan Nusa Kenari Kecamatan Teluk Mutiara Kabupaten Alor Provinsi Nusa Tenggara Timur Kalabahi, Kabupaten Alor, Nusa Tenggara Tim. 85819",Kabupaten Alor,NUSA TENGGARA TIMUR,85819.0,Indonesia,82144219099,,,-82.136.535,124.520.826,https://maps.google.com/?cid=0x0:0xff23a28ae02558ef,
hardware store,Toko Komputer,Kalabahi Cyber,"Jl. Lamoru No.26, Binongko, Kec. Tlk. Mutiara, Kabupaten Alor, Nusa Tenggara Tim. 85813","Binongko, Kec. Tlk. Mutiara, Kabupaten Alor",NUSA TENGGARA TIMUR,85813.0,Indonesia,8123740223,,,-82.184.844,124.514.092,https://maps.google.com/?cid=0x0:0x415defa83423b864,
hardware store,hardware store,Kec. Tlk. Mutiara,"Kabupaten Alor, Nusa Tenggara Tim.","Kabupaten Alor, Nusa Tenggara Tim.",NUSA TENGGARA TIMUR,,Indonesia,,,,-82.165.759,1.245.218.191,https://maps.google.com/?cid=0x0:0x36ef9ebbaaa54623,
hardware store,Toko,Daya prima Bangunan,"QHRC+CCM, Jl. Soekarno Hatta, Welai Tim., Kec. Tlk. Mutiara, Kabupaten Alor, Nusa Tenggara Tim.","Kabupaten Alor, Nusa Tenggara Tim.",NUSA TENGGARA TIMUR,,Indonesia,,,,-82.089.143,1.245.710.541,https://maps.google.com/?cid=0x0:0x657f2d9e261cc672,
hardware store,Pusat Perbelanjaan,Sinar Kencana Alor - Toko Bangunan,"Jl. Jend. Sudirman, Kalabahi Kota, Kec. Tlk. Mutiara, Kabupaten Alor, Nusa Tenggara Tim.","Kabupaten Alor, Nusa Tenggara Tim.",NUSA TENGGARA TIMUR,,Indonesia,82228000848,,,-82.165.322,1.245.274.066,https://maps.google.com/?cid=0x0:0xf8954eac934992e1,
hardware store,Toko Alat Tulis Kantor,FOTOCOPY BARANUSA 1,"Jl. Hasanudin No.12-19, Binongko, Kec. Tlk. Mutiara, Kabupaten Alor, Nusa Tenggara Tim.","Kabupaten Alor, Nusa Tenggara Tim.",NUSA TENGGARA TIMUR,,Indonesia,82146279127,,,-8.220.133,124.510.647,https://maps.google.com/?cid=0x0:0x9f766aa55ca3bf53,
hardware store,hardware store,Kec. Tlk. Mutiara,"Kabupaten Alor, Nusa Tenggara Tim.","Kabupaten Alor, Nusa Tenggara Tim.",NUSA TENGGARA TIMUR,,Indonesia,,,,-82.165.759,1.245.218.191,https://maps.google.com/?cid=0x0:0x36ef9ebbaaa54623,
hardware store,Servis Komputer,TOKO HOMBOL COMPUTER KALABAHI,"Kampung Baru. Jln Ki Hajar Dewontoro Kelurahan Nusa Kenari Kecamatan Teluk Mutiara Kabupaten Alor Provinsi Nusa Tenggara Timur Kalabahi, Kabupaten Alor, Nusa Tenggara Tim. 85819",Kabupaten Alor,NUSA TENGGARA TIMUR,85819.0,Indonesia,82144219099,,,-82.136.535,124.520.826,https://maps.google.com/?cid=0x0:0xff23a28ae02558ef,
hardware store,Toko Komputer,Lia Computer,"Jend. Sudirman Street No.100, Kalabahi Kota, Kec. Tlk. Mutiara, Kabupaten Alor, Nusa Tenggara Tim.","Kabupaten Alor, Nusa Tenggara Tim.",NUSA TENGGARA TIMUR,,Indonesia,81339425953,,,-82.139.883,1.245.183.415,https://maps.google.com/?cid=0x0:0x1fe99b387b3ab250,
hardware store,Jembatan,Jembatan Beldang,"QGHW+783, Mutiara, Kec. Tlk. Mutiara, Kabupaten Alor, Nusa Tenggara Tim.","Kabupaten Alor, Nusa Tenggara Tim.",NUSA TENGGARA TIMUR,,Indonesia,,,,-82.218.568,1.245.457.913,https://maps.google.com/?cid=0x0:0xbb9e72034b1be24b,
hardware store,Servis Komputer,Kiseki Computer,"QGJW+MG9, Mutiara, Kec. Tlk. Mutiara, Kabupaten Alor, Nusa Tenggara Tim.","Kabupaten Alor, Nusa Tenggara Tim.",NUSA TENGGARA TIMUR,,Indonesia,81232851268,,,-82.183.497,1.245.463.458,https://maps.google.com/?cid=0x0:0x24c5c94d98d80c6b,
hardware store,Sekolah Dasar,SD Inpres Bungawaru,"Jl. Jambu No.3, Kalabahi Kota, Kec. Tlk. Mutiara, Kabupaten Alor, Nusa Tenggara Tim.","Kabupaten Alor, Nusa Tenggara Tim.",NUSA TENGGARA TIMUR,,Indonesia,3862222457,,,-82.153.839,1.245.354.204,https://maps.google.com/?cid=0x0:0x247203ab9445d6ff,
hardware store,Hostel,hombol lendola,"HOMBOL, Lendola, Kec. Tlk. Mutiara, Kabupaten Alor, Nusa Tenggara Tim. 85830","Lendola, Kec. Tlk. Mutiara, Kabupaten Alor",NUSA TENGGARA TIMUR,85830.0,Indonesia,82145596246,,,-82.096.257,1.245.219.429,https://maps.google.com/?cid=0x0:0x7446935a929f707d,
hardware store,Sekolah Dasar,SD GMIT 007 Kabola,"Mutiara, Kec. Tlk. Mutiara, Kabupaten Alor, Nusa Tenggara Tim.","Kabupaten Alor, Nusa Tenggara Tim.",NUSA TENGGARA TIMUR,,Indonesia,,,,-82.162.379,1.245.432.948,https://maps.google.com/?cid=0x0:0x66cdbc658cca5f30,
hardware store,hardware store,O2,"QGMM+3W7, Kalabahi Tim., Kec. Tlk. Mutiara, Kabupaten Alor, Nusa Tenggara Tim.","Kabupaten Alor, Nusa Tenggara Tim.",NUSA TENGGARA TIMUR,,Indonesia,,,,-82.173.431,124.534.793,https://maps.google.com/?cid=0x0:0x3c88c816e137cb20,
hardware store,Toko,Daya prima Bangunan,"QHRC+CCM, Jl. Soekarno Hatta, Welai Tim., Kec. Tlk. Mutiara, Kabupaten Alor, Nusa Tenggara Tim.","Kabupaten Alor, Nusa Tenggara Tim.",NUSA TENGGARA TIMUR,,Indonesia,,,,-82.089.143,1.245.710.541,https://maps.google.com/?cid=0x0:0x657f2d9e261cc672,
hardware store,Toserba,MR. DIY Cabang Alor,"Kalabahi Tengah, Kec. Tlk. Mutiara, Kabupaten Alor, Nusa Tenggara Tim.","Kabupaten Alor, Nusa Tenggara Tim.",NUSA TENGGARA TIMUR,,Indonesia,,,,-82.170.688,1.245.306.782,https://maps.google.com/?cid=0x0:0x8dc85a5abe3152ba,
hardware store,Pusat Perbelanjaan,Sinar Kencana Alor - Toko Bangunan,"Jl. Jend. Sudirman, Kalabahi Kota, Kec. Tlk. Mutiara, Kabupaten Alor, Nusa Tenggara Tim.","Kabupaten Alor, Nusa Tenggara Tim.",NUSA TENGGARA TIMUR,,Indonesia,82228000848,,,-82.165.322,1.245.274.066,https://maps.google.com/?cid=0x0:0xf8954eac934992e1,
hardware store,Toko Alat Tulis Kantor,FOTOCOPY BARANUSA 1,"Jl. Hasanudin No.12-19, Binongko, Kec. Tlk. Mutiara, Kabupaten Alor, Nusa Tenggara Tim.","Kabupaten Alor, Nusa Tenggara Tim.",NUSA TENGGARA TIMUR,,Indonesia,82146279127,,,-8.220.133,124.510.647,https://maps.google.com/?cid=0x0:0x9f766aa55ca3bf53,
hardware store,hardware store,Kec. Tlk. Mutiara,"Kabupaten Alor, Nusa Tenggara Tim.","Kabupaten Alor, Nusa Tenggara Tim.",NUSA TENGGARA TIMUR,,Indonesia,,,,-82.165.759,1.245.218.191,https://maps.google.com/?cid=0x0:0x36ef9ebbaaa54623,
hardware store,Toko Elektronik,Prima Elektronik NTT,"Jl. no 48, Jl. Jend. Sudirman, Kalabahi Tengah, Kalabahi, Alor, Kabupaten Alor, Nusa Tenggara Tim.","Kabupaten Alor, Nusa Tenggara Tim.",NUSA TENGGARA TIMUR,,Indonesia,82144395445,,,-8.216.539,1.245.275.963,https://maps.google.com/?cid=0x0:0xf69980622b8ba2bb,
hardware store,Servis Komputer,TOKO HOMBOL COMPUTER KALABAHI,"Kampung Baru. Jln Ki Hajar Dewontoro Kelurahan Nusa Kenari Kecamatan Teluk Mutiara Kabupaten Alor Provinsi Nusa Tenggara Timur Kalabahi, Kabupaten Alor, Nusa Tenggara Tim. 85819",Kabupaten Alor,NUSA TENGGARA TIMUR,85819.0,Indonesia,82144219099,,,-82.136.535,124.520.826,https://maps.google.com/?cid=0x0:0xff23a28ae02558ef,
hardware store,Jembatan,Jembatan Beldang,"QGHW+783, Mutiara, Kec. Tlk. Mutiara, Kabupaten Alor, Nusa Tenggara Tim.","Kabupaten Alor, Nusa Tenggara Tim.",NUSA TENGGARA TIMUR,,Indonesia,,,,-82.218.568,1.245.457.913,https://maps.google.com/?cid=0x0:0xbb9e72034b1be24b,
hardware store,Pembangunan Perumahan,Lautingara,"QGP8+6F4, Kalabahi Kota, Kec. Tlk. Mutiara, Kabupaten Alor, Nusa Tenggara Tim.","Kabupaten Alor, Nusa Tenggara Tim.",NUSA TENGGARA TIMUR,,Indonesia,,,,-82.144.829,1.245.162.013,https://maps.google.com/?cid=0x0:0x691600ef340b725e,
hardware store,Gereja,Klbahi,"QGP9+97V, Kalabahi Kota, Kec. Tlk. Mutiara, Kabupaten Alor, Nusa Tenggara Tim.","Kabupaten Alor, Nusa Tenggara Tim.",NUSA TENGGARA TIMUR,,Indonesia,,,,-82.140.195,1.245.181.705,https://maps.google.com/?cid=0x0:0x6ef60fcf0e324977,
hardware store,Sekolah Dasar,SD GMIT 007 Kabola,"Mutiara, Kec. Tlk. Mutiara, Kabupaten Alor, Nusa Tenggara Tim.","Kabupaten Alor, Nusa Tenggara Tim.",NUSA TENGGARA TIMUR,,Indonesia,,,,-82.162.379,1.245.432.948,https://maps.google.com/?cid=0x0:0x66cdbc658cca5f30,
hardware store,Sekolah Dasar,SD Inpres Bungawaru,"Jl. Jambu No.3, Kalabahi Kota, Kec. Tlk. Mutiara, Kabupaten Alor, Nusa Tenggara Tim.","Kabupaten Alor, Nusa Tenggara Tim.",NUSA TENGGARA TIMUR,,Indonesia,3862222457,,,-82.153.839,1.245.354.204,https://maps.google.com/?cid=0x0:0x247203ab9445d6ff,
hardware store,hardware store,O2,"QGMM+3W7, Kalabahi Tim., Kec. Tlk. Mutiara, Kabupaten Alor, Nusa Tenggara Tim.","Kabupaten Alor, Nusa Tenggara Tim.",NUSA TENGGARA TIMUR,,Indonesia,,,,-82.173.431,124.534.793,https://maps.google.com/?cid=0x0:0x3c88c816e137cb20,
hardware store,Toko,Daya prima Bangunan,"QHRC+CCM, Jl. Soekarno Hatta, Welai Tim., Kec. Tlk. Mutiara, Kabupaten Alor, Nusa Tenggara Tim.","Kabupaten Alor, Nusa Tenggara Tim.",NUSA TENGGARA TIMUR,,Indonesia,,,,-82.089.143,1.245.710.541,https://maps.google.com/?cid=0x0:0x657f2d9e261cc672,
hardware store,Toserba,MR. DIY Cabang Alor,"Kalabahi Tengah, Kec. Tlk. Mutiara, Kabupaten Alor, Nusa Tenggara Tim.","Kabupaten Alor, Nusa Tenggara Tim.",NUSA TENGGARA TIMUR,,Indonesia,,,,-82.170.688,1.245.306.782,https://maps.google.com/?cid=0x0:0x8dc85a5abe3152ba,
hardware store,Pusat Perbelanjaan,Sinar Kencana Alor - Toko Bangunan,"Jl. Jend. Sudirman, Kalabahi Kota, Kec. Tlk. Mutiara, Kabupaten Alor, Nusa Tenggara Tim.","Kabupaten Alor, Nusa Tenggara Tim.",NUSA TENGGARA TIMUR,,Indonesia,82228000848,,,-82.165.322,1.245.274.066,https://maps.google.com/?cid=0x0:0xf8954eac934992e1,
hardware store,Toko Komputer,Lia Computer,"Jend. Sudirman Street No.100, Kalabahi Kota, Kec. Tlk. Mutiara, Kabupaten Alor, Nusa Tenggara Tim.","Kabupaten Alor, Nusa Tenggara Tim.",NUSA TENGGARA TIMUR,,Indonesia,81339425953,,,-82.139.883,1.245.183.415,https://maps.google.com/?cid=0x0:0x1fe99b387b3ab250,
hardware store,Toko Alat Tulis Kantor,FOTOCOPY BARANUSA 1,"Jl. Hasanudin No.12-19, Binongko, Kec. Tlk. Mutiara, Kabupaten Alor, Nusa Tenggara Tim.","Kabupaten Alor, Nusa Tenggara Tim.",NUSA TENGGARA TIMUR,,Indonesia,82146279127,,,-8.220.133,124.510.647,https://maps.google.com/?cid=0x0:0x9f766aa55ca3bf53,
hardware store,hardware store,Kec. Tlk. Mutiara,"Kabupaten Alor, Nusa Tenggara Tim.","Kabupaten Alor, Nusa Tenggara Tim.",NUSA TENGGARA TIMUR,,Indonesia,,,,-82.165.759,1.245.218.191,https://maps.google.com/?cid=0x0:0x36ef9ebbaaa54623,
hardware store,Toserba,MR. DIY Cabang Alor,"Kalabahi Tengah, Kec. Tlk. Mutiara, Kabupaten Alor, Nusa Tenggara Tim.","Kabupaten Alor, Nusa Tenggara Tim.",NUSA TENGGARA TIMUR,,Indonesia,,,,-82.170.688,1.245.306.782,https://maps.google.com/?cid=0x0:0x8dc85a5abe3152ba,
hardware store,Toko,Daya prima Bangunan,"QHRC+CCM, Jl. Soekarno Hatta, Welai Tim., Kec. Tlk. Mutiara, Kabupaten Alor, Nusa Tenggara Tim.","Kabupaten Alor, Nusa Tenggara Tim.",NUSA TENGGARA TIMUR,,Indonesia,,,,-82.089.143,1.245.710.541,https://maps.google.com/?cid=0x0:0x657f2d9e261cc672,
hardware store,Servis Komputer,TOKO HOMBOL COMPUTER KALABAHI,"Kampung Baru. Jln Ki Hajar Dewontoro Kelurahan Nusa Kenari Kecamatan Teluk Mutiara Kabupaten Alor Provinsi Nusa Tenggara Timur Kalabahi, Kabupaten Alor, Nusa Tenggara Tim. 85819",Kabupaten Alor,NUSA TENGGARA TIMUR,85819.0,Indonesia,82144219099,,,-82.136.535,124.520.826,https://maps.google.com/?cid=0x0:0xff23a28ae02558ef,
hardware store,Toko Alat Tulis Kantor,FOTOCOPY BARANUSA 1,"Jl. Hasanudin No.12-19, Binongko, Kec. Tlk. Mutiara, Kabupaten Alor, Nusa Tenggara Tim.","Kabupaten Alor, Nusa Tenggara Tim.",NUSA TENGGARA TIMUR,,Indonesia,82146279127,,,-8.220.133,124.510.647,https://maps.google.com/?cid=0x0:0x9f766aa55ca3bf53,
hardware store,hardware store,Kec. Alor Sel.,"Kabupaten Alor, Nusa Tenggara Tim.","Kabupaten Alor, Nusa Tenggara Tim.",NUSA TENGGARA TIMUR,,Indonesia,,,,-82.772.741,1.247.031.128,https://maps.google.com/?cid=0x0:0x98e9b8edc3d2f7d,
hardware store,Toko,Daya prima Bangunan,"QHRC+CCM, Jl. Soekarno Hatta, Welai Tim., Kec. Tlk. Mutiara, Kabupaten Alor, Nusa Tenggara Tim.","Kabupaten Alor, Nusa Tenggara Tim.",NUSA TENGGARA TIMUR,,Indonesia,,,,-82.089.143,1.245.710.541,https://maps.google.com/?cid=0x0:0x657f2d9e261cc672,
hardware store,Toserba,MR. DIY Cabang Alor,"Kalabahi Tengah, Kec. Tlk. Mutiara, Kabupaten Alor, Nusa Tenggara Tim.","Kabupaten Alor, Nusa Tenggara Tim.",NUSA TENGGARA TIMUR,,Indonesia,,,,-82.170.688,1.245.306.782,https://maps.google.com/?cid=0x0:0x8dc85a5abe3152ba,
toko bangunan,toko bangunan,Kec. Alor Bar. Laut,"Kabupaten Alor, Nusa Tenggara Tim.","Kabupaten Alor, Nusa Tenggara Tim.",NUSA TENGGARA TIMUR,,Indonesia,,,,-81.618.154,1.244.536.235,https://maps.google.com/?cid=0x0:0x8149820c885abe83,
toko bangunan,Toko Perlengkapan Rumah,Toko Bangunan Champion,"QGMX+63R, Mutiara, Kec. Tlk. Mutiara, Kabupaten Alor, Nusa Tenggara Tim.","Kabupaten Alor, Nusa Tenggara Tim.",NUSA TENGGARA TIMUR,,Indonesia,81338757523,,,-82.168.892,1.245.476.484,https://maps.google.com/?cid=0x0:0x43281458e96c59c8,
toko bangunan,Toko,Toko lancar bangunan,"QHQ6+CPH, Welai Tim., Kec. Tlk. Mutiara, Kabupaten Alor, Nusa Tenggara Tim.","Kabupaten Alor, Nusa Tenggara Tim.",NUSA TENGGARA TIMUR,,Indonesia,,,,-82.114.421,1.245.618.588,https://maps.google.com/?cid=0x0:0x423f09fbf0e1baf7,
toko bangunan,Pusat Perbelanjaan,Sinar Kencana Alor - Toko Bangunan,"Jl. Jend. Sudirman, Kalabahi Kota, Kec. Tlk. Mutiara, Kabupaten Alor, Nusa Tenggara Tim.","Kabupaten Alor, Nusa Tenggara Tim.",NUSA TENGGARA TIMUR,,Indonesia,82228000848,,,-82.165.322,1.245.274.066,https://maps.google.com/?cid=0x0:0xf8954eac934992e1,
toko bangunan,Toko,JAYA BANGUNAN,"Jl. Jend. Sudirman, Kalabahi Tim., Kec. Tlk. Mutiara, Kabupaten Alor, Nusa Tenggara Tim.","Kabupaten Alor, Nusa Tenggara Tim.",NUSA TENGGARA TIMUR,,Indonesia,81332358999,,,-82.175.091,1.245.342.652,https://maps.google.com/?cid=0x0:0x2d8b71dd71fb717e,
toko bangunan,Toko Perlengkapan Rumah,ORIENTAL,"QGMC+76G, Jl. Diponegoro, Wetabua, Kec. Tlk. Mutiara, Kabupaten Alor, Nusa Tenggara Tim.","Kabupaten Alor, Nusa Tenggara Tim.",NUSA TENGGARA TIMUR,,Indonesia,,,,-82.168.054,1.245.205.753,https://maps.google.com/?cid=0x0:0x4508afe0419b4600,
toko bangunan,Toko Bahan Bangunan,ISTANA BANGUNAN,"QGJ8+P2C, Jl. K. Satsui Tubun, Binongko, Kec. Tlk. Mutiara, Kabupaten Alor, Nusa Tenggara Tim.","Kabupaten Alor, Nusa Tenggara Tim.",NUSA TENGGARA TIMUR,,Indonesia,,,,-82.181.752,1.245.150.039,https://maps.google.com/?cid=0x0:0x3a2e53028ccb4724,
toko bangunan,toko bangunan,UD Bumi Indah,"QGJ9+FGR, Jl. Ahmad Yani, Kalabahi Kota, Kec. Tlk. Mutiara, Kabupaten Alor, Nusa Tenggara Tim.","Kabupaten Alor, Nusa Tenggara Tim.",NUSA TENGGARA TIMUR,,Indonesia,,,,-82.189.002,1.245.187.436,https://maps.google.com/?cid=0x0:0x8757517a5fd7cfda,
toko bangunan,Toko,Daya prima Bangunan,"QHRC+CCM, Jl. Soekarno Hatta, Welai Tim., Kec. Tlk. Mutiara, Kabupaten Alor, Nusa Tenggara Tim.","Kabupaten Alor, Nusa Tenggara Tim.",NUSA TENGGARA TIMUR,,Indonesia,,,,-82.089.143,1.245.710.541,https://maps.google.com/?cid=0x0:0x657f2d9e261cc672,
toko bangunan,Toko Bahan Bangunan,Toko Bangunan Alam Makmur,"Jl. H. Nawi Raya No.23, RT.7/RW.7, Gandaria Utara, Kec. Kby. Baru, Kota Jakarta Selatan, Daerah Khusus Ibukota Jakarta 12140","RT.7/RW.7, Gandaria Utara, Kec. Kby. Baru, Kota Jakarta Selatan",NUSA TENGGARA TIMUR,12140.0,Indonesia,217250363,,,-62.640.276,1.067.930.342,https://maps.google.com/?cid=0x0:0x3d1c3ae18a99bca0,
toko bangunan,Toko Bahan Bangunan,Toko Material Bintang Makmur,"Jl. Rawasari Barat No.277, RT.6/RW.1, Cemp. Putih Tim., Kec. Cemp. Putih, Kota Jakarta Pusat, Daerah Khusus Ibukota Jakarta 10510","RT.6/RW.1, Cemp. Putih Tim., Kec. Cemp. Putih, Kota Jakarta Pusat",NUSA TENGGARA TIMUR,10510.0,Indonesia,81256531273,,,-6.184.562,106.870.332,https://maps.google.com/?cid=0x0:0xbe4490f8f99738a4,
toko bangunan,Pemasok Bahan Bangunan,Toko Bangunan Semesta Alam,"Jl. H. Yusuf Pondok Lakah No.62, Paninggilan, Kec. Ciledug, Kota Tangerang, Banten 15153","Paninggilan, Kec. Ciledug, Kota Tangerang",NUSA TENGGARA TIMUR,15153.0,Indonesia,217321685,,,-62.488.392,1.067.117.558,https://maps.google.com/?cid=0x0:0xc09d1242f88eea96,
toko bangunan,Toko Bahan Bangunan,Toko Bangunan Alam Makmur ll,"Jl. H. Nawi Raya No.23, RT.7/RW.7, Gandaria Utara, Kec. Kby. Baru, Kota Jakarta Selatan, Daerah Khusus Ibukota Jakarta 12140","RT.7/RW.7, Gandaria Utara, Kec. Kby. Baru, Kota Jakarta Selatan",NUSA TENGGARA TIMUR,12140.0,Indonesia,217250363,,,-62.639.139,1.067.930.613,https://maps.google.com/?cid=0x0:0x7181eb323f905c7e,
toko bangunan,toko bangunan,Kec. Alor Barat Daya,"Kabupaten Alor, Nusa Tenggara Tim.","Kabupaten Alor, Nusa Tenggara Tim.",NUSA TENGGARA TIMUR,,Indonesia,,,,-84.363.579,1.245.459.622,https://maps.google.com/?cid=0x0:0xb408571cc95fa77f,
toko bangunan,Toko,Daya prima Bangunan,"QHRC+CCM, Jl. Soekarno Hatta, Welai Tim., Kec. Tlk. Mutiara, Kabupaten Alor, Nusa Tenggara Tim.","Kabupaten Alor, Nusa Tenggara Tim.",NUSA TENGGARA TIMUR,,Indonesia,,,,-82.089.143,1.245.710.541,https://maps.google.com/?cid=0x0:0x657f2d9e261cc672,
toko bangunan,Toko Perlengkapan Rumah,Toko Bangunan Champion,"QGMX+63R, Mutiara, Kec. Tlk. Mutiara, Kabupaten Alor, Nusa Tenggara Tim.","Kabupaten Alor, Nusa Tenggara Tim.",NUSA TENGGARA TIMUR,,Indonesia,81338757523,,,-82.168.892,1.245.476.484,https://maps.google.com/?cid=0x0:0x43281458e96c59c8,
toko bangunan,Toko Bahan Bangunan,ISTANA BANGUNAN,"QGJ8+P2C, Jl. K. Satsui Tubun, Binongko, Kec. Tlk. Mutiara, Kabupaten Alor, Nusa Tenggara Tim.","Kabupaten Alor, Nusa Tenggara Tim.",NUSA TENGGARA TIMUR,,Indonesia,,,,-82.181.752,1.245.150.039,https://maps.google.com/?cid=0x0:0x3a2e53028ccb4724,
toko bangunan,Toko,JAYA BANGUNAN,"Jl. Jend. Sudirman, Kalabahi Tim., Kec. Tlk. Mutiara, Kabupaten Alor, Nusa Tenggara Tim.","Kabupaten Alor, Nusa Tenggara Tim.",NUSA TENGGARA TIMUR,,Indonesia,81332358999,,,-82.175.091,1.245.342.652,https://maps.google.com/?cid=0x0:0x2d8b71dd71fb717e,
toko bangunan,Pusat Perbelanjaan,Sinar Kencana Alor - Toko Bangunan,"Jl. Jend. Sudirman, Kalabahi Kota, Kec. Tlk. Mutiara, Kabupaten Alor, Nusa Tenggara Tim.","Kabupaten Alor, Nusa Tenggara Tim.",NUSA TENGGARA TIMUR,,Indonesia,82228000848,,,-82.165.322,1.245.274.066,https://maps.google.com/?cid=0x0:0xf8954eac934992e1,
toko bangunan,Toko Perlengkapan Rumah,ORIENTAL,"QGMC+76G, Jl. Diponegoro, Wetabua, Kec. Tlk. Mutiara, Kabupaten Alor, Nusa Tenggara Tim.","Kabupaten Alor, Nusa Tenggara Tim.",NUSA TENGGARA TIMUR,,Indonesia,,,,-82.168.054,1.245.205.753,https://maps.google.com/?cid=0x0:0x4508afe0419b4600,
toko bangunan,toko bangunan,UD Bumi Indah,"QGJ9+FGR, Jl. Ahmad Yani, Kalabahi Kota, Kec. Tlk. Mutiara, Kabupaten Alor, Nusa Tenggara Tim.","Kabupaten Alor, Nusa Tenggara Tim.",NUSA TENGGARA TIMUR,,Indonesia,,,,-82.189.002,1.245.187.436,https://maps.google.com/?cid=0x0:0x8757517a5fd7cfda,
toko bangunan,Toko,Toko Fa. Ombay,"Jl. Ahmad Yani No.2, Kalabahi Kota, Kec. Tlk. Mutiara, Kabupaten Alor, Nusa Tenggara Tim.","Kabupaten Alor, Nusa Tenggara Tim.",NUSA TENGGARA TIMUR,,Indonesia,811382198,,,-8.218.723,1.245.190.302,https://maps.google.com/?cid=0x0:0x272381f338b665cf,
toko bangunan,Toko Bahan Bangunan,Sinar Bangunan Building Mart,"Jl. Yos Sudarso No.177, Namosain, Kec. Alak, Kota Kupang, Nusa Tenggara Tim.","Kota Kupang, Nusa Tenggara Tim.",NUSA TENGGARA TIMUR,,Indonesia,81238941314,,,-101.916.248,1.235.407.476,https://maps.google.com/?cid=0x0:0x411fca6242be55fc,
toko bangunan,Toko bahan makanan,VMART,"Jl. Jend. Sudirman, Kalabahi Tim., Kec. Tlk. Mutiara, Kabupaten Alor, Nusa Tenggara Tim.","Kabupaten Alor, Nusa Tenggara Tim.",NUSA TENGGARA TIMUR,,Indonesia,,,,-82.183.922,1.245.362.309,https://maps.google.com/?cid=0x0:0xb0363f409af806c6,
toko bangunan,Toko Bahan Bangunan,Toko Roda Bangunan,"VVVX+333, Atambua, Kec. Kota Atambua, Kabupaten Belu, Nusa Tenggara Tim.","Kabupaten Belu, Nusa Tenggara Tim.",NUSA TENGGARA TIMUR,,Indonesia,,,,-91.073.625,1.248.976.836,https://maps.google.com/?cid=0x0:0xfdf308e29f21112,
toko bangunan,Toko Bahan Bangunan,Toko Bravo Bangunan,"Jl. Terusan Timor Raya, Pasir Panjang, Kec. Kota Lama, Kota Kupang, Nusa Tenggara Tim. 85000","Pasir Panjang, Kec. Kota Lama, Kota Kupang",NUSA TENGGARA TIMUR,85000.0,Indonesia,81246295800,,,-101.509.378,1.236.033.391,https://maps.google.com/?cid=0x0:0xdf4da131f9948aff,
toko bangunan,Toko,Toko Duta Bangunan,"VV7W+829, Fatukbot, Kec. Atambua Sel., Kabupaten Belu, Nusa Tenggara Tim.","Kabupaten Belu, Nusa Tenggara Tim.",NUSA TENGGARA TIMUR,,Indonesia,,,,-91.367.051,1.248.951.032,https://maps.google.com/?cid=0x0:0xef0cdf9c9845cd6f,
toko bangunan,Toko Bahan Bangunan,Toko Material Isto,"MVVF+C9H, Kabupaten BeluRaimanuk, Nusa Tenggara Tim., Mandeu, Kec. Rai Manuk, Kabupaten Belu, Nusa Tenggara Tim.","Kabupaten Belu, Nusa Tenggara Tim.",NUSA TENGGARA TIMUR,,Indonesia,,,,-93.064.484,1.248.734.845,https://maps.google.com/?cid=0x0:0x1e94426a8dd10baf,
toko bangunan,Toko Bahan Bangunan,toko pelangi bangunan,"FVQP+VXF, Goron Talo, Kec. Komodo, Kabupaten Manggarai Barat, Nusa Tenggara Tim.","Kabupaten Manggarai Barat, Nusa Tenggara Tim.",NUSA TENGGARA TIMUR,,Indonesia,82145627171,,,-85.103.078,1.198.874.183,https://maps.google.com/?cid=0x0:0x6f62dc0810d90ac8,
toko bangunan,Bengkel tambal ban,Bengkel Tambal ban GIVEN,"QHP7+HQQ, Jl. Luter Maarang, Welai Tim., Kec. Tlk. Mutiara, Kabupaten Alor, Nusa Tenggara Tim.","Kabupaten Alor, Nusa Tenggara Tim.",NUSA TENGGARA TIMUR,,Indonesia,,,,-82.135.395,1.245.644.937,https://maps.google.com/?cid=0x0:0x3e36e706844ee89e,
toko bangunan,toko bangunan,Kec. Alor Tengah Utara,"Kabupaten Alor, Nusa Tenggara Tim.","Kabupaten Alor, Nusa Tenggara Tim.",NUSA TENGGARA TIMUR,,Indonesia,,,,-82.013.597,124.594.223,https://maps.google.com/?cid=0x0:0xd061b93c2c5cdea5,
toko bangunan,Toko Perlengkapan Rumah,Toko Bangunan Champion,"QGMX+63R, Mutiara, Kec. Tlk. Mutiara, Kabupaten Alor, Nusa Tenggara Tim.","Kabupaten Alor, Nusa Tenggara Tim.",NUSA TENGGARA TIMUR,,Indonesia,81338757523,,,-82.168.892,1.245.476.484,https://maps.google.com/?cid=0x0:0x43281458e96c59c8,
toko bangunan,Toko,Toko lancar bangunan,"QHQ6+CPH, Welai Tim., Kec. Tlk. Mutiara, Kabupaten Alor, Nusa Tenggara Tim.","Kabupaten Alor, Nusa Tenggara Tim.",NUSA TENGGARA TIMUR,,Indonesia,,,,-82.114.421,1.245.618.588,https://maps.google.com/?cid=0x0:0x423f09fbf0e1baf7,
toko bangunan,Toko,JAYA BANGUNAN,"Jl. Jend. Sudirman, Kalabahi Tim., Kec. Tlk. Mutiara, Kabupaten Alor, Nusa Tenggara Tim.","Kabupaten Alor, Nusa Tenggara Tim.",NUSA TENGGARA TIMUR,,Indonesia,81332358999,,,-82.175.091,1.245.342.652,https://maps.google.com/?cid=0x0:0x2d8b71dd71fb717e,
toko bangunan,Pusat Perbelanjaan,Sinar Kencana Alor - Toko Bangunan,"Jl. Jend. Sudirman, Kalabahi Kota, Kec. Tlk. Mutiara, Kabupaten Alor, Nusa Tenggara Tim.","Kabupaten Alor, Nusa Tenggara Tim.",NUSA TENGGARA TIMUR,,Indonesia,82228000848,,,-82.165.322,1.245.274.066,https://maps.google.com/?cid=0x0:0xf8954eac934992e1,
toko bangunan,Toko Perlengkapan Rumah,ORIENTAL,"QGMC+76G, Jl. Diponegoro, Wetabua, Kec. Tlk. Mutiara, Kabupaten Alor, Nusa Tenggara Tim.","Kabupaten Alor, Nusa Tenggara Tim.",NUSA TENGGARA TIMUR,,Indonesia,,,,-82.168.054,1.245.205.753,https://maps.google.com/?cid=0x0:0x4508afe0419b4600,
toko bangunan,Toko Bahan Bangunan,ISTANA BANGUNAN,"QGJ8+P2C, Jl. K. Satsui Tubun, Binongko, Kec. Tlk. Mutiara, Kabupaten Alor, Nusa Tenggara Tim.","Kabupaten Alor, Nusa Tenggara Tim.",NUSA TENGGARA TIMUR,,Indonesia,,,,-82.181.752,1.245.150.039,https://maps.google.com/?cid=0x0:0x3a2e53028ccb4724,
toko bangunan,Pusat Perbelanjaan,Mebung,"RH2V+657, Alim Mebung, Kec. Alor Tengah Utara, Kabupaten Alor, Nusa Tenggara Tim.","Kabupaten Alor, Nusa Tenggara Tim.",NUSA TENGGARA TIMUR,,Indonesia,,,,-81.994.622,1.245.929.157,https://maps.google.com/?cid=0x0:0xeae9fc0628a7cadd,
toko bangunan,toko bangunan,UD Bumi Indah,"QGJ9+FGR, Jl. Ahmad Yani, Kalabahi Kota, Kec. Tlk. Mutiara, Kabupaten Alor, Nusa Tenggara Tim.","Kabupaten Alor, Nusa Tenggara Tim.",NUSA TENGGARA TIMUR,,Indonesia,,,,-82.189.002,1.245.187.436,https://maps.google.com/?cid=0x0:0x8757517a5fd7cfda,
toko bangunan,Bengkel tambal ban,Bengkel Tambal ban GIVEN,"QHP7+HQQ, Jl. Luter Maarang, Welai Tim., Kec. Tlk. Mutiara, Kabupaten Alor, Nusa Tenggara Tim.","Kabupaten Alor, Nusa Tenggara Tim.",NUSA TENGGARA TIMUR,,Indonesia,,,,-82.135.395,1.245.644.937,https://maps.google.com/?cid=0x0:0x3e36e706844ee89e,
toko bangunan,Rumah Kayu,Alor mabu,"Jl.mangga besar alor mabu, Kabupaten Alor, Nusa Tenggara Tim.","Kabupaten Alor, Nusa Tenggara Tim.",NUSA TENGGARA TIMUR,,Indonesia,81295900356,,,-81.804.251,1.246.344.763,https://maps.google.com/?cid=0x0:0x81af0b91da935e57,
toko bangunan,Penginapan Dalam Ruangan,Sibone,"RJCW+QXG, Unnamed Road, Fungafeng, Kec. Alor Tengah Utara, Kabupaten Alor, Nusa Tenggara Tim.","Kabupaten Alor, Nusa Tenggara Tim.",NUSA TENGGARA TIMUR,,Indonesia,,,,-81.780.718,1.246.474.601,https://maps.google.com/?cid=0x0:0x11de56462bbca22d,
toko bangunan,Toko Bahan Bangunan,CENTRAL BANGUNAN,"GFMJ+2HV, Kefamenanu Sel., Kec. Kota Kefamenanu, Kabupaten Timor Tengah Utara, Nusa Tenggara Tim.","Kabupaten Timor Tengah Utara, Nusa Tenggara Tim.",NUSA TENGGARA TIMUR,,Indonesia,,,,-94.673.843,1.244.814.138,https://maps.google.com/?cid=0x0:0x3f6b717dfadc9e25,
toko bangunan,Toko bahan makanan,VMART,"Jl. Jend. Sudirman, Kalabahi Tim., Kec. Tlk. Mutiara, Kabupaten Alor, Nusa Tenggara Tim.","Kabupaten Alor, Nusa Tenggara Tim.",NUSA TENGGARA TIMUR,,Indonesia,,,,-82.183.922,1.245.362.309,https://maps.google.com/?cid=0x0:0xb0363f409af806c6,
toko bangunan,toko bangunan,Sentral Bangunan 2,"QHPQ+XG7, Petleng, Kec. Alor Tengah Utara, Kabupaten Alor, Nusa Tenggara Tim.","Kabupaten Alor, Nusa Tenggara Tim.",NUSA TENGGARA TIMUR,,Indonesia,,,,-82.125.833,1.245.887.934,https://maps.google.com/?cid=0x0:0xa72dea1462f19b54,
toko bangunan,toko bangunan,Kec. Alor Tim.,"Kabupaten Alor, Nusa Tenggara Tim.","Kabupaten Alor, Nusa Tenggara Tim.",NUSA TENGGARA TIMUR,,Indonesia,,,,-82.589.872,1.249.317.271,https://maps.google.com/?cid=0x0:0x3a01566565bdfc49,
toko bangunan,Toko Perlengkapan Rumah,Toko Bangunan Champion,"QGMX+63R, Mutiara, Kec. Tlk. Mutiara, Kabupaten Alor, Nusa Tenggara Tim.","Kabupaten Alor, Nusa Tenggara Tim.",NUSA TENGGARA TIMUR,,Indonesia,81338757523,,,-82.168.892,1.245.476.484,https://maps.google.com/?cid=0x0:0x43281458e96c59c8,
toko bangunan,Toko,Toko lancar bangunan,"QHQ6+CPH, Welai Tim., Kec. Tlk. Mutiara, Kabupaten Alor, Nusa Tenggara Tim.","Kabupaten Alor, Nusa Tenggara Tim.",NUSA TENGGARA TIMUR,,Indonesia,,,,-82.114.421,1.245.618.588,https://maps.google.com/?cid=0x0:0x423f09fbf0e1baf7,
toko bangunan,Toko,JAYA BANGUNAN,"Jl. Jend. Sudirman, Kalabahi Tim., Kec. Tlk. Mutiara, Kabupaten Alor, Nusa Tenggara Tim.","Kabupaten Alor, Nusa Tenggara Tim.",NUSA TENGGARA TIMUR,,Indonesia,81332358999,,,-82.175.091,1.245.342.652,https://maps.google.com/?cid=0x0:0x2d8b71dd71fb717e,
toko bangunan,toko bangunan,Kec. Alor Tim. Laut,"Kabupaten Alor, Nusa Tenggara Tim.","Kabupaten Alor, Nusa Tenggara Tim.",NUSA TENGGARA TIMUR,,Indonesia,,,,-81.799.236,1.247.610.394,https://maps.google.com/?cid=0x0:0x3df0ef994605c355,
toko bangunan,Toko Perlengkapan Rumah,Toko Bangunan Champion,"QGMX+63R, Mutiara, Kec. Tlk. Mutiara, Kabupaten Alor, Nusa Tenggara Tim.","Kabupaten Alor, Nusa Tenggara Tim.",NUSA TENGGARA TIMUR,,Indonesia,81338757523,,,-82.168.892,1.245.476.484,https://maps.google.com/?cid=0x0:0x43281458e96c59c8,
toko bangunan,Toko,Toko lancar bangunan,"QHQ6+CPH, Welai Tim., Kec. Tlk. Mutiara, Kabupaten Alor, Nusa Tenggara Tim.","Kabupaten Alor, Nusa Tenggara Tim.",NUSA TENGGARA TIMUR,,Indonesia,,,,-82.114.421,1.245.618.588,https://maps.google.com/?cid=0x0:0x423f09fbf0e1baf7,
toko bangunan,toko bangunan,Nusa Tenggara Tim.,,Nusa Tenggara Tim.,NUSA TENGGARA TIMUR,,Indonesia,,,,-86.573.819,1.210.793.705,https://maps.google.com/?cid=0x0:0x1030bfbcaf71ae0,
toko bangunan,Toko Perlengkapan Rumah,Toko Bangunan Champion,"QGMX+63R, Mutiara, Kec. Tlk. Mutiara, Kabupaten Alor, Nusa Tenggara Tim.","Kabupaten Alor, Nusa Tenggara Tim.",NUSA TENGGARA TIMUR,,Indonesia,81338757523,,,-82.168.892,1.245.476.484,https://maps.google.com/?cid=0x0:0x43281458e96c59c8,
toko bangunan,Toko,Toko lancar bangunan,"QHQ6+CPH, Welai Tim., Kec. Tlk. Mutiara, Kabupaten Alor, Nusa Tenggara Tim.","Kabupaten Alor, Nusa Tenggara Tim.",NUSA TENGGARA TIMUR,,Indonesia,,,,-82.114.421,1.245.618.588,https://maps.google.com/?cid=0x0:0x423f09fbf0e1baf7,
toko bangunan,Toko Bahan Bangunan,Toko Material Isto,"MVVF+C9H, Kabupaten BeluRaimanuk, Nusa Tenggara Tim., Mandeu, Kec. Rai Manuk, Kabupaten Belu, Nusa Tenggara Tim.","Kabupaten Belu, Nusa Tenggara Tim.",NUSA TENGGARA TIMUR,,Indonesia,,,,-93.064.484,1.248.734.845,https://maps.google.com/?cid=0x0:0x1e94426a8dd10baf,
toko bangunan,Toko Bahan Bangunan,Sinar Bangunan Building Center,"Jl. Bund. PU No.12, Tuak Daun Merah, Kec. Oebobo, Kota Kupang, Nusa Tenggara Tim. 85228","Tuak Daun Merah, Kec. Oebobo, Kota Kupang",NUSA TENGGARA TIMUR,85228.0,Indonesia,81236648694,,,-101.675.355,1.236.289.538,https://maps.google.com/?cid=0x0:0x8b34913a09e207d2,
toko bangunan,toko bangunan,TOKO SOU,"Jl. Sir lalang No.1, Kabir, Kec. Pantar, Kabupaten Alor, Nusa Tenggara Tim.","Kabupaten Alor, Nusa Tenggara Tim.",NUSA TENGGARA TIMUR,,Indonesia,8113833838,,,-82.567.004,1.242.146.625,https://maps.google.com/?cid=0x0:0x450f62b4f5e7b062,
toko bangunan,toko bangunan,Kec. Kabola,"Kabupaten Alor, Nusa Tenggara Tim.","Kabupaten Alor, Nusa Tenggara Tim.",NUSA TENGGARA TIMUR,,Indonesia,,,,-81.406.175,1.245.896.567,https://maps.google.com/?cid=0x0:0x992478f27187b5b7,
toko bangunan,Toko,JAYA BANGUNAN,"Jl. Jend. Sudirman, Kalabahi Tim., Kec. Tlk. Mutiara, Kabupaten Alor, Nusa Tenggara Tim.","Kabupaten Alor, Nusa Tenggara Tim.",NUSA TENGGARA TIMUR,,Indonesia,81332358999,,,-82.175.091,1.245.342.652,https://maps.google.com/?cid=0x0:0x2d8b71dd71fb717e,
toko bangunan,Toko,Daya prima Bangunan,"QHRC+CCM, Jl. Soekarno Hatta, Welai Tim., Kec. Tlk. Mutiara, Kabupaten Alor, Nusa Tenggara Tim.","Kabupaten Alor, Nusa Tenggara Tim.",NUSA TENGGARA TIMUR,,Indonesia,,,,-82.089.143,1.245.710.541,https://maps.google.com/?cid=0x0:0x657f2d9e261cc672,
toko bangunan,Pusat Perbelanjaan,Sinar Kencana Alor - Toko Bangunan,"Jl. Jend. Sudirman, Kalabahi Kota, Kec. Tlk. Mutiara, Kabupaten Alor, Nusa Tenggara Tim.","Kabupaten Alor, Nusa Tenggara Tim.",NUSA TENGGARA TIMUR,,Indonesia,82228000848,,,-82.165.322,1.245.274.066,https://maps.google.com/?cid=0x0:0xf8954eac934992e1,
toko bangunan,Toko Bahan Bangunan,ISTANA BANGUNAN,"QGJ8+P2C, Jl. K. Satsui Tubun, Binongko, Kec. Tlk. Mutiara, Kabupaten Alor, Nusa Tenggara Tim.","Kabupaten Alor, Nusa Tenggara Tim.",NUSA TENGGARA TIMUR,,Indonesia,,,,-82.181.752,1.245.150.039,https://maps.google.com/?cid=0x0:0x3a2e53028ccb4724,
toko bangunan,Toko Perlengkapan Rumah,ORIENTAL,"QGMC+76G, Jl. Diponegoro, Wetabua, Kec. Tlk. Mutiara, Kabupaten Alor, Nusa Tenggara Tim.","Kabupaten Alor, Nusa Tenggara Tim.",NUSA TENGGARA TIMUR,,Indonesia,,,,-82.168.054,1.245.205.753,https://maps.google.com/?cid=0x0:0x4508afe0419b4600,
toko bangunan,toko bangunan,UD Bumi Indah,"QGJ9+FGR, Jl. Ahmad Yani, Kalabahi Kota, Kec. Tlk. Mutiara, Kabupaten Alor, Nusa Tenggara Tim.","Kabupaten Alor, Nusa Tenggara Tim.",NUSA TENGGARA TIMUR,,Indonesia,,,,-82.189.002,1.245.187.436,https://maps.google.com/?cid=0x0:0x8757517a5fd7cfda,
toko bangunan,Hotel,Celyn KafeHs,"Kabola, Kec. Kabola, Kabupaten Alor, Nusa Tenggara Tim.","Kabupaten Alor, Nusa Tenggara Tim.",NUSA TENGGARA TIMUR,,Indonesia,81290796080,,,-81.417.579,1.245.929.558,https://maps.google.com/?cid=0x0:0x10b7532bf0c9f123,
toko bangunan,Toko bahan makanan,VMART,"Jl. Jend. Sudirman, Kalabahi Tim., Kec. Tlk. Mutiara, Kabupaten Alor, Nusa Tenggara Tim.","Kabupaten Alor, Nusa Tenggara Tim.",NUSA TENGGARA TIMUR,,Indonesia,,,,-82.183.922,1.245.362.309,https://maps.google.com/?cid=0x0:0xb0363f409af806c6,
toko bangunan,Kantor Perusahaan,BUJANTA,"RHCV+X7M, Unnamed Road, Kabola, Kec. Kabola, Kabupaten Alor, Nusa Tenggara Tim.","Kabupaten Alor, Nusa Tenggara Tim.",NUSA TENGGARA TIMUR,,Indonesia,,,,-81.775.314,1.245.931.765,https://maps.google.com/?cid=0x0:0x8b02b88f56a63167,
toko bangunan,Toko,Toko Fa. Ombay,"Jl. Ahmad Yani No.2, Kalabahi Kota, Kec. Tlk. Mutiara, Kabupaten Alor, Nusa Tenggara Tim.","Kabupaten Alor, Nusa Tenggara Tim.",NUSA TENGGARA TIMUR,,Indonesia,811382198,,,-8.218.723,1.245.190.302,https://maps.google.com/?cid=0x0:0x272381f338b665cf,
toko bangunan,Tujuan Wisata,Pantai Poliboo,"RHQV+446, Kabola, Kec. Kabola, Kabupaten Alor, Nusa Tenggara Tim.","Kabupaten Alor, Nusa Tenggara Tim.",NUSA TENGGARA TIMUR,,Indonesia,,,,-81.622.122,1.245.927.675,https://maps.google.com/?cid=0x0:0x2e7448e13b5eb7e6,
toko bangunan,Bengkel tambal ban,Bengkel Tambal ban GIVEN,"QHP7+HQQ, Jl. Luter Maarang, Welai Tim., Kec. Tlk. Mutiara, Kabupaten Alor, Nusa Tenggara Tim.","Kabupaten Alor, Nusa Tenggara Tim.",NUSA TENGGARA TIMUR,,Indonesia,,,,-82.135.395,1.245.644.937,https://maps.google.com/?cid=0x0:0x3e36e706844ee89e,
toko bangunan,toko bangunan,Sentral Bangunan 2,"QHPQ+XG7, Petleng, Kec. Alor Tengah Utara, Kabupaten Alor, Nusa Tenggara Tim.","Kabupaten Alor, Nusa Tenggara Tim.",NUSA TENGGARA TIMUR,,Indonesia,,,,-82.125.833,1.245.887.934,https://maps.google.com/?cid=0x0:0xa72dea1462f19b54,
toko bangunan,Pusat Perbelanjaan,IKENNA SHOP,"RWW9+56C, Gading Nias Apartemen tower emerald lobby T, Jl. Pegangsaan Dua, RT.13/RW.3, Pegangsaan Dua, Kec. Klp. Gading, Jkt Utara, Daerah Khusus Ibukota Jakarta 14250","Gading Nias Apartemen tower emerald lobby T, Jl. Pegangsaan Dua, RT.13/RW.3, Pegangsaan Dua, Kec. Klp. Gading, Jkt Utara",NUSA TENGGARA TIMUR,14250.0,Indonesia,"8,95333E+11",,,-61.545.572,1.069.180.112,https://maps.google.com/?cid=0x0:0xa9967c9000a8535e,
toko bangunan,toko bangunan,Nusa Tenggara Tim.,,Nusa Tenggara Tim.,NUSA TENGGARA TIMUR,,Indonesia,,,,-86.573.819,1.210.793.705,https://maps.google.com/?cid=0x0:0x1030bfbcaf71ae0,
toko bangunan,Toko Perlengkapan Rumah,Toko Bangunan Champion,"QGMX+63R, Mutiara, Kec. Tlk. Mutiara, Kabupaten Alor, Nusa Tenggara Tim.","Kabupaten Alor, Nusa Tenggara Tim.",NUSA TENGGARA TIMUR,,Indonesia,81338757523,,,-82.168.892,1.245.476.484,https://maps.google.com/?cid=0x0:0x43281458e96c59c8,
toko bangunan,Toko,Toko lancar bangunan,"QHQ6+CPH, Welai Tim., Kec. Tlk. Mutiara, Kabupaten Alor, Nusa Tenggara Tim.","Kabupaten Alor, Nusa Tenggara Tim.",NUSA TENGGARA TIMUR,,Indonesia,,,,-82.114.421,1.245.618.588,https://maps.google.com/?cid=0x0:0x423f09fbf0e1baf7,
toko bangunan,Toko Bahan Bangunan,Sinar Bangunan Building Center,"Jl. Bund. PU No.12, Tuak Daun Merah, Kec. Oebobo, Kota Kupang, Nusa Tenggara Tim. 85228","Tuak Daun Merah, Kec. Oebobo, Kota Kupang",NUSA TENGGARA TIMUR,85228.0,Indonesia,81236648694,,,-101.675.355,1.236.289.538,https://maps.google.com/?cid=0x0:0x8b34913a09e207d2,
toko bangunan,Toko Bahan Bangunan,Toko Bravo Bangunan,"Jl. Terusan Timor Raya, Pasir Panjang, Kec. Kota Lama, Kota Kupang, Nusa Tenggara Tim. 85000","Pasir Panjang, Kec. Kota Lama, Kota Kupang",NUSA TENGGARA TIMUR,85000.0,Indonesia,81246295800,,,-101.509.378,1.236.033.391,https://maps.google.com/?cid=0x0:0xdf4da131f9948aff,
toko bangunan,Toko Bahan Bangunan,Toko Material Isto,"MVVF+C9H, Kabupaten BeluRaimanuk, Nusa Tenggara Tim., Mandeu, Kec. Rai Manuk, Kabupaten Belu, Nusa Tenggara Tim.","Kabupaten Belu, Nusa Tenggara Tim.",NUSA TENGGARA TIMUR,,Indonesia,,,,-93.064.484,1.248.734.845,https://maps.google.com/?cid=0x0:0x1e94426a8dd10baf,
toko bangunan,Pembangunan Perumahan,Buiko,"VH2Q+WRJ, Kabola, Kec. Kabola, Kabupaten Alor, Nusa Tenggara Tim.","Kabupaten Alor, Nusa Tenggara Tim.",NUSA TENGGARA TIMUR,,Indonesia,,,,-8.147.664,1.245.895.311,https://maps.google.com/?cid=0x0:0xe1fe8c393f450c44,
toko bangunan,toko bangunan,Toko Bangunan Berlian Indah,"QGMC+8CP, Jl. Dewi Sartika, Wetabua, Kec. Tlk. Mutiara, Kabupaten Alor, Nusa Tenggara Tim.","Kabupaten Alor, Nusa Tenggara Tim.",NUSA TENGGARA TIMUR,,Indonesia,,,,-82.166.676,1.245.210.928,https://maps.google.com/?cid=0x0:0x90df40bb42662082,
toko bangunan,toko bangunan,TOKO SOU,"Jl. Sir lalang No.1, Kabir, Kec. Pantar, Kabupaten Alor, Nusa Tenggara Tim.","Kabupaten Alor, Nusa Tenggara Tim.",NUSA TENGGARA TIMUR,,Indonesia,8113833838,,,-82.567.004,1.242.146.625,https://maps.google.com/?cid=0x0:0x450f62b4f5e7b062,
toko bangunan,toko bangunan,Kec. Kabola,"Kabupaten Alor, Nusa Tenggara Tim.","Kabupaten Alor, Nusa Tenggara Tim.",NUSA TENGGARA TIMUR,,Indonesia,,,,-81.406.175,1.245.896.567,https://maps.google.com/?cid=0x0:0x992478f27187b5b7,
toko bangunan,Toko,Daya prima Bangunan,"QHRC+CCM, Jl. Soekarno Hatta, Welai Tim., Kec. Tlk. Mutiara, Kabupaten Alor, Nusa Tenggara Tim.","Kabupaten Alor, Nusa Tenggara Tim.",NUSA TENGGARA TIMUR,,Indonesia,,,,-82.089.143,1.245.710.541,https://maps.google.com/?cid=0x0:0x657f2d9e261cc672,
toko bangunan,Pusat Perbelanjaan,Sinar Kencana Alor - Toko Bangunan,"Jl. Jend. Sudirman, Kalabahi Kota, Kec. Tlk. Mutiara, Kabupaten Alor, Nusa Tenggara Tim.","Kabupaten Alor, Nusa Tenggara Tim.",NUSA TENGGARA TIMUR,,Indonesia,82228000848,,,-82.165.322,1.245.274.066,https://maps.google.com/?cid=0x0:0xf8954eac934992e1,
toko bangunan,Toko Perlengkapan Rumah,ORIENTAL,"QGMC+76G, Jl. Diponegoro, Wetabua, Kec. Tlk. Mutiara, Kabupaten Alor, Nusa Tenggara Tim.","Kabupaten Alor, Nusa Tenggara Tim.",NUSA TENGGARA TIMUR,,Indonesia,,,,-82.168.054,1.245.205.753,https://maps.google.com/?cid=0x0:0x4508afe0419b4600,
toko bangunan,Toko,JAYA BANGUNAN,"Jl. Jend. Sudirman, Kalabahi Tim., Kec. Tlk. Mutiara, Kabupaten Alor, Nusa Tenggara Tim.","Kabupaten Alor, Nusa Tenggara Tim.",NUSA TENGGARA TIMUR,,Indonesia,81332358999,,,-82.175.091,1.245.342.652,https://maps.google.com/?cid=0x0:0x2d8b71dd71fb717e,
toko bangunan,Toko Bahan Bangunan,ISTANA BANGUNAN,"QGJ8+P2C, Jl. K. Satsui Tubun, Binongko, Kec. Tlk. Mutiara, Kabupaten Alor, Nusa Tenggara Tim.","Kabupaten Alor, Nusa Tenggara Tim.",NUSA TENGGARA TIMUR,,Indonesia,,,,-82.181.752,1.245.150.039,https://maps.google.com/?cid=0x0:0x3a2e53028ccb4724,
toko bangunan,toko bangunan,UD Bumi Indah,"QGJ9+FGR, Jl. Ahmad Yani, Kalabahi Kota, Kec. Tlk. Mutiara, Kabupaten Alor, Nusa Tenggara Tim.","Kabupaten Alor, Nusa Tenggara Tim.",NUSA TENGGARA TIMUR,,Indonesia,,,,-82.189.002,1.245.187.436,https://maps.google.com/?cid=0x0:0x8757517a5fd7cfda,
toko bangunan,Hotel,Celyn KafeHs,"Kabola, Kec. Kabola, Kabupaten Alor, Nusa Tenggara Tim.","Kabupaten Alor, Nusa Tenggara Tim.",NUSA TENGGARA TIMUR,,Indonesia,81290796080,,,-81.417.579,1.245.929.558,https://maps.google.com/?cid=0x0:0x10b7532bf0c9f123,
toko bangunan,Pembangunan Perumahan,Wolatang,"RH3R+233, Jl. Soekarno Hatta, Kabola, Kec. Kabola, Kabupaten Alor, Nusa Tenggara Tim.","Kabupaten Alor, Nusa Tenggara Tim.",NUSA TENGGARA TIMUR,,Indonesia,,,,-81.974.858,1.245.901.721,https://maps.google.com/?cid=0x0:0x5ef89d880aab6e79,
toko bangunan,Kantor Perusahaan,BUJANTA,"RHCV+X7M, Unnamed Road, Kabola, Kec. Kabola, Kabupaten Alor, Nusa Tenggara Tim.","Kabupaten Alor, Nusa Tenggara Tim.",NUSA TENGGARA TIMUR,,Indonesia,,,,-81.775.314,1.245.931.765,https://maps.google.com/?cid=0x0:0x8b02b88f56a63167,
toko bangunan,Toko,Toko Fa. Ombay,"Jl. Ahmad Yani No.2, Kalabahi Kota, Kec. Tlk. Mutiara, Kabupaten Alor, Nusa Tenggara Tim.","Kabupaten Alor, Nusa Tenggara Tim.",NUSA TENGGARA TIMUR,,Indonesia,811382198,,,-8.218.723,1.245.190.302,https://maps.google.com/?cid=0x0:0x272381f338b665cf,
toko bangunan,Bengkel tambal ban,Bengkel Tambal ban GIVEN,"QHP7+HQQ, Jl. Luter Maarang, Welai Tim., Kec. Tlk. Mutiara, Kabupaten Alor, Nusa Tenggara Tim.","Kabupaten Alor, Nusa Tenggara Tim.",NUSA TENGGARA TIMUR,,Indonesia,,,,-82.135.395,1.245.644.937,https://maps.google.com/?cid=0x0:0x3e36e706844ee89e,
toko bangunan,Toko bahan makanan,VMART,"Jl. Jend. Sudirman, Kalabahi Tim., Kec. Tlk. Mutiara, Kabupaten Alor, Nusa Tenggara Tim.","Kabupaten Alor, Nusa Tenggara Tim.",NUSA TENGGARA TIMUR,,Indonesia,,,,-82.183.922,1.245.362.309,https://maps.google.com/?cid=0x0:0xb0363f409af806c6,
toko bangunan,toko bangunan,Sentral Bangunan 2,"QHPQ+XG7, Petleng, Kec. Alor Tengah Utara, Kabupaten Alor, Nusa Tenggara Tim.","Kabupaten Alor, Nusa Tenggara Tim.",NUSA TENGGARA TIMUR,,Indonesia,,,,-82.125.833,1.245.887.934,https://maps.google.com/?cid=0x0:0xa72dea1462f19b54,
toko bangunan,Pusat Perbelanjaan,IKENNA SHOP,"RWW9+56C, Gading Nias Apartemen tower emerald lobby T, Jl. Pegangsaan Dua, RT.13/RW.3, Pegangsaan Dua, Kec. Klp. Gading, Jkt Utara, Daerah Khusus Ibukota Jakarta 14250","Gading Nias Apartemen tower emerald lobby T, Jl. Pegangsaan Dua, RT.13/RW.3, Pegangsaan Dua, Kec. Klp. Gading, Jkt Utara",NUSA TENGGARA TIMUR,14250.0,Indonesia,"8,95333E+11",,,-61.545.572,1.069.180.112,https://maps.google.com/?cid=0x0:0xa9967c9000a8535e,
toko bangunan,toko bangunan,Nusa Tenggara Tim.,,Nusa Tenggara Tim.,NUSA TENGGARA TIMUR,,Indonesia,,,,-86.573.819,1.210.793.705,https://maps.google.com/?cid=0x0:0x1030bfbcaf71ae0,
toko bangunan,Toko Perlengkapan Rumah,Toko Bangunan Champion,"QGMX+63R, Mutiara, Kec. Tlk. Mutiara, Kabupaten Alor, Nusa Tenggara Tim.","Kabupaten Alor, Nusa Tenggara Tim.",NUSA TENGGARA TIMUR,,Indonesia,81338757523,,,-82.168.892,1.245.476.484,https://maps.google.com/?cid=0x0:0x43281458e96c59c8,
toko bangunan,Toko Bahan Bangunan,Sinar Bangunan Building Mart,"Jl. Yos Sudarso No.177, Namosain, Kec. Alak, Kota Kupang, Nusa Tenggara Tim.","Kota Kupang, Nusa Tenggara Tim.",NUSA TENGGARA TIMUR,,Indonesia,81238941314,,,-101.916.248,1.235.407.476,https://maps.google.com/?cid=0x0:0x411fca6242be55fc,
toko bangunan,Minimarket,toko hebron,"725V+CW9, Unnamed Rd, Mokdale, Kec. Lobalain, Kabupaten Rote Ndao, Nusa Tenggara Tim.","Kabupaten Rote Ndao, Nusa Tenggara Tim.",NUSA TENGGARA TIMUR,,Indonesia,,,,-107.414.723,1.230.448.675,https://maps.google.com/?cid=0x0:0x699558aa9d2e663a,
toko bangunan,Toko Bahan Bangunan,Sinar Bangunan Building Center,"Jl. Bund. PU No.12, Tuak Daun Merah, Kec. Oebobo, Kota Kupang, Nusa Tenggara Tim. 85228","Tuak Daun Merah, Kec. Oebobo, Kota Kupang",NUSA TENGGARA TIMUR,85228.0,Indonesia,81236648694,,,-101.675.355,1.236.289.538,https://maps.google.com/?cid=0x0:0x8b34913a09e207d2,
toko bangunan,Toko Bahan Bangunan,toko pelangi bangunan,"FVQP+VXF, Goron Talo, Kec. Komodo, Kabupaten Manggarai Barat, Nusa Tenggara Tim.","Kabupaten Manggarai Barat, Nusa Tenggara Tim.",NUSA TENGGARA TIMUR,,Indonesia,82145627171,,,-85.103.078,1.198.874.183,https://maps.google.com/?cid=0x0:0x6f62dc0810d90ac8,
toko bangunan,Toko Bahan Bangunan,Toko Roda Bangunan,"VVVX+333, Atambua, Kec. Kota Atambua, Kabupaten Belu, Nusa Tenggara Tim.","Kabupaten Belu, Nusa Tenggara Tim.",NUSA TENGGARA TIMUR,,Indonesia,,,,-91.073.625,1.248.976.836,https://maps.google.com/?cid=0x0:0xfdf308e29f21112,
toko bangunan,Toko Bahan Bangunan,Toko Bravo Bangunan,"Jl. Terusan Timor Raya, Pasir Panjang, Kec. Kota Lama, Kota Kupang, Nusa Tenggara Tim. 85000","Pasir Panjang, Kec. Kota Lama, Kota Kupang",NUSA TENGGARA TIMUR,85000.0,Indonesia,81246295800,,,-101.509.378,1.236.033.391,https://maps.google.com/?cid=0x0:0xdf4da131f9948aff,
toko bangunan,Toko Bahan Bangunan,Toko Duta Bangunan,"GFMJ+896, Benpasi, Kec. Kota Kefamenanu, Kabupaten Timor Tengah Utara, Nusa Tenggara Tim.","Kabupaten Timor Tengah Utara, Nusa Tenggara Tim.",NUSA TENGGARA TIMUR,,Indonesia,8113827627,,,-94.667.226,1.244.808.961,https://maps.google.com/?cid=0x0:0x7bd4b59644a2a0bd,
toko bangunan,Toko Bahan Bangunan,CENTRAL BANGUNAN,"GFMJ+2HV, Kefamenanu Sel., Kec. Kota Kefamenanu, Kabupaten Timor Tengah Utara, Nusa Tenggara Tim.","Kabupaten Timor Tengah Utara, Nusa Tenggara Tim.",NUSA TENGGARA TIMUR,,Indonesia,,,,-94.673.843,1.244.814.138,https://maps.google.com/?cid=0x0:0x3f6b717dfadc9e25,
toko bangunan,Toko Bahan Bangunan,CV. Tujuh Jaya,"723W+C6P, Unnamed Rd, Mokdale, Kec. Lobalain, Kabupaten Rote Ndao, Nusa Tenggara Tim.","Kabupaten Rote Ndao, Nusa Tenggara Tim.",NUSA TENGGARA TIMUR,,Indonesia,,,,-107.464.098,12.304.558,https://maps.google.com/?cid=0x0:0x575a85c650ddf9e4,
toko bangunan,Toko Bahan Bangunan,Toko Material Isto,"MVVF+C9H, Kabupaten BeluRaimanuk, Nusa Tenggara Tim., Mandeu, Kec. Rai Manuk, Kabupaten Belu, Nusa Tenggara Tim.","Kabupaten Belu, Nusa Tenggara Tim.",NUSA TENGGARA TIMUR,,Indonesia,,,,-93.064.484,1.248.734.845,https://maps.google.com/?cid=0x0:0x1e94426a8dd10baf,
toko bangunan,Toko Bahan Bangunan,Mitra Bangunan Toko,"HF4H+RM8, Kefamenanu Tengah, Kec. Kota Kefamenanu, Kabupaten Timor Tengah Utara, Nusa Tenggara Tim.","Kabupaten Timor Tengah Utara, Nusa Tenggara Tim.",NUSA TENGGARA TIMUR,,Indonesia,38831958,,,-9.442.966,124.479.218,https://maps.google.com/?cid=0x0:0x87c7790178b54766,
toko bangunan,Toko Bahan Bangunan,Palang Merah Indonesia,"HF2H+WX6, Kefamenanu Tengah, Kec. Kota Kefamenanu, Kabupaten Timor Tengah Utara, Nusa Tenggara Tim.","Kabupaten Timor Tengah Utara, Nusa Tenggara Tim.",NUSA TENGGARA TIMUR,,Indonesia,38831412,,,-9.447.707,124.479.904,https://maps.google.com/?cid=0x0:0xadf1703a2c4885a3,
toko bangunan,Toko Bahan Bangunan,Toko Sinar Bangunan Kuanino,"RHGR+GWM, Kuanino, Kec. Kota Raja, Kota Kupang, Nusa Tenggara Tim.","Kota Kupang, Nusa Tenggara Tim.",NUSA TENGGARA TIMUR,,Indonesia,81246985898,,,-101.736.649,1.235.923.091,https://maps.google.com/?cid=0x0:0xae6ae1c64fc9b3df,
toko bangunan,Toko,Toko Duta Bangunan,"VV7W+829, Fatukbot, Kec. Atambua Sel., Kabupaten Belu, Nusa Tenggara Tim.","Kabupaten Belu, Nusa Tenggara Tim.",NUSA TENGGARA TIMUR,,Indonesia,,,,-91.367.051,1.248.951.032,https://maps.google.com/?cid=0x0:0xef0cdf9c9845cd6f,
toko bangunan,Pemasok Bahan Bangunan,UD Mitra Mandiri,"M2C3+FRG, Puken Tobi Wangi Bao, Kec. Larantuka, Kabupaten Flores Timur, Nusa Tenggara Tim.","Kabupaten Flores Timur, Nusa Tenggara Tim.",NUSA TENGGARA TIMUR,,Indonesia,81232300777,,,-83.288.177,1.230.045.842,https://maps.google.com/?cid=0x0:0xa972a1abd2defb3a,
toko bangunan,Toko Bahan Bangunan,Toko Putera Bungsu,"M2Q9+P77, Sarotari, Kec. Larantuka, Kabupaten Flores Timur, Nusa Tenggara Tim.","Kabupaten Flores Timur, Nusa Tenggara Tim.",NUSA TENGGARA TIMUR,,Indonesia,38321034,,,-83.107.046,1.230.181.747,https://maps.google.com/?cid=0x0:0xeb6aa1228f7df5d0,
toko bangunan,Toko Bahan Bangunan,Karya Agung Jaya Toko,"HF2G+HMF, Kefamenanu Tengah, Kec. Kota Kefamenanu, Kabupaten Timor Tengah Utara, Nusa Tenggara Tim.","Kabupaten Timor Tengah Utara, Nusa Tenggara Tim.",NUSA TENGGARA TIMUR,,Indonesia,38831125,,,-9.448.554,124.476.678,https://maps.google.com/?cid=0x0:0xb96c9d062a474ed2,
toko bangunan,Toko bahan makanan,ud. Perflos,"FPG4+GW, Boru, Kec. Wulanggitang, Kabupaten Flores Timur, Nusa Tenggara Tim.","Kabupaten Flores Timur, Nusa Tenggara Tim.",NUSA TENGGARA TIMUR,,Indonesia,85253122353,,,-85.237.779,1.227.073.197,https://maps.google.com/?cid=0x0:0x3ad71b8d4008a7f5,
toko bangunan,toko bangunan,TOKO SOU,"Jl. Sir lalang No.1, Kabir, Kec. Pantar, Kabupaten Alor, Nusa Tenggara Tim.","Kabupaten Alor, Nusa Tenggara Tim.",NUSA TENGGARA TIMUR,,Indonesia,8113833838,,,-82.567.004,1.242.146.625,https://maps.google.com/?cid=0x0:0x450f62b4f5e7b062,
toko bangunan,Kantor Perusahaan,Tukang Bangunan,"Jl. Pulo Raya I No.17 12, RT.7/RW.5, Ps. Minggu, Kec. Kby. Baru, Kota Jakarta Selatan, Daerah Khusus Ibukota Jakarta 12170","RT.7/RW.5, Ps. Minggu, Kec. Kby. Baru, Kota Jakarta Selatan",NUSA TENGGARA TIMUR,12170.0,Indonesia,81296336583,,,-6.245.686,1.068.093.961,https://maps.google.com/?cid=0x0:0x1d8be47d9652ce8b,
toko bangunan,Kontraktor Umum,jasa tukang bangunan,"2, Jl. Gunuk IV No.33 2, RT.6/RW.3, Pejaten Timur, Ps. Minggu, Kota Jakarta Selatan, Daerah Khusus Ibukota Jakarta 12510","Jl. Gunuk IV No.33 2, RT.6/RW.3, Pejaten Timur, Ps. Minggu, Kota Jakarta Selatan",NUSA TENGGARA TIMUR,12510.0,Indonesia,81270635413,,,-62.947.629,1.068.518.449,https://maps.google.com/?cid=0x0:0x4907a1d24d6cda0,
toko bangunan,toko bangunan,Kec. Mataru,"Kabupaten Alor, Nusa Tenggara Tim.","Kabupaten Alor, Nusa Tenggara Tim.",NUSA TENGGARA TIMUR,,Indonesia,,,,-83.884.051,1.246.622.708,https://maps.google.com/?cid=0x0:0xf3860e1b130bc22b,
toko bangunan,Toko Perlengkapan Rumah,Toko Bangunan Champion,"QGMX+63R, Mutiara, Kec. Tlk. Mutiara, Kabupaten Alor, Nusa Tenggara Tim.","Kabupaten Alor, Nusa Tenggara Tim.",NUSA TENGGARA TIMUR,,Indonesia,81338757523,,,-82.168.892,1.245.476.484,https://maps.google.com/?cid=0x0:0x43281458e96c59c8,
toko bangunan,toko bangunan,Kilatok,"QH72+2C, Fanating, Kec. Tlk. Mutiara, Kabupaten Alor, Nusa Tenggara Tim.","Kabupaten Alor, Nusa Tenggara Tim.",NUSA TENGGARA TIMUR,,Indonesia,,,,-82.328.734,1.245.438.732,https://maps.google.com/?cid=0x0:0x47fe97b143043d91,
toko bangunan,toko bangunan,Nusa Tenggara Tim.,,Nusa Tenggara Tim.,NUSA TENGGARA TIMUR,,Indonesia,,,,-86.573.819,1.210.793.705,https://maps.google.com/?cid=0x0:0x1030bfbcaf71ae0,
toko bangunan,Toko,Toko lancar bangunan,"QHQ6+CPH, Welai Tim., Kec. Tlk. Mutiara, Kabupaten Alor, Nusa Tenggara Tim.","Kabupaten Alor, Nusa Tenggara Tim.",NUSA TENGGARA TIMUR,,Indonesia,,,,-82.114.421,1.245.618.588,https://maps.google.com/?cid=0x0:0x423f09fbf0e1baf7,
toko bangunan,Toko Perlengkapan Rumah,Toko Bangunan Champion,"QGMX+63R, Mutiara, Kec. Tlk. Mutiara, Kabupaten Alor, Nusa Tenggara Tim.","Kabupaten Alor, Nusa Tenggara Tim.",NUSA TENGGARA TIMUR,,Indonesia,81338757523,,,-82.168.892,1.245.476.484,https://maps.google.com/?cid=0x0:0x43281458e96c59c8,
toko bangunan,Toko Bahan Bangunan,Toko Roda Bangunan,"VVVX+333, Atambua, Kec. Kota Atambua, Kabupaten Belu, Nusa Tenggara Tim.","Kabupaten Belu, Nusa Tenggara Tim.",NUSA TENGGARA TIMUR,,Indonesia,,,,-91.073.625,1.248.976.836,https://maps.google.com/?cid=0x0:0xfdf308e29f21112,
toko bangunan,Toko Bahan Bangunan,Toko Bravo Bangunan,"Jl. Terusan Timor Raya, Pasir Panjang, Kec. Kota Lama, Kota Kupang, Nusa Tenggara Tim. 85000","Pasir Panjang, Kec. Kota Lama, Kota Kupang",NUSA TENGGARA TIMUR,85000.0,Indonesia,81246295800,,,-101.509.378,1.236.033.391,https://maps.google.com/?cid=0x0:0xdf4da131f9948aff,
toko bangunan,Minimarket,toko hebron,"725V+CW9, Unnamed Rd, Mokdale, Kec. Lobalain, Kabupaten Rote Ndao, Nusa Tenggara Tim.","Kabupaten Rote Ndao, Nusa Tenggara Tim.",NUSA TENGGARA TIMUR,,Indonesia,,,,-107.414.723,1.230.448.675,https://maps.google.com/?cid=0x0:0x699558aa9d2e663a,
toko bangunan,Toko Bahan Bangunan,Toko Material Isto,"MVVF+C9H, Kabupaten BeluRaimanuk, Nusa Tenggara Tim., Mandeu, Kec. Rai Manuk, Kabupaten Belu, Nusa Tenggara Tim.","Kabupaten Belu, Nusa Tenggara Tim.",NUSA TENGGARA TIMUR,,Indonesia,,,,-93.064.484,1.248.734.845,https://maps.google.com/?cid=0x0:0x1e94426a8dd10baf,
toko bangunan,toko bangunan,TOKO SOU,"Jl. Sir lalang No.1, Kabir, Kec. Pantar, Kabupaten Alor, Nusa Tenggara Tim.","Kabupaten Alor, Nusa Tenggara Tim.",NUSA TENGGARA TIMUR,,Indonesia,8113833838,,,-82.567.004,1.242.146.625,https://maps.google.com/?cid=0x0:0x450f62b4f5e7b062,
toko bangunan,Toko Bahan Bangunan,Toko Material Maju Makmur,"Jl. Raya Ciracas No.4, RT.11/RW.7, Ciracas, Kec. Ciracas, Kota Jakarta Timur, Daerah Khusus Ibukota Jakarta 13740","RT.11/RW.7, Ciracas, Kec. Ciracas, Kota Jakarta Timur",NUSA TENGGARA TIMUR,13740.0,Indonesia,85691487952,,,-63.298.773,1.068.722.199,https://maps.google.com/?cid=0x0:0x58e95f56f4aeb45a,
toko bangunan,Toko Bahan Bangunan,Toko Subuh,"Jl. Cipinang Baru No.27, RT.9/RW.3, Cipinang, Kec. Pulo Gadung, Kota Jakarta Timur, Daerah Khusus Ibukota Jakarta 13240","RT.9/RW.3, Cipinang, Kec. Pulo Gadung, Kota Jakarta Timur",NUSA TENGGARA TIMUR,13240.0,Indonesia,214896871,,,-6.203.284,1.068.930.856,https://maps.google.com/?cid=0x0:0xb4aff6f0c2a07a32,
toko bangunan,Toko Bahan Bangunan,Toko Bahan Bangunan Aneka Maju,"Blok i14 8, Jl. Pd. Kelapa Raya No.8, RT.7/RW.9, Pd. Klp., Kec. Duren Sawit, Kota Jakarta Timur, Daerah Khusus Ibukota Jakarta 13450","Jl. Pd. Kelapa Raya No.8, RT.7/RW.9, Pd. Klp., Kec. Duren Sawit, Kota Jakarta Timur",NUSA TENGGARA TIMUR,13450.0,Indonesia,218651606,,,-62.366.944,1.069.342.234,https://maps.google.com/?cid=0x0:0xc1d06a35075c2497,
toko bangunan,toko bangunan,TOKO SOU,"Jl. Sir lalang No.1, Kabir, Kec. Pantar, Kabupaten Alor, Nusa Tenggara Tim.","Kabupaten Alor, Nusa Tenggara Tim.",NUSA TENGGARA TIMUR,,Indonesia,8113833838,,,-82.567.004,1.242.146.625,https://maps.google.com/?cid=0x0:0x450f62b4f5e7b062,
toko bangunan,toko bangunan,Kec. Pantar Bar.,"Kabupaten Alor, Nusa Tenggara Tim.","Kabupaten Alor, Nusa Tenggara Tim.",NUSA TENGGARA TIMUR,,Indonesia,,,,-83.599.628,1.240.945.669,https://maps.google.com/?cid=0x0:0xdd9980259e181660,
toko bangunan,toko bangunan,TOKO SOU,"Jl. Sir lalang No.1, Kabir, Kec. Pantar, Kabupaten Alor, Nusa Tenggara Tim.","Kabupaten Alor, Nusa Tenggara Tim.",NUSA TENGGARA TIMUR,,Indonesia,8113833838,,,-82.567.004,1.242.146.625,https://maps.google.com/?cid=0x0:0x450f62b4f5e7b062,
toko bangunan,toko bangunan,Kec. Pantar Bar. Laut,"Kabupaten Alor, Nusa Tenggara Tim.","Kabupaten Alor, Nusa Tenggara Tim.",NUSA TENGGARA TIMUR,,Indonesia,,,,-83.963.257,1.239.525.669,https://maps.google.com/?cid=0x0:0x38d29f383dad7cad,
toko bangunan,toko bangunan,TOKO SOU,"Jl. Sir lalang No.1, Kabir, Kec. Pantar, Kabupaten Alor, Nusa Tenggara Tim.","Kabupaten Alor, Nusa Tenggara Tim.",NUSA TENGGARA TIMUR,,Indonesia,8113833838,,,-82.567.004,1.242.146.625,https://maps.google.com/?cid=0x0:0x450f62b4f5e7b062,
toko bangunan,toko bangunan,TOKO SOU,"Jl. Sir lalang No.1, Kabir, Kec. Pantar, Kabupaten Alor, Nusa Tenggara Tim.","Kabupaten Alor, Nusa Tenggara Tim.",NUSA TENGGARA TIMUR,,Indonesia,8113833838,,,-82.567.004,1.242.146.625,https://maps.google.com/?cid=0x0:0x450f62b4f5e7b062,
toko bangunan,toko bangunan,Nusa Tenggara Tim.,,Nusa Tenggara Tim.,NUSA TENGGARA TIMUR,,Indonesia,,,,-86.573.819,1.210.793.705,https://maps.google.com/?cid=0x0:0x1030bfbcaf71ae0,
toko bangunan,Toko Perlengkapan Rumah,Toko Bangunan Champion,"QGMX+63R, Mutiara, Kec. Tlk. Mutiara, Kabupaten Alor, Nusa Tenggara Tim.","Kabupaten Alor, Nusa Tenggara Tim.",NUSA TENGGARA TIMUR,,Indonesia,81338757523,,,-82.168.892,1.245.476.484,https://maps.google.com/?cid=0x0:0x43281458e96c59c8,
toko bangunan,Pusat Perbelanjaan,Sinar Kencana Alor - Toko Bangunan,"Jl. Jend. Sudirman, Kalabahi Kota, Kec. Tlk. Mutiara, Kabupaten Alor, Nusa Tenggara Tim.","Kabupaten Alor, Nusa Tenggara Tim.",NUSA TENGGARA TIMUR,,Indonesia,82228000848,,,-82.165.322,1.245.274.066,https://maps.google.com/?cid=0x0:0xf8954eac934992e1,
toko bangunan,toko bangunan,TOKO SOU,"Jl. Sir lalang No.1, Kabir, Kec. Pantar, Kabupaten Alor, Nusa Tenggara Tim.","Kabupaten Alor, Nusa Tenggara Tim.",NUSA TENGGARA TIMUR,,Indonesia,8113833838,,,-82.567.004,1.242.146.625,https://maps.google.com/?cid=0x0:0x450f62b4f5e7b062,
toko bangunan,toko bangunan,Kec. Pulau Pura,"Kabupaten Alor, Nusa Tenggara Tim.","Kabupaten Alor, Nusa Tenggara Tim.",NUSA TENGGARA TIMUR,,Indonesia,,,,-83.101.888,1.243.205.613,https://maps.google.com/?cid=0x0:0x5273b339ab12c66f,
toko bangunan,toko bangunan,Nusa Tenggara Tim.,,Nusa Tenggara Tim.,NUSA TENGGARA TIMUR,,Indonesia,,,,-86.573.819,1.210.793.705,https://maps.google.com/?cid=0x0:0x1030bfbcaf71ae0,
toko bangunan,Toko Perlengkapan Rumah,Toko Bangunan Champion,"QGMX+63R, Mutiara, Kec. Tlk. Mutiara, Kabupaten Alor, Nusa Tenggara Tim.","Kabupaten Alor, Nusa Tenggara Tim.",NUSA TENGGARA TIMUR,,Indonesia,81338757523,,,-82.168.892,1.245.476.484,https://maps.google.com/?cid=0x0:0x43281458e96c59c8,
toko bangunan,Toko,Toko lancar bangunan,"QHQ6+CPH, Welai Tim., Kec. Tlk. Mutiara, Kabupaten Alor, Nusa Tenggara Tim.","Kabupaten Alor, Nusa Tenggara Tim.",NUSA TENGGARA TIMUR,,Indonesia,,,,-82.114.421,1.245.618.588,https://maps.google.com/?cid=0x0:0x423f09fbf0e1baf7,
toko bangunan,Toko Bahan Bangunan,Toko Roda Bangunan,"VVVX+333, Atambua, Kec. Kota Atambua, Kabupaten Belu, Nusa Tenggara Tim.","Kabupaten Belu, Nusa Tenggara Tim.",NUSA TENGGARA TIMUR,,Indonesia,,,,-91.073.625,1.248.976.836,https://maps.google.com/?cid=0x0:0xfdf308e29f21112,
toko bangunan,Toko Bahan Bangunan,Toko Material Isto,"MVVF+C9H, Kabupaten BeluRaimanuk, Nusa Tenggara Tim., Mandeu, Kec. Rai Manuk, Kabupaten Belu, Nusa Tenggara Tim.","Kabupaten Belu, Nusa Tenggara Tim.",NUSA TENGGARA TIMUR,,Indonesia,,,,-93.064.484,1.248.734.845,https://maps.google.com/?cid=0x0:0x1e94426a8dd10baf,
toko bangunan,toko bangunan,TOKO SOU,"Jl. Sir lalang No.1, Kabir, Kec. Pantar, Kabupaten Alor, Nusa Tenggara Tim.","Kabupaten Alor, Nusa Tenggara Tim.",NUSA TENGGARA TIMUR,,Indonesia,8113833838,,,-82.567.004,1.242.146.625,https://maps.google.com/?cid=0x0:0x450f62b4f5e7b062,
toko bangunan,toko bangunan,Pureman,"Purnama, Kec. Pureman, Kabupaten Alor, Nusa Tenggara Tim.","Kabupaten Alor, Nusa Tenggara Tim.",NUSA TENGGARA TIMUR,,Indonesia,,,,-8.348.176,124.962.665,https://maps.google.com/?cid=0x0:0x1e65de68a438073a,
toko bangunan,Toko Bahan Bangunan,Toko Bahan Bangunan Aneka Maju,"Blok i14 8, Jl. Pd. Kelapa Raya No.8, RT.7/RW.9, Pd. Klp., Kec. Duren Sawit, Kota Jakarta Timur, Daerah Khusus Ibukota Jakarta 13450","Jl. Pd. Kelapa Raya No.8, RT.7/RW.9, Pd. Klp., Kec. Duren Sawit, Kota Jakarta Timur",NUSA TENGGARA TIMUR,13450.0,Indonesia,218651606,,,-62.366.944,1.069.342.234,https://maps.google.com/?cid=0x0:0xc1d06a35075c2497,
toko bangunan,toko bangunan,Kec. Tlk. Mutiara,"Kabupaten Alor, Nusa Tenggara Tim.","Kabupaten Alor, Nusa Tenggara Tim.",NUSA TENGGARA TIMUR,,Indonesia,,,,-82.165.759,1.245.218.191,https://maps.google.com/?cid=0x0:0x36ef9ebbaaa54623,
toko bangunan,Toko,JAYA BANGUNAN,"Jl. Jend. Sudirman, Kalabahi Tim., Kec. Tlk. Mutiara, Kabupaten Alor, Nusa Tenggara Tim.","Kabupaten Alor, Nusa Tenggara Tim.",NUSA TENGGARA TIMUR,,Indonesia,81332358999,,,-82.175.091,1.245.342.652,https://maps.google.com/?cid=0x0:0x2d8b71dd71fb717e,
toko bangunan,Toko Perlengkapan Rumah,Toko Bangunan Champion,"QGMX+63R, Mutiara, Kec. Tlk. Mutiara, Kabupaten Alor, Nusa Tenggara Tim.","Kabupaten Alor, Nusa Tenggara Tim.",NUSA TENGGARA TIMUR,,Indonesia,81338757523,,,-82.168.892,1.245.476.484,https://maps.google.com/?cid=0x0:0x43281458e96c59c8,
toko bangunan,Pusat Perbelanjaan,Sinar Kencana Alor - Toko Bangunan,"Jl. Jend. Sudirman, Kalabahi Kota, Kec. Tlk. Mutiara, Kabupaten Alor, Nusa Tenggara Tim.","Kabupaten Alor, Nusa Tenggara Tim.",NUSA TENGGARA TIMUR,,Indonesia,82228000848,,,-82.165.322,1.245.274.066,https://maps.google.com/?cid=0x0:0xf8954eac934992e1,
toko bangunan,Toko,Toko lancar bangunan,"QHQ6+CPH, Welai Tim., Kec. Tlk. Mutiara, Kabupaten Alor, Nusa Tenggara Tim.","Kabupaten Alor, Nusa Tenggara Tim.",NUSA TENGGARA TIMUR,,Indonesia,,,,-82.114.421,1.245.618.588,https://maps.google.com/?cid=0x0:0x423f09fbf0e1baf7,
toko bangunan,Toko,Daya prima Bangunan,"QHRC+CCM, Jl. Soekarno Hatta, Welai Tim., Kec. Tlk. Mutiara, Kabupaten Alor, Nusa Tenggara Tim.","Kabupaten Alor, Nusa Tenggara Tim.",NUSA TENGGARA TIMUR,,Indonesia,,,,-82.089.143,1.245.710.541,https://maps.google.com/?cid=0x0:0x657f2d9e261cc672,
toko bangunan,Toko Perlengkapan Rumah,ORIENTAL,"QGMC+76G, Jl. Diponegoro, Wetabua, Kec. Tlk. Mutiara, Kabupaten Alor, Nusa Tenggara Tim.","Kabupaten Alor, Nusa Tenggara Tim.",NUSA TENGGARA TIMUR,,Indonesia,,,,-82.168.054,1.245.205.753,https://maps.google.com/?cid=0x0:0x4508afe0419b4600,
toko bangunan,toko bangunan,UD Bumi Indah,"QGJ9+FGR, Jl. Ahmad Yani, Kalabahi Kota, Kec. Tlk. Mutiara, Kabupaten Alor, Nusa Tenggara Tim.","Kabupaten Alor, Nusa Tenggara Tim.",NUSA TENGGARA TIMUR,,Indonesia,,,,-82.189.002,1.245.187.436,https://maps.google.com/?cid=0x0:0x8757517a5fd7cfda,
toko bangunan,Toko,Toko Fa. Ombay,"Jl. Ahmad Yani No.2, Kalabahi Kota, Kec. Tlk. Mutiara, Kabupaten Alor, Nusa Tenggara Tim.","Kabupaten Alor, Nusa Tenggara Tim.",NUSA TENGGARA TIMUR,,Indonesia,811382198,,,-8.218.723,1.245.190.302,https://maps.google.com/?cid=0x0:0x272381f338b665cf,
toko bangunan,Toko Swalayan,UD.Bangun NUSA,"QGMJ+787, Kalabahi Tengah, Kec. Tlk. Mutiara, Kabupaten Alor, Nusa Tenggara Tim.","Kabupaten Alor, Nusa Tenggara Tim.",NUSA TENGGARA TIMUR,,Indonesia,82266156348,,,-82.168.422,1.245.307.813,https://maps.google.com/?cid=0x0:0x85af7f40ad6cf536,
toko bangunan,Toko bahan makanan,VMART,"Jl. Jend. Sudirman, Kalabahi Tim., Kec. Tlk. Mutiara, Kabupaten Alor, Nusa Tenggara Tim.","Kabupaten Alor, Nusa Tenggara Tim.",NUSA TENGGARA TIMUR,,Indonesia,,,,-82.183.922,1.245.362.309,https://maps.google.com/?cid=0x0:0xb0363f409af806c6,
toko bangunan,Bengkel tambal ban,Bengkel Tambal ban GIVEN,"QHP7+HQQ, Jl. Luter Maarang, Welai Tim., Kec. Tlk. Mutiara, Kabupaten Alor, Nusa Tenggara Tim.","Kabupaten Alor, Nusa Tenggara Tim.",NUSA TENGGARA TIMUR,,Indonesia,,,,-82.135.395,1.245.644.937,https://maps.google.com/?cid=0x0:0x3e36e706844ee89e,
toko bangunan,toko bangunan,Toko Bangunan Berlian Indah,"QGMC+8CP, Jl. Dewi Sartika, Wetabua, Kec. Tlk. Mutiara, Kabupaten Alor, Nusa Tenggara Tim.","Kabupaten Alor, Nusa Tenggara Tim.",NUSA TENGGARA TIMUR,,Indonesia,,,,-82.166.676,1.245.210.928,https://maps.google.com/?cid=0x0:0x90df40bb42662082,
toko bangunan,toko bangunan,Sentral Bangunan,"Jl. Diponegoro No.26, Wetabua, Kec. Tlk. Mutiara, Kabupaten Alor, Nusa Tenggara Tim.","Kabupaten Alor, Nusa Tenggara Tim.",NUSA TENGGARA TIMUR,,Indonesia,,,,-82.164.542,1.245.249.061,https://maps.google.com/?cid=0x0:0x724d02bb907b9962,
toko bangunan,toko bangunan,Kec. Tlk. Mutiara,"Kabupaten Alor, Nusa Tenggara Tim.","Kabupaten Alor, Nusa Tenggara Tim.",NUSA TENGGARA TIMUR,,Indonesia,,,,-82.165.759,1.245.218.191,https://maps.google.com/?cid=0x0:0x36ef9ebbaaa54623,
toko bangunan,Toko,JAYA BANGUNAN,"Jl. Jend. Sudirman, Kalabahi Tim., Kec. Tlk. Mutiara, Kabupaten Alor, Nusa Tenggara Tim.","Kabupaten Alor, Nusa Tenggara Tim.",NUSA TENGGARA TIMUR,,Indonesia,81332358999,,,-82.175.091,1.245.342.652,https://maps.google.com/?cid=0x0:0x2d8b71dd71fb717e,
toko bangunan,Toko Perlengkapan Rumah,Toko Bangunan Champion,"QGMX+63R, Mutiara, Kec. Tlk. Mutiara, Kabupaten Alor, Nusa Tenggara Tim.","Kabupaten Alor, Nusa Tenggara Tim.",NUSA TENGGARA TIMUR,,Indonesia,81338757523,,,-82.168.892,1.245.476.484,https://maps.google.com/?cid=0x0:0x43281458e96c59c8,
toko bangunan,Toko,Toko lancar bangunan,"QHQ6+CPH, Welai Tim., Kec. Tlk. Mutiara, Kabupaten Alor, Nusa Tenggara Tim.","Kabupaten Alor, Nusa Tenggara Tim.",NUSA TENGGARA TIMUR,,Indonesia,,,,-82.114.421,1.245.618.588,https://maps.google.com/?cid=0x0:0x423f09fbf0e1baf7,
toko bangunan,Toko Bahan Bangunan,ISTANA BANGUNAN,"QGJ8+P2C, Jl. K. Satsui Tubun, Binongko, Kec. Tlk. Mutiara, Kabupaten Alor, Nusa Tenggara Tim.","Kabupaten Alor, Nusa Tenggara Tim.",NUSA TENGGARA TIMUR,,Indonesia,,,,-82.181.752,1.245.150.039,https://maps.google.com/?cid=0x0:0x3a2e53028ccb4724,
toko bangunan,Toko Perlengkapan Rumah,ORIENTAL,"QGMC+76G, Jl. Diponegoro, Wetabua, Kec. Tlk. Mutiara, Kabupaten Alor, Nusa Tenggara Tim.","Kabupaten Alor, Nusa Tenggara Tim.",NUSA TENGGARA TIMUR,,Indonesia,,,,-82.168.054,1.245.205.753,https://maps.google.com/?cid=0x0:0x4508afe0419b4600,
toko bangunan,Toko,Daya prima Bangunan,"QHRC+CCM, Jl. Soekarno Hatta, Welai Tim., Kec. Tlk. Mutiara, Kabupaten Alor, Nusa Tenggara Tim.","Kabupaten Alor, Nusa Tenggara Tim.",NUSA TENGGARA TIMUR,,Indonesia,,,,-82.089.143,1.245.710.541,https://maps.google.com/?cid=0x0:0x657f2d9e261cc672,
toko bangunan,toko bangunan,UD Bumi Indah,"QGJ9+FGR, Jl. Ahmad Yani, Kalabahi Kota, Kec. Tlk. Mutiara, Kabupaten Alor, Nusa Tenggara Tim.","Kabupaten Alor, Nusa Tenggara Tim.",NUSA TENGGARA TIMUR,,Indonesia,,,,-82.189.002,1.245.187.436,https://maps.google.com/?cid=0x0:0x8757517a5fd7cfda,
toko bangunan,Toko Swalayan,UD.Bangun NUSA,"QGMJ+787, Kalabahi Tengah, Kec. Tlk. Mutiara, Kabupaten Alor, Nusa Tenggara Tim.","Kabupaten Alor, Nusa Tenggara Tim.",NUSA TENGGARA TIMUR,,Indonesia,82266156348,,,-82.168.422,1.245.307.813,https://maps.google.com/?cid=0x0:0x85af7f40ad6cf536,
toko bangunan,Toko,Toko Fa. Ombay,"Jl. Ahmad Yani No.2, Kalabahi Kota, Kec. Tlk. Mutiara, Kabupaten Alor, Nusa Tenggara Tim.","Kabupaten Alor, Nusa Tenggara Tim.",NUSA TENGGARA TIMUR,,Indonesia,811382198,,,-8.218.723,1.245.190.302,https://maps.google.com/?cid=0x0:0x272381f338b665cf,
toko bangunan,Toko bahan makanan,VMART,"Jl. Jend. Sudirman, Kalabahi Tim., Kec. Tlk. Mutiara, Kabupaten Alor, Nusa Tenggara Tim.","Kabupaten Alor, Nusa Tenggara Tim.",NUSA TENGGARA TIMUR,,Indonesia,,,,-82.183.922,1.245.362.309,https://maps.google.com/?cid=0x0:0xb0363f409af806c6,
toko bangunan,Bengkel tambal ban,Bengkel Tambal ban GIVEN,"QHP7+HQQ, Jl. Luter Maarang, Welai Tim., Kec. Tlk. Mutiara, Kabupaten Alor, Nusa Tenggara Tim.","Kabupaten Alor, Nusa Tenggara Tim.",NUSA TENGGARA TIMUR,,Indonesia,,,,-82.135.395,1.245.644.937,https://maps.google.com/?cid=0x0:0x3e36e706844ee89e,
toko bangunan,toko bangunan,Kec. Tlk. Mutiara,"Kabupaten Alor, Nusa Tenggara Tim.","Kabupaten Alor, Nusa Tenggara Tim.",NUSA TENGGARA TIMUR,,Indonesia,,,,-82.165.759,1.245.218.191,https://maps.google.com/?cid=0x0:0x36ef9ebbaaa54623,
toko bangunan,Toko,JAYA BANGUNAN,"Jl. Jend. Sudirman, Kalabahi Tim., Kec. Tlk. Mutiara, Kabupaten Alor, Nusa Tenggara Tim.","Kabupaten Alor, Nusa Tenggara Tim.",NUSA TENGGARA TIMUR,,Indonesia,81332358999,,,-82.175.091,1.245.342.652,https://maps.google.com/?cid=0x0:0x2d8b71dd71fb717e,
toko bangunan,Toko Perlengkapan Rumah,Toko Bangunan Champion,"QGMX+63R, Mutiara, Kec. Tlk. Mutiara, Kabupaten Alor, Nusa Tenggara Tim.","Kabupaten Alor, Nusa Tenggara Tim.",NUSA TENGGARA TIMUR,,Indonesia,81338757523,,,-82.168.892,1.245.476.484,https://maps.google.com/?cid=0x0:0x43281458e96c59c8,
toko bangunan,Toko,Toko lancar bangunan,"QHQ6+CPH, Welai Tim., Kec. Tlk. Mutiara, Kabupaten Alor, Nusa Tenggara Tim.","Kabupaten Alor, Nusa Tenggara Tim.",NUSA TENGGARA TIMUR,,Indonesia,,,,-82.114.421,1.245.618.588,https://maps.google.com/?cid=0x0:0x423f09fbf0e1baf7,
toko bangunan,Toko Bahan Bangunan,ISTANA BANGUNAN,"QGJ8+P2C, Jl. K. Satsui Tubun, Binongko, Kec. Tlk. Mutiara, Kabupaten Alor, Nusa Tenggara Tim.","Kabupaten Alor, Nusa Tenggara Tim.",NUSA TENGGARA TIMUR,,Indonesia,,,,-82.181.752,1.245.150.039,https://maps.google.com/?cid=0x0:0x3a2e53028ccb4724,
toko bangunan,Toko Swalayan,UD.Bangun NUSA,"QGMJ+787, Kalabahi Tengah, Kec. Tlk. Mutiara, Kabupaten Alor, Nusa Tenggara Tim.","Kabupaten Alor, Nusa Tenggara Tim.",NUSA TENGGARA TIMUR,,Indonesia,82266156348,,,-82.168.422,1.245.307.813,https://maps.google.com/?cid=0x0:0x85af7f40ad6cf536,
toko bangunan,Toko Perlengkapan Rumah,ORIENTAL,"QGMC+76G, Jl. Diponegoro, Wetabua, Kec. Tlk. Mutiara, Kabupaten Alor, Nusa Tenggara Tim.","Kabupaten Alor, Nusa Tenggara Tim.",NUSA TENGGARA TIMUR,,Indonesia,,,,-82.168.054,1.245.205.753,https://maps.google.com/?cid=0x0:0x4508afe0419b4600,
toko bangunan,Toko,Daya prima Bangunan,"QHRC+CCM, Jl. Soekarno Hatta, Welai Tim., Kec. Tlk. Mutiara, Kabupaten Alor, Nusa Tenggara Tim.","Kabupaten Alor, Nusa Tenggara Tim.",NUSA TENGGARA TIMUR,,Indonesia,,,,-82.089.143,1.245.710.541,https://maps.google.com/?cid=0x0:0x657f2d9e261cc672,
toko bangunan,toko bangunan,UD Bumi Indah,"QGJ9+FGR, Jl. Ahmad Yani, Kalabahi Kota, Kec. Tlk. Mutiara, Kabupaten Alor, Nusa Tenggara Tim.","Kabupaten Alor, Nusa Tenggara Tim.",NUSA TENGGARA TIMUR,,Indonesia,,,,-82.189.002,1.245.187.436,https://maps.google.com/?cid=0x0:0x8757517a5fd7cfda,
toko bangunan,Toko,Toko Fa. Ombay,"Jl. Ahmad Yani No.2, Kalabahi Kota, Kec. Tlk. Mutiara, Kabupaten Alor, Nusa Tenggara Tim.","Kabupaten Alor, Nusa Tenggara Tim.",NUSA TENGGARA TIMUR,,Indonesia,811382198,,,-8.218.723,1.245.190.302,https://maps.google.com/?cid=0x0:0x272381f338b665cf,
toko bangunan,Toko bahan makanan,VMART,"Jl. Jend. Sudirman, Kalabahi Tim., Kec. Tlk. Mutiara, Kabupaten Alor, Nusa Tenggara Tim.","Kabupaten Alor, Nusa Tenggara Tim.",NUSA TENGGARA TIMUR,,Indonesia,,,,-82.183.922,1.245.362.309,https://maps.google.com/?cid=0x0:0xb0363f409af806c6,
toko bangunan,Bengkel tambal ban,Bengkel Tambal ban GIVEN,"QHP7+HQQ, Jl. Luter Maarang, Welai Tim., Kec. Tlk. Mutiara, Kabupaten Alor, Nusa Tenggara Tim.","Kabupaten Alor, Nusa Tenggara Tim.",NUSA TENGGARA TIMUR,,Indonesia,,,,-82.135.395,1.245.644.937,https://maps.google.com/?cid=0x0:0x3e36e706844ee89e,
toko bangunan,toko bangunan,Kec. Tlk. Mutiara,"Kabupaten Alor, Nusa Tenggara Tim.","Kabupaten Alor, Nusa Tenggara Tim.",NUSA TENGGARA TIMUR,,Indonesia,,,,-82.165.759,1.245.218.191,https://maps.google.com/?cid=0x0:0x36ef9ebbaaa54623,
toko bangunan,Toko Perlengkapan Rumah,Toko Bangunan Champion,"QGMX+63R, Mutiara, Kec. Tlk. Mutiara, Kabupaten Alor, Nusa Tenggara Tim.","Kabupaten Alor, Nusa Tenggara Tim.",NUSA TENGGARA TIMUR,,Indonesia,81338757523,,,-82.168.892,1.245.476.484,https://maps.google.com/?cid=0x0:0x43281458e96c59c8,
toko bangunan,Toko,JAYA BANGUNAN,"Jl. Jend. Sudirman, Kalabahi Tim., Kec. Tlk. Mutiara, Kabupaten Alor, Nusa Tenggara Tim.","Kabupaten Alor, Nusa Tenggara Tim.",NUSA TENGGARA TIMUR,,Indonesia,81332358999,,,-82.175.091,1.245.342.652,https://maps.google.com/?cid=0x0:0x2d8b71dd71fb717e,
toko bangunan,Toko,Toko lancar bangunan,"QHQ6+CPH, Welai Tim., Kec. Tlk. Mutiara, Kabupaten Alor, Nusa Tenggara Tim.","Kabupaten Alor, Nusa Tenggara Tim.",NUSA TENGGARA TIMUR,,Indonesia,,,,-82.114.421,1.245.618.588,https://maps.google.com/?cid=0x0:0x423f09fbf0e1baf7,
toko bangunan,Toko Bahan Bangunan,ISTANA BANGUNAN,"QGJ8+P2C, Jl. K. Satsui Tubun, Binongko, Kec. Tlk. Mutiara, Kabupaten Alor, Nusa Tenggara Tim.","Kabupaten Alor, Nusa Tenggara Tim.",NUSA TENGGARA TIMUR,,Indonesia,,,,-82.181.752,1.245.150.039,https://maps.google.com/?cid=0x0:0x3a2e53028ccb4724,
toko bangunan,Toko,Daya prima Bangunan,"QHRC+CCM, Jl. Soekarno Hatta, Welai Tim., Kec. Tlk. Mutiara, Kabupaten Alor, Nusa Tenggara Tim.","Kabupaten Alor, Nusa Tenggara Tim.",NUSA TENGGARA TIMUR,,Indonesia,,,,-82.089.143,1.245.710.541,https://maps.google.com/?cid=0x0:0x657f2d9e261cc672,
toko bangunan,Toko Perlengkapan Rumah,ORIENTAL,"QGMC+76G, Jl. Diponegoro, Wetabua, Kec. Tlk. Mutiara, Kabupaten Alor, Nusa Tenggara Tim.","Kabupaten Alor, Nusa Tenggara Tim.",NUSA TENGGARA TIMUR,,Indonesia,,,,-82.168.054,1.245.205.753,https://maps.google.com/?cid=0x0:0x4508afe0419b4600,
toko bangunan,toko bangunan,UD Bumi Indah,"QGJ9+FGR, Jl. Ahmad Yani, Kalabahi Kota, Kec. Tlk. Mutiara, Kabupaten Alor, Nusa Tenggara Tim.","Kabupaten Alor, Nusa Tenggara Tim.",NUSA TENGGARA TIMUR,,Indonesia,,,,-82.189.002,1.245.187.436,https://maps.google.com/?cid=0x0:0x8757517a5fd7cfda,
toko bangunan,Toko Swalayan,UD.Bangun NUSA,"QGMJ+787, Kalabahi Tengah, Kec. Tlk. Mutiara, Kabupaten Alor, Nusa Tenggara Tim.","Kabupaten Alor, Nusa Tenggara Tim.",NUSA TENGGARA TIMUR,,Indonesia,82266156348,,,-82.168.422,1.245.307.813,https://maps.google.com/?cid=0x0:0x85af7f40ad6cf536,
toko bangunan,Toko,Toko Fa. Ombay,"Jl. Ahmad Yani No.2, Kalabahi Kota, Kec. Tlk. Mutiara, Kabupaten Alor, Nusa Tenggara Tim.","Kabupaten Alor, Nusa Tenggara Tim.",NUSA TENGGARA TIMUR,,Indonesia,811382198,,,-8.218.723,1.245.190.302,https://maps.google.com/?cid=0x0:0x272381f338b665cf,
toko bangunan,Toko bahan makanan,VMART,"Jl. Jend. Sudirman, Kalabahi Tim., Kec. Tlk. Mutiara, Kabupaten Alor, Nusa Tenggara Tim.","Kabupaten Alor, Nusa Tenggara Tim.",NUSA TENGGARA TIMUR,,Indonesia,,,,-82.183.922,1.245.362.309,https://maps.google.com/?cid=0x0:0xb0363f409af806c6,
toko bangunan,Bengkel tambal ban,Bengkel Tambal ban GIVEN,"QHP7+HQQ, Jl. Luter Maarang, Welai Tim., Kec. Tlk. Mutiara, Kabupaten Alor, Nusa Tenggara Tim.","Kabupaten Alor, Nusa Tenggara Tim.",NUSA TENGGARA TIMUR,,Indonesia,,,,-82.135.395,1.245.644.937,https://maps.google.com/?cid=0x0:0x3e36e706844ee89e,
toko bangunan,toko bangunan,Kec. Tlk. Mutiara,"Kabupaten Alor, Nusa Tenggara Tim.","Kabupaten Alor, Nusa Tenggara Tim.",NUSA TENGGARA TIMUR,,Indonesia,,,,-82.165.759,1.245.218.191,https://maps.google.com/?cid=0x0:0x36ef9ebbaaa54623,
toko bangunan,Toko,JAYA BANGUNAN,"Jl. Jend. Sudirman, Kalabahi Tim., Kec. Tlk. Mutiara, Kabupaten Alor, Nusa Tenggara Tim.","Kabupaten Alor, Nusa Tenggara Tim.",NUSA TENGGARA TIMUR,,Indonesia,81332358999,,,-82.175.091,1.245.342.652,https://maps.google.com/?cid=0x0:0x2d8b71dd71fb717e,
toko bangunan,Toko Perlengkapan Rumah,Toko Bangunan Champion,"QGMX+63R, Mutiara, Kec. Tlk. Mutiara, Kabupaten Alor, Nusa Tenggara Tim.","Kabupaten Alor, Nusa Tenggara Tim.",NUSA TENGGARA TIMUR,,Indonesia,81338757523,,,-82.168.892,1.245.476.484,https://maps.google.com/?cid=0x0:0x43281458e96c59c8,
toko bangunan,Toko,Toko lancar bangunan,"QHQ6+CPH, Welai Tim., Kec. Tlk. Mutiara, Kabupaten Alor, Nusa Tenggara Tim.","Kabupaten Alor, Nusa Tenggara Tim.",NUSA TENGGARA TIMUR,,Indonesia,,,,-82.114.421,1.245.618.588,https://maps.google.com/?cid=0x0:0x423f09fbf0e1baf7,
toko bangunan,Toko Bahan Bangunan,ISTANA BANGUNAN,"QGJ8+P2C, Jl. K. Satsui Tubun, Binongko, Kec. Tlk. Mutiara, Kabupaten Alor, Nusa Tenggara Tim.","Kabupaten Alor, Nusa Tenggara Tim.",NUSA TENGGARA TIMUR,,Indonesia,,,,-82.181.752,1.245.150.039,https://maps.google.com/?cid=0x0:0x3a2e53028ccb4724,
toko bangunan,Toko Swalayan,UD.Bangun NUSA,"QGMJ+787, Kalabahi Tengah, Kec. Tlk. Mutiara, Kabupaten Alor, Nusa Tenggara Tim.","Kabupaten Alor, Nusa Tenggara Tim.",NUSA TENGGARA TIMUR,,Indonesia,82266156348,,,-82.168.422,1.245.307.813,https://maps.google.com/?cid=0x0:0x85af7f40ad6cf536,
toko bangunan,toko bangunan,Sentral Bangunan,"Jl. Diponegoro No.26, Wetabua, Kec. Tlk. Mutiara, Kabupaten Alor, Nusa Tenggara Tim.","Kabupaten Alor, Nusa Tenggara Tim.",NUSA TENGGARA TIMUR,,Indonesia,,,,-82.164.542,1.245.249.061,https://maps.google.com/?cid=0x0:0x724d02bb907b9962,
toko bangunan,toko bangunan,Toko Bangunan Berlian Indah,"QGMC+8CP, Jl. Dewi Sartika, Wetabua, Kec. Tlk. Mutiara, Kabupaten Alor, Nusa Tenggara Tim.","Kabupaten Alor, Nusa Tenggara Tim.",NUSA TENGGARA TIMUR,,Indonesia,,,,-82.166.676,1.245.210.928,https://maps.google.com/?cid=0x0:0x90df40bb42662082,
toko bangunan,Toko,Daya prima Bangunan,"QHRC+CCM, Jl. Soekarno Hatta, Welai Tim., Kec. Tlk. Mutiara, Kabupaten Alor, Nusa Tenggara Tim.","Kabupaten Alor, Nusa Tenggara Tim.",NUSA TENGGARA TIMUR,,Indonesia,,,,-82.089.143,1.245.710.541,https://maps.google.com/?cid=0x0:0x657f2d9e261cc672,
toko bangunan,toko bangunan,UD Bumi Indah,"QGJ9+FGR, Jl. Ahmad Yani, Kalabahi Kota, Kec. Tlk. Mutiara, Kabupaten Alor, Nusa Tenggara Tim.","Kabupaten Alor, Nusa Tenggara Tim.",NUSA TENGGARA TIMUR,,Indonesia,,,,-82.189.002,1.245.187.436,https://maps.google.com/?cid=0x0:0x8757517a5fd7cfda,
toko bangunan,Toko Perlengkapan Rumah,ORIENTAL,"QGMC+76G, Jl. Diponegoro, Wetabua, Kec. Tlk. Mutiara, Kabupaten Alor, Nusa Tenggara Tim.","Kabupaten Alor, Nusa Tenggara Tim.",NUSA TENGGARA TIMUR,,Indonesia,,,,-82.168.054,1.245.205.753,https://maps.google.com/?cid=0x0:0x4508afe0419b4600,
toko bangunan,Toko bahan makanan,VMART,"Jl. Jend. Sudirman, Kalabahi Tim., Kec. Tlk. Mutiara, Kabupaten Alor, Nusa Tenggara Tim.","Kabupaten Alor, Nusa Tenggara Tim.",NUSA TENGGARA TIMUR,,Indonesia,,,,-82.183.922,1.245.362.309,https://maps.google.com/?cid=0x0:0xb0363f409af806c6,
toko bangunan,Bengkel tambal ban,Bengkel Tambal ban GIVEN,"QHP7+HQQ, Jl. Luter Maarang, Welai Tim., Kec. Tlk. Mutiara, Kabupaten Alor, Nusa Tenggara Tim.","Kabupaten Alor, Nusa Tenggara Tim.",NUSA TENGGARA TIMUR,,Indonesia,,,,-82.135.395,1.245.644.937,https://maps.google.com/?cid=0x0:0x3e36e706844ee89e,
toko bangunan,Toko,Toko Fa. Ombay,"Jl. Ahmad Yani No.2, Kalabahi Kota, Kec. Tlk. Mutiara, Kabupaten Alor, Nusa Tenggara Tim.","Kabupaten Alor, Nusa Tenggara Tim.",NUSA TENGGARA TIMUR,,Indonesia,811382198,,,-8.218.723,1.245.190.302,https://maps.google.com/?cid=0x0:0x272381f338b665cf,
toko bangunan,toko bangunan,Kilatok,"QH72+2C, Fanating, Kec. Tlk. Mutiara, Kabupaten Alor, Nusa Tenggara Tim.","Kabupaten Alor, Nusa Tenggara Tim.",NUSA TENGGARA TIMUR,,Indonesia,,,,-82.328.734,1.245.438.732,https://maps.google.com/?cid=0x0:0x47fe97b143043d91,
toko bangunan,toko bangunan,Kec. Tlk. Mutiara,"Kabupaten Alor, Nusa Tenggara Tim.","Kabupaten Alor, Nusa Tenggara Tim.",NUSA TENGGARA TIMUR,,Indonesia,,,,-82.165.759,1.245.218.191,https://maps.google.com/?cid=0x0:0x36ef9ebbaaa54623,
toko bangunan,Toko,JAYA BANGUNAN,"Jl. Jend. Sudirman, Kalabahi Tim., Kec. Tlk. Mutiara, Kabupaten Alor, Nusa Tenggara Tim.","Kabupaten Alor, Nusa Tenggara Tim.",NUSA TENGGARA TIMUR,,Indonesia,81332358999,,,-82.175.091,1.245.342.652,https://maps.google.com/?cid=0x0:0x2d8b71dd71fb717e,
toko bangunan,Toko Perlengkapan Rumah,Toko Bangunan Champion,"QGMX+63R, Mutiara, Kec. Tlk. Mutiara, Kabupaten Alor, Nusa Tenggara Tim.","Kabupaten Alor, Nusa Tenggara Tim.",NUSA TENGGARA TIMUR,,Indonesia,81338757523,,,-82.168.892,1.245.476.484,https://maps.google.com/?cid=0x0:0x43281458e96c59c8,
toko bangunan,Toko Bahan Bangunan,ISTANA BANGUNAN,"QGJ8+P2C, Jl. K. Satsui Tubun, Binongko, Kec. Tlk. Mutiara, Kabupaten Alor, Nusa Tenggara Tim.","Kabupaten Alor, Nusa Tenggara Tim.",NUSA TENGGARA TIMUR,,Indonesia,,,,-82.181.752,1.245.150.039,https://maps.google.com/?cid=0x0:0x3a2e53028ccb4724,
toko bangunan,Toko,Toko lancar bangunan,"QHQ6+CPH, Welai Tim., Kec. Tlk. Mutiara, Kabupaten Alor, Nusa Tenggara Tim.","Kabupaten Alor, Nusa Tenggara Tim.",NUSA TENGGARA TIMUR,,Indonesia,,,,-82.114.421,1.245.618.588,https://maps.google.com/?cid=0x0:0x423f09fbf0e1baf7,
toko bangunan,Toko,Daya prima Bangunan,"QHRC+CCM, Jl. Soekarno Hatta, Welai Tim., Kec. Tlk. Mutiara, Kabupaten Alor, Nusa Tenggara Tim.","Kabupaten Alor, Nusa Tenggara Tim.",NUSA TENGGARA TIMUR,,Indonesia,,,,-82.089.143,1.245.710.541,https://maps.google.com/?cid=0x0:0x657f2d9e261cc672,
toko bangunan,Toko Perlengkapan Rumah,ORIENTAL,"QGMC+76G, Jl. Diponegoro, Wetabua, Kec. Tlk. Mutiara, Kabupaten Alor, Nusa Tenggara Tim.","Kabupaten Alor, Nusa Tenggara Tim.",NUSA TENGGARA TIMUR,,Indonesia,,,,-82.168.054,1.245.205.753,https://maps.google.com/?cid=0x0:0x4508afe0419b4600,
toko bangunan,toko bangunan,UD Bumi Indah,"QGJ9+FGR, Jl. Ahmad Yani, Kalabahi Kota, Kec. Tlk. Mutiara, Kabupaten Alor, Nusa Tenggara Tim.","Kabupaten Alor, Nusa Tenggara Tim.",NUSA TENGGARA TIMUR,,Indonesia,,,,-82.189.002,1.245.187.436,https://maps.google.com/?cid=0x0:0x8757517a5fd7cfda,
toko bangunan,Toko Swalayan,UD.Bangun NUSA,"QGMJ+787, Kalabahi Tengah, Kec. Tlk. Mutiara, Kabupaten Alor, Nusa Tenggara Tim.","Kabupaten Alor, Nusa Tenggara Tim.",NUSA TENGGARA TIMUR,,Indonesia,82266156348,,,-82.168.422,1.245.307.813,https://maps.google.com/?cid=0x0:0x85af7f40ad6cf536,
toko bangunan,Toko bahan makanan,VMART,"Jl. Jend. Sudirman, Kalabahi Tim., Kec. Tlk. Mutiara, Kabupaten Alor, Nusa Tenggara Tim.","Kabupaten Alor, Nusa Tenggara Tim.",NUSA TENGGARA TIMUR,,Indonesia,,,,-82.183.922,1.245.362.309,https://maps.google.com/?cid=0x0:0xb0363f409af806c6,
toko bangunan,Toko,Toko Fa. Ombay,"Jl. Ahmad Yani No.2, Kalabahi Kota, Kec. Tlk. Mutiara, Kabupaten Alor, Nusa Tenggara Tim.","Kabupaten Alor, Nusa Tenggara Tim.",NUSA TENGGARA TIMUR,,Indonesia,811382198,,,-8.218.723,1.245.190.302,https://maps.google.com/?cid=0x0:0x272381f338b665cf,
toko bangunan,Bengkel tambal ban,Bengkel Tambal ban GIVEN,"QHP7+HQQ, Jl. Luter Maarang, Welai Tim., Kec. Tlk. Mutiara, Kabupaten Alor, Nusa Tenggara Tim.","Kabupaten Alor, Nusa Tenggara Tim.",NUSA TENGGARA TIMUR,,Indonesia,,,,-82.135.395,1.245.644.937,https://maps.google.com/?cid=0x0:0x3e36e706844ee89e,
toko bangunan,toko bangunan,Toko Bangunan Berlian Indah,"QGMC+8CP, Jl. Dewi Sartika, Wetabua, Kec. Tlk. Mutiara, Kabupaten Alor, Nusa Tenggara Tim.","Kabupaten Alor, Nusa Tenggara Tim.",NUSA TENGGARA TIMUR,,Indonesia,,,,-82.166.676,1.245.210.928,https://maps.google.com/?cid=0x0:0x90df40bb42662082,
toko bangunan,toko bangunan,Sentral Bangunan,"Jl. Diponegoro No.26, Wetabua, Kec. Tlk. Mutiara, Kabupaten Alor, Nusa Tenggara Tim.","Kabupaten Alor, Nusa Tenggara Tim.",NUSA TENGGARA TIMUR,,Indonesia,,,,-82.164.542,1.245.249.061,https://maps.google.com/?cid=0x0:0x724d02bb907b9962,
toko bangunan,toko bangunan,Kilatok,"QH72+2C, Fanating, Kec. Tlk. Mutiara, Kabupaten Alor, Nusa Tenggara Tim.","Kabupaten Alor, Nusa Tenggara Tim.",NUSA TENGGARA TIMUR,,Indonesia,,,,-82.328.734,1.245.438.732,https://maps.google.com/?cid=0x0:0x47fe97b143043d91,
toko bangunan,toko bangunan,Kec. Tlk. Mutiara,"Kabupaten Alor, Nusa Tenggara Tim.","Kabupaten Alor, Nusa Tenggara Tim.",NUSA TENGGARA TIMUR,,Indonesia,,,,-82.165.759,1.245.218.191,https://maps.google.com/?cid=0x0:0x36ef9ebbaaa54623,
toko bangunan,Toko,JAYA BANGUNAN,"Jl. Jend. Sudirman, Kalabahi Tim., Kec. Tlk. Mutiara, Kabupaten Alor, Nusa Tenggara Tim.","Kabupaten Alor, Nusa Tenggara Tim.",NUSA TENGGARA TIMUR,,Indonesia,81332358999,,,-82.175.091,1.245.342.652,https://maps.google.com/?cid=0x0:0x2d8b71dd71fb717e,
toko bangunan,Toko Perlengkapan Rumah,Toko Bangunan Champion,"QGMX+63R, Mutiara, Kec. Tlk. Mutiara, Kabupaten Alor, Nusa Tenggara Tim.","Kabupaten Alor, Nusa Tenggara Tim.",NUSA TENGGARA TIMUR,,Indonesia,81338757523,,,-82.168.892,1.245.476.484,https://maps.google.com/?cid=0x0:0x43281458e96c59c8,
toko bangunan,Toko Bahan Bangunan,ISTANA BANGUNAN,"QGJ8+P2C, Jl. K. Satsui Tubun, Binongko, Kec. Tlk. Mutiara, Kabupaten Alor, Nusa Tenggara Tim.","Kabupaten Alor, Nusa Tenggara Tim.",NUSA TENGGARA TIMUR,,Indonesia,,,,-82.181.752,1.245.150.039,https://maps.google.com/?cid=0x0:0x3a2e53028ccb4724,
toko bangunan,Toko,Toko lancar bangunan,"QHQ6+CPH, Welai Tim., Kec. Tlk. Mutiara, Kabupaten Alor, Nusa Tenggara Tim.","Kabupaten Alor, Nusa Tenggara Tim.",NUSA TENGGARA TIMUR,,Indonesia,,,,-82.114.421,1.245.618.588,https://maps.google.com/?cid=0x0:0x423f09fbf0e1baf7,
toko bangunan,Toko,Daya prima Bangunan,"QHRC+CCM, Jl. Soekarno Hatta, Welai Tim., Kec. Tlk. Mutiara, Kabupaten Alor, Nusa Tenggara Tim.","Kabupaten Alor, Nusa Tenggara Tim.",NUSA TENGGARA TIMUR,,Indonesia,,,,-82.089.143,1.245.710.541,https://maps.google.com/?cid=0x0:0x657f2d9e261cc672,
toko bangunan,Toko Perlengkapan Rumah,ORIENTAL,"QGMC+76G, Jl. Diponegoro, Wetabua, Kec. Tlk. Mutiara, Kabupaten Alor, Nusa Tenggara Tim.","Kabupaten Alor, Nusa Tenggara Tim.",NUSA TENGGARA TIMUR,,Indonesia,,,,-82.168.054,1.245.205.753,https://maps.google.com/?cid=0x0:0x4508afe0419b4600,
toko bangunan,Toko Perlengkapan Rumah,Toko DC,"QGJP+PJC, Kalabahi Tim., Kec. Tlk. Mutiara, Kabupaten Alor, Nusa Tenggara Tim.","Kabupaten Alor, Nusa Tenggara Tim.",NUSA TENGGARA TIMUR,,Indonesia,3862222465,,,-82.181.772,1.245.365.158,https://maps.google.com/?cid=0x0:0x9825952a0df4e713,
toko bangunan,toko bangunan,UD Bumi Indah,"QGJ9+FGR, Jl. Ahmad Yani, Kalabahi Kota, Kec. Tlk. Mutiara, Kabupaten Alor, Nusa Tenggara Tim.","Kabupaten Alor, Nusa Tenggara Tim.",NUSA TENGGARA TIMUR,,Indonesia,,,,-82.189.002,1.245.187.436,https://maps.google.com/?cid=0x0:0x8757517a5fd7cfda,
toko bangunan,Toko Swalayan,UD.Bangun NUSA,"QGMJ+787, Kalabahi Tengah, Kec. Tlk. Mutiara, Kabupaten Alor, Nusa Tenggara Tim.","Kabupaten Alor, Nusa Tenggara Tim.",NUSA TENGGARA TIMUR,,Indonesia,82266156348,,,-82.168.422,1.245.307.813,https://maps.google.com/?cid=0x0:0x85af7f40ad6cf536,
toko bangunan,Toko bahan makanan,VMART,"Jl. Jend. Sudirman, Kalabahi Tim., Kec. Tlk. Mutiara, Kabupaten Alor, Nusa Tenggara Tim.","Kabupaten Alor, Nusa Tenggara Tim.",NUSA TENGGARA TIMUR,,Indonesia,,,,-82.183.922,1.245.362.309,https://maps.google.com/?cid=0x0:0xb0363f409af806c6,
toko bangunan,Toko,Toko Fa. Ombay,"Jl. Ahmad Yani No.2, Kalabahi Kota, Kec. Tlk. Mutiara, Kabupaten Alor, Nusa Tenggara Tim.","Kabupaten Alor, Nusa Tenggara Tim.",NUSA TENGGARA TIMUR,,Indonesia,811382198,,,-8.218.723,1.245.190.302,https://maps.google.com/?cid=0x0:0x272381f338b665cf,
toko bangunan,Toko Bahan Bangunan,TOKO MUTIARA BANGUNAN,"JALAN R. W. MONGINSIDI Jl. Boanawa, Kel. Mbongawani, Kec. Ende Sel., Kabupaten Ende, Nusa Tenggara Tim. 86318","Kel. Mbongawani, Kec. Ende Sel., Kabupaten Ende",NUSA TENGGARA TIMUR,86318.0,Indonesia,82342055794,,,-88.505.091,121.649.829,https://maps.google.com/?cid=0x0:0xd3b67f3d4b660364,
toko bangunan,Minimarket,Qiifan mart,"Watamelang, Jl. Sam Ratulangi, RT.002/RW.001, Mutiara, Kec. Tlk. Mutiara, Kabupaten Alor, Nusa Tenggara Tim.","Kabupaten Alor, Nusa Tenggara Tim.",NUSA TENGGARA TIMUR,,Indonesia,81237253624,,,-82.142.377,124.551.843,https://maps.google.com/?cid=0x0:0x3226d848e28e0cc4,
toko bangunan,Toko Elektronik,Toko Aron,"QGMG+9J4, Jl. Jend. Sudirman, Wetabua, Kec. Tlk. Mutiara, Kabupaten Alor, Nusa Tenggara Tim.","Kabupaten Alor, Nusa Tenggara Tim.",NUSA TENGGARA TIMUR,,Indonesia,38621643,,,-82.166.214,1.245.265.672,https://maps.google.com/?cid=0x0:0xb085e7e6955c898a,
toko bangunan,Bengkel tambal ban,Bengkel Tambal ban GIVEN,"QHP7+HQQ, Jl. Luter Maarang, Welai Tim., Kec. Tlk. Mutiara, Kabupaten Alor, Nusa Tenggara Tim.","Kabupaten Alor, Nusa Tenggara Tim.",NUSA TENGGARA TIMUR,,Indonesia,,,,-82.135.395,1.245.644.937,https://maps.google.com/?cid=0x0:0x3e36e706844ee89e,
toko bangunan,toko bangunan,Sentral Bangunan,"Jl. Diponegoro No.26, Wetabua, Kec. Tlk. Mutiara, Kabupaten Alor, Nusa Tenggara Tim.","Kabupaten Alor, Nusa Tenggara Tim.",NUSA TENGGARA TIMUR,,Indonesia,,,,-82.164.542,1.245.249.061,https://maps.google.com/?cid=0x0:0x724d02bb907b9962,
toko bangunan,toko bangunan,Toko Bangunan Berlian Indah,"QGMC+8CP, Jl. Dewi Sartika, Wetabua, Kec. Tlk. Mutiara, Kabupaten Alor, Nusa Tenggara Tim.","Kabupaten Alor, Nusa Tenggara Tim.",NUSA TENGGARA TIMUR,,Indonesia,,,,-82.166.676,1.245.210.928,https://maps.google.com/?cid=0x0:0x90df40bb42662082,
toko bangunan,toko bangunan,Kec. Tlk. Mutiara,"Kabupaten Alor, Nusa Tenggara Tim.","Kabupaten Alor, Nusa Tenggara Tim.",NUSA TENGGARA TIMUR,,Indonesia,,,,-82.165.759,1.245.218.191,https://maps.google.com/?cid=0x0:0x36ef9ebbaaa54623,
toko bangunan,Toko,JAYA BANGUNAN,"Jl. Jend. Sudirman, Kalabahi Tim., Kec. Tlk. Mutiara, Kabupaten Alor, Nusa Tenggara Tim.","Kabupaten Alor, Nusa Tenggara Tim.",NUSA TENGGARA TIMUR,,Indonesia,81332358999,,,-82.175.091,1.245.342.652,https://maps.google.com/?cid=0x0:0x2d8b71dd71fb717e,
toko bangunan,Toko Perlengkapan Rumah,Toko Bangunan Champion,"QGMX+63R, Mutiara, Kec. Tlk. Mutiara, Kabupaten Alor, Nusa Tenggara Tim.","Kabupaten Alor, Nusa Tenggara Tim.",NUSA TENGGARA TIMUR,,Indonesia,81338757523,,,-82.168.892,1.245.476.484,https://maps.google.com/?cid=0x0:0x43281458e96c59c8,
toko bangunan,Toko,Toko lancar bangunan,"QHQ6+CPH, Welai Tim., Kec. Tlk. Mutiara, Kabupaten Alor, Nusa Tenggara Tim.","Kabupaten Alor, Nusa Tenggara Tim.",NUSA TENGGARA TIMUR,,Indonesia,,,,-82.114.421,1.245.618.588,https://maps.google.com/?cid=0x0:0x423f09fbf0e1baf7,
toko bangunan,Toko Bahan Bangunan,ISTANA BANGUNAN,"QGJ8+P2C, Jl. K. Satsui Tubun, Binongko, Kec. Tlk. Mutiara, Kabupaten Alor, Nusa Tenggara Tim.","Kabupaten Alor, Nusa Tenggara Tim.",NUSA TENGGARA TIMUR,,Indonesia,,,,-82.181.752,1.245.150.039,https://maps.google.com/?cid=0x0:0x3a2e53028ccb4724,
toko bangunan,toko bangunan,UD Bumi Indah,"QGJ9+FGR, Jl. Ahmad Yani, Kalabahi Kota, Kec. Tlk. Mutiara, Kabupaten Alor, Nusa Tenggara Tim.","Kabupaten Alor, Nusa Tenggara Tim.",NUSA TENGGARA TIMUR,,Indonesia,,,,-82.189.002,1.245.187.436,https://maps.google.com/?cid=0x0:0x8757517a5fd7cfda,
toko bangunan,Toko Swalayan,UD.Bangun NUSA,"QGMJ+787, Kalabahi Tengah, Kec. Tlk. Mutiara, Kabupaten Alor, Nusa Tenggara Tim.","Kabupaten Alor, Nusa Tenggara Tim.",NUSA TENGGARA TIMUR,,Indonesia,82266156348,,,-82.168.422,1.245.307.813,https://maps.google.com/?cid=0x0:0x85af7f40ad6cf536,
toko bangunan,toko bangunan,Toko Bangunan Berlian Indah,"QGMC+8CP, Jl. Dewi Sartika, Wetabua, Kec. Tlk. Mutiara, Kabupaten Alor, Nusa Tenggara Tim.","Kabupaten Alor, Nusa Tenggara Tim.",NUSA TENGGARA TIMUR,,Indonesia,,,,-82.166.676,1.245.210.928,https://maps.google.com/?cid=0x0:0x90df40bb42662082,
toko bangunan,toko bangunan,Sentral Bangunan,"Jl. Diponegoro No.26, Wetabua, Kec. Tlk. Mutiara, Kabupaten Alor, Nusa Tenggara Tim.","Kabupaten Alor, Nusa Tenggara Tim.",NUSA TENGGARA TIMUR,,Indonesia,,,,-82.164.542,1.245.249.061,https://maps.google.com/?cid=0x0:0x724d02bb907b9962,
toko bangunan,Toko,Daya prima Bangunan,"QHRC+CCM, Jl. Soekarno Hatta, Welai Tim., Kec. Tlk. Mutiara, Kabupaten Alor, Nusa Tenggara Tim.","Kabupaten Alor, Nusa Tenggara Tim.",NUSA TENGGARA TIMUR,,Indonesia,,,,-82.089.143,1.245.710.541,https://maps.google.com/?cid=0x0:0x657f2d9e261cc672,
toko bangunan,Toko Perlengkapan Rumah,ORIENTAL,"QGMC+76G, Jl. Diponegoro, Wetabua, Kec. Tlk. Mutiara, Kabupaten Alor, Nusa Tenggara Tim.","Kabupaten Alor, Nusa Tenggara Tim.",NUSA TENGGARA TIMUR,,Indonesia,,,,-82.168.054,1.245.205.753,https://maps.google.com/?cid=0x0:0x4508afe0419b4600,
toko bangunan,Toko,Toko Fa. Ombay,"Jl. Ahmad Yani No.2, Kalabahi Kota, Kec. Tlk. Mutiara, Kabupaten Alor, Nusa Tenggara Tim.","Kabupaten Alor, Nusa Tenggara Tim.",NUSA TENGGARA TIMUR,,Indonesia,811382198,,,-8.218.723,1.245.190.302,https://maps.google.com/?cid=0x0:0x272381f338b665cf,
toko bangunan,Toko bahan makanan,VMART,"Jl. Jend. Sudirman, Kalabahi Tim., Kec. Tlk. Mutiara, Kabupaten Alor, Nusa Tenggara Tim.","Kabupaten Alor, Nusa Tenggara Tim.",NUSA TENGGARA TIMUR,,Indonesia,,,,-82.183.922,1.245.362.309,https://maps.google.com/?cid=0x0:0xb0363f409af806c6,
toko bangunan,Bengkel tambal ban,Bengkel Tambal ban GIVEN,"QHP7+HQQ, Jl. Luter Maarang, Welai Tim., Kec. Tlk. Mutiara, Kabupaten Alor, Nusa Tenggara Tim.","Kabupaten Alor, Nusa Tenggara Tim.",NUSA TENGGARA TIMUR,,Indonesia,,,,-82.135.395,1.245.644.937,https://maps.google.com/?cid=0x0:0x3e36e706844ee89e,
toko bangunan,toko bangunan,Kec. Alor Sel.,"Kabupaten Alor, Nusa Tenggara Tim.","Kabupaten Alor, Nusa Tenggara Tim.",NUSA TENGGARA TIMUR,,Indonesia,,,,-82.772.741,1.247.031.128,https://maps.google.com/?cid=0x0:0x98e9b8edc3d2f7d,
toko bangunan,Toko Perlengkapan Rumah,Toko Bangunan Champion,"QGMX+63R, Mutiara, Kec. Tlk. Mutiara, Kabupaten Alor, Nusa Tenggara Tim.","Kabupaten Alor, Nusa Tenggara Tim.",NUSA TENGGARA TIMUR,,Indonesia,81338757523,,,-82.168.892,1.245.476.484,https://maps.google.com/?cid=0x0:0x43281458e96c59c8,
toko bangunan,Toko,Toko lancar bangunan,"QHQ6+CPH, Welai Tim., Kec. Tlk. Mutiara, Kabupaten Alor, Nusa Tenggara Tim.","Kabupaten Alor, Nusa Tenggara Tim.",NUSA TENGGARA TIMUR,,Indonesia,,,,-82.114.421,1.245.618.588,https://maps.google.com/?cid=0x0:0x423f09fbf0e1baf7,
toko bangunan,Pusat Perbelanjaan,Sinar Kencana Alor - Toko Bangunan,"Jl. Jend. Sudirman, Kalabahi Kota, Kec. Tlk. Mutiara, Kabupaten Alor, Nusa Tenggara Tim.","Kabupaten Alor, Nusa Tenggara Tim.",NUSA TENGGARA TIMUR,,Indonesia,82228000848,,,-82.165.322,1.245.274.066,https://maps.google.com/?cid=0x0:0xf8954eac934992e1,
toko bangunan,Toko,Daya prima Bangunan,"QHRC+CCM, Jl. Soekarno Hatta, Welai Tim., Kec. Tlk. Mutiara, Kabupaten Alor, Nusa Tenggara Tim.","Kabupaten Alor, Nusa Tenggara Tim.",NUSA TENGGARA TIMUR,,Indonesia,,,,-82.089.143,1.245.710.541,https://maps.google.com/?cid=0x0:0x657f2d9e261cc672,
toko bangunan,Toko Bahan Bangunan,ISTANA BANGUNAN,"QGJ8+P2C, Jl. K. Satsui Tubun, Binongko, Kec. Tlk. Mutiara, Kabupaten Alor, Nusa Tenggara Tim.","Kabupaten Alor, Nusa Tenggara Tim.",NUSA TENGGARA TIMUR,,Indonesia,,,,-82.181.752,1.245.150.039,https://maps.google.com/?cid=0x0:0x3a2e53028ccb4724,
toko bangunan,Toko Perlengkapan Rumah,ORIENTAL,"QGMC+76G, Jl. Diponegoro, Wetabua, Kec. Tlk. Mutiara, Kabupaten Alor, Nusa Tenggara Tim.","Kabupaten Alor, Nusa Tenggara Tim.",NUSA TENGGARA TIMUR,,Indonesia,,,,-82.168.054,1.245.205.753,https://maps.google.com/?cid=0x0:0x4508afe0419b4600,
toko bangunan,toko bangunan,UD Bumi Indah,"QGJ9+FGR, Jl. Ahmad Yani, Kalabahi Kota, Kec. Tlk. Mutiara, Kabupaten Alor, Nusa Tenggara Tim.","Kabupaten Alor, Nusa Tenggara Tim.",NUSA TENGGARA TIMUR,,Indonesia,,,,-82.189.002,1.245.187.436,https://maps.google.com/?cid=0x0:0x8757517a5fd7cfda,
toko bangunan,Toko bahan makanan,VMART,"Jl. Jend. Sudirman, Kalabahi Tim., Kec. Tlk. Mutiara, Kabupaten Alor, Nusa Tenggara Tim.","Kabupaten Alor, Nusa Tenggara Tim.",NUSA TENGGARA TIMUR,,Indonesia,,,,-82.183.922,1.245.362.309,https://maps.google.com/?cid=0x0:0xb0363f409af806c6,
toko bangunan,Toko,Toko Fa. Ombay,"Jl. Ahmad Yani No.2, Kalabahi Kota, Kec. Tlk. Mutiara, Kabupaten Alor, Nusa Tenggara Tim.","Kabupaten Alor, Nusa Tenggara Tim.",NUSA TENGGARA TIMUR,,Indonesia,811382198,,,-8.218.723,1.245.190.302,https://maps.google.com/?cid=0x0:0x272381f338b665cf,
toko bangunan,Toko Bahan Bangunan,Toko Roda Bangunan,"VVVX+333, Atambua, Kec. Kota Atambua, Kabupaten Belu, Nusa Tenggara Tim.","Kabupaten Belu, Nusa Tenggara Tim.",NUSA TENGGARA TIMUR,,Indonesia,,,,-91.073.625,1.248.976.836,https://maps.google.com/?cid=0x0:0xfdf308e29f21112,
toko bangunan,Toko Bahan Bangunan,Sinar Bangunan Building Center,"Jl. Bund. PU No.12, Tuak Daun Merah, Kec. Oebobo, Kota Kupang, Nusa Tenggara Tim. 85228","Tuak Daun Merah, Kec. Oebobo, Kota Kupang",NUSA TENGGARA TIMUR,85228.0,Indonesia,81236648694,,,-101.675.355,1.236.289.538,https://maps.google.com/?cid=0x0:0x8b34913a09e207d2,
toko bangunan,Toko Bahan Bangunan,CV. Tujuh Jaya,"723W+C6P, Unnamed Rd, Mokdale, Kec. Lobalain, Kabupaten Rote Ndao, Nusa Tenggara Tim.","Kabupaten Rote Ndao, Nusa Tenggara Tim.",NUSA TENGGARA TIMUR,,Indonesia,,,,-107.464.098,12.304.558,https://maps.google.com/?cid=0x0:0x575a85c650ddf9e4,
toko bangunan,Toko Bahan Bangunan,Toko Material Isto,"MVVF+C9H, Kabupaten BeluRaimanuk, Nusa Tenggara Tim., Mandeu, Kec. Rai Manuk, Kabupaten Belu, Nusa Tenggara Tim.","Kabupaten Belu, Nusa Tenggara Tim.",NUSA TENGGARA TIMUR,,Indonesia,,,,-93.064.484,1.248.734.845,https://maps.google.com/?cid=0x0:0x1e94426a8dd10baf,
toko bangunan,Minimarket,toko hebron,"725V+CW9, Unnamed Rd, Mokdale, Kec. Lobalain, Kabupaten Rote Ndao, Nusa Tenggara Tim.","Kabupaten Rote Ndao, Nusa Tenggara Tim.",NUSA TENGGARA TIMUR,,Indonesia,,,,-107.414.723,1.230.448.675,https://maps.google.com/?cid=0x0:0x699558aa9d2e663a,
toko bangunan,Toko,Toko Duta Bangunan,"VV7W+829, Fatukbot, Kec. Atambua Sel., Kabupaten Belu, Nusa Tenggara Tim.","Kabupaten Belu, Nusa Tenggara Tim.",NUSA TENGGARA TIMUR,,Indonesia,,,,-91.367.051,1.248.951.032,https://maps.google.com/?cid=0x0:0xef0cdf9c9845cd6f,
toko bangunan,Toko Bahan Bangunan,Toko Bravo Bangunan,"Jl. Terusan Timor Raya, Pasir Panjang, Kec. Kota Lama, Kota Kupang, Nusa Tenggara Tim. 85000","Pasir Panjang, Kec. Kota Lama, Kota Kupang",NUSA TENGGARA TIMUR,85000.0,Indonesia,81246295800,,,-101.509.378,1.236.033.391,https://maps.google.com/?cid=0x0:0xdf4da131f9948aff,
toko bangunan,Toko Bahan Bangunan,toko pelangi bangunan,"FVQP+VXF, Goron Talo, Kec. Komodo, Kabupaten Manggarai Barat, Nusa Tenggara Tim.","Kabupaten Manggarai Barat, Nusa Tenggara Tim.",NUSA TENGGARA TIMUR,,Indonesia,82145627171,,,-85.103.078,1.198.874.183,https://maps.google.com/?cid=0x0:0x6f62dc0810d90ac8,
toko bangunan,Bengkel tambal ban,Bengkel Tambal ban GIVEN,"QHP7+HQQ, Jl. Luter Maarang, Welai Tim., Kec. Tlk. Mutiara, Kabupaten Alor, Nusa Tenggara Tim.","Kabupaten Alor, Nusa Tenggara Tim.",NUSA TENGGARA TIMUR,,Indonesia,,,,-82.135.395,1.245.644.937,https://maps.google.com/?cid=0x0:0x3e36e706844ee89e,
