Category,Real Category,Business Name,Address,City,State,Postal Code,Country,Phone,Email,Website,Latitude,Longitude,Map Link,Details Link
perumahan,Komplek perumahan,Alang alor ntt Indonesia,"RCGP+FQ2, Alaang, Kec. Alor Bar. Laut, Kabupaten Alor, Nusa Tenggara Tim.","Kabupaten Alor, Nusa Tenggara Tim.",NUSA TENGGARA TIMUR,,Indonesia,,,,-81.751.298,1.244.368.235,https://maps.google.com/?cid=0x0:0x717edda2e2eefc,
perumahan,perumahan,Kec. Alor Bar. Laut,"Kabupaten Alor, Nusa Tenggara Tim.","Kabupaten Alor, Nusa Tenggara Tim.",NUSA TENGGARA TIMUR,,Indonesia,,,,-81.618.154,1.244.536.235,https://maps.google.com/?cid=0x0:0x8149820c885abe83,
perumahan,Lembaga Swadaya Masyarakat (LSM),Kantor Yayasan WWF Indonesia LSS Alor,"QGQ8+4HH, Kalabahi Kota, Kec. Tlk. Mutiara, Kabupaten Alor, Nusa Tenggara Tim.","Kabupaten Alor, Nusa Tenggara Tim.",NUSA TENGGARA TIMUR,,Indonesia,,,,-82.121.931,1.245.164.757,https://maps.google.com/?cid=0x0:0x7761b9ec10cde542,
perumahan,Pembangunan Perumahan,kalabahi alor,"QGP8+6F4, Kalabahi Kota, Kec. Tlk. Mutiara, Kabupaten Alor, Nusa Tenggara Tim.","Kabupaten Alor, Nusa Tenggara Tim.",NUSA TENGGARA TIMUR,,Indonesia,82145259011,,,-82.144.829,1.245.162.013,https://maps.google.com/?cid=0x0:0xb3c61b1cf859d2f2,
perumahan,Komplek perumahan,Black Home,"QCP3+6W8, Alor Besar, Kec. Alor Bar. Laut, Kabupaten Alor, Nusa Tenggara Tim.","Kabupaten Alor, Nusa Tenggara Tim.",NUSA TENGGARA TIMUR,,Indonesia,,,,-8.215.907,1.244.032.659,https://maps.google.com/?cid=0x0:0x8d901f4d80957b3,
perumahan,Komplek perumahan,MR.D Home,"RC8J+V96, Aimoli, Kec. Alor Bar. Laut, Kabupaten Alor, Nusa Tenggara Tim.","Kabupaten Alor, Nusa Tenggara Tim.",NUSA TENGGARA TIMUR,,Indonesia,,,,-8.182.735,124.430.384,https://maps.google.com/?cid=0x0:0xb452442f27bc0353,
perumahan,Perhimpunan Pengembang Perumahan,Biatabang,"Q9G8+CQX, Ternate Sel., Kec. Alor Bar. Laut, Kabupaten Alor, Nusa Tenggara Tim.","Kabupaten Alor, Nusa Tenggara Tim.",NUSA TENGGARA TIMUR,,Indonesia,,,,-82.238.893,1.243.669.918,https://maps.google.com/?cid=0x0:0x9bf8e6198cd7333f,
perumahan,Komplek perumahan,Simpang Marang,"RF8V+8FF, Otvai, Kec. Alor Bar. Laut, Kabupaten Alor, Nusa Tenggara Tim.","Kabupaten Alor, Nusa Tenggara Tim.",NUSA TENGGARA TIMUR,,Indonesia,,,,-81.841.925,1.244.936.794,https://maps.google.com/?cid=0x0:0x2ede5be5ad054d56,
perumahan,Komplek perumahan,Alor kecil,"PCM6+H29, Alor Kecil, Kec. Alor Bar. Laut, Kabupaten Alor, Nusa Tenggara Tim.","Kabupaten Alor, Nusa Tenggara Tim.",NUSA TENGGARA TIMUR,,Indonesia,,,,-82.660.796,1.244.101.174,https://maps.google.com/?cid=0x0:0xde29b412e74a27e3,
perumahan,Perhimpunan Pengembang Perumahan,OTVAI,"RG22+8C4, Otvai, Kec. Alor Bar. Laut, Kabupaten Alor, Nusa Tenggara Tim.","Kabupaten Alor, Nusa Tenggara Tim.",NUSA TENGGARA TIMUR,,Indonesia,,,,-81.992.479,1.245.010.785,https://maps.google.com/?cid=0x0:0x81a0af5ae3b3fc7b,
perumahan,Pembangunan Perumahan,Miliku,"QF36+GXH, Dulolong, Kec. Alor Bar. Laut, Kabupaten Alor, Nusa Tenggara Tim.","Kabupaten Alor, Nusa Tenggara Tim.",NUSA TENGGARA TIMUR,,Indonesia,,,,-82.461.513,1.244.625.106,https://maps.google.com/?cid=0x0:0x648126cba56b74c4,
perumahan,Komplek perumahan,Rumah Jul Konjo,"PCH5+RQQ, Alor Kecil, Kec. Alor Bar. Laut, Kabupaten Alor, Nusa Tenggara Tim.","Kabupaten Alor, Nusa Tenggara Tim.",NUSA TENGGARA TIMUR,,Indonesia,,,,-82.704.132,1.244.094.858,https://maps.google.com/?cid=0x0:0x58265a66c33278c9,
perumahan,Komplek perumahan,Stiven  prili home,"RF6W+J2J, Otvai, Kec. Alor Bar. Laut, Kabupaten Alor, Nusa Tenggara Tim.","Kabupaten Alor, Nusa Tenggara Tim.",NUSA TENGGARA TIMUR,,Indonesia,,,,-81.884.164,1.244.950.089,https://maps.google.com/?cid=0x0:0x3af6a7091666f70e,
perumahan,Komplek perumahan,Adang,"RFQ2+2QR, Avenz Balol, Adang, Kec. Alor Bar. Laut, Kabupaten Alor, Nusa Tenggara Tim.","Kabupaten Alor, Nusa Tenggara Tim.",NUSA TENGGARA TIMUR,,Indonesia,,,,-81.623.875,1.244.518.906,https://maps.google.com/?cid=0x0:0x56820de9351ecca1,
perumahan,Komplek perumahan,simpang Kompleks ABT,"PGW7+482, Unnamed Road, Moru, Kec. Alor Bar. Laut, Kabupaten Alor, Nusa Tenggara Tim.","Kabupaten Alor, Nusa Tenggara Tim.",NUSA TENGGARA TIMUR,,Indonesia,,,,-82.547.287,1.245.132.534,https://maps.google.com/?cid=0x0:0x848a2ff0722b3385,
perumahan,Pembangunan Perumahan,Sawah Aimoli,"RCFP+528, Aimoli, Kec. Alor Bar. Laut, Kabupaten Alor, Nusa Tenggara Tim.","Kabupaten Alor, Nusa Tenggara Tim.",NUSA TENGGARA TIMUR,,Indonesia,,,,-81.770.964,1.244.350.781,https://maps.google.com/?cid=0x0:0x8ab1c50799570724,
perumahan,Komplek perumahan,M Kader Tangwe (Kios Tiara),"PCPM+X89, Lewalu, Kec. Alor Bar. Laut, Kabupaten Alor, Nusa Tenggara Tim.","Kabupaten Alor, Nusa Tenggara Tim.",NUSA TENGGARA TIMUR,,Indonesia,81339617630,,,-82.621.927,1.244.330.644,https://maps.google.com/?cid=0x0:0xb89260f5a31ad0c5,
perumahan,Perhimpunan Pengembang Perumahan,Munir Hasan,"PCPJ+G75, Lewalu, Kec. Alor Bar. Laut, Kabupaten Alor, Nusa Tenggara Tim.","Kabupaten Alor, Nusa Tenggara Tim.",NUSA TENGGARA TIMUR,,Indonesia,,,,-82.634.348,1.244.311.738,https://maps.google.com/?cid=0x0:0xfa902943817d500e,
perumahan,Pembangunan Perumahan,Rumah Saya,"Jl. Slamet Riyadi No.15, Kalabahi Bar., Kec. Tlk. Mutiara, Kabupaten Alor, Nusa Tenggara Tim. 85814","Kalabahi Bar., Kec. Tlk. Mutiara, Kabupaten Alor",NUSA TENGGARA TIMUR,85814.0,Indonesia,,,,-82.201.535,1.245.018.634,https://maps.google.com/?cid=0x0:0xa666912898743d80,
perumahan,Perhimpunan Pengembang Perumahan,Matap Rumah Azis,"PC58+4C8, Wolwal Bar., Kec. Alor Bar. Laut, Kabupaten Alor, Nusa Tenggara Tim.","Kabupaten Alor, Nusa Tenggara Tim.",NUSA TENGGARA TIMUR,,Indonesia,,,,-82.921.895,1.244.160.749,https://maps.google.com/?cid=0x0:0x8113a38f3962dacd,
perumahan,Perhimpunan Pengembang Perumahan,Bringin tiga,"PCP6+H8X, Alor Kecil, Kec. Alor Bar. Laut, Kabupaten Alor, Nusa Tenggara Tim.","Kabupaten Alor, Nusa Tenggara Tim.",NUSA TENGGARA TIMUR,,Indonesia,,,,-8.263.524,124.410.869,https://maps.google.com/?cid=0x0:0xbbd132d4735a4666,
perumahan,Perhimpunan Pengembang Perumahan,Arif_Pura,"Q9RG+98W, Ternate, Kec. Alor Bar. Laut, Kabupaten Alor, Nusa Tenggara Tim.","Kabupaten Alor, Nusa Tenggara Tim.",NUSA TENGGARA TIMUR,,Indonesia,,,,-82.090.993,1.243.767.556,https://maps.google.com/?cid=0x0:0x9454b60048efb183,
perumahan,Komplek perumahan,LOKASI TPS 1,"Q9QH+J3J, Ternate, Kec. Alor Bar. Laut, Kabupaten Alor, Nusa Tenggara Tim.","Kabupaten Alor, Nusa Tenggara Tim.",NUSA TENGGARA TIMUR,,Indonesia,,,,-8.210.905,1.243.776.295,https://maps.google.com/?cid=0x0:0xb6cf6c6a457c4f93,
perumahan,Komplek perumahan,DOPBANG Wolwal Alor barat daya,"PCCW+H6W, Wolwal, Kec. Alor Bar. Laut, Kabupaten Alor, Nusa Tenggara Tim.","Kabupaten Alor, Nusa Tenggara Tim.",NUSA TENGGARA TIMUR,,Indonesia,,,,-82.785.165,1.244.455.884,https://maps.google.com/?cid=0x0:0xa33838201a11b5e2,
perumahan,Kantor Pemerintah,Desa Lewalu,"PCPJ+WR7, Lewalu, Kec. Alor Bar. Laut, Kabupaten Alor, Nusa Tenggara Tim. 85812","Lewalu, Kec. Alor Bar. Laut, Kabupaten Alor",NUSA TENGGARA TIMUR,85812.0,Indonesia,,,,-826.272,1.244.320.144,https://maps.google.com/?cid=0x0:0x6baba851caf92c4b,
perumahan,Komplek perumahan,Tips 01,"PCVV+JF4, Jl. Slamet Riyadi, Kalabahi Bar, Kec. Alor Bar. Laut, Kabupaten Alor, Nusa Tenggara Tim.","Kabupaten Alor, Nusa Tenggara Tim.",NUSA TENGGARA TIMUR,,Indonesia,,,,-82.565.749,1.244.437.876,https://maps.google.com/?cid=0x0:0xec5f7435d8e4dece,
perumahan,perumahan,Kec. Alor Barat Daya,"Kabupaten Alor, Nusa Tenggara Tim.","Kabupaten Alor, Nusa Tenggara Tim.",NUSA TENGGARA TIMUR,,Indonesia,,,,-84.363.579,1.245.459.622,https://maps.google.com/?cid=0x0:0xb408571cc95fa77f,
perumahan,Pembangunan Perumahan,"Us'akan, Alor Barat Daya","H9FV+F6, Halerman, Kec. Alor Barat Daya, Kabupaten Alor, Nusa Tenggara Tim.","Kabupaten Alor, Nusa Tenggara Tim.",NUSA TENGGARA TIMUR,,Indonesia,,,,-84.262.894,1.243.930.039,https://maps.google.com/?cid=0x0:0x2713219a805bc670,
perumahan,perumahan,Lahan Alexander Alobel,"HC5G+FG4, Margeta, Kec. Alor Bar. Laut, Kabupaten Alor, Nusa Tenggara Tim.","Kabupaten Alor, Nusa Tenggara Tim.",NUSA TENGGARA TIMUR,,Indonesia,,,,-84.413.536,1.244.263.342,https://maps.google.com/?cid=0x0:0xe1a1398a83547621,
perumahan,Komplek perumahan,Rumah Tinggal Bpk Fredik M. Alauakri,"PGWH+JHW, Pailelang, Kec. Alor Barat Daya, Kabupaten Alor, Nusa Tenggara Tim.","Kabupaten Alor, Nusa Tenggara Tim.",NUSA TENGGARA TIMUR,,Indonesia,,,,-82.540.725,1.245.287.017,https://maps.google.com/?cid=0x0:0x8404461d10276634,
perumahan,Komplek perumahan,kompleks,"PGP8+JWH, Moramam, Kec. Alor Bar. Laut, Kabupaten Alor, Nusa Tenggara Tim.","Kabupaten Alor, Nusa Tenggara Tim.",NUSA TENGGARA TIMUR,,Indonesia,,,,-8.263.432,1.245.173.689,https://maps.google.com/?cid=0x0:0xf89fab6001b5af9e,
perumahan,Pembangunan Perumahan,Rumah Glen,"JCV8+8C, Probur, Kec. Alor Barat Daya, Kabupaten Alor, Nusa Tenggara Tim.","Kabupaten Alor, Nusa Tenggara Tim.",NUSA TENGGARA TIMUR,,Indonesia,,,,-83.570.093,1.244.159.261,https://maps.google.com/?cid=0x0:0x5d7a2967604190d5,
perumahan,Pembangunan Perumahan,Rumah Daniel Manilegi,"PGRC+5G4, Morba, Kec. Alor Barat Daya, Kabupaten Alor, Nusa Tenggara Tim.","Kabupaten Alor, Nusa Tenggara Tim.",NUSA TENGGARA TIMUR,,Indonesia,,,,-8.259.616,1.245.213.403,https://maps.google.com/?cid=0x0:0xb53420adb0bfd84f,
perumahan,Perhimpunan Pengembang Perumahan,Matap Rumah Azis,"PC58+4C8, Wolwal Bar., Kec. Alor Bar. Laut, Kabupaten Alor, Nusa Tenggara Tim.","Kabupaten Alor, Nusa Tenggara Tim.",NUSA TENGGARA TIMUR,,Indonesia,,,,-82.921.895,1.244.160.749,https://maps.google.com/?cid=0x0:0x8113a38f3962dacd,
perumahan,Komplek perumahan,DOPBANG Wolwal Alor barat daya,"PCCW+H6W, Wolwal, Kec. Alor Bar. Laut, Kabupaten Alor, Nusa Tenggara Tim.","Kabupaten Alor, Nusa Tenggara Tim.",NUSA TENGGARA TIMUR,,Indonesia,,,,-82.785.165,1.244.455.884,https://maps.google.com/?cid=0x0:0xa33838201a11b5e2,
perumahan,Komplek perumahan,simpang Kompleks ABT,"PGW7+482, Unnamed Road, Moru, Kec. Alor Bar. Laut, Kabupaten Alor, Nusa Tenggara Tim.","Kabupaten Alor, Nusa Tenggara Tim.",NUSA TENGGARA TIMUR,,Indonesia,,,,-82.547.287,1.245.132.534,https://maps.google.com/?cid=0x0:0x848a2ff0722b3385,
perumahan,Komplek perumahan,Belyah kolimoh,"PGQ7+PH5, Moramam, Kec. Alor Bar. Laut, Kabupaten Alor, Nusa Tenggara Tim.","Kabupaten Alor, Nusa Tenggara Tim.",NUSA TENGGARA TIMUR,,Indonesia,,,,-82.602.076,124.514.384,https://maps.google.com/?cid=0x0:0xcc046a9d5979bfb7,
perumahan,Pembangunan Perumahan,Rumah Sony Lape,"PGP9+G6, Moramam, Kec. Alor Barat Daya, Kabupaten Alor, Nusa Tenggara Tim.","Kabupaten Alor, Nusa Tenggara Tim.",NUSA TENGGARA TIMUR,,Indonesia,,,,-82.637.098,1.245.180.919,https://maps.google.com/?cid=0x0:0xddbf047979bb9939,
perumahan,Pembangunan Perumahan,Miliku,"QF36+GXH, Dulolong, Kec. Alor Bar. Laut, Kabupaten Alor, Nusa Tenggara Tim.","Kabupaten Alor, Nusa Tenggara Tim.",NUSA TENGGARA TIMUR,,Indonesia,,,,-82.461.513,1.244.625.106,https://maps.google.com/?cid=0x0:0x648126cba56b74c4,
perumahan,Komplek perumahan,Kanaikai,"PGWJ+5QX, Pailelang, Kec. Alor Bar. Laut, Kabupaten Alor, Nusa Tenggara Tim.","Kabupaten Alor, Nusa Tenggara Tim.",NUSA TENGGARA TIMUR,,Indonesia,,,,-82.545.178,1.245.319.994,https://maps.google.com/?cid=0x0:0xa62e6f5ebdc262d9,
perumahan,Pembangunan Perumahan,Klabhi,"HC5G+Q2, Margeta, Kec. Alor Barat Daya, Kabupaten Alor, Nusa Tenggara Tim.","Kabupaten Alor, Nusa Tenggara Tim.",NUSA TENGGARA TIMUR,,Indonesia,,,,-84.403.474,1.244.254.359,https://maps.google.com/?cid=0x0:0x62a8972d862c602d,
perumahan,Komplek perumahan,Kmc morba,"PGMF+X3C, Moru, Kec. Alor Barat Daya, Kabupaten Alor, Nusa Tenggara Tim.","Kabupaten Alor, Nusa Tenggara Tim.",NUSA TENGGARA TIMUR,,Indonesia,81293905662,,,-82.650.543,1.245.226.497,https://maps.google.com/?cid=0x0:0xc7ab0318cabdc99d,
perumahan,Komplek perumahan,Tnh. Welem Maniyeni,"HG5V+JF, Wakapsir, Kec. Alor Barat Daya, Kabupaten Alor, Nusa Tenggara Tim.","Kabupaten Alor, Nusa Tenggara Tim.",NUSA TENGGARA TIMUR,,Indonesia,,,,-84.409.188,1.245.433.894,https://maps.google.com/?cid=0x0:0x2010b3fc2cdec060,
perumahan,Komplek perumahan,Kalalek Home,"MCFH+4P, Probur Utara, Kec. Alor Barat Daya, Kabupaten Alor, Nusa Tenggara Tim.","Kabupaten Alor, Nusa Tenggara Tim.",NUSA TENGGARA TIMUR,,Indonesia,,,,-83.271.978,124.429.305,https://maps.google.com/?cid=0x0:0xf640f6dc3af39212,
perumahan,Komplek perumahan,Us akan,"H9QP+7JM, Halerman, Kec. Alor Barat Daya, Kabupaten Alor, Nusa Tenggara Tim.","Kabupaten Alor, Nusa Tenggara Tim.",NUSA TENGGARA TIMUR,,Indonesia,,,,-84.117.921,1.243.865.392,https://maps.google.com/?cid=0x0:0xe913445112f8f8a6,
perumahan,Komplek perumahan,Rumah Keluarga Ignatius Hingmo,"HF89+48, Manatang, Kec. Alor Barat Daya, Kabupaten Alor, Nusa Tenggara Tim.","Kabupaten Alor, Nusa Tenggara Tim.",NUSA TENGGARA TIMUR,,Indonesia,,,,-84.347.779,1.244.682.035,https://maps.google.com/?cid=0x0:0x3baed416ef9df8f4,
perumahan,Komplek perumahan,Kos Puti mera,"PH43+V48 Kamar kos jelo, Pailelang, Kec. Alor Barat Daya, Kabupaten Alor, Nusa Tenggara Tim.","Kabupaten Alor, Nusa Tenggara Tim.",NUSA TENGGARA TIMUR,,Indonesia,,,,-82.928.427,1.245.528.387,https://maps.google.com/?cid=0x0:0xd62b6949e94e253a,
perumahan,Komplek perumahan,RUMAH WAHIDIN BESIKARI,"PGX7+C5, Moru, Kec. Alor Barat Daya, Kabupaten Alor, Nusa Tenggara Tim.","Kabupaten Alor, Nusa Tenggara Tim.",NUSA TENGGARA TIMUR,,Indonesia,,,,-82.513.314,1.245.130.116,https://maps.google.com/?cid=0x0:0x37d1689c984d8d29,
perumahan,Komplek perumahan,Rumah Kk Meos Loban,"JCH8+PFP, Probur, Kec. Alor Bar. Laut, Kabupaten Alor, Nusa Tenggara Tim.","Kabupaten Alor, Nusa Tenggara Tim.",NUSA TENGGARA TIMUR,,Indonesia,,,,-83.712.822,1.244.163.679,https://maps.google.com/?cid=0x0:0xf431a1e0340c8100,
perumahan,perumahan,Kec. Alor Tengah Utara,"Kabupaten Alor, Nusa Tenggara Tim.","Kabupaten Alor, Nusa Tenggara Tim.",NUSA TENGGARA TIMUR,,Indonesia,,,,-82.013.597,124.594.223,https://maps.google.com/?cid=0x0:0xd061b93c2c5cdea5,
perumahan,Pembangunan Perumahan,Rumah Wempi,"QHXR+QPH, Alim Mebung, Kec. Alor Tengah Utara, Kabupaten Alor, Nusa Tenggara Tim.","Kabupaten Alor, Nusa Tenggara Tim.",NUSA TENGGARA TIMUR,,Indonesia,,,,-82.005.656,1.245.918.704,https://maps.google.com/?cid=0x0:0x4e5180d149b35125,
perumahan,perumahan,Rumah narhyo maubara,"QGMR+8J3, Kalabahi Tim., Kec. Tlk. Mutiara, Kabupaten Alor, Nusa Tenggara Tim. 85871","Kalabahi Tim., Kec. Tlk. Mutiara, Kabupaten Alor",NUSA TENGGARA TIMUR,85871.0,Indonesia,,,,-82.168.332,1.245.413.861,https://maps.google.com/?cid=0x0:0x15133ec6b01d914d,
perumahan,perumahan,Rumah Mebung,"Alim Mebung, Kec. Alor Tengah Utara, Kabupaten Alor, Nusa Tenggara Tim.","Kabupaten Alor, Nusa Tenggara Tim.",NUSA TENGGARA TIMUR,,Indonesia,,,,-82.035.804,1.245.910.024,https://maps.google.com/?cid=0x0:0xc8e423f9a47694e8,
perumahan,Pembangunan Perumahan,Rumah VANESA Yetifani,"RJ25+P8V, Lembur Bar., Kec. Alor Tengah Utara, Kabupaten Alor, Nusa Tenggara Tim.","Kabupaten Alor, Nusa Tenggara Tim.",NUSA TENGGARA TIMUR,,Indonesia,,,,-81.981.373,124.608.287,https://maps.google.com/?cid=0x0:0x23d8478e48118560,
perumahan,Pembangunan Perumahan,Di Mebung Sini,"QHXW+54H, Alim Mebung, Kec. Alor Tengah Utara, Kabupaten Alor, Nusa Tenggara Tim.","Kabupaten Alor, Nusa Tenggara Tim.",NUSA TENGGARA TIMUR,,Indonesia,,,,-82.020.736,1.245.953.531,https://maps.google.com/?cid=0x0:0x56ceefd40f1af3e3,
perumahan,Komplek perumahan,RARA MEIMAU,"RJCQ+JPV, Fungafeng, Kec. Alor Tengah Utara, Kabupaten Alor, Nusa Tenggara Tim.","Kabupaten Alor, Nusa Tenggara Tim.",NUSA TENGGARA TIMUR,,Indonesia,,,,-81.785.468,1.246.392.871,https://maps.google.com/?cid=0x0:0x9e34f9044819ba61,
perumahan,perumahan,Rumah NehwiL,"QHPQ+XG7, Petleng, Kec. Alor Tengah Utara, Kabupaten Alor, Nusa Tenggara Tim.","Kabupaten Alor, Nusa Tenggara Tim.",NUSA TENGGARA TIMUR,,Indonesia,,,,-82.131.331,1.245.877.548,https://maps.google.com/?cid=0x0:0xa25365c1ccb9c9b7,
perumahan,Komplek perumahan,Dewi Blegur Home,"RH2V+657, Alim Mebung, Kec. Alor Tengah Utara, Kabupaten Alor, Nusa Tenggara Tim. 85871","Alim Mebung, Kec. Alor Tengah Utara, Kabupaten Alor",NUSA TENGGARA TIMUR,85871.0,Indonesia,,,,-81.994.622,1.245.929.157,https://maps.google.com/?cid=0x0:0x79be4c548eac972a,
perumahan,Pondok,Batunirwala,"QHQG+PXJ, Petleng, Kec. Alor Tengah Utara, Kabupaten Alor, Nusa Tenggara Tim.","Kabupaten Alor, Nusa Tenggara Tim.",NUSA TENGGARA TIMUR,,Indonesia,,,,-82.106.581,1.245.773.837,https://maps.google.com/?cid=0x0:0xa6dae047baba7930,
perumahan,Komplek perumahan,Rumah ME,"QHRH+F46, Petleng, Kec. Alor Tengah Utara, Kabupaten Alor, Nusa Tenggara Tim.","Kabupaten Alor, Nusa Tenggara Tim.",NUSA TENGGARA TIMUR,,Indonesia,,,,-82.082.881,1.245.784.502,https://maps.google.com/?cid=0x0:0x5bb744a7ea69f168,
perumahan,Komplek perumahan,Rumah Gerald Ndaumanu,"QJX2+74R, Nurbenlelang, Kec. Alor Tengah Utara, Kabupaten Alor, Nusa Tenggara Tim.","Kabupaten Alor, Nusa Tenggara Tim.",NUSA TENGGARA TIMUR,,Indonesia,,,,-82.129.713,1.245.640.545,https://maps.google.com/?cid=0x0:0x957119c0bdc9b7e2,
perumahan,Pembangunan Perumahan,KayDell Home,"RJ8H+MVM, Fungafeng, Kec. Alor Tengah Utara, Kabupaten Alor, Nusa Tenggara Tim.","Kabupaten Alor, Nusa Tenggara Tim.",NUSA TENGGARA TIMUR,,Indonesia,,,,-81.835.161,1.246.298.866,https://maps.google.com/?cid=0x0:0x5ab73b380eef5e60,
perumahan,Komplek perumahan,Johan Maukafeli,"QHWR+FGF, Alim Mebung, Kec. Alor Tengah Utara, Kabupaten Alor, Nusa Tenggara Tim.","Kabupaten Alor, Nusa Tenggara Tim.",NUSA TENGGARA TIMUR,,Indonesia,,,,-82.038.002,1.245.913.092,https://maps.google.com/?cid=0x0:0x8c9699135ac44360,
perumahan,perumahan,Rumah Bhuyfmb,"RJ22+52W, Nurbenlelang, Kec. Alor Tengah Utara, Kabupaten Alor, Nusa Tenggara Tim.","Kabupaten Alor, Nusa Tenggara Tim.",NUSA TENGGARA TIMUR,,Indonesia,,,,-82.000.957,1.246.002.148,https://maps.google.com/?cid=0x0:0xad48f6a75e666f59,
perumahan,Komplek perumahan,TUAN KOMPLEX,"RH2V+657, Alim Mebung, Kec. Alor Tengah Utara, Kabupaten Alor, Nusa Tenggara Tim. 85871","Alim Mebung, Kec. Alor Tengah Utara, Kabupaten Alor",NUSA TENGGARA TIMUR,85871.0,Indonesia,,,,-81.994.622,1.245.929.157,https://maps.google.com/?cid=0x0:0xde1e8614745ea1f2,
perumahan,Komplek perumahan,GaszFulL,"QHVQ+Q8J, Alim Mebung, Kec. Alor Tengah Utara, Kabupaten Alor, Nusa Tenggara Tim.","Kabupaten Alor, Nusa Tenggara Tim.",NUSA TENGGARA TIMUR,,Indonesia,,,,-82.055.457,1.245.882.557,https://maps.google.com/?cid=0x0:0x27b63efd0803771c,
perumahan,perumahan,Jhemm,"RJ8H+MVM, Fungafeng, Kec. Alor Tengah Utara, Kabupaten Alor, Nusa Tenggara Tim.","Kabupaten Alor, Nusa Tenggara Tim.",NUSA TENGGARA TIMUR,,Indonesia,,,,-81.832.875,1.246.296.719,https://maps.google.com/?cid=0x0:0x5457790b51ae5179,
perumahan,Pembangunan Perumahan,Rumah Mamar,"QHQP+JCM, Petleng, Kec. Alor Tengah Utara, Kabupaten Alor, Nusa Tenggara Tim.","Kabupaten Alor, Nusa Tenggara Tim.",NUSA TENGGARA TIMUR,,Indonesia,,,,-82.109.048,1.245.860.408,https://maps.google.com/?cid=0x0:0xd48e59ee427a7269,
perumahan,Pembangunan Perumahan,Alimmebung,"QJ97+2J4, Welai Sel., Kec. Alor Tengah Utara, Kabupaten Alor, Nusa Tenggara Tim.","Kabupaten Alor, Nusa Tenggara Tim.",NUSA TENGGARA TIMUR,,Indonesia,,,,-82.324.753,1.246.140.847,https://maps.google.com/?cid=0x0:0x9d3637ad4d13edf1,
perumahan,Pembangunan Perumahan,Dapitau,"QMX2+HVQ, Dapitau, Kec. Alor Tengah Utara, Kabupaten Alor, Nusa Tenggara Tim.","Kabupaten Alor, Nusa Tenggara Tim.",NUSA TENGGARA TIMUR,,Indonesia,,,,-82.010.286,1.246.522.324,https://maps.google.com/?cid=0x0:0xc579edb2296d74db,
perumahan,Penginapan Dalam Ruangan,Sibone,"RJCW+QXG, Unnamed Road, Fungafeng, Kec. Alor Tengah Utara, Kabupaten Alor, Nusa Tenggara Tim.","Kabupaten Alor, Nusa Tenggara Tim.",NUSA TENGGARA TIMUR,,Indonesia,,,,-81.780.718,1.246.474.601,https://maps.google.com/?cid=0x0:0x11de56462bbca22d,
perumahan,Komplek perumahan,O.Pardede/J.br. Siregar,"QHWR+MG5, Alim Mebung, Kec. Alor Tengah Utara, Kabupaten Alor, Nusa Tenggara Tim.","Kabupaten Alor, Nusa Tenggara Tim.",NUSA TENGGARA TIMUR,,Indonesia,,,,-8.203.351,1.245.913.682,https://maps.google.com/?cid=0x0:0x39435163ae7df68a,
perumahan,perumahan,Debora,"RH2V+657, RT.08/RW.04, Alim Mebung, Kec. Alor Tengah Utara, Kabupaten Alor, Nusa Tenggara Tim.","Kabupaten Alor, Nusa Tenggara Tim.",NUSA TENGGARA TIMUR,,Indonesia,,,,-81.994.622,1.245.929.157,https://maps.google.com/?cid=0x0:0xa8cdec7e2a584e0e,
perumahan,perumahan,Kec. Alor Tim.,"Kabupaten Alor, Nusa Tenggara Tim.","Kabupaten Alor, Nusa Tenggara Tim.",NUSA TENGGARA TIMUR,,Indonesia,,,,-82.589.872,1.249.317.271,https://maps.google.com/?cid=0x0:0x3a01566565bdfc49,
perumahan,Pembangunan Perumahan,Kompleks Welona,"PXM3+RHJ, Kompleks Welona, Tanglapui, Kec. Alor Tim., Kabupaten Alor, Nusa Tenggara Tim.","Kabupaten Alor, Nusa Tenggara Tim.",NUSA TENGGARA TIMUR,,Indonesia,,,,-82.654.104,1.249.539.027,https://maps.google.com/?cid=0x0:0x1c8c29b023503fa4,
perumahan,Pembangunan Perumahan,Maritaing,"P45H+36, Maritaing, Kec. Alor Tim., Kabupaten Alor, Nusa Tenggara Tim.","Kabupaten Alor, Nusa Tenggara Tim.",NUSA TENGGARA TIMUR,,Indonesia,,,,-8.292.321,1.251.280.288,https://maps.google.com/?cid=0x0:0x7670a71b8d94862c,
perumahan,Komplek perumahan,Jhon,"P2GM+RVH, Kolana Sel., Kec. Alor Tim., Kabupaten Alor, Nusa Tenggara Tim.","Kabupaten Alor, Nusa Tenggara Tim.",NUSA TENGGARA TIMUR,,Indonesia,,,,-82.737.812,1.250.350.889,https://maps.google.com/?cid=0x0:0x15268cf76ef2ec05,
perumahan,Komplek perumahan,Nova Mandena,"P449+Q22, Maritaing, Kec. Alor Tim., Kabupaten Alor, Nusa Tenggara Tim.","Kabupaten Alor, Nusa Tenggara Tim.",NUSA TENGGARA TIMUR,,Indonesia,,,,-82.933.332,125.118.059,https://maps.google.com/?cid=0x0:0x832488e3debb3ac0,
perumahan,Pembangunan Perumahan,Atemang,"PRJM+4WP, Pido, Kec. Alor Tim. Laut, Kabupaten Alor, Nusa Tenggara Tim.","Kabupaten Alor, Nusa Tenggara Tim.",NUSA TENGGARA TIMUR,,Indonesia,,,,-82.696.647,124.834.821,https://maps.google.com/?cid=0x0:0x4d91c92889d9034a,
perumahan,Kantor Perusahaan,"Pumi Desa Pido, kec. ATL","PVP4+58Q, Pido, Kec. Alor Tim. Laut, Kabupaten Alor, Nusa Tenggara Tim.","Kabupaten Alor, Nusa Tenggara Tim.",NUSA TENGGARA TIMUR,,Indonesia,,,,-82.645.458,124.855.864,https://maps.google.com/?cid=0x0:0x60370bc9e3bab54e,
perumahan,Pembangunan Perumahan,Maxi masai,"M34V+R7C, Elok, Kec. Alor Tim., Kabupaten Alor, Nusa Tenggara Tim.","Kabupaten Alor, Nusa Tenggara Tim.",NUSA TENGGARA TIMUR,,Indonesia,,,,-83.429.459,1.250.931.453,https://maps.google.com/?cid=0x0:0xe29e728aec01e207,
perumahan,perumahan,Dion pu rumah,"Q44R+2HM, Kolana Utara, Kec. Alor Tim., Kabupaten Alor, Nusa Tenggara Tim.","Kabupaten Alor, Nusa Tenggara Tim.",NUSA TENGGARA TIMUR,,Indonesia,,,,-82.447.216,1.251.410.747,https://maps.google.com/?cid=0x0:0x4c96575256167478,
perumahan,Pembangunan Perumahan,Akes,"P46G+G2G, Maritaing, Kec. Alor Tim., Kabupaten Alor, Nusa Tenggara Tim.","Kabupaten Alor, Nusa Tenggara Tim.",NUSA TENGGARA TIMUR,,Indonesia,,,,-82.886.871,1.251.250.844,https://maps.google.com/?cid=0x0:0x7a03575d06b11de6,
perumahan,Pembangunan Perumahan,Dean Mautuka,"P45G+8RM, Maritaing, Kec. Alor Tim., Kabupaten Alor, Nusa Tenggara Tim.","Kabupaten Alor, Nusa Tenggara Tim.",NUSA TENGGARA TIMUR,,Indonesia,,,,-82.916.644,1.251.270.407,https://maps.google.com/?cid=0x0:0x41b5f45edbeece79,
perumahan,Inspektur Tempat Tinggal,Luakusa Place,"P45C+WR8, Maritaing, Kec. Alor Tim., Kabupaten Alor, Nusa Tenggara Tim.","Kabupaten Alor, Nusa Tenggara Tim.",NUSA TENGGARA TIMUR,,Indonesia,,,,-82.918.034,1.251.222.087,https://maps.google.com/?cid=0x0:0x38b6d229b2a3ba39,
perumahan,Pembangunan Perumahan,Rumah Petugas UPT Kaipera,"PXJ3+M3F, Tanglapui, Kec. Alor Tim., Kabupaten Alor, Nusa Tenggara Tim.","Kabupaten Alor, Nusa Tenggara Tim.",NUSA TENGGARA TIMUR,,Indonesia,,,,-82.683.647,1.249.526.578,https://maps.google.com/?cid=0x0:0x1c8efa0ca5caa0c2,
perumahan,Komplek perumahan,Taramana,"RRMW+PGP, Taramana, Kec. Alor Tim. Laut, Kabupaten Alor, Nusa Tenggara Tim.","Kabupaten Alor, Nusa Tenggara Tim.",NUSA TENGGARA TIMUR,,Indonesia,,,,-81.656.694,1.248.463.318,https://maps.google.com/?cid=0x0:0x9cbffbbc8dd3411b,
perumahan,Pembangunan Perumahan,Rumah portunatus,"P435+3R, Maritaing, Kec. Alor Tim., Kabupaten Alor, Nusa Tenggara Tim.","Kabupaten Alor, Nusa Tenggara Tim.",NUSA TENGGARA TIMUR,,Indonesia,,,,-82.971.764,1.251.097.874,https://maps.google.com/?cid=0x0:0xe696e5ad1d47ea23,
perumahan,Pembangunan Perumahan,Tanah Maritaing,"P48G+J82, Maritaing, Kec. Alor Tim., Kabupaten Alor, Nusa Tenggara Tim.","Kabupaten Alor, Nusa Tenggara Tim.",NUSA TENGGARA TIMUR,,Indonesia,,,,-82.834.921,1.251.257.804,https://maps.google.com/?cid=0x0:0xb50bb4cd3994611c,
perumahan,Komplek perumahan,KWAKMANA,"Q438+F96, Kolana Utara, Kec. Alor Tim., Kabupaten Alor, Nusa Tenggara Tim.","Kabupaten Alor, Nusa Tenggara Tim.",NUSA TENGGARA TIMUR,,Indonesia,,,,-82.463.477,1.251.158.754,https://maps.google.com/?cid=0x0:0xc583a7c9d8ee55d,
perumahan,Komplek perumahan,Susan padaleti,"QW87+F7P, Padang Panjang, Kec. Alor Tim., Kabupaten Alor, Nusa Tenggara Tim.","Kabupaten Alor, Nusa Tenggara Tim.",NUSA TENGGARA TIMUR,,Indonesia,,,,-82.337.966,1.249.132.036,https://maps.google.com/?cid=0x0:0x65e91626908d4c9e,
perumahan,Komplek perumahan,Labapu,"RV34+7Q4, Kenarimbala, Kec. Alor Tim. Laut, Kabupaten Alor, Nusa Tenggara Tim.","Kabupaten Alor, Nusa Tenggara Tim.",NUSA TENGGARA TIMUR,,Indonesia,,,,-8.196.854,1.248.569.433,https://maps.google.com/?cid=0x0:0xe2f056d529d1f23,
perumahan,Pembangunan Perumahan,Bryan Mowata,"P2GM+RVH, Kolana Sel., Kec. Alor Tim., Kabupaten Alor, Nusa Tenggara Tim.","Kabupaten Alor, Nusa Tenggara Tim.",NUSA TENGGARA TIMUR,,Indonesia,,,,-82.723.787,1.250.339.932,https://maps.google.com/?cid=0x0:0x21b47188f12dceeb,
perumahan,Komplek perumahan,Bakakela,"PWQ6+5RW, Belemana, Kec. Alor Tim., Kabupaten Alor, Nusa Tenggara Tim.","Kabupaten Alor, Nusa Tenggara Tim.",NUSA TENGGARA TIMUR,,Indonesia,81239104142,,,-82.620.056,1.249.120.662,https://maps.google.com/?cid=0x0:0x92c31285dc58d5e,
perumahan,Tujuan Wisata,Pantai Adagae,"RQVV+5H4, Air Mancur, Kec. Alor Tim. Laut, Kabupaten Alor, Nusa Tenggara Tim.","Kabupaten Alor, Nusa Tenggara Tim.",NUSA TENGGARA TIMUR,,Indonesia,,,,-81.571.022,1.247.939.476,https://maps.google.com/?cid=0x0:0xfdd9b56cc463cdac,
perumahan,Tujuan Wisata,Pantai Kadelang,"Kalabahi Tim., Kec. Tlk. Mutiara, Kabupaten Alor, Nusa Tenggara Tim.","Kabupaten Alor, Nusa Tenggara Tim.",NUSA TENGGARA TIMUR,,Indonesia,,,,-82.243.213,1.245.405.541,https://maps.google.com/?cid=0x0:0x2f84e6c6056107d1,
perumahan,perumahan,Kec. Alor Tim. Laut,"Kabupaten Alor, Nusa Tenggara Tim.","Kabupaten Alor, Nusa Tenggara Tim.",NUSA TENGGARA TIMUR,,Indonesia,,,,-81.799.236,1.247.610.394,https://maps.google.com/?cid=0x0:0x3df0ef994605c355,
perumahan,Perhimpunan Pengembang Perumahan,MARDINO SAMOY,"RQ84+9F5, Waisika, Kec. Alor Tim. Laut, Kabupaten Alor, Nusa Tenggara Tim.","Kabupaten Alor, Nusa Tenggara Tim.",NUSA TENGGARA TIMUR,,Indonesia,,,,-81.841.025,124.756.248,https://maps.google.com/?cid=0x0:0x4879b36997f8fc3,
perumahan,Komplek perumahan,Complex Kamandun Village,"RQGH+Q68, Nailang, Kec. Alor Tim. Laut, Kabupaten Alor, Nusa Tenggara Tim.","Kabupaten Alor, Nusa Tenggara Tim.",NUSA TENGGARA TIMUR,,Indonesia,,,,-81.730.803,1.247.780.887,https://maps.google.com/?cid=0x0:0x28e2e03b18cd23e7,
perumahan,Komplek perumahan,Taramana,"RRMW+PGP, Taramana, Kec. Alor Tim. Laut, Kabupaten Alor, Nusa Tenggara Tim.","Kabupaten Alor, Nusa Tenggara Tim.",NUSA TENGGARA TIMUR,,Indonesia,,,,-81.656.694,1.248.463.318,https://maps.google.com/?cid=0x0:0x9cbffbbc8dd3411b,
perumahan,Pembangunan Perumahan,Desa Nailang kecamatan alor timur laut,"RQGH+Q68, Nailang, Kec. Alor Tim. Laut, Kabupaten Alor, Nusa Tenggara Tim.","Kabupaten Alor, Nusa Tenggara Tim.",NUSA TENGGARA TIMUR,,Indonesia,,,,-81.730.875,1.247.780.781,https://maps.google.com/?cid=0x0:0xcab7fff3680e4dad,
perumahan,Komplek perumahan,Marsel Jr,"RQ7C+P5Q, Waisika, Kec. Alor Tim. Laut, Kabupaten Alor, Nusa Tenggara Tim.","Kabupaten Alor, Nusa Tenggara Tim.",NUSA TENGGARA TIMUR,,Indonesia,,,,-81.856.615,1.247.704.707,https://maps.google.com/?cid=0x0:0x125071b93b99833,
perumahan,Pembangunan Perumahan,Milanria Lasa,"RQ7C+W93, Nailang, Kec. Alor Tim. Laut, Kabupaten Alor, Nusa Tenggara Tim.","Kabupaten Alor, Nusa Tenggara Tim.",NUSA TENGGARA TIMUR,,Indonesia,,,,-81.852.264,1.247.709.071,https://maps.google.com/?cid=0x0:0x8ecc98294a94cf7,
perumahan,Komplek perumahan,Labapu,"RV34+7Q4, Kenarimbala, Kec. Alor Tim. Laut, Kabupaten Alor, Nusa Tenggara Tim.","Kabupaten Alor, Nusa Tenggara Tim.",NUSA TENGGARA TIMUR,,Indonesia,,,,-8.196.854,1.248.569.433,https://maps.google.com/?cid=0x0:0xe2f056d529d1f23,
perumahan,Pembangunan Perumahan,Sidongkomang,"RQG8+F99, Sidongkomang, Kec. Alor Tim. Laut, Kabupaten Alor, Nusa Tenggara Tim.","Kabupaten Alor, Nusa Tenggara Tim.",NUSA TENGGARA TIMUR,,Indonesia,,,,-81.737.888,1.247.659.852,https://maps.google.com/?cid=0x0:0xfcf11bcc5b9b4810,
perumahan,Komplek perumahan,Labapang,"RQ96+99R, Waisika, Kec. Alor Tim. Laut, Kabupaten Alor, Nusa Tenggara Tim.","Kabupaten Alor, Nusa Tenggara Tim.",NUSA TENGGARA TIMUR,,Indonesia,,,,-81.815.212,1.247.608.914,https://maps.google.com/?cid=0x0:0xfe6b92e6d615d939,
perumahan,perumahan,Rumah Bapa Yusuf Maure,"RQFX+P85, Air Mancur, Kec. Alor Tim. Laut, Kabupaten Alor, Nusa Tenggara Tim.","Kabupaten Alor, Nusa Tenggara Tim.",NUSA TENGGARA TIMUR,,Indonesia,,,,-81.760.109,1.247.970.372,https://maps.google.com/?cid=0x0:0x1b3418581dd7057,
perumahan,Komplek perumahan,Tempat Syukuran Marten  Lisa,"RQ87+PPR, Waisika, Kec. Alor Tim. Laut, Kabupaten Alor, Nusa Tenggara Tim.","Kabupaten Alor, Nusa Tenggara Tim.",NUSA TENGGARA TIMUR,,Indonesia,,,,-81.823.461,1.247.633.896,https://maps.google.com/?cid=0x0:0x8e27d34e2e50b0ad,
perumahan,Komplek perumahan,Sylaimang,"QPCF+GP9, Sylaimang, Waimi, Kec. Lembur, Kabupaten Alor, Nusa Tenggara Tim.","Kabupaten Alor, Nusa Tenggara Tim.",NUSA TENGGARA TIMUR,,Indonesia,,,,-82.287.177,124.724.352,https://maps.google.com/?cid=0x0:0x26ff7bc955e771e0,
perumahan,Pembangunan Perumahan,Adam Mallet,"RQC7+J97, Waisika, Kec. Alor Tim. Laut, Kabupaten Alor, Nusa Tenggara Tim.","Kabupaten Alor, Nusa Tenggara Tim.",NUSA TENGGARA TIMUR,,Indonesia,,,,-81.791.158,1.247.651.179,https://maps.google.com/?cid=0x0:0x10d100117d537646,
perumahan,Pembangunan Perumahan,DINGKANAL ATL,"Kamot, Kec. Alor Tim. Laut, Kabupaten Alor, Nusa Tenggara Tim.","Kabupaten Alor, Nusa Tenggara Tim.",NUSA TENGGARA TIMUR,,Indonesia,82268767953,,,-81.719.577,1.247.891.096,https://maps.google.com/?cid=0x0:0x95384076799283a3,
perumahan,Komplek perumahan,Chis,"RQC8+66V, Nailang, Kec. Alor Tim. Laut, Kabupaten Alor, Nusa Tenggara Tim.","Kabupaten Alor, Nusa Tenggara Tim.",NUSA TENGGARA TIMUR,,Indonesia,,,,-81.793.919,1.247.655.364,https://maps.google.com/?cid=0x0:0x6f9016f2d4574983,
perumahan,Komplek perumahan,Esas,"RQ7F+H26, RT.16/RW.008, Waisika, Alor Timur Laut, Alor Regency, East Nusa Tenggara","Kabupaten Alor, Nusa Tenggara Tim.",NUSA TENGGARA TIMUR,,Indonesia,,,,-81.860.755,124.772.501,https://maps.google.com/?cid=0x0:0xe46a73a58cd6e592,
perumahan,Pembangunan Perumahan,Twin Jr. Maitang,"RQMC+2CH, Kamot, Kec. Alor Tim. Laut, Kabupaten Alor, Nusa Tenggara Tim.","Kabupaten Alor, Nusa Tenggara Tim.",NUSA TENGGARA TIMUR,,Indonesia,,,,-81.675.457,1.247.711.653,https://maps.google.com/?cid=0x0:0xc883215b13fe80a5,
perumahan,Pembangunan Perumahan,Desa kenarimbala,"QVM2+5HJ, Kenarimbala, Kec. Alor Tim. Laut, Kabupaten Alor, Nusa Tenggara Tim.","Kabupaten Alor, Nusa Tenggara Tim.",NUSA TENGGARA TIMUR,,Indonesia,,,,-82.170.383,1.248.513.794,https://maps.google.com/?cid=0x0:0xabdb97859c18ff51,
perumahan,perumahan,Eksam hpuse,"PP9C+WC2, Subo, Kec. Alor Sel., Kabupaten Alor, Nusa Tenggara Tim.","Kabupaten Alor, Nusa Tenggara Tim.",NUSA TENGGARA TIMUR,,Indonesia,,,,-82.802.281,1.247.210.076,https://maps.google.com/?cid=0x0:0xc2e6fd5a573cabb1,
perumahan,Pembangunan Perumahan,pilibu danfal,"QRHV+9XM, Kenarimbala, Kec. Alor Tim. Laut, Kabupaten Alor, Nusa Tenggara Tim.","Kabupaten Alor, Nusa Tenggara Tim.",NUSA TENGGARA TIMUR,,Indonesia,,,,-82.215.336,1.248.449.169,https://maps.google.com/?cid=0x0:0x642681524bcf904c,
perumahan,Pembangunan Perumahan,fenor,"RQJC+9G8, Junction - Taramana, Kamot, Kec. Alor Tim. Laut, Kabupaten Alor, Nusa Tenggara Tim.","Kabupaten Alor, Nusa Tenggara Tim.",NUSA TENGGARA TIMUR,,Indonesia,,,,-81.690.811,1.247.713.299,https://maps.google.com/?cid=0x0:0xb13829e3a5be2400,
perumahan,Pembangunan Perumahan,kenarimbala,"RQC6+2CM, Waisika, Kec. Alor Tim. Laut, Kabupaten Alor, Nusa Tenggara Tim.","Kabupaten Alor, Nusa Tenggara Tim.",NUSA TENGGARA TIMUR,,Indonesia,,,,-81.799.236,1.247.610.394,https://maps.google.com/?cid=0x0:0x81a9236969b82342,
perumahan,perumahan,Nusa Tenggara Tim.,,Nusa Tenggara Tim.,NUSA TENGGARA TIMUR,,Indonesia,,,,-86.573.819,1.210.793.705,https://maps.google.com/?cid=0x0:0x1030bfbcaf71ae0,
perumahan,perumahan,"PASAR BAWAH , ALOR NTT","Jl. Sisingamangaraja No.18, Wetabua, Kec. Tlk. Mutiara, Kabupaten Alor, Nusa Tenggara Tim. 85819","Wetabua, Kec. Tlk. Mutiara, Kabupaten Alor",NUSA TENGGARA TIMUR,85819.0,Indonesia,,,,-82.174.083,1.245.267.443,https://maps.google.com/?cid=0x0:0xe49d7d25e5ef96e6,
perumahan,perumahan,Rumah Precko Hombol,"Rumah Precko Hombol, Jl. Garuda No.30, Lendola, Kec. Tlk. Mutiara, Kabupaten Alor, Nusa Tenggara Tim. 85819","Jl. Garuda No.30, Lendola, Kec. Tlk. Mutiara, Kabupaten Alor",NUSA TENGGARA TIMUR,85819.0,Indonesia,,,,-8.211.301,124.521.917,https://maps.google.com/?cid=0x0:0x6185f25a45fa44d8,
perumahan,Komplek perumahan,Rumah Tenapi,"QGP7+VR7, Motongbang, Kec. Tlk. Mutiara, Kabupaten Alor, Nusa Tenggara Tim. 85819","Motongbang, Kec. Tlk. Mutiara, Kabupaten Alor",NUSA TENGGARA TIMUR,85819.0,Indonesia,,,,-82.132.006,1.245.140.878,https://maps.google.com/?cid=0x0:0x6dbc05ad4fa798da,
perumahan,perumahan,Kabola,"Kec. Kabola, Kabupaten Alor, Nusa Tenggara Tim.","Kabupaten Alor, Nusa Tenggara Tim.",NUSA TENGGARA TIMUR,,Indonesia,,,,-81.646.649,1.245.805.247,https://maps.google.com/?cid=0x0:0x8a7dc314a8d88bd0,
perumahan,Komplek perumahan,Rumah Ashy,"Lendola, Kec. Tlk. Mutiara, Kabupaten Alor, Nusa Tenggara Tim. 85819","Kec. Tlk. Mutiara, Kabupaten Alor",NUSA TENGGARA TIMUR,85819.0,Indonesia,85803564654,,,-8.212.412,1.245.185.252,https://maps.google.com/?cid=0x0:0xc401480cf4c56c17,
perumahan,perumahan,Kec. Kabola,"Kabupaten Alor, Nusa Tenggara Tim.","Kabupaten Alor, Nusa Tenggara Tim.",NUSA TENGGARA TIMUR,,Indonesia,,,,-81.406.175,1.245.896.567,https://maps.google.com/?cid=0x0:0x992478f27187b5b7,
perumahan,Pembangunan Perumahan,Buiko,"VH2Q+WRJ, Kabola, Kec. Kabola, Kabupaten Alor, Nusa Tenggara Tim.","Kabupaten Alor, Nusa Tenggara Tim.",NUSA TENGGARA TIMUR,,Indonesia,,,,-8.147.664,1.245.895.311,https://maps.google.com/?cid=0x0:0xe1fe8c393f450c44,
perumahan,Komplek perumahan,Komplek Keymoil,"RHPQ+8M9, Jl. Soekarno Hatta, Kabola, Kec. Kabola, Kabupaten Alor, Nusa Tenggara Tim.","Kabupaten Alor, Nusa Tenggara Tim.",NUSA TENGGARA TIMUR,,Indonesia,8235364060,,,-81.642.195,1.245.892.233,https://maps.google.com/?cid=0x0:0xf4dc70515a4ba939,
perumahan,Komplek perumahan,Kp meyhoro,"RHM2+FC, Kopidil, Kec. Kabola, Kabupaten Alor, Nusa Tenggara Tim.","Kabupaten Alor, Nusa Tenggara Tim.",NUSA TENGGARA TIMUR,,Indonesia,,,,-81.663.668,1.245.510.349,https://maps.google.com/?cid=0x0:0x78455d7eaf188b54,
perumahan,Pembangunan Perumahan,Makstho Tangpen,"RHG3+RRV, Kopidil, Kec. Kabola, Kabupaten Alor, Nusa Tenggara Tim.","Kabupaten Alor, Nusa Tenggara Tim.",NUSA TENGGARA TIMUR,,Indonesia,,,,-81.728.799,1.245.545.382,https://maps.google.com/?cid=0x0:0xb89b0948db6c76c1,
perumahan,Komplek perumahan,Opa Ne'i Home,"VG8R+H2G, Alila Tim., Kec. Kabola, Kabupaten Alor, Nusa Tenggara Tim.","Kabupaten Alor, Nusa Tenggara Tim.",NUSA TENGGARA TIMUR,,Indonesia,,,,-81.342.045,1.245.406.471,https://maps.google.com/?cid=0x0:0x3dabd1bcc3c41bde,
perumahan,Perhimpunan Pengembang Perumahan,Rumah Valen Mouwlaka,"RHF5+26G, Kopidil, Kec. Kabola, Kabupaten Alor, Nusa Tenggara Tim.","Kabupaten Alor, Nusa Tenggara Tim.",NUSA TENGGARA TIMUR,,Indonesia,,,,-81.774.268,1.245.580.684,https://maps.google.com/?cid=0x0:0x2cec35182e085e64,
perumahan,Pembangunan Perumahan,Kabupaten alor,"RGJP+CF9, Lawahing, Kec. Kabola, Kabupaten Alor, Nusa Tenggara Tim.","Kabupaten Alor, Nusa Tenggara Tim.",NUSA TENGGARA TIMUR,,Indonesia,,,,-81.689.556,124.536.223,https://maps.google.com/?cid=0x0:0xeef4a3f356f2749d,
perumahan,perumahan,Djaha,"RGGM+XV5, Lawahing, Kec. Kabola, Kabupaten Alor, Nusa Tenggara Tim.","Kabupaten Alor, Nusa Tenggara Tim.",NUSA TENGGARA TIMUR,,Indonesia,,,,-81.726.174,1.245.347.343,https://maps.google.com/?cid=0x0:0xb1b78056e4a66dfe,
perumahan,Pembangunan Perumahan,Wolatang,"RH3R+233, Jl. Soekarno Hatta, Kabola, Kec. Kabola, Kabupaten Alor, Nusa Tenggara Tim.","Kabupaten Alor, Nusa Tenggara Tim.",NUSA TENGGARA TIMUR,,Indonesia,,,,-81.974.858,1.245.901.721,https://maps.google.com/?cid=0x0:0x5ef89d880aab6e79,
perumahan,Komplek perumahan,Dukabain Pither,"RGGM+XGV, Lawahing, Kec. Kabola, Kabupaten Alor, Nusa Tenggara Tim.","Kabupaten Alor, Nusa Tenggara Tim.",NUSA TENGGARA TIMUR,,Indonesia,,,,-81.725.209,1.245.338.059,https://maps.google.com/?cid=0x0:0x719aeff137d089f6,
perumahan,perumahan,Semuel penlaana,"RHHV+W72, Jl. Soekarno Hatta, Kabola, Kec. Kabola, Kabupaten Alor, Nusa Tenggara Tim.","Kabupaten Alor, Nusa Tenggara Tim.",NUSA TENGGARA TIMUR,,Indonesia,,,,-81.702.317,124.593.136,https://maps.google.com/?cid=0x0:0x99f7f1a2d40c1e1e,
perumahan,Komplek perumahan,Trifena bali,"RHRP+4VW, Kabola, Kec. Kabola, Kabupaten Alor, Nusa Tenggara Tim.","Kabupaten Alor, Nusa Tenggara Tim.",NUSA TENGGARA TIMUR,,Indonesia,,,,-81.596.332,124.587.209,https://maps.google.com/?cid=0x0:0x6743e9a6616a323,
perumahan,perumahan,Rumah narhyo maubara,"QGMR+8J3, Kalabahi Tim., Kec. Tlk. Mutiara, Kabupaten Alor, Nusa Tenggara Tim. 85871","Kalabahi Tim., Kec. Tlk. Mutiara, Kabupaten Alor",NUSA TENGGARA TIMUR,85871.0,Indonesia,,,,-82.168.332,1.245.413.861,https://maps.google.com/?cid=0x0:0x15133ec6b01d914d,
perumahan,Komplek perumahan,One Mouwlaka,"Rt/Rw,0302, Kopidil","Kabupaten Alor, Nusa Tenggara Tim.",NUSA TENGGARA TIMUR,,Indonesia,,,,-81.770.261,1.245.580.176,https://maps.google.com/?cid=0x0:0x30b18ac3221cff6d,
perumahan,Komplek perumahan,Nophome,"RGGM+J9F, Lawahing, Kec. Kabola, Kabupaten Alor, Nusa Tenggara Tim.","Kabupaten Alor, Nusa Tenggara Tim.",NUSA TENGGARA TIMUR,,Indonesia,,,,-81.734.375,1.245.334.219,https://maps.google.com/?cid=0x0:0xf52d53aa6b2aecb7,
perumahan,perumahan,Rumah NehwiL,"QHPQ+XG7, Petleng, Kec. Alor Tengah Utara, Kabupaten Alor, Nusa Tenggara Tim.","Kabupaten Alor, Nusa Tenggara Tim.",NUSA TENGGARA TIMUR,,Indonesia,,,,-82.131.331,1.245.877.548,https://maps.google.com/?cid=0x0:0xa25365c1ccb9c9b7,
perumahan,Komplek perumahan,Danybain home,"RGGM+VJ7, Lawahing, Kec. Kabola, Kabupaten Alor, Nusa Tenggara Tim.","Kabupaten Alor, Nusa Tenggara Tim.",NUSA TENGGARA TIMUR,,Indonesia,,,,-8.172.201,1.245.337.425,https://maps.google.com/?cid=0x0:0x6beaa25b7008567,
perumahan,Komplek perumahan,Eyelbang,"RHF5+C6F, Kopidil, Kec. Kabola, Kabupaten Alor, Nusa Tenggara Tim.","Kabupaten Alor, Nusa Tenggara Tim.",NUSA TENGGARA TIMUR,,Indonesia,,,,-81.768.495,1.245.578.589,https://maps.google.com/?cid=0x0:0x5ebffdae0138b4ff,
perumahan,Komplek perumahan,Monbang,"QHX3+XFW, Kopidil, Kec. Kabola, Kabupaten Alor, Nusa Tenggara Tim.","Kabupaten Alor, Nusa Tenggara Tim.",NUSA TENGGARA TIMUR,,Indonesia,,,,-82.000.235,1.245.536.928,https://maps.google.com/?cid=0x0:0x501e42dff64bd74b,
perumahan,Komplek perumahan,Rumah starla welebain,"RHF5+26G, Kopidil, Kec. Kabola, Kabupaten Alor, Nusa Tenggara Tim.","Kabupaten Alor, Nusa Tenggara Tim.",NUSA TENGGARA TIMUR,,Indonesia,,,,-81.774.445,1.245.581.387,https://maps.google.com/?cid=0x0:0x237e59109879c46d,
perumahan,Komplek perumahan,Rumah Paul  Josua,"QHQF+86M, Welai Tim., Kec. Tlk. Mutiara, Kabupaten Alor, Nusa Tenggara Tim.","Kabupaten Alor, Nusa Tenggara Tim.",NUSA TENGGARA TIMUR,,Indonesia,,,,-82.116.533,1.245.730.466,https://maps.google.com/?cid=0x0:0x3ff77c6222abe05,
perumahan,perumahan,Nusa Tenggara Tim.,,Nusa Tenggara Tim.,NUSA TENGGARA TIMUR,,Indonesia,,,,-86.573.819,1.210.793.705,https://maps.google.com/?cid=0x0:0x1030bfbcaf71ae0,
perumahan,Hotel bintang 2,Homestay Lerebeng,"Alor Kecil, Kec. Alor Bar. Laut, Kabupaten Alor, Nusa Tenggara Tim. 85851","Kec. Alor Bar. Laut, Kabupaten Alor",NUSA TENGGARA TIMUR,85851.0,Indonesia,85237530176,,,-82.722.928,1.244.071.422,https://maps.google.com/?cid=0x0:0xd76ea90cbb3ae267,
perumahan,perumahan,BEE.DEV,"JL. JACK DJOBO No.51, Adang, Kec. Alor Bar. Laut, Kalabahi, Nusa Tenggara Tim. 85851","Adang, Kec. Alor Bar. Laut, Kalabahi",NUSA TENGGARA TIMUR,85851.0,Indonesia,82144652256,,,-8.160.836,1.244.512.135,https://maps.google.com/?cid=0x0:0xb46b4a746a3d4be9,
perumahan,perumahan,Wanted Home,"QCP4+537, Hula Kalabahi - Larantuka, RT.008/RW.004, KokarAlor BesarKec, Kec. Alor Bar. Laut, Kabupaten Alor, Nusa Tenggara Tim. 85851","Hula Kalabahi - Larantuka, RT.008/RW.004, KokarAlor BesarKec, Kec. Alor Bar. Laut, Kabupaten Alor",NUSA TENGGARA TIMUR,85851.0,Indonesia,,,,-82.145.751,1.244.051.644,https://maps.google.com/?cid=0x0:0x406d7f4b02fbcf82,
perumahan,Pusat Menyelam,Nautika Dive Alor,"Jl. Kalabahi-Kokar, RT.4/RW.2, Dusun 1, Alor Besar, Kec. Alor Bar. Laut, Kabupaten Alor, Nusa Tenggara Tim. 85851","RT.4/RW.2, Dusun 1, Alor Besar, Kec. Alor Bar. Laut, Kabupaten Alor",NUSA TENGGARA TIMUR,85851.0,Indonesia,81138000762,,,-82.425.449,1.244.046.002,https://maps.google.com/?cid=0x0:0xbcb9469514de7f40,
perumahan,perumahan,Kec. Kabola,"Kabupaten Alor, Nusa Tenggara Tim.","Kabupaten Alor, Nusa Tenggara Tim.",NUSA TENGGARA TIMUR,,Indonesia,,,,-81.406.175,1.245.896.567,https://maps.google.com/?cid=0x0:0x992478f27187b5b7,
perumahan,Pembangunan Perumahan,Buiko,"VH2Q+WRJ, Kabola, Kec. Kabola, Kabupaten Alor, Nusa Tenggara Tim.","Kabupaten Alor, Nusa Tenggara Tim.",NUSA TENGGARA TIMUR,,Indonesia,,,,-8.147.664,1.245.895.311,https://maps.google.com/?cid=0x0:0xe1fe8c393f450c44,
perumahan,Komplek perumahan,Komplek Keymoil,"RHPQ+8M9, Jl. Soekarno Hatta, Kabola, Kec. Kabola, Kabupaten Alor, Nusa Tenggara Tim.","Kabupaten Alor, Nusa Tenggara Tim.",NUSA TENGGARA TIMUR,,Indonesia,8235364060,,,-81.642.195,1.245.892.233,https://maps.google.com/?cid=0x0:0xf4dc70515a4ba939,
perumahan,Komplek perumahan,Opa Ne'i Home,"VG8R+H2G, Alila Tim., Kec. Kabola, Kabupaten Alor, Nusa Tenggara Tim.","Kabupaten Alor, Nusa Tenggara Tim.",NUSA TENGGARA TIMUR,,Indonesia,,,,-81.342.045,1.245.406.471,https://maps.google.com/?cid=0x0:0x3dabd1bcc3c41bde,
perumahan,Komplek perumahan,Kp meyhoro,"RHM2+FC, Kopidil, Kec. Kabola, Kabupaten Alor, Nusa Tenggara Tim.","Kabupaten Alor, Nusa Tenggara Tim.",NUSA TENGGARA TIMUR,,Indonesia,,,,-81.663.668,1.245.510.349,https://maps.google.com/?cid=0x0:0x78455d7eaf188b54,
perumahan,Komplek perumahan,Dukabain Pither,"RGGM+XGV, Lawahing, Kec. Kabola, Kabupaten Alor, Nusa Tenggara Tim.","Kabupaten Alor, Nusa Tenggara Tim.",NUSA TENGGARA TIMUR,,Indonesia,,,,-81.725.209,1.245.338.059,https://maps.google.com/?cid=0x0:0x719aeff137d089f6,
perumahan,Pembangunan Perumahan,Makstho Tangpen,"RHG3+RRV, Kopidil, Kec. Kabola, Kabupaten Alor, Nusa Tenggara Tim.","Kabupaten Alor, Nusa Tenggara Tim.",NUSA TENGGARA TIMUR,,Indonesia,,,,-81.728.799,1.245.545.382,https://maps.google.com/?cid=0x0:0xb89b0948db6c76c1,
perumahan,Komplek perumahan,Danybain home,"RGGM+VJ7, Lawahing, Kec. Kabola, Kabupaten Alor, Nusa Tenggara Tim.","Kabupaten Alor, Nusa Tenggara Tim.",NUSA TENGGARA TIMUR,,Indonesia,,,,-8.172.201,1.245.337.425,https://maps.google.com/?cid=0x0:0x6beaa25b7008567,
perumahan,Komplek perumahan,Eyelbang,"RHF5+C6F, Kopidil, Kec. Kabola, Kabupaten Alor, Nusa Tenggara Tim.","Kabupaten Alor, Nusa Tenggara Tim.",NUSA TENGGARA TIMUR,,Indonesia,,,,-81.768.495,1.245.578.589,https://maps.google.com/?cid=0x0:0x5ebffdae0138b4ff,
perumahan,perumahan,Rumah narhyo maubara,"QGMR+8J3, Kalabahi Tim., Kec. Tlk. Mutiara, Kabupaten Alor, Nusa Tenggara Tim. 85871","Kalabahi Tim., Kec. Tlk. Mutiara, Kabupaten Alor",NUSA TENGGARA TIMUR,85871.0,Indonesia,,,,-82.168.332,1.245.413.861,https://maps.google.com/?cid=0x0:0x15133ec6b01d914d,
perumahan,Komplek perumahan,Trifena bali,"RHRP+4VW, Kabola, Kec. Kabola, Kabupaten Alor, Nusa Tenggara Tim.","Kabupaten Alor, Nusa Tenggara Tim.",NUSA TENGGARA TIMUR,,Indonesia,,,,-81.596.332,124.587.209,https://maps.google.com/?cid=0x0:0x6743e9a6616a323,
perumahan,Pembangunan Perumahan,Wolatang,"RH3R+233, Jl. Soekarno Hatta, Kabola, Kec. Kabola, Kabupaten Alor, Nusa Tenggara Tim.","Kabupaten Alor, Nusa Tenggara Tim.",NUSA TENGGARA TIMUR,,Indonesia,,,,-81.974.858,1.245.901.721,https://maps.google.com/?cid=0x0:0x5ef89d880aab6e79,
perumahan,perumahan,Semuel penlaana,"RHHV+W72, Jl. Soekarno Hatta, Kabola, Kec. Kabola, Kabupaten Alor, Nusa Tenggara Tim.","Kabupaten Alor, Nusa Tenggara Tim.",NUSA TENGGARA TIMUR,,Indonesia,,,,-81.702.317,124.593.136,https://maps.google.com/?cid=0x0:0x99f7f1a2d40c1e1e,
perumahan,Komplek perumahan,One Mouwlaka,"Rt/Rw,0302, Kopidil","Kabupaten Alor, Nusa Tenggara Tim.",NUSA TENGGARA TIMUR,,Indonesia,,,,-81.770.261,1.245.580.176,https://maps.google.com/?cid=0x0:0x30b18ac3221cff6d,
perumahan,Komplek perumahan,Monbang,"QHX3+XFW, Kopidil, Kec. Kabola, Kabupaten Alor, Nusa Tenggara Tim.","Kabupaten Alor, Nusa Tenggara Tim.",NUSA TENGGARA TIMUR,,Indonesia,,,,-82.000.235,1.245.536.928,https://maps.google.com/?cid=0x0:0x501e42dff64bd74b,
perumahan,Komplek perumahan,Rumah starla welebain,"RHF5+26G, Kopidil, Kec. Kabola, Kabupaten Alor, Nusa Tenggara Tim.","Kabupaten Alor, Nusa Tenggara Tim.",NUSA TENGGARA TIMUR,,Indonesia,,,,-81.774.445,1.245.581.387,https://maps.google.com/?cid=0x0:0x237e59109879c46d,
perumahan,Komplek perumahan,Nophome,"RGGM+J9F, Lawahing, Kec. Kabola, Kabupaten Alor, Nusa Tenggara Tim.","Kabupaten Alor, Nusa Tenggara Tim.",NUSA TENGGARA TIMUR,,Indonesia,,,,-81.734.375,1.245.334.219,https://maps.google.com/?cid=0x0:0xf52d53aa6b2aecb7,
perumahan,Perhimpunan Pengembang Perumahan,Rumah Valen Mouwlaka,"RHF5+26G, Kopidil, Kec. Kabola, Kabupaten Alor, Nusa Tenggara Tim.","Kabupaten Alor, Nusa Tenggara Tim.",NUSA TENGGARA TIMUR,,Indonesia,,,,-81.774.268,1.245.580.684,https://maps.google.com/?cid=0x0:0x2cec35182e085e64,
perumahan,Pembangunan Perumahan,Kremlin,"VH3R+QHM, Kabola, Kec. Kabola, Kabupaten Alor, Nusa Tenggara Tim.","Kabupaten Alor, Nusa Tenggara Tim.",NUSA TENGGARA TIMUR,,Indonesia,,,,-8.146.395,124.590.458,https://maps.google.com/?cid=0x0:0x568285675c7b80d2,
perumahan,Komplek perumahan,Dedy/ yanty,"badar RT 06, Jl. Mali, Kabola, Kec. Kabola, Kabupaten Alor, Nusa Tenggara Tim.","Kabupaten Alor, Nusa Tenggara Tim.",NUSA TENGGARA TIMUR,,Indonesia,,,,-81.337.298,1.245.937.039,https://maps.google.com/?cid=0x0:0x623402cce7693006,
perumahan,Komplek perumahan,Rumah adiyanti,"RHF5+C6F, Kopidil, Kec. Kabola, Kabupaten Alor, Nusa Tenggara Tim.","Kabupaten Alor, Nusa Tenggara Tim.",NUSA TENGGARA TIMUR,,Indonesia,,,,-8.177.275,124.557.969,https://maps.google.com/?cid=0x0:0x83c4d8be2ea18523,
perumahan,Pondok,Batunirwala,"QHQG+PXJ, Petleng, Kec. Alor Tengah Utara, Kabupaten Alor, Nusa Tenggara Tim.","Kabupaten Alor, Nusa Tenggara Tim.",NUSA TENGGARA TIMUR,,Indonesia,,,,-82.106.581,1.245.773.837,https://maps.google.com/?cid=0x0:0xa6dae047baba7930,
perumahan,perumahan,Nelly's Home,"VH5V+22M, Kabola, Kec. Kabola, Kabupaten Alor, Nusa Tenggara Tim.","Kabupaten Alor, Nusa Tenggara Tim.",NUSA TENGGARA TIMUR,,Indonesia,,,,-81.422.503,1.245.914.672,https://maps.google.com/?cid=0x0:0x6bd58a3688368166,
perumahan,perumahan,Djaha,"RGGM+XV5, Lawahing, Kec. Kabola, Kabupaten Alor, Nusa Tenggara Tim.","Kabupaten Alor, Nusa Tenggara Tim.",NUSA TENGGARA TIMUR,,Indonesia,,,,-81.726.174,1.245.347.343,https://maps.google.com/?cid=0x0:0xb1b78056e4a66dfe,
perumahan,perumahan,Nusa Tenggara Tim.,,Nusa Tenggara Tim.,NUSA TENGGARA TIMUR,,Indonesia,,,,-86.573.819,1.210.793.705,https://maps.google.com/?cid=0x0:0x1030bfbcaf71ae0,
perumahan,Komplek perumahan,Dewi Blegur Home,"RH2V+657, Alim Mebung, Kec. Alor Tengah Utara, Kabupaten Alor, Nusa Tenggara Tim. 85871","Alim Mebung, Kec. Alor Tengah Utara, Kabupaten Alor",NUSA TENGGARA TIMUR,85871.0,Indonesia,,,,-81.994.622,1.245.929.157,https://maps.google.com/?cid=0x0:0x79be4c548eac972a,
perumahan,perumahan,Rumah narhyo maubara,"QGMR+8J3, Kalabahi Tim., Kec. Tlk. Mutiara, Kabupaten Alor, Nusa Tenggara Tim. 85871","Kalabahi Tim., Kec. Tlk. Mutiara, Kabupaten Alor",NUSA TENGGARA TIMUR,85871.0,Indonesia,,,,-82.168.332,1.245.413.861,https://maps.google.com/?cid=0x0:0x15133ec6b01d914d,
perumahan,Komplek perumahan,Sylaimang,"QPCF+GP9, Sylaimang, Waimi, Kec. Lembur, Kabupaten Alor, Nusa Tenggara Tim.","Kabupaten Alor, Nusa Tenggara Tim.",NUSA TENGGARA TIMUR,,Indonesia,,,,-82.287.177,124.724.352,https://maps.google.com/?cid=0x0:0x26ff7bc955e771e0,
perumahan,Komplek perumahan,"Silaimang, Lembur Alor NTT","QP5P+352, Waimi, Kec. Lembur, Kabupaten Alor, Nusa Tenggara Tim.","Kabupaten Alor, Nusa Tenggara Tim.",NUSA TENGGARA TIMUR,,Indonesia,,,,-82.423.652,1.247.354.031,https://maps.google.com/?cid=0x0:0xa670f0dd0b6696ce,
perumahan,Komplek perumahan,Lelahomi,"RMQJ+73C, Lelahomi, Kec. Lembur, Kabupaten Alor, Nusa Tenggara Tim.","Kabupaten Alor, Nusa Tenggara Tim.",NUSA TENGGARA TIMUR,,Indonesia,,,,-81.618.048,1.246.801.328,https://maps.google.com/?cid=0x0:0xa5c94827d94326ac,
perumahan,Komplek perumahan,Senfa,"RPV6+G83, Lembur Tim., Kec. Lembur, Kabupaten Alor, Nusa Tenggara Tim.","Kabupaten Alor, Nusa Tenggara Tim.",NUSA TENGGARA TIMUR,,Indonesia,,,,-81.564.682,1.247.096.173,https://maps.google.com/?cid=0x0:0x62534a62c6968fa4,
perumahan,Bangunan Bersejarah,Kampung Lama Tifolapeng,"QJXR+8X, Fungafeng, Kec. Alor Tengah Utara, Kabupaten Alor, Nusa Tenggara Tim.","Kabupaten Alor, Nusa Tenggara Tim.",NUSA TENGGARA TIMUR,,Indonesia,,,,-82.015.578,1.246.424.272,https://maps.google.com/?cid=0x0:0xf6e237ade20ab63d,
perumahan,perumahan,Komplek bukit,"QMRR+5F7, Luba, Kec. Lembur, Kabupaten Alor, Nusa Tenggara Tim.","Kabupaten Alor, Nusa Tenggara Tim.",NUSA TENGGARA TIMUR,,Indonesia,,,,-82.095.814,1.246.911.804,https://maps.google.com/?cid=0x0:0xa6281d55c091af61,
perumahan,Komplek perumahan,Tulleng,"RPVH+PM4, Lembur Tim., Kec. Lembur, Kabupaten Alor, Nusa Tenggara Tim.","Kabupaten Alor, Nusa Tenggara Tim.",NUSA TENGGARA TIMUR,,Indonesia,,,,-81.569.134,1.247.293.469,https://maps.google.com/?cid=0x0:0x3cd8c2b08b2c3971,
perumahan,Komplek perumahan,Di Kabailu Sini,"PPF3+84V, Kelaisi Tengah, Kec. Alor Sel., Kabupaten Alor, Nusa Tenggara Tim.","Kabupaten Alor, Nusa Tenggara Tim.",NUSA TENGGARA TIMUR,,Indonesia,,,,-82.766.402,1.247.027.911,https://maps.google.com/?cid=0x0:0x108506a220bbb697,
perumahan,Penginapan Dalam Ruangan,Sibone,"RJCW+QXG, Unnamed Road, Fungafeng, Kec. Alor Tengah Utara, Kabupaten Alor, Nusa Tenggara Tim.","Kabupaten Alor, Nusa Tenggara Tim.",NUSA TENGGARA TIMUR,,Indonesia,,,,-81.780.718,1.246.474.601,https://maps.google.com/?cid=0x0:0x11de56462bbca22d,
perumahan,Komplek perumahan,Rumah Brams,"RQM2+F8Q, Tulleng, Kec. Lembur, Kabupaten Alor, Nusa Tenggara Tim.","Kabupaten Alor, Nusa Tenggara Tim.",NUSA TENGGARA TIMUR,,Indonesia,,,,-81.662.814,1.247.508.445,https://maps.google.com/?cid=0x0:0x87b1e55aa6fbafd6,
perumahan,Komplek perumahan,Sifa Yulanda,"PPGC+XVV, Kelaisi Tim., Kec. Alor Sel., Kabupaten Alor, Nusa Tenggara Tim.","Kabupaten Alor, Nusa Tenggara Tim.",NUSA TENGGARA TIMUR,,Indonesia,82147216432,,,-82.716.949,1.247.227.021,https://maps.google.com/?cid=0x0:0x5c1d690491800100,
perumahan,perumahan,Eksam hpuse,"PP9C+WC2, Subo, Kec. Alor Sel., Kabupaten Alor, Nusa Tenggara Tim.","Kabupaten Alor, Nusa Tenggara Tim.",NUSA TENGGARA TIMUR,,Indonesia,,,,-82.802.281,1.247.210.076,https://maps.google.com/?cid=0x0:0xc2e6fd5a573cabb1,
perumahan,Komplek perumahan,Complex Kamandun Village,"RQGH+Q68, Nailang, Kec. Alor Tim. Laut, Kabupaten Alor, Nusa Tenggara Tim.","Kabupaten Alor, Nusa Tenggara Tim.",NUSA TENGGARA TIMUR,,Indonesia,,,,-81.730.803,1.247.780.887,https://maps.google.com/?cid=0x0:0x28e2e03b18cd23e7,
perumahan,Komplek perumahan,Labapang,"RQ96+99R, Waisika, Kec. Alor Tim. Laut, Kabupaten Alor, Nusa Tenggara Tim.","Kabupaten Alor, Nusa Tenggara Tim.",NUSA TENGGARA TIMUR,,Indonesia,,,,-81.815.212,1.247.608.914,https://maps.google.com/?cid=0x0:0xfe6b92e6d615d939,
perumahan,Komplek perumahan,Susianti kawangmasi,"RPPW+WF4, Lembur Tim., Kec. Lembur, Kabupaten Alor, Nusa Tenggara Tim.","Kabupaten Alor, Nusa Tenggara Tim.",NUSA TENGGARA TIMUR,,Indonesia,,,,-81.627.435,1.247.461.922,https://maps.google.com/?cid=0x0:0xdaa20d7e3b95bc7a,
perumahan,Komplek perumahan,Rumah Lorens,"RPMX+X4J, Tulleng, Kec. Lembur, Kabupaten Alor, Nusa Tenggara Tim.","Kabupaten Alor, Nusa Tenggara Tim.",NUSA TENGGARA TIMUR,,Indonesia,,,,-81.650.458,1.247.477.649,https://maps.google.com/?cid=0x0:0x13767059e51f24b7,
perumahan,Perhimpunan Pengembang Perumahan,Tengah,"QMFG+4WH, Lembur Tengah, Kec. Alor Tengah Utara, Kabupaten Alor, Nusa Tenggara Tim.","Kabupaten Alor, Nusa Tenggara Tim.",NUSA TENGGARA TIMUR,,Indonesia,,,,-82.271.785,1.246.773.561,https://maps.google.com/?cid=0x0:0xd23c47c9f812e9d8,
perumahan,Komplek perumahan,Rumah USU safa,"RPMX+249, Tulleng, Kec. Lembur, Kabupaten Alor, Nusa Tenggara Tim.","Kabupaten Alor, Nusa Tenggara Tim.",NUSA TENGGARA TIMUR,,Indonesia,,,,-816.777,12.474.772,https://maps.google.com/?cid=0x0:0xe2838fcaff8ada49,
perumahan,Komplek perumahan,Minggus maukati,"RPMX+249, Unnamed Road, Tulleng, Kec. Lembur, Kabupaten Alor, Nusa Tenggara Tim.","Kabupaten Alor, Nusa Tenggara Tim.",NUSA TENGGARA TIMUR,,Indonesia,,,,-81.674.684,124.747.862,https://maps.google.com/?cid=0x0:0xa24ca1a4de980737,
perumahan,Perhimpunan Pengembang Perumahan,Edison fakang,"RPV6+G8F, Lembur Tim., Kec. Lembur, Kabupaten Alor, Nusa Tenggara Tim.","Kabupaten Alor, Nusa Tenggara Tim.",NUSA TENGGARA TIMUR,,Indonesia,,,,-81.558.291,1.247.107.689,https://maps.google.com/?cid=0x0:0x4e6ca0f14147081,
perumahan,perumahan,Kec. Mataru,"Kabupaten Alor, Nusa Tenggara Tim.","Kabupaten Alor, Nusa Tenggara Tim.",NUSA TENGGARA TIMUR,,Indonesia,,,,-83.884.051,1.246.622.708,https://maps.google.com/?cid=0x0:0xf3860e1b130bc22b,
perumahan,Komplek perumahan,Matafui,"JJP5+69, Mataru Bar., Kec. Mataru, Kabupaten Alor, Nusa Tenggara Tim.","Kabupaten Alor, Nusa Tenggara Tim.",NUSA TENGGARA TIMUR,,Indonesia,,,,-83.644.118,1.246.084.236,https://maps.google.com/?cid=0x0:0x16e90b5f234f75a2,
perumahan,Komplek perumahan,BUNGGETA,"MJ4H+2F, Mataru Utara, Kec. Mataru, Kabupaten Alor, Nusa Tenggara Tim.","Kabupaten Alor, Nusa Tenggara Tim.",NUSA TENGGARA TIMUR,,Indonesia,,,,-8.344.937,124.628.713,https://maps.google.com/?cid=0x0:0xf3ceff18ec1fafaf,
perumahan,Perumahan,PERUMAHAN TRANSMIGRASI,"JM8J+JHJ, eybiki, Mataru Sel., Kec. Mataru, Kabupaten Alor, Nusa Tenggara Tim.","Kabupaten Alor, Nusa Tenggara Tim.",NUSA TENGGARA TIMUR,,Indonesia,,,,-83.834.141,1.246.813.822,https://maps.google.com/?cid=0x0:0x3ac54318c15b211f,
perumahan,Komplek perumahan,Madjeni Neng_Ar,"JM5Q+855, Mataru Sel., Kec. Mataru, Kabupaten Alor, Nusa Tenggara Tim.","Kabupaten Alor, Nusa Tenggara Tim.",NUSA TENGGARA TIMUR,,Indonesia,,,,-83.917.452,1.246.879.929,https://maps.google.com/?cid=0x0:0x2e900546bb0b79e6,
perumahan,Perhimpunan Pengembang Perumahan,Atta rumalelang,"MJ23+J3M, Mataru Bar., Kec. Mataru, Kabupaten Alor, Nusa Tenggara Tim.","Kabupaten Alor, Nusa Tenggara Tim.",NUSA TENGGARA TIMUR,,Indonesia,,,,-83.484.221,1.246.026.671,https://maps.google.com/?cid=0x0:0x17e487ba7222db1d,
perumahan,Kompleks Kondominium,KOMPLEKS KADANGHAWAY,"JJXG+F6P, Mataru Utara, Kec. Mataru, Kabupaten Alor, Nusa Tenggara Tim.","Kabupaten Alor, Nusa Tenggara Tim.",NUSA TENGGARA TIMUR,,Indonesia,,,,-83.512.763,1.246.255.894,https://maps.google.com/?cid=0x0:0xa46f398fae2da3f2,
perumahan,Komplek perumahan,Kampung Baru,"MM88+6RP, Kamaifui, Kec. Mataru, Kabupaten Alor, Nusa Tenggara Tim.","Kabupaten Alor, Nusa Tenggara Tim.",NUSA TENGGARA TIMUR,,Indonesia,,,,-83.344.203,1.246.670.671,https://maps.google.com/?cid=0x0:0xf69901b0d43c9ea2,
perumahan,Komplek perumahan,NENG_AR KOMPLEKX,"JM5Q+87W, Mataru Sel., Kec. Mataru, Kabupaten Alor, Nusa Tenggara Tim.","Kabupaten Alor, Nusa Tenggara Tim.",NUSA TENGGARA TIMUR,,Indonesia,,,,-83.916.294,1.246.881.932,https://maps.google.com/?cid=0x0:0xd7b48bc384621b5b,
perumahan,Kantor Pemerintah,Perumahan Translok Mataru Selatan,"JMJR+XFM, Mataru Sel., Kec. Mataru, Kabupaten Alor, Nusa Tenggara Tim.","Kabupaten Alor, Nusa Tenggara Tim.",NUSA TENGGARA TIMUR,,Indonesia,,,,-83.675.447,1.246.911.804,https://maps.google.com/?cid=0x0:0xed34a273e488967a,
perumahan,Perhimpunan Pengembang Perumahan,desa OTVAI,"JMJR+XFM, Mataru Sel., Kec. Mataru, Kabupaten Alor, Nusa Tenggara Tim.","Kabupaten Alor, Nusa Tenggara Tim.",NUSA TENGGARA TIMUR,,Indonesia,,,,-83.675.447,1.246.911.804,https://maps.google.com/?cid=0x0:0xfdeace99a2849989,
perumahan,Komplek perumahan,Malangtey Nenek Karmoy,"JH8R+3R, Mataru Bar., Kec. Mataru, Kabupaten Alor, Nusa Tenggara Tim.","Kabupaten Alor, Nusa Tenggara Tim.",NUSA TENGGARA TIMUR,,Indonesia,,,,-838.486,124.592.057,https://maps.google.com/?cid=0x0:0xa967a6aac7844759,
perumahan,Pembangunan Perumahan,Lielwi kampung lama,"JH3J+XG4, Lakatuli, Kec. Mataru, Kabupaten Alor, Nusa Tenggara Tim.","Kabupaten Alor, Nusa Tenggara Tim.",NUSA TENGGARA TIMUR,,Indonesia,,,,-83.951.014,1.245.813.269,https://maps.google.com/?cid=0x0:0xcd8713ff4bd3b1f5,
perumahan,Pembangunan Perumahan,tuan tobi,"JM6C+826, Mataru Sel., Kec. Mataru, Kabupaten Alor, Nusa Tenggara Tim.","Kabupaten Alor, Nusa Tenggara Tim.",NUSA TENGGARA TIMUR,,Indonesia,,,,-8.389.495,124.670.553,https://maps.google.com/?cid=0x0:0xba45f9bcc8238294,
perumahan,Komplek perumahan,Manet,"MM78+RG7, Kamaifui, Kec. Mataru, Kabupaten Alor, Nusa Tenggara Tim.","Kabupaten Alor, Nusa Tenggara Tim.",NUSA TENGGARA TIMUR,,Indonesia,,,,-8.335.464,1.246.663.059,https://maps.google.com/?cid=0x0:0xd454b52550e63726,
perumahan,Pembangunan Perumahan,YUNUS KOLPADA,"JM6F+4C, Mataru Sel., Kec. Mataru, Kabupaten Alor, Nusa Tenggara Tim.","Kabupaten Alor, Nusa Tenggara Tim.",NUSA TENGGARA TIMUR,,Indonesia,,,,-83.896.875,1.246.735.625,https://maps.google.com/?cid=0x0:0x8aa2c3baa31a8d53,
perumahan,Komplek perumahan,StigoMarewa,"MM82+4C Stigo marewa, Taman Mataru, Kec. Mataru, Kabupaten Alor, Nusa Tenggara Tim.","Kabupaten Alor, Nusa Tenggara Tim.",NUSA TENGGARA TIMUR,,Indonesia,,,,-83.346.686,1.246.510.983,https://maps.google.com/?cid=0x0:0x89bd3a9c187e8aaf,
perumahan,Pembangunan Perumahan,Simson,"JJVG+VM, Mataru Utara, Kec. Mataru, Kabupaten Alor, Nusa Tenggara Tim.","Kabupaten Alor, Nusa Tenggara Tim.",NUSA TENGGARA TIMUR,,Indonesia,,,,-83.553.125,1.246.266.875,https://maps.google.com/?cid=0x0:0xa086a47a2564401e,
perumahan,Kantor Pemerintah,DESA LAKATULI,"HJVM+H4G, Lakatuli, Kec. Mataru, Kabupaten Alor, Nusa Tenggara Tim.","Kabupaten Alor, Nusa Tenggara Tim.",NUSA TENGGARA TIMUR,,Indonesia,,,,-84.060.684,1.246.328.294,https://maps.google.com/?cid=0x0:0xfc58977c34bed109,
perumahan,Pembangunan Perumahan,Desa Eibiki,"MJ3F+GW3, Mataru Utara, Kec. Mataru, Kabupaten Alor, Nusa Tenggara Tim.","Kabupaten Alor, Nusa Tenggara Tim.",NUSA TENGGARA TIMUR,,Indonesia,,,,-83.462.275,1.246.248.039,https://maps.google.com/?cid=0x0:0x1fcf0e8b85b391ba,
perumahan,perumahan,Rumah Ongki,"JM6C+826, Mataru Sel., Kec. Mataru, Kabupaten Alor, Nusa Tenggara Tim.","Kabupaten Alor, Nusa Tenggara Tim.",NUSA TENGGARA TIMUR,,Indonesia,,,,-83.896.437,1.246.716.897,https://maps.google.com/?cid=0x0:0x3351d2be3437c355,
perumahan,Komplek perumahan,Mata air familly,"JMJR+XFM, Mataru Sel., Kec. Mataru, Kabupaten Alor, Nusa Tenggara Tim.","Kabupaten Alor, Nusa Tenggara Tim.",NUSA TENGGARA TIMUR,,Indonesia,,,,-83.675.447,1.246.911.804,https://maps.google.com/?cid=0x0:0x438c8a6e69960645,
perumahan,Komplek perumahan,Allung,"J38C+W8P, Leer, Kec. Pantar Bar., Kabupaten Alor, Nusa Tenggara Tim.","Kabupaten Alor, Nusa Tenggara Tim.",NUSA TENGGARA TIMUR,,Indonesia,,,,-838.265,1.240.707.761,https://maps.google.com/?cid=0x0:0x86db2757bb6eb19,
perumahan,Pembangunan Perumahan,Allung Habang,"Kecematan, 004, RT./RW/RW.008, Leer, Kec. Pantar Bar., Kabupaten Alor, Nusa Tenggara Tim. 85881","004, RT./RW/RW.008, Leer, Kec. Pantar Bar., Kabupaten Alor",NUSA TENGGARA TIMUR,85881.0,Indonesia,,,,-83.540.673,1.240.697.103,https://maps.google.com/?cid=0x0:0x262d4a6ce610873a,
perumahan,Komplek perumahan,WENAR HOUSE,"P883+QG8, Ombay, Kec. Pantar Tim., Kabupaten Alor, Nusa Tenggara Tim.","Kabupaten Alor, Nusa Tenggara Tim.",NUSA TENGGARA TIMUR,,Indonesia,,,,-8.283.089,1.243.038.322,https://maps.google.com/?cid=0x0:0xd788b897ef348763,
perumahan,perumahan,Kec. Pantar,"Kabupaten Alor, Nusa Tenggara Tim.","Kabupaten Alor, Nusa Tenggara Tim.",NUSA TENGGARA TIMUR,,Indonesia,,,,-82.529.949,1.242.147.118,https://maps.google.com/?cid=0x0:0x3684b30a9a0625e0,
perumahan,perumahan,Rumah inong,"P6G3+HM, Madar, Kec. Pantar, Kabupaten Alor, Nusa Tenggara Tim.","Kabupaten Alor, Nusa Tenggara Tim.",NUSA TENGGARA TIMUR,,Indonesia,,,,-82.735.496,1.242.041.885,https://maps.google.com/?cid=0x0:0x66da18fa66140f72,
perumahan,Komplek perumahan,Sawah. Kabir,"P6RC+GFQ, Kabir, Kec. Pantar, Kabupaten Alor, Nusa Tenggara Tim.","Kabupaten Alor, Nusa Tenggara Tim.",NUSA TENGGARA TIMUR,,Indonesia,,,,-82.586.728,124.221.249,https://maps.google.com/?cid=0x0:0x7e695d15efdbb56d,
perumahan,Komplek perumahan,Mutiara Atas,"P6X9+42Q, Kabir, Kec. Pantar, Kabupaten Alor, Nusa Tenggara Tim.","Kabupaten Alor, Nusa Tenggara Tim.",NUSA TENGGARA TIMUR,,Indonesia,,,,-82.511.427,1.242.172.435,https://maps.google.com/?cid=0x0:0x73b0ddcc5058dbde,
perumahan,Pembangunan Perumahan,Rumah Nyaman,"P7HF+RR9, Merdeka, Kec. Pantar Tim., Kabupaten Alor, Nusa Tenggara Tim.","Kabupaten Alor, Nusa Tenggara Tim.",NUSA TENGGARA TIMUR,,Indonesia,,,,-82.704.616,1.242.745.965,https://maps.google.com/?cid=0x0:0x99fcc505f7ae97b1,
perumahan,Pembangunan Perumahan,Panea,"Q64X+J3W, Panea, Bukitmas, Kec. Pantar, Kabupaten Alor","Kabupaten Alor, Nusa Tenggara Tim.",NUSA TENGGARA TIMUR,,Indonesia,,,,-8.243.391,1.242.477.171,https://maps.google.com/?cid=0x0:0x4ca25774d4cc255f,
perumahan,perumahan,Rumah bp Tajudin Bolang,"Q6JJ+J66, Wailawar, Kec. Pantar, Kabupaten Alor, Nusa Tenggara Tim.","Kabupaten Alor, Nusa Tenggara Tim.",NUSA TENGGARA TIMUR,,Indonesia,,,,-82.184.698,1.242.305,https://maps.google.com/?cid=0x0:0x4a05a92e47e9c7a1,
perumahan,perumahan,Sungai,"P6RC+GFQ, Kabir, Kec. Pantar, Kabupaten Alor, Nusa Tenggara Tim.","Kabupaten Alor, Nusa Tenggara Tim.",NUSA TENGGARA TIMUR,,Indonesia,,,,-82.591.159,1.242.198.737,https://maps.google.com/?cid=0x0:0x9b790977e5f1dbef,
perumahan,Komplek perumahan,My home,"P738+4W, Kaera, Kec. Pantar Tim., Kabupaten Alor, Nusa Tenggara Tim.","Kabupaten Alor, Nusa Tenggara Tim.",NUSA TENGGARA TIMUR,,Indonesia,,,,-82.971.367,1.242.674.028,https://maps.google.com/?cid=0x0:0x53781a7aad0632da,
perumahan,perumahan,M. Irfan,"Q6RR+VHR, Waiwagang, Wailawar, Kec. Pantar, Kabupaten Alor, Nusa Tenggara Tim.","Kabupaten Alor, Nusa Tenggara Tim.",NUSA TENGGARA TIMUR,,Indonesia,,,,-8.206.472,124.241.781,https://maps.google.com/?cid=0x0:0x65935df51672e822,
perumahan,Komplek perumahan,Rumah bpk sudirman bako,"Q6QP+JMC, Wailawar, Kec. Pantar, Kabupaten Alor, Nusa Tenggara Tim.","Kabupaten Alor, Nusa Tenggara Tim.",NUSA TENGGARA TIMUR,,Indonesia,,,,-82.109.391,1.242.366.513,https://maps.google.com/?cid=0x0:0x90cd9579e29f5813,
perumahan,perumahan,Rumah AKEN LALANG COM,"P6R9+273, Bouweli, Kec. Pantar, Kabupaten Alor, Nusa Tenggara Tim.","Kabupaten Alor, Nusa Tenggara Tim.",NUSA TENGGARA TIMUR,,Indonesia,,,,-82.603.545,1.242.173.069,https://maps.google.com/?cid=0x0:0x2ba0a774ecd0db3,
perumahan,perumahan,Rumah Geri sali,"P6R9+273, Bouweli, Kec. Pantar, Kabupaten Alor, Nusa Tenggara Tim.","Kabupaten Alor, Nusa Tenggara Tim.",NUSA TENGGARA TIMUR,,Indonesia,,,,-8.261.186,124.216.701,https://maps.google.com/?cid=0x0:0xd14d72b6afdf9e26,
perumahan,Komplek perumahan,RUMAH SAHRIN,"Q6JH+QPR, Wailawar, Kec. Pantar, Kabupaten Alor, Nusa Tenggara Tim.","Kabupaten Alor, Nusa Tenggara Tim.",NUSA TENGGARA TIMUR,,Indonesia,,,,-82.180.003,1.242.292.732,https://maps.google.com/?cid=0x0:0x519c5068b41daa65,
perumahan,Komplek perumahan,Rumah Amos koli,"P6RC+GFQ, Kabir, Kec. Pantar, Kabupaten Alor, Nusa Tenggara Tim.","Kabupaten Alor, Nusa Tenggara Tim.",NUSA TENGGARA TIMUR,,Indonesia,,,,-82.586.163,124.221.129,https://maps.google.com/?cid=0x0:0x5a3cf541c6b359e4,
perumahan,Komplek perumahan,Kampung lawar,"Q6JH+QPR, Wailawar, Kec. Pantar, Kabupaten Alor, Nusa Tenggara Tim.","Kabupaten Alor, Nusa Tenggara Tim.",NUSA TENGGARA TIMUR,,Indonesia,,,,-82.180.129,1.242.292.561,https://maps.google.com/?cid=0x0:0x8945597abb9e611b,
perumahan,Pembangunan Perumahan,Cobra kompleks,"Q648+RXH, Kabir, Kec. Pantar, Kabupaten Alor, Nusa Tenggara Tim.","Kabupaten Alor, Nusa Tenggara Tim.",NUSA TENGGARA TIMUR,,Indonesia,,,,-8.242.943,1.242.174.828,https://maps.google.com/?cid=0x0:0x49d85d992b4b0e50,
perumahan,Komplek perumahan,Bukalabang,"P7HF+CJJ, Merdeka, Kec. Pantar Tim., Kabupaten Alor, Nusa Tenggara Tim.","Kabupaten Alor, Nusa Tenggara Tim.",NUSA TENGGARA TIMUR,,Indonesia,82213353358,,,-82.714.228,1.242.740.044,https://maps.google.com/?cid=0x0:0x14581bcabfd19df5,
perumahan,Pembangunan Perumahan,Masry Home,"P7HG+V6G, Merdeka, Kec. Pantar Tim., Kabupaten Alor, Nusa Tenggara Tim.","Kabupaten Alor, Nusa Tenggara Tim.",NUSA TENGGARA TIMUR,,Indonesia,,,,-8.270.316,1.242.755.795,https://maps.google.com/?cid=0x0:0x91157e673e7ca6b7,
perumahan,Pembangunan Perumahan,Rumah Baru,"M727+226, Kaleb, Kec. Pantar Tim., Kabupaten Alor, Nusa Tenggara Tim.","Kabupaten Alor, Nusa Tenggara Tim.",NUSA TENGGARA TIMUR,,Indonesia,,,,-83.499.732,1.242.625.273,https://maps.google.com/?cid=0x0:0x37b589546f521fdf,
perumahan,Komplek perumahan,lalafang baru,"J5R7+CPW, tonte desa, Lalafang, Kec. Pantar Tim., Kabupaten Alor, Nusa Tenggara Tim.","Kabupaten Alor, Nusa Tenggara Tim.",NUSA TENGGARA TIMUR,,Indonesia,,,,-83.588.834,1.241.643.201,https://maps.google.com/?cid=0x0:0x7c11efebd35196f6,
perumahan,Komplek perumahan,Benuera,"M8V5+33M, Mawar, Kec. Pantar Tim., Kabupaten Alor, Nusa Tenggara Tim.","Kabupaten Alor, Nusa Tenggara Tim.",NUSA TENGGARA TIMUR,,Indonesia,,,,-83.082.944,1.243.072.949,https://maps.google.com/?cid=0x0:0x2789b9685a7ce33b,
perumahan,Komplek perumahan,Kampung MALAL,"M8GQ+HF7, Pura Sel., Kec. Pulau Pura, Kabupaten Alor, Nusa Tenggara Tim.","Kabupaten Alor, Nusa Tenggara Tim.",NUSA TENGGARA TIMUR,,Indonesia,,,,-83.235.925,1.243.386.778,https://maps.google.com/?cid=0x0:0x20df54b73f03eb85,
perumahan,perumahan,Rumah adat wutung wala,"J3QV+6RR, Baranusa, Kec. Pantar Bar., Kabupaten Alor, Nusa Tenggara Tim.","Kabupaten Alor, Nusa Tenggara Tim.",NUSA TENGGARA TIMUR,,Indonesia,,,,-83.618.938,1.240.945.069,https://maps.google.com/?cid=0x0:0x2ce73ecaf9e3f39,
perumahan,perumahan,Kec. Pantar Bar.,"Kabupaten Alor, Nusa Tenggara Tim.","Kabupaten Alor, Nusa Tenggara Tim.",NUSA TENGGARA TIMUR,,Indonesia,,,,-83.599.628,1.240.945.669,https://maps.google.com/?cid=0x0:0xdd9980259e181660,
perumahan,Komplek perumahan,Rumah rahmatia,"J3QW+W73, Baranusa, Kec. Pantar Bar., Kabupaten Alor, Nusa Tenggara Tim.","Kabupaten Alor, Nusa Tenggara Tim.",NUSA TENGGARA TIMUR,,Indonesia,,,,-83.602.342,124.095.664,https://maps.google.com/?cid=0x0:0xdea2c0f52613dcf3,
perumahan,Komplek perumahan,Rumah Syarif sara,"J3RW+G3G, Blang Merang, Kec. Pantar Bar., Kabupaten Alor, Nusa Tenggara Tim.","Kabupaten Alor, Nusa Tenggara Tim.",NUSA TENGGARA TIMUR,,Indonesia,,,,-83.586.861,124.095.205,https://maps.google.com/?cid=0x0:0xe242bbbd7ba465ca,
perumahan,Pembangunan Perumahan,Sandiata Uma Beba,"J3QW+W73, Baranusa, Kec. Pantar Bar., Kabupaten Alor, Nusa Tenggara Tim.","Kabupaten Alor, Nusa Tenggara Tim.",NUSA TENGGARA TIMUR,,Indonesia,,,,-8.360.404,1.240.957.365,https://maps.google.com/?cid=0x0:0x84f7cde9bd4a1a9d,
perumahan,Pembangunan Perumahan,ALLUNG,"J3QV+XRM, Baraler, Kec. Pantar Bar., Kabupaten Alor, Nusa Tenggara Tim.","Kabupaten Alor, Nusa Tenggara Tim.",NUSA TENGGARA TIMUR,,Indonesia,,,,-83.600.449,1.240.945.507,https://maps.google.com/?cid=0x0:0x1c01e2269e7eba86,
perumahan,Pembangunan Perumahan,Syam ola,"J3VV+F82, Blang Merang, Kec. Pantar Bar., Kabupaten Alor, Nusa Tenggara Tim.","Kabupaten Alor, Nusa Tenggara Tim.",NUSA TENGGARA TIMUR,,Indonesia,,,,-83.567.827,1.240.942.183,https://maps.google.com/?cid=0x0:0xdb9e78386dbd90f2,
perumahan,Perhimpunan Pengembang Perumahan,Pantar barat,"J3FP+GW7, RT.2/RW.1, Illu, Kec. Pantar Bar., Kabupaten Alor, Nusa Tenggara Tim.","Kabupaten Alor, Nusa Tenggara Tim.",NUSA TENGGARA TIMUR,,Indonesia,,,,-83.762.132,1.240.872.952,https://maps.google.com/?cid=0x0:0xdd24c741954a0d3,
perumahan,Komplek perumahan,Kerajaan Lelupang,"J3W9+9VG, Leer, Kec. Pantar Bar., Kabupaten Alor, Nusa Tenggara Tim.","Kabupaten Alor, Nusa Tenggara Tim.",NUSA TENGGARA TIMUR,,Indonesia,,,,-83.540.673,1.240.697.103,https://maps.google.com/?cid=0x0:0x77d06a705881eb3d,
perumahan,Pembangunan Perumahan,Rumah Kel. A.Waly,"J3JG+GJM, Leer, Kec. Pantar Bar., Kabupaten Alor, Nusa Tenggara Tim.","Kabupaten Alor, Nusa Tenggara Tim.",NUSA TENGGARA TIMUR,,Indonesia,,,,-83.680.715,1.240.766.706,https://maps.google.com/?cid=0x0:0xe91ace31b3419b74,
perumahan,Pembangunan Perumahan,Murowatang,"M34P+Q8P, Leer, Kec. Pantar Bar., Kabupaten Alor, Nusa Tenggara Tim.","Kabupaten Alor, Nusa Tenggara Tim.",NUSA TENGGARA TIMUR,,Indonesia,,,,-83.430.499,124.085.821,https://maps.google.com/?cid=0x0:0xc99b14e50d771671,
perumahan,Perhimpunan Pengembang Perumahan,Belangmerang,"J3RR+7RQ, Blang Merang, Kec. Pantar Bar., Kabupaten Alor, Nusa Tenggara Tim.","Kabupaten Alor, Nusa Tenggara Tim.",NUSA TENGGARA TIMUR,,Indonesia,,,,-83.595.612,1.240.920.122,https://maps.google.com/?cid=0x0:0x7521ab0ae2513c15,
perumahan,Komplek perumahan,Aman Subadi,"J3QV+W92, Unnamed Road, Baraler, Kec. Pantar Bar., Kabupaten Alor, Nusa Tenggara Tim.","Kabupaten Alor, Nusa Tenggara Tim.",NUSA TENGGARA TIMUR,,Indonesia,,,,-83.602.362,1.240.933.885,https://maps.google.com/?cid=0x0:0xe08a28a023535002,
perumahan,perumahan,Rumahku,"J3RV+X73, Blang Merang, Kec. Pantar Bar., Kabupaten Alor, Nusa Tenggara Tim.","Kabupaten Alor, Nusa Tenggara Tim.",NUSA TENGGARA TIMUR,,Indonesia,,,,-83.577.474,1.240.929.952,https://maps.google.com/?cid=0x0:0x8c9e67c4c9cca44e,
perumahan,Pembangunan Perumahan,Rumah amir Jou,"J3RW+84M, Blang Merang, Kec. Pantar Bar., Kabupaten Alor, Nusa Tenggara Tim.","Kabupaten Alor, Nusa Tenggara Tim.",NUSA TENGGARA TIMUR,,Indonesia,,,,-835.867,124.095.401,https://maps.google.com/?cid=0x0:0xffc374ffe624da36,
perumahan,Komplek perumahan,RM. Semu Aulu,"H2Q4+QWH, Kalondama Tengah, Kec. Pantar Bar. Laut, Kabupaten Alor, Nusa Tenggara Tim.","Kabupaten Alor, Nusa Tenggara Tim.",NUSA TENGGARA TIMUR,,Indonesia,,,,-84.105.539,1.240.073.652,https://maps.google.com/?cid=0x0:0x218335f626797c55,
perumahan,perumahan,Rumah Regen,"J3QW+M82, Baranusa, Kec. Pantar Bar., Kabupaten Alor, Nusa Tenggara Tim.","Kabupaten Alor, Nusa Tenggara Tim.",NUSA TENGGARA TIMUR,,Indonesia,,,,-83.609.403,1.240.958.078,https://maps.google.com/?cid=0x0:0x3edc4e6aa202feec,
perumahan,Perhimpunan Pengembang Perumahan,kepala 3,"J3RV+7P3, Blang Merang, Kec. Pantar Bar., Kabupaten Alor, Nusa Tenggara Tim. 85882","Blang Merang, Kec. Pantar Bar., Kabupaten Alor",NUSA TENGGARA TIMUR,85882.0,Indonesia,,,,-83.593.684,1.240.942.846,https://maps.google.com/?cid=0x0:0x649e749869c69b25,
perumahan,Komplek perumahan,Ina marola,"J3JW+WWM, Piring Sina, Kec. Pantar Bar., Kabupaten Alor, Nusa Tenggara Tim.","Kabupaten Alor, Nusa Tenggara Tim.",NUSA TENGGARA TIMUR,,Indonesia,,,,-8.367.677,1.240.973.963,https://maps.google.com/?cid=0x0:0x3235feb1ecafbd63,
perumahan,Komplek perumahan,Subarang desa leer,"J3GG+C8W, Leer, Kec. Pantar Bar., Kabupaten Alor, Nusa Tenggara Tim.","Kabupaten Alor, Nusa Tenggara Tim.",NUSA TENGGARA TIMUR,,Indonesia,,,,-83.738.916,1.240.758.408,https://maps.google.com/?cid=0x0:0xc17c09d2b8e0b7f4,
perumahan,Perhimpunan Pengembang Perumahan,Exel ena,"J3GG+H8F, Leer, Kec. Pantar Bar., Kabupaten Alor, Nusa Tenggara Tim.","Kabupaten Alor, Nusa Tenggara Tim.",NUSA TENGGARA TIMUR,,Indonesia,,,,-83.735.616,1.240.757.885,https://maps.google.com/?cid=0x0:0x9b53784a305eb6d3,
perumahan,Pembangunan Perumahan,Blang Merang,"M3R5+MC4 Pulau Lapang, Blang Merang, Kec. Pantar Bar., Kabupaten Alor, Nusa Tenggara Tim.","Kabupaten Alor, Nusa Tenggara Tim.",NUSA TENGGARA TIMUR,,Indonesia,,,,-83.083.665,1.240.585.732,https://maps.google.com/?cid=0x0:0x64a46b5e6f09ee7d,
perumahan,perumahan,Kec. Pantar Bar. Laut,"Kabupaten Alor, Nusa Tenggara Tim.","Kabupaten Alor, Nusa Tenggara Tim.",NUSA TENGGARA TIMUR,,Indonesia,,,,-83.963.257,1.239.525.669,https://maps.google.com/?cid=0x0:0x38d29f383dad7cad,
perumahan,Pembangunan Perumahan,Bloe,"MX28+F5J, Kayang, Kec. Pantar Bar. Laut, Kabupaten Alor, Nusa Tenggara Tim.","Kabupaten Alor, Nusa Tenggara Tim.",NUSA TENGGARA TIMUR,,Indonesia,,,,-8.348.782,1.239.653.884,https://maps.google.com/?cid=0x0:0x9ee345dda09a0eb8,
perumahan,Pembangunan Perumahan,Marica,"MX28+3CC, Kayang, Kec. Pantar Bar. Laut, Kabupaten Alor, Nusa Tenggara Tim.","Kabupaten Alor, Nusa Tenggara Tim.",NUSA TENGGARA TIMUR,,Indonesia,,,,-8.349.816,1.239.660.242,https://maps.google.com/?cid=0x0:0x9eb2aacbc2a4502f,
perumahan,Komplek perumahan,Rumah Tison kawa,"J2X7+XJ2, Lamma, Kec. Pantar Bar. Laut, Kabupaten Alor, Nusa Tenggara Tim.","Kabupaten Alor, Nusa Tenggara Tim.",NUSA TENGGARA TIMUR,,Indonesia,,,,-83.501.139,1.240.140.113,https://maps.google.com/?cid=0x0:0xce5e2bf43ec1f304,
perumahan,Komplek perumahan,Rumah bapa Ismail mau kawa,"MX5G+WV, Lamma, Kec. Pantar Bar. Laut, Kabupaten Alor, Nusa Tenggara Tim.","Kabupaten Alor, Nusa Tenggara Tim.",NUSA TENGGARA TIMUR,,Indonesia,,,,-83.401.216,1.239.773.031,https://maps.google.com/?cid=0x0:0x1886b01d9f4d5674,
perumahan,Pembangunan Perumahan,Gerbang maut,"M3R5+MC4 Komar pure, Blang Merang, Kec. Pantar Bar., Kabupaten Alor, Nusa Tenggara Tim.","Kabupaten Alor, Nusa Tenggara Tim.",NUSA TENGGARA TIMUR,,Indonesia,,,,-83.083.665,1.240.585.732,https://maps.google.com/?cid=0x0:0x724b9098948782f7,
perumahan,Komplek perumahan,Rumah Ridwan Laba,"JXV3+8M6, Marisa, Kec. Pantar Bar. Laut, Kabupaten Alor, Nusa Tenggara Tim.","Kabupaten Alor, Nusa Tenggara Tim.",NUSA TENGGARA TIMUR,,Indonesia,,,,-83.559.405,1.239.541.805,https://maps.google.com/?cid=0x0:0xf5d16ab1c6f4b9a4,
perumahan,Komplek perumahan,Ulakal,"HWMR+J8, Kalondama Bar., Kec. Pantar Bar. Laut, Kabupaten Alor, Nusa Tenggara Tim.","Kabupaten Alor, Nusa Tenggara Tim.",NUSA TENGGARA TIMUR,,Indonesia,,,,-84.158.791,123.940.864,https://maps.google.com/?cid=0x0:0x9e5fe4a70d59a1a5,
perumahan,Pembangunan Perumahan,Napo Tengah,"JXX3+3G8, RT.04/RW.02, Marisa, Kec. Pantar Bar. Laut, Kabupaten Alor, Nusa Tenggara Tim.","Kabupaten Alor, Nusa Tenggara Tim.",NUSA TENGGARA TIMUR,,Indonesia,,,,-83.523.426,1.239.538.146,https://maps.google.com/?cid=0x0:0x1feae04b9d67e7f4,
perumahan,Pembangunan Perumahan,Blang Merang,"M3R5+MC4 Pulau Lapang, Blang Merang, Kec. Pantar Bar., Kabupaten Alor, Nusa Tenggara Tim.","Kabupaten Alor, Nusa Tenggara Tim.",NUSA TENGGARA TIMUR,,Indonesia,,,,-83.083.665,1.240.585.732,https://maps.google.com/?cid=0x0:0x64a46b5e6f09ee7d,
perumahan,Komplek perumahan,Son pandu,"M2QH+GVW, Beang Onong, Kec. Pantar Bar. Laut, Kabupaten Alor, Nusa Tenggara Tim.","Kabupaten Alor, Nusa Tenggara Tim.",NUSA TENGGARA TIMUR,,Indonesia,,,,-83.109.179,1.240.301.952,https://maps.google.com/?cid=0x0:0x9622e42440d48f08,
perumahan,Komplek perumahan,Rumah Nita kawa,"MX5H+MR, Lamma, Kec. Pantar Bar. Laut, Kabupaten Alor, Nusa Tenggara Tim.","Kabupaten Alor, Nusa Tenggara Tim.",NUSA TENGGARA TIMUR,,Indonesia,,,,-8.340.826,1.239.795.808,https://maps.google.com/?cid=0x0:0xa34b9d3e639da228,
perumahan,Rumah Kayu,Rumah Nober Marselinus Ebenhaizer Lamma,"H2R4+WPJ, Kalondama Tengah, Kec. Pantar Bar. Laut, Kabupaten Alor, Nusa Tenggara Tim.","Kabupaten Alor, Nusa Tenggara Tim.",NUSA TENGGARA TIMUR,,Indonesia,,,,-84.074.524,1.240.056.179,https://maps.google.com/?cid=0x0:0x44e79b9ed6628968,
perumahan,perumahan,rumah syukur roho,"QRF7+W99, Loyobohor, Kec. Buyasari, Kabupaten Lembata, Nusa Tenggara Tim.","Kabupaten Lembata, Nusa Tenggara Tim.",NUSA TENGGARA TIMUR,,Indonesia,,,,-82.252,1.238.134.902,https://maps.google.com/?cid=0x0:0x4fe9e865150be3ee,
perumahan,Komplek perumahan,Pam Air,"JXX3+V5V Pam Air, Marisa, Kec. Pantar Bar. Laut, Kabupaten Alor, Nusa Tenggara Tim.","Kabupaten Alor, Nusa Tenggara Tim.",NUSA TENGGARA TIMUR,,Indonesia,,,,-83.502.635,1.239.529.178,https://maps.google.com/?cid=0x0:0x37665859b0207a41,
perumahan,Komplek perumahan,RM. Ady Erwin Tung Lau,"H2R5+6F4, Kalondama Tengah, Kec. Pantar Bar. Laut, Kabupaten Alor, Nusa Tenggara Tim.","Kabupaten Alor, Nusa Tenggara Tim.",NUSA TENGGARA TIMUR,,Indonesia,,,,-84.102.766,1.240.085.799,https://maps.google.com/?cid=0x0:0xcaa9cd26822a13e2,
perumahan,Komplek perumahan,Rumah adat pagalasa Marisa,"JXV3+R7M, Marisa, Kec. Pantar Bar. Laut, Kabupaten Alor, Nusa Tenggara Tim.","Kabupaten Alor, Nusa Tenggara Tim.",NUSA TENGGARA TIMUR,,Indonesia,,,,-83.554.191,1.239.531.699,https://maps.google.com/?cid=0x0:0xeac84418edf6abed,
perumahan,Komplek perumahan,Rumah Ibu MERTIYANA,"J352+5VX, Kalondama, Kec. Pantar Bar., Kabupaten Alor, Nusa Tenggara Tim.","Kabupaten Alor, Nusa Tenggara Tim.",NUSA TENGGARA TIMUR,,Indonesia,,,,-83.920.056,1.240.522.394,https://maps.google.com/?cid=0x0:0x3785dad4c00a3e6a,
perumahan,Rumah Kayu,Rumah Ebed,"M292+FM7, Lamma, Kec. Pantar Bar. Laut, Kabupaten Alor, Nusa Tenggara Tim.","Kabupaten Alor, Nusa Tenggara Tim.",NUSA TENGGARA TIMUR,,Indonesia,,,,-83.319.128,1.240.022.611,https://maps.google.com/?cid=0x0:0xa6bb5f6bb5c8ce92,
perumahan,Komplek perumahan,Omri Kay,"M2QJ+9G4, Beang Onong, Kec. Pantar Bar. Laut, Kabupaten Alor, Nusa Tenggara Tim.","Kabupaten Alor, Nusa Tenggara Tim.",NUSA TENGGARA TIMUR,,Indonesia,,,,-83.116.171,1.240.313.326,https://maps.google.com/?cid=0x0:0x7ae8bf9e3178309b,
perumahan,perumahan,Wata peng,"Kayang, Kec. Pantar Bar. Laut, Kabupaten Alor, Nusa Tenggara Tim.","Kabupaten Alor, Nusa Tenggara Tim.",NUSA TENGGARA TIMUR,,Indonesia,,,,-83.567.237,1.239.629.738,https://maps.google.com/?cid=0x0:0xeef27d70222313b2,
perumahan,perumahan,Kec. Pantar Tengah,"Kabupaten Alor, Nusa Tenggara Tim.","Kabupaten Alor, Nusa Tenggara Tim.",NUSA TENGGARA TIMUR,,Indonesia,,,,-84.634.452,1.241.292.102,https://maps.google.com/?cid=0x0:0x757223536e69736b,
perumahan,perumahan,Rumah adat wutung wala,"J3QV+6RR, Baranusa, Kec. Pantar Bar., Kabupaten Alor, Nusa Tenggara Tim.","Kabupaten Alor, Nusa Tenggara Tim.",NUSA TENGGARA TIMUR,,Indonesia,,,,-83.618.938,1.240.945.069,https://maps.google.com/?cid=0x0:0x2ce73ecaf9e3f39,
perumahan,Komplek perumahan,Rumah Sri Tukini Lilo,"J3QV+7J7, Baranusa, Kec. Pantar Bar., Kabupaten Alor, Nusa Tenggara Tim.","Kabupaten Alor, Nusa Tenggara Tim.",NUSA TENGGARA TIMUR,,Indonesia,,,,-83.617.963,1.240.942.528,https://maps.google.com/?cid=0x0:0x7e6233379b8faa27,
perumahan,Komplek perumahan,Kompleks(KPT),"H4WC+2H7, Tube, Kec. Pantar Tengah, Kabupaten Alor, Nusa Tenggara Tim.","Kabupaten Alor, Nusa Tenggara Tim.",NUSA TENGGARA TIMUR,,Indonesia,,,,-84.049.544,1.241.214.123,https://maps.google.com/?cid=0x0:0xb110b168adc6668e,
perumahan,Pembangunan Perumahan,Beang,"G58H+9VJ, Aramaba, Kec. Pantar Tengah, Kabupaten Alor, Nusa Tenggara Tim.","Kabupaten Alor, Nusa Tenggara Tim.",NUSA TENGGARA TIMUR,,Indonesia,,,,-84.840.268,1.241.796.495,https://maps.google.com/?cid=0x0:0xa7ffdc32dead5eb2,
perumahan,Perhimpunan Pengembang Perumahan,Relokasi desa Tamakh,"H672+Q5, Toang, Kec. Pantar Tengah, Kabupaten Alor, Nusa Tenggara Tim.","Kabupaten Alor, Nusa Tenggara Tim.",NUSA TENGGARA TIMUR,,Indonesia,,,,-84.355.685,1.242.003.551,https://maps.google.com/?cid=0x0:0x59f66f93b9535ea1,
perumahan,Komplek perumahan,Rumah Syarif sara,"J3RW+G3G, Blang Merang, Kec. Pantar Bar., Kabupaten Alor, Nusa Tenggara Tim.","Kabupaten Alor, Nusa Tenggara Tim.",NUSA TENGGARA TIMUR,,Indonesia,,,,-83.586.861,124.095.205,https://maps.google.com/?cid=0x0:0xe242bbbd7ba465ca,
perumahan,Pembangunan Perumahan,Syam ola,"J3VV+F82, Blang Merang, Kec. Pantar Bar., Kabupaten Alor, Nusa Tenggara Tim.","Kabupaten Alor, Nusa Tenggara Tim.",NUSA TENGGARA TIMUR,,Indonesia,,,,-83.567.827,1.240.942.183,https://maps.google.com/?cid=0x0:0xdb9e78386dbd90f2,
perumahan,Komplek perumahan,Relokasi desa Nulle,"H6XC+M7, Nule, Kec. Pantar Tim., Kabupaten Alor, Nusa Tenggara Tim.","Kabupaten Alor, Nusa Tenggara Tim.",NUSA TENGGARA TIMUR,,Indonesia,,,,-84.008.647,1.242.206.838,https://maps.google.com/?cid=0x0:0x1155d29edc016f96,
perumahan,perumahan,Rumahku,"J3RV+X73, Blang Merang, Kec. Pantar Bar., Kabupaten Alor, Nusa Tenggara Tim.","Kabupaten Alor, Nusa Tenggara Tim.",NUSA TENGGARA TIMUR,,Indonesia,,,,-83.577.474,1.240.929.952,https://maps.google.com/?cid=0x0:0x8c9e67c4c9cca44e,
perumahan,Perhimpunan Pengembang Perumahan,"Raubannang, Desa Muriabang, Alor NTT","J45M+3PH, Muriabang, Kec. Pantar Tengah, Kabupaten Alor, Nusa Tenggara Tim.","Kabupaten Alor, Nusa Tenggara Tim.",NUSA TENGGARA TIMUR,,Indonesia,,,,-83.923.722,1.241.342.694,https://maps.google.com/?cid=0x0:0xc45f76f0851b515,
perumahan,Perhimpunan Pengembang Perumahan,Dekon House,"G3WR+F6, Tude, Kec. Pantar Tengah, Kabupaten Alor, Nusa Tenggara Tim.","Kabupaten Alor, Nusa Tenggara Tim.",NUSA TENGGARA TIMUR,,Indonesia,,,,-84.538.577,1.240.906.647,https://maps.google.com/?cid=0x0:0xaf3fbaef957dc0e7,
perumahan,Komplek perumahan,Desa Delaki,"G3F4+CX2, Delaki, Kec. Pantar Tengah, Kabupaten Alor, Nusa Tenggara Tim.","Kabupaten Alor, Nusa Tenggara Tim.",NUSA TENGGARA TIMUR,,Indonesia,87816740113,,,-847.732,124.057.606,https://maps.google.com/?cid=0x0:0xef33ca13fd715a74,
perumahan,Pembangunan Perumahan,Hauwe Gamma,"G4MF+FR, Mauta, Kec. Pantar Tengah, Kabupaten Alor, Nusa Tenggara Tim.","Kabupaten Alor, Nusa Tenggara Tim.",NUSA TENGGARA TIMUR,,Indonesia,81253212375,,,-84.663.125,1.241.245.625,https://maps.google.com/?cid=0x0:0x2d3071e6afd213d2,
perumahan,Komplek perumahan,Relokasi desa Lalafang,"J5HJ+35, Lalafang, Kec. Pantar Tim., Kabupaten Alor, Nusa Tenggara Tim.","Kabupaten Alor, Nusa Tenggara Tim.",NUSA TENGGARA TIMUR,,Indonesia,,,,-83.728.245,1.241.808.459,https://maps.google.com/?cid=0x0:0xbbb142b8789daf79,
perumahan,Pembangunan Perumahan,Sandiata Uma Beba,"J3QW+W73, Baranusa, Kec. Pantar Bar., Kabupaten Alor, Nusa Tenggara Tim.","Kabupaten Alor, Nusa Tenggara Tim.",NUSA TENGGARA TIMUR,,Indonesia,,,,-8.360.404,1.240.957.365,https://maps.google.com/?cid=0x0:0x84f7cde9bd4a1a9d,
perumahan,Pembangunan Perumahan,ALLUNG,"J3QV+XRM, Baraler, Kec. Pantar Bar., Kabupaten Alor, Nusa Tenggara Tim.","Kabupaten Alor, Nusa Tenggara Tim.",NUSA TENGGARA TIMUR,,Indonesia,,,,-83.600.449,1.240.945.507,https://maps.google.com/?cid=0x0:0x1c01e2269e7eba86,
perumahan,Pembangunan Perumahan,Rumah SETUA ALLUNG,"H4HX+F36, Eka Jaya, Kec. Pantar Tengah, Kabupaten Alor, Nusa Tenggara Tim.","Kabupaten Alor, Nusa Tenggara Tim.",NUSA TENGGARA TIMUR,,Indonesia,81237222300,,,-84.213.349,1.241.476.315,https://maps.google.com/?cid=0x0:0x83e4ac5919309ef6,
perumahan,Pembangunan Perumahan,Simpang tokoh Mali'ang Azb,"J48J+F8H, Muriabang, Kec. Pantar Tengah, Kabupaten Alor, Nusa Tenggara Tim.","Kabupaten Alor, Nusa Tenggara Tim.",NUSA TENGGARA TIMUR,,Indonesia,,,,-83.836.441,1.241.300.166,https://maps.google.com/?cid=0x0:0xb9a3fdbbe061e1e3,
perumahan,Perhimpunan Pengembang Perumahan,Belangmerang,"J3RR+7RQ, Blang Merang, Kec. Pantar Bar., Kabupaten Alor, Nusa Tenggara Tim.","Kabupaten Alor, Nusa Tenggara Tim.",NUSA TENGGARA TIMUR,,Indonesia,,,,-83.595.612,1.240.920.122,https://maps.google.com/?cid=0x0:0x7521ab0ae2513c15,
perumahan,Perhimpunan Pengembang Perumahan,Rumah intan desa tamakh,"H5RR+XV2, Tamakh, Kec. Pantar Tengah, Kabupaten Alor, Nusa Tenggara Tim.","Kabupaten Alor, Nusa Tenggara Tim.",NUSA TENGGARA TIMUR,,Indonesia,,,,-84.076.036,1.241.921.277,https://maps.google.com/?cid=0x0:0x2329e248b2f21025,
perumahan,Kantor Pemerintah,Desa Tamakh,"H6M5+WC4, Tamakh, Kec. Pantar Tengah, Kabupaten Alor, Nusa Tenggara Tim.","Kabupaten Alor, Nusa Tenggara Tim.",NUSA TENGGARA TIMUR,,Indonesia,,,,-84.163.232,1.242.085.937,https://maps.google.com/?cid=0x0:0x8f27af81217d1625,
perumahan,Perhimpunan Pengembang Perumahan,Kampung Lama Tubbe Prigihambang,"H429+CFW, Tude, Kec. Pantar Tengah, Kabupaten Alor, Nusa Tenggara Tim.","Kabupaten Alor, Nusa Tenggara Tim.",NUSA TENGGARA TIMUR,,Indonesia,,,,-84.488.967,1.241.186.904,https://maps.google.com/?cid=0x0:0x7e67c42717af3365,
perumahan,perumahan,Kec. Pantar Tim.,"Kabupaten Alor, Nusa Tenggara Tim.","Kabupaten Alor, Nusa Tenggara Tim.",NUSA TENGGARA TIMUR,,Indonesia,,,,-83.509.136,1.242.591.349,https://maps.google.com/?cid=0x0:0xa2ab4632c0c3ca2f,
perumahan,Komplek perumahan,WENAR HOUSE,"P883+QG8, Ombay, Kec. Pantar Tim., Kabupaten Alor, Nusa Tenggara Tim.","Kabupaten Alor, Nusa Tenggara Tim.",NUSA TENGGARA TIMUR,,Indonesia,,,,-8.283.089,1.243.038.322,https://maps.google.com/?cid=0x0:0xd788b897ef348763,
perumahan,Komplek perumahan,Kompleks Tingkat l,"G7FF+X4V, Treweng, Kec. Pantar Tim., Kabupaten Alor, Nusa Tenggara Tim.","Kabupaten Alor, Nusa Tenggara Tim.",NUSA TENGGARA TIMUR,,Indonesia,,,,-84.746.913,1.242.735.548,https://maps.google.com/?cid=0x0:0xc97516e4d1b25abe,
perumahan,Komplek perumahan,Relokasi desa Nulle,"H6XC+M7, Nule, Kec. Pantar Tim., Kabupaten Alor, Nusa Tenggara Tim.","Kabupaten Alor, Nusa Tenggara Tim.",NUSA TENGGARA TIMUR,,Indonesia,,,,-84.008.647,1.242.206.838,https://maps.google.com/?cid=0x0:0x1155d29edc016f96,
perumahan,Pembangunan Perumahan,Rumah Baru,"M727+226, Kaleb, Kec. Pantar Tim., Kabupaten Alor, Nusa Tenggara Tim.","Kabupaten Alor, Nusa Tenggara Tim.",NUSA TENGGARA TIMUR,,Indonesia,,,,-83.499.732,1.242.625.273,https://maps.google.com/?cid=0x0:0x37b589546f521fdf,
perumahan,Pembangunan Perumahan,Rumah Nyaman,"P7HF+RR9, Merdeka, Kec. Pantar Tim., Kabupaten Alor, Nusa Tenggara Tim.","Kabupaten Alor, Nusa Tenggara Tim.",NUSA TENGGARA TIMUR,,Indonesia,,,,-82.704.616,1.242.745.965,https://maps.google.com/?cid=0x0:0x99fcc505f7ae97b1,
perumahan,Perhimpunan Pengembang Perumahan,"Raubannang, Desa Muriabang, Alor NTT","J45M+3PH, Muriabang, Kec. Pantar Tengah, Kabupaten Alor, Nusa Tenggara Tim.","Kabupaten Alor, Nusa Tenggara Tim.",NUSA TENGGARA TIMUR,,Indonesia,,,,-83.923.722,1.241.342.694,https://maps.google.com/?cid=0x0:0xc45f76f0851b515,
perumahan,Komplek perumahan,lalafang baru,"J5R7+CPW, tonte desa, Lalafang, Kec. Pantar Tim., Kabupaten Alor, Nusa Tenggara Tim.","Kabupaten Alor, Nusa Tenggara Tim.",NUSA TENGGARA TIMUR,,Indonesia,,,,-83.588.834,1.241.643.201,https://maps.google.com/?cid=0x0:0x7c11efebd35196f6,
perumahan,Komplek perumahan,Relokasi desa Lalafang,"J5HJ+35, Lalafang, Kec. Pantar Tim., Kabupaten Alor, Nusa Tenggara Tim.","Kabupaten Alor, Nusa Tenggara Tim.",NUSA TENGGARA TIMUR,,Indonesia,,,,-83.728.245,1.241.808.459,https://maps.google.com/?cid=0x0:0xbbb142b8789daf79,
perumahan,Komplek perumahan,AGAN HOME,"G7GF+82J, Treweng, Kec. Pantar Tim., Kabupaten Alor, Nusa Tenggara Tim.","Kabupaten Alor, Nusa Tenggara Tim.",NUSA TENGGARA TIMUR,,Indonesia,,,,-84.745.381,1.242.724.541,https://maps.google.com/?cid=0x0:0xdf9db312cd0d5652,
perumahan,perumahan,Rumah Panea,"Q67F+8V8, Bukitmas, Kec. Pantar, Kabupaten Alor, Nusa Tenggara Tim.","Kabupaten Alor, Nusa Tenggara Tim.",NUSA TENGGARA TIMUR,,Indonesia,,,,-82.367.166,12.422.469,https://maps.google.com/?cid=0x0:0xbc94f431639b4eb5,
perumahan,Pembangunan Perumahan,Urbir,"M739+54, Bunga Bali, Kec. Pantar Tim., Kabupaten Alor, Nusa Tenggara Tim.","Kabupaten Alor, Nusa Tenggara Tim.",NUSA TENGGARA TIMUR,,Indonesia,,,,-83.471.124,1.242.677.652,https://maps.google.com/?cid=0x0:0x1d264ee96d56066c,
perumahan,Komplek perumahan,Relokasi desa Kaleb,"M749+85, Bunga Bali, Kec. Pantar Tim., Kabupaten Alor, Nusa Tenggara Tim.","Kabupaten Alor, Nusa Tenggara Tim.",NUSA TENGGARA TIMUR,,Indonesia,,,,-83.441.704,1.242.679.398,https://maps.google.com/?cid=0x0:0xb7e5f660d6097341,
perumahan,Komplek perumahan,Leko home,"P7HF+QPC, Merdeka, Kec. Pantar Tim., Kabupaten Alor, Nusa Tenggara Tim.","Kabupaten Alor, Nusa Tenggara Tim.",NUSA TENGGARA TIMUR,,Indonesia,,,,-82.705.736,124.274.252,https://maps.google.com/?cid=0x0:0xf4be1e44894a0855,
perumahan,Komplek perumahan,Benuera,"M8V5+33M, Mawar, Kec. Pantar Tim., Kabupaten Alor, Nusa Tenggara Tim.","Kabupaten Alor, Nusa Tenggara Tim.",NUSA TENGGARA TIMUR,,Indonesia,,,,-83.082.944,1.243.072.949,https://maps.google.com/?cid=0x0:0x2789b9685a7ce33b,
perumahan,Komplek perumahan,Erewasing,"M8Q5+MGQ, Mawar, Kec. Pantar Tim., Kabupaten Alor, Nusa Tenggara Tim.","Kabupaten Alor, Nusa Tenggara Tim.",NUSA TENGGARA TIMUR,,Indonesia,,,,-83.107.869,1.243.088.641,https://maps.google.com/?cid=0x0:0x49d4686b0de77ae1,
perumahan,Pembangunan Perumahan,Masry Home,"P7HG+V6G, Merdeka, Kec. Pantar Tim., Kabupaten Alor, Nusa Tenggara Tim.","Kabupaten Alor, Nusa Tenggara Tim.",NUSA TENGGARA TIMUR,,Indonesia,,,,-8.270.316,1.242.755.795,https://maps.google.com/?cid=0x0:0x91157e673e7ca6b7,
perumahan,Pembangunan Perumahan,Panea,"Q64X+J3W, Panea, Bukitmas, Kec. Pantar, Kabupaten Alor","Kabupaten Alor, Nusa Tenggara Tim.",NUSA TENGGARA TIMUR,,Indonesia,,,,-8.243.391,1.242.477.171,https://maps.google.com/?cid=0x0:0x4ca25774d4cc255f,
perumahan,perumahan,Rumah inong,"P6G3+HM, Madar, Kec. Pantar, Kabupaten Alor, Nusa Tenggara Tim.","Kabupaten Alor, Nusa Tenggara Tim.",NUSA TENGGARA TIMUR,,Indonesia,,,,-82.735.496,1.242.041.885,https://maps.google.com/?cid=0x0:0x66da18fa66140f72,
perumahan,Komplek perumahan,Relokasi desa Bungabali,"M77R+WM, Mawar, Kec. Pantar Tim., Kabupaten Alor, Nusa Tenggara Tim.","Kabupaten Alor, Nusa Tenggara Tim.",NUSA TENGGARA TIMUR,,Indonesia,,,,-8.335.195,1.242.916.258,https://maps.google.com/?cid=0x0:0xa45c1a9175c13bb5,
perumahan,Komplek perumahan,Kompleks kali luar,"G7GF+82J, Treweng, Kec. Pantar Tim., Kabupaten Alor, Nusa Tenggara Tim.","Kabupaten Alor, Nusa Tenggara Tim.",NUSA TENGGARA TIMUR,,Indonesia,,,,-84.744.808,1.242.726.826,https://maps.google.com/?cid=0x0:0x700b50403c500938,
perumahan,perumahan,Kec. Pulau Pura,"Kabupaten Alor, Nusa Tenggara Tim.","Kabupaten Alor, Nusa Tenggara Tim.",NUSA TENGGARA TIMUR,,Indonesia,,,,-83.101.888,1.243.205.613,https://maps.google.com/?cid=0x0:0x5273b339ab12c66f,
perumahan,perumahan,Pulau Pura,"Pura Sel., Kec. Pulau Pura, Kabupaten Alor, Nusa Tenggara Tim.","Kabupaten Alor, Nusa Tenggara Tim.",NUSA TENGGARA TIMUR,,Indonesia,,,,-83.005.556,1.243.475,https://maps.google.com/?cid=0x0:0xf65d516a0a2b1f3,
perumahan,perumahan,Nusa Tenggara Tim.,,Nusa Tenggara Tim.,NUSA TENGGARA TIMUR,,Indonesia,,,,-86.573.819,1.210.793.705,https://maps.google.com/?cid=0x0:0x1030bfbcaf71ae0,
perumahan,Kantor Perusahaan,Rumah Pengering Kenari Desa Nailang,"RQ6J+9WH, Nailang, Kec. Alor Tim. Laut, Kabupaten Alor, Nusa Tenggara Tim. 85872","Nailang, Kec. Alor Tim. Laut, Kabupaten Alor",NUSA TENGGARA TIMUR,85872.0,Indonesia,85945612613,,,-81.890.636,1.247.823.648,https://maps.google.com/?cid=0x0:0xf302155898150c7c,
perumahan,Komplek perumahan,Perumahan Puri Alak Indah,"QHV3+24C, Kelurahan, Manulai II, Kec. Alak, Kota Kupang, Nusa Tenggara Tim.","Kota Kupang, Nusa Tenggara Tim.",NUSA TENGGARA TIMUR,,Indonesia,,,,-102.074.271,1.235.527.523,https://maps.google.com/?cid=0x0:0xa7dd2c320236ad44,
perumahan,Komplek perumahan,"Perumahan Puri Manulai Indah,No.60","QHGH+QQW, Manulai II, Kec. Alak, Kota Kupang, Nusa Tenggara Tim.","Kota Kupang, Nusa Tenggara Tim.",NUSA TENGGARA TIMUR,,Indonesia,,,,-102.230.241,1.235.794.407,https://maps.google.com/?cid=0x0:0xea534329a17e68e0,
perumahan,Pembangunan Perumahan,PURI MANDATO NAIONI,"QH8V+FMM, Naioni, Kec. Alak, Kota Kupang, Nusa Tenggara Tim.","Kota Kupang, Nusa Tenggara Tim.",NUSA TENGGARA TIMUR,,Indonesia,82145201503,,,-102.337.989,123.594.173,https://maps.google.com/?cid=0x0:0x2b2c67faa71904ac,
perumahan,perumahan,Pureman,"Purnama, Kec. Pureman, Kabupaten Alor, Nusa Tenggara Tim.","Kabupaten Alor, Nusa Tenggara Tim.",NUSA TENGGARA TIMUR,,Indonesia,,,,-8.348.176,124.962.665,https://maps.google.com/?cid=0x0:0x1e65de68a438073a,
perumahan,perumahan,Perumahan puri manulai 2,"KPN Maju, Dekat Jembatan Besar, Manulai II, Kec. Alak, Kota Kupang, Nusa Tenggara Tim.","Kota Kupang, Nusa Tenggara Tim.",NUSA TENGGARA TIMUR,,Indonesia,,,,-102.219.593,1.235.791.503,https://maps.google.com/?cid=0x0:0x8ca13c2b17be8821,
perumahan,perumahan,Kec. Pureman,"Kabupaten Alor, Nusa Tenggara Tim.","Kabupaten Alor, Nusa Tenggara Tim.",NUSA TENGGARA TIMUR,,Indonesia,,,,-83.853.368,1.248.348.191,https://maps.google.com/?cid=0x0:0x21c04d9a878ed5e6,
perumahan,Komplek perumahan,"Pureman, Kampong Raja","JXR8+MMQ, Purnama, Kec. Pureman, Kabupaten Alor, Nusa Tenggara Tim.","Kabupaten Alor, Nusa Tenggara Tim.",NUSA TENGGARA TIMUR,,Indonesia,,,,-83.582.947,1.249.667.382,https://maps.google.com/?cid=0x0:0xfd30dbe90e31f07c,
perumahan,Perhimpunan Pengembang Perumahan,Lalubu susurmana,"MRGQ+JX, Langkuru Utara, Kec. Pureman, Kabupaten Alor, Nusa Tenggara Tim.","Kabupaten Alor, Nusa Tenggara Tim.",NUSA TENGGARA TIMUR,,Indonesia,,,,-83.232.679,1.248.403.032,https://maps.google.com/?cid=0x0:0x22145b9fd6c7ce5f,
perumahan,Komplek perumahan,Nepa Peth Malaikari,"JVPP+8HX, Lanabala, Purnama, Kec. Pureman, Kabupaten Alor, Nusa Tenggara Tim.","Kabupaten Alor, Nusa Tenggara Tim.",NUSA TENGGARA TIMUR,,Indonesia,,,,-83.641.342,1.248.864.701,https://maps.google.com/?cid=0x0:0x97521e14bc08aabc,
perumahan,Perhimpunan Pengembang Perumahan,Mampui Langkuru Utara,"MR6F+QFH, Langkuru Utara, Kec. Pureman, Kabupaten Alor, Nusa Tenggara Tim.","Kabupaten Alor, Nusa Tenggara Tim.",NUSA TENGGARA TIMUR,,Indonesia,,,,-83.378.895,1.248.234.993,https://maps.google.com/?cid=0x0:0x8c71cd7dfafe82b7,
perumahan,Komplek perumahan,Kampung Kolomana,"MV37+3M5, Kailesa, Kec. Pureman, Kabupaten Alor, Nusa Tenggara Tim.","Kabupaten Alor, Nusa Tenggara Tim.",NUSA TENGGARA TIMUR,,Indonesia,,,,-8.347.368,1.248.642.469,https://maps.google.com/?cid=0x0:0x3d81a113efd71e4c,
perumahan,Pembangunan Perumahan,BILIMANA/LUBOTSU,"JRJH+WPF, Langkuru, Kec. Pureman, Kabupaten Alor, Nusa Tenggara Tim.","Kabupaten Alor, Nusa Tenggara Tim.",NUSA TENGGARA TIMUR,,Indonesia,,,,-83.676.902,1.248.293.008,https://maps.google.com/?cid=0x0:0xc85711a5098e715c,
perumahan,Pembangunan Perumahan,Pamlu Langkuru Utara,"MRHR+W4P, Langkuru Utara, Kec. Pureman, Kabupaten Alor, Nusa Tenggara Tim.","Kabupaten Alor, Nusa Tenggara Tim.",NUSA TENGGARA TIMUR,,Indonesia,,,,-83.201.525,1.248.403.408,https://maps.google.com/?cid=0x0:0x6f22aa85a720513,
perumahan,Gereja,Jemaat GMIT Ebenhaezer Mademang Alor Timur,"Jl. Air Merah No.1, Mademang, Langkuru, Kec. Pureman, Kabupaten Alor, Nusa Tenggara Tim.","Kabupaten Alor, Nusa Tenggara Tim.",NUSA TENGGARA TIMUR,,Indonesia,,,,-83.864.009,1.248.361.656,https://maps.google.com/?cid=0x0:0x51a9554d434c284c,
perumahan,Komplek perumahan,Puncak dingin,"PQ2P+V3J, Lella, Kec. Alor Sel., Kabupaten Alor, Nusa Tenggara Tim.","Kabupaten Alor, Nusa Tenggara Tim.",NUSA TENGGARA TIMUR,,Indonesia,,,,-82.977.913,1.247.851.264,https://maps.google.com/?cid=0x0:0xe1e57bc8c53f9ba0,
perumahan,Rumah Sakit,Puskesmas Mademang Pureman,"JR8Q+6P6, Langkuru, Kec. Pureman, Kabupaten Alor, Nusa Tenggara Tim.","Kabupaten Alor, Nusa Tenggara Tim.",NUSA TENGGARA TIMUR,,Indonesia,,,,-83.844.735,1.248.392.554,https://maps.google.com/?cid=0x0:0x693a300bf83dc69f,
perumahan,Pembangunan Perumahan,Atemang,"PRJM+4WP, Pido, Kec. Alor Tim. Laut, Kabupaten Alor, Nusa Tenggara Tim.","Kabupaten Alor, Nusa Tenggara Tim.",NUSA TENGGARA TIMUR,,Indonesia,,,,-82.696.647,124.834.821,https://maps.google.com/?cid=0x0:0x4d91c92889d9034a,
perumahan,perumahan,Kec. Tlk. Mutiara,"Kabupaten Alor, Nusa Tenggara Tim.","Kabupaten Alor, Nusa Tenggara Tim.",NUSA TENGGARA TIMUR,,Indonesia,,,,-82.165.759,1.245.218.191,https://maps.google.com/?cid=0x0:0x36ef9ebbaaa54623,
perumahan,Komplek perumahan,Tingkat satu,"Jln Seroja No.1, Kalabahi Kota, Kec. Tlk. Mutiara, Kabupaten Alor, Nusa Tenggara Tim.","Kabupaten Alor, Nusa Tenggara Tim.",NUSA TENGGARA TIMUR,,Indonesia,,,,-82.140.194,1.245.181.705,https://maps.google.com/?cid=0x0:0xde3799fe36bf2246,
perumahan,Komplek perumahan,Perumahan Ombay,"QGPJ+XVJ, Kalabahi Tengah, Kec. Tlk. Mutiara, Kabupaten Alor, Nusa Tenggara Tim.","Kabupaten Alor, Nusa Tenggara Tim.",NUSA TENGGARA TIMUR,,Indonesia,,,,-82.125.378,1.245.321.535,https://maps.google.com/?cid=0x0:0x836c47c2acfb4ad9,
perumahan,perumahan,"PASAR BAWAH , GANK","Jl. Sisingamangaraja No.18-2, Wetabua, Kec. Tlk. Mutiara, Kabupaten Alor, Nusa Tenggara Tim.","Kabupaten Alor, Nusa Tenggara Tim.",NUSA TENGGARA TIMUR,,Indonesia,,,,-8.217.332,124.526.705,https://maps.google.com/?cid=0x0:0x38a006463d360cb3,
perumahan,Pembangunan Perumahan,Lautingara,"QGP8+6F4, Kalabahi Kota, Kec. Tlk. Mutiara, Kabupaten Alor, Nusa Tenggara Tim.","Kabupaten Alor, Nusa Tenggara Tim.",NUSA TENGGARA TIMUR,,Indonesia,,,,-82.144.829,1.245.162.013,https://maps.google.com/?cid=0x0:0x691600ef340b725e,
perumahan,Perhimpunan Pengembang Perumahan,Rumah nurziah,"QGMJ+W3Q, Kalabahi Tengah, Kec. Tlk. Mutiara, Kabupaten Alor, Nusa Tenggara Tim.","Kabupaten Alor, Nusa Tenggara Tim.",NUSA TENGGARA TIMUR,,Indonesia,,,,-82.151.691,1.245.302.498,https://maps.google.com/?cid=0x0:0x3bdc1a7b171f359,
perumahan,Komplek perumahan,Tingkat 1,"QGP8+QVP, Jl. Dahlia, Kalabahi Kota, Kec. Tlk. Mutiara, Kabupaten Alor, Nusa Tenggara Tim.","Kabupaten Alor, Nusa Tenggara Tim.",NUSA TENGGARA TIMUR,,Indonesia,,,,-82.130.493,1.245.172.023,https://maps.google.com/?cid=0x0:0xc7cc6b9575d3f594,
perumahan,,Teluk mutia,"QGP9+97V, Kalabahi Kota, Kec. Tlk. Mutiara, Kabupaten Alor, Nusa Tenggara Tim.","Kabupaten Alor, Nusa Tenggara Tim.",NUSA TENGGARA TIMUR,,Indonesia,,,,-82.140.194,1.245.181.705,https://maps.google.com/?cid=0x0:0xa9235d047609e474,
perumahan,Komplek perumahan,TUALAKA's FAMILY HOUSE,"QGPH+WFC Pasar Tabakar, RT.010/RW.005, Nusa Kenari, Kec. Tlk. Mutiara, Kabupaten Alor, Nusa Tenggara Tim.","Kabupaten Alor, Nusa Tenggara Tim.",NUSA TENGGARA TIMUR,,Indonesia,,,,-82.126.823,1.245.286.275,https://maps.google.com/?cid=0x0:0x84d465169364259e,
perumahan,Gedung Pertemuan,Watamelang,"QGP9+97V, Kalabahi Kota, Kec. Tlk. Mutiara, Kabupaten Alor, Nusa Tenggara Tim.","Kabupaten Alor, Nusa Tenggara Tim.",NUSA TENGGARA TIMUR,,Indonesia,,,,-82.140.194,1.245.181.705,https://maps.google.com/?cid=0x0:0xc0f16b9914a06f63,
perumahan,Pembangunan Perumahan,Rumah Buffon,"QGP8+535, Kalabahi Kota, Kec. Tlk. Mutiara, Kabupaten Alor, Nusa Tenggara Tim.","Kabupaten Alor, Nusa Tenggara Tim.",NUSA TENGGARA TIMUR,,Indonesia,,,,-82.146.121,1.245.152.566,https://maps.google.com/?cid=0x0:0x2b109ebdaa3d12a5,
perumahan,Pembangunan Perumahan,Moepali Tengah,"QGJ6+R4M, Binongko, Kec. Tlk. Mutiara, Kabupaten Alor, Nusa Tenggara Tim.","Kabupaten Alor, Nusa Tenggara Tim.",NUSA TENGGARA TIMUR,,Indonesia,,,,-82.179.242,1.245.103.068,https://maps.google.com/?cid=0x0:0x95291d7925955760,
perumahan,Komplek perumahan,WATI BLEGUR,"QGP8+7CW, Jl. Mutiara, Kalabahi Kota, Kec. Tlk. Mutiara, Kabupaten Alor, Nusa Tenggara Tim. 85813","Jl. Mutiara, Kalabahi Kota, Kec. Tlk. Mutiara, Kabupaten Alor",NUSA TENGGARA TIMUR,85813.0,Indonesia,8124600967,,,-82.142.603,1.245.160.676,https://maps.google.com/?cid=0x0:0xeb58b1dbf4d67fcc,
perumahan,Pembangunan Perumahan,Kalabahi alor nusa Tenggara Timur,"QGJ6+46F, Binongko, Kec. Tlk. Mutiara, Kabupaten Alor, Nusa Tenggara Tim.","Kabupaten Alor, Nusa Tenggara Tim.",NUSA TENGGARA TIMUR,,Indonesia,,,,-8.219.686,1.245.105.588,https://maps.google.com/?cid=0x0:0x26e730fe8bf6c5ca,
perumahan,Komplek perumahan,Asyrafhouse,"QGP8+535, Kalabahi Kota, Kec. Tlk. Mutiara, Kabupaten Alor, Nusa Tenggara Tim.","Kabupaten Alor, Nusa Tenggara Tim.",NUSA TENGGARA TIMUR,,Indonesia,,,,-821.519,124.515.133,https://maps.google.com/?cid=0x0:0xb25dd203bcb18a12,
perumahan,Komplek perumahan,Camp,"QGQ8+HFH, Kalabahi Kota, Kec. Tlk. Mutiara, Kabupaten Alor, Nusa Tenggara Tim.","Kabupaten Alor, Nusa Tenggara Tim.",NUSA TENGGARA TIMUR,,Indonesia,,,,-82.110.546,124.516.234,https://maps.google.com/?cid=0x0:0x87ae0796ea74aef7,
perumahan,Pembangunan Perumahan,kalabahi alor,"QGP8+6F4, Kalabahi Kota, Kec. Tlk. Mutiara, Kabupaten Alor, Nusa Tenggara Tim.","Kabupaten Alor, Nusa Tenggara Tim.",NUSA TENGGARA TIMUR,,Indonesia,82145259011,,,-82.144.829,1.245.162.013,https://maps.google.com/?cid=0x0:0xb3c61b1cf859d2f2,
perumahan,Kantor Pemerintah,RUMAH JABATAN WAKIL BUPATI ALOR,"Jl. Gurami No.2, Kalabahi Kota, Kec. Tlk. Mutiara, Kabupaten Alor, Nusa Tenggara Tim. 85813","Kalabahi Kota, Kec. Tlk. Mutiara, Kabupaten Alor",NUSA TENGGARA TIMUR,85813.0,Indonesia,,,,-82.176.698,1.245.191.985,https://maps.google.com/?cid=0x0:0x67b2091d1b27f305,
perumahan,Pembangunan Perumahan,Bouno,"QGP9+97V, Kalabahi Kota, Kec. Tlk. Mutiara, Kabupaten Alor, Nusa Tenggara Tim.","Kabupaten Alor, Nusa Tenggara Tim.",NUSA TENGGARA TIMUR,,Indonesia,,,,-82.140.194,1.245.181.705,https://maps.google.com/?cid=0x0:0x925b91e0f130da8,
perumahan,perumahan,"gRVdaLb8I6HZseMP1I-XoAM-,null,null,null,null,null,null,null,null,null,null,null,null,null,null,null,null,null,null,null,null,null,null,null,1,null,null,null,null,null,1,null,null,null,null,null,null,null,null,null,null,""ChIJb3_wQQB_AC0RssqcMC9-hCM""",,,NUSA TENGGARA TIMUR,,Indonesia,,,,,,https://maps.google.com/?cid=0x0:0x23847e2f309ccab2,
perumahan,Komplek perumahan,Perumahan btn bungawaru,"QGPP+577, Jl. Badak No.kel, Kalabahi Tim., Kec. Tlk. Mutiara, Kabupaten Alor, Nusa Tenggara Tim.","Kabupaten Alor, Nusa Tenggara Tim.",NUSA TENGGARA TIMUR,,Indonesia,,,,-82.160.255,1.245.357.243,https://maps.google.com/?cid=0x0:0xd9aadd2fb0b6f1f7,
perumahan,Komplek perumahan,Rumah Liana Mawar Beli,"Jl. Mawar No.06, Motongbang, Kec. Tlk. Mutiara, Kabupaten Alor, Nusa Tenggara Tim.","Kabupaten Alor, Nusa Tenggara Tim.",NUSA TENGGARA TIMUR,,Indonesia,,,,-82.132.529,1.245.148.558,https://maps.google.com/?cid=0x0:0xa11302af869adff6,
perumahan,Komplek perumahan,Kompleks Perumahan Lapas Kls II-B Kalabahi,"QGJQ+G4Q, Kalabahi Tim., Kec. Tlk. Mutiara, Kabupaten Alor, Nusa Tenggara Tim.","Kabupaten Alor, Nusa Tenggara Tim.",NUSA TENGGARA TIMUR,,Indonesia,,,,-82.186.714,1.245.378.494,https://maps.google.com/?cid=0x0:0x607830b3352444f5,
perumahan,Komplek perumahan,Rumah Motongbang,"QGP6+VRR, Motongbang, Kec. Tlk. Mutiara, Kabupaten Alor, Nusa Tenggara Tim.","Kabupaten Alor, Nusa Tenggara Tim.",NUSA TENGGARA TIMUR,,Indonesia,,,,-82.127.573,1.245.120.277,https://maps.google.com/?cid=0x0:0x67824e8dd84099d7,
perumahan,Komplek perumahan,Kampung pisang,"QGRF+X9J, Jl. Pipit, Lendola, Kec. Tlk. Mutiara, Kabupaten Alor, Nusa Tenggara Tim.","Kabupaten Alor, Nusa Tenggara Tim.",NUSA TENGGARA TIMUR,,Indonesia,,,,-82.075.371,1.245.234.014,https://maps.google.com/?cid=0x0:0xc02b2e21b6900df0,
perumahan,Pembangunan Perumahan,Pa Bren,"Jl. Cokroaminoto, Kampung Cina, Kalabahi Kota, Kec. Tlk. Mutiara, Kabupaten Alor, Nusa Tenggara Tim.","Kabupaten Alor, Nusa Tenggara Tim.",NUSA TENGGARA TIMUR,,Indonesia,,,,-82.200.683,1.245.196.532,https://maps.google.com/?cid=0x0:0x800872d974f994bb,
perumahan,Komplek perumahan,Perumahan Ombay,"QGPJ+XVJ, Kalabahi Tengah, Kec. Tlk. Mutiara, Kabupaten Alor, Nusa Tenggara Tim.","Kabupaten Alor, Nusa Tenggara Tim.",NUSA TENGGARA TIMUR,,Indonesia,,,,-82.125.378,1.245.321.535,https://maps.google.com/?cid=0x0:0x836c47c2acfb4ad9,
perumahan,perumahan,Kec. Tlk. Mutiara,"Kabupaten Alor, Nusa Tenggara Tim.","Kabupaten Alor, Nusa Tenggara Tim.",NUSA TENGGARA TIMUR,,Indonesia,,,,-82.165.759,1.245.218.191,https://maps.google.com/?cid=0x0:0x36ef9ebbaaa54623,
perumahan,perumahan,"PASAR BAWAH , ALOR NTT","Jl. Sisingamangaraja No.18, Wetabua, Kec. Tlk. Mutiara, Kabupaten Alor, Nusa Tenggara Tim. 85819","Wetabua, Kec. Tlk. Mutiara, Kabupaten Alor",NUSA TENGGARA TIMUR,85819.0,Indonesia,,,,-82.174.083,1.245.267.443,https://maps.google.com/?cid=0x0:0xe49d7d25e5ef96e6,
perumahan,,Teluk mutia,"QGP9+97V, Kalabahi Kota, Kec. Tlk. Mutiara, Kabupaten Alor, Nusa Tenggara Tim.","Kabupaten Alor, Nusa Tenggara Tim.",NUSA TENGGARA TIMUR,,Indonesia,,,,-82.140.194,1.245.181.705,https://maps.google.com/?cid=0x0:0xa9235d047609e474,
perumahan,Komplek perumahan,WATI BLEGUR,"QGP8+7CW, Jl. Mutiara, Kalabahi Kota, Kec. Tlk. Mutiara, Kabupaten Alor, Nusa Tenggara Tim. 85813","Jl. Mutiara, Kalabahi Kota, Kec. Tlk. Mutiara, Kabupaten Alor",NUSA TENGGARA TIMUR,85813.0,Indonesia,8124600967,,,-82.142.603,1.245.160.676,https://maps.google.com/?cid=0x0:0xeb58b1dbf4d67fcc,
perumahan,Perhimpunan Pengembang Perumahan,Rumah nurziah,"QGMJ+W3Q, Kalabahi Tengah, Kec. Tlk. Mutiara, Kabupaten Alor, Nusa Tenggara Tim.","Kabupaten Alor, Nusa Tenggara Tim.",NUSA TENGGARA TIMUR,,Indonesia,,,,-82.151.691,1.245.302.498,https://maps.google.com/?cid=0x0:0x3bdc1a7b171f359,
perumahan,Komplek perumahan,Tingkat satu,"Jln Seroja No.1, Kalabahi Kota, Kec. Tlk. Mutiara, Kabupaten Alor, Nusa Tenggara Tim.","Kabupaten Alor, Nusa Tenggara Tim.",NUSA TENGGARA TIMUR,,Indonesia,,,,-82.140.194,1.245.181.705,https://maps.google.com/?cid=0x0:0xde3799fe36bf2246,
perumahan,Pembangunan Perumahan,Lautingara,"QGP8+6F4, Kalabahi Kota, Kec. Tlk. Mutiara, Kabupaten Alor, Nusa Tenggara Tim.","Kabupaten Alor, Nusa Tenggara Tim.",NUSA TENGGARA TIMUR,,Indonesia,,,,-82.144.829,1.245.162.013,https://maps.google.com/?cid=0x0:0x691600ef340b725e,
perumahan,Pembangunan Perumahan,Bouno,"QGP9+97V, Kalabahi Kota, Kec. Tlk. Mutiara, Kabupaten Alor, Nusa Tenggara Tim.","Kabupaten Alor, Nusa Tenggara Tim.",NUSA TENGGARA TIMUR,,Indonesia,,,,-82.140.194,1.245.181.705,https://maps.google.com/?cid=0x0:0x925b91e0f130da8,
perumahan,Komplek perumahan,Perumahan btn bungawaru,"QGPP+577, Jl. Badak No.kel, Kalabahi Tim., Kec. Tlk. Mutiara, Kabupaten Alor, Nusa Tenggara Tim.","Kabupaten Alor, Nusa Tenggara Tim.",NUSA TENGGARA TIMUR,,Indonesia,,,,-82.160.255,1.245.357.243,https://maps.google.com/?cid=0x0:0xd9aadd2fb0b6f1f7,
perumahan,Pembangunan Perumahan,Moepali Tengah,"QGJ6+R4M, Binongko, Kec. Tlk. Mutiara, Kabupaten Alor, Nusa Tenggara Tim.","Kabupaten Alor, Nusa Tenggara Tim.",NUSA TENGGARA TIMUR,,Indonesia,,,,-82.179.242,1.245.103.068,https://maps.google.com/?cid=0x0:0x95291d7925955760,
perumahan,Pembangunan Perumahan,Rumah Buffon,"QGP8+535, Kalabahi Kota, Kec. Tlk. Mutiara, Kabupaten Alor, Nusa Tenggara Tim.","Kabupaten Alor, Nusa Tenggara Tim.",NUSA TENGGARA TIMUR,,Indonesia,,,,-82.146.121,1.245.152.566,https://maps.google.com/?cid=0x0:0x2b109ebdaa3d12a5,
perumahan,Komplek perumahan,TUALAKA's FAMILY HOUSE,"QGPH+WFC Pasar Tabakar, RT.010/RW.005, Nusa Kenari, Kec. Tlk. Mutiara, Kabupaten Alor, Nusa Tenggara Tim.","Kabupaten Alor, Nusa Tenggara Tim.",NUSA TENGGARA TIMUR,,Indonesia,,,,-82.126.823,1.245.286.275,https://maps.google.com/?cid=0x0:0x84d465169364259e,
perumahan,Kantor Pemerintah,RUMAH JABATAN WAKIL BUPATI ALOR,"Jl. Gurami No.2, Kalabahi Kota, Kec. Tlk. Mutiara, Kabupaten Alor, Nusa Tenggara Tim. 85813","Kalabahi Kota, Kec. Tlk. Mutiara, Kabupaten Alor",NUSA TENGGARA TIMUR,85813.0,Indonesia,,,,-82.176.698,1.245.191.985,https://maps.google.com/?cid=0x0:0x67b2091d1b27f305,
perumahan,Komplek perumahan,ANAK2,"Jl. R.E. Martadinata No.34, kampung Raja, Kec. Tlk. Mutiara, Kabupaten Alor, Nusa Tenggara Tim. 85813","kampung Raja, Kec. Tlk. Mutiara, Kabupaten Alor",NUSA TENGGARA TIMUR,85813.0,Indonesia,81338319900,,,-82.188.917,1.245.150.067,https://maps.google.com/?cid=0x0:0xb5d2b8f9f1918a7c,
perumahan,Pembangunan Perumahan,Stapak Mutiara,"QGP8+CJR, Jl. Mutiara, Kalabahi Kota, Kec. Tlk. Mutiara, Kabupaten Alor, Nusa Tenggara Tim.","Kabupaten Alor, Nusa Tenggara Tim.",NUSA TENGGARA TIMUR,,Indonesia,,,,-82.138.808,1.245.165.035,https://maps.google.com/?cid=0x0:0xd3db3674d1112558,
perumahan,Gedung Pertemuan,Watamelang,"QGP9+97V, Kalabahi Kota, Kec. Tlk. Mutiara, Kabupaten Alor, Nusa Tenggara Tim.","Kabupaten Alor, Nusa Tenggara Tim.",NUSA TENGGARA TIMUR,,Indonesia,,,,-82.140.194,1.245.181.705,https://maps.google.com/?cid=0x0:0xc0f16b9914a06f63,
perumahan,Komplek perumahan,Asyrafhouse,"QGP8+535, Kalabahi Kota, Kec. Tlk. Mutiara, Kabupaten Alor, Nusa Tenggara Tim.","Kabupaten Alor, Nusa Tenggara Tim.",NUSA TENGGARA TIMUR,,Indonesia,,,,-821.519,124.515.133,https://maps.google.com/?cid=0x0:0xb25dd203bcb18a12,
perumahan,Komplek perumahan,Semuel J. Mail,"QGQ7+4VM, Motongbang, Kec. Tlk. Mutiara, Kabupaten Alor, Nusa Tenggara Tim.","Kabupaten Alor, Nusa Tenggara Tim.",NUSA TENGGARA TIMUR,,Indonesia,,,,-82.119.383,1.245.141.654,https://maps.google.com/?cid=0x0:0x756b9e9407ea200a,
perumahan,Komplek perumahan,Kompleks Perumahan Lapas Kls II-B Kalabahi,"QGJQ+G4Q, Kalabahi Tim., Kec. Tlk. Mutiara, Kabupaten Alor, Nusa Tenggara Tim.","Kabupaten Alor, Nusa Tenggara Tim.",NUSA TENGGARA TIMUR,,Indonesia,,,,-82.186.714,1.245.378.494,https://maps.google.com/?cid=0x0:0x607830b3352444f5,
perumahan,Komplek perumahan,Rumah Saya,"QGJP+2FX, Jl. Madura, Kalabahi Tim., Kec. Tlk. Mutiara, Kabupaten Alor, Nusa Tenggara Tim.","Kabupaten Alor, Nusa Tenggara Tim.",NUSA TENGGARA TIMUR,,Indonesia,,,,-8.219.597,124.536.146,https://maps.google.com/?cid=0x0:0x6c13a7a8bf027619,
perumahan,Komplek perumahan,saulllll,"QGRF+CMM, Lendola, Kec. Tlk. Mutiara, Kabupaten Alor, Nusa Tenggara Tim.","Kabupaten Alor, Nusa Tenggara Tim.",NUSA TENGGARA TIMUR,,Indonesia,,,,-82.089.152,1.245.241.708,https://maps.google.com/?cid=0x0:0xc4c2b2b9a1e49929,
perumahan,Komplek perumahan,Rumah Motongbang,"QGP6+VRR, Motongbang, Kec. Tlk. Mutiara, Kabupaten Alor, Nusa Tenggara Tim.","Kabupaten Alor, Nusa Tenggara Tim.",NUSA TENGGARA TIMUR,,Indonesia,,,,-82.127.573,1.245.120.277,https://maps.google.com/?cid=0x0:0x67824e8dd84099d7,
perumahan,Pembangunan Perumahan,kalabahi alor,"QGP8+6F4, Kalabahi Kota, Kec. Tlk. Mutiara, Kabupaten Alor, Nusa Tenggara Tim.","Kabupaten Alor, Nusa Tenggara Tim.",NUSA TENGGARA TIMUR,,Indonesia,82145259011,,,-82.144.829,1.245.162.013,https://maps.google.com/?cid=0x0:0xb3c61b1cf859d2f2,
perumahan,Pembangunan Perumahan,Pereli gank,"Jl. Jend. Sudirman No.100, Kalabahi Kota, Kec. Tlk. Mutiara, Kabupaten Alor, Nusa Tenggara Tim. 85813","Kalabahi Kota, Kec. Tlk. Mutiara, Kabupaten Alor",NUSA TENGGARA TIMUR,85813.0,Indonesia,,,,-82.168.588,1.245.309.463,https://maps.google.com/?cid=0x0:0xbc5f20a29ecd0f1a,
perumahan,Komplek perumahan,Kampung pisang,"QGRF+X9J, Jl. Pipit, Lendola, Kec. Tlk. Mutiara, Kabupaten Alor, Nusa Tenggara Tim.","Kabupaten Alor, Nusa Tenggara Tim.",NUSA TENGGARA TIMUR,,Indonesia,,,,-82.075.371,1.245.234.014,https://maps.google.com/?cid=0x0:0xc02b2e21b6900df0,
perumahan,perumahan,Kec. Tlk. Mutiara,"Kabupaten Alor, Nusa Tenggara Tim.","Kabupaten Alor, Nusa Tenggara Tim.",NUSA TENGGARA TIMUR,,Indonesia,,,,-82.165.759,1.245.218.191,https://maps.google.com/?cid=0x0:0x36ef9ebbaaa54623,
perumahan,Pembangunan Perumahan,Kalabahi alor,"QGPW+X47, Mutiara, Kec. Tlk. Mutiara, Kabupaten Alor, Nusa Tenggara Tim.","Kabupaten Alor, Nusa Tenggara Tim.",NUSA TENGGARA TIMUR,,Indonesia,,,,-82.124.489,1.245.448.016,https://maps.google.com/?cid=0x0:0xb1591798ee25b44b,
perumahan,Lembaga Swadaya Masyarakat (LSM),Kantor Yayasan WWF Indonesia LSS Alor,"QGQ8+4HH, Kalabahi Kota, Kec. Tlk. Mutiara, Kabupaten Alor, Nusa Tenggara Tim.","Kabupaten Alor, Nusa Tenggara Tim.",NUSA TENGGARA TIMUR,,Indonesia,,,,-82.121.931,1.245.164.757,https://maps.google.com/?cid=0x0:0x7761b9ec10cde542,
perumahan,perumahan,Homestay Cantik,"QGQ8+4HH Tingkat Satu Kalabahi, Kalabahi Kota, Kec. Tlk. Mutiara, Kabupaten Alor, Nusa Tenggara Tim.","Kabupaten Alor, Nusa Tenggara Tim.",NUSA TENGGARA TIMUR,,Indonesia,81332299336,,,-82.121.629,1.245.166.656,https://maps.google.com/?cid=0x0:0xc167ec0074f8c547,
perumahan,Tujuan Wisata,Museum 1000 Moko Kalabahi,"QGMG+CCV, Nusa Kenari, Kec. Tlk. Mutiara, Kabupaten Alor, Nusa Tenggara Tim.","Kabupaten Alor, Nusa Tenggara Tim.",NUSA TENGGARA TIMUR,,Indonesia,,,,-82.163.796,1.245.260.379,https://maps.google.com/?cid=0x0:0x53303a7834d3cc4e,
perumahan,perumahan,Kalabahi,"Kalabahi Kota, Kec. Tlk. Mutiara, Kabupaten Alor, Nusa Tenggara Tim.","Kabupaten Alor, Nusa Tenggara Tim.",NUSA TENGGARA TIMUR,,Indonesia,,,,-8.213.998,124.518.169,https://maps.google.com/?cid=0x0:0x7eadea7a2ab8626d,
perumahan,perumahan,Kabupaten Alor,Nusa Tenggara Tim.,"Kabupaten Alor, Nusa Tenggara Tim.",NUSA TENGGARA TIMUR,,Indonesia,,,,-82.928.427,1.245.528.387,https://maps.google.com/?cid=0x0:0x50077f96fbb4d459,
perumahan,Masjid,Al Fatah Grand Mosque of Kalabahi,"QGM8+27C, Kalabahi Kota, Kec. Tlk. Mutiara, Kabupaten Alor, Nusa Tenggara Tim.","Kabupaten Alor, Nusa Tenggara Tim.",NUSA TENGGARA TIMUR,,Indonesia,,,,-82.174.484,1.245.156.251,https://maps.google.com/?cid=0x0:0xc0bf531460de43f4,
perumahan,Masakan Asia,Dapoer RA,"QGMW+4X6, Mutiara, Kec. Tlk. Mutiara, Kabupaten Alor, Nusa Tenggara Tim.","Kabupaten Alor, Nusa Tenggara Tim.",NUSA TENGGARA TIMUR,,Indonesia,82264538365,,,-82.171.085,1.245.474.333,https://maps.google.com/?cid=0x0:0x5f16006f07f778a7,
perumahan,Pasar,Pasar Inpres,"QGMG+GXF, Jl. Jend. Sudirman, Kalabahi Kota, Kec. Tlk. Mutiara, Kabupaten Alor, Nusa Tenggara Tim.","Kabupaten Alor, Nusa Tenggara Tim.",NUSA TENGGARA TIMUR,,Indonesia,,,,-82.161.974,1.245.274.078,https://maps.google.com/?cid=0x0:0x6a1c86e24ee5991,
perumahan,perumahan,Kalabahi Kota,"Kec. Tlk. Mutiara, Kabupaten Alor, Nusa Tenggara Tim.","Kabupaten Alor, Nusa Tenggara Tim.",NUSA TENGGARA TIMUR,,Indonesia,,,,-82.144.634,1.245.161.414,https://maps.google.com/?cid=0x0:0xc5179b3eadee50c4,
perumahan,Padang,Rumah Makan Gantiang,"QGMM+76G, Kalabahi Tim., Kec. Tlk. Mutiara, Kabupaten Alor, Nusa Tenggara Tim.","Kabupaten Alor, Nusa Tenggara Tim.",NUSA TENGGARA TIMUR,,Indonesia,,,,-82.168.183,1.245.330.738,https://maps.google.com/?cid=0x0:0xc6c5310c71d022da,
perumahan,Restoran,Warung Kalasan,"QGHV+2CX, Kalabahi Tim., Kec. Tlk. Mutiara, Kabupaten Alor, Nusa Tenggara Tim.","Kabupaten Alor, Nusa Tenggara Tim.",NUSA TENGGARA TIMUR,,Indonesia,82144531130,,,-8.222.381,124.543.597,https://maps.google.com/?cid=0x0:0x9391ef0ad9bb4322,
perumahan,Padang,RM.Efata,"QGJ7+PXM Pantai Reklamasi, Kalabahi Tim., Kec. Tlk. Mutiara, Kabupaten Alor, Nusa Tenggara Tim.","Kabupaten Alor, Nusa Tenggara Tim.",NUSA TENGGARA TIMUR,,Indonesia,81338775648,,,-82.181.727,1.245.149.203,https://maps.google.com/?cid=0x0:0xd5ba7a556865c08,
perumahan,Padang,Warung Makan Padang Sakato,"QGM9+3Q2, Jend. Sudirman Street, Kalabahi Kota, Kec. Tlk. Mutiara, Kabupaten Alor, Nusa Tenggara Tim.","Kabupaten Alor, Nusa Tenggara Tim.",NUSA TENGGARA TIMUR,,Indonesia,85239014012,,,-82.173.532,1.245.193.896,https://maps.google.com/?cid=0x0:0xbbbabb419cb9ebe3,
perumahan,perumahan,Mokkolipa Guesthouse,"Lipa pantai, Kec. Tlk. Mutiara, Kabupaten Alor, Nusa Tenggara Tim.","Kabupaten Alor, Nusa Tenggara Tim.",NUSA TENGGARA TIMUR,,Indonesia,81339626092,,,-82.174.849,1.245.293.021,https://maps.google.com/?cid=0x0:0x5b9491f3a762bb84,
perumahan,Padang,Padang Rumah Makan,"Jend. Sudirman Street No.100, Kalabahi Kota, Kec. Tlk. Mutiara, Kabupaten Alor, Nusa Tenggara Tim.","Kabupaten Alor, Nusa Tenggara Tim.",NUSA TENGGARA TIMUR,,Indonesia,38621898,,,-82.134.228,1.245.176.045,https://maps.google.com/?cid=0x0:0x699d4d132b4836b5,
perumahan,Rumah Makan,Warung Banyuwangi,"QGJW+VJ9, Mutiara, Kec. Tlk. Mutiara, Kabupaten Alor, Nusa Tenggara Tim.","Kabupaten Alor, Nusa Tenggara Tim.",NUSA TENGGARA TIMUR,,Indonesia,81239078884,,,-82.178.283,1.245.465.944,https://maps.google.com/?cid=0x0:0xcd6e9f9bd40f1350,
perumahan,Komplek perumahan,Alang alor ntt Indonesia,"RCGP+FQ2, Alaang, Kec. Alor Bar. Laut, Kabupaten Alor, Nusa Tenggara Tim.","Kabupaten Alor, Nusa Tenggara Tim.",NUSA TENGGARA TIMUR,,Indonesia,,,,-81.751.298,1.244.368.235,https://maps.google.com/?cid=0x0:0x717edda2e2eefc,
perumahan,Indonesia,Warung Makan Lumayan (Masakan Jawa),"QGMH+7VQ, Kalabahi Tengah, Kec. Tlk. Mutiara, Kabupaten Alor, Nusa Tenggara Tim.","Kabupaten Alor, Nusa Tenggara Tim.",NUSA TENGGARA TIMUR,,Indonesia,,,,-8.216.795,1.245.297.442,https://maps.google.com/?cid=0x0:0x1001024b5f6e74dc,
perumahan,perumahan,"PASAR BAWAH , ALOR NTT","Jl. Sisingamangaraja No.18, Wetabua, Kec. Tlk. Mutiara, Kabupaten Alor, Nusa Tenggara Tim. 85819","Wetabua, Kec. Tlk. Mutiara, Kabupaten Alor",NUSA TENGGARA TIMUR,85819.0,Indonesia,,,,-82.174.083,1.245.267.443,https://maps.google.com/?cid=0x0:0xe49d7d25e5ef96e6,
perumahan,perumahan,"PASAR BAWAH , GANK","Jl. Sisingamangaraja No.18-2, Wetabua, Kec. Tlk. Mutiara, Kabupaten Alor, Nusa Tenggara Tim.","Kabupaten Alor, Nusa Tenggara Tim.",NUSA TENGGARA TIMUR,,Indonesia,,,,-8.217.332,124.526.705,https://maps.google.com/?cid=0x0:0x38a006463d360cb3,
perumahan,Komplek perumahan,Perumahan Ombay,"QGPJ+XVJ, Kalabahi Tengah, Kec. Tlk. Mutiara, Kabupaten Alor, Nusa Tenggara Tim.","Kabupaten Alor, Nusa Tenggara Tim.",NUSA TENGGARA TIMUR,,Indonesia,,,,-82.125.378,1.245.321.535,https://maps.google.com/?cid=0x0:0x836c47c2acfb4ad9,
perumahan,Komplek perumahan,Tingkat satu,"Jln Seroja No.1, Kalabahi Kota, Kec. Tlk. Mutiara, Kabupaten Alor, Nusa Tenggara Tim.","Kabupaten Alor, Nusa Tenggara Tim.",NUSA TENGGARA TIMUR,,Indonesia,,,,-82.140.194,1.245.181.705,https://maps.google.com/?cid=0x0:0xde3799fe36bf2246,
perumahan,Pembangunan Perumahan,Moepali Tengah,"QGJ6+R4M, Binongko, Kec. Tlk. Mutiara, Kabupaten Alor, Nusa Tenggara Tim.","Kabupaten Alor, Nusa Tenggara Tim.",NUSA TENGGARA TIMUR,,Indonesia,,,,-82.179.242,1.245.103.068,https://maps.google.com/?cid=0x0:0x95291d7925955760,
perumahan,Perhimpunan Pengembang Perumahan,Rumah nurziah,"QGMJ+W3Q, Kalabahi Tengah, Kec. Tlk. Mutiara, Kabupaten Alor, Nusa Tenggara Tim.","Kabupaten Alor, Nusa Tenggara Tim.",NUSA TENGGARA TIMUR,,Indonesia,,,,-82.151.691,1.245.302.498,https://maps.google.com/?cid=0x0:0x3bdc1a7b171f359,
perumahan,,Teluk mutia,"QGP9+97V, Kalabahi Kota, Kec. Tlk. Mutiara, Kabupaten Alor, Nusa Tenggara Tim.","Kabupaten Alor, Nusa Tenggara Tim.",NUSA TENGGARA TIMUR,,Indonesia,,,,-82.140.194,1.245.181.705,https://maps.google.com/?cid=0x0:0xa9235d047609e474,
perumahan,Pembangunan Perumahan,Pereli gank,"Jl. Jend. Sudirman No.100, Kalabahi Kota, Kec. Tlk. Mutiara, Kabupaten Alor, Nusa Tenggara Tim. 85813","Kalabahi Kota, Kec. Tlk. Mutiara, Kabupaten Alor",NUSA TENGGARA TIMUR,85813.0,Indonesia,,,,-82.168.588,1.245.309.463,https://maps.google.com/?cid=0x0:0xbc5f20a29ecd0f1a,
perumahan,Komplek perumahan,Perumahan btn bungawaru,"QGPP+577, Jl. Badak No.kel, Kalabahi Tim., Kec. Tlk. Mutiara, Kabupaten Alor, Nusa Tenggara Tim.","Kabupaten Alor, Nusa Tenggara Tim.",NUSA TENGGARA TIMUR,,Indonesia,,,,-82.160.255,1.245.357.243,https://maps.google.com/?cid=0x0:0xd9aadd2fb0b6f1f7,
perumahan,perumahan,Kec. Tlk. Mutiara,"Kabupaten Alor, Nusa Tenggara Tim.","Kabupaten Alor, Nusa Tenggara Tim.",NUSA TENGGARA TIMUR,,Indonesia,,,,-82.165.759,1.245.218.191,https://maps.google.com/?cid=0x0:0x36ef9ebbaaa54623,
perumahan,Pembangunan Perumahan,Kalabahi alor,"QGPW+X47, Mutiara, Kec. Tlk. Mutiara, Kabupaten Alor, Nusa Tenggara Tim.","Kabupaten Alor, Nusa Tenggara Tim.",NUSA TENGGARA TIMUR,,Indonesia,,,,-82.124.489,1.245.448.016,https://maps.google.com/?cid=0x0:0xb1591798ee25b44b,
perumahan,Lembaga Swadaya Masyarakat (LSM),Kantor Yayasan WWF Indonesia LSS Alor,"QGQ8+4HH, Kalabahi Kota, Kec. Tlk. Mutiara, Kabupaten Alor, Nusa Tenggara Tim.","Kabupaten Alor, Nusa Tenggara Tim.",NUSA TENGGARA TIMUR,,Indonesia,,,,-82.121.931,1.245.164.757,https://maps.google.com/?cid=0x0:0x7761b9ec10cde542,
perumahan,perumahan,Kabupaten Alor,Nusa Tenggara Tim.,"Kabupaten Alor, Nusa Tenggara Tim.",NUSA TENGGARA TIMUR,,Indonesia,,,,-82.928.427,1.245.528.387,https://maps.google.com/?cid=0x0:0x50077f96fbb4d459,
perumahan,perumahan,Kalabahi,"Kalabahi Kota, Kec. Tlk. Mutiara, Kabupaten Alor, Nusa Tenggara Tim.","Kabupaten Alor, Nusa Tenggara Tim.",NUSA TENGGARA TIMUR,,Indonesia,,,,-8.213.998,124.518.169,https://maps.google.com/?cid=0x0:0x7eadea7a2ab8626d,
perumahan,perumahan,Homestay Cantik,"QGQ8+4HH Tingkat Satu Kalabahi, Kalabahi Kota, Kec. Tlk. Mutiara, Kabupaten Alor, Nusa Tenggara Tim.","Kabupaten Alor, Nusa Tenggara Tim.",NUSA TENGGARA TIMUR,,Indonesia,81332299336,,,-82.121.629,1.245.166.656,https://maps.google.com/?cid=0x0:0xc167ec0074f8c547,
perumahan,Tujuan Wisata,Museum 1000 Moko Kalabahi,"QGMG+CCV, Nusa Kenari, Kec. Tlk. Mutiara, Kabupaten Alor, Nusa Tenggara Tim.","Kabupaten Alor, Nusa Tenggara Tim.",NUSA TENGGARA TIMUR,,Indonesia,,,,-82.163.796,1.245.260.379,https://maps.google.com/?cid=0x0:0x53303a7834d3cc4e,
perumahan,Padang,RM.Efata,"QGJ7+PXM Pantai Reklamasi, Kalabahi Tim., Kec. Tlk. Mutiara, Kabupaten Alor, Nusa Tenggara Tim.","Kabupaten Alor, Nusa Tenggara Tim.",NUSA TENGGARA TIMUR,,Indonesia,81338775648,,,-82.181.727,1.245.149.203,https://maps.google.com/?cid=0x0:0xd5ba7a556865c08,
perumahan,perumahan,Kalabahi Kota,"Kec. Tlk. Mutiara, Kabupaten Alor, Nusa Tenggara Tim.","Kabupaten Alor, Nusa Tenggara Tim.",NUSA TENGGARA TIMUR,,Indonesia,,,,-82.144.634,1.245.161.414,https://maps.google.com/?cid=0x0:0xc5179b3eadee50c4,
perumahan,Pasar,Pasar Inpres,"QGMG+GXF, Jl. Jend. Sudirman, Kalabahi Kota, Kec. Tlk. Mutiara, Kabupaten Alor, Nusa Tenggara Tim.","Kabupaten Alor, Nusa Tenggara Tim.",NUSA TENGGARA TIMUR,,Indonesia,,,,-82.161.974,1.245.274.078,https://maps.google.com/?cid=0x0:0x6a1c86e24ee5991,
perumahan,Padang,Rumah Makan Gantiang,"QGMM+76G, Kalabahi Tim., Kec. Tlk. Mutiara, Kabupaten Alor, Nusa Tenggara Tim.","Kabupaten Alor, Nusa Tenggara Tim.",NUSA TENGGARA TIMUR,,Indonesia,,,,-82.168.183,1.245.330.738,https://maps.google.com/?cid=0x0:0xc6c5310c71d022da,
perumahan,Padang,Warung Makan Padang Sakato,"QGM9+3Q2, Jend. Sudirman Street, Kalabahi Kota, Kec. Tlk. Mutiara, Kabupaten Alor, Nusa Tenggara Tim.","Kabupaten Alor, Nusa Tenggara Tim.",NUSA TENGGARA TIMUR,,Indonesia,85239014012,,,-82.173.532,1.245.193.896,https://maps.google.com/?cid=0x0:0xbbbabb419cb9ebe3,
perumahan,Masakan Asia,Dapoer RA,"QGMW+4X6, Mutiara, Kec. Tlk. Mutiara, Kabupaten Alor, Nusa Tenggara Tim.","Kabupaten Alor, Nusa Tenggara Tim.",NUSA TENGGARA TIMUR,,Indonesia,82264538365,,,-82.171.085,1.245.474.333,https://maps.google.com/?cid=0x0:0x5f16006f07f778a7,
perumahan,Restoran,Warung Kalasan,"QGHV+2CX, Kalabahi Tim., Kec. Tlk. Mutiara, Kabupaten Alor, Nusa Tenggara Tim.","Kabupaten Alor, Nusa Tenggara Tim.",NUSA TENGGARA TIMUR,,Indonesia,82144531130,,,-8.222.381,124.543.597,https://maps.google.com/?cid=0x0:0x9391ef0ad9bb4322,
perumahan,Padang,Padang Rumah Makan,"Jend. Sudirman Street No.100, Kalabahi Kota, Kec. Tlk. Mutiara, Kabupaten Alor, Nusa Tenggara Tim.","Kabupaten Alor, Nusa Tenggara Tim.",NUSA TENGGARA TIMUR,,Indonesia,38621898,,,-82.134.228,1.245.176.045,https://maps.google.com/?cid=0x0:0x699d4d132b4836b5,
perumahan,Masjid,Al Fatah Grand Mosque of Kalabahi,"QGM8+27C, Kalabahi Kota, Kec. Tlk. Mutiara, Kabupaten Alor, Nusa Tenggara Tim.","Kabupaten Alor, Nusa Tenggara Tim.",NUSA TENGGARA TIMUR,,Indonesia,,,,-82.174.484,1.245.156.251,https://maps.google.com/?cid=0x0:0xc0bf531460de43f4,
perumahan,Rumah Makan,Warung Banyuwangi,"QGJW+VJ9, Mutiara, Kec. Tlk. Mutiara, Kabupaten Alor, Nusa Tenggara Tim.","Kabupaten Alor, Nusa Tenggara Tim.",NUSA TENGGARA TIMUR,,Indonesia,81239078884,,,-82.178.283,1.245.465.944,https://maps.google.com/?cid=0x0:0xcd6e9f9bd40f1350,
perumahan,Komplek perumahan,Alang alor ntt Indonesia,"RCGP+FQ2, Alaang, Kec. Alor Bar. Laut, Kabupaten Alor, Nusa Tenggara Tim.","Kabupaten Alor, Nusa Tenggara Tim.",NUSA TENGGARA TIMUR,,Indonesia,,,,-81.751.298,1.244.368.235,https://maps.google.com/?cid=0x0:0x717edda2e2eefc,
perumahan,Indonesia,Lalapan Mas Eko,"QGJR+466, Kalabahi Tim., Kec. Tlk. Mutiara, Kabupaten Alor, Nusa Tenggara Tim.","Kabupaten Alor, Nusa Tenggara Tim.",NUSA TENGGARA TIMUR,,Indonesia,,,,-82.197.709,1.245.406.675,https://maps.google.com/?cid=0x0:0x8e94fcf45b7aa38e,
perumahan,perumahan,Mokkolipa Guesthouse,"Lipa pantai, Kec. Tlk. Mutiara, Kabupaten Alor, Nusa Tenggara Tim.","Kabupaten Alor, Nusa Tenggara Tim.",NUSA TENGGARA TIMUR,,Indonesia,81339626092,,,-82.174.849,1.245.293.021,https://maps.google.com/?cid=0x0:0x5b9491f3a762bb84,
perumahan,Pembangunan Perumahan,Rumah Saya,"Jl. Slamet Riyadi No.15, Kalabahi Bar., Kec. Tlk. Mutiara, Kabupaten Alor, Nusa Tenggara Tim. 85814","Kalabahi Bar., Kec. Tlk. Mutiara, Kabupaten Alor",NUSA TENGGARA TIMUR,85814.0,Indonesia,,,,-82.201.535,1.245.018.634,https://maps.google.com/?cid=0x0:0xa666912898743d80,
perumahan,Komplek perumahan,Perumahan Ombay,"QGPJ+XVJ, Kalabahi Tengah, Kec. Tlk. Mutiara, Kabupaten Alor, Nusa Tenggara Tim.","Kabupaten Alor, Nusa Tenggara Tim.",NUSA TENGGARA TIMUR,,Indonesia,,,,-82.125.378,1.245.321.535,https://maps.google.com/?cid=0x0:0x836c47c2acfb4ad9,
perumahan,perumahan,"PASAR BAWAH , ALOR NTT","Jl. Sisingamangaraja No.18, Wetabua, Kec. Tlk. Mutiara, Kabupaten Alor, Nusa Tenggara Tim. 85819","Wetabua, Kec. Tlk. Mutiara, Kabupaten Alor",NUSA TENGGARA TIMUR,85819.0,Indonesia,,,,-82.174.083,1.245.267.443,https://maps.google.com/?cid=0x0:0xe49d7d25e5ef96e6,
perumahan,Komplek perumahan,Kompleks Perumahan Lapas Kls II-B Kalabahi,"QGJQ+G4Q, Kalabahi Tim., Kec. Tlk. Mutiara, Kabupaten Alor, Nusa Tenggara Tim.","Kabupaten Alor, Nusa Tenggara Tim.",NUSA TENGGARA TIMUR,,Indonesia,,,,-82.186.714,1.245.378.494,https://maps.google.com/?cid=0x0:0x607830b3352444f5,
perumahan,perumahan,"PASAR BAWAH , GANK","Jl. Sisingamangaraja No.18-2, Wetabua, Kec. Tlk. Mutiara, Kabupaten Alor, Nusa Tenggara Tim.","Kabupaten Alor, Nusa Tenggara Tim.",NUSA TENGGARA TIMUR,,Indonesia,,,,-8.217.332,124.526.705,https://maps.google.com/?cid=0x0:0x38a006463d360cb3,
perumahan,Komplek perumahan,Tingkat satu,"Jln Seroja No.1, Kalabahi Kota, Kec. Tlk. Mutiara, Kabupaten Alor, Nusa Tenggara Tim.","Kabupaten Alor, Nusa Tenggara Tim.",NUSA TENGGARA TIMUR,,Indonesia,,,,-82.140.194,1.245.181.705,https://maps.google.com/?cid=0x0:0xde3799fe36bf2246,
perumahan,Pembangunan Perumahan,Rumah Buffon,"QGP8+535, Kalabahi Kota, Kec. Tlk. Mutiara, Kabupaten Alor, Nusa Tenggara Tim.","Kabupaten Alor, Nusa Tenggara Tim.",NUSA TENGGARA TIMUR,,Indonesia,,,,-82.146.121,1.245.152.566,https://maps.google.com/?cid=0x0:0x2b109ebdaa3d12a5,
perumahan,Komplek perumahan,Perumahan btn bungawaru,"QGPP+577, Jl. Badak No.kel, Kalabahi Tim., Kec. Tlk. Mutiara, Kabupaten Alor, Nusa Tenggara Tim.","Kabupaten Alor, Nusa Tenggara Tim.",NUSA TENGGARA TIMUR,,Indonesia,,,,-82.160.255,1.245.357.243,https://maps.google.com/?cid=0x0:0xd9aadd2fb0b6f1f7,
perumahan,Komplek perumahan,TUALAKA's FAMILY HOUSE,"QGPH+WFC Pasar Tabakar, RT.010/RW.005, Nusa Kenari, Kec. Tlk. Mutiara, Kabupaten Alor, Nusa Tenggara Tim.","Kabupaten Alor, Nusa Tenggara Tim.",NUSA TENGGARA TIMUR,,Indonesia,,,,-82.126.823,1.245.286.275,https://maps.google.com/?cid=0x0:0x84d465169364259e,
perumahan,perumahan,Kec. Tlk. Mutiara,"Kabupaten Alor, Nusa Tenggara Tim.","Kabupaten Alor, Nusa Tenggara Tim.",NUSA TENGGARA TIMUR,,Indonesia,,,,-82.165.759,1.245.218.191,https://maps.google.com/?cid=0x0:0x36ef9ebbaaa54623,
perumahan,Pembangunan Perumahan,Kalabahi alor,"QGPW+X47, Mutiara, Kec. Tlk. Mutiara, Kabupaten Alor, Nusa Tenggara Tim.","Kabupaten Alor, Nusa Tenggara Tim.",NUSA TENGGARA TIMUR,,Indonesia,,,,-82.124.489,1.245.448.016,https://maps.google.com/?cid=0x0:0xb1591798ee25b44b,
perumahan,perumahan,Mutiara,"Kec. Tlk. Mutiara, Kabupaten Alor, Nusa Tenggara Tim.","Kabupaten Alor, Nusa Tenggara Tim.",NUSA TENGGARA TIMUR,,Indonesia,,,,-82.117.433,1.245.500.697,https://maps.google.com/?cid=0x0:0x263f614b16e60f90,
perumahan,Lembaga Swadaya Masyarakat (LSM),Kantor Yayasan WWF Indonesia LSS Alor,"QGQ8+4HH, Kalabahi Kota, Kec. Tlk. Mutiara, Kabupaten Alor, Nusa Tenggara Tim.","Kabupaten Alor, Nusa Tenggara Tim.",NUSA TENGGARA TIMUR,,Indonesia,,,,-82.121.931,1.245.164.757,https://maps.google.com/?cid=0x0:0x7761b9ec10cde542,
perumahan,perumahan,Kalabahi,"Kalabahi Kota, Kec. Tlk. Mutiara, Kabupaten Alor, Nusa Tenggara Tim.","Kabupaten Alor, Nusa Tenggara Tim.",NUSA TENGGARA TIMUR,,Indonesia,,,,-8.213.998,124.518.169,https://maps.google.com/?cid=0x0:0x7eadea7a2ab8626d,
perumahan,perumahan,Homestay Cantik,"QGQ8+4HH Tingkat Satu Kalabahi, Kalabahi Kota, Kec. Tlk. Mutiara, Kabupaten Alor, Nusa Tenggara Tim.","Kabupaten Alor, Nusa Tenggara Tim.",NUSA TENGGARA TIMUR,,Indonesia,81332299336,,,-82.121.629,1.245.166.656,https://maps.google.com/?cid=0x0:0xc167ec0074f8c547,
perumahan,Tujuan Wisata,Museum 1000 Moko Kalabahi,"QGMG+CCV, Nusa Kenari, Kec. Tlk. Mutiara, Kabupaten Alor, Nusa Tenggara Tim.","Kabupaten Alor, Nusa Tenggara Tim.",NUSA TENGGARA TIMUR,,Indonesia,,,,-82.163.796,1.245.260.379,https://maps.google.com/?cid=0x0:0x53303a7834d3cc4e,
perumahan,Pasar,Pasar Inpres,"QGMG+GXF, Jl. Jend. Sudirman, Kalabahi Kota, Kec. Tlk. Mutiara, Kabupaten Alor, Nusa Tenggara Tim.","Kabupaten Alor, Nusa Tenggara Tim.",NUSA TENGGARA TIMUR,,Indonesia,,,,-82.161.974,1.245.274.078,https://maps.google.com/?cid=0x0:0x6a1c86e24ee5991,
perumahan,perumahan,Kabupaten Alor,Nusa Tenggara Tim.,"Kabupaten Alor, Nusa Tenggara Tim.",NUSA TENGGARA TIMUR,,Indonesia,,,,-82.928.427,1.245.528.387,https://maps.google.com/?cid=0x0:0x50077f96fbb4d459,
perumahan,Padang,Rumah Makan Gantiang,"QGMM+76G, Kalabahi Tim., Kec. Tlk. Mutiara, Kabupaten Alor, Nusa Tenggara Tim.","Kabupaten Alor, Nusa Tenggara Tim.",NUSA TENGGARA TIMUR,,Indonesia,,,,-82.168.183,1.245.330.738,https://maps.google.com/?cid=0x0:0xc6c5310c71d022da,
perumahan,Masakan Asia,Dapoer RA,"QGMW+4X6, Mutiara, Kec. Tlk. Mutiara, Kabupaten Alor, Nusa Tenggara Tim.","Kabupaten Alor, Nusa Tenggara Tim.",NUSA TENGGARA TIMUR,,Indonesia,82264538365,,,-82.171.085,1.245.474.333,https://maps.google.com/?cid=0x0:0x5f16006f07f778a7,
perumahan,Padang,RM.Efata,"QGJ7+PXM Pantai Reklamasi, Kalabahi Tim., Kec. Tlk. Mutiara, Kabupaten Alor, Nusa Tenggara Tim.","Kabupaten Alor, Nusa Tenggara Tim.",NUSA TENGGARA TIMUR,,Indonesia,81338775648,,,-82.181.727,1.245.149.203,https://maps.google.com/?cid=0x0:0xd5ba7a556865c08,
perumahan,Masjid,Al Fatah Grand Mosque of Kalabahi,"QGM8+27C, Kalabahi Kota, Kec. Tlk. Mutiara, Kabupaten Alor, Nusa Tenggara Tim.","Kabupaten Alor, Nusa Tenggara Tim.",NUSA TENGGARA TIMUR,,Indonesia,,,,-82.174.484,1.245.156.251,https://maps.google.com/?cid=0x0:0xc0bf531460de43f4,
perumahan,Rumah Makan,Warung Banyuwangi,"QGJW+VJ9, Mutiara, Kec. Tlk. Mutiara, Kabupaten Alor, Nusa Tenggara Tim.","Kabupaten Alor, Nusa Tenggara Tim.",NUSA TENGGARA TIMUR,,Indonesia,81239078884,,,-82.178.283,1.245.465.944,https://maps.google.com/?cid=0x0:0xcd6e9f9bd40f1350,
perumahan,perumahan,Kalabahi Kota,"Kec. Tlk. Mutiara, Kabupaten Alor, Nusa Tenggara Tim.","Kabupaten Alor, Nusa Tenggara Tim.",NUSA TENGGARA TIMUR,,Indonesia,,,,-82.144.634,1.245.161.414,https://maps.google.com/?cid=0x0:0xc5179b3eadee50c4,
perumahan,Restoran,Warung Bu Ifa,"QGMC+956, Jl. Jend. Sudirman Street, Wetabua, Kec. Tlk. Mutiara, Kabupaten Alor, Nusa Tenggara Tim.","Kabupaten Alor, Nusa Tenggara Tim.",NUSA TENGGARA TIMUR,,Indonesia,81353258333,,,-82.165.976,1.245.203.852,https://maps.google.com/?cid=0x0:0xecdfdaed22fb7fe8,
perumahan,Padang,Padang Rumah Makan,"Jend. Sudirman Street No.100, Kalabahi Kota, Kec. Tlk. Mutiara, Kabupaten Alor, Nusa Tenggara Tim.","Kabupaten Alor, Nusa Tenggara Tim.",NUSA TENGGARA TIMUR,,Indonesia,38621898,,,-82.134.228,1.245.176.045,https://maps.google.com/?cid=0x0:0x699d4d132b4836b5,
perumahan,Restoran,Warung Kalasan,"QGHV+2CX, Kalabahi Tim., Kec. Tlk. Mutiara, Kabupaten Alor, Nusa Tenggara Tim.","Kabupaten Alor, Nusa Tenggara Tim.",NUSA TENGGARA TIMUR,,Indonesia,82144531130,,,-8.222.381,124.543.597,https://maps.google.com/?cid=0x0:0x9391ef0ad9bb4322,
perumahan,Padang,Warung Makan Padang Sakato,"QGM9+3Q2, Jend. Sudirman Street, Kalabahi Kota, Kec. Tlk. Mutiara, Kabupaten Alor, Nusa Tenggara Tim.","Kabupaten Alor, Nusa Tenggara Tim.",NUSA TENGGARA TIMUR,,Indonesia,85239014012,,,-82.173.532,1.245.193.896,https://maps.google.com/?cid=0x0:0xbbbabb419cb9ebe3,
perumahan,perumahan,Mokkolipa Guesthouse,"Lipa pantai, Kec. Tlk. Mutiara, Kabupaten Alor, Nusa Tenggara Tim.","Kabupaten Alor, Nusa Tenggara Tim.",NUSA TENGGARA TIMUR,,Indonesia,81339626092,,,-82.174.849,1.245.293.021,https://maps.google.com/?cid=0x0:0x5b9491f3a762bb84,
perumahan,perumahan,"PASAR BAWAH , ALOR NTT","Jl. Sisingamangaraja No.18, Wetabua, Kec. Tlk. Mutiara, Kabupaten Alor, Nusa Tenggara Tim. 85819","Wetabua, Kec. Tlk. Mutiara, Kabupaten Alor",NUSA TENGGARA TIMUR,85819.0,Indonesia,,,,-82.174.083,1.245.267.443,https://maps.google.com/?cid=0x0:0xe49d7d25e5ef96e6,
perumahan,perumahan,"PASAR BAWAH , GANK","Jl. Sisingamangaraja No.18-2, Wetabua, Kec. Tlk. Mutiara, Kabupaten Alor, Nusa Tenggara Tim.","Kabupaten Alor, Nusa Tenggara Tim.",NUSA TENGGARA TIMUR,,Indonesia,,,,-8.217.332,124.526.705,https://maps.google.com/?cid=0x0:0x38a006463d360cb3,
perumahan,Komplek perumahan,Perumahan btn bungawaru,"QGPP+577, Jl. Badak No.kel, Kalabahi Tim., Kec. Tlk. Mutiara, Kabupaten Alor, Nusa Tenggara Tim.","Kabupaten Alor, Nusa Tenggara Tim.",NUSA TENGGARA TIMUR,,Indonesia,,,,-82.160.255,1.245.357.243,https://maps.google.com/?cid=0x0:0xd9aadd2fb0b6f1f7,
perumahan,Komplek perumahan,Perumahan Ombay,"QGPJ+XVJ, Kalabahi Tengah, Kec. Tlk. Mutiara, Kabupaten Alor, Nusa Tenggara Tim.","Kabupaten Alor, Nusa Tenggara Tim.",NUSA TENGGARA TIMUR,,Indonesia,,,,-82.125.378,1.245.321.535,https://maps.google.com/?cid=0x0:0x836c47c2acfb4ad9,
perumahan,Komplek perumahan,Kompleks Perumahan Lapas Kls II-B Kalabahi,"QGJQ+G4Q, Kalabahi Tim., Kec. Tlk. Mutiara, Kabupaten Alor, Nusa Tenggara Tim.","Kabupaten Alor, Nusa Tenggara Tim.",NUSA TENGGARA TIMUR,,Indonesia,,,,-82.186.714,1.245.378.494,https://maps.google.com/?cid=0x0:0x607830b3352444f5,
perumahan,Pembangunan Perumahan,Rumah Buffon,"QGP8+535, Kalabahi Kota, Kec. Tlk. Mutiara, Kabupaten Alor, Nusa Tenggara Tim.","Kabupaten Alor, Nusa Tenggara Tim.",NUSA TENGGARA TIMUR,,Indonesia,,,,-82.146.121,1.245.152.566,https://maps.google.com/?cid=0x0:0x2b109ebdaa3d12a5,
perumahan,Komplek perumahan,TUALAKA's FAMILY HOUSE,"QGPH+WFC Pasar Tabakar, RT.010/RW.005, Nusa Kenari, Kec. Tlk. Mutiara, Kabupaten Alor, Nusa Tenggara Tim.","Kabupaten Alor, Nusa Tenggara Tim.",NUSA TENGGARA TIMUR,,Indonesia,,,,-82.126.823,1.245.286.275,https://maps.google.com/?cid=0x0:0x84d465169364259e,
perumahan,Komplek perumahan,Tingkat satu,"Jln Seroja No.1, Kalabahi Kota, Kec. Tlk. Mutiara, Kabupaten Alor, Nusa Tenggara Tim.","Kabupaten Alor, Nusa Tenggara Tim.",NUSA TENGGARA TIMUR,,Indonesia,,,,-82.140.194,1.245.181.705,https://maps.google.com/?cid=0x0:0xde3799fe36bf2246,
perumahan,Pembangunan Perumahan,Lautingara,"QGP8+6F4, Kalabahi Kota, Kec. Tlk. Mutiara, Kabupaten Alor, Nusa Tenggara Tim.","Kabupaten Alor, Nusa Tenggara Tim.",NUSA TENGGARA TIMUR,,Indonesia,,,,-82.144.829,1.245.162.013,https://maps.google.com/?cid=0x0:0x691600ef340b725e,
perumahan,perumahan,"EBddaJqSBMn3seMP4p3F6A4-,null,null,null,null,null,null,null,null,null,null,null,null,null,null,null,null,null,null,null,null,null,null,null,1,null,null,null,null,null,1,null,null,null,null,null,null,null,null,null,null,""ChIJb3_wQQB_AC0RssqcMC9-hCM""",,,NUSA TENGGARA TIMUR,,Indonesia,,,,,,https://maps.google.com/?cid=0x0:0x23847e2f309ccab2,
perumahan,perumahan,Kec. Tlk. Mutiara,"Kabupaten Alor, Nusa Tenggara Tim.","Kabupaten Alor, Nusa Tenggara Tim.",NUSA TENGGARA TIMUR,,Indonesia,,,,-82.165.759,1.245.218.191,https://maps.google.com/?cid=0x0:0x36ef9ebbaaa54623,
perumahan,Komplek perumahan,Perumahan Ombay,"QGPJ+XVJ, Kalabahi Tengah, Kec. Tlk. Mutiara, Kabupaten Alor, Nusa Tenggara Tim.","Kabupaten Alor, Nusa Tenggara Tim.",NUSA TENGGARA TIMUR,,Indonesia,,,,-82.125.378,1.245.321.535,https://maps.google.com/?cid=0x0:0x836c47c2acfb4ad9,
perumahan,perumahan,"PASAR BAWAH , GANK","Jl. Sisingamangaraja No.18-2, Wetabua, Kec. Tlk. Mutiara, Kabupaten Alor, Nusa Tenggara Tim.","Kabupaten Alor, Nusa Tenggara Tim.",NUSA TENGGARA TIMUR,,Indonesia,,,,-8.217.332,124.526.705,https://maps.google.com/?cid=0x0:0x38a006463d360cb3,
perumahan,Komplek perumahan,Kompleks Perumahan Lapas Kls II-B Kalabahi,"QGJQ+G4Q, Kalabahi Tim., Kec. Tlk. Mutiara, Kabupaten Alor, Nusa Tenggara Tim.","Kabupaten Alor, Nusa Tenggara Tim.",NUSA TENGGARA TIMUR,,Indonesia,,,,-82.186.714,1.245.378.494,https://maps.google.com/?cid=0x0:0x607830b3352444f5,
perumahan,Komplek perumahan,Tingkat satu,"Jln Seroja No.1, Kalabahi Kota, Kec. Tlk. Mutiara, Kabupaten Alor, Nusa Tenggara Tim.","Kabupaten Alor, Nusa Tenggara Tim.",NUSA TENGGARA TIMUR,,Indonesia,,,,-82.140.194,1.245.181.705,https://maps.google.com/?cid=0x0:0xde3799fe36bf2246,
perumahan,Perhimpunan Pengembang Perumahan,Rumah nurziah,"QGMJ+W3Q, Kalabahi Tengah, Kec. Tlk. Mutiara, Kabupaten Alor, Nusa Tenggara Tim.","Kabupaten Alor, Nusa Tenggara Tim.",NUSA TENGGARA TIMUR,,Indonesia,,,,-82.151.691,1.245.302.498,https://maps.google.com/?cid=0x0:0x3bdc1a7b171f359,
perumahan,Gedung Pertemuan,Watamelang,"QGP9+97V, Kalabahi Kota, Kec. Tlk. Mutiara, Kabupaten Alor, Nusa Tenggara Tim.","Kabupaten Alor, Nusa Tenggara Tim.",NUSA TENGGARA TIMUR,,Indonesia,,,,-82.140.194,1.245.181.705,https://maps.google.com/?cid=0x0:0xc0f16b9914a06f63,
perumahan,Pembangunan Perumahan,Moepali Tengah,"QGJ6+R4M, Binongko, Kec. Tlk. Mutiara, Kabupaten Alor, Nusa Tenggara Tim.","Kabupaten Alor, Nusa Tenggara Tim.",NUSA TENGGARA TIMUR,,Indonesia,,,,-82.179.242,1.245.103.068,https://maps.google.com/?cid=0x0:0x95291d7925955760,
perumahan,Komplek perumahan,TUALAKA's FAMILY HOUSE,"QGPH+WFC Pasar Tabakar, RT.010/RW.005, Nusa Kenari, Kec. Tlk. Mutiara, Kabupaten Alor, Nusa Tenggara Tim.","Kabupaten Alor, Nusa Tenggara Tim.",NUSA TENGGARA TIMUR,,Indonesia,,,,-82.126.823,1.245.286.275,https://maps.google.com/?cid=0x0:0x84d465169364259e,
perumahan,Komplek perumahan,Perumahan btn bungawaru,"QGPP+577, Jl. Badak No.kel, Kalabahi Tim., Kec. Tlk. Mutiara, Kabupaten Alor, Nusa Tenggara Tim.","Kabupaten Alor, Nusa Tenggara Tim.",NUSA TENGGARA TIMUR,,Indonesia,,,,-82.160.255,1.245.357.243,https://maps.google.com/?cid=0x0:0xd9aadd2fb0b6f1f7,
perumahan,Komplek perumahan,Kampung pisang,"QGRF+X9J, Jl. Pipit, Lendola, Kec. Tlk. Mutiara, Kabupaten Alor, Nusa Tenggara Tim.","Kabupaten Alor, Nusa Tenggara Tim.",NUSA TENGGARA TIMUR,,Indonesia,,,,-82.075.371,1.245.234.014,https://maps.google.com/?cid=0x0:0xc02b2e21b6900df0,
perumahan,Kantor Pemerintah,RUMAH JABATAN WAKIL BUPATI ALOR,"Jl. Gurami No.2, Kalabahi Kota, Kec. Tlk. Mutiara, Kabupaten Alor, Nusa Tenggara Tim. 85813","Kalabahi Kota, Kec. Tlk. Mutiara, Kabupaten Alor",NUSA TENGGARA TIMUR,85813.0,Indonesia,,,,-82.176.698,1.245.191.985,https://maps.google.com/?cid=0x0:0x67b2091d1b27f305,
perumahan,Komplek perumahan,WATI BLEGUR,"QGP8+7CW, Jl. Mutiara, Kalabahi Kota, Kec. Tlk. Mutiara, Kabupaten Alor, Nusa Tenggara Tim. 85813","Jl. Mutiara, Kalabahi Kota, Kec. Tlk. Mutiara, Kabupaten Alor",NUSA TENGGARA TIMUR,85813.0,Indonesia,8124600967,,,-82.142.603,1.245.160.676,https://maps.google.com/?cid=0x0:0xeb58b1dbf4d67fcc,
perumahan,Komplek perumahan,saulllll,"QGRF+CMM, Lendola, Kec. Tlk. Mutiara, Kabupaten Alor, Nusa Tenggara Tim.","Kabupaten Alor, Nusa Tenggara Tim.",NUSA TENGGARA TIMUR,,Indonesia,,,,-82.089.152,1.245.241.708,https://maps.google.com/?cid=0x0:0xc4c2b2b9a1e49929,
perumahan,,Teluk mutia,"QGP9+97V, Kalabahi Kota, Kec. Tlk. Mutiara, Kabupaten Alor, Nusa Tenggara Tim.","Kabupaten Alor, Nusa Tenggara Tim.",NUSA TENGGARA TIMUR,,Indonesia,,,,-82.140.194,1.245.181.705,https://maps.google.com/?cid=0x0:0xa9235d047609e474,
perumahan,Komplek perumahan,Rumah Motongbang,"QGP6+VRR, Motongbang, Kec. Tlk. Mutiara, Kabupaten Alor, Nusa Tenggara Tim.","Kabupaten Alor, Nusa Tenggara Tim.",NUSA TENGGARA TIMUR,,Indonesia,,,,-82.127.573,1.245.120.277,https://maps.google.com/?cid=0x0:0x67824e8dd84099d7,
perumahan,Pembangunan Perumahan,Lautingara,"QGP8+6F4, Kalabahi Kota, Kec. Tlk. Mutiara, Kabupaten Alor, Nusa Tenggara Tim.","Kabupaten Alor, Nusa Tenggara Tim.",NUSA TENGGARA TIMUR,,Indonesia,,,,-82.144.829,1.245.162.013,https://maps.google.com/?cid=0x0:0x691600ef340b725e,
perumahan,Pembangunan Perumahan,Stapak Mutiara,"QGP8+CJR, Jl. Mutiara, Kalabahi Kota, Kec. Tlk. Mutiara, Kabupaten Alor, Nusa Tenggara Tim.","Kabupaten Alor, Nusa Tenggara Tim.",NUSA TENGGARA TIMUR,,Indonesia,,,,-82.138.808,1.245.165.035,https://maps.google.com/?cid=0x0:0xd3db3674d1112558,
perumahan,Komplek perumahan,A.L Home,"QGPG+WR9, Nusa Kenari, Kec. Tlk. Mutiara, Kabupaten Alor, Nusa Tenggara Tim.","Kabupaten Alor, Nusa Tenggara Tim.",NUSA TENGGARA TIMUR,,Indonesia,,,,-82.126.878,1.245.270.506,https://maps.google.com/?cid=0x0:0x6fcc3d92a14e8ab5,
perumahan,Komplek perumahan,Semuel J. Mail,"QGQ7+4VM, Motongbang, Kec. Tlk. Mutiara, Kabupaten Alor, Nusa Tenggara Tim.","Kabupaten Alor, Nusa Tenggara Tim.",NUSA TENGGARA TIMUR,,Indonesia,,,,-82.119.383,1.245.141.654,https://maps.google.com/?cid=0x0:0x756b9e9407ea200a,
perumahan,Komplek perumahan,Rumah Saya,"QGJP+2FX, Jl. Madura, Kalabahi Tim., Kec. Tlk. Mutiara, Kabupaten Alor, Nusa Tenggara Tim.","Kabupaten Alor, Nusa Tenggara Tim.",NUSA TENGGARA TIMUR,,Indonesia,,,,-8.219.597,124.536.146,https://maps.google.com/?cid=0x0:0x6c13a7a8bf027619,
perumahan,Pembangunan Perumahan,Rumah Buffon,"QGP8+535, Kalabahi Kota, Kec. Tlk. Mutiara, Kabupaten Alor, Nusa Tenggara Tim.","Kabupaten Alor, Nusa Tenggara Tim.",NUSA TENGGARA TIMUR,,Indonesia,,,,-82.146.121,1.245.152.566,https://maps.google.com/?cid=0x0:0x2b109ebdaa3d12a5,
perumahan,Pembangunan Perumahan,Marco's House,"QGQM+VGR Lautingara, RT.12/RW.04, Kalabahi Tengah, Kec. Tlk. Mutiara, Kabupaten Alor, Nusa Tenggara Tim.","Kabupaten Alor, Nusa Tenggara Tim.",NUSA TENGGARA TIMUR,,Indonesia,,,,-82.102.668,1.245.337.652,https://maps.google.com/?cid=0x0:0xa59ce2c90b33ef8d,
perumahan,Pembangunan Perumahan,Bouno,"QGP9+97V, Kalabahi Kota, Kec. Tlk. Mutiara, Kabupaten Alor, Nusa Tenggara Tim.","Kabupaten Alor, Nusa Tenggara Tim.",NUSA TENGGARA TIMUR,,Indonesia,,,,-82.140.194,1.245.181.705,https://maps.google.com/?cid=0x0:0x925b91e0f130da8,
perumahan,Komplek perumahan,Asyrafhouse,"QGP8+535, Kalabahi Kota, Kec. Tlk. Mutiara, Kabupaten Alor, Nusa Tenggara Tim.","Kabupaten Alor, Nusa Tenggara Tim.",NUSA TENGGARA TIMUR,,Indonesia,,,,-821.519,124.515.133,https://maps.google.com/?cid=0x0:0xb25dd203bcb18a12,
perumahan,perumahan,Kec. Tlk. Mutiara,"Kabupaten Alor, Nusa Tenggara Tim.","Kabupaten Alor, Nusa Tenggara Tim.",NUSA TENGGARA TIMUR,,Indonesia,,,,-82.165.759,1.245.218.191,https://maps.google.com/?cid=0x0:0x36ef9ebbaaa54623,
perumahan,perumahan,RUMAH ARIFIN SALLO (Anggota DPRD Alor),"Lipa, Kalabahi Tengah, Kec. Tlk. Mutiara, Kabupaten Alor, Nusa Tenggara Tim.","Kabupaten Alor, Nusa Tenggara Tim.",NUSA TENGGARA TIMUR,,Indonesia,,,,-82.097.401,1.245.348.382,https://maps.google.com/?cid=0x0:0x23847e2f309ccab2,
perumahan,perumahan,"PASAR BAWAH , ALOR NTT","Jl. Sisingamangaraja No.18, Wetabua, Kec. Tlk. Mutiara, Kabupaten Alor, Nusa Tenggara Tim. 85819","Wetabua, Kec. Tlk. Mutiara, Kabupaten Alor",NUSA TENGGARA TIMUR,85819.0,Indonesia,,,,-82.174.083,1.245.267.443,https://maps.google.com/?cid=0x0:0xe49d7d25e5ef96e6,
perumahan,Komplek perumahan,Perumahan Ombay,"QGPJ+XVJ, Kalabahi Tengah, Kec. Tlk. Mutiara, Kabupaten Alor, Nusa Tenggara Tim.","Kabupaten Alor, Nusa Tenggara Tim.",NUSA TENGGARA TIMUR,,Indonesia,,,,-82.125.378,1.245.321.535,https://maps.google.com/?cid=0x0:0x836c47c2acfb4ad9,
perumahan,Komplek perumahan,Tingkat satu,"Jln Seroja No.1, Kalabahi Kota, Kec. Tlk. Mutiara, Kabupaten Alor, Nusa Tenggara Tim.","Kabupaten Alor, Nusa Tenggara Tim.",NUSA TENGGARA TIMUR,,Indonesia,,,,-82.140.194,1.245.181.705,https://maps.google.com/?cid=0x0:0xde3799fe36bf2246,
perumahan,Komplek perumahan,Kompleks Perumahan Lapas Kls II-B Kalabahi,"QGJQ+G4Q, Kalabahi Tim., Kec. Tlk. Mutiara, Kabupaten Alor, Nusa Tenggara Tim.","Kabupaten Alor, Nusa Tenggara Tim.",NUSA TENGGARA TIMUR,,Indonesia,,,,-82.186.714,1.245.378.494,https://maps.google.com/?cid=0x0:0x607830b3352444f5,
perumahan,Pembangunan Perumahan,Rumah Buffon,"QGP8+535, Kalabahi Kota, Kec. Tlk. Mutiara, Kabupaten Alor, Nusa Tenggara Tim.","Kabupaten Alor, Nusa Tenggara Tim.",NUSA TENGGARA TIMUR,,Indonesia,,,,-82.146.121,1.245.152.566,https://maps.google.com/?cid=0x0:0x2b109ebdaa3d12a5,
perumahan,Perhimpunan Pengembang Perumahan,Rumah nurziah,"QGMJ+W3Q, Kalabahi Tengah, Kec. Tlk. Mutiara, Kabupaten Alor, Nusa Tenggara Tim.","Kabupaten Alor, Nusa Tenggara Tim.",NUSA TENGGARA TIMUR,,Indonesia,,,,-82.151.691,1.245.302.498,https://maps.google.com/?cid=0x0:0x3bdc1a7b171f359,
perumahan,Komplek perumahan,TUALAKA's FAMILY HOUSE,"QGPH+WFC Pasar Tabakar, RT.010/RW.005, Nusa Kenari, Kec. Tlk. Mutiara, Kabupaten Alor, Nusa Tenggara Tim.","Kabupaten Alor, Nusa Tenggara Tim.",NUSA TENGGARA TIMUR,,Indonesia,,,,-82.126.823,1.245.286.275,https://maps.google.com/?cid=0x0:0x84d465169364259e,
perumahan,Komplek perumahan,Perumahan btn bungawaru,"QGPP+577, Jl. Badak No.kel, Kalabahi Tim., Kec. Tlk. Mutiara, Kabupaten Alor, Nusa Tenggara Tim.","Kabupaten Alor, Nusa Tenggara Tim.",NUSA TENGGARA TIMUR,,Indonesia,,,,-82.160.255,1.245.357.243,https://maps.google.com/?cid=0x0:0xd9aadd2fb0b6f1f7,
perumahan,Pembangunan Perumahan,Stapak Mutiara,"QGP8+CJR, Jl. Mutiara, Kalabahi Kota, Kec. Tlk. Mutiara, Kabupaten Alor, Nusa Tenggara Tim.","Kabupaten Alor, Nusa Tenggara Tim.",NUSA TENGGARA TIMUR,,Indonesia,,,,-82.138.808,1.245.165.035,https://maps.google.com/?cid=0x0:0xd3db3674d1112558,
perumahan,Komplek perumahan,WATI BLEGUR,"QGP8+7CW, Jl. Mutiara, Kalabahi Kota, Kec. Tlk. Mutiara, Kabupaten Alor, Nusa Tenggara Tim. 85813","Jl. Mutiara, Kalabahi Kota, Kec. Tlk. Mutiara, Kabupaten Alor",NUSA TENGGARA TIMUR,85813.0,Indonesia,8124600967,,,-82.142.603,1.245.160.676,https://maps.google.com/?cid=0x0:0xeb58b1dbf4d67fcc,
perumahan,Pembangunan Perumahan,Lautingara,"QGP8+6F4, Kalabahi Kota, Kec. Tlk. Mutiara, Kabupaten Alor, Nusa Tenggara Tim.","Kabupaten Alor, Nusa Tenggara Tim.",NUSA TENGGARA TIMUR,,Indonesia,,,,-82.144.829,1.245.162.013,https://maps.google.com/?cid=0x0:0x691600ef340b725e,
perumahan,Gedung Pertemuan,Watamelang,"QGP9+97V, Kalabahi Kota, Kec. Tlk. Mutiara, Kabupaten Alor, Nusa Tenggara Tim.","Kabupaten Alor, Nusa Tenggara Tim.",NUSA TENGGARA TIMUR,,Indonesia,,,,-82.140.194,1.245.181.705,https://maps.google.com/?cid=0x0:0xc0f16b9914a06f63,
perumahan,Pembangunan Perumahan,Moepali Tengah,"QGJ6+R4M, Binongko, Kec. Tlk. Mutiara, Kabupaten Alor, Nusa Tenggara Tim.","Kabupaten Alor, Nusa Tenggara Tim.",NUSA TENGGARA TIMUR,,Indonesia,,,,-82.179.242,1.245.103.068,https://maps.google.com/?cid=0x0:0x95291d7925955760,
perumahan,Komplek perumahan,Rumah Motongbang,"QGP6+VRR, Motongbang, Kec. Tlk. Mutiara, Kabupaten Alor, Nusa Tenggara Tim.","Kabupaten Alor, Nusa Tenggara Tim.",NUSA TENGGARA TIMUR,,Indonesia,,,,-82.127.573,1.245.120.277,https://maps.google.com/?cid=0x0:0x67824e8dd84099d7,
perumahan,,Teluk mutia,"QGP9+97V, Kalabahi Kota, Kec. Tlk. Mutiara, Kabupaten Alor, Nusa Tenggara Tim.","Kabupaten Alor, Nusa Tenggara Tim.",NUSA TENGGARA TIMUR,,Indonesia,,,,-82.140.194,1.245.181.705,https://maps.google.com/?cid=0x0:0xa9235d047609e474,
perumahan,Komplek perumahan,Asyrafhouse,"QGP8+535, Kalabahi Kota, Kec. Tlk. Mutiara, Kabupaten Alor, Nusa Tenggara Tim.","Kabupaten Alor, Nusa Tenggara Tim.",NUSA TENGGARA TIMUR,,Indonesia,,,,-821.519,124.515.133,https://maps.google.com/?cid=0x0:0xb25dd203bcb18a12,
perumahan,Kantor Pemerintah,RUMAH JABATAN WAKIL BUPATI ALOR,"Jl. Gurami No.2, Kalabahi Kota, Kec. Tlk. Mutiara, Kabupaten Alor, Nusa Tenggara Tim. 85813","Kalabahi Kota, Kec. Tlk. Mutiara, Kabupaten Alor",NUSA TENGGARA TIMUR,85813.0,Indonesia,,,,-82.176.698,1.245.191.985,https://maps.google.com/?cid=0x0:0x67b2091d1b27f305,
perumahan,Pembangunan Perumahan,Marco's House,"QGQM+VGR Lautingara, RT.12/RW.04, Kalabahi Tengah, Kec. Tlk. Mutiara, Kabupaten Alor, Nusa Tenggara Tim.","Kabupaten Alor, Nusa Tenggara Tim.",NUSA TENGGARA TIMUR,,Indonesia,,,,-82.102.668,1.245.337.652,https://maps.google.com/?cid=0x0:0xa59ce2c90b33ef8d,
perumahan,Komplek perumahan,Rumah BPK Imanuel Wabang,"QGP7+888, Motongbang, Kec. Tlk. Mutiara, Kabupaten Alor, Nusa Tenggara Tim.","Kabupaten Alor, Nusa Tenggara Tim.",NUSA TENGGARA TIMUR,,Indonesia,,,,-82.142.099,1.245.133.377,https://maps.google.com/?cid=0x0:0xdc61566d62db96df,
perumahan,Pembangunan Perumahan,Pereli gank,"Jl. Jend. Sudirman No.100, Kalabahi Kota, Kec. Tlk. Mutiara, Kabupaten Alor, Nusa Tenggara Tim. 85813","Kalabahi Kota, Kec. Tlk. Mutiara, Kabupaten Alor",NUSA TENGGARA TIMUR,85813.0,Indonesia,,,,-82.168.588,1.245.309.463,https://maps.google.com/?cid=0x0:0xbc5f20a29ecd0f1a,
perumahan,Pembangunan Perumahan,Bouno,"QGP9+97V, Kalabahi Kota, Kec. Tlk. Mutiara, Kabupaten Alor, Nusa Tenggara Tim.","Kabupaten Alor, Nusa Tenggara Tim.",NUSA TENGGARA TIMUR,,Indonesia,,,,-82.140.194,1.245.181.705,https://maps.google.com/?cid=0x0:0x925b91e0f130da8,
perumahan,perumahan,Kec. Tlk. Mutiara,"Kabupaten Alor, Nusa Tenggara Tim.","Kabupaten Alor, Nusa Tenggara Tim.",NUSA TENGGARA TIMUR,,Indonesia,,,,-82.165.759,1.245.218.191,https://maps.google.com/?cid=0x0:0x36ef9ebbaaa54623,
perumahan,Lembaga Swadaya Masyarakat (LSM),Kantor Yayasan WWF Indonesia LSS Alor,"QGQ8+4HH, Kalabahi Kota, Kec. Tlk. Mutiara, Kabupaten Alor, Nusa Tenggara Tim.","Kabupaten Alor, Nusa Tenggara Tim.",NUSA TENGGARA TIMUR,,Indonesia,,,,-82.121.931,1.245.164.757,https://maps.google.com/?cid=0x0:0x7761b9ec10cde542,
perumahan,Pembangunan Perumahan,Kalabahi alor,"QGPW+X47, Mutiara, Kec. Tlk. Mutiara, Kabupaten Alor, Nusa Tenggara Tim.","Kabupaten Alor, Nusa Tenggara Tim.",NUSA TENGGARA TIMUR,,Indonesia,,,,-82.124.489,1.245.448.016,https://maps.google.com/?cid=0x0:0xb1591798ee25b44b,
perumahan,perumahan,Mutiara,"Kec. Tlk. Mutiara, Kabupaten Alor, Nusa Tenggara Tim.","Kabupaten Alor, Nusa Tenggara Tim.",NUSA TENGGARA TIMUR,,Indonesia,,,,-82.117.433,1.245.500.697,https://maps.google.com/?cid=0x0:0x263f614b16e60f90,
perumahan,perumahan,Kabupaten Alor,Nusa Tenggara Tim.,"Kabupaten Alor, Nusa Tenggara Tim.",NUSA TENGGARA TIMUR,,Indonesia,,,,-82.928.427,1.245.528.387,https://maps.google.com/?cid=0x0:0x50077f96fbb4d459,
perumahan,perumahan,Kalabahi,"Kalabahi Kota, Kec. Tlk. Mutiara, Kabupaten Alor, Nusa Tenggara Tim.","Kabupaten Alor, Nusa Tenggara Tim.",NUSA TENGGARA TIMUR,,Indonesia,,,,-8.213.998,124.518.169,https://maps.google.com/?cid=0x0:0x7eadea7a2ab8626d,
perumahan,Masakan Asia,Dapoer RA,"QGMW+4X6, Mutiara, Kec. Tlk. Mutiara, Kabupaten Alor, Nusa Tenggara Tim.","Kabupaten Alor, Nusa Tenggara Tim.",NUSA TENGGARA TIMUR,,Indonesia,82264538365,,,-82.171.085,1.245.474.333,https://maps.google.com/?cid=0x0:0x5f16006f07f778a7,
perumahan,perumahan,Homestay Cantik,"QGQ8+4HH Tingkat Satu Kalabahi, Kalabahi Kota, Kec. Tlk. Mutiara, Kabupaten Alor, Nusa Tenggara Tim.","Kabupaten Alor, Nusa Tenggara Tim.",NUSA TENGGARA TIMUR,,Indonesia,81332299336,,,-82.121.629,1.245.166.656,https://maps.google.com/?cid=0x0:0xc167ec0074f8c547,
perumahan,Rumah Makan,Warung Banyuwangi,"QGJW+VJ9, Mutiara, Kec. Tlk. Mutiara, Kabupaten Alor, Nusa Tenggara Tim.","Kabupaten Alor, Nusa Tenggara Tim.",NUSA TENGGARA TIMUR,,Indonesia,81239078884,,,-82.178.283,1.245.465.944,https://maps.google.com/?cid=0x0:0xcd6e9f9bd40f1350,
perumahan,Pasar,Pasar Inpres,"QGMG+GXF, Jl. Jend. Sudirman, Kalabahi Kota, Kec. Tlk. Mutiara, Kabupaten Alor, Nusa Tenggara Tim.","Kabupaten Alor, Nusa Tenggara Tim.",NUSA TENGGARA TIMUR,,Indonesia,,,,-82.161.974,1.245.274.078,https://maps.google.com/?cid=0x0:0x6a1c86e24ee5991,
perumahan,Padang,Rumah Makan Gantiang,"QGMM+76G, Kalabahi Tim., Kec. Tlk. Mutiara, Kabupaten Alor, Nusa Tenggara Tim.","Kabupaten Alor, Nusa Tenggara Tim.",NUSA TENGGARA TIMUR,,Indonesia,,,,-82.168.183,1.245.330.738,https://maps.google.com/?cid=0x0:0xc6c5310c71d022da,
perumahan,perumahan,Kalabahi Kota,"Kec. Tlk. Mutiara, Kabupaten Alor, Nusa Tenggara Tim.","Kabupaten Alor, Nusa Tenggara Tim.",NUSA TENGGARA TIMUR,,Indonesia,,,,-82.144.634,1.245.161.414,https://maps.google.com/?cid=0x0:0xc5179b3eadee50c4,
perumahan,Padang,RM.Efata,"QGJ7+PXM Pantai Reklamasi, Kalabahi Tim., Kec. Tlk. Mutiara, Kabupaten Alor, Nusa Tenggara Tim.","Kabupaten Alor, Nusa Tenggara Tim.",NUSA TENGGARA TIMUR,,Indonesia,81338775648,,,-82.181.727,1.245.149.203,https://maps.google.com/?cid=0x0:0xd5ba7a556865c08,
perumahan,Padang,Padang Rumah Makan,"Jend. Sudirman Street No.100, Kalabahi Kota, Kec. Tlk. Mutiara, Kabupaten Alor, Nusa Tenggara Tim.","Kabupaten Alor, Nusa Tenggara Tim.",NUSA TENGGARA TIMUR,,Indonesia,38621898,,,-82.134.228,1.245.176.045,https://maps.google.com/?cid=0x0:0x699d4d132b4836b5,
perumahan,Indonesia,Warung Makan Lumayan (Masakan Jawa),"QGMH+7VQ, Kalabahi Tengah, Kec. Tlk. Mutiara, Kabupaten Alor, Nusa Tenggara Tim.","Kabupaten Alor, Nusa Tenggara Tim.",NUSA TENGGARA TIMUR,,Indonesia,,,,-8.216.795,1.245.297.442,https://maps.google.com/?cid=0x0:0x1001024b5f6e74dc,
perumahan,Restoran,Warung Kalasan,"QGHV+2CX, Kalabahi Tim., Kec. Tlk. Mutiara, Kabupaten Alor, Nusa Tenggara Tim.","Kabupaten Alor, Nusa Tenggara Tim.",NUSA TENGGARA TIMUR,,Indonesia,82144531130,,,-8.222.381,124.543.597,https://maps.google.com/?cid=0x0:0x9391ef0ad9bb4322,
perumahan,Masjid,Al Fatah Grand Mosque of Kalabahi,"QGM8+27C, Kalabahi Kota, Kec. Tlk. Mutiara, Kabupaten Alor, Nusa Tenggara Tim.","Kabupaten Alor, Nusa Tenggara Tim.",NUSA TENGGARA TIMUR,,Indonesia,,,,-82.174.484,1.245.156.251,https://maps.google.com/?cid=0x0:0xc0bf531460de43f4,
perumahan,Toko,Kadelang Market,"QGGV+P4M, Kadelang, Kalabahi Tim., Kec. Tlk. Mutiara, Kabupaten Alor, Nusa Tenggara Tim.","Kabupaten Alor, Nusa Tenggara Tim.",NUSA TENGGARA TIMUR,,Indonesia,,,,-82.231.731,124.542.809,https://maps.google.com/?cid=0x0:0xe5c15609490b2a1b,
perumahan,perumahan,"ehddaLCRNvzvseMPp8am0Ak-,null,null,null,null,null,null,null,null,null,null,null,null,null,null,null,null,null,null,null,null,null,null,null,1,null,null,null,null,null,1,null,null,null,null,null,null,null,null,null,null,""ChIJb3_wQQB_AC0RssqcMC9-hCM""",,,NUSA TENGGARA TIMUR,,Indonesia,,,,,,https://maps.google.com/?cid=0x0:0x23847e2f309ccab2,
perumahan,Komplek perumahan,Alang alor ntt Indonesia,"RCGP+FQ2, Alaang, Kec. Alor Bar. Laut, Kabupaten Alor, Nusa Tenggara Tim.","Kabupaten Alor, Nusa Tenggara Tim.",NUSA TENGGARA TIMUR,,Indonesia,,,,-81.751.298,1.244.368.235,https://maps.google.com/?cid=0x0:0x717edda2e2eefc,
perumahan,perumahan,"PASAR BAWAH , ALOR NTT","Jl. Sisingamangaraja No.18, Wetabua, Kec. Tlk. Mutiara, Kabupaten Alor, Nusa Tenggara Tim. 85819","Wetabua, Kec. Tlk. Mutiara, Kabupaten Alor",NUSA TENGGARA TIMUR,85819.0,Indonesia,,,,-82.174.083,1.245.267.443,https://maps.google.com/?cid=0x0:0xe49d7d25e5ef96e6,
perumahan,perumahan,"PASAR BAWAH , GANK","Jl. Sisingamangaraja No.18-2, Wetabua, Kec. Tlk. Mutiara, Kabupaten Alor, Nusa Tenggara Tim.","Kabupaten Alor, Nusa Tenggara Tim.",NUSA TENGGARA TIMUR,,Indonesia,,,,-8.217.332,124.526.705,https://maps.google.com/?cid=0x0:0x38a006463d360cb3,
perumahan,Komplek perumahan,Perumahan Ombay,"QGPJ+XVJ, Kalabahi Tengah, Kec. Tlk. Mutiara, Kabupaten Alor, Nusa Tenggara Tim.","Kabupaten Alor, Nusa Tenggara Tim.",NUSA TENGGARA TIMUR,,Indonesia,,,,-82.125.378,1.245.321.535,https://maps.google.com/?cid=0x0:0x836c47c2acfb4ad9,
perumahan,Gedung Pertemuan,Watamelang,"QGP9+97V, Kalabahi Kota, Kec. Tlk. Mutiara, Kabupaten Alor, Nusa Tenggara Tim.","Kabupaten Alor, Nusa Tenggara Tim.",NUSA TENGGARA TIMUR,,Indonesia,,,,-82.140.194,1.245.181.705,https://maps.google.com/?cid=0x0:0xc0f16b9914a06f63,
perumahan,Komplek perumahan,Tingkat satu,"Jln Seroja No.1, Kalabahi Kota, Kec. Tlk. Mutiara, Kabupaten Alor, Nusa Tenggara Tim.","Kabupaten Alor, Nusa Tenggara Tim.",NUSA TENGGARA TIMUR,,Indonesia,,,,-82.140.194,1.245.181.705,https://maps.google.com/?cid=0x0:0xde3799fe36bf2246,
perumahan,Komplek perumahan,Perumahan btn bungawaru,"QGPP+577, Jl. Badak No.kel, Kalabahi Tim., Kec. Tlk. Mutiara, Kabupaten Alor, Nusa Tenggara Tim.","Kabupaten Alor, Nusa Tenggara Tim.",NUSA TENGGARA TIMUR,,Indonesia,,,,-82.160.255,1.245.357.243,https://maps.google.com/?cid=0x0:0xd9aadd2fb0b6f1f7,
perumahan,Pembangunan Perumahan,Rumah Buffon,"QGP8+535, Kalabahi Kota, Kec. Tlk. Mutiara, Kabupaten Alor, Nusa Tenggara Tim.","Kabupaten Alor, Nusa Tenggara Tim.",NUSA TENGGARA TIMUR,,Indonesia,,,,-82.146.121,1.245.152.566,https://maps.google.com/?cid=0x0:0x2b109ebdaa3d12a5,
perumahan,Perhimpunan Pengembang Perumahan,Rumah nurziah,"QGMJ+W3Q, Kalabahi Tengah, Kec. Tlk. Mutiara, Kabupaten Alor, Nusa Tenggara Tim.","Kabupaten Alor, Nusa Tenggara Tim.",NUSA TENGGARA TIMUR,,Indonesia,,,,-82.151.691,1.245.302.498,https://maps.google.com/?cid=0x0:0x3bdc1a7b171f359,
perumahan,Pembangunan Perumahan,Bouno,"QGP9+97V, Kalabahi Kota, Kec. Tlk. Mutiara, Kabupaten Alor, Nusa Tenggara Tim.","Kabupaten Alor, Nusa Tenggara Tim.",NUSA TENGGARA TIMUR,,Indonesia,,,,-82.140.194,1.245.181.705,https://maps.google.com/?cid=0x0:0x925b91e0f130da8,
perumahan,perumahan,Kec. Alor Sel.,"Kabupaten Alor, Nusa Tenggara Tim.","Kabupaten Alor, Nusa Tenggara Tim.",NUSA TENGGARA TIMUR,,Indonesia,,,,-82.772.741,1.247.031.128,https://maps.google.com/?cid=0x0:0x98e9b8edc3d2f7d,
perumahan,Komplek perumahan,Di Kabailu Sini,"PPF3+84V, Kelaisi Tengah, Kec. Alor Sel., Kabupaten Alor, Nusa Tenggara Tim.","Kabupaten Alor, Nusa Tenggara Tim.",NUSA TENGGARA TIMUR,,Indonesia,,,,-82.766.402,1.247.027.911,https://maps.google.com/?cid=0x0:0x108506a220bbb697,
perumahan,perumahan,Eksam hpuse,"PP9C+WC2, Subo, Kec. Alor Sel., Kabupaten Alor, Nusa Tenggara Tim.","Kabupaten Alor, Nusa Tenggara Tim.",NUSA TENGGARA TIMUR,,Indonesia,,,,-82.802.281,1.247.210.076,https://maps.google.com/?cid=0x0:0xc2e6fd5a573cabb1,
perumahan,Komplek perumahan,Rumah Maipiy,"MPWG+F3V, Subo, Kec. Alor Sel., Kabupaten Alor, Nusa Tenggara Tim.","Kabupaten Alor, Nusa Tenggara Tim.",NUSA TENGGARA TIMUR,,Indonesia,81254668341,,,-83.037.646,1.247.251.623,https://maps.google.com/?cid=0x0:0x8bb0460bc4cdcd93,
perumahan,Perhimpunan Pengembang Perumahan,DENI,"JPC5+MRW, Padang Alang, Kec. Alor Sel., Kabupaten Alor, Nusa Tenggara Tim.","Kabupaten Alor, Nusa Tenggara Tim.",NUSA TENGGARA TIMUR,,Indonesia,,,,-83.789.779,1.247.086.497,https://maps.google.com/?cid=0x0:0x836b2b2e69f47562,
perumahan,Komplek perumahan,"Daniman, Desa Silaipui, Kec. Alor Selatan","MQH6+G4J, Daniman, Silaipui, Kec. Alor Sel., Kabupaten Alor, Nusa Tenggara Tim.","Kabupaten Alor, Nusa Tenggara Tim.",NUSA TENGGARA TIMUR,,Indonesia,,,,-83.211.564,1.247.602.683,https://maps.google.com/?cid=0x0:0xcbdd3b9896c6bbb6,
perumahan,Komplek perumahan,MES GURU PENUH BERKAT,"MPWW+GRV, Manmas, Kec. Alor Sel., Kabupaten Alor, Nusa Tenggara Tim.","Kabupaten Alor, Nusa Tenggara Tim.",NUSA TENGGARA TIMUR,,Indonesia,,,,-83.041.362,1.247.469.228,https://maps.google.com/?cid=0x0:0xb98b5ad9fc87834,
perumahan,Pembangunan Perumahan,KYAPE,"PPGF+C6F, Kelaisi Tim., Kec. Alor Sel., Kabupaten Alor, Nusa Tenggara Tim.","Kabupaten Alor, Nusa Tenggara Tim.",NUSA TENGGARA TIMUR,,Indonesia,,,,-82.740.136,1.247.231.592,https://maps.google.com/?cid=0x0:0xbcbd7be371a15848,
perumahan,Pembangunan Perumahan,PUIYENG KAWARA,"PPPF+28, Kelaisi Tim., Kec. Alor Sel., Kabupaten Alor, Nusa Tenggara Tim.","Kabupaten Alor, Nusa Tenggara Tim.",NUSA TENGGARA TIMUR,,Indonesia,,,,-82.649.491,12.472.321,https://maps.google.com/?cid=0x0:0x7a3d5a20290a079d,
perumahan,Komplek perumahan,Malmang,"MPJV+23X, Tamanapui, Kec. Alor Sel., Kabupaten Alor, Nusa Tenggara Tim.","Kabupaten Alor, Nusa Tenggara Tim.",NUSA TENGGARA TIMUR,,Indonesia,,,,-83.198.764,1.247.427.443,https://maps.google.com/?cid=0x0:0x7abfbb64cd99cfd7,
perumahan,Komplek perumahan,COMPLEKS WISIDENG,"PPG2+286, Kelaisi Tengah, Kec. Alor Sel., Kabupaten Alor, Nusa Tenggara Tim.","Kabupaten Alor, Nusa Tenggara Tim.",NUSA TENGGARA TIMUR,,Indonesia,,,,-82.755.092,1.247.018.868,https://maps.google.com/?cid=0x0:0x7d782880a31958f0,
perumahan,Kebun Buah,Kebun FUIMAI,"JMFX+H6H, Wayata, Padang Alang, Kec. Alor Sel., Kabupaten Alor, Nusa Tenggara Tim.","Kabupaten Alor, Nusa Tenggara Tim.",NUSA TENGGARA TIMUR,,Indonesia,,,,-83.760.653,1.246.980.975,https://maps.google.com/?cid=0x0:0x2df0cc1ea351d18e,
perumahan,Komplek perumahan,Rumah Nini Singamou,"PPFG+QC8, Kelurahan, Kelaisi Tim., Kec. Alor Sel., Kabupaten Alor, Nusa Tenggara Tim.","Kabupaten Alor, Nusa Tenggara Tim.",NUSA TENGGARA TIMUR,,Indonesia,,,,-82.756.193,124.725.253,https://maps.google.com/?cid=0x0:0xc158cf9ed3afc22d,
perumahan,Kantor Pemerintah,Pelman,"PPP7+X4C, Kelaisi Tim., Kec. Alor Sel., Kabupaten Alor, Nusa Tenggara Tim.","Kabupaten Alor, Nusa Tenggara Tim.",NUSA TENGGARA TIMUR,,Indonesia,,,,-82.625.528,1.247.127.596,https://maps.google.com/?cid=0x0:0xb0f42751b9efa7dd,
perumahan,Pembangunan Perumahan,Silaipui,"MQH6+G4J, Silaipui, Kec. Alor Sel., Kabupaten Alor, Nusa Tenggara Tim.","Kabupaten Alor, Nusa Tenggara Tim.",NUSA TENGGARA TIMUR,,Indonesia,,,,-83.211.564,1.247.602.683,https://maps.google.com/?cid=0x0:0x5c24f9f8c42795a5,
perumahan,perumahan,Endang Bella,"PPMG+7QG, Kelaisi Tim., Kec. Alor Sel., Kabupaten Alor, Nusa Tenggara Tim.","Kabupaten Alor, Nusa Tenggara Tim.",NUSA TENGGARA TIMUR,,Indonesia,,,,-82.674.696,1.247.264.652,https://maps.google.com/?cid=0x0:0xfc37f8d53b2c8b3f,
perumahan,Pembangunan Perumahan,Kiapee freedom,"PPG9+XGG, Kelaisi Tim., Kec. Alor Sel., Kabupaten Alor, Nusa Tenggara Tim.","Kabupaten Alor, Nusa Tenggara Tim.",NUSA TENGGARA TIMUR,,Indonesia,,,,-82.725.579,124.718.827,https://maps.google.com/?cid=0x0:0x3a1a57a72b7f32aa,
perumahan,Komplek perumahan,Hs Lanmai,"PPP7+X4C, Kelaisi Tim., Kec. Alor Sel., Kabupaten Alor, Nusa Tenggara Tim.","Kabupaten Alor, Nusa Tenggara Tim.",NUSA TENGGARA TIMUR,,Indonesia,,,,-82.625.571,1.247.127.523,https://maps.google.com/?cid=0x0:0x73175c2f3b631ad5,
perumahan,Pembangunan Perumahan,Osias Moilegi,"PJ7C+CWR, Welai Sel., Kec. Alor Tengah Utara, Kabupaten Alor, Nusa Tenggara Tim.","Kabupaten Alor, Nusa Tenggara Tim.",NUSA TENGGARA TIMUR,,Indonesia,,,,-82.863.909,1.246.222.597,https://maps.google.com/?cid=0x0:0xe6e2cffd89341c14,
perumahan,Komplek perumahan,Sylaimang,"QPCF+GP9, Sylaimang, Waimi, Kec. Lembur, Kabupaten Alor, Nusa Tenggara Tim.","Kabupaten Alor, Nusa Tenggara Tim.",NUSA TENGGARA TIMUR,,Indonesia,,,,-82.287.177,124.724.352,https://maps.google.com/?cid=0x0:0x26ff7bc955e771e0,
perumahan,Perhimpunan Pengembang Perumahan,LATA WATI Di Wayata - Padang Alang - Alor Selatan - Batulolong,"JPC6+539, Padang Alang, Kec. Alor Sel., Kabupaten Alor, Nusa Tenggara Tim.","Kabupaten Alor, Nusa Tenggara Tim.",NUSA TENGGARA TIMUR,,Indonesia,,,,-83.795.936,1.247.102.198,https://maps.google.com/?cid=0x0:0xecc9e47760cbf6b4,
perumahan,Komplek perumahan,LostaMastaGank Home perbatasan,"JPV7+H8M, Maikang, Kec. Alor Sel., Kabupaten Alor, Nusa Tenggara Tim.","Kabupaten Alor, Nusa Tenggara Tim.",NUSA TENGGARA TIMUR,,Indonesia,,,,-83.560.395,1.247.132.945,https://maps.google.com/?cid=0x0:0xc59c030a9a71d15,
perumahan,Pembangunan Perumahan,Ipreck,"JQW7+JXP, Kiraman, Kec. Alor Sel., Kabupaten Alor, Nusa Tenggara Tim.","Kabupaten Alor, Nusa Tenggara Tim.",NUSA TENGGARA TIMUR,,Indonesia,,,,-83.533.614,1.247.649,https://maps.google.com/?cid=0x0:0x592bad728270c23c,
perumahan,Komplek perumahan,Lodia Manisa,"JPF8+6G, Padang Alang, Kec. Alor Sel., Kabupaten Alor, Nusa Tenggara Tim.","Kabupaten Alor, Nusa Tenggara Tim.",NUSA TENGGARA TIMUR,,Indonesia,,,,-83.769.064,124.716.297,https://maps.google.com/?cid=0x0:0xd3943b0e20fa83bf,
