Category;Real Category;Business Name;Address;City;State;Postal Code;Country;Phone;Email;Website;Latitude;Longitude;Map Link;Details Link
building materials;building materials;Papua 98763;"Kabupaten Paniai, Papua";"Kabupaten Paniai, Papua";PAPUA;;Indonesia;;;;-37.991.853;1.363.049.196;https://maps.google.com/?cid=0x0:0x8e322f542c113cfe;
building materials;Toko Bahan Bangunan;TOKO BANGUNAN DIKA JAYA;"Jl. Dermaga Aikai. Enarotali Distrik Paniai Timur Kabupaten Paniai. Papua, Aikai, Paniai Tim., Enarotali, Papua 98711";"Aikai, Paniai Tim., Enarotali";PAPUA;98711;Indonesia;081935935177;;;-39.309.089;1.363.727.901;https://maps.google.com/?cid=0x0:0x814ba48a8059765f;
building materials;Toko;Toko Pegunungan Papua Tengah;"Umbutu / Uyubutu / Uwibutu, Paniai Tim., Kabupaten Paniai, Papua 98781";"Paniai Tim., Kabupaten Paniai";PAPUA;98781;Indonesia;;;;-39.452.003;1.364.302.235;https://maps.google.com/?cid=0x0:0x105eae32e4602542;
building materials;building materials;TOKO BAROKAH;"39CG+GM5, Enarotali, Paniai Tim., Kabupaten Paniai, Papua";"Kabupaten Paniai, Papua";PAPUA;;Indonesia;;;;-3.928.682;1.363.767.451;https://maps.google.com/?cid=0x0:0x5d40ac86a113e14e;
building materials;Toko Bahan Bangunan;Depo Bangunan Mbanyu Mili;"3VQM+2GP depan balai kampung sp 2, Prafi Mulia, Distrik Prafi, Kabupaten Manokwari, Papua Bar. 98356";"Prafi Mulia, Distrik Prafi, Kabupaten Manokwari";PAPUA;98356;Indonesia;085254126242;;;-0.9124191;1.338.838.245;https://maps.google.com/?cid=0x0:0x72bb281db456c91a;
building materials;Toko;Toko Pegunungan Papua Tengah;"Umbutu / Uyubutu / Uwibutu, Paniai Tim., Kabupaten Paniai, Papua 98781";"Paniai Tim., Kabupaten Paniai";PAPUA;98781;Indonesia;;;;-39.452.003;1.364.302.235;https://maps.google.com/?cid=0x0:0x105eae32e4602542;
building materials;Pusat Perbelanjaan;KIOS QANITAH;"Umbutu / Uyubutu / Uwibutu, UWIBUTU, Kabupaten Paniai, Papua 98711";"UWIBUTU, Kabupaten Paniai";PAPUA;98711;Indonesia;085298817733;;;-39.443.439;1.364.305.187;https://maps.google.com/?cid=0x0:0xfe28560b049fae1;
building materials;building materials;Papua 98711;"Paniai Tim., Kabupaten Paniai, Papua";"Kabupaten Paniai, Papua";PAPUA;;Indonesia;;;;-39.236.807;1.364.681.501;https://maps.google.com/?cid=0x0:0x42ca7f49c2355029;
building materials;building materials;Paniai Tim.;"Kabupaten Paniai, Papua";"Kabupaten Paniai, Papua";PAPUA;;Indonesia;;;;-39.293.592;1.363.780.656;https://maps.google.com/?cid=0x0:0x7f04dacf9b212bec;
building materials;Toko;KIOS SUBUR JAYA;"Perempatan pasar, Enarotali, Paniai Tim., Kabupaten Paniai, Papua 98711";"Enarotali, Paniai Tim., Kabupaten Paniai";PAPUA;98711;Indonesia;082248812525;;;-39.279.332;1.363.765.889;https://maps.google.com/?cid=0x0:0x8dfa149d15e0803d;
building materials;Toko Bahan Bangunan;TOKO BANGUNAN DIKA JAYA;"Jl. Dermaga Aikai. Enarotali Distrik Paniai Timur Kabupaten Paniai. Papua, Aikai, Paniai Tim., Enarotali, Papua 98711";"Aikai, Paniai Tim., Enarotali";PAPUA;98711;Indonesia;081935935177;;;-39.309.089;1.363.727.901;https://maps.google.com/?cid=0x0:0x814ba48a8059765f;
building materials;building materials;Papua 98712;"Kabupaten Paniai, Papua";"Kabupaten Paniai, Papua";PAPUA;;Indonesia;;;;-38.602.755;1.364.296.942;https://maps.google.com/?cid=0x0:0xec5046199ceddbff;
building materials;building materials;TOKO BAROKAH;"39CG+GM5, Enarotali, Paniai Tim., Kabupaten Paniai, Papua";"Kabupaten Paniai, Papua";PAPUA;;Indonesia;;;;-3.928.682;1.363.767.451;https://maps.google.com/?cid=0x0:0x5d40ac86a113e14e;
building materials;Toko Bahan Bangunan;TOKO BANGUNAN DIKA JAYA;"Jl. Dermaga Aikai. Enarotali Distrik Paniai Timur Kabupaten Paniai. Papua, Aikai, Paniai Tim., Enarotali, Papua 98711";"Aikai, Paniai Tim., Enarotali";PAPUA;98711;Indonesia;081935935177;;;-39.309.089;1.363.727.901;https://maps.google.com/?cid=0x0:0x814ba48a8059765f;
building materials;Toko Bahan Bangunan;TOKO ADIPATI;"X72G+VV9, Unnamed Road, Wagete I, Kec. Tigi, Kabupaten Deiyai, Papua 98764";"Unnamed Road, Wagete I, Kec. Tigi, Kabupaten Deiyai";PAPUA;98764;Indonesia;;;;-40.478.291;1.362.772.267;https://maps.google.com/?cid=0x0:0x5e5f483c1346142a;
building materials;building materials;Paniai Tim.;"Kabupaten Paniai, Papua";"Kabupaten Paniai, Papua";PAPUA;;Indonesia;;;;-39.293.592;1.363.780.656;https://maps.google.com/?cid=0x0:0x7f04dacf9b212bec;
building materials;building materials;TOKO BAROKAH;"39CG+GM5, Enarotali, Paniai Tim., Kabupaten Paniai, Papua";"Kabupaten Paniai, Papua";PAPUA;;Indonesia;;;;-3.928.682;1.363.767.451;https://maps.google.com/?cid=0x0:0x5d40ac86a113e14e;
building materials;Toko;KIOS SUBUR JAYA;"Perempatan pasar, Enarotali, Paniai Tim., Kabupaten Paniai, Papua 98711";"Enarotali, Paniai Tim., Kabupaten Paniai";PAPUA;98711;Indonesia;082248812525;;;-39.279.332;1.363.765.889;https://maps.google.com/?cid=0x0:0x8dfa149d15e0803d;
building materials;Toko Bahan Bangunan;TOKO BANGUNAN DIKA JAYA;"Jl. Dermaga Aikai. Enarotali Distrik Paniai Timur Kabupaten Paniai. Papua, Aikai, Paniai Tim., Enarotali, Papua 98711";"Aikai, Paniai Tim., Enarotali";PAPUA;98711;Indonesia;081935935177;;;-39.309.089;1.363.727.901;https://maps.google.com/?cid=0x0:0x814ba48a8059765f;
building materials;Toko Bahan Bangunan;TOKO ADIPATI;"X72G+VV9, Unnamed Road, Wagete I, Kec. Tigi, Kabupaten Deiyai, Papua 98764";"Unnamed Road, Wagete I, Kec. Tigi, Kabupaten Deiyai";PAPUA;98764;Indonesia;;;;-40.478.291;1.362.772.267;https://maps.google.com/?cid=0x0:0x5e5f483c1346142a;
building materials;building materials;Paniai Tim.;"Kabupaten Paniai, Papua";"Kabupaten Paniai, Papua";PAPUA;;Indonesia;;;;-39.293.592;1.363.780.656;https://maps.google.com/?cid=0x0:0x7f04dacf9b212bec;
building materials;Toko;KIOS SUBUR JAYA;"Perempatan pasar, Enarotali, Paniai Tim., Kabupaten Paniai, Papua 98711";"Enarotali, Paniai Tim., Kabupaten Paniai";PAPUA;98711;Indonesia;082248812525;;;-39.279.332;1.363.765.889;https://maps.google.com/?cid=0x0:0x8dfa149d15e0803d;
building materials;building materials;TOKO BAROKAH;"39CG+GM5, Enarotali, Paniai Tim., Kabupaten Paniai, Papua";"Kabupaten Paniai, Papua";PAPUA;;Indonesia;;;;-3.928.682;1.363.767.451;https://maps.google.com/?cid=0x0:0x5d40ac86a113e14e;
building materials;building materials;Papua 98715;"Kabupaten Paniai, Papua";"Kabupaten Paniai, Papua";PAPUA;;Indonesia;;;;-38.146.561;1.364.296.942;https://maps.google.com/?cid=0x0:0x49e2a3ef18e7312b;
building materials;Toko Bahan Bangunan;TOKO BANGUNAN DIKA JAYA;"Jl. Dermaga Aikai. Enarotali Distrik Paniai Timur Kabupaten Paniai. Papua, Aikai, Paniai Tim., Enarotali, Papua 98711";"Aikai, Paniai Tim., Enarotali";PAPUA;98711;Indonesia;081935935177;;;-39.309.089;1.363.727.901;https://maps.google.com/?cid=0x0:0x814ba48a8059765f;
building materials;building materials;TOKO BAROKAH;"39CG+GM5, Enarotali, Paniai Tim., Kabupaten Paniai, Papua";"Kabupaten Paniai, Papua";PAPUA;;Indonesia;;;;-3.928.682;1.363.767.451;https://maps.google.com/?cid=0x0:0x5d40ac86a113e14e;
building materials;Toko;KIOS SUBUR JAYA;"Perempatan pasar, Enarotali, Paniai Tim., Kabupaten Paniai, Papua 98711";"Enarotali, Paniai Tim., Kabupaten Paniai";PAPUA;98711;Indonesia;082248812525;;;-39.279.332;1.363.765.889;https://maps.google.com/?cid=0x0:0x8dfa149d15e0803d;
building materials;Toko Bahan Bangunan;TOKO BANGUNAN DIKA JAYA;"Jl. Dermaga Aikai. Enarotali Distrik Paniai Timur Kabupaten Paniai. Papua, Aikai, Paniai Tim., Enarotali, Papua 98711";"Aikai, Paniai Tim., Enarotali";PAPUA;98711;Indonesia;081935935177;;;-39.309.089;1.363.727.901;https://maps.google.com/?cid=0x0:0x814ba48a8059765f;
building materials;Toko Bahan Bangunan;TOKO ADIPATI;"X72G+VV9, Unnamed Road, Wagete I, Kec. Tigi, Kabupaten Deiyai, Papua 98764";"Unnamed Road, Wagete I, Kec. Tigi, Kabupaten Deiyai";PAPUA;98764;Indonesia;;;;-40.478.291;1.362.772.267;https://maps.google.com/?cid=0x0:0x5e5f483c1346142a;
building materials;building materials;Paniai Tim.;"Kabupaten Paniai, Papua";"Kabupaten Paniai, Papua";PAPUA;;Indonesia;;;;-39.293.592;1.363.780.656;https://maps.google.com/?cid=0x0:0x7f04dacf9b212bec;
building materials;building materials;TOKO BAROKAH;"39CG+GM5, Enarotali, Paniai Tim., Kabupaten Paniai, Papua";"Kabupaten Paniai, Papua";PAPUA;;Indonesia;;;;-3.928.682;1.363.767.451;https://maps.google.com/?cid=0x0:0x5d40ac86a113e14e;
building materials;building materials;Papua 98719;"Distrik Ekadide, Kabupaten Paniai, Papua";"Kabupaten Paniai, Papua";PAPUA;;Indonesia;;;;-38.701.022;1.365.836.972;https://maps.google.com/?cid=0x0:0x46cb5eccbd6243ee;
building materials;Toko Bahan Bangunan;TOKO BANGUNAN DIKA JAYA;"Jl. Dermaga Aikai. Enarotali Distrik Paniai Timur Kabupaten Paniai. Papua, Aikai, Paniai Tim., Enarotali, Papua 98711";"Aikai, Paniai Tim., Enarotali";PAPUA;98711;Indonesia;081935935177;;;-39.309.089;1.363.727.901;https://maps.google.com/?cid=0x0:0x814ba48a8059765f;
building materials;Toko;Toko Pegunungan Papua Tengah;"Umbutu / Uyubutu / Uwibutu, Paniai Tim., Kabupaten Paniai, Papua 98781";"Paniai Tim., Kabupaten Paniai";PAPUA;98781;Indonesia;;;;-39.452.003;1.364.302.235;https://maps.google.com/?cid=0x0:0x105eae32e4602542;
building materials;building materials;Paniai Tim.;"Kabupaten Paniai, Papua";"Kabupaten Paniai, Papua";PAPUA;;Indonesia;;;;-39.293.592;1.363.780.656;https://maps.google.com/?cid=0x0:0x7f04dacf9b212bec;
building materials;Toko;KIOS SUBUR JAYA;"Perempatan pasar, Enarotali, Paniai Tim., Kabupaten Paniai, Papua 98711";"Enarotali, Paniai Tim., Kabupaten Paniai";PAPUA;98711;Indonesia;082248812525;;;-39.279.332;1.363.765.889;https://maps.google.com/?cid=0x0:0x8dfa149d15e0803d;
building materials;building materials;Papua 98722;"Paniai Tim., Kabupaten Paniai, Papua";"Kabupaten Paniai, Papua";PAPUA;;Indonesia;;;;-39.261.758;1.365.066.359;https://maps.google.com/?cid=0x0:0xc8074bbd911fd05a;
building materials;Toko;Toko Pegunungan Papua Tengah;"Umbutu / Uyubutu / Uwibutu, Paniai Tim., Kabupaten Paniai, Papua 98781";"Paniai Tim., Kabupaten Paniai";PAPUA;98781;Indonesia;;;;-39.452.003;1.364.302.235;https://maps.google.com/?cid=0x0:0x105eae32e4602542;
building materials;Toko Bahan Bangunan;TOKO BANGUNAN DIKA JAYA;"Jl. Dermaga Aikai. Enarotali Distrik Paniai Timur Kabupaten Paniai. Papua, Aikai, Paniai Tim., Enarotali, Papua 98711";"Aikai, Paniai Tim., Enarotali";PAPUA;98711;Indonesia;081935935177;;;-39.309.089;1.363.727.901;https://maps.google.com/?cid=0x0:0x814ba48a8059765f;
building materials;building materials;TOKO BAROKAH;"39CG+GM5, Enarotali, Paniai Tim., Kabupaten Paniai, Papua";"Kabupaten Paniai, Papua";PAPUA;;Indonesia;;;;-3.928.682;1.363.767.451;https://maps.google.com/?cid=0x0:0x5d40ac86a113e14e;
building materials;building materials;Paniai Tim.;"Kabupaten Paniai, Papua";"Kabupaten Paniai, Papua";PAPUA;;Indonesia;;;;-39.293.592;1.363.780.656;https://maps.google.com/?cid=0x0:0x7f04dacf9b212bec;
building materials;Toko Bahan Bangunan;TOKO BANGUNAN DIKA JAYA;"Jl. Dermaga Aikai. Enarotali Distrik Paniai Timur Kabupaten Paniai. Papua, Aikai, Paniai Tim., Enarotali, Papua 98711";"Aikai, Paniai Tim., Enarotali";PAPUA;98711;Indonesia;081935935177;;;-39.309.089;1.363.727.901;https://maps.google.com/?cid=0x0:0x814ba48a8059765f;
building materials;Toko;Toko Pegunungan Papua Tengah;"Umbutu / Uyubutu / Uwibutu, Paniai Tim., Kabupaten Paniai, Papua 98781";"Paniai Tim., Kabupaten Paniai";PAPUA;98781;Indonesia;;;;-39.452.003;1.364.302.235;https://maps.google.com/?cid=0x0:0x105eae32e4602542;
building materials;Kantor Pemerintah;Koramil Aradide;"5FPH+PWR, Abatadi, Kec. Aradide, Kabupaten Paniai, Papua 98766";"Abatadi, Kec. Aradide, Kabupaten Paniai";PAPUA;98766;Indonesia;;;;-38.120.494;1.364.796.338;https://maps.google.com/?cid=0x0:0x3acd917dc994739;
building materials;Kantor Pemerintah;Kantor Distrik Aradide;"5FPH+PWR, Abatadi, Kec. Aradide, Kabupaten Paniai, Papua 98766";"Abatadi, Kec. Aradide, Kabupaten Paniai";PAPUA;98766;Indonesia;;;;-38.124.425;1.364.796.674;https://maps.google.com/?cid=0x0:0x4918d32260a8c670;
building materials;Kantor Perusahaan;PT. Alderon Pratama Indonesia;"Altira Office Tower Lantai 37 Altira Business Park, Jl. Yos Sudarso Kav 85, RT.9/RW.11, Sunter Jaya, Kec. Tj. Priok, Jkt Utara, Jl. Yos Sudarso Kav 85, Jakarta, Daerah Khusus Ibukota Jakarta 14360";"Jl. Yos Sudarso Kav 85, RT.9/RW.11, Sunter Jaya, Kec. Tj. Priok, Jkt Utara, Jl. Yos Sudarso Kav 85, Jakarta";PAPUA;14360;Indonesia;081802951030;;;-61.522.978;1.068.866.732;https://maps.google.com/?cid=0x0:0x1401aba91f2a0653;
building materials;Pengembang Realestat;Altira Business Park;"Altira Business Park, Jl. Yos Sudarso Kav 85, Sunter Jaya, Kec. Tj. Priok, Jkt Utara, Daerah Khusus Ibukota Jakarta 14360";"Jl. Yos Sudarso Kav 85, Sunter Jaya, Kec. Tj. Priok, Jkt Utara";PAPUA;14360;Indonesia;;;;-61.522.862;1.068.870.306;https://maps.google.com/?cid=0x0:0xcbca6e42f4ae4147;
building materials;building materials;Papua 98769;Papua;Papua;PAPUA;;Indonesia;;;;-34.531.316;1.363.240.951;https://maps.google.com/?cid=0x0:0xd28ed8bf27ec9c6b;
building materials;Toko;Toko Pegunungan Papua Tengah;"Umbutu / Uyubutu / Uwibutu, Paniai Tim., Kabupaten Paniai, Papua 98781";"Paniai Tim., Kabupaten Paniai";PAPUA;98781;Indonesia;;;;-39.452.003;1.364.302.235;https://maps.google.com/?cid=0x0:0x105eae32e4602542;
building materials;Toko Bahan Bangunan;TOKO BANGUNAN DIKA JAYA;"Jl. Dermaga Aikai. Enarotali Distrik Paniai Timur Kabupaten Paniai. Papua, Aikai, Paniai Tim., Enarotali, Papua 98711";"Aikai, Paniai Tim., Enarotali";PAPUA;98711;Indonesia;081935935177;;;-39.309.089;1.363.727.901;https://maps.google.com/?cid=0x0:0x814ba48a8059765f;
building materials;Toko Bahan Bangunan;"Mega Jaya Barokah ( Jual Triplek, Mdf, Hmr, Blockmin, HPL, Lem Kuning, Hardware Interior )";"Depan RSI Aminah, Ruko No.E-01, Watutulis Utara, Watutulis, Kec. Prambon, Kabupaten Sidoarjo, Jawa Timur 61264";"Ruko No.E-01, Watutulis Utara, Watutulis, Kec. Prambon, Kabupaten Sidoarjo";PAPUA;61264;Indonesia;08566661000;;;-74.405.207;1.125.722.891;https://maps.google.com/?cid=0x0:0xac40a6d9f0abf32a;
building materials;building materials;Distrik Bibida;"Kabupaten Paniai, Papua";"Kabupaten Paniai, Papua";PAPUA;;Indonesia;;;;-39.506.844;1.367.671.967;https://maps.google.com/?cid=0x0:0x68f0cd48ece1ec83;
building materials;Toko Bahan Bangunan;"Papua Bangunan, CV PAPUA ABADI";"Jl. Basuki Rahmat No.780, Klawuyuk, Distrik Sorong Timur, Kota Sorong, Papua Bar. 98416";"Klawuyuk, Distrik Sorong Timur, Kota Sorong";PAPUA;98416;Indonesia;081332017550;;;-0.8954087;1.313.186.922;https://maps.google.com/?cid=0x0:0x851804bc3aa7f033;
building materials;Toko Bahan Bangunan;TOKO BANGUNAN DIKA JAYA;"Jl. Dermaga Aikai. Enarotali Distrik Paniai Timur Kabupaten Paniai. Papua, Aikai, Paniai Tim., Enarotali, Papua 98711";"Aikai, Paniai Tim., Enarotali";PAPUA;98711;Indonesia;081935935177;;;-39.309.089;1.363.727.901;https://maps.google.com/?cid=0x0:0x814ba48a8059765f;
building materials;Kantor Perusahaan;Building Materials (B2B Made in Vietnam Building Materials Manufacturers);"18 Ð. D39, Khu Dân Cu Viet Sing, Thu?n An, Bình Duong 098300, Vietnam";"Khu Dân Cu Viet Sing, Thu?n An, Bình Duong";PAPUA;098300;Indonesia;84949767878;;;109.424.911;1.067.377.968;https://maps.google.com/?cid=0x0:0x17f1b3f2bb23cbc9;
building materials;Kantor Perusahaan;ADDSTONE Vietnam;"60 ÐT743, Khu Ph? 2, Thu?n An, Bình Duong, Vietnam";"Binh Duong, Vietnam";PAPUA;;Indonesia;"8,42744E+11";;;109.404.998;1.067.421.369;https://maps.google.com/?cid=0x0:0xa411a686db07c098;
building materials;Kantor Perusahaan;Wahnainem Office Facilities Management;"V35P+4JM, Tembagapura, Kec. Tembagapura, Kabupaten Mimika, Papua 98972";"Tembagapura, Kec. Tembagapura, Kabupaten Mimika";PAPUA;98972;Indonesia;09013264026;;;-41.421.666;1.370.865.534;https://maps.google.com/?cid=0x0:0xa6734a9f8ab64dc5;
building materials;Grosir peralatan kantor;Facilities Management Landscaping Shop;"V35P+2R8, Unnamed Road, Tembagapura, Mimika Regency, Papua 98972";"Unnamed Road, Tembagapura, Mimika Regency";PAPUA;98972;Indonesia;0901463718;;;-41.424.528;137.087.078;https://maps.google.com/?cid=0x0:0x48557d4d082b7a34;
building materials;building materials;Papua 98763;"Kabupaten Paniai, Papua";"Kabupaten Paniai, Papua";PAPUA;;Indonesia;;;;-37.991.853;1.363.049.196;https://maps.google.com/?cid=0x0:0x8e322f542c113cfe;
building materials;Toko Bahan Bangunan;TOKO BANGUNAN DIKA JAYA;"Jl. Dermaga Aikai. Enarotali Distrik Paniai Timur Kabupaten Paniai. Papua, Aikai, Paniai Tim., Enarotali, Papua 98711";"Aikai, Paniai Tim., Enarotali";PAPUA;98711;Indonesia;081935935177;;;-39.309.089;1.363.727.901;https://maps.google.com/?cid=0x0:0x814ba48a8059765f;
building materials;Toko;Depo Bangunan SP2;"HFF7+J3W, Wadio, Distrik Nabire Barat, Kabupaten Nabire, Papua 98856";"Wadio, Distrik Nabire Barat, Kabupaten Nabire";PAPUA;98856;Indonesia;;;;-34.258.989;1.354.626.972;https://maps.google.com/?cid=0x0:0xdf99ca3afbb8c376;
building materials;Toko;Toko Pegunungan Papua Tengah;"Umbutu / Uyubutu / Uwibutu, Paniai Tim., Kabupaten Paniai, Papua 98781";"Paniai Tim., Kabupaten Paniai";PAPUA;98781;Indonesia;;;;-39.452.003;1.364.302.235;https://maps.google.com/?cid=0x0:0x105eae32e4602542;
building materials;building materials;TOKO BAROKAH;"39CG+GM5, Enarotali, Paniai Tim., Kabupaten Paniai, Papua";"Kabupaten Paniai, Papua";PAPUA;;Indonesia;;;;-3.928.682;1.363.767.451;https://maps.google.com/?cid=0x0:0x5d40ac86a113e14e;
building materials;Toko Bahan Bangunan;LAMI JAYA;"RQJ2+CVQ, Legari Jaya, Makimi, Kabupaten Nabire, Papua";"Kabupaten Nabire, Papua";PAPUA;;Indonesia;;;;-31.689.125;1.357.522.275;https://maps.google.com/?cid=0x0:0x2a48362bfcb0ab3f;
building materials;Toko Bahan Bangunan;Toko istana bangunan;"Legari Jaya, Makimi, Kabupaten Nabire, Papua 11087";"Makimi, Kabupaten Nabire";PAPUA;11087;Indonesia;;;;-31.686.895;1.357.463.169;https://maps.google.com/?cid=0x0:0xd34d0e614c0d1bbc;
building materials;Toko;Depo Bangunan SP2;"HFF7+J3W, Wadio, Distrik Nabire Barat, Kabupaten Nabire, Papua 98856";"Wadio, Distrik Nabire Barat, Kabupaten Nabire";PAPUA;98856;Indonesia;;;;-34.258.989;1.354.626.972;https://maps.google.com/?cid=0x0:0xdf99ca3afbb8c376;
building materials;Toko Bahan Bangunan;Bahan Bangunan  Sparepart DIPAJAYA;"Jl. Perintis, Bumi Wonorejo, Distrik Nabire, Kabupaten Nabire, Papua 98813";"Bumi Wonorejo, Distrik Nabire, Kabupaten Nabire";PAPUA;98813;Indonesia;085242353535;;;-33.901.568;1.354.882.999;https://maps.google.com/?cid=0x0:0x2e1f4e55f23f8c6f;
building materials;Toko;Toko bangunan 58;"Jalan poros Sp 2, Kali Semen, Distrik Nabire Barat, Kabupaten Nabire, Papua 98856";"Kali Semen, Distrik Nabire Barat, Kabupaten Nabire";PAPUA;98856;Indonesia;;;;-34.386.924;1.354.563.521;https://maps.google.com/?cid=0x0:0x3d75a94cb6ec1e9a;
building materials;Toko Bahan Bangunan;LAMI JAYA;"RQJ2+CVQ, Legari Jaya, Makimi, Kabupaten Nabire, Papua";"Kabupaten Nabire, Papua";PAPUA;;Indonesia;;;;-31.689.125;1.357.522.275;https://maps.google.com/?cid=0x0:0x2a48362bfcb0ab3f;
building materials;Toko Bahan Bangunan;Toko istana bangunan;"Legari Jaya, Makimi, Kabupaten Nabire, Papua 11087";"Makimi, Kabupaten Nabire";PAPUA;11087;Indonesia;;;;-31.686.895;1.357.463.169;https://maps.google.com/?cid=0x0:0xd34d0e614c0d1bbc;
building materials;building materials;Papua 98715;"Kabupaten Paniai, Papua";"Kabupaten Paniai, Papua";PAPUA;;Indonesia;;;;-38.146.561;1.364.296.942;https://maps.google.com/?cid=0x0:0x49e2a3ef18e7312b;
building materials;Toko Bahan Bangunan;TOKO BANGUNAN DIKA JAYA;"Jl. Dermaga Aikai. Enarotali Distrik Paniai Timur Kabupaten Paniai. Papua, Aikai, Paniai Tim., Enarotali, Papua 98711";"Aikai, Paniai Tim., Enarotali";PAPUA;98711;Indonesia;081935935177;;;-39.309.089;1.363.727.901;https://maps.google.com/?cid=0x0:0x814ba48a8059765f;
building materials;Toko;Toko Pegunungan Papua Tengah;"Umbutu / Uyubutu / Uwibutu, Paniai Tim., Kabupaten Paniai, Papua 98781";"Paniai Tim., Kabupaten Paniai";PAPUA;98781;Indonesia;;;;-39.452.003;1.364.302.235;https://maps.google.com/?cid=0x0:0x105eae32e4602542;
building materials;Kantor Perusahaan;PT. BUMI PAPUA SEVENINDO;"Jl. Mesjid Raya, Remu Utara, HBM, Kota Sorong, Papua Bar. 98416";"Remu Utara, HBM, Kota Sorong";PAPUA;98416;Indonesia;082198126653;;;-0.8807928;1.312.828.486;https://maps.google.com/?cid=0x0:0xbe773b0ac3ca8612;
building materials;Pengembang Realestat;KANTOR PUSAT CV BUMI PAPUA PERMAI;"Jl. Lintas Rufei, Klawasi, Distrik Sorong Barat, Kota Sorong, Papua Bar. 98411";"Klawasi, Distrik Sorong Barat, Kota Sorong";PAPUA;98411;Indonesia;085367213567;;;-0.8576435;1.312.486.861;https://maps.google.com/?cid=0x0:0xa38c390b66bd26d7;
building materials;Pemotongan Kayu;Kayu Somel;"CPQ5+XV7, Jl. Tasangkapura, Hamadi, Distrik Jayapura Selatan, Kota Jayapura, Papua";"Kota Jayapura, Papua";PAPUA;;Indonesia;081344206726;;;-25.600.866;1.407.096.744;https://maps.google.com/?cid=0x0:0x43373a0a82b8f691;
building materials;Toko Bahan Bangunan;"Papua Bangunan, CV PAPUA ABADI";"Jl. Basuki Rahmat No.780, Klawuyuk, Distrik Sorong Timur, Kota Sorong, Papua Bar. 98416";"Klawuyuk, Distrik Sorong Timur, Kota Sorong";PAPUA;98416;Indonesia;081332017550;;;-0.8954087;1.313.186.922;https://maps.google.com/?cid=0x0:0x851804bc3aa7f033;
building materials;Toko Bahan Bangunan;Toko Bangunan Abadi;"4862+H2G, Malaingkedi, Kec. Sorong Utara, Kota Sorong, Papua Bar. 98412";"Malaingkedi, Kec. Sorong Utara, Kota Sorong";PAPUA;98412;Indonesia;081248762864;;;-0.8885625;1.313.000.781;https://maps.google.com/?cid=0x0:0xa4c5e3d6e0f0bf2b;
building materials;Pemotongan Kayu;Kantor kaca PT.SWPI;"Tim, Awunawai, Distrik Yapen Timur, Kabupaten Kepulauan Yapen, Papua 98252";"Awunawai, Distrik Yapen Timur, Kabupaten Kepulauan Yapen";PAPUA;98252;Indonesia;;;;-18.226.475;1.367.595.672;https://maps.google.com/?cid=0x0:0xce8e51c2e764af51;
building materials;Bengkel Mobil;BENGKEL M.AB.AR;"5QG4+XH7, Awunawai, Distrik Yapen Timur, Kabupaten Kepulauan Yapen, Papua 98252";"Awunawai, Distrik Yapen Timur, Kabupaten Kepulauan Yapen";PAPUA;98252;Indonesia;;;;-18.224.504;1.367.576.891;https://maps.google.com/?cid=0x0:0xc6ca782424f0ea4b;
building materials;Toko Bahan Bangunan;"Papua Bangunan, CV PAPUA ABADI";"Jl. Basuki Rahmat No.780, Klawuyuk, Distrik Sorong Timur, Kota Sorong, Papua Bar. 98416";"Klawuyuk, Distrik Sorong Timur, Kota Sorong";PAPUA;98416;Indonesia;081332017550;;;-0.8954087;1.313.186.922;https://maps.google.com/?cid=0x0:0x851804bc3aa7f033;
building materials;Toko Bahan Bangunan;Toko Bangunan Abadi;"4862+H2G, Malaingkedi, Kec. Sorong Utara, Kota Sorong, Papua Bar. 98412";"Malaingkedi, Kec. Sorong Utara, Kota Sorong";PAPUA;98412;Indonesia;081248762864;;;-0.8885625;1.313.000.781;https://maps.google.com/?cid=0x0:0xa4c5e3d6e0f0bf2b;
building materials;Pemotongan Kayu;Kantor kaca PT.SWPI;"Tim, Awunawai, Distrik Yapen Timur, Kabupaten Kepulauan Yapen, Papua 98252";"Awunawai, Distrik Yapen Timur, Kabupaten Kepulauan Yapen";PAPUA;98252;Indonesia;;;;-18.226.475;1.367.595.672;https://maps.google.com/?cid=0x0:0xce8e51c2e764af51;
building materials;Bengkel Mobil;BENGKEL M.AB.AR;"5QG4+XH7, Awunawai, Distrik Yapen Timur, Kabupaten Kepulauan Yapen, Papua 98252";"Awunawai, Distrik Yapen Timur, Kabupaten Kepulauan Yapen";PAPUA;98252;Indonesia;;;;-18.224.504;1.367.576.891;https://maps.google.com/?cid=0x0:0xc6ca782424f0ea4b;
building materials;Pemotongan Kayu;Kayu Somel;"CPQ5+XV7, Jl. Tasangkapura, Hamadi, Distrik Jayapura Selatan, Kota Jayapura, Papua";"Kota Jayapura, Papua";PAPUA;;Indonesia;081344206726;;;-25.600.866;1.407.096.744;https://maps.google.com/?cid=0x0:0x43373a0a82b8f691;
building materials;Aksesori Mebel;Somel kayu Mughni;"pantai enggros, Jl. Garuda, Wai Mhorock, Kec. Abepura, Kota Jayapura, Papua 99111";"Jl. Garuda, Wai Mhorock, Kec. Abepura, Kota Jayapura";PAPUA;99111;Indonesia;;;;-2.607.681;1.406.833.002;https://maps.google.com/?cid=0x0:0xf2a21d76e2f37778;
building materials;Toko Bahan Bangunan;"Papua Bangunan, CV PAPUA ABADI";"Jl. Basuki Rahmat No.780, Klawuyuk, Distrik Sorong Timur, Kota Sorong, Papua Bar. 98416";"Klawuyuk, Distrik Sorong Timur, Kota Sorong";PAPUA;98416;Indonesia;081332017550;;;-0.8954087;1.313.186.922;https://maps.google.com/?cid=0x0:0x851804bc3aa7f033;
building materials;building materials;Papua 98722;"Paniai Tim., Kabupaten Paniai, Papua";"Kabupaten Paniai, Papua";PAPUA;;Indonesia;;;;-39.261.758;1.365.066.359;https://maps.google.com/?cid=0x0:0xc8074bbd911fd05a;
building materials;Toko;Toko Pegunungan Papua Tengah;"Umbutu / Uyubutu / Uwibutu, Paniai Tim., Kabupaten Paniai, Papua 98781";"Paniai Tim., Kabupaten Paniai";PAPUA;98781;Indonesia;;;;-39.452.003;1.364.302.235;https://maps.google.com/?cid=0x0:0x105eae32e4602542;
building materials;Toko Bahan Bangunan;TOKO BANGUNAN DIKA JAYA;"Jl. Dermaga Aikai. Enarotali Distrik Paniai Timur Kabupaten Paniai. Papua, Aikai, Paniai Tim., Enarotali, Papua 98711";"Aikai, Paniai Tim., Enarotali";PAPUA;98711;Indonesia;081935935177;;;-39.309.089;1.363.727.901;https://maps.google.com/?cid=0x0:0x814ba48a8059765f;
building materials;Toko Karpet;Unique Carpet  Decoration;"Agung Niaga, Jl. Danau Sunter Utara No.17 blok G3, Sunter Agung, Kec. Tj. Priok, Jakarta, Daerah Khusus Ibukota Jakarta 14350";"Jl. Danau Sunter Utara No.17 blok G3, Sunter Agung, Kec. Tj. Priok, Jakarta";PAPUA;14350;Indonesia;0216400584;;;-61.381.449;1.068.692.703;https://maps.google.com/?cid=0x0:0xadb85f69de0aa92a;
building materials;building materials;s35jaIzXOIyb4-EP1JnzqAM;;;PAPUA;;Indonesia;087887049222;;;-6.182.313;1.068.364.646;https://maps.google.com/?cid=0x0:0x6aadbddfa3f08701;
building materials;Pemotongan Kayu;Kayu Somel;"CPQ5+XV7, Jl. Tasangkapura, Hamadi, Distrik Jayapura Selatan, Kota Jayapura, Papua";"Kota Jayapura, Papua";PAPUA;;Indonesia;081344206726;;;-25.600.866;1.407.096.744;https://maps.google.com/?cid=0x0:0x43373a0a82b8f691;
building materials;Aksesori Mebel;Somel kayu Mughni;"pantai enggros, Jl. Garuda, Wai Mhorock, Kec. Abepura, Kota Jayapura, Papua 99111";"Jl. Garuda, Wai Mhorock, Kec. Abepura, Kota Jayapura";PAPUA;99111;Indonesia;;;;-2.607.681;1.406.833.002;https://maps.google.com/?cid=0x0:0xf2a21d76e2f37778;
building materials;Toko Bahan Bangunan;"Papua Bangunan, CV PAPUA ABADI";"Jl. Basuki Rahmat No.780, Klawuyuk, Distrik Sorong Timur, Kota Sorong, Papua Bar. 98416";"Klawuyuk, Distrik Sorong Timur, Kota Sorong";PAPUA;98416;Indonesia;081332017550;;;-0.8954087;1.313.186.922;https://maps.google.com/?cid=0x0:0x851804bc3aa7f033;
building materials;building materials;Papua 98715;"Kabupaten Paniai, Papua";"Kabupaten Paniai, Papua";PAPUA;;Indonesia;;;;-38.146.561;1.364.296.942;https://maps.google.com/?cid=0x0:0x49e2a3ef18e7312b;
building materials;Toko Bahan Bangunan;TOKO BANGUNAN DIKA JAYA;"Jl. Dermaga Aikai. Enarotali Distrik Paniai Timur Kabupaten Paniai. Papua, Aikai, Paniai Tim., Enarotali, Papua 98711";"Aikai, Paniai Tim., Enarotali";PAPUA;98711;Indonesia;081935935177;;;-39.309.089;1.363.727.901;https://maps.google.com/?cid=0x0:0x814ba48a8059765f;
building materials;Toko Perlengkapan Rumah;"ARTHA JAYA Building Material ,Technic and Sparepart Supplier";"8QM8+766, Jl. Lettu Idrus, Kaimana Kota, Kec. Kaimana, Kabupaten Kaimana, Papua Bar. 98654";"Jl. Lettu Idrus, Kaimana Kota, Kec. Kaimana, Kabupaten Kaimana";PAPUA;98654;Indonesia;08113337737;;;-36.668.263;1.337.655.059;https://maps.google.com/?cid=0x0:0x771b5c8624f4315b;
building materials;Toko;Toko Pegunungan Papua Tengah;"Umbutu / Uyubutu / Uwibutu, Paniai Tim., Kabupaten Paniai, Papua 98781";"Paniai Tim., Kabupaten Paniai";PAPUA;98781;Indonesia;;;;-39.452.003;1.364.302.235;https://maps.google.com/?cid=0x0:0x105eae32e4602542;
building materials;building materials;Toko Artajaya Bangunan (AJB);"Jl Protokol, Koya Bar., Kec. Muara Tami, Kota Jayapura, Papua";"Kota Jayapura, Papua";PAPUA;;Indonesia;;;;-26.598.126;1.408.048.505;https://maps.google.com/?cid=0x0:0xbfefccb7ae22a578;
building materials;Toko;KIOS SUBUR JAYA;"Perempatan pasar, Enarotali, Paniai Tim., Kabupaten Paniai, Papua 98711";"Enarotali, Paniai Tim., Kabupaten Paniai";PAPUA;98711;Indonesia;082248812525;;;-39.279.332;1.363.765.889;https://maps.google.com/?cid=0x0:0x8dfa149d15e0803d;
building materials;Toko Bahan Bangunan;BJ Home - BSD CITY;"Jl. Pahlawan Seribu Sektor VI.I No.17, BSD City, Kec. Serpong Utara, Kota Tangerang Selatan, Banten 15325";"BSD City, Kec. Serpong Utara, Kota Tangerang Selatan";PAPUA;15325;Indonesia;0215389999;;;-62.777.597;106.660.313;https://maps.google.com/?cid=0x0:0x400d53b7e69fb9e;
building materials;Toko Bahan Bangunan;Super Bangun Jaya BSD;"RT003/003, Jalan Raya Cisauk, Desa Sampora, Sampora, Kec. Cisauk, Kabupaten Tangerang, Banten 15345";"Jalan Raya Cisauk, Desa Sampora, Sampora, Kec. Cisauk, Kabupaten Tangerang";PAPUA;15345;Indonesia;02175671999;;;-63.194.505;106.643.058;https://maps.google.com/?cid=0x0:0x6a6bc770421ae691;
building materials;building materials;jual produk TOTO;"bsd, Golden Boulevard, sektor VI No.1/17, Lengkong Karya, Kec. Serpong, Kota Tangerang Selatan, Banten 15310";"Golden Boulevard, sektor VI No.1/17, Lengkong Karya, Kec. Serpong, Kota Tangerang Selatan";PAPUA;15310;Indonesia;;;;-62.779.801;1.066.603.881;https://maps.google.com/?cid=0x0:0xb127057ded8fce30;
building materials;building materials;Papua 98725;"Paniai Tim., Kabupaten Paniai, Papua";"Kabupaten Paniai, Papua";PAPUA;;Indonesia;;;;-38.960.745;1.364.537.256;https://maps.google.com/?cid=0x0:0xf416718a89ab024c;
building materials;Toko Bahan Bangunan;Supermarket Multi Bangunan;"Jl Baru No.98, Wai Mhorock, Abepura, Jayapura City, Papua 99225";"Wai Mhorock, Abepura, Jayapura City";PAPUA;99225;Indonesia;0967588677;;;-26.077.336;1.406.742.812;https://maps.google.com/?cid=0x0:0x3b19f301c68f1d6f;
building materials;Toko Perlengkapan Rumah;"ARTHA JAYA Building Material ,Technic and Sparepart Supplier";"8QM8+766, Jl. Lettu Idrus, Kaimana Kota, Kec. Kaimana, Kabupaten Kaimana, Papua Bar. 98654";"Jl. Lettu Idrus, Kaimana Kota, Kec. Kaimana, Kabupaten Kaimana";PAPUA;98654;Indonesia;08113337737;;;-36.668.263;1.337.655.059;https://maps.google.com/?cid=0x0:0x771b5c8624f4315b;
building materials;Toko Bahan Bangunan;TOKO BAHAN BANGUNAN “TRINITY HOME”;"Jalan Baru Pasar Lama, Wahno, Kec. Abepura, Kota Jayapura, Papua 99224";"Wahno, Kec. Abepura, Kota Jayapura";PAPUA;99224;Indonesia;081232337934;;;-25.958.248;1.406.809.957;https://maps.google.com/?cid=0x0:0x41c321d86b054228;
building materials;Toko Bahan Bangunan;toko bangunan Yep'Mum;"4Q38+6C4, Jl. Garuda, Arso Kota, Kec. Arso, Kabupaten Keerom, Papua 99468";"Jl. Garuda, Arso Kota, Kec. Arso, Kabupaten Keerom";PAPUA;99468;Indonesia;085244664394;;;-28.970.308;1.407.661.616;https://maps.google.com/?cid=0x0:0x9649c22840d7e67e;
building materials;Toko Bahan Bangunan;"Papua Bangunan, CV PAPUA ABADI";"Jl. Basuki Rahmat No.780, Klawuyuk, Distrik Sorong Timur, Kota Sorong, Papua Bar. 98416";"Klawuyuk, Distrik Sorong Timur, Kota Sorong";PAPUA;98416;Indonesia;081332017550;;;-0.8954087;1.313.186.922;https://maps.google.com/?cid=0x0:0x851804bc3aa7f033;
building materials;Toko Bahan Bangunan;Mulia Jaya Toko Bangunan;"WW9Q+9M5, Jl. Hom-Hom, Hetuma, Distrik Wamena, Kabupaten Jayawijaya, Papua 99511";"Jl. Hom-Hom, Hetuma, Distrik Wamena, Kabupaten Jayawijaya";PAPUA;99511;Indonesia;082121654001;;;-40.816.058;1.389.392.432;https://maps.google.com/?cid=0x0:0xe35085cf901d3afb;
building materials;Toko Bahan Bangunan;Depo Bangunan Mbanyu Mili;"3VQM+2GP depan balai kampung sp 2, Prafi Mulia, Distrik Prafi, Kabupaten Manokwari, Papua Bar. 98356";"Prafi Mulia, Distrik Prafi, Kabupaten Manokwari";PAPUA;98356;Indonesia;085254126242;;;-0.9124191;1.338.838.245;https://maps.google.com/?cid=0x0:0x72bb281db456c91a;
building materials;Toko Bahan Bangunan;Toko bangunan Artomoro;"8RG4+X6C, Unnamed Road, Koya Bar., Kec. Muara Tami, Kota Jayapura, Papua 99351";"Unnamed Road, Koya Bar., Kec. Muara Tami, Kota Jayapura";PAPUA;99351;Indonesia;085244725735;;;-26.725.694;1.408.055.002;https://maps.google.com/?cid=0x0:0xefc17d6442f6cb7e;
building materials;Toko bahan makanan;Toko bangunan ABADI JAYA;"Jl. Raya sarmi No.blok A, Bunyom, Distrik Nimbokrang, Kabupaten Jayapura, Papua 99361";"Bunyom, Distrik Nimbokrang, Kabupaten Jayapura";PAPUA;99361;Indonesia;085382577209;;;-2.557.175;1.401.088.301;https://maps.google.com/?cid=0x0:0x1ca51d4d8a0ae01a;
building materials;Toko Bahan Bangunan;Arta Beton;"469Q+8J4, Serui Kota, Kec. Yapen Sel., Kabupaten Kepulauan Yapen, Papua 98215";"Serui Kota, Kec. Yapen Sel., Kabupaten Kepulauan Yapen";PAPUA;98215;Indonesia;085244875539;;;-18.817.767;1.362.391.252;https://maps.google.com/?cid=0x0:0x5caa875a76a3e665;
building materials;Toko Bahan Bangunan;CV. XA TRIO JAYA;"Jl. Cendrawasih Sp2, Simpang Lima, Kec. Mimika Baru, Kabupaten Mimika, Papua";"Kabupaten Mimika, Papua";PAPUA;;Indonesia;085244282610;;;-45.154.756;1.368.496.527;https://maps.google.com/?cid=0x0:0x49e9d0a78fcf7509;
building materials;Pemasok Bahan Bangunan;CV. Cahaya Papua Bangunan;"9MPC+4X9, Awiyo, Kec. Abepura, Kota Jayapura, Papua 99351";"Awiyo, Kec. Abepura, Kota Jayapura";PAPUA;99351;Indonesia;082198904605;;;-26.147.176;1.406.724.912;https://maps.google.com/?cid=0x0:0x872c2e9a7a1c6add;
building materials;Toko Bahan Bangunan;Royal Bangunan (PT. Papua Jaya Bangunan);"43P8+87R, Jl. Percetakan Negara, Sanggeng, Kec. Manokwari Bar., Kabupaten Manokwari, Papua Bar. 98312";"Jl. Percetakan Negara, Sanggeng, Kec. Manokwari Bar., Kabupaten Manokwari";PAPUA;98312;Indonesia;087784554955;;;-0.8641385;1.340.656.252;https://maps.google.com/?cid=0x0:0x99b3b4ac0bad58a;
building materials;Toko Bahan Bangunan;Toko Bangunan Tetus Papua;"CVFF+528, Jl. Budi Utomo, Nawaripi, Kec. Mimika Baru, Kabupaten Mimika, Papua";"Kabupaten Mimika, Papua";PAPUA;;Indonesia;081344834492;;;-4.577.093;1.368.725.648;https://maps.google.com/?cid=0x0:0x70179859b1a22306;
building materials;Toko Bahan Bangunan;Tiptore Building Material;"Jl. Poros Kuda Mati, Klp. Lima, Kec. Merauke, Kabupaten Merauke, Papua 99616";"Klp. Lima, Kec. Merauke, Kabupaten Merauke";PAPUA;99616;Indonesia;082293657714;;;-85.061.763;1.404.257.632;https://maps.google.com/?cid=0x0:0xbf132c61e5517b30;
building materials;Kontraktor Penebangan Kayu;TOKO CAHAYA BONE AGATS;"Jl. Dermaga Baru, Bis Agats, Distrik Agats, Kabupaten Asmat, Papua 99777";"Bis Agats, Distrik Agats, Kabupaten Asmat";PAPUA;99777;Indonesia;;;;-55.261.749;138.139.991;https://maps.google.com/?cid=0x0:0xdcf195d2090d9d79;
building materials;Toko Batu;UD.batu tela jasmin;"9Q9X+FQ2, Holtekam, Kec. Muara Tami, Kota Jayapura, Papua 99351";"Holtekam, Kec. Muara Tami, Kota Jayapura";PAPUA;99351;Indonesia;082199273657;;;-26.313.723;1.407.994.043;https://maps.google.com/?cid=0x0:0xf63014fb3d633236;
building materials;Toko Bahan Bangunan;Toko Arso Bangunan;"Jl. Garuda No.17, D, Yuwanain, Kec. Arso, Kabupaten Keerom, Papua 99468";"D, Yuwanain, Kec. Arso, Kabupaten Keerom";PAPUA;99468;Indonesia;082199906967;;;-29.009.028;1.407.566.149;https://maps.google.com/?cid=0x0:0xd6c7fd0a6c50c3ab;
building materials;building materials;Toko bangunan Rama;"PHPV+RJM, Jl. Poros Samabusa, Samabusa, Distrik Tlk. Kimi, Kabupaten Nabire, Papua";"Kabupaten Nabire, Papua";PAPUA;;Indonesia;;;;-3.262.924;1.355.940.416;https://maps.google.com/?cid=0x0:0x7b2810b3fdc90ff6;
building materials;building materials;Toko Artajaya Bangunan (AJB);"Jl Protokol, Koya Bar., Kec. Muara Tami, Kota Jayapura, Papua";"Kota Jayapura, Papua";PAPUA;;Indonesia;;;;-26.598.126;1.408.048.505;https://maps.google.com/?cid=0x0:0xbfefccb7ae22a578;
building materials;Toko;Toko Pegunungan Papua Tengah;"Umbutu / Uyubutu / Uwibutu, Paniai Tim., Kabupaten Paniai, Papua 98781";"Paniai Tim., Kabupaten Paniai";PAPUA;98781;Indonesia;;;;-39.452.003;1.364.302.235;https://maps.google.com/?cid=0x0:0x105eae32e4602542;
building materials;Pusat Perbelanjaan;KIOS QANITAH;"Umbutu / Uyubutu / Uwibutu, UWIBUTU, Kabupaten Paniai, Papua 98711";"UWIBUTU, Kabupaten Paniai";PAPUA;98711;Indonesia;085298817733;;;-39.443.439;1.364.305.187;https://maps.google.com/?cid=0x0:0xfe28560b049fae1;
building materials;building materials;Papua 98726;"Kabupaten Paniai, Papua";"Kabupaten Paniai, Papua";PAPUA;;Indonesia;;;;-39.264.117;1.362.761.704;https://maps.google.com/?cid=0x0:0x51a62be53f847ea;
building materials;Toko Bahan Bangunan;TOKO BANGUNAN DIKA JAYA;"Jl. Dermaga Aikai. Enarotali Distrik Paniai Timur Kabupaten Paniai. Papua, Aikai, Paniai Tim., Enarotali, Papua 98711";"Aikai, Paniai Tim., Enarotali";PAPUA;98711;Indonesia;081935935177;;;-39.309.089;1.363.727.901;https://maps.google.com/?cid=0x0:0x814ba48a8059765f;
building materials;Toko;Toko Pegunungan Papua Tengah;"Umbutu / Uyubutu / Uwibutu, Paniai Tim., Kabupaten Paniai, Papua 98781";"Paniai Tim., Kabupaten Paniai";PAPUA;98781;Indonesia;;;;-39.452.003;1.364.302.235;https://maps.google.com/?cid=0x0:0x105eae32e4602542;
building materials;Toko;Jaya Bangun Utama;"6GH9+VPV, Unnamed Road, Iriati, Distrik Wasior, Kabupaten Teluk Wondama, Papua Bar. 98362";"Unnamed Road, Iriati, Distrik Wasior, Kabupaten Teluk Wondama";PAPUA;98362;Indonesia;085298357980;;;-27.702.528;1.345.193.086;https://maps.google.com/?cid=0x0:0x7b7706dc36edb6d8;
building materials;Toko;KIOS SUBUR JAYA;"Perempatan pasar, Enarotali, Paniai Tim., Kabupaten Paniai, Papua 98711";"Enarotali, Paniai Tim., Kabupaten Paniai";PAPUA;98711;Indonesia;082248812525;;;-39.279.332;1.363.765.889;https://maps.google.com/?cid=0x0:0x8dfa149d15e0803d;
building materials;Toko;PT. UNGGUL JAYA TIMBER;"PERUMAHAN ARAFAH RESIDENCE Blok B No.21, RT.001/RW.009, Srimahi, Kec. Tambun Utara, Kabupaten Bekasi, Jawa Barat 17510";"RT.001/RW.009, Srimahi, Kec. Tambun Utara, Kabupaten Bekasi";PAPUA;17510;Indonesia;085780000302;;;-61.754.973;1.070.886.316;https://maps.google.com/?cid=0x0:0x48c9a73a2cfed63f;
building materials;Toko Bahan Bangunan;BJ Home - BSD CITY;"Jl. Pahlawan Seribu Sektor VI.I No.17, BSD City, Kec. Serpong Utara, Kota Tangerang Selatan, Banten 15325";"BSD City, Kec. Serpong Utara, Kota Tangerang Selatan";PAPUA;15325;Indonesia;0215389999;;;-62.777.597;106.660.313;https://maps.google.com/?cid=0x0:0x400d53b7e69fb9e;
toko bangunan;toko bangunan;Papua 98763;"Kabupaten Paniai, Papua";"Kabupaten Paniai, Papua";PAPUA;;Indonesia;;;;-37.991.853;1.363.049.196;https://maps.google.com/?cid=0x0:0x8e322f542c113cfe;
toko bangunan;Toko Bahan Bangunan;TOKO BANGUNAN DIKA JAYA;"Jl. Dermaga Aikai. Enarotali Distrik Paniai Timur Kabupaten Paniai. Papua, Aikai, Paniai Tim., Enarotali, Papua 98711";"Aikai, Paniai Tim., Enarotali";PAPUA;98711;Indonesia;081935935177;;;-39.309.089;1.363.727.901;https://maps.google.com/?cid=0x0:0x814ba48a8059765f;
toko bangunan;Toko;Toko Pegunungan Papua Tengah;"Umbutu / Uyubutu / Uwibutu, Paniai Tim., Kabupaten Paniai, Papua 98781";"Paniai Tim., Kabupaten Paniai";PAPUA;98781;Indonesia;;;;-39.452.003;1.364.302.235;https://maps.google.com/?cid=0x0:0x105eae32e4602542;
toko bangunan;toko bangunan;Papua 98711;"Paniai Tim., Kabupaten Paniai, Papua";"Kabupaten Paniai, Papua";PAPUA;;Indonesia;;;;-39.236.807;1.364.681.501;https://maps.google.com/?cid=0x0:0x42ca7f49c2355029;
toko bangunan;Toko Bahan Bangunan;TOKO BANGUNAN DIKA JAYA;"Jl. Dermaga Aikai. Enarotali Distrik Paniai Timur Kabupaten Paniai. Papua, Aikai, Paniai Tim., Enarotali, Papua 98711";"Aikai, Paniai Tim., Enarotali";PAPUA;98711;Indonesia;081935935177;;;-39.309.089;1.363.727.901;https://maps.google.com/?cid=0x0:0x814ba48a8059765f;
toko bangunan;Toko;Toko Pegunungan Papua Tengah;"Umbutu / Uyubutu / Uwibutu, Paniai Tim., Kabupaten Paniai, Papua 98781";"Paniai Tim., Kabupaten Paniai";PAPUA;98781;Indonesia;;;;-39.452.003;1.364.302.235;https://maps.google.com/?cid=0x0:0x105eae32e4602542;
toko bangunan;toko bangunan;Papua 98712;"Kabupaten Paniai, Papua";"Kabupaten Paniai, Papua";PAPUA;;Indonesia;;;;-38.602.755;1.364.296.942;https://maps.google.com/?cid=0x0:0xec5046199ceddbff;
toko bangunan;Toko Bahan Bangunan;TOKO BANGUNAN DIKA JAYA;"Jl. Dermaga Aikai. Enarotali Distrik Paniai Timur Kabupaten Paniai. Papua, Aikai, Paniai Tim., Enarotali, Papua 98711";"Aikai, Paniai Tim., Enarotali";PAPUA;98711;Indonesia;081935935177;;;-39.309.089;1.363.727.901;https://maps.google.com/?cid=0x0:0x814ba48a8059765f;
toko bangunan;Toko;Toko Pegunungan Papua Tengah;"Umbutu / Uyubutu / Uwibutu, Paniai Tim., Kabupaten Paniai, Papua 98781";"Paniai Tim., Kabupaten Paniai";PAPUA;98781;Indonesia;;;;-39.452.003;1.364.302.235;https://maps.google.com/?cid=0x0:0x105eae32e4602542;
toko bangunan;toko bangunan;Papua 98713;"Kabupaten Paniai, Papua";"Kabupaten Paniai, Papua";PAPUA;;Indonesia;;;;-38.981.462;1.365.451.516;https://maps.google.com/?cid=0x0:0xca9b38a4a50ba077;
toko bangunan;Toko Bahan Bangunan;TOKO BANGUNAN DIKA JAYA;"Jl. Dermaga Aikai. Enarotali Distrik Paniai Timur Kabupaten Paniai. Papua, Aikai, Paniai Tim., Enarotali, Papua 98711";"Aikai, Paniai Tim., Enarotali";PAPUA;98711;Indonesia;081935935177;;;-39.309.089;1.363.727.901;https://maps.google.com/?cid=0x0:0x814ba48a8059765f;
toko bangunan;Toko;Toko Pegunungan Papua Tengah;"Umbutu / Uyubutu / Uwibutu, Paniai Tim., Kabupaten Paniai, Papua 98781";"Paniai Tim., Kabupaten Paniai";PAPUA;98781;Indonesia;;;;-39.452.003;1.364.302.235;https://maps.google.com/?cid=0x0:0x105eae32e4602542;
toko bangunan;Toko Bahan Bangunan;TOKO BANGUNAN DIKA JAYA;"Jl. Dermaga Aikai. Enarotali Distrik Paniai Timur Kabupaten Paniai. Papua, Aikai, Paniai Tim., Enarotali, Papua 98711";"Aikai, Paniai Tim., Enarotali";PAPUA;98711;Indonesia;081935935177;;;-39.309.089;1.363.727.901;https://maps.google.com/?cid=0x0:0x814ba48a8059765f;
toko bangunan;toko bangunan;Papua 98714;"Obaipugaida, Distrik Ekadide, Kabupaten Paniai, Papua";"Kabupaten Paniai, Papua";PAPUA;;Indonesia;;;;-38.800.043;1.365.596.027;https://maps.google.com/?cid=0x0:0x1ed2f623a7ddc102;
toko bangunan;Toko;Toko Pegunungan Papua Tengah;"Umbutu / Uyubutu / Uwibutu, Paniai Tim., Kabupaten Paniai, Papua 98781";"Paniai Tim., Kabupaten Paniai";PAPUA;98781;Indonesia;;;;-39.452.003;1.364.302.235;https://maps.google.com/?cid=0x0:0x105eae32e4602542;
toko bangunan;Toko Bahan Bangunan;TOKO BANGUNAN DIKA JAYA;"Jl. Dermaga Aikai. Enarotali Distrik Paniai Timur Kabupaten Paniai. Papua, Aikai, Paniai Tim., Enarotali, Papua 98711";"Aikai, Paniai Tim., Enarotali";PAPUA;98711;Indonesia;081935935177;;;-39.309.089;1.363.727.901;https://maps.google.com/?cid=0x0:0x814ba48a8059765f;
toko bangunan;Toko Bahan Bangunan;TOKO ADIPATI;"X72G+VV9, Unnamed Road, Wagete I, Kec. Tigi, Kabupaten Deiyai, Papua 98764";"Unnamed Road, Wagete I, Kec. Tigi, Kabupaten Deiyai";PAPUA;98764;Indonesia;;;;-40.478.291;1.362.772.267;https://maps.google.com/?cid=0x0:0x5e5f483c1346142a;
toko bangunan;toko bangunan;TOKO BAROKAH;"39CG+GM5, Enarotali, Paniai Tim., Kabupaten Paniai, Papua";"Kabupaten Paniai, Papua";PAPUA;;Indonesia;;;;-3.928.682;1.363.767.451;https://maps.google.com/?cid=0x0:0x5d40ac86a113e14e;
toko bangunan;toko bangunan;Papua 98715;"Kabupaten Paniai, Papua";"Kabupaten Paniai, Papua";PAPUA;;Indonesia;;;;-38.146.561;1.364.296.942;https://maps.google.com/?cid=0x0:0x49e2a3ef18e7312b;
toko bangunan;toko bangunan;Papua 98716;"Distrik Ekadide, Kabupaten Paniai, Papua";"Kabupaten Paniai, Papua";PAPUA;;Indonesia;;;;-38.487.333;1.364.873.892;https://maps.google.com/?cid=0x0:0x83969942f885abae;
toko bangunan;Toko Bahan Bangunan;TOKO BANGUNAN DIKA JAYA;"Jl. Dermaga Aikai. Enarotali Distrik Paniai Timur Kabupaten Paniai. Papua, Aikai, Paniai Tim., Enarotali, Papua 98711";"Aikai, Paniai Tim., Enarotali";PAPUA;98711;Indonesia;081935935177;;;-39.309.089;1.363.727.901;https://maps.google.com/?cid=0x0:0x814ba48a8059765f;
toko bangunan;Toko;Toko Pegunungan Papua Tengah;"Umbutu / Uyubutu / Uwibutu, Paniai Tim., Kabupaten Paniai, Papua 98781";"Paniai Tim., Kabupaten Paniai";PAPUA;98781;Indonesia;;;;-39.452.003;1.364.302.235;https://maps.google.com/?cid=0x0:0x105eae32e4602542;
toko bangunan;toko bangunan;Papua 98719;"Distrik Ekadide, Kabupaten Paniai, Papua";"Kabupaten Paniai, Papua";PAPUA;;Indonesia;;;;-38.701.022;1.365.836.972;https://maps.google.com/?cid=0x0:0x46cb5eccbd6243ee;
toko bangunan;Toko Bahan Bangunan;TOKO BANGUNAN DIKA JAYA;"Jl. Dermaga Aikai. Enarotali Distrik Paniai Timur Kabupaten Paniai. Papua, Aikai, Paniai Tim., Enarotali, Papua 98711";"Aikai, Paniai Tim., Enarotali";PAPUA;98711;Indonesia;081935935177;;;-39.309.089;1.363.727.901;https://maps.google.com/?cid=0x0:0x814ba48a8059765f;
toko bangunan;Toko;Toko Pegunungan Papua Tengah;"Umbutu / Uyubutu / Uwibutu, Paniai Tim., Kabupaten Paniai, Papua 98781";"Paniai Tim., Kabupaten Paniai";PAPUA;98781;Indonesia;;;;-39.452.003;1.364.302.235;https://maps.google.com/?cid=0x0:0x105eae32e4602542;
toko bangunan;toko bangunan;Papua 98722;"Paniai Tim., Kabupaten Paniai, Papua";"Kabupaten Paniai, Papua";PAPUA;;Indonesia;;;;-39.261.758;1.365.066.359;https://maps.google.com/?cid=0x0:0xc8074bbd911fd05a;
toko bangunan;Toko Bahan Bangunan;TOKO BANGUNAN DIKA JAYA;"Jl. Dermaga Aikai. Enarotali Distrik Paniai Timur Kabupaten Paniai. Papua, Aikai, Paniai Tim., Enarotali, Papua 98711";"Aikai, Paniai Tim., Enarotali";PAPUA;98711;Indonesia;081935935177;;;-39.309.089;1.363.727.901;https://maps.google.com/?cid=0x0:0x814ba48a8059765f;
toko bangunan;Toko;Toko Pegunungan Papua Tengah;"Umbutu / Uyubutu / Uwibutu, Paniai Tim., Kabupaten Paniai, Papua 98781";"Paniai Tim., Kabupaten Paniai";PAPUA;98781;Indonesia;;;;-39.452.003;1.364.302.235;https://maps.google.com/?cid=0x0:0x105eae32e4602542;
toko bangunan;Toko Bahan Bangunan;TOKO BANGUNAN DIKA JAYA;"Jl. Dermaga Aikai. Enarotali Distrik Paniai Timur Kabupaten Paniai. Papua, Aikai, Paniai Tim., Enarotali, Papua 98711";"Aikai, Paniai Tim., Enarotali";PAPUA;98711;Indonesia;081935935177;;;-39.309.089;1.363.727.901;https://maps.google.com/?cid=0x0:0x814ba48a8059765f;
toko bangunan;Toko Bahan Bangunan;TOKO ADIPATI;"X72G+VV9, Unnamed Road, Wagete I, Kec. Tigi, Kabupaten Deiyai, Papua 98764";"Unnamed Road, Wagete I, Kec. Tigi, Kabupaten Deiyai";PAPUA;98764;Indonesia;;;;-40.478.291;1.362.772.267;https://maps.google.com/?cid=0x0:0x5e5f483c1346142a;
toko bangunan;toko bangunan;Paniai Tim.;"Kabupaten Paniai, Papua";"Kabupaten Paniai, Papua";PAPUA;;Indonesia;;;;-39.293.592;1.363.780.656;https://maps.google.com/?cid=0x0:0x7f04dacf9b212bec;
toko bangunan;toko bangunan;TOKO BAROKAH;"39CG+GM5, Enarotali, Paniai Tim., Kabupaten Paniai, Papua";"Kabupaten Paniai, Papua";PAPUA;;Indonesia;;;;-3.928.682;1.363.767.451;https://maps.google.com/?cid=0x0:0x5d40ac86a113e14e;
toko bangunan;toko bangunan;Kec. Aradide;"Kabupaten Paniai, Papua";"Kabupaten Paniai, Papua";PAPUA;;Indonesia;;;;-38.150.328;1.364.790.748;https://maps.google.com/?cid=0x0:0xf7b522f91db639de;
toko bangunan;Toko Bahan Bangunan;TOKO BANGUNAN DIKA JAYA;"Jl. Dermaga Aikai. Enarotali Distrik Paniai Timur Kabupaten Paniai. Papua, Aikai, Paniai Tim., Enarotali, Papua 98711";"Aikai, Paniai Tim., Enarotali";PAPUA;98711;Indonesia;081935935177;;;-39.309.089;1.363.727.901;https://maps.google.com/?cid=0x0:0x814ba48a8059765f;
toko bangunan;Kantor Pemerintah;Koramil Aradide;"5FPH+PWR, Abatadi, Kec. Aradide, Kabupaten Paniai, Papua 98766";"Abatadi, Kec. Aradide, Kabupaten Paniai";PAPUA;98766;Indonesia;;;;-38.120.494;1.364.796.338;https://maps.google.com/?cid=0x0:0x3acd917dc994739;
toko bangunan;toko bangunan;Papua 98769;Papua;Papua;PAPUA;;Indonesia;;;;-34.531.316;1.363.240.951;https://maps.google.com/?cid=0x0:0xd28ed8bf27ec9c6b;
toko bangunan;Toko Bahan Bangunan;TOKO BANGUNAN DIKA JAYA;"Jl. Dermaga Aikai. Enarotali Distrik Paniai Timur Kabupaten Paniai. Papua, Aikai, Paniai Tim., Enarotali, Papua 98711";"Aikai, Paniai Tim., Enarotali";PAPUA;98711;Indonesia;081935935177;;;-39.309.089;1.363.727.901;https://maps.google.com/?cid=0x0:0x814ba48a8059765f;
toko bangunan;Toko Perlengkapan Rumah;Toko Jarwal Bangunan;"Kamoro Jaya, Kec. Mimika Baru, Kabupaten Mimika, Papua 99971";"Kec. Mimika Baru, Kabupaten Mimika";PAPUA;99971;Indonesia;;;;-45.656.564;1.368.718.615;https://maps.google.com/?cid=0x0:0x6cdc385accf4a8b;
toko bangunan;Toko Bahan Bangunan;TB Banio;"Jl. H. Abu Bakar No.7, Cipambuan, Kec. Babakan Madang, Kabupaten Bogor, Jawa Barat 16810";"Cipambuan, Kec. Babakan Madang, Kabupaten Bogor";PAPUA;16810;Indonesia;081904098844;;;-6.558.156;106.849.559;https://maps.google.com/?cid=0x0:0x7b9e38cd5b55fbf2;
toko bangunan;Gudang;Toko Bahan Bangunan BOROBUDUR;"Q853+V3G, Passi II, Kec. Passi Bar., Kabupaten Bolaang Mongondow, Sulawesi Utara";"Kabupaten Bolaang Mongondow, Sulawesi Utara";PAPUA;;Indonesia;;;;0.7596792;1.243.027.097;https://maps.google.com/?cid=0x0:0x5d850252030234be;
toko bangunan;Toko Bahan Bangunan;Tb Sada Bangunan;"Jl. Kabandungan II No.34, Sirnagalih, Kec. Tamansari, Kabupaten Bogor, Jawa Barat 16610";"Sirnagalih, Kec. Tamansari, Kabupaten Bogor";PAPUA;16610;Indonesia;0817102837;;;-66.375.305;1.067.704.267;https://maps.google.com/?cid=0x0:0x4c38efaefec0584b;
toko bangunan;Toko Bahan Bangunan;TB. BAFFANA;"6Q24+8PR, Pondokaso Tonggoh, Kec. Cidahu, Kabupaten Sukabumi, Jawa Barat 43358";"Pondokaso Tonggoh, Kec. Cidahu, Kabupaten Sukabumi";PAPUA;43358;Indonesia;0266735313;;;-6.799.129;1.067.567.785;https://maps.google.com/?cid=0x0:0x41cc975ca7fc1168;
toko bangunan;Toko Bahan Bangunan;Bahana Bangunan;"Jl. Pahlawan No.195, RT.03/RW.14, Bondongan, Kec. Bogor Sel., Kota Bogor, Jawa Barat 16131";"RT.03/RW.14, Bondongan, Kec. Bogor Sel., Kota Bogor";PAPUA;16131;Indonesia;081311519612;;;-66.184.539;106.806.714;https://maps.google.com/?cid=0x0:0xfc4406ad247a9bcb;
toko bangunan;Toko Bahan Bangunan;TOKO BANGUNAN DIKA JAYA;"Jl. Dermaga Aikai. Enarotali Distrik Paniai Timur Kabupaten Paniai. Papua, Aikai, Paniai Tim., Enarotali, Papua 98711";"Aikai, Paniai Tim., Enarotali";PAPUA;98711;Indonesia;081935935177;;;-39.309.089;1.363.727.901;https://maps.google.com/?cid=0x0:0x814ba48a8059765f;
toko bangunan;Toko Bahan Bangunan;TOKO ADIPATI;"X72G+VV9, Unnamed Road, Wagete I, Kec. Tigi, Kabupaten Deiyai, Papua 98764";"Unnamed Road, Wagete I, Kec. Tigi, Kabupaten Deiyai";PAPUA;98764;Indonesia;;;;-40.478.291;1.362.772.267;https://maps.google.com/?cid=0x0:0x5e5f483c1346142a;
toko bangunan;toko bangunan;Papua 98782;"Kabupaten Paniai, Papua";"Kabupaten Paniai, Papua";PAPUA;;Indonesia;;;;-40.286.691;1.367.865.516;https://maps.google.com/?cid=0x0:0x974bc6d0bf8e4cbf;
toko bangunan;Toko;Toko Dua Sahabat/Jotun;"Jln. Trans Papua kilo 2, Kabupaten Boven Digoel";"Kabupaten Boven Digoel, Papua";PAPUA;;Indonesia;;;;-60.959.217;1.403.245.587;https://maps.google.com/?cid=0x0:0xe788284fb59d6345;
toko bangunan;Toko Alat-Alat;Toko Bangunan CHANDRA;"GVC2+WV9, Karang Senang, Kec. Kuala Kencana, Kabupaten Mimika, Papua 99910";"Karang Senang, Kec. Kuala Kencana, Kabupaten Mimika";PAPUA;99910;Indonesia;082131791368;;;-44.777.074;1.368.522.411;https://maps.google.com/?cid=0x0:0x46bb72a7e96c765a;
toko bangunan;Toko Bahan Bangunan;Toko Duta Bangunan;"Jalan Sempan Nawaripi, Inauga, Kec. Mimika Baru, Kabupaten Mimika, Papua 99971";"Inauga, Kec. Mimika Baru, Kabupaten Mimika";PAPUA;99971;Indonesia;;;;-4.573.777;136.883.006;https://maps.google.com/?cid=0x0:0xcf9557e74c78736d;
toko bangunan;Toko Bahan Bangunan;TOKO BANGUNAN DIKA JAYA;"Jl. Dermaga Aikai. Enarotali Distrik Paniai Timur Kabupaten Paniai. Papua, Aikai, Paniai Tim., Enarotali, Papua 98711";"Aikai, Paniai Tim., Enarotali";PAPUA;98711;Indonesia;081935935177;;;-39.309.089;1.363.727.901;https://maps.google.com/?cid=0x0:0x814ba48a8059765f;
toko bangunan;Toko Bahan Bangunan;CV.Duta Jaya Papua;"CVPG+33Q, Jl. Irigasi, Nawaripi, Kec. Mimika Baru, Kabupaten Mimika, Papua";"Kabupaten Mimika, Papua";PAPUA;;Indonesia;085244161812;;;-45.647.898;136.875.246;https://maps.google.com/?cid=0x0:0x9c0dbb5cfd9f8988;
toko bangunan;Toko Bahan Bangunan;Bahan Bangunan  Sparepart DIPAJAYA;"Jl. Perintis, Bumi Wonorejo, Distrik Nabire, Kabupaten Nabire, Papua 98813";"Bumi Wonorejo, Distrik Nabire, Kabupaten Nabire";PAPUA;98813;Indonesia;085242353535;;;-33.901.568;1.354.882.999;https://maps.google.com/?cid=0x0:0x2e1f4e55f23f8c6f;
toko bangunan;Toko Bahan Bangunan;CV. XA TRIO JAYA;"Jl. Cendrawasih Sp2, Simpang Lima, Kec. Mimika Baru, Kabupaten Mimika, Papua";"Kabupaten Mimika, Papua";PAPUA;;Indonesia;085244282610;;;-45.154.756;1.368.496.527;https://maps.google.com/?cid=0x0:0x49e9d0a78fcf7509;
toko bangunan;Toko Bahan Bangunan;Toko Bangunan Difian;"Bumi Wonorejo, Distrik Nabire, Kabupaten Nabire, Papua 98813";"Distrik Nabire, Kabupaten Nabire";PAPUA;98813;Indonesia;0812400013420;;;-34.008.216;1.354.801.451;https://maps.google.com/?cid=0x0:0x9973da42063f154;
toko bangunan;Pemasok Bahan Bangunan;Toko Bangunan Duta Tunggal Anugerah (DTA);"JGQ2+XR7, Jl. Dr. Sam Ratulangi, Oyehe, Distrik Nabire, Kabupaten Nabire, Papua 98811";"Jl. Dr. Sam Ratulangi, Oyehe, Distrik Nabire, Kabupaten Nabire";PAPUA;98811;Indonesia;098425750;;;-33.600.946;1.355.020.576;https://maps.google.com/?cid=0x0:0x7c6c633951692b44;
toko bangunan;Toko Bahan Bangunan;Toko Bangunan Depo Makmur;"38XF+C65, Jl. Basuki Rahmat, Klawuyuk, Distrik Sorong Timur, Kota Sorong, Papua Bar. 98416";"Jl. Basuki Rahmat, Klawuyuk, Distrik Sorong Timur, Kota Sorong";PAPUA;98416;Indonesia;;;;-0.9013289;1.313.229.895;https://maps.google.com/?cid=0x0:0x371e6c734b67edcc;
toko bangunan;Toko;TOKO BANGUNAN SUMBER ANUGERAH;"Persatuan, Kec. Mandobo, Kabupaten Boven Digoel, Papua 99663";"Kec. Mandobo, Kabupaten Boven Digoel";PAPUA;99663;Indonesia;;;;-60.903.965;1.403.331.897;https://maps.google.com/?cid=0x0:0x9b0d3e5a6263752a;
toko bangunan;Toko Bahan Bangunan;TOKO ADIPATI;"X72G+VV9, Unnamed Road, Wagete I, Kec. Tigi, Kabupaten Deiyai, Papua 98764";"Unnamed Road, Wagete I, Kec. Tigi, Kabupaten Deiyai";PAPUA;98764;Indonesia;;;;-40.478.291;1.362.772.267;https://maps.google.com/?cid=0x0:0x5e5f483c1346142a;
toko bangunan;Toko Bahan Bangunan;Toko Bangunan PD Dan's;"Jl. Percetakan Negara II No.24 11, RT.11/RW.6, Johar Baru, Kec. Johar Baru, Kota Jakarta Pusat, Daerah Khusus Ibukota Jakarta 10560";"RT.11/RW.6, Johar Baru, Kec. Johar Baru, Kota Jakarta Pusat";PAPUA;10560;Indonesia;0214201341;;;-61.860.944;1.068.561.221;https://maps.google.com/?cid=0x0:0x956fb39e3738148f;
toko bangunan;toko bangunan;Chute Yard;"V4W3+WGP, Tembagapura, Kec. Tembagapura, Kabupaten Mimika, Papua 98972";"Tembagapura, Kec. Tembagapura, Kabupaten Mimika";PAPUA;98972;Indonesia;;;;-41.026.633;1.371.038.151;https://maps.google.com/?cid=0x0:0xd206b2817121fe94;
toko bangunan;toko bangunan;Papua 98763;"Kabupaten Paniai, Papua";"Kabupaten Paniai, Papua";PAPUA;;Indonesia;;;;-37.991.853;1.363.049.196;https://maps.google.com/?cid=0x0:0x8e322f542c113cfe;
toko bangunan;Toko Bahan Bangunan;TOKO BANGUNAN DIKA JAYA;"Jl. Dermaga Aikai. Enarotali Distrik Paniai Timur Kabupaten Paniai. Papua, Aikai, Paniai Tim., Enarotali, Papua 98711";"Aikai, Paniai Tim., Enarotali";PAPUA;98711;Indonesia;081935935177;;;-39.309.089;1.363.727.901;https://maps.google.com/?cid=0x0:0x814ba48a8059765f;
toko bangunan;Pemasok Bahan Bangunan;Toko Sinar Surya (Jotun);"Jl. Dr. Sam Ratulangi, Oyehe, Distrik Nabire, Kabupaten Nabire, Papua 98817";"Oyehe, Distrik Nabire, Kabupaten Nabire";PAPUA;98817;Indonesia;081331364111;;;-33.556.552;1.355.091.443;https://maps.google.com/?cid=0x0:0x3a82fb69fb9b82d0;
toko bangunan;Toko Bahan Bangunan;Toko Bangunan Difian;"Bumi Wonorejo, Distrik Nabire, Kabupaten Nabire, Papua 98813";"Distrik Nabire, Kabupaten Nabire";PAPUA;98813;Indonesia;0812400013420;;;-34.008.216;1.354.801.451;https://maps.google.com/?cid=0x0:0x9973da42063f154;
toko bangunan;Toko Bahan Bangunan;Toko Resky;"jalan poros, Kemon Jaya Sp V, Kec. Waropen Bawah, Kabupaten Waropen, Papua 98261";"Kemon Jaya Sp V, Kec. Waropen Bawah, Kabupaten Waropen";PAPUA;98261;Indonesia;085394955553;;;-22.185.432;1.364.200.064;https://maps.google.com/?cid=0x0:0x356450f535852163;
toko bangunan;Toko Bahan Bangunan;TOKO BANGUNAN SEMPURNA BERKAH;"jl.poros, wanggarsari, SP B, Kabupaten Nabire, Papua 98853";"wanggarsari, SP B, Kabupaten Nabire";PAPUA;98853;Indonesia;081354533139;;;-34.228.349;1.353.529.493;https://maps.google.com/?cid=0x0:0xadb70199efb7712c;
toko bangunan;Toko;Toko bangunan 58;"Jalan poros Sp 2, Kali Semen, Distrik Nabire Barat, Kabupaten Nabire, Papua 98856";"Kali Semen, Distrik Nabire Barat, Kabupaten Nabire";PAPUA;98856;Indonesia;;;;-34.386.924;1.354.563.521;https://maps.google.com/?cid=0x0:0x3d75a94cb6ec1e9a;
toko bangunan;Toko Perlengkapan Rumah;Toko Jarwal Bangunan;"Kamoro Jaya, Kec. Mimika Baru, Kabupaten Mimika, Papua 99971";"Kec. Mimika Baru, Kabupaten Mimika";PAPUA;99971;Indonesia;;;;-45.656.564;1.368.718.615;https://maps.google.com/?cid=0x0:0x6cdc385accf4a8b;
toko bangunan;Toko Bahan Bangunan;Supermarket Multi Bangunan;"Jl Baru No.98, Wai Mhorock, Abepura, Jayapura City, Papua 99225";"Wai Mhorock, Abepura, Jayapura City";PAPUA;99225;Indonesia;0967588677;;;-26.077.336;1.406.742.812;https://maps.google.com/?cid=0x0:0x3b19f301c68f1d6f;
toko bangunan;Toko Bahan Bangunan;Bahan Bangunan  Sparepart DIPAJAYA;"Jl. Perintis, Bumi Wonorejo, Distrik Nabire, Kabupaten Nabire, Papua 98813";"Bumi Wonorejo, Distrik Nabire, Kabupaten Nabire";PAPUA;98813;Indonesia;085242353535;;;-33.901.568;1.354.882.999;https://maps.google.com/?cid=0x0:0x2e1f4e55f23f8c6f;
toko bangunan;toko bangunan;Toko Mitra Bangunan;"8F8G+WJ5, Karubaga, Kec. Karubaga, Kabupaten Tolikara, Papua 99567";"Karubaga, Kec. Karubaga, Kabupaten Tolikara";PAPUA;99567;Indonesia;081317225643;;;-3.682.733;1.384.766.089;https://maps.google.com/?cid=0x0:0x94f019f9132886e9;
toko bangunan;Toko Bahan Bangunan;"CV Pilar Sinar Bangunan (Bahan bangunan, Mesin, Spare Part, alat listrik, alat teknik, ban mobil, sanitary)";"Jl. R.E. Martadinata, Nabarua, Distrik Nabire, Kabupaten Nabire, Papua 98811";"Nabarua, Distrik Nabire, Kabupaten Nabire";PAPUA;98811;Indonesia;082199540758;;;-33.522.772;1.355.120.037;https://maps.google.com/?cid=0x0:0x29b90fc21e4ae0c;
toko bangunan;Gudang;Toko Bangunan Sumber Baru;"Jl. Poros Samabusa, Sanoba, Distrik Nabire, Kabupaten Nabire, Papua 98817";"Sanoba, Distrik Nabire, Kabupaten Nabire";PAPUA;98817;Indonesia;081249246222;;;-33.111.674;1.355.621.805;https://maps.google.com/?cid=0x0:0xfd98704d8ddc348d;
toko bangunan;Toko Bahan Bangunan;Toko Bangunan Mutiara timur;"CJ3R+33F, Unnamed Road, Kp. Waena, Kec. Heram, Kota Jayapura, Papua 99225";"Unnamed Road, Kp. Waena, Kec. Heram, Kota Jayapura";PAPUA;99225;Indonesia;;;;-25.973.134;1.406.401.625;https://maps.google.com/?cid=0x0:0x392e56b1342d758c;
toko bangunan;Pemasok Bahan Bangunan;Toko Bangunan Dwijaya Nabire;"depan pos pasar, Karang Tumaritis, Distrik Nabire, Kabupaten Nabire, Papua 98811";"Karang Tumaritis, Distrik Nabire, Kabupaten Nabire";PAPUA;98811;Indonesia;082323624737;;;-33.818.274;1.355.050.689;https://maps.google.com/?cid=0x0:0x4280ea46f03634b9;
toko bangunan;Toko;Toko Pegunungan Papua Tengah;"Umbutu / Uyubutu / Uwibutu, Paniai Tim., Kabupaten Paniai, Papua 98781";"Paniai Tim., Kabupaten Paniai";PAPUA;98781;Indonesia;;;;-39.452.003;1.364.302.235;https://maps.google.com/?cid=0x0:0x105eae32e4602542;
toko bangunan;Toko Alat-Alat;Tokp Sumber Bangunan;"JGR2+PMJ, Oyehe, Distrik Nabire, Kabupaten Nabire, Papua 98811";"Oyehe, Distrik Nabire, Kabupaten Nabire";PAPUA;98811;Indonesia;098424707;;;-33.581.607;1.355.016.264;https://maps.google.com/?cid=0x0:0x714416b1fcc7b9e7;
toko bangunan;Toko;DUNIA BANGUNAN;"Jl. Jend. Sudirman, Karang Mulia, Distrik Nabire, Kabupaten Nabire, Papua 98815";"Karang Mulia, Distrik Nabire, Kabupaten Nabire";PAPUA;98815;Indonesia;082239591098;;;-33.732.044;1.355.020.229;https://maps.google.com/?cid=0x0:0x83a82b5ace872855;
toko bangunan;Toko Cat;Toko Bangunan Abid Sejahtera - Waisai;"Jl. Jend. Sudirman No.30, Waisai, Distrik Kota Waisai, Kabupaten Raja Ampat, Papua Bar. 98482";"Waisai, Distrik Kota Waisai, Kabupaten Raja Ampat";PAPUA;98482;Indonesia;082248014806;;;-0.4206038;1.308.216.501;https://maps.google.com/?cid=0x0:0x635cf5cb88ebe389;
toko bangunan;Pemasok Bahan Bangunan;Toko Bangunan Duta Tunggal Anugerah (DTA);"JGQ2+XR7, Jl. Dr. Sam Ratulangi, Oyehe, Distrik Nabire, Kabupaten Nabire, Papua 98811";"Jl. Dr. Sam Ratulangi, Oyehe, Distrik Nabire, Kabupaten Nabire";PAPUA;98811;Indonesia;098425750;;;-33.600.946;1.355.020.576;https://maps.google.com/?cid=0x0:0x7c6c633951692b44;
toko bangunan;toko bangunan;TOKO BAROKAH;"39CG+GM5, Enarotali, Paniai Tim., Kabupaten Paniai, Papua";"Kabupaten Paniai, Papua";PAPUA;;Indonesia;;;;-3.928.682;1.363.767.451;https://maps.google.com/?cid=0x0:0x5d40ac86a113e14e;
toko bangunan;Pemasok Pipa;Kantor - PT. Spesial Pipa Indonesia - Distributor LESSO;"Porta Griya Indah. Pt, Rw. Buaya, Kecamatan Cengkareng, Kota Jakarta Barat, Daerah Khusus Ibukota Jakarta 11740";"Rw. Buaya, Kecamatan Cengkareng, Kota Jakarta Barat";PAPUA;11740;Indonesia;081770562371;;;-61.605.563;1.067.329.249;https://maps.google.com/?cid=0x0:0xb7fd0850c443774a;
toko bangunan;Toko Bahan Bangunan;Distributor BOSS;"gudang c, Jl. Darma Wanita V Gg. Al Fallah, Rw. Buaya, Kecamatan Cengkareng, Kota Jakarta Barat, Daerah Khusus Ibukota Jakarta 11740";"Jl. Darma Wanita V Gg. Al Fallah, Rw. Buaya, Kecamatan Cengkareng, Kota Jakarta Barat";PAPUA;11740;Indonesia;087732718088;;;-61.609.152;1.067.327.122;https://maps.google.com/?cid=0x0:0x55cdf224ad920534;
toko bangunan;toko bangunan;Papua 98854;Papua;Papua;PAPUA;;Indonesia;;;;-34.998.572;1.360.944.845;https://maps.google.com/?cid=0x0:0x17ab1bd64156ee45;
toko bangunan;Toko Bahan Bangunan;TOKO BANGUNAN NABIRE SANTOSO MITRA SEJAHTERA;"Jl. Dr. Sam Ratulangi No.2, Oyehe, Distrik Nabire, Kabupaten Nabire, Papua 98817";"Oyehe, Distrik Nabire, Kabupaten Nabire";PAPUA;98817;Indonesia;085787541264;;;-33.600.958;1.355.020.964;https://maps.google.com/?cid=0x0:0xb6a38fe67511aebd;
toko bangunan;Toko Mebel;Toko Lima utama;"X2QP+7FV, Kimupugi, Kec. Kamu, Kabupaten Dogiyai, Papua 98862";"Kimupugi, Kec. Kamu, Kabupaten Dogiyai";PAPUA;98862;Indonesia;;;;-40.117.335;1.360.360.948;https://maps.google.com/?cid=0x0:0xc8d46643286e1f7c;
toko bangunan;Toko Bahan Bangunan;Toko Bangunan Difian;"Bumi Wonorejo, Distrik Nabire, Kabupaten Nabire, Papua 98813";"Distrik Nabire, Kabupaten Nabire";PAPUA;98813;Indonesia;0812400013420;;;-34.008.216;1.354.801.451;https://maps.google.com/?cid=0x0:0x9973da42063f154;
toko bangunan;Toko Bahan Bangunan;Toko AKBAR bangunan;"2W63+2XM, Dawaikunu, Distrik Mapia, Kabupaten Dogiyai, Papua";"Kabupaten Dogiyai, Papua";PAPUA;;Indonesia;08161999912;;;-3.989.908;135.904.907;https://maps.google.com/?cid=0x0:0x54762d941a6ba240;
toko bangunan;Toko Bahan Bangunan;Bahan Bangunan  Sparepart DIPAJAYA;"Jl. Perintis, Bumi Wonorejo, Distrik Nabire, Kabupaten Nabire, Papua 98813";"Bumi Wonorejo, Distrik Nabire, Kabupaten Nabire";PAPUA;98813;Indonesia;085242353535;;;-33.901.568;1.354.882.999;https://maps.google.com/?cid=0x0:0x2e1f4e55f23f8c6f;
toko bangunan;Toko;Toko bangunan 58;"Jalan poros Sp 2, Kali Semen, Distrik Nabire Barat, Kabupaten Nabire, Papua 98856";"Kali Semen, Distrik Nabire Barat, Kabupaten Nabire";PAPUA;98856;Indonesia;;;;-34.386.924;1.354.563.521;https://maps.google.com/?cid=0x0:0x3d75a94cb6ec1e9a;
toko bangunan;Pemasok Bahan Bangunan;Toko Bangunan Dwijaya Nabire;"depan pos pasar, Karang Tumaritis, Distrik Nabire, Kabupaten Nabire, Papua 98811";"Karang Tumaritis, Distrik Nabire, Kabupaten Nabire";PAPUA;98811;Indonesia;082323624737;;;-33.818.274;1.355.050.689;https://maps.google.com/?cid=0x0:0x4280ea46f03634b9;
toko bangunan;Pemasok Bahan Bangunan;Toko Bangunan Duta Tunggal Anugerah (DTA);"JGQ2+XR7, Jl. Dr. Sam Ratulangi, Oyehe, Distrik Nabire, Kabupaten Nabire, Papua 98811";"Jl. Dr. Sam Ratulangi, Oyehe, Distrik Nabire, Kabupaten Nabire";PAPUA;98811;Indonesia;098425750;;;-33.600.946;1.355.020.576;https://maps.google.com/?cid=0x0:0x7c6c633951692b44;
toko bangunan;Toko;DUNIA BANGUNAN;"Jl. Jend. Sudirman, Karang Mulia, Distrik Nabire, Kabupaten Nabire, Papua 98815";"Karang Mulia, Distrik Nabire, Kabupaten Nabire";PAPUA;98815;Indonesia;082239591098;;;-33.732.044;1.355.020.229;https://maps.google.com/?cid=0x0:0x83a82b5ace872855;
toko bangunan;Toko Bahan Bangunan;LAMI JAYA;"RQJ2+CVQ, Legari Jaya, Makimi, Kabupaten Nabire, Papua";"Kabupaten Nabire, Papua";PAPUA;;Indonesia;;;;-31.689.125;1.357.522.275;https://maps.google.com/?cid=0x0:0x2a48362bfcb0ab3f;
toko bangunan;Toko Alat-Alat;Tokp Sumber Bangunan;"JGR2+PMJ, Oyehe, Distrik Nabire, Kabupaten Nabire, Papua 98811";"Oyehe, Distrik Nabire, Kabupaten Nabire";PAPUA;98811;Indonesia;098424707;;;-33.581.607;1.355.016.264;https://maps.google.com/?cid=0x0:0x714416b1fcc7b9e7;
toko bangunan;Toko Bahan Bangunan;TOKO BANGUNAN DIKA JAYA;"Jl. Dermaga Aikai. Enarotali Distrik Paniai Timur Kabupaten Paniai. Papua, Aikai, Paniai Tim., Enarotali, Papua 98711";"Aikai, Paniai Tim., Enarotali";PAPUA;98711;Indonesia;081935935177;;;-39.309.089;1.363.727.901;https://maps.google.com/?cid=0x0:0x814ba48a8059765f;
toko bangunan;toko bangunan;TOKO BANGUNAN NABIRE DTA;;;PAPUA;;Indonesia;082215764545;;;-33.650.533;1.355.078.165;https://maps.google.com/?cid=0x0:0x472d11153b9e7ad1;
toko bangunan;Toko Bahan Bangunan;Toko istana bangunan;"Legari Jaya, Makimi, Kabupaten Nabire, Papua 11087";"Makimi, Kabupaten Nabire";PAPUA;11087;Indonesia;;;;-31.686.895;1.357.463.169;https://maps.google.com/?cid=0x0:0xd34d0e614c0d1bbc;
toko bangunan;Toko Bahan Bangunan;TOKO ADIPATI;"X72G+VV9, Unnamed Road, Wagete I, Kec. Tigi, Kabupaten Deiyai, Papua 98764";"Unnamed Road, Wagete I, Kec. Tigi, Kabupaten Deiyai";PAPUA;98764;Indonesia;;;;-40.478.291;1.362.772.267;https://maps.google.com/?cid=0x0:0x5e5f483c1346142a;
toko bangunan;Toko Cat;Toko Bangunan Abid Sejahtera - Waisai;"Jl. Jend. Sudirman No.30, Waisai, Distrik Kota Waisai, Kabupaten Raja Ampat, Papua Bar. 98482";"Waisai, Distrik Kota Waisai, Kabupaten Raja Ampat";PAPUA;98482;Indonesia;082248014806;;;-0.4206038;1.308.216.501;https://maps.google.com/?cid=0x0:0x635cf5cb88ebe389;
toko bangunan;Toko Bahan Bangunan;TOKO RAJAWALI MAS;"Unnamed Road, Wagete I, Kec. Tigi, Kabupaten Deiyai, Papua 98764";"Wagete I, Kec. Tigi, Kabupaten Deiyai";PAPUA;98764;Indonesia;;;;-40.468.695;1.362.813.948;https://maps.google.com/?cid=0x0:0xd7783c1250e8410;
toko bangunan;Toko;Toko Pegunungan Papua Tengah;"Umbutu / Uyubutu / Uwibutu, Paniai Tim., Kabupaten Paniai, Papua 98781";"Paniai Tim., Kabupaten Paniai";PAPUA;98781;Indonesia;;;;-39.452.003;1.364.302.235;https://maps.google.com/?cid=0x0:0x105eae32e4602542;
toko bangunan;Toko Bahan Bangunan;TOKO BANGUNAN DIKA JAYA;"Jl. Dermaga Aikai. Enarotali Distrik Paniai Timur Kabupaten Paniai. Papua, Aikai, Paniai Tim., Enarotali, Papua 98711";"Aikai, Paniai Tim., Enarotali";PAPUA;98711;Indonesia;081935935177;;;-39.309.089;1.363.727.901;https://maps.google.com/?cid=0x0:0x814ba48a8059765f;
toko bangunan;Toko Bahan Bangunan;TOKO ADIPATI;"X72G+VV9, Unnamed Road, Wagete I, Kec. Tigi, Kabupaten Deiyai, Papua 98764";"Unnamed Road, Wagete I, Kec. Tigi, Kabupaten Deiyai";PAPUA;98764;Indonesia;;;;-40.478.291;1.362.772.267;https://maps.google.com/?cid=0x0:0x5e5f483c1346142a;
toko bangunan;toko bangunan;Papua 98715;"Kabupaten Paniai, Papua";"Kabupaten Paniai, Papua";PAPUA;;Indonesia;;;;-38.146.561;1.364.296.942;https://maps.google.com/?cid=0x0:0x49e2a3ef18e7312b;
toko bangunan;Toko;Toko Pegunungan Papua Tengah;"Umbutu / Uyubutu / Uwibutu, Paniai Tim., Kabupaten Paniai, Papua 98781";"Paniai Tim., Kabupaten Paniai";PAPUA;98781;Indonesia;;;;-39.452.003;1.364.302.235;https://maps.google.com/?cid=0x0:0x105eae32e4602542;
toko bangunan;Toko Bahan Bangunan;Toko Bangunan Batu Raden;"Jl. K.H. Mas Mansyur, RT.1/RW.8, Kb. Kacang, Kecamatan Tanah Abang, Kota Jakarta Pusat, Daerah Khusus Ibukota Jakarta 10230";"RT.1/RW.8, Kb. Kacang, Kecamatan Tanah Abang, Kota Jakarta Pusat";PAPUA;10230;Indonesia;;;;-61.926.875;1.068.146.875;https://maps.google.com/?cid=0x0:0xd9057f8cb80c7715;
toko bangunan;Toko Bahan Bangunan;Harapan Makmur;"pulo gebang permai rt.01/04 no:10, RT.13/RW.4, Pulo Gebang, Kec. Cakung, Kota Jakarta Timur, Daerah Khusus Ibukota Jakarta 13950";"RT.13/RW.4, Pulo Gebang, Kec. Cakung, Kota Jakarta Timur";PAPUA;13950;Indonesia;;;;-61.965.532;1.069.548.097;https://maps.google.com/?cid=0x0:0xfc788602c1366326;
toko bangunan;Toko Bahan Bangunan;Toko Bahan Bangunan Utama;"Jl. Kb. Pedes No.2, RT.07/RW.03, Kb. Pedes, Kec. Tanah Sereal, Kota Bogor, Jawa Barat 16162";"RT.07/RW.03, Kb. Pedes, Kec. Tanah Sereal, Kota Bogor";PAPUA;16162;Indonesia;02518335057;;;-65.682.338;106.799.767;https://maps.google.com/?cid=0x0:0xef38080ad714dd8f;
toko bangunan;Toko Bahan Bangunan;Toko Jaya Bangunan;"Jl. Karang Tengah Raya No.46, RT.4/RW.4, Lb. Bulus, Kec. Cilandak, Kota Jakarta Selatan, Daerah Khusus Ibukota Jakarta 16515";"RT.4/RW.4, Lb. Bulus, Kec. Cilandak, Kota Jakarta Selatan";PAPUA;16515;Indonesia;083850311313;;;-63.076.424;1.067.813.135;https://maps.google.com/?cid=0x0:0x9e3502eebd53d310;
toko bangunan;Pemasok Bahan Bangunan;Harapan Makmur JGC;"Ruko the Savoy, Jakarta garden city No.29a blok c2, Cakung Tim., Kec. Cakung, Kota Jakarta Timur, Daerah Khusus Ibukota Jakarta 13910";"Jakarta garden city No.29a blok c2, Cakung Tim., Kec. Cakung, Kota Jakarta Timur";PAPUA;13910;Indonesia;;;;-61.567.762;1.069.646.625;https://maps.google.com/?cid=0x0:0xe70dc6d098c4c88a;
toko bangunan;Toko Bahan Bangunan;"KANDANG KEBO, TB";"Cangkiran, Kec. Mijen, Kota Semarang, Jawa Tengah 50216";"Kec. Mijen, Kota Semarang";PAPUA;50216;Indonesia;085101804080;;;-70.899.327;1.103.081;https://maps.google.com/?cid=0x0:0xd9a17cf0e288d139;
toko bangunan;Toko Bahan Bangunan;TOKO BANGUNAN DIKA JAYA;"Jl. Dermaga Aikai. Enarotali Distrik Paniai Timur Kabupaten Paniai. Papua, Aikai, Paniai Tim., Enarotali, Papua 98711";"Aikai, Paniai Tim., Enarotali";PAPUA;98711;Indonesia;081935935177;;;-39.309.089;1.363.727.901;https://maps.google.com/?cid=0x0:0x814ba48a8059765f;
toko bangunan;Toko Bahan Bangunan;TOKO ADIPATI;"X72G+VV9, Unnamed Road, Wagete I, Kec. Tigi, Kabupaten Deiyai, Papua 98764";"Unnamed Road, Wagete I, Kec. Tigi, Kabupaten Deiyai";PAPUA;98764;Indonesia;;;;-40.478.291;1.362.772.267;https://maps.google.com/?cid=0x0:0x5e5f483c1346142a;
toko bangunan;Toko Bahan Bangunan;Toko Bangunan Batu Raden;"Jl. K.H. Mas Mansyur, RT.1/RW.8, Kb. Kacang, Kecamatan Tanah Abang, Kota Jakarta Pusat, Daerah Khusus Ibukota Jakarta 10230";"RT.1/RW.8, Kb. Kacang, Kecamatan Tanah Abang, Kota Jakarta Pusat";PAPUA;10230;Indonesia;;;;-61.926.875;1.068.146.875;https://maps.google.com/?cid=0x0:0xd9057f8cb80c7715;
toko bangunan;Toko Bahan Bangunan;"KANDANG KEBO, TB";"Cangkiran, Kec. Mijen, Kota Semarang, Jawa Tengah 50216";"Kec. Mijen, Kota Semarang";PAPUA;50216;Indonesia;085101804080;;;-70.899.327;1.103.081;https://maps.google.com/?cid=0x0:0xd9a17cf0e288d139;
toko bangunan;toko bangunan;Papua;;Papua;PAPUA;;Indonesia;;;;-4.269.928;1.380.803.529;https://maps.google.com/?cid=0x0:0xeba94e9c5eefe673;
toko bangunan;Toko Bahan Bangunan;TOKO BANGUNAN DIKA JAYA;"Jl. Dermaga Aikai. Enarotali Distrik Paniai Timur Kabupaten Paniai. Papua, Aikai, Paniai Tim., Enarotali, Papua 98711";"Aikai, Paniai Tim., Enarotali";PAPUA;98711;Indonesia;081935935177;;;-39.309.089;1.363.727.901;https://maps.google.com/?cid=0x0:0x814ba48a8059765f;
toko bangunan;Toko Bahan Bangunan;Supermarket Multi Bangunan;"Jl Baru No.98, Wai Mhorock, Abepura, Jayapura City, Papua 99225";"Wai Mhorock, Abepura, Jayapura City";PAPUA;99225;Indonesia;0967588677;;;-26.077.336;1.406.742.812;https://maps.google.com/?cid=0x0:0x3b19f301c68f1d6f;
toko bangunan;Toko Bahan Bangunan;Toko Bangunan Mutiara timur;"CJ3R+33F, Unnamed Road, Kp. Waena, Kec. Heram, Kota Jayapura, Papua 99225";"Unnamed Road, Kp. Waena, Kec. Heram, Kota Jayapura";PAPUA;99225;Indonesia;;;;-25.973.134;1.406.401.625;https://maps.google.com/?cid=0x0:0x392e56b1342d758c;
toko bangunan;toko bangunan;Toko Mitra Bangunan;"8F8G+WJ5, Karubaga, Kec. Karubaga, Kabupaten Tolikara, Papua 99567";"Karubaga, Kec. Karubaga, Kabupaten Tolikara";PAPUA;99567;Indonesia;081317225643;;;-3.682.733;1.384.766.089;https://maps.google.com/?cid=0x0:0x94f019f9132886e9;
toko bangunan;Toko Bahan Bangunan;TOKO BAHAN BANGUNAN “TRINITY HOME”;"Jalan Baru Pasar Lama, Wahno, Kec. Abepura, Kota Jayapura, Papua 99224";"Wahno, Kec. Abepura, Kota Jayapura";PAPUA;99224;Indonesia;081232337934;;;-25.958.248;1.406.809.957;https://maps.google.com/?cid=0x0:0x41c321d86b054228;
toko bangunan;Toko Bahan Bangunan;Toko Bangunan  Trio NUGRAHA" kertosari";"FCHF+H72, Unnamed Road, Sabron Sari, Distrik Sentani Barat, Kabupaten Jayapura, Papua 99358";"Unnamed Road, Sabron Sari, Distrik Sentani Barat, Kabupaten Jayapura";PAPUA;99358;Indonesia;085254232431;;;-25.211.009;140.423.142;https://maps.google.com/?cid=0x0:0x62fb937eb764d3e;
toko bangunan;Toko Bahan Bangunan;Toko Central Bangunan / AMK;"Jl. Perikanan No.08, Hamadi, Distrik Jayapura Selatan, Kota Jayapura, Papua 99222";"Hamadi, Distrik Jayapura Selatan, Kota Jayapura";PAPUA;99222;Indonesia;082261057928;;;-25.584.767;1.407.173.289;https://maps.google.com/?cid=0x0:0xcfdf592c00fbd20d;
toko bangunan;Toko Bahan Bangunan;Toko Bangunan Karunia Jaya Abadi;"4PCV+PQW, Asiaman, Kec. Arso, Kabupaten Keerom, Papua 99468";"Asiaman, Kec. Arso, Kabupaten Keerom";PAPUA;99468;Indonesia;082238365051;;;-28.781.414;1.407.444.425;https://maps.google.com/?cid=0x0:0xe5cd3a535bf4a26b;
toko bangunan;Toko Bahan Bangunan;Toko Bangunan SUMBER JAYA;"Jl. Hasanuddin, Kamoro Jaya, Kec. Mimika Baru, Kabupaten Mimika, Papua 99971";"Kamoro Jaya, Kec. Mimika Baru, Kabupaten Mimika";PAPUA;99971;Indonesia;08114988263;;;-45.643.753;1.368.653.513;https://maps.google.com/?cid=0x0:0xf69f14940b9de223;
toko bangunan;Toko Bahan Bangunan;Toko Bangunan Arso Jaya;"6Q35+6HV, Jl. Wijaya Kusuma, Arso I. / Sanggaria, Kec. Arso, Kabupaten Keerom, Papua 99468";"Jl. Wijaya Kusuma, Arso I. / Sanggaria, Kec. Arso, Kabupaten Keerom";PAPUA;99468;Indonesia;085244068633;;;-27.968.972;1.407.589.213;https://maps.google.com/?cid=0x0:0x1bf911e0dc6cab7;
toko bangunan;Toko Bahan Bangunan;TOKO YUDHA BANGUNAN 1;"VWXP+H7P, Jl. Bayangkara, Hurekama, Distrik Wamena, Kabupaten Jayawijaya, Papua 99511";"Jl. Bayangkara, Hurekama, Distrik Wamena, Kabupaten Jayawijaya";PAPUA;99511;Indonesia;081344454364;;;-41.010.288;1.389.356.942;https://maps.google.com/?cid=0x0:0xa571c584f4c25eaa;
toko bangunan;Toko Perlengkapan Rumah;Toko Bangunan Alvi Jaya Indah;"4PFV+QH8, Asiaman, Kec. Arso, Kabupaten Keerom, Papua 99468";"Asiaman, Kec. Arso, Kabupaten Keerom";PAPUA;99468;Indonesia;081231225453;;;-2.875.585;14.074.395;https://maps.google.com/?cid=0x0:0x4b6b4fd47483a8a6;
toko bangunan;Toko Bahan Bangunan;Toko Resky;"jalan poros, Kemon Jaya Sp V, Kec. Waropen Bawah, Kabupaten Waropen, Papua 98261";"Kemon Jaya Sp V, Kec. Waropen Bawah, Kabupaten Waropen";PAPUA;98261;Indonesia;085394955553;;;-22.185.432;1.364.200.064;https://maps.google.com/?cid=0x0:0x356450f535852163;
toko bangunan;Toko Alat-Alat;Toko Bintang Kartika (Bangunan dan Alat-alat teknik);"Asano, Kec. Abepura, Kota Jayapura, Papua 99351";"Kec. Abepura, Kota Jayapura";PAPUA;99351;Indonesia;081248299871;;;-26.160.666;1.406.801.787;https://maps.google.com/?cid=0x0:0x8b4cf020d19f2b0b;
toko bangunan;Toko Bahan Bangunan;Toko Bangunan Agung Papua;"CJ2P+W8F, Jl. Raya Waena, Kp. Waena, Kec. Heram, Kota Jayapura, Papua 99351";"Jl. Raya Waena, Kp. Waena, Kec. Heram, Kota Jayapura";PAPUA;99351;Indonesia;;;;-25.976.776;1.406.357.935;https://maps.google.com/?cid=0x0:0xe204736893cd26aa;
toko bangunan;Toko Bahan Bangunan;Toko Bangunan Abadi Mandiri;"Jalan Poros Kakap Selatan, Jaifuri, Kec. Arso, Kabupaten Keerom, Papua 99468";"Jaifuri, Kec. Arso, Kabupaten Keerom";PAPUA;99468;Indonesia;;;;-27.865.811;1.406.195.175;https://maps.google.com/?cid=0x0:0xae359660efbce11c;
toko bangunan;Toko Bahan Bangunan;"Papua Bangunan, CV PAPUA ABADI";"Jl. Basuki Rahmat No.780, Klawuyuk, Distrik Sorong Timur, Kota Sorong, Papua Bar. 98416";"Klawuyuk, Distrik Sorong Timur, Kota Sorong";PAPUA;98416;Indonesia;081332017550;;;-0.8954087;1.313.186.922;https://maps.google.com/?cid=0x0:0x851804bc3aa7f033;
toko bangunan;Toko;TOBA JAYA;"7XRF+RFM, Pruleme, Distrik Mulia, Kabupaten Puncak Jaya, Papua 98973";"Pruleme, Distrik Mulia, Kabupaten Puncak Jaya";PAPUA;98973;Indonesia;;;;-37.079.207;137.973.681;https://maps.google.com/?cid=0x0:0x9cdd6c701aaec095;
toko bangunan;Pemotongan Kayu;Kayu Somel;"CPQ5+XV7, Jl. Tasangkapura, Hamadi, Distrik Jayapura Selatan, Kota Jayapura, Papua";"Kota Jayapura, Papua";PAPUA;;Indonesia;081344206726;;;-25.600.866;1.407.096.744;https://maps.google.com/?cid=0x0:0x43373a0a82b8f691;
toko bangunan;Toko Bahan Bangunan;TOKO ADIPATI;"X72G+VV9, Unnamed Road, Wagete I, Kec. Tigi, Kabupaten Deiyai, Papua 98764";"Unnamed Road, Wagete I, Kec. Tigi, Kabupaten Deiyai";PAPUA;98764;Indonesia;;;;-40.478.291;1.362.772.267;https://maps.google.com/?cid=0x0:0x5e5f483c1346142a;
toko bangunan;Toko Bahan Bangunan;Harapan Makmur;"pulo gebang permai rt.01/04 no:10, RT.13/RW.4, Pulo Gebang, Kec. Cakung, Kota Jakarta Timur, Daerah Khusus Ibukota Jakarta 13950";"RT.13/RW.4, Pulo Gebang, Kec. Cakung, Kota Jakarta Timur";PAPUA;13950;Indonesia;;;;-61.965.532;1.069.548.097;https://maps.google.com/?cid=0x0:0xfc788602c1366326;
toko bangunan;Toko Bahan Bangunan;Toko Jaya Bangunan;"Jl. Karang Tengah Raya No.46, RT.4/RW.4, Lb. Bulus, Kec. Cilandak, Kota Jakarta Selatan, Daerah Khusus Ibukota Jakarta 16515";"RT.4/RW.4, Lb. Bulus, Kec. Cilandak, Kota Jakarta Selatan";PAPUA;16515;Indonesia;083850311313;;;-63.076.424;1.067.813.135;https://maps.google.com/?cid=0x0:0x9e3502eebd53d310;
toko bangunan;Toko Bahan Bangunan;Toko Bahan Bangunan Utama;"Jl. Kb. Pedes No.2, RT.07/RW.03, Kb. Pedes, Kec. Tanah Sereal, Kota Bogor, Jawa Barat 16162";"RT.07/RW.03, Kb. Pedes, Kec. Tanah Sereal, Kota Bogor";PAPUA;16162;Indonesia;02518335057;;;-65.682.338;106.799.767;https://maps.google.com/?cid=0x0:0xef38080ad714dd8f;
toko bangunan;Pemasok Bahan Bangunan;Harapan Makmur JGC;"Ruko the Savoy, Jakarta garden city No.29a blok c2, Cakung Tim., Kec. Cakung, Kota Jakarta Timur, Daerah Khusus Ibukota Jakarta 13910";"Jakarta garden city No.29a blok c2, Cakung Tim., Kec. Cakung, Kota Jakarta Timur";PAPUA;13910;Indonesia;;;;-61.567.762;1.069.646.625;https://maps.google.com/?cid=0x0:0xe70dc6d098c4c88a;
toko bangunan;Toko Bahan Bangunan;"KANDANG KEBO, TB";"Cangkiran, Kec. Mijen, Kota Semarang, Jawa Tengah 50216";"Kec. Mijen, Kota Semarang";PAPUA;50216;Indonesia;085101804080;;;-70.899.327;1.103.081;https://maps.google.com/?cid=0x0:0xd9a17cf0e288d139;
toko bangunan;Toko Bahan Bangunan;TOKO BANGUNAN DIKA JAYA;"Jl. Dermaga Aikai. Enarotali Distrik Paniai Timur Kabupaten Paniai. Papua, Aikai, Paniai Tim., Enarotali, Papua 98711";"Aikai, Paniai Tim., Enarotali";PAPUA;98711;Indonesia;081935935177;;;-39.309.089;1.363.727.901;https://maps.google.com/?cid=0x0:0x814ba48a8059765f;
toko bangunan;Toko Bahan Bangunan;TOKO ADIPATI;"X72G+VV9, Unnamed Road, Wagete I, Kec. Tigi, Kabupaten Deiyai, Papua 98764";"Unnamed Road, Wagete I, Kec. Tigi, Kabupaten Deiyai";PAPUA;98764;Indonesia;;;;-40.478.291;1.362.772.267;https://maps.google.com/?cid=0x0:0x5e5f483c1346142a;
toko bangunan;Toko Bahan Bangunan;Harapan Makmur;"pulo gebang permai rt.01/04 no:10, RT.13/RW.4, Pulo Gebang, Kec. Cakung, Kota Jakarta Timur, Daerah Khusus Ibukota Jakarta 13950";"RT.13/RW.4, Pulo Gebang, Kec. Cakung, Kota Jakarta Timur";PAPUA;13950;Indonesia;;;;-61.965.532;1.069.548.097;https://maps.google.com/?cid=0x0:0xfc788602c1366326;
toko bangunan;Toko Bahan Bangunan;TOKO BANGUNAN DIKA JAYA;"Jl. Dermaga Aikai. Enarotali Distrik Paniai Timur Kabupaten Paniai. Papua, Aikai, Paniai Tim., Enarotali, Papua 98711";"Aikai, Paniai Tim., Enarotali";PAPUA;98711;Indonesia;081935935177;;;-39.309.089;1.363.727.901;https://maps.google.com/?cid=0x0:0x814ba48a8059765f;
toko bangunan;Toko Bahan Bangunan;TOKO ADIPATI;"X72G+VV9, Unnamed Road, Wagete I, Kec. Tigi, Kabupaten Deiyai, Papua 98764";"Unnamed Road, Wagete I, Kec. Tigi, Kabupaten Deiyai";PAPUA;98764;Indonesia;;;;-40.478.291;1.362.772.267;https://maps.google.com/?cid=0x0:0x5e5f483c1346142a;
toko bangunan;toko bangunan;Papua 98722;"Paniai Tim., Kabupaten Paniai, Papua";"Kabupaten Paniai, Papua";PAPUA;;Indonesia;;;;-39.261.758;1.365.066.359;https://maps.google.com/?cid=0x0:0xc8074bbd911fd05a;
toko bangunan;Toko;Toko Pegunungan Papua Tengah;"Umbutu / Uyubutu / Uwibutu, Paniai Tim., Kabupaten Paniai, Papua 98781";"Paniai Tim., Kabupaten Paniai";PAPUA;98781;Indonesia;;;;-39.452.003;1.364.302.235;https://maps.google.com/?cid=0x0:0x105eae32e4602542;
toko bangunan;Toko Bahan Bangunan;Toko Bahan Bangunan Utama;"Jl. Kb. Pedes No.2, RT.07/RW.03, Kb. Pedes, Kec. Tanah Sereal, Kota Bogor, Jawa Barat 16162";"RT.07/RW.03, Kb. Pedes, Kec. Tanah Sereal, Kota Bogor";PAPUA;16162;Indonesia;02518335057;;;-65.682.338;106.799.767;https://maps.google.com/?cid=0x0:0xef38080ad714dd8f;
toko bangunan;Toko Bahan Bangunan;TOKO UTAMA KEBON PEDES;"Jl. Kb. Pedes No.2, RT.03/RW.08, Kedungbadak, Kec. Bogor Utara, Kota Bogor, Jawa Barat 16124";"RT.03/RW.08, Kedungbadak, Kec. Bogor Utara, Kota Bogor";PAPUA;16124;Indonesia;0818748864;;;-6.564.859;106.801.918;https://maps.google.com/?cid=0x0:0x31eb080d7b628893;
toko bangunan;Toko Bahan Bangunan;TOKO BANGUNAN DIKA JAYA;"Jl. Dermaga Aikai. Enarotali Distrik Paniai Timur Kabupaten Paniai. Papua, Aikai, Paniai Tim., Enarotali, Papua 98711";"Aikai, Paniai Tim., Enarotali";PAPUA;98711;Indonesia;081935935177;;;-39.309.089;1.363.727.901;https://maps.google.com/?cid=0x0:0x814ba48a8059765f;
toko bangunan;toko bangunan;Papua 98723;"Kebo, Kabupaten Paniai, Papua";"Kabupaten Paniai, Papua";PAPUA;;Indonesia;;;;-3.811.015;1.363.720.666;https://maps.google.com/?cid=0x0:0xfa8d4ab6a47490f0;
toko bangunan;Toko Bahan Bangunan;TOKO ADIPATI;"X72G+VV9, Unnamed Road, Wagete I, Kec. Tigi, Kabupaten Deiyai, Papua 98764";"Unnamed Road, Wagete I, Kec. Tigi, Kabupaten Deiyai";PAPUA;98764;Indonesia;;;;-40.478.291;1.362.772.267;https://maps.google.com/?cid=0x0:0x5e5f483c1346142a;
toko bangunan;Toko Bahan Bangunan;Toko Bangunan Mitra Kita (kapuk);"13, Jl. Kapuk Kayu Besar No.35 A, RT.13/RW.11, Cengkareng Tim., Kecamatan Cengkareng, Kota Jakarta Barat, Daerah Khusus Ibukota Jakarta 11730";"Jl. Kapuk Kayu Besar No.35 A, RT.13/RW.11, Cengkareng Tim., Kecamatan Cengkareng, Kota Jakarta Barat";PAPUA;11730;Indonesia;081803878788;;;-61.229.512;1.067.329.576;https://maps.google.com/?cid=0x0:0x6dd4da837c3adf4d;
toko bangunan;Toko Bahan Bangunan;Toko Jaya Bangunan;"Jl. Karang Tengah Raya No.46, RT.4/RW.4, Lb. Bulus, Kec. Cilandak, Kota Jakarta Selatan, Daerah Khusus Ibukota Jakarta 16515";"RT.4/RW.4, Lb. Bulus, Kec. Cilandak, Kota Jakarta Selatan";PAPUA;16515;Indonesia;083850311313;;;-63.076.424;1.067.813.135;https://maps.google.com/?cid=0x0:0x9e3502eebd53d310;
toko bangunan;toko bangunan;Papua 98715;"Kabupaten Paniai, Papua";"Kabupaten Paniai, Papua";PAPUA;;Indonesia;;;;-38.146.561;1.364.296.942;https://maps.google.com/?cid=0x0:0x49e2a3ef18e7312b;
toko bangunan;Toko Bahan Bangunan;TOKO BANGUNAN DIKA JAYA;"Jl. Dermaga Aikai. Enarotali Distrik Paniai Timur Kabupaten Paniai. Papua, Aikai, Paniai Tim., Enarotali, Papua 98711";"Aikai, Paniai Tim., Enarotali";PAPUA;98711;Indonesia;081935935177;;;-39.309.089;1.363.727.901;https://maps.google.com/?cid=0x0:0x814ba48a8059765f;
toko bangunan;Toko Bahan Bangunan;TOKO SUMBER NIAGA BANGUNAN;"Timika Jaya, Kec. Mimika Baru, Kabupaten Mimika, Papua 99971";"Kec. Mimika Baru, Kabupaten Mimika";PAPUA;99971;Indonesia;0856095797670;;;-4.569.129;136.878.701;https://maps.google.com/?cid=0x0:0xcd18f7af7f50af74;
toko bangunan;Toko Bahan Bangunan;CV. CAHAYA DUNIA BANGUNAN TIMIKA;"Seberang Rumah Sakit Herlina, Jl. Jend. Ahmad Yani No.99, Kwamki, Kec. Mimika Baru, Kabupaten Mimika, Papua 99971";"Jl. Jend. Ahmad Yani No.99, Kwamki, Kec. Mimika Baru, Kabupaten Mimika";PAPUA;99971;Indonesia;082399400332;;;-45.432.865;1.368.943.957;https://maps.google.com/?cid=0x0:0x13550316277e7497;
toko bangunan;Toko Bahan Bangunan;Toko bangunan mitra papua bersama;"CVMF+R76, Jl. Hasanuddin, Timika Jaya, Kec. Mimika Baru, Kabupaten Mimika, Papua";"Kabupaten Mimika, Papua";PAPUA;;Indonesia;;;;-45.654.595;1.368.731.414;https://maps.google.com/?cid=0x0:0x249908e6da6a2c28;
toko bangunan;Toko Mebel;Toko Lima utama;"X2QP+7FV, Kimupugi, Kec. Kamu, Kabupaten Dogiyai, Papua 98862";"Kimupugi, Kec. Kamu, Kabupaten Dogiyai";PAPUA;98862;Indonesia;;;;-40.117.335;1.360.360.948;https://maps.google.com/?cid=0x0:0xc8d46643286e1f7c;
toko bangunan;Toko Bahan Bangunan;TOKO TAKAMURAH TIMIKA;"Nawaripi, Kec. Mimika Baru, Kabupaten Mimika, Papua 99971";"Kec. Mimika Baru, Kabupaten Mimika";PAPUA;99971;Indonesia;081334703020;;;-45.656.159;1.368.757.489;https://maps.google.com/?cid=0x0:0xe52ef653870e1142;
toko bangunan;Toko Bahan Bangunan;Toko Bangunan Serbaguna;"Sebelah Bank Danamon, Jl. Yos Sudarso No.38, Nawaripi, Kec. Mimika Baru, Kabupaten Mimika, Papua 99971";"Jl. Yos Sudarso No.38, Nawaripi, Kec. Mimika Baru, Kabupaten Mimika";PAPUA;99971;Indonesia;081247822620;;;-45.525.922;1.368.891.711;https://maps.google.com/?cid=0x0:0x5ac210539308bc1b;
toko bangunan;Toko Bahan Bangunan;TOKO bangunan TANETE;"FV5J+76V, Timika Jaya, Kec. Mimika Baru, Kabupaten Mimika, Papua 99971";"Timika Jaya, Kec. Mimika Baru, Kabupaten Mimika";PAPUA;99971;Indonesia;081240257889;;;-45.417.578;1.368.805.502;https://maps.google.com/?cid=0x0:0x2430321c278c3c39;
toko bangunan;Toko Bahan Bangunan;Tb. Artha Mulia;"Jl. Hasanuddin No.9, Nawaripi, Kec. Mimika Baru, Kabupaten Mimika, Papua 99971";"Nawaripi, Kec. Mimika Baru, Kabupaten Mimika";PAPUA;99971;Indonesia;082237315555;;;-45.664.916;1.368.807.281;https://maps.google.com/?cid=0x0:0xf8cf8fbeb5ba1cf3;
toko bangunan;Toko Bahan Bangunan;GUNAWAN BANGUNAN;"CV4C+H7R, Kamoro Jaya, Kec. Mimika Baru, Kabupaten Mimika, Papua 99971";"Kamoro Jaya, Kec. Mimika Baru, Kabupaten Mimika";PAPUA;99971;Indonesia;081370188618;;;-45.935.118;1.368.706.439;https://maps.google.com/?cid=0x0:0xbc79b89b16b084a;
toko bangunan;Toko Bahan Bangunan;Supermarket Multi Bangunan;"Jl Baru No.98, Wai Mhorock, Abepura, Jayapura City, Papua 99225";"Wai Mhorock, Abepura, Jayapura City";PAPUA;99225;Indonesia;0967588677;;;-26.077.336;1.406.742.812;https://maps.google.com/?cid=0x0:0x3b19f301c68f1d6f;
toko bangunan;Toko Bahan Bangunan;Toko Duta Bangunan;"Jalan Sempan Nawaripi, Inauga, Kec. Mimika Baru, Kabupaten Mimika, Papua 99971";"Inauga, Kec. Mimika Baru, Kabupaten Mimika";PAPUA;99971;Indonesia;;;;-4.573.777;136.883.006;https://maps.google.com/?cid=0x0:0xcf9557e74c78736d;
toko bangunan;Pasar bahan bangunan;Toko Material Rizquna Abadi;"Karang Senang, Kec. Kuala Kencana, Kabupaten Mimika, Papua 99910";"Kec. Kuala Kencana, Kabupaten Mimika";PAPUA;99910;Indonesia;;;;-44.793.362;1.368.495.766;https://maps.google.com/?cid=0x0:0xc18e7b5c4d2c92d9;
toko bangunan;Toko Bahan Bangunan;Toko Bangunan Tetus Papua;"CVFF+528, Jl. Budi Utomo, Nawaripi, Kec. Mimika Baru, Kabupaten Mimika, Papua";"Kabupaten Mimika, Papua";PAPUA;;Indonesia;081344834492;;;-4.577.093;1.368.725.648;https://maps.google.com/?cid=0x0:0x70179859b1a22306;
toko bangunan;Toko Bahan Bangunan;Toko Bangunan SUMBER JAYA;"Jl. Hasanuddin, Kamoro Jaya, Kec. Mimika Baru, Kabupaten Mimika, Papua 99971";"Kamoro Jaya, Kec. Mimika Baru, Kabupaten Mimika";PAPUA;99971;Indonesia;08114988263;;;-45.643.753;1.368.653.513;https://maps.google.com/?cid=0x0:0xf69f14940b9de223;
toko bangunan;Toko Bahan Bangunan;Toko Bangunan Mutiara timur;"CJ3R+33F, Unnamed Road, Kp. Waena, Kec. Heram, Kota Jayapura, Papua 99225";"Unnamed Road, Kp. Waena, Kec. Heram, Kota Jayapura";PAPUA;99225;Indonesia;;;;-25.973.134;1.406.401.625;https://maps.google.com/?cid=0x0:0x392e56b1342d758c;
toko bangunan;Toko Bahan Bangunan;CV. XA TRIO JAYA;"Jl. Cendrawasih Sp2, Simpang Lima, Kec. Mimika Baru, Kabupaten Mimika, Papua";"Kabupaten Mimika, Papua";PAPUA;;Indonesia;085244282610;;;-45.154.756;1.368.496.527;https://maps.google.com/?cid=0x0:0x49e9d0a78fcf7509;
toko bangunan;Pemasok Bahan Bangunan;toko bangun nusantara;"CVJP+PHG, Nawaripi, Kec. Mimika Baru, Kabupaten Mimika, Papua 99971";"Nawaripi, Kec. Mimika Baru, Kabupaten Mimika";PAPUA;99971;Indonesia;081230986888;;;-45.681.877;136.886.467;https://maps.google.com/?cid=0x0:0xf98d3361fd0298e0;
toko bangunan;Toko Bahan Bangunan;Toko Duta Jaya Timika;"Jl. Hasanuddin No.65, Nawaripi, Kec. Mimika Baru, Kabupaten Mimika, Papua 99971";"Nawaripi, Kec. Mimika Baru, Kabupaten Mimika";PAPUA;99971;Indonesia;083169724040;;;-45.660.452;1.368.782.346;https://maps.google.com/?cid=0x0:0xc66af04cd17547d0;
toko bangunan;Toko Bahan Bangunan;Toko Damai;"FV3P+6R5, Jl. Belibis, Kwamki, Kec. Mimika Baru, Kabupaten Mimika, Papua 99971";"Jl. Belibis, Kwamki, Kec. Mimika Baru, Kabupaten Mimika";PAPUA;99971;Indonesia;081344795082;;;-45.469.931;1.368.871.162;https://maps.google.com/?cid=0x0:0x45bb93256b67b42e;
toko bangunan;Toko;Toko Pegunungan Papua Tengah;"Umbutu / Uyubutu / Uwibutu, Paniai Tim., Kabupaten Paniai, Papua 98781";"Paniai Tim., Kabupaten Paniai";PAPUA;98781;Indonesia;;;;-39.452.003;1.364.302.235;https://maps.google.com/?cid=0x0:0x105eae32e4602542;
toko bangunan;Toko Bahan Bangunan;TOKO ADIPATI;"X72G+VV9, Unnamed Road, Wagete I, Kec. Tigi, Kabupaten Deiyai, Papua 98764";"Unnamed Road, Wagete I, Kec. Tigi, Kabupaten Deiyai";PAPUA;98764;Indonesia;;;;-40.478.291;1.362.772.267;https://maps.google.com/?cid=0x0:0x5e5f483c1346142a;
toko bangunan;Toko Bahan Bangunan;TOKO BANGUNAN DIKA JAYA;"Jl. Dermaga Aikai. Enarotali Distrik Paniai Timur Kabupaten Paniai. Papua, Aikai, Paniai Tim., Enarotali, Papua 98711";"Aikai, Paniai Tim., Enarotali";PAPUA;98711;Indonesia;081935935177;;;-39.309.089;1.363.727.901;https://maps.google.com/?cid=0x0:0x814ba48a8059765f;
toko bangunan;Toko Bahan Bangunan;TOKO ADIPATI;"X72G+VV9, Unnamed Road, Wagete I, Kec. Tigi, Kabupaten Deiyai, Papua 98764";"Unnamed Road, Wagete I, Kec. Tigi, Kabupaten Deiyai";PAPUA;98764;Indonesia;;;;-40.478.291;1.362.772.267;https://maps.google.com/?cid=0x0:0x5e5f483c1346142a;
toko bangunan;toko bangunan;Papua 98726;"Kabupaten Paniai, Papua";"Kabupaten Paniai, Papua";PAPUA;;Indonesia;;;;-39.264.117;1.362.761.704;https://maps.google.com/?cid=0x0:0x51a62be53f847ea;
toko bangunan;Toko Bahan Bangunan;TOKO BANGUNAN DIKA JAYA;"Jl. Dermaga Aikai. Enarotali Distrik Paniai Timur Kabupaten Paniai. Papua, Aikai, Paniai Tim., Enarotali, Papua 98711";"Aikai, Paniai Tim., Enarotali";PAPUA;98711;Indonesia;081935935177;;;-39.309.089;1.363.727.901;https://maps.google.com/?cid=0x0:0x814ba48a8059765f;
toko bangunan;Toko;Toko Pegunungan Papua Tengah;"Umbutu / Uyubutu / Uwibutu, Paniai Tim., Kabupaten Paniai, Papua 98781";"Paniai Tim., Kabupaten Paniai";PAPUA;98781;Indonesia;;;;-39.452.003;1.364.302.235;https://maps.google.com/?cid=0x0:0x105eae32e4602542;
hardware store;hardware store;Papua 98763;"Kabupaten Paniai, Papua";"Kabupaten Paniai, Papua";PAPUA;;Indonesia;;;;-37.991.853;1.363.049.196;https://maps.google.com/?cid=0x0:0x8e322f542c113cfe;
hardware store;Toko Bahan Bangunan;TOKO BANGUNAN DIKA JAYA;"Jl. Dermaga Aikai. Enarotali Distrik Paniai Timur Kabupaten Paniai. Papua, Aikai, Paniai Tim., Enarotali, Papua 98711";"Aikai, Paniai Tim., Enarotali";PAPUA;98711;Indonesia;081935935177;;;-39.309.089;1.363.727.901;https://maps.google.com/?cid=0x0:0x814ba48a8059765f;
hardware store;Toko;Toko Pegunungan Papua Tengah;"Umbutu / Uyubutu / Uwibutu, Paniai Tim., Kabupaten Paniai, Papua 98781";"Paniai Tim., Kabupaten Paniai";PAPUA;98781;Indonesia;;;;-39.452.003;1.364.302.235;https://maps.google.com/?cid=0x0:0x105eae32e4602542;
hardware store;Toko;Toko Pegunungan Papua Tengah;"Umbutu / Uyubutu / Uwibutu, Paniai Tim., Kabupaten Paniai, Papua 98781";"Paniai Tim., Kabupaten Paniai";PAPUA;98781;Indonesia;;;;-39.452.003;1.364.302.235;https://maps.google.com/?cid=0x0:0x105eae32e4602542;
hardware store;Pusat Perbelanjaan;KIOS QANITAH;"Umbutu / Uyubutu / Uwibutu, UWIBUTU, Kabupaten Paniai, Papua 98711";"UWIBUTU, Kabupaten Paniai";PAPUA;98711;Indonesia;085298817733;;;-39.443.439;1.364.305.187;https://maps.google.com/?cid=0x0:0xfe28560b049fae1;
hardware store;hardware store;Papua 98712;"Kabupaten Paniai, Papua";"Kabupaten Paniai, Papua";PAPUA;;Indonesia;;;;-38.602.755;1.364.296.942;https://maps.google.com/?cid=0x0:0xec5046199ceddbff;
hardware store;Toko Bahan Bangunan;TOKO BANGUNAN DIKA JAYA;"Jl. Dermaga Aikai. Enarotali Distrik Paniai Timur Kabupaten Paniai. Papua, Aikai, Paniai Tim., Enarotali, Papua 98711";"Aikai, Paniai Tim., Enarotali";PAPUA;98711;Indonesia;081935935177;;;-39.309.089;1.363.727.901;https://maps.google.com/?cid=0x0:0x814ba48a8059765f;
hardware store;Toko;Toko Pegunungan Papua Tengah;"Umbutu / Uyubutu / Uwibutu, Paniai Tim., Kabupaten Paniai, Papua 98781";"Paniai Tim., Kabupaten Paniai";PAPUA;98781;Indonesia;;;;-39.452.003;1.364.302.235;https://maps.google.com/?cid=0x0:0x105eae32e4602542;
hardware store;hardware store;Papua 98713;"Kabupaten Paniai, Papua";"Kabupaten Paniai, Papua";PAPUA;;Indonesia;;;;-38.981.462;1.365.451.516;https://maps.google.com/?cid=0x0:0xca9b38a4a50ba077;
hardware store;Toko Bahan Bangunan;TOKO BANGUNAN DIKA JAYA;"Jl. Dermaga Aikai. Enarotali Distrik Paniai Timur Kabupaten Paniai. Papua, Aikai, Paniai Tim., Enarotali, Papua 98711";"Aikai, Paniai Tim., Enarotali";PAPUA;98711;Indonesia;081935935177;;;-39.309.089;1.363.727.901;https://maps.google.com/?cid=0x0:0x814ba48a8059765f;
hardware store;Toko;Toko Pegunungan Papua Tengah;"Umbutu / Uyubutu / Uwibutu, Paniai Tim., Kabupaten Paniai, Papua 98781";"Paniai Tim., Kabupaten Paniai";PAPUA;98781;Indonesia;;;;-39.452.003;1.364.302.235;https://maps.google.com/?cid=0x0:0x105eae32e4602542;
hardware store;Toko;Toko Pegunungan Papua Tengah;"Umbutu / Uyubutu / Uwibutu, Paniai Tim., Kabupaten Paniai, Papua 98781";"Paniai Tim., Kabupaten Paniai";PAPUA;98781;Indonesia;;;;-39.452.003;1.364.302.235;https://maps.google.com/?cid=0x0:0x105eae32e4602542;
hardware store;Pusat Perbelanjaan;KIOS QANITAH;"Umbutu / Uyubutu / Uwibutu, UWIBUTU, Kabupaten Paniai, Papua 98711";"UWIBUTU, Kabupaten Paniai";PAPUA;98711;Indonesia;085298817733;;;-39.443.439;1.364.305.187;https://maps.google.com/?cid=0x0:0xfe28560b049fae1;
hardware store;hardware store;Paniai Tim.;"Kabupaten Paniai, Papua";"Kabupaten Paniai, Papua";PAPUA;;Indonesia;;;;-39.293.592;1.363.780.656;https://maps.google.com/?cid=0x0:0x7f04dacf9b212bec;
hardware store;Toko Bahan Bangunan;TOKO BANGUNAN DIKA JAYA;"Jl. Dermaga Aikai. Enarotali Distrik Paniai Timur Kabupaten Paniai. Papua, Aikai, Paniai Tim., Enarotali, Papua 98711";"Aikai, Paniai Tim., Enarotali";PAPUA;98711;Indonesia;081935935177;;;-39.309.089;1.363.727.901;https://maps.google.com/?cid=0x0:0x814ba48a8059765f;
hardware store;hardware store;Papua 98715;"Kabupaten Paniai, Papua";"Kabupaten Paniai, Papua";PAPUA;;Indonesia;;;;-38.146.561;1.364.296.942;https://maps.google.com/?cid=0x0:0x49e2a3ef18e7312b;
hardware store;Toko;Toko Pegunungan Papua Tengah;"Umbutu / Uyubutu / Uwibutu, Paniai Tim., Kabupaten Paniai, Papua 98781";"Paniai Tim., Kabupaten Paniai";PAPUA;98781;Indonesia;;;;-39.452.003;1.364.302.235;https://maps.google.com/?cid=0x0:0x105eae32e4602542;
hardware store;hardware store;Papua 98716;"Distrik Ekadide, Kabupaten Paniai, Papua";"Kabupaten Paniai, Papua";PAPUA;;Indonesia;;;;-38.487.333;1.364.873.892;https://maps.google.com/?cid=0x0:0x83969942f885abae;
hardware store;Toko Bahan Bangunan;TOKO BANGUNAN DIKA JAYA;"Jl. Dermaga Aikai. Enarotali Distrik Paniai Timur Kabupaten Paniai. Papua, Aikai, Paniai Tim., Enarotali, Papua 98711";"Aikai, Paniai Tim., Enarotali";PAPUA;98711;Indonesia;081935935177;;;-39.309.089;1.363.727.901;https://maps.google.com/?cid=0x0:0x814ba48a8059765f;
hardware store;Toko;Toko Pegunungan Papua Tengah;"Umbutu / Uyubutu / Uwibutu, Paniai Tim., Kabupaten Paniai, Papua 98781";"Paniai Tim., Kabupaten Paniai";PAPUA;98781;Indonesia;;;;-39.452.003;1.364.302.235;https://maps.google.com/?cid=0x0:0x105eae32e4602542;
hardware store;Toko;Toko Pegunungan Papua Tengah;"Umbutu / Uyubutu / Uwibutu, Paniai Tim., Kabupaten Paniai, Papua 98781";"Paniai Tim., Kabupaten Paniai";PAPUA;98781;Indonesia;;;;-39.452.003;1.364.302.235;https://maps.google.com/?cid=0x0:0x105eae32e4602542;
hardware store;Pusat Perbelanjaan;KIOS QANITAH;"Umbutu / Uyubutu / Uwibutu, UWIBUTU, Kabupaten Paniai, Papua 98711";"UWIBUTU, Kabupaten Paniai";PAPUA;98711;Indonesia;085298817733;;;-39.443.439;1.364.305.187;https://maps.google.com/?cid=0x0:0xfe28560b049fae1;
hardware store;hardware store;Paniai Tim.;"Kabupaten Paniai, Papua";"Kabupaten Paniai, Papua";PAPUA;;Indonesia;;;;-39.293.592;1.363.780.656;https://maps.google.com/?cid=0x0:0x7f04dacf9b212bec;
hardware store;hardware store;Papua 98722;"Paniai Tim., Kabupaten Paniai, Papua";"Kabupaten Paniai, Papua";PAPUA;;Indonesia;;;;-39.261.758;1.365.066.359;https://maps.google.com/?cid=0x0:0xc8074bbd911fd05a;
hardware store;Toko;Toko Pegunungan Papua Tengah;"Umbutu / Uyubutu / Uwibutu, Paniai Tim., Kabupaten Paniai, Papua 98781";"Paniai Tim., Kabupaten Paniai";PAPUA;98781;Indonesia;;;;-39.452.003;1.364.302.235;https://maps.google.com/?cid=0x0:0x105eae32e4602542;
hardware store;Toko Bahan Bangunan;TOKO BANGUNAN DIKA JAYA;"Jl. Dermaga Aikai. Enarotali Distrik Paniai Timur Kabupaten Paniai. Papua, Aikai, Paniai Tim., Enarotali, Papua 98711";"Aikai, Paniai Tim., Enarotali";PAPUA;98711;Indonesia;081935935177;;;-39.309.089;1.363.727.901;https://maps.google.com/?cid=0x0:0x814ba48a8059765f;
hardware store;hardware store;Paniai Tim.;"Kabupaten Paniai, Papua";"Kabupaten Paniai, Papua";PAPUA;;Indonesia;;;;-39.293.592;1.363.780.656;https://maps.google.com/?cid=0x0:0x7f04dacf9b212bec;
hardware store;Toko;Toko Pegunungan Papua Tengah;"Umbutu / Uyubutu / Uwibutu, Paniai Tim., Kabupaten Paniai, Papua 98781";"Paniai Tim., Kabupaten Paniai";PAPUA;98781;Indonesia;;;;-39.452.003;1.364.302.235;https://maps.google.com/?cid=0x0:0x105eae32e4602542;
hardware store;Toko Bahan Bangunan;TOKO BANGUNAN DIKA JAYA;"Jl. Dermaga Aikai. Enarotali Distrik Paniai Timur Kabupaten Paniai. Papua, Aikai, Paniai Tim., Enarotali, Papua 98711";"Aikai, Paniai Tim., Enarotali";PAPUA;98711;Indonesia;081935935177;;;-39.309.089;1.363.727.901;https://maps.google.com/?cid=0x0:0x814ba48a8059765f;
hardware store;Kantor Pemerintah;Koramil Aradide;"5FPH+PWR, Abatadi, Kec. Aradide, Kabupaten Paniai, Papua 98766";"Abatadi, Kec. Aradide, Kabupaten Paniai";PAPUA;98766;Indonesia;;;;-38.120.494;1.364.796.338;https://maps.google.com/?cid=0x0:0x3acd917dc994739;
hardware store;Kantor Pemerintah;Kantor Distrik Aradide;"5FPH+PWR, Abatadi, Kec. Aradide, Kabupaten Paniai, Papua 98766";"Abatadi, Kec. Aradide, Kabupaten Paniai";PAPUA;98766;Indonesia;;;;-38.124.425;1.364.796.674;https://maps.google.com/?cid=0x0:0x4918d32260a8c670;
hardware store;Toko;Toko Pegunungan Papua Tengah;"Umbutu / Uyubutu / Uwibutu, Paniai Tim., Kabupaten Paniai, Papua 98781";"Paniai Tim., Kabupaten Paniai";PAPUA;98781;Indonesia;;;;-39.452.003;1.364.302.235;https://maps.google.com/?cid=0x0:0x105eae32e4602542;
hardware store;Pusat Perbelanjaan;KIOS QANITAH;"Umbutu / Uyubutu / Uwibutu, UWIBUTU, Kabupaten Paniai, Papua 98711";"UWIBUTU, Kabupaten Paniai";PAPUA;98711;Indonesia;085298817733;;;-39.443.439;1.364.305.187;https://maps.google.com/?cid=0x0:0xfe28560b049fae1;
hardware store;Toko Bahan Bangunan;IDEAL Hardware Badili;"G5CH+P4V, Port Moresby National Capital District, Papua Nugini";"Port Moresby, Papua Nugini";PAPUA;;Indonesia;67572020480;;;-94.781.441;1.471.778.033;https://maps.google.com/?cid=0x0:0xf8d36581cad3bd15;
hardware store;Toko Bahan Bangunan;IDEAL Hardware Erima;"H663+G96, Hubert Murray Hwy, Port Moresby National Capital District, Papua Nugini";"Port Moresby, Papua Nugini";PAPUA;;Indonesia;;;;-94.387.057;1.472.033.947;https://maps.google.com/?cid=0x0:0xb0747cd07f864f3;
hardware store;Toko Bahan Bangunan;IDEAL Hardware Badili;"G5CH+P4V, Port Moresby National Capital District, Papua Nugini";"Port Moresby, Papua Nugini";PAPUA;;Indonesia;67572020480;;;-94.781.441;1.471.778.033;https://maps.google.com/?cid=0x0:0xf8d36581cad3bd15;
hardware store;Toko Bahan Bangunan;Viva Hardware Kemaman- Supermarket Bahan Bangunan;"Batu 2, Jalan Air Putih, Kampung Jaya, 24000 Chukai, Terengganu, Malaysia";Chukai;PAPUA;24000;Indonesia;"6,01115E+11";;;4.239.267;1.033.991.514;https://maps.google.com/?cid=0x0:0x48a2db3707f12a82;
hardware store;hardware store;Papua 98782;"Kabupaten Paniai, Papua";"Kabupaten Paniai, Papua";PAPUA;;Indonesia;;;;-40.286.691;1.367.865.516;https://maps.google.com/?cid=0x0:0x974bc6d0bf8e4cbf;
hardware store;Toko bahan makanan;"Dumalaug Hardware and Construction Supply, Inc.";"9V79+GW9, Negros South Road, Pontevedra, 6105 Negros Occidental, Filipina";"Pontevedra, Negros Occidental, Filipina";PAPUA;;Indonesia;;;;103.641.187;1.228.697.929;https://maps.google.com/?cid=0x0:0x1c718e30db729ea2;
hardware store;Toko Bahan Bangunan;Dumalaug Marketing Corporation;"Rizal Street, Crossing, San Miguel Street, Pontevedra, 6105 Negros Occidental, Filipina";"Pontevedra, Negros Occidental, Filipina";PAPUA;;Indonesia;63347039294;;;103.766.954;1.228.697.607;https://maps.google.com/?cid=0x0:0x614e66115ba8c698;
hardware store;hardware store;Papua 98763;"Kabupaten Paniai, Papua";"Kabupaten Paniai, Papua";PAPUA;;Indonesia;;;;-37.991.853;1.363.049.196;https://maps.google.com/?cid=0x0:0x8e322f542c113cfe;
hardware store;Toko Bahan Bangunan;TOKO BANGUNAN DIKA JAYA;"Jl. Dermaga Aikai. Enarotali Distrik Paniai Timur Kabupaten Paniai. Papua, Aikai, Paniai Tim., Enarotali, Papua 98711";"Aikai, Paniai Tim., Enarotali";PAPUA;98711;Indonesia;081935935177;;;-39.309.089;1.363.727.901;https://maps.google.com/?cid=0x0:0x814ba48a8059765f;
hardware store;Toko;Toko Pegunungan Papua Tengah;"Umbutu / Uyubutu / Uwibutu, Paniai Tim., Kabupaten Paniai, Papua 98781";"Paniai Tim., Kabupaten Paniai";PAPUA;98781;Indonesia;;;;-39.452.003;1.364.302.235;https://maps.google.com/?cid=0x0:0x105eae32e4602542;
hardware store;Toko Bahan Bangunan;Sin Huat Hin Hardware  Building Materials;"No.37, Jalan S2 G2, Garden Avenue Seremban 2, 70300 Seremban, Negeri Sembilan, Malaysia";Seremban;PAPUA;70300;Indonesia;6066318511;;;26.811.259;1.019.028.494;https://maps.google.com/?cid=0x0:0x67a597c2d0b6bb9e;
hardware store;hardware store;Papua 98854;Papua;Papua;PAPUA;;Indonesia;;;;-34.998.572;1.360.944.845;https://maps.google.com/?cid=0x0:0x17ab1bd64156ee45;
hardware store;Kios;Kios Santy;"JlN Jl. Yan Mamoribo No.Ds, Siriwini, Distrik Nabire, Kabupaten Nabire, Papua 98816";"Siriwini, Distrik Nabire, Kabupaten Nabire";PAPUA;98816;Indonesia;;;;-33.380.524;1.355.228.552;https://maps.google.com/?cid=0x0:0x3a96026ad51e790c;
hardware store;Kios;Kios Arli;"MG59+87J, Jl. Yan Mamoribo, Siriwini, Distrik Nabire, Kabupaten Nabire, Papua 98816";"Jl. Yan Mamoribo, Siriwini, Distrik Nabire, Kabupaten Nabire";PAPUA;98816;Indonesia;085246378039;;;-334.165;135.518.173;https://maps.google.com/?cid=0x0:0xbfea367a85b2b2f1;
hardware store;hardware store;Papua 98715;"Kabupaten Paniai, Papua";"Kabupaten Paniai, Papua";PAPUA;;Indonesia;;;;-38.146.561;1.364.296.942;https://maps.google.com/?cid=0x0:0x49e2a3ef18e7312b;
hardware store;Toko Bahan Bangunan;TOKO BANGUNAN DIKA JAYA;"Jl. Dermaga Aikai. Enarotali Distrik Paniai Timur Kabupaten Paniai. Papua, Aikai, Paniai Tim., Enarotali, Papua 98711";"Aikai, Paniai Tim., Enarotali";PAPUA;98711;Indonesia;081935935177;;;-39.309.089;1.363.727.901;https://maps.google.com/?cid=0x0:0x814ba48a8059765f;
hardware store;Toko;Toko Pegunungan Papua Tengah;"Umbutu / Uyubutu / Uwibutu, Paniai Tim., Kabupaten Paniai, Papua 98781";"Paniai Tim., Kabupaten Paniai";PAPUA;98781;Indonesia;;;;-39.452.003;1.364.302.235;https://maps.google.com/?cid=0x0:0x105eae32e4602542;
hardware store;Toko Elektronik;Harco Mangga Dua;"Jl. Mangga Dua Raya, RW.11, Mangga Dua Sel., Kecamatan Sawah Besar, Kota Jakarta Pusat, Daerah Khusus Ibukota Jakarta 10730";"RW.11, Mangga Dua Sel., Kecamatan Sawah Besar, Kota Jakarta Pusat";PAPUA;10730;Indonesia;0216129329;;;-61.390.038;1.068.284.066;https://maps.google.com/?cid=0x0:0x964c8d2f2bdf3b08;
hardware store;Toko Komputer;Jaya Baru Computer;"Harco Mangga Dua Plaza, Jalan Arteri Jl. Mangga Dua Raya No.17 Lantai G, RT.17/RW.11, Mangga Dua Sel., Kecamatan Sawah Besar, Kota Jakarta Pusat, Daerah Khusus Ibukota Jakarta 10730";"Jalan Arteri Jl. Mangga Dua Raya No.17 Lantai G, RT.17/RW.11, Mangga Dua Sel., Kecamatan Sawah Besar, Kota Jakarta Pusat";PAPUA;10730;Indonesia;02162304505;;;-6.138.806;1.068.280.636;https://maps.google.com/?cid=0x0:0xcbe077515b5a5813;
hardware store;hardware store;Papua 98717;"Kabupaten Paniai, Papua";"Kabupaten Paniai, Papua";PAPUA;;Indonesia;;;;-38.281.863;1.364.633.415;https://maps.google.com/?cid=0x0:0x2af5ed16e2ee7c74;
hardware store;Toko Komputer;"Sumber Unggul Mandiri, PT";"Komp.Ruko Agung Sedayu (Harco Elektronik Mangga Dua)Blok M/34, RT.17/RW.11, Mangga Dua Sel., Kecamatan Sawah Besar, Kota Jakarta Pusat, Daerah Khusus Ibukota Jakarta 10730";"RT.17/RW.11, Mangga Dua Sel., Kecamatan Sawah Besar, Kota Jakarta Pusat";PAPUA;10730;Indonesia;085179817938;;;-61.381.124;1.068.294.033;https://maps.google.com/?cid=0x0:0xdcb7d56ed2d76834;
hardware store;Toko Komputer;Jaya Baru Computer;"Harco Mangga Dua Plaza, Jalan Arteri Jl. Mangga Dua Raya No.17 Lantai G, RT.17/RW.11, Mangga Dua Sel., Kecamatan Sawah Besar, Kota Jakarta Pusat, Daerah Khusus Ibukota Jakarta 10730";"Jalan Arteri Jl. Mangga Dua Raya No.17 Lantai G, RT.17/RW.11, Mangga Dua Sel., Kecamatan Sawah Besar, Kota Jakarta Pusat";PAPUA;10730;Indonesia;02162304505;;;-6.138.806;1.068.280.636;https://maps.google.com/?cid=0x0:0xcbe077515b5a5813;
hardware store;hardware store;Kebo;"Kabupaten Paniai, Papua";"Kabupaten Paniai, Papua";PAPUA;;Indonesia;;;;-38.208.593;1.363.865.587;https://maps.google.com/?cid=0x0:0x965b313c4d48e7ae;
hardware store;Toko Komputer;"Sumber Unggul Mandiri, PT";"Komp.Ruko Agung Sedayu (Harco Elektronik Mangga Dua)Blok M/34, RT.17/RW.11, Mangga Dua Sel., Kecamatan Sawah Besar, Kota Jakarta Pusat, Daerah Khusus Ibukota Jakarta 10730";"RT.17/RW.11, Mangga Dua Sel., Kecamatan Sawah Besar, Kota Jakarta Pusat";PAPUA;10730;Indonesia;085179817938;;;-61.381.124;1.068.294.033;https://maps.google.com/?cid=0x0:0xdcb7d56ed2d76834;
hardware store;Toko Komputer;Jaya Baru Computer;"Harco Mangga Dua Plaza, Jalan Arteri Jl. Mangga Dua Raya No.17 Lantai G, RT.17/RW.11, Mangga Dua Sel., Kecamatan Sawah Besar, Kota Jakarta Pusat, Daerah Khusus Ibukota Jakarta 10730";"Jalan Arteri Jl. Mangga Dua Raya No.17 Lantai G, RT.17/RW.11, Mangga Dua Sel., Kecamatan Sawah Besar, Kota Jakarta Pusat";PAPUA;10730;Indonesia;02162304505;;;-6.138.806;1.068.280.636;https://maps.google.com/?cid=0x0:0xcbe077515b5a5813;
hardware store;hardware store;Papua 98719;"Distrik Ekadide, Kabupaten Paniai, Papua";"Kabupaten Paniai, Papua";PAPUA;;Indonesia;;;;-38.701.022;1.365.836.972;https://maps.google.com/?cid=0x0:0x46cb5eccbd6243ee;
hardware store;hardware store;Kebo;"Kabupaten Paniai, Papua";"Kabupaten Paniai, Papua";PAPUA;;Indonesia;;;;-38.208.593;1.363.865.587;https://maps.google.com/?cid=0x0:0x965b313c4d48e7ae;
hardware store;Toko Perlengkapan Kamar Mandi;Dodawa;"Glodok Plaza, Jl. Pinangsia Raya No.25 Blok. A, RT.1/RW.6, Pinangsia, Taman Sari, West Jakarta City, Jakarta 11110";"Jl. Pinangsia Raya No.25 Blok. A, RT.1/RW.6, Pinangsia, Taman Sari, West Jakarta City";PAPUA;11110;Indonesia;087776769959;;;-61.419.445;1.068.169.302;https://maps.google.com/?cid=0x0:0x7ba00d62399eb0a8;
hardware store;Toko Komputer;Jaya Baru Computer;"Harco Mangga Dua Plaza, Jalan Arteri Jl. Mangga Dua Raya No.17 Lantai G, RT.17/RW.11, Mangga Dua Sel., Kecamatan Sawah Besar, Kota Jakarta Pusat, Daerah Khusus Ibukota Jakarta 10730";"Jalan Arteri Jl. Mangga Dua Raya No.17 Lantai G, RT.17/RW.11, Mangga Dua Sel., Kecamatan Sawah Besar, Kota Jakarta Pusat";PAPUA;10730;Indonesia;02162304505;;;-6.138.806;1.068.280.636;https://maps.google.com/?cid=0x0:0xcbe077515b5a5813;
hardware store;Toko Elektronik;Harco Mangga Dua;"Jl. Mangga Dua Raya, RW.11, Mangga Dua Sel., Kecamatan Sawah Besar, Kota Jakarta Pusat, Daerah Khusus Ibukota Jakarta 10730";"RW.11, Mangga Dua Sel., Kecamatan Sawah Besar, Kota Jakarta Pusat";PAPUA;10730;Indonesia;0216129329;;;-61.390.038;1.068.284.066;https://maps.google.com/?cid=0x0:0x964c8d2f2bdf3b08;
hardware store;hardware store;Papua 98721;"Bogobaida, Kabupaten Paniai, Papua";"Kabupaten Paniai, Papua";PAPUA;;Indonesia;;;;-37.200.255;1.363.720.666;https://maps.google.com/?cid=0x0:0x266f7434beb6f8f1;
hardware store;hardware store;Kebo;"Kabupaten Paniai, Papua";"Kabupaten Paniai, Papua";PAPUA;;Indonesia;;;;-38.208.593;1.363.865.587;https://maps.google.com/?cid=0x0:0x965b313c4d48e7ae;
hardware store;Toko Perlengkapan Rumah;AZKO Kota Kasablanka;"Kota Kasablanka, Jl. Raya Casablanca No.88, RT.16/RW.5, Menteng Dalam, Kec. Tebet, Kota Jakarta Selatan, Daerah Khusus Ibukota Jakarta 12870";"Jl. Raya Casablanca No.88, RT.16/RW.5, Menteng Dalam, Kec. Tebet, Kota Jakarta Selatan";PAPUA;12870;Indonesia;085781411671;;;-62.222.965;1.068.423.884;https://maps.google.com/?cid=0x0:0x93342bf0e4ddbcb0;
hardware store;Toko Komputer;"Sumber Unggul Mandiri, PT";"Komp.Ruko Agung Sedayu (Harco Elektronik Mangga Dua)Blok M/34, RT.17/RW.11, Mangga Dua Sel., Kecamatan Sawah Besar, Kota Jakarta Pusat, Daerah Khusus Ibukota Jakarta 10730";"RT.17/RW.11, Mangga Dua Sel., Kecamatan Sawah Besar, Kota Jakarta Pusat";PAPUA;10730;Indonesia;085179817938;;;-61.381.124;1.068.294.033;https://maps.google.com/?cid=0x0:0xdcb7d56ed2d76834;
hardware store;Toko Perlengkapan Kamar Mandi;Dodawa;"Glodok Plaza, Jl. Pinangsia Raya No.25 Blok. A, RT.1/RW.6, Pinangsia, Taman Sari, West Jakarta City, Jakarta 11110";"Jl. Pinangsia Raya No.25 Blok. A, RT.1/RW.6, Pinangsia, Taman Sari, West Jakarta City";PAPUA;11110;Indonesia;087776769959;;;-61.419.445;1.068.169.302;https://maps.google.com/?cid=0x0:0x7ba00d62399eb0a8;
hardware store;Toko Komputer;Jaya Baru Computer;"Harco Mangga Dua Plaza, Jalan Arteri Jl. Mangga Dua Raya No.17 Lantai G, RT.17/RW.11, Mangga Dua Sel., Kecamatan Sawah Besar, Kota Jakarta Pusat, Daerah Khusus Ibukota Jakarta 10730";"Jalan Arteri Jl. Mangga Dua Raya No.17 Lantai G, RT.17/RW.11, Mangga Dua Sel., Kecamatan Sawah Besar, Kota Jakarta Pusat";PAPUA;10730;Indonesia;02162304505;;;-6.138.806;1.068.280.636;https://maps.google.com/?cid=0x0:0xcbe077515b5a5813;
hardware store;Toko Elektronik;Harco Mangga Dua;"Jl. Mangga Dua Raya, RW.11, Mangga Dua Sel., Kecamatan Sawah Besar, Kota Jakarta Pusat, Daerah Khusus Ibukota Jakarta 10730";"RW.11, Mangga Dua Sel., Kecamatan Sawah Besar, Kota Jakarta Pusat";PAPUA;10730;Indonesia;0216129329;;;-61.390.038;1.068.284.066;https://maps.google.com/?cid=0x0:0x964c8d2f2bdf3b08;
hardware store;hardware store;Papua 98722;"Paniai Tim., Kabupaten Paniai, Papua";"Kabupaten Paniai, Papua";PAPUA;;Indonesia;;;;-39.261.758;1.365.066.359;https://maps.google.com/?cid=0x0:0xc8074bbd911fd05a;
hardware store;Toko;Toko Pegunungan Papua Tengah;"Umbutu / Uyubutu / Uwibutu, Paniai Tim., Kabupaten Paniai, Papua 98781";"Paniai Tim., Kabupaten Paniai";PAPUA;98781;Indonesia;;;;-39.452.003;1.364.302.235;https://maps.google.com/?cid=0x0:0x105eae32e4602542;
hardware store;Toko Bahan Bangunan;TOKO BANGUNAN DIKA JAYA;"Jl. Dermaga Aikai. Enarotali Distrik Paniai Timur Kabupaten Paniai. Papua, Aikai, Paniai Tim., Enarotali, Papua 98711";"Aikai, Paniai Tim., Enarotali";PAPUA;98711;Indonesia;081935935177;;;-39.309.089;1.363.727.901;https://maps.google.com/?cid=0x0:0x814ba48a8059765f;
hardware store;Toko Komputer;Jaya Baru Computer;"Harco Mangga Dua Plaza, Jalan Arteri Jl. Mangga Dua Raya No.17 Lantai G, RT.17/RW.11, Mangga Dua Sel., Kecamatan Sawah Besar, Kota Jakarta Pusat, Daerah Khusus Ibukota Jakarta 10730";"Jalan Arteri Jl. Mangga Dua Raya No.17 Lantai G, RT.17/RW.11, Mangga Dua Sel., Kecamatan Sawah Besar, Kota Jakarta Pusat";PAPUA;10730;Indonesia;02162304505;;;-6.138.806;1.068.280.636;https://maps.google.com/?cid=0x0:0xcbe077515b5a5813;
hardware store;Toko Elektronik;Harco Mangga Dua;"Jl. Mangga Dua Raya, RW.11, Mangga Dua Sel., Kecamatan Sawah Besar, Kota Jakarta Pusat, Daerah Khusus Ibukota Jakarta 10730";"RW.11, Mangga Dua Sel., Kecamatan Sawah Besar, Kota Jakarta Pusat";PAPUA;10730;Indonesia;0216129329;;;-61.390.038;1.068.284.066;https://maps.google.com/?cid=0x0:0x964c8d2f2bdf3b08;
hardware store;hardware store;Papua 98723;"Kebo, Kabupaten Paniai, Papua";"Kabupaten Paniai, Papua";PAPUA;;Indonesia;;;;-3.811.015;1.363.720.666;https://maps.google.com/?cid=0x0:0xfa8d4ab6a47490f0;
hardware store;hardware store;Kebo;"Kabupaten Paniai, Papua";"Kabupaten Paniai, Papua";PAPUA;;Indonesia;;;;-38.208.593;1.363.865.587;https://maps.google.com/?cid=0x0:0x965b313c4d48e7ae;
hardware store;Toko Komputer;"Sumber Unggul Mandiri, PT";"Komp.Ruko Agung Sedayu (Harco Elektronik Mangga Dua)Blok M/34, RT.17/RW.11, Mangga Dua Sel., Kecamatan Sawah Besar, Kota Jakarta Pusat, Daerah Khusus Ibukota Jakarta 10730";"RT.17/RW.11, Mangga Dua Sel., Kecamatan Sawah Besar, Kota Jakarta Pusat";PAPUA;10730;Indonesia;085179817938;;;-61.381.124;1.068.294.033;https://maps.google.com/?cid=0x0:0xdcb7d56ed2d76834;
hardware store;Toko Komputer;Jaya Baru Computer;"Harco Mangga Dua Plaza, Jalan Arteri Jl. Mangga Dua Raya No.17 Lantai G, RT.17/RW.11, Mangga Dua Sel., Kecamatan Sawah Besar, Kota Jakarta Pusat, Daerah Khusus Ibukota Jakarta 10730";"Jalan Arteri Jl. Mangga Dua Raya No.17 Lantai G, RT.17/RW.11, Mangga Dua Sel., Kecamatan Sawah Besar, Kota Jakarta Pusat";PAPUA;10730;Indonesia;02162304505;;;-6.138.806;1.068.280.636;https://maps.google.com/?cid=0x0:0xcbe077515b5a5813;
hardware store;Toko Elektronik;Harco Mangga Dua;"Jl. Mangga Dua Raya, RW.11, Mangga Dua Sel., Kecamatan Sawah Besar, Kota Jakarta Pusat, Daerah Khusus Ibukota Jakarta 10730";"RW.11, Mangga Dua Sel., Kecamatan Sawah Besar, Kota Jakarta Pusat";PAPUA;10730;Indonesia;0216129329;;;-61.390.038;1.068.284.066;https://maps.google.com/?cid=0x0:0x964c8d2f2bdf3b08;
hardware store;hardware store;Papua 98715;"Kabupaten Paniai, Papua";"Kabupaten Paniai, Papua";PAPUA;;Indonesia;;;;-38.146.561;1.364.296.942;https://maps.google.com/?cid=0x0:0x49e2a3ef18e7312b;
hardware store;Toko Bahan Bangunan;TOKO BANGUNAN DIKA JAYA;"Jl. Dermaga Aikai. Enarotali Distrik Paniai Timur Kabupaten Paniai. Papua, Aikai, Paniai Tim., Enarotali, Papua 98711";"Aikai, Paniai Tim., Enarotali";PAPUA;98711;Indonesia;081935935177;;;-39.309.089;1.363.727.901;https://maps.google.com/?cid=0x0:0x814ba48a8059765f;
hardware store;Toko;Toko Pegunungan Papua Tengah;"Umbutu / Uyubutu / Uwibutu, Paniai Tim., Kabupaten Paniai, Papua 98781";"Paniai Tim., Kabupaten Paniai";PAPUA;98781;Indonesia;;;;-39.452.003;1.364.302.235;https://maps.google.com/?cid=0x0:0x105eae32e4602542;
hardware store;Toko Bahan Bangunan;Penawar Hardware Sdn Bhd;"No. 2, Pusat, 81930 Bandar Penawar, Johor, Malaysia";Bandar Penawar;PAPUA;81930;Indonesia;60137777161;;;15.542.299;1.042.303.604;https://maps.google.com/?cid=0x0:0x24699ad350cd7c29;
hardware store;Toko Bahan Bangunan;toko bangunan Yep'Mum;"4Q38+6C4, Jl. Garuda, Arso Kota, Kec. Arso, Kabupaten Keerom, Papua 99468";"Jl. Garuda, Arso Kota, Kec. Arso, Kabupaten Keerom";PAPUA;99468;Indonesia;085244664394;;;-28.970.308;1.407.661.616;https://maps.google.com/?cid=0x0:0x9649c22840d7e67e;
hardware store;hardware store;Papua 98725;"Paniai Tim., Kabupaten Paniai, Papua";"Kabupaten Paniai, Papua";PAPUA;;Indonesia;;;;-38.960.745;1.364.537.256;https://maps.google.com/?cid=0x0:0xf416718a89ab024c;
hardware store;hardware store;Hardware store;"FV4V+MPM, Kwamki, Kec. Mimika Baru, Kabupaten Mimika, Papua 99971";"Kwamki, Kec. Mimika Baru, Kabupaten Mimika";PAPUA;99971;Indonesia;;;;-45.432.755;136.894.307;https://maps.google.com/?cid=0x0:0xf5bf08fba766a5d;
hardware store;Toko;Toko Ahyar;"JFRX+9F7, Jl. Raya Batok, Batok, Kec. Tenjo, Kabupaten Bogor, Jawa Barat 16370";"Jl. Raya Batok, Batok, Kec. Tenjo, Kabupaten Bogor";PAPUA;16370;Indonesia;;;;-63.590.991;1.064.986.721;https://maps.google.com/?cid=0x0:0x187cd1ce4fc4c9ed;
hardware store;hardware store;Papua 98726;"Kabupaten Paniai, Papua";"Kabupaten Paniai, Papua";PAPUA;;Indonesia;;;;-39.264.117;1.362.761.704;https://maps.google.com/?cid=0x0:0x51a62be53f847ea;
hardware store;Toko Bahan Bangunan;TOKO BANGUNAN DIKA JAYA;"Jl. Dermaga Aikai. Enarotali Distrik Paniai Timur Kabupaten Paniai. Papua, Aikai, Paniai Tim., Enarotali, Papua 98711";"Aikai, Paniai Tim., Enarotali";PAPUA;98711;Indonesia;081935935177;;;-39.309.089;1.363.727.901;https://maps.google.com/?cid=0x0:0x814ba48a8059765f;
hardware store;Toko;Toko Pegunungan Papua Tengah;"Umbutu / Uyubutu / Uwibutu, Paniai Tim., Kabupaten Paniai, Papua 98781";"Paniai Tim., Kabupaten Paniai";PAPUA;98781;Indonesia;;;;-39.452.003;1.364.302.235;https://maps.google.com/?cid=0x0:0x105eae32e4602542;
hardware store;Toko Bahan Bangunan;Penawar Hardware Sdn Bhd;"No. 2, Pusat, 81930 Bandar Penawar, Johor, Malaysia";Bandar Penawar;PAPUA;81930;Indonesia;60137777161;;;15.542.299;1.042.303.604;https://maps.google.com/?cid=0x0:0x24699ad350cd7c29;
home improvement;Toko Mebel;Karya Mebel;"399F+X93, Jl jalan tengah, Aikai, Paniai Tim., Kabupaten Paniai, Papua";"Kabupaten Paniai, Papua";PAPUA;;Indonesia;;;;-39.297.839;1.363.734.443;https://maps.google.com/?cid=0x0:0xa4ca299b96148f22;
home improvement;Pabrikan mebel;Mebel kayu yomeni;"X73H+62J, Wagete I, Kec. Tigi, Kabupaten Deiyai, Papua 98764";"Wagete I, Kec. Tigi, Kabupaten Deiyai";PAPUA;98764;Indonesia;;;;-4.046.918;1.362.775.224;https://maps.google.com/?cid=0x0:0x48e05a7926d17ecc;
home improvement;home improvement;Papua 98763;"Kabupaten Paniai, Papua";"Kabupaten Paniai, Papua";PAPUA;;Indonesia;;;;-37.991.853;1.363.049.196;https://maps.google.com/?cid=0x0:0x8e322f542c113cfe;
home improvement;Toko;Toko Pegunungan Papua Tengah;"Umbutu / Uyubutu / Uwibutu, Paniai Tim., Kabupaten Paniai, Papua 98781";"Paniai Tim., Kabupaten Paniai";PAPUA;98781;Indonesia;;;;-39.452.003;1.364.302.235;https://maps.google.com/?cid=0x0:0x105eae32e4602542;
home improvement;home improvement;Papua 98711;"Paniai Tim., Kabupaten Paniai, Papua";"Kabupaten Paniai, Papua";PAPUA;;Indonesia;;;;-39.236.807;1.364.681.501;https://maps.google.com/?cid=0x0:0x42ca7f49c2355029;
home improvement;home improvement;Papua 98712;"Kabupaten Paniai, Papua";"Kabupaten Paniai, Papua";PAPUA;;Indonesia;;;;-38.602.755;1.364.296.942;https://maps.google.com/?cid=0x0:0xec5046199ceddbff;
home improvement;home improvement;Paniai Tim.;"Kabupaten Paniai, Papua";"Kabupaten Paniai, Papua";PAPUA;;Indonesia;;;;-39.293.592;1.363.780.656;https://maps.google.com/?cid=0x0:0x7f04dacf9b212bec;
home improvement;home improvement;Papua 98713;"Kabupaten Paniai, Papua";"Kabupaten Paniai, Papua";PAPUA;;Indonesia;;;;-38.981.462;1.365.451.516;https://maps.google.com/?cid=0x0:0xca9b38a4a50ba077;
home improvement;home improvement;Paniai Tim.;"Kabupaten Paniai, Papua";"Kabupaten Paniai, Papua";PAPUA;;Indonesia;;;;-39.293.592;1.363.780.656;https://maps.google.com/?cid=0x0:0x7f04dacf9b212bec;
home improvement;home improvement;Papua 98714;"Obaipugaida, Distrik Ekadide, Kabupaten Paniai, Papua";"Kabupaten Paniai, Papua";PAPUA;;Indonesia;;;;-38.800.043;1.365.596.027;https://maps.google.com/?cid=0x0:0x1ed2f623a7ddc102;
home improvement;home improvement;Paniai Tim.;"Kabupaten Paniai, Papua";"Kabupaten Paniai, Papua";PAPUA;;Indonesia;;;;-39.293.592;1.363.780.656;https://maps.google.com/?cid=0x0:0x7f04dacf9b212bec;
home improvement;home improvement;Papua 98715;"Kabupaten Paniai, Papua";"Kabupaten Paniai, Papua";PAPUA;;Indonesia;;;;-38.146.561;1.364.296.942;https://maps.google.com/?cid=0x0:0x49e2a3ef18e7312b;
home improvement;home improvement;Papua 98716;"Distrik Ekadide, Kabupaten Paniai, Papua";"Kabupaten Paniai, Papua";PAPUA;;Indonesia;;;;-38.487.333;1.364.873.892;https://maps.google.com/?cid=0x0:0x83969942f885abae;
home improvement;home improvement;Paniai Tim.;"Kabupaten Paniai, Papua";"Kabupaten Paniai, Papua";PAPUA;;Indonesia;;;;-39.293.592;1.363.780.656;https://maps.google.com/?cid=0x0:0x7f04dacf9b212bec;
home improvement;home improvement;Papua 98719;"Distrik Ekadide, Kabupaten Paniai, Papua";"Kabupaten Paniai, Papua";PAPUA;;Indonesia;;;;-38.701.022;1.365.836.972;https://maps.google.com/?cid=0x0:0x46cb5eccbd6243ee;
home improvement;Toko Mebel;Karya Mebel;"399F+X93, Jl jalan tengah, Aikai, Paniai Tim., Kabupaten Paniai, Papua";"Kabupaten Paniai, Papua";PAPUA;;Indonesia;;;;-39.297.839;1.363.734.443;https://maps.google.com/?cid=0x0:0xa4ca299b96148f22;
home improvement;Pabrikan mebel;Mebel kayu yomeni;"X73H+62J, Wagete I, Kec. Tigi, Kabupaten Deiyai, Papua 98764";"Wagete I, Kec. Tigi, Kabupaten Deiyai";PAPUA;98764;Indonesia;;;;-4.046.918;1.362.775.224;https://maps.google.com/?cid=0x0:0x48e05a7926d17ecc;
home improvement;home improvement;Papua 98722;"Paniai Tim., Kabupaten Paniai, Papua";"Kabupaten Paniai, Papua";PAPUA;;Indonesia;;;;-39.261.758;1.365.066.359;https://maps.google.com/?cid=0x0:0xc8074bbd911fd05a;
home improvement;home improvement;Papua 98724;Papua;Papua;PAPUA;;Indonesia;;;;-32.380.612;1.367.865.516;https://maps.google.com/?cid=0x0:0x5a3fecd18c5a180c;
home improvement;home improvement;Paniai Tim.;"Kabupaten Paniai, Papua";"Kabupaten Paniai, Papua";PAPUA;;Indonesia;;;;-39.293.592;1.363.780.656;https://maps.google.com/?cid=0x0:0x7f04dacf9b212bec;
home improvement;Kantor Pemerintah;Koramil Aradide;"5FPH+PWR, Abatadi, Kec. Aradide, Kabupaten Paniai, Papua 98766";"Abatadi, Kec. Aradide, Kabupaten Paniai";PAPUA;98766;Indonesia;;;;-38.120.494;1.364.796.338;https://maps.google.com/?cid=0x0:0x3acd917dc994739;
home improvement;Kantor Pemerintah;Kantor Distrik Aradide;"5FPH+PWR, Abatadi, Kec. Aradide, Kabupaten Paniai, Papua 98766";"Abatadi, Kec. Aradide, Kabupaten Paniai";PAPUA;98766;Indonesia;;;;-38.124.425;1.364.796.674;https://maps.google.com/?cid=0x0:0x4918d32260a8c670;
home improvement;home improvement;Kec. Aradide;"Kabupaten Paniai, Papua";"Kabupaten Paniai, Papua";PAPUA;;Indonesia;;;;-38.150.328;1.364.790.748;https://maps.google.com/?cid=0x0:0xf7b522f91db639de;
home improvement;home improvement;Papua 98769;Papua;Papua;PAPUA;;Indonesia;;;;-34.531.316;1.363.240.951;https://maps.google.com/?cid=0x0:0xd28ed8bf27ec9c6b;
home improvement;home improvement;Distrik Bibida;"Kabupaten Paniai, Papua";"Kabupaten Paniai, Papua";PAPUA;;Indonesia;;;;-39.506.844;1.367.671.967;https://maps.google.com/?cid=0x0:0x68f0cd48ece1ec83;
home improvement;home improvement;Papua 98782;"Kabupaten Paniai, Papua";"Kabupaten Paniai, Papua";PAPUA;;Indonesia;;;;-40.286.691;1.367.865.516;https://maps.google.com/?cid=0x0:0x974bc6d0bf8e4cbf;
home improvement;Pemasok Pintu;Duma;"Jl. Raya Pilang No.88 KM 8, Pilang, Kec. Wonoayu, Kabupaten Sidoarjo, Jawa Timur 61273";"Pilang, Kec. Wonoayu, Kabupaten Sidoarjo";PAPUA;61273;Indonesia;0318855588;;;-74.451.764;1.126.517.529;https://maps.google.com/?cid=0x0:0x95fd6646fc8aca4e;
home improvement;Pemasok Pintu;Pintu DUMA Sidoarjo;"Km 5 no 6, Panglima Sudirman Raya, Lebo, Kec. Sidoarjo, Kabupaten Sidoarjo, Jawa Timur 61223";"Panglima Sudirman Raya, Lebo, Kec. Sidoarjo, Kabupaten Sidoarjo";PAPUA;61223;Indonesia;03199705905;;;-74.483.637;1.126.751.268;https://maps.google.com/?cid=0x0:0x720a3d67d7c7bd81;
home improvement;home improvement;Papua 98763;"Kabupaten Paniai, Papua";"Kabupaten Paniai, Papua";PAPUA;;Indonesia;;;;-37.991.853;1.363.049.196;https://maps.google.com/?cid=0x0:0x8e322f542c113cfe;
home improvement;home improvement;Siriwo;"Kabupaten Nabire, Papua";"Kabupaten Nabire, Papua";PAPUA;;Indonesia;;;;-33.800.854;1.360.944.845;https://maps.google.com/?cid=0x0:0x6470f4464b253b1b;
home improvement;Perajin furnitur;SRIJAYA INTERIOR TOKO KITCHENSET;"Jl.raya laswi sukasari bumi wangi, Depan RKM CIPARAY, Jl. Cikopo, Ciparay, Kabupaten Bandung, Jawa Barat 40381";"Depan RKM CIPARAY, Jl. Cikopo, Ciparay, Kabupaten Bandung";PAPUA;40381;Indonesia;081949122031;;;-70.279.825;1.076.957.459;https://maps.google.com/?cid=0x0:0xe97aaffcfaa0f2d1;
home improvement;Toko Elektronik;?????? ??????????? 8 ????? SIRIPIWAT 8 COMPANY LIMITED;"??????? 5, 49/1 ????????????, Don Sak, Don Sak District, Surat Thani 84220, Thailand";"Don Sak, Don Sak District, Surat Thani";PAPUA;84220;Indonesia;6677371708;;;93.126.338;996.867.128;https://maps.google.com/?cid=0x0:0x3db893394b5fe186;
home improvement;Produsen Stan Pameran;?????????????????? ShinkoLite ??????;"1104 Phatthanakan Rd, Suan Luang, Bangkok 10250, Thailand";"Suan Luang, Bangkok";PAPUA;10250;Indonesia;66955150600;;;1.373.484;10.061.678;https://maps.google.com/?cid=0x0:0x1b016927629d31e4;
home improvement;Dealer Sepeda Motor;jual beli;"kp,bojong teungas rt03/11, Sukamukti, Kec. Majalaya, Kabupaten Bandung, Jawa Barat 40382";"Sukamukti, Kec. Majalaya, Kabupaten Bandung";PAPUA;40382;Indonesia;089516084442;;;-70.528.656;1.077.432.653;https://maps.google.com/?cid=0x0:0x49b70459e160f5a3;
home improvement;Toko Bahan Bangunan;?????????????? apvc ?????????????? upvc asapvc ??????????? ???????????;"266 ?. ?????? Tha Raeng, Bang Khen, Bangkok 10220, Thailand";"Bang Khen, Bangkok";PAPUA;10220;Indonesia;66628688898;;;138.586.353;1.006.466.503;https://maps.google.com/?cid=0x0:0xc58adbe424452a2b;
home improvement;home improvement;Papua 98854;Papua;Papua;PAPUA;;Indonesia;;;;-34.998.572;1.360.944.845;https://maps.google.com/?cid=0x0:0x17ab1bd64156ee45;
home improvement;Jasa Renovasi;HD1 KONSTRUKSI RENOVASI SERPONG jasa renovasi dan kontraktor;"BSD City, Greenwich park, Situ Gadung, Pagedangan, Tangerang Regency, Banten 15331";"Greenwich park, Situ Gadung, Pagedangan, Tangerang Regency";PAPUA;15331;Indonesia;082258098988;;;-63.098.685;1.066.372.224;https://maps.google.com/?cid=0x0:0xaf75699ab17b34b2;
home improvement;Toko Perlengkapan Rumah;CV. Sarana Griya Mandiri;"Munjul, Kec. Solear, Kabupaten Tangerang, Banten 15730";"Kec. Solear, Kabupaten Tangerang";PAPUA;15730;Indonesia;081219418568;;;-62.803.217;1.064.570.736;https://maps.google.com/?cid=0x0:0x3601867a17687f3b;
home improvement;home improvement;Kebo;"Kabupaten Paniai, Papua";"Kabupaten Paniai, Papua";PAPUA;;Indonesia;;;;-38.208.593;1.363.865.587;https://maps.google.com/?cid=0x0:0x965b313c4d48e7ae;
home improvement;home improvement;Papua 98717;"Kabupaten Paniai, Papua";"Kabupaten Paniai, Papua";PAPUA;;Indonesia;;;;-38.281.863;1.364.633.415;https://maps.google.com/?cid=0x0:0x2af5ed16e2ee7c74;
home improvement;home improvement;Kebo;"Kabupaten Paniai, Papua";"Kabupaten Paniai, Papua";PAPUA;;Indonesia;;;;-38.208.593;1.363.865.587;https://maps.google.com/?cid=0x0:0x965b313c4d48e7ae;
home improvement;home improvement;Papua 98719;"Distrik Ekadide, Kabupaten Paniai, Papua";"Kabupaten Paniai, Papua";PAPUA;;Indonesia;;;;-38.701.022;1.365.836.972;https://maps.google.com/?cid=0x0:0x46cb5eccbd6243ee;
home improvement;home improvement;Papua 98721;"Bogobaida, Kabupaten Paniai, Papua";"Kabupaten Paniai, Papua";PAPUA;;Indonesia;;;;-37.200.255;1.363.720.666;https://maps.google.com/?cid=0x0:0x266f7434beb6f8f1;
home improvement;home improvement;Kebo;"Kabupaten Paniai, Papua";"Kabupaten Paniai, Papua";PAPUA;;Indonesia;;;;-38.208.593;1.363.865.587;https://maps.google.com/?cid=0x0:0x965b313c4d48e7ae;
home improvement;home improvement;Papua 98722;"Paniai Tim., Kabupaten Paniai, Papua";"Kabupaten Paniai, Papua";PAPUA;;Indonesia;;;;-39.261.758;1.365.066.359;https://maps.google.com/?cid=0x0:0xc8074bbd911fd05a;
home improvement;home improvement;Papua 98723;"Kebo, Kabupaten Paniai, Papua";"Kabupaten Paniai, Papua";PAPUA;;Indonesia;;;;-3.811.015;1.363.720.666;https://maps.google.com/?cid=0x0:0xfa8d4ab6a47490f0;
home improvement;home improvement;Papua 98715;"Kabupaten Paniai, Papua";"Kabupaten Paniai, Papua";PAPUA;;Indonesia;;;;-38.146.561;1.364.296.942;https://maps.google.com/?cid=0x0:0x49e2a3ef18e7312b;
home improvement;Inspektur Tempat Tinggal;jose home;"CVJM+6JH, Jl. Yos Sudarso, Nawaripi, Kec. Mimika Baru, Kabupaten Mimika, Papua 99910";"Jl. Yos Sudarso, Nawaripi, Kec. Mimika Baru, Kabupaten Mimika";PAPUA;99910;Indonesia;;;;-4.569.768;136.884.378;https://maps.google.com/?cid=0x0:0x8847b144500ecacc;
home improvement;home improvement;Pabrik tahu “salsa mandiri”;"398J+VR, Enarotali, Paniai Tim., Kabupaten Paniai, Papua";"Kabupaten Paniai, Papua";PAPUA;;Indonesia;;;;-3.932.767;1.363.820.541;https://maps.google.com/?cid=0x0:0xd53c9daee1936dc6;
home improvement;Inspektur Tempat Tinggal;jose home;"CVJM+6JH, Jl. Yos Sudarso, Nawaripi, Kec. Mimika Baru, Kabupaten Mimika, Papua 99910";"Jl. Yos Sudarso, Nawaripi, Kec. Mimika Baru, Kabupaten Mimika";PAPUA;99910;Indonesia;;;;-4.569.768;136.884.378;https://maps.google.com/?cid=0x0:0x8847b144500ecacc;
home improvement;Komplek perumahan;homeee;"FV5Q+RC6, Jl. C. Heatubun, Kwamki, Kec. Mimika Baru, Kabupaten Mimika, Papua 99971";"Jl. C. Heatubun, Kwamki, Kec. Mimika Baru, Kabupaten Mimika";PAPUA;99971;Indonesia;;;;-45.404.718;1.368.885.172;https://maps.google.com/?cid=0x0:0xdddf43362acd467a;
home improvement;home improvement;Yatamo;"Kabupaten Paniai, Papua";"Kabupaten Paniai, Papua";PAPUA;;Indonesia;;;;-3.996.588;136.350.248;https://maps.google.com/?cid=0x0:0xf237fd78852681d8;
home improvement;Inspektur Tempat Tinggal;jose home;"CVJM+6JH, Jl. Yos Sudarso, Nawaripi, Kec. Mimika Baru, Kabupaten Mimika, Papua 99910";"Jl. Yos Sudarso, Nawaripi, Kec. Mimika Baru, Kabupaten Mimika";PAPUA;99910;Indonesia;;;;-4.569.768;136.884.378;https://maps.google.com/?cid=0x0:0x8847b144500ecacc;
home improvement;Komplek perumahan;homeee;"FV5Q+RC6, Jl. C. Heatubun, Kwamki, Kec. Mimika Baru, Kabupaten Mimika, Papua 99971";"Jl. C. Heatubun, Kwamki, Kec. Mimika Baru, Kabupaten Mimika";PAPUA;99971;Indonesia;;;;-45.404.718;1.368.885.172;https://maps.google.com/?cid=0x0:0xdddf43362acd467a;
home improvement;home improvement;Papua 98726;"Kabupaten Paniai, Papua";"Kabupaten Paniai, Papua";PAPUA;;Indonesia;;;;-39.264.117;1.362.761.704;https://maps.google.com/?cid=0x0:0x51a62be53f847ea;
home improvement;Tukang Kayu;JUTOP JATENG;"Maron, RT.001/RW.004, Tambahrejo, Kec. Pagerruyung, Kabupaten Kendal, Jawa Tengah 51361";"RT.001/RW.004, Tambahrejo, Kec. Pagerruyung, Kabupaten Kendal";PAPUA;51361;Indonesia;082138929230;;;-70.474.367;1.100.589.139;https://maps.google.com/?cid=0x0:0xe61c39f89eabba8b;
