Category;Real Category;Business Name;Address;City;State;Postal Code;Country;Phone;Email;Website;Latitude;Longitude;Map Link;Details Link
mall;mall;Papua 98763;"Kabupaten Paniai, Papua";"Kabupaten Paniai, Papua";PAPUA;;Indonesia;;;;-37.991.853;1.363.049.196;https://maps.google.com/?cid=0x0:0x8e322f542c113cfe;
mall;Pusat Perbelanjaan;Kampung Mogoya;"37J2+XC2, Obano, Distrik Paniai Barat, Kabupaten Paniai, Papua 98726";"Obano, Distrik Paniai Barat, Kabupaten Paniai";PAPUA;98726;Indonesia;;;;-39.176.032;1.362.510.182;https://maps.google.com/?cid=0x0:0x4bafea5a7bd913ad;
mall;Tujuan Wisata;Debay Odebutu;"37F2+CJ8, Muyetadi, Distrik Paniai Barat, Kabupaten Paniai, Papua 98726";"Muyetadi, Distrik Paniai Barat, Kabupaten Paniai";PAPUA;98726;Indonesia;081354187582;;;-39.264.706;1.362.515.774;https://maps.google.com/?cid=0x0:0x50ecd924e4c6eddc;
mall;Toko;KIOS TANZIL;"39CF+GC4, Enarotali, Paniai Tim., Kabupaten Paniai, Papua";"Kabupaten Paniai, Papua";PAPUA;;Indonesia;;;;-39.287.481;1.363.735.703;https://maps.google.com/?cid=0x0:0x645747b80bb51c21;
mall;Pusat Perbelanjaan;KIOS QANITAH;"Umbutu / Uyubutu / Uwibutu, UWIBUTU, Kabupaten Paniai, Papua 98711";"UWIBUTU, Kabupaten Paniai";PAPUA;98711;Indonesia;085298817733;;;-39.443.439;1.364.305.187;https://maps.google.com/?cid=0x0:0xfe28560b049fae1;
mall;Toko;KIOS TANZIL;"39CF+GC4, Enarotali, Paniai Tim., Kabupaten Paniai, Papua";"Kabupaten Paniai, Papua";PAPUA;;Indonesia;;;;-39.287.481;1.363.735.703;https://maps.google.com/?cid=0x0:0x645747b80bb51c21;
mall;Pusat Perbelanjaan;KIOS QANITAH;"Umbutu / Uyubutu / Uwibutu, UWIBUTU, Kabupaten Paniai, Papua 98711";"UWIBUTU, Kabupaten Paniai";PAPUA;98711;Indonesia;085298817733;;;-39.443.439;1.364.305.187;https://maps.google.com/?cid=0x0:0xfe28560b049fae1;
mall;Toko;KIOS TANZIL;"39CF+GC4, Enarotali, Paniai Tim., Kabupaten Paniai, Papua";"Kabupaten Paniai, Papua";PAPUA;;Indonesia;;;;-39.287.481;1.363.735.703;https://maps.google.com/?cid=0x0:0x645747b80bb51c21;
mall;Pusat Perbelanjaan;KIOS QANITAH;"Umbutu / Uyubutu / Uwibutu, UWIBUTU, Kabupaten Paniai, Papua 98711";"UWIBUTU, Kabupaten Paniai";PAPUA;98711;Indonesia;085298817733;;;-39.443.439;1.364.305.187;https://maps.google.com/?cid=0x0:0xfe28560b049fae1;
mall;Toko;KIOS TANZIL;"39CF+GC4, Enarotali, Paniai Tim., Kabupaten Paniai, Papua";"Kabupaten Paniai, Papua";PAPUA;;Indonesia;;;;-39.287.481;1.363.735.703;https://maps.google.com/?cid=0x0:0x645747b80bb51c21;
mall;Pusat Perbelanjaan;KIOS QANITAH;"Umbutu / Uyubutu / Uwibutu, UWIBUTU, Kabupaten Paniai, Papua 98711";"UWIBUTU, Kabupaten Paniai";PAPUA;98711;Indonesia;085298817733;;;-39.443.439;1.364.305.187;https://maps.google.com/?cid=0x0:0xfe28560b049fae1;
mall;mall;Papua 98715;"Kabupaten Paniai, Papua";"Kabupaten Paniai, Papua";PAPUA;;Indonesia;;;;-38.146.561;1.364.296.942;https://maps.google.com/?cid=0x0:0x49e2a3ef18e7312b;
mall;Pusat Perbelanjaan;Kampung Mogoya;"37J2+XC2, Obano, Distrik Paniai Barat, Kabupaten Paniai, Papua 98726";"Obano, Distrik Paniai Barat, Kabupaten Paniai";PAPUA;98726;Indonesia;;;;-39.176.032;1.362.510.182;https://maps.google.com/?cid=0x0:0x4bafea5a7bd913ad;
mall;Toko;KIOS TANZIL;"39CF+GC4, Enarotali, Paniai Tim., Kabupaten Paniai, Papua";"Kabupaten Paniai, Papua";PAPUA;;Indonesia;;;;-39.287.481;1.363.735.703;https://maps.google.com/?cid=0x0:0x645747b80bb51c21;
mall;Toko;KIOS TANZIL;"39CF+GC4, Enarotali, Paniai Tim., Kabupaten Paniai, Papua";"Kabupaten Paniai, Papua";PAPUA;;Indonesia;;;;-39.287.481;1.363.735.703;https://maps.google.com/?cid=0x0:0x645747b80bb51c21;
mall;Pusat Perbelanjaan;KIOS QANITAH;"Umbutu / Uyubutu / Uwibutu, UWIBUTU, Kabupaten Paniai, Papua 98711";"UWIBUTU, Kabupaten Paniai";PAPUA;98711;Indonesia;085298817733;;;-39.443.439;1.364.305.187;https://maps.google.com/?cid=0x0:0xfe28560b049fae1;
mall;mall;Papua 98719;"Distrik Ekadide, Kabupaten Paniai, Papua";"Kabupaten Paniai, Papua";PAPUA;;Indonesia;;;;-38.701.022;1.365.836.972;https://maps.google.com/?cid=0x0:0x46cb5eccbd6243ee;
mall;Toko;KIOS TANZIL;"39CF+GC4, Enarotali, Paniai Tim., Kabupaten Paniai, Papua";"Kabupaten Paniai, Papua";PAPUA;;Indonesia;;;;-39.287.481;1.363.735.703;https://maps.google.com/?cid=0x0:0x645747b80bb51c21;
mall;Pusat Perbelanjaan;Kampung Mogoya;"37J2+XC2, Obano, Distrik Paniai Barat, Kabupaten Paniai, Papua 98726";"Obano, Distrik Paniai Barat, Kabupaten Paniai";PAPUA;98726;Indonesia;;;;-39.176.032;1.362.510.182;https://maps.google.com/?cid=0x0:0x4bafea5a7bd913ad;
mall;mall;Papua 98722;"Paniai Tim., Kabupaten Paniai, Papua";"Kabupaten Paniai, Papua";PAPUA;;Indonesia;;;;-39.261.758;1.365.066.359;https://maps.google.com/?cid=0x0:0xc8074bbd911fd05a;
mall;Toko;KIOS TANZIL;"39CF+GC4, Enarotali, Paniai Tim., Kabupaten Paniai, Papua";"Kabupaten Paniai, Papua";PAPUA;;Indonesia;;;;-39.287.481;1.363.735.703;https://maps.google.com/?cid=0x0:0x645747b80bb51c21;
mall;Pusat Perbelanjaan;Kampung Mogoya;"37J2+XC2, Obano, Distrik Paniai Barat, Kabupaten Paniai, Papua 98726";"Obano, Distrik Paniai Barat, Kabupaten Paniai";PAPUA;98726;Indonesia;;;;-39.176.032;1.362.510.182;https://maps.google.com/?cid=0x0:0x4bafea5a7bd913ad;
mall;Toko;KIOS TANZIL;"39CF+GC4, Enarotali, Paniai Tim., Kabupaten Paniai, Papua";"Kabupaten Paniai, Papua";PAPUA;;Indonesia;;;;-39.287.481;1.363.735.703;https://maps.google.com/?cid=0x0:0x645747b80bb51c21;
mall;Pusat Perbelanjaan;KIOS QANITAH;"Umbutu / Uyubutu / Uwibutu, UWIBUTU, Kabupaten Paniai, Papua 98711";"UWIBUTU, Kabupaten Paniai";PAPUA;98711;Indonesia;085298817733;;;-39.443.439;1.364.305.187;https://maps.google.com/?cid=0x0:0xfe28560b049fae1;
mall;Kantor Pemerintah;Koramil Aradide;"5FPH+PWR, Abatadi, Kec. Aradide, Kabupaten Paniai, Papua 98766";"Abatadi, Kec. Aradide, Kabupaten Paniai";PAPUA;98766;Indonesia;;;;-38.120.494;1.364.796.338;https://maps.google.com/?cid=0x0:0x3acd917dc994739;
mall;Kantor Pemerintah;Kantor Distrik Aradide;"5FPH+PWR, Abatadi, Kec. Aradide, Kabupaten Paniai, Papua 98766";"Abatadi, Kec. Aradide, Kabupaten Paniai";PAPUA;98766;Indonesia;;;;-38.124.425;1.364.796.674;https://maps.google.com/?cid=0x0:0x4918d32260a8c670;
mall;mall;Papua 98769;Papua;Papua;PAPUA;;Indonesia;;;;-34.531.316;1.363.240.951;https://maps.google.com/?cid=0x0:0xd28ed8bf27ec9c6b;
mall;Toko bahan makanan;Kios Syauqy;"97HM+J2C, Uwagi, Bogobaida, Kabupaten Paniai, Papua 98854";"Uwagi, Bogobaida, Kabupaten Paniai";PAPUA;98854;Indonesia;;;;-36.209.365;1.362.825.214;https://maps.google.com/?cid=0x0:0xa5be475d84ad58bc;
mall;Pusat Perbelanjaan;Kios rahmi 99;"98X3+GFM, Uwagi, Bogobaida, Kabupaten Paniai, Papua";"Kabupaten Paniai, Papua";PAPUA;;Indonesia;;;;-36.011.634;1.363.036.629;https://maps.google.com/?cid=0x0:0x13ddcf628b795c90;
mall;Pusat Perbelanjaan;Mall Of Indonesia;"Jl. Boulevard Bar. Raya No.12, RT.18/RW.19, Klp. Gading Bar., Kec. Klp. Gading, Jkt Utara, Daerah Khusus Ibukota Jakarta 14240";"RT.18/RW.19, Klp. Gading Bar., Kec. Klp. Gading, Jkt Utara";PAPUA;14240;Indonesia;02145867888;;;-61.514.549;1.068.918.949;https://maps.google.com/?cid=0x0:0x3431c7aaadd1f1b6;
mall;Pusat Perbelanjaan;Moi;"Klp. Gading Trade Centre, Jl. Pulau Putri No.2 2, RT.2/RW.9, Klp. Gading Bar., Kec. Klp. Gading, Jkt Utara, Daerah Khusus Ibukota Jakarta 14240";"Jl. Pulau Putri No.2 2, RT.2/RW.9, Klp. Gading Bar., Kec. Klp. Gading, Jkt Utara";PAPUA;14240;Indonesia;;;;-61.508.529;1.068.921.366;https://maps.google.com/?cid=0x0:0xbfa0759132a66681;
mall;Pusat Perbelanjaan;Mall Kelapa Gading;"Jl. Boulevard Raya, RT.13/RW.18, Klp. Gading Tim., Kec. Klp. Gading, Jkt Utara, Daerah Khusus Ibukota Jakarta 14240";"RT.13/RW.18, Klp. Gading Tim., Kec. Klp. Gading, Jkt Utara";PAPUA;14240;Indonesia;0214531101;;;-61.577.957;1.069.084.998;https://maps.google.com/?cid=0x0:0xf81b02e78061a7af;
mall;Mi;BAKMI AYAM HONEY;"RVXR+WFH, Jl. Boulevard Bar. Raya, RT.18/RW.8, Klp. Gading Bar., Kec. Klp. Gading, Jkt Utara, Daerah Khusus Ibukota Jakarta 14240";"Jl. Boulevard Bar. Raya, RT.18/RW.8, Klp. Gading Bar., Kec. Klp. Gading, Jkt Utara";PAPUA;14240;Indonesia;02124521987;;;-61.501.981;1.068.912.349;https://maps.google.com/?cid=0x0:0x408854199cbd835b;
mall;Toko Ponsel;Samsung Service Center MOI;"Mall Of Indonesia, HATI HATI PENIPUAN MENGATASNAMAKAN SAMSUNG SERVICE CENTER, TIDAK MENERIMA PEMBAYARAN DP MELALUI TRANSFER, Jl. Boulevard Bar. Raya Lt. 2 No. A1, RT.18/RW.8, Jkt Utara, Daerah Khusus Ibukota Jakarta 14240";"HATI HATI PENIPUAN MENGATASNAMAKAN SAMSUNG SERVICE CENTER, TIDAK MENERIMA PEMBAYARAN DP MELALUI TRANSFER, Jl. Boulevard Bar. Raya Lt. 2 No. A1, RT.18/RW.8, Jkt Utara";PAPUA;14240;Indonesia;08001128888;;;-61.506.741;1.068.908.571;https://maps.google.com/?cid=0x0:0xf9ffd563ffc48382;
mall;China;Din Tai Fung;"Mall Of Indonesia, Jl. Boulevard Bar. Raya ground floor, West Kelapa Gading, Square, North Jakarta City, Jakarta 14240";"Jl. Boulevard Bar. Raya ground floor, West Kelapa Gading, Square, North Jakarta City";PAPUA;14240;Indonesia;02145868001;;;-61.506.741;1.068.908.571;https://maps.google.com/?cid=0x0:0x3fe132ac0363f566;
mall;Pusat Perbelanjaan;Timika Mall;"57522, Jl. Hasanuddin No.9, Nawaripi, Mimika Baru, Mimika Regency, Papua 99971";"Jl. Hasanuddin No.9, Nawaripi, Mimika Baru, Mimika Regency";PAPUA;99971;Indonesia;;;;-45.673.682;1.368.869.612;https://maps.google.com/?cid=0x0:0x146edd1a60cab3dd;
mall;Pusat Perbelanjaan;Ramayana Timika;"Jl. Cendrawasih No.66, Kwamki, Kec. Mimika Baru, Kabupaten Mimika, Papua 99910";"Kwamki, Kec. Mimika Baru, Kabupaten Mimika";PAPUA;99910;Indonesia;081219332254;;;-45.408.303;1.368.776.915;https://maps.google.com/?cid=0x0:0x1129eedce4df0ad3;
mall;Restoran;RM Duta;"CVMP+3P8, Nawaripi, Kec. Mimika Baru, Kabupaten Mimika, Papua 99971";"Nawaripi, Kec. Mimika Baru, Kabupaten Mimika";PAPUA;99971;Indonesia;;;;-45.673.458;136.886.813;https://maps.google.com/?cid=0x0:0xc9a9476f7c104d5e;
mall;Toko;MR.DIY;"Timika Mall, Jl. Hasanuddin No.9, Nawaripi, Kec. Mimika Baru, Kabupaten Mimika, Papua 99971";"Jl. Hasanuddin No.9, Nawaripi, Kec. Mimika Baru, Kabupaten Mimika";PAPUA;99971;Indonesia;02130022789;;;-45.673.943;1.368.868.842;https://maps.google.com/?cid=0x0:0xb90465450eb16bd9;
mall;Pusat Perbelanjaan;WARUNG BIBI AI;"1, RT.1/RW.7, Papanggo, Kec. Tj. Priok, Jkt Utara, Daerah Khusus Ibukota Jakarta 14340";"RT.1/RW.7, Papanggo, Kec. Tj. Priok, Jkt Utara";PAPUA;14340;Indonesia;;;;-61.238.672;1.068.706.578;https://maps.google.com/?cid=0x0:0x38d2eee03cc80fc7;
mall;Pusat Perbelanjaan;Warung Ajis;"Kampung Jl. Lanji No.475, RT.6/RW.6, Papanggo, Kec. Tj. Priok, Jkt Utara, Daerah Khusus Ibukota Jakarta 14340";"RT.6/RW.6, Papanggo, Kec. Tj. Priok, Jkt Utara";PAPUA;14340;Indonesia;085772069628;;;-61.290.295;1.068.748.076;https://maps.google.com/?cid=0x0:0xd253022fa4f95de9;
mall;mall;Papua 98782;"Kabupaten Paniai, Papua";"Kabupaten Paniai, Papua";PAPUA;;Indonesia;;;;-40.286.691;1.367.865.516;https://maps.google.com/?cid=0x0:0x974bc6d0bf8e4cbf;
mall;Pusat Perbelanjaan;Mall Of Indonesia;"Jl. Boulevard Bar. Raya No.12, RT.18/RW.19, Klp. Gading Bar., Kec. Klp. Gading, Jkt Utara, Daerah Khusus Ibukota Jakarta 14240";"RT.18/RW.19, Klp. Gading Bar., Kec. Klp. Gading, Jkt Utara";PAPUA;14240;Indonesia;02145867888;;;-61.514.549;1.068.918.949;https://maps.google.com/?cid=0x0:0x3431c7aaadd1f1b6;
mall;Pusat Perbelanjaan;Shopping Family Tembagapura;"V34Q+XXH, Tembagapura, Arwandop, Tembagapura, Kec. Tembagapura, Kabupaten Mimika, Papua 99967";"Tembagapura, Arwandop, Tembagapura, Kec. Tembagapura, Kabupaten Mimika";PAPUA;99967;Indonesia;;;;-41.425.625;1.370.899.844;https://maps.google.com/?cid=0x0:0x23ff3f0a601439a2;
mall;Pusat Perbelanjaan;Mall Jayapura;"APO, Jl. Samratulangi, Bayangkara, Kec. Jayapura Utara, Kota Jayapura, Papua 99112";"Jl. Samratulangi, Bayangkara, Kec. Jayapura Utara, Kota Jayapura";PAPUA;99112;Indonesia;09675150000;;;-25.351.775;1.407.061.874;https://maps.google.com/?cid=0x0:0x54294cb27964023;
mall;Pusat Perbelanjaan;Wamena Mall;"WW4W+JH7, Wamena Kota, Distrik Wamena, Kabupaten Jayawijaya, Papua 99511";"Wamena Kota, Distrik Wamena, Kabupaten Jayawijaya";PAPUA;99511;Indonesia;081356954606;;;-40.934.521;1.389.464.176;https://maps.google.com/?cid=0x0:0x99f90a37cc207474;
mall;Pusat Perbelanjaan;Manokwari City Mall (MCM);"Jl. Yos Sudarso Manokwari, Manokwari Bar., Kec. Manokwari Bar., Kabupaten Manokwari, Papua Bar. 98312";"Manokwari Bar., Kec. Manokwari Bar., Kabupaten Manokwari";PAPUA;98312;Indonesia;08114918899;;;-0.85693;1.340.678.051;https://maps.google.com/?cid=0x0:0x7e7b90df1d787501;
mall;Toko Swalayan;Primo Supermarket Tembagapura;"Tembagapura, Kec. Tembagapura, Kabupaten Mimika, Papua 98972";"Kec. Tembagapura, Kabupaten Mimika";PAPUA;98972;Indonesia;;;;-41.423.125;1.370.900.625;https://maps.google.com/?cid=0x0:0x79e7c0e104f18094;
mall;Balai masyarakat;Plaza Agawaa Ogom;"V4R2+53Q, Tembagapura, Kec. Tembagapura, Kabupaten Mimika, Papua 98972";"Tembagapura, Kec. Tembagapura, Kabupaten Mimika";PAPUA;98972;Indonesia;;;;-41.095.287;1.371.002.252;https://maps.google.com/?cid=0x0:0x28909d5c3b81fbc0;
mall;Pusat Perbelanjaan;donamall;"H. Ucu No.9 3, RT.3/RW.9, Pejaten Timur, Ps. Minggu, Kota Jakarta Selatan, Daerah Khusus Ibukota Jakarta 12510";"RT.3/RW.9, Pejaten Timur, Ps. Minggu, Kota Jakarta Selatan";PAPUA;12510;Indonesia;089935130014;;;-629.224;1.068.485.982;https://maps.google.com/?cid=0x0:0x28df4e8e607249f0;
mall;Pusat Perbelanjaan;Plaza Indonesia;"Jl. M.H. Thamrin No.Kav.28-30, Gondangdia, Kec. Menteng, Kota Jakarta Pusat, Daerah Khusus Ibukota Jakarta 10350";"Gondangdia, Kec. Menteng, Kota Jakarta Pusat";PAPUA;10350;Indonesia;02129920000;;;-61.935.977;1.068.219.468;https://maps.google.com/?cid=0x0:0x7d7fe17ad64a053f;
mall;mall;Papua 98763;"Kabupaten Paniai, Papua";"Kabupaten Paniai, Papua";PAPUA;;Indonesia;;;;-37.991.853;1.363.049.196;https://maps.google.com/?cid=0x0:0x8e322f542c113cfe;
mall;Pusat Perbelanjaan;Kampung Mogoya;"37J2+XC2, Obano, Distrik Paniai Barat, Kabupaten Paniai, Papua 98726";"Obano, Distrik Paniai Barat, Kabupaten Paniai";PAPUA;98726;Indonesia;;;;-39.176.032;1.362.510.182;https://maps.google.com/?cid=0x0:0x4bafea5a7bd913ad;
mall;Tujuan Wisata;Debay Odebutu;"37F2+CJ8, Muyetadi, Distrik Paniai Barat, Kabupaten Paniai, Papua 98726";"Muyetadi, Distrik Paniai Barat, Kabupaten Paniai";PAPUA;98726;Indonesia;081354187582;;;-39.264.706;1.362.515.774;https://maps.google.com/?cid=0x0:0x50ecd924e4c6eddc;
mall;mall;Siriwo;"Kabupaten Nabire, Papua";"Kabupaten Nabire, Papua";PAPUA;;Indonesia;;;;-33.800.854;1.360.944.845;https://maps.google.com/?cid=0x0:0x6470f4464b253b1b;
mall;Toko bahan makanan;Kios Syauqy;"97HM+J2C, Uwagi, Bogobaida, Kabupaten Paniai, Papua 98854";"Uwagi, Bogobaida, Kabupaten Paniai";PAPUA;98854;Indonesia;;;;-36.209.365;1.362.825.214;https://maps.google.com/?cid=0x0:0xa5be475d84ad58bc;
mall;Pusat Perbelanjaan;Mall Senayan City;"Jl. Asia Afrika No.Lot 19, Gelora, Kecamatan Tanah Abang, Kota Jakarta Pusat, Daerah Khusus Ibukota Jakarta 10270";"Gelora, Kecamatan Tanah Abang, Kota Jakarta Pusat";PAPUA;10270;Indonesia;02172781000;;;-62.271.953;1.067.970.117;https://maps.google.com/?cid=0x0:0x300c043104acc004;
mall;Pusat Perbelanjaan;Pondok Indah Mall 1;"Jl. Metro Pondok Indah No.Kav. 4, RT.1/RW.16, Pd. Pinang, Kec. Kby. Lama, Kota Jakarta Selatan, Daerah Khusus Ibukota Jakarta 12310";"RT.1/RW.16, Pd. Pinang, Kec. Kby. Lama, Kota Jakarta Selatan";PAPUA;12310;Indonesia;0217506750;;;-62.652.166;1.067.843.165;https://maps.google.com/?cid=0x0:0x682837113c4ea854;
mall;Pusat Perbelanjaan;Plaza Indonesia;"Jl. M.H. Thamrin No.Kav.28-30, Gondangdia, Kec. Menteng, Kota Jakarta Pusat, Daerah Khusus Ibukota Jakarta 10350";"Gondangdia, Kec. Menteng, Kota Jakarta Pusat";PAPUA;10350;Indonesia;02129920000;;;-61.935.977;1.068.219.468;https://maps.google.com/?cid=0x0:0x7d7fe17ad64a053f;
mall;mall;Papua 98854;Papua;Papua;PAPUA;;Indonesia;;;;-34.998.572;1.360.944.845;https://maps.google.com/?cid=0x0:0x17ab1bd64156ee45;
mall;Pusat Perbelanjaan;Mall Senayan City;"Jl. Asia Afrika No.Lot 19, Gelora, Kecamatan Tanah Abang, Kota Jakarta Pusat, Daerah Khusus Ibukota Jakarta 10270";"Gelora, Kecamatan Tanah Abang, Kota Jakarta Pusat";PAPUA;10270;Indonesia;02172781000;;;-62.271.953;1.067.970.117;https://maps.google.com/?cid=0x0:0x300c043104acc004;
mall;Pusat Perbelanjaan;Pondok Indah Mall 1;"Jl. Metro Pondok Indah No.Kav. 4, RT.1/RW.16, Pd. Pinang, Kec. Kby. Lama, Kota Jakarta Selatan, Daerah Khusus Ibukota Jakarta 12310";"RT.1/RW.16, Pd. Pinang, Kec. Kby. Lama, Kota Jakarta Selatan";PAPUA;12310;Indonesia;0217506750;;;-62.652.166;1.067.843.165;https://maps.google.com/?cid=0x0:0x682837113c4ea854;
mall;mall;Papua 98715;"Kabupaten Paniai, Papua";"Kabupaten Paniai, Papua";PAPUA;;Indonesia;;;;-38.146.561;1.364.296.942;https://maps.google.com/?cid=0x0:0x49e2a3ef18e7312b;
mall;Pusat Perbelanjaan;Kampung Mogoya;"37J2+XC2, Obano, Distrik Paniai Barat, Kabupaten Paniai, Papua 98726";"Obano, Distrik Paniai Barat, Kabupaten Paniai";PAPUA;98726;Indonesia;;;;-39.176.032;1.362.510.182;https://maps.google.com/?cid=0x0:0x4bafea5a7bd913ad;
mall;Tujuan Wisata;Debay Odebutu;"37F2+CJ8, Muyetadi, Distrik Paniai Barat, Kabupaten Paniai, Papua 98726";"Muyetadi, Distrik Paniai Barat, Kabupaten Paniai";PAPUA;98726;Indonesia;081354187582;;;-39.264.706;1.362.515.774;https://maps.google.com/?cid=0x0:0x50ecd924e4c6eddc;
mall;Pusat Perbelanjaan;Mall Kota Kasablanka;"Jl. Raya Casablanca No.Kav 88, Menteng Dalam, Kec. Tebet, Kota Jakarta Selatan, Daerah Khusus Ibukota Jakarta 12870";"Menteng Dalam, Kec. Tebet, Kota Jakarta Selatan";PAPUA;12870;Indonesia;02129465000;;;-62.240.353;1.068.425.979;https://maps.google.com/?cid=0x0:0xaf54cb631563acce;
mall;Pusat Perbelanjaan;Lippo Plaza Keboen Raya;"Jl. Malabar 2 No.17A, Babakan, Kecamatan Bogor Tengah, Kota Bogor, Jawa Barat 16129";"Babakan, Kecamatan Bogor Tengah, Kota Bogor";PAPUA;16129;Indonesia;;;;-65.954.656;1.068.057.665;https://maps.google.com/?cid=0x0:0xcda1b5f11e139fea;
mall;Pusat Perbelanjaan;Kalibata city square;"Jl. Raya Kalibata No.1, Rawajati, Kec. Pancoran, Kota Jakarta Selatan, Daerah Khusus Ibukota Jakarta 12750";"Rawajati, Kec. Pancoran, Kota Jakarta Selatan";PAPUA;12750;Indonesia;;;;-62.562.715;1.068.521.776;https://maps.google.com/?cid=0x0:0x59db28d93506d0e6;
mall;Pusat Perbelanjaan;Grand Indonesia Shopping Town;"Jl. M.H. Thamrin No.1, Menteng, Kec. Menteng, Kota Jakarta Pusat, Daerah Khusus Ibukota Jakarta 10310";"Menteng, Kec. Menteng, Kota Jakarta Pusat";PAPUA;10310;Indonesia;02123580001;;;-61.965.848;1.068.224.882;https://maps.google.com/?cid=0x0:0xccfcc89b95aaf1ae;
mall;Pusat Perbelanjaan;Mall Senayan City;"Jl. Asia Afrika No.Lot 19, Gelora, Kecamatan Tanah Abang, Kota Jakarta Pusat, Daerah Khusus Ibukota Jakarta 10270";"Gelora, Kecamatan Tanah Abang, Kota Jakarta Pusat";PAPUA;10270;Indonesia;02172781000;;;-62.271.953;1.067.970.117;https://maps.google.com/?cid=0x0:0x300c043104acc004;
mall;Pusat Perbelanjaan;Mall Plaza Senayan;"Jl. Asia Afrika No.8, RT.1/RW.3, Gelora, Kecamatan Tanah Abang, Kota Jakarta Pusat, Daerah Khusus Ibukota Jakarta 10270";"RT.1/RW.3, Gelora, Kecamatan Tanah Abang, Kota Jakarta Pusat";PAPUA;10270;Indonesia;0215725555;;;-62.254.775;1.067.992.649;https://maps.google.com/?cid=0x0:0x788e3a1eef75ac94;
mall;Pusat Perbelanjaan;Pondok Indah Mall 1;"Jl. Metro Pondok Indah No.Kav. 4, RT.1/RW.16, Pd. Pinang, Kec. Kby. Lama, Kota Jakarta Selatan, Daerah Khusus Ibukota Jakarta 12310";"RT.1/RW.16, Pd. Pinang, Kec. Kby. Lama, Kota Jakarta Selatan";PAPUA;12310;Indonesia;0217506750;;;-62.652.166;1.067.843.165;https://maps.google.com/?cid=0x0:0x682837113c4ea854;
mall;Taman;Senayan Park;"Jl. Gerbang Pemuda No.3, RT.1/RW.3, Gelora, Kecamatan Tanah Abang, Kota Jakarta Pusat, Daerah Khusus Ibukota Jakarta 10270";"RT.1/RW.3, Gelora, Kecamatan Tanah Abang, Kota Jakarta Pusat";PAPUA;10270;Indonesia;0212512030;;;-62.128.077;1.068.036.757;https://maps.google.com/?cid=0x0:0xc0ea4d9a9d1b2936;
mall;Toko Pakaian;Sogo Plaza Senayan;"Jl. Asia Afrika Plaza No.8, RT.1/RW.3, Senayan, Kecamatan Tanah Abang, Kota Jakarta Pusat, Daerah Khusus Ibukota Jakarta 10270";"RT.1/RW.3, Senayan, Kecamatan Tanah Abang, Kota Jakarta Pusat";PAPUA;10270;Indonesia;02157900055;;;-62.255.782;1.067.990.351;https://maps.google.com/?cid=0x0:0xa9954a894bf479ef;
mall;Pusat Perbelanjaan;Mall Jayapura;"APO, Jl. Samratulangi, Bayangkara, Kec. Jayapura Utara, Kota Jayapura, Papua 99112";"Jl. Samratulangi, Bayangkara, Kec. Jayapura Utara, Kota Jayapura";PAPUA;99112;Indonesia;09675150000;;;-25.351.775;1.407.061.874;https://maps.google.com/?cid=0x0:0x54294cb27964023;
mall;Pusat Perbelanjaan;SAGA MALL;"Kota Baru, Kec. Abepura, Kota Jayapura, Papua 99351";"Kec. Abepura, Kota Jayapura";PAPUA;99351;Indonesia;;;;-26.105.845;1.406.654.189;https://maps.google.com/?cid=0x0:0xaf65e43ff84ff9e6;
mall;Kedai Kopi;JCO COFFEE  DONUTS MALL JAYAPURA;"Jl. Kab. No.99112, Bayangkara, Kec. Jayapura Utara, Kota Jayapura, Papua 99112";"Bayangkara, Kec. Jayapura Utara, Kota Jayapura";PAPUA;99112;Indonesia;;;;-25.353.252;1.407.060.198;https://maps.google.com/?cid=0x0:0x8cbe835113b8c269;
mall;Pusat Perbelanjaan;Timika Mall;"57522, Jl. Hasanuddin No.9, Nawaripi, Mimika Baru, Mimika Regency, Papua 99971";"Jl. Hasanuddin No.9, Nawaripi, Mimika Baru, Mimika Regency";PAPUA;99971;Indonesia;;;;-45.673.682;1.368.869.612;https://maps.google.com/?cid=0x0:0x146edd1a60cab3dd;
mall;Pusat Perbelanjaan;Ramayana Timika;"Jl. Cendrawasih No.66, Kwamki, Kec. Mimika Baru, Kabupaten Mimika, Papua 99910";"Kwamki, Kec. Mimika Baru, Kabupaten Mimika";PAPUA;99910;Indonesia;081219332254;;;-45.408.303;1.368.776.915;https://maps.google.com/?cid=0x0:0x1129eedce4df0ad3;
mall;Restoran;RM Duta;"CVMP+3P8, Nawaripi, Kec. Mimika Baru, Kabupaten Mimika, Papua 99971";"Nawaripi, Kec. Mimika Baru, Kabupaten Mimika";PAPUA;99971;Indonesia;;;;-45.673.458;136.886.813;https://maps.google.com/?cid=0x0:0xc9a9476f7c104d5e;
mall;Toko;MR.DIY;"Timika Mall, Jl. Hasanuddin No.9, Nawaripi, Kec. Mimika Baru, Kabupaten Mimika, Papua 99971";"Jl. Hasanuddin No.9, Nawaripi, Kec. Mimika Baru, Kabupaten Mimika";PAPUA;99971;Indonesia;02130022789;;;-45.673.943;1.368.868.842;https://maps.google.com/?cid=0x0:0xb90465450eb16bd9;
mall;Pusat Perbelanjaan;Mall Kota Kasablanka;"Jl. Raya Casablanca No.Kav 88, Menteng Dalam, Kec. Tebet, Kota Jakarta Selatan, Daerah Khusus Ibukota Jakarta 12870";"Menteng Dalam, Kec. Tebet, Kota Jakarta Selatan";PAPUA;12870;Indonesia;02129465000;;;-62.240.353;1.068.425.979;https://maps.google.com/?cid=0x0:0xaf54cb631563acce;
mall;Pusat Perbelanjaan;Pacific Place Mall;"Jl. Jend. Sudirman kav 52-53, Senayan, Kec. Kby. Baru, Kota Jakarta Selatan, Daerah Khusus Ibukota Jakarta 12190";"Senayan, Kec. Kby. Baru, Kota Jakarta Selatan";PAPUA;12190;Indonesia;02151402828;;;-62.240.197;1.068.101.858;https://maps.google.com/?cid=0x0:0xc4a608b34b5f03cc;
mall;Pusat Perbelanjaan;Grand Indonesia Shopping Town;"Jl. M.H. Thamrin No.1, Menteng, Kec. Menteng, Kota Jakarta Pusat, Daerah Khusus Ibukota Jakarta 10310";"Menteng, Kec. Menteng, Kota Jakarta Pusat";PAPUA;10310;Indonesia;02123580001;;;-61.965.848;1.068.224.882;https://maps.google.com/?cid=0x0:0xccfcc89b95aaf1ae;
mall;Pusat Perbelanjaan;Mall Senayan City;"Jl. Asia Afrika No.Lot 19, Gelora, Kecamatan Tanah Abang, Kota Jakarta Pusat, Daerah Khusus Ibukota Jakarta 10270";"Gelora, Kecamatan Tanah Abang, Kota Jakarta Pusat";PAPUA;10270;Indonesia;02172781000;;;-62.271.953;1.067.970.117;https://maps.google.com/?cid=0x0:0x300c043104acc004;
mall;Pusat Perbelanjaan;Mall Plaza Senayan;"Jl. Asia Afrika No.8, RT.1/RW.3, Gelora, Kecamatan Tanah Abang, Kota Jakarta Pusat, Daerah Khusus Ibukota Jakarta 10270";"RT.1/RW.3, Gelora, Kecamatan Tanah Abang, Kota Jakarta Pusat";PAPUA;10270;Indonesia;0215725555;;;-62.254.775;1.067.992.649;https://maps.google.com/?cid=0x0:0x788e3a1eef75ac94;
mall;Korea;Dookki Kota Kasablanka;"Kota Kasablanka Mall Unit UG 27, Jl. Raya Casablanca No.88, RT.16/RW.5, Menteng Dalam, Kec. Tebet, Daerah Khusus Ibukota Jakarta 12960";"Jl. Raya Casablanca No.88, RT.16/RW.5, Menteng Dalam, Kec. Tebet";PAPUA;12960;Indonesia;085885313361;;;-62.236.553;1.068.418.983;https://maps.google.com/?cid=0x0:0x6c1d283dab40ac68;
mall;Restoran;Markette - Kota Kasablanka;"Food Society, Jl. Raya Casablanca No.88 Lobby, Ground Floor, Menteng Dalam, Kec. Tebet, Kota Jakarta Selatan, Daerah Khusus Ibukota Jakarta 12870";"Jl. Raya Casablanca No.88 Lobby, Ground Floor, Menteng Dalam, Kec. Tebet, Kota Jakarta Selatan";PAPUA;12870;Indonesia;02129626161;;;-6.222.827;1.068.428.202;https://maps.google.com/?cid=0x0:0x8c0daa8e7ed6b228;
mall;Pusat Perbelanjaan;Pondok Indah Mall 1;"Jl. Metro Pondok Indah No.Kav. 4, RT.1/RW.16, Pd. Pinang, Kec. Kby. Lama, Kota Jakarta Selatan, Daerah Khusus Ibukota Jakarta 12310";"RT.1/RW.16, Pd. Pinang, Kec. Kby. Lama, Kota Jakarta Selatan";PAPUA;12310;Indonesia;0217506750;;;-62.652.166;1.067.843.165;https://maps.google.com/?cid=0x0:0x682837113c4ea854;
mall;Taman;Senayan Park;"Jl. Gerbang Pemuda No.3, RT.1/RW.3, Gelora, Kecamatan Tanah Abang, Kota Jakarta Pusat, Daerah Khusus Ibukota Jakarta 10270";"RT.1/RW.3, Gelora, Kecamatan Tanah Abang, Kota Jakarta Pusat";PAPUA;10270;Indonesia;0212512030;;;-62.128.077;1.068.036.757;https://maps.google.com/?cid=0x0:0xc0ea4d9a9d1b2936;
mall;BBQ Korea;Ojju K-Food Mall Kota Kasablanka;"Jl. Raya Casablanca No.88 Unit FSU - 35, RT.14/RW.5, Menteng Dalam, Tebet, South Jakarta City, Jakarta 12870";"RT.14/RW.5, Menteng Dalam, Tebet, South Jakarta City";PAPUA;12870;Indonesia;02129475220;;;-62.242.532;1.068.429.418;https://maps.google.com/?cid=0x0:0xe31738f2815ef961;
mall;mall;Novotel Jakarta Gajah Mada;"Jl. Gajah Mada No.188, Glodok, Kec. Taman Sari, Kota Jakarta Barat, Daerah Khusus Ibukota Jakarta 11120";"Glodok, Kec. Taman Sari, Kota Jakarta Barat";PAPUA;11120;Indonesia;02129367777;;;-61.472.816;1.068.154.065;https://maps.google.com/?cid=0x0:0xddf60eb540cc2b4c;
mall;mall;N/A;;;PAPUA;;Indonesia;;;;;;https://maps.google.com/?cid=0x0:0xddf60eb540cc2b4c%7C/g/1hdz97ygc%7Cen-ID;
mall;mall;Holiday Inn  Suites Jakarta Gajah Mada by IHG;"Jl. Gajah Mada No.211, Glodok, Kec. Taman Sari, Kota Jakarta Barat, Daerah Khusus Ibukota Jakarta 11120";"Glodok, Kec. Taman Sari, Kota Jakarta Barat";PAPUA;11120;Indonesia;02129776800;;;-6.145.296;106.815.231;https://maps.google.com/?cid=0x0:0x2517e02a01a8322;
mall;mall;Mercure Jakarta Kota;"Jl. Hayam Wuruk No.123, Mangga Besar, Kec. Taman Sari, Kota Jakarta Barat, Daerah Khusus Ibukota Jakarta 11160";"Mangga Besar, Kec. Taman Sari, Kota Jakarta Barat";PAPUA;11160;Indonesia;0216248680;;;-61.491.592;1.068.169.815;https://maps.google.com/?cid=0x0:0x4774cabba3ff425b;
mall;mall;Hotel Santika Premiere Hayam Wuruk Jakarta;"Jl. Hayam Wuruk No.125, RT.5/RW.6, Mangga Besar, Kec. Taman Sari, Kota Jakarta Barat, Daerah Khusus Ibukota Jakarta 11180";"RT.5/RW.6, Mangga Besar, Kec. Taman Sari, Kota Jakarta Barat";PAPUA;11180;Indonesia;0212600818;;;-61.494.529;1.068.171.578;https://maps.google.com/?cid=0x0:0x1b24f334f6f81cd7;
mall;mall;Grand Paragon Hotel;"Jl. Gajah Mada No.126, RT.13/RW.8, Keagungan, Kec. Taman Sari, Kota Jakarta Barat, Daerah Khusus Ibukota Jakarta 11130";"RT.13/RW.8, Keagungan, Kec. Taman Sari, Kota Jakarta Barat";PAPUA;11130;Indonesia;;;;-61.520.983;1.068.168.512;https://maps.google.com/?cid=0x0:0xbdca003965b7714d;
mall;mall;Amaris Hotel Mangga Besar;"Jl. Raya Mangga Besar No.7, RT.6/RW.5, Mangga Besar, Kec. Taman Sari, Kota Jakarta Barat, Daerah Khusus Ibukota Jakarta 11180";"RT.6/RW.5, Mangga Besar, Kec. Taman Sari, Kota Jakarta Barat";PAPUA;11180;Indonesia;0216262908;;;-61.493.475;1.068.188.245;https://maps.google.com/?cid=0x0:0x59f1114a5bfa1fe0;
mall;mall;Cove Aventurine - Kost Mangga Besar;"Jl. Mangga Besar III, RT.9/RW.5, Mangga Besar, Kec. Taman Sari, Kota Jakarta Barat, Daerah Khusus Ibukota Jakarta 11180";"RT.9/RW.5, Mangga Besar, Kec. Taman Sari, Kota Jakarta Barat";PAPUA;11180;Indonesia;;;;-61.488.344;1.068.192.575;https://maps.google.com/?cid=0x0:0xfb71423e8b9d99dc;
mall;Museum Sejarah Lokal;Monumen Nasional;"Merdeka Square, Jalan Lapangan Monas, Gambir, Kecamatan Gambir, Kota Jakarta Pusat, Daerah Khusus Ibukota Jakarta 10110";"Jalan Lapangan Monas, Gambir, Kecamatan Gambir, Kota Jakarta Pusat";PAPUA;10110;Indonesia;0213853040;;;-61.753.924;1.068.271.528;https://maps.google.com/?cid=0x0:0x3d2ad6e1e0e9bcc8;
mall;Layanan Transportasi;Stasiun Jayakarta;"Jl. Pangeran Jayakarta No.28, Mangga Dua Sel., Kecamatan Sawah Besar, Kota Jakarta Pusat, Daerah Khusus Ibukota Jakarta 11110";"Mangga Dua Sel., Kecamatan Sawah Besar, Kota Jakarta Pusat";PAPUA;11110;Indonesia;;;;-61.412.258;1.068.229.932;https://maps.google.com/?cid=0x0:0x28bb4b030031f330;
mall;mall;Kota Tua;"Mangga Besar, Kec. Taman Sari, Kota Jakarta Barat, Daerah Khusus Ibukota Jakarta";"Kota Jakarta Barat, Daerah Khusus Ibukota Jakarta";PAPUA;;Indonesia;;;;-61.384.935;1.068.138.877;https://maps.google.com/?cid=0x0:0x42eab7e4f2537065;
mall;Kafe;Shophaus Menteng;"Jl. Teuku Cik Ditiro No.36 10, RT.10/RW.5, Menteng, Kec. Menteng, Kota Jakarta Pusat, Daerah Khusus Ibukota Jakarta 10310";"RT.10/RW.5, Menteng, Kec. Menteng, Kota Jakarta Pusat";PAPUA;10310;Indonesia;;;;-61.976.584;1.068.369.256;https://maps.google.com/?cid=0x0:0x9ab03d018da8d75e;
mall;Pusat Perbelanjaan;Mall Jayapura;"APO, Jl. Samratulangi, Bayangkara, Kec. Jayapura Utara, Kota Jayapura, Papua 99112";"Jl. Samratulangi, Bayangkara, Kec. Jayapura Utara, Kota Jayapura";PAPUA;99112;Indonesia;09675150000;;;-25.351.775;1.407.061.874;https://maps.google.com/?cid=0x0:0x54294cb27964023;
mall;Pusat Perbelanjaan;SAGA MALL;"Kota Baru, Kec. Abepura, Kota Jayapura, Papua 99351";"Kec. Abepura, Kota Jayapura";PAPUA;99351;Indonesia;;;;-26.105.845;1.406.654.189;https://maps.google.com/?cid=0x0:0xaf65e43ff84ff9e6;
mall;Kedai Kopi;JCO COFFEE  DONUTS MALL JAYAPURA;"Jl. Kab. No.99112, Bayangkara, Kec. Jayapura Utara, Kota Jayapura, Papua 99112";"Bayangkara, Kec. Jayapura Utara, Kota Jayapura";PAPUA;99112;Indonesia;;;;-25.353.252;1.407.060.198;https://maps.google.com/?cid=0x0:0x8cbe835113b8c269;
mall;Pusat Perbelanjaan;Timika Mall;"57522, Jl. Hasanuddin No.9, Nawaripi, Mimika Baru, Mimika Regency, Papua 99971";"Jl. Hasanuddin No.9, Nawaripi, Mimika Baru, Mimika Regency";PAPUA;99971;Indonesia;;;;-45.673.682;1.368.869.612;https://maps.google.com/?cid=0x0:0x146edd1a60cab3dd;
mall;Pusat Perbelanjaan;Ramayana Timika;"Jl. Cendrawasih No.66, Kwamki, Kec. Mimika Baru, Kabupaten Mimika, Papua 99910";"Kwamki, Kec. Mimika Baru, Kabupaten Mimika";PAPUA;99910;Indonesia;081219332254;;;-45.408.303;1.368.776.915;https://maps.google.com/?cid=0x0:0x1129eedce4df0ad3;
mall;Restoran;RM Duta;"CVMP+3P8, Nawaripi, Kec. Mimika Baru, Kabupaten Mimika, Papua 99971";"Nawaripi, Kec. Mimika Baru, Kabupaten Mimika";PAPUA;99971;Indonesia;;;;-45.673.458;136.886.813;https://maps.google.com/?cid=0x0:0xc9a9476f7c104d5e;
mall;Toko;MR.DIY;"Timika Mall, Jl. Hasanuddin No.9, Nawaripi, Kec. Mimika Baru, Kabupaten Mimika, Papua 99971";"Jl. Hasanuddin No.9, Nawaripi, Kec. Mimika Baru, Kabupaten Mimika";PAPUA;99971;Indonesia;02130022789;;;-45.673.943;1.368.868.842;https://maps.google.com/?cid=0x0:0xb90465450eb16bd9;
mall;Pusat Perbelanjaan;Mall Kota Kasablanka;"Jl. Raya Casablanca No.Kav 88, Menteng Dalam, Kec. Tebet, Kota Jakarta Selatan, Daerah Khusus Ibukota Jakarta 12870";"Menteng Dalam, Kec. Tebet, Kota Jakarta Selatan";PAPUA;12870;Indonesia;02129465000;;;-62.240.353;1.068.425.979;https://maps.google.com/?cid=0x0:0xaf54cb631563acce;
mall;Pusat Perbelanjaan;Pacific Place Mall;"Jl. Jend. Sudirman kav 52-53, Senayan, Kec. Kby. Baru, Kota Jakarta Selatan, Daerah Khusus Ibukota Jakarta 12190";"Senayan, Kec. Kby. Baru, Kota Jakarta Selatan";PAPUA;12190;Indonesia;02151402828;;;-62.240.197;1.068.101.858;https://maps.google.com/?cid=0x0:0xc4a608b34b5f03cc;
mall;Pusat Perbelanjaan;Mall Senayan City;"Jl. Asia Afrika No.Lot 19, Gelora, Kecamatan Tanah Abang, Kota Jakarta Pusat, Daerah Khusus Ibukota Jakarta 10270";"Gelora, Kecamatan Tanah Abang, Kota Jakarta Pusat";PAPUA;10270;Indonesia;02172781000;;;-62.271.953;1.067.970.117;https://maps.google.com/?cid=0x0:0x300c043104acc004;
mall;Pusat Perbelanjaan;Grand Indonesia Shopping Town;"Jl. M.H. Thamrin No.1, Menteng, Kec. Menteng, Kota Jakarta Pusat, Daerah Khusus Ibukota Jakarta 10310";"Menteng, Kec. Menteng, Kota Jakarta Pusat";PAPUA;10310;Indonesia;02123580001;;;-61.965.848;1.068.224.882;https://maps.google.com/?cid=0x0:0xccfcc89b95aaf1ae;
mall;Pusat Perbelanjaan;Mall Plaza Senayan;"Jl. Asia Afrika No.8, RT.1/RW.3, Gelora, Kecamatan Tanah Abang, Kota Jakarta Pusat, Daerah Khusus Ibukota Jakarta 10270";"RT.1/RW.3, Gelora, Kecamatan Tanah Abang, Kota Jakarta Pusat";PAPUA;10270;Indonesia;0215725555;;;-62.254.775;1.067.992.649;https://maps.google.com/?cid=0x0:0x788e3a1eef75ac94;
mall;Pusat Perbelanjaan;Pondok Indah Mall 1;"Jl. Metro Pondok Indah No.Kav. 4, RT.1/RW.16, Pd. Pinang, Kec. Kby. Lama, Kota Jakarta Selatan, Daerah Khusus Ibukota Jakarta 12310";"RT.1/RW.16, Pd. Pinang, Kec. Kby. Lama, Kota Jakarta Selatan";PAPUA;12310;Indonesia;0217506750;;;-62.652.166;1.067.843.165;https://maps.google.com/?cid=0x0:0x682837113c4ea854;
mall;Pusat Perbelanjaan;Mall Kelapa Gading;"Jl. Boulevard Raya, RT.13/RW.18, Klp. Gading Tim., Kec. Klp. Gading, Jkt Utara, Daerah Khusus Ibukota Jakarta 14240";"RT.13/RW.18, Klp. Gading Tim., Kec. Klp. Gading, Jkt Utara";PAPUA;14240;Indonesia;0214531101;;;-61.577.957;1.069.084.998;https://maps.google.com/?cid=0x0:0xf81b02e78061a7af;
mall;Taman;Senayan Park;"Jl. Gerbang Pemuda No.3, RT.1/RW.3, Gelora, Kecamatan Tanah Abang, Kota Jakarta Pusat, Daerah Khusus Ibukota Jakarta 10270";"RT.1/RW.3, Gelora, Kecamatan Tanah Abang, Kota Jakarta Pusat";PAPUA;10270;Indonesia;0212512030;;;-62.128.077;1.068.036.757;https://maps.google.com/?cid=0x0:0xc0ea4d9a9d1b2936;
mall;Pusat Perbelanjaan;Gandaria City;"Jl. Sultan Iskandar Muda, Gandaria, Kec. Kby. Lama, Kota Jakarta Selatan, Daerah Khusus Ibukota Jakarta 12240";"Gandaria, Kec. Kby. Lama, Kota Jakarta Selatan";PAPUA;12240;Indonesia;02129052888;;;-62.443.009;1.067.829.375;https://maps.google.com/?cid=0x0:0x6173704d396d5a99;
mall;Pusat Perbelanjaan;Kalibata city square;"Jl. Raya Kalibata No.1, Rawajati, Kec. Pancoran, Kota Jakarta Selatan, Daerah Khusus Ibukota Jakarta 12750";"Rawajati, Kec. Pancoran, Kota Jakarta Selatan";PAPUA;12750;Indonesia;;;;-62.562.715;1.068.521.776;https://maps.google.com/?cid=0x0:0x59db28d93506d0e6;
mall;Pusat Perbelanjaan;Summarecon Mall Kelapa Gading;"Jl. Boulevard Raya, Klp. Gading Tim., Kec. Klp. Gading, Jkt Utara, Daerah Khusus Ibukota Jakarta 14240";"Klp. Gading Tim., Kec. Klp. Gading, Jkt Utara";PAPUA;14240;Indonesia;0214531101;;;-61.572.666;1.069.084.263;https://maps.google.com/?cid=0x0:0x1c1a278e20ff1c47;
mall;Toko Pakaian;Sogo Plaza Senayan;"Jl. Asia Afrika Plaza No.8, RT.1/RW.3, Senayan, Kecamatan Tanah Abang, Kota Jakarta Pusat, Daerah Khusus Ibukota Jakarta 10270";"RT.1/RW.3, Senayan, Kecamatan Tanah Abang, Kota Jakarta Pusat";PAPUA;10270;Indonesia;02157900055;;;-62.255.782;1.067.990.351;https://maps.google.com/?cid=0x0:0xa9954a894bf479ef;
mall;Kafe;Shophaus Menteng;"Jl. Teuku Cik Ditiro No.36 10, RT.10/RW.5, Menteng, Kec. Menteng, Kota Jakarta Pusat, Daerah Khusus Ibukota Jakarta 10310";"RT.10/RW.5, Menteng, Kec. Menteng, Kota Jakarta Pusat";PAPUA;10310;Indonesia;;;;-61.976.584;1.068.369.256;https://maps.google.com/?cid=0x0:0x9ab03d018da8d75e;
mall;Pusat Perbelanjaan;Lippo Plaza Keboen Raya;"Jl. Malabar 2 No.17A, Babakan, Kecamatan Bogor Tengah, Kota Bogor, Jawa Barat 16129";"Babakan, Kecamatan Bogor Tengah, Kota Bogor";PAPUA;16129;Indonesia;;;;-65.954.656;1.068.057.665;https://maps.google.com/?cid=0x0:0xcda1b5f11e139fea;
mall;Pusat Perbelanjaan;Revo Mall;"Jl. Ahmad Yani No.Kav. 1, RT.005/RW.002, Pekayon Jaya, Kec. Bekasi Sel., Kota Bks, Jawa Barat 17148";"RT.005/RW.002, Pekayon Jaya, Kec. Bekasi Sel., Kota Bks";PAPUA;17148;Indonesia;02182432212;;;-62.548.794;1.069.898.243;https://maps.google.com/?cid=0x0:0xda8b934f21da2231;
mall;Pujasera;Food Society;"Kota Kasablanka, Ground Floor, Jl. Raya Casablanca No.Kav. 88 Kav 88, RT.16/RW.5, Menteng Dalam, Tebet, South Jakarta City, Jakarta 12870";"Ground Floor, Jl. Raya Casablanca No.Kav. 88 Kav 88, RT.16/RW.5, Menteng Dalam, Tebet, South Jakarta City";PAPUA;12870;Indonesia;;;;-62.242.411;1.068.423.388;https://maps.google.com/?cid=0x0:0x1d6e4b01873b2af8;
mall;Korea;Kyochon Kota Kasablanka;"Jl. Raya Casablanca No.88, RT.16/RW.5, Menteng Dalam, Kec. Tebet, Kota Jakarta Selatan, Daerah Khusus Ibukota Jakarta 12870";"RT.16/RW.5, Menteng Dalam, Kec. Tebet, Kota Jakarta Selatan";PAPUA;12870;Indonesia;02129626169;;;-62.236.553;1.068.418.983;https://maps.google.com/?cid=0x0:0xd75926daf779005f;
mall;Perhentian bus;Poins Mall;"Jl. R.A. Kartini No.1, RT.9/RW.7, Lb. Bulus, Kec. Cilandak, Kota Jakarta Selatan, Daerah Khusus Ibukota Jakarta 12440";"RT.9/RW.7, Lb. Bulus, Kec. Cilandak, Kota Jakarta Selatan";PAPUA;12440;Indonesia;02175921122;;;-62.899.462;1.067.781.514;https://maps.google.com/?cid=0x0:0xf56df5d4319c363a;
mall;Pusat Perbelanjaan;Mall Artha Gading Jakarta;"Jl. Artha Gading Sel. No.1, Klp. Gading Bar., Kec. Klp. Gading, Jkt Utara, Daerah Khusus Ibukota Jakarta 14240";"Klp. Gading Bar., Kec. Klp. Gading, Jkt Utara";PAPUA;14240;Indonesia;02145864000;;;-61.457.739;1.068.919.187;https://maps.google.com/?cid=0x0:0x176166b3d087c724;
mall;Pusat Perbelanjaan;Mall Senayan City;"Jl. Asia Afrika No.Lot 19, Gelora, Kecamatan Tanah Abang, Kota Jakarta Pusat, Daerah Khusus Ibukota Jakarta 10270";"Gelora, Kecamatan Tanah Abang, Kota Jakarta Pusat";PAPUA;10270;Indonesia;02172781000;;;-62.271.953;1.067.970.117;https://maps.google.com/?cid=0x0:0x300c043104acc004;
mall;Pusat Perbelanjaan;Mall Plaza Senayan;"Jl. Asia Afrika No.8, RT.1/RW.3, Gelora, Kecamatan Tanah Abang, Kota Jakarta Pusat, Daerah Khusus Ibukota Jakarta 10270";"RT.1/RW.3, Gelora, Kecamatan Tanah Abang, Kota Jakarta Pusat";PAPUA;10270;Indonesia;0215725555;;;-62.254.775;1.067.992.649;https://maps.google.com/?cid=0x0:0x788e3a1eef75ac94;
mall;Taman;Senayan Park;"Jl. Gerbang Pemuda No.3, RT.1/RW.3, Gelora, Kecamatan Tanah Abang, Kota Jakarta Pusat, Daerah Khusus Ibukota Jakarta 10270";"RT.1/RW.3, Gelora, Kecamatan Tanah Abang, Kota Jakarta Pusat";PAPUA;10270;Indonesia;0212512030;;;-62.128.077;1.068.036.757;https://maps.google.com/?cid=0x0:0xc0ea4d9a9d1b2936;
mall;Pizza;Pizza Marzano;"Senayan City Lower Ground, Jl. Asia Afrika Lot 19, Daerah Khusus Ibukota Jakarta 12210";Jl. Asia Afrika Lot 19;PAPUA;12210;Indonesia;02172781065;;;-62.268.064;1.067.970.378;https://maps.google.com/?cid=0x0:0xb570f44544859923;
mall;Masakan Jepang Autentik;Sushi Hiro Senayan City;"Senayan City, Mall, Jl. Asia Afrika LT 5, RT.1/RW.3, Gelora, Kecamatan Tanah Abang, Kota Jakarta Pusat, Daerah Khusus Ibukota Jakarta 10270";"Mall, Jl. Asia Afrika LT 5, RT.1/RW.3, Gelora, Kecamatan Tanah Abang, Kota Jakarta Pusat";PAPUA;10270;Indonesia;02172782250;;;-62.269.324;1.067.969.276;https://maps.google.com/?cid=0x0:0x4b8f42e9ec1e6d3c;
mall;Bioskop;Cinema XXI;"Jl. Asia Afrika No.3, RT.1/RW.3, Gelora, Kecamatan Tanah Abang, Kota Jakarta Pusat, Daerah Khusus Ibukota Jakarta 10270";"RT.1/RW.3, Gelora, Kecamatan Tanah Abang, Kota Jakarta Pusat";PAPUA;10270;Indonesia;02172781221;;;-62.268.822;1.067.976.424;https://maps.google.com/?cid=0x0:0x9cb47d55493750ee;
mall;Pujasera;Social Garden;"Senayan City, Ground Floor - South Lobby, Jl. Asia Afrika, RT.1/RW.3, Senayan, Jakarta, Daerah Khusus Ibukota Jakarta 10270";"Ground Floor - South Lobby, Jl. Asia Afrika, RT.1/RW.3, Senayan, Jakarta";PAPUA;10270;Indonesia;02172781516;;;-62.278.497;1.067.970.357;https://maps.google.com/?cid=0x0:0x35d9c3bd7550e941;
mall;Indonesia;Remboelan - Senayan City;"Jl. Asia Afrika Store 5 - 23, 25, 26, Gelora, Kecamatan Tanah Abang, Kota Jakarta Pusat, Daerah Khusus Ibukota Jakarta 10270";"25, 26, Gelora, Kecamatan Tanah Abang, Kota Jakarta Pusat";PAPUA;10270;Indonesia;02172781586;;;-62.273.225;1.067.967.597;https://maps.google.com/?cid=0x0:0x4d7c5240f54edd51;
mall;Pusat Perbelanjaan;Mall Jayapura;"APO, Jl. Samratulangi, Bayangkara, Kec. Jayapura Utara, Kota Jayapura, Papua 99112";"Jl. Samratulangi, Bayangkara, Kec. Jayapura Utara, Kota Jayapura";PAPUA;99112;Indonesia;09675150000;;;-25.351.775;1.407.061.874;https://maps.google.com/?cid=0x0:0x54294cb27964023;
mall;Pusat Perbelanjaan;SAGA MALL;"Kota Baru, Kec. Abepura, Kota Jayapura, Papua 99351";"Kec. Abepura, Kota Jayapura";PAPUA;99351;Indonesia;;;;-26.105.845;1.406.654.189;https://maps.google.com/?cid=0x0:0xaf65e43ff84ff9e6;
mall;Kedai Kopi;JCO COFFEE  DONUTS MALL JAYAPURA;"Jl. Kab. No.99112, Bayangkara, Kec. Jayapura Utara, Kota Jayapura, Papua 99112";"Bayangkara, Kec. Jayapura Utara, Kota Jayapura";PAPUA;99112;Indonesia;;;;-25.353.252;1.407.060.198;https://maps.google.com/?cid=0x0:0x8cbe835113b8c269;
mall;Toko Swalayan;Hypermart Jayapura Mall;"Jl. Dr. Sam Ratulangi No.47, Bayangkara, Kec. Jayapura Utara, Kota Jayapura, Papua 99112";"Bayangkara, Kec. Jayapura Utara, Kota Jayapura";PAPUA;99112;Indonesia;0967522298;;;-25.350.388;1.407.055.769;https://maps.google.com/?cid=0x0:0xb1412384235d004a;
mall;Pusat Perbelanjaan;Lippo Plaza Keboen Raya;"Jl. Malabar 2 No.17A, Babakan, Kecamatan Bogor Tengah, Kota Bogor, Jawa Barat 16129";"Babakan, Kecamatan Bogor Tengah, Kota Bogor";PAPUA;16129;Indonesia;;;;-65.954.656;1.068.057.665;https://maps.google.com/?cid=0x0:0xcda1b5f11e139fea;
mall;Pusat Perbelanjaan;Mall Kota Kasablanka;"Jl. Raya Casablanca No.Kav 88, Menteng Dalam, Kec. Tebet, Kota Jakarta Selatan, Daerah Khusus Ibukota Jakarta 12870";"Menteng Dalam, Kec. Tebet, Kota Jakarta Selatan";PAPUA;12870;Indonesia;02129465000;;;-62.240.353;1.068.425.979;https://maps.google.com/?cid=0x0:0xaf54cb631563acce;
mall;Pusat Perbelanjaan;Pacific Place Mall;"Jl. Jend. Sudirman kav 52-53, Senayan, Kec. Kby. Baru, Kota Jakarta Selatan, Daerah Khusus Ibukota Jakarta 12190";"Senayan, Kec. Kby. Baru, Kota Jakarta Selatan";PAPUA;12190;Indonesia;02151402828;;;-62.240.197;1.068.101.858;https://maps.google.com/?cid=0x0:0xc4a608b34b5f03cc;
mall;Pusat Perbelanjaan;Grand Indonesia Shopping Town;"Jl. M.H. Thamrin No.1, Menteng, Kec. Menteng, Kota Jakarta Pusat, Daerah Khusus Ibukota Jakarta 10310";"Menteng, Kec. Menteng, Kota Jakarta Pusat";PAPUA;10310;Indonesia;02123580001;;;-61.965.848;1.068.224.882;https://maps.google.com/?cid=0x0:0xccfcc89b95aaf1ae;
mall;Pusat Perbelanjaan;Summarecon Mall Kelapa Gading;"Jl. Boulevard Raya, Klp. Gading Tim., Kec. Klp. Gading, Jkt Utara, Daerah Khusus Ibukota Jakarta 14240";"Klp. Gading Tim., Kec. Klp. Gading, Jkt Utara";PAPUA;14240;Indonesia;0214531101;;;-61.572.666;1.069.084.263;https://maps.google.com/?cid=0x0:0x1c1a278e20ff1c47;
mall;Pusat Perbelanjaan;Pondok Indah Mall 1;"Jl. Metro Pondok Indah No.Kav. 4, RT.1/RW.16, Pd. Pinang, Kec. Kby. Lama, Kota Jakarta Selatan, Daerah Khusus Ibukota Jakarta 12310";"RT.1/RW.16, Pd. Pinang, Kec. Kby. Lama, Kota Jakarta Selatan";PAPUA;12310;Indonesia;0217506750;;;-62.652.166;1.067.843.165;https://maps.google.com/?cid=0x0:0x682837113c4ea854;
mall;Pusat Perbelanjaan;Kalibata city square;"Jl. Raya Kalibata No.1, Rawajati, Kec. Pancoran, Kota Jakarta Selatan, Daerah Khusus Ibukota Jakarta 12750";"Rawajati, Kec. Pancoran, Kota Jakarta Selatan";PAPUA;12750;Indonesia;;;;-62.562.715;1.068.521.776;https://maps.google.com/?cid=0x0:0x59db28d93506d0e6;
mall;Pusat Perbelanjaan;Central Park;"Jl. Letjen S. Parman No.Kav. 28, Tj. Duren Sel., Kec. Grogol petamburan, Kota Jakarta Barat, Daerah Khusus Ibukota Jakarta 11470";"Tj. Duren Sel., Kec. Grogol petamburan, Kota Jakarta Barat";PAPUA;11470;Indonesia;02156989999;;;-61.771.373;1.067.909.788;https://maps.google.com/?cid=0x0:0xe816d65037c3207a;
mall;Pusat Perbelanjaan;Mall Kelapa Gading;"Jl. Boulevard Raya, RT.13/RW.18, Klp. Gading Tim., Kec. Klp. Gading, Jkt Utara, Daerah Khusus Ibukota Jakarta 14240";"RT.13/RW.18, Klp. Gading Tim., Kec. Klp. Gading, Jkt Utara";PAPUA;14240;Indonesia;0214531101;;;-61.577.957;1.069.084.998;https://maps.google.com/?cid=0x0:0xf81b02e78061a7af;
mall;Toko Pakaian;Sogo Plaza Senayan;"Jl. Asia Afrika Plaza No.8, RT.1/RW.3, Senayan, Kecamatan Tanah Abang, Kota Jakarta Pusat, Daerah Khusus Ibukota Jakarta 10270";"RT.1/RW.3, Senayan, Kecamatan Tanah Abang, Kota Jakarta Pusat";PAPUA;10270;Indonesia;02157900055;;;-62.255.782;1.067.990.351;https://maps.google.com/?cid=0x0:0xa9954a894bf479ef;
mall;Pusat Perbelanjaan;Kemang 88;"Jl. Kemang Raya No.88 10, RT.10/RW.2, Bangka, Kec. Mampang Prpt., Kota Jakarta Selatan, Daerah Khusus Ibukota Jakarta 12730";"RT.10/RW.2, Bangka, Kec. Mampang Prpt., Kota Jakarta Selatan";PAPUA;12730;Indonesia;0217182822;;;-62.701.324;1.068.151.995;https://maps.google.com/?cid=0x0:0x3e9c15ee109a5742;
mall;Toko Pakaian Wanita;COLORBOX Kota Kasablanka;"Jl. Raya Casablanca No.88 16, RT.2/RW.14, Menteng Dalam, Kec. Tebet, Kota Jakarta Selatan, Daerah Khusus Ibukota Jakarta 12870";"RT.2/RW.14, Menteng Dalam, Kec. Tebet, Kota Jakarta Selatan";PAPUA;12870;Indonesia;02129465049;;;-6.222.925;1.068.427.581;https://maps.google.com/?cid=0x0:0x7f38997b24444e4e;
mall;Toko Pakaian Olahraga;SPORTS STATION Kota Kasablanka;"KOTA KASABLANKA, Jl. Raya Casablanca No.88 2, RT.2/RW.14, Menteng Dalam, Kec. Tebet, Kota Jakarta Selatan, Daerah Khusus Ibukota Jakarta 12870";"Jl. Raya Casablanca No.88 2, RT.2/RW.14, Menteng Dalam, Kec. Tebet, Kota Jakarta Selatan";PAPUA;12870;Indonesia;02129465125;;;-6.223.026;106.842.761;https://maps.google.com/?cid=0x0:0xd7e2581a9a78e7b4;
mall;Pusat Perbelanjaan;Mall Taman Anggrek;"Jl. Letjen S. Parman, RT.12/RW.1, Tj. Duren Sel., Kec. Grogol petamburan, Kota Jakarta Barat, Daerah Khusus Ibukota Jakarta 11470";"RT.12/RW.1, Tj. Duren Sel., Kec. Grogol petamburan, Kota Jakarta Barat";PAPUA;11470;Indonesia;0215643777;;;-61.782.936;1.067.924.023;https://maps.google.com/?cid=0x0:0xb287bf108f4ef441;
mall;Pusat Perbelanjaan;Mall Jayapura;"APO, Jl. Samratulangi, Bayangkara, Kec. Jayapura Utara, Kota Jayapura, Papua 99112";"Jl. Samratulangi, Bayangkara, Kec. Jayapura Utara, Kota Jayapura";PAPUA;99112;Indonesia;09675150000;;;-25.351.775;1.407.061.874;https://maps.google.com/?cid=0x0:0x54294cb27964023;
mall;Pusat Perbelanjaan;SAGA MALL;"Kota Baru, Kec. Abepura, Kota Jayapura, Papua 99351";"Kec. Abepura, Kota Jayapura";PAPUA;99351;Indonesia;;;;-26.105.845;1.406.654.189;https://maps.google.com/?cid=0x0:0xaf65e43ff84ff9e6;
mall;Pusat Perbelanjaan;Timika Mall;"57522, Jl. Hasanuddin No.9, Nawaripi, Mimika Baru, Mimika Regency, Papua 99971";"Jl. Hasanuddin No.9, Nawaripi, Mimika Baru, Mimika Regency";PAPUA;99971;Indonesia;;;;-45.673.682;1.368.869.612;https://maps.google.com/?cid=0x0:0x146edd1a60cab3dd;
mall;Restoran;RM Duta;"CVMP+3P8, Nawaripi, Kec. Mimika Baru, Kabupaten Mimika, Papua 99971";"Nawaripi, Kec. Mimika Baru, Kabupaten Mimika";PAPUA;99971;Indonesia;;;;-45.673.458;136.886.813;https://maps.google.com/?cid=0x0:0xc9a9476f7c104d5e;
mall;Toko;MR.DIY;"Timika Mall, Jl. Hasanuddin No.9, Nawaripi, Kec. Mimika Baru, Kabupaten Mimika, Papua 99971";"Jl. Hasanuddin No.9, Nawaripi, Kec. Mimika Baru, Kabupaten Mimika";PAPUA;99971;Indonesia;02130022789;;;-45.673.943;1.368.868.842;https://maps.google.com/?cid=0x0:0xb90465450eb16bd9;
mall;Pusat Perbelanjaan;Mall Kota Kasablanka;"Jl. Raya Casablanca No.Kav 88, Menteng Dalam, Kec. Tebet, Kota Jakarta Selatan, Daerah Khusus Ibukota Jakarta 12870";"Menteng Dalam, Kec. Tebet, Kota Jakarta Selatan";PAPUA;12870;Indonesia;02129465000;;;-62.240.353;1.068.425.979;https://maps.google.com/?cid=0x0:0xaf54cb631563acce;
mall;Pusat Perbelanjaan;Lippo Plaza Keboen Raya;"Jl. Malabar 2 No.17A, Babakan, Kecamatan Bogor Tengah, Kota Bogor, Jawa Barat 16129";"Babakan, Kecamatan Bogor Tengah, Kota Bogor";PAPUA;16129;Indonesia;;;;-65.954.656;1.068.057.665;https://maps.google.com/?cid=0x0:0xcda1b5f11e139fea;
mall;Pusat Perbelanjaan;Blok M Plaza;"Jl. Bulungan No.76, RT.6/RW.6, Kramat Pela, Kec. Kby. Baru, Kota Jakarta Selatan, Daerah Khusus Ibukota Jakarta 12130";"RT.6/RW.6, Kramat Pela, Kec. Kby. Baru, Kota Jakarta Selatan";PAPUA;12130;Indonesia;0217209288;;;-62.441.189;1.067.976.404;https://maps.google.com/?cid=0x0:0x3e110f817acb352d;
mall;Pusat Perbelanjaan;Mall Plaza Senayan;"Jl. Asia Afrika No.8, RT.1/RW.3, Gelora, Kecamatan Tanah Abang, Kota Jakarta Pusat, Daerah Khusus Ibukota Jakarta 10270";"RT.1/RW.3, Gelora, Kecamatan Tanah Abang, Kota Jakarta Pusat";PAPUA;10270;Indonesia;0215725555;;;-62.254.775;1.067.992.649;https://maps.google.com/?cid=0x0:0x788e3a1eef75ac94;
mall;Pusat Perbelanjaan;Mall Senayan City;"Jl. Asia Afrika No.Lot 19, Gelora, Kecamatan Tanah Abang, Kota Jakarta Pusat, Daerah Khusus Ibukota Jakarta 10270";"Gelora, Kecamatan Tanah Abang, Kota Jakarta Pusat";PAPUA;10270;Indonesia;02172781000;;;-62.271.953;1.067.970.117;https://maps.google.com/?cid=0x0:0x300c043104acc004;
mall;Pusat Perbelanjaan;Kalibata city square;"Jl. Raya Kalibata No.1, Rawajati, Kec. Pancoran, Kota Jakarta Selatan, Daerah Khusus Ibukota Jakarta 12750";"Rawajati, Kec. Pancoran, Kota Jakarta Selatan";PAPUA;12750;Indonesia;;;;-62.562.715;1.068.521.776;https://maps.google.com/?cid=0x0:0x59db28d93506d0e6;
mall;Taman;Senayan Park;"Jl. Gerbang Pemuda No.3, RT.1/RW.3, Gelora, Kecamatan Tanah Abang, Kota Jakarta Pusat, Daerah Khusus Ibukota Jakarta 10270";"RT.1/RW.3, Gelora, Kecamatan Tanah Abang, Kota Jakarta Pusat";PAPUA;10270;Indonesia;0212512030;;;-62.128.077;1.068.036.757;https://maps.google.com/?cid=0x0:0xc0ea4d9a9d1b2936;
mall;Toko Pakaian;Sogo Plaza Senayan;"Jl. Asia Afrika Plaza No.8, RT.1/RW.3, Senayan, Kecamatan Tanah Abang, Kota Jakarta Pusat, Daerah Khusus Ibukota Jakarta 10270";"RT.1/RW.3, Senayan, Kecamatan Tanah Abang, Kota Jakarta Pusat";PAPUA;10270;Indonesia;02157900055;;;-62.255.782;1.067.990.351;https://maps.google.com/?cid=0x0:0xa9954a894bf479ef;
mall;mall;Papua 98722;"Paniai Tim., Kabupaten Paniai, Papua";"Kabupaten Paniai, Papua";PAPUA;;Indonesia;;;;-39.261.758;1.365.066.359;https://maps.google.com/?cid=0x0:0xc8074bbd911fd05a;
mall;Pusat Perbelanjaan;Plaza Indonesia;"Jl. M.H. Thamrin No.Kav.28-30, Gondangdia, Kec. Menteng, Kota Jakarta Pusat, Daerah Khusus Ibukota Jakarta 10350";"Gondangdia, Kec. Menteng, Kota Jakarta Pusat";PAPUA;10350;Indonesia;02129920000;;;-61.935.977;1.068.219.468;https://maps.google.com/?cid=0x0:0x7d7fe17ad64a053f;
mall;Pusat Perbelanjaan;Mall Jayapura;"APO, Jl. Samratulangi, Bayangkara, Kec. Jayapura Utara, Kota Jayapura, Papua 99112";"Jl. Samratulangi, Bayangkara, Kec. Jayapura Utara, Kota Jayapura";PAPUA;99112;Indonesia;09675150000;;;-25.351.775;1.407.061.874;https://maps.google.com/?cid=0x0:0x54294cb27964023;
mall;Pusat Perbelanjaan;Palembang Square;"Jl. Angkatan 45, Lorok Pakjo, Kec. Ilir Bar. I, Kota Palembang, Sumatera Selatan 30137";"Lorok Pakjo, Kec. Ilir Bar. I, Kota Palembang";PAPUA;30137;Indonesia;0711380001;;;-29.761.223;1.047.417.611;https://maps.google.com/?cid=0x0:0xa673f79fd841a344;
mall;Toko;KIOS TANZIL;"39CF+GC4, Enarotali, Paniai Tim., Kabupaten Paniai, Papua";"Kabupaten Paniai, Papua";PAPUA;;Indonesia;;;;-39.287.481;1.363.735.703;https://maps.google.com/?cid=0x0:0x645747b80bb51c21;
mall;mall;Pasar Enarotali;"397J+6VF, Enarotali, Paniai Tim., Kabupaten Paniai, Papua 98726";"Enarotali, Paniai Tim., Kabupaten Paniai";PAPUA;98726;Indonesia;;;;-39.369.308;1.363.821.683;https://maps.google.com/?cid=0x0:0x688132d160733e;
mall;Pusat Perbelanjaan;Timika Mall;"57522, Jl. Hasanuddin No.9, Nawaripi, Mimika Baru, Mimika Regency, Papua 99971";"Jl. Hasanuddin No.9, Nawaripi, Mimika Baru, Mimika Regency";PAPUA;99971;Indonesia;;;;-45.673.682;1.368.869.612;https://maps.google.com/?cid=0x0:0x146edd1a60cab3dd;
mall;Pusat Perbelanjaan;Lippo Plaza Keboen Raya;"Jl. Malabar 2 No.17A, Babakan, Kecamatan Bogor Tengah, Kota Bogor, Jawa Barat 16129";"Babakan, Kecamatan Bogor Tengah, Kota Bogor";PAPUA;16129;Indonesia;;;;-65.954.656;1.068.057.665;https://maps.google.com/?cid=0x0:0xcda1b5f11e139fea;
mall;Pusat Perbelanjaan;Mall Plaza Senayan;"Jl. Asia Afrika No.8, RT.1/RW.3, Gelora, Kecamatan Tanah Abang, Kota Jakarta Pusat, Daerah Khusus Ibukota Jakarta 10270";"RT.1/RW.3, Gelora, Kecamatan Tanah Abang, Kota Jakarta Pusat";PAPUA;10270;Indonesia;0215725555;;;-62.254.775;1.067.992.649;https://maps.google.com/?cid=0x0:0x788e3a1eef75ac94;
mall;Toko Pakaian;Sogo Plaza Senayan;"Jl. Asia Afrika Plaza No.8, RT.1/RW.3, Senayan, Kecamatan Tanah Abang, Kota Jakarta Pusat, Daerah Khusus Ibukota Jakarta 10270";"RT.1/RW.3, Senayan, Kecamatan Tanah Abang, Kota Jakarta Pusat";PAPUA;10270;Indonesia;02157900055;;;-62.255.782;1.067.990.351;https://maps.google.com/?cid=0x0:0xa9954a894bf479ef;
mall;Pusat Perbelanjaan;Pondok Indah Mall 1;"Jl. Metro Pondok Indah No.Kav. 4, RT.1/RW.16, Pd. Pinang, Kec. Kby. Lama, Kota Jakarta Selatan, Daerah Khusus Ibukota Jakarta 12310";"RT.1/RW.16, Pd. Pinang, Kec. Kby. Lama, Kota Jakarta Selatan";PAPUA;12310;Indonesia;0217506750;;;-62.652.166;1.067.843.165;https://maps.google.com/?cid=0x0:0x682837113c4ea854;
mall;Pusat Perbelanjaan;Summarecon Mall Kelapa Gading;"Jl. Boulevard Raya, Klp. Gading Tim., Kec. Klp. Gading, Jkt Utara, Daerah Khusus Ibukota Jakarta 14240";"Klp. Gading Tim., Kec. Klp. Gading, Jkt Utara";PAPUA;14240;Indonesia;0214531101;;;-61.572.666;1.069.084.263;https://maps.google.com/?cid=0x0:0x1c1a278e20ff1c47;
mall;Pusat Perbelanjaan;Mall Kelapa Gading;"Jl. Boulevard Raya, RT.13/RW.18, Klp. Gading Tim., Kec. Klp. Gading, Jkt Utara, Daerah Khusus Ibukota Jakarta 14240";"RT.13/RW.18, Klp. Gading Tim., Kec. Klp. Gading, Jkt Utara";PAPUA;14240;Indonesia;0214531101;;;-61.577.957;1.069.084.998;https://maps.google.com/?cid=0x0:0xf81b02e78061a7af;
mall;Pusat Perbelanjaan;Mall Jayapura;"APO, Jl. Samratulangi, Bayangkara, Kec. Jayapura Utara, Kota Jayapura, Papua 99112";"Jl. Samratulangi, Bayangkara, Kec. Jayapura Utara, Kota Jayapura";PAPUA;99112;Indonesia;09675150000;;;-25.351.775;1.407.061.874;https://maps.google.com/?cid=0x0:0x54294cb27964023;
mall;Pusat Perbelanjaan;SAGA MALL;"Kota Baru, Kec. Abepura, Kota Jayapura, Papua 99351";"Kec. Abepura, Kota Jayapura";PAPUA;99351;Indonesia;;;;-26.105.845;1.406.654.189;https://maps.google.com/?cid=0x0:0xaf65e43ff84ff9e6;
mall;Pusat Perbelanjaan;Timika Mall;"57522, Jl. Hasanuddin No.9, Nawaripi, Mimika Baru, Mimika Regency, Papua 99971";"Jl. Hasanuddin No.9, Nawaripi, Mimika Baru, Mimika Regency";PAPUA;99971;Indonesia;;;;-45.673.682;1.368.869.612;https://maps.google.com/?cid=0x0:0x146edd1a60cab3dd;
mall;Restoran;RM Duta;"CVMP+3P8, Nawaripi, Kec. Mimika Baru, Kabupaten Mimika, Papua 99971";"Nawaripi, Kec. Mimika Baru, Kabupaten Mimika";PAPUA;99971;Indonesia;;;;-45.673.458;136.886.813;https://maps.google.com/?cid=0x0:0xc9a9476f7c104d5e;
mall;Toko;MR.DIY;"Timika Mall, Jl. Hasanuddin No.9, Nawaripi, Kec. Mimika Baru, Kabupaten Mimika, Papua 99971";"Jl. Hasanuddin No.9, Nawaripi, Kec. Mimika Baru, Kabupaten Mimika";PAPUA;99971;Indonesia;02130022789;;;-45.673.943;1.368.868.842;https://maps.google.com/?cid=0x0:0xb90465450eb16bd9;
mall;Pusat Perbelanjaan;Mall Kota Kasablanka;"Jl. Raya Casablanca No.Kav 88, Menteng Dalam, Kec. Tebet, Kota Jakarta Selatan, Daerah Khusus Ibukota Jakarta 12870";"Menteng Dalam, Kec. Tebet, Kota Jakarta Selatan";PAPUA;12870;Indonesia;02129465000;;;-62.240.353;1.068.425.979;https://maps.google.com/?cid=0x0:0xaf54cb631563acce;
mall;Pusat Perbelanjaan;Lippo Plaza Keboen Raya;"Jl. Malabar 2 No.17A, Babakan, Kecamatan Bogor Tengah, Kota Bogor, Jawa Barat 16129";"Babakan, Kecamatan Bogor Tengah, Kota Bogor";PAPUA;16129;Indonesia;;;;-65.954.656;1.068.057.665;https://maps.google.com/?cid=0x0:0xcda1b5f11e139fea;
mall;Pusat Perbelanjaan;Kalibata city square;"Jl. Raya Kalibata No.1, Rawajati, Kec. Pancoran, Kota Jakarta Selatan, Daerah Khusus Ibukota Jakarta 12750";"Rawajati, Kec. Pancoran, Kota Jakarta Selatan";PAPUA;12750;Indonesia;;;;-62.562.715;1.068.521.776;https://maps.google.com/?cid=0x0:0x59db28d93506d0e6;
mall;Pusat Perbelanjaan;Summarecon Mall Kelapa Gading;"Jl. Boulevard Raya, Klp. Gading Tim., Kec. Klp. Gading, Jkt Utara, Daerah Khusus Ibukota Jakarta 14240";"Klp. Gading Tim., Kec. Klp. Gading, Jkt Utara";PAPUA;14240;Indonesia;0214531101;;;-61.572.666;1.069.084.263;https://maps.google.com/?cid=0x0:0x1c1a278e20ff1c47;
mall;Pusat Perbelanjaan;Pondok Indah Mall 1;"Jl. Metro Pondok Indah No.Kav. 4, RT.1/RW.16, Pd. Pinang, Kec. Kby. Lama, Kota Jakarta Selatan, Daerah Khusus Ibukota Jakarta 12310";"RT.1/RW.16, Pd. Pinang, Kec. Kby. Lama, Kota Jakarta Selatan";PAPUA;12310;Indonesia;0217506750;;;-62.652.166;1.067.843.165;https://maps.google.com/?cid=0x0:0x682837113c4ea854;
mall;Pusat Perbelanjaan;Baywalk Mall;"Jl. Pluit Karang Ayu Barat Blok B.1 Utara, RT.20/RW.2, Pluit, Kec. Penjaringan, Jkt Utara, Daerah Khusus Ibukota Jakarta 14450";"RT.20/RW.2, Pluit, Kec. Penjaringan, Jkt Utara";PAPUA;14450;Indonesia;02129628000;;;-61.077.144;1.067.792.084;https://maps.google.com/?cid=0x0:0xba8f1565cc043679;
mall;Pusat Perbelanjaan;Mall Kelapa Gading;"Jl. Boulevard Raya, RT.13/RW.18, Klp. Gading Tim., Kec. Klp. Gading, Jkt Utara, Daerah Khusus Ibukota Jakarta 14240";"RT.13/RW.18, Klp. Gading Tim., Kec. Klp. Gading, Jkt Utara";PAPUA;14240;Indonesia;0214531101;;;-61.577.957;1.069.084.998;https://maps.google.com/?cid=0x0:0xf81b02e78061a7af;
mall;Pusat Perbelanjaan;Revo Mall;"Jl. Ahmad Yani No.Kav. 1, RT.005/RW.002, Pekayon Jaya, Kec. Bekasi Sel., Kota Bks, Jawa Barat 17148";"RT.005/RW.002, Pekayon Jaya, Kec. Bekasi Sel., Kota Bks";PAPUA;17148;Indonesia;02182432212;;;-62.548.794;1.069.898.243;https://maps.google.com/?cid=0x0:0xda8b934f21da2231;
mall;mall;Papua 98715;"Kabupaten Paniai, Papua";"Kabupaten Paniai, Papua";PAPUA;;Indonesia;;;;-38.146.561;1.364.296.942;https://maps.google.com/?cid=0x0:0x49e2a3ef18e7312b;
mall;Pusat Perbelanjaan;Kampung Mogoya;"37J2+XC2, Obano, Distrik Paniai Barat, Kabupaten Paniai, Papua 98726";"Obano, Distrik Paniai Barat, Kabupaten Paniai";PAPUA;98726;Indonesia;;;;-39.176.032;1.362.510.182;https://maps.google.com/?cid=0x0:0x4bafea5a7bd913ad;
mall;Pusat Perbelanjaan;Timika Mall;"57522, Jl. Hasanuddin No.9, Nawaripi, Mimika Baru, Mimika Regency, Papua 99971";"Jl. Hasanuddin No.9, Nawaripi, Mimika Baru, Mimika Regency";PAPUA;99971;Indonesia;;;;-45.673.682;1.368.869.612;https://maps.google.com/?cid=0x0:0x146edd1a60cab3dd;
mall;Pusat Perbelanjaan;Mall Jayapura;"APO, Jl. Samratulangi, Bayangkara, Kec. Jayapura Utara, Kota Jayapura, Papua 99112";"Jl. Samratulangi, Bayangkara, Kec. Jayapura Utara, Kota Jayapura";PAPUA;99112;Indonesia;09675150000;;;-25.351.775;1.407.061.874;https://maps.google.com/?cid=0x0:0x54294cb27964023;
mall;Pusat Perbelanjaan;Thamrin City;"Jl. Thamrin Boulevard, Kb. Melati, Kecamatan Tanah Abang, Kota Jakarta Pusat, Daerah Khusus Ibukota Jakarta 10230";"Kb. Melati, Kecamatan Tanah Abang, Kota Jakarta Pusat";PAPUA;10230;Indonesia;02131990988;;;-61.939.374;1.068.161.005;https://maps.google.com/?cid=0x0:0x1b60abd2e0b3d6d1;
mall;Pusat Perbelanjaan;Mall Senayan City;"Jl. Asia Afrika No.Lot 19, Gelora, Kecamatan Tanah Abang, Kota Jakarta Pusat, Daerah Khusus Ibukota Jakarta 10270";"Gelora, Kecamatan Tanah Abang, Kota Jakarta Pusat";PAPUA;10270;Indonesia;02172781000;;;-62.271.953;1.067.970.117;https://maps.google.com/?cid=0x0:0x300c043104acc004;
mall;Toko;KIOS TANZIL;"39CF+GC4, Enarotali, Paniai Tim., Kabupaten Paniai, Papua";"Kabupaten Paniai, Papua";PAPUA;;Indonesia;;;;-39.287.481;1.363.735.703;https://maps.google.com/?cid=0x0:0x645747b80bb51c21;
mall;Pusat Perbelanjaan;Pluit Village Mall;"Jl. Pluit Indah, RT.6/RW.4, Pluit, Kec. Penjaringan, Jkt Utara, Daerah Khusus Ibukota Jakarta 14450";"RT.6/RW.4, Pluit, Kec. Penjaringan, Jkt Utara";PAPUA;14450;Indonesia;0216683888;;;-61.164.462;1.067.896.199;https://maps.google.com/?cid=0x0:0xdacb917bfb866141;
mall;Pusat Perbelanjaan;Emporium Pluit Mall;"Jl. Pluit Selatan Raya No.1, Penjaringan, Kec. Penjaringan, Jkt Utara, Daerah Khusus Ibukota Jakarta 14440";"Penjaringan, Kec. Penjaringan, Jkt Utara";PAPUA;14440;Indonesia;02166676288;;;-61.272.711;1.067.909.758;https://maps.google.com/?cid=0x0:0x54cb9f1766bde458;
mall;Pusat Perbelanjaan;Grand ITC Permata Hijau.;"Jl. Arteri Permata Hijau No.11, RT.11/RW.10, Grogol Utara, Kec. Kby. Lama, Kota Jakarta Selatan, Daerah Khusus Ibukota Jakarta 12210";"RT.11/RW.10, Grogol Utara, Kec. Kby. Lama, Kota Jakarta Selatan";PAPUA;12210;Indonesia;02153663888;;;-6.221.082;1.067.834.284;https://maps.google.com/?cid=0x0:0x58635aeb951ccaec;
mall;Kompleks Kondominium;Green Pramuka Square;"Jl. Rw. Jaya No.49, Rawasari, Kec. Cemp. Putih, Kota Jakarta Pusat, Daerah Khusus Ibukota Jakarta 10570";"Rawasari, Kec. Cemp. Putih, Kota Jakarta Pusat";PAPUA;10570;Indonesia;02129624747;;;-618.892;1.068.739.915;https://maps.google.com/?cid=0x0:0xc1176b766df1697e;
mall;Perhentian bus;Plaza Slipi Jaya;"Jl. Letjen S. Parman, RT.14/RW.1, Kemanggisan, Kec. Palmerah, Kota Jakarta Barat, Daerah Khusus Ibukota Jakarta 11480";"RT.14/RW.1, Kemanggisan, Kec. Palmerah, Kota Jakarta Barat";PAPUA;11480;Indonesia;0215304023;;;-61.892.704;1.067.965.048;https://maps.google.com/?cid=0x0:0x4901356a543de45c;
mall;Pusat Perbelanjaan;Mall Paradise Walk Serpong;"Paradise Walk Serpong, Jl. Raya Puspitek, Raya, Kec. Serpong, Kota Tangerang Selatan, Banten 15315";"Jl. Raya Puspitek, Raya, Kec. Serpong, Kota Tangerang Selatan";PAPUA;15315;Indonesia;;;;-63.485.883;1.066.944.207;https://maps.google.com/?cid=0x0:0x58c05aee341f4609;
mall;Pusat Perbelanjaan;Timika Mall;"57522, Jl. Hasanuddin No.9, Nawaripi, Mimika Baru, Mimika Regency, Papua 99971";"Jl. Hasanuddin No.9, Nawaripi, Mimika Baru, Mimika Regency";PAPUA;99971;Indonesia;;;;-45.673.682;1.368.869.612;https://maps.google.com/?cid=0x0:0x146edd1a60cab3dd;
mall;Pusat Perbelanjaan;Ramayana Timika;"Jl. Cendrawasih No.66, Kwamki, Kec. Mimika Baru, Kabupaten Mimika, Papua 99910";"Kwamki, Kec. Mimika Baru, Kabupaten Mimika";PAPUA;99910;Indonesia;081219332254;;;-45.408.303;1.368.776.915;https://maps.google.com/?cid=0x0:0x1129eedce4df0ad3;
mall;Restoran;RM Duta;"CVMP+3P8, Nawaripi, Kec. Mimika Baru, Kabupaten Mimika, Papua 99971";"Nawaripi, Kec. Mimika Baru, Kabupaten Mimika";PAPUA;99971;Indonesia;;;;-45.673.458;136.886.813;https://maps.google.com/?cid=0x0:0xc9a9476f7c104d5e;
mall;Kompleks Kondominium;Green Pramuka Square;"Jl. Rw. Jaya No.49, Rawasari, Kec. Cemp. Putih, Kota Jakarta Pusat, Daerah Khusus Ibukota Jakarta 10570";"Rawasari, Kec. Cemp. Putih, Kota Jakarta Pusat";PAPUA;10570;Indonesia;02129624747;;;-618.892;1.068.739.915;https://maps.google.com/?cid=0x0:0xc1176b766df1697e;
mall;Pusat Perbelanjaan;OMOTESANDO MALL BINTARO;"Jl. Jombang Raya, Bintaro, Kec. Pd. Aren, Kota Tangerang Selatan, Banten 15414";"Bintaro, Kec. Pd. Aren, Kota Tangerang Selatan";PAPUA;15414;Indonesia;;;;-62.813.314;1.067.034.174;https://maps.google.com/?cid=0x0:0x60c0384241516989;
mall;Pusat Perbelanjaan;Mall Paradise Walk Serpong;"Paradise Walk Serpong, Jl. Raya Puspitek, Raya, Kec. Serpong, Kota Tangerang Selatan, Banten 15315";"Jl. Raya Puspitek, Raya, Kec. Serpong, Kota Tangerang Selatan";PAPUA;15315;Indonesia;;;;-63.485.883;1.066.944.207;https://maps.google.com/?cid=0x0:0x58c05aee341f4609;
mall;mall;Papua 98726;"Kabupaten Paniai, Papua";"Kabupaten Paniai, Papua";PAPUA;;Indonesia;;;;-39.264.117;1.362.761.704;https://maps.google.com/?cid=0x0:0x51a62be53f847ea;
mall;Pusat Perbelanjaan;Kampung Mogoya;"37J2+XC2, Obano, Distrik Paniai Barat, Kabupaten Paniai, Papua 98726";"Obano, Distrik Paniai Barat, Kabupaten Paniai";PAPUA;98726;Indonesia;;;;-39.176.032;1.362.510.182;https://maps.google.com/?cid=0x0:0x4bafea5a7bd913ad;
mall;Tujuan Wisata;Debay Odebutu;"37F2+CJ8, Muyetadi, Distrik Paniai Barat, Kabupaten Paniai, Papua 98726";"Muyetadi, Distrik Paniai Barat, Kabupaten Paniai";PAPUA;98726;Indonesia;081354187582;;;-39.264.706;1.362.515.774;https://maps.google.com/?cid=0x0:0x50ecd924e4c6eddc;
mall;Pusat Perbelanjaan;Mall Jayapura;"APO, Jl. Samratulangi, Bayangkara, Kec. Jayapura Utara, Kota Jayapura, Papua 99112";"Jl. Samratulangi, Bayangkara, Kec. Jayapura Utara, Kota Jayapura";PAPUA;99112;Indonesia;09675150000;;;-25.351.775;1.407.061.874;https://maps.google.com/?cid=0x0:0x54294cb27964023;
mall;Toko;KIOS TANZIL;"39CF+GC4, Enarotali, Paniai Tim., Kabupaten Paniai, Papua";"Kabupaten Paniai, Papua";PAPUA;;Indonesia;;;;-39.287.481;1.363.735.703;https://maps.google.com/?cid=0x0:0x645747b80bb51c21;
supermarket;supermarket;Papua 98763;"Kabupaten Paniai, Papua";"Kabupaten Paniai, Papua";PAPUA;;Indonesia;;;;-37.991.853;1.363.049.196;https://maps.google.com/?cid=0x0:0x8e322f542c113cfe;
supermarket;Toko Ponsel;Toko D'Bilal;"Jln. Frans kaisepo, Enarotali, Paniai Tim., Kabupaten Paniai, Papua";"Kabupaten Paniai, Papua";PAPUA;;Indonesia;;;;-39.286.444;1.363.777.767;https://maps.google.com/?cid=0x0:0x816a7cdfbb6a9144;
supermarket;Toko bahan makanan;PC. DUPIA;"39CH+GCP, Awabutu, Paniai Tim., Kabupaten Paniai, Papua 98726";"Awabutu, Paniai Tim., Kabupaten Paniai";PAPUA;98726;Indonesia;085244950852;;;-39.286.657;1.363.785.627;https://maps.google.com/?cid=0x0:0x970e067f7ead8be9;
supermarket;Toko bahan makanan;Toko bahan;"597M+6V, Awebutu, Kebo, Kabupaten Paniai, Papua";"Kabupaten Paniai, Papua";PAPUA;;Indonesia;;;;-38.369.759;1.363.847.307;https://maps.google.com/?cid=0x0:0x454dca17c1743e36;
supermarket;Toko umum;Buah -buahan segar;"Bapouda, Enarotali, Paniai Tim., Kabupaten Paniai, Papua 98726";"Enarotali, Paniai Tim., Kabupaten Paniai";PAPUA;98726;Indonesia;;;;-39.321.429;1.363.808.792;https://maps.google.com/?cid=0x0:0x87a2152504956ea3;
supermarket;Toko;Kios Doopitaka;"6966+WXW, Jl. Dewouyemabutu, Kampung Amopa, Distrik Muye, Kabupaten Paniai, Papua";"Kabupaten Paniai, Papua";PAPUA;;Indonesia;;;;-37.876.441;1.363.624.686;https://maps.google.com/?cid=0x0:0x9b873bdadf884525;
supermarket;Toko;Toko Fathan Jaya;"39FH+865, Awabutu, Paniai Tim., Kabupaten Paniai, Papua 98726";"Awabutu, Paniai Tim., Kabupaten Paniai";PAPUA;98726;Indonesia;081240545949;;;-39.265.912;1.363.779.198;https://maps.google.com/?cid=0x0:0x85c35e537a210f0e;
supermarket;Toko Swalayan;Bukit Bintang;"Unnamed Road, Aikai, Paniai Tim., Kabupaten Paniai, Papua 98726";"Aikai, Paniai Tim., Kabupaten Paniai";PAPUA;98726;Indonesia;082248002448;;;-39.278.963;1.363.758.566;https://maps.google.com/?cid=0x0:0xddeaf0df7112c9f4;
supermarket;Pusat Perbelanjaan;Kios FMB;"97JM+3PJ, Uwagi, Bogobaida, Kabupaten Paniai, Papua 98854";"Uwagi, Bogobaida, Kabupaten Paniai";PAPUA;98854;Indonesia;;;;-36.197.993;1.362.842.795;https://maps.google.com/?cid=0x0:0x95809b0f7a1426b9;
supermarket;Toko bahan makanan;Abadi 3;"Unnamed Road, Paniai Tim., 98726, Aikai, Paniai Tim., Kabupaten Paniai, Papua 98726";"Paniai Tim.,";PAPUA;98726;Indonesia;082199214587;;;-39.299.081;136.376.288;https://maps.google.com/?cid=0x0:0x9d983c751165d273;
supermarket;Toko;Kios Sadaka Kogekotu;"39GH+4HJ, Awabutu, Paniai Tim., Kabupaten Paniai, Papua 98726";"Awabutu, Paniai Tim., Kabupaten Paniai";PAPUA;98726;Indonesia;;;;-3.924.664;136.378.879;https://maps.google.com/?cid=0x0:0x5e90cdc0b4ec7603;
supermarket;supermarket;Papua 98711;"Paniai Tim., Kabupaten Paniai, Papua";"Kabupaten Paniai, Papua";PAPUA;;Indonesia;;;;-39.236.807;1.364.681.501;https://maps.google.com/?cid=0x0:0x42ca7f49c2355029;
supermarket;Toko Ponsel;Toko D'Bilal;"Jln. Frans kaisepo, Enarotali, Paniai Tim., Kabupaten Paniai, Papua";"Kabupaten Paniai, Papua";PAPUA;;Indonesia;;;;-39.286.444;1.363.777.767;https://maps.google.com/?cid=0x0:0x816a7cdfbb6a9144;
supermarket;supermarket;Toko;"Paniai Tim., Kabupaten Paniai, Papua";"Kabupaten Paniai, Papua";PAPUA;;Indonesia;;;;-39.311.665;1.365.836.972;https://maps.google.com/?cid=0x0:0xbe94be1831da18f1;
supermarket;supermarket;Papua 98712;"Kabupaten Paniai, Papua";"Kabupaten Paniai, Papua";PAPUA;;Indonesia;;;;-38.602.755;1.364.296.942;https://maps.google.com/?cid=0x0:0xec5046199ceddbff;
supermarket;Toko bahan makanan;PC. DUPIA;"39CH+GCP, Awabutu, Paniai Tim., Kabupaten Paniai, Papua 98726";"Awabutu, Paniai Tim., Kabupaten Paniai";PAPUA;98726;Indonesia;085244950852;;;-39.286.657;1.363.785.627;https://maps.google.com/?cid=0x0:0x970e067f7ead8be9;
supermarket;Toko Ponsel;Toko D'Bilal;"Jln. Frans kaisepo, Enarotali, Paniai Tim., Kabupaten Paniai, Papua";"Kabupaten Paniai, Papua";PAPUA;;Indonesia;;;;-39.286.444;1.363.777.767;https://maps.google.com/?cid=0x0:0x816a7cdfbb6a9144;
supermarket;Toko;Toko Fathan Jaya;"39FH+865, Awabutu, Paniai Tim., Kabupaten Paniai, Papua 98726";"Awabutu, Paniai Tim., Kabupaten Paniai";PAPUA;98726;Indonesia;081240545949;;;-39.265.912;1.363.779.198;https://maps.google.com/?cid=0x0:0x85c35e537a210f0e;
supermarket;Toko Swalayan;Bukit Bintang;"Unnamed Road, Aikai, Paniai Tim., Kabupaten Paniai, Papua 98726";"Aikai, Paniai Tim., Kabupaten Paniai";PAPUA;98726;Indonesia;082248002448;;;-39.278.963;1.363.758.566;https://maps.google.com/?cid=0x0:0xddeaf0df7112c9f4;
supermarket;Toko bahan makanan;Abadi 3;"Unnamed Road, Paniai Tim., 98726, Aikai, Paniai Tim., Kabupaten Paniai, Papua 98726";"Paniai Tim.,";PAPUA;98726;Indonesia;082199214587;;;-39.299.081;136.376.288;https://maps.google.com/?cid=0x0:0x9d983c751165d273;
supermarket;Toko bahan makanan;Toko bahan;"597M+6V, Awebutu, Kebo, Kabupaten Paniai, Papua";"Kabupaten Paniai, Papua";PAPUA;;Indonesia;;;;-38.369.759;1.363.847.307;https://maps.google.com/?cid=0x0:0x454dca17c1743e36;
supermarket;Toko;Kios Sadaka Kogekotu;"39GH+4HJ, Awabutu, Paniai Tim., Kabupaten Paniai, Papua 98726";"Awabutu, Paniai Tim., Kabupaten Paniai";PAPUA;98726;Indonesia;;;;-3.924.664;136.378.879;https://maps.google.com/?cid=0x0:0x5e90cdc0b4ec7603;
supermarket;supermarket;Paniai Tim.;"Kabupaten Paniai, Papua";"Kabupaten Paniai, Papua";PAPUA;;Indonesia;;;;-39.293.592;1.363.780.656;https://maps.google.com/?cid=0x0:0x7f04dacf9b212bec;
supermarket;Toko Ponsel;Toko D'Bilal;"Jln. Frans kaisepo, Enarotali, Paniai Tim., Kabupaten Paniai, Papua";"Kabupaten Paniai, Papua";PAPUA;;Indonesia;;;;-39.286.444;1.363.777.767;https://maps.google.com/?cid=0x0:0x816a7cdfbb6a9144;
supermarket;Toko Ponsel;PANDA CELL;"Jl jalan tengah, Aikai, Paniai Tim., Kabupaten Paniai, Papua";"Kabupaten Paniai, Papua";PAPUA;;Indonesia;082131797379;;;-39.301.192;1.363.734.328;https://maps.google.com/?cid=0x0:0xe8ff0c6b3fa38cc3;
supermarket;supermarket;Paniai Tim.;"Kabupaten Paniai, Papua";"Kabupaten Paniai, Papua";PAPUA;;Indonesia;;;;-39.293.592;1.363.780.656;https://maps.google.com/?cid=0x0:0x7f04dacf9b212bec;
supermarket;Toko umum;Buah -buahan segar;"Bapouda, Enarotali, Paniai Tim., Kabupaten Paniai, Papua 98726";"Enarotali, Paniai Tim., Kabupaten Paniai";PAPUA;98726;Indonesia;;;;-39.321.429;1.363.808.792;https://maps.google.com/?cid=0x0:0x87a2152504956ea3;
supermarket;Toko;Toko Fathan Jaya;"39FH+865, Awabutu, Paniai Tim., Kabupaten Paniai, Papua 98726";"Awabutu, Paniai Tim., Kabupaten Paniai";PAPUA;98726;Indonesia;081240545949;;;-39.265.912;1.363.779.198;https://maps.google.com/?cid=0x0:0x85c35e537a210f0e;
supermarket;Toko bahan makanan;Abadi 3;"Unnamed Road, Paniai Tim., 98726, Aikai, Paniai Tim., Kabupaten Paniai, Papua 98726";"Paniai Tim.,";PAPUA;98726;Indonesia;082199214587;;;-39.299.081;136.376.288;https://maps.google.com/?cid=0x0:0x9d983c751165d273;
supermarket;Pasar;Pasar;"39FG+5F7, Unnamed Road, Aikai, Paniai Tim., Kabupaten Paniai, Papua 98726";"Unnamed Road, Aikai, Paniai Tim., Kabupaten Paniai";PAPUA;98726;Indonesia;;;;-392.709;1.363.761.767;https://maps.google.com/?cid=0x0:0xbe47181f81e8d234;
supermarket;Toko Swalayan;Bukit Bintang;"Unnamed Road, Aikai, Paniai Tim., Kabupaten Paniai, Papua 98726";"Aikai, Paniai Tim., Kabupaten Paniai";PAPUA;98726;Indonesia;082248002448;;;-39.278.963;1.363.758.566;https://maps.google.com/?cid=0x0:0xddeaf0df7112c9f4;
supermarket;Toko;Kios Sadaka Kogekotu;"39GH+4HJ, Awabutu, Paniai Tim., Kabupaten Paniai, Papua 98726";"Awabutu, Paniai Tim., Kabupaten Paniai";PAPUA;98726;Indonesia;;;;-3.924.664;136.378.879;https://maps.google.com/?cid=0x0:0x5e90cdc0b4ec7603;
supermarket;supermarket;Toko;"Paniai Tim., Kabupaten Paniai, Papua";"Kabupaten Paniai, Papua";PAPUA;;Indonesia;;;;-39.311.665;1.365.836.972;https://maps.google.com/?cid=0x0:0xbe94be1831da18f1;
supermarket;Toko bahan makanan;Toko bahan;"597M+6V, Awebutu, Kebo, Kabupaten Paniai, Papua";"Kabupaten Paniai, Papua";PAPUA;;Indonesia;;;;-38.369.759;1.363.847.307;https://maps.google.com/?cid=0x0:0x454dca17c1743e36;
supermarket;Toko Ponsel;Toko D'Bilal;"Jln. Frans kaisepo, Enarotali, Paniai Tim., Kabupaten Paniai, Papua";"Kabupaten Paniai, Papua";PAPUA;;Indonesia;;;;-39.286.444;1.363.777.767;https://maps.google.com/?cid=0x0:0x816a7cdfbb6a9144;
supermarket;Toko Ponsel;PANDA CELL;"Jl jalan tengah, Aikai, Paniai Tim., Kabupaten Paniai, Papua";"Kabupaten Paniai, Papua";PAPUA;;Indonesia;082131797379;;;-39.301.192;1.363.734.328;https://maps.google.com/?cid=0x0:0xe8ff0c6b3fa38cc3;
supermarket;supermarket;Paniai Tim.;"Kabupaten Paniai, Papua";"Kabupaten Paniai, Papua";PAPUA;;Indonesia;;;;-39.293.592;1.363.780.656;https://maps.google.com/?cid=0x0:0x7f04dacf9b212bec;
supermarket;Toko umum;Buah -buahan segar;"Bapouda, Enarotali, Paniai Tim., Kabupaten Paniai, Papua 98726";"Enarotali, Paniai Tim., Kabupaten Paniai";PAPUA;98726;Indonesia;;;;-39.321.429;1.363.808.792;https://maps.google.com/?cid=0x0:0x87a2152504956ea3;
supermarket;Toko;Toko Fathan Jaya;"39FH+865, Awabutu, Paniai Tim., Kabupaten Paniai, Papua 98726";"Awabutu, Paniai Tim., Kabupaten Paniai";PAPUA;98726;Indonesia;081240545949;;;-39.265.912;1.363.779.198;https://maps.google.com/?cid=0x0:0x85c35e537a210f0e;
supermarket;Toko bahan makanan;Abadi 3;"Unnamed Road, Paniai Tim., 98726, Aikai, Paniai Tim., Kabupaten Paniai, Papua 98726";"Paniai Tim.,";PAPUA;98726;Indonesia;082199214587;;;-39.299.081;136.376.288;https://maps.google.com/?cid=0x0:0x9d983c751165d273;
supermarket;Toko Swalayan;Bukit Bintang;"Unnamed Road, Aikai, Paniai Tim., Kabupaten Paniai, Papua 98726";"Aikai, Paniai Tim., Kabupaten Paniai";PAPUA;98726;Indonesia;082248002448;;;-39.278.963;1.363.758.566;https://maps.google.com/?cid=0x0:0xddeaf0df7112c9f4;
supermarket;Toko;Kios Sadaka Kogekotu;"39GH+4HJ, Awabutu, Paniai Tim., Kabupaten Paniai, Papua 98726";"Awabutu, Paniai Tim., Kabupaten Paniai";PAPUA;98726;Indonesia;;;;-3.924.664;136.378.879;https://maps.google.com/?cid=0x0:0x5e90cdc0b4ec7603;
supermarket;supermarket;Papua 98715;"Kabupaten Paniai, Papua";"Kabupaten Paniai, Papua";PAPUA;;Indonesia;;;;-38.146.561;1.364.296.942;https://maps.google.com/?cid=0x0:0x49e2a3ef18e7312b;
supermarket;Toko Ponsel;Toko D'Bilal;"Jln. Frans kaisepo, Enarotali, Paniai Tim., Kabupaten Paniai, Papua";"Kabupaten Paniai, Papua";PAPUA;;Indonesia;;;;-39.286.444;1.363.777.767;https://maps.google.com/?cid=0x0:0x816a7cdfbb6a9144;
supermarket;Toko bahan makanan;PC. DUPIA;"39CH+GCP, Awabutu, Paniai Tim., Kabupaten Paniai, Papua 98726";"Awabutu, Paniai Tim., Kabupaten Paniai";PAPUA;98726;Indonesia;085244950852;;;-39.286.657;1.363.785.627;https://maps.google.com/?cid=0x0:0x970e067f7ead8be9;
supermarket;Toko Swalayan;Bukit Bintang;"Unnamed Road, Aikai, Paniai Tim., Kabupaten Paniai, Papua 98726";"Aikai, Paniai Tim., Kabupaten Paniai";PAPUA;98726;Indonesia;082248002448;;;-39.278.963;1.363.758.566;https://maps.google.com/?cid=0x0:0xddeaf0df7112c9f4;
supermarket;Toko umum;Buah -buahan segar;"Bapouda, Enarotali, Paniai Tim., Kabupaten Paniai, Papua 98726";"Enarotali, Paniai Tim., Kabupaten Paniai";PAPUA;98726;Indonesia;;;;-39.321.429;1.363.808.792;https://maps.google.com/?cid=0x0:0x87a2152504956ea3;
supermarket;Pasar;Pasar;"39FG+5F7, Unnamed Road, Aikai, Paniai Tim., Kabupaten Paniai, Papua 98726";"Unnamed Road, Aikai, Paniai Tim., Kabupaten Paniai";PAPUA;98726;Indonesia;;;;-392.709;1.363.761.767;https://maps.google.com/?cid=0x0:0xbe47181f81e8d234;
supermarket;Toko bahan makanan;Abadi 3;"Unnamed Road, Paniai Tim., 98726, Aikai, Paniai Tim., Kabupaten Paniai, Papua 98726";"Paniai Tim.,";PAPUA;98726;Indonesia;082199214587;;;-39.299.081;136.376.288;https://maps.google.com/?cid=0x0:0x9d983c751165d273;
supermarket;Kios;Kios Doopitaka;"36MQ+M9, Obano, Distrik Paniai Barat, Kabupaten Paniai, Papua";"Kabupaten Paniai, Papua";PAPUA;;Indonesia;;;;-3.915.813;136.238.393;https://maps.google.com/?cid=0x0:0x4e8cfcc6a0800807;
supermarket;Toko;Kios Sadaka Kogekotu;"39GH+4HJ, Awabutu, Paniai Tim., Kabupaten Paniai, Papua 98726";"Awabutu, Paniai Tim., Kabupaten Paniai";PAPUA;98726;Indonesia;;;;-3.924.664;136.378.879;https://maps.google.com/?cid=0x0:0x5e90cdc0b4ec7603;
supermarket;Toko bahan makanan;Toko bahan;"597M+6V, Awebutu, Kebo, Kabupaten Paniai, Papua";"Kabupaten Paniai, Papua";PAPUA;;Indonesia;;;;-38.369.759;1.363.847.307;https://maps.google.com/?cid=0x0:0x454dca17c1743e36;
supermarket;supermarket;Papua 98716;"Distrik Ekadide, Kabupaten Paniai, Papua";"Kabupaten Paniai, Papua";PAPUA;;Indonesia;;;;-38.487.333;1.364.873.892;https://maps.google.com/?cid=0x0:0x83969942f885abae;
supermarket;Toko Ponsel;Toko D'Bilal;"Jln. Frans kaisepo, Enarotali, Paniai Tim., Kabupaten Paniai, Papua";"Kabupaten Paniai, Papua";PAPUA;;Indonesia;;;;-39.286.444;1.363.777.767;https://maps.google.com/?cid=0x0:0x816a7cdfbb6a9144;
supermarket;supermarket;Kampung okonobaida;"4FWV+CR, Obaipugaida, Distrik Ekadide, Kabupaten Paniai, Papua";"Kabupaten Paniai, Papua";PAPUA;;Indonesia;;;;-38.539.351;1.364.945.285;https://maps.google.com/?cid=0x0:0x5e4702b47fb8bd95;
supermarket;Toko bahan makanan;PC. DUPIA;"39CH+GCP, Awabutu, Paniai Tim., Kabupaten Paniai, Papua 98726";"Awabutu, Paniai Tim., Kabupaten Paniai";PAPUA;98726;Indonesia;085244950852;;;-39.286.657;1.363.785.627;https://maps.google.com/?cid=0x0:0x970e067f7ead8be9;
supermarket;Toko umum;Buah -buahan segar;"Bapouda, Enarotali, Paniai Tim., Kabupaten Paniai, Papua 98726";"Enarotali, Paniai Tim., Kabupaten Paniai";PAPUA;98726;Indonesia;;;;-39.321.429;1.363.808.792;https://maps.google.com/?cid=0x0:0x87a2152504956ea3;
supermarket;Toko;Toko Fathan Jaya;"39FH+865, Awabutu, Paniai Tim., Kabupaten Paniai, Papua 98726";"Awabutu, Paniai Tim., Kabupaten Paniai";PAPUA;98726;Indonesia;081240545949;;;-39.265.912;1.363.779.198;https://maps.google.com/?cid=0x0:0x85c35e537a210f0e;
supermarket;Toko bahan makanan;Abadi 3;"Unnamed Road, Paniai Tim., 98726, Aikai, Paniai Tim., Kabupaten Paniai, Papua 98726";"Paniai Tim.,";PAPUA;98726;Indonesia;082199214587;;;-39.299.081;136.376.288;https://maps.google.com/?cid=0x0:0x9d983c751165d273;
supermarket;Toko Swalayan;Bukit Bintang;"Unnamed Road, Aikai, Paniai Tim., Kabupaten Paniai, Papua 98726";"Aikai, Paniai Tim., Kabupaten Paniai";PAPUA;98726;Indonesia;082248002448;;;-39.278.963;1.363.758.566;https://maps.google.com/?cid=0x0:0xddeaf0df7112c9f4;
supermarket;Toko;Kios Sadaka Kogekotu;"39GH+4HJ, Awabutu, Paniai Tim., Kabupaten Paniai, Papua 98726";"Awabutu, Paniai Tim., Kabupaten Paniai";PAPUA;98726;Indonesia;;;;-3.924.664;136.378.879;https://maps.google.com/?cid=0x0:0x5e90cdc0b4ec7603;
supermarket;supermarket;Papua 98719;"Distrik Ekadide, Kabupaten Paniai, Papua";"Kabupaten Paniai, Papua";PAPUA;;Indonesia;;;;-38.701.022;1.365.836.972;https://maps.google.com/?cid=0x0:0x46cb5eccbd6243ee;
supermarket;Toko Ponsel;Toko D'Bilal;"Jln. Frans kaisepo, Enarotali, Paniai Tim., Kabupaten Paniai, Papua";"Kabupaten Paniai, Papua";PAPUA;;Indonesia;;;;-39.286.444;1.363.777.767;https://maps.google.com/?cid=0x0:0x816a7cdfbb6a9144;
supermarket;Toko bahan makanan;Toko bahan;"597M+6V, Awebutu, Kebo, Kabupaten Paniai, Papua";"Kabupaten Paniai, Papua";PAPUA;;Indonesia;;;;-38.369.759;1.363.847.307;https://maps.google.com/?cid=0x0:0x454dca17c1743e36;
supermarket;supermarket;Papua 98722;"Paniai Tim., Kabupaten Paniai, Papua";"Kabupaten Paniai, Papua";PAPUA;;Indonesia;;;;-39.261.758;1.365.066.359;https://maps.google.com/?cid=0x0:0xc8074bbd911fd05a;
supermarket;Toko Ponsel;Toko D'Bilal;"Jln. Frans kaisepo, Enarotali, Paniai Tim., Kabupaten Paniai, Papua";"Kabupaten Paniai, Papua";PAPUA;;Indonesia;;;;-39.286.444;1.363.777.767;https://maps.google.com/?cid=0x0:0x816a7cdfbb6a9144;
supermarket;Toko bahan makanan;PC. DUPIA;"39CH+GCP, Awabutu, Paniai Tim., Kabupaten Paniai, Papua 98726";"Awabutu, Paniai Tim., Kabupaten Paniai";PAPUA;98726;Indonesia;085244950852;;;-39.286.657;1.363.785.627;https://maps.google.com/?cid=0x0:0x970e067f7ead8be9;
supermarket;Toko;Toko Fathan Jaya;"39FH+865, Awabutu, Paniai Tim., Kabupaten Paniai, Papua 98726";"Awabutu, Paniai Tim., Kabupaten Paniai";PAPUA;98726;Indonesia;081240545949;;;-39.265.912;1.363.779.198;https://maps.google.com/?cid=0x0:0x85c35e537a210f0e;
supermarket;Pasar;Pasar;"39FG+5F7, Unnamed Road, Aikai, Paniai Tim., Kabupaten Paniai, Papua 98726";"Unnamed Road, Aikai, Paniai Tim., Kabupaten Paniai";PAPUA;98726;Indonesia;;;;-392.709;1.363.761.767;https://maps.google.com/?cid=0x0:0xbe47181f81e8d234;
supermarket;Toko;Kios Doopitaka;"6966+WXW, Jl. Dewouyemabutu, Kampung Amopa, Distrik Muye, Kabupaten Paniai, Papua";"Kabupaten Paniai, Papua";PAPUA;;Indonesia;;;;-37.876.441;1.363.624.686;https://maps.google.com/?cid=0x0:0x9b873bdadf884525;
supermarket;Toko Swalayan;Bukit Bintang;"Unnamed Road, Aikai, Paniai Tim., Kabupaten Paniai, Papua 98726";"Aikai, Paniai Tim., Kabupaten Paniai";PAPUA;98726;Indonesia;082248002448;;;-39.278.963;1.363.758.566;https://maps.google.com/?cid=0x0:0xddeaf0df7112c9f4;
supermarket;Toko bahan makanan;Abadi 3;"Unnamed Road, Paniai Tim., 98726, Aikai, Paniai Tim., Kabupaten Paniai, Papua 98726";"Paniai Tim.,";PAPUA;98726;Indonesia;082199214587;;;-39.299.081;136.376.288;https://maps.google.com/?cid=0x0:0x9d983c751165d273;
supermarket;supermarket;Toko;"Paniai Tim., Kabupaten Paniai, Papua";"Kabupaten Paniai, Papua";PAPUA;;Indonesia;;;;-39.311.665;1.365.836.972;https://maps.google.com/?cid=0x0:0xbe94be1831da18f1;
supermarket;Toko bahan makanan;Toko bahan;"597M+6V, Awebutu, Kebo, Kabupaten Paniai, Papua";"Kabupaten Paniai, Papua";PAPUA;;Indonesia;;;;-38.369.759;1.363.847.307;https://maps.google.com/?cid=0x0:0x454dca17c1743e36;
supermarket;supermarket;Paniai Tim.;"Kabupaten Paniai, Papua";"Kabupaten Paniai, Papua";PAPUA;;Indonesia;;;;-39.293.592;1.363.780.656;https://maps.google.com/?cid=0x0:0x7f04dacf9b212bec;
supermarket;Toko Ponsel;Toko D'Bilal;"Jln. Frans kaisepo, Enarotali, Paniai Tim., Kabupaten Paniai, Papua";"Kabupaten Paniai, Papua";PAPUA;;Indonesia;;;;-39.286.444;1.363.777.767;https://maps.google.com/?cid=0x0:0x816a7cdfbb6a9144;
supermarket;Toko bahan makanan;PC. DUPIA;"39CH+GCP, Awabutu, Paniai Tim., Kabupaten Paniai, Papua 98726";"Awabutu, Paniai Tim., Kabupaten Paniai";PAPUA;98726;Indonesia;085244950852;;;-39.286.657;1.363.785.627;https://maps.google.com/?cid=0x0:0x970e067f7ead8be9;
supermarket;Toko;Toko Fathan Jaya;"39FH+865, Awabutu, Paniai Tim., Kabupaten Paniai, Papua 98726";"Awabutu, Paniai Tim., Kabupaten Paniai";PAPUA;98726;Indonesia;081240545949;;;-39.265.912;1.363.779.198;https://maps.google.com/?cid=0x0:0x85c35e537a210f0e;
supermarket;Toko bahan makanan;Abadi 3;"Unnamed Road, Paniai Tim., 98726, Aikai, Paniai Tim., Kabupaten Paniai, Papua 98726";"Paniai Tim.,";PAPUA;98726;Indonesia;082199214587;;;-39.299.081;136.376.288;https://maps.google.com/?cid=0x0:0x9d983c751165d273;
supermarket;Toko Swalayan;Bukit Bintang;"Unnamed Road, Aikai, Paniai Tim., Kabupaten Paniai, Papua 98726";"Aikai, Paniai Tim., Kabupaten Paniai";PAPUA;98726;Indonesia;082248002448;;;-39.278.963;1.363.758.566;https://maps.google.com/?cid=0x0:0xddeaf0df7112c9f4;
supermarket;Toko;Kios Sadaka Kogekotu;"39GH+4HJ, Awabutu, Paniai Tim., Kabupaten Paniai, Papua 98726";"Awabutu, Paniai Tim., Kabupaten Paniai";PAPUA;98726;Indonesia;;;;-3.924.664;136.378.879;https://maps.google.com/?cid=0x0:0x5e90cdc0b4ec7603;
supermarket;supermarket;Pasar Aradide;"5FPH+PWR, Abatadi, Kec. Aradide, Kabupaten Paniai, Papua 98766";"Abatadi, Kec. Aradide, Kabupaten Paniai";PAPUA;98766;Indonesia;;;;-38.125.389;1.364.800.258;https://maps.google.com/?cid=0x0:0xc2f5ddec7fcbd4c4;
supermarket;Kantor Pemerintah;Koramil Aradide;"5FPH+PWR, Abatadi, Kec. Aradide, Kabupaten Paniai, Papua 98766";"Abatadi, Kec. Aradide, Kabupaten Paniai";PAPUA;98766;Indonesia;;;;-38.120.494;1.364.796.338;https://maps.google.com/?cid=0x0:0x3acd917dc994739;
supermarket;supermarket;Kampung okonobaida;"4FWV+CR, Obaipugaida, Distrik Ekadide, Kabupaten Paniai, Papua";"Kabupaten Paniai, Papua";PAPUA;;Indonesia;;;;-38.539.351;1.364.945.285;https://maps.google.com/?cid=0x0:0x5e4702b47fb8bd95;
supermarket;Pusat Perbelanjaan;Kios FMB;"97JM+3PJ, Uwagi, Bogobaida, Kabupaten Paniai, Papua 98854";"Uwagi, Bogobaida, Kabupaten Paniai";PAPUA;98854;Indonesia;;;;-36.197.993;1.362.842.795;https://maps.google.com/?cid=0x0:0x95809b0f7a1426b9;
supermarket;Toko bahan makanan;Kios Syauqy;"97HM+J2C, Uwagi, Bogobaida, Kabupaten Paniai, Papua 98854";"Uwagi, Bogobaida, Kabupaten Paniai";PAPUA;98854;Indonesia;;;;-36.209.365;1.362.825.214;https://maps.google.com/?cid=0x0:0xa5be475d84ad58bc;
supermarket;Toko Ponsel;Toko D'Bilal;"Jln. Frans kaisepo, Enarotali, Paniai Tim., Kabupaten Paniai, Papua";"Kabupaten Paniai, Papua";PAPUA;;Indonesia;;;;-39.286.444;1.363.777.767;https://maps.google.com/?cid=0x0:0x816a7cdfbb6a9144;
supermarket;Toko Ponsel;PANDA CELL;"Jl jalan tengah, Aikai, Paniai Tim., Kabupaten Paniai, Papua";"Kabupaten Paniai, Papua";PAPUA;;Indonesia;082131797379;;;-39.301.192;1.363.734.328;https://maps.google.com/?cid=0x0:0xe8ff0c6b3fa38cc3;
supermarket;supermarket;Distrik Bibida;"Kabupaten Paniai, Papua";"Kabupaten Paniai, Papua";PAPUA;;Indonesia;;;;-39.506.844;1.367.671.967;https://maps.google.com/?cid=0x0:0x68f0cd48ece1ec83;
supermarket;supermarket;Papua 98763;"Kabupaten Paniai, Papua";"Kabupaten Paniai, Papua";PAPUA;;Indonesia;;;;-37.991.853;1.363.049.196;https://maps.google.com/?cid=0x0:0x8e322f542c113cfe;
supermarket;Toko;HADI Supermarket  Dept Store;"JFQX+RQC, Jl. Yos Sudarso, Oyehe, Distrik Nabire, Kabupaten Nabire, Papua 98811";"Jl. Yos Sudarso, Oyehe, Distrik Nabire, Kabupaten Nabire";PAPUA;98811;Indonesia;098421367;;;-3.360.447;1.354.994.055;https://maps.google.com/?cid=0x0:0x60bc70181b8864df;
supermarket;Toko Ponsel;Toko D'Bilal;"Jln. Frans kaisepo, Enarotali, Paniai Tim., Kabupaten Paniai, Papua";"Kabupaten Paniai, Papua";PAPUA;;Indonesia;;;;-39.286.444;1.363.777.767;https://maps.google.com/?cid=0x0:0x816a7cdfbb6a9144;
supermarket;Kios;Kios Doopitaka;"36MQ+M9, Obano, Distrik Paniai Barat, Kabupaten Paniai, Papua";"Kabupaten Paniai, Papua";PAPUA;;Indonesia;;;;-3.915.813;136.238.393;https://maps.google.com/?cid=0x0:0x4e8cfcc6a0800807;
supermarket;Toko;Kios Doopitaka;"6966+WXW, Jl. Dewouyemabutu, Kampung Amopa, Distrik Muye, Kabupaten Paniai, Papua";"Kabupaten Paniai, Papua";PAPUA;;Indonesia;;;;-37.876.441;1.363.624.686;https://maps.google.com/?cid=0x0:0x9b873bdadf884525;
supermarket;Toko;Sinar papua Borobudur;"MG5H+8RH, Jl. R.E. Martadinata, Siriwini, Distrik Nabire, Kabupaten Nabire, Papua";"Kabupaten Nabire, Papua";PAPUA;;Indonesia;;;;-33.416.766;1.355.296.119;https://maps.google.com/?cid=0x0:0x2a21208985722648;
supermarket;Toko bahan makanan;Toko bahan;"597M+6V, Awebutu, Kebo, Kabupaten Paniai, Papua";"Kabupaten Paniai, Papua";PAPUA;;Indonesia;;;;-38.369.759;1.363.847.307;https://maps.google.com/?cid=0x0:0x454dca17c1743e36;
supermarket;Toko umum;Buah -buahan segar;"Bapouda, Enarotali, Paniai Tim., Kabupaten Paniai, Papua 98726";"Enarotali, Paniai Tim., Kabupaten Paniai";PAPUA;98726;Indonesia;;;;-39.321.429;1.363.808.792;https://maps.google.com/?cid=0x0:0x87a2152504956ea3;
supermarket;Toko;Toko Yudistira;"Jl. A Gobay, Girimulyo, Distrik Nabire, Kabupaten Nabire, Papua 98811";"Girimulyo, Distrik Nabire, Kabupaten Nabire";PAPUA;98811;Indonesia;082233098999;;;-33.801.764;135.508.443;https://maps.google.com/?cid=0x0:0xd8aa1d722e6c9d91;
supermarket;Pusat Perbelanjaan;Papua Supermarket  Dept. Store;"4869+F77 Bar, Sawagumu, Kec. Sorong Utara, Kota Sorong, Papua Bar. 98416";"Sawagumu, Kec. Sorong Utara, Kota Sorong";PAPUA;98416;Indonesia;09513160123;;;-0.888831;1.313.181.847;https://maps.google.com/?cid=0x0:0x7b5f0926a74ad213;
supermarket;Pusat Perbelanjaan;Kios FMB;"97JM+3PJ, Uwagi, Bogobaida, Kabupaten Paniai, Papua 98854";"Uwagi, Bogobaida, Kabupaten Paniai";PAPUA;98854;Indonesia;;;;-36.197.993;1.362.842.795;https://maps.google.com/?cid=0x0:0x95809b0f7a1426b9;
supermarket;Toko Swalayan;Bukit Bintang;"Unnamed Road, Aikai, Paniai Tim., Kabupaten Paniai, Papua 98726";"Aikai, Paniai Tim., Kabupaten Paniai";PAPUA;98726;Indonesia;082248002448;;;-39.278.963;1.363.758.566;https://maps.google.com/?cid=0x0:0xddeaf0df7112c9f4;
supermarket;Toko;Toko Fathan Jaya;"39FH+865, Awabutu, Paniai Tim., Kabupaten Paniai, Papua 98726";"Awabutu, Paniai Tim., Kabupaten Paniai";PAPUA;98726;Indonesia;081240545949;;;-39.265.912;1.363.779.198;https://maps.google.com/?cid=0x0:0x85c35e537a210f0e;
supermarket;Toko bahan makanan;Toko Simon Dan Simon;"Jl. Raya Mandala No.92, Maro, Kec. Merauke, Kabupaten Merauke, Papua 99614";"Maro, Kec. Merauke, Kabupaten Merauke";PAPUA;99614;Indonesia;085254361993;;;-84.916.963;1.403.923.557;https://maps.google.com/?cid=0x0:0xd66f47f08a2065fc;
supermarket;Kantor Perusahaan;Supermarket GOTA;"4868+2X3, Jl. Sungai Maruni, Sawagumu, Distrik Sorong Timur, Kota Sorong, Papua Bar. 98416";"Jl. Sungai Maruni, Sawagumu, Distrik Sorong Timur, Kota Sorong";PAPUA;98416;Indonesia;;;;-0.8900646;1.313.173.945;https://maps.google.com/?cid=0x0:0xe80a2989cd86300;
supermarket;Toko Swalayan;Hadi Supermarket  Dept. Store;"Jl. Imam Bonjol No.56, Fandoi, Kec. Biak Kota, Kabupaten Biak Numfor, Papua 98111";"Fandoi, Kec. Biak Kota, Kabupaten Biak Numfor";PAPUA;98111;Indonesia;;;;-11.800.003;1.360.824.788;https://maps.google.com/?cid=0x0:0xdcad74b4384219ee;
supermarket;Toko bahan makanan;Abadi 3;"Unnamed Road, Paniai Tim., 98726, Aikai, Paniai Tim., Kabupaten Paniai, Papua 98726";"Paniai Tim.,";PAPUA;98726;Indonesia;082199214587;;;-39.299.081;136.376.288;https://maps.google.com/?cid=0x0:0x9d983c751165d273;
supermarket;Toko;Kios Sadaka Kogekotu;"39GH+4HJ, Awabutu, Paniai Tim., Kabupaten Paniai, Papua 98726";"Awabutu, Paniai Tim., Kabupaten Paniai";PAPUA;98726;Indonesia;;;;-3.924.664;136.378.879;https://maps.google.com/?cid=0x0:0x5e90cdc0b4ec7603;
supermarket;Pusat Perbelanjaan;Loka Supermarket;"JF2P+JV6, Jalan Topo, wadio, Bumi Wonorejo, Distrik Nabire, Kabupaten Nabire, Papua 98813";"Jalan Topo, wadio, Bumi Wonorejo, Distrik Nabire, Kabupaten Nabire";PAPUA;98813;Indonesia;098424688;;;-33.984.625;1.354.871.406;https://maps.google.com/?cid=0x0:0x79cd9d7b246fedb4;
supermarket;Toko bahan makanan;KIOS DYDO;"JFMV+VJF, Jl. Trikora, Morgo, Distrik Nabire, Kabupaten Nabire, Papua 98811";"Jl. Trikora, Morgo, Distrik Nabire, Kabupaten Nabire";PAPUA;98811;Indonesia;082248366799;;;-33.653.229;1.354.940.334;https://maps.google.com/?cid=0x0:0xa4e28392ae35ddea;
supermarket;Toko;Kios. Harapan indah jaya;"PMX4+9XV, Samabusa, Distrik Tlk. Kimi, Kabupaten Nabire, Papua 98818";"Samabusa, Distrik Tlk. Kimi, Kabupaten Nabire";PAPUA;98818;Indonesia;;;;-3.251.511;1.356.574.246;https://maps.google.com/?cid=0x0:0xad50f69de87291f7;
supermarket;Toko;Kios Hawa;"QH9Q+JQQ, Jl. Pasar Sore, Samabusa, Distrik Tlk. Kimi, Kabupaten Nabire, Papua 98818";"Jl. Pasar Sore, Samabusa, Distrik Tlk. Kimi, Kabupaten Nabire";PAPUA;98818;Indonesia;;;;-32.309.209;1.355.894.762;https://maps.google.com/?cid=0x0:0xfec22765a09cbd1;
supermarket;Toko Swalayan;Hyfresh - Supermarket Rempoa;"Jl. Rempoa Raya No.51, RT.3/RW.03, Rempoa, Kec. Ciputat Tim., Kota Tangerang Selatan, Banten 15412";"RT.3/RW.03, Rempoa, Kec. Ciputat Tim., Kota Tangerang Selatan";PAPUA;15412;Indonesia;081380866678;;;-62.836.654;1.067.607.997;https://maps.google.com/?cid=0x0:0x8478b5aee25ede9d;
supermarket;Toko;HADI Supermarket  Dept Store;"JFQX+RQC, Jl. Yos Sudarso, Oyehe, Distrik Nabire, Kabupaten Nabire, Papua 98811";"Jl. Yos Sudarso, Oyehe, Distrik Nabire, Kabupaten Nabire";PAPUA;98811;Indonesia;098421367;;;-3.360.447;1.354.994.055;https://maps.google.com/?cid=0x0:0x60bc70181b8864df;
supermarket;Kedai Kopi;TOUS les JOURS - South Quarter;"Jl. R.A. Kartini No.Kav 8, RT.10/RW.4, Cilandak Bar., Kec. Cilandak, Kota Jakarta Selatan, Daerah Khusus Ibukota Jakarta 12430";"RT.10/RW.4, Cilandak Bar., Kec. Cilandak, Kota Jakarta Selatan";PAPUA;12430;Indonesia;02122764229;;;-62.938.319;1.067.852.142;https://maps.google.com/?cid=0x0:0x2b6d097f310b9dd9;
supermarket;Toko makanan beku;Mugie frozen;"Jl. Sawah Lio No.I, RT.11/RW.1, Jemb. Lima, Kec. Tambora, Kota Jakarta Barat, Daerah Khusus Ibukota Jakarta 11250";"RT.11/RW.1, Jemb. Lima, Kec. Tambora, Kota Jakarta Barat";PAPUA;11250;Indonesia;085814561987;;;-61.466.015;1.068.060.013;https://maps.google.com/?cid=0x0:0x6b272c8d9ccd891a;
supermarket;Produsen Makanan Beku;Umar Frozen Food Jembatan Lima;"Gang Musholla Al-Jihad No.22, RT.14/RW.6, Jemb. Lima, Kec. Tambora, Kota Jakarta Barat, Daerah Khusus Ibukota Jakarta 11250";"RT.14/RW.6, Jemb. Lima, Kec. Tambora, Kota Jakarta Barat";PAPUA;11250;Indonesia;082210332600;;;-61.458.901;1.068.040.754;https://maps.google.com/?cid=0x0:0x74275489e06c0c28;
supermarket;Pusat Perbelanjaan;Pasar Mitra;"Jl. KH.Moh.Mansyur No.1, RT.1/RW.11, Tanah Sereal, Kec. Tambora, Kota Jakarta Barat, Daerah Khusus Ibukota Jakarta 11250";"RT.1/RW.11, Tanah Sereal, Kec. Tambora, Kota Jakarta Barat";PAPUA;11250;Indonesia;;;;-61.450.087;1.068.068.487;https://maps.google.com/?cid=0x0:0x93f33dfc242a487a;
supermarket;Toko Swalayan;Mel Mart;"PVRC+425, Jl. Mayjen Sutoyo, RT.6/RW.8, Cililitan, Kec. Kramat jati, Kota Jakarta Timur, Daerah Khusus Ibukota Jakarta 12021";"Jl. Mayjen Sutoyo, RT.6/RW.8, Cililitan, Kec. Kramat jati, Kota Jakarta Timur";PAPUA;12021;Indonesia;0895803430090;;;-6.259.735;1.068.701.147;https://maps.google.com/?cid=0x0:0x233887119b1ff8e8;
supermarket;Minimarket;Cumengs;"Gg. Kingkit IV No.8, RT.8/RW.4, Kb. Klp., Kecamatan Gambir, Kota Jakarta Pusat, Daerah Khusus Ibukota Jakarta 10120";"RT.8/RW.4, Kb. Klp., Kecamatan Gambir, Kota Jakarta Pusat";PAPUA;10120;Indonesia;085161285582;;;-61.649.611;1.068.275.818;https://maps.google.com/?cid=0x0:0x1a209758cc121ddd;
supermarket;Pusat Perbelanjaan;Center Rakitan;"Sebrang barak kerja, Jl. Pik Penggilingan, Penggilingan, Kec. Cakung, Kota Jakarta Timur, Daerah Khusus Ibukota Jakarta 13470";"Jl. Pik Penggilingan, Penggilingan, Kec. Cakung, Kota Jakarta Timur";PAPUA;13470;Indonesia;087788999226;;;-62.031.867;1.069.279.703;https://maps.google.com/?cid=0x0:0xa6da2e849b4a00c;
supermarket;Toko Swalayan; RIFANA "";"Rusun Cilincing, Jl. Komp. Pelindo II, Cilincing, Kec. Cilincing, Jkt Utara, Daerah Khusus Ibukota Jakarta 14120";"Jl. Komp. Pelindo II, Cilincing, Kec. Cilincing, Jkt Utara";PAPUA;14120;Indonesia;08989971524;;;-61.115.168;1.069.395.266;https://maps.google.com/?cid=0x0:0xc8eea8e463d9a65a;
supermarket;Toko Swalayan;Alfamidi Super Ciracas;"Jl. Tanjung No.6 5, RT.5/RW.5, Ciracas, Kec. Ciracas, Kota Jakarta Timur, Daerah Khusus Ibukota Jakarta 13740";"RT.5/RW.5, Ciracas, Kec. Ciracas, Kota Jakarta Timur";PAPUA;13740;Indonesia;02187721636;;;-63.294.144;1.068.753.592;https://maps.google.com/?cid=0x0:0x8c315c5f3e221825;
supermarket;supermarket;Papua 98715;"Kabupaten Paniai, Papua";"Kabupaten Paniai, Papua";PAPUA;;Indonesia;;;;-38.146.561;1.364.296.942;https://maps.google.com/?cid=0x0:0x49e2a3ef18e7312b;
supermarket;Toko Ponsel;Toko D'Bilal;"Jln. Frans kaisepo, Enarotali, Paniai Tim., Kabupaten Paniai, Papua";"Kabupaten Paniai, Papua";PAPUA;;Indonesia;;;;-39.286.444;1.363.777.767;https://maps.google.com/?cid=0x0:0x816a7cdfbb6a9144;
supermarket;Toko bahan makanan;PC. DUPIA;"39CH+GCP, Awabutu, Paniai Tim., Kabupaten Paniai, Papua 98726";"Awabutu, Paniai Tim., Kabupaten Paniai";PAPUA;98726;Indonesia;085244950852;;;-39.286.657;1.363.785.627;https://maps.google.com/?cid=0x0:0x970e067f7ead8be9;
supermarket;Toko;Toko Fathan Jaya;"39FH+865, Awabutu, Paniai Tim., Kabupaten Paniai, Papua 98726";"Awabutu, Paniai Tim., Kabupaten Paniai";PAPUA;98726;Indonesia;081240545949;;;-39.265.912;1.363.779.198;https://maps.google.com/?cid=0x0:0x85c35e537a210f0e;
supermarket;Toko Swalayan;Bukit Bintang;"Unnamed Road, Aikai, Paniai Tim., Kabupaten Paniai, Papua 98726";"Aikai, Paniai Tim., Kabupaten Paniai";PAPUA;98726;Indonesia;082248002448;;;-39.278.963;1.363.758.566;https://maps.google.com/?cid=0x0:0xddeaf0df7112c9f4;
supermarket;Kios;Kios Doopitaka;"36MQ+M9, Obano, Distrik Paniai Barat, Kabupaten Paniai, Papua";"Kabupaten Paniai, Papua";PAPUA;;Indonesia;;;;-3.915.813;136.238.393;https://maps.google.com/?cid=0x0:0x4e8cfcc6a0800807;
supermarket;Toko;Kios Sadaka Kogekotu;"39GH+4HJ, Awabutu, Paniai Tim., Kabupaten Paniai, Papua 98726";"Awabutu, Paniai Tim., Kabupaten Paniai";PAPUA;98726;Indonesia;;;;-3.924.664;136.378.879;https://maps.google.com/?cid=0x0:0x5e90cdc0b4ec7603;
supermarket;Toko bahan makanan;Abadi 3;"Unnamed Road, Paniai Tim., 98726, Aikai, Paniai Tim., Kabupaten Paniai, Papua 98726";"Paniai Tim.,";PAPUA;98726;Indonesia;082199214587;;;-39.299.081;136.376.288;https://maps.google.com/?cid=0x0:0x9d983c751165d273;
supermarket;Toko bahan makanan;Toko bahan;"597M+6V, Awebutu, Kebo, Kabupaten Paniai, Papua";"Kabupaten Paniai, Papua";PAPUA;;Indonesia;;;;-38.369.759;1.363.847.307;https://maps.google.com/?cid=0x0:0x454dca17c1743e36;
supermarket;Toko;HADI Supermarket  Dept Store;"JFQX+RQC, Jl. Yos Sudarso, Oyehe, Distrik Nabire, Kabupaten Nabire, Papua 98811";"Jl. Yos Sudarso, Oyehe, Distrik Nabire, Kabupaten Nabire";PAPUA;98811;Indonesia;098421367;;;-3.360.447;1.354.994.055;https://maps.google.com/?cid=0x0:0x60bc70181b8864df;
supermarket;Pusat Perbelanjaan;Papua Supermarket  Dept. Store;"4869+F77 Bar, Sawagumu, Kec. Sorong Utara, Kota Sorong, Papua Bar. 98416";"Sawagumu, Kec. Sorong Utara, Kota Sorong";PAPUA;98416;Indonesia;09513160123;;;-0.888831;1.313.181.847;https://maps.google.com/?cid=0x0:0x7b5f0926a74ad213;
supermarket;Toko Swalayan;Hadi Supermarket  Dept. Store;"Jl. Imam Bonjol No.56, Fandoi, Kec. Biak Kota, Kabupaten Biak Numfor, Papua 98111";"Fandoi, Kec. Biak Kota, Kabupaten Biak Numfor";PAPUA;98111;Indonesia;;;;-11.800.003;1.360.824.788;https://maps.google.com/?cid=0x0:0xdcad74b4384219ee;
supermarket;Toko;Kios Doopitaka;"6966+WXW, Jl. Dewouyemabutu, Kampung Amopa, Distrik Muye, Kabupaten Paniai, Papua";"Kabupaten Paniai, Papua";PAPUA;;Indonesia;;;;-37.876.441;1.363.624.686;https://maps.google.com/?cid=0x0:0x9b873bdadf884525;
supermarket;Bioskop;Cinpolis;"CR34+V8G, Jl. Malabar 1, RT.03/RW.08, Babakan, Kecamatan Bogor Tengah, Kota Bogor, Jawa Barat 16129";"Jl. Malabar 1, RT.03/RW.08, Babakan, Kecamatan Bogor Tengah, Kota Bogor";PAPUA;16129;Indonesia;;;;-65.953.249;1.068.058.155;https://maps.google.com/?cid=0x0:0x6a37d9dd15d82035;
supermarket;supermarket;Foodmart Fresh Keboen Raya;"Jl. Taman Malabar No.7, RT.03/RW.08, Babakan, Kecamatan Bogor Tengah, Kota Bogor, Jawa Barat 16129";"RT.03/RW.08, Babakan, Kecamatan Bogor Tengah, Kota Bogor";PAPUA;16129;Indonesia;02517716316;;;-65.958.994;1.068.045.441;https://maps.google.com/?cid=0x0:0x55dd393ce5ab8471;
supermarket;Pusat Perbelanjaan;Papua Supermarket  Dept. Store;"4869+F77 Bar, Sawagumu, Kec. Sorong Utara, Kota Sorong, Papua Bar. 98416";"Sawagumu, Kec. Sorong Utara, Kota Sorong";PAPUA;98416;Indonesia;09513160123;;;-0.888831;1.313.181.847;https://maps.google.com/?cid=0x0:0x7b5f0926a74ad213;
supermarket;Minimarket;SAGA Supermarket  Dept. Store;"Jalan A. Yani, Ruko Kuda Laut, Klademak, Kecamatan Sorong Manoi, Kota Sorong, Papua Bar. 98414";"Ruko Kuda Laut, Klademak, Kecamatan Sorong Manoi, Kota Sorong";PAPUA;98414;Indonesia;0951322784;;;-0.8765248;1.312.576.755;https://maps.google.com/?cid=0x0:0x963043ed646a7e1e;
supermarket;Komplek perumahan;Rumah Bpk Gustaf. L;"4859+784, Klawuyuk, Distrik Sorong Timur, Kota Sorong, Papua Bar. 98416";"Klawuyuk, Distrik Sorong Timur, Kota Sorong";PAPUA;98416;Indonesia;;;;-0.8918739;1.313.183.248;https://maps.google.com/?cid=0x0:0x30559e7e5eb96ee4;
supermarket;Toko;Toko Fathan Jaya;"39FH+865, Awabutu, Paniai Tim., Kabupaten Paniai, Papua 98726";"Awabutu, Paniai Tim., Kabupaten Paniai";PAPUA;98726;Indonesia;081240545949;;;-39.265.912;1.363.779.198;https://maps.google.com/?cid=0x0:0x85c35e537a210f0e;
supermarket;Toko bahan makanan;Toko Wijaya;"Jl. Jemb. Tinggi No.12 1, RT.1/RW.9, Kb. Kacang, Kecamatan Tanah Abang, Kota Jakarta Pusat, Daerah Khusus Ibukota Jakarta 10240";"RT.1/RW.9, Kb. Kacang, Kecamatan Tanah Abang, Kota Jakarta Pusat";PAPUA;10240;Indonesia;0213141513;;;-61.889.269;1.068.129.859;https://maps.google.com/?cid=0x0:0x3506e2aad5047ad6;
supermarket;Bioskop;Cinpolis;"CR34+V8G, Jl. Malabar 1, RT.03/RW.08, Babakan, Kecamatan Bogor Tengah, Kota Bogor, Jawa Barat 16129";"Jl. Malabar 1, RT.03/RW.08, Babakan, Kecamatan Bogor Tengah, Kota Bogor";PAPUA;16129;Indonesia;;;;-65.953.249;1.068.058.155;https://maps.google.com/?cid=0x0:0x6a37d9dd15d82035;
supermarket;Restoran;Markette - Kota Kasablanka;"Food Society, Jl. Raya Casablanca No.88 Lobby, Ground Floor, Menteng Dalam, Kec. Tebet, Kota Jakarta Selatan, Daerah Khusus Ibukota Jakarta 12870";"Jl. Raya Casablanca No.88 Lobby, Ground Floor, Menteng Dalam, Kec. Tebet, Kota Jakarta Selatan";PAPUA;12870;Indonesia;02129626161;;;-6.222.827;1.068.428.202;https://maps.google.com/?cid=0x0:0x8c0daa8e7ed6b228;
supermarket;Toko bahan makanan;EL FROZEN;"JL. SDN 06 Jatikramat RT. 003/04 No. 84, RT.007/RW.004, Jatikramat, Kec. Jatiasih, Kota Bks, Jawa Barat 17421";"RT.007/RW.004, Jatikramat, Kec. Jatiasih, Kota Bks";PAPUA;17421;Indonesia;082124414901;;;-62.771.478;1.069.411.366;https://maps.google.com/?cid=0x0:0x70504c16d90fda62;
supermarket;Pusat Perbelanjaan;Lippo Plaza Keboen Raya;"Jl. Malabar 2 No.17A, Babakan, Kecamatan Bogor Tengah, Kota Bogor, Jawa Barat 16129";"Babakan, Kecamatan Bogor Tengah, Kota Bogor";PAPUA;16129;Indonesia;;;;-65.954.656;1.068.057.665;https://maps.google.com/?cid=0x0:0xcda1b5f11e139fea;
supermarket;Korea;Dookki Kota Kasablanka;"Kota Kasablanka Mall Unit UG 27, Jl. Raya Casablanca No.88, RT.16/RW.5, Menteng Dalam, Kec. Tebet, Daerah Khusus Ibukota Jakarta 12960";"Jl. Raya Casablanca No.88, RT.16/RW.5, Menteng Dalam, Kec. Tebet";PAPUA;12960;Indonesia;085885313361;;;-62.236.553;1.068.418.983;https://maps.google.com/?cid=0x0:0x6c1d283dab40ac68;
supermarket;Toko Komputer;Beling Rakitan;"9, Jl. Menteng Dalam No.53, RT.9/RW.10, Menteng Dalam, Kec. Tebet, Kota Jakarta Selatan, Daerah Khusus Ibukota Jakarta 12870";"Jl. Menteng Dalam No.53, RT.9/RW.10, Menteng Dalam, Kec. Tebet, Kota Jakarta Selatan";PAPUA;12870;Indonesia;085211621274;;;-62.278.011;1.068.403.423;https://maps.google.com/?cid=0x0:0x7d6f791595d420d0;
supermarket;Indonesia;Leko Citywalk;"Citylofts Sudirman, 10, Jl. K.H. Mas Mansyur No.121, RT.10/RW.11, Karet Tengsin, Kota Jakarta Pusat, Daerah Khusus Ibukota Jakarta 10250";"10, Jl. K.H. Mas Mansyur No.121, RT.10/RW.11, Karet Tengsin, Kota Jakarta Pusat";PAPUA;10250;Indonesia;081314413812;;;-62.088.293;1.068.188.526;https://maps.google.com/?cid=0x0:0xba3253c498e12ea2;
supermarket;BBQ Korea;Ojju K-Food Mall Kota Kasablanka;"Jl. Raya Casablanca No.88 Unit FSU - 35, RT.14/RW.5, Menteng Dalam, Tebet, South Jakarta City, Jakarta 12870";"RT.14/RW.5, Menteng Dalam, Tebet, South Jakarta City";PAPUA;12870;Indonesia;02129475220;;;-62.242.532;1.068.429.418;https://maps.google.com/?cid=0x0:0xe31738f2815ef961;
supermarket;Jepang;Isshin;"Mall Kota Kasablanka Lantai UG #Food Society unit 22, Jl. Raya Casablanca No.88, RT.14/RW.5, Menteng Dalam, Kec. Tebet, Kota Jakarta Selatan, Daerah Khusus Ibukota Jakarta 12870";"Jl. Raya Casablanca No.88, RT.14/RW.5, Menteng Dalam, Kec. Tebet, Kota Jakarta Selatan";PAPUA;12870;Indonesia;02129475221;;;-62.227.543;1.068.420.102;https://maps.google.com/?cid=0x0:0xca2a95d5e72c403;
supermarket;Kafe;segafredo cafe  bar kokas;"Jl. Raya Casablanca No.Kav 88, Menteng Dalam, Kec. Tebet, Kota Jakarta Selatan, Daerah Khusus Ibukota Jakarta 12870";"Menteng Dalam, Kec. Tebet, Kota Jakarta Selatan";PAPUA;12870;Indonesia;081215555481;;;-62.239.485;106.841.926;https://maps.google.com/?cid=0x0:0x7bca002620980087;
supermarket;Betawi;Tamani Kota Kasablanka;"Kota Kasablanca Lt. UG, Jalan Casablanca Kav 88, Jl. Raya Casablanca No.88 FSU17, RT.16/RW.5, Menteng Dalam, Kec. Tebet, Kota Jakarta Selatan, Daerah Khusus Ibukota Jakarta 12870";"Jalan Casablanca Kav 88, Jl. Raya Casablanca No.88 FSU17, RT.16/RW.5, Menteng Dalam, Kec. Tebet, Kota Jakarta Selatan";PAPUA;12870;Indonesia;02129464997;;;-62.234.308;1.068.421.236;https://maps.google.com/?cid=0x0:0xcfde5fcb4472fd0e;
supermarket;Toko Swalayan;FOOD MAX;"J6VV+565, Wanasari, Kec. Karawang Bar., Karawang, Jawa Barat";"Karawang, Jawa Barat";PAPUA;;Indonesia;083153302000;;;-6.357.119;1.072.431.238;https://maps.google.com/?cid=0x0:0x48946af1c99ab013;
supermarket;Thailand;SANTHAI;"Jl. Raya Casablanca No.88 Unit No. 28, RT.16/RW.5, Menteng Dalam, Kec. Tebet, Kota Jakarta Selatan, Daerah Khusus Ibukota Jakarta 12870";"RT.16/RW.5, Menteng Dalam, Kec. Tebet, Kota Jakarta Selatan";PAPUA;12870;Indonesia;02129465137;;;-62.230.416;1.068.431.682;https://maps.google.com/?cid=0x0:0x1f8ceb1e39745456;
supermarket;supermarket;Foodmart Fresh Keboen Raya;"Jl. Taman Malabar No.7, RT.03/RW.08, Babakan, Kecamatan Bogor Tengah, Kota Bogor, Jawa Barat 16129";"RT.03/RW.08, Babakan, Kecamatan Bogor Tengah, Kota Bogor";PAPUA;16129;Indonesia;02517716316;;;-65.958.994;1.068.045.441;https://maps.google.com/?cid=0x0:0x55dd393ce5ab8471;
supermarket;supermarket;Kebo;"Kabupaten Paniai, Papua";"Kabupaten Paniai, Papua";PAPUA;;Indonesia;;;;-38.208.593;1.363.865.587;https://maps.google.com/?cid=0x0:0x965b313c4d48e7ae;
supermarket;Toko bahan makanan;Toko bahan;"597M+6V, Awebutu, Kebo, Kabupaten Paniai, Papua";"Kabupaten Paniai, Papua";PAPUA;;Indonesia;;;;-38.369.759;1.363.847.307;https://maps.google.com/?cid=0x0:0x454dca17c1743e36;
supermarket;Toko;Kios Doopitaka;"6966+WXW, Jl. Dewouyemabutu, Kampung Amopa, Distrik Muye, Kabupaten Paniai, Papua";"Kabupaten Paniai, Papua";PAPUA;;Indonesia;;;;-37.876.441;1.363.624.686;https://maps.google.com/?cid=0x0:0x9b873bdadf884525;
supermarket;Toko Komputer;Beling Rakitan;"9, Jl. Menteng Dalam No.53, RT.9/RW.10, Menteng Dalam, Kec. Tebet, Kota Jakarta Selatan, Daerah Khusus Ibukota Jakarta 12870";"Jl. Menteng Dalam No.53, RT.9/RW.10, Menteng Dalam, Kec. Tebet, Kota Jakarta Selatan";PAPUA;12870;Indonesia;085211621274;;;-62.278.011;1.068.403.423;https://maps.google.com/?cid=0x0:0x7d6f791595d420d0;
supermarket;Pusat Perbelanjaan;Lippo Plaza Keboen Raya;"Jl. Malabar 2 No.17A, Babakan, Kecamatan Bogor Tengah, Kota Bogor, Jawa Barat 16129";"Babakan, Kecamatan Bogor Tengah, Kota Bogor";PAPUA;16129;Indonesia;;;;-65.954.656;1.068.057.665;https://maps.google.com/?cid=0x0:0xcda1b5f11e139fea;
supermarket;Indonesia;Leko Citywalk;"Citylofts Sudirman, 10, Jl. K.H. Mas Mansyur No.121, RT.10/RW.11, Karet Tengsin, Kota Jakarta Pusat, Daerah Khusus Ibukota Jakarta 10250";"10, Jl. K.H. Mas Mansyur No.121, RT.10/RW.11, Karet Tengsin, Kota Jakarta Pusat";PAPUA;10250;Indonesia;081314413812;;;-62.088.293;1.068.188.526;https://maps.google.com/?cid=0x0:0xba3253c498e12ea2;
supermarket;Toko Roti;Bolu Medan CF;"Jl. Griya Dadap Estate No.5 Blok F2, Dadap, Kec. Kosambi, Kabupaten Tangerang, Banten 15211";"Dadap, Kec. Kosambi, Kabupaten Tangerang";PAPUA;15211;Indonesia;0818382168;;;-60.949.046;1.067.035.966;https://maps.google.com/?cid=0x0:0xa8d7e020623d05a8;
supermarket;Toko Swalayan;FOOD MAX;"J6VV+565, Wanasari, Kec. Karawang Bar., Karawang, Jawa Barat";"Karawang, Jawa Barat";PAPUA;;Indonesia;083153302000;;;-6.357.119;1.072.431.238;https://maps.google.com/?cid=0x0:0x48946af1c99ab013;
supermarket;Toko Roti;Bolu Medan CF - Maggiore Square;"Ruko Maggiore Square, Jl. Springs Boulevard No.55, Cihuni, Kec. Pagedangan, Kabupaten Tangerang, Banten 15332";"Jl. Springs Boulevard No.55, Cihuni, Kec. Pagedangan, Kabupaten Tangerang";PAPUA;15332;Indonesia;082117577768;;;-62.733.604;1.066.398.303;https://maps.google.com/?cid=0x0:0x502cc93b95d79710;
supermarket;supermarket;Foodmart Fresh Keboen Raya;"Jl. Taman Malabar No.7, RT.03/RW.08, Babakan, Kecamatan Bogor Tengah, Kota Bogor, Jawa Barat 16129";"RT.03/RW.08, Babakan, Kecamatan Bogor Tengah, Kota Bogor";PAPUA;16129;Indonesia;02517716316;;;-65.958.994;1.068.045.441;https://maps.google.com/?cid=0x0:0x55dd393ce5ab8471;
supermarket;Toko bahan makanan;Toko bahan;"597M+6V, Awebutu, Kebo, Kabupaten Paniai, Papua";"Kabupaten Paniai, Papua";PAPUA;;Indonesia;;;;-38.369.759;1.363.847.307;https://maps.google.com/?cid=0x0:0x454dca17c1743e36;
supermarket;Toko;Toko Fathan Jaya;"39FH+865, Awabutu, Paniai Tim., Kabupaten Paniai, Papua 98726";"Awabutu, Paniai Tim., Kabupaten Paniai";PAPUA;98726;Indonesia;081240545949;;;-39.265.912;1.363.779.198;https://maps.google.com/?cid=0x0:0x85c35e537a210f0e;
supermarket;supermarket;Papua 98719;"Distrik Ekadide, Kabupaten Paniai, Papua";"Kabupaten Paniai, Papua";PAPUA;;Indonesia;;;;-38.701.022;1.365.836.972;https://maps.google.com/?cid=0x0:0x46cb5eccbd6243ee;
supermarket;Toko Makanan Sehat;Primo Supermarket Citos;"Town Square, Jl. TB Simatupang No.KAV.17 Lantai Dasar, West Cilandak, Cilandak, South Jakarta City, Jakarta 12430";"Jl. TB Simatupang No.KAV.17 Lantai Dasar, West Cilandak, Cilandak, South Jakarta City";PAPUA;12430;Indonesia;02175920390;;;-62.914.315;1.067.992.178;https://maps.google.com/?cid=0x0:0x110a936a8d153b27;
supermarket;Toko bahan makanan;Toko Wijaya;"Jl. Jemb. Tinggi No.12 1, RT.1/RW.9, Kb. Kacang, Kecamatan Tanah Abang, Kota Jakarta Pusat, Daerah Khusus Ibukota Jakarta 10240";"RT.1/RW.9, Kb. Kacang, Kecamatan Tanah Abang, Kota Jakarta Pusat";PAPUA;10240;Indonesia;0213141513;;;-61.889.269;1.068.129.859;https://maps.google.com/?cid=0x0:0x3506e2aad5047ad6;
supermarket;Bioskop;Cinpolis;"CR34+V8G, Jl. Malabar 1, RT.03/RW.08, Babakan, Kecamatan Bogor Tengah, Kota Bogor, Jawa Barat 16129";"Jl. Malabar 1, RT.03/RW.08, Babakan, Kecamatan Bogor Tengah, Kota Bogor";PAPUA;16129;Indonesia;;;;-65.953.249;1.068.058.155;https://maps.google.com/?cid=0x0:0x6a37d9dd15d82035;
supermarket;Restoran;Primo Cafe Resto;"PQ5X+GR3, RT.6/RW.9, Cilandak Bar., Kec. Cilandak, Kota Jakarta Selatan, Daerah Khusus Ibukota Jakarta 12430";"RT.6/RW.9, Cilandak Bar., Kec. Cilandak, Kota Jakarta Selatan";PAPUA;12430;Indonesia;02175920390;;;-62.912.336;1.067.995.474;https://maps.google.com/?cid=0x0:0x855fc09279724dd6;
supermarket;Toko Komputer;Beling Rakitan;"9, Jl. Menteng Dalam No.53, RT.9/RW.10, Menteng Dalam, Kec. Tebet, Kota Jakarta Selatan, Daerah Khusus Ibukota Jakarta 12870";"Jl. Menteng Dalam No.53, RT.9/RW.10, Menteng Dalam, Kec. Tebet, Kota Jakarta Selatan";PAPUA;12870;Indonesia;085211621274;;;-62.278.011;1.068.403.423;https://maps.google.com/?cid=0x0:0x7d6f791595d420d0;
supermarket;Pusat Perbelanjaan;Lippo Plaza Keboen Raya;"Jl. Malabar 2 No.17A, Babakan, Kecamatan Bogor Tengah, Kota Bogor, Jawa Barat 16129";"Babakan, Kecamatan Bogor Tengah, Kota Bogor";PAPUA;16129;Indonesia;;;;-65.954.656;1.068.057.665;https://maps.google.com/?cid=0x0:0xcda1b5f11e139fea;
supermarket;Indonesia;Leko Citywalk;"Citylofts Sudirman, 10, Jl. K.H. Mas Mansyur No.121, RT.10/RW.11, Karet Tengsin, Kota Jakarta Pusat, Daerah Khusus Ibukota Jakarta 10250";"10, Jl. K.H. Mas Mansyur No.121, RT.10/RW.11, Karet Tengsin, Kota Jakarta Pusat";PAPUA;10250;Indonesia;081314413812;;;-62.088.293;1.068.188.526;https://maps.google.com/?cid=0x0:0xba3253c498e12ea2;
supermarket;supermarket;Foodmart Fresh Keboen Raya;"Jl. Taman Malabar No.7, RT.03/RW.08, Babakan, Kecamatan Bogor Tengah, Kota Bogor, Jawa Barat 16129";"RT.03/RW.08, Babakan, Kecamatan Bogor Tengah, Kota Bogor";PAPUA;16129;Indonesia;02517716316;;;-65.958.994;1.068.045.441;https://maps.google.com/?cid=0x0:0x55dd393ce5ab8471;
supermarket;Toko;Kios Doopitaka;"6966+WXW, Jl. Dewouyemabutu, Kampung Amopa, Distrik Muye, Kabupaten Paniai, Papua";"Kabupaten Paniai, Papua";PAPUA;;Indonesia;;;;-37.876.441;1.363.624.686;https://maps.google.com/?cid=0x0:0x9b873bdadf884525;
supermarket;Pusat Perbelanjaan;KIOS QANITAH;"Umbutu / Uyubutu / Uwibutu, UWIBUTU, Kabupaten Paniai, Papua 98711";"UWIBUTU, Kabupaten Paniai";PAPUA;98711;Indonesia;085298817733;;;-39.443.439;1.364.305.187;https://maps.google.com/?cid=0x0:0xfe28560b049fae1;
supermarket;supermarket;Kebo;"Kabupaten Paniai, Papua";"Kabupaten Paniai, Papua";PAPUA;;Indonesia;;;;-38.208.593;1.363.865.587;https://maps.google.com/?cid=0x0:0x965b313c4d48e7ae;
supermarket;Bioskop;Cinpolis;"CR34+V8G, Jl. Malabar 1, RT.03/RW.08, Babakan, Kecamatan Bogor Tengah, Kota Bogor, Jawa Barat 16129";"Jl. Malabar 1, RT.03/RW.08, Babakan, Kecamatan Bogor Tengah, Kota Bogor";PAPUA;16129;Indonesia;;;;-65.953.249;1.068.058.155;https://maps.google.com/?cid=0x0:0x6a37d9dd15d82035;
supermarket;supermarket;Foodmart Fresh Keboen Raya;"Jl. Taman Malabar No.7, RT.03/RW.08, Babakan, Kecamatan Bogor Tengah, Kota Bogor, Jawa Barat 16129";"RT.03/RW.08, Babakan, Kecamatan Bogor Tengah, Kota Bogor";PAPUA;16129;Indonesia;02517716316;;;-65.958.994;1.068.045.441;https://maps.google.com/?cid=0x0:0x55dd393ce5ab8471;
supermarket;supermarket;Papua 98722;"Paniai Tim., Kabupaten Paniai, Papua";"Kabupaten Paniai, Papua";PAPUA;;Indonesia;;;;-39.261.758;1.365.066.359;https://maps.google.com/?cid=0x0:0xc8074bbd911fd05a;
supermarket;Toko;Kios Doopitaka;"6966+WXW, Jl. Dewouyemabutu, Kampung Amopa, Distrik Muye, Kabupaten Paniai, Papua";"Kabupaten Paniai, Papua";PAPUA;;Indonesia;;;;-37.876.441;1.363.624.686;https://maps.google.com/?cid=0x0:0x9b873bdadf884525;
supermarket;Toko Ponsel;Toko D'Bilal;"Jln. Frans kaisepo, Enarotali, Paniai Tim., Kabupaten Paniai, Papua";"Kabupaten Paniai, Papua";PAPUA;;Indonesia;;;;-39.286.444;1.363.777.767;https://maps.google.com/?cid=0x0:0x816a7cdfbb6a9144;
supermarket;Toko Swalayan;Swalayan new harapan;"Jl. Trans Papua No.km. 2, Persatuan, Mandobo, Boven Digoel Regency, Papua 99663";"Persatuan, Mandobo, Boven Digoel Regency";PAPUA;99663;Indonesia;081248781111;;;-61.254.842;1.403.275.427;https://maps.google.com/?cid=0x0:0xdcc4bfc1d76c22dd;
supermarket;Toko umum;Buah -buahan segar;"Bapouda, Enarotali, Paniai Tim., Kabupaten Paniai, Papua 98726";"Enarotali, Paniai Tim., Kabupaten Paniai";PAPUA;98726;Indonesia;;;;-39.321.429;1.363.808.792;https://maps.google.com/?cid=0x0:0x87a2152504956ea3;
supermarket;Toko bahan makanan;Toko bahan;"597M+6V, Awebutu, Kebo, Kabupaten Paniai, Papua";"Kabupaten Paniai, Papua";PAPUA;;Indonesia;;;;-38.369.759;1.363.847.307;https://maps.google.com/?cid=0x0:0x454dca17c1743e36;
supermarket;Pusat Perbelanjaan;Papua Supermarket  Dept. Store;"4869+F77 Bar, Sawagumu, Kec. Sorong Utara, Kota Sorong, Papua Bar. 98416";"Sawagumu, Kec. Sorong Utara, Kota Sorong";PAPUA;98416;Indonesia;09513160123;;;-0.888831;1.313.181.847;https://maps.google.com/?cid=0x0:0x7b5f0926a74ad213;
supermarket;Toko;Toko Fathan Jaya;"39FH+865, Awabutu, Paniai Tim., Kabupaten Paniai, Papua 98726";"Awabutu, Paniai Tim., Kabupaten Paniai";PAPUA;98726;Indonesia;081240545949;;;-39.265.912;1.363.779.198;https://maps.google.com/?cid=0x0:0x85c35e537a210f0e;
supermarket;Toko Swalayan;Bukit Bintang;"Unnamed Road, Aikai, Paniai Tim., Kabupaten Paniai, Papua 98726";"Aikai, Paniai Tim., Kabupaten Paniai";PAPUA;98726;Indonesia;082248002448;;;-39.278.963;1.363.758.566;https://maps.google.com/?cid=0x0:0xddeaf0df7112c9f4;
supermarket;Kantor Perusahaan;Supermarket GOTA;"4868+2X3, Jl. Sungai Maruni, Sawagumu, Distrik Sorong Timur, Kota Sorong, Papua Bar. 98416";"Jl. Sungai Maruni, Sawagumu, Distrik Sorong Timur, Kota Sorong";PAPUA;98416;Indonesia;;;;-0.8900646;1.313.173.945;https://maps.google.com/?cid=0x0:0xe80a2989cd86300;
supermarket;Toko bahan makanan;Abadi 3;"Unnamed Road, Paniai Tim., 98726, Aikai, Paniai Tim., Kabupaten Paniai, Papua 98726";"Paniai Tim.,";PAPUA;98726;Indonesia;082199214587;;;-39.299.081;136.376.288;https://maps.google.com/?cid=0x0:0x9d983c751165d273;
supermarket;Toko;Kios Sadaka Kogekotu;"39GH+4HJ, Awabutu, Paniai Tim., Kabupaten Paniai, Papua 98726";"Awabutu, Paniai Tim., Kabupaten Paniai";PAPUA;98726;Indonesia;;;;-3.924.664;136.378.879;https://maps.google.com/?cid=0x0:0x5e90cdc0b4ec7603;
supermarket;Minimarket;FoodMax Supermarket;"Jl. R.A. Kartini No.16, Cilandak Bar., Kec. Cilandak, Kota Jakarta Selatan, Daerah Khusus Ibukota Jakarta 12430";"Cilandak Bar., Kec. Cilandak, Kota Jakarta Selatan";PAPUA;12430;Indonesia;;;;-62.926.283;1.067.862.876;https://maps.google.com/?cid=0x0:0x2127dec7d159dc41;
supermarket;Bioskop;Cinpolis;"CR34+V8G, Jl. Malabar 1, RT.03/RW.08, Babakan, Kecamatan Bogor Tengah, Kota Bogor, Jawa Barat 16129";"Jl. Malabar 1, RT.03/RW.08, Babakan, Kecamatan Bogor Tengah, Kota Bogor";PAPUA;16129;Indonesia;;;;-65.953.249;1.068.058.155;https://maps.google.com/?cid=0x0:0x6a37d9dd15d82035;
supermarket;Pusat Perbelanjaan;Lippo Plaza Keboen Raya;"Jl. Malabar 2 No.17A, Babakan, Kecamatan Bogor Tengah, Kota Bogor, Jawa Barat 16129";"Babakan, Kecamatan Bogor Tengah, Kota Bogor";PAPUA;16129;Indonesia;;;;-65.954.656;1.068.057.665;https://maps.google.com/?cid=0x0:0xcda1b5f11e139fea;
supermarket;supermarket;Foodmart Fresh Keboen Raya;"Jl. Taman Malabar No.7, RT.03/RW.08, Babakan, Kecamatan Bogor Tengah, Kota Bogor, Jawa Barat 16129";"RT.03/RW.08, Babakan, Kecamatan Bogor Tengah, Kota Bogor";PAPUA;16129;Indonesia;02517716316;;;-65.958.994;1.068.045.441;https://maps.google.com/?cid=0x0:0x55dd393ce5ab8471;
supermarket;supermarket;Papua 98723;"Kebo, Kabupaten Paniai, Papua";"Kabupaten Paniai, Papua";PAPUA;;Indonesia;;;;-3.811.015;1.363.720.666;https://maps.google.com/?cid=0x0:0xfa8d4ab6a47490f0;
supermarket;Toko bahan makanan;Toko bahan;"597M+6V, Awebutu, Kebo, Kabupaten Paniai, Papua";"Kabupaten Paniai, Papua";PAPUA;;Indonesia;;;;-38.369.759;1.363.847.307;https://maps.google.com/?cid=0x0:0x454dca17c1743e36;
supermarket;Toko;Kios Doopitaka;"6966+WXW, Jl. Dewouyemabutu, Kampung Amopa, Distrik Muye, Kabupaten Paniai, Papua";"Kabupaten Paniai, Papua";PAPUA;;Indonesia;;;;-37.876.441;1.363.624.686;https://maps.google.com/?cid=0x0:0x9b873bdadf884525;
supermarket;supermarket;Foodmart Fresh Keboen Raya;"Jl. Taman Malabar No.7, RT.03/RW.08, Babakan, Kecamatan Bogor Tengah, Kota Bogor, Jawa Barat 16129";"RT.03/RW.08, Babakan, Kecamatan Bogor Tengah, Kota Bogor";PAPUA;16129;Indonesia;02517716316;;;-65.958.994;1.068.045.441;https://maps.google.com/?cid=0x0:0x55dd393ce5ab8471;
supermarket;supermarket;Papua 98715;"Kabupaten Paniai, Papua";"Kabupaten Paniai, Papua";PAPUA;;Indonesia;;;;-38.146.561;1.364.296.942;https://maps.google.com/?cid=0x0:0x49e2a3ef18e7312b;
supermarket;Toko;Toko Fathan Jaya;"39FH+865, Awabutu, Paniai Tim., Kabupaten Paniai, Papua 98726";"Awabutu, Paniai Tim., Kabupaten Paniai";PAPUA;98726;Indonesia;081240545949;;;-39.265.912;1.363.779.198;https://maps.google.com/?cid=0x0:0x85c35e537a210f0e;
supermarket;Toko bahan makanan;PC. DUPIA;"39CH+GCP, Awabutu, Paniai Tim., Kabupaten Paniai, Papua 98726";"Awabutu, Paniai Tim., Kabupaten Paniai";PAPUA;98726;Indonesia;085244950852;;;-39.286.657;1.363.785.627;https://maps.google.com/?cid=0x0:0x970e067f7ead8be9;
supermarket;Toko Swalayan;Bukit Bintang;"Unnamed Road, Aikai, Paniai Tim., Kabupaten Paniai, Papua 98726";"Aikai, Paniai Tim., Kabupaten Paniai";PAPUA;98726;Indonesia;082248002448;;;-39.278.963;1.363.758.566;https://maps.google.com/?cid=0x0:0xddeaf0df7112c9f4;
supermarket;Toko umum;Buah -buahan segar;"Bapouda, Enarotali, Paniai Tim., Kabupaten Paniai, Papua 98726";"Enarotali, Paniai Tim., Kabupaten Paniai";PAPUA;98726;Indonesia;;;;-39.321.429;1.363.808.792;https://maps.google.com/?cid=0x0:0x87a2152504956ea3;
supermarket;Toko Swalayan;Yohan Departement Store;"Jl. Ahmad Yani No.38, Gurabesi, Kec. Jayapura Utara, Kota Jayapura, Papua 99221";"Gurabesi, Kec. Jayapura Utara, Kota Jayapura";PAPUA;99221;Indonesia;0967531497;;;-25.433.684;1.407.015.959;https://maps.google.com/?cid=0x0:0xf35ee7be8d7a021c;
supermarket;Kios;Kios Doopitaka;"36MQ+M9, Obano, Distrik Paniai Barat, Kabupaten Paniai, Papua";"Kabupaten Paniai, Papua";PAPUA;;Indonesia;;;;-3.915.813;136.238.393;https://maps.google.com/?cid=0x0:0x4e8cfcc6a0800807;
supermarket;Kantor Perusahaan;Hypermart - Abepura;"Jl. Raya Abepura - Sentani No.81, Asano, Kec. Abepura, Kota Jayapura, Papua 99351";"Asano, Kec. Abepura, Kota Jayapura";PAPUA;99351;Indonesia;081314558885;;;-26.166.812;1.406.801.223;https://maps.google.com/?cid=0x0:0x4a244a93dff8c00b;
supermarket;Toko Swalayan;Swalayan new harapan;"Jl. Trans Papua No.km. 2, Persatuan, Mandobo, Boven Digoel Regency, Papua 99663";"Persatuan, Mandobo, Boven Digoel Regency";PAPUA;99663;Indonesia;081248781111;;;-61.254.842;1.403.275.427;https://maps.google.com/?cid=0x0:0xdcc4bfc1d76c22dd;
supermarket;Toko bahan makanan;TOKO BERKAT ADONAY;"Jln.Papua Kompleks Ruko Block A, Massi, Kec. Dekai, Kabupaten Yahukimo, Papua 99571";"Massi, Kec. Dekai, Kabupaten Yahukimo";PAPUA;99571;Indonesia;081223355359;;;-48.624.737;1.394.857.426;https://maps.google.com/?cid=0x0:0xebc675faef4f92b5;
supermarket;Toko Swalayan;Yudha Supermarket;"WWCP+G27, Hetuma, Distrik Wamena, Kabupaten Jayawijaya, Papua 99511";"Hetuma, Distrik Wamena, Kabupaten Jayawijaya";PAPUA;99511;Indonesia;081344555087;;;-40.787.073;1.389.350.504;https://maps.google.com/?cid=0x0:0x725942562c21bad4;
supermarket;Toko bahan makanan;Abadi 3;"Unnamed Road, Paniai Tim., 98726, Aikai, Paniai Tim., Kabupaten Paniai, Papua 98726";"Paniai Tim.,";PAPUA;98726;Indonesia;082199214587;;;-39.299.081;136.376.288;https://maps.google.com/?cid=0x0:0x9d983c751165d273;
supermarket;Toko;HADI Supermarket  Dept Store;"JFQX+RQC, Jl. Yos Sudarso, Oyehe, Distrik Nabire, Kabupaten Nabire, Papua 98811";"Jl. Yos Sudarso, Oyehe, Distrik Nabire, Kabupaten Nabire";PAPUA;98811;Indonesia;098421367;;;-3.360.447;1.354.994.055;https://maps.google.com/?cid=0x0:0x60bc70181b8864df;
supermarket;supermarket;Saga supermarket;"FF58+VFQ, Jl. Raya Doyo Baru, Doyo Baru, Distrik Waibu, Kabupaten Jayapura, Papua 99352";"Jl. Raya Doyo Baru, Doyo Baru, Distrik Waibu, Kabupaten Jayapura";PAPUA;99352;Indonesia;;;;-25.403.227;1.404.662.068;https://maps.google.com/?cid=0x0:0xbae885efbed8833b;
supermarket;Pusat Perbelanjaan;Robinson Supermarket Mall Ramayana;"9MWF+7G4, Jalan Raya, Wai Mhorock, Abepura, Jayapura City, Papua 99225";"Jalan Raya, Wai Mhorock, Abepura, Jayapura City";PAPUA;99225;Indonesia;;;;-26.043.521;1.406.738.283;https://maps.google.com/?cid=0x0:0xefb232f46e94116e;
supermarket;Toko Swalayan;Hadi Supermarket;"Jl. Frans Kaisepo No.5, RT. 003/01, Warari, Kec. Yapen Sel., Kabupaten Kepulauan Yapen, Papua 98212";"RT. 003/01, Warari, Kec. Yapen Sel., Kabupaten Kepulauan Yapen";PAPUA;98212;Indonesia;098334276;;;-18.751.153;1.362.490.809;https://maps.google.com/?cid=0x0:0xf67310d4ed062031;
supermarket;Toko;Kios Sadaka Kogekotu;"39GH+4HJ, Awabutu, Paniai Tim., Kabupaten Paniai, Papua 98726";"Awabutu, Paniai Tim., Kabupaten Paniai";PAPUA;98726;Indonesia;;;;-3.924.664;136.378.879;https://maps.google.com/?cid=0x0:0x5e90cdc0b4ec7603;
supermarket;Minimarket;Jayamart Sa Pu Teman Baik"";"Entrop, Distrik Jayapura Selatan, Kota Jayapura, Papua";"Kota Jayapura, Papua";PAPUA;;Indonesia;081247658188;;;-25.686.846;140.702.712;https://maps.google.com/?cid=0x0:0x53394867842cc0f1;
supermarket;Minimarket;TOKO RINI JAYA;"G3F9+8XQ, Jl. Poros Teminabuan-ayanmaru, depan RSUD, Keyen, Kec. Teminabuan, Kabupaten Sorong Selatan, Papua Bar. 98454";"Jl. Poros Teminabuan-ayanmaru, depan RSUD, Keyen, Kec. Teminabuan, Kabupaten Sorong Selatan";PAPUA;98454;Indonesia;081248712033;;;-14.766.617;1.320.699.779;https://maps.google.com/?cid=0x0:0x8a9b092ff180067;
supermarket;Toko Swalayan;Ropan Market - Yos Sudarso;"VWXP+456, Jl. Yos Sudarso, Hurekama, Distrik Wamena, Kabupaten Jayawijaya, Papua 99511";"Jl. Yos Sudarso, Hurekama, Distrik Wamena, Kabupaten Jayawijaya";PAPUA;99511;Indonesia;;;;-41.022.222;1.389.353.915;https://maps.google.com/?cid=0x0:0xe060cf4b8c1f18d0;
supermarket;Pusat Perbelanjaan;Papua Supermarket  Dept. Store;"4869+F77 Bar, Sawagumu, Kec. Sorong Utara, Kota Sorong, Papua Bar. 98416";"Sawagumu, Kec. Sorong Utara, Kota Sorong";PAPUA;98416;Indonesia;09513160123;;;-0.888831;1.313.181.847;https://maps.google.com/?cid=0x0:0x7b5f0926a74ad213;
supermarket;supermarket;Aspan supermarket trikora;"PMRQ+53R, Trikora, Distrik Wamena, Kabupaten Jayawijaya, Papua";"Kabupaten Jayawijaya, Papua";PAPUA;;Indonesia;;;;-4.259.512;138.687.625;https://maps.google.com/?cid=0x0:0xde6dff8441b87819;
supermarket;Toko Swalayan;Yaho Supermarket;"QRQ3+8RH, Madang Madang Province, Papua Nugini";"Madang, Papua Nugini";PAPUA;;Indonesia;;;;-52.116.956;1.458.045.985;https://maps.google.com/?cid=0x0:0xb3cb7adf8a37ab13;
supermarket;Toko;Kios Doopitaka;"6966+WXW, Jl. Dewouyemabutu, Kampung Amopa, Distrik Muye, Kabupaten Paniai, Papua";"Kabupaten Paniai, Papua";PAPUA;;Indonesia;;;;-37.876.441;1.363.624.686;https://maps.google.com/?cid=0x0:0x9b873bdadf884525;
supermarket;Pusat Perbelanjaan;SAGA YOUTEFA;"9MVG+F3W, Jl. Garuda, Wai Mhorock, Kec. Abepura, Kota Jayapura, Papua 99225";"Jl. Garuda, Wai Mhorock, Kec. Abepura, Kota Jayapura";PAPUA;99225;Indonesia;;;;-26.062.656;1.406.752.002;https://maps.google.com/?cid=0x0:0x3d7019ea8a81a006;
supermarket;Toko bahan makanan;Papua Mart;"7XVG+F83, Pruleme, Distrik Mulia, Kabupaten Puncak Jaya, Papua";"Kabupaten Puncak Jaya, Papua";PAPUA;;Indonesia;;;;-37.063.653;1.379.757.822;https://maps.google.com/?cid=0x0:0xf49ab6ab8e5d1b97;
supermarket;Toko Swalayan;Hadi Supermarket  Dept. Store;"Jl. Imam Bonjol No.56, Fandoi, Kec. Biak Kota, Kabupaten Biak Numfor, Papua 98111";"Fandoi, Kec. Biak Kota, Kabupaten Biak Numfor";PAPUA;98111;Indonesia;;;;-11.800.003;1.360.824.788;https://maps.google.com/?cid=0x0:0xdcad74b4384219ee;
supermarket;Toko Swalayan;HADI MART TIMIKA;"Jl. Yos Sudarso No.35, Kwamki, Kec. Mimika Baru, Kabupaten Mimika, Papua 99971";"Kwamki, Kec. Mimika Baru, Kabupaten Mimika";PAPUA;99971;Indonesia;;;;-45.446.365;1.368.895.979;https://maps.google.com/?cid=0x0:0x3d96563d2fe0245a;
supermarket;supermarket;Hero Ss Port Site;"Kopaidagi, Paniai Tim., Kabupaten Paniai, Papua 99963";"Paniai Tim., Kabupaten Paniai";PAPUA;99963;Indonesia;08001998877;;;-3.971.711;136.439.789;https://maps.google.com/?cid=0x0:0x8f3996d49e59c05e;
supermarket;Toko;Samudra Supermarket;"8PP2+F75, Kroy, Kec. Kaimana, Kabupaten Kaimana, Papua Bar. 98654";"Kroy, Kec. Kaimana, Kabupaten Kaimana";PAPUA;98654;Indonesia;08113189579;;;-36.631.656;1.337.002.039;https://maps.google.com/?cid=0x0:0x97575d1c37a98621;
supermarket;Supermarket Diskon;CV. Samudera;"9P4P+9J7, Jl. Sapta Taruna, Kroy, Kec. Kaimana, Kabupaten Kaimana, Papua Bar. 98654";"Jl. Sapta Taruna, Kroy, Kec. Kaimana, Kabupaten Kaimana";PAPUA;98654;Indonesia;;;;-36.440.992;1.337.365.536;https://maps.google.com/?cid=0x0:0x64165c860713d18;
supermarket;supermarket;Papua 98725;"Paniai Tim., Kabupaten Paniai, Papua";"Kabupaten Paniai, Papua";PAPUA;;Indonesia;;;;-38.960.745;1.364.537.256;https://maps.google.com/?cid=0x0:0xf416718a89ab024c;
supermarket;Toko Swalayan;Ropan Market - Yos Sudarso;"VWXP+456, Jl. Yos Sudarso, Hurekama, Distrik Wamena, Kabupaten Jayawijaya, Papua 99511";"Jl. Yos Sudarso, Hurekama, Distrik Wamena, Kabupaten Jayawijaya";PAPUA;99511;Indonesia;;;;-41.022.222;1.389.353.915;https://maps.google.com/?cid=0x0:0xe060cf4b8c1f18d0;
supermarket;Pusat Perbelanjaan;Papua Supermarket  Dept. Store;"4869+F77 Bar, Sawagumu, Kec. Sorong Utara, Kota Sorong, Papua Bar. 98416";"Sawagumu, Kec. Sorong Utara, Kota Sorong";PAPUA;98416;Indonesia;09513160123;;;-0.888831;1.313.181.847;https://maps.google.com/?cid=0x0:0x7b5f0926a74ad213;
supermarket;Toko Swalayan;Hadi Supermarket;"Jl. Frans Kaisepo No.5, RT. 003/01, Warari, Kec. Yapen Sel., Kabupaten Kepulauan Yapen, Papua 98212";"RT. 003/01, Warari, Kec. Yapen Sel., Kabupaten Kepulauan Yapen";PAPUA;98212;Indonesia;098334276;;;-18.751.153;1.362.490.809;https://maps.google.com/?cid=0x0:0xf67310d4ed062031;
supermarket;supermarket;Saga supermarket;"FF58+VFQ, Jl. Raya Doyo Baru, Doyo Baru, Distrik Waibu, Kabupaten Jayapura, Papua 99352";"Jl. Raya Doyo Baru, Doyo Baru, Distrik Waibu, Kabupaten Jayapura";PAPUA;99352;Indonesia;;;;-25.403.227;1.404.662.068;https://maps.google.com/?cid=0x0:0xbae885efbed8833b;
supermarket;Pusat Perbelanjaan;Robinson Supermarket Mall Ramayana;"9MWF+7G4, Jalan Raya, Wai Mhorock, Abepura, Jayapura City, Papua 99225";"Jalan Raya, Wai Mhorock, Abepura, Jayapura City";PAPUA;99225;Indonesia;;;;-26.043.521;1.406.738.283;https://maps.google.com/?cid=0x0:0xefb232f46e94116e;
supermarket;Toko Swalayan;Yaho Supermarket;"QRQ3+8RH, Madang Madang Province, Papua Nugini";"Madang, Papua Nugini";PAPUA;;Indonesia;;;;-52.116.956;1.458.045.985;https://maps.google.com/?cid=0x0:0xb3cb7adf8a37ab13;
supermarket;supermarket;Aspan supermarket trikora;"PMRQ+53R, Trikora, Distrik Wamena, Kabupaten Jayawijaya, Papua";"Kabupaten Jayawijaya, Papua";PAPUA;;Indonesia;;;;-4.259.512;138.687.625;https://maps.google.com/?cid=0x0:0xde6dff8441b87819;
supermarket;Toko bahan makanan;Holamart youtefa;"9MRG+WVC, Jl. Ps. Yotefa, Wai Mhorock, Kec. Abepura, Kota Jayapura, Papua 99225";"Jl. Ps. Yotefa, Wai Mhorock, Kec. Abepura, Kota Jayapura";PAPUA;99225;Indonesia;081354118337;;;-26.076.973;1.406.771.454;https://maps.google.com/?cid=0x0:0xbf52429e5f5366e4;
supermarket;Toko Swalayan;Hadi Supermarket  Dept. Store;"Jl. Imam Bonjol No.56, Fandoi, Kec. Biak Kota, Kabupaten Biak Numfor, Papua 98111";"Fandoi, Kec. Biak Kota, Kabupaten Biak Numfor";PAPUA;98111;Indonesia;;;;-11.800.003;1.360.824.788;https://maps.google.com/?cid=0x0:0xdcad74b4384219ee;
supermarket;Toko Perkakas;Toko Sinar Mulia;"9MMH+MV4, Jl. Tanah Hitam, Asano, Kec. Abepura, Kota Jayapura, Papua 99351";"Jl. Tanah Hitam, Asano, Kec. Abepura, Kota Jayapura";PAPUA;99351;Indonesia;0967589031;;;-26.158.515;14.067.971;https://maps.google.com/?cid=0x0:0xd9090b666996f2ba;
supermarket;supermarket;Smart Minimarket;"JP66+WCF, Banamepe, Edera, Kabupaten Mappi, Papua";"Kabupaten Mappi, Papua";PAPUA;;Indonesia;;;;-73.876.836;1.397.110.495;https://maps.google.com/?cid=0x0:0x7b9d0e61f96daf74;
supermarket;Pusat Perbelanjaan;MEGA MART YOUTEFA;"9MRG+VJQ, Jl. Ps. Yotefa, Wai Mhorock, Kec. Abepura, Kota Jayapura, Papua";"Kota Jayapura, Papua";PAPUA;;Indonesia;;;;-26.077.959;140.676.594;https://maps.google.com/?cid=0x0:0x9d05a5556478b41f;
supermarket;Toko bahan makanan;Toko Mulia Jaya 2;"CVXQ+X9V, Jl. Serui Mekar, Koperapoka, Kec. Mimika Baru, Kabupaten Mimika, Papua 99971";"Jl. Serui Mekar, Koperapoka, Kec. Mimika Baru, Kabupaten Mimika";PAPUA;99971;Indonesia;085244855062;;;-45.500.184;1.368.884.344;https://maps.google.com/?cid=0x0:0x9cd59d295db474ab;
supermarket;Pusat Perbelanjaan;SAGA YOUTEFA;"9MVG+F3W, Jl. Garuda, Wai Mhorock, Kec. Abepura, Kota Jayapura, Papua 99225";"Jl. Garuda, Wai Mhorock, Kec. Abepura, Kota Jayapura";PAPUA;99225;Indonesia;;;;-26.062.656;1.406.752.002;https://maps.google.com/?cid=0x0:0x3d7019ea8a81a006;
supermarket;Toko Swalayan;HADI MART TIMIKA;"Jl. Yos Sudarso No.35, Kwamki, Kec. Mimika Baru, Kabupaten Mimika, Papua 99971";"Kwamki, Kec. Mimika Baru, Kabupaten Mimika";PAPUA;99971;Indonesia;;;;-45.446.365;1.368.895.979;https://maps.google.com/?cid=0x0:0x3d96563d2fe0245a;
supermarket;Toko bahan makanan;Papua Mart;"7XVG+F83, Pruleme, Distrik Mulia, Kabupaten Puncak Jaya, Papua";"Kabupaten Puncak Jaya, Papua";PAPUA;;Indonesia;;;;-37.063.653;1.379.757.822;https://maps.google.com/?cid=0x0:0xf49ab6ab8e5d1b97;
supermarket;Minimarket;H-Mart Supiori;"Jl. Sorendiweri Raya, Sorendidori, Kec. Supiori Tim., Kabupaten Supiori, Papua 98161";"Sorendidori, Kec. Supiori Tim., Kabupaten Supiori";PAPUA;98161;Indonesia;081247077475;;;-0.734098;1.357.372.755;https://maps.google.com/?cid=0x0:0x319ecad4e16ae91b;
supermarket;Minimarket;ALYA MART;"CGM5+X64, Jl. Raya Kemiri, Sentani Kota, Kec. Sentani, Kabupaten Jayapura, Papua 99359";"Jl. Raya Kemiri, Sentani Kota, Kec. Sentani, Kabupaten Jayapura";PAPUA;99359;Indonesia;085244821117;;;-2.565.109;1.405.080.643;https://maps.google.com/?cid=0x0:0xbeda8c45d0c56ad0;
supermarket;Pusat jajanan kaki lima;Papuanmart;"Furia polda, Jl. Perkutut Jalur 4 No.164, Wahno, Kec. Abepura, Kota Jayapura, Papua 99224";"Jl. Perkutut Jalur 4 No.164, Wahno, Kec. Abepura, Kota Jayapura";PAPUA;99224;Indonesia;;;;-25.936.297;1.406.745.825;https://maps.google.com/?cid=0x0:0x820b246032d165c5;
supermarket;Toko;Toko Yayu;"9FWR+PPC, Unnamed Road, Tinakin Laut, Sulawesi Tengah 94891";"Unnamed Road, Tinakin Laut";PAPUA;94891;Indonesia;085960338751;;;-16.031.861;1.234.917.549;https://maps.google.com/?cid=0x0:0xe5af17ee8683bda5;
supermarket;Toko bahan makanan;Kios Jumpandang baru;"X73G+5XX, Jl. Waghete Raya, Wagete I, Kec. Tigi, Kabupaten Deiyai, Papua 98764";"Jl. Waghete Raya, Wagete I, Kec. Tigi, Kabupaten Deiyai";PAPUA;98764;Indonesia;;;;-40.470.104;1.362.774.824;https://maps.google.com/?cid=0x0:0x9883e6dcaf75ef44;
supermarket;Minimarket;Yatmi Mart;"M87G+FJM, Jl. Jabal Lemmah Metteng, Gunungsirah, Sumingkir, Kec. Kutasari, Kabupaten Purbalingga, Jawa Tengah 53361";"Jl. Jabal Lemmah Metteng, Gunungsirah, Sumingkir, Kec. Kutasari, Kabupaten Purbalingga";PAPUA;53361;Indonesia;;;;-73.362.818;1.093.265.343;https://maps.google.com/?cid=0x0:0x23b550a25b054595;
supermarket;supermarket;Papua 98726;"Kabupaten Paniai, Papua";"Kabupaten Paniai, Papua";PAPUA;;Indonesia;;;;-39.264.117;1.362.761.704;https://maps.google.com/?cid=0x0:0x51a62be53f847ea;
supermarket;Toko bahan makanan;PC. DUPIA;"39CH+GCP, Awabutu, Paniai Tim., Kabupaten Paniai, Papua 98726";"Awabutu, Paniai Tim., Kabupaten Paniai";PAPUA;98726;Indonesia;085244950852;;;-39.286.657;1.363.785.627;https://maps.google.com/?cid=0x0:0x970e067f7ead8be9;
supermarket;Toko;Toko Fathan Jaya;"39FH+865, Awabutu, Paniai Tim., Kabupaten Paniai, Papua 98726";"Awabutu, Paniai Tim., Kabupaten Paniai";PAPUA;98726;Indonesia;081240545949;;;-39.265.912;1.363.779.198;https://maps.google.com/?cid=0x0:0x85c35e537a210f0e;
supermarket;Toko Swalayan;Bukit Bintang;"Unnamed Road, Aikai, Paniai Tim., Kabupaten Paniai, Papua 98726";"Aikai, Paniai Tim., Kabupaten Paniai";PAPUA;98726;Indonesia;082248002448;;;-39.278.963;1.363.758.566;https://maps.google.com/?cid=0x0:0xddeaf0df7112c9f4;
supermarket;Toko umum;Buah -buahan segar;"Bapouda, Enarotali, Paniai Tim., Kabupaten Paniai, Papua 98726";"Enarotali, Paniai Tim., Kabupaten Paniai";PAPUA;98726;Indonesia;;;;-39.321.429;1.363.808.792;https://maps.google.com/?cid=0x0:0x87a2152504956ea3;
supermarket;Toko bahan makanan;Abadi 3;"Unnamed Road, Paniai Tim., 98726, Aikai, Paniai Tim., Kabupaten Paniai, Papua 98726";"Paniai Tim.,";PAPUA;98726;Indonesia;082199214587;;;-39.299.081;136.376.288;https://maps.google.com/?cid=0x0:0x9d983c751165d273;
supermarket;Kios;Kios Doopitaka;"36MQ+M9, Obano, Distrik Paniai Barat, Kabupaten Paniai, Papua";"Kabupaten Paniai, Papua";PAPUA;;Indonesia;;;;-3.915.813;136.238.393;https://maps.google.com/?cid=0x0:0x4e8cfcc6a0800807;
supermarket;Toko bahan makanan;TOKO BERKAT ADONAY;"Jln.Papua Kompleks Ruko Block A, Massi, Kec. Dekai, Kabupaten Yahukimo, Papua 99571";"Massi, Kec. Dekai, Kabupaten Yahukimo";PAPUA;99571;Indonesia;081223355359;;;-48.624.737;1.394.857.426;https://maps.google.com/?cid=0x0:0xebc675faef4f92b5;
supermarket;Pusat Perbelanjaan;JUSMA MART;"Jl. Sriwijaya No.20, Yafdas, Kec. Samofa, Kabupaten Biak Numfor, Papua 98112";"Yafdas, Kec. Samofa, Kabupaten Biak Numfor";PAPUA;98112;Indonesia;085822948637;;;-11.574.561;136.071.629;https://maps.google.com/?cid=0x0:0xdb6b4facb003d470;
supermarket;Toko Swalayan;Yohan Departement Store;"Jl. Ahmad Yani No.38, Gurabesi, Kec. Jayapura Utara, Kota Jayapura, Papua 99221";"Gurabesi, Kec. Jayapura Utara, Kota Jayapura";PAPUA;99221;Indonesia;0967531497;;;-25.433.684;1.407.015.959;https://maps.google.com/?cid=0x0:0xf35ee7be8d7a021c;
supermarket;Toko Swalayan;Surya Mart;"C8V2+G83, Jl. Irian Kepi, Kepi, Kec. Obaa, Kabupaten Mappi, Papua 99881";"Jl. Irian Kepi, Kepi, Kec. Obaa, Kabupaten Mappi";PAPUA;99881;Indonesia;085254867242;;;-65.562.444;1.393.007.867;https://maps.google.com/?cid=0x0:0x160bad2921fdf723;
supermarket;Minimarket;TOKO RINI JAYA;"G3F9+8XQ, Jl. Poros Teminabuan-ayanmaru, depan RSUD, Keyen, Kec. Teminabuan, Kabupaten Sorong Selatan, Papua Bar. 98454";"Jl. Poros Teminabuan-ayanmaru, depan RSUD, Keyen, Kec. Teminabuan, Kabupaten Sorong Selatan";PAPUA;98454;Indonesia;081248712033;;;-14.766.617;1.320.699.779;https://maps.google.com/?cid=0x0:0x8a9b092ff180067;
supermarket;Toko;Kios Sadaka Kogekotu;"39GH+4HJ, Awabutu, Paniai Tim., Kabupaten Paniai, Papua 98726";"Awabutu, Paniai Tim., Kabupaten Paniai";PAPUA;98726;Indonesia;;;;-3.924.664;136.378.879;https://maps.google.com/?cid=0x0:0x5e90cdc0b4ec7603;
supermarket;supermarket;Kios yagekago jaya;"39FG+4FG, Enarotali, Paniai Tim., Kabupaten Paniai, Papua 98726";"Enarotali, Paniai Tim., Kabupaten Paniai";PAPUA;98726;Indonesia;082197218677;;;-39.271.875;1.363.762.031;https://maps.google.com/?cid=0x0:0xe4373dfe8fc938d8;
supermarket;Toko;Toko Yayu;"9FWR+PPC, Unnamed Road, Tinakin Laut, Sulawesi Tengah 94891";"Unnamed Road, Tinakin Laut";PAPUA;94891;Indonesia;085960338751;;;-16.031.861;1.234.917.549;https://maps.google.com/?cid=0x0:0xe5af17ee8683bda5;
