Category;Real Category;Business Name;Address;City;State;Postal Code;Country;Phone;Email;Website;Latitude;Longitude;Map Link;Details Link
"komplek housing";"komplek housing";"Papua 98763";"Kabupaten Paniai, Papua";"Kabupaten Paniai, Papua";"PAPUA";"";"Indonesia";"";"";"";"-3.7991853";"136.3049196";"https://maps.google.com/?cid=0x0:0x8e322f542c113cfe";""
"komplek housing";"Pembangunan Perumahan";"RUMAH OSEA SATU BOMA";"597M+6V, Awebutu, Kebo, Kabupaten Paniai, Papua";"Kabupaten Paniai, Papua";"PAPUA";"";"Indonesia";"";"";"";"-3.8369759";"136.3847307";"https://maps.google.com/?cid=0x0:0x7689ac07f99e3f7c";""
"komplek housing";"Komplek perumahan";"Perumahan Kontainer";"Madi, Paniai Tim., Kabupaten Paniai, Papua 98781";"Paniai Tim., Kabupaten Paniai";"PAPUA";"98781";"Indonesia";"";"";"";"-3.947805";"136.4304397";"https://maps.google.com/?cid=0x0:0xe6048b774b0c1534";""
"komplek housing";"Kompleks Bangunan Perusahaan";"Kompleks nusantara sehat madi";"2CXJ+CP, Umbutu / Uyubutu / Uwibutu, Paniai Tim., Kabupaten Paniai, Papua 98781";"Umbutu / Uyubutu / Uwibutu, Paniai Tim., Kabupaten Paniai";"PAPUA";"98781";"Indonesia";"";"";"";"-3.9514133";"136.4320732";"https://maps.google.com/?cid=0x0:0xa1926f6e29e86a0c";""
"komplek housing";"Perhimpunan Pengembang Perumahan";"IYAIPUGI";"39CG+XP7 Tim, 98726CG+RH5, Enarotali, Paniai Tim., Kabupaten Paniai, Papua 98726";"98726CG+RH5, Enarotali, Paniai Tim., Kabupaten Paniai";"PAPUA";"98726";"Indonesia";"";"";"";"-3.9275914";"136.3768071";"https://maps.google.com/?cid=0x0:0x85b0a5173db76ad0";""
"komplek housing";"Komplek perumahan";"Wouyebutu Konteiner madi";"399J+6G7, Awabutu, Paniai Tim., Kabupaten Paniai, Papua";"Kabupaten Paniai, Papua";"PAPUA";"";"Indonesia";"";"";"";"-3.9319578";"136.3812971";"https://maps.google.com/?cid=0x0:0x6665461bcbf16630";""
"komplek housing";"Komplek perumahan";"Paniai";"39CH+764, Enarotali, Paniai Tim., Kabupaten Paniai, Papua";"Kabupaten Paniai, Papua";"PAPUA";"";"Indonesia";"";"";"";"-3.9293592";"136.3780656";"https://maps.google.com/?cid=0x0:0x3b691d0ca7d49cd2";""
"komplek housing";"Komplek perumahan";"Ekadise";"39CP+P2, Awabutu, Paniai Tim., Kabupaten Paniai, Papua 98726";"Awabutu, Paniai Tim., Kabupaten Paniai";"PAPUA";"98726";"Indonesia";"";"";"";"-3.9280533";"136.3844767";"https://maps.google.com/?cid=0x0:0xc5138a6962b0210b";""
"komplek housing";"Komplek perumahan";"My Home Sweet home";"397C+QH, Aikai, Paniai Tim., Kabupaten Paniai, Papua 98726";"Aikai, Paniai Tim., Kabupaten Paniai";"PAPUA";"98726";"Indonesia";"";"";"";"-3.9362433";"136.3719737";"https://maps.google.com/?cid=0x0:0xc2ab422973535c2e";""
"komplek housing";"Komplek perumahan";"Enarotali";"39F7+CW5, Jalan poros, Enarotali, Paniai Tim., Kabupaten Paniai, Papua";"Kabupaten Paniai, Papua";"PAPUA";"";"Indonesia";"";"";"";"-3.9264917";"136.3648679";"https://maps.google.com/?cid=0x0:0xf563d37031a66f69";""
"komplek housing";"Komplek perumahan";"Rumah Byak";"39F7+CW5, Enarotali, Paniai Tim., Kabupaten Paniai, Papua";"Kabupaten Paniai, Papua";"PAPUA";"";"Indonesia";"";"";"";"-3.9264917";"136.3648679";"https://maps.google.com/?cid=0x0:0xc7c847ad77af495";""
"komplek housing";"Komplek perumahan";"Rumah Biak";"399G+PGW, Enarotali, Paniai Tim., Kabupaten Paniai, Papua 98726";"Enarotali, Paniai Tim., Kabupaten Paniai";"PAPUA";"98726";"Indonesia";"";"";"";"-3.929882";"136.3765556";"https://maps.google.com/?cid=0x0:0x303df156d9c78752";""
"komplek housing";"Komplek perumahan";"Ugapugaida";"3C5G+56X, Madi, Paniai Tim., Kabupaten Paniai, Papua 98781";"Madi, Paniai Tim., Kabupaten Paniai";"PAPUA";"98781";"Indonesia";"";"";"";"-3.9422815";"136.4258585";"https://maps.google.com/?cid=0x0:0x8da3b6e3e69ce72a";""
"komplek housing";"Pembangunan Perumahan";"Iyaitaka";"399G+FGJ, Enarotali, Paniai Tim., Kabupaten Paniai, Papua 98726";"Enarotali, Paniai Tim., Kabupaten Paniai";"PAPUA";"98726";"Indonesia";"";"";"";"-3.9312083";"136.376274";"https://maps.google.com/?cid=0x0:0x7cd7a128d0ac06d4";""
"komplek housing";"Komplek perumahan";"PUPUDA WEGOMANA PANIAI";"3C8Q+JGC, Kopo, Paniai Tim., Kabupaten Paniai, Papua";"Kabupaten Paniai, Papua";"PAPUA";"";"Indonesia";"";"";"";"-3.9334319";"136.438752";"https://maps.google.com/?cid=0x0:0x85fd6c0a88361497";""
"komplek housing";"Rumah wisata";"KOS KOS AN BANIO";"39CH+VWJ, Jalan poros bandara enarotali, Awabutu, Paniai Tim., Kabupaten Paniai, Papua";"Kabupaten Paniai, Papua";"PAPUA";"";"Indonesia";"";"";"";"-3.9277983";"136.3797525";"https://maps.google.com/?cid=0x0:0x9e0d8e6ad2d1cf4";""
"komplek housing";"Pembangunan Perumahan";"Thania Lorto";"3C5G+697, Madi, Paniai Tim., Kabupaten Paniai, Papua";"Kabupaten Paniai, Papua";"PAPUA";"";"Indonesia";"";"";"";"-3.941961";"136.4259214";"https://maps.google.com/?cid=0x0:0x6f7d33b465aadcb0";""
"komplek housing";"Kantor Perusahaan";"Perumahan dinas kesehatan";"3C5G+56X, Madi, Paniai Tim., Kabupaten Paniai, Papua 98781";"Madi, Paniai Tim., Kabupaten Paniai";"PAPUA";"98781";"Indonesia";"";"";"";"-3.9422837";"136.4258572";"https://maps.google.com/?cid=0x0:0x7783894397d78cb5";""
"komplek housing";"Komplek perumahan";"Gideon Kambar (Kampung Baru)";"3C5F+WPR, Madi, Paniai Tim., Kabupaten Paniai, Papua";"Kabupaten Paniai, Papua";"PAPUA";"";"Indonesia";"";"";"";"-3.9401444";"136.424263";"https://maps.google.com/?cid=0x0:0xb43a3e776decddc6";""
"komplek housing";"Komplek perumahan";"Kopabaida";"5C6W+F5, Agapo / Widimeida, Distrik Ekadide, Kabupaten Paniai, Papua";"Kabupaten Paniai, Papua";"PAPUA";"";"Indonesia";"";"";"";"-3.83878";"136.4455767";"https://maps.google.com/?cid=0x0:0x61240e0ed52f213";""
"komplek housing";"komplek housing";"Distrik Paniai Barat";"Kabupaten Paniai, Papua";"Kabupaten Paniai, Papua";"PAPUA";"";"Indonesia";"";"";"";"-3.8762058";"136.2436357";"https://maps.google.com/?cid=0x0:0xa45c0340d2deb7e1";""
"komplek housing";"komplek housing";"Papua 98711";"Paniai Tim., Kabupaten Paniai, Papua";"Kabupaten Paniai, Papua";"PAPUA";"";"Indonesia";"";"";"";"-3.9236807";"136.4681501";"https://maps.google.com/?cid=0x0:0x42ca7f49c2355029";""
"komplek housing";"Komplek perumahan";"Perumahan Kontainer";"Madi, Paniai Tim., Kabupaten Paniai, Papua 98781";"Paniai Tim., Kabupaten Paniai";"PAPUA";"98781";"Indonesia";"";"";"";"-3.947805";"136.4304397";"https://maps.google.com/?cid=0x0:0xe6048b774b0c1534";""
"komplek housing";"Kompleks Bangunan Perusahaan";"Kompleks nusantara sehat madi";"2CXJ+CP, Umbutu / Uyubutu / Uwibutu, Paniai Tim., Kabupaten Paniai, Papua 98781";"Umbutu / Uyubutu / Uwibutu, Paniai Tim., Kabupaten Paniai";"PAPUA";"98781";"Indonesia";"";"";"";"-3.9514133";"136.4320732";"https://maps.google.com/?cid=0x0:0xa1926f6e29e86a0c";""
"komplek housing";"Komplek perumahan";"PUPUDA WEGOMANA PANIAI";"3C8Q+JGC, Kopo, Paniai Tim., Kabupaten Paniai, Papua";"Kabupaten Paniai, Papua";"PAPUA";"";"Indonesia";"";"";"";"-3.9334319";"136.438752";"https://maps.google.com/?cid=0x0:0x85fd6c0a88361497";""
"komplek housing";"Kantor Perusahaan";"Perumahan dinas kesehatan";"3C5G+56X, Madi, Paniai Tim., Kabupaten Paniai, Papua 98781";"Madi, Paniai Tim., Kabupaten Paniai";"PAPUA";"98781";"Indonesia";"";"";"";"-3.9422837";"136.4258572";"https://maps.google.com/?cid=0x0:0x7783894397d78cb5";""
"komplek housing";"Komplek perumahan";"Gideon Kambar (Kampung Baru)";"3C5F+WPR, Madi, Paniai Tim., Kabupaten Paniai, Papua";"Kabupaten Paniai, Papua";"PAPUA";"";"Indonesia";"";"";"";"-3.9401444";"136.424263";"https://maps.google.com/?cid=0x0:0xb43a3e776decddc6";""
"komplek housing";"Pembangunan Perumahan";"Thania Lorto";"3C5G+697, Madi, Paniai Tim., Kabupaten Paniai, Papua";"Kabupaten Paniai, Papua";"PAPUA";"";"Indonesia";"";"";"";"-3.941961";"136.4259214";"https://maps.google.com/?cid=0x0:0x6f7d33b465aadcb0";""
"komplek housing";"";"dr. Agus House";"2CXJ+Q7V, Jl. Raya Madi, Umbutu / Uyubutu / Uwibutu, Paniai Tim., Kabupaten Paniai, Papua 98781";"Jl. Raya Madi, Umbutu / Uyubutu / Uwibutu, Paniai Tim., Kabupaten Paniai";"PAPUA";"98781";"Indonesia";"";"";"";"-3.9505039";"136.4306615";"https://maps.google.com/?cid=0x0:0xccdd54672ffec2c4";""
"komplek housing";"Komplek perumahan";"KOPOPO";"3C5Q+25, Kopo, Paniai Tim., Kabupaten Paniai, Papua";"Kabupaten Paniai, Papua";"PAPUA";"";"Indonesia";"";"";"";"-3.9424617";"136.4379779";"https://maps.google.com/?cid=0x0:0xe5e362b0ed3bc918";""
"komplek housing";"Komplek perumahan";"APO KOPO";"3C4M+RF3, Kopo, Paniai Tim., Kabupaten Paniai, Papua";"Kabupaten Paniai, Papua";"PAPUA";"";"Indonesia";"";"";"";"-3.9429831";"136.4336622";"https://maps.google.com/?cid=0x0:0x6d564546ec6827e2";""
"komplek housing";"Komplek perumahan";"𝗡𝗔𝗚𝗜𝗠𝗔𝗡𝗜𝗜𝗗𝗔,𝗔𝗚𝗔𝗣𝗢";"4FM6+H5H, Obaipugaida, Distrik Ekadide, Kabupaten Paniai, Papua";"Kabupaten Paniai, Papua";"PAPUA";"";"Indonesia";"";"";"";"-3.866059";"136.4604926";"https://maps.google.com/?cid=0x0:0xf0e0110d9d8dc9fc";""
"komplek housing";"Kompleks Kondominium";"Aspol nomor 13";"3C4G+PWJ Aspol, Madi, Paniai Tim., Kabupaten Paniai, Papua";"Kabupaten Paniai, Papua";"PAPUA";"";"Indonesia";"";"";"";"-3.9431714";"136.4272547";"https://maps.google.com/?cid=0x0:0x89ddf9ffa3c678b5";""
"komplek housing";"komplek housing";"Paniai Tim.";"Kabupaten Paniai, Papua";"Kabupaten Paniai, Papua";"PAPUA";"";"Indonesia";"";"";"";"-3.9293592";"136.3780656";"https://maps.google.com/?cid=0x0:0x7f04dacf9b212bec";""
"komplek housing";"komplek housing";"Papua 98712";"Kabupaten Paniai, Papua";"Kabupaten Paniai, Papua";"PAPUA";"";"Indonesia";"";"";"";"-3.8602755";"136.4296942";"https://maps.google.com/?cid=0x0:0xec5046199ceddbff";""
"komplek housing";"Komplek perumahan";"Ekadise";"39CP+P2, Awabutu, Paniai Tim., Kabupaten Paniai, Papua 98726";"Awabutu, Paniai Tim., Kabupaten Paniai";"PAPUA";"98726";"Indonesia";"";"";"";"-3.9280533";"136.3844767";"https://maps.google.com/?cid=0x0:0xc5138a6962b0210b";""
"komplek housing";"Komplek perumahan";"PUPUDA WEGOMANA PANIAI";"3C8Q+JGC, Kopo, Paniai Tim., Kabupaten Paniai, Papua";"Kabupaten Paniai, Papua";"PAPUA";"";"Indonesia";"";"";"";"-3.9334319";"136.438752";"https://maps.google.com/?cid=0x0:0x85fd6c0a88361497";""
"komplek housing";"Komplek perumahan";"Paniai";"39CH+764, Enarotali, Paniai Tim., Kabupaten Paniai, Papua";"Kabupaten Paniai, Papua";"PAPUA";"";"Indonesia";"";"";"";"-3.9293592";"136.3780656";"https://maps.google.com/?cid=0x0:0x3b691d0ca7d49cd2";""
"komplek housing";"Komplek perumahan";"Ugapugaida";"3C5G+56X, Madi, Paniai Tim., Kabupaten Paniai, Papua 98781";"Madi, Paniai Tim., Kabupaten Paniai";"PAPUA";"98781";"Indonesia";"";"";"";"-3.9422815";"136.4258585";"https://maps.google.com/?cid=0x0:0x8da3b6e3e69ce72a";""
"komplek housing";"Pembangunan Perumahan";"RUMAH OSEA SATU BOMA";"597M+6V, Awebutu, Kebo, Kabupaten Paniai, Papua";"Kabupaten Paniai, Papua";"PAPUA";"";"Indonesia";"";"";"";"-3.8369759";"136.3847307";"https://maps.google.com/?cid=0x0:0x7689ac07f99e3f7c";""
"komplek housing";"Komplek perumahan";"Kopabaida";"5C6W+F5, Agapo / Widimeida, Distrik Ekadide, Kabupaten Paniai, Papua";"Kabupaten Paniai, Papua";"PAPUA";"";"Indonesia";"";"";"";"-3.83878";"136.4455767";"https://maps.google.com/?cid=0x0:0x61240e0ed52f213";""
"komplek housing";"Gedung Apartemen";"MFT House";"39F7+CW5, Enarotali, Paniai Tim., Kabupaten Paniai, Papua";"Kabupaten Paniai, Papua";"PAPUA";"";"Indonesia";"";"";"";"-3.9264917";"136.3648679";"https://maps.google.com/?cid=0x0:0x860a52a4617f2bc4";""
"komplek housing";"Komplek perumahan";"𝗡𝗔𝗚𝗜𝗠𝗔𝗡𝗜𝗜𝗗𝗔,𝗔𝗚𝗔𝗣𝗢";"4FM6+H5H, Obaipugaida, Distrik Ekadide, Kabupaten Paniai, Papua";"Kabupaten Paniai, Papua";"PAPUA";"";"Indonesia";"";"";"";"-3.866059";"136.4604926";"https://maps.google.com/?cid=0x0:0xf0e0110d9d8dc9fc";""
"komplek housing";"Komplek perumahan";"Enarotali";"39F7+CW5, Jalan poros, Enarotali, Paniai Tim., Kabupaten Paniai, Papua";"Kabupaten Paniai, Papua";"PAPUA";"";"Indonesia";"";"";"";"-3.9264917";"136.3648679";"https://maps.google.com/?cid=0x0:0xf563d37031a66f69";""
"komplek housing";"Kantor Perusahaan";"Perumahan dinas kesehatan";"3C5G+56X, Madi, Paniai Tim., Kabupaten Paniai, Papua 98781";"Madi, Paniai Tim., Kabupaten Paniai";"PAPUA";"98781";"Indonesia";"";"";"";"-3.9422837";"136.4258572";"https://maps.google.com/?cid=0x0:0x7783894397d78cb5";""
"komplek housing";"Komplek perumahan";"Rumah Biak";"399G+PGW, Enarotali, Paniai Tim., Kabupaten Paniai, Papua 98726";"Enarotali, Paniai Tim., Kabupaten Paniai";"PAPUA";"98726";"Indonesia";"";"";"";"-3.929882";"136.3765556";"https://maps.google.com/?cid=0x0:0x303df156d9c78752";""
"komplek housing";"Komplek perumahan";"My Home Sweet home";"397C+QH, Aikai, Paniai Tim., Kabupaten Paniai, Papua 98726";"Aikai, Paniai Tim., Kabupaten Paniai";"PAPUA";"98726";"Indonesia";"";"";"";"-3.9362433";"136.3719737";"https://maps.google.com/?cid=0x0:0xc2ab422973535c2e";""
"komplek housing";"Komplek perumahan";"Wouyebutu Konteiner madi";"399J+6G7, Awabutu, Paniai Tim., Kabupaten Paniai, Papua";"Kabupaten Paniai, Papua";"PAPUA";"";"Indonesia";"";"";"";"-3.9319578";"136.3812971";"https://maps.google.com/?cid=0x0:0x6665461bcbf16630";""
"komplek housing";"Rumah wisata";"KOS KOS AN BANIO";"39CH+VWJ, Jalan poros bandara enarotali, Awabutu, Paniai Tim., Kabupaten Paniai, Papua";"Kabupaten Paniai, Papua";"PAPUA";"";"Indonesia";"";"";"";"-3.9277983";"136.3797525";"https://maps.google.com/?cid=0x0:0x9e0d8e6ad2d1cf4";""
"komplek housing";"Pembangunan Perumahan";"Thania Lorto";"3C5G+697, Madi, Paniai Tim., Kabupaten Paniai, Papua";"Kabupaten Paniai, Papua";"PAPUA";"";"Indonesia";"";"";"";"-3.941961";"136.4259214";"https://maps.google.com/?cid=0x0:0x6f7d33b465aadcb0";""
"komplek housing";"Komplek perumahan";"Rumah Byak";"39F7+CW5, Enarotali, Paniai Tim., Kabupaten Paniai, Papua";"Kabupaten Paniai, Papua";"PAPUA";"";"Indonesia";"";"";"";"-3.9264917";"136.3648679";"https://maps.google.com/?cid=0x0:0xc7c847ad77af495";""
"komplek housing";"Komplek perumahan";"Gideon Kambar (Kampung Baru)";"3C5F+WPR, Madi, Paniai Tim., Kabupaten Paniai, Papua";"Kabupaten Paniai, Papua";"PAPUA";"";"Indonesia";"";"";"";"-3.9401444";"136.424263";"https://maps.google.com/?cid=0x0:0xb43a3e776decddc6";""
"komplek housing";"Pembangunan Perumahan";"Iyaitaka";"399G+FGJ, Enarotali, Paniai Tim., Kabupaten Paniai, Papua 98726";"Enarotali, Paniai Tim., Kabupaten Paniai";"PAPUA";"98726";"Indonesia";"";"";"";"-3.9312083";"136.376274";"https://maps.google.com/?cid=0x0:0x7cd7a128d0ac06d4";""
"komplek housing";"Komplek perumahan";"KOPOPO";"3C5Q+25, Kopo, Paniai Tim., Kabupaten Paniai, Papua";"Kabupaten Paniai, Papua";"PAPUA";"";"Indonesia";"";"";"";"-3.9424617";"136.4379779";"https://maps.google.com/?cid=0x0:0xe5e362b0ed3bc918";""
"komplek housing";"komplek housing";"Paniai Tim.";"Kabupaten Paniai, Papua";"Kabupaten Paniai, Papua";"PAPUA";"";"Indonesia";"";"";"";"-3.9293592";"136.3780656";"https://maps.google.com/?cid=0x0:0x7f04dacf9b212bec";""
"komplek housing";"komplek housing";"Papua 98713";"Kabupaten Paniai, Papua";"Kabupaten Paniai, Papua";"PAPUA";"";"Indonesia";"";"";"";"-3.8981462";"136.5451516";"https://maps.google.com/?cid=0x0:0xca9b38a4a50ba077";""
"komplek housing";"komplek housing";"Paniai Tim.";"Kabupaten Paniai, Papua";"Kabupaten Paniai, Papua";"PAPUA";"";"Indonesia";"";"";"";"-3.9293592";"136.3780656";"https://maps.google.com/?cid=0x0:0x7f04dacf9b212bec";""
"komplek housing";"komplek housing";"Papua 98714";"Obaipugaida, Distrik Ekadide, Kabupaten Paniai, Papua";"Kabupaten Paniai, Papua";"PAPUA";"";"Indonesia";"";"";"";"-3.8800043";"136.5596027";"https://maps.google.com/?cid=0x0:0x1ed2f623a7ddc102";""
"komplek housing";"komplek housing";"Paniai Tim.";"Kabupaten Paniai, Papua";"Kabupaten Paniai, Papua";"PAPUA";"";"Indonesia";"";"";"";"-3.9293592";"136.3780656";"https://maps.google.com/?cid=0x0:0x7f04dacf9b212bec";""
"komplek housing";"komplek housing";"Papua 98715";"Kabupaten Paniai, Papua";"Kabupaten Paniai, Papua";"PAPUA";"";"Indonesia";"";"";"";"-3.8146561";"136.4296942";"https://maps.google.com/?cid=0x0:0x49e2a3ef18e7312b";""
"komplek housing";"Perhimpunan Pengembang Perumahan";"IYAIPUGI";"39CG+XP7 Tim, 98726CG+RH5, Enarotali, Paniai Tim., Kabupaten Paniai, Papua 98726";"98726CG+RH5, Enarotali, Paniai Tim., Kabupaten Paniai";"PAPUA";"98726";"Indonesia";"";"";"";"-3.9275914";"136.3768071";"https://maps.google.com/?cid=0x0:0x85b0a5173db76ad0";""
"komplek housing";"Komplek perumahan";"Ekadise";"39CP+P2, Awabutu, Paniai Tim., Kabupaten Paniai, Papua 98726";"Awabutu, Paniai Tim., Kabupaten Paniai";"PAPUA";"98726";"Indonesia";"";"";"";"-3.9280533";"136.3844767";"https://maps.google.com/?cid=0x0:0xc5138a6962b0210b";""
"komplek housing";"Gedung Apartemen";"MFT House";"39F7+CW5, Enarotali, Paniai Tim., Kabupaten Paniai, Papua";"Kabupaten Paniai, Papua";"PAPUA";"";"Indonesia";"";"";"";"-3.9264917";"136.3648679";"https://maps.google.com/?cid=0x0:0x860a52a4617f2bc4";""
"komplek housing";"Komplek perumahan";"Enarotali";"39F7+CW5, Jalan poros, Enarotali, Paniai Tim., Kabupaten Paniai, Papua";"Kabupaten Paniai, Papua";"PAPUA";"";"Indonesia";"";"";"";"-3.9264917";"136.3648679";"https://maps.google.com/?cid=0x0:0xf563d37031a66f69";""
"komplek housing";"Komplek perumahan";"Perumahan Kontainer";"Madi, Paniai Tim., Kabupaten Paniai, Papua 98781";"Paniai Tim., Kabupaten Paniai";"PAPUA";"98781";"Indonesia";"";"";"";"-3.947805";"136.4304397";"https://maps.google.com/?cid=0x0:0xe6048b774b0c1534";""
"komplek housing";"Komplek perumahan";"Paniai";"39CH+764, Enarotali, Paniai Tim., Kabupaten Paniai, Papua";"Kabupaten Paniai, Papua";"PAPUA";"";"Indonesia";"";"";"";"-3.9293592";"136.3780656";"https://maps.google.com/?cid=0x0:0x3b691d0ca7d49cd2";""
"komplek housing";"Komplek perumahan";"Ugapugaida";"3C5G+56X, Madi, Paniai Tim., Kabupaten Paniai, Papua 98781";"Madi, Paniai Tim., Kabupaten Paniai";"PAPUA";"98781";"Indonesia";"";"";"";"-3.9422815";"136.4258585";"https://maps.google.com/?cid=0x0:0x8da3b6e3e69ce72a";""
"komplek housing";"Komplek perumahan";"PUPUDA WEGOMANA PANIAI";"3C8Q+JGC, Kopo, Paniai Tim., Kabupaten Paniai, Papua";"Kabupaten Paniai, Papua";"PAPUA";"";"Indonesia";"";"";"";"-3.9334319";"136.438752";"https://maps.google.com/?cid=0x0:0x85fd6c0a88361497";""
"komplek housing";"Rumah wisata";"KOS KOS AN BANIO";"39CH+VWJ, Jalan poros bandara enarotali, Awabutu, Paniai Tim., Kabupaten Paniai, Papua";"Kabupaten Paniai, Papua";"PAPUA";"";"Indonesia";"";"";"";"-3.9277983";"136.3797525";"https://maps.google.com/?cid=0x0:0x9e0d8e6ad2d1cf4";""
"komplek housing";"Komplek perumahan";"Wouyebutu Konteiner madi";"399J+6G7, Awabutu, Paniai Tim., Kabupaten Paniai, Papua";"Kabupaten Paniai, Papua";"PAPUA";"";"Indonesia";"";"";"";"-3.9319578";"136.3812971";"https://maps.google.com/?cid=0x0:0x6665461bcbf16630";""
"komplek housing";"Komplek perumahan";"Rumah Byak";"39F7+CW5, Enarotali, Paniai Tim., Kabupaten Paniai, Papua";"Kabupaten Paniai, Papua";"PAPUA";"";"Indonesia";"";"";"";"-3.9264917";"136.3648679";"https://maps.google.com/?cid=0x0:0xc7c847ad77af495";""
"komplek housing";"Komplek perumahan";"Rumah Biak";"399G+PGW, Enarotali, Paniai Tim., Kabupaten Paniai, Papua 98726";"Enarotali, Paniai Tim., Kabupaten Paniai";"PAPUA";"98726";"Indonesia";"";"";"";"-3.929882";"136.3765556";"https://maps.google.com/?cid=0x0:0x303df156d9c78752";""
"komplek housing";"Komplek perumahan";"Kopabaida";"5C6W+F5, Agapo / Widimeida, Distrik Ekadide, Kabupaten Paniai, Papua";"Kabupaten Paniai, Papua";"PAPUA";"";"Indonesia";"";"";"";"-3.83878";"136.4455767";"https://maps.google.com/?cid=0x0:0x61240e0ed52f213";""
"komplek housing";"Komplek perumahan";"My Home Sweet home";"397C+QH, Aikai, Paniai Tim., Kabupaten Paniai, Papua 98726";"Aikai, Paniai Tim., Kabupaten Paniai";"PAPUA";"98726";"Indonesia";"";"";"";"-3.9362433";"136.3719737";"https://maps.google.com/?cid=0x0:0xc2ab422973535c2e";""
"komplek housing";"Komplek perumahan";"𝗡𝗔𝗚𝗜𝗠𝗔𝗡𝗜𝗜𝗗𝗔,𝗔𝗚𝗔𝗣𝗢";"4FM6+H5H, Obaipugaida, Distrik Ekadide, Kabupaten Paniai, Papua";"Kabupaten Paniai, Papua";"PAPUA";"";"Indonesia";"";"";"";"-3.866059";"136.4604926";"https://maps.google.com/?cid=0x0:0xf0e0110d9d8dc9fc";""
"komplek housing";"Kantor Perusahaan";"Perumahan dinas kesehatan";"3C5G+56X, Madi, Paniai Tim., Kabupaten Paniai, Papua 98781";"Madi, Paniai Tim., Kabupaten Paniai";"PAPUA";"98781";"Indonesia";"";"";"";"-3.9422837";"136.4258572";"https://maps.google.com/?cid=0x0:0x7783894397d78cb5";""
"komplek housing";"Komplek perumahan";"Gideon Kambar (Kampung Baru)";"3C5F+WPR, Madi, Paniai Tim., Kabupaten Paniai, Papua";"Kabupaten Paniai, Papua";"PAPUA";"";"Indonesia";"";"";"";"-3.9401444";"136.424263";"https://maps.google.com/?cid=0x0:0xb43a3e776decddc6";""
"komplek housing";"Pembangunan Perumahan";"Iyaitaka";"399G+FGJ, Enarotali, Paniai Tim., Kabupaten Paniai, Papua 98726";"Enarotali, Paniai Tim., Kabupaten Paniai";"PAPUA";"98726";"Indonesia";"";"";"";"-3.9312083";"136.376274";"https://maps.google.com/?cid=0x0:0x7cd7a128d0ac06d4";""
"komplek housing";"Komplek perumahan";"Enaro";"39F7+CW5, Enarotali, Paniai Tim., Kabupaten Paniai, Papua";"Kabupaten Paniai, Papua";"PAPUA";"";"Indonesia";" 085257187318";"";"";"-3.9264917";"136.3648679";"https://maps.google.com/?cid=0x0:0xad44df3aa5233476";""
"komplek housing";"komplek housing";"Papua 98716";"Distrik Ekadide, Kabupaten Paniai, Papua";"Kabupaten Paniai, Papua";"PAPUA";"";"Indonesia";"";"";"";"-3.8487333";"136.4873892";"https://maps.google.com/?cid=0x0:0x83969942f885abae";""
"komplek housing";"Komplek perumahan";"Kopabaida";"5C6W+F5, Agapo / Widimeida, Distrik Ekadide, Kabupaten Paniai, Papua";"Kabupaten Paniai, Papua";"PAPUA";"";"Indonesia";"";"";"";"-3.83878";"136.4455767";"https://maps.google.com/?cid=0x0:0x61240e0ed52f213";""
"komplek housing";"Komplek perumahan";"𝗡𝗔𝗚𝗜𝗠𝗔𝗡𝗜𝗜𝗗𝗔,𝗔𝗚𝗔𝗣𝗢";"4FM6+H5H, Obaipugaida, Distrik Ekadide, Kabupaten Paniai, Papua";"Kabupaten Paniai, Papua";"PAPUA";"";"Indonesia";"";"";"";"-3.866059";"136.4604926";"https://maps.google.com/?cid=0x0:0xf0e0110d9d8dc9fc";""
"komplek housing";"Pembangunan Perumahan";"RUMAH OSEA SATU BOMA";"597M+6V, Awebutu, Kebo, Kabupaten Paniai, Papua";"Kabupaten Paniai, Papua";"PAPUA";"";"Indonesia";"";"";"";"-3.8369759";"136.3847307";"https://maps.google.com/?cid=0x0:0x7689ac07f99e3f7c";""
"komplek housing";"Pembangunan Perumahan";"SAMUEL Y. BOMOPA";"79JG+WW, Bogobaida / Bogodide, Bogobaida, Kabupaten Paniai, Papua";"Kabupaten Paniai, Papua";"PAPUA";"";"Indonesia";"";"";"";"-3.7176709";"136.3772257";"https://maps.google.com/?cid=0x0:0x27e722586bbbeefa";""
"komplek housing";"komplek housing";"Paniai Tim.";"Kabupaten Paniai, Papua";"Kabupaten Paniai, Papua";"PAPUA";"";"Indonesia";"";"";"";"-3.9293592";"136.3780656";"https://maps.google.com/?cid=0x0:0x7f04dacf9b212bec";""
"komplek housing";"komplek housing";"Papua 98722";"Paniai Tim., Kabupaten Paniai, Papua";"Kabupaten Paniai, Papua";"PAPUA";"";"Indonesia";"";"";"";"-3.9261758";"136.5066359";"https://maps.google.com/?cid=0x0:0xc8074bbd911fd05a";""
"komplek housing";"Kompleks Bangunan Perusahaan";"Kompleks nusantara sehat madi";"2CXJ+CP, Umbutu / Uyubutu / Uwibutu, Paniai Tim., Kabupaten Paniai, Papua 98781";"Umbutu / Uyubutu / Uwibutu, Paniai Tim., Kabupaten Paniai";"PAPUA";"98781";"Indonesia";"";"";"";"-3.9514133";"136.4320732";"https://maps.google.com/?cid=0x0:0xa1926f6e29e86a0c";""
"komplek housing";"Komplek perumahan";"Perumahan Kontainer";"Madi, Paniai Tim., Kabupaten Paniai, Papua 98781";"Paniai Tim., Kabupaten Paniai";"PAPUA";"98781";"Indonesia";"";"";"";"-3.947805";"136.4304397";"https://maps.google.com/?cid=0x0:0xe6048b774b0c1534";""
"komplek housing";"Komplek perumahan";"PUPUDA WEGOMANA PANIAI";"3C8Q+JGC, Kopo, Paniai Tim., Kabupaten Paniai, Papua";"Kabupaten Paniai, Papua";"PAPUA";"";"Indonesia";"";"";"";"-3.9334319";"136.438752";"https://maps.google.com/?cid=0x0:0x85fd6c0a88361497";""
"komplek housing";"Perhimpunan Pengembang Perumahan";"IYAIPUGI";"39CG+XP7 Tim, 98726CG+RH5, Enarotali, Paniai Tim., Kabupaten Paniai, Papua 98726";"98726CG+RH5, Enarotali, Paniai Tim., Kabupaten Paniai";"PAPUA";"98726";"Indonesia";"";"";"";"-3.9275914";"136.3768071";"https://maps.google.com/?cid=0x0:0x85b0a5173db76ad0";""
"komplek housing";"Kantor Perusahaan";"Perumahan dinas kesehatan";"3C5G+56X, Madi, Paniai Tim., Kabupaten Paniai, Papua 98781";"Madi, Paniai Tim., Kabupaten Paniai";"PAPUA";"98781";"Indonesia";"";"";"";"-3.9422837";"136.4258572";"https://maps.google.com/?cid=0x0:0x7783894397d78cb5";""
"komplek housing";"Komplek perumahan";"Ugapugaida";"3C5G+56X, Madi, Paniai Tim., Kabupaten Paniai, Papua 98781";"Madi, Paniai Tim., Kabupaten Paniai";"PAPUA";"98781";"Indonesia";"";"";"";"-3.9422815";"136.4258585";"https://maps.google.com/?cid=0x0:0x8da3b6e3e69ce72a";""
"komplek housing";"Komplek perumahan";"Paniai";"39CH+764, Enarotali, Paniai Tim., Kabupaten Paniai, Papua";"Kabupaten Paniai, Papua";"PAPUA";"";"Indonesia";"";"";"";"-3.9293592";"136.3780656";"https://maps.google.com/?cid=0x0:0x3b691d0ca7d49cd2";""
"komplek housing";"Gedung Apartemen";"MFT House";"39F7+CW5, Enarotali, Paniai Tim., Kabupaten Paniai, Papua";"Kabupaten Paniai, Papua";"PAPUA";"";"Indonesia";"";"";"";"-3.9264917";"136.3648679";"https://maps.google.com/?cid=0x0:0x860a52a4617f2bc4";""
"komplek housing";"Komplek perumahan";"Rumah Biak";"399G+PGW, Enarotali, Paniai Tim., Kabupaten Paniai, Papua 98726";"Enarotali, Paniai Tim., Kabupaten Paniai";"PAPUA";"98726";"Indonesia";"";"";"";"-3.929882";"136.3765556";"https://maps.google.com/?cid=0x0:0x303df156d9c78752";""
"komplek housing";"Komplek perumahan";"Enarotali";"39F7+CW5, Jalan poros, Enarotali, Paniai Tim., Kabupaten Paniai, Papua";"Kabupaten Paniai, Papua";"PAPUA";"";"Indonesia";"";"";"";"-3.9264917";"136.3648679";"https://maps.google.com/?cid=0x0:0xf563d37031a66f69";""
"komplek housing";"Komplek perumahan";"My Home Sweet home";"397C+QH, Aikai, Paniai Tim., Kabupaten Paniai, Papua 98726";"Aikai, Paniai Tim., Kabupaten Paniai";"PAPUA";"98726";"Indonesia";"";"";"";"-3.9362433";"136.3719737";"https://maps.google.com/?cid=0x0:0xc2ab422973535c2e";""
"komplek housing";"Komplek perumahan";"Wouyebutu Konteiner madi";"399J+6G7, Awabutu, Paniai Tim., Kabupaten Paniai, Papua";"Kabupaten Paniai, Papua";"PAPUA";"";"Indonesia";"";"";"";"-3.9319578";"136.3812971";"https://maps.google.com/?cid=0x0:0x6665461bcbf16630";""
"komplek housing";"komplek housing";"Paniai Tim.";"Kabupaten Paniai, Papua";"Kabupaten Paniai, Papua";"PAPUA";"";"Indonesia";"";"";"";"-3.9293592";"136.3780656";"https://maps.google.com/?cid=0x0:0x7f04dacf9b212bec";""
"komplek housing";"komplek housing";"Papua 98724";"Papua";"Papua";"PAPUA";"";"Indonesia";"";"";"";"-3.2380612";"136.7865516";"https://maps.google.com/?cid=0x0:0x5a3fecd18c5a180c";""
"komplek housing";"komplek housing";"Paniai Tim.";"Kabupaten Paniai, Papua";"Kabupaten Paniai, Papua";"PAPUA";"";"Indonesia";"";"";"";"-3.9293592";"136.3780656";"https://maps.google.com/?cid=0x0:0x7f04dacf9b212bec";""
"komplek housing";"Komplek perumahan";"Kopabaida";"5C6W+F5, Agapo / Widimeida, Distrik Ekadide, Kabupaten Paniai, Papua";"Kabupaten Paniai, Papua";"PAPUA";"";"Indonesia";"";"";"";"-3.83878";"136.4455767";"https://maps.google.com/?cid=0x0:0x61240e0ed52f213";""
"komplek housing";"Komplek perumahan";"𝗡𝗔𝗚𝗜𝗠𝗔𝗡𝗜𝗜𝗗𝗔,𝗔𝗚𝗔𝗣𝗢";"4FM6+H5H, Obaipugaida, Distrik Ekadide, Kabupaten Paniai, Papua";"Kabupaten Paniai, Papua";"PAPUA";"";"Indonesia";"";"";"";"-3.866059";"136.4604926";"https://maps.google.com/?cid=0x0:0xf0e0110d9d8dc9fc";""
"komplek housing";"komplek housing";"Kec. Aradide";"Kabupaten Paniai, Papua";"Kabupaten Paniai, Papua";"PAPUA";"";"Indonesia";"";"";"";"-3.8150328";"136.4790748";"https://maps.google.com/?cid=0x0:0xf7b522f91db639de";""
"komplek housing";"Pembangunan Perumahan";"Bogobaida";"97J7+GG, Uwagi, Bogobaida, Kabupaten Paniai, Papua 98854";"Uwagi, Bogobaida, Kabupaten Paniai";"PAPUA";"98854";"Indonesia";"";"";"";"-3.6186298";"136.263872";"https://maps.google.com/?cid=0x0:0x9327a9b529431789";""
"komplek housing";"Pembangunan Perumahan";"SAMUEL Y. BOMOPA";"79JG+WW, Bogobaida / Bogodide, Bogobaida, Kabupaten Paniai, Papua";"Kabupaten Paniai, Papua";"PAPUA";"";"Indonesia";"";"";"";"-3.7176709";"136.3772257";"https://maps.google.com/?cid=0x0:0x27e722586bbbeefa";""
"komplek housing";"komplek housing";"Papua 98769";"Papua";"Papua";"PAPUA";"";"Indonesia";"";"";"";"-3.4531316";"136.3240951";"https://maps.google.com/?cid=0x0:0xd28ed8bf27ec9c6b";""
"komplek housing";"Sekolah";"Bibida Kampung Migani";"2QX8+JVF, Bibida, Distrik Bibida, Kabupaten Paniai, Papua 98782";"Bibida, Distrik Bibida, Kabupaten Paniai";"PAPUA";"98782";"Indonesia";"";"";"";"-3.9509334";"136.7671717";"https://maps.google.com/?cid=0x0:0x36b9245ace6814e5";""
"komplek housing";"Kantor Pemerintah";"distrik bibida";"2FXH+46R, Unnamed Road, Timida, Paniai Tim., Kabupaten Paniai, Papua 98781";"Unnamed Road, Timida, Paniai Tim., Kabupaten Paniai";"PAPUA";"98781";"Indonesia";"";"";"";"-3.9521289";"136.4780288";"https://maps.google.com/?cid=0x0:0x78a0627a8a5a3617";""
"komplek housing";"komplek housing";"Distrik Bibida";"Kabupaten Paniai, Papua";"Kabupaten Paniai, Papua";"PAPUA";"";"Indonesia";"";"";"";"-3.9506844";"136.7671967";"https://maps.google.com/?cid=0x0:0x68f0cd48ece1ec83";""
"komplek housing";"komplek housing";"Papua 98782";"Kabupaten Paniai, Papua";"Kabupaten Paniai, Papua";"PAPUA";"";"Indonesia";"";"";"";"-4.0286691";"136.7865516";"https://maps.google.com/?cid=0x0:0x974bc6d0bf8e4cbf";""
"komplek housing";"Komplek perumahan";"Tege";"3WRP+M49, Dogomo, Dumadama, Kabupaten Paniai, Papua 98767";"Dogomo, Dumadama, Kabupaten Paniai";"PAPUA";"98767";"Indonesia";"";"";"";"-3.908327";"136.9353446";"https://maps.google.com/?cid=0x0:0xfd8d9b17b9ab02a";""
"komplek housing";"Komplek perumahan";"Desa Jagamin";"VXPJ+94, Duma, Dumadama, Kabupaten Paniai, Papua";"Kabupaten Paniai, Papua";"PAPUA";"";"Indonesia";"";"";"";"-4.1140222";"136.9802167";"https://maps.google.com/?cid=0x0:0xd2ad456b55311bd4";""
"komplek housing";"Komplek perumahan";"Street Housing Complex - ST11A 203";"V34Q+8XX, Tembagapura, Kec. Tembagapura, Kabupaten Mimika, Papua 99967";"Tembagapura, Kec. Tembagapura, Kabupaten Mimika";"PAPUA";"99967";"Indonesia";"";"";"";"-4.1441473";"137.0899709";"https://maps.google.com/?cid=0x0:0x9f8cfb7c723da1e4";""
"komplek housing";"Komplek perumahan";"Tree Haven Housing Complex";"V35Q+JH8, Tembagapura, Kec. Tembagapura, Kabupaten Mimika, Papua 98972";"Tembagapura, Kec. Tembagapura, Kabupaten Mimika";"PAPUA";"98972";"Indonesia";"";"";"";"-4.1409705";"137.0889433";"https://maps.google.com/?cid=0x0:0x3b53b123b41db059";""
"komplek housing";"Komplek perumahan";"Gang Degama";"FV5X+R4C, Jl. Kebun Sirih, Kwamki, Kec. Mimika Baru, Kabupaten Mimika, Papua 99971";"Jl. Kebun Sirih, Kwamki, Kec. Mimika Baru, Kabupaten Mimika";"PAPUA";"99971";"Indonesia";"";"";"";"-4.5404256";"136.8977725";"https://maps.google.com/?cid=0x0:0x510e83c470f3e8eb";""
"komplek housing";"Guest house";"Guest house 479";"V34Q+C8Q, Arwandop, Tembagapura, Mimika Regency, Papua";"Kabupaten Mimika, Papua";"PAPUA";"";"Indonesia";"";"";"";"-4.1440763";"137.0887154";"https://maps.google.com/?cid=0x0:0x151dcf5d69c42c12";""
"komplek housing";"Sekolah";"Bibida Kampung Migani";"2QX8+JVF, Bibida, Distrik Bibida, Kabupaten Paniai, Papua 98782";"Bibida, Distrik Bibida, Kabupaten Paniai";"PAPUA";"98782";"Indonesia";"";"";"";"-3.9509334";"136.7671717";"https://maps.google.com/?cid=0x0:0x36b9245ace6814e5";""
"komplek housing";"Kantor Pemerintah";"distrik bibida";"2FXH+46R, Unnamed Road, Timida, Paniai Tim., Kabupaten Paniai, Papua 98781";"Unnamed Road, Timida, Paniai Tim., Kabupaten Paniai";"PAPUA";"98781";"Indonesia";"";"";"";"-3.9521289";"136.4780288";"https://maps.google.com/?cid=0x0:0x78a0627a8a5a3617";""
"komplek housing";"komplek housing";"Dumadama";"Kabupaten Paniai, Papua";"Kabupaten Paniai, Papua";"PAPUA";"";"Indonesia";"";"";"";"-4.0055476";"136.9028375";"https://maps.google.com/?cid=0x0:0xe4288916e8a692ed";""
"komplek housing";"komplek housing";"Papua 98763";"Kabupaten Paniai, Papua";"Kabupaten Paniai, Papua";"PAPUA";"";"Indonesia";"";"";"";"-3.7991853";"136.3049196";"https://maps.google.com/?cid=0x0:0x8e322f542c113cfe";""
"komplek housing";"Pembangunan Perumahan";"RUMAH OSEA SATU BOMA";"597M+6V, Awebutu, Kebo, Kabupaten Paniai, Papua";"Kabupaten Paniai, Papua";"PAPUA";"";"Indonesia";"";"";"";"-3.8369759";"136.3847307";"https://maps.google.com/?cid=0x0:0x7689ac07f99e3f7c";""
"komplek housing";"Komplek perumahan";"Wouyebutu Konteiner madi";"399J+6G7, Awabutu, Paniai Tim., Kabupaten Paniai, Papua";"Kabupaten Paniai, Papua";"PAPUA";"";"Indonesia";"";"";"";"-3.9319578";"136.3812971";"https://maps.google.com/?cid=0x0:0x6665461bcbf16630";""
"komplek housing";"Komplek perumahan";"Perumahan Kontainer";"Madi, Paniai Tim., Kabupaten Paniai, Papua 98781";"Paniai Tim., Kabupaten Paniai";"PAPUA";"98781";"Indonesia";"";"";"";"-3.947805";"136.4304397";"https://maps.google.com/?cid=0x0:0xe6048b774b0c1534";""
"komplek housing";"Perhimpunan Pengembang Perumahan";"IYAIPUGI";"39CG+XP7 Tim, 98726CG+RH5, Enarotali, Paniai Tim., Kabupaten Paniai, Papua 98726";"98726CG+RH5, Enarotali, Paniai Tim., Kabupaten Paniai";"PAPUA";"98726";"Indonesia";"";"";"";"-3.9275914";"136.3768071";"https://maps.google.com/?cid=0x0:0x85b0a5173db76ad0";""
"komplek housing";"Komplek perumahan";"Ekadise";"39CP+P2, Awabutu, Paniai Tim., Kabupaten Paniai, Papua 98726";"Awabutu, Paniai Tim., Kabupaten Paniai";"PAPUA";"98726";"Indonesia";"";"";"";"-3.9280533";"136.3844767";"https://maps.google.com/?cid=0x0:0xc5138a6962b0210b";""
"komplek housing";"Gedung Apartemen";"MFT House";"39F7+CW5, Enarotali, Paniai Tim., Kabupaten Paniai, Papua";"Kabupaten Paniai, Papua";"PAPUA";"";"Indonesia";"";"";"";"-3.9264917";"136.3648679";"https://maps.google.com/?cid=0x0:0x860a52a4617f2bc4";""
"komplek housing";"Kompleks Bangunan Perusahaan";"Kompleks nusantara sehat madi";"2CXJ+CP, Umbutu / Uyubutu / Uwibutu, Paniai Tim., Kabupaten Paniai, Papua 98781";"Umbutu / Uyubutu / Uwibutu, Paniai Tim., Kabupaten Paniai";"PAPUA";"98781";"Indonesia";"";"";"";"-3.9514133";"136.4320732";"https://maps.google.com/?cid=0x0:0xa1926f6e29e86a0c";""
"komplek housing";"Komplek perumahan";"Enarotali";"39F7+CW5, Jalan poros, Enarotali, Paniai Tim., Kabupaten Paniai, Papua";"Kabupaten Paniai, Papua";"PAPUA";"";"Indonesia";"";"";"";"-3.9264917";"136.3648679";"https://maps.google.com/?cid=0x0:0xf563d37031a66f69";""
"komplek housing";"Komplek perumahan";"My Home Sweet home";"397C+QH, Aikai, Paniai Tim., Kabupaten Paniai, Papua 98726";"Aikai, Paniai Tim., Kabupaten Paniai";"PAPUA";"98726";"Indonesia";"";"";"";"-3.9362433";"136.3719737";"https://maps.google.com/?cid=0x0:0xc2ab422973535c2e";""
"komplek housing";"Komplek perumahan";"Rumah Byak";"39F7+CW5, Enarotali, Paniai Tim., Kabupaten Paniai, Papua";"Kabupaten Paniai, Papua";"PAPUA";"";"Indonesia";"";"";"";"-3.9264917";"136.3648679";"https://maps.google.com/?cid=0x0:0xc7c847ad77af495";""
"komplek housing";"Komplek perumahan";"Rumah Biak";"399G+PGW, Enarotali, Paniai Tim., Kabupaten Paniai, Papua 98726";"Enarotali, Paniai Tim., Kabupaten Paniai";"PAPUA";"98726";"Indonesia";"";"";"";"-3.929882";"136.3765556";"https://maps.google.com/?cid=0x0:0x303df156d9c78752";""
"komplek housing";"Komplek perumahan";"Paniai";"39CH+764, Enarotali, Paniai Tim., Kabupaten Paniai, Papua";"Kabupaten Paniai, Papua";"PAPUA";"";"Indonesia";"";"";"";"-3.9293592";"136.3780656";"https://maps.google.com/?cid=0x0:0x3b691d0ca7d49cd2";""
"komplek housing";"Komplek perumahan";"Enaro";"39F7+CW5, Enarotali, Paniai Tim., Kabupaten Paniai, Papua";"Kabupaten Paniai, Papua";"PAPUA";"";"Indonesia";" 085257187318";"";"";"-3.9264917";"136.3648679";"https://maps.google.com/?cid=0x0:0xad44df3aa5233476";""
"komplek housing";"Rumah wisata";"KOS KOS AN BANIO";"39CH+VWJ, Jalan poros bandara enarotali, Awabutu, Paniai Tim., Kabupaten Paniai, Papua";"Kabupaten Paniai, Papua";"PAPUA";"";"Indonesia";"";"";"";"-3.9277983";"136.3797525";"https://maps.google.com/?cid=0x0:0x9e0d8e6ad2d1cf4";""
"komplek housing";"Komplek perumahan";"APO KOPO";"3C4M+RF3, Kopo, Paniai Tim., Kabupaten Paniai, Papua";"Kabupaten Paniai, Papua";"PAPUA";"";"Indonesia";"";"";"";"-3.9429831";"136.4336622";"https://maps.google.com/?cid=0x0:0x6d564546ec6827e2";""
"komplek housing";"";"dr. Agus House";"2CXJ+Q7V, Jl. Raya Madi, Umbutu / Uyubutu / Uwibutu, Paniai Tim., Kabupaten Paniai, Papua 98781";"Jl. Raya Madi, Umbutu / Uyubutu / Uwibutu, Paniai Tim., Kabupaten Paniai";"PAPUA";"98781";"Indonesia";"";"";"";"-3.9505039";"136.4306615";"https://maps.google.com/?cid=0x0:0xccdd54672ffec2c4";""
"komplek housing";"Komplek perumahan";"Kopabaida";"5C6W+F5, Agapo / Widimeida, Distrik Ekadide, Kabupaten Paniai, Papua";"Kabupaten Paniai, Papua";"PAPUA";"";"Indonesia";"";"";"";"-3.83878";"136.4455767";"https://maps.google.com/?cid=0x0:0x61240e0ed52f213";""
"komplek housing";"Komplek perumahan";"Gideon Kambar (Kampung Baru)";"3C5F+WPR, Madi, Paniai Tim., Kabupaten Paniai, Papua";"Kabupaten Paniai, Papua";"PAPUA";"";"Indonesia";"";"";"";"-3.9401444";"136.424263";"https://maps.google.com/?cid=0x0:0xb43a3e776decddc6";""
"komplek housing";"Pembangunan Perumahan";"Iyaitaka";"399G+FGJ, Enarotali, Paniai Tim., Kabupaten Paniai, Papua 98726";"Enarotali, Paniai Tim., Kabupaten Paniai";"PAPUA";"98726";"Indonesia";"";"";"";"-3.9312083";"136.376274";"https://maps.google.com/?cid=0x0:0x7cd7a128d0ac06d4";""
"komplek housing";"komplek housing";"Siriwo";"Kabupaten Nabire, Papua";"Kabupaten Nabire, Papua";"PAPUA";"";"Indonesia";"";"";"";"-3.3800854";"136.0944845";"https://maps.google.com/?cid=0x0:0x6470f4464b253b1b";""
"komplek housing";"komplek housing";"Papua 98854";"Papua";"Papua";"PAPUA";"";"Indonesia";"";"";"";"-3.4998572";"136.0944845";"https://maps.google.com/?cid=0x0:0x17ab1bd64156ee45";""
"komplek housing";"komplek housing";"Siriwo";"Kabupaten Nabire, Papua";"Kabupaten Nabire, Papua";"PAPUA";"";"Indonesia";"";"";"";"-3.3800854";"136.0944845";"https://maps.google.com/?cid=0x0:0x6470f4464b253b1b";""
"komplek housing";"Komplek perumahan";"Perumahan seruni hills";"Seruni hills 3, Jatiranggon, Kec. Jatisampurna, Kota Bks, Jawa Barat 17432";"Jatiranggon, Kec. Jatisampurna, Kota Bks";"PAPUA";"17432";"Indonesia";" 02184310764";"";"";"-6.3404943";"106.9220168";"https://maps.google.com/?cid=0x0:0xab268aa8942fc95";""
"komplek housing";"Produsen makanan";"Dimsum Addict 156";"Jl. Swadaya 3, RT.004/RW.008, Jatiranggon, Kec. Jatisampurna, Kota Bks, Jawa Barat 17432";"RT.004/RW.008, Jatiranggon, Kec. Jatisampurna, Kota Bks";"PAPUA";"17432";"Indonesia";" 081906750422";"";"";"-6.3404373";"106.9222327";"https://maps.google.com/?cid=0x0:0xb8cc070e3af3ec3b";""
"komplek housing";"komplek housing";"Papua 98715";"Kabupaten Paniai, Papua";"Kabupaten Paniai, Papua";"PAPUA";"";"Indonesia";"";"";"";"-3.8146561";"136.4296942";"https://maps.google.com/?cid=0x0:0x49e2a3ef18e7312b";""
"komplek housing";"Kompleks Bangunan Perusahaan";"Kompleks nusantara sehat madi";"2CXJ+CP, Umbutu / Uyubutu / Uwibutu, Paniai Tim., Kabupaten Paniai, Papua 98781";"Umbutu / Uyubutu / Uwibutu, Paniai Tim., Kabupaten Paniai";"PAPUA";"98781";"Indonesia";"";"";"";"-3.9514133";"136.4320732";"https://maps.google.com/?cid=0x0:0xa1926f6e29e86a0c";""
"komplek housing";"Komplek perumahan";"Ekadise";"39CP+P2, Awabutu, Paniai Tim., Kabupaten Paniai, Papua 98726";"Awabutu, Paniai Tim., Kabupaten Paniai";"PAPUA";"98726";"Indonesia";"";"";"";"-3.9280533";"136.3844767";"https://maps.google.com/?cid=0x0:0xc5138a6962b0210b";""
"komplek housing";"Pembangunan Perumahan";"RUMAH OSEA SATU BOMA";"597M+6V, Awebutu, Kebo, Kabupaten Paniai, Papua";"Kabupaten Paniai, Papua";"PAPUA";"";"Indonesia";"";"";"";"-3.8369759";"136.3847307";"https://maps.google.com/?cid=0x0:0x7689ac07f99e3f7c";""
"komplek housing";"Perhimpunan Pengembang Perumahan";"IYAIPUGI";"39CG+XP7 Tim, 98726CG+RH5, Enarotali, Paniai Tim., Kabupaten Paniai, Papua 98726";"98726CG+RH5, Enarotali, Paniai Tim., Kabupaten Paniai";"PAPUA";"98726";"Indonesia";"";"";"";"-3.9275914";"136.3768071";"https://maps.google.com/?cid=0x0:0x85b0a5173db76ad0";""
"komplek housing";"Komplek perumahan";"𝗡𝗔𝗚𝗜𝗠𝗔𝗡𝗜𝗜𝗗𝗔,𝗔𝗚𝗔𝗣𝗢";"4FM6+H5H, Obaipugaida, Distrik Ekadide, Kabupaten Paniai, Papua";"Kabupaten Paniai, Papua";"PAPUA";"";"Indonesia";"";"";"";"-3.866059";"136.4604926";"https://maps.google.com/?cid=0x0:0xf0e0110d9d8dc9fc";""
"komplek housing";"Gedung Apartemen";"MFT House";"39F7+CW5, Enarotali, Paniai Tim., Kabupaten Paniai, Papua";"Kabupaten Paniai, Papua";"PAPUA";"";"Indonesia";"";"";"";"-3.9264917";"136.3648679";"https://maps.google.com/?cid=0x0:0x860a52a4617f2bc4";""
"komplek housing";"Komplek perumahan";"Wouyebutu Konteiner madi";"399J+6G7, Awabutu, Paniai Tim., Kabupaten Paniai, Papua";"Kabupaten Paniai, Papua";"PAPUA";"";"Indonesia";"";"";"";"-3.9319578";"136.3812971";"https://maps.google.com/?cid=0x0:0x6665461bcbf16630";""
"komplek housing";"Komplek perumahan";"Enarotali";"39F7+CW5, Jalan poros, Enarotali, Paniai Tim., Kabupaten Paniai, Papua";"Kabupaten Paniai, Papua";"PAPUA";"";"Indonesia";"";"";"";"-3.9264917";"136.3648679";"https://maps.google.com/?cid=0x0:0xf563d37031a66f69";""
"komplek housing";"Komplek perumahan";"Gideon Kambar (Kampung Baru)";"3C5F+WPR, Madi, Paniai Tim., Kabupaten Paniai, Papua";"Kabupaten Paniai, Papua";"PAPUA";"";"Indonesia";"";"";"";"-3.9401444";"136.424263";"https://maps.google.com/?cid=0x0:0xb43a3e776decddc6";""
"komplek housing";"Komplek perumahan";"Perumahan Kontainer";"Madi, Paniai Tim., Kabupaten Paniai, Papua 98781";"Paniai Tim., Kabupaten Paniai";"PAPUA";"98781";"Indonesia";"";"";"";"-3.947805";"136.4304397";"https://maps.google.com/?cid=0x0:0xe6048b774b0c1534";""
"komplek housing";"Komplek perumahan";"Rumah Biak";"399G+PGW, Enarotali, Paniai Tim., Kabupaten Paniai, Papua 98726";"Enarotali, Paniai Tim., Kabupaten Paniai";"PAPUA";"98726";"Indonesia";"";"";"";"-3.929882";"136.3765556";"https://maps.google.com/?cid=0x0:0x303df156d9c78752";""
"komplek housing";"Komplek perumahan";"Rumah Byak";"39F7+CW5, Enarotali, Paniai Tim., Kabupaten Paniai, Papua";"Kabupaten Paniai, Papua";"PAPUA";"";"Indonesia";"";"";"";"-3.9264917";"136.3648679";"https://maps.google.com/?cid=0x0:0xc7c847ad77af495";""
"komplek housing";"Komplek perumahan";"Ugapugaida";"3C5G+56X, Madi, Paniai Tim., Kabupaten Paniai, Papua 98781";"Madi, Paniai Tim., Kabupaten Paniai";"PAPUA";"98781";"Indonesia";"";"";"";"-3.9422815";"136.4258585";"https://maps.google.com/?cid=0x0:0x8da3b6e3e69ce72a";""
"komplek housing";"Rumah wisata";"KOS KOS AN BANIO";"39CH+VWJ, Jalan poros bandara enarotali, Awabutu, Paniai Tim., Kabupaten Paniai, Papua";"Kabupaten Paniai, Papua";"PAPUA";"";"Indonesia";"";"";"";"-3.9277983";"136.3797525";"https://maps.google.com/?cid=0x0:0x9e0d8e6ad2d1cf4";""
"komplek housing";"Komplek perumahan";"Paniai";"39CH+764, Enarotali, Paniai Tim., Kabupaten Paniai, Papua";"Kabupaten Paniai, Papua";"PAPUA";"";"Indonesia";"";"";"";"-3.9293592";"136.3780656";"https://maps.google.com/?cid=0x0:0x3b691d0ca7d49cd2";""
"komplek housing";"Komplek perumahan";"PUPUDA WEGOMANA PANIAI";"3C8Q+JGC, Kopo, Paniai Tim., Kabupaten Paniai, Papua";"Kabupaten Paniai, Papua";"PAPUA";"";"Indonesia";"";"";"";"-3.9334319";"136.438752";"https://maps.google.com/?cid=0x0:0x85fd6c0a88361497";""
"komplek housing";"Komplek perumahan";"Enaro";"39F7+CW5, Enarotali, Paniai Tim., Kabupaten Paniai, Papua";"Kabupaten Paniai, Papua";"PAPUA";"";"Indonesia";" 085257187318";"";"";"-3.9264917";"136.3648679";"https://maps.google.com/?cid=0x0:0xad44df3aa5233476";""
"komplek housing";"";"dr. Agus House";"2CXJ+Q7V, Jl. Raya Madi, Umbutu / Uyubutu / Uwibutu, Paniai Tim., Kabupaten Paniai, Papua 98781";"Jl. Raya Madi, Umbutu / Uyubutu / Uwibutu, Paniai Tim., Kabupaten Paniai";"PAPUA";"98781";"Indonesia";"";"";"";"-3.9505039";"136.4306615";"https://maps.google.com/?cid=0x0:0xccdd54672ffec2c4";""
"komplek housing";"Komplek perumahan";"My Home Sweet home";"397C+QH, Aikai, Paniai Tim., Kabupaten Paniai, Papua 98726";"Aikai, Paniai Tim., Kabupaten Paniai";"PAPUA";"98726";"Indonesia";"";"";"";"-3.9362433";"136.3719737";"https://maps.google.com/?cid=0x0:0xc2ab422973535c2e";""
"komplek housing";"komplek housing";"Kebo";"Kabupaten Paniai, Papua";"Kabupaten Paniai, Papua";"PAPUA";"";"Indonesia";"";"";"";"-3.8208593";"136.3865587";"https://maps.google.com/?cid=0x0:0x965b313c4d48e7ae";""
"komplek housing";"Hotel";"Green New Residence";"Jl. Green New Residence, Kedung Pengawas, Kec. Babelan, Kabupaten Bekasi, Jawa Barat 17610";"Kedung Pengawas, Kec. Babelan, Kabupaten Bekasi";"PAPUA";"17610";"Indonesia";"";"";"";"-6.1420364";"107.044089";"https://maps.google.com/?cid=0x0:0x60e56150de277511";""
"komplek housing";"Komplek perumahan";"VILLAGE type ASTER";"V23F+XRP, Kedungjaya, Kec. Babelan, Kabupaten Bekasi, Jawa Barat";"Kabupaten Bekasi, Jawa Barat";"PAPUA";"";"Indonesia";"";"";"";"-6.1450252";"107.0245727";"https://maps.google.com/?cid=0x0:0xdcb3c8c7f2a516c7";""
"komplek housing";"Komplek perumahan";"Cluster Delima Residence Sumberjaya";"Jl. Pesona Raya, Sumberjaya, Kec. Tambun Sel., Kabupaten Bekasi, Jawa Barat 17510";"Sumberjaya, Kec. Tambun Sel., Kabupaten Bekasi";"PAPUA";"17510";"Indonesia";" 081288840090";"";"";"-6.2189044";"107.074914";"https://maps.google.com/?cid=0x0:0xe61d39cecc818202";""
"komplek housing";"Perumahan";"Perumahan Pesona Kahuripan 9";"Jalan Desa Jatisari, Jatisari, Kec. Cileungsi, Kabupaten Bogor, Jawa Barat 16820";"Jatisari, Kec. Cileungsi, Kabupaten Bogor";"PAPUA";"16820";"Indonesia";"";"";"";"-6.4104872";"107.0509663";"https://maps.google.com/?cid=0x0:0xd61eff846358dffb";""
"komplek housing";"Agen Properti";"Perumahan Pesona Kahuripan 4";"Pesona Kahuripan 4, Jl. Melati Raya No.03 Blok A7, RT.01/RW.17, Jawa Barat 16820";"Jl. Melati Raya No.03 Blok A7, RT.01/RW.17";"PAPUA";"16820";"Indonesia";"";"";"";"-6.4473054";"107.0095071";"https://maps.google.com/?cid=0x0:0x45c96472a6bac388";""
"komplek housing";"Komplek perumahan";"Perumahan Suropati Residence";"Jl. Suropati Raya No.2, Srimukti, Kec. Tambun Utara, Kabupaten Bekasi, Jawa Barat 17510";"Srimukti, Kec. Tambun Utara, Kabupaten Bekasi";"PAPUA";"17510";"Indonesia";" 02189133555";"";"";"-6.1851781";"107.0600533";"https://maps.google.com/?cid=0x0:0x62cbf9f7bf4e5806";""
"komplek housing";"komplek housing";"Komplek Housing";"Blok Bojong Nangka I, Jl. Ring Rudal Blok Bojong Nangka I No.68, RT.001/RW.007, Jatirahayu, Kec. Pd. Melati, Kota Bks, Jawa Barat 17414";"Jl. Ring Rudal Blok Bojong Nangka I No.68, RT.001/RW.007, Jatirahayu, Kec. Pd. Melati, Kota Bks";"PAPUA";"17414";"Indonesia";"";"";"";"-6.293724";"106.9165114";"https://maps.google.com/?cid=0x0:0x9c50464976dee674";""
"komplek housing";"Komplek perumahan";"Kopabaida";"5C6W+F5, Agapo / Widimeida, Distrik Ekadide, Kabupaten Paniai, Papua";"Kabupaten Paniai, Papua";"PAPUA";"";"Indonesia";"";"";"";"-3.83878";"136.4455767";"https://maps.google.com/?cid=0x0:0x61240e0ed52f213";""
"komplek housing";"Komplek perumahan";"𝗡𝗔𝗚𝗜𝗠𝗔𝗡𝗜𝗜𝗗𝗔,𝗔𝗚𝗔𝗣𝗢";"4FM6+H5H, Obaipugaida, Distrik Ekadide, Kabupaten Paniai, Papua";"Kabupaten Paniai, Papua";"PAPUA";"";"Indonesia";"";"";"";"-3.866059";"136.4604926";"https://maps.google.com/?cid=0x0:0xf0e0110d9d8dc9fc";""
"komplek housing";"komplek housing";"Papua";"";"Papua";"PAPUA";"";"Indonesia";"";"";"";"-4.269928";"138.0803529";"https://maps.google.com/?cid=0x0:0xeba94e9c5eefe673";""
"komplek housing";"Komplek perumahan";"RUMAHKOETOWNHOUSE";"Jl. Permata Timur IV BLOK G NO 7, Pd. Klp., Kec. Duren Sawit, Kota Jakarta Timur, Daerah Khusus Ibukota Jakarta 13450";"Pd. Klp., Kec. Duren Sawit, Kota Jakarta Timur";"PAPUA";"13450";"Indonesia";"";"";"";"-6.2530484";"106.923888";"https://maps.google.com/?cid=0x0:0xe1ac95738d61462c";""
"komplek housing";"Komplek perumahan";"BUMI FLAMBOYAN";"Jl. Plamboyan III No.69, RT.004/RW.004, Jatimekar, Kec. Jatiasih, Kota Bks, Jawa Barat 17422";"RT.004/RW.004, Jatimekar, Kec. Jatiasih, Kota Bks";"PAPUA";"17422";"Indonesia";" 087786122233";"";"";"-6.3032457";"106.9400747";"https://maps.google.com/?cid=0x0:0xf5087291f09bf0de";""
"komplek housing";"Komplek perumahan";"CASA FLAMBOYAN";"Jl. Krakatau No.432, RT.003/RW.002, Jatimekar, Kec. Jatiasih, Kota Bks, Jawa Barat 17422";"RT.003/RW.002, Jatimekar, Kec. Jatiasih, Kota Bks";"PAPUA";"17422";"Indonesia";" 087786122233";"";"";"-6.2959055";"106.9392272";"https://maps.google.com/?cid=0x0:0xea88b883b302d191";""
"komplek housing";"komplek housing";"Komplek Housing";"Blok Bojong Nangka I, Jl. Ring Rudal Blok Bojong Nangka I No.68, RT.001/RW.007, Jatirahayu, Kec. Pd. Melati, Kota Bks, Jawa Barat 17414";"Jl. Ring Rudal Blok Bojong Nangka I No.68, RT.001/RW.007, Jatirahayu, Kec. Pd. Melati, Kota Bks";"PAPUA";"17414";"Indonesia";"";"";"";"-6.293724";"106.9165114";"https://maps.google.com/?cid=0x0:0x9c50464976dee674";""
"komplek housing";"komplek housing";"Kebo";"Kabupaten Paniai, Papua";"Kabupaten Paniai, Papua";"PAPUA";"";"Indonesia";"";"";"";"-3.8208593";"136.3865587";"https://maps.google.com/?cid=0x0:0x965b313c4d48e7ae";""
"komplek housing";"Perusahaan Media";"Sukamanah Residence";"Jalan Sukamanah, Sukamanah, Kec. Sukatani, Kabupaten Bekasi, Jawa Barat 17630";"Sukamanah, Kec. Sukatani, Kabupaten Bekasi";"PAPUA";"17630";"Indonesia";"";"";"";"-6.1880961";"107.1659131";"https://maps.google.com/?cid=0x0:0x101a15a49d09cb73";""
"komplek housing";"komplek housing";"Komplek Housing";"Blok Bojong Nangka I, Jl. Ring Rudal Blok Bojong Nangka I No.68, RT.001/RW.007, Jatirahayu, Kec. Pd. Melati, Kota Bks, Jawa Barat 17414";"Jl. Ring Rudal Blok Bojong Nangka I No.68, RT.001/RW.007, Jatirahayu, Kec. Pd. Melati, Kota Bks";"PAPUA";"17414";"Indonesia";"";"";"";"-6.293724";"106.9165114";"https://maps.google.com/?cid=0x0:0x9c50464976dee674";""
"komplek housing";"komplek housing";"Papua 98719";"Distrik Ekadide, Kabupaten Paniai, Papua";"Kabupaten Paniai, Papua";"PAPUA";"";"Indonesia";"";"";"";"-3.8701022";"136.5836972";"https://maps.google.com/?cid=0x0:0x46cb5eccbd6243ee";""
"komplek housing";"Pembangunan Perumahan";"RUMAH OSEA SATU BOMA";"597M+6V, Awebutu, Kebo, Kabupaten Paniai, Papua";"Kabupaten Paniai, Papua";"PAPUA";"";"Indonesia";"";"";"";"-3.8369759";"136.3847307";"https://maps.google.com/?cid=0x0:0x7689ac07f99e3f7c";""
"komplek housing";"Komplek perumahan";"Kopabaida";"5C6W+F5, Agapo / Widimeida, Distrik Ekadide, Kabupaten Paniai, Papua";"Kabupaten Paniai, Papua";"PAPUA";"";"Indonesia";"";"";"";"-3.83878";"136.4455767";"https://maps.google.com/?cid=0x0:0x61240e0ed52f213";""
"komplek housing";"Komplek perumahan";"Pondok Gede Housing 1";"Jl. Cipta Raya No.45-3, RT.001/RW.003, Jatirahayu, Kec. Pd. Melati, Kota Bks, Jawa Barat 17414";"RT.001/RW.003, Jatirahayu, Kec. Pd. Melati, Kota Bks";"PAPUA";"17414";"Indonesia";"";"";"";"-6.2852504";"106.9163397";"https://maps.google.com/?cid=0x0:0x3132afedbf38cd61";""
"komplek housing";"Komplek perumahan";"Pondok Gede Housing II";"Housing II, Jl. Raya Hankam, RT.001/RW.004, Jatirahayu, Pondok Gede, Bekasi, West Java";"Kota Bks, Jawa Barat";"PAPUA";"";"Indonesia";"";"";"";"-6.2876701";"106.9147674";"https://maps.google.com/?cid=0x0:0x2a52e601c20d18f2";""
"komplek housing";"Rumah Makan";"Warung nasi MPO endah";"Jl. Teratai No.22, RT.005/RW.003, Jatirahayu, Kec. Pd. Melati, Kota Bks, Jawa Barat 17414";"RT.005/RW.003, Jatirahayu, Kec. Pd. Melati, Kota Bks";"PAPUA";"17414";"Indonesia";" 08978659011";"";"";"-6.2871852";"106.9177055";"https://maps.google.com/?cid=0x0:0x24a530c8f839acea";""
"komplek housing";"komplek housing";"Kebo";"Kabupaten Paniai, Papua";"Kabupaten Paniai, Papua";"PAPUA";"";"Indonesia";"";"";"";"-3.8208593";"136.3865587";"https://maps.google.com/?cid=0x0:0x965b313c4d48e7ae";""
"komplek housing";"Komplek perumahan";"Kencana Loka Sektor 12.5";"MMGR+CCM, Jl. Widya Kencana, Ciater, Kec. Serpong, Kota Tangerang Selatan, Banten 15310";"Jl. Widya Kencana, Ciater, Kec. Serpong, Kota Tangerang Selatan";"PAPUA";"15310";"Indonesia";"";"";"";"-6.3239137";"106.6910358";"https://maps.google.com/?cid=0x0:0x2c5c2d1767a3357d";""
"komplek housing";"komplek housing";"Komplek Housing";"Blok Bojong Nangka I, Jl. Ring Rudal Blok Bojong Nangka I No.68, RT.001/RW.007, Jatirahayu, Kec. Pd. Melati, Kota Bks, Jawa Barat 17414";"Jl. Ring Rudal Blok Bojong Nangka I No.68, RT.001/RW.007, Jatirahayu, Kec. Pd. Melati, Kota Bks";"PAPUA";"17414";"Indonesia";"";"";"";"-6.293724";"106.9165114";"https://maps.google.com/?cid=0x0:0x9c50464976dee674";""
"komplek housing";"komplek housing";"Papua 98722";"Paniai Tim., Kabupaten Paniai, Papua";"Kabupaten Paniai, Papua";"PAPUA";"";"Indonesia";"";"";"";"-3.9261758";"136.5066359";"https://maps.google.com/?cid=0x0:0xc8074bbd911fd05a";""
"komplek housing";"Kompleks Bangunan Perusahaan";"Kompleks nusantara sehat madi";"2CXJ+CP, Umbutu / Uyubutu / Uwibutu, Paniai Tim., Kabupaten Paniai, Papua 98781";"Umbutu / Uyubutu / Uwibutu, Paniai Tim., Kabupaten Paniai";"PAPUA";"98781";"Indonesia";"";"";"";"-3.9514133";"136.4320732";"https://maps.google.com/?cid=0x0:0xa1926f6e29e86a0c";""
"komplek housing";"Pembangunan Perumahan";"RUMAH OSEA SATU BOMA";"597M+6V, Awebutu, Kebo, Kabupaten Paniai, Papua";"Kabupaten Paniai, Papua";"PAPUA";"";"Indonesia";"";"";"";"-3.8369759";"136.3847307";"https://maps.google.com/?cid=0x0:0x7689ac07f99e3f7c";""
"komplek housing";"Komplek perumahan";"Ekadise";"39CP+P2, Awabutu, Paniai Tim., Kabupaten Paniai, Papua 98726";"Awabutu, Paniai Tim., Kabupaten Paniai";"PAPUA";"98726";"Indonesia";"";"";"";"-3.9280533";"136.3844767";"https://maps.google.com/?cid=0x0:0xc5138a6962b0210b";""
"komplek housing";"komplek housing";"Kebo";"Kabupaten Paniai, Papua";"Kabupaten Paniai, Papua";"PAPUA";"";"Indonesia";"";"";"";"-3.8208593";"136.3865587";"https://maps.google.com/?cid=0x0:0x965b313c4d48e7ae";""
"komplek housing";"Komplek perumahan";"Gideon Kambar (Kampung Baru)";"3C5F+WPR, Madi, Paniai Tim., Kabupaten Paniai, Papua";"Kabupaten Paniai, Papua";"PAPUA";"";"Indonesia";"";"";"";"-3.9401444";"136.424263";"https://maps.google.com/?cid=0x0:0xb43a3e776decddc6";""
"komplek housing";"Komplek perumahan";"Ugapugaida";"3C5G+56X, Madi, Paniai Tim., Kabupaten Paniai, Papua 98781";"Madi, Paniai Tim., Kabupaten Paniai";"PAPUA";"98781";"Indonesia";"";"";"";"-3.9422815";"136.4258585";"https://maps.google.com/?cid=0x0:0x8da3b6e3e69ce72a";""
"komplek housing";"Komplek perumahan";"Wouyebutu Konteiner madi";"399J+6G7, Awabutu, Paniai Tim., Kabupaten Paniai, Papua";"Kabupaten Paniai, Papua";"PAPUA";"";"Indonesia";"";"";"";"-3.9319578";"136.3812971";"https://maps.google.com/?cid=0x0:0x6665461bcbf16630";""
"komplek housing";"Komplek perumahan";"PUPUDA WEGOMANA PANIAI";"3C8Q+JGC, Kopo, Paniai Tim., Kabupaten Paniai, Papua";"Kabupaten Paniai, Papua";"PAPUA";"";"Indonesia";"";"";"";"-3.9334319";"136.438752";"https://maps.google.com/?cid=0x0:0x85fd6c0a88361497";""
"komplek housing";"Komplek perumahan";"APO KOPO";"3C4M+RF3, Kopo, Paniai Tim., Kabupaten Paniai, Papua";"Kabupaten Paniai, Papua";"PAPUA";"";"Indonesia";"";"";"";"-3.9429831";"136.4336622";"https://maps.google.com/?cid=0x0:0x6d564546ec6827e2";""
"komplek housing";"Komplek perumahan";"𝗡𝗔𝗚𝗜𝗠𝗔𝗡𝗜𝗜𝗗𝗔,𝗔𝗚𝗔𝗣𝗢";"4FM6+H5H, Obaipugaida, Distrik Ekadide, Kabupaten Paniai, Papua";"Kabupaten Paniai, Papua";"PAPUA";"";"Indonesia";"";"";"";"-3.866059";"136.4604926";"https://maps.google.com/?cid=0x0:0xf0e0110d9d8dc9fc";""
"komplek housing";"Komplek perumahan";"Rumah Biak";"399G+PGW, Enarotali, Paniai Tim., Kabupaten Paniai, Papua 98726";"Enarotali, Paniai Tim., Kabupaten Paniai";"PAPUA";"98726";"Indonesia";"";"";"";"-3.929882";"136.3765556";"https://maps.google.com/?cid=0x0:0x303df156d9c78752";""
"komplek housing";"Komplek perumahan";"Kopabaida";"5C6W+F5, Agapo / Widimeida, Distrik Ekadide, Kabupaten Paniai, Papua";"Kabupaten Paniai, Papua";"PAPUA";"";"Indonesia";"";"";"";"-3.83878";"136.4455767";"https://maps.google.com/?cid=0x0:0x61240e0ed52f213";""
"komplek housing";"Perhimpunan Pengembang Perumahan";"IYAIPUGI";"39CG+XP7 Tim, 98726CG+RH5, Enarotali, Paniai Tim., Kabupaten Paniai, Papua 98726";"98726CG+RH5, Enarotali, Paniai Tim., Kabupaten Paniai";"PAPUA";"98726";"Indonesia";"";"";"";"-3.9275914";"136.3768071";"https://maps.google.com/?cid=0x0:0x85b0a5173db76ad0";""
"komplek housing";"";"dr. Agus House";"2CXJ+Q7V, Jl. Raya Madi, Umbutu / Uyubutu / Uwibutu, Paniai Tim., Kabupaten Paniai, Papua 98781";"Jl. Raya Madi, Umbutu / Uyubutu / Uwibutu, Paniai Tim., Kabupaten Paniai";"PAPUA";"98781";"Indonesia";"";"";"";"-3.9505039";"136.4306615";"https://maps.google.com/?cid=0x0:0xccdd54672ffec2c4";""
"komplek housing";"Komplek perumahan";"KOPOPO";"3C5Q+25, Kopo, Paniai Tim., Kabupaten Paniai, Papua";"Kabupaten Paniai, Papua";"PAPUA";"";"Indonesia";"";"";"";"-3.9424617";"136.4379779";"https://maps.google.com/?cid=0x0:0xe5e362b0ed3bc918";""
"komplek housing";"Gedung Apartemen";"MFT House";"39F7+CW5, Enarotali, Paniai Tim., Kabupaten Paniai, Papua";"Kabupaten Paniai, Papua";"PAPUA";"";"Indonesia";"";"";"";"-3.9264917";"136.3648679";"https://maps.google.com/?cid=0x0:0x860a52a4617f2bc4";""
"komplek housing";"Pembangunan Perumahan";"Thania Lorto";"3C5G+697, Madi, Paniai Tim., Kabupaten Paniai, Papua";"Kabupaten Paniai, Papua";"PAPUA";"";"Indonesia";"";"";"";"-3.941961";"136.4259214";"https://maps.google.com/?cid=0x0:0x6f7d33b465aadcb0";""
"komplek housing";"Komplek perumahan";"Enarotali";"39F7+CW5, Jalan poros, Enarotali, Paniai Tim., Kabupaten Paniai, Papua";"Kabupaten Paniai, Papua";"PAPUA";"";"Indonesia";"";"";"";"-3.9264917";"136.3648679";"https://maps.google.com/?cid=0x0:0xf563d37031a66f69";""
"komplek housing";"Kantor Perusahaan";"Perumahan dinas kesehatan";"3C5G+56X, Madi, Paniai Tim., Kabupaten Paniai, Papua 98781";"Madi, Paniai Tim., Kabupaten Paniai";"PAPUA";"98781";"Indonesia";"";"";"";"-3.9422837";"136.4258572";"https://maps.google.com/?cid=0x0:0x7783894397d78cb5";""
"komplek housing";"Komplek perumahan";"Cluster Delima Residence Sumberjaya";"Jl. Pesona Raya, Sumberjaya, Kec. Tambun Sel., Kabupaten Bekasi, Jawa Barat 17510";"Sumberjaya, Kec. Tambun Sel., Kabupaten Bekasi";"PAPUA";"17510";"Indonesia";" 081288840090";"";"";"-6.2189044";"107.074914";"https://maps.google.com/?cid=0x0:0xe61d39cecc818202";""
"komplek housing";"komplek housing";"Komplek Housing";"Blok Bojong Nangka I, Jl. Ring Rudal Blok Bojong Nangka I No.68, RT.001/RW.007, Jatirahayu, Kec. Pd. Melati, Kota Bks, Jawa Barat 17414";"Jl. Ring Rudal Blok Bojong Nangka I No.68, RT.001/RW.007, Jatirahayu, Kec. Pd. Melati, Kota Bks";"PAPUA";"17414";"Indonesia";"";"";"";"-6.293724";"106.9165114";"https://maps.google.com/?cid=0x0:0x9c50464976dee674";""
"komplek housing";"Pembangunan Perumahan";"RUMAH OSEA SATU BOMA";"597M+6V, Awebutu, Kebo, Kabupaten Paniai, Papua";"Kabupaten Paniai, Papua";"PAPUA";"";"Indonesia";"";"";"";"-3.8369759";"136.3847307";"https://maps.google.com/?cid=0x0:0x7689ac07f99e3f7c";""
"komplek housing";"Pembangunan Perumahan";"SAMUEL Y. BOMOPA";"79JG+WW, Bogobaida / Bogodide, Bogobaida, Kabupaten Paniai, Papua";"Kabupaten Paniai, Papua";"PAPUA";"";"Indonesia";"";"";"";"-3.7176709";"136.3772257";"https://maps.google.com/?cid=0x0:0x27e722586bbbeefa";""
"komplek housing";"komplek housing";"Kebo";"Kabupaten Paniai, Papua";"Kabupaten Paniai, Papua";"PAPUA";"";"Indonesia";"";"";"";"-3.8208593";"136.3865587";"https://maps.google.com/?cid=0x0:0x965b313c4d48e7ae";""
"komplek housing";"Komplek perumahan";"Kencana Loka Sektor 12.5";"MMGR+CCM, Jl. Widya Kencana, Ciater, Kec. Serpong, Kota Tangerang Selatan, Banten 15310";"Jl. Widya Kencana, Ciater, Kec. Serpong, Kota Tangerang Selatan";"PAPUA";"15310";"Indonesia";"";"";"";"-6.3239137";"106.6910358";"https://maps.google.com/?cid=0x0:0x2c5c2d1767a3357d";""
"komplek housing";"Komplek perumahan";"komplek perumahan";"Jl. Raya Kav. Arta Kencana 2 No.11 blok D, RT.006/RW.012, Jatimakmur, Kec. Pd. Gede, Kota Bks, Jawa Barat";"Kota Bks, Jawa Barat";"PAPUA";"";"Indonesia";"";"";"";"-6.2933623";"106.9340822";"https://maps.google.com/?cid=0x0:0x54dd5d5170e4f7ad";""
"komplek housing";"komplek housing";"Komplek Housing";"Blok Bojong Nangka I, Jl. Ring Rudal Blok Bojong Nangka I No.68, RT.001/RW.007, Jatirahayu, Kec. Pd. Melati, Kota Bks, Jawa Barat 17414";"Jl. Ring Rudal Blok Bojong Nangka I No.68, RT.001/RW.007, Jatirahayu, Kec. Pd. Melati, Kota Bks";"PAPUA";"17414";"Indonesia";"";"";"";"-6.293724";"106.9165114";"https://maps.google.com/?cid=0x0:0x9c50464976dee674";""
"komplek housing";"komplek housing";"Papua 98715";"Kabupaten Paniai, Papua";"Kabupaten Paniai, Papua";"PAPUA";"";"Indonesia";"";"";"";"-3.8146561";"136.4296942";"https://maps.google.com/?cid=0x0:0x49e2a3ef18e7312b";""
"komplek housing";"Perhimpunan Pengembang Perumahan";"IYAIPUGI";"39CG+XP7 Tim, 98726CG+RH5, Enarotali, Paniai Tim., Kabupaten Paniai, Papua 98726";"98726CG+RH5, Enarotali, Paniai Tim., Kabupaten Paniai";"PAPUA";"98726";"Indonesia";"";"";"";"-3.9275914";"136.3768071";"https://maps.google.com/?cid=0x0:0x85b0a5173db76ad0";""
"komplek housing";"Gedung Apartemen";"MFT House";"39F7+CW5, Enarotali, Paniai Tim., Kabupaten Paniai, Papua";"Kabupaten Paniai, Papua";"PAPUA";"";"Indonesia";"";"";"";"-3.9264917";"136.3648679";"https://maps.google.com/?cid=0x0:0x860a52a4617f2bc4";""
"komplek housing";"Komplek perumahan";"Ekadise";"39CP+P2, Awabutu, Paniai Tim., Kabupaten Paniai, Papua 98726";"Awabutu, Paniai Tim., Kabupaten Paniai";"PAPUA";"98726";"Indonesia";"";"";"";"-3.9280533";"136.3844767";"https://maps.google.com/?cid=0x0:0xc5138a6962b0210b";""
"komplek housing";"Komplek perumahan";"Perumahan Kontainer";"Madi, Paniai Tim., Kabupaten Paniai, Papua 98781";"Paniai Tim., Kabupaten Paniai";"PAPUA";"98781";"Indonesia";"";"";"";"-3.947805";"136.4304397";"https://maps.google.com/?cid=0x0:0xe6048b774b0c1534";""
"komplek housing";"Kompleks Bangunan Perusahaan";"Kompleks nusantara sehat madi";"2CXJ+CP, Umbutu / Uyubutu / Uwibutu, Paniai Tim., Kabupaten Paniai, Papua 98781";"Umbutu / Uyubutu / Uwibutu, Paniai Tim., Kabupaten Paniai";"PAPUA";"98781";"Indonesia";"";"";"";"-3.9514133";"136.4320732";"https://maps.google.com/?cid=0x0:0xa1926f6e29e86a0c";""
"komplek housing";"Komplek perumahan";"Kopabaida";"5C6W+F5, Agapo / Widimeida, Distrik Ekadide, Kabupaten Paniai, Papua";"Kabupaten Paniai, Papua";"PAPUA";"";"Indonesia";"";"";"";"-3.83878";"136.4455767";"https://maps.google.com/?cid=0x0:0x61240e0ed52f213";""
"komplek housing";"Komplek perumahan";"Wouyebutu Konteiner madi";"399J+6G7, Awabutu, Paniai Tim., Kabupaten Paniai, Papua";"Kabupaten Paniai, Papua";"PAPUA";"";"Indonesia";"";"";"";"-3.9319578";"136.3812971";"https://maps.google.com/?cid=0x0:0x6665461bcbf16630";""
"komplek housing";"Komplek perumahan";"Enarotali";"39F7+CW5, Jalan poros, Enarotali, Paniai Tim., Kabupaten Paniai, Papua";"Kabupaten Paniai, Papua";"PAPUA";"";"Indonesia";"";"";"";"-3.9264917";"136.3648679";"https://maps.google.com/?cid=0x0:0xf563d37031a66f69";""
"komplek housing";"Komplek perumahan";"Rumah Byak";"39F7+CW5, Enarotali, Paniai Tim., Kabupaten Paniai, Papua";"Kabupaten Paniai, Papua";"PAPUA";"";"Indonesia";"";"";"";"-3.9264917";"136.3648679";"https://maps.google.com/?cid=0x0:0xc7c847ad77af495";""
"komplek housing";"Pembangunan Perumahan";"RUMAH OSEA SATU BOMA";"597M+6V, Awebutu, Kebo, Kabupaten Paniai, Papua";"Kabupaten Paniai, Papua";"PAPUA";"";"Indonesia";"";"";"";"-3.8369759";"136.3847307";"https://maps.google.com/?cid=0x0:0x7689ac07f99e3f7c";""
"komplek housing";"komplek housing";"Lembah Hijau WEYADIDE";"CJ8V+5MV, Yabansai, Kec. Heram, Kota Jayapura, Papua 99225";"Yabansai, Kec. Heram, Kota Jayapura";"PAPUA";"99225";"Indonesia";" 082197795869";"";"";"-3.9210625";"136.4308125";"https://maps.google.com/?cid=0x0:0x821dec16f60292e4";""
"komplek housing";"Komplek perumahan";"Paniai";"39CH+764, Enarotali, Paniai Tim., Kabupaten Paniai, Papua";"Kabupaten Paniai, Papua";"PAPUA";"";"Indonesia";"";"";"";"-3.9293592";"136.3780656";"https://maps.google.com/?cid=0x0:0x3b691d0ca7d49cd2";""
"komplek housing";"Komplek perumahan";"Enaro";"39F7+CW5, Enarotali, Paniai Tim., Kabupaten Paniai, Papua";"Kabupaten Paniai, Papua";"PAPUA";"";"Indonesia";" 085257187318";"";"";"-3.9264917";"136.3648679";"https://maps.google.com/?cid=0x0:0xad44df3aa5233476";""
"komplek housing";"Komplek perumahan";"Ugapugaida";"3C5G+56X, Madi, Paniai Tim., Kabupaten Paniai, Papua 98781";"Madi, Paniai Tim., Kabupaten Paniai";"PAPUA";"98781";"Indonesia";"";"";"";"-3.9422815";"136.4258585";"https://maps.google.com/?cid=0x0:0x8da3b6e3e69ce72a";""
"komplek housing";"Komplek perumahan";"Rumah Biak";"399G+PGW, Enarotali, Paniai Tim., Kabupaten Paniai, Papua 98726";"Enarotali, Paniai Tim., Kabupaten Paniai";"PAPUA";"98726";"Indonesia";"";"";"";"-3.929882";"136.3765556";"https://maps.google.com/?cid=0x0:0x303df156d9c78752";""
"komplek housing";"Pembangunan Perumahan";"Iyaitaka";"399G+FGJ, Enarotali, Paniai Tim., Kabupaten Paniai, Papua 98726";"Enarotali, Paniai Tim., Kabupaten Paniai";"PAPUA";"98726";"Indonesia";"";"";"";"-3.9312083";"136.376274";"https://maps.google.com/?cid=0x0:0x7cd7a128d0ac06d4";""
"komplek housing";"Rumah wisata";"KOS KOS AN BANIO";"39CH+VWJ, Jalan poros bandara enarotali, Awabutu, Paniai Tim., Kabupaten Paniai, Papua";"Kabupaten Paniai, Papua";"PAPUA";"";"Indonesia";"";"";"";"-3.9277983";"136.3797525";"https://maps.google.com/?cid=0x0:0x9e0d8e6ad2d1cf4";""
"komplek housing";"Komplek perumahan";"My Home Sweet home";"397C+QH, Aikai, Paniai Tim., Kabupaten Paniai, Papua 98726";"Aikai, Paniai Tim., Kabupaten Paniai";"PAPUA";"98726";"Indonesia";"";"";"";"-3.9362433";"136.3719737";"https://maps.google.com/?cid=0x0:0xc2ab422973535c2e";""
"komplek housing";"komplek housing";"OA";"CVFG+37J, Kamoro Jaya, Kec. Mimika Baru, Kabupaten Mimika, Papua 99971";"Kamoro Jaya, Kec. Mimika Baru, Kabupaten Mimika";"PAPUA";"99971";"Indonesia";"";"";"";"-4.5774062";"136.8755972";"https://maps.google.com/?cid=0x0:0x550c12c116a82536";""
"komplek housing";"komplek housing";"Yatamo";"Kabupaten Paniai, Papua";"Kabupaten Paniai, Papua";"PAPUA";"";"Indonesia";"";"";"";"-3.996588";"136.350248";"https://maps.google.com/?cid=0x0:0xf237fd78852681d8";""
"komplek housing";"Komplek perumahan";"Pondok Gede Housing 1";"Jl. Cipta Raya No.45-3, RT.001/RW.003, Jatirahayu, Kec. Pd. Melati, Kota Bks, Jawa Barat 17414";"RT.001/RW.003, Jatirahayu, Kec. Pd. Melati, Kota Bks";"PAPUA";"17414";"Indonesia";"";"";"";"-6.2852504";"106.9163397";"https://maps.google.com/?cid=0x0:0x3132afedbf38cd61";""
"komplek housing";"Komplek perumahan";"Pondok gede housing";"PW69+G7J, Jl. Teratai, RT.005/RW.003, Jatirahayu, Kec. Pd. Melati, Kota Bks, Jawa Barat 17414";"Jl. Teratai, RT.005/RW.003, Jatirahayu, Kec. Pd. Melati, Kota Bks";"PAPUA";"17414";"Indonesia";"";"";"";"-6.2886631";"106.9181392";"https://maps.google.com/?cid=0x0:0xe09247830c5049e9";""
"komplek housing";"Komplek perumahan";"Housing 1";"Blok D No.2a, Jl. Cipta Yasa, Jatirahayu, Kec. Pd. Melati, Kota Bks, Jawa Barat 17414";"Jl. Cipta Yasa, Jatirahayu, Kec. Pd. Melati, Kota Bks";"PAPUA";"17414";"Indonesia";"";"";"";"-6.2868008";"106.9156516";"https://maps.google.com/?cid=0x0:0x8caf99f97a1f37b";""
"komplek housing";"Komplek perumahan";"Komplek Raya Housing Blok O";"PWC5+FRJ, RT.005/RW.011, Jatiwaringin, Kec. Pd. Gede, Kota Bks, Jawa Barat 17411";"RT.005/RW.011, Jatiwaringin, Kec. Pd. Gede, Kota Bks";"PAPUA";"17411";"Indonesia";"";"";"";"-6.278778";"106.9095098";"https://maps.google.com/?cid=0x0:0xb8ccec3d47633fb4";""
"komplek housing";"Kantor Perusahaan";"Komplek raya housing blok E";"Komplek raya hosing blok E.6 RT.003/001, Jatiwaringin, Kec. Pd. Gede";"Kota Bks, Jawa Barat";"PAPUA";"";"Indonesia";"";"";"";"-6.2811216";"106.9102168";"https://maps.google.com/?cid=0x0:0x8256ca23a46e5e57";""
"komplek housing";"Komplek perumahan";"Komplek Raya Housing/Molek Blok B No. 4";"PW95+CQ7, Jl. Raya Housing, RT.006/RW.011, Jatiwaringin, Kec. Pd. Gede, Kota Bks, Jawa Barat 17411";"Jl. Raya Housing, RT.006/RW.011, Jatiwaringin, Kec. Pd. Gede, Kota Bks";"PAPUA";"17411";"Indonesia";"";"";"";"-6.2814591";"106.909408";"https://maps.google.com/?cid=0x0:0x47a4e28e626334ff";""
"komplek housing";"komplek housing";"Papua 98725";"Paniai Tim., Kabupaten Paniai, Papua";"Kabupaten Paniai, Papua";"PAPUA";"";"Indonesia";"";"";"";"-3.8960745";"136.4537256";"https://maps.google.com/?cid=0x0:0xf416718a89ab024c";""
"komplek housing";"komplek housing";"Lembah Hijau WEYADIDE";"CJ8V+5MV, Yabansai, Kec. Heram, Kota Jayapura, Papua 99225";"Yabansai, Kec. Heram, Kota Jayapura";"PAPUA";"99225";"Indonesia";" 082197795869";"";"";"-3.9210625";"136.4308125";"https://maps.google.com/?cid=0x0:0x821dec16f60292e4";""
"komplek housing";"Komplek perumahan";"𝗡𝗔𝗚𝗜𝗠𝗔𝗡𝗜𝗜𝗗𝗔,𝗔𝗚𝗔𝗣𝗢";"4FM6+H5H, Obaipugaida, Distrik Ekadide, Kabupaten Paniai, Papua";"Kabupaten Paniai, Papua";"PAPUA";"";"Indonesia";"";"";"";"-3.866059";"136.4604926";"https://maps.google.com/?cid=0x0:0xf0e0110d9d8dc9fc";""
"komplek housing";"Komplek perumahan";"Pondok Gede Housing II";"Housing II, Jl. Raya Hankam, RT.001/RW.004, Jatirahayu, Pondok Gede, Bekasi, West Java";"Kota Bks, Jawa Barat";"PAPUA";"";"Indonesia";"";"";"";"-6.2876701";"106.9147674";"https://maps.google.com/?cid=0x0:0x2a52e601c20d18f2";""
"komplek housing";"Komplek perumahan";"Perumahan housing 2";"Jl. Raya Hankam No.12 Blok U, RT.005/RW.002, Jatirahayu, Kec. Pd. Melati, Kota Bks, Jawa Barat 17414";"RT.005/RW.002, Jatirahayu, Kec. Pd. Melati, Kota Bks";"PAPUA";"17414";"Indonesia";"";"";"";"-6.287153";"106.9155932";"https://maps.google.com/?cid=0x0:0x60205f6f07650dd6";""
"komplek housing";"Kantor Perusahaan";"Komplek raya housing blok G 10C";"Jl. Raya Housing No.10.C Blok G, Jatiwaringin, Pondok Gede, Bekasi, West Java 17411";"Jatiwaringin, Pondok Gede, Bekasi";"PAPUA";"17411";"Indonesia";"";"";"";"-6.2795575";"106.9095851";"https://maps.google.com/?cid=0x0:0x3047af3244b1bc18";""
"komplek housing";"Konsultan Realestat";"Komplek Raya Housing C-9";"Komplek Raya Jl. Raya Housing No.9 BLOK C, RT.003/RW.001, Jatiwaringin, Kec. Pd. Gede, Kota Bks, Jawa Barat 17411";"RT.003/RW.001, Jatiwaringin, Kec. Pd. Gede, Kota Bks";"PAPUA";"17411";"Indonesia";"";"";"";"-6.2809842";"106.9097473";"https://maps.google.com/?cid=0x0:0x5332830131150540";""
"komplek housing";"Komplek perumahan";"Pondok Gede Housing 1";"Jl. Cipta Raya No.45-3, RT.001/RW.003, Jatirahayu, Kec. Pd. Melati, Kota Bks, Jawa Barat 17414";"RT.001/RW.003, Jatirahayu, Kec. Pd. Melati, Kota Bks";"PAPUA";"17414";"Indonesia";"";"";"";"-6.2852504";"106.9163397";"https://maps.google.com/?cid=0x0:0x3132afedbf38cd61";""
"komplek housing";"Komplek perumahan";"Pondok gede housing";"PW69+G7J, Jl. Teratai, RT.005/RW.003, Jatirahayu, Kec. Pd. Melati, Kota Bks, Jawa Barat 17414";"Jl. Teratai, RT.005/RW.003, Jatirahayu, Kec. Pd. Melati, Kota Bks";"PAPUA";"17414";"Indonesia";"";"";"";"-6.2886631";"106.9181392";"https://maps.google.com/?cid=0x0:0xe09247830c5049e9";""
"komplek housing";"Komplek perumahan";"Komplek Raya Housing Blok J No.14";"Komplek Raya Housing  Molek Blok J No.14, RT./RW/RW.06/01, Jatiwaringin, Kec. Pd. Gede, Kota Bks, Jawa Barat 17411";"RT./RW/RW.06/01, Jatiwaringin, Kec. Pd. Gede, Kota Bks";"PAPUA";"17411";"Indonesia";"";"";"";"-6.2805909";"106.9104115";"https://maps.google.com/?cid=0x0:0x7f14a8f934298712";""
"komplek housing";"Komplek perumahan";"Housing 1";"Blok D No.2a, Jl. Cipta Yasa, Jatirahayu, Kec. Pd. Melati, Kota Bks, Jawa Barat 17414";"Jl. Cipta Yasa, Jatirahayu, Kec. Pd. Melati, Kota Bks";"PAPUA";"17414";"Indonesia";"";"";"";"-6.2868008";"106.9156516";"https://maps.google.com/?cid=0x0:0x8caf99f97a1f37b";""
"komplek housing";"Kantor Perusahaan";"Komplek raya housing blok E";"Komplek raya hosing blok E.6 RT.003/001, Jatiwaringin, Kec. Pd. Gede";"Kota Bks, Jawa Barat";"PAPUA";"";"Indonesia";"";"";"";"-6.2811216";"106.9102168";"https://maps.google.com/?cid=0x0:0x8256ca23a46e5e57";""
"komplek housing";"Komplek perumahan";"Komplek Raya Housing Blok O";"PWC5+FRJ, RT.005/RW.011, Jatiwaringin, Kec. Pd. Gede, Kota Bks, Jawa Barat 17411";"RT.005/RW.011, Jatiwaringin, Kec. Pd. Gede, Kota Bks";"PAPUA";"17411";"Indonesia";"";"";"";"-6.278778";"106.9095098";"https://maps.google.com/?cid=0x0:0xb8ccec3d47633fb4";""
"komplek housing";"Komplek perumahan";"Komplek Raya Housing Blok D no.6";"Jl. Raya Housing No.6 Blok D, RT.006/RW.011, Jatiwaringin, Pondok Gede, Bekasi, West Java 17411";"RT.006/RW.011, Jatiwaringin, Pondok Gede, Bekasi";"PAPUA";"17411";"Indonesia";" 0218469215";"";"";"-6.2812011";"106.9100437";"https://maps.google.com/?cid=0x0:0x1c9f453cf5cbab3a";""
"komplek housing";"Komplek perumahan";"Komplek Raya Housing (Molek) Blok L3 - ZAIA";"Komplek Raya Housing (Molek No.3 Blok-L, RT.005/RW.011, Jatiwaringin, Kec. Pd. Gede, Kota Bks, Jawa Barat 17411";"RT.005/RW.011, Jatiwaringin, Kec. Pd. Gede, Kota Bks";"PAPUA";"17411";"Indonesia";"";"";"";"-6.2791346";"106.9098178";"https://maps.google.com/?cid=0x0:0x70e05a91fbc23a92";""
"komplek housing";"Komplek perumahan";"Komplek Raya Housing/Molek Blok B No. 4";"PW95+CQ7, Jl. Raya Housing, RT.006/RW.011, Jatiwaringin, Kec. Pd. Gede, Kota Bks, Jawa Barat 17411";"Jl. Raya Housing, RT.006/RW.011, Jatiwaringin, Kec. Pd. Gede, Kota Bks";"PAPUA";"17411";"Indonesia";"";"";"";"-6.2814591";"106.909408";"https://maps.google.com/?cid=0x0:0x47a4e28e626334ff";""
"komplek housing";"Komplek perumahan";"Komplek Raya Housing Blok C No.6";"Jl. Bhineka, RT.006/RW.011, Jatiwaringin, Kec. Pd. Gede, Kota Bks, Jawa Barat 17411";"RT.006/RW.011, Jatiwaringin, Kec. Pd. Gede, Kota Bks";"PAPUA";"17411";"Indonesia";"";"";"";"-6.2813572";"106.9097108";"https://maps.google.com/?cid=0x0:0x8658ae7bd2f9a7a2";""
"komplek housing";"Kantor Perusahaan";"Komplek RAYA HOUSING Blok F no. 3";"Komp. Raya Housing Molek Blok F No.3, RT.006/RW.011, Jatiwaringin, Pondok Gede, Bekasi, West Java 17411";"RT.006/RW.011, Jatiwaringin, Pondok Gede, Bekasi";"PAPUA";"17411";"Indonesia";"";"";"";"-6.2797057";"106.909707";"https://maps.google.com/?cid=0x0:0x3bc363091dbe5457";""
"komplek housing";"Komplek perumahan";"komplek perumahan";"Jl. Raya Kav. Arta Kencana 2 No.11 blok D, RT.006/RW.012, Jatimakmur, Kec. Pd. Gede, Kota Bks, Jawa Barat";"Kota Bks, Jawa Barat";"PAPUA";"";"Indonesia";"";"";"";"-6.2933623";"106.9340822";"https://maps.google.com/?cid=0x0:0x54dd5d5170e4f7ad";""
"komplek housing";"komplek housing";"Papua 98726";"Kabupaten Paniai, Papua";"Kabupaten Paniai, Papua";"PAPUA";"";"Indonesia";"";"";"";"-3.9264117";"136.2761704";"https://maps.google.com/?cid=0x0:0x51a62be53f847ea";""
"komplek housing";"Perhimpunan Pengembang Perumahan";"IYAIPUGI";"39CG+XP7 Tim, 98726CG+RH5, Enarotali, Paniai Tim., Kabupaten Paniai, Papua 98726";"98726CG+RH5, Enarotali, Paniai Tim., Kabupaten Paniai";"PAPUA";"98726";"Indonesia";"";"";"";"-3.9275914";"136.3768071";"https://maps.google.com/?cid=0x0:0x85b0a5173db76ad0";""
"komplek housing";"Komplek perumahan";"Ekadise";"39CP+P2, Awabutu, Paniai Tim., Kabupaten Paniai, Papua 98726";"Awabutu, Paniai Tim., Kabupaten Paniai";"PAPUA";"98726";"Indonesia";"";"";"";"-3.9280533";"136.3844767";"https://maps.google.com/?cid=0x0:0xc5138a6962b0210b";""
"komplek housing";"komplek housing";"Lembah Hijau WEYADIDE";"CJ8V+5MV, Yabansai, Kec. Heram, Kota Jayapura, Papua 99225";"Yabansai, Kec. Heram, Kota Jayapura";"PAPUA";"99225";"Indonesia";" 082197795869";"";"";"-3.9210625";"136.4308125";"https://maps.google.com/?cid=0x0:0x821dec16f60292e4";""
"komplek housing";"Komplek perumahan";"APO KOPO";"3C4M+RF3, Kopo, Paniai Tim., Kabupaten Paniai, Papua";"Kabupaten Paniai, Papua";"PAPUA";"";"Indonesia";"";"";"";"-3.9429831";"136.4336622";"https://maps.google.com/?cid=0x0:0x6d564546ec6827e2";""
"komplek housing";"Kompleks Bangunan Perusahaan";"Kompleks nusantara sehat madi";"2CXJ+CP, Umbutu / Uyubutu / Uwibutu, Paniai Tim., Kabupaten Paniai, Papua 98781";"Umbutu / Uyubutu / Uwibutu, Paniai Tim., Kabupaten Paniai";"PAPUA";"98781";"Indonesia";"";"";"";"-3.9514133";"136.4320732";"https://maps.google.com/?cid=0x0:0xa1926f6e29e86a0c";""
"komplek housing";"Komplek perumahan";"Wouyebutu Konteiner madi";"399J+6G7, Awabutu, Paniai Tim., Kabupaten Paniai, Papua";"Kabupaten Paniai, Papua";"PAPUA";"";"Indonesia";"";"";"";"-3.9319578";"136.3812971";"https://maps.google.com/?cid=0x0:0x6665461bcbf16630";""
"komplek housing";"Komplek perumahan";"My Home Sweet home";"397C+QH, Aikai, Paniai Tim., Kabupaten Paniai, Papua 98726";"Aikai, Paniai Tim., Kabupaten Paniai";"PAPUA";"98726";"Indonesia";"";"";"";"-3.9362433";"136.3719737";"https://maps.google.com/?cid=0x0:0xc2ab422973535c2e";""
"komplek housing";"Gedung Apartemen";"MFT House";"39F7+CW5, Enarotali, Paniai Tim., Kabupaten Paniai, Papua";"Kabupaten Paniai, Papua";"PAPUA";"";"Indonesia";"";"";"";"-3.9264917";"136.3648679";"https://maps.google.com/?cid=0x0:0x860a52a4617f2bc4";""
"komplek housing";"Pembangunan Perumahan";"Iyaitaka";"399G+FGJ, Enarotali, Paniai Tim., Kabupaten Paniai, Papua 98726";"Enarotali, Paniai Tim., Kabupaten Paniai";"PAPUA";"98726";"Indonesia";"";"";"";"-3.9312083";"136.376274";"https://maps.google.com/?cid=0x0:0x7cd7a128d0ac06d4";""
"komplek housing";"Komplek perumahan";"Rumah Biak";"399G+PGW, Enarotali, Paniai Tim., Kabupaten Paniai, Papua 98726";"Enarotali, Paniai Tim., Kabupaten Paniai";"PAPUA";"98726";"Indonesia";"";"";"";"-3.929882";"136.3765556";"https://maps.google.com/?cid=0x0:0x303df156d9c78752";""
"komplek housing";"Komplek perumahan";"PUPUDA WEGOMANA PANIAI";"3C8Q+JGC, Kopo, Paniai Tim., Kabupaten Paniai, Papua";"Kabupaten Paniai, Papua";"PAPUA";"";"Indonesia";"";"";"";"-3.9334319";"136.438752";"https://maps.google.com/?cid=0x0:0x85fd6c0a88361497";""
"komplek housing";"Komplek perumahan";"Enarotali";"39F7+CW5, Jalan poros, Enarotali, Paniai Tim., Kabupaten Paniai, Papua";"Kabupaten Paniai, Papua";"PAPUA";"";"Indonesia";"";"";"";"-3.9264917";"136.3648679";"https://maps.google.com/?cid=0x0:0xf563d37031a66f69";""
"komplek housing";"Kompleks Kondominium";"Aspol nomor 13";"3C4G+PWJ Aspol, Madi, Paniai Tim., Kabupaten Paniai, Papua";"Kabupaten Paniai, Papua";"PAPUA";"";"Indonesia";"";"";"";"-3.9431714";"136.4272547";"https://maps.google.com/?cid=0x0:0x89ddf9ffa3c678b5";""
"komplek housing";"Komplek perumahan";"Gideon Kambar (Kampung Baru)";"3C5F+WPR, Madi, Paniai Tim., Kabupaten Paniai, Papua";"Kabupaten Paniai, Papua";"PAPUA";"";"Indonesia";"";"";"";"-3.9401444";"136.424263";"https://maps.google.com/?cid=0x0:0xb43a3e776decddc6";""
"komplek housing";"Komplek perumahan";"Ugapugaida";"3C5G+56X, Madi, Paniai Tim., Kabupaten Paniai, Papua 98781";"Madi, Paniai Tim., Kabupaten Paniai";"PAPUA";"98781";"Indonesia";"";"";"";"-3.9422815";"136.4258585";"https://maps.google.com/?cid=0x0:0x8da3b6e3e69ce72a";""
"komplek housing";"Pembangunan Perumahan";"Thania Lorto";"3C5G+697, Madi, Paniai Tim., Kabupaten Paniai, Papua";"Kabupaten Paniai, Papua";"PAPUA";"";"Indonesia";"";"";"";"-3.941961";"136.4259214";"https://maps.google.com/?cid=0x0:0x6f7d33b465aadcb0";""
"komplek housing";"Komplek perumahan";"Rumah Byak";"39F7+CW5, Enarotali, Paniai Tim., Kabupaten Paniai, Papua";"Kabupaten Paniai, Papua";"PAPUA";"";"Indonesia";"";"";"";"-3.9264917";"136.3648679";"https://maps.google.com/?cid=0x0:0xc7c847ad77af495";""
"komplek housing";"Komplek perumahan";"KOPOPO";"3C5Q+25, Kopo, Paniai Tim., Kabupaten Paniai, Papua";"Kabupaten Paniai, Papua";"PAPUA";"";"Indonesia";"";"";"";"-3.9424617";"136.4379779";"https://maps.google.com/?cid=0x0:0xe5e362b0ed3bc918";""
"komplek housing";"Kantor Perusahaan";"Perumahan dinas kesehatan";"3C5G+56X, Madi, Paniai Tim., Kabupaten Paniai, Papua 98781";"Madi, Paniai Tim., Kabupaten Paniai";"PAPUA";"98781";"Indonesia";"";"";"";"-3.9422837";"136.4258572";"https://maps.google.com/?cid=0x0:0x7783894397d78cb5";""
"komplek housing";"komplek housing";"Yatamo";"Kabupaten Paniai, Papua";"Kabupaten Paniai, Papua";"PAPUA";"";"Indonesia";"";"";"";"-3.996588";"136.350248";"https://maps.google.com/?cid=0x0:0xf237fd78852681d8";""
"komplek housing";"Komplek perumahan";"Pondok gede housing";"PW69+G7J, Jl. Teratai, RT.005/RW.003, Jatirahayu, Kec. Pd. Melati, Kota Bks, Jawa Barat 17414";"Jl. Teratai, RT.005/RW.003, Jatirahayu, Kec. Pd. Melati, Kota Bks";"PAPUA";"17414";"Indonesia";"";"";"";"-6.2886631";"106.9181392";"https://maps.google.com/?cid=0x0:0xe09247830c5049e9";""
"komplek housing";"Komplek perumahan";"Pondok Gede Housing II";"Housing II, Jl. Raya Hankam, RT.001/RW.004, Jatirahayu, Pondok Gede, Bekasi, West Java";"Kota Bks, Jawa Barat";"PAPUA";"";"Indonesia";"";"";"";"-6.2876701";"106.9147674";"https://maps.google.com/?cid=0x0:0x2a52e601c20d18f2";""
"komplek housing";"Komplek perumahan";"Pondok Gede Housing 1";"Jl. Cipta Raya No.45-3, RT.001/RW.003, Jatirahayu, Kec. Pd. Melati, Kota Bks, Jawa Barat 17414";"RT.001/RW.003, Jatirahayu, Kec. Pd. Melati, Kota Bks";"PAPUA";"17414";"Indonesia";"";"";"";"-6.2852504";"106.9163397";"https://maps.google.com/?cid=0x0:0x3132afedbf38cd61";""
"komplek housing";"Kantor Perusahaan";"Komplek raya housing blok G 10C";"Jl. Raya Housing No.10.C Blok G, Jatiwaringin, Pondok Gede, Bekasi, West Java 17411";"Jatiwaringin, Pondok Gede, Bekasi";"PAPUA";"17411";"Indonesia";"";"";"";"-6.2795575";"106.9095851";"https://maps.google.com/?cid=0x0:0x3047af3244b1bc18";""
"komplek housing";"Komplek perumahan";"Housing 1";"Blok D No.2a, Jl. Cipta Yasa, Jatirahayu, Kec. Pd. Melati, Kota Bks, Jawa Barat 17414";"Jl. Cipta Yasa, Jatirahayu, Kec. Pd. Melati, Kota Bks";"PAPUA";"17414";"Indonesia";"";"";"";"-6.2868008";"106.9156516";"https://maps.google.com/?cid=0x0:0x8caf99f97a1f37b";""
"komplek housing";"Komplek perumahan";"Komplek Raya Housing Blok D no.6";"Jl. Raya Housing No.6 Blok D, RT.006/RW.011, Jatiwaringin, Pondok Gede, Bekasi, West Java 17411";"RT.006/RW.011, Jatiwaringin, Pondok Gede, Bekasi";"PAPUA";"17411";"Indonesia";" 0218469215";"";"";"-6.2812011";"106.9100437";"https://maps.google.com/?cid=0x0:0x1c9f453cf5cbab3a";""
"perumahan";"perumahan";"Papua 98763";"Kabupaten Paniai, Papua";"Kabupaten Paniai, Papua";"PAPUA";"";"Indonesia";"";"";"";"-3.7991853";"136.3049196";"https://maps.google.com/?cid=0x0:0x8e322f542c113cfe";""
"perumahan";"Pembangunan Perumahan";"Desa ukauwo";"57G6+9H, Kito, Distrik Paniai Barat, Kabupaten Paniai, Papua 98763";"Kito, Distrik Paniai Barat, Kabupaten Paniai";"PAPUA";"98763";"Indonesia";"";"";"";"-3.8240727";"136.2613368";"https://maps.google.com/?cid=0x0:0x7c526562566b61fe";""
"perumahan";"perumahan";"Pududa";"36WG+FJ, Beko, Distrik Paniai Barat, Kabupaten Paniai, Papua";"Kabupaten Paniai, Papua";"PAPUA";"";"Indonesia";"";"";"";"-3.9037708";"136.2265702";"https://maps.google.com/?cid=0x0:0x6db8f3566aa0c844";""
"perumahan";"Pembangunan Perumahan";"RUMAH OSEA SATU BOMA";"597M+6V, Awebutu, Kebo, Kabupaten Paniai, Papua";"Kabupaten Paniai, Papua";"PAPUA";"";"Indonesia";"";"";"";"-3.8369759";"136.3847307";"https://maps.google.com/?cid=0x0:0x7689ac07f99e3f7c";""
"perumahan";"perumahan";"UWOWAA";"37J2+XC2, Obano, Distrik Paniai Barat, Kabupaten Paniai, Papua 98726";"Obano, Distrik Paniai Barat, Kabupaten Paniai";"PAPUA";"98726";"Indonesia";"";"";"";"-3.9168419";"136.2505927";"https://maps.google.com/?cid=0x0:0xcf61a0552ee6fbab";""
"perumahan";"Komplek perumahan";"Perumahan Kontainer";"Madi, Paniai Tim., Kabupaten Paniai, Papua 98781";"Paniai Tim., Kabupaten Paniai";"PAPUA";"98781";"Indonesia";"";"";"";"-3.947805";"136.4304397";"https://maps.google.com/?cid=0x0:0xe6048b774b0c1534";""
"perumahan";"Komplek perumahan";"Paniai";"39CH+764, Enarotali, Paniai Tim., Kabupaten Paniai, Papua";"Kabupaten Paniai, Papua";"PAPUA";"";"Indonesia";"";"";"";"-3.9293592";"136.3780656";"https://maps.google.com/?cid=0x0:0x3b691d0ca7d49cd2";""
"perumahan";"Komplek perumahan";"Enarotali";"39F7+CW5, Jalan poros, Enarotali, Paniai Tim., Kabupaten Paniai, Papua";"Kabupaten Paniai, Papua";"PAPUA";"";"Indonesia";"";"";"";"-3.9264917";"136.3648679";"https://maps.google.com/?cid=0x0:0xf563d37031a66f69";""
"perumahan";"perumahan";"Kabupaten Paniai";"Papua";"Kabupaten Paniai, Papua";"PAPUA";"";"Indonesia";"";"";"";"-3.7876441";"136.3624686";"https://maps.google.com/?cid=0x0:0x3064ea6668f0518f";""
"perumahan";"Perhimpunan Pengembang Perumahan";"IYAIPUGI";"39CG+XP7 Tim, 98726CG+RH5, Enarotali, Paniai Tim., Kabupaten Paniai, Papua 98726";"98726CG+RH5, Enarotali, Paniai Tim., Kabupaten Paniai";"PAPUA";"98726";"Indonesia";"";"";"";"-3.9275914";"136.3768071";"https://maps.google.com/?cid=0x0:0x85b0a5173db76ad0";""
"perumahan";"Gedung Apartemen";"Rumah Sanfir";"39CF+VG4, Enarotali, Paniai Tim., Kabupaten Paniai, Papua 98726";"Enarotali, Paniai Tim., Kabupaten Paniai";"PAPUA";"98726";"Indonesia";"";"";"";"-3.9287939";"136.3737376";"https://maps.google.com/?cid=0x0:0xd9332f7f06f0568a";""
"perumahan";"Pembangunan Perumahan";"BAPOUDA";"Jalan raya uwatawogi yogi, Enarotali, Paniai Tim., Kabupaten Paniai, Papua 98726";"Enarotali, Paniai Tim., Kabupaten Paniai";"PAPUA";"98726";"Indonesia";"";"";"";"-3.9264917";"136.3648679";"https://maps.google.com/?cid=0x0:0x368e873cad0a6ff4";""
"perumahan";"Komplek perumahan";"Rumah Byak";"39F7+CW5, Enarotali, Paniai Tim., Kabupaten Paniai, Papua";"Kabupaten Paniai, Papua";"PAPUA";"";"Indonesia";"";"";"";"-3.9264917";"136.3648679";"https://maps.google.com/?cid=0x0:0xc7c847ad77af495";""
"perumahan";"Pembangunan Perumahan";"Pogei";"39F7+CW5, Pogei, Enarotali, Paniai Tim., Kabupaten Paniai, Papua";"Kabupaten Paniai, Papua";"PAPUA";"";"Indonesia";"";"";"";"-3.9264917";"136.3648679";"https://maps.google.com/?cid=0x0:0x5377c7abf015a84a";""
"perumahan";"Serikat Mahasiswa";"Kampung Potewa";"28VP+J6, Epouto, Yatamo, Kabupaten Paniai, Papua 98764";"Epouto, Yatamo, Kabupaten Paniai";"PAPUA";"98764";"Indonesia";"";"";"";"-3.9559656";"136.3355191";"https://maps.google.com/?cid=0x0:0xeae7dfe8d1717bc6";""
"perumahan";"Pembangunan Perumahan";"KAMPUNG IPUWA";"59P2+W9, Panibagata, Kebo, Kabupaten Paniai, Papua";"Kabupaten Paniai, Papua";"PAPUA";"";"Indonesia";"";"";"";"-3.812679";"136.350965";"https://maps.google.com/?cid=0x0:0x6a7c2dbdefd7af2e";""
"perumahan";"Komplek perumahan";"Enarotali Toputo";"398G+PWX, Aikai, Paniai Tim., Kabupaten Paniai, Papua";"Kabupaten Paniai, Papua";"PAPUA";"";"Indonesia";"";"";"";"-3.9331278";"136.3773686";"https://maps.google.com/?cid=0x0:0xb17b7fc1a388d66b";""
"perumahan";"Komplek perumahan";"Moanemani";"39F7+CW5, Enarotali, Paniai Tim., Kabupaten Paniai, Papua";"Kabupaten Paniai, Papua";"PAPUA";"";"Indonesia";"";"";"";"-3.9264917";"136.3648679";"https://maps.google.com/?cid=0x0:0x82ae3f3ec181aad6";""
"perumahan";"Balai masyarakat";"Kampung Debaye Paniai papua";"5CJR+54, Debaye, Toyaimoti, Kec. Aradide, Kabupaten Paniai, Papua";"Kabupaten Paniai, Papua";"PAPUA";"";"Indonesia";"";"";"";"-3.8192988";"136.4402333";"https://maps.google.com/?cid=0x0:0x166b07b96809e678";""
"perumahan";"Pembangunan Perumahan";"Iyaitaka";"399G+FGJ, Enarotali, Paniai Tim., Kabupaten Paniai, Papua 98726";"Enarotali, Paniai Tim., Kabupaten Paniai";"PAPUA";"98726";"Indonesia";"";"";"";"-3.9312083";"136.376274";"https://maps.google.com/?cid=0x0:0x7cd7a128d0ac06d4";""
"perumahan";"Komplek perumahan";"Rumah Biak";"399G+PGW, Enarotali, Paniai Tim., Kabupaten Paniai, Papua 98726";"Enarotali, Paniai Tim., Kabupaten Paniai";"PAPUA";"98726";"Indonesia";"";"";"";"-3.929882";"136.3765556";"https://maps.google.com/?cid=0x0:0x303df156d9c78752";""
"perumahan";"Komplek perumahan";"Ekadise";"39CP+P2, Awabutu, Paniai Tim., Kabupaten Paniai, Papua 98726";"Awabutu, Paniai Tim., Kabupaten Paniai";"PAPUA";"98726";"Indonesia";"";"";"";"-3.9280533";"136.3844767";"https://maps.google.com/?cid=0x0:0xc5138a6962b0210b";""
"perumahan";"perumahan";"Papua 98711";"Paniai Tim., Kabupaten Paniai, Papua";"Kabupaten Paniai, Papua";"PAPUA";"";"Indonesia";"";"";"";"-3.9236807";"136.4681501";"https://maps.google.com/?cid=0x0:0x42ca7f49c2355029";""
"perumahan";"Komplek perumahan";"Perumahan Kontainer";"Madi, Paniai Tim., Kabupaten Paniai, Papua 98781";"Paniai Tim., Kabupaten Paniai";"PAPUA";"98781";"Indonesia";"";"";"";"-3.947805";"136.4304397";"https://maps.google.com/?cid=0x0:0xe6048b774b0c1534";""
"perumahan";"Pembangunan Perumahan";"Kompleks Perumahan BKAD Madi";"3C3J+J2G, Umbutu / Uyubutu / Uwibutu, Paniai Tim., Kabupaten Paniai, Papua 98781";"Umbutu / Uyubutu / Uwibutu, Paniai Tim., Kabupaten Paniai";"PAPUA";"98781";"Indonesia";"";"";"";"-3.9459284";"136.430072";"https://maps.google.com/?cid=0x0:0x6aedb83f603b7ccf";""
"perumahan";"Komplek perumahan";"PUPUDA WEGOMANA PANIAI";"3C8Q+JGC, Kopo, Paniai Tim., Kabupaten Paniai, Papua";"Kabupaten Paniai, Papua";"PAPUA";"";"Indonesia";"";"";"";"-3.9334319";"136.438752";"https://maps.google.com/?cid=0x0:0x85fd6c0a88361497";""
"perumahan";"Komplek perumahan";"Gideon Kambar (Kampung Baru)";"3C5F+WPR, Madi, Paniai Tim., Kabupaten Paniai, Papua";"Kabupaten Paniai, Papua";"PAPUA";"";"Indonesia";"";"";"";"-3.9401444";"136.424263";"https://maps.google.com/?cid=0x0:0xb43a3e776decddc6";""
"perumahan";"Kantor Perusahaan";"Perumahan dinas kesehatan";"3C5G+56X, Madi, Paniai Tim., Kabupaten Paniai, Papua 98781";"Madi, Paniai Tim., Kabupaten Paniai";"PAPUA";"98781";"Indonesia";"";"";"";"-3.9422837";"136.4258572";"https://maps.google.com/?cid=0x0:0x7783894397d78cb5";""
"perumahan";"Komplek perumahan";"Ugapugaida";"3C5G+56X, Madi, Paniai Tim., Kabupaten Paniai, Papua 98781";"Madi, Paniai Tim., Kabupaten Paniai";"PAPUA";"98781";"Indonesia";"";"";"";"-3.9422815";"136.4258585";"https://maps.google.com/?cid=0x0:0x8da3b6e3e69ce72a";""
"perumahan";"Pembangunan Perumahan";"Thania Lorto";"3C5G+697, Madi, Paniai Tim., Kabupaten Paniai, Papua";"Kabupaten Paniai, Papua";"PAPUA";"";"Indonesia";"";"";"";"-3.941961";"136.4259214";"https://maps.google.com/?cid=0x0:0x6f7d33b465aadcb0";""
"perumahan";"Pembangunan Perumahan";"Badau";"4C4M+3Q9, Badauwo, Paniai Tim., Kabupaten Paniai, Papua 98712";"Badauwo, Paniai Tim., Kabupaten Paniai";"PAPUA";"98712";"Indonesia";"";"";"";"-3.8948354";"136.4344996";"https://maps.google.com/?cid=0x0:0x5fe4d96e511d06c6";""
"perumahan";"Komplek perumahan";"KOPOPO";"3C5Q+25, Kopo, Paniai Tim., Kabupaten Paniai, Papua";"Kabupaten Paniai, Papua";"PAPUA";"";"Indonesia";"";"";"";"-3.9424617";"136.4379779";"https://maps.google.com/?cid=0x0:0xe5e362b0ed3bc918";""
"perumahan";"Komplek perumahan";"APO KOPO";"3C4M+RF3, Kopo, Paniai Tim., Kabupaten Paniai, Papua";"Kabupaten Paniai, Papua";"PAPUA";"";"Indonesia";"";"";"";"-3.9429831";"136.4336622";"https://maps.google.com/?cid=0x0:0x6d564546ec6827e2";""
"perumahan";"Komplek perumahan";"𝗡𝗔𝗚𝗜𝗠𝗔𝗡𝗜𝗜𝗗𝗔,𝗔𝗚𝗔𝗣𝗢";"4FM6+H5H, Obaipugaida, Distrik Ekadide, Kabupaten Paniai, Papua";"Kabupaten Paniai, Papua";"PAPUA";"";"Indonesia";"";"";"";"-3.866059";"136.4604926";"https://maps.google.com/?cid=0x0:0xf0e0110d9d8dc9fc";""
"perumahan";"Kompleks Kondominium";"Aspol nomor 13";"3C4G+PWJ Aspol, Madi, Paniai Tim., Kabupaten Paniai, Papua";"Kabupaten Paniai, Papua";"PAPUA";"";"Indonesia";"";"";"";"-3.9431714";"136.4272547";"https://maps.google.com/?cid=0x0:0x89ddf9ffa3c678b5";""
"perumahan";"";"dr. Agus House";"2CXJ+Q7V, Jl. Raya Madi, Umbutu / Uyubutu / Uwibutu, Paniai Tim., Kabupaten Paniai, Papua 98781";"Jl. Raya Madi, Umbutu / Uyubutu / Uwibutu, Paniai Tim., Kabupaten Paniai";"PAPUA";"98781";"Indonesia";"";"";"";"-3.9505039";"136.4306615";"https://maps.google.com/?cid=0x0:0xccdd54672ffec2c4";""
"perumahan";"Kantor Perusahaan";"Tower Telkomsel";"3C5G+56X, Madi, Paniai Tim., Kabupaten Paniai, Papua 98781";"Madi, Paniai Tim., Kabupaten Paniai";"PAPUA";"98781";"Indonesia";"";"";"";"-3.9422125";"136.4251994";"https://maps.google.com/?cid=0x0:0xb42c67e133bc22b9";""
"perumahan";"Rumah Sakit Bersalin";"Rumah Sakit Umum Daerah (RSUD) Paniai";"2CXJ+C4M, Jl. Raya Madi, Badauwo, Paniai Tim., Kabupaten Paniai, Papua 98781";"Jl. Raya Madi, Badauwo, Paniai Tim., Kabupaten Paniai";"PAPUA";"98781";"Indonesia";" 082199331895";"";"";"-3.9514033";"136.430287";"https://maps.google.com/?cid=0x0:0x40faa613d6b5a031";""
"perumahan";"perumahan";"Papua 98712";"Kabupaten Paniai, Papua";"Kabupaten Paniai, Papua";"PAPUA";"";"Indonesia";"";"";"";"-3.8602755";"136.4296942";"https://maps.google.com/?cid=0x0:0xec5046199ceddbff";""
"perumahan";"Pembangunan Perumahan";"Badau";"4C4M+3Q9, Badauwo, Paniai Tim., Kabupaten Paniai, Papua 98712";"Badauwo, Paniai Tim., Kabupaten Paniai";"PAPUA";"98712";"Indonesia";"";"";"";"-3.8948354";"136.4344996";"https://maps.google.com/?cid=0x0:0x5fe4d96e511d06c6";""
"perumahan";"Komplek perumahan";"Paniai";"39CH+764, Enarotali, Paniai Tim., Kabupaten Paniai, Papua";"Kabupaten Paniai, Papua";"PAPUA";"";"Indonesia";"";"";"";"-3.9293592";"136.3780656";"https://maps.google.com/?cid=0x0:0x3b691d0ca7d49cd2";""
"perumahan";"Komplek perumahan";"Enarotali";"39F7+CW5, Jalan poros, Enarotali, Paniai Tim., Kabupaten Paniai, Papua";"Kabupaten Paniai, Papua";"PAPUA";"";"Indonesia";"";"";"";"-3.9264917";"136.3648679";"https://maps.google.com/?cid=0x0:0xf563d37031a66f69";""
"perumahan";"Balai masyarakat";"Kampung Debaye Paniai papua";"5CJR+54, Debaye, Toyaimoti, Kec. Aradide, Kabupaten Paniai, Papua";"Kabupaten Paniai, Papua";"PAPUA";"";"Indonesia";"";"";"";"-3.8192988";"136.4402333";"https://maps.google.com/?cid=0x0:0x166b07b96809e678";""
"perumahan";"Komplek perumahan";"PUPUDA WEGOMANA PANIAI";"3C8Q+JGC, Kopo, Paniai Tim., Kabupaten Paniai, Papua";"Kabupaten Paniai, Papua";"PAPUA";"";"Indonesia";"";"";"";"-3.9334319";"136.438752";"https://maps.google.com/?cid=0x0:0x85fd6c0a88361497";""
"perumahan";"Komplek perumahan";"Ekadise";"39CP+P2, Awabutu, Paniai Tim., Kabupaten Paniai, Papua 98726";"Awabutu, Paniai Tim., Kabupaten Paniai";"PAPUA";"98726";"Indonesia";"";"";"";"-3.9280533";"136.3844767";"https://maps.google.com/?cid=0x0:0xc5138a6962b0210b";""
"perumahan";"Pembangunan Perumahan";"BAPOUDA";"Jalan raya uwatawogi yogi, Enarotali, Paniai Tim., Kabupaten Paniai, Papua 98726";"Enarotali, Paniai Tim., Kabupaten Paniai";"PAPUA";"98726";"Indonesia";"";"";"";"-3.9264917";"136.3648679";"https://maps.google.com/?cid=0x0:0x368e873cad0a6ff4";""
"perumahan";"Komplek perumahan";"Enarotali Toputo";"398G+PWX, Aikai, Paniai Tim., Kabupaten Paniai, Papua";"Kabupaten Paniai, Papua";"PAPUA";"";"Indonesia";"";"";"";"-3.9331278";"136.3773686";"https://maps.google.com/?cid=0x0:0xb17b7fc1a388d66b";""
"perumahan";"Pembangunan Perumahan";"Pogei";"39F7+CW5, Pogei, Enarotali, Paniai Tim., Kabupaten Paniai, Papua";"Kabupaten Paniai, Papua";"PAPUA";"";"Indonesia";"";"";"";"-3.9264917";"136.3648679";"https://maps.google.com/?cid=0x0:0x5377c7abf015a84a";""
"perumahan";"Pembangunan Perumahan";"RUMAH OSEA SATU BOMA";"597M+6V, Awebutu, Kebo, Kabupaten Paniai, Papua";"Kabupaten Paniai, Papua";"PAPUA";"";"Indonesia";"";"";"";"-3.8369759";"136.3847307";"https://maps.google.com/?cid=0x0:0x7689ac07f99e3f7c";""
"perumahan";"Komplek perumahan";"Rumah Biak";"399G+PGW, Enarotali, Paniai Tim., Kabupaten Paniai, Papua 98726";"Enarotali, Paniai Tim., Kabupaten Paniai";"PAPUA";"98726";"Indonesia";"";"";"";"-3.929882";"136.3765556";"https://maps.google.com/?cid=0x0:0x303df156d9c78752";""
"perumahan";"Perhimpunan Pengembang Perumahan";"Ibatida,";"39CH+764, Enarotali, Paniai Tim., Kabupaten Paniai, Papua";"Kabupaten Paniai, Papua";"PAPUA";"";"Indonesia";"";"";"";"-3.9293592";"136.3780656";"https://maps.google.com/?cid=0x0:0x7e706614a51ad421";""
"perumahan";"Kantor Perusahaan";"Perumahan dinas kesehatan";"3C5G+56X, Madi, Paniai Tim., Kabupaten Paniai, Papua 98781";"Madi, Paniai Tim., Kabupaten Paniai";"PAPUA";"98781";"Indonesia";"";"";"";"-3.9422837";"136.4258572";"https://maps.google.com/?cid=0x0:0x7783894397d78cb5";""
"perumahan";"Pembangunan Perumahan";"Nunubado (RNB)";"398P+57, Enarotali, Paniai Tim., Kabupaten Paniai, Papua 98726";"Enarotali, Paniai Tim., Kabupaten Paniai";"PAPUA";"98726";"Indonesia";"";"";"";"-3.9344905";"136.3857202";"https://maps.google.com/?cid=0x0:0x2b6579c716baff5";""
"perumahan";"Komplek perumahan";"𝗡𝗔𝗚𝗜𝗠𝗔𝗡𝗜𝗜𝗗𝗔,𝗔𝗚𝗔𝗣𝗢";"4FM6+H5H, Obaipugaida, Distrik Ekadide, Kabupaten Paniai, Papua";"Kabupaten Paniai, Papua";"PAPUA";"";"Indonesia";"";"";"";"-3.866059";"136.4604926";"https://maps.google.com/?cid=0x0:0xf0e0110d9d8dc9fc";""
"perumahan";"Komplek perumahan";"Rumah Byak";"39F7+CW5, Enarotali, Paniai Tim., Kabupaten Paniai, Papua";"Kabupaten Paniai, Papua";"PAPUA";"";"Indonesia";"";"";"";"-3.9264917";"136.3648679";"https://maps.google.com/?cid=0x0:0xc7c847ad77af495";""
"perumahan";"Komplek perumahan";"Ugapugaida";"3C5G+56X, Madi, Paniai Tim., Kabupaten Paniai, Papua 98781";"Madi, Paniai Tim., Kabupaten Paniai";"PAPUA";"98781";"Indonesia";"";"";"";"-3.9422815";"136.4258585";"https://maps.google.com/?cid=0x0:0x8da3b6e3e69ce72a";""
"perumahan";"Komplek perumahan";"IYAIBUTU/JANGKASA";"39CF+8PC, Aikai, Paniai Tim., Kabupaten Paniai, Papua 98726";"Aikai, Paniai Tim., Kabupaten Paniai";"PAPUA";"98726";"Indonesia";"";"";"";"-3.9291912";"136.3742793";"https://maps.google.com/?cid=0x0:0xf296ea6044605d57";""
"perumahan";"Komplek perumahan";"Moanemani";"39F7+CW5, Enarotali, Paniai Tim., Kabupaten Paniai, Papua";"Kabupaten Paniai, Papua";"PAPUA";"";"Indonesia";"";"";"";"-3.9264917";"136.3648679";"https://maps.google.com/?cid=0x0:0x82ae3f3ec181aad6";""
"perumahan";"Pembangunan Perumahan";"Iyaitaka";"399G+FGJ, Enarotali, Paniai Tim., Kabupaten Paniai, Papua 98726";"Enarotali, Paniai Tim., Kabupaten Paniai";"PAPUA";"98726";"Indonesia";"";"";"";"-3.9312083";"136.376274";"https://maps.google.com/?cid=0x0:0x7cd7a128d0ac06d4";""
"perumahan";"Komplek perumahan";"Wouyebutu Konteiner madi";"399J+6G7, Awabutu, Paniai Tim., Kabupaten Paniai, Papua";"Kabupaten Paniai, Papua";"PAPUA";"";"Indonesia";"";"";"";"-3.9319578";"136.3812971";"https://maps.google.com/?cid=0x0:0x6665461bcbf16630";""
"perumahan";"Komplek perumahan";"Kopabaida";"5C6W+F5, Agapo / Widimeida, Distrik Ekadide, Kabupaten Paniai, Papua";"Kabupaten Paniai, Papua";"PAPUA";"";"Indonesia";"";"";"";"-3.83878";"136.4455767";"https://maps.google.com/?cid=0x0:0x61240e0ed52f213";""
"perumahan";"Rumah wisata";"KOS KOS AN BANIO";"39CH+VWJ, Jalan poros bandara enarotali, Awabutu, Paniai Tim., Kabupaten Paniai, Papua";"Kabupaten Paniai, Papua";"PAPUA";"";"Indonesia";"";"";"";"-3.9277983";"136.3797525";"https://maps.google.com/?cid=0x0:0x9e0d8e6ad2d1cf4";""
"perumahan";"Komplek perumahan";"Gideon Kambar (Kampung Baru)";"3C5F+WPR, Madi, Paniai Tim., Kabupaten Paniai, Papua";"Kabupaten Paniai, Papua";"PAPUA";"";"Indonesia";"";"";"";"-3.9401444";"136.424263";"https://maps.google.com/?cid=0x0:0xb43a3e776decddc6";""
"perumahan";"perumahan";"Papua 98713";"Kabupaten Paniai, Papua";"Kabupaten Paniai, Papua";"PAPUA";"";"Indonesia";"";"";"";"-3.8981462";"136.5451516";"https://maps.google.com/?cid=0x0:0xca9b38a4a50ba077";""
"perumahan";"perumahan";"Paniai Tim.";"Kabupaten Paniai, Papua";"Kabupaten Paniai, Papua";"PAPUA";"";"Indonesia";"";"";"";"-3.9293592";"136.3780656";"https://maps.google.com/?cid=0x0:0x7f04dacf9b212bec";""
"perumahan";"perumahan";"Papua 98714";"Obaipugaida, Distrik Ekadide, Kabupaten Paniai, Papua";"Kabupaten Paniai, Papua";"PAPUA";"";"Indonesia";"";"";"";"-3.8800043";"136.5596027";"https://maps.google.com/?cid=0x0:0x1ed2f623a7ddc102";""
"perumahan";"perumahan";"Papua 98715";"Kabupaten Paniai, Papua";"Kabupaten Paniai, Papua";"PAPUA";"";"Indonesia";"";"";"";"-3.8146561";"136.4296942";"https://maps.google.com/?cid=0x0:0x49e2a3ef18e7312b";""
"perumahan";"Komplek perumahan";"Perumahan Kontainer";"Madi, Paniai Tim., Kabupaten Paniai, Papua 98781";"Paniai Tim., Kabupaten Paniai";"PAPUA";"98781";"Indonesia";"";"";"";"-3.947805";"136.4304397";"https://maps.google.com/?cid=0x0:0xe6048b774b0c1534";""
"perumahan";"Pembangunan Perumahan";"BAPOUDA";"Jalan raya uwatawogi yogi, Enarotali, Paniai Tim., Kabupaten Paniai, Papua 98726";"Enarotali, Paniai Tim., Kabupaten Paniai";"PAPUA";"98726";"Indonesia";"";"";"";"-3.9264917";"136.3648679";"https://maps.google.com/?cid=0x0:0x368e873cad0a6ff4";""
"perumahan";"Komplek perumahan";"Enarotali";"39F7+CW5, Jalan poros, Enarotali, Paniai Tim., Kabupaten Paniai, Papua";"Kabupaten Paniai, Papua";"PAPUA";"";"Indonesia";"";"";"";"-3.9264917";"136.3648679";"https://maps.google.com/?cid=0x0:0xf563d37031a66f69";""
"perumahan";"Pembangunan Perumahan";"Pogei";"39F7+CW5, Pogei, Enarotali, Paniai Tim., Kabupaten Paniai, Papua";"Kabupaten Paniai, Papua";"PAPUA";"";"Indonesia";"";"";"";"-3.9264917";"136.3648679";"https://maps.google.com/?cid=0x0:0x5377c7abf015a84a";""
"perumahan";"Komplek perumahan";"Paniai";"39CH+764, Enarotali, Paniai Tim., Kabupaten Paniai, Papua";"Kabupaten Paniai, Papua";"PAPUA";"";"Indonesia";"";"";"";"-3.9293592";"136.3780656";"https://maps.google.com/?cid=0x0:0x3b691d0ca7d49cd2";""
"perumahan";"Kompleks Bangunan Perusahaan";"Kompleks nusantara sehat madi";"2CXJ+CP, Umbutu / Uyubutu / Uwibutu, Paniai Tim., Kabupaten Paniai, Papua 98781";"Umbutu / Uyubutu / Uwibutu, Paniai Tim., Kabupaten Paniai";"PAPUA";"98781";"Indonesia";"";"";"";"-3.9514133";"136.4320732";"https://maps.google.com/?cid=0x0:0xa1926f6e29e86a0c";""
"perumahan";"Pembangunan Perumahan";"Kompleks Perumahan BKAD Madi";"3C3J+J2G, Umbutu / Uyubutu / Uwibutu, Paniai Tim., Kabupaten Paniai, Papua 98781";"Umbutu / Uyubutu / Uwibutu, Paniai Tim., Kabupaten Paniai";"PAPUA";"98781";"Indonesia";"";"";"";"-3.9459284";"136.430072";"https://maps.google.com/?cid=0x0:0x6aedb83f603b7ccf";""
"perumahan";"Komplek perumahan";"Ekadise";"39CP+P2, Awabutu, Paniai Tim., Kabupaten Paniai, Papua 98726";"Awabutu, Paniai Tim., Kabupaten Paniai";"PAPUA";"98726";"Indonesia";"";"";"";"-3.9280533";"136.3844767";"https://maps.google.com/?cid=0x0:0xc5138a6962b0210b";""
"perumahan";"Komplek perumahan";"Rumah Byak";"39F7+CW5, Enarotali, Paniai Tim., Kabupaten Paniai, Papua";"Kabupaten Paniai, Papua";"PAPUA";"";"Indonesia";"";"";"";"-3.9264917";"136.3648679";"https://maps.google.com/?cid=0x0:0xc7c847ad77af495";""
"perumahan";"Balai masyarakat";"Kampung Debaye Paniai papua";"5CJR+54, Debaye, Toyaimoti, Kec. Aradide, Kabupaten Paniai, Papua";"Kabupaten Paniai, Papua";"PAPUA";"";"Indonesia";"";"";"";"-3.8192988";"136.4402333";"https://maps.google.com/?cid=0x0:0x166b07b96809e678";""
"perumahan";"Pembangunan Perumahan";"Nunubado (RNB)";"398P+57, Enarotali, Paniai Tim., Kabupaten Paniai, Papua 98726";"Enarotali, Paniai Tim., Kabupaten Paniai";"PAPUA";"98726";"Indonesia";"";"";"";"-3.9344905";"136.3857202";"https://maps.google.com/?cid=0x0:0x2b6579c716baff5";""
"perumahan";"perumahan";"Pududa";"36WG+FJ, Beko, Distrik Paniai Barat, Kabupaten Paniai, Papua";"Kabupaten Paniai, Papua";"PAPUA";"";"Indonesia";"";"";"";"-3.9037708";"136.2265702";"https://maps.google.com/?cid=0x0:0x6db8f3566aa0c844";""
"perumahan";"Komplek perumahan";"Enarotali Toputo";"398G+PWX, Aikai, Paniai Tim., Kabupaten Paniai, Papua";"Kabupaten Paniai, Papua";"PAPUA";"";"Indonesia";"";"";"";"-3.9331278";"136.3773686";"https://maps.google.com/?cid=0x0:0xb17b7fc1a388d66b";""
"perumahan";"Komplek perumahan";"Rumah Biak";"399G+PGW, Enarotali, Paniai Tim., Kabupaten Paniai, Papua 98726";"Enarotali, Paniai Tim., Kabupaten Paniai";"PAPUA";"98726";"Indonesia";"";"";"";"-3.929882";"136.3765556";"https://maps.google.com/?cid=0x0:0x303df156d9c78752";""
"perumahan";"Perhimpunan Pengembang Perumahan";"Ibatida,";"39CH+764, Enarotali, Paniai Tim., Kabupaten Paniai, Papua";"Kabupaten Paniai, Papua";"PAPUA";"";"Indonesia";"";"";"";"-3.9293592";"136.3780656";"https://maps.google.com/?cid=0x0:0x7e706614a51ad421";""
"perumahan";"Pembangunan Perumahan";"Iyaitaka";"399G+FGJ, Enarotali, Paniai Tim., Kabupaten Paniai, Papua 98726";"Enarotali, Paniai Tim., Kabupaten Paniai";"PAPUA";"98726";"Indonesia";"";"";"";"-3.9312083";"136.376274";"https://maps.google.com/?cid=0x0:0x7cd7a128d0ac06d4";""
"perumahan";"Komplek perumahan";"Moanemani";"39F7+CW5, Enarotali, Paniai Tim., Kabupaten Paniai, Papua";"Kabupaten Paniai, Papua";"PAPUA";"";"Indonesia";"";"";"";"-3.9264917";"136.3648679";"https://maps.google.com/?cid=0x0:0x82ae3f3ec181aad6";""
"perumahan";"Rumah wisata";"KOS KOS AN BANIO";"39CH+VWJ, Jalan poros bandara enarotali, Awabutu, Paniai Tim., Kabupaten Paniai, Papua";"Kabupaten Paniai, Papua";"PAPUA";"";"Indonesia";"";"";"";"-3.9277983";"136.3797525";"https://maps.google.com/?cid=0x0:0x9e0d8e6ad2d1cf4";""
"perumahan";"Komplek perumahan";"𝗡𝗔𝗚𝗜𝗠𝗔𝗡𝗜𝗜𝗗𝗔,𝗔𝗚𝗔𝗣𝗢";"4FM6+H5H, Obaipugaida, Distrik Ekadide, Kabupaten Paniai, Papua";"Kabupaten Paniai, Papua";"PAPUA";"";"Indonesia";"";"";"";"-3.866059";"136.4604926";"https://maps.google.com/?cid=0x0:0xf0e0110d9d8dc9fc";""
"perumahan";"Gedung Apartemen";"Rumah Sanfir";"39CF+VG4, Enarotali, Paniai Tim., Kabupaten Paniai, Papua 98726";"Enarotali, Paniai Tim., Kabupaten Paniai";"PAPUA";"98726";"Indonesia";"";"";"";"-3.9287939";"136.3737376";"https://maps.google.com/?cid=0x0:0xd9332f7f06f0568a";""
"perumahan";"Komplek perumahan";"Wouyebutu Konteiner madi";"399J+6G7, Awabutu, Paniai Tim., Kabupaten Paniai, Papua";"Kabupaten Paniai, Papua";"PAPUA";"";"Indonesia";"";"";"";"-3.9319578";"136.3812971";"https://maps.google.com/?cid=0x0:0x6665461bcbf16630";""
"perumahan";"Pembangunan Perumahan";"Amoye sisko";"399H+55F, Enarotali, Paniai Tim., Kabupaten Paniai, Papua 98726";"Enarotali, Paniai Tim., Kabupaten Paniai";"PAPUA";"98726";"Indonesia";"";"";"";"-3.9327402";"136.3777542";"https://maps.google.com/?cid=0x0:0xa3d380f2f8da2963";""
"perumahan";"perumahan";"Papua 98716";"Distrik Ekadide, Kabupaten Paniai, Papua";"Kabupaten Paniai, Papua";"PAPUA";"";"Indonesia";"";"";"";"-3.8487333";"136.4873892";"https://maps.google.com/?cid=0x0:0x83969942f885abae";""
"perumahan";"Balai masyarakat";"Kampung Debaye Paniai papua";"5CJR+54, Debaye, Toyaimoti, Kec. Aradide, Kabupaten Paniai, Papua";"Kabupaten Paniai, Papua";"PAPUA";"";"Indonesia";"";"";"";"-3.8192988";"136.4402333";"https://maps.google.com/?cid=0x0:0x166b07b96809e678";""
"perumahan";"Pembangunan Perumahan";"Mabuwagi tadii";"5FC8+9W, Deta, Kec. Aradide, Kabupaten Paniai, Papua";"Kabupaten Paniai, Papua";"PAPUA";"";"Indonesia";"";"";"";"-3.8291232";"136.4672937";"https://maps.google.com/?cid=0x0:0x2f31b822f01e339";""
"perumahan";"Komplek perumahan";"𝗡𝗔𝗚𝗜𝗠𝗔𝗡𝗜𝗜𝗗𝗔,𝗔𝗚𝗔𝗣𝗢";"4FM6+H5H, Obaipugaida, Distrik Ekadide, Kabupaten Paniai, Papua";"Kabupaten Paniai, Papua";"PAPUA";"";"Indonesia";"";"";"";"-3.866059";"136.4604926";"https://maps.google.com/?cid=0x0:0xf0e0110d9d8dc9fc";""
"perumahan";"Komplek perumahan";"Kopabaida";"5C6W+F5, Agapo / Widimeida, Distrik Ekadide, Kabupaten Paniai, Papua";"Kabupaten Paniai, Papua";"PAPUA";"";"Indonesia";"";"";"";"-3.83878";"136.4455767";"https://maps.google.com/?cid=0x0:0x61240e0ed52f213";""
"perumahan";"Rumah Kayu";"heru nawipa";"5C6X+5C, Eyagitaida, Distrik Ekadide, Kabupaten Paniai, Papua";"Kabupaten Paniai, Papua";"PAPUA";"";"Indonesia";"";"";"";"-3.8394873";"136.4485953";"https://maps.google.com/?cid=0x0:0xa7a28377b2b217db";""
"perumahan";"perumahan";"Papua 98719";"Distrik Ekadide, Kabupaten Paniai, Papua";"Kabupaten Paniai, Papua";"PAPUA";"";"Indonesia";"";"";"";"-3.8701022";"136.5836972";"https://maps.google.com/?cid=0x0:0x46cb5eccbd6243ee";""
"perumahan";"Pembangunan Perumahan";"RUMAH OSEA SATU BOMA";"597M+6V, Awebutu, Kebo, Kabupaten Paniai, Papua";"Kabupaten Paniai, Papua";"PAPUA";"";"Indonesia";"";"";"";"-3.8369759";"136.3847307";"https://maps.google.com/?cid=0x0:0x7689ac07f99e3f7c";""
"perumahan";"Balai masyarakat";"Kampung Debaye Paniai papua";"5CJR+54, Debaye, Toyaimoti, Kec. Aradide, Kabupaten Paniai, Papua";"Kabupaten Paniai, Papua";"PAPUA";"";"Indonesia";"";"";"";"-3.8192988";"136.4402333";"https://maps.google.com/?cid=0x0:0x166b07b96809e678";""
"perumahan";"Komplek perumahan";"Kabupaten pania";"6966+WXW, Panibagata, Kebo, Kabupaten Paniai, Papua";"Kabupaten Paniai, Papua";"PAPUA";"";"Indonesia";"";"";"";"-3.7876441";"136.3624686";"https://maps.google.com/?cid=0x0:0xab7c6d2a74938ec2";""
"perumahan";"perumahan";"Kabupaten Paniai";"Papua";"Kabupaten Paniai, Papua";"PAPUA";"";"Indonesia";"";"";"";"-3.7876441";"136.3624686";"https://maps.google.com/?cid=0x0:0x3064ea6668f0518f";""
"perumahan";"Pembangunan Perumahan";"MUYABADI DINUWATIYA";"5FM8+CC, Deta, Kec. Aradide, Kabupaten Paniai, Papua";"Kabupaten Paniai, Papua";"PAPUA";"";"Indonesia";"";"";"";"-3.8163598";"136.4660195";"https://maps.google.com/?cid=0x0:0xd7833aa56be95bef";""
"perumahan";"Pembangunan Perumahan";"Mabuwagi tadii";"5FC8+9W, Deta, Kec. Aradide, Kabupaten Paniai, Papua";"Kabupaten Paniai, Papua";"PAPUA";"";"Indonesia";"";"";"";"-3.8291232";"136.4672937";"https://maps.google.com/?cid=0x0:0x2f31b822f01e339";""
"perumahan";"Komplek perumahan";"𝗡𝗔𝗚𝗜𝗠𝗔𝗡𝗜𝗜𝗗𝗔,𝗔𝗚𝗔𝗣𝗢";"4FM6+H5H, Obaipugaida, Distrik Ekadide, Kabupaten Paniai, Papua";"Kabupaten Paniai, Papua";"PAPUA";"";"Indonesia";"";"";"";"-3.866059";"136.4604926";"https://maps.google.com/?cid=0x0:0xf0e0110d9d8dc9fc";""
"perumahan";"Komplek perumahan";"Kopabaida";"5C6W+F5, Agapo / Widimeida, Distrik Ekadide, Kabupaten Paniai, Papua";"Kabupaten Paniai, Papua";"PAPUA";"";"Indonesia";"";"";"";"-3.83878";"136.4455767";"https://maps.google.com/?cid=0x0:0x61240e0ed52f213";""
"perumahan";"Hostel";"Rumah keluarga gobay";"692G+2PH, Kebo II, Kebo, Kabupaten Paniai, Papua";"Kabupaten Paniai, Papua";"PAPUA";"";"Indonesia";"";"";"";"-3.799932";"136.3768663";"https://maps.google.com/?cid=0x0:0xc3b843f20793bd92";""
"perumahan";"perumahan";"Paniai Tim.";"Kabupaten Paniai, Papua";"Kabupaten Paniai, Papua";"PAPUA";"";"Indonesia";"";"";"";"-3.9293592";"136.3780656";"https://maps.google.com/?cid=0x0:0x7f04dacf9b212bec";""
"perumahan";"Rumah Kayu";"heru nawipa";"5C6X+5C, Eyagitaida, Distrik Ekadide, Kabupaten Paniai, Papua";"Kabupaten Paniai, Papua";"PAPUA";"";"Indonesia";"";"";"";"-3.8394873";"136.4485953";"https://maps.google.com/?cid=0x0:0xa7a28377b2b217db";""
"perumahan";"perumahan";"Papua 98722";"Paniai Tim., Kabupaten Paniai, Papua";"Kabupaten Paniai, Papua";"PAPUA";"";"Indonesia";"";"";"";"-3.9261758";"136.5066359";"https://maps.google.com/?cid=0x0:0xc8074bbd911fd05a";""
"perumahan";"Komplek perumahan";"Perumahan Kontainer";"Madi, Paniai Tim., Kabupaten Paniai, Papua 98781";"Paniai Tim., Kabupaten Paniai";"PAPUA";"98781";"Indonesia";"";"";"";"-3.947805";"136.4304397";"https://maps.google.com/?cid=0x0:0xe6048b774b0c1534";""
"perumahan";"Kompleks Bangunan Perusahaan";"Kompleks nusantara sehat madi";"2CXJ+CP, Umbutu / Uyubutu / Uwibutu, Paniai Tim., Kabupaten Paniai, Papua 98781";"Umbutu / Uyubutu / Uwibutu, Paniai Tim., Kabupaten Paniai";"PAPUA";"98781";"Indonesia";"";"";"";"-3.9514133";"136.4320732";"https://maps.google.com/?cid=0x0:0xa1926f6e29e86a0c";""
"perumahan";"Perhimpunan Pengembang Perumahan";"IYAIPUGI";"39CG+XP7 Tim, 98726CG+RH5, Enarotali, Paniai Tim., Kabupaten Paniai, Papua 98726";"98726CG+RH5, Enarotali, Paniai Tim., Kabupaten Paniai";"PAPUA";"98726";"Indonesia";"";"";"";"-3.9275914";"136.3768071";"https://maps.google.com/?cid=0x0:0x85b0a5173db76ad0";""
"perumahan";"Komplek perumahan";"PUPUDA WEGOMANA PANIAI";"3C8Q+JGC, Kopo, Paniai Tim., Kabupaten Paniai, Papua";"Kabupaten Paniai, Papua";"PAPUA";"";"Indonesia";"";"";"";"-3.9334319";"136.438752";"https://maps.google.com/?cid=0x0:0x85fd6c0a88361497";""
"perumahan";"Komplek perumahan";"Paniai";"39CH+764, Enarotali, Paniai Tim., Kabupaten Paniai, Papua";"Kabupaten Paniai, Papua";"PAPUA";"";"Indonesia";"";"";"";"-3.9293592";"136.3780656";"https://maps.google.com/?cid=0x0:0x3b691d0ca7d49cd2";""
"perumahan";"Komplek perumahan";"Kabupaten pania";"6966+WXW, Panibagata, Kebo, Kabupaten Paniai, Papua";"Kabupaten Paniai, Papua";"PAPUA";"";"Indonesia";"";"";"";"-3.7876441";"136.3624686";"https://maps.google.com/?cid=0x0:0xab7c6d2a74938ec2";""
"perumahan";"Komplek perumahan";"Rumah Biak";"399G+PGW, Enarotali, Paniai Tim., Kabupaten Paniai, Papua 98726";"Enarotali, Paniai Tim., Kabupaten Paniai";"PAPUA";"98726";"Indonesia";"";"";"";"-3.929882";"136.3765556";"https://maps.google.com/?cid=0x0:0x303df156d9c78752";""
"perumahan";"Komplek perumahan";"Enarotali Toputo";"398G+PWX, Aikai, Paniai Tim., Kabupaten Paniai, Papua";"Kabupaten Paniai, Papua";"PAPUA";"";"Indonesia";"";"";"";"-3.9331278";"136.3773686";"https://maps.google.com/?cid=0x0:0xb17b7fc1a388d66b";""
"perumahan";"Kantor Perusahaan";"Perumahan dinas kesehatan";"3C5G+56X, Madi, Paniai Tim., Kabupaten Paniai, Papua 98781";"Madi, Paniai Tim., Kabupaten Paniai";"PAPUA";"98781";"Indonesia";"";"";"";"-3.9422837";"136.4258572";"https://maps.google.com/?cid=0x0:0x7783894397d78cb5";""
"perumahan";"Pembangunan Perumahan";"Pogei";"39F7+CW5, Pogei, Enarotali, Paniai Tim., Kabupaten Paniai, Papua";"Kabupaten Paniai, Papua";"PAPUA";"";"Indonesia";"";"";"";"-3.9264917";"136.3648679";"https://maps.google.com/?cid=0x0:0x5377c7abf015a84a";""
"perumahan";"Pembangunan Perumahan";"Kompleks Perumahan BKAD Madi";"3C3J+J2G, Umbutu / Uyubutu / Uwibutu, Paniai Tim., Kabupaten Paniai, Papua 98781";"Umbutu / Uyubutu / Uwibutu, Paniai Tim., Kabupaten Paniai";"PAPUA";"98781";"Indonesia";"";"";"";"-3.9459284";"136.430072";"https://maps.google.com/?cid=0x0:0x6aedb83f603b7ccf";""
"perumahan";"Komplek perumahan";"Ekadise";"39CP+P2, Awabutu, Paniai Tim., Kabupaten Paniai, Papua 98726";"Awabutu, Paniai Tim., Kabupaten Paniai";"PAPUA";"98726";"Indonesia";"";"";"";"-3.9280533";"136.3844767";"https://maps.google.com/?cid=0x0:0xc5138a6962b0210b";""
"perumahan";"Balai masyarakat";"Kampung Debaye Paniai papua";"5CJR+54, Debaye, Toyaimoti, Kec. Aradide, Kabupaten Paniai, Papua";"Kabupaten Paniai, Papua";"PAPUA";"";"Indonesia";"";"";"";"-3.8192988";"136.4402333";"https://maps.google.com/?cid=0x0:0x166b07b96809e678";""
"perumahan";"Komplek perumahan";"Moanemani";"39F7+CW5, Enarotali, Paniai Tim., Kabupaten Paniai, Papua";"Kabupaten Paniai, Papua";"PAPUA";"";"Indonesia";"";"";"";"-3.9264917";"136.3648679";"https://maps.google.com/?cid=0x0:0x82ae3f3ec181aad6";""
"perumahan";"Pembangunan Perumahan";"BAPOUDA";"Jalan raya uwatawogi yogi, Enarotali, Paniai Tim., Kabupaten Paniai, Papua 98726";"Enarotali, Paniai Tim., Kabupaten Paniai";"PAPUA";"98726";"Indonesia";"";"";"";"-3.9264917";"136.3648679";"https://maps.google.com/?cid=0x0:0x368e873cad0a6ff4";""
"perumahan";"Komplek perumahan";"Ugapugaida";"3C5G+56X, Madi, Paniai Tim., Kabupaten Paniai, Papua 98781";"Madi, Paniai Tim., Kabupaten Paniai";"PAPUA";"98781";"Indonesia";"";"";"";"-3.9422815";"136.4258585";"https://maps.google.com/?cid=0x0:0x8da3b6e3e69ce72a";""
"perumahan";"Komplek perumahan";"Rumah Byak";"39F7+CW5, Enarotali, Paniai Tim., Kabupaten Paniai, Papua";"Kabupaten Paniai, Papua";"PAPUA";"";"Indonesia";"";"";"";"-3.9264917";"136.3648679";"https://maps.google.com/?cid=0x0:0xc7c847ad77af495";""
"perumahan";"Komplek perumahan";"Gideon Kambar (Kampung Baru)";"3C5F+WPR, Madi, Paniai Tim., Kabupaten Paniai, Papua";"Kabupaten Paniai, Papua";"PAPUA";"";"Indonesia";"";"";"";"-3.9401444";"136.424263";"https://maps.google.com/?cid=0x0:0xb43a3e776decddc6";""
"perumahan";"Rumah wisata";"KOS KOS AN BANIO";"39CH+VWJ, Jalan poros bandara enarotali, Awabutu, Paniai Tim., Kabupaten Paniai, Papua";"Kabupaten Paniai, Papua";"PAPUA";"";"Indonesia";"";"";"";"-3.9277983";"136.3797525";"https://maps.google.com/?cid=0x0:0x9e0d8e6ad2d1cf4";""
"perumahan";"Pembangunan Perumahan";"Iyaitaka";"399G+FGJ, Enarotali, Paniai Tim., Kabupaten Paniai, Papua 98726";"Enarotali, Paniai Tim., Kabupaten Paniai";"PAPUA";"98726";"Indonesia";"";"";"";"-3.9312083";"136.376274";"https://maps.google.com/?cid=0x0:0x7cd7a128d0ac06d4";""
"perumahan";"Pembangunan Perumahan";"Nunubado (RNB)";"398P+57, Enarotali, Paniai Tim., Kabupaten Paniai, Papua 98726";"Enarotali, Paniai Tim., Kabupaten Paniai";"PAPUA";"98726";"Indonesia";"";"";"";"-3.9344905";"136.3857202";"https://maps.google.com/?cid=0x0:0x2b6579c716baff5";""
"perumahan";"Pembangunan Perumahan";"Thania Lorto";"3C5G+697, Madi, Paniai Tim., Kabupaten Paniai, Papua";"Kabupaten Paniai, Papua";"PAPUA";"";"Indonesia";"";"";"";"-3.941961";"136.4259214";"https://maps.google.com/?cid=0x0:0x6f7d33b465aadcb0";""
"perumahan";"perumahan";"Papua 98724";"Papua";"Papua";"PAPUA";"";"Indonesia";"";"";"";"-3.2380612";"136.7865516";"https://maps.google.com/?cid=0x0:0x5a3fecd18c5a180c";""
"perumahan";"perumahan";"Paniai Tim.";"Kabupaten Paniai, Papua";"Kabupaten Paniai, Papua";"PAPUA";"";"Indonesia";"";"";"";"-3.9293592";"136.3780656";"https://maps.google.com/?cid=0x0:0x7f04dacf9b212bec";""
"perumahan";"Komplek perumahan";"Perumahan Kontainer";"Madi, Paniai Tim., Kabupaten Paniai, Papua 98781";"Paniai Tim., Kabupaten Paniai";"PAPUA";"98781";"Indonesia";"";"";"";"-3.947805";"136.4304397";"https://maps.google.com/?cid=0x0:0xe6048b774b0c1534";""
"perumahan";"Kompleks Bangunan Perusahaan";"Kompleks nusantara sehat madi";"2CXJ+CP, Umbutu / Uyubutu / Uwibutu, Paniai Tim., Kabupaten Paniai, Papua 98781";"Umbutu / Uyubutu / Uwibutu, Paniai Tim., Kabupaten Paniai";"PAPUA";"98781";"Indonesia";"";"";"";"-3.9514133";"136.4320732";"https://maps.google.com/?cid=0x0:0xa1926f6e29e86a0c";""
"perumahan";"Perhimpunan Pengembang Perumahan";"IYAIPUGI";"39CG+XP7 Tim, 98726CG+RH5, Enarotali, Paniai Tim., Kabupaten Paniai, Papua 98726";"98726CG+RH5, Enarotali, Paniai Tim., Kabupaten Paniai";"PAPUA";"98726";"Indonesia";"";"";"";"-3.9275914";"136.3768071";"https://maps.google.com/?cid=0x0:0x85b0a5173db76ad0";""
"perumahan";"Komplek perumahan";"Enarotali Toputo";"398G+PWX, Aikai, Paniai Tim., Kabupaten Paniai, Papua";"Kabupaten Paniai, Papua";"PAPUA";"";"Indonesia";"";"";"";"-3.9331278";"136.3773686";"https://maps.google.com/?cid=0x0:0xb17b7fc1a388d66b";""
"perumahan";"Komplek perumahan";"Ekadise";"39CP+P2, Awabutu, Paniai Tim., Kabupaten Paniai, Papua 98726";"Awabutu, Paniai Tim., Kabupaten Paniai";"PAPUA";"98726";"Indonesia";"";"";"";"-3.9280533";"136.3844767";"https://maps.google.com/?cid=0x0:0xc5138a6962b0210b";""
"perumahan";"Pembangunan Perumahan";"Pogei";"39F7+CW5, Pogei, Enarotali, Paniai Tim., Kabupaten Paniai, Papua";"Kabupaten Paniai, Papua";"PAPUA";"";"Indonesia";"";"";"";"-3.9264917";"136.3648679";"https://maps.google.com/?cid=0x0:0x5377c7abf015a84a";""
"perumahan";"Komplek perumahan";"PUPUDA WEGOMANA PANIAI";"3C8Q+JGC, Kopo, Paniai Tim., Kabupaten Paniai, Papua";"Kabupaten Paniai, Papua";"PAPUA";"";"Indonesia";"";"";"";"-3.9334319";"136.438752";"https://maps.google.com/?cid=0x0:0x85fd6c0a88361497";""
"perumahan";"Komplek perumahan";"Paniai";"39CH+764, Enarotali, Paniai Tim., Kabupaten Paniai, Papua";"Kabupaten Paniai, Papua";"PAPUA";"";"Indonesia";"";"";"";"-3.9293592";"136.3780656";"https://maps.google.com/?cid=0x0:0x3b691d0ca7d49cd2";""
"perumahan";"Pembangunan Perumahan";"BAPOUDA";"Jalan raya uwatawogi yogi, Enarotali, Paniai Tim., Kabupaten Paniai, Papua 98726";"Enarotali, Paniai Tim., Kabupaten Paniai";"PAPUA";"98726";"Indonesia";"";"";"";"-3.9264917";"136.3648679";"https://maps.google.com/?cid=0x0:0x368e873cad0a6ff4";""
"perumahan";"Pembangunan Perumahan";"Iyaitaka";"399G+FGJ, Enarotali, Paniai Tim., Kabupaten Paniai, Papua 98726";"Enarotali, Paniai Tim., Kabupaten Paniai";"PAPUA";"98726";"Indonesia";"";"";"";"-3.9312083";"136.376274";"https://maps.google.com/?cid=0x0:0x7cd7a128d0ac06d4";""
"perumahan";"Pembangunan Perumahan";"Nunubado (RNB)";"398P+57, Enarotali, Paniai Tim., Kabupaten Paniai, Papua 98726";"Enarotali, Paniai Tim., Kabupaten Paniai";"PAPUA";"98726";"Indonesia";"";"";"";"-3.9344905";"136.3857202";"https://maps.google.com/?cid=0x0:0x2b6579c716baff5";""
"perumahan";"Pembangunan Perumahan";"Kompleks Perumahan BKAD Madi";"3C3J+J2G, Umbutu / Uyubutu / Uwibutu, Paniai Tim., Kabupaten Paniai, Papua 98781";"Umbutu / Uyubutu / Uwibutu, Paniai Tim., Kabupaten Paniai";"PAPUA";"98781";"Indonesia";"";"";"";"-3.9459284";"136.430072";"https://maps.google.com/?cid=0x0:0x6aedb83f603b7ccf";""
"perumahan";"Rumah wisata";"KOS KOS AN BANIO";"39CH+VWJ, Jalan poros bandara enarotali, Awabutu, Paniai Tim., Kabupaten Paniai, Papua";"Kabupaten Paniai, Papua";"PAPUA";"";"Indonesia";"";"";"";"-3.9277983";"136.3797525";"https://maps.google.com/?cid=0x0:0x9e0d8e6ad2d1cf4";""
"perumahan";"Komplek perumahan";"Wouyebutu Konteiner madi";"399J+6G7, Awabutu, Paniai Tim., Kabupaten Paniai, Papua";"Kabupaten Paniai, Papua";"PAPUA";"";"Indonesia";"";"";"";"-3.9319578";"136.3812971";"https://maps.google.com/?cid=0x0:0x6665461bcbf16630";""
"perumahan";"Komplek perumahan";"Gideon Kambar (Kampung Baru)";"3C5F+WPR, Madi, Paniai Tim., Kabupaten Paniai, Papua";"Kabupaten Paniai, Papua";"PAPUA";"";"Indonesia";"";"";"";"-3.9401444";"136.424263";"https://maps.google.com/?cid=0x0:0xb43a3e776decddc6";""
"perumahan";"Pembangunan Perumahan";"Amoye sisko";"399H+55F, Enarotali, Paniai Tim., Kabupaten Paniai, Papua 98726";"Enarotali, Paniai Tim., Kabupaten Paniai";"PAPUA";"98726";"Indonesia";"";"";"";"-3.9327402";"136.3777542";"https://maps.google.com/?cid=0x0:0xa3d380f2f8da2963";""
"perumahan";"Gedung Apartemen";"Rumah Sanfir";"39CF+VG4, Enarotali, Paniai Tim., Kabupaten Paniai, Papua 98726";"Enarotali, Paniai Tim., Kabupaten Paniai";"PAPUA";"98726";"Indonesia";"";"";"";"-3.9287939";"136.3737376";"https://maps.google.com/?cid=0x0:0xd9332f7f06f0568a";""
"perumahan";"Kantor Perusahaan";"Perumahan dinas kesehatan";"3C5G+56X, Madi, Paniai Tim., Kabupaten Paniai, Papua 98781";"Madi, Paniai Tim., Kabupaten Paniai";"PAPUA";"98781";"Indonesia";"";"";"";"-3.9422837";"136.4258572";"https://maps.google.com/?cid=0x0:0x7783894397d78cb5";""
"perumahan";"Komplek perumahan";"Rumah Biak";"399G+PGW, Enarotali, Paniai Tim., Kabupaten Paniai, Papua 98726";"Enarotali, Paniai Tim., Kabupaten Paniai";"PAPUA";"98726";"Indonesia";"";"";"";"-3.929882";"136.3765556";"https://maps.google.com/?cid=0x0:0x303df156d9c78752";""
"perumahan";"perumahan";"Kec. Aradide";"Kabupaten Paniai, Papua";"Kabupaten Paniai, Papua";"PAPUA";"";"Indonesia";"";"";"";"-3.8150328";"136.4790748";"https://maps.google.com/?cid=0x0:0xf7b522f91db639de";""
"perumahan";"Balai masyarakat";"Kampung Debaye Paniai papua";"5CJR+54, Debaye, Toyaimoti, Kec. Aradide, Kabupaten Paniai, Papua";"Kabupaten Paniai, Papua";"PAPUA";"";"Indonesia";"";"";"";"-3.8192988";"136.4402333";"https://maps.google.com/?cid=0x0:0x166b07b96809e678";""
"perumahan";"Pembangunan Perumahan";"MUYABADI DINUWATIYA";"5FM8+CC, Deta, Kec. Aradide, Kabupaten Paniai, Papua";"Kabupaten Paniai, Papua";"PAPUA";"";"Indonesia";"";"";"";"-3.8163598";"136.4660195";"https://maps.google.com/?cid=0x0:0xd7833aa56be95bef";""
"perumahan";"Komplek perumahan";"Kopabaida";"5C6W+F5, Agapo / Widimeida, Distrik Ekadide, Kabupaten Paniai, Papua";"Kabupaten Paniai, Papua";"PAPUA";"";"Indonesia";"";"";"";"-3.83878";"136.4455767";"https://maps.google.com/?cid=0x0:0x61240e0ed52f213";""
"perumahan";"perumahan";"Papua 98769";"Papua";"Papua";"PAPUA";"";"Indonesia";"";"";"";"-3.4531316";"136.3240951";"https://maps.google.com/?cid=0x0:0xd28ed8bf27ec9c6b";""
"perumahan";"Pembangunan Perumahan";"Bogobaida";"97J7+GG, Uwagi, Bogobaida, Kabupaten Paniai, Papua 98854";"Uwagi, Bogobaida, Kabupaten Paniai";"PAPUA";"98854";"Indonesia";"";"";"";"-3.6186298";"136.263872";"https://maps.google.com/?cid=0x0:0x9327a9b529431789";""
"perumahan";"Rumah Kayu";"Songlee Homestay";"98X2+7MC, Uwagi, Bogobaida, Kabupaten Paniai, Papua 98769";"Uwagi, Bogobaida, Kabupaten Paniai";"PAPUA";"98769";"Indonesia";"";"";"";"-3.6023426";"136.3020512";"https://maps.google.com/?cid=0x0:0x7fbe29673d8b83b2";""
"perumahan";"Pembangunan Perumahan";"Taumi";"P53Q+G2P, Tibai, Siriwo, Kabupaten Nabire, Papua 98784";"Tibai, Siriwo, Kabupaten Nabire";"PAPUA";"98784";"Indonesia";"";"";"";"-3.2964";"136.187";"https://maps.google.com/?cid=0x0:0xdcb4ede924703614";""
"perumahan";"Pembangunan Perumahan";"SAMUEL Y. BOMOPA";"79JG+WW, Bogobaida / Bogodide, Bogobaida, Kabupaten Paniai, Papua";"Kabupaten Paniai, Papua";"PAPUA";"";"Indonesia";"";"";"";"-3.7176709";"136.3772257";"https://maps.google.com/?cid=0x0:0x27e722586bbbeefa";""
"perumahan";"Sekolah";"Bibida Kampung Migani";"2QX8+JVF, Bibida, Distrik Bibida, Kabupaten Paniai, Papua 98782";"Bibida, Distrik Bibida, Kabupaten Paniai";"PAPUA";"98782";"Indonesia";"";"";"";"-3.9509334";"136.7671717";"https://maps.google.com/?cid=0x0:0x36b9245ace6814e5";""
"perumahan";"Kantor Pemerintah";"distrik bibida";"2FXH+46R, Unnamed Road, Timida, Paniai Tim., Kabupaten Paniai, Papua 98781";"Unnamed Road, Timida, Paniai Tim., Kabupaten Paniai";"PAPUA";"98781";"Indonesia";"";"";"";"-3.9521289";"136.4780288";"https://maps.google.com/?cid=0x0:0x78a0627a8a5a3617";""
"perumahan";"perumahan";"Papua 98782";"Kabupaten Paniai, Papua";"Kabupaten Paniai, Papua";"PAPUA";"";"Indonesia";"";"";"";"-4.0286691";"136.7865516";"https://maps.google.com/?cid=0x0:0x974bc6d0bf8e4cbf";""
"perumahan";"Komplek perumahan";"Desa Jagamin";"VXPJ+94, Duma, Dumadama, Kabupaten Paniai, Papua";"Kabupaten Paniai, Papua";"PAPUA";"";"Indonesia";"";"";"";"-4.1140222";"136.9802167";"https://maps.google.com/?cid=0x0:0xd2ad456b55311bd4";""
"perumahan";"Komplek perumahan";"Tege";"3WRP+M49, Dogomo, Dumadama, Kabupaten Paniai, Papua 98767";"Dogomo, Dumadama, Kabupaten Paniai";"PAPUA";"98767";"Indonesia";"";"";"";"-3.908327";"136.9353446";"https://maps.google.com/?cid=0x0:0xfd8d9b17b9ab02a";""
"perumahan";"Penginapan";"Palapa Estate";"V34Q+FQ6, Arwandop, Tembagapura, Kec. Tembagapura, Kabupaten Mimika, Papua 99967";"Arwandop, Tembagapura, Kec. Tembagapura, Kabupaten Mimika";"PAPUA";"99967";"Indonesia";"";"";"";"-4.143844";"137.0893942";"https://maps.google.com/?cid=0x0:0xb9fb1abe3f573017";""
"perumahan";"Perhimpunan Pengembang Perumahan";"Ainggogin";"VX3H+64, Waa, Kec. Tembagapura, Kabupaten Mimika, Papua";"Kabupaten Mimika, Papua";"PAPUA";"";"Indonesia";"";"";"";"-4.1469416";"136.9778334";"https://maps.google.com/?cid=0x0:0xb9a9255e1bbf1404";""
"perumahan";"Komplek perumahan";"Tomabera";"RXRF+CG, Waa, Kec. Tembagapura, Kabupaten Mimika, Papua";"Kabupaten Mimika, Papua";"PAPUA";"";"Indonesia";"";"";"";"-4.158968";"136.973839";"https://maps.google.com/?cid=0x0:0x7a332b2f8c0ffdf3";""
"perumahan";"Komplek perumahan";"AMOLE HOUSING COMPLEX";"V36Q+47Q, Jl. Tembagapura Raya, Tembagapura, Kec. Tembagapura, Kabupaten Mimika, Papua 99967";"Jl. Tembagapura Raya, Tembagapura, Kec. Tembagapura, Kabupaten Mimika";"PAPUA";"99967";"Indonesia";"";"";"";"-4.1396574";"137.0882283";"https://maps.google.com/?cid=0x0:0x52af69d45091d4cd";""
"perumahan";"Komplek perumahan";"Terrace Estate";"V35Q+9V9, Tembagapura, Kec. Tembagapura, Kabupaten Mimika, Papua 98972";"Tembagapura, Kec. Tembagapura, Kabupaten Mimika";"PAPUA";"98972";"Indonesia";"";"";"";"-4.1415941";"137.0897204";"https://maps.google.com/?cid=0x0:0x20cc042f77e07d69";""
"perumahan";"Gereja";"Kampung Baluni Aroanop";"VXR8+25V, Waa, Kec. Tembagapura, Kabupaten Mimika, Papua 99967";"Waa, Kec. Tembagapura, Kabupaten Mimika";"PAPUA";"99967";"Indonesia";"";"";"";"-4.10988";"136.9654172";"https://maps.google.com/?cid=0x0:0x295e7da7586a4dbe";""
"perumahan";"perumahan";"Papua 98763";"Kabupaten Paniai, Papua";"Kabupaten Paniai, Papua";"PAPUA";"";"Indonesia";"";"";"";"-3.7991853";"136.3049196";"https://maps.google.com/?cid=0x0:0x8e322f542c113cfe";""
"perumahan";"Pembangunan Perumahan";"RUMAH OSEA SATU BOMA";"597M+6V, Awebutu, Kebo, Kabupaten Paniai, Papua";"Kabupaten Paniai, Papua";"PAPUA";"";"Indonesia";"";"";"";"-3.8369759";"136.3847307";"https://maps.google.com/?cid=0x0:0x7689ac07f99e3f7c";""
"perumahan";"perumahan";"UWOWAA";"37J2+XC2, Obano, Distrik Paniai Barat, Kabupaten Paniai, Papua 98726";"Obano, Distrik Paniai Barat, Kabupaten Paniai";"PAPUA";"98726";"Indonesia";"";"";"";"-3.9168419";"136.2505927";"https://maps.google.com/?cid=0x0:0xcf61a0552ee6fbab";""
"perumahan";"Komplek perumahan";"Perumahan Kontainer";"Madi, Paniai Tim., Kabupaten Paniai, Papua 98781";"Paniai Tim., Kabupaten Paniai";"PAPUA";"98781";"Indonesia";"";"";"";"-3.947805";"136.4304397";"https://maps.google.com/?cid=0x0:0xe6048b774b0c1534";""
"perumahan";"perumahan";"Pududa";"36WG+FJ, Beko, Distrik Paniai Barat, Kabupaten Paniai, Papua";"Kabupaten Paniai, Papua";"PAPUA";"";"Indonesia";"";"";"";"-3.9037708";"136.2265702";"https://maps.google.com/?cid=0x0:0x6db8f3566aa0c844";""
"perumahan";"Gedung Apartemen";"Rumah Sanfir";"39CF+VG4, Enarotali, Paniai Tim., Kabupaten Paniai, Papua 98726";"Enarotali, Paniai Tim., Kabupaten Paniai";"PAPUA";"98726";"Indonesia";"";"";"";"-3.9287939";"136.3737376";"https://maps.google.com/?cid=0x0:0xd9332f7f06f0568a";""
"perumahan";"Komplek perumahan";"Wouyebutu Konteiner madi";"399J+6G7, Awabutu, Paniai Tim., Kabupaten Paniai, Papua";"Kabupaten Paniai, Papua";"PAPUA";"";"Indonesia";"";"";"";"-3.9319578";"136.3812971";"https://maps.google.com/?cid=0x0:0x6665461bcbf16630";""
"perumahan";"Kompleks Kondominium";"Kpr komplek siriwo";"Jl.kpr komplek Jl. KPR komplek, Samabusa, Siriwo, Kabupaten Nabire, Papua 98818";"Samabusa, Siriwo, Kabupaten Nabire";"PAPUA";"98818";"Indonesia";"";"";"";"-3.235677";"135.638513";"https://maps.google.com/?cid=0x0:0xa28a0e4b198ce932";""
"perumahan";"Perhimpunan Pengembang Perumahan";"IYAIPUGI";"39CG+XP7 Tim, 98726CG+RH5, Enarotali, Paniai Tim., Kabupaten Paniai, Papua 98726";"98726CG+RH5, Enarotali, Paniai Tim., Kabupaten Paniai";"PAPUA";"98726";"Indonesia";"";"";"";"-3.9275914";"136.3768071";"https://maps.google.com/?cid=0x0:0x85b0a5173db76ad0";""
"perumahan";"Komplek perumahan";"Kabupaten pania";"6966+WXW, Panibagata, Kebo, Kabupaten Paniai, Papua";"Kabupaten Paniai, Papua";"PAPUA";"";"Indonesia";"";"";"";"-3.7876441";"136.3624686";"https://maps.google.com/?cid=0x0:0xab7c6d2a74938ec2";""
"perumahan";"Pembangunan Perumahan";"Amoye sisko";"399H+55F, Enarotali, Paniai Tim., Kabupaten Paniai, Papua 98726";"Enarotali, Paniai Tim., Kabupaten Paniai";"PAPUA";"98726";"Indonesia";"";"";"";"-3.9327402";"136.3777542";"https://maps.google.com/?cid=0x0:0xa3d380f2f8da2963";""
"perumahan";"Komplek perumahan";"Enarotali";"39F7+CW5, Jalan poros, Enarotali, Paniai Tim., Kabupaten Paniai, Papua";"Kabupaten Paniai, Papua";"PAPUA";"";"Indonesia";"";"";"";"-3.9264917";"136.3648679";"https://maps.google.com/?cid=0x0:0xf563d37031a66f69";""
"perumahan";"Pembangunan Perumahan";"Pogei";"39F7+CW5, Pogei, Enarotali, Paniai Tim., Kabupaten Paniai, Papua";"Kabupaten Paniai, Papua";"PAPUA";"";"Indonesia";"";"";"";"-3.9264917";"136.3648679";"https://maps.google.com/?cid=0x0:0x5377c7abf015a84a";""
"perumahan";"Komplek perumahan";"Ekadise";"39CP+P2, Awabutu, Paniai Tim., Kabupaten Paniai, Papua 98726";"Awabutu, Paniai Tim., Kabupaten Paniai";"PAPUA";"98726";"Indonesia";"";"";"";"-3.9280533";"136.3844767";"https://maps.google.com/?cid=0x0:0xc5138a6962b0210b";""
"perumahan";"Serikat Mahasiswa";"Kampung Potewa";"28VP+J6, Epouto, Yatamo, Kabupaten Paniai, Papua 98764";"Epouto, Yatamo, Kabupaten Paniai";"PAPUA";"98764";"Indonesia";"";"";"";"-3.9559656";"136.3355191";"https://maps.google.com/?cid=0x0:0xeae7dfe8d1717bc6";""
"perumahan";"Komplek perumahan";"Rumah Byak";"39F7+CW5, Enarotali, Paniai Tim., Kabupaten Paniai, Papua";"Kabupaten Paniai, Papua";"PAPUA";"";"Indonesia";"";"";"";"-3.9264917";"136.3648679";"https://maps.google.com/?cid=0x0:0xc7c847ad77af495";""
"perumahan";"Pembangunan Perumahan";"KAMPUNG IPUWA";"59P2+W9, Panibagata, Kebo, Kabupaten Paniai, Papua";"Kabupaten Paniai, Papua";"PAPUA";"";"Indonesia";"";"";"";"-3.812679";"136.350965";"https://maps.google.com/?cid=0x0:0x6a7c2dbdefd7af2e";""
"perumahan";"Komplek perumahan";"Enarotali Toputo";"398G+PWX, Aikai, Paniai Tim., Kabupaten Paniai, Papua";"Kabupaten Paniai, Papua";"PAPUA";"";"Indonesia";"";"";"";"-3.9331278";"136.3773686";"https://maps.google.com/?cid=0x0:0xb17b7fc1a388d66b";""
"perumahan";"perumahan";"Kalo bobo putaran dua";"39CH+J34, Enarotali, Nabire, Kabupaten Nabire, Papua";"Kabupaten Nabire, Papua";"PAPUA";"";"Indonesia";"";"";"";"-3.9284882";"136.3776901";"https://maps.google.com/?cid=0x0:0xbef1f662f3227b61";""
"perumahan";"Gedung Apartemen";"RUMAH KELUARGA NAWIPA";"398F+F5, Aikai, Paniai Tim., Kabupaten Paniai, Papua 98726";"Aikai, Paniai Tim., Kabupaten Paniai";"PAPUA";"98726";"Indonesia";" 082117214007";"";"";"-3.9338276";"136.3729732";"https://maps.google.com/?cid=0x0:0xbbd21eae21f3c763";""
"perumahan";"Komplek perumahan";"Rumah Biak";"399G+PGW, Enarotali, Paniai Tim., Kabupaten Paniai, Papua 98726";"Enarotali, Paniai Tim., Kabupaten Paniai";"PAPUA";"98726";"Indonesia";"";"";"";"-3.929882";"136.3765556";"https://maps.google.com/?cid=0x0:0x303df156d9c78752";""
"perumahan";"Pembangunan Perumahan";"BAPOUDA";"Jalan raya uwatawogi yogi, Enarotali, Paniai Tim., Kabupaten Paniai, Papua 98726";"Enarotali, Paniai Tim., Kabupaten Paniai";"PAPUA";"98726";"Indonesia";"";"";"";"-3.9264917";"136.3648679";"https://maps.google.com/?cid=0x0:0x368e873cad0a6ff4";""
"perumahan";"Pembangunan Perumahan";"Kompleks Perumahan BKAD Madi";"3C3J+J2G, Umbutu / Uyubutu / Uwibutu, Paniai Tim., Kabupaten Paniai, Papua 98781";"Umbutu / Uyubutu / Uwibutu, Paniai Tim., Kabupaten Paniai";"PAPUA";"98781";"Indonesia";"";"";"";"-3.9459284";"136.430072";"https://maps.google.com/?cid=0x0:0x6aedb83f603b7ccf";""
"perumahan";"Pembangunan Perumahan";"Nunubado (RNB)";"398P+57, Enarotali, Paniai Tim., Kabupaten Paniai, Papua 98726";"Enarotali, Paniai Tim., Kabupaten Paniai";"PAPUA";"98726";"Indonesia";"";"";"";"-3.9344905";"136.3857202";"https://maps.google.com/?cid=0x0:0x2b6579c716baff5";""
"perumahan";"perumahan";"Papua 98854";"Papua";"Papua";"PAPUA";"";"Indonesia";"";"";"";"-3.4998572";"136.0944845";"https://maps.google.com/?cid=0x0:0x17ab1bd64156ee45";""
"perumahan";"Perhimpunan Pengembang Perumahan";"Perumahan Pemda Dogiyai";"X2VR+7MQ, Unnamed Road, Moanemani/ Ikebo, Kec. Kamu, Kabupaten Dogiyai, Papua 98862";"Unnamed Road, Moanemani/ Ikebo, Kec. Kamu, Kabupaten Dogiyai";"PAPUA";"98862";"Indonesia";"";"";"";"-4.0067795";"136.0417367";"https://maps.google.com/?cid=0x0:0x63f6bee82fd23540";""
"perumahan";"Pembangunan Perumahan";"Taumi";"P53Q+G2P, Tibai, Siriwo, Kabupaten Nabire, Papua 98784";"Tibai, Siriwo, Kabupaten Nabire";"PAPUA";"98784";"Indonesia";"";"";"";"-3.2964";"136.187";"https://maps.google.com/?cid=0x0:0xdcb4ede924703614";""
"perumahan";"perumahan";"Anita Hendra";"P2V9+97P, Manunggal Jaya, Makimi, Kabupaten Nabire, Papua";"Kabupaten Nabire, Papua";"PAPUA";"";"Indonesia";"";"";"";"-3.2565293";"136.018188";"https://maps.google.com/?cid=0x0:0x89ea6ff49f9f3fe";""
"perumahan";"Pembangunan Perumahan";"Atopa Permai";"2WMM+PWM, Bomomani, Distrik Mapia, Kabupaten Dogiyai, Papua 98854";"Bomomani, Distrik Mapia, Kabupaten Dogiyai";"PAPUA";"98854";"Indonesia";"";"";"";"-3.9637382";"135.935533";"https://maps.google.com/?cid=0x0:0x26f9fdd877f76425";""
"perumahan";"Komplek perumahan";"Simon kogaa";"223V+9QJ, Mauwa, Kec. Kamu, Kabupaten Dogiyai, Papua 98862";"Mauwa, Kec. Kamu, Kabupaten Dogiyai";"PAPUA";"98862";"Indonesia";"";"";"";"-3.9965419";"136.0444013";"https://maps.google.com/?cid=0x0:0x113e65aa52b105b";""
"perumahan";"Pembangunan Perumahan";"Moumito";"2WMM+PWM, Bomomani, Distrik Mapia, Kabupaten Dogiyai, Papua 98854";"Bomomani, Distrik Mapia, Kabupaten Dogiyai";"PAPUA";"98854";"Indonesia";"";"";"";"-3.964987";"135.93508";"https://maps.google.com/?cid=0x0:0xbd86f1b95860d860";""
"perumahan";"Pembangunan Perumahan";"Perumahan Guru";"GJ6F+3J, Urumusu, Kec. Uwapa, Kabupaten Nabire, Papua";"Kabupaten Nabire, Papua";"PAPUA";"";"Indonesia";" 082199500265";"";"";"-3.4891696";"135.6242858";"https://maps.google.com/?cid=0x0:0x9a3496aa2d82b228";""
"perumahan";"perumahan";"Jembatan Kali Makamo Bukapa";"X2WP+P6C, Moanemani/ Ikebo, Kec. Kamu, Kabupaten Dogiyai, Papua 98862";"Moanemani/ Ikebo, Kec. Kamu, Kabupaten Dogiyai";"PAPUA";"98862";"Indonesia";"";"";"";"-4.003181";"136.0355162";"https://maps.google.com/?cid=0x0:0xe3511e210ea75b7c";""
"perumahan";"Pembangunan Perumahan";"Kampung Gopouya";"3W4W+8G9, Gapoya, Distrik Mapia, Kabupaten Dogiyai, Papua 98854";"Gapoya, Distrik Mapia, Kabupaten Dogiyai";"PAPUA";"98854";"Indonesia";"";"";"";"-3.9442119";"135.9463645";"https://maps.google.com/?cid=0x0:0xde05eb88decd7fc";""
"perumahan";"Komplek perumahan";"PLTS Tanah merah";"R6GV+8F, Mabou, Siriwo, Kabupaten Nabire, Papua";"Kabupaten Nabire, Papua";"PAPUA";"";"Indonesia";"";"";"";"-3.1741927";"136.2436592";"https://maps.google.com/?cid=0x0:0xb605e4850ea6c64";""
"perumahan";"Pembangunan Perumahan";"Bogobaida";"97J7+GG, Uwagi, Bogobaida, Kabupaten Paniai, Papua 98854";"Uwagi, Bogobaida, Kabupaten Paniai";"PAPUA";"98854";"Indonesia";"";"";"";"-3.6186298";"136.263872";"https://maps.google.com/?cid=0x0:0x9327a9b529431789";""
"perumahan";"Komplek perumahan";"Perumahan Kontainer";"Madi, Paniai Tim., Kabupaten Paniai, Papua 98781";"Paniai Tim., Kabupaten Paniai";"PAPUA";"98781";"Indonesia";"";"";"";"-3.947805";"136.4304397";"https://maps.google.com/?cid=0x0:0xe6048b774b0c1534";""
"perumahan";"perumahan";"Kuburan";"2WHG+WJ, Kigamani, Kec. Dogiyai, Kabupaten Dogiyai, Papua";"Kabupaten Dogiyai, Papua";"PAPUA";"";"Indonesia";"";"";"";"-3.9702494";"135.9265389";"https://maps.google.com/?cid=0x0:0x380445cff11aac89";""
"perumahan";"Komplek perumahan";"rumah minto bere";"RQ9J+3W, Legari Jaya, Makimi, Kabupaten Nabire, Papua";"Kabupaten Nabire, Papua";"PAPUA";"";"Indonesia";"";"";"";"-3.1822763";"135.7822439";"https://maps.google.com/?cid=0x0:0x8e6936930b05110a";""
"perumahan";"Pembangunan Perumahan";"Kalikasuari, dogiyai";"XXQW+8G8, Abgoigi / Digimani, Kec. Dogiyai, Kabupaten Dogiyai, Papua";"Kabupaten Dogiyai, Papua";"PAPUA";"";"Indonesia";"";"";"";"-4.0117207";"135.9963258";"https://maps.google.com/?cid=0x0:0x63940a06da5b919e";""
"perumahan";"Pembangunan Perumahan";"Tibai";"M8X4+56G, Tibai, Siriwo, Kabupaten Nabire, Papua";"Kabupaten Nabire, Papua";"PAPUA";"";"Indonesia";"";"";"";"-3.3020617";"136.305585";"https://maps.google.com/?cid=0x0:0xa9c9c7dfc45c4f6a";""
"perumahan";"Pembangunan Perumahan";"Bogaapakebo";"2WPP+GXQ, Bomomani, Distrik Mapia, Kabupaten Dogiyai, Papua 98854";"Bomomani, Distrik Mapia, Kabupaten Dogiyai";"PAPUA";"98854";"Indonesia";"";"";"";"-3.9648533";"135.9376118";"https://maps.google.com/?cid=0x0:0xc85a747f6c52178c";""
"perumahan";"Komplek perumahan";"Desa Ekemanida";"X2VP+7RV, Moanemani/ Ikebo, Kec. Dogiyai, Kabupaten Dogiyai, Papua";"Kabupaten Dogiyai, Papua";"PAPUA";"";"Indonesia";"";"";"";"-4.0067511";"136.0370338";"https://maps.google.com/?cid=0x0:0x3b147f0215dadb88";""
"perumahan";"Komplek perumahan";"rumah saniman";"RQFG+F8, Legari Jaya, Makimi, Kabupaten Nabire, Papua";"Kabupaten Nabire, Papua";"PAPUA";"";"Indonesia";"";"";"";"-3.1763254";"135.7756596";"https://maps.google.com/?cid=0x0:0x667544c0af57e157";""
"perumahan";"perumahan";"Papua 98715";"Kabupaten Paniai, Papua";"Kabupaten Paniai, Papua";"PAPUA";"";"Indonesia";"";"";"";"-3.8146561";"136.4296942";"https://maps.google.com/?cid=0x0:0x49e2a3ef18e7312b";""
"perumahan";"Pembangunan Perumahan";"Kompleks Perumahan BKAD Madi";"3C3J+J2G, Umbutu / Uyubutu / Uwibutu, Paniai Tim., Kabupaten Paniai, Papua 98781";"Umbutu / Uyubutu / Uwibutu, Paniai Tim., Kabupaten Paniai";"PAPUA";"98781";"Indonesia";"";"";"";"-3.9459284";"136.430072";"https://maps.google.com/?cid=0x0:0x6aedb83f603b7ccf";""
"perumahan";"Pembangunan Perumahan";"RUMAH OSEA SATU BOMA";"597M+6V, Awebutu, Kebo, Kabupaten Paniai, Papua";"Kabupaten Paniai, Papua";"PAPUA";"";"Indonesia";"";"";"";"-3.8369759";"136.3847307";"https://maps.google.com/?cid=0x0:0x7689ac07f99e3f7c";""
"perumahan";"Pembangunan Perumahan";"BAPOUDA";"Jalan raya uwatawogi yogi, Enarotali, Paniai Tim., Kabupaten Paniai, Papua 98726";"Enarotali, Paniai Tim., Kabupaten Paniai";"PAPUA";"98726";"Indonesia";"";"";"";"-3.9264917";"136.3648679";"https://maps.google.com/?cid=0x0:0x368e873cad0a6ff4";""
"perumahan";"Kompleks Bangunan Perusahaan";"Kompleks nusantara sehat madi";"2CXJ+CP, Umbutu / Uyubutu / Uwibutu, Paniai Tim., Kabupaten Paniai, Papua 98781";"Umbutu / Uyubutu / Uwibutu, Paniai Tim., Kabupaten Paniai";"PAPUA";"98781";"Indonesia";"";"";"";"-3.9514133";"136.4320732";"https://maps.google.com/?cid=0x0:0xa1926f6e29e86a0c";""
"perumahan";"Balai masyarakat";"Kampung Debaye Paniai papua";"5CJR+54, Debaye, Toyaimoti, Kec. Aradide, Kabupaten Paniai, Papua";"Kabupaten Paniai, Papua";"PAPUA";"";"Indonesia";"";"";"";"-3.8192988";"136.4402333";"https://maps.google.com/?cid=0x0:0x166b07b96809e678";""
"perumahan";"perumahan";"Pududa";"36WG+FJ, Beko, Distrik Paniai Barat, Kabupaten Paniai, Papua";"Kabupaten Paniai, Papua";"PAPUA";"";"Indonesia";"";"";"";"-3.9037708";"136.2265702";"https://maps.google.com/?cid=0x0:0x6db8f3566aa0c844";""
"perumahan";"Pembangunan Perumahan";"Pogei";"39F7+CW5, Pogei, Enarotali, Paniai Tim., Kabupaten Paniai, Papua";"Kabupaten Paniai, Papua";"PAPUA";"";"Indonesia";"";"";"";"-3.9264917";"136.3648679";"https://maps.google.com/?cid=0x0:0x5377c7abf015a84a";""
"perumahan";"Komplek perumahan";"Kopabaida";"5C6W+F5, Agapo / Widimeida, Distrik Ekadide, Kabupaten Paniai, Papua";"Kabupaten Paniai, Papua";"PAPUA";"";"Indonesia";"";"";"";"-3.83878";"136.4455767";"https://maps.google.com/?cid=0x0:0x61240e0ed52f213";""
"perumahan";"Perhimpunan Pengembang Perumahan";"IYAIPUGI";"39CG+XP7 Tim, 98726CG+RH5, Enarotali, Paniai Tim., Kabupaten Paniai, Papua 98726";"98726CG+RH5, Enarotali, Paniai Tim., Kabupaten Paniai";"PAPUA";"98726";"Indonesia";"";"";"";"-3.9275914";"136.3768071";"https://maps.google.com/?cid=0x0:0x85b0a5173db76ad0";""
"perumahan";"perumahan";"UWOWAA";"37J2+XC2, Obano, Distrik Paniai Barat, Kabupaten Paniai, Papua 98726";"Obano, Distrik Paniai Barat, Kabupaten Paniai";"PAPUA";"98726";"Indonesia";"";"";"";"-3.9168419";"136.2505927";"https://maps.google.com/?cid=0x0:0xcf61a0552ee6fbab";""
"perumahan";"Komplek perumahan";"Perumahan Kontainer";"Madi, Paniai Tim., Kabupaten Paniai, Papua 98781";"Paniai Tim., Kabupaten Paniai";"PAPUA";"98781";"Indonesia";"";"";"";"-3.947805";"136.4304397";"https://maps.google.com/?cid=0x0:0xe6048b774b0c1534";""
"perumahan";"Komplek perumahan";"𝗡𝗔𝗚𝗜𝗠𝗔𝗡𝗜𝗜𝗗𝗔,𝗔𝗚𝗔𝗣𝗢";"4FM6+H5H, Obaipugaida, Distrik Ekadide, Kabupaten Paniai, Papua";"Kabupaten Paniai, Papua";"PAPUA";"";"Indonesia";"";"";"";"-3.866059";"136.4604926";"https://maps.google.com/?cid=0x0:0xf0e0110d9d8dc9fc";""
"perumahan";"Serikat Mahasiswa";"Kampung Potewa";"28VP+J6, Epouto, Yatamo, Kabupaten Paniai, Papua 98764";"Epouto, Yatamo, Kabupaten Paniai";"PAPUA";"98764";"Indonesia";"";"";"";"-3.9559656";"136.3355191";"https://maps.google.com/?cid=0x0:0xeae7dfe8d1717bc6";""
"perumahan";"Komplek perumahan";"Rumah Byak";"39F7+CW5, Enarotali, Paniai Tim., Kabupaten Paniai, Papua";"Kabupaten Paniai, Papua";"PAPUA";"";"Indonesia";"";"";"";"-3.9264917";"136.3648679";"https://maps.google.com/?cid=0x0:0xc7c847ad77af495";""
"perumahan";"Komplek perumahan";"Wouyebutu Konteiner madi";"399J+6G7, Awabutu, Paniai Tim., Kabupaten Paniai, Papua";"Kabupaten Paniai, Papua";"PAPUA";"";"Indonesia";"";"";"";"-3.9319578";"136.3812971";"https://maps.google.com/?cid=0x0:0x6665461bcbf16630";""
"perumahan";"Komplek perumahan";"Kabupaten pania";"6966+WXW, Panibagata, Kebo, Kabupaten Paniai, Papua";"Kabupaten Paniai, Papua";"PAPUA";"";"Indonesia";"";"";"";"-3.7876441";"136.3624686";"https://maps.google.com/?cid=0x0:0xab7c6d2a74938ec2";""
"perumahan";"Komplek perumahan";"Enarotali";"39F7+CW5, Jalan poros, Enarotali, Paniai Tim., Kabupaten Paniai, Papua";"Kabupaten Paniai, Papua";"PAPUA";"";"Indonesia";"";"";"";"-3.9264917";"136.3648679";"https://maps.google.com/?cid=0x0:0xf563d37031a66f69";""
"perumahan";"Komplek perumahan";"Gideon Kambar (Kampung Baru)";"3C5F+WPR, Madi, Paniai Tim., Kabupaten Paniai, Papua";"Kabupaten Paniai, Papua";"PAPUA";"";"Indonesia";"";"";"";"-3.9401444";"136.424263";"https://maps.google.com/?cid=0x0:0xb43a3e776decddc6";""
"perumahan";"Komplek perumahan";"Rumah Biak";"399G+PGW, Enarotali, Paniai Tim., Kabupaten Paniai, Papua 98726";"Enarotali, Paniai Tim., Kabupaten Paniai";"PAPUA";"98726";"Indonesia";"";"";"";"-3.929882";"136.3765556";"https://maps.google.com/?cid=0x0:0x303df156d9c78752";""
"perumahan";"Pembangunan Perumahan";"MUYABADI DINUWATIYA";"5FM8+CC, Deta, Kec. Aradide, Kabupaten Paniai, Papua";"Kabupaten Paniai, Papua";"PAPUA";"";"Indonesia";"";"";"";"-3.8163598";"136.4660195";"https://maps.google.com/?cid=0x0:0xd7833aa56be95bef";""
"perumahan";"Komplek perumahan";"Keboy";"Blk. G Jl. Perum Pd. Cileungsi Permai No.7, RT.03/RW.12, Cileungsi, Kec. Cileungsi, Kabupaten Bogor, Jawa Barat 16820";"RT.03/RW.12, Cileungsi, Kec. Cileungsi, Kabupaten Bogor";"PAPUA";"16820";"Indonesia";"";"";"";"-6.4029776";"106.967966";"https://maps.google.com/?cid=0x0:0x25c93833c18df489";""
"perumahan";"Komplek perumahan";"Pondok Cileungsi Permai";"Pondok, Jl. Perum Pd. Cileungsi Permai blok i No.04, Cileungsi, Kec. Cileungsi, Kabupaten Bogor, Jawa Barat 16820";"Jl. Perum Pd. Cileungsi Permai blok i No.04, Cileungsi, Kec. Cileungsi, Kabupaten Bogor";"PAPUA";"16820";"Indonesia";"";"";"";"-6.4022164";"106.9673038";"https://maps.google.com/?cid=0x0:0x3cefb5303fa4189d";""
"perumahan";"perumahan";"Papua 98717";"Kabupaten Paniai, Papua";"Kabupaten Paniai, Papua";"PAPUA";"";"Indonesia";"";"";"";"-3.8281863";"136.4633415";"https://maps.google.com/?cid=0x0:0x2af5ed16e2ee7c74";""
"perumahan";"Balai masyarakat";"Kampung Debaye Paniai papua";"5CJR+54, Debaye, Toyaimoti, Kec. Aradide, Kabupaten Paniai, Papua";"Kabupaten Paniai, Papua";"PAPUA";"";"Indonesia";"";"";"";"-3.8192988";"136.4402333";"https://maps.google.com/?cid=0x0:0x166b07b96809e678";""
"perumahan";"Komplek perumahan";"Kopabaida";"5C6W+F5, Agapo / Widimeida, Distrik Ekadide, Kabupaten Paniai, Papua";"Kabupaten Paniai, Papua";"PAPUA";"";"Indonesia";"";"";"";"-3.83878";"136.4455767";"https://maps.google.com/?cid=0x0:0x61240e0ed52f213";""
"perumahan";"Pembangunan Perumahan";"Mabuwagi tadii";"5FC8+9W, Deta, Kec. Aradide, Kabupaten Paniai, Papua";"Kabupaten Paniai, Papua";"PAPUA";"";"Indonesia";"";"";"";"-3.8291232";"136.4672937";"https://maps.google.com/?cid=0x0:0x2f31b822f01e339";""
"perumahan";"Komplek perumahan";"Keboy";"Blk. G Jl. Perum Pd. Cileungsi Permai No.7, RT.03/RW.12, Cileungsi, Kec. Cileungsi, Kabupaten Bogor, Jawa Barat 16820";"RT.03/RW.12, Cileungsi, Kec. Cileungsi, Kabupaten Bogor";"PAPUA";"16820";"Indonesia";"";"";"";"-6.4029776";"106.967966";"https://maps.google.com/?cid=0x0:0x25c93833c18df489";""
"perumahan";"Komplek perumahan";"Cluster kebagusan 67";"MRRG+XX5, Jl. Kebagusan Raya, RT.9/RW.7, Kebagusan, Ps. Minggu, Kota Jakarta Selatan, Daerah Khusus Ibukota Jakarta";"Kota Jakarta Selatan, Daerah Khusus Ibukota Jakarta";"PAPUA";"";"Indonesia";"";"";"";"-6.3077399";"106.8275799";"https://maps.google.com/?cid=0x0:0x518a30a8a0bd9691";""
"perumahan";"Perumahan";"Jatipadang Townhouse";"Jl. Kebagusan Raya No.8, RT.7/RW.5, Kebagusan, Ps. Minggu, Kota Jakarta Selatan, Daerah Khusus Ibukota Jakarta 12520";"RT.7/RW.5, Kebagusan, Ps. Minggu, Kota Jakarta Selatan";"PAPUA";"12520";"Indonesia";"";"";"";"-6.3125379";"106.8262283";"https://maps.google.com/?cid=0x0:0x671a1e08cf13ca42";""
"perumahan";"perumahan";"Kebo";"Kabupaten Paniai, Papua";"Kabupaten Paniai, Papua";"PAPUA";"";"Indonesia";"";"";"";"-3.8208593";"136.3865587";"https://maps.google.com/?cid=0x0:0x965b313c4d48e7ae";""
"perumahan";"Pembangunan Perumahan";"RUMAH OSEA SATU BOMA";"597M+6V, Awebutu, Kebo, Kabupaten Paniai, Papua";"Kabupaten Paniai, Papua";"PAPUA";"";"Indonesia";"";"";"";"-3.8369759";"136.3847307";"https://maps.google.com/?cid=0x0:0x7689ac07f99e3f7c";""
"perumahan";"Komplek perumahan";"Kabupaten pania";"6966+WXW, Panibagata, Kebo, Kabupaten Paniai, Papua";"Kabupaten Paniai, Papua";"PAPUA";"";"Indonesia";"";"";"";"-3.7876441";"136.3624686";"https://maps.google.com/?cid=0x0:0xab7c6d2a74938ec2";""
"perumahan";"Pembangunan Perumahan";"KAMPUNG IPUWA";"59P2+W9, Panibagata, Kebo, Kabupaten Paniai, Papua";"Kabupaten Paniai, Papua";"PAPUA";"";"Indonesia";"";"";"";"-3.812679";"136.350965";"https://maps.google.com/?cid=0x0:0x6a7c2dbdefd7af2e";""
"perumahan";"Hostel";"Rumah keluarga gobay";"692G+2PH, Kebo II, Kebo, Kabupaten Paniai, Papua";"Kabupaten Paniai, Papua";"PAPUA";"";"Indonesia";"";"";"";"-3.799932";"136.3768663";"https://maps.google.com/?cid=0x0:0xc3b843f20793bd92";""
"perumahan";"Komplek perumahan";"Kopabaida";"5C6W+F5, Agapo / Widimeida, Distrik Ekadide, Kabupaten Paniai, Papua";"Kabupaten Paniai, Papua";"PAPUA";"";"Indonesia";"";"";"";"-3.83878";"136.4455767";"https://maps.google.com/?cid=0x0:0x61240e0ed52f213";""
"perumahan";"Pembangunan Perumahan";"Desa ukauwo";"57G6+9H, Kito, Distrik Paniai Barat, Kabupaten Paniai, Papua 98763";"Kito, Distrik Paniai Barat, Kabupaten Paniai";"PAPUA";"98763";"Indonesia";"";"";"";"-3.8240727";"136.2613368";"https://maps.google.com/?cid=0x0:0x7c526562566b61fe";""
"perumahan";"Pembangunan Perumahan";"Desa waidide";"6966+WXW, Panibagata, Kebo, Kabupaten Paniai, Papua";"Kabupaten Paniai, Papua";"PAPUA";"";"Indonesia";" 081215746823";"";"";"-3.7876441";"136.3624686";"https://maps.google.com/?cid=0x0:0xf0e4aa086e296a73";""
"perumahan";"Komplek perumahan";"Rumah";"V862+3F6, Mulyojati, Kec. Metro Bar., Kota Metro, Lampung";"Kota Metro, Lampung";"PAPUA";"";"Indonesia";"";"";"";"-5.1398421";"105.3011427";"https://maps.google.com/?cid=0x0:0x1fdae239fa5486f5";""
"perumahan";"Komplek perumahan";"Rumah metro A";"V75X+Q28, Mulyojati, Kec. Metro Bar., Kota Metro, Lampung 34121";"Mulyojati, Kec. Metro Bar., Kota Metro";"PAPUA";"34121";"Indonesia";"";"";"";"-5.1406795";"105.2975326";"https://maps.google.com/?cid=0x0:0x20529a656242293e";""
"perumahan";"perumahan";"Papua 98719";"Distrik Ekadide, Kabupaten Paniai, Papua";"Kabupaten Paniai, Papua";"PAPUA";"";"Indonesia";"";"";"";"-3.8701022";"136.5836972";"https://maps.google.com/?cid=0x0:0x46cb5eccbd6243ee";""
"perumahan";"Pembangunan Perumahan";"RUMAH OSEA SATU BOMA";"597M+6V, Awebutu, Kebo, Kabupaten Paniai, Papua";"Kabupaten Paniai, Papua";"PAPUA";"";"Indonesia";"";"";"";"-3.8369759";"136.3847307";"https://maps.google.com/?cid=0x0:0x7689ac07f99e3f7c";""
"perumahan";"Komplek perumahan";"Kabupaten pania";"6966+WXW, Panibagata, Kebo, Kabupaten Paniai, Papua";"Kabupaten Paniai, Papua";"PAPUA";"";"Indonesia";"";"";"";"-3.7876441";"136.3624686";"https://maps.google.com/?cid=0x0:0xab7c6d2a74938ec2";""
"perumahan";"Balai masyarakat";"Kampung Debaye Paniai papua";"5CJR+54, Debaye, Toyaimoti, Kec. Aradide, Kabupaten Paniai, Papua";"Kabupaten Paniai, Papua";"PAPUA";"";"Indonesia";"";"";"";"-3.8192988";"136.4402333";"https://maps.google.com/?cid=0x0:0x166b07b96809e678";""
"perumahan";"Komplek perumahan";"Kopabaida";"5C6W+F5, Agapo / Widimeida, Distrik Ekadide, Kabupaten Paniai, Papua";"Kabupaten Paniai, Papua";"PAPUA";"";"Indonesia";"";"";"";"-3.83878";"136.4455767";"https://maps.google.com/?cid=0x0:0x61240e0ed52f213";""
"perumahan";"Hostel";"Rumah keluarga gobay";"692G+2PH, Kebo II, Kebo, Kabupaten Paniai, Papua";"Kabupaten Paniai, Papua";"PAPUA";"";"Indonesia";"";"";"";"-3.799932";"136.3768663";"https://maps.google.com/?cid=0x0:0xc3b843f20793bd92";""
"perumahan";"Pembangunan Perumahan";"Badau";"4C4M+3Q9, Badauwo, Paniai Tim., Kabupaten Paniai, Papua 98712";"Badauwo, Paniai Tim., Kabupaten Paniai";"PAPUA";"98712";"Indonesia";"";"";"";"-3.8948354";"136.4344996";"https://maps.google.com/?cid=0x0:0x5fe4d96e511d06c6";""
"perumahan";"Komplek perumahan";"Keboy";"Blk. G Jl. Perum Pd. Cileungsi Permai No.7, RT.03/RW.12, Cileungsi, Kec. Cileungsi, Kabupaten Bogor, Jawa Barat 16820";"RT.03/RW.12, Cileungsi, Kec. Cileungsi, Kabupaten Bogor";"PAPUA";"16820";"Indonesia";"";"";"";"-6.4029776";"106.967966";"https://maps.google.com/?cid=0x0:0x25c93833c18df489";""
"perumahan";"Komplek perumahan";"Pondok Cileungsi Permai";"Pondok, Jl. Perum Pd. Cileungsi Permai blok i No.04, Cileungsi, Kec. Cileungsi, Kabupaten Bogor, Jawa Barat 16820";"Jl. Perum Pd. Cileungsi Permai blok i No.04, Cileungsi, Kec. Cileungsi, Kabupaten Bogor";"PAPUA";"16820";"Indonesia";"";"";"";"-6.4022164";"106.9673038";"https://maps.google.com/?cid=0x0:0x3cefb5303fa4189d";""
"perumahan";"perumahan";"Papua 98721";"Bogobaida, Kabupaten Paniai, Papua";"Kabupaten Paniai, Papua";"PAPUA";"";"Indonesia";"";"";"";"-3.7200255";"136.3720666";"https://maps.google.com/?cid=0x0:0x266f7434beb6f8f1";""
"perumahan";"Komplek perumahan";"Kabupaten pania";"6966+WXW, Panibagata, Kebo, Kabupaten Paniai, Papua";"Kabupaten Paniai, Papua";"PAPUA";"";"Indonesia";"";"";"";"-3.7876441";"136.3624686";"https://maps.google.com/?cid=0x0:0xab7c6d2a74938ec2";""
"perumahan";"Pembangunan Perumahan";"SAMUEL Y. BOMOPA";"79JG+WW, Bogobaida / Bogodide, Bogobaida, Kabupaten Paniai, Papua";"Kabupaten Paniai, Papua";"PAPUA";"";"Indonesia";"";"";"";"-3.7176709";"136.3772257";"https://maps.google.com/?cid=0x0:0x27e722586bbbeefa";""
"perumahan";"perumahan";"Papua 98722";"Paniai Tim., Kabupaten Paniai, Papua";"Kabupaten Paniai, Papua";"PAPUA";"";"Indonesia";"";"";"";"-3.9261758";"136.5066359";"https://maps.google.com/?cid=0x0:0xc8074bbd911fd05a";""
"perumahan";"Komplek perumahan";"Kabupaten pania";"6966+WXW, Panibagata, Kebo, Kabupaten Paniai, Papua";"Kabupaten Paniai, Papua";"PAPUA";"";"Indonesia";"";"";"";"-3.7876441";"136.3624686";"https://maps.google.com/?cid=0x0:0xab7c6d2a74938ec2";""
"perumahan";"Pembangunan Perumahan";"RUMAH OSEA SATU BOMA";"597M+6V, Awebutu, Kebo, Kabupaten Paniai, Papua";"Kabupaten Paniai, Papua";"PAPUA";"";"Indonesia";"";"";"";"-3.8369759";"136.3847307";"https://maps.google.com/?cid=0x0:0x7689ac07f99e3f7c";""
"perumahan";"Pembangunan Perumahan";"Kompleks Perumahan BKAD Madi";"3C3J+J2G, Umbutu / Uyubutu / Uwibutu, Paniai Tim., Kabupaten Paniai, Papua 98781";"Umbutu / Uyubutu / Uwibutu, Paniai Tim., Kabupaten Paniai";"PAPUA";"98781";"Indonesia";"";"";"";"-3.9459284";"136.430072";"https://maps.google.com/?cid=0x0:0x6aedb83f603b7ccf";""
"perumahan";"Komplek perumahan";"Perumahan Kontainer";"Madi, Paniai Tim., Kabupaten Paniai, Papua 98781";"Paniai Tim., Kabupaten Paniai";"PAPUA";"98781";"Indonesia";"";"";"";"-3.947805";"136.4304397";"https://maps.google.com/?cid=0x0:0xe6048b774b0c1534";""
"perumahan";"Hostel";"Rumah keluarga gobay";"692G+2PH, Kebo II, Kebo, Kabupaten Paniai, Papua";"Kabupaten Paniai, Papua";"PAPUA";"";"Indonesia";"";"";"";"-3.799932";"136.3768663";"https://maps.google.com/?cid=0x0:0xc3b843f20793bd92";""
"perumahan";"Komplek perumahan";"Gideon Kambar (Kampung Baru)";"3C5F+WPR, Madi, Paniai Tim., Kabupaten Paniai, Papua";"Kabupaten Paniai, Papua";"PAPUA";"";"Indonesia";"";"";"";"-3.9401444";"136.424263";"https://maps.google.com/?cid=0x0:0xb43a3e776decddc6";""
"perumahan";"Serikat Mahasiswa";"Kampung Potewa";"28VP+J6, Epouto, Yatamo, Kabupaten Paniai, Papua 98764";"Epouto, Yatamo, Kabupaten Paniai";"PAPUA";"98764";"Indonesia";"";"";"";"-3.9559656";"136.3355191";"https://maps.google.com/?cid=0x0:0xeae7dfe8d1717bc6";""
"perumahan";"Balai masyarakat";"Kampung Debaye Paniai papua";"5CJR+54, Debaye, Toyaimoti, Kec. Aradide, Kabupaten Paniai, Papua";"Kabupaten Paniai, Papua";"PAPUA";"";"Indonesia";"";"";"";"-3.8192988";"136.4402333";"https://maps.google.com/?cid=0x0:0x166b07b96809e678";""
"perumahan";"Pembangunan Perumahan";"KAMPUNG IPUWA";"59P2+W9, Panibagata, Kebo, Kabupaten Paniai, Papua";"Kabupaten Paniai, Papua";"PAPUA";"";"Indonesia";"";"";"";"-3.812679";"136.350965";"https://maps.google.com/?cid=0x0:0x6a7c2dbdefd7af2e";""
"perumahan";"Komplek perumahan";"PUPUDA WEGOMANA PANIAI";"3C8Q+JGC, Kopo, Paniai Tim., Kabupaten Paniai, Papua";"Kabupaten Paniai, Papua";"PAPUA";"";"Indonesia";"";"";"";"-3.9334319";"136.438752";"https://maps.google.com/?cid=0x0:0x85fd6c0a88361497";""
"perumahan";"Komplek perumahan";"APO KOPO";"3C4M+RF3, Kopo, Paniai Tim., Kabupaten Paniai, Papua";"Kabupaten Paniai, Papua";"PAPUA";"";"Indonesia";"";"";"";"-3.9429831";"136.4336622";"https://maps.google.com/?cid=0x0:0x6d564546ec6827e2";""
"perumahan";"Komplek perumahan";"Ekadise";"39CP+P2, Awabutu, Paniai Tim., Kabupaten Paniai, Papua 98726";"Awabutu, Paniai Tim., Kabupaten Paniai";"PAPUA";"98726";"Indonesia";"";"";"";"-3.9280533";"136.3844767";"https://maps.google.com/?cid=0x0:0xc5138a6962b0210b";""
"perumahan";"Komplek perumahan";"𝗡𝗔𝗚𝗜𝗠𝗔𝗡𝗜𝗜𝗗𝗔,𝗔𝗚𝗔𝗣𝗢";"4FM6+H5H, Obaipugaida, Distrik Ekadide, Kabupaten Paniai, Papua";"Kabupaten Paniai, Papua";"PAPUA";"";"Indonesia";"";"";"";"-3.866059";"136.4604926";"https://maps.google.com/?cid=0x0:0xf0e0110d9d8dc9fc";""
"perumahan";"Komplek perumahan";"Wouyebutu Konteiner madi";"399J+6G7, Awabutu, Paniai Tim., Kabupaten Paniai, Papua";"Kabupaten Paniai, Papua";"PAPUA";"";"Indonesia";"";"";"";"-3.9319578";"136.3812971";"https://maps.google.com/?cid=0x0:0x6665461bcbf16630";""
"perumahan";"Pembangunan Perumahan";"Desa waidide";"6966+WXW, Panibagata, Kebo, Kabupaten Paniai, Papua";"Kabupaten Paniai, Papua";"PAPUA";"";"Indonesia";" 081215746823";"";"";"-3.7876441";"136.3624686";"https://maps.google.com/?cid=0x0:0xf0e4aa086e296a73";""
"perumahan";"perumahan";"N/A";"";"";"PAPUA";"";"Indonesia";" 081342139995";"";"";"-3.936138";"136.369307";"https://maps.google.com/?cid=0x0:0x86eff33fc0af4b71";""
"perumahan";"Komplek perumahan";"Rumah Biak";"399G+PGW, Enarotali, Paniai Tim., Kabupaten Paniai, Papua 98726";"Enarotali, Paniai Tim., Kabupaten Paniai";"PAPUA";"98726";"Indonesia";"";"";"";"-3.929882";"136.3765556";"https://maps.google.com/?cid=0x0:0x303df156d9c78752";""
"perumahan";"Komplek perumahan";"KOPOPO";"3C5Q+25, Kopo, Paniai Tim., Kabupaten Paniai, Papua";"Kabupaten Paniai, Papua";"PAPUA";"";"Indonesia";"";"";"";"-3.9424617";"136.4379779";"https://maps.google.com/?cid=0x0:0xe5e362b0ed3bc918";""
"perumahan";"Pembangunan Perumahan";"Pogei";"39F7+CW5, Pogei, Enarotali, Paniai Tim., Kabupaten Paniai, Papua";"Kabupaten Paniai, Papua";"PAPUA";"";"Indonesia";"";"";"";"-3.9264917";"136.3648679";"https://maps.google.com/?cid=0x0:0x5377c7abf015a84a";""
"perumahan";"Komplek perumahan";"Keboy";"Blk. G Jl. Perum Pd. Cileungsi Permai No.7, RT.03/RW.12, Cileungsi, Kec. Cileungsi, Kabupaten Bogor, Jawa Barat 16820";"RT.03/RW.12, Cileungsi, Kec. Cileungsi, Kabupaten Bogor";"PAPUA";"16820";"Indonesia";"";"";"";"-6.4029776";"106.967966";"https://maps.google.com/?cid=0x0:0x25c93833c18df489";""
"perumahan";"Komplek perumahan";"Pondok Cileungsi Permai";"Pondok, Jl. Perum Pd. Cileungsi Permai blok i No.04, Cileungsi, Kec. Cileungsi, Kabupaten Bogor, Jawa Barat 16820";"Jl. Perum Pd. Cileungsi Permai blok i No.04, Cileungsi, Kec. Cileungsi, Kabupaten Bogor";"PAPUA";"16820";"Indonesia";"";"";"";"-6.4022164";"106.9673038";"https://maps.google.com/?cid=0x0:0x3cefb5303fa4189d";""
"perumahan";"perumahan";"Papua 98723";"Kebo, Kabupaten Paniai, Papua";"Kabupaten Paniai, Papua";"PAPUA";"";"Indonesia";"";"";"";"-3.811015";"136.3720666";"https://maps.google.com/?cid=0x0:0xfa8d4ab6a47490f0";""
"perumahan";"Pembangunan Perumahan";"RUMAH OSEA SATU BOMA";"597M+6V, Awebutu, Kebo, Kabupaten Paniai, Papua";"Kabupaten Paniai, Papua";"PAPUA";"";"Indonesia";"";"";"";"-3.8369759";"136.3847307";"https://maps.google.com/?cid=0x0:0x7689ac07f99e3f7c";""
"perumahan";"Komplek perumahan";"Kabupaten pania";"6966+WXW, Panibagata, Kebo, Kabupaten Paniai, Papua";"Kabupaten Paniai, Papua";"PAPUA";"";"Indonesia";"";"";"";"-3.7876441";"136.3624686";"https://maps.google.com/?cid=0x0:0xab7c6d2a74938ec2";""
"perumahan";"perumahan";"Kebo";"Kabupaten Paniai, Papua";"Kabupaten Paniai, Papua";"PAPUA";"";"Indonesia";"";"";"";"-3.8208593";"136.3865587";"https://maps.google.com/?cid=0x0:0x965b313c4d48e7ae";""
"perumahan";"Hostel";"Rumah keluarga gobay";"692G+2PH, Kebo II, Kebo, Kabupaten Paniai, Papua";"Kabupaten Paniai, Papua";"PAPUA";"";"Indonesia";"";"";"";"-3.799932";"136.3768663";"https://maps.google.com/?cid=0x0:0xc3b843f20793bd92";""
"perumahan";"Komplek perumahan";"Keboy";"Blk. G Jl. Perum Pd. Cileungsi Permai No.7, RT.03/RW.12, Cileungsi, Kec. Cileungsi, Kabupaten Bogor, Jawa Barat 16820";"RT.03/RW.12, Cileungsi, Kec. Cileungsi, Kabupaten Bogor";"PAPUA";"16820";"Indonesia";"";"";"";"-6.4029776";"106.967966";"https://maps.google.com/?cid=0x0:0x25c93833c18df489";""
"perumahan";"Pembangunan Perumahan";"Kebot";"R69J+7HP, Jl. Bakung, Karangpatri, Kec. Pebayuran, Kabupaten Bekasi, Jawa Barat 17710";"Jl. Bakung, Karangpatri, Kec. Pebayuran, Kabupaten Bekasi";"PAPUA";"17710";"Indonesia";"";"";"";"-6.1817946";"107.2314535";"https://maps.google.com/?cid=0x0:0x722b539cad15437e";""
"perumahan";"perumahan";"Papua 98715";"Kabupaten Paniai, Papua";"Kabupaten Paniai, Papua";"PAPUA";"";"Indonesia";"";"";"";"-3.8146561";"136.4296942";"https://maps.google.com/?cid=0x0:0x49e2a3ef18e7312b";""
"perumahan";"Komplek perumahan";"Perumahan Kontainer";"Madi, Paniai Tim., Kabupaten Paniai, Papua 98781";"Paniai Tim., Kabupaten Paniai";"PAPUA";"98781";"Indonesia";"";"";"";"-3.947805";"136.4304397";"https://maps.google.com/?cid=0x0:0xe6048b774b0c1534";""
"perumahan";"Serikat Mahasiswa";"Kampung Potewa";"28VP+J6, Epouto, Yatamo, Kabupaten Paniai, Papua 98764";"Epouto, Yatamo, Kabupaten Paniai";"PAPUA";"98764";"Indonesia";"";"";"";"-3.9559656";"136.3355191";"https://maps.google.com/?cid=0x0:0xeae7dfe8d1717bc6";""
"perumahan";"Pembangunan Perumahan";"BAPOUDA";"Jalan raya uwatawogi yogi, Enarotali, Paniai Tim., Kabupaten Paniai, Papua 98726";"Enarotali, Paniai Tim., Kabupaten Paniai";"PAPUA";"98726";"Indonesia";"";"";"";"-3.9264917";"136.3648679";"https://maps.google.com/?cid=0x0:0x368e873cad0a6ff4";""
"perumahan";"Komplek perumahan";"𝗡𝗔𝗚𝗜𝗠𝗔𝗡𝗜𝗜𝗗𝗔,𝗔𝗚𝗔𝗣𝗢";"4FM6+H5H, Obaipugaida, Distrik Ekadide, Kabupaten Paniai, Papua";"Kabupaten Paniai, Papua";"PAPUA";"";"Indonesia";"";"";"";"-3.866059";"136.4604926";"https://maps.google.com/?cid=0x0:0xf0e0110d9d8dc9fc";""
"perumahan";"Balai masyarakat";"Kampung Debaye Paniai papua";"5CJR+54, Debaye, Toyaimoti, Kec. Aradide, Kabupaten Paniai, Papua";"Kabupaten Paniai, Papua";"PAPUA";"";"Indonesia";"";"";"";"-3.8192988";"136.4402333";"https://maps.google.com/?cid=0x0:0x166b07b96809e678";""
"perumahan";"Pembangunan Perumahan";"MUYABADI DINUWATIYA";"5FM8+CC, Deta, Kec. Aradide, Kabupaten Paniai, Papua";"Kabupaten Paniai, Papua";"PAPUA";"";"Indonesia";"";"";"";"-3.8163598";"136.4660195";"https://maps.google.com/?cid=0x0:0xd7833aa56be95bef";""
"perumahan";"Pembangunan Perumahan";"Pogei";"39F7+CW5, Pogei, Enarotali, Paniai Tim., Kabupaten Paniai, Papua";"Kabupaten Paniai, Papua";"PAPUA";"";"Indonesia";"";"";"";"-3.9264917";"136.3648679";"https://maps.google.com/?cid=0x0:0x5377c7abf015a84a";""
"perumahan";"Komplek perumahan";"Ekadise";"39CP+P2, Awabutu, Paniai Tim., Kabupaten Paniai, Papua 98726";"Awabutu, Paniai Tim., Kabupaten Paniai";"PAPUA";"98726";"Indonesia";"";"";"";"-3.9280533";"136.3844767";"https://maps.google.com/?cid=0x0:0xc5138a6962b0210b";""
"perumahan";"Komplek perumahan";"Rumah Byak";"39F7+CW5, Enarotali, Paniai Tim., Kabupaten Paniai, Papua";"Kabupaten Paniai, Papua";"PAPUA";"";"Indonesia";"";"";"";"-3.9264917";"136.3648679";"https://maps.google.com/?cid=0x0:0xc7c847ad77af495";""
"perumahan";"Komplek perumahan";"Enarotali";"39F7+CW5, Jalan poros, Enarotali, Paniai Tim., Kabupaten Paniai, Papua";"Kabupaten Paniai, Papua";"PAPUA";"";"Indonesia";"";"";"";"-3.9264917";"136.3648679";"https://maps.google.com/?cid=0x0:0xf563d37031a66f69";""
"perumahan";"perumahan";"UWOWAA";"37J2+XC2, Obano, Distrik Paniai Barat, Kabupaten Paniai, Papua 98726";"Obano, Distrik Paniai Barat, Kabupaten Paniai";"PAPUA";"98726";"Indonesia";"";"";"";"-3.9168419";"136.2505927";"https://maps.google.com/?cid=0x0:0xcf61a0552ee6fbab";""
"perumahan";"perumahan";"Pududa";"36WG+FJ, Beko, Distrik Paniai Barat, Kabupaten Paniai, Papua";"Kabupaten Paniai, Papua";"PAPUA";"";"Indonesia";"";"";"";"-3.9037708";"136.2265702";"https://maps.google.com/?cid=0x0:0x6db8f3566aa0c844";""
"perumahan";"Pembangunan Perumahan";"Mabuwagi tadii";"5FC8+9W, Deta, Kec. Aradide, Kabupaten Paniai, Papua";"Kabupaten Paniai, Papua";"PAPUA";"";"Indonesia";"";"";"";"-3.8291232";"136.4672937";"https://maps.google.com/?cid=0x0:0x2f31b822f01e339";""
"perumahan";"Perhimpunan Pengembang Perumahan";"Ibatida,";"39CH+764, Enarotali, Paniai Tim., Kabupaten Paniai, Papua";"Kabupaten Paniai, Papua";"PAPUA";"";"Indonesia";"";"";"";"-3.9293592";"136.3780656";"https://maps.google.com/?cid=0x0:0x7e706614a51ad421";""
"perumahan";"Komplek perumahan";"Wouyebutu Konteiner madi";"399J+6G7, Awabutu, Paniai Tim., Kabupaten Paniai, Papua";"Kabupaten Paniai, Papua";"PAPUA";"";"Indonesia";"";"";"";"-3.9319578";"136.3812971";"https://maps.google.com/?cid=0x0:0x6665461bcbf16630";""
"perumahan";"Komplek perumahan";"IYAIBUTU/JANGKASA";"39CF+8PC, Aikai, Paniai Tim., Kabupaten Paniai, Papua 98726";"Aikai, Paniai Tim., Kabupaten Paniai";"PAPUA";"98726";"Indonesia";"";"";"";"-3.9291912";"136.3742793";"https://maps.google.com/?cid=0x0:0xf296ea6044605d57";""
"perumahan";"Pembangunan Perumahan";"Kompleks Perumahan BKAD Madi";"3C3J+J2G, Umbutu / Uyubutu / Uwibutu, Paniai Tim., Kabupaten Paniai, Papua 98781";"Umbutu / Uyubutu / Uwibutu, Paniai Tim., Kabupaten Paniai";"PAPUA";"98781";"Indonesia";"";"";"";"-3.9459284";"136.430072";"https://maps.google.com/?cid=0x0:0x6aedb83f603b7ccf";""
"perumahan";"Komplek perumahan";"Kopabaida";"5C6W+F5, Agapo / Widimeida, Distrik Ekadide, Kabupaten Paniai, Papua";"Kabupaten Paniai, Papua";"PAPUA";"";"Indonesia";"";"";"";"-3.83878";"136.4455767";"https://maps.google.com/?cid=0x0:0x61240e0ed52f213";""
"perumahan";"Pembangunan Perumahan";"Amoye sisko";"399H+55F, Enarotali, Paniai Tim., Kabupaten Paniai, Papua 98726";"Enarotali, Paniai Tim., Kabupaten Paniai";"PAPUA";"98726";"Indonesia";"";"";"";"-3.9327402";"136.3777542";"https://maps.google.com/?cid=0x0:0xa3d380f2f8da2963";""
"perumahan";"Komplek perumahan";"Moanemani";"39F7+CW5, Enarotali, Paniai Tim., Kabupaten Paniai, Papua";"Kabupaten Paniai, Papua";"PAPUA";"";"Indonesia";"";"";"";"-3.9264917";"136.3648679";"https://maps.google.com/?cid=0x0:0x82ae3f3ec181aad6";""
"perumahan";"Komplek perumahan";"Enarotali Toputo";"398G+PWX, Aikai, Paniai Tim., Kabupaten Paniai, Papua";"Kabupaten Paniai, Papua";"PAPUA";"";"Indonesia";"";"";"";"-3.9331278";"136.3773686";"https://maps.google.com/?cid=0x0:0xb17b7fc1a388d66b";""
"perumahan";"Pembangunan Perumahan";"Iyaitaka";"399G+FGJ, Enarotali, Paniai Tim., Kabupaten Paniai, Papua 98726";"Enarotali, Paniai Tim., Kabupaten Paniai";"PAPUA";"98726";"Indonesia";"";"";"";"-3.9312083";"136.376274";"https://maps.google.com/?cid=0x0:0x7cd7a128d0ac06d4";""
"perumahan";"perumahan";"Papua 98725";"Paniai Tim., Kabupaten Paniai, Papua";"Kabupaten Paniai, Papua";"PAPUA";"";"Indonesia";"";"";"";"-3.8960745";"136.4537256";"https://maps.google.com/?cid=0x0:0xf416718a89ab024c";""
"perumahan";"Komplek perumahan";"𝗡𝗔𝗚𝗜𝗠𝗔𝗡𝗜𝗜𝗗𝗔,𝗔𝗚𝗔𝗣𝗢";"4FM6+H5H, Obaipugaida, Distrik Ekadide, Kabupaten Paniai, Papua";"Kabupaten Paniai, Papua";"PAPUA";"";"Indonesia";"";"";"";"-3.866059";"136.4604926";"https://maps.google.com/?cid=0x0:0xf0e0110d9d8dc9fc";""
"perumahan";"perumahan";"Lembah Hijau WEYADIDE";"CJ8V+5MV, Yabansai, Kec. Heram, Kota Jayapura, Papua 99225";"Yabansai, Kec. Heram, Kota Jayapura";"PAPUA";"99225";"Indonesia";" 082197795869";"";"";"-3.9210625";"136.4308125";"https://maps.google.com/?cid=0x0:0x821dec16f60292e4";""
"perumahan";"Pembangunan Perumahan";"Badau";"4C4M+3Q9, Badauwo, Paniai Tim., Kabupaten Paniai, Papua 98712";"Badauwo, Paniai Tim., Kabupaten Paniai";"PAPUA";"98712";"Indonesia";"";"";"";"-3.8948354";"136.4344996";"https://maps.google.com/?cid=0x0:0x5fe4d96e511d06c6";""
"perumahan";"Komplek perumahan";"RUMAH Informasi Papua";"39GG+MR6, Awabutu, Paniai Tim., Kabupaten Paniai, Papua";"Kabupaten Paniai, Papua";"PAPUA";"";"Indonesia";"";"";"";"-3.9233497";"136.3770238";"https://maps.google.com/?cid=0x0:0xb074c46a885c9cb8";""
"perumahan";"perumahan";"Papua 98726";"Kabupaten Paniai, Papua";"Kabupaten Paniai, Papua";"PAPUA";"";"Indonesia";"";"";"";"-3.9264117";"136.2761704";"https://maps.google.com/?cid=0x0:0x51a62be53f847ea";""
"perumahan";"Perhimpunan Pengembang Perumahan";"IYAIPUGI";"39CG+XP7 Tim, 98726CG+RH5, Enarotali, Paniai Tim., Kabupaten Paniai, Papua 98726";"98726CG+RH5, Enarotali, Paniai Tim., Kabupaten Paniai";"PAPUA";"98726";"Indonesia";"";"";"";"-3.9275914";"136.3768071";"https://maps.google.com/?cid=0x0:0x85b0a5173db76ad0";""
"perumahan";"Komplek perumahan";"Perumahan Kontainer";"Madi, Paniai Tim., Kabupaten Paniai, Papua 98781";"Paniai Tim., Kabupaten Paniai";"PAPUA";"98781";"Indonesia";"";"";"";"-3.947805";"136.4304397";"https://maps.google.com/?cid=0x0:0xe6048b774b0c1534";""
"perumahan";"Komplek perumahan";"Ekadise";"39CP+P2, Awabutu, Paniai Tim., Kabupaten Paniai, Papua 98726";"Awabutu, Paniai Tim., Kabupaten Paniai";"PAPUA";"98726";"Indonesia";"";"";"";"-3.9280533";"136.3844767";"https://maps.google.com/?cid=0x0:0xc5138a6962b0210b";""
"perumahan";"Serikat Mahasiswa";"Kampung Potewa";"28VP+J6, Epouto, Yatamo, Kabupaten Paniai, Papua 98764";"Epouto, Yatamo, Kabupaten Paniai";"PAPUA";"98764";"Indonesia";"";"";"";"-3.9559656";"136.3355191";"https://maps.google.com/?cid=0x0:0xeae7dfe8d1717bc6";""
"perumahan";"Komplek perumahan";"IYAIBUTU/JANGKASA";"39CF+8PC, Aikai, Paniai Tim., Kabupaten Paniai, Papua 98726";"Aikai, Paniai Tim., Kabupaten Paniai";"PAPUA";"98726";"Indonesia";"";"";"";"-3.9291912";"136.3742793";"https://maps.google.com/?cid=0x0:0xf296ea6044605d57";""
"perumahan";"Komplek perumahan";"APO KOPO";"3C4M+RF3, Kopo, Paniai Tim., Kabupaten Paniai, Papua";"Kabupaten Paniai, Papua";"PAPUA";"";"Indonesia";"";"";"";"-3.9429831";"136.4336622";"https://maps.google.com/?cid=0x0:0x6d564546ec6827e2";""
"perumahan";"Pembangunan Perumahan";"Kompleks Perumahan BKAD Madi";"3C3J+J2G, Umbutu / Uyubutu / Uwibutu, Paniai Tim., Kabupaten Paniai, Papua 98781";"Umbutu / Uyubutu / Uwibutu, Paniai Tim., Kabupaten Paniai";"PAPUA";"98781";"Indonesia";"";"";"";"-3.9459284";"136.430072";"https://maps.google.com/?cid=0x0:0x6aedb83f603b7ccf";""
"perumahan";"Komplek perumahan";"Rumah Biak";"399G+PGW, Enarotali, Paniai Tim., Kabupaten Paniai, Papua 98726";"Enarotali, Paniai Tim., Kabupaten Paniai";"PAPUA";"98726";"Indonesia";"";"";"";"-3.929882";"136.3765556";"https://maps.google.com/?cid=0x0:0x303df156d9c78752";""
"perumahan";"Komplek perumahan";"Wouyebutu Konteiner madi";"399J+6G7, Awabutu, Paniai Tim., Kabupaten Paniai, Papua";"Kabupaten Paniai, Papua";"PAPUA";"";"Indonesia";"";"";"";"-3.9319578";"136.3812971";"https://maps.google.com/?cid=0x0:0x6665461bcbf16630";""
"perumahan";"Pembangunan Perumahan";"BAPOUDA";"Jalan raya uwatawogi yogi, Enarotali, Paniai Tim., Kabupaten Paniai, Papua 98726";"Enarotali, Paniai Tim., Kabupaten Paniai";"PAPUA";"98726";"Indonesia";"";"";"";"-3.9264917";"136.3648679";"https://maps.google.com/?cid=0x0:0x368e873cad0a6ff4";""
"perumahan";"Komplek perumahan";"Enarotali Toputo";"398G+PWX, Aikai, Paniai Tim., Kabupaten Paniai, Papua";"Kabupaten Paniai, Papua";"PAPUA";"";"Indonesia";"";"";"";"-3.9331278";"136.3773686";"https://maps.google.com/?cid=0x0:0xb17b7fc1a388d66b";""
"perumahan";"Komplek perumahan";"Enarotali";"39F7+CW5, Jalan poros, Enarotali, Paniai Tim., Kabupaten Paniai, Papua";"Kabupaten Paniai, Papua";"PAPUA";"";"Indonesia";"";"";"";"-3.9264917";"136.3648679";"https://maps.google.com/?cid=0x0:0xf563d37031a66f69";""
"perumahan";"Pembangunan Perumahan";"Pogei";"39F7+CW5, Pogei, Enarotali, Paniai Tim., Kabupaten Paniai, Papua";"Kabupaten Paniai, Papua";"PAPUA";"";"Indonesia";"";"";"";"-3.9264917";"136.3648679";"https://maps.google.com/?cid=0x0:0x5377c7abf015a84a";""
"perumahan";"Pembangunan Perumahan";"Iyaitaka";"399G+FGJ, Enarotali, Paniai Tim., Kabupaten Paniai, Papua 98726";"Enarotali, Paniai Tim., Kabupaten Paniai";"PAPUA";"98726";"Indonesia";"";"";"";"-3.9312083";"136.376274";"https://maps.google.com/?cid=0x0:0x7cd7a128d0ac06d4";""
"perumahan";"Komplek perumahan";"My Home Sweet home";"397C+QH, Aikai, Paniai Tim., Kabupaten Paniai, Papua 98726";"Aikai, Paniai Tim., Kabupaten Paniai";"PAPUA";"98726";"Indonesia";"";"";"";"-3.9362433";"136.3719737";"https://maps.google.com/?cid=0x0:0xc2ab422973535c2e";""
"perumahan";"Kompleks Kondominium";"Aspol nomor 13";"3C4G+PWJ Aspol, Madi, Paniai Tim., Kabupaten Paniai, Papua";"Kabupaten Paniai, Papua";"PAPUA";"";"Indonesia";"";"";"";"-3.9431714";"136.4272547";"https://maps.google.com/?cid=0x0:0x89ddf9ffa3c678b5";""
"perumahan";"Komplek perumahan";"Rumah Byak";"39F7+CW5, Enarotali, Paniai Tim., Kabupaten Paniai, Papua";"Kabupaten Paniai, Papua";"PAPUA";"";"Indonesia";"";"";"";"-3.9264917";"136.3648679";"https://maps.google.com/?cid=0x0:0xc7c847ad77af495";""
"perumahan";"Komplek perumahan";"Gideon Kambar (Kampung Baru)";"3C5F+WPR, Madi, Paniai Tim., Kabupaten Paniai, Papua";"Kabupaten Paniai, Papua";"PAPUA";"";"Indonesia";"";"";"";"-3.9401444";"136.424263";"https://maps.google.com/?cid=0x0:0xb43a3e776decddc6";""
"perumahan";"Komplek perumahan";"Moanemani";"39F7+CW5, Enarotali, Paniai Tim., Kabupaten Paniai, Papua";"Kabupaten Paniai, Papua";"PAPUA";"";"Indonesia";"";"";"";"-3.9264917";"136.3648679";"https://maps.google.com/?cid=0x0:0x82ae3f3ec181aad6";""
"perumahan";"perumahan";"UWOWAA";"37J2+XC2, Obano, Distrik Paniai Barat, Kabupaten Paniai, Papua 98726";"Obano, Distrik Paniai Barat, Kabupaten Paniai";"PAPUA";"98726";"Indonesia";"";"";"";"-3.9168419";"136.2505927";"https://maps.google.com/?cid=0x0:0xcf61a0552ee6fbab";""
"perumahan";"Komplek perumahan";"PUPUDA WEGOMANA PANIAI";"3C8Q+JGC, Kopo, Paniai Tim., Kabupaten Paniai, Papua";"Kabupaten Paniai, Papua";"PAPUA";"";"Indonesia";"";"";"";"-3.9334319";"136.438752";"https://maps.google.com/?cid=0x0:0x85fd6c0a88361497";""
"perumahan";"Perhimpunan Pengembang Perumahan";"Ibatida,";"39CH+764, Enarotali, Paniai Tim., Kabupaten Paniai, Papua";"Kabupaten Paniai, Papua";"PAPUA";"";"Indonesia";"";"";"";"-3.9293592";"136.3780656";"https://maps.google.com/?cid=0x0:0x7e706614a51ad421";""
"perumahan";"Pembangunan Perumahan";"Thania Lorto";"3C5G+697, Madi, Paniai Tim., Kabupaten Paniai, Papua";"Kabupaten Paniai, Papua";"PAPUA";"";"Indonesia";"";"";"";"-3.941961";"136.4259214";"https://maps.google.com/?cid=0x0:0x6f7d33b465aadcb0";""
"perumahan";"Kompleks Bangunan Perusahaan";"Kompleks nusantara sehat madi";"2CXJ+CP, Umbutu / Uyubutu / Uwibutu, Paniai Tim., Kabupaten Paniai, Papua 98781";"Umbutu / Uyubutu / Uwibutu, Paniai Tim., Kabupaten Paniai";"PAPUA";"98781";"Indonesia";"";"";"";"-3.9514133";"136.4320732";"https://maps.google.com/?cid=0x0:0xa1926f6e29e86a0c";""
