Category,Real Category,Business Name,Address,City,State,Postal Code,Country,Phone,Email,Website,Latitude,Longitude,Map Link,Details Link
hotel,hotel,Sulawesi Tenggara 93794,"Kabupaten Wakatobi, Sulawesi Tenggara","Kabupaten Wakatobi, Sulawesi Tenggara",SULAWESI TENGGARA,,Indonesia,,,,-5.9144277,124.0307246,https://maps.google.com/?cid=0x0:0x4074fc0032d77783,
hotel,hotel,Hotel Terapung Tomia,"Link bantea, Waha, Tomia, Kabupaten Wakatobi, Sulawesi Tenggara 93793","Waha, Tomia, Kabupaten Wakatobi",SULAWESI TENGGARA,93793.0,Indonesia,85299571215.0,,,-5.7213046,123.9023659,https://maps.google.com/?cid=0x0:0x38a43c26091e97f1,
hotel,hotel,Laprasmi Hotel,"Pantai Lakota, Tomia, Kabupaten Wakatobi, Sulawesi Tenggara 93793","Tomia, Kabupaten Wakatobi",SULAWESI TENGGARA,93793.0,Indonesia,81288291215.0,,,-5.7228875,123.901374,https://maps.google.com/?cid=0x0:0x4182c5b14f7983b5,
hotel,hotel,Hotel Sinar Harapan Tomia,"Usuku, Patipelong, Kec. Tomia Tim., Kabupaten Wakatobi, Sulawesi Tenggara 93793","Patipelong, Kec. Tomia Tim., Kabupaten Wakatobi",SULAWESI TENGGARA,93793.0,Indonesia,81321212082.0,,,-5.7760301,123.9303753,https://maps.google.com/?cid=0x0:0x3077ab7ae3dd094,
hotel,hotel,RedDoorz @ Tomia Island Wakatobi,"Jalan Perjuangan, Patipelong, Kec. Tomia Tim., Kabupaten Wakatobi, Sulawesi Tenggara 93793","Patipelong, Kec. Tomia Tim., Kabupaten Wakatobi",SULAWESI TENGGARA,93793.0,Indonesia,2180629666.0,,,-5.7717635,123.9201129,https://maps.google.com/?cid=0x0:0x483686750f7cf559,
hotel,hotel,Labore Stay,"Jl. Pelabuhan Waha, Kelurahan Waha, Kecamatan Tomia, Waha, Sulawesi Tenggara 93793","Kelurahan Waha, Kecamatan Tomia, Waha",SULAWESI TENGGARA,93793.0,Indonesia,82393083595.0,,,-5.719925,123.905046,https://maps.google.com/?cid=0x0:0x2e7fec0896b2f442,
hotel,hotel,Wakatobi Dive Resort,"Desa, Lamanggau, Tomia, Kabupaten Wakatobi, Sulawesi Tenggara","Kabupaten Wakatobi, Sulawesi Tenggara",SULAWESI TENGGARA,,Indonesia,361759669.0,,,-5.7759726,123.8948447,https://maps.google.com/?cid=0x0:0xdaa4c0bafdf8cf0,
hotel,hotel,Marind Dive Eco Resort,"Jl. Rabat, Kollo Soha, Tomia, Kabupaten Wakatobi, Sulawesi Tenggara 93793","Kollo Soha, Tomia, Kabupaten Wakatobi",SULAWESI TENGGARA,93793.0,Indonesia,82146470765.0,,,-5.7346185,123.8945441,https://maps.google.com/?cid=0x0:0x2afcb85ca1f28d63,
hotel,hotel,Hotel Nayang,"Waha, Tomia, Kabupaten Wakatobi, Sulawesi Tenggara 93793","Tomia, Kabupaten Wakatobi",SULAWESI TENGGARA,93793.0,Indonesia,85242320282.0,,,-5.7205073,123.9057277,https://maps.google.com/?cid=0x0:0x632546c5d7f50304,
hotel,hotel,RedDoorz near Lakota Beach Tomia Wakatobi,"Pulau Karang, Tomia, Kabupaten Wakatobi, Sulawesi Tenggara 93793","Tomia, Kabupaten Wakatobi",SULAWESI TENGGARA,93793.0,Indonesia,2180629666.0,,,-5.7211204,123.9038194,https://maps.google.com/?cid=0x0:0xbc9bc5a836b5e850,
hotel,hotel,Artha Homestay,"Jl. M.H. Thamrin, Patipelong, Kec. Tomia Tim., Kabupaten Wakatobi, Sulawesi Tenggara 93797","Patipelong, Kec. Tomia Tim., Kabupaten Wakatobi",SULAWESI TENGGARA,93797.0,Indonesia,,,,-5.774587,123.9251448,https://maps.google.com/?cid=0x0:0xebb272bd8c89a241,
hotel,hotel,Hotel Qubah 9 Kendari,"Jl. Martandu No.99A, Kambu, Kec. Kambu, Kota Kendari, Sulawesi Tenggara 93231","Kambu, Kec. Kambu, Kota Kendari",SULAWESI TENGGARA,93231.0,Indonesia,4013136047.0,,,-4.0083348,122.5345091,https://maps.google.com/?cid=0x0:0x16da52124c17b9e7,
hotel,hotel,Kendari Hotel,"Jl. Bung Tomo No.88, Punggaloba, Kec. Kendari Bar., Kota Kendari, Sulawesi Tenggara 93123","Punggaloba, Kec. Kendari Bar., Kota Kendari",SULAWESI TENGGARA,93123.0,Indonesia,895417300072.0,,,-3.9681663,122.5627102,https://maps.google.com/?cid=0x0:0xacd1026d7e3c8b85,
hotel,hotel,RedDoorz @ Wangi-Wangi Island Wakatobi,"Jl KH As'ary No.3, Numana, Wangi-Wangi Sel., Kabupaten Wakatobi, Sulawesi Tenggara 93791","Numana, Wangi-Wangi Sel., Kabupaten Wakatobi",SULAWESI TENGGARA,93791.0,Indonesia,895417300072.0,,,-5.3556714,123.5573989,https://maps.google.com/?cid=0x0:0xaaf0b479fca01ed9,
hotel,hotel,Byeropa Resort and cafe,"Jl. Tapak Kuda No.21, Korumba, Kec. Mandonga, Kota Kendari, Sulawesi Tenggara 93231","Korumba, Kec. Mandonga, Kota Kendari",SULAWESI TENGGARA,93231.0,Indonesia,,,,-3.9770125,122.5286205,https://maps.google.com/?cid=0x0:0xde9ad19bba6fd440,
hotel,hotel,SAWA BEACH RESORT,"6F82+PF3, Ds. Pekarooa, Matanggonawe, Kec. Sawa, Kabupaten Konawe Utara, Sulawesi Tenggara 93352","Ds. Pekarooa, Matanggonawe, Kec. Sawa, Kabupaten Konawe Utara",SULAWESI TENGGARA,93352.0,Indonesia,8114056864.0,,,-3.783229,122.4511684,https://maps.google.com/?cid=0x0:0x21bbabf4006bce95,
hotel,hotel,ZENITH Premiere Hotel Baubau,"Jl. Pahlawan No.2, Batulo, Kec. Wolio, Kota Bau-Bau, Sulawesi Tenggara 93716","Batulo, Kec. Wolio, Kota Bau-Bau",SULAWESI TENGGARA,93716.0,Indonesia,4022818181.0,,,-5.4605781,122.6202256,https://maps.google.com/?cid=0x0:0x6804d2f2f593324b,
hotel,hotel,Plaza Hotel Executive Wing,"CHWM+W73, R. José Maria Marques, Díli, Timor Leste","Dili, Timor Leste",SULAWESI TENGGARA,,Indonesia,67077232438.0,,,-8.5527252,125.5831579,https://maps.google.com/?cid=0x0:0x39086b4587c93c87,
hotel,hotel,Wisma Maharani,"Jl. Jend. Ahmad Yani No.125, Pongo, Wangi-Wangi Sel., Kabupaten Wakatobi, Sulawesi Tenggara 93791","Pongo, Wangi-Wangi Sel., Kabupaten Wakatobi",SULAWESI TENGGARA,93791.0,Indonesia,85280001772.0,,,-5.3173276,123.5324614,https://maps.google.com/?cid=0x0:0xc48b92dd1b274cae,
hotel,hotel,Hotel Binongko Jaya,"96HC+8XR, Jl. Sultan Hasanudin, Beru, Kec. Alok Tim., Kabupaten Sikka, Nusa Tenggara Tim.","Kabupaten Sikka, Nusa Tenggara Tim.",SULAWESI TENGGARA,,Indonesia,85259161871.0,,,-8.6216417,122.2223772,https://maps.google.com/?cid=0x0:0xa3a3c2c464e3c80e,
hotel,hotel,Hotel Wisata Beach Wakatobi,"Jl. Jenderal Sudirman, Mandati II, Wangi-Wangi Sel., Kabupaten Wakatobi, Sulawesi Tenggara 93795","Mandati II, Wangi-Wangi Sel., Kabupaten Wakatobi",SULAWESI TENGGARA,93795.0,Indonesia,81245639300.0,,,-5.3305212,123.5379881,https://maps.google.com/?cid=0x0:0x4aa633eee4b45351,
hotel,hotel,Sulawesi Tenggara 93792,"Kabupaten Wakatobi, Sulawesi Tenggara","Kabupaten Wakatobi, Sulawesi Tenggara",SULAWESI TENGGARA,,Indonesia,,,,-5.5551203,123.785291,https://maps.google.com/?cid=0x0:0x9fcf3359b49a567d,
hotel,hotel,areef homestay kaledupa,"Lr. Gau Satoto, Ambeua, Kec. Kaledupa, Kabupaten Wakatobi, Sulawesi Tenggara 93792","Ambeua, Kec. Kaledupa, Kabupaten Wakatobi",SULAWESI TENGGARA,93792.0,Indonesia,85397314344.0,,,-5.4973662,123.7557119,https://maps.google.com/?cid=0x0:0xe6d2eb8133a572d4,
hotel,hotel,Naya Matahora Island Resort,"Jl. Poros Bandara Matahora, Lingkungan Topa, Mandati I, Wangi-Wangi Sel., Kabupaten Wakatobi, Sulawesi Tenggara 93791","Lingkungan Topa, Mandati I, Wangi-Wangi Sel., Kabupaten Wakatobi",SULAWESI TENGGARA,93791.0,Indonesia,8113983122.0,,,-5.297877,123.6443638,https://maps.google.com/?cid=0x0:0xaac34496293bb5f7,
hotel,hotel,Hotel Terapung Tomia,"Link bantea, Waha, Tomia, Kabupaten Wakatobi, Sulawesi Tenggara 93793","Waha, Tomia, Kabupaten Wakatobi",SULAWESI TENGGARA,93793.0,Indonesia,85299571215.0,,,-5.7213046,123.9023659,https://maps.google.com/?cid=0x0:0x38a43c26091e97f1,
hotel,hotel,Pombero Lodge,"Kulati, Kec. Tomia Tim., Kabupaten Wakatobi, Sulawesi Tenggara 93793","Kec. Tomia Tim., Kabupaten Wakatobi",SULAWESI TENGGARA,93793.0,Indonesia,82210793084.0,,,-5.7564475,123.9945641,https://maps.google.com/?cid=0x0:0xc15188896aa3e0c,
hotel,hotel,Labore Stay,"Jl. Pelabuhan Waha, Kelurahan Waha, Kecamatan Tomia, Waha, Sulawesi Tenggara 93793","Kelurahan Waha, Kecamatan Tomia, Waha",SULAWESI TENGGARA,93793.0,Indonesia,82393083595.0,,,-5.719925,123.905046,https://maps.google.com/?cid=0x0:0x2e7fec0896b2f442,
hotel,hotel,Mangrove Inn Diving Wakatobi,"FPQX+QH5 Penginapan Mangrove, Jl. Poros Jembatan, Ambeua, Kec. Kaledupa, Kabupaten Wakatobi, Sulawesi Tenggara 93792","Jl. Poros Jembatan, Ambeua, Kec. Kaledupa, Kabupaten Wakatobi",SULAWESI TENGGARA,93792.0,Indonesia,82292328550.0,,,-5.510609,123.748979,https://maps.google.com/?cid=0x0:0xbe559cba9a20211d,
hotel,hotel,Wisma Maharani,"Jl. Jend. Ahmad Yani No.125, Pongo, Wangi-Wangi Sel., Kabupaten Wakatobi, Sulawesi Tenggara 93791","Pongo, Wangi-Wangi Sel., Kabupaten Wakatobi",SULAWESI TENGGARA,93791.0,Indonesia,85280001772.0,,,-5.3173276,123.5324614,https://maps.google.com/?cid=0x0:0xc48b92dd1b274cae,
hotel,hotel,Ar'Rafif Hotel,"Jl. Wa Opu Lessa No. 26 Pongo I, Mandati II, Kec. Wangi-Wangi, Kabupaten Wakatobi, Sulawesi Tenggara 93791","Mandati II, Kec. Wangi-Wangi, Kabupaten Wakatobi",SULAWESI TENGGARA,93791.0,Indonesia,85299345749.0,,,-5.3260519,123.5383135,https://maps.google.com/?cid=0x0:0x971a767b2d407a2d,
hotel,hotel,Hotel Wisata Beach Wakatobi,"Jl. Jenderal Sudirman, Mandati II, Wangi-Wangi Sel., Kabupaten Wakatobi, Sulawesi Tenggara 93795","Mandati II, Wangi-Wangi Sel., Kabupaten Wakatobi",SULAWESI TENGGARA,93795.0,Indonesia,81245639300.0,,,-5.3305212,123.5379881,https://maps.google.com/?cid=0x0:0x4aa633eee4b45351,
hotel,hotel,RedDoorz near Lakota Beach Tomia Wakatobi,"Pulau Karang, Tomia, Kabupaten Wakatobi, Sulawesi Tenggara 93793","Tomia, Kabupaten Wakatobi",SULAWESI TENGGARA,93793.0,Indonesia,2180629666.0,,,-5.7211204,123.9038194,https://maps.google.com/?cid=0x0:0xbc9bc5a836b5e850,
hotel,hotel,RedDoorz @ Wangi-Wangi Island Wakatobi,"Jl KH As'ary No.3, Numana, Wangi-Wangi Sel., Kabupaten Wakatobi, Sulawesi Tenggara 93791","Numana, Wangi-Wangi Sel., Kabupaten Wakatobi",SULAWESI TENGGARA,93791.0,Indonesia,895417300072.0,,,-5.3556714,123.5573989,https://maps.google.com/?cid=0x0:0xaaf0b479fca01ed9,
hotel,hotel,Hotel Nayang,"Waha, Tomia, Kabupaten Wakatobi, Sulawesi Tenggara 93793","Tomia, Kabupaten Wakatobi",SULAWESI TENGGARA,93793.0,Indonesia,85242320282.0,,,-5.7205073,123.9057277,https://maps.google.com/?cid=0x0:0x632546c5d7f50304,
hotel,hotel,Marind Dive Eco Resort,"Jl. Rabat, Kollo Soha, Tomia, Kabupaten Wakatobi, Sulawesi Tenggara 93793","Kollo Soha, Tomia, Kabupaten Wakatobi",SULAWESI TENGGARA,93793.0,Indonesia,82146470765.0,,,-5.7346185,123.8945441,https://maps.google.com/?cid=0x0:0x2afcb85ca1f28d63,
hotel,hotel,Villa Nadila,"Jalan jendral Sudirman manugela, desa pada raya makmur, Kabupaten Wakatobi, Sulawesi Tenggara 93791","desa pada raya makmur, Kabupaten Wakatobi",SULAWESI TENGGARA,93791.0,Indonesia,,,,-5.3120381,123.5355614,https://maps.google.com/?cid=0x0:0xadf69721fc13a34b,
hotel,hotel,Hotel Qubah 9 Kendari,"Jl. Martandu No.99A, Kambu, Kec. Kambu, Kota Kendari, Sulawesi Tenggara 93231","Kambu, Kec. Kambu, Kota Kendari",SULAWESI TENGGARA,93231.0,Indonesia,4013136047.0,,,-4.0083348,122.5345091,https://maps.google.com/?cid=0x0:0x16da52124c17b9e7,
hotel,hotel,Kahianga Residence,"Jl. Damai No.12, Bende, Kec. Kadia, Kota Kendari, Sulawesi Tenggara 93117","Bende, Kec. Kadia, Kota Kendari",SULAWESI TENGGARA,93117.0,Indonesia,,,,-3.9847321,122.5162638,https://maps.google.com/?cid=0x0:0x2dc4b2acb26593f7,
hotel,hotel,areef homestay kaledupa,"Lr. Gau Satoto, Ambeua, Kec. Kaledupa, Kabupaten Wakatobi, Sulawesi Tenggara 93792","Ambeua, Kec. Kaledupa, Kabupaten Wakatobi",SULAWESI TENGGARA,93792.0,Indonesia,85397314344.0,,,-5.4973662,123.7557119,https://maps.google.com/?cid=0x0:0xe6d2eb8133a572d4,
hotel,hotel,Sulawesi Tenggara 93792,"Kabupaten Wakatobi, Sulawesi Tenggara","Kabupaten Wakatobi, Sulawesi Tenggara",SULAWESI TENGGARA,,Indonesia,,,,-5.5551203,123.785291,https://maps.google.com/?cid=0x0:0x9fcf3359b49a567d,
hotel,hotel,Laprasmi Hotel,"Pantai Lakota, Tomia, Kabupaten Wakatobi, Sulawesi Tenggara 93793","Tomia, Kabupaten Wakatobi",SULAWESI TENGGARA,93793.0,Indonesia,81288291215.0,,,-5.7228875,123.901374,https://maps.google.com/?cid=0x0:0x4182c5b14f7983b5,
hotel,hotel,Hotel Terapung Tomia,"Link bantea, Waha, Tomia, Kabupaten Wakatobi, Sulawesi Tenggara 93793","Waha, Tomia, Kabupaten Wakatobi",SULAWESI TENGGARA,93793.0,Indonesia,85299571215.0,,,-5.7213046,123.9023659,https://maps.google.com/?cid=0x0:0x38a43c26091e97f1,
hotel,hotel,Pombero Lodge,"Kulati, Kec. Tomia Tim., Kabupaten Wakatobi, Sulawesi Tenggara 93793","Kec. Tomia Tim., Kabupaten Wakatobi",SULAWESI TENGGARA,93793.0,Indonesia,82210793084.0,,,-5.7564475,123.9945641,https://maps.google.com/?cid=0x0:0xc15188896aa3e0c,
hotel,hotel,Labore Stay,"Jl. Pelabuhan Waha, Kelurahan Waha, Kecamatan Tomia, Waha, Sulawesi Tenggara 93793","Kelurahan Waha, Kecamatan Tomia, Waha",SULAWESI TENGGARA,93793.0,Indonesia,82393083595.0,,,-5.719925,123.905046,https://maps.google.com/?cid=0x0:0x2e7fec0896b2f442,
hotel,hotel,Wisma Maharani,"Jl. Jend. Ahmad Yani No.125, Pongo, Wangi-Wangi Sel., Kabupaten Wakatobi, Sulawesi Tenggara 93791","Pongo, Wangi-Wangi Sel., Kabupaten Wakatobi",SULAWESI TENGGARA,93791.0,Indonesia,85280001772.0,,,-5.3173276,123.5324614,https://maps.google.com/?cid=0x0:0xc48b92dd1b274cae,
hotel,hotel,Mangrove Inn Diving Wakatobi,"FPQX+QH5 Penginapan Mangrove, Jl. Poros Jembatan, Ambeua, Kec. Kaledupa, Kabupaten Wakatobi, Sulawesi Tenggara 93792","Jl. Poros Jembatan, Ambeua, Kec. Kaledupa, Kabupaten Wakatobi",SULAWESI TENGGARA,93792.0,Indonesia,82292328550.0,,,-5.510609,123.748979,https://maps.google.com/?cid=0x0:0xbe559cba9a20211d,
hotel,hotel,Hotel Wisata Beach Wakatobi,"Jl. Jenderal Sudirman, Mandati II, Wangi-Wangi Sel., Kabupaten Wakatobi, Sulawesi Tenggara 93795","Mandati II, Wangi-Wangi Sel., Kabupaten Wakatobi",SULAWESI TENGGARA,93795.0,Indonesia,81245639300.0,,,-5.3305212,123.5379881,https://maps.google.com/?cid=0x0:0x4aa633eee4b45351,
hotel,hotel,Ar'Rafif Hotel,"Jl. Wa Opu Lessa No. 26 Pongo I, Mandati II, Kec. Wangi-Wangi, Kabupaten Wakatobi, Sulawesi Tenggara 93791","Mandati II, Kec. Wangi-Wangi, Kabupaten Wakatobi",SULAWESI TENGGARA,93791.0,Indonesia,85299345749.0,,,-5.3260519,123.5383135,https://maps.google.com/?cid=0x0:0x971a767b2d407a2d,
hotel,hotel,Marind Dive Eco Resort,"Jl. Rabat, Kollo Soha, Tomia, Kabupaten Wakatobi, Sulawesi Tenggara 93793","Kollo Soha, Tomia, Kabupaten Wakatobi",SULAWESI TENGGARA,93793.0,Indonesia,82146470765.0,,,-5.7346185,123.8945441,https://maps.google.com/?cid=0x0:0x2afcb85ca1f28d63,
hotel,hotel,RedDoorz @ Wangi-Wangi Island Wakatobi,"Jl KH As'ary No.3, Numana, Wangi-Wangi Sel., Kabupaten Wakatobi, Sulawesi Tenggara 93791","Numana, Wangi-Wangi Sel., Kabupaten Wakatobi",SULAWESI TENGGARA,93791.0,Indonesia,895417300072.0,,,-5.3556714,123.5573989,https://maps.google.com/?cid=0x0:0xaaf0b479fca01ed9,
hotel,hotel,Hotel Nayang,"Waha, Tomia, Kabupaten Wakatobi, Sulawesi Tenggara 93793","Tomia, Kabupaten Wakatobi",SULAWESI TENGGARA,93793.0,Indonesia,85242320282.0,,,-5.7205073,123.9057277,https://maps.google.com/?cid=0x0:0x632546c5d7f50304,
hotel,hotel,RedDoorz near Lakota Beach Tomia Wakatobi,"Pulau Karang, Tomia, Kabupaten Wakatobi, Sulawesi Tenggara 93793","Tomia, Kabupaten Wakatobi",SULAWESI TENGGARA,93793.0,Indonesia,2180629666.0,,,-5.7211204,123.9038194,https://maps.google.com/?cid=0x0:0xbc9bc5a836b5e850,
hotel,hotel,Villa Nadila,"Jalan jendral Sudirman manugela, desa pada raya makmur, Kabupaten Wakatobi, Sulawesi Tenggara 93791","desa pada raya makmur, Kabupaten Wakatobi",SULAWESI TENGGARA,93791.0,Indonesia,,,,-5.3120381,123.5355614,https://maps.google.com/?cid=0x0:0xadf69721fc13a34b,
hotel,hotel,Sulawesi Tenggara 93794,"Kabupaten Wakatobi, Sulawesi Tenggara","Kabupaten Wakatobi, Sulawesi Tenggara",SULAWESI TENGGARA,,Indonesia,,,,-5.9144277,124.0307246,https://maps.google.com/?cid=0x0:0x4074fc0032d77783,
hotel,hotel,Hotel Terapung Tomia,"Link bantea, Waha, Tomia, Kabupaten Wakatobi, Sulawesi Tenggara 93793","Waha, Tomia, Kabupaten Wakatobi",SULAWESI TENGGARA,93793.0,Indonesia,85299571215.0,,,-5.7213046,123.9023659,https://maps.google.com/?cid=0x0:0x38a43c26091e97f1,
hotel,hotel,Labore Stay,"Jl. Pelabuhan Waha, Kelurahan Waha, Kecamatan Tomia, Waha, Sulawesi Tenggara 93793","Kelurahan Waha, Kecamatan Tomia, Waha",SULAWESI TENGGARA,93793.0,Indonesia,82393083595.0,,,-5.719925,123.905046,https://maps.google.com/?cid=0x0:0x2e7fec0896b2f442,
hotel,hotel,Laprasmi Hotel,"Pantai Lakota, Tomia, Kabupaten Wakatobi, Sulawesi Tenggara 93793","Tomia, Kabupaten Wakatobi",SULAWESI TENGGARA,93793.0,Indonesia,81288291215.0,,,-5.7228875,123.901374,https://maps.google.com/?cid=0x0:0x4182c5b14f7983b5,
hotel,hotel,Wakatobi Dive Resort,"Desa, Lamanggau, Tomia, Kabupaten Wakatobi, Sulawesi Tenggara","Kabupaten Wakatobi, Sulawesi Tenggara",SULAWESI TENGGARA,,Indonesia,361759669.0,,,-5.7759726,123.8948447,https://maps.google.com/?cid=0x0:0xdaa4c0bafdf8cf0,
hotel,hotel,Hotel Sinar Harapan Tomia,"Usuku, Patipelong, Kec. Tomia Tim., Kabupaten Wakatobi, Sulawesi Tenggara 93793","Patipelong, Kec. Tomia Tim., Kabupaten Wakatobi",SULAWESI TENGGARA,93793.0,Indonesia,81321212082.0,,,-5.7760301,123.9303753,https://maps.google.com/?cid=0x0:0x3077ab7ae3dd094,
hotel,hotel,Marind Dive Eco Resort,"Jl. Rabat, Kollo Soha, Tomia, Kabupaten Wakatobi, Sulawesi Tenggara 93793","Kollo Soha, Tomia, Kabupaten Wakatobi",SULAWESI TENGGARA,93793.0,Indonesia,82146470765.0,,,-5.7346185,123.8945441,https://maps.google.com/?cid=0x0:0x2afcb85ca1f28d63,
hotel,hotel,RedDoorz near Lakota Beach Tomia Wakatobi,"Pulau Karang, Tomia, Kabupaten Wakatobi, Sulawesi Tenggara 93793","Tomia, Kabupaten Wakatobi",SULAWESI TENGGARA,93793.0,Indonesia,2180629666.0,,,-5.7211204,123.9038194,https://maps.google.com/?cid=0x0:0xbc9bc5a836b5e850,
hotel,hotel,RedDoorz @ Tomia Island Wakatobi,"Jalan Perjuangan, Patipelong, Kec. Tomia Tim., Kabupaten Wakatobi, Sulawesi Tenggara 93793","Patipelong, Kec. Tomia Tim., Kabupaten Wakatobi",SULAWESI TENGGARA,93793.0,Indonesia,2180629666.0,,,-5.7717635,123.9201129,https://maps.google.com/?cid=0x0:0x483686750f7cf559,
hotel,hotel,Hotel Nayang,"Waha, Tomia, Kabupaten Wakatobi, Sulawesi Tenggara 93793","Tomia, Kabupaten Wakatobi",SULAWESI TENGGARA,93793.0,Indonesia,85242320282.0,,,-5.7205073,123.9057277,https://maps.google.com/?cid=0x0:0x632546c5d7f50304,
hotel,hotel,Artha Homestay,"Jl. M.H. Thamrin, Patipelong, Kec. Tomia Tim., Kabupaten Wakatobi, Sulawesi Tenggara 93797","Patipelong, Kec. Tomia Tim., Kabupaten Wakatobi",SULAWESI TENGGARA,93797.0,Indonesia,,,,-5.774587,123.9251448,https://maps.google.com/?cid=0x0:0xebb272bd8c89a241,
hotel,hotel,Hotel Qubah 9 Kendari,"Jl. Martandu No.99A, Kambu, Kec. Kambu, Kota Kendari, Sulawesi Tenggara 93231","Kambu, Kec. Kambu, Kota Kendari",SULAWESI TENGGARA,93231.0,Indonesia,4013136047.0,,,-4.0083348,122.5345091,https://maps.google.com/?cid=0x0:0x16da52124c17b9e7,
hotel,hotel,Tomia,"Kabupaten Wakatobi, Sulawesi Tenggara","Kabupaten Wakatobi, Sulawesi Tenggara",SULAWESI TENGGARA,,Indonesia,,,,-5.6651282,124.080846,https://maps.google.com/?cid=0x0:0xe166d892ad79e166,
hotel,hotel,Hotel Terapung Tomia,"Link bantea, Waha, Tomia, Kabupaten Wakatobi, Sulawesi Tenggara 93793","Waha, Tomia, Kabupaten Wakatobi",SULAWESI TENGGARA,93793.0,Indonesia,85299571215.0,,,-5.7213046,123.9023659,https://maps.google.com/?cid=0x0:0x38a43c26091e97f1,
hotel,hotel,Hotel Sinar Harapan Tomia,"Usuku, Patipelong, Kec. Tomia Tim., Kabupaten Wakatobi, Sulawesi Tenggara 93793","Patipelong, Kec. Tomia Tim., Kabupaten Wakatobi",SULAWESI TENGGARA,93793.0,Indonesia,81321212082.0,,,-5.7760301,123.9303753,https://maps.google.com/?cid=0x0:0x3077ab7ae3dd094,
hotel,hotel,Laprasmi Hotel,"Pantai Lakota, Tomia, Kabupaten Wakatobi, Sulawesi Tenggara 93793","Tomia, Kabupaten Wakatobi",SULAWESI TENGGARA,93793.0,Indonesia,81288291215.0,,,-5.7228875,123.901374,https://maps.google.com/?cid=0x0:0x4182c5b14f7983b5,
hotel,hotel,RedDoorz @ Tomia Island Wakatobi,"Jalan Perjuangan, Patipelong, Kec. Tomia Tim., Kabupaten Wakatobi, Sulawesi Tenggara 93793","Patipelong, Kec. Tomia Tim., Kabupaten Wakatobi",SULAWESI TENGGARA,93793.0,Indonesia,2180629666.0,,,-5.7717635,123.9201129,https://maps.google.com/?cid=0x0:0x483686750f7cf559,
hotel,hotel,Pombero Lodge,"Kulati, Kec. Tomia Tim., Kabupaten Wakatobi, Sulawesi Tenggara 93793","Kec. Tomia Tim., Kabupaten Wakatobi",SULAWESI TENGGARA,93793.0,Indonesia,82210793084.0,,,-5.7564475,123.9945641,https://maps.google.com/?cid=0x0:0xc15188896aa3e0c,
hotel,hotel,Wakatobi Dive Resort,"Desa, Lamanggau, Tomia, Kabupaten Wakatobi, Sulawesi Tenggara","Kabupaten Wakatobi, Sulawesi Tenggara",SULAWESI TENGGARA,,Indonesia,361759669.0,,,-5.7759726,123.8948447,https://maps.google.com/?cid=0x0:0xdaa4c0bafdf8cf0,
hotel,hotel,RedDoorz near Lakota Beach Tomia Wakatobi,"Pulau Karang, Tomia, Kabupaten Wakatobi, Sulawesi Tenggara 93793","Tomia, Kabupaten Wakatobi",SULAWESI TENGGARA,93793.0,Indonesia,2180629666.0,,,-5.7211204,123.9038194,https://maps.google.com/?cid=0x0:0xbc9bc5a836b5e850,
hotel,hotel,Marind Dive Eco Resort,"Jl. Rabat, Kollo Soha, Tomia, Kabupaten Wakatobi, Sulawesi Tenggara 93793","Kollo Soha, Tomia, Kabupaten Wakatobi",SULAWESI TENGGARA,93793.0,Indonesia,82146470765.0,,,-5.7346185,123.8945441,https://maps.google.com/?cid=0x0:0x2afcb85ca1f28d63,
hotel,hotel,Hotel Nayang,"Waha, Tomia, Kabupaten Wakatobi, Sulawesi Tenggara 93793","Tomia, Kabupaten Wakatobi",SULAWESI TENGGARA,93793.0,Indonesia,85242320282.0,,,-5.7205073,123.9057277,https://maps.google.com/?cid=0x0:0x632546c5d7f50304,
hotel,hotel,Artha Homestay,"Jl. M.H. Thamrin, Patipelong, Kec. Tomia Tim., Kabupaten Wakatobi, Sulawesi Tenggara 93797","Patipelong, Kec. Tomia Tim., Kabupaten Wakatobi",SULAWESI TENGGARA,93797.0,Indonesia,,,,-5.774587,123.9251448,https://maps.google.com/?cid=0x0:0xebb272bd8c89a241,
hotel,hotel,areef homestay kaledupa,"Lr. Gau Satoto, Ambeua, Kec. Kaledupa, Kabupaten Wakatobi, Sulawesi Tenggara 93792","Ambeua, Kec. Kaledupa, Kabupaten Wakatobi",SULAWESI TENGGARA,93792.0,Indonesia,85397314344.0,,,-5.4973662,123.7557119,https://maps.google.com/?cid=0x0:0xe6d2eb8133a572d4,
hotel,hotel,Mangrove Inn Diving Wakatobi,"FPQX+QH5 Penginapan Mangrove, Jl. Poros Jembatan, Ambeua, Kec. Kaledupa, Kabupaten Wakatobi, Sulawesi Tenggara 93792","Jl. Poros Jembatan, Ambeua, Kec. Kaledupa, Kabupaten Wakatobi",SULAWESI TENGGARA,93792.0,Indonesia,82292328550.0,,,-5.510609,123.748979,https://maps.google.com/?cid=0x0:0xbe559cba9a20211d,
hotel,hotel,Hotel Wisata Beach Wakatobi,"Jl. Jenderal Sudirman, Mandati II, Wangi-Wangi Sel., Kabupaten Wakatobi, Sulawesi Tenggara 93795","Mandati II, Wangi-Wangi Sel., Kabupaten Wakatobi",SULAWESI TENGGARA,93795.0,Indonesia,81245639300.0,,,-5.3305212,123.5379881,https://maps.google.com/?cid=0x0:0x4aa633eee4b45351,
hotel,hotel,Villa Nadila,"Jalan jendral Sudirman manugela, desa pada raya makmur, Kabupaten Wakatobi, Sulawesi Tenggara 93791","desa pada raya makmur, Kabupaten Wakatobi",SULAWESI TENGGARA,93791.0,Indonesia,,,,-5.3120381,123.5355614,https://maps.google.com/?cid=0x0:0xadf69721fc13a34b,
hotel,hotel,Hotel Mutiara,"5PCG+QX3, Jl. Wamponiki 1, Butung-Butung, Kec. Katobu, Kabupaten Muna, Sulawesi Tenggara 93611","Jl. Wamponiki 1, Butung-Butung, Kec. Katobu, Kabupaten Muna",SULAWESI TENGGARA,93611.0,Indonesia,85255942333.0,,,-4.8281009,122.7274264,https://maps.google.com/?cid=0x0:0x802393a5ea8c1b3,
hotel,hotel,Hotel Qubah 9 Kendari,"Jl. Martandu No.99A, Kambu, Kec. Kambu, Kota Kendari, Sulawesi Tenggara 93231","Kambu, Kec. Kambu, Kota Kendari",SULAWESI TENGGARA,93231.0,Indonesia,4013136047.0,,,-4.0083348,122.5345091,https://maps.google.com/?cid=0x0:0x16da52124c17b9e7,
hotel,hotel,Sulawesi Tenggara 93793,"Kabupaten Wakatobi, Sulawesi Tenggara","Kabupaten Wakatobi, Sulawesi Tenggara",SULAWESI TENGGARA,,Indonesia,,,,-5.7414018,123.9415518,https://maps.google.com/?cid=0x0:0xcc1ed7ef5fc129ca,
hotel,hotel,Hotel Terapung Tomia,"Link bantea, Waha, Tomia, Kabupaten Wakatobi, Sulawesi Tenggara 93793","Waha, Tomia, Kabupaten Wakatobi",SULAWESI TENGGARA,93793.0,Indonesia,85299571215.0,,,-5.7213046,123.9023659,https://maps.google.com/?cid=0x0:0x38a43c26091e97f1,
hotel,hotel,Laprasmi Hotel,"Pantai Lakota, Tomia, Kabupaten Wakatobi, Sulawesi Tenggara 93793","Tomia, Kabupaten Wakatobi",SULAWESI TENGGARA,93793.0,Indonesia,81288291215.0,,,-5.7228875,123.901374,https://maps.google.com/?cid=0x0:0x4182c5b14f7983b5,
hotel,hotel,Labore Stay,"Jl. Pelabuhan Waha, Kelurahan Waha, Kecamatan Tomia, Waha, Sulawesi Tenggara 93793","Kelurahan Waha, Kecamatan Tomia, Waha",SULAWESI TENGGARA,93793.0,Indonesia,82393083595.0,,,-5.719925,123.905046,https://maps.google.com/?cid=0x0:0x2e7fec0896b2f442,
hotel,hotel,Hotel Sinar Harapan Tomia,"Usuku, Patipelong, Kec. Tomia Tim., Kabupaten Wakatobi, Sulawesi Tenggara 93793","Patipelong, Kec. Tomia Tim., Kabupaten Wakatobi",SULAWESI TENGGARA,93793.0,Indonesia,81321212082.0,,,-5.7760301,123.9303753,https://maps.google.com/?cid=0x0:0x3077ab7ae3dd094,
hotel,hotel,Wakatobi Dive Resort,"Desa, Lamanggau, Tomia, Kabupaten Wakatobi, Sulawesi Tenggara","Kabupaten Wakatobi, Sulawesi Tenggara",SULAWESI TENGGARA,,Indonesia,361759669.0,,,-5.7759726,123.8948447,https://maps.google.com/?cid=0x0:0xdaa4c0bafdf8cf0,
hotel,hotel,RedDoorz @ Tomia Island Wakatobi,"Jalan Perjuangan, Patipelong, Kec. Tomia Tim., Kabupaten Wakatobi, Sulawesi Tenggara 93793","Patipelong, Kec. Tomia Tim., Kabupaten Wakatobi",SULAWESI TENGGARA,93793.0,Indonesia,2180629666.0,,,-5.7717635,123.9201129,https://maps.google.com/?cid=0x0:0x483686750f7cf559,
hotel,hotel,Naya Matahora Island Resort,"Jl. Poros Bandara Matahora, Lingkungan Topa, Mandati I, Wangi-Wangi Sel., Kabupaten Wakatobi, Sulawesi Tenggara 93791","Lingkungan Topa, Mandati I, Wangi-Wangi Sel., Kabupaten Wakatobi",SULAWESI TENGGARA,93791.0,Indonesia,8113983122.0,,,-5.297877,123.6443638,https://maps.google.com/?cid=0x0:0xaac34496293bb5f7,
hotel,hotel,Marind Dive Eco Resort,"Jl. Rabat, Kollo Soha, Tomia, Kabupaten Wakatobi, Sulawesi Tenggara 93793","Kollo Soha, Tomia, Kabupaten Wakatobi",SULAWESI TENGGARA,93793.0,Indonesia,82146470765.0,,,-5.7346185,123.8945441,https://maps.google.com/?cid=0x0:0x2afcb85ca1f28d63,
hotel,hotel,RedDoorz near Lakota Beach Tomia Wakatobi,"Pulau Karang, Tomia, Kabupaten Wakatobi, Sulawesi Tenggara 93793","Tomia, Kabupaten Wakatobi",SULAWESI TENGGARA,93793.0,Indonesia,2180629666.0,,,-5.7211204,123.9038194,https://maps.google.com/?cid=0x0:0xbc9bc5a836b5e850,
hotel,hotel,Hotel Nayang,"Waha, Tomia, Kabupaten Wakatobi, Sulawesi Tenggara 93793","Tomia, Kabupaten Wakatobi",SULAWESI TENGGARA,93793.0,Indonesia,85242320282.0,,,-5.7205073,123.9057277,https://maps.google.com/?cid=0x0:0x632546c5d7f50304,
hotel,hotel,Wisma Maharani,"Jl. Jend. Ahmad Yani No.125, Pongo, Wangi-Wangi Sel., Kabupaten Wakatobi, Sulawesi Tenggara 93791","Pongo, Wangi-Wangi Sel., Kabupaten Wakatobi",SULAWESI TENGGARA,93791.0,Indonesia,85280001772.0,,,-5.3173276,123.5324614,https://maps.google.com/?cid=0x0:0xc48b92dd1b274cae,
hotel,hotel,Artha Homestay,"Jl. M.H. Thamrin, Patipelong, Kec. Tomia Tim., Kabupaten Wakatobi, Sulawesi Tenggara 93797","Patipelong, Kec. Tomia Tim., Kabupaten Wakatobi",SULAWESI TENGGARA,93797.0,Indonesia,,,,-5.774587,123.9251448,https://maps.google.com/?cid=0x0:0xebb272bd8c89a241,
hotel,hotel,Wasabinua Hotel  Dive Resort,"Jl. A.H Nasution No.5, Wandoka Utara, Kec. Wangi-Wangi, Kabupaten Wakatobi, Sulawesi Tenggara 93791","Wandoka Utara, Kec. Wangi-Wangi, Kabupaten Wakatobi",SULAWESI TENGGARA,93791.0,Indonesia,82112618744.0,,,-5.2818363,123.5244352,https://maps.google.com/?cid=0x0:0xd2e98108ec835682,
hotel,hotel,Hotel Wisata Beach Wakatobi,"Jl. Jenderal Sudirman, Mandati II, Wangi-Wangi Sel., Kabupaten Wakatobi, Sulawesi Tenggara 93795","Mandati II, Wangi-Wangi Sel., Kabupaten Wakatobi",SULAWESI TENGGARA,93795.0,Indonesia,81245639300.0,,,-5.3305212,123.5379881,https://maps.google.com/?cid=0x0:0x4aa633eee4b45351,
hotel,hotel,areef homestay kaledupa,"Lr. Gau Satoto, Ambeua, Kec. Kaledupa, Kabupaten Wakatobi, Sulawesi Tenggara 93792","Ambeua, Kec. Kaledupa, Kabupaten Wakatobi",SULAWESI TENGGARA,93792.0,Indonesia,85397314344.0,,,-5.4973662,123.7557119,https://maps.google.com/?cid=0x0:0xe6d2eb8133a572d4,
hotel,hotel,Villa Nadila,"Jalan jendral Sudirman manugela, desa pada raya makmur, Kabupaten Wakatobi, Sulawesi Tenggara 93791","desa pada raya makmur, Kabupaten Wakatobi",SULAWESI TENGGARA,93791.0,Indonesia,,,,-5.3120381,123.5355614,https://maps.google.com/?cid=0x0:0xadf69721fc13a34b,
hotel,hotel,Ar'Rafif Hotel,"Jl. Wa Opu Lessa No. 26 Pongo I, Mandati II, Kec. Wangi-Wangi, Kabupaten Wakatobi, Sulawesi Tenggara 93791","Mandati II, Kec. Wangi-Wangi, Kabupaten Wakatobi",SULAWESI TENGGARA,93791.0,Indonesia,85299345749.0,,,-5.3260519,123.5383135,https://maps.google.com/?cid=0x0:0x971a767b2d407a2d,
hotel,hotel,RedDoorz @ Wangi-Wangi Island Wakatobi,"Jl KH As'ary No.3, Numana, Wangi-Wangi Sel., Kabupaten Wakatobi, Sulawesi Tenggara 93791","Numana, Wangi-Wangi Sel., Kabupaten Wakatobi",SULAWESI TENGGARA,93791.0,Indonesia,895417300072.0,,,-5.3556714,123.5573989,https://maps.google.com/?cid=0x0:0xaaf0b479fca01ed9,
hotel,hotel,Mangrove Inn Diving Wakatobi,"FPQX+QH5 Penginapan Mangrove, Jl. Poros Jembatan, Ambeua, Kec. Kaledupa, Kabupaten Wakatobi, Sulawesi Tenggara 93792","Jl. Poros Jembatan, Ambeua, Kec. Kaledupa, Kabupaten Wakatobi",SULAWESI TENGGARA,93792.0,Indonesia,82292328550.0,,,-5.510609,123.748979,https://maps.google.com/?cid=0x0:0xbe559cba9a20211d,
hotel,hotel,Naya Matahora Island Resort,"Jl. Poros Bandara Matahora, Lingkungan Topa, Mandati I, Wangi-Wangi Sel., Kabupaten Wakatobi, Sulawesi Tenggara 93791","Lingkungan Topa, Mandati I, Wangi-Wangi Sel., Kabupaten Wakatobi",SULAWESI TENGGARA,93791.0,Indonesia,8113983122.0,,,-5.297877,123.6443638,https://maps.google.com/?cid=0x0:0xaac34496293bb5f7,
hotel,hotel,Sulawesi Tenggara 93791,"Kec. Wangi-Wangi, Kabupaten Wakatobi, Sulawesi Tenggara","Kabupaten Wakatobi, Sulawesi Tenggara",SULAWESI TENGGARA,,Indonesia,,,,-5.3004341,123.5839983,https://maps.google.com/?cid=0x0:0x192a8c22fe0c5035,
hotel,hotel,Wisma Maharani,"Jl. Jend. Ahmad Yani No.125, Pongo, Wangi-Wangi Sel., Kabupaten Wakatobi, Sulawesi Tenggara 93791","Pongo, Wangi-Wangi Sel., Kabupaten Wakatobi",SULAWESI TENGGARA,93791.0,Indonesia,85280001772.0,,,-5.3173276,123.5324614,https://maps.google.com/?cid=0x0:0xc48b92dd1b274cae,
hotel,hotel,Hotel Wisata Beach Wakatobi,"Jl. Jenderal Sudirman, Mandati II, Wangi-Wangi Sel., Kabupaten Wakatobi, Sulawesi Tenggara 93795","Mandati II, Wangi-Wangi Sel., Kabupaten Wakatobi",SULAWESI TENGGARA,93795.0,Indonesia,81245639300.0,,,-5.3305212,123.5379881,https://maps.google.com/?cid=0x0:0x4aa633eee4b45351,
hotel,hotel,Ar'Rafif Hotel,"Jl. Wa Opu Lessa No. 26 Pongo I, Mandati II, Kec. Wangi-Wangi, Kabupaten Wakatobi, Sulawesi Tenggara 93791","Mandati II, Kec. Wangi-Wangi, Kabupaten Wakatobi",SULAWESI TENGGARA,93791.0,Indonesia,85299345749.0,,,-5.3260519,123.5383135,https://maps.google.com/?cid=0x0:0x971a767b2d407a2d,
hotel,hotel,RedDoorz @ Wangi-Wangi Island Wakatobi,"Jl KH As'ary No.3, Numana, Wangi-Wangi Sel., Kabupaten Wakatobi, Sulawesi Tenggara 93791","Numana, Wangi-Wangi Sel., Kabupaten Wakatobi",SULAWESI TENGGARA,93791.0,Indonesia,895417300072.0,,,-5.3556714,123.5573989,https://maps.google.com/?cid=0x0:0xaaf0b479fca01ed9,
hotel,hotel,Villa Nadila,"Jalan jendral Sudirman manugela, desa pada raya makmur, Kabupaten Wakatobi, Sulawesi Tenggara 93791","desa pada raya makmur, Kabupaten Wakatobi",SULAWESI TENGGARA,93791.0,Indonesia,,,,-5.3120381,123.5355614,https://maps.google.com/?cid=0x0:0xadf69721fc13a34b,
hotel,hotel,Hotel Qubah 9 Kendari,"Jl. Martandu No.99A, Kambu, Kec. Kambu, Kota Kendari, Sulawesi Tenggara 93231","Kambu, Kec. Kambu, Kota Kendari",SULAWESI TENGGARA,93231.0,Indonesia,4013136047.0,,,-4.0083348,122.5345091,https://maps.google.com/?cid=0x0:0x16da52124c17b9e7,
hotel,hotel,Hotel Dewa Bintang 2,"Jl. Tebaonunggu No.17, Mandonga, Kec. Kendari, Kota Kendari, Sulawesi Tenggara 93111","Mandonga, Kec. Kendari, Kota Kendari",SULAWESI TENGGARA,93111.0,Indonesia,4013126799.0,,,-3.9651662,122.517495,https://maps.google.com/?cid=0x0:0x6a608f24d97621c5,
hotel,hotel,Sulawesi Tenggara 93795,"Wangi-Wangi Sel., Kabupaten Wakatobi, Sulawesi Tenggara","Kabupaten Wakatobi, Sulawesi Tenggara",SULAWESI TENGGARA,,Indonesia,,,,-5.3538433,123.5839983,https://maps.google.com/?cid=0x0:0x7b5ce73bddb1ea5d,
hotel,hotel,Naya Matahora Island Resort,"Jl. Poros Bandara Matahora, Lingkungan Topa, Mandati I, Wangi-Wangi Sel., Kabupaten Wakatobi, Sulawesi Tenggara 93791","Lingkungan Topa, Mandati I, Wangi-Wangi Sel., Kabupaten Wakatobi",SULAWESI TENGGARA,93791.0,Indonesia,8113983122.0,,,-5.297877,123.6443638,https://maps.google.com/?cid=0x0:0xaac34496293bb5f7,
hotel,hotel,Wisma Maharani,"Jl. Jend. Ahmad Yani No.125, Pongo, Wangi-Wangi Sel., Kabupaten Wakatobi, Sulawesi Tenggara 93791","Pongo, Wangi-Wangi Sel., Kabupaten Wakatobi",SULAWESI TENGGARA,93791.0,Indonesia,85280001772.0,,,-5.3173276,123.5324614,https://maps.google.com/?cid=0x0:0xc48b92dd1b274cae,
hotel,hotel,Ar'Rafif Hotel,"Jl. Wa Opu Lessa No. 26 Pongo I, Mandati II, Kec. Wangi-Wangi, Kabupaten Wakatobi, Sulawesi Tenggara 93791","Mandati II, Kec. Wangi-Wangi, Kabupaten Wakatobi",SULAWESI TENGGARA,93791.0,Indonesia,85299345749.0,,,-5.3260519,123.5383135,https://maps.google.com/?cid=0x0:0x971a767b2d407a2d,
hotel,hotel,Villa Nadila,"Jalan jendral Sudirman manugela, desa pada raya makmur, Kabupaten Wakatobi, Sulawesi Tenggara 93791","desa pada raya makmur, Kabupaten Wakatobi",SULAWESI TENGGARA,93791.0,Indonesia,,,,-5.3120381,123.5355614,https://maps.google.com/?cid=0x0:0xadf69721fc13a34b,
hotel,hotel,RedDoorz @ Wangi-Wangi Island Wakatobi,"Jl KH As'ary No.3, Numana, Wangi-Wangi Sel., Kabupaten Wakatobi, Sulawesi Tenggara 93791","Numana, Wangi-Wangi Sel., Kabupaten Wakatobi",SULAWESI TENGGARA,93791.0,Indonesia,895417300072.0,,,-5.3556714,123.5573989,https://maps.google.com/?cid=0x0:0xaaf0b479fca01ed9,
hotel,hotel,Wasabinua Hotel  Dive Resort,"Jl. A.H Nasution No.5, Wandoka Utara, Kec. Wangi-Wangi, Kabupaten Wakatobi, Sulawesi Tenggara 93791","Wandoka Utara, Kec. Wangi-Wangi, Kabupaten Wakatobi",SULAWESI TENGGARA,93791.0,Indonesia,82112618744.0,,,-5.2818363,123.5244352,https://maps.google.com/?cid=0x0:0xd2e98108ec835682,
hotel,hotel,areef homestay kaledupa,"Lr. Gau Satoto, Ambeua, Kec. Kaledupa, Kabupaten Wakatobi, Sulawesi Tenggara 93792","Ambeua, Kec. Kaledupa, Kabupaten Wakatobi",SULAWESI TENGGARA,93792.0,Indonesia,85397314344.0,,,-5.4973662,123.7557119,https://maps.google.com/?cid=0x0:0xe6d2eb8133a572d4,
hotel,hotel,Pombero Lodge,"Kulati, Kec. Tomia Tim., Kabupaten Wakatobi, Sulawesi Tenggara 93793","Kec. Tomia Tim., Kabupaten Wakatobi",SULAWESI TENGGARA,93793.0,Indonesia,82210793084.0,,,-5.7564475,123.9945641,https://maps.google.com/?cid=0x0:0xc15188896aa3e0c,
hotel,hotel,Mangrove Inn Diving Wakatobi,"FPQX+QH5 Penginapan Mangrove, Jl. Poros Jembatan, Ambeua, Kec. Kaledupa, Kabupaten Wakatobi, Sulawesi Tenggara 93792","Jl. Poros Jembatan, Ambeua, Kec. Kaledupa, Kabupaten Wakatobi",SULAWESI TENGGARA,93792.0,Indonesia,82292328550.0,,,-5.510609,123.748979,https://maps.google.com/?cid=0x0:0xbe559cba9a20211d,
hotel,hotel,Hotel Wahyu JS,"XG93+5WV, Lepo-Lepo, Kec. Baruga, Kota Kendari, Sulawesi Tenggara 93116","Lepo-Lepo, Kec. Baruga, Kota Kendari",SULAWESI TENGGARA,93116.0,Indonesia,81217006785.0,,,-4.0320082,122.5048076,https://maps.google.com/?cid=0x0:0x73602cbabc86b744,
restaurant,Rumah Makan,Rumah Makan Pasundan Binongko Wakatobi,"32VP+Q6F, Kampo-Kampo, Binongko, Kabupaten Wakatobi, Sulawesi Tenggara 93794","Kampo-Kampo, Binongko, Kabupaten Wakatobi",SULAWESI TENGGARA,93794.0,Indonesia,82276012626.0,,,-5.9055525,124.0355322,https://maps.google.com/?cid=0x0:0xc85acc2d7e6d9977,
restaurant,Rumah Makan,Warung Makan Keluarga Gado-gado Sate,"7WG2+F7V, Waha, Tomia, Kabupaten Wakatobi, Sulawesi Tenggara","Kabupaten Wakatobi, Sulawesi Tenggara",SULAWESI TENGGARA,,Indonesia,82293294508.0,,,-5.7237612,123.900657,https://maps.google.com/?cid=0x0:0x50797732d0a0db26,
restaurant,restaurant,Sulawesi Tenggara 93792,"Kabupaten Wakatobi, Sulawesi Tenggara","Kabupaten Wakatobi, Sulawesi Tenggara",SULAWESI TENGGARA,,Indonesia,,,,-5.5551203,123.785291,https://maps.google.com/?cid=0x0:0x9fcf3359b49a567d,
restaurant,Rumah Makan,RM. LALESA KALEDUPA,"Kec. Kaledupa, Kabupaten Wakatobi, Sulawesi Tenggara","Kabupaten Wakatobi, Sulawesi Tenggara",SULAWESI TENGGARA,,Indonesia,82345112982.0,,,-5.4962416,123.7544183,https://maps.google.com/?cid=0x0:0x7b29047aba06d304,
restaurant,Indonesia,RM REZA PASEBA,"Ambeua, Kec. Kaledupa, Kabupaten Wakatobi, Sulawesi Tenggara 93792","Kec. Kaledupa, Kabupaten Wakatobi",SULAWESI TENGGARA,93792.0,Indonesia,82292528455.0,,,-5.4986353,123.7536673,https://maps.google.com/?cid=0x0:0x61923df97b01c2d0,
restaurant,Kantor Polisi,Polsek Kaledupa,"Ambeua Raya, Kec. Kaledupa, Kabupaten Wakatobi, Sulawesi Tenggara 93792","Kec. Kaledupa, Kabupaten Wakatobi",SULAWESI TENGGARA,93792.0,Indonesia,82344014141.0,,,-5.5011692,123.754086,https://maps.google.com/?cid=0x0:0xb1b1e04bd32d52d,
restaurant,Indonesia,Rumah makan Dapoer feby hasima,"Kec. Kaledupa, Lau-Lua, Ling. Sampuawatu, Kabupaten Wakatobi, Sulawesi Tenggara 93792","Lau-Lua, Ling. Sampuawatu, Kabupaten Wakatobi",SULAWESI TENGGARA,93792.0,Indonesia,82253026528.0,,,-5.4995216,123.7502457,https://maps.google.com/?cid=0x0:0xfac5d468b2a11bf3,
restaurant,Kedai Kopi,Young Cafe  Culinary,"Pasar, Buranga, Kec. Kaledupa, Kabupaten Wakatobi, Sulawesi Tenggara 93792","Buranga, Kec. Kaledupa, Kabupaten Wakatobi",SULAWESI TENGGARA,93792.0,Indonesia,82121483821.0,,,-5.5153374,123.7732709,https://maps.google.com/?cid=0x0:0xaf4979a4f285fde,
restaurant,Rumah Makan,RM Yummy To manga,"FQV5+JH, Ambeua, Kec. Kaledupa, Kabupaten Wakatobi, Sulawesi Tenggara","Kabupaten Wakatobi, Sulawesi Tenggara",SULAWESI TENGGARA,,Indonesia,82189449198.0,,,-5.5059769,123.7589159,https://maps.google.com/?cid=0x0:0x6abdc895096be40f,
restaurant,Restoran,WM. SELERA MILENIAL,"FQW4+6C7, Ambeua, Kec. Kaledupa, Kabupaten Wakatobi, Sulawesi Tenggara 93792","Ambeua, Kec. Kaledupa, Kabupaten Wakatobi",SULAWESI TENGGARA,93792.0,Indonesia,82218144119.0,,,-5.5044701,123.756042,https://maps.google.com/?cid=0x0:0x117f234a82071b42,
restaurant,Kedai Kopi,Kopi 27,"Pajam, Kec. Kaledupa Sel., Kabupaten Wakatobi, Sulawesi Tenggara 93792","Kec. Kaledupa Sel., Kabupaten Wakatobi",SULAWESI TENGGARA,93792.0,Indonesia,85341565540.0,,,-5.5547108,123.782359,https://maps.google.com/?cid=0x0:0x1988c3262103e55e,
restaurant,Toko bahan makanan,Kios Aros,"Jl. La bomba Jln. Poros No.raya, Sombano, Kec. Kaledupa, Kabupaten Wakatobi, Sulawesi Tenggara 93792","Sombano, Kec. Kaledupa, Kabupaten Wakatobi",SULAWESI TENGGARA,93792.0,Indonesia,85340191082.0,,,-5.4818822,123.7098569,https://maps.google.com/?cid=0x0:0x51b28f7a833da554,
restaurant,Kedai Kopi,Warkop Bakau Kafe Nianse,"Ambeua, Kec. Kaledupa, Kabupaten Wakatobi, Sulawesi Tenggara 93792","Kec. Kaledupa, Kabupaten Wakatobi",SULAWESI TENGGARA,93792.0,Indonesia,85333367617.0,,,-5.4980389,123.7554651,https://maps.google.com/?cid=0x0:0x5a03fc6b4413745,
restaurant,restaurant,Sulawesi Tenggara 93792,"Kabupaten Wakatobi, Sulawesi Tenggara","Kabupaten Wakatobi, Sulawesi Tenggara",SULAWESI TENGGARA,,Indonesia,,,,-5.5551203,123.785291,https://maps.google.com/?cid=0x0:0x9fcf3359b49a567d,
restaurant,Rumah Makan,RM. LALESA KALEDUPA,"Kec. Kaledupa, Kabupaten Wakatobi, Sulawesi Tenggara","Kabupaten Wakatobi, Sulawesi Tenggara",SULAWESI TENGGARA,,Indonesia,82345112982.0,,,-5.4962416,123.7544183,https://maps.google.com/?cid=0x0:0x7b29047aba06d304,
restaurant,Indonesia,RM REZA PASEBA,"Ambeua, Kec. Kaledupa, Kabupaten Wakatobi, Sulawesi Tenggara 93792","Kec. Kaledupa, Kabupaten Wakatobi",SULAWESI TENGGARA,93792.0,Indonesia,82292528455.0,,,-5.4986353,123.7536673,https://maps.google.com/?cid=0x0:0x61923df97b01c2d0,
restaurant,Kantor Polisi,Polsek Kaledupa,"Ambeua Raya, Kec. Kaledupa, Kabupaten Wakatobi, Sulawesi Tenggara 93792","Kec. Kaledupa, Kabupaten Wakatobi",SULAWESI TENGGARA,93792.0,Indonesia,82344014141.0,,,-5.5011692,123.754086,https://maps.google.com/?cid=0x0:0xb1b1e04bd32d52d,
restaurant,Kedai Kopi,Young Cafe  Culinary,"Pasar, Buranga, Kec. Kaledupa, Kabupaten Wakatobi, Sulawesi Tenggara 93792","Buranga, Kec. Kaledupa, Kabupaten Wakatobi",SULAWESI TENGGARA,93792.0,Indonesia,82121483821.0,,,-5.5153374,123.7732709,https://maps.google.com/?cid=0x0:0xaf4979a4f285fde,
restaurant,Indonesia,Rumah makan Dapoer feby hasima,"Kec. Kaledupa, Lau-Lua, Ling. Sampuawatu, Kabupaten Wakatobi, Sulawesi Tenggara 93792","Lau-Lua, Ling. Sampuawatu, Kabupaten Wakatobi",SULAWESI TENGGARA,93792.0,Indonesia,82253026528.0,,,-5.4995216,123.7502457,https://maps.google.com/?cid=0x0:0xfac5d468b2a11bf3,
restaurant,Kedai Kopi,Kopi 27,"Pajam, Kec. Kaledupa Sel., Kabupaten Wakatobi, Sulawesi Tenggara 93792","Kec. Kaledupa Sel., Kabupaten Wakatobi",SULAWESI TENGGARA,93792.0,Indonesia,85341565540.0,,,-5.5547108,123.782359,https://maps.google.com/?cid=0x0:0x1988c3262103e55e,
restaurant,Toko bahan makanan,Kios Aros,"Jl. La bomba Jln. Poros No.raya, Sombano, Kec. Kaledupa, Kabupaten Wakatobi, Sulawesi Tenggara 93792","Sombano, Kec. Kaledupa, Kabupaten Wakatobi",SULAWESI TENGGARA,93792.0,Indonesia,85340191082.0,,,-5.4818822,123.7098569,https://maps.google.com/?cid=0x0:0x51b28f7a833da554,
restaurant,Rumah Makan,RM Yummy To manga,"FQV5+JH, Ambeua, Kec. Kaledupa, Kabupaten Wakatobi, Sulawesi Tenggara","Kabupaten Wakatobi, Sulawesi Tenggara",SULAWESI TENGGARA,,Indonesia,82189449198.0,,,-5.5059769,123.7589159,https://maps.google.com/?cid=0x0:0x6abdc895096be40f,
restaurant,Kedai Kopi,Warkop Bakau Kafe Nianse,"Ambeua, Kec. Kaledupa, Kabupaten Wakatobi, Sulawesi Tenggara 93792","Kec. Kaledupa, Kabupaten Wakatobi",SULAWESI TENGGARA,93792.0,Indonesia,85333367617.0,,,-5.4980389,123.7554651,https://maps.google.com/?cid=0x0:0x5a03fc6b4413745,
restaurant,Restoran,WM. SELERA MILENIAL,"FQW4+6C7, Ambeua, Kec. Kaledupa, Kabupaten Wakatobi, Sulawesi Tenggara 93792","Ambeua, Kec. Kaledupa, Kabupaten Wakatobi",SULAWESI TENGGARA,93792.0,Indonesia,82218144119.0,,,-5.5044701,123.756042,https://maps.google.com/?cid=0x0:0x117f234a82071b42,
restaurant,restaurant,Sulawesi Tenggara 93794,"Kabupaten Wakatobi, Sulawesi Tenggara","Kabupaten Wakatobi, Sulawesi Tenggara",SULAWESI TENGGARA,,Indonesia,,,,-5.9144277,124.0307246,https://maps.google.com/?cid=0x0:0x4074fc0032d77783,
restaurant,Rumah Makan,Rumah Makan Pasundan Binongko Wakatobi,"32VP+Q6F, Kampo-Kampo, Binongko, Kabupaten Wakatobi, Sulawesi Tenggara 93794","Kampo-Kampo, Binongko, Kabupaten Wakatobi",SULAWESI TENGGARA,93794.0,Indonesia,82276012626.0,,,-5.9055525,124.0355322,https://maps.google.com/?cid=0x0:0xc85acc2d7e6d9977,
restaurant,Kedai Kopi,Bumdes Oihu coffee shoop,"22CJ+RWM, jalan poros waloindi, dusun kapuluka, Oihu, Kec. Togo Binongko, Kabupaten Wakatobi, Sulawesi Tenggara 93794","jalan poros waloindi, dusun kapuluka, Oihu, Kec. Togo Binongko, Kabupaten Wakatobi",SULAWESI TENGGARA,93794.0,Indonesia,82199998327.0,,,-5.9779205,124.0323022,https://maps.google.com/?cid=0x0:0xc3b88740c2f7bc5,
restaurant,restaurant,Tomia,"Kabupaten Wakatobi, Sulawesi Tenggara","Kabupaten Wakatobi, Sulawesi Tenggara",SULAWESI TENGGARA,,Indonesia,,,,-5.6651282,124.080846,https://maps.google.com/?cid=0x0:0xe166d892ad79e166,
restaurant,restaurant,Hotel Sinar Harapan Tomia,"Usuku, Patipelong, Kec. Tomia Tim., Kabupaten Wakatobi, Sulawesi Tenggara 93793","Patipelong, Kec. Tomia Tim., Kabupaten Wakatobi",SULAWESI TENGGARA,93793.0,Indonesia,81321212082.0,,,-5.7760301,123.9303753,https://maps.google.com/?cid=0x0:0x3077ab7ae3dd094,
restaurant,Kedai Kopi,Warung Makan Mas Dhika Onemay,"7WH3+XMP, Waha, Tomia, Kabupaten Wakatobi, Sulawesi Tenggara","Kabupaten Wakatobi, Sulawesi Tenggara",SULAWESI TENGGARA,,Indonesia,85229003897.0,,,-5.7200258,123.9042178,https://maps.google.com/?cid=0x0:0x4aeeae1814459e18,
restaurant,restaurant,Cantika'S Kedai,"Depan SDN, Kollo Soha, Tomia, Kabupaten Wakatobi, Sulawesi Tenggara 93793","Kollo Soha, Tomia, Kabupaten Wakatobi",SULAWESI TENGGARA,93793.0,Indonesia,85394479088.0,,,-5.7385062,123.8957833,https://maps.google.com/?cid=0x0:0x6225991fd2c6fff0,
restaurant,Hotel bintang 3,Laroka Hotel  Resto,"6WW2+VX6, Waiti, Tomia, Kabupaten Wakatobi, Sulawesi Tenggara","Kabupaten Wakatobi, Sulawesi Tenggara",SULAWESI TENGGARA,,Indonesia,,,,-5.7528427,123.9024037,https://maps.google.com/?cid=0x0:0xb016756c31562dc9,
restaurant,Taman Nasional,Taman Nasional Wakatobi,"CWPJ+J57, Lentea, Sulawesi Tenggara",Sulawesi Tenggara,SULAWESI TENGGARA,,Indonesia,4022826326.0,,,-5.5634736,123.9304254,https://maps.google.com/?cid=0x0:0x5d26a2de09c86794,
restaurant,restaurant,Hotel Terapung Tomia,"Link bantea, Waha, Tomia, Kabupaten Wakatobi, Sulawesi Tenggara 93793","Waha, Tomia, Kabupaten Wakatobi",SULAWESI TENGGARA,93793.0,Indonesia,85299571215.0,,,-5.7213046,123.9023659,https://maps.google.com/?cid=0x0:0x38a43c26091e97f1,
restaurant,Kafe,Kedai Selly Water Tomia,"7VGW+2R, Waha, Kabupaten Wakatobi, Sulawesi Tenggara","Kabupaten Wakatobi, Sulawesi Tenggara",SULAWESI TENGGARA,,Indonesia,82191228722.0,,,-5.724948,123.897088,https://maps.google.com/?cid=0x0:0x32e9efbb058d5a8b,
restaurant,Rumah Makan,Ayu Lestari,"7WH4+44M, Unnamed Road, Waha, Tomia, Wakatobi Regency, South East Sulawesi 93793","Unnamed Road, Waha, Tomia, Wakatobi Regency",SULAWESI TENGGARA,93793.0,Indonesia,,,,-5.722171,123.9053018,https://maps.google.com/?cid=0x0:0xf41cc205787978a1,
restaurant,Kedai Kopi,Ershi K20 Coffee  Resto,"6WRW+W6Q, Jl. Encik Sulaiman, Kahiyanga, Kec. Tomia Tim., Kabupaten Wakatobi, Sulawesi Tenggara 93793","Jl. Encik Sulaiman, Kahiyanga, Kec. Tomia Tim., Kabupaten Wakatobi",SULAWESI TENGGARA,93793.0,Indonesia,82298993980.0,,,-5.7576531,123.9456159,https://maps.google.com/?cid=0x0:0xa5715ea326d2fa82,
restaurant,Kedai Kopi,Ko.Pi.Mana? #sinisaja,"Maranggo, Tomia, Kabupaten Wakatobi, Sulawesi Tenggara 97395","Tomia, Kabupaten Wakatobi",SULAWESI TENGGARA,97395.0,Indonesia,82227543527.0,,,-5.7719151,123.9203984,https://maps.google.com/?cid=0x0:0x990c90d743c8ebeb,
restaurant,restaurant,Labore Stay,"Jl. Pelabuhan Waha, Kelurahan Waha, Kecamatan Tomia, Waha, Sulawesi Tenggara 93793","Kelurahan Waha, Kecamatan Tomia, Waha",SULAWESI TENGGARA,93793.0,Indonesia,82393083595.0,,,-5.719925,123.905046,https://maps.google.com/?cid=0x0:0x2e7fec0896b2f442,
restaurant,Kedai Kopi,Kedai Zetime,"Onemay, Tomia, Kabupaten Wakatobi, Sulawesi Tenggara 93793","Tomia, Kabupaten Wakatobi",SULAWESI TENGGARA,93793.0,Indonesia,82381877768.0,,,-5.7196427,123.9077378,https://maps.google.com/?cid=0x0:0x3451a29b162fc41b,
restaurant,Pantai Umum,Pantai Lakota Tomia,"Jl. WAHA - WAITII, Waha, Tomia, Kabupaten Wakatobi, Sulawesi Tenggara 93793","Waha, Tomia, Kabupaten Wakatobi",SULAWESI TENGGARA,93793.0,Indonesia,82114952856.0,,,-5.7233789,123.9007048,https://maps.google.com/?cid=0x0:0xd6c07b814e052d9b,
restaurant,Bubble Tea,FaeyzaDrink,"Untu, Waha, Tomia, Kabupaten Wakatobi, Sulawesi Tenggara 93793","Waha, Tomia, Kabupaten Wakatobi",SULAWESI TENGGARA,93793.0,Indonesia,85216238843.0,,,-5.7238886,123.9005949,https://maps.google.com/?cid=0x0:0xb9ce1d3858dcbc78,
restaurant,Rumah Makan,Warung Makan Keluarga Gado-gado Sate,"7WG2+F7V, Waha, Tomia, Kabupaten Wakatobi, Sulawesi Tenggara","Kabupaten Wakatobi, Sulawesi Tenggara",SULAWESI TENGGARA,,Indonesia,82293294508.0,,,-5.7237612,123.900657,https://maps.google.com/?cid=0x0:0x50797732d0a0db26,
restaurant,restaurant,Kec. Tomia Tim.,"Kabupaten Wakatobi, Sulawesi Tenggara","Kabupaten Wakatobi, Sulawesi Tenggara",SULAWESI TENGGARA,,Indonesia,,,,-5.7577933,123.9638531,https://maps.google.com/?cid=0x0:0xaf465c64f131684e,
restaurant,restaurant,Pulau Tomia,Sulawesi Tenggara,Sulawesi Tenggara,SULAWESI TENGGARA,,Indonesia,,,,-5.7592924,123.9415518,https://maps.google.com/?cid=0x0:0xf20e989d929e33a1,
restaurant,Pusat Menyelam,Tomia Fun Dive,"Jl. Poros Waha - Onemay, Lingkungan Bantea, Waha, Tomia, Kabupaten Wakatobi, Sulawesi Tenggara 93793","Lingkungan Bantea, Waha, Tomia, Kabupaten Wakatobi",SULAWESI TENGGARA,93793.0,Indonesia,82271662749.0,,,-5.7215309,123.9034784,https://maps.google.com/?cid=0x0:0x357cb88be8193514,
restaurant,restaurant,Hotel Nayang,"Waha, Tomia, Kabupaten Wakatobi, Sulawesi Tenggara 93793","Tomia, Kabupaten Wakatobi",SULAWESI TENGGARA,93793.0,Indonesia,85242320282.0,,,-5.7205073,123.9057277,https://maps.google.com/?cid=0x0:0x632546c5d7f50304,
restaurant,Pantai Umum,Puri Kahyangan Tomia,"6WQR+V7C, Jl. Encik Sulaiman, Desa Kahianga, Kec. Tomia Tim., Kabupaten Wakatobi, Sulawesi Tenggara 93797","Jl. Encik Sulaiman, Desa Kahianga, Kec. Tomia Tim., Kabupaten Wakatobi",SULAWESI TENGGARA,93797.0,Indonesia,,,,-5.7603205,123.9406553,https://maps.google.com/?cid=0x0:0xa6a293ff4f5762c,
restaurant,restaurant,Laprasmi Hotel,"Pantai Lakota, Tomia, Kabupaten Wakatobi, Sulawesi Tenggara 93793","Tomia, Kabupaten Wakatobi",SULAWESI TENGGARA,93793.0,Indonesia,81288291215.0,,,-5.7228875,123.901374,https://maps.google.com/?cid=0x0:0x4182c5b14f7983b5,
restaurant,Kedai Kopi,Ershi K20 Coffee  Resto,"6WRW+W6Q, Jl. Encik Sulaiman, Kahiyanga, Kec. Tomia Tim., Kabupaten Wakatobi, Sulawesi Tenggara 93793","Jl. Encik Sulaiman, Kahiyanga, Kec. Tomia Tim., Kabupaten Wakatobi",SULAWESI TENGGARA,93793.0,Indonesia,82298993980.0,,,-5.7576531,123.9456159,https://maps.google.com/?cid=0x0:0xa5715ea326d2fa82,
restaurant,restaurant,Sulawesi Tenggara 93793,"Kabupaten Wakatobi, Sulawesi Tenggara","Kabupaten Wakatobi, Sulawesi Tenggara",SULAWESI TENGGARA,,Indonesia,,,,-5.7414018,123.9415518,https://maps.google.com/?cid=0x0:0xcc1ed7ef5fc129ca,
restaurant,Hotel,Hotel Sinar Harapan Tomia,"Usuku, Patipelong, Kec. Tomia Tim., Kabupaten Wakatobi, Sulawesi Tenggara 93793","Patipelong, Kec. Tomia Tim., Kabupaten Wakatobi",SULAWESI TENGGARA,93793.0,Indonesia,81321212082.0,,,-5.7760301,123.9303753,https://maps.google.com/?cid=0x0:0x3077ab7ae3dd094,
restaurant,Kedai Kopi,Warung Makan Mas Dhika Onemay,"7WH3+XMP, Waha, Tomia, Kabupaten Wakatobi, Sulawesi Tenggara","Kabupaten Wakatobi, Sulawesi Tenggara",SULAWESI TENGGARA,,Indonesia,85229003897.0,,,-5.7200258,123.9042178,https://maps.google.com/?cid=0x0:0x4aeeae1814459e18,
restaurant,Pantai Umum,Desa Wisata Kahianga (Dewi Kahyangan),"Kahiyanga, Kec. Tomia Tim., Kabupaten Wakatobi, Sulawesi Tenggara 93797","Kec. Tomia Tim., Kabupaten Wakatobi",SULAWESI TENGGARA,93797.0,Indonesia,81341541610.0,,,-5.7496798,123.95132,https://maps.google.com/?cid=0x0:0x79f9273911501ec4,
restaurant,restaurant,Cantika'S Kedai,"Depan SDN, Kollo Soha, Tomia, Kabupaten Wakatobi, Sulawesi Tenggara 93793","Kollo Soha, Tomia, Kabupaten Wakatobi",SULAWESI TENGGARA,93793.0,Indonesia,85394479088.0,,,-5.7385062,123.8957833,https://maps.google.com/?cid=0x0:0x6225991fd2c6fff0,
restaurant,restaurant,Hotel Terapung Tomia,"Link bantea, Waha, Tomia, Kabupaten Wakatobi, Sulawesi Tenggara 93793","Waha, Tomia, Kabupaten Wakatobi",SULAWESI TENGGARA,93793.0,Indonesia,85299571215.0,,,-5.7213046,123.9023659,https://maps.google.com/?cid=0x0:0x38a43c26091e97f1,
restaurant,Dapur Umum,Cafe  Resto Ayim Cemara Beach,"PGQC+M2X Desa, Jl. Dr. Soetomo, Wapia-pia, Kec. Wangi-Wangi, Kabupaten Wakatobi, Sulawesi Tenggara 93791","Jl. Dr. Soetomo, Wapia-pia, Kec. Wangi-Wangi, Kabupaten Wakatobi",SULAWESI TENGGARA,93791.0,Indonesia,82188917073.0,,,-5.260763,123.5200993,https://maps.google.com/?cid=0x0:0xd7c8dab7966b3547,
restaurant,Kafe,Kedai Selly Water Tomia,"7VGW+2R, Waha, Kabupaten Wakatobi, Sulawesi Tenggara","Kabupaten Wakatobi, Sulawesi Tenggara",SULAWESI TENGGARA,,Indonesia,82191228722.0,,,-5.724948,123.897088,https://maps.google.com/?cid=0x0:0x32e9efbb058d5a8b,
restaurant,Taman Nasional,Taman Nasional Wakatobi,"CWPJ+J57, Lentea, Sulawesi Tenggara",Sulawesi Tenggara,SULAWESI TENGGARA,,Indonesia,4022826326.0,,,-5.5634736,123.9304254,https://maps.google.com/?cid=0x0:0x5d26a2de09c86794,
restaurant,Rumah Makan,Ayu Lestari,"7WH4+44M, Unnamed Road, Waha, Tomia, Wakatobi Regency, South East Sulawesi 93793","Unnamed Road, Waha, Tomia, Wakatobi Regency",SULAWESI TENGGARA,93793.0,Indonesia,,,,-5.722171,123.9053018,https://maps.google.com/?cid=0x0:0xf41cc205787978a1,
restaurant,Hotel bintang 3,Laroka Hotel  Resto,"6WW2+VX6, Waiti, Tomia, Kabupaten Wakatobi, Sulawesi Tenggara","Kabupaten Wakatobi, Sulawesi Tenggara",SULAWESI TENGGARA,,Indonesia,,,,-5.7528427,123.9024037,https://maps.google.com/?cid=0x0:0xb016756c31562dc9,
restaurant,Restoran,Restaurant WISATA,"MG9P+HPQ, Pulau Wangiwangi, Sulawesi Tenggara, Kabupaten Wakatobi, Sulawesi Tenggara 93795","Pulau Wangiwangi, Sulawesi Tenggara, Kabupaten Wakatobi",SULAWESI TENGGARA,93795.0,Indonesia,81245639300.0,,,-5.3310337,123.5368516,https://maps.google.com/?cid=0x0:0xa863b550f3aab59,
restaurant,Bakso,RM MUSLIHA,"MG8X+FVC, Jl. Dusun, Mandati I, Wangi-Wangi Sel., Kabupaten Wakatobi, Sulawesi Tenggara 93795","Jl. Dusun, Mandati I, Wangi-Wangi Sel., Kabupaten Wakatobi",SULAWESI TENGGARA,93795.0,Indonesia,82196329541.0,,,-5.3338087,123.5496468,https://maps.google.com/?cid=0x0:0x3b7a50bd6c860398,
restaurant,Kedai Kopi,Kedai Zetime,"Onemay, Tomia, Kabupaten Wakatobi, Sulawesi Tenggara 93793","Tomia, Kabupaten Wakatobi",SULAWESI TENGGARA,93793.0,Indonesia,82381877768.0,,,-5.7196427,123.9077378,https://maps.google.com/?cid=0x0:0x3451a29b162fc41b,
restaurant,Restoran,RM Manshurin Mie Pangsit,"Pongo, Wangi-Wangi Sel., Kabupaten Wakatobi, Sulawesi Tenggara 93791","Wangi-Wangi Sel., Kabupaten Wakatobi",SULAWESI TENGGARA,93791.0,Indonesia,85299463554.0,,,-5.3254353,123.5395775,https://maps.google.com/?cid=0x0:0xef91522647997a58,
restaurant,Kafe,Brianna Beach,"Link, Jl. Sultan Hasanudin, Wandoka Utara, Kec. Wangi-Wangi, Kabupaten Wakatobi, Sulawesi Tenggara 93791","Jl. Sultan Hasanudin, Wandoka Utara, Kec. Wangi-Wangi, Kabupaten Wakatobi",SULAWESI TENGGARA,93791.0,Indonesia,81241400920.0,,,-5.2933837,123.5280781,https://maps.google.com/?cid=0x0:0x43a25316b52d4bc1,
restaurant,Indonesia,RM. Arjuna,"MGMM+624, Pongo, Wangi-Wangi Sel., Kabupaten Wakatobi, Sulawesi Tenggara 93791","Pongo, Wangi-Wangi Sel., Kabupaten Wakatobi",SULAWESI TENGGARA,93791.0,Indonesia,,,,-5.316987,123.5325868,https://maps.google.com/?cid=0x0:0x70f8bdb7d4d305a1,
restaurant,Kedai Kopi,Ko.Pi.Mana? #sinisaja,"Maranggo, Tomia, Kabupaten Wakatobi, Sulawesi Tenggara 97395","Tomia, Kabupaten Wakatobi",SULAWESI TENGGARA,97395.0,Indonesia,82227543527.0,,,-5.7719151,123.9203984,https://maps.google.com/?cid=0x0:0x990c90d743c8ebeb,
restaurant,Kedai Kopi,Nua Indah Coffee and Resto,"Jalan Ahmad Nasution No.5, Wandoka Utara, Kabupaten Wakatobi, Sulawesi Tenggara 93791","Wandoka Utara, Kabupaten Wakatobi",SULAWESI TENGGARA,93791.0,Indonesia,81341868715.0,,,-5.2821048,123.5238133,https://maps.google.com/?cid=0x0:0x8bfb38493a4bfdc8,
restaurant,Restoran,Warung Makan D'Bantea,"Mandati I, Wangi-Wangi Sel., Kabupaten Wakatobi, Sulawesi Tenggara 93795","Wangi-Wangi Sel., Kabupaten Wakatobi",SULAWESI TENGGARA,93795.0,Indonesia,82343137084.0,,,-5.3349534,123.5391265,https://maps.google.com/?cid=0x0:0xeff866a038bc5f20,
restaurant,Tujuan Wisata,Restoran Pantai Wambuliga Desa Sombu,"Wandoka Utara, Wangi-Wangi Sel., Kabupaten Wakatobi, Sulawesi Tenggara 93791","Wangi-Wangi Sel., Kabupaten Wakatobi",SULAWESI TENGGARA,93791.0,Indonesia,,,,-5.2722023,123.52094,https://maps.google.com/?cid=0x0:0x635fd017cb311064,
restaurant,restaurant,Sulawesi Tenggara 93791,"Kec. Wangi-Wangi, Kabupaten Wakatobi, Sulawesi Tenggara","Kabupaten Wakatobi, Sulawesi Tenggara",SULAWESI TENGGARA,,Indonesia,,,,-5.3004341,123.5839983,https://maps.google.com/?cid=0x0:0x192a8c22fe0c5035,
restaurant,Restoran,Restaurant WISATA,"MG9P+HPQ, Pulau Wangiwangi, Sulawesi Tenggara, Kabupaten Wakatobi, Sulawesi Tenggara 93795","Pulau Wangiwangi, Sulawesi Tenggara, Kabupaten Wakatobi",SULAWESI TENGGARA,93795.0,Indonesia,81245639300.0,,,-5.3310337,123.5368516,https://maps.google.com/?cid=0x0:0xa863b550f3aab59,
restaurant,Dapur Umum,Cafe  Resto Ayim Cemara Beach,"PGQC+M2X Desa, Jl. Dr. Soetomo, Wapia-pia, Kec. Wangi-Wangi, Kabupaten Wakatobi, Sulawesi Tenggara 93791","Jl. Dr. Soetomo, Wapia-pia, Kec. Wangi-Wangi, Kabupaten Wakatobi",SULAWESI TENGGARA,93791.0,Indonesia,82188917073.0,,,-5.260763,123.5200993,https://maps.google.com/?cid=0x0:0xd7c8dab7966b3547,
restaurant,Indonesia,RM. Arjuna,"MGMM+624, Pongo, Wangi-Wangi Sel., Kabupaten Wakatobi, Sulawesi Tenggara 93791","Pongo, Wangi-Wangi Sel., Kabupaten Wakatobi",SULAWESI TENGGARA,93791.0,Indonesia,,,,-5.316987,123.5325868,https://maps.google.com/?cid=0x0:0x70f8bdb7d4d305a1,
restaurant,Kafe,Brianna Beach,"Link, Jl. Sultan Hasanudin, Wandoka Utara, Kec. Wangi-Wangi, Kabupaten Wakatobi, Sulawesi Tenggara 93791","Jl. Sultan Hasanudin, Wandoka Utara, Kec. Wangi-Wangi, Kabupaten Wakatobi",SULAWESI TENGGARA,93791.0,Indonesia,81241400920.0,,,-5.2933837,123.5280781,https://maps.google.com/?cid=0x0:0x43a25316b52d4bc1,
restaurant,Restoran,Warung Makan D'Bantea,"Mandati I, Wangi-Wangi Sel., Kabupaten Wakatobi, Sulawesi Tenggara 93795","Wangi-Wangi Sel., Kabupaten Wakatobi",SULAWESI TENGGARA,93795.0,Indonesia,82343137084.0,,,-5.3349534,123.5391265,https://maps.google.com/?cid=0x0:0xeff866a038bc5f20,
restaurant,restaurant,Wasabinua Hotel  Dive Resort,"Jl. A.H Nasution No.5, Wandoka Utara, Kec. Wangi-Wangi, Kabupaten Wakatobi, Sulawesi Tenggara 93791","Wandoka Utara, Kec. Wangi-Wangi, Kabupaten Wakatobi",SULAWESI TENGGARA,93791.0,Indonesia,82112618744.0,,,-5.2818363,123.5244352,https://maps.google.com/?cid=0x0:0xd2e98108ec835682,
restaurant,restaurant,Hotel Wisata Beach Wakatobi,"Jl. Jenderal Sudirman, Mandati II, Wangi-Wangi Sel., Kabupaten Wakatobi, Sulawesi Tenggara 93795","Mandati II, Wangi-Wangi Sel., Kabupaten Wakatobi",SULAWESI TENGGARA,93795.0,Indonesia,81245639300.0,,,-5.3305212,123.5379881,https://maps.google.com/?cid=0x0:0x4aa633eee4b45351,
restaurant,restaurant,Ar'Rafif Hotel,"Jl. Wa Opu Lessa No. 26 Pongo I, Mandati II, Kec. Wangi-Wangi, Kabupaten Wakatobi, Sulawesi Tenggara 93791","Mandati II, Kec. Wangi-Wangi, Kabupaten Wakatobi",SULAWESI TENGGARA,93791.0,Indonesia,85299345749.0,,,-5.3260519,123.5383135,https://maps.google.com/?cid=0x0:0x971a767b2d407a2d,
restaurant,restaurant,Villa Nadila,"Jalan jendral Sudirman manugela, desa pada raya makmur, Kabupaten Wakatobi, Sulawesi Tenggara 93791","desa pada raya makmur, Kabupaten Wakatobi",SULAWESI TENGGARA,93791.0,Indonesia,,,,-5.3120381,123.5355614,https://maps.google.com/?cid=0x0:0xadf69721fc13a34b,
restaurant,restaurant,RedDoorz @ Wangi-Wangi Island Wakatobi,"Jl KH As'ary No.3, Numana, Wangi-Wangi Sel., Kabupaten Wakatobi, Sulawesi Tenggara 93791","Numana, Wangi-Wangi Sel., Kabupaten Wakatobi",SULAWESI TENGGARA,93791.0,Indonesia,895417300072.0,,,-5.3556714,123.5573989,https://maps.google.com/?cid=0x0:0xaaf0b479fca01ed9,
restaurant,Bakso,RM MUSLIHA,"MG8X+FVC, Jl. Dusun, Mandati I, Wangi-Wangi Sel., Kabupaten Wakatobi, Sulawesi Tenggara 93795","Jl. Dusun, Mandati I, Wangi-Wangi Sel., Kabupaten Wakatobi",SULAWESI TENGGARA,93795.0,Indonesia,82196329541.0,,,-5.3338087,123.5496468,https://maps.google.com/?cid=0x0:0x3b7a50bd6c860398,
restaurant,Restoran,Restoran Aden,"Jl. Jend. Ahmad Yani No.115, Wanci, Kec. Wangi-Wangi, Kabupaten Wakatobi, Sulawesi Tenggara 93791","Wanci, Kec. Wangi-Wangi, Kabupaten Wakatobi",SULAWESI TENGGARA,93791.0,Indonesia,82193828255.0,,,-5.3181995,123.5328842,https://maps.google.com/?cid=0x0:0x8acf2647d57daeb9,
restaurant,Tujuan Wisata,Goa Air Kontamale,"MGJM+QW2, Jl. Poros Wandoka Lingk. Teekosapi, Pongo, Kec. Wangi-Wangi, Kabupaten Wakatobi, Sulawesi Tenggara 93791","Jl. Poros Wandoka Lingk. Teekosapi, Pongo, Kec. Wangi-Wangi, Kabupaten Wakatobi",SULAWESI TENGGARA,93791.0,Indonesia,,,,-5.318101,123.5347544,https://maps.google.com/?cid=0x0:0x6927d9dc22ca9645,
restaurant,Restoran,Restaurant Wisata,"MHFW+G7C, Jl. A. Yani, Mandati III, Wangi-Wangi Sel., Kabupaten Wakatobi, Sulawesi Tenggara 93795","Jl. A. Yani, Mandati III, Wangi-Wangi Sel., Kabupaten Wakatobi",SULAWESI TENGGARA,93795.0,Indonesia,40421175.0,,,-5.326175,123.595651,https://maps.google.com/?cid=0x0:0x47b00e9a324be9c7,
restaurant,Bakso,Waroeng makan M45 van,"Pongo, Wangi-Wangi Sel., Kabupaten Wakatobi, Sulawesi Tenggara 93791","Wangi-Wangi Sel., Kabupaten Wakatobi",SULAWESI TENGGARA,93791.0,Indonesia,85336464365.0,,,-5.3258394,123.5364886,https://maps.google.com/?cid=0x0:0x203314761cf8bad9,
restaurant,Brunch,Rumah Makan Aiqzi,"Bosa No. 4, Jl. Jenderal Soedirman, Mandati II, Kec. Wangi-Wangi, Kabupaten Wakatobi, Sulawesi Tenggara 93791","Jl. Jenderal Soedirman, Mandati II, Kec. Wangi-Wangi, Kabupaten Wakatobi",SULAWESI TENGGARA,93791.0,Indonesia,85395821080.0,,,-5.3293025,123.5385005,https://maps.google.com/?cid=0x0:0x55a5e98883de5a3f,
restaurant,Tujuan Wisata,Restoran Pantai Wambuliga Desa Sombu,"Wandoka Utara, Wangi-Wangi Sel., Kabupaten Wakatobi, Sulawesi Tenggara 93791","Wangi-Wangi Sel., Kabupaten Wakatobi",SULAWESI TENGGARA,93791.0,Indonesia,,,,-5.2722023,123.52094,https://maps.google.com/?cid=0x0:0x635fd017cb311064,
restaurant,Hotel Resor,Ampupu beach resort,"MGWG+CQP, Jl. Sultan Hasanudin, Kec. Wangi-Wangi, Kabupaten Wakatobi, Sulawesi Tenggara 93791","Jl. Sultan Hasanudin, Kec. Wangi-Wangi, Kabupaten Wakatobi",SULAWESI TENGGARA,93791.0,Indonesia,81211283338.0,,,-5.303906,123.526968,https://maps.google.com/?cid=0x0:0xc60471c2e9d2eaaa,
restaurant,Kedai Kopi,Nua Indah Coffee and Resto,"Jalan Ahmad Nasution No.5, Wandoka Utara, Kabupaten Wakatobi, Sulawesi Tenggara 93791","Wandoka Utara, Kabupaten Wakatobi",SULAWESI TENGGARA,93791.0,Indonesia,81341868715.0,,,-5.2821048,123.5238133,https://maps.google.com/?cid=0x0:0x8bfb38493a4bfdc8,
restaurant,Restoran,Daporo Waode,"MGFP+WFH, Jl. Kemakmuran, Mandati II, Wangi-Wangi Sel., Kabupaten Wakatobi, Sulawesi Tenggara 93795","Jl. Kemakmuran, Mandati II, Wangi-Wangi Sel., Kabupaten Wakatobi",SULAWESI TENGGARA,93795.0,Indonesia,81245572540.0,,,-5.3251903,123.5362447,https://maps.google.com/?cid=0x0:0x8dd92c846e60eec3,
restaurant,Ikan Bakar,Sari Laut Lamongan Mas Aryo,"Jl Tekbangka, Pongo, Kec. Wangi-Wangi, Kabupaten Wakatobi, Sulawesi Tenggara 93791","Pongo, Kec. Wangi-Wangi, Kabupaten Wakatobi",SULAWESI TENGGARA,93791.0,Indonesia,82271167331.0,,,-5.3221847,123.5352119,https://maps.google.com/?cid=0x0:0xb02f0f1b5b523410,
restaurant,Hidangan Laut,Sari Laut Br,"MGMP+6HJ, Jl. Jend. Sudirman, Pongo, Kec. Wangi-Wangi, Kabupaten Wakatobi, Sulawesi Tenggara 93791","Jl. Jend. Sudirman, Pongo, Kec. Wangi-Wangi, Kabupaten Wakatobi",SULAWESI TENGGARA,93791.0,Indonesia,82347401066.0,,,-5.3169166,123.536397,https://maps.google.com/?cid=0x0:0x1264bfea8ce4c5ea,
restaurant,Restoran,Dm'Food Wakatobi,"Wanci, Wangi-Wangi Sel., Kabupaten Wakatobi, Sulawesi Tenggara 93791","Wangi-Wangi Sel., Kabupaten Wakatobi",SULAWESI TENGGARA,93791.0,Indonesia,82255761636.0,,,-5.3159256,123.5316934,https://maps.google.com/?cid=0x0:0x9fd3d7c527eabc8a,
restaurant,Kedai Kopi,D'Frens Cafe,"MG8Q+M9G, Selatan, Mandati I, Wangi-Wangi, Wakatobi Regency, South East Sulawesi 93795","Selatan, Mandati I, Wangi-Wangi, Wakatobi Regency",SULAWESI TENGGARA,93795.0,Indonesia,81341738065.0,,,-5.3333011,123.5384581,https://maps.google.com/?cid=0x0:0xf3e6ecaf8e43885f,
restaurant,Rumah Makan,Top Chicken Wakatobi/Wanci,"MGMJ+JP3, Jl. Jenderal Soedirman, Wanci, Kec. Wangi-Wangi, Kabupaten Wakatobi, Sulawesi Tenggara 93791","Jl. Jenderal Soedirman, Wanci, Kec. Wangi-Wangi, Kabupaten Wakatobi",SULAWESI TENGGARA,93791.0,Indonesia,85342315518.0,,,-5.3159869,123.5317821,https://maps.google.com/?cid=0x0:0x9ab39c1b78952c51,
restaurant,Bakso,Bakso ummi,"Pongo, Wangi-Wangi Sel., Kabupaten Wakatobi, Sulawesi Tenggara 93791","Wangi-Wangi Sel., Kabupaten Wakatobi",SULAWESI TENGGARA,93791.0,Indonesia,82291713693.0,,,-5.3196992,123.5310642,https://maps.google.com/?cid=0x0:0x62136b40da3d358f,
restaurant,restaurant,Momoyo Wakatobi,"Jl. Jend. Ahmad Yani, Pongo, Wangi-Wangi Sel., Kabupaten Wakatobi, Sulawesi Tenggara 93791","Pongo, Wangi-Wangi Sel., Kabupaten Wakatobi",SULAWESI TENGGARA,93791.0,Indonesia,82211699425.0,,,-5.3238185,123.5358928,https://maps.google.com/?cid=0x0:0x27e57f316917c44f,
restaurant,restaurant,Sulawesi Tenggara 93795,"Wangi-Wangi Sel., Kabupaten Wakatobi, Sulawesi Tenggara","Kabupaten Wakatobi, Sulawesi Tenggara",SULAWESI TENGGARA,,Indonesia,,,,-5.3538433,123.5839983,https://maps.google.com/?cid=0x0:0x7b5ce73bddb1ea5d,
restaurant,Restoran,Warung Makan D'Bantea,"Mandati I, Wangi-Wangi Sel., Kabupaten Wakatobi, Sulawesi Tenggara 93795","Wangi-Wangi Sel., Kabupaten Wakatobi",SULAWESI TENGGARA,93795.0,Indonesia,82343137084.0,,,-5.3349534,123.5391265,https://maps.google.com/?cid=0x0:0xeff866a038bc5f20,
restaurant,Restoran,Restaurant WISATA,"MG9P+HPQ, Pulau Wangiwangi, Sulawesi Tenggara, Kabupaten Wakatobi, Sulawesi Tenggara 93795","Pulau Wangiwangi, Sulawesi Tenggara, Kabupaten Wakatobi",SULAWESI TENGGARA,93795.0,Indonesia,81245639300.0,,,-5.3310337,123.5368516,https://maps.google.com/?cid=0x0:0xa863b550f3aab59,
restaurant,Indonesia,RM. Arjuna,"MGMM+624, Pongo, Wangi-Wangi Sel., Kabupaten Wakatobi, Sulawesi Tenggara 93791","Pongo, Wangi-Wangi Sel., Kabupaten Wakatobi",SULAWESI TENGGARA,93791.0,Indonesia,,,,-5.316987,123.5325868,https://maps.google.com/?cid=0x0:0x70f8bdb7d4d305a1,
restaurant,Restoran,RM Manshurin Mie Pangsit,"Pongo, Wangi-Wangi Sel., Kabupaten Wakatobi, Sulawesi Tenggara 93791","Wangi-Wangi Sel., Kabupaten Wakatobi",SULAWESI TENGGARA,93791.0,Indonesia,85299463554.0,,,-5.3254353,123.5395775,https://maps.google.com/?cid=0x0:0xef91522647997a58,
restaurant,Restoran,Restaurant Wisata,"MHFW+G7C, Jl. A. Yani, Mandati III, Wangi-Wangi Sel., Kabupaten Wakatobi, Sulawesi Tenggara 93795","Jl. A. Yani, Mandati III, Wangi-Wangi Sel., Kabupaten Wakatobi",SULAWESI TENGGARA,93795.0,Indonesia,40421175.0,,,-5.326175,123.595651,https://maps.google.com/?cid=0x0:0x47b00e9a324be9c7,
restaurant,Restoran,Daporo Waode,"MGFP+WFH, Jl. Kemakmuran, Mandati II, Wangi-Wangi Sel., Kabupaten Wakatobi, Sulawesi Tenggara 93795","Jl. Kemakmuran, Mandati II, Wangi-Wangi Sel., Kabupaten Wakatobi",SULAWESI TENGGARA,93795.0,Indonesia,81245572540.0,,,-5.3251903,123.5362447,https://maps.google.com/?cid=0x0:0x8dd92c846e60eec3,
restaurant,Kedai Kopi,D'Frens Cafe,"MG8Q+M9G, Selatan, Mandati I, Wangi-Wangi, Wakatobi Regency, South East Sulawesi 93795","Selatan, Mandati I, Wangi-Wangi, Wakatobi Regency",SULAWESI TENGGARA,93795.0,Indonesia,81341738065.0,,,-5.3333011,123.5384581,https://maps.google.com/?cid=0x0:0xf3e6ecaf8e43885f,
restaurant,Kafe,Shelter Cafe  Mini Resto,"Jl. Jenderal Sudirman, Mandati I, Wangi-Wangi Sel., Kabupaten Wakatobi, Sulawesi Tenggara 93795","Mandati I, Wangi-Wangi Sel., Kabupaten Wakatobi",SULAWESI TENGGARA,93795.0,Indonesia,85242247322.0,,,-5.338175,123.5395285,https://maps.google.com/?cid=0x0:0xee21814f00ff2118,
restaurant,Bakso,Waroeng makan M45 van,"Pongo, Wangi-Wangi Sel., Kabupaten Wakatobi, Sulawesi Tenggara 93791","Wangi-Wangi Sel., Kabupaten Wakatobi",SULAWESI TENGGARA,93791.0,Indonesia,85336464365.0,,,-5.3258394,123.5364886,https://maps.google.com/?cid=0x0:0x203314761cf8bad9,
restaurant,Restoran,Restoran Aden,"Jl. Jend. Ahmad Yani No.115, Wanci, Kec. Wangi-Wangi, Kabupaten Wakatobi, Sulawesi Tenggara 93791","Wanci, Kec. Wangi-Wangi, Kabupaten Wakatobi",SULAWESI TENGGARA,93791.0,Indonesia,82193828255.0,,,-5.3181995,123.5328842,https://maps.google.com/?cid=0x0:0x8acf2647d57daeb9,
restaurant,Brunch,Rumah Makan Aiqzi,"Bosa No. 4, Jl. Jenderal Soedirman, Mandati II, Kec. Wangi-Wangi, Kabupaten Wakatobi, Sulawesi Tenggara 93791","Jl. Jenderal Soedirman, Mandati II, Kec. Wangi-Wangi, Kabupaten Wakatobi",SULAWESI TENGGARA,93791.0,Indonesia,85395821080.0,,,-5.3293025,123.5385005,https://maps.google.com/?cid=0x0:0x55a5e98883de5a3f,
restaurant,Hidangan Laut,Sari Laut Br,"MGMP+6HJ, Jl. Jend. Sudirman, Pongo, Kec. Wangi-Wangi, Kabupaten Wakatobi, Sulawesi Tenggara 93791","Jl. Jend. Sudirman, Pongo, Kec. Wangi-Wangi, Kabupaten Wakatobi",SULAWESI TENGGARA,93791.0,Indonesia,82347401066.0,,,-5.3169166,123.536397,https://maps.google.com/?cid=0x0:0x1264bfea8ce4c5ea,
restaurant,Padang,Rumah Makan Sederhana,"MHFW+G7C, JL. Inpres Mandati II, Wangi-Wangi, Mandati III, Wangi-Wangi Sel., Kabupaten Wakatobi, Sulawesi Tenggara 93795","JL. Inpres Mandati II, Wangi-Wangi, Mandati III, Wangi-Wangi Sel., Kabupaten Wakatobi",SULAWESI TENGGARA,93795.0,Indonesia,81524813524.0,,,-5.326175,123.595651,https://maps.google.com/?cid=0x0:0x4a13a5df6c95ca13,
restaurant,Restoran,Dapoer Maritim Cafe  Resto,"MGGM+8PR, Bau Bau - Wanci, Kabupaten Wakatobi, Sulawesi Tenggara","Kabupaten Wakatobi, Sulawesi Tenggara",SULAWESI TENGGARA,,Indonesia,85255550556.0,,,-5.324142,123.5342733,https://maps.google.com/?cid=0x0:0xd8facac4af36c4ce,
restaurant,Restoran,RM.NUR ZILZA,"MGCQ+WF3, Jl. Merdeka, Mandati II, Wangi-Wangi Sel., Kabupaten Wakatobi, Sulawesi Tenggara 93795","Jl. Merdeka, Mandati II, Wangi-Wangi Sel., Kabupaten Wakatobi",SULAWESI TENGGARA,93795.0,Indonesia,,,,-5.3277287,123.5386691,https://maps.google.com/?cid=0x0:0x298f1d34b724ab6a,
restaurant,Ikan Bakar,Sari Laut Lamongan Mas Aryo,"Jl Tekbangka, Pongo, Kec. Wangi-Wangi, Kabupaten Wakatobi, Sulawesi Tenggara 93791","Pongo, Kec. Wangi-Wangi, Kabupaten Wakatobi",SULAWESI TENGGARA,93791.0,Indonesia,82271167331.0,,,-5.3221847,123.5352119,https://maps.google.com/?cid=0x0:0xb02f0f1b5b523410,
restaurant,Kafe,Brianna Beach,"Link, Jl. Sultan Hasanudin, Wandoka Utara, Kec. Wangi-Wangi, Kabupaten Wakatobi, Sulawesi Tenggara 93791","Jl. Sultan Hasanudin, Wandoka Utara, Kec. Wangi-Wangi, Kabupaten Wakatobi",SULAWESI TENGGARA,93791.0,Indonesia,81241400920.0,,,-5.2933837,123.5280781,https://maps.google.com/?cid=0x0:0x43a25316b52d4bc1,
restaurant,Rumah Makan,Ayam Geprek Ninapev,"Jl. Waopu Jenggo No.07, Mandati II, Wangi-Wangi Sel., Kabupaten Wakatobi, Sulawesi Tenggara 93795","Mandati II, Wangi-Wangi Sel., Kabupaten Wakatobi",SULAWESI TENGGARA,93795.0,Indonesia,,,,-5.3321743,123.5391522,https://maps.google.com/?cid=0x0:0xddb299f3fc14e0d3,
restaurant,Padang,Warung Coto Makassar,"MG8Q+8G3, Mandati I, Kec. Wangi-Wangi, Kabupaten Wakatobi, Sulawesi Tenggara 93795","Mandati I, Kec. Wangi-Wangi, Kabupaten Wakatobi",SULAWESI TENGGARA,93795.0,Indonesia,,,,-5.33423,123.5388005,https://maps.google.com/?cid=0x0:0x19b692d8e30fed6d,
restaurant,Restoran,Dm'Food Wakatobi,"Wanci, Wangi-Wangi Sel., Kabupaten Wakatobi, Sulawesi Tenggara 93791","Wangi-Wangi Sel., Kabupaten Wakatobi",SULAWESI TENGGARA,93791.0,Indonesia,82255761636.0,,,-5.3159256,123.5316934,https://maps.google.com/?cid=0x0:0x9fd3d7c527eabc8a,
restaurant,Restoran,Rumah Makan Pelangi,"MGCQ+C49, Jl. Jend. Ahmad Yani, Mandati III, Wangi-Wangi Sel., Kabupaten Wakatobi, Sulawesi Tenggara 93795","Jl. Jend. Ahmad Yani, Mandati III, Wangi-Wangi Sel., Kabupaten Wakatobi",SULAWESI TENGGARA,93795.0,Indonesia,85241971081.0,,,-5.3289704,123.5378497,https://maps.google.com/?cid=0x0:0x661ed8ad31f21942,
restaurant,Restoran,Bakso Sahabat 07,"MG7R+XQJ, Mandati II, Wangi-Wangi Sel., Kabupaten Wakatobi, Sulawesi Tenggara 93795","Mandati II, Wangi-Wangi Sel., Kabupaten Wakatobi",SULAWESI TENGGARA,93795.0,Indonesia,82293306300.0,,,-5.3350332,123.5418822,https://maps.google.com/?cid=0x0:0xd8699f2e19dfd4bc,
cafe,cafe,Sulawesi Tenggara 93794,"Kabupaten Wakatobi, Sulawesi Tenggara","Kabupaten Wakatobi, Sulawesi Tenggara",SULAWESI TENGGARA,,Indonesia,,,,-5.9144277,124.0307246,https://maps.google.com/?cid=0x0:0x4074fc0032d77783,
cafe,Kedai Kopi,Bumdes Oihu coffee shoop,"22CJ+RWM, jalan poros waloindi, dusun kapuluka, Oihu, Kec. Togo Binongko, Kabupaten Wakatobi, Sulawesi Tenggara 93794","jalan poros waloindi, dusun kapuluka, Oihu, Kec. Togo Binongko, Kabupaten Wakatobi",SULAWESI TENGGARA,93794.0,Indonesia,82199998327.0,,,-5.9779205,124.0323022,https://maps.google.com/?cid=0x0:0xc3b88740c2f7bc5,
cafe,Rumah Makan,Rumah Makan Pasundan Binongko Wakatobi,"32VP+Q6F, Kampo-Kampo, Binongko, Kabupaten Wakatobi, Sulawesi Tenggara 93794","Kampo-Kampo, Binongko, Kabupaten Wakatobi",SULAWESI TENGGARA,93794.0,Indonesia,82276012626.0,,,-5.9055525,124.0355322,https://maps.google.com/?cid=0x0:0xc85acc2d7e6d9977,
cafe,cafe,Sulawesi Tenggara 93792,"Kabupaten Wakatobi, Sulawesi Tenggara","Kabupaten Wakatobi, Sulawesi Tenggara",SULAWESI TENGGARA,,Indonesia,,,,-5.5551203,123.785291,https://maps.google.com/?cid=0x0:0x9fcf3359b49a567d,
cafe,Kedai Kopi,Double Peace,"FQX3+467, Ambeua Raya, Kec. Kaledupa, Kabupaten Wakatobi, Sulawesi Tenggara 93792","Ambeua Raya, Kec. Kaledupa, Kabupaten Wakatobi",SULAWESI TENGGARA,93792.0,Indonesia,82198487995.0,,,-5.5022171,123.7530326,https://maps.google.com/?cid=0x0:0xdafacedad5c16919,
cafe,Kedai Kopi,Kopi 27,"Pajam, Kec. Kaledupa Sel., Kabupaten Wakatobi, Sulawesi Tenggara 93792","Kec. Kaledupa Sel., Kabupaten Wakatobi",SULAWESI TENGGARA,93792.0,Indonesia,85341565540.0,,,-5.5547108,123.782359,https://maps.google.com/?cid=0x0:0x1988c3262103e55e,
cafe,Rumah Makan,RM. LALESA KALEDUPA,"Kec. Kaledupa, Kabupaten Wakatobi, Sulawesi Tenggara","Kabupaten Wakatobi, Sulawesi Tenggara",SULAWESI TENGGARA,,Indonesia,82345112982.0,,,-5.4962416,123.7544183,https://maps.google.com/?cid=0x0:0x7b29047aba06d304,
cafe,Indonesia,RM REZA PASEBA,"Ambeua, Kec. Kaledupa, Kabupaten Wakatobi, Sulawesi Tenggara 93792","Kec. Kaledupa, Kabupaten Wakatobi",SULAWESI TENGGARA,93792.0,Indonesia,82292528455.0,,,-5.4986353,123.7536673,https://maps.google.com/?cid=0x0:0x61923df97b01c2d0,
cafe,Kedai Kopi,Warkop Bakau Kafe Nianse,"Ambeua, Kec. Kaledupa, Kabupaten Wakatobi, Sulawesi Tenggara 93792","Kec. Kaledupa, Kabupaten Wakatobi",SULAWESI TENGGARA,93792.0,Indonesia,85333367617.0,,,-5.4980389,123.7554651,https://maps.google.com/?cid=0x0:0x5a03fc6b4413745,
cafe,Indonesia,Rumah makan Dapoer feby hasima,"Kec. Kaledupa, Lau-Lua, Ling. Sampuawatu, Kabupaten Wakatobi, Sulawesi Tenggara 93792","Lau-Lua, Ling. Sampuawatu, Kabupaten Wakatobi",SULAWESI TENGGARA,93792.0,Indonesia,82253026528.0,,,-5.4995216,123.7502457,https://maps.google.com/?cid=0x0:0xfac5d468b2a11bf3,
cafe,Toko bahan makanan,Toko Yudi H,"Lau-Lua, Kec. Kaledupa, Kabupaten Wakatobi, Sulawesi Tenggara 93792","Kec. Kaledupa, Kabupaten Wakatobi",SULAWESI TENGGARA,93792.0,Indonesia,82344989305.0,,,-5.4993073,123.749653,https://maps.google.com/?cid=0x0:0x50d8e10b0b6190cc,
cafe,Kantor Polisi,Polsek Kaledupa,"Ambeua Raya, Kec. Kaledupa, Kabupaten Wakatobi, Sulawesi Tenggara 93792","Kec. Kaledupa, Kabupaten Wakatobi",SULAWESI TENGGARA,93792.0,Indonesia,82344014141.0,,,-5.5011692,123.754086,https://maps.google.com/?cid=0x0:0xb1b1e04bd32d52d,
cafe,Toko bahan makanan,Kios Aros,"Jl. La bomba Jln. Poros No.raya, Sombano, Kec. Kaledupa, Kabupaten Wakatobi, Sulawesi Tenggara 93792","Sombano, Kec. Kaledupa, Kabupaten Wakatobi",SULAWESI TENGGARA,93792.0,Indonesia,85340191082.0,,,-5.4818822,123.7098569,https://maps.google.com/?cid=0x0:0x51b28f7a833da554,
cafe,Restoran,WM. SELERA MILENIAL,"FQW4+6C7, Ambeua, Kec. Kaledupa, Kabupaten Wakatobi, Sulawesi Tenggara 93792","Ambeua, Kec. Kaledupa, Kabupaten Wakatobi",SULAWESI TENGGARA,93792.0,Indonesia,82218144119.0,,,-5.5044701,123.756042,https://maps.google.com/?cid=0x0:0x117f234a82071b42,
cafe,cafe,Sulawesi Tenggara 93792,"Kabupaten Wakatobi, Sulawesi Tenggara","Kabupaten Wakatobi, Sulawesi Tenggara",SULAWESI TENGGARA,,Indonesia,,,,-5.5551203,123.785291,https://maps.google.com/?cid=0x0:0x9fcf3359b49a567d,
cafe,Kedai Kopi,Double Peace,"FQX3+467, Ambeua Raya, Kec. Kaledupa, Kabupaten Wakatobi, Sulawesi Tenggara 93792","Ambeua Raya, Kec. Kaledupa, Kabupaten Wakatobi",SULAWESI TENGGARA,93792.0,Indonesia,82198487995.0,,,-5.5022171,123.7530326,https://maps.google.com/?cid=0x0:0xdafacedad5c16919,
cafe,Kedai Kopi,Kopi 27,"Pajam, Kec. Kaledupa Sel., Kabupaten Wakatobi, Sulawesi Tenggara 93792","Kec. Kaledupa Sel., Kabupaten Wakatobi",SULAWESI TENGGARA,93792.0,Indonesia,85341565540.0,,,-5.5547108,123.782359,https://maps.google.com/?cid=0x0:0x1988c3262103e55e,
cafe,Kantor Polisi,Polsek Kaledupa,"Ambeua Raya, Kec. Kaledupa, Kabupaten Wakatobi, Sulawesi Tenggara 93792","Kec. Kaledupa, Kabupaten Wakatobi",SULAWESI TENGGARA,93792.0,Indonesia,82344014141.0,,,-5.5011692,123.754086,https://maps.google.com/?cid=0x0:0xb1b1e04bd32d52d,
cafe,Rumah Makan,RM. LALESA KALEDUPA,"Kec. Kaledupa, Kabupaten Wakatobi, Sulawesi Tenggara","Kabupaten Wakatobi, Sulawesi Tenggara",SULAWESI TENGGARA,,Indonesia,82345112982.0,,,-5.4962416,123.7544183,https://maps.google.com/?cid=0x0:0x7b29047aba06d304,
cafe,Indonesia,RM REZA PASEBA,"Ambeua, Kec. Kaledupa, Kabupaten Wakatobi, Sulawesi Tenggara 93792","Kec. Kaledupa, Kabupaten Wakatobi",SULAWESI TENGGARA,93792.0,Indonesia,82292528455.0,,,-5.4986353,123.7536673,https://maps.google.com/?cid=0x0:0x61923df97b01c2d0,
cafe,Kedai Kopi,Warkop Bakau Kafe Nianse,"Ambeua, Kec. Kaledupa, Kabupaten Wakatobi, Sulawesi Tenggara 93792","Kec. Kaledupa, Kabupaten Wakatobi",SULAWESI TENGGARA,93792.0,Indonesia,85333367617.0,,,-5.4980389,123.7554651,https://maps.google.com/?cid=0x0:0x5a03fc6b4413745,
cafe,Toko bahan makanan,Kios Aros,"Jl. La bomba Jln. Poros No.raya, Sombano, Kec. Kaledupa, Kabupaten Wakatobi, Sulawesi Tenggara 93792","Sombano, Kec. Kaledupa, Kabupaten Wakatobi",SULAWESI TENGGARA,93792.0,Indonesia,85340191082.0,,,-5.4818822,123.7098569,https://maps.google.com/?cid=0x0:0x51b28f7a833da554,
cafe,Indonesia,Rumah makan Dapoer feby hasima,"Kec. Kaledupa, Lau-Lua, Ling. Sampuawatu, Kabupaten Wakatobi, Sulawesi Tenggara 93792","Lau-Lua, Ling. Sampuawatu, Kabupaten Wakatobi",SULAWESI TENGGARA,93792.0,Indonesia,82253026528.0,,,-5.4995216,123.7502457,https://maps.google.com/?cid=0x0:0xfac5d468b2a11bf3,
cafe,Toko bahan makanan,Toko Yudi H,"Lau-Lua, Kec. Kaledupa, Kabupaten Wakatobi, Sulawesi Tenggara 93792","Kec. Kaledupa, Kabupaten Wakatobi",SULAWESI TENGGARA,93792.0,Indonesia,82344989305.0,,,-5.4993073,123.749653,https://maps.google.com/?cid=0x0:0x50d8e10b0b6190cc,
cafe,Restoran,WM. SELERA MILENIAL,"FQW4+6C7, Ambeua, Kec. Kaledupa, Kabupaten Wakatobi, Sulawesi Tenggara 93792","Ambeua, Kec. Kaledupa, Kabupaten Wakatobi",SULAWESI TENGGARA,93792.0,Indonesia,82218144119.0,,,-5.5044701,123.756042,https://maps.google.com/?cid=0x0:0x117f234a82071b42,
cafe,cafe,Sulawesi Tenggara 93794,"Kabupaten Wakatobi, Sulawesi Tenggara","Kabupaten Wakatobi, Sulawesi Tenggara",SULAWESI TENGGARA,,Indonesia,,,,-5.9144277,124.0307246,https://maps.google.com/?cid=0x0:0x4074fc0032d77783,
cafe,Kedai Kopi,Bumdes Oihu coffee shoop,"22CJ+RWM, jalan poros waloindi, dusun kapuluka, Oihu, Kec. Togo Binongko, Kabupaten Wakatobi, Sulawesi Tenggara 93794","jalan poros waloindi, dusun kapuluka, Oihu, Kec. Togo Binongko, Kabupaten Wakatobi",SULAWESI TENGGARA,93794.0,Indonesia,82199998327.0,,,-5.9779205,124.0323022,https://maps.google.com/?cid=0x0:0xc3b88740c2f7bc5,
cafe,Kedai Kopi,Ershi K20 Coffee  Resto,"6WRW+W6Q, Jl. Encik Sulaiman, Kahiyanga, Kec. Tomia Tim., Kabupaten Wakatobi, Sulawesi Tenggara 93793","Jl. Encik Sulaiman, Kahiyanga, Kec. Tomia Tim., Kabupaten Wakatobi",SULAWESI TENGGARA,93793.0,Indonesia,82298993980.0,,,-5.7576531,123.9456159,https://maps.google.com/?cid=0x0:0xa5715ea326d2fa82,
cafe,cafe,Tomia,"Kabupaten Wakatobi, Sulawesi Tenggara","Kabupaten Wakatobi, Sulawesi Tenggara",SULAWESI TENGGARA,,Indonesia,,,,-5.6651282,124.080846,https://maps.google.com/?cid=0x0:0xe166d892ad79e166,
cafe,Kedai Kopi,Ershi K20 Coffee  Resto,"6WRW+W6Q, Jl. Encik Sulaiman, Kahiyanga, Kec. Tomia Tim., Kabupaten Wakatobi, Sulawesi Tenggara 93793","Jl. Encik Sulaiman, Kahiyanga, Kec. Tomia Tim., Kabupaten Wakatobi",SULAWESI TENGGARA,93793.0,Indonesia,82298993980.0,,,-5.7576531,123.9456159,https://maps.google.com/?cid=0x0:0xa5715ea326d2fa82,
cafe,Kafe,Kedai Selly Water Tomia,"7VGW+2R, Waha, Kabupaten Wakatobi, Sulawesi Tenggara","Kabupaten Wakatobi, Sulawesi Tenggara",SULAWESI TENGGARA,,Indonesia,82191228722.0,,,-5.724948,123.897088,https://maps.google.com/?cid=0x0:0x32e9efbb058d5a8b,
cafe,cafe,Cantika'S Kedai,"Depan SDN, Kollo Soha, Tomia, Kabupaten Wakatobi, Sulawesi Tenggara 93793","Kollo Soha, Tomia, Kabupaten Wakatobi",SULAWESI TENGGARA,93793.0,Indonesia,85394479088.0,,,-5.7385062,123.8957833,https://maps.google.com/?cid=0x0:0x6225991fd2c6fff0,
cafe,Kedai Kopi,Warung Makan Mas Dhika Onemay,"7WH3+XMP, Waha, Tomia, Kabupaten Wakatobi, Sulawesi Tenggara","Kabupaten Wakatobi, Sulawesi Tenggara",SULAWESI TENGGARA,,Indonesia,85229003897.0,,,-5.7200258,123.9042178,https://maps.google.com/?cid=0x0:0x4aeeae1814459e18,
cafe,Kedai Kopi,Kedai Zetime,"Onemay, Tomia, Kabupaten Wakatobi, Sulawesi Tenggara 93793","Tomia, Kabupaten Wakatobi",SULAWESI TENGGARA,93793.0,Indonesia,82381877768.0,,,-5.7196427,123.9077378,https://maps.google.com/?cid=0x0:0x3451a29b162fc41b,
cafe,Bubble Tea,FaeyzaDrink,"Untu, Waha, Tomia, Kabupaten Wakatobi, Sulawesi Tenggara 93793","Waha, Tomia, Kabupaten Wakatobi",SULAWESI TENGGARA,93793.0,Indonesia,85216238843.0,,,-5.7238886,123.9005949,https://maps.google.com/?cid=0x0:0xb9ce1d3858dcbc78,
cafe,Kedai Kopi,Kedai TEA KENGKU FAHYIM,"Hanta, Tongano timur, Kec. Tomia Tim., Kabupaten Wakatobi, Sulawesi Tenggara 93793","Tongano timur, Kec. Tomia Tim., Kabupaten Wakatobi",SULAWESI TENGGARA,93793.0,Indonesia,81354361385.0,,,-5.7772404,123.9396092,https://maps.google.com/?cid=0x0:0xa788fe2a416eb50c,
cafe,Kedai Kopi,Kedai Kopi Kahianga,"Jl. Encik Sulaiman, Kahianga, Kec. Tomia Tim., Kabupaten Wakatobi, Sulawesi Tenggara 93797","Kahianga, Kec. Tomia Tim., Kabupaten Wakatobi",SULAWESI TENGGARA,93797.0,Indonesia,81248709035.0,,,-5.7596232,123.9394444,https://maps.google.com/?cid=0x0:0x32c9322a25ac4de,
cafe,Pusat Menyelam,Tomia Fun Dive,"Jl. Poros Waha - Onemay, Lingkungan Bantea, Waha, Tomia, Kabupaten Wakatobi, Sulawesi Tenggara 93793","Lingkungan Bantea, Waha, Tomia, Kabupaten Wakatobi",SULAWESI TENGGARA,93793.0,Indonesia,82271662749.0,,,-5.7215309,123.9034784,https://maps.google.com/?cid=0x0:0x357cb88be8193514,
cafe,Kedai Kopi,Nua Indah Coffee and Resto,"Jalan Ahmad Nasution No.5, Wandoka Utara, Kabupaten Wakatobi, Sulawesi Tenggara 93791","Wandoka Utara, Kabupaten Wakatobi",SULAWESI TENGGARA,93791.0,Indonesia,81341868715.0,,,-5.2821048,123.5238133,https://maps.google.com/?cid=0x0:0x8bfb38493a4bfdc8,
cafe,Kedai Kopi,TOLIAMBA CAFE,"TOLIAMBA JAYA, Waginopo, Kec. Wangi-Wangi, Kabupaten Wakatobi, Sulawesi Tenggara 93791","Waginopo, Kec. Wangi-Wangi, Kabupaten Wakatobi",SULAWESI TENGGARA,93791.0,Indonesia,82271323750.0,,,-5.2950212,123.5445536,https://maps.google.com/?cid=0x0:0xd0c9b5b019d4e278,
cafe,Rumah Makan,Ayu Lestari,"7WH4+44M, Unnamed Road, Waha, Tomia, Wakatobi Regency, South East Sulawesi 93793","Unnamed Road, Waha, Tomia, Wakatobi Regency",SULAWESI TENGGARA,93793.0,Indonesia,,,,-5.722171,123.9053018,https://maps.google.com/?cid=0x0:0xf41cc205787978a1,
cafe,Kedai Kopi,Fifteen Coffee,"Jl. Jend. Ahmad Yani No.184, Wanci, Kec. Wangi-Wangi, Kabupaten Wakatobi, Sulawesi Tenggara 93795","Wanci, Kec. Wangi-Wangi, Kabupaten Wakatobi",SULAWESI TENGGARA,93795.0,Indonesia,85298352932.0,,,-5.3138178,123.5304762,https://maps.google.com/?cid=0x0:0xf8ec088e050a4803,
cafe,Toko Swalayan,Toko Aalina Barokah,"Tomia Desa waitii Jalan poros waha, Kabupaten Wakatobi, Sulawesi Tenggara 93793",Kabupaten Wakatobi,SULAWESI TENGGARA,93793.0,Indonesia,81297220011.0,,,-5.7563458,123.9078565,https://maps.google.com/?cid=0x0:0x68db107043c5992c,
cafe,Bubble Tea,FaeyzaDrink,"Pantai Lakota, Tomia, Kabupaten Wakatobi, Sulawesi Tenggara 93793","Tomia, Kabupaten Wakatobi",SULAWESI TENGGARA,93793.0,Indonesia,82187729007.0,,,-5.7239864,123.9005004,https://maps.google.com/?cid=0x0:0xa2d6311b53a6ee74,
cafe,Kedai Teh,YEE TEA,"Usuku, Liantambanga, Jln. Lintas usuku-Kulati, Tongano Timur, Kec. Tomia Tim., Kabupaten Wakatobi, Sulawesi Tenggara 93797","Liantambanga, Jln. Lintas usuku-Kulati, Tongano Timur, Kec. Tomia Tim., Kabupaten Wakatobi",SULAWESI TENGGARA,93797.0,Indonesia,,,,-5.7786751,123.9439078,https://maps.google.com/?cid=0x0:0xa98df6d8f0ae3aa7,
cafe,Kafe,Shelter Cafe  Mini Resto,"Jl. Jenderal Sudirman, Mandati I, Wangi-Wangi Sel., Kabupaten Wakatobi, Sulawesi Tenggara 93795","Mandati I, Wangi-Wangi Sel., Kabupaten Wakatobi",SULAWESI TENGGARA,93795.0,Indonesia,85242247322.0,,,-5.338175,123.5395285,https://maps.google.com/?cid=0x0:0xee21814f00ff2118,
cafe,cafe,Labore Stay,"Jl. Pelabuhan Waha, Kelurahan Waha, Kecamatan Tomia, Waha, Sulawesi Tenggara 93793","Kelurahan Waha, Kecamatan Tomia, Waha",SULAWESI TENGGARA,93793.0,Indonesia,82393083595.0,,,-5.719925,123.905046,https://maps.google.com/?cid=0x0:0x2e7fec0896b2f442,
cafe,Taman Nasional,Taman Nasional Wakatobi,"CWPJ+J57, Lentea, Sulawesi Tenggara",Sulawesi Tenggara,SULAWESI TENGGARA,,Indonesia,4022826326.0,,,-5.5634736,123.9304254,https://maps.google.com/?cid=0x0:0x5d26a2de09c86794,
cafe,cafe,Laprasmi Hotel,"Pantai Lakota, Tomia, Kabupaten Wakatobi, Sulawesi Tenggara 93793","Tomia, Kabupaten Wakatobi",SULAWESI TENGGARA,93793.0,Indonesia,81288291215.0,,,-5.7228875,123.901374,https://maps.google.com/?cid=0x0:0x4182c5b14f7983b5,
cafe,Kedai Kopi,Rendezvous coffee wakatobi,"Rendezvous coffee, Kabupaten Wakatobi, Sulawesi Tenggara 93791",Kabupaten Wakatobi,SULAWESI TENGGARA,93791.0,Indonesia,81355458992.0,,,-5.3199338,123.5311372,https://maps.google.com/?cid=0x0:0xeb84875bfb5acf24,
cafe,Pantai Umum,Puri Kahyangan Tomia,"6WQR+V7C, Jl. Encik Sulaiman, Desa Kahianga, Kec. Tomia Tim., Kabupaten Wakatobi, Sulawesi Tenggara 93797","Jl. Encik Sulaiman, Desa Kahianga, Kec. Tomia Tim., Kabupaten Wakatobi",SULAWESI TENGGARA,93797.0,Indonesia,,,,-5.7603205,123.9406553,https://maps.google.com/?cid=0x0:0xa6a293ff4f5762c,
cafe,cafe,Sulawesi Tenggara 93793,"Kabupaten Wakatobi, Sulawesi Tenggara","Kabupaten Wakatobi, Sulawesi Tenggara",SULAWESI TENGGARA,,Indonesia,,,,-5.7414018,123.9415518,https://maps.google.com/?cid=0x0:0xcc1ed7ef5fc129ca,
cafe,Kedai Kopi,Ershi K20 Coffee  Resto,"6WRW+W6Q, Jl. Encik Sulaiman, Kahiyanga, Kec. Tomia Tim., Kabupaten Wakatobi, Sulawesi Tenggara 93793","Jl. Encik Sulaiman, Kahiyanga, Kec. Tomia Tim., Kabupaten Wakatobi",SULAWESI TENGGARA,93793.0,Indonesia,82298993980.0,,,-5.7576531,123.9456159,https://maps.google.com/?cid=0x0:0xa5715ea326d2fa82,
cafe,Kafe,Kedai Selly Water Tomia,"7VGW+2R, Waha, Kabupaten Wakatobi, Sulawesi Tenggara","Kabupaten Wakatobi, Sulawesi Tenggara",SULAWESI TENGGARA,,Indonesia,82191228722.0,,,-5.724948,123.897088,https://maps.google.com/?cid=0x0:0x32e9efbb058d5a8b,
cafe,Kedai Kopi,Nua Indah Coffee and Resto,"Jalan Ahmad Nasution No.5, Wandoka Utara, Kabupaten Wakatobi, Sulawesi Tenggara 93791","Wandoka Utara, Kabupaten Wakatobi",SULAWESI TENGGARA,93791.0,Indonesia,81341868715.0,,,-5.2821048,123.5238133,https://maps.google.com/?cid=0x0:0x8bfb38493a4bfdc8,
cafe,cafe,Cantika'S Kedai,"Depan SDN, Kollo Soha, Tomia, Kabupaten Wakatobi, Sulawesi Tenggara 93793","Kollo Soha, Tomia, Kabupaten Wakatobi",SULAWESI TENGGARA,93793.0,Indonesia,85394479088.0,,,-5.7385062,123.8957833,https://maps.google.com/?cid=0x0:0x6225991fd2c6fff0,
cafe,Kedai Kopi,Kedai Zetime,"Onemay, Tomia, Kabupaten Wakatobi, Sulawesi Tenggara 93793","Tomia, Kabupaten Wakatobi",SULAWESI TENGGARA,93793.0,Indonesia,82381877768.0,,,-5.7196427,123.9077378,https://maps.google.com/?cid=0x0:0x3451a29b162fc41b,
cafe,Kedai Kopi,Warung Makan Mas Dhika Onemay,"7WH3+XMP, Waha, Tomia, Kabupaten Wakatobi, Sulawesi Tenggara","Kabupaten Wakatobi, Sulawesi Tenggara",SULAWESI TENGGARA,,Indonesia,85229003897.0,,,-5.7200258,123.9042178,https://maps.google.com/?cid=0x0:0x4aeeae1814459e18,
cafe,Dapur Umum,Cafe  Resto Ayim Cemara Beach,"PGQC+M2X Desa, Jl. Dr. Soetomo, Wapia-pia, Kec. Wangi-Wangi, Kabupaten Wakatobi, Sulawesi Tenggara 93791","Jl. Dr. Soetomo, Wapia-pia, Kec. Wangi-Wangi, Kabupaten Wakatobi",SULAWESI TENGGARA,93791.0,Indonesia,82188917073.0,,,-5.260763,123.5200993,https://maps.google.com/?cid=0x0:0xd7c8dab7966b3547,
cafe,Kedai Kopi,TOLIAMBA CAFE,"TOLIAMBA JAYA, Waginopo, Kec. Wangi-Wangi, Kabupaten Wakatobi, Sulawesi Tenggara 93791","Waginopo, Kec. Wangi-Wangi, Kabupaten Wakatobi",SULAWESI TENGGARA,93791.0,Indonesia,82271323750.0,,,-5.2950212,123.5445536,https://maps.google.com/?cid=0x0:0xd0c9b5b019d4e278,
cafe,Restoran,Dapoer Maritim Cafe  Resto,"MGGM+8PR, Bau Bau - Wanci, Kabupaten Wakatobi, Sulawesi Tenggara","Kabupaten Wakatobi, Sulawesi Tenggara",SULAWESI TENGGARA,,Indonesia,85255550556.0,,,-5.324142,123.5342733,https://maps.google.com/?cid=0x0:0xd8facac4af36c4ce,
cafe,Kedai Kopi,Kedai TEA KENGKU FAHYIM,"Hanta, Tongano timur, Kec. Tomia Tim., Kabupaten Wakatobi, Sulawesi Tenggara 93793","Tongano timur, Kec. Tomia Tim., Kabupaten Wakatobi",SULAWESI TENGGARA,93793.0,Indonesia,81354361385.0,,,-5.7772404,123.9396092,https://maps.google.com/?cid=0x0:0xa788fe2a416eb50c,
cafe,Kedai Kopi,Fifteen Coffee,"Jl. Jend. Ahmad Yani No.184, Wanci, Kec. Wangi-Wangi, Kabupaten Wakatobi, Sulawesi Tenggara 93795","Wanci, Kec. Wangi-Wangi, Kabupaten Wakatobi",SULAWESI TENGGARA,93795.0,Indonesia,85298352932.0,,,-5.3138178,123.5304762,https://maps.google.com/?cid=0x0:0xf8ec088e050a4803,
cafe,Kedai Kopi,Kedai Kopi Kahianga,"Jl. Encik Sulaiman, Kahianga, Kec. Tomia Tim., Kabupaten Wakatobi, Sulawesi Tenggara 93797","Kahianga, Kec. Tomia Tim., Kabupaten Wakatobi",SULAWESI TENGGARA,93797.0,Indonesia,81248709035.0,,,-5.7596232,123.9394444,https://maps.google.com/?cid=0x0:0x32c9322a25ac4de,
cafe,Bubble Tea,FaeyzaDrink,"Untu, Waha, Tomia, Kabupaten Wakatobi, Sulawesi Tenggara 93793","Waha, Tomia, Kabupaten Wakatobi",SULAWESI TENGGARA,93793.0,Indonesia,85216238843.0,,,-5.7238886,123.9005949,https://maps.google.com/?cid=0x0:0xb9ce1d3858dcbc78,
cafe,Kafe,Shelter Cafe  Mini Resto,"Jl. Jenderal Sudirman, Mandati I, Wangi-Wangi Sel., Kabupaten Wakatobi, Sulawesi Tenggara 93795","Mandati I, Wangi-Wangi Sel., Kabupaten Wakatobi",SULAWESI TENGGARA,93795.0,Indonesia,85242247322.0,,,-5.338175,123.5395285,https://maps.google.com/?cid=0x0:0xee21814f00ff2118,
cafe,Kedai Kopi,Rendezvous coffee wakatobi,"Rendezvous coffee, Kabupaten Wakatobi, Sulawesi Tenggara 93791",Kabupaten Wakatobi,SULAWESI TENGGARA,93791.0,Indonesia,81355458992.0,,,-5.3199338,123.5311372,https://maps.google.com/?cid=0x0:0xeb84875bfb5acf24,
cafe,Kedai Teh,YEE TEA,"Usuku, Liantambanga, Jln. Lintas usuku-Kulati, Tongano Timur, Kec. Tomia Tim., Kabupaten Wakatobi, Sulawesi Tenggara 93797","Liantambanga, Jln. Lintas usuku-Kulati, Tongano Timur, Kec. Tomia Tim., Kabupaten Wakatobi",SULAWESI TENGGARA,93797.0,Indonesia,,,,-5.7786751,123.9439078,https://maps.google.com/?cid=0x0:0xa98df6d8f0ae3aa7,
cafe,Kedai Kopi,Coffee Gatan,"MGWG+CQM, Jl. Poros Liya, Wandoka, Kabupaten Wakatobi, Sulawesi Tenggara 93795","Jl. Poros Liya, Wandoka, Kabupaten Wakatobi",SULAWESI TENGGARA,93795.0,Indonesia,81245665286.0,,,-5.303909,123.5269146,https://maps.google.com/?cid=0x0:0xd8e3458956c5128d,
cafe,Kedai Kopi,D'Frens Cafe,"MG8Q+M9G, Selatan, Mandati I, Wangi-Wangi, Wakatobi Regency, South East Sulawesi 93795","Selatan, Mandati I, Wangi-Wangi, Wakatobi Regency",SULAWESI TENGGARA,93795.0,Indonesia,81341738065.0,,,-5.3333011,123.5384581,https://maps.google.com/?cid=0x0:0xf3e6ecaf8e43885f,
cafe,Pusat Menyelam,Tomia Fun Dive,"Jl. Poros Waha - Onemay, Lingkungan Bantea, Waha, Tomia, Kabupaten Wakatobi, Sulawesi Tenggara 93793","Lingkungan Bantea, Waha, Tomia, Kabupaten Wakatobi",SULAWESI TENGGARA,93793.0,Indonesia,82271662749.0,,,-5.7215309,123.9034784,https://maps.google.com/?cid=0x0:0x357cb88be8193514,
cafe,Rumah Makan,Ayu Lestari,"7WH4+44M, Unnamed Road, Waha, Tomia, Wakatobi Regency, South East Sulawesi 93793","Unnamed Road, Waha, Tomia, Wakatobi Regency",SULAWESI TENGGARA,93793.0,Indonesia,,,,-5.722171,123.9053018,https://maps.google.com/?cid=0x0:0xf41cc205787978a1,
cafe,Rumah Makan,Warung Makan Keluarga Gado-gado Sate,"7WG2+F7V, Waha, Tomia, Kabupaten Wakatobi, Sulawesi Tenggara","Kabupaten Wakatobi, Sulawesi Tenggara",SULAWESI TENGGARA,,Indonesia,82293294508.0,,,-5.7237612,123.900657,https://maps.google.com/?cid=0x0:0x50797732d0a0db26,
cafe,Restoran,Bukit Petani Berdasi,"PGJP+F3X, Sombu, Wangi-Wangi Sel., Kabupaten Wakatobi, Sulawesi Tenggara 93793","Sombu, Wangi-Wangi Sel., Kabupaten Wakatobi",SULAWESI TENGGARA,93793.0,Indonesia,81241953832.0,,,-5.2687609,123.535219,https://maps.google.com/?cid=0x0:0x7dedb1c0029d824b,
cafe,cafe,Hotel Sinar Harapan Tomia,"Usuku, Patipelong, Kec. Tomia Tim., Kabupaten Wakatobi, Sulawesi Tenggara 93793","Patipelong, Kec. Tomia Tim., Kabupaten Wakatobi",SULAWESI TENGGARA,93793.0,Indonesia,81321212082.0,,,-5.7760301,123.9303753,https://maps.google.com/?cid=0x0:0x3077ab7ae3dd094,
cafe,cafe,Labore Stay,"Jl. Pelabuhan Waha, Kelurahan Waha, Kecamatan Tomia, Waha, Sulawesi Tenggara 93793","Kelurahan Waha, Kecamatan Tomia, Waha",SULAWESI TENGGARA,93793.0,Indonesia,82393083595.0,,,-5.719925,123.905046,https://maps.google.com/?cid=0x0:0x2e7fec0896b2f442,
cafe,cafe,Artha Homestay,"Jl. M.H. Thamrin, Patipelong, Kec. Tomia Tim., Kabupaten Wakatobi, Sulawesi Tenggara 93797","Patipelong, Kec. Tomia Tim., Kabupaten Wakatobi",SULAWESI TENGGARA,93797.0,Indonesia,,,,-5.774587,123.9251448,https://maps.google.com/?cid=0x0:0xebb272bd8c89a241,
cafe,cafe,RedDoorz @ Tomia Island Wakatobi,"Jalan Perjuangan, Patipelong, Kec. Tomia Tim., Kabupaten Wakatobi, Sulawesi Tenggara 93793","Patipelong, Kec. Tomia Tim., Kabupaten Wakatobi",SULAWESI TENGGARA,93793.0,Indonesia,2180629666.0,,,-5.7717635,123.9201129,https://maps.google.com/?cid=0x0:0x483686750f7cf559,
cafe,cafe,Wakatobi Dive Resort,"Desa, Lamanggau, Tomia, Kabupaten Wakatobi, Sulawesi Tenggara","Kabupaten Wakatobi, Sulawesi Tenggara",SULAWESI TENGGARA,,Indonesia,361759669.0,,,-5.7759726,123.8948447,https://maps.google.com/?cid=0x0:0xdaa4c0bafdf8cf0,
cafe,cafe,Marind Dive Eco Resort,"Jl. Rabat, Kollo Soha, Tomia, Kabupaten Wakatobi, Sulawesi Tenggara 93793","Kollo Soha, Tomia, Kabupaten Wakatobi",SULAWESI TENGGARA,93793.0,Indonesia,82146470765.0,,,-5.7346185,123.8945441,https://maps.google.com/?cid=0x0:0x2afcb85ca1f28d63,
cafe,cafe,Sulawesi Tenggara 93791,"Kec. Wangi-Wangi, Kabupaten Wakatobi, Sulawesi Tenggara","Kabupaten Wakatobi, Sulawesi Tenggara",SULAWESI TENGGARA,,Indonesia,,,,-5.3004341,123.5839983,https://maps.google.com/?cid=0x0:0x192a8c22fe0c5035,
cafe,Kedai Kopi,Fifteen Coffee,"Jl. Jend. Ahmad Yani No.184, Wanci, Kec. Wangi-Wangi, Kabupaten Wakatobi, Sulawesi Tenggara 93795","Wanci, Kec. Wangi-Wangi, Kabupaten Wakatobi",SULAWESI TENGGARA,93795.0,Indonesia,85298352932.0,,,-5.3138178,123.5304762,https://maps.google.com/?cid=0x0:0xf8ec088e050a4803,
cafe,Dapur Umum,Cafe  Resto Ayim Cemara Beach,"PGQC+M2X Desa, Jl. Dr. Soetomo, Wapia-pia, Kec. Wangi-Wangi, Kabupaten Wakatobi, Sulawesi Tenggara 93791","Jl. Dr. Soetomo, Wapia-pia, Kec. Wangi-Wangi, Kabupaten Wakatobi",SULAWESI TENGGARA,93791.0,Indonesia,82188917073.0,,,-5.260763,123.5200993,https://maps.google.com/?cid=0x0:0xd7c8dab7966b3547,
cafe,Kedai Kopi,D'Frens Cafe,"MG8Q+M9G, Selatan, Mandati I, Wangi-Wangi, Wakatobi Regency, South East Sulawesi 93795","Selatan, Mandati I, Wangi-Wangi, Wakatobi Regency",SULAWESI TENGGARA,93795.0,Indonesia,81341738065.0,,,-5.3333011,123.5384581,https://maps.google.com/?cid=0x0:0xf3e6ecaf8e43885f,
cafe,cafe,Momoyo Wakatobi,"Jl. Jend. Ahmad Yani, Pongo, Wangi-Wangi Sel., Kabupaten Wakatobi, Sulawesi Tenggara 93791","Pongo, Wangi-Wangi Sel., Kabupaten Wakatobi",SULAWESI TENGGARA,93791.0,Indonesia,82211699425.0,,,-5.3238185,123.5358928,https://maps.google.com/?cid=0x0:0x27e57f316917c44f,
cafe,Kedai Kopi,Rendezvous coffee wakatobi,"Rendezvous coffee, Kabupaten Wakatobi, Sulawesi Tenggara 93791",Kabupaten Wakatobi,SULAWESI TENGGARA,93791.0,Indonesia,81355458992.0,,,-5.3199338,123.5311372,https://maps.google.com/?cid=0x0:0xeb84875bfb5acf24,
cafe,Kedai Kopi,Coffee'Bro,"Jl. Jend. Ahmad Yani No.69. Kel, Mandati II, Wangi-Wangi Sel., Kabupaten Wakatobi, Sulawesi Tenggara 93791","Mandati II, Wangi-Wangi Sel., Kabupaten Wakatobi",SULAWESI TENGGARA,93791.0,Indonesia,81355508076.0,,,-5.332964,123.538696,https://maps.google.com/?cid=0x0:0x7e77c15b58047993,
cafe,Kedai Kopi,TOLIAMBA CAFE,"TOLIAMBA JAYA, Waginopo, Kec. Wangi-Wangi, Kabupaten Wakatobi, Sulawesi Tenggara 93791","Waginopo, Kec. Wangi-Wangi, Kabupaten Wakatobi",SULAWESI TENGGARA,93791.0,Indonesia,82271323750.0,,,-5.2950212,123.5445536,https://maps.google.com/?cid=0x0:0xd0c9b5b019d4e278,
cafe,Restoran,Restaurant WISATA,"MG9P+HPQ, Pulau Wangiwangi, Sulawesi Tenggara, Kabupaten Wakatobi, Sulawesi Tenggara 93795","Pulau Wangiwangi, Sulawesi Tenggara, Kabupaten Wakatobi",SULAWESI TENGGARA,93795.0,Indonesia,81245639300.0,,,-5.3310337,123.5368516,https://maps.google.com/?cid=0x0:0xa863b550f3aab59,
cafe,Restoran,Warung Makan D'Bantea,"Mandati I, Wangi-Wangi Sel., Kabupaten Wakatobi, Sulawesi Tenggara 93795","Wangi-Wangi Sel., Kabupaten Wakatobi",SULAWESI TENGGARA,93795.0,Indonesia,82343137084.0,,,-5.3349534,123.5391265,https://maps.google.com/?cid=0x0:0xeff866a038bc5f20,
cafe,Kafe,Shelter Cafe  Mini Resto,"Jl. Jenderal Sudirman, Mandati I, Wangi-Wangi Sel., Kabupaten Wakatobi, Sulawesi Tenggara 93795","Mandati I, Wangi-Wangi Sel., Kabupaten Wakatobi",SULAWESI TENGGARA,93795.0,Indonesia,85242247322.0,,,-5.338175,123.5395285,https://maps.google.com/?cid=0x0:0xee21814f00ff2118,
cafe,Bakso,Waroeng makan M45 van,"Pongo, Wangi-Wangi Sel., Kabupaten Wakatobi, Sulawesi Tenggara 93791","Wangi-Wangi Sel., Kabupaten Wakatobi",SULAWESI TENGGARA,93791.0,Indonesia,85336464365.0,,,-5.3258394,123.5364886,https://maps.google.com/?cid=0x0:0x203314761cf8bad9,
cafe,Kafe,Brianna Beach,"Link, Jl. Sultan Hasanudin, Wandoka Utara, Kec. Wangi-Wangi, Kabupaten Wakatobi, Sulawesi Tenggara 93791","Jl. Sultan Hasanudin, Wandoka Utara, Kec. Wangi-Wangi, Kabupaten Wakatobi",SULAWESI TENGGARA,93791.0,Indonesia,81241400920.0,,,-5.2933837,123.5280781,https://maps.google.com/?cid=0x0:0x43a25316b52d4bc1,
cafe,Restoran,RM Manshurin Mie Pangsit,"Pongo, Wangi-Wangi Sel., Kabupaten Wakatobi, Sulawesi Tenggara 93791","Wangi-Wangi Sel., Kabupaten Wakatobi",SULAWESI TENGGARA,93791.0,Indonesia,85299463554.0,,,-5.3254353,123.5395775,https://maps.google.com/?cid=0x0:0xef91522647997a58,
cafe,Jus,Raihana Cafetaria,"MGQM+HRM, Jl. Manugela, Wanci, Wangi-Wangi Sel., Kabupaten Wakatobi, Sulawesi Tenggara 93791","Jl. Manugela, Wanci, Wangi-Wangi Sel., Kabupaten Wakatobi",SULAWESI TENGGARA,93791.0,Indonesia,82344326620.0,,,-5.3110397,123.5345578,https://maps.google.com/?cid=0x0:0xd1e1da7316f0209a,
cafe,Restoran,Dapoer Maritim Cafe  Resto,"MGGM+8PR, Bau Bau - Wanci, Kabupaten Wakatobi, Sulawesi Tenggara","Kabupaten Wakatobi, Sulawesi Tenggara",SULAWESI TENGGARA,,Indonesia,85255550556.0,,,-5.324142,123.5342733,https://maps.google.com/?cid=0x0:0xd8facac4af36c4ce,
cafe,cafe,Wasabinua Hotel  Dive Resort,"Jl. A.H Nasution No.5, Wandoka Utara, Kec. Wangi-Wangi, Kabupaten Wakatobi, Sulawesi Tenggara 93791","Wandoka Utara, Kec. Wangi-Wangi, Kabupaten Wakatobi",SULAWESI TENGGARA,93791.0,Indonesia,82112618744.0,,,-5.2818363,123.5244352,https://maps.google.com/?cid=0x0:0xd2e98108ec835682,
cafe,cafe,Hotel Wisata Beach Wakatobi,"Jl. Jenderal Sudirman, Mandati II, Wangi-Wangi Sel., Kabupaten Wakatobi, Sulawesi Tenggara 93795","Mandati II, Wangi-Wangi Sel., Kabupaten Wakatobi",SULAWESI TENGGARA,93795.0,Indonesia,81245639300.0,,,-5.3305212,123.5379881,https://maps.google.com/?cid=0x0:0x4aa633eee4b45351,
cafe,cafe,Ar'Rafif Hotel,"Jl. Wa Opu Lessa No. 26 Pongo I, Mandati II, Kec. Wangi-Wangi, Kabupaten Wakatobi, Sulawesi Tenggara 93791","Mandati II, Kec. Wangi-Wangi, Kabupaten Wakatobi",SULAWESI TENGGARA,93791.0,Indonesia,85299345749.0,,,-5.3260519,123.5383135,https://maps.google.com/?cid=0x0:0x971a767b2d407a2d,
cafe,cafe,Villa Nadila,"Jalan jendral Sudirman manugela, desa pada raya makmur, Kabupaten Wakatobi, Sulawesi Tenggara 93791","desa pada raya makmur, Kabupaten Wakatobi",SULAWESI TENGGARA,93791.0,Indonesia,,,,-5.3120381,123.5355614,https://maps.google.com/?cid=0x0:0xadf69721fc13a34b,
cafe,cafe,RedDoorz @ Wangi-Wangi Island Wakatobi,"Jl KH As'ary No.3, Numana, Wangi-Wangi Sel., Kabupaten Wakatobi, Sulawesi Tenggara 93791","Numana, Wangi-Wangi Sel., Kabupaten Wakatobi",SULAWESI TENGGARA,93791.0,Indonesia,895417300072.0,,,-5.3556714,123.5573989,https://maps.google.com/?cid=0x0:0xaaf0b479fca01ed9,
cafe,Tujuan Wisata,Goa Air Kontamale,"MGJM+QW2, Jl. Poros Wandoka Lingk. Teekosapi, Pongo, Kec. Wangi-Wangi, Kabupaten Wakatobi, Sulawesi Tenggara 93791","Jl. Poros Wandoka Lingk. Teekosapi, Pongo, Kec. Wangi-Wangi, Kabupaten Wakatobi",SULAWESI TENGGARA,93791.0,Indonesia,,,,-5.318101,123.5347544,https://maps.google.com/?cid=0x0:0x6927d9dc22ca9645,
cafe,Toko Makanan,Kedai Winalu ( Popcorn dan Minuman by Namimo Wakatobi),"Jl. Jenderal Sudirman, Mandati II, Wangi-Wangi Sel., Kabupaten Wakatobi, Sulawesi Tenggara 93791","Mandati II, Wangi-Wangi Sel., Kabupaten Wakatobi",SULAWESI TENGGARA,93791.0,Indonesia,81343867026.0,,,-5.3307762,123.5385048,https://maps.google.com/?cid=0x0:0x3e33113e6cba9b49,
cafe,Bakso,RM MUSLIHA,"MG8X+FVC, Jl. Dusun, Mandati I, Wangi-Wangi Sel., Kabupaten Wakatobi, Sulawesi Tenggara 93795","Jl. Dusun, Mandati I, Wangi-Wangi Sel., Kabupaten Wakatobi",SULAWESI TENGGARA,93795.0,Indonesia,82196329541.0,,,-5.3338087,123.5496468,https://maps.google.com/?cid=0x0:0x3b7a50bd6c860398,
cafe,Restoran,Parame Cafe Wakatobi,"MGRH+RPX, Jl. Letnan Ijo Jalur 2, Wandoka Sel., Kec. Wangi-Wangi, Kabupaten Wakatobi, Sulawesi Tenggara 93791","Jl. Letnan Ijo Jalur 2, Wandoka Sel., Kec. Wangi-Wangi, Kabupaten Wakatobi",SULAWESI TENGGARA,93791.0,Indonesia,82216853950.0,,,-5.3078872,123.5293662,https://maps.google.com/?cid=0x0:0xb29cccba6d010053,
cafe,Kafe,Aravina Classic,"MGGR+83C, Jl. Lingkungan, Pongo, Wangi-Wangi Sel., Kabupaten Wakatobi, Sulawesi Tenggara 93791","Jl. Lingkungan, Pongo, Wangi-Wangi Sel., Kabupaten Wakatobi",SULAWESI TENGGARA,93791.0,Indonesia,8122520875.0,,,-5.3241808,123.5401328,https://maps.google.com/?cid=0x0:0xc00ce34b58d710ba,
cafe,Restoran,Restoran Aden,"Jl. Jend. Ahmad Yani No.115, Wanci, Kec. Wangi-Wangi, Kabupaten Wakatobi, Sulawesi Tenggara 93791","Wanci, Kec. Wangi-Wangi, Kabupaten Wakatobi",SULAWESI TENGGARA,93791.0,Indonesia,82193828255.0,,,-5.3181995,123.5328842,https://maps.google.com/?cid=0x0:0x8acf2647d57daeb9,
cafe,cafe,Sulawesi Tenggara 93795,"Wangi-Wangi Sel., Kabupaten Wakatobi, Sulawesi Tenggara","Kabupaten Wakatobi, Sulawesi Tenggara",SULAWESI TENGGARA,,Indonesia,,,,-5.3538433,123.5839983,https://maps.google.com/?cid=0x0:0x7b5ce73bddb1ea5d,
cafe,Kedai Kopi,D'Frens Cafe,"MG8Q+M9G, Selatan, Mandati I, Wangi-Wangi, Wakatobi Regency, South East Sulawesi 93795","Selatan, Mandati I, Wangi-Wangi, Wakatobi Regency",SULAWESI TENGGARA,93795.0,Indonesia,81341738065.0,,,-5.3333011,123.5384581,https://maps.google.com/?cid=0x0:0xf3e6ecaf8e43885f,
cafe,Kedai Kopi,Fifteen Coffee,"Jl. Jend. Ahmad Yani No.184, Wanci, Kec. Wangi-Wangi, Kabupaten Wakatobi, Sulawesi Tenggara 93795","Wanci, Kec. Wangi-Wangi, Kabupaten Wakatobi",SULAWESI TENGGARA,93795.0,Indonesia,85298352932.0,,,-5.3138178,123.5304762,https://maps.google.com/?cid=0x0:0xf8ec088e050a4803,
cafe,Restoran,Warung Makan D'Bantea,"Mandati I, Wangi-Wangi Sel., Kabupaten Wakatobi, Sulawesi Tenggara 93795","Wangi-Wangi Sel., Kabupaten Wakatobi",SULAWESI TENGGARA,93795.0,Indonesia,82343137084.0,,,-5.3349534,123.5391265,https://maps.google.com/?cid=0x0:0xeff866a038bc5f20,
cafe,Kedai Kopi,Nua Indah Coffee and Resto,"Jalan Ahmad Nasution No.5, Wandoka Utara, Kabupaten Wakatobi, Sulawesi Tenggara 93791","Wandoka Utara, Kabupaten Wakatobi",SULAWESI TENGGARA,93791.0,Indonesia,81341868715.0,,,-5.2821048,123.5238133,https://maps.google.com/?cid=0x0:0x8bfb38493a4bfdc8,
cafe,Restoran,Restaurant WISATA,"MG9P+HPQ, Pulau Wangiwangi, Sulawesi Tenggara, Kabupaten Wakatobi, Sulawesi Tenggara 93795","Pulau Wangiwangi, Sulawesi Tenggara, Kabupaten Wakatobi",SULAWESI TENGGARA,93795.0,Indonesia,81245639300.0,,,-5.3310337,123.5368516,https://maps.google.com/?cid=0x0:0xa863b550f3aab59,
cafe,Kedai Kopi,Coffee'Bro,"Jl. Jend. Ahmad Yani No.69. Kel, Mandati II, Wangi-Wangi Sel., Kabupaten Wakatobi, Sulawesi Tenggara 93791","Mandati II, Wangi-Wangi Sel., Kabupaten Wakatobi",SULAWESI TENGGARA,93791.0,Indonesia,81355508076.0,,,-5.332964,123.538696,https://maps.google.com/?cid=0x0:0x7e77c15b58047993,
cafe,Bakso,RM MUSLIHA,"MG8X+FVC, Jl. Dusun, Mandati I, Wangi-Wangi Sel., Kabupaten Wakatobi, Sulawesi Tenggara 93795","Jl. Dusun, Mandati I, Wangi-Wangi Sel., Kabupaten Wakatobi",SULAWESI TENGGARA,93795.0,Indonesia,82196329541.0,,,-5.3338087,123.5496468,https://maps.google.com/?cid=0x0:0x3b7a50bd6c860398,
cafe,Kedai Kopi,Rendezvous coffee wakatobi,"Rendezvous coffee, Kabupaten Wakatobi, Sulawesi Tenggara 93791",Kabupaten Wakatobi,SULAWESI TENGGARA,93791.0,Indonesia,81355458992.0,,,-5.3199338,123.5311372,https://maps.google.com/?cid=0x0:0xeb84875bfb5acf24,
cafe,Bakso,Waroeng makan M45 van,"Pongo, Wangi-Wangi Sel., Kabupaten Wakatobi, Sulawesi Tenggara 93791","Wangi-Wangi Sel., Kabupaten Wakatobi",SULAWESI TENGGARA,93791.0,Indonesia,85336464365.0,,,-5.3258394,123.5364886,https://maps.google.com/?cid=0x0:0x203314761cf8bad9,
cafe,cafe,Momoyo Wakatobi,"Jl. Jend. Ahmad Yani, Pongo, Wangi-Wangi Sel., Kabupaten Wakatobi, Sulawesi Tenggara 93791","Pongo, Wangi-Wangi Sel., Kabupaten Wakatobi",SULAWESI TENGGARA,93791.0,Indonesia,82211699425.0,,,-5.3238185,123.5358928,https://maps.google.com/?cid=0x0:0x27e57f316917c44f,
cafe,Kedai Kopi,Warkop Manusela,"JHV4+89V, Jl. Poros Liya, Numana, Wangi-Wangi Sel., Kabupaten Wakatobi, Sulawesi Tenggara 93795","Jl. Poros Liya, Numana, Wangi-Wangi Sel., Kabupaten Wakatobi",SULAWESI TENGGARA,93795.0,Indonesia,82233347075.0,,,-5.356631,123.5559261,https://maps.google.com/?cid=0x0:0x7aadbcc468aab559,
cafe,Restoran,Dapoer Maritim Cafe  Resto,"MGGM+8PR, Bau Bau - Wanci, Kabupaten Wakatobi, Sulawesi Tenggara","Kabupaten Wakatobi, Sulawesi Tenggara",SULAWESI TENGGARA,,Indonesia,85255550556.0,,,-5.324142,123.5342733,https://maps.google.com/?cid=0x0:0xd8facac4af36c4ce,
cafe,Kafe,Aravina Classic,"MGGR+83C, Jl. Lingkungan, Pongo, Wangi-Wangi Sel., Kabupaten Wakatobi, Sulawesi Tenggara 93791","Jl. Lingkungan, Pongo, Wangi-Wangi Sel., Kabupaten Wakatobi",SULAWESI TENGGARA,93791.0,Indonesia,8122520875.0,,,-5.3241808,123.5401328,https://maps.google.com/?cid=0x0:0xc00ce34b58d710ba,
cafe,Jus,Raihana Cafetaria,"MGQM+HRM, Jl. Manugela, Wanci, Wangi-Wangi Sel., Kabupaten Wakatobi, Sulawesi Tenggara 93791","Jl. Manugela, Wanci, Wangi-Wangi Sel., Kabupaten Wakatobi",SULAWESI TENGGARA,93791.0,Indonesia,82344326620.0,,,-5.3110397,123.5345578,https://maps.google.com/?cid=0x0:0xd1e1da7316f0209a,
cafe,Toko Makanan,Kedai Winalu ( Popcorn dan Minuman by Namimo Wakatobi),"Jl. Jenderal Sudirman, Mandati II, Wangi-Wangi Sel., Kabupaten Wakatobi, Sulawesi Tenggara 93791","Mandati II, Wangi-Wangi Sel., Kabupaten Wakatobi",SULAWESI TENGGARA,93791.0,Indonesia,81343867026.0,,,-5.3307762,123.5385048,https://maps.google.com/?cid=0x0:0x3e33113e6cba9b49,
cafe,Restoran,Daporo Waode,"MGFP+WFH, Jl. Kemakmuran, Mandati II, Wangi-Wangi Sel., Kabupaten Wakatobi, Sulawesi Tenggara 93795","Jl. Kemakmuran, Mandati II, Wangi-Wangi Sel., Kabupaten Wakatobi",SULAWESI TENGGARA,93795.0,Indonesia,81245572540.0,,,-5.3251903,123.5362447,https://maps.google.com/?cid=0x0:0x8dd92c846e60eec3,
cafe,Kafetaria,KEDAI TULU'S,"Mandati II, Kec. Wangi-Wangi, Kabupaten Wakatobi, Sulawesi Tenggara 93795","Kec. Wangi-Wangi, Kabupaten Wakatobi",SULAWESI TENGGARA,93795.0,Indonesia,85242319728.0,,,-5.3276985,123.5388425,https://maps.google.com/?cid=0x0:0x555cbaed6180ebf2,
cafe,Kedai Kopi,TOLIAMBA CAFE,"TOLIAMBA JAYA, Waginopo, Kec. Wangi-Wangi, Kabupaten Wakatobi, Sulawesi Tenggara 93791","Waginopo, Kec. Wangi-Wangi, Kabupaten Wakatobi",SULAWESI TENGGARA,93791.0,Indonesia,82271323750.0,,,-5.2950212,123.5445536,https://maps.google.com/?cid=0x0:0xd0c9b5b019d4e278,
cafe,Kafe,Planet Family Karaoke,"MG7Q+RHG, Mandati I, Kec. Wangi-Wangi, Kabupaten Wakatobi, Sulawesi Tenggara 93795","Mandati I, Kec. Wangi-Wangi, Kabupaten Wakatobi",SULAWESI TENGGARA,93795.0,Indonesia,81241184433.0,,,-5.3354301,123.538945,https://maps.google.com/?cid=0x0:0xfd204d5067ef21ac,
cafe,Restoran,Restaurant Wisata,"MHFW+G7C, Jl. A. Yani, Mandati III, Wangi-Wangi Sel., Kabupaten Wakatobi, Sulawesi Tenggara 93795","Jl. A. Yani, Mandati III, Wangi-Wangi Sel., Kabupaten Wakatobi",SULAWESI TENGGARA,93795.0,Indonesia,40421175.0,,,-5.326175,123.595651,https://maps.google.com/?cid=0x0:0x47b00e9a324be9c7,
