Category,Real Category,Business Name,Address,City,State,Postal Code,Country,Phone,Email,Website,Latitude,Longitude,Map Link,Details Link
mall,mall,Pulau Binongko,"Kabupaten Wakatobi, Sulawesi Tenggara","Kabupaten Wakatobi, Sulawesi Tenggara",SULAWESI TENGGARA,,Indonesia,,,,-5.9503049,124.0307246,https://maps.google.com/?cid=0x0:0x392dfd613ffff9d7,
mall,mall,Sulawesi Tenggara 93794,"Kabupaten Wakatobi, Sulawesi Tenggara","Kabupaten Wakatobi, Sulawesi Tenggara",SULAWESI TENGGARA,,Indonesia,,,,-5.9144277,124.0307246,https://maps.google.com/?cid=0x0:0x4074fc0032d77783,
mall,Pasar,Pasar Malam Wakatobi,"Jl. Jend. Ahmad Yani No.140, Kabupaten Wakatobi, Sulawesi Tenggara 93791",Kabupaten Wakatobi,SULAWESI TENGGARA,93791.0,Indonesia,,,,-5.3214767,123.5326093,https://maps.google.com/?cid=0x0:0x6da61c883737666d,
mall,Pasar,Pasar Lewuto,"GP2X+P84, Unnamed Road, Ambeua Raya, Kec. Kaledupa, Kabupaten Wakatobi, Sulawesi Tenggara 93792","Unnamed Road, Ambeua Raya, Kec. Kaledupa, Kabupaten Wakatobi",SULAWESI TENGGARA,93792.0,Indonesia,,,,-5.4982419,123.7483382,https://maps.google.com/?cid=0x0:0x4b9bfd9c66a6b028,
mall,Pasar,Pasar Malam Wakatobi,"Jl. Jend. Ahmad Yani No.140, Kabupaten Wakatobi, Sulawesi Tenggara 93791",Kabupaten Wakatobi,SULAWESI TENGGARA,93791.0,Indonesia,,,,-5.3214767,123.5326093,https://maps.google.com/?cid=0x0:0x6da61c883737666d,
mall,Pasar,Pasar Lewuto,"GP2X+P84, Unnamed Road, Ambeua Raya, Kec. Kaledupa, Kabupaten Wakatobi, Sulawesi Tenggara 93792","Unnamed Road, Ambeua Raya, Kec. Kaledupa, Kabupaten Wakatobi",SULAWESI TENGGARA,93792.0,Indonesia,,,,-5.4982419,123.7483382,https://maps.google.com/?cid=0x0:0x4b9bfd9c66a6b028,
mall,mall,Kec. Togo Binongko,"Kabupaten Wakatobi, Sulawesi Tenggara","Kabupaten Wakatobi, Sulawesi Tenggara",SULAWESI TENGGARA,,Indonesia,,,,-5.9778749,124.0311497,https://maps.google.com/?cid=0x0:0x304f91e288dbdafb,
mall,Apotek,AFC TOMIA,"Lingk. Komunto No.44, Tongano Bar., Kec. Tomia Tim., Kabupaten Wakatobi, Sulawesi Tenggara 93793","Tongano Bar., Kec. Tomia Tim., Kabupaten Wakatobi",SULAWESI TENGGARA,93793.0,Indonesia,85241842339.0,,,-5.7760845,123.9350991,https://maps.google.com/?cid=0x0:0xb559650330cb179b,
mall,mall,Tomia,"Kabupaten Wakatobi, Sulawesi Tenggara","Kabupaten Wakatobi, Sulawesi Tenggara",SULAWESI TENGGARA,,Indonesia,,,,-5.6651282,124.080846,https://maps.google.com/?cid=0x0:0xe166d892ad79e166,
mall,Apotek,Apotek Nia Farma,"Jl. Encik Sulaiman, Tongano Bar., Kec. Tomia Tim., Kabupaten Wakatobi, Sulawesi Tenggara 93797","Tongano Bar., Kec. Tomia Tim., Kabupaten Wakatobi",SULAWESI TENGGARA,93797.0,Indonesia,85398763002.0,,,-5.7769066,123.9385817,https://maps.google.com/?cid=0x0:0x7cd6b932b760c32a,
mall,mall,Sulawesi Tenggara 93793,"Kabupaten Wakatobi, Sulawesi Tenggara","Kabupaten Wakatobi, Sulawesi Tenggara",SULAWESI TENGGARA,,Indonesia,,,,-5.7414018,123.9415518,https://maps.google.com/?cid=0x0:0xcc1ed7ef5fc129ca,
mall,mall,Kec. Tomia Tim.,"Kabupaten Wakatobi, Sulawesi Tenggara","Kabupaten Wakatobi, Sulawesi Tenggara",SULAWESI TENGGARA,,Indonesia,,,,-5.7577933,123.9638531,https://maps.google.com/?cid=0x0:0xaf465c64f131684e,
mall,Toko bahan makanan,Winalu,"Induk, Wandoka, Kec. Wangi-Wangi, Kabupaten Wakatobi, Sulawesi Tenggara 93791","Wandoka, Kec. Wangi-Wangi, Kabupaten Wakatobi",SULAWESI TENGGARA,93791.0,Indonesia,81343867026.0,,,-5.296576,123.528288,https://maps.google.com/?cid=0x0:0x39b5c085ed0b1d11,
mall,Apotek,AFC TOMIA,"Lingk. Komunto No.44, Tongano Bar., Kec. Tomia Tim., Kabupaten Wakatobi, Sulawesi Tenggara 93793","Tongano Bar., Kec. Tomia Tim., Kabupaten Wakatobi",SULAWESI TENGGARA,93793.0,Indonesia,85241842339.0,,,-5.7760845,123.9350991,https://maps.google.com/?cid=0x0:0xb559650330cb179b,
mall,Toko,Toko Dzakwan,"MGCR+V7W, Mandati II, Wangi-Wangi Sel., Kabupaten Wakatobi, Sulawesi Tenggara 93795","Mandati II, Wangi-Wangi Sel., Kabupaten Wakatobi",SULAWESI TENGGARA,93795.0,Indonesia,81354915998.0,,,-5.3277614,123.5407173,https://maps.google.com/?cid=0x0:0xb3b153cf7891ee44,
mall,Toko,Depot Air Minum Almaira,"MGGR+GRC, jl. poros ehata, Mandati II, Kec. Wangi-Wangi, Kabupaten Wakatobi, Sulawesi Tenggara 93791","jl. poros ehata, Mandati II, Kec. Wangi-Wangi, Kabupaten Wakatobi",SULAWESI TENGGARA,93791.0,Indonesia,852055029574.0,,,-5.3236797,123.5420108,https://maps.google.com/?cid=0x0:0xe0857f43e33b6205,
mall,mall,Sulawesi Tenggara 93791,"Kec. Wangi-Wangi, Kabupaten Wakatobi, Sulawesi Tenggara","Kabupaten Wakatobi, Sulawesi Tenggara",SULAWESI TENGGARA,,Indonesia,,,,-5.3004341,123.5839983,https://maps.google.com/?cid=0x0:0x192a8c22fe0c5035,
mall,Pasar,Pasar Pagi Wangi-wangi,"MGCP+PVV, Jl. Kemakmuran, Kec. Wangi-Wangi, Kabupaten Wakatobi, Sulawesi Tenggara 93795","Jl. Kemakmuran, Kec. Wangi-Wangi, Kabupaten Wakatobi",SULAWESI TENGGARA,93795.0,Indonesia,,,,-5.3281396,123.5371795,https://maps.google.com/?cid=0x0:0xc80dcd463eb1726e,
mall,Toko bahan makanan,Winalu,"Induk, Wandoka, Kec. Wangi-Wangi, Kabupaten Wakatobi, Sulawesi Tenggara 93791","Wandoka, Kec. Wangi-Wangi, Kabupaten Wakatobi",SULAWESI TENGGARA,93791.0,Indonesia,81343867026.0,,,-5.296576,123.528288,https://maps.google.com/?cid=0x0:0x39b5c085ed0b1d11,
mall,Pasar,FF Sentral Plastik,"MG5R+J32, Pulau, Wangi-Wangi Sel., Kabupaten Wakatobi, Sulawesi Tenggara 93795","Pulau, Wangi-Wangi Sel., Kabupaten Wakatobi",SULAWESI TENGGARA,93795.0,Indonesia,81354804689.0,,,-5.3409891,123.5401287,https://maps.google.com/?cid=0x0:0x6cce802f3f64f8d,
mall,Toko Pakaian,SYIFA STORE WAKATOBI,"Lingkungan, Jl. Lariangi, Pongo, Kec. Wangi-Wangi, Kabupaten Wakatobi, Sulawesi Tenggara 93793","Jl. Lariangi, Pongo, Kec. Wangi-Wangi, Kabupaten Wakatobi",SULAWESI TENGGARA,93793.0,Indonesia,82193235948.0,,,-5.3238779,123.542085,https://maps.google.com/?cid=0x0:0x4d2a2483010f9545,
mall,Toko,Depot Air Minum Almaira,"MGGR+GRC, jl. poros ehata, Mandati II, Kec. Wangi-Wangi, Kabupaten Wakatobi, Sulawesi Tenggara 93791","jl. poros ehata, Mandati II, Kec. Wangi-Wangi, Kabupaten Wakatobi",SULAWESI TENGGARA,93791.0,Indonesia,852055029574.0,,,-5.3236797,123.5420108,https://maps.google.com/?cid=0x0:0xe0857f43e33b6205,
mall,Toko Parfum,Soba Parfum,"Mola Utara, Wangi-Wangi Sel., Kabupaten Wakatobi, Sulawesi Utara 93795","Wangi-Wangi Sel., Kabupaten Wakatobi",SULAWESI TENGGARA,93795.0,Indonesia,82188464625.0,,,-5.3433481,123.539054,https://maps.google.com/?cid=0x0:0xf7fd01d81dc6ef84,
mall,Pusat Perbelanjaan,Ayumi store üõçÔ∏è,"Mola Utara, Kabupaten Wakatobi, Sulawesi Tenggara 93729",Kabupaten Wakatobi,SULAWESI TENGGARA,93729.0,Indonesia,82123942511.0,,,-5.3427199,123.5393809,https://maps.google.com/?cid=0x0:0xbf9792376b60c03b,
mall,Toko Kesehatan dan Kecantikan,MN Beauty Wanci,"Jl. Jend. Ahmad Yani No.34, Wanci, Kec. Wangi-Wangi, Kabupaten Wakatobi, Sulawesi Tenggara 93791","Wanci, Kec. Wangi-Wangi, Kabupaten Wakatobi",SULAWESI TENGGARA,93791.0,Indonesia,,,,-5.322546,123.5352298,https://maps.google.com/?cid=0x0:0x7d35ac898474eef8,
mall,mall,Sulawesi Tenggara 93795,"Wangi-Wangi Sel., Kabupaten Wakatobi, Sulawesi Tenggara","Kabupaten Wakatobi, Sulawesi Tenggara",SULAWESI TENGGARA,,Indonesia,,,,-5.3538433,123.5839983,https://maps.google.com/?cid=0x0:0x7b5ce73bddb1ea5d,
mall,Pasar,Pasar Pagi Wangi-wangi,"MGCP+PVV, Jl. Kemakmuran, Kec. Wangi-Wangi, Kabupaten Wakatobi, Sulawesi Tenggara 93795","Jl. Kemakmuran, Kec. Wangi-Wangi, Kabupaten Wakatobi",SULAWESI TENGGARA,93795.0,Indonesia,,,,-5.3281396,123.5371795,https://maps.google.com/?cid=0x0:0xc80dcd463eb1726e,
mall,Toko,Toko Dzakwan,"MGCR+V7W, Mandati II, Wangi-Wangi Sel., Kabupaten Wakatobi, Sulawesi Tenggara 93795","Mandati II, Wangi-Wangi Sel., Kabupaten Wakatobi",SULAWESI TENGGARA,93795.0,Indonesia,81354915998.0,,,-5.3277614,123.5407173,https://maps.google.com/?cid=0x0:0xb3b153cf7891ee44,
mall,Toko,Depot Air Minum Almaira,"MGGR+GRC, jl. poros ehata, Mandati II, Kec. Wangi-Wangi, Kabupaten Wakatobi, Sulawesi Tenggara 93791","jl. poros ehata, Mandati II, Kec. Wangi-Wangi, Kabupaten Wakatobi",SULAWESI TENGGARA,93791.0,Indonesia,852055029574.0,,,-5.3236797,123.5420108,https://maps.google.com/?cid=0x0:0xe0857f43e33b6205,
mall,Toko Parfum,Soba Parfum,"Mola Utara, Wangi-Wangi Sel., Kabupaten Wakatobi, Sulawesi Utara 93795","Wangi-Wangi Sel., Kabupaten Wakatobi",SULAWESI TENGGARA,93795.0,Indonesia,82188464625.0,,,-5.3433481,123.539054,https://maps.google.com/?cid=0x0:0xf7fd01d81dc6ef84,
mall,Pusat Perbelanjaan,Ayumi store üõçÔ∏è,"Mola Utara, Kabupaten Wakatobi, Sulawesi Tenggara 93729",Kabupaten Wakatobi,SULAWESI TENGGARA,93729.0,Indonesia,82123942511.0,,,-5.3427199,123.5393809,https://maps.google.com/?cid=0x0:0xbf9792376b60c03b,
mall,Toko bahan makanan,Winalu,"Induk, Wandoka, Kec. Wangi-Wangi, Kabupaten Wakatobi, Sulawesi Tenggara 93791","Wandoka, Kec. Wangi-Wangi, Kabupaten Wakatobi",SULAWESI TENGGARA,93791.0,Indonesia,81343867026.0,,,-5.296576,123.528288,https://maps.google.com/?cid=0x0:0x39b5c085ed0b1d11,
mall,Toko Pakaian,SYIFA STORE WAKATOBI,"Lingkungan, Jl. Lariangi, Pongo, Kec. Wangi-Wangi, Kabupaten Wakatobi, Sulawesi Tenggara 93793","Jl. Lariangi, Pongo, Kec. Wangi-Wangi, Kabupaten Wakatobi",SULAWESI TENGGARA,93793.0,Indonesia,82193235948.0,,,-5.3238779,123.542085,https://maps.google.com/?cid=0x0:0x4d2a2483010f9545,
supermarket,Toko Bahan Bangunan,Tempat Penjual Kelapa dan Sabuk Kelapa Dll.,"32XH+H5X, Palahidu, Binongko, Kabupaten Wakatobi, Sulawesi Tenggara 93794","Palahidu, Binongko, Kabupaten Wakatobi",SULAWESI TENGGARA,93794.0,Indonesia,82344446334.0,,,-5.9010109,124.0279828,https://maps.google.com/?cid=0x0:0x260854ae5ca58264,
supermarket,Toko Bahan Bangunan,Toko Isalam,"Lontoi, Kelurahan Rukuwa, Binongko, Kabupaten Wakatobi, Sulawesi Tenggara 93794","Kelurahan Rukuwa, Binongko, Kabupaten Wakatobi",SULAWESI TENGGARA,93794.0,Indonesia,85394468111.0,,,-5.9148702,124.042067,https://maps.google.com/?cid=0x0:0x9ec6d8c481ecda59,
supermarket,supermarket,Sulawesi Tenggara 93794,"Kabupaten Wakatobi, Sulawesi Tenggara","Kabupaten Wakatobi, Sulawesi Tenggara",SULAWESI TENGGARA,,Indonesia,,,,-5.9144277,124.0307246,https://maps.google.com/?cid=0x0:0x4074fc0032d77783,
supermarket,Toko,Milni Mart Wakatobi,"MGJM+6CF, Pongo, Wangi-Wangi Sel., Kabupaten Wakatobi, Sulawesi Tenggara 93791","Pongo, Wangi-Wangi Sel., Kabupaten Wakatobi",SULAWESI TENGGARA,93791.0,Indonesia,82293132207.0,,,-5.319448,123.5335558,https://maps.google.com/?cid=0x0:0x7d323f13e646573b,
supermarket,Toko Percetakan,Togo Kreasi  Travel,"Uko, (Kompleks Tee Pajamara), Kelurahan, Popalia, Binongko, Kec. Togo Binongko, Kabupaten Wakatobi, Sulawesi Tenggara 93796","(Kompleks Tee Pajamara), Kelurahan, Popalia, Binongko, Kec. Togo Binongko, Kabupaten Wakatobi",SULAWESI TENGGARA,93796.0,Indonesia,81255828199.0,,,-5.9702876,124.0051994,https://maps.google.com/?cid=0x0:0x644e1ffa644ca5df,
supermarket,Toko Bahan Bangunan,UD. SAFARIS,"Sowa, Kec. Togo Binongko, Kabupaten Wakatobi, Sulawesi Tenggara","Kabupaten Wakatobi, Sulawesi Tenggara",SULAWESI TENGGARA,,Indonesia,81364389565.0,,,-5.9678259,123.9956727,https://maps.google.com/?cid=0x0:0x6a680b35b63b3cb7,
supermarket,supermarket,Pulau Binongko,"Kabupaten Wakatobi, Sulawesi Tenggara","Kabupaten Wakatobi, Sulawesi Tenggara",SULAWESI TENGGARA,,Indonesia,,,,-5.9503049,124.0307246,https://maps.google.com/?cid=0x0:0x392dfd613ffff9d7,
supermarket,supermarket,Sulawesi Tenggara 93792,"Kabupaten Wakatobi, Sulawesi Tenggara","Kabupaten Wakatobi, Sulawesi Tenggara",SULAWESI TENGGARA,,Indonesia,,,,-5.5551203,123.785291,https://maps.google.com/?cid=0x0:0x9fcf3359b49a567d,
supermarket,Toko bahan makanan,Toko Yudi H,"Lau-Lua, Kec. Kaledupa, Kabupaten Wakatobi, Sulawesi Tenggara 93792","Kec. Kaledupa, Kabupaten Wakatobi",SULAWESI TENGGARA,93792.0,Indonesia,82344989305.0,,,-5.4993073,123.749653,https://maps.google.com/?cid=0x0:0x50d8e10b0b6190cc,
supermarket,Toko Bahan Bangunan,Toko Gafa Makmur,"Ruku-Ruku, Langge, Kec. Kaledupa Sel., Kabupaten Wakatobi, Sulawesi Tenggara 93790","Langge, Kec. Kaledupa Sel., Kabupaten Wakatobi",SULAWESI TENGGARA,93790.0,Indonesia,85259184762.0,,,-5.5465221,123.8024379,https://maps.google.com/?cid=0x0:0xf1abc01489fc2cdc,
supermarket,Kedai Kopi,Double Peace,"FQX3+467, Ambeua Raya, Kec. Kaledupa, Kabupaten Wakatobi, Sulawesi Tenggara 93792","Ambeua Raya, Kec. Kaledupa, Kabupaten Wakatobi",SULAWESI TENGGARA,93792.0,Indonesia,82198487995.0,,,-5.5022171,123.7530326,https://maps.google.com/?cid=0x0:0xdafacedad5c16919,
supermarket,Minimarket,Latif Olshop Perabot dan Barang Viral,"Ambeua, Kec. Kaledupa, Kabupaten Wakatobi, Sulawesi Tenggara 93792","Kec. Kaledupa, Kabupaten Wakatobi",SULAWESI TENGGARA,93792.0,Indonesia,82343091100.0,,,-5.4978761,123.7548591,https://maps.google.com/?cid=0x0:0x9f83c9d5af5155aa,
supermarket,Makanan Kecil,Kios Wira,"CQR9+F4H Paria, Kaswari, Kec. Kaledupa Sel., Kabupaten Wakatobi, Sulawesi Tenggara 93792","Kaswari, Kec. Kaledupa Sel., Kabupaten Wakatobi",SULAWESI TENGGARA,93792.0,Indonesia,81297371046.0,,,-5.5588061,123.7678441,https://maps.google.com/?cid=0x0:0x968273daaa3072c3,
supermarket,Toko bahan makanan,Toko Sariwa Elektronik,"Lau-Lua, Kec. Kaledupa, Kabupaten Wakatobi, Sulawesi Tenggara 93792","Kec. Kaledupa, Kabupaten Wakatobi",SULAWESI TENGGARA,93792.0,Indonesia,85397162575.0,,,-5.49911,123.7490794,https://maps.google.com/?cid=0x0:0x5363e7931a5bd8f1,
supermarket,Toko bahan makanan,Toko Abdullah FMSH2,"Ambeua, Kec. Kaledupa, Kabupaten Wakatobi, Sulawesi Tenggara 93792","Kec. Kaledupa, Kabupaten Wakatobi",SULAWESI TENGGARA,93792.0,Indonesia,82259938483.0,,,-5.4996309,123.7552234,https://maps.google.com/?cid=0x0:0x967183f9e264562a,
supermarket,Minimarket,Toko Iska Jaya,"Jln. Poros jembatan langge, kaledupa selatan, Kec. Kaledupa, Kabupaten Wakatobi, Sulawesi Tenggara 93790","kaledupa selatan, Kec. Kaledupa, Kabupaten Wakatobi",SULAWESI TENGGARA,93790.0,Indonesia,81283542252.0,,,-5.5463681,123.8024891,https://maps.google.com/?cid=0x0:0x998e87ba599ec857,
supermarket,Toko bahan makanan,Kios maulana rizki,"Lau-Lua, Kec. Kaledupa, Kabupaten Wakatobi, Sulawesi Tenggara","Kabupaten Wakatobi, Sulawesi Tenggara",SULAWESI TENGGARA,,Indonesia,82271639306.0,,,-5.4987245,123.7491064,https://maps.google.com/?cid=0x0:0xbbcec0a6e88ee16f,
supermarket,Toko Makanan,Gurita kering Mm Vian,"Lau-Lua, Kec. Kaledupa, Kabupaten Wakatobi, Sulawesi Tenggara 93792","Kec. Kaledupa, Kabupaten Wakatobi",SULAWESI TENGGARA,93792.0,Indonesia,82296642658.0,,,-5.4980558,123.7499698,https://maps.google.com/?cid=0x0:0x18d79a4a72125c0d,
supermarket,Toko Kue,Toko kue Ummu Fatih,"Lau-Lua, Kec. Kaledupa, Kabupaten Wakatobi, Sulawesi Tenggara 93792","Kec. Kaledupa, Kabupaten Wakatobi",SULAWESI TENGGARA,93792.0,Indonesia,85291386799.0,,,-5.4988544,123.7491638,https://maps.google.com/?cid=0x0:0xbb07d220038adcfd,
supermarket,Toko bahan makanan,Kios Aros,"Jl. La bomba Jln. Poros No.raya, Sombano, Kec. Kaledupa, Kabupaten Wakatobi, Sulawesi Tenggara 93792","Sombano, Kec. Kaledupa, Kabupaten Wakatobi",SULAWESI TENGGARA,93792.0,Indonesia,85340191082.0,,,-5.4818822,123.7098569,https://maps.google.com/?cid=0x0:0x51b28f7a833da554,
supermarket,Kedai Kopi,Kopi 27,"Pajam, Kec. Kaledupa Sel., Kabupaten Wakatobi, Sulawesi Tenggara 93792","Kec. Kaledupa Sel., Kabupaten Wakatobi",SULAWESI TENGGARA,93792.0,Indonesia,85341565540.0,,,-5.5547108,123.782359,https://maps.google.com/?cid=0x0:0x1988c3262103e55e,
supermarket,Apotek,Apotek Ambeua Medika,"LINGKUNGAN KAU BANGU, Ambeua, Sulawesi Tenggara 93792",Ambeua,SULAWESI TENGGARA,93792.0,Indonesia,82345443625.0,,,-5.4995624,123.7537454,https://maps.google.com/?cid=0x0:0x7bf7c7b95b372e67,
supermarket,Toko bahan makanan,Dwi Cahaya Mart,"MGCR+VPG, Jl. Lebe Umara, Mandati II, Wangi-Wangi Sel., Kabupaten Wakatobi, Sulawesi Tenggara 93795","Jl. Lebe Umara, Mandati II, Wangi-Wangi Sel., Kabupaten Wakatobi",SULAWESI TENGGARA,93795.0,Indonesia,82159491346.0,,,-5.3278086,123.5418329,https://maps.google.com/?cid=0x0:0x8914e2f1a32b5451,
supermarket,Toko,Milni Mart Wakatobi,"MGJM+6CF, Pongo, Wangi-Wangi Sel., Kabupaten Wakatobi, Sulawesi Tenggara 93791","Pongo, Wangi-Wangi Sel., Kabupaten Wakatobi",SULAWESI TENGGARA,93791.0,Indonesia,82293132207.0,,,-5.319448,123.5335558,https://maps.google.com/?cid=0x0:0x7d323f13e646573b,
supermarket,Minimarket,Toko Fadillah,"Dusun Tombuluruha, Balasuna, Bungi, Kabupaten Wakatobi, Sulawesi Tenggara 93792","Balasuna, Bungi, Kabupaten Wakatobi",SULAWESI TENGGARA,93792.0,Indonesia,81343732132.0,,,-5.5173851,123.7724196,https://maps.google.com/?cid=0x0:0x5cc18941abe90f9f,
supermarket,Apotek,Toko Obat Sheila,"GP2X+772, Lefuto, Kec. Kaledupa, Kabupaten Wakatobi, Sulawesi Tenggara 93792","Lefuto, Kec. Kaledupa, Kabupaten Wakatobi",SULAWESI TENGGARA,93792.0,Indonesia,85394110389.0,,,-5.4993572,123.7481528,https://maps.google.com/?cid=0x0:0xaee9da29e360663f,
supermarket,supermarket,Sulawesi Tenggara 93792,"Kabupaten Wakatobi, Sulawesi Tenggara","Kabupaten Wakatobi, Sulawesi Tenggara",SULAWESI TENGGARA,,Indonesia,,,,-5.5551203,123.785291,https://maps.google.com/?cid=0x0:0x9fcf3359b49a567d,
supermarket,Toko bahan makanan,Toko Yudi H,"Lau-Lua, Kec. Kaledupa, Kabupaten Wakatobi, Sulawesi Tenggara 93792","Kec. Kaledupa, Kabupaten Wakatobi",SULAWESI TENGGARA,93792.0,Indonesia,82344989305.0,,,-5.4993073,123.749653,https://maps.google.com/?cid=0x0:0x50d8e10b0b6190cc,
supermarket,Toko Bahan Bangunan,Toko Gafa Makmur,"Ruku-Ruku, Langge, Kec. Kaledupa Sel., Kabupaten Wakatobi, Sulawesi Tenggara 93790","Langge, Kec. Kaledupa Sel., Kabupaten Wakatobi",SULAWESI TENGGARA,93790.0,Indonesia,85259184762.0,,,-5.5465221,123.8024379,https://maps.google.com/?cid=0x0:0xf1abc01489fc2cdc,
supermarket,Kedai Kopi,Double Peace,"FQX3+467, Ambeua Raya, Kec. Kaledupa, Kabupaten Wakatobi, Sulawesi Tenggara 93792","Ambeua Raya, Kec. Kaledupa, Kabupaten Wakatobi",SULAWESI TENGGARA,93792.0,Indonesia,82198487995.0,,,-5.5022171,123.7530326,https://maps.google.com/?cid=0x0:0xdafacedad5c16919,
supermarket,Minimarket,Toko Iska Jaya,"Jln. Poros jembatan langge, kaledupa selatan, Kec. Kaledupa, Kabupaten Wakatobi, Sulawesi Tenggara 93790","kaledupa selatan, Kec. Kaledupa, Kabupaten Wakatobi",SULAWESI TENGGARA,93790.0,Indonesia,81283542252.0,,,-5.5463681,123.8024891,https://maps.google.com/?cid=0x0:0x998e87ba599ec857,
supermarket,Toko bahan makanan,Toko Abdullah FMSH2,"Ambeua, Kec. Kaledupa, Kabupaten Wakatobi, Sulawesi Tenggara 93792","Kec. Kaledupa, Kabupaten Wakatobi",SULAWESI TENGGARA,93792.0,Indonesia,82259938483.0,,,-5.4996309,123.7552234,https://maps.google.com/?cid=0x0:0x967183f9e264562a,
supermarket,Makanan Kecil,Kios Wira,"CQR9+F4H Paria, Kaswari, Kec. Kaledupa Sel., Kabupaten Wakatobi, Sulawesi Tenggara 93792","Kaswari, Kec. Kaledupa Sel., Kabupaten Wakatobi",SULAWESI TENGGARA,93792.0,Indonesia,81297371046.0,,,-5.5588061,123.7678441,https://maps.google.com/?cid=0x0:0x968273daaa3072c3,
supermarket,Toko bahan makanan,Toko Sariwa Elektronik,"Lau-Lua, Kec. Kaledupa, Kabupaten Wakatobi, Sulawesi Tenggara 93792","Kec. Kaledupa, Kabupaten Wakatobi",SULAWESI TENGGARA,93792.0,Indonesia,85397162575.0,,,-5.49911,123.7490794,https://maps.google.com/?cid=0x0:0x5363e7931a5bd8f1,
supermarket,Minimarket,Latif Olshop Perabot dan Barang Viral,"Ambeua, Kec. Kaledupa, Kabupaten Wakatobi, Sulawesi Tenggara 93792","Kec. Kaledupa, Kabupaten Wakatobi",SULAWESI TENGGARA,93792.0,Indonesia,82343091100.0,,,-5.4978761,123.7548591,https://maps.google.com/?cid=0x0:0x9f83c9d5af5155aa,
supermarket,Toko bahan makanan,Kios maulana rizki,"Lau-Lua, Kec. Kaledupa, Kabupaten Wakatobi, Sulawesi Tenggara","Kabupaten Wakatobi, Sulawesi Tenggara",SULAWESI TENGGARA,,Indonesia,82271639306.0,,,-5.4987245,123.7491064,https://maps.google.com/?cid=0x0:0xbbcec0a6e88ee16f,
supermarket,Toko Makanan,Gurita kering Mm Vian,"Lau-Lua, Kec. Kaledupa, Kabupaten Wakatobi, Sulawesi Tenggara 93792","Kec. Kaledupa, Kabupaten Wakatobi",SULAWESI TENGGARA,93792.0,Indonesia,82296642658.0,,,-5.4980558,123.7499698,https://maps.google.com/?cid=0x0:0x18d79a4a72125c0d,
supermarket,Toko bahan makanan,Kios Aros,"Jl. La bomba Jln. Poros No.raya, Sombano, Kec. Kaledupa, Kabupaten Wakatobi, Sulawesi Tenggara 93792","Sombano, Kec. Kaledupa, Kabupaten Wakatobi",SULAWESI TENGGARA,93792.0,Indonesia,85340191082.0,,,-5.4818822,123.7098569,https://maps.google.com/?cid=0x0:0x51b28f7a833da554,
supermarket,Toko Kue,Toko kue Ummu Fatih,"Lau-Lua, Kec. Kaledupa, Kabupaten Wakatobi, Sulawesi Tenggara 93792","Kec. Kaledupa, Kabupaten Wakatobi",SULAWESI TENGGARA,93792.0,Indonesia,85291386799.0,,,-5.4988544,123.7491638,https://maps.google.com/?cid=0x0:0xbb07d220038adcfd,
supermarket,Kedai Kopi,Kopi 27,"Pajam, Kec. Kaledupa Sel., Kabupaten Wakatobi, Sulawesi Tenggara 93792","Kec. Kaledupa Sel., Kabupaten Wakatobi",SULAWESI TENGGARA,93792.0,Indonesia,85341565540.0,,,-5.5547108,123.782359,https://maps.google.com/?cid=0x0:0x1988c3262103e55e,
supermarket,Toko,Milni Mart Wakatobi,"MGJM+6CF, Pongo, Wangi-Wangi Sel., Kabupaten Wakatobi, Sulawesi Tenggara 93791","Pongo, Wangi-Wangi Sel., Kabupaten Wakatobi",SULAWESI TENGGARA,93791.0,Indonesia,82293132207.0,,,-5.319448,123.5335558,https://maps.google.com/?cid=0x0:0x7d323f13e646573b,
supermarket,Toko bahan makanan,Dwi Cahaya Mart,"MGCR+VPG, Jl. Lebe Umara, Mandati II, Wangi-Wangi Sel., Kabupaten Wakatobi, Sulawesi Tenggara 93795","Jl. Lebe Umara, Mandati II, Wangi-Wangi Sel., Kabupaten Wakatobi",SULAWESI TENGGARA,93795.0,Indonesia,82159491346.0,,,-5.3278086,123.5418329,https://maps.google.com/?cid=0x0:0x8914e2f1a32b5451,
supermarket,Apotek,Apotek Ambeua Medika,"LINGKUNGAN KAU BANGU, Ambeua, Sulawesi Tenggara 93792",Ambeua,SULAWESI TENGGARA,93792.0,Indonesia,82345443625.0,,,-5.4995624,123.7537454,https://maps.google.com/?cid=0x0:0x7bf7c7b95b372e67,
supermarket,Minimarket,Toko Fadillah,"Dusun Tombuluruha, Balasuna, Bungi, Kabupaten Wakatobi, Sulawesi Tenggara 93792","Balasuna, Bungi, Kabupaten Wakatobi",SULAWESI TENGGARA,93792.0,Indonesia,81343732132.0,,,-5.5173851,123.7724196,https://maps.google.com/?cid=0x0:0x5cc18941abe90f9f,
supermarket,Apotek,Toko Obat Sheila,"GP2X+772, Lefuto, Kec. Kaledupa, Kabupaten Wakatobi, Sulawesi Tenggara 93792","Lefuto, Kec. Kaledupa, Kabupaten Wakatobi",SULAWESI TENGGARA,93792.0,Indonesia,85394110389.0,,,-5.4993572,123.7481528,https://maps.google.com/?cid=0x0:0xaee9da29e360663f,
supermarket,supermarket,Sulawesi Tenggara 93794,"Kabupaten Wakatobi, Sulawesi Tenggara","Kabupaten Wakatobi, Sulawesi Tenggara",SULAWESI TENGGARA,,Indonesia,,,,-5.9144277,124.0307246,https://maps.google.com/?cid=0x0:0x4074fc0032d77783,
supermarket,Kantor Pemerintah,Pasar Desa Makoro,"3XHH+X35, Makoro, Binongko, Kabupaten Wakatobi, Sulawesi Tenggara 93794","Makoro, Binongko, Kabupaten Wakatobi",SULAWESI TENGGARA,93794.0,Indonesia,,,,-5.9201022,123.9777197,https://maps.google.com/?cid=0x0:0xc7dd03915e26711a,
supermarket,Toko Percetakan,Togo Kreasi  Travel,"Uko, (Kompleks Tee Pajamara), Kelurahan, Popalia, Binongko, Kec. Togo Binongko, Kabupaten Wakatobi, Sulawesi Tenggara 93796","(Kompleks Tee Pajamara), Kelurahan, Popalia, Binongko, Kec. Togo Binongko, Kabupaten Wakatobi",SULAWESI TENGGARA,93796.0,Indonesia,81255828199.0,,,-5.9702876,124.0051994,https://maps.google.com/?cid=0x0:0x644e1ffa644ca5df,
supermarket,Toko,JAMHAR ATK,"Jamhar ATK, Makoro, Binongko, Kabupaten Wakatobi, Sulawesi Tenggara 93794","Makoro, Binongko, Kabupaten Wakatobi",SULAWESI TENGGARA,93794.0,Indonesia,,,,-5.9180097,123.9782593,https://maps.google.com/?cid=0x0:0x9141e9ce5ef44664,
supermarket,Toko Bahan Bangunan,Toko Isalam,"Lontoi, Kelurahan Rukuwa, Binongko, Kabupaten Wakatobi, Sulawesi Tenggara 93794","Kelurahan Rukuwa, Binongko, Kabupaten Wakatobi",SULAWESI TENGGARA,93794.0,Indonesia,85394468111.0,,,-5.9148702,124.042067,https://maps.google.com/?cid=0x0:0x9ec6d8c481ecda59,
supermarket,Toko Bahan Bangunan,UD. SAFARIS,"Sowa, Kec. Togo Binongko, Kabupaten Wakatobi, Sulawesi Tenggara","Kabupaten Wakatobi, Sulawesi Tenggara",SULAWESI TENGGARA,,Indonesia,81364389565.0,,,-5.9678259,123.9956727,https://maps.google.com/?cid=0x0:0x6a680b35b63b3cb7,
supermarket,Toko,Milni Mart Wakatobi,"MGJM+6CF, Pongo, Wangi-Wangi Sel., Kabupaten Wakatobi, Sulawesi Tenggara 93791","Pongo, Wangi-Wangi Sel., Kabupaten Wakatobi",SULAWESI TENGGARA,93791.0,Indonesia,82293132207.0,,,-5.319448,123.5335558,https://maps.google.com/?cid=0x0:0x7d323f13e646573b,
supermarket,Kedai Kopi,Bumdes Oihu coffee shoop,"22CJ+RWM, jalan poros waloindi, dusun kapuluka, Oihu, Kec. Togo Binongko, Kabupaten Wakatobi, Sulawesi Tenggara 93794","jalan poros waloindi, dusun kapuluka, Oihu, Kec. Togo Binongko, Kabupaten Wakatobi",SULAWESI TENGGARA,93794.0,Indonesia,82199998327.0,,,-5.9779205,124.0323022,https://maps.google.com/?cid=0x0:0xc3b88740c2f7bc5,
supermarket,Toko umum,JINGGA Mart,"Jalan poros usuku, kahianga, Tomia, Kabupaten Wakatobi, Sulawesi Tenggara 93797","kahianga, Tomia, Kabupaten Wakatobi",SULAWESI TENGGARA,93797.0,Indonesia,82131398515.0,,,-5.7736549,123.9332334,https://maps.google.com/?cid=0x0:0xfea9b158c411386a,
supermarket,supermarket,Pulau Binongko,"Kabupaten Wakatobi, Sulawesi Tenggara","Kabupaten Wakatobi, Sulawesi Tenggara",SULAWESI TENGGARA,,Indonesia,,,,-5.9503049,124.0307246,https://maps.google.com/?cid=0x0:0x392dfd613ffff9d7,
supermarket,supermarket,Tomia,"Kabupaten Wakatobi, Sulawesi Tenggara","Kabupaten Wakatobi, Sulawesi Tenggara",SULAWESI TENGGARA,,Indonesia,,,,-5.6651282,124.080846,https://maps.google.com/?cid=0x0:0xe166d892ad79e166,
supermarket,Toko Alat Tulis Kantor,Abhan ATK  Pulsa Tomia,"Tomia, Kabupaten Wakatobi, Sulawesi Tenggara 93793",Kabupaten Wakatobi,SULAWESI TENGGARA,93793.0,Indonesia,82141402713.0,,,-5.7517159,123.9019634,https://maps.google.com/?cid=0x0:0xb1c4aaee9d828d26,
supermarket,Toko Swalayan,Toko Aalina Barokah,"Tomia Desa waitii Jalan poros waha, Kabupaten Wakatobi, Sulawesi Tenggara 93793",Kabupaten Wakatobi,SULAWESI TENGGARA,93793.0,Indonesia,81297220011.0,,,-5.7563458,123.9078565,https://maps.google.com/?cid=0x0:0x68db107043c5992c,
supermarket,Toko umum,JINGGA Mart,"Jalan poros usuku, kahianga, Tomia, Kabupaten Wakatobi, Sulawesi Tenggara 93797","kahianga, Tomia, Kabupaten Wakatobi",SULAWESI TENGGARA,93797.0,Indonesia,82131398515.0,,,-5.7736549,123.9332334,https://maps.google.com/?cid=0x0:0xfea9b158c411386a,
supermarket,Minimarket,Jali mart,"Jl. W.R. Soepratman No.40, Bahari, Kec. Tomia Tim., Kabupaten Wakatobi, Sulawesi Tenggara 93793","Bahari, Kec. Tomia Tim., Kabupaten Wakatobi",SULAWESI TENGGARA,93793.0,Indonesia,85211644347.0,,,-5.7780634,123.9405608,https://maps.google.com/?cid=0x0:0x702b4e017593b655,
supermarket,Toko Pakaian Bayi,Toko Athaya,"Dusun Lasapisa samping kanan SDN, Waiti, Tomia, Kabupaten Wakatobi, Sulawesi Tenggara 93793","Waiti, Tomia, Kabupaten Wakatobi",SULAWESI TENGGARA,93793.0,Indonesia,81255027131.0,,,-5.7533475,123.9047289,https://maps.google.com/?cid=0x0:0x9d8c73cd3d8ebc12,
supermarket,Kafe,Kedai Selly Water Tomia,"7VGW+2R, Waha, Kabupaten Wakatobi, Sulawesi Tenggara","Kabupaten Wakatobi, Sulawesi Tenggara",SULAWESI TENGGARA,,Indonesia,82191228722.0,,,-5.724948,123.897088,https://maps.google.com/?cid=0x0:0x32e9efbb058d5a8b,
supermarket,supermarket,Cantika'S Kedai,"Depan SDN, Kollo Soha, Tomia, Kabupaten Wakatobi, Sulawesi Tenggara 93793","Kollo Soha, Tomia, Kabupaten Wakatobi",SULAWESI TENGGARA,93793.0,Indonesia,85394479088.0,,,-5.7385062,123.8957833,https://maps.google.com/?cid=0x0:0x6225991fd2c6fff0,
supermarket,Apotek,AFC TOMIA,"Lingk. Komunto No.44, Tongano Bar., Kec. Tomia Tim., Kabupaten Wakatobi, Sulawesi Tenggara 93793","Tongano Bar., Kec. Tomia Tim., Kabupaten Wakatobi",SULAWESI TENGGARA,93793.0,Indonesia,85241842339.0,,,-5.7760845,123.9350991,https://maps.google.com/?cid=0x0:0xb559650330cb179b,
supermarket,Pantai Umum,Pantai Lakota Tomia,"Jl. WAHA - WAITII, Waha, Tomia, Kabupaten Wakatobi, Sulawesi Tenggara 93793","Waha, Tomia, Kabupaten Wakatobi",SULAWESI TENGGARA,93793.0,Indonesia,82114952856.0,,,-5.7233789,123.9007048,https://maps.google.com/?cid=0x0:0xd6c07b814e052d9b,
supermarket,Minimarket,TOKO SINAR JAYA,"6WCV+GQW, Bahari, Kec. Tomia Tim., Kabupaten Wakatobi, Sulawesi Tenggara 93753","Bahari, Kec. Tomia Tim., Kabupaten Wakatobi",SULAWESI TENGGARA,93753.0,Indonesia,,,,-5.7786365,123.9444481,https://maps.google.com/?cid=0x0:0x4352edfaf4732261,
supermarket,Toko Bahan Bangunan,TOKO 354,"6WFM+5V8, Tongano Bar., Kec. Tomia Tim., Kabupaten Wakatobi, Sulawesi Tenggara 93793","Tongano Bar., Kec. Tomia Tim., Kabupaten Wakatobi",SULAWESI TENGGARA,93793.0,Indonesia,82333331570.0,,,-5.7770909,123.9346956,https://maps.google.com/?cid=0x0:0x2842c8a4a96ff17a,
supermarket,Apotek,Apotek Putra Resky/Pharmacy Store,"Bente Onemay sub district, Tomia, Sulawesi Tenggara 93793",Tomia,SULAWESI TENGGARA,93793.0,Indonesia,81350506949.0,,,-5.7201167,123.9077583,https://maps.google.com/?cid=0x0:0xea9d4ff37547aaa0,
supermarket,Kedai Kopi,Ko.Pi.Mana? #sinisaja,"Maranggo, Tomia, Kabupaten Wakatobi, Sulawesi Tenggara 97395","Tomia, Kabupaten Wakatobi",SULAWESI TENGGARA,97395.0,Indonesia,82227543527.0,,,-5.7719151,123.9203984,https://maps.google.com/?cid=0x0:0x990c90d743c8ebeb,
supermarket,Toko,Milni Mart Wakatobi,"MGJM+6CF, Pongo, Wangi-Wangi Sel., Kabupaten Wakatobi, Sulawesi Tenggara 93791","Pongo, Wangi-Wangi Sel., Kabupaten Wakatobi",SULAWESI TENGGARA,93791.0,Indonesia,82293132207.0,,,-5.319448,123.5335558,https://maps.google.com/?cid=0x0:0x7d323f13e646573b,
supermarket,Toko Fotokopi,Fotocopy Berkah Syabna,"Waiti, Tomia, Kabupaten Wakatobi, Sulawesi Tenggara 93132","Tomia, Kabupaten Wakatobi",SULAWESI TENGGARA,93132.0,Indonesia,85242653445.0,,,-5.7569316,123.9083087,https://maps.google.com/?cid=0x0:0xdb8c07acece71318,
supermarket,Toko Bahan Bangunan,Toko Reski,"Pasar Sentral Usuku, Kabupaten Wakatobi, Sulawesi Tenggara 93797",Kabupaten Wakatobi,SULAWESI TENGGARA,93797.0,Indonesia,81356112411.0,,,-5.7765688,123.9316543,https://maps.google.com/?cid=0x0:0xa85fa7dfb006a0b2,
supermarket,Pantai Umum,Pantai Hondue,"7V6V+MMG, Desa, Kollo Soha, Tomia, Kabupaten Wakatobi, 93793","Desa, Kollo Soha, Tomia",SULAWESI TENGGARA,93793.0,Indonesia,,,,-5.7383198,123.8941959,https://maps.google.com/?cid=0x0:0x6e0347c140690519,
supermarket,Toko Alat Tulis Kantor,PERCETAKAN UMALENO MULTIMEDIA TOMIA,"Desa Timu, Jalan Poros, Tomia, Kabupaten Wakatobi, Sulawesi Tenggara 93793","Jalan Poros, Tomia, Kabupaten Wakatobi",SULAWESI TENGGARA,93793.0,Indonesia,85156602131.0,,,-5.7784337,123.950806,https://maps.google.com/?cid=0x0:0xc99ad98bb20049a4,
supermarket,supermarket,Wakatobi Dive Resort,"Desa, Lamanggau, Tomia, Kabupaten Wakatobi, Sulawesi Tenggara","Kabupaten Wakatobi, Sulawesi Tenggara",SULAWESI TENGGARA,,Indonesia,361759669.0,,,-5.7759726,123.8948447,https://maps.google.com/?cid=0x0:0xdaa4c0bafdf8cf0,
supermarket,Toko Alat Tulis Kantor,KANSOFA ATK,"Tongano Timur, Kec. Tomia Tim., Kabupaten Wakatobi, Sulawesi Tenggara 93793","Kec. Tomia Tim., Kabupaten Wakatobi",SULAWESI TENGGARA,93793.0,Indonesia,82343141558.0,,,-5.7779955,123.9403108,https://maps.google.com/?cid=0x0:0xe6153de51d5c68f7,
supermarket,supermarket,OMAN TOMIA,"Jl.waha, Onemay, Tomia, Kabupaten Wakatobi, Sulawesi Tenggara","Kabupaten Wakatobi, Sulawesi Tenggara",SULAWESI TENGGARA,,Indonesia,82296756079.0,,,-5.7219129,123.9083431,https://maps.google.com/?cid=0x0:0x2eb8952a761239ef,
supermarket,Toko,Swalayan Tomia Baru,"PX26+6W5, Unnamed Road, Namaelo, Kec. Kota Masohi, Kabupaten Maluku Tengah, Maluku 97511","Unnamed Road, Namaelo, Kec. Kota Masohi, Kabupaten Maluku Tengah",SULAWESI TENGGARA,97511.0,Indonesia,,,,-3.2994848,128.962353,https://maps.google.com/?cid=0x0:0xf06af0ee4b8665d8,
supermarket,Minimarket,TOKO SINAR JAYA,"6WCV+GQW, Bahari, Kec. Tomia Tim., Kabupaten Wakatobi, Sulawesi Tenggara 93753","Bahari, Kec. Tomia Tim., Kabupaten Wakatobi",SULAWESI TENGGARA,93753.0,Indonesia,,,,-5.7786365,123.9444481,https://maps.google.com/?cid=0x0:0x4352edfaf4732261,
supermarket,Minimarket,Jali mart,"Jl. W.R. Soepratman No.40, Bahari, Kec. Tomia Tim., Kabupaten Wakatobi, Sulawesi Tenggara 93793","Bahari, Kec. Tomia Tim., Kabupaten Wakatobi",SULAWESI TENGGARA,93793.0,Indonesia,85211644347.0,,,-5.7780634,123.9405608,https://maps.google.com/?cid=0x0:0x702b4e017593b655,
supermarket,supermarket,Sulawesi Tenggara 93793,"Kabupaten Wakatobi, Sulawesi Tenggara","Kabupaten Wakatobi, Sulawesi Tenggara",SULAWESI TENGGARA,,Indonesia,,,,-5.7414018,123.9415518,https://maps.google.com/?cid=0x0:0xcc1ed7ef5fc129ca,
supermarket,Toko bahan makanan,Tweety Mart 2,"South East, Mandati II, Wangi-Wangi Sel., Kabupaten Wakatobi, Sulawesi Tenggara 93795","Mandati II, Wangi-Wangi Sel., Kabupaten Wakatobi",SULAWESI TENGGARA,93795.0,Indonesia,,,,-5.3296611,123.5381788,https://maps.google.com/?cid=0x0:0x265d6d147287e812,
supermarket,Toko,Milni Mart Wakatobi,"MGJM+6CF, Pongo, Wangi-Wangi Sel., Kabupaten Wakatobi, Sulawesi Tenggara 93791","Pongo, Wangi-Wangi Sel., Kabupaten Wakatobi",SULAWESI TENGGARA,93791.0,Indonesia,82293132207.0,,,-5.319448,123.5335558,https://maps.google.com/?cid=0x0:0x7d323f13e646573b,
supermarket,Toko umum,JINGGA Mart,"Jalan poros usuku, kahianga, Tomia, Kabupaten Wakatobi, Sulawesi Tenggara 93797","kahianga, Tomia, Kabupaten Wakatobi",SULAWESI TENGGARA,93797.0,Indonesia,82131398515.0,,,-5.7736549,123.9332334,https://maps.google.com/?cid=0x0:0xfea9b158c411386a,
supermarket,Minimarket,Kios Aqila,"Waitii Bar., Kabupaten Wakatobi, Sulawesi Tenggara 93793",Kabupaten Wakatobi,SULAWESI TENGGARA,93793.0,Indonesia,82292954629.0,,,-5.7496725,123.9008619,https://maps.google.com/?cid=0x0:0xd8b753a1ebbf82d0,
supermarket,Toko Bahan Bangunan,TOKO 354,"6WFM+5V8, Tongano Bar., Kec. Tomia Tim., Kabupaten Wakatobi, Sulawesi Tenggara 93793","Tongano Bar., Kec. Tomia Tim., Kabupaten Wakatobi",SULAWESI TENGGARA,93793.0,Indonesia,82333331570.0,,,-5.7770909,123.9346956,https://maps.google.com/?cid=0x0:0x2842c8a4a96ff17a,
supermarket,Toko Alat Tulis Kantor,Abhan ATK  Pulsa Tomia,"Tomia, Kabupaten Wakatobi, Sulawesi Tenggara 93793",Kabupaten Wakatobi,SULAWESI TENGGARA,93793.0,Indonesia,82141402713.0,,,-5.7517159,123.9019634,https://maps.google.com/?cid=0x0:0xb1c4aaee9d828d26,
supermarket,Apotek,AFC TOMIA,"Lingk. Komunto No.44, Tongano Bar., Kec. Tomia Tim., Kabupaten Wakatobi, Sulawesi Tenggara 93793","Tongano Bar., Kec. Tomia Tim., Kabupaten Wakatobi",SULAWESI TENGGARA,93793.0,Indonesia,85241842339.0,,,-5.7760845,123.9350991,https://maps.google.com/?cid=0x0:0xb559650330cb179b,
supermarket,Toko Pakaian Bayi,Toko Athaya,"Dusun Lasapisa samping kanan SDN, Waiti, Tomia, Kabupaten Wakatobi, Sulawesi Tenggara 93793","Waiti, Tomia, Kabupaten Wakatobi",SULAWESI TENGGARA,93793.0,Indonesia,81255027131.0,,,-5.7533475,123.9047289,https://maps.google.com/?cid=0x0:0x9d8c73cd3d8ebc12,
supermarket,Toko bahan makanan,Toko Alif,"PGQC+WF4, Sombu, Wangi-Wangi Sel., Kabupaten Wakatobi, Sulawesi Tenggara 93793","Sombu, Wangi-Wangi Sel., Kabupaten Wakatobi",SULAWESI TENGGARA,93793.0,Indonesia,,,,-5.2602345,123.521206,https://maps.google.com/?cid=0x0:0x5b4fb6f683fb37b7,
supermarket,Toko Alat Tulis Kantor,KANSOFA ATK,"Tongano Timur, Kec. Tomia Tim., Kabupaten Wakatobi, Sulawesi Tenggara 93793","Kec. Tomia Tim., Kabupaten Wakatobi",SULAWESI TENGGARA,93793.0,Indonesia,82343141558.0,,,-5.7779955,123.9403108,https://maps.google.com/?cid=0x0:0xe6153de51d5c68f7,
supermarket,Toko Bahan Bangunan,Toko Reski,"Pasar Sentral Usuku, Kabupaten Wakatobi, Sulawesi Tenggara 93797",Kabupaten Wakatobi,SULAWESI TENGGARA,93797.0,Indonesia,81356112411.0,,,-5.7765688,123.9316543,https://maps.google.com/?cid=0x0:0xa85fa7dfb006a0b2,
supermarket,Toko Swalayan,Niya Mart,"Topa, Wanci, Kec. Wangi-Wangi, Kabupaten Wakatobi, Sulawesi Tenggara 93791","Wanci, Kec. Wangi-Wangi, Kabupaten Wakatobi",SULAWESI TENGGARA,93791.0,Indonesia,81211524361.0,,,-5.3220732,123.5362818,https://maps.google.com/?cid=0x0:0xfe6efe2e5d558ad0,
supermarket,Toko bahan makanan,EDHO MART,"Wanci, Lasumpa, Kabupaten Wakatobi, Sulawesi Tenggara 94791","Lasumpa, Kabupaten Wakatobi",SULAWESI TENGGARA,94791.0,Indonesia,82349960092.0,,,-5.3016464,123.5277821,https://maps.google.com/?cid=0x0:0x41365fdf5f7711a1,
supermarket,Toko Alat Tulis Kantor,PERCETAKAN UMALENO MULTIMEDIA TOMIA,"Desa Timu, Jalan Poros, Tomia, Kabupaten Wakatobi, Sulawesi Tenggara 93793","Jalan Poros, Tomia, Kabupaten Wakatobi",SULAWESI TENGGARA,93793.0,Indonesia,85156602131.0,,,-5.7784337,123.950806,https://maps.google.com/?cid=0x0:0xc99ad98bb20049a4,
supermarket,Toko Bahan Bangunan,UD CAHAYA LESTARI,"Tongano Tim., Kec. Tomia Tim., Kabupaten Wakatobi, Sulawesi Tenggara 93797","Kec. Tomia Tim., Kabupaten Wakatobi",SULAWESI TENGGARA,93797.0,Indonesia,85241547777.0,,,-5.7770065,123.9407703,https://maps.google.com/?cid=0x0:0xdd3f308320c8fa0c,
supermarket,Toko,Kios Toko NITA,"MG3V+7X3, South East, Mandati III, Kec. Wangi-Wangi, Kabupaten Wakatobi, Sulawesi Tenggara 93795","South East, Mandati III, Kec. Wangi-Wangi, Kabupaten Wakatobi",SULAWESI TENGGARA,93795.0,Indonesia,,,,-5.3468677,123.5449136,https://maps.google.com/?cid=0x0:0x1c30555d442e69ff,
supermarket,Toko bahan makanan,Dwi Cahaya Mart,"MGCR+VPG, Jl. Lebe Umara, Mandati II, Wangi-Wangi Sel., Kabupaten Wakatobi, Sulawesi Tenggara 93795","Jl. Lebe Umara, Mandati II, Wangi-Wangi Sel., Kabupaten Wakatobi",SULAWESI TENGGARA,93795.0,Indonesia,82159491346.0,,,-5.3278086,123.5418329,https://maps.google.com/?cid=0x0:0x8914e2f1a32b5451,
supermarket,Toko Bahan Bangunan,Toko AL - FAZZA USUKU,"6WFQ+FW2, Komplex Belakang SD Lawanata Kel. Tongano Timur Kec. Tomia Timur Kab. Wakatobi SUL-TRA, Bahari, Kec. Tomia Tim., Kabupaten Wakatobi, Sulawesi Tenggara 93753","Komplex Belakang SD Lawanata Kel. Tongano Timur Kec. Tomia Timur Kab. Wakatobi SUL-TRA, Bahari, Kec. Tomia Tim., Kabupaten Wakatobi",SULAWESI TENGGARA,93753.0,Indonesia,82132870143.0,,,-5.7763515,123.9397649,https://maps.google.com/?cid=0x0:0x4486cb62225a222e,
supermarket,Toko,TOKO CAHAYA PUTRA,"Likuumbua, Tongano Timur, Kec. Tomia Tim., Kabupaten Wakatobi, Sulawesi Tenggara 93797","Tongano Timur, Kec. Tomia Tim., Kabupaten Wakatobi",SULAWESI TENGGARA,93797.0,Indonesia,82290225645.0,,,-5.7780079,123.9399767,https://maps.google.com/?cid=0x0:0xc6087fd6b1310c90,
supermarket,Pusat Perbelanjaan,MayTulu,"Jl. Poros Dua Jalur, Wandoka, Kec. Wangi-Wangi, Kabupaten Wakatobi, Sulawesi Tenggara 93791","Wandoka, Kec. Wangi-Wangi, Kabupaten Wakatobi",SULAWESI TENGGARA,93791.0,Indonesia,82346078087.0,,,-5.2829299,123.5264764,https://maps.google.com/?cid=0x0:0x9d3014e61bfb9853,
supermarket,Toko bahan makanan,PAPPY ZOY,"Desa koroe onowa Samping SMP NEGERI 2, Kec. Wangi-Wangi, Kabupaten Wakatobi, Sulawesi Tenggara 93791","Kec. Wangi-Wangi, Kabupaten Wakatobi",SULAWESI TENGGARA,93791.0,Indonesia,85146000325.0,,,-5.2511475,123.5285582,https://maps.google.com/?cid=0x0:0xf147decce873adf6,
supermarket,Toko Swalayan,KIOS HENDRA,"Jl. Sultan Hasanudin, Wanci, Kec. Wangi-Wangi, Kabupaten Wakatobi, Sulawesi Tenggara 93791","Wanci, Kec. Wangi-Wangi, Kabupaten Wakatobi",SULAWESI TENGGARA,93791.0,Indonesia,81341513290.0,,,-5.3017643,123.5277615,https://maps.google.com/?cid=0x0:0x9e4504e9582fff82,
supermarket,Toko Swalayan,Bali Jaya Mart,"Jl. Poros Toliamba, Pongo, Kec. Wangi-Wangi, Kabupaten Wakatobi, Sulawesi Tenggara 93791","Pongo, Kec. Wangi-Wangi, Kabupaten Wakatobi",SULAWESI TENGGARA,93791.0,Indonesia,82296772526.0,,,-5.3146654,123.5370684,https://maps.google.com/?cid=0x0:0xa0ba6e5fc5741370,
supermarket,Pasar,Pasar Malam Wakatobi,"Jl. Jend. Ahmad Yani No.140, Kabupaten Wakatobi, Sulawesi Tenggara 93791",Kabupaten Wakatobi,SULAWESI TENGGARA,93791.0,Indonesia,,,,-5.3214767,123.5326093,https://maps.google.com/?cid=0x0:0x6da61c883737666d,
supermarket,Toko Swalayan,Kios Aida,"QH3H+6RM, Jl. Ir. Soekarno, Patuno, Kabupaten Wakatobi, Sulawesi Tenggara 93791","Jl. Ir. Soekarno, Patuno, Kabupaten Wakatobi",SULAWESI TENGGARA,93791.0,Indonesia,82291235781.0,,,-5.24691,123.579536,https://maps.google.com/?cid=0x0:0x15a94d32e184aafb,
supermarket,supermarket,Toko Naflah.. menjual sayuran dan buah,"Bahari, Kec. Tomia Tim., Kabupaten Wakatobi, Sulawesi Tenggara","Kabupaten Wakatobi, Sulawesi Tenggara",SULAWESI TENGGARA,,Indonesia,85241916221.0,,,-5.7780704,123.9383833,https://maps.google.com/?cid=0x0:0x37192dc98babc426,
supermarket,supermarket,Sulawesi Tenggara 93791,"Kec. Wangi-Wangi, Kabupaten Wakatobi, Sulawesi Tenggara","Kabupaten Wakatobi, Sulawesi Tenggara",SULAWESI TENGGARA,,Indonesia,,,,-5.3004341,123.5839983,https://maps.google.com/?cid=0x0:0x192a8c22fe0c5035,
supermarket,Toko bahan makanan,Tweety Mart 2,"South East, Mandati II, Wangi-Wangi Sel., Kabupaten Wakatobi, Sulawesi Tenggara 93795","Mandati II, Wangi-Wangi Sel., Kabupaten Wakatobi",SULAWESI TENGGARA,93795.0,Indonesia,,,,-5.3296611,123.5381788,https://maps.google.com/?cid=0x0:0x265d6d147287e812,
supermarket,Toko,Milni Mart Wakatobi,"MGJM+6CF, Pongo, Wangi-Wangi Sel., Kabupaten Wakatobi, Sulawesi Tenggara 93791","Pongo, Wangi-Wangi Sel., Kabupaten Wakatobi",SULAWESI TENGGARA,93791.0,Indonesia,82293132207.0,,,-5.319448,123.5335558,https://maps.google.com/?cid=0x0:0x7d323f13e646573b,
supermarket,Toko Swalayan,Bali Jaya Mart,"Jl. Poros Toliamba, Pongo, Kec. Wangi-Wangi, Kabupaten Wakatobi, Sulawesi Tenggara 93791","Pongo, Kec. Wangi-Wangi, Kabupaten Wakatobi",SULAWESI TENGGARA,93791.0,Indonesia,82296772526.0,,,-5.3146654,123.5370684,https://maps.google.com/?cid=0x0:0xa0ba6e5fc5741370,
supermarket,Pasar,Pasar Sentral Wangi-Wangi,"MG5Q+GXR, Kabupaten Wakatobi, Sulawesi Tenggara 93795",Kabupaten Wakatobi,SULAWESI TENGGARA,93795.0,Indonesia,85340084568.0,,,-5.3411354,123.5398838,https://maps.google.com/?cid=0x0:0xe3c8d2958be06bdc,
supermarket,Toko bahan makanan,Dwi Cahaya Mart,"MGCR+VPG, Jl. Lebe Umara, Mandati II, Wangi-Wangi Sel., Kabupaten Wakatobi, Sulawesi Tenggara 93795","Jl. Lebe Umara, Mandati II, Wangi-Wangi Sel., Kabupaten Wakatobi",SULAWESI TENGGARA,93795.0,Indonesia,82159491346.0,,,-5.3278086,123.5418329,https://maps.google.com/?cid=0x0:0x8914e2f1a32b5451,
supermarket,Toko Swalayan,Niya Mart,"Topa, Wanci, Kec. Wangi-Wangi, Kabupaten Wakatobi, Sulawesi Tenggara 93791","Wanci, Kec. Wangi-Wangi, Kabupaten Wakatobi",SULAWESI TENGGARA,93791.0,Indonesia,81211524361.0,,,-5.3220732,123.5362818,https://maps.google.com/?cid=0x0:0xfe6efe2e5d558ad0,
supermarket,Pasar,Pasar Malam Wakatobi,"Jl. Jend. Ahmad Yani No.140, Kabupaten Wakatobi, Sulawesi Tenggara 93791",Kabupaten Wakatobi,SULAWESI TENGGARA,93791.0,Indonesia,,,,-5.3214767,123.5326093,https://maps.google.com/?cid=0x0:0x6da61c883737666d,
supermarket,Toko Swalayan,KIOS HENDRA,"Jl. Sultan Hasanudin, Wanci, Kec. Wangi-Wangi, Kabupaten Wakatobi, Sulawesi Tenggara 93791","Wanci, Kec. Wangi-Wangi, Kabupaten Wakatobi",SULAWESI TENGGARA,93791.0,Indonesia,81341513290.0,,,-5.3017643,123.5277615,https://maps.google.com/?cid=0x0:0x9e4504e9582fff82,
supermarket,Toko bahan makanan,Toko Alif,"PGQC+WF4, Sombu, Wangi-Wangi Sel., Kabupaten Wakatobi, Sulawesi Tenggara 93793","Sombu, Wangi-Wangi Sel., Kabupaten Wakatobi",SULAWESI TENGGARA,93793.0,Indonesia,,,,-5.2602345,123.521206,https://maps.google.com/?cid=0x0:0x5b4fb6f683fb37b7,
supermarket,Minimarket,Toko Pelangi,"Jl. Sultan Hasanudin, Lingk. Woua, Selatan, Wandoka, Kec. Wangi-Wangi, Kabupaten Wakatobi, Sulawesi Tenggara 93791","Lingk. Woua, Selatan, Wandoka, Kec. Wangi-Wangi, Kabupaten Wakatobi",SULAWESI TENGGARA,93791.0,Indonesia,,,,-5.3115049,123.5292067,https://maps.google.com/?cid=0x0:0xa34f838166ab03da,
supermarket,Toko Swalayan,Bintang Bir,"Jl. Lebe Umara bente No.142, Pongo, Kec. Wangi-Wangi, Kabupaten Wakatobi, Sulawesi Tenggara 93791","Pongo, Kec. Wangi-Wangi, Kabupaten Wakatobi",SULAWESI TENGGARA,93791.0,Indonesia,,,,-5.3248224,123.5393976,https://maps.google.com/?cid=0x0:0x2a6370dcf71e8b51,
supermarket,Toko bahan makanan,"Toko Okyndo, Jl. Waopu Jenggo No. 34","Mandati II, Kec. Wangi-Wangi, Kabupaten Wakatobi, Sulawesi Tenggara 93795","Kec. Wangi-Wangi, Kabupaten Wakatobi",SULAWESI TENGGARA,93795.0,Indonesia,85298322883.0,,,-5.3301723,123.5393099,https://maps.google.com/?cid=0x0:0xb0d650959fc49450,
supermarket,Toko Ponsel,Ashar Mobile 2,"MGGP+J8V, Jalan Saranani, Sutra, Wangi-Wangi, Pongo, Kec. Wangi-Wangi, Kabupaten Wakatobi, Sulawesi Tenggara 93791","Jalan Saranani, Sutra, Wangi-Wangi, Pongo, Kec. Wangi-Wangi, Kabupaten Wakatobi",SULAWESI TENGGARA,93791.0,Indonesia,82192288998.0,,,-5.3233986,123.5357904,https://maps.google.com/?cid=0x0:0x363186d965cd7392,
supermarket,Pusat Perbelanjaan,MayTulu,"Jl. Poros Dua Jalur, Wandoka, Kec. Wangi-Wangi, Kabupaten Wakatobi, Sulawesi Tenggara 93791","Wandoka, Kec. Wangi-Wangi, Kabupaten Wakatobi",SULAWESI TENGGARA,93791.0,Indonesia,82346078087.0,,,-5.2829299,123.5264764,https://maps.google.com/?cid=0x0:0x9d3014e61bfb9853,
supermarket,Toko,Kios Toko NITA,"MG3V+7X3, South East, Mandati III, Kec. Wangi-Wangi, Kabupaten Wakatobi, Sulawesi Tenggara 93795","South East, Mandati III, Kec. Wangi-Wangi, Kabupaten Wakatobi",SULAWESI TENGGARA,93795.0,Indonesia,,,,-5.3468677,123.5449136,https://maps.google.com/?cid=0x0:0x1c30555d442e69ff,
supermarket,supermarket,Momoyo Wakatobi,"Jl. Jend. Ahmad Yani, Pongo, Wangi-Wangi Sel., Kabupaten Wakatobi, Sulawesi Tenggara 93791","Pongo, Wangi-Wangi Sel., Kabupaten Wakatobi",SULAWESI TENGGARA,93791.0,Indonesia,82211699425.0,,,-5.3238185,123.5358928,https://maps.google.com/?cid=0x0:0x27e57f316917c44f,
supermarket,Toko makanan beku,Az-Zahra Waelumu,"Waelumu, Kec. Wangi-Wangi, Kabupaten Wakatobi, Sulawesi Tenggara 93791","Kec. Wangi-Wangi, Kabupaten Wakatobi",SULAWESI TENGGARA,93791.0,Indonesia,85392209431.0,,,-5.2514805,123.5580065,https://maps.google.com/?cid=0x0:0xfe8ff885a7a8ae23,
supermarket,Toko Ponsel,Ashar Mobile I,"MGFQ+3F4, jln waopu lesaa, Mandati II, Wangi-Wangi Sel., Kabupaten Wakatobi, Sulawesi Tenggara 93795","jln waopu lesaa, Mandati II, Wangi-Wangi Sel., Kabupaten Wakatobi",SULAWESI TENGGARA,93795.0,Indonesia,,,,-5.3273695,123.5386929,https://maps.google.com/?cid=0x0:0x994a3c6817d6548e,
supermarket,Supermarket Diskon,SULTAN JAYA,"Jl. Samburaka No.topa 2, Pongo, Kec. Wangi-Wangi, Kabupaten Wakatobi, Sulawesi Tenggara 93791","Pongo, Kec. Wangi-Wangi, Kabupaten Wakatobi",SULAWESI TENGGARA,93791.0,Indonesia,82272766376.0,,,-5.3238969,123.5375638,https://maps.google.com/?cid=0x0:0xe56de44767d54d3e,
supermarket,Kerajinan,Wowine Wakatobi Kreatif (W2K),"Jl. Samburaka No.30, Mandati II, Wangi-Wangi Sel., Kabupaten Wakatobi, Sulawesi Tenggara 93791","Mandati II, Wangi-Wangi Sel., Kabupaten Wakatobi",SULAWESI TENGGARA,93791.0,Indonesia,82292677024.0,,,-5.3258657,123.5374752,https://maps.google.com/?cid=0x0:0xd57a882bfaf749a8,
supermarket,Pusat Perbelanjaan,Depot Amira RO lesaa,"Jalan kabanthi, Pongo, Kec. Wangi-Wangi, Kabupaten Wakatobi, Sulawesi Tenggara 93791","Pongo, Kec. Wangi-Wangi, Kabupaten Wakatobi",SULAWESI TENGGARA,93791.0,Indonesia,82211295106.0,,,-5.3256688,123.5387227,https://maps.google.com/?cid=0x0:0xccab091e15d14acc,
supermarket,Toko Bahan Bangunan,UD Astuti,"MGPJ+V44, Wanci, Wangi-Wangi Sel., Kabupaten Wakatobi, Sulawesi Tenggara 93791","Wanci, Wangi-Wangi Sel., Kabupaten Wakatobi",SULAWESI TENGGARA,93791.0,Indonesia,,,,-5.3128685,123.5303395,https://maps.google.com/?cid=0x0:0xec3c9af9e2b100e2,
supermarket,Toko Aksesori Ponsel,Loket Ardin Cell,"Dusun Kali Jln. Jendral A.H.Nasution No.43, Sombu, Kec. Wangi-Wangi, Kabupaten Wakatobi, Sulawesi Tenggara 93791","Sombu, Kec. Wangi-Wangi, Kabupaten Wakatobi",SULAWESI TENGGARA,93791.0,Indonesia,8135485769.0,,,-5.2754792,123.5225471,https://maps.google.com/?cid=0x0:0x8f1342ff109fd32,
supermarket,Toko bahan makanan,Winalu,"Induk, Wandoka, Kec. Wangi-Wangi, Kabupaten Wakatobi, Sulawesi Tenggara 93791","Wandoka, Kec. Wangi-Wangi, Kabupaten Wakatobi",SULAWESI TENGGARA,93791.0,Indonesia,81343867026.0,,,-5.296576,123.528288,https://maps.google.com/?cid=0x0:0x39b5c085ed0b1d11,
supermarket,Toko bahan makanan,Tweety Mart 2,"South East, Mandati II, Wangi-Wangi Sel., Kabupaten Wakatobi, Sulawesi Tenggara 93795","Mandati II, Wangi-Wangi Sel., Kabupaten Wakatobi",SULAWESI TENGGARA,93795.0,Indonesia,,,,-5.3296611,123.5381788,https://maps.google.com/?cid=0x0:0x265d6d147287e812,
supermarket,Toko,Milni Mart Wakatobi,"MGJM+6CF, Pongo, Wangi-Wangi Sel., Kabupaten Wakatobi, Sulawesi Tenggara 93791","Pongo, Wangi-Wangi Sel., Kabupaten Wakatobi",SULAWESI TENGGARA,93791.0,Indonesia,82293132207.0,,,-5.319448,123.5335558,https://maps.google.com/?cid=0x0:0x7d323f13e646573b,
supermarket,supermarket,Sulawesi Tenggara 93795,"Wangi-Wangi Sel., Kabupaten Wakatobi, Sulawesi Tenggara","Kabupaten Wakatobi, Sulawesi Tenggara",SULAWESI TENGGARA,,Indonesia,,,,-5.3538433,123.5839983,https://maps.google.com/?cid=0x0:0x7b5ce73bddb1ea5d,
supermarket,Toko,Kios Toko NITA,"MG3V+7X3, South East, Mandati III, Kec. Wangi-Wangi, Kabupaten Wakatobi, Sulawesi Tenggara 93795","South East, Mandati III, Kec. Wangi-Wangi, Kabupaten Wakatobi",SULAWESI TENGGARA,93795.0,Indonesia,,,,-5.3468677,123.5449136,https://maps.google.com/?cid=0x0:0x1c30555d442e69ff,
supermarket,Toko bahan makanan,Toko FADILAH,"Mandati II, Kec. Wangi-Wangi, Kabupaten Wakatobi, Sulawesi Tenggara 93795","Kec. Wangi-Wangi, Kabupaten Wakatobi",SULAWESI TENGGARA,93795.0,Indonesia,82193008688.0,,,-5.331384,123.542109,https://maps.google.com/?cid=0x0:0xb12070e3e9323aa5,
supermarket,Toko bahan makanan,Dwi Cahaya Mart,"MGCR+VPG, Jl. Lebe Umara, Mandati II, Wangi-Wangi Sel., Kabupaten Wakatobi, Sulawesi Tenggara 93795","Jl. Lebe Umara, Mandati II, Wangi-Wangi Sel., Kabupaten Wakatobi",SULAWESI TENGGARA,93795.0,Indonesia,82159491346.0,,,-5.3278086,123.5418329,https://maps.google.com/?cid=0x0:0x8914e2f1a32b5451,
supermarket,Toko bahan makanan,Suyanff produk,"JHW3+3VC, Numana, Wangi-Wangi Sel., Kabupaten Wakatobi, Sulawesi Tenggara 93795","Numana, Wangi-Wangi Sel., Kabupaten Wakatobi",SULAWESI TENGGARA,93795.0,Indonesia,82196508326.0,,,-5.3548042,123.5546263,https://maps.google.com/?cid=0x0:0xf4445f5173fba656,
supermarket,Toko Swalayan,Bali Jaya Mart,"Jl. Poros Toliamba, Pongo, Kec. Wangi-Wangi, Kabupaten Wakatobi, Sulawesi Tenggara 93791","Pongo, Kec. Wangi-Wangi, Kabupaten Wakatobi",SULAWESI TENGGARA,93791.0,Indonesia,82296772526.0,,,-5.3146654,123.5370684,https://maps.google.com/?cid=0x0:0xa0ba6e5fc5741370,
supermarket,Toko Ponsel,Ashar Mobile I,"MGFQ+3F4, jln waopu lesaa, Mandati II, Wangi-Wangi Sel., Kabupaten Wakatobi, Sulawesi Tenggara 93795","jln waopu lesaa, Mandati II, Wangi-Wangi Sel., Kabupaten Wakatobi",SULAWESI TENGGARA,93795.0,Indonesia,,,,-5.3273695,123.5386929,https://maps.google.com/?cid=0x0:0x994a3c6817d6548e,
supermarket,Toko bahan makanan,"Toko Okyndo, Jl. Waopu Jenggo No. 34","Mandati II, Kec. Wangi-Wangi, Kabupaten Wakatobi, Sulawesi Tenggara 93795","Kec. Wangi-Wangi, Kabupaten Wakatobi",SULAWESI TENGGARA,93795.0,Indonesia,85298322883.0,,,-5.3301723,123.5393099,https://maps.google.com/?cid=0x0:0xb0d650959fc49450,
supermarket,Toko Swalayan,Niya Mart,"Topa, Wanci, Kec. Wangi-Wangi, Kabupaten Wakatobi, Sulawesi Tenggara 93791","Wanci, Kec. Wangi-Wangi, Kabupaten Wakatobi",SULAWESI TENGGARA,93791.0,Indonesia,81211524361.0,,,-5.3220732,123.5362818,https://maps.google.com/?cid=0x0:0xfe6efe2e5d558ad0,
supermarket,Toko Herbal,Ros27 Olshop,"Lingkungan mowuta kelurahan mandati 2 KAB. WAKATOBI, Wangi-Wangi Sel., Sulawesi Tenggara 93795",Wangi-Wangi Sel.,SULAWESI TENGGARA,93795.0,Indonesia,82291725445.0,,,-5.3319841,123.5420565,https://maps.google.com/?cid=0x0:0xdce421c44af2f762,
supermarket,Toko Elektronik,Toko Zaldi,"MG3V+8JV, Mandati III, Kec. Wangi-Wangi, Kabupaten Wakatobi, Sulawesi Tenggara 93795","Mandati III, Kec. Wangi-Wangi, Kabupaten Wakatobi",SULAWESI TENGGARA,93795.0,Indonesia,,,,-5.3466478,123.5440402,https://maps.google.com/?cid=0x0:0x6c5ae22d418023c4,
supermarket,Toko Swalayan,Bintang Bir,"Jl. Lebe Umara bente No.142, Pongo, Kec. Wangi-Wangi, Kabupaten Wakatobi, Sulawesi Tenggara 93791","Pongo, Kec. Wangi-Wangi, Kabupaten Wakatobi",SULAWESI TENGGARA,93791.0,Indonesia,,,,-5.3248224,123.5393976,https://maps.google.com/?cid=0x0:0x2a6370dcf71e8b51,
supermarket,Toko Ponsel,Ashar Mobile 2,"MGGP+J8V, Jalan Saranani, Sutra, Wangi-Wangi, Pongo, Kec. Wangi-Wangi, Kabupaten Wakatobi, Sulawesi Tenggara 93791","Jalan Saranani, Sutra, Wangi-Wangi, Pongo, Kec. Wangi-Wangi, Kabupaten Wakatobi",SULAWESI TENGGARA,93791.0,Indonesia,82192288998.0,,,-5.3233986,123.5357904,https://maps.google.com/?cid=0x0:0x363186d965cd7392,
supermarket,Toko Suvenir,Wakatobi Onshop,"Pasar sentral, deretan pegadaian, Mandati I, Wangi-Wangi Sel., Kabupaten Wakatobi, Sulawesi Tenggara 93795","deretan pegadaian, Mandati I, Wangi-Wangi Sel., Kabupaten Wakatobi",SULAWESI TENGGARA,93795.0,Indonesia,82299655971.0,,,-5.3400037,123.5398604,https://maps.google.com/?cid=0x0:0xa0654c3e0edb13a8,
supermarket,Toko Swalayan,Toko Fani,"MF7W+2GF, Kapota Utara, Kec. Wangi-Wangi, Kabupaten Wakatobi, Sulawesi Tenggara 93795","Kapota Utara, Kec. Wangi-Wangi, Kabupaten Wakatobi",SULAWESI TENGGARA,93795.0,Indonesia,,,,-5.3374373,123.4962939,https://maps.google.com/?cid=0x0:0x94a36daa1b38a0db,
supermarket,Pusat Perbelanjaan,Toko Osaka/Timur Raya,"Jl. Jend. Ahmad Yani No.65, Mandati I, Wangi-Wangi Sel., Kabupaten Wakatobi, Sulawesi Tenggara 93795","Mandati I, Wangi-Wangi Sel., Kabupaten Wakatobi",SULAWESI TENGGARA,93795.0,Indonesia,85241834534.0,,,-5.3332532,123.5386791,https://maps.google.com/?cid=0x0:0xbf69feaacebb9b7b,
supermarket,Grosir,Kios Saputra,"Lingk. Topa 1, Wanci, Kec. Wangi-Wangi, Kabupaten Wakatobi, Sulawesi Tenggara 75331","Wanci, Kec. Wangi-Wangi, Kabupaten Wakatobi",SULAWESI TENGGARA,75331.0,Indonesia,85340906914.0,,,-5.3221265,123.5374246,https://maps.google.com/?cid=0x0:0xa8ae762aa0bc043b,
supermarket,Minimarket,Toko Pelangi,"Jl. Sultan Hasanudin, Lingk. Woua, Selatan, Wandoka, Kec. Wangi-Wangi, Kabupaten Wakatobi, Sulawesi Tenggara 93791","Lingk. Woua, Selatan, Wandoka, Kec. Wangi-Wangi, Kabupaten Wakatobi",SULAWESI TENGGARA,93791.0,Indonesia,,,,-5.3115049,123.5292067,https://maps.google.com/?cid=0x0:0xa34f838166ab03da,
supermarket,Toko Suvenir,Anemo Wakatobi Souvenir,"Jl. Poros Liya No.93, Mandati III, Wangi-Wangi Sel., Kabupaten Wakatobi, Sulawesi Tenggara 93795","Mandati III, Wangi-Wangi Sel., Kabupaten Wakatobi",SULAWESI TENGGARA,93795.0,Indonesia,82290361497.0,,,-5.3422324,123.5407311,https://maps.google.com/?cid=0x0:0x1773415584667c52,
supermarket,Toko Suvenir,SANAMISI WAKATOBI SOUVENIR,"Mandati II, Wangi-Wangi Sel., Sulawesi Tenggara 93795",Wangi-Wangi Sel.,SULAWESI TENGGARA,93795.0,Indonesia,81354277853.0,,,-5.3300812,123.5380381,https://maps.google.com/?cid=0x0:0xb9f3b9e8012933d3,
supermarket,Toko Aksesori Ponsel,Haddad cell,"Pulau Wangiwangi, Sulawesi Tenggara, Kabupaten Wakatobi, Sulawesi Tenggara 93795","Sulawesi Tenggara, Kabupaten Wakatobi",SULAWESI TENGGARA,93795.0,Indonesia,,,,-5.3266995,123.5367897,https://maps.google.com/?cid=0x0:0x8284577684936b64,
supermarket,Pusat Perbelanjaan,STOCKIST K-LINK WANCI,"MGGR+3H7, Mandati II, Kec. Wangi-Wangi, Kabupaten Wakatobi, Sulawesi Tenggara 93795","Mandati II, Kec. Wangi-Wangi, Kabupaten Wakatobi",SULAWESI TENGGARA,93795.0,Indonesia,82191710720.0,,,-5.3248332,123.5414287,https://maps.google.com/?cid=0x0:0xcda3bffda6cf479c,
