Category,Real Category,Business Name,Address,City,State,Postal Code,Country,Phone,Email,Website,Latitude,Longitude,Map Link,Details Link
hotel,hotel,Ladongi,"Ladongi, Kec. Ladongi, Kabupaten Kolaka Timur, Sulawesi Tenggara","Kabupaten Kolaka Timur, Sulawesi Tenggara",SULAWESI TENGGARA,,Indonesia,,,,-4.142409,121.901901,https://maps.google.com/?cid=0x0:0xf976c8583833e88d,
hotel,hotel,Hotel Bendungan,"Jl. Bendungan Balandete, Balandete, Kec. Kolaka, Kabupaten Kolaka, Sulawesi Tenggara 93561","Balandete, Kec. Kolaka, Kabupaten Kolaka",SULAWESI TENGGARA,93561.0,Indonesia, 08114133169,,,-4.0724719,121.6346657,https://maps.google.com/?cid=0x0:0xdfc73888c41f5e31,
hotel,hotel,Penginapan Inesti,"XV4V+5JJ, Jl. Veteran, Rate-Rate, Kec. Tirawuta, Kabupaten Kolaka Timur, Sulawesi Tenggara 93572","Jl. Veteran, Rate-Rate, Kec. Tirawuta, Kabupaten Kolaka Timur",SULAWESI TENGGARA,93572.0,Indonesia, 085394647975,,,-4.0445358,121.8940175,https://maps.google.com/?cid=0x0:0xc1e2cb10e6dd856f,
hotel,hotel,Hotel Mulia Kendari,"Jl. Saranani No.95, Korumba, Kec. Mandonga, Kota Kendari, Sulawesi Tenggara 93461","Korumba, Kec. Mandonga, Kota Kendari",SULAWESI TENGGARA,93461.0,Indonesia, 0895417300072,,,-3.97062,122.5201697,https://maps.google.com/?cid=0x0:0x969a857d0b649ea9,
hotel,hotel,Sutan Raja Hotel Kolaka,"Jl. Khairil Anwar No.1, Lamokato, Kec. Kolaka, Kabupaten Kolaka, Sulawesi Tenggara 93514","Lamokato, Kec. Kolaka, Kabupaten Kolaka",SULAWESI TENGGARA,93514.0,Indonesia, 04052321185,,,-4.0629644,121.5995178,https://maps.google.com/?cid=0x0:0x83c5eaa47ae91f4,
hotel,hotel,,,,SULAWESI TENGGARA,,Indonesia,,,,,,https://maps.google.com/?cid=0x0:0x83c5eaa47ae91f4%7C/g/11bwym81s6%7Cen-ID,
hotel,hotel,Hotel Rumah Adat Mekongga Indah,"Jl. Dermaga Pelabuhan Ferry, Kec. Latambaga, Kabupaten Kolaka, Sulawesi Tenggara","Kabupaten Kolaka, Sulawesi Tenggara",SULAWESI TENGGARA,,Indonesia, 083838852223,,,-4.0608838,121.591963,https://maps.google.com/?cid=0x0:0x5f9e863727dd048e,
hotel,hotel,Hotel Cempaka,"Jl. Bunga Tj. No.101, Watu-Watu, Kec. Kendari Bar., Kota Kendari, Sulawesi Tenggara 93873","Watu-Watu, Kec. Kendari Bar., Kota Kendari",SULAWESI TENGGARA,93873.0,Indonesia,,,,-3.9642101,122.542674,https://maps.google.com/?cid=0x0:0xca7fe20f7976380c,
hotel,hotel,VENUS INN,"Jl. Repelita No.1, Lamokato, Kec. Latambaga, Kabupaten Kolaka, Sulawesi Tenggara 93511","Lamokato, Kec. Latambaga, Kabupaten Kolaka",SULAWESI TENGGARA,93511.0,Indonesia,,,,-4.0526574,121.5930985,https://maps.google.com/?cid=0x0:0xed261c904fe47bec,
hotel,hotel,Kec. Lalolae,"Kabupaten Kolaka Timur, Sulawesi Tenggara","Kabupaten Kolaka Timur, Sulawesi Tenggara",SULAWESI TENGGARA,,Indonesia,,,,-4.0256541,121.7842582,https://maps.google.com/?cid=0x0:0x16745ece4e90ef2b,
hotel,hotel,Sutan Raja Hotel Kolaka,"Jl. Khairil Anwar No.1, Lamokato, Kec. Kolaka, Kabupaten Kolaka, Sulawesi Tenggara 93514","Lamokato, Kec. Kolaka, Kabupaten Kolaka",SULAWESI TENGGARA,93514.0,Indonesia, 04052321185,,,-4.0629644,121.5995178,https://maps.google.com/?cid=0x0:0x83c5eaa47ae91f4,
hotel,hotel,,,,SULAWESI TENGGARA,,Indonesia,,,,,,https://maps.google.com/?cid=0x0:0x83c5eaa47ae91f4%7C/g/11bwym81s6%7Cen-ID,
hotel,hotel,,,,SULAWESI TENGGARA,,Indonesia,,,,,,https://maps.google.com/?cid=0x0:0x2b4900e86f3383af%7C/g/11b6d58_yz%7Cen-ID,
hotel,hotel,Hotel Bendungan,"Jl. Bendungan Balandete, Balandete, Kec. Kolaka, Kabupaten Kolaka, Sulawesi Tenggara 93561","Balandete, Kec. Kolaka, Kabupaten Kolaka",SULAWESI TENGGARA,93561.0,Indonesia, 08114133169,,,-4.0724719,121.6346657,https://maps.google.com/?cid=0x0:0xdfc73888c41f5e31,
hotel,hotel,Penginapan Inesti,"XV4V+5JJ, Jl. Veteran, Rate-Rate, Kec. Tirawuta, Kabupaten Kolaka Timur, Sulawesi Tenggara 93572","Jl. Veteran, Rate-Rate, Kec. Tirawuta, Kabupaten Kolaka Timur",SULAWESI TENGGARA,93572.0,Indonesia, 085394647975,,,-4.0445358,121.8940175,https://maps.google.com/?cid=0x0:0xc1e2cb10e6dd856f,
hotel,hotel,Xpress Hotel,"Jl. Pemuda No.km 3 no, 240, Balandete, Kolaka, Kolaka Regency, South East Sulawesi 93561","240, Balandete, Kolaka, Kolaka Regency",SULAWESI TENGGARA,93561.0,Indonesia, 04052325088,,,-4.0699954,121.6230627,https://maps.google.com/?cid=0x0:0xa31d18c233c53155,
hotel,hotel,Hotel Baruga Mas (Syariah),"Jalan Protokol Pomalaa - Kolaka Desa Pelambua, Kec. Pomalaa, Kab. Kolaka Sulawesi Tenggara Kolaka, Pelambua, Kec. Pomalaa, Sulawesi Tenggara, 93562","Kec. Pomalaa, Kab. Kolaka Sulawesi Tenggara Kolaka, Pelambua, Kec. Pomalaa",SULAWESI TENGGARA,93562.0,Indonesia, 08114004814,,,-4.1771404,121.6221697,https://maps.google.com/?cid=0x0:0x13ec3dcf5dca37ef,
hotel,hotel,Hotel Rumah Adat Mekongga Indah,"Jl. Dermaga Pelabuhan Ferry, Kec. Latambaga, Kabupaten Kolaka, Sulawesi Tenggara","Kabupaten Kolaka, Sulawesi Tenggara",SULAWESI TENGGARA,,Indonesia, 083838852223,,,-4.0608838,121.591963,https://maps.google.com/?cid=0x0:0x5f9e863727dd048e,
hotel,hotel,Wisma Hotel 88 Kolaka,"WJJC+26R, Tahoa,Kolaka, Kabupaten Kolaka, Sulawesi Tenggara, Indonesia, Tahoa, Kec. Kolaka, Kaupaten Kolaka, Sulawesi Tenggara 93517","Tahoa,Kolaka, Kabupaten Kolaka, Sulawesi Tenggara, Indonesia, Tahoa, Kec. Kolaka, Kaupaten Kolaka",SULAWESI TENGGARA,93517.0,Indonesia, 082293778990,,,-4.069893,121.620526,https://maps.google.com/?cid=0x0:0x87239e1677a7bdf3,
hotel,hotel,VENUS INN,"Jl. Repelita No.1, Lamokato, Kec. Latambaga, Kabupaten Kolaka, Sulawesi Tenggara 93511","Lamokato, Kec. Latambaga, Kabupaten Kolaka",SULAWESI TENGGARA,93511.0,Indonesia,,,,-4.0526574,121.5930985,https://maps.google.com/?cid=0x0:0xed261c904fe47bec,
hotel,hotel,My Hotel Syariah,"Jl. Mekongga Indah, Kec. Kolaka, Kabupaten Kolaka, Sulawesi Tenggara 93561","Kec. Kolaka, Kabupaten Kolaka",SULAWESI TENGGARA,93561.0,Indonesia, 082196335999,,,-4.063224,121.6078085,https://maps.google.com/?cid=0x0:0xa929b6c5c4644f7,
hotel,hotel,Wisma Merpati 2,"WJV3+FF8, Jl. Usman Rencong, Lamokato, Kec. Kolaka, Kabupaten Kolaka, Sulawesi Tenggara 93561","Jl. Usman Rencong, Lamokato, Kec. Kolaka, Kabupaten Kolaka",SULAWESI TENGGARA,93561.0,Indonesia,,,,-4.0563479,121.6037059,https://maps.google.com/?cid=0x0:0xa84723b70f0801be,
hotel,hotel,Byeropa Resort and cafe,"Jl. Tapak Kuda No.21, Korumba, Kec. Mandonga, Kota Kendari, Sulawesi Tenggara 93231","Korumba, Kec. Mandonga, Kota Kendari",SULAWESI TENGGARA,93231.0,Indonesia,,,,-3.9768026,122.5289414,https://maps.google.com/?cid=0x0:0xde9ad19bba6fd440,
hotel,hotel,Atomy Hotel,"Anduonohu, Kec. Poasia, Kota Kendari, Sulawesi Tenggara 93231","Kec. Poasia, Kota Kendari",SULAWESI TENGGARA,93231.0,Indonesia, 0895417300072,,,-3.9972956,122.5410018,https://maps.google.com/?cid=0x0:0x8f99eb7937916251,
hotel,hotel,Radja Homestay,"Jl. H. Supu Yusuf, Korumba, Kec. Mandonga, Kota Kendari, Sulawesi Tenggara 93461","Korumba, Kec. Mandonga, Kota Kendari",SULAWESI TENGGARA,93461.0,Indonesia, 0895417300072,,,-3.9751003,122.5217986,https://maps.google.com/?cid=0x0:0x83fa93869dedb6bb,
hotel,hotel,Liras Hotel Syariah,"Jl. Bunggasi No.19, Anduonohu, Kec. Poasia, Kota Kendari, Sulawesi Tenggara 93231","Anduonohu, Kec. Poasia, Kota Kendari",SULAWESI TENGGARA,93231.0,Indonesia, 082128973735,,,-4.0006459,122.5400904,https://maps.google.com/?cid=0x0:0xd94d318730514ad6,
hotel,hotel,Grand Putri Wisata,"Jl. Jenderal M.t. Haryono, Wowawanggu, Kec. Kadia, Kota Kendari, Sulawesi Tenggara 93117","Wowawanggu, Kec. Kadia, Kota Kendari",SULAWESI TENGGARA,93117.0,Indonesia,,,,-3.9915611,122.5096717,https://maps.google.com/?cid=0x0:0x631a39e3eab659b0,
hotel,hotel,PENGINAPAN 77,"Jl. Singa No.77, Rahandouna, Kec. Poasia, Kota Kendari, Sulawesi Tenggara 93231","Rahandouna, Kec. Poasia, Kota Kendari",SULAWESI TENGGARA,93231.0,Indonesia, 085299948645,,,-3.9990978,122.5529016,https://maps.google.com/?cid=0x0:0x8bfc347c5e06532a,
hotel,hotel,Hotel Delta In,"Jl. H. Supu Yusuf, Korumba, Kec. Mandonga, Kota Kendari, Sulawesi Tenggara 93461","Korumba, Kec. Mandonga, Kota Kendari",SULAWESI TENGGARA,93461.0,Indonesia, 02180629666,,,-3.9687467,122.5245175,https://maps.google.com/?cid=0x0:0xe22ffe178b27ca60,
hotel,hotel,VENUS INN,"Jl. Bunga Seroja No.5, Lahundape, Kec. Kendari Bar., Kota Kendari, Sulawesi Tenggara 93121","Lahundape, Kec. Kendari Bar., Kota Kendari",SULAWESI TENGGARA,93121.0,Indonesia, 04013850008,,,-3.9665695,122.5255397,https://maps.google.com/?cid=0x0:0xe1a60b9f8d04cf81,
hotel,Masjid,Masjid Al-Alam,"Masjid Al Alam, Jalan, Lalolara, Kambu, Kendari City, South East Sulawesi","Kota Kendari, Sulawesi Tenggara",SULAWESI TENGGARA,,Indonesia,,,,-3.978002,122.5445442,https://maps.google.com/?cid=0x0:0x3452c218c3d0df41,
hotel,Kantor Perusahaan,PT. Bintang Sembilan Energy,"2G3R+4FR, Jl. Kedondong, Anduonohu, Kec. Poasia, Kota Kendari, Sulawesi Tenggara 93231","Jl. Kedondong, Anduonohu, Kec. Poasia, Kota Kendari",SULAWESI TENGGARA,93231.0,Indonesia, 082193577999,,,-3.9971562,122.5411644,https://maps.google.com/?cid=0x0:0x33fd46c8ec0595a,
hotel,hotel,Lambandia,"Kec. Lambandia, Kabupaten Kolaka Timur, Sulawesi Tenggara","Kabupaten Kolaka Timur, Sulawesi Tenggara",SULAWESI TENGGARA,,Indonesia,,,,-4.2846446,121.918866,https://maps.google.com/?cid=0x0:0x2af5ac7223784fa8,
hotel,hotel,Kec. Loea,"Kabupaten Kolaka Timur, Sulawesi Tenggara","Kabupaten Kolaka Timur, Sulawesi Tenggara",SULAWESI TENGGARA,,Indonesia,,,,-4.0866248,121.8885897,https://maps.google.com/?cid=0x0:0x3416e72c1ead93b6,
hotel,hotel,Penginapan Inesti,"XV4V+5JJ, Jl. Veteran, Rate-Rate, Kec. Tirawuta, Kabupaten Kolaka Timur, Sulawesi Tenggara 93572","Jl. Veteran, Rate-Rate, Kec. Tirawuta, Kabupaten Kolaka Timur",SULAWESI TENGGARA,93572.0,Indonesia, 085394647975,,,-4.0445358,121.8940175,https://maps.google.com/?cid=0x0:0xc1e2cb10e6dd856f,
hotel,hotel,Hotel Bendungan,"Jl. Bendungan Balandete, Balandete, Kec. Kolaka, Kabupaten Kolaka, Sulawesi Tenggara 93561","Balandete, Kec. Kolaka, Kabupaten Kolaka",SULAWESI TENGGARA,93561.0,Indonesia, 08114133169,,,-4.0724719,121.6346657,https://maps.google.com/?cid=0x0:0xdfc73888c41f5e31,
hotel,hotel,Hotel Pratama,"Jl. Repelita No.1, Lamokato, Kec. Latambaga, Kabupaten Kolaka, Sulawesi Tenggara 93511","Lamokato, Kec. Latambaga, Kabupaten Kolaka",SULAWESI TENGGARA,93511.0,Indonesia, 02129707601,,,-4.051771,121.5922195,https://maps.google.com/?cid=0x0:0x2b4900e86f3383af,
hotel,hotel,,,,SULAWESI TENGGARA,,Indonesia,,,,,,https://maps.google.com/?cid=0x0:0x2b4900e86f3383af%7C/g/11b6d58_yz%7Cen-ID,
hotel,hotel,Byeropa Resort and cafe,"Jl. Tapak Kuda No.21, Korumba, Kec. Mandonga, Kota Kendari, Sulawesi Tenggara 93231","Korumba, Kec. Mandonga, Kota Kendari",SULAWESI TENGGARA,93231.0,Indonesia,,,,-3.9768026,122.5289414,https://maps.google.com/?cid=0x0:0xde9ad19bba6fd440,
hotel,hotel,Hotel Indah Kendari,"Jl. Made Sabara, Korumba, Kec. Mandonga, Kota Kendari, Sulawesi Tenggara 93111","Korumba, Kec. Mandonga, Kota Kendari",SULAWESI TENGGARA,93111.0,Indonesia, 04013125979,,,-3.9726126,122.5161707,https://maps.google.com/?cid=0x0:0xd14df6a0d76372f3,
hotel,hotel,Hotel Amasing,"2G2X+RWJ, Jalan Bunggasi (depan Bank Sultra Anduonohu, Jl. Bunggasi, Rahandouna, Kec. Poasia, Kota Kendari, Sulawesi Tenggara 93232","Jalan Bunggasi (depan Bank Sultra Anduonohu, Jl. Bunggasi, Rahandouna, Kec. Poasia, Kota Kendari",SULAWESI TENGGARA,93232.0,Indonesia,,,,-3.997926,122.5496401,https://maps.google.com/?cid=0x0:0x4d7a9ebe13c10005,
hotel,Pondok,Mata loe,"Jl. Pejaten Raya No.44, RT.8/RW.10, Jati Padang, Ps. Minggu, Kota Jakarta Selatan, Daerah Khusus Ibukota Jakarta 12540","RT.8/RW.10, Jati Padang, Ps. Minggu, Kota Jakarta Selatan",SULAWESI TENGGARA,12540.0,Indonesia,,,,-6.279289,106.8390918,https://maps.google.com/?cid=0x0:0x425e6d3a8b3d8f72,
hotel,Hotel,MATA,"Jl. Ciragil I No.3, RT.1/RW.7, Rw. Bar., Kec. Kby. Baru, Kota Jakarta Selatan, Daerah Khusus Ibukota Jakarta 12180","RT.1/RW.7, Rw. Bar., Kec. Kby. Baru, Kota Jakarta Selatan",SULAWESI TENGGARA,12180.0,Indonesia,,,,-6.2387472,106.8089551,https://maps.google.com/?cid=0x0:0xbe7b280c3d97b80c,
hotel,hotel,Mowewe,"Kabupaten Kolaka Timur, Sulawesi Tenggara","Kabupaten Kolaka Timur, Sulawesi Tenggara",SULAWESI TENGGARA,,Indonesia,,,,-3.962898,121.7081454,https://maps.google.com/?cid=0x0:0xdd1351df24135eeb,
hotel,hotel,Sutan Raja Hotel Kolaka,"Jl. Khairil Anwar No.1, Lamokato, Kec. Kolaka, Kabupaten Kolaka, Sulawesi Tenggara 93514","Lamokato, Kec. Kolaka, Kabupaten Kolaka",SULAWESI TENGGARA,93514.0,Indonesia, 04052321185,,,-4.0629644,121.5995178,https://maps.google.com/?cid=0x0:0x83c5eaa47ae91f4,
hotel,hotel,,,,SULAWESI TENGGARA,,Indonesia,,,,,,https://maps.google.com/?cid=0x0:0x83c5eaa47ae91f4%7C/g/11bwym81s6%7Cen-ID,
hotel,hotel,Hotel Pratama,"Jl. Repelita No.1, Lamokato, Kec. Latambaga, Kabupaten Kolaka, Sulawesi Tenggara 93511","Lamokato, Kec. Latambaga, Kabupaten Kolaka",SULAWESI TENGGARA,93511.0,Indonesia, 02129707601,,,-4.051771,121.5922195,https://maps.google.com/?cid=0x0:0x2b4900e86f3383af,
hotel,hotel,,,,SULAWESI TENGGARA,,Indonesia,,,,,,https://maps.google.com/?cid=0x0:0x2b4900e86f3383af%7C/g/11b6d58_yz%7Cen-ID,
hotel,hotel,Hotel Bendungan,"Jl. Bendungan Balandete, Balandete, Kec. Kolaka, Kabupaten Kolaka, Sulawesi Tenggara 93561","Balandete, Kec. Kolaka, Kabupaten Kolaka",SULAWESI TENGGARA,93561.0,Indonesia, 08114133169,,,-4.0724719,121.6346657,https://maps.google.com/?cid=0x0:0xdfc73888c41f5e31,
hotel,hotel,Xpress Hotel,"Jl. Pemuda No.km 3 no, 240, Balandete, Kolaka, Kolaka Regency, South East Sulawesi 93561","240, Balandete, Kolaka, Kolaka Regency",SULAWESI TENGGARA,93561.0,Indonesia, 04052325088,,,-4.0699954,121.6230627,https://maps.google.com/?cid=0x0:0xa31d18c233c53155,
hotel,hotel,Hotel Rumah Adat Mekongga Indah,"Jl. Dermaga Pelabuhan Ferry, Kec. Latambaga, Kabupaten Kolaka, Sulawesi Tenggara","Kabupaten Kolaka, Sulawesi Tenggara",SULAWESI TENGGARA,,Indonesia, 083838852223,,,-4.0608838,121.591963,https://maps.google.com/?cid=0x0:0x5f9e863727dd048e,
hotel,hotel,Penginapan Inesti,"XV4V+5JJ, Jl. Veteran, Rate-Rate, Kec. Tirawuta, Kabupaten Kolaka Timur, Sulawesi Tenggara 93572","Jl. Veteran, Rate-Rate, Kec. Tirawuta, Kabupaten Kolaka Timur",SULAWESI TENGGARA,93572.0,Indonesia, 085394647975,,,-4.0445358,121.8940175,https://maps.google.com/?cid=0x0:0xc1e2cb10e6dd856f,
hotel,hotel,Wisma Hotel 88 Kolaka,"WJJC+26R, Tahoa,Kolaka, Kabupaten Kolaka, Sulawesi Tenggara, Indonesia, Tahoa, Kec. Kolaka, Kaupaten Kolaka, Sulawesi Tenggara 93517","Tahoa,Kolaka, Kabupaten Kolaka, Sulawesi Tenggara, Indonesia, Tahoa, Kec. Kolaka, Kaupaten Kolaka",SULAWESI TENGGARA,93517.0,Indonesia, 082293778990,,,-4.069893,121.620526,https://maps.google.com/?cid=0x0:0x87239e1677a7bdf3,
hotel,hotel,VENUS INN,"Jl. Repelita No.1, Lamokato, Kec. Latambaga, Kabupaten Kolaka, Sulawesi Tenggara 93511","Lamokato, Kec. Latambaga, Kabupaten Kolaka",SULAWESI TENGGARA,93511.0,Indonesia,,,,-4.0526574,121.5930985,https://maps.google.com/?cid=0x0:0xed261c904fe47bec,
hotel,hotel,My Hotel Syariah,"Jl. Mekongga Indah, Kec. Kolaka, Kabupaten Kolaka, Sulawesi Tenggara 93561","Kec. Kolaka, Kabupaten Kolaka",SULAWESI TENGGARA,93561.0,Indonesia, 082196335999,,,-4.063224,121.6078085,https://maps.google.com/?cid=0x0:0xa929b6c5c4644f7,
hotel,hotel,Wisma Merpati 2,"WJV3+FF8, Jl. Usman Rencong, Lamokato, Kec. Kolaka, Kabupaten Kolaka, Sulawesi Tenggara 93561","Jl. Usman Rencong, Lamokato, Kec. Kolaka, Kabupaten Kolaka",SULAWESI TENGGARA,93561.0,Indonesia,,,,-4.0563479,121.6037059,https://maps.google.com/?cid=0x0:0xa84723b70f0801be,
hotel,hotel,Hotel Cempaka,"Jl. Bunga Tj. No.101, Watu-Watu, Kec. Kendari Bar., Kota Kendari, Sulawesi Tenggara 93873","Watu-Watu, Kec. Kendari Bar., Kota Kendari",SULAWESI TENGGARA,93873.0,Indonesia,,,,-3.9642101,122.542674,https://maps.google.com/?cid=0x0:0xca7fe20f7976380c,
hotel,Hotel,Hotel indomobil 1,"QWC2+RPM, Tokai, Kec. Poli-Polia, Kabupaten Kolaka Timur, Sulawesi Tenggara","Kabupaten Kolaka Timur, Sulawesi Tenggara",SULAWESI TENGGARA,,Indonesia,,,,-4.2279225,121.9017954,https://maps.google.com/?cid=0x0:0xf63028a718a7926f,
hotel,Hotel,Holy Inn,"WHVX+HRV, Jl. Khairil Anwar, Lamokato, Kec. Kolaka, Kabupaten Kolaka, Sulawesi Tenggara 93511","Jl. Khairil Anwar, Lamokato, Kec. Kolaka, Kabupaten Kolaka",SULAWESI TENGGARA,93511.0,Indonesia, 082348420700,,,-4.0560208,121.599545,https://maps.google.com/?cid=0x0:0x62e67722ee88444,
hotel,hotel,Kec. Poli-Polia,"Kabupaten Kolaka Timur, Sulawesi Tenggara","Kabupaten Kolaka Timur, Sulawesi Tenggara",SULAWESI TENGGARA,,Indonesia,,,,-4.207678,121.9022668,https://maps.google.com/?cid=0x0:0x15d99ec13666ac9c,
hotel,hotel,,,,SULAWESI TENGGARA,,Indonesia,,,,,,https://maps.google.com/?cid=0x0:0x2b4900e86f3383af%7C/g/11b6d58_yz%7Cen-ID,
hotel,hotel,Hotel Bendungan,"Jl. Bendungan Balandete, Balandete, Kec. Kolaka, Kabupaten Kolaka, Sulawesi Tenggara 93561","Balandete, Kec. Kolaka, Kabupaten Kolaka",SULAWESI TENGGARA,93561.0,Indonesia, 08114133169,,,-4.0724719,121.6346657,https://maps.google.com/?cid=0x0:0xdfc73888c41f5e31,
hotel,hotel,Sutan Raja Hotel Kolaka,"Jl. Khairil Anwar No.1, Lamokato, Kec. Kolaka, Kabupaten Kolaka, Sulawesi Tenggara 93514","Lamokato, Kec. Kolaka, Kabupaten Kolaka",SULAWESI TENGGARA,93514.0,Indonesia, 04052321185,,,-4.0629644,121.5995178,https://maps.google.com/?cid=0x0:0x83c5eaa47ae91f4,
hotel,hotel,,,,SULAWESI TENGGARA,,Indonesia,,,,,,https://maps.google.com/?cid=0x0:0x83c5eaa47ae91f4%7C/g/11bwym81s6%7Cen-ID,
hotel,hotel,Penginapan Inesti,"XV4V+5JJ, Jl. Veteran, Rate-Rate, Kec. Tirawuta, Kabupaten Kolaka Timur, Sulawesi Tenggara 93572","Jl. Veteran, Rate-Rate, Kec. Tirawuta, Kabupaten Kolaka Timur",SULAWESI TENGGARA,93572.0,Indonesia, 085394647975,,,-4.0445358,121.8940175,https://maps.google.com/?cid=0x0:0xc1e2cb10e6dd856f,
hotel,hotel,Xpress Hotel,"Jl. Pemuda No.km 3 no, 240, Balandete, Kolaka, Kolaka Regency, South East Sulawesi 93561","240, Balandete, Kolaka, Kolaka Regency",SULAWESI TENGGARA,93561.0,Indonesia, 04052325088,,,-4.0699954,121.6230627,https://maps.google.com/?cid=0x0:0xa31d18c233c53155,
hotel,hotel,Hotel Baruga Mas (Syariah),"Jalan Protokol Pomalaa - Kolaka Desa Pelambua, Kec. Pomalaa, Kab. Kolaka Sulawesi Tenggara Kolaka, Pelambua, Kec. Pomalaa, Sulawesi Tenggara, 93562","Kec. Pomalaa, Kab. Kolaka Sulawesi Tenggara Kolaka, Pelambua, Kec. Pomalaa",SULAWESI TENGGARA,93562.0,Indonesia, 08114004814,,,-4.1771404,121.6221697,https://maps.google.com/?cid=0x0:0x13ec3dcf5dca37ef,
hotel,hotel,Hotel Rumah Adat Mekongga Indah,"Jl. Dermaga Pelabuhan Ferry, Kec. Latambaga, Kabupaten Kolaka, Sulawesi Tenggara","Kabupaten Kolaka, Sulawesi Tenggara",SULAWESI TENGGARA,,Indonesia, 083838852223,,,-4.0608838,121.591963,https://maps.google.com/?cid=0x0:0x5f9e863727dd048e,
hotel,hotel,Wisma Hotel 88 Kolaka,"WJJC+26R, Tahoa,Kolaka, Kabupaten Kolaka, Sulawesi Tenggara, Indonesia, Tahoa, Kec. Kolaka, Kaupaten Kolaka, Sulawesi Tenggara 93517","Tahoa,Kolaka, Kabupaten Kolaka, Sulawesi Tenggara, Indonesia, Tahoa, Kec. Kolaka, Kaupaten Kolaka",SULAWESI TENGGARA,93517.0,Indonesia, 082293778990,,,-4.069893,121.620526,https://maps.google.com/?cid=0x0:0x87239e1677a7bdf3,
hotel,hotel,VENUS INN,"Jl. Repelita No.1, Lamokato, Kec. Latambaga, Kabupaten Kolaka, Sulawesi Tenggara 93511","Lamokato, Kec. Latambaga, Kabupaten Kolaka",SULAWESI TENGGARA,93511.0,Indonesia,,,,-4.0526574,121.5930985,https://maps.google.com/?cid=0x0:0xed261c904fe47bec,
hotel,hotel,My Hotel Syariah,"Jl. Mekongga Indah, Kec. Kolaka, Kabupaten Kolaka, Sulawesi Tenggara 93561","Kec. Kolaka, Kabupaten Kolaka",SULAWESI TENGGARA,93561.0,Indonesia, 082196335999,,,-4.063224,121.6078085,https://maps.google.com/?cid=0x0:0xa929b6c5c4644f7,
hotel,hotel,Wisma Merpati 2,"WJV3+FF8, Jl. Usman Rencong, Lamokato, Kec. Kolaka, Kabupaten Kolaka, Sulawesi Tenggara 93561","Jl. Usman Rencong, Lamokato, Kec. Kolaka, Kabupaten Kolaka",SULAWESI TENGGARA,93561.0,Indonesia,,,,-4.0563479,121.6037059,https://maps.google.com/?cid=0x0:0xa84723b70f0801be,
hotel,hotel,,,,SULAWESI TENGGARA,,Indonesia,,,,,,https://maps.google.com/?cid=0x0:0xf38f6e431df11ff4%7C/g/1tg341sw%7Cen-ID,
hotel,hotel,Hotel Poli,"Via Giacomo Puccini, 1, 42024 Castelnovo di Sotto RE, Italia",Castelnovo di Sotto RE,SULAWESI TENGGARA,42024.0,Indonesia, +390522683168,,,44.8132286,10.5662097,https://maps.google.com/?cid=0x0:0xf38f6e431df11ff4,
hotel,hotel,Poli Hotel,"SS33 del Sempione, 241, 20028 San Vittore Olona MI, Italia",San Vittore Olona MI,SULAWESI TENGGARA,20028.0,Indonesia, +390331423411,,,45.581437,8.949675,https://maps.google.com/?cid=0x0:0x1b8a2b69b0bab9d3,
hotel,hotel,,,,SULAWESI TENGGARA,,Indonesia,,,,,,https://maps.google.com/?cid=0x0:0x1b8a2b69b0bab9d3%7C/g/1tmgb9dp%7Cen-ID,
hotel,Bangunan Bersejarah,Palazzo della Pilotta,"Piazza della Pilotta, 5, 43121 Parma PR, Italia",Parma PR,SULAWESI TENGGARA,43121.0,Indonesia, +390521233617,,,44.8049136,10.3262279,https://maps.google.com/?cid=0x0:0x69350633089fc1c3,
hotel,,Canegrate,"20039 Canegrate, Milan, Italia",Canegrate,SULAWESI TENGGARA,20039.0,Indonesia,,,,45.5693487,8.9267335,https://maps.google.com/?cid=0x0:0x5bf6954afd267a43,
hotel,Kompleks Olahraga,Stadion San Siro,"Piazzale Angelo Moratti, 20151 Milano MI, Italia",Milano MI,SULAWESI TENGGARA,20151.0,Indonesia, +390248798201,,,45.4780807,9.123996,https://maps.google.com/?cid=0x0:0x9c7d30c7aeff312,
hotel,hotel,Sulawesi Tenggara 93571,"Kabupaten Kolaka, Sulawesi Tenggara","Kabupaten Kolaka, Sulawesi Tenggara",SULAWESI TENGGARA,,Indonesia,,,,-3.8424079,121.856261,https://maps.google.com/?cid=0x0:0x1bb5ec53427fe729,
hotel,hotel,Penginapan Inesti,"XV4V+5JJ, Jl. Veteran, Rate-Rate, Kec. Tirawuta, Kabupaten Kolaka Timur, Sulawesi Tenggara 93572","Jl. Veteran, Rate-Rate, Kec. Tirawuta, Kabupaten Kolaka Timur",SULAWESI TENGGARA,93572.0,Indonesia, 085394647975,,,-4.0445358,121.8940175,https://maps.google.com/?cid=0x0:0xc1e2cb10e6dd856f,
hotel,Tujuan Wisata,PUNCAK SOROMBIPI,"2V25+R8W, Lalingato, Kec. Tirawuta, Kabupaten Kolaka, Sulawesi Tenggara 93572","Lalingato, Kec. Tirawuta, Kabupaten Kolaka",SULAWESI TENGGARA,93572.0,Indonesia,,,,-3.9978973,121.8583382,https://maps.google.com/?cid=0x0:0x363bc3c1e4491bd1,
hotel,Hostel,Hotel Permata Rate-Rate,"Jalan Makuasa, Rate-Rate, Kec. Tirawuta, Kabupaten Kolaka Timur, Sulawesi Tenggara 93572","Rate-Rate, Kec. Tirawuta, Kabupaten Kolaka Timur",SULAWESI TENGGARA,93572.0,Indonesia, 082292990202,,,-4.0496631,121.8934706,https://maps.google.com/?cid=0x0:0xb383201f03736834,
hotel,hotel,Hotel Bendungan,"Jl. Bendungan Balandete, Balandete, Kec. Kolaka, Kabupaten Kolaka, Sulawesi Tenggara 93561","Balandete, Kec. Kolaka, Kabupaten Kolaka",SULAWESI TENGGARA,93561.0,Indonesia, 08114133169,,,-4.0724719,121.6346657,https://maps.google.com/?cid=0x0:0xdfc73888c41f5e31,
hotel,Taman Rekreasi Air,Pantai Mandra Kolaka,"WHQR+JF9, Lamokato, Kec. Kolaka, Sulawesi Tenggara",Sulawesi Tenggara,SULAWESI TENGGARA,,Indonesia,,,,-4.0609654,121.5912308,https://maps.google.com/?cid=0x0:0xa9b2f7e67c6161fc,
hotel,hotel,Hotel Pratama,"Jl. Repelita No.1, Lamokato, Kec. Latambaga, Kabupaten Kolaka, Sulawesi Tenggara 93511","Lamokato, Kec. Latambaga, Kabupaten Kolaka",SULAWESI TENGGARA,93511.0,Indonesia, 02129707601,,,-4.051771,121.5922195,https://maps.google.com/?cid=0x0:0x2b4900e86f3383af,
hotel,hotel,,,,SULAWESI TENGGARA,,Indonesia,,,,,,https://maps.google.com/?cid=0x0:0x2b4900e86f3383af%7C/g/11b6d58_yz%7Cen-ID,
hotel,Hotel,Penginapan Abygael,"XV3W+85, Rate-Rate, Kec. Tirawuta, Kabupaten Kolaka Timur, Sulawesi Tenggara 93572","Rate-Rate, Kec. Tirawuta, Kabupaten Kolaka Timur",SULAWESI TENGGARA,93572.0,Indonesia, 085238100567,,,-4.0466875,121.8954375,https://maps.google.com/?cid=0x0:0xb517e04a47961456,
hotel,Hotel,Menginap bersama suami dan anak,"XV6J+864, Rate-Rate, Kec. Tirawuta, Kabupaten Kolaka, Sulawesi Tenggara","Kabupaten Kolaka, Sulawesi Tenggara",SULAWESI TENGGARA,,Indonesia,,,,-4.0392489,121.8805657,https://maps.google.com/?cid=0x0:0x92de8d7c06f7c12f,
hotel,hotel,Sutan Raja Hotel Kolaka,"Jl. Khairil Anwar No.1, Lamokato, Kec. Kolaka, Kabupaten Kolaka, Sulawesi Tenggara 93514","Lamokato, Kec. Kolaka, Kabupaten Kolaka",SULAWESI TENGGARA,93514.0,Indonesia, 04052321185,,,-4.0629644,121.5995178,https://maps.google.com/?cid=0x0:0x83c5eaa47ae91f4,
hotel,hotel,,,,SULAWESI TENGGARA,,Indonesia,,,,,,https://maps.google.com/?cid=0x0:0x83c5eaa47ae91f4%7C/g/11bwym81s6%7Cen-ID,
hotel,Motel,WISMA ROOMZ INN TANGGETADA,"Dusun Trans Nelayan, Tanggetada, Kabupaten Kolaka, Sulawesi Tenggara 93563","Tanggetada, Kabupaten Kolaka",SULAWESI TENGGARA,93563.0,Indonesia, 085342279268,,,-4.3587179,121.5218833,https://maps.google.com/?cid=0x0:0x482635f32b4425e2,
hotel,Pondok,Hotel Fortuna Kolaka,"Jl. Kadue No.samping, taman kota, Kec. Kolaka, Kabupaten Kolaka, Sulawesi Tenggara 93519","taman kota, Kec. Kolaka, Kabupaten Kolaka",SULAWESI TENGGARA,93519.0,Indonesia, 082226666518,,,-4.0511785,121.591732,https://maps.google.com/?cid=0x0:0x31bf26f0dc8d5fee,
hotel,hotel,Hotel Rumah Adat Mekongga Indah,"Jl. Dermaga Pelabuhan Ferry, Kec. Latambaga, Kabupaten Kolaka, Sulawesi Tenggara","Kabupaten Kolaka, Sulawesi Tenggara",SULAWESI TENGGARA,,Indonesia, 083838852223,,,-4.0608838,121.591963,https://maps.google.com/?cid=0x0:0x5f9e863727dd048e,
hotel,Hotel,Hotel Mulia Inn Kolaka,"WJQ3+HFM, Jl. Mekongga Indah, Lamokato, Kec. Kolaka, Kabupaten Kolaka, Sulawesi Tenggara 93561","Jl. Mekongga Indah, Lamokato, Kec. Kolaka, Kabupaten Kolaka",SULAWESI TENGGARA,93561.0,Indonesia, 085259056072,,,-4.0610414,121.6036698,https://maps.google.com/?cid=0x0:0x7773116c7b2490bc,
hotel,Hotel,Pasanggrahan Inn Hotel,"Berti, Pantai, Kolaka Regency, South East Sulawesi 93561","Pantai, Kolaka Regency",SULAWESI TENGGARA,93561.0,Indonesia, 082298476350,,,-4.064083,121.6046163,https://maps.google.com/?cid=0x0:0x13fd948ba4d7dff9,
hotel,hotel,Wisma Hotel 88 Kolaka,"WJJC+26R, Tahoa,Kolaka, Kabupaten Kolaka, Sulawesi Tenggara, Indonesia, Tahoa, Kec. Kolaka, Kaupaten Kolaka, Sulawesi Tenggara 93517","Tahoa,Kolaka, Kabupaten Kolaka, Sulawesi Tenggara, Indonesia, Tahoa, Kec. Kolaka, Kaupaten Kolaka",SULAWESI TENGGARA,93517.0,Indonesia, 082293778990,,,-4.069893,121.620526,https://maps.google.com/?cid=0x0:0x87239e1677a7bdf3,
hotel,Hotel,Hotel indomobil 1,"QWC2+RPM, Tokai, Kec. Poli-Polia, Kabupaten Kolaka Timur, Sulawesi Tenggara","Kabupaten Kolaka Timur, Sulawesi Tenggara",SULAWESI TENGGARA,,Indonesia,,,,-4.2279225,121.9017954,https://maps.google.com/?cid=0x0:0xf63028a718a7926f,
hotel,Pondok,WISMA FATHUL INN,"Poni-Poniki, Kec. Tirawuta, Kabupaten Kolaka, Sulawesi Tenggara 93572","Kec. Tirawuta, Kabupaten Kolaka",SULAWESI TENGGARA,93572.0,Indonesia, 082349444733,,,-4.0393163,121.8804361,https://maps.google.com/?cid=0x0:0xf3647f1174da70a,
hotel,Hotel,Hotel Dinda,"WHWR+4J7, Jl. Merdeka, Latambaga, Kec. Latambaga, Kabupaten Kolaka, Sulawesi Tenggara","Kabupaten Kolaka, Sulawesi Tenggara",SULAWESI TENGGARA,,Indonesia,,,,-4.0547062,121.5915548,https://maps.google.com/?cid=0x0:0x8cb72f418738b8f,
hotel,Pondok,Rumah totong,"RX4J+RW7, Dangia, Kec. Ladongi, Kabupaten Kolaka Timur, Sulawesi Tenggara","Kabupaten Kolaka Timur, Sulawesi Tenggara",SULAWESI TENGGARA,,Indonesia,,,,-4.1899266,121.9935075,https://maps.google.com/?cid=0x0:0xdb3d49a4130bcdf0,
hotel,hotel,Hotel Wonua Monapa,"WCWW+88X, Jl. Poros Bandara Haluoleo, Ranooha, Kec. Ranomeeto, Kabupaten Konawe Selatan, Sulawesi Tenggara 93871","Jl. Poros Bandara Haluoleo, Ranooha, Kec. Ranomeeto, Kabupaten Konawe Selatan",SULAWESI TENGGARA,93871.0,Indonesia, 04013196900,,,-4.05582,122.446666,https://maps.google.com/?cid=0x0:0x55056e76d27f6ff9,
hotel,hotel,THE BONTE HOTEL,"Jl. Budi Utomo No.1, Mataiwoi, Kec. Kadia, Kota Kendari, Sulawesi Tenggara","Kota Kendari, Sulawesi Tenggara",SULAWESI TENGGARA,,Indonesia, 081356267213,,,-3.988472,122.5055925,https://maps.google.com/?cid=0x0:0x1674b5a580e0e1f9,
hotel,hotel,Tropical Point Hotel Syariah,"Jl. Syech Yusuf No.31, Korumba, Kec. Mandonga, Kota Kendari, Sulawesi Tenggara 93111","Korumba, Kec. Mandonga, Kota Kendari",SULAWESI TENGGARA,93111.0,Indonesia, 085333687211,,,-3.9692378,122.5217392,https://maps.google.com/?cid=0x0:0xc3b0f4dc0a1b90e7,
hotel,hotel,Atomy Hotel,"Anduonohu, Kec. Poasia, Kota Kendari, Sulawesi Tenggara 93231","Kec. Poasia, Kota Kendari",SULAWESI TENGGARA,93231.0,Indonesia, 0895417300072,,,-3.9972956,122.5410018,https://maps.google.com/?cid=0x0:0x8f99eb7937916251,
hotel,hotel,Hotel Viranza,"Jl. Made Sabara, Korumba, Kec. Mandonga, Kota Kendari, Sulawesi Tenggara 93111","Korumba, Kec. Mandonga, Kota Kendari",SULAWESI TENGGARA,93111.0,Indonesia,,,,-3.9745281,122.519844,https://maps.google.com/?cid=0x0:0xee5821e616c83bbf,
hotel,hotel,Sulawesi Tenggara 93572,Sulawesi Tenggara,Sulawesi Tenggara,SULAWESI TENGGARA,,Indonesia,,,,-4.0494144,121.947311,https://maps.google.com/?cid=0x0:0xfdc4defab63a0262,
hotel,hotel,Penginapan Inesti,"XV4V+5JJ, Jl. Veteran, Rate-Rate, Kec. Tirawuta, Kabupaten Kolaka Timur, Sulawesi Tenggara 93572","Jl. Veteran, Rate-Rate, Kec. Tirawuta, Kabupaten Kolaka Timur",SULAWESI TENGGARA,93572.0,Indonesia, 085394647975,,,-4.0445358,121.8940175,https://maps.google.com/?cid=0x0:0xc1e2cb10e6dd856f,
hotel,hotel,Hotel Bendungan,"Jl. Bendungan Balandete, Balandete, Kec. Kolaka, Kabupaten Kolaka, Sulawesi Tenggara 93561","Balandete, Kec. Kolaka, Kabupaten Kolaka",SULAWESI TENGGARA,93561.0,Indonesia, 08114133169,,,-4.0724719,121.6346657,https://maps.google.com/?cid=0x0:0xdfc73888c41f5e31,
hotel,hotel,Hotel Mawar,"43JH+263, Tobeu, Kec. Unaaha, Kabupaten Konawe, Sulawesi Tenggara 93415","Tobeu, Kec. Unaaha, Kabupaten Konawe",SULAWESI TENGGARA,93415.0,Indonesia, 085856534598,,,-3.8699871,122.0780355,https://maps.google.com/?cid=0x0:0x8d138e92abccbe27,
hotel,hotel,Hotel Qubah 9 Kendari,"Jl. Martandu No.99A, Kambu, Kec. Kambu, Kota Kendari, Sulawesi Tenggara 93231","Kambu, Kec. Kambu, Kota Kendari",SULAWESI TENGGARA,93231.0,Indonesia, 04013136047,,,-4.0082509,122.5345007,https://maps.google.com/?cid=0x0:0x16da52124c17b9e7,
hotel,hotel,Hotel Pratama,"Jl. Repelita No.1, Lamokato, Kec. Latambaga, Kabupaten Kolaka, Sulawesi Tenggara 93511","Lamokato, Kec. Latambaga, Kabupaten Kolaka",SULAWESI TENGGARA,93511.0,Indonesia, 02129707601,,,-4.051771,121.5922195,https://maps.google.com/?cid=0x0:0x2b4900e86f3383af,
hotel,hotel,,,,SULAWESI TENGGARA,,Indonesia,,,,,,https://maps.google.com/?cid=0x0:0x2b4900e86f3383af%7C/g/11b6d58_yz%7Cen-ID,
hotel,hotel,Byeropa Resort and cafe,"Jl. Tapak Kuda No.21, Korumba, Kec. Mandonga, Kota Kendari, Sulawesi Tenggara 93231","Korumba, Kec. Mandonga, Kota Kendari",SULAWESI TENGGARA,93231.0,Indonesia,,,,-3.9768026,122.5289414,https://maps.google.com/?cid=0x0:0xde9ad19bba6fd440,
hotel,hotel,Hotel Foresta Syariah,"XGJ5+PM4, Wundudopi, Kec. Baruga, Kota Kendari, Sulawesi Tenggara 93118","Wundudopi, Kec. Baruga, Kota Kendari",SULAWESI TENGGARA,93118.0,Indonesia, 081242952240,,,-4.0182383,122.5091913,https://maps.google.com/?cid=0x0:0xfab93fdfef794ec2,
hotel,hotel,Hotel Viranza,"Jl. Made Sabara, Korumba, Kec. Mandonga, Kota Kendari, Sulawesi Tenggara 93111","Korumba, Kec. Mandonga, Kota Kendari",SULAWESI TENGGARA,93111.0,Indonesia,,,,-3.9745281,122.519844,https://maps.google.com/?cid=0x0:0xee5821e616c83bbf,
hotel,hotel,SAWA BEACH RESORT,"Ds, RW.Pekarooa, Matanggonawe, Kec. Sawa, Kabupaten Konawe Utara, Sulawesi Tenggara 93352","RW.Pekarooa, Matanggonawe, Kec. Sawa, Kabupaten Konawe Utara",SULAWESI TENGGARA,93352.0,Indonesia, 08114056864,,,-3.783229,122.4511684,https://maps.google.com/?cid=0x0:0x21bbabf4006bce95,
hotel,hotel,Hotel Cempaka,"Jl. Bunga Tj. No.101, Watu-Watu, Kec. Kendari Bar., Kota Kendari, Sulawesi Tenggara 93873","Watu-Watu, Kec. Kendari Bar., Kota Kendari",SULAWESI TENGGARA,93873.0,Indonesia,,,,-3.9642101,122.542674,https://maps.google.com/?cid=0x0:0xca7fe20f7976380c,
hotel,hotel,Sulawesi Tenggara 93575,"Kabupaten Kolaka, Sulawesi Tenggara","Kabupaten Kolaka, Sulawesi Tenggara",SULAWESI TENGGARA,,Indonesia,,,,-3.5101108,121.3998995,https://maps.google.com/?cid=0x0:0xc8b7a5389edae68c,
hotel,hotel,CLARO Kendari,"Jl. Edi Sabara No.89, Lahundape, Kec. Kendari Bar., Kota Kendari, Sulawesi Tenggara 93231","Lahundape, Kec. Kendari Bar., Kota Kendari",SULAWESI TENGGARA,93231.0,Indonesia, 04013111888,,,-3.9701221,122.5282575,https://maps.google.com/?cid=0x0:0x8e90cd3d68630781,
hotel,hotel,,,,SULAWESI TENGGARA,,Indonesia,,,,,,https://maps.google.com/?cid=0x0:0x8e90cd3d68630781%7C/g/1q6h_32yx%7Cen-ID,
hotel,hotel,,,,SULAWESI TENGGARA,,Indonesia,,,,,,https://maps.google.com/?cid=0x0:0xfcb332d901b98662%7C/g/121qg3l2%7Cen-ID,
hotel,hotel,Horison Hotel Kendari,"Jl. Jend. Ahmad Yani No.3, Bende, Kec. Kadia, Kota Kendari, Sulawesi Tenggara 93117","Bende, Kec. Kadia, Kota Kendari",SULAWESI TENGGARA,93117.0,Indonesia, 04013127999,,,-3.9778936,122.5125375,https://maps.google.com/?cid=0x0:0xd26cbc730b3c5ecd,
hotel,hotel,Hotel Wonua Monapa,"WCWW+88X, Jl. Poros Bandara Haluoleo, Ranooha, Kec. Ranomeeto, Kabupaten Konawe Selatan, Sulawesi Tenggara 93871","Jl. Poros Bandara Haluoleo, Ranooha, Kec. Ranomeeto, Kabupaten Konawe Selatan",SULAWESI TENGGARA,93871.0,Indonesia, 04013196900,,,-4.05582,122.446666,https://maps.google.com/?cid=0x0:0x55056e76d27f6ff9,
hotel,hotel,Plaza Inn Kendari by Horison,"Jl. Antero Hamra No.57 - 59, Bende, Kec. Kadia, Kota Kendari, Sulawesi Tenggara 93111","Bende, Kec. Kadia, Kota Kendari",SULAWESI TENGGARA,93111.0,Indonesia, 04013131888,,,-3.9804765,122.5104623,https://maps.google.com/?cid=0x0:0xbe1ab07649610974,
hotel,hotel,,,,SULAWESI TENGGARA,,Indonesia,,,,,,https://maps.google.com/?cid=0x0:0xbe1ab07649610974%7C/g/11yh8c0y7%7Cen-ID,
hotel,hotel,Same Hotel Kendari,"Jl. Edi Sabara No.55, Lahundape, Kec. Kendari Bar., Kota Kendari, Sulawesi Tenggara 93121","Lahundape, Kec. Kendari Bar., Kota Kendari",SULAWESI TENGGARA,93121.0,Indonesia, 04013411111,,,-3.9697593,122.5294692,https://maps.google.com/?cid=0x0:0x7f4a060ab4e75be0,
hotel,hotel,,,,SULAWESI TENGGARA,,Indonesia,,,,,,https://maps.google.com/?cid=0x0:0x7f4a060ab4e75be0%7C/g/11by_htj_r%7Cen-ID,
hotel,hotel,Sahid Azizah Syariah Hotel  Convention Kendari,"Depan RS. Hermina, Jl. DI Panjaitan No.100, Wundudopi, Kec. Baruga, Kota Kendari, Sulawesi Tenggara 93117","Jl. DI Panjaitan No.100, Wundudopi, Kec. Baruga, Kota Kendari",SULAWESI TENGGARA,93117.0,Indonesia, 04013198888,,,-4.0180847,122.4993826,https://maps.google.com/?cid=0x0:0xde807c63851e67fb,
hotel,hotel,,,,SULAWESI TENGGARA,,Indonesia,,,,,,https://maps.google.com/?cid=0x0:0xde807c63851e67fb%7C/g/11h76lw85p%7Cen-ID,
hotel,hotel,Hotel Athaya,"Jl. Syech Yusuf No.100, Korumba, Kec. Mandonga, Kota Kendari, Sulawesi Tenggara 93111","Korumba, Kec. Mandonga, Kota Kendari",SULAWESI TENGGARA,93111.0,Indonesia, 04013131133,,,-3.9701868,122.5246472,https://maps.google.com/?cid=0x0:0x278359069fb397b4,
hotel,hotel,,,,SULAWESI TENGGARA,,Indonesia,,,,,,https://maps.google.com/?cid=0x0:0x4d34d690342fa71b%7C/g/1hhh12mvc%7Cen-ID,
hotel,hotel,Zenith Hotel Kendari,"Jl. Malik Raya No.20, Korumba, Kec. Mandonga, Kota Kendari, Sulawesi Tenggara 93211","Korumba, Kec. Mandonga, Kota Kendari",SULAWESI TENGGARA,93211.0,Indonesia,,,,-3.9709915,122.5179934,https://maps.google.com/?cid=0x0:0x4d34d690342fa71b,
hotel,hotel,Hotel Zahra Syariah Kendari,"Jl. Edi Sabara No.1A, Korumba, Kec. Mandonga, Kota Kendari, Sulawesi Tenggara 93121","Korumba, Kec. Mandonga, Kota Kendari",SULAWESI TENGGARA,93121.0,Indonesia, 081341537475,,,-3.9744376,122.5249718,https://maps.google.com/?cid=0x0:0xd59ee6d5a1b26e9d,
hotel,hotel,Parade inn kendari,"Jl. Edi Sabara No.8, Korumba, Kec. Mandonga, Kota Kendari, Sulawesi Tenggara 93461","Korumba, Kec. Mandonga, Kota Kendari",SULAWESI TENGGARA,93461.0,Indonesia, 082147777158,,,-3.9765861,122.5238086,https://maps.google.com/?cid=0x0:0x268f413c8cc746a4,
hotel,hotel,THE BONTE HOTEL,"Jl. Budi Utomo No.1, Mataiwoi, Kec. Kadia, Kota Kendari, Sulawesi Tenggara","Kota Kendari, Sulawesi Tenggara",SULAWESI TENGGARA,,Indonesia, 081356267213,,,-3.988472,122.5055925,https://maps.google.com/?cid=0x0:0x1674b5a580e0e1f9,
hotel,hotel,Hotel Same Boutique,"Jl. Z.A. Sugianto, Kambu, Kec. Kambu, Kota Kendari, Sulawesi Tenggara 93231","Kambu, Kec. Kambu, Kota Kendari",SULAWESI TENGGARA,93231.0,Indonesia,  SAME BOUTIQUE>A>AEntah kenapa namanya menjadi MILA KITTYSHOP.>A>ADan sayangnya permohonan saya untuk penggantian nama dari MILA KITTYSHOP menjadi SAME BOUTIQUE HOTEL kok ditolak oleh Google.>A>AMengapa??!,,,-3.9908272,122.5339237,https://maps.google.com/?cid=0x0:0xe3b87eb57a00cabd,
hotel,hotel,,,,SULAWESI TENGGARA,,Indonesia,,,,,,https://maps.google.com/?cid=0x0:0xe3b87eb57a00cabd%7C/g/11fhqvkf2m%7Cen-ID,
hotel,hotel,Hotel Fortune  Convention Kendari,"Jl. Kedondong No.889, Anduonohu, Kec. Poasia, Kota Kendari, Sulawesi Tenggara 93231","Anduonohu, Kec. Poasia, Kota Kendari",SULAWESI TENGGARA,93231.0,Indonesia, 04013080889,,,-3.9956447,122.5409552,https://maps.google.com/?cid=0x0:0xb8f6573eecc200c6,
hotel,hotel,,,,SULAWESI TENGGARA,,Indonesia,,,,,,https://maps.google.com/?cid=0x0:0xb8f6573eecc200c6%7C/g/11g10ghphf%7Cen-ID,
hotel,hotel,Hotel Qubah 9 Kendari,"Jl. Martandu No.99A, Kambu, Kec. Kambu, Kota Kendari, Sulawesi Tenggara 93231","Kambu, Kec. Kambu, Kota Kendari",SULAWESI TENGGARA,93231.0,Indonesia, 04013136047,,,-4.0082509,122.5345007,https://maps.google.com/?cid=0x0:0x16da52124c17b9e7,
hotel,hotel,D'Blitz Hotel Kendari,"Jl. Ir. H. Alala No.77, Watu-Watu, Kec. Kendari Bar., Kota Kendari, Sulawesi Tenggara 93221","Watu-Watu, Kec. Kendari Bar., Kota Kendari",SULAWESI TENGGARA,93221.0,Indonesia, 082245555045,,,-3.9656825,122.5398464,https://maps.google.com/?cid=0x0:0x69fc52bec618e18,
hotel,hotel,Venus Hotel,"Jl. Malik Raya No. 22-V, Korumba, Kec. Kendari, Kota Kendari, Sulawesi Tenggara 93111","Korumba, Kec. Kendari, Kota Kendari",SULAWESI TENGGARA,93111.0,Indonesia, 04013129000,,,-3.9711609,122.5183495,https://maps.google.com/?cid=0x0:0x4b6d4cbb07ec76f0,
hotel,hotel,BIG Hotel,"93117 Kendari, Sulawesi Tenggara, 93117, Pasar, Kendari, Kendari City, Sulawesi Selatan 93115",Kendari,SULAWESI TENGGARA,93117.0,Indonesia, 02129707601,,,-3.9855862,122.499391,https://maps.google.com/?cid=0x0:0x582b69c41d71984,
hotel,hotel,City Hotel Kendari,"Jl. Laute 3 No.48, Mandonga, Kec. Mandonga, Kota Kendari, Sulawesi Tenggara 93111","Mandonga, Kec. Mandonga, Kota Kendari",SULAWESI TENGGARA,93111.0,Indonesia, 04013122345,,,-3.9668207,122.5122041,https://maps.google.com/?cid=0x0:0x8e3396142193a120,
hotel,hotel,Agung Hotel,"Jl. Saranani No.168, Korumba, Kec. Mandonga, Kota Kendari, Sulawesi Tenggara 93111","Korumba, Kec. Mandonga, Kota Kendari",SULAWESI TENGGARA,93111.0,Indonesia, 08114006500,,,-3.9672247,122.5215238,https://maps.google.com/?cid=0x0:0x47c1a101f71f1691,
hotel,hotel,Hotel Indah Kendari,"Jl. Made Sabara, Korumba, Kec. Mandonga, Kota Kendari, Sulawesi Tenggara 93111","Korumba, Kec. Mandonga, Kota Kendari",SULAWESI TENGGARA,93111.0,Indonesia, 04013125979,,,-3.9726126,122.5161707,https://maps.google.com/?cid=0x0:0xd14df6a0d76372f3,
restaurant,restaurant,Ladongi,"Ladongi, Kec. Ladongi, Kabupaten Kolaka Timur, Sulawesi Tenggara","Kabupaten Kolaka Timur, Sulawesi Tenggara",SULAWESI TENGGARA,,Indonesia,,,,-4.142409,121.901901,https://maps.google.com/?cid=0x0:0xf976c8583833e88d,
restaurant,Kafe,Resto-Cafe,"Welala, Kec. Ladongi, Kabupaten Kolaka, Sulawesi Tenggara 93573","Kec. Ladongi, Kabupaten Kolaka",SULAWESI TENGGARA,93573.0,Indonesia, 082136864677,,,-4.1680823,121.921011,https://maps.google.com/?cid=0x0:0xe619cf75eacc7d41,
restaurant,Konsultan makanan dan minuman,Warung Makan Anda,"RW4P+VVM, Unnamed Rd, Gn. Jaya, Tim.,, Ladongi, Kec. Ladongi, Kabupaten Kolaka, Sulawesi Tenggara 93573","Unnamed Rd, Gn. Jaya, Tim.,, Ladongi, Kec. Ladongi, Kabupaten Kolaka",SULAWESI TENGGARA,93573.0,Indonesia,,,,-4.1927862,121.9371814,https://maps.google.com/?cid=0x0:0x96cfec1c2b4e0632,
restaurant,Ayam,NASU LIKKU 77,"Depan kantor pos ladongi, samping ziola phone, Atula, Kabupaten Kolaka Timur, Sulawesi Tenggara 93573","samping ziola phone, Atula, Kabupaten Kolaka Timur",SULAWESI TENGGARA,93573.0,Indonesia,,,,-4.1541486,121.9155534,https://maps.google.com/?cid=0x0:0x7269922b70740d62,
restaurant,Kedai Kopi,Ladongi,"QWC2+RPM, Tokai, Kec. Poli-Polia, Kabupaten Kolaka Timur, Sulawesi Tenggara","Kabupaten Kolaka Timur, Sulawesi Tenggara",SULAWESI TENGGARA,,Indonesia,,,,-4.2279225,121.9017954,https://maps.google.com/?cid=0x0:0xfb58f6c39c2439dc,
restaurant,Restoran,RESTO  CAFE,"WJH9+9J5, Jl. Daeng Pasau, Tahoa, Kec. Kolaka, Kabupaten Kolaka, Sulawesi Tenggara 93561","Jl. Daeng Pasau, Tahoa, Kec. Kolaka, Kabupaten Kolaka",SULAWESI TENGGARA,93561.0,Indonesia, 082196045927,,,-4.0716084,121.6191187,https://maps.google.com/?cid=0x0:0x5b46319b25a5592e,
restaurant,Restoran,Warung Andika 45 khas jawa timur,"XV3V+M2C, Jl. Poros Kolaka - Rate-rate, Rate-Rate, Kec. Tirawuta, Kabupaten Kolaka Timur, Sulawesi Tenggara 93572","Jl. Poros Kolaka - Rate-rate, Rate-Rate, Kec. Tirawuta, Kabupaten Kolaka Timur",SULAWESI TENGGARA,93572.0,Indonesia, 085731925853,,,-4.0458116,121.8925176,https://maps.google.com/?cid=0x0:0xb363577da89f2a5e,
restaurant,Restoran,Warung makan mas gio,"RW3P+38F, Gn. Jaya, Kec. Ladongi, Kabupaten Kolaka Timur, Sulawesi Tenggara 93573","Gn. Jaya, Kec. Ladongi, Kabupaten Kolaka Timur",SULAWESI TENGGARA,93573.0,Indonesia,,,,-4.1973224,121.9357962,https://maps.google.com/?cid=0x0:0x2a7930ed254eb72c,
restaurant,restaurant,Rumah Makan Welala,"VWJ3+P78, Jl. Poros, Lalowosula, Kec. Ladongi, Kabupaten Kolaka Timur, Sulawesi Tenggara 93573","Jl. Poros, Lalowosula, Kec. Ladongi, Kabupaten Kolaka Timur",SULAWESI TENGGARA,93573.0,Indonesia,,,,-4.1182017,121.9032047,https://maps.google.com/?cid=0x0:0xe68bea5f3cb57624,
restaurant,Jawa,Warung BANYUWANGI JAWA TIMUR,"RWWC+64R, Welala, Kec. Ladongi, Kabupaten Kolaka, Sulawesi Tenggara 93573","Welala, Kec. Ladongi, Kabupaten Kolaka",SULAWESI TENGGARA,93573.0,Indonesia,,,,-4.1543841,121.9202637,https://maps.google.com/?cid=0x0:0xe79f88456cc34fd5,
restaurant,Bakso,Warung Makan Mbak Ranti,"RWJM+F32, Unnamed Road, Raraa, Kec. Ladongi, Kabupaten Kolaka Timur, Sulawesi Tenggara 93573","Unnamed Road, Raraa, Kec. Ladongi, Kabupaten Kolaka Timur",SULAWESI TENGGARA,93573.0,Indonesia, 085399106074,,,-4.16886,121.9326321,https://maps.google.com/?cid=0x0:0x26af157c61063ffd,
restaurant,restaurant,Kec. Lalolae,"Kabupaten Kolaka Timur, Sulawesi Tenggara","Kabupaten Kolaka Timur, Sulawesi Tenggara",SULAWESI TENGGARA,,Indonesia,,,,-4.0256541,121.7842582,https://maps.google.com/?cid=0x0:0x16745ece4e90ef2b,
restaurant,Restoran,Rumah Makan REMAJA,"XQP9+H29, Jl. Poros Kolaka - Rate-rate, Wesalo, Kec. Lalolae, Kabupaten Kolaka, Sulawesi Tenggara 93561","Jl. Poros Kolaka - Rate-rate, Wesalo, Kec. Lalolae, Kabupaten Kolaka",SULAWESI TENGGARA,93561.0,Indonesia, 082251352662,,,-4.0135929,121.7676238,https://maps.google.com/?cid=0x0:0xa39b54bf26d56bfb,
restaurant,Penginapan,Rest Area Puncak Wesalo,"XQW5+QRP, Jl. Poros Kolaka - Rate-rate, Wesalo, Kec. Lalolae, Kabupaten Kolaka Timur, Sulawesi Tenggara 93561","Jl. Poros Kolaka - Rate-rate, Wesalo, Kec. Lalolae, Kabupaten Kolaka Timur",SULAWESI TENGGARA,93561.0,Indonesia,,,,-4.0030433,121.7595645,https://maps.google.com/?cid=0x0:0x4e324a06163844c5,
restaurant,Tujuan Wisata,Area Kafe Puncak Lalingato,"XRWJ+V5C, Lalingato, Kec. Tirawuta, Kabupaten Kolaka, Sulawesi Tenggara 93572","Lalingato, Kec. Tirawuta, Kabupaten Kolaka",SULAWESI TENGGARA,93572.0,Indonesia,,,,-4.0028024,121.8303818,https://maps.google.com/?cid=0x0:0x35324b2729350883,
restaurant,restaurant,Rumah makan ibu Nasra,"Jl. Poros Kolaka - Rate-rate No.16, Talodo, Kec. Lalolae, Kabupaten Kolaka Timur, Sulawesi Tenggara 93572","Talodo, Kec. Lalolae, Kabupaten Kolaka Timur",SULAWESI TENGGARA,93572.0,Indonesia,,,,-4.0050345,121.8285816,https://maps.google.com/?cid=0x0:0x49f51eb976752aa3,
restaurant,Rumah Makan,Rumah Makan Putri Mowewe,"XQW5+9MP, Jalan Poros Kolaka - Rate-rate, Horodopi, Mowewe, Wesalo, Kec. Lalolae, Kabupaten Kolaka Timur, Sulawesi Tenggara 93519","Jalan Poros Kolaka - Rate-rate, Horodopi, Mowewe, Wesalo, Kec. Lalolae, Kabupaten Kolaka Timur",SULAWESI TENGGARA,93519.0,Indonesia,,,,-4.0040252,121.7592151,https://maps.google.com/?cid=0x0:0xe45f86a9c7e75a44,
restaurant,Padang,Rumah makan 2 putri,"Wesalo, Kec. Lalolae, Kabupaten Kolaka Timur, Sulawesi Tenggara","Kabupaten Kolaka Timur, Sulawesi Tenggara",SULAWESI TENGGARA,,Indonesia, 085281874162,,,-4.0133899,121.7674936,https://maps.google.com/?cid=0x0:0x4a92bfe1bbcfa3df,
restaurant,Jawa,Rm Jawa Timur Lalowosula,"VWP2+7PF, Lalowosula, Kec. Ladongi, Kabupaten Kolaka Timur, Sulawesi Tenggara 93573","Lalowosula, Kec. Ladongi, Kabupaten Kolaka Timur",SULAWESI TENGGARA,93573.0,Indonesia,,,,-4.1143167,121.9017939,https://maps.google.com/?cid=0x0:0xe3b93f8af9046714,
restaurant,Sulawesi Selatan,COTO MAKASSAR DAENG MUNTU,"XQW5+XRQ, Jl. Poros Kolaka - Rate-rate, Wesalo, Kec. Lalolae, Kabupaten Kolaka, Sulawesi Tenggara 93561","Jl. Poros Kolaka - Rate-rate, Wesalo, Kec. Lalolae, Kabupaten Kolaka",SULAWESI TENGGARA,93561.0,Indonesia,,,,-4.0025254,121.7595939,https://maps.google.com/?cid=0x0:0x6e0962fd5e8c3933,
restaurant,Restoran,Warung Andika 45 khas jawa timur,"XV3V+M2C, Jl. Poros Kolaka - Rate-rate, Rate-Rate, Kec. Tirawuta, Kabupaten Kolaka Timur, Sulawesi Tenggara 93572","Jl. Poros Kolaka - Rate-rate, Rate-Rate, Kec. Tirawuta, Kabupaten Kolaka Timur",SULAWESI TENGGARA,93572.0,Indonesia, 085731925853,,,-4.0458116,121.8925176,https://maps.google.com/?cid=0x0:0xb363577da89f2a5e,
restaurant,Padang,Lamongan Rumah Makan,"Jl. Bakti No.22, Sea, Kec. Kolaka, Kabupaten Kolaka, Sulawesi Tenggara","Kabupaten Kolaka, Sulawesi Tenggara",SULAWESI TENGGARA,,Indonesia, 04052322632,,,-4.0549928,121.5916049,https://maps.google.com/?cid=0x0:0xf2110420bf104612,
restaurant,Sesuai untuk keluarga,LARISTA,"Jl. Mekongga Indah, Lamokato, Kec. Kolaka, Kabupaten Kolaka, Sulawesi Tenggara 93561","Lamokato, Kec. Kolaka, Kabupaten Kolaka",SULAWESI TENGGARA,93561.0,Indonesia,,,,-4.0623347,121.6063548,https://maps.google.com/?cid=0x0:0x94e242c7b2598027,
restaurant,Restoran,PONDOK KANG HADI,"XP5M+XC9, Jl. Poros Kolaka Kendari, Sabilambo, Kec. Kolaka, Kabupaten Kolaka, Sulawesi Tenggara 93561","Jl. Poros Kolaka Kendari, Sabilambo, Kec. Kolaka, Kabupaten Kolaka",SULAWESI TENGGARA,93561.0,Indonesia, 082347738558,,,-4.040077,121.733625,https://maps.google.com/?cid=0x0:0x94a059582bec8ee5,
restaurant,Restoran,Warung Gado-gado dan Nasi Goreng,"Jl. Pendidikan, Keisio, Kec. Lalolae, Kabupaten Kolaka Timur, Sulawesi Tenggara 93572","Keisio, Kec. Lalolae, Kabupaten Kolaka Timur",SULAWESI TENGGARA,93572.0,Indonesia,,,,-4.0283042,121.7964492,https://maps.google.com/?cid=0x0:0x6ed57e77fbe27874,
restaurant,restaurant,Kios ibu Nasra,"Jl. Poros Kolaka - Rate-rate No.16, Talodo, Kec. Lalolae, Kabupaten Kolaka Timur, Sulawesi Tenggara 93572","Talodo, Kec. Lalolae, Kabupaten Kolaka Timur",SULAWESI TENGGARA,93572.0,Indonesia,,,,-4.0049842,121.8285771,https://maps.google.com/?cid=0x0:0x9776af06aa03fa2,
restaurant,Sulawesi Selatan,WARUNG MAKAN POLMAN,"2R2P+QG6, Jl. Poros Kolaka - Rate-rate, Lalingato, Kec. Tirawuta, Kabupaten Kolaka Timur, Sulawesi Tenggara 93572","Jl. Poros Kolaka - Rate-rate, Lalingato, Kec. Tirawuta, Kabupaten Kolaka Timur",SULAWESI TENGGARA,93572.0,Indonesia,,,,-3.9980993,121.8362708,https://maps.google.com/?cid=0x0:0xe3fc53a5f19450fd,
restaurant,Bakso,Koltin,"WRFQ+GM5, Simbalai, Kec. Loea, Kabupaten Kolaka Timur, Sulawesi Tenggara","Kabupaten Kolaka Timur, Sulawesi Tenggara",SULAWESI TENGGARA,,Indonesia,,,,-4.0762365,121.8392241,https://maps.google.com/?cid=0x0:0x1cd61b314168324d,
restaurant,Kedai Kopi,Rm hafisa,"Jl. Poros Kolaka - Rate-rate No.16, Talodo, Kec. Lalolae, Kabupaten Kolaka Timur, Sulawesi Tenggara 93571","Talodo, Kec. Lalolae, Kabupaten Kolaka Timur",SULAWESI TENGGARA,93571.0,Indonesia,,,,-4.0013546,121.8208161,https://maps.google.com/?cid=0x0:0x4e1c693ae4b9ad82,
restaurant,Jawa,Ros Aneka Kuliner,"2PMH+XMW, Woitombo, Mowewe, Kabupaten Kolaka, Sulawesi Tenggara 93518","Woitombo, Mowewe, Kabupaten Kolaka",SULAWESI TENGGARA,93518.0,Indonesia,,,,-3.9650022,121.729213,https://maps.google.com/?cid=0x0:0x5e96fb07d227545c,
restaurant,Rumah Makan,Warung Mattirodeceng,"XQGF+3CR, Jl. Poros Kolaka - Rate-rate, Wesalo, Kec. Lalolae, Kabupaten Kolaka Timur, Sulawesi Tenggara 93571","Jl. Poros Kolaka - Rate-rate, Wesalo, Kec. Lalolae, Kabupaten Kolaka Timur",SULAWESI TENGGARA,93571.0,Indonesia,,,,-4.0247524,121.7735296,https://maps.google.com/?cid=0x0:0xbebf789280bbb490,
restaurant,Kafe,Resto-Cafe,"Welala, Kec. Ladongi, Kabupaten Kolaka, Sulawesi Tenggara 93573","Kec. Ladongi, Kabupaten Kolaka",SULAWESI TENGGARA,93573.0,Indonesia, 082136864677,,,-4.1680823,121.921011,https://maps.google.com/?cid=0x0:0xe619cf75eacc7d41,
restaurant,Sup,Celebes Resto  Cafe,"WJGH+4HR, Jl. Pemuda, Balandete, Kec. Kolaka, Kabupaten Kolaka, Sulawesi Tenggara 93561","Jl. Pemuda, Balandete, Kec. Kolaka, Kabupaten Kolaka",SULAWESI TENGGARA,93561.0,Indonesia,,,,-4.0746488,121.6288959,https://maps.google.com/?cid=0x0:0x2b59552da6b784c,
restaurant,Toko bahan makanan,Indomaret Lalolae,"Jl. Poros Kolaka - Rate-rate No.Timur, Lalolae, Kec. Lalolae, Kabupaten Kolaka Timur, Sulawesi Tenggara 93571","Lalolae, Kec. Lalolae, Kabupaten Kolaka Timur",SULAWESI TENGGARA,93571.0,Indonesia,,,,-4.0251746,121.7821892,https://maps.google.com/?cid=0x0:0xff057c9aa1a8e497,
restaurant,Rumah Makan,DAPUR ANARUO,"2PJH+5X, Inebenggi, Mowewe, Kabupaten Kolaka, Sulawesi Tenggara 93518","Inebenggi, Mowewe, Kabupaten Kolaka",SULAWESI TENGGARA,93518.0,Indonesia, 081243427252,,,-3.969598,121.7299353,https://maps.google.com/?cid=0x0:0x4f9d53e898131ab9,
restaurant,Jawa,Rumah Makan Jawa Timur MASAKAN AREK JOMBANG,"Komplek Pasar Lama, Woitombo, Mowewe, Kabupaten Kolaka Timur, Sulawesi Tenggara 93518","Woitombo, Mowewe, Kabupaten Kolaka Timur",SULAWESI TENGGARA,93518.0,Indonesia, 085242856124,,,-3.9552018,121.7337949,https://maps.google.com/?cid=0x0:0xf990996d8b005f9b,
restaurant,Padang,Rumah makan uete,"2PPJ+GR, Inebenggi, Mowewe, Kabupaten Kolaka Timur, Sulawesi Tenggara","Kabupaten Kolaka Timur, Sulawesi Tenggara",SULAWESI TENGGARA,,Indonesia,,,,-3.9637047,121.7320525,https://maps.google.com/?cid=0x0:0x73cbd34704c405c8,
restaurant,Kafe,KEDAI SIMPANG TIGA HORODOPI,"2P5V+PF7, Horodopi, Mowewe, Kabupaten Kolaka, Sulawesi Tenggara 93519","Horodopi, Mowewe, Kabupaten Kolaka",SULAWESI TENGGARA,93519.0,Indonesia, 082301326379,,,-3.990705,121.7436765,https://maps.google.com/?cid=0x0:0x4f01aae6ef96d769,
restaurant,Sarapan,Rumah Makan Lisna,"PW29+6PC, Jl. Poros Lambandia, Lambandia, Kec. Lambandia, Kabupaten Kolaka Timur, Sulawesi Tenggara 93573","Jl. Poros Lambandia, Lambandia, Kec. Lambandia, Kabupaten Kolaka Timur",SULAWESI TENGGARA,93573.0,Indonesia,,,,-4.2994485,121.9192565,https://maps.google.com/?cid=0x0:0xe60c9fb58795a5b2,
restaurant,Restoran,Nasi kuning lambandia,"PW29+CP3, Lambandia, Kec. Lambandia, Kabupaten Kolaka Timur, Sulawesi Tenggara","Kabupaten Kolaka Timur, Sulawesi Tenggara",SULAWESI TENGGARA,,Indonesia,,,,-4.2989833,121.9192914,https://maps.google.com/?cid=0x0:0xe1a9d00dee5b9dca,
restaurant,Restoran,Warung makan banyuwangi,"MWWC+2RX, Lambandia, Kec. Lambandia, Kabupaten Kolaka Timur, Sulawesi Tenggara 93573","Lambandia, Kec. Lambandia, Kabupaten Kolaka Timur",SULAWESI TENGGARA,93573.0,Indonesia,,,,-4.3048829,121.9221218,https://maps.google.com/?cid=0x0:0x84ed2b6d86d7d679,
restaurant,restaurant,Sulawesi Tenggara 93573,"Kabupaten Kolaka, Sulawesi Tenggara","Kabupaten Kolaka, Sulawesi Tenggara",SULAWESI TENGGARA,,Indonesia,,,,-4.2654072,121.856261,https://maps.google.com/?cid=0x0:0xeafafa5d78b5c179,
restaurant,Padang,Rumah Makan Bersama,"Jalan Sangia Ni Bandera, No. 04, Penanggo Jaya, Kec. Lambandia, Kabupaten Kolaka Timur, Sulawesi Tenggara 93573","No. 04, Penanggo Jaya, Kec. Lambandia, Kabupaten Kolaka Timur",SULAWESI TENGGARA,93573.0,Indonesia,,,,-4.3049507,121.9230928,https://maps.google.com/?cid=0x0:0x5333ce290bd2b344,
restaurant,Dapur Umum,Rumah Makan Jatim,"MWVF+VMJ, Penanggo Jaya, Kec. Lambandia, Kabupaten Kolaka Timur, Sulawesi Tenggara 93573","Penanggo Jaya, Kec. Lambandia, Kabupaten Kolaka Timur",SULAWESI TENGGARA,93573.0,Indonesia,,,,-4.3052934,121.9241275,https://maps.google.com/?cid=0x0:0xa28d6672fe26d478,
restaurant,Rumah Makan,WARUNG MAKAN ECO FARMING,"MWXC+63W, Jl. Poros Lambandia, Lambandia, Kec. Lambandia, Kabupaten Kolaka Timur, Sulawesi Tenggara 93573","Jl. Poros Lambandia, Lambandia, Kec. Lambandia, Kabupaten Kolaka Timur",SULAWESI TENGGARA,93573.0,Indonesia,,,,-4.3018809,121.9201966,https://maps.google.com/?cid=0x0:0x3654140b0a88b85b,
restaurant,Rumah Makan,Warung Makan Simpedes,"MWWH+5R6, Unnamed Road, Penanggo Jaya, Kec. Lambandia, Kabupaten Kolaka Timur, Sulawesi Tenggara 93573","Unnamed Road, Penanggo Jaya, Kec. Lambandia, Kabupaten Kolaka Timur",SULAWESI TENGGARA,93573.0,Indonesia, 082348452183,,,-4.3045985,121.9295225,https://maps.google.com/?cid=0x0:0xe5b2a251e692e8ab,
restaurant,restaurant,Lambandia,"Kec. Lambandia, Kabupaten Kolaka Timur, Sulawesi Tenggara","Kabupaten Kolaka Timur, Sulawesi Tenggara",SULAWESI TENGGARA,,Indonesia,,,,-4.2846446,121.918866,https://maps.google.com/?cid=0x0:0x2af5ac7223784fa8,
restaurant,restaurant,Kec. Loea,"Kabupaten Kolaka Timur, Sulawesi Tenggara","Kabupaten Kolaka Timur, Sulawesi Tenggara",SULAWESI TENGGARA,,Indonesia,,,,-4.0866248,121.8885897,https://maps.google.com/?cid=0x0:0x3416e72c1ead93b6,
restaurant,Rumah Makan,Warung Makan Barokah,"WV5R+5HP, Lamoare, Kec. Loea, Kabupaten Kolaka, Sulawesi Tenggara 93572","Lamoare, Kec. Loea, Kabupaten Kolaka",SULAWESI TENGGARA,93572.0,Indonesia, 085327913713,,,-4.09204,121.8914493,https://maps.google.com/?cid=0x0:0xa1fda7dd52f58891,
restaurant,Restoran,KINSHIP CAFE  RESTO,"WVMM+642, Simbalai, Kec. Loea, Kabupaten Kolaka Timur, Sulawesi Tenggara 93572","Simbalai, Kec. Loea, Kabupaten Kolaka Timur",SULAWESI TENGGARA,93572.0,Indonesia, 082322181735,,,-4.0670611,121.8827584,https://maps.google.com/?cid=0x0:0xa6ceb516a91c29fd,
restaurant,Konsultan makanan dan minuman,miniRestoElsa,"VWQ2+F27, Jl. Poros, Lalowosula, Kec. Ladongi, Kabupaten Kolaka Timur, Sulawesi Tenggara 93573","Jl. Poros, Lalowosula, Kec. Ladongi, Kabupaten Kolaka Timur",SULAWESI TENGGARA,93573.0,Indonesia, 081343751006,,,-4.1113411,121.9000581,https://maps.google.com/?cid=0x0:0x8ac310ebbc214306,
restaurant,Restoran,Rumah Makan AZZAHRA  Kios,"WW74+XV5, Lalowura, Kec. Loea, Kabupaten Kolaka, Sulawesi Tenggara 93572","Lalowura, Kec. Loea, Kabupaten Kolaka",SULAWESI TENGGARA,93572.0,Indonesia, 085225104289,,,-4.0851223,121.9072266,https://maps.google.com/?cid=0x0:0x3c47090714b2ca64,
restaurant,Jawa,Amy Kitchen,"WVFM+R5P, Tim., Simbalai, Kec. Loea, Kabupaten Kolaka Timur, Sulawesi Tenggara 93572","Tim., Simbalai, Kec. Loea, Kabupaten Kolaka Timur",SULAWESI TENGGARA,93572.0,Indonesia, 085398401199,,,-4.0754041,121.8829431,https://maps.google.com/?cid=0x0:0x1ae2c9404bf02577,
restaurant,Jawa,Rm Jawa Timur Lalowosula,"VWP2+7PF, Lalowosula, Kec. Ladongi, Kabupaten Kolaka Timur, Sulawesi Tenggara 93573","Lalowosula, Kec. Ladongi, Kabupaten Kolaka Timur",SULAWESI TENGGARA,93573.0,Indonesia,,,,-4.1143167,121.9017939,https://maps.google.com/?cid=0x0:0xe3b93f8af9046714,
restaurant,Sate,Rm marwah,"trans Sulawesi, Jl. Poros Rate-rate Ladongi Road, Rate-Rate, Kec. Tirawuta, Kabupaten Kolaka Timur, Sulawesi Tenggara 93572","Jl. Poros Rate-rate Ladongi Road, Rate-Rate, Kec. Tirawuta, Kabupaten Kolaka Timur",SULAWESI TENGGARA,93572.0,Indonesia,,,,-4.0513318,121.8900439,https://maps.google.com/?cid=0x0:0xd2eb2f21d1ad2545,
restaurant,Kafe,Resto-Cafe,"Welala, Kec. Ladongi, Kabupaten Kolaka, Sulawesi Tenggara 93573","Kec. Ladongi, Kabupaten Kolaka",SULAWESI TENGGARA,93573.0,Indonesia, 082136864677,,,-4.1680823,121.921011,https://maps.google.com/?cid=0x0:0xe619cf75eacc7d41,
restaurant,Soto,Coto Makassar Gratis Ketupat + Es Teh,"WVPM+HWQ, Tasahea, Kec. Tirawuta, Kabupaten Kolaka, Sulawesi Tenggara 93572","Tasahea, Kec. Tirawuta, Kabupaten Kolaka",SULAWESI TENGGARA,93572.0,Indonesia,,,,-4.0635393,121.8848675,https://maps.google.com/?cid=0x0:0xcace48f8df6e56e3,
restaurant,Bakso,Warung Bakso Mas Bro,"Lamoare, Kec. Loea, Kabupaten Kolaka Timur, Sulawesi Tenggara 93572","Kec. Loea, Kabupaten Kolaka Timur",SULAWESI TENGGARA,93572.0,Indonesia,,,,-4.0987366,121.8940915,https://maps.google.com/?cid=0x0:0x5f41a6da45de0864,
restaurant,Nasi,Warung Makan Pangkep,"XV3M+7WC, Jl. Poros Kolaka, Rate-Rate, Kec. Tirawuta, Kabupaten Kolaka Timur, Sulawesi Tenggara 93572","Jl. Poros Kolaka, Rate-Rate, Kec. Tirawuta, Kabupaten Kolaka Timur",SULAWESI TENGGARA,93572.0,Indonesia,,,,-4.046823,121.8847764,https://maps.google.com/?cid=0x0:0x75f1bbed934be34f,
restaurant,Kedai Kopi,Kedai Restorasi,"VVVX+3J8, Putemata, Kec. Ladongi, Kabupaten Kolaka, Sulawesi Tenggara 93573","Putemata, Kec. Ladongi, Kabupaten Kolaka",SULAWESI TENGGARA,93573.0,Indonesia,,,,-4.107337,121.8990922,https://maps.google.com/?cid=0x0:0xae83c22f7aab1a01,
restaurant,Bakso,Warung Bakso Ojolali,"Jl. Poros Kolaka - Rate-rate No.16, Rate-Rate, Kec. Tirawuta, Kabupaten Kolaka Timur, Sulawesi Tenggara 93572","Rate-Rate, Kec. Tirawuta, Kabupaten Kolaka Timur",SULAWESI TENGGARA,93572.0,Indonesia,,,,-4.0473475,121.8905572,https://maps.google.com/?cid=0x0:0xcf7b084127c3cfe2,
restaurant,Restoran,RM.MURAH SENYUM,"WW8F+6G2, Peatoa, Kec. Loea, Kabupaten Kolaka Timur, Sulawesi Tenggara 93572","Peatoa, Kec. Loea, Kabupaten Kolaka Timur",SULAWESI TENGGARA,93572.0,Indonesia,,,,-4.0844793,121.9237708,https://maps.google.com/?cid=0x0:0xfdea21a4cfdefb8e,
restaurant,Restoran,Warung Andika 45 khas jawa timur,"XV3V+M2C, Jl. Poros Kolaka - Rate-rate, Rate-Rate, Kec. Tirawuta, Kabupaten Kolaka Timur, Sulawesi Tenggara 93572","Jl. Poros Kolaka - Rate-rate, Rate-Rate, Kec. Tirawuta, Kabupaten Kolaka Timur",SULAWESI TENGGARA,93572.0,Indonesia, 085731925853,,,-4.0458116,121.8925176,https://maps.google.com/?cid=0x0:0xb363577da89f2a5e,
restaurant,Restoran,Rumah Makan Baim Top,"RWW8+4Q3, Jl. Abdullah Silondae, Welala, Kec. Ladongi, Kabupaten Kolaka Timur, Sulawesi Tenggara 93573","Jl. Abdullah Silondae, Welala, Kec. Ladongi, Kabupaten Kolaka Timur",SULAWESI TENGGARA,93573.0,Indonesia, 082346098468,,,-4.154742,121.9169348,https://maps.google.com/?cid=0x0:0x2f273fd5f515b05d,
restaurant,Ayam,Sari Laut Mas Yoyok,"XV3X+Q9X, Rate-Rate, Kec. Tirawuta, Kabupaten Kolaka, Sulawesi Tenggara 93572","Rate-Rate, Kec. Tirawuta, Kabupaten Kolaka",SULAWESI TENGGARA,93572.0,Indonesia,,,,-4.0455191,121.8984782,https://maps.google.com/?cid=0x0:0x3354c5af8f4c58b7,
restaurant,Sate,RM ADELIA,"XV3V+Q6P, Jl. Veteran, Rate-Rate, Kec. Tirawuta, Kabupaten Kolaka Timur, Sulawesi Tenggara 93572","Jl. Veteran, Rate-Rate, Kec. Tirawuta, Kabupaten Kolaka Timur",SULAWESI TENGGARA,93572.0,Indonesia,,,,-4.0455357,121.8930659,https://maps.google.com/?cid=0x0:0xca234705336cff52,
restaurant,Rumah Makan,Warung Laperfull,"XV2R+VJQ, Jl. Bolo, Rate-Rate, Kec. Tirawuta, Kabupaten Kolaka Timur, Sulawesi Tenggara 93572","Jl. Bolo, Rate-Rate, Kec. Tirawuta, Kabupaten Kolaka Timur",SULAWESI TENGGARA,93572.0,Indonesia,,,,-4.0477879,121.8916221,https://maps.google.com/?cid=0x0:0xcbb83276f8458b69,
restaurant,Restoran,Resto LOE W,"Jl. Balai Rakyat VII No.32, RT.9/RW.3, Tugu Sel., Kec. Koja, Jkt Utara, Daerah Khusus Ibukota Jakarta 14260","RT.9/RW.3, Tugu Sel., Kec. Koja, Jkt Utara",SULAWESI TENGGARA,14260.0,Indonesia,,,,-6.1291643,106.7361953,https://maps.google.com/?cid=0x0:0x1f2c4e095b96aab7,
restaurant,Restoran,Kedai Lolom,"Jl. Malaka 1 No.4, RT.4/RW.5, Rorotan, Kec. Cilincing, Jkt Utara, Daerah Khusus Ibukota Jakarta 14140","RT.4/RW.5, Rorotan, Kec. Cilincing, Jkt Utara",SULAWESI TENGGARA,14140.0,Indonesia, 081513041323,,,-6.1397601,106.9550289,https://maps.google.com/?cid=0x0:0xa7fc08ccd3fe1a76,
restaurant,,Gedung seleksi LOLOE Resto,"Jl. Raya Rw. Bambu No.kav.88 blok s lt 2, Ps. Minggu, Kota Jakarta Selatan, Daerah Khusus Ibukota Jakarta 12520","Ps. Minggu, Kota Jakarta Selatan",SULAWESI TENGGARA,12520.0,Indonesia,,,,-6.290787,106.8423489,https://maps.google.com/?cid=0x0:0x922e627f4aa23bf1,
restaurant,China,LAO YOU ,"Jl. Pluit Karang Utara No.141-142, RT.20/RW.2, Pluit, Kec. Penjaringan, Jkt Utara, Daerah Khusus Ibukota Jakarta 14450","RT.20/RW.2, Pluit, Kec. Penjaringan, Jkt Utara",SULAWESI TENGGARA,14450.0,Indonesia, 082121168899,,,-6.1114055,106.7772077,https://maps.google.com/?cid=0x0:0x49a1a7a5ea48bd16,
restaurant,restaurant,Mowewe,"Kabupaten Kolaka Timur, Sulawesi Tenggara","Kabupaten Kolaka Timur, Sulawesi Tenggara",SULAWESI TENGGARA,,Indonesia,,,,-3.962898,121.7081454,https://maps.google.com/?cid=0x0:0xdd1351df24135eeb,
restaurant,Rumah Makan,Rumah Makan Putri Mowewe,"XQW5+9MP, Jalan Poros Kolaka - Rate-rate, Horodopi, Mowewe, Wesalo, Kec. Lalolae, Kabupaten Kolaka Timur, Sulawesi Tenggara 93519","Jalan Poros Kolaka - Rate-rate, Horodopi, Mowewe, Wesalo, Kec. Lalolae, Kabupaten Kolaka Timur",SULAWESI TENGGARA,93519.0,Indonesia,,,,-4.0040252,121.7592151,https://maps.google.com/?cid=0x0:0xe45f86a9c7e75a44,
restaurant,Bar Kopi Espresso,Aj Cafe Mowewe,"Lorong Tambeani, Woitombo, Mowewe, Kabupaten Kolaka Timur, Sulawesi Tenggara 93571","Woitombo, Mowewe, Kabupaten Kolaka Timur",SULAWESI TENGGARA,93571.0,Indonesia, 082393217897,,,-3.9622674,121.7248558,https://maps.google.com/?cid=0x0:0x3da053f2e80537f4,
restaurant,Penginapan,Rest Area Puncak Wesalo,"XQW5+QRP, Jl. Poros Kolaka - Rate-rate, Wesalo, Kec. Lalolae, Kabupaten Kolaka Timur, Sulawesi Tenggara 93561","Jl. Poros Kolaka - Rate-rate, Wesalo, Kec. Lalolae, Kabupaten Kolaka Timur",SULAWESI TENGGARA,93561.0,Indonesia,,,,-4.0030433,121.7595645,https://maps.google.com/?cid=0x0:0x4e324a06163844c5,
restaurant,Jawa,Ros Aneka Kuliner,"2PMH+XMW, Woitombo, Mowewe, Kabupaten Kolaka, Sulawesi Tenggara 93518","Woitombo, Mowewe, Kabupaten Kolaka",SULAWESI TENGGARA,93518.0,Indonesia,,,,-3.9650022,121.729213,https://maps.google.com/?cid=0x0:0x5e96fb07d227545c,
restaurant,Jawa,Rumah Makan Jawa Timur MASAKAN AREK JOMBANG,"Komplek Pasar Lama, Woitombo, Mowewe, Kabupaten Kolaka Timur, Sulawesi Tenggara 93518","Woitombo, Mowewe, Kabupaten Kolaka Timur",SULAWESI TENGGARA,93518.0,Indonesia, 085242856124,,,-3.9552018,121.7337949,https://maps.google.com/?cid=0x0:0xf990996d8b005f9b,
restaurant,Rumah Makan,DAPUR ANARUO,"2PJH+5X, Inebenggi, Mowewe, Kabupaten Kolaka, Sulawesi Tenggara 93518","Inebenggi, Mowewe, Kabupaten Kolaka",SULAWESI TENGGARA,93518.0,Indonesia, 081243427252,,,-3.969598,121.7299353,https://maps.google.com/?cid=0x0:0x4f9d53e898131ab9,
restaurant,Restoran,warung cilok sing song,"2PX9+VHM, Nelombu, Mowewe, Kabupaten Kolaka Timur, Sulawesi Tenggara","Kabupaten Kolaka Timur, Sulawesi Tenggara",SULAWESI TENGGARA,,Indonesia,,,,-3.9513311,121.7193297,https://maps.google.com/?cid=0x0:0xcf849f16c1bc5de9,
restaurant,Sarapan,Ayam Geprek MOM's AxL,"Horodopi, Mowewe, Kabupaten Kolaka Timur, Sulawesi Tenggara 93571","Mowewe, Kabupaten Kolaka Timur",SULAWESI TENGGARA,93571.0,Indonesia, 085340117459,,,-3.9888896,121.7420202,https://maps.google.com/?cid=0x0:0xd64b02c2c625145a,
restaurant,Toko Kelontong Asia,Warung Makan Damai 278,"Jalan Poros, Solewatu, Uluiwoi, Kabupaten Kolaka Timur, Sulawesi Tenggara 93571","Solewatu, Uluiwoi, Kabupaten Kolaka Timur",SULAWESI TENGGARA,93571.0,Indonesia, 085338589783,,,-3.9348837,121.7541507,https://maps.google.com/?cid=0x0:0xe06e87e0f356d332,
restaurant,Restoran,Teppoe cafe  resto,"WJHF+XRM, Jl. Pemuda, Balandete, Kec. Kolaka, Kabupaten Kolaka, Sulawesi Tenggara 93561","Jl. Pemuda, Balandete, Kec. Kolaka, Kabupaten Kolaka",SULAWESI TENGGARA,93561.0,Indonesia,,,,-4.0700364,121.6245359,https://maps.google.com/?cid=0x0:0xdd86a54dfa2e8a92,
restaurant,Restoran,Nasi Kuning Ma'Fer,"2P4V+HF8, Horodopi, Mowewe, Kabupaten Kolaka Timur, Sulawesi Tenggara","Kabupaten Kolaka Timur, Sulawesi Tenggara",SULAWESI TENGGARA,,Indonesia,,,,-3.9935777,121.7437057,https://maps.google.com/?cid=0x0:0xa185ab1db153731f,
restaurant,Bakso,Warung bakso solo,"2P2W+F3W, Horodopi, Mowewe, Kabupaten Kolaka Timur, Sulawesi Tenggara 93519","Horodopi, Mowewe, Kabupaten Kolaka Timur",SULAWESI TENGGARA,93519.0,Indonesia, 085247793597,,,-3.9987515,121.7451927,https://maps.google.com/?cid=0x0:0xfe04ee1a2878be1b,
restaurant,Es Krim,Home Wulan,"2PGV+7M8, Watupute, Mowewe, Kabupaten Kolaka Timur, Sulawesi Tenggara","Kabupaten Kolaka Timur, Sulawesi Tenggara",SULAWESI TENGGARA,,Indonesia,,,,-3.9743456,121.7441931,https://maps.google.com/?cid=0x0:0x7096b8851a61ca3c,
restaurant,Kafe,KEDAI SIMPANG TIGA HORODOPI,"2P5V+PF7, Horodopi, Mowewe, Kabupaten Kolaka, Sulawesi Tenggara 93519","Horodopi, Mowewe, Kabupaten Kolaka",SULAWESI TENGGARA,93519.0,Indonesia, 082301326379,,,-3.990705,121.7436765,https://maps.google.com/?cid=0x0:0x4f01aae6ef96d769,
restaurant,Perhimpunan Pengembang Perumahan,Posko high,"3P25+C3R, Nelombu, Mowewe, Kabupaten Kolaka Timur, Sulawesi Tenggara","Kabupaten Kolaka Timur, Sulawesi Tenggara",SULAWESI TENGGARA,,Indonesia,,,,-3.9488884,121.7076276,https://maps.google.com/?cid=0x0:0x7bf3fa0d6e40626a,
restaurant,Kedai Kopi,Cendol tape Tante Mea,"2PGJ+VWM, Inebenggi, Mowewe, Kabupaten Kolaka Timur, Sulawesi Tenggara","Kabupaten Kolaka Timur, Sulawesi Tenggara",SULAWESI TENGGARA,,Indonesia,,,,-3.9727857,121.7323099,https://maps.google.com/?cid=0x0:0xb5500d2452390708,
restaurant,Kedai Kopi,Babe ThaiTea,"2PHJ+JJW, Lapangan abd, majid, Inebenggi, Mowewe, Kabupaten Kolaka Timur, Sulawesi Tenggara 93518","Lapangan abd, majid, Inebenggi, Mowewe, Kabupaten Kolaka Timur",SULAWESI TENGGARA,93518.0,Indonesia,,,,-3.9708812,121.7315717,https://maps.google.com/?cid=0x0:0xb5866afeae0c82fe,
restaurant,Kedai Kopi,Warung kopi to'ogi,"Warkop to'ogi dan warung makan jeng evhy, Jalan.pasaeno no.24 depan gerejaka betel, Woitombo, Mowewe, Kabupaten Kolaka Timur, Sulawesi Tenggara 93571","Jalan.pasaeno no.24 depan gerejaka betel, Woitombo, Mowewe, Kabupaten Kolaka Timur",SULAWESI TENGGARA,93571.0,Indonesia, 085242642462,,,-3.9635267,121.7290065,https://maps.google.com/?cid=0x0:0x902dea8c83dd6435,
restaurant,Sulawesi Selatan,COTO MAKASSAR DAENG MUNTU,"XQW5+XRQ, Jl. Poros Kolaka - Rate-rate, Wesalo, Kec. Lalolae, Kabupaten Kolaka, Sulawesi Tenggara 93561","Jl. Poros Kolaka - Rate-rate, Wesalo, Kec. Lalolae, Kabupaten Kolaka",SULAWESI TENGGARA,93561.0,Indonesia,,,,-4.0025254,121.7595939,https://maps.google.com/?cid=0x0:0x6e0962fd5e8c3933,
restaurant,Sesuai untuk keluarga,RESTO KAMPUNG MEKONGGA KOLAKA,"Jl. Mekongga Indah, Tahoa, Kec. Kolaka, Kabupaten Kolaka, Sulawesi Tenggara 93511","Tahoa, Kec. Kolaka, Kabupaten Kolaka",SULAWESI TENGGARA,93511.0,Indonesia,,,,-4.0761512,121.6129322,https://maps.google.com/?cid=0x0:0xb018d8e6898576c0,
restaurant,Kedai Kopi,Aa coffee,"Inebenggi, Mowewe, Kabupaten Kolaka Timur, Sulawesi Tenggara 93571","Mowewe, Kabupaten Kolaka Timur",SULAWESI TENGGARA,93571.0,Indonesia, 082152275781,,,-3.9726984,121.7325923,https://maps.google.com/?cid=0x0:0xe23bfdc2326baf4b,
restaurant,Kedai Kopi,Kedai kocok kocok,"2PGJ+QXR, Inebenggi, Mowewe, Kabupaten Kolaka Timur, Sulawesi Tenggara","Kabupaten Kolaka Timur, Sulawesi Tenggara",SULAWESI TENGGARA,,Indonesia,,,,-3.9730114,121.7323984,https://maps.google.com/?cid=0x0:0xbf54b671f334343f,
restaurant,Pemasok makanan dan minuman katering,Kampong Mekongga,"WJQ6+5F4, Jl. Alam Mekongga, Laloeha, Kec. Kolaka, Kabupaten Kolaka, Sulawesi Tenggara","Kabupaten Kolaka, Sulawesi Tenggara",SULAWESI TENGGARA,,Indonesia, 082193840853,,,-4.0621005,121.6112159,https://maps.google.com/?cid=0x0:0x56e43d84c26342eb,
restaurant,Toko,mowtif store,"jl.poros kec.mowewe perempatan kampung tengah, Kabupaten Kolaka Timur, Sulawesi Tenggara 93571",Kabupaten Kolaka Timur,SULAWESI TENGGARA,93571.0,Indonesia, 081333086080,,,-3.9649864,121.7292721,https://maps.google.com/?cid=0x0:0xb7e1bfcf834053a6,
restaurant,Kafe,Kedai Chizy,"2PHJ+Q75, Inebenggi, Mowewe, Kabupaten Kolaka, Sulawesi Tenggara 93518","Inebenggi, Mowewe, Kabupaten Kolaka",SULAWESI TENGGARA,93518.0,Indonesia,,,,-3.9706196,121.7307466,https://maps.google.com/?cid=0x0:0x9cbb793a410d5f94,
restaurant,Dapur Umum,Daerah Kendari,"RV3X+3C9, Poli-Polia, Kec. Poli-Polia, Kabupaten Kolaka Timur, Sulawesi Tenggara","Kabupaten Kolaka Timur, Sulawesi Tenggara",SULAWESI TENGGARA,,Indonesia, 085398420422,,,-4.1973481,121.8986019,https://maps.google.com/?cid=0x0:0x162c9a3e52cd12c6,
restaurant,Sulawesi Selatan,Sulawesi@Polim,"Jalan Panglima Polim IX No.19 Melawai, Kebayoran Baru Jakarta Selatan, Jl. Panglima Polim IX No.19, RT.7/RW.6, Melawai, Kec. Kby. Baru, Kota Jakarta Selatan, Daerah Khusus Ibukota Jakarta 12160","Kebayoran Baru Jakarta Selatan, Jl. Panglima Polim IX No.19, RT.7/RW.6, Melawai, Kec. Kby. Baru, Kota Jakarta Selatan",SULAWESI TENGGARA,12160.0,Indonesia, 0217245994,,,-6.2494897,106.7996096,https://maps.google.com/?cid=0x0:0x49e55879a11ea18f,
restaurant,Hidangan Laut,Sulawesi@Kemang,"Jl. Kemang Raya (Opposite, Plaza Kemang 88 Jl. Kemang Raya No.87b, RT.10/RW.2, Bangka, Mampang Prapatan, South Jakarta City, Jakarta 12730","Plaza Kemang 88 Jl. Kemang Raya No.87b, RT.10/RW.2, Bangka, Mampang Prapatan, South Jakarta City",SULAWESI TENGGARA,12730.0,Indonesia, 087781809753,,,-6.2704316,106.815198,https://maps.google.com/?cid=0x0:0xbda1a5fe6d7b8a3c,
restaurant,restaurant,Kec. Poli-Polia,"Kabupaten Kolaka Timur, Sulawesi Tenggara","Kabupaten Kolaka Timur, Sulawesi Tenggara",SULAWESI TENGGARA,,Indonesia,,,,-4.207678,121.9022668,https://maps.google.com/?cid=0x0:0x15d99ec13666ac9c,
restaurant,Kedai Kopi,Kedai Manjalita,"RW23+RRJ, Poli-Polia, Kec. Poli-Polia, Kabupaten Kolaka Timur, Sulawesi Tenggara 93573","Poli-Polia, Kec. Poli-Polia, Kabupaten Kolaka Timur",SULAWESI TENGGARA,93573.0,Indonesia,,,,-4.1979139,121.9045022,https://maps.google.com/?cid=0x0:0x4ba4e071a2220eca,
restaurant,Rumah Makan,Rumah Makan Lutfia Salsabila,"RW35+57H, Jl. Poros Rate Rate-Poli Polia, Poli-Polia, Kec. Poli-Polia, Kabupaten Kolaka Timur, Sulawesi Tenggara 93573","Jl. Poros Rate Rate-Poli Polia, Poli-Polia, Kec. Poli-Polia, Kabupaten Kolaka Timur",SULAWESI TENGGARA,93573.0,Indonesia,,,,-4.1970667,121.9082256,https://maps.google.com/?cid=0x0:0x892eb12658dce36e,
restaurant,Restoran,Rumah Makan Langgananku,"Tokai, Kec. Poli-Polia, Kabupaten Kolaka Timur, Sulawesi Tenggara","Kabupaten Kolaka Timur, Sulawesi Tenggara",SULAWESI TENGGARA,,Indonesia, 082348803788,,,-4.2089375,121.9061875,https://maps.google.com/?cid=0x0:0xfa791424f694737d,
restaurant,Konsultan makanan dan minuman,EA Cofee 19,"RW23+7WR, Poli-Polia, Kec. Poli-Polia, Kabupaten Kolaka, Sulawesi Tenggara 93573","Poli-Polia, Kec. Poli-Polia, Kabupaten Kolaka",SULAWESI TENGGARA,93573.0,Indonesia, 085394421855,,,-4.1992714,121.9047716,https://maps.google.com/?cid=0x0:0x878da88fd6ab739f,
restaurant,Kedai Kopi,Ladongi,"QWC2+RPM, Tokai, Kec. Poli-Polia, Kabupaten Kolaka Timur, Sulawesi Tenggara","Kabupaten Kolaka Timur, Sulawesi Tenggara",SULAWESI TENGGARA,,Indonesia,,,,-4.2279225,121.9017954,https://maps.google.com/?cid=0x0:0xfb58f6c39c2439dc,
restaurant,Kedai Kopi,Museum caffee,"QWR4+CVM, Tokai, Kec. Poli-Polia, Kabupaten Kolaka, Sulawesi Tenggara 93573","Tokai, Kec. Poli-Polia, Kabupaten Kolaka",SULAWESI TENGGARA,93573.0,Indonesia,,,,-4.2089196,121.9071623,https://maps.google.com/?cid=0x0:0xa36cf40b0dabd929,
restaurant,Kedai Kopi,Rizky,"QWR9+XH8, Wia-Wia, Kec. Poli-Polia, Kabupaten Kolaka Timur, Sulawesi Tenggara 93573","Wia-Wia, Kec. Poli-Polia, Kabupaten Kolaka Timur",SULAWESI TENGGARA,93573.0,Indonesia,,,,-4.2075877,121.9189649,https://maps.google.com/?cid=0x0:0xd1a6d2d7efbb46e9,
restaurant,Kedai Kopi,Saw Saw,"QW6G+3XR, Polenga Jaya, Kec. Poli-Polia, Kabupaten Kolaka Timur, Sulawesi Tenggara","Kabupaten Kolaka Timur, Sulawesi Tenggara",SULAWESI TENGGARA,,Indonesia,,,,-4.2397727,121.927388,https://maps.google.com/?cid=0x0:0xbdbdf483c580ad25,
restaurant,restaurant,,,,SULAWESI TENGGARA,,Indonesia, 082333065993,,,-2.44565,117.8888,https://maps.google.com/?cid=0x0:0xde6a6781dacd4041,
restaurant,restaurant,,,,SULAWESI TENGGARA,,Indonesia, 082333065993,,,-2.44565,117.8888,https://maps.google.com/?cid=0x0:0xc7582449e206c99e,
restaurant,Restoran,Teppoe cafe  resto,"WJHF+XRM, Jl. Pemuda, Balandete, Kec. Kolaka, Kabupaten Kolaka, Sulawesi Tenggara 93561","Jl. Pemuda, Balandete, Kec. Kolaka, Kabupaten Kolaka",SULAWESI TENGGARA,93561.0,Indonesia,,,,-4.0700364,121.6245359,https://maps.google.com/?cid=0x0:0xdd86a54dfa2e8a92,
restaurant,Rumah Makan,RUMAH MAKAN MBA FIRIS,"PWM4+PVQ, Jl. Poros Poli Polia-Penanggo Jaya, Wonuambuteo, Kec. Lambandia, Kabupaten Kolaka Timur, Sulawesi Tenggara 93573","Jl. Poros Poli Polia-Penanggo Jaya, Wonuambuteo, Kec. Lambandia, Kabupaten Kolaka Timur",SULAWESI TENGGARA,93573.0,Indonesia,,,,-4.2656643,121.9072406,https://maps.google.com/?cid=0x0:0x7769a153b10dd3bc,
restaurant,Restoran,PONDOK KANG HADI,"XP5M+XC9, Jl. Poros Kolaka Kendari, Sabilambo, Kec. Kolaka, Kabupaten Kolaka, Sulawesi Tenggara 93561","Jl. Poros Kolaka Kendari, Sabilambo, Kec. Kolaka, Kabupaten Kolaka",SULAWESI TENGGARA,93561.0,Indonesia, 082347738558,,,-4.040077,121.733625,https://maps.google.com/?cid=0x0:0x94a059582bec8ee5,
restaurant,Toko bahan makanan,INDOMARET POLI-POLIA,"RW24+Q54, Poli-Polia, Kec. Poli-Polia, Kabupaten Kolaka, Sulawesi Tenggara 93573","Poli-Polia, Kec. Poli-Polia, Kabupaten Kolaka",SULAWESI TENGGARA,93573.0,Indonesia, 082297923472,,,-4.1981172,121.9054563,https://maps.google.com/?cid=0x0:0xb3ab8510cbc709cd,
restaurant,Konsultan makanan dan minuman,Warung Kopi Flores,"RWJC+H9Q, Jl. Poros Rate Rate-Poli Polia, Welala, Kec. Ladongi, Kabupaten Kolaka Timur, Sulawesi Tenggara 93573","Jl. Poros Rate Rate-Poli Polia, Welala, Kec. Ladongi, Kabupaten Kolaka Timur",SULAWESI TENGGARA,93573.0,Indonesia,,,,-4.1685319,121.9209916,https://maps.google.com/?cid=0x0:0x4d93163934830cd1,
restaurant,restaurant,Poli-Polia,"Kec. Poli-Polia, Kabupaten Kolaka Timur, Sulawesi Tenggara","Kabupaten Kolaka Timur, Sulawesi Tenggara",SULAWESI TENGGARA,,Indonesia,,,,-4.1865835,121.8875679,https://maps.google.com/?cid=0x0:0xe57e9b1d5ca223cc,
restaurant,restaurant,Sulawesi Tenggara 93571,"Kabupaten Kolaka, Sulawesi Tenggara","Kabupaten Kolaka, Sulawesi Tenggara",SULAWESI TENGGARA,,Indonesia,,,,-3.8424079,121.856261,https://maps.google.com/?cid=0x0:0x1bb5ec53427fe729,
restaurant,restaurant,Warung 3 putri,"2RX3+GV9, Tawarombadaka, Kec. Tinondo, Kabupaten Kolaka Timur, Sulawesi Tenggara 93571","Tawarombadaka, Kec. Tinondo, Kabupaten Kolaka Timur",SULAWESI TENGGARA,93571.0,Indonesia,,,,-3.9512191,121.8047337,https://maps.google.com/?cid=0x0:0x58a59391ae56422f,
restaurant,Toko Kelontong Asia,Warung Makan Damai 278,"Jalan Poros, Solewatu, Uluiwoi, Kabupaten Kolaka Timur, Sulawesi Tenggara 93571","Solewatu, Uluiwoi, Kabupaten Kolaka Timur",SULAWESI TENGGARA,93571.0,Indonesia, 085338589783,,,-3.9348837,121.7541507,https://maps.google.com/?cid=0x0:0xe06e87e0f356d332,
restaurant,Padang,Rumah makan uete,"2PPJ+GR, Inebenggi, Mowewe, Kabupaten Kolaka Timur, Sulawesi Tenggara","Kabupaten Kolaka Timur, Sulawesi Tenggara",SULAWESI TENGGARA,,Indonesia,,,,-3.9637047,121.7320525,https://maps.google.com/?cid=0x0:0x73cbd34704c405c8,
restaurant,Rumah Makan,Rumah Makan Putri Mowewe,"XQW5+9MP, Jalan Poros Kolaka - Rate-rate, Horodopi, Mowewe, Wesalo, Kec. Lalolae, Kabupaten Kolaka Timur, Sulawesi Tenggara 93519","Jalan Poros Kolaka - Rate-rate, Horodopi, Mowewe, Wesalo, Kec. Lalolae, Kabupaten Kolaka Timur",SULAWESI TENGGARA,93519.0,Indonesia,,,,-4.0040252,121.7592151,https://maps.google.com/?cid=0x0:0xe45f86a9c7e75a44,
restaurant,Restoran,PONDOK KANG HADI,"XP5M+XC9, Jl. Poros Kolaka Kendari, Sabilambo, Kec. Kolaka, Kabupaten Kolaka, Sulawesi Tenggara 93561","Jl. Poros Kolaka Kendari, Sabilambo, Kec. Kolaka, Kabupaten Kolaka",SULAWESI TENGGARA,93561.0,Indonesia, 082347738558,,,-4.040077,121.733625,https://maps.google.com/?cid=0x0:0x94a059582bec8ee5,
restaurant,Sulawesi Selatan,WARUNG MAKAN POLMAN,"2R2P+QG6, Jl. Poros Kolaka - Rate-rate, Lalingato, Kec. Tirawuta, Kabupaten Kolaka Timur, Sulawesi Tenggara 93572","Jl. Poros Kolaka - Rate-rate, Lalingato, Kec. Tirawuta, Kabupaten Kolaka Timur",SULAWESI TENGGARA,93572.0,Indonesia,,,,-3.9980993,121.8362708,https://maps.google.com/?cid=0x0:0xe3fc53a5f19450fd,
restaurant,Jawa,Rumah Makan Jawa Timur MASAKAN AREK JOMBANG,"Komplek Pasar Lama, Woitombo, Mowewe, Kabupaten Kolaka Timur, Sulawesi Tenggara 93518","Woitombo, Mowewe, Kabupaten Kolaka Timur",SULAWESI TENGGARA,93518.0,Indonesia, 085242856124,,,-3.9552018,121.7337949,https://maps.google.com/?cid=0x0:0xf990996d8b005f9b,
restaurant,Bali,RM Idola,"6XGV+C68, Anggohu, Kec. Tongauna, Kabupaten Konawe, Sulawesi Tenggara 93571","Anggohu, Kec. Tongauna, Kabupaten Konawe",SULAWESI TENGGARA,93571.0,Indonesia,,,,-3.7739749,121.9930904,https://maps.google.com/?cid=0x0:0xebe2e45bf4dde1da,
restaurant,Jawa,Ros Aneka Kuliner,"2PMH+XMW, Woitombo, Mowewe, Kabupaten Kolaka, Sulawesi Tenggara 93518","Woitombo, Mowewe, Kabupaten Kolaka",SULAWESI TENGGARA,93518.0,Indonesia,,,,-3.9650022,121.729213,https://maps.google.com/?cid=0x0:0x5e96fb07d227545c,
restaurant,Sulawesi Selatan,COTO MAKASSAR DAENG MUNTU,"XQW5+XRQ, Jl. Poros Kolaka - Rate-rate, Wesalo, Kec. Lalolae, Kabupaten Kolaka, Sulawesi Tenggara 93561","Jl. Poros Kolaka - Rate-rate, Wesalo, Kec. Lalolae, Kabupaten Kolaka",SULAWESI TENGGARA,93561.0,Indonesia,,,,-4.0025254,121.7595939,https://maps.google.com/?cid=0x0:0x6e0962fd5e8c3933,
restaurant,Rumah Makan,DAPUR ANARUO,"2PJH+5X, Inebenggi, Mowewe, Kabupaten Kolaka, Sulawesi Tenggara 93518","Inebenggi, Mowewe, Kabupaten Kolaka",SULAWESI TENGGARA,93518.0,Indonesia, 081243427252,,,-3.969598,121.7299353,https://maps.google.com/?cid=0x0:0x4f9d53e898131ab9,
restaurant,Rumah Makan,Warung Mattirodeceng,"XQGF+3CR, Jl. Poros Kolaka - Rate-rate, Wesalo, Kec. Lalolae, Kabupaten Kolaka Timur, Sulawesi Tenggara 93571","Jl. Poros Kolaka - Rate-rate, Wesalo, Kec. Lalolae, Kabupaten Kolaka Timur",SULAWESI TENGGARA,93571.0,Indonesia,,,,-4.0247524,121.7735296,https://maps.google.com/?cid=0x0:0xbebf789280bbb490,
restaurant,Sulawesi Selatan,Warung Makan MAROS BULUKUMBA,"2R2P+M7R, Jl. Poros Kolaka - Rate-rate, Lalingato, Kec. Tirawuta, Kabupaten Kolaka Timur, Sulawesi Tenggara 93572","Jl. Poros Kolaka - Rate-rate, Lalingato, Kec. Tirawuta, Kabupaten Kolaka Timur",SULAWESI TENGGARA,93572.0,Indonesia,,,,-3.9982649,121.8356495,https://maps.google.com/?cid=0x0:0x9cf70b5b0e217806,
restaurant,Restoran,Rumah Makan REMAJA,"XQP9+H29, Jl. Poros Kolaka - Rate-rate, Wesalo, Kec. Lalolae, Kabupaten Kolaka, Sulawesi Tenggara 93561","Jl. Poros Kolaka - Rate-rate, Wesalo, Kec. Lalolae, Kabupaten Kolaka",SULAWESI TENGGARA,93561.0,Indonesia, 082251352662,,,-4.0135929,121.7676238,https://maps.google.com/?cid=0x0:0xa39b54bf26d56bfb,
restaurant,Restoran,warung cilok sing song,"2PX9+VHM, Nelombu, Mowewe, Kabupaten Kolaka Timur, Sulawesi Tenggara","Kabupaten Kolaka Timur, Sulawesi Tenggara",SULAWESI TENGGARA,,Indonesia,,,,-3.9513311,121.7193297,https://maps.google.com/?cid=0x0:0xcf849f16c1bc5de9,
restaurant,Rumah Makan,RM CI JANTUNG 3,"XWGG+P4, Woiha, Kec. Tirawuta, Kabupaten Kolaka, Sulawesi Tenggara","Kabupaten Kolaka, Sulawesi Tenggara",SULAWESI TENGGARA,,Indonesia, 0811869730,,,-4.0234461,121.9246975,https://maps.google.com/?cid=0x0:0x88454137ad0fb28,
restaurant,Bakso,Warung Bakso Ojolali,"Jl. Poros Kolaka - Rate-rate No.16, Rate-Rate, Kec. Tirawuta, Kabupaten Kolaka Timur, Sulawesi Tenggara 93572","Rate-Rate, Kec. Tirawuta, Kabupaten Kolaka Timur",SULAWESI TENGGARA,93572.0,Indonesia,,,,-4.0473475,121.8905572,https://maps.google.com/?cid=0x0:0xcf7b084127c3cfe2,
restaurant,Restoran,Rm. Shesar,"XRWJ+X6V, Jl. Poros Kolaka - Rate-rate, Lalingato, Kec. Tirawuta, Kabupaten Kolaka Timur, Sulawesi Tenggara 93572","Jl. Poros Kolaka - Rate-rate, Lalingato, Kec. Tirawuta, Kabupaten Kolaka Timur",SULAWESI TENGGARA,93572.0,Indonesia,,,,-4.0025116,121.8305612,https://maps.google.com/?cid=0x0:0xa3212020bb141ee,
restaurant,Restoran,Rumah Makan Sumber Rejeki,"XWGF+46V, Jl. Poros Rate-rate, Woiha, Kec. Tirawuta, Kabupaten Kolaka Timur, Sulawesi Tenggara 93572","Jl. Poros Rate-rate, Woiha, Kec. Tirawuta, Kabupaten Kolaka Timur",SULAWESI TENGGARA,93572.0,Indonesia,,,,-4.0246402,121.9230513,https://maps.google.com/?cid=0x0:0xe5a527cde36b9aeb,
restaurant,Rumah Makan,Najwa cafe  resto,"Jl. Poros unaaha-abukiDesa, Walay, Kec. Unaaha, Kabupaten Konawe, Sulawesi Tenggara 93452","Walay, Kec. Unaaha, Kabupaten Konawe",SULAWESI TENGGARA,93452.0,Indonesia, 082297950123,,,-3.7866461,121.9660386,https://maps.google.com/?cid=0x0:0x307c13f01f2d1fe6,
restaurant,Kedai Kopi,WAKE UP CAFE,"Jl. Pemuda No.210, Tahoa, Kec. Kolaka, Kabupaten Kolaka, Sulawesi Tenggara 93514","Tahoa, Kec. Kolaka, Kabupaten Kolaka",SULAWESI TENGGARA,93514.0,Indonesia, 0811407733,,,-4.0682621,121.6211435,https://maps.google.com/?cid=0x0:0x878ab502aa91df05,
restaurant,Bar Kopi Espresso,Studio Kopi,"WVPM+HW9, Tasahea, Kec. Tirawuta, Kabupaten Kolaka, Sulawesi Tenggara 93572","Tasahea, Kec. Tirawuta, Kabupaten Kolaka",SULAWESI TENGGARA,93572.0,Indonesia,,,,-4.0635972,121.8848665,https://maps.google.com/?cid=0x0:0x80963688507d2305,
restaurant,Bakso,SUP UBI 3 PUTRI,"XVV6+FXW, Lalingato, Kec. Tirawuta, Kabupaten Kolaka Timur, Sulawesi Tenggara","Kabupaten Kolaka Timur, Sulawesi Tenggara",SULAWESI TENGGARA,,Indonesia,,,,-4.0062621,121.8624669,https://maps.google.com/?cid=0x0:0x7a3850f573c1408a,
restaurant,Indonesia,WM Prasmanan Meohai,"XVW8+PWC, Jl. Perkantoran, Lalingato, Kec. Tirawuta, Kabupaten Kolaka Timur, Sulawesi Tenggara 93572","Jl. Perkantoran, Lalingato, Kec. Tirawuta, Kabupaten Kolaka Timur",SULAWESI TENGGARA,93572.0,Indonesia,,,,-4.0032045,121.8672493,https://maps.google.com/?cid=0x0:0xad2f3990342d3be3,
restaurant,Rumah Makan,warung makan soppeng,"XQJC+J5Q, Wesalo, Kec. Lalolae, Kabupaten Kolaka Timur, Sulawesi Tenggara","Kabupaten Kolaka Timur, Sulawesi Tenggara",SULAWESI TENGGARA,,Indonesia, 082210400221,,,-4.0184054,121.7704889,https://maps.google.com/?cid=0x0:0xca195f6c68f775c8,
restaurant,Brunch,Rm JANGGO,"529R+WRC, Mekar Sari, Kec. Tongauna, Kabupaten Konawe, Sulawesi Tenggara 93413","Mekar Sari, Kec. Tongauna, Kabupaten Konawe",SULAWESI TENGGARA,93413.0,Indonesia,,,,-3.83018,122.0420193,https://maps.google.com/?cid=0x0:0x59f2b45aaffa5fd4,
restaurant,Rumah Makan,Kedai zahra,"Dusun 2, desa, Simbune, Kec. Tirawuta, Kabupaten Kolaka Timur, Sulawesi Tenggara 93572","desa, Simbune, Kec. Tirawuta, Kabupaten Kolaka Timur",SULAWESI TENGGARA,93572.0,Indonesia, 085298293382,,,-4.0150089,121.8765357,https://maps.google.com/?cid=0x0:0x96ef4d7ba519e2e5,
restaurant,Toko bahan makanan,BFC Fried Chicken,"XVRC+922, Lalingato, Kec. Tirawuta, Kabupaten Kolaka, Sulawesi Tenggara 93572","Lalingato, Kec. Tirawuta, Kabupaten Kolaka",SULAWESI TENGGARA,93572.0,Indonesia,,,,-4.0091035,121.8700163,https://maps.google.com/?cid=0x0:0xe0192c1c77a27d47,
restaurant,restaurant,Sulawesi Tenggara 93572,Sulawesi Tenggara,Sulawesi Tenggara,SULAWESI TENGGARA,,Indonesia,,,,-4.0494144,121.947311,https://maps.google.com/?cid=0x0:0xfdc4defab63a0262,
restaurant,Nasi,Warung Makan Pangkep,"XV3M+7WC, Jl. Poros Kolaka, Rate-Rate, Kec. Tirawuta, Kabupaten Kolaka Timur, Sulawesi Tenggara 93572","Jl. Poros Kolaka, Rate-Rate, Kec. Tirawuta, Kabupaten Kolaka Timur",SULAWESI TENGGARA,93572.0,Indonesia,,,,-4.046823,121.8847764,https://maps.google.com/?cid=0x0:0x75f1bbed934be34f,
restaurant,Restoran,WARUNG DAPUR KITA,"Tirawuta, Kec. Tirawuta, Kabupaten Kolaka Timur, Sulawesi Tenggara 93572","Kec. Tirawuta, Kabupaten Kolaka Timur",SULAWESI TENGGARA,93572.0,Indonesia, 085326987634,,,-4.0467854,121.8834372,https://maps.google.com/?cid=0x0:0xde2fa55364d7f2f7,
restaurant,Restoran,Rumah Makan Sumber Rejeki,"XWGF+46V, Jl. Poros Rate-rate, Woiha, Kec. Tirawuta, Kabupaten Kolaka Timur, Sulawesi Tenggara 93572","Jl. Poros Rate-rate, Woiha, Kec. Tirawuta, Kabupaten Kolaka Timur",SULAWESI TENGGARA,93572.0,Indonesia,,,,-4.0246402,121.9230513,https://maps.google.com/?cid=0x0:0xe5a527cde36b9aeb,
restaurant,Restoran,Warung Andika 45 khas jawa timur,"XV3V+M2C, Jl. Poros Kolaka - Rate-rate, Rate-Rate, Kec. Tirawuta, Kabupaten Kolaka Timur, Sulawesi Tenggara 93572","Jl. Poros Kolaka - Rate-rate, Rate-Rate, Kec. Tirawuta, Kabupaten Kolaka Timur",SULAWESI TENGGARA,93572.0,Indonesia, 085731925853,,,-4.0458116,121.8925176,https://maps.google.com/?cid=0x0:0xb363577da89f2a5e,
restaurant,Rumah Makan,Kedai zahra,"Dusun 2, desa, Simbune, Kec. Tirawuta, Kabupaten Kolaka Timur, Sulawesi Tenggara 93572","desa, Simbune, Kec. Tirawuta, Kabupaten Kolaka Timur",SULAWESI TENGGARA,93572.0,Indonesia, 085298293382,,,-4.0150089,121.8765357,https://maps.google.com/?cid=0x0:0x96ef4d7ba519e2e5,
restaurant,Rumah Makan,Rumah Makan Putri Koltim,"XV3W+MQ3, Rate-Rate, Kec. Tirawuta, Kabupaten Kolaka, Sulawesi Tenggara 93572","Rate-Rate, Kec. Tirawuta, Kabupaten Kolaka",SULAWESI TENGGARA,93572.0,Indonesia,,,,-4.0458556,121.8969286,https://maps.google.com/?cid=0x0:0x78214525d5d2ff60,
restaurant,Restoran,Warung Coto Paraikatte,"XV2Q+MVC, Rate-Rate, Kec. Tirawuta, Kabupaten Kolaka, Sulawesi Tenggara 93572","Rate-Rate, Kec. Tirawuta, Kabupaten Kolaka",SULAWESI TENGGARA,93572.0,Indonesia,,,,-4.0483049,121.8896382,https://maps.google.com/?cid=0x0:0x98f97babe64cf837,
restaurant,Ayam,Sari Laut Mas Yoyok,"XV3X+Q9X, Rate-Rate, Kec. Tirawuta, Kabupaten Kolaka, Sulawesi Tenggara 93572","Rate-Rate, Kec. Tirawuta, Kabupaten Kolaka",SULAWESI TENGGARA,93572.0,Indonesia,,,,-4.0455191,121.8984782,https://maps.google.com/?cid=0x0:0x3354c5af8f4c58b7,
restaurant,Sate,Rm marwah,"trans Sulawesi, Jl. Poros Rate-rate Ladongi Road, Rate-Rate, Kec. Tirawuta, Kabupaten Kolaka Timur, Sulawesi Tenggara 93572","Jl. Poros Rate-rate Ladongi Road, Rate-Rate, Kec. Tirawuta, Kabupaten Kolaka Timur",SULAWESI TENGGARA,93572.0,Indonesia,,,,-4.0513318,121.8900439,https://maps.google.com/?cid=0x0:0xd2eb2f21d1ad2545,
restaurant,Rumah Makan,RM CI JANTUNG 3,"XWGG+P4, Woiha, Kec. Tirawuta, Kabupaten Kolaka, Sulawesi Tenggara","Kabupaten Kolaka, Sulawesi Tenggara",SULAWESI TENGGARA,,Indonesia, 0811869730,,,-4.0234461,121.9246975,https://maps.google.com/?cid=0x0:0x88454137ad0fb28,
restaurant,Jawa,Warung Rezky,"XV3R+GRP, Jl. Poros Kolaka - Rate-rate, Rate-Rate, Kec. Tirawuta, Kabupaten Kolaka Timur, Sulawesi Tenggara 93572","Jl. Poros Kolaka - Rate-rate, Rate-Rate, Kec. Tirawuta, Kabupaten Kolaka Timur",SULAWESI TENGGARA,93572.0,Indonesia,,,,-4.046153,121.8920652,https://maps.google.com/?cid=0x0:0x9477aba8c26fabdd,
restaurant,Restoran,SARI LAUT MAS LUTFI,"Tawainalu, Kec. Tirawuta, Kabupaten Kolaka Timur, Sulawesi Tenggara 93572","Kec. Tirawuta, Kabupaten Kolaka Timur",SULAWESI TENGGARA,93572.0,Indonesia,,,,-4.0256611,121.9383804,https://maps.google.com/?cid=0x0:0xaf269f3159c70f2a,
restaurant,Soto,Coto Makassar Gratis Ketupat + Es Teh,"WVPM+HWQ, Tasahea, Kec. Tirawuta, Kabupaten Kolaka, Sulawesi Tenggara 93572","Tasahea, Kec. Tirawuta, Kabupaten Kolaka",SULAWESI TENGGARA,93572.0,Indonesia,,,,-4.0635393,121.8848675,https://maps.google.com/?cid=0x0:0xcace48f8df6e56e3,
restaurant,Rumah Makan,Rumah Makan Sidodadi,"WV4R+CWV, Jl. Poros, Lamoare, Kec. Loea, Kabupaten Kolaka Timur, Sulawesi Tenggara 93572","Jl. Poros, Lamoare, Kec. Loea, Kabupaten Kolaka Timur",SULAWESI TENGGARA,93572.0,Indonesia,,,,-4.0938823,121.8923021,https://maps.google.com/?cid=0x0:0xa0edbbfad6b13be9,
restaurant,Sulawesi Selatan,WARUNG MAKAN POLMAN,"2R2P+QG6, Jl. Poros Kolaka - Rate-rate, Lalingato, Kec. Tirawuta, Kabupaten Kolaka Timur, Sulawesi Tenggara 93572","Jl. Poros Kolaka - Rate-rate, Lalingato, Kec. Tirawuta, Kabupaten Kolaka Timur",SULAWESI TENGGARA,93572.0,Indonesia,,,,-3.9980993,121.8362708,https://maps.google.com/?cid=0x0:0xe3fc53a5f19450fd,
restaurant,Rumah Makan,Warung Laperfull,"XV2R+VJQ, Jl. Bolo, Rate-Rate, Kec. Tirawuta, Kabupaten Kolaka Timur, Sulawesi Tenggara 93572","Jl. Bolo, Rate-Rate, Kec. Tirawuta, Kabupaten Kolaka Timur",SULAWESI TENGGARA,93572.0,Indonesia,,,,-4.0477879,121.8916221,https://maps.google.com/?cid=0x0:0xcbb83276f8458b69,
restaurant,Martabak,Martabak Terang Bulan manis,"XV3V+JW7, Jl. M. Nur Latamoro, Rate-Rate, Kec. Tirawuta, Kabupaten Kolaka Timur, Sulawesi Tenggara 93572","Jl. M. Nur Latamoro, Rate-Rate, Kec. Tirawuta, Kabupaten Kolaka Timur",SULAWESI TENGGARA,93572.0,Indonesia,,,,-4.0459525,121.8948023,https://maps.google.com/?cid=0x0:0x5304a3c38efb8305,
restaurant,Soto,Warung Coto Kita,"XV3Q+H8C, Jl. Poros Kolaka - Rate-rate, Tirawuta, Kec. Tirawuta, Kabupaten Kolaka Timur, Sulawesi Tenggara 93572","Jl. Poros Kolaka - Rate-rate, Tirawuta, Kec. Tirawuta, Kabupaten Kolaka Timur",SULAWESI TENGGARA,93572.0,Indonesia,,,,-4.0460597,121.8882686,https://maps.google.com/?cid=0x0:0x1e5356e47d240377,
restaurant,Restoran,KEDAI AA AL RAZZAQ,"XWGM+9R9, Jl. Poros Rate-rate, Tawainalu, Kec. Tirawuta, Kabupaten Kolaka, Sulawesi Tenggara 93572","Jl. Poros Rate-rate, Tawainalu, Kec. Tirawuta, Kabupaten Kolaka",SULAWESI TENGGARA,93572.0,Indonesia, 081342447545,,,-4.0240808,121.9345948,https://maps.google.com/?cid=0x0:0xefc877e6a30c9648,
restaurant,Brunch,KEDAI RR Al FAZZA,"Jl. Poros Rate-rate No.16, Tumbudadio, Kec. Tirawuta, Kabupaten Kolaka Timur, Sulawesi Tenggara 93572","Tumbudadio, Kec. Tirawuta, Kabupaten Kolaka Timur",SULAWESI TENGGARA,93572.0,Indonesia, 085226344412,,,-4.0261444,121.9416673,https://maps.google.com/?cid=0x0:0xa6f4a9cc0992b557,
restaurant,Rumah Makan,Rumah Makan AFIFA,"XV3X+RFJ, Orawa, Kec. Tirawuta, Kabupaten Kolaka, Sulawesi Tenggara 93572","Orawa, Kec. Tirawuta, Kabupaten Kolaka",SULAWESI TENGGARA,93572.0,Indonesia,,,,-4.0454301,121.8987216,https://maps.google.com/?cid=0x0:0x5a21bfee07e5cd64,
restaurant,Sup,Sop Saudara Tondong Tallasa,"XW75+CM, Orawa, Kec. Tirawuta, Kabupaten Kolaka, Sulawesi Tenggara 93572","Orawa, Kec. Tirawuta, Kabupaten Kolaka",SULAWESI TENGGARA,93572.0,Indonesia,,,,-4.0364319,121.9091294,https://maps.google.com/?cid=0x0:0x65c7e42c4cff01df,
restaurant,Sate,Warung Makan Sate Madura,"XV3Q+8G6, Jl. Poros Kolaka, Rate-Rate, Kec. Tirawuta, Kabupaten Kolaka Timur, Sulawesi Tenggara 93572","Jl. Poros Kolaka, Rate-Rate, Kec. Tirawuta, Kabupaten Kolaka Timur",SULAWESI TENGGARA,93572.0,Indonesia,,,,-4.0467215,121.8887554,https://maps.google.com/?cid=0x0:0x68d40cb9ac24dedf,
restaurant,restaurant,Sulawesi Tenggara 93575,"Kabupaten Kolaka, Sulawesi Tenggara","Kabupaten Kolaka, Sulawesi Tenggara",SULAWESI TENGGARA,,Indonesia,,,,-3.5101108,121.3998995,https://maps.google.com/?cid=0x0:0xc8b7a5389edae68c,
restaurant,Toko Kelontong Asia,Warung Makan Damai 278,"Jalan Poros, Solewatu, Uluiwoi, Kabupaten Kolaka Timur, Sulawesi Tenggara 93571","Solewatu, Uluiwoi, Kabupaten Kolaka Timur",SULAWESI TENGGARA,93571.0,Indonesia, 085338589783,,,-3.9348837,121.7541507,https://maps.google.com/?cid=0x0:0xe06e87e0f356d332,
restaurant,Hidangan Laut,RM Baruga Seafood,"XFPQ+7GF, Jl. Poros Kolaka - Wolo, Lawulo, Kec. Samaturu, Kabupaten Kolaka, Sulawesi Tenggara 93512","Jl. Poros Kolaka - Wolo, Lawulo, Kec. Samaturu, Kabupaten Kolaka",SULAWESI TENGGARA,93512.0,Indonesia, 082345672448,,,-4.0143087,121.4888005,https://maps.google.com/?cid=0x0:0xf3eaa9db661839ba,
restaurant,Restoran,Teppoe cafe  resto,"WJHF+XRM, Jl. Pemuda, Balandete, Kec. Kolaka, Kabupaten Kolaka, Sulawesi Tenggara 93561","Jl. Pemuda, Balandete, Kec. Kolaka, Kabupaten Kolaka",SULAWESI TENGGARA,93561.0,Indonesia,,,,-4.0700364,121.6245359,https://maps.google.com/?cid=0x0:0xdd86a54dfa2e8a92,
restaurant,Dapur Umum,rumah elma,"8GHP+HG3, Ueesi, Kec. Uluiwoi, Kabupaten Kolaka Timur, Sulawesi Tenggara","Kabupaten Kolaka Timur, Sulawesi Tenggara",SULAWESI TENGGARA,,Indonesia,,,,-3.6711027,121.5363062,https://maps.google.com/?cid=0x0:0x7511b8d07bfa05b3,
restaurant,Makanan Kecil,Warung Makan Ceria,"38XR+WGW, Jl. Poros Ranteangin - Kolaka, Ulu Lapao-Pao, Kec. Wolo, Kabupaten Kolaka, Sulawesi Tenggara 93915","Jl. Poros Ranteangin - Kolaka, Ulu Lapao-Pao, Kec. Wolo, Kabupaten Kolaka",SULAWESI TENGGARA,93915.0,Indonesia, 082393189441,,,-3.9001255,121.3413367,https://maps.google.com/?cid=0x0:0x592b9211a0878512,
restaurant,Indonesia,Rumah Makan Wirlan,"WHXR+7XF, Latambaga, Kec. Latambaga, Kabupaten Kolaka, Sulawesi Tenggara 93511","Latambaga, Kec. Latambaga, Kabupaten Kolaka",SULAWESI TENGGARA,93511.0,Indonesia, 04052322645,,,-4.0518142,121.5924104,https://maps.google.com/?cid=0x0:0xb51947b8bc7b003d,
restaurant,Rumah Makan,Rumah Makan Putri Mowewe,"XQW5+9MP, Jalan Poros Kolaka - Rate-rate, Horodopi, Mowewe, Wesalo, Kec. Lalolae, Kabupaten Kolaka Timur, Sulawesi Tenggara 93519","Jalan Poros Kolaka - Rate-rate, Horodopi, Mowewe, Wesalo, Kec. Lalolae, Kabupaten Kolaka Timur",SULAWESI TENGGARA,93519.0,Indonesia,,,,-4.0040252,121.7592151,https://maps.google.com/?cid=0x0:0xe45f86a9c7e75a44,
restaurant,Kedai Kopi,WAKE UP CAFE,"Jl. Pemuda No.210, Tahoa, Kec. Kolaka, Kabupaten Kolaka, Sulawesi Tenggara 93514","Tahoa, Kec. Kolaka, Kabupaten Kolaka",SULAWESI TENGGARA,93514.0,Indonesia, 0811407733,,,-4.0682621,121.6211435,https://maps.google.com/?cid=0x0:0x878ab502aa91df05,
restaurant,Restoran,RM dapur ibu kolaka,"WHVR+RMW, Jl. Merdeka, Latambaga, Kec. Latambaga, Kabupaten Kolaka, Sulawesi Tenggara","Kabupaten Kolaka, Sulawesi Tenggara",SULAWESI TENGGARA,,Indonesia,,,,-4.0553753,121.5917081,https://maps.google.com/?cid=0x0:0x5b2d958ab1201149,
restaurant,Restoran,Warung Andika 45 khas jawa timur,"XV3V+M2C, Jl. Poros Kolaka - Rate-rate, Rate-Rate, Kec. Tirawuta, Kabupaten Kolaka Timur, Sulawesi Tenggara 93572","Jl. Poros Kolaka - Rate-rate, Rate-Rate, Kec. Tirawuta, Kabupaten Kolaka Timur",SULAWESI TENGGARA,93572.0,Indonesia, 085731925853,,,-4.0458116,121.8925176,https://maps.google.com/?cid=0x0:0xb363577da89f2a5e,
restaurant,Restoran,Warung Sari Laut Mas Aris,"Lamokato, Kec. Kolaka, Kabupaten Kolaka, Sulawesi Tenggara 93561","Kec. Kolaka, Kabupaten Kolaka",SULAWESI TENGGARA,93561.0,Indonesia,,,,-4.0573077,121.6021866,https://maps.google.com/?cid=0x0:0x5a25afe52aebe088,
restaurant,Pemasok makanan dan minuman katering,Kampong Mekongga,"WJQ6+5F4, Jl. Alam Mekongga, Laloeha, Kec. Kolaka, Kabupaten Kolaka, Sulawesi Tenggara","Kabupaten Kolaka, Sulawesi Tenggara",SULAWESI TENGGARA,,Indonesia, 082193840853,,,-4.0621005,121.6112159,https://maps.google.com/?cid=0x0:0x56e43d84c26342eb,
restaurant,Rumah Makan,Nasikuning 165,"Jl. Bolu No.35, Sea, Kec. Latambaga, Kabupaten Kolaka, Sulawesi Tenggara","Kabupaten Kolaka, Sulawesi Tenggara",SULAWESI TENGGARA,,Indonesia, 081341596479,,,-4.0531503,121.5889606,https://maps.google.com/?cid=0x0:0x6b905b821e3aa2e9,
restaurant,Padang,Dundung Cafe  Resto,"Jl. Bakti No.18, Latambaga, Kec. Latambaga, Kabupaten Kolaka, Sulawesi Tenggara","Kabupaten Kolaka, Sulawesi Tenggara",SULAWESI TENGGARA,,Indonesia, 082194394253,,,-4.0549074,121.5921924,https://maps.google.com/?cid=0x0:0x1b2558487bdb4e51,
restaurant,Restoran,PONDOK KANG HADI,"XP5M+XC9, Jl. Poros Kolaka Kendari, Sabilambo, Kec. Kolaka, Kabupaten Kolaka, Sulawesi Tenggara 93561","Jl. Poros Kolaka Kendari, Sabilambo, Kec. Kolaka, Kabupaten Kolaka",SULAWESI TENGGARA,93561.0,Indonesia, 082347738558,,,-4.040077,121.733625,https://maps.google.com/?cid=0x0:0x94a059582bec8ee5,
restaurant,Jawa,Warung Jawa Timur,"WJP6+VFV, Laloeha, Kec. Kolaka, Kabupaten Kolaka, Sulawesi Tenggara 93561","Laloeha, Kec. Kolaka, Kabupaten Kolaka",SULAWESI TENGGARA,93561.0,Indonesia,,,,-4.0627569,121.611168,https://maps.google.com/?cid=0x0:0x65a7ffb888823c7,
restaurant,Restoran,Kedai  Resto Barakka,"WHVR+29V, Jl. Dermaga Pelabuhan Ferry, Kabupaten Kolaka, Sulawesi Tenggara","Kabupaten Kolaka, Sulawesi Tenggara",SULAWESI TENGGARA,,Indonesia, 085282951919,,,-4.0573775,121.5909216,https://maps.google.com/?cid=0x0:0x62d1ecacd46002e2,
restaurant,Jawa,Rumah Makan Jawa Timur MASAKAN AREK JOMBANG,"Komplek Pasar Lama, Woitombo, Mowewe, Kabupaten Kolaka Timur, Sulawesi Tenggara 93518","Woitombo, Mowewe, Kabupaten Kolaka Timur",SULAWESI TENGGARA,93518.0,Indonesia, 085242856124,,,-3.9552018,121.7337949,https://maps.google.com/?cid=0x0:0xf990996d8b005f9b,
restaurant,Restoran,RM. NIRWANA,"WHRW+Q6X, Jl. Mekongga Indah, Lamokato, Kec. Kolaka, Kabupaten Kolaka, Sulawesi Tenggara","Kabupaten Kolaka, Sulawesi Tenggara",SULAWESI TENGGARA,,Indonesia,,,,-4.0580067,121.595624,https://maps.google.com/?cid=0x0:0xbc04ba032fe87ee2,
restaurant,Brunch,Rest Area,"73RC+6X6, Walasiho, Kec. Wawo, Kabupaten Kolaka Utara, Sulawesi Tenggara 93956","Walasiho, Kec. Wawo, Kabupaten Kolaka Utara",SULAWESI TENGGARA,93956.0,Indonesia,,,,-3.7094575,121.072396,https://maps.google.com/?cid=0x0:0x48f9e20e3b702079,
restaurant,Padang,PENGINAPAN PARAIKATTE  Rumah Makan,"Jl. Poros Ranteangin - Kolaka, Tamborasi, Kec. Wolo, Kabupaten Kolaka, Sulawesi Tenggara 93552","Tamborasi, Kec. Wolo, Kabupaten Kolaka",SULAWESI TENGGARA,93552.0,Indonesia, 085394565055,,,-3.760462,121.1226294,https://maps.google.com/?cid=0x0:0x395affafab94b50,
restaurant,Rumah Makan,RM. Wisata,"64QF+3R4, Jl. Poros Ranteangin - Kolaka, Tamborasi, Kec. Wolo, Kabupaten Kolaka, Sulawesi Tenggara 93552","Jl. Poros Ranteangin - Kolaka, Tamborasi, Kec. Wolo, Kabupaten Kolaka",SULAWESI TENGGARA,93552.0,Indonesia,,,,-3.7623705,121.1245819,https://maps.google.com/?cid=0x0:0x285b208c3fc097cc,
restaurant,Restoran,Rumah makan UMEGA,"Jl. Poros Olooloho - Lasusua, Sipakainge, Kec. Pakue, Kabupaten Kolaka Utara, Sulawesi Tenggara 93954","Sipakainge, Kec. Pakue, Kabupaten Kolaka Utara",SULAWESI TENGGARA,93954.0,Indonesia, 08534544110,,,-3.2033209,121.0735904,https://maps.google.com/?cid=0x0:0x72009f1ada51ca73,
restaurant,Brunch,MRT Aneka Rasa,"Tolowe Ponrewaru, Kec. Wolo, Kabupaten Kolaka, Sulawesi Tenggara 93557","Kec. Wolo, Kabupaten Kolaka",SULAWESI TENGGARA,93557.0,Indonesia, 081355620803,,,-3.7445418,121.4570447,https://maps.google.com/?cid=0x0:0x4e05893aabf9d886,
restaurant,Indonesia,Ugiee Latali,"V36Q+FPV, Jl. Poros Batuputih - Olooloho, Latali, Kec. Pakue Tengah, Kabupaten Kolaka Utara, Sulawesi Tenggara 93954","Jl. Poros Batuputih - Olooloho, Latali, Kec. Pakue Tengah, Kabupaten Kolaka Utara",SULAWESI TENGGARA,93954.0,Indonesia, 085315321878,,,-3.1387736,121.0892854,https://maps.google.com/?cid=0x0:0xc4c1ebd5d9e9e690,
restaurant,Kedai Kopi,Warung Pantai Indah,"73VC+545, Walasiho, Kec. Wawo, Kabupaten Kolaka Utara, Sulawesi Tenggara 93956","Walasiho, Kec. Wawo, Kabupaten Kolaka Utara",SULAWESI TENGGARA,93956.0,Indonesia, 082291525471,,,-3.7071073,121.0703679,https://maps.google.com/?cid=0x0:0x564ec013f6af8d2c,
restaurant,BBQ Korea,KITCHEN KEA FAM'S ByAlhamJoo,"5767+C69, Jl. Poros Ranteangin - Kolaka, Wolo, Kec. Wolo, Kabupaten Kolaka, Sulawesi Tenggara 93552","Jl. Poros Ranteangin - Kolaka, Wolo, Kec. Wolo, Kabupaten Kolaka",SULAWESI TENGGARA,93552.0,Indonesia, 082187758005,,,-3.8389721,121.2630974,https://maps.google.com/?cid=0x0:0x6d1bf7be55fab0ce,
restaurant,Ayam,Ayam bakar rumahan  Travis kecantikan,"89GM+V46, Lalonggopi, Kec. Wolo, Kabupaten Kolaka, Sulawesi Tenggara","Kabupaten Kolaka, Sulawesi Tenggara",SULAWESI TENGGARA,,Indonesia, 08234884151,,,-3.6728294,121.3827505,https://maps.google.com/?cid=0x0:0x454addc80e08c079,
cafe,cafe,Ladongi,"Ladongi, Kec. Ladongi, Kabupaten Kolaka Timur, Sulawesi Tenggara","Kabupaten Kolaka Timur, Sulawesi Tenggara",SULAWESI TENGGARA,,Indonesia,,,,-4.142409,121.901901,https://maps.google.com/?cid=0x0:0xf976c8583833e88d,
cafe,Kafe,Resto-Cafe,"Welala, Kec. Ladongi, Kabupaten Kolaka, Sulawesi Tenggara 93573","Kec. Ladongi, Kabupaten Kolaka",SULAWESI TENGGARA,93573.0,Indonesia, 082136864677,,,-4.1680823,121.921011,https://maps.google.com/?cid=0x0:0xe619cf75eacc7d41,
cafe,Konsultan makanan dan minuman,Bong Coffee Cafe,"RWQ9+WXH, Welala, Kec. Ladongi, Kabupaten Kolaka, Sulawesi Tenggara 93573","Welala, Kec. Ladongi, Kabupaten Kolaka",SULAWESI TENGGARA,93573.0,Indonesia,,,,-4.1601978,121.9199798,https://maps.google.com/?cid=0x0:0xd0673e7c32af1e4d,
cafe,Kafe,DAYRI COFFEE,"VW27+PWQ, Atula, Kec. Ladongi, Kabupaten Kolaka Timur, Sulawesi Tenggara 93573","Atula, Kec. Ladongi, Kabupaten Kolaka Timur",SULAWESI TENGGARA,93573.0,Indonesia,,,,-4.1497409,121.9150686,https://maps.google.com/?cid=0x0:0x5e398e56be9916fb,
cafe,Kedai Kopi,Rumah Kopi,"Blok K, Gn. Jaya, Kec. Ladongi, Kabupaten Kolaka Timur, Sulawesi Tenggara 93573","Gn. Jaya, Kec. Ladongi, Kabupaten Kolaka Timur",SULAWESI TENGGARA,93573.0,Indonesia, 085240666743,,,-4.1945467,121.9355117,https://maps.google.com/?cid=0x0:0xefdf3781a628d06f,
cafe,Kedai Kopi,Ladongi,"QWC2+RPM, Tokai, Kec. Poli-Polia, Kabupaten Kolaka Timur, Sulawesi Tenggara","Kabupaten Kolaka Timur, Sulawesi Tenggara",SULAWESI TENGGARA,,Indonesia,,,,-4.2279225,121.9017954,https://maps.google.com/?cid=0x0:0xfb58f6c39c2439dc,
cafe,Kedai Kopi,WARKOP 86,"RWW8+58H, Atula, Kec. Ladongi, Kabupaten Kolaka, Sulawesi Tenggara 93573","Atula, Kec. Ladongi, Kabupaten Kolaka",SULAWESI TENGGARA,93573.0,Indonesia, 082348867777,,,-4.1545724,121.9158663,https://maps.google.com/?cid=0x0:0xce4576b2e9445b3d,
cafe,Kedai Kopi,Maindo coffee,"jalan poros rate-rate-ladongi, kel.tababu, kab, Kabupaten Kolaka Timur, Sulawesi Tenggara 93572","kel.tababu, kab, Kabupaten Kolaka Timur",SULAWESI TENGGARA,93572.0,Indonesia, 081341948912,,,-4.0580802,121.888329,https://maps.google.com/?cid=0x0:0x3734a4d3c870ea32,
cafe,Kedai Kopi,GARASI CAFE,"Jl. Usman Rencong No.19, Lamokato, Kec. Kolaka, Kabupaten Kolaka, Sulawesi Tenggara 93516","Lamokato, Kec. Kolaka, Kabupaten Kolaka",SULAWESI TENGGARA,93516.0,Indonesia, 085218283212,,,-4.0589414,121.6033933,https://maps.google.com/?cid=0x0:0x8ff44c645bc9277e,
cafe,Kedai Kopi,Kedai FnK,"RWW8+648, Jl. Abdullah Silondae, Atula, Kec. Ladongi, Kabupaten Kolaka Timur, Sulawesi Tenggara 93573","Jl. Abdullah Silondae, Atula, Kec. Ladongi, Kabupaten Kolaka Timur",SULAWESI TENGGARA,93573.0,Indonesia,,,,-4.1544714,121.9153362,https://maps.google.com/?cid=0x0:0xfffabbab74d948,
cafe,Restoran,RESTO  CAFE,"WJH9+9J5, Jl. Daeng Pasau, Tahoa, Kec. Kolaka, Kabupaten Kolaka, Sulawesi Tenggara 93561","Jl. Daeng Pasau, Tahoa, Kec. Kolaka, Kabupaten Kolaka",SULAWESI TENGGARA,93561.0,Indonesia, 082196045927,,,-4.0716084,121.6191187,https://maps.google.com/?cid=0x0:0x5b46319b25a5592e,
cafe,Kafe,My Cofee Cafee,"WHXW+3R2, Jl. Haluleo, Watuliandu, Kec. Kolaka, Kabupaten Kolaka, Sulawesi Tenggara 93511","Jl. Haluleo, Watuliandu, Kec. Kolaka, Kabupaten Kolaka",SULAWESI TENGGARA,93511.0,Indonesia,,,,-4.0523694,121.5970197,https://maps.google.com/?cid=0x0:0x5e1cc6d08e420bf9,
cafe,Kafe,Zona Cafe  Food Court,"WJQ6+PMF, Jl. Alam Mekongga, Laloeha, Kec. Kolaka, Kabupaten Kolaka, Sulawesi Tenggara 93561","Jl. Alam Mekongga, Laloeha, Kec. Kolaka, Kabupaten Kolaka",SULAWESI TENGGARA,93561.0,Indonesia,,,,-4.0606971,121.6116654,https://maps.google.com/?cid=0x0:0xc6e27ed42675c06c,
cafe,Kafe,District coffee kolaka,"Jl. Mekongga Indah, Lamokato, Kec. Kolaka, Kabupaten Kolaka, Sulawesi Tenggara 93511","Lamokato, Kec. Kolaka, Kabupaten Kolaka",SULAWESI TENGGARA,93511.0,Indonesia, 085330801894,,,-4.0589023,121.597535,https://maps.google.com/?cid=0x0:0xac4263fe6e8c69ac,
cafe,Kafe,Kedai Bhalastea,"Rumah samping lapangan, depan kantor, Kec. Ladongi, Kabupaten Kolaka Timur, Sulawesi Tenggara 93573","depan kantor, Kec. Ladongi, Kabupaten Kolaka Timur",SULAWESI TENGGARA,93573.0,Indonesia, 081243746033,,,-4.1294179,121.9073051,https://maps.google.com/?cid=0x0:0xa6d42194e25fbbb0,
cafe,Konsultan makanan dan minuman,EA Cofee 19,"RW23+7WR, Poli-Polia, Kec. Poli-Polia, Kabupaten Kolaka, Sulawesi Tenggara 93573","Poli-Polia, Kec. Poli-Polia, Kabupaten Kolaka",SULAWESI TENGGARA,93573.0,Indonesia, 085394421855,,,-4.1992714,121.9047716,https://maps.google.com/?cid=0x0:0x878da88fd6ab739f,
cafe,Kafe,Kopi 27,"WVXQ+VVH, Jl. Poros Rate-rate Ladongi Road, Rate-Rate, Kec. Tirawuta, Kabupaten Kolaka Timur, Sulawesi Tenggara 93572","Jl. Poros Rate-rate Ladongi Road, Rate-Rate, Kec. Tirawuta, Kabupaten Kolaka Timur",SULAWESI TENGGARA,93572.0,Indonesia,,,,-4.0503165,121.8897133,https://maps.google.com/?cid=0x0:0xd23ff2cefd50ca83,
cafe,Kafe,Kopi daerah cafe,"Lasusua, Kec. Lasusua, Kabupaten Kolaka Utara, Sulawesi Tenggara 93914","Kec. Lasusua, Kabupaten Kolaka Utara",SULAWESI TENGGARA,93914.0,Indonesia, 08114053553,,,-3.5072341,120.8881014,https://maps.google.com/?cid=0x0:0xea0cef50091568c4,
cafe,Kafe,Warkop Dg Alle,"WJP5+7CR, Jl. Mekongga Indah, Laloeha, Kec. Kolaka, Kabupaten Kolaka, Sulawesi Tenggara 93561","Jl. Mekongga Indah, Laloeha, Kec. Kolaka, Kabupaten Kolaka",SULAWESI TENGGARA,93561.0,Indonesia, 0811405177,,,-4.0642692,121.6085279,https://maps.google.com/?cid=0x0:0x262ae928a9747548,
cafe,Ayam,NASU LIKKU 77,"Depan kantor pos ladongi, samping ziola phone, Atula, Kabupaten Kolaka Timur, Sulawesi Tenggara 93573","samping ziola phone, Atula, Kabupaten Kolaka Timur",SULAWESI TENGGARA,93573.0,Indonesia,,,,-4.1541486,121.9155534,https://maps.google.com/?cid=0x0:0x7269922b70740d62,
cafe,Kedai Kopi,Kedai Restorasi,"VVVX+3J8, Putemata, Kec. Ladongi, Kabupaten Kolaka, Sulawesi Tenggara 93573","Putemata, Kec. Ladongi, Kabupaten Kolaka",SULAWESI TENGGARA,93573.0,Indonesia,,,,-4.107337,121.8990922,https://maps.google.com/?cid=0x0:0xae83c22f7aab1a01,
cafe,Konsultan makanan dan minuman,Baraya Cafe,"RWPC+92G, Welala, Kec. Ladongi, Kabupaten Kolaka, Sulawesi Tenggara 93573","Welala, Kec. Ladongi, Kabupaten Kolaka",SULAWESI TENGGARA,93573.0,Indonesia, 082293940600,,,-4.1640506,121.9200727,https://maps.google.com/?cid=0x0:0x28b0bbce0243c72e,
cafe,Konsultan makanan dan minuman,Warung Kopi Flores,"RWJC+H9Q, Jl. Poros Rate Rate-Poli Polia, Welala, Kec. Ladongi, Kabupaten Kolaka Timur, Sulawesi Tenggara 93573","Jl. Poros Rate Rate-Poli Polia, Welala, Kec. Ladongi, Kabupaten Kolaka Timur",SULAWESI TENGGARA,93573.0,Indonesia,,,,-4.1685319,121.9209916,https://maps.google.com/?cid=0x0:0x4d93163934830cd1,
cafe,Kafe,S2E COFFEE  RESTO,"JGGF+VRQ, Anaiwoi, Tanggetada, Kabupaten Kolaka, Sulawesi Tenggara 93563","Anaiwoi, Tanggetada, Kabupaten Kolaka",SULAWESI TENGGARA,93563.0,Indonesia,,,,-4.3727181,121.5246358,https://maps.google.com/?cid=0x0:0xb06747188f0ab7c9,
cafe,Kantor Pemerintah,Bendungan Ladongi,"RVXQ+HP4, Atula, Kec. Ladongi, Kabupaten Kolaka Timur, Sulawesi Tenggara","Kabupaten Kolaka Timur, Sulawesi Tenggara",SULAWESI TENGGARA,,Indonesia,,,,-4.1511225,121.8893184,https://maps.google.com/?cid=0x0:0x6b684e074edbccf2,
cafe,Kafe,Cafe Alvar,"QXFR+G37, Lembah Subur, Kec. Ladongi, Kabupaten Kolaka, Sulawesi Tenggara 93875","Lembah Subur, Kec. Ladongi, Kabupaten Kolaka",SULAWESI TENGGARA,93875.0,Indonesia, 085341669707,,,-4.226208,121.9901869,https://maps.google.com/?cid=0x0:0x2e6254d6755cf9bd,
cafe,cafe,Kec. Lalolae,"Kabupaten Kolaka Timur, Sulawesi Tenggara","Kabupaten Kolaka Timur, Sulawesi Tenggara",SULAWESI TENGGARA,,Indonesia,,,,-4.0256541,121.7842582,https://maps.google.com/?cid=0x0:0x16745ece4e90ef2b,
cafe,Tujuan Wisata,Area Kafe Puncak Lalingato,"XRWJ+V5C, Lalingato, Kec. Tirawuta, Kabupaten Kolaka, Sulawesi Tenggara 93572","Lalingato, Kec. Tirawuta, Kabupaten Kolaka",SULAWESI TENGGARA,93572.0,Indonesia,,,,-4.0028024,121.8303818,https://maps.google.com/?cid=0x0:0x35324b2729350883,
cafe,Penginapan,Rest Area Puncak Wesalo,"XQW5+QRP, Jl. Poros Kolaka - Rate-rate, Wesalo, Kec. Lalolae, Kabupaten Kolaka Timur, Sulawesi Tenggara 93561","Jl. Poros Kolaka - Rate-rate, Wesalo, Kec. Lalolae, Kabupaten Kolaka Timur",SULAWESI TENGGARA,93561.0,Indonesia,,,,-4.0030433,121.7595645,https://maps.google.com/?cid=0x0:0x4e324a06163844c5,
cafe,Rumah Makan,warung makan soppeng,"XQJC+J5Q, Wesalo, Kec. Lalolae, Kabupaten Kolaka Timur, Sulawesi Tenggara","Kabupaten Kolaka Timur, Sulawesi Tenggara",SULAWESI TENGGARA,,Indonesia, 082210400221,,,-4.0184054,121.7704889,https://maps.google.com/?cid=0x0:0xca195f6c68f775c8,
cafe,cafe,Rumah makan ibu Nasra,"Jl. Poros Kolaka - Rate-rate No.16, Talodo, Kec. Lalolae, Kabupaten Kolaka Timur, Sulawesi Tenggara 93572","Talodo, Kec. Lalolae, Kabupaten Kolaka Timur",SULAWESI TENGGARA,93572.0,Indonesia,,,,-4.0050345,121.8285816,https://maps.google.com/?cid=0x0:0x49f51eb976752aa3,
cafe,Restoran,Rumah Makan REMAJA,"XQP9+H29, Jl. Poros Kolaka - Rate-rate, Wesalo, Kec. Lalolae, Kabupaten Kolaka, Sulawesi Tenggara 93561","Jl. Poros Kolaka - Rate-rate, Wesalo, Kec. Lalolae, Kabupaten Kolaka",SULAWESI TENGGARA,93561.0,Indonesia, 082251352662,,,-4.0135929,121.7676238,https://maps.google.com/?cid=0x0:0xa39b54bf26d56bfb,
cafe,Kedai Kopi,Cafe Halte21,"WHRX+C53, Lamokato, Kec. Kolaka, Kabupaten Kolaka, Sulawesi Tenggara","Kabupaten Kolaka, Sulawesi Tenggara",SULAWESI TENGGARA,,Indonesia, 081245660004,,,-4.0589982,121.5979081,https://maps.google.com/?cid=0x0:0x6d225827adde804b,
cafe,Kafe,Zona Cafe  Food Court,"WJQ6+PMF, Jl. Alam Mekongga, Laloeha, Kec. Kolaka, Kabupaten Kolaka, Sulawesi Tenggara 93561","Jl. Alam Mekongga, Laloeha, Kec. Kolaka, Kabupaten Kolaka",SULAWESI TENGGARA,93561.0,Indonesia,,,,-4.0606971,121.6116654,https://maps.google.com/?cid=0x0:0xc6e27ed42675c06c,
cafe,cafe,Kios ibu Nasra,"Jl. Poros Kolaka - Rate-rate No.16, Talodo, Kec. Lalolae, Kabupaten Kolaka Timur, Sulawesi Tenggara 93572","Talodo, Kec. Lalolae, Kabupaten Kolaka Timur",SULAWESI TENGGARA,93572.0,Indonesia,,,,-4.0049842,121.8285771,https://maps.google.com/?cid=0x0:0x9776af06aa03fa2,
cafe,Kafe,Nano Nano Cafe,"Jl. Pramuka No.93, Lamokato, Kec. Kolaka, Kabupaten Kolaka, Sulawesi Tenggara","Kabupaten Kolaka, Sulawesi Tenggara",SULAWESI TENGGARA,,Indonesia, 04052326499,,,-4.0565161,121.5958931,https://maps.google.com/?cid=0x0:0xe604ec4f347517f0,
cafe,Kedai Kopi,Rm hafisa,"Jl. Poros Kolaka - Rate-rate No.16, Talodo, Kec. Lalolae, Kabupaten Kolaka Timur, Sulawesi Tenggara 93571","Talodo, Kec. Lalolae, Kabupaten Kolaka Timur",SULAWESI TENGGARA,93571.0,Indonesia,,,,-4.0013546,121.8208161,https://maps.google.com/?cid=0x0:0x4e1c693ae4b9ad82,
cafe,Kafe,My Cofee Cafee,"WHXW+3R2, Jl. Haluleo, Watuliandu, Kec. Kolaka, Kabupaten Kolaka, Sulawesi Tenggara 93511","Jl. Haluleo, Watuliandu, Kec. Kolaka, Kabupaten Kolaka",SULAWESI TENGGARA,93511.0,Indonesia,,,,-4.0523694,121.5970197,https://maps.google.com/?cid=0x0:0x5e1cc6d08e420bf9,
cafe,Toko bahan makanan,Indomaret Lalolae,"Jl. Poros Kolaka - Rate-rate No.Timur, Lalolae, Kec. Lalolae, Kabupaten Kolaka Timur, Sulawesi Tenggara 93571","Lalolae, Kec. Lalolae, Kabupaten Kolaka Timur",SULAWESI TENGGARA,93571.0,Indonesia,,,,-4.0251746,121.7821892,https://maps.google.com/?cid=0x0:0xff057c9aa1a8e497,
cafe,Kafe,KEDAI SIMPANG TIGA HORODOPI,"2P5V+PF7, Horodopi, Mowewe, Kabupaten Kolaka, Sulawesi Tenggara 93519","Horodopi, Mowewe, Kabupaten Kolaka",SULAWESI TENGGARA,93519.0,Indonesia, 082301326379,,,-3.990705,121.7436765,https://maps.google.com/?cid=0x0:0x4f01aae6ef96d769,
cafe,Rumah Makan,Rumah Makan Putri Mowewe,"XQW5+9MP, Jalan Poros Kolaka - Rate-rate, Horodopi, Mowewe, Wesalo, Kec. Lalolae, Kabupaten Kolaka Timur, Sulawesi Tenggara 93519","Jalan Poros Kolaka - Rate-rate, Horodopi, Mowewe, Wesalo, Kec. Lalolae, Kabupaten Kolaka Timur",SULAWESI TENGGARA,93519.0,Indonesia,,,,-4.0040252,121.7592151,https://maps.google.com/?cid=0x0:0xe45f86a9c7e75a44,
cafe,Padang,Rumah makan 2 putri,"Wesalo, Kec. Lalolae, Kabupaten Kolaka Timur, Sulawesi Tenggara","Kabupaten Kolaka Timur, Sulawesi Tenggara",SULAWESI TENGGARA,,Indonesia, 085281874162,,,-4.0133899,121.7674936,https://maps.google.com/?cid=0x0:0x4a92bfe1bbcfa3df,
cafe,cafe,Desa lalingato,"XRQX+PM, Lalingato, Kec. Tirawuta, Kabupaten Kolaka Timur, Sulawesi Tenggara","Kabupaten Kolaka Timur, Sulawesi Tenggara",SULAWESI TENGGARA,,Indonesia,,,,-4.010685,121.8491959,https://maps.google.com/?cid=0x0:0xc3c4ce3c5769071,
cafe,Sulawesi Selatan,COTO MAKASSAR DAENG MUNTU,"XQW5+XRQ, Jl. Poros Kolaka - Rate-rate, Wesalo, Kec. Lalolae, Kabupaten Kolaka, Sulawesi Tenggara 93561","Jl. Poros Kolaka - Rate-rate, Wesalo, Kec. Lalolae, Kabupaten Kolaka",SULAWESI TENGGARA,93561.0,Indonesia,,,,-4.0025254,121.7595939,https://maps.google.com/?cid=0x0:0x6e0962fd5e8c3933,
cafe,Kafe,IBONK Coffee,"Jl. Poros Lasusua - Ranteangin, Lasusua, Kec. Lasusua, Kabupaten Kolaka Utara, Sulawesi Tenggara 93913","Lasusua, Kec. Lasusua, Kabupaten Kolaka Utara",SULAWESI TENGGARA,93913.0,Indonesia, 081343999046,,,-3.5030394,120.8864102,https://maps.google.com/?cid=0x0:0x4e0b78e3d78d21bb,
cafe,Bar Kopi Espresso,Aj Cafe Mowewe,"Lorong Tambeani, Woitombo, Mowewe, Kabupaten Kolaka Timur, Sulawesi Tenggara 93571","Woitombo, Mowewe, Kabupaten Kolaka Timur",SULAWESI TENGGARA,93571.0,Indonesia, 082393217897,,,-3.9622674,121.7248558,https://maps.google.com/?cid=0x0:0x3da053f2e80537f4,
cafe,Kedai Kopi,Eloka Coffee Kolaka,"Jl. Doktor Sutomo No.8, Lamokato, Kec. Kolaka, Kabupaten Kolaka, Sulawesi Tenggara","Kabupaten Kolaka, Sulawesi Tenggara",SULAWESI TENGGARA,,Indonesia, 082310853693,,,-4.0605941,121.5960262,https://maps.google.com/?cid=0x0:0x9e392ec062ad9aad,
cafe,Sulawesi Selatan,WARUNG MAKAN POLMAN,"2R2P+QG6, Jl. Poros Kolaka - Rate-rate, Lalingato, Kec. Tirawuta, Kabupaten Kolaka Timur, Sulawesi Tenggara 93572","Jl. Poros Kolaka - Rate-rate, Lalingato, Kec. Tirawuta, Kabupaten Kolaka Timur",SULAWESI TENGGARA,93572.0,Indonesia,,,,-3.9980993,121.8362708,https://maps.google.com/?cid=0x0:0xe3fc53a5f19450fd,
cafe,Kedai Kopi,Eloka Coffee,"Pelambua, Kec. Pomalaa, Kabupaten Kolaka, Sulawesi Tenggara","Kabupaten Kolaka, Sulawesi Tenggara",SULAWESI TENGGARA,,Indonesia, 082310853693,,,-4.1773069,121.6237313,https://maps.google.com/?cid=0x0:0xee23ccd751052672,
cafe,Kedai Kopi,Cendol tape Tante Mea,"2PGJ+VWM, Inebenggi, Mowewe, Kabupaten Kolaka Timur, Sulawesi Tenggara","Kabupaten Kolaka Timur, Sulawesi Tenggara",SULAWESI TENGGARA,,Indonesia,,,,-3.9727857,121.7323099,https://maps.google.com/?cid=0x0:0xb5500d2452390708,
cafe,Restoran,PONDOK KANG HADI,"XP5M+XC9, Jl. Poros Kolaka Kendari, Sabilambo, Kec. Kolaka, Kabupaten Kolaka, Sulawesi Tenggara 93561","Jl. Poros Kolaka Kendari, Sabilambo, Kec. Kolaka, Kabupaten Kolaka",SULAWESI TENGGARA,93561.0,Indonesia, 082347738558,,,-4.040077,121.733625,https://maps.google.com/?cid=0x0:0x94a059582bec8ee5,
cafe,Kedai Kopi,O.Lo Coffee,"Depan Kampus USN, Jl. Pemuda No.316, Balandete, Kec. Kolaka, Kabupaten Kolaka, Sulawesi Tenggara 93517","Jl. Pemuda No.316, Balandete, Kec. Kolaka, Kabupaten Kolaka",SULAWESI TENGGARA,93517.0,Indonesia, 082349322340,,,-4.072433,121.6247198,https://maps.google.com/?cid=0x0:0xfdcd82960f8b231e,
cafe,cafe,Sulawesi Tenggara 93573,"Kabupaten Kolaka, Sulawesi Tenggara","Kabupaten Kolaka, Sulawesi Tenggara",SULAWESI TENGGARA,,Indonesia,,,,-4.2654072,121.856261,https://maps.google.com/?cid=0x0:0xeafafa5d78b5c179,
cafe,Kedai Teh,Padaidi Thaitea,"PW29+3QC, Jalan Poros, Lambandia, East Kolaka Regency, South East Sulawesi 93573","Jalan Poros, Lambandia, East Kolaka Regency",SULAWESI TENGGARA,93573.0,Indonesia, 085254219007,,,-4.2998193,121.9194026,https://maps.google.com/?cid=0x0:0x927404aeabcc284a,
cafe,Kafe,Alvarados coffe,"MWXR+FJQ, Penanggo Jaya, Kec. Lambandia, Kabupaten Kolaka, Sulawesi Tenggara 93573","Penanggo Jaya, Kec. Lambandia, Kabupaten Kolaka",SULAWESI TENGGARA,93573.0,Indonesia, 081242715260,,,-4.3012919,121.9416226,https://maps.google.com/?cid=0x0:0x43373d8ef756b051,
cafe,Kedai Kopi,Kedai PANKER,"MWWG+6RC, Depan Masjid Raya, Penanggo Jaya, Kec. Lambandia, Kabupaten Kolaka Timur, Sulawesi Tenggara 93573","Depan Masjid Raya, Penanggo Jaya, Kec. Lambandia, Kabupaten Kolaka Timur",SULAWESI TENGGARA,93573.0,Indonesia, 082344306943,,,-4.3044496,121.9270092,https://maps.google.com/?cid=0x0:0xbf4dd1fba3120165,
cafe,cafe,Kec. Loea,"Kabupaten Kolaka Timur, Sulawesi Tenggara","Kabupaten Kolaka Timur, Sulawesi Tenggara",SULAWESI TENGGARA,,Indonesia,,,,-4.0866248,121.8885897,https://maps.google.com/?cid=0x0:0x3416e72c1ead93b6,
cafe,Kedai Kopi,Kedai Restorasi,"VVVX+3J8, Putemata, Kec. Ladongi, Kabupaten Kolaka, Sulawesi Tenggara 93573","Putemata, Kec. Ladongi, Kabupaten Kolaka",SULAWESI TENGGARA,93573.0,Indonesia,,,,-4.107337,121.8990922,https://maps.google.com/?cid=0x0:0xae83c22f7aab1a01,
cafe,Restoran,KINSHIP CAFE  RESTO,"WVMM+642, Simbalai, Kec. Loea, Kabupaten Kolaka Timur, Sulawesi Tenggara 93572","Simbalai, Kec. Loea, Kabupaten Kolaka Timur",SULAWESI TENGGARA,93572.0,Indonesia, 082322181735,,,-4.0670611,121.8827584,https://maps.google.com/?cid=0x0:0xa6ceb516a91c29fd,
cafe,Rumah Makan,Warung Makan Barokah,"WV5R+5HP, Lamoare, Kec. Loea, Kabupaten Kolaka, Sulawesi Tenggara 93572","Lamoare, Kec. Loea, Kabupaten Kolaka",SULAWESI TENGGARA,93572.0,Indonesia, 085327913713,,,-4.09204,121.8914493,https://maps.google.com/?cid=0x0:0xa1fda7dd52f58891,
cafe,Komplek perumahan,Gede Tama,"WV4P+MX5, Lamoare, Kec. Loea, Kabupaten Kolaka Timur, Sulawesi Tenggara 93572","Lamoare, Kec. Loea, Kabupaten Kolaka Timur",SULAWESI TENGGARA,93572.0,Indonesia, 081245120274,,,-4.0933643,121.8874706,https://maps.google.com/?cid=0x0:0x365226f010381552,
cafe,Bar Kopi Espresso,O'coffee,"XW86+PM8, Jl. Poros Rate-rate, Orawa, Kec. Tirawuta, Kabupaten Kolaka Timur, Sulawesi Tenggara 93572","Jl. Poros Rate-rate, Orawa, Kec. Tirawuta, Kabupaten Kolaka Timur",SULAWESI TENGGARA,93572.0,Indonesia, 082236666943,,,-4.033211,121.9116941,https://maps.google.com/?cid=0x0:0xb59f6f59404f2fbd,
cafe,Tujuan Wisata,Area Kafe Puncak Lalingato,"XRWJ+V5C, Lalingato, Kec. Tirawuta, Kabupaten Kolaka, Sulawesi Tenggara 93572","Lalingato, Kec. Tirawuta, Kabupaten Kolaka",SULAWESI TENGGARA,93572.0,Indonesia,,,,-4.0028024,121.8303818,https://maps.google.com/?cid=0x0:0x35324b2729350883,
cafe,Jawa,Amy Kitchen,"WVFM+R5P, Tim., Simbalai, Kec. Loea, Kabupaten Kolaka Timur, Sulawesi Tenggara 93572","Tim., Simbalai, Kec. Loea, Kabupaten Kolaka Timur",SULAWESI TENGGARA,93572.0,Indonesia, 085398401199,,,-4.0754041,121.8829431,https://maps.google.com/?cid=0x0:0x1ae2c9404bf02577,
cafe,Kedai Kopi,Maindo coffee,"jalan poros rate-rate-ladongi, kel.tababu, kab, Kabupaten Kolaka Timur, Sulawesi Tenggara 93572","kel.tababu, kab, Kabupaten Kolaka Timur",SULAWESI TENGGARA,93572.0,Indonesia, 081341948912,,,-4.0580802,121.888329,https://maps.google.com/?cid=0x0:0x3734a4d3c870ea32,
cafe,Kafe,Meambo Coffee,"XV3Q+6V7, Rate-Rate, Kec. Tirawuta, Kabupaten Kolaka, Sulawesi Tenggara 93572","Rate-Rate, Kec. Tirawuta, Kabupaten Kolaka",SULAWESI TENGGARA,93572.0,Indonesia,,,,-4.0469689,121.8896624,https://maps.google.com/?cid=0x0:0x56ea19e419890b0d,
cafe,Restoran,Rumah Makan AZZAHRA  Kios,"WW74+XV5, Lalowura, Kec. Loea, Kabupaten Kolaka, Sulawesi Tenggara 93572","Lalowura, Kec. Loea, Kabupaten Kolaka",SULAWESI TENGGARA,93572.0,Indonesia, 085225104289,,,-4.0851223,121.9072266,https://maps.google.com/?cid=0x0:0x3c47090714b2ca64,
cafe,Konsultan makanan dan minuman,miniRestoElsa,"VWQ2+F27, Jl. Poros, Lalowosula, Kec. Ladongi, Kabupaten Kolaka Timur, Sulawesi Tenggara 93573","Jl. Poros, Lalowosula, Kec. Ladongi, Kabupaten Kolaka Timur",SULAWESI TENGGARA,93573.0,Indonesia, 081343751006,,,-4.1113411,121.9000581,https://maps.google.com/?cid=0x0:0x8ac310ebbc214306,
cafe,Kafe,TWENTY FOUR _ Coffee^Eatery,"WHRX+CJ7, Lamokato, Kec. Kolaka, Kabupaten Kolaka, Sulawesi Tenggara","Kabupaten Kolaka, Sulawesi Tenggara",SULAWESI TENGGARA,,Indonesia, 081243204012,,,-4.0589734,121.5990454,https://maps.google.com/?cid=0x0:0x777ac407e5044923,
cafe,Kafe,Zona Cafe  Food Court,"WJQ6+PMF, Jl. Alam Mekongga, Laloeha, Kec. Kolaka, Kabupaten Kolaka, Sulawesi Tenggara 93561","Jl. Alam Mekongga, Laloeha, Kec. Kolaka, Kabupaten Kolaka",SULAWESI TENGGARA,93561.0,Indonesia,,,,-4.0606971,121.6116654,https://maps.google.com/?cid=0x0:0xc6e27ed42675c06c,
cafe,Bar Kopi Espresso,AKU KOPI,"Jl. Bolo No.185, Rate-Rate, Kec. Tirawuta, Kabupaten Kolaka Timur, Sulawesi Tenggara 93572","Rate-Rate, Kec. Tirawuta, Kabupaten Kolaka Timur",SULAWESI TENGGARA,93572.0,Indonesia, 082192814460,,,-4.0475317,121.8926199,https://maps.google.com/?cid=0x0:0x98e24db8a8ed2d7c,
cafe,Bar Kopi Espresso,Studio Kopi,"WVPM+HW9, Tasahea, Kec. Tirawuta, Kabupaten Kolaka, Sulawesi Tenggara 93572","Tasahea, Kec. Tirawuta, Kabupaten Kolaka",SULAWESI TENGGARA,93572.0,Indonesia,,,,-4.0635972,121.8848665,https://maps.google.com/?cid=0x0:0x80963688507d2305,
cafe,Bar Kopi Espresso,Cangkir Coffee 99,"XV3W+MQ7, Jalan Poros, Rate-Rate, Tirawuta, East Kolaka Regency, South East Sulawesi 93572","Jalan Poros, Rate-Rate, Tirawuta, East Kolaka Regency",SULAWESI TENGGARA,93572.0,Indonesia,,,,-4.0458408,121.8969121,https://maps.google.com/?cid=0x0:0x100baafd1142deac,
cafe,Kafe,BOS EKO CAFE,"Jl. Poros Kolaka - Rate-rate No.16, Tirawuta, Kec. Tirawuta, Kabupaten Kolaka Timur, Sulawesi Tenggara 93572","Tirawuta, Kec. Tirawuta, Kabupaten Kolaka Timur",SULAWESI TENGGARA,93572.0,Indonesia, 082284382899,,,-4.0469304,121.8836643,https://maps.google.com/?cid=0x0:0xa68231dc06e8f460,
cafe,Kafe,Nano Nano Cafe,"Jl. Pramuka No.93, Lamokato, Kec. Kolaka, Kabupaten Kolaka, Sulawesi Tenggara","Kabupaten Kolaka, Sulawesi Tenggara",SULAWESI TENGGARA,,Indonesia, 04052326499,,,-4.0565161,121.5958931,https://maps.google.com/?cid=0x0:0xe604ec4f347517f0,
cafe,Rumah Makan,Rumah Makan Sidodadi,"WV4R+CWV, Jl. Poros, Lamoare, Kec. Loea, Kabupaten Kolaka Timur, Sulawesi Tenggara 93572","Jl. Poros, Lamoare, Kec. Loea, Kabupaten Kolaka Timur",SULAWESI TENGGARA,93572.0,Indonesia,,,,-4.0938823,121.8923021,https://maps.google.com/?cid=0x0:0xa0edbbfad6b13be9,
cafe,Kedai Kopi,Kedai Sea,"Jl. Veteran No.189, Rate-Rate, Kec. Tirawuta, Kabupaten Kolaka Timur, Sulawesi Tenggara 93572","Rate-Rate, Kec. Tirawuta, Kabupaten Kolaka Timur",SULAWESI TENGGARA,93572.0,Indonesia, 081242904034,,,-4.044067,121.897699,https://maps.google.com/?cid=0x0:0xd198a777146628ea,
cafe,Kafe,Kopi 27,"WVXQ+VVH, Jl. Poros Rate-rate Ladongi Road, Rate-Rate, Kec. Tirawuta, Kabupaten Kolaka Timur, Sulawesi Tenggara 93572","Jl. Poros Rate-rate Ladongi Road, Rate-Rate, Kec. Tirawuta, Kabupaten Kolaka Timur",SULAWESI TENGGARA,93572.0,Indonesia,,,,-4.0503165,121.8897133,https://maps.google.com/?cid=0x0:0xd23ff2cefd50ca83,
cafe,Kafe,Cafe Kedai L.O.E.,"Jl. Serua Raya No.8, Serua, Kec. Bojongsari, Kota Depok, Jawa Barat 16517","Serua, Kec. Bojongsari, Kota Depok",SULAWESI TENGGARA,16517.0,Indonesia, 085156590808,,,-6.3694971,106.7405163,https://maps.google.com/?cid=0x0:0x7174e8b7a8987b63,
cafe,Kedai Kopi,Lare Coffee  Eatery,"Jl. Lestari No.11, RT.11/RW.3, Kalisari, Kec. Ps. Rebo, Kota Jakarta Timur, Daerah Khusus Ibukota Jakarta 13790","RT.11/RW.3, Kalisari, Kec. Ps. Rebo, Kota Jakarta Timur",SULAWESI TENGGARA,13790.0,Indonesia, 081288460351,,,-6.3327865,106.8503065,https://maps.google.com/?cid=0x0:0xa337832821b89971,
cafe,Kafe,LOE Cafe,"Jl. Kemang Timur No.90, RT.1/RW.3, Bangka, Kec. Mampang Prpt., Kota Jakarta Selatan, Daerah Khusus Ibukota Jakarta 12730","RT.1/RW.3, Bangka, Kec. Mampang Prpt., Kota Jakarta Selatan",SULAWESI TENGGARA,12730.0,Indonesia,,,,-6.2710808,106.8235951,https://maps.google.com/?cid=0x0:0x48cdae82716d115,
cafe,Kafe,Lo Coffee and Eatery,"Jl. Cakrawala, RT.12/RW.1, Kb. Pala, Kec. Makasar, Kota Jakarta Timur, Daerah Khusus Ibukota Jakarta 13650","RT.12/RW.1, Kb. Pala, Kec. Makasar, Kota Jakarta Timur",SULAWESI TENGGARA,13650.0,Indonesia, 085183048683,,,-6.2636071,106.8832754,https://maps.google.com/?cid=0x0:0x5dd6d65d5914e64a,
cafe,Kedai Kopi,Laiyo Coffee Roasters,"Jl. Baret Biru II No.H 11, Kalisari, Kec. Ps. Rebo, Kota Jakarta Timur, Daerah Khusus Ibukota Jakarta 13790","Kalisari, Kec. Ps. Rebo, Kota Jakarta Timur",SULAWESI TENGGARA,13790.0,Indonesia,,,,-6.3312491,106.8461252,https://maps.google.com/?cid=0x0:0x4ba124722036e478,
cafe,Restoran,Cafe LnO,"CQPV+2Q2, RT.01/RW.03, Kedungbadak, Kec. Tanah Sereal, Kota Bogor, Jawa Barat 16164","RT.01/RW.03, Kedungbadak, Kec. Tanah Sereal, Kota Bogor",SULAWESI TENGGARA,16164.0,Indonesia,,,,-6.5649783,106.7943823,https://maps.google.com/?cid=0x0:0xa47df11dd99a20,
cafe,Kafe,Lakao Cafe,"Jl. Lembah Hijau Raya, Bojonggede, Kecamatan Bojonggede, Kabupaten Bogor, Jawa Barat","Kabupaten Bogor, Jawa Barat",SULAWESI TENGGARA,,Indonesia, 081936626550,,,-6.4963758,106.8047037,https://maps.google.com/?cid=0x0:0x8b5560793f7cf4af,
cafe,cafe,Mowewe,"Kabupaten Kolaka Timur, Sulawesi Tenggara","Kabupaten Kolaka Timur, Sulawesi Tenggara",SULAWESI TENGGARA,,Indonesia,,,,-3.962898,121.7081454,https://maps.google.com/?cid=0x0:0xdd1351df24135eeb,
cafe,Bar Kopi Espresso,Aj Cafe Mowewe,"Lorong Tambeani, Woitombo, Mowewe, Kabupaten Kolaka Timur, Sulawesi Tenggara 93571","Woitombo, Mowewe, Kabupaten Kolaka Timur",SULAWESI TENGGARA,93571.0,Indonesia, 082393217897,,,-3.9622674,121.7248558,https://maps.google.com/?cid=0x0:0x3da053f2e80537f4,
cafe,Rumah Makan,Rumah Makan Putri Mowewe,"XQW5+9MP, Jalan Poros Kolaka - Rate-rate, Horodopi, Mowewe, Wesalo, Kec. Lalolae, Kabupaten Kolaka Timur, Sulawesi Tenggara 93519","Jalan Poros Kolaka - Rate-rate, Horodopi, Mowewe, Wesalo, Kec. Lalolae, Kabupaten Kolaka Timur",SULAWESI TENGGARA,93519.0,Indonesia,,,,-4.0040252,121.7592151,https://maps.google.com/?cid=0x0:0xe45f86a9c7e75a44,
cafe,Kafe,My Cofee Cafee,"WHXW+3R2, Jl. Haluleo, Watuliandu, Kec. Kolaka, Kabupaten Kolaka, Sulawesi Tenggara 93511","Jl. Haluleo, Watuliandu, Kec. Kolaka, Kabupaten Kolaka",SULAWESI TENGGARA,93511.0,Indonesia,,,,-4.0523694,121.5970197,https://maps.google.com/?cid=0x0:0x5e1cc6d08e420bf9,
cafe,Kafe,TWENTY FOUR _ Coffee^Eatery,"WHRX+CJ7, Lamokato, Kec. Kolaka, Kabupaten Kolaka, Sulawesi Tenggara","Kabupaten Kolaka, Sulawesi Tenggara",SULAWESI TENGGARA,,Indonesia, 081243204012,,,-4.0589734,121.5990454,https://maps.google.com/?cid=0x0:0x777ac407e5044923,
cafe,Kedai Kopi,WAKE UP CAFE,"Jl. Pemuda No.210, Tahoa, Kec. Kolaka, Kabupaten Kolaka, Sulawesi Tenggara 93514","Tahoa, Kec. Kolaka, Kabupaten Kolaka",SULAWESI TENGGARA,93514.0,Indonesia, 0811407733,,,-4.0682621,121.6211435,https://maps.google.com/?cid=0x0:0x878ab502aa91df05,
cafe,Padang,Rumah makan uete,"2PPJ+GR, Inebenggi, Mowewe, Kabupaten Kolaka Timur, Sulawesi Tenggara","Kabupaten Kolaka Timur, Sulawesi Tenggara",SULAWESI TENGGARA,,Indonesia,,,,-3.9637047,121.7320525,https://maps.google.com/?cid=0x0:0x73cbd34704c405c8,
cafe,Kedai Kopi,Aa coffee,"Inebenggi, Mowewe, Kabupaten Kolaka Timur, Sulawesi Tenggara 93571","Mowewe, Kabupaten Kolaka Timur",SULAWESI TENGGARA,93571.0,Indonesia, 082152275781,,,-3.9726984,121.7325923,https://maps.google.com/?cid=0x0:0xe23bfdc2326baf4b,
cafe,Kedai Kopi,Cendol tape Tante Mea,"2PGJ+VWM, Inebenggi, Mowewe, Kabupaten Kolaka Timur, Sulawesi Tenggara","Kabupaten Kolaka Timur, Sulawesi Tenggara",SULAWESI TENGGARA,,Indonesia,,,,-3.9727857,121.7323099,https://maps.google.com/?cid=0x0:0xb5500d2452390708,
cafe,Kedai Kopi,Warung kopi to'ogi,"Warkop to'ogi dan warung makan jeng evhy, Jalan.pasaeno no.24 depan gerejaka betel, Woitombo, Mowewe, Kabupaten Kolaka Timur, Sulawesi Tenggara 93571","Jalan.pasaeno no.24 depan gerejaka betel, Woitombo, Mowewe, Kabupaten Kolaka Timur",SULAWESI TENGGARA,93571.0,Indonesia, 085242642462,,,-3.9635267,121.7290065,https://maps.google.com/?cid=0x0:0x902dea8c83dd6435,
cafe,Konsultan makanan dan minuman,EA Cofee 19,"RW23+7WR, Poli-Polia, Kec. Poli-Polia, Kabupaten Kolaka, Sulawesi Tenggara 93573","Poli-Polia, Kec. Poli-Polia, Kabupaten Kolaka",SULAWESI TENGGARA,93573.0,Indonesia, 085394421855,,,-4.1992714,121.9047716,https://maps.google.com/?cid=0x0:0x878da88fd6ab739f,
cafe,Kedai Kopi,Museum caffee,"QWR4+CVM, Tokai, Kec. Poli-Polia, Kabupaten Kolaka, Sulawesi Tenggara 93573","Tokai, Kec. Poli-Polia, Kabupaten Kolaka",SULAWESI TENGGARA,93573.0,Indonesia,,,,-4.2089196,121.9071623,https://maps.google.com/?cid=0x0:0xa36cf40b0dabd929,
cafe,Kedai Kopi,Kedai Manjalita,"RW23+RRJ, Poli-Polia, Kec. Poli-Polia, Kabupaten Kolaka Timur, Sulawesi Tenggara 93573","Poli-Polia, Kec. Poli-Polia, Kabupaten Kolaka Timur",SULAWESI TENGGARA,93573.0,Indonesia,,,,-4.1979139,121.9045022,https://maps.google.com/?cid=0x0:0x4ba4e071a2220eca,
cafe,Kedai Kopi,Rizky,"QWR9+XH8, Wia-Wia, Kec. Poli-Polia, Kabupaten Kolaka Timur, Sulawesi Tenggara 93573","Wia-Wia, Kec. Poli-Polia, Kabupaten Kolaka Timur",SULAWESI TENGGARA,93573.0,Indonesia,,,,-4.2075877,121.9189649,https://maps.google.com/?cid=0x0:0xd1a6d2d7efbb46e9,
cafe,Kedai Kopi,Sixteen Coffee,"WHXW+4R7, Watuliandu, Kec. Kolaka, Kabupaten Kolaka, Sulawesi Tenggara 93511","Watuliandu, Kec. Kolaka, Kabupaten Kolaka",SULAWESI TENGGARA,93511.0,Indonesia, 081344691023,,,-4.0522116,121.5970592,https://maps.google.com/?cid=0x0:0xbd84d94100611c78,
cafe,cafe,Sulawesi Tenggara 93573,"Kabupaten Kolaka, Sulawesi Tenggara","Kabupaten Kolaka, Sulawesi Tenggara",SULAWESI TENGGARA,,Indonesia,,,,-4.2654072,121.856261,https://maps.google.com/?cid=0x0:0xeafafa5d78b5c179,
cafe,cafe,Kec. Poli-Polia,"Kabupaten Kolaka Timur, Sulawesi Tenggara","Kabupaten Kolaka Timur, Sulawesi Tenggara",SULAWESI TENGGARA,,Indonesia,,,,-4.207678,121.9022668,https://maps.google.com/?cid=0x0:0x15d99ec13666ac9c,
cafe,Kedai Kopi,Saw Saw,"QW6G+3XR, Polenga Jaya, Kec. Poli-Polia, Kabupaten Kolaka Timur, Sulawesi Tenggara","Kabupaten Kolaka Timur, Sulawesi Tenggara",SULAWESI TENGGARA,,Indonesia,,,,-4.2397727,121.927388,https://maps.google.com/?cid=0x0:0xbdbdf483c580ad25,
cafe,Kedai Kopi,Ladongi,"QWC2+RPM, Tokai, Kec. Poli-Polia, Kabupaten Kolaka Timur, Sulawesi Tenggara","Kabupaten Kolaka Timur, Sulawesi Tenggara",SULAWESI TENGGARA,,Indonesia,,,,-4.2279225,121.9017954,https://maps.google.com/?cid=0x0:0xfb58f6c39c2439dc,
cafe,Jasa Rental Alat Musik,AAS Music Studio,"samping SD 1, Dusun 1 lembah harapan desa, Pangi-Pangi, Kec. Poli-Polia, Kabupaten Kolaka Timur, Sulawesi Tenggara 93579","Dusun 1 lembah harapan desa, Pangi-Pangi, Kec. Poli-Polia, Kabupaten Kolaka Timur",SULAWESI TENGGARA,93579.0,Indonesia, 08114030329,,,-4.1743678,121.8845408,https://maps.google.com/?cid=0x0:0xd2e8374f3914b493,
cafe,Rumah Makan,Rumah Makan Lutfia Salsabila,"RW35+57H, Jl. Poros Rate Rate-Poli Polia, Poli-Polia, Kec. Poli-Polia, Kabupaten Kolaka Timur, Sulawesi Tenggara 93573","Jl. Poros Rate Rate-Poli Polia, Poli-Polia, Kec. Poli-Polia, Kabupaten Kolaka Timur",SULAWESI TENGGARA,93573.0,Indonesia,,,,-4.1970667,121.9082256,https://maps.google.com/?cid=0x0:0x892eb12658dce36e,
cafe,Toko bahan makanan,INDOMARET POLI-POLIA,"RW24+Q54, Poli-Polia, Kec. Poli-Polia, Kabupaten Kolaka, Sulawesi Tenggara 93573","Poli-Polia, Kec. Poli-Polia, Kabupaten Kolaka",SULAWESI TENGGARA,93573.0,Indonesia, 082297923472,,,-4.1981172,121.9054563,https://maps.google.com/?cid=0x0:0xb3ab8510cbc709cd,
cafe,Kedai Kopi,WARKOP 86,"RWW8+58H, Atula, Kec. Ladongi, Kabupaten Kolaka, Sulawesi Tenggara 93573","Atula, Kec. Ladongi, Kabupaten Kolaka",SULAWESI TENGGARA,93573.0,Indonesia, 082348867777,,,-4.1545724,121.9158663,https://maps.google.com/?cid=0x0:0xce4576b2e9445b3d,
cafe,Restoran,Teppoe cafe  resto,"WJHF+XRM, Jl. Pemuda, Balandete, Kec. Kolaka, Kabupaten Kolaka, Sulawesi Tenggara 93561","Jl. Pemuda, Balandete, Kec. Kolaka, Kabupaten Kolaka",SULAWESI TENGGARA,93561.0,Indonesia,,,,-4.0700364,121.6245359,https://maps.google.com/?cid=0x0:0xdd86a54dfa2e8a92,
cafe,Konsultan makanan dan minuman,Warung Kopi Flores,"RWJC+H9Q, Jl. Poros Rate Rate-Poli Polia, Welala, Kec. Ladongi, Kabupaten Kolaka Timur, Sulawesi Tenggara 93573","Jl. Poros Rate Rate-Poli Polia, Welala, Kec. Ladongi, Kabupaten Kolaka Timur",SULAWESI TENGGARA,93573.0,Indonesia,,,,-4.1685319,121.9209916,https://maps.google.com/?cid=0x0:0x4d93163934830cd1,
cafe,cafe,Poli-Polia,"Kec. Poli-Polia, Kabupaten Kolaka Timur, Sulawesi Tenggara","Kabupaten Kolaka Timur, Sulawesi Tenggara",SULAWESI TENGGARA,,Indonesia,,,,-4.1865835,121.8875679,https://maps.google.com/?cid=0x0:0xe57e9b1d5ca223cc,
cafe,cafe,Sulawesi Tenggara 93571,"Kabupaten Kolaka, Sulawesi Tenggara","Kabupaten Kolaka, Sulawesi Tenggara",SULAWESI TENGGARA,,Indonesia,,,,-3.8424079,121.856261,https://maps.google.com/?cid=0x0:0x1bb5ec53427fe729,
cafe,Tujuan Wisata,Area Kafe Puncak Lalingato,"XRWJ+V5C, Lalingato, Kec. Tirawuta, Kabupaten Kolaka, Sulawesi Tenggara 93572","Lalingato, Kec. Tirawuta, Kabupaten Kolaka",SULAWESI TENGGARA,93572.0,Indonesia,,,,-4.0028024,121.8303818,https://maps.google.com/?cid=0x0:0x35324b2729350883,
cafe,Bar Kopi Espresso,Aj Cafe Mowewe,"Lorong Tambeani, Woitombo, Mowewe, Kabupaten Kolaka Timur, Sulawesi Tenggara 93571","Woitombo, Mowewe, Kabupaten Kolaka Timur",SULAWESI TENGGARA,93571.0,Indonesia, 082393217897,,,-3.9622674,121.7248558,https://maps.google.com/?cid=0x0:0x3da053f2e80537f4,
cafe,Kedai Kopi,Warung kopi to'ogi,"Warkop to'ogi dan warung makan jeng evhy, Jalan.pasaeno no.24 depan gerejaka betel, Woitombo, Mowewe, Kabupaten Kolaka Timur, Sulawesi Tenggara 93571","Jalan.pasaeno no.24 depan gerejaka betel, Woitombo, Mowewe, Kabupaten Kolaka Timur",SULAWESI TENGGARA,93571.0,Indonesia, 085242642462,,,-3.9635267,121.7290065,https://maps.google.com/?cid=0x0:0x902dea8c83dd6435,
cafe,Bar Kopi Espresso,O'coffee,"XW86+PM8, Jl. Poros Rate-rate, Orawa, Kec. Tirawuta, Kabupaten Kolaka Timur, Sulawesi Tenggara 93572","Jl. Poros Rate-rate, Orawa, Kec. Tirawuta, Kabupaten Kolaka Timur",SULAWESI TENGGARA,93572.0,Indonesia, 082236666943,,,-4.033211,121.9116941,https://maps.google.com/?cid=0x0:0xb59f6f59404f2fbd,
cafe,Restoran,Teppoe cafe  resto,"WJHF+XRM, Jl. Pemuda, Balandete, Kec. Kolaka, Kabupaten Kolaka, Sulawesi Tenggara 93561","Jl. Pemuda, Balandete, Kec. Kolaka, Kabupaten Kolaka",SULAWESI TENGGARA,93561.0,Indonesia,,,,-4.0700364,121.6245359,https://maps.google.com/?cid=0x0:0xdd86a54dfa2e8a92,
cafe,Kedai Kopi,WAKE UP CAFE,"Jl. Pemuda No.210, Tahoa, Kec. Kolaka, Kabupaten Kolaka, Sulawesi Tenggara 93514","Tahoa, Kec. Kolaka, Kabupaten Kolaka",SULAWESI TENGGARA,93514.0,Indonesia, 0811407733,,,-4.0682621,121.6211435,https://maps.google.com/?cid=0x0:0x878ab502aa91df05,
cafe,Kedai Kopi,Kanotaki.id,"Jl. Mekongga Indah, Laloeha, Kec. Kolaka, Kabupaten Kolaka, Sulawesi Tenggara 93511","Laloeha, Kec. Kolaka, Kabupaten Kolaka",SULAWESI TENGGARA,93511.0,Indonesia, 081340982229,,,-4.0650368,121.6091295,https://maps.google.com/?cid=0x0:0x9f615e2188c5b95f,
cafe,Bar Kopi Espresso,Cangkir Coffee 99,"XV3W+MQ7, Jalan Poros, Rate-Rate, Tirawuta, East Kolaka Regency, South East Sulawesi 93572","Jalan Poros, Rate-Rate, Tirawuta, East Kolaka Regency",SULAWESI TENGGARA,93572.0,Indonesia,,,,-4.0458408,121.8969121,https://maps.google.com/?cid=0x0:0x100baafd1142deac,
cafe,Kafe,Point Coffee,"XV3W+MW3, Rate-Rate, Kec. Tirawuta, Kabupaten Kolaka, Sulawesi Tenggara 93572","Rate-Rate, Kec. Tirawuta, Kabupaten Kolaka",SULAWESI TENGGARA,93572.0,Indonesia, 1500280,,,-4.0458621,121.8973151,https://maps.google.com/?cid=0x0:0x4cbce6d45ecd61df,
cafe,Bar Kopi Espresso,Studio Kopi,"WVPM+HW9, Tasahea, Kec. Tirawuta, Kabupaten Kolaka, Sulawesi Tenggara 93572","Tasahea, Kec. Tirawuta, Kabupaten Kolaka",SULAWESI TENGGARA,93572.0,Indonesia,,,,-4.0635972,121.8848665,https://maps.google.com/?cid=0x0:0x80963688507d2305,
cafe,Kafe,KEDAI SIMPANG TIGA HORODOPI,"2P5V+PF7, Horodopi, Mowewe, Kabupaten Kolaka, Sulawesi Tenggara 93519","Horodopi, Mowewe, Kabupaten Kolaka",SULAWESI TENGGARA,93519.0,Indonesia, 082301326379,,,-3.990705,121.7436765,https://maps.google.com/?cid=0x0:0x4f01aae6ef96d769,
cafe,Kafe,Coffeestory,"Lamokato, Kec. Kolaka, Kabupaten Kolaka, Sulawesi Tenggara 93561","Kec. Kolaka, Kabupaten Kolaka",SULAWESI TENGGARA,93561.0,Indonesia, 082291551111,,,-4.0586304,121.605125,https://maps.google.com/?cid=0x0:0x878964d54d9a6f5,
cafe,Penginapan,Rest Area Puncak Wesalo,"XQW5+QRP, Jl. Poros Kolaka - Rate-rate, Wesalo, Kec. Lalolae, Kabupaten Kolaka Timur, Sulawesi Tenggara 93561","Jl. Poros Kolaka - Rate-rate, Wesalo, Kec. Lalolae, Kabupaten Kolaka Timur",SULAWESI TENGGARA,93561.0,Indonesia,,,,-4.0030433,121.7595645,https://maps.google.com/?cid=0x0:0x4e324a06163844c5,
cafe,Kafe,Come On Coffe (COC),"RJC5+CCP, Jl. Cakalang, Dawi-Dawi, Kec. Pomalaa, Kabupaten Kolaka, Sulawesi Tenggara 93562","Jl. Cakalang, Dawi-Dawi, Kec. Pomalaa, Kabupaten Kolaka",SULAWESI TENGGARA,93562.0,Indonesia,,,,-4.178917,121.6085753,https://maps.google.com/?cid=0x0:0xb308453af6863652,
cafe,Kedai Kopi,Babe ThaiTea,"2PHJ+JJW, Lapangan abd, majid, Inebenggi, Mowewe, Kabupaten Kolaka Timur, Sulawesi Tenggara 93518","Lapangan abd, majid, Inebenggi, Mowewe, Kabupaten Kolaka Timur",SULAWESI TENGGARA,93518.0,Indonesia,,,,-3.9708812,121.7315717,https://maps.google.com/?cid=0x0:0xb5866afeae0c82fe,
cafe,Kafe,Kopi 27,"WVXQ+VVH, Jl. Poros Rate-rate Ladongi Road, Rate-Rate, Kec. Tirawuta, Kabupaten Kolaka Timur, Sulawesi Tenggara 93572","Jl. Poros Rate-rate Ladongi Road, Rate-Rate, Kec. Tirawuta, Kabupaten Kolaka Timur",SULAWESI TENGGARA,93572.0,Indonesia,,,,-4.0503165,121.8897133,https://maps.google.com/?cid=0x0:0xd23ff2cefd50ca83,
cafe,Kedai Kopi,Kedai rakyat,"XVV7+2QQ, depan gerbang kompleks Jl. Perkantoran, Lalingato, Kec. Tirawuta, Kabupaten Kolaka Timur, Sulawesi Tenggara 93572","depan gerbang kompleks Jl. Perkantoran, Lalingato, Kec. Tirawuta, Kabupaten Kolaka Timur",SULAWESI TENGGARA,93572.0,Indonesia, 082298988848,,,-4.0074009,121.8644919,https://maps.google.com/?cid=0x0:0x80ebe0e6905175a1,
cafe,Kedai Kopi,Studio Kopi Kolaka Timur,"Jl. Poros Kolaka - Kendari, Rate-Rate, Kec. Tirawuta, Kabupaten Kolaka Timur, Sulawesi Tenggara 93572","Rate-Rate, Kec. Tirawuta, Kabupaten Kolaka Timur",SULAWESI TENGGARA,93572.0,Indonesia,,,,-4.0464398,121.89669,https://maps.google.com/?cid=0x0:0x2a27371ff5c3e5d7,
cafe,Kedai Kopi,Kandai joy store online,"WJJC+X4Q, Tahoa, Kec. Kolaka, Kabupaten Kolaka, Sulawesi Tenggara 93561","Tahoa, Kec. Kolaka, Kabupaten Kolaka",SULAWESI TENGGARA,93561.0,Indonesia,,,,-4.0674059,121.6199689,https://maps.google.com/?cid=0x0:0x4c38b0b35231f971,
cafe,Restoran,Rumah Reza,"2Q98+64, Weamo, Kec. Tinondo, Kabupaten Kolaka Timur, Sulawesi Tenggara","Kabupaten Kolaka Timur, Sulawesi Tenggara",SULAWESI TENGGARA,,Indonesia,,,,-3.9819451,121.7653212,https://maps.google.com/?cid=0x0:0x57d0e3a4c939300,
cafe,Kedai Kopi,Sixteen Coffee,"WHXW+4R7, Watuliandu, Kec. Kolaka, Kabupaten Kolaka, Sulawesi Tenggara 93511","Watuliandu, Kec. Kolaka, Kabupaten Kolaka",SULAWESI TENGGARA,93511.0,Indonesia, 081344691023,,,-4.0522116,121.5970592,https://maps.google.com/?cid=0x0:0xbd84d94100611c78,
cafe,Kafe,Nano Nano Cafe,"Jl. Pramuka No.93, Lamokato, Kec. Kolaka, Kabupaten Kolaka, Sulawesi Tenggara","Kabupaten Kolaka, Sulawesi Tenggara",SULAWESI TENGGARA,,Indonesia, 04052326499,,,-4.0565161,121.5958931,https://maps.google.com/?cid=0x0:0xe604ec4f347517f0,
cafe,Kedai Kopi,Kedai Restorasi,"VVVX+3J8, Putemata, Kec. Ladongi, Kabupaten Kolaka, Sulawesi Tenggara 93573","Putemata, Kec. Ladongi, Kabupaten Kolaka",SULAWESI TENGGARA,93573.0,Indonesia,,,,-4.107337,121.8990922,https://maps.google.com/?cid=0x0:0xae83c22f7aab1a01,
cafe,Toko Kelontong Asia,Warung Makan Damai 278,"Jalan Poros, Solewatu, Uluiwoi, Kabupaten Kolaka Timur, Sulawesi Tenggara 93571","Solewatu, Uluiwoi, Kabupaten Kolaka Timur",SULAWESI TENGGARA,93571.0,Indonesia, 085338589783,,,-3.9348837,121.7541507,https://maps.google.com/?cid=0x0:0xe06e87e0f356d332,
cafe,Konsultan makanan dan minuman,Bong Coffee Cafe,"RWQ9+WXH, Welala, Kec. Ladongi, Kabupaten Kolaka, Sulawesi Tenggara 93573","Welala, Kec. Ladongi, Kabupaten Kolaka",SULAWESI TENGGARA,93573.0,Indonesia,,,,-4.1601978,121.9199798,https://maps.google.com/?cid=0x0:0xd0673e7c32af1e4d,
cafe,Kedai Kopi,Cendol tape Tante Mea,"2PGJ+VWM, Inebenggi, Mowewe, Kabupaten Kolaka Timur, Sulawesi Tenggara","Kabupaten Kolaka Timur, Sulawesi Tenggara",SULAWESI TENGGARA,,Indonesia,,,,-3.9727857,121.7323099,https://maps.google.com/?cid=0x0:0xb5500d2452390708,
cafe,cafe,Warung 3 putri,"2RX3+GV9, Tawarombadaka, Kec. Tinondo, Kabupaten Kolaka Timur, Sulawesi Tenggara 93571","Tawarombadaka, Kec. Tinondo, Kabupaten Kolaka Timur",SULAWESI TENGGARA,93571.0,Indonesia,,,,-3.9512191,121.8047337,https://maps.google.com/?cid=0x0:0x58a59391ae56422f,
cafe,Kedai Kopi,Rm hafisa,"Jl. Poros Kolaka - Rate-rate No.16, Talodo, Kec. Lalolae, Kabupaten Kolaka Timur, Sulawesi Tenggara 93571","Talodo, Kec. Lalolae, Kabupaten Kolaka Timur",SULAWESI TENGGARA,93571.0,Indonesia,,,,-4.0013546,121.8208161,https://maps.google.com/?cid=0x0:0x4e1c693ae4b9ad82,
cafe,cafe,Sulawesi Tenggara 93572,Sulawesi Tenggara,Sulawesi Tenggara,SULAWESI TENGGARA,,Indonesia,,,,-4.0494144,121.947311,https://maps.google.com/?cid=0x0:0xfdc4defab63a0262,
cafe,Tujuan Wisata,Area Kafe Puncak Lalingato,"XRWJ+V5C, Lalingato, Kec. Tirawuta, Kabupaten Kolaka, Sulawesi Tenggara 93572","Lalingato, Kec. Tirawuta, Kabupaten Kolaka",SULAWESI TENGGARA,93572.0,Indonesia,,,,-4.0028024,121.8303818,https://maps.google.com/?cid=0x0:0x35324b2729350883,
cafe,Bar Kopi Espresso,O'coffee,"XW86+PM8, Jl. Poros Rate-rate, Orawa, Kec. Tirawuta, Kabupaten Kolaka Timur, Sulawesi Tenggara 93572","Jl. Poros Rate-rate, Orawa, Kec. Tirawuta, Kabupaten Kolaka Timur",SULAWESI TENGGARA,93572.0,Indonesia, 082236666943,,,-4.033211,121.9116941,https://maps.google.com/?cid=0x0:0xb59f6f59404f2fbd,
cafe,Bar Kopi Espresso,Studio Kopi,"WVPM+HW9, Tasahea, Kec. Tirawuta, Kabupaten Kolaka, Sulawesi Tenggara 93572","Tasahea, Kec. Tirawuta, Kabupaten Kolaka",SULAWESI TENGGARA,93572.0,Indonesia,,,,-4.0635972,121.8848665,https://maps.google.com/?cid=0x0:0x80963688507d2305,
cafe,Bar Kopi Espresso,AKU KOPI,"Jl. Bolo No.185, Rate-Rate, Kec. Tirawuta, Kabupaten Kolaka Timur, Sulawesi Tenggara 93572","Rate-Rate, Kec. Tirawuta, Kabupaten Kolaka Timur",SULAWESI TENGGARA,93572.0,Indonesia, 082192814460,,,-4.0475317,121.8926199,https://maps.google.com/?cid=0x0:0x98e24db8a8ed2d7c,
cafe,Kafe,Meambo Coffee,"XV3Q+6V7, Rate-Rate, Kec. Tirawuta, Kabupaten Kolaka, Sulawesi Tenggara 93572","Rate-Rate, Kec. Tirawuta, Kabupaten Kolaka",SULAWESI TENGGARA,93572.0,Indonesia,,,,-4.0469689,121.8896624,https://maps.google.com/?cid=0x0:0x56ea19e419890b0d,
cafe,Bar Kopi Espresso,Cangkir Coffee 99,"XV3W+MQ7, Jalan Poros, Rate-Rate, Tirawuta, East Kolaka Regency, South East Sulawesi 93572","Jalan Poros, Rate-Rate, Tirawuta, East Kolaka Regency",SULAWESI TENGGARA,93572.0,Indonesia,,,,-4.0458408,121.8969121,https://maps.google.com/?cid=0x0:0x100baafd1142deac,
cafe,Kedai Kopi,Kedai Restorasi,"VVVX+3J8, Putemata, Kec. Ladongi, Kabupaten Kolaka, Sulawesi Tenggara 93573","Putemata, Kec. Ladongi, Kabupaten Kolaka",SULAWESI TENGGARA,93573.0,Indonesia,,,,-4.107337,121.8990922,https://maps.google.com/?cid=0x0:0xae83c22f7aab1a01,
cafe,Kafe,Point Coffee,"XV3W+MW3, Rate-Rate, Kec. Tirawuta, Kabupaten Kolaka, Sulawesi Tenggara 93572","Rate-Rate, Kec. Tirawuta, Kabupaten Kolaka",SULAWESI TENGGARA,93572.0,Indonesia, 1500280,,,-4.0458621,121.8973151,https://maps.google.com/?cid=0x0:0x4cbce6d45ecd61df,
cafe,Kedai Kopi,KEDAY TAWAROKA,"Jl. Poros Rate-rate, Tawainalu, Kec. Tirawuta, Kabupaten Kolaka Timur, Sulawesi Tenggara 93572","Tawainalu, Kec. Tirawuta, Kabupaten Kolaka Timur",SULAWESI TENGGARA,93572.0,Indonesia,,,,-4.0249046,121.9368732,https://maps.google.com/?cid=0x0:0x967125c4e4e7ad8f,
cafe,Stan Kopi,Tugu rate2,"XV3V+JCJ, Tirawuta, Kec. Tirawuta, Kabupaten Kolaka Timur, Sulawesi Tenggara","Kabupaten Kolaka Timur, Sulawesi Tenggara",SULAWESI TENGGARA,,Indonesia,,,,-4.0459103,121.8935051,https://maps.google.com/?cid=0x0:0xf0884737fae8f8e0,
cafe,Kafe,BOS EKO CAFE,"Jl. Poros Kolaka - Rate-rate No.16, Tirawuta, Kec. Tirawuta, Kabupaten Kolaka Timur, Sulawesi Tenggara 93572","Tirawuta, Kec. Tirawuta, Kabupaten Kolaka Timur",SULAWESI TENGGARA,93572.0,Indonesia, 082284382899,,,-4.0469304,121.8836643,https://maps.google.com/?cid=0x0:0xa68231dc06e8f460,
cafe,Kedai Kopi,Kedai Sea,"Jl. Veteran No.189, Rate-Rate, Kec. Tirawuta, Kabupaten Kolaka Timur, Sulawesi Tenggara 93572","Rate-Rate, Kec. Tirawuta, Kabupaten Kolaka Timur",SULAWESI TENGGARA,93572.0,Indonesia, 081242904034,,,-4.044067,121.897699,https://maps.google.com/?cid=0x0:0xd198a777146628ea,
cafe,Kedai Kopi,Studio Kopi Kolaka Timur,"Jl. Poros Kolaka - Kendari, Rate-Rate, Kec. Tirawuta, Kabupaten Kolaka Timur, Sulawesi Tenggara 93572","Rate-Rate, Kec. Tirawuta, Kabupaten Kolaka Timur",SULAWESI TENGGARA,93572.0,Indonesia,,,,-4.0464398,121.89669,https://maps.google.com/?cid=0x0:0x2a27371ff5c3e5d7,
cafe,cafe,Desa Matabondu,"XWF9+JVR, Jl. Poros Kolaka - Rate-rate, Woiha, Kec. Tirawuta, Kabupaten Kolaka Timur, Sulawesi Tenggara 93572","Jl. Poros Kolaka - Rate-rate, Woiha, Kec. Tirawuta, Kabupaten Kolaka Timur",SULAWESI TENGGARA,93572.0,Indonesia,,,,-4.025885,121.9196519,https://maps.google.com/?cid=0x0:0x86817a32ed51f16,
cafe,Nasi,Warung Makan Pangkep,"XV3M+7WC, Jl. Poros Kolaka, Rate-Rate, Kec. Tirawuta, Kabupaten Kolaka Timur, Sulawesi Tenggara 93572","Jl. Poros Kolaka, Rate-Rate, Kec. Tirawuta, Kabupaten Kolaka Timur",SULAWESI TENGGARA,93572.0,Indonesia,,,,-4.046823,121.8847764,https://maps.google.com/?cid=0x0:0x75f1bbed934be34f,
cafe,Rumah Makan,Kedai Dapoer Aisyah,"XWCX+QG6, Tumbudadio, Kec. Tirawuta, Kabupaten Kolaka, Sulawesi Tenggara 93572","Tumbudadio, Kec. Tirawuta, Kabupaten Kolaka",SULAWESI TENGGARA,93572.0,Indonesia, 082240767040,,,-4.0280882,121.9487605,https://maps.google.com/?cid=0x0:0x479f26bc8a072da,
cafe,Rumah Makan,Kedai zahra,"Dusun 2, desa, Simbune, Kec. Tirawuta, Kabupaten Kolaka Timur, Sulawesi Tenggara 93572","desa, Simbune, Kec. Tirawuta, Kabupaten Kolaka Timur",SULAWESI TENGGARA,93572.0,Indonesia, 085298293382,,,-4.0150089,121.8765357,https://maps.google.com/?cid=0x0:0x96ef4d7ba519e2e5,
cafe,Restoran,WARUNG DAPUR KITA,"Tirawuta, Kec. Tirawuta, Kabupaten Kolaka Timur, Sulawesi Tenggara 93572","Kec. Tirawuta, Kabupaten Kolaka Timur",SULAWESI TENGGARA,93572.0,Indonesia, 085326987634,,,-4.0467854,121.8834372,https://maps.google.com/?cid=0x0:0xde2fa55364d7f2f7,
cafe,Restoran,Warung Andika 45 khas jawa timur,"XV3V+M2C, Jl. Poros Kolaka - Rate-rate, Rate-Rate, Kec. Tirawuta, Kabupaten Kolaka Timur, Sulawesi Tenggara 93572","Jl. Poros Kolaka - Rate-rate, Rate-Rate, Kec. Tirawuta, Kabupaten Kolaka Timur",SULAWESI TENGGARA,93572.0,Indonesia, 085731925853,,,-4.0458116,121.8925176,https://maps.google.com/?cid=0x0:0xb363577da89f2a5e,
cafe,Jawa,Warung Rezky,"XV3R+GRP, Jl. Poros Kolaka - Rate-rate, Rate-Rate, Kec. Tirawuta, Kabupaten Kolaka Timur, Sulawesi Tenggara 93572","Jl. Poros Kolaka - Rate-rate, Rate-Rate, Kec. Tirawuta, Kabupaten Kolaka Timur",SULAWESI TENGGARA,93572.0,Indonesia,,,,-4.046153,121.8920652,https://maps.google.com/?cid=0x0:0x9477aba8c26fabdd,
cafe,Restoran,KEDAI AA AL RAZZAQ,"XWGM+9R9, Jl. Poros Rate-rate, Tawainalu, Kec. Tirawuta, Kabupaten Kolaka, Sulawesi Tenggara 93572","Jl. Poros Rate-rate, Tawainalu, Kec. Tirawuta, Kabupaten Kolaka",SULAWESI TENGGARA,93572.0,Indonesia, 081342447545,,,-4.0240808,121.9345948,https://maps.google.com/?cid=0x0:0xefc877e6a30c9648,
cafe,cafe,Sulawesi Tenggara 93575,"Kabupaten Kolaka, Sulawesi Tenggara","Kabupaten Kolaka, Sulawesi Tenggara",SULAWESI TENGGARA,,Indonesia,,,,-3.5101108,121.3998995,https://maps.google.com/?cid=0x0:0xc8b7a5389edae68c,
cafe,Kedai Kopi,WAKE UP CAFE,"Jl. Pemuda No.210, Tahoa, Kec. Kolaka, Kabupaten Kolaka, Sulawesi Tenggara 93514","Tahoa, Kec. Kolaka, Kabupaten Kolaka",SULAWESI TENGGARA,93514.0,Indonesia, 0811407733,,,-4.0682621,121.6211435,https://maps.google.com/?cid=0x0:0x878ab502aa91df05,
cafe,Kafe,My Cofee Cafee,"WHXW+3R2, Jl. Haluleo, Watuliandu, Kec. Kolaka, Kabupaten Kolaka, Sulawesi Tenggara 93511","Jl. Haluleo, Watuliandu, Kec. Kolaka, Kabupaten Kolaka",SULAWESI TENGGARA,93511.0,Indonesia,,,,-4.0523694,121.5970197,https://maps.google.com/?cid=0x0:0x5e1cc6d08e420bf9,
cafe,Kafe,Violet Cafe,"WJP3+6XR, Pantai Berti, Kabupaten Kolaka, Sulawesi Tenggara 93561","Pantai Berti, Kabupaten Kolaka",SULAWESI TENGGARA,93561.0,Indonesia, 085314763669,,,-4.0643933,121.6049037,https://maps.google.com/?cid=0x0:0x97ab8d18c7e57b53,
cafe,Kedai Kopi,GARASI CAFE,"Jl. Usman Rencong No.19, Lamokato, Kec. Kolaka, Kabupaten Kolaka, Sulawesi Tenggara 93516","Lamokato, Kec. Kolaka, Kabupaten Kolaka",SULAWESI TENGGARA,93516.0,Indonesia, 085218283212,,,-4.0589414,121.6033933,https://maps.google.com/?cid=0x0:0x8ff44c645bc9277e,
cafe,Kedai Kopi,Kedaya coffee,"Sea, Kec. Latambaga, Kabupaten Kolaka, Sulawesi Tenggara","Kabupaten Kolaka, Sulawesi Tenggara",SULAWESI TENGGARA,,Indonesia, 085396346048,,,-4.052737,121.5881063,https://maps.google.com/?cid=0x0:0x537341e68f1f25bb,
cafe,Kafe,WHproject Kedai  Outlet,"WHXX+887, Jl. Pattimura, Watuliandu, Kec. Kolaka, Kabupaten Kolaka, Sulawesi Tenggara 93511","Jl. Pattimura, Watuliandu, Kec. Kolaka, Kabupaten Kolaka",SULAWESI TENGGARA,93511.0,Indonesia, 081222828922,,,-4.0517222,121.5982952,https://maps.google.com/?cid=0x0:0xca3d5bab3e172171,
cafe,Penginapan,Rest Area Puncak Wesalo,"XQW5+QRP, Jl. Poros Kolaka - Rate-rate, Wesalo, Kec. Lalolae, Kabupaten Kolaka Timur, Sulawesi Tenggara 93561","Jl. Poros Kolaka - Rate-rate, Wesalo, Kec. Lalolae, Kabupaten Kolaka Timur",SULAWESI TENGGARA,93561.0,Indonesia,,,,-4.0030433,121.7595645,https://maps.google.com/?cid=0x0:0x4e324a06163844c5,
cafe,Kafe,Zona Cafe  Food Court,"WJQ6+PMF, Jl. Alam Mekongga, Laloeha, Kec. Kolaka, Kabupaten Kolaka, Sulawesi Tenggara 93561","Jl. Alam Mekongga, Laloeha, Kec. Kolaka, Kabupaten Kolaka",SULAWESI TENGGARA,93561.0,Indonesia,,,,-4.0606971,121.6116654,https://maps.google.com/?cid=0x0:0xc6e27ed42675c06c,
cafe,Kafe,Coffeestory,"Lamokato, Kec. Kolaka, Kabupaten Kolaka, Sulawesi Tenggara 93561","Kec. Kolaka, Kabupaten Kolaka",SULAWESI TENGGARA,93561.0,Indonesia, 082291551111,,,-4.0586304,121.605125,https://maps.google.com/?cid=0x0:0x878964d54d9a6f5,
cafe,Restoran,Teppoe cafe  resto,"WJHF+XRM, Jl. Pemuda, Balandete, Kec. Kolaka, Kabupaten Kolaka, Sulawesi Tenggara 93561","Jl. Pemuda, Balandete, Kec. Kolaka, Kabupaten Kolaka",SULAWESI TENGGARA,93561.0,Indonesia,,,,-4.0700364,121.6245359,https://maps.google.com/?cid=0x0:0xdd86a54dfa2e8a92,
cafe,Kedai Kopi,Sixteen Coffee,"WHXW+4R7, Watuliandu, Kec. Kolaka, Kabupaten Kolaka, Sulawesi Tenggara 93511","Watuliandu, Kec. Kolaka, Kabupaten Kolaka",SULAWESI TENGGARA,93511.0,Indonesia, 081344691023,,,-4.0522116,121.5970592,https://maps.google.com/?cid=0x0:0xbd84d94100611c78,
cafe,Kedai Kopi,Koma,"7F44+5RM, Tolowe Ponrewaru, Kec. Wolo, Kabupaten Kolaka, Sulawesi Tenggara","Kabupaten Kolaka, Sulawesi Tenggara",SULAWESI TENGGARA,,Indonesia,,,,-3.7445418,121.4570447,https://maps.google.com/?cid=0x0:0x3f8b8806ad8d6c1c,
cafe,Kafe,Cafe Pojok 86,"Pantai Berti, Kec. Kolaka, Sulawesi Tenggara 93561",Kec. Kolaka,SULAWESI TENGGARA,93561.0,Indonesia,,,,-4.0641174,121.603917,https://maps.google.com/?cid=0x0:0x2db0077b5c402a90,
cafe,Bar Kopi Espresso,AKU KOPI,"Jl. Bolo No.185, Rate-Rate, Kec. Tirawuta, Kabupaten Kolaka Timur, Sulawesi Tenggara 93572","Rate-Rate, Kec. Tirawuta, Kabupaten Kolaka Timur",SULAWESI TENGGARA,93572.0,Indonesia, 082192814460,,,-4.0475317,121.8926199,https://maps.google.com/?cid=0x0:0x98e24db8a8ed2d7c,
cafe,Kafe,Mr. Coffee House,"WHVX+3RH, Lamokato, Kec. Kolaka, Kabupaten Kolaka, Sulawesi Tenggara 93511","Lamokato, Kec. Kolaka, Kabupaten Kolaka",SULAWESI TENGGARA,93511.0,Indonesia,,,,-4.057305,121.5996177,https://maps.google.com/?cid=0x0:0x897eae99ecb41cb4,
cafe,Kafe,Kedai Teluly,"WJQ5+XH6, Jl. Cendrawasih, Laloeha, Kec. Kolaka, Kabupaten Kolaka, Sulawesi Tenggara 93561","Jl. Cendrawasih, Laloeha, Kec. Kolaka, Kabupaten Kolaka",SULAWESI TENGGARA,93561.0,Indonesia, 082292196695,,,-4.0600854,121.608887,https://maps.google.com/?cid=0x0:0x575e8f524229cc7f,
cafe,Kafe,District coffee kolaka,"Jl. Mekongga Indah, Lamokato, Kec. Kolaka, Kabupaten Kolaka, Sulawesi Tenggara 93511","Lamokato, Kec. Kolaka, Kabupaten Kolaka",SULAWESI TENGGARA,93511.0,Indonesia, 085330801894,,,-4.0589023,121.597535,https://maps.google.com/?cid=0x0:0xac4263fe6e8c69ac,
cafe,Dapur Umum,rumah elma,"8GHP+HG3, Ueesi, Kec. Uluiwoi, Kabupaten Kolaka Timur, Sulawesi Tenggara","Kabupaten Kolaka Timur, Sulawesi Tenggara",SULAWESI TENGGARA,,Indonesia,,,,-3.6711027,121.5363062,https://maps.google.com/?cid=0x0:0x7511b8d07bfa05b3,
cafe,Kafe,Kinokori Food Garden,"Jl. Andi Jemma, Lamokato, Kec. Kolaka, Kabupaten Kolaka, Sulawesi Tenggara","Kabupaten Kolaka, Sulawesi Tenggara",SULAWESI TENGGARA,,Indonesia, 082193036880,,,-4.0549524,121.5942967,https://maps.google.com/?cid=0x0:0x38112e36e99f6563,
cafe,cafe,ISTO CAFE,"Ulu Wawo, Kec. Wawo, Kabupaten Kolaka Utara, Sulawesi Tenggara 93956","Kec. Wawo, Kabupaten Kolaka Utara",SULAWESI TENGGARA,93956.0,Indonesia,,,,-3.6890752,121.0352254,https://maps.google.com/?cid=0x0:0xf9d694120be627a,
cafe,Kafe,Sudut Utama Coffee,"Jl. Gn. Tojabi, Tojabi, Kec. Lasusua, Kabupaten Kolaka Utara, Sulawesi Tenggara 93916","Tojabi, Kec. Lasusua, Kabupaten Kolaka Utara",SULAWESI TENGGARA,93916.0,Indonesia, 081355570432,,,-3.5125033,120.9013741,https://maps.google.com/?cid=0x0:0xda6a3224ea6ec3bc,
cafe,Bar Kopi Espresso,Aj Cafe Mowewe,"Lorong Tambeani, Woitombo, Mowewe, Kabupaten Kolaka Timur, Sulawesi Tenggara 93571","Woitombo, Mowewe, Kabupaten Kolaka Timur",SULAWESI TENGGARA,93571.0,Indonesia, 082393217897,,,-3.9622674,121.7248558,https://maps.google.com/?cid=0x0:0x3da053f2e80537f4,
cafe,Kedai Kopi,Warkop Ahmad,"PX3W+C5H, Jl. Poros Lapai - Malili, Dusun II, Lahabaru, Kec. Watunohu, Kabupaten Kolaka Utara, Sulawesi Tenggara 93958","Jl. Poros Lapai - Malili, Dusun II, Lahabaru, Kec. Watunohu, Kabupaten Kolaka Utara",SULAWESI TENGGARA,93958.0,Indonesia, 082346936615,,,-3.2964357,120.99549,https://maps.google.com/?cid=0x0:0xe6b3ab3d3daabcc6,
cafe,Kedai Kopi,Kedai iqlis,"V58C+4C7, Salu Dongka, Kec. Pakue Utara, Kabupaten Kolaka Utara, Sulawesi Tenggara","Kabupaten Kolaka Utara, Sulawesi Tenggara",SULAWESI TENGGARA,,Indonesia, 085396990996,,,-3.1347227,121.1710389,https://maps.google.com/?cid=0x0:0x79958775ce48c331,
cafe,Kedai Kopi,O.Lo Coffee,"Depan Kampus USN, Jl. Pemuda No.316, Balandete, Kec. Kolaka, Kabupaten Kolaka, Sulawesi Tenggara 93517","Jl. Pemuda No.316, Balandete, Kec. Kolaka, Kabupaten Kolaka",SULAWESI TENGGARA,93517.0,Indonesia, 082349322340,,,-4.072433,121.6247198,https://maps.google.com/?cid=0x0:0xfdcd82960f8b231e,
cafe,Kedai Kopi,Cafe Halte21,"WHRX+C53, Lamokato, Kec. Kolaka, Kabupaten Kolaka, Sulawesi Tenggara","Kabupaten Kolaka, Sulawesi Tenggara",SULAWESI TENGGARA,,Indonesia, 081245660004,,,-4.0589982,121.5979081,https://maps.google.com/?cid=0x0:0x6d225827adde804b,
cafe,Konsultan makanan dan minuman,EA Cofee 19,"RW23+7WR, Poli-Polia, Kec. Poli-Polia, Kabupaten Kolaka, Sulawesi Tenggara 93573","Poli-Polia, Kec. Poli-Polia, Kabupaten Kolaka",SULAWESI TENGGARA,93573.0,Indonesia, 085394421855,,,-4.1992714,121.9047716,https://maps.google.com/?cid=0x0:0x878da88fd6ab739f,
cafe,Kedai Kopi,Original The Milenial Cafe,"Ulu Lapao-Pao, Kec. Wolo, Kabupaten Kolaka, Sulawesi Tenggara","Kabupaten Kolaka, Sulawesi Tenggara",SULAWESI TENGGARA,,Indonesia, 082395016011,,,-3.8986573,121.3407574,https://maps.google.com/?cid=0x0:0x76fa4cfe46c68e91,
