Category,Real Category,Business Name,Address,City,State,Postal Code,Country,Phone,Email,Website,Latitude,Longitude,Map Link,Details Link
building materials,building materials,Ladongi,"Ladongi, Kec. Ladongi, Kabupaten Kolaka Timur, Sulawesi Tenggara","Kabupaten Kolaka Timur, Sulawesi Tenggara",SULAWESI TENGGARA,,Indonesia,,,,-4.142409,121.901901,https://maps.google.com/?cid=0x0:0xf976c8583833e88d,
building materials,Toko Perlengkapan Rumah,Toko 237 BANGUNAN,"RW4Q+72J, Gn. Jaya, Kec. Ladongi, Kabupaten Kolaka Timur, Sulawesi Tenggara 93573","Gn. Jaya, Kec. Ladongi, Kabupaten Kolaka Timur",SULAWESI TENGGARA,93573.0,Indonesia, 082346811111,,,-4.1942822,121.937503,https://maps.google.com/?cid=0x0:0xb77af64a0ab58cb3,
building materials,Bengkel Motor Elektrik,Toko Ilham motor ladongi,"Jl. Poros, Lalowosula, Kec. Ladongi, Kabupaten Kolaka Timur, Sulawesi Tenggara","Kabupaten Kolaka Timur, Sulawesi Tenggara",SULAWESI TENGGARA,,Indonesia, 081225128346,,,-4.1160189,121.9021005,https://maps.google.com/?cid=0x0:0x17debd8f7886e165,
building materials,building materials,Sulawesi Tenggara 93572,Sulawesi Tenggara,Sulawesi Tenggara,SULAWESI TENGGARA,,Indonesia,,,,-4.0494144,121.947311,https://maps.google.com/?cid=0x0:0xfdc4defab63a0262,
building materials,Toko Bahan Bangunan,Toko Edo Bangunan,"XQGG+3VF, Lalolae, Kec. Lalolae, Kabupaten Kolaka Timur, Sulawesi Tenggara 93571","Lalolae, Kec. Lalolae, Kabupaten Kolaka Timur",SULAWESI TENGGARA,93571.0,Indonesia, 085242618602,,,-4.0248062,121.7771592,https://maps.google.com/?cid=0x0:0xe3341245faa51d1e,
building materials,Pusat Perbelanjaan,TOKO BANGUNAN MERTA MULIA,"Jl. Poros, Lamoare, Kec. Loea, Kabupaten Kolaka Timur, Sulawesi Tenggara 93572","Lamoare, Kec. Loea, Kabupaten Kolaka Timur",SULAWESI TENGGARA,93572.0,Indonesia, 085255072187,,,-4.0902276,121.8903196,https://maps.google.com/?cid=0x0:0x2d32e5060e93cb73,
building materials,Pusat Perbelanjaan,Sika,"XQFJ+MVQ, Lalolae, Kec. Lalolae, Kabupaten Kolaka Timur, Sulawesi Tenggara","Kabupaten Kolaka Timur, Sulawesi Tenggara",SULAWESI TENGGARA,,Indonesia,,,,-4.0261701,121.7820397,https://maps.google.com/?cid=0x0:0xe14b0b846ee889d1,
building materials,Toko Bahan Bangunan,HIKMAH BANGUNAN,"MWWC+H4X, Lambandia, Kec. Lambandia, Kabupaten Kolaka Timur, Sulawesi Tenggara 93573","Lambandia, Kec. Lambandia, Kabupaten Kolaka Timur",SULAWESI TENGGARA,93573.0,Indonesia, 085394201987,,,-4.3035107,121.9203628,https://maps.google.com/?cid=0x0:0xf771590fcb855032,
building materials,Toko Bahan Bangunan,Sumber Rahmat,"VMPG+7V2, Jl. Poros Kolaka - Pomalaa Lorong Sapati, Lamekongga, Kec. Wundulako, Kabupaten Kolaka, Sulawesi Tenggara 93561","Jl. Poros Kolaka - Pomalaa Lorong Sapati, Lamekongga, Kec. Wundulako, Kabupaten Kolaka",SULAWESI TENGGARA,93561.0,Indonesia,,,,-4.1143584,121.6771539,https://maps.google.com/?cid=0x0:0xf8c194abb4377286,
building materials,Bengkel Motor Elektrik,Toko Ilham motor ladongi,"Jl. Poros, Lalowosula, Kec. Ladongi, Kabupaten Kolaka Timur, Sulawesi Tenggara","Kabupaten Kolaka Timur, Sulawesi Tenggara",SULAWESI TENGGARA,,Indonesia, 081225128346,,,-4.1160189,121.9021005,https://maps.google.com/?cid=0x0:0x17debd8f7886e165,
building materials,building materials,Kec. Lalolae,"Kabupaten Kolaka Timur, Sulawesi Tenggara","Kabupaten Kolaka Timur, Sulawesi Tenggara",SULAWESI TENGGARA,,Indonesia,,,,-4.0256541,121.7842582,https://maps.google.com/?cid=0x0:0x16745ece4e90ef2b,
building materials,Toko umum,Toko Arthomoro,"2P6V+CVJ, Watupute, Mowewe, Kabupaten Kolaka Timur, Sulawesi Tenggara 93519","Watupute, Mowewe, Kabupaten Kolaka Timur",SULAWESI TENGGARA,93519.0,Indonesia,,,,-3.9889214,121.744638,https://maps.google.com/?cid=0x0:0xff0db84820d1c8ee,
building materials,building materials,Sulawesi Tenggara 93573,"Kabupaten Kolaka, Sulawesi Tenggara","Kabupaten Kolaka, Sulawesi Tenggara",SULAWESI TENGGARA,,Indonesia,,,,-4.2654072,121.856261,https://maps.google.com/?cid=0x0:0xeafafa5d78b5c179,
building materials,Toko Bahan Bangunan,HIKMAH BANGUNAN,"MWWC+H4X, Lambandia, Kec. Lambandia, Kabupaten Kolaka Timur, Sulawesi Tenggara 93573","Lambandia, Kec. Lambandia, Kabupaten Kolaka Timur",SULAWESI TENGGARA,93573.0,Indonesia, 085394201987,,,-4.3035107,121.9203628,https://maps.google.com/?cid=0x0:0xf771590fcb855032,
building materials,Toko Bahan Bangunan,Lambandia,"MWWC+2QQ, Lambandia, Kec. Lambandia, Kabupaten Kolaka Timur, Sulawesi Tenggara 93573","Lambandia, Kec. Lambandia, Kabupaten Kolaka Timur",SULAWESI TENGGARA,93573.0,Indonesia,,,,-4.3049086,121.9219957,https://maps.google.com/?cid=0x0:0x4f47e8495390b92f,
building materials,Toko Bahan Bangunan,Toko rifaldi,"MWXG+P93, Penanggo Jaya, Kec. Lambandia, Kabupaten Kolaka Timur, Sulawesi Tenggara 93573","Penanggo Jaya, Kec. Lambandia, Kabupaten Kolaka Timur",SULAWESI TENGGARA,93573.0,Indonesia, 085258082553,,,-4.3007442,121.9259158,https://maps.google.com/?cid=0x0:0x99c6fcff4ec16662,
building materials,building materials,Lambandia,"Kec. Lambandia, Kabupaten Kolaka Timur, Sulawesi Tenggara","Kabupaten Kolaka Timur, Sulawesi Tenggara",SULAWESI TENGGARA,,Indonesia,,,,-4.2846446,121.918866,https://maps.google.com/?cid=0x0:0x2af5ac7223784fa8,
building materials,building materials,Kec. Loea,"Kabupaten Kolaka Timur, Sulawesi Tenggara","Kabupaten Kolaka Timur, Sulawesi Tenggara",SULAWESI TENGGARA,,Indonesia,,,,-4.0866248,121.8885897,https://maps.google.com/?cid=0x0:0x3416e72c1ead93b6,
building materials,Pusat Perbelanjaan,TOKO BANGUNAN MERTA MULIA,"Jl. Poros, Lamoare, Kec. Loea, Kabupaten Kolaka Timur, Sulawesi Tenggara 93572","Lamoare, Kec. Loea, Kabupaten Kolaka Timur",SULAWESI TENGGARA,93572.0,Indonesia, 085255072187,,,-4.0902276,121.8903196,https://maps.google.com/?cid=0x0:0x2d32e5060e93cb73,
building materials,Toko Bahan Bangunan,Toko Priyo,"WVRQ+539, Tasahea, Kec. Tirawuta, Kabupaten Kolaka, Sulawesi Tenggara 93572","Tasahea, Kec. Tirawuta, Kabupaten Kolaka",SULAWESI TENGGARA,93572.0,Indonesia, 085399448485,,,-4.0595768,121.8877259,https://maps.google.com/?cid=0x0:0xac6a254e954e1eaf,
building materials,Toko Bahan Bangunan,Toko Edo Bangunan,"XQGG+3VF, Lalolae, Kec. Lalolae, Kabupaten Kolaka Timur, Sulawesi Tenggara 93571","Lalolae, Kec. Lalolae, Kabupaten Kolaka Timur",SULAWESI TENGGARA,93571.0,Indonesia, 085242618602,,,-4.0248062,121.7771592,https://maps.google.com/?cid=0x0:0xe3341245faa51d1e,
building materials,Toko Alat Tulis Kantor,Toko Aneka Rupa,"Jl. Poros Kolaka - Rate-rate No.33, Rate-Rate, Kec. Tirawuta, Kabupaten Kolaka Timur, Sulawesi Tenggara 93572","Rate-Rate, Kec. Tirawuta, Kabupaten Kolaka Timur",SULAWESI TENGGARA,93572.0,Indonesia, 085242663330,,,-4.0462817,121.8923888,https://maps.google.com/?cid=0x0:0xb530e75c954331f,
building materials,Toko Bahan Bangunan,Wahyu alma,"QWR3+WG4, Tokai, Kec. Poli-Polia, Kabupaten Kolaka, Sulawesi Tenggara 93573","Tokai, Kec. Poli-Polia, Kabupaten Kolaka",SULAWESI TENGGARA,93573.0,Indonesia, 081245344293,,,-4.2077347,121.9038433,https://maps.google.com/?cid=0x0:0xaf74e7d5a09e345f,
building materials,Toko Perlengkapan Rumah,Toko 237 BANGUNAN,"RW4Q+72J, Gn. Jaya, Kec. Ladongi, Kabupaten Kolaka Timur, Sulawesi Tenggara 93573","Gn. Jaya, Kec. Ladongi, Kabupaten Kolaka Timur",SULAWESI TENGGARA,93573.0,Indonesia, 082346811111,,,-4.1942822,121.937503,https://maps.google.com/?cid=0x0:0xb77af64a0ab58cb3,
building materials,Kios,KIOS PUTRI TANI LOWA,"MXC8+426, Lowa, Kec. Lambandia, Kabupaten Kolaka, Sulawesi Tenggara","Kabupaten Kolaka, Sulawesi Tenggara",SULAWESI TENGGARA,,Indonesia, 082394189778,,,-4.3297028,121.9650034,https://maps.google.com/?cid=0x0:0xf3925403bfe45434,
building materials,Pertanian,Distributor Supplier Kayu Dan Ayam Mang Tir,"Desa No.Blok F, Teposua, Loea, East Kolaka Regency, South East Sulawesi 93572","Teposua, Loea, East Kolaka Regency",SULAWESI TENGGARA,93572.0,Indonesia, 082335346555,,,-4.1008806,121.884602,https://maps.google.com/?cid=0x0:0x80815b38b6429e98,
building materials,Pemasok kayu lapis,"Toko Cahaya Berkat. Jual plywood, HPL, Lem, Aksesoris","Komplek Ruko Warna Warni no.2 Jatimulya Kmp, Jl. Raya Mustikasari Jl. Kp. Rw. Sapi No.Rt.04/010, Mustikasari, Kec. Mustika Jaya, Kota Bks, Jawa Barat 17115","Jl. Raya Mustikasari Jl. Kp. Rw. Sapi No.Rt.04/010, Mustikasari, Kec. Mustika Jaya, Kota Bks",SULAWESI TENGGARA,17115.0,Indonesia, 0818302328,,,-6.2786922,107.0150774,https://maps.google.com/?cid=0x0:0x22601f928fc00560,
building materials,Toko Cat,Jotun Paint Store,"Jl. Gajah Mada No.27D, RT.2/RW.7, Krukut, Kec. Taman Sari, Kota Jakarta Barat, Daerah Khusus Ibukota Jakarta 11140","RT.2/RW.7, Krukut, Kec. Taman Sari, Kota Jakarta Barat",SULAWESI TENGGARA,11140.0,Indonesia, 081216160101,,,-6.1590989,106.8185378,https://maps.google.com/?cid=0x0:0x3394e2dd951caae9,
building materials,Pemasok Bahan Bangunan,PT. Greenlam Indo Pacific ( Splendor ),"Kw. Industri Pulogadung, Jl. Pulo Kambing II No.26, RW.11, Jatinegara, Kec. Cakung, Kota Jakarta Timur, Daerah Khusus Ibukota Jakarta 13930","Jl. Pulo Kambing II No.26, RW.11, Jatinegara, Kec. Cakung, Kota Jakarta Timur",SULAWESI TENGGARA,13930.0,Indonesia, 02121057814,,,-6.1978316,106.9066925,https://maps.google.com/?cid=0x0:0xcf4874359417d6b9,
building materials,Pusat Perbelanjaan,Rolas Pekayon,"Jl. Raya Pekayon No.78, RT.002/RW.001, Jaka Setia, Kec. Bekasi Sel., Kota Bks, Jawa Barat 17147","RT.002/RW.001, Jaka Setia, Kec. Bekasi Sel., Kota Bks",SULAWESI TENGGARA,17147.0,Indonesia, 02182754969,,,-6.2707655,106.9808208,https://maps.google.com/?cid=0x0:0x3cd3e6a40ae78b57,
building materials,Toko Perlengkapan Rumah,PT Profitto Inovasi Kreatif,"Komp. Pergudangan T8, Jl. Sutera Niaga III No.3E, Pakulonan, Kec. Serpong Utara, Kota Tangerang Selatan, Banten 15325","Jl. Sutera Niaga III No.3E, Pakulonan, Kec. Serpong Utara, Kota Tangerang Selatan",SULAWESI TENGGARA,15325.0,Indonesia, 087858988881,,,-6.2392855,106.649986,https://maps.google.com/?cid=0x0:0x9f367731f119e9d,
building materials,Toko Perlengkapan Lantai,Splendor HPL Indonesia - Arkaboard - SPCFloor by Arkamaya,"Jl. Raya Narogong No.37, RT.003/RW.002, Bojong Rawalumbu, Kec. Rawalumbu, Kota Bks, Jawa Barat 17116","RT.003/RW.002, Bojong Rawalumbu, Kec. Rawalumbu, Kota Bks",SULAWESI TENGGARA,17116.0,Indonesia,,,,-6.2860382,106.9875293,https://maps.google.com/?cid=0x0:0xaa1f1062c9dae7e6,
building materials,building materials,Ellata Contruksi,"JL. .Tempat Pemakaman Umum Kebonduren, Kalimulya No.2, Kalimulya, Depok, Kota Depok, Jawa Barat 16413","Kalimulya No.2, Kalimulya, Depok, Kota Depok",SULAWESI TENGGARA,16413.0,Indonesia, 085313504794,,,-6.4262689,106.8237546,https://maps.google.com/?cid=0x0:0xa0e9f951493ae2f3,
building materials,Toko umum,Toko Arthomoro,"2P6V+CVJ, Watupute, Mowewe, Kabupaten Kolaka Timur, Sulawesi Tenggara 93519","Watupute, Mowewe, Kabupaten Kolaka Timur",SULAWESI TENGGARA,93519.0,Indonesia,,,,-3.9889214,121.744638,https://maps.google.com/?cid=0x0:0xff0db84820d1c8ee,
building materials,Toko,Rumahku,"2P7W+M88, Watupute, Mowewe, Kabupaten Kolaka Timur, Sulawesi Tenggara 93519","Watupute, Mowewe, Kabupaten Kolaka Timur",SULAWESI TENGGARA,93519.0,Indonesia,,,,-3.9858392,121.7458382,https://maps.google.com/?cid=0x0:0x77777eeed941965a,
building materials,building materials,Sulawesi Tenggara 93573,"Kabupaten Kolaka, Sulawesi Tenggara","Kabupaten Kolaka, Sulawesi Tenggara",SULAWESI TENGGARA,,Indonesia,,,,-4.2654072,121.856261,https://maps.google.com/?cid=0x0:0xeafafa5d78b5c179,
building materials,Toko Bahan Bangunan,TOKO LONGORI BANGUNAN,"RMH6+PM8, Jl. Poros Kolaka - Pomalaa, Longori, Kec. Baula, Kabupaten Kolaka, Sulawesi Tenggara 93562","Jl. Poros Kolaka - Pomalaa, Longori, Kec. Baula, Kabupaten Kolaka",SULAWESI TENGGARA,93562.0,Indonesia, 08124161484,,,-4.1707005,121.6617039,https://maps.google.com/?cid=0x0:0x59fe297449ae997d,
building materials,Toko,Mega Rezky,"Jl. Konggoasa No.7, Dawi-Dawi, Kec. Pomalaa, Kabupaten Kolaka, Sulawesi Tenggara 93562","Dawi-Dawi, Kec. Pomalaa, Kabupaten Kolaka",SULAWESI TENGGARA,93562.0,Indonesia,,,,-4.1739858,121.6145436,https://maps.google.com/?cid=0x0:0xc64a0b14b2ad2c57,
building materials,Toko Bahan Bangunan,Toko Bangunan Amal Jaya HK,"Jl. Repelita No.68, Sea, Kec. Latambaga, Kabupaten Kolaka, Sulawesi Tenggara 93511","Sea, Kec. Latambaga, Kabupaten Kolaka",SULAWESI TENGGARA,93511.0,Indonesia, 082258887215,,,-4.0517441,121.5902395,https://maps.google.com/?cid=0x0:0x1b798920aba7f4fd,
building materials,Toko Bahan Bangunan,Toko ud h. Lahi,"RJF7+R35, Dawi-Dawi, Kec. Pomalaa, Kabupaten Kolaka, Sulawesi Tenggara 93562","Dawi-Dawi, Kec. Pomalaa, Kabupaten Kolaka",SULAWESI TENGGARA,93562.0,Indonesia,,,,-4.17494,121.612653,https://maps.google.com/?cid=0x0:0xb6389c8b75f24868,
building materials,Toko Bahan Bangunan,"MAXCELL DEPO TEKNIK  BANGUNAN (KOLAKA) | Toko Listrik, Elektronik, Furniture Kolaka","Jl. Pramuka, Lamokato, Kec. Kolaka, Kabupaten Kolaka, Sulawesi Tenggara 93511","Lamokato, Kec. Kolaka, Kabupaten Kolaka",SULAWESI TENGGARA,93511.0,Indonesia, 082166638222,,,-4.056492,121.5995077,https://maps.google.com/?cid=0x0:0xd15a51807812dfe,
building materials,Toko Bahan Bangunan,Toko Riski Bangunan,"Jalan Pemuda KM.3 No.415 E, Tahoa, Kec. Kolaka, Kabupaten Kolaka, Sulawesi Tenggara 93561","Tahoa, Kec. Kolaka, Kabupaten Kolaka",SULAWESI TENGGARA,93561.0,Indonesia, 085299994221,,,-4.066216,121.6195107,https://maps.google.com/?cid=0x0:0x9d76712335065c23,
building materials,building materials,,,,SULAWESI TENGGARA,,Indonesia, 082333065993,,,-2.44565,117.8888,https://maps.google.com/?cid=0x0:0xde6a6781dacd4041,
building materials,building materials,,,,SULAWESI TENGGARA,,Indonesia, 082333065993,,,-2.44565,117.8888,https://maps.google.com/?cid=0x0:0xc7582449e206c99e,
building materials,Toko Alat Listrik,Toko Rinda Mutiara Bangunan,"WJP4+VWC, Jl. Mekongga Indah, Kabupaten Kolaka, Sulawesi Tenggara 93561","Jl. Mekongga Indah, Kabupaten Kolaka",SULAWESI TENGGARA,93561.0,Indonesia, 085242464222,,,-4.0628045,121.6072652,https://maps.google.com/?cid=0x0:0x47560bf3b035d5cd,
building materials,Toko Bahan Bangunan,Intan motor/bangunan hanya jualan offline,"Jl. Pramuka No.39C, Lamokato, Kec. Kolaka, Kabupaten Kolaka, Sulawesi Tenggara 93513","Lamokato, Kec. Kolaka, Kabupaten Kolaka",SULAWESI TENGGARA,93513.0,Indonesia,,,,-4.0571487,121.6002509,https://maps.google.com/?cid=0x0:0x7392a64790905dfd,
building materials,Toko Bahan Bangunan,Sukses Bangunan,"Jl. Pramuka No.26, Lamokato, Kec. Kolaka, Kabupaten Kolaka, Sulawesi Tenggara 93511","Lamokato, Kec. Kolaka, Kabupaten Kolaka",SULAWESI TENGGARA,93511.0,Indonesia,,,,-4.0569657,121.6015032,https://maps.google.com/?cid=0x0:0x9d486ede2e2aca0e,
building materials,Toko Bahan Bangunan,Wahyu alma,"QWR3+WG4, Tokai, Kec. Poli-Polia, Kabupaten Kolaka, Sulawesi Tenggara 93573","Tokai, Kec. Poli-Polia, Kabupaten Kolaka",SULAWESI TENGGARA,93573.0,Indonesia, 081245344293,,,-4.2077347,121.9038433,https://maps.google.com/?cid=0x0:0xaf74e7d5a09e345f,
building materials,building materials,Firli Safitri Benhajar,"RW23+6H5, Unnamed Road, Kelurahan, Poli-Polia, Kec. Poli-Polia, Kabupaten Kolaka Timur, Sulawesi Tenggara 93573","Unnamed Road, Kelurahan, Poli-Polia, Kec. Poli-Polia, Kabupaten Kolaka Timur",SULAWESI TENGGARA,93573.0,Indonesia,,,,-4.1994824,121.9039867,https://maps.google.com/?cid=0x0:0x516d910605008256,
building materials,building materials,Poli-Polia,"Kec. Poli-Polia, Kabupaten Kolaka Timur, Sulawesi Tenggara","Kabupaten Kolaka Timur, Sulawesi Tenggara",SULAWESI TENGGARA,,Indonesia,,,,-4.1865835,121.8875679,https://maps.google.com/?cid=0x0:0xe57e9b1d5ca223cc,
building materials,Toko Bahan Bangunan,Toko Bangunan Aldi,"38FV+2RF, Tamboli, Kec. Samaturu, Kabupaten Kolaka, Sulawesi Tenggara 93915","Tamboli, Kec. Samaturu, Kabupaten Kolaka",SULAWESI TENGGARA,93915.0,Indonesia,,,,-3.9250901,121.3430285,https://maps.google.com/?cid=0x0:0x21dab41d7fdb9151,
building materials,Toko Bahan Bangunan,HIKMAH BANGUNAN,"MWWC+H4X, Lambandia, Kec. Lambandia, Kabupaten Kolaka Timur, Sulawesi Tenggara 93573","Lambandia, Kec. Lambandia, Kabupaten Kolaka Timur",SULAWESI TENGGARA,93573.0,Indonesia, 085394201987,,,-4.3035107,121.9203628,https://maps.google.com/?cid=0x0:0xf771590fcb855032,
building materials,Toko Bahan Bangunan,Toko Mitra Bangunan,"55QP+577, Jl. Poros Ranteangin - Kolaka, Ulu Kalo, Kec. Wolo, Kabupaten Kolaka, Sulawesi Tenggara 93552","Jl. Poros Ranteangin - Kolaka, Ulu Kalo, Kec. Wolo, Kabupaten Kolaka",SULAWESI TENGGARA,93552.0,Indonesia, 082349234573,,,-3.81208,121.1856716,https://maps.google.com/?cid=0x0:0xb360d1a29cdd25d,
building materials,Pusat Perbelanjaan,Toko Fardhan Bangunan,"Jl. Mekongga Indah Jl. By Pass, Kec. Kolaka, Kabupaten Kolaka, Sulawesi Tenggara 93511","Kec. Kolaka, Kabupaten Kolaka",SULAWESI TENGGARA,93511.0,Indonesia, 082233344445,,,-4.0627178,121.6074216,https://maps.google.com/?cid=0x0:0x93a84ef52a17c16b,
building materials,Toko Bahan Bangunan,TOKO LONGORI BANGUNAN,"RMH6+PM8, Jl. Poros Kolaka - Pomalaa, Longori, Kec. Baula, Kabupaten Kolaka, Sulawesi Tenggara 93562","Jl. Poros Kolaka - Pomalaa, Longori, Kec. Baula, Kabupaten Kolaka",SULAWESI TENGGARA,93562.0,Indonesia, 08124161484,,,-4.1707005,121.6617039,https://maps.google.com/?cid=0x0:0x59fe297449ae997d,
building materials,Toko Bahan Bangunan,TOKO BERAGAM BANGUNAN,"Tahoa, Kec. Kolaka, Kabupaten Kolaka, Sulawesi Tenggara 93561","Kec. Kolaka, Kabupaten Kolaka",SULAWESI TENGGARA,93561.0,Indonesia, 085255646333,,,-4.0670079,121.620245,https://maps.google.com/?cid=0x0:0x1efe5e1f790a47bd,
building materials,Toko Bahan Bangunan,Toko Riski Bangunan,"Jalan Pemuda KM.3 No.415 E, Tahoa, Kec. Kolaka, Kabupaten Kolaka, Sulawesi Tenggara 93561","Tahoa, Kec. Kolaka, Kabupaten Kolaka",SULAWESI TENGGARA,93561.0,Indonesia, 085299994221,,,-4.066216,121.6195107,https://maps.google.com/?cid=0x0:0x9d76712335065c23,
building materials,Toko,Sisky bangunan toko kayu bahan bangunan,"Lamokato, Kec. Kolaka, Kabupaten Kolaka, Sulawesi Tenggara","Kabupaten Kolaka, Sulawesi Tenggara",SULAWESI TENGGARA,,Indonesia, 085341111177,,,-4.0604861,121.600236,https://maps.google.com/?cid=0x0:0x796c6183317f94db,
building materials,Toko Bahan Bangunan,Toko Bangunan Aneka Baya,"RJG7+6X4, Tonggoni, Kec. Pomalaa, Kabupaten Kolaka, Sulawesi Tenggara 93562","Tonggoni, Kec. Pomalaa, Kabupaten Kolaka",SULAWESI TENGGARA,93562.0,Indonesia, 085241824886,,,-4.1744932,121.6149507,https://maps.google.com/?cid=0x0:0x8938d63b80a7ac4,
building materials,building materials,47-BANGUNAN,"RMQG+23, Puundoho, Kec. Baula, Kabupaten Kolaka, Sulawesi Tenggara","Kabupaten Kolaka, Sulawesi Tenggara",SULAWESI TENGGARA,,Indonesia,,,,-4.1624113,121.6751631,https://maps.google.com/?cid=0x0:0x73dde019e7a5d271,
building materials,Toko,Toko Risma Jaya,"Dusun 2 Lauro, Tawarombadaka, Kec. Tinondo, Kabupaten Kolaka Timur, Sulawesi Tenggara 93571","Tawarombadaka, Kec. Tinondo, Kabupaten Kolaka Timur",SULAWESI TENGGARA,93571.0,Indonesia, 085241525319,,,-3.9496866,121.8030863,https://maps.google.com/?cid=0x0:0x64530ce902bae30c,
building materials,Toko bahan makanan,Toko Risma jaya,"XV3R+2PV, Jl. Bolo, Rate-Rate, Kec. Tirawuta, Kabupaten Kolaka Timur, Sulawesi Tenggara 93572","Jl. Bolo, Rate-Rate, Kec. Tirawuta, Kabupaten Kolaka Timur",SULAWESI TENGGARA,93572.0,Indonesia,,,,-4.0496943,121.8918338,https://maps.google.com/?cid=0x0:0x45d6bbbe4a26a314,
building materials,Toko Bahan Bangunan,Toko Edo Bangunan,"XQGG+3VF, Lalolae, Kec. Lalolae, Kabupaten Kolaka Timur, Sulawesi Tenggara 93571","Lalolae, Kec. Lalolae, Kabupaten Kolaka Timur",SULAWESI TENGGARA,93571.0,Indonesia, 085242618602,,,-4.0248062,121.7771592,https://maps.google.com/?cid=0x0:0xe3341245faa51d1e,
building materials,Toko Bahan Bangunan,Toko Mitra Jaya 27,"XW3C+GG9, Jl. Poros Peatoa-Lara, Lara, Kec. Tirawuta, Kabupaten Kolaka Timur, Sulawesi Tenggara 93572","Jl. Poros Peatoa-Lara, Lara, Kec. Tirawuta, Kabupaten Kolaka Timur",SULAWESI TENGGARA,93572.0,Indonesia,,,,-4.0462216,121.9213656,https://maps.google.com/?cid=0x0:0xe557627fe082696c,
building materials,building materials,Sulawesi Tenggara 93572,Sulawesi Tenggara,Sulawesi Tenggara,SULAWESI TENGGARA,,Indonesia,,,,-4.0494144,121.947311,https://maps.google.com/?cid=0x0:0xfdc4defab63a0262,
building materials,Toko Bahan Bangunan,Toko Priyo,"WVRQ+539, Tasahea, Kec. Tirawuta, Kabupaten Kolaka, Sulawesi Tenggara 93572","Tasahea, Kec. Tirawuta, Kabupaten Kolaka",SULAWESI TENGGARA,93572.0,Indonesia, 085399448485,,,-4.0595768,121.8877259,https://maps.google.com/?cid=0x0:0xac6a254e954e1eaf,
building materials,Toko Bahan Bangunan,Toko putri Tunggal,"XWGH+R8J, Jl. Poros Rate-rate, Tawainalu, Kec. Tirawuta, Kabupaten Kolaka Timur, Sulawesi Tenggara 93572","Jl. Poros Rate-rate, Tawainalu, Kec. Tirawuta, Kabupaten Kolaka Timur",SULAWESI TENGGARA,93572.0,Indonesia, 085216684459,,,-4.0229005,121.9282617,https://maps.google.com/?cid=0x0:0x2d7fbbe2fe2de340,
building materials,Toko Bahan Bangunan,MADAN PUTRA ORAWA,"XV4X+538, Rate-Rate, Kec. Tirawuta, Kabupaten Kolaka, Sulawesi Tenggara 93572","Rate-Rate, Kec. Tirawuta, Kabupaten Kolaka",SULAWESI TENGGARA,93572.0,Indonesia, 082266331077,,,-4.0445985,121.8977051,https://maps.google.com/?cid=0x0:0xc536fb44881a9ae0,
building materials,Pusat Perbelanjaan,TOKO BANGUNAN MERTA MULIA,"Jl. Poros, Lamoare, Kec. Loea, Kabupaten Kolaka Timur, Sulawesi Tenggara 93572","Lamoare, Kec. Loea, Kabupaten Kolaka Timur",SULAWESI TENGGARA,93572.0,Indonesia, 085255072187,,,-4.0902276,121.8903196,https://maps.google.com/?cid=0x0:0x2d32e5060e93cb73,
building materials,Toko Alat Tulis Kantor,Toko Aneka Rupa,"Jl. Poros Kolaka - Rate-rate No.33, Rate-Rate, Kec. Tirawuta, Kabupaten Kolaka Timur, Sulawesi Tenggara 93572","Rate-Rate, Kec. Tirawuta, Kabupaten Kolaka Timur",SULAWESI TENGGARA,93572.0,Indonesia, 085242663330,,,-4.0462817,121.8923888,https://maps.google.com/?cid=0x0:0xb530e75c954331f,
building materials,Toko Bahan Bangunan,Toko Edo Bangunan,"XQGG+3VF, Lalolae, Kec. Lalolae, Kabupaten Kolaka Timur, Sulawesi Tenggara 93571","Lalolae, Kec. Lalolae, Kabupaten Kolaka Timur",SULAWESI TENGGARA,93571.0,Indonesia, 085242618602,,,-4.0248062,121.7771592,https://maps.google.com/?cid=0x0:0xe3341245faa51d1e,
building materials,Toko Bahan Bangunan,Wiji Sri utari,"XX5F+85C, BLK c, Kasumeia, Kec. Onembute, Kabupaten Konawe, Sulawesi Tenggara 93572","BLK c, Kasumeia, Kec. Onembute, Kabupaten Konawe",SULAWESI TENGGARA,93572.0,Indonesia,,,,-4.0416891,121.9729053,https://maps.google.com/?cid=0x0:0xdfa9c986b086262a,
building materials,Pertanian,Distributor Supplier Kayu Dan Ayam Mang Tir,"Desa No.Blok F, Teposua, Loea, East Kolaka Regency, South East Sulawesi 93572","Teposua, Loea, East Kolaka Regency",SULAWESI TENGGARA,93572.0,Indonesia, 082335346555,,,-4.1008806,121.884602,https://maps.google.com/?cid=0x0:0x80815b38b6429e98,
building materials,Toko Perlengkapan Rumah,Ninda Aluminium Rate Rate,"Kel, Rate-Rate, Kec. Tirawuta, Kabupaten Kolaka Timur, Sulawesi Tenggara 93572","Rate-Rate, Kec. Tirawuta, Kabupaten Kolaka Timur",SULAWESI TENGGARA,93572.0,Indonesia, 082290699944,,,-3.9833235,121.8989501,https://maps.google.com/?cid=0x0:0xbce88cfc20ac959,
building materials,Toko bahan makanan,Toko Sahabat Baru,"XV3R+FF5, Rate-Rate, Kec. Tirawuta, Kabupaten Kolaka, Sulawesi Tenggara 93572","Rate-Rate, Kec. Tirawuta, Kabupaten Kolaka",SULAWESI TENGGARA,93572.0,Indonesia,,,,-4.0463551,121.8912392,https://maps.google.com/?cid=0x0:0x137b99688957434e,
building materials,Bengkel Motor Elektrik,Toko Ilham motor ladongi,"Jl. Poros, Lalowosula, Kec. Ladongi, Kabupaten Kolaka Timur, Sulawesi Tenggara","Kabupaten Kolaka Timur, Sulawesi Tenggara",SULAWESI TENGGARA,,Indonesia, 081225128346,,,-4.1160189,121.9021005,https://maps.google.com/?cid=0x0:0x17debd8f7886e165,
building materials,building materials,SAHABAT RAYA 2,"XWGG+RCH, Woiha, Kec. Tirawuta, Kabupaten Kolaka, Sulawesi Tenggara","Kabupaten Kolaka, Sulawesi Tenggara",SULAWESI TENGGARA,,Indonesia,,,,-4.0229401,121.9260997,https://maps.google.com/?cid=0x0:0xb80e5ff2df1ef7ba,
building materials,building materials,TB Vania Berkah,"XV3J+VX, Tirawuta, Kec. Tirawuta, Kabupaten Kolaka, Sulawesi Tenggara 93572","Tirawuta, Kec. Tirawuta, Kabupaten Kolaka",SULAWESI TENGGARA,93572.0,Indonesia,,,,-4.0453421,121.8825199,https://maps.google.com/?cid=0x0:0x9829e6d07e0760ed,
building materials,Toko,Toko Buana Indah,"XW73+5H4, Jl. Poros Kolaka - Kendari, Orawa, Kec. Tirawuta, Kabupaten Kolaka Timur, Sulawesi Tenggara 93572","Jl. Poros Kolaka - Kendari, Orawa, Kec. Tirawuta, Kabupaten Kolaka Timur",SULAWESI TENGGARA,93572.0,Indonesia, 081248042911,,,-4.0371219,121.9039588,https://maps.google.com/?cid=0x0:0x5b1394d036f1f670,
building materials,Toko,Toko Risma Jaya,"Dusun 2 Lauro, Tawarombadaka, Kec. Tinondo, Kabupaten Kolaka Timur, Sulawesi Tenggara 93571","Tawarombadaka, Kec. Tinondo, Kabupaten Kolaka Timur",SULAWESI TENGGARA,93571.0,Indonesia, 085241525319,,,-3.9496866,121.8030863,https://maps.google.com/?cid=0x0:0x64530ce902bae30c,
building materials,Toko Bahan Bangunan,Sumber Rahmat,"VMPG+7V2, Jl. Poros Kolaka - Pomalaa Lorong Sapati, Lamekongga, Kec. Wundulako, Kabupaten Kolaka, Sulawesi Tenggara 93561","Jl. Poros Kolaka - Pomalaa Lorong Sapati, Lamekongga, Kec. Wundulako, Kabupaten Kolaka",SULAWESI TENGGARA,93561.0,Indonesia,,,,-4.1143584,121.6771539,https://maps.google.com/?cid=0x0:0xf8c194abb4377286,
building materials,Produsen batu bata,Jual batu merah distributor/agen terpercaya,"Belakang lapangan blok D /blok E, Trimulya, Kec. Onembute, Kabupaten Konawe, Sulawesi Tenggara 93465","Trimulya, Kec. Onembute, Kabupaten Konawe",SULAWESI TENGGARA,93465.0,Indonesia, 081248874675,,,-4.0468876,121.9923094,https://maps.google.com/?cid=0x0:0x577e8eda3f9136d3,
building materials,Toko Perlengkapan Rumah,Toko Alfrida Bangunan Tuoy,"Jl. Poros Raterate-Unaaha No.25, Tuoy, Kec. Unaaha, Kabupaten Konawe, Sulawesi Tenggara 93415","Tuoy, Kec. Unaaha, Kabupaten Konawe",SULAWESI TENGGARA,93415.0,Indonesia, 082346555474,,,-3.8673772,122.0703096,https://maps.google.com/?cid=0x0:0xa12d77044a6a9769,
building materials,Toko umum,Toko Arthomoro,"2P6V+CVJ, Watupute, Mowewe, Kabupaten Kolaka Timur, Sulawesi Tenggara 93519","Watupute, Mowewe, Kabupaten Kolaka Timur",SULAWESI TENGGARA,93519.0,Indonesia,,,,-3.9889214,121.744638,https://maps.google.com/?cid=0x0:0xff0db84820d1c8ee,
building materials,Toko Bahan Bangunan,Toko Balito Indah,"Tawarotebota, Kec. Uepai, Kabupaten Konawe, Sulawesi Tenggara 93415","Kec. Uepai, Kabupaten Konawe",SULAWESI TENGGARA,93415.0,Indonesia, 085763326512,,,-3.9138799,122.0638057,https://maps.google.com/?cid=0x0:0xd5487d709b9141f7,
building materials,Toko Bahan Bangunan,TB Al-Muhajirin Sonai,"X448+6WR, Watundehoa, Kec. Puriala, Kabupaten Konawe, Sulawesi Tenggara","Kabupaten Konawe, Sulawesi Tenggara",SULAWESI TENGGARA,,Indonesia, 082340169990,,,-4.0311848,122.122099,https://maps.google.com/?cid=0x0:0xc7b45b0ff7b427a7,
building materials,Toko Bahan Bangunan,Toko 27 Asinua,"Jl. Sawerigading, Samping Pasar No.125, Asinua, Kec. Unaaha, Kabupaten Konawe, Sulawesi Tenggara 93415","Samping Pasar No.125, Asinua, Kec. Unaaha, Kabupaten Konawe",SULAWESI TENGGARA,93415.0,Indonesia, 081341779773,,,-3.8538716,122.0716598,https://maps.google.com/?cid=0x0:0x6d1cfdfc7ac10a2b,
building materials,building materials,Sulawesi Tenggara 93575,"Kabupaten Kolaka, Sulawesi Tenggara","Kabupaten Kolaka, Sulawesi Tenggara",SULAWESI TENGGARA,,Indonesia,,,,-3.5101108,121.3998995,https://maps.google.com/?cid=0x0:0xc8b7a5389edae68c,
building materials,Toko Bahan Bangunan,TOKO KEMILAU PONRE,"7F44+5RM Dusun 1 Al-Muhajirin, Tolowe Ponrewaru, Kec. Wolo, Kabupaten Kolaka, Sulawesi Tenggara","Kabupaten Kolaka, Sulawesi Tenggara",SULAWESI TENGGARA,,Indonesia, 085242818727,,,-3.7445418,121.4570447,https://maps.google.com/?cid=0x0:0xa0ba55ffab48fb24,
building materials,Pasar bahan bangunan,TOKO MEGA TAMA Wawotobi (Toko Bangunan),"Jl. Jend Sudirman No.17, Wawotobi, Kec. Wawotobi, Kabupaten Konawe, Sulawesi Tenggara 93461","Wawotobi, Kec. Wawotobi, Kabupaten Konawe",SULAWESI TENGGARA,93461.0,Indonesia, 085216149991,,,-3.8766033,122.1086909,https://maps.google.com/?cid=0x0:0x6590efc314bd5d70,
building materials,Toko Bahan Bangunan,Tongauna Jaya,"Jl. Poros Unaaha, Lalonggowuna, Kec. Abuki, Kabupaten Konawe, Sulawesi Tenggara 93461","Lalonggowuna, Kec. Abuki, Kabupaten Konawe",SULAWESI TENGGARA,93461.0,Indonesia, 085246540505,,,-3.8077055,121.990537,https://maps.google.com/?cid=0x0:0xa072c57b542f6991,
building materials,Toko Bahan Bangunan,Toko Sinar Abadi,"Jl. Poros Kolaka - Wolo No.77, Mangolo, Kec. Latambaga, Kabupaten Kolaka, Sulawesi Tenggara 93514","Mangolo, Kec. Latambaga, Kabupaten Kolaka",SULAWESI TENGGARA,93514.0,Indonesia,,,,-4.0205262,121.5505668,https://maps.google.com/?cid=0x0:0xbaaea39c38eef387,
building materials,Kontraktor Umum,UD. Wawotobi Raya,"34XM+68, Ranoeya, Kec. Wawotobi, Kabupaten Konawe, Sulawesi Tenggara","Kabupaten Konawe, Sulawesi Tenggara",SULAWESI TENGGARA,,Indonesia,,,,-3.901919,122.1332489,https://maps.google.com/?cid=0x0:0x2d83c5854924e2fc,
building materials,building materials,Toko MH Bangunan,"V4J3+X8F, Jl. Poros Batuputih - Olooloho, Lengkong Batu, Kec. Pakue Utara, Kabupaten Kolaka Utara, Sulawesi Tenggara 93954","Jl. Poros Batuputih - Olooloho, Lengkong Batu, Kec. Pakue Utara, Kabupaten Kolaka Utara",SULAWESI TENGGARA,93954.0,Indonesia,,,,-3.1175343,121.1033194,https://maps.google.com/?cid=0x0:0x75bc7366498cab53,
building materials,Perusahaan Konstruksi,BENKEL LAS ALIF,"436V+6H9, Tudaone, Kec. Unaaha, Kabupaten Konawe, Sulawesi Tenggara 93461","Tudaone, Kec. Unaaha, Kabupaten Konawe",SULAWESI TENGGARA,93461.0,Indonesia, 082296643687,,,-3.8894662,122.0939748,https://maps.google.com/?cid=0x0:0x43624a066e1035b5,
building materials,,Tokoh bangunan zainal,"592P+C5M, Jl. Poros Bungku Sel. - Kendari, Tondowatu, Kec. Motui, Kabupaten Konawe Utara, Sulawesi Tenggara","Kabupaten Konawe Utara, Sulawesi Tenggara",SULAWESI TENGGARA,,Indonesia,,,,-3.8489083,122.3854268,https://maps.google.com/?cid=0x0:0x94d4646d19d114b0,
building materials,Toko Swalayan,Toko Wahyu mandiri,"Langgomea, Kec. Uepai, Kabupaten Konawe, Sulawesi Tenggara 93464","Kec. Uepai, Kabupaten Konawe",SULAWESI TENGGARA,93464.0,Indonesia, 085397990203,,,-3.9221796,122.0491821,https://maps.google.com/?cid=0x0:0x2be9f83842718045,
building materials,Toko Bahan Bangunan,TOKO KEMILAU PONRE,"5852+J24 Dusun 1 Al-Muhajirin, Tolowe Ponrewaru, Kec. Wolo, Kabupaten Kolaka, Sulawesi Tenggara","Kabupaten Kolaka, Sulawesi Tenggara",SULAWESI TENGGARA,,Indonesia,,,,-3.8409855,121.3000659,https://maps.google.com/?cid=0x0:0x2af55dc8ac16f997,
building materials,Toko Bahan Bangunan,Toko Edo Bangunan,"XQGG+3VF, Lalolae, Kec. Lalolae, Kabupaten Kolaka Timur, Sulawesi Tenggara 93571","Lalolae, Kec. Lalolae, Kabupaten Kolaka Timur",SULAWESI TENGGARA,93571.0,Indonesia, 085242618602,,,-4.0248062,121.7771592,https://maps.google.com/?cid=0x0:0xe3341245faa51d1e,
building materials,Toko Bahan Bangunan,TOKO BERAGAM BANGUNAN,"Tahoa, Kec. Kolaka, Kabupaten Kolaka, Sulawesi Tenggara 93561","Kec. Kolaka, Kabupaten Kolaka",SULAWESI TENGGARA,93561.0,Indonesia, 085255646333,,,-4.0670079,121.620245,https://maps.google.com/?cid=0x0:0x1efe5e1f790a47bd,
building materials,Toko Bahan Bangunan,Toko Balito Indah,"Tawarotebota, Kec. Uepai, Kabupaten Konawe, Sulawesi Tenggara 93415","Kec. Uepai, Kabupaten Konawe",SULAWESI TENGGARA,93415.0,Indonesia, 085763326512,,,-3.9138799,122.0638057,https://maps.google.com/?cid=0x0:0xd5487d709b9141f7,
building materials,Toko Bahan Bangunan,PT.Amirullah,"W4F6+P57, Jl. Poros Batuputih - Olooloho, Lengkong Batu, Kec. Pakue Utara, Kabupaten Kolaka Utara, Sulawesi Tenggara 93955","Jl. Poros Batuputih - Olooloho, Lengkong Batu, Kec. Pakue Utara, Kabupaten Kolaka Utara",SULAWESI TENGGARA,93955.0,Indonesia, 085210896798,,,-3.0757125,121.1104237,https://maps.google.com/?cid=0x0:0x64a2c8e1313f16f9,
building materials,Toko Bahan Bangunan,TIGA TAMA,"Q24Q+GQ9, Kasumeeto, Kec. Pakue, Kabupaten Kolaka Utara, Sulawesi Tenggara 93954","Kasumeeto, Kec. Pakue, Kabupaten Kolaka Utara",SULAWESI TENGGARA,93954.0,Indonesia,,,,-3.2437189,121.0394817,https://maps.google.com/?cid=0x0:0x7656c886796611cb,
building materials,Toko umum,Toko Arthomoro,"2P6V+CVJ, Watupute, Mowewe, Kabupaten Kolaka Timur, Sulawesi Tenggara 93519","Watupute, Mowewe, Kabupaten Kolaka Timur",SULAWESI TENGGARA,93519.0,Indonesia,,,,-3.9889214,121.744638,https://maps.google.com/?cid=0x0:0xff0db84820d1c8ee,
building materials,Toko Bahan Bangunan,Cetakan batako fres,"Tawamelewe, Kec. Uepai, Kabupaten Konawe, Sulawesi Tenggara 93461","Kec. Uepai, Kabupaten Konawe",SULAWESI TENGGARA,93461.0,Indonesia, 082290712977,,,-3.9201842,122.0883575,https://maps.google.com/?cid=0x0:0xf7373f156190cb52,
building materials,,Toko Buana Indah,"Puunaaha, Kec. Unaaha, Kabupaten Konawe, Sulawesi Tenggara 93415","Kec. Unaaha, Kabupaten Konawe",SULAWESI TENGGARA,93415.0,Indonesia, 085241673940,,,-3.8579013,122.0421464,https://maps.google.com/?cid=0x0:0xbfdbea1d1e990acd,
building materials,Toko Bahan Bangunan,Sinar Mampu beton (menjual roster pagar  dinding),"Lapai, Kec. Ngapa, Kabupaten Kolaka Utara, Sulawesi Tenggara 93958","Kec. Ngapa, Kabupaten Kolaka Utara",SULAWESI TENGGARA,93958.0,Indonesia, 082292396655,,,-3.2946787,121.0102348,https://maps.google.com/?cid=0x0:0x988199c6a8b8b148,
building materials,Toko Bahan Bangunan,UD. 77,"P2Q7+R8, Tambuha, Kec. Watunohu, Kabupaten Kolaka Utara, Sulawesi Tenggara","Kabupaten Kolaka Utara, Sulawesi Tenggara",SULAWESI TENGGARA,,Indonesia, 082350498297,,,-3.2706932,121.0200715,https://maps.google.com/?cid=0x0:0x7ab314abba0032ac,
building materials,Toko Bahan Bangunan,Toko 27 Asinua,"Jl. Sawerigading, Samping Pasar No.125, Asinua, Kec. Unaaha, Kabupaten Konawe, Sulawesi Tenggara 93415","Samping Pasar No.125, Asinua, Kec. Unaaha, Kabupaten Konawe",SULAWESI TENGGARA,93415.0,Indonesia, 081341779773,,,-3.8538716,122.0716598,https://maps.google.com/?cid=0x0:0x6d1cfdfc7ac10a2b,
building materials,building materials,Uluiwoi,"Kabupaten Kolaka Timur, Sulawesi Tenggara","Kabupaten Kolaka Timur, Sulawesi Tenggara",SULAWESI TENGGARA,,Indonesia,,,,-3.5135191,121.3084088,https://maps.google.com/?cid=0x0:0x20350af16ed96c96,
building materials,Toko Bahan Bangunan,Tb.Dewata,"V36Q+HJX, Jl. Poros Batuputih - Olooloho, Latali, Kec. Pakue Tengah, Kabupaten Kolaka Utara, Sulawesi Tenggara 93954","Jl. Poros Batuputih - Olooloho, Latali, Kec. Pakue Tengah, Kabupaten Kolaka Utara",SULAWESI TENGGARA,93954.0,Indonesia, 0895130809372,,,-3.138512,121.0891049,https://maps.google.com/?cid=0x0:0xe4af17b738ab7364,
building materials,Toko Bahan Bangunan,Toko Riski Bangunan,"Jalan Pemuda KM.3 No.415 E, Tahoa, Kec. Kolaka, Kabupaten Kolaka, Sulawesi Tenggara 93561","Tahoa, Kec. Kolaka, Kabupaten Kolaka",SULAWESI TENGGARA,93561.0,Indonesia, 085299994221,,,-4.066216,121.6195107,https://maps.google.com/?cid=0x0:0x9d76712335065c23,
building materials,Toko,Sisky bangunan toko kayu bahan bangunan,"Lamokato, Kec. Kolaka, Kabupaten Kolaka, Sulawesi Tenggara","Kabupaten Kolaka, Sulawesi Tenggara",SULAWESI TENGGARA,,Indonesia, 085341111177,,,-4.0604861,121.600236,https://maps.google.com/?cid=0x0:0x796c6183317f94db,
building materials,Toko Perlengkapan Rumah,Langgeng Business Kolaka,"BTN Griya Bintang Elegan, Mangolo, Jl. Poros Kolaka - Wolo No.4 Blok. C, Mangolo, Kec. Kolaka, Kabupaten Kolaka, Sulawesi Tenggara 93516","Mangolo, Jl. Poros Kolaka - Wolo No.4 Blok. C, Mangolo, Kec. Kolaka, Kabupaten Kolaka",SULAWESI TENGGARA,93516.0,Indonesia, 085231334275,,,-4.0294901,121.5464889,https://maps.google.com/?cid=0x0:0x82f0af442122e7df,
building materials,Toko Bahan Bangunan,Karya 72,"P2MG+V4H, Seuwwa, Kec. Pakue, Kabupaten Kolaka Utara, Sulawesi Tenggara 93954","Seuwwa, Kec. Pakue, Kabupaten Kolaka Utara",SULAWESI TENGGARA,93954.0,Indonesia,,,,-3.2655672,121.0259472,https://maps.google.com/?cid=0x0:0x9017085cd8451331,
building materials,Toko,Toko Risma Jaya,"Dusun 2 Lauro, Tawarombadaka, Kec. Tinondo, Kabupaten Kolaka Timur, Sulawesi Tenggara 93571","Tawarombadaka, Kec. Tinondo, Kabupaten Kolaka Timur",SULAWESI TENGGARA,93571.0,Indonesia, 085241525319,,,-3.9496866,121.8030863,https://maps.google.com/?cid=0x0:0x64530ce902bae30c,
toko bangunan,toko bangunan,Ladongi,"Ladongi, Kec. Ladongi, Kabupaten Kolaka Timur, Sulawesi Tenggara","Kabupaten Kolaka Timur, Sulawesi Tenggara",SULAWESI TENGGARA,,Indonesia,,,,-4.142409,121.901901,https://maps.google.com/?cid=0x0:0xf976c8583833e88d,
toko bangunan,Toko Perlengkapan Rumah,Toko 237 BANGUNAN,"RW4Q+72J, Gn. Jaya, Kec. Ladongi, Kabupaten Kolaka Timur, Sulawesi Tenggara 93573","Gn. Jaya, Kec. Ladongi, Kabupaten Kolaka Timur",SULAWESI TENGGARA,93573.0,Indonesia, 082346811111,,,-4.1942822,121.937503,https://maps.google.com/?cid=0x0:0xb77af64a0ab58cb3,
toko bangunan,Toko Bahan Bangunan,Toko Bangunan Emman,"RX42+PXH, Gn., Gn. Jaya, Kec. Ladongi, Kabupaten Kolaka, Sulawesi Tenggara 93573","Gn., Gn. Jaya, Kec. Ladongi, Kabupaten Kolaka",SULAWESI TENGGARA,93573.0,Indonesia,,,,-4.1931886,121.9524931,https://maps.google.com/?cid=0x0:0x14623eb1c5e7aa7d,
toko bangunan,Bengkel Motor Elektrik,Toko Ilham motor ladongi,"Jl. Poros, Lalowosula, Kec. Ladongi, Kabupaten Kolaka Timur, Sulawesi Tenggara","Kabupaten Kolaka Timur, Sulawesi Tenggara",SULAWESI TENGGARA,,Indonesia, 081225128346,,,-4.1160189,121.9021005,https://maps.google.com/?cid=0x0:0x17debd8f7886e165,
toko bangunan,Toko,TOKO BANGUNAN HIDAYAH,"55W7+9JF, Jl. Poros Ranteangin - Kolaka, Ladahai, Kec. Wolo, Kabupaten Kolaka, Sulawesi Tenggara 93552","Jl. Poros Ranteangin - Kolaka, Ladahai, Kec. Wolo, Kabupaten Kolaka",SULAWESI TENGGARA,93552.0,Indonesia, 082297951192,,,-3.8040631,121.1640482,https://maps.google.com/?cid=0x0:0x22adb750f815ab9e,
toko bangunan,Toko Bahan Bangunan,Toko Edo Bangunan,"XQGG+3VF, Lalolae, Kec. Lalolae, Kabupaten Kolaka Timur, Sulawesi Tenggara 93571","Lalolae, Kec. Lalolae, Kabupaten Kolaka Timur",SULAWESI TENGGARA,93571.0,Indonesia, 085242618602,,,-4.0248062,121.7771592,https://maps.google.com/?cid=0x0:0xe3341245faa51d1e,
toko bangunan,Pusat Perbelanjaan,TOKO BANGUNAN MERTA MULIA,"Jl. Poros, Lamoare, Kec. Loea, Kabupaten Kolaka Timur, Sulawesi Tenggara 93572","Lamoare, Kec. Loea, Kabupaten Kolaka Timur",SULAWESI TENGGARA,93572.0,Indonesia, 085255072187,,,-4.0902276,121.8903196,https://maps.google.com/?cid=0x0:0x2d32e5060e93cb73,
toko bangunan,,Toko Tiga Putra Jaya,"Blok j, Raraa, Kec. Ladongi, Kabupaten Kolaka Timur, Sulawesi Tenggara 93573","Raraa, Kec. Ladongi, Kabupaten Kolaka Timur",SULAWESI TENGGARA,93573.0,Indonesia, 082393349287,,,-4.1729465,121.9314226,https://maps.google.com/?cid=0x0:0xc635717ffd0bab64,
toko bangunan,Toko Bahan Bangunan,TOKO BAHAN APLIKASI BANGUNAN,"GV5J+36H, Ponggiha, Kec. Lasusua, Kabupaten Kolaka Utara, Sulawesi Tenggara 93914","Ponggiha, Kec. Lasusua, Kabupaten Kolaka Utara",SULAWESI TENGGARA,93914.0,Indonesia, 08114206900,,,-3.4924433,120.8804003,https://maps.google.com/?cid=0x0:0xf23c073d64879223,
toko bangunan,Toko Bahan Bangunan,Toko ud h. Lahi,"RJF7+R35, Dawi-Dawi, Kec. Pomalaa, Kabupaten Kolaka, Sulawesi Tenggara 93562","Dawi-Dawi, Kec. Pomalaa, Kabupaten Kolaka",SULAWESI TENGGARA,93562.0,Indonesia,,,,-4.17494,121.612653,https://maps.google.com/?cid=0x0:0xb6389c8b75f24868,
toko bangunan,Toko Bahan Bangunan,Toko Abadi jaya bangunan,"XH84+4VF, Jl. Poros Ranteangin - Kolaka, Mangolo, Kec. Latambaga, Kabupaten Kolaka, Sulawesi Tenggara","Kabupaten Kolaka, Sulawesi Tenggara",SULAWESI TENGGARA,,Indonesia, 082293633391,,,-4.0346886,121.5571731,https://maps.google.com/?cid=0x0:0x359bcbcfbb005f31,
toko bangunan,Toko Bahan Bangunan,Toko Mitra Bangunan,"55QP+577, Jl. Poros Ranteangin - Kolaka, Ulu Kalo, Kec. Wolo, Kabupaten Kolaka, Sulawesi Tenggara 93552","Jl. Poros Ranteangin - Kolaka, Ulu Kalo, Kec. Wolo, Kabupaten Kolaka",SULAWESI TENGGARA,93552.0,Indonesia, 082349234573,,,-3.81208,121.1856716,https://maps.google.com/?cid=0x0:0xb360d1a29cdd25d,
toko bangunan,toko bangunan,Kec. Lalolae,"Kabupaten Kolaka Timur, Sulawesi Tenggara","Kabupaten Kolaka Timur, Sulawesi Tenggara",SULAWESI TENGGARA,,Indonesia,,,,-4.0256541,121.7842582,https://maps.google.com/?cid=0x0:0x16745ece4e90ef2b,
toko bangunan,Toko Bahan Bangunan,Toko Edo Bangunan,"XQGG+3VF, Lalolae, Kec. Lalolae, Kabupaten Kolaka Timur, Sulawesi Tenggara 93571","Lalolae, Kec. Lalolae, Kabupaten Kolaka Timur",SULAWESI TENGGARA,93571.0,Indonesia, 085242618602,,,-4.0248062,121.7771592,https://maps.google.com/?cid=0x0:0xe3341245faa51d1e,
toko bangunan,Pusat Perbelanjaan,TOKO BANGUNAN MERTA MULIA,"Jl. Poros, Lamoare, Kec. Loea, Kabupaten Kolaka Timur, Sulawesi Tenggara 93572","Lamoare, Kec. Loea, Kabupaten Kolaka Timur",SULAWESI TENGGARA,93572.0,Indonesia, 085255072187,,,-4.0902276,121.8903196,https://maps.google.com/?cid=0x0:0x2d32e5060e93cb73,
toko bangunan,Toko Bahan Bangunan,Toko Bangunan Emman,"RX42+PXH, Gn., Gn. Jaya, Kec. Ladongi, Kabupaten Kolaka, Sulawesi Tenggara 93573","Gn., Gn. Jaya, Kec. Ladongi, Kabupaten Kolaka",SULAWESI TENGGARA,93573.0,Indonesia,,,,-4.1931886,121.9524931,https://maps.google.com/?cid=0x0:0x14623eb1c5e7aa7d,
toko bangunan,Toko,Toko Mega Bangunan,"Jl. Trans Sulawesi No.93, Puumbolo, Kec. Wawo, Kabupaten Kolaka Utara, Sulawesi Tenggara 93956","Puumbolo, Kec. Wawo, Kabupaten Kolaka Utara",SULAWESI TENGGARA,93956.0,Indonesia, 085241544951,,,-3.6717431,121.0422216,https://maps.google.com/?cid=0x0:0xb597653788f8ed2e,
toko bangunan,Toko Bahan Bangunan,Toko Bangunan Amal Jaya Keramik,"Jl. Pramuka, Lamokato, Kec. Kolaka, Kabupaten Kolaka, Sulawesi Tenggara 93561","Lamokato, Kec. Kolaka, Kabupaten Kolaka",SULAWESI TENGGARA,93561.0,Indonesia, 082188788865,,,-4.057311,121.6020425,https://maps.google.com/?cid=0x0:0x4eac5208ccfe082b,
toko bangunan,Toko Bahan Bangunan,Toko Bangunan Aneka Baya,"RJG7+6X4, Tonggoni, Kec. Pomalaa, Kabupaten Kolaka, Sulawesi Tenggara 93562","Tonggoni, Kec. Pomalaa, Kabupaten Kolaka",SULAWESI TENGGARA,93562.0,Indonesia, 085241824886,,,-4.1744932,121.6149507,https://maps.google.com/?cid=0x0:0x8938d63b80a7ac4,
toko bangunan,Toko Bahan Bangunan,Toko Mitra Bangunan,"55QP+577, Jl. Poros Ranteangin - Kolaka, Ulu Kalo, Kec. Wolo, Kabupaten Kolaka, Sulawesi Tenggara 93552","Jl. Poros Ranteangin - Kolaka, Ulu Kalo, Kec. Wolo, Kabupaten Kolaka",SULAWESI TENGGARA,93552.0,Indonesia, 082349234573,,,-3.81208,121.1856716,https://maps.google.com/?cid=0x0:0xb360d1a29cdd25d,
toko bangunan,Toko Bahan Bangunan,Toko Riski Bangunan,"Jalan Pemuda KM.3 No.415 E, Tahoa, Kec. Kolaka, Kabupaten Kolaka, Sulawesi Tenggara 93561","Tahoa, Kec. Kolaka, Kabupaten Kolaka",SULAWESI TENGGARA,93561.0,Indonesia, 085299994221,,,-4.066216,121.6195107,https://maps.google.com/?cid=0x0:0x9d76712335065c23,
toko bangunan,Toko,Toko Risma Jaya,"Dusun 2 Lauro, Tawarombadaka, Kec. Tinondo, Kabupaten Kolaka Timur, Sulawesi Tenggara 93571","Tawarombadaka, Kec. Tinondo, Kabupaten Kolaka Timur",SULAWESI TENGGARA,93571.0,Indonesia, 085241525319,,,-3.9496866,121.8030863,https://maps.google.com/?cid=0x0:0x64530ce902bae30c,
toko bangunan,Toko Alat Tulis Kantor,Toko Aneka Rupa,"Jl. Poros Kolaka - Rate-rate No.33, Rate-Rate, Kec. Tirawuta, Kabupaten Kolaka Timur, Sulawesi Tenggara 93572","Rate-Rate, Kec. Tirawuta, Kabupaten Kolaka Timur",SULAWESI TENGGARA,93572.0,Indonesia, 085242663330,,,-4.0462817,121.8923888,https://maps.google.com/?cid=0x0:0xb530e75c954331f,
toko bangunan,Toko Bahan Bangunan,Toko Sinar Abadi,"Jl. Poros Kolaka - Wolo No.77, Mangolo, Kec. Latambaga, Kabupaten Kolaka, Sulawesi Tenggara 93514","Mangolo, Kec. Latambaga, Kabupaten Kolaka",SULAWESI TENGGARA,93514.0,Indonesia,,,,-4.0205262,121.5505668,https://maps.google.com/?cid=0x0:0xbaaea39c38eef387,
toko bangunan,Toko,TOKO BANGUNAN HIDAYAH,"55W7+9JF, Jl. Poros Ranteangin - Kolaka, Ladahai, Kec. Wolo, Kabupaten Kolaka, Sulawesi Tenggara 93552","Jl. Poros Ranteangin - Kolaka, Ladahai, Kec. Wolo, Kabupaten Kolaka",SULAWESI TENGGARA,93552.0,Indonesia, 082297951192,,,-3.8040631,121.1640482,https://maps.google.com/?cid=0x0:0x22adb750f815ab9e,
toko bangunan,Toko Bahan Bangunan,Amal Jaya HM Toko,"Jl. Sorume No.11, Sakuli, Kec. Latambaga, Kabupaten Kolaka, Sulawesi Tenggara 93511","Sakuli, Kec. Latambaga, Kabupaten Kolaka",SULAWESI TENGGARA,93511.0,Indonesia, 040522300,,,-4.0493023,121.5939325,https://maps.google.com/?cid=0x0:0x1cd1c353c623c7c0,
toko bangunan,Toko Bahan Bangunan,TOKO BAHAN APLIKASI BANGUNAN,"GV5J+36H, Ponggiha, Kec. Lasusua, Kabupaten Kolaka Utara, Sulawesi Tenggara 93914","Ponggiha, Kec. Lasusua, Kabupaten Kolaka Utara",SULAWESI TENGGARA,93914.0,Indonesia, 08114206900,,,-3.4924433,120.8804003,https://maps.google.com/?cid=0x0:0xf23c073d64879223,
toko bangunan,Toko Bahan Bangunan,TOKO LONGORI BANGUNAN,"RMH6+PM8, Jl. Poros Kolaka - Pomalaa, Longori, Kec. Baula, Kabupaten Kolaka, Sulawesi Tenggara 93562","Jl. Poros Kolaka - Pomalaa, Longori, Kec. Baula, Kabupaten Kolaka",SULAWESI TENGGARA,93562.0,Indonesia, 08124161484,,,-4.1707005,121.6617039,https://maps.google.com/?cid=0x0:0x59fe297449ae997d,
toko bangunan,Bengkel Motor Elektrik,Toko Ilham motor ladongi,"Jl. Poros, Lalowosula, Kec. Ladongi, Kabupaten Kolaka Timur, Sulawesi Tenggara","Kabupaten Kolaka Timur, Sulawesi Tenggara",SULAWESI TENGGARA,,Indonesia, 081225128346,,,-4.1160189,121.9021005,https://maps.google.com/?cid=0x0:0x17debd8f7886e165,
toko bangunan,Toko Alat Listrik,Toko Aqil Jaya Bangunan,"WJP5+Q2G, Jl. Mekongga Indah, Laloeha, Kec. Kolaka, Sulawesi Tenggara",Sulawesi Tenggara,SULAWESI TENGGARA,,Indonesia, 082188166888,,,-4.0630534,121.6075719,https://maps.google.com/?cid=0x0:0x17f5954d24b175ce,
toko bangunan,Toko Bahan Bangunan,Toko Abadi jaya bangunan,"XH84+4VF, Jl. Poros Ranteangin - Kolaka, Mangolo, Kec. Latambaga, Kabupaten Kolaka, Sulawesi Tenggara","Kabupaten Kolaka, Sulawesi Tenggara",SULAWESI TENGGARA,,Indonesia, 082293633391,,,-4.0346886,121.5571731,https://maps.google.com/?cid=0x0:0x359bcbcfbb005f31,
toko bangunan,Toko Bahan Bangunan,TOKO BERAGAM BANGUNAN,"Tahoa, Kec. Kolaka, Kabupaten Kolaka, Sulawesi Tenggara 93561","Kec. Kolaka, Kabupaten Kolaka",SULAWESI TENGGARA,93561.0,Indonesia, 085255646333,,,-4.0670079,121.620245,https://maps.google.com/?cid=0x0:0x1efe5e1f790a47bd,
toko bangunan,Toko Bahan Bangunan,Sumber Rahmat,"VMPG+7V2, Jl. Poros Kolaka - Pomalaa Lorong Sapati, Lamekongga, Kec. Wundulako, Kabupaten Kolaka, Sulawesi Tenggara 93561","Jl. Poros Kolaka - Pomalaa Lorong Sapati, Lamekongga, Kec. Wundulako, Kabupaten Kolaka",SULAWESI TENGGARA,93561.0,Indonesia,,,,-4.1143584,121.6771539,https://maps.google.com/?cid=0x0:0xf8c194abb4377286,
toko bangunan,Toko umum,Toko Arthomoro,"2P6V+CVJ, Watupute, Mowewe, Kabupaten Kolaka Timur, Sulawesi Tenggara 93519","Watupute, Mowewe, Kabupaten Kolaka Timur",SULAWESI TENGGARA,93519.0,Indonesia,,,,-3.9889214,121.744638,https://maps.google.com/?cid=0x0:0xff0db84820d1c8ee,
toko bangunan,toko bangunan,Sulawesi Tenggara 93573,"Kabupaten Kolaka, Sulawesi Tenggara","Kabupaten Kolaka, Sulawesi Tenggara",SULAWESI TENGGARA,,Indonesia,,,,-4.2654072,121.856261,https://maps.google.com/?cid=0x0:0xeafafa5d78b5c179,
toko bangunan,Toko Bahan Bangunan,HIKMAH BANGUNAN,"MWWC+H4X, Lambandia, Kec. Lambandia, Kabupaten Kolaka Timur, Sulawesi Tenggara 93573","Lambandia, Kec. Lambandia, Kabupaten Kolaka Timur",SULAWESI TENGGARA,93573.0,Indonesia, 085394201987,,,-4.3035107,121.9203628,https://maps.google.com/?cid=0x0:0xf771590fcb855032,
toko bangunan,Toko Bahan Bangunan,Lambandia,"MWWC+2QQ, Lambandia, Kec. Lambandia, Kabupaten Kolaka Timur, Sulawesi Tenggara 93573","Lambandia, Kec. Lambandia, Kabupaten Kolaka Timur",SULAWESI TENGGARA,93573.0,Indonesia,,,,-4.3049086,121.9219957,https://maps.google.com/?cid=0x0:0x4f47e8495390b92f,
toko bangunan,Toko Bahan Bangunan,Toko Bangunan SYAHRUL JAYA,"MWVJ+9QJ, Penanggo Jaya, Kec. Lambandia, Kabupaten Kolaka, Sulawesi Tenggara 93573","Penanggo Jaya, Kec. Lambandia, Kabupaten Kolaka",SULAWESI TENGGARA,93573.0,Indonesia, 0877667110995,,,-4.3065341,121.9318832,https://maps.google.com/?cid=0x0:0xb7555c3eeb292a30,
toko bangunan,Toko Bahan Bangunan,Toko rifaldi,"MWXG+P93, Penanggo Jaya, Kec. Lambandia, Kabupaten Kolaka Timur, Sulawesi Tenggara 93573","Penanggo Jaya, Kec. Lambandia, Kabupaten Kolaka Timur",SULAWESI TENGGARA,93573.0,Indonesia, 085258082553,,,-4.3007442,121.9259158,https://maps.google.com/?cid=0x0:0x99c6fcff4ec16662,
toko bangunan,toko bangunan,Sulawesi Tenggara 93572,Sulawesi Tenggara,Sulawesi Tenggara,SULAWESI TENGGARA,,Indonesia,,,,-4.0494144,121.947311,https://maps.google.com/?cid=0x0:0xfdc4defab63a0262,
toko bangunan,Pusat Perbelanjaan,TOKO BANGUNAN MERTA MULIA,"Jl. Poros, Lamoare, Kec. Loea, Kabupaten Kolaka Timur, Sulawesi Tenggara 93572","Lamoare, Kec. Loea, Kabupaten Kolaka Timur",SULAWESI TENGGARA,93572.0,Indonesia, 085255072187,,,-4.0902276,121.8903196,https://maps.google.com/?cid=0x0:0x2d32e5060e93cb73,
toko bangunan,Toko Bahan Bangunan,Toko Edo Bangunan,"XQGG+3VF, Lalolae, Kec. Lalolae, Kabupaten Kolaka Timur, Sulawesi Tenggara 93571","Lalolae, Kec. Lalolae, Kabupaten Kolaka Timur",SULAWESI TENGGARA,93571.0,Indonesia, 085242618602,,,-4.0248062,121.7771592,https://maps.google.com/?cid=0x0:0xe3341245faa51d1e,
toko bangunan,Toko Bahan Bangunan,Toko Priyo,"WVRQ+539, Tasahea, Kec. Tirawuta, Kabupaten Kolaka, Sulawesi Tenggara 93572","Tasahea, Kec. Tirawuta, Kabupaten Kolaka",SULAWESI TENGGARA,93572.0,Indonesia, 085399448485,,,-4.0595768,121.8877259,https://maps.google.com/?cid=0x0:0xac6a254e954e1eaf,
toko bangunan,Toko Alat Tulis Kantor,Toko Aneka Rupa,"Jl. Poros Kolaka - Rate-rate No.33, Rate-Rate, Kec. Tirawuta, Kabupaten Kolaka Timur, Sulawesi Tenggara 93572","Rate-Rate, Kec. Tirawuta, Kabupaten Kolaka Timur",SULAWESI TENGGARA,93572.0,Indonesia, 085242663330,,,-4.0462817,121.8923888,https://maps.google.com/?cid=0x0:0xb530e75c954331f,
toko bangunan,Bengkel Motor Elektrik,Toko Ilham motor ladongi,"Jl. Poros, Lalowosula, Kec. Ladongi, Kabupaten Kolaka Timur, Sulawesi Tenggara","Kabupaten Kolaka Timur, Sulawesi Tenggara",SULAWESI TENGGARA,,Indonesia, 081225128346,,,-4.1160189,121.9021005,https://maps.google.com/?cid=0x0:0x17debd8f7886e165,
toko bangunan,Toko Perlengkapan Rumah,Toko 237 BANGUNAN,"RW4Q+72J, Gn. Jaya, Kec. Ladongi, Kabupaten Kolaka Timur, Sulawesi Tenggara 93573","Gn. Jaya, Kec. Ladongi, Kabupaten Kolaka Timur",SULAWESI TENGGARA,93573.0,Indonesia, 082346811111,,,-4.1942822,121.937503,https://maps.google.com/?cid=0x0:0xb77af64a0ab58cb3,
toko bangunan,Pertanian,Distributor Supplier Kayu Dan Ayam Mang Tir,"Desa No.Blok F, Teposua, Loea, East Kolaka Regency, South East Sulawesi 93572","Teposua, Loea, East Kolaka Regency",SULAWESI TENGGARA,93572.0,Indonesia, 082335346555,,,-4.1008806,121.884602,https://maps.google.com/?cid=0x0:0x80815b38b6429e98,
toko bangunan,Toko Bahan Bangunan,Toko Bangunan Emman,"RX42+PXH, Gn., Gn. Jaya, Kec. Ladongi, Kabupaten Kolaka, Sulawesi Tenggara 93573","Gn., Gn. Jaya, Kec. Ladongi, Kabupaten Kolaka",SULAWESI TENGGARA,93573.0,Indonesia,,,,-4.1931886,121.9524931,https://maps.google.com/?cid=0x0:0x14623eb1c5e7aa7d,
toko bangunan,Toko Bahan Bangunan,TOKO BERAGAM BANGUNAN,"Tahoa, Kec. Kolaka, Kabupaten Kolaka, Sulawesi Tenggara 93561","Kec. Kolaka, Kabupaten Kolaka",SULAWESI TENGGARA,93561.0,Indonesia, 085255646333,,,-4.0670079,121.620245,https://maps.google.com/?cid=0x0:0x1efe5e1f790a47bd,
toko bangunan,Kios,KIOS PUTRI TANI LOWA,"MXC8+426, Lowa, Kec. Lambandia, Kabupaten Kolaka, Sulawesi Tenggara","Kabupaten Kolaka, Sulawesi Tenggara",SULAWESI TENGGARA,,Indonesia, 082394189778,,,-4.3297028,121.9650034,https://maps.google.com/?cid=0x0:0xf3925403bfe45434,
toko bangunan,Toko Bahan Bangunan,Toko Mitra Jaya 27,"XW3C+GG9, Jl. Poros Peatoa-Lara, Lara, Kec. Tirawuta, Kabupaten Kolaka Timur, Sulawesi Tenggara 93572","Jl. Poros Peatoa-Lara, Lara, Kec. Tirawuta, Kabupaten Kolaka Timur",SULAWESI TENGGARA,93572.0,Indonesia,,,,-4.0462216,121.9213656,https://maps.google.com/?cid=0x0:0xe557627fe082696c,
toko bangunan,Toko Bahan Bangunan,Toko Bangunan Amal Jaya Keramik,"Jl. Pramuka, Lamokato, Kec. Kolaka, Kabupaten Kolaka, Sulawesi Tenggara 93561","Lamokato, Kec. Kolaka, Kabupaten Kolaka",SULAWESI TENGGARA,93561.0,Indonesia, 082188788865,,,-4.057311,121.6020425,https://maps.google.com/?cid=0x0:0x4eac5208ccfe082b,
toko bangunan,Toko Bahan Bangunan,MADAN PUTRA ORAWA,"XV4X+538, Rate-Rate, Kec. Tirawuta, Kabupaten Kolaka, Sulawesi Tenggara 93572","Rate-Rate, Kec. Tirawuta, Kabupaten Kolaka",SULAWESI TENGGARA,93572.0,Indonesia, 082266331077,,,-4.0445985,121.8977051,https://maps.google.com/?cid=0x0:0xc536fb44881a9ae0,
toko bangunan,Toko umum,Toko Arthomoro,"2P6V+CVJ, Watupute, Mowewe, Kabupaten Kolaka Timur, Sulawesi Tenggara 93519","Watupute, Mowewe, Kabupaten Kolaka Timur",SULAWESI TENGGARA,93519.0,Indonesia,,,,-3.9889214,121.744638,https://maps.google.com/?cid=0x0:0xff0db84820d1c8ee,
toko bangunan,Toko,Rumahku,"2P7W+M88, Watupute, Mowewe, Kabupaten Kolaka Timur, Sulawesi Tenggara 93519","Watupute, Mowewe, Kabupaten Kolaka Timur",SULAWESI TENGGARA,93519.0,Indonesia,,,,-3.9858392,121.7458382,https://maps.google.com/?cid=0x0:0x77777eeed941965a,
toko bangunan,toko bangunan,Mowewe,"Kabupaten Kolaka Timur, Sulawesi Tenggara","Kabupaten Kolaka Timur, Sulawesi Tenggara",SULAWESI TENGGARA,,Indonesia,,,,-3.962898,121.7081454,https://maps.google.com/?cid=0x0:0xdd1351df24135eeb,
toko bangunan,Pusat Perbelanjaan,TOKO BANGUNAN MERTA MULIA,"Jl. Poros, Lamoare, Kec. Loea, Kabupaten Kolaka Timur, Sulawesi Tenggara 93572","Lamoare, Kec. Loea, Kabupaten Kolaka Timur",SULAWESI TENGGARA,93572.0,Indonesia, 085255072187,,,-4.0902276,121.8903196,https://maps.google.com/?cid=0x0:0x2d32e5060e93cb73,
toko bangunan,Toko Bahan Bangunan,Toko Mitra Bangunan,"55QP+577, Jl. Poros Ranteangin - Kolaka, Ulu Kalo, Kec. Wolo, Kabupaten Kolaka, Sulawesi Tenggara 93552","Jl. Poros Ranteangin - Kolaka, Ulu Kalo, Kec. Wolo, Kabupaten Kolaka",SULAWESI TENGGARA,93552.0,Indonesia, 082349234573,,,-3.81208,121.1856716,https://maps.google.com/?cid=0x0:0xb360d1a29cdd25d,
toko bangunan,Toko,Toko Mulia Bangunan,"WJ8W+MR4, 19 Nopember, Kec. Wundulako, Kabupaten Kolaka, Sulawesi Tenggara 93561","19 Nopember, Kec. Wundulako, Kabupaten Kolaka",SULAWESI TENGGARA,93561.0,Indonesia,,,,-4.0833531,121.6470854,https://maps.google.com/?cid=0x0:0x6b506ecc70fb96b9,
toko bangunan,Toko Bahan Bangunan,TOKO BAHAN APLIKASI BANGUNAN,"GV5J+36H, Ponggiha, Kec. Lasusua, Kabupaten Kolaka Utara, Sulawesi Tenggara 93914","Ponggiha, Kec. Lasusua, Kabupaten Kolaka Utara",SULAWESI TENGGARA,93914.0,Indonesia, 08114206900,,,-3.4924433,120.8804003,https://maps.google.com/?cid=0x0:0xf23c073d64879223,
toko bangunan,Toko Alat Listrik,Toko Aqil Jaya Bangunan,"WJP5+Q2G, Jl. Mekongga Indah, Laloeha, Kec. Kolaka, Sulawesi Tenggara",Sulawesi Tenggara,SULAWESI TENGGARA,,Indonesia, 082188166888,,,-4.0630534,121.6075719,https://maps.google.com/?cid=0x0:0x17f5954d24b175ce,
toko bangunan,Toko Perlengkapan Rumah,Toko 237 BANGUNAN,"RW4Q+72J, Gn. Jaya, Kec. Ladongi, Kabupaten Kolaka Timur, Sulawesi Tenggara 93573","Gn. Jaya, Kec. Ladongi, Kabupaten Kolaka Timur",SULAWESI TENGGARA,93573.0,Indonesia, 082346811111,,,-4.1942822,121.937503,https://maps.google.com/?cid=0x0:0xb77af64a0ab58cb3,
toko bangunan,Toko Bahan Bangunan,Toko Mitra Bangunan,"55QP+577, Jl. Poros Ranteangin - Kolaka, Ulu Kalo, Kec. Wolo, Kabupaten Kolaka, Sulawesi Tenggara 93552","Jl. Poros Ranteangin - Kolaka, Ulu Kalo, Kec. Wolo, Kabupaten Kolaka",SULAWESI TENGGARA,93552.0,Indonesia, 082349234573,,,-3.81208,121.1856716,https://maps.google.com/?cid=0x0:0xb360d1a29cdd25d,
toko bangunan,Toko Bahan Bangunan,Toko Bangunan Amal Jaya HK,"Jl. Repelita No.68, Sea, Kec. Latambaga, Kabupaten Kolaka, Sulawesi Tenggara 93511","Sea, Kec. Latambaga, Kabupaten Kolaka",SULAWESI TENGGARA,93511.0,Indonesia, 082258887215,,,-4.0517441,121.5902395,https://maps.google.com/?cid=0x0:0x1b798920aba7f4fd,
toko bangunan,Toko Bahan Bangunan,Toko Bangunan Aneka Baya,"RJG7+6X4, Tonggoni, Kec. Pomalaa, Kabupaten Kolaka, Sulawesi Tenggara 93562","Tonggoni, Kec. Pomalaa, Kabupaten Kolaka",SULAWESI TENGGARA,93562.0,Indonesia, 085241824886,,,-4.1744932,121.6149507,https://maps.google.com/?cid=0x0:0x8938d63b80a7ac4,
toko bangunan,Toko Bahan Bangunan,Amal Jaya HM Toko,"Jl. Sorume No.11, Sakuli, Kec. Latambaga, Kabupaten Kolaka, Sulawesi Tenggara 93511","Sakuli, Kec. Latambaga, Kabupaten Kolaka",SULAWESI TENGGARA,93511.0,Indonesia, 040522300,,,-4.0493023,121.5939325,https://maps.google.com/?cid=0x0:0x1cd1c353c623c7c0,
toko bangunan,Toko Bahan Bangunan,Toko Bangunan Amal Jaya Keramik,"Jl. Pramuka, Lamokato, Kec. Kolaka, Kabupaten Kolaka, Sulawesi Tenggara 93561","Lamokato, Kec. Kolaka, Kabupaten Kolaka",SULAWESI TENGGARA,93561.0,Indonesia, 082188788865,,,-4.057311,121.6020425,https://maps.google.com/?cid=0x0:0x4eac5208ccfe082b,
toko bangunan,,Toko Jaya Bangunan,"Jl. Sultan Hasanuddin, Lasusua, Kec. Lasusua, Kabupaten Kolaka Utara, Sulawesi Tenggara 93911","Lasusua, Kec. Lasusua, Kabupaten Kolaka Utara",SULAWESI TENGGARA,93911.0,Indonesia, 085255124222,,,-3.5043678,120.8867283,https://maps.google.com/?cid=0x0:0x7f49a94c3d5c8a31,
toko bangunan,Toko Bahan Bangunan,Toko 88,"WJJC+48H, Jl. Al Muhajirin, Tahoa, Kec. Kolaka, Kabupaten Kolaka, Sulawesi Tenggara 93561","Jl. Al Muhajirin, Tahoa, Kec. Kolaka, Kabupaten Kolaka",SULAWESI TENGGARA,93561.0,Indonesia,,,,-4.0696971,121.6208675,https://maps.google.com/?cid=0x0:0x41a182e0e0f137aa,
toko bangunan,Toko Bahan Bangunan,TOKO GYPSUM JAYA BANGUNAN,"WHRW+M5P, Jl. Mekongga Indah, Lamokato, Kec. Kolaka, Kabupaten Kolaka, Sulawesi Tenggara","Kabupaten Kolaka, Sulawesi Tenggara",SULAWESI TENGGARA,,Indonesia, 082239159875,,,-4.0582818,121.5954502,https://maps.google.com/?cid=0x0:0x1a173fc32aa5d227,
toko bangunan,Toko Bahan Bangunan,Toko irsan jaya,"HVVW+MM2, Simbula, Kec. Katoi, Kabupaten Kolaka Utara, Sulawesi Tenggara 93957","Simbula, Kec. Katoi, Kabupaten Kolaka Utara",SULAWESI TENGGARA,93957.0,Indonesia, 085341333555,,,-3.4058606,120.8966552,https://maps.google.com/?cid=0x0:0xc81b1ab7f29dc31f,
toko bangunan,Toko Bahan Bangunan,Toko Bangunan Aldi,"38FV+2RF, Tamboli, Kec. Samaturu, Kabupaten Kolaka, Sulawesi Tenggara 93915","Tamboli, Kec. Samaturu, Kabupaten Kolaka",SULAWESI TENGGARA,93915.0,Indonesia,,,,-3.9250901,121.3430285,https://maps.google.com/?cid=0x0:0x21dab41d7fdb9151,
toko bangunan,Toko Bahan Bangunan,TOKO LONGORI BANGUNAN,"RMH6+PM8, Jl. Poros Kolaka - Pomalaa, Longori, Kec. Baula, Kabupaten Kolaka, Sulawesi Tenggara 93562","Jl. Poros Kolaka - Pomalaa, Longori, Kec. Baula, Kabupaten Kolaka",SULAWESI TENGGARA,93562.0,Indonesia, 08124161484,,,-4.1707005,121.6617039,https://maps.google.com/?cid=0x0:0x59fe297449ae997d,
toko bangunan,Toko Bahan Bangunan,Toko ud h. Lahi,"RJF7+R35, Dawi-Dawi, Kec. Pomalaa, Kabupaten Kolaka, Sulawesi Tenggara 93562","Dawi-Dawi, Kec. Pomalaa, Kabupaten Kolaka",SULAWESI TENGGARA,93562.0,Indonesia,,,,-4.17494,121.612653,https://maps.google.com/?cid=0x0:0xb6389c8b75f24868,
toko bangunan,Toko Bahan Bangunan,Toko Kayu Bahan Bangunan,"WHVX+68H, Lamokato, Kec. Kolaka, Kabupaten Kolaka, Sulawesi Tenggara","Kabupaten Kolaka, Sulawesi Tenggara",SULAWESI TENGGARA,,Indonesia,,,,-4.0569358,121.598357,https://maps.google.com/?cid=0x0:0xd7dcdbc082db4ba6,
toko bangunan,Toko Bahan Bangunan,Wahyu alma,"QWR3+WG4, Tokai, Kec. Poli-Polia, Kabupaten Kolaka, Sulawesi Tenggara 93573","Tokai, Kec. Poli-Polia, Kabupaten Kolaka",SULAWESI TENGGARA,93573.0,Indonesia, 081245344293,,,-4.2077347,121.9038433,https://maps.google.com/?cid=0x0:0xaf74e7d5a09e345f,
toko bangunan,toko bangunan,Firli Safitri Benhajar,"RW23+6H5, Unnamed Road, Kelurahan, Poli-Polia, Kec. Poli-Polia, Kabupaten Kolaka Timur, Sulawesi Tenggara 93573","Unnamed Road, Kelurahan, Poli-Polia, Kec. Poli-Polia, Kabupaten Kolaka Timur",SULAWESI TENGGARA,93573.0,Indonesia,,,,-4.1994824,121.9039867,https://maps.google.com/?cid=0x0:0x516d910605008256,
toko bangunan,toko bangunan,Poli-Polia,"Kec. Poli-Polia, Kabupaten Kolaka Timur, Sulawesi Tenggara","Kabupaten Kolaka Timur, Sulawesi Tenggara",SULAWESI TENGGARA,,Indonesia,,,,-4.1865835,121.8875679,https://maps.google.com/?cid=0x0:0xe57e9b1d5ca223cc,
toko bangunan,toko bangunan,Sulawesi Tenggara 93571,"Kabupaten Kolaka, Sulawesi Tenggara","Kabupaten Kolaka, Sulawesi Tenggara",SULAWESI TENGGARA,,Indonesia,,,,-3.8424079,121.856261,https://maps.google.com/?cid=0x0:0x1bb5ec53427fe729,
toko bangunan,Toko,Toko Risma Jaya,"Dusun 2 Lauro, Tawarombadaka, Kec. Tinondo, Kabupaten Kolaka Timur, Sulawesi Tenggara 93571","Tawarombadaka, Kec. Tinondo, Kabupaten Kolaka Timur",SULAWESI TENGGARA,93571.0,Indonesia, 085241525319,,,-3.9496866,121.8030863,https://maps.google.com/?cid=0x0:0x64530ce902bae30c,
toko bangunan,Toko Bahan Bangunan,Toko Edo Bangunan,"XQGG+3VF, Lalolae, Kec. Lalolae, Kabupaten Kolaka Timur, Sulawesi Tenggara 93571","Lalolae, Kec. Lalolae, Kabupaten Kolaka Timur",SULAWESI TENGGARA,93571.0,Indonesia, 085242618602,,,-4.0248062,121.7771592,https://maps.google.com/?cid=0x0:0xe3341245faa51d1e,
toko bangunan,Toko umum,Toko Arthomoro,"2P6V+CVJ, Watupute, Mowewe, Kabupaten Kolaka Timur, Sulawesi Tenggara 93519","Watupute, Mowewe, Kabupaten Kolaka Timur",SULAWESI TENGGARA,93519.0,Indonesia,,,,-3.9889214,121.744638,https://maps.google.com/?cid=0x0:0xff0db84820d1c8ee,
toko bangunan,Toko Perlengkapan Rumah,Toko 237 BANGUNAN,"RW4Q+72J, Gn. Jaya, Kec. Ladongi, Kabupaten Kolaka Timur, Sulawesi Tenggara 93573","Gn. Jaya, Kec. Ladongi, Kabupaten Kolaka Timur",SULAWESI TENGGARA,93573.0,Indonesia, 082346811111,,,-4.1942822,121.937503,https://maps.google.com/?cid=0x0:0xb77af64a0ab58cb3,
toko bangunan,toko bangunan,Sulawesi Tenggara 93572,Sulawesi Tenggara,Sulawesi Tenggara,SULAWESI TENGGARA,,Indonesia,,,,-4.0494144,121.947311,https://maps.google.com/?cid=0x0:0xfdc4defab63a0262,
toko bangunan,Toko Bahan Bangunan,Toko Priyo,"WVRQ+539, Tasahea, Kec. Tirawuta, Kabupaten Kolaka, Sulawesi Tenggara 93572","Tasahea, Kec. Tirawuta, Kabupaten Kolaka",SULAWESI TENGGARA,93572.0,Indonesia, 085399448485,,,-4.0595768,121.8877259,https://maps.google.com/?cid=0x0:0xac6a254e954e1eaf,
toko bangunan,Toko Bahan Bangunan,Toko putri Tunggal,"XWGH+R8J, Jl. Poros Rate-rate, Tawainalu, Kec. Tirawuta, Kabupaten Kolaka Timur, Sulawesi Tenggara 93572","Jl. Poros Rate-rate, Tawainalu, Kec. Tirawuta, Kabupaten Kolaka Timur",SULAWESI TENGGARA,93572.0,Indonesia, 085216684459,,,-4.0229005,121.9282617,https://maps.google.com/?cid=0x0:0x2d7fbbe2fe2de340,
toko bangunan,Pusat Perbelanjaan,TOKO BANGUNAN MERTA MULIA,"Jl. Poros, Lamoare, Kec. Loea, Kabupaten Kolaka Timur, Sulawesi Tenggara 93572","Lamoare, Kec. Loea, Kabupaten Kolaka Timur",SULAWESI TENGGARA,93572.0,Indonesia, 085255072187,,,-4.0902276,121.8903196,https://maps.google.com/?cid=0x0:0x2d32e5060e93cb73,
toko bangunan,Toko Alat Tulis Kantor,Toko Aneka Rupa,"Jl. Poros Kolaka - Rate-rate No.33, Rate-Rate, Kec. Tirawuta, Kabupaten Kolaka Timur, Sulawesi Tenggara 93572","Rate-Rate, Kec. Tirawuta, Kabupaten Kolaka Timur",SULAWESI TENGGARA,93572.0,Indonesia, 085242663330,,,-4.0462817,121.8923888,https://maps.google.com/?cid=0x0:0xb530e75c954331f,
toko bangunan,Toko Bahan Bangunan,MADAN PUTRA ORAWA,"XV4X+538, Rate-Rate, Kec. Tirawuta, Kabupaten Kolaka, Sulawesi Tenggara 93572","Rate-Rate, Kec. Tirawuta, Kabupaten Kolaka",SULAWESI TENGGARA,93572.0,Indonesia, 082266331077,,,-4.0445985,121.8977051,https://maps.google.com/?cid=0x0:0xc536fb44881a9ae0,
toko bangunan,Toko bahan makanan,Toko Sahabat Baru,"XV3R+FF5, Rate-Rate, Kec. Tirawuta, Kabupaten Kolaka, Sulawesi Tenggara 93572","Rate-Rate, Kec. Tirawuta, Kabupaten Kolaka",SULAWESI TENGGARA,93572.0,Indonesia,,,,-4.0463551,121.8912392,https://maps.google.com/?cid=0x0:0x137b99688957434e,
toko bangunan,Toko Bahan Bangunan,Toko Edo Bangunan,"XQGG+3VF, Lalolae, Kec. Lalolae, Kabupaten Kolaka Timur, Sulawesi Tenggara 93571","Lalolae, Kec. Lalolae, Kabupaten Kolaka Timur",SULAWESI TENGGARA,93571.0,Indonesia, 085242618602,,,-4.0248062,121.7771592,https://maps.google.com/?cid=0x0:0xe3341245faa51d1e,
toko bangunan,Toko Bahan Bangunan,Toko Mitra Bangunan,"55QP+577, Jl. Poros Ranteangin - Kolaka, Ulu Kalo, Kec. Wolo, Kabupaten Kolaka, Sulawesi Tenggara 93552","Jl. Poros Ranteangin - Kolaka, Ulu Kalo, Kec. Wolo, Kabupaten Kolaka",SULAWESI TENGGARA,93552.0,Indonesia, 082349234573,,,-3.81208,121.1856716,https://maps.google.com/?cid=0x0:0xb360d1a29cdd25d,
toko bangunan,Toko,TOKO BANGUNAN HIDAYAH,"55W7+9JF, Jl. Poros Ranteangin - Kolaka, Ladahai, Kec. Wolo, Kabupaten Kolaka, Sulawesi Tenggara 93552","Jl. Poros Ranteangin - Kolaka, Ladahai, Kec. Wolo, Kabupaten Kolaka",SULAWESI TENGGARA,93552.0,Indonesia, 082297951192,,,-3.8040631,121.1640482,https://maps.google.com/?cid=0x0:0x22adb750f815ab9e,
toko bangunan,Toko,Toko Buana Indah,"XW73+5H4, Jl. Poros Kolaka - Kendari, Orawa, Kec. Tirawuta, Kabupaten Kolaka Timur, Sulawesi Tenggara 93572","Jl. Poros Kolaka - Kendari, Orawa, Kec. Tirawuta, Kabupaten Kolaka Timur",SULAWESI TENGGARA,93572.0,Indonesia, 081248042911,,,-4.0371219,121.9039588,https://maps.google.com/?cid=0x0:0x5b1394d036f1f670,
toko bangunan,Toko Bahan Bangunan,Toko Usaha Baru,"MXFJ+V23, RW.2, Tanggeawo, Kec. Tiwu, Kabupaten Kolaka Utara, Sulawesi Tenggara 93958","RW.2, Tanggeawo, Kec. Tiwu, Kabupaten Kolaka Utara",SULAWESI TENGGARA,93958.0,Indonesia, 085395710600,,,-3.3253548,120.9800543,https://maps.google.com/?cid=0x0:0xa4efdf00ec089810,
toko bangunan,Toko Bahan Bangunan,Sumber Rahmat,"VMPG+7V2, Jl. Poros Kolaka - Pomalaa Lorong Sapati, Lamekongga, Kec. Wundulako, Kabupaten Kolaka, Sulawesi Tenggara 93561","Jl. Poros Kolaka - Pomalaa Lorong Sapati, Lamekongga, Kec. Wundulako, Kabupaten Kolaka",SULAWESI TENGGARA,93561.0,Indonesia,,,,-4.1143584,121.6771539,https://maps.google.com/?cid=0x0:0xf8c194abb4377286,
toko bangunan,Toko,Toko Risma Jaya,"Dusun 2 Lauro, Tawarombadaka, Kec. Tinondo, Kabupaten Kolaka Timur, Sulawesi Tenggara 93571","Tawarombadaka, Kec. Tinondo, Kabupaten Kolaka Timur",SULAWESI TENGGARA,93571.0,Indonesia, 085241525319,,,-3.9496866,121.8030863,https://maps.google.com/?cid=0x0:0x64530ce902bae30c,
toko bangunan,Toko Bahan Bangunan,TOKO BAHAN APLIKASI BANGUNAN,"GV5J+36H, Ponggiha, Kec. Lasusua, Kabupaten Kolaka Utara, Sulawesi Tenggara 93914","Ponggiha, Kec. Lasusua, Kabupaten Kolaka Utara",SULAWESI TENGGARA,93914.0,Indonesia, 08114206900,,,-3.4924433,120.8804003,https://maps.google.com/?cid=0x0:0xf23c073d64879223,
toko bangunan,Toko Bahan Bangunan,TOKO BERAGAM BANGUNAN,"Tahoa, Kec. Kolaka, Kabupaten Kolaka, Sulawesi Tenggara 93561","Kec. Kolaka, Kabupaten Kolaka",SULAWESI TENGGARA,93561.0,Indonesia, 085255646333,,,-4.0670079,121.620245,https://maps.google.com/?cid=0x0:0x1efe5e1f790a47bd,
toko bangunan,Toko,Sisky bangunan toko kayu bahan bangunan,"Lamokato, Kec. Kolaka, Kabupaten Kolaka, Sulawesi Tenggara","Kabupaten Kolaka, Sulawesi Tenggara",SULAWESI TENGGARA,,Indonesia, 085341111177,,,-4.0604861,121.600236,https://maps.google.com/?cid=0x0:0x796c6183317f94db,
toko bangunan,Toko Bahan Bangunan,Toko Nurul Vadya Bangunan,"XH3J+Q76, Jl. Abadi, Kolakaasi, Kec. Latambaga, Kabupaten Kolaka, Sulawesi Tenggara 93511","Jl. Abadi, Kolakaasi, Kec. Latambaga, Kabupaten Kolaka",SULAWESI TENGGARA,93511.0,Indonesia, 081341729995,,,-4.0455873,121.5806317,https://maps.google.com/?cid=0x0:0xecb17a48f641eda5,
toko bangunan,Toko Bahan Bangunan,Toko Bangunan Aneka Baya,"RJG7+6X4, Tonggoni, Kec. Pomalaa, Kabupaten Kolaka, Sulawesi Tenggara 93562","Tonggoni, Kec. Pomalaa, Kabupaten Kolaka",SULAWESI TENGGARA,93562.0,Indonesia, 085241824886,,,-4.1744932,121.6149507,https://maps.google.com/?cid=0x0:0x8938d63b80a7ac4,
toko bangunan,Toko Bahan Bangunan,Toko Riski Bangunan,"Jalan Pemuda KM.3 No.415 E, Tahoa, Kec. Kolaka, Kabupaten Kolaka, Sulawesi Tenggara 93561","Tahoa, Kec. Kolaka, Kabupaten Kolaka",SULAWESI TENGGARA,93561.0,Indonesia, 085299994221,,,-4.066216,121.6195107,https://maps.google.com/?cid=0x0:0x9d76712335065c23,
toko bangunan,Bengkel Motor Elektrik,Toko Ilham motor ladongi,"Jl. Poros, Lalowosula, Kec. Ladongi, Kabupaten Kolaka Timur, Sulawesi Tenggara","Kabupaten Kolaka Timur, Sulawesi Tenggara",SULAWESI TENGGARA,,Indonesia, 081225128346,,,-4.1160189,121.9021005,https://maps.google.com/?cid=0x0:0x17debd8f7886e165,
toko bangunan,Pertanian,Distributor Supplier Kayu Dan Ayam Mang Tir,"Desa No.Blok F, Teposua, Loea, East Kolaka Regency, South East Sulawesi 93572","Teposua, Loea, East Kolaka Regency",SULAWESI TENGGARA,93572.0,Indonesia, 082335346555,,,-4.1008806,121.884602,https://maps.google.com/?cid=0x0:0x80815b38b6429e98,
toko bangunan,Toko Bahan Bangunan,Wiji Sri utari,"XX5F+85C, BLK c, Kasumeia, Kec. Onembute, Kabupaten Konawe, Sulawesi Tenggara 93572","BLK c, Kasumeia, Kec. Onembute, Kabupaten Konawe",SULAWESI TENGGARA,93572.0,Indonesia,,,,-4.0416891,121.9729053,https://maps.google.com/?cid=0x0:0xdfa9c986b086262a,
toko bangunan,toko bangunan,SAHABAT RAYA 2,"XWGG+RCH, Woiha, Kec. Tirawuta, Kabupaten Kolaka, Sulawesi Tenggara","Kabupaten Kolaka, Sulawesi Tenggara",SULAWESI TENGGARA,,Indonesia,,,,-4.0229401,121.9260997,https://maps.google.com/?cid=0x0:0xb80e5ff2df1ef7ba,
toko bangunan,toko bangunan,Sulawesi Tenggara 93575,"Kabupaten Kolaka, Sulawesi Tenggara","Kabupaten Kolaka, Sulawesi Tenggara",SULAWESI TENGGARA,,Indonesia,,,,-3.5101108,121.3998995,https://maps.google.com/?cid=0x0:0xc8b7a5389edae68c,
toko bangunan,Pasar bahan bangunan,TOKO MEGA TAMA Wawotobi (Toko Bangunan),"Jl. Jend Sudirman No.17, Wawotobi, Kec. Wawotobi, Kabupaten Konawe, Sulawesi Tenggara 93461","Wawotobi, Kec. Wawotobi, Kabupaten Konawe",SULAWESI TENGGARA,93461.0,Indonesia, 085216149991,,,-3.8766033,122.1086909,https://maps.google.com/?cid=0x0:0x6590efc314bd5d70,
toko bangunan,Toko Bahan Bangunan,TOKO KEMILAU PONRE,"7F44+5RM Dusun 1 Al-Muhajirin, Tolowe Ponrewaru, Kec. Wolo, Kabupaten Kolaka, Sulawesi Tenggara","Kabupaten Kolaka, Sulawesi Tenggara",SULAWESI TENGGARA,,Indonesia, 085242818727,,,-3.7445418,121.4570447,https://maps.google.com/?cid=0x0:0xa0ba55ffab48fb24,
toko bangunan,Toko Bahan Bangunan,Toko Mitra Bangunan,"55QP+577, Jl. Poros Ranteangin - Kolaka, Ulu Kalo, Kec. Wolo, Kabupaten Kolaka, Sulawesi Tenggara 93552","Jl. Poros Ranteangin - Kolaka, Ulu Kalo, Kec. Wolo, Kabupaten Kolaka",SULAWESI TENGGARA,93552.0,Indonesia, 082349234573,,,-3.81208,121.1856716,https://maps.google.com/?cid=0x0:0xb360d1a29cdd25d,
toko bangunan,Toko,TOKO BANGUNAN HIDAYAH,"55W7+9JF, Jl. Poros Ranteangin - Kolaka, Ladahai, Kec. Wolo, Kabupaten Kolaka, Sulawesi Tenggara 93552","Jl. Poros Ranteangin - Kolaka, Ladahai, Kec. Wolo, Kabupaten Kolaka",SULAWESI TENGGARA,93552.0,Indonesia, 082297951192,,,-3.8040631,121.1640482,https://maps.google.com/?cid=0x0:0x22adb750f815ab9e,
toko bangunan,Toko Bahan Bangunan,Toko Edo Bangunan,"XQGG+3VF, Lalolae, Kec. Lalolae, Kabupaten Kolaka Timur, Sulawesi Tenggara 93571","Lalolae, Kec. Lalolae, Kabupaten Kolaka Timur",SULAWESI TENGGARA,93571.0,Indonesia, 085242618602,,,-4.0248062,121.7771592,https://maps.google.com/?cid=0x0:0xe3341245faa51d1e,
toko bangunan,toko bangunan,Toko MH Bangunan,"V4J3+X8F, Jl. Poros Batuputih - Olooloho, Lengkong Batu, Kec. Pakue Utara, Kabupaten Kolaka Utara, Sulawesi Tenggara 93954","Jl. Poros Batuputih - Olooloho, Lengkong Batu, Kec. Pakue Utara, Kabupaten Kolaka Utara",SULAWESI TENGGARA,93954.0,Indonesia,,,,-3.1175343,121.1033194,https://maps.google.com/?cid=0x0:0x75bc7366498cab53,
toko bangunan,Toko Bahan Bangunan,Cetakan batako fres,"Tawamelewe, Kec. Uepai, Kabupaten Konawe, Sulawesi Tenggara 93461","Kec. Uepai, Kabupaten Konawe",SULAWESI TENGGARA,93461.0,Indonesia, 082290712977,,,-3.9201842,122.0883575,https://maps.google.com/?cid=0x0:0xf7373f156190cb52,
toko bangunan,Toko Bahan Bangunan,TOKO BAHAN APLIKASI BANGUNAN,"GV5J+36H, Ponggiha, Kec. Lasusua, Kabupaten Kolaka Utara, Sulawesi Tenggara 93914","Ponggiha, Kec. Lasusua, Kabupaten Kolaka Utara",SULAWESI TENGGARA,93914.0,Indonesia, 08114206900,,,-3.4924433,120.8804003,https://maps.google.com/?cid=0x0:0xf23c073d64879223,
toko bangunan,Toko Bahan Bangunan,Tongauna Jaya,"Jl. Poros Unaaha, Lalonggowuna, Kec. Abuki, Kabupaten Konawe, Sulawesi Tenggara 93461","Lalonggowuna, Kec. Abuki, Kabupaten Konawe",SULAWESI TENGGARA,93461.0,Indonesia, 085246540505,,,-3.8077055,121.990537,https://maps.google.com/?cid=0x0:0xa072c57b542f6991,
toko bangunan,Toko Swalayan,Toko Wahyu mandiri,"Langgomea, Kec. Uepai, Kabupaten Konawe, Sulawesi Tenggara 93464","Kec. Uepai, Kabupaten Konawe",SULAWESI TENGGARA,93464.0,Indonesia, 085397990203,,,-3.9221796,122.0491821,https://maps.google.com/?cid=0x0:0x2be9f83842718045,
toko bangunan,Toko,Sisky bangunan toko kayu bahan bangunan,"Lamokato, Kec. Kolaka, Kabupaten Kolaka, Sulawesi Tenggara","Kabupaten Kolaka, Sulawesi Tenggara",SULAWESI TENGGARA,,Indonesia, 085341111177,,,-4.0604861,121.600236,https://maps.google.com/?cid=0x0:0x796c6183317f94db,
toko bangunan,Toko Alat Listrik,Toko Aqil Jaya Bangunan,"WJP5+Q2G, Jl. Mekongga Indah, Laloeha, Kec. Kolaka, Sulawesi Tenggara",Sulawesi Tenggara,SULAWESI TENGGARA,,Indonesia, 082188166888,,,-4.0630534,121.6075719,https://maps.google.com/?cid=0x0:0x17f5954d24b175ce,
toko bangunan,Toko Perlengkapan Rumah,Toko 237 BANGUNAN,"RW4Q+72J, Gn. Jaya, Kec. Ladongi, Kabupaten Kolaka Timur, Sulawesi Tenggara 93573","Gn. Jaya, Kec. Ladongi, Kabupaten Kolaka Timur",SULAWESI TENGGARA,93573.0,Indonesia, 082346811111,,,-4.1942822,121.937503,https://maps.google.com/?cid=0x0:0xb77af64a0ab58cb3,
toko bangunan,Toko Bahan Bangunan,Toko Riski Bangunan,"Jalan Pemuda KM.3 No.415 E, Tahoa, Kec. Kolaka, Kabupaten Kolaka, Sulawesi Tenggara 93561","Tahoa, Kec. Kolaka, Kabupaten Kolaka",SULAWESI TENGGARA,93561.0,Indonesia, 085299994221,,,-4.066216,121.6195107,https://maps.google.com/?cid=0x0:0x9d76712335065c23,
toko bangunan,Toko Bahan Bangunan,Toko Alam Nur,"38J2+WVH, Tirawuta, Kec. Pondidaha, Kabupaten Konawe, Sulawesi Tenggara","Kabupaten Konawe, Sulawesi Tenggara",SULAWESI TENGGARA,,Indonesia,,,,-3.917694,122.3022476,https://maps.google.com/?cid=0x0:0x86d80e1ea532e032,
toko bangunan,Kontraktor Umum,UD. Wawotobi Raya,"34XM+68, Ranoeya, Kec. Wawotobi, Kabupaten Konawe, Sulawesi Tenggara","Kabupaten Konawe, Sulawesi Tenggara",SULAWESI TENGGARA,,Indonesia,,,,-3.901919,122.1332489,https://maps.google.com/?cid=0x0:0x2d83c5854924e2fc,
toko bangunan,Toko umum,Toko Arthomoro,"2P6V+CVJ, Watupute, Mowewe, Kabupaten Kolaka Timur, Sulawesi Tenggara 93519","Watupute, Mowewe, Kabupaten Kolaka Timur",SULAWESI TENGGARA,93519.0,Indonesia,,,,-3.9889214,121.744638,https://maps.google.com/?cid=0x0:0xff0db84820d1c8ee,
toko bangunan,Toko Perlengkapan Rumah,Toko Alfrida Bangunan Tuoy,"Jl. Poros Raterate-Unaaha No.25, Tuoy, Kec. Unaaha, Kabupaten Konawe, Sulawesi Tenggara 93415","Tuoy, Kec. Unaaha, Kabupaten Konawe",SULAWESI TENGGARA,93415.0,Indonesia, 082346555474,,,-3.8673772,122.0703096,https://maps.google.com/?cid=0x0:0xa12d77044a6a9769,
toko bangunan,Toko Bahan Bangunan,TOKO BERAGAM BANGUNAN,"Tahoa, Kec. Kolaka, Kabupaten Kolaka, Sulawesi Tenggara 93561","Kec. Kolaka, Kabupaten Kolaka",SULAWESI TENGGARA,93561.0,Indonesia, 085255646333,,,-4.0670079,121.620245,https://maps.google.com/?cid=0x0:0x1efe5e1f790a47bd,
toko bangunan,Pusat Perbelanjaan,TOKO BANGUNAN MERTA MULIA,"Jl. Poros, Lamoare, Kec. Loea, Kabupaten Kolaka Timur, Sulawesi Tenggara 93572","Lamoare, Kec. Loea, Kabupaten Kolaka Timur",SULAWESI TENGGARA,93572.0,Indonesia, 085255072187,,,-4.0902276,121.8903196,https://maps.google.com/?cid=0x0:0x2d32e5060e93cb73,
toko bangunan,Toko Bahan Bangunan,Toko Balito Indah,"Tawarotebota, Kec. Uepai, Kabupaten Konawe, Sulawesi Tenggara 93415","Kec. Uepai, Kabupaten Konawe",SULAWESI TENGGARA,93415.0,Indonesia, 085763326512,,,-3.9138799,122.0638057,https://maps.google.com/?cid=0x0:0xd5487d709b9141f7,
toko bangunan,Toko Bahan Bangunan,Toko Usaha Baru,"MXFJ+V23, RW.2, Tanggeawo, Kec. Tiwu, Kabupaten Kolaka Utara, Sulawesi Tenggara 93958","RW.2, Tanggeawo, Kec. Tiwu, Kabupaten Kolaka Utara",SULAWESI TENGGARA,93958.0,Indonesia, 085395710600,,,-3.3253548,120.9800543,https://maps.google.com/?cid=0x0:0xa4efdf00ec089810,
toko bangunan,Toko Bahan Bangunan,Toko Bangunan Aneka Baya,"RJG7+6X4, Tonggoni, Kec. Pomalaa, Kabupaten Kolaka, Sulawesi Tenggara 93562","Tonggoni, Kec. Pomalaa, Kabupaten Kolaka",SULAWESI TENGGARA,93562.0,Indonesia, 085241824886,,,-4.1744932,121.6149507,https://maps.google.com/?cid=0x0:0x8938d63b80a7ac4,
toko bangunan,Toko Bahan Bangunan,Toko 27 Asinua,"Jl. Sawerigading, Samping Pasar No.125, Asinua, Kec. Unaaha, Kabupaten Konawe, Sulawesi Tenggara 93415","Samping Pasar No.125, Asinua, Kec. Unaaha, Kabupaten Konawe",SULAWESI TENGGARA,93415.0,Indonesia, 081341779773,,,-3.8538716,122.0716598,https://maps.google.com/?cid=0x0:0x6d1cfdfc7ac10a2b,
toko bangunan,Toko Bahan Bangunan,TOKO MUTIARA MALOMBO,"38G8+PQ7, Donggala, Kec. Wolo, Kabupaten Kolaka, Sulawesi Tenggara","Kabupaten Kolaka, Sulawesi Tenggara",SULAWESI TENGGARA,,Indonesia,,,,-3.9232106,121.316929,https://maps.google.com/?cid=0x0:0xa12e28035e50778b,
toko bangunan,Toko Bahan Bangunan,TOKO LONGORI BANGUNAN,"RMH6+PM8, Jl. Poros Kolaka - Pomalaa, Longori, Kec. Baula, Kabupaten Kolaka, Sulawesi Tenggara 93562","Jl. Poros Kolaka - Pomalaa, Longori, Kec. Baula, Kabupaten Kolaka",SULAWESI TENGGARA,93562.0,Indonesia, 08124161484,,,-4.1707005,121.6617039,https://maps.google.com/?cid=0x0:0x59fe297449ae997d,
toko bangunan,Toko Bahan Bangunan,Toko Sinar Abadi,"Jl. Poros Kolaka - Wolo No.77, Mangolo, Kec. Latambaga, Kabupaten Kolaka, Sulawesi Tenggara 93514","Mangolo, Kec. Latambaga, Kabupaten Kolaka",SULAWESI TENGGARA,93514.0,Indonesia,,,,-4.0205262,121.5505668,https://maps.google.com/?cid=0x0:0xbaaea39c38eef387,
toko bangunan,Toko Bahan Bangunan,TOKO ALDI BANGUNAN 2,"3CPP+5HR, Puuruy, Kec. Bondoala, Kabupaten Konawe, Sulawesi Tenggara","Kabupaten Konawe, Sulawesi Tenggara",SULAWESI TENGGARA,,Indonesia, 082291332052,,,-3.9145215,122.4363861,https://maps.google.com/?cid=0x0:0x142463ff9e6b370b,
hardware store,hardware store,Ladongi,"Ladongi, Kec. Ladongi, Kabupaten Kolaka Timur, Sulawesi Tenggara","Kabupaten Kolaka Timur, Sulawesi Tenggara",SULAWESI TENGGARA,,Indonesia,,,,-4.142409,121.901901,https://maps.google.com/?cid=0x0:0xf976c8583833e88d,
hardware store,Toko Perlengkapan Rumah,Toko 237 BANGUNAN,"RW4Q+72J, Gn. Jaya, Kec. Ladongi, Kabupaten Kolaka Timur, Sulawesi Tenggara 93573","Gn. Jaya, Kec. Ladongi, Kabupaten Kolaka Timur",SULAWESI TENGGARA,93573.0,Indonesia, 082346811111,,,-4.1942822,121.937503,https://maps.google.com/?cid=0x0:0xb77af64a0ab58cb3,
hardware store,Bengkel Motor Elektrik,Toko Ilham motor ladongi,"Jl. Poros, Lalowosula, Kec. Ladongi, Kabupaten Kolaka Timur, Sulawesi Tenggara","Kabupaten Kolaka Timur, Sulawesi Tenggara",SULAWESI TENGGARA,,Indonesia, 081225128346,,,-4.1160189,121.9021005,https://maps.google.com/?cid=0x0:0x17debd8f7886e165,
hardware store,Toko Bahan Bangunan,"MAXCELL DEPO TEKNIK  BANGUNAN (KOLAKA) | Toko Listrik, Elektronik, Furniture Kolaka","Jl. Pramuka, Lamokato, Kec. Kolaka, Kabupaten Kolaka, Sulawesi Tenggara 93511","Lamokato, Kec. Kolaka, Kabupaten Kolaka",SULAWESI TENGGARA,93511.0,Indonesia, 082166638222,,,-4.056492,121.5995077,https://maps.google.com/?cid=0x0:0xd15a51807812dfe,
hardware store,Toko Bahan Bangunan,Toko Bangunan Amal Jaya Keramik,"Jl. Pramuka, Lamokato, Kec. Kolaka, Kabupaten Kolaka, Sulawesi Tenggara 93561","Lamokato, Kec. Kolaka, Kabupaten Kolaka",SULAWESI TENGGARA,93561.0,Indonesia, 082188788865,,,-4.057311,121.6020425,https://maps.google.com/?cid=0x0:0x4eac5208ccfe082b,
hardware store,hardware store,Kec. Lalolae,"Kabupaten Kolaka Timur, Sulawesi Tenggara","Kabupaten Kolaka Timur, Sulawesi Tenggara",SULAWESI TENGGARA,,Indonesia,,,,-4.0256541,121.7842582,https://maps.google.com/?cid=0x0:0x16745ece4e90ef2b,
hardware store,Toko Perlengkapan Rumah,Toko 237 BANGUNAN,"RW4Q+72J, Gn. Jaya, Kec. Ladongi, Kabupaten Kolaka Timur, Sulawesi Tenggara 93573","Gn. Jaya, Kec. Ladongi, Kabupaten Kolaka Timur",SULAWESI TENGGARA,93573.0,Indonesia, 082346811111,,,-4.1942822,121.937503,https://maps.google.com/?cid=0x0:0xb77af64a0ab58cb3,
hardware store,Toko,Rumahku,"2P7W+M88, Watupute, Mowewe, Kabupaten Kolaka Timur, Sulawesi Tenggara 93519","Watupute, Mowewe, Kabupaten Kolaka Timur",SULAWESI TENGGARA,93519.0,Indonesia,,,,-3.9858392,121.7458382,https://maps.google.com/?cid=0x0:0x77777eeed941965a,
hardware store,hardware store,Sulawesi Tenggara 93573,"Kabupaten Kolaka, Sulawesi Tenggara","Kabupaten Kolaka, Sulawesi Tenggara",SULAWESI TENGGARA,,Indonesia,,,,-4.2654072,121.856261,https://maps.google.com/?cid=0x0:0xeafafa5d78b5c179,
hardware store,Toko Bahan Bangunan,HIKMAH BANGUNAN,"MWWC+H4X, Lambandia, Kec. Lambandia, Kabupaten Kolaka Timur, Sulawesi Tenggara 93573","Lambandia, Kec. Lambandia, Kabupaten Kolaka Timur",SULAWESI TENGGARA,93573.0,Indonesia, 085394201987,,,-4.3035107,121.9203628,https://maps.google.com/?cid=0x0:0xf771590fcb855032,
hardware store,Toko Bahan Bangunan,Lambandia,"MWWC+2QQ, Lambandia, Kec. Lambandia, Kabupaten Kolaka Timur, Sulawesi Tenggara 93573","Lambandia, Kec. Lambandia, Kabupaten Kolaka Timur",SULAWESI TENGGARA,93573.0,Indonesia,,,,-4.3049086,121.9219957,https://maps.google.com/?cid=0x0:0x4f47e8495390b92f,
hardware store,Toko Perlengkapan Rumah,Toko Bangunan ARMY MANDIRI,"MWVJ+2QR, Unnamed Road, Penanggo Jaya, Kec. Lambandia, Kabupaten Kolaka Timur, Sulawesi Tenggara 93573","Unnamed Road, Penanggo Jaya, Kec. Lambandia, Kabupaten Kolaka Timur",SULAWESI TENGGARA,93573.0,Indonesia, 085241607277,,,-4.3073767,121.9318848,https://maps.google.com/?cid=0x0:0x4c62b46ca57d3b9f,
hardware store,hardware store,TBS Ahmad (Timbangan Sawit),"Blok A, Penanggo Jaya, Kec. Lambandia, Kabupaten Kolaka Timur, Sulawesi Tenggara","Kabupaten Kolaka Timur, Sulawesi Tenggara",SULAWESI TENGGARA,,Indonesia, 081367204205,,,-4.3065228,121.9233184,https://maps.google.com/?cid=0x0:0xa74cd5ba88472d7d,
hardware store,Pusat Perbelanjaan,TOKO BANGUNAN MERTA MULIA,"Jl. Poros, Lamoare, Kec. Loea, Kabupaten Kolaka Timur, Sulawesi Tenggara 93572","Lamoare, Kec. Loea, Kabupaten Kolaka Timur",SULAWESI TENGGARA,93572.0,Indonesia, 085255072187,,,-4.0902276,121.8903196,https://maps.google.com/?cid=0x0:0x2d32e5060e93cb73,
hardware store,Toko Bahan Bangunan,Toko Edo Bangunan,"XQGG+3VF, Lalolae, Kec. Lalolae, Kabupaten Kolaka Timur, Sulawesi Tenggara 93571","Lalolae, Kec. Lalolae, Kabupaten Kolaka Timur",SULAWESI TENGGARA,93571.0,Indonesia, 085242618602,,,-4.0248062,121.7771592,https://maps.google.com/?cid=0x0:0xe3341245faa51d1e,
hardware store,Komplek perumahan,Kantor Desa Lamoare,"WV5R+V8M, Lamoare, Kec. Loea, Kabupaten Kolaka Timur, Sulawesi Tenggara 93572","Lamoare, Kec. Loea, Kabupaten Kolaka Timur",SULAWESI TENGGARA,93572.0,Indonesia,,,,-4.0902867,121.8907865,https://maps.google.com/?cid=0x0:0x4f5eac1e15c055a7,
hardware store,Toko Perlengkapan Rumah,Toko 237 BANGUNAN,"RW4Q+72J, Gn. Jaya, Kec. Ladongi, Kabupaten Kolaka Timur, Sulawesi Tenggara 93573","Gn. Jaya, Kec. Ladongi, Kabupaten Kolaka Timur",SULAWESI TENGGARA,93573.0,Indonesia, 082346811111,,,-4.1942822,121.937503,https://maps.google.com/?cid=0x0:0xb77af64a0ab58cb3,
hardware store,Toko,Sharda Hardware Store,"Main Rd, Lohardaga, Jharkhand 835302, India","Lohardaga, Jharkhand",SULAWESI TENGGARA,835302.0,Indonesia,,,,23.4298051,84.6786945,https://maps.google.com/?cid=0x0:0x870899db4ea1d480,
hardware store,Toko Bahan Bangunan,Lohardaga Hardware,"Amla Toli, Main Rd, Lohardaga, Jharkhand 835302, India","Main Rd, Lohardaga, Jharkhand",SULAWESI TENGGARA,835302.0,Indonesia,,,,23.4394352,84.6839339,https://maps.google.com/?cid=0x0:0x37c77044272143a9,
hardware store,hardware store,Mowewe,"Kabupaten Kolaka Timur, Sulawesi Tenggara","Kabupaten Kolaka Timur, Sulawesi Tenggara",SULAWESI TENGGARA,,Indonesia,,,,-3.962898,121.7081454,https://maps.google.com/?cid=0x0:0xdd1351df24135eeb,
hardware store,Toko umum,Toko Arthomoro,"2P6V+CVJ, Watupute, Mowewe, Kabupaten Kolaka Timur, Sulawesi Tenggara 93519","Watupute, Mowewe, Kabupaten Kolaka Timur",SULAWESI TENGGARA,93519.0,Indonesia,,,,-3.9889214,121.744638,https://maps.google.com/?cid=0x0:0xff0db84820d1c8ee,
hardware store,Toko Bahan Bangunan,Toko Nurul Vadya Bangunan,"XH3J+Q76, Jl. Abadi, Kolakaasi, Kec. Latambaga, Kabupaten Kolaka, Sulawesi Tenggara 93511","Jl. Abadi, Kolakaasi, Kec. Latambaga, Kabupaten Kolaka",SULAWESI TENGGARA,93511.0,Indonesia, 081341729995,,,-4.0455873,121.5806317,https://maps.google.com/?cid=0x0:0xecb17a48f641eda5,
hardware store,Toko,Rumahku,"2P7W+M88, Watupute, Mowewe, Kabupaten Kolaka Timur, Sulawesi Tenggara 93519","Watupute, Mowewe, Kabupaten Kolaka Timur",SULAWESI TENGGARA,93519.0,Indonesia,,,,-3.9858392,121.7458382,https://maps.google.com/?cid=0x0:0x77777eeed941965a,
hardware store,hardware store,Poli-Polia,"Kec. Poli-Polia, Kabupaten Kolaka Timur, Sulawesi Tenggara","Kabupaten Kolaka Timur, Sulawesi Tenggara",SULAWESI TENGGARA,,Indonesia,,,,-4.1865835,121.8875679,https://maps.google.com/?cid=0x0:0xe57e9b1d5ca223cc,
hardware store,Toko Bahan Bangunan,"MAXCELL DEPO TEKNIK  BANGUNAN | Toko Listrik, Elektronik, Furniture Kendari","Ex, Jl. Laode Hadi Jl. Brigjen M. Yoenoes No.149-159, Bende, Kadia, Kendari City, South East Sulawesi 93118","Jl. Laode Hadi Jl. Brigjen M. Yoenoes No.149-159, Bende, Kadia, Kendari City",SULAWESI TENGGARA,93118.0,Indonesia, 04013192000,,,-3.992658,122.5139203,https://maps.google.com/?cid=0x0:0x8135d7de339a4cf7,
hardware store,Toko Bahan Bangunan,"MAXCELL DEPO TEKNIK  BANGUNAN (KOLAKA) | Toko Listrik, Elektronik, Furniture Kolaka","Jl. Pramuka, Lamokato, Kec. Kolaka, Kabupaten Kolaka, Sulawesi Tenggara 93511","Lamokato, Kec. Kolaka, Kabupaten Kolaka",SULAWESI TENGGARA,93511.0,Indonesia, 082166638222,,,-4.056492,121.5995077,https://maps.google.com/?cid=0x0:0xd15a51807812dfe,
hardware store,hardware store,PERTASHOP POLI POLIA,"QWR3+RM, Tokai, Kec. Poli-Polia, Kabupaten Kolaka, Sulawesi Tenggara 93573","Tokai, Kec. Poli-Polia, Kabupaten Kolaka",SULAWESI TENGGARA,93573.0,Indonesia,,,,-4.2079507,121.9042197,https://maps.google.com/?cid=0x0:0x53c53fb21665dd15,
hardware store,Toko Perlengkapan Rumah,Toko 237 BANGUNAN,"RW4Q+72J, Gn. Jaya, Kec. Ladongi, Kabupaten Kolaka Timur, Sulawesi Tenggara 93573","Gn. Jaya, Kec. Ladongi, Kabupaten Kolaka Timur",SULAWESI TENGGARA,93573.0,Indonesia, 082346811111,,,-4.1942822,121.937503,https://maps.google.com/?cid=0x0:0xb77af64a0ab58cb3,
hardware store,Toko Bahan Bangunan,Toko Bangunan Emman,"RX42+PXH, Gn., Gn. Jaya, Kec. Ladongi, Kabupaten Kolaka, Sulawesi Tenggara 93573","Gn., Gn. Jaya, Kec. Ladongi, Kabupaten Kolaka",SULAWESI TENGGARA,93573.0,Indonesia,,,,-4.1931886,121.9524931,https://maps.google.com/?cid=0x0:0x14623eb1c5e7aa7d,
hardware store,Toko,Toko.nirwana bangunan dan teknik,"Jl. Konggoasa No.29, Dawi-Dawi, Kec. Pomalaa, Kabupaten Kolaka, Sulawesi Tenggara 93562","Dawi-Dawi, Kec. Pomalaa, Kabupaten Kolaka",SULAWESI TENGGARA,93562.0,Indonesia, 082192185748,,,-4.1740381,121.6140466,https://maps.google.com/?cid=0x0:0xd0e149743537ad42,
hardware store,Kios,NIRWANA SHOP,"Jl. Ahmad Mustin No.17, Laloeha, Kec. Kolaka, Kabupaten Kolaka, Sulawesi Tenggara 93561","Laloeha, Kec. Kolaka, Kabupaten Kolaka",SULAWESI TENGGARA,93561.0,Indonesia,,,,-4.0611393,121.6137395,https://maps.google.com/?cid=0x0:0xa2a93ccba64c7cf7,
hardware store,hardware store,Sulawesi Tenggara 93571,"Kabupaten Kolaka, Sulawesi Tenggara","Kabupaten Kolaka, Sulawesi Tenggara",SULAWESI TENGGARA,,Indonesia,,,,-3.8424079,121.856261,https://maps.google.com/?cid=0x0:0x1bb5ec53427fe729,
hardware store,Toko umum,Toko Arthomoro,"2P6V+CVJ, Watupute, Mowewe, Kabupaten Kolaka Timur, Sulawesi Tenggara 93519","Watupute, Mowewe, Kabupaten Kolaka Timur",SULAWESI TENGGARA,93519.0,Indonesia,,,,-3.9889214,121.744638,https://maps.google.com/?cid=0x0:0xff0db84820d1c8ee,
hardware store,Toko Elektronik,Toko Sinar Soppeng Anaiwoi,"JGHC+268, Anaiwoi, Tanggetada, Kabupaten Kolaka, Sulawesi Tenggara 93563","Anaiwoi, Tanggetada, Kabupaten Kolaka",SULAWESI TENGGARA,93563.0,Indonesia, 085333777261,,,-4.3724644,121.520569,https://maps.google.com/?cid=0x0:0xcfbd0dbce4fe443b,
hardware store,Dealer Mesin Diesel,Sumber Teknik Diesel,"Lamokato, Kec. Kolaka, Kabupaten Kolaka, Sulawesi Tenggara","Kabupaten Kolaka, Sulawesi Tenggara",SULAWESI TENGGARA,,Indonesia, 081242590007,,,-4.0571619,121.5990072,https://maps.google.com/?cid=0x0:0x552d0bbeb541f19e,
hardware store,Toko Perlengkapan Rumah,Toko 237 BANGUNAN,"RW4Q+72J, Gn. Jaya, Kec. Ladongi, Kabupaten Kolaka Timur, Sulawesi Tenggara 93573","Gn. Jaya, Kec. Ladongi, Kabupaten Kolaka Timur",SULAWESI TENGGARA,93573.0,Indonesia, 082346811111,,,-4.1942822,121.937503,https://maps.google.com/?cid=0x0:0xb77af64a0ab58cb3,
hardware store,Toko Bahan Bangunan,Intan motor/bangunan hanya jualan offline,"Jl. Pramuka No.39C, Lamokato, Kec. Kolaka, Kabupaten Kolaka, Sulawesi Tenggara 93513","Lamokato, Kec. Kolaka, Kabupaten Kolaka",SULAWESI TENGGARA,93513.0,Indonesia,,,,-4.0571487,121.6002509,https://maps.google.com/?cid=0x0:0x7392a64790905dfd,
hardware store,Toko Bahan Bangunan,Toko Tiga Kolaka,"Jl. Repelita, Sea, Kec. Latambaga, Kabupaten Kolaka, Sulawesi Tenggara 93511","Sea, Kec. Latambaga, Kabupaten Kolaka",SULAWESI TENGGARA,93511.0,Indonesia, 085241645053,,,-4.0519021,121.590116,https://maps.google.com/?cid=0x0:0xb259e543d29a1926,
hardware store,Toko Alat Listrik,Toko Rinda Mutiara Bangunan,"WJP4+VWC, Jl. Mekongga Indah, Kabupaten Kolaka, Sulawesi Tenggara 93561","Jl. Mekongga Indah, Kabupaten Kolaka",SULAWESI TENGGARA,93561.0,Indonesia, 085242464222,,,-4.0628045,121.6072652,https://maps.google.com/?cid=0x0:0x47560bf3b035d5cd,
hardware store,,Toko Tiga Putra Jaya,"Blok j, Raraa, Kec. Ladongi, Kabupaten Kolaka Timur, Sulawesi Tenggara 93573","Raraa, Kec. Ladongi, Kabupaten Kolaka Timur",SULAWESI TENGGARA,93573.0,Indonesia, 082393349287,,,-4.1729465,121.9314226,https://maps.google.com/?cid=0x0:0xc635717ffd0bab64,
hardware store,Toko bahan makanan,Toko Risma jaya,"XV3R+2PV, Jl. Bolo, Rate-Rate, Kec. Tirawuta, Kabupaten Kolaka Timur, Sulawesi Tenggara 93572","Jl. Bolo, Rate-Rate, Kec. Tirawuta, Kabupaten Kolaka Timur",SULAWESI TENGGARA,93572.0,Indonesia,,,,-4.0496943,121.8918338,https://maps.google.com/?cid=0x0:0x45d6bbbe4a26a314,
hardware store,hardware store,Sulawesi Tenggara 93572,Sulawesi Tenggara,Sulawesi Tenggara,SULAWESI TENGGARA,,Indonesia,,,,-4.0494144,121.947311,https://maps.google.com/?cid=0x0:0xfdc4defab63a0262,
hardware store,Toko Bahan Bangunan,Toko putri Tunggal,"XWGH+R8J, Jl. Poros Rate-rate, Tawainalu, Kec. Tirawuta, Kabupaten Kolaka Timur, Sulawesi Tenggara 93572","Jl. Poros Rate-rate, Tawainalu, Kec. Tirawuta, Kabupaten Kolaka Timur",SULAWESI TENGGARA,93572.0,Indonesia, 085216684459,,,-4.0229005,121.9282617,https://maps.google.com/?cid=0x0:0x2d7fbbe2fe2de340,
hardware store,Toko Bahan Bangunan,Toko Mitra Jaya 27,"XW3C+GG9, Jl. Poros Peatoa-Lara, Lara, Kec. Tirawuta, Kabupaten Kolaka Timur, Sulawesi Tenggara 93572","Jl. Poros Peatoa-Lara, Lara, Kec. Tirawuta, Kabupaten Kolaka Timur",SULAWESI TENGGARA,93572.0,Indonesia,,,,-4.0462216,121.9213656,https://maps.google.com/?cid=0x0:0xe557627fe082696c,
hardware store,Pusat Perbelanjaan,TOKO BANGUNAN MERTA MULIA,"Jl. Poros, Lamoare, Kec. Loea, Kabupaten Kolaka Timur, Sulawesi Tenggara 93572","Lamoare, Kec. Loea, Kabupaten Kolaka Timur",SULAWESI TENGGARA,93572.0,Indonesia, 085255072187,,,-4.0902276,121.8903196,https://maps.google.com/?cid=0x0:0x2d32e5060e93cb73,
hardware store,Pusat Perbelanjaan,Toko R-Three,"XV3V+C4J, Unnamed Road, Rate-Rate, Kec. Tirawuta, Kabupaten Kolaka Timur, Sulawesi Tenggara 93572","Unnamed Road, Rate-Rate, Kec. Tirawuta, Kabupaten Kolaka Timur",SULAWESI TENGGARA,93572.0,Indonesia,,,,-4.0464089,121.8927556,https://maps.google.com/?cid=0x0:0x848ef2e767c1503a,
hardware store,Toko,Toko Risma Jaya,"Dusun 2 Lauro, Tawarombadaka, Kec. Tinondo, Kabupaten Kolaka Timur, Sulawesi Tenggara 93571","Tawarombadaka, Kec. Tinondo, Kabupaten Kolaka Timur",SULAWESI TENGGARA,93571.0,Indonesia, 085241525319,,,-3.9496866,121.8030863,https://maps.google.com/?cid=0x0:0x64530ce902bae30c,
hardware store,Toko Alat Tulis Kantor,Famili Com,"jalan a Jl. Andi Baso Umar No.213, Rate-Rate, Kec. Tirawuta, Kabupaten Kolaka Timur, Sulawesi Tenggara 93572","Rate-Rate, Kec. Tirawuta, Kabupaten Kolaka Timur",SULAWESI TENGGARA,93572.0,Indonesia,,,,-4.0471404,121.8928137,https://maps.google.com/?cid=0x0:0xd888dac1dd195674,
hardware store,,Foto Copy Rafa,"XVW9+V6W, Lalingato, Kec. Tirawuta, Kabupaten Kolaka, Sulawesi Tenggara 93572","Lalingato, Kec. Tirawuta, Kabupaten Kolaka",SULAWESI TENGGARA,93572.0,Indonesia,,,,-4.0027654,121.8680639,https://maps.google.com/?cid=0x0:0x1fedd17c298f5f52,
hardware store,Toko Alat Tulis Kantor,Ian Komputer,"XVMG+WRG, Jl. Poros Kolaka - Rate-rate, Simbune, Kec. Tirawuta, Kabupaten Kolaka Timur, Sulawesi Tenggara 93572","Jl. Poros Kolaka - Rate-rate, Simbune, Kec. Tirawuta, Kabupaten Kolaka Timur",SULAWESI TENGGARA,93572.0,Indonesia, 081343943944,,,-4.0154541,121.8772148,https://maps.google.com/?cid=0x0:0xd3bfc5c5c275ef85,
hardware store,Toko Kosmetik,Winstore,"XV4J+7JG, Jl. Poros Kolaka - Rate-rate, Tirawuta, Kec. Tirawuta, Kabupaten Kolaka Timur, Sulawesi Tenggara","Kabupaten Kolaka Timur, Sulawesi Tenggara",SULAWESI TENGGARA,,Indonesia,,,,-4.0443079,121.8815828,https://maps.google.com/?cid=0x0:0xa417006112a5e3ec,
hardware store,Toko umum,Toko Arthomoro,"2P6V+CVJ, Watupute, Mowewe, Kabupaten Kolaka Timur, Sulawesi Tenggara 93519","Watupute, Mowewe, Kabupaten Kolaka Timur",SULAWESI TENGGARA,93519.0,Indonesia,,,,-3.9889214,121.744638,https://maps.google.com/?cid=0x0:0xff0db84820d1c8ee,
hardware store,Dealer Kendaraan Bermotor,PT.HASJRAT ABADI LADONGI,"VWM2+JWG, Lalowosula, Kec. Ladongi, Kabupaten Kolaka, Sulawesi Tenggara 93573","Lalowosula, Kec. Ladongi, Kabupaten Kolaka",SULAWESI TENGGARA,93573.0,Indonesia,,,,-4.1159297,121.9023361,https://maps.google.com/?cid=0x0:0x456be01f715a5f7d,
hardware store,Toko Perlengkapan Rumah,Haston Professional Tools And Hardware,"3329+QQG, Jl. Poros Kendari - Pohara, Asaki, Kec. Lambuya, Kabupaten Konawe, Sulawesi Tenggara 93464","Jl. Poros Kendari - Pohara, Asaki, Kec. Lambuya, Kabupaten Konawe",SULAWESI TENGGARA,93464.0,Indonesia,,,,-3.9480536,122.0694479,https://maps.google.com/?cid=0x0:0x3566fb1f375279c8,
hardware store,Toko bahan makanan,MR.DIY Unaaha,"Tumpas, Kec. Unaaha, Kabupaten Konawe, Sulawesi Tenggara","Kabupaten Konawe, Sulawesi Tenggara",SULAWESI TENGGARA,,Indonesia,,,,-3.8594844,122.041867,https://maps.google.com/?cid=0x0:0x923e3eb016426ee5,
hardware store,Toko Alat Tulis Kantor,Toko Irda Utama,"Atula, Kec. Ladongi, Kabupaten Kolaka, Sulawesi Tenggara 93573","Kec. Ladongi, Kabupaten Kolaka",SULAWESI TENGGARA,93573.0,Indonesia, 082393322323,,,-4.1526156,121.9154166,https://maps.google.com/?cid=0x0:0x31e1c1aad0b66d65,
hardware store,Toko Pertanian,Toko Fikar Tani,"43P2+W5W, Tumpas, Kec. Unaaha, Kabupaten Konawe, Sulawesi Tenggara 93415","Tumpas, Kec. Unaaha, Kabupaten Konawe",SULAWESI TENGGARA,93415.0,Indonesia,,,,-3.862648,122.0504542,https://maps.google.com/?cid=0x0:0x7959994fce9ff52f,
hardware store,Toko Bahan Bangunan,Toko Nurul Vadya Bangunan,"XH3J+Q76, Jl. Abadi, Kolakaasi, Kec. Latambaga, Kabupaten Kolaka, Sulawesi Tenggara 93511","Jl. Abadi, Kolakaasi, Kec. Latambaga, Kabupaten Kolaka",SULAWESI TENGGARA,93511.0,Indonesia, 081341729995,,,-4.0455873,121.5806317,https://maps.google.com/?cid=0x0:0xecb17a48f641eda5,
hardware store,Toko Bahan Bangunan,TOKO BAHAN APLIKASI BANGUNAN,"GV5J+36H, Ponggiha, Kec. Lasusua, Kabupaten Kolaka Utara, Sulawesi Tenggara 93914","Ponggiha, Kec. Lasusua, Kabupaten Kolaka Utara",SULAWESI TENGGARA,93914.0,Indonesia, 08114206900,,,-3.4924433,120.8804003,https://maps.google.com/?cid=0x0:0xf23c073d64879223,
hardware store,,Toko Buana Indah,"Puunaaha, Kec. Unaaha, Kabupaten Konawe, Sulawesi Tenggara 93415","Kec. Unaaha, Kabupaten Konawe",SULAWESI TENGGARA,93415.0,Indonesia, 085241673940,,,-3.8579013,122.0421464,https://maps.google.com/?cid=0x0:0xbfdbea1d1e990acd,
hardware store,Toko Bahan Bangunan,TOKO BERAGAM BANGUNAN,"Tahoa, Kec. Kolaka, Kabupaten Kolaka, Sulawesi Tenggara 93561","Kec. Kolaka, Kabupaten Kolaka",SULAWESI TENGGARA,93561.0,Indonesia, 085255646333,,,-4.0670079,121.620245,https://maps.google.com/?cid=0x0:0x1efe5e1f790a47bd,
hardware store,Toko Kosmetik,TOKO RAUDAH,"Jl. Poros Kolaka - Rate-rate, Lalingato, Kec. Tirawuta, Kabupaten Kolaka Timur, Sulawesi Tenggara 93582","Lalingato, Kec. Tirawuta, Kabupaten Kolaka Timur",SULAWESI TENGGARA,93582.0,Indonesia, 082393133211,,,-4.0093556,121.870918,https://maps.google.com/?cid=0x0:0x51d6ec5d19c743ef,
hardware store,Toko Ponsel,Genius Cellular,"VW56+X86, Ladongi, Kec. Ladongi, Kabupaten Kolaka, Sulawesi Tenggara 93573","Ladongi, Kec. Ladongi, Kabupaten Kolaka",SULAWESI TENGGARA,93573.0,Indonesia, 082188678910,,,-4.1400886,121.9107536,https://maps.google.com/?cid=0x0:0xc8c626c7939cf685,
hardware store,Toko Bahan Bangunan,Toko Asma,"Jl. Sabandara No.231, Puunaaha, Kec. Unaaha, Kabupaten Konawe, Sulawesi Tenggara 93413","Puunaaha, Kec. Unaaha, Kabupaten Konawe",SULAWESI TENGGARA,93413.0,Indonesia, 083833052031,,,-3.8612737,122.0410573,https://maps.google.com/?cid=0x0:0xfff8289c843ed555,
hardware store,Toko Bahan Bangunan,TB. CITRA BARU,"42PX+X5F, Jl. Jend Sudirman, Tumpas, Kec. Konawe, Kabupaten Konawe, Sulawesi Tenggara 93415","Jl. Jend Sudirman, Tumpas, Kec. Konawe, Kabupaten Konawe",SULAWESI TENGGARA,93415.0,Indonesia, 081341765808,,,-3.8625503,122.0479117,https://maps.google.com/?cid=0x0:0xf1732e1eeac62f92,
hardware store,Toko Bahan Bangunan,TB Al-Muhajirin Sonai,"X448+6WR, Watundehoa, Kec. Puriala, Kabupaten Konawe, Sulawesi Tenggara","Kabupaten Konawe, Sulawesi Tenggara",SULAWESI TENGGARA,,Indonesia, 082340169990,,,-4.0311848,122.122099,https://maps.google.com/?cid=0x0:0xc7b45b0ff7b427a7,
hardware store,hardware store,Sulawesi Tenggara 93575,"Kabupaten Kolaka, Sulawesi Tenggara","Kabupaten Kolaka, Sulawesi Tenggara",SULAWESI TENGGARA,,Indonesia,,,,-3.5101108,121.3998995,https://maps.google.com/?cid=0x0:0xc8b7a5389edae68c,
hardware store,Pasar bahan bangunan,TOKO MEGA TAMA Wawotobi (Toko Bangunan),"Jl. Jend Sudirman No.17, Wawotobi, Kec. Wawotobi, Kabupaten Konawe, Sulawesi Tenggara 93461","Wawotobi, Kec. Wawotobi, Kabupaten Konawe",SULAWESI TENGGARA,93461.0,Indonesia, 085216149991,,,-3.8766033,122.1086909,https://maps.google.com/?cid=0x0:0x6590efc314bd5d70,
hardware store,Toko umum,Toko Arthomoro,"2P6V+CVJ, Watupute, Mowewe, Kabupaten Kolaka Timur, Sulawesi Tenggara 93519","Watupute, Mowewe, Kabupaten Kolaka Timur",SULAWESI TENGGARA,93519.0,Indonesia,,,,-3.9889214,121.744638,https://maps.google.com/?cid=0x0:0xff0db84820d1c8ee,
hardware store,Toko Bahan Bangunan,Toko Sinar Abadi,"Jl. Poros Kolaka - Wolo No.77, Mangolo, Kec. Latambaga, Kabupaten Kolaka, Sulawesi Tenggara 93514","Mangolo, Kec. Latambaga, Kabupaten Kolaka",SULAWESI TENGGARA,93514.0,Indonesia,,,,-4.0205262,121.5505668,https://maps.google.com/?cid=0x0:0xbaaea39c38eef387,
hardware store,Toko Bahan Bangunan,Tongauna Jaya,"Jl. Poros Unaaha, Lalonggowuna, Kec. Abuki, Kabupaten Konawe, Sulawesi Tenggara 93461","Lalonggowuna, Kec. Abuki, Kabupaten Konawe",SULAWESI TENGGARA,93461.0,Indonesia, 085246540505,,,-3.8077055,121.990537,https://maps.google.com/?cid=0x0:0xa072c57b542f6991,
hardware store,Toko Bahan Bangunan,Toko Victory/Depot Ratu,"Wawoone, Kec. Wonggeduku, Kabupaten Konawe, Sulawesi Tenggara 93463","Kec. Wonggeduku, Kabupaten Konawe",SULAWESI TENGGARA,93463.0,Indonesia, 085222300224,,,-3.9418238,122.1793762,https://maps.google.com/?cid=0x0:0x64add81bea3de02e,
hardware store,hardware store,,,,SULAWESI TENGGARA,,Indonesia, 085299876110,,,-3.5781015,121.0546,https://maps.google.com/?cid=0x0:0xa94f8b88faa46863,
hardware store,Toko,Toko 5 Saudara Abuki,"6WVF+GJP, Punggaluku, Kec. Abuki, Kabupaten Konawe, Sulawesi Tenggara 93461","Punggaluku, Kec. Abuki, Kabupaten Konawe",SULAWESI TENGGARA,93461.0,Indonesia, 085241513980,,,-3.7561641,121.9240686,https://maps.google.com/?cid=0x0:0xe3ace9576bfa4487,
hardware store,Dealer Mesin Diesel,Sumber Teknik Diesel,"Lamokato, Kec. Kolaka, Kabupaten Kolaka, Sulawesi Tenggara","Kabupaten Kolaka, Sulawesi Tenggara",SULAWESI TENGGARA,,Indonesia, 081242590007,,,-4.0571619,121.5990072,https://maps.google.com/?cid=0x0:0x552d0bbeb541f19e,
hardware store,Toko Bahan Bangunan,Karya 72,"P2MG+V4H, Seuwwa, Kec. Pakue, Kabupaten Kolaka Utara, Sulawesi Tenggara 93954","Seuwwa, Kec. Pakue, Kabupaten Kolaka Utara",SULAWESI TENGGARA,93954.0,Indonesia,,,,-3.2655672,121.0259472,https://maps.google.com/?cid=0x0:0x9017085cd8451331,
hardware store,Toko Alat Listrik,Toko Rinda Mutiara Bangunan,"WJP4+VWC, Jl. Mekongga Indah, Kabupaten Kolaka, Sulawesi Tenggara 93561","Jl. Mekongga Indah, Kabupaten Kolaka",SULAWESI TENGGARA,93561.0,Indonesia, 085242464222,,,-4.0628045,121.6072652,https://maps.google.com/?cid=0x0:0x47560bf3b035d5cd,
hardware store,Jasa Konstruksi dan Bangunan,TB AROSPA,"3CVH+522, Jl. Poros Pohara - Laosu, Sampara/Morosi, Kec. Bondoala, Kabupaten Konawe, Sulawesi Tenggara 93354","Jl. Poros Pohara - Laosu, Sampara/Morosi, Kec. Bondoala, Kabupaten Konawe",SULAWESI TENGGARA,93354.0,Indonesia, 085241568043,,,-3.9071034,122.4275177,https://maps.google.com/?cid=0x0:0x13c8918cdf60dd95,
hardware store,Toko Bahan Bangunan,"MAXCELL DEPO TEKNIK  BANGUNAN (KOLAKA) | Toko Listrik, Elektronik, Furniture Kolaka","Jl. Pramuka, Lamokato, Kec. Kolaka, Kabupaten Kolaka, Sulawesi Tenggara 93511","Lamokato, Kec. Kolaka, Kabupaten Kolaka",SULAWESI TENGGARA,93511.0,Indonesia, 082166638222,,,-4.056492,121.5995077,https://maps.google.com/?cid=0x0:0xd15a51807812dfe,
hardware store,Toko Perlengkapan Rumah,Haston Professional Tools And Hardware,"3329+QQG, Jl. Poros Kendari - Pohara, Asaki, Kec. Lambuya, Kabupaten Konawe, Sulawesi Tenggara 93464","Jl. Poros Kendari - Pohara, Asaki, Kec. Lambuya, Kabupaten Konawe",SULAWESI TENGGARA,93464.0,Indonesia,,,,-3.9480536,122.0694479,https://maps.google.com/?cid=0x0:0x3566fb1f375279c8,
hardware store,Toko Bahan Bangunan,Tb.Dewata,"V36Q+HJX, Jl. Poros Batuputih - Olooloho, Latali, Kec. Pakue Tengah, Kabupaten Kolaka Utara, Sulawesi Tenggara 93954","Jl. Poros Batuputih - Olooloho, Latali, Kec. Pakue Tengah, Kabupaten Kolaka Utara",SULAWESI TENGGARA,93954.0,Indonesia, 0895130809372,,,-3.138512,121.0891049,https://maps.google.com/?cid=0x0:0xe4af17b738ab7364,
hardware store,Toko,Toko Risma Jaya,"Dusun 2 Lauro, Tawarombadaka, Kec. Tinondo, Kabupaten Kolaka Timur, Sulawesi Tenggara 93571","Tawarombadaka, Kec. Tinondo, Kabupaten Kolaka Timur",SULAWESI TENGGARA,93571.0,Indonesia, 085241525319,,,-3.9496866,121.8030863,https://maps.google.com/?cid=0x0:0x64530ce902bae30c,
hardware store,Percetakan Komersial,Azka Print,"453H+M26, Karandu, Kec. Wawotobi, Kabupaten Konawe, Sulawesi Tenggara 93461","Karandu, Kec. Wawotobi, Kabupaten Konawe",SULAWESI TENGGARA,93461.0,Indonesia, 082266261187,,,-3.8958297,122.1775264,https://maps.google.com/?cid=0x0:0x7af2e5be697c614a,
hardware store,Pabrik beton,A.R.B (Rajanya Roster Kolaka),"Ponpes A.P.I Alfalah, ARB(Rajanya Roster Kokaka, Jln Teratai Blok B Selatan, Puubunga, Kec. Baula, Kabupaten Kolaka, Sulawesi Tenggara 93561","ARB(Rajanya Roster Kokaka, Jln Teratai Blok B Selatan, Puubunga, Kec. Baula, Kabupaten Kolaka",SULAWESI TENGGARA,93561.0,Indonesia, 082293279946,,,-4.1462267,121.6437746,https://maps.google.com/?cid=0x0:0x75bde09fb5c531ba,
hardware store,Toko Bahan Bangunan,Toko SAHABAT BANGUNAN Puosu Jaya (murah  bersahabat),"Poros konda - baruga + 1km setelah simpang Brimob, Jl. Brigjen Katamso, Puosu Jaya, Kec. Konda, Kabupaten Konawe Selatan, Sulawesi Tenggara 93870","Jl. Brigjen Katamso, Puosu Jaya, Kec. Konda, Kabupaten Konawe Selatan",SULAWESI TENGGARA,93870.0,Indonesia, 082112427393,,,-4.060166,122.4713702,https://maps.google.com/?cid=0x0:0x7a3380da8aac272d,
hardware store,Toko Bahan Bangunan,TOKO IRVAN 1,"9XCH+QH8, Jl. Poros Ranteangin - Kolaka, Lambai, Kec. Lambai, Kabupaten Kolaka Utara, Sulawesi Tenggara 93956","Jl. Poros Ranteangin - Kolaka, Lambai, Kec. Lambai, Kabupaten Kolaka Utara",SULAWESI TENGGARA,93956.0,Indonesia,,,,-3.62809,120.9789525,https://maps.google.com/?cid=0x0:0xcb4d7f637e9866da,
hardware store,Toko Bahan Bangunan,Arunika Sukses,"Jln Wasitau No.12, Ngapa, Kec. Wundulako, Kabupaten Kolaka, Sulawesi Tenggara 93561","Ngapa, Kec. Wundulako, Kabupaten Kolaka",SULAWESI TENGGARA,93561.0,Indonesia, 0811408066,,,-4.1263741,121.6720926,https://maps.google.com/?cid=0x0:0xde53c630b4ed5d66,
hardware store,Toko Bahan Bangunan,Toko Nurul Vadya Bangunan,"XH3J+Q76, Jl. Abadi, Kolakaasi, Kec. Latambaga, Kabupaten Kolaka, Sulawesi Tenggara 93511","Jl. Abadi, Kolakaasi, Kec. Latambaga, Kabupaten Kolaka",SULAWESI TENGGARA,93511.0,Indonesia, 081341729995,,,-4.0455873,121.5806317,https://maps.google.com/?cid=0x0:0xecb17a48f641eda5,
hardware store,Toko Perlengkapan Rumah,ACE Informa,"Jl. Jend. Ahmad Yani No.26, Kadia, Kec. Kadia, Kota Kendari, Sulawesi Tenggara 93115","Kadia, Kec. Kadia, Kota Kendari",SULAWESI TENGGARA,93115.0,Indonesia,,,,-3.9813173,122.5097731,https://maps.google.com/?cid=0x0:0x8035d2a319cbe4a8,
hardware store,Toko Bahan Bangunan,TOKO BERAGAM BANGUNAN,"Tahoa, Kec. Kolaka, Kabupaten Kolaka, Sulawesi Tenggara 93561","Kec. Kolaka, Kabupaten Kolaka",SULAWESI TENGGARA,93561.0,Indonesia, 085255646333,,,-4.0670079,121.620245,https://maps.google.com/?cid=0x0:0x1efe5e1f790a47bd,
hardware store,Pusat Perbelanjaan,AZKO Living Plaza Kendari,"Jl. Jend. Ahmad Yani No.26, Kadia, Kec. Kadia, Kota Kendari, Sulawesi Tenggara 93115","Kadia, Kec. Kadia, Kota Kendari",SULAWESI TENGGARA,93115.0,Indonesia, 082136040069,,,-3.9812995,122.5097193,https://maps.google.com/?cid=0x0:0x85e8fa1a45a928d5,
home improvement,home improvement,Ladongi,"Ladongi, Kec. Ladongi, Kabupaten Kolaka Timur, Sulawesi Tenggara","Kabupaten Kolaka Timur, Sulawesi Tenggara",SULAWESI TENGGARA,,Indonesia,,,,-4.142409,121.901901,https://maps.google.com/?cid=0x0:0xf976c8583833e88d,
home improvement,Rumah Kayu,Family almunium,"Unnamed Road, Raraa, Kec. Ladongi, Kabupaten Kolaka Timur, Sulawesi Tenggara 93573","Raraa, Kec. Ladongi, Kabupaten Kolaka Timur",SULAWESI TENGGARA,93573.0,Indonesia, 085241907859,,,-4.1692422,121.9340711,https://maps.google.com/?cid=0x0:0x3724d6d6ffff5233,
home improvement,Toko Perlengkapan Rumah,Bilal Home,"QWX3+55Q Bilal Home, Taosu, Kec. Poli-Polia, Kabupaten Kolaka Timur, Sulawesi Tenggara 93573","Taosu, Kec. Poli-Polia, Kabupaten Kolaka Timur",SULAWESI TENGGARA,93573.0,Indonesia, 082222269049,,,-4.20205,121.9029933,https://maps.google.com/?cid=0x0:0x31e6016b81622e55,
home improvement,Komplek perumahan,Home dian,"RWX7+JMJ, Atula, Kec. Ladongi, Kabupaten Kolaka, Sulawesi Tenggara 93573","Atula, Kec. Ladongi, Kabupaten Kolaka",SULAWESI TENGGARA,93573.0,Indonesia,,,,-4.1508837,121.9142331,https://maps.google.com/?cid=0x0:0xea622f10b068eca3,
home improvement,Toko Pertanian,Toko Riki Tani,"VVRW+X35, Putemata, Kec. Ladongi, Kabupaten Kolaka, Sulawesi Tenggara 93573","Putemata, Kec. Ladongi, Kabupaten Kolaka",SULAWESI TENGGARA,93573.0,Indonesia,,,,-4.1076177,121.8952221,https://maps.google.com/?cid=0x0:0x49a556198eecd36d,
home improvement,Komplek perumahan,My Home,"VW52+2QJ, Gunung Merah, Kec. Ladongi, Kabupaten Kolaka Timur, Sulawesi Tenggara","Kabupaten Kolaka Timur, Sulawesi Tenggara",SULAWESI TENGGARA,,Indonesia,,,,-4.142409,121.901901,https://maps.google.com/?cid=0x0:0xf28d69bc2afed28,
home improvement,Kios,Home Andi Zampe,"Dusun 1, Desa Talinduka. Unnamed Road, Gn. Jaya, Kec. Ladongi, Kabupaten Kolaka Timur, Sulawesi Tenggara 93573","Desa Talinduka. Unnamed Road, Gn. Jaya, Kec. Ladongi, Kabupaten Kolaka Timur",SULAWESI TENGGARA,93573.0,Indonesia, 082310830935,,,-4.201596,121.9544897,https://maps.google.com/?cid=0x0:0xe6b47d810c1405a9,
home improvement,Kantor Pemerintah,Bendungan Ladongi,"RVXQ+HP4, Atula, Kec. Ladongi, Kabupaten Kolaka Timur, Sulawesi Tenggara","Kabupaten Kolaka Timur, Sulawesi Tenggara",SULAWESI TENGGARA,,Indonesia,,,,-4.1511225,121.8893184,https://maps.google.com/?cid=0x0:0x6b684e074edbccf2,
home improvement,Perhimpunan Pengembang Perumahan,Home DEN,"VVMR+J8V, Putemata, Kec. Ladongi, Kabupaten Kolaka Timur, Sulawesi Tenggara","Kabupaten Kolaka Timur, Sulawesi Tenggara",SULAWESI TENGGARA,,Indonesia,,,,-4.1158936,121.8908122,https://maps.google.com/?cid=0x0:0x44903e36f8a79540,
home improvement,home improvement,Sulawesi Tenggara 93572,Sulawesi Tenggara,Sulawesi Tenggara,SULAWESI TENGGARA,,Indonesia,,,,-4.0494144,121.947311,https://maps.google.com/?cid=0x0:0xfdc4defab63a0262,
home improvement,Komplek perumahan,Ivha HOME,"XQFM+W2G, Depan lapangan lappabuka Jl. Poros Kolaka - Rate-rate, Lalolae, Kec. Lalolae, Kabupaten Kolaka Timur, Sulawesi Tenggara 93571","Depan lapangan lappabuka Jl. Poros Kolaka - Rate-rate, Lalolae, Kec. Lalolae, Kabupaten Kolaka Timur",SULAWESI TENGGARA,93571.0,Indonesia,,,,-4.0251918,121.7825836,https://maps.google.com/?cid=0x0:0xd76f032d78213284,
home improvement,Komplek perumahan,Galang home,"XQFM+V4V, Jl. Poros Kolaka - Rate-rate, Lalolae, Kec. Lalolae, Kabupaten Kolaka Timur, Sulawesi Tenggara 93571","Jl. Poros Kolaka - Rate-rate, Lalolae, Kec. Lalolae, Kabupaten Kolaka Timur",SULAWESI TENGGARA,93571.0,Indonesia,,,,-4.0252373,121.7830097,https://maps.google.com/?cid=0x0:0x131a2b8b4aa4ef9c,
home improvement,Taman,HOME_JAAT,"VJ6X+386, DUSUN 4, MEKAR SARI, Puubunga, Kec. Baula, Kabupaten Kolaka, Sulawesi Tenggara","Kabupaten Kolaka, Sulawesi Tenggara",SULAWESI TENGGARA,,Indonesia,,,,-4.1398424,121.648274,https://maps.google.com/?cid=0x0:0xfe66695e3c43edb,
home improvement,,HOME ALLO,"VMG7+3R, Bende, Kec. Wundulako, Kabupaten Kolaka, Sulawesi Tenggara","Kabupaten Kolaka, Sulawesi Tenggara",SULAWESI TENGGARA,,Indonesia,,,,-4.1248552,121.6645423,https://maps.google.com/?cid=0x0:0x494056d7ed8264aa,
home improvement,Toko,HOME INNAH,"VM52+R6Q, Puubunga, Kec. Baula, Kabupaten Kolaka, Sulawesi Tenggara 93561","Puubunga, Kec. Baula, Kabupaten Kolaka",SULAWESI TENGGARA,93561.0,Indonesia,,,,-4.1394883,121.6497925,https://maps.google.com/?cid=0x0:0xd910d35715e7e196,
home improvement,Komplek perumahan,Home lisa,"Jl. Poros Kolaka Kendari No.KM13, 19 Nopember, Kec. Wundulako, Kabupaten Kolaka, Sulawesi Tenggara","Kabupaten Kolaka, Sulawesi Tenggara",SULAWESI TENGGARA,,Indonesia,,,,-4.0688269,121.6787315,https://maps.google.com/?cid=0x0:0xf30d9ef96d4f742c,
home improvement,Tempat Cukur Rambut,Panel,"WV2Q+7C3, Teposua, Kec. Loea, Kabupaten Kolaka Timur, Sulawesi Tenggara","Kabupaten Kolaka Timur, Sulawesi Tenggara",SULAWESI TENGGARA,,Indonesia,,,,-4.100174,121.888906,https://maps.google.com/?cid=0x0:0xbd3a21e17bbf7e89,
home improvement,Toko Bahan Bangunan,Toko ud h. Lahi,"RJF7+R35, Dawi-Dawi, Kec. Pomalaa, Kabupaten Kolaka, Sulawesi Tenggara 93562","Dawi-Dawi, Kec. Pomalaa, Kabupaten Kolaka",SULAWESI TENGGARA,93562.0,Indonesia,,,,-4.17494,121.612653,https://maps.google.com/?cid=0x0:0xb6389c8b75f24868,
home improvement,home improvement,Toko Ati Mww,"XRP6+RW5, Jl. Poros Kolaka - Rate-rate, Lalosingi, Kec. Lalolae, Kabupaten Kolaka Timur, Sulawesi Tenggara 93572","Jl. Poros Kolaka - Rate-rate, Lalosingi, Kec. Lalolae, Kabupaten Kolaka Timur",SULAWESI TENGGARA,93572.0,Indonesia,,,,-4.0129789,121.8123453,https://maps.google.com/?cid=0x0:0xa9817453d26c4194,
home improvement,home improvement,Kec. Lalolae,"Kabupaten Kolaka Timur, Sulawesi Tenggara","Kabupaten Kolaka Timur, Sulawesi Tenggara",SULAWESI TENGGARA,,Indonesia,,,,-4.0256541,121.7842582,https://maps.google.com/?cid=0x0:0x16745ece4e90ef2b,
home improvement,home improvement,Sulawesi Tenggara 93573,"Kabupaten Kolaka, Sulawesi Tenggara","Kabupaten Kolaka, Sulawesi Tenggara",SULAWESI TENGGARA,,Indonesia,,,,-4.2654072,121.856261,https://maps.google.com/?cid=0x0:0xeafafa5d78b5c179,
home improvement,Toko Bahan Bangunan,Lambandia,"MWWC+2QQ, Lambandia, Kec. Lambandia, Kabupaten Kolaka Timur, Sulawesi Tenggara 93573","Lambandia, Kec. Lambandia, Kabupaten Kolaka Timur",SULAWESI TENGGARA,93573.0,Indonesia,,,,-4.3049086,121.9219957,https://maps.google.com/?cid=0x0:0x4f47e8495390b92f,
home improvement,Toko Mebel Berbahan Kayu Pinus,Mebel,"PW39+H4R, Lambandia, Kec. Lambandia, Kabupaten Kolaka Timur, Sulawesi Tenggara 93573","Lambandia, Kec. Lambandia, Kabupaten Kolaka Timur",SULAWESI TENGGARA,93573.0,Indonesia, 085298000296,,,-4.2960044,121.917777,https://maps.google.com/?cid=0x0:0x8819c7951efd8db,
home improvement,Rumah Kayu,Family almunium,"Unnamed Road, Raraa, Kec. Ladongi, Kabupaten Kolaka Timur, Sulawesi Tenggara 93573","Raraa, Kec. Ladongi, Kabupaten Kolaka Timur",SULAWESI TENGGARA,93573.0,Indonesia, 085241907859,,,-4.1692422,121.9340711,https://maps.google.com/?cid=0x0:0x3724d6d6ffff5233,
home improvement,Komplek perumahan,Kios Anti Dekorasi,"MW6F+R3, Mokupa, Kec. Lambandia, Kabupaten Kolaka Timur, Sulawesi Tenggara","Kabupaten Kolaka Timur, Sulawesi Tenggara",SULAWESI TENGGARA,,Indonesia,,,,-4.3384887,121.9227129,https://maps.google.com/?cid=0x0:0xd46f69c3b39e5b5,
home improvement,Taman,HOME_JAAT,"VJ6X+386, DUSUN 4, MEKAR SARI, Puubunga, Kec. Baula, Kabupaten Kolaka, Sulawesi Tenggara","Kabupaten Kolaka, Sulawesi Tenggara",SULAWESI TENGGARA,,Indonesia,,,,-4.1398424,121.648274,https://maps.google.com/?cid=0x0:0xfe66695e3c43edb,
home improvement,Komplek perumahan,RUMAH RANI,"MXC8+92R, Lowa, Kec. Lambandia, Kabupaten Kolaka Timur, Sulawesi Tenggara","Kabupaten Kolaka Timur, Sulawesi Tenggara",SULAWESI TENGGARA,,Indonesia,,,,-4.3290232,121.9650218,https://maps.google.com/?cid=0x0:0x1194886f7ec37094,
home improvement,Toko Bahan Bangunan,Toko rifaldi,"MWXG+P93, Penanggo Jaya, Kec. Lambandia, Kabupaten Kolaka Timur, Sulawesi Tenggara 93573","Penanggo Jaya, Kec. Lambandia, Kabupaten Kolaka Timur",SULAWESI TENGGARA,93573.0,Indonesia, 085258082553,,,-4.3007442,121.9259158,https://maps.google.com/?cid=0x0:0x99c6fcff4ec16662,
home improvement,home improvement,Lambandia,"Kec. Lambandia, Kabupaten Kolaka Timur, Sulawesi Tenggara","Kabupaten Kolaka Timur, Sulawesi Tenggara",SULAWESI TENGGARA,,Indonesia,,,,-4.2846446,121.918866,https://maps.google.com/?cid=0x0:0x2af5ac7223784fa8,
home improvement,home improvement,Kec. Loea,"Kabupaten Kolaka Timur, Sulawesi Tenggara","Kabupaten Kolaka Timur, Sulawesi Tenggara",SULAWESI TENGGARA,,Indonesia,,,,-4.0866248,121.8885897,https://maps.google.com/?cid=0x0:0x3416e72c1ead93b6,
home improvement,home improvement,Warung Sudiana,"WV3J+WXM, Mataiwoi, Kec. Loea, Kabupaten Kolaka, Sulawesi Tenggara 93572","Mataiwoi, Kec. Loea, Kabupaten Kolaka",SULAWESI TENGGARA,93572.0,Indonesia,,,,-4.0951721,121.8824102,https://maps.google.com/?cid=0x0:0x9625d1406d0786bf,
home improvement,Perusahaan Konstruksi,CV putra Mekongga,"Simbalai, Kec. Loea, Kabupaten Kolaka Timur, Sulawesi Tenggara 93572","Kec. Loea, Kabupaten Kolaka Timur",SULAWESI TENGGARA,93572.0,Indonesia,,,,-4.0759759,121.8812904,https://maps.google.com/?cid=0x0:0x32e7becd5d995d98,
home improvement,Komplek perumahan,My home,"2P6V+CVJ, Watupute, Mowewe, Kabupaten Kolaka Timur, Sulawesi Tenggara 93519","Watupute, Mowewe, Kabupaten Kolaka Timur",SULAWESI TENGGARA,93519.0,Indonesia,,,,-3.9897092,121.7449288,https://maps.google.com/?cid=0x0:0xbe4a435d1b423807,
home improvement,Komplek perumahan,Rumah Ajat,"2P6V+GV6, Watupute, Mowewe, Kabupaten Kolaka Timur, Sulawesi Tenggara","Kabupaten Kolaka Timur, Sulawesi Tenggara",SULAWESI TENGGARA,,Indonesia,,,,-3.9887063,121.744636,https://maps.google.com/?cid=0x0:0xa57ada7463440596,
home improvement,home improvement,Mowewe,"Kabupaten Kolaka Timur, Sulawesi Tenggara","Kabupaten Kolaka Timur, Sulawesi Tenggara",SULAWESI TENGGARA,,Indonesia,,,,-3.962898,121.7081454,https://maps.google.com/?cid=0x0:0xdd1351df24135eeb,
home improvement,home improvement,Poli-Polia,"Kec. Poli-Polia, Kabupaten Kolaka Timur, Sulawesi Tenggara","Kabupaten Kolaka Timur, Sulawesi Tenggara",SULAWESI TENGGARA,,Indonesia,,,,-4.1865835,121.8875679,https://maps.google.com/?cid=0x0:0xe57e9b1d5ca223cc,
home improvement,Toko Perlengkapan Rumah,Bilal Home,"QWX3+55Q Bilal Home, Taosu, Kec. Poli-Polia, Kabupaten Kolaka Timur, Sulawesi Tenggara 93573","Taosu, Kec. Poli-Polia, Kabupaten Kolaka Timur",SULAWESI TENGGARA,93573.0,Indonesia, 082222269049,,,-4.20205,121.9029933,https://maps.google.com/?cid=0x0:0x31e6016b81622e55,
home improvement,Toko umum,Tokoh Aisyah,"Unnamed Road No.Kelurahan, Poli-Polia, Kec. Poli-Polia, Kabupaten Kolaka Timur, Sulawesi Tenggara 93573","Poli-Polia, Kec. Poli-Polia, Kabupaten Kolaka Timur",SULAWESI TENGGARA,93573.0,Indonesia, 085397975091,,,-4.199605,121.9037916,https://maps.google.com/?cid=0x0:0xec8dc96ee327256c,
home improvement,home improvement,,,,SULAWESI TENGGARA,,Indonesia, 082333065993,,,-2.44565,117.8888,https://maps.google.com/?cid=0x0:0xde6a6781dacd4041,
home improvement,home improvement,,,,SULAWESI TENGGARA,,Indonesia, 082333065993,,,-2.44565,117.8888,https://maps.google.com/?cid=0x0:0xc7582449e206c99e,
home improvement,home improvement,Plastics House,"QVRX+9V8, Inotu, mewao, Poli-Polia, East Kolaka Regency, South East Sulawesi 93573","Inotu, mewao, Poli-Polia, East Kolaka Regency",SULAWESI TENGGARA,93573.0,Indonesia,,,,-4.2090899,121.8997117,https://maps.google.com/?cid=0x0:0x30d13eede2d44780,
home improvement,home improvement,Kec. Tinondo,"Kabupaten Kolaka Timur, Sulawesi Tenggara","Kabupaten Kolaka Timur, Sulawesi Tenggara",SULAWESI TENGGARA,,Indonesia,,,,-3.9577652,121.809945,https://maps.google.com/?cid=0x0:0x61f737df1c5b0cf8,
home improvement,home improvement,Sulawesi Tenggara 93572,Sulawesi Tenggara,Sulawesi Tenggara,SULAWESI TENGGARA,,Indonesia,,,,-4.0494144,121.947311,https://maps.google.com/?cid=0x0:0xfdc4defab63a0262,
home improvement,Komplek perumahan,Home simpang tiga tirawuta,"XV3M+7WC, Jl. Poros Kolaka - Kendari, Rate-Rate, Kec. Tirawuta, Kabupaten Kolaka Timur, Sulawesi Tenggara 93572","Jl. Poros Kolaka - Kendari, Rate-Rate, Kec. Tirawuta, Kabupaten Kolaka Timur",SULAWESI TENGGARA,93572.0,Indonesia,,,,-4.0467655,121.8844351,https://maps.google.com/?cid=0x0:0xaa7d0926c936f611,
home improvement,Komplek perumahan,Fitriani Djufri Home,"XV2J+C5, Tirawuta, Kec. Tirawuta, Kabupaten Kolaka Timur, Sulawesi Tenggara","Kabupaten Kolaka Timur, Sulawesi Tenggara",SULAWESI TENGGARA,,Indonesia,,,,-4.0483777,121.8808679,https://maps.google.com/?cid=0x0:0x9fb1a8fc8ad73ff1,
home improvement,Taman,HOME_JAAT,"VJ6X+386, DUSUN 4, MEKAR SARI, Puubunga, Kec. Baula, Kabupaten Kolaka, Sulawesi Tenggara","Kabupaten Kolaka, Sulawesi Tenggara",SULAWESI TENGGARA,,Indonesia,,,,-4.1398424,121.648274,https://maps.google.com/?cid=0x0:0xfe66695e3c43edb,
home improvement,Perusahaan Konstruksi,CV putra Mekongga,"Simbalai, Kec. Loea, Kabupaten Kolaka Timur, Sulawesi Tenggara 93572","Kec. Loea, Kabupaten Kolaka Timur",SULAWESI TENGGARA,93572.0,Indonesia,,,,-4.0759759,121.8812904,https://maps.google.com/?cid=0x0:0x32e7becd5d995d98,
home improvement,Tujuan Wisata,Matabondu Kec Tirawuta Kabupaten Kolaka Timur,"XWFC+372, Woiha, Kec. Tirawuta, Kabupaten Kolaka, Sulawesi Tenggara 93572","Woiha, Kec. Tirawuta, Kabupaten Kolaka",SULAWESI TENGGARA,93572.0,Indonesia,,,,-4.0273587,121.9206423,https://maps.google.com/?cid=0x0:0xc0444a3fd61f577c,
home improvement,home improvement,TB Vania Berkah,"XV3J+VX, Tirawuta, Kec. Tirawuta, Kabupaten Kolaka, Sulawesi Tenggara 93572","Tirawuta, Kec. Tirawuta, Kabupaten Kolaka",SULAWESI TENGGARA,93572.0,Indonesia,,,,-4.0453421,121.8825199,https://maps.google.com/?cid=0x0:0x9829e6d07e0760ed,
home improvement,home improvement,Toko Lemari Aluminium,"XW97+74P, Woiha, Kec. Tirawuta, Kabupaten Kolaka, Sulawesi Tenggara 93572","Woiha, Kec. Tirawuta, Kabupaten Kolaka",SULAWESI TENGGARA,93572.0,Indonesia,,,,-4.0317964,121.9128185,https://maps.google.com/?cid=0x0:0xc330063f4833466a,
home improvement,home improvement,Sulawesi Tenggara 93575,"Kabupaten Kolaka, Sulawesi Tenggara","Kabupaten Kolaka, Sulawesi Tenggara",SULAWESI TENGGARA,,Indonesia,,,,-3.5101108,121.3998995,https://maps.google.com/?cid=0x0:0xc8b7a5389edae68c,
home improvement,Komplek perumahan,Idhil Home's,"55HG+G4J, Iwoimendaa, Kec. Wolo, Kabupaten Kolaka, Sulawesi Tenggara 93552","Iwoimendaa, Kec. Wolo, Kabupaten Kolaka",SULAWESI TENGGARA,93552.0,Indonesia,,,,-3.8211732,121.1752738,https://maps.google.com/?cid=0x0:0x93ec372a2d55f173,
home improvement,Kompleks Apartemen,Home haikal,"2H67+M5R, Ulunggolaka, Kec. Latambaga, Kabupaten Kolaka, Sulawesi Tenggara","Kabupaten Kolaka, Sulawesi Tenggara",SULAWESI TENGGARA,,Indonesia,,,,-3.9882621,121.5628932,https://maps.google.com/?cid=0x0:0xa120547f5a6f091e,
home improvement,Pengrajin Lemari,Askar almanium,"34GW+7J9, Puday, Kec. Wonggeduku, Kabupaten Konawe, Sulawesi Tenggara 93461","Puday, Kec. Wonggeduku, Kabupaten Konawe",SULAWESI TENGGARA,93461.0,Indonesia, 085298209061,,,-3.9243496,122.1466167,https://maps.google.com/?cid=0x0:0x1a8b22e426ea16d3,
home improvement,Kontraktor Umum,Nurdin Waterproof,"Jl. Pendidikan, RT.03/RW.03, Laloeha, Kec. Tanggetada, Kabupaten Kolaka, Sulawesi Tenggara 93563","RT.03/RW.03, Laloeha, Kec. Tanggetada, Kabupaten Kolaka",SULAWESI TENGGARA,93563.0,Indonesia, 082226563277,,,-4.0621085,121.6177087,https://maps.google.com/?cid=0x0:0x480e8b212d8c90ca,
home improvement,Komplek perumahan,MyHomeDewi,"RJF5+792, Dawi-Dawi, Kec. Pomalaa, Kabupaten Kolaka, Sulawesi Tenggara 93562","Dawi-Dawi, Kec. Pomalaa, Kabupaten Kolaka",SULAWESI TENGGARA,93562.0,Indonesia,,,,-4.1773389,121.6086512,https://maps.google.com/?cid=0x0:0x9f166f59bf03d985,
home improvement,Toko Lemari,MEUBLE ALUMINIUM. M.AULIAN AZIZI,"Lapao-Pao, Kec. Samaturu, Kabupaten Kolaka, Sulawesi Tenggara 93557","Kec. Samaturu, Kabupaten Kolaka",SULAWESI TENGGARA,93557.0,Indonesia, 085237524786,,,-3.9008812,121.3293272,https://maps.google.com/?cid=0x0:0x301a8aacfc4d5a74,
home improvement,Toko Mebel,Windhi Aluminium,"Jl. Konggoasa No.79, Arombu, Kec. Unaaha, Kabupaten Konawe, Sulawesi Tenggara 93415","Arombu, Kec. Unaaha, Kabupaten Konawe",SULAWESI TENGGARA,93415.0,Indonesia, 081341640665,,,-3.869355,122.0488301,https://maps.google.com/?cid=0x0:0x2e0093cae45201af,
home improvement,Toko,Toko 5 Saudara Abuki,"6WVF+GJP, Punggaluku, Kec. Abuki, Kabupaten Konawe, Sulawesi Tenggara 93461","Punggaluku, Kec. Abuki, Kabupaten Konawe",SULAWESI TENGGARA,93461.0,Indonesia, 085241513980,,,-3.7561641,121.9240686,https://maps.google.com/?cid=0x0:0xe3ace9576bfa4487,
home improvement,Perusahaan Konstruksi,CHALOKO KONSTRUKSI BAJA SULTRA,"Jl. Konggoasa No.79, Arombu, Kec. Unaaha, Kabupaten Konawe, Sulawesi Tenggara 93415","Arombu, Kec. Unaaha, Kabupaten Konawe",SULAWESI TENGGARA,93415.0,Indonesia, 085241879994,,,-3.8683379,122.0491239,https://maps.google.com/?cid=0x0:0xe00f515737c7526c,
home improvement,Pusat Perbelanjaan,MR.DIY,"Jl. Jend. Sudirman, Dawi-Dawi, Kec. Pomalaa, Kabupaten Kolaka, Sulawesi Tenggara 93562","Dawi-Dawi, Kec. Pomalaa, Kabupaten Kolaka",SULAWESI TENGGARA,93562.0,Indonesia,,,,-4.1792251,121.6116618,https://maps.google.com/?cid=0x0:0x61f36782905096e7,
home improvement,Grosir Mebel,Sinar sejahtera alumanium,"JWRQ+9XC, Jabal Kubis, Kec. Kodeoha, Kabupaten Kolaka Utara, Sulawesi Tenggara 93957","Jabal Kubis, Kec. Kodeoha, Kabupaten Kolaka Utara",SULAWESI TENGGARA,93957.0,Indonesia,,,,-3.3590624,120.9398956,https://maps.google.com/?cid=0x0:0x28517b739ee1a897,
home improvement,Pusat Perbelanjaan,Toko ANUGERAH BARU,"Jalan poros, Duriaasi, Kec. Wonggeduku, Kabupaten Konawe, Sulawesi Tenggara 93468","Duriaasi, Kec. Wonggeduku, Kabupaten Konawe",SULAWESI TENGGARA,93468.0,Indonesia, 0895379759200,,,-3.9577409,122.1559053,https://maps.google.com/?cid=0x0:0x4a380802e56bcf8b,
home improvement,,Toko Buana Indah,"Puunaaha, Kec. Unaaha, Kabupaten Konawe, Sulawesi Tenggara 93415","Kec. Unaaha, Kabupaten Konawe",SULAWESI TENGGARA,93415.0,Indonesia, 085241673940,,,-3.8579013,122.0421464,https://maps.google.com/?cid=0x0:0xbfdbea1d1e990acd,
home improvement,Toko Bahan Bangunan,Tongauna Jaya,"Jl. Poros Unaaha, Lalonggowuna, Kec. Abuki, Kabupaten Konawe, Sulawesi Tenggara 93461","Lalonggowuna, Kec. Abuki, Kabupaten Konawe",SULAWESI TENGGARA,93461.0,Indonesia, 085246540505,,,-3.8077055,121.990537,https://maps.google.com/?cid=0x0:0xa072c57b542f6991,
home improvement,Pusat Perbelanjaan,AZKO Living Plaza Kendari,"Jl. Jend. Ahmad Yani No.26, Kadia, Kec. Kadia, Kota Kendari, Sulawesi Tenggara 93115","Kadia, Kec. Kadia, Kota Kendari",SULAWESI TENGGARA,93115.0,Indonesia, 082136040069,,,-3.9812995,122.5097193,https://maps.google.com/?cid=0x0:0x85e8fa1a45a928d5,
home improvement,Toko bahan makanan,Home Uphy,"2H67+GVW, Jl. Air Panas, Mangolo, Kec. Latambaga, Kabupaten Kolaka, Sulawesi Tenggara","Kabupaten Kolaka, Sulawesi Tenggara",SULAWESI TENGGARA,,Indonesia,,,,-3.9886327,121.5647121,https://maps.google.com/?cid=0x0:0xf25e168e0a6f7f7,
home improvement,home improvement,CV. Dua Putra,"Jl. Bukit Kolumba, Lalombaa, Kec. Kolaka, Kabupaten Kolaka, Sulawesi Tenggara 93518","Lalombaa, Kec. Kolaka, Kabupaten Kolaka",SULAWESI TENGGARA,93518.0,Indonesia, 081311218330,,,-4.0799121,121.640839,https://maps.google.com/?cid=0x0:0x41e2553a7f86e319,
home improvement,Toko Bahan Bangunan,JAYA STAR BANGUNAN,"X2M8+7WH, Jl. Poros Rate-rate, Kumapo, Kec. Lambuya, Kabupaten Konawe, Sulawesi Tenggara 93464","Jl. Poros Rate-rate, Kumapo, Kec. Lambuya, Kabupaten Konawe",SULAWESI TENGGARA,93464.0,Indonesia,,,,-4.0168114,122.0173439,https://maps.google.com/?cid=0x0:0x718874c1f269f4b7,
home improvement,Kantor Perusahaan,PT. VDNI,"Puuruy, Kec. Bondoala, Kabupaten Konawe, Sulawesi Tenggara 93354","Kec. Bondoala, Kabupaten Konawe",SULAWESI TENGGARA,93354.0,Indonesia, 082330311437,,,-3.9035738,122.4248563,https://maps.google.com/?cid=0x0:0xaa5293739518cd58,
home improvement,,TK. AMALI ELEKTRONIK  FURNITURE,"43HP+RRP, Lalosabila, Kec. Wawotobi, Kabupaten Konawe, Sulawesi Tenggara 93461","Lalosabila, Kec. Wawotobi, Kabupaten Konawe",SULAWESI TENGGARA,93461.0,Indonesia, 081341986777,,,-3.8704039,122.0870638,https://maps.google.com/?cid=0x0:0xade95c2c05ce461d,
home improvement,Komplek perumahan,My Home,"Jl. Poros Kolaka - Pomalaa No.27, Pesouha, Kec. Pomalaa, Kabupaten Kolaka, Sulawesi Tenggara 93562","Pesouha, Kec. Pomalaa, Kabupaten Kolaka",SULAWESI TENGGARA,93562.0,Indonesia,,,,-4.1781797,121.6405377,https://maps.google.com/?cid=0x0:0xac4a4d674a051a9,
home improvement,Warnet,home yudi,"Jl. Pondok Pesantren No.11, Lamokato, Kec. Kolaka, Kabupaten Kolaka, Sulawesi Tenggara","Kabupaten Kolaka, Sulawesi Tenggara",SULAWESI TENGGARA,,Indonesia,,,,-4.0576311,121.5975033,https://maps.google.com/?cid=0x0:0x7236aac52b6d39d5,
home improvement,Bengkel Mobil,Bengkel Payong,"3FQ4+MCQ, Diolo, Kec. Bondoala, Kabupaten Konawe, Sulawesi Tenggara 93354","Diolo, Kec. Bondoala, Kabupaten Konawe",SULAWESI TENGGARA,93354.0,Indonesia,,,,-3.9107896,122.4561148,https://maps.google.com/?cid=0x0:0xcf52346fade2ab98,
home improvement,Rumah Kayu,Family almunium,"Unnamed Road, Raraa, Kec. Ladongi, Kabupaten Kolaka Timur, Sulawesi Tenggara 93573","Raraa, Kec. Ladongi, Kabupaten Kolaka Timur",SULAWESI TENGGARA,93573.0,Indonesia, 085241907859,,,-4.1692422,121.9340711,https://maps.google.com/?cid=0x0:0x3724d6d6ffff5233,
home improvement,Toko Bahan Bangunan,TOKO BAHAN APLIKASI BANGUNAN,"GV5J+36H, Ponggiha, Kec. Lasusua, Kabupaten Kolaka Utara, Sulawesi Tenggara 93914","Ponggiha, Kec. Lasusua, Kabupaten Kolaka Utara",SULAWESI TENGGARA,93914.0,Indonesia, 08114206900,,,-3.4924433,120.8804003,https://maps.google.com/?cid=0x0:0xf23c073d64879223,
home improvement,Toko Mebel,SANDY MEBELER,"3CGV+RHF, Unnamed Road, Pebunooha, Kec. Bondoala, Kabupaten Konawe, Sulawesi Tenggara 93354","Unnamed Road, Pebunooha, Kec. Bondoala, Kabupaten Konawe",SULAWESI TENGGARA,93354.0,Indonesia,,,,-3.9229264,122.443908,https://maps.google.com/?cid=0x0:0x2da31f2839d79332,
home improvement,Toko Mebel,MEBEL 2 PUTRI JAYA ALUMINIUM,"FWHH+F3J, Batuganda Permai, Kec. Lasusua, Kabupaten Kolaka Utara, Sulawesi Tenggara","Kabupaten Kolaka Utara, Sulawesi Tenggara",SULAWESI TENGGARA,,Indonesia, 085394161436,,,-3.5212849,120.9276281,https://maps.google.com/?cid=0x0:0x8de33669e9e897db,
