Category,Real Category,Business Name,Address,City,State,Postal Code,Country,Phone,Email,Website,Latitude,Longitude,Map Link,Details Link
mall,mall,Ladongi,"Ladongi, Kec. Ladongi, Kabupaten Kolaka Timur, Sulawesi Tenggara","Kabupaten Kolaka Timur, Sulawesi Tenggara",SULAWESI TENGGARA,,Indonesia,,,,-4.142409,121.901901,https://maps.google.com/?cid=0x0:0xf976c8583833e88d,
mall,Toko,Toko Nihla,"VW56+X89, Ladongi, Kec. Ladongi, Kabupaten Kolaka, Sulawesi Tenggara 93573","Ladongi, Kec. Ladongi, Kabupaten Kolaka",SULAWESI TENGGARA,93573.0,Indonesia,,,,-4.1400843,121.9108455,https://maps.google.com/?cid=0x0:0x1b6ce410bc2bca49,
mall,Toko,ZIOLA LADONGI,"RXV4+WW7, Welala, Kec. Ladongi, Kabupaten Kolaka, Sulawesi Tenggara 93573","Welala, Kec. Ladongi, Kabupaten Kolaka",SULAWESI TENGGARA,93573.0,Indonesia, 08114059816,,,-4.1552151,121.9573111,https://maps.google.com/?cid=0x0:0x30a9ab7e459b6b82,
mall,Toko Akuarium,Kios Lela,"RWPC+V5V, Unnamed Road, Welala, Kec. Ladongi, Kabupaten Kolaka Timur, Sulawesi Tenggara 93573","Unnamed Road, Welala, Kec. Ladongi, Kabupaten Kolaka Timur",SULAWESI TENGGARA,93573.0,Indonesia, 082292804981,,,-4.1627524,121.9204334,https://maps.google.com/?cid=0x0:0x3bf64fb0707025db,
mall,Pusat Perbelanjaan,Q7 Sticker Ladongi,"VW95+232, Ladongi, Kec. Ladongi, Kabupaten Kolaka Timur, Sulawesi Tenggara 93573","Ladongi, Kec. Ladongi, Kabupaten Kolaka Timur",SULAWESI TENGGARA,93573.0,Indonesia, 085396996699,,,-4.1324755,121.9076529,https://maps.google.com/?cid=0x0:0x3b1aa9cb5c318d99,
mall,Pusat Perbelanjaan,Asyla Cell,"Jl. Poros, Ladongi, Kec. Ladongi, Kabupaten Kolaka Timur, Sulawesi Tenggara 93573","Ladongi, Kec. Ladongi, Kabupaten Kolaka Timur",SULAWESI TENGGARA,93573.0,Indonesia, 081354917575,,,-4.1324739,121.9076862,https://maps.google.com/?cid=0x0:0x4d12a5f52db7ee1f,
mall,Minimarket,INDOMARET LADONGI,"RWW8+M6F, Atula, Kec. Ladongi, Kabupaten Kolaka Timur, Sulawesi Tenggara 93573","Atula, Kec. Ladongi, Kabupaten Kolaka Timur",SULAWESI TENGGARA,93573.0,Indonesia,,,,-4.1533118,121.915543,https://maps.google.com/?cid=0x0:0xa77b8fc8bcf2ee7a,
mall,Toko Pakaian,Mbak milla collection,"RW7M+8M, Gn. Jaya, Kec. Ladongi, Kabupaten Kolaka, Sulawesi Tenggara","Kabupaten Kolaka, Sulawesi Tenggara",SULAWESI TENGGARA,,Indonesia,,,,-4.1866587,121.9341589,https://maps.google.com/?cid=0x0:0x705d549256b36b24,
mall,mall,Melany,"VW94+VJC, Jl. Poros, Ladongi, Kec. Ladongi, Kabupaten Kolaka Timur, Sulawesi Tenggara 93573","Jl. Poros, Ladongi, Kec. Ladongi, Kabupaten Kolaka Timur",SULAWESI TENGGARA,93573.0,Indonesia,,,,-4.1303116,121.9065191,https://maps.google.com/?cid=0x0:0xbcb664587d1742eb,
mall,mall,Suliyanti Shoop,"VW95+WQR, Ladongi, Kec. Ladongi, Kabupaten Kolaka, Sulawesi Tenggara 93573","Ladongi, Kec. Ladongi, Kabupaten Kolaka",SULAWESI TENGGARA,93573.0,Indonesia,,,,-4.1301318,121.9093964,https://maps.google.com/?cid=0x0:0x71a66cab317aee6a,
mall,Pasar,Pasar Welala,"RWV8+RWW, Welala, Kec. Ladongi, Kabupaten Kolaka Timur, Sulawesi Tenggara 93573","Welala, Kec. Ladongi, Kabupaten Kolaka Timur",SULAWESI TENGGARA,93573.0,Indonesia,,,,-4.1553915,121.9173384,https://maps.google.com/?cid=0x0:0xdbd619c8d34941b3,
mall,Pusat Perbelanjaan,ZHOPPENK STICKER LADONGI,"VW94+2X9, Ladongi, Kec. Ladongi, Kabupaten Kolaka, Sulawesi Tenggara 93573","Ladongi, Kec. Ladongi, Kabupaten Kolaka",SULAWESI TENGGARA,93573.0,Indonesia, 085396996699,,,-4.1324624,121.9074858,https://maps.google.com/?cid=0x0:0x3e19a98e0cd9d68c,
mall,mall,Kios Win,"VW84+GQ7, Unnamed Road, Ladongi, Kec. Ladongi, Kabupaten Kolaka Timur, Sulawesi Tenggara 93573","Unnamed Road, Ladongi, Kec. Ladongi, Kabupaten Kolaka Timur",SULAWESI TENGGARA,93573.0,Indonesia,,,,-4.1337671,121.9069613,https://maps.google.com/?cid=0x0:0x299b751d134ffe9d,
mall,mall,Kec. Lalolae,"Kabupaten Kolaka Timur, Sulawesi Tenggara","Kabupaten Kolaka Timur, Sulawesi Tenggara",SULAWESI TENGGARA,,Indonesia,,,,-4.0256541,121.7842582,https://maps.google.com/?cid=0x0:0x16745ece4e90ef2b,
mall,Pusat Perbelanjaan,Pasar Lalolae,"XRP6+GP2, Jl. Poros Kolaka - Rate-rate, Lalosingi, Kec. Lalolae, Kabupaten Kolaka Timur, Sulawesi Tenggara 93572","Jl. Poros Kolaka - Rate-rate, Lalosingi, Kec. Lalolae, Kabupaten Kolaka Timur",SULAWESI TENGGARA,93572.0,Indonesia,,,,-4.0137476,121.8117769,https://maps.google.com/?cid=0x0:0xefd08d099a6e7aed,
mall,Pasar,Lorong pasar,"XQFV+V2, Keisio, Kec. Lalolae, Kabupaten Kolaka Timur, Sulawesi Tenggara","Kabupaten Kolaka Timur, Sulawesi Tenggara",SULAWESI TENGGARA,,Indonesia,,,,-4.024848,121.793528,https://maps.google.com/?cid=0x0:0x9d1678e3f920de87,
mall,Toko Bahan Bangunan,Toko Edo Bangunan,"XQGG+3VF, Lalolae, Kec. Lalolae, Kabupaten Kolaka Timur, Sulawesi Tenggara 93571","Lalolae, Kec. Lalolae, Kabupaten Kolaka Timur",SULAWESI TENGGARA,93571.0,Indonesia, 085242618602,,,-4.0248062,121.7771592,https://maps.google.com/?cid=0x0:0xe3341245faa51d1e,
mall,Toko bahan makanan,Indomaret Lalolae,"Jl. Poros Kolaka - Rate-rate No.Timur, Lalolae, Kec. Lalolae, Kabupaten Kolaka Timur, Sulawesi Tenggara 93571","Lalolae, Kec. Lalolae, Kabupaten Kolaka Timur",SULAWESI TENGGARA,93571.0,Indonesia,,,,-4.0251746,121.7821892,https://maps.google.com/?cid=0x0:0xff057c9aa1a8e497,
mall,Layanan pengembangan usaha,RIZAL TANI,"WRGQ+8G2, Simbalai, Kec. Loea, Kabupaten Kolaka Timur, Sulawesi Tenggara","Kabupaten Kolaka Timur, Sulawesi Tenggara",SULAWESI TENGGARA,,Indonesia,,,,-4.074249,121.8387796,https://maps.google.com/?cid=0x0:0xed7dc07e91794a5f,
mall,Lapangan Football,Lapangan Pasmal LJE,"2PQH+264, Woitombo, Mowewe, Kabupaten Kolaka, Sulawesi Tenggara 93518","Woitombo, Mowewe, Kabupaten Kolaka",SULAWESI TENGGARA,93518.0,Indonesia, 082290812044,,,-3.9624959,121.7280858,https://maps.google.com/?cid=0x0:0x5fdc28ccbd977926,
mall,Pusat Perbelanjaan,ILHAM JAYA PHONE,"WV2V+XFR, Jl. Poros, Lamoare, Kec. Loea, Kabupaten Kolaka Timur, Sulawesi Tenggara 93572","Jl. Poros, Lamoare, Kec. Loea, Kabupaten Kolaka Timur",SULAWESI TENGGARA,93572.0,Indonesia, 082349845679,,,-4.0975072,121.8936354,https://maps.google.com/?cid=0x0:0xba87bf42a19951d0,
mall,Toko Akuarium,Kios Lela,"RWPC+V5V, Unnamed Road, Welala, Kec. Ladongi, Kabupaten Kolaka Timur, Sulawesi Tenggara 93573","Unnamed Road, Welala, Kec. Ladongi, Kabupaten Kolaka Timur",SULAWESI TENGGARA,93573.0,Indonesia, 082292804981,,,-4.1627524,121.9204334,https://maps.google.com/?cid=0x0:0x3bf64fb0707025db,
mall,Kantor Keselamatan Publik,Polsek Lalolae,"XQFH+RHV, Lalolae, Kec. Lalolae, Kabupaten Kolaka, Sulawesi Tenggara 93571","Lalolae, Kec. Lalolae, Kabupaten Kolaka",SULAWESI TENGGARA,93571.0,Indonesia, 0422123456,,,-4.0253945,121.778922,https://maps.google.com/?cid=0x0:0x30e93e04c8052835,
mall,Toko bahan makanan,Fadli Cell,"Watupute, Mowewe, Kabupaten Kolaka, Sulawesi Tenggara 93519","Mowewe, Kabupaten Kolaka",SULAWESI TENGGARA,93519.0,Indonesia, 085255502321,,,-3.9881456,121.746738,https://maps.google.com/?cid=0x0:0x840f55b2ff2d3706,
mall,Toko Kosmetik,Nining all shop Lalolae,"XQCM+W6F, Lingk 3, Lalolae, Kec. Lalolae, kab.koltim, Sulawesi Tenggara 93572","Lingk 3, Lalolae, Kec. Lalolae, kab.koltim",SULAWESI TENGGARA,93572.0,Indonesia, 085323228190,,,-4.0276913,121.7830336,https://maps.google.com/?cid=0x0:0x18930d3bb5829d4e,
mall,Pusat Perbelanjaan,Pusat belanja,"Jl. Pramuka No.2, Lamokato, Kec. Kolaka, Kabupaten Kolaka, Sulawesi Tenggara 93561","Lamokato, Kec. Kolaka, Kabupaten Kolaka",SULAWESI TENGGARA,93561.0,Indonesia, 085222217891,,,-4.0574651,121.606125,https://maps.google.com/?cid=0x0:0xf90275aed231ba01,
mall,mall,Sulawesi Tenggara 93573,"Kabupaten Kolaka, Sulawesi Tenggara","Kabupaten Kolaka, Sulawesi Tenggara",SULAWESI TENGGARA,,Indonesia,,,,-4.2654072,121.856261,https://maps.google.com/?cid=0x0:0xeafafa5d78b5c179,
mall,Bank,Bank BRI UNIT Lambadia,"Jl. Gatot Subroto No.43, Penanggo Jaya, Kec. Lambandia, Kabupaten Kolaka Timur, Sulawesi Tenggara 93958","Penanggo Jaya, Kec. Lambandia, Kabupaten Kolaka Timur",SULAWESI TENGGARA,93958.0,Indonesia, 1500017,,,-4.3044607,121.9295846,https://maps.google.com/?cid=0x0:0xb0de6fe9f4b28a9,
mall,mall,pasar sentral lambandia,"MWVH+835, Penanggo Jaya, Kec. Lambandia, Kabupaten Kolaka, Sulawesi Tenggara 93573","Penanggo Jaya, Kec. Lambandia, Kabupaten Kolaka",SULAWESI TENGGARA,93573.0,Indonesia,,,,-4.3067374,121.9277243,https://maps.google.com/?cid=0x0:0x920a2031e3af0a13,
mall,Toko Ponsel,ANDRI CELL,"MWRJ+FQ4, Jl. Poros Lambandia, Penanggo Jaya, Kec. Lambandia, Kabupaten Kolaka Timur, Sulawesi Tenggara","Kabupaten Kolaka Timur, Sulawesi Tenggara",SULAWESI TENGGARA,,Indonesia,,,,-4.308851,121.9319556,https://maps.google.com/?cid=0x0:0x6ed325dd2e013b88,
mall,Toko bahan makanan,Indomaret Lambandia Koltim,"MWVH+RR9, Unnamed Road, Penanggo Jaya, Kec. Lambandia, Kabupaten Kolaka Timur, Sulawesi Tenggara 93573","Unnamed Road, Penanggo Jaya, Kec. Lambandia, Kabupaten Kolaka Timur",SULAWESI TENGGARA,93573.0,Indonesia,,,,-4.3054603,121.9295958,https://maps.google.com/?cid=0x0:0xda7f3fa9c7a5b309,
mall,Tempat Ziarah,ONEMANU LAMBANDIA,"JWWR+97, Mokupa, Kec. Lambandia, Kabupaten Kolaka, Sulawesi Tenggara 93573","Mokupa, Kec. Lambandia, Kabupaten Kolaka",SULAWESI TENGGARA,93573.0,Indonesia,,,,-4.354497,121.94087,https://maps.google.com/?cid=0x0:0xcc30ec31472955ae,
mall,Tempat Fitness,lambandia,"QWQR+3GP, Polenga Jaya, Kec. Poli-Polia, Kabupaten Kolaka Timur, Sulawesi Tenggara 93573","Polenga Jaya, Kec. Poli-Polia, Kabupaten Kolaka Timur",SULAWESI TENGGARA,93573.0,Indonesia,,,,-4.2122839,121.9413422,https://maps.google.com/?cid=0x0:0xa105e9d940d4d489,
mall,mall,Kec. Loea,"Kabupaten Kolaka Timur, Sulawesi Tenggara","Kabupaten Kolaka Timur, Sulawesi Tenggara",SULAWESI TENGGARA,,Indonesia,,,,-4.0866248,121.8885897,https://maps.google.com/?cid=0x0:0x3416e72c1ead93b6,
mall,Pusat Perbelanjaan,megatama cellular,"WV5R+H9H, Lamoare, Kec. Loea, Kabupaten Kolaka, Sulawesi Tenggara 93572","Lamoare, Kec. Loea, Kabupaten Kolaka",SULAWESI TENGGARA,93572.0,Indonesia, 085394664466,,,-4.091053,121.890974,https://maps.google.com/?cid=0x0:0x5359a9c8a9851f43,
mall,Pusat Perbelanjaan,Toko Planet Kreasi,"WV2V+RHQ, Jl. Poros, Lamoare, Kec. Loea, Kabupaten Kolaka Timur, Sulawesi Tenggara 93572","Jl. Poros, Lamoare, Kec. Loea, Kabupaten Kolaka Timur",SULAWESI TENGGARA,93572.0,Indonesia, 085241529995,,,-4.0979035,121.8939714,https://maps.google.com/?cid=0x0:0xe0610041ffac371b,
mall,Pusat Perbelanjaan,Pasar Lalolae,"XRP6+GP2, Jl. Poros Kolaka - Rate-rate, Lalosingi, Kec. Lalolae, Kabupaten Kolaka Timur, Sulawesi Tenggara 93572","Jl. Poros Kolaka - Rate-rate, Lalosingi, Kec. Lalolae, Kabupaten Kolaka Timur",SULAWESI TENGGARA,93572.0,Indonesia,,,,-4.0137476,121.8117769,https://maps.google.com/?cid=0x0:0xefd08d099a6e7aed,
mall,Toko,Toko felia,"Lalowosula, Kec. Ladongi, Kabupaten Kolaka Timur, Sulawesi Tenggara 93573","Kec. Ladongi, Kabupaten Kolaka Timur",SULAWESI TENGGARA,93573.0,Indonesia, 085255208195,,,-4.1168278,121.9028205,https://maps.google.com/?cid=0x0:0xd7df0ebb3534297f,
mall,Kios,Foto Copy EGA,"Tasahea, Kec. Tirawuta, Kabupaten Kolaka, Sulawesi Tenggara 93572","Kec. Tirawuta, Kabupaten Kolaka",SULAWESI TENGGARA,93572.0,Indonesia, 081343752093,,,-4.0646352,121.8839683,https://maps.google.com/?cid=0x0:0x2e58bec824ecb0e9,
mall,Toko,Toko Zulham Store,"VWXC+GM8, Lamoare, Kec. Loea, Kabupaten Kolaka Timur, Sulawesi Tenggara","Kabupaten Kolaka Timur, Sulawesi Tenggara",SULAWESI TENGGARA,,Indonesia,,,,-4.1012035,121.9217108,https://maps.google.com/?cid=0x0:0x976cb23dba99f772,
mall,Layanan pengembangan usaha,RIZAL TANI,"WRGQ+8G2, Simbalai, Kec. Loea, Kabupaten Kolaka Timur, Sulawesi Tenggara","Kabupaten Kolaka Timur, Sulawesi Tenggara",SULAWESI TENGGARA,,Indonesia,,,,-4.074249,121.8387796,https://maps.google.com/?cid=0x0:0xed7dc07e91794a5f,
mall,Dealer Toyota,Ruko Kalla Toyota Dan Ziola Phone,"RWW8+56X, Atula, Kec. Ladongi, Kabupaten Kolaka, Sulawesi Tenggara 93573","Atula, Kec. Ladongi, Kabupaten Kolaka",SULAWESI TENGGARA,93573.0,Indonesia,,,,-4.1545179,121.9155942,https://maps.google.com/?cid=0x0:0x81c68296db4a8193,
mall,Pusat Perbelanjaan,HERAWATI SWALAYAN,"VW27+HV6, Atula, Kec. Ladongi, Kabupaten Kolaka, Sulawesi Tenggara 93573","Atula, Kec. Ladongi, Kabupaten Kolaka",SULAWESI TENGGARA,93573.0,Indonesia, 082339400115,,,-4.1497424,121.915069,https://maps.google.com/?cid=0x0:0xd8ca533d2abc23d2,
mall,Pusat Perbelanjaan,Toko Ananda Koltim,"VVRX+RFX, Jl. Poros, Putemata, Kec. Ladongi, Kabupaten Kolaka Timur, Sulawesi Tenggara 93573","Jl. Poros, Putemata, Kec. Ladongi, Kabupaten Kolaka Timur",SULAWESI TENGGARA,93573.0,Indonesia, 085334886279,,,-4.1078884,121.898739,https://maps.google.com/?cid=0x0:0xa4ec3f5aed51e256,
mall,Toko,Toko Nihla,"VW56+X89, Ladongi, Kec. Ladongi, Kabupaten Kolaka, Sulawesi Tenggara 93573","Ladongi, Kec. Ladongi, Kabupaten Kolaka",SULAWESI TENGGARA,93573.0,Indonesia,,,,-4.1400843,121.9108455,https://maps.google.com/?cid=0x0:0x1b6ce410bc2bca49,
mall,Lapangan Football,Lapangan Pasmal LJE,"2PQH+264, Woitombo, Mowewe, Kabupaten Kolaka, Sulawesi Tenggara 93518","Woitombo, Mowewe, Kabupaten Kolaka",SULAWESI TENGGARA,93518.0,Indonesia, 082290812044,,,-3.9624959,121.7280858,https://maps.google.com/?cid=0x0:0x5fdc28ccbd977926,
mall,Pusat Perbelanjaan,Khalifcell,"Depan Tugu pahlawan No.45, Rate-Rate, Kec. Tirawuta, Kabupaten Kolaka Timur, Sulawesi Tenggara 93572","Rate-Rate, Kec. Tirawuta, Kabupaten Kolaka Timur",SULAWESI TENGGARA,93572.0,Indonesia, 085240145131,,,-4.0461077,121.8929798,https://maps.google.com/?cid=0x0:0xa650f7a23a835d00,
mall,Pusat Perbelanjaan,megatama cell,"XV2R+72C, Rate-Rate, Kec. Tirawuta, Kabupaten Kolaka Timur, Sulawesi Tenggara 93572","Rate-Rate, Kec. Tirawuta, Kabupaten Kolaka Timur",SULAWESI TENGGARA,93572.0,Indonesia, 082293267875,,,-4.0493188,121.8900196,https://maps.google.com/?cid=0x0:0x97278df39252d552,
mall,,Toko Tasya,"WVVP+G23, Jl. Blk. B, Tasahea, Kec. Tirawuta, Kabupaten Kolaka Timur, Sulawesi Tenggara 93572","Jl. Blk. B, Tasahea, Kec. Tirawuta, Kabupaten Kolaka Timur",SULAWESI TENGGARA,93572.0,Indonesia, 085241878308,,,-4.0562264,121.8850349,https://maps.google.com/?cid=0x0:0x7ff06985a00126eb,
mall,Pasar,Lorong pasar,"XQFV+V2, Keisio, Kec. Lalolae, Kabupaten Kolaka Timur, Sulawesi Tenggara","Kabupaten Kolaka Timur, Sulawesi Tenggara",SULAWESI TENGGARA,,Indonesia,,,,-4.024848,121.793528,https://maps.google.com/?cid=0x0:0x9d1678e3f920de87,
mall,Pusat Perbelanjaan,TOKO HERAWATI JAYA,"Atula, Kec. Ladongi, Kabupaten Kolaka, Sulawesi Tenggara 93573","Kec. Ladongi, Kabupaten Kolaka",SULAWESI TENGGARA,93573.0,Indonesia, 085244243709,,,-4.1485994,121.9146436,https://maps.google.com/?cid=0x0:0x2f99152c4230cee2,
mall,Toko Akuarium,Kios Lela,"RWPC+V5V, Unnamed Road, Welala, Kec. Ladongi, Kabupaten Kolaka Timur, Sulawesi Tenggara 93573","Unnamed Road, Welala, Kec. Ladongi, Kabupaten Kolaka Timur",SULAWESI TENGGARA,93573.0,Indonesia, 082292804981,,,-4.1627524,121.9204334,https://maps.google.com/?cid=0x0:0x3bf64fb0707025db,
mall,Toko Suku Cadang Mobil,Toko Sparepart Combine MOPAN SP KOLAKA,"Rate-Rate, Kec. Tirawuta, Kabupaten Kolaka, Sulawesi Tenggara 93572","Kec. Tirawuta, Kabupaten Kolaka",SULAWESI TENGGARA,93572.0,Indonesia, 081284855677,,,-4.0495511,121.8901787,https://maps.google.com/?cid=0x0:0xaa44536c737a357e,
mall,Pusat Perbelanjaan,Toko Vhiko Foto,"XV3R+HV3, Rate-Rate, Kec. Tirawuta, Kabupaten Kolaka, Sulawesi Tenggara 93572","Rate-Rate, Kec. Tirawuta, Kabupaten Kolaka",SULAWESI TENGGARA,93572.0,Indonesia, 085394441777,,,-4.0461049,121.8921718,https://maps.google.com/?cid=0x0:0xab202083514b7bad,
mall,Pusat Perbelanjaan,La Loe,"Perumahan Grand Mutiara Gading Blok F1 No.36 Ds, Telajung, Cikarang Barat, Bekasi Regency, West Java 17530","Telajung, Cikarang Barat, Bekasi Regency",SULAWESI TENGGARA,17530.0,Indonesia, 081519580271,,,-6.329491,107.059522,https://maps.google.com/?cid=0x0:0x41015a77a5a8783f,
mall,Pusat Perbelanjaan,LTwo Gallery Official,"HR2W+972, Jl. Kp. Padurenan, Pabuaran, Kec. Cibinong, Kabupaten Bogor, Jawa Barat 16916","Jl. Kp. Padurenan, Pabuaran, Kec. Cibinong, Kabupaten Bogor",SULAWESI TENGGARA,16916.0,Indonesia, 081281020831,,,-6.4491238,106.8456365,https://maps.google.com/?cid=0x0:0x501d6dbff97b97bb,
mall,Toko Kelontong Asia,TOKO LIA,"Jl. Menvo 7 No.7 4, RT.7/RW.10, Tegal Alur, Kec. Kalideres, Kota Jakarta Barat, Daerah Khusus Ibukota Jakarta 11820","RT.7/RW.10, Tegal Alur, Kec. Kalideres, Kota Jakarta Barat",SULAWESI TENGGARA,11820.0,Indonesia, 085640966373,,,-6.1255768,106.7183822,https://maps.google.com/?cid=0x0:0x80a83c9a6579c2ff,
mall,Pusat Perbelanjaan,Lacoco jakarta,"Jl. Kelapa Molek VII, RT.blog O2/RW.no. 14, Klp. Gading Tim., 14240, RT.16/RW.2, Klp. Gading Tim., Kec. Klp. Gading, Jkt Utara, Daerah Khusus Ibukota Jakarta 14240","Klp. Gading Tim.,",SULAWESI TENGGARA,14240.0,Indonesia, 082110802040,,,-6.1703051,106.9023656,https://maps.google.com/?cid=0x0:0xe92c1c108fcbd046,
mall,Toserba,Lamode Aloha Store,"Jl. Komp. Perdagangan No.63 Blok G2, RT.9/RW.7, Telaga Asih, Kec. Cikarang Bar., Kabupaten Bekasi, Jawa Barat 17530","RT.9/RW.7, Telaga Asih, Kec. Cikarang Bar., Kabupaten Bekasi",SULAWESI TENGGARA,17530.0,Indonesia, 085777018069,,,-6.2637313,107.1036068,https://maps.google.com/?cid=0x0:0x26111c6bb6b86d4b,
mall,Toko,Le.o Store,"WQQX+V23, Jl. Jelebud, Bojong Jengkol, Kec. Jampang Tengah, Kabupaten Sukabumi, Jawa Barat 43171","Jl. Jelebud, Bojong Jengkol, Kec. Jampang Tengah, Kabupaten Sukabumi",SULAWESI TENGGARA,43171.0,Indonesia, 085871508227,,,-7.06037,106.797549,https://maps.google.com/?cid=0x0:0xb1621fbf49dc1fdf,
mall,mall,Loraeta Toko,"Pusat Grosir Blok A Tanah Abang Lantai Semi Lower Ground Los D No. 52, JL Fachrudin, No. 1, Tanah Abang, 10250, Kp. Bali, Jakarta Pusat, Kota Jakarta Pusat, Daerah Khusus Ibukota Jakarta 10250","Tanah Abang,",SULAWESI TENGGARA,10250.0,Indonesia, 02123570001,,,-6.1876195,106.8152656,https://maps.google.com/?cid=0x0:0x148a02e4e3bdac0a,
mall,Pusat Perbelanjaan,LL,"Jl. Al-Ikhwan No.39 B, RT.3/RW.13, Pasir Gn. Sel., Kec. Cimanggis, Kota Depok, Jawa Barat 16451","RT.3/RW.13, Pasir Gn. Sel., Kec. Cimanggis, Kota Depok",SULAWESI TENGGARA,16451.0,Indonesia, 081282027001,,,-6.350595,106.8437912,https://maps.google.com/?cid=0x0:0x48a5bbd2df7cc089,
mall,mall,Mowewe,"Kabupaten Kolaka Timur, Sulawesi Tenggara","Kabupaten Kolaka Timur, Sulawesi Tenggara",SULAWESI TENGGARA,,Indonesia,,,,-3.962898,121.7081454,https://maps.google.com/?cid=0x0:0xdd1351df24135eeb,
mall,Toko,Pasar Mowewe,"2PPM+XP2, Inebenggi, Mowewe, Kabupaten Kolaka, Sulawesi Tenggara 93518","Inebenggi, Mowewe, Kabupaten Kolaka",SULAWESI TENGGARA,93518.0,Indonesia,,,,-3.9626166,121.7342765,https://maps.google.com/?cid=0x0:0x3f2b3eb9a4738ad3,
mall,Toko,Mowewe multishop,"2PPM+J5M, Woitombo, Mowewe, Kabupaten Kolaka Timur, Sulawesi Tenggara 93518","Woitombo, Mowewe, Kabupaten Kolaka Timur",SULAWESI TENGGARA,93518.0,Indonesia,,,,-3.962892,121.733323,https://maps.google.com/?cid=0x0:0x39d840862df80f4b,
mall,Pusat Hiburan,Taman Rekreasi Puncak Mowewe,"Jl. Poros Kolaka - Kendari Km. 30 Mowewe, Horodopi, Mowewe, East Kolaka Regency, South East Sulawesi 93561","Horodopi, Mowewe, East Kolaka Regency",SULAWESI TENGGARA,93561.0,Indonesia, 081342040600,,,-4.004827,121.7566339,https://maps.google.com/?cid=0x0:0xce206d46f2556979,
mall,Minimarket,Indomaret Mowewe Kolaka Timur,"2PGM+R27, Jl. Abd. Majid, Inebenggi, Mowewe, Kabupaten Kolaka Timur, Sulawesi Tenggara 93518","Jl. Abd. Majid, Inebenggi, Mowewe, Kabupaten Kolaka Timur",SULAWESI TENGGARA,93518.0,Indonesia,,,,-3.9729725,121.732542,https://maps.google.com/?cid=0x0:0xf3cc5b9478aa06b5,
mall,Toko,Pasar Raya Mekongga Kolaka,"Pasar Raya Mekongga Kolaka No.Blok A, Kabupaten Kolaka, Sulawesi Tenggara 93516",Kabupaten Kolaka,SULAWESI TENGGARA,93516.0,Indonesia,,,,-4.0607109,121.5975059,https://maps.google.com/?cid=0x0:0x57733dc983307d2c,
mall,Toko bahan makanan,Fadli Cell,"Watupute, Mowewe, Kabupaten Kolaka, Sulawesi Tenggara 93519","Mowewe, Kabupaten Kolaka",SULAWESI TENGGARA,93519.0,Indonesia, 085255502321,,,-3.9881456,121.746738,https://maps.google.com/?cid=0x0:0x840f55b2ff2d3706,
mall,mall,Kios Aan,"2PVM+WG7, Woitombo, Mowewe, Kabupaten Kolaka Timur, Sulawesi Tenggara","Kabupaten Kolaka Timur, Sulawesi Tenggara",SULAWESI TENGGARA,,Indonesia,,,,-3.9552018,121.7337949,https://maps.google.com/?cid=0x0:0xc1bb81b60bd54103,
mall,mall,Kec. Poli-Polia,"Kabupaten Kolaka Timur, Sulawesi Tenggara","Kabupaten Kolaka Timur, Sulawesi Tenggara",SULAWESI TENGGARA,,Indonesia,,,,-4.207678,121.9022668,https://maps.google.com/?cid=0x0:0x15d99ec13666ac9c,
mall,mall,Sulawesi Tenggara 93573,"Kabupaten Kolaka, Sulawesi Tenggara","Kabupaten Kolaka, Sulawesi Tenggara",SULAWESI TENGGARA,,Indonesia,,,,-4.2654072,121.856261,https://maps.google.com/?cid=0x0:0xeafafa5d78b5c179,
mall,Pasar Petani,PASAR TAOSU,"QWV3+MGW, Taosu, Kec. Poli-Polia, Kabupaten Kolaka, Sulawesi Tenggara 93573","Taosu, Kec. Poli-Polia, Kabupaten Kolaka",SULAWESI TENGGARA,93573.0,Indonesia,,,,-4.2057601,121.9038239,https://maps.google.com/?cid=0x0:0xbfe64ad479ada12a,
mall,mall,H. Laide,"QVR3+XX8, Andowengga, Kec. Poli-Polia, Kabupaten Kolaka, Sulawesi Tenggara 93573","Andowengga, Kec. Poli-Polia, Kabupaten Kolaka",SULAWESI TENGGARA,93573.0,Indonesia, 085241644288,,,-4.2075874,121.8549388,https://maps.google.com/?cid=0x0:0x1953a2b90172e17b,
mall,mall,Poli-Polia,"Kec. Poli-Polia, Kabupaten Kolaka Timur, Sulawesi Tenggara","Kabupaten Kolaka Timur, Sulawesi Tenggara",SULAWESI TENGGARA,,Indonesia,,,,-4.1865835,121.8875679,https://maps.google.com/?cid=0x0:0xe57e9b1d5ca223cc,
mall,Toko,UD AKBAR,"QWV3+MGW, Taosu, Kec. Poli-Polia, Kabupaten Kolaka, Sulawesi Tenggara 93573","Taosu, Kec. Poli-Polia, Kabupaten Kolaka",SULAWESI TENGGARA,93573.0,Indonesia,,,,-4.205878,121.9039587,https://maps.google.com/?cid=0x0:0x1558faaf3d1eef69,
mall,mall,Sulawesi Tenggara 93571,"Kabupaten Kolaka, Sulawesi Tenggara","Kabupaten Kolaka, Sulawesi Tenggara",SULAWESI TENGGARA,,Indonesia,,,,-3.8424079,121.856261,https://maps.google.com/?cid=0x0:0x1bb5ec53427fe729,
mall,Pasar,Pasar Rakyat Tinondo,"2RQ7+QF5, Jln. Laasati, Lorong pasar, Tinondo, Kec. Tinondo, Kabupaten Kolaka Timur, Sulawesi Tenggara 93571","Jln. Laasati, Lorong pasar, Tinondo, Kec. Tinondo, Kabupaten Kolaka Timur",SULAWESI TENGGARA,93571.0,Indonesia,,,,-3.9603503,121.8141636,https://maps.google.com/?cid=0x0:0x941f58f1c415340f,
mall,Pusat Perbelanjaan,Pasar Lalolae,"XRP6+GP2, Jl. Poros Kolaka - Rate-rate, Lalosingi, Kec. Lalolae, Kabupaten Kolaka Timur, Sulawesi Tenggara 93572","Jl. Poros Kolaka - Rate-rate, Lalosingi, Kec. Lalolae, Kabupaten Kolaka Timur",SULAWESI TENGGARA,93572.0,Indonesia,,,,-4.0137476,121.8117769,https://maps.google.com/?cid=0x0:0xefd08d099a6e7aed,
mall,Pasar,Lorong pasar,"XQFV+V2, Keisio, Kec. Lalolae, Kabupaten Kolaka Timur, Sulawesi Tenggara","Kabupaten Kolaka Timur, Sulawesi Tenggara",SULAWESI TENGGARA,,Indonesia,,,,-4.024848,121.793528,https://maps.google.com/?cid=0x0:0x9d1678e3f920de87,
mall,Lapangan Football,Lapangan Pasmal LJE,"2PQH+264, Woitombo, Mowewe, Kabupaten Kolaka, Sulawesi Tenggara 93518","Woitombo, Mowewe, Kabupaten Kolaka",SULAWESI TENGGARA,93518.0,Indonesia, 082290812044,,,-3.9624959,121.7280858,https://maps.google.com/?cid=0x0:0x5fdc28ccbd977926,
mall,Pusat Perbelanjaan,TANSHOP17,"VMMP+3WR, Unnamed Road, Tikonu, Kec. Wundulako, Kabupaten Kolaka, Sulawesi Tenggara 93561","Unnamed Road, Tikonu, Kec. Wundulako, Kabupaten Kolaka",SULAWESI TENGGARA,93561.0,Indonesia, 085756010272,,,-4.1172721,121.6872636,https://maps.google.com/?cid=0x0:0xdbac74ba0a355859,
mall,Toko,Pasar Raya Mekongga Kolaka,"Pasar Raya Mekongga Kolaka No.Blok A, Kabupaten Kolaka, Sulawesi Tenggara 93516",Kabupaten Kolaka,SULAWESI TENGGARA,93516.0,Indonesia,,,,-4.0607109,121.5975059,https://maps.google.com/?cid=0x0:0x57733dc983307d2c,
mall,Dealer Toyota,Ruko Kalla Toyota Dan Ziola Phone,"RWW8+56X, Atula, Kec. Ladongi, Kabupaten Kolaka, Sulawesi Tenggara 93573","Atula, Kec. Ladongi, Kabupaten Kolaka",SULAWESI TENGGARA,93573.0,Indonesia,,,,-4.1545179,121.9155942,https://maps.google.com/?cid=0x0:0x81c68296db4a8193,
mall,Pusat Perbelanjaan,GMT KOLAKA,"Jl. Pramuka No.7CLamokato, Lamokato, Kec. Kolaka, Kabupaten Kolaka, Sulawesi Tenggara 93561","Lamokato, Kec. Kolaka, Kabupaten Kolaka",SULAWESI TENGGARA,93561.0,Indonesia, 082347426400,,,-4.0579775,121.6067618,https://maps.google.com/?cid=0x0:0x8461af370d696f58,
mall,Toko,Toko Nihla,"VW56+X89, Ladongi, Kec. Ladongi, Kabupaten Kolaka, Sulawesi Tenggara 93573","Ladongi, Kec. Ladongi, Kabupaten Kolaka",SULAWESI TENGGARA,93573.0,Indonesia,,,,-4.1400843,121.9108455,https://maps.google.com/?cid=0x0:0x1b6ce410bc2bca49,
mall,Toko,Toko Senyum 5000,"WJR4+RP4, Jl. Pramuka, Laloeha, Kec. Kolaka, Kabupaten Kolaka, Sulawesi Tenggara 93561","Jl. Pramuka, Laloeha, Kec. Kolaka, Kabupaten Kolaka",SULAWESI TENGGARA,93561.0,Indonesia,,,,-4.0579844,121.6068304,https://maps.google.com/?cid=0x0:0xe4142a85c6615b9d,
mall,Pusat Perbelanjaan,Toko Ananda Koltim,"VVRX+RFX, Jl. Poros, Putemata, Kec. Ladongi, Kabupaten Kolaka Timur, Sulawesi Tenggara 93573","Jl. Poros, Putemata, Kec. Ladongi, Kabupaten Kolaka Timur",SULAWESI TENGGARA,93573.0,Indonesia, 085334886279,,,-4.1078884,121.898739,https://maps.google.com/?cid=0x0:0xa4ec3f5aed51e256,
mall,Toko Perlengkapan Rumah,Mr Diy pemuda kolaka,"Jl. Pemuda, Laloeha, Kec. Kolaka, Kabupaten Kolaka, Sulawesi Tenggara 93561","Laloeha, Kec. Kolaka, Kabupaten Kolaka",SULAWESI TENGGARA,93561.0,Indonesia,,,,-4.0575576,121.6072971,https://maps.google.com/?cid=0x0:0xf2a7ad1f6379051a,
mall,Kios,Toko Sahabat Raya,"XQ8M+QM6, Lalolae, Kec. Lalolae, Kabupaten Kolaka, Sulawesi Tenggara 93572","Lalolae, Kec. Lalolae, Kabupaten Kolaka",SULAWESI TENGGARA,93572.0,Indonesia, 082290068809,,,-4.0330774,121.7841547,https://maps.google.com/?cid=0x0:0xe22893c108a85ab0,
mall,Pusat Perbelanjaan,HERAWATI SWALAYAN,"VW27+HV6, Atula, Kec. Ladongi, Kabupaten Kolaka, Sulawesi Tenggara 93573","Atula, Kec. Ladongi, Kabupaten Kolaka",SULAWESI TENGGARA,93573.0,Indonesia, 082339400115,,,-4.1497424,121.915069,https://maps.google.com/?cid=0x0:0xd8ca533d2abc23d2,
mall,Pusat Perbelanjaan,TOKO HERAWATI JAYA,"Atula, Kec. Ladongi, Kabupaten Kolaka, Sulawesi Tenggara 93573","Kec. Ladongi, Kabupaten Kolaka",SULAWESI TENGGARA,93573.0,Indonesia, 085244243709,,,-4.1485994,121.9146436,https://maps.google.com/?cid=0x0:0x2f99152c4230cee2,
mall,Pusat Perbelanjaan,Pusat belanja,"Jl. Pramuka No.2, Lamokato, Kec. Kolaka, Kabupaten Kolaka, Sulawesi Tenggara 93561","Lamokato, Kec. Kolaka, Kabupaten Kolaka",SULAWESI TENGGARA,93561.0,Indonesia, 085222217891,,,-4.0574651,121.606125,https://maps.google.com/?cid=0x0:0xf90275aed231ba01,
mall,,BN MART (MINI MARKET),"WJFH+JVW, Balandete, Kec. Kolaka, Kabupaten Kolaka, Sulawesi Tenggara 93561","Balandete, Kec. Kolaka, Kabupaten Kolaka",SULAWESI TENGGARA,93561.0,Indonesia, 085241934895,,,-4.0758977,121.6297012,https://maps.google.com/?cid=0x0:0xdaa8baa927545a4d,
mall,Toko bahan makanan,Fadli Cell,"Watupute, Mowewe, Kabupaten Kolaka, Sulawesi Tenggara 93519","Mowewe, Kabupaten Kolaka",SULAWESI TENGGARA,93519.0,Indonesia, 085255502321,,,-3.9881456,121.746738,https://maps.google.com/?cid=0x0:0x840f55b2ff2d3706,
mall,Toko Mainan,toko istana mainan,"VW84+CXW, Jl. Poros, Ladongi, Kec. Ladongi, Kabupaten Kolaka Timur, Sulawesi Tenggara 93573","Jl. Poros, Ladongi, Kec. Ladongi, Kabupaten Kolaka Timur",SULAWESI TENGGARA,93573.0,Indonesia,,,,-4.133878,121.907441,https://maps.google.com/?cid=0x0:0x43d413ad684473b8,
mall,Pusat Perbelanjaan,PASAR RAKYAT KEISIO,"XQFR+3WX, Keisio, Kec. Lalolae, Kabupaten Kolaka Timur, Sulawesi Tenggara","Kabupaten Kolaka Timur, Sulawesi Tenggara",SULAWESI TENGGARA,,Indonesia,,,,-4.0272581,121.7923576,https://maps.google.com/?cid=0x0:0xffa073f5dbfae58b,
mall,mall,Sulawesi Tenggara 93572,Sulawesi Tenggara,Sulawesi Tenggara,SULAWESI TENGGARA,,Indonesia,,,,-4.0494144,121.947311,https://maps.google.com/?cid=0x0:0xfdc4defab63a0262,
mall,Pusat Perbelanjaan,Toko Vhiko Foto,"XV3R+HV3, Rate-Rate, Kec. Tirawuta, Kabupaten Kolaka, Sulawesi Tenggara 93572","Rate-Rate, Kec. Tirawuta, Kabupaten Kolaka",SULAWESI TENGGARA,93572.0,Indonesia, 085394441777,,,-4.0461049,121.8921718,https://maps.google.com/?cid=0x0:0xab202083514b7bad,
mall,Pusat Perbelanjaan,Khalifcell,"Depan Tugu pahlawan No.45, Rate-Rate, Kec. Tirawuta, Kabupaten Kolaka Timur, Sulawesi Tenggara 93572","Rate-Rate, Kec. Tirawuta, Kabupaten Kolaka Timur",SULAWESI TENGGARA,93572.0,Indonesia, 085240145131,,,-4.0461077,121.8929798,https://maps.google.com/?cid=0x0:0xa650f7a23a835d00,
mall,Kios,Foto Copy EGA,"Tasahea, Kec. Tirawuta, Kabupaten Kolaka, Sulawesi Tenggara 93572","Kec. Tirawuta, Kabupaten Kolaka",SULAWESI TENGGARA,93572.0,Indonesia, 081343752093,,,-4.0646352,121.8839683,https://maps.google.com/?cid=0x0:0x2e58bec824ecb0e9,
mall,Pusat Perbelanjaan,Pasar Lalolae,"XRP6+GP2, Jl. Poros Kolaka - Rate-rate, Lalosingi, Kec. Lalolae, Kabupaten Kolaka Timur, Sulawesi Tenggara 93572","Jl. Poros Kolaka - Rate-rate, Lalosingi, Kec. Lalolae, Kabupaten Kolaka Timur",SULAWESI TENGGARA,93572.0,Indonesia,,,,-4.0137476,121.8117769,https://maps.google.com/?cid=0x0:0xefd08d099a6e7aed,
mall,Toko,Toko Buana Indah,"XW73+5H4, Jl. Poros Kolaka - Kendari, Orawa, Kec. Tirawuta, Kabupaten Kolaka Timur, Sulawesi Tenggara 93572","Jl. Poros Kolaka - Kendari, Orawa, Kec. Tirawuta, Kabupaten Kolaka Timur",SULAWESI TENGGARA,93572.0,Indonesia, 081248042911,,,-4.0371219,121.9039588,https://maps.google.com/?cid=0x0:0x5b1394d036f1f670,
mall,,Toko Tasya,"WVVP+G23, Jl. Blk. B, Tasahea, Kec. Tirawuta, Kabupaten Kolaka Timur, Sulawesi Tenggara 93572","Jl. Blk. B, Tasahea, Kec. Tirawuta, Kabupaten Kolaka Timur",SULAWESI TENGGARA,93572.0,Indonesia, 085241878308,,,-4.0562264,121.8850349,https://maps.google.com/?cid=0x0:0x7ff06985a00126eb,
mall,Pusat Perbelanjaan,megatama cell,"XV2R+72C, Rate-Rate, Kec. Tirawuta, Kabupaten Kolaka Timur, Sulawesi Tenggara 93572","Rate-Rate, Kec. Tirawuta, Kabupaten Kolaka Timur",SULAWESI TENGGARA,93572.0,Indonesia, 082293267875,,,-4.0493188,121.8900196,https://maps.google.com/?cid=0x0:0x97278df39252d552,
mall,Pusat Perbelanjaan,Toko Planet Kreasi,"WV2V+RHQ, Jl. Poros, Lamoare, Kec. Loea, Kabupaten Kolaka Timur, Sulawesi Tenggara 93572","Jl. Poros, Lamoare, Kec. Loea, Kabupaten Kolaka Timur",SULAWESI TENGGARA,93572.0,Indonesia, 085241529995,,,-4.0979035,121.8939714,https://maps.google.com/?cid=0x0:0xe0610041ffac371b,
mall,Toko,Warung sainal,"XV2V+9HJ, Rate-Rate, Kec. Tirawuta, Kabupaten Kolaka Timur, Sulawesi Tenggara 93572","Rate-Rate, Kec. Tirawuta, Kabupaten Kolaka Timur",SULAWESI TENGGARA,93572.0,Indonesia,,,,-4.0490441,121.8938792,https://maps.google.com/?cid=0x0:0x117ac3a47b0e51ca,
mall,Toko Suku Cadang Mobil,Toko Sparepart Combine MOPAN SP KOLAKA,"Rate-Rate, Kec. Tirawuta, Kabupaten Kolaka, Sulawesi Tenggara 93572","Kec. Tirawuta, Kabupaten Kolaka",SULAWESI TENGGARA,93572.0,Indonesia, 081284855677,,,-4.0495511,121.8901787,https://maps.google.com/?cid=0x0:0xaa44536c737a357e,
mall,Toko bahan makanan,Indomaret Tirawuta Kolaka Timur,"XVV7+5CX, Unnamed Road, Lalingato, Kec. Tirawuta, Kabupaten Kolaka Timur, Sulawesi Tenggara 93572","Unnamed Road, Lalingato, Kec. Tirawuta, Kabupaten Kolaka Timur",SULAWESI TENGGARA,93572.0,Indonesia,,,,-4.0070136,121.8636165,https://maps.google.com/?cid=0x0:0xd76b2f2e5a76c88,
mall,Pusat Perbelanjaan,megatama cellular,"WV5R+H9H, Lamoare, Kec. Loea, Kabupaten Kolaka, Sulawesi Tenggara 93572","Lamoare, Kec. Loea, Kabupaten Kolaka",SULAWESI TENGGARA,93572.0,Indonesia, 085394664466,,,-4.091053,121.890974,https://maps.google.com/?cid=0x0:0x5359a9c8a9851f43,
mall,Pusat Perbelanjaan,TOKO NIRGA Foto Copy  ATK,"Rate-Rate, Kec. Tirawuta, Kabupaten Kolaka Timur, Sulawesi Tenggara 93572","Kec. Tirawuta, Kabupaten Kolaka Timur",SULAWESI TENGGARA,93572.0,Indonesia,,,,-4.0545034,121.8900277,https://maps.google.com/?cid=0x0:0xe78920374ba9a618,
mall,Pusat Perbelanjaan,HERAWATI SWALAYAN,"VW27+HV6, Atula, Kec. Ladongi, Kabupaten Kolaka, Sulawesi Tenggara 93573","Atula, Kec. Ladongi, Kabupaten Kolaka",SULAWESI TENGGARA,93573.0,Indonesia, 082339400115,,,-4.1497424,121.915069,https://maps.google.com/?cid=0x0:0xd8ca533d2abc23d2,
mall,Pusat Perbelanjaan,Fotocopy Rizky,"XV3X+238, Jl. Inea, Rate-Rate, Kec. Tirawuta, Kabupaten Kolaka Timur, Sulawesi Tenggara 93572","Jl. Inea, Rate-Rate, Kec. Tirawuta, Kabupaten Kolaka Timur",SULAWESI TENGGARA,93572.0,Indonesia,,,,-4.0474503,121.8976942,https://maps.google.com/?cid=0x0:0xc04d4bcc4c81a183,
mall,Toko Pakaian,Bang nunis pernah disini hehe,"WVPC+F5, Tasahea, Kec. Tirawuta, Kabupaten Kolaka Timur, Sulawesi Tenggara","Kabupaten Kolaka Timur, Sulawesi Tenggara",SULAWESI TENGGARA,,Indonesia,,,,-4.059789,121.877269,https://maps.google.com/?cid=0x0:0x4fd3e5ca3e189325,
mall,Pusat Perbelanjaan,ILHAM JAYA PHONE,"WV2V+XFR, Jl. Poros, Lamoare, Kec. Loea, Kabupaten Kolaka Timur, Sulawesi Tenggara 93572","Jl. Poros, Lamoare, Kec. Loea, Kabupaten Kolaka Timur",SULAWESI TENGGARA,93572.0,Indonesia, 082349845679,,,-4.0975072,121.8936354,https://maps.google.com/?cid=0x0:0xba87bf42a19951d0,
mall,Pusat Perbelanjaan,Toko Ananda Koltim,"VVRX+RFX, Jl. Poros, Putemata, Kec. Ladongi, Kabupaten Kolaka Timur, Sulawesi Tenggara 93573","Jl. Poros, Putemata, Kec. Ladongi, Kabupaten Kolaka Timur",SULAWESI TENGGARA,93573.0,Indonesia, 085334886279,,,-4.1078884,121.898739,https://maps.google.com/?cid=0x0:0xa4ec3f5aed51e256,
mall,Toko,Toko Zulham Store,"VWXC+GM8, Lamoare, Kec. Loea, Kabupaten Kolaka Timur, Sulawesi Tenggara","Kabupaten Kolaka Timur, Sulawesi Tenggara",SULAWESI TENGGARA,,Indonesia,,,,-4.1012035,121.9217108,https://maps.google.com/?cid=0x0:0x976cb23dba99f772,
mall,Kios,Toko Sahabat Raya,"XQ8M+QM6, Lalolae, Kec. Lalolae, Kabupaten Kolaka, Sulawesi Tenggara 93572","Lalolae, Kec. Lalolae, Kabupaten Kolaka",SULAWESI TENGGARA,93572.0,Indonesia, 082290068809,,,-4.0330774,121.7841547,https://maps.google.com/?cid=0x0:0xe22893c108a85ab0,
mall,Toko,TOKO RAHMAT HIDAYAH DUA,"X2VJ+2RQ, Silea, Kec. Onembute, Kabupaten Konawe, Sulawesi Tenggara 93464","Silea, Kec. Onembute, Kabupaten Konawe",SULAWESI TENGGARA,93464.0,Indonesia, 082239273388,,,-4.0074375,122.0320625,https://maps.google.com/?cid=0x0:0x56a0fa53d201baec,
mall,Toko Elektronik,husna cell,"43Q2+QR9, kompleks pasar, Rate-Rate, Tirawuta, East Kolaka Regency, South East Sulawesi 93572","kompleks pasar, Rate-Rate, Tirawuta, East Kolaka Regency",SULAWESI TENGGARA,93572.0,Indonesia, 085241999992,,,-3.8605861,122.052118,https://maps.google.com/?cid=0x0:0xf4d1766928a0ab26,
mall,mall,Sulawesi Tenggara 93575,"Kabupaten Kolaka, Sulawesi Tenggara","Kabupaten Kolaka, Sulawesi Tenggara",SULAWESI TENGGARA,,Indonesia,,,,-3.5101108,121.3998995,https://maps.google.com/?cid=0x0:0xc8b7a5389edae68c,
mall,Pusat Perbelanjaan,Balanipa Bussines Centre,"WHRW+PHC, Jl. Mekongga Indah, Lamokato, Kec. Kolaka, Kabupaten Kolaka, Sulawesi Tenggara","Kabupaten Kolaka, Sulawesi Tenggara",SULAWESI TENGGARA,,Indonesia,,,,-4.058186,121.596401,https://maps.google.com/?cid=0x0:0xb430399d0297013b,
mall,Toko,Kios Fitri,"7F44+5RM, Tolowe Ponrewaru, Kec. Wolo, Kabupaten Kolaka, Sulawesi Tenggara","Kabupaten Kolaka, Sulawesi Tenggara",SULAWESI TENGGARA,,Indonesia,,,,-3.7445418,121.4570447,https://maps.google.com/?cid=0x0:0xac922685cf022188,
mall,Toko umum,Toko Ayu Bayu,"6XF3+4WM, Unaasi Jaya, Kec. Abuki, Kabupaten Konawe, Sulawesi Tenggara 93575","Unaasi Jaya, Kec. Abuki, Kabupaten Konawe",SULAWESI TENGGARA,93575.0,Indonesia,,,,-3.7771711,121.9547884,https://maps.google.com/?cid=0x0:0x960dec7223e6b49d,
mall,Toko Perlengkapan Rumah,Mr Diy pemuda kolaka,"Jl. Pemuda, Laloeha, Kec. Kolaka, Kabupaten Kolaka, Sulawesi Tenggara 93561","Laloeha, Kec. Kolaka, Kabupaten Kolaka",SULAWESI TENGGARA,93561.0,Indonesia,,,,-4.0575576,121.6072971,https://maps.google.com/?cid=0x0:0xf2a7ad1f6379051a,
mall,Toko bahan makanan,Top Swalayan Kolaka,"Laloeha, Kec. Kolaka, Kabupaten Kolaka, Sulawesi Tenggara 93561","Kec. Kolaka, Kabupaten Kolaka",SULAWESI TENGGARA,93561.0,Indonesia, 082347453535,,,-4.0603204,121.6112796,https://maps.google.com/?cid=0x0:0xf40e49d7c66c766f,
mall,Pasar,pasar sambeani,"6WVC+2FF, Sambeani, Kec. Abuki, Kabupaten Konawe, Sulawesi Tenggara 93452","Sambeani, Kec. Abuki, Kabupaten Konawe",SULAWESI TENGGARA,93452.0,Indonesia,,,,-3.757431,121.9211662,https://maps.google.com/?cid=0x0:0x56e4c890d4dacf23,
mall,Toko Pakaian Wanita,Risshop,"VJCF+HXW, Towua I, Kec. Wundulako, Kabupaten Kolaka, Sulawesi Tenggara 93561","Towua I, Kec. Wundulako, Kabupaten Kolaka",SULAWESI TENGGARA,93561.0,Indonesia, 082347322300,,,-4.1285177,121.6249663,https://maps.google.com/?cid=0x0:0xe395f1f2f978767f,
mall,Pusat Perbelanjaan,GMT KOLAKA,"Jl. Pramuka No.7CLamokato, Lamokato, Kec. Kolaka, Kabupaten Kolaka, Sulawesi Tenggara 93561","Lamokato, Kec. Kolaka, Kabupaten Kolaka",SULAWESI TENGGARA,93561.0,Indonesia, 082347426400,,,-4.0579775,121.6067618,https://maps.google.com/?cid=0x0:0x8461af370d696f58,
mall,Lapangan Football,Lapangan Pasmal LJE,"2PQH+264, Woitombo, Mowewe, Kabupaten Kolaka, Sulawesi Tenggara 93518","Woitombo, Mowewe, Kabupaten Kolaka",SULAWESI TENGGARA,93518.0,Indonesia, 082290812044,,,-3.9624959,121.7280858,https://maps.google.com/?cid=0x0:0x5fdc28ccbd977926,
mall,Toko,Pasar Raya Mekongga Kolaka,"Pasar Raya Mekongga Kolaka No.Blok A, Kabupaten Kolaka, Sulawesi Tenggara 93516",Kabupaten Kolaka,SULAWESI TENGGARA,93516.0,Indonesia,,,,-4.0607109,121.5975059,https://maps.google.com/?cid=0x0:0x57733dc983307d2c,
mall,Pusat Perbelanjaan,Pasar Lalolae,"XRP6+GP2, Jl. Poros Kolaka - Rate-rate, Lalosingi, Kec. Lalolae, Kabupaten Kolaka Timur, Sulawesi Tenggara 93572","Jl. Poros Kolaka - Rate-rate, Lalosingi, Kec. Lalolae, Kabupaten Kolaka Timur",SULAWESI TENGGARA,93572.0,Indonesia,,,,-4.0137476,121.8117769,https://maps.google.com/?cid=0x0:0xefd08d099a6e7aed,
mall,Pusat Perbelanjaan,Kios Dilla Broiler,"WHQW+6M5, Lamokato, Kec. Kolaka, Sulawesi Tenggara",Sulawesi Tenggara,SULAWESI TENGGARA,,Indonesia, 085241813018,,,-4.061984,121.5967231,https://maps.google.com/?cid=0x0:0x355fd223e06d3380,
mall,Pusat Perbelanjaan,Pusat belanja,"Jl. Pramuka No.2, Lamokato, Kec. Kolaka, Kabupaten Kolaka, Sulawesi Tenggara 93561","Lamokato, Kec. Kolaka, Kabupaten Kolaka",SULAWESI TENGGARA,93561.0,Indonesia, 085222217891,,,-4.0574651,121.606125,https://maps.google.com/?cid=0x0:0xf90275aed231ba01,
mall,Pusat Perbelanjaan,GMNI Cabang Kolaka,"WJGH+J86, Balandete, Kec. Kolaka, Kabupaten Kolaka, Sulawesi Tenggara 93561","Balandete, Kec. Kolaka, Kabupaten Kolaka",SULAWESI TENGGARA,93561.0,Indonesia,,,,-4.0734584,121.6282523,https://maps.google.com/?cid=0x0:0xb07c60165cfb46b0,
mall,Pusat Perbelanjaan,PPI MANGOLO KOLAKA,"XH44+97V, Sulawesi, Condongcatur, Kec. Depok, Kabupaten Sleman, Daerah Istimewa Yogyakarta 55281","Sulawesi, Condongcatur, Kec. Depok, Kabupaten Sleman",SULAWESI TENGGARA,55281.0,Indonesia,,,,-4.044006,121.5556627,https://maps.google.com/?cid=0x0:0x8a44aac2019a5eae,
mall,Kios,Kios Ibu,"WJPF+9QV, Balandete, Kec. Kolaka, Kabupaten Kolaka, Sulawesi Tenggara 93561","Balandete, Kec. Kolaka, Kabupaten Kolaka",SULAWESI TENGGARA,93561.0,Indonesia,,,,-4.0640051,121.6244332,https://maps.google.com/?cid=0x0:0x6e40c11e01b83dcd,
mall,Toko Swalayan,Aldo Maju Terus,"XH4F+9QX, Jl. Poros Ranteangin - Kolaka, Kolakaasi, Kec. Latambaga, Kabupaten Kolaka, Sulawesi Tenggara 93511","Jl. Poros Ranteangin - Kolaka, Kolakaasi, Kec. Latambaga, Kabupaten Kolaka",SULAWESI TENGGARA,93511.0,Indonesia, 082293279123,,,-4.0440128,121.5744885,https://maps.google.com/?cid=0x0:0xe049493b1143db96,
mall,Pusat Perbelanjaan,Mall Mandonga,"JL. Abdullah Silondae, Korumba, Kec. Mandonga, Kota Kendari, Sulawesi Tenggara 93111","Korumba, Kec. Mandonga, Kota Kendari",SULAWESI TENGGARA,93111.0,Indonesia,,,,-3.9642856,122.5189989,https://maps.google.com/?cid=0x0:0x96320466b7420e2b,
mall,Tujuan Wisata,ID family,"Q2GR+XJ4, Jl. Poros Lapai - Malili, Lalume, Kec. Pakue, Kabupaten Kolaka Utara, Sulawesi Tenggara 93954","Jl. Poros Lapai - Malili, Lalume, Kec. Pakue, Kabupaten Kolaka Utara",SULAWESI TENGGARA,93954.0,Indonesia, 082188749994,,,-3.2226084,121.0415917,https://maps.google.com/?cid=0x0:0x53f5c7937a5ed9d6,
mall,Masjid,Pasar Kosali,"Q2FQ+3H9, Jl. Poros Lapai - Malili, Kosali, Kec. Pakue, Kabupaten Kolaka Utara, Sulawesi Tenggara 93954","Jl. Poros Lapai - Malili, Kosali, Kec. Pakue, Kabupaten Kolaka Utara",SULAWESI TENGGARA,93954.0,Indonesia,,,,-3.2273288,121.0389934,https://maps.google.com/?cid=0x0:0x80c42f87abc007a6,
mall,Toko,AFGha_buildin,"PX3X+3Q3, Jl. Poros Lapai - Malili, Beringin, Kec. Ngapa, Kabupaten Kolaka Utara, Sulawesi Tenggara 93958","Jl. Poros Lapai - Malili, Beringin, Kec. Ngapa, Kabupaten Kolaka Utara",SULAWESI TENGGARA,93958.0,Indonesia, 085240012349,,,-3.2973702,120.9994158,https://maps.google.com/?cid=0x0:0x7b12c314598b3ae2,
mall,Pusat Perbelanjaan,Pasar Kel.Mala-Mala,"JWPJ+W55, Ainani Tajriani, Kec. Kodeoha, Kabupaten Kolaka Utara, Sulawesi Tenggara 93957","Ainani Tajriani, Kec. Kodeoha, Kabupaten Kolaka Utara",SULAWESI TENGGARA,93957.0,Indonesia,,,,-3.3627487,120.930472,https://maps.google.com/?cid=0x0:0xf1157f2444437e04,
mall,Toko,Mushaf Makmur,"DUSUN 2 DESA LAWOLATU, Lapai, Kec. Ngapa, Kabupaten Kolaka Utara, Sulawesi Tenggara 93958","Lapai, Kec. Ngapa, Kabupaten Kolaka Utara",SULAWESI TENGGARA,93958.0,Indonesia, 08119970529,,,-3.2969904,121.0084027,https://maps.google.com/?cid=0x0:0x650e792eec9d3a89,
mall,Pusat Perbelanjaan,Pasar Lawolatu,"P255+MCH, Lawolatu, Kec. Ngapa, Kabupaten Kolaka Utara, Sulawesi Tenggara 93958","Lawolatu, Kec. Ngapa, Kabupaten Kolaka Utara",SULAWESI TENGGARA,93958.0,Indonesia,,,,-3.2908213,121.0085952,https://maps.google.com/?cid=0x0:0xa7b34ddf3e66e857,
mall,Toko Perlengkapan Rumah,ACE Informa,"Jl. Jend. Ahmad Yani No.26, Kadia, Kec. Kadia, Kota Kendari, Sulawesi Tenggara 93115","Kadia, Kec. Kadia, Kota Kendari",SULAWESI TENGGARA,93115.0,Indonesia,,,,-3.9813173,122.5097731,https://maps.google.com/?cid=0x0:0x8035d2a319cbe4a8,
mall,Pusat Perbelanjaan,Pasar Latali,"V36Q+9W7, Latali, Kec. Pakue Tengah, Kabupaten Kolaka Utara, Sulawesi Tenggara 93954","Latali, Kec. Pakue Tengah, Kabupaten Kolaka Utara",SULAWESI TENGGARA,93954.0,Indonesia,,,,-3.1390875,121.0898108,https://maps.google.com/?cid=0x0:0x51f2eb8eb9b87773,
mall,Pusat Perbelanjaan,Pasar Meeto-Kodeoha,"MW2X+HJ7, Meeto, Kec. Kodeoha, Kabupaten Kolaka Utara, Sulawesi Tenggara 93957","Meeto, Kec. Kodeoha, Kabupaten Kolaka Utara",SULAWESI TENGGARA,93957.0,Indonesia,,,,-3.3485837,120.9490514,https://maps.google.com/?cid=0x0:0x3b3e4c7dd16e390,
supermarket,supermarket,Ladongi,"Ladongi, Kec. Ladongi, Kabupaten Kolaka Timur, Sulawesi Tenggara","Kabupaten Kolaka Timur, Sulawesi Tenggara",SULAWESI TENGGARA,,Indonesia,,,,-4.142409,121.901901,https://maps.google.com/?cid=0x0:0xf976c8583833e88d,
supermarket,Pusat Perbelanjaan,Pasar Gunung Jaya,"RW3P+FQF, Gn., Gn. Jaya, Kec. Ladongi, Kabupaten Kolaka, Sulawesi Tenggara 93573","Gn., Gn. Jaya, Kec. Ladongi, Kabupaten Kolaka",SULAWESI TENGGARA,93573.0,Indonesia,,,,-4.1963186,121.9369345,https://maps.google.com/?cid=0x0:0xf8cbd003db2651bc,
supermarket,Toko,Toko Surya Indah,"VW85+838, Ladongi, Kec. Ladongi, Kabupaten Kolaka, Sulawesi Tenggara 93573","Ladongi, Kec. Ladongi, Kabupaten Kolaka",SULAWESI TENGGARA,93573.0,Indonesia, 085241555468,,,-4.1342215,121.9076958,https://maps.google.com/?cid=0x0:0x7056bc4eba5fd019,
supermarket,Toko,Tokoh Fachrul,"VW74+2WG, Jl. Poros, Ladongi, Kec. Ladongi, Kabupaten Kolaka Timur, Sulawesi Tenggara 93573","Jl. Poros, Ladongi, Kec. Ladongi, Kabupaten Kolaka Timur",SULAWESI TENGGARA,93573.0,Indonesia,,,,-4.1374495,121.9073172,https://maps.google.com/?cid=0x0:0xd56948f550cc99c1,
supermarket,Kedai Kopi,Pasar Rakyat Ladongi,"VW74+VX7, Jl. Poros, Ladongi, Kec. Ladongi, Kabupaten Kolaka Timur, Sulawesi Tenggara 93573","Jl. Poros, Ladongi, Kec. Ladongi, Kabupaten Kolaka Timur",SULAWESI TENGGARA,93573.0,Indonesia,,,,-4.1353354,121.9074315,https://maps.google.com/?cid=0x0:0xaf2ad505e91a3940,
supermarket,Minimarket,INDOMARET LADONGI,"RWW8+M6F, Atula, Kec. Ladongi, Kabupaten Kolaka Timur, Sulawesi Tenggara 93573","Atula, Kec. Ladongi, Kabupaten Kolaka Timur",SULAWESI TENGGARA,93573.0,Indonesia,,,,-4.1533118,121.915543,https://maps.google.com/?cid=0x0:0xa77b8fc8bcf2ee7a,
supermarket,Minimarket,K,"RWQ9+WXH, Welala, Kec. Ladongi, Kabupaten Kolaka Timur, Sulawesi Tenggara 93573","Welala, Kec. Ladongi, Kabupaten Kolaka Timur",SULAWESI TENGGARA,93573.0,Indonesia,,,,-4.160255,121.9199769,https://maps.google.com/?cid=0x0:0x8501aac9d9df495c,
supermarket,Minimarket,Toko mulyadharma,"RWJC+7R8, Unnamed Road, Welala, Kec. Ladongi, Kabupaten Kolaka Timur, Sulawesi Tenggara 93573","Unnamed Road, Welala, Kec. Ladongi, Kabupaten Kolaka Timur",SULAWESI TENGGARA,93573.0,Indonesia,,,,-4.1693371,121.9220686,https://maps.google.com/?cid=0x0:0x592ebf153ae0fc79,
supermarket,Toko Perlengkapan Rumah,Toko Eka Sari,"VW55+VF6, Ladongi, Kec. Ladongi, Kabupaten Kolaka, Sulawesi Tenggara 93573","Ladongi, Kec. Ladongi, Kabupaten Kolaka",SULAWESI TENGGARA,93573.0,Indonesia,,,,-4.1403428,121.9086303,https://maps.google.com/?cid=0x0:0xdea95f4e9efb62d5,
supermarket,Minimarket,Indomaret 26 Ladongi,"VW85+Q4F, Jl. Poros, Ladongi, Kec. Ladongi, Kabupaten Kolaka Timur, Sulawesi Tenggara 93573","Jl. Poros, Ladongi, Kec. Ladongi, Kabupaten Kolaka Timur",SULAWESI TENGGARA,93573.0,Indonesia,,,,-4.1330532,121.9077935,https://maps.google.com/?cid=0x0:0x42c6118b8d682d1b,
supermarket,Minimarket,Toko usaha baru,"RWW8+4V8, Jl. Drs. H. Abd. Silondae, Welala, Kec. Ladongi, Kabupaten Kolaka Timur, Sulawesi Tenggara 93573","Jl. Drs. H. Abd. Silondae, Welala, Kec. Ladongi, Kabupaten Kolaka Timur",SULAWESI TENGGARA,93573.0,Indonesia,,,,-4.1547045,121.9172021,https://maps.google.com/?cid=0x0:0x15b0b49bd21f51c7,
supermarket,supermarket,Kec. Lalolae,"Kabupaten Kolaka Timur, Sulawesi Tenggara","Kabupaten Kolaka Timur, Sulawesi Tenggara",SULAWESI TENGGARA,,Indonesia,,,,-4.0256541,121.7842582,https://maps.google.com/?cid=0x0:0x16745ece4e90ef2b,
supermarket,Pusat Perbelanjaan,Pasar Lalolae,"XRP6+GP2, Jl. Poros Kolaka - Rate-rate, Lalosingi, Kec. Lalolae, Kabupaten Kolaka Timur, Sulawesi Tenggara 93572","Jl. Poros Kolaka - Rate-rate, Lalosingi, Kec. Lalolae, Kabupaten Kolaka Timur",SULAWESI TENGGARA,93572.0,Indonesia,,,,-4.0137476,121.8117769,https://maps.google.com/?cid=0x0:0xefd08d099a6e7aed,
supermarket,Toko bahan makanan,Indomaret Lalolae,"Jl. Poros Kolaka - Rate-rate No.Timur, Lalolae, Kec. Lalolae, Kabupaten Kolaka Timur, Sulawesi Tenggara 93571","Lalolae, Kec. Lalolae, Kabupaten Kolaka Timur",SULAWESI TENGGARA,93571.0,Indonesia,,,,-4.0251746,121.7821892,https://maps.google.com/?cid=0x0:0xff057c9aa1a8e497,
supermarket,Minimarket,K,"RWQ9+WXH, Welala, Kec. Ladongi, Kabupaten Kolaka Timur, Sulawesi Tenggara 93573","Welala, Kec. Ladongi, Kabupaten Kolaka Timur",SULAWESI TENGGARA,93573.0,Indonesia,,,,-4.160255,121.9199769,https://maps.google.com/?cid=0x0:0x8501aac9d9df495c,
supermarket,Kantor Keselamatan Publik,Polsek Lalolae,"XQFH+RHV, Lalolae, Kec. Lalolae, Kabupaten Kolaka, Sulawesi Tenggara 93571","Lalolae, Kec. Lalolae, Kabupaten Kolaka",SULAWESI TENGGARA,93571.0,Indonesia, 0422123456,,,-4.0253945,121.778922,https://maps.google.com/?cid=0x0:0x30e93e04c8052835,
supermarket,Toko,Alfamidi Repelita,"Jl. Repelita No.7, Sea, Kec. Kolaka, Kabupaten Kolaka, Sulawesi Tenggara 93511","Sea, Kec. Kolaka, Kabupaten Kolaka",SULAWESI TENGGARA,93511.0,Indonesia,,,,-4.0521236,121.5922483,https://maps.google.com/?cid=0x0:0xf6327ffab0723770,
supermarket,Toko bahan makanan,Toko DELAI,"XH4F+JHW, Kolakaasi, Kec. Latambaga, Kabupaten Kolaka, Sulawesi Tenggara 93511","Kolakaasi, Kec. Latambaga, Kabupaten Kolaka",SULAWESI TENGGARA,93511.0,Indonesia, 085394197555,,,-4.0433839,121.5739478,https://maps.google.com/?cid=0x0:0x6398327adcf85805,
supermarket,Minimarket,Megamart,"Jl. Pancasila, Sea, Kec. Latambaga, Kabupaten Kolaka, Sulawesi Tenggara 90001","Sea, Kec. Latambaga, Kabupaten Kolaka",SULAWESI TENGGARA,90001.0,Indonesia, 081241607688,,,-4.0547501,121.5908579,https://maps.google.com/?cid=0x0:0x19829d4ca8815c4a,
supermarket,,La Tanete Mart,"44F4+FMW, Jl. Poros Kendari-Kolaka, Wawotobi, Kec. Wawotobi, Kabupaten Konawe, Sulawesi Tenggara 93461","Jl. Poros Kendari-Kolaka, Wawotobi, Kec. Wawotobi, Kabupaten Konawe",SULAWESI TENGGARA,93461.0,Indonesia,,,,-3.8762552,122.1067004,https://maps.google.com/?cid=0x0:0x75f614b057676196,
supermarket,Minimarket,DAENGPUL MART,"QH3J+X44, Jl. Poros Pomalaa-Tanggetada, Hakatutobu, Kec. Pomalaa, Kabupaten Kolaka, Sulawesi Tenggara 93562","Jl. Poros Pomalaa-Tanggetada, Hakatutobu, Kec. Pomalaa, Kabupaten Kolaka",SULAWESI TENGGARA,93562.0,Indonesia,,,,-4.245965,121.5802532,https://maps.google.com/?cid=0x0:0xbeed35b3f0053562,
supermarket,Minimarket,INDOMARET LADONGI,"RWW8+M6F, Atula, Kec. Ladongi, Kabupaten Kolaka Timur, Sulawesi Tenggara 93573","Atula, Kec. Ladongi, Kabupaten Kolaka Timur",SULAWESI TENGGARA,93573.0,Indonesia,,,,-4.1533118,121.915543,https://maps.google.com/?cid=0x0:0xa77b8fc8bcf2ee7a,
supermarket,,TRIPLE A MART,"FVVP+WVP, Jl. Mesjid Raya, Patowonua, Kec. Lasusua, Kabupaten Kolaka Utara, Sulawesi Tenggara 93913","Jl. Mesjid Raya, Patowonua, Kec. Lasusua, Kabupaten Kolaka Utara",SULAWESI TENGGARA,93913.0,Indonesia,,,,-3.505168,120.8871945,https://maps.google.com/?cid=0x0:0x95b77a69969f07bf,
supermarket,Pasar,Alfayed Swalayan,"P222+QWR, Jl. Poros Lapai - Malili, Beringin, Kec. Ngapa, Kabupaten Kolaka Utara, Sulawesi Tenggara 93958","Jl. Poros Lapai - Malili, Beringin, Kec. Ngapa, Kabupaten Kolaka Utara",SULAWESI TENGGARA,93958.0,Indonesia,,,,-3.298023,121.0022604,https://maps.google.com/?cid=0x0:0xebe72d5e30efbab9,
supermarket,Sekolah,Tk.Anindya TMD,"WJJ8+P5X, Jl. Pintu Selatan, Laloeha, Kec. Kolaka, Kabupaten Kolaka, Sulawesi Tenggara 93561","Jl. Pintu Selatan, Laloeha, Kec. Kolaka, Kabupaten Kolaka",SULAWESI TENGGARA,93561.0,Indonesia, 085340667454,,,-4.0681417,121.6154739,https://maps.google.com/?cid=0x0:0x608364a3de5e18b7,
supermarket,Toko bahan makanan,fresh mart kolaka,"WHVX+VVC, Jl. Khairil Anwar, Lamokato, Kec. Kolaka, Kabupaten Kolaka, Sulawesi Tenggara 93511","Jl. Khairil Anwar, Lamokato, Kec. Kolaka, Kabupaten Kolaka",SULAWESI TENGGARA,93511.0,Indonesia, 082337007251,,,-4.0553066,121.599639,https://maps.google.com/?cid=0x0:0xba5afadb253a8d0,
supermarket,Minimarket,"LCM MART - 24 Jam, TANGGETADA","JH93+W58, Jl. Menwa, Popalia, Tanggetada, Kabupaten Kolaka, Sulawesi Tenggara 93563","Jl. Menwa, Popalia, Tanggetada, Kabupaten Kolaka",SULAWESI TENGGARA,93563.0,Indonesia,,,,-4.3802228,121.5529407,https://maps.google.com/?cid=0x0:0xea1ab531bb5176d0,
supermarket,Minimarket,Toko mulyadharma,"RWJC+7R8, Unnamed Road, Welala, Kec. Ladongi, Kabupaten Kolaka Timur, Sulawesi Tenggara 93573","Unnamed Road, Welala, Kec. Ladongi, Kabupaten Kolaka Timur",SULAWESI TENGGARA,93573.0,Indonesia,,,,-4.1693371,121.9220686,https://maps.google.com/?cid=0x0:0x592ebf153ae0fc79,
supermarket,Toko bahan makanan,Sinar Amali,"Mataiwoi, Kec. Ngapa, Kabupaten Kolaka Utara, Sulawesi Tenggara","Kabupaten Kolaka Utara, Sulawesi Tenggara",SULAWESI TENGGARA,,Indonesia,,,,-3.2791844,121.0404114,https://maps.google.com/?cid=0x0:0x7a16a04cd05d700c,
supermarket,Minimarket,Indomaret Mowewe Kolaka Timur,"2PGM+R27, Jl. Abd. Majid, Inebenggi, Mowewe, Kabupaten Kolaka Timur, Sulawesi Tenggara 93518","Jl. Abd. Majid, Inebenggi, Mowewe, Kabupaten Kolaka Timur",SULAWESI TENGGARA,93518.0,Indonesia,,,,-3.9729725,121.732542,https://maps.google.com/?cid=0x0:0xf3cc5b9478aa06b5,
supermarket,Toko bahan makanan,Wundulako Mart,"Wundulako, Kec. Wundulako, Kabupaten Kolaka, Sulawesi Tenggara 93561","Kec. Wundulako, Kabupaten Kolaka",SULAWESI TENGGARA,93561.0,Indonesia, 085242005962,,,-4.1090918,121.6764493,https://maps.google.com/?cid=0x0:0x13233e2052a137a4,
supermarket,Toko Kosmetik,Nining all shop Lalolae,"XQCM+W6F, Lingk 3, Lalolae, Kec. Lalolae, kab.koltim, Sulawesi Tenggara 93572","Lingk 3, Lalolae, Kec. Lalolae, kab.koltim",SULAWESI TENGGARA,93572.0,Indonesia, 085323228190,,,-4.0276913,121.7830336,https://maps.google.com/?cid=0x0:0x18930d3bb5829d4e,
supermarket,,TOKO IBAD,"XQCV+FVQ, Jl. Poros Kolaka - Rate-rate, Keisio, Kec. Lalolae, Kabupaten Kolaka Timur, Sulawesi Tenggara 93572","Jl. Poros Kolaka - Rate-rate, Keisio, Kec. Lalolae, Kabupaten Kolaka Timur",SULAWESI TENGGARA,93572.0,Indonesia,,,,-4.0287902,121.794729,https://maps.google.com/?cid=0x0:0xb17430bc2a8d2a09,
supermarket,Toko Swalayan,Toko Lala,"Jl. Poros Kolaka - Pomalaa No.500, Pelambua, Kec. Pomalaa, Kabupaten Kolaka, Sulawesi Tenggara 93562","Pelambua, Kec. Pomalaa, Kabupaten Kolaka",SULAWESI TENGGARA,93562.0,Indonesia, 081342039903,,,-4.1790643,121.6320484,https://maps.google.com/?cid=0x0:0x3215d9bd6f5d0eeb,
supermarket,Toko bahan makanan,AIDINA,"XQV3+PMF, Jl. Poros Kolaka - Rate-rate, Horodopi, Mowewe, Kabupaten Kolaka, Sulawesi Tenggara 93561","Jl. Poros Kolaka - Rate-rate, Horodopi, Mowewe, Kabupaten Kolaka",SULAWESI TENGGARA,93561.0,Indonesia,,,,-4.0056778,121.754159,https://maps.google.com/?cid=0x0:0xf25ace887286db7f,
supermarket,supermarket,Kios dua putra,"XQFJ+CV6, Lrg puskesmas, Lalolae, Kec. Lalolae, Kabupaten Kolaka Timur, Sulawesi Tenggara","Kabupaten Kolaka Timur, Sulawesi Tenggara",SULAWESI TENGGARA,,Indonesia,,,,-4.0264527,121.78213,https://maps.google.com/?cid=0x0:0xd728820c352d0518,
supermarket,supermarket,Irma,"XQHC+CM8, Jl. Poros Kolaka - Rate-rate, Wesalo, Kec. Lalolae, Kabupaten Kolaka, Sulawesi Tenggara 93571","Jl. Poros Kolaka - Rate-rate, Wesalo, Kec. Lalolae, Kabupaten Kolaka",SULAWESI TENGGARA,93571.0,Indonesia,,,,-4.0214709,121.7717041,https://maps.google.com/?cid=0x0:0xf00f55c594ac2a17,
supermarket,supermarket,Sulawesi Tenggara 93573,"Kabupaten Kolaka, Sulawesi Tenggara","Kabupaten Kolaka, Sulawesi Tenggara",SULAWESI TENGGARA,,Indonesia,,,,-4.2654072,121.856261,https://maps.google.com/?cid=0x0:0xeafafa5d78b5c179,
supermarket,Toko bahan makanan,Alfamidi lambandia,"Jalan Poros, Penanggo Jaya, Kec. Lambandia, Kabupaten Kolaka Timur, Sulawesi Tenggara 93578","Penanggo Jaya, Kec. Lambandia, Kabupaten Kolaka Timur",SULAWESI TENGGARA,93578.0,Indonesia, 081243473579,,,-4.3050966,121.9296661,https://maps.google.com/?cid=0x0:0x7e08157d6e06ea8b,
supermarket,Toko,Toko NASBUR,"MWCJ+M8X, Mokupa, Kec. Lambandia, Kabupaten Kolaka Timur, Sulawesi Tenggara 93573","Mokupa, Kec. Lambandia, Kabupaten Kolaka Timur",SULAWESI TENGGARA,93573.0,Indonesia, 082347661931,,,-4.3282733,121.9308712,https://maps.google.com/?cid=0x0:0xd334e7c21ee9a9b2,
supermarket,Kios,Aldi Lambandia,"MWVJ+6WP, Penanggo Jaya, Kec. Lambandia, Kabupaten Kolaka Timur, Sulawesi Tenggara 93573","Penanggo Jaya, Kec. Lambandia, Kabupaten Kolaka Timur",SULAWESI TENGGARA,93573.0,Indonesia,,,,-4.3069666,121.9323112,https://maps.google.com/?cid=0x0:0xf964d16a79bc9fba,
supermarket,Pusat Perbelanjaan,Minimarket devv,"MWVP+HVQ, Penanggo Jaya, Kec. Lambandia, Kabupaten Kolaka Timur, Sulawesi Tenggara 93573","Penanggo Jaya, Kec. Lambandia, Kabupaten Kolaka Timur",SULAWESI TENGGARA,93573.0,Indonesia,,,,-4.3060274,121.9372305,https://maps.google.com/?cid=0x0:0xd313ce7356877fa8,
supermarket,Kios,Toko andi aldi,"pennanggoosi, mekarjaya, Kec. Lambandia, Kabupaten Kolaka Timur, Sulawesi Tenggara","Kabupaten Kolaka Timur, Sulawesi Tenggara",SULAWESI TENGGARA,,Indonesia, 085313936228,,,-4.3022897,121.9003766,https://maps.google.com/?cid=0x0:0x2a627b83d7e019f6,
supermarket,Toko bahan makanan,Indomaret Penanggo Jaya,"MWWG+22Q, Jl. Poros Lambandia, Penanggo Jaya, Kec. Lambandia, Kabupaten Kolaka, Sulawesi Tenggara 93573","Jl. Poros Lambandia, Penanggo Jaya, Kec. Lambandia, Kabupaten Kolaka",SULAWESI TENGGARA,93573.0,Indonesia,,,,-4.3049531,121.9249824,https://maps.google.com/?cid=0x0:0x365ffc9813f58a8c,
supermarket,supermarket,Kec. Loea,"Kabupaten Kolaka Timur, Sulawesi Tenggara","Kabupaten Kolaka Timur, Sulawesi Tenggara",SULAWESI TENGGARA,,Indonesia,,,,-4.0866248,121.8885897,https://maps.google.com/?cid=0x0:0x3416e72c1ead93b6,
supermarket,supermarket,Toko Merta Mulia ( Toko Sembako  Agen BRILink ),"Jl. Poros, Loea, Kendari, Kabupaten Kolaka Timur, Sulawesi Tenggara 93572","Loea, Kendari, Kabupaten Kolaka Timur",SULAWESI TENGGARA,93572.0,Indonesia, 085213333269,,,-4.0909544,121.8905559,https://maps.google.com/?cid=0x0:0x8d4b8abea9bddaca,
supermarket,Kios,Dewa Dewi,"Atula, Kec. Ladongi, Kabupaten Kolaka, Sulawesi Tenggara 93573","Kec. Ladongi, Kabupaten Kolaka",SULAWESI TENGGARA,93573.0,Indonesia,,,,-4.1503293,121.9152217,https://maps.google.com/?cid=0x0:0x17a69d22f73a5f5,
supermarket,Toko,Toko Surya Indah,"VW85+838, Ladongi, Kec. Ladongi, Kabupaten Kolaka, Sulawesi Tenggara 93573","Ladongi, Kec. Ladongi, Kabupaten Kolaka",SULAWESI TENGGARA,93573.0,Indonesia, 085241555468,,,-4.1342215,121.9076958,https://maps.google.com/?cid=0x0:0x7056bc4eba5fd019,
supermarket,Toko,Tokoh Fachrul,"VW74+2WG, Jl. Poros, Ladongi, Kec. Ladongi, Kabupaten Kolaka Timur, Sulawesi Tenggara 93573","Jl. Poros, Ladongi, Kec. Ladongi, Kabupaten Kolaka Timur",SULAWESI TENGGARA,93573.0,Indonesia,,,,-4.1374495,121.9073172,https://maps.google.com/?cid=0x0:0xd56948f550cc99c1,
supermarket,Pusat Perbelanjaan,"Toko Rama Foto Copy, Atk, Boneka, dll","WVXQ+6W9, Rate-Rate, Kec. Tirawuta, Kabupaten Kolaka, Sulawesi Tenggara 93572","Rate-Rate, Kec. Tirawuta, Kabupaten Kolaka",SULAWESI TENGGARA,93572.0,Indonesia, 08114009077,,,-4.0519513,121.8898482,https://maps.google.com/?cid=0x0:0xa1459a7dba8d9091,
supermarket,Toko bahan makanan,Toko DELAI,"XH4F+JHW, Kolakaasi, Kec. Latambaga, Kabupaten Kolaka, Sulawesi Tenggara 93511","Kolakaasi, Kec. Latambaga, Kabupaten Kolaka",SULAWESI TENGGARA,93511.0,Indonesia, 085394197555,,,-4.0433839,121.5739478,https://maps.google.com/?cid=0x0:0x6398327adcf85805,
supermarket,Toko bahan makanan,Indomaret Lalolae,"Jl. Poros Kolaka - Rate-rate No.Timur, Lalolae, Kec. Lalolae, Kabupaten Kolaka Timur, Sulawesi Tenggara 93571","Lalolae, Kec. Lalolae, Kabupaten Kolaka Timur",SULAWESI TENGGARA,93571.0,Indonesia,,,,-4.0251746,121.7821892,https://maps.google.com/?cid=0x0:0xff057c9aa1a8e497,
supermarket,Toko Swalayan,Swalayan Bosowa Utama,"P222+W7V, Beringin, Kec. Ngapa, Kabupaten Kolaka Utara, Sulawesi Tenggara 93958","Beringin, Kec. Ngapa, Kabupaten Kolaka Utara",SULAWESI TENGGARA,93958.0,Indonesia, 0811402294,,,-3.2976279,121.000658,https://maps.google.com/?cid=0x0:0x9252ca1d1f619702,
supermarket,Toko bahan makanan,Toko Cahaya Bintang,"VW42+QQ9, Ladongi, Kec. Ladongi, Kabupaten Kolaka, Sulawesi Tenggara 93573","Ladongi, Kec. Ladongi, Kabupaten Kolaka",SULAWESI TENGGARA,93573.0,Indonesia,,,,-4.1430919,121.9019734,https://maps.google.com/?cid=0x0:0x2069b768e6e9b980,
supermarket,Toko,Toko Iluh,"Jl. Konggoasa, Dawi-Dawi, Kec. Pomalaa, Kabupaten Kolaka, Sulawesi Tenggara 93562","Dawi-Dawi, Kec. Pomalaa, Kabupaten Kolaka",SULAWESI TENGGARA,93562.0,Indonesia, 081527979260,,,-4.1739243,121.6141871,https://maps.google.com/?cid=0x0:0x472a0fa5f3c05601,
supermarket,Minimarket,Toko usaha baru,"RWW8+4V8, Jl. Drs. H. Abd. Silondae, Welala, Kec. Ladongi, Kabupaten Kolaka Timur, Sulawesi Tenggara 93573","Jl. Drs. H. Abd. Silondae, Welala, Kec. Ladongi, Kabupaten Kolaka Timur",SULAWESI TENGGARA,93573.0,Indonesia,,,,-4.1547045,121.9172021,https://maps.google.com/?cid=0x0:0x15b0b49bd21f51c7,
supermarket,,La Tanete Mart,"44F4+FMW, Jl. Poros Kendari-Kolaka, Wawotobi, Kec. Wawotobi, Kabupaten Konawe, Sulawesi Tenggara 93461","Jl. Poros Kendari-Kolaka, Wawotobi, Kec. Wawotobi, Kabupaten Konawe",SULAWESI TENGGARA,93461.0,Indonesia,,,,-3.8762552,122.1067004,https://maps.google.com/?cid=0x0:0x75f614b057676196,
supermarket,Toko Swalayan,Loka Supermarket Cibubur,"Jl. Alternatif Cibubur No.3, Harjamukti, Kec. Cimanggis, Bekasi, Jawa Barat 16454","Harjamukti, Kec. Cimanggis, Bekasi",SULAWESI TENGGARA,16454.0,Indonesia, 02121284712,,,-6.3754734,106.9064335,https://maps.google.com/?cid=0x0:0x3da04bb50caaaf10,
supermarket,Pusat Perbelanjaan,Warung Lia,"FQQQ+2Q8, Gang Belo, Waringin Jaya, Bojonggede, Bogor Regency, West Java 16920","Gang Belo, Waringin Jaya, Bojonggede, Bogor Regency",SULAWESI TENGGARA,16920.0,Indonesia, 081315027322,,,-6.5124572,106.7894657,https://maps.google.com/?cid=0x0:0x49597015ad4101b,
supermarket,Toko Swalayan,Localoka,"Gedung BRI II, Jl. Jend. Sudirman No.Kav 49, RT.14/RW.1, Bend. Hilir, Kecamatan Tanah Abang, Kota Jakarta Pusat, Daerah Khusus Ibukota Jakarta 10210","Jl. Jend. Sudirman No.Kav 49, RT.14/RW.1, Bend. Hilir, Kecamatan Tanah Abang, Kota Jakarta Pusat",SULAWESI TENGGARA,10210.0,Indonesia, 082122341157,,,-6.2161742,106.814035,https://maps.google.com/?cid=0x0:0xbc1685ea943075e6,
supermarket,supermarket,,,,SULAWESI TENGGARA,,Indonesia,,,,-6.3910465,106.7946885,https://maps.google.com/?cid=0x0:0xffc711ba8dd30fa9,
supermarket,Apotek,Watsons CENTRAL PARK MALL,"Jl. Let. Jend Letjen S. Parman No.113B Lantai 3 #L3, Tj. Duren Sel., Kec. Grogol petamburan, Kota Jakarta Barat, Daerah Khusus Ibukota Jakarta 11470","Tj. Duren Sel., Kec. Grogol petamburan, Kota Jakarta Barat",SULAWESI TENGGARA,11470.0,Indonesia,,,,-6.1760539,106.7903035,https://maps.google.com/?cid=0x0:0x9e5c320bb5f62129,
supermarket,supermarket,T O Lianie,"GXX4+J46, Jalan Raya, Klapanunggal, Bogor Regency, West Java 16710","Jalan Raya, Klapanunggal, Bogor Regency",SULAWESI TENGGARA,16710.0,Indonesia,,,,-6.4509515,106.9552714,https://maps.google.com/?cid=0x0:0x7093406cefa59344,
supermarket,supermarket,Mowewe,"Kabupaten Kolaka Timur, Sulawesi Tenggara","Kabupaten Kolaka Timur, Sulawesi Tenggara",SULAWESI TENGGARA,,Indonesia,,,,-3.962898,121.7081454,https://maps.google.com/?cid=0x0:0xdd1351df24135eeb,
supermarket,Toko,Pasar Mowewe,"2PPM+XP2, Inebenggi, Mowewe, Kabupaten Kolaka, Sulawesi Tenggara 93518","Inebenggi, Mowewe, Kabupaten Kolaka",SULAWESI TENGGARA,93518.0,Indonesia,,,,-3.9626166,121.7342765,https://maps.google.com/?cid=0x0:0x3f2b3eb9a4738ad3,
supermarket,Minimarket,Indomaret Mowewe Kolaka Timur,"2PGM+R27, Jl. Abd. Majid, Inebenggi, Mowewe, Kabupaten Kolaka Timur, Sulawesi Tenggara 93518","Jl. Abd. Majid, Inebenggi, Mowewe, Kabupaten Kolaka Timur",SULAWESI TENGGARA,93518.0,Indonesia,,,,-3.9729725,121.732542,https://maps.google.com/?cid=0x0:0xf3cc5b9478aa06b5,
supermarket,Toko umum,Toko Ayska,"2PPJ+FM3, Unnamed Road, Inebenggi, Mowewe, Kabupaten Kolaka Timur, Sulawesi Tenggara 93518","Unnamed Road, Inebenggi, Mowewe, Kabupaten Kolaka Timur",SULAWESI TENGGARA,93518.0,Indonesia, 082292908117,,,-3.9638515,121.7316751,https://maps.google.com/?cid=0x0:0x9795ccebb4e4dbb8,
supermarket,Kios,Kios Marsug,"2PW9+PRC, Nelombu, Mowewe, Kabupaten Kolaka, Sulawesi Tenggara 93518","Nelombu, Mowewe, Kabupaten Kolaka",SULAWESI TENGGARA,93518.0,Indonesia,,,,-3.9531757,121.7195229,https://maps.google.com/?cid=0x0:0x5518dbb8b9090baa,
supermarket,Toko bahan makanan,AIDINA,"XQV3+PMF, Jl. Poros Kolaka - Rate-rate, Horodopi, Mowewe, Kabupaten Kolaka, Sulawesi Tenggara 93561","Jl. Poros Kolaka - Rate-rate, Horodopi, Mowewe, Kabupaten Kolaka",SULAWESI TENGGARA,93561.0,Indonesia,,,,-4.0056778,121.754159,https://maps.google.com/?cid=0x0:0xf25ace887286db7f,
supermarket,supermarket,Poli-Polia,"Kec. Poli-Polia, Kabupaten Kolaka Timur, Sulawesi Tenggara","Kabupaten Kolaka Timur, Sulawesi Tenggara",SULAWESI TENGGARA,,Indonesia,,,,-4.1865835,121.8875679,https://maps.google.com/?cid=0x0:0xe57e9b1d5ca223cc,
supermarket,Toko bahan makanan,INDOMARET POLI-POLIA,"RW24+Q54, Poli-Polia, Kec. Poli-Polia, Kabupaten Kolaka, Sulawesi Tenggara 93573","Poli-Polia, Kec. Poli-Polia, Kabupaten Kolaka",SULAWESI TENGGARA,93573.0,Indonesia, 082297923472,,,-4.1981172,121.9054563,https://maps.google.com/?cid=0x0:0xb3ab8510cbc709cd,
supermarket,Pasar Petani,PASAR TAOSU,"QWV3+MGW, Taosu, Kec. Poli-Polia, Kabupaten Kolaka, Sulawesi Tenggara 93573","Taosu, Kec. Poli-Polia, Kabupaten Kolaka",SULAWESI TENGGARA,93573.0,Indonesia,,,,-4.2057601,121.9038239,https://maps.google.com/?cid=0x0:0xbfe64ad479ada12a,
supermarket,supermarket,,,,SULAWESI TENGGARA,,Indonesia, 082333065993,,,-2.44565,117.8888,https://maps.google.com/?cid=0x0:0xde6a6781dacd4041,
supermarket,supermarket,,,,SULAWESI TENGGARA,,Indonesia, 082333065993,,,-2.44565,117.8888,https://maps.google.com/?cid=0x0:0xc7582449e206c99e,
supermarket,supermarket,Sulawesi Tenggara 93573,"Kabupaten Kolaka, Sulawesi Tenggara","Kabupaten Kolaka, Sulawesi Tenggara",SULAWESI TENGGARA,,Indonesia,,,,-4.2654072,121.856261,https://maps.google.com/?cid=0x0:0xeafafa5d78b5c179,
supermarket,Kios,Toko Sri Tani Wia Wia,"panca utama sari, Dusun 2 blok D, Wia-Wia, Kec. Poli-Polia, Kabupaten Kolaka Timur, Sulawesi Tenggara 93579","Dusun 2 blok D, Wia-Wia, Kec. Poli-Polia, Kabupaten Kolaka Timur",SULAWESI TENGGARA,93579.0,Indonesia, 082245055503,,,-4.2038988,121.9153358,https://maps.google.com/?cid=0x0:0x6dbb69a0376c9bd8,
supermarket,supermarket,Sufi Cell,"QVH3+5RM, puundokulo, Kec. Poli-Polia, Kabupaten Kolaka, Sulawesi Tenggara 93573","puundokulo, Kec. Poli-Polia, Kabupaten Kolaka",SULAWESI TENGGARA,93573.0,Indonesia, 082343079686,,,-4.2220465,121.8545489,https://maps.google.com/?cid=0x0:0xe9464cd26ddd6c3c,
supermarket,Toko,Minimarket Katoi iin,"QWR4+GJJ Poli-Polia, Jl. Poros, Tokai, Kec. Lambandia, Kabupaten Kolaka Timur, Sulawesi Tenggara 93573","Jl. Poros, Tokai, Kec. Lambandia, Kabupaten Kolaka Timur",SULAWESI TENGGARA,93573.0,Indonesia,,,,-4.2086574,121.9065121,https://maps.google.com/?cid=0x0:0x3c775d94dfa97693,
supermarket,Toko umum,kios suci,"QVW2+9C6, Hakambololi, Andowengga, Kec. Poli-Polia, Kabupaten Kolaka Timur, Sulawesi Tenggara 93573","Hakambololi, Andowengga, Kec. Poli-Polia, Kabupaten Kolaka Timur",SULAWESI TENGGARA,93573.0,Indonesia, 082238745184,,,-4.2034143,121.8510302,https://maps.google.com/?cid=0x0:0xacc1e4ad0c229ff7,
supermarket,Dapur Umum,Adelia Tahu tempe,"QWVQ+6JP, Pole Maju Jaya, Kec. Poli-Polia, Kabupaten Kolaka Timur, Sulawesi Tenggara 93573","Pole Maju Jaya, Kec. Poli-Polia, Kabupaten Kolaka Timur",SULAWESI TENGGARA,93573.0,Indonesia,,,,-4.2069106,121.9390711,https://maps.google.com/?cid=0x0:0xc1d3e2cea49a023e,
supermarket,supermarket,Sulawesi Tenggara 93571,"Kabupaten Kolaka, Sulawesi Tenggara","Kabupaten Kolaka, Sulawesi Tenggara",SULAWESI TENGGARA,,Indonesia,,,,-3.8424079,121.856261,https://maps.google.com/?cid=0x0:0x1bb5ec53427fe729,
supermarket,Toko Swalayan,Cahaya Tinondo,"2RV9+HQ7, Talata, Kec. Tinondo, Kabupaten Kolaka Timur, Sulawesi Tenggara","Kabupaten Kolaka Timur, Sulawesi Tenggara",SULAWESI TENGGARA,,Indonesia,,,,-3.9565777,121.819073,https://maps.google.com/?cid=0x0:0x37db982ae4e48424,
supermarket,Toko bahan makanan,Top Swalayan Kolaka,"Laloeha, Kec. Kolaka, Kabupaten Kolaka, Sulawesi Tenggara 93561","Kec. Kolaka, Kabupaten Kolaka",SULAWESI TENGGARA,93561.0,Indonesia, 082347453535,,,-4.0603204,121.6112796,https://maps.google.com/?cid=0x0:0xf40e49d7c66c766f,
supermarket,Pusat Perbelanjaan,Pasar Gunung Jaya,"RW3P+FQF, Gn., Gn. Jaya, Kec. Ladongi, Kabupaten Kolaka, Sulawesi Tenggara 93573","Gn., Gn. Jaya, Kec. Ladongi, Kabupaten Kolaka",SULAWESI TENGGARA,93573.0,Indonesia,,,,-4.1963186,121.9369345,https://maps.google.com/?cid=0x0:0xf8cbd003db2651bc,
supermarket,Pusat Perbelanjaan,Alaska Supermarket,"WHVX+4PW, Lamokato, Kec. Kolaka, Kabupaten Kolaka, Sulawesi Tenggara","Kabupaten Kolaka, Sulawesi Tenggara",SULAWESI TENGGARA,,Indonesia,,,,-4.0571371,121.599325,https://maps.google.com/?cid=0x0:0xc0dcc174e4651626,
supermarket,Minimarket,Toko Ana,"P4RG+J5H, Unnamed Road, Benua, Kec. Benua, Kabupaten Konawe Selatan, Sulawesi Tenggara 93875","Unnamed Road, Benua, Kec. Benua, Kabupaten Konawe Selatan",SULAWESI TENGGARA,93875.0,Indonesia,,,,-4.2584385,122.1254878,https://maps.google.com/?cid=0x0:0x51da2998286581b0,
supermarket,Toko bahan makanan,Kios Devita,"529Q+QVF, Mekar Sari, Kec. Tongauna, Kabupaten Konawe, Sulawesi Tenggara 93413","Mekar Sari, Kec. Tongauna, Kabupaten Konawe",SULAWESI TENGGARA,93413.0,Indonesia,,,,-3.8305535,122.0396842,https://maps.google.com/?cid=0x0:0x3d0c32c75e32e771,
supermarket,Toko,Kios Khanif,"Sumber Rejeki, Kec. Watubangga, Kabupaten Kolaka, Sulawesi Tenggara 93563","Kec. Watubangga, Kabupaten Kolaka",SULAWESI TENGGARA,93563.0,Indonesia, 082290683995,,,-4.5183298,121.5592358,https://maps.google.com/?cid=0x0:0x8d52ce8ccda22cf4,
supermarket,Kios,Toko Karya Subur,"WHVR+XHJ, Jl. Bakti, Latambaga, Kec. Latambaga, Kabupaten Kolaka, Sulawesi Tenggara","Kabupaten Kolaka, Sulawesi Tenggara",SULAWESI TENGGARA,,Indonesia,,,,-4.0550269,121.5913788,https://maps.google.com/?cid=0x0:0xabf06326c09063d8,
supermarket,Toko,Toko Sinar Solo,"Jl. Kadue No.24, Sea, Kec. Latambaga, Kabupaten Kolaka, Sulawesi Tenggara 93511","Sea, Kec. Latambaga, Kabupaten Kolaka",SULAWESI TENGGARA,93511.0,Indonesia, 082399129558,,,-4.0506084,121.5896663,https://maps.google.com/?cid=0x0:0xb95b3de602462d47,
supermarket,Kios,Toko Sri Tani Wia Wia,"panca utama sari, Dusun 2 blok D, Wia-Wia, Kec. Poli-Polia, Kabupaten Kolaka Timur, Sulawesi Tenggara 93579","Dusun 2 blok D, Wia-Wia, Kec. Poli-Polia, Kabupaten Kolaka Timur",SULAWESI TENGGARA,93579.0,Indonesia, 082245055503,,,-4.2038988,121.9153358,https://maps.google.com/?cid=0x0:0x6dbb69a0376c9bd8,
supermarket,Toko bahan makanan,Hulu mart,"42VJ+C22, Jl. Haluoleo, Puosu, Kec. Tongauna, Kabupaten Konawe, Sulawesi Tenggara 93460","Jl. Haluoleo, Puosu, Kec. Tongauna, Kabupaten Konawe",SULAWESI TENGGARA,93460.0,Indonesia, 085240319809,,,-3.8564945,122.0300262,https://maps.google.com/?cid=0x0:0x4c8b448118ab043f,
supermarket,Toko bahan makanan,Tunas Rejki,"V7W4+66H, Endanga, Kec. Landono, Kabupaten Konawe Selatan, Sulawesi Tenggara 93873","Endanga, Kec. Landono, Kabupaten Konawe Selatan",SULAWESI TENGGARA,93873.0,Indonesia, 085299368906,,,-4.104439,122.2555958,https://maps.google.com/?cid=0x0:0x61445bf3d81d7c9e,
supermarket,Sekolah,Tk.Anindya TMD,"WJJ8+P5X, Jl. Pintu Selatan, Laloeha, Kec. Kolaka, Kabupaten Kolaka, Sulawesi Tenggara 93561","Jl. Pintu Selatan, Laloeha, Kec. Kolaka, Kabupaten Kolaka",SULAWESI TENGGARA,93561.0,Indonesia, 085340667454,,,-4.0681417,121.6154739,https://maps.google.com/?cid=0x0:0x608364a3de5e18b7,
supermarket,Toko,Nusma Jaya Grosir,"RW3Q+J2F, Gn. Jaya, Kec. Ladongi, Kabupaten Kolaka, Sulawesi Tenggara 93573","Gn. Jaya, Kec. Ladongi, Kabupaten Kolaka",SULAWESI TENGGARA,93573.0,Indonesia,,,,-4.1959343,121.9375388,https://maps.google.com/?cid=0x0:0x1afa6340fff38b7a,
supermarket,Toko umum,Toko ARIQSA,"7X3W+9C7, Nambeaboru, Kec. Tongauna, Kabupaten Konawe, Sulawesi Tenggara 93461","Nambeaboru, Kec. Tongauna, Kabupaten Konawe",SULAWESI TENGGARA,93461.0,Indonesia,,,,-3.7465953,121.9960511,https://maps.google.com/?cid=0x0:0x485728d98308241a,
supermarket,Minimarket,Megamart,"Jl. Pancasila, Sea, Kec. Latambaga, Kabupaten Kolaka, Sulawesi Tenggara 90001","Sea, Kec. Latambaga, Kabupaten Kolaka",SULAWESI TENGGARA,90001.0,Indonesia, 081241607688,,,-4.0547501,121.5908579,https://maps.google.com/?cid=0x0:0x19829d4ca8815c4a,
supermarket,Toko umum,KIOS IBU TRI UTAMI,"CGP5+HP, Rano Jaya, Kec. Toari, Kabupaten Kolaka, Sulawesi Tenggara","Kabupaten Kolaka, Sulawesi Tenggara",SULAWESI TENGGARA,,Indonesia,,,,-4.5636541,121.5093996,https://maps.google.com/?cid=0x0:0x54cba90216871c9d,
supermarket,Minimarket,DAENGPUL MART,"QH3J+X44, Jl. Poros Pomalaa-Tanggetada, Hakatutobu, Kec. Pomalaa, Kabupaten Kolaka, Sulawesi Tenggara 93562","Jl. Poros Pomalaa-Tanggetada, Hakatutobu, Kec. Pomalaa, Kabupaten Kolaka",SULAWESI TENGGARA,93562.0,Indonesia,,,,-4.245965,121.5802532,https://maps.google.com/?cid=0x0:0xbeed35b3f0053562,
supermarket,Toko bahan makanan,Indomaret 86 Koltim,"Jl. Poros Kolaka - Rate-rate No.16, Rate-Rate, Kec. Tirawuta, Kabupaten Kolaka Timur, Sulawesi Tenggara 93572","Rate-Rate, Kec. Tirawuta, Kabupaten Kolaka Timur",SULAWESI TENGGARA,93572.0,Indonesia, 082139341163,,,-4.0483956,121.8900178,https://maps.google.com/?cid=0x0:0x5e87ff3b718632e0,
supermarket,Minimarket,Indomaret Tawainalu Kolaka Timur,"XWGM+HGP, Tawainalu, Kec. Tirawuta, Kabupaten Kolaka, Sulawesi Tenggara 93572","Tawainalu, Kec. Tirawuta, Kabupaten Kolaka",SULAWESI TENGGARA,93572.0,Indonesia,,,,-4.0235537,121.93376,https://maps.google.com/?cid=0x0:0xad2b2561f95785e7,
supermarket,Kios,Kios Linda,"Dekat, Jl. Veteran No.189, Orawa, Kec. Tirawuta, Kabupaten Kolaka Timur, Sulawesi Tenggara 93572","Jl. Veteran No.189, Orawa, Kec. Tirawuta, Kabupaten Kolaka Timur",SULAWESI TENGGARA,93572.0,Indonesia,,,,-4.0426057,121.8992412,https://maps.google.com/?cid=0x0:0xc3395659544d276f,
supermarket,Kios,Dewa Dewi,"Atula, Kec. Ladongi, Kabupaten Kolaka, Sulawesi Tenggara 93573","Kec. Ladongi, Kabupaten Kolaka",SULAWESI TENGGARA,93573.0,Indonesia,,,,-4.1503293,121.9152217,https://maps.google.com/?cid=0x0:0x17a69d22f73a5f5,
supermarket,Kios,Kios sinar,"XWQF+4GR, Loka, Kec. Tirawuta, Kabupaten Kolaka, Sulawesi Tenggara 93572","Loka, Kec. Tirawuta, Kabupaten Kolaka",SULAWESI TENGGARA,93572.0,Indonesia, 081343943944,,,-4.0121358,121.9237686,https://maps.google.com/?cid=0x0:0xb9c0dc05658a3879,
supermarket,Toko,Pasar Mowewe,"2PPM+XP2, Inebenggi, Mowewe, Kabupaten Kolaka, Sulawesi Tenggara 93518","Inebenggi, Mowewe, Kabupaten Kolaka",SULAWESI TENGGARA,93518.0,Indonesia,,,,-3.9626166,121.7342765,https://maps.google.com/?cid=0x0:0x3f2b3eb9a4738ad3,
supermarket,Gudang,PT. Landipo Niaga Raya,"42RP+WV2, Puunaaha, Kec. Unaaha, Kabupaten Konawe, Sulawesi Tenggara 93413","Puunaaha, Kec. Unaaha, Kabupaten Konawe",SULAWESI TENGGARA,93413.0,Indonesia,,,,-3.8577381,122.0371434,https://maps.google.com/?cid=0x0:0x11212d469e49adc6,
supermarket,Pasar tradisional,Pasar Rakyat Tirawuta,"XVCH+4WG, Poni-Poniki, Kec. Tirawuta, Kabupaten Kolaka, Sulawesi Tenggara 93572","Poni-Poniki, Kec. Tirawuta, Kabupaten Kolaka",SULAWESI TENGGARA,93572.0,Indonesia,,,,-4.0296874,121.8798331,https://maps.google.com/?cid=0x0:0xd12e798267e73902,
supermarket,Toko Swalayan,Alfamidi Tumpas,"42QX+GC9, Jl. Poros Raterate-Unaaha No.151, Tumpas, Kec. Unaaha, Kabupaten Konawe, Sulawesi Tenggara 93415","Jl. Poros Raterate-Unaaha No.151, Tumpas, Kec. Unaaha, Kabupaten Konawe",SULAWESI TENGGARA,93415.0,Indonesia, 081243875525,,,-3.862461,122.0486829,https://maps.google.com/?cid=0x0:0xcbfb26b7321b8fa5,
supermarket,Toko,Toserba Murni,"44F5+6R7, Wawotobi, Kec. Wawotobi, Kabupaten Konawe, Sulawesi Tenggara 93461","Wawotobi, Kec. Wawotobi, Kabupaten Konawe",SULAWESI TENGGARA,93461.0,Indonesia,,,,-3.8769726,122.109551,https://maps.google.com/?cid=0x0:0xd22e8f18d3f09888,
supermarket,supermarket,Sulawesi Tenggara 93572,Sulawesi Tenggara,Sulawesi Tenggara,SULAWESI TENGGARA,,Indonesia,,,,-4.0494144,121.947311,https://maps.google.com/?cid=0x0:0xfdc4defab63a0262,
supermarket,Pasar tradisional,Pasar Rakyat Tirawuta,"XVCH+4WG, Poni-Poniki, Kec. Tirawuta, Kabupaten Kolaka, Sulawesi Tenggara 93572","Poni-Poniki, Kec. Tirawuta, Kabupaten Kolaka",SULAWESI TENGGARA,93572.0,Indonesia,,,,-4.0296874,121.8798331,https://maps.google.com/?cid=0x0:0xd12e798267e73902,
supermarket,Toko bahan makanan,Indomaret Tirawuta Kolaka Timur,"XVV7+5CX, Unnamed Road, Lalingato, Kec. Tirawuta, Kabupaten Kolaka Timur, Sulawesi Tenggara 93572","Unnamed Road, Lalingato, Kec. Tirawuta, Kabupaten Kolaka Timur",SULAWESI TENGGARA,93572.0,Indonesia,,,,-4.0070136,121.8636165,https://maps.google.com/?cid=0x0:0xd76b2f2e5a76c88,
supermarket,Toko bahan makanan,Indomaret Rate Rate Kolaka Timur,"XV3W+MW3, Rate-Rate, Kec. Tirawuta, Kabupaten Kolaka, Sulawesi Tenggara 93572","Rate-Rate, Kec. Tirawuta, Kabupaten Kolaka",SULAWESI TENGGARA,93572.0,Indonesia, 085823130894,,,-4.045862,121.8973048,https://maps.google.com/?cid=0x0:0x40aa5d1e2354cc3f,
supermarket,Toko bahan makanan,Indomaret 86 Koltim,"Jl. Poros Kolaka - Rate-rate No.16, Rate-Rate, Kec. Tirawuta, Kabupaten Kolaka Timur, Sulawesi Tenggara 93572","Rate-Rate, Kec. Tirawuta, Kabupaten Kolaka Timur",SULAWESI TENGGARA,93572.0,Indonesia, 082139341163,,,-4.0483956,121.8900178,https://maps.google.com/?cid=0x0:0x5e87ff3b718632e0,
supermarket,Minimarket,Indomaret Tawainalu Kolaka Timur,"XWGM+HGP, Tawainalu, Kec. Tirawuta, Kabupaten Kolaka, Sulawesi Tenggara 93572","Tawainalu, Kec. Tirawuta, Kabupaten Kolaka",SULAWESI TENGGARA,93572.0,Indonesia,,,,-4.0235537,121.93376,https://maps.google.com/?cid=0x0:0xad2b2561f95785e7,
supermarket,supermarket,Toko Merta Mulia ( Toko Sembako  Agen BRILink ),"Jl. Poros, Loea, Kendari, Kabupaten Kolaka Timur, Sulawesi Tenggara 93572","Loea, Kendari, Kabupaten Kolaka Timur",SULAWESI TENGGARA,93572.0,Indonesia, 085213333269,,,-4.0909544,121.8905559,https://maps.google.com/?cid=0x0:0x8d4b8abea9bddaca,
supermarket,Pusat Perbelanjaan,"Toko Rama Foto Copy, Atk, Boneka, dll","WVXQ+6W9, Rate-Rate, Kec. Tirawuta, Kabupaten Kolaka, Sulawesi Tenggara 93572","Rate-Rate, Kec. Tirawuta, Kabupaten Kolaka",SULAWESI TENGGARA,93572.0,Indonesia, 08114009077,,,-4.0519513,121.8898482,https://maps.google.com/?cid=0x0:0xa1459a7dba8d9091,
supermarket,Toko,Toko Surya Indah,"VW85+838, Ladongi, Kec. Ladongi, Kabupaten Kolaka, Sulawesi Tenggara 93573","Ladongi, Kec. Ladongi, Kabupaten Kolaka",SULAWESI TENGGARA,93573.0,Indonesia, 085241555468,,,-4.1342215,121.9076958,https://maps.google.com/?cid=0x0:0x7056bc4eba5fd019,
supermarket,Toko Kosmetik,Winstore,"XV4J+7JG, Jl. Poros Kolaka - Rate-rate, Tirawuta, Kec. Tirawuta, Kabupaten Kolaka Timur, Sulawesi Tenggara","Kabupaten Kolaka Timur, Sulawesi Tenggara",SULAWESI TENGGARA,,Indonesia,,,,-4.0443079,121.8815828,https://maps.google.com/?cid=0x0:0xa417006112a5e3ec,
supermarket,Kios,Dewa Dewi,"Atula, Kec. Ladongi, Kabupaten Kolaka, Sulawesi Tenggara 93573","Kec. Ladongi, Kabupaten Kolaka",SULAWESI TENGGARA,93573.0,Indonesia,,,,-4.1503293,121.9152217,https://maps.google.com/?cid=0x0:0x17a69d22f73a5f5,
supermarket,Toko bahan makanan,Kios Devita,"529Q+QVF, Mekar Sari, Kec. Tongauna, Kabupaten Konawe, Sulawesi Tenggara 93413","Mekar Sari, Kec. Tongauna, Kabupaten Konawe",SULAWESI TENGGARA,93413.0,Indonesia,,,,-3.8305535,122.0396842,https://maps.google.com/?cid=0x0:0x3d0c32c75e32e771,
supermarket,Toko bahan makanan,Hulu mart,"42VJ+C22, Jl. Haluoleo, Puosu, Kec. Tongauna, Kabupaten Konawe, Sulawesi Tenggara 93460","Jl. Haluoleo, Puosu, Kec. Tongauna, Kabupaten Konawe",SULAWESI TENGGARA,93460.0,Indonesia, 085240319809,,,-3.8564945,122.0300262,https://maps.google.com/?cid=0x0:0x4c8b448118ab043f,
supermarket,supermarket,RUMAH ARI,"X2VM+832, Silea, Kec. Onembute, Kabupaten Konawe, Sulawesi Tenggara","Kabupaten Konawe, Sulawesi Tenggara",SULAWESI TENGGARA,,Indonesia,,,,-4.0067133,122.0326386,https://maps.google.com/?cid=0x0:0xe7e73e1a596ce971,
supermarket,supermarket,Kios Alexa,"XVHJ+24, Simbune, Kec. Tirawuta, Kabupaten Kolaka, Sulawesi Tenggara","Kabupaten Kolaka, Sulawesi Tenggara",SULAWESI TENGGARA,,Indonesia,,,,-4.0224039,121.8802502,https://maps.google.com/?cid=0x0:0xf3f0cf89f085f2f4,
supermarket,Toko Perlengkapan Rumah,Toko Alfath,"WVPP+G36, Tababu, Kec. Tirawuta, Kabupaten Kolaka, Sulawesi Tenggara 93572","Tababu, Kec. Tirawuta, Kabupaten Kolaka",SULAWESI TENGGARA,93572.0,Indonesia,,,,-4.0637097,121.8851438,https://maps.google.com/?cid=0x0:0x1785760d1bcdf2ad,
supermarket,Kios,Kios Linda,"Dekat, Jl. Veteran No.189, Orawa, Kec. Tirawuta, Kabupaten Kolaka Timur, Sulawesi Tenggara 93572","Jl. Veteran No.189, Orawa, Kec. Tirawuta, Kabupaten Kolaka Timur",SULAWESI TENGGARA,93572.0,Indonesia,,,,-4.0426057,121.8992412,https://maps.google.com/?cid=0x0:0xc3395659544d276f,
supermarket,Toko umum,Kosara Fresh,"Jl. Poros Kolaka - Kendari No.Timur, Orawa, Kec. Tirawuta, Kabupaten Kolaka Timur, Sulawesi Tenggara 93572","Orawa, Kec. Tirawuta, Kabupaten Kolaka Timur",SULAWESI TENGGARA,93572.0,Indonesia, 085210368386,,,-4.0436314,121.9002143,https://maps.google.com/?cid=0x0:0x20ff42faadaed014,
supermarket,,Kios fitri,"XWGH+R8J, Jl. Poros Rate-rate, Tawainalu, Kec. Tirawuta, Kabupaten Kolaka Timur, Sulawesi Tenggara 93572","Jl. Poros Rate-rate, Tawainalu, Kec. Tirawuta, Kabupaten Kolaka Timur",SULAWESI TENGGARA,93572.0,Indonesia,,,,-4.0229049,121.9282607,https://maps.google.com/?cid=0x0:0x5a0aa5cb49d7a64b,
supermarket,Minimarket,Fresh Water,"WVRQ+248, Tasahea, Kec. Tirawuta, Kabupaten Kolaka, Sulawesi Tenggara 93572","Tasahea, Kec. Tirawuta, Kabupaten Kolaka",SULAWESI TENGGARA,93572.0,Indonesia, 085340453799,,,-4.0599701,121.8878271,https://maps.google.com/?cid=0x0:0xefc2f47d91158cd9,
supermarket,Toko,Tokoh Fachrul,"VW74+2WG, Jl. Poros, Ladongi, Kec. Ladongi, Kabupaten Kolaka Timur, Sulawesi Tenggara 93573","Jl. Poros, Ladongi, Kec. Ladongi, Kabupaten Kolaka Timur",SULAWESI TENGGARA,93573.0,Indonesia,,,,-4.1374495,121.9073172,https://maps.google.com/?cid=0x0:0xd56948f550cc99c1,
supermarket,Kios,Kios sinar,"XWQF+4GR, Loka, Kec. Tirawuta, Kabupaten Kolaka, Sulawesi Tenggara 93572","Loka, Kec. Tirawuta, Kabupaten Kolaka",SULAWESI TENGGARA,93572.0,Indonesia, 081343943944,,,-4.0121358,121.9237686,https://maps.google.com/?cid=0x0:0xb9c0dc05658a3879,
supermarket,Toko,Toko RAHMAH,"XV2V+Q3V, Rate-Rate, Kec. Tirawuta, Kabupaten Kolaka Timur, Sulawesi Tenggara 93572","Rate-Rate, Kec. Tirawuta, Kabupaten Kolaka Timur",SULAWESI TENGGARA,93572.0,Indonesia,,,,-4.0480078,121.8926745,https://maps.google.com/?cid=0x0:0x1bda22275f29fde4,
supermarket,Soto,Warung togo(pasar lama city),"WVXV+FFF, Rate-Rate, Kec. Tirawuta, Kabupaten Kolaka Timur, Sulawesi Tenggara 93572","Rate-Rate, Kec. Tirawuta, Kabupaten Kolaka Timur",SULAWESI TENGGARA,93572.0,Indonesia,,,,-4.0513104,121.8936832,https://maps.google.com/?cid=0x0:0x334252d9ed5f8967,
supermarket,,ANTO PULSA,"XXC3+HJ9, Tumbudadio, Kec. Tirawuta, Kabupaten Kolaka, Sulawesi Tenggara 93572","Tumbudadio, Kec. Tirawuta, Kabupaten Kolaka",SULAWESI TENGGARA,93572.0,Indonesia, 082193333001,,,-4.0285955,121.9541119,https://maps.google.com/?cid=0x0:0x9a5470c420f47b63,
supermarket,Toko bahan makanan,TOKO JABAL NUR,"XWGJ+W62, Jl. Poros Rate-rate, Tawainalu, Kec. Tirawuta, Kabupaten Kolaka Timur, Sulawesi Tenggara 93572","Jl. Poros Rate-rate, Tawainalu, Kec. Tirawuta, Kabupaten Kolaka Timur",SULAWESI TENGGARA,93572.0,Indonesia,,,,-4.0227499,121.930528,https://maps.google.com/?cid=0x0:0x73d9b5dee2ecc1a6,
supermarket,Toko Kosmetik,TOKO RAUDAH,"Jl. Poros Kolaka - Rate-rate, Lalingato, Kec. Tirawuta, Kabupaten Kolaka Timur, Sulawesi Tenggara 93582","Lalingato, Kec. Tirawuta, Kabupaten Kolaka Timur",SULAWESI TENGGARA,93582.0,Indonesia, 082393133211,,,-4.0093556,121.870918,https://maps.google.com/?cid=0x0:0x51d6ec5d19c743ef,
supermarket,Toko bahan makanan,Warung emba,"XV2R+2M4, Rate-Rate, Kec. Tirawuta, Kabupaten Kolaka Timur, Sulawesi Tenggara 93572","Rate-Rate, Kec. Tirawuta, Kabupaten Kolaka Timur",SULAWESI TENGGARA,93572.0,Indonesia,,,,-4.0499952,121.8917063,https://maps.google.com/?cid=0x0:0xc0037f145e963042,
supermarket,Toko bahan makanan,KIOS ALFIN,"XV2R+42C, Jl. Poros Rate-rate Ladongi Road, Rate-Rate, Kec. Tirawuta, Kabupaten Kolaka Timur, Sulawesi Tenggara 93572","Jl. Poros Rate-rate Ladongi Road, Rate-Rate, Kec. Tirawuta, Kabupaten Kolaka Timur",SULAWESI TENGGARA,93572.0,Indonesia,,,,-4.0496786,121.8900002,https://maps.google.com/?cid=0x0:0xf73900fccf5386fa,
supermarket,supermarket,Sulawesi Tenggara 93575,"Kabupaten Kolaka, Sulawesi Tenggara","Kabupaten Kolaka, Sulawesi Tenggara",SULAWESI TENGGARA,,Indonesia,,,,-3.5101108,121.3998995,https://maps.google.com/?cid=0x0:0xc8b7a5389edae68c,
supermarket,Toko,Toserba Murni,"44F5+6R7, Wawotobi, Kec. Wawotobi, Kabupaten Konawe, Sulawesi Tenggara 93461","Wawotobi, Kec. Wawotobi, Kabupaten Konawe",SULAWESI TENGGARA,93461.0,Indonesia,,,,-3.8769726,122.109551,https://maps.google.com/?cid=0x0:0xd22e8f18d3f09888,
supermarket,Toko Swalayan,Swalayan Bosowa Utama,"P222+W7V, Beringin, Kec. Ngapa, Kabupaten Kolaka Utara, Sulawesi Tenggara 93958","Beringin, Kec. Ngapa, Kabupaten Kolaka Utara",SULAWESI TENGGARA,93958.0,Indonesia, 0811402294,,,-3.2976279,121.000658,https://maps.google.com/?cid=0x0:0x9252ca1d1f619702,
supermarket,Toko bahan makanan,Top Swalayan Kolaka,"Laloeha, Kec. Kolaka, Kabupaten Kolaka, Sulawesi Tenggara 93561","Kec. Kolaka, Kabupaten Kolaka",SULAWESI TENGGARA,93561.0,Indonesia, 082347453535,,,-4.0603204,121.6112796,https://maps.google.com/?cid=0x0:0xf40e49d7c66c766f,
supermarket,Minimarket,Toko MANA SUKA,"4C39+RJF, Sampara/Morosi, Kec. Bondoala, Kabupaten Konawe, Sulawesi Tenggara 93354","Sampara/Morosi, Kec. Bondoala, Kabupaten Konawe",SULAWESI TENGGARA,93354.0,Indonesia,,,,-3.8954324,122.4190352,https://maps.google.com/?cid=0x0:0x113f26f2671e61ee,
supermarket,Toko bahan makanan,Kios Resky,"44H7+R7P, Inalahi, Kec. Wawotobi, Kabupaten Konawe, Sulawesi Tenggara 93461","Inalahi, Kec. Wawotobi, Kabupaten Konawe",SULAWESI TENGGARA,93461.0,Indonesia,,,,-3.870408,122.113196,https://maps.google.com/?cid=0x0:0xa5bafc2fb074b782,
supermarket,Toko umum,Toko ARIQSA,"7X3W+9C7, Nambeaboru, Kec. Tongauna, Kabupaten Konawe, Sulawesi Tenggara 93461","Nambeaboru, Kec. Tongauna, Kabupaten Konawe",SULAWESI TENGGARA,93461.0,Indonesia,,,,-3.7465953,121.9960511,https://maps.google.com/?cid=0x0:0x485728d98308241a,
supermarket,Pusat Perbelanjaan,Faqhrusy Minimart,"Faqhrusy Minimart Rt/rw 02/02, Jl. Poros Jl. Poros Unaaha, Sambeani, Abuki, Kabupatan konawe, South East Sulawesi 93452","Jl. Poros Jl. Poros Unaaha, Sambeani, Abuki, Kabupatan konawe",SULAWESI TENGGARA,93452.0,Indonesia, 081241287800,,,-3.7564317,121.924364,https://maps.google.com/?cid=0x0:0xcbb8761749f20e12,
supermarket,Toko bahan makanan,Hulu mart,"42VJ+C22, Jl. Haluoleo, Puosu, Kec. Tongauna, Kabupaten Konawe, Sulawesi Tenggara 93460","Jl. Haluoleo, Puosu, Kec. Tongauna, Kabupaten Konawe",SULAWESI TENGGARA,93460.0,Indonesia, 085240319809,,,-3.8564945,122.0300262,https://maps.google.com/?cid=0x0:0x4c8b448118ab043f,
supermarket,Pasar,Alfayed Swalayan,"P222+QWR, Jl. Poros Lapai - Malili, Beringin, Kec. Ngapa, Kabupaten Kolaka Utara, Sulawesi Tenggara 93958","Jl. Poros Lapai - Malili, Beringin, Kec. Ngapa, Kabupaten Kolaka Utara",SULAWESI TENGGARA,93958.0,Indonesia,,,,-3.298023,121.0022604,https://maps.google.com/?cid=0x0:0xebe72d5e30efbab9,
supermarket,Pusat Perbelanjaan,Alaska Supermarket,"WHVX+4PW, Lamokato, Kec. Kolaka, Kabupaten Kolaka, Sulawesi Tenggara","Kabupaten Kolaka, Sulawesi Tenggara",SULAWESI TENGGARA,,Indonesia,,,,-4.0571371,121.599325,https://maps.google.com/?cid=0x0:0xc0dcc174e4651626,
supermarket,Minimarket,Alfamidi Tuoy,"43JH+C9H, Jl. Jend Sudirman, Tuoy, Kec. Unaaha, Kabupaten Konawe, Sulawesi Tenggara 93415","Jl. Jend Sudirman, Tuoy, Kec. Unaaha, Kabupaten Konawe",SULAWESI TENGGARA,93415.0,Indonesia,,,,-3.8689304,122.0784748,https://maps.google.com/?cid=0x0:0x396d57e8acc85e84,
supermarket,Minimarket,Ade Swalayan,"Jl. Jenderal M.t. Haryono, Wowawanggu, Kec. Kadia, Kota Kendari, Sulawesi Tenggara 93117","Wowawanggu, Kec. Kadia, Kota Kendari",SULAWESI TENGGARA,93117.0,Indonesia, 04013190888,,,-3.9912288,122.5088802,https://maps.google.com/?cid=0x0:0x97b25e422926c769,
supermarket,Toko Swalayan,ALFAMIDI UEPAI,"33R8+9CP, Jl. Kendari - Kolaka, Uepai, Kec. Uepai, Kabupaten Konawe, Sulawesi Tenggara 93415","Jl. Kendari - Kolaka, Uepai, Kec. Uepai, Kabupaten Konawe",SULAWESI TENGGARA,93415.0,Indonesia, 082127907294,,,-3.9090375,122.0660934,https://maps.google.com/?cid=0x0:0xd0988051f4872e39,
supermarket,Toko bahan makanan,Kios Kharisma 03,"25QG+CPQ, Unnamed Road, Wawosolo, Kec. Wonggeduku, Kabupaten Konawe, Sulawesi Tenggara 93463","Unnamed Road, Wawosolo, Kec. Wonggeduku, Kabupaten Konawe",SULAWESI TENGGARA,93463.0,Indonesia, 082193132212,,,-3.961423,122.1768459,https://maps.google.com/?cid=0x0:0x80694602f0a5d6c9,
supermarket,Kios,KIOS FAUZAN,"44Q5+FG3, Kulahi, Kec. Wawotobi, Kabupaten Konawe, Sulawesi Tenggara 93461","Kulahi, Kec. Wawotobi, Kabupaten Konawe",SULAWESI TENGGARA,93461.0,Indonesia,,,,-3.8613611,122.1087821,https://maps.google.com/?cid=0x0:0xc4a889035c58188c,
supermarket,Pusat Perbelanjaan,Aldo Mart,"Tahoa, Kec. Kolaka, Kabupaten Kolaka, Sulawesi Tenggara 93561","Kec. Kolaka, Kabupaten Kolaka",SULAWESI TENGGARA,93561.0,Indonesia,,,,-4.0736049,121.6257723,https://maps.google.com/?cid=0x0:0xe48b88d992fb250d,
supermarket,Toko bahan makanan,Sinar Amali,"Mataiwoi, Kec. Ngapa, Kabupaten Kolaka Utara, Sulawesi Tenggara","Kabupaten Kolaka Utara, Sulawesi Tenggara",SULAWESI TENGGARA,,Indonesia,,,,-3.2791844,121.0404114,https://maps.google.com/?cid=0x0:0x7a16a04cd05d700c,
supermarket,Toko,KIOS WIDYA,"44WG+268, Palarahi, Kec. Wawotobi, Kabupaten Konawe, Sulawesi Tenggara 93461","Palarahi, Kec. Wawotobi, Kabupaten Konawe",SULAWESI TENGGARA,93461.0,Indonesia,,,,-3.8549698,122.1255657,https://maps.google.com/?cid=0x0:0x70251413072fd5d0,
supermarket,Kios,Toko Sri Tani Wia Wia,"panca utama sari, Dusun 2 blok D, Wia-Wia, Kec. Poli-Polia, Kabupaten Kolaka Timur, Sulawesi Tenggara 93579","Dusun 2 blok D, Wia-Wia, Kec. Poli-Polia, Kabupaten Kolaka Timur",SULAWESI TENGGARA,93579.0,Indonesia, 082245055503,,,-4.2038988,121.9153358,https://maps.google.com/?cid=0x0:0x6dbb69a0376c9bd8,
supermarket,Kios,Kios ABDILLAH,"3CQM+M5P, Jl. Poros Pohara - Laosu, Puuruy, Kec. Bondoala, Kabupaten Konawe, Sulawesi Tenggara 93354","Jl. Poros Pohara - Laosu, Puuruy, Kec. Bondoala, Kabupaten Konawe",SULAWESI TENGGARA,93354.0,Indonesia,,,,-3.9107836,122.4329668,https://maps.google.com/?cid=0x0:0x76238be713aa218f,
supermarket,Minimarket,Toko Anugrah,"Jln Bung Tomo No.14, Ranoeya, Kec. Wawotobi, Kabupaten Konawe, Sulawesi Tenggara 93461","Ranoeya, Kec. Wawotobi, Kabupaten Konawe",SULAWESI TENGGARA,93461.0,Indonesia,,,,-3.8942203,122.1289799,https://maps.google.com/?cid=0x0:0xdf3f5e98ab442e4a,
supermarket,,Toko dana wajo,"Jl. Ppabri No.2, Wawotobi, Kec. Wawotobi, Kota wawotobi, Sulawesi Tenggara 93461","Wawotobi, Kec. Wawotobi, Kota wawotobi",SULAWESI TENGGARA,93461.0,Indonesia, 082192183541,,,-3.8768446,122.1100782,https://maps.google.com/?cid=0x0:0x62b0e1be7712a70f,
supermarket,Toko,Pasar Mowewe,"2PPM+XP2, Inebenggi, Mowewe, Kabupaten Kolaka, Sulawesi Tenggara 93518","Inebenggi, Mowewe, Kabupaten Kolaka",SULAWESI TENGGARA,93518.0,Indonesia,,,,-3.9626166,121.7342765,https://maps.google.com/?cid=0x0:0x3f2b3eb9a4738ad3,
supermarket,Toko bahan makanan,Wundulako Mart,"Wundulako, Kec. Wundulako, Kabupaten Kolaka, Sulawesi Tenggara 93561","Kec. Wundulako, Kabupaten Kolaka",SULAWESI TENGGARA,93561.0,Indonesia, 085242005962,,,-4.1090918,121.6764493,https://maps.google.com/?cid=0x0:0x13233e2052a137a4,
supermarket,Rumah Makan,Kedai Damai,"Jalan Poros, Solewatu, Uluiwoi, Kabupaten Kolaka Timur, Sulawesi Tenggara 93571","Solewatu, Uluiwoi, Kabupaten Kolaka Timur",SULAWESI TENGGARA,93571.0,Indonesia, 085338589783,,,-3.9346362,121.7539855,https://maps.google.com/?cid=0x0:0x2e722ae4476ce56a,
supermarket,Toko bahan makanan,Najwa mart,"PX3X+5CF, Lahabaru, Kec. Watunohu, Kabupaten Kolaka Utara, Sulawesi Tenggara 93958","Lahabaru, Kec. Watunohu, Kabupaten Kolaka Utara",SULAWESI TENGGARA,93958.0,Indonesia,,,,-3.2970653,120.9985474,https://maps.google.com/?cid=0x0:0x3f1a1e42367bac16,
supermarket,Pusat Perbelanjaan,Toko Telle Indah,"JW8C+XRG, Delang-Delang, Kec. Kodeoha, Kabupaten Kolaka Utara, Sulawesi Tenggara 93957","Delang-Delang, Kec. Kodeoha, Kabupaten Kolaka Utara",SULAWESI TENGGARA,93957.0,Indonesia, 082292030863,,,-3.3825711,120.9220857,https://maps.google.com/?cid=0x0:0x69c0d751ca089c5,
supermarket,Toko umum,Toko Ayska,"2PPJ+FM3, Unnamed Road, Inebenggi, Mowewe, Kabupaten Kolaka Timur, Sulawesi Tenggara 93518","Unnamed Road, Inebenggi, Mowewe, Kabupaten Kolaka Timur",SULAWESI TENGGARA,93518.0,Indonesia, 082292908117,,,-3.9638515,121.7316751,https://maps.google.com/?cid=0x0:0x9795ccebb4e4dbb8,
