Category,Real Category,Business Name,Address,City,State,Postal Code,Country,Phone,Email,Website,Latitude,Longitude,Map Link,Details Link
komplek housing,komplek housing,Ladongi,"Ladongi, Kec. Ladongi, Kabupaten Kolaka Timur, Sulawesi Tenggara","Kabupaten Kolaka Timur, Sulawesi Tenggara",SULAWESI TENGGARA,,Indonesia,,,,-4.142409,121.901901,https://maps.google.com/?cid=0x0:0xf976c8583833e88d,
komplek housing,Perhimpunan Pengembang Perumahan,TPEMUKIMAN,"VW52+2QJ, Jl Taman Siswa, Ladongi, Kec. Ladongi, Kabupaten Kolaka Timur, Sulawesi Tenggara","Kabupaten Kolaka Timur, Sulawesi Tenggara",SULAWESI TENGGARA,,Indonesia, 085298691568,,,-4.142409,121.901901,https://maps.google.com/?cid=0x0:0x5455c86b688c85da,
komplek housing,Perumahan,ISTANA KU,"VW52+2QJ, Jl Taman Siswa, Ladongi, Kec. Ladongi, Kabupaten Kolaka Timur, Sulawesi Tenggara 93573","Jl Taman Siswa, Ladongi, Kec. Ladongi, Kabupaten Kolaka Timur",SULAWESI TENGGARA,93573.0,Indonesia, 085298691568,,,-4.142409,121.901901,https://maps.google.com/?cid=0x0:0x903cc98b211d55cc,
komplek housing,Perumahan,Home Gusti Kusuma,"VW58+592, Atula, Kec. Ladongi, Kabupaten Kolaka Timur, Sulawesi Tenggara 93573","Atula, Kec. Ladongi, Kabupaten Kolaka Timur",SULAWESI TENGGARA,93573.0,Indonesia,,,,-4.1531558,121.9150536,https://maps.google.com/?cid=0x0:0x86a8e4e021477395,
komplek housing,komplek housing,Kec. Lalolae,"Kabupaten Kolaka Timur, Sulawesi Tenggara","Kabupaten Kolaka Timur, Sulawesi Tenggara",SULAWESI TENGGARA,,Indonesia,,,,-4.0256541,121.7842582,https://maps.google.com/?cid=0x0:0x16745ece4e90ef2b,
komplek housing,Komplek perumahan,Galang home,"XQFM+V4V, Jl. Poros Kolaka - Rate-rate, Lalolae, Kec. Lalolae, Kabupaten Kolaka Timur, Sulawesi Tenggara 93571","Jl. Poros Kolaka - Rate-rate, Lalolae, Kec. Lalolae, Kabupaten Kolaka Timur",SULAWESI TENGGARA,93571.0,Indonesia,,,,-4.0252373,121.7830097,https://maps.google.com/?cid=0x0:0x131a2b8b4aa4ef9c,
komplek housing,Komplek perumahan,Ivha HOME,"XQFM+W2G, Depan lapangan lappabuka Jl. Poros Kolaka - Rate-rate, Lalolae, Kec. Lalolae, Kabupaten Kolaka Timur, Sulawesi Tenggara 93571","Depan lapangan lappabuka Jl. Poros Kolaka - Rate-rate, Lalolae, Kec. Lalolae, Kabupaten Kolaka Timur",SULAWESI TENGGARA,93571.0,Indonesia,,,,-4.0251918,121.7825836,https://maps.google.com/?cid=0x0:0xd76f032d78213284,
komplek housing,Kompleks Apartemen,Lorong molioka,"XQCM+4V, Lalolae, Kec. Lalolae, Kabupaten Kolaka, Sulawesi Tenggara","Kabupaten Kolaka, Sulawesi Tenggara",SULAWESI TENGGARA,,Indonesia,,,,-4.029745,121.7846663,https://maps.google.com/?cid=0x0:0xc8fd0d41ae20d3e8,
komplek housing,Komplek perumahan,Rumah Bana,"XQFM+PPJ, Lalolae, Kec. Lalolae, Kabupaten Kolaka Timur, Sulawesi Tenggara","Kabupaten Kolaka Timur, Sulawesi Tenggara",SULAWESI TENGGARA,,Indonesia,,,,-4.0256541,121.7842582,https://maps.google.com/?cid=0x0:0xcdfad19dd86473d5,
komplek housing,komplek housing,Rumah Razka,"XR8H+V5X, Dusun I Iwoimesiu, Talodo, Kec. Lalolae, Kabupaten Kolaka Timur, Sulawesi Tenggara","Kabupaten Kolaka Timur, Sulawesi Tenggara",SULAWESI TENGGARA,,Indonesia,,,,-4.0327644,121.8279877,https://maps.google.com/?cid=0x0:0x2766d7c73518ec76,
komplek housing,Komplek perumahan,"Asri Rahayu,S Home","XQPC+588, Jl. Poros Kendari - Mowila, Wesalo, Kec. Lalolae, Kabupaten Kolaka Timur, Sulawesi Tenggara 93571","Jl. Poros Kendari - Mowila, Wesalo, Kec. Lalolae, Kabupaten Kolaka Timur",SULAWESI TENGGARA,93571.0,Indonesia,,,,-4.014858,121.769536,https://maps.google.com/?cid=0x0:0x96cfa5a3496ca57c,
komplek housing,Kompleks Apartemen,Rumah sari,"XQGP+HC4, Lalolae, Kec. Lalolae, Kabupaten Kolaka, Sulawesi Tenggara","Kabupaten Kolaka, Sulawesi Tenggara",SULAWESI TENGGARA,,Indonesia,,,,-4.0236169,121.7860671,https://maps.google.com/?cid=0x0:0x9821947333f5cc05,
komplek housing,Komplek perumahan,green house keisio,"XQCX+7GW, Keisio, Kec. Lalolae, Kabupaten Kolaka, Sulawesi Tenggara","Kabupaten Kolaka, Sulawesi Tenggara",SULAWESI TENGGARA,,Indonesia,,,,-4.029256,121.7988136,https://maps.google.com/?cid=0x0:0x3e580be02b3b7591,
komplek housing,Pembangunan Perumahan,Rumah Kepala Dusun IV Lemo-Lemo,"2QCC+2H, Weamo, Kec. Tinondo, Kabupaten Kolaka Timur, Sulawesi Tenggara","Kabupaten Kolaka Timur, Sulawesi Tenggara",SULAWESI TENGGARA,,Indonesia,,,,-3.9799774,121.7714735,https://maps.google.com/?cid=0x0:0x3637ed22a450f25f,
komplek housing,Komplek perumahan,Kios Muh.habibie.bm,"XQHC+GHM, Jl. Poros Kolaka - Rate-rate, Wesalo, Kec. Lalolae, Kabupaten Kolaka, Sulawesi Tenggara 93571","Jl. Poros Kolaka - Rate-rate, Wesalo, Kec. Lalolae, Kabupaten Kolaka",SULAWESI TENGGARA,93571.0,Indonesia,,,,-4.0199143,121.77094,https://maps.google.com/?cid=0x0:0x1afd26b6faba90dc,
komplek housing,komplek housing,HOMEBES BABINSA LAPANGISI,"2P5P+X5Q, Lapangisi, Mowewe, Kabupaten Kolaka Timur, Sulawesi Tenggara 93519","Lapangisi, Mowewe, Kabupaten Kolaka Timur",SULAWESI TENGGARA,93519.0,Indonesia,,,,-3.9911947,121.7357858,https://maps.google.com/?cid=0x0:0x7b6e4374beff03c9,
komplek housing,Komplek perumahan,Rumah Mm arni,"XQFW+797, Keisio, Kec. Lalolae, Kabupaten Kolaka Timur, Sulawesi Tenggara","Kabupaten Kolaka Timur, Sulawesi Tenggara",SULAWESI TENGGARA,,Indonesia,,,,-4.026847,121.795935,https://maps.google.com/?cid=0x0:0xde450f7758d3eebe,
komplek housing,Pembangunan Perumahan,RUTIN/Kadis 1(wekara kaya),"Jl. Pendidikan No.1, Lapangisi, Mowewe, Kabupaten Kolaka Timur, Sulawesi Tenggara 93571","Lapangisi, Mowewe, Kabupaten Kolaka Timur",SULAWESI TENGGARA,93571.0,Indonesia,,,,-3.9887331,121.7378407,https://maps.google.com/?cid=0x0:0xcbc458676cea3f4f,
komplek housing,Komplek perumahan,Horodopi,"2P5V+PF7, Horodopi, Mowewe, Kabupaten Kolaka Timur, Sulawesi Tenggara 93519","Horodopi, Mowewe, Kabupaten Kolaka Timur",SULAWESI TENGGARA,93519.0,Indonesia,,,,-3.991519,121.744373,https://maps.google.com/?cid=0x0:0x26feac0bf802c7ac,
komplek housing,Komplek perumahan,Kios Hendra,"XQHC+GHM, Jl. Poros Kolaka - Rate-rate, Wesalo, Kec. Lalolae, Kabupaten Kolaka, Sulawesi Tenggara 93571","Jl. Poros Kolaka - Rate-rate, Wesalo, Kec. Lalolae, Kabupaten Kolaka",SULAWESI TENGGARA,93571.0,Indonesia,,,,-4.0199143,121.77094,https://maps.google.com/?cid=0x0:0x7fc98a6b698953eb,
komplek housing,Komplek perumahan,KOMPLEKS SEGI 3 PERMAI,"2P5V+VHJ, Horodopi, Mowewe, Kabupaten Kolaka Timur, Sulawesi Tenggara 93519","Horodopi, Mowewe, Kabupaten Kolaka Timur",SULAWESI TENGGARA,93519.0,Indonesia,,,,-3.990294,121.7438956,https://maps.google.com/?cid=0x0:0x931980a620b8e703,
komplek housing,Kompleks Apartemen,Kampung kelengkeng,"2Q54+WW5, Watupute, Mowewe, Kabupaten Kolaka Timur, Sulawesi Tenggara","Kabupaten Kolaka Timur, Sulawesi Tenggara",SULAWESI TENGGARA,,Indonesia,,,,-3.9902292,121.757365,https://maps.google.com/?cid=0x0:0xc54540b78b1a041d,
komplek housing,Pembangunan Perumahan,Irfan,"2P2W+F3W, Horodopi, Mowewe, Kabupaten Kolaka Timur, Sulawesi Tenggara","Kabupaten Kolaka Timur, Sulawesi Tenggara",SULAWESI TENGGARA,,Indonesia,,,,-3.9987515,121.7451927,https://maps.google.com/?cid=0x0:0xe459381fa0c8a79d,
komplek housing,Pembangunan Perumahan,Widya Ningsih (HOUSE),"2P6V+CVJ, Watupute, Mowewe, Kabupaten Kolaka Timur, Sulawesi Tenggara 93519","Watupute, Mowewe, Kabupaten Kolaka Timur",SULAWESI TENGGARA,93519.0,Indonesia,,,,-3.9879738,121.7448077,https://maps.google.com/?cid=0x0:0x49a28eb7016cf1ed,
komplek housing,Komplek perumahan,rumah maikal,"XQFM+PPJ, Lalolae, Kec. Lalolae, Kabupaten Kolaka Timur, Sulawesi Tenggara","Kabupaten Kolaka Timur, Sulawesi Tenggara",SULAWESI TENGGARA,,Indonesia,,,,-4.0261688,121.784272,https://maps.google.com/?cid=0x0:0x42a1b9d38cdb80bc,
komplek housing,Vila,Rumah dilan,"PW24+C35, Penanggoosi, Kec. Lambandia, Kabupaten Kolaka Timur, Sulawesi Tenggara 93573","Penanggoosi, Kec. Lambandia, Kabupaten Kolaka Timur",SULAWESI TENGGARA,93573.0,Indonesia, 082290103600,,,-4.298998,121.9052249,https://maps.google.com/?cid=0x0:0x33242366361b3f4b,
komplek housing,Bed >>u0026 Breakfast,Rumahnya Risal,"MWX2+W8W, Penanggoosi, Kec. Lambandia, Kabupaten Kolaka Timur, Sulawesi Tenggara","Kabupaten Kolaka Timur, Sulawesi Tenggara",SULAWESI TENGGARA,,Indonesia,,,,-4.3001327,121.9008278,https://maps.google.com/?cid=0x0:0xf3a6eb12ec928d24,
komplek housing,komplek housing,Lambandia,"Kec. Lambandia, Kabupaten Kolaka Timur, Sulawesi Tenggara","Kabupaten Kolaka Timur, Sulawesi Tenggara",SULAWESI TENGGARA,,Indonesia,,,,-4.2846446,121.918866,https://maps.google.com/?cid=0x0:0x2af5ac7223784fa8,
komplek housing,Warnet,zai Gaming House,"MWGJ+WRH, Jl. Poros Konsel - koltim, Mokupa, Kec. Lambandia, Kabupaten Kolaka Timur, Sulawesi Tenggara 93573","Jl. Poros Konsel - koltim, Mokupa, Kec. Lambandia, Kabupaten Kolaka Timur",SULAWESI TENGGARA,93573.0,Indonesia, 082292937447,,,-4.3215978,121.9326805,https://maps.google.com/?cid=0x0:0x5ce6406f12493bd1,
komplek housing,Komplek perumahan,Rumah kepala desa penanggoosi,"MWX2+FRH, Penanggoosi, Kec. Lambandia, Kabupaten Kolaka, Sulawesi Tenggara 93573","Penanggoosi, Kec. Lambandia, Kabupaten Kolaka",SULAWESI TENGGARA,93573.0,Indonesia,,,,-4.3013099,121.9020961,https://maps.google.com/?cid=0x0:0xa5567ee1c04c67ae,
komplek housing,Komplek perumahan,Toxsz,"MWWF+VQJ, Penanggo Jaya, Kec. Lambandia, Kabupaten Kolaka Timur, Sulawesi Tenggara 93573","Penanggo Jaya, Kec. Lambandia, Kabupaten Kolaka Timur",SULAWESI TENGGARA,93573.0,Indonesia,,,,-4.3016752,121.924931,https://maps.google.com/?cid=0x0:0xf66893bc74753f2,
komplek housing,Pembangunan Perumahan,Wawan servis parabola,"MWVJ+WRH, Jalan Penanggo jaya, Simpang empat, Kec. Lambandia, Kabupaten Kolaka Timur, Sulawesi Tenggara 93573","Jalan Penanggo jaya, Simpang empat, Kec. Lambandia, Kabupaten Kolaka Timur",SULAWESI TENGGARA,93573.0,Indonesia, 085345672229,,,-4.3051885,121.932102,https://maps.google.com/?cid=0x0:0x6cca729befe65fe7,
komplek housing,Komplek perumahan,irwan,"MWVG+5J5, Penanggo Jaya, Kec. Lambandia, Kabupaten Kolaka Timur, Sulawesi Tenggara 93573","Penanggo Jaya, Kec. Lambandia, Kabupaten Kolaka Timur",SULAWESI TENGGARA,93573.0,Indonesia,,,,-4.3071248,121.9266095,https://maps.google.com/?cid=0x0:0xfc07064f6e95a97,
komplek housing,Pembangunan Perumahan,nna,"MWRF+VX5, Penanggo Jaya, Kec. Lambandia, Kabupaten Kolaka Timur, Sulawesi Tenggara 93573","Penanggo Jaya, Kec. Lambandia, Kabupaten Kolaka Timur",SULAWESI TENGGARA,93573.0,Indonesia,,,,-4.3078616,121.9249699,https://maps.google.com/?cid=0x0:0xf6c7947c3ea6ee34,
komplek housing,Taman,Desa Mondoke,"MWCJ+X89, Jl. Poros Konsel - koltim, Mokupa, Kec. Lambandia, Kabupaten Kolaka Timur, Sulawesi Tenggara 93573","Jl. Poros Konsel - koltim, Mokupa, Kec. Lambandia, Kabupaten Kolaka Timur",SULAWESI TENGGARA,93573.0,Indonesia,,,,-4.3275805,121.9308685,https://maps.google.com/?cid=0x0:0x796c2d007bf81035,
komplek housing,Komplek perumahan,hajriana hamzah,"MWRF+PX2, Penanggo Jaya, Kec. Lambandia, Kabupaten Kolaka Timur, Sulawesi Tenggara 93573","Penanggo Jaya, Kec. Lambandia, Kabupaten Kolaka Timur",SULAWESI TENGGARA,93573.0,Indonesia,,,,-4.3082473,121.9248999,https://maps.google.com/?cid=0x0:0xe7e088bc3bd7f4e2,
komplek housing,Kompleks Apartemen,Rumah ibu Har,"PXC4+H8R, Wonuambuteo, Kec. Lambandia, Kabupaten Kolaka Timur, Sulawesi Tenggara 93573","Wonuambuteo, Kec. Lambandia, Kabupaten Kolaka Timur",SULAWESI TENGGARA,93573.0,Indonesia,,,,-4.2785248,121.9557668,https://maps.google.com/?cid=0x0:0x89137e2010039de3,
komplek housing,Komplek perumahan,Kepala Dusun I Penanggoosi,"PW33+3RR, Penanggoosi, Kec. Lambandia, Kabupaten Kolaka Timur, Sulawesi Tenggara 93573","Penanggoosi, Kec. Lambandia, Kabupaten Kolaka Timur",SULAWESI TENGGARA,93573.0,Indonesia,,,,-4.2972526,121.9045031,https://maps.google.com/?cid=0x0:0x5c602b7e9f428c22,
komplek housing,Komplek perumahan,Rumah nya watri,"MWH2+C6V, Penanggoosi, Kec. Lambandia, Kabupaten Kolaka Timur, Sulawesi Tenggara 93573","Penanggoosi, Kec. Lambandia, Kabupaten Kolaka Timur",SULAWESI TENGGARA,93573.0,Indonesia,,,,-4.3215889,121.9006357,https://maps.google.com/?cid=0x0:0x79afdd5cf5af1675,
komplek housing,komplek housing,Kec. Loea,"Kabupaten Kolaka Timur, Sulawesi Tenggara","Kabupaten Kolaka Timur, Sulawesi Tenggara",SULAWESI TENGGARA,,Indonesia,,,,-4.0866248,121.8885897,https://maps.google.com/?cid=0x0:0x3416e72c1ead93b6,
komplek housing,Pembangunan Perumahan,Perumahan. Putri Aulia Residence,"WVXR+9RX, Rate-Rate, Kec. Tirawuta, Kabupaten Kolaka Timur, Sulawesi Tenggara 93572","Rate-Rate, Kec. Tirawuta, Kabupaten Kolaka Timur",SULAWESI TENGGARA,93572.0,Indonesia,,,,-4.0515022,121.8920975,https://maps.google.com/?cid=0x0:0x93c0eacc3db22115,
komplek housing,Komplek perumahan,Rumah Nurul zain,"WV8P+2H2, Loea, Kec. Loea, Kabupaten Kolaka, Sulawesi Tenggara 93572","Loea, Kec. Loea, Kabupaten Kolaka",SULAWESI TENGGARA,93572.0,Indonesia,,,,-4.084131,121.886235,https://maps.google.com/?cid=0x0:0xbc25a709fa646d20,
komplek housing,Pembangunan Perumahan,Rmh Panel,"WV2Q+7C3, Teposua, Kec. Loea, Kabupaten Kolaka Timur, Sulawesi Tenggara","Kabupaten Kolaka Timur, Sulawesi Tenggara",SULAWESI TENGGARA,,Indonesia,,,,-4.100174,121.888906,https://maps.google.com/?cid=0x0:0x9357dcc9baab49e0,
komplek housing,Komplek perumahan,Serly ayu,"WVCM+3RG, Loea, Kec. Loea, Kabupaten Kolaka, Sulawesi Tenggara 93572","Loea, Kec. Loea, Kabupaten Kolaka",SULAWESI TENGGARA,93572.0,Indonesia,,,,-4.0798127,121.8845724,https://maps.google.com/?cid=0x0:0x1bc875f2eb6ec78,
komplek housing,Komplek perumahan,Lamoare,"WV4R+342, Lamoare, Kec. Loea, Kabupaten Kolaka Timur, Sulawesi Tenggara 93572","Lamoare, Kec. Loea, Kabupaten Kolaka Timur",SULAWESI TENGGARA,93572.0,Indonesia,,,,-4.0944971,121.8908386,https://maps.google.com/?cid=0x0:0x4ef75d440b86d442,
komplek housing,Komplek perumahan,Kadek Indria Rahayu,"WV7Q+8CJ, Loea, Kec. Loea, Kabupaten Kolaka Timur, Sulawesi Tenggara","Kabupaten Kolaka Timur, Sulawesi Tenggara",SULAWESI TENGGARA,,Indonesia,,,,-4.0866741,121.8885246,https://maps.google.com/?cid=0x0:0xdc77a6cbfe7e19af,
komplek housing,Perhimpunan Pengembang Perumahan,Home DEN,"VVMR+J8V, Putemata, Kec. Ladongi, Kabupaten Kolaka Timur, Sulawesi Tenggara","Kabupaten Kolaka Timur, Sulawesi Tenggara",SULAWESI TENGGARA,,Indonesia,,,,-4.1158936,121.8908122,https://maps.google.com/?cid=0x0:0x44903e36f8a79540,
komplek housing,Komplek perumahan,Rumah Ferdyy,"VVXP+GMQ, Teposua, Kec. Loea, Kabupaten Kolaka, Sulawesi Tenggara","Kabupaten Kolaka, Sulawesi Tenggara",SULAWESI TENGGARA,,Indonesia,,,,-4.1011693,121.8867438,https://maps.google.com/?cid=0x0:0xfe2f1ffbe41eb7ff,
komplek housing,Komplek perumahan,caca,"WV2R+MW4, Lamoare, Kec. Loea, Kabupaten Kolaka Timur, Sulawesi Tenggara","Kabupaten Kolaka Timur, Sulawesi Tenggara",SULAWESI TENGGARA,,Indonesia,,,,-4.0983625,121.8923281,https://maps.google.com/?cid=0x0:0x4e65442217eccfe,
komplek housing,Komplek perumahan,Ongki saputra,"WV4P+RQ, Mataiwoi, Kec. Loea, Kabupaten Kolaka Timur, Sulawesi Tenggara 93572","Mataiwoi, Kec. Loea, Kabupaten Kolaka Timur",SULAWESI TENGGARA,93572.0,Indonesia,,,,-4.0929548,121.8873205,https://maps.google.com/?cid=0x0:0x767a21ac1853a7a0,
komplek housing,Komplek perumahan,Rumah Dwi,"WV2V+XHH, Lamoare, Kec. Loea, Kabupaten Kolaka Timur, Sulawesi Tenggara 93572","Lamoare, Kec. Loea, Kabupaten Kolaka Timur",SULAWESI TENGGARA,93572.0,Indonesia,,,,-4.0975597,121.8939925,https://maps.google.com/?cid=0x0:0xd6c158035280e85a,
komplek housing,Perumahan,Perumahan Tasahea Tababu,"WVXR+727, Keurahan, Tababu, Kec. Tirawuta, Kabupaten Kolaka Timur, Sulawesi Tenggara","Kabupaten Kolaka Timur, Sulawesi Tenggara",SULAWESI TENGGARA,,Indonesia,,,,-4.0518273,121.8900446,https://maps.google.com/?cid=0x0:0x1d43218a24aa17bc,
komplek housing,Kios,Kios ningrat,"WV3Q+2W, Lamoare, Kec. Loea, Kabupaten Kolaka, Sulawesi Tenggara 93572","Lamoare, Kec. Loea, Kabupaten Kolaka",SULAWESI TENGGARA,93572.0,Indonesia,,,,-4.0974015,121.8898612,https://maps.google.com/?cid=0x0:0xe6ce536f7a9fdaf3,
komplek housing,Komplek perumahan,HAFIZ-HISYAM ABDILLAH,"WW83+HV6, Unnamed Road, Lalowura, Kec. Loea, Kabupaten Kolaka Timur, Sulawesi Tenggara 93572","Unnamed Road, Lalowura, Kec. Loea, Kabupaten Kolaka Timur",SULAWESI TENGGARA,93572.0,Indonesia,,,,-4.0835872,121.9046315,https://maps.google.com/?cid=0x0:0xb6a8e69480f4d5ed,
komplek housing,Komplek perumahan,Green House Rhykor,"VVXW+742, Jl. Poros, Putemata, Kec. Ladongi, Kabupaten Kolaka Timur, Sulawesi Tenggara 93572","Jl. Poros, Putemata, Kec. Ladongi, Kabupaten Kolaka Timur",SULAWESI TENGGARA,93572.0,Indonesia,,,,-4.1029288,121.8958375,https://maps.google.com/?cid=0x0:0xa2a102b7772ee758,
komplek housing,Komplek perumahan,Nengah prayo park,"VVXV+8FR, Jl. Poros, Putemata, Kec. Ladongi, Kabupaten Kolaka Timur, Sulawesi Tenggara 93572","Jl. Poros, Putemata, Kec. Ladongi, Kabupaten Kolaka Timur",SULAWESI TENGGARA,93572.0,Indonesia,,,,-4.1016499,121.8936476,https://maps.google.com/?cid=0x0:0x7796cb68b64d7e68,
komplek housing,Kantor Perusahaan,Gede,"VWQ3+J2, Lalowosula, Kec. Ladongi, Kabupaten Kolaka Timur, Sulawesi Tenggara","Kabupaten Kolaka Timur, Sulawesi Tenggara",SULAWESI TENGGARA,,Indonesia,,,,-4.1109594,121.9025249,https://maps.google.com/?cid=0x0:0x1c0e4735f3bc0e5b,
komplek housing,Pembangunan Perumahan,Made Ariana,"WV3P+45C jlan Enau, Jl. Blk. E, Mataiwoi, Kec. Loea, Kabupaten Kolaka Timur, Sulawesi Tenggara 93572","Jl. Blk. E, Mataiwoi, Kec. Loea, Kabupaten Kolaka Timur",SULAWESI TENGGARA,93572.0,Indonesia, 082236968940,,,-4.0971916,121.885396,https://maps.google.com/?cid=0x0:0x187a03738908117,
komplek housing,Komplek perumahan,RUMAH PAK AMRUN,"WV8M+XWW, Loea, Kec. Loea, Kabupaten Kolaka Timur, Sulawesi Tenggara","Kabupaten Kolaka Timur, Sulawesi Tenggara",SULAWESI TENGGARA,,Indonesia,,,,-4.0825194,121.8848274,https://maps.google.com/?cid=0x0:0x8a2fea42668e5242,
komplek housing,Perumahan,Rumah pak gusti,"WV4P+J5X, Jl. Blk. D, Mataiwoi, Kec. Loea, Kabupaten Kolaka Timur, Sulawesi Tenggara 93572","Jl. Blk. D, Mataiwoi, Kec. Loea, Kabupaten Kolaka Timur",SULAWESI TENGGARA,93572.0,Indonesia,,,,-4.0933761,121.8854769,https://maps.google.com/?cid=0x0:0xeab393a483191422,
komplek housing,Komplek perumahan,rumah Ahmed nur,"WW83+HV6, Lalowura, Kec. Loea, Kabupaten Kolaka Timur, Sulawesi Tenggara 93572","Lalowura, Kec. Loea, Kabupaten Kolaka Timur",SULAWESI TENGGARA,93572.0,Indonesia,,,,-4.0833374,121.9035492,https://maps.google.com/?cid=0x0:0x4819a1226d6be55b,
komplek housing,Komplek perumahan,Rumah Pak Wayan Winaya,"WV2Q+7C3, Teposua, Kec. Loea, Kabupaten Kolaka Timur, Sulawesi Tenggara","Kabupaten Kolaka Timur, Sulawesi Tenggara",SULAWESI TENGGARA,,Indonesia,,,,-4.0988914,121.8890924,https://maps.google.com/?cid=0x0:0x325f9e255afcbbc0,
komplek housing,Komplek perumahan,Pondok Gede Housing II,"Housing II, Jl. Raya Hankam, RT.001/RW.004, Jatirahayu, Pondok Gede, Bekasi, West Java","Kota Bks, Jawa Barat",SULAWESI TENGGARA,,Indonesia,,,,-6.2876701,106.9147674,https://maps.google.com/?cid=0x0:0x2a52e601c20d18f2,
komplek housing,Komplek perumahan,Komplek Raya Housing (Molek) Blok L3 - ZAIA,"Komplek Raya Housing (Molek No.3 Blok-L, RT.005/RW.011, Jatiwaringin, Kec. Pd. Gede, Kota Bks, Jawa Barat 17411","RT.005/RW.011, Jatiwaringin, Kec. Pd. Gede, Kota Bks",SULAWESI TENGGARA,17411.0,Indonesia,,,,-6.2791346,106.9098178,https://maps.google.com/?cid=0x0:0x70e05a91fbc23a92,
komplek housing,Komplek perumahan,Pondok gede housing,"PW69+G7J, Jl. Teratai, RT.005/RW.003, Jatirahayu, Kec. Pd. Melati, Kota Bks, Jawa Barat 17414","Jl. Teratai, RT.005/RW.003, Jatirahayu, Kec. Pd. Melati, Kota Bks",SULAWESI TENGGARA,17414.0,Indonesia,,,,-6.2886631,106.9181392,https://maps.google.com/?cid=0x0:0xe09247830c5049e9,
komplek housing,Komplek perumahan,Komplek Raya Housing Blok O,"PWC5+FRJ, RT.005/RW.011, Jatiwaringin, Kec. Pd. Gede, Kota Bks, Jawa Barat 17411","RT.005/RW.011, Jatiwaringin, Kec. Pd. Gede, Kota Bks",SULAWESI TENGGARA,17411.0,Indonesia,,,,-6.278778,106.9095098,https://maps.google.com/?cid=0x0:0xb8ccec3d47633fb4,
komplek housing,komplek housing,Mowewe,"Kabupaten Kolaka Timur, Sulawesi Tenggara","Kabupaten Kolaka Timur, Sulawesi Tenggara",SULAWESI TENGGARA,,Indonesia,,,,-3.962898,121.7081454,https://maps.google.com/?cid=0x0:0xdd1351df24135eeb,
komplek housing,Pembangunan Perumahan,Widya Ningsih (HOUSE),"2P6V+CVJ, Watupute, Mowewe, Kabupaten Kolaka Timur, Sulawesi Tenggara 93519","Watupute, Mowewe, Kabupaten Kolaka Timur",SULAWESI TENGGARA,93519.0,Indonesia,,,,-3.9879738,121.7448077,https://maps.google.com/?cid=0x0:0x49a28eb7016cf1ed,
komplek housing,Pembangunan Perumahan,Rumah Tower,"2PVM+WG7, Woitombo, Mowewe, Kabupaten Kolaka Timur, Sulawesi Tenggara","Kabupaten Kolaka Timur, Sulawesi Tenggara",SULAWESI TENGGARA,,Indonesia,,,,-3.9552018,121.7337949,https://maps.google.com/?cid=0x0:0xe1e7a2dc95169f45,
komplek housing,Komplek perumahan,Indar,"2Q92+J9R, Watupute, Mowewe, Kabupaten Kolaka Timur, Sulawesi Tenggara","Kabupaten Kolaka Timur, Sulawesi Tenggara",SULAWESI TENGGARA,,Indonesia,,,,-3.9808881,121.7508912,https://maps.google.com/?cid=0x0:0x9ea9fadb81424469,
komplek housing,Komplek perumahan,RUMAH UMNA,"2PFM+HH4, Inebenggi, Mowewe, Kabupaten Kolaka Timur, Sulawesi Tenggara 93519","Inebenggi, Mowewe, Kabupaten Kolaka Timur",SULAWESI TENGGARA,93519.0,Indonesia,,,,-3.9749376,121.7340192,https://maps.google.com/?cid=0x0:0x51bcdcf56e6ad9f1,
komplek housing,Komplek perumahan,Horodopi,"2P5V+PF7, Horodopi, Mowewe, Kabupaten Kolaka Timur, Sulawesi Tenggara 93519","Horodopi, Mowewe, Kabupaten Kolaka Timur",SULAWESI TENGGARA,93519.0,Indonesia,,,,-3.991519,121.744373,https://maps.google.com/?cid=0x0:0x26feac0bf802c7ac,
komplek housing,komplek housing,HOMEBES BABINSA LAPANGISI,"2P5P+X5Q, Lapangisi, Mowewe, Kabupaten Kolaka Timur, Sulawesi Tenggara 93519","Lapangisi, Mowewe, Kabupaten Kolaka Timur",SULAWESI TENGGARA,93519.0,Indonesia,,,,-3.9911947,121.7357858,https://maps.google.com/?cid=0x0:0x7b6e4374beff03c9,
komplek housing,Komplek perumahan,Rumah Athifah,"2P7W+V7R, Watupute, Mowewe, Kabupaten Kolaka Timur, Sulawesi Tenggara","Kabupaten Kolaka Timur, Sulawesi Tenggara",SULAWESI TENGGARA,,Indonesia,,,,-3.9852633,121.745627,https://maps.google.com/?cid=0x0:0x922be31095f95167,
komplek housing,komplek housing,Namira Home,"2M8W+2JX, Puuosu, Mowewe, Kabupaten Kolaka Timur, Sulawesi Tenggara","Kabupaten Kolaka Timur, Sulawesi Tenggara",SULAWESI TENGGARA,,Indonesia,,,,-3.9861413,121.6971861,https://maps.google.com/?cid=0x0:0xd3281debfaf2b894,
komplek housing,Komplek perumahan,Nilla Sari (House),"2P9P+95, Inebenggi, Mowewe, Kabupaten Kolaka Timur, Sulawesi Tenggara","Kabupaten Kolaka Timur, Sulawesi Tenggara",SULAWESI TENGGARA,,Indonesia,,,,-3.9815574,121.7354106,https://maps.google.com/?cid=0x0:0xdb9b9cfbb4a169ca,
komplek housing,Komplek perumahan,Muh. Fajar,"2PGJ+PHR, Inebenggi, Mowewe, Kabupaten Kolaka Timur, Sulawesi Tenggara","Kabupaten Kolaka Timur, Sulawesi Tenggara",SULAWESI TENGGARA,,Indonesia,,,,-3.9731385,121.731383,https://maps.google.com/?cid=0x0:0xa3a1208aa3aa0d72,
komplek housing,Komplek perumahan,Rumah Ajat,"2P6V+GV6, Watupute, Mowewe, Kabupaten Kolaka Timur, Sulawesi Tenggara","Kabupaten Kolaka Timur, Sulawesi Tenggara",SULAWESI TENGGARA,,Indonesia,,,,-3.9887063,121.744636,https://maps.google.com/?cid=0x0:0xa57ada7463440596,
komplek housing,Pembangunan Perumahan,Muh. Arsyad Musa Home,"2PMH+JV3, Woitombo, Mowewe, Kabupaten Kolaka Timur, Sulawesi Tenggara 93518","Woitombo, Mowewe, Kabupaten Kolaka Timur",SULAWESI TENGGARA,93518.0,Indonesia,,,,-3.9660074,121.7296019,https://maps.google.com/?cid=0x0:0x744954364b81ea1,
komplek housing,Komplek perumahan,Perumahan dinas babinsa,"2PH8+RCW, Puuosu, Mowewe, Kabupaten Kolaka Timur, Sulawesi Tenggara 93518","Puuosu, Mowewe, Kabupaten Kolaka Timur",SULAWESI TENGGARA,93518.0,Indonesia,,,,-3.9704488,121.7161632,https://maps.google.com/?cid=0x0:0xe2b9de46b9fdebdc,
komplek housing,komplek housing,Rumah Iqra,"2PFM+P9F, Jl. Abdul Madjid, Inebenggi, Mowewe, Kabupaten Kolaka Timur, Sulawesi Tenggara","Kabupaten Kolaka Timur, Sulawesi Tenggara",SULAWESI TENGGARA,,Indonesia,,,,-3.9756777,121.7334316,https://maps.google.com/?cid=0x0:0x59f15e01cb778525,
komplek housing,Komplek perumahan,Elisa home,"2M8W+2JX, Puuosu, Mowewe, Kabupaten Kolaka Timur, Sulawesi Tenggara","Kabupaten Kolaka Timur, Sulawesi Tenggara",SULAWESI TENGGARA,,Indonesia,,,,-3.9848927,121.6966054,https://maps.google.com/?cid=0x0:0x486d76b454cf74ab,
komplek housing,Pembangunan Perumahan,RUTIN/Kadis 1(wekara kaya),"Jl. Pendidikan No.1, Lapangisi, Mowewe, Kabupaten Kolaka Timur, Sulawesi Tenggara 93571","Lapangisi, Mowewe, Kabupaten Kolaka Timur",SULAWESI TENGGARA,93571.0,Indonesia,,,,-3.9887331,121.7378407,https://maps.google.com/?cid=0x0:0xcbc458676cea3f4f,
komplek housing,Komplek perumahan,RUMAH ARYA PRATAMA 027,"3P28+VXM, Nelombu, Mowewe, Kabupaten Kolaka Timur, Sulawesi Tenggara","Kabupaten Kolaka Timur, Sulawesi Tenggara",SULAWESI TENGGARA,,Indonesia,,,,-3.9477987,121.7174351,https://maps.google.com/?cid=0x0:0x10ec52c43418908,
komplek housing,komplek housing,Home Miya,"2PW8+J4, Nelombu, Mowewe, Kabupaten Kolaka Timur, Sulawesi Tenggara","Kabupaten Kolaka Timur, Sulawesi Tenggara",SULAWESI TENGGARA,,Indonesia,,,,-3.953401,121.7153068,https://maps.google.com/?cid=0x0:0xb312390f1a7c979b,
komplek housing,Komplek perumahan,UD. MERKASA WARGA (HASRUDDIN),"2PWC+7HC, Nelombu, Mowewe, Kabupaten Kolaka Timur, Sulawesi Tenggara 93518","Nelombu, Mowewe, Kabupaten Kolaka Timur",SULAWESI TENGGARA,93518.0,Indonesia,,,,-3.9539186,121.7214027,https://maps.google.com/?cid=0x0:0xe3dfda4a0ac936f2,
komplek housing,Kafe,BaseCamp ADT189,"Jl. Abdul Madjid, Lapangisi, Mowewe, Kabupaten Kolaka, Sulawesi Tenggara 93519","Lapangisi, Mowewe, Kabupaten Kolaka",SULAWESI TENGGARA,93519.0,Indonesia, 081311265324,,,-3.9871928,121.7374388,https://maps.google.com/?cid=0x0:0x3b1af11ce8768614,
komplek housing,komplek housing,Kec. Poli-Polia,"Kabupaten Kolaka Timur, Sulawesi Tenggara","Kabupaten Kolaka Timur, Sulawesi Tenggara",SULAWESI TENGGARA,,Indonesia,,,,-4.207678,121.9022668,https://maps.google.com/?cid=0x0:0x15d99ec13666ac9c,
komplek housing,komplek housing,Sulawesi Tenggara 93573,"Kabupaten Kolaka, Sulawesi Tenggara","Kabupaten Kolaka, Sulawesi Tenggara",SULAWESI TENGGARA,,Indonesia,,,,-4.2654072,121.856261,https://maps.google.com/?cid=0x0:0xeafafa5d78b5c179,
komplek housing,Perhimpunan Pengembang Perumahan,Rumah Fahri,"QWR2+V66, Taosu, Kec. Poli-Polia, Kabupaten Kolaka Timur, Sulawesi Tenggara 93573","Taosu, Kec. Poli-Polia, Kabupaten Kolaka Timur",SULAWESI TENGGARA,93573.0,Indonesia,,,,-4.2078327,121.900525,https://maps.google.com/?cid=0x0:0xfbef9576f8b711b7,
komplek housing,Perumahan,PAK DELLA,"QWW6+JQC, Wia-Wia, Kec. Poli-Polia, Kabupaten Kolaka Timur, Sulawesi Tenggara 93573","Wia-Wia, Kec. Poli-Polia, Kabupaten Kolaka Timur",SULAWESI TENGGARA,93573.0,Indonesia,,,,-4.2034411,121.9118875,https://maps.google.com/?cid=0x0:0xa44216d7165152d9,
komplek housing,Pembangunan Perumahan,"Perempatan Blok J, Rambutan","QWC2+RPM, Tokai, Kec. Poli-Polia, Kabupaten Kolaka Timur, Sulawesi Tenggara","Kabupaten Kolaka Timur, Sulawesi Tenggara",SULAWESI TENGGARA,,Indonesia,,,,-4.2279225,121.9017954,https://maps.google.com/?cid=0x0:0x326534007a3f7cd7,
komplek housing,Komplek perumahan,Lorong tokai,"QV5F+X8, Andowengga, Kec. Poli-Polia, Kabupaten Kolaka Timur, Sulawesi Tenggara","Kabupaten Kolaka Timur, Sulawesi Tenggara",SULAWESI TENGGARA,,Indonesia,,,,-4.239731,121.873184,https://maps.google.com/?cid=0x0:0x51530e4b25041f95,
komplek housing,Komplek perumahan,Rumah halim fauzan,"QVVX+G4H, Taosu, Kec. Poli-Polia, Kabupaten Kolaka Timur, Sulawesi Tenggara 93573","Taosu, Kec. Poli-Polia, Kabupaten Kolaka Timur",SULAWESI TENGGARA,93573.0,Indonesia,,,,-4.2061769,121.8978559,https://maps.google.com/?cid=0x0:0xd9b7528d003d3d02,
komplek housing,Komplek perumahan,SASTRA,"QWR9+QF6, Wia-Wia, Kec. Poli-Polia, Kabupaten Kolaka Timur, Sulawesi Tenggara 93573","Wia-Wia, Kec. Poli-Polia, Kabupaten Kolaka Timur",SULAWESI TENGGARA,93573.0,Indonesia,,,,-4.208236,121.9188489,https://maps.google.com/?cid=0x0:0x220176c66aad9883,
komplek housing,,Rumah rahma (bule),"QWCR+MJR, Dusun 3, Polenga Jaya, Kec. Poli-Polia, Kabupaten Kolaka Timur, Sulawesi Tenggara 93573","Dusun 3, Polenga Jaya, Kec. Poli-Polia, Kabupaten Kolaka Timur",SULAWESI TENGGARA,93573.0,Indonesia,,,,-4.2282665,121.941501,https://maps.google.com/?cid=0x0:0x1d4ec62e43e38189,
komplek housing,komplek housing,PT wid,"QWQ9+92, Wia-Wia, Kec. Poli-Polia, Kabupaten Kolaka Timur, Sulawesi Tenggara","Kabupaten Kolaka Timur, Sulawesi Tenggara",SULAWESI TENGGARA,,Indonesia,,,,-4.2112057,121.9170286,https://maps.google.com/?cid=0x0:0xb122c8a1d34c88d8,
komplek housing,Komplek perumahan,Tistia,"RW32+X5J, Poli-Polia, Kec. Poli-Polia, Kabupaten Kolaka Timur, Sulawesi Tenggara 93573","Poli-Polia, Kec. Poli-Polia, Kabupaten Kolaka Timur",SULAWESI TENGGARA,93573.0,Indonesia,,,,-4.1950489,121.9003805,https://maps.google.com/?cid=0x0:0x32364ebd7554d123,
komplek housing,Pembangunan Perumahan,Unengg,"QVV3+7J3, Andowengga, Kec. Poli-Polia, Kabupaten Kolaka Timur, Sulawesi Tenggara 93573","Andowengga, Kec. Poli-Polia, Kabupaten Kolaka Timur",SULAWESI TENGGARA,93573.0,Indonesia,,,,-4.2068699,121.8539945,https://maps.google.com/?cid=0x0:0xc736ed6a86cd6707,
komplek housing,Sekolah,Ilham,"QVC5+78, Andowengga, Kec. Poli-Polia, Kabupaten Kolaka, Sulawesi Tenggara 93573","Andowengga, Kec. Poli-Polia, Kabupaten Kolaka",SULAWESI TENGGARA,93573.0,Indonesia,,,,-4.2292207,121.8584217,https://maps.google.com/?cid=0x0:0xfd596a89da19a2ee,
komplek housing,Perhimpunan Pengembang Perumahan,Rumah Posko KKN,"QWW3+H4M, Taosu, Kec. Poli-Polia, Kabupaten Kolaka Timur, Sulawesi Tenggara","Kabupaten Kolaka Timur, Sulawesi Tenggara",SULAWESI TENGGARA,,Indonesia,,,,-4.2035257,121.9028479,https://maps.google.com/?cid=0x0:0x15ef5ccbbb2a70dc,
komplek housing,komplek housing,Wayan Purna Yasa,"QWR9+QCH, Wia-Wia, Kec. Poli-Polia, Kabupaten Kolaka Timur, Sulawesi Tenggara 93573","Wia-Wia, Kec. Poli-Polia, Kabupaten Kolaka Timur",SULAWESI TENGGARA,93573.0,Indonesia,,,,-4.2081925,121.9183392,https://maps.google.com/?cid=0x0:0xa19f00a86b7ef253,
komplek housing,Komplek perumahan,Rumah Takdir Ismail,"QW9R+QJX, Polenga Jaya, Kec. Poli-Polia, Kabupaten Kolaka Timur, Sulawesi Tenggara 93573","Polenga Jaya, Kec. Poli-Polia, Kabupaten Kolaka Timur",SULAWESI TENGGARA,93573.0,Indonesia,,,,-4.2305184,121.9416226,https://maps.google.com/?cid=0x0:0xe5f23ae51bdfc98f,
komplek housing,Komplek perumahan,RUMAH ETTA JAMA',"QVX2+585, Andowengga, Kec. Poli-Polia, Kabupaten Kolaka, Sulawesi Tenggara 93573","Andowengga, Kec. Poli-Polia, Kabupaten Kolaka",SULAWESI TENGGARA,93573.0,Indonesia,,,,-4.20212,121.850874,https://maps.google.com/?cid=0x0:0xc4c981d743683b72,
komplek housing,Komplek perumahan,Bolana Pak Anis,"QWC4+64M, Tokai, Kec. Poli-Polia, Kabupaten Kolaka, Sulawesi Tenggara 93573","Tokai, Kec. Poli-Polia, Kabupaten Kolaka",SULAWESI TENGGARA,93573.0,Indonesia, 081355872466,,,-4.2294018,121.9053124,https://maps.google.com/?cid=0x0:0x2ab4541ca1b07452,
komplek housing,Komplek perumahan,Secret kompas timur,"QWX4+VV8, Poli-Polia, Kec. Poli-Polia, Kabupaten Kolaka Timur, Sulawesi Tenggara","Kabupaten Kolaka Timur, Sulawesi Tenggara",SULAWESI TENGGARA,,Indonesia,,,,-4.2003357,121.9071953,https://maps.google.com/?cid=0x0:0xd55cdaca9294002f,
komplek housing,Perhimpunan Pengembang Perumahan,UD Adrian Pratama,"QVR4+2M9, Andowengga, Kec. Poli-Polia, Kabupaten Kolaka, Sulawesi Tenggara","Kabupaten Kolaka, Sulawesi Tenggara",SULAWESI TENGGARA,,Indonesia, 085255556466,,,-4.209961,121.8567195,https://maps.google.com/?cid=0x0:0x92e118975655395b,
komplek housing,Rumah Kayu,NaylaNaufal Home,"QV89+PJJ, Andowengga, Kec. Poli-Polia, Kabupaten Kolaka, Sulawesi Tenggara","Kabupaten Kolaka, Sulawesi Tenggara",SULAWESI TENGGARA,,Indonesia,,,,-4.233154,121.869591,https://maps.google.com/?cid=0x0:0x81e8417619cd6e04,
komplek housing,komplek housing,Poli-Polia,"Kec. Poli-Polia, Kabupaten Kolaka Timur, Sulawesi Tenggara","Kabupaten Kolaka Timur, Sulawesi Tenggara",SULAWESI TENGGARA,,Indonesia,,,,-4.1865835,121.8875679,https://maps.google.com/?cid=0x0:0xe57e9b1d5ca223cc,
komplek housing,komplek housing,Sulawesi Tenggara 93571,"Kabupaten Kolaka, Sulawesi Tenggara","Kabupaten Kolaka, Sulawesi Tenggara",SULAWESI TENGGARA,,Indonesia,,,,-3.8424079,121.856261,https://maps.google.com/?cid=0x0:0x1bb5ec53427fe729,
komplek housing,komplek housing,Taufik Hidayat,"2RX3+QPX, Tawarombadaka, Kec. Tinondo, Kabupaten Kolaka Timur, Sulawesi Tenggara 93571","Tawarombadaka, Kec. Tinondo, Kabupaten Kolaka Timur",SULAWESI TENGGARA,93571.0,Indonesia,,,,-3.9505142,121.8043716,https://maps.google.com/?cid=0x0:0x9fef7b4a84ec12bd,
komplek housing,komplek housing,Taufik hidayat,"3QGX+FP8, Tawarombadaka, Kec. Tinondo, Kabupaten Kolaka Timur, Sulawesi Tenggara 93571","Tawarombadaka, Kec. Tinondo, Kabupaten Kolaka Timur",SULAWESI TENGGARA,93571.0,Indonesia,,,,-3.9238281,121.7993168,https://maps.google.com/?cid=0x0:0xb533a11444ed5c1c,
komplek housing,Pembangunan Perumahan,Tawa-tawaro,"3QGX+FWG, Tawarombadaka, Kec. Tinondo, Kabupaten Kolaka Timur, Sulawesi Tenggara 93571","Tawarombadaka, Kec. Tinondo, Kabupaten Kolaka Timur",SULAWESI TENGGARA,93571.0,Indonesia,,,,-3.9238097,121.7998403,https://maps.google.com/?cid=0x0:0x573fb70f2ec6dbca,
komplek housing,Komplek perumahan,TOWER BTS,"2RR5+RGM, Tinondo, Kec. Tinondo, Kabupaten Kolaka Timur, Sulawesi Tenggara","Kabupaten Kolaka Timur, Sulawesi Tenggara",SULAWESI TENGGARA,,Indonesia,,,,-3.9579109,121.8087935,https://maps.google.com/?cid=0x0:0xc29c12e0d2f65257,
komplek housing,Komplek perumahan,Tengko Situru,"2RHG+W2M, Lamunde, Kec. Tinondo, Kabupaten Kolaka Timur, Sulawesi Tenggara 93571","Lamunde, Kec. Tinondo, Kabupaten Kolaka Timur",SULAWESI TENGGARA,93571.0,Indonesia,,,,-3.9701553,121.8250474,https://maps.google.com/?cid=0x0:0x4371cd74ac619029,
komplek housing,Komplek perumahan,Risnawati,"2QPC+48W, Weamo, Kec. Tinondo, Kabupaten Kolaka Timur, Sulawesi Tenggara 93571","Weamo, Kec. Tinondo, Kabupaten Kolaka Timur",SULAWESI TENGGARA,93571.0,Indonesia,,,,-3.9646264,121.7708337,https://maps.google.com/?cid=0x0:0xb9d210720f197a58,
komplek housing,Komplek perumahan,GAPOKTAN DISTERE,"2RR5+WRH, Tinondo, Kec. Tinondo, Kabupaten Kolaka Timur, Sulawesi Tenggara 93571","Tinondo, Kec. Tinondo, Kabupaten Kolaka Timur",SULAWESI TENGGARA,93571.0,Indonesia,,,,-3.9576511,121.8096464,https://maps.google.com/?cid=0x0:0x82ce433c6e6d960a,
komplek housing,Komplek perumahan,Joni Bandaso,"2RQJ+CR, Lamunde, Kec. Tinondo, Kabupaten Kolaka Timur, Sulawesi Tenggara","Kabupaten Kolaka Timur, Sulawesi Tenggara",SULAWESI TENGGARA,,Indonesia,,,,-3.9613828,121.8320566,https://maps.google.com/?cid=0x0:0xfdb939ff78537052,
komplek housing,Komplek perumahan,Jusman thopanra,"2RX9+68, Talata, Kec. Tinondo, Kabupaten Kolaka Timur, Sulawesi Tenggara","Kabupaten Kolaka Timur, Sulawesi Tenggara",SULAWESI TENGGARA,,Indonesia,,,,-3.9511,121.817248,https://maps.google.com/?cid=0x0:0x715f36d026f5a6a5,
komplek housing,Komplek perumahan,ERWIN JAYA,"2QP6+5R, Weamo, Kec. Tinondo, Kabupaten Kolaka Timur, Sulawesi Tenggara","Kabupaten Kolaka Timur, Sulawesi Tenggara",SULAWESI TENGGARA,,Indonesia,,,,-3.9645262,121.7620481,https://maps.google.com/?cid=0x0:0x7ebb1e7266c6b45a,
komplek housing,Komplek perumahan,Humaira iwan,"2Q9F+G7P, Weamo, Kec. Tinondo, Kabupaten Kolaka Timur, Sulawesi Tenggara 93571","Weamo, Kec. Tinondo, Kabupaten Kolaka Timur",SULAWESI TENGGARA,93571.0,Indonesia,,,,-3.9811678,121.7731942,https://maps.google.com/?cid=0x0:0xb1891ef8479e2663,
komplek housing,Komplek perumahan,Ivha HOME,"XQFM+W2G, Depan lapangan lappabuka Jl. Poros Kolaka - Rate-rate, Lalolae, Kec. Lalolae, Kabupaten Kolaka Timur, Sulawesi Tenggara 93571","Depan lapangan lappabuka Jl. Poros Kolaka - Rate-rate, Lalolae, Kec. Lalolae, Kabupaten Kolaka Timur",SULAWESI TENGGARA,93571.0,Indonesia,,,,-4.0251918,121.7825836,https://maps.google.com/?cid=0x0:0xd76f032d78213284,
komplek housing,Komplek perumahan,IWANK NUGI,"2QP6+5R, Weamo, Kec. Tinondo, Kabupaten Kolaka Timur, Sulawesi Tenggara","Kabupaten Kolaka Timur, Sulawesi Tenggara",SULAWESI TENGGARA,,Indonesia,,,,-3.9647326,121.7622365,https://maps.google.com/?cid=0x0:0x7726c2a0c9c31f63,
komplek housing,komplek housing,Home Miya,"2PW8+J4, Nelombu, Mowewe, Kabupaten Kolaka Timur, Sulawesi Tenggara","Kabupaten Kolaka Timur, Sulawesi Tenggara",SULAWESI TENGGARA,,Indonesia,,,,-3.953401,121.7153068,https://maps.google.com/?cid=0x0:0xb312390f1a7c979b,
komplek housing,Komplek perumahan,Ikon Efendy,"2RV7+VF, Talata, Kec. Tinondo, Kabupaten Kolaka Timur, Sulawesi Tenggara","Kabupaten Kolaka Timur, Sulawesi Tenggara",SULAWESI TENGGARA,,Indonesia,,,,-3.9553095,121.8136341,https://maps.google.com/?cid=0x0:0x2dd7471400d3a87b,
komplek housing,Komplek perumahan,Nilla Sari (House),"2P9P+95, Inebenggi, Mowewe, Kabupaten Kolaka Timur, Sulawesi Tenggara","Kabupaten Kolaka Timur, Sulawesi Tenggara",SULAWESI TENGGARA,,Indonesia,,,,-3.9815574,121.7354106,https://maps.google.com/?cid=0x0:0xdb9b9cfbb4a169ca,
komplek housing,Komplek perumahan,Rumah Mudin,"5PXW+R79, Pehanggo, Uluiwoi, Kabupaten Kolaka Timur, Sulawesi Tenggara","Kabupaten Kolaka Timur, Sulawesi Tenggara",SULAWESI TENGGARA,,Indonesia,,,,-3.8004666,121.7457279,https://maps.google.com/?cid=0x0:0x9b5fa1ed786753cb,
komplek housing,Komplek perumahan,Nenek Lily,"2RMH+W8, Lamunde, Kec. Tinondo, Kabupaten Kolaka Timur, Sulawesi Tenggara","Kabupaten Kolaka Timur, Sulawesi Tenggara",SULAWESI TENGGARA,,Indonesia,,,,-3.9652084,121.8282466,https://maps.google.com/?cid=0x0:0x4054d4933eaa4cb3,
komplek housing,Komplek perumahan,Mama dea,"2R98+VHJ, Lamunde, Kec. Tinondo, Kabupaten Kolaka Timur, Sulawesi Tenggara 93571","Lamunde, Kec. Tinondo, Kabupaten Kolaka Timur",SULAWESI TENGGARA,93571.0,Indonesia,,,,-3.9802781,121.8164031,https://maps.google.com/?cid=0x0:0xaab3995f1407a918,
komplek housing,komplek housing,Kec. Tinondo,"Kabupaten Kolaka Timur, Sulawesi Tenggara","Kabupaten Kolaka Timur, Sulawesi Tenggara",SULAWESI TENGGARA,,Indonesia,,,,-3.9577652,121.809945,https://maps.google.com/?cid=0x0:0x61f737df1c5b0cf8,
komplek housing,Pembangunan Perumahan,RUTIN/Kadis 1(wekara kaya),"Jl. Pendidikan No.1, Lapangisi, Mowewe, Kabupaten Kolaka Timur, Sulawesi Tenggara 93571","Lapangisi, Mowewe, Kabupaten Kolaka Timur",SULAWESI TENGGARA,93571.0,Indonesia,,,,-3.9887331,121.7378407,https://maps.google.com/?cid=0x0:0xcbc458676cea3f4f,
komplek housing,Komplek perumahan,Kios Hendra,"XQHC+GHM, Jl. Poros Kolaka - Rate-rate, Wesalo, Kec. Lalolae, Kabupaten Kolaka, Sulawesi Tenggara 93571","Jl. Poros Kolaka - Rate-rate, Wesalo, Kec. Lalolae, Kabupaten Kolaka",SULAWESI TENGGARA,93571.0,Indonesia,,,,-4.0199143,121.77094,https://maps.google.com/?cid=0x0:0x7fc98a6b698953eb,
komplek housing,Komplek perumahan,"Asri Rahayu,S Home","XQPC+588, Jl. Poros Kendari - Mowila, Wesalo, Kec. Lalolae, Kabupaten Kolaka Timur, Sulawesi Tenggara 93571","Jl. Poros Kendari - Mowila, Wesalo, Kec. Lalolae, Kabupaten Kolaka Timur",SULAWESI TENGGARA,93571.0,Indonesia,,,,-4.014858,121.769536,https://maps.google.com/?cid=0x0:0x96cfa5a3496ca57c,
komplek housing,Komplek perumahan,Galang home,"XQFM+V4V, Jl. Poros Kolaka - Rate-rate, Lalolae, Kec. Lalolae, Kabupaten Kolaka Timur, Sulawesi Tenggara 93571","Jl. Poros Kolaka - Rate-rate, Lalolae, Kec. Lalolae, Kabupaten Kolaka Timur",SULAWESI TENGGARA,93571.0,Indonesia,,,,-4.0252373,121.7830097,https://maps.google.com/?cid=0x0:0x131a2b8b4aa4ef9c,
komplek housing,Komplek perumahan,Kios Muh.habibie.bm,"XQHC+GHM, Jl. Poros Kolaka - Rate-rate, Wesalo, Kec. Lalolae, Kabupaten Kolaka, Sulawesi Tenggara 93571","Jl. Poros Kolaka - Rate-rate, Wesalo, Kec. Lalolae, Kabupaten Kolaka",SULAWESI TENGGARA,93571.0,Indonesia,,,,-4.0199143,121.77094,https://maps.google.com/?cid=0x0:0x1afd26b6faba90dc,
komplek housing,komplek housing,Rmh. Leo,"2RR5+WRH, Tinondo, Kec. Tinondo, Kabupaten Kolaka Timur, Sulawesi Tenggara 93571","Tinondo, Kec. Tinondo, Kabupaten Kolaka Timur",SULAWESI TENGGARA,93571.0,Indonesia,,,,-3.9576962,121.8096038,https://maps.google.com/?cid=0x0:0xcf94fc10fa74531f,
komplek housing,komplek housing,Sulawesi Tenggara 93572,Sulawesi Tenggara,Sulawesi Tenggara,SULAWESI TENGGARA,,Indonesia,,,,-4.0494144,121.947311,https://maps.google.com/?cid=0x0:0xfdc4defab63a0262,
komplek housing,komplek housing,PERUMAHAN GRAHA EXPO WOIHA,"Woiha, Kec. Tirawuta, Kabupaten Kolaka Timur, Sulawesi Tenggara 93572","Kec. Tirawuta, Kabupaten Kolaka Timur",SULAWESI TENGGARA,93572.0,Indonesia, 081299537354,,,-4.0263102,121.9144971,https://maps.google.com/?cid=0x0:0x4ab3723c1d3b7bf2,
komplek housing,Pembangunan Perumahan,Perumahan. Putri Aulia Residence,"WVXR+9RX, Rate-Rate, Kec. Tirawuta, Kabupaten Kolaka Timur, Sulawesi Tenggara 93572","Rate-Rate, Kec. Tirawuta, Kabupaten Kolaka Timur",SULAWESI TENGGARA,93572.0,Indonesia,,,,-4.0515022,121.8920975,https://maps.google.com/?cid=0x0:0x93c0eacc3db22115,
komplek housing,Kantor Perusahaan,Griya Tirawuta,"XRP6+RW5, Jl. Poros Kolaka - Rate-rate, pasar rakyat, Kec. Lalolae, Kabupaten Kolaka Timur, Sulawesi Tenggara 93572","Jl. Poros Kolaka - Rate-rate, pasar rakyat, Kec. Lalolae, Kabupaten Kolaka Timur",SULAWESI TENGGARA,93572.0,Indonesia, 081343198311,,,-4.0129789,121.8123453,https://maps.google.com/?cid=0x0:0x4757a69e12f8884f,
komplek housing,Perhimpunan Pengembang Perumahan,Whys House,"Btn Griya Tirawuta Indah Blok 2, Tirawuta, Kec. Tirawuta, Kabupaten Kolaka Timur, Sulawesi Tenggara","Kabupaten Kolaka Timur, Sulawesi Tenggara",SULAWESI TENGGARA,,Indonesia,,,,-4.0471742,121.8821187,https://maps.google.com/?cid=0x0:0xd4fa0362dee6f1d6,
komplek housing,Komplek perumahan,Perumahan Bukit Tinomu Permai,"Jl. Tinomu Permai, Orawa, Kec. Tirawuta, Kabupaten Kolaka Timur, Sulawesi Tenggara 93572","Orawa, Kec. Tirawuta, Kabupaten Kolaka Timur",SULAWESI TENGGARA,93572.0,Indonesia, 082120191916,,,-4.039053,121.8973414,https://maps.google.com/?cid=0x0:0xe175df31e9d3b20d,
komplek housing,Perumahan,Perumahan Tasahea Tababu,"WVXR+727, Keurahan, Tababu, Kec. Tirawuta, Kabupaten Kolaka Timur, Sulawesi Tenggara","Kabupaten Kolaka Timur, Sulawesi Tenggara",SULAWESI TENGGARA,,Indonesia,,,,-4.0518273,121.8900446,https://maps.google.com/?cid=0x0:0x1d43218a24aa17bc,
komplek housing,Komplek perumahan,Ketut Budy,"XW8G+MQ, Woiha, Kec. Tirawuta, Kabupaten Kolaka Timur, Sulawesi Tenggara","Kabupaten Kolaka Timur, Sulawesi Tenggara",SULAWESI TENGGARA,,Indonesia,,,,-4.0327283,121.927315,https://maps.google.com/?cid=0x0:0x2b67ad38e93e2479,
komplek housing,Komplek perumahan,Ketut Hendra Saputra,"XW8G+MQ, Woiha, Kec. Tirawuta, Kabupaten Kolaka Timur, Sulawesi Tenggara","Kabupaten Kolaka Timur, Sulawesi Tenggara",SULAWESI TENGGARA,,Indonesia,,,,-4.0329045,121.926814,https://maps.google.com/?cid=0x0:0x59e3e28c09ea6e23,
komplek housing,Perhimpunan Pengembang Perumahan,BTN GRIYA TITAWUTA INDAH BLOK A NO 3,"XV5H+2XQ, Unnamed Road, Tirawuta, Kec. Tirawuta, Kabupaten Kolaka Timur, Sulawesi Tenggara 93572","Unnamed Road, Tirawuta, Kec. Tirawuta, Kabupaten Kolaka Timur",SULAWESI TENGGARA,93572.0,Indonesia,,,,-4.0424225,121.8799749,https://maps.google.com/?cid=0x0:0xf859e98dadb71274,
komplek housing,Komplek perumahan,My Home Sweet Ay,"XW2F+83, Lara, Kec. Tirawuta, Kabupaten Kolaka Timur, Sulawesi Tenggara","Kabupaten Kolaka Timur, Sulawesi Tenggara",SULAWESI TENGGARA,,Indonesia,,,,-4.049126,121.9234244,https://maps.google.com/?cid=0x0:0x2d32a3f7de8107d8,
komplek housing,Komplek perumahan,Rumah dianti,"XWFC+RM7, Woiha, Kec. Tirawuta, Kabupaten Kolaka Timur, Sulawesi Tenggara 93572","Woiha, Kec. Tirawuta, Kabupaten Kolaka Timur",SULAWESI TENGGARA,93572.0,Indonesia,,,,-4.0254749,121.9216746,https://maps.google.com/?cid=0x0:0x971b14d4ec29acc,
komplek housing,Komplek perumahan,Elka House,"XV6W+4W, Rate-Rate, Kec. Tirawuta, Kabupaten Kolaka Timur, Sulawesi Tenggara 93572","Rate-Rate, Kec. Tirawuta, Kabupaten Kolaka Timur",SULAWESI TENGGARA,93572.0,Indonesia,,,,-4.0395071,121.8970204,https://maps.google.com/?cid=0x0:0x391dab9adac56dad,
komplek housing,Komplek perumahan,Gede Sudiarta (Kepala Dusun IV),"XW9G+W7V, Woiha, Kec. Tirawuta, Kabupaten Kolaka Timur, Sulawesi Tenggara 93572","Woiha, Kec. Tirawuta, Kabupaten Kolaka Timur",SULAWESI TENGGARA,93572.0,Indonesia,,,,-4.0301346,121.9256724,https://maps.google.com/?cid=0x0:0x74fbb50649784f18,
komplek housing,Komplek perumahan,Yan Merta,"XWCG+46C, Roko-Roko, Kec. Tirawuta, Kabupaten Kolaka Timur, Sulawesi Tenggara 93572","Roko-Roko, Kec. Tirawuta, Kabupaten Kolaka Timur",SULAWESI TENGGARA,93572.0,Indonesia,,,,-4.0296852,121.9255019,https://maps.google.com/?cid=0x0:0xedfabda2772f5f1e,
komplek housing,komplek housing,Rara,"WVPC+F5H, Tasahea, Kec. Tirawuta, Kabupaten Kolaka Timur, Sulawesi Tenggara 93572","Tasahea, Kec. Tirawuta, Kabupaten Kolaka Timur",SULAWESI TENGGARA,93572.0,Indonesia,,,,-4.0638004,121.8704926,https://maps.google.com/?cid=0x0:0xb24c429c391dffdd,
komplek housing,Pembangunan Perumahan,Anwar Home,"XV6W+4W, Rate-Rate, Kec. Tirawuta, Kabupaten Kolaka Timur, Sulawesi Tenggara 93572","Rate-Rate, Kec. Tirawuta, Kabupaten Kolaka Timur",SULAWESI TENGGARA,93572.0,Indonesia,,,,-4.0396442,121.89724,https://maps.google.com/?cid=0x0:0x1a908f4ddce4222e,
komplek housing,Komplek perumahan,Resky Home,"XW2F+83, Lara, Kec. Tirawuta, Kabupaten Kolaka Timur, Sulawesi Tenggara","Kabupaten Kolaka Timur, Sulawesi Tenggara",SULAWESI TENGGARA,,Indonesia,,,,-4.0492273,121.9227237,https://maps.google.com/?cid=0x0:0x9c3df9f729b1c2b,
komplek housing,Pembangunan Perumahan,Rumah haeryl,"WWVF+CH, Lara, Kec. Tirawuta, Kabupaten Kolaka Timur, Sulawesi Tenggara","Kabupaten Kolaka Timur, Sulawesi Tenggara",SULAWESI TENGGARA,,Indonesia,,,,-4.0564131,121.9239518,https://maps.google.com/?cid=0x0:0xbc70ab53b74d8f86,
komplek housing,Komplek perumahan,Rumah Ferdian,"WVVJ+3WF, Tasahea, Kec. Tirawuta, Kabupaten Kolaka Timur, Sulawesi Tenggara 93572","Tasahea, Kec. Tirawuta, Kabupaten Kolaka Timur",SULAWESI TENGGARA,93572.0,Indonesia,,,,-4.0573078,121.8823047,https://maps.google.com/?cid=0x0:0xa9ccb08290de21d7,
komplek housing,komplek housing,Kec. Tirawuta,"Kabupaten Kolaka Timur, Sulawesi Tenggara","Kabupaten Kolaka Timur, Sulawesi Tenggara",SULAWESI TENGGARA,,Indonesia,,,,-4.0459103,121.8935051,https://maps.google.com/?cid=0x0:0x1684088704c50bd1,
komplek housing,Komplek perumahan,Emma's Garden House,"WWWC+WWQ, Lara, Kec. Tirawuta, Kabupaten Kolaka Timur, Sulawesi Tenggara 93572","Lara, Kec. Tirawuta, Kabupaten Kolaka Timur",SULAWESI TENGGARA,93572.0,Indonesia,,,,-4.0526617,121.9223582,https://maps.google.com/?cid=0x0:0x14c9c61e3ae0f72c,
komplek housing,Komplek perumahan,rumah sahiruddin,"WVVQ+QWH, Jl. Puundoluto, Rate-Rate, Kec. Tirawuta, Kabupaten Kolaka Timur, Sulawesi Tenggara 93572","Jl. Puundoluto, Rate-Rate, Kec. Tirawuta, Kabupaten Kolaka Timur",SULAWESI TENGGARA,93572.0,Indonesia,,,,-4.055566,121.8898595,https://maps.google.com/?cid=0x0:0x7042d2445a6ef1da,
komplek housing,Komplek perumahan,Rumah Haerudin dangia,"XW42+Q9M, Orawa, Kec. Tirawuta, Kabupaten Kolaka, Sulawesi Tenggara 93572","Orawa, Kec. Tirawuta, Kabupaten Kolaka",SULAWESI TENGGARA,93572.0,Indonesia,,,,-4.0430452,121.9009257,https://maps.google.com/?cid=0x0:0x77a605b7165b548e,
komplek housing,Komplek perumahan,Rumah Bardin,"XVRC+83V, Jl. Poros Kolaka - Rate-rate, Lalingato, Kec. Tirawuta, Kabupaten Kolaka Timur, Sulawesi Tenggara 93572","Jl. Poros Kolaka - Rate-rate, Lalingato, Kec. Tirawuta, Kabupaten Kolaka Timur",SULAWESI TENGGARA,93572.0,Indonesia,,,,-4.0092739,121.8704652,https://maps.google.com/?cid=0x0:0x9c96bf8d7437cd,
komplek housing,Komplek perumahan,Rumah. Syawal,"XV3M+G24, Tirawuta, Kec. Tirawuta, Kabupaten Kolaka, Sulawesi Tenggara 93572","Tirawuta, Kec. Tirawuta, Kabupaten Kolaka",SULAWESI TENGGARA,93572.0,Indonesia,,,,-4.0471608,121.8824325,https://maps.google.com/?cid=0x0:0x6014afdcb80bdead,
komplek housing,Komplek perumahan,ADRIADI HOME,"XWGF+FXM, Jl. Poros Rate-rate, Woiha, Kec. Tirawuta, Kabupaten Kolaka Timur, Sulawesi Tenggara 93572","Jl. Poros Rate-rate, Woiha, Kec. Tirawuta, Kabupaten Kolaka Timur",SULAWESI TENGGARA,93572.0,Indonesia,,,,-4.024089,121.9252682,https://maps.google.com/?cid=0x0:0x1f6ac17b5471e3e6,
komplek housing,Pembangunan Perumahan,BTN unifit land simbune,"Btn unifit land No.6 Blok c, Simbune, Kec. Tirawuta, Kabupaten Kolaka Timur, Sulawesi Tenggara 93572","Simbune, Kec. Tirawuta, Kabupaten Kolaka Timur",SULAWESI TENGGARA,93572.0,Indonesia,,,,-4.02116,121.88143,https://maps.google.com/?cid=0x0:0x324f6f0c1194f08d,
komplek housing,Pembangunan Perumahan,Rapa,"XW9G+W7V, Woiha, Kec. Tirawuta, Kabupaten Kolaka Timur, Sulawesi Tenggara 93572","Woiha, Kec. Tirawuta, Kabupaten Kolaka Timur",SULAWESI TENGGARA,93572.0,Indonesia,,,,-4.0304999,121.9253707,https://maps.google.com/?cid=0x0:0xda1d12994ecafbf1,
komplek housing,komplek housing,Sulawesi Tenggara 93575,"Kabupaten Kolaka, Sulawesi Tenggara","Kabupaten Kolaka, Sulawesi Tenggara",SULAWESI TENGGARA,,Indonesia,,,,-3.5101108,121.3998995,https://maps.google.com/?cid=0x0:0xc8b7a5389edae68c,
komplek housing,Komplek perumahan,Bundaran hi uluiwoi,"FFJ4+P4R, Likuwalanapo, Uluiwoi, Kabupaten Kolaka Timur, Sulawesi Tenggara","Kabupaten Kolaka Timur, Sulawesi Tenggara",SULAWESI TENGGARA,,Indonesia,,,,-3.5168813,121.4545846,https://maps.google.com/?cid=0x0:0x506292c2d881abb2,
komplek housing,Komplek perumahan,kecamatan uluiwoi,"SMP n 1uluiwoi, Likuwalanapo, Uluiwoi, Kabupaten Kolaka Timur, Sulawesi Tenggara","Kabupaten Kolaka Timur, Sulawesi Tenggara",SULAWESI TENGGARA,,Indonesia,,,,-3.5135191,121.3084088,https://maps.google.com/?cid=0x0:0x36221b27f043b935,
komplek housing,Perhimpunan Pengembang Perumahan,Rumah Aksan,"8GP7+MMF, Dusun II Wandaeha, Ueesi, Kabupaten Kolaka Timur, Sulawesi Tenggara","Kabupaten Kolaka Timur, Sulawesi Tenggara",SULAWESI TENGGARA,,Indonesia,,,,-3.663313,121.5141615,https://maps.google.com/?cid=0x0:0x90a891f0659fa522,
komplek housing,Komplek perumahan,Rumah pak Sarjun,"9G4V+W6, Ueesi, Kec. Uluiwoi, Kabupaten Kolaka, Sulawesi Tenggara 93575","Ueesi, Kec. Uluiwoi, Kabupaten Kolaka",SULAWESI TENGGARA,93575.0,Indonesia,,,,-3.6426663,121.5431197,https://maps.google.com/?cid=0x0:0x63efc592d5c20d41,
komplek housing,Kompleks Kondominium,Desa wsinggote,"7GXW+JV7, Unnamed Road, Wesinggote, Kec. Uluiwoi, Kabupaten Kolaka Timur, Sulawesi Tenggara 93575","Unnamed Road, Wesinggote, Kec. Uluiwoi, Kabupaten Kolaka Timur",SULAWESI TENGGARA,93575.0,Indonesia,,,,-3.7009589,121.5471597,https://maps.google.com/?cid=0x0:0xcbaec145205199c,
komplek housing,Komplek perumahan,Rika home,"7F44+5RM, Tolowe Ponrewaru, Kec. Wolo, Kabupaten Kolaka, Sulawesi Tenggara","Kabupaten Kolaka, Sulawesi Tenggara",SULAWESI TENGGARA,,Indonesia,,,,-3.7445418,121.4570447,https://maps.google.com/?cid=0x0:0x44780c5fd8b56189,
komplek housing,Pembangunan Perumahan,Upt.t tongauna,"FFJ4+9G2, Ueesi, Uluiwoi, Kabupaten Kolaka Timur, Sulawesi Tenggara","Kabupaten Kolaka Timur, Sulawesi Tenggara",SULAWESI TENGGARA,,Indonesia,,,,-3.5191227,121.4562536,https://maps.google.com/?cid=0x0:0xabf5b974f3658bf,
komplek housing,komplek housing,MarSyAmBil,"7F44+5RM, Tolowe Ponrewaru, Kec. Wolo, Kabupaten Kolaka, Sulawesi Tenggara","Kabupaten Kolaka, Sulawesi Tenggara",SULAWESI TENGGARA,,Indonesia,,,,-3.7445418,121.4570447,https://maps.google.com/?cid=0x0:0xda640c3fb0c8fd50,
komplek housing,Komplek perumahan,Rumah,"7V7M+VWX, RT.3/RW.3, Asolu, Kec. Abuki, Kabupaten Konawe, Sulawesi Tenggara 93452","RT.3/RW.3, Asolu, Kec. Abuki, Kabupaten Konawe",SULAWESI TENGGARA,93452.0,Indonesia,,,,-3.7352658,121.8848472,https://maps.google.com/?cid=0x0:0x87607d0620fa2a6,
komplek housing,Kantor Pemerintah,DESA LIKUWALANAPO,"GG26+4P3, Likuwalanapo, Uluiwoi, Kabupaten Kolaka, Sulawesi Tenggara 93464","Likuwalanapo, Uluiwoi, Kabupaten Kolaka",SULAWESI TENGGARA,93464.0,Indonesia,,,,-3.4997464,121.5117984,https://maps.google.com/?cid=0x0:0x8275275e3605bf0e,
komplek housing,Komplek perumahan,Muh. Risal,"6PX8+VFM, Ambekaeri Utama, Kec. Latoma, Kabupaten Konawe, Sulawesi Tenggara 93452","Ambekaeri Utama, Kec. Latoma, Kabupaten Konawe",SULAWESI TENGGARA,93452.0,Indonesia,,,,-3.750592,121.716265,https://maps.google.com/?cid=0x0:0x7395fd21990345df,
komplek housing,Kantor Pemerintah,Desa Mataleuno,"P87J+MGM, Dusun 3, Mataleuno, Kec. Pakue Utara, Kabupaten Kolaka Utara, Sulawesi Tenggara","Kabupaten Kolaka Utara, Sulawesi Tenggara",SULAWESI TENGGARA,,Indonesia,,,,-3.2857838,121.3312882,https://maps.google.com/?cid=0x0:0x2ddb92db8fb0343a,
komplek housing,Pembangunan Perumahan,Rumah Tower,"2PVM+WG7, Woitombo, Mowewe, Kabupaten Kolaka Timur, Sulawesi Tenggara","Kabupaten Kolaka Timur, Sulawesi Tenggara",SULAWESI TENGGARA,,Indonesia,,,,-3.9552018,121.7337949,https://maps.google.com/?cid=0x0:0xe1e7a2dc95169f45,
komplek housing,Pembangunan Perumahan,Widya Ningsih (HOUSE),"2P6V+CVJ, Watupute, Mowewe, Kabupaten Kolaka Timur, Sulawesi Tenggara 93519","Watupute, Mowewe, Kabupaten Kolaka Timur",SULAWESI TENGGARA,93519.0,Indonesia,,,,-3.9879738,121.7448077,https://maps.google.com/?cid=0x0:0x49a28eb7016cf1ed,
komplek housing,komplek housing,Home Miya,"2PW8+J4, Nelombu, Mowewe, Kabupaten Kolaka Timur, Sulawesi Tenggara","Kabupaten Kolaka Timur, Sulawesi Tenggara",SULAWESI TENGGARA,,Indonesia,,,,-3.953401,121.7153068,https://maps.google.com/?cid=0x0:0xb312390f1a7c979b,
komplek housing,Kantor Pemerintah,Desa Andoluto Kec. Latoma Konawe Sulawesi Tenggara,"8MF9+CR4, Andoluto, Kec. Latoma, Kabupaten Konawe, Sulawesi Tenggara 93461","Andoluto, Kec. Latoma, Kabupaten Konawe",SULAWESI TENGGARA,93461.0,Indonesia,,,,-3.6764783,121.6695661,https://maps.google.com/?cid=0x0:0x3ffb146de8be3d51,
komplek housing,komplek housing,NUR,"5C7P+QRV, Ulu Lapao-Pao, Kec. Wolo, Kabupaten Kolaka, Sulawesi Tenggara","Kabupaten Kolaka, Sulawesi Tenggara",SULAWESI TENGGARA,,Indonesia,,,,-3.8355008,121.4370471,https://maps.google.com/?cid=0x0:0x251d46eda3b0463a,
komplek housing,Komplek perumahan,RUMAH UMNA,"2PFM+HH4, Inebenggi, Mowewe, Kabupaten Kolaka Timur, Sulawesi Tenggara 93519","Inebenggi, Mowewe, Kabupaten Kolaka Timur",SULAWESI TENGGARA,93519.0,Indonesia,,,,-3.9749376,121.7340192,https://maps.google.com/?cid=0x0:0x51bcdcf56e6ad9f1,
komplek housing,Komplek perumahan,Rumah Athifah,"2P7W+V7R, Watupute, Mowewe, Kabupaten Kolaka Timur, Sulawesi Tenggara","Kabupaten Kolaka Timur, Sulawesi Tenggara",SULAWESI TENGGARA,,Indonesia,,,,-3.9852633,121.745627,https://maps.google.com/?cid=0x0:0x922be31095f95167,
komplek housing,komplek housing,Perumahan Griya Ulu Wolo,"5789+QR, Ulu Wolo, Kec. Wolo, Kabupaten Kolaka, Sulawesi Tenggara","Kabupaten Kolaka, Sulawesi Tenggara",SULAWESI TENGGARA,,Indonesia,,,,-3.8331014,121.2694093,https://maps.google.com/?cid=0x0:0x2ce0d84a98790903,
komplek housing,Pembangunan Perumahan,Kompleks BTN 1,"2G78+4XG, Jl. Sao-Sao BTN I, Bende, Kec. Kadia, Kota Kendari, Sulawesi Tenggara 93561","Jl. Sao-Sao BTN I, Bende, Kec. Kadia, Kota Kendari",SULAWESI TENGGARA,93561.0,Indonesia,,,,-3.9871765,122.5174524,https://maps.google.com/?cid=0x0:0x598335a7a7b54eb6,
komplek housing,Komplek perumahan,Rumah Biyand,"47X6+P2Q, Wolo, Kec. Wolo, Kabupaten Kolaka, Sulawesi Tenggara 93552","Wolo, Kec. Wolo, Kabupaten Kolaka",SULAWESI TENGGARA,93552.0,Indonesia,,,,-3.8505277,121.2604282,https://maps.google.com/?cid=0x0:0x3e2546bdddc522d9,
komplek housing,Perhimpunan Pengembang Perumahan,AL IMRAN BAGIO,"7P28+WHH, Ambekaeri Utama, Kec. Latoma, Kabupaten Konawe, Sulawesi Tenggara 93452","Ambekaeri Utama, Kec. Latoma, Kabupaten Konawe",SULAWESI TENGGARA,93452.0,Indonesia,,,,-3.7476964,121.7164852,https://maps.google.com/?cid=0x0:0xce59c9d4f1c1e12e,
komplek housing,komplek housing,Uluiwoi,"Kabupaten Kolaka Timur, Sulawesi Tenggara","Kabupaten Kolaka Timur, Sulawesi Tenggara",SULAWESI TENGGARA,,Indonesia,,,,-3.5135191,121.3084088,https://maps.google.com/?cid=0x0:0x20350af16ed96c96,
perumahan,perumahan,Ladongi,"Ladongi, Kec. Ladongi, Kabupaten Kolaka Timur, Sulawesi Tenggara","Kabupaten Kolaka Timur, Sulawesi Tenggara",SULAWESI TENGGARA,,Indonesia,,,,-4.142409,121.901901,https://maps.google.com/?cid=0x0:0xf976c8583833e88d,
perumahan,Perhimpunan Pengembang Perumahan,TPEMUKIMAN,"VW52+2QJ, Jl Taman Siswa, Ladongi, Kec. Ladongi, Kabupaten Kolaka Timur, Sulawesi Tenggara","Kabupaten Kolaka Timur, Sulawesi Tenggara",SULAWESI TENGGARA,,Indonesia, 085298691568,,,-4.142409,121.901901,https://maps.google.com/?cid=0x0:0x5455c86b688c85da,
perumahan,Perumahan,ISTANA KU,"VW52+2QJ, Jl Taman Siswa, Ladongi, Kec. Ladongi, Kabupaten Kolaka Timur, Sulawesi Tenggara 93573","Jl Taman Siswa, Ladongi, Kec. Ladongi, Kabupaten Kolaka Timur",SULAWESI TENGGARA,93573.0,Indonesia, 085298691568,,,-4.142409,121.901901,https://maps.google.com/?cid=0x0:0x903cc98b211d55cc,
perumahan,Perhimpunan Pengembang Perumahan,Bola-Bola Dare',"VW52+2QJ, Gunung merah, Kec. Ladongi, Kabupaten Kolaka Timur, Sulawesi Tenggara","Kabupaten Kolaka Timur, Sulawesi Tenggara",SULAWESI TENGGARA,,Indonesia,,,,-4.142409,121.901901,https://maps.google.com/?cid=0x0:0x89cd141c137e7097,
perumahan,Perumahan,Lestari,"VW96+8HJ, Unnamed Road, Ladongi, Kec. Ladongi, Kabupaten Kolaka Timur, Sulawesi Tenggara 93573","Unnamed Road, Ladongi, Kec. Ladongi, Kabupaten Kolaka Timur",SULAWESI TENGGARA,93573.0,Indonesia,,,,-4.1316512,121.9114029,https://maps.google.com/?cid=0x0:0x207d6f039b1a9445,
perumahan,perumahan,Kec. Lalolae,"Kabupaten Kolaka Timur, Sulawesi Tenggara","Kabupaten Kolaka Timur, Sulawesi Tenggara",SULAWESI TENGGARA,,Indonesia,,,,-4.0256541,121.7842582,https://maps.google.com/?cid=0x0:0x16745ece4e90ef2b,
perumahan,Kantor Perusahaan,Griya Tirawuta,"XRP6+RW5, Jl. Poros Kolaka - Rate-rate, pasar rakyat, Kec. Lalolae, Kabupaten Kolaka Timur, Sulawesi Tenggara 93572","Jl. Poros Kolaka - Rate-rate, pasar rakyat, Kec. Lalolae, Kabupaten Kolaka Timur",SULAWESI TENGGARA,93572.0,Indonesia, 081343198311,,,-4.0129789,121.8123453,https://maps.google.com/?cid=0x0:0x4757a69e12f8884f,
perumahan,Komplek perumahan,Lorong pundo rawa,"XQ4V+RCH, Keisio, Kec. Lalolae, Kabupaten Kolaka Timur, Sulawesi Tenggara","Kabupaten Kolaka Timur, Sulawesi Tenggara",SULAWESI TENGGARA,,Indonesia,,,,-4.0429251,121.7936207,https://maps.google.com/?cid=0x0:0xf21e59072316e117,
perumahan,Kompleks Apartemen,Rumah sari,"XQGP+HC4, Lalolae, Kec. Lalolae, Kabupaten Kolaka, Sulawesi Tenggara","Kabupaten Kolaka, Sulawesi Tenggara",SULAWESI TENGGARA,,Indonesia,,,,-4.0236169,121.7860671,https://maps.google.com/?cid=0x0:0x9821947333f5cc05,
perumahan,Kompleks Apartemen,Lorong molioka,"XQCM+4V, Lalolae, Kec. Lalolae, Kabupaten Kolaka, Sulawesi Tenggara","Kabupaten Kolaka, Sulawesi Tenggara",SULAWESI TENGGARA,,Indonesia,,,,-4.029745,121.7846663,https://maps.google.com/?cid=0x0:0xc8fd0d41ae20d3e8,
perumahan,Komplek perumahan,Rumah Bana,"XQFM+PPJ, Lalolae, Kec. Lalolae, Kabupaten Kolaka Timur, Sulawesi Tenggara","Kabupaten Kolaka Timur, Sulawesi Tenggara",SULAWESI TENGGARA,,Indonesia,,,,-4.0256541,121.7842582,https://maps.google.com/?cid=0x0:0xcdfad19dd86473d5,
perumahan,Kompleks Apartemen,Muh hillal,"XQFM+5HV, Lalolae, Kec. Lalolae, Kabupaten Kolaka Timur, Sulawesi Tenggara 93572","Lalolae, Kec. Lalolae, Kabupaten Kolaka Timur",SULAWESI TENGGARA,93572.0,Indonesia,,,,-4.0271385,121.7839403,https://maps.google.com/?cid=0x0:0xff1e0dc09f6f0456,
perumahan,Komplek perumahan,Galang home,"XQFM+V4V, Jl. Poros Kolaka - Rate-rate, Lalolae, Kec. Lalolae, Kabupaten Kolaka Timur, Sulawesi Tenggara 93571","Jl. Poros Kolaka - Rate-rate, Lalolae, Kec. Lalolae, Kabupaten Kolaka Timur",SULAWESI TENGGARA,93571.0,Indonesia,,,,-4.0252373,121.7830097,https://maps.google.com/?cid=0x0:0x131a2b8b4aa4ef9c,
perumahan,Komplek perumahan,Rumah Alm.Sudiro,"Jl. Poros Kolaka - Rate-rate No.16, Talodo, Kec. Lalolae, Kabupaten Kolaka Timur, Sulawesi Tenggara 93571","Talodo, Kec. Lalolae, Kabupaten Kolaka Timur",SULAWESI TENGGARA,93571.0,Indonesia,,,,-4.0016737,121.8215135,https://maps.google.com/?cid=0x0:0x878dee5c7266ffa9,
perumahan,Perumahan,Desa.lamundre kab.kolaka,"2R98+VHJ, Lamunde, Kec. Tinondo, Kabupaten Kolaka, Sulawesi Tenggara 93571","Lamunde, Kec. Tinondo, Kabupaten Kolaka",SULAWESI TENGGARA,93571.0,Indonesia,,,,-3.9802781,121.8164031,https://maps.google.com/?cid=0x0:0x5df1dfcf1664edef,
perumahan,Komplek perumahan,Rumah Mm arni,"XQFW+797, Keisio, Kec. Lalolae, Kabupaten Kolaka Timur, Sulawesi Tenggara","Kabupaten Kolaka Timur, Sulawesi Tenggara",SULAWESI TENGGARA,,Indonesia,,,,-4.026847,121.795935,https://maps.google.com/?cid=0x0:0xde450f7758d3eebe,
perumahan,Komplek perumahan,rumah maikal,"XQFM+PPJ, Lalolae, Kec. Lalolae, Kabupaten Kolaka Timur, Sulawesi Tenggara","Kabupaten Kolaka Timur, Sulawesi Tenggara",SULAWESI TENGGARA,,Indonesia,,,,-4.0261688,121.784272,https://maps.google.com/?cid=0x0:0x42a1b9d38cdb80bc,
perumahan,Komplek perumahan,Ivha HOME,"XQFM+W2G, Depan lapangan lappabuka Jl. Poros Kolaka - Rate-rate, Lalolae, Kec. Lalolae, Kabupaten Kolaka Timur, Sulawesi Tenggara 93571","Depan lapangan lappabuka Jl. Poros Kolaka - Rate-rate, Lalolae, Kec. Lalolae, Kabupaten Kolaka Timur",SULAWESI TENGGARA,93571.0,Indonesia,,,,-4.0251918,121.7825836,https://maps.google.com/?cid=0x0:0xd76f032d78213284,
perumahan,Komplek perumahan,Icikiwir,"XRQ6+M6, Lalosingi, Kec. Lalolae, Kabupaten Kolaka, Sulawesi Tenggara","Kabupaten Kolaka, Sulawesi Tenggara",SULAWESI TENGGARA,,Indonesia,,,,-4.0107618,121.8104282,https://maps.google.com/?cid=0x0:0x5349934a15177bf7,
perumahan,Komplek perumahan,"Asri Rahayu,S Home","XQPC+588, Jl. Poros Kendari - Mowila, Wesalo, Kec. Lalolae, Kabupaten Kolaka Timur, Sulawesi Tenggara 93571","Jl. Poros Kendari - Mowila, Wesalo, Kec. Lalolae, Kabupaten Kolaka Timur",SULAWESI TENGGARA,93571.0,Indonesia,,,,-4.014858,121.769536,https://maps.google.com/?cid=0x0:0x96cfa5a3496ca57c,
perumahan,Kompleks Apartemen,Kampung kelengkeng,"2Q54+WW5, Watupute, Mowewe, Kabupaten Kolaka Timur, Sulawesi Tenggara","Kabupaten Kolaka Timur, Sulawesi Tenggara",SULAWESI TENGGARA,,Indonesia,,,,-3.9902292,121.757365,https://maps.google.com/?cid=0x0:0xc54540b78b1a041d,
perumahan,Pembangunan Perumahan,Rumah Kepala Dusun IV Lemo-Lemo,"2QCC+2H, Weamo, Kec. Tinondo, Kabupaten Kolaka Timur, Sulawesi Tenggara","Kabupaten Kolaka Timur, Sulawesi Tenggara",SULAWESI TENGGARA,,Indonesia,,,,-3.9799774,121.7714735,https://maps.google.com/?cid=0x0:0x3637ed22a450f25f,
perumahan,Komplek perumahan,rumah nyaaa riaa,"XQCX+7GW, Keisio, Kec. Lalolae, Kabupaten Kolaka Timur, Sulawesi Tenggara","Kabupaten Kolaka Timur, Sulawesi Tenggara",SULAWESI TENGGARA,,Indonesia,,,,-4.028853,121.7979166,https://maps.google.com/?cid=0x0:0xe3505f2d90900569,
perumahan,Komplek perumahan,green house keisio,"XQCX+7GW, Keisio, Kec. Lalolae, Kabupaten Kolaka, Sulawesi Tenggara","Kabupaten Kolaka, Sulawesi Tenggara",SULAWESI TENGGARA,,Indonesia,,,,-4.029256,121.7988136,https://maps.google.com/?cid=0x0:0x3e580be02b3b7591,
perumahan,Komplek perumahan,Horodopi,"2P5V+PF7, Horodopi, Mowewe, Kabupaten Kolaka Timur, Sulawesi Tenggara 93519","Horodopi, Mowewe, Kabupaten Kolaka Timur",SULAWESI TENGGARA,93519.0,Indonesia,,,,-3.991519,121.744373,https://maps.google.com/?cid=0x0:0x26feac0bf802c7ac,
perumahan,Bank,Bank BRI UNIT Lambadia,"Jl. Gatot Subroto No.43, Penanggo Jaya, Kec. Lambandia, Kabupaten Kolaka Timur, Sulawesi Tenggara 93958","Penanggo Jaya, Kec. Lambandia, Kabupaten Kolaka Timur",SULAWESI TENGGARA,93958.0,Indonesia, 1500017,,,-4.3044607,121.9295846,https://maps.google.com/?cid=0x0:0xb0de6fe9f4b28a9,
perumahan,ATM,Bank BRI Unit Rate-Rate Kolaka,"Rate-Rate, Kec. Tirawuta, Kabupaten Kolaka Timur, Sulawesi Tenggara 93572","Kec. Tirawuta, Kabupaten Kolaka Timur",SULAWESI TENGGARA,93572.0,Indonesia, 1500017,,,-4.0486073,121.8900282,https://maps.google.com/?cid=0x0:0xa95b30431180fe44,
perumahan,perumahan,Kec. Loea,"Kabupaten Kolaka Timur, Sulawesi Tenggara","Kabupaten Kolaka Timur, Sulawesi Tenggara",SULAWESI TENGGARA,,Indonesia,,,,-4.0866248,121.8885897,https://maps.google.com/?cid=0x0:0x3416e72c1ead93b6,
perumahan,Komplek perumahan,Rumah Hatta,"WV7R+22G, Loea, Kec. Loea, Kabupaten Kolaka Timur, Sulawesi Tenggara","Kabupaten Kolaka Timur, Sulawesi Tenggara",SULAWESI TENGGARA,,Indonesia,,,,-4.087433,121.8900821,https://maps.google.com/?cid=0x0:0x98e1107a5afa5550,
perumahan,,PT.VIRERA JAYA INDONESIA,"WVXR+GHJ, Jl. Bolo, Rate-Rate, Kec. Tirawuta, Kabupaten Kolaka Timur, Sulawesi Tenggara 93572","Jl. Bolo, Rate-Rate, Kec. Tirawuta, Kabupaten Kolaka Timur",SULAWESI TENGGARA,93572.0,Indonesia, 082217250793,,,-4.051158,121.891394,https://maps.google.com/?cid=0x0:0x18249f16e8033f8f,
perumahan,perumahan,Koko,"WV4J+XG8, Mataiwoi, Kec. Loea, Kabupaten Kolaka Timur, Sulawesi Tenggara 93572","Mataiwoi, Kec. Loea, Kabupaten Kolaka Timur",SULAWESI TENGGARA,93572.0,Indonesia,,,,-4.0920667,121.882395,https://maps.google.com/?cid=0x0:0x34882e50ea33bd22,
perumahan,Komplek perumahan,Rumah Ferdyy,"VVXP+GMQ, Teposua, Kec. Loea, Kabupaten Kolaka, Sulawesi Tenggara","Kabupaten Kolaka, Sulawesi Tenggara",SULAWESI TENGGARA,,Indonesia,,,,-4.1011693,121.8867438,https://maps.google.com/?cid=0x0:0xfe2f1ffbe41eb7ff,
perumahan,Pembangunan Perumahan,Perumahan. Putri Aulia Residence,"WVXR+9RX, Rate-Rate, Kec. Tirawuta, Kabupaten Kolaka Timur, Sulawesi Tenggara 93572","Rate-Rate, Kec. Tirawuta, Kabupaten Kolaka Timur",SULAWESI TENGGARA,93572.0,Indonesia,,,,-4.0515022,121.8920975,https://maps.google.com/?cid=0x0:0x93c0eacc3db22115,
perumahan,Komplek perumahan,Serly ayu,"WVCM+3RG, Loea, Kec. Loea, Kabupaten Kolaka, Sulawesi Tenggara 93572","Loea, Kec. Loea, Kabupaten Kolaka",SULAWESI TENGGARA,93572.0,Indonesia,,,,-4.0798127,121.8845724,https://maps.google.com/?cid=0x0:0x1bc875f2eb6ec78,
perumahan,Komplek perumahan,Lamoare,"WV4R+342, Lamoare, Kec. Loea, Kabupaten Kolaka Timur, Sulawesi Tenggara 93572","Lamoare, Kec. Loea, Kabupaten Kolaka Timur",SULAWESI TENGGARA,93572.0,Indonesia,,,,-4.0944971,121.8908386,https://maps.google.com/?cid=0x0:0x4ef75d440b86d442,
perumahan,Komplek perumahan,Perumahan bukit tasahea permai,"WVXQ+8Q6, Jl. Poros Rate-rate Ladongi Road, Rate-Rate, Kec. Tirawuta, Kabupaten Kolaka Timur, Sulawesi Tenggara 93572","Jl. Poros Rate-rate Ladongi Road, Rate-Rate, Kec. Tirawuta, Kabupaten Kolaka Timur",SULAWESI TENGGARA,93572.0,Indonesia,,,,-4.0517128,121.8893865,https://maps.google.com/?cid=0x0:0x2322c6fb09fbeb75,
perumahan,Komplek perumahan,Rumah Dwi,"WV2V+XHH, Lamoare, Kec. Loea, Kabupaten Kolaka Timur, Sulawesi Tenggara 93572","Lamoare, Kec. Loea, Kabupaten Kolaka Timur",SULAWESI TENGGARA,93572.0,Indonesia,,,,-4.0975597,121.8939925,https://maps.google.com/?cid=0x0:0xd6c158035280e85a,
perumahan,Komplek perumahan,RUMAH PAK AMRUN,"WV8M+XWW, Loea, Kec. Loea, Kabupaten Kolaka Timur, Sulawesi Tenggara","Kabupaten Kolaka Timur, Sulawesi Tenggara",SULAWESI TENGGARA,,Indonesia,,,,-4.0825194,121.8848274,https://maps.google.com/?cid=0x0:0x8a2fea42668e5242,
perumahan,Komplek perumahan,Ongki saputra,"WV4P+RQ, Mataiwoi, Kec. Loea, Kabupaten Kolaka Timur, Sulawesi Tenggara 93572","Mataiwoi, Kec. Loea, Kabupaten Kolaka Timur",SULAWESI TENGGARA,93572.0,Indonesia,,,,-4.0929548,121.8873205,https://maps.google.com/?cid=0x0:0x767a21ac1853a7a0,
perumahan,Komplek perumahan,Niluh Julyanti,"VVWQ+M3F, Putemata, Kec. Ladongi, Kabupaten Kolaka Timur, Sulawesi Tenggara 93572","Putemata, Kec. Ladongi, Kabupaten Kolaka Timur",SULAWESI TENGGARA,93572.0,Indonesia,,,,-4.103387,121.886586,https://maps.google.com/?cid=0x0:0x454fe2982037b58d,
perumahan,Komplek perumahan,Lrg. Tanea,"WVRQ+PWF, Jl. Tanea, kelurahan tababu, Tasahea, Kec. Tirawuta, Kabupaten Kolaka Timur, Sulawesi Tenggara 93572","Jl. Tanea, kelurahan tababu, Tasahea, Kec. Tirawuta, Kabupaten Kolaka Timur",SULAWESI TENGGARA,93572.0,Indonesia,,,,-4.0581848,121.8897898,https://maps.google.com/?cid=0x0:0x97d7cb3ca2b0ce11,
perumahan,Komplek perumahan,caca,"WV2R+MW4, Lamoare, Kec. Loea, Kabupaten Kolaka Timur, Sulawesi Tenggara","Kabupaten Kolaka Timur, Sulawesi Tenggara",SULAWESI TENGGARA,,Indonesia,,,,-4.0983625,121.8923281,https://maps.google.com/?cid=0x0:0x4e65442217eccfe,
perumahan,Komplek perumahan,Rumah Pak Ambo,"WW83+HV6, Lalowura, Kec. Loea, Kabupaten Kolaka Timur, Sulawesi Tenggara 93572","Lalowura, Kec. Loea, Kabupaten Kolaka Timur",SULAWESI TENGGARA,93572.0,Indonesia,,,,-4.083312,121.9036538,https://maps.google.com/?cid=0x0:0x55d8e95513580b72,
perumahan,Kios,Kios ningrat,"WV3Q+2W, Lamoare, Kec. Loea, Kabupaten Kolaka, Sulawesi Tenggara 93572","Lamoare, Kec. Loea, Kabupaten Kolaka",SULAWESI TENGGARA,93572.0,Indonesia,,,,-4.0974015,121.8898612,https://maps.google.com/?cid=0x0:0xe6ce536f7a9fdaf3,
perumahan,perumahan,Desa ungguloko,"VWJX+RV, Iwoikondo, Kec. Loea, Kabupaten Kolaka Timur, Sulawesi Tenggara","Kabupaten Kolaka Timur, Sulawesi Tenggara",SULAWESI TENGGARA,,Indonesia,,,,-4.117919,121.949699,https://maps.google.com/?cid=0x0:0x164fee3f811a1827,
perumahan,Komplek perumahan,rumah Ahmed nur,"WW83+HV6, Lalowura, Kec. Loea, Kabupaten Kolaka Timur, Sulawesi Tenggara 93572","Lalowura, Kec. Loea, Kabupaten Kolaka Timur",SULAWESI TENGGARA,93572.0,Indonesia,,,,-4.0833374,121.9035492,https://maps.google.com/?cid=0x0:0x4819a1226d6be55b,
perumahan,Perumahan,Rumah pak gusti,"WV4P+J5X, Jl. Blk. D, Mataiwoi, Kec. Loea, Kabupaten Kolaka Timur, Sulawesi Tenggara 93572","Jl. Blk. D, Mataiwoi, Kec. Loea, Kabupaten Kolaka Timur",SULAWESI TENGGARA,93572.0,Indonesia,,,,-4.0933761,121.8854769,https://maps.google.com/?cid=0x0:0xeab393a483191422,
perumahan,Komplek perumahan,Made Sulantra,"WV5Q+2MM, Blok Jl. Blk. B Lamoare, Lamoare, Kec. Loea, Kabupaten Kolaka Timur, Sulawesi Tenggara 93572","Blok Jl. Blk. B Lamoare, Lamoare, Kec. Loea, Kabupaten Kolaka Timur",SULAWESI TENGGARA,93572.0,Indonesia,,,,-4.0922658,121.8893885,https://maps.google.com/?cid=0x0:0xafd2a9c8d53ada04,
perumahan,Pembangunan Perumahan,Made Ariana,"WV3P+45C jlan Enau, Jl. Blk. E, Mataiwoi, Kec. Loea, Kabupaten Kolaka Timur, Sulawesi Tenggara 93572","Jl. Blk. E, Mataiwoi, Kec. Loea, Kabupaten Kolaka Timur",SULAWESI TENGGARA,93572.0,Indonesia, 082236968940,,,-4.0971916,121.885396,https://maps.google.com/?cid=0x0:0x187a03738908117,
perumahan,perumahan,Mowewe,"Kabupaten Kolaka Timur, Sulawesi Tenggara","Kabupaten Kolaka Timur, Sulawesi Tenggara",SULAWESI TENGGARA,,Indonesia,,,,-3.962898,121.7081454,https://maps.google.com/?cid=0x0:0xdd1351df24135eeb,
perumahan,Komplek perumahan,My home,"2P6V+CVJ, Watupute, Mowewe, Kabupaten Kolaka Timur, Sulawesi Tenggara 93519","Watupute, Mowewe, Kabupaten Kolaka Timur",SULAWESI TENGGARA,93519.0,Indonesia,,,,-3.9897092,121.7449288,https://maps.google.com/?cid=0x0:0xbe4a435d1b423807,
perumahan,Pembangunan Perumahan,Rumah Tower,"2PVM+WG7, Woitombo, Mowewe, Kabupaten Kolaka Timur, Sulawesi Tenggara","Kabupaten Kolaka Timur, Sulawesi Tenggara",SULAWESI TENGGARA,,Indonesia,,,,-3.9552018,121.7337949,https://maps.google.com/?cid=0x0:0xe1e7a2dc95169f45,
perumahan,Komplek perumahan,RUMAH ARYA PRATAMA 027,"3P28+VXM, Nelombu, Mowewe, Kabupaten Kolaka Timur, Sulawesi Tenggara","Kabupaten Kolaka Timur, Sulawesi Tenggara",SULAWESI TENGGARA,,Indonesia,,,,-3.9477987,121.7174351,https://maps.google.com/?cid=0x0:0x10ec52c43418908,
perumahan,perumahan,Home Miya,"2PW8+J4, Nelombu, Mowewe, Kabupaten Kolaka Timur, Sulawesi Tenggara","Kabupaten Kolaka Timur, Sulawesi Tenggara",SULAWESI TENGGARA,,Indonesia,,,,-3.953401,121.7153068,https://maps.google.com/?cid=0x0:0xb312390f1a7c979b,
perumahan,Pembangunan Perumahan,Woitombo,"2PVM+WG7, Woitombo, Mowewe, Kabupaten Kolaka Timur, Sulawesi Tenggara","Kabupaten Kolaka Timur, Sulawesi Tenggara",SULAWESI TENGGARA,,Indonesia,,,,-3.9552018,121.7337949,https://maps.google.com/?cid=0x0:0xc089404311dc96ac,
perumahan,Komplek perumahan,Horodopi,"2P5V+PF7, Horodopi, Mowewe, Kabupaten Kolaka Timur, Sulawesi Tenggara 93519","Horodopi, Mowewe, Kabupaten Kolaka Timur",SULAWESI TENGGARA,93519.0,Indonesia,,,,-3.991519,121.744373,https://maps.google.com/?cid=0x0:0x26feac0bf802c7ac,
perumahan,Komplek perumahan,RUMAH UMNA,"2PFM+HH4, Inebenggi, Mowewe, Kabupaten Kolaka Timur, Sulawesi Tenggara 93519","Inebenggi, Mowewe, Kabupaten Kolaka Timur",SULAWESI TENGGARA,93519.0,Indonesia,,,,-3.9749376,121.7340192,https://maps.google.com/?cid=0x0:0x51bcdcf56e6ad9f1,
perumahan,Toko umum,Dusun rukuwo,"3P4G+592, Nelombu, Mowewe, Kabupaten Kolaka, Sulawesi Tenggara 93518","Nelombu, Mowewe, Kabupaten Kolaka",SULAWESI TENGGARA,93518.0,Indonesia,,,,-3.9446191,121.7258782,https://maps.google.com/?cid=0x0:0x6856352b934bfe6b,
perumahan,Komplek perumahan,KOMPLEKS SEGI 3 PERMAI,"2P5V+VHJ, Horodopi, Mowewe, Kabupaten Kolaka Timur, Sulawesi Tenggara 93519","Horodopi, Mowewe, Kabupaten Kolaka Timur",SULAWESI TENGGARA,93519.0,Indonesia,,,,-3.990294,121.7438956,https://maps.google.com/?cid=0x0:0x931980a620b8e703,
perumahan,Komplek perumahan,Indar,"2Q92+J9R, Watupute, Mowewe, Kabupaten Kolaka Timur, Sulawesi Tenggara","Kabupaten Kolaka Timur, Sulawesi Tenggara",SULAWESI TENGGARA,,Indonesia,,,,-3.9808881,121.7508912,https://maps.google.com/?cid=0x0:0x9ea9fadb81424469,
perumahan,perumahan,Namira Home,"2M8W+2JX, Puuosu, Mowewe, Kabupaten Kolaka Timur, Sulawesi Tenggara","Kabupaten Kolaka Timur, Sulawesi Tenggara",SULAWESI TENGGARA,,Indonesia,,,,-3.9861413,121.6971861,https://maps.google.com/?cid=0x0:0xd3281debfaf2b894,
perumahan,perumahan,Tongkrongan gitar,"2PQG+MMH, Woitombo, Mowewe, Kabupaten Kolaka Timur, Sulawesi Tenggara","Kabupaten Kolaka Timur, Sulawesi Tenggara",SULAWESI TENGGARA,,Indonesia,,,,-3.960815,121.7267367,https://maps.google.com/?cid=0x0:0x6ec104f69b133661,
perumahan,Pembangunan Perumahan,Peumahan Masa Depan,"2PRV+433, Jl. Poros, Inebenggi, Mowewe, Uluiwoi, Sulawesi Tenggara","Uluiwoi, Sulawesi Tenggara",SULAWESI TENGGARA,,Indonesia,,,,-3.9597364,121.7426842,https://maps.google.com/?cid=0x0:0xcb8d6b974569d1e4,
perumahan,Komplek perumahan,Rumah Ajat,"2P6V+GV6, Watupute, Mowewe, Kabupaten Kolaka Timur, Sulawesi Tenggara","Kabupaten Kolaka Timur, Sulawesi Tenggara",SULAWESI TENGGARA,,Indonesia,,,,-3.9887063,121.744636,https://maps.google.com/?cid=0x0:0xa57ada7463440596,
perumahan,Komplek perumahan,Noerwand,"2P7W+4PJ, Watupute, Mowewe, Kabupaten Kolaka Timur, Sulawesi Tenggara 93519","Watupute, Mowewe, Kabupaten Kolaka Timur",SULAWESI TENGGARA,93519.0,Indonesia,,,,-3.9871511,121.7467749,https://maps.google.com/?cid=0x0:0x3568d0dcf7ae07ad,
perumahan,perumahan,HOMEBES BABINSA LAPANGISI,"2P5P+X5Q, Lapangisi, Mowewe, Kabupaten Kolaka Timur, Sulawesi Tenggara 93519","Lapangisi, Mowewe, Kabupaten Kolaka Timur",SULAWESI TENGGARA,93519.0,Indonesia,,,,-3.9911947,121.7357858,https://maps.google.com/?cid=0x0:0x7b6e4374beff03c9,
perumahan,Komplek perumahan,Rumah Athifah,"2P7W+V7R, Watupute, Mowewe, Kabupaten Kolaka Timur, Sulawesi Tenggara","Kabupaten Kolaka Timur, Sulawesi Tenggara",SULAWESI TENGGARA,,Indonesia,,,,-3.9852633,121.745627,https://maps.google.com/?cid=0x0:0x922be31095f95167,
perumahan,Rumah Makan,Rumah Makan Putri Mowewe,"XQW5+9MP, Jalan Poros Kolaka - Rate-rate, Horodopi, Mowewe, Wesalo, Kec. Lalolae, Kabupaten Kolaka Timur, Sulawesi Tenggara 93519","Jalan Poros Kolaka - Rate-rate, Horodopi, Mowewe, Wesalo, Kec. Lalolae, Kabupaten Kolaka Timur",SULAWESI TENGGARA,93519.0,Indonesia,,,,-4.0040252,121.7592151,https://maps.google.com/?cid=0x0:0xe45f86a9c7e75a44,
perumahan,Kompleks Apartemen,Kampung kelengkeng,"2Q54+WW5, Watupute, Mowewe, Kabupaten Kolaka Timur, Sulawesi Tenggara","Kabupaten Kolaka Timur, Sulawesi Tenggara",SULAWESI TENGGARA,,Indonesia,,,,-3.9902292,121.757365,https://maps.google.com/?cid=0x0:0xc54540b78b1a041d,
perumahan,perumahan,Rumah Iqra,"2PFM+P9F, Jl. Abdul Madjid, Inebenggi, Mowewe, Kabupaten Kolaka Timur, Sulawesi Tenggara","Kabupaten Kolaka Timur, Sulawesi Tenggara",SULAWESI TENGGARA,,Indonesia,,,,-3.9756777,121.7334316,https://maps.google.com/?cid=0x0:0x59f15e01cb778525,
perumahan,Komplek perumahan,Muh. Fajar,"2PGJ+PHR, Inebenggi, Mowewe, Kabupaten Kolaka Timur, Sulawesi Tenggara","Kabupaten Kolaka Timur, Sulawesi Tenggara",SULAWESI TENGGARA,,Indonesia,,,,-3.9731385,121.731383,https://maps.google.com/?cid=0x0:0xa3a1208aa3aa0d72,
perumahan,Komplek perumahan,Nilla Sari (House),"2P9P+95, Inebenggi, Mowewe, Kabupaten Kolaka Timur, Sulawesi Tenggara","Kabupaten Kolaka Timur, Sulawesi Tenggara",SULAWESI TENGGARA,,Indonesia,,,,-3.9815574,121.7354106,https://maps.google.com/?cid=0x0:0xdb9b9cfbb4a169ca,
perumahan,Pembangunan Perumahan,RUTIN/Kadis 1(wekara kaya),"Jl. Pendidikan No.1, Lapangisi, Mowewe, Kabupaten Kolaka Timur, Sulawesi Tenggara 93571","Lapangisi, Mowewe, Kabupaten Kolaka Timur",SULAWESI TENGGARA,93571.0,Indonesia,,,,-3.9887331,121.7378407,https://maps.google.com/?cid=0x0:0xcbc458676cea3f4f,
perumahan,perumahan,Poli-Polia,"Kec. Poli-Polia, Kabupaten Kolaka Timur, Sulawesi Tenggara","Kabupaten Kolaka Timur, Sulawesi Tenggara",SULAWESI TENGGARA,,Indonesia,,,,-4.1865835,121.8875679,https://maps.google.com/?cid=0x0:0xe57e9b1d5ca223cc,
perumahan,perumahan,Rumah Suhardi,"RVFP+C54, Poli-Polia, Kec. Poli-Polia, Kabupaten Kolaka Timur, Sulawesi Tenggara 93573","Poli-Polia, Kec. Poli-Polia, Kabupaten Kolaka Timur",SULAWESI TENGGARA,93573.0,Indonesia,,,,-4.1764757,121.885454,https://maps.google.com/?cid=0x0:0x4a1368bf982ad0b4,
perumahan,Perhimpunan Pengembang Perumahan,Rumah Fahri,"QWR2+V66, Taosu, Kec. Poli-Polia, Kabupaten Kolaka Timur, Sulawesi Tenggara 93573","Taosu, Kec. Poli-Polia, Kabupaten Kolaka Timur",SULAWESI TENGGARA,93573.0,Indonesia,,,,-4.2078327,121.900525,https://maps.google.com/?cid=0x0:0xfbef9576f8b711b7,
perumahan,Pembangunan Perumahan,Polemaju jaya,"QWQM+H6W, Dusun 1, Pole Maju Jaya, Kec. Poli-Polia, Kabupaten Kolaka Timur, Sulawesi Tenggara 93573","Dusun 1, Pole Maju Jaya, Kec. Poli-Polia, Kabupaten Kolaka Timur",SULAWESI TENGGARA,93573.0,Indonesia,,,,-4.2110227,121.9330894,https://maps.google.com/?cid=0x0:0x82114d2fe4b1333,
perumahan,Pembangunan Perumahan,Lorong lumewa,"QWX3+VGQ, Poli-Polia, Kec. Poli-Polia, Kabupaten Kolaka Timur, Sulawesi Tenggara 93573","Poli-Polia, Kec. Poli-Polia, Kabupaten Kolaka Timur",SULAWESI TENGGARA,93573.0,Indonesia,,,,-4.2002939,121.903865,https://maps.google.com/?cid=0x0:0x19fbf5d037d76ebe,
perumahan,Komplek perumahan,SASTRA,"QWR9+QF6, Wia-Wia, Kec. Poli-Polia, Kabupaten Kolaka Timur, Sulawesi Tenggara 93573","Wia-Wia, Kec. Poli-Polia, Kabupaten Kolaka Timur",SULAWESI TENGGARA,93573.0,Indonesia,,,,-4.208236,121.9188489,https://maps.google.com/?cid=0x0:0x220176c66aad9883,
perumahan,Pembangunan Perumahan,Dewi mart,"RW33+56H, Poli-Polia, Kec. Poli-Polia, Kabupaten Kolaka Timur, Sulawesi Tenggara","Kabupaten Kolaka Timur, Sulawesi Tenggara",SULAWESI TENGGARA,,Indonesia,,,,-4.1970676,121.90311,https://maps.google.com/?cid=0x0:0x8478696b7c40c286,
perumahan,Komplek perumahan,Tistia,"RW32+X5J, Poli-Polia, Kec. Poli-Polia, Kabupaten Kolaka Timur, Sulawesi Tenggara 93573","Poli-Polia, Kec. Poli-Polia, Kabupaten Kolaka Timur",SULAWESI TENGGARA,93573.0,Indonesia,,,,-4.1950489,121.9003805,https://maps.google.com/?cid=0x0:0x32364ebd7554d123,
perumahan,Kantor Pemerintahan Wilayah,Desa Wia - wia,"QWW9+329, Wia-Wia, Kec. Poli-Polia, Kabupaten Kolaka Timur, Sulawesi Tenggara 93573","Wia-Wia, Kec. Poli-Polia, Kabupaten Kolaka Timur",SULAWESI TENGGARA,93573.0,Indonesia,,,,-4.2048251,121.9176244,https://maps.google.com/?cid=0x0:0x1b674bbbcad20fd9,
perumahan,Komplek perumahan,Rumah Refandi,"QVRX+GR3, Taosu, Kec. Poli-Polia, Kabupaten Kolaka Timur, Sulawesi Tenggara 93573","Taosu, Kec. Poli-Polia, Kabupaten Kolaka Timur",SULAWESI TENGGARA,93573.0,Indonesia,,,,-4.2087399,121.8995349,https://maps.google.com/?cid=0x0:0xe7051ea39204e7d1,
perumahan,Komplek perumahan,Rumah halim fauzan,"QVVX+G4H, Taosu, Kec. Poli-Polia, Kabupaten Kolaka Timur, Sulawesi Tenggara 93573","Taosu, Kec. Poli-Polia, Kabupaten Kolaka Timur",SULAWESI TENGGARA,93573.0,Indonesia,,,,-4.2061769,121.8978559,https://maps.google.com/?cid=0x0:0xd9b7528d003d3d02,
perumahan,perumahan,PT wid,"QWQ9+92, Wia-Wia, Kec. Poli-Polia, Kabupaten Kolaka Timur, Sulawesi Tenggara","Kabupaten Kolaka Timur, Sulawesi Tenggara",SULAWESI TENGGARA,,Indonesia,,,,-4.2112057,121.9170286,https://maps.google.com/?cid=0x0:0xb122c8a1d34c88d8,
perumahan,Komplek perumahan,Secret kompas timur,"QWX4+VV8, Poli-Polia, Kec. Poli-Polia, Kabupaten Kolaka Timur, Sulawesi Tenggara","Kabupaten Kolaka Timur, Sulawesi Tenggara",SULAWESI TENGGARA,,Indonesia,,,,-4.2003357,121.9071953,https://maps.google.com/?cid=0x0:0xd55cdaca9294002f,
perumahan,Perhimpunan Pengembang Perumahan,Rumah Posko KKN,"QWW3+H4M, Taosu, Kec. Poli-Polia, Kabupaten Kolaka Timur, Sulawesi Tenggara","Kabupaten Kolaka Timur, Sulawesi Tenggara",SULAWESI TENGGARA,,Indonesia,,,,-4.2035257,121.9028479,https://maps.google.com/?cid=0x0:0x15ef5ccbbb2a70dc,
perumahan,Perhimpunan Pengembang Perumahan,Arny delia,"QWW2+WX7, Taosu, Kec. Poli-Polia, Kabupaten Kolaka Timur, Sulawesi Tenggara 93573","Taosu, Kec. Poli-Polia, Kabupaten Kolaka Timur",SULAWESI TENGGARA,93573.0,Indonesia,,,,-4.2020076,121.9024093,https://maps.google.com/?cid=0x0:0x2715164fd6eb6ec2,
perumahan,Komplek perumahan,RUMAH ETTA JAMA',"QVX2+585, Andowengga, Kec. Poli-Polia, Kabupaten Kolaka, Sulawesi Tenggara 93573","Andowengga, Kec. Poli-Polia, Kabupaten Kolaka",SULAWESI TENGGARA,93573.0,Indonesia,,,,-4.20212,121.850874,https://maps.google.com/?cid=0x0:0xc4c981d743683b72,
perumahan,Perumahan,WIASMARA,"QWX6+HJ, Wia-Wia, Kec. Poli-Polia, Kabupaten Kolaka, Sulawesi Tenggara 93573","Wia-Wia, Kec. Poli-Polia, Kabupaten Kolaka",SULAWESI TENGGARA,93573.0,Indonesia,,,,-4.2010202,121.9115942,https://maps.google.com/?cid=0x0:0x5dd24b978c740519,
perumahan,perumahan,Wayan Purna Yasa,"QWR9+QCH, Wia-Wia, Kec. Poli-Polia, Kabupaten Kolaka Timur, Sulawesi Tenggara 93573","Wia-Wia, Kec. Poli-Polia, Kabupaten Kolaka Timur",SULAWESI TENGGARA,93573.0,Indonesia,,,,-4.2081925,121.9183392,https://maps.google.com/?cid=0x0:0xa19f00a86b7ef253,
perumahan,Pembangunan Perumahan,Kios dewi sejahtera,"QWR2+WWC, Tokai, Kec. Poli-Polia, Kabupaten Kolaka, Sulawesi Tenggara","Kabupaten Kolaka, Sulawesi Tenggara",SULAWESI TENGGARA,,Indonesia,,,,-4.207678,121.9022668,https://maps.google.com/?cid=0x0:0xb9c70fbc076eeb9,
perumahan,Perhimpunan Pengembang Perumahan,Rumah Syahril,"QWV3+CMW, Inotu, Kec. Poli-Polia, Kabupaten Kolaka Timur, Sulawesi Tenggara","Kabupaten Kolaka Timur, Sulawesi Tenggara",SULAWESI TENGGARA,,Indonesia,,,,-4.2063856,121.904207,https://maps.google.com/?cid=0x0:0xe96f830f628ad51c,
perumahan,perumahan,Sulawesi Tenggara 93571,"Kabupaten Kolaka, Sulawesi Tenggara","Kabupaten Kolaka, Sulawesi Tenggara",SULAWESI TENGGARA,,Indonesia,,,,-3.8424079,121.856261,https://maps.google.com/?cid=0x0:0x1bb5ec53427fe729,
perumahan,perumahan,Tempat Tinggal,"3P8X+G6, Solewatu, Kec. Tinondo, Kabupaten Kolaka Timur, Sulawesi Tenggara","Kabupaten Kolaka Timur, Sulawesi Tenggara",SULAWESI TENGGARA,,Indonesia,,,,-3.9336896,121.7480527,https://maps.google.com/?cid=0x0:0x950637d9eb5d6e35,
perumahan,Komplek perumahan,Risnawati,"2QPC+48W, Weamo, Kec. Tinondo, Kabupaten Kolaka Timur, Sulawesi Tenggara 93571","Weamo, Kec. Tinondo, Kabupaten Kolaka Timur",SULAWESI TENGGARA,93571.0,Indonesia,,,,-3.9646264,121.7708337,https://maps.google.com/?cid=0x0:0xb9d210720f197a58,
perumahan,Perumahan,Desa.lamundre kab.kolaka,"2R98+VHJ, Lamunde, Kec. Tinondo, Kabupaten Kolaka, Sulawesi Tenggara 93571","Lamunde, Kec. Tinondo, Kabupaten Kolaka",SULAWESI TENGGARA,93571.0,Indonesia,,,,-3.9802781,121.8164031,https://maps.google.com/?cid=0x0:0x5df1dfcf1664edef,
perumahan,Pembangunan Perumahan,Tawa-tawaro,"3QGX+FWG, Tawarombadaka, Kec. Tinondo, Kabupaten Kolaka Timur, Sulawesi Tenggara 93571","Tawarombadaka, Kec. Tinondo, Kabupaten Kolaka Timur",SULAWESI TENGGARA,93571.0,Indonesia,,,,-3.9238097,121.7998403,https://maps.google.com/?cid=0x0:0x573fb70f2ec6dbca,
perumahan,perumahan,Rumah Firmansyah,"6WWC+2RW, Jl. Poros Unaaha, Sambeani, Kec. Abuki, Kabupaten Konawe, Sulawesi Tenggara 93452","Jl. Poros Unaaha, Sambeani, Kec. Abuki, Kabupaten Konawe",SULAWESI TENGGARA,93452.0,Indonesia,,,,-3.7544568,121.9227706,https://maps.google.com/?cid=0x0:0x98b9b022194cdc3f,
perumahan,perumahan,Taufik Hidayat,"2RX3+QPX, Tawarombadaka, Kec. Tinondo, Kabupaten Kolaka Timur, Sulawesi Tenggara 93571","Tawarombadaka, Kec. Tinondo, Kabupaten Kolaka Timur",SULAWESI TENGGARA,93571.0,Indonesia,,,,-3.9505142,121.8043716,https://maps.google.com/?cid=0x0:0x9fef7b4a84ec12bd,
perumahan,Komplek perumahan,Tengko Situru,"2RHG+W2M, Lamunde, Kec. Tinondo, Kabupaten Kolaka Timur, Sulawesi Tenggara 93571","Lamunde, Kec. Tinondo, Kabupaten Kolaka Timur",SULAWESI TENGGARA,93571.0,Indonesia,,,,-3.9701553,121.8250474,https://maps.google.com/?cid=0x0:0x4371cd74ac619029,
perumahan,Komplek perumahan,GAPOKTAN DISTERE,"2RR5+WRH, Tinondo, Kec. Tinondo, Kabupaten Kolaka Timur, Sulawesi Tenggara 93571","Tinondo, Kec. Tinondo, Kabupaten Kolaka Timur",SULAWESI TENGGARA,93571.0,Indonesia,,,,-3.9576511,121.8096464,https://maps.google.com/?cid=0x0:0x82ce433c6e6d960a,
perumahan,perumahan,Taufik hidayat,"3QGX+FP8, Tawarombadaka, Kec. Tinondo, Kabupaten Kolaka Timur, Sulawesi Tenggara 93571","Tawarombadaka, Kec. Tinondo, Kabupaten Kolaka Timur",SULAWESI TENGGARA,93571.0,Indonesia,,,,-3.9238281,121.7993168,https://maps.google.com/?cid=0x0:0xb533a11444ed5c1c,
perumahan,Komplek perumahan,TOWER BTS,"2RR5+RGM, Tinondo, Kec. Tinondo, Kabupaten Kolaka Timur, Sulawesi Tenggara","Kabupaten Kolaka Timur, Sulawesi Tenggara",SULAWESI TENGGARA,,Indonesia,,,,-3.9579109,121.8087935,https://maps.google.com/?cid=0x0:0xc29c12e0d2f65257,
perumahan,Perumahan rakyat,Rumah Reyhan,"4R9V+FX, Upt. Ameroro, Kec. Tinondo, Kabupaten Kolaka, Sulawesi Tenggara","Kabupaten Kolaka, Sulawesi Tenggara",SULAWESI TENGGARA,,Indonesia,,,,-3.8812939,121.8448689,https://maps.google.com/?cid=0x0:0xeb4a541f6a48e56e,
perumahan,Komplek perumahan,Joni Bandaso,"2RQJ+CR, Lamunde, Kec. Tinondo, Kabupaten Kolaka Timur, Sulawesi Tenggara","Kabupaten Kolaka Timur, Sulawesi Tenggara",SULAWESI TENGGARA,,Indonesia,,,,-3.9613828,121.8320566,https://maps.google.com/?cid=0x0:0xfdb939ff78537052,
perumahan,Pembangunan Perumahan,Rumah Kepala Dusun IV Lemo-Lemo,"2QCC+2H, Weamo, Kec. Tinondo, Kabupaten Kolaka Timur, Sulawesi Tenggara","Kabupaten Kolaka Timur, Sulawesi Tenggara",SULAWESI TENGGARA,,Indonesia,,,,-3.9799774,121.7714735,https://maps.google.com/?cid=0x0:0x3637ed22a450f25f,
perumahan,Pembangunan Perumahan,Lorong balai desa,"2RFC+7P8, Lamunde, Kec. Tinondo, Kabupaten Kolaka Timur, Sulawesi Tenggara 93571","Lamunde, Kec. Tinondo, Kabupaten Kolaka Timur",SULAWESI TENGGARA,93571.0,Indonesia,,,,-3.9768307,121.8218277,https://maps.google.com/?cid=0x0:0x9ebd522c4cd97ba5,
perumahan,Komplek perumahan,CV RAHMATTAKBIR,"Tawarombadaka, Kec. Tinondo, Kabupaten Kolaka, Sulawesi Tenggara 93571","Kec. Tinondo, Kabupaten Kolaka",SULAWESI TENGGARA,93571.0,Indonesia, 081292078634,,,-3.9361316,121.7971617,https://maps.google.com/?cid=0x0:0x394964aff4a920c4,
perumahan,Komplek perumahan,IWANK NUGI,"2QP6+5R, Weamo, Kec. Tinondo, Kabupaten Kolaka Timur, Sulawesi Tenggara","Kabupaten Kolaka Timur, Sulawesi Tenggara",SULAWESI TENGGARA,,Indonesia,,,,-3.9647326,121.7622365,https://maps.google.com/?cid=0x0:0x7726c2a0c9c31f63,
perumahan,Komplek perumahan,Jusman thopanra,"2RX9+68, Talata, Kec. Tinondo, Kabupaten Kolaka Timur, Sulawesi Tenggara","Kabupaten Kolaka Timur, Sulawesi Tenggara",SULAWESI TENGGARA,,Indonesia,,,,-3.9511,121.817248,https://maps.google.com/?cid=0x0:0x715f36d026f5a6a5,
perumahan,Komplek perumahan,Humaira iwan,"2Q9F+G7P, Weamo, Kec. Tinondo, Kabupaten Kolaka Timur, Sulawesi Tenggara 93571","Weamo, Kec. Tinondo, Kabupaten Kolaka Timur",SULAWESI TENGGARA,93571.0,Indonesia,,,,-3.9811678,121.7731942,https://maps.google.com/?cid=0x0:0xb1891ef8479e2663,
perumahan,Pembangunan Perumahan,Ramli,"3QGX+FP8, Tawarombadaka, Kec. Tinondo, Kabupaten Kolaka, Sulawesi Tenggara 93571","Tawarombadaka, Kec. Tinondo, Kabupaten Kolaka",SULAWESI TENGGARA,93571.0,Indonesia,,,,-3.9238281,121.7993168,https://maps.google.com/?cid=0x0:0x70fddb5d0550eded,
perumahan,Komplek perumahan,ERWIN JAYA,"2QP6+5R, Weamo, Kec. Tinondo, Kabupaten Kolaka Timur, Sulawesi Tenggara","Kabupaten Kolaka Timur, Sulawesi Tenggara",SULAWESI TENGGARA,,Indonesia,,,,-3.9645262,121.7620481,https://maps.google.com/?cid=0x0:0x7ebb1e7266c6b45a,
perumahan,Komplek perumahan,Weamo,"2Q99+X9, Weamo, Kec. Tinondo, Kabupaten Kolaka Timur, Sulawesi Tenggara","Kabupaten Kolaka Timur, Sulawesi Tenggara",SULAWESI TENGGARA,,Indonesia,,,,-3.9801132,121.7684836,https://maps.google.com/?cid=0x0:0x2aeedc7560672567,
perumahan,Komplek perumahan,Ikon Efendy,"2RV7+VF, Talata, Kec. Tinondo, Kabupaten Kolaka Timur, Sulawesi Tenggara","Kabupaten Kolaka Timur, Sulawesi Tenggara",SULAWESI TENGGARA,,Indonesia,,,,-3.9553095,121.8136341,https://maps.google.com/?cid=0x0:0x2dd7471400d3a87b,
perumahan,perumahan,Sulawesi Tenggara 93572,Sulawesi Tenggara,Sulawesi Tenggara,SULAWESI TENGGARA,,Indonesia,,,,-4.0494144,121.947311,https://maps.google.com/?cid=0x0:0xfdc4defab63a0262,
perumahan,Kantor Perusahaan,Griya Tirawuta,"XRP6+RW5, Jl. Poros Kolaka - Rate-rate, pasar rakyat, Kec. Lalolae, Kabupaten Kolaka Timur, Sulawesi Tenggara 93572","Jl. Poros Kolaka - Rate-rate, pasar rakyat, Kec. Lalolae, Kabupaten Kolaka Timur",SULAWESI TENGGARA,93572.0,Indonesia, 081343198311,,,-4.0129789,121.8123453,https://maps.google.com/?cid=0x0:0x4757a69e12f8884f,
perumahan,Komplek perumahan,BTN Griya Tirawuta Indah 1,"XV3J+4XF, Tirawuta, Kec. Tirawuta, Kabupaten Kolaka, Sulawesi Tenggara 93572","Tirawuta, Kec. Tirawuta, Kabupaten Kolaka",SULAWESI TENGGARA,93572.0,Indonesia,,,,-4.0471985,121.8824308,https://maps.google.com/?cid=0x0:0xfaab7c1311ee643,
perumahan,Perhimpunan Pengembang Perumahan,BTN GRIYA TITAWUTA INDAH BLOK A NO 3,"XV5H+2XQ, Unnamed Road, Tirawuta, Kec. Tirawuta, Kabupaten Kolaka Timur, Sulawesi Tenggara 93572","Unnamed Road, Tirawuta, Kec. Tirawuta, Kabupaten Kolaka Timur",SULAWESI TENGGARA,93572.0,Indonesia,,,,-4.0424225,121.8799749,https://maps.google.com/?cid=0x0:0xf859e98dadb71274,
perumahan,Kantor Perusahaan,Perumahan Grand Lestari Matabondu,"Jl. Poros Rate-rate, Woiha, Kec. Tirawuta, Kabupaten Kolaka Timur, Sulawesi Tenggara 93572","Woiha, Kec. Tirawuta, Kabupaten Kolaka Timur",SULAWESI TENGGARA,93572.0,Indonesia,,,,-4.0232906,121.921583,https://maps.google.com/?cid=0x0:0xb4f76cf864f76c51,
perumahan,Komplek perumahan,Perumahan Lara Regency,"Jl. Poros Peatoa-Lara, Lara, Kec. Tirawuta, Kabupaten Kolaka Timur, Sulawesi Tenggara 93572","Lara, Kec. Tirawuta, Kabupaten Kolaka Timur",SULAWESI TENGGARA,93572.0,Indonesia, 085215569802,,,-4.0492663,121.9226014,https://maps.google.com/?cid=0x0:0xa071f43115a24b0a,
perumahan,Komplek perumahan,Perumahan Griya Tirawuta Indah,"2HHR+6GQ, Jl. Poros Kolaka, Rate-Rate, Tirawuta, Kabupaten Kolaka, Sulawesi Tenggara","Kabupaten Kolaka, Sulawesi Tenggara",SULAWESI TENGGARA,,Indonesia,,,,-3.971911,122.5913545,https://maps.google.com/?cid=0x0:0xe6cab68796d886ae,
perumahan,Komplek perumahan,Perumahan Bukit Tinomu Permai,"Jl. Tinomu Permai, Orawa, Kec. Tirawuta, Kabupaten Kolaka Timur, Sulawesi Tenggara 93572","Orawa, Kec. Tirawuta, Kabupaten Kolaka Timur",SULAWESI TENGGARA,93572.0,Indonesia, 082120191916,,,-4.039053,121.8973414,https://maps.google.com/?cid=0x0:0xe175df31e9d3b20d,
perumahan,Kantor Perusahaan,Perumahan Amanah Marwah,"XWFR+FR2, Tumbudadio, Kec. Tirawuta, Kabupaten Kolaka, Sulawesi Tenggara 93572","Tumbudadio, Kec. Tirawuta, Kabupaten Kolaka",SULAWESI TENGGARA,93572.0,Indonesia, 085340760315,,,-4.0263576,121.9420244,https://maps.google.com/?cid=0x0:0x9b1a6556b0cda462,
perumahan,Kantor Perusahaan,PERUMAHAN GRIYA MATABONDU,"XWMC+9JJ, Woiha, Kec. Tirawuta, Kabupaten Kolaka, Sulawesi Tenggara 93572","Woiha, Kec. Tirawuta, Kabupaten Kolaka",SULAWESI TENGGARA,93572.0,Indonesia,,,,-4.0165436,121.921513,https://maps.google.com/?cid=0x0:0xf0833f7f83e26a9f,
perumahan,Pembangunan Perumahan,Perumahan. Putri Aulia Residence,"WVXR+9RX, Rate-Rate, Kec. Tirawuta, Kabupaten Kolaka Timur, Sulawesi Tenggara 93572","Rate-Rate, Kec. Tirawuta, Kabupaten Kolaka Timur",SULAWESI TENGGARA,93572.0,Indonesia,,,,-4.0515022,121.8920975,https://maps.google.com/?cid=0x0:0x93c0eacc3db22115,
perumahan,,PT.VIRERA JAYA INDONESIA,"WVXR+GHJ, Jl. Bolo, Rate-Rate, Kec. Tirawuta, Kabupaten Kolaka Timur, Sulawesi Tenggara 93572","Jl. Bolo, Rate-Rate, Kec. Tirawuta, Kabupaten Kolaka Timur",SULAWESI TENGGARA,93572.0,Indonesia, 082217250793,,,-4.051158,121.891394,https://maps.google.com/?cid=0x0:0x18249f16e8033f8f,
perumahan,Komplek perumahan,Perumahan bukit tasahea permai,"WVXQ+8Q6, Jl. Poros Rate-rate Ladongi Road, Rate-Rate, Kec. Tirawuta, Kabupaten Kolaka Timur, Sulawesi Tenggara 93572","Jl. Poros Rate-rate Ladongi Road, Rate-Rate, Kec. Tirawuta, Kabupaten Kolaka Timur",SULAWESI TENGGARA,93572.0,Indonesia,,,,-4.0517128,121.8893865,https://maps.google.com/?cid=0x0:0x2322c6fb09fbeb75,
perumahan,Komplek perumahan,BTN CITRA TABABU INDAH,"WVXR+PC3, Rate-Rate, Kec. Tirawuta, Kabupaten Kolaka Timur, Sulawesi Tenggara 93572","Rate-Rate, Kec. Tirawuta, Kabupaten Kolaka Timur",SULAWESI TENGGARA,93572.0,Indonesia,,,,-4.0507492,121.8910422,https://maps.google.com/?cid=0x0:0xe0a4cee3e8f83c7b,
perumahan,Komplek perumahan,Unifit Land Koltim,"XVHJ+36J, Simbune, Kec. Tirawuta, Kabupaten Kolaka, Sulawesi Tenggara 93572","Simbune, Kec. Tirawuta, Kabupaten Kolaka",SULAWESI TENGGARA,93572.0,Indonesia, 085242297725,,,-4.0222985,121.8805117,https://maps.google.com/?cid=0x0:0x3da9828566ded100,
perumahan,Kantor Perusahaan,NinjaXpress Station Tirawuta,"2V4F+X6H, Simbune, Kec. Tirawuta, Kabupaten Kolaka, Sulawesi Tenggara 93572","Simbune, Kec. Tirawuta, Kabupaten Kolaka",SULAWESI TENGGARA,93572.0,Indonesia,,,,-3.9925568,121.8731158,https://maps.google.com/?cid=0x0:0xddc0b0e3003f72d6,
perumahan,Komplek perumahan,Home simpang tiga tirawuta,"XV3M+7WC, Jl. Poros Kolaka - Kendari, Rate-Rate, Kec. Tirawuta, Kabupaten Kolaka Timur, Sulawesi Tenggara 93572","Jl. Poros Kolaka - Kendari, Rate-Rate, Kec. Tirawuta, Kabupaten Kolaka Timur",SULAWESI TENGGARA,93572.0,Indonesia,,,,-4.0467655,121.8844351,https://maps.google.com/?cid=0x0:0xaa7d0926c936f611,
perumahan,Komplek perumahan,Rumah dianti,"XWFC+RM7, Woiha, Kec. Tirawuta, Kabupaten Kolaka Timur, Sulawesi Tenggara 93572","Woiha, Kec. Tirawuta, Kabupaten Kolaka Timur",SULAWESI TENGGARA,93572.0,Indonesia,,,,-4.0254749,121.9216746,https://maps.google.com/?cid=0x0:0x971b14d4ec29acc,
perumahan,Komplek perumahan,Dayat,"XWFF+Q6G, Woiha, Kec. Tirawuta, Kabupaten Kolaka Timur, Sulawesi Tenggara","Kabupaten Kolaka Timur, Sulawesi Tenggara",SULAWESI TENGGARA,,Indonesia,,,,-4.0255733,121.923085,https://maps.google.com/?cid=0x0:0x78f9d8c83474526e,
perumahan,Kantor Pemda,Dinas Perumahan Koltim,"XVX9+XFR, Lalingato, Kec. Tirawuta, Kabupaten Kolaka, Sulawesi Tenggara 93572","Lalingato, Kec. Tirawuta, Kabupaten Kolaka",SULAWESI TENGGARA,93572.0,Indonesia,,,,-4.0000245,121.8686415,https://maps.google.com/?cid=0x0:0xed4bbf50687c9360,
perumahan,Komplek perumahan,Ketut Hendra Saputra,"XW8G+MQ, Woiha, Kec. Tirawuta, Kabupaten Kolaka Timur, Sulawesi Tenggara","Kabupaten Kolaka Timur, Sulawesi Tenggara",SULAWESI TENGGARA,,Indonesia,,,,-4.0329045,121.926814,https://maps.google.com/?cid=0x0:0x59e3e28c09ea6e23,
perumahan,Komplek perumahan,Rumah Bardin,"XVRC+83V, Jl. Poros Kolaka - Rate-rate, Lalingato, Kec. Tirawuta, Kabupaten Kolaka Timur, Sulawesi Tenggara 93572","Jl. Poros Kolaka - Rate-rate, Lalingato, Kec. Tirawuta, Kabupaten Kolaka Timur",SULAWESI TENGGARA,93572.0,Indonesia,,,,-4.0092739,121.8704652,https://maps.google.com/?cid=0x0:0x9c96bf8d7437cd,
perumahan,Komplek perumahan,Yan Merta,"XWCG+46C, Roko-Roko, Kec. Tirawuta, Kabupaten Kolaka Timur, Sulawesi Tenggara 93572","Roko-Roko, Kec. Tirawuta, Kabupaten Kolaka Timur",SULAWESI TENGGARA,93572.0,Indonesia,,,,-4.0296852,121.9255019,https://maps.google.com/?cid=0x0:0xedfabda2772f5f1e,
perumahan,Pembangunan Perumahan,Simponi residence,"Poni-Poniki, Kec. Tirawuta, Kabupaten Kolaka Timur, Sulawesi Tenggara 93572","Kec. Tirawuta, Kabupaten Kolaka Timur",SULAWESI TENGGARA,93572.0,Indonesia, 085333650943,,,-4.0303798,121.8797711,https://maps.google.com/?cid=0x0:0xc986215df8bbb4b0,
perumahan,Pembangunan Perumahan,BTN unifit land simbune,"Btn unifit land No.6 Blok c, Simbune, Kec. Tirawuta, Kabupaten Kolaka Timur, Sulawesi Tenggara 93572","Simbune, Kec. Tirawuta, Kabupaten Kolaka Timur",SULAWESI TENGGARA,93572.0,Indonesia,,,,-4.02116,121.88143,https://maps.google.com/?cid=0x0:0x324f6f0c1194f08d,
perumahan,Kantor Perusahaan,BTN Green Basnapal Residence,"WVXV+MR7 Green Basnapal Residence, Rate-Rate, Kec. Tirawuta, Kabupaten Kolaka, Sulawesi Tenggara 93582","Rate-Rate, Kec. Tirawuta, Kabupaten Kolaka",SULAWESI TENGGARA,93582.0,Indonesia,,,,-4.050837,121.8945558,https://maps.google.com/?cid=0x0:0x8a6d81a6ab9859e8,
perumahan,perumahan,Sulawesi Tenggara 93575,"Kabupaten Kolaka, Sulawesi Tenggara","Kabupaten Kolaka, Sulawesi Tenggara",SULAWESI TENGGARA,,Indonesia,,,,-3.5101108,121.3998995,https://maps.google.com/?cid=0x0:0xc8b7a5389edae68c,
perumahan,Komplek perumahan,Bundaran hi uluiwoi,"FFJ4+P4R, Likuwalanapo, Uluiwoi, Kabupaten Kolaka Timur, Sulawesi Tenggara","Kabupaten Kolaka Timur, Sulawesi Tenggara",SULAWESI TENGGARA,,Indonesia,,,,-3.5168813,121.4545846,https://maps.google.com/?cid=0x0:0x506292c2d881abb2,
perumahan,Komplek perumahan,kecamatan uluiwoi,"SMP n 1uluiwoi, Likuwalanapo, Uluiwoi, Kabupaten Kolaka Timur, Sulawesi Tenggara","Kabupaten Kolaka Timur, Sulawesi Tenggara",SULAWESI TENGGARA,,Indonesia,,,,-3.5135191,121.3084088,https://maps.google.com/?cid=0x0:0x36221b27f043b935,
perumahan,Komplek perumahan,Rumah Mudin,"5PXW+R79, Pehanggo, Uluiwoi, Kabupaten Kolaka Timur, Sulawesi Tenggara","Kabupaten Kolaka Timur, Sulawesi Tenggara",SULAWESI TENGGARA,,Indonesia,,,,-3.8004666,121.7457279,https://maps.google.com/?cid=0x0:0x9b5fa1ed786753cb,
perumahan,Komplek perumahan,Rumah pak Sarjun,"9G4V+W6, Ueesi, Kec. Uluiwoi, Kabupaten Kolaka, Sulawesi Tenggara 93575","Ueesi, Kec. Uluiwoi, Kabupaten Kolaka",SULAWESI TENGGARA,93575.0,Indonesia,,,,-3.6426663,121.5431197,https://maps.google.com/?cid=0x0:0x63efc592d5c20d41,
perumahan,Perhimpunan Pengembang Perumahan,Rumah Aksan,"8GP7+MMF, Dusun II Wandaeha, Ueesi, Kabupaten Kolaka Timur, Sulawesi Tenggara","Kabupaten Kolaka Timur, Sulawesi Tenggara",SULAWESI TENGGARA,,Indonesia,,,,-3.663313,121.5141615,https://maps.google.com/?cid=0x0:0x90a891f0659fa522,
perumahan,perumahan,MarSyAmBil,"7F44+5RM, Tolowe Ponrewaru, Kec. Wolo, Kabupaten Kolaka, Sulawesi Tenggara","Kabupaten Kolaka, Sulawesi Tenggara",SULAWESI TENGGARA,,Indonesia,,,,-3.7445418,121.4570447,https://maps.google.com/?cid=0x0:0xda640c3fb0c8fd50,
perumahan,Kantor Pemerintah,DESA LIKUWALANAPO,"GG26+4P3, Likuwalanapo, Uluiwoi, Kabupaten Kolaka, Sulawesi Tenggara 93464","Likuwalanapo, Uluiwoi, Kabupaten Kolaka",SULAWESI TENGGARA,93464.0,Indonesia,,,,-3.4997464,121.5117984,https://maps.google.com/?cid=0x0:0x8275275e3605bf0e,
perumahan,Pembangunan Perumahan,Upt.t tongauna,"FFJ4+9G2, Ueesi, Uluiwoi, Kabupaten Kolaka Timur, Sulawesi Tenggara","Kabupaten Kolaka Timur, Sulawesi Tenggara",SULAWESI TENGGARA,,Indonesia,,,,-3.5191227,121.4562536,https://maps.google.com/?cid=0x0:0xabf5b974f3658bf,
perumahan,Pembangunan Perumahan,Alaaha Motuo,"FC23+J3R, Likuwalanapo, Uluiwoi, Kabupaten Kolaka Timur, Sulawesi Tenggara","Kabupaten Kolaka Timur, Sulawesi Tenggara",SULAWESI TENGGARA,,Indonesia,,,,-3.5483872,121.4026494,https://maps.google.com/?cid=0x0:0x52008452ee18eb6f,
perumahan,Komplek perumahan,Abdul munir,"7F44+5RM, Tolowe Ponrewaru, Kec. Wolo, Kabupaten Kolaka, Sulawesi Tenggara 93552","Tolowe Ponrewaru, Kec. Wolo, Kabupaten Kolaka",SULAWESI TENGGARA,93552.0,Indonesia,,,,-3.7445418,121.4570447,https://maps.google.com/?cid=0x0:0x8f4e2446043baa36,
perumahan,Kantor Pemerintah,Desa Mataleuno,"P87J+MGM, Dusun 3, Mataleuno, Kec. Pakue Utara, Kabupaten Kolaka Utara, Sulawesi Tenggara","Kabupaten Kolaka Utara, Sulawesi Tenggara",SULAWESI TENGGARA,,Indonesia,,,,-3.2857838,121.3312882,https://maps.google.com/?cid=0x0:0x2ddb92db8fb0343a,
perumahan,Komplek perumahan,Rika home,"7F44+5RM, Tolowe Ponrewaru, Kec. Wolo, Kabupaten Kolaka, Sulawesi Tenggara","Kabupaten Kolaka, Sulawesi Tenggara",SULAWESI TENGGARA,,Indonesia,,,,-3.7445418,121.4570447,https://maps.google.com/?cid=0x0:0x44780c5fd8b56189,
perumahan,Rumah Kayu,Rumah aliksan,"7J5C+6M, Uete, Kec. Uluiwoi, Kabupaten Kolaka Timur, Sulawesi Tenggara","Kabupaten Kolaka Timur, Sulawesi Tenggara",SULAWESI TENGGARA,,Indonesia,,,,-3.7419938,121.6216692,https://maps.google.com/?cid=0x0:0x3fe1040e00750211,
perumahan,perumahan,Perumahan Griya Ulu Wolo,"5789+QR, Ulu Wolo, Kec. Wolo, Kabupaten Kolaka, Sulawesi Tenggara","Kabupaten Kolaka, Sulawesi Tenggara",SULAWESI TENGGARA,,Indonesia,,,,-3.8331014,121.2694093,https://maps.google.com/?cid=0x0:0x2ce0d84a98790903,
perumahan,Komplek perumahan,Rumah aisyah,"M3GQ+X58, Parutellang, Kec. Ngapa, Kabupaten Kolaka Utara, Sulawesi Tenggara","Kabupaten Kolaka Utara, Sulawesi Tenggara",SULAWESI TENGGARA,,Indonesia,,,,-3.3225971,121.0879674,https://maps.google.com/?cid=0x0:0x8f25a0906b455361,
perumahan,Komplek perumahan,Muh. Risal,"6PX8+VFM, Ambekaeri Utama, Kec. Latoma, Kabupaten Konawe, Sulawesi Tenggara 93452","Ambekaeri Utama, Kec. Latoma, Kabupaten Konawe",SULAWESI TENGGARA,93452.0,Indonesia,,,,-3.750592,121.716265,https://maps.google.com/?cid=0x0:0x7395fd21990345df,
perumahan,Kantor Pemerintah,Desa Andoluto Kec. Latoma Konawe Sulawesi Tenggara,"8MF9+CR4, Andoluto, Kec. Latoma, Kabupaten Konawe, Sulawesi Tenggara 93461","Andoluto, Kec. Latoma, Kabupaten Konawe",SULAWESI TENGGARA,93461.0,Indonesia,,,,-3.6764783,121.6695661,https://maps.google.com/?cid=0x0:0x3ffb146de8be3d51,
perumahan,Perhimpunan Pengembang Perumahan,AL IMRAN BAGIO,"7P28+WHH, Ambekaeri Utama, Kec. Latoma, Kabupaten Konawe, Sulawesi Tenggara 93452","Ambekaeri Utama, Kec. Latoma, Kabupaten Konawe",SULAWESI TENGGARA,93452.0,Indonesia,,,,-3.7476964,121.7164852,https://maps.google.com/?cid=0x0:0xce59c9d4f1c1e12e,
perumahan,Komplek perumahan,Ujung Rabat Lorong bakeke,"P5M5+QR4, Kondara, Kec. Pakue, Kabupaten Kolaka Utara, Sulawesi Tenggara 93954","Kondara, Kec. Pakue, Kabupaten Kolaka Utara",SULAWESI TENGGARA,93954.0,Indonesia,,,,-3.2656017,121.1595842,https://maps.google.com/?cid=0x0:0xf20e2df8fded76d3,
