Category,Real Category,Business Name,Address,City,State,Postal Code,Country,Phone,Email,Website,Latitude,Longitude,Map Link,Details Link
mall,mall,Baula,"Baula, Kec. Baula, Kabupaten Kolaka, Sulawesi Tenggara","Kabupaten Kolaka, Sulawesi Tenggara",SULAWESI TENGGARA,,Indonesia,,,,-4.156222,121.684402,https://maps.google.com/?cid=0x0:0x848963d15ef49661,
mall,mall,Kec. Tebet,"Kota Jakarta Selatan, Daerah Khusus Ibukota Jakarta","Kota Jakarta Selatan, Daerah Khusus Ibukota Jakarta",SULAWESI TENGGARA,,Indonesia,,,,-6.2251223,106.8549881,https://maps.google.com/?cid=0x0:0xd575e31c807295f9,
mall,Pusat Perbelanjaan,Lippo Plaza Baubau,"GJQ9+JR2, Batulo, Kec. Wolio, Kota Bau-Bau, Sulawesi Tenggara 93716","Batulo, Kec. Wolio, Kota Bau-Bau",SULAWESI TENGGARA,93716.0,Indonesia,,,,-5.4609875,122.6195156,https://maps.google.com/?cid=0x0:0xa36840a3dba9c932,
mall,mall,Kios Astrid,"RMMC+Q4Q, Jl. Poros Kolaka - Pomalaa, Puundoho, Kec. Baula, Kabupaten Kolaka, Sulawesi Tenggara 93562","Jl. Poros Kolaka - Pomalaa, Puundoho, Kec. Baula, Kabupaten Kolaka",SULAWESI TENGGARA,93562.0,Indonesia,,,,-4.1655406,121.6703441,https://maps.google.com/?cid=0x0:0x1eea89c9243f978f,
mall,Gedung Apartemen,Mall@Bassura,"Jl. Jenderal Basuki Rachmat No.1A, Cipinang Besar Sel., Kecamatan Jatinegara, Kota Jakarta Timur, Daerah Khusus Ibukota Jakarta 13410","Cipinang Besar Sel., Kecamatan Jatinegara, Kota Jakarta Timur",SULAWESI TENGGARA,13410.0,Indonesia,2122807300.0,,,-6.2240597,106.8778851,https://maps.google.com/?cid=0x0:0x610648e929845480,
mall,Toko,ZUMA BASSURA MALL,"NEXT XXI, BASURA MALL CITY, 2ND FLOOR, Jl. Jenderal Basuki Rachmat No.1, RT.8/RW.10, Cipinang, Kecamatan Jatinegara, Kota Jakarta Timur, Daerah Khusus Ibukota Jakarta 13410","BASURA MALL CITY, 2ND FLOOR, Jl. Jenderal Basuki Rachmat No.1, RT.8/RW.10, Cipinang, Kecamatan Jatinegara, Kota Jakarta Timur",SULAWESI TENGGARA,13410.0,Indonesia,,,,-6.2243891,106.8777153,https://maps.google.com/?cid=0x0:0x9e8793cfc9308b9d,
mall,Pusat Perbelanjaan,Bigbird Mall Bassura,"QVGH+639, RT.6/RW.10, Cipinang Besar Sel., Kecamatan Jatinegara, Kota Jakarta Timur, Daerah Khusus Ibukota Jakarta 13410","RT.6/RW.10, Cipinang Besar Sel., Kecamatan Jatinegara, Kota Jakarta Timur",SULAWESI TENGGARA,13410.0,Indonesia,,,,-6.2244502,106.8777485,https://maps.google.com/?cid=0x0:0x6fb9c2850e00ccb6,
mall,Hotel bintang 3,Jual Sewa Apartemen Bassura City - ICAL,"Apartemen Bassura City Kios Tower Flamboyan No AL10, Daerah Khusus Ibukota Jakarta 13410","Kota Jakarta Timur, Daerah Khusus Ibukota Jakarta",SULAWESI TENGGARA,,Indonesia,81299939192.0,,,-6.2227662,106.8804363,https://maps.google.com/?cid=0x0:0xcdd434cd1cb2a1f4,
mall,Korea,Myoungdong Tokpoki Bassura,"Mall@Bassura, lantai 1, Cipinang Besar Sel., Kecamatan Jatinegara, Kota Jakarta Timur, Daerah Khusus Ibukota Jakarta 13410","lantai 1, Cipinang Besar Sel., Kecamatan Jatinegara, Kota Jakarta Timur",SULAWESI TENGGARA,13410.0,Indonesia,,,,-6.2233766,106.8809473,https://maps.google.com/?cid=0x0:0x6f64e25144c64bd0,
mall,Toko Swalayan,Super Indo Bassura City,"Mall@Bassura, Jl. Jenderal Basuki Rachmat No.1 Lantai LG, RT.8/RW.10, Cipinang Besar Sel., Kecamatan Jatinegara, Kota Jakarta Timur, Daerah Khusus Ibukota Jakarta 13410","Jl. Jenderal Basuki Rachmat No.1 Lantai LG, RT.8/RW.10, Cipinang Besar Sel., Kecamatan Jatinegara, Kota Jakarta Timur",SULAWESI TENGGARA,13410.0,Indonesia,2122807290.0,,,-6.2243891,106.8777153,https://maps.google.com/?cid=0x0:0xf713ab5cea940312,
mall,Tempat Cukur Rambut,Kaizen Haircut Bassura,"Mall Basuura City lantai LG, Jalan Basuki Rahmat No. 1A Kel, RT.8/RW.10, Cipinang Besar Sel., Kec.Jatinegara, Kota Jakarta Timur, Daerah Khusus Ibukota Jakarta 13410","Jalan Basuki Rahmat No. 1A Kel, RT.8/RW.10, Cipinang Besar Sel., Kec.Jatinegara, Kota Jakarta Timur",SULAWESI TENGGARA,13410.0,Indonesia,,,,-6.2232703,106.8787614,https://maps.google.com/?cid=0x0:0xb9bb9eaef7072382,
mall,mall,Sulawesi Tenggara 93515,"Kec. Latambaga, Kabupaten Kolaka, Sulawesi Tenggara","Kabupaten Kolaka, Sulawesi Tenggara",SULAWESI TENGGARA,,Indonesia,,,,-3.9440218,121.6340142,https://maps.google.com/?cid=0x0:0xbcfa53793a9e8ad3,
mall,Toko bahan makanan,Top Swalayan Kolaka,"Laloeha, Kec. Kolaka, Kabupaten Kolaka, Sulawesi Tenggara 93561","Kec. Kolaka, Kabupaten Kolaka",SULAWESI TENGGARA,93561.0,Indonesia,82347453535.0,,,-4.0603204,121.6112796,https://maps.google.com/?cid=0x0:0xf40e49d7c66c766f,
mall,Pusat Perbelanjaan,Pusat belanja,"Jl. Pramuka No.2, Lamokato, Kec. Kolaka, Kabupaten Kolaka, Sulawesi Tenggara 93561","Lamokato, Kec. Kolaka, Kabupaten Kolaka",SULAWESI TENGGARA,93561.0,Indonesia,85222217891.0,,,-4.0574651,121.606125,https://maps.google.com/?cid=0x0:0xf90275aed231ba01,
mall,Pusat Perbelanjaan,Balanipa Bussines Centre,"WHRW+PHC, Jl. Mekongga Indah, Lamokato, Kec. Kolaka, Kabupaten Kolaka, Sulawesi Tenggara","Kabupaten Kolaka, Sulawesi Tenggara",SULAWESI TENGGARA,,Indonesia,,,,-4.058186,121.596401,https://maps.google.com/?cid=0x0:0xb430399d0297013b,
mall,Toko,SIMPATIK ELEKTRONIK KOLAKA,"Jl. Pramuka No.51, Lamokato, Kec. Kolaka, Kabupaten Kolaka, Sulawesi Tenggara","Kabupaten Kolaka, Sulawesi Tenggara",SULAWESI TENGGARA,,Indonesia,81242718555.0,,,-4.0567366,121.5982035,https://maps.google.com/?cid=0x0:0xc4de505c2765e908,
mall,Seafood,Pasar ikan Sore,"XH2J+4XH, Jl. Dermaga, Kolakaasi, Kec. Latambaga, Kabupaten Kolaka, Sulawesi Tenggara","Kabupaten Kolaka, Sulawesi Tenggara",SULAWESI TENGGARA,,Indonesia,,,,-4.0496781,121.582476,https://maps.google.com/?cid=0x0:0xe59acf1dc2e24ebb,
mall,Toko Pakaian,Kios Aneka Niaga,"Jl. Lambotoro Lalodipu, Mangolo, Kec. Latambaga, Kabupaten Kolaka, Sulawesi Tenggara 93514","Mangolo, Kec. Latambaga, Kabupaten Kolaka",SULAWESI TENGGARA,93514.0,Indonesia,85241919656.0,,,-4.0187318,121.5481155,https://maps.google.com/?cid=0x0:0xea69dc215af343a9,
mall,Pusat Perbelanjaan,GMNI Cabang Kolaka,"WJGH+J86, Balandete, Kec. Kolaka, Kabupaten Kolaka, Sulawesi Tenggara 93561","Balandete, Kec. Kolaka, Kabupaten Kolaka",SULAWESI TENGGARA,93561.0,Indonesia,,,,-4.0734584,121.6282523,https://maps.google.com/?cid=0x0:0xb07c60165cfb46b0,
mall,Toko,Miniso Kolaka,"WJQ6+XGJ, Laloeha, Kec. Kolaka, Kabupaten Kolaka, Sulawesi Tenggara","Kabupaten Kolaka, Sulawesi Tenggara",SULAWESI TENGGARA,,Indonesia,,,,-4.0600256,121.6112686,https://maps.google.com/?cid=0x0:0x8c9353669abf8700,
mall,Pusat Perbelanjaan,Pomalaa,"WHXX+CWM, Watuliandu, Kec. Kolaka, Kabupaten Kolaka, Sulawesi Tenggara","Kabupaten Kolaka, Sulawesi Tenggara",SULAWESI TENGGARA,,Indonesia,,,,-4.0514246,121.5998076,https://maps.google.com/?cid=0x0:0x1cccb534c7a4edb2,
mall,Toko,TOKO AL KHALIQ PUUWIAU,"2H56+CX7, Ulunggolaka, Kec. Latambaga, Kabupaten Kolaka, Sulawesi Tenggara 93514","Ulunggolaka, Kec. Latambaga, Kabupaten Kolaka",SULAWESI TENGGARA,93514.0,Indonesia,82349864354.0,,,-3.9914479,121.562388,https://maps.google.com/?cid=0x0:0x42c3fdeddb289cde,
mall,Toko umum,TOKO KIWIS PUUWIAU,"2H46+RPX, Ulunggolaka, Kec. Latambaga, Kabupaten Kolaka, Sulawesi Tenggara 93514","Ulunggolaka, Kec. Latambaga, Kabupaten Kolaka",SULAWESI TENGGARA,93514.0,Indonesia,,,,-3.992889,121.5618709,https://maps.google.com/?cid=0x0:0xe4ba2083463243c1,
mall,Kantor Pemerintah,MALL PELAYANAN PUBLIK DPMPTSP KAB. KOLAKA UTARA,"GV5M+HFX, Ponggiha, Kec. Lasusua, Kabupaten Kolaka Utara, Sulawesi Tenggara","Kabupaten Kolaka Utara, Sulawesi Tenggara",SULAWESI TENGGARA,,Indonesia,81380080815.0,,,-3.4910125,120.8837344,https://maps.google.com/?cid=0x0:0x21f6b690c3c3aef2,
mall,Toko bahan makanan,DewiBidara Kolaka,"BTN BADEWI RESIDENCE, Jl. Badawi No.I, Balandete, Kec. Kolaka, Kabupaten Kolaka, Sulawesi Tenggara 93561","Jl. Badawi No.I, Balandete, Kec. Kolaka, Kabupaten Kolaka",SULAWESI TENGGARA,93561.0,Indonesia,82340253676.0,,,-4.0665673,121.6266748,https://maps.google.com/?cid=0x0:0x750dd4c7e4bcefff,
mall,Toko Tas,TOKO SEMERU KOLAKA,"Pasar Raya Mekongga No.18 Blok N, Lamokato, Kec. Kolaka, Kabupaten Kolaka, Sulawesi Tenggara 93311","Lamokato, Kec. Kolaka, Kabupaten Kolaka",SULAWESI TENGGARA,93311.0,Indonesia,85299583535.0,,,-4.0605373,121.59736,https://maps.google.com/?cid=0x0:0xd34cf54bcf7ffd33,
mall,Auditorium,Platinum Cineplex MGM,"MGM Mall, Lantai Dasar, Tahoa, Kec. Kolaka, Kabupaten Kolaka, Sulawesi Tenggara 93561","Lantai Dasar, Tahoa, Kec. Kolaka, Kabupaten Kolaka",SULAWESI TENGGARA,93561.0,Indonesia,4052332919.0,,,-4.0664328,121.6186443,https://maps.google.com/?cid=0x0:0x59769401b3afc3a7,
mall,Toko Herbal,Halal Mart Ummu Gufron,"Jl. Pemuda Lrg.Lambada No.13, Laloeha, Kec. Kolaka, Kabupaten Kolaka, Sulawesi Tenggara 93561","Laloeha, Kec. Kolaka, Kabupaten Kolaka",SULAWESI TENGGARA,93561.0,Indonesia,85241683413.0,,,-4.064667,121.616714,https://maps.google.com/?cid=0x0:0xbf822d5ca940ed37,
mall,Pasar,Toko nasir,"WJH8+2PM, Tahoa, Kec. Kolaka, Kabupaten Kolaka, Sulawesi Tenggara 93561","Tahoa, Kec. Kolaka, Kabupaten Kolaka",SULAWESI TENGGARA,93561.0,Indonesia,85241680418.0,,,-4.0724194,121.6167886,https://maps.google.com/?cid=0x0:0x4a0625f3c7c2a3b2,
mall,mall,MGM Mall,"WJM9+79V, Tahoa, Kec. Kolaka, Kabupaten Kolaka, Sulawesi Tenggara 93561","Tahoa, Kec. Kolaka, Kabupaten Kolaka",SULAWESI TENGGARA,93561.0,Indonesia,,,,-4.0667565,121.6184374,https://maps.google.com/?cid=0x0:0x617d67947748a79a,
mall,Kafe,GALERY MADU KOLAKA,"RJP9+6HV, Totobo, Kec. Pomalaa, Kabupaten Kolaka, Sulawesi Tenggara 93562","Totobo, Kec. Pomalaa, Kabupaten Kolaka",SULAWESI TENGGARA,93562.0,Indonesia,85299433827.0,,,-4.1643842,121.6189326,https://maps.google.com/?cid=0x0:0xfc1411f3a308e9aa,
mall,Kantor Pelayanan Pajak,Mall Pelayanan Publik,"Jl. Mekongga Indah, Lamokato, Kec. Kolaka, Kabupaten Kolaka, Sulawesi Tenggara","Kabupaten Kolaka, Sulawesi Tenggara",SULAWESI TENGGARA,,Indonesia,,,,-4.0602028,121.5994791,https://maps.google.com/?cid=0x0:0x877721b2145fe18c,
mall,mall,Sulawesi Tenggara 93517,"Kabupaten Kolaka, Sulawesi Tenggara","Kabupaten Kolaka, Sulawesi Tenggara",SULAWESI TENGGARA,,Indonesia,,,,-3.963869,121.685341,https://maps.google.com/?cid=0x0:0x1a35f1f1160e7b69,
mall,Toko bahan makanan,Top Swalayan Kolaka,"Laloeha, Kec. Kolaka, Kabupaten Kolaka, Sulawesi Tenggara 93561","Kec. Kolaka, Kabupaten Kolaka",SULAWESI TENGGARA,93561.0,Indonesia,82347453535.0,,,-4.0603204,121.6112796,https://maps.google.com/?cid=0x0:0xf40e49d7c66c766f,
mall,Pusat Perbelanjaan,Pusat belanja,"Jl. Pramuka No.2, Lamokato, Kec. Kolaka, Kabupaten Kolaka, Sulawesi Tenggara 93561","Lamokato, Kec. Kolaka, Kabupaten Kolaka",SULAWESI TENGGARA,93561.0,Indonesia,85222217891.0,,,-4.0574651,121.606125,https://maps.google.com/?cid=0x0:0xf90275aed231ba01,
mall,Seafood,Pasar ikan Sore,"XH2J+4XH, Jl. Dermaga, Kolakaasi, Kec. Latambaga, Kabupaten Kolaka, Sulawesi Tenggara","Kabupaten Kolaka, Sulawesi Tenggara",SULAWESI TENGGARA,,Indonesia,,,,-4.0496781,121.582476,https://maps.google.com/?cid=0x0:0xe59acf1dc2e24ebb,
mall,Lapangan Football,Lapangan Pasmal LJE,"2PQH+264, Woitombo, Mowewe, Kabupaten Kolaka, Sulawesi Tenggara 93518","Woitombo, Mowewe, Kabupaten Kolaka",SULAWESI TENGGARA,93518.0,Indonesia,82290812044.0,,,-3.9624959,121.7280858,https://maps.google.com/?cid=0x0:0x5fdc28ccbd977926,
mall,Kantor Pemerintah,MALL PELAYANAN PUBLIK DPMPTSP KAB. KOLAKA UTARA,"GV5M+HFX, Ponggiha, Kec. Lasusua, Kabupaten Kolaka Utara, Sulawesi Tenggara","Kabupaten Kolaka Utara, Sulawesi Tenggara",SULAWESI TENGGARA,,Indonesia,81380080815.0,,,-3.4910125,120.8837344,https://maps.google.com/?cid=0x0:0x21f6b690c3c3aef2,
mall,Auditorium,Platinum Cineplex MGM,"MGM Mall, Lantai Dasar, Tahoa, Kec. Kolaka, Kabupaten Kolaka, Sulawesi Tenggara 93561","Lantai Dasar, Tahoa, Kec. Kolaka, Kabupaten Kolaka",SULAWESI TENGGARA,93561.0,Indonesia,4052332919.0,,,-4.0664328,121.6186443,https://maps.google.com/?cid=0x0:0x59769401b3afc3a7,
mall,Toko Tas,TOKO SEMERU KOLAKA,"Pasar Raya Mekongga No.18 Blok N, Lamokato, Kec. Kolaka, Kabupaten Kolaka, Sulawesi Tenggara 93311","Lamokato, Kec. Kolaka, Kabupaten Kolaka",SULAWESI TENGGARA,93311.0,Indonesia,85299583535.0,,,-4.0605373,121.59736,https://maps.google.com/?cid=0x0:0xd34cf54bcf7ffd33,
mall,Toko bahan makanan,DewiBidara Kolaka,"BTN BADEWI RESIDENCE, Jl. Badawi No.I, Balandete, Kec. Kolaka, Kabupaten Kolaka, Sulawesi Tenggara 93561","Jl. Badawi No.I, Balandete, Kec. Kolaka, Kabupaten Kolaka",SULAWESI TENGGARA,93561.0,Indonesia,82340253676.0,,,-4.0665673,121.6266748,https://maps.google.com/?cid=0x0:0x750dd4c7e4bcefff,
mall,mall,Laloeha,"Kec. Kolaka, Kabupaten Kolaka, Sulawesi Tenggara","Kabupaten Kolaka, Sulawesi Tenggara",SULAWESI TENGGARA,,Indonesia,,,,-4.0130847,121.6682347,https://maps.google.com/?cid=0x0:0xdee65407c97c3d12,
mall,Toko Bahan Bangunan,"MAXCELL DEPO TEKNIK  BANGUNAN (KOLAKA) | Toko Listrik, Elektronik, Furniture Kolaka","Jl. Pramuka, Lamokato, Kec. Kolaka, Kabupaten Kolaka, Sulawesi Tenggara 93511","Lamokato, Kec. Kolaka, Kabupaten Kolaka",SULAWESI TENGGARA,93511.0,Indonesia,82166638222.0,,,-4.056492,121.5995077,https://maps.google.com/?cid=0x0:0xd15a51807812dfe,
mall,Bar Karaoke,MG FAMILY KARAOKE,"WJP4+53W, Unnamed Road, Kabupaten Kolaka, Sulawesi Tenggara 93561","Unnamed Road, Kabupaten Kolaka",SULAWESI TENGGARA,93561.0,Indonesia,811409962.0,,,-4.0645197,121.6052092,https://maps.google.com/?cid=0x0:0x29e4953e93cbce0a,
mall,Toko Ponsel,GALERIA PHONE KOLAKA,"Jl. Pramuka No.123, Lamokato, Kec. Kolaka, Kabupaten Kolaka, Sulawesi Tenggara 93511","Lamokato, Kec. Kolaka, Kabupaten Kolaka",SULAWESI TENGGARA,93511.0,Indonesia,82291550500.0,,,-4.0562083,121.5940712,https://maps.google.com/?cid=0x0:0x71242c0d984b2586,
mall,,@Kolakaupdate,"WHVW+J96, Jl. Pramuka, Lamokato, Kec. Kolaka, Kabupaten Kolaka, Sulawesi Tenggara","Kabupaten Kolaka, Sulawesi Tenggara",SULAWESI TENGGARA,,Indonesia,,,,-4.0559549,121.5958764,https://maps.google.com/?cid=0x0:0xa3bb294b3ca1af47,
mall,Toko bahan makanan,Fadli Cell,"Watupute, Mowewe, Kabupaten Kolaka, Sulawesi Tenggara 93519","Mowewe, Kabupaten Kolaka",SULAWESI TENGGARA,93519.0,Indonesia,85255502321.0,,,-3.9881456,121.746738,https://maps.google.com/?cid=0x0:0x840f55b2ff2d3706,
mall,mall,MGM Mall,"WJM9+79V, Tahoa, Kec. Kolaka, Kabupaten Kolaka, Sulawesi Tenggara 93561","Tahoa, Kec. Kolaka, Kabupaten Kolaka",SULAWESI TENGGARA,93561.0,Indonesia,,,,-4.0667565,121.6184374,https://maps.google.com/?cid=0x0:0x617d67947748a79a,
mall,Pusat Perbelanjaan,Balanipa Bussines Centre,"WHRW+PHC, Jl. Mekongga Indah, Lamokato, Kec. Kolaka, Kabupaten Kolaka, Sulawesi Tenggara","Kabupaten Kolaka, Sulawesi Tenggara",SULAWESI TENGGARA,,Indonesia,,,,-4.058186,121.596401,https://maps.google.com/?cid=0x0:0xb430399d0297013b,
mall,Toko,SIMPATIK ELEKTRONIK KOLAKA,"Jl. Pramuka No.51, Lamokato, Kec. Kolaka, Kabupaten Kolaka, Sulawesi Tenggara","Kabupaten Kolaka, Sulawesi Tenggara",SULAWESI TENGGARA,,Indonesia,81242718555.0,,,-4.0567366,121.5982035,https://maps.google.com/?cid=0x0:0xc4de505c2765e908,
mall,Kantor Perusahaan,Pustaka Bengawan Kolaka,"Jl. Pemuda No.79, Lalombaa, Kec. Kolaka, Kabupaten Kolaka, Sulawesi Tenggara 93561","Lalombaa, Kec. Kolaka, Kabupaten Kolaka",SULAWESI TENGGARA,93561.0,Indonesia,,,,-4.0609008,121.614104,https://maps.google.com/?cid=0x0:0x46c6509e97fad7af,
mall,Pusat Perbelanjaan,Pomalaa,"WHXX+CWM, Watuliandu, Kec. Kolaka, Kabupaten Kolaka, Sulawesi Tenggara","Kabupaten Kolaka, Sulawesi Tenggara",SULAWESI TENGGARA,,Indonesia,,,,-4.0514246,121.5998076,https://maps.google.com/?cid=0x0:0x1cccb534c7a4edb2,
mall,Pusat Perbelanjaan,TANSHOP17,"VMMP+3WR, Unnamed Road, Tikonu, Kec. Wundulako, Kabupaten Kolaka, Sulawesi Tenggara 93561","Unnamed Road, Tikonu, Kec. Wundulako, Kabupaten Kolaka",SULAWESI TENGGARA,93561.0,Indonesia,85756010272.0,,,-4.1172721,121.6872636,https://maps.google.com/?cid=0x0:0xdbac74ba0a355859,
mall,Toko Herbal,Halal Mart Ummu Gufron,"Jl. Pemuda Lrg.Lambada No.13, Laloeha, Kec. Kolaka, Kabupaten Kolaka, Sulawesi Tenggara 93561","Laloeha, Kec. Kolaka, Kabupaten Kolaka",SULAWESI TENGGARA,93561.0,Indonesia,85241683413.0,,,-4.064667,121.616714,https://maps.google.com/?cid=0x0:0xbf822d5ca940ed37,
mall,Pasar,Toko nasir,"WJH8+2PM, Tahoa, Kec. Kolaka, Kabupaten Kolaka, Sulawesi Tenggara 93561","Tahoa, Kec. Kolaka, Kabupaten Kolaka",SULAWESI TENGGARA,93561.0,Indonesia,85241680418.0,,,-4.0724194,121.6167886,https://maps.google.com/?cid=0x0:0x4a0625f3c7c2a3b2,
mall,,TOKO SEJAHTERA,"Jl. Mekongga Indah No.28, Laloeha, Kec. Kolaka, Kabupaten Kolaka, Sulawesi Tenggara 93561","Laloeha, Kec. Kolaka, Kabupaten Kolaka",SULAWESI TENGGARA,93561.0,Indonesia,,,,-4.0646773,121.6089592,https://maps.google.com/?cid=0x0:0x1618bf75878b49a1,
mall,Pusat Perbelanjaan,Toko Planet Kreasi,"WV2V+RHQ, Jl. Poros, Lamoare, Kec. Loea, Kabupaten Kolaka Timur, Sulawesi Tenggara 93572","Jl. Poros, Lamoare, Kec. Loea, Kabupaten Kolaka Timur",SULAWESI TENGGARA,93572.0,Indonesia,85241529995.0,,,-4.0979035,121.8939714,https://maps.google.com/?cid=0x0:0xe0610041ffac371b,
mall,Kantor Pelayanan Pajak,Mall Pelayanan Publik,"Jl. Mekongga Indah, Lamokato, Kec. Kolaka, Kabupaten Kolaka, Sulawesi Tenggara","Kabupaten Kolaka, Sulawesi Tenggara",SULAWESI TENGGARA,,Indonesia,,,,-4.0602028,121.5994791,https://maps.google.com/?cid=0x0:0x877721b2145fe18c,
mall,Pusat Perbelanjaan,Jual beli barang,"Jl. Kamboja, Sea, Kec. Latambaga, Kabupaten Kolaka, Sulawesi Tenggara 93517","Sea, Kec. Latambaga, Kabupaten Kolaka",SULAWESI TENGGARA,93517.0,Indonesia,81524242151.0,,,-4.051364,121.5885922,https://maps.google.com/?cid=0x0:0x5f07bc663573fdfe,
mall,Klinik Kesehatan,Klinik Kolaka Medika Utama,"JL. Pemuda KM4 No. 27, Balandete, Kec. Kolaka, Kabupaten Kolaka, Sulawesi Tenggara 93517","Balandete, Kec. Kolaka, Kabupaten Kolaka",SULAWESI TENGGARA,93517.0,Indonesia,82396129531.0,,,-4.0695799,121.6226792,https://maps.google.com/?cid=0x0:0xa8569f0870d03636,
mall,Toko bahan makanan,Top Swalayan Kolaka,"Laloeha, Kec. Kolaka, Kabupaten Kolaka, Sulawesi Tenggara 93561","Kec. Kolaka, Kabupaten Kolaka",SULAWESI TENGGARA,93561.0,Indonesia,82347453535.0,,,-4.0603204,121.6112796,https://maps.google.com/?cid=0x0:0xf40e49d7c66c766f,
mall,mall,Sulawesi Tenggara 93518,"Kabupaten Kolaka, Sulawesi Tenggara","Kabupaten Kolaka, Sulawesi Tenggara",SULAWESI TENGGARA,,Indonesia,,,,-3.9939793,121.7024448,https://maps.google.com/?cid=0x0:0x6ae8303bcfa882a1,
mall,Toko,Pasar Raya Mekongga Kolaka,"Pasar Raya Mekongga Kolaka No.Blok A, Kabupaten Kolaka, Sulawesi Tenggara 93516",Kabupaten Kolaka,SULAWESI TENGGARA,93516.0,Indonesia,,,,-4.0607109,121.5975059,https://maps.google.com/?cid=0x0:0x57733dc983307d2c,
mall,Kantor Pelayanan Pajak,Mall Pelayanan Publik,"Jl. Mekongga Indah, Lamokato, Kec. Kolaka, Kabupaten Kolaka, Sulawesi Tenggara","Kabupaten Kolaka, Sulawesi Tenggara",SULAWESI TENGGARA,,Indonesia,,,,-4.0602028,121.5994791,https://maps.google.com/?cid=0x0:0x877721b2145fe18c,
mall,Toko Perlengkapan Rumah,Mr Diy pemuda kolaka,"Jl. Pemuda, Laloeha, Kec. Kolaka, Kabupaten Kolaka, Sulawesi Tenggara 93561","Laloeha, Kec. Kolaka, Kabupaten Kolaka",SULAWESI TENGGARA,93561.0,Indonesia,,,,-4.0575576,121.6072971,https://maps.google.com/?cid=0x0:0xf2a7ad1f6379051a,
mall,Pusat Perbelanjaan,Pusat belanja,"Jl. Pramuka No.2, Lamokato, Kec. Kolaka, Kabupaten Kolaka, Sulawesi Tenggara 93561","Lamokato, Kec. Kolaka, Kabupaten Kolaka",SULAWESI TENGGARA,93561.0,Indonesia,85222217891.0,,,-4.0574651,121.606125,https://maps.google.com/?cid=0x0:0xf90275aed231ba01,
mall,Pusat Perbelanjaan,GMNI Cabang Kolaka,"WJGH+J86, Balandete, Kec. Kolaka, Kabupaten Kolaka, Sulawesi Tenggara 93561","Balandete, Kec. Kolaka, Kabupaten Kolaka",SULAWESI TENGGARA,93561.0,Indonesia,,,,-4.0734584,121.6282523,https://maps.google.com/?cid=0x0:0xb07c60165cfb46b0,
mall,Pusat Perbelanjaan,GMT KOLAKA,"Jl. Pramuka No.7CLamokato, Lamokato, Kec. Kolaka, Kabupaten Kolaka, Sulawesi Tenggara 93561","Lamokato, Kec. Kolaka, Kabupaten Kolaka",SULAWESI TENGGARA,93561.0,Indonesia,82347426400.0,,,-4.0579775,121.6067618,https://maps.google.com/?cid=0x0:0x8461af370d696f58,
mall,Toko,Toko Senyum 5000,"WJR4+RP4, Jl. Pramuka, Laloeha, Kec. Kolaka, Kabupaten Kolaka, Sulawesi Tenggara 93561","Jl. Pramuka, Laloeha, Kec. Kolaka, Kabupaten Kolaka",SULAWESI TENGGARA,93561.0,Indonesia,,,,-4.0579844,121.6068304,https://maps.google.com/?cid=0x0:0xe4142a85c6615b9d,
mall,Lapangan Football,Lapangan Pasmal LJE,"2PQH+264, Woitombo, Mowewe, Kabupaten Kolaka, Sulawesi Tenggara 93518","Woitombo, Mowewe, Kabupaten Kolaka",SULAWESI TENGGARA,93518.0,Indonesia,82290812044.0,,,-3.9624959,121.7280858,https://maps.google.com/?cid=0x0:0x5fdc28ccbd977926,
mall,Toko,Miniso Kolaka,"WJQ6+XGJ, Laloeha, Kec. Kolaka, Kabupaten Kolaka, Sulawesi Tenggara","Kabupaten Kolaka, Sulawesi Tenggara",SULAWESI TENGGARA,,Indonesia,,,,-4.0600256,121.6112686,https://maps.google.com/?cid=0x0:0x8c9353669abf8700,
mall,Toko Sepatu,AFIT SHOES,"WJR4+QXC, Jl. Merpati, Laloeha, Kec. Kolaka, Kabupaten Kolaka, Sulawesi Tenggara 93561","Jl. Merpati, Laloeha, Kec. Kolaka, Kabupaten Kolaka",SULAWESI TENGGARA,93561.0,Indonesia,82243936494.0,,,-4.0580728,121.6073988,https://maps.google.com/?cid=0x0:0xb29a7d2494d464ed,
mall,Pusat Perbelanjaan,TOKO INFOTAMA,"WHWR+PFC, Jl. Pancasila, Sea, Kec. Latambaga, Kabupaten Kolaka, Sulawesi Tenggara 93511","Jl. Pancasila, Sea, Kec. Latambaga, Kabupaten Kolaka",SULAWESI TENGGARA,93511.0,Indonesia,81245877203.0,,,-4.0531964,121.591148,https://maps.google.com/?cid=0x0:0xc8cc9b89fb4f68a2,
mall,Toko Pakaian,Bob Denim,"Ruko Pasar Sentral, Lamokato, Kec. Kolaka, Kabupaten Kolaka, Sulawesi Tenggara","Kabupaten Kolaka, Sulawesi Tenggara",SULAWESI TENGGARA,,Indonesia,,,,-4.0599968,121.5985004,https://maps.google.com/?cid=0x0:0x7d3f70853e8f5a30,
mall,Seafood,Pasar ikan Sore,"XH2J+4XH, Jl. Dermaga, Kolakaasi, Kec. Latambaga, Kabupaten Kolaka, Sulawesi Tenggara","Kabupaten Kolaka, Sulawesi Tenggara",SULAWESI TENGGARA,,Indonesia,,,,-4.0496781,121.582476,https://maps.google.com/?cid=0x0:0xe59acf1dc2e24ebb,
mall,Toko,SIMPATIK ELEKTRONIK KOLAKA,"Jl. Pramuka No.51, Lamokato, Kec. Kolaka, Kabupaten Kolaka, Sulawesi Tenggara","Kabupaten Kolaka, Sulawesi Tenggara",SULAWESI TENGGARA,,Indonesia,81242718555.0,,,-4.0567366,121.5982035,https://maps.google.com/?cid=0x0:0xc4de505c2765e908,
mall,Kantor Perusahaan,Pustaka Bengawan Kolaka,"Jl. Pemuda No.79, Lalombaa, Kec. Kolaka, Kabupaten Kolaka, Sulawesi Tenggara 93561","Lalombaa, Kec. Kolaka, Kabupaten Kolaka",SULAWESI TENGGARA,93561.0,Indonesia,,,,-4.0609008,121.614104,https://maps.google.com/?cid=0x0:0x46c6509e97fad7af,
mall,,BN MART (MINI MARKET),"WJFH+JVW, Balandete, Kec. Kolaka, Kabupaten Kolaka, Sulawesi Tenggara 93561","Balandete, Kec. Kolaka, Kabupaten Kolaka",SULAWESI TENGGARA,93561.0,Indonesia,85241934895.0,,,-4.0758977,121.6297012,https://maps.google.com/?cid=0x0:0xdaa8baa927545a4d,
mall,Pusat Perbelanjaan,Kios Dilla Broiler,"WHQW+6M5, Lamokato, Kec. Kolaka, Sulawesi Tenggara",Sulawesi Tenggara,SULAWESI TENGGARA,,Indonesia,85241813018.0,,,-4.061984,121.5967231,https://maps.google.com/?cid=0x0:0x355fd223e06d3380,
mall,Toko bahan makanan,DewiBidara Kolaka,"BTN BADEWI RESIDENCE, Jl. Badawi No.I, Balandete, Kec. Kolaka, Kabupaten Kolaka, Sulawesi Tenggara 93561","Jl. Badawi No.I, Balandete, Kec. Kolaka, Kabupaten Kolaka",SULAWESI TENGGARA,93561.0,Indonesia,82340253676.0,,,-4.0665673,121.6266748,https://maps.google.com/?cid=0x0:0x750dd4c7e4bcefff,
mall,mall,Kolaka,"Sakuli, Kec. Latambaga, Kabupaten Kolaka, Sulawesi Tenggara","Kabupaten Kolaka, Sulawesi Tenggara",SULAWESI TENGGARA,,Indonesia,,,,-4.0513522,121.5997835,https://maps.google.com/?cid=0x0:0x664cb969301936de,
mall,Toko Ikan,Toko Aquarium Kolaka,"WHQX+65P, Jl. Khairil Anwar, Lamokato, Kec. Kolaka, Kabupaten Kolaka, Sulawesi Tenggara 93511","Jl. Khairil Anwar, Lamokato, Kec. Kolaka, Kabupaten Kolaka",SULAWESI TENGGARA,93511.0,Indonesia,85241531565.0,,,-4.0619011,121.5979395,https://maps.google.com/?cid=0x0:0xe208a51ed5f06e67,
mall,Auditorium,Platinum Cineplex MGM,"MGM Mall, Lantai Dasar, Tahoa, Kec. Kolaka, Kabupaten Kolaka, Sulawesi Tenggara 93561","Lantai Dasar, Tahoa, Kec. Kolaka, Kabupaten Kolaka",SULAWESI TENGGARA,93561.0,Indonesia,4052332919.0,,,-4.0664328,121.6186443,https://maps.google.com/?cid=0x0:0x59769401b3afc3a7,
mall,Toko Herbal,Halal Mart Ummu Gufron,"Jl. Pemuda Lrg.Lambada No.13, Laloeha, Kec. Kolaka, Kabupaten Kolaka, Sulawesi Tenggara 93561","Laloeha, Kec. Kolaka, Kabupaten Kolaka",SULAWESI TENGGARA,93561.0,Indonesia,85241683413.0,,,-4.064667,121.616714,https://maps.google.com/?cid=0x0:0xbf822d5ca940ed37,
mall,Toko Aksesori Pakaian,Toko Bandung Accesories,"Lamokato, Kec. Kolaka, Kabupaten Kolaka, Sulawesi Tenggara 93512","Kec. Kolaka, Kabupaten Kolaka",SULAWESI TENGGARA,93512.0,Indonesia,81354368449.0,,,-4.0600124,121.5983155,https://maps.google.com/?cid=0x0:0x3a726ee2d838c3ea,
mall,Toko Tas,TOKO SEMERU KOLAKA,"Pasar Raya Mekongga No.18 Blok N, Lamokato, Kec. Kolaka, Kabupaten Kolaka, Sulawesi Tenggara 93311","Lamokato, Kec. Kolaka, Kabupaten Kolaka",SULAWESI TENGGARA,93311.0,Indonesia,85299583535.0,,,-4.0605373,121.59736,https://maps.google.com/?cid=0x0:0xd34cf54bcf7ffd33,
mall,Toko bahan makanan,Top Swalayan Kolaka,"Laloeha, Kec. Kolaka, Kabupaten Kolaka, Sulawesi Tenggara 93561","Kec. Kolaka, Kabupaten Kolaka",SULAWESI TENGGARA,93561.0,Indonesia,82347453535.0,,,-4.0603204,121.6112796,https://maps.google.com/?cid=0x0:0xf40e49d7c66c766f,
mall,mall,Sulawesi Tenggara 93519,"Kabupaten Kolaka, Sulawesi Tenggara","Kabupaten Kolaka, Sulawesi Tenggara",SULAWESI TENGGARA,,Indonesia,,,,-4.0106276,121.7252457,https://maps.google.com/?cid=0x0:0xc434fc2cf93926ea,
mall,Pusat Perbelanjaan,Pusat belanja,"Jl. Pramuka No.2, Lamokato, Kec. Kolaka, Kabupaten Kolaka, Sulawesi Tenggara 93561","Lamokato, Kec. Kolaka, Kabupaten Kolaka",SULAWESI TENGGARA,93561.0,Indonesia,85222217891.0,,,-4.0574651,121.606125,https://maps.google.com/?cid=0x0:0xf90275aed231ba01,
mall,Auditorium,Platinum Cineplex MGM,"MGM Mall, Lantai Dasar, Tahoa, Kec. Kolaka, Kabupaten Kolaka, Sulawesi Tenggara 93561","Lantai Dasar, Tahoa, Kec. Kolaka, Kabupaten Kolaka",SULAWESI TENGGARA,93561.0,Indonesia,4052332919.0,,,-4.0664328,121.6186443,https://maps.google.com/?cid=0x0:0x59769401b3afc3a7,
mall,Penginapan,"Puncak ALAMO, Kolaka Timur","XQX5+CW3, Jl. Poros Kolaka - Rate-rate, Horodopi, Mowewe, Kabupaten Kolaka, Sulawesi Tenggara 93561","Jl. Poros Kolaka - Rate-rate, Horodopi, Mowewe, Kabupaten Kolaka",SULAWESI TENGGARA,93561.0,Indonesia,,,,-4.0014918,121.7597909,https://maps.google.com/?cid=0x0:0x494b0520ebb5911f,
mall,Lapangan Football,Lapangan Pasmal LJE,"2PQH+264, Woitombo, Mowewe, Kabupaten Kolaka, Sulawesi Tenggara 93518","Woitombo, Mowewe, Kabupaten Kolaka",SULAWESI TENGGARA,93518.0,Indonesia,82290812044.0,,,-3.9624959,121.7280858,https://maps.google.com/?cid=0x0:0x5fdc28ccbd977926,
mall,Toko bahan makanan,Fadli Cell,"Watupute, Mowewe, Kabupaten Kolaka, Sulawesi Tenggara 93519","Mowewe, Kabupaten Kolaka",SULAWESI TENGGARA,93519.0,Indonesia,85255502321.0,,,-3.9881456,121.746738,https://maps.google.com/?cid=0x0:0x840f55b2ff2d3706,
mall,Pusat Perbelanjaan,Balanipa Bussines Centre,"WHRW+PHC, Jl. Mekongga Indah, Lamokato, Kec. Kolaka, Kabupaten Kolaka, Sulawesi Tenggara","Kabupaten Kolaka, Sulawesi Tenggara",SULAWESI TENGGARA,,Indonesia,,,,-4.058186,121.596401,https://maps.google.com/?cid=0x0:0xb430399d0297013b,
mall,Kantor Pelayanan Pajak,Mall Pelayanan Publik,"Jl. Mekongga Indah, Lamokato, Kec. Kolaka, Kabupaten Kolaka, Sulawesi Tenggara","Kabupaten Kolaka, Sulawesi Tenggara",SULAWESI TENGGARA,,Indonesia,,,,-4.0602028,121.5994791,https://maps.google.com/?cid=0x0:0x877721b2145fe18c,
mall,Kantor Perusahaan,Pustaka Bengawan Kolaka,"Jl. Pemuda No.79, Lalombaa, Kec. Kolaka, Kabupaten Kolaka, Sulawesi Tenggara 93561","Lalombaa, Kec. Kolaka, Kabupaten Kolaka",SULAWESI TENGGARA,93561.0,Indonesia,,,,-4.0609008,121.614104,https://maps.google.com/?cid=0x0:0x46c6509e97fad7af,
mall,Toko bahan makanan,DewiBidara Kolaka,"BTN BADEWI RESIDENCE, Jl. Badawi No.I, Balandete, Kec. Kolaka, Kabupaten Kolaka, Sulawesi Tenggara 93561","Jl. Badawi No.I, Balandete, Kec. Kolaka, Kabupaten Kolaka",SULAWESI TENGGARA,93561.0,Indonesia,82340253676.0,,,-4.0665673,121.6266748,https://maps.google.com/?cid=0x0:0x750dd4c7e4bcefff,
mall,Toko,Pasar Raya Mekongga Kolaka,"Pasar Raya Mekongga Kolaka No.Blok A, Kabupaten Kolaka, Sulawesi Tenggara 93516",Kabupaten Kolaka,SULAWESI TENGGARA,93516.0,Indonesia,,,,-4.0607109,121.5975059,https://maps.google.com/?cid=0x0:0x57733dc983307d2c,
mall,Pusat Perbelanjaan,Pomalaa,"WHXX+CWM, Watuliandu, Kec. Kolaka, Kabupaten Kolaka, Sulawesi Tenggara","Kabupaten Kolaka, Sulawesi Tenggara",SULAWESI TENGGARA,,Indonesia,,,,-4.0514246,121.5998076,https://maps.google.com/?cid=0x0:0x1cccb534c7a4edb2,
mall,mall,Sulawesi Tenggara 93512,"Kabupaten Kolaka, Sulawesi Tenggara","Kabupaten Kolaka, Sulawesi Tenggara",SULAWESI TENGGARA,,Indonesia,,,,-3.9334506,121.57125,https://maps.google.com/?cid=0x0:0x895fb3c283b233f5,
mall,Pusat Perbelanjaan,Balanipa Bussines Centre,"WHRW+PHC, Jl. Mekongga Indah, Lamokato, Kec. Kolaka, Kabupaten Kolaka, Sulawesi Tenggara","Kabupaten Kolaka, Sulawesi Tenggara",SULAWESI TENGGARA,,Indonesia,,,,-4.058186,121.596401,https://maps.google.com/?cid=0x0:0xb430399d0297013b,
mall,Toko bahan makanan,Top Swalayan Kolaka,"Laloeha, Kec. Kolaka, Kabupaten Kolaka, Sulawesi Tenggara 93561","Kec. Kolaka, Kabupaten Kolaka",SULAWESI TENGGARA,93561.0,Indonesia,82347453535.0,,,-4.0603204,121.6112796,https://maps.google.com/?cid=0x0:0xf40e49d7c66c766f,
mall,Kantor Pelayanan Pajak,Mall Pelayanan Publik,"Jl. Mekongga Indah, Lamokato, Kec. Kolaka, Kabupaten Kolaka, Sulawesi Tenggara","Kabupaten Kolaka, Sulawesi Tenggara",SULAWESI TENGGARA,,Indonesia,,,,-4.0602028,121.5994791,https://maps.google.com/?cid=0x0:0x877721b2145fe18c,
mall,Toko,Pasar Raya Mekongga Kolaka,"Pasar Raya Mekongga Kolaka No.Blok A, Kabupaten Kolaka, Sulawesi Tenggara 93516",Kabupaten Kolaka,SULAWESI TENGGARA,93516.0,Indonesia,,,,-4.0607109,121.5975059,https://maps.google.com/?cid=0x0:0x57733dc983307d2c,
mall,Pusat Perbelanjaan,TOKO INFOTAMA,"WHWR+PFC, Jl. Pancasila, Sea, Kec. Latambaga, Kabupaten Kolaka, Sulawesi Tenggara 93511","Jl. Pancasila, Sea, Kec. Latambaga, Kabupaten Kolaka",SULAWESI TENGGARA,93511.0,Indonesia,81245877203.0,,,-4.0531964,121.591148,https://maps.google.com/?cid=0x0:0xc8cc9b89fb4f68a2,
mall,Pusat Perbelanjaan,Pusat belanja,"Jl. Pramuka No.2, Lamokato, Kec. Kolaka, Kabupaten Kolaka, Sulawesi Tenggara 93561","Lamokato, Kec. Kolaka, Kabupaten Kolaka",SULAWESI TENGGARA,93561.0,Indonesia,85222217891.0,,,-4.0574651,121.606125,https://maps.google.com/?cid=0x0:0xf90275aed231ba01,
mall,Pusat Perbelanjaan,GMT KOLAKA,"Jl. Pramuka No.7CLamokato, Lamokato, Kec. Kolaka, Kabupaten Kolaka, Sulawesi Tenggara 93561","Lamokato, Kec. Kolaka, Kabupaten Kolaka",SULAWESI TENGGARA,93561.0,Indonesia,82347426400.0,,,-4.0579775,121.6067618,https://maps.google.com/?cid=0x0:0x8461af370d696f58,
mall,Toko,TOKO AL KHALIQ PUUWIAU,"2H56+CX7, Ulunggolaka, Kec. Latambaga, Kabupaten Kolaka, Sulawesi Tenggara 93514","Ulunggolaka, Kec. Latambaga, Kabupaten Kolaka",SULAWESI TENGGARA,93514.0,Indonesia,82349864354.0,,,-3.9914479,121.562388,https://maps.google.com/?cid=0x0:0x42c3fdeddb289cde,
mall,Pusat Perbelanjaan,UD MAJU LAWULO,"XFQG+52H, Lawulo, Kec. Samaturu, Kabupaten Kolaka, Sulawesi Tenggara 93512","Lawulo, Kec. Samaturu, Kabupaten Kolaka",SULAWESI TENGGARA,93512.0,Indonesia,85357777434.0,,,-4.012058,121.475095,https://maps.google.com/?cid=0x0:0xd578122c75b40c6a,
mall,Toko umum,TOKO KIWIS PUUWIAU,"2H46+RPX, Ulunggolaka, Kec. Latambaga, Kabupaten Kolaka, Sulawesi Tenggara 93514","Ulunggolaka, Kec. Latambaga, Kabupaten Kolaka",SULAWESI TENGGARA,93514.0,Indonesia,,,,-3.992889,121.5618709,https://maps.google.com/?cid=0x0:0xe4ba2083463243c1,
mall,Toko,Kios Fatar,"XFPP+8W6, puu, Lawulo, Kec. Samaturu, Kabupaten Kolaka, Sulawesi Tenggara 93512","puu, Lawulo, Kec. Samaturu, Kabupaten Kolaka",SULAWESI TENGGARA,93512.0,Indonesia,,,,-4.0142051,121.4872712,https://maps.google.com/?cid=0x0:0x617e8035f7f5e3e9,
mall,Seafood,Pasar ikan Sore,"XH2J+4XH, Jl. Dermaga, Kolakaasi, Kec. Latambaga, Kabupaten Kolaka, Sulawesi Tenggara","Kabupaten Kolaka, Sulawesi Tenggara",SULAWESI TENGGARA,,Indonesia,,,,-4.0496781,121.582476,https://maps.google.com/?cid=0x0:0xe59acf1dc2e24ebb,
mall,Pasar,Kios Ririn Aan Iin,"XH62+2V9, Mangolo, Kec. Latambaga, Kabupaten Kolaka, Sulawesi Tenggara","Kabupaten Kolaka, Sulawesi Tenggara",SULAWESI TENGGARA,,Indonesia,81355779861.0,,,-4.0399644,121.5522488,https://maps.google.com/?cid=0x0:0xba8dffa8814133d2,
mall,Toko Perlengkapan Rumah,Mr Diy pemuda kolaka,"Jl. Pemuda, Laloeha, Kec. Kolaka, Kabupaten Kolaka, Sulawesi Tenggara 93561","Laloeha, Kec. Kolaka, Kabupaten Kolaka",SULAWESI TENGGARA,93561.0,Indonesia,,,,-4.0575576,121.6072971,https://maps.google.com/?cid=0x0:0xf2a7ad1f6379051a,
mall,Toko bahan makanan,TOKO ARISKA (SEMBAKO 2),"XH2M+XH6, Kolakaasi, Kec. Latambaga, Kabupaten Kolaka, Sulawesi Tenggara 93511","Kolakaasi, Kec. Latambaga, Kabupaten Kolaka",SULAWESI TENGGARA,93511.0,Indonesia,85240346381.0,,,-4.0475919,121.5838939,https://maps.google.com/?cid=0x0:0x6263f1f2c56b7ac3,
mall,Pusat Perbelanjaan,TOKO BINTANG FAJAR 2,"Jl. Sunu, Sea, Kec. Latambaga, Kabupaten Kolaka, Sulawesi Tenggara","Kabupaten Kolaka, Sulawesi Tenggara",SULAWESI TENGGARA,,Indonesia,82110111001.0,,,-4.0499353,121.5858101,https://maps.google.com/?cid=0x0:0x50885ec7dcdafbe1,
mall,Toko Elektronik,KOLAKA FLASHER(pusat jual beli hp second),"XH3H+GRX, Jl. H. Muzakkir, Kolakaasi, Kec. Latambaga, Kabupaten Kolaka, Sulawesi Tenggara 93511","Jl. H. Muzakkir, Kolakaasi, Kec. Latambaga, Kabupaten Kolaka",SULAWESI TENGGARA,93511.0,Indonesia,811401781.0,,,-4.0461271,121.5795991,https://maps.google.com/?cid=0x0:0x795c6bec21a9ddd5,
mall,Toko,Toko Senyum 5000,"WJR4+RP4, Jl. Pramuka, Laloeha, Kec. Kolaka, Kabupaten Kolaka, Sulawesi Tenggara 93561","Jl. Pramuka, Laloeha, Kec. Kolaka, Kabupaten Kolaka",SULAWESI TENGGARA,93561.0,Indonesia,,,,-4.0579844,121.6068304,https://maps.google.com/?cid=0x0:0xe4142a85c6615b9d,
mall,Toko Swalayan,Aldo Maju Terus,"XH4F+9QX, Jl. Poros Ranteangin - Kolaka, Kolakaasi, Kec. Latambaga, Kabupaten Kolaka, Sulawesi Tenggara 93511","Jl. Poros Ranteangin - Kolaka, Kolakaasi, Kec. Latambaga, Kabupaten Kolaka",SULAWESI TENGGARA,93511.0,Indonesia,82293279123.0,,,-4.0440128,121.5744885,https://maps.google.com/?cid=0x0:0xe049493b1143db96,
mall,Toko umum,KIOS Naswan,"XH62+997, Mangolo, Kec. Latambaga, Kabupaten Kolaka, Sulawesi Tenggara","Kabupaten Kolaka, Sulawesi Tenggara",SULAWESI TENGGARA,,Indonesia,85845757829.0,,,-4.038892,121.550492,https://maps.google.com/?cid=0x0:0xae88bef35a59b7ac,
mall,Toko Ponsel,Kios Ataris ( BRILINK ),"Jl. Dermaga No.136, Kolakaasi, Kec. Latambaga, Kabupaten Kolaka, Sulawesi Tenggara 93512","Kolakaasi, Kec. Latambaga, Kabupaten Kolaka",SULAWESI TENGGARA,93512.0,Indonesia,82242307070.0,,,-4.0489893,121.5814381,https://maps.google.com/?cid=0x0:0x77d4383d30047ade,
mall,Pusat Perbelanjaan,GMNI Cabang Kolaka,"WJGH+J86, Balandete, Kec. Kolaka, Kabupaten Kolaka, Sulawesi Tenggara 93561","Balandete, Kec. Kolaka, Kabupaten Kolaka",SULAWESI TENGGARA,93561.0,Indonesia,,,,-4.0734584,121.6282523,https://maps.google.com/?cid=0x0:0xb07c60165cfb46b0,
mall,Toko Herbal,Halal Mart Ummu Gufron,"Jl. Pemuda Lrg.Lambada No.13, Laloeha, Kec. Kolaka, Kabupaten Kolaka, Sulawesi Tenggara 93561","Laloeha, Kec. Kolaka, Kabupaten Kolaka",SULAWESI TENGGARA,93561.0,Indonesia,85241683413.0,,,-4.064667,121.616714,https://maps.google.com/?cid=0x0:0xbf822d5ca940ed37,
mall,,BN MART (MINI MARKET),"WJFH+JVW, Balandete, Kec. Kolaka, Kabupaten Kolaka, Sulawesi Tenggara 93561","Balandete, Kec. Kolaka, Kabupaten Kolaka",SULAWESI TENGGARA,93561.0,Indonesia,85241934895.0,,,-4.0758977,121.6297012,https://maps.google.com/?cid=0x0:0xdaa8baa927545a4d,
mall,Toko Sepatu,AFIT SHOES,"WJR4+QXC, Jl. Merpati, Laloeha, Kec. Kolaka, Kabupaten Kolaka, Sulawesi Tenggara 93561","Jl. Merpati, Laloeha, Kec. Kolaka, Kabupaten Kolaka",SULAWESI TENGGARA,93561.0,Indonesia,82243936494.0,,,-4.0580728,121.6073988,https://maps.google.com/?cid=0x0:0xb29a7d2494d464ed,
mall,Toko Pakaian,Aisyah Beauty,"WHXQ+F8X, Jl. Kamboja, Sea, Kec. Latambaga, Kabupaten Kolaka, Sulawesi Tenggara","Kabupaten Kolaka, Sulawesi Tenggara",SULAWESI TENGGARA,,Indonesia,81341780709.0,,,-4.051256,121.5883658,https://maps.google.com/?cid=0x0:0xfb74397478b7e725,
mall,Pusat Perbelanjaan,TANSHOP17,"VMMP+3WR, Unnamed Road, Tikonu, Kec. Wundulako, Kabupaten Kolaka, Sulawesi Tenggara 93561","Unnamed Road, Tikonu, Kec. Wundulako, Kabupaten Kolaka",SULAWESI TENGGARA,93561.0,Indonesia,85756010272.0,,,-4.1172721,121.6872636,https://maps.google.com/?cid=0x0:0xdbac74ba0a355859,
mall,Toko Pakaian,Bob Denim,"Ruko Pasar Sentral, Lamokato, Kec. Kolaka, Kabupaten Kolaka, Sulawesi Tenggara","Kabupaten Kolaka, Sulawesi Tenggara",SULAWESI TENGGARA,,Indonesia,,,,-4.0599968,121.5985004,https://maps.google.com/?cid=0x0:0x7d3f70853e8f5a30,
mall,mall,Sulawesi Tenggara 93514,"Kec. Latambaga, Kabupaten Kolaka, Sulawesi Tenggara","Kabupaten Kolaka, Sulawesi Tenggara",SULAWESI TENGGARA,,Indonesia,,,,-3.9910173,121.5655424,https://maps.google.com/?cid=0x0:0x84f71568a92688d2,
mall,Toko Pakaian,Kios Aneka Niaga,"Jl. Lambotoro Lalodipu, Mangolo, Kec. Latambaga, Kabupaten Kolaka, Sulawesi Tenggara 93514","Mangolo, Kec. Latambaga, Kabupaten Kolaka",SULAWESI TENGGARA,93514.0,Indonesia,85241919656.0,,,-4.0187318,121.5481155,https://maps.google.com/?cid=0x0:0xea69dc215af343a9,
mall,Toko bahan makanan,Top Swalayan Kolaka,"Laloeha, Kec. Kolaka, Kabupaten Kolaka, Sulawesi Tenggara 93561","Kec. Kolaka, Kabupaten Kolaka",SULAWESI TENGGARA,93561.0,Indonesia,82347453535.0,,,-4.0603204,121.6112796,https://maps.google.com/?cid=0x0:0xf40e49d7c66c766f,
mall,Pusat Perbelanjaan,TOKO INFOTAMA,"WHWR+PFC, Jl. Pancasila, Sea, Kec. Latambaga, Kabupaten Kolaka, Sulawesi Tenggara 93511","Jl. Pancasila, Sea, Kec. Latambaga, Kabupaten Kolaka",SULAWESI TENGGARA,93511.0,Indonesia,81245877203.0,,,-4.0531964,121.591148,https://maps.google.com/?cid=0x0:0xc8cc9b89fb4f68a2,
mall,Seafood,Pasar ikan Sore,"XH2J+4XH, Jl. Dermaga, Kolakaasi, Kec. Latambaga, Kabupaten Kolaka, Sulawesi Tenggara","Kabupaten Kolaka, Sulawesi Tenggara",SULAWESI TENGGARA,,Indonesia,,,,-4.0496781,121.582476,https://maps.google.com/?cid=0x0:0xe59acf1dc2e24ebb,
mall,Kantor Pelayanan Pajak,Mall Pelayanan Publik,"Jl. Mekongga Indah, Lamokato, Kec. Kolaka, Kabupaten Kolaka, Sulawesi Tenggara","Kabupaten Kolaka, Sulawesi Tenggara",SULAWESI TENGGARA,,Indonesia,,,,-4.0602028,121.5994791,https://maps.google.com/?cid=0x0:0x877721b2145fe18c,
mall,Toko,Pasar Raya Mekongga Kolaka,"Pasar Raya Mekongga Kolaka No.Blok A, Kabupaten Kolaka, Sulawesi Tenggara 93516",Kabupaten Kolaka,SULAWESI TENGGARA,93516.0,Indonesia,,,,-4.0607109,121.5975059,https://maps.google.com/?cid=0x0:0x57733dc983307d2c,
mall,Pusat Perbelanjaan,GMT KOLAKA,"Jl. Pramuka No.7CLamokato, Lamokato, Kec. Kolaka, Kabupaten Kolaka, Sulawesi Tenggara 93561","Lamokato, Kec. Kolaka, Kabupaten Kolaka",SULAWESI TENGGARA,93561.0,Indonesia,82347426400.0,,,-4.0579775,121.6067618,https://maps.google.com/?cid=0x0:0x8461af370d696f58,
mall,Pusat Perbelanjaan,Pusat belanja,"Jl. Pramuka No.2, Lamokato, Kec. Kolaka, Kabupaten Kolaka, Sulawesi Tenggara 93561","Lamokato, Kec. Kolaka, Kabupaten Kolaka",SULAWESI TENGGARA,93561.0,Indonesia,85222217891.0,,,-4.0574651,121.606125,https://maps.google.com/?cid=0x0:0xf90275aed231ba01,
mall,Toko,TOKO AL KHALIQ PUUWIAU,"2H56+CX7, Ulunggolaka, Kec. Latambaga, Kabupaten Kolaka, Sulawesi Tenggara 93514","Ulunggolaka, Kec. Latambaga, Kabupaten Kolaka",SULAWESI TENGGARA,93514.0,Indonesia,82349864354.0,,,-3.9914479,121.562388,https://maps.google.com/?cid=0x0:0x42c3fdeddb289cde,
mall,Pasar,Kios Ririn Aan Iin,"XH62+2V9, Mangolo, Kec. Latambaga, Kabupaten Kolaka, Sulawesi Tenggara","Kabupaten Kolaka, Sulawesi Tenggara",SULAWESI TENGGARA,,Indonesia,81355779861.0,,,-4.0399644,121.5522488,https://maps.google.com/?cid=0x0:0xba8dffa8814133d2,
mall,Toko umum,TOKO KIWIS PUUWIAU,"2H46+RPX, Ulunggolaka, Kec. Latambaga, Kabupaten Kolaka, Sulawesi Tenggara 93514","Ulunggolaka, Kec. Latambaga, Kabupaten Kolaka",SULAWESI TENGGARA,93514.0,Indonesia,,,,-3.992889,121.5618709,https://maps.google.com/?cid=0x0:0xe4ba2083463243c1,
mall,Toko Elektronik,KOLAKA FLASHER(pusat jual beli hp second),"XH3H+GRX, Jl. H. Muzakkir, Kolakaasi, Kec. Latambaga, Kabupaten Kolaka, Sulawesi Tenggara 93511","Jl. H. Muzakkir, Kolakaasi, Kec. Latambaga, Kabupaten Kolaka",SULAWESI TENGGARA,93511.0,Indonesia,811401781.0,,,-4.0461271,121.5795991,https://maps.google.com/?cid=0x0:0x795c6bec21a9ddd5,
mall,Pusat Perbelanjaan,TOKO BINTANG FAJAR 2,"Jl. Sunu, Sea, Kec. Latambaga, Kabupaten Kolaka, Sulawesi Tenggara","Kabupaten Kolaka, Sulawesi Tenggara",SULAWESI TENGGARA,,Indonesia,82110111001.0,,,-4.0499353,121.5858101,https://maps.google.com/?cid=0x0:0x50885ec7dcdafbe1,
mall,Toko bahan makanan,TOKO ARISKA (SEMBAKO 2),"XH2M+XH6, Kolakaasi, Kec. Latambaga, Kabupaten Kolaka, Sulawesi Tenggara 93511","Kolakaasi, Kec. Latambaga, Kabupaten Kolaka",SULAWESI TENGGARA,93511.0,Indonesia,85240346381.0,,,-4.0475919,121.5838939,https://maps.google.com/?cid=0x0:0x6263f1f2c56b7ac3,
mall,Toko Swalayan,Aldo Maju Terus,"XH4F+9QX, Jl. Poros Ranteangin - Kolaka, Kolakaasi, Kec. Latambaga, Kabupaten Kolaka, Sulawesi Tenggara 93511","Jl. Poros Ranteangin - Kolaka, Kolakaasi, Kec. Latambaga, Kabupaten Kolaka",SULAWESI TENGGARA,93511.0,Indonesia,82293279123.0,,,-4.0440128,121.5744885,https://maps.google.com/?cid=0x0:0xe049493b1143db96,
mall,Toko Alat Tulis Kantor,Foto Copy 51,"Jl. Abadi No.198, Kolakaasi, Kec. Latambaga, Kabupaten Kolaka, Sulawesi Tenggara 93511","Kolakaasi, Kec. Latambaga, Kabupaten Kolaka",SULAWESI TENGGARA,93511.0,Indonesia,,,,-4.0454101,121.5787562,https://maps.google.com/?cid=0x0:0x9dbf15db54e0449e,
mall,Toko Perlengkapan Rumah,Mr Diy pemuda kolaka,"Jl. Pemuda, Laloeha, Kec. Kolaka, Kabupaten Kolaka, Sulawesi Tenggara 93561","Laloeha, Kec. Kolaka, Kabupaten Kolaka",SULAWESI TENGGARA,93561.0,Indonesia,,,,-4.0575576,121.6072971,https://maps.google.com/?cid=0x0:0xf2a7ad1f6379051a,
mall,Toko umum,KIOS Naswan,"XH62+997, Mangolo, Kec. Latambaga, Kabupaten Kolaka, Sulawesi Tenggara","Kabupaten Kolaka, Sulawesi Tenggara",SULAWESI TENGGARA,,Indonesia,85845757829.0,,,-4.038892,121.550492,https://maps.google.com/?cid=0x0:0xae88bef35a59b7ac,
mall,Pusat Perbelanjaan,Winda Shop,"Jl. Sunu No.88, Kolakaasi, Kec. Latambaga, Kabupaten Kolaka, Sulawesi Tenggara 93511","Kolakaasi, Kec. Latambaga, Kabupaten Kolaka",SULAWESI TENGGARA,93511.0,Indonesia,82292620060.0,,,-4.0493242,121.5848239,https://maps.google.com/?cid=0x0:0xb33c094f34344d91,
mall,Pusat Perbelanjaan,TOKO BINTANG FAJAR 1,"Jl. Sunu No.45, Kolakaasi, Kec. Latambaga, Kabupaten Kolaka, Sulawesi Tenggara","Kabupaten Kolaka, Sulawesi Tenggara",SULAWESI TENGGARA,,Indonesia,82151151151.0,,,-4.049878,121.5859923,https://maps.google.com/?cid=0x0:0x7060a5f9ad3a3b9c,
mall,Toko Herbal,Halal Mart Ummu Gufron,"Jl. Pemuda Lrg.Lambada No.13, Laloeha, Kec. Kolaka, Kabupaten Kolaka, Sulawesi Tenggara 93561","Laloeha, Kec. Kolaka, Kabupaten Kolaka",SULAWESI TENGGARA,93561.0,Indonesia,85241683413.0,,,-4.064667,121.616714,https://maps.google.com/?cid=0x0:0xbf822d5ca940ed37,
mall,Toko Sepatu,AFIT SHOES,"WJR4+QXC, Jl. Merpati, Laloeha, Kec. Kolaka, Kabupaten Kolaka, Sulawesi Tenggara 93561","Jl. Merpati, Laloeha, Kec. Kolaka, Kabupaten Kolaka",SULAWESI TENGGARA,93561.0,Indonesia,82243936494.0,,,-4.0580728,121.6073988,https://maps.google.com/?cid=0x0:0xb29a7d2494d464ed,
mall,Pusat Perbelanjaan,TANSHOP17,"VMMP+3WR, Unnamed Road, Tikonu, Kec. Wundulako, Kabupaten Kolaka, Sulawesi Tenggara 93561","Unnamed Road, Tikonu, Kec. Wundulako, Kabupaten Kolaka",SULAWESI TENGGARA,93561.0,Indonesia,85756010272.0,,,-4.1172721,121.6872636,https://maps.google.com/?cid=0x0:0xdbac74ba0a355859,
mall,Toko Pakaian,Bob Denim,"Ruko Pasar Sentral, Lamokato, Kec. Kolaka, Kabupaten Kolaka, Sulawesi Tenggara","Kabupaten Kolaka, Sulawesi Tenggara",SULAWESI TENGGARA,,Indonesia,,,,-4.0599968,121.5985004,https://maps.google.com/?cid=0x0:0x7d3f70853e8f5a30,
mall,Toko Pakaian,Aisyah Beauty,"WHXQ+F8X, Jl. Kamboja, Sea, Kec. Latambaga, Kabupaten Kolaka, Sulawesi Tenggara","Kabupaten Kolaka, Sulawesi Tenggara",SULAWESI TENGGARA,,Indonesia,81341780709.0,,,-4.051256,121.5883658,https://maps.google.com/?cid=0x0:0xfb74397478b7e725,
mall,mall,Kec. Polinggona,"Kabupaten Kolaka, Sulawesi Tenggara","Kabupaten Kolaka, Sulawesi Tenggara",SULAWESI TENGGARA,,Indonesia,,,,-4.446612,121.5863072,https://maps.google.com/?cid=0x0:0xa81e529a8faf4882,
mall,Pusat Perbelanjaan,Pasar Polinggona,"GHXG+759, Unnamed Road, Polinggona, Kec. Polinggona, Kabupaten Kolaka, Sulawesi Tenggara 93563","Unnamed Road, Polinggona, Kec. Polinggona, Kabupaten Kolaka",SULAWESI TENGGARA,93563.0,Indonesia,,,,-4.4518368,121.5754892,https://maps.google.com/?cid=0x0:0x9a979d54e3ec3c4e,
mall,,DEWATA CELL2,"GH2F+2WV, Peoho, Kec. Watubangga, Kabupaten Kolaka, Sulawesi Tenggara 93563","Peoho, Kec. Watubangga, Kabupaten Kolaka",SULAWESI TENGGARA,93563.0,Indonesia,82292965798.0,,,-4.4998797,121.5748053,https://maps.google.com/?cid=0x0:0x81c7af064ebfd567,
mall,Toko bahan makanan,PASAR WOLULU,"HG69+WJ5, Wolulu, Kec. Watubangga, Kabupaten Kolaka, Sulawesi Tenggara 93563","Wolulu, Kec. Watubangga, Kabupaten Kolaka",SULAWESI TENGGARA,93563.0,Indonesia,,,,-4.4377426,121.5191081,https://maps.google.com/?cid=0x0:0x23f1275ad611a9f8,
mall,Pasar,Pasar Ikan Watubangga Berjaya,"GGF4+R3P, Jl. Poros Pomalaa Toari, Watubangga, Kec. Watubangga, Kabupaten Kolaka, Sulawesi Tenggara 93563","Jl. Poros Pomalaa Toari, Watubangga, Kec. Watubangga, Kabupaten Kolaka",SULAWESI TENGGARA,93563.0,Indonesia,,,,-4.4754096,121.505209,https://maps.google.com/?cid=0x0:0x50280df8c33f8049,
mall,Pusat Perbelanjaan,Pasar Baru Pomalaa,"RJG5+W96, Dawi-Dawi, Kec. Pomalaa, Kabupaten Kolaka, Sulawesi Tenggara 93562","Dawi-Dawi, Kec. Pomalaa, Kabupaten Kolaka",SULAWESI TENGGARA,93562.0,Indonesia,85242584816.0,,,-4.1727175,121.6083793,https://maps.google.com/?cid=0x0:0xfae64fe5bd147a1a,
mall,mall,Sulawesi Tenggara 93562,"Kabupaten Kolaka, Sulawesi Tenggara","Kabupaten Kolaka, Sulawesi Tenggara",SULAWESI TENGGARA,,Indonesia,,,,-4.221625,121.6511258,https://maps.google.com/?cid=0x0:0x88f770c06ddbe268,
mall,Toko Elektronik,Toko Menara HP Pomalaa,"RJF7+J76, Jl. Ekonomi, Dawi-Dawi, Kec. Pomalaa, Kabupaten Kolaka, Sulawesi Tenggara 93562","Jl. Ekonomi, Dawi-Dawi, Kec. Pomalaa, Kabupaten Kolaka",SULAWESI TENGGARA,93562.0,Indonesia,82344351567.0,,,-4.1759657,121.6131456,https://maps.google.com/?cid=0x0:0xdf8db1b6a07ceade,
mall,Toko,Toko Isra,"Jl. Poros Kolaka - Pomalaa, Puundoho, Kec. Baula, Kabupaten Kolaka, Sulawesi Tenggara 93562","Puundoho, Kec. Baula, Kabupaten Kolaka",SULAWESI TENGGARA,93562.0,Indonesia,82293939798.0,,,-4.166527,121.6699885,https://maps.google.com/?cid=0x0:0x1e05486c29d311df,
mall,Pusat Perbelanjaan,TOKO POMALAA JAYA / pomja,"Jl. Poros Kolaka - Pomalaa, Pelambua, Kec. Pomalaa, Kabupaten Kolaka, Sulawesi Tenggara 93562","Pelambua, Kec. Pomalaa, Kabupaten Kolaka",SULAWESI TENGGARA,93562.0,Indonesia,82142949052.0,,,-4.1774517,121.627912,https://maps.google.com/?cid=0x0:0x5846add3d0524752,
mall,Toko Swalayan,Toko Dahlia Jaya Pomalaa,"RJG8+426, Jl. Hati Gembira, Dawi-Dawi, Kec. Pomalaa, Kabupaten Kolaka, Sulawesi Tenggara 93562","Jl. Hati Gembira, Dawi-Dawi, Kec. Pomalaa, Kabupaten Kolaka",SULAWESI TENGGARA,93562.0,Indonesia,,,,-4.1747218,121.6150137,https://maps.google.com/?cid=0x0:0x2c1d5be060043342,
mall,Pasar,Pasar Puundoho,"RMPC+PQ2, Puundoho, Kec. Baula, Kabupaten Kolaka, Sulawesi Tenggara 93562","Puundoho, Kec. Baula, Kabupaten Kolaka",SULAWESI TENGGARA,93562.0,Indonesia,,,,-4.1632346,121.6718895,https://maps.google.com/?cid=0x0:0x6d73721b6c8d9806,
mall,Toko Pakaian Resmi,Fatih Shop,"RJC7+MFR, Dawi-Dawi, Kec. Pomalaa, Kabupaten Kolaka, Sulawesi Tenggara 93562","Dawi-Dawi, Kec. Pomalaa, Kabupaten Kolaka",SULAWESI TENGGARA,93562.0,Indonesia,82190174631.0,,,-4.178272,121.6136359,https://maps.google.com/?cid=0x0:0xe76da91cfbbb20e3,
mall,Kantor Perusahaan,Toko PT. SSB,"Dawi-Dawi, Kec. Pomalaa, Kabupaten Kolaka, Sulawesi Tenggara 93562","Kec. Pomalaa, Kabupaten Kolaka",SULAWESI TENGGARA,93562.0,Indonesia,,,,-4.1790844,121.6118766,https://maps.google.com/?cid=0x0:0x9653c18a6b8408c9,
mall,Toko bahan makanan,Kios Reski,"Jl. Poros Kolaka - Pomalaa, Puundoho, Kec. Baula, Kabupaten Kolaka, Sulawesi Tenggara 93562","Puundoho, Kec. Baula, Kabupaten Kolaka",SULAWESI TENGGARA,93562.0,Indonesia,,,,-4.1623107,121.6751795,https://maps.google.com/?cid=0x0:0x910e9fcd93a8047f,
mall,Toko Pakaian,Pasar dawi dawi,"Jalan bypass pomalaa, Dawi-Dawi, Kec. Pomalaa, Kabupaten Kolaka, Sulawesi Tenggara 93562","Dawi-Dawi, Kec. Pomalaa, Kabupaten Kolaka",SULAWESI TENGGARA,93562.0,Indonesia,,,,-4.1727042,121.6083892,https://maps.google.com/?cid=0x0:0x31b60ebf84ad75f1,
mall,Pusat Perbelanjaan,Pomalaa,"WHXX+CWM, Watuliandu, Kec. Kolaka, Kabupaten Kolaka, Sulawesi Tenggara","Kabupaten Kolaka, Sulawesi Tenggara",SULAWESI TENGGARA,,Indonesia,,,,-4.0514246,121.5998076,https://maps.google.com/?cid=0x0:0x1cccb534c7a4edb2,
mall,Toko bahan makanan,kios ucha,"Jl. Poros Kolaka - Pomalaa No.27, Pesouha, Kec. Pomalaa, Kabupaten Kolaka, Sulawesi Tenggara 93562","Pesouha, Kec. Pomalaa, Kabupaten Kolaka",SULAWESI TENGGARA,93562.0,Indonesia,,,,-4.1781636,121.6405229,https://maps.google.com/?cid=0x0:0x9e7f4aa7d92f8089,
mall,Toko makanan beku,FATIMAH FROZEN FOOD,"RJCQ+VGV, Jl mesjid al-muhajirin, Pesouha, Kec. Pomalaa, Kabupaten Kolaka, Sulawesi Tenggara 93562","Jl mesjid al-muhajirin, Pesouha, Kec. Pomalaa, Kabupaten Kolaka",SULAWESI TENGGARA,93562.0,Indonesia,,,,-4.1777719,121.6388065,https://maps.google.com/?cid=0x0:0xb680a3889281c85b,
mall,Toko,Kios Riski,"PH65+QXV, Jl. Poros Pomalaa-Wolulu, Oko Oko, Kec. Pomalaa, Kabupaten Kolaka, Sulawesi Tenggara 93562","Jl. Poros Pomalaa-Wolulu, Oko Oko, Kec. Pomalaa, Kabupaten Kolaka",SULAWESI TENGGARA,93562.0,Indonesia,,,,-4.2880184,121.559923,https://maps.google.com/?cid=0x0:0x2a97e5994d21818e,
mall,Toko bahan makanan,Top Swalayan Kolaka,"Laloeha, Kec. Kolaka, Kabupaten Kolaka, Sulawesi Tenggara 93561","Kec. Kolaka, Kabupaten Kolaka",SULAWESI TENGGARA,93561.0,Indonesia,82347453535.0,,,-4.0603204,121.6112796,https://maps.google.com/?cid=0x0:0xf40e49d7c66c766f,
mall,Toko,Kios NINA,"RJFC+889, Pelambua, Kec. Pomalaa, Kabupaten Kolaka, Sulawesi Tenggara 93562","Pelambua, Kec. Pomalaa, Kabupaten Kolaka",SULAWESI TENGGARA,93562.0,Indonesia,85341993952.0,,,-4.176704,121.620871,https://maps.google.com/?cid=0x0:0x6cebee8bbb63f105,
mall,Toko bahan makanan,Toko SUMBER CAHAYA,"Jl. Poros Kolaka - Pomalaa No.43, Baula, Kec. Baula, Kabupaten Kolaka, Sulawesi Tenggara 93561","Baula, Kec. Baula, Kabupaten Kolaka",SULAWESI TENGGARA,93561.0,Indonesia,81344810957.0,,,-4.1610414,121.68324,https://maps.google.com/?cid=0x0:0xa400dbfa436b2cde,
mall,Pusat Perbelanjaan,Dawi dawi,"RJF8+W2C, Tonggoni, Kec. Pomalaa, Kabupaten Kolaka, Sulawesi Tenggara","Kabupaten Kolaka, Sulawesi Tenggara",SULAWESI TENGGARA,,Indonesia,,,,-4.1751889,121.6150148,https://maps.google.com/?cid=0x0:0xe572eb4befe01a6b,
mall,Perusahaan Pertambangan,Kompleks Antam,"Jl. Cemp. No.10, Pomalaa, Kec. Pomalaa, Kabupaten Kolaka, Sulawesi Tenggara 93562","Pomalaa, Kec. Pomalaa, Kabupaten Kolaka",SULAWESI TENGGARA,93562.0,Indonesia,,,,-4.1965563,121.5949517,https://maps.google.com/?cid=0x0:0xb0ac3cfc482c4f99,
mall,Kantor Keselamatan Publik,Polsek Pomalaa,"Jl. Ekonomi No.114, Dawi-Dawi, Kec. Pomalaa, Kabupaten Kolaka, Sulawesi Tenggara 93562","Dawi-Dawi, Kec. Pomalaa, Kabupaten Kolaka",SULAWESI TENGGARA,93562.0,Indonesia,405310225.0,,,-4.1758022,121.6115509,https://maps.google.com/?cid=0x0:0x2182bcc315befaa1,
mall,Toko Pakaian,Pomalaa Branded,"Jl. Jend. Sudirman No.46, Kumoro, Kec. Pomalaa, Kabupaten Kolaka, Sulawesi Tenggara 93562","Kumoro, Kec. Pomalaa, Kabupaten Kolaka",SULAWESI TENGGARA,93562.0,Indonesia,85242056660.0,,,-4.1915425,121.6030537,https://maps.google.com/?cid=0x0:0xec6cadfa0bd47f64,
mall,Toko Suku Cadang Mobil,Sumber Mas Motor Variasi,"Jl. Poros, Pesouha, Kec. Pomalaa, Kabupaten Kolaka, Sulawesi Tenggara 93562","Pesouha, Kec. Pomalaa, Kabupaten Kolaka",SULAWESI TENGGARA,93562.0,Indonesia,82349219973.0,,,-4.1781693,121.6406998,https://maps.google.com/?cid=0x0:0x776f91712fee876a,
mall,Toko,Toko Sari,"3992+74J, Lambolemo, Kec. Samaturu, Kabupaten Kolaka, Sulawesi Tenggara 93915","Lambolemo, Kec. Samaturu, Kabupaten Kolaka",SULAWESI TENGGARA,93915.0,Indonesia,85341215024.0,,,-3.9317772,121.3502578,https://maps.google.com/?cid=0x0:0x1215385a19c6d363,
mall,mall,Sulawesi Tenggara 93915,"Kabupaten Kolaka, Sulawesi Tenggara","Kabupaten Kolaka, Sulawesi Tenggara",SULAWESI TENGGARA,,Indonesia,,,,-3.8574921,121.4913182,https://maps.google.com/?cid=0x0:0x729d7476a09b7e41,
mall,Toko,Kios Fatar,"XFPP+8W6, puu, Lawulo, Kec. Samaturu, Kabupaten Kolaka, Sulawesi Tenggara 93512","puu, Lawulo, Kec. Samaturu, Kabupaten Kolaka",SULAWESI TENGGARA,93512.0,Indonesia,,,,-4.0142051,121.4872712,https://maps.google.com/?cid=0x0:0x617e8035f7f5e3e9,
mall,Pusat Perbelanjaan,UD MAJU LAWULO,"XFQG+52H, Lawulo, Kec. Samaturu, Kabupaten Kolaka, Sulawesi Tenggara 93512","Lawulo, Kec. Samaturu, Kabupaten Kolaka",SULAWESI TENGGARA,93512.0,Indonesia,85357777434.0,,,-4.012058,121.475095,https://maps.google.com/?cid=0x0:0xd578122c75b40c6a,
mall,Toko,Kios Sam,"2C2F+HQV, Jl. Poros Kolaka - Wolo, Sani Sani, Kec. Samaturu, Kabupaten Kolaka, Sulawesi Tenggara 93915","Jl. Poros Kolaka - Wolo, Sani Sani, Kec. Samaturu, Kabupaten Kolaka",SULAWESI TENGGARA,93915.0,Indonesia,82252890493.0,,,-3.9985171,121.4244158,https://maps.google.com/?cid=0x0:0xe8c589a192c3eac6,
mall,Kios,Toko Andita,"Kios Tosiba, Lingk 1 Tosiba Kec.Samaturu,25 Meter Dari, Tosiba, Kec. Samaturu, Kabupaten Kolaka, Sulawesi Tenggara 93915","Lingk 1 Tosiba Kec.Samaturu,25 Meter Dari, Tosiba, Kec. Samaturu, Kabupaten Kolaka",SULAWESI TENGGARA,93915.0,Indonesia,,,,-3.9292301,121.3301006,https://maps.google.com/?cid=0x0:0xb14af0eab24615d9,
mall,Kios,TOSIBA KIOS,"389J+VRP, Tosiba, Kec. Samaturu, Kabupaten Kolaka, Sulawesi Tenggara 93915","Tosiba, Kec. Samaturu, Kabupaten Kolaka",SULAWESI TENGGARA,93915.0,Indonesia,85285148988.0,,,-3.930044,121.3321022,https://maps.google.com/?cid=0x0:0xf77530d312fbee33,
mall,Toko Elektronik,Toko Farid Cell,"Jl. Poros Kolaka - Wolo, Sani Sani, Kec. Samaturu, Kabupaten Kolaka, Sulawesi Tenggara 93915","Sani Sani, Kec. Samaturu, Kabupaten Kolaka",SULAWESI TENGGARA,93915.0,Indonesia,82193018977.0,,,-4.0002686,121.4245061,https://maps.google.com/?cid=0x0:0x6e262f3c4fe478dc,
mall,Pusat Perbelanjaan,Jannah Kios,"Tosiba, Kec. Samaturu, Kabupaten Kolaka, Sulawesi Tenggara 93915","Kec. Samaturu, Kabupaten Kolaka",SULAWESI TENGGARA,93915.0,Indonesia,82259262203.0,,,-3.9306,121.3369562,https://maps.google.com/?cid=0x0:0xc143b997e844fd7b,
mall,Peternakan Ayam,Ayam Potong ZAKY,"29X3+739, Awa, Kec. Samaturu, Kabupaten Kolaka, Sulawesi Tenggara 93915","Awa, Kec. Samaturu, Kabupaten Kolaka",SULAWESI TENGGARA,93915.0,Indonesia,82292929105.0,,,-3.9518356,121.3527377,https://maps.google.com/?cid=0x0:0xaf976bfa0043a3a0,
mall,Pusat Perbelanjaan,GMT KOLAKA,"Jl. Pramuka No.7CLamokato, Lamokato, Kec. Kolaka, Kabupaten Kolaka, Sulawesi Tenggara 93561","Lamokato, Kec. Kolaka, Kabupaten Kolaka",SULAWESI TENGGARA,93561.0,Indonesia,82347426400.0,,,-4.0579775,121.6067618,https://maps.google.com/?cid=0x0:0x8461af370d696f58,
mall,mall,Lapak ikan segar mama naura,"482R+WRW, Ulu Lapao-Pao, Kec. Wolo, Kabupaten Kolaka, Sulawesi Tenggara","Kabupaten Kolaka, Sulawesi Tenggara",SULAWESI TENGGARA,,Indonesia,,,,-3.8976476,121.3420896,https://maps.google.com/?cid=0x0:0x3bec1ad68f0fe788,
mall,Toko,Toko Zentani,"38H8+HJG, Donggala, Kec. Wolo, Kabupaten Kolaka, Sulawesi Tenggara 93915","Donggala, Kec. Wolo, Kabupaten Kolaka",SULAWESI TENGGARA,93915.0,Indonesia,,,,-3.9210628,121.3165772,https://maps.google.com/?cid=0x0:0x5c32a3cc73e54df1,
mall,Pusat Perbelanjaan,Balanipa Bussines Centre,"WHRW+PHC, Jl. Mekongga Indah, Lamokato, Kec. Kolaka, Kabupaten Kolaka, Sulawesi Tenggara","Kabupaten Kolaka, Sulawesi Tenggara",SULAWESI TENGGARA,,Indonesia,,,,-4.058186,121.596401,https://maps.google.com/?cid=0x0:0xb430399d0297013b,
mall,Toko,Toko Senyum 5000,"WJR4+RP4, Jl. Pramuka, Laloeha, Kec. Kolaka, Kabupaten Kolaka, Sulawesi Tenggara 93561","Jl. Pramuka, Laloeha, Kec. Kolaka, Kabupaten Kolaka",SULAWESI TENGGARA,93561.0,Indonesia,,,,-4.0579844,121.6068304,https://maps.google.com/?cid=0x0:0xe4142a85c6615b9d,
mall,Toko,KIOS PADA IDI,"484M+Q96, Lapao-Pao, Kec. Wolo, Kabupaten Kolaka, Sulawesi Tenggara 93915","Lapao-Pao, Kec. Wolo, Kabupaten Kolaka",SULAWESI TENGGARA,93915.0,Indonesia,,,,-3.8930771,121.3333759,https://maps.google.com/?cid=0x0:0x7abda943439de6cb,
mall,Toko Perlengkapan Rumah,Mr Diy pemuda kolaka,"Jl. Pemuda, Laloeha, Kec. Kolaka, Kabupaten Kolaka, Sulawesi Tenggara 93561","Laloeha, Kec. Kolaka, Kabupaten Kolaka",SULAWESI TENGGARA,93561.0,Indonesia,,,,-4.0575576,121.6072971,https://maps.google.com/?cid=0x0:0xf2a7ad1f6379051a,
mall,Toko bahan makanan,Top Swalayan Kolaka,"Laloeha, Kec. Kolaka, Kabupaten Kolaka, Sulawesi Tenggara 93561","Kec. Kolaka, Kabupaten Kolaka",SULAWESI TENGGARA,93561.0,Indonesia,82347453535.0,,,-4.0603204,121.6112796,https://maps.google.com/?cid=0x0:0xf40e49d7c66c766f,
mall,Pusat Perbelanjaan,Pusat belanja,"Jl. Pramuka No.2, Lamokato, Kec. Kolaka, Kabupaten Kolaka, Sulawesi Tenggara 93561","Lamokato, Kec. Kolaka, Kabupaten Kolaka",SULAWESI TENGGARA,93561.0,Indonesia,85222217891.0,,,-4.0574651,121.606125,https://maps.google.com/?cid=0x0:0xf90275aed231ba01,
mall,Toko,Kios Fitri,"7F44+5RM, Tolowe Ponrewaru, Kec. Wolo, Kabupaten Kolaka, Sulawesi Tenggara","Kabupaten Kolaka, Sulawesi Tenggara",SULAWESI TENGGARA,,Indonesia,,,,-3.7445418,121.4570447,https://maps.google.com/?cid=0x0:0xac922685cf022188,
mall,Toko Pakaian,Kios Aneka Niaga,"Jl. Lambotoro Lalodipu, Mangolo, Kec. Latambaga, Kabupaten Kolaka, Sulawesi Tenggara 93514","Mangolo, Kec. Latambaga, Kabupaten Kolaka",SULAWESI TENGGARA,93514.0,Indonesia,85241919656.0,,,-4.0187318,121.5481155,https://maps.google.com/?cid=0x0:0xea69dc215af343a9,
mall,mall,Kec. Samaturu,"Kabupaten Kolaka, Sulawesi Tenggara","Kabupaten Kolaka, Sulawesi Tenggara",SULAWESI TENGGARA,,Indonesia,,,,-3.925404,121.3485865,https://maps.google.com/?cid=0x0:0x3dae34faaa2aa780,
mall,Pasar,Pasar Ikan Anaiwoi,"JGCC+89Q, Anaiwoi, Tanggetada, Kabupaten Kolaka, Sulawesi Tenggara 93563","Anaiwoi, Tanggetada, Kabupaten Kolaka",SULAWESI TENGGARA,93563.0,Indonesia,,,,-4.3791634,121.5209978,https://maps.google.com/?cid=0x0:0x3adfa30a081bcb4f,
mall,mall,Sulawesi Tenggara 93563,"Kec. Polinggona, Kabupaten Kolaka, Sulawesi Tenggara","Kabupaten Kolaka, Sulawesi Tenggara",SULAWESI TENGGARA,,Indonesia,,,,-4.4159481,121.6739371,https://maps.google.com/?cid=0x0:0x9488be185143c520,
mall,Pusat Perbelanjaan,KIOS HERDA,"JH82+XR5, Popalia, Tanggetada, Kabupaten Kolaka, Sulawesi Tenggara 93563","Popalia, Tanggetada, Kabupaten Kolaka",SULAWESI TENGGARA,93563.0,Indonesia,82248210107.0,,,-4.3826186,121.5521178,https://maps.google.com/?cid=0x0:0xcf14e3fa90eaa41a,
mall,Toko bahan makanan,PASAR WOLULU,"HG69+WJ5, Wolulu, Kec. Watubangga, Kabupaten Kolaka, Sulawesi Tenggara 93563","Wolulu, Kec. Watubangga, Kabupaten Kolaka",SULAWESI TENGGARA,93563.0,Indonesia,,,,-4.4377426,121.5191081,https://maps.google.com/?cid=0x0:0x23f1275ad611a9f8,
mall,Pusat Perbelanjaan,Pasar Polinggona,"GHXG+759, Unnamed Road, Polinggona, Kec. Polinggona, Kabupaten Kolaka, Sulawesi Tenggara 93563","Unnamed Road, Polinggona, Kec. Polinggona, Kabupaten Kolaka",SULAWESI TENGGARA,93563.0,Indonesia,,,,-4.4518368,121.5754892,https://maps.google.com/?cid=0x0:0x9a979d54e3ec3c4e,
mall,Toko Fotokopi,Fotocopy dan Percetakan Jaya Abadi,"Popalia, Tanggetada, Kabupaten Kolaka, Sulawesi Tenggara 93563","Tanggetada, Kabupaten Kolaka",SULAWESI TENGGARA,93563.0,Indonesia,81355277423.0,,,-4.3802714,121.553409,https://maps.google.com/?cid=0x0:0xb23950d9403cc384,
mall,Minimarket,Toko annasya 1117,"JGVC+MFX, Tanggetada, Kabupaten Kolaka, Sulawesi Tenggara 93563","Tanggetada, Kabupaten Kolaka",SULAWESI TENGGARA,93563.0,Indonesia,,,,-4.3551471,121.5203822,https://maps.google.com/?cid=0x0:0x4ac2d1d1a057f345,
mall,,DEWATA CELL2,"GH2F+2WV, Peoho, Kec. Watubangga, Kabupaten Kolaka, Sulawesi Tenggara 93563","Peoho, Kec. Watubangga, Kabupaten Kolaka",SULAWESI TENGGARA,93563.0,Indonesia,82292965798.0,,,-4.4998797,121.5748053,https://maps.google.com/?cid=0x0:0x81c7af064ebfd567,
mall,Pusat Perbelanjaan,Kios Reihan,"MH4M+44C, Jl, Pewisoa Jaya, Tanggetada, Kabupaten Kolaka, Sulawesi Tenggara","Kabupaten Kolaka, Sulawesi Tenggara",SULAWESI TENGGARA,,Indonesia,,,,-4.3446882,121.5827547,https://maps.google.com/?cid=0x0:0x2acbec9fd744f035,
mall,Toko Buku,Lestari Foto Copy  Atk,"JGGH+FMF, Anaiwoi, Tanggetada, Kabupaten Kolaka, Sulawesi Tenggara 93563","Anaiwoi, Tanggetada, Kabupaten Kolaka",SULAWESI TENGGARA,93563.0,Indonesia,82293731159.0,,,-4.3738083,121.5291567,https://maps.google.com/?cid=0x0:0xeaa5a5698659a35d,
mall,Toko,TOKO BAROKAH,"JH92+VHW, Popalia, Tanggetada, Kabupaten Kolaka, Sulawesi Tenggara 93563","Popalia, Tanggetada, Kabupaten Kolaka",SULAWESI TENGGARA,93563.0,Indonesia,,,,-4.3802027,121.5515038,https://maps.google.com/?cid=0x0:0x3acb331efc28c54,
mall,Toko,ANEKA PLASTIK,"Jl. Sendiri No.1, Anaiwoi, Tanggetada, Kabupaten Kolaka, Sulawesi Tenggara 93564","Anaiwoi, Tanggetada, Kabupaten Kolaka",SULAWESI TENGGARA,93564.0,Indonesia,,,,-4.3704727,121.5202478,https://maps.google.com/?cid=0x0:0x77c05bacb3a7853b,
mall,Pusat Perbelanjaan,Rahma Kosmetik,"Kampus USN Popalia, Jl. Poros Pomalaa-Boepinang, Anaiwoi, Tanggetada, Kabupaten Kolaka, Sulawesi Tenggara 93563","Jl. Poros Pomalaa-Boepinang, Anaiwoi, Tanggetada, Kabupaten Kolaka",SULAWESI TENGGARA,93563.0,Indonesia,,,,-4.3716848,121.5203872,https://maps.google.com/?cid=0x0:0x5a0285bfe12acf9e,
mall,Pasar,Pasar Ikan Watubangga Berjaya,"GGF4+R3P, Jl. Poros Pomalaa Toari, Watubangga, Kec. Watubangga, Kabupaten Kolaka, Sulawesi Tenggara 93563","Jl. Poros Pomalaa Toari, Watubangga, Kec. Watubangga, Kabupaten Kolaka",SULAWESI TENGGARA,93563.0,Indonesia,,,,-4.4754096,121.505209,https://maps.google.com/?cid=0x0:0x50280df8c33f8049,
mall,Toko Percetakan,"percetakan,kios  bengkel rezky","JHC4+2CQ, Unnamed Road, Popalia, Tanggetada, Kabupaten Kolaka, Sulawesi Tenggara 93563","Unnamed Road, Popalia, Tanggetada, Kabupaten Kolaka",SULAWESI TENGGARA,93563.0,Indonesia,,,,-4.3799016,121.5561177,https://maps.google.com/?cid=0x0:0xfc69d059a86e6a79,
mall,Pusat Perbelanjaan,Rahma Cosmetics,"JGCM+VW, Anaiwoi, Tanggetada, Kabupaten Kolaka, Sulawesi Tenggara","Kabupaten Kolaka, Sulawesi Tenggara",SULAWESI TENGGARA,,Indonesia,,,,-4.3778406,121.5348127,https://maps.google.com/?cid=0x0:0x25ed645fef7866e4,
mall,Smart shop,Tk zhafira zhafran,"FGW8+8G4, Tandebura, Kec. Watubangga, Kabupaten Kolaka, Sulawesi Tenggara","Kabupaten Kolaka, Sulawesi Tenggara",SULAWESI TENGGARA,,Indonesia,,,,-4.5042331,121.5163162,https://maps.google.com/?cid=0x0:0x7fad8e6ee7e15212,
mall,Peternakan Ayam,Pakan ternak,"JGJC+54P, Jl. Poros Pomalaa-Boepinang, Palewai, Tanggetada, Kabupaten Kolaka, Sulawesi Tenggara 93563","Jl. Poros Pomalaa-Boepinang, Palewai, Tanggetada, Kabupaten Kolaka",SULAWESI TENGGARA,93563.0,Indonesia,85241295090.0,,,-4.3695339,121.5203377,https://maps.google.com/?cid=0x0:0xf68b3a94a892e9c3,
mall,Toko Makanan,Kerupuk Bandung Bapak Dayat,"FG85+88C, Wowoli, Kec. Toari, Kabupaten Kolaka, Sulawesi Tenggara 93563","Wowoli, Kec. Toari, Kabupaten Kolaka",SULAWESI TENGGARA,93563.0,Indonesia,82290598020.0,,,-4.5341936,121.5082679,https://maps.google.com/?cid=0x0:0x479a66dd220bb482,
mall,Toko,Kios ERNISA,"CGR3+5WF, Ranomentaa, Kec. Toari, Kabupaten Kolaka, Sulawesi Tenggara 93563","Ranomentaa, Kec. Toari, Kabupaten Kolaka",SULAWESI TENGGARA,93563.0,Indonesia,,,,-4.5595735,121.5048087,https://maps.google.com/?cid=0x0:0x28f8f801ace4faf6,
mall,Toko,Pasar Raya Mekongga Kolaka,"Pasar Raya Mekongga Kolaka No.Blok A, Kabupaten Kolaka, Sulawesi Tenggara 93516",Kabupaten Kolaka,SULAWESI TENGGARA,93516.0,Indonesia,,,,-4.0607109,121.5975059,https://maps.google.com/?cid=0x0:0x57733dc983307d2c,
mall,mall,Tanggetada,"Kabupaten Kolaka, Sulawesi Tenggara","Kabupaten Kolaka, Sulawesi Tenggara",SULAWESI TENGGARA,,Indonesia,,,,-4.3281054,121.6511258,https://maps.google.com/?cid=0x0:0x743abb0d1adc3391,
mall,mall,TOKO MERDEKA,"Unnamed Road, Popalia, Tanggetada, Kabupaten Kolaka, Sulawesi Tenggara 93563","Popalia, Tanggetada, Kabupaten Kolaka",SULAWESI TENGGARA,93563.0,Indonesia,,,,-4.3789324,121.5560234,https://maps.google.com/?cid=0x0:0xbd00d343b99d2246,
mall,Pusat Perbelanjaan,Toko Bumdes Mepokoaso,"JH72+XHC, Popalia, Tanggetada, Kabupaten Kolaka, Sulawesi Tenggara 93563","Popalia, Tanggetada, Kabupaten Kolaka",SULAWESI TENGGARA,93563.0,Indonesia,,,,-4.385074,121.5513991,https://maps.google.com/?cid=0x0:0xf7ce3c54d66ea32a,
mall,Toko,Kios ERNISA,"CGR3+5WF, Ranomentaa, Kec. Toari, Kabupaten Kolaka, Sulawesi Tenggara 93563","Ranomentaa, Kec. Toari, Kabupaten Kolaka",SULAWESI TENGGARA,93563.0,Indonesia,,,,-4.5595735,121.5048087,https://maps.google.com/?cid=0x0:0x28f8f801ace4faf6,
mall,Kios,Kios anugrah mandiri,"FG76+FWC, Wowoli, Kec. Toari, Kabupaten Kolaka, Sulawesi Tenggara","Kabupaten Kolaka, Sulawesi Tenggara",SULAWESI TENGGARA,,Indonesia,82394666643.0,,,-4.5363086,121.5122548,https://maps.google.com/?cid=0x0:0x36742655ec7e27d0,
mall,mall,Kec. Toari,"Kabupaten Kolaka, Sulawesi Tenggara","Kabupaten Kolaka, Sulawesi Tenggara",SULAWESI TENGGARA,,Indonesia,,,,-4.5586308,121.5108051,https://maps.google.com/?cid=0x0:0xe2e54f3d50344975,
mall,Toko,ToKo Laila Jaya Ibu Kalimah,"CGM6+GHV, Lakito, Poros, Anawua, Kec. Toari, Kabupaten Kolaka, Sulawesi Tenggara 93563","Lakito, Poros, Anawua, Kec. Toari, Kabupaten Kolaka",SULAWESI TENGGARA,93563.0,Indonesia,,,,-4.5661498,121.5114145,https://maps.google.com/?cid=0x0:0x79f0d2f919d09311,
mall,Toko Makanan,Kerupuk Bandung Bapak Dayat,"FG85+88C, Wowoli, Kec. Toari, Kabupaten Kolaka, Sulawesi Tenggara 93563","Wowoli, Kec. Toari, Kabupaten Kolaka",SULAWESI TENGGARA,93563.0,Indonesia,82290598020.0,,,-4.5341936,121.5082679,https://maps.google.com/?cid=0x0:0x479a66dd220bb482,
mall,Pasar,Pasar Tandebura,"FGX8+GM3, Tandebura, Kec. Watubangga, Kabupaten Kolaka, Sulawesi Tenggara 93571","Tandebura, Kec. Watubangga, Kabupaten Kolaka",SULAWESI TENGGARA,93571.0,Indonesia,,,,-4.5012425,121.516668,https://maps.google.com/?cid=0x0:0x566876525b2089c9,
mall,Toko,Kios Cristin,"FH7J+3GV, Longgosipi, Kec. Watubangga, Kabupaten Kolaka, Sulawesi Tenggara 93563","Longgosipi, Kec. Watubangga, Kabupaten Kolaka",SULAWESI TENGGARA,93563.0,Indonesia,82187520885.0,,,-4.5372524,121.5813063,https://maps.google.com/?cid=0x0:0x316ef208c5f68600,
mall,Toko Pakaian Wanita,Risshop,"VJCF+HXW, Towua I, Kec. Wundulako, Kabupaten Kolaka, Sulawesi Tenggara 93561","Towua I, Kec. Wundulako, Kabupaten Kolaka",SULAWESI TENGGARA,93561.0,Indonesia,82347322300.0,,,-4.1285177,121.6249663,https://maps.google.com/?cid=0x0:0xe395f1f2f978767f,
mall,,DEWATA CELL2,"GH2F+2WV, Peoho, Kec. Watubangga, Kabupaten Kolaka, Sulawesi Tenggara 93563","Peoho, Kec. Watubangga, Kabupaten Kolaka",SULAWESI TENGGARA,93563.0,Indonesia,82292965798.0,,,-4.4998797,121.5748053,https://maps.google.com/?cid=0x0:0x81c7af064ebfd567,
mall,Sekolah Dasar,SMAN 1 TOARI,"Pelopor Pendidikan No.1, Ranomentaa, Toari, Rano Jaya, Kec. Toari, Kabupaten Kolaka, Sulawesi Tenggara 93563","Ranomentaa, Toari, Rano Jaya, Kec. Toari, Kabupaten Kolaka",SULAWESI TENGGARA,93563.0,Indonesia,81341545066.0,,,-4.555204,121.5129325,https://maps.google.com/?cid=0x0:0xe952bac7d272bf36,
mall,Toko,toko putra kembar,"CF4J+Q23, desa, Toari Buton, Kec. Poleang Bar., Kabupaten Bombana, Sulawesi Tenggara 93772","desa, Toari Buton, Kec. Poleang Bar., Kabupaten Bombana",SULAWESI TENGGARA,93772.0,Indonesia,85312577089.0,,,-4.5931205,121.4800359,https://maps.google.com/?cid=0x0:0x75f06ad96bd42d4a,
mall,Komplek perumahan,Desa Rahabite,"FG85+6W2, Wowoli, Kec. Toari, Kabupaten Kolaka, Sulawesi Tenggara","Kabupaten Kolaka, Sulawesi Tenggara",SULAWESI TENGGARA,,Indonesia,,,,-4.5344851,121.5097718,https://maps.google.com/?cid=0x0:0xd36a3ac245b3c73f,
mall,Minimarket,Barokah,"CGR5+45P, Ranomentaa, Kec. Toari, Kabupaten Kolaka, Sulawesi Tenggara 93563","Ranomentaa, Kec. Toari, Kabupaten Kolaka",SULAWESI TENGGARA,93563.0,Indonesia,,,,-4.5596668,121.5078774,https://maps.google.com/?cid=0x0:0x3a3dadfaf60e6c06,
mall,Pusat Perbelanjaan,Rahma Kosmetik,"Kampus USN Popalia, Jl. Poros Pomalaa-Boepinang, Anaiwoi, Tanggetada, Kabupaten Kolaka, Sulawesi Tenggara 93563","Jl. Poros Pomalaa-Boepinang, Anaiwoi, Tanggetada, Kabupaten Kolaka",SULAWESI TENGGARA,93563.0,Indonesia,,,,-4.3716848,121.5203872,https://maps.google.com/?cid=0x0:0x5a0285bfe12acf9e,
mall,Pusat Perbelanjaan,Rahma Cosmetics,"JGCM+VW, Anaiwoi, Tanggetada, Kabupaten Kolaka, Sulawesi Tenggara","Kabupaten Kolaka, Sulawesi Tenggara",SULAWESI TENGGARA,,Indonesia,,,,-4.3778406,121.5348127,https://maps.google.com/?cid=0x0:0x25ed645fef7866e4,
mall,mall,Sulawesi,,,SULAWESI TENGGARA,,Indonesia,,,,-1.8479,120.5279,https://maps.google.com/?cid=0x0:0xbc9a51d168f47742,
mall,Pusat Perbelanjaan,Pasar Watubangga,"Watubangga, Kec. Watubangga, Kabupaten Kolaka, Sulawesi Tenggara 93563","Kec. Watubangga, Kabupaten Kolaka",SULAWESI TENGGARA,93563.0,Indonesia,,,,-4.4762123,121.5066879,https://maps.google.com/?cid=0x0:0xabf12b64905f81d2,
mall,Pusat Perbelanjaan,UMNA WOLIO PLAZA,"GJV3+VQ4, umna wolio plaza, Sulawesi Tenggara 93711",umna wolio plaza,SULAWESI TENGGARA,93711.0,Indonesia,,,,-5.4553515,122.6044539,https://maps.google.com/?cid=0x0:0xf416e74b3da1f66b,
mall,Pusat Perbelanjaan,Mall Plaza,"FHVW+5Q6, Waborobo, Kec. Betoambari, Kota Bau-Bau, Sulawesi Tenggara 93721","Waborobo, Kec. Betoambari, Kota Bau-Bau",SULAWESI TENGGARA,93721.0,Indonesia,,,,-5.507078,122.596901,https://maps.google.com/?cid=0x0:0xb838977c27239e8f,
mall,Toko bahan makanan,Pasar Tamborasi,"649V+VRG, Desa Tamborasi, Iwoimendaa, Kec. Wolo, Kabupaten Kolaka, Sulawesi Tenggara 93552","Desa Tamborasi, Iwoimendaa, Kec. Wolo, Kabupaten Kolaka",SULAWESI TENGGARA,93552.0,Indonesia,85299911651.0,,,-3.7803203,121.144588,https://maps.google.com/?cid=0x0:0x7a2511d499ea860a,
mall,mall,Sulawesi Tenggara 93552,"Kec. Wolo, Kabupaten Kolaka, Sulawesi Tenggara","Kabupaten Kolaka, Sulawesi Tenggara",SULAWESI TENGGARA,,Indonesia,,,,-3.7240653,121.3084088,https://maps.google.com/?cid=0x0:0x32a24e9ef7bb5c4a,
mall,Toko bahan makanan,Toko Adinda,"55PP+CFQ, Ulu Kalo, Kec. Wolo, Kabupaten Kolaka, Sulawesi Tenggara 93552","Ulu Kalo, Kec. Wolo, Kabupaten Kolaka",SULAWESI TENGGARA,93552.0,Indonesia,82337040409.0,,,-3.8139103,121.1862275,https://maps.google.com/?cid=0x0:0x1162691e115864da,
mall,Minimarket,Persiapan Alfamidi,"55FG+P79, Iwoimendaa, Kec. Wolo, Kabupaten Kolaka, Sulawesi Tenggara 93552","Iwoimendaa, Kec. Wolo, Kabupaten Kolaka",SULAWESI TENGGARA,93552.0,Indonesia,85395957092.0,,,-3.8257113,121.1757423,https://maps.google.com/?cid=0x0:0xaa5c0fe221777afd,
mall,Komplek perumahan,"Rumahx AA, Keisya dan Azka","55GC+QMQ, Iwoimendaa, Kec. Wolo, Kabupaten Kolaka, Sulawesi Tenggara 93552","Iwoimendaa, Kec. Wolo, Kabupaten Kolaka",SULAWESI TENGGARA,93552.0,Indonesia,,,,-3.8230331,121.1717232,https://maps.google.com/?cid=0x0:0xe4a23a50c5177fa,
mall,Toko,KIOS PADA IDI,"484M+Q96, Lapao-Pao, Kec. Wolo, Kabupaten Kolaka, Sulawesi Tenggara 93915","Lapao-Pao, Kec. Wolo, Kabupaten Kolaka",SULAWESI TENGGARA,93915.0,Indonesia,,,,-3.8930771,121.3333759,https://maps.google.com/?cid=0x0:0x7abda943439de6cb,
mall,Toko,Toko Zentani,"38H8+HJG, Donggala, Kec. Wolo, Kabupaten Kolaka, Sulawesi Tenggara 93915","Donggala, Kec. Wolo, Kabupaten Kolaka",SULAWESI TENGGARA,93915.0,Indonesia,,,,-3.9210628,121.3165772,https://maps.google.com/?cid=0x0:0x5c32a3cc73e54df1,
mall,Toko,Kios Fitri,"7F44+5RM, Tolowe Ponrewaru, Kec. Wolo, Kabupaten Kolaka, Sulawesi Tenggara","Kabupaten Kolaka, Sulawesi Tenggara",SULAWESI TENGGARA,,Indonesia,,,,-3.7445418,121.4570447,https://maps.google.com/?cid=0x0:0xac922685cf022188,
mall,Toko,Kios akbar,"5852+P8C, Unnamed Road, Tolowe Ponrewaru, Kec. Wolo, Kabupaten Kolaka, Sulawesi Tenggara 93552","Unnamed Road, Tolowe Ponrewaru, Kec. Wolo, Kabupaten Kolaka",SULAWESI TENGGARA,93552.0,Indonesia,,,,-3.8406791,121.3007772,https://maps.google.com/?cid=0x0:0x6b9b5da11addb03b,
mall,Pasar tradisional,Pasar Walasiho,"73X5+J82, Unnamed Rd,, Walasiho, Kec. Wawo, Kabupaten Kolaka Utara, Sulawesi Tenggara 93956","Unnamed Rd,, Walasiho, Kec. Wawo, Kabupaten Kolaka Utara",SULAWESI TENGGARA,93956.0,Indonesia,82291842061.0,,,-3.7009862,121.0582518,https://maps.google.com/?cid=0x0:0x8558e4cb2f9f9c9,
mall,Perhimpunan Pengembang Perumahan,Wolo,"389M+MV, Tosiba, Kec. Samaturu, Kabupaten Kolaka, Sulawesi Tenggara 93915","Tosiba, Kec. Samaturu, Kabupaten Kolaka",SULAWESI TENGGARA,93915.0,Indonesia,,,,-3.9308049,121.3346839,https://maps.google.com/?cid=0x0:0x72c3a5e2b70fcf0e,
mall,mall,Lapak ikan segar mama naura,"482R+WRW, Ulu Lapao-Pao, Kec. Wolo, Kabupaten Kolaka, Sulawesi Tenggara","Kabupaten Kolaka, Sulawesi Tenggara",SULAWESI TENGGARA,,Indonesia,,,,-3.8976476,121.3420896,https://maps.google.com/?cid=0x0:0x3bec1ad68f0fe788,
mall,Tujuan Wisata,Kolaka Utara,"7565+GR4, Tamborasi, Kec. Wolo, Kabupaten Kolaka, Sulawesi Tenggara 93552","Tamborasi, Kec. Wolo, Kabupaten Kolaka",SULAWESI TENGGARA,93552.0,Indonesia,,,,-3.7387281,121.1595842,https://maps.google.com/?cid=0x0:0x4cc498dc740ae6e2,
mall,Toko Ponsel,Toko herbal 554,"Ulu Kalo, Wonualaku, Kabupaten Kolaka, Sulawesi Tenggara 93552","Wonualaku, Kabupaten Kolaka",SULAWESI TENGGARA,93552.0,Indonesia,85255225611.0,,,-3.8157994,121.1934161,https://maps.google.com/?cid=0x0:0xda12f530b4bd569d,
mall,mall,Pasar Sore,"5744+W4C, Wolo, Kec. Wolo, Kabupaten Kolaka, Sulawesi Tenggara 93552","Wolo, Kec. Wolo, Kabupaten Kolaka",SULAWESI TENGGARA,93552.0,Indonesia,,,,-3.8426874,121.2552745,https://maps.google.com/?cid=0x0:0x3f477d32eeccb537,
mall,mall,Irfan eman,"5852+M5V, Tolowe Ponrewaru, Kec. Wolo, Kabupaten Kolaka, Sulawesi Tenggara 93552","Tolowe Ponrewaru, Kec. Wolo, Kabupaten Kolaka",SULAWESI TENGGARA,93552.0,Indonesia,,,,-3.8407534,121.3004274,https://maps.google.com/?cid=0x0:0xd104794467aa8dcb,
mall,mall,Toko Whitdenim,"Jl.persatuan No.10, Iwoimendaa, Kec. Wolo, Kabupaten Kolaka, Sulawesi Tenggara 93552","Iwoimendaa, Kec. Wolo, Kabupaten Kolaka",SULAWESI TENGGARA,93552.0,Indonesia,,,,-3.823897,121.1796292,https://maps.google.com/?cid=0x0:0xc92361e4d82c4fcd,
mall,Toko,Toko Sari,"3992+74J, Lambolemo, Kec. Samaturu, Kabupaten Kolaka, Sulawesi Tenggara 93915","Lambolemo, Kec. Samaturu, Kabupaten Kolaka",SULAWESI TENGGARA,93915.0,Indonesia,85341215024.0,,,-3.9317772,121.3502578,https://maps.google.com/?cid=0x0:0x1215385a19c6d363,
mall,mall,Kec. Wolo,"Kabupaten Kolaka, Sulawesi Tenggara","Kabupaten Kolaka, Sulawesi Tenggara",SULAWESI TENGGARA,,Indonesia,,,,-3.8422227,121.2562889,https://maps.google.com/?cid=0x0:0x5d3243bd8c94b964,
mall,Pusat Perbelanjaan,Antelope Valley Mall,"1233 Rancho Vista Blvd, Palmdale, CA 93551, Amerika Serikat","Palmdale, CA",SULAWESI TENGGARA,93551.0,Indonesia,16612669150.0,,,34.605189,-118.1530202,https://maps.google.com/?cid=0x0:0x45f313ccd336038,
mall,mall,Vnesia Mall,"RV9Q+W3W, RW.16, Kayu Putih, Kec. Pulo Gadung, Kota Jakarta Timur, Daerah Khusus Ibukota Jakarta 13210","RW.16, Kayu Putih, Kec. Pulo Gadung, Kota Jakarta Timur",SULAWESI TENGGARA,13210.0,Indonesia,,,,-6.1801497,106.8877147,https://maps.google.com/?cid=0x0:0x86de6bfe4a96b294,
mall,Toko bahan makanan,Top Swalayan Kolaka,"Laloeha, Kec. Kolaka, Kabupaten Kolaka, Sulawesi Tenggara 93561","Kec. Kolaka, Kabupaten Kolaka",SULAWESI TENGGARA,93561.0,Indonesia,82347453535.0,,,-4.0603204,121.6112796,https://maps.google.com/?cid=0x0:0xf40e49d7c66c766f,
mall,mall,Sulawesi Tenggara 93561,"Kabupaten Kolaka, Sulawesi Tenggara","Kabupaten Kolaka, Sulawesi Tenggara",SULAWESI TENGGARA,,Indonesia,,,,-4.0800377,121.6511258,https://maps.google.com/?cid=0x0:0x1aab639f600d3d8e,
mall,Toko Perlengkapan Rumah,Mr Diy pemuda kolaka,"Jl. Pemuda, Laloeha, Kec. Kolaka, Kabupaten Kolaka, Sulawesi Tenggara 93561","Laloeha, Kec. Kolaka, Kabupaten Kolaka",SULAWESI TENGGARA,93561.0,Indonesia,,,,-4.0575576,121.6072971,https://maps.google.com/?cid=0x0:0xf2a7ad1f6379051a,
mall,Pusat Perbelanjaan,Balanipa Bussines Centre,"WHRW+PHC, Jl. Mekongga Indah, Lamokato, Kec. Kolaka, Kabupaten Kolaka, Sulawesi Tenggara","Kabupaten Kolaka, Sulawesi Tenggara",SULAWESI TENGGARA,,Indonesia,,,,-4.058186,121.596401,https://maps.google.com/?cid=0x0:0xb430399d0297013b,
mall,Toko,Toko Senyum 5000,"WJR4+RP4, Jl. Pramuka, Laloeha, Kec. Kolaka, Kabupaten Kolaka, Sulawesi Tenggara 93561","Jl. Pramuka, Laloeha, Kec. Kolaka, Kabupaten Kolaka",SULAWESI TENGGARA,93561.0,Indonesia,,,,-4.0579844,121.6068304,https://maps.google.com/?cid=0x0:0xe4142a85c6615b9d,
mall,Toko Pakaian Wanita,Risshop,"VJCF+HXW, Towua I, Kec. Wundulako, Kabupaten Kolaka, Sulawesi Tenggara 93561","Towua I, Kec. Wundulako, Kabupaten Kolaka",SULAWESI TENGGARA,93561.0,Indonesia,82347322300.0,,,-4.1285177,121.6249663,https://maps.google.com/?cid=0x0:0xe395f1f2f978767f,
mall,Toko Ponsel,Mamo cell,"WJ5W+GMX, Unnamed Road, 19 Nopember, Kec. Wundulako, Kabupaten Kolaka, Sulawesi Tenggara 93561","Unnamed Road, 19 Nopember, Kec. Wundulako, Kabupaten Kolaka",SULAWESI TENGGARA,93561.0,Indonesia,85299908881.0,,,-4.0911491,121.6467246,https://maps.google.com/?cid=0x0:0xc6ee6f546029c6c8,
mall,Pusat Perbelanjaan,GMT KOLAKA,"Jl. Pramuka No.7CLamokato, Lamokato, Kec. Kolaka, Kabupaten Kolaka, Sulawesi Tenggara 93561","Lamokato, Kec. Kolaka, Kabupaten Kolaka",SULAWESI TENGGARA,93561.0,Indonesia,82347426400.0,,,-4.0579775,121.6067618,https://maps.google.com/?cid=0x0:0x8461af370d696f58,
mall,Toko,Pasar Raya Mekongga Kolaka,"Pasar Raya Mekongga Kolaka No.Blok A, Kabupaten Kolaka, Sulawesi Tenggara 93516",Kabupaten Kolaka,SULAWESI TENGGARA,93516.0,Indonesia,,,,-4.0607109,121.5975059,https://maps.google.com/?cid=0x0:0x57733dc983307d2c,
mall,Toko Perlengkapan Rumah,HAJI DAHLAN(TOKO HAMDAN),"JL WASITAU No.7, Ngapa, Kec. Wundulako, Kabupaten Kolaka, Sulawesi Tenggara 93561","Ngapa, Kec. Wundulako, Kabupaten Kolaka",SULAWESI TENGGARA,93561.0,Indonesia,82346054077.0,,,-4.1266061,121.6725115,https://maps.google.com/?cid=0x0:0x32409d06021d5bba,
mall,Toko umum,Kios Ciya,"Wundulako, Kec. Wundulako, Kabupaten Kolaka, Sulawesi Tenggara","Kabupaten Kolaka, Sulawesi Tenggara",SULAWESI TENGGARA,,Indonesia,85756010272.0,,,-4.1067598,121.6722841,https://maps.google.com/?cid=0x0:0xfa5c34a19227015a,
mall,Pusat Perbelanjaan,GMNI Cabang Kolaka,"WJGH+J86, Balandete, Kec. Kolaka, Kabupaten Kolaka, Sulawesi Tenggara 93561","Balandete, Kec. Kolaka, Kabupaten Kolaka",SULAWESI TENGGARA,93561.0,Indonesia,,,,-4.0734584,121.6282523,https://maps.google.com/?cid=0x0:0xb07c60165cfb46b0,
mall,Pusat Perbelanjaan,TANSHOP17,"VMMP+3WR, Unnamed Road, Tikonu, Kec. Wundulako, Kabupaten Kolaka, Sulawesi Tenggara 93561","Unnamed Road, Tikonu, Kec. Wundulako, Kabupaten Kolaka",SULAWESI TENGGARA,93561.0,Indonesia,85756010272.0,,,-4.1172721,121.6872636,https://maps.google.com/?cid=0x0:0xdbac74ba0a355859,
mall,Pusat Perbelanjaan,Pusat belanja,"Jl. Pramuka No.2, Lamokato, Kec. Kolaka, Kabupaten Kolaka, Sulawesi Tenggara 93561","Lamokato, Kec. Kolaka, Kabupaten Kolaka",SULAWESI TENGGARA,93561.0,Indonesia,85222217891.0,,,-4.0574651,121.606125,https://maps.google.com/?cid=0x0:0xf90275aed231ba01,
mall,Kantor Pelayanan Pajak,Mall Pelayanan Publik,"Jl. Mekongga Indah, Lamokato, Kec. Kolaka, Kabupaten Kolaka, Sulawesi Tenggara","Kabupaten Kolaka, Sulawesi Tenggara",SULAWESI TENGGARA,,Indonesia,,,,-4.0602028,121.5994791,https://maps.google.com/?cid=0x0:0x877721b2145fe18c,
mall,Toko,Miniso Kolaka,"WJQ6+XGJ, Laloeha, Kec. Kolaka, Kabupaten Kolaka, Sulawesi Tenggara","Kabupaten Kolaka, Sulawesi Tenggara",SULAWESI TENGGARA,,Indonesia,,,,-4.0600256,121.6112686,https://maps.google.com/?cid=0x0:0x8c9353669abf8700,
mall,Toko Herbal,Halal Mart Ummu Gufron,"Jl. Pemuda Lrg.Lambada No.13, Laloeha, Kec. Kolaka, Kabupaten Kolaka, Sulawesi Tenggara 93561","Laloeha, Kec. Kolaka, Kabupaten Kolaka",SULAWESI TENGGARA,93561.0,Indonesia,85241683413.0,,,-4.064667,121.616714,https://maps.google.com/?cid=0x0:0xbf822d5ca940ed37,
mall,Pasar,Pasar Puundoho,"RMPC+PQ2, Puundoho, Kec. Baula, Kabupaten Kolaka, Sulawesi Tenggara 93562","Puundoho, Kec. Baula, Kabupaten Kolaka",SULAWESI TENGGARA,93562.0,Indonesia,,,,-4.1632346,121.6718895,https://maps.google.com/?cid=0x0:0x6d73721b6c8d9806,
mall,Kios,Kios Ibu,"WJPF+9QV, Balandete, Kec. Kolaka, Kabupaten Kolaka, Sulawesi Tenggara 93561","Balandete, Kec. Kolaka, Kabupaten Kolaka",SULAWESI TENGGARA,93561.0,Indonesia,,,,-4.0640051,121.6244332,https://maps.google.com/?cid=0x0:0x6e40c11e01b83dcd,
mall,Pusat Perbelanjaan,Winda Shop,"Jl. Sunu No.88, Kolakaasi, Kec. Latambaga, Kabupaten Kolaka, Sulawesi Tenggara 93511","Kolakaasi, Kec. Latambaga, Kabupaten Kolaka",SULAWESI TENGGARA,93511.0,Indonesia,82292620060.0,,,-4.0493242,121.5848239,https://maps.google.com/?cid=0x0:0xb33c094f34344d91,
mall,Toko bahan makanan,Wundulako Mart,"Wundulako, Kec. Wundulako, Kabupaten Kolaka, Sulawesi Tenggara 93561","Kec. Wundulako, Kabupaten Kolaka",SULAWESI TENGGARA,93561.0,Indonesia,85242005962.0,,,-4.1090918,121.6764493,https://maps.google.com/?cid=0x0:0x13233e2052a137a4,
mall,Kantor Perusahaan,Pustaka Bengawan Kolaka,"Jl. Pemuda No.79, Lalombaa, Kec. Kolaka, Kabupaten Kolaka, Sulawesi Tenggara 93561","Lalombaa, Kec. Kolaka, Kabupaten Kolaka",SULAWESI TENGGARA,93561.0,Indonesia,,,,-4.0609008,121.614104,https://maps.google.com/?cid=0x0:0x46c6509e97fad7af,
mall,Bengkel Mobil,Rizky Cahaya Motor,"VMPG+6VJ, Jl. Poros Kolaka - Pomalaa, Kowioha, Kec. Wundulako, Kabupaten Kolaka, Sulawesi Tenggara 93561","Jl. Poros Kolaka - Pomalaa, Kowioha, Kec. Wundulako, Kabupaten Kolaka",SULAWESI TENGGARA,93561.0,Indonesia,85299871216.0,,,-4.1144066,121.6771373,https://maps.google.com/?cid=0x0:0x937f2a5ef1ad3d29,
mall,Toko Sepatu,AFIT SHOES,"WJR4+QXC, Jl. Merpati, Laloeha, Kec. Kolaka, Kabupaten Kolaka, Sulawesi Tenggara 93561","Jl. Merpati, Laloeha, Kec. Kolaka, Kabupaten Kolaka",SULAWESI TENGGARA,93561.0,Indonesia,82243936494.0,,,-4.0580728,121.6073988,https://maps.google.com/?cid=0x0:0xb29a7d2494d464ed,
supermarket,supermarket,Baula,"Baula, Kec. Baula, Kabupaten Kolaka, Sulawesi Tenggara","Kabupaten Kolaka, Sulawesi Tenggara",SULAWESI TENGGARA,,Indonesia,,,,-4.156222,121.684402,https://maps.google.com/?cid=0x0:0x848963d15ef49661,
supermarket,Toko bahan makanan,Top Swalayan Kolaka,"Laloeha, Kec. Kolaka, Kabupaten Kolaka, Sulawesi Tenggara 93561","Kec. Kolaka, Kabupaten Kolaka",SULAWESI TENGGARA,93561.0,Indonesia,82347453535.0,,,-4.0603204,121.6112796,https://maps.google.com/?cid=0x0:0xf40e49d7c66c766f,
supermarket,Toko,Toko AA,"RMJV+JRQ, Puulemo, Kec. Baula, Kabupaten Kolaka, Sulawesi Tenggara 93562","Puulemo, Kec. Baula, Kabupaten Kolaka",SULAWESI TENGGARA,93562.0,Indonesia,,,,-4.1684103,121.6946189,https://maps.google.com/?cid=0x0:0xaa2d8412df57ea86,
supermarket,supermarket,"Tehachapi, California 93561","Tehachapi, California, Amerika Serikat","Tehachapi, California, Amerika Serikat",SULAWESI TENGGARA,,Indonesia,,,,35.0776145,-118.4396756,https://maps.google.com/?cid=0x0:0x3495ff78f5eab627,
supermarket,supermarket,Best Western Plus Country Park Hotel,"420 W Tehachapi Blvd, Tehachapi, CA 93561, Amerika Serikat","Tehachapi, CA",SULAWESI TENGGARA,93561.0,Indonesia,16618231800.0,,,35.132292,-118.454773,https://maps.google.com/?cid=0x0:0x5743c28eafd35bd0,
supermarket,supermarket,Sulawesi Tenggara 93511,"Kabupaten Kolaka, Sulawesi Tenggara","Kabupaten Kolaka, Sulawesi Tenggara",SULAWESI TENGGARA,,Indonesia,,,,-4.0197068,121.6169002,https://maps.google.com/?cid=0x0:0x79523aef05ba65b2,
supermarket,Toko bahan makanan,Top Swalayan Kolaka,"Laloeha, Kec. Kolaka, Kabupaten Kolaka, Sulawesi Tenggara 93561","Kec. Kolaka, Kabupaten Kolaka",SULAWESI TENGGARA,93561.0,Indonesia,82347453535.0,,,-4.0603204,121.6112796,https://maps.google.com/?cid=0x0:0xf40e49d7c66c766f,
supermarket,Pusat Perbelanjaan,Alaska Supermarket,"WHVX+4PW, Lamokato, Kec. Kolaka, Kabupaten Kolaka, Sulawesi Tenggara","Kabupaten Kolaka, Sulawesi Tenggara",SULAWESI TENGGARA,,Indonesia,,,,-4.0571371,121.599325,https://maps.google.com/?cid=0x0:0xc0dcc174e4651626,
supermarket,Toko bahan makanan,fresh mart kolaka,"WHVX+VVC, Jl. Khairil Anwar, Lamokato, Kec. Kolaka, Kabupaten Kolaka, Sulawesi Tenggara 93511","Jl. Khairil Anwar, Lamokato, Kec. Kolaka, Kabupaten Kolaka",SULAWESI TENGGARA,93511.0,Indonesia,82337007251.0,,,-4.0553066,121.599639,https://maps.google.com/?cid=0x0:0xba5afadb253a8d0,
supermarket,Toko bahan makanan,Toko Sukses,"Jl. TMD, Laloeha, Kec. Kolaka, Kabupaten Kolaka, Sulawesi Tenggara 93561","Laloeha, Kec. Kolaka, Kabupaten Kolaka",SULAWESI TENGGARA,93561.0,Indonesia,,,,-4.0685199,121.6150086,https://maps.google.com/?cid=0x0:0x8103601d1d84ee95,
supermarket,Toko,Pasar Raya Mekongga Kolaka,"Pasar Raya Mekongga Kolaka No.Blok A, Kabupaten Kolaka, Sulawesi Tenggara 93516",Kabupaten Kolaka,SULAWESI TENGGARA,93516.0,Indonesia,,,,-4.0607109,121.5975059,https://maps.google.com/?cid=0x0:0x57733dc983307d2c,
supermarket,Toko bahan makanan,Toko DELAI,"XH4F+JHW, Kolakaasi, Kec. Latambaga, Kabupaten Kolaka, Sulawesi Tenggara 93511","Kolakaasi, Kec. Latambaga, Kabupaten Kolaka",SULAWESI TENGGARA,93511.0,Indonesia,85394197555.0,,,-4.0433839,121.5739478,https://maps.google.com/?cid=0x0:0x6398327adcf85805,
supermarket,Toko Pakaian,Toko Sandang Murah Sembako,"WHXR+GQP, Latambaga, Kec. Latambaga, Kabupaten Kolaka, Sulawesi Tenggara 93511","Latambaga, Kec. Latambaga, Kabupaten Kolaka",SULAWESI TENGGARA,93511.0,Indonesia,85399886836.0,,,-4.0511524,121.5919644,https://maps.google.com/?cid=0x0:0xd01cda19d5525299,
supermarket,Pasar,Alfayed Swalayan,"P222+QWR, Jl. Poros Lapai - Malili, Beringin, Kec. Ngapa, Kabupaten Kolaka Utara, Sulawesi Tenggara 93958","Jl. Poros Lapai - Malili, Beringin, Kec. Ngapa, Kabupaten Kolaka Utara",SULAWESI TENGGARA,93958.0,Indonesia,,,,-3.298023,121.0022604,https://maps.google.com/?cid=0x0:0xebe72d5e30efbab9,
supermarket,Toko bahan makanan,Toko ZAMZAM2,"WJPC+45H, Jl. Pendidikan, Balandete, Kec. Kolaka, Kabupaten Kolaka, Sulawesi Tenggara 93561","Jl. Pendidikan, Balandete, Kec. Kolaka, Kabupaten Kolaka",SULAWESI TENGGARA,93561.0,Indonesia,,,,-4.0646765,121.6204818,https://maps.google.com/?cid=0x0:0x19d31fd3857d143d,
supermarket,Toko,Alfamidi Pramuka,"Jl. Pramuka No.26, Lamokato, Kec. Kolaka, Kabupaten Kolaka, Sulawesi Tenggara 93511","Lamokato, Kec. Kolaka, Kabupaten Kolaka",SULAWESI TENGGARA,93511.0,Indonesia,,,,-4.0569695,121.6015118,https://maps.google.com/?cid=0x0:0xbef5037c648035a8,
supermarket,Toko Makanan,Balandete Mart,"WJGH+3JM, Jl. Pemuda, Balandete, Kec. Kolaka, Kabupaten Kolaka, Sulawesi Tenggara 93561","Jl. Pemuda, Balandete, Kec. Kolaka, Kabupaten Kolaka",SULAWESI TENGGARA,93561.0,Indonesia,82298142480.0,,,-4.07478,121.6290517,https://maps.google.com/?cid=0x0:0x139fe0a572e48426,
supermarket,Minimarket,Indomaret Khairil Anwar Kolaka,"WHRX+XHQ, Jl. Khairil Anwar, Lamokato, Kec. Kolaka, Kabupaten Kolaka, Sulawesi Tenggara 93511","Jl. Khairil Anwar, Lamokato, Kec. Kolaka, Kabupaten Kolaka",SULAWESI TENGGARA,93511.0,Indonesia,,,,-4.0575295,121.5989737,https://maps.google.com/?cid=0x0:0x69f5044166db2674,
supermarket,Toko Swalayan,Swalayan Bosowa Utama,"P222+W7V, Beringin, Kec. Ngapa, Kabupaten Kolaka Utara, Sulawesi Tenggara 93958","Beringin, Kec. Ngapa, Kabupaten Kolaka Utara",SULAWESI TENGGARA,93958.0,Indonesia,811402294.0,,,-3.2976279,121.000658,https://maps.google.com/?cid=0x0:0x9252ca1d1f619702,
supermarket,supermarket,Kolaka,"Sakuli, Kec. Latambaga, Kabupaten Kolaka, Sulawesi Tenggara","Kabupaten Kolaka, Sulawesi Tenggara",SULAWESI TENGGARA,,Indonesia,,,,-4.0513522,121.5997835,https://maps.google.com/?cid=0x0:0x664cb969301936de,
supermarket,Toserba,Toko Budiman kolaka,"Lamokato, Jl. Usman Rencong, Kec. Kolaka, Sulawesi Tenggara","Kabupaten Kolaka, Sulawesi Tenggara",SULAWESI TENGGARA,,Indonesia,85256166593.0,,,-4.056957,121.603156,https://maps.google.com/?cid=0x0:0x2736dd0f27f4a6df,
supermarket,Pusat Perbelanjaan,Aldo Mart,"Tahoa, Kec. Kolaka, Kabupaten Kolaka, Sulawesi Tenggara 93561","Kec. Kolaka, Kabupaten Kolaka",SULAWESI TENGGARA,93561.0,Indonesia,,,,-4.0736049,121.6257723,https://maps.google.com/?cid=0x0:0xe48b88d992fb250d,
supermarket,Toko,Alfamidi alam mekongga,"WJP6+G79, Kolaka, Sakuli, Kec. Latambaga, Kabupaten Kolaka, Sulawesi Tenggara 93561","Kolaka, Sakuli, Kec. Latambaga, Kabupaten Kolaka",SULAWESI TENGGARA,93561.0,Indonesia,81290110681.0,,,-4.0637171,121.6107345,https://maps.google.com/?cid=0x0:0xfa6a89ad363b3b2c,
supermarket,Toko,Toko Sinar Solo,"Jl. Kadue No.24, Sea, Kec. Latambaga, Kabupaten Kolaka, Sulawesi Tenggara 93511","Sea, Kec. Latambaga, Kabupaten Kolaka",SULAWESI TENGGARA,93511.0,Indonesia,82399129558.0,,,-4.0506084,121.5896663,https://maps.google.com/?cid=0x0:0xb95b3de602462d47,
supermarket,Kios,Toko Karya Subur,"WHVR+XHJ, Jl. Bakti, Latambaga, Kec. Latambaga, Kabupaten Kolaka, Sulawesi Tenggara","Kabupaten Kolaka, Sulawesi Tenggara",SULAWESI TENGGARA,,Indonesia,,,,-4.0550269,121.5913788,https://maps.google.com/?cid=0x0:0xabf06326c09063d8,
supermarket,Sekolah,Tk.Anindya TMD,"WJJ8+P5X, Jl. Pintu Selatan, Laloeha, Kec. Kolaka, Kabupaten Kolaka, Sulawesi Tenggara 93561","Jl. Pintu Selatan, Laloeha, Kec. Kolaka, Kabupaten Kolaka",SULAWESI TENGGARA,93561.0,Indonesia,85340667454.0,,,-4.0681417,121.6154739,https://maps.google.com/?cid=0x0:0x608364a3de5e18b7,
supermarket,Studio Fotografi,TOKO RISKA NAGET,"WJJ9+RRR, Jl. Lorong Mistik, Tahoa, Kec. Kolaka, Kabupaten Kolaka, Sulawesi Tenggara 93561","Jl. Lorong Mistik, Tahoa, Kec. Kolaka, Kabupaten Kolaka",SULAWESI TENGGARA,93561.0,Indonesia,81344449778.0,,,-4.0678944,121.6195191,https://maps.google.com/?cid=0x0:0x38f62b13430de780,
supermarket,Toko Swalayan,ALFAMIDI MEKONGGA INDAH,"WHQX+VWP, Lamokato, Kec. Kolaka, Kabupaten Kolaka, Sulawesi Tenggara","Kabupaten Kolaka, Sulawesi Tenggara",SULAWESI TENGGARA,,Indonesia,,,,-4.0602824,121.5998272,https://maps.google.com/?cid=0x0:0x646d956d2897ff3d,
supermarket,Minimarket,Megamart,"Jl. Pancasila, Sea, Kec. Latambaga, Kabupaten Kolaka, Sulawesi Tenggara 90001","Sea, Kec. Latambaga, Kabupaten Kolaka",SULAWESI TENGGARA,90001.0,Indonesia,81241607688.0,,,-4.0547501,121.5908579,https://maps.google.com/?cid=0x0:0x19829d4ca8815c4a,
supermarket,Toko bahan makanan,Toko Amanah,"WJFQ+H82, Lalombaa, Kec. Kolaka, Kabupaten Kolaka, Sulawesi Tenggara 93561","Lalombaa, Kec. Kolaka, Kabupaten Kolaka",SULAWESI TENGGARA,93561.0,Indonesia,82344891534.0,,,-4.0761201,121.6382774,https://maps.google.com/?cid=0x0:0xed0581d79f2ab76d,
supermarket,Toko Perlengkapan Rumah,Kios barang unik,"WJP6+VCH, Laloeha, Kec. Kolaka, Kabupaten Kolaka, Sulawesi Tenggara 93561","Laloeha, Kec. Kolaka, Kabupaten Kolaka",SULAWESI TENGGARA,93561.0,Indonesia,82349261479.0,,,-4.0628091,121.6111086,https://maps.google.com/?cid=0x0:0x8fb9b68375d1b4a8,
supermarket,supermarket,Sulawesi Tenggara 93515,"Kec. Latambaga, Kabupaten Kolaka, Sulawesi Tenggara","Kabupaten Kolaka, Sulawesi Tenggara",SULAWESI TENGGARA,,Indonesia,,,,-3.9440218,121.6340142,https://maps.google.com/?cid=0x0:0xbcfa53793a9e8ad3,
supermarket,Toko bahan makanan,Top Swalayan Kolaka,"Laloeha, Kec. Kolaka, Kabupaten Kolaka, Sulawesi Tenggara 93561","Kec. Kolaka, Kabupaten Kolaka",SULAWESI TENGGARA,93561.0,Indonesia,82347453535.0,,,-4.0603204,121.6112796,https://maps.google.com/?cid=0x0:0xf40e49d7c66c766f,
supermarket,Pusat Perbelanjaan,Alaska Supermarket,"WHVX+4PW, Lamokato, Kec. Kolaka, Kabupaten Kolaka, Sulawesi Tenggara","Kabupaten Kolaka, Sulawesi Tenggara",SULAWESI TENGGARA,,Indonesia,,,,-4.0571371,121.599325,https://maps.google.com/?cid=0x0:0xc0dcc174e4651626,
supermarket,Pasar,Alfayed Swalayan,"P222+QWR, Jl. Poros Lapai - Malili, Beringin, Kec. Ngapa, Kabupaten Kolaka Utara, Sulawesi Tenggara 93958","Jl. Poros Lapai - Malili, Beringin, Kec. Ngapa, Kabupaten Kolaka Utara",SULAWESI TENGGARA,93958.0,Indonesia,,,,-3.298023,121.0022604,https://maps.google.com/?cid=0x0:0xebe72d5e30efbab9,
supermarket,Toko bahan makanan,Toko Sukses,"Jl. TMD, Laloeha, Kec. Kolaka, Kabupaten Kolaka, Sulawesi Tenggara 93561","Laloeha, Kec. Kolaka, Kabupaten Kolaka",SULAWESI TENGGARA,93561.0,Indonesia,,,,-4.0685199,121.6150086,https://maps.google.com/?cid=0x0:0x8103601d1d84ee95,
supermarket,Toko bahan makanan,Toko DELAI,"XH4F+JHW, Kolakaasi, Kec. Latambaga, Kabupaten Kolaka, Sulawesi Tenggara 93511","Kolakaasi, Kec. Latambaga, Kabupaten Kolaka",SULAWESI TENGGARA,93511.0,Indonesia,85394197555.0,,,-4.0433839,121.5739478,https://maps.google.com/?cid=0x0:0x6398327adcf85805,
supermarket,Toko bahan makanan,fresh mart kolaka,"WHVX+VVC, Jl. Khairil Anwar, Lamokato, Kec. Kolaka, Kabupaten Kolaka, Sulawesi Tenggara 93511","Jl. Khairil Anwar, Lamokato, Kec. Kolaka, Kabupaten Kolaka",SULAWESI TENGGARA,93511.0,Indonesia,82337007251.0,,,-4.0553066,121.599639,https://maps.google.com/?cid=0x0:0xba5afadb253a8d0,
supermarket,Toko Swalayan,Swalayan Bosowa Utama,"P222+W7V, Beringin, Kec. Ngapa, Kabupaten Kolaka Utara, Sulawesi Tenggara 93958","Beringin, Kec. Ngapa, Kabupaten Kolaka Utara",SULAWESI TENGGARA,93958.0,Indonesia,811402294.0,,,-3.2976279,121.000658,https://maps.google.com/?cid=0x0:0x9252ca1d1f619702,
supermarket,Toko bahan makanan,Toko ZAMZAM2,"WJPC+45H, Jl. Pendidikan, Balandete, Kec. Kolaka, Kabupaten Kolaka, Sulawesi Tenggara 93561","Jl. Pendidikan, Balandete, Kec. Kolaka, Kabupaten Kolaka",SULAWESI TENGGARA,93561.0,Indonesia,,,,-4.0646765,121.6204818,https://maps.google.com/?cid=0x0:0x19d31fd3857d143d,
supermarket,Toko Makanan,Balandete Mart,"WJGH+3JM, Jl. Pemuda, Balandete, Kec. Kolaka, Kabupaten Kolaka, Sulawesi Tenggara 93561","Jl. Pemuda, Balandete, Kec. Kolaka, Kabupaten Kolaka",SULAWESI TENGGARA,93561.0,Indonesia,82298142480.0,,,-4.07478,121.6290517,https://maps.google.com/?cid=0x0:0x139fe0a572e48426,
supermarket,Minimarket,Indomaret Khairil Anwar Kolaka,"WHRX+XHQ, Jl. Khairil Anwar, Lamokato, Kec. Kolaka, Kabupaten Kolaka, Sulawesi Tenggara 93511","Jl. Khairil Anwar, Lamokato, Kec. Kolaka, Kabupaten Kolaka",SULAWESI TENGGARA,93511.0,Indonesia,,,,-4.0575295,121.5989737,https://maps.google.com/?cid=0x0:0x69f5044166db2674,
supermarket,supermarket,Swalayan,"WHWV+W6C, Latambaga, Kec. Latambaga, Kabupaten Kolaka, Sulawesi Tenggara 93511","Latambaga, Kec. Latambaga, Kabupaten Kolaka",SULAWESI TENGGARA,93511.0,Indonesia,,,,-4.0526985,121.5930226,https://maps.google.com/?cid=0x0:0xb7962ad47442cfb5,
supermarket,Minimarket,DAENGPUL MART,"QH3J+X44, Jl. Poros Pomalaa-Tanggetada, Hakatutobu, Kec. Pomalaa, Kabupaten Kolaka, Sulawesi Tenggara 93562","Jl. Poros Pomalaa-Tanggetada, Hakatutobu, Kec. Pomalaa, Kabupaten Kolaka",SULAWESI TENGGARA,93562.0,Indonesia,,,,-4.245965,121.5802532,https://maps.google.com/?cid=0x0:0xbeed35b3f0053562,
supermarket,Toko bahan makanan,Toko Al Mairah,"RJF9+8XW, Jl. Poros Kolaka - Pomalaa, Pelambua, Kec. Pomalaa, Kabupaten Kolaka, Sulawesi Tenggara 93562","Jl. Poros Kolaka - Pomalaa, Pelambua, Kec. Pomalaa, Kabupaten Kolaka",SULAWESI TENGGARA,93562.0,Indonesia,81342465209.0,,,-4.1766266,121.6199521,https://maps.google.com/?cid=0x0:0x56c4f3899119f2b,
supermarket,supermarket,Sulawesi Tenggara 93517,"Kabupaten Kolaka, Sulawesi Tenggara","Kabupaten Kolaka, Sulawesi Tenggara",SULAWESI TENGGARA,,Indonesia,,,,-3.963869,121.685341,https://maps.google.com/?cid=0x0:0x1a35f1f1160e7b69,
supermarket,Toko bahan makanan,Top Swalayan Kolaka,"Laloeha, Kec. Kolaka, Kabupaten Kolaka, Sulawesi Tenggara 93561","Kec. Kolaka, Kabupaten Kolaka",SULAWESI TENGGARA,93561.0,Indonesia,82347453535.0,,,-4.0603204,121.6112796,https://maps.google.com/?cid=0x0:0xf40e49d7c66c766f,
supermarket,Pusat Perbelanjaan,Alaska Supermarket,"WHVX+4PW, Lamokato, Kec. Kolaka, Kabupaten Kolaka, Sulawesi Tenggara","Kabupaten Kolaka, Sulawesi Tenggara",SULAWESI TENGGARA,,Indonesia,,,,-4.0571371,121.599325,https://maps.google.com/?cid=0x0:0xc0dcc174e4651626,
supermarket,Pasar,Alfayed Swalayan,"P222+QWR, Jl. Poros Lapai - Malili, Beringin, Kec. Ngapa, Kabupaten Kolaka Utara, Sulawesi Tenggara 93958","Jl. Poros Lapai - Malili, Beringin, Kec. Ngapa, Kabupaten Kolaka Utara",SULAWESI TENGGARA,93958.0,Indonesia,,,,-3.298023,121.0022604,https://maps.google.com/?cid=0x0:0xebe72d5e30efbab9,
supermarket,Toko Swalayan,Swalayan Bosowa Utama,"P222+W7V, Beringin, Kec. Ngapa, Kabupaten Kolaka Utara, Sulawesi Tenggara 93958","Beringin, Kec. Ngapa, Kabupaten Kolaka Utara",SULAWESI TENGGARA,93958.0,Indonesia,811402294.0,,,-3.2976279,121.000658,https://maps.google.com/?cid=0x0:0x9252ca1d1f619702,
supermarket,Toko bahan makanan,fresh mart kolaka,"WHVX+VVC, Jl. Khairil Anwar, Lamokato, Kec. Kolaka, Kabupaten Kolaka, Sulawesi Tenggara 93511","Jl. Khairil Anwar, Lamokato, Kec. Kolaka, Kabupaten Kolaka",SULAWESI TENGGARA,93511.0,Indonesia,82337007251.0,,,-4.0553066,121.599639,https://maps.google.com/?cid=0x0:0xba5afadb253a8d0,
supermarket,Toko,Alfamidi Repelita,"Jl. Repelita No.7, Sea, Kec. Kolaka, Kabupaten Kolaka, Sulawesi Tenggara 93511","Sea, Kec. Kolaka, Kabupaten Kolaka",SULAWESI TENGGARA,93511.0,Indonesia,,,,-4.0521236,121.5922483,https://maps.google.com/?cid=0x0:0xf6327ffab0723770,
supermarket,Toko bahan makanan,Toko ZAMZAM2,"WJPC+45H, Jl. Pendidikan, Balandete, Kec. Kolaka, Kabupaten Kolaka, Sulawesi Tenggara 93561","Jl. Pendidikan, Balandete, Kec. Kolaka, Kabupaten Kolaka",SULAWESI TENGGARA,93561.0,Indonesia,,,,-4.0646765,121.6204818,https://maps.google.com/?cid=0x0:0x19d31fd3857d143d,
supermarket,Toko bahan makanan,Toko DELAI,"XH4F+JHW, Kolakaasi, Kec. Latambaga, Kabupaten Kolaka, Sulawesi Tenggara 93511","Kolakaasi, Kec. Latambaga, Kabupaten Kolaka",SULAWESI TENGGARA,93511.0,Indonesia,85394197555.0,,,-4.0433839,121.5739478,https://maps.google.com/?cid=0x0:0x6398327adcf85805,
supermarket,Toko Makanan,Balandete Mart,"WJGH+3JM, Jl. Pemuda, Balandete, Kec. Kolaka, Kabupaten Kolaka, Sulawesi Tenggara 93561","Jl. Pemuda, Balandete, Kec. Kolaka, Kabupaten Kolaka",SULAWESI TENGGARA,93561.0,Indonesia,82298142480.0,,,-4.07478,121.6290517,https://maps.google.com/?cid=0x0:0x139fe0a572e48426,
supermarket,Toko,Pasar Raya Mekongga Kolaka,"Pasar Raya Mekongga Kolaka No.Blok A, Kabupaten Kolaka, Sulawesi Tenggara 93516",Kabupaten Kolaka,SULAWESI TENGGARA,93516.0,Indonesia,,,,-4.0607109,121.5975059,https://maps.google.com/?cid=0x0:0x57733dc983307d2c,
supermarket,Minimarket,DAENGPUL MART,"QH3J+X44, Jl. Poros Pomalaa-Tanggetada, Hakatutobu, Kec. Pomalaa, Kabupaten Kolaka, Sulawesi Tenggara 93562","Jl. Poros Pomalaa-Tanggetada, Hakatutobu, Kec. Pomalaa, Kabupaten Kolaka",SULAWESI TENGGARA,93562.0,Indonesia,,,,-4.245965,121.5802532,https://maps.google.com/?cid=0x0:0xbeed35b3f0053562,
supermarket,Toko bahan makanan,Toko Al Mairah,"RJF9+8XW, Jl. Poros Kolaka - Pomalaa, Pelambua, Kec. Pomalaa, Kabupaten Kolaka, Sulawesi Tenggara 93562","Jl. Poros Kolaka - Pomalaa, Pelambua, Kec. Pomalaa, Kabupaten Kolaka",SULAWESI TENGGARA,93562.0,Indonesia,81342465209.0,,,-4.1766266,121.6199521,https://maps.google.com/?cid=0x0:0x56c4f3899119f2b,
supermarket,Toko bahan makanan,Toko Amanah,"WJFQ+H82, Lalombaa, Kec. Kolaka, Kabupaten Kolaka, Sulawesi Tenggara 93561","Lalombaa, Kec. Kolaka, Kabupaten Kolaka",SULAWESI TENGGARA,93561.0,Indonesia,82344891534.0,,,-4.0761201,121.6382774,https://maps.google.com/?cid=0x0:0xed0581d79f2ab76d,
supermarket,Toko Pakaian,Toko Sandang Murah Sembako,"WHXR+GQP, Latambaga, Kec. Latambaga, Kabupaten Kolaka, Sulawesi Tenggara 93511","Latambaga, Kec. Latambaga, Kabupaten Kolaka",SULAWESI TENGGARA,93511.0,Indonesia,85399886836.0,,,-4.0511524,121.5919644,https://maps.google.com/?cid=0x0:0xd01cda19d5525299,
supermarket,Toko Bahan Bangunan,"MAXCELL DEPO TEKNIK  BANGUNAN (KOLAKA) | Toko Listrik, Elektronik, Furniture Kolaka","Jl. Pramuka, Lamokato, Kec. Kolaka, Kabupaten Kolaka, Sulawesi Tenggara 93511","Lamokato, Kec. Kolaka, Kabupaten Kolaka",SULAWESI TENGGARA,93511.0,Indonesia,82166638222.0,,,-4.056492,121.5995077,https://maps.google.com/?cid=0x0:0xd15a51807812dfe,
supermarket,Minimarket,Indomaret Khairil Anwar Kolaka,"WHRX+XHQ, Jl. Khairil Anwar, Lamokato, Kec. Kolaka, Kabupaten Kolaka, Sulawesi Tenggara 93511","Jl. Khairil Anwar, Lamokato, Kec. Kolaka, Kabupaten Kolaka",SULAWESI TENGGARA,93511.0,Indonesia,,,,-4.0575295,121.5989737,https://maps.google.com/?cid=0x0:0x69f5044166db2674,
supermarket,Pusat Perbelanjaan,Aldo Mart,"Tahoa, Kec. Kolaka, Kabupaten Kolaka, Sulawesi Tenggara 93561","Kec. Kolaka, Kabupaten Kolaka",SULAWESI TENGGARA,93561.0,Indonesia,,,,-4.0736049,121.6257723,https://maps.google.com/?cid=0x0:0xe48b88d992fb250d,
supermarket,Sekolah,Tk.Anindya TMD,"WJJ8+P5X, Jl. Pintu Selatan, Laloeha, Kec. Kolaka, Kabupaten Kolaka, Sulawesi Tenggara 93561","Jl. Pintu Selatan, Laloeha, Kec. Kolaka, Kabupaten Kolaka",SULAWESI TENGGARA,93561.0,Indonesia,85340667454.0,,,-4.0681417,121.6154739,https://maps.google.com/?cid=0x0:0x608364a3de5e18b7,
supermarket,Toserba,Toko Budiman kolaka,"Lamokato, Jl. Usman Rencong, Kec. Kolaka, Sulawesi Tenggara","Kabupaten Kolaka, Sulawesi Tenggara",SULAWESI TENGGARA,,Indonesia,85256166593.0,,,-4.056957,121.603156,https://maps.google.com/?cid=0x0:0x2736dd0f27f4a6df,
supermarket,Toko,Alfamidi Pramuka,"Jl. Pramuka No.26, Lamokato, Kec. Kolaka, Kabupaten Kolaka, Sulawesi Tenggara 93511","Lamokato, Kec. Kolaka, Kabupaten Kolaka",SULAWESI TENGGARA,93511.0,Indonesia,,,,-4.0569695,121.6015118,https://maps.google.com/?cid=0x0:0xbef5037c648035a8,
supermarket,Toko Pertanian,Tko. Aneka Ternak Kolaka,"Jl. Kadue No.28, Sea, Kec. Latambaga, Kabupaten Kolaka, Sulawesi Tenggara 95661","Sea, Kec. Latambaga, Kabupaten Kolaka",SULAWESI TENGGARA,95661.0,Indonesia,,,,-4.0506205,121.5895981,https://maps.google.com/?cid=0x0:0x6ac5bb6cd8bed243,
supermarket,Pusat Perbelanjaan,Jual beli barang,"Jl. Kamboja, Sea, Kec. Latambaga, Kabupaten Kolaka, Sulawesi Tenggara 93517","Sea, Kec. Latambaga, Kabupaten Kolaka",SULAWESI TENGGARA,93517.0,Indonesia,81524242151.0,,,-4.051364,121.5885922,https://maps.google.com/?cid=0x0:0x5f07bc663573fdfe,
supermarket,Es Krim,Mixue Kolaka,"WJQ6+VFG, Laloeha, Kec. Kolaka, Kabupaten Kolaka, Sulawesi Tenggara 93561","Laloeha, Kec. Kolaka, Kabupaten Kolaka",SULAWESI TENGGARA,93561.0,Indonesia,,,,-4.0603059,121.6112183,https://maps.google.com/?cid=0x0:0x6c46bf5af52e50bd,
supermarket,supermarket,Sulawesi Tenggara 93518,"Kabupaten Kolaka, Sulawesi Tenggara","Kabupaten Kolaka, Sulawesi Tenggara",SULAWESI TENGGARA,,Indonesia,,,,-3.9939793,121.7024448,https://maps.google.com/?cid=0x0:0x6ae8303bcfa882a1,
supermarket,Toko bahan makanan,Top Swalayan Kolaka,"Laloeha, Kec. Kolaka, Kabupaten Kolaka, Sulawesi Tenggara 93561","Kec. Kolaka, Kabupaten Kolaka",SULAWESI TENGGARA,93561.0,Indonesia,82347453535.0,,,-4.0603204,121.6112796,https://maps.google.com/?cid=0x0:0xf40e49d7c66c766f,
supermarket,Pusat Perbelanjaan,Alaska Supermarket,"WHVX+4PW, Lamokato, Kec. Kolaka, Kabupaten Kolaka, Sulawesi Tenggara","Kabupaten Kolaka, Sulawesi Tenggara",SULAWESI TENGGARA,,Indonesia,,,,-4.0571371,121.599325,https://maps.google.com/?cid=0x0:0xc0dcc174e4651626,
supermarket,Toko bahan makanan,Toko Sukses,"Jl. TMD, Laloeha, Kec. Kolaka, Kabupaten Kolaka, Sulawesi Tenggara 93561","Laloeha, Kec. Kolaka, Kabupaten Kolaka",SULAWESI TENGGARA,93561.0,Indonesia,,,,-4.0685199,121.6150086,https://maps.google.com/?cid=0x0:0x8103601d1d84ee95,
supermarket,Toko,Alfamidi alam mekongga,"WJP6+G79, Kolaka, Sakuli, Kec. Latambaga, Kabupaten Kolaka, Sulawesi Tenggara 93561","Kolaka, Sakuli, Kec. Latambaga, Kabupaten Kolaka",SULAWESI TENGGARA,93561.0,Indonesia,81290110681.0,,,-4.0637171,121.6107345,https://maps.google.com/?cid=0x0:0xfa6a89ad363b3b2c,
supermarket,Toko Makanan,Balandete Mart,"WJGH+3JM, Jl. Pemuda, Balandete, Kec. Kolaka, Kabupaten Kolaka, Sulawesi Tenggara 93561","Jl. Pemuda, Balandete, Kec. Kolaka, Kabupaten Kolaka",SULAWESI TENGGARA,93561.0,Indonesia,82298142480.0,,,-4.07478,121.6290517,https://maps.google.com/?cid=0x0:0x139fe0a572e48426,
supermarket,Toko bahan makanan,fresh mart kolaka,"WHVX+VVC, Jl. Khairil Anwar, Lamokato, Kec. Kolaka, Kabupaten Kolaka, Sulawesi Tenggara 93511","Jl. Khairil Anwar, Lamokato, Kec. Kolaka, Kabupaten Kolaka",SULAWESI TENGGARA,93511.0,Indonesia,82337007251.0,,,-4.0553066,121.599639,https://maps.google.com/?cid=0x0:0xba5afadb253a8d0,
supermarket,Toko,Alfamidi Repelita,"Jl. Repelita No.7, Sea, Kec. Kolaka, Kabupaten Kolaka, Sulawesi Tenggara 93511","Sea, Kec. Kolaka, Kabupaten Kolaka",SULAWESI TENGGARA,93511.0,Indonesia,,,,-4.0521236,121.5922483,https://maps.google.com/?cid=0x0:0xf6327ffab0723770,
supermarket,Pasar,Alfayed Swalayan,"P222+QWR, Jl. Poros Lapai - Malili, Beringin, Kec. Ngapa, Kabupaten Kolaka Utara, Sulawesi Tenggara 93958","Jl. Poros Lapai - Malili, Beringin, Kec. Ngapa, Kabupaten Kolaka Utara",SULAWESI TENGGARA,93958.0,Indonesia,,,,-3.298023,121.0022604,https://maps.google.com/?cid=0x0:0xebe72d5e30efbab9,
supermarket,Toko bahan makanan,Toko Reza Sukses,"38CM+243, Tosiba, Kec. Samaturu, Kabupaten Kolaka, Sulawesi Tenggara 93915","Tosiba, Kec. Samaturu, Kabupaten Kolaka",SULAWESI TENGGARA,93915.0,Indonesia,85241649693.0,,,-3.9299977,121.332803,https://maps.google.com/?cid=0x0:0x15aa4e6c186cef43,
supermarket,Kios,Toko Karya Subur,"WHVR+XHJ, Jl. Bakti, Latambaga, Kec. Latambaga, Kabupaten Kolaka, Sulawesi Tenggara","Kabupaten Kolaka, Sulawesi Tenggara",SULAWESI TENGGARA,,Indonesia,,,,-4.0550269,121.5913788,https://maps.google.com/?cid=0x0:0xabf06326c09063d8,
supermarket,Toko bahan makanan,Toko ZAMZAM2,"WJPC+45H, Jl. Pendidikan, Balandete, Kec. Kolaka, Kabupaten Kolaka, Sulawesi Tenggara 93561","Jl. Pendidikan, Balandete, Kec. Kolaka, Kabupaten Kolaka",SULAWESI TENGGARA,93561.0,Indonesia,,,,-4.0646765,121.6204818,https://maps.google.com/?cid=0x0:0x19d31fd3857d143d,
supermarket,Toko,Toko Sinar Solo,"Jl. Kadue No.24, Sea, Kec. Latambaga, Kabupaten Kolaka, Sulawesi Tenggara 93511","Sea, Kec. Latambaga, Kabupaten Kolaka",SULAWESI TENGGARA,93511.0,Indonesia,82399129558.0,,,-4.0506084,121.5896663,https://maps.google.com/?cid=0x0:0xb95b3de602462d47,
supermarket,Toko Swalayan,Swalayan Bosowa Utama,"P222+W7V, Beringin, Kec. Ngapa, Kabupaten Kolaka Utara, Sulawesi Tenggara 93958","Beringin, Kec. Ngapa, Kabupaten Kolaka Utara",SULAWESI TENGGARA,93958.0,Indonesia,811402294.0,,,-3.2976279,121.000658,https://maps.google.com/?cid=0x0:0x9252ca1d1f619702,
supermarket,Toko bahan makanan,Toko Amanah,"WJFQ+H82, Lalombaa, Kec. Kolaka, Kabupaten Kolaka, Sulawesi Tenggara 93561","Lalombaa, Kec. Kolaka, Kabupaten Kolaka",SULAWESI TENGGARA,93561.0,Indonesia,82344891534.0,,,-4.0761201,121.6382774,https://maps.google.com/?cid=0x0:0xed0581d79f2ab76d,
supermarket,Toko Swalayan,ALFAMIDI MEKONGGA INDAH,"WHQX+VWP, Lamokato, Kec. Kolaka, Kabupaten Kolaka, Sulawesi Tenggara","Kabupaten Kolaka, Sulawesi Tenggara",SULAWESI TENGGARA,,Indonesia,,,,-4.0602824,121.5998272,https://maps.google.com/?cid=0x0:0x646d956d2897ff3d,
supermarket,Toko bahan makanan,Toko DELAI,"XH4F+JHW, Kolakaasi, Kec. Latambaga, Kabupaten Kolaka, Sulawesi Tenggara 93511","Kolakaasi, Kec. Latambaga, Kabupaten Kolaka",SULAWESI TENGGARA,93511.0,Indonesia,85394197555.0,,,-4.0433839,121.5739478,https://maps.google.com/?cid=0x0:0x6398327adcf85805,
supermarket,Minimarket,Indomaret Khairil Anwar Kolaka,"WHRX+XHQ, Jl. Khairil Anwar, Lamokato, Kec. Kolaka, Kabupaten Kolaka, Sulawesi Tenggara 93511","Jl. Khairil Anwar, Lamokato, Kec. Kolaka, Kabupaten Kolaka",SULAWESI TENGGARA,93511.0,Indonesia,,,,-4.0575295,121.5989737,https://maps.google.com/?cid=0x0:0x69f5044166db2674,
supermarket,Pusat Perbelanjaan,Toko Telle Indah,"JW8C+XRG, Delang-Delang, Kec. Kodeoha, Kabupaten Kolaka Utara, Sulawesi Tenggara 93957","Delang-Delang, Kec. Kodeoha, Kabupaten Kolaka Utara",SULAWESI TENGGARA,93957.0,Indonesia,82292030863.0,,,-3.3825711,120.9220857,https://maps.google.com/?cid=0x0:0x69c0d751ca089c5,
supermarket,Minimarket,Megamart,"Jl. Pancasila, Sea, Kec. Latambaga, Kabupaten Kolaka, Sulawesi Tenggara 90001","Sea, Kec. Latambaga, Kabupaten Kolaka",SULAWESI TENGGARA,90001.0,Indonesia,81241607688.0,,,-4.0547501,121.5908579,https://maps.google.com/?cid=0x0:0x19829d4ca8815c4a,
supermarket,Toko,Toko Iluh,"Jl. Konggoasa, Dawi-Dawi, Kec. Pomalaa, Kabupaten Kolaka, Sulawesi Tenggara 93562","Dawi-Dawi, Kec. Pomalaa, Kabupaten Kolaka",SULAWESI TENGGARA,93562.0,Indonesia,81527979260.0,,,-4.1739243,121.6141871,https://maps.google.com/?cid=0x0:0x472a0fa5f3c05601,
supermarket,Toko Pakaian,Toko Sandang Murah Sembako,"WHXR+GQP, Latambaga, Kec. Latambaga, Kabupaten Kolaka, Sulawesi Tenggara 93511","Latambaga, Kec. Latambaga, Kabupaten Kolaka",SULAWESI TENGGARA,93511.0,Indonesia,85399886836.0,,,-4.0511524,121.5919644,https://maps.google.com/?cid=0x0:0xd01cda19d5525299,
supermarket,Toko,Pasar Raya Mekongga Kolaka,"Pasar Raya Mekongga Kolaka No.Blok A, Kabupaten Kolaka, Sulawesi Tenggara 93516",Kabupaten Kolaka,SULAWESI TENGGARA,93516.0,Indonesia,,,,-4.0607109,121.5975059,https://maps.google.com/?cid=0x0:0x57733dc983307d2c,
supermarket,Toko,Alfamidi Pramuka,"Jl. Pramuka No.26, Lamokato, Kec. Kolaka, Kabupaten Kolaka, Sulawesi Tenggara 93511","Lamokato, Kec. Kolaka, Kabupaten Kolaka",SULAWESI TENGGARA,93511.0,Indonesia,,,,-4.0569695,121.6015118,https://maps.google.com/?cid=0x0:0xbef5037c648035a8,
supermarket,supermarket,Sulawesi Tenggara 93519,"Kabupaten Kolaka, Sulawesi Tenggara","Kabupaten Kolaka, Sulawesi Tenggara",SULAWESI TENGGARA,,Indonesia,,,,-4.0106276,121.7252457,https://maps.google.com/?cid=0x0:0xc434fc2cf93926ea,
supermarket,Toko bahan makanan,Top Swalayan Kolaka,"Laloeha, Kec. Kolaka, Kabupaten Kolaka, Sulawesi Tenggara 93561","Kec. Kolaka, Kabupaten Kolaka",SULAWESI TENGGARA,93561.0,Indonesia,82347453535.0,,,-4.0603204,121.6112796,https://maps.google.com/?cid=0x0:0xf40e49d7c66c766f,
supermarket,Pusat Perbelanjaan,Alaska Supermarket,"WHVX+4PW, Lamokato, Kec. Kolaka, Kabupaten Kolaka, Sulawesi Tenggara","Kabupaten Kolaka, Sulawesi Tenggara",SULAWESI TENGGARA,,Indonesia,,,,-4.0571371,121.599325,https://maps.google.com/?cid=0x0:0xc0dcc174e4651626,
supermarket,Toko Swalayan,Swalayan Bosowa Utama,"P222+W7V, Beringin, Kec. Ngapa, Kabupaten Kolaka Utara, Sulawesi Tenggara 93958","Beringin, Kec. Ngapa, Kabupaten Kolaka Utara",SULAWESI TENGGARA,93958.0,Indonesia,811402294.0,,,-3.2976279,121.000658,https://maps.google.com/?cid=0x0:0x9252ca1d1f619702,
supermarket,Toko,Alfamidi Repelita,"Jl. Repelita No.7, Sea, Kec. Kolaka, Kabupaten Kolaka, Sulawesi Tenggara 93511","Sea, Kec. Kolaka, Kabupaten Kolaka",SULAWESI TENGGARA,93511.0,Indonesia,,,,-4.0521236,121.5922483,https://maps.google.com/?cid=0x0:0xf6327ffab0723770,
supermarket,Toko Makanan,Balandete Mart,"WJGH+3JM, Jl. Pemuda, Balandete, Kec. Kolaka, Kabupaten Kolaka, Sulawesi Tenggara 93561","Jl. Pemuda, Balandete, Kec. Kolaka, Kabupaten Kolaka",SULAWESI TENGGARA,93561.0,Indonesia,82298142480.0,,,-4.07478,121.6290517,https://maps.google.com/?cid=0x0:0x139fe0a572e48426,
supermarket,Pasar,Alfayed Swalayan,"P222+QWR, Jl. Poros Lapai - Malili, Beringin, Kec. Ngapa, Kabupaten Kolaka Utara, Sulawesi Tenggara 93958","Jl. Poros Lapai - Malili, Beringin, Kec. Ngapa, Kabupaten Kolaka Utara",SULAWESI TENGGARA,93958.0,Indonesia,,,,-3.298023,121.0022604,https://maps.google.com/?cid=0x0:0xebe72d5e30efbab9,
supermarket,Toko bahan makanan,fresh mart kolaka,"WHVX+VVC, Jl. Khairil Anwar, Lamokato, Kec. Kolaka, Kabupaten Kolaka, Sulawesi Tenggara 93511","Jl. Khairil Anwar, Lamokato, Kec. Kolaka, Kabupaten Kolaka",SULAWESI TENGGARA,93511.0,Indonesia,82337007251.0,,,-4.0553066,121.599639,https://maps.google.com/?cid=0x0:0xba5afadb253a8d0,
supermarket,Toko bahan makanan,Toko ZAMZAM2,"WJPC+45H, Jl. Pendidikan, Balandete, Kec. Kolaka, Kabupaten Kolaka, Sulawesi Tenggara 93561","Jl. Pendidikan, Balandete, Kec. Kolaka, Kabupaten Kolaka",SULAWESI TENGGARA,93561.0,Indonesia,,,,-4.0646765,121.6204818,https://maps.google.com/?cid=0x0:0x19d31fd3857d143d,
supermarket,Toko bahan makanan,Toko Amanah,"WJFQ+H82, Lalombaa, Kec. Kolaka, Kabupaten Kolaka, Sulawesi Tenggara 93561","Lalombaa, Kec. Kolaka, Kabupaten Kolaka",SULAWESI TENGGARA,93561.0,Indonesia,82344891534.0,,,-4.0761201,121.6382774,https://maps.google.com/?cid=0x0:0xed0581d79f2ab76d,
supermarket,Toko bahan makanan,Toko DELAI,"XH4F+JHW, Kolakaasi, Kec. Latambaga, Kabupaten Kolaka, Sulawesi Tenggara 93511","Kolakaasi, Kec. Latambaga, Kabupaten Kolaka",SULAWESI TENGGARA,93511.0,Indonesia,85394197555.0,,,-4.0433839,121.5739478,https://maps.google.com/?cid=0x0:0x6398327adcf85805,
supermarket,supermarket,Kios Indah,"2P8W+VFW, Watupute, Mowewe, Kabupaten Kolaka Timur, Sulawesi Tenggara 93519","Watupute, Mowewe, Kabupaten Kolaka Timur",SULAWESI TENGGARA,93519.0,Indonesia,,,,-3.9827646,121.7462069,https://maps.google.com/?cid=0x0:0x96a553c86d8820d,
supermarket,Pusat Perbelanjaan,Aldo Mart,"Tahoa, Kec. Kolaka, Kabupaten Kolaka, Sulawesi Tenggara 93561","Kec. Kolaka, Kabupaten Kolaka",SULAWESI TENGGARA,93561.0,Indonesia,,,,-4.0736049,121.6257723,https://maps.google.com/?cid=0x0:0xe48b88d992fb250d,
supermarket,supermarket,Sulawesi Tenggara 93512,"Kabupaten Kolaka, Sulawesi Tenggara","Kabupaten Kolaka, Sulawesi Tenggara",SULAWESI TENGGARA,,Indonesia,,,,-3.9334506,121.57125,https://maps.google.com/?cid=0x0:0x895fb3c283b233f5,
supermarket,Toko bahan makanan,Top Swalayan Kolaka,"Laloeha, Kec. Kolaka, Kabupaten Kolaka, Sulawesi Tenggara 93561","Kec. Kolaka, Kabupaten Kolaka",SULAWESI TENGGARA,93561.0,Indonesia,82347453535.0,,,-4.0603204,121.6112796,https://maps.google.com/?cid=0x0:0xf40e49d7c66c766f,
supermarket,Pusat Perbelanjaan,Alaska Supermarket,"WHVX+4PW, Lamokato, Kec. Kolaka, Kabupaten Kolaka, Sulawesi Tenggara","Kabupaten Kolaka, Sulawesi Tenggara",SULAWESI TENGGARA,,Indonesia,,,,-4.0571371,121.599325,https://maps.google.com/?cid=0x0:0xc0dcc174e4651626,
supermarket,Toko bahan makanan,Alif Tahan,"Mattirowalie, Induha, Kec. Latambaga, Kabupaten Kolaka, Sulawesi Tenggara 93512","Induha, Kec. Latambaga, Kabupaten Kolaka",SULAWESI TENGGARA,93512.0,Indonesia,85242198763.0,,,-3.9353699,121.5255815,https://maps.google.com/?cid=0x0:0x71fe9acf2868fdd9,
supermarket,Pusat Perbelanjaan,Aldo Mart,"Tahoa, Kec. Kolaka, Kabupaten Kolaka, Sulawesi Tenggara 93561","Kec. Kolaka, Kabupaten Kolaka",SULAWESI TENGGARA,93561.0,Indonesia,,,,-4.0736049,121.6257723,https://maps.google.com/?cid=0x0:0xe48b88d992fb250d,
supermarket,Toko bahan makanan,Toko DELAI,"XH4F+JHW, Kolakaasi, Kec. Latambaga, Kabupaten Kolaka, Sulawesi Tenggara 93511","Kolakaasi, Kec. Latambaga, Kabupaten Kolaka",SULAWESI TENGGARA,93511.0,Indonesia,85394197555.0,,,-4.0433839,121.5739478,https://maps.google.com/?cid=0x0:0x6398327adcf85805,
supermarket,Toko,Toko Sinar Solo,"Jl. Kadue No.24, Sea, Kec. Latambaga, Kabupaten Kolaka, Sulawesi Tenggara 93511","Sea, Kec. Latambaga, Kabupaten Kolaka",SULAWESI TENGGARA,93511.0,Indonesia,82399129558.0,,,-4.0506084,121.5896663,https://maps.google.com/?cid=0x0:0xb95b3de602462d47,
supermarket,Toko,Alfamidi alam mekongga,"WJP6+G79, Kolaka, Sakuli, Kec. Latambaga, Kabupaten Kolaka, Sulawesi Tenggara 93561","Kolaka, Sakuli, Kec. Latambaga, Kabupaten Kolaka",SULAWESI TENGGARA,93561.0,Indonesia,81290110681.0,,,-4.0637171,121.6107345,https://maps.google.com/?cid=0x0:0xfa6a89ad363b3b2c,
supermarket,Toko bahan makanan,MEGA MART,"XGFW+43Q, Mangolo, Kec. Latambaga, Kabupaten Kolaka, Sulawesi Tenggara 93514","Mangolo, Kec. Latambaga, Kabupaten Kolaka",SULAWESI TENGGARA,93514.0,Indonesia,,,,-4.0271554,121.5452317,https://maps.google.com/?cid=0x0:0xcc3b93f88d1772a3,
supermarket,Minimarket,Megamart,"Jl. Pancasila, Sea, Kec. Latambaga, Kabupaten Kolaka, Sulawesi Tenggara 90001","Sea, Kec. Latambaga, Kabupaten Kolaka",SULAWESI TENGGARA,90001.0,Indonesia,81241607688.0,,,-4.0547501,121.5908579,https://maps.google.com/?cid=0x0:0x19829d4ca8815c4a,
supermarket,Toko bahan makanan,fresh mart kolaka,"WHVX+VVC, Jl. Khairil Anwar, Lamokato, Kec. Kolaka, Kabupaten Kolaka, Sulawesi Tenggara 93511","Jl. Khairil Anwar, Lamokato, Kec. Kolaka, Kabupaten Kolaka",SULAWESI TENGGARA,93511.0,Indonesia,82337007251.0,,,-4.0553066,121.599639,https://maps.google.com/?cid=0x0:0xba5afadb253a8d0,
supermarket,Toko Pakaian,Toko Sandang Murah Sembako,"WHXR+GQP, Latambaga, Kec. Latambaga, Kabupaten Kolaka, Sulawesi Tenggara 93511","Latambaga, Kec. Latambaga, Kabupaten Kolaka",SULAWESI TENGGARA,93511.0,Indonesia,85399886836.0,,,-4.0511524,121.5919644,https://maps.google.com/?cid=0x0:0xd01cda19d5525299,
supermarket,Toko bahan makanan,Toko Sukses,"Jl. TMD, Laloeha, Kec. Kolaka, Kabupaten Kolaka, Sulawesi Tenggara 93561","Laloeha, Kec. Kolaka, Kabupaten Kolaka",SULAWESI TENGGARA,93561.0,Indonesia,,,,-4.0685199,121.6150086,https://maps.google.com/?cid=0x0:0x8103601d1d84ee95,
supermarket,Toko,Alfamidi Repelita,"Jl. Repelita No.7, Sea, Kec. Kolaka, Kabupaten Kolaka, Sulawesi Tenggara 93511","Sea, Kec. Kolaka, Kabupaten Kolaka",SULAWESI TENGGARA,93511.0,Indonesia,,,,-4.0521236,121.5922483,https://maps.google.com/?cid=0x0:0xf6327ffab0723770,
supermarket,Toko bahan makanan,Toko ZAMZAM2,"WJPC+45H, Jl. Pendidikan, Balandete, Kec. Kolaka, Kabupaten Kolaka, Sulawesi Tenggara 93561","Jl. Pendidikan, Balandete, Kec. Kolaka, Kabupaten Kolaka",SULAWESI TENGGARA,93561.0,Indonesia,,,,-4.0646765,121.6204818,https://maps.google.com/?cid=0x0:0x19d31fd3857d143d,
supermarket,Studio Fotografi,TOKO RISKA NAGET,"WJJ9+RRR, Jl. Lorong Mistik, Tahoa, Kec. Kolaka, Kabupaten Kolaka, Sulawesi Tenggara 93561","Jl. Lorong Mistik, Tahoa, Kec. Kolaka, Kabupaten Kolaka",SULAWESI TENGGARA,93561.0,Indonesia,81344449778.0,,,-4.0678944,121.6195191,https://maps.google.com/?cid=0x0:0x38f62b13430de780,
supermarket,Sekolah,Tk.Anindya TMD,"WJJ8+P5X, Jl. Pintu Selatan, Laloeha, Kec. Kolaka, Kabupaten Kolaka, Sulawesi Tenggara 93561","Jl. Pintu Selatan, Laloeha, Kec. Kolaka, Kabupaten Kolaka",SULAWESI TENGGARA,93561.0,Indonesia,85340667454.0,,,-4.0681417,121.6154739,https://maps.google.com/?cid=0x0:0x608364a3de5e18b7,
supermarket,Toko Makanan,Balandete Mart,"WJGH+3JM, Jl. Pemuda, Balandete, Kec. Kolaka, Kabupaten Kolaka, Sulawesi Tenggara 93561","Jl. Pemuda, Balandete, Kec. Kolaka, Kabupaten Kolaka",SULAWESI TENGGARA,93561.0,Indonesia,82298142480.0,,,-4.07478,121.6290517,https://maps.google.com/?cid=0x0:0x139fe0a572e48426,
supermarket,Minimarket,Dosimart Mangolo,"Jl. Poros Kolaka - Wolo, Mangolo, Kec. Latambaga, Kabupaten Kolaka, Sulawesi Tenggara 93561","Mangolo, Kec. Latambaga, Kabupaten Kolaka",SULAWESI TENGGARA,93561.0,Indonesia,,,,-4.0276189,121.549157,https://maps.google.com/?cid=0x0:0x971906774a94e7e4,
supermarket,Minimarket,DAENGPUL MART,"QH3J+X44, Jl. Poros Pomalaa-Tanggetada, Hakatutobu, Kec. Pomalaa, Kabupaten Kolaka, Sulawesi Tenggara 93562","Jl. Poros Pomalaa-Tanggetada, Hakatutobu, Kec. Pomalaa, Kabupaten Kolaka",SULAWESI TENGGARA,93562.0,Indonesia,,,,-4.245965,121.5802532,https://maps.google.com/?cid=0x0:0xbeed35b3f0053562,
supermarket,supermarket,RUMAH MAKAN LOMPO BATTANG,"Jl. Bakti No.20, Latambaga, Kec. Latambaga, Kabupaten Kolaka, Sulawesi Tenggara 93514","Latambaga, Kec. Latambaga, Kabupaten Kolaka",SULAWESI TENGGARA,93514.0,Indonesia,,,,-4.0550282,121.5916573,https://maps.google.com/?cid=0x0:0x5c9e1852d2279e63,
supermarket,Toko Swalayan,Yumnaa Mart,"Jl. Pemuda, Laloeha, Kec. Kolaka, Kabupaten Kolaka, Sulawesi Tenggara 93561","Laloeha, Kec. Kolaka, Kabupaten Kolaka",SULAWESI TENGGARA,93561.0,Indonesia,81355632662.0,,,-4.0584723,121.6089551,https://maps.google.com/?cid=0x0:0x7f256ac7fcc21662,
supermarket,Minimarket,ANNISA,"WHXQ+977, Jl. Taman Laut, Sea, Kec. Latambaga, Kabupaten Kolaka, Sulawesi Tenggara","Kabupaten Kolaka, Sulawesi Tenggara",SULAWESI TENGGARA,,Indonesia,,,,-4.0515788,121.5881776,https://maps.google.com/?cid=0x0:0xc8aa310c01443d16,
supermarket,Toko Swalayan,Alfamidi Kolakaasi,"Jl. Abadi No.130, Kolakaasi, Kec. Latambaga, Kabupaten Kolaka, Sulawesi Tenggara 93511","Kolakaasi, Kec. Latambaga, Kabupaten Kolaka",SULAWESI TENGGARA,93511.0,Indonesia,,,,-4.0468786,121.5831791,https://maps.google.com/?cid=0x0:0xdb1cf1e0c242d8da,
supermarket,Toko Swalayan,BOMART,"WHXR+64G, Jl. Repelita, Sea, Kec. Latambaga, Kabupaten Kolaka, Sulawesi Tenggara 93513","Jl. Repelita, Sea, Kec. Latambaga, Kabupaten Kolaka",SULAWESI TENGGARA,93513.0,Indonesia,82344353535.0,,,-4.0519385,121.5903305,https://maps.google.com/?cid=0x0:0x3cb09b1397518075,
supermarket,,SB. MOTOR,"Jl. Repelita No.38, Sea, Kec. Latambaga, Kabupaten Kolaka, Sulawesi Tenggara 93511","Sea, Kec. Latambaga, Kabupaten Kolaka",SULAWESI TENGGARA,93511.0,Indonesia,4052321670.0,,,-4.0518766,121.5911635,https://maps.google.com/?cid=0x0:0x5ab458de2504ef41,
supermarket,Toko Swalayan,Toko Satu Satu Kolaka,"WHVR+Q53, Sea, Kec. Latambaga, Kabupaten Kolaka, Sulawesi Tenggara","Kabupaten Kolaka, Sulawesi Tenggara",SULAWESI TENGGARA,,Indonesia,82296295901.0,,,-4.0556003,121.5904075,https://maps.google.com/?cid=0x0:0xecad8d3db77ec306,
supermarket,supermarket,Sulawesi Tenggara 93514,"Kec. Latambaga, Kabupaten Kolaka, Sulawesi Tenggara","Kabupaten Kolaka, Sulawesi Tenggara",SULAWESI TENGGARA,,Indonesia,,,,-3.9910173,121.5655424,https://maps.google.com/?cid=0x0:0x84f71568a92688d2,
supermarket,Toko bahan makanan,Top Swalayan Kolaka,"Laloeha, Kec. Kolaka, Kabupaten Kolaka, Sulawesi Tenggara 93561","Kec. Kolaka, Kabupaten Kolaka",SULAWESI TENGGARA,93561.0,Indonesia,82347453535.0,,,-4.0603204,121.6112796,https://maps.google.com/?cid=0x0:0xf40e49d7c66c766f,
supermarket,Pusat Perbelanjaan,Alaska Supermarket,"WHVX+4PW, Lamokato, Kec. Kolaka, Kabupaten Kolaka, Sulawesi Tenggara","Kabupaten Kolaka, Sulawesi Tenggara",SULAWESI TENGGARA,,Indonesia,,,,-4.0571371,121.599325,https://maps.google.com/?cid=0x0:0xc0dcc174e4651626,
supermarket,Toko bahan makanan,Toko DELAI,"XH4F+JHW, Kolakaasi, Kec. Latambaga, Kabupaten Kolaka, Sulawesi Tenggara 93511","Kolakaasi, Kec. Latambaga, Kabupaten Kolaka",SULAWESI TENGGARA,93511.0,Indonesia,85394197555.0,,,-4.0433839,121.5739478,https://maps.google.com/?cid=0x0:0x6398327adcf85805,
supermarket,Toko,Toko Sinar Solo,"Jl. Kadue No.24, Sea, Kec. Latambaga, Kabupaten Kolaka, Sulawesi Tenggara 93511","Sea, Kec. Latambaga, Kabupaten Kolaka",SULAWESI TENGGARA,93511.0,Indonesia,82399129558.0,,,-4.0506084,121.5896663,https://maps.google.com/?cid=0x0:0xb95b3de602462d47,
supermarket,Toko bahan makanan,MEGA MART,"XGFW+43Q, Mangolo, Kec. Latambaga, Kabupaten Kolaka, Sulawesi Tenggara 93514","Mangolo, Kec. Latambaga, Kabupaten Kolaka",SULAWESI TENGGARA,93514.0,Indonesia,,,,-4.0271554,121.5452317,https://maps.google.com/?cid=0x0:0xcc3b93f88d1772a3,
supermarket,Pusat Perbelanjaan,Aldo Mart,"Tahoa, Kec. Kolaka, Kabupaten Kolaka, Sulawesi Tenggara 93561","Kec. Kolaka, Kabupaten Kolaka",SULAWESI TENGGARA,93561.0,Indonesia,,,,-4.0736049,121.6257723,https://maps.google.com/?cid=0x0:0xe48b88d992fb250d,
supermarket,Minimarket,Megamart,"Jl. Pancasila, Sea, Kec. Latambaga, Kabupaten Kolaka, Sulawesi Tenggara 90001","Sea, Kec. Latambaga, Kabupaten Kolaka",SULAWESI TENGGARA,90001.0,Indonesia,81241607688.0,,,-4.0547501,121.5908579,https://maps.google.com/?cid=0x0:0x19829d4ca8815c4a,
supermarket,Toko,Alfamidi alam mekongga,"WJP6+G79, Kolaka, Sakuli, Kec. Latambaga, Kabupaten Kolaka, Sulawesi Tenggara 93561","Kolaka, Sakuli, Kec. Latambaga, Kabupaten Kolaka",SULAWESI TENGGARA,93561.0,Indonesia,81290110681.0,,,-4.0637171,121.6107345,https://maps.google.com/?cid=0x0:0xfa6a89ad363b3b2c,
supermarket,Toko,Alfamidi Repelita,"Jl. Repelita No.7, Sea, Kec. Kolaka, Kabupaten Kolaka, Sulawesi Tenggara 93511","Sea, Kec. Kolaka, Kabupaten Kolaka",SULAWESI TENGGARA,93511.0,Indonesia,,,,-4.0521236,121.5922483,https://maps.google.com/?cid=0x0:0xf6327ffab0723770,
supermarket,Toko Pakaian,Toko Sandang Murah Sembako,"WHXR+GQP, Latambaga, Kec. Latambaga, Kabupaten Kolaka, Sulawesi Tenggara 93511","Latambaga, Kec. Latambaga, Kabupaten Kolaka",SULAWESI TENGGARA,93511.0,Indonesia,85399886836.0,,,-4.0511524,121.5919644,https://maps.google.com/?cid=0x0:0xd01cda19d5525299,
supermarket,Toko bahan makanan,fresh mart kolaka,"WHVX+VVC, Jl. Khairil Anwar, Lamokato, Kec. Kolaka, Kabupaten Kolaka, Sulawesi Tenggara 93511","Jl. Khairil Anwar, Lamokato, Kec. Kolaka, Kabupaten Kolaka",SULAWESI TENGGARA,93511.0,Indonesia,82337007251.0,,,-4.0553066,121.599639,https://maps.google.com/?cid=0x0:0xba5afadb253a8d0,
supermarket,Grosir Perlengkapan Rumah Tangga,Toko 79 Alat Rumah Tangga  Games Voucher,"Jl. Kadue No.mor 79, Sea, Kec. Latambaga, Kabupaten Kolaka, Sulawesi Tenggara 93514","Sea, Kec. Latambaga, Kabupaten Kolaka",SULAWESI TENGGARA,93514.0,Indonesia,82290612217.0,,,-4.0511509,121.5905636,https://maps.google.com/?cid=0x0:0x27fbe1eec298de41,
supermarket,Toko Swalayan,BOMART,"WHXR+64G, Jl. Repelita, Sea, Kec. Latambaga, Kabupaten Kolaka, Sulawesi Tenggara 93513","Jl. Repelita, Sea, Kec. Latambaga, Kabupaten Kolaka",SULAWESI TENGGARA,93513.0,Indonesia,82344353535.0,,,-4.0519385,121.5903305,https://maps.google.com/?cid=0x0:0x3cb09b1397518075,
supermarket,Toko bahan makanan,Alif Tahan,"Mattirowalie, Induha, Kec. Latambaga, Kabupaten Kolaka, Sulawesi Tenggara 93512","Induha, Kec. Latambaga, Kabupaten Kolaka",SULAWESI TENGGARA,93512.0,Indonesia,85242198763.0,,,-3.9353699,121.5255815,https://maps.google.com/?cid=0x0:0x71fe9acf2868fdd9,
supermarket,supermarket,Swalayan,"WHWV+W6C, Latambaga, Kec. Latambaga, Kabupaten Kolaka, Sulawesi Tenggara 93511","Latambaga, Kec. Latambaga, Kabupaten Kolaka",SULAWESI TENGGARA,93511.0,Indonesia,,,,-4.0526985,121.5930226,https://maps.google.com/?cid=0x0:0xb7962ad47442cfb5,
supermarket,supermarket,Kec. Latambaga,"Kabupaten Kolaka, Sulawesi Tenggara","Kabupaten Kolaka, Sulawesi Tenggara",SULAWESI TENGGARA,,Indonesia,,,,-4.0305858,121.5497089,https://maps.google.com/?cid=0x0:0x3e61936cf832f4df,
supermarket,supermarket,RUMAH MAKAN LOMPO BATTANG,"Jl. Bakti No.20, Latambaga, Kec. Latambaga, Kabupaten Kolaka, Sulawesi Tenggara 93514","Latambaga, Kec. Latambaga, Kabupaten Kolaka",SULAWESI TENGGARA,93514.0,Indonesia,,,,-4.0550282,121.5916573,https://maps.google.com/?cid=0x0:0x5c9e1852d2279e63,
supermarket,Toko Swalayan,Toko Satu Satu Kolaka,"WHVR+Q53, Sea, Kec. Latambaga, Kabupaten Kolaka, Sulawesi Tenggara","Kabupaten Kolaka, Sulawesi Tenggara",SULAWESI TENGGARA,,Indonesia,82296295901.0,,,-4.0556003,121.5904075,https://maps.google.com/?cid=0x0:0xecad8d3db77ec306,
supermarket,Minimarket,Indomaret Abadi - Kolaka,"XH3G+XWJ, Jl. Abadi, Kolakaasi, Kec. Latambaga, Kabupaten Kolaka, Sulawesi Tenggara 93511","Jl. Abadi, Kolakaasi, Kec. Latambaga, Kabupaten Kolaka",SULAWESI TENGGARA,93511.0,Indonesia,82187682062.0,,,-4.045028,121.5772592,https://maps.google.com/?cid=0x0:0x7d02dc8227c67e0b,
supermarket,Toko Swalayan,Alfamidi Kolakaasi,"Jl. Abadi No.130, Kolakaasi, Kec. Latambaga, Kabupaten Kolaka, Sulawesi Tenggara 93511","Kolakaasi, Kec. Latambaga, Kabupaten Kolaka",SULAWESI TENGGARA,93511.0,Indonesia,,,,-4.0468786,121.5831791,https://maps.google.com/?cid=0x0:0xdb1cf1e0c242d8da,
supermarket,Toko Swalayan,Yumnaa Mart,"Jl. Pemuda, Laloeha, Kec. Kolaka, Kabupaten Kolaka, Sulawesi Tenggara 93561","Laloeha, Kec. Kolaka, Kabupaten Kolaka",SULAWESI TENGGARA,93561.0,Indonesia,81355632662.0,,,-4.0584723,121.6089551,https://maps.google.com/?cid=0x0:0x7f256ac7fcc21662,
supermarket,Pusat Perbelanjaan,TOKO ARISKA (SEMBAKO),"Kolakaasi, Kec. Latambaga, Kabupaten Kolaka, Sulawesi Tenggara 93511","Kec. Latambaga, Kabupaten Kolaka",SULAWESI TENGGARA,93511.0,Indonesia,85282068.0,,,-4.0477779,121.5835543,https://maps.google.com/?cid=0x0:0x90f1de0faeb6e607,
supermarket,Minimarket,ANNISA,"WHXQ+977, Jl. Taman Laut, Sea, Kec. Latambaga, Kabupaten Kolaka, Sulawesi Tenggara","Kabupaten Kolaka, Sulawesi Tenggara",SULAWESI TENGGARA,,Indonesia,,,,-4.0515788,121.5881776,https://maps.google.com/?cid=0x0:0xc8aa310c01443d16,
supermarket,supermarket,KS ARHAM B,"2H67+H4R, Ulunggolaka, Kec. Latambaga, Kabupaten Kolaka, Sulawesi Tenggara","Kabupaten Kolaka, Sulawesi Tenggara",SULAWESI TENGGARA,,Indonesia,,,,-3.988511,121.5627524,https://maps.google.com/?cid=0x0:0x9df4b0d8e442a7c4,
supermarket,supermarket,Kec. Polinggona,"Kabupaten Kolaka, Sulawesi Tenggara","Kabupaten Kolaka, Sulawesi Tenggara",SULAWESI TENGGARA,,Indonesia,,,,-4.446612,121.5863072,https://maps.google.com/?cid=0x0:0xa81e529a8faf4882,
supermarket,Pusat Perbelanjaan,Pasar Polinggona,"GHXG+759, Unnamed Road, Polinggona, Kec. Polinggona, Kabupaten Kolaka, Sulawesi Tenggara 93563","Unnamed Road, Polinggona, Kec. Polinggona, Kabupaten Kolaka",SULAWESI TENGGARA,93563.0,Indonesia,,,,-4.4518368,121.5754892,https://maps.google.com/?cid=0x0:0x9a979d54e3ec3c4e,
supermarket,Toko,Kios Khanif,"Sumber Rejeki, Kec. Watubangga, Kabupaten Kolaka, Sulawesi Tenggara 93563","Kec. Watubangga, Kabupaten Kolaka",SULAWESI TENGGARA,93563.0,Indonesia,82290683995.0,,,-4.5183298,121.5592358,https://maps.google.com/?cid=0x0:0x8d52ce8ccda22cf4,
supermarket,Toko,Kios Chaca,"Jl. Poros Pomalaa-Boepinang No.Kel, Anaiwoi, Tanggetada, Kabupaten Kolaka, Sulawesi Tenggara 93563","Anaiwoi, Tanggetada, Kabupaten Kolaka",SULAWESI TENGGARA,93563.0,Indonesia,81242111603.0,,,-4.3794716,121.5213825,https://maps.google.com/?cid=0x0:0x7f4206bf4c224a44,
supermarket,Minimarket,DAENGPUL MART,"QH3J+X44, Jl. Poros Pomalaa-Tanggetada, Hakatutobu, Kec. Pomalaa, Kabupaten Kolaka, Sulawesi Tenggara 93562","Jl. Poros Pomalaa-Tanggetada, Hakatutobu, Kec. Pomalaa, Kabupaten Kolaka",SULAWESI TENGGARA,93562.0,Indonesia,,,,-4.245965,121.5802532,https://maps.google.com/?cid=0x0:0xbeed35b3f0053562,
supermarket,Toko bahan makanan,Kios AL,"HH54+H37, Wulonggere, Kec. Polinggona, Kabupaten Kolaka, Sulawesi Tenggara 93563","Wulonggere, Kec. Polinggona, Kabupaten Kolaka",SULAWESI TENGGARA,93563.0,Indonesia,,,,-4.4401602,121.5547571,https://maps.google.com/?cid=0x0:0x6557355208470338,
supermarket,supermarket,Toko Simpang Mas,"HH3P+CF2, Unnamed Road, Polinggona, Kec. Polinggona, Kabupaten Kolaka, Sulawesi Tenggara 93563","Unnamed Road, Polinggona, Kec. Polinggona, Kabupaten Kolaka",SULAWESI TENGGARA,93563.0,Indonesia,,,,-4.4464795,121.5861279,https://maps.google.com/?cid=0x0:0x7b4e84129b24210,
supermarket,supermarket,Sulawesi Tenggara 93562,"Kabupaten Kolaka, Sulawesi Tenggara","Kabupaten Kolaka, Sulawesi Tenggara",SULAWESI TENGGARA,,Indonesia,,,,-4.221625,121.6511258,https://maps.google.com/?cid=0x0:0x88f770c06ddbe268,
supermarket,Pusat Perbelanjaan,TOKO POMALAA JAYA / pomja,"Jl. Poros Kolaka - Pomalaa, Pelambua, Kec. Pomalaa, Kabupaten Kolaka, Sulawesi Tenggara 93562","Pelambua, Kec. Pomalaa, Kabupaten Kolaka",SULAWESI TENGGARA,93562.0,Indonesia,82142949052.0,,,-4.1774517,121.627912,https://maps.google.com/?cid=0x0:0x5846add3d0524752,
supermarket,Minimarket,DAENGPUL MART,"QH3J+X44, Jl. Poros Pomalaa-Tanggetada, Hakatutobu, Kec. Pomalaa, Kabupaten Kolaka, Sulawesi Tenggara 93562","Jl. Poros Pomalaa-Tanggetada, Hakatutobu, Kec. Pomalaa, Kabupaten Kolaka",SULAWESI TENGGARA,93562.0,Indonesia,,,,-4.245965,121.5802532,https://maps.google.com/?cid=0x0:0xbeed35b3f0053562,
supermarket,Toko bahan makanan,Toko Al Mairah,"RJF9+8XW, Jl. Poros Kolaka - Pomalaa, Pelambua, Kec. Pomalaa, Kabupaten Kolaka, Sulawesi Tenggara 93562","Jl. Poros Kolaka - Pomalaa, Pelambua, Kec. Pomalaa, Kabupaten Kolaka",SULAWESI TENGGARA,93562.0,Indonesia,81342465209.0,,,-4.1766266,121.6199521,https://maps.google.com/?cid=0x0:0x56c4f3899119f2b,
supermarket,Toko bahan makanan,Toko Rio pomalaa,"RJCH+X9M, Jalan Poros, Pelambua, Pomalaa, Kolaka Regency, South East Sulawesi 93562","Jalan Poros, Pelambua, Pomalaa, Kolaka Regency",SULAWESI TENGGARA,93562.0,Indonesia,,,,-4.1775371,121.6284333,https://maps.google.com/?cid=0x0:0xd5c7d33d1784e8f3,
supermarket,Toko,"Kios ENAM PUTRA""""","RJCH+PQW, Jalan Poros, Pelambua, Pomalaa, Kolaka Regency, South East Sulawesi 93562","Jalan Poros, Pelambua, Pomalaa, Kolaka Regency",SULAWESI TENGGARA,93562.0,Indonesia,85241641103.0,,,-4.1781339,121.6294685,https://maps.google.com/?cid=0x0:0x792c07ea8fa9b791,
supermarket,Toko bahan makanan,Top Swalayan Kolaka,"Laloeha, Kec. Kolaka, Kabupaten Kolaka, Sulawesi Tenggara 93561","Kec. Kolaka, Kabupaten Kolaka",SULAWESI TENGGARA,93561.0,Indonesia,82347453535.0,,,-4.0603204,121.6112796,https://maps.google.com/?cid=0x0:0xf40e49d7c66c766f,
supermarket,Minimarket,Alfamidi dawi dawi,"RJC6+JW9, Jl. Poros Kolaka - Pomalaa, Dawi-Dawi, Kec. Pomalaa, Kabupaten Kolaka, Sulawesi Tenggara 93562","Jl. Poros Kolaka - Pomalaa, Dawi-Dawi, Kec. Pomalaa, Kabupaten Kolaka",SULAWESI TENGGARA,93562.0,Indonesia,,,,-4.1784643,121.6123455,https://maps.google.com/?cid=0x0:0xacb679caa6ae6a8f,
supermarket,Tempat Cukur Rambut,Barbershop,"RJFG+F5W, Pelambua, Kec. Pomalaa, Kabupaten Kolaka, Sulawesi Tenggara 93562","Pelambua, Kec. Pomalaa, Kabupaten Kolaka",SULAWESI TENGGARA,93562.0,Indonesia,,,,-4.1762664,121.6254575,https://maps.google.com/?cid=0x0:0xe2dc8c6a7a5b5521,
supermarket,Toko Swalayan,Koperasi Karyawan (KopKar) Antam,"Komplek Antam, Jalan Ahmad Yani, Sulawasi Tenggara, 93562, Pomalaa, Kolaka Regency, South East Sulawesi 93562","Jalan Ahmad Yani, Sulawasi Tenggara,",SULAWESI TENGGARA,93562.0,Indonesia,,,,-4.1901456,121.6006309,https://maps.google.com/?cid=0x0:0xc4da3bd8cc454839,
supermarket,Toko,TOKO ARNEST,"RJFP+GWH, Pesouha, Kec. Pomalaa, Kabupaten Kolaka, Sulawesi Tenggara 93562","Pesouha, Kec. Pomalaa, Kabupaten Kolaka",SULAWESI TENGGARA,93562.0,Indonesia,,,,-4.1761954,121.6373611,https://maps.google.com/?cid=0x0:0xac18429175f6de09,
supermarket,,Kantor PT Antam Tbk. UBPN Sulawesi Tenggara,"Jl. Jenderal Ahmad Yani No.5, Pomalaa, Kec. Pomalaa, Kabupaten Kolaka, Sulawesi Tenggara 93562","Pomalaa, Kec. Pomalaa, Kabupaten Kolaka",SULAWESI TENGGARA,93562.0,Indonesia,405310171.0,,,-4.1920676,121.5980671,https://maps.google.com/?cid=0x0:0xd75fb63f4b683293,
supermarket,Pusat Perbelanjaan,Alaska Supermarket,"WHVX+4PW, Lamokato, Kec. Kolaka, Kabupaten Kolaka, Sulawesi Tenggara","Kabupaten Kolaka, Sulawesi Tenggara",SULAWESI TENGGARA,,Indonesia,,,,-4.0571371,121.599325,https://maps.google.com/?cid=0x0:0xc0dcc174e4651626,
supermarket,Toko,Toko AA,"RMJV+JRQ, Puulemo, Kec. Baula, Kabupaten Kolaka, Sulawesi Tenggara 93562","Puulemo, Kec. Baula, Kabupaten Kolaka",SULAWESI TENGGARA,93562.0,Indonesia,,,,-4.1684103,121.6946189,https://maps.google.com/?cid=0x0:0xaa2d8412df57ea86,
supermarket,Minimarket,Alfamidi Poros Pomalaa,"VMCF+R9J, Ngapa, Kec. Wundulako, Kabupaten Kolaka, Sulawesi Tenggara 93561","Ngapa, Kec. Wundulako, Kabupaten Kolaka",SULAWESI TENGGARA,93561.0,Indonesia,,,,-4.127921,121.6733775,https://maps.google.com/?cid=0x0:0x373cde6ac6063ec2,
supermarket,Pusat Perbelanjaan,Aldo Mart,"Tahoa, Kec. Kolaka, Kabupaten Kolaka, Sulawesi Tenggara 93561","Kec. Kolaka, Kabupaten Kolaka",SULAWESI TENGGARA,93561.0,Indonesia,,,,-4.0736049,121.6257723,https://maps.google.com/?cid=0x0:0xe48b88d992fb250d,
supermarket,Toko,Kios Chaca,"Jl. Poros Pomalaa-Boepinang No.Kel, Anaiwoi, Tanggetada, Kabupaten Kolaka, Sulawesi Tenggara 93563","Anaiwoi, Tanggetada, Kabupaten Kolaka",SULAWESI TENGGARA,93563.0,Indonesia,81242111603.0,,,-4.3794716,121.5213825,https://maps.google.com/?cid=0x0:0x7f4206bf4c224a44,
supermarket,Minimarket,INDOMARET-PELAMBUA-KOLAKA,"RJF9+6XX, Jl. Poros Kolaka - Pomalaa, Pelambua, Kec. Pomalaa, Kabupaten Kolaka, Sulawesi Tenggara 93562","Jl. Poros Kolaka - Pomalaa, Pelambua, Kec. Pomalaa, Kabupaten Kolaka",SULAWESI TENGGARA,93562.0,Indonesia,,,,-4.1768906,121.6199804,https://maps.google.com/?cid=0x0:0x507fa8e6580d3cce,
supermarket,,"PLTD PT.ANTAM Tbk. Pomalaa, 8 x 17MW","RJ86+H8P, Kumoro, Kec. Pomalaa, Kabupaten Kolaka, Sulawesi Tenggara 93562","Kumoro, Kec. Pomalaa, Kabupaten Kolaka",SULAWESI TENGGARA,93562.0,Indonesia,,,,-4.1838085,121.6106737,https://maps.google.com/?cid=0x0:0x322d5c267c2a26ed,
supermarket,Toko,Bintang 77,"RJF7+WQ3, Pasar, Dawi-Dawi, Kec. Pomalaa, Kabupaten Kolaka, Sulawesi Tenggara 93562","Pasar, Dawi-Dawi, Kec. Pomalaa, Kabupaten Kolaka",SULAWESI TENGGARA,93562.0,Indonesia,82344581945.0,,,-4.1752403,121.6144079,https://maps.google.com/?cid=0x0:0x130d13fc1a552ad8,
supermarket,Minimarket,Kios Aril,"VM52+V65, Puubunga, Kec. Baula, Kabupaten Kolaka, Sulawesi Tenggara","Kabupaten Kolaka, Sulawesi Tenggara",SULAWESI TENGGARA,,Indonesia,85241580338.0,,,-4.1403647,121.6506172,https://maps.google.com/?cid=0x0:0x8d4ec421c778a72,
supermarket,Toko bahan makanan,Toko Reza Sukses,"38CM+243, Tosiba, Kec. Samaturu, Kabupaten Kolaka, Sulawesi Tenggara 93915","Tosiba, Kec. Samaturu, Kabupaten Kolaka",SULAWESI TENGGARA,93915.0,Indonesia,85241649693.0,,,-3.9299977,121.332803,https://maps.google.com/?cid=0x0:0x15aa4e6c186cef43,
supermarket,Toko bahan makanan,Top Swalayan Kolaka,"Laloeha, Kec. Kolaka, Kabupaten Kolaka, Sulawesi Tenggara 93561","Kec. Kolaka, Kabupaten Kolaka",SULAWESI TENGGARA,93561.0,Indonesia,82347453535.0,,,-4.0603204,121.6112796,https://maps.google.com/?cid=0x0:0xf40e49d7c66c766f,
supermarket,Pusat Perbelanjaan,Alaska Supermarket,"WHVX+4PW, Lamokato, Kec. Kolaka, Kabupaten Kolaka, Sulawesi Tenggara","Kabupaten Kolaka, Sulawesi Tenggara",SULAWESI TENGGARA,,Indonesia,,,,-4.0571371,121.599325,https://maps.google.com/?cid=0x0:0xc0dcc174e4651626,
supermarket,supermarket,Sulawesi Tenggara 93915,"Kabupaten Kolaka, Sulawesi Tenggara","Kabupaten Kolaka, Sulawesi Tenggara",SULAWESI TENGGARA,,Indonesia,,,,-3.8574921,121.4913182,https://maps.google.com/?cid=0x0:0x729d7476a09b7e41,
supermarket,Toko,Nusma Jaya Grosir,"RW3Q+J2F, Gn. Jaya, Kec. Ladongi, Kabupaten Kolaka, Sulawesi Tenggara 93573","Gn. Jaya, Kec. Ladongi, Kabupaten Kolaka",SULAWESI TENGGARA,93573.0,Indonesia,,,,-4.1959343,121.9375388,https://maps.google.com/?cid=0x0:0x1afa6340fff38b7a,
supermarket,Kios,Toko Karya Subur,"WHVR+XHJ, Jl. Bakti, Latambaga, Kec. Latambaga, Kabupaten Kolaka, Sulawesi Tenggara","Kabupaten Kolaka, Sulawesi Tenggara",SULAWESI TENGGARA,,Indonesia,,,,-4.0550269,121.5913788,https://maps.google.com/?cid=0x0:0xabf06326c09063d8,
supermarket,Toko,Toko Sinar Solo,"Jl. Kadue No.24, Sea, Kec. Latambaga, Kabupaten Kolaka, Sulawesi Tenggara 93511","Sea, Kec. Latambaga, Kabupaten Kolaka",SULAWESI TENGGARA,93511.0,Indonesia,82399129558.0,,,-4.0506084,121.5896663,https://maps.google.com/?cid=0x0:0xb95b3de602462d47,
supermarket,Toko umum,Agen BRI Link Dan Kios Burhanuddin,"Jl. Poros Kolaka - Wolo No.103, Lapao-Pao, Kec. Wolo, Kabupaten Kolaka, Sulawesi Tenggara 93915","Lapao-Pao, Kec. Wolo, Kabupaten Kolaka",SULAWESI TENGGARA,93915.0,Indonesia,85292808545.0,,,-3.8913461,121.3325424,https://maps.google.com/?cid=0x0:0xbbdb02d118cbfbba,
supermarket,Toko Swalayan,Kios Harsid,"548M+249, Anggotoa, Kec. Wawotobi, Kabupaten Konawe, Sulawesi Tenggara 93461","Anggotoa, Kec. Wawotobi, Kabupaten Konawe",SULAWESI TENGGARA,93461.0,Indonesia,,,,-3.834956,122.1328519,https://maps.google.com/?cid=0x0:0xc679cb4f1c97f8e,
supermarket,Pusat Perbelanjaan,Aldo Mart,"Tahoa, Kec. Kolaka, Kabupaten Kolaka, Sulawesi Tenggara 93561","Kec. Kolaka, Kabupaten Kolaka",SULAWESI TENGGARA,93561.0,Indonesia,,,,-4.0736049,121.6257723,https://maps.google.com/?cid=0x0:0xe48b88d992fb250d,
supermarket,Toko bahan makanan,Alif Tahan,"Mattirowalie, Induha, Kec. Latambaga, Kabupaten Kolaka, Sulawesi Tenggara 93512","Induha, Kec. Latambaga, Kabupaten Kolaka",SULAWESI TENGGARA,93512.0,Indonesia,85242198763.0,,,-3.9353699,121.5255815,https://maps.google.com/?cid=0x0:0x71fe9acf2868fdd9,
supermarket,Minimarket,Kios Rina,"29R3+CJQ, Awa, Kec. Samaturu, Kabupaten Kolaka, Sulawesi Tenggara 93915","Awa, Kec. Samaturu, Kabupaten Kolaka",SULAWESI TENGGARA,93915.0,Indonesia,82296002625.0,,,-3.9589008,121.3541233,https://maps.google.com/?cid=0x0:0x2465d30e5f05d279,
supermarket,supermarket,Kec. Samaturu,"Kabupaten Kolaka, Sulawesi Tenggara","Kabupaten Kolaka, Sulawesi Tenggara",SULAWESI TENGGARA,,Indonesia,,,,-3.925404,121.3485865,https://maps.google.com/?cid=0x0:0x3dae34faaa2aa780,
supermarket,Pusat Perbelanjaan,Kios Yusri,"38CR+WR5, Tosiba, Kec. Samaturu, Kabupaten Kolaka, Sulawesi Tenggara 93915","Tosiba, Kec. Samaturu, Kabupaten Kolaka",SULAWESI TENGGARA,93915.0,Indonesia,,,,-3.9277485,121.3421034,https://maps.google.com/?cid=0x0:0xb496085d7e3b2687,
supermarket,Toko,Fahmir,"384C+F5G, Wawo Tambali, Kec. Samaturu, Kabupaten Kolaka, Sulawesi Tenggara 93915","Wawo Tambali, Kec. Samaturu, Kabupaten Kolaka",SULAWESI TENGGARA,93915.0,Indonesia,85825572181.0,,,-3.9438076,121.3204482,https://maps.google.com/?cid=0x0:0x7d186f37bf69c3bf,
supermarket,Kios,Kios alfatih,"38FJ+33Q, Tosiba, Kec. Samaturu, Kabupaten Kolaka, Sulawesi Tenggara 93915","Tosiba, Kec. Samaturu, Kabupaten Kolaka",SULAWESI TENGGARA,93915.0,Indonesia,,,,-3.9272803,121.3302374,https://maps.google.com/?cid=0x0:0x95fee84b6427d89a,
supermarket,Toko umum,Toko rusdin liku jaya,"Jl. Poros Ranteangin - Kolaka, Sani Sani, Kec. Samaturu, Kabupaten Kolaka, Sulawesi Tenggara 93915","Sani Sani, Kec. Samaturu, Kabupaten Kolaka",SULAWESI TENGGARA,93915.0,Indonesia,,,,-4.0055068,121.4529604,https://maps.google.com/?cid=0x0:0x319d3b3e3e179312,
supermarket,Pasar,Alat nelayan serba ada barang pecah belah,"Jl. Poros Donggala, Donggala, 93915, Donggala, Kec. Samaturu, Kabupaten Kolaka, Sulawesi Tenggara 93553","Donggala,",SULAWESI TENGGARA,93915.0,Indonesia,81341786781.0,,,-3.9209505,121.3161823,https://maps.google.com/?cid=0x0:0x8c51b253a33cdb03,
supermarket,Pusat Perbelanjaan,Kios SalsaAgen Brilink,"Jl. Poros Ranteangin - Kolaka No.Desa, Sani Sani, Kec. Samaturu, Kabupaten Kolaka, Sulawesi Tenggara 93915","Sani Sani, Kec. Samaturu, Kabupaten Kolaka",SULAWESI TENGGARA,93915.0,Indonesia,82292979047.0,,,-4.0037604,121.4343152,https://maps.google.com/?cid=0x0:0x77f15dabe301db9b,
supermarket,Kios,Kios Marda,"Puu Tamboli, Kec. Samaturu, Kabupaten Kolaka, Sulawesi Tenggara 93915","Kec. Samaturu, Kabupaten Kolaka",SULAWESI TENGGARA,93915.0,Indonesia,85241617142.0,,,-3.9331363,121.3379344,https://maps.google.com/?cid=0x0:0x7206681a255fc95c,
supermarket,Toko makanan beku,Umyan Frozen Food,"Sudut lapangan Karaeng, Jalan Sinar Samping MTs, Badong, Tosiba, Kec. Samaturu, Kabupaten Kolaka, Sulawesi Tenggara 93562","Jalan Sinar Samping MTs, Badong, Tosiba, Kec. Samaturu, Kabupaten Kolaka",SULAWESI TENGGARA,93562.0,Indonesia,82239479435.0,,,-3.9321976,121.3327618,https://maps.google.com/?cid=0x0:0x6a2a881249c09940,
supermarket,Toko Elektronik,TOKO GROSIR MIFTAH CELL,"29J4+8R6, Latuo, Kec. Samaturu, Kabupaten Kolaka, Sulawesi Tenggara 93915","Latuo, Kec. Samaturu, Kabupaten Kolaka",SULAWESI TENGGARA,93915.0,Indonesia,,,,-3.9692048,121.3570136,https://maps.google.com/?cid=0x0:0xce2d2b44f8b4f17e,
supermarket,Komplek perumahan,Rumah pak Sumardi,"389J+843, Tosiba, Kec. Samaturu, tosibah, Sulawesi Tenggara 93915","Tosiba, Kec. Samaturu, tosibah",SULAWESI TENGGARA,93915.0,Indonesia,,,,-3.9320255,121.3301228,https://maps.google.com/?cid=0x0:0xf05f937a96320e47,
supermarket,Minimarket,Tokoh DianIqbael,"XFMR+GR, Lawulo, Kec. Samaturu, Kabupaten Kolaka, Sulawesi Tenggara","Kabupaten Kolaka, Sulawesi Tenggara",SULAWESI TENGGARA,,Indonesia,,,,-4.0161473,121.4920382,https://maps.google.com/?cid=0x0:0x193a9ed4e7971f4a,
supermarket,supermarket,Putri wahyuningsih,"383Q+6MR, Dusun 3 ulana desa ulaweng, sebelum tugu, Kec. Samaturu, Kabupaten Kolaka, Sulawesi Tenggara 93915","Dusun 3 ulana desa ulaweng, sebelum tugu, Kec. Samaturu, Kabupaten Kolaka",SULAWESI TENGGARA,93915.0,Indonesia,,,,-3.9474034,121.3387974,https://maps.google.com/?cid=0x0:0x79823c44bcdf1e13,
supermarket,Kios,Kios Berkah Mudianto,"297Q+JF2, Jl. Poros Ranteangin - Kolaka, Malaha, Kec. Samaturu, Kabupaten Kolaka, Sulawesi Tenggara 93915","Jl. Poros Ranteangin - Kolaka, Malaha, Kec. Samaturu, Kabupaten Kolaka",SULAWESI TENGGARA,93915.0,Indonesia,85343846269.0,,,-3.9859759,121.3886492,https://maps.google.com/?cid=0x0:0x2f21356046012843,
supermarket,Toko,Toko Yuli,"Tosiba, Kec. Samaturu, Kabupaten Kolaka, Sulawesi Tenggara","Kabupaten Kolaka, Sulawesi Tenggara",SULAWESI TENGGARA,,Indonesia,,,,-3.9303256,121.3405689,https://maps.google.com/?cid=0x0:0x198fe969f20243a,
supermarket,Toko bahan makanan,TOKO Eka,"Lawulo, Kec. Samaturu, Kabupaten Kolaka, Sulawesi Tenggara 93419","Kec. Samaturu, Kabupaten Kolaka",SULAWESI TENGGARA,93419.0,Indonesia,85320382808.0,,,-4.0113261,121.4743168,https://maps.google.com/?cid=0x0:0x6ba726356b3408fe,
supermarket,Kantor Perusahaan,Rumah Rusman Erick,"29F6+JMR, Ulu Konaweha, Kec. Samaturu, Kabupaten Kolaka, Sulawesi Tenggara","Kabupaten Kolaka, Sulawesi Tenggara",SULAWESI TENGGARA,,Indonesia,,,,-3.9761789,121.3614262,https://maps.google.com/?cid=0x0:0x48d4d4ffc52d9e95,
supermarket,supermarket,Sulawesi Tenggara 93563,"Kec. Polinggona, Kabupaten Kolaka, Sulawesi Tenggara","Kabupaten Kolaka, Sulawesi Tenggara",SULAWESI TENGGARA,,Indonesia,,,,-4.4159481,121.6739371,https://maps.google.com/?cid=0x0:0x9488be185143c520,
supermarket,Toko,Kios Chaca,"Jl. Poros Pomalaa-Boepinang No.Kel, Anaiwoi, Tanggetada, Kabupaten Kolaka, Sulawesi Tenggara 93563","Anaiwoi, Tanggetada, Kabupaten Kolaka",SULAWESI TENGGARA,93563.0,Indonesia,81242111603.0,,,-4.3794716,121.5213825,https://maps.google.com/?cid=0x0:0x7f4206bf4c224a44,
supermarket,Minimarket,Tio Mart Tanggetada,"JGVC+QHW dusun 4 trans nelayan, Tanggetada, Kabupaten Kolaka, Sulawesi Tenggara","Kabupaten Kolaka, Sulawesi Tenggara",SULAWESI TENGGARA,,Indonesia,82187668853.0,,,-4.3555139,121.5214417,https://maps.google.com/?cid=0x0:0xb1f02a055afab428,
supermarket,Minimarket,DAENGPUL MART,"QH3J+X44, Jl. Poros Pomalaa-Tanggetada, Hakatutobu, Kec. Pomalaa, Kabupaten Kolaka, Sulawesi Tenggara 93562","Jl. Poros Pomalaa-Tanggetada, Hakatutobu, Kec. Pomalaa, Kabupaten Kolaka",SULAWESI TENGGARA,93562.0,Indonesia,,,,-4.245965,121.5802532,https://maps.google.com/?cid=0x0:0xbeed35b3f0053562,
supermarket,Minimarket,Toko Alda Toserba,"CGQ5+C25, Desa Wonua Raya Kecatan, Ranomentaa, Kec. Toari, Kabupaten Kolaka, Sulawesi Tenggara 93563","Desa Wonua Raya Kecatan, Ranomentaa, Kec. Toari, Kabupaten Kolaka",SULAWESI TENGGARA,93563.0,Indonesia,82190504474.0,,,-4.5614879,121.5076211,https://maps.google.com/?cid=0x0:0x6d83fe5306b158a,
supermarket,Pasar,Alfayed Swalayan,"P222+QWR, Jl. Poros Lapai - Malili, Beringin, Kec. Ngapa, Kabupaten Kolaka Utara, Sulawesi Tenggara 93958","Jl. Poros Lapai - Malili, Beringin, Kec. Ngapa, Kabupaten Kolaka Utara",SULAWESI TENGGARA,93958.0,Indonesia,,,,-3.298023,121.0022604,https://maps.google.com/?cid=0x0:0xebe72d5e30efbab9,
supermarket,Kios,Dewa Dewi,"Atula, Kec. Ladongi, Kabupaten Kolaka, Sulawesi Tenggara 93573","Kec. Ladongi, Kabupaten Kolaka",SULAWESI TENGGARA,93573.0,Indonesia,,,,-4.1503293,121.9152217,https://maps.google.com/?cid=0x0:0x17a69d22f73a5f5,
supermarket,Pusat Perbelanjaan,Pasar Gunung Jaya,"RW3P+FQF, Gn., Gn. Jaya, Kec. Ladongi, Kabupaten Kolaka, Sulawesi Tenggara 93573","Gn., Gn. Jaya, Kec. Ladongi, Kabupaten Kolaka",SULAWESI TENGGARA,93573.0,Indonesia,,,,-4.1963186,121.9369345,https://maps.google.com/?cid=0x0:0xf8cbd003db2651bc,
supermarket,Pembangunan Perumahan,Rumah Serampai,"Polinggona, Kec. Polinggona, Kabupaten Kolaka, Sulawesi Tenggara","Kabupaten Kolaka, Sulawesi Tenggara",SULAWESI TENGGARA,,Indonesia,82348884995.0,,,-4.4466527,121.5863778,https://maps.google.com/?cid=0x0:0x52102b19cf5e3b2e,
supermarket,Toko umum,KIOS IBU TRI UTAMI,"CGP5+HP, Rano Jaya, Kec. Toari, Kabupaten Kolaka, Sulawesi Tenggara","Kabupaten Kolaka, Sulawesi Tenggara",SULAWESI TENGGARA,,Indonesia,,,,-4.5636541,121.5093996,https://maps.google.com/?cid=0x0:0x54cba90216871c9d,
supermarket,Minimarket,"LCM MART - 24 Jam, TANGGETADA","JH93+W58, Jl. Menwa, Popalia, Tanggetada, Kabupaten Kolaka, Sulawesi Tenggara 93563","Jl. Menwa, Popalia, Tanggetada, Kabupaten Kolaka",SULAWESI TENGGARA,93563.0,Indonesia,,,,-4.3802228,121.5529407,https://maps.google.com/?cid=0x0:0xea1ab531bb5176d0,
supermarket,Minimarket,AAN MART,"JGFC+CCM, Jl. Poros Pomalaa-Boepinang, popalia, Tanggetada, Kabupaten Kolaka, Sulawesi Tenggara 93563","Jl. Poros Pomalaa-Boepinang, popalia, Tanggetada, Kabupaten Kolaka",SULAWESI TENGGARA,93563.0,Indonesia,,,,-4.3764079,121.521032,https://maps.google.com/?cid=0x0:0x861a719b0990fe0a,
supermarket,Minimarket,TOKO ADAM,"JGGC+P78, Jl. Sendiri, Anaiwoi, Tanggetada, Kabupaten Kolaka, Sulawesi Tenggara 93563","Jl. Sendiri, Anaiwoi, Tanggetada, Kabupaten Kolaka",SULAWESI TENGGARA,93563.0,Indonesia,85397398006.0,,,-4.3733369,121.5206924,https://maps.google.com/?cid=0x0:0xc9c1b3b0ea089ae6,
supermarket,Toko Pakaian,astore_tanggetada,"JGGC+29R, Anaiwoi, Tanggetada, Kabupaten Kolaka, Sulawesi Tenggara","Kabupaten Kolaka, Sulawesi Tenggara",SULAWESI TENGGARA,,Indonesia,85280468750.0,,,-4.3748752,121.5208967,https://maps.google.com/?cid=0x0:0x8cea8be890cdaa63,
supermarket,supermarket,Tanggetada,"Kabupaten Kolaka, Sulawesi Tenggara","Kabupaten Kolaka, Sulawesi Tenggara",SULAWESI TENGGARA,,Indonesia,,,,-4.3281054,121.6511258,https://maps.google.com/?cid=0x0:0x743abb0d1adc3391,
supermarket,Toko bahan makanan,Top Swalayan Kolaka,"Laloeha, Kec. Kolaka, Kabupaten Kolaka, Sulawesi Tenggara 93561","Kec. Kolaka, Kabupaten Kolaka",SULAWESI TENGGARA,93561.0,Indonesia,82347453535.0,,,-4.0603204,121.6112796,https://maps.google.com/?cid=0x0:0xf40e49d7c66c766f,
supermarket,Toko bahan makanan,Toko sumber cahaya,"MHW6+F4W, Lamedai, Tanggetada, Kabupaten Kolaka, Sulawesi Tenggara 93563","Lamedai, Tanggetada, Kabupaten Kolaka",SULAWESI TENGGARA,93563.0,Indonesia,,,,-4.3037707,121.5603145,https://maps.google.com/?cid=0x0:0x671e487a94629a31,
supermarket,Toko bahan makanan,kios al,"JHF3+3XW, Unnamed Road, Popalia, Tanggetada, Kabupaten Kolaka, Sulawesi Tenggara 93563","Unnamed Road, Popalia, Tanggetada, Kabupaten Kolaka",SULAWESI TENGGARA,93563.0,Indonesia,82271649145.0,,,-4.3772667,121.5549428,https://maps.google.com/?cid=0x0:0x2275c231d60cb16e,
supermarket,Toko,DARSAN Toko,"JH92+QPJ, Popalia, Tanggetada, Kabupaten Kolaka, Sulawesi Tenggara 93563","Popalia, Tanggetada, Kabupaten Kolaka",SULAWESI TENGGARA,93563.0,Indonesia,82348046297.0,,,-4.3805418,121.5517808,https://maps.google.com/?cid=0x0:0xdcc858d88a30d14,
supermarket,Pusat Perbelanjaan,Pasar Tradisional Anaiwoi,"JGGH+9FW, Anaiwoi, Tanggetada, Kabupaten Kolaka, Sulawesi Tenggara 93563","Anaiwoi, Tanggetada, Kabupaten Kolaka",SULAWESI TENGGARA,93563.0,Indonesia,,,,-4.3740008,121.5287162,https://maps.google.com/?cid=0x0:0x6291554d337208ff,
supermarket,Toko Elektronik,TOKO DINAR CELLULAR,"JGFC+V98, Jl. Poros Pomalaa-Boepinang, Anaiwoi, Tanggetada, Kabupaten Kolaka, Sulawesi Tenggara 93563","Jl. Poros Pomalaa-Boepinang, Anaiwoi, Tanggetada, Kabupaten Kolaka",SULAWESI TENGGARA,93563.0,Indonesia,,,,-4.3753278,121.5209626,https://maps.google.com/?cid=0x0:0x581ec9763eb9eb91,
supermarket,Toko Makanan,Balandete Mart,"WJGH+3JM, Jl. Pemuda, Balandete, Kec. Kolaka, Kabupaten Kolaka, Sulawesi Tenggara 93561","Jl. Pemuda, Balandete, Kec. Kolaka, Kabupaten Kolaka",SULAWESI TENGGARA,93561.0,Indonesia,82298142480.0,,,-4.07478,121.6290517,https://maps.google.com/?cid=0x0:0x139fe0a572e48426,
supermarket,Toko umum,Kios Erni,"HGJ9+6WH, Tondowolio, Tanggetada, Kabupaten Kolaka, Sulawesi Tenggara 93563","Tondowolio, Tanggetada, Kabupaten Kolaka",SULAWESI TENGGARA,93563.0,Indonesia,,,,-4.4194315,121.5198686,https://maps.google.com/?cid=0x0:0x81987fd96ea598d3,
supermarket,supermarket,RM/Citra solo,"MM29+57X, Popalia, Tanggetada, Kabupaten Kolaka, Sulawesi Tenggara","Kabupaten Kolaka, Sulawesi Tenggara",SULAWESI TENGGARA,,Indonesia,,,,-4.3495222,121.6682347,https://maps.google.com/?cid=0x0:0x85dd973a8835970a,
supermarket,Toko,Kios naurah,"JGG9+4QX, Anaiwoi, Tanggetada, Kabupaten Kolaka, Sulawesi Tenggara 93563","Anaiwoi, Tanggetada, Kabupaten Kolaka",SULAWESI TENGGARA,93563.0,Indonesia,,,,-4.3746255,121.5194904,https://maps.google.com/?cid=0x0:0x683dd609151de478,
supermarket,Toko,Kios Tasya,"PHM9+VQ7, Lorong Smp 2, Sopura, Kec. Pomalaa, Kabupaten Kolaka, Sulawesi Tenggara 93562","Lorong Smp 2, Sopura, Kec. Pomalaa, Kabupaten Kolaka",SULAWESI TENGGARA,93562.0,Indonesia,,,,-4.265328,121.5694345,https://maps.google.com/?cid=0x0:0xba287bf2395f0d3c,
supermarket,Toko bahan makanan,Toko Akbar Wolulu,"HG69+CVF, Wolulu, Kec. Watubangga, Kabupaten Kolaka, Sulawesi Tenggara 93563","Wolulu, Kec. Watubangga, Kabupaten Kolaka",SULAWESI TENGGARA,93563.0,Indonesia,85231314233.0,,,-4.4389311,121.5196704,https://maps.google.com/?cid=0x0:0x9bf88421e37fdfc1,
supermarket,Toko Swalayan,TOKO MELIANA JAYA,"Tanggetada, Kabupaten Kolaka, Sulawesi Tenggara","Kabupaten Kolaka, Sulawesi Tenggara",SULAWESI TENGGARA,,Indonesia,85342279268.0,,,-4.3581168,121.5219346,https://maps.google.com/?cid=0x0:0x6782e2dd119befe3,
supermarket,supermarket,Sambel cocoking,"MM29+57X, Popalia, Tanggetada, Kabupaten Kolaka, Sulawesi Tenggara","Kabupaten Kolaka, Sulawesi Tenggara",SULAWESI TENGGARA,,Indonesia,,,,-4.3495222,121.6682347,https://maps.google.com/?cid=0x0:0x7ea9e9cd714c49ba,
supermarket,supermarket,Kec. Toari,"Kabupaten Kolaka, Sulawesi Tenggara","Kabupaten Kolaka, Sulawesi Tenggara",SULAWESI TENGGARA,,Indonesia,,,,-4.5586308,121.5108051,https://maps.google.com/?cid=0x0:0xe2e54f3d50344975,
supermarket,Toko umum,KIOS IBU TRI UTAMI,"CGP5+HP, Rano Jaya, Kec. Toari, Kabupaten Kolaka, Sulawesi Tenggara","Kabupaten Kolaka, Sulawesi Tenggara",SULAWESI TENGGARA,,Indonesia,,,,-4.5636541,121.5093996,https://maps.google.com/?cid=0x0:0x54cba90216871c9d,
supermarket,Dapur Umum,Serba mercon,"QGC6+854, Sukamulya, Kec. Cikupa, Kabupaten Tangerang, Banten 15710","Sukamulya, Kec. Cikupa, Kabupaten Tangerang",SULAWESI TENGGARA,15710.0,Indonesia,81290385239.0,,,-6.2292446,106.5104594,https://maps.google.com/?cid=0x0:0xa3d05edf1adadb4a,
supermarket,Minimarket,Toko Alda Toserba,"CGQ5+C25, Desa Wonua Raya Kecatan, Ranomentaa, Kec. Toari, Kabupaten Kolaka, Sulawesi Tenggara 93563","Desa Wonua Raya Kecatan, Ranomentaa, Kec. Toari, Kabupaten Kolaka",SULAWESI TENGGARA,93563.0,Indonesia,82190504474.0,,,-4.5614879,121.5076211,https://maps.google.com/?cid=0x0:0x6d83fe5306b158a,
supermarket,Indonesia,WARUNG MERCON ABIMANYU,"Jl. Markisa, Sukamulya, Kec. Cikupa, Kabupaten Tangerang, Banten 15710","Sukamulya, Kec. Cikupa, Kabupaten Tangerang",SULAWESI TENGGARA,15710.0,Indonesia,81212606352.0,,,-6.2297447,106.5112683,https://maps.google.com/?cid=0x0:0x48143e27a79a6b8d,
supermarket,Toko,Kios Khanif,"Sumber Rejeki, Kec. Watubangga, Kabupaten Kolaka, Sulawesi Tenggara 93563","Kec. Watubangga, Kabupaten Kolaka",SULAWESI TENGGARA,93563.0,Indonesia,82290683995.0,,,-4.5183298,121.5592358,https://maps.google.com/?cid=0x0:0x8d52ce8ccda22cf4,
supermarket,Kedai Kopi,BAKSO MERCON PAK SUPRI,"Jl. Raya Mediterania 1 No.A4 No.12, Sukamulya, Kec. Cikupa, Kabupaten Tangerang, Banten 15710","Sukamulya, Kec. Cikupa, Kabupaten Tangerang",SULAWESI TENGGARA,15710.0,Indonesia,,,,-6.237711,106.5122501,https://maps.google.com/?cid=0x0:0xba9e5aebe4fb2cf7,
supermarket,Bakso,Bakso Mercon Citra Raya,"Ruko Citra Raya Blvd Blok T01 No.121, Ciakar, Kec. Panongan, Kabupaten Tangerang, Banten 15710","Ciakar, Kec. Panongan, Kabupaten Tangerang",SULAWESI TENGGARA,15710.0,Indonesia,,,,-6.2648408,106.5253471,https://maps.google.com/?cid=0x0:0xba172fd671b0345b,
supermarket,supermarket,Sulawesi Tenggara 93563,"Kec. Polinggona, Kabupaten Kolaka, Sulawesi Tenggara","Kabupaten Kolaka, Sulawesi Tenggara",SULAWESI TENGGARA,,Indonesia,,,,-4.4159481,121.6739371,https://maps.google.com/?cid=0x0:0x9488be185143c520,
supermarket,Pusat Perbelanjaan,Pasar Watubangga,"Watubangga, Kec. Watubangga, Kabupaten Kolaka, Sulawesi Tenggara 93563","Kec. Watubangga, Kabupaten Kolaka",SULAWESI TENGGARA,93563.0,Indonesia,,,,-4.4762123,121.5066879,https://maps.google.com/?cid=0x0:0xabf12b64905f81d2,
supermarket,Minimarket,DAENGPUL MART,"QH3J+X44, Jl. Poros Pomalaa-Tanggetada, Hakatutobu, Kec. Pomalaa, Kabupaten Kolaka, Sulawesi Tenggara 93562","Jl. Poros Pomalaa-Tanggetada, Hakatutobu, Kec. Pomalaa, Kabupaten Kolaka",SULAWESI TENGGARA,93562.0,Indonesia,,,,-4.245965,121.5802532,https://maps.google.com/?cid=0x0:0xbeed35b3f0053562,
supermarket,supermarket,Sulawesi Tenggara 93552,"Kec. Wolo, Kabupaten Kolaka, Sulawesi Tenggara","Kabupaten Kolaka, Sulawesi Tenggara",SULAWESI TENGGARA,,Indonesia,,,,-3.7240653,121.3084088,https://maps.google.com/?cid=0x0:0x32a24e9ef7bb5c4a,
supermarket,Minimarket,Indomaret Kota Wolo,"5754+999, Jl. Poros Ranteangin - Kolaka, Wolo, Kec. Wolo, Kabupaten Kolaka Utara, Sulawesi Tenggara 93552","Jl. Poros Ranteangin - Kolaka, Wolo, Kec. Wolo, Kabupaten Kolaka Utara",SULAWESI TENGGARA,93552.0,Indonesia,,,,-3.8415763,121.2559992,https://maps.google.com/?cid=0x0:0x1b3c7fde306e57ea,
supermarket,Minimarket,Alfamidi Kota Wolo,"5754+CFC, Jl. Poros Ranteangin - Kolaka, Wolo, Kec. Wolo, Kabupaten Kolaka Utara, Sulawesi Tenggara 93552","Jl. Poros Ranteangin - Kolaka, Wolo, Kec. Wolo, Kabupaten Kolaka Utara",SULAWESI TENGGARA,93552.0,Indonesia,,,,-3.841436,121.2561495,https://maps.google.com/?cid=0x0:0x9ea469be952cd578,
supermarket,Toko bahan makanan,Alamsyah,"48HG+FFX, Jl. Poros Ranteangin - Kolaka, Samaenre, Kec. Wolo, Kabupaten Kolaka, Sulawesi Tenggara 93552","Jl. Poros Ranteangin - Kolaka, Samaenre, Kec. Wolo, Kabupaten Kolaka",SULAWESI TENGGARA,93552.0,Indonesia,,,,-3.8699352,121.3259438,https://maps.google.com/?cid=0x0:0x20ab98aea54f96a2,
supermarket,Toko bahan makanan,Kios Anggi,"48V9+5WC, Jl. Poros Ranteangin - Kolaka, Samaenre, Kec. Wolo, Kabupaten Kolaka, Sulawesi Tenggara 93552","Jl. Poros Ranteangin - Kolaka, Samaenre, Kec. Wolo, Kabupaten Kolaka",SULAWESI TENGGARA,93552.0,Indonesia,,,,-3.8570541,121.3197793,https://maps.google.com/?cid=0x0:0xe69668bc5f07506,
supermarket,Toko umum,Agen BRI Link Dan Kios Burhanuddin,"Jl. Poros Kolaka - Wolo No.103, Lapao-Pao, Kec. Wolo, Kabupaten Kolaka, Sulawesi Tenggara 93915","Lapao-Pao, Kec. Wolo, Kabupaten Kolaka",SULAWESI TENGGARA,93915.0,Indonesia,85292808545.0,,,-3.8913461,121.3325424,https://maps.google.com/?cid=0x0:0xbbdb02d118cbfbba,
supermarket,Pusat Perbelanjaan,"Aqila Anindi,Toko","55MQ+V67, Ulu Kalo, Kec. Wolo, Kabupaten Kolaka, Sulawesi Tenggara 93552","Ulu Kalo, Kec. Wolo, Kabupaten Kolaka",SULAWESI TENGGARA,93552.0,Indonesia,,,,-3.8153261,121.1880441,https://maps.google.com/?cid=0x0:0x47f429166d635e67,
supermarket,Toko bahan makanan,Toko Reza Sukses,"38CM+243, Tosiba, Kec. Samaturu, Kabupaten Kolaka, Sulawesi Tenggara 93915","Tosiba, Kec. Samaturu, Kabupaten Kolaka",SULAWESI TENGGARA,93915.0,Indonesia,85241649693.0,,,-3.9299977,121.332803,https://maps.google.com/?cid=0x0:0x15aa4e6c186cef43,
supermarket,Toko Swalayan,Tanah persiapan toko,"55GH+CVR, Iwoimendaa, Kec. Wolo, Kabupaten Kolaka, Sulawesi Tenggara 93552","Iwoimendaa, Kec. Wolo, Kabupaten Kolaka",SULAWESI TENGGARA,93552.0,Indonesia,85395957092.0,,,-3.823897,121.1796292,https://maps.google.com/?cid=0x0:0x5579baf8399dbd6f,
supermarket,Toko,Kios Fajar Alam,"55PP+5P5, Jl. Poros Ranteangin - Kolaka, Ulu Kalo, Kec. Wolo, Kabupaten Kolaka, Sulawesi Tenggara 93552","Jl. Poros Ranteangin - Kolaka, Ulu Kalo, Kec. Wolo, Kabupaten Kolaka",SULAWESI TENGGARA,93552.0,Indonesia,,,,-3.8146234,121.186871,https://maps.google.com/?cid=0x0:0x885173bfcaa90568,
supermarket,Toko bahan makanan,WR.AGAMA,"47W5+8W4, Wolo, Kec. Wolo, Kabupaten Kolaka, Sulawesi Tenggara","Kabupaten Kolaka, Sulawesi Tenggara",SULAWESI TENGGARA,,Indonesia,,,,-3.8541215,121.2602911,https://maps.google.com/?cid=0x0:0xb00c9b93335ff3e8,
supermarket,Perhimpunan Pengembang Perumahan,Wolo,"389M+MV, Tosiba, Kec. Samaturu, Kabupaten Kolaka, Sulawesi Tenggara 93915","Tosiba, Kec. Samaturu, Kabupaten Kolaka",SULAWESI TENGGARA,93915.0,Indonesia,,,,-3.9308049,121.3346839,https://maps.google.com/?cid=0x0:0x72c3a5e2b70fcf0e,
supermarket,Toko bahan makanan,Kios Ardiansyah,"48PF+7MW, Samaenre, Kec. Wolo, Kabupaten Kolaka, Sulawesi Tenggara 93552","Samaenre, Kec. Wolo, Kabupaten Kolaka",SULAWESI TENGGARA,93552.0,Indonesia,,,,-3.8642625,121.3242031,https://maps.google.com/?cid=0x0:0x6d110ece08d5a2c9,
supermarket,Toko bahan makanan,Toko Anto Karya,"5773+RJV, Iwoimopuro, Kec. Wolo, Kabupaten Kolaka, Sulawesi Tenggara 93552","Iwoimopuro, Kec. Wolo, Kabupaten Kolaka",SULAWESI TENGGARA,93552.0,Indonesia,,,,-3.8353959,121.2540412,https://maps.google.com/?cid=0x0:0x5b8ecc39e5c3cd25,
supermarket,Toko umum,KIOS MUTIARA JAYA,"56M4+FVH, Jl. Poros Ranteangin - Kolaka, Lambopini, Kec. Wolo, Kabupaten Kolaka, Sulawesi Tenggara 93552","Jl. Poros Ranteangin - Kolaka, Lambopini, Kec. Wolo, Kabupaten Kolaka",SULAWESI TENGGARA,93552.0,Indonesia,,,,-3.8163236,121.2072224,https://maps.google.com/?cid=0x0:0xa5b306d32ed566c9,
supermarket,,TOKO AUREL,"64GP+QF4, Jl. Poros Ranteangin - Kolaka, Tamborasi, Kec. Wolo, Kabupaten Kolaka, Sulawesi Tenggara 93552","Jl. Poros Ranteangin - Kolaka, Tamborasi, Kec. Wolo, Kabupaten Kolaka",SULAWESI TENGGARA,93552.0,Indonesia,,,,-3.773103,121.1362116,https://maps.google.com/?cid=0x0:0x8e68260f52f1912d,
supermarket,Toko,Toko Iluh,"Jl. Konggoasa, Dawi-Dawi, Kec. Pomalaa, Kabupaten Kolaka, Sulawesi Tenggara 93562","Dawi-Dawi, Kec. Pomalaa, Kabupaten Kolaka",SULAWESI TENGGARA,93562.0,Indonesia,81527979260.0,,,-4.1739243,121.6141871,https://maps.google.com/?cid=0x0:0x472a0fa5f3c05601,
supermarket,Toko,Toko Ilham,"56HM+H9F, Jl. Poros Ranteangin - Kolaka, Lana, Kec. Wolo, Kabupaten Kolaka, Sulawesi Tenggara 93552","Jl. Poros Ranteangin - Kolaka, Lana, Kec. Wolo, Kabupaten Kolaka",SULAWESI TENGGARA,93552.0,Indonesia,,,,-3.8210731,121.2334293,https://maps.google.com/?cid=0x0:0x17263dffb52e9d58,
supermarket,Toko,KIOS IBAT,"55PQ+22Q, Jl. Poros Ranteangin - Kolaka, Ulu Kalo, Kec. Wolo, Kabupaten Kolaka, Sulawesi Tenggara 93552","Jl. Poros Ranteangin - Kolaka, Ulu Kalo, Kec. Wolo, Kabupaten Kolaka",SULAWESI TENGGARA,93552.0,Indonesia,,,,-3.8149056,121.187613,https://maps.google.com/?cid=0x0:0x1ca6142399d0d5d,
supermarket,Toko bahan makanan,KIOS ARDI,"56M3+CVQ, Jl. Poros Ranteangin - Kolaka, Lambopini, Kec. Wolo, Kabupaten Kolaka, Sulawesi Tenggara 93552","Jl. Poros Ranteangin - Kolaka, Lambopini, Kec. Wolo, Kabupaten Kolaka",SULAWESI TENGGARA,93552.0,Indonesia,,,,-3.8164187,121.2047424,https://maps.google.com/?cid=0x0:0x2f683c53a4b4d7d8,
supermarket,supermarket,Kec. Wolo,"Kabupaten Kolaka, Sulawesi Tenggara","Kabupaten Kolaka, Sulawesi Tenggara",SULAWESI TENGGARA,,Indonesia,,,,-3.8422227,121.2562889,https://maps.google.com/?cid=0x0:0x5d3243bd8c94b964,
supermarket,Pasar,Alat nelayan serba ada barang pecah belah,"Jl. Poros Donggala, Donggala, 93915, Donggala, Kec. Samaturu, Kabupaten Kolaka, Sulawesi Tenggara 93553","Donggala,",SULAWESI TENGGARA,93915.0,Indonesia,81341786781.0,,,-3.9209505,121.3161823,https://maps.google.com/?cid=0x0:0x8c51b253a33cdb03,
supermarket,Toko bahan makanan,Vallarta Supermarkets,"38118 47th St E, Palmdale, CA 93552, Amerika Serikat",47th St E,SULAWESI TENGGARA,38118.0,Indonesia,16612084276.0,,,34.5748466,-118.0437517,https://maps.google.com/?cid=0x0:0xf9fdece547e61ae1,
supermarket,Toko bahan makanan,Vons,"3027 Rancho Vista Blvd, Palmdale, CA 93551, Amerika Serikat","Palmdale, CA",SULAWESI TENGGARA,93551.0,Indonesia,16612659285.0,,,34.6034085,-118.1842406,https://maps.google.com/?cid=0x0:0x9bfee643ca826ed1,
supermarket,Toko Roti,Vons Bakery,"3027 Rancho Vista Blvd, Palmdale, CA 93551, Amerika Serikat","Palmdale, CA",SULAWESI TENGGARA,93551.0,Indonesia,16612659285.0,,,34.6033873,-118.18428,https://maps.google.com/?cid=0x0:0x3cb372d644533c1d,
supermarket,Toko Swalayan,Vallarta Supermarkets,"440 E Palmdale Blvd, Palmdale, CA 93550, Amerika Serikat","Palmdale, CA",SULAWESI TENGGARA,93550.0,Indonesia,16612661398.0,,,34.579154,-118.1224174,https://maps.google.com/?cid=0x0:0x221473d64eea376d,
supermarket,Toko Swalayan,Vallarta Supermarkets,"1803 E Palmdale Blvd, Palmdale, CA 93550, Amerika Serikat","Palmdale, CA",SULAWESI TENGGARA,93550.0,Indonesia,16612731120.0,,,34.5808337,-118.0958994,https://maps.google.com/?cid=0x0:0x359d408e1e538e28,
supermarket,Toko bahan makanan,Wundulako Mart,"Wundulako, Kec. Wundulako, Kabupaten Kolaka, Sulawesi Tenggara 93561","Kec. Wundulako, Kabupaten Kolaka",SULAWESI TENGGARA,93561.0,Indonesia,85242005962.0,,,-4.1090918,121.6764493,https://maps.google.com/?cid=0x0:0x13233e2052a137a4,
supermarket,Pusat Perbelanjaan,Alaska Supermarket,"WHVX+4PW, Lamokato, Kec. Kolaka, Kabupaten Kolaka, Sulawesi Tenggara","Kabupaten Kolaka, Sulawesi Tenggara",SULAWESI TENGGARA,,Indonesia,,,,-4.0571371,121.599325,https://maps.google.com/?cid=0x0:0xc0dcc174e4651626,
supermarket,supermarket,Sulawesi Tenggara 93561,"Kabupaten Kolaka, Sulawesi Tenggara","Kabupaten Kolaka, Sulawesi Tenggara",SULAWESI TENGGARA,,Indonesia,,,,-4.0800377,121.6511258,https://maps.google.com/?cid=0x0:0x1aab639f600d3d8e,
supermarket,Toko umum,Kios Ais,"VMRG+4HQ, Wundulako, Kec. Wundulako, Kabupaten Kolaka, Sulawesi Tenggara 93561","Wundulako, Kec. Wundulako, Kabupaten Kolaka",SULAWESI TENGGARA,93561.0,Indonesia,,,,-4.1096738,121.676481,https://maps.google.com/?cid=0x0:0x411db350e6ba8575,
supermarket,Pusat Perbelanjaan,Aldo Mart,"Tahoa, Kec. Kolaka, Kabupaten Kolaka, Sulawesi Tenggara 93561","Kec. Kolaka, Kabupaten Kolaka",SULAWESI TENGGARA,93561.0,Indonesia,,,,-4.0736049,121.6257723,https://maps.google.com/?cid=0x0:0xe48b88d992fb250d,
supermarket,Taman,Rumah Sayur Hidroponik Wundulako,"Pomalaa, Jalan Poros, Wundulako, Kolaka Regency, South East Sulawesi 93561","Jalan Poros, Wundulako, Kolaka Regency",SULAWESI TENGGARA,93561.0,Indonesia,82346408812.0,,,-4.107462,121.674585,https://maps.google.com/?cid=0x0:0xc91a042cfc3a25b7,
supermarket,Toko bahan makanan,Indomaret 19 Nopember Kolaka,"WJ7W+JWH, 19 Nopember, Kec. Wundulako, Kabupaten Kolaka, Sulawesi Tenggara 93561","19 Nopember, Kec. Wundulako, Kabupaten Kolaka",SULAWESI TENGGARA,93561.0,Indonesia,,,,-4.0861011,121.64741,https://maps.google.com/?cid=0x0:0x7bafc9fb88286d88,
supermarket,,Black N White,"WM26+4QC, Wundulako, Kec. Wundulako, Kabupaten Kolaka, Sulawesi Tenggara 93561","Wundulako, Kec. Wundulako, Kabupaten Kolaka",SULAWESI TENGGARA,93561.0,Indonesia,81341505606.0,,,-4.0996851,121.6619038,https://maps.google.com/?cid=0x0:0xbe6960d44c44032b,
supermarket,Toko,toko jiwa murni,"Jl. Poros Kolaka - Pomalaa No.73, Lamekongga, Kec. Wundulako, Kabupaten Kolaka, Sulawesi Tenggara 93561","Lamekongga, Kec. Wundulako, Kabupaten Kolaka",SULAWESI TENGGARA,93561.0,Indonesia,,,,-4.122436,121.6737738,https://maps.google.com/?cid=0x0:0x295d62d443a76d1f,
supermarket,,Kios Sumarni,"WJ8W+6RW, 19 Nopember, Kec. Wundulako, Kabupaten Kolaka, Sulawesi Tenggara 93561","19 Nopember, Kec. Wundulako, Kabupaten Kolaka",SULAWESI TENGGARA,93561.0,Indonesia,,,,-4.0843978,121.6470654,https://maps.google.com/?cid=0x0:0x5856f76a5e32eba5,
supermarket,Kios,Kios Adil,"VMFF+835, Jl. Poros Kolaka - Pomalaa, Ngapa, Kec. Wundulako, Kabupaten Kolaka, Sulawesi Tenggara 93561","Jl. Poros Kolaka - Pomalaa, Ngapa, Kec. Wundulako, Kabupaten Kolaka",SULAWESI TENGGARA,93561.0,Indonesia,82293644640.0,,,-4.1267334,121.6727378,https://maps.google.com/?cid=0x0:0x2c2251a8e6552f94,
supermarket,Toko umum,WaLiA CeLL,"VMX7+CQW, Wundulako, Kec. Wundulako, Kabupaten Kolaka, Sulawesi Tenggara 93561","Wundulako, Kec. Wundulako, Kabupaten Kolaka",SULAWESI TENGGARA,93561.0,Indonesia,82187375920.0,,,-4.1013846,121.6644397,https://maps.google.com/?cid=0x0:0x121d9afa0ea64c14,
supermarket,Toko,Toko Fadil,"WJ75+FWC, Jl. Mekongga Indah, Towua I, Kec. Wundulako, Kabupaten Kolaka, Sulawesi Tenggara 93561","Jl. Mekongga Indah, Towua I, Kec. Wundulako, Kabupaten Kolaka",SULAWESI TENGGARA,93561.0,Indonesia,85240846765.0,,,-4.0863245,121.6097712,https://maps.google.com/?cid=0x0:0xe2522aede9dff9d0,
supermarket,Toko bahan makanan,Indomaret Wondulako Kolaka,"VMGF+86P, Lamekongga, Kec. Wundulako, Kabupaten Kolaka, Sulawesi Tenggara 93561","Lamekongga, Kec. Wundulako, Kabupaten Kolaka",SULAWESI TENGGARA,93561.0,Indonesia,,,,-4.1245833,121.6728889,https://maps.google.com/?cid=0x0:0xd1b7b84eebbfa5f7,
supermarket,Toko,Alfamidi alam mekongga,"WJP6+G79, Kolaka, Sakuli, Kec. Latambaga, Kabupaten Kolaka, Sulawesi Tenggara 93561","Kolaka, Sakuli, Kec. Latambaga, Kabupaten Kolaka",SULAWESI TENGGARA,93561.0,Indonesia,81290110681.0,,,-4.0637171,121.6107345,https://maps.google.com/?cid=0x0:0xfa6a89ad363b3b2c,
supermarket,Toko,Kios Maniez,"WM26+893, Jl. Sumber Rejeki, Wundulako, Kec. Wundulako, Kabupaten Kolaka, Sulawesi Tenggara 93561","Jl. Sumber Rejeki, Wundulako, Kec. Wundulako, Kabupaten Kolaka",SULAWESI TENGGARA,93561.0,Indonesia,,,,-4.0992327,121.660917,https://maps.google.com/?cid=0x0:0x889c24ef26fcbd99,
supermarket,Toko umum,Toko AQSHA,"VMM8+8R5, Unamendaa, Kec. Wundulako, Kabupaten Kolaka, Sulawesi Tenggara 93561","Unamendaa, Kec. Wundulako, Kabupaten Kolaka",SULAWESI TENGGARA,93561.0,Indonesia,,,,-4.1167374,121.6671142,https://maps.google.com/?cid=0x0:0xb7a1f14db474a988,
supermarket,Toko,Toko Sinar Solo,"Jl. Kadue No.24, Sea, Kec. Latambaga, Kabupaten Kolaka, Sulawesi Tenggara 93511","Sea, Kec. Latambaga, Kabupaten Kolaka",SULAWESI TENGGARA,93511.0,Indonesia,82399129558.0,,,-4.0506084,121.5896663,https://maps.google.com/?cid=0x0:0xb95b3de602462d47,
supermarket,Toko bahan makanan,fresh mart kolaka,"WHVX+VVC, Jl. Khairil Anwar, Lamokato, Kec. Kolaka, Kabupaten Kolaka, Sulawesi Tenggara 93511","Jl. Khairil Anwar, Lamokato, Kec. Kolaka, Kabupaten Kolaka",SULAWESI TENGGARA,93511.0,Indonesia,82337007251.0,,,-4.0553066,121.599639,https://maps.google.com/?cid=0x0:0xba5afadb253a8d0,
supermarket,supermarket,kios priscilla,"VMP7+H26, Unamendaa, Kec. Wundulako, Kabupaten Kolaka, Sulawesi Tenggara 93561","Unamendaa, Kec. Wundulako, Kabupaten Kolaka",SULAWESI TENGGARA,93561.0,Indonesia,,,,-4.1135782,121.6625239,https://maps.google.com/?cid=0x0:0x32d42da9b97ece05,
supermarket,Toko bahan makanan,Toko Sukses,"Jl. TMD, Laloeha, Kec. Kolaka, Kabupaten Kolaka, Sulawesi Tenggara 93561","Laloeha, Kec. Kolaka, Kabupaten Kolaka",SULAWESI TENGGARA,93561.0,Indonesia,,,,-4.0685199,121.6150086,https://maps.google.com/?cid=0x0:0x8103601d1d84ee95,
supermarket,Toko,Alfamidi Repelita,"Jl. Repelita No.7, Sea, Kec. Kolaka, Kabupaten Kolaka, Sulawesi Tenggara 93511","Sea, Kec. Kolaka, Kabupaten Kolaka",SULAWESI TENGGARA,93511.0,Indonesia,,,,-4.0521236,121.5922483,https://maps.google.com/?cid=0x0:0xf6327ffab0723770,
supermarket,Kios,Toko Karya Subur,"WHVR+XHJ, Jl. Bakti, Latambaga, Kec. Latambaga, Kabupaten Kolaka, Sulawesi Tenggara","Kabupaten Kolaka, Sulawesi Tenggara",SULAWESI TENGGARA,,Indonesia,,,,-4.0550269,121.5913788,https://maps.google.com/?cid=0x0:0xabf06326c09063d8,
supermarket,Toko bahan makanan,Toko ZAMZAM2,"WJPC+45H, Jl. Pendidikan, Balandete, Kec. Kolaka, Kabupaten Kolaka, Sulawesi Tenggara 93561","Jl. Pendidikan, Balandete, Kec. Kolaka, Kabupaten Kolaka",SULAWESI TENGGARA,93561.0,Indonesia,,,,-4.0646765,121.6204818,https://maps.google.com/?cid=0x0:0x19d31fd3857d143d,
supermarket,Toko Perlengkapan Rumah,Toko Al Fatih,"19 Nopember, Kec. Wundulako, Kabupaten Kolaka, Sulawesi Tenggara 93561","Kec. Wundulako, Kabupaten Kolaka",SULAWESI TENGGARA,93561.0,Indonesia,85342585006.0,,,-4.0907694,121.6499205,https://maps.google.com/?cid=0x0:0xfb8cdccd08d9d304,
supermarket,Sekolah,Tk.Anindya TMD,"WJJ8+P5X, Jl. Pintu Selatan, Laloeha, Kec. Kolaka, Kabupaten Kolaka, Sulawesi Tenggara 93561","Jl. Pintu Selatan, Laloeha, Kec. Kolaka, Kabupaten Kolaka",SULAWESI TENGGARA,93561.0,Indonesia,85340667454.0,,,-4.0681417,121.6154739,https://maps.google.com/?cid=0x0:0x608364a3de5e18b7,
supermarket,Studio Fotografi,TOKO RISKA NAGET,"WJJ9+RRR, Jl. Lorong Mistik, Tahoa, Kec. Kolaka, Kabupaten Kolaka, Sulawesi Tenggara 93561","Jl. Lorong Mistik, Tahoa, Kec. Kolaka, Kabupaten Kolaka",SULAWESI TENGGARA,93561.0,Indonesia,81344449778.0,,,-4.0678944,121.6195191,https://maps.google.com/?cid=0x0:0x38f62b13430de780,
supermarket,Toko Makanan,Balandete Mart,"WJGH+3JM, Jl. Pemuda, Balandete, Kec. Kolaka, Kabupaten Kolaka, Sulawesi Tenggara 93561","Jl. Pemuda, Balandete, Kec. Kolaka, Kabupaten Kolaka",SULAWESI TENGGARA,93561.0,Indonesia,82298142480.0,,,-4.07478,121.6290517,https://maps.google.com/?cid=0x0:0x139fe0a572e48426,
supermarket,Minimarket,Kios Aril,"VM52+V65, Puubunga, Kec. Baula, Kabupaten Kolaka, Sulawesi Tenggara","Kabupaten Kolaka, Sulawesi Tenggara",SULAWESI TENGGARA,,Indonesia,85241580338.0,,,-4.1403647,121.6506172,https://maps.google.com/?cid=0x0:0x8d4ec421c778a72,
