Category,Real Category,Business Name,Address,City,State,Postal Code,Country,Phone,Email,Website,Latitude,Longitude,Map Link,Details Link
building materials,Toko Bahan Bangunan,TOKO Sinar Galaxi,"H6CR+XJ8, Unnamed Road, Loura, Kabupaten Barat Daya, Nusa Tenggara Tim., Radamata, Kec. Loura, Kabupaten Sumba Barat Daya, Nusa Tenggara Tim.","Kabupaten Sumba Barat Daya, Nusa Tenggara Tim.",NUSA TENGGARA TIMUR,,Indonesia,,,,-9.427579,119.2415805,https://maps.google.com/?cid=0x0:0x50d8175272a243a8,
building materials,Toko Bahan Bangunan,Toko Aurora,"Jl. Timotius Tako Geli, Radamata, Kec. Kota Tambolaka, Kabupaten Sumba Barat Daya, Nusa Tenggara Tim. 87255","Radamata, Kec. Kota Tambolaka, Kabupaten Sumba Barat Daya",NUSA TENGGARA TIMUR,87255.0,Indonesia,85257823823.0,,,-9.4274792,119.2417716,https://maps.google.com/?cid=0x0:0x952628c1d397d0fe,
building materials,building materials,kios putra azar,"FCGF+54, Kareka Nduku, Kec. Tana Righu, Kabupaten Sumba Barat, Nusa Tenggara Tim.","Kabupaten Sumba Barat, Nusa Tenggara Tim.",NUSA TENGGARA TIMUR,,Indonesia,,,,-9.5245579,119.4228131,https://maps.google.com/?cid=0x0:0x718efdf149b65b9d,
building materials,building materials,Kec. Tebet,"Kota Jakarta Selatan, Daerah Khusus Ibukota Jakarta","Kota Jakarta Selatan, Daerah Khusus Ibukota Jakarta",NUSA TENGGARA TIMUR,,Indonesia,,,,-6.2251223,106.8549881,https://maps.google.com/?cid=0x0:0xd575e31c807295f9,
building materials,building materials,Loli,"Popnam, Kec. Noemuti, Kabupaten Timor Tengah Utara, Nusa Tenggara Tim.","Kabupaten Timor Tengah Utara, Nusa Tenggara Tim.",NUSA TENGGARA TIMUR,,Indonesia,,,,-9.660561,124.526604,https://maps.google.com/?cid=0x0:0x50eebe88faef0b3b,
building materials,Toko Perlengkapan Rumah,Saudara Bangunan,"9C43+5CV, Wee Karou, Kec. Loli, Kabupaten Sumba Barat, Nusa Tenggara Tim.","Kabupaten Sumba Barat, Nusa Tenggara Tim.",NUSA TENGGARA TIMUR,,Indonesia,,,,-9.6445021,119.403561,https://maps.google.com/?cid=0x0:0xbd0bec82e2e0b21f,
building materials,,Penjualan material koral,"Lumbukore, Kec. Umalulu, Kabupaten Sumba Timur, Nusa Tenggara Tim. 87180","Kec. Umalulu, Kabupaten Sumba Timur",NUSA TENGGARA TIMUR,87180.0,Indonesia,81236402153.0,,,-9.8957833,120.6606125,https://maps.google.com/?cid=0x0:0x3f081cc4572ae5dc,
building materials,Toko Perlengkapan Atap,Head Office JuraganMaterial.id,"Jl. Cideng Timur No.66 2nd floor, Petojo Sel., Kecamatan Gambir, Kota Jakarta Pusat, Daerah Khusus Ibukota Jakarta 10150","Petojo Sel., Kecamatan Gambir, Kota Jakarta Pusat",NUSA TENGGARA TIMUR,10150.0,Indonesia,213857057.0,,,-6.1747174,106.8120889,https://maps.google.com/?cid=0x0:0x6017818db6ef043,
building materials,Toko Cat,PT. Mowilex Indonesia,"PT mowilex Indonesia, Jl. Daan Mogot No.2a km 10 no, Kedaung Kali Angke, Kecamatan Cengkareng, Kota Jakarta Barat, Daerah Khusus Ibukota Jakarta 11710","Jl. Daan Mogot No.2a km 10 no, Kedaung Kali Angke, Kecamatan Cengkareng, Kota Jakarta Barat",NUSA TENGGARA TIMUR,11710.0,Indonesia,215406663.0,,,-6.1583985,106.7594213,https://maps.google.com/?cid=0x0:0xac70b6be5526bfb5,
building materials,,PT MONOTARO INDONESIA,"Wisma Keiai, Jl. Jenderal Sudirman No.Kav. 3 Lantai 12 A, RT.10/RW.11, Karet Tengsin, Kecamatan Tanah Abang, Kota Jakarta Pusat, Daerah Khusus Ibukota Jakarta 10250","Jl. Jenderal Sudirman No.Kav. 3 Lantai 12 A, RT.10/RW.11, Karet Tengsin, Kecamatan Tanah Abang, Kota Jakarta Pusat",NUSA TENGGARA TIMUR,10250.0,Indonesia,2131106990.0,,,-6.2058856,106.8214639,https://maps.google.com/?cid=0x0:0x7b55aa0e5f409364,
building materials,Toko Bahan Bangunan,Toko Lima Bintang Bangunan,"Jl. Ring Road Waikabubak, Pada Eweta, Kec. Kota Waikabubak, Kabupaten Sumba Barat, Nusa Tenggara Tim.","Kabupaten Sumba Barat, Nusa Tenggara Tim.",NUSA TENGGARA TIMUR,,Indonesia,81236835505.0,,,-9.6253098,119.389322,https://maps.google.com/?cid=0x0:0x2400e10b9df95a55,
building materials,Toko Bahan Bangunan,Toko Nuansa Bangunan Dan Tehnik,"9C75+HG9, Wailiang, Kec. Kota Waikabubak, Kabupaten Sumba Barat, Nusa Tenggara Tim.","Kabupaten Sumba Barat, Nusa Tenggara Tim.",NUSA TENGGARA TIMUR,,Indonesia,81339419509.0,,,-9.6360822,119.4088515,https://maps.google.com/?cid=0x0:0xa546d9dc5012925e,
building materials,building materials,Kec. Wanokaka,"Kabupaten Sumba Barat, Nusa Tenggara Tim.","Kabupaten Sumba Barat, Nusa Tenggara Tim.",NUSA TENGGARA TIMUR,,Indonesia,,,,-9.7227274,119.4528333,https://maps.google.com/?cid=0x0:0xb894aaab28ba27d5,
building materials,Toko Bahan Bangunan,Toko Amerta,"Jl. Jend. Sudirman No.3, Kp. Sawah, Kec. Kota Waikabubak, Kabupaten Sumba Barat, Nusa Tenggara Tim.","Kabupaten Sumba Barat, Nusa Tenggara Tim.",NUSA TENGGARA TIMUR,,Indonesia,82122228701.0,,,-9.635767,119.4129349,https://maps.google.com/?cid=0x0:0xd990784987776293,
building materials,Toko Perlengkapan Rumah,Toko Makmur Jaya Bangunan,"Jl. Bhayangkara, Pada Eweta, Kec. Kota Waikabubak, Kabupaten Sumba Barat, Nusa Tenggara Tim. 87217","Pada Eweta, Kec. Kota Waikabubak, Kabupaten Sumba Barat",NUSA TENGGARA TIMUR,87217.0,Indonesia,81339020447.0,,,-9.6259517,119.4038705,https://maps.google.com/?cid=0x0:0x2bfca63c0a2429f6,
building materials,Toko Bahan Bangunan,Toko Duta Bangunan,"CH3M+GQ8, Wai Rasa, Kec. Umbu Ratu Nggay Bar., Kabupaten Sumba Tengah, Nusa Tenggara Tim.","Kabupaten Sumba Tengah, Nusa Tenggara Tim.",NUSA TENGGARA TIMUR,,Indonesia,,,,-9.5962137,119.5844623,https://maps.google.com/?cid=0x0:0x7e609489f14c4fbb,
building materials,Toko Bahan Bangunan,Wahana bangunan,"Jl. H. Adam Malik No.km.3, Kambajawa, Kec. Kota Waingapu, Kabupaten Sumba Timur, Nusa Tenggara Tim. 87111","Kambajawa, Kec. Kota Waingapu, Kabupaten Sumba Timur",NUSA TENGGARA TIMUR,87111.0,Indonesia,82295440105.0,,,-9.6601674,120.2532787,https://maps.google.com/?cid=0x0:0x5cd07685c43f5057,
building materials,Tujuan Wisata,Wanukaka,"7FG3+W44, Wai Hura, Kec. Wanokaka, Kabupaten Sumba Barat, Nusa Tenggara Tim.","Kabupaten Sumba Barat, Nusa Tenggara Tim.",NUSA TENGGARA TIMUR,,Indonesia,,,,-9.7227274,119.4528333,https://maps.google.com/?cid=0x0:0x6026b074f6ef63ce,
building materials,Toko Bahan Bangunan,Nusa Makmur,"Jl. Ahmad Yani No.85, Kamalaputi, Kec. Kota Waingapu, Kabupaten Sumba Timur, Nusa Tenggara Tim.","Kabupaten Sumba Timur, Nusa Tenggara Tim.",NUSA TENGGARA TIMUR,,Indonesia,38761422.0,,,-9.6507019,120.2641817,https://maps.google.com/?cid=0x0:0x3da0938fd27c40f6,
building materials,Gudang,Gudang kayu Cv. Matawai Marunga,"87H7+8JR, Jl kakatua, praiwora, Kambajawa, Kec. Kota Waingapu, Kabupaten Sumba Timur, Nusa Tenggara Tim.","Kabupaten Sumba Timur, Nusa Tenggara Tim.",NUSA TENGGARA TIMUR,,Indonesia,81364569453.0,,,-9.6716382,120.2640153,https://maps.google.com/?cid=0x0:0xa78f84cfa0eeaaaa,
building materials,building materials,Waka mana,"F399+34H, Wangka Sel., Kec. Riung, Kabupaten Ngada, Nusa Tenggara Tim.","Kabupaten Ngada, Nusa Tenggara Tim.",NUSA TENGGARA TIMUR,,Indonesia,,,,-8.5323221,121.0678732,https://maps.google.com/?cid=0x0:0x60fe789ef5c42508,
building materials,Toko,KASIH BERKAT,"Walla Ndimu, Kec. Kodi Bangedo, Kabupaten Sumba Barat Daya, Nusa Tenggara Tim. 87264","Kec. Kodi Bangedo, Kabupaten Sumba Barat Daya",NUSA TENGGARA TIMUR,87264.0,Indonesia,81335789980.0,,,-9.6260985,119.0411577,https://maps.google.com/?cid=0x0:0xe29ea410343cacdf,
building materials,Kontraktor Umum,Batako Waimangura,"F6VF+X3H, Kabali Dana, Kec. Wewewa Bar., Kabupaten Sumba Barat Daya, Nusa Tenggara Tim.","Kabupaten Sumba Barat Daya, Nusa Tenggara Tim.",NUSA TENGGARA TIMUR,,Indonesia,81338605233.0,,,-9.5050707,119.2227223,https://maps.google.com/?cid=0x0:0x455bbb4af2cbbab,
building materials,building materials,Lelewatu Resort Sumba,"Jl. Lelewatu No.168, Hoba Wawi, Wanokaka, Sumba, East Nusa Tenggara 87272","Hoba Wawi, Wanokaka, Sumba",NUSA TENGGARA TIMUR,87272.0,Indonesia,81139606060.0,,,-9.7911026,119.3807849,https://maps.google.com/?cid=0x0:0xe3cfeaac2ee41407,
building materials,building materials,The Sanubari,"pantai Dasang, Harona Kala, Laboya Barat, West Sumba Regency, East Nusa Tenggara","Kabupaten Sumba Barat, Nusa Tenggara Tim.",NUSA TENGGARA TIMUR,,Indonesia,82146394499.0,,,-9.7513736,119.307935,https://maps.google.com/?cid=0x0:0xe6500b803b15497b,
building materials,building materials,Nihiwatu Beach,Nusa Tenggara Tim.,Nusa Tenggara Tim.,NUSA TENGGARA TIMUR,,Indonesia,,,,-9.7720795,119.3682249,https://maps.google.com/?cid=0x0:0x54c747e3fc22ac63,
building materials,Sekolah menengah,SMP Negeri 1 Wanukaka,"7F73+7RF, Jln. Pasola, Wai Hura, Kec. Wanokaka, Kabupaten Sumba Barat, Nusa Tenggara Tim.","Kabupaten Sumba Barat, Nusa Tenggara Tim.",NUSA TENGGARA TIMUR,,Indonesia,,,,-9.736801,119.4545506,https://maps.google.com/?cid=0x0:0xbe8f64f3e17cb85,
building materials,Kontraktor Umum,MITRA SEJATI,"9C55+Q3F, Wailiang, Kec. Kota Waikabubak, Kabupaten Sumba Barat, Nusa Tenggara Tim.","Kabupaten Sumba Barat, Nusa Tenggara Tim.",NUSA TENGGARA TIMUR,,Indonesia,,,,-9.6405613,119.4076847,https://maps.google.com/?cid=0x0:0xf7e6717d37618975,
building materials,Toko Bahan Bangunan,Toko Maju Jaya,"Jl. Ahmad Yani No.53, Wailiang, Kec. Kota Waikabubak, Kabupaten Sumba Barat, Nusa Tenggara Tim.","Kabupaten Sumba Barat, Nusa Tenggara Tim.",NUSA TENGGARA TIMUR,,Indonesia,,,,-9.6345057,119.4101474,https://maps.google.com/?cid=0x0:0x15d31afb4b76e8da,
building materials,Toko umum,Toko Ahong,"7C52+PF3, Ringu Rara, Kec. Lamboya, Kabupaten Sumba Barat, Nusa Tenggara Tim.","Kabupaten Sumba Barat, Nusa Tenggara Tim.",NUSA TENGGARA TIMUR,,Indonesia,,,,-9.7407269,119.4011595,https://maps.google.com/?cid=0x0:0xa2fd219cad17b521,
building materials,Toko bahan makanan,Prima Dewata,"Unnamed Rd, Anakalang, Kec. Katikutana, Kabupaten Sumba Tengah, Nusa Tenggara Tim.","Kabupaten Sumba Tengah, Nusa Tenggara Tim.",NUSA TENGGARA TIMUR,,Indonesia,,,,-9.5908748,119.5778647,https://maps.google.com/?cid=0x0:0xe4385341afe88f41,
building materials,Toko Bahan Bangunan,Toko Sari jaya,"Jl. Ahmad Yani No.46, Maliti, Kec. Kota Waikabubak, Kabupaten Sumba Barat, Nusa Tenggara Tim.","Kabupaten Sumba Barat, Nusa Tenggara Tim.",NUSA TENGGARA TIMUR,,Indonesia,,,,-9.6343214,119.4099849,https://maps.google.com/?cid=0x0:0xe8e29f399da2912a,
building materials,Toko Ponsel,FB CELL/FB SCHOOL UNIFORM SHOP,"Jl. Pisang, Wailiang, Kec. Kota Waikabubak, Kabupaten Sumba Barat, Nusa Tenggara Tim. 87211","Wailiang, Kec. Kota Waikabubak, Kabupaten Sumba Barat",NUSA TENGGARA TIMUR,87211.0,Indonesia,81239776933.0,,,-9.6371126,119.404192,https://maps.google.com/?cid=0x0:0x98168b7cf3fdce9,
building materials,building materials,Kec. Lamboya,"Kabupaten Sumba Barat, Nusa Tenggara Tim.","Kabupaten Sumba Barat, Nusa Tenggara Tim.",NUSA TENGGARA TIMUR,,Indonesia,,,,-9.7205484,119.35646,https://maps.google.com/?cid=0x0:0x5968d2d2a2f91860,
building materials,Toko Perlengkapan Rumah,Saudara Bangunan,"9C43+5CV, Wee Karou, Kec. Loli, Kabupaten Sumba Barat, Nusa Tenggara Tim.","Kabupaten Sumba Barat, Nusa Tenggara Tim.",NUSA TENGGARA TIMUR,,Indonesia,,,,-9.6445021,119.403561,https://maps.google.com/?cid=0x0:0xbd0bec82e2e0b21f,
building materials,Toko Perlengkapan Rumah,Batako Lamboya,"Jln.Logowa, Desa Ringurara, Kec. Lamboya, Kabupaten Sumba Barat, Nusa Tenggara Tim.","Kabupaten Sumba Barat, Nusa Tenggara Tim.",NUSA TENGGARA TIMUR,,Indonesia,81237365187.0,,,-9.7292006,119.3730587,https://maps.google.com/?cid=0x0:0x820571183f355c57,
building materials,Pemasok Bahan Bangunan,ANM 1,"4M46+7HC, Lumbukore, Kec. Umalulu, Kabupaten Sumba Timur, Nusa Tenggara Tim.","Kabupaten Sumba Timur, Nusa Tenggara Tim.",NUSA TENGGARA TIMUR,,Indonesia,,,,-9.8936155,120.6602551,https://maps.google.com/?cid=0x0:0x323b1fc5734ef2ca,
building materials,Toko Bahan Bangunan,Toko Duta Bangunan,"CH3M+GQ8, Wai Rasa, Kec. Umbu Ratu Nggay Bar., Kabupaten Sumba Tengah, Nusa Tenggara Tim.","Kabupaten Sumba Tengah, Nusa Tenggara Tim.",NUSA TENGGARA TIMUR,,Indonesia,,,,-9.5962137,119.5844623,https://maps.google.com/?cid=0x0:0x7e609489f14c4fbb,
building materials,Komplek perumahan,Bodowunta,"7972+HFV, Laboya Bawa, Kec. Lamboya, Kabupaten Sumba Barat, Nusa Tenggara Tim.","Kabupaten Sumba Barat, Nusa Tenggara Tim.",NUSA TENGGARA TIMUR,,Indonesia,,,,-9.736021,119.3511681,https://maps.google.com/?cid=0x0:0x56bf636cfae5d5e9,
building materials,Polisi Sipil,Polsek Lamboya,"79H5+J3V, Kabu Karudi, Kec. Lamboya, Kabupaten Sumba Barat, Nusa Tenggara Tim.","Kabupaten Sumba Barat, Nusa Tenggara Tim.",NUSA TENGGARA TIMUR,,Indonesia,,,,-9.7208757,119.3576767,https://maps.google.com/?cid=0x0:0x32bfa94efbb3c036,
building materials,Toko Bahan Bangunan,TOKO Sinar Galaxi,"H6CR+XJ8, Unnamed Road, Loura, Kabupaten Barat Daya, Nusa Tenggara Tim., Radamata, Kec. Loura, Kabupaten Sumba Barat Daya, Nusa Tenggara Tim.","Kabupaten Sumba Barat Daya, Nusa Tenggara Tim.",NUSA TENGGARA TIMUR,,Indonesia,,,,-9.427579,119.2415805,https://maps.google.com/?cid=0x0:0x50d8175272a243a8,
building materials,Sekolah menengah,SMP Negeri 1 Lamboya,"79H4+9R7, Kabu Karudi, Kec. Lamboya, Kabupaten Sumba Barat, Nusa Tenggara Tim.","Kabupaten Sumba Barat, Nusa Tenggara Tim.",NUSA TENGGARA TIMUR,,Indonesia,,,,-9.7215794,119.3570466,https://maps.google.com/?cid=0x0:0xa39a2b41262a2ba7,
building materials,Toko umum,Toko Ahong,"7C52+PF3, Ringu Rara, Kec. Lamboya, Kabupaten Sumba Barat, Nusa Tenggara Tim.","Kabupaten Sumba Barat, Nusa Tenggara Tim.",NUSA TENGGARA TIMUR,,Indonesia,,,,-9.7407269,119.4011595,https://maps.google.com/?cid=0x0:0xa2fd219cad17b521,
building materials,Toko Bahan Bangunan,Toko Lima Bintang Bangunan,"Jl. Ring Road Waikabubak, Pada Eweta, Kec. Kota Waikabubak, Kabupaten Sumba Barat, Nusa Tenggara Tim.","Kabupaten Sumba Barat, Nusa Tenggara Tim.",NUSA TENGGARA TIMUR,,Indonesia,81236835505.0,,,-9.6253098,119.389322,https://maps.google.com/?cid=0x0:0x2400e10b9df95a55,
building materials,Toko Bahan Bangunan,Merdeka,"Jl. Bhayangkara No.38, Komerda, Kec. Kota Waikabubak, Kabupaten Sumba Barat, Nusa Tenggara Tim.","Kabupaten Sumba Barat, Nusa Tenggara Tim.",NUSA TENGGARA TIMUR,,Indonesia,,,,-9.6287962,119.4078268,https://maps.google.com/?cid=0x0:0xdc5a3c120ad9d757,
building materials,Toko Bahan Bangunan,Toko Amerta,"Jl. Jend. Sudirman No.3, Kp. Sawah, Kec. Kota Waikabubak, Kabupaten Sumba Barat, Nusa Tenggara Tim.","Kabupaten Sumba Barat, Nusa Tenggara Tim.",NUSA TENGGARA TIMUR,,Indonesia,82122228701.0,,,-9.635767,119.4129349,https://maps.google.com/?cid=0x0:0xd990784987776293,
building materials,Kontraktor Umum,MITRA SEJATI,"9C55+Q3F, Wailiang, Kec. Kota Waikabubak, Kabupaten Sumba Barat, Nusa Tenggara Tim.","Kabupaten Sumba Barat, Nusa Tenggara Tim.",NUSA TENGGARA TIMUR,,Indonesia,,,,-9.6405613,119.4076847,https://maps.google.com/?cid=0x0:0xf7e6717d37618975,
building materials,Toko Bahan Bangunan,Morika Bangunan,"9CF3+M7M, Jl. Bhayangkara, Pada Eweta, Kec. Kota Waikabubak, Kabupaten Sumba Barat, Nusa Tenggara Tim.","Kabupaten Sumba Barat, Nusa Tenggara Tim.",NUSA TENGGARA TIMUR,,Indonesia,,,,-9.62591,119.403323,https://maps.google.com/?cid=0x0:0x534832efc7043aa5,
building materials,Toko Bahan Bangunan,Toko Maju Jaya,"Jl. Ahmad Yani No.53, Wailiang, Kec. Kota Waikabubak, Kabupaten Sumba Barat, Nusa Tenggara Tim.","Kabupaten Sumba Barat, Nusa Tenggara Tim.",NUSA TENGGARA TIMUR,,Indonesia,,,,-9.6345057,119.4101474,https://maps.google.com/?cid=0x0:0x15d31afb4b76e8da,
building materials,Bangunan Bersejarah,Waru Wora,"68XJ+PHG, Patiala Bawa, Kec. Lamboya, Kabupaten Sumba Barat, Nusa Tenggara Tim.","Kabupaten Sumba Barat, Nusa Tenggara Tim.",NUSA TENGGARA TIMUR,,Indonesia,,,,-9.7506872,119.3314418,https://maps.google.com/?cid=0x0:0x30cc43fee1df7e46,
building materials,Toko Bahan Bangunan,Toko Sari jaya,"Jl. Ahmad Yani No.46, Maliti, Kec. Kota Waikabubak, Kabupaten Sumba Barat, Nusa Tenggara Tim.","Kabupaten Sumba Barat, Nusa Tenggara Tim.",NUSA TENGGARA TIMUR,,Indonesia,,,,-9.6343214,119.4099849,https://maps.google.com/?cid=0x0:0xe8e29f399da2912a,
building materials,Toko Ponsel,FB CELL/FB SCHOOL UNIFORM SHOP,"Jl. Pisang, Wailiang, Kec. Kota Waikabubak, Kabupaten Sumba Barat, Nusa Tenggara Tim. 87211","Wailiang, Kec. Kota Waikabubak, Kabupaten Sumba Barat",NUSA TENGGARA TIMUR,87211.0,Indonesia,81239776933.0,,,-9.6371126,119.404192,https://maps.google.com/?cid=0x0:0x98168b7cf3fdce9,
building materials,Toko Perlengkapan Rumah,Toko Makmur Jaya Bangunan,"Jl. Bhayangkara, Pada Eweta, Kec. Kota Waikabubak, Kabupaten Sumba Barat, Nusa Tenggara Tim. 87217","Pada Eweta, Kec. Kota Waikabubak, Kabupaten Sumba Barat",NUSA TENGGARA TIMUR,87217.0,Indonesia,81339020447.0,,,-9.6259517,119.4038705,https://maps.google.com/?cid=0x0:0x2bfca63c0a2429f6,
building materials,building materials,Kec. Kota Waikabubak,"Kabupaten Sumba Barat, Nusa Tenggara Tim.","Kabupaten Sumba Barat, Nusa Tenggara Tim.",NUSA TENGGARA TIMUR,,Indonesia,,,,-9.6318508,119.4116981,https://maps.google.com/?cid=0x0:0xc0a3b8deb8dcb273,
building materials,Toko Bahan Bangunan,Toko Lima Bintang Bangunan,"Jl. Ring Road Waikabubak, Pada Eweta, Kec. Kota Waikabubak, Kabupaten Sumba Barat, Nusa Tenggara Tim.","Kabupaten Sumba Barat, Nusa Tenggara Tim.",NUSA TENGGARA TIMUR,,Indonesia,81236835505.0,,,-9.6253098,119.389322,https://maps.google.com/?cid=0x0:0x2400e10b9df95a55,
building materials,Toko Bahan Bangunan,Toko Nuansa Bangunan Dan Tehnik,"9C75+HG9, Wailiang, Kec. Kota Waikabubak, Kabupaten Sumba Barat, Nusa Tenggara Tim.","Kabupaten Sumba Barat, Nusa Tenggara Tim.",NUSA TENGGARA TIMUR,,Indonesia,81339419509.0,,,-9.6360822,119.4088515,https://maps.google.com/?cid=0x0:0xa546d9dc5012925e,
building materials,Toko Bahan Bangunan,Toko Sentosa Jaya,"Jl. Bhayangkara No.38, Komerda, Kec. Kota Waikabubak, Kabupaten Sumba Barat, Nusa Tenggara Tim.","Kabupaten Sumba Barat, Nusa Tenggara Tim.",NUSA TENGGARA TIMUR,,Indonesia,38721381.0,,,-9.6289424,119.4079712,https://maps.google.com/?cid=0x0:0x383aa15223e6032a,
building materials,Toko Perlengkapan Rumah,Toko Makmur Jaya Bangunan,"Jl. Bhayangkara, Pada Eweta, Kec. Kota Waikabubak, Kabupaten Sumba Barat, Nusa Tenggara Tim. 87217","Pada Eweta, Kec. Kota Waikabubak, Kabupaten Sumba Barat",NUSA TENGGARA TIMUR,87217.0,Indonesia,81339020447.0,,,-9.6259517,119.4038705,https://maps.google.com/?cid=0x0:0x2bfca63c0a2429f6,
building materials,Toko Bahan Bangunan,Morika Bangunan,"9CF3+M7M, Jl. Bhayangkara, Pada Eweta, Kec. Kota Waikabubak, Kabupaten Sumba Barat, Nusa Tenggara Tim.","Kabupaten Sumba Barat, Nusa Tenggara Tim.",NUSA TENGGARA TIMUR,,Indonesia,,,,-9.62591,119.403323,https://maps.google.com/?cid=0x0:0x534832efc7043aa5,
building materials,Toko Ponsel,FB CELL/FB SCHOOL UNIFORM SHOP,"Jl. Pisang, Wailiang, Kec. Kota Waikabubak, Kabupaten Sumba Barat, Nusa Tenggara Tim. 87211","Wailiang, Kec. Kota Waikabubak, Kabupaten Sumba Barat",NUSA TENGGARA TIMUR,87211.0,Indonesia,81239776933.0,,,-9.6371126,119.404192,https://maps.google.com/?cid=0x0:0x98168b7cf3fdce9,
building materials,building materials,Kec. Kota Waikabubak,"Kabupaten Sumba Barat, Nusa Tenggara Tim.","Kabupaten Sumba Barat, Nusa Tenggara Tim.",NUSA TENGGARA TIMUR,,Indonesia,,,,-9.6318508,119.4116981,https://maps.google.com/?cid=0x0:0xc0a3b8deb8dcb273,
building materials,Toko Bahan Bangunan,Toko Lima Bintang Bangunan,"Jl. Ring Road Waikabubak, Pada Eweta, Kec. Kota Waikabubak, Kabupaten Sumba Barat, Nusa Tenggara Tim.","Kabupaten Sumba Barat, Nusa Tenggara Tim.",NUSA TENGGARA TIMUR,,Indonesia,81236835505.0,,,-9.6253098,119.389322,https://maps.google.com/?cid=0x0:0x2400e10b9df95a55,
building materials,Toko Bahan Bangunan,Toko Nuansa Bangunan Dan Tehnik,"9C75+HG9, Wailiang, Kec. Kota Waikabubak, Kabupaten Sumba Barat, Nusa Tenggara Tim.","Kabupaten Sumba Barat, Nusa Tenggara Tim.",NUSA TENGGARA TIMUR,,Indonesia,81339419509.0,,,-9.6360822,119.4088515,https://maps.google.com/?cid=0x0:0xa546d9dc5012925e,
building materials,Toko Bahan Bangunan,Toko Amerta,"Jl. Jend. Sudirman No.3, Kp. Sawah, Kec. Kota Waikabubak, Kabupaten Sumba Barat, Nusa Tenggara Tim.","Kabupaten Sumba Barat, Nusa Tenggara Tim.",NUSA TENGGARA TIMUR,,Indonesia,82122228701.0,,,-9.635767,119.4129349,https://maps.google.com/?cid=0x0:0xd990784987776293,
building materials,Toko Bahan Bangunan,Morika Bangunan,"9CF3+M7M, Jl. Bhayangkara, Pada Eweta, Kec. Kota Waikabubak, Kabupaten Sumba Barat, Nusa Tenggara Tim.","Kabupaten Sumba Barat, Nusa Tenggara Tim.",NUSA TENGGARA TIMUR,,Indonesia,,,,-9.62591,119.403323,https://maps.google.com/?cid=0x0:0x534832efc7043aa5,
building materials,Toko Bahan Bangunan,Toko Sentosa Jaya,"Jl. Bhayangkara No.38, Komerda, Kec. Kota Waikabubak, Kabupaten Sumba Barat, Nusa Tenggara Tim.","Kabupaten Sumba Barat, Nusa Tenggara Tim.",NUSA TENGGARA TIMUR,,Indonesia,38721381.0,,,-9.6289424,119.4079712,https://maps.google.com/?cid=0x0:0x383aa15223e6032a,
building materials,building materials,Kec. Kota Waikabubak,"Kabupaten Sumba Barat, Nusa Tenggara Tim.","Kabupaten Sumba Barat, Nusa Tenggara Tim.",NUSA TENGGARA TIMUR,,Indonesia,,,,-9.6318508,119.4116981,https://maps.google.com/?cid=0x0:0xc0a3b8deb8dcb273,
building materials,Toko Bahan Bangunan,Toko Lima Bintang Bangunan,"Jl. Ring Road Waikabubak, Pada Eweta, Kec. Kota Waikabubak, Kabupaten Sumba Barat, Nusa Tenggara Tim.","Kabupaten Sumba Barat, Nusa Tenggara Tim.",NUSA TENGGARA TIMUR,,Indonesia,81236835505.0,,,-9.6253098,119.389322,https://maps.google.com/?cid=0x0:0x2400e10b9df95a55,
building materials,Toko Bahan Bangunan,Toko Nuansa Bangunan Dan Tehnik,"9C75+HG9, Wailiang, Kec. Kota Waikabubak, Kabupaten Sumba Barat, Nusa Tenggara Tim.","Kabupaten Sumba Barat, Nusa Tenggara Tim.",NUSA TENGGARA TIMUR,,Indonesia,81339419509.0,,,-9.6360822,119.4088515,https://maps.google.com/?cid=0x0:0xa546d9dc5012925e,
building materials,Toko Bahan Bangunan,Toko Amerta,"Jl. Jend. Sudirman No.3, Kp. Sawah, Kec. Kota Waikabubak, Kabupaten Sumba Barat, Nusa Tenggara Tim.","Kabupaten Sumba Barat, Nusa Tenggara Tim.",NUSA TENGGARA TIMUR,,Indonesia,82122228701.0,,,-9.635767,119.4129349,https://maps.google.com/?cid=0x0:0xd990784987776293,
building materials,Toko Bahan Bangunan,Morika Bangunan,"9CF3+M7M, Jl. Bhayangkara, Pada Eweta, Kec. Kota Waikabubak, Kabupaten Sumba Barat, Nusa Tenggara Tim.","Kabupaten Sumba Barat, Nusa Tenggara Tim.",NUSA TENGGARA TIMUR,,Indonesia,,,,-9.62591,119.403323,https://maps.google.com/?cid=0x0:0x534832efc7043aa5,
building materials,Toko Bahan Bangunan,Toko Sentosa Jaya,"Jl. Bhayangkara No.38, Komerda, Kec. Kota Waikabubak, Kabupaten Sumba Barat, Nusa Tenggara Tim.","Kabupaten Sumba Barat, Nusa Tenggara Tim.",NUSA TENGGARA TIMUR,,Indonesia,38721381.0,,,-9.6289424,119.4079712,https://maps.google.com/?cid=0x0:0x383aa15223e6032a,
building materials,Toko Perlengkapan Rumah,Saudara Bangunan,"9C43+5CV, Wee Karou, Kec. Loli, Kabupaten Sumba Barat, Nusa Tenggara Tim.","Kabupaten Sumba Barat, Nusa Tenggara Tim.",NUSA TENGGARA TIMUR,,Indonesia,,,,-9.6445021,119.403561,https://maps.google.com/?cid=0x0:0xbd0bec82e2e0b21f,
building materials,Toko Bahan Bangunan,Toko Duta Bangunan,"CH3M+GQ8, Wai Rasa, Kec. Umbu Ratu Nggay Bar., Kabupaten Sumba Tengah, Nusa Tenggara Tim.","Kabupaten Sumba Tengah, Nusa Tenggara Tim.",NUSA TENGGARA TIMUR,,Indonesia,,,,-9.5962137,119.5844623,https://maps.google.com/?cid=0x0:0x7e609489f14c4fbb,
building materials,Bengkel Sepeda Motor,Bangun Jaya,"9C65+65R, Maliti, Kec. Kota Waikabubak, Kabupaten Sumba Barat, Nusa Tenggara Tim.","Kabupaten Sumba Barat, Nusa Tenggara Tim.",NUSA TENGGARA TIMUR,,Indonesia,82233338689.0,,,-9.6393879,119.4078805,https://maps.google.com/?cid=0x0:0xf1011ec6ac8369f1,
building materials,building materials,Nusa Tenggara Tim. 87214,"Kp. Baru, Kec. Kota Waikabubak, Kabupaten Sumba Barat, Nusa Tenggara Tim.","Kabupaten Sumba Barat, Nusa Tenggara Tim.",NUSA TENGGARA TIMUR,,Indonesia,,,,-9.6319416,119.4178502,https://maps.google.com/?cid=0x0:0xf74500f4f5161cf1,
building materials,Toko Bahan Bangunan,Toko Lima Bintang Bangunan,"Jl. Ring Road Waikabubak, Pada Eweta, Kec. Kota Waikabubak, Kabupaten Sumba Barat, Nusa Tenggara Tim.","Kabupaten Sumba Barat, Nusa Tenggara Tim.",NUSA TENGGARA TIMUR,,Indonesia,81236835505.0,,,-9.6253098,119.389322,https://maps.google.com/?cid=0x0:0x2400e10b9df95a55,
building materials,Toko Bahan Bangunan,Toko Nuansa Bangunan Dan Tehnik,"9C75+HG9, Wailiang, Kec. Kota Waikabubak, Kabupaten Sumba Barat, Nusa Tenggara Tim.","Kabupaten Sumba Barat, Nusa Tenggara Tim.",NUSA TENGGARA TIMUR,,Indonesia,81339419509.0,,,-9.6360822,119.4088515,https://maps.google.com/?cid=0x0:0xa546d9dc5012925e,
building materials,Toko Perlengkapan Rumah,Toko Makmur Jaya Bangunan,"Jl. Bhayangkara, Pada Eweta, Kec. Kota Waikabubak, Kabupaten Sumba Barat, Nusa Tenggara Tim. 87217","Pada Eweta, Kec. Kota Waikabubak, Kabupaten Sumba Barat",NUSA TENGGARA TIMUR,87217.0,Indonesia,81339020447.0,,,-9.6259517,119.4038705,https://maps.google.com/?cid=0x0:0x2bfca63c0a2429f6,
building materials,Toko Bahan Bangunan,Toko Sentosa Jaya,"Jl. Bhayangkara No.38, Komerda, Kec. Kota Waikabubak, Kabupaten Sumba Barat, Nusa Tenggara Tim.","Kabupaten Sumba Barat, Nusa Tenggara Tim.",NUSA TENGGARA TIMUR,,Indonesia,38721381.0,,,-9.6289424,119.4079712,https://maps.google.com/?cid=0x0:0x383aa15223e6032a,
building materials,Toko Bahan Bangunan,Morika Bangunan,"9CF3+M7M, Jl. Bhayangkara, Pada Eweta, Kec. Kota Waikabubak, Kabupaten Sumba Barat, Nusa Tenggara Tim.","Kabupaten Sumba Barat, Nusa Tenggara Tim.",NUSA TENGGARA TIMUR,,Indonesia,,,,-9.62591,119.403323,https://maps.google.com/?cid=0x0:0x534832efc7043aa5,
building materials,Toko Perlengkapan Rumah,Saudara Bangunan,"9C43+5CV, Wee Karou, Kec. Loli, Kabupaten Sumba Barat, Nusa Tenggara Tim.","Kabupaten Sumba Barat, Nusa Tenggara Tim.",NUSA TENGGARA TIMUR,,Indonesia,,,,-9.6445021,119.403561,https://maps.google.com/?cid=0x0:0xbd0bec82e2e0b21f,
building materials,building materials,Kec. Kota Waikabubak,"Kabupaten Sumba Barat, Nusa Tenggara Tim.","Kabupaten Sumba Barat, Nusa Tenggara Tim.",NUSA TENGGARA TIMUR,,Indonesia,,,,-9.6318508,119.4116981,https://maps.google.com/?cid=0x0:0xc0a3b8deb8dcb273,
building materials,building materials,Kec. Kota Waikabubak,"Kabupaten Sumba Barat, Nusa Tenggara Tim.","Kabupaten Sumba Barat, Nusa Tenggara Tim.",NUSA TENGGARA TIMUR,,Indonesia,,,,-9.6318508,119.4116981,https://maps.google.com/?cid=0x0:0xc0a3b8deb8dcb273,
building materials,Toko Bahan Bangunan,Toko Lima Bintang Bangunan,"Jl. Ring Road Waikabubak, Pada Eweta, Kec. Kota Waikabubak, Kabupaten Sumba Barat, Nusa Tenggara Tim.","Kabupaten Sumba Barat, Nusa Tenggara Tim.",NUSA TENGGARA TIMUR,,Indonesia,81236835505.0,,,-9.6253098,119.389322,https://maps.google.com/?cid=0x0:0x2400e10b9df95a55,
building materials,Toko Bahan Bangunan,Toko Nuansa Bangunan Dan Tehnik,"9C75+HG9, Wailiang, Kec. Kota Waikabubak, Kabupaten Sumba Barat, Nusa Tenggara Tim.","Kabupaten Sumba Barat, Nusa Tenggara Tim.",NUSA TENGGARA TIMUR,,Indonesia,81339419509.0,,,-9.6360822,119.4088515,https://maps.google.com/?cid=0x0:0xa546d9dc5012925e,
building materials,Toko Bahan Bangunan,Morika Bangunan,"9CF3+M7M, Jl. Bhayangkara, Pada Eweta, Kec. Kota Waikabubak, Kabupaten Sumba Barat, Nusa Tenggara Tim.","Kabupaten Sumba Barat, Nusa Tenggara Tim.",NUSA TENGGARA TIMUR,,Indonesia,,,,-9.62591,119.403323,https://maps.google.com/?cid=0x0:0x534832efc7043aa5,
building materials,Toko Bahan Bangunan,Toko Amerta,"Jl. Jend. Sudirman No.3, Kp. Sawah, Kec. Kota Waikabubak, Kabupaten Sumba Barat, Nusa Tenggara Tim.","Kabupaten Sumba Barat, Nusa Tenggara Tim.",NUSA TENGGARA TIMUR,,Indonesia,82122228701.0,,,-9.635767,119.4129349,https://maps.google.com/?cid=0x0:0xd990784987776293,
building materials,Toko Bahan Bangunan,Toko Sentosa Jaya,"Jl. Bhayangkara No.38, Komerda, Kec. Kota Waikabubak, Kabupaten Sumba Barat, Nusa Tenggara Tim.","Kabupaten Sumba Barat, Nusa Tenggara Tim.",NUSA TENGGARA TIMUR,,Indonesia,38721381.0,,,-9.6289424,119.4079712,https://maps.google.com/?cid=0x0:0x383aa15223e6032a,
building materials,Toko Perlengkapan Rumah,Saudara Bangunan,"9C43+5CV, Wee Karou, Kec. Loli, Kabupaten Sumba Barat, Nusa Tenggara Tim.","Kabupaten Sumba Barat, Nusa Tenggara Tim.",NUSA TENGGARA TIMUR,,Indonesia,,,,-9.6445021,119.403561,https://maps.google.com/?cid=0x0:0xbd0bec82e2e0b21f,
building materials,building materials,Kec. Kota Waikabubak,"Kabupaten Sumba Barat, Nusa Tenggara Tim.","Kabupaten Sumba Barat, Nusa Tenggara Tim.",NUSA TENGGARA TIMUR,,Indonesia,,,,-9.6318508,119.4116981,https://maps.google.com/?cid=0x0:0xc0a3b8deb8dcb273,
building materials,Toko Bahan Bangunan,Toko Lima Bintang Bangunan,"Jl. Ring Road Waikabubak, Pada Eweta, Kec. Kota Waikabubak, Kabupaten Sumba Barat, Nusa Tenggara Tim.","Kabupaten Sumba Barat, Nusa Tenggara Tim.",NUSA TENGGARA TIMUR,,Indonesia,81236835505.0,,,-9.6253098,119.389322,https://maps.google.com/?cid=0x0:0x2400e10b9df95a55,
building materials,Toko Bahan Bangunan,Toko Nuansa Bangunan Dan Tehnik,"9C75+HG9, Wailiang, Kec. Kota Waikabubak, Kabupaten Sumba Barat, Nusa Tenggara Tim.","Kabupaten Sumba Barat, Nusa Tenggara Tim.",NUSA TENGGARA TIMUR,,Indonesia,81339419509.0,,,-9.6360822,119.4088515,https://maps.google.com/?cid=0x0:0xa546d9dc5012925e,
building materials,Toko Bahan Bangunan,Toko Amerta,"Jl. Jend. Sudirman No.3, Kp. Sawah, Kec. Kota Waikabubak, Kabupaten Sumba Barat, Nusa Tenggara Tim.","Kabupaten Sumba Barat, Nusa Tenggara Tim.",NUSA TENGGARA TIMUR,,Indonesia,82122228701.0,,,-9.635767,119.4129349,https://maps.google.com/?cid=0x0:0xd990784987776293,
building materials,Toko Bahan Bangunan,Morika Bangunan,"9CF3+M7M, Jl. Bhayangkara, Pada Eweta, Kec. Kota Waikabubak, Kabupaten Sumba Barat, Nusa Tenggara Tim.","Kabupaten Sumba Barat, Nusa Tenggara Tim.",NUSA TENGGARA TIMUR,,Indonesia,,,,-9.62591,119.403323,https://maps.google.com/?cid=0x0:0x534832efc7043aa5,
building materials,Toko Bahan Bangunan,Toko Sentosa Jaya,"Jl. Bhayangkara No.38, Komerda, Kec. Kota Waikabubak, Kabupaten Sumba Barat, Nusa Tenggara Tim.","Kabupaten Sumba Barat, Nusa Tenggara Tim.",NUSA TENGGARA TIMUR,,Indonesia,38721381.0,,,-9.6289424,119.4079712,https://maps.google.com/?cid=0x0:0x383aa15223e6032a,
building materials,building materials,Kec. Kota Waikabubak,"Kabupaten Sumba Barat, Nusa Tenggara Tim.","Kabupaten Sumba Barat, Nusa Tenggara Tim.",NUSA TENGGARA TIMUR,,Indonesia,,,,-9.6318508,119.4116981,https://maps.google.com/?cid=0x0:0xc0a3b8deb8dcb273,
building materials,Toko Perlengkapan Rumah,Toko Makmur Jaya Bangunan,"Jl. Bhayangkara, Pada Eweta, Kec. Kota Waikabubak, Kabupaten Sumba Barat, Nusa Tenggara Tim. 87217","Pada Eweta, Kec. Kota Waikabubak, Kabupaten Sumba Barat",NUSA TENGGARA TIMUR,87217.0,Indonesia,81339020447.0,,,-9.6259517,119.4038705,https://maps.google.com/?cid=0x0:0x2bfca63c0a2429f6,
building materials,Toko Bahan Bangunan,Toko Lima Bintang Bangunan,"Jl. Ring Road Waikabubak, Pada Eweta, Kec. Kota Waikabubak, Kabupaten Sumba Barat, Nusa Tenggara Tim.","Kabupaten Sumba Barat, Nusa Tenggara Tim.",NUSA TENGGARA TIMUR,,Indonesia,81236835505.0,,,-9.6253098,119.389322,https://maps.google.com/?cid=0x0:0x2400e10b9df95a55,
building materials,Toko Bahan Bangunan,Toko Amerta,"Jl. Jend. Sudirman No.3, Kp. Sawah, Kec. Kota Waikabubak, Kabupaten Sumba Barat, Nusa Tenggara Tim.","Kabupaten Sumba Barat, Nusa Tenggara Tim.",NUSA TENGGARA TIMUR,,Indonesia,82122228701.0,,,-9.635767,119.4129349,https://maps.google.com/?cid=0x0:0xd990784987776293,
building materials,Toko Bahan Bangunan,Morika Bangunan,"9CF3+M7M, Jl. Bhayangkara, Pada Eweta, Kec. Kota Waikabubak, Kabupaten Sumba Barat, Nusa Tenggara Tim.","Kabupaten Sumba Barat, Nusa Tenggara Tim.",NUSA TENGGARA TIMUR,,Indonesia,,,,-9.62591,119.403323,https://maps.google.com/?cid=0x0:0x534832efc7043aa5,
building materials,Toko Bahan Bangunan,Toko Sentosa Jaya,"Jl. Bhayangkara No.38, Komerda, Kec. Kota Waikabubak, Kabupaten Sumba Barat, Nusa Tenggara Tim.","Kabupaten Sumba Barat, Nusa Tenggara Tim.",NUSA TENGGARA TIMUR,,Indonesia,38721381.0,,,-9.6289424,119.4079712,https://maps.google.com/?cid=0x0:0x383aa15223e6032a,
building materials,building materials,Kec. Lamboya,"Kabupaten Sumba Barat, Nusa Tenggara Tim.","Kabupaten Sumba Barat, Nusa Tenggara Tim.",NUSA TENGGARA TIMUR,,Indonesia,,,,-9.7205484,119.35646,https://maps.google.com/?cid=0x0:0x5968d2d2a2f91860,
building materials,Toko Perlengkapan Rumah,Saudara Bangunan,"9C43+5CV, Wee Karou, Kec. Loli, Kabupaten Sumba Barat, Nusa Tenggara Tim.","Kabupaten Sumba Barat, Nusa Tenggara Tim.",NUSA TENGGARA TIMUR,,Indonesia,,,,-9.6445021,119.403561,https://maps.google.com/?cid=0x0:0xbd0bec82e2e0b21f,
building materials,Toko Bahan Bangunan,Toko Lima Bintang Bangunan,"Jl. Ring Road Waikabubak, Pada Eweta, Kec. Kota Waikabubak, Kabupaten Sumba Barat, Nusa Tenggara Tim.","Kabupaten Sumba Barat, Nusa Tenggara Tim.",NUSA TENGGARA TIMUR,,Indonesia,81236835505.0,,,-9.6253098,119.389322,https://maps.google.com/?cid=0x0:0x2400e10b9df95a55,
building materials,Toko Bahan Bangunan,Toko Nuansa Bangunan Dan Tehnik,"9C75+HG9, Wailiang, Kec. Kota Waikabubak, Kabupaten Sumba Barat, Nusa Tenggara Tim.","Kabupaten Sumba Barat, Nusa Tenggara Tim.",NUSA TENGGARA TIMUR,,Indonesia,81339419509.0,,,-9.6360822,119.4088515,https://maps.google.com/?cid=0x0:0xa546d9dc5012925e,
building materials,Toko Bahan Bangunan,Toko Duta Bangunan,"CH3M+GQ8, Wai Rasa, Kec. Umbu Ratu Nggay Bar., Kabupaten Sumba Tengah, Nusa Tenggara Tim.","Kabupaten Sumba Tengah, Nusa Tenggara Tim.",NUSA TENGGARA TIMUR,,Indonesia,,,,-9.5962137,119.5844623,https://maps.google.com/?cid=0x0:0x7e609489f14c4fbb,
building materials,Komplek perumahan,Bodowunta,"7972+HFV, Laboya Bawa, Kec. Lamboya, Kabupaten Sumba Barat, Nusa Tenggara Tim.","Kabupaten Sumba Barat, Nusa Tenggara Tim.",NUSA TENGGARA TIMUR,,Indonesia,,,,-9.736021,119.3511681,https://maps.google.com/?cid=0x0:0x56bf636cfae5d5e9,
building materials,Polisi Sipil,Polsek Lamboya,"79H5+J3V, Kabu Karudi, Kec. Lamboya, Kabupaten Sumba Barat, Nusa Tenggara Tim.","Kabupaten Sumba Barat, Nusa Tenggara Tim.",NUSA TENGGARA TIMUR,,Indonesia,,,,-9.7208757,119.3576767,https://maps.google.com/?cid=0x0:0x32bfa94efbb3c036,
building materials,Toko Bahan Bangunan,Toko Amerta,"Jl. Jend. Sudirman No.3, Kp. Sawah, Kec. Kota Waikabubak, Kabupaten Sumba Barat, Nusa Tenggara Tim.","Kabupaten Sumba Barat, Nusa Tenggara Tim.",NUSA TENGGARA TIMUR,,Indonesia,82122228701.0,,,-9.635767,119.4129349,https://maps.google.com/?cid=0x0:0xd990784987776293,
building materials,Toko Bahan Bangunan,Merdeka,"Jl. Bhayangkara No.38, Komerda, Kec. Kota Waikabubak, Kabupaten Sumba Barat, Nusa Tenggara Tim.","Kabupaten Sumba Barat, Nusa Tenggara Tim.",NUSA TENGGARA TIMUR,,Indonesia,,,,-9.6287962,119.4078268,https://maps.google.com/?cid=0x0:0xdc5a3c120ad9d757,
building materials,Toko umum,Toko Ahong,"7C52+PF3, Ringu Rara, Kec. Lamboya, Kabupaten Sumba Barat, Nusa Tenggara Tim.","Kabupaten Sumba Barat, Nusa Tenggara Tim.",NUSA TENGGARA TIMUR,,Indonesia,,,,-9.7407269,119.4011595,https://maps.google.com/?cid=0x0:0xa2fd219cad17b521,
building materials,Kontraktor Umum,MITRA SEJATI,"9C55+Q3F, Wailiang, Kec. Kota Waikabubak, Kabupaten Sumba Barat, Nusa Tenggara Tim.","Kabupaten Sumba Barat, Nusa Tenggara Tim.",NUSA TENGGARA TIMUR,,Indonesia,,,,-9.6405613,119.4076847,https://maps.google.com/?cid=0x0:0xf7e6717d37618975,
building materials,Toko Bahan Bangunan,Morika Bangunan,"9CF3+M7M, Jl. Bhayangkara, Pada Eweta, Kec. Kota Waikabubak, Kabupaten Sumba Barat, Nusa Tenggara Tim.","Kabupaten Sumba Barat, Nusa Tenggara Tim.",NUSA TENGGARA TIMUR,,Indonesia,,,,-9.62591,119.403323,https://maps.google.com/?cid=0x0:0x534832efc7043aa5,
building improvement,Sekolah menengah,SMA Negeri 1 Tana Righu,"Loko Ry, Kec. Tana Righu, Kabupaten Sumba Barat, Nusa Tenggara Tim.","Kabupaten Sumba Barat, Nusa Tenggara Tim.",NUSA TENGGARA TIMUR,,Indonesia,,,,-9.4365618,119.3845562,https://maps.google.com/?cid=0x0:0xe4492f6b1278120d,
building improvement,Sekolah menengah,SMP Negeri 1 Tana Righu,"SMP Negeri 1 Tna Righu, malata., Kabupaten Barat, Nusa Tenggara Tim., Malata, Kec. Tana Righu, Kabupaten Sumba Barat, Nusa Tenggara Tim.","Kabupaten Sumba Barat, Nusa Tenggara Tim.",NUSA TENGGARA TIMUR,,Indonesia,,,,-9.4474573,119.3842372,https://maps.google.com/?cid=0x0:0xf8e1de0a04f4e0a6,
building improvement,Produsen,BUILDSOLVE INDUSTRIAL SDN BHD,"1, Jln TPP 1/1, Taman Perindustrian Puchong, 47100 Puchong, Selangor, Malaysia",Puchong,NUSA TENGGARA TIMUR,47100.0,Indonesia,60380602088.0,,,3.0234508,101.6134937,https://maps.google.com/?cid=0x0:0x7eec4cb6f788f291,
building improvement,building improvement,Loli,"Popnam, Kec. Noemuti, Kabupaten Timor Tengah Utara, Nusa Tenggara Tim.","Kabupaten Timor Tengah Utara, Nusa Tenggara Tim.",NUSA TENGGARA TIMUR,,Indonesia,,,,-9.660561,124.526604,https://maps.google.com/?cid=0x0:0x50eebe88faef0b3b,
building improvement,Kantor Perusahaan,Buildtech System,"37, Jalan Juruanalisis U1/35 Seksyen U1, Hicome, Hicom-glenmarie Industrial Park, 40150 Shah Alam, Selangor, Malaysia",Shah Alam,NUSA TENGGARA TIMUR,40150.0,Indonesia,60380663893.0,,,3.0811772,101.5618898,https://maps.google.com/?cid=0x0:0xb346a63f3f57fd02,
building improvement,building improvement,Kec. Wanokaka,"Kabupaten Sumba Barat, Nusa Tenggara Tim.","Kabupaten Sumba Barat, Nusa Tenggara Tim.",NUSA TENGGARA TIMUR,,Indonesia,,,,-9.7227274,119.4528333,https://maps.google.com/?cid=0x0:0xb894aaab28ba27d5,
building improvement,building improvement,Kec. Lamboya,"Kabupaten Sumba Barat, Nusa Tenggara Tim.","Kabupaten Sumba Barat, Nusa Tenggara Tim.",NUSA TENGGARA TIMUR,,Indonesia,,,,-9.7205484,119.35646,https://maps.google.com/?cid=0x0:0x5968d2d2a2f91860,
building improvement,building improvement,Kec. Kota Waikabubak,"Kabupaten Sumba Barat, Nusa Tenggara Tim.","Kabupaten Sumba Barat, Nusa Tenggara Tim.",NUSA TENGGARA TIMUR,,Indonesia,,,,-9.6318508,119.4116981,https://maps.google.com/?cid=0x0:0xc0a3b8deb8dcb273,
building improvement,Pembangkit Listrik,PLTD Waikabubak,"9C66+JMQ, Dede Kadu, Kec. Loli, Kabupaten Sumba Barat, Nusa Tenggara Tim.","Kabupaten Sumba Barat, Nusa Tenggara Tim.",NUSA TENGGARA TIMUR,,Indonesia,,,,-9.6384114,119.4117428,https://maps.google.com/?cid=0x0:0x5885fac752db32b4,
building improvement,Toko Bahan Bangunan,Toko Lima Bintang Bangunan,"Jl. Ring Road Waikabubak, Pada Eweta, Kec. Kota Waikabubak, Kabupaten Sumba Barat, Nusa Tenggara Tim.","Kabupaten Sumba Barat, Nusa Tenggara Tim.",NUSA TENGGARA TIMUR,,Indonesia,81236835505.0,,,-9.6253098,119.389322,https://maps.google.com/?cid=0x0:0x2400e10b9df95a55,
building improvement,Toko Elektronik,"Waikabubak spesialis PABX SYSTEM,TV CABLE,INDOVISION,CCTV ,AUDIO,SOUND SYSTEM","Jl. Veteran No.35, Kp. Baru, Kec. Kota Waikabubak, Kabupaten Sumba Barat, Nusa Tenggara Tim. 87211","Kp. Baru, Kec. Kota Waikabubak, Kabupaten Sumba Barat",NUSA TENGGARA TIMUR,87211.0,Indonesia,81338242531.0,,,-9.6301028,119.4158206,https://maps.google.com/?cid=0x0:0x999a33e0f7678a46,
building improvement,Restoran,D'Sumba Ate,"Jl. Ahmad Yani No.148 A, Wailiang, Kec. Kota Waikabubak, Kabupaten Sumba Barat, Nusa Tenggara Tim. 87211","Wailiang, Kec. Kota Waikabubak, Kabupaten Sumba Barat",NUSA TENGGARA TIMUR,87211.0,Indonesia,82146325612.0,,,-9.6428236,119.4082311,https://maps.google.com/?cid=0x0:0xb13af0eefc64bd7d,
building improvement,ATM,BNI KCP WAIKABUBAK,"Jalan Bhayangkara No. 48, Komerda, Kota Waikabubak, Pada Eweta, Kec. Kota Waikabubak, Kabupaten Sumba Barat, Nusa Tenggara Tim. 16157","Komerda, Kota Waikabubak, Pada Eweta, Kec. Kota Waikabubak, Kabupaten Sumba Barat",NUSA TENGGARA TIMUR,16157.0,Indonesia,38721540.0,,,-9.6272885,119.4058983,https://maps.google.com/?cid=0x0:0xe2f3f9c6df20acea,
building improvement,building improvement,Kec. Kota Waikabubak,"Kabupaten Sumba Barat, Nusa Tenggara Tim.","Kabupaten Sumba Barat, Nusa Tenggara Tim.",NUSA TENGGARA TIMUR,,Indonesia,,,,-9.6318508,119.4116981,https://maps.google.com/?cid=0x0:0xc0a3b8deb8dcb273,
building improvement,building improvement,Kec. Kota Waikabubak,"Kabupaten Sumba Barat, Nusa Tenggara Tim.","Kabupaten Sumba Barat, Nusa Tenggara Tim.",NUSA TENGGARA TIMUR,,Indonesia,,,,-9.6318508,119.4116981,https://maps.google.com/?cid=0x0:0xc0a3b8deb8dcb273,
building improvement,building improvement,Kota Awal Ruas Waikabubak-Bts Kab. Sumba Timu,"9C96+7M7, Komerda, Kec. Kota Waikabubak, Kabupaten Sumba Barat, Nusa Tenggara Tim.","Kabupaten Sumba Barat, Nusa Tenggara Tim.",NUSA TENGGARA TIMUR,,Indonesia,,,,-9.631845,119.4116613,https://maps.google.com/?cid=0x0:0xdaa2fd2b49157bcf,
building improvement,building improvement,Nusa Tenggara Tim. 87214,"Kp. Baru, Kec. Kota Waikabubak, Kabupaten Sumba Barat, Nusa Tenggara Tim.","Kabupaten Sumba Barat, Nusa Tenggara Tim.",NUSA TENGGARA TIMUR,,Indonesia,,,,-9.6319416,119.4178502,https://maps.google.com/?cid=0x0:0xf74500f4f5161cf1,
building improvement,Toko Bahan Bangunan,Toko Lima Bintang Bangunan,"Jl. Ring Road Waikabubak, Pada Eweta, Kec. Kota Waikabubak, Kabupaten Sumba Barat, Nusa Tenggara Tim.","Kabupaten Sumba Barat, Nusa Tenggara Tim.",NUSA TENGGARA TIMUR,,Indonesia,81236835505.0,,,-9.6253098,119.389322,https://maps.google.com/?cid=0x0:0x2400e10b9df95a55,
building improvement,Kontraktor Umum,kantor pt.bumi indah,"9CC5+96C, Komerda, Kec. Kota Waikabubak, Kabupaten Sumba Barat, Nusa Tenggara Tim.","Kabupaten Sumba Barat, Nusa Tenggara Tim.",NUSA TENGGARA TIMUR,,Indonesia,,,,-9.6290683,119.4080127,https://maps.google.com/?cid=0x0:0x25437f5bca17fd3e,
building improvement,Komplek perumahan,Jln pisang wailiang Waikabubak,"9C73+CRQ, Jl. Pisang, Wailiang, Kec. Kota Waikabubak, Kabupaten Sumba Barat, Nusa Tenggara Tim.","Kabupaten Sumba Barat, Nusa Tenggara Tim.",NUSA TENGGARA TIMUR,,Indonesia,,,,-9.6364099,119.4045977,https://maps.google.com/?cid=0x0:0xd01246b50b4c398d,
building improvement,Toko Elektronik,"Waikabubak spesialis PABX SYSTEM,TV CABLE,INDOVISION,CCTV ,AUDIO,SOUND SYSTEM","Jl. Veteran No.35, Kp. Baru, Kec. Kota Waikabubak, Kabupaten Sumba Barat, Nusa Tenggara Tim. 87211","Kp. Baru, Kec. Kota Waikabubak, Kabupaten Sumba Barat",NUSA TENGGARA TIMUR,87211.0,Indonesia,81338242531.0,,,-9.6301028,119.4158206,https://maps.google.com/?cid=0x0:0x999a33e0f7678a46,
building improvement,building improvement,Kec. Tebet,"Kota Jakarta Selatan, Daerah Khusus Ibukota Jakarta","Kota Jakarta Selatan, Daerah Khusus Ibukota Jakarta",NUSA TENGGARA TIMUR,,Indonesia,,,,-6.2251223,106.8549881,https://maps.google.com/?cid=0x0:0xd575e31c807295f9,
building improvement,building improvement,Kec. Kota Waikabubak,"Kabupaten Sumba Barat, Nusa Tenggara Tim.","Kabupaten Sumba Barat, Nusa Tenggara Tim.",NUSA TENGGARA TIMUR,,Indonesia,,,,-9.6318508,119.4116981,https://maps.google.com/?cid=0x0:0xc0a3b8deb8dcb273,
building improvement,building improvement,Kec. Kota Waikabubak,"Kabupaten Sumba Barat, Nusa Tenggara Tim.","Kabupaten Sumba Barat, Nusa Tenggara Tim.",NUSA TENGGARA TIMUR,,Indonesia,,,,-9.6318508,119.4116981,https://maps.google.com/?cid=0x0:0xc0a3b8deb8dcb273,
building improvement,building improvement,Kec. Kota Waikabubak,"Kabupaten Sumba Barat, Nusa Tenggara Tim.","Kabupaten Sumba Barat, Nusa Tenggara Tim.",NUSA TENGGARA TIMUR,,Indonesia,,,,-9.6318508,119.4116981,https://maps.google.com/?cid=0x0:0xc0a3b8deb8dcb273,
building improvement,Toko Perlengkapan Rumah,MR.DIY,"Jl. Ahmad Yani, Wailiang, Kec. Kota Waikabubak, Kabupaten Sumba Barat, Nusa Tenggara Tim. 87217","Wailiang, Kec. Kota Waikabubak, Kabupaten Sumba Barat",NUSA TENGGARA TIMUR,87217.0,Indonesia,,,,-9.6406488,119.4078019,https://maps.google.com/?cid=0x0:0x34d1943d35c76109,
building improvement,Toko Bahan Bangunan,Toko Lima Bintang Bangunan,"Jl. Ring Road Waikabubak, Pada Eweta, Kec. Kota Waikabubak, Kabupaten Sumba Barat, Nusa Tenggara Tim.","Kabupaten Sumba Barat, Nusa Tenggara Tim.",NUSA TENGGARA TIMUR,,Indonesia,81236835505.0,,,-9.6253098,119.389322,https://maps.google.com/?cid=0x0:0x2400e10b9df95a55,
building improvement,Kontraktor Umum,kantor pt.bumi indah,"9CC5+96C, Komerda, Kec. Kota Waikabubak, Kabupaten Sumba Barat, Nusa Tenggara Tim.","Kabupaten Sumba Barat, Nusa Tenggara Tim.",NUSA TENGGARA TIMUR,,Indonesia,,,,-9.6290683,119.4080127,https://maps.google.com/?cid=0x0:0x25437f5bca17fd3e,
building improvement,ATM,BNI KCP WAIKABUBAK,"Jalan Bhayangkara No. 48, Komerda, Kota Waikabubak, Pada Eweta, Kec. Kota Waikabubak, Kabupaten Sumba Barat, Nusa Tenggara Tim. 16157","Komerda, Kota Waikabubak, Pada Eweta, Kec. Kota Waikabubak, Kabupaten Sumba Barat",NUSA TENGGARA TIMUR,16157.0,Indonesia,38721540.0,,,-9.6272885,119.4058983,https://maps.google.com/?cid=0x0:0xe2f3f9c6df20acea,
building improvement,building improvement,Kec. Laboya Bar.,"Kabupaten Sumba Barat, Nusa Tenggara Tim.","Kabupaten Sumba Barat, Nusa Tenggara Tim.",NUSA TENGGARA TIMUR,,Indonesia,,,,-9.7132158,119.2557702,https://maps.google.com/?cid=0x0:0xd5199b11c17787db,
building improvement,building improvement,Kec. Lamboya,"Kabupaten Sumba Barat, Nusa Tenggara Tim.","Kabupaten Sumba Barat, Nusa Tenggara Tim.",NUSA TENGGARA TIMUR,,Indonesia,,,,-9.7205484,119.35646,https://maps.google.com/?cid=0x0:0x5968d2d2a2f91860,
hardware store,Toko Perlengkapan Rumah,MR.DIY Waitabula,"JL. Raya Waitabula, Langga Lero, Kec. Kota Tambolaka, Kabupaten Sumba Barat Daya, Nusa Tenggara Tim. 87255","Langga Lero, Kec. Kota Tambolaka, Kabupaten Sumba Barat Daya",NUSA TENGGARA TIMUR,87255.0,Indonesia,,,,-9.4416462,119.2317649,https://maps.google.com/?cid=0x0:0xee8a6b4f3884289c,
hardware store,Toko Perlengkapan Rumah,MR.DIY,"Jl. Ahmad Yani, Wailiang, Kec. Kota Waikabubak, Kabupaten Sumba Barat, Nusa Tenggara Tim. 87217","Wailiang, Kec. Kota Waikabubak, Kabupaten Sumba Barat",NUSA TENGGARA TIMUR,87217.0,Indonesia,,,,-9.6406488,119.4078019,https://maps.google.com/?cid=0x0:0x34d1943d35c76109,
hardware store,hardware store,Kec. Tana Righu,"Kabupaten Sumba Barat, Nusa Tenggara Tim.","Kabupaten Sumba Barat, Nusa Tenggara Tim.",NUSA TENGGARA TIMUR,,Indonesia,,,,-9.4191853,119.398791,https://maps.google.com/?cid=0x0:0xb9763f309124fdd0,
hardware store,hardware store,Nusa Tenggara Tim.,,Nusa Tenggara Tim.,NUSA TENGGARA TIMUR,,Indonesia,,,,-8.6573819,121.0793705,https://maps.google.com/?cid=0x0:0x1030bfbcaf71ae0,
hardware store,Toko Perlengkapan Rumah,Saudara Bangunan,"9C43+5CV, Wee Karou, Kec. Loli, Kabupaten Sumba Barat, Nusa Tenggara Tim.","Kabupaten Sumba Barat, Nusa Tenggara Tim.",NUSA TENGGARA TIMUR,,Indonesia,,,,-9.6445021,119.403561,https://maps.google.com/?cid=0x0:0xbd0bec82e2e0b21f,
hardware store,Toko Bahan Bangunan,Toko Nuansa Bangunan Dan Tehnik,"9C75+HG9, Wailiang, Kec. Kota Waikabubak, Kabupaten Sumba Barat, Nusa Tenggara Tim.","Kabupaten Sumba Barat, Nusa Tenggara Tim.",NUSA TENGGARA TIMUR,,Indonesia,81339419509.0,,,-9.6360822,119.4088515,https://maps.google.com/?cid=0x0:0xa546d9dc5012925e,
hardware store,Komplek perumahan,Waibangga,"CFX4+C2C, Desa, Tematana, Kec. Loli, Kabupaten Sumba Barat, Nusa Tenggara Tim.","Kabupaten Sumba Barat, Nusa Tenggara Tim.",NUSA TENGGARA TIMUR,,Indonesia,81338984384.0,,,-9.5514363,119.4550179,https://maps.google.com/?cid=0x0:0x5a4a20ca93f22da,
hardware store,Toko Bahan Bangunan,TOKO Sinar Galaxi,"H6CR+XJ8, Unnamed Road, Loura, Kabupaten Barat Daya, Nusa Tenggara Tim., Radamata, Kec. Loura, Kabupaten Sumba Barat Daya, Nusa Tenggara Tim.","Kabupaten Sumba Barat Daya, Nusa Tenggara Tim.",NUSA TENGGARA TIMUR,,Indonesia,,,,-9.427579,119.2415805,https://maps.google.com/?cid=0x0:0x50d8175272a243a8,
hardware store,Sekolah menengah,SMK NEGERI 1 LOLI,"Wee Karou, Kec. Loli, Kabupaten Sumba Barat, Nusa Tenggara Tim.","Kabupaten Sumba Barat, Nusa Tenggara Tim.",NUSA TENGGARA TIMUR,,Indonesia,,,,-9.628493,119.3474956,https://maps.google.com/?cid=0x0:0x189d61a9a516a407,
hardware store,Toko Pakaian,Toko Ramona,"9C75+4QJ, Maliti, Kec. Kota Waikabubak, Kabupaten Sumba Barat, Nusa Tenggara Tim.","Kabupaten Sumba Barat, Nusa Tenggara Tim.",NUSA TENGGARA TIMUR,,Indonesia,,,,-9.6371736,119.4093808,https://maps.google.com/?cid=0x0:0xbd25b5f3acf078c6,
hardware store,Toko Bahan Bangunan,Toko Duta Bangunan,"CH3M+GQ8, Wai Rasa, Kec. Umbu Ratu Nggay Bar., Kabupaten Sumba Tengah, Nusa Tenggara Tim.","Kabupaten Sumba Tengah, Nusa Tenggara Tim.",NUSA TENGGARA TIMUR,,Indonesia,,,,-9.5962137,119.5844623,https://maps.google.com/?cid=0x0:0x7e609489f14c4fbb,
hardware store,Pasar,Pasar Baru Waikabubak,"994Q+FG4, Wee Karou, Kec. Loli, Kabupaten Sumba Barat, Nusa Tenggara Tim.","Kabupaten Sumba Barat, Nusa Tenggara Tim.",NUSA TENGGARA TIMUR,,Indonesia,,,,-9.6438664,119.3888321,https://maps.google.com/?cid=0x0:0x8fdddfd1abee0ac7,
hardware store,Toko,Toko Cinta Indah,"F7FJ+JGG, Limbu Watu,, Wee Kokora, Kec. Wewewa Tengah, Kabupaten Sumba Barat Daya, Nusa Tenggara Tim.","Kabupaten Sumba Barat Daya, Nusa Tenggara Tim.",NUSA TENGGARA TIMUR,,Indonesia,81353480750.0,,,-9.5259324,119.2813262,https://maps.google.com/?cid=0x0:0xfdd070a95cfb0d00,
hardware store,Toko Elektronik,DEVINEZO Shop  Computer,"H6HW+JV5, Radamata, Kec. Loura, Kabupaten Sumba Barat Daya, Nusa Tenggara Tim.","Kabupaten Sumba Barat Daya, Nusa Tenggara Tim.",NUSA TENGGARA TIMUR,,Indonesia,82339639675.0,,,-9.4209874,119.2474151,https://maps.google.com/?cid=0x0:0x26842e24f87ac22d,
hardware store,Tujuan Wisata,Sumba barat,"89WV+3V8, Wee Karou, Kec. Loli, Kabupaten Sumba Barat, Nusa Tenggara Tim.","Kabupaten Sumba Barat, Nusa Tenggara Tim.",NUSA TENGGARA TIMUR,,Indonesia,,,,-9.6548326,119.3947135,https://maps.google.com/?cid=0x0:0xc6f4f84fce9f0c5b,
hardware store,Toko,KASIH BERKAT,"Walla Ndimu, Kec. Kodi Bangedo, Kabupaten Sumba Barat Daya, Nusa Tenggara Tim. 87264","Kec. Kodi Bangedo, Kabupaten Sumba Barat Daya",NUSA TENGGARA TIMUR,87264.0,Indonesia,81335789980.0,,,-9.6260985,119.0411577,https://maps.google.com/?cid=0x0:0xe29ea410343cacdf,
hardware store,hardware store,Loli,"Popnam, Kec. Noemuti, Kabupaten Timor Tengah Utara, Nusa Tenggara Tim.","Kabupaten Timor Tengah Utara, Nusa Tenggara Tim.",NUSA TENGGARA TIMUR,,Indonesia,,,,-9.660561,124.526604,https://maps.google.com/?cid=0x0:0x50eebe88faef0b3b,
hardware store,hardware store,Kec. Wanokaka,"Kabupaten Sumba Barat, Nusa Tenggara Tim.","Kabupaten Sumba Barat, Nusa Tenggara Tim.",NUSA TENGGARA TIMUR,,Indonesia,,,,-9.7227274,119.4528333,https://maps.google.com/?cid=0x0:0xb894aaab28ba27d5,
hardware store,Toko Bahan Bangunan,Toko Nuansa Bangunan Dan Tehnik,"9C75+HG9, Wailiang, Kec. Kota Waikabubak, Kabupaten Sumba Barat, Nusa Tenggara Tim.","Kabupaten Sumba Barat, Nusa Tenggara Tim.",NUSA TENGGARA TIMUR,,Indonesia,81339419509.0,,,-9.6360822,119.4088515,https://maps.google.com/?cid=0x0:0xa546d9dc5012925e,
hardware store,Toko bahan makanan,Prima Dewata,"Unnamed Rd, Anakalang, Kec. Katikutana, Kabupaten Sumba Tengah, Nusa Tenggara Tim.","Kabupaten Sumba Tengah, Nusa Tenggara Tim.",NUSA TENGGARA TIMUR,,Indonesia,,,,-9.5908748,119.5778647,https://maps.google.com/?cid=0x0:0xe4385341afe88f41,
hardware store,Toko Perlengkapan Rumah,MR.DIY,"Jl. Ahmad Yani, Wailiang, Kec. Kota Waikabubak, Kabupaten Sumba Barat, Nusa Tenggara Tim. 87217","Wailiang, Kec. Kota Waikabubak, Kabupaten Sumba Barat",NUSA TENGGARA TIMUR,87217.0,Indonesia,,,,-9.6406488,119.4078019,https://maps.google.com/?cid=0x0:0x34d1943d35c76109,
hardware store,Pembangunan Perumahan,Hobawawi,"69CQ+3HM, Hoba Wawi, Kec. Wanokaka, Kabupaten Sumba Barat, Nusa Tenggara Tim.","Kabupaten Sumba Barat, Nusa Tenggara Tim.",NUSA TENGGARA TIMUR,,Indonesia,,,,-9.7797811,119.3889082,https://maps.google.com/?cid=0x0:0xbfc36e696656fccd,
hardware store,Toko Bahan Bangunan,Toko Nuansa Bangunan Dan Tehnik,"9C75+HG9, Wailiang, Kec. Kota Waikabubak, Kabupaten Sumba Barat, Nusa Tenggara Tim.","Kabupaten Sumba Barat, Nusa Tenggara Tim.",NUSA TENGGARA TIMUR,,Indonesia,81339419509.0,,,-9.6360822,119.4088515,https://maps.google.com/?cid=0x0:0xa546d9dc5012925e,
hardware store,hardware store,Kec. Lamboya,"Kabupaten Sumba Barat, Nusa Tenggara Tim.","Kabupaten Sumba Barat, Nusa Tenggara Tim.",NUSA TENGGARA TIMUR,,Indonesia,,,,-9.7205484,119.35646,https://maps.google.com/?cid=0x0:0x5968d2d2a2f91860,
hardware store,Toko Bahan Bangunan,Toko Lima Bintang Bangunan,"Jl. Ring Road Waikabubak, Pada Eweta, Kec. Kota Waikabubak, Kabupaten Sumba Barat, Nusa Tenggara Tim.","Kabupaten Sumba Barat, Nusa Tenggara Tim.",NUSA TENGGARA TIMUR,,Indonesia,81236835505.0,,,-9.6253098,119.389322,https://maps.google.com/?cid=0x0:0x2400e10b9df95a55,
hardware store,Toko Perlengkapan Rumah,MR.DIY,"Jl. Ahmad Yani, Wailiang, Kec. Kota Waikabubak, Kabupaten Sumba Barat, Nusa Tenggara Tim. 87217","Wailiang, Kec. Kota Waikabubak, Kabupaten Sumba Barat",NUSA TENGGARA TIMUR,87217.0,Indonesia,,,,-9.6406488,119.4078019,https://maps.google.com/?cid=0x0:0x34d1943d35c76109,
hardware store,Toko Perlengkapan Rumah,Mr D.I.Y.,"Lippo Plaza Kupang, Lt. UG, Fatululi, Kec. Oebobo, Kota Kupang, Nusa Tenggara Tim.","Kota Kupang, Nusa Tenggara Tim.",NUSA TENGGARA TIMUR,,Indonesia,2130022789.0,,,-10.1588684,123.6112291,https://maps.google.com/?cid=0x0:0x6221df3dfee54b51,
hardware store,Toko Bahan Bangunan,Toko Sentosa Jaya,"Jl. Bhayangkara No.38, Komerda, Kec. Kota Waikabubak, Kabupaten Sumba Barat, Nusa Tenggara Tim.","Kabupaten Sumba Barat, Nusa Tenggara Tim.",NUSA TENGGARA TIMUR,,Indonesia,38721381.0,,,-9.6289424,119.4079712,https://maps.google.com/?cid=0x0:0x383aa15223e6032a,
hardware store,Toko Perlengkapan Rumah,MR.DIY Waitabula,"JL. Raya Waitabula, Langga Lero, Kec. Kota Tambolaka, Kabupaten Sumba Barat Daya, Nusa Tenggara Tim. 87255","Langga Lero, Kec. Kota Tambolaka, Kabupaten Sumba Barat Daya",NUSA TENGGARA TIMUR,87255.0,Indonesia,,,,-9.4416462,119.2317649,https://maps.google.com/?cid=0x0:0xee8a6b4f3884289c,
hardware store,Layanan cetak digital,Toko Warna Jaya,"9C86+486, Maliti, Kec. Kota Waikabubak, Kabupaten Sumba Barat, Nusa Tenggara Tim.","Kabupaten Sumba Barat, Nusa Tenggara Tim.",NUSA TENGGARA TIMUR,,Indonesia,81239790872.0,,,-9.6347144,119.4107582,https://maps.google.com/?cid=0x0:0xd0d6f67295df80d3,
hardware store,Studio Fotografi,ELBAS FOTO COPY  PRINTING,"Kabu Karudi, Kec. Lamboya, Kabupaten Sumba Barat, Nusa Tenggara Tim. 87200","Kec. Lamboya, Kabupaten Sumba Barat",NUSA TENGGARA TIMUR,87200.0,Indonesia,81239947981.0,,,-9.7208624,119.3549417,https://maps.google.com/?cid=0x0:0x674dbfcb9168f408,
hardware store,hardware store,Kec. Kota Waikabubak,"Kabupaten Sumba Barat, Nusa Tenggara Tim.","Kabupaten Sumba Barat, Nusa Tenggara Tim.",NUSA TENGGARA TIMUR,,Indonesia,,,,-9.6318508,119.4116981,https://maps.google.com/?cid=0x0:0xc0a3b8deb8dcb273,
hardware store,Toko Bahan Bangunan,Toko Nuansa Bangunan Dan Tehnik,"9C75+HG9, Wailiang, Kec. Kota Waikabubak, Kabupaten Sumba Barat, Nusa Tenggara Tim.","Kabupaten Sumba Barat, Nusa Tenggara Tim.",NUSA TENGGARA TIMUR,,Indonesia,81339419509.0,,,-9.6360822,119.4088515,https://maps.google.com/?cid=0x0:0xa546d9dc5012925e,
hardware store,Toko Bahan Bangunan,Toko Lima Bintang Bangunan,"Jl. Ring Road Waikabubak, Pada Eweta, Kec. Kota Waikabubak, Kabupaten Sumba Barat, Nusa Tenggara Tim.","Kabupaten Sumba Barat, Nusa Tenggara Tim.",NUSA TENGGARA TIMUR,,Indonesia,81236835505.0,,,-9.6253098,119.389322,https://maps.google.com/?cid=0x0:0x2400e10b9df95a55,
hardware store,Toko Perlengkapan Rumah,MR.DIY,"Jl. Ahmad Yani, Wailiang, Kec. Kota Waikabubak, Kabupaten Sumba Barat, Nusa Tenggara Tim. 87217","Wailiang, Kec. Kota Waikabubak, Kabupaten Sumba Barat",NUSA TENGGARA TIMUR,87217.0,Indonesia,,,,-9.6406488,119.4078019,https://maps.google.com/?cid=0x0:0x34d1943d35c76109,
hardware store,Toko Bahan Bangunan,Toko Makmur,"Jl. Ahmad Yani No.3, Komerda, Kec. Kota Waikabubak, Kabupaten Sumba Barat, Nusa Tenggara Tim. 87211","Komerda, Kec. Kota Waikabubak, Kabupaten Sumba Barat",NUSA TENGGARA TIMUR,87211.0,Indonesia,81339020447.0,,,-9.6323297,119.411732,https://maps.google.com/?cid=0x0:0x70171ded7fc96b84,
hardware store,Toko Bahan Bangunan,Toko Amerta,"Jl. Jend. Sudirman No.3, Kp. Sawah, Kec. Kota Waikabubak, Kabupaten Sumba Barat, Nusa Tenggara Tim.","Kabupaten Sumba Barat, Nusa Tenggara Tim.",NUSA TENGGARA TIMUR,,Indonesia,82122228701.0,,,-9.635767,119.4129349,https://maps.google.com/?cid=0x0:0xd990784987776293,
hardware store,Toko Bahan Bangunan,Merdeka,"Jl. Bhayangkara No.38, Komerda, Kec. Kota Waikabubak, Kabupaten Sumba Barat, Nusa Tenggara Tim.","Kabupaten Sumba Barat, Nusa Tenggara Tim.",NUSA TENGGARA TIMUR,,Indonesia,,,,-9.6287962,119.4078268,https://maps.google.com/?cid=0x0:0xdc5a3c120ad9d757,
hardware store,Toko Elektronik,Global Teknik Waikabubak,"KM2-Sebelah Bank BNI, Jalan Bhayangkara, Komerda, Pada Eweta","Kabupaten Sumba Barat, Nusa Tenggara Tim.",NUSA TENGGARA TIMUR,,Indonesia,85208522022.0,,,-9.6276322,119.4062492,https://maps.google.com/?cid=0x0:0x80f27e8262a61441,
hardware store,Toko Perlengkapan Rumah,Toko Makmur Jaya Bangunan,"Jl. Bhayangkara, Pada Eweta, Kec. Kota Waikabubak, Kabupaten Sumba Barat, Nusa Tenggara Tim. 87217","Pada Eweta, Kec. Kota Waikabubak, Kabupaten Sumba Barat",NUSA TENGGARA TIMUR,87217.0,Indonesia,81339020447.0,,,-9.6259517,119.4038705,https://maps.google.com/?cid=0x0:0x2bfca63c0a2429f6,
hardware store,Layanan cetak digital,Toko Warna Jaya,"9C86+486, Maliti, Kec. Kota Waikabubak, Kabupaten Sumba Barat, Nusa Tenggara Tim.","Kabupaten Sumba Barat, Nusa Tenggara Tim.",NUSA TENGGARA TIMUR,,Indonesia,81239790872.0,,,-9.6347144,119.4107582,https://maps.google.com/?cid=0x0:0xd0d6f67295df80d3,
hardware store,Toko Perlengkapan Rumah,Saudara Bangunan,"9C43+5CV, Wee Karou, Kec. Loli, Kabupaten Sumba Barat, Nusa Tenggara Tim.","Kabupaten Sumba Barat, Nusa Tenggara Tim.",NUSA TENGGARA TIMUR,,Indonesia,,,,-9.6445021,119.403561,https://maps.google.com/?cid=0x0:0xbd0bec82e2e0b21f,
hardware store,Toko Elektronik,Socco Cell,"9C75+G48, Wailiang, Kec. Kota Waikabubak, Kabupaten Sumba Barat, Nusa Tenggara Tim.","Kabupaten Sumba Barat, Nusa Tenggara Tim.",NUSA TENGGARA TIMUR,,Indonesia,,,,-9.6362096,119.4078154,https://maps.google.com/?cid=0x0:0x34e70c6325fa0cfc,
hardware store,Servis Komputer,Berkat Sejahtera Computer Waikabubak,"Jl. Bhayangkara No.41, Komerda, Kec. Kota Waikabubak, Kabupaten Sumba Barat, Nusa Tenggara Tim. 87211","Komerda, Kec. Kota Waikabubak, Kabupaten Sumba Barat",NUSA TENGGARA TIMUR,87211.0,Indonesia,81331367111.0,,,-9.6282225,119.4066059,https://maps.google.com/?cid=0x0:0xdba7c8a9b7df7e25,
hardware store,Toko Pakaian,Toko Ramona,"9C75+4QJ, Maliti, Kec. Kota Waikabubak, Kabupaten Sumba Barat, Nusa Tenggara Tim.","Kabupaten Sumba Barat, Nusa Tenggara Tim.",NUSA TENGGARA TIMUR,,Indonesia,,,,-9.6371736,119.4093808,https://maps.google.com/?cid=0x0:0xbd25b5f3acf078c6,
hardware store,,Toko Matahari Waikabubak,"Jl. Veteran No.54, Kp. Baru, Kec. Kota Waikabubak, Kabupaten Sumba Barat, Nusa Tenggara Tim. 87214","Kp. Baru, Kec. Kota Waikabubak, Kabupaten Sumba Barat",NUSA TENGGARA TIMUR,87214.0,Indonesia,85253171512.0,,,-9.6303406,119.4161271,https://maps.google.com/?cid=0x0:0x8ef5270509524f28,
hardware store,Kontraktor Umum,INDONUSA GORDEN,"jl. Manda elu/perkelembung, kelurahanWailiang, Wailiang, Kec. Kota Waikabubak, Kabupaten Sumba Barat, Nusa Tenggara Tim.","Kabupaten Sumba Barat, Nusa Tenggara Tim.",NUSA TENGGARA TIMUR,,Indonesia,82359439949.0,,,-9.6332037,119.4097046,https://maps.google.com/?cid=0x0:0x6e5e40d1da54cd03,
hardware store,Toko Elektronik,Azizah Handphone Shop,"9C75+WM2, Wailiang, Kec. Kota Waikabubak, Kabupaten Sumba Barat, Nusa Tenggara Tim.","Kabupaten Sumba Barat, Nusa Tenggara Tim.",NUSA TENGGARA TIMUR,,Indonesia,82145253999.0,,,-9.6352302,119.4091395,https://maps.google.com/?cid=0x0:0xcf9f546a46e6af65,
hardware store,Toko Elektronik,PLATINUM CELL WAIKABUBAK,"9C55+P57, Jl. Ahmad Yani, Wailiang, Kec. Loli, Kabupaten Sumba Barat, Nusa Tenggara Tim.","Kabupaten Sumba Barat, Nusa Tenggara Tim.",NUSA TENGGARA TIMUR,,Indonesia,,,,-9.6407138,119.4079315,https://maps.google.com/?cid=0x0:0xf28130b0bbd49059,
hardware store,Toko,Kios Amin,"9C76+23C, Maliti, Kec. Kota Waikabubak, Kabupaten Sumba Barat, Nusa Tenggara Tim.","Kabupaten Sumba Barat, Nusa Tenggara Tim.",NUSA TENGGARA TIMUR,,Indonesia,,,,-9.6375728,119.4101177,https://maps.google.com/?cid=0x0:0x5d98f5b71e9045a,
hardware store,Toko Ponsel,SUMBA PHONE CELL WAIKABUBAK,"9C76+574, Unnamed Road, Maliti, Kec. Kota Waikabubak, Kabupaten Sumba Barat, Nusa Tenggara Tim.","Kabupaten Sumba Barat, Nusa Tenggara Tim.",NUSA TENGGARA TIMUR,,Indonesia,81238725830.0,,,-9.6371206,119.4106896,https://maps.google.com/?cid=0x0:0xe9f0173e3ee91719,
hardware store,hardware store,Nusa Tenggara Tim.,,Nusa Tenggara Tim.,NUSA TENGGARA TIMUR,,Indonesia,,,,-8.6573819,121.0793705,https://maps.google.com/?cid=0x0:0x1030bfbcaf71ae0,
hardware store,Toko Bahan Bangunan,Toko Duta Bangunan,"CH3M+GQ8, Wai Rasa, Kec. Umbu Ratu Nggay Bar., Kabupaten Sumba Tengah, Nusa Tenggara Tim.","Kabupaten Sumba Tengah, Nusa Tenggara Tim.",NUSA TENGGARA TIMUR,,Indonesia,,,,-9.5962137,119.5844623,https://maps.google.com/?cid=0x0:0x7e609489f14c4fbb,
hardware store,Toko,Toko Cinta Indah,"F7FJ+JGG, Limbu Watu,, Wee Kokora, Kec. Wewewa Tengah, Kabupaten Sumba Barat Daya, Nusa Tenggara Tim.","Kabupaten Sumba Barat Daya, Nusa Tenggara Tim.",NUSA TENGGARA TIMUR,,Indonesia,81353480750.0,,,-9.5259324,119.2813262,https://maps.google.com/?cid=0x0:0xfdd070a95cfb0d00,
hardware store,Toko Bahan Bangunan,TOKO Sinar Galaxi,"H6CR+XJ8, Unnamed Road, Loura, Kabupaten Barat Daya, Nusa Tenggara Tim., Radamata, Kec. Loura, Kabupaten Sumba Barat Daya, Nusa Tenggara Tim.","Kabupaten Sumba Barat Daya, Nusa Tenggara Tim.",NUSA TENGGARA TIMUR,,Indonesia,,,,-9.427579,119.2415805,https://maps.google.com/?cid=0x0:0x50d8175272a243a8,
hardware store,Toko Komputer,Lero Komputer,"Wee Londa, Kec. Loura, Kabupaten Sumba Barat Daya, Nusa Tenggara Tim.","Kabupaten Sumba Barat Daya, Nusa Tenggara Tim.",NUSA TENGGARA TIMUR,,Indonesia,81325060373.0,,,-9.4391405,119.2089132,https://maps.google.com/?cid=0x0:0xeea09d8ea6ae6e0b,
hardware store,Toko Elektronik,Primatech Cell,"Maliti, Kec. Kota Waikabubak, Kabupaten Sumba Barat, Nusa Tenggara Tim.","Kabupaten Sumba Barat, Nusa Tenggara Tim.",NUSA TENGGARA TIMUR,,Indonesia,82147759943.0,,,-9.6351225,119.4109558,https://maps.google.com/?cid=0x0:0xf67100c884a10e26,
hardware store,Kantor Pemerintahan Daerah,Kantor Kecamatan Kota Waikabubak,"9C6C+Q4M, Kp. Sawah, Kec. Kota Waikabubak, Kabupaten Sumba Barat, Nusa Tenggara Tim.","Kabupaten Sumba Barat, Nusa Tenggara Tim.",NUSA TENGGARA TIMUR,,Indonesia,81283885029.0,,,-9.6380375,119.4202969,https://maps.google.com/?cid=0x0:0x1b5f9e4718f01179,
hardware store,Toko,Toko JAYA BARU ELEKTRONIK,"9C96+R23, Jl. Bhayangkara, Komerda, Kec. Kota Waikabubak, Kabupaten Sumba Barat, Nusa Tenggara Tim.","Kabupaten Sumba Barat, Nusa Tenggara Tim.",NUSA TENGGARA TIMUR,,Indonesia,,,,-9.6305108,119.4099535,https://maps.google.com/?cid=0x0:0x25b6beb4cf86919c,
hardware store,Toko Perbaikan Ponsel,Assegaf Game,"9C85+9C3, Jalan selekta Unnamed Road, Wailiang, Kec. Kota Waikabubak, Kabupaten Sumba Barat, Nusa Tenggara Tim.","Kabupaten Sumba Barat, Nusa Tenggara Tim.",NUSA TENGGARA TIMUR,,Indonesia,81278137050.0,,,-9.6341096,119.4085486,https://maps.google.com/?cid=0x0:0xd5bf9f2eac16a2df,
hardware store,hardware store,Kec. Kota Waikabubak,"Kabupaten Sumba Barat, Nusa Tenggara Tim.","Kabupaten Sumba Barat, Nusa Tenggara Tim.",NUSA TENGGARA TIMUR,,Indonesia,,,,-9.6318508,119.4116981,https://maps.google.com/?cid=0x0:0xc0a3b8deb8dcb273,
hardware store,Toko Bahan Bangunan,Toko Nuansa Bangunan Dan Tehnik,"9C75+HG9, Wailiang, Kec. Kota Waikabubak, Kabupaten Sumba Barat, Nusa Tenggara Tim.","Kabupaten Sumba Barat, Nusa Tenggara Tim.",NUSA TENGGARA TIMUR,,Indonesia,81339419509.0,,,-9.6360822,119.4088515,https://maps.google.com/?cid=0x0:0xa546d9dc5012925e,
hardware store,Toko Bahan Bangunan,Toko Lima Bintang Bangunan,"Jl. Ring Road Waikabubak, Pada Eweta, Kec. Kota Waikabubak, Kabupaten Sumba Barat, Nusa Tenggara Tim.","Kabupaten Sumba Barat, Nusa Tenggara Tim.",NUSA TENGGARA TIMUR,,Indonesia,81236835505.0,,,-9.6253098,119.389322,https://maps.google.com/?cid=0x0:0x2400e10b9df95a55,
hardware store,Toko Bahan Bangunan,Toko Makmur,"Jl. Ahmad Yani No.3, Komerda, Kec. Kota Waikabubak, Kabupaten Sumba Barat, Nusa Tenggara Tim. 87211","Komerda, Kec. Kota Waikabubak, Kabupaten Sumba Barat",NUSA TENGGARA TIMUR,87211.0,Indonesia,81339020447.0,,,-9.6323297,119.411732,https://maps.google.com/?cid=0x0:0x70171ded7fc96b84,
hardware store,Toko Elektronik,Global Teknik Waikabubak,"KM2-Sebelah Bank BNI, Jalan Bhayangkara, Komerda, Pada Eweta","Kabupaten Sumba Barat, Nusa Tenggara Tim.",NUSA TENGGARA TIMUR,,Indonesia,85208522022.0,,,-9.6276322,119.4062492,https://maps.google.com/?cid=0x0:0x80f27e8262a61441,
hardware store,Toko Perlengkapan Rumah,Toko Makmur Jaya Bangunan,"Jl. Bhayangkara, Pada Eweta, Kec. Kota Waikabubak, Kabupaten Sumba Barat, Nusa Tenggara Tim. 87217","Pada Eweta, Kec. Kota Waikabubak, Kabupaten Sumba Barat",NUSA TENGGARA TIMUR,87217.0,Indonesia,81339020447.0,,,-9.6259517,119.4038705,https://maps.google.com/?cid=0x0:0x2bfca63c0a2429f6,
hardware store,Toko Perlengkapan Rumah,Saudara Bangunan,"9C43+5CV, Wee Karou, Kec. Loli, Kabupaten Sumba Barat, Nusa Tenggara Tim.","Kabupaten Sumba Barat, Nusa Tenggara Tim.",NUSA TENGGARA TIMUR,,Indonesia,,,,-9.6445021,119.403561,https://maps.google.com/?cid=0x0:0xbd0bec82e2e0b21f,
hardware store,Servis Komputer,Berkat Sejahtera Computer Waikabubak,"Jl. Bhayangkara No.41, Komerda, Kec. Kota Waikabubak, Kabupaten Sumba Barat, Nusa Tenggara Tim. 87211","Komerda, Kec. Kota Waikabubak, Kabupaten Sumba Barat",NUSA TENGGARA TIMUR,87211.0,Indonesia,81331367111.0,,,-9.6282225,119.4066059,https://maps.google.com/?cid=0x0:0xdba7c8a9b7df7e25,
hardware store,Toko Elektronik,Socco Cell,"9C75+G48, Wailiang, Kec. Kota Waikabubak, Kabupaten Sumba Barat, Nusa Tenggara Tim.","Kabupaten Sumba Barat, Nusa Tenggara Tim.",NUSA TENGGARA TIMUR,,Indonesia,,,,-9.6362096,119.4078154,https://maps.google.com/?cid=0x0:0x34e70c6325fa0cfc,
hardware store,Toko Pakaian,Toko Ramona,"9C75+4QJ, Maliti, Kec. Kota Waikabubak, Kabupaten Sumba Barat, Nusa Tenggara Tim.","Kabupaten Sumba Barat, Nusa Tenggara Tim.",NUSA TENGGARA TIMUR,,Indonesia,,,,-9.6371736,119.4093808,https://maps.google.com/?cid=0x0:0xbd25b5f3acf078c6,
hardware store,,Toko Matahari Waikabubak,"Jl. Veteran No.54, Kp. Baru, Kec. Kota Waikabubak, Kabupaten Sumba Barat, Nusa Tenggara Tim. 87214","Kp. Baru, Kec. Kota Waikabubak, Kabupaten Sumba Barat",NUSA TENGGARA TIMUR,87214.0,Indonesia,85253171512.0,,,-9.6303406,119.4161271,https://maps.google.com/?cid=0x0:0x8ef5270509524f28,
hardware store,Kontraktor Umum,INDONUSA GORDEN,"jl. Manda elu/perkelembung, kelurahanWailiang, Wailiang, Kec. Kota Waikabubak, Kabupaten Sumba Barat, Nusa Tenggara Tim.","Kabupaten Sumba Barat, Nusa Tenggara Tim.",NUSA TENGGARA TIMUR,,Indonesia,82359439949.0,,,-9.6332037,119.4097046,https://maps.google.com/?cid=0x0:0x6e5e40d1da54cd03,
hardware store,Toko Elektronik,Azizah Handphone Shop,"9C75+WM2, Wailiang, Kec. Kota Waikabubak, Kabupaten Sumba Barat, Nusa Tenggara Tim.","Kabupaten Sumba Barat, Nusa Tenggara Tim.",NUSA TENGGARA TIMUR,,Indonesia,82145253999.0,,,-9.6352302,119.4091395,https://maps.google.com/?cid=0x0:0xcf9f546a46e6af65,
hardware store,Toko,Kios Amin,"9C76+23C, Maliti, Kec. Kota Waikabubak, Kabupaten Sumba Barat, Nusa Tenggara Tim.","Kabupaten Sumba Barat, Nusa Tenggara Tim.",NUSA TENGGARA TIMUR,,Indonesia,,,,-9.6375728,119.4101177,https://maps.google.com/?cid=0x0:0x5d98f5b71e9045a,
hardware store,Toko Elektronik,PLATINUM CELL WAIKABUBAK,"9C55+P57, Jl. Ahmad Yani, Wailiang, Kec. Loli, Kabupaten Sumba Barat, Nusa Tenggara Tim.","Kabupaten Sumba Barat, Nusa Tenggara Tim.",NUSA TENGGARA TIMUR,,Indonesia,,,,-9.6407138,119.4079315,https://maps.google.com/?cid=0x0:0xf28130b0bbd49059,
hardware store,Toko Ponsel,SUMBA PHONE CELL WAIKABUBAK,"9C76+574, Unnamed Road, Maliti, Kec. Kota Waikabubak, Kabupaten Sumba Barat, Nusa Tenggara Tim.","Kabupaten Sumba Barat, Nusa Tenggara Tim.",NUSA TENGGARA TIMUR,,Indonesia,81238725830.0,,,-9.6371206,119.4106896,https://maps.google.com/?cid=0x0:0xe9f0173e3ee91719,
hardware store,Toko Bahan Bangunan,Toko Duta Bangunan,"CH3M+GQ8, Wai Rasa, Kec. Umbu Ratu Nggay Bar., Kabupaten Sumba Tengah, Nusa Tenggara Tim.","Kabupaten Sumba Tengah, Nusa Tenggara Tim.",NUSA TENGGARA TIMUR,,Indonesia,,,,-9.5962137,119.5844623,https://maps.google.com/?cid=0x0:0x7e609489f14c4fbb,
hardware store,Pusat Perbelanjaan,Pasar Inpres Lama,"9C75+W38, Wailiang, Kec. Kota Waikabubak, Kabupaten Sumba Barat, Nusa Tenggara Tim.","Kabupaten Sumba Barat, Nusa Tenggara Tim.",NUSA TENGGARA TIMUR,,Indonesia,81337897176.0,,,-9.6352221,119.4077139,https://maps.google.com/?cid=0x0:0x38ecfcd1492ea179,
hardware store,Klub Olahraga,Gelora Padaeweta,"99FQ+CRP, Pada Eweta, Kec. Kota Waikabubak, Kabupaten Sumba Barat, Nusa Tenggara Tim.","Kabupaten Sumba Barat, Nusa Tenggara Tim.",NUSA TENGGARA TIMUR,,Indonesia,,,,-9.62641,119.3895863,https://maps.google.com/?cid=0x0:0x4050a67136875f11,
hardware store,hardware store,Nusa Tenggara Tim.,,Nusa Tenggara Tim.,NUSA TENGGARA TIMUR,,Indonesia,,,,-8.6573819,121.0793705,https://maps.google.com/?cid=0x0:0x1030bfbcaf71ae0,
hardware store,Toko Perbaikan Ponsel,Assegaf Game,"9C85+9C3, Jalan selekta Unnamed Road, Wailiang, Kec. Kota Waikabubak, Kabupaten Sumba Barat, Nusa Tenggara Tim.","Kabupaten Sumba Barat, Nusa Tenggara Tim.",NUSA TENGGARA TIMUR,,Indonesia,81278137050.0,,,-9.6341096,119.4085486,https://maps.google.com/?cid=0x0:0xd5bf9f2eac16a2df,
hardware store,Toko,Toko Cinta Indah,"F7FJ+JGG, Limbu Watu,, Wee Kokora, Kec. Wewewa Tengah, Kabupaten Sumba Barat Daya, Nusa Tenggara Tim.","Kabupaten Sumba Barat Daya, Nusa Tenggara Tim.",NUSA TENGGARA TIMUR,,Indonesia,81353480750.0,,,-9.5259324,119.2813262,https://maps.google.com/?cid=0x0:0xfdd070a95cfb0d00,
hardware store,Toko Bahan Bangunan,TOKO Sinar Galaxi,"H6CR+XJ8, Unnamed Road, Loura, Kabupaten Barat Daya, Nusa Tenggara Tim., Radamata, Kec. Loura, Kabupaten Sumba Barat Daya, Nusa Tenggara Tim.","Kabupaten Sumba Barat Daya, Nusa Tenggara Tim.",NUSA TENGGARA TIMUR,,Indonesia,,,,-9.427579,119.2415805,https://maps.google.com/?cid=0x0:0x50d8175272a243a8,
hardware store,Toko Komputer,Lero Komputer,"Wee Londa, Kec. Loura, Kabupaten Sumba Barat Daya, Nusa Tenggara Tim.","Kabupaten Sumba Barat Daya, Nusa Tenggara Tim.",NUSA TENGGARA TIMUR,,Indonesia,81325060373.0,,,-9.4391405,119.2089132,https://maps.google.com/?cid=0x0:0xeea09d8ea6ae6e0b,
hardware store,Toko Elektronik,Primatech Cell,"Maliti, Kec. Kota Waikabubak, Kabupaten Sumba Barat, Nusa Tenggara Tim.","Kabupaten Sumba Barat, Nusa Tenggara Tim.",NUSA TENGGARA TIMUR,,Indonesia,82147759943.0,,,-9.6351225,119.4109558,https://maps.google.com/?cid=0x0:0xf67100c884a10e26,
hardware store,Toko Bahan Bangunan,Toko Sentosa Jaya,"Jl. Bhayangkara No.38, Komerda, Kec. Kota Waikabubak, Kabupaten Sumba Barat, Nusa Tenggara Tim.","Kabupaten Sumba Barat, Nusa Tenggara Tim.",NUSA TENGGARA TIMUR,,Indonesia,38721381.0,,,-9.6289424,119.4079712,https://maps.google.com/?cid=0x0:0x383aa15223e6032a,
hardware store,Toko Perlengkapan Rumah,MR.DIY,"Jl. Ahmad Yani, Wailiang, Kec. Kota Waikabubak, Kabupaten Sumba Barat, Nusa Tenggara Tim. 87217","Wailiang, Kec. Kota Waikabubak, Kabupaten Sumba Barat",NUSA TENGGARA TIMUR,87217.0,Indonesia,,,,-9.6406488,119.4078019,https://maps.google.com/?cid=0x0:0x34d1943d35c76109,
hardware store,Toko Bahan Bangunan,Merdeka,"Jl. Bhayangkara No.38, Komerda, Kec. Kota Waikabubak, Kabupaten Sumba Barat, Nusa Tenggara Tim.","Kabupaten Sumba Barat, Nusa Tenggara Tim.",NUSA TENGGARA TIMUR,,Indonesia,,,,-9.6287962,119.4078268,https://maps.google.com/?cid=0x0:0xdc5a3c120ad9d757,
hardware store,Layanan cetak digital,Toko Warna Jaya,"9C86+486, Maliti, Kec. Kota Waikabubak, Kabupaten Sumba Barat, Nusa Tenggara Tim.","Kabupaten Sumba Barat, Nusa Tenggara Tim.",NUSA TENGGARA TIMUR,,Indonesia,81239790872.0,,,-9.6347144,119.4107582,https://maps.google.com/?cid=0x0:0xd0d6f67295df80d3,
hardware store,hardware store,Kec. Kota Waikabubak,"Kabupaten Sumba Barat, Nusa Tenggara Tim.","Kabupaten Sumba Barat, Nusa Tenggara Tim.",NUSA TENGGARA TIMUR,,Indonesia,,,,-9.6318508,119.4116981,https://maps.google.com/?cid=0x0:0xc0a3b8deb8dcb273,
hardware store,Toko Bahan Bangunan,Toko Nuansa Bangunan Dan Tehnik,"9C75+HG9, Wailiang, Kec. Kota Waikabubak, Kabupaten Sumba Barat, Nusa Tenggara Tim.","Kabupaten Sumba Barat, Nusa Tenggara Tim.",NUSA TENGGARA TIMUR,,Indonesia,81339419509.0,,,-9.6360822,119.4088515,https://maps.google.com/?cid=0x0:0xa546d9dc5012925e,
hardware store,Toko Bahan Bangunan,Toko Lima Bintang Bangunan,"Jl. Ring Road Waikabubak, Pada Eweta, Kec. Kota Waikabubak, Kabupaten Sumba Barat, Nusa Tenggara Tim.","Kabupaten Sumba Barat, Nusa Tenggara Tim.",NUSA TENGGARA TIMUR,,Indonesia,81236835505.0,,,-9.6253098,119.389322,https://maps.google.com/?cid=0x0:0x2400e10b9df95a55,
hardware store,Toko Perlengkapan Rumah,MR.DIY,"Jl. Ahmad Yani, Wailiang, Kec. Kota Waikabubak, Kabupaten Sumba Barat, Nusa Tenggara Tim. 87217","Wailiang, Kec. Kota Waikabubak, Kabupaten Sumba Barat",NUSA TENGGARA TIMUR,87217.0,Indonesia,,,,-9.6406488,119.4078019,https://maps.google.com/?cid=0x0:0x34d1943d35c76109,
hardware store,Toko Bahan Bangunan,Toko Amerta,"Jl. Jend. Sudirman No.3, Kp. Sawah, Kec. Kota Waikabubak, Kabupaten Sumba Barat, Nusa Tenggara Tim.","Kabupaten Sumba Barat, Nusa Tenggara Tim.",NUSA TENGGARA TIMUR,,Indonesia,82122228701.0,,,-9.635767,119.4129349,https://maps.google.com/?cid=0x0:0xd990784987776293,
hardware store,Toko Bahan Bangunan,Merdeka,"Jl. Bhayangkara No.38, Komerda, Kec. Kota Waikabubak, Kabupaten Sumba Barat, Nusa Tenggara Tim.","Kabupaten Sumba Barat, Nusa Tenggara Tim.",NUSA TENGGARA TIMUR,,Indonesia,,,,-9.6287962,119.4078268,https://maps.google.com/?cid=0x0:0xdc5a3c120ad9d757,
hardware store,Toko Elektronik,Global Teknik Waikabubak,"KM2-Sebelah Bank BNI, Jalan Bhayangkara, Komerda, Pada Eweta","Kabupaten Sumba Barat, Nusa Tenggara Tim.",NUSA TENGGARA TIMUR,,Indonesia,85208522022.0,,,-9.6276322,119.4062492,https://maps.google.com/?cid=0x0:0x80f27e8262a61441,
hardware store,Layanan cetak digital,Toko Warna Jaya,"9C86+486, Maliti, Kec. Kota Waikabubak, Kabupaten Sumba Barat, Nusa Tenggara Tim.","Kabupaten Sumba Barat, Nusa Tenggara Tim.",NUSA TENGGARA TIMUR,,Indonesia,81239790872.0,,,-9.6347144,119.4107582,https://maps.google.com/?cid=0x0:0xd0d6f67295df80d3,
hardware store,Toko Perlengkapan Rumah,Saudara Bangunan,"9C43+5CV, Wee Karou, Kec. Loli, Kabupaten Sumba Barat, Nusa Tenggara Tim.","Kabupaten Sumba Barat, Nusa Tenggara Tim.",NUSA TENGGARA TIMUR,,Indonesia,,,,-9.6445021,119.403561,https://maps.google.com/?cid=0x0:0xbd0bec82e2e0b21f,
hardware store,Servis Komputer,Berkat Sejahtera Computer Waikabubak,"Jl. Bhayangkara No.41, Komerda, Kec. Kota Waikabubak, Kabupaten Sumba Barat, Nusa Tenggara Tim. 87211","Komerda, Kec. Kota Waikabubak, Kabupaten Sumba Barat",NUSA TENGGARA TIMUR,87211.0,Indonesia,81331367111.0,,,-9.6282225,119.4066059,https://maps.google.com/?cid=0x0:0xdba7c8a9b7df7e25,
hardware store,Toko Elektronik,Socco Cell,"9C75+G48, Wailiang, Kec. Kota Waikabubak, Kabupaten Sumba Barat, Nusa Tenggara Tim.","Kabupaten Sumba Barat, Nusa Tenggara Tim.",NUSA TENGGARA TIMUR,,Indonesia,,,,-9.6362096,119.4078154,https://maps.google.com/?cid=0x0:0x34e70c6325fa0cfc,
hardware store,Toko Pakaian,Toko Ramona,"9C75+4QJ, Maliti, Kec. Kota Waikabubak, Kabupaten Sumba Barat, Nusa Tenggara Tim.","Kabupaten Sumba Barat, Nusa Tenggara Tim.",NUSA TENGGARA TIMUR,,Indonesia,,,,-9.6371736,119.4093808,https://maps.google.com/?cid=0x0:0xbd25b5f3acf078c6,
hardware store,,Toko Matahari Waikabubak,"Jl. Veteran No.54, Kp. Baru, Kec. Kota Waikabubak, Kabupaten Sumba Barat, Nusa Tenggara Tim. 87214","Kp. Baru, Kec. Kota Waikabubak, Kabupaten Sumba Barat",NUSA TENGGARA TIMUR,87214.0,Indonesia,85253171512.0,,,-9.6303406,119.4161271,https://maps.google.com/?cid=0x0:0x8ef5270509524f28,
hardware store,Kontraktor Umum,INDONUSA GORDEN,"jl. Manda elu/perkelembung, kelurahanWailiang, Wailiang, Kec. Kota Waikabubak, Kabupaten Sumba Barat, Nusa Tenggara Tim.","Kabupaten Sumba Barat, Nusa Tenggara Tim.",NUSA TENGGARA TIMUR,,Indonesia,82359439949.0,,,-9.6332037,119.4097046,https://maps.google.com/?cid=0x0:0x6e5e40d1da54cd03,
hardware store,Toko Elektronik,Azizah Handphone Shop,"9C75+WM2, Wailiang, Kec. Kota Waikabubak, Kabupaten Sumba Barat, Nusa Tenggara Tim.","Kabupaten Sumba Barat, Nusa Tenggara Tim.",NUSA TENGGARA TIMUR,,Indonesia,82145253999.0,,,-9.6352302,119.4091395,https://maps.google.com/?cid=0x0:0xcf9f546a46e6af65,
hardware store,Toko,Kios Amin,"9C76+23C, Maliti, Kec. Kota Waikabubak, Kabupaten Sumba Barat, Nusa Tenggara Tim.","Kabupaten Sumba Barat, Nusa Tenggara Tim.",NUSA TENGGARA TIMUR,,Indonesia,,,,-9.6375728,119.4101177,https://maps.google.com/?cid=0x0:0x5d98f5b71e9045a,
hardware store,Toko Elektronik,PLATINUM CELL WAIKABUBAK,"9C55+P57, Jl. Ahmad Yani, Wailiang, Kec. Loli, Kabupaten Sumba Barat, Nusa Tenggara Tim.","Kabupaten Sumba Barat, Nusa Tenggara Tim.",NUSA TENGGARA TIMUR,,Indonesia,,,,-9.6407138,119.4079315,https://maps.google.com/?cid=0x0:0xf28130b0bbd49059,
hardware store,Toko Ponsel,SUMBA PHONE CELL WAIKABUBAK,"9C76+574, Unnamed Road, Maliti, Kec. Kota Waikabubak, Kabupaten Sumba Barat, Nusa Tenggara Tim.","Kabupaten Sumba Barat, Nusa Tenggara Tim.",NUSA TENGGARA TIMUR,,Indonesia,81238725830.0,,,-9.6371206,119.4106896,https://maps.google.com/?cid=0x0:0xe9f0173e3ee91719,
hardware store,Toko Bahan Bangunan,Toko Duta Bangunan,"CH3M+GQ8, Wai Rasa, Kec. Umbu Ratu Nggay Bar., Kabupaten Sumba Tengah, Nusa Tenggara Tim.","Kabupaten Sumba Tengah, Nusa Tenggara Tim.",NUSA TENGGARA TIMUR,,Indonesia,,,,-9.5962137,119.5844623,https://maps.google.com/?cid=0x0:0x7e609489f14c4fbb,
hardware store,Toko Perbaikan Ponsel,Assegaf Game,"9C85+9C3, Jalan selekta Unnamed Road, Wailiang, Kec. Kota Waikabubak, Kabupaten Sumba Barat, Nusa Tenggara Tim.","Kabupaten Sumba Barat, Nusa Tenggara Tim.",NUSA TENGGARA TIMUR,,Indonesia,81278137050.0,,,-9.6341096,119.4085486,https://maps.google.com/?cid=0x0:0xd5bf9f2eac16a2df,
hardware store,Kantor Pemerintahan Daerah,Kantor Kecamatan Kota Waikabubak,"9C6C+Q4M, Kp. Sawah, Kec. Kota Waikabubak, Kabupaten Sumba Barat, Nusa Tenggara Tim.","Kabupaten Sumba Barat, Nusa Tenggara Tim.",NUSA TENGGARA TIMUR,,Indonesia,81283885029.0,,,-9.6380375,119.4202969,https://maps.google.com/?cid=0x0:0x1b5f9e4718f01179,
hardware store,hardware store,Nusa Tenggara Tim. 87214,"Kp. Baru, Kec. Kota Waikabubak, Kabupaten Sumba Barat, Nusa Tenggara Tim.","Kabupaten Sumba Barat, Nusa Tenggara Tim.",NUSA TENGGARA TIMUR,,Indonesia,,,,-9.6319416,119.4178502,https://maps.google.com/?cid=0x0:0xf74500f4f5161cf1,
hardware store,Toko Bahan Bangunan,Toko Nuansa Bangunan Dan Tehnik,"9C75+HG9, Wailiang, Kec. Kota Waikabubak, Kabupaten Sumba Barat, Nusa Tenggara Tim.","Kabupaten Sumba Barat, Nusa Tenggara Tim.",NUSA TENGGARA TIMUR,,Indonesia,81339419509.0,,,-9.6360822,119.4088515,https://maps.google.com/?cid=0x0:0xa546d9dc5012925e,
hardware store,Toko Bahan Bangunan,Toko Makmur,"Jl. Ahmad Yani No.3, Komerda, Kec. Kota Waikabubak, Kabupaten Sumba Barat, Nusa Tenggara Tim. 87211","Komerda, Kec. Kota Waikabubak, Kabupaten Sumba Barat",NUSA TENGGARA TIMUR,87211.0,Indonesia,81339020447.0,,,-9.6323297,119.411732,https://maps.google.com/?cid=0x0:0x70171ded7fc96b84,
hardware store,Toko Perlengkapan Rumah,Toko Makmur Jaya Bangunan,"Jl. Bhayangkara, Pada Eweta, Kec. Kota Waikabubak, Kabupaten Sumba Barat, Nusa Tenggara Tim. 87217","Pada Eweta, Kec. Kota Waikabubak, Kabupaten Sumba Barat",NUSA TENGGARA TIMUR,87217.0,Indonesia,81339020447.0,,,-9.6259517,119.4038705,https://maps.google.com/?cid=0x0:0x2bfca63c0a2429f6,
hardware store,Toko Bahan Bangunan,Toko Amerta,"Jl. Jend. Sudirman No.3, Kp. Sawah, Kec. Kota Waikabubak, Kabupaten Sumba Barat, Nusa Tenggara Tim.","Kabupaten Sumba Barat, Nusa Tenggara Tim.",NUSA TENGGARA TIMUR,,Indonesia,82122228701.0,,,-9.635767,119.4129349,https://maps.google.com/?cid=0x0:0xd990784987776293,
hardware store,Toko Bahan Bangunan,Toko Lima Bintang Bangunan,"Jl. Ring Road Waikabubak, Pada Eweta, Kec. Kota Waikabubak, Kabupaten Sumba Barat, Nusa Tenggara Tim.","Kabupaten Sumba Barat, Nusa Tenggara Tim.",NUSA TENGGARA TIMUR,,Indonesia,81236835505.0,,,-9.6253098,119.389322,https://maps.google.com/?cid=0x0:0x2400e10b9df95a55,
hardware store,,Toko Matahari Waikabubak,"Jl. Veteran No.54, Kp. Baru, Kec. Kota Waikabubak, Kabupaten Sumba Barat, Nusa Tenggara Tim. 87214","Kp. Baru, Kec. Kota Waikabubak, Kabupaten Sumba Barat",NUSA TENGGARA TIMUR,87214.0,Indonesia,85253171512.0,,,-9.6303406,119.4161271,https://maps.google.com/?cid=0x0:0x8ef5270509524f28,
hardware store,Toko Pakaian,Toko Ramona,"9C75+4QJ, Maliti, Kec. Kota Waikabubak, Kabupaten Sumba Barat, Nusa Tenggara Tim.","Kabupaten Sumba Barat, Nusa Tenggara Tim.",NUSA TENGGARA TIMUR,,Indonesia,,,,-9.6371736,119.4093808,https://maps.google.com/?cid=0x0:0xbd25b5f3acf078c6,
hardware store,Toko Elektronik,Socco Cell,"9C75+G48, Wailiang, Kec. Kota Waikabubak, Kabupaten Sumba Barat, Nusa Tenggara Tim.","Kabupaten Sumba Barat, Nusa Tenggara Tim.",NUSA TENGGARA TIMUR,,Indonesia,,,,-9.6362096,119.4078154,https://maps.google.com/?cid=0x0:0x34e70c6325fa0cfc,
hardware store,Servis Komputer,Berkat Sejahtera Computer Waikabubak,"Jl. Bhayangkara No.41, Komerda, Kec. Kota Waikabubak, Kabupaten Sumba Barat, Nusa Tenggara Tim. 87211","Komerda, Kec. Kota Waikabubak, Kabupaten Sumba Barat",NUSA TENGGARA TIMUR,87211.0,Indonesia,81331367111.0,,,-9.6282225,119.4066059,https://maps.google.com/?cid=0x0:0xdba7c8a9b7df7e25,
hardware store,Toko Perlengkapan Rumah,Saudara Bangunan,"9C43+5CV, Wee Karou, Kec. Loli, Kabupaten Sumba Barat, Nusa Tenggara Tim.","Kabupaten Sumba Barat, Nusa Tenggara Tim.",NUSA TENGGARA TIMUR,,Indonesia,,,,-9.6445021,119.403561,https://maps.google.com/?cid=0x0:0xbd0bec82e2e0b21f,
hardware store,Kontraktor Umum,INDONUSA GORDEN,"jl. Manda elu/perkelembung, kelurahanWailiang, Wailiang, Kec. Kota Waikabubak, Kabupaten Sumba Barat, Nusa Tenggara Tim.","Kabupaten Sumba Barat, Nusa Tenggara Tim.",NUSA TENGGARA TIMUR,,Indonesia,82359439949.0,,,-9.6332037,119.4097046,https://maps.google.com/?cid=0x0:0x6e5e40d1da54cd03,
hardware store,Toko Elektronik,PLATINUM CELL WAIKABUBAK,"9C55+P57, Jl. Ahmad Yani, Wailiang, Kec. Loli, Kabupaten Sumba Barat, Nusa Tenggara Tim.","Kabupaten Sumba Barat, Nusa Tenggara Tim.",NUSA TENGGARA TIMUR,,Indonesia,,,,-9.6407138,119.4079315,https://maps.google.com/?cid=0x0:0xf28130b0bbd49059,
hardware store,Toko Ponsel,SUMBA PHONE CELL WAIKABUBAK,"9C76+574, Unnamed Road, Maliti, Kec. Kota Waikabubak, Kabupaten Sumba Barat, Nusa Tenggara Tim.","Kabupaten Sumba Barat, Nusa Tenggara Tim.",NUSA TENGGARA TIMUR,,Indonesia,81238725830.0,,,-9.6371206,119.4106896,https://maps.google.com/?cid=0x0:0xe9f0173e3ee91719,
hardware store,Toko,Kios Amin,"9C76+23C, Maliti, Kec. Kota Waikabubak, Kabupaten Sumba Barat, Nusa Tenggara Tim.","Kabupaten Sumba Barat, Nusa Tenggara Tim.",NUSA TENGGARA TIMUR,,Indonesia,,,,-9.6375728,119.4101177,https://maps.google.com/?cid=0x0:0x5d98f5b71e9045a,
hardware store,Toko Elektronik,Azizah Handphone Shop,"9C75+WM2, Wailiang, Kec. Kota Waikabubak, Kabupaten Sumba Barat, Nusa Tenggara Tim.","Kabupaten Sumba Barat, Nusa Tenggara Tim.",NUSA TENGGARA TIMUR,,Indonesia,82145253999.0,,,-9.6352302,119.4091395,https://maps.google.com/?cid=0x0:0xcf9f546a46e6af65,
hardware store,Toko Bahan Bangunan,Toko Duta Bangunan,"CH3M+GQ8, Wai Rasa, Kec. Umbu Ratu Nggay Bar., Kabupaten Sumba Tengah, Nusa Tenggara Tim.","Kabupaten Sumba Tengah, Nusa Tenggara Tim.",NUSA TENGGARA TIMUR,,Indonesia,,,,-9.5962137,119.5844623,https://maps.google.com/?cid=0x0:0x7e609489f14c4fbb,
hardware store,Toko Perbaikan Ponsel,Assegaf Game,"9C85+9C3, Jalan selekta Unnamed Road, Wailiang, Kec. Kota Waikabubak, Kabupaten Sumba Barat, Nusa Tenggara Tim.","Kabupaten Sumba Barat, Nusa Tenggara Tim.",NUSA TENGGARA TIMUR,,Indonesia,81278137050.0,,,-9.6341096,119.4085486,https://maps.google.com/?cid=0x0:0xd5bf9f2eac16a2df,
hardware store,Toko Bahan Bangunan,Toko Sentosa Jaya,"Jl. Bhayangkara No.38, Komerda, Kec. Kota Waikabubak, Kabupaten Sumba Barat, Nusa Tenggara Tim.","Kabupaten Sumba Barat, Nusa Tenggara Tim.",NUSA TENGGARA TIMUR,,Indonesia,38721381.0,,,-9.6289424,119.4079712,https://maps.google.com/?cid=0x0:0x383aa15223e6032a,
hardware store,Toko Perlengkapan Rumah,MR.DIY,"Jl. Ahmad Yani, Wailiang, Kec. Kota Waikabubak, Kabupaten Sumba Barat, Nusa Tenggara Tim. 87217","Wailiang, Kec. Kota Waikabubak, Kabupaten Sumba Barat",NUSA TENGGARA TIMUR,87217.0,Indonesia,,,,-9.6406488,119.4078019,https://maps.google.com/?cid=0x0:0x34d1943d35c76109,
hardware store,hardware store,Kec. Kota Waikabubak,"Kabupaten Sumba Barat, Nusa Tenggara Tim.","Kabupaten Sumba Barat, Nusa Tenggara Tim.",NUSA TENGGARA TIMUR,,Indonesia,,,,-9.6318508,119.4116981,https://maps.google.com/?cid=0x0:0xc0a3b8deb8dcb273,
hardware store,Toko Bahan Bangunan,Merdeka,"Jl. Bhayangkara No.38, Komerda, Kec. Kota Waikabubak, Kabupaten Sumba Barat, Nusa Tenggara Tim.","Kabupaten Sumba Barat, Nusa Tenggara Tim.",NUSA TENGGARA TIMUR,,Indonesia,,,,-9.6287962,119.4078268,https://maps.google.com/?cid=0x0:0xdc5a3c120ad9d757,
hardware store,Kantor Pemerintahan Daerah,Kantor Kecamatan Kota Waikabubak,"9C6C+Q4M, Kp. Sawah, Kec. Kota Waikabubak, Kabupaten Sumba Barat, Nusa Tenggara Tim.","Kabupaten Sumba Barat, Nusa Tenggara Tim.",NUSA TENGGARA TIMUR,,Indonesia,81283885029.0,,,-9.6380375,119.4202969,https://maps.google.com/?cid=0x0:0x1b5f9e4718f01179,
hardware store,Layanan cetak digital,Toko Warna Jaya,"9C86+486, Maliti, Kec. Kota Waikabubak, Kabupaten Sumba Barat, Nusa Tenggara Tim.","Kabupaten Sumba Barat, Nusa Tenggara Tim.",NUSA TENGGARA TIMUR,,Indonesia,81239790872.0,,,-9.6347144,119.4107582,https://maps.google.com/?cid=0x0:0xd0d6f67295df80d3,
hardware store,hardware store,Kec. Kota Waikabubak,"Kabupaten Sumba Barat, Nusa Tenggara Tim.","Kabupaten Sumba Barat, Nusa Tenggara Tim.",NUSA TENGGARA TIMUR,,Indonesia,,,,-9.6318508,119.4116981,https://maps.google.com/?cid=0x0:0xc0a3b8deb8dcb273,
hardware store,Toko Bahan Bangunan,Toko Nuansa Bangunan Dan Tehnik,"9C75+HG9, Wailiang, Kec. Kota Waikabubak, Kabupaten Sumba Barat, Nusa Tenggara Tim.","Kabupaten Sumba Barat, Nusa Tenggara Tim.",NUSA TENGGARA TIMUR,,Indonesia,81339419509.0,,,-9.6360822,119.4088515,https://maps.google.com/?cid=0x0:0xa546d9dc5012925e,
hardware store,Toko Bahan Bangunan,Toko Lima Bintang Bangunan,"Jl. Ring Road Waikabubak, Pada Eweta, Kec. Kota Waikabubak, Kabupaten Sumba Barat, Nusa Tenggara Tim.","Kabupaten Sumba Barat, Nusa Tenggara Tim.",NUSA TENGGARA TIMUR,,Indonesia,81236835505.0,,,-9.6253098,119.389322,https://maps.google.com/?cid=0x0:0x2400e10b9df95a55,
hardware store,Toko Bahan Bangunan,Toko Sentosa Jaya,"Jl. Bhayangkara No.38, Komerda, Kec. Kota Waikabubak, Kabupaten Sumba Barat, Nusa Tenggara Tim.","Kabupaten Sumba Barat, Nusa Tenggara Tim.",NUSA TENGGARA TIMUR,,Indonesia,38721381.0,,,-9.6289424,119.4079712,https://maps.google.com/?cid=0x0:0x383aa15223e6032a,
hardware store,Toko Bahan Bangunan,Merdeka,"Jl. Bhayangkara No.38, Komerda, Kec. Kota Waikabubak, Kabupaten Sumba Barat, Nusa Tenggara Tim.","Kabupaten Sumba Barat, Nusa Tenggara Tim.",NUSA TENGGARA TIMUR,,Indonesia,,,,-9.6287962,119.4078268,https://maps.google.com/?cid=0x0:0xdc5a3c120ad9d757,
hardware store,Toko Bahan Bangunan,Toko Amerta,"Jl. Jend. Sudirman No.3, Kp. Sawah, Kec. Kota Waikabubak, Kabupaten Sumba Barat, Nusa Tenggara Tim.","Kabupaten Sumba Barat, Nusa Tenggara Tim.",NUSA TENGGARA TIMUR,,Indonesia,82122228701.0,,,-9.635767,119.4129349,https://maps.google.com/?cid=0x0:0xd990784987776293,
hardware store,Toko Elektronik,Global Teknik Waikabubak,"KM2-Sebelah Bank BNI, Jalan Bhayangkara, Komerda, Pada Eweta","Kabupaten Sumba Barat, Nusa Tenggara Tim.",NUSA TENGGARA TIMUR,,Indonesia,85208522022.0,,,-9.6276322,119.4062492,https://maps.google.com/?cid=0x0:0x80f27e8262a61441,
hardware store,Layanan cetak digital,Toko Warna Jaya,"9C86+486, Maliti, Kec. Kota Waikabubak, Kabupaten Sumba Barat, Nusa Tenggara Tim.","Kabupaten Sumba Barat, Nusa Tenggara Tim.",NUSA TENGGARA TIMUR,,Indonesia,81239790872.0,,,-9.6347144,119.4107582,https://maps.google.com/?cid=0x0:0xd0d6f67295df80d3,
hardware store,Toko Perlengkapan Rumah,Saudara Bangunan,"9C43+5CV, Wee Karou, Kec. Loli, Kabupaten Sumba Barat, Nusa Tenggara Tim.","Kabupaten Sumba Barat, Nusa Tenggara Tim.",NUSA TENGGARA TIMUR,,Indonesia,,,,-9.6445021,119.403561,https://maps.google.com/?cid=0x0:0xbd0bec82e2e0b21f,
hardware store,Servis Komputer,Berkat Sejahtera Computer Waikabubak,"Jl. Bhayangkara No.41, Komerda, Kec. Kota Waikabubak, Kabupaten Sumba Barat, Nusa Tenggara Tim. 87211","Komerda, Kec. Kota Waikabubak, Kabupaten Sumba Barat",NUSA TENGGARA TIMUR,87211.0,Indonesia,81331367111.0,,,-9.6282225,119.4066059,https://maps.google.com/?cid=0x0:0xdba7c8a9b7df7e25,
hardware store,Toko Elektronik,Socco Cell,"9C75+G48, Wailiang, Kec. Kota Waikabubak, Kabupaten Sumba Barat, Nusa Tenggara Tim.","Kabupaten Sumba Barat, Nusa Tenggara Tim.",NUSA TENGGARA TIMUR,,Indonesia,,,,-9.6362096,119.4078154,https://maps.google.com/?cid=0x0:0x34e70c6325fa0cfc,
hardware store,Toko Pakaian,Toko Ramona,"9C75+4QJ, Maliti, Kec. Kota Waikabubak, Kabupaten Sumba Barat, Nusa Tenggara Tim.","Kabupaten Sumba Barat, Nusa Tenggara Tim.",NUSA TENGGARA TIMUR,,Indonesia,,,,-9.6371736,119.4093808,https://maps.google.com/?cid=0x0:0xbd25b5f3acf078c6,
hardware store,,Toko Matahari Waikabubak,"Jl. Veteran No.54, Kp. Baru, Kec. Kota Waikabubak, Kabupaten Sumba Barat, Nusa Tenggara Tim. 87214","Kp. Baru, Kec. Kota Waikabubak, Kabupaten Sumba Barat",NUSA TENGGARA TIMUR,87214.0,Indonesia,85253171512.0,,,-9.6303406,119.4161271,https://maps.google.com/?cid=0x0:0x8ef5270509524f28,
hardware store,Kontraktor Umum,INDONUSA GORDEN,"jl. Manda elu/perkelembung, kelurahanWailiang, Wailiang, Kec. Kota Waikabubak, Kabupaten Sumba Barat, Nusa Tenggara Tim.","Kabupaten Sumba Barat, Nusa Tenggara Tim.",NUSA TENGGARA TIMUR,,Indonesia,82359439949.0,,,-9.6332037,119.4097046,https://maps.google.com/?cid=0x0:0x6e5e40d1da54cd03,
hardware store,Toko Elektronik,Azizah Handphone Shop,"9C75+WM2, Wailiang, Kec. Kota Waikabubak, Kabupaten Sumba Barat, Nusa Tenggara Tim.","Kabupaten Sumba Barat, Nusa Tenggara Tim.",NUSA TENGGARA TIMUR,,Indonesia,82145253999.0,,,-9.6352302,119.4091395,https://maps.google.com/?cid=0x0:0xcf9f546a46e6af65,
hardware store,Toko,Kios Amin,"9C76+23C, Maliti, Kec. Kota Waikabubak, Kabupaten Sumba Barat, Nusa Tenggara Tim.","Kabupaten Sumba Barat, Nusa Tenggara Tim.",NUSA TENGGARA TIMUR,,Indonesia,,,,-9.6375728,119.4101177,https://maps.google.com/?cid=0x0:0x5d98f5b71e9045a,
hardware store,Toko Elektronik,PLATINUM CELL WAIKABUBAK,"9C55+P57, Jl. Ahmad Yani, Wailiang, Kec. Loli, Kabupaten Sumba Barat, Nusa Tenggara Tim.","Kabupaten Sumba Barat, Nusa Tenggara Tim.",NUSA TENGGARA TIMUR,,Indonesia,,,,-9.6407138,119.4079315,https://maps.google.com/?cid=0x0:0xf28130b0bbd49059,
hardware store,Toko Ponsel,SUMBA PHONE CELL WAIKABUBAK,"9C76+574, Unnamed Road, Maliti, Kec. Kota Waikabubak, Kabupaten Sumba Barat, Nusa Tenggara Tim.","Kabupaten Sumba Barat, Nusa Tenggara Tim.",NUSA TENGGARA TIMUR,,Indonesia,81238725830.0,,,-9.6371206,119.4106896,https://maps.google.com/?cid=0x0:0xe9f0173e3ee91719,
hardware store,Toko Bahan Bangunan,Toko Duta Bangunan,"CH3M+GQ8, Wai Rasa, Kec. Umbu Ratu Nggay Bar., Kabupaten Sumba Tengah, Nusa Tenggara Tim.","Kabupaten Sumba Tengah, Nusa Tenggara Tim.",NUSA TENGGARA TIMUR,,Indonesia,,,,-9.5962137,119.5844623,https://maps.google.com/?cid=0x0:0x7e609489f14c4fbb,
hardware store,Toko Perbaikan Ponsel,Assegaf Game,"9C85+9C3, Jalan selekta Unnamed Road, Wailiang, Kec. Kota Waikabubak, Kabupaten Sumba Barat, Nusa Tenggara Tim.","Kabupaten Sumba Barat, Nusa Tenggara Tim.",NUSA TENGGARA TIMUR,,Indonesia,81278137050.0,,,-9.6341096,119.4085486,https://maps.google.com/?cid=0x0:0xd5bf9f2eac16a2df,
hardware store,hardware store,Nusa Tenggara Tim.,,Nusa Tenggara Tim.,NUSA TENGGARA TIMUR,,Indonesia,,,,-8.6573819,121.0793705,https://maps.google.com/?cid=0x0:0x1030bfbcaf71ae0,
hardware store,Toko bahan makanan,Prima Dewata,"Unnamed Rd, Anakalang, Kec. Katikutana, Kabupaten Sumba Tengah, Nusa Tenggara Tim.","Kabupaten Sumba Tengah, Nusa Tenggara Tim.",NUSA TENGGARA TIMUR,,Indonesia,,,,-9.5908748,119.5778647,https://maps.google.com/?cid=0x0:0xe4385341afe88f41,
hardware store,hardware store,Kec. Kota Waikabubak,"Kabupaten Sumba Barat, Nusa Tenggara Tim.","Kabupaten Sumba Barat, Nusa Tenggara Tim.",NUSA TENGGARA TIMUR,,Indonesia,,,,-9.6318508,119.4116981,https://maps.google.com/?cid=0x0:0xc0a3b8deb8dcb273,
hardware store,Toko Bahan Bangunan,Toko Nuansa Bangunan Dan Tehnik,"9C75+HG9, Wailiang, Kec. Kota Waikabubak, Kabupaten Sumba Barat, Nusa Tenggara Tim.","Kabupaten Sumba Barat, Nusa Tenggara Tim.",NUSA TENGGARA TIMUR,,Indonesia,81339419509.0,,,-9.6360822,119.4088515,https://maps.google.com/?cid=0x0:0xa546d9dc5012925e,
hardware store,Toko Bahan Bangunan,Toko Lima Bintang Bangunan,"Jl. Ring Road Waikabubak, Pada Eweta, Kec. Kota Waikabubak, Kabupaten Sumba Barat, Nusa Tenggara Tim.","Kabupaten Sumba Barat, Nusa Tenggara Tim.",NUSA TENGGARA TIMUR,,Indonesia,81236835505.0,,,-9.6253098,119.389322,https://maps.google.com/?cid=0x0:0x2400e10b9df95a55,
hardware store,Toko Bahan Bangunan,Toko Sentosa Jaya,"Jl. Bhayangkara No.38, Komerda, Kec. Kota Waikabubak, Kabupaten Sumba Barat, Nusa Tenggara Tim.","Kabupaten Sumba Barat, Nusa Tenggara Tim.",NUSA TENGGARA TIMUR,,Indonesia,38721381.0,,,-9.6289424,119.4079712,https://maps.google.com/?cid=0x0:0x383aa15223e6032a,
hardware store,Toko Bahan Bangunan,Merdeka,"Jl. Bhayangkara No.38, Komerda, Kec. Kota Waikabubak, Kabupaten Sumba Barat, Nusa Tenggara Tim.","Kabupaten Sumba Barat, Nusa Tenggara Tim.",NUSA TENGGARA TIMUR,,Indonesia,,,,-9.6287962,119.4078268,https://maps.google.com/?cid=0x0:0xdc5a3c120ad9d757,
hardware store,Toko Bahan Bangunan,Toko Amerta,"Jl. Jend. Sudirman No.3, Kp. Sawah, Kec. Kota Waikabubak, Kabupaten Sumba Barat, Nusa Tenggara Tim.","Kabupaten Sumba Barat, Nusa Tenggara Tim.",NUSA TENGGARA TIMUR,,Indonesia,82122228701.0,,,-9.635767,119.4129349,https://maps.google.com/?cid=0x0:0xd990784987776293,
hardware store,Toko Elektronik,Global Teknik Waikabubak,"KM2-Sebelah Bank BNI, Jalan Bhayangkara, Komerda, Pada Eweta","Kabupaten Sumba Barat, Nusa Tenggara Tim.",NUSA TENGGARA TIMUR,,Indonesia,85208522022.0,,,-9.6276322,119.4062492,https://maps.google.com/?cid=0x0:0x80f27e8262a61441,
hardware store,Toko Bahan Bangunan,Toko Makmur,"Jl. Ahmad Yani No.3, Komerda, Kec. Kota Waikabubak, Kabupaten Sumba Barat, Nusa Tenggara Tim. 87211","Komerda, Kec. Kota Waikabubak, Kabupaten Sumba Barat",NUSA TENGGARA TIMUR,87211.0,Indonesia,81339020447.0,,,-9.6323297,119.411732,https://maps.google.com/?cid=0x0:0x70171ded7fc96b84,
hardware store,Toko Perlengkapan Rumah,Toko Makmur Jaya Bangunan,"Jl. Bhayangkara, Pada Eweta, Kec. Kota Waikabubak, Kabupaten Sumba Barat, Nusa Tenggara Tim. 87217","Pada Eweta, Kec. Kota Waikabubak, Kabupaten Sumba Barat",NUSA TENGGARA TIMUR,87217.0,Indonesia,81339020447.0,,,-9.6259517,119.4038705,https://maps.google.com/?cid=0x0:0x2bfca63c0a2429f6,
hardware store,Layanan cetak digital,Toko Warna Jaya,"9C86+486, Maliti, Kec. Kota Waikabubak, Kabupaten Sumba Barat, Nusa Tenggara Tim.","Kabupaten Sumba Barat, Nusa Tenggara Tim.",NUSA TENGGARA TIMUR,,Indonesia,81239790872.0,,,-9.6347144,119.4107582,https://maps.google.com/?cid=0x0:0xd0d6f67295df80d3,
hardware store,Servis Komputer,Berkat Sejahtera Computer Waikabubak,"Jl. Bhayangkara No.41, Komerda, Kec. Kota Waikabubak, Kabupaten Sumba Barat, Nusa Tenggara Tim. 87211","Komerda, Kec. Kota Waikabubak, Kabupaten Sumba Barat",NUSA TENGGARA TIMUR,87211.0,Indonesia,81331367111.0,,,-9.6282225,119.4066059,https://maps.google.com/?cid=0x0:0xdba7c8a9b7df7e25,
hardware store,Toko Perlengkapan Rumah,Saudara Bangunan,"9C43+5CV, Wee Karou, Kec. Loli, Kabupaten Sumba Barat, Nusa Tenggara Tim.","Kabupaten Sumba Barat, Nusa Tenggara Tim.",NUSA TENGGARA TIMUR,,Indonesia,,,,-9.6445021,119.403561,https://maps.google.com/?cid=0x0:0xbd0bec82e2e0b21f,
hardware store,Toko Elektronik,Socco Cell,"9C75+G48, Wailiang, Kec. Kota Waikabubak, Kabupaten Sumba Barat, Nusa Tenggara Tim.","Kabupaten Sumba Barat, Nusa Tenggara Tim.",NUSA TENGGARA TIMUR,,Indonesia,,,,-9.6362096,119.4078154,https://maps.google.com/?cid=0x0:0x34e70c6325fa0cfc,
hardware store,Toko Pakaian,Toko Ramona,"9C75+4QJ, Maliti, Kec. Kota Waikabubak, Kabupaten Sumba Barat, Nusa Tenggara Tim.","Kabupaten Sumba Barat, Nusa Tenggara Tim.",NUSA TENGGARA TIMUR,,Indonesia,,,,-9.6371736,119.4093808,https://maps.google.com/?cid=0x0:0xbd25b5f3acf078c6,
hardware store,,Toko Matahari Waikabubak,"Jl. Veteran No.54, Kp. Baru, Kec. Kota Waikabubak, Kabupaten Sumba Barat, Nusa Tenggara Tim. 87214","Kp. Baru, Kec. Kota Waikabubak, Kabupaten Sumba Barat",NUSA TENGGARA TIMUR,87214.0,Indonesia,85253171512.0,,,-9.6303406,119.4161271,https://maps.google.com/?cid=0x0:0x8ef5270509524f28,
hardware store,Toko Elektronik,Azizah Handphone Shop,"9C75+WM2, Wailiang, Kec. Kota Waikabubak, Kabupaten Sumba Barat, Nusa Tenggara Tim.","Kabupaten Sumba Barat, Nusa Tenggara Tim.",NUSA TENGGARA TIMUR,,Indonesia,82145253999.0,,,-9.6352302,119.4091395,https://maps.google.com/?cid=0x0:0xcf9f546a46e6af65,
hardware store,Kontraktor Umum,INDONUSA GORDEN,"jl. Manda elu/perkelembung, kelurahanWailiang, Wailiang, Kec. Kota Waikabubak, Kabupaten Sumba Barat, Nusa Tenggara Tim.","Kabupaten Sumba Barat, Nusa Tenggara Tim.",NUSA TENGGARA TIMUR,,Indonesia,82359439949.0,,,-9.6332037,119.4097046,https://maps.google.com/?cid=0x0:0x6e5e40d1da54cd03,
hardware store,Toko,Kios Amin,"9C76+23C, Maliti, Kec. Kota Waikabubak, Kabupaten Sumba Barat, Nusa Tenggara Tim.","Kabupaten Sumba Barat, Nusa Tenggara Tim.",NUSA TENGGARA TIMUR,,Indonesia,,,,-9.6375728,119.4101177,https://maps.google.com/?cid=0x0:0x5d98f5b71e9045a,
hardware store,Toko Elektronik,PLATINUM CELL WAIKABUBAK,"9C55+P57, Jl. Ahmad Yani, Wailiang, Kec. Loli, Kabupaten Sumba Barat, Nusa Tenggara Tim.","Kabupaten Sumba Barat, Nusa Tenggara Tim.",NUSA TENGGARA TIMUR,,Indonesia,,,,-9.6407138,119.4079315,https://maps.google.com/?cid=0x0:0xf28130b0bbd49059,
hardware store,Toko Ponsel,SUMBA PHONE CELL WAIKABUBAK,"9C76+574, Unnamed Road, Maliti, Kec. Kota Waikabubak, Kabupaten Sumba Barat, Nusa Tenggara Tim.","Kabupaten Sumba Barat, Nusa Tenggara Tim.",NUSA TENGGARA TIMUR,,Indonesia,81238725830.0,,,-9.6371206,119.4106896,https://maps.google.com/?cid=0x0:0xe9f0173e3ee91719,
hardware store,hardware store,Kec. Kota Waikabubak,"Kabupaten Sumba Barat, Nusa Tenggara Tim.","Kabupaten Sumba Barat, Nusa Tenggara Tim.",NUSA TENGGARA TIMUR,,Indonesia,,,,-9.6318508,119.4116981,https://maps.google.com/?cid=0x0:0xc0a3b8deb8dcb273,
hardware store,Toko Bahan Bangunan,Toko Nuansa Bangunan Dan Tehnik,"9C75+HG9, Wailiang, Kec. Kota Waikabubak, Kabupaten Sumba Barat, Nusa Tenggara Tim.","Kabupaten Sumba Barat, Nusa Tenggara Tim.",NUSA TENGGARA TIMUR,,Indonesia,81339419509.0,,,-9.6360822,119.4088515,https://maps.google.com/?cid=0x0:0xa546d9dc5012925e,
hardware store,Toko Perlengkapan Rumah,MR.DIY,"Jl. Ahmad Yani, Wailiang, Kec. Kota Waikabubak, Kabupaten Sumba Barat, Nusa Tenggara Tim. 87217","Wailiang, Kec. Kota Waikabubak, Kabupaten Sumba Barat",NUSA TENGGARA TIMUR,87217.0,Indonesia,,,,-9.6406488,119.4078019,https://maps.google.com/?cid=0x0:0x34d1943d35c76109,
hardware store,Toko Bahan Bangunan,Toko Sentosa Jaya,"Jl. Bhayangkara No.38, Komerda, Kec. Kota Waikabubak, Kabupaten Sumba Barat, Nusa Tenggara Tim.","Kabupaten Sumba Barat, Nusa Tenggara Tim.",NUSA TENGGARA TIMUR,,Indonesia,38721381.0,,,-9.6289424,119.4079712,https://maps.google.com/?cid=0x0:0x383aa15223e6032a,
hardware store,Toko Bahan Bangunan,Toko Amerta,"Jl. Jend. Sudirman No.3, Kp. Sawah, Kec. Kota Waikabubak, Kabupaten Sumba Barat, Nusa Tenggara Tim.","Kabupaten Sumba Barat, Nusa Tenggara Tim.",NUSA TENGGARA TIMUR,,Indonesia,82122228701.0,,,-9.635767,119.4129349,https://maps.google.com/?cid=0x0:0xd990784987776293,
hardware store,Toko Bahan Bangunan,Merdeka,"Jl. Bhayangkara No.38, Komerda, Kec. Kota Waikabubak, Kabupaten Sumba Barat, Nusa Tenggara Tim.","Kabupaten Sumba Barat, Nusa Tenggara Tim.",NUSA TENGGARA TIMUR,,Indonesia,,,,-9.6287962,119.4078268,https://maps.google.com/?cid=0x0:0xdc5a3c120ad9d757,
hardware store,Toko Bahan Bangunan,Toko Makmur,"Jl. Ahmad Yani No.3, Komerda, Kec. Kota Waikabubak, Kabupaten Sumba Barat, Nusa Tenggara Tim. 87211","Komerda, Kec. Kota Waikabubak, Kabupaten Sumba Barat",NUSA TENGGARA TIMUR,87211.0,Indonesia,81339020447.0,,,-9.6323297,119.411732,https://maps.google.com/?cid=0x0:0x70171ded7fc96b84,
hardware store,Toko Elektronik,Global Teknik Waikabubak,"KM2-Sebelah Bank BNI, Jalan Bhayangkara, Komerda, Pada Eweta","Kabupaten Sumba Barat, Nusa Tenggara Tim.",NUSA TENGGARA TIMUR,,Indonesia,85208522022.0,,,-9.6276322,119.4062492,https://maps.google.com/?cid=0x0:0x80f27e8262a61441,
hardware store,Toko Perlengkapan Rumah,Toko Makmur Jaya Bangunan,"Jl. Bhayangkara, Pada Eweta, Kec. Kota Waikabubak, Kabupaten Sumba Barat, Nusa Tenggara Tim. 87217","Pada Eweta, Kec. Kota Waikabubak, Kabupaten Sumba Barat",NUSA TENGGARA TIMUR,87217.0,Indonesia,81339020447.0,,,-9.6259517,119.4038705,https://maps.google.com/?cid=0x0:0x2bfca63c0a2429f6,
hardware store,Layanan cetak digital,Toko Warna Jaya,"9C86+486, Maliti, Kec. Kota Waikabubak, Kabupaten Sumba Barat, Nusa Tenggara Tim.","Kabupaten Sumba Barat, Nusa Tenggara Tim.",NUSA TENGGARA TIMUR,,Indonesia,81239790872.0,,,-9.6347144,119.4107582,https://maps.google.com/?cid=0x0:0xd0d6f67295df80d3,
hardware store,Toko Perlengkapan Rumah,Saudara Bangunan,"9C43+5CV, Wee Karou, Kec. Loli, Kabupaten Sumba Barat, Nusa Tenggara Tim.","Kabupaten Sumba Barat, Nusa Tenggara Tim.",NUSA TENGGARA TIMUR,,Indonesia,,,,-9.6445021,119.403561,https://maps.google.com/?cid=0x0:0xbd0bec82e2e0b21f,
hardware store,Servis Komputer,Berkat Sejahtera Computer Waikabubak,"Jl. Bhayangkara No.41, Komerda, Kec. Kota Waikabubak, Kabupaten Sumba Barat, Nusa Tenggara Tim. 87211","Komerda, Kec. Kota Waikabubak, Kabupaten Sumba Barat",NUSA TENGGARA TIMUR,87211.0,Indonesia,81331367111.0,,,-9.6282225,119.4066059,https://maps.google.com/?cid=0x0:0xdba7c8a9b7df7e25,
hardware store,Toko Elektronik,Socco Cell,"9C75+G48, Wailiang, Kec. Kota Waikabubak, Kabupaten Sumba Barat, Nusa Tenggara Tim.","Kabupaten Sumba Barat, Nusa Tenggara Tim.",NUSA TENGGARA TIMUR,,Indonesia,,,,-9.6362096,119.4078154,https://maps.google.com/?cid=0x0:0x34e70c6325fa0cfc,
hardware store,Toko Pakaian,Toko Ramona,"9C75+4QJ, Maliti, Kec. Kota Waikabubak, Kabupaten Sumba Barat, Nusa Tenggara Tim.","Kabupaten Sumba Barat, Nusa Tenggara Tim.",NUSA TENGGARA TIMUR,,Indonesia,,,,-9.6371736,119.4093808,https://maps.google.com/?cid=0x0:0xbd25b5f3acf078c6,
hardware store,,Toko Matahari Waikabubak,"Jl. Veteran No.54, Kp. Baru, Kec. Kota Waikabubak, Kabupaten Sumba Barat, Nusa Tenggara Tim. 87214","Kp. Baru, Kec. Kota Waikabubak, Kabupaten Sumba Barat",NUSA TENGGARA TIMUR,87214.0,Indonesia,85253171512.0,,,-9.6303406,119.4161271,https://maps.google.com/?cid=0x0:0x8ef5270509524f28,
hardware store,Toko Elektronik,Azizah Handphone Shop,"9C75+WM2, Wailiang, Kec. Kota Waikabubak, Kabupaten Sumba Barat, Nusa Tenggara Tim.","Kabupaten Sumba Barat, Nusa Tenggara Tim.",NUSA TENGGARA TIMUR,,Indonesia,82145253999.0,,,-9.6352302,119.4091395,https://maps.google.com/?cid=0x0:0xcf9f546a46e6af65,
hardware store,Kontraktor Umum,INDONUSA GORDEN,"jl. Manda elu/perkelembung, kelurahanWailiang, Wailiang, Kec. Kota Waikabubak, Kabupaten Sumba Barat, Nusa Tenggara Tim.","Kabupaten Sumba Barat, Nusa Tenggara Tim.",NUSA TENGGARA TIMUR,,Indonesia,82359439949.0,,,-9.6332037,119.4097046,https://maps.google.com/?cid=0x0:0x6e5e40d1da54cd03,
hardware store,Toko,Kios Amin,"9C76+23C, Maliti, Kec. Kota Waikabubak, Kabupaten Sumba Barat, Nusa Tenggara Tim.","Kabupaten Sumba Barat, Nusa Tenggara Tim.",NUSA TENGGARA TIMUR,,Indonesia,,,,-9.6375728,119.4101177,https://maps.google.com/?cid=0x0:0x5d98f5b71e9045a,
hardware store,Toko Elektronik,PLATINUM CELL WAIKABUBAK,"9C55+P57, Jl. Ahmad Yani, Wailiang, Kec. Loli, Kabupaten Sumba Barat, Nusa Tenggara Tim.","Kabupaten Sumba Barat, Nusa Tenggara Tim.",NUSA TENGGARA TIMUR,,Indonesia,,,,-9.6407138,119.4079315,https://maps.google.com/?cid=0x0:0xf28130b0bbd49059,
hardware store,Toko Ponsel,SUMBA PHONE CELL WAIKABUBAK,"9C76+574, Unnamed Road, Maliti, Kec. Kota Waikabubak, Kabupaten Sumba Barat, Nusa Tenggara Tim.","Kabupaten Sumba Barat, Nusa Tenggara Tim.",NUSA TENGGARA TIMUR,,Indonesia,81238725830.0,,,-9.6371206,119.4106896,https://maps.google.com/?cid=0x0:0xe9f0173e3ee91719,
hardware store,hardware store,Nusa Tenggara Tim.,,Nusa Tenggara Tim.,NUSA TENGGARA TIMUR,,Indonesia,,,,-8.6573819,121.0793705,https://maps.google.com/?cid=0x0:0x1030bfbcaf71ae0,
hardware store,Toko bahan makanan,Prima Dewata,"Unnamed Rd, Anakalang, Kec. Katikutana, Kabupaten Sumba Tengah, Nusa Tenggara Tim.","Kabupaten Sumba Tengah, Nusa Tenggara Tim.",NUSA TENGGARA TIMUR,,Indonesia,,,,-9.5908748,119.5778647,https://maps.google.com/?cid=0x0:0xe4385341afe88f41,
hardware store,Toko Bahan Bangunan,Toko Duta Bangunan,"CH3M+GQ8, Wai Rasa, Kec. Umbu Ratu Nggay Bar., Kabupaten Sumba Tengah, Nusa Tenggara Tim.","Kabupaten Sumba Tengah, Nusa Tenggara Tim.",NUSA TENGGARA TIMUR,,Indonesia,,,,-9.5962137,119.5844623,https://maps.google.com/?cid=0x0:0x7e609489f14c4fbb,
hardware store,hardware store,Kec. Lamboya,"Kabupaten Sumba Barat, Nusa Tenggara Tim.","Kabupaten Sumba Barat, Nusa Tenggara Tim.",NUSA TENGGARA TIMUR,,Indonesia,,,,-9.7205484,119.35646,https://maps.google.com/?cid=0x0:0x5968d2d2a2f91860,
hardware store,Toko Perlengkapan Rumah,Saudara Bangunan,"9C43+5CV, Wee Karou, Kec. Loli, Kabupaten Sumba Barat, Nusa Tenggara Tim.","Kabupaten Sumba Barat, Nusa Tenggara Tim.",NUSA TENGGARA TIMUR,,Indonesia,,,,-9.6445021,119.403561,https://maps.google.com/?cid=0x0:0xbd0bec82e2e0b21f,
hardware store,Toko Bahan Bangunan,Toko Nuansa Bangunan Dan Tehnik,"9C75+HG9, Wailiang, Kec. Kota Waikabubak, Kabupaten Sumba Barat, Nusa Tenggara Tim.","Kabupaten Sumba Barat, Nusa Tenggara Tim.",NUSA TENGGARA TIMUR,,Indonesia,81339419509.0,,,-9.6360822,119.4088515,https://maps.google.com/?cid=0x0:0xa546d9dc5012925e,
hardware store,Polisi Sipil,Polsek Lamboya,"79H5+J3V, Kabu Karudi, Kec. Lamboya, Kabupaten Sumba Barat, Nusa Tenggara Tim.","Kabupaten Sumba Barat, Nusa Tenggara Tim.",NUSA TENGGARA TIMUR,,Indonesia,,,,-9.7208757,119.3576767,https://maps.google.com/?cid=0x0:0x32bfa94efbb3c036,
hardware store,Toko,Biomas.,"88QR+GXC, Laboya Dete, Kec. Lamboya, Kabupaten Sumba Barat, Nusa Tenggara Tim.","Kabupaten Sumba Barat, Nusa Tenggara Tim.",NUSA TENGGARA TIMUR,,Indonesia,81226010157.0,,,-9.6611924,119.3423967,https://maps.google.com/?cid=0x0:0x117871cd422aaae1,
hardware store,hardware store,Nusa Tenggara Tim.,,Nusa Tenggara Tim.,NUSA TENGGARA TIMUR,,Indonesia,,,,-8.6573819,121.0793705,https://maps.google.com/?cid=0x0:0x1030bfbcaf71ae0,
hardware store,Toko Bahan Bangunan,Toko Duta Bangunan,"CH3M+GQ8, Wai Rasa, Kec. Umbu Ratu Nggay Bar., Kabupaten Sumba Tengah, Nusa Tenggara Tim.","Kabupaten Sumba Tengah, Nusa Tenggara Tim.",NUSA TENGGARA TIMUR,,Indonesia,,,,-9.5962137,119.5844623,https://maps.google.com/?cid=0x0:0x7e609489f14c4fbb,
hardware store,Toko Elektronik,Global Teknik Waikabubak,"KM2-Sebelah Bank BNI, Jalan Bhayangkara, Komerda, Pada Eweta","Kabupaten Sumba Barat, Nusa Tenggara Tim.",NUSA TENGGARA TIMUR,,Indonesia,85208522022.0,,,-9.6276322,119.4062492,https://maps.google.com/?cid=0x0:0x80f27e8262a61441,
hardware store,Toko Bahan Bangunan,Toko Graha Bangunan,"Gedung Graha Ariadi, Oesapa Bar., Kec. Klp. Lima, Kota Kupang, Nusa Tenggara Tim. 85228","Oesapa Bar., Kec. Klp. Lima, Kota Kupang",NUSA TENGGARA TIMUR,85228.0,Indonesia,81312893723.0,,,-10.1468703,123.631267,https://maps.google.com/?cid=0x0:0x4167d73ee95fc845,
hardware store,Toko,Toko Cinta Indah,"F7FJ+JGG, Limbu Watu,, Wee Kokora, Kec. Wewewa Tengah, Kabupaten Sumba Barat Daya, Nusa Tenggara Tim.","Kabupaten Sumba Barat Daya, Nusa Tenggara Tim.",NUSA TENGGARA TIMUR,,Indonesia,81353480750.0,,,-9.5259324,119.2813262,https://maps.google.com/?cid=0x0:0xfdd070a95cfb0d00,
hardware store,Toko Bahan Bangunan,Sinar Bangunan Building Center,"Jl. Bund. PU No.12, Tuak Daun Merah, Kec. Oebobo, Kota Kupang, Nusa Tenggara Tim. 85228","Tuak Daun Merah, Kec. Oebobo, Kota Kupang",NUSA TENGGARA TIMUR,85228.0,Indonesia,81236648694.0,,,-10.1675355,123.6289538,https://maps.google.com/?cid=0x0:0x8b34913a09e207d2,
hardware store,Toko Bahan Bangunan,TOKO Sinar Galaxi,"H6CR+XJ8, Unnamed Road, Loura, Kabupaten Barat Daya, Nusa Tenggara Tim., Radamata, Kec. Loura, Kabupaten Sumba Barat Daya, Nusa Tenggara Tim.","Kabupaten Sumba Barat Daya, Nusa Tenggara Tim.",NUSA TENGGARA TIMUR,,Indonesia,,,,-9.427579,119.2415805,https://maps.google.com/?cid=0x0:0x50d8175272a243a8,
hardware store,Toko Elektronik,Socco Cell,"9C75+G48, Wailiang, Kec. Kota Waikabubak, Kabupaten Sumba Barat, Nusa Tenggara Tim.","Kabupaten Sumba Barat, Nusa Tenggara Tim.",NUSA TENGGARA TIMUR,,Indonesia,,,,-9.6362096,119.4078154,https://maps.google.com/?cid=0x0:0x34e70c6325fa0cfc,
hardware store,Toko Elektronik,Ska Sam Sound System,"79F9+6F5, Unnamed Road, Kabu Karudi, Kec. Lamboya, Kabupaten Sumba Barat, Nusa Tenggara Tim.","Kabupaten Sumba Barat, Nusa Tenggara Tim.",NUSA TENGGARA TIMUR,,Indonesia,,,,-9.7269824,119.3687438,https://maps.google.com/?cid=0x0:0x5031c1939b88e8d9,
hardware store,Toko Elektronik,PLATINUM CELL WAIKABUBAK,"9C55+P57, Jl. Ahmad Yani, Wailiang, Kec. Loli, Kabupaten Sumba Barat, Nusa Tenggara Tim.","Kabupaten Sumba Barat, Nusa Tenggara Tim.",NUSA TENGGARA TIMUR,,Indonesia,,,,-9.6407138,119.4079315,https://maps.google.com/?cid=0x0:0xf28130b0bbd49059,
hardware store,Toko Bahan Bangunan,Toko Bangunan Jaya,"Jl. Terusan Timor Raya No.9u KM. 6, Oesapa Bar., Kec. Klp. Lima, Kota Kupang, Nusa Tenggara Tim.","Kota Kupang, Nusa Tenggara Tim.",NUSA TENGGARA TIMUR,,Indonesia,81338567839.0,,,-10.14441,123.6254719,https://maps.google.com/?cid=0x0:0x4a94c89160bbe62c,
hardware store,Toko,KASIH BERKAT,"Walla Ndimu, Kec. Kodi Bangedo, Kabupaten Sumba Barat Daya, Nusa Tenggara Tim. 87264","Kec. Kodi Bangedo, Kabupaten Sumba Barat Daya",NUSA TENGGARA TIMUR,87264.0,Indonesia,81335789980.0,,,-9.6260985,119.0411577,https://maps.google.com/?cid=0x0:0xe29ea410343cacdf,
hardware store,Toko,Kios Amin,"9C76+23C, Maliti, Kec. Kota Waikabubak, Kabupaten Sumba Barat, Nusa Tenggara Tim.","Kabupaten Sumba Barat, Nusa Tenggara Tim.",NUSA TENGGARA TIMUR,,Indonesia,,,,-9.6375728,119.4101177,https://maps.google.com/?cid=0x0:0x5d98f5b71e9045a,
hardware store,Toko Elektronik,Azizah Handphone Shop,"9C75+WM2, Wailiang, Kec. Kota Waikabubak, Kabupaten Sumba Barat, Nusa Tenggara Tim.","Kabupaten Sumba Barat, Nusa Tenggara Tim.",NUSA TENGGARA TIMUR,,Indonesia,82145253999.0,,,-9.6352302,119.4091395,https://maps.google.com/?cid=0x0:0xcf9f546a46e6af65,
hardware store,Tujuan Wisata,Sumba barat,"89WV+3V8, Wee Karou, Kec. Loli, Kabupaten Sumba Barat, Nusa Tenggara Tim.","Kabupaten Sumba Barat, Nusa Tenggara Tim.",NUSA TENGGARA TIMUR,,Indonesia,,,,-9.6548326,119.3947135,https://maps.google.com/?cid=0x0:0xc6f4f84fce9f0c5b,
hardware store,Grosir,Toko Saudara,"9C65+Q5P, Jl. Ahmad Yani, Wailiang, Kec. Kota Waikabubak, Kabupaten Sumba Barat, Nusa Tenggara Tim.","Kabupaten Sumba Barat, Nusa Tenggara Tim.",NUSA TENGGARA TIMUR,,Indonesia,,,,-9.6380453,119.4079512,https://maps.google.com/?cid=0x0:0x948fdfe31f395111,
toko bangunan,toko bangunan,Kec. Tana Righu,"Kabupaten Sumba Barat, Nusa Tenggara Tim.","Kabupaten Sumba Barat, Nusa Tenggara Tim.",NUSA TENGGARA TIMUR,,Indonesia,,,,-9.4191853,119.398791,https://maps.google.com/?cid=0x0:0xb9763f309124fdd0,
toko bangunan,Toko Bahan Bangunan,Toko Nuansa Bangunan Dan Tehnik Terlengkap,"H6CP+QWF, Radamata, Kec. Loura, Kabupaten Sumba Barat Daya, Nusa Tenggara Tim.","Kabupaten Sumba Barat Daya, Nusa Tenggara Tim.",NUSA TENGGARA TIMUR,,Indonesia,81339419509.0,,,-9.4280703,119.2372822,https://maps.google.com/?cid=0x0:0xb106164c739fec1b,
toko bangunan,Toko Bahan Bangunan,Toko Nuansa Bangunan Dan Tehnik,"9C75+HG9, Wailiang, Kec. Kota Waikabubak, Kabupaten Sumba Barat, Nusa Tenggara Tim.","Kabupaten Sumba Barat, Nusa Tenggara Tim.",NUSA TENGGARA TIMUR,,Indonesia,81339419509.0,,,-9.6360822,119.4088515,https://maps.google.com/?cid=0x0:0xa546d9dc5012925e,
toko bangunan,Toko Bahan Bangunan,Toko Duta Bangunan,"CH3M+GQ8, Wai Rasa, Kec. Umbu Ratu Nggay Bar., Kabupaten Sumba Tengah, Nusa Tenggara Tim.","Kabupaten Sumba Tengah, Nusa Tenggara Tim.",NUSA TENGGARA TIMUR,,Indonesia,,,,-9.5962137,119.5844623,https://maps.google.com/?cid=0x0:0x7e609489f14c4fbb,
toko bangunan,Toko Perlengkapan Rumah,Saudara Bangunan,"9C43+5CV, Wee Karou, Kec. Loli, Kabupaten Sumba Barat, Nusa Tenggara Tim.","Kabupaten Sumba Barat, Nusa Tenggara Tim.",NUSA TENGGARA TIMUR,,Indonesia,,,,-9.6445021,119.403561,https://maps.google.com/?cid=0x0:0xbd0bec82e2e0b21f,
toko bangunan,Grosir keramik,Toko Bangunan Sumber Berlian,"9FR7+R98, Pitak, Kec. Langke Rembong, Kabupaten Manggarai, Nusa Tenggara Tim.","Kabupaten Manggarai, Nusa Tenggara Tim.",NUSA TENGGARA TIMUR,,Indonesia,38521109.0,,,-8.6079539,120.4634541,https://maps.google.com/?cid=0x0:0x6998fb86419a6f08,
toko bangunan,Pemasok Bahan Bangunan,Toko Hero Bangunan,"Toko Hero Bangunan, Tini, Manuaman, Kec. Kota Atambua, Kabupaten Belu, Nusa Tenggara Tim. 85712","Tini, Manuaman, Kec. Kota Atambua, Kabupaten Belu",NUSA TENGGARA TIMUR,85712.0,Indonesia,82221202985.0,,,-9.1117919,124.8871833,https://maps.google.com/?cid=0x0:0xb79f7fc42724fd10,
toko bangunan,Toko Bahan Bangunan,CV. Tujuh Jaya,"723W+C6P, Unnamed Rd, Mokdale, Kec. Lobalain, Kabupaten Rote Ndao, Nusa Tenggara Tim.","Kabupaten Rote Ndao, Nusa Tenggara Tim.",NUSA TENGGARA TIMUR,,Indonesia,81236375011.0,,,-10.7464098,123.04558,https://maps.google.com/?cid=0x0:0x575a85c650ddf9e4,
toko bangunan,Minimarket,toko hebron,"725V+CW9, Unnamed Rd, Mokdale, Kec. Lobalain, Kabupaten Rote Ndao, Nusa Tenggara Tim.","Kabupaten Rote Ndao, Nusa Tenggara Tim.",NUSA TENGGARA TIMUR,,Indonesia,,,,-10.7414723,123.0448675,https://maps.google.com/?cid=0x0:0x699558aa9d2e663a,
toko bangunan,Pemasok Bahan Bangunan,Toko Teratai,"Jl. Ahmad Yani No.35, Kamalaputi, Kec. Kota Waingapu, Kabupaten Sumba Timur, Nusa Tenggara Tim. 87111","Kamalaputi, Kec. Kota Waingapu, Kabupaten Sumba Timur",NUSA TENGGARA TIMUR,87111.0,Indonesia,81246421529.0,,,-9.6510393,120.2639995,https://maps.google.com/?cid=0x0:0xab03941a7bca64cc,
toko bangunan,Toko Bahan Bangunan,TOKO SAHABAT INTI BANGUNAN,"JL. Ruteng - Labuan Bajo, Cancar, Wae Belang, Kec. Ruteng, Kabupaten Manggarai, Nusa Tenggara Tim.","Kabupaten Manggarai, Nusa Tenggara Tim.",NUSA TENGGARA TIMUR,,Indonesia,81359982021.0,,,-8.5896405,120.3779527,https://maps.google.com/?cid=0x0:0x99120b0035e2b615,
toko bangunan,Toko Bahan Bangunan,Toko Bangunan Saudara,"Mbaumuku, Kec. Langke Rembong, Kabupaten Manggarai, Nusa Tenggara Tim.","Kabupaten Manggarai, Nusa Tenggara Tim.",NUSA TENGGARA TIMUR,,Indonesia,85239009102.0,,,-8.6086449,120.4648361,https://maps.google.com/?cid=0x0:0x5faafa24f0a0065f,
toko bangunan,Toko Bahan Bangunan,TOKO Sinar Galaxi,"H6CR+XJ8, Unnamed Road, Loura, Kabupaten Barat Daya, Nusa Tenggara Tim., Radamata, Kec. Loura, Kabupaten Sumba Barat Daya, Nusa Tenggara Tim.","Kabupaten Sumba Barat Daya, Nusa Tenggara Tim.",NUSA TENGGARA TIMUR,,Indonesia,,,,-9.427579,119.2415805,https://maps.google.com/?cid=0x0:0x50d8175272a243a8,
toko bangunan,toko bangunan,kios putra azar,"FCGF+54, Kareka Nduku, Kec. Tana Righu, Kabupaten Sumba Barat, Nusa Tenggara Tim.","Kabupaten Sumba Barat, Nusa Tenggara Tim.",NUSA TENGGARA TIMUR,,Indonesia,,,,-9.5245579,119.4228131,https://maps.google.com/?cid=0x0:0x718efdf149b65b9d,
toko bangunan,toko bangunan,Nusa Tenggara Tim.,,Nusa Tenggara Tim.,NUSA TENGGARA TIMUR,,Indonesia,,,,-8.6573819,121.0793705,https://maps.google.com/?cid=0x0:0x1030bfbcaf71ae0,
toko bangunan,Toko Perlengkapan Rumah,Saudara Bangunan,"9C43+5CV, Wee Karou, Kec. Loli, Kabupaten Sumba Barat, Nusa Tenggara Tim.","Kabupaten Sumba Barat, Nusa Tenggara Tim.",NUSA TENGGARA TIMUR,,Indonesia,,,,-9.6445021,119.403561,https://maps.google.com/?cid=0x0:0xbd0bec82e2e0b21f,
toko bangunan,Toko Bahan Bangunan,Toko Lima Bintang Bangunan,"Jl. Ring Road Waikabubak, Pada Eweta, Kec. Kota Waikabubak, Kabupaten Sumba Barat, Nusa Tenggara Tim.","Kabupaten Sumba Barat, Nusa Tenggara Tim.",NUSA TENGGARA TIMUR,,Indonesia,81236835505.0,,,-9.6253098,119.389322,https://maps.google.com/?cid=0x0:0x2400e10b9df95a55,
toko bangunan,Toko Bahan Bangunan,Toko Bangunan Pak Tris,"9737+VFX, Kamalaputi, Kec. Kota Waingapu, Kabupaten Sumba Timur, Nusa Tenggara Tim.","Kabupaten Sumba Timur, Nusa Tenggara Tim.",NUSA TENGGARA TIMUR,,Indonesia,81353759489.0,,,-9.6452547,120.2637361,https://maps.google.com/?cid=0x0:0xf2f45ed234d9c248,
toko bangunan,Grosir keramik,Toko Bangunan Sumber Berlian,"9FR7+R98, Pitak, Kec. Langke Rembong, Kabupaten Manggarai, Nusa Tenggara Tim.","Kabupaten Manggarai, Nusa Tenggara Tim.",NUSA TENGGARA TIMUR,,Indonesia,38521109.0,,,-8.6079539,120.4634541,https://maps.google.com/?cid=0x0:0x6998fb86419a6f08,
toko bangunan,Toko Bahan Bangunan,Makmur Raya Toko,"86VW+GV6, Hambala, Kec. Kota Waingapu, Kabupaten Sumba Timur, Nusa Tenggara Tim.","Kabupaten Sumba Timur, Nusa Tenggara Tim.",NUSA TENGGARA TIMUR,,Indonesia,38761688.0,,,-9.6562084,120.247145,https://maps.google.com/?cid=0x0:0xc324108618b9bd38,
toko bangunan,Toko Perlengkapan Rumah,Toko Makmur Jaya Bangunan,"Jl. Bhayangkara, Pada Eweta, Kec. Kota Waikabubak, Kabupaten Sumba Barat, Nusa Tenggara Tim. 87217","Pada Eweta, Kec. Kota Waikabubak, Kabupaten Sumba Barat",NUSA TENGGARA TIMUR,87217.0,Indonesia,81339020447.0,,,-9.6259517,119.4038705,https://maps.google.com/?cid=0x0:0x2bfca63c0a2429f6,
toko bangunan,Pemasok Bahan Bangunan,Toko Hero Bangunan,"Toko Hero Bangunan, Tini, Manuaman, Kec. Kota Atambua, Kabupaten Belu, Nusa Tenggara Tim. 85712","Tini, Manuaman, Kec. Kota Atambua, Kabupaten Belu",NUSA TENGGARA TIMUR,85712.0,Indonesia,82221202985.0,,,-9.1117919,124.8871833,https://maps.google.com/?cid=0x0:0xb79f7fc42724fd10,
toko bangunan,Toko Bahan Bangunan,Toko Duta Bangunan,"CH3M+GQ8, Wai Rasa, Kec. Umbu Ratu Nggay Bar., Kabupaten Sumba Tengah, Nusa Tenggara Tim.","Kabupaten Sumba Tengah, Nusa Tenggara Tim.",NUSA TENGGARA TIMUR,,Indonesia,,,,-9.5962137,119.5844623,https://maps.google.com/?cid=0x0:0x7e609489f14c4fbb,
toko bangunan,Toko Bahan Bangunan,TOKO Sinar Galaxi,"H6CR+XJ8, Unnamed Road, Loura, Kabupaten Barat Daya, Nusa Tenggara Tim., Radamata, Kec. Loura, Kabupaten Sumba Barat Daya, Nusa Tenggara Tim.","Kabupaten Sumba Barat Daya, Nusa Tenggara Tim.",NUSA TENGGARA TIMUR,,Indonesia,,,,-9.427579,119.2415805,https://maps.google.com/?cid=0x0:0x50d8175272a243a8,
toko bangunan,Toko Bahan Bangunan,Makmur Sejahtera,"86WW+958, Hambala, Kec. Kota Waingapu, Kabupaten Sumba Timur, Nusa Tenggara Tim.","Kabupaten Sumba Timur, Nusa Tenggara Tim.",NUSA TENGGARA TIMUR,,Indonesia,,,,-9.6540827,120.2454421,https://maps.google.com/?cid=0x0:0x2054e4721b862196,
toko bangunan,Toko Bahan Bangunan,Toko Bangunan Saudara,"Mbaumuku, Kec. Langke Rembong, Kabupaten Manggarai, Nusa Tenggara Tim.","Kabupaten Manggarai, Nusa Tenggara Tim.",NUSA TENGGARA TIMUR,,Indonesia,85239009102.0,,,-8.6086449,120.4648361,https://maps.google.com/?cid=0x0:0x5faafa24f0a0065f,
toko bangunan,Toko Bahan Bangunan,TOKO SAHABAT INTI BANGUNAN,"JL. Ruteng - Labuan Bajo, Cancar, Wae Belang, Kec. Ruteng, Kabupaten Manggarai, Nusa Tenggara Tim.","Kabupaten Manggarai, Nusa Tenggara Tim.",NUSA TENGGARA TIMUR,,Indonesia,81359982021.0,,,-8.5896405,120.3779527,https://maps.google.com/?cid=0x0:0x99120b0035e2b615,
toko bangunan,Toko Bahan Bangunan,Toko Bangunan Jaya,"Jl. Terusan Timor Raya No.9u KM. 6, Oesapa Bar., Kec. Klp. Lima, Kota Kupang, Nusa Tenggara Tim.","Kota Kupang, Nusa Tenggara Tim.",NUSA TENGGARA TIMUR,,Indonesia,81338567839.0,,,-10.14441,123.6254719,https://maps.google.com/?cid=0x0:0x4a94c89160bbe62c,
toko bangunan,Toko Bahan Bangunan,Maju Karya Toko,"Wangga, Kec. Kambera, Kabupaten Sumba Timur, Nusa Tenggara Tim.","Kabupaten Sumba Timur, Nusa Tenggara Tim.",NUSA TENGGARA TIMUR,,Indonesia,38761089.0,,,-9.661677,120.267677,https://maps.google.com/?cid=0x0:0x2ee7698285b460c7,
toko bangunan,Grosir,Toko Saudara,"9C65+Q5P, Jl. Ahmad Yani, Wailiang, Kec. Kota Waikabubak, Kabupaten Sumba Barat, Nusa Tenggara Tim.","Kabupaten Sumba Barat, Nusa Tenggara Tim.",NUSA TENGGARA TIMUR,,Indonesia,,,,-9.6380453,119.4079512,https://maps.google.com/?cid=0x0:0x948fdfe31f395111,
toko bangunan,Toko Bahan Bangunan,Toko Liydo,"Jl. Belakang Kongsi No.10, RT.1/RW.3, Ps. Baru, Kecamatan Sawah Besar, Kota Jakarta Pusat, Daerah Khusus Ibukota Jakarta 10710","RT.1/RW.3, Ps. Baru, Kecamatan Sawah Besar, Kota Jakarta Pusat",NUSA TENGGARA TIMUR,10710.0,Indonesia,213441643.0,,,-6.1621079,106.8334924,https://maps.google.com/?cid=0x0:0xbaa8d6322f283171,
toko bangunan,Toko Bahan Bangunan,tb.rizky jaya.,"jl.kp rawa sawah no 11.jakpus, RT.12/RW.3, Kp. Rw., Kec. Johar Baru, Kota Jakarta Pusat, Daerah Khusus Ibukota Jakarta 10550","RT.12/RW.3, Kp. Rw., Kec. Johar Baru, Kota Jakarta Pusat",NUSA TENGGARA TIMUR,10550.0,Indonesia,81213793090.0,,,-6.1807092,106.8528184,https://maps.google.com/?cid=0x0:0x982503edcd4feeb3,
toko bangunan,toko bangunan,Kec. Wanokaka,"Kabupaten Sumba Barat, Nusa Tenggara Tim.","Kabupaten Sumba Barat, Nusa Tenggara Tim.",NUSA TENGGARA TIMUR,,Indonesia,,,,-9.7227274,119.4528333,https://maps.google.com/?cid=0x0:0xb894aaab28ba27d5,
toko bangunan,Toko Bahan Bangunan,Toko Nuansa Bangunan Dan Tehnik,"9C75+HG9, Wailiang, Kec. Kota Waikabubak, Kabupaten Sumba Barat, Nusa Tenggara Tim.","Kabupaten Sumba Barat, Nusa Tenggara Tim.",NUSA TENGGARA TIMUR,,Indonesia,81339419509.0,,,-9.6360822,119.4088515,https://maps.google.com/?cid=0x0:0xa546d9dc5012925e,
toko bangunan,Toko Bahan Bangunan,Toko Lima Bintang Bangunan,"Jl. Ring Road Waikabubak, Pada Eweta, Kec. Kota Waikabubak, Kabupaten Sumba Barat, Nusa Tenggara Tim.","Kabupaten Sumba Barat, Nusa Tenggara Tim.",NUSA TENGGARA TIMUR,,Indonesia,81236835505.0,,,-9.6253098,119.389322,https://maps.google.com/?cid=0x0:0x2400e10b9df95a55,
toko bangunan,Toko Perlengkapan Rumah,Toko Makmur Jaya Bangunan,"Jl. Bhayangkara, Pada Eweta, Kec. Kota Waikabubak, Kabupaten Sumba Barat, Nusa Tenggara Tim. 87217","Pada Eweta, Kec. Kota Waikabubak, Kabupaten Sumba Barat",NUSA TENGGARA TIMUR,87217.0,Indonesia,81339020447.0,,,-9.6259517,119.4038705,https://maps.google.com/?cid=0x0:0x2bfca63c0a2429f6,
toko bangunan,Toko Perlengkapan Rumah,Saudara Bangunan,"9C43+5CV, Wee Karou, Kec. Loli, Kabupaten Sumba Barat, Nusa Tenggara Tim.","Kabupaten Sumba Barat, Nusa Tenggara Tim.",NUSA TENGGARA TIMUR,,Indonesia,,,,-9.6445021,119.403561,https://maps.google.com/?cid=0x0:0xbd0bec82e2e0b21f,
toko bangunan,Toko Bahan Bangunan,Toko Amerta,"Jl. Jend. Sudirman No.3, Kp. Sawah, Kec. Kota Waikabubak, Kabupaten Sumba Barat, Nusa Tenggara Tim.","Kabupaten Sumba Barat, Nusa Tenggara Tim.",NUSA TENGGARA TIMUR,,Indonesia,82122228701.0,,,-9.635767,119.4129349,https://maps.google.com/?cid=0x0:0xd990784987776293,
toko bangunan,Toko Bahan Bangunan,Toko Sentosa Jaya,"Jl. Bhayangkara No.38, Komerda, Kec. Kota Waikabubak, Kabupaten Sumba Barat, Nusa Tenggara Tim.","Kabupaten Sumba Barat, Nusa Tenggara Tim.",NUSA TENGGARA TIMUR,,Indonesia,38721381.0,,,-9.6289424,119.4079712,https://maps.google.com/?cid=0x0:0x383aa15223e6032a,
toko bangunan,Toko umum,Toko Ahong,"7C52+PF3, Ringu Rara, Kec. Lamboya, Kabupaten Sumba Barat, Nusa Tenggara Tim.","Kabupaten Sumba Barat, Nusa Tenggara Tim.",NUSA TENGGARA TIMUR,,Indonesia,,,,-9.7407269,119.4011595,https://maps.google.com/?cid=0x0:0xa2fd219cad17b521,
toko bangunan,Toko Bahan Bangunan,Toko Maju Jaya,"Jl. Ahmad Yani No.53, Wailiang, Kec. Kota Waikabubak, Kabupaten Sumba Barat, Nusa Tenggara Tim.","Kabupaten Sumba Barat, Nusa Tenggara Tim.",NUSA TENGGARA TIMUR,,Indonesia,,,,-9.6345057,119.4101474,https://maps.google.com/?cid=0x0:0x15d31afb4b76e8da,
toko bangunan,Toko Bahan Bangunan,Toko Sari jaya,"Jl. Ahmad Yani No.46, Maliti, Kec. Kota Waikabubak, Kabupaten Sumba Barat, Nusa Tenggara Tim.","Kabupaten Sumba Barat, Nusa Tenggara Tim.",NUSA TENGGARA TIMUR,,Indonesia,,,,-9.6343214,119.4099849,https://maps.google.com/?cid=0x0:0xe8e29f399da2912a,
toko bangunan,Toko bahan makanan,Prima Dewata,"Unnamed Rd, Anakalang, Kec. Katikutana, Kabupaten Sumba Tengah, Nusa Tenggara Tim.","Kabupaten Sumba Tengah, Nusa Tenggara Tim.",NUSA TENGGARA TIMUR,,Indonesia,,,,-9.5908748,119.5778647,https://maps.google.com/?cid=0x0:0xe4385341afe88f41,
toko bangunan,Kontraktor Umum,MITRA SEJATI,"9C55+Q3F, Wailiang, Kec. Kota Waikabubak, Kabupaten Sumba Barat, Nusa Tenggara Tim.","Kabupaten Sumba Barat, Nusa Tenggara Tim.",NUSA TENGGARA TIMUR,,Indonesia,,,,-9.6405613,119.4076847,https://maps.google.com/?cid=0x0:0xf7e6717d37618975,
toko bangunan,Toko Bahan Bangunan,Toko Duta Bangunan,"CH3M+GQ8, Wai Rasa, Kec. Umbu Ratu Nggay Bar., Kabupaten Sumba Tengah, Nusa Tenggara Tim.","Kabupaten Sumba Tengah, Nusa Tenggara Tim.",NUSA TENGGARA TIMUR,,Indonesia,,,,-9.5962137,119.5844623,https://maps.google.com/?cid=0x0:0x7e609489f14c4fbb,
toko bangunan,toko bangunan,Kec. Lamboya,"Kabupaten Sumba Barat, Nusa Tenggara Tim.","Kabupaten Sumba Barat, Nusa Tenggara Tim.",NUSA TENGGARA TIMUR,,Indonesia,,,,-9.7205484,119.35646,https://maps.google.com/?cid=0x0:0x5968d2d2a2f91860,
toko bangunan,Toko Perlengkapan Rumah,Saudara Bangunan,"9C43+5CV, Wee Karou, Kec. Loli, Kabupaten Sumba Barat, Nusa Tenggara Tim.","Kabupaten Sumba Barat, Nusa Tenggara Tim.",NUSA TENGGARA TIMUR,,Indonesia,,,,-9.6445021,119.403561,https://maps.google.com/?cid=0x0:0xbd0bec82e2e0b21f,
toko bangunan,Toko Bahan Bangunan,Toko Lima Bintang Bangunan,"Jl. Ring Road Waikabubak, Pada Eweta, Kec. Kota Waikabubak, Kabupaten Sumba Barat, Nusa Tenggara Tim.","Kabupaten Sumba Barat, Nusa Tenggara Tim.",NUSA TENGGARA TIMUR,,Indonesia,81236835505.0,,,-9.6253098,119.389322,https://maps.google.com/?cid=0x0:0x2400e10b9df95a55,
toko bangunan,Toko Bahan Bangunan,Toko Nuansa Bangunan Dan Tehnik Terlengkap,"H6CP+QWF, Radamata, Kec. Loura, Kabupaten Sumba Barat Daya, Nusa Tenggara Tim.","Kabupaten Sumba Barat Daya, Nusa Tenggara Tim.",NUSA TENGGARA TIMUR,,Indonesia,81339419509.0,,,-9.4280703,119.2372822,https://maps.google.com/?cid=0x0:0xb106164c739fec1b,
toko bangunan,Toko Bahan Bangunan,Toko Duta Bangunan,"CH3M+GQ8, Wai Rasa, Kec. Umbu Ratu Nggay Bar., Kabupaten Sumba Tengah, Nusa Tenggara Tim.","Kabupaten Sumba Tengah, Nusa Tenggara Tim.",NUSA TENGGARA TIMUR,,Indonesia,,,,-9.5962137,119.5844623,https://maps.google.com/?cid=0x0:0x7e609489f14c4fbb,
toko bangunan,Toko Perlengkapan Rumah,Toko Makmur Jaya Bangunan,"Jl. Bhayangkara, Pada Eweta, Kec. Kota Waikabubak, Kabupaten Sumba Barat, Nusa Tenggara Tim. 87217","Pada Eweta, Kec. Kota Waikabubak, Kabupaten Sumba Barat",NUSA TENGGARA TIMUR,87217.0,Indonesia,81339020447.0,,,-9.6259517,119.4038705,https://maps.google.com/?cid=0x0:0x2bfca63c0a2429f6,
toko bangunan,Toko umum,Toko Ahong,"7C52+PF3, Ringu Rara, Kec. Lamboya, Kabupaten Sumba Barat, Nusa Tenggara Tim.","Kabupaten Sumba Barat, Nusa Tenggara Tim.",NUSA TENGGARA TIMUR,,Indonesia,,,,-9.7407269,119.4011595,https://maps.google.com/?cid=0x0:0xa2fd219cad17b521,
toko bangunan,Toko Perlengkapan Rumah,Batako Lamboya,"Jln.Logowa, Desa Ringurara, Kec. Lamboya, Kabupaten Sumba Barat, Nusa Tenggara Tim.","Kabupaten Sumba Barat, Nusa Tenggara Tim.",NUSA TENGGARA TIMUR,,Indonesia,81237365187.0,,,-9.7292006,119.3730587,https://maps.google.com/?cid=0x0:0x820571183f355c57,
toko bangunan,Toko Bahan Bangunan,Toko Amerta,"Jl. Jend. Sudirman No.3, Kp. Sawah, Kec. Kota Waikabubak, Kabupaten Sumba Barat, Nusa Tenggara Tim.","Kabupaten Sumba Barat, Nusa Tenggara Tim.",NUSA TENGGARA TIMUR,,Indonesia,82122228701.0,,,-9.635767,119.4129349,https://maps.google.com/?cid=0x0:0xd990784987776293,
toko bangunan,Toko Bahan Bangunan,Merdeka,"Jl. Bhayangkara No.38, Komerda, Kec. Kota Waikabubak, Kabupaten Sumba Barat, Nusa Tenggara Tim.","Kabupaten Sumba Barat, Nusa Tenggara Tim.",NUSA TENGGARA TIMUR,,Indonesia,,,,-9.6287962,119.4078268,https://maps.google.com/?cid=0x0:0xdc5a3c120ad9d757,
toko bangunan,Toko Bahan Bangunan,Toko Sari jaya,"Jl. Ahmad Yani No.46, Maliti, Kec. Kota Waikabubak, Kabupaten Sumba Barat, Nusa Tenggara Tim.","Kabupaten Sumba Barat, Nusa Tenggara Tim.",NUSA TENGGARA TIMUR,,Indonesia,,,,-9.6343214,119.4099849,https://maps.google.com/?cid=0x0:0xe8e29f399da2912a,
toko bangunan,Toko Bahan Bangunan,Toko Maju Jaya,"Jl. Ahmad Yani No.53, Wailiang, Kec. Kota Waikabubak, Kabupaten Sumba Barat, Nusa Tenggara Tim.","Kabupaten Sumba Barat, Nusa Tenggara Tim.",NUSA TENGGARA TIMUR,,Indonesia,,,,-9.6345057,119.4101474,https://maps.google.com/?cid=0x0:0x15d31afb4b76e8da,
toko bangunan,Toko Bahan Bangunan,Morika Bangunan,"9CF3+M7M, Jl. Bhayangkara, Pada Eweta, Kec. Kota Waikabubak, Kabupaten Sumba Barat, Nusa Tenggara Tim.","Kabupaten Sumba Barat, Nusa Tenggara Tim.",NUSA TENGGARA TIMUR,,Indonesia,,,,-9.62591,119.403323,https://maps.google.com/?cid=0x0:0x534832efc7043aa5,
toko bangunan,Polisi Sipil,Polsek Lamboya,"79H5+J3V, Kabu Karudi, Kec. Lamboya, Kabupaten Sumba Barat, Nusa Tenggara Tim.","Kabupaten Sumba Barat, Nusa Tenggara Tim.",NUSA TENGGARA TIMUR,,Indonesia,,,,-9.7208757,119.3576767,https://maps.google.com/?cid=0x0:0x32bfa94efbb3c036,
toko bangunan,Toko Bahan Bangunan,Toko Sinar Agape,"Komerda, Kec. Kota Waikabubak, Kabupaten Sumba Barat, Nusa Tenggara Tim.","Kabupaten Sumba Barat, Nusa Tenggara Tim.",NUSA TENGGARA TIMUR,,Indonesia,81339398500.0,,,-9.6282637,119.4066539,https://maps.google.com/?cid=0x0:0x913b17d5f0bd878b,
toko bangunan,Grosir keramik,Toko Bangunan Sumber Berlian,"9FR7+R98, Pitak, Kec. Langke Rembong, Kabupaten Manggarai, Nusa Tenggara Tim.","Kabupaten Manggarai, Nusa Tenggara Tim.",NUSA TENGGARA TIMUR,,Indonesia,38521109.0,,,-8.6079539,120.4634541,https://maps.google.com/?cid=0x0:0x6998fb86419a6f08,
toko bangunan,Pemasok Pipa,Toko Buana Bangunan,"Lasiana, Kec. Klp. Lima, Kota Kupang, Nusa Tenggara Tim.","Kota Kupang, Nusa Tenggara Tim.",NUSA TENGGARA TIMUR,,Indonesia,82244376888.0,,,-10.1373266,123.6764484,https://maps.google.com/?cid=0x0:0x9fc6cad7dda4e71a,
toko bangunan,Pemasok Bahan Bangunan,Toko Hero Bangunan,"Toko Hero Bangunan, Tini, Manuaman, Kec. Kota Atambua, Kabupaten Belu, Nusa Tenggara Tim. 85712","Tini, Manuaman, Kec. Kota Atambua, Kabupaten Belu",NUSA TENGGARA TIMUR,85712.0,Indonesia,82221202985.0,,,-9.1117919,124.8871833,https://maps.google.com/?cid=0x0:0xb79f7fc42724fd10,
toko bangunan,Toko Bahan Bangunan,Toko Sentosa Jaya,"Jl. Bhayangkara No.38, Komerda, Kec. Kota Waikabubak, Kabupaten Sumba Barat, Nusa Tenggara Tim.","Kabupaten Sumba Barat, Nusa Tenggara Tim.",NUSA TENGGARA TIMUR,,Indonesia,38721381.0,,,-9.6289424,119.4079712,https://maps.google.com/?cid=0x0:0x383aa15223e6032a,
toko bangunan,Kontraktor Umum,MITRA SEJATI,"9C55+Q3F, Wailiang, Kec. Kota Waikabubak, Kabupaten Sumba Barat, Nusa Tenggara Tim.","Kabupaten Sumba Barat, Nusa Tenggara Tim.",NUSA TENGGARA TIMUR,,Indonesia,,,,-9.6405613,119.4076847,https://maps.google.com/?cid=0x0:0xf7e6717d37618975,
toko bangunan,toko bangunan,Kec. Kota Waikabubak,"Kabupaten Sumba Barat, Nusa Tenggara Tim.","Kabupaten Sumba Barat, Nusa Tenggara Tim.",NUSA TENGGARA TIMUR,,Indonesia,,,,-9.6318508,119.4116981,https://maps.google.com/?cid=0x0:0xc0a3b8deb8dcb273,
toko bangunan,Toko Bahan Bangunan,Toko Lima Bintang Bangunan,"Jl. Ring Road Waikabubak, Pada Eweta, Kec. Kota Waikabubak, Kabupaten Sumba Barat, Nusa Tenggara Tim.","Kabupaten Sumba Barat, Nusa Tenggara Tim.",NUSA TENGGARA TIMUR,,Indonesia,81236835505.0,,,-9.6253098,119.389322,https://maps.google.com/?cid=0x0:0x2400e10b9df95a55,
toko bangunan,Toko Bahan Bangunan,Toko Nuansa Bangunan Dan Tehnik,"9C75+HG9, Wailiang, Kec. Kota Waikabubak, Kabupaten Sumba Barat, Nusa Tenggara Tim.","Kabupaten Sumba Barat, Nusa Tenggara Tim.",NUSA TENGGARA TIMUR,,Indonesia,81339419509.0,,,-9.6360822,119.4088515,https://maps.google.com/?cid=0x0:0xa546d9dc5012925e,
toko bangunan,Toko Bahan Bangunan,Toko Sentosa Jaya,"Jl. Bhayangkara No.38, Komerda, Kec. Kota Waikabubak, Kabupaten Sumba Barat, Nusa Tenggara Tim.","Kabupaten Sumba Barat, Nusa Tenggara Tim.",NUSA TENGGARA TIMUR,,Indonesia,38721381.0,,,-9.6289424,119.4079712,https://maps.google.com/?cid=0x0:0x383aa15223e6032a,
toko bangunan,Toko Bahan Bangunan,Toko Maju Jaya,"Jl. Ahmad Yani No.53, Wailiang, Kec. Kota Waikabubak, Kabupaten Sumba Barat, Nusa Tenggara Tim.","Kabupaten Sumba Barat, Nusa Tenggara Tim.",NUSA TENGGARA TIMUR,,Indonesia,,,,-9.6345057,119.4101474,https://maps.google.com/?cid=0x0:0x15d31afb4b76e8da,
toko bangunan,Toko Bahan Bangunan,Toko Amerta,"Jl. Jend. Sudirman No.3, Kp. Sawah, Kec. Kota Waikabubak, Kabupaten Sumba Barat, Nusa Tenggara Tim.","Kabupaten Sumba Barat, Nusa Tenggara Tim.",NUSA TENGGARA TIMUR,,Indonesia,82122228701.0,,,-9.635767,119.4129349,https://maps.google.com/?cid=0x0:0xd990784987776293,
toko bangunan,Toko Bahan Bangunan,Morika Bangunan,"9CF3+M7M, Jl. Bhayangkara, Pada Eweta, Kec. Kota Waikabubak, Kabupaten Sumba Barat, Nusa Tenggara Tim.","Kabupaten Sumba Barat, Nusa Tenggara Tim.",NUSA TENGGARA TIMUR,,Indonesia,,,,-9.62591,119.403323,https://maps.google.com/?cid=0x0:0x534832efc7043aa5,
toko bangunan,Toko Bahan Bangunan,Toko Sinar Agape,"Komerda, Kec. Kota Waikabubak, Kabupaten Sumba Barat, Nusa Tenggara Tim.","Kabupaten Sumba Barat, Nusa Tenggara Tim.",NUSA TENGGARA TIMUR,,Indonesia,81339398500.0,,,-9.6282637,119.4066539,https://maps.google.com/?cid=0x0:0x913b17d5f0bd878b,
toko bangunan,Toko Bahan Bangunan,Merdeka,"Jl. Bhayangkara No.38, Komerda, Kec. Kota Waikabubak, Kabupaten Sumba Barat, Nusa Tenggara Tim.","Kabupaten Sumba Barat, Nusa Tenggara Tim.",NUSA TENGGARA TIMUR,,Indonesia,,,,-9.6287962,119.4078268,https://maps.google.com/?cid=0x0:0xdc5a3c120ad9d757,
toko bangunan,Toko Perlengkapan Rumah,Saudara Bangunan,"9C43+5CV, Wee Karou, Kec. Loli, Kabupaten Sumba Barat, Nusa Tenggara Tim.","Kabupaten Sumba Barat, Nusa Tenggara Tim.",NUSA TENGGARA TIMUR,,Indonesia,,,,-9.6445021,119.403561,https://maps.google.com/?cid=0x0:0xbd0bec82e2e0b21f,
toko bangunan,Toko Bahan Bangunan,Toko Sari jaya,"Jl. Ahmad Yani No.46, Maliti, Kec. Kota Waikabubak, Kabupaten Sumba Barat, Nusa Tenggara Tim.","Kabupaten Sumba Barat, Nusa Tenggara Tim.",NUSA TENGGARA TIMUR,,Indonesia,,,,-9.6343214,119.4099849,https://maps.google.com/?cid=0x0:0xe8e29f399da2912a,
toko bangunan,Kontraktor Umum,MITRA SEJATI,"9C55+Q3F, Wailiang, Kec. Kota Waikabubak, Kabupaten Sumba Barat, Nusa Tenggara Tim.","Kabupaten Sumba Barat, Nusa Tenggara Tim.",NUSA TENGGARA TIMUR,,Indonesia,,,,-9.6405613,119.4076847,https://maps.google.com/?cid=0x0:0xf7e6717d37618975,
toko bangunan,Toko Bahan Bangunan,Toko Makmur,"Jl. Ahmad Yani No.3, Komerda, Kec. Kota Waikabubak, Kabupaten Sumba Barat, Nusa Tenggara Tim. 87211","Komerda, Kec. Kota Waikabubak, Kabupaten Sumba Barat",NUSA TENGGARA TIMUR,87211.0,Indonesia,81339020447.0,,,-9.6323297,119.411732,https://maps.google.com/?cid=0x0:0x70171ded7fc96b84,
toko bangunan,Pusat Perbelanjaan,Toko Rajawali,"9C76+QQP, Maliti, Kec. Kota Waikabubak, Kabupaten Sumba Barat, Nusa Tenggara Tim.","Kabupaten Sumba Barat, Nusa Tenggara Tim.",NUSA TENGGARA TIMUR,,Indonesia,85253468666.0,,,-9.6355483,119.4119417,https://maps.google.com/?cid=0x0:0xde52c67a9c9045b,
toko bangunan,Toko,Toko Katulistiwa,"99GV+C3H, Pada Eweta, Kec. Kota Waikabubak, Kabupaten Sumba Barat, Nusa Tenggara Tim.","Kabupaten Sumba Barat, Nusa Tenggara Tim.",NUSA TENGGARA TIMUR,,Indonesia,,,,-9.6239302,119.3927207,https://maps.google.com/?cid=0x0:0xb7ea5b1ddcbb0aba,
toko bangunan,Toko Ponsel,FB CELL/FB SCHOOL UNIFORM SHOP,"Jl. Pisang, Wailiang, Kec. Kota Waikabubak, Kabupaten Sumba Barat, Nusa Tenggara Tim. 87211","Wailiang, Kec. Kota Waikabubak, Kabupaten Sumba Barat",NUSA TENGGARA TIMUR,87211.0,Indonesia,81239776933.0,,,-9.6371126,119.404192,https://maps.google.com/?cid=0x0:0x98168b7cf3fdce9,
toko bangunan,toko bangunan,Kec. Kota Waikabubak,"Kabupaten Sumba Barat, Nusa Tenggara Tim.","Kabupaten Sumba Barat, Nusa Tenggara Tim.",NUSA TENGGARA TIMUR,,Indonesia,,,,-9.6318508,119.4116981,https://maps.google.com/?cid=0x0:0xc0a3b8deb8dcb273,
toko bangunan,Toko Bahan Bangunan,Toko Nuansa Bangunan Dan Tehnik,"9C75+HG9, Wailiang, Kec. Kota Waikabubak, Kabupaten Sumba Barat, Nusa Tenggara Tim.","Kabupaten Sumba Barat, Nusa Tenggara Tim.",NUSA TENGGARA TIMUR,,Indonesia,81339419509.0,,,-9.6360822,119.4088515,https://maps.google.com/?cid=0x0:0xa546d9dc5012925e,
toko bangunan,Toko Bahan Bangunan,Toko Lima Bintang Bangunan,"Jl. Ring Road Waikabubak, Pada Eweta, Kec. Kota Waikabubak, Kabupaten Sumba Barat, Nusa Tenggara Tim.","Kabupaten Sumba Barat, Nusa Tenggara Tim.",NUSA TENGGARA TIMUR,,Indonesia,81236835505.0,,,-9.6253098,119.389322,https://maps.google.com/?cid=0x0:0x2400e10b9df95a55,
toko bangunan,Toko Bahan Bangunan,Toko Sentosa Jaya,"Jl. Bhayangkara No.38, Komerda, Kec. Kota Waikabubak, Kabupaten Sumba Barat, Nusa Tenggara Tim.","Kabupaten Sumba Barat, Nusa Tenggara Tim.",NUSA TENGGARA TIMUR,,Indonesia,38721381.0,,,-9.6289424,119.4079712,https://maps.google.com/?cid=0x0:0x383aa15223e6032a,
toko bangunan,Toko Bahan Bangunan,Toko Amerta,"Jl. Jend. Sudirman No.3, Kp. Sawah, Kec. Kota Waikabubak, Kabupaten Sumba Barat, Nusa Tenggara Tim.","Kabupaten Sumba Barat, Nusa Tenggara Tim.",NUSA TENGGARA TIMUR,,Indonesia,82122228701.0,,,-9.635767,119.4129349,https://maps.google.com/?cid=0x0:0xd990784987776293,
toko bangunan,Toko Bahan Bangunan,Toko Maju Jaya,"Jl. Ahmad Yani No.53, Wailiang, Kec. Kota Waikabubak, Kabupaten Sumba Barat, Nusa Tenggara Tim.","Kabupaten Sumba Barat, Nusa Tenggara Tim.",NUSA TENGGARA TIMUR,,Indonesia,,,,-9.6345057,119.4101474,https://maps.google.com/?cid=0x0:0x15d31afb4b76e8da,
toko bangunan,Toko Bahan Bangunan,Morika Bangunan,"9CF3+M7M, Jl. Bhayangkara, Pada Eweta, Kec. Kota Waikabubak, Kabupaten Sumba Barat, Nusa Tenggara Tim.","Kabupaten Sumba Barat, Nusa Tenggara Tim.",NUSA TENGGARA TIMUR,,Indonesia,,,,-9.62591,119.403323,https://maps.google.com/?cid=0x0:0x534832efc7043aa5,
toko bangunan,Toko Bahan Bangunan,Toko Sinar Agape,"Komerda, Kec. Kota Waikabubak, Kabupaten Sumba Barat, Nusa Tenggara Tim.","Kabupaten Sumba Barat, Nusa Tenggara Tim.",NUSA TENGGARA TIMUR,,Indonesia,81339398500.0,,,-9.6282637,119.4066539,https://maps.google.com/?cid=0x0:0x913b17d5f0bd878b,
toko bangunan,Toko Bahan Bangunan,Toko Sari jaya,"Jl. Ahmad Yani No.46, Maliti, Kec. Kota Waikabubak, Kabupaten Sumba Barat, Nusa Tenggara Tim.","Kabupaten Sumba Barat, Nusa Tenggara Tim.",NUSA TENGGARA TIMUR,,Indonesia,,,,-9.6343214,119.4099849,https://maps.google.com/?cid=0x0:0xe8e29f399da2912a,
toko bangunan,Toko Perlengkapan Rumah,Saudara Bangunan,"9C43+5CV, Wee Karou, Kec. Loli, Kabupaten Sumba Barat, Nusa Tenggara Tim.","Kabupaten Sumba Barat, Nusa Tenggara Tim.",NUSA TENGGARA TIMUR,,Indonesia,,,,-9.6445021,119.403561,https://maps.google.com/?cid=0x0:0xbd0bec82e2e0b21f,
toko bangunan,Toko Bahan Bangunan,Merdeka,"Jl. Bhayangkara No.38, Komerda, Kec. Kota Waikabubak, Kabupaten Sumba Barat, Nusa Tenggara Tim.","Kabupaten Sumba Barat, Nusa Tenggara Tim.",NUSA TENGGARA TIMUR,,Indonesia,,,,-9.6287962,119.4078268,https://maps.google.com/?cid=0x0:0xdc5a3c120ad9d757,
toko bangunan,Kontraktor Umum,MITRA SEJATI,"9C55+Q3F, Wailiang, Kec. Kota Waikabubak, Kabupaten Sumba Barat, Nusa Tenggara Tim.","Kabupaten Sumba Barat, Nusa Tenggara Tim.",NUSA TENGGARA TIMUR,,Indonesia,,,,-9.6405613,119.4076847,https://maps.google.com/?cid=0x0:0xf7e6717d37618975,
toko bangunan,Toko Bahan Bangunan,Toko Lima Bintang Bangunan,"Jl. Ring Road Waikabubak, Pada Eweta, Kec. Kota Waikabubak, Kabupaten Sumba Barat, Nusa Tenggara Tim.","Kabupaten Sumba Barat, Nusa Tenggara Tim.",NUSA TENGGARA TIMUR,,Indonesia,81236835505.0,,,-9.6253098,119.389322,https://maps.google.com/?cid=0x0:0x2400e10b9df95a55,
toko bangunan,toko bangunan,Kec. Kota Waikabubak,"Kabupaten Sumba Barat, Nusa Tenggara Tim.","Kabupaten Sumba Barat, Nusa Tenggara Tim.",NUSA TENGGARA TIMUR,,Indonesia,,,,-9.6318508,119.4116981,https://maps.google.com/?cid=0x0:0xc0a3b8deb8dcb273,
toko bangunan,Toko Bahan Bangunan,Toko Nuansa Bangunan Dan Tehnik,"9C75+HG9, Wailiang, Kec. Kota Waikabubak, Kabupaten Sumba Barat, Nusa Tenggara Tim.","Kabupaten Sumba Barat, Nusa Tenggara Tim.",NUSA TENGGARA TIMUR,,Indonesia,81339419509.0,,,-9.6360822,119.4088515,https://maps.google.com/?cid=0x0:0xa546d9dc5012925e,
toko bangunan,Toko Bahan Bangunan,Toko Sentosa Jaya,"Jl. Bhayangkara No.38, Komerda, Kec. Kota Waikabubak, Kabupaten Sumba Barat, Nusa Tenggara Tim.","Kabupaten Sumba Barat, Nusa Tenggara Tim.",NUSA TENGGARA TIMUR,,Indonesia,38721381.0,,,-9.6289424,119.4079712,https://maps.google.com/?cid=0x0:0x383aa15223e6032a,
toko bangunan,Toko Bahan Bangunan,Toko Amerta,"Jl. Jend. Sudirman No.3, Kp. Sawah, Kec. Kota Waikabubak, Kabupaten Sumba Barat, Nusa Tenggara Tim.","Kabupaten Sumba Barat, Nusa Tenggara Tim.",NUSA TENGGARA TIMUR,,Indonesia,82122228701.0,,,-9.635767,119.4129349,https://maps.google.com/?cid=0x0:0xd990784987776293,
toko bangunan,Toko Bahan Bangunan,Morika Bangunan,"9CF3+M7M, Jl. Bhayangkara, Pada Eweta, Kec. Kota Waikabubak, Kabupaten Sumba Barat, Nusa Tenggara Tim.","Kabupaten Sumba Barat, Nusa Tenggara Tim.",NUSA TENGGARA TIMUR,,Indonesia,,,,-9.62591,119.403323,https://maps.google.com/?cid=0x0:0x534832efc7043aa5,
toko bangunan,Toko Bahan Bangunan,Toko Maju Jaya,"Jl. Ahmad Yani No.53, Wailiang, Kec. Kota Waikabubak, Kabupaten Sumba Barat, Nusa Tenggara Tim.","Kabupaten Sumba Barat, Nusa Tenggara Tim.",NUSA TENGGARA TIMUR,,Indonesia,,,,-9.6345057,119.4101474,https://maps.google.com/?cid=0x0:0x15d31afb4b76e8da,
toko bangunan,Toko Bahan Bangunan,Toko Sinar Agape,"Komerda, Kec. Kota Waikabubak, Kabupaten Sumba Barat, Nusa Tenggara Tim.","Kabupaten Sumba Barat, Nusa Tenggara Tim.",NUSA TENGGARA TIMUR,,Indonesia,81339398500.0,,,-9.6282637,119.4066539,https://maps.google.com/?cid=0x0:0x913b17d5f0bd878b,
toko bangunan,Toko Bahan Bangunan,Toko Sari jaya,"Jl. Ahmad Yani No.46, Maliti, Kec. Kota Waikabubak, Kabupaten Sumba Barat, Nusa Tenggara Tim.","Kabupaten Sumba Barat, Nusa Tenggara Tim.",NUSA TENGGARA TIMUR,,Indonesia,,,,-9.6343214,119.4099849,https://maps.google.com/?cid=0x0:0xe8e29f399da2912a,
toko bangunan,Toko Perlengkapan Rumah,Saudara Bangunan,"9C43+5CV, Wee Karou, Kec. Loli, Kabupaten Sumba Barat, Nusa Tenggara Tim.","Kabupaten Sumba Barat, Nusa Tenggara Tim.",NUSA TENGGARA TIMUR,,Indonesia,,,,-9.6445021,119.403561,https://maps.google.com/?cid=0x0:0xbd0bec82e2e0b21f,
toko bangunan,Toko Bahan Bangunan,Merdeka,"Jl. Bhayangkara No.38, Komerda, Kec. Kota Waikabubak, Kabupaten Sumba Barat, Nusa Tenggara Tim.","Kabupaten Sumba Barat, Nusa Tenggara Tim.",NUSA TENGGARA TIMUR,,Indonesia,,,,-9.6287962,119.4078268,https://maps.google.com/?cid=0x0:0xdc5a3c120ad9d757,
toko bangunan,Kontraktor Umum,MITRA SEJATI,"9C55+Q3F, Wailiang, Kec. Kota Waikabubak, Kabupaten Sumba Barat, Nusa Tenggara Tim.","Kabupaten Sumba Barat, Nusa Tenggara Tim.",NUSA TENGGARA TIMUR,,Indonesia,,,,-9.6405613,119.4076847,https://maps.google.com/?cid=0x0:0xf7e6717d37618975,
toko bangunan,toko bangunan,Nusa Tenggara Tim. 87214,"Kp. Baru, Kec. Kota Waikabubak, Kabupaten Sumba Barat, Nusa Tenggara Tim.","Kabupaten Sumba Barat, Nusa Tenggara Tim.",NUSA TENGGARA TIMUR,,Indonesia,,,,-9.6319416,119.4178502,https://maps.google.com/?cid=0x0:0xf74500f4f5161cf1,
toko bangunan,Toko Bahan Bangunan,Toko Lima Bintang Bangunan,"Jl. Ring Road Waikabubak, Pada Eweta, Kec. Kota Waikabubak, Kabupaten Sumba Barat, Nusa Tenggara Tim.","Kabupaten Sumba Barat, Nusa Tenggara Tim.",NUSA TENGGARA TIMUR,,Indonesia,81236835505.0,,,-9.6253098,119.389322,https://maps.google.com/?cid=0x0:0x2400e10b9df95a55,
toko bangunan,Toko Bahan Bangunan,Toko Nuansa Bangunan Dan Tehnik,"9C75+HG9, Wailiang, Kec. Kota Waikabubak, Kabupaten Sumba Barat, Nusa Tenggara Tim.","Kabupaten Sumba Barat, Nusa Tenggara Tim.",NUSA TENGGARA TIMUR,,Indonesia,81339419509.0,,,-9.6360822,119.4088515,https://maps.google.com/?cid=0x0:0xa546d9dc5012925e,
toko bangunan,Toko Bahan Bangunan,Toko Sari jaya,"Jl. Ahmad Yani No.46, Maliti, Kec. Kota Waikabubak, Kabupaten Sumba Barat, Nusa Tenggara Tim.","Kabupaten Sumba Barat, Nusa Tenggara Tim.",NUSA TENGGARA TIMUR,,Indonesia,,,,-9.6343214,119.4099849,https://maps.google.com/?cid=0x0:0xe8e29f399da2912a,
toko bangunan,Toko Bahan Bangunan,Toko Amerta,"Jl. Jend. Sudirman No.3, Kp. Sawah, Kec. Kota Waikabubak, Kabupaten Sumba Barat, Nusa Tenggara Tim.","Kabupaten Sumba Barat, Nusa Tenggara Tim.",NUSA TENGGARA TIMUR,,Indonesia,82122228701.0,,,-9.635767,119.4129349,https://maps.google.com/?cid=0x0:0xd990784987776293,
toko bangunan,Toko Bahan Bangunan,Toko Sentosa Jaya,"Jl. Bhayangkara No.38, Komerda, Kec. Kota Waikabubak, Kabupaten Sumba Barat, Nusa Tenggara Tim.","Kabupaten Sumba Barat, Nusa Tenggara Tim.",NUSA TENGGARA TIMUR,,Indonesia,38721381.0,,,-9.6289424,119.4079712,https://maps.google.com/?cid=0x0:0x383aa15223e6032a,
toko bangunan,Toko Bahan Bangunan,Morika Bangunan,"9CF3+M7M, Jl. Bhayangkara, Pada Eweta, Kec. Kota Waikabubak, Kabupaten Sumba Barat, Nusa Tenggara Tim.","Kabupaten Sumba Barat, Nusa Tenggara Tim.",NUSA TENGGARA TIMUR,,Indonesia,,,,-9.62591,119.403323,https://maps.google.com/?cid=0x0:0x534832efc7043aa5,
toko bangunan,Toko Bahan Bangunan,Toko Makmur,"Jl. Ahmad Yani No.3, Komerda, Kec. Kota Waikabubak, Kabupaten Sumba Barat, Nusa Tenggara Tim. 87211","Komerda, Kec. Kota Waikabubak, Kabupaten Sumba Barat",NUSA TENGGARA TIMUR,87211.0,Indonesia,81339020447.0,,,-9.6323297,119.411732,https://maps.google.com/?cid=0x0:0x70171ded7fc96b84,
toko bangunan,Pusat Perbelanjaan,Toko Rajawali,"9C76+QQP, Maliti, Kec. Kota Waikabubak, Kabupaten Sumba Barat, Nusa Tenggara Tim.","Kabupaten Sumba Barat, Nusa Tenggara Tim.",NUSA TENGGARA TIMUR,,Indonesia,85253468666.0,,,-9.6355483,119.4119417,https://maps.google.com/?cid=0x0:0xde52c67a9c9045b,
toko bangunan,Kontraktor Umum,MITRA SEJATI,"9C55+Q3F, Wailiang, Kec. Kota Waikabubak, Kabupaten Sumba Barat, Nusa Tenggara Tim.","Kabupaten Sumba Barat, Nusa Tenggara Tim.",NUSA TENGGARA TIMUR,,Indonesia,,,,-9.6405613,119.4076847,https://maps.google.com/?cid=0x0:0xf7e6717d37618975,
toko bangunan,Toko Bahan Bangunan,Toko Duta Bangunan,"CH3M+GQ8, Wai Rasa, Kec. Umbu Ratu Nggay Bar., Kabupaten Sumba Tengah, Nusa Tenggara Tim.","Kabupaten Sumba Tengah, Nusa Tenggara Tim.",NUSA TENGGARA TIMUR,,Indonesia,,,,-9.5962137,119.5844623,https://maps.google.com/?cid=0x0:0x7e609489f14c4fbb,
toko bangunan,Toko Bahan Bangunan,Toko Maju Jaya,"Jl. Ahmad Yani No.53, Wailiang, Kec. Kota Waikabubak, Kabupaten Sumba Barat, Nusa Tenggara Tim.","Kabupaten Sumba Barat, Nusa Tenggara Tim.",NUSA TENGGARA TIMUR,,Indonesia,,,,-9.6345057,119.4101474,https://maps.google.com/?cid=0x0:0x15d31afb4b76e8da,
toko bangunan,Toko Perlengkapan Rumah,Saudara Bangunan,"9C43+5CV, Wee Karou, Kec. Loli, Kabupaten Sumba Barat, Nusa Tenggara Tim.","Kabupaten Sumba Barat, Nusa Tenggara Tim.",NUSA TENGGARA TIMUR,,Indonesia,,,,-9.6445021,119.403561,https://maps.google.com/?cid=0x0:0xbd0bec82e2e0b21f,
toko bangunan,toko bangunan,Nusa Tenggara Tim.,,Nusa Tenggara Tim.,NUSA TENGGARA TIMUR,,Indonesia,,,,-8.6573819,121.0793705,https://maps.google.com/?cid=0x0:0x1030bfbcaf71ae0,
toko bangunan,Toko Bahan Bangunan,Toko Lima Bintang Bangunan,"Jl. Ring Road Waikabubak, Pada Eweta, Kec. Kota Waikabubak, Kabupaten Sumba Barat, Nusa Tenggara Tim.","Kabupaten Sumba Barat, Nusa Tenggara Tim.",NUSA TENGGARA TIMUR,,Indonesia,81236835505.0,,,-9.6253098,119.389322,https://maps.google.com/?cid=0x0:0x2400e10b9df95a55,
toko bangunan,Toko Bahan Bangunan,Toko Nuansa Bangunan Dan Tehnik,"9C75+HG9, Wailiang, Kec. Kota Waikabubak, Kabupaten Sumba Barat, Nusa Tenggara Tim.","Kabupaten Sumba Barat, Nusa Tenggara Tim.",NUSA TENGGARA TIMUR,,Indonesia,81339419509.0,,,-9.6360822,119.4088515,https://maps.google.com/?cid=0x0:0xa546d9dc5012925e,
toko bangunan,Toko Bahan Bangunan,Toko Sentosa Jaya,"Jl. Bhayangkara No.38, Komerda, Kec. Kota Waikabubak, Kabupaten Sumba Barat, Nusa Tenggara Tim.","Kabupaten Sumba Barat, Nusa Tenggara Tim.",NUSA TENGGARA TIMUR,,Indonesia,38721381.0,,,-9.6289424,119.4079712,https://maps.google.com/?cid=0x0:0x383aa15223e6032a,
toko bangunan,Toko Bahan Bangunan,Toko Amerta,"Jl. Jend. Sudirman No.3, Kp. Sawah, Kec. Kota Waikabubak, Kabupaten Sumba Barat, Nusa Tenggara Tim.","Kabupaten Sumba Barat, Nusa Tenggara Tim.",NUSA TENGGARA TIMUR,,Indonesia,82122228701.0,,,-9.635767,119.4129349,https://maps.google.com/?cid=0x0:0xd990784987776293,
toko bangunan,Toko Bahan Bangunan,Morika Bangunan,"9CF3+M7M, Jl. Bhayangkara, Pada Eweta, Kec. Kota Waikabubak, Kabupaten Sumba Barat, Nusa Tenggara Tim.","Kabupaten Sumba Barat, Nusa Tenggara Tim.",NUSA TENGGARA TIMUR,,Indonesia,,,,-9.62591,119.403323,https://maps.google.com/?cid=0x0:0x534832efc7043aa5,
toko bangunan,Toko Bahan Bangunan,Toko Duta Bangunan,"CH3M+GQ8, Wai Rasa, Kec. Umbu Ratu Nggay Bar., Kabupaten Sumba Tengah, Nusa Tenggara Tim.","Kabupaten Sumba Tengah, Nusa Tenggara Tim.",NUSA TENGGARA TIMUR,,Indonesia,,,,-9.5962137,119.5844623,https://maps.google.com/?cid=0x0:0x7e609489f14c4fbb,
toko bangunan,Toko Bahan Bangunan,Toko Sari jaya,"Jl. Ahmad Yani No.46, Maliti, Kec. Kota Waikabubak, Kabupaten Sumba Barat, Nusa Tenggara Tim.","Kabupaten Sumba Barat, Nusa Tenggara Tim.",NUSA TENGGARA TIMUR,,Indonesia,,,,-9.6343214,119.4099849,https://maps.google.com/?cid=0x0:0xe8e29f399da2912a,
toko bangunan,Toko Bahan Bangunan,Toko Bangunan Pak Tris,"9737+VFX, Kamalaputi, Kec. Kota Waingapu, Kabupaten Sumba Timur, Nusa Tenggara Tim.","Kabupaten Sumba Timur, Nusa Tenggara Tim.",NUSA TENGGARA TIMUR,,Indonesia,81353759489.0,,,-9.6452547,120.2637361,https://maps.google.com/?cid=0x0:0xf2f45ed234d9c248,
toko bangunan,Toko Perlengkapan Rumah,Saudara Bangunan,"9C43+5CV, Wee Karou, Kec. Loli, Kabupaten Sumba Barat, Nusa Tenggara Tim.","Kabupaten Sumba Barat, Nusa Tenggara Tim.",NUSA TENGGARA TIMUR,,Indonesia,,,,-9.6445021,119.403561,https://maps.google.com/?cid=0x0:0xbd0bec82e2e0b21f,
toko bangunan,Toko Bahan Bangunan,Toko Nuansa Bangunan Dan Tehnik Terlengkap,"H6CP+QWF, Radamata, Kec. Loura, Kabupaten Sumba Barat Daya, Nusa Tenggara Tim.","Kabupaten Sumba Barat Daya, Nusa Tenggara Tim.",NUSA TENGGARA TIMUR,,Indonesia,81339419509.0,,,-9.4280703,119.2372822,https://maps.google.com/?cid=0x0:0xb106164c739fec1b,
toko bangunan,Toko Bahan Bangunan,Makmur Sejahtera,"86WW+958, Hambala, Kec. Kota Waingapu, Kabupaten Sumba Timur, Nusa Tenggara Tim.","Kabupaten Sumba Timur, Nusa Tenggara Tim.",NUSA TENGGARA TIMUR,,Indonesia,,,,-9.6540827,120.2454421,https://maps.google.com/?cid=0x0:0x2054e4721b862196,
toko bangunan,Toko Bahan Bangunan,Makmur Raya Toko,"86VW+GV6, Hambala, Kec. Kota Waingapu, Kabupaten Sumba Timur, Nusa Tenggara Tim.","Kabupaten Sumba Timur, Nusa Tenggara Tim.",NUSA TENGGARA TIMUR,,Indonesia,38761688.0,,,-9.6562084,120.247145,https://maps.google.com/?cid=0x0:0xc324108618b9bd38,
toko bangunan,Pusat Perbelanjaan,Toko Rajawali,"9C76+QQP, Maliti, Kec. Kota Waikabubak, Kabupaten Sumba Barat, Nusa Tenggara Tim.","Kabupaten Sumba Barat, Nusa Tenggara Tim.",NUSA TENGGARA TIMUR,,Indonesia,85253468666.0,,,-9.6355483,119.4119417,https://maps.google.com/?cid=0x0:0xde52c67a9c9045b,
toko bangunan,Pasar bahan bangunan,Toko MERDEKA,"H7G2+R6G, Jl. Lede Kalumbang, Radamata, Kec. Loura, Kabupaten Sumba Barat Daya, Nusa Tenggara Tim.","Kabupaten Sumba Barat Daya, Nusa Tenggara Tim.",NUSA TENGGARA TIMUR,,Indonesia,8231112666.0,,,-9.4229293,119.2505741,https://maps.google.com/?cid=0x0:0x47fe9599655312f2,
toko bangunan,toko bangunan,Kec. Kota Waikabubak,"Kabupaten Sumba Barat, Nusa Tenggara Tim.","Kabupaten Sumba Barat, Nusa Tenggara Tim.",NUSA TENGGARA TIMUR,,Indonesia,,,,-9.6318508,119.4116981,https://maps.google.com/?cid=0x0:0xc0a3b8deb8dcb273,
toko bangunan,Toko Bahan Bangunan,Toko Maju Jaya,"Jl. Ahmad Yani No.53, Wailiang, Kec. Kota Waikabubak, Kabupaten Sumba Barat, Nusa Tenggara Tim.","Kabupaten Sumba Barat, Nusa Tenggara Tim.",NUSA TENGGARA TIMUR,,Indonesia,,,,-9.6345057,119.4101474,https://maps.google.com/?cid=0x0:0x15d31afb4b76e8da,
toko bangunan,Toko Bahan Bangunan,Toko Sinar Agape,"Komerda, Kec. Kota Waikabubak, Kabupaten Sumba Barat, Nusa Tenggara Tim.","Kabupaten Sumba Barat, Nusa Tenggara Tim.",NUSA TENGGARA TIMUR,,Indonesia,81339398500.0,,,-9.6282637,119.4066539,https://maps.google.com/?cid=0x0:0x913b17d5f0bd878b,
toko bangunan,Toko Bahan Bangunan,Merdeka,"Jl. Bhayangkara No.38, Komerda, Kec. Kota Waikabubak, Kabupaten Sumba Barat, Nusa Tenggara Tim.","Kabupaten Sumba Barat, Nusa Tenggara Tim.",NUSA TENGGARA TIMUR,,Indonesia,,,,-9.6287962,119.4078268,https://maps.google.com/?cid=0x0:0xdc5a3c120ad9d757,
toko bangunan,Kontraktor Umum,MITRA SEJATI,"9C55+Q3F, Wailiang, Kec. Kota Waikabubak, Kabupaten Sumba Barat, Nusa Tenggara Tim.","Kabupaten Sumba Barat, Nusa Tenggara Tim.",NUSA TENGGARA TIMUR,,Indonesia,,,,-9.6405613,119.4076847,https://maps.google.com/?cid=0x0:0xf7e6717d37618975,
toko bangunan,Toko Bahan Bangunan,Toko Lima Bintang Bangunan,"Jl. Ring Road Waikabubak, Pada Eweta, Kec. Kota Waikabubak, Kabupaten Sumba Barat, Nusa Tenggara Tim.","Kabupaten Sumba Barat, Nusa Tenggara Tim.",NUSA TENGGARA TIMUR,,Indonesia,81236835505.0,,,-9.6253098,119.389322,https://maps.google.com/?cid=0x0:0x2400e10b9df95a55,
toko bangunan,toko bangunan,Kec. Kota Waikabubak,"Kabupaten Sumba Barat, Nusa Tenggara Tim.","Kabupaten Sumba Barat, Nusa Tenggara Tim.",NUSA TENGGARA TIMUR,,Indonesia,,,,-9.6318508,119.4116981,https://maps.google.com/?cid=0x0:0xc0a3b8deb8dcb273,
toko bangunan,Toko Bahan Bangunan,Toko Nuansa Bangunan Dan Tehnik,"9C75+HG9, Wailiang, Kec. Kota Waikabubak, Kabupaten Sumba Barat, Nusa Tenggara Tim.","Kabupaten Sumba Barat, Nusa Tenggara Tim.",NUSA TENGGARA TIMUR,,Indonesia,81339419509.0,,,-9.6360822,119.4088515,https://maps.google.com/?cid=0x0:0xa546d9dc5012925e,
toko bangunan,Toko Bahan Bangunan,Toko Amerta,"Jl. Jend. Sudirman No.3, Kp. Sawah, Kec. Kota Waikabubak, Kabupaten Sumba Barat, Nusa Tenggara Tim.","Kabupaten Sumba Barat, Nusa Tenggara Tim.",NUSA TENGGARA TIMUR,,Indonesia,82122228701.0,,,-9.635767,119.4129349,https://maps.google.com/?cid=0x0:0xd990784987776293,
toko bangunan,Toko Bahan Bangunan,Toko Sentosa Jaya,"Jl. Bhayangkara No.38, Komerda, Kec. Kota Waikabubak, Kabupaten Sumba Barat, Nusa Tenggara Tim.","Kabupaten Sumba Barat, Nusa Tenggara Tim.",NUSA TENGGARA TIMUR,,Indonesia,38721381.0,,,-9.6289424,119.4079712,https://maps.google.com/?cid=0x0:0x383aa15223e6032a,
toko bangunan,Toko Bahan Bangunan,Toko Maju Jaya,"Jl. Ahmad Yani No.53, Wailiang, Kec. Kota Waikabubak, Kabupaten Sumba Barat, Nusa Tenggara Tim.","Kabupaten Sumba Barat, Nusa Tenggara Tim.",NUSA TENGGARA TIMUR,,Indonesia,,,,-9.6345057,119.4101474,https://maps.google.com/?cid=0x0:0x15d31afb4b76e8da,
toko bangunan,Toko Bahan Bangunan,Morika Bangunan,"9CF3+M7M, Jl. Bhayangkara, Pada Eweta, Kec. Kota Waikabubak, Kabupaten Sumba Barat, Nusa Tenggara Tim.","Kabupaten Sumba Barat, Nusa Tenggara Tim.",NUSA TENGGARA TIMUR,,Indonesia,,,,-9.62591,119.403323,https://maps.google.com/?cid=0x0:0x534832efc7043aa5,
toko bangunan,Toko Bahan Bangunan,Toko Sinar Agape,"Komerda, Kec. Kota Waikabubak, Kabupaten Sumba Barat, Nusa Tenggara Tim.","Kabupaten Sumba Barat, Nusa Tenggara Tim.",NUSA TENGGARA TIMUR,,Indonesia,81339398500.0,,,-9.6282637,119.4066539,https://maps.google.com/?cid=0x0:0x913b17d5f0bd878b,
toko bangunan,Toko Bahan Bangunan,Toko Sari jaya,"Jl. Ahmad Yani No.46, Maliti, Kec. Kota Waikabubak, Kabupaten Sumba Barat, Nusa Tenggara Tim.","Kabupaten Sumba Barat, Nusa Tenggara Tim.",NUSA TENGGARA TIMUR,,Indonesia,,,,-9.6343214,119.4099849,https://maps.google.com/?cid=0x0:0xe8e29f399da2912a,
toko bangunan,Toko Perlengkapan Rumah,Saudara Bangunan,"9C43+5CV, Wee Karou, Kec. Loli, Kabupaten Sumba Barat, Nusa Tenggara Tim.","Kabupaten Sumba Barat, Nusa Tenggara Tim.",NUSA TENGGARA TIMUR,,Indonesia,,,,-9.6445021,119.403561,https://maps.google.com/?cid=0x0:0xbd0bec82e2e0b21f,
toko bangunan,Kontraktor Umum,MITRA SEJATI,"9C55+Q3F, Wailiang, Kec. Kota Waikabubak, Kabupaten Sumba Barat, Nusa Tenggara Tim.","Kabupaten Sumba Barat, Nusa Tenggara Tim.",NUSA TENGGARA TIMUR,,Indonesia,,,,-9.6405613,119.4076847,https://maps.google.com/?cid=0x0:0xf7e6717d37618975,
toko bangunan,Toko Bahan Bangunan,Merdeka,"Jl. Bhayangkara No.38, Komerda, Kec. Kota Waikabubak, Kabupaten Sumba Barat, Nusa Tenggara Tim.","Kabupaten Sumba Barat, Nusa Tenggara Tim.",NUSA TENGGARA TIMUR,,Indonesia,,,,-9.6287962,119.4078268,https://maps.google.com/?cid=0x0:0xdc5a3c120ad9d757,
toko bangunan,toko bangunan,Nusa Tenggara Tim.,,Nusa Tenggara Tim.,NUSA TENGGARA TIMUR,,Indonesia,,,,-8.6573819,121.0793705,https://maps.google.com/?cid=0x0:0x1030bfbcaf71ae0,
toko bangunan,Toko Bahan Bangunan,Toko Bangunan Pak Tris,"9737+VFX, Kamalaputi, Kec. Kota Waingapu, Kabupaten Sumba Timur, Nusa Tenggara Tim.","Kabupaten Sumba Timur, Nusa Tenggara Tim.",NUSA TENGGARA TIMUR,,Indonesia,81353759489.0,,,-9.6452547,120.2637361,https://maps.google.com/?cid=0x0:0xf2f45ed234d9c248,
toko bangunan,Toko Bahan Bangunan,Toko Duta Bangunan,"CH3M+GQ8, Wai Rasa, Kec. Umbu Ratu Nggay Bar., Kabupaten Sumba Tengah, Nusa Tenggara Tim.","Kabupaten Sumba Tengah, Nusa Tenggara Tim.",NUSA TENGGARA TIMUR,,Indonesia,,,,-9.5962137,119.5844623,https://maps.google.com/?cid=0x0:0x7e609489f14c4fbb,
toko bangunan,Toko Bahan Bangunan,Toko Nuansa Bangunan Dan Tehnik Terlengkap,"H6CP+QWF, Radamata, Kec. Loura, Kabupaten Sumba Barat Daya, Nusa Tenggara Tim.","Kabupaten Sumba Barat Daya, Nusa Tenggara Tim.",NUSA TENGGARA TIMUR,,Indonesia,81339419509.0,,,-9.4280703,119.2372822,https://maps.google.com/?cid=0x0:0xb106164c739fec1b,
toko bangunan,Toko Bahan Bangunan,Toko Makmur,"Jl. Ahmad Yani No.3, Komerda, Kec. Kota Waikabubak, Kabupaten Sumba Barat, Nusa Tenggara Tim. 87211","Komerda, Kec. Kota Waikabubak, Kabupaten Sumba Barat",NUSA TENGGARA TIMUR,87211.0,Indonesia,81339020447.0,,,-9.6323297,119.411732,https://maps.google.com/?cid=0x0:0x70171ded7fc96b84,
toko bangunan,Toko Bahan Bangunan,Wahana bangunan,"Jl. H. Adam Malik No.km.3, Kambajawa, Kec. Kota Waingapu, Kabupaten Sumba Timur, Nusa Tenggara Tim. 87111","Kambajawa, Kec. Kota Waingapu, Kabupaten Sumba Timur",NUSA TENGGARA TIMUR,87111.0,Indonesia,82295440105.0,,,-9.6601674,120.2532787,https://maps.google.com/?cid=0x0:0x5cd07685c43f5057,
toko bangunan,Pemasok Bahan Bangunan,Toko Guna Karya,"87X6+2XX, Matawai, Kec. Kota Waingapu, Kabupaten Sumba Timur, Nusa Tenggara Tim.","Kabupaten Sumba Timur, Nusa Tenggara Tim.",NUSA TENGGARA TIMUR,,Indonesia,38762316.0,,,-9.6523962,120.2624839,https://maps.google.com/?cid=0x0:0x71144f7ccc612554,
toko bangunan,Toko Bahan Bangunan,TOKO SINAR DUTA,"Jl. Ahmad Yani No.46, Matawai, Kec. Kota Waingapu, Kabupaten Sumba Timur, Nusa Tenggara Tim.","Kabupaten Sumba Timur, Nusa Tenggara Tim.",NUSA TENGGARA TIMUR,,Indonesia,38762141.0,,,-9.6518145,120.2647551,https://maps.google.com/?cid=0x0:0xec3fa460dc149196,
toko bangunan,Toko Bahan Bangunan,Makmur Raya Toko,"86VW+GV6, Hambala, Kec. Kota Waingapu, Kabupaten Sumba Timur, Nusa Tenggara Tim.","Kabupaten Sumba Timur, Nusa Tenggara Tim.",NUSA TENGGARA TIMUR,,Indonesia,38761688.0,,,-9.6562084,120.247145,https://maps.google.com/?cid=0x0:0xc324108618b9bd38,
toko bangunan,Toko bahan makanan,Toko Karya Agung,"Jl. Ahmad Yani, Komerda, Kec. Kota Waikabubak, Kabupaten Sumba Barat, Nusa Tenggara Tim.","Kabupaten Sumba Barat, Nusa Tenggara Tim.",NUSA TENGGARA TIMUR,,Indonesia,38721033.0,,,-9.6330306,119.4111382,https://maps.google.com/?cid=0x0:0xe93b82eea4e94625,
toko bangunan,Toko Bahan Bangunan,Makmur Sejahtera,"86WW+958, Hambala, Kec. Kota Waingapu, Kabupaten Sumba Timur, Nusa Tenggara Tim.","Kabupaten Sumba Timur, Nusa Tenggara Tim.",NUSA TENGGARA TIMUR,,Indonesia,,,,-9.6540827,120.2454421,https://maps.google.com/?cid=0x0:0x2054e4721b862196,
toko bangunan,toko bangunan,Nusa Tenggara Tim.,,Nusa Tenggara Tim.,NUSA TENGGARA TIMUR,,Indonesia,,,,-8.6573819,121.0793705,https://maps.google.com/?cid=0x0:0x1030bfbcaf71ae0,
toko bangunan,Toko Bahan Bangunan,Toko Lima Bintang Bangunan,"Jl. Ring Road Waikabubak, Pada Eweta, Kec. Kota Waikabubak, Kabupaten Sumba Barat, Nusa Tenggara Tim.","Kabupaten Sumba Barat, Nusa Tenggara Tim.",NUSA TENGGARA TIMUR,,Indonesia,81236835505.0,,,-9.6253098,119.389322,https://maps.google.com/?cid=0x0:0x2400e10b9df95a55,
toko bangunan,Toko Bahan Bangunan,Toko Nuansa Bangunan Dan Tehnik,"9C75+HG9, Wailiang, Kec. Kota Waikabubak, Kabupaten Sumba Barat, Nusa Tenggara Tim.","Kabupaten Sumba Barat, Nusa Tenggara Tim.",NUSA TENGGARA TIMUR,,Indonesia,81339419509.0,,,-9.6360822,119.4088515,https://maps.google.com/?cid=0x0:0xa546d9dc5012925e,
toko bangunan,Toko Bahan Bangunan,Toko Amerta,"Jl. Jend. Sudirman No.3, Kp. Sawah, Kec. Kota Waikabubak, Kabupaten Sumba Barat, Nusa Tenggara Tim.","Kabupaten Sumba Barat, Nusa Tenggara Tim.",NUSA TENGGARA TIMUR,,Indonesia,82122228701.0,,,-9.635767,119.4129349,https://maps.google.com/?cid=0x0:0xd990784987776293,
toko bangunan,Toko Bahan Bangunan,Toko Sentosa Jaya,"Jl. Bhayangkara No.38, Komerda, Kec. Kota Waikabubak, Kabupaten Sumba Barat, Nusa Tenggara Tim.","Kabupaten Sumba Barat, Nusa Tenggara Tim.",NUSA TENGGARA TIMUR,,Indonesia,38721381.0,,,-9.6289424,119.4079712,https://maps.google.com/?cid=0x0:0x383aa15223e6032a,
toko bangunan,Toko Bahan Bangunan,Morika Bangunan,"9CF3+M7M, Jl. Bhayangkara, Pada Eweta, Kec. Kota Waikabubak, Kabupaten Sumba Barat, Nusa Tenggara Tim.","Kabupaten Sumba Barat, Nusa Tenggara Tim.",NUSA TENGGARA TIMUR,,Indonesia,,,,-9.62591,119.403323,https://maps.google.com/?cid=0x0:0x534832efc7043aa5,
toko bangunan,Toko Bahan Bangunan,Toko Duta Bangunan,"CH3M+GQ8, Wai Rasa, Kec. Umbu Ratu Nggay Bar., Kabupaten Sumba Tengah, Nusa Tenggara Tim.","Kabupaten Sumba Tengah, Nusa Tenggara Tim.",NUSA TENGGARA TIMUR,,Indonesia,,,,-9.5962137,119.5844623,https://maps.google.com/?cid=0x0:0x7e609489f14c4fbb,
toko bangunan,Toko Bahan Bangunan,Toko Sari jaya,"Jl. Ahmad Yani No.46, Maliti, Kec. Kota Waikabubak, Kabupaten Sumba Barat, Nusa Tenggara Tim.","Kabupaten Sumba Barat, Nusa Tenggara Tim.",NUSA TENGGARA TIMUR,,Indonesia,,,,-9.6343214,119.4099849,https://maps.google.com/?cid=0x0:0xe8e29f399da2912a,
toko bangunan,Toko Perlengkapan Rumah,Saudara Bangunan,"9C43+5CV, Wee Karou, Kec. Loli, Kabupaten Sumba Barat, Nusa Tenggara Tim.","Kabupaten Sumba Barat, Nusa Tenggara Tim.",NUSA TENGGARA TIMUR,,Indonesia,,,,-9.6445021,119.403561,https://maps.google.com/?cid=0x0:0xbd0bec82e2e0b21f,
toko bangunan,Toko Bahan Bangunan,Toko Bangunan Pak Tris,"9737+VFX, Kamalaputi, Kec. Kota Waingapu, Kabupaten Sumba Timur, Nusa Tenggara Tim.","Kabupaten Sumba Timur, Nusa Tenggara Tim.",NUSA TENGGARA TIMUR,,Indonesia,81353759489.0,,,-9.6452547,120.2637361,https://maps.google.com/?cid=0x0:0xf2f45ed234d9c248,
toko bangunan,toko bangunan,Kec. Kota Waikabubak,"Kabupaten Sumba Barat, Nusa Tenggara Tim.","Kabupaten Sumba Barat, Nusa Tenggara Tim.",NUSA TENGGARA TIMUR,,Indonesia,,,,-9.6318508,119.4116981,https://maps.google.com/?cid=0x0:0xc0a3b8deb8dcb273,
toko bangunan,Toko Bahan Bangunan,Toko Maju Jaya,"Jl. Ahmad Yani No.53, Wailiang, Kec. Kota Waikabubak, Kabupaten Sumba Barat, Nusa Tenggara Tim.","Kabupaten Sumba Barat, Nusa Tenggara Tim.",NUSA TENGGARA TIMUR,,Indonesia,,,,-9.6345057,119.4101474,https://maps.google.com/?cid=0x0:0x15d31afb4b76e8da,
toko bangunan,Toko Bahan Bangunan,Toko Sinar Agape,"Komerda, Kec. Kota Waikabubak, Kabupaten Sumba Barat, Nusa Tenggara Tim.","Kabupaten Sumba Barat, Nusa Tenggara Tim.",NUSA TENGGARA TIMUR,,Indonesia,81339398500.0,,,-9.6282637,119.4066539,https://maps.google.com/?cid=0x0:0x913b17d5f0bd878b,
toko bangunan,Kontraktor Umum,MITRA SEJATI,"9C55+Q3F, Wailiang, Kec. Kota Waikabubak, Kabupaten Sumba Barat, Nusa Tenggara Tim.","Kabupaten Sumba Barat, Nusa Tenggara Tim.",NUSA TENGGARA TIMUR,,Indonesia,,,,-9.6405613,119.4076847,https://maps.google.com/?cid=0x0:0xf7e6717d37618975,
toko bangunan,Toko Bahan Bangunan,Merdeka,"Jl. Bhayangkara No.38, Komerda, Kec. Kota Waikabubak, Kabupaten Sumba Barat, Nusa Tenggara Tim.","Kabupaten Sumba Barat, Nusa Tenggara Tim.",NUSA TENGGARA TIMUR,,Indonesia,,,,-9.6287962,119.4078268,https://maps.google.com/?cid=0x0:0xdc5a3c120ad9d757,
toko bangunan,toko bangunan,Nusa Tenggara Tim.,,Nusa Tenggara Tim.,NUSA TENGGARA TIMUR,,Indonesia,,,,-8.6573819,121.0793705,https://maps.google.com/?cid=0x0:0x1030bfbcaf71ae0,
toko bangunan,Toko Bahan Bangunan,Toko Lima Bintang Bangunan,"Jl. Ring Road Waikabubak, Pada Eweta, Kec. Kota Waikabubak, Kabupaten Sumba Barat, Nusa Tenggara Tim.","Kabupaten Sumba Barat, Nusa Tenggara Tim.",NUSA TENGGARA TIMUR,,Indonesia,81236835505.0,,,-9.6253098,119.389322,https://maps.google.com/?cid=0x0:0x2400e10b9df95a55,
toko bangunan,Toko Bahan Bangunan,Toko Nuansa Bangunan Dan Tehnik,"9C75+HG9, Wailiang, Kec. Kota Waikabubak, Kabupaten Sumba Barat, Nusa Tenggara Tim.","Kabupaten Sumba Barat, Nusa Tenggara Tim.",NUSA TENGGARA TIMUR,,Indonesia,81339419509.0,,,-9.6360822,119.4088515,https://maps.google.com/?cid=0x0:0xa546d9dc5012925e,
toko bangunan,Pemasok Pipa,Toko Buana Bangunan,"Lasiana, Kec. Klp. Lima, Kota Kupang, Nusa Tenggara Tim.","Kota Kupang, Nusa Tenggara Tim.",NUSA TENGGARA TIMUR,,Indonesia,82244376888.0,,,-10.1373266,123.6764484,https://maps.google.com/?cid=0x0:0x9fc6cad7dda4e71a,
toko bangunan,Toko Bahan Bangunan,Toko Duta Bangunan,"CH3M+GQ8, Wai Rasa, Kec. Umbu Ratu Nggay Bar., Kabupaten Sumba Tengah, Nusa Tenggara Tim.","Kabupaten Sumba Tengah, Nusa Tenggara Tim.",NUSA TENGGARA TIMUR,,Indonesia,,,,-9.5962137,119.5844623,https://maps.google.com/?cid=0x0:0x7e609489f14c4fbb,
toko bangunan,Pemasok Bahan Bangunan,Toko Hero Bangunan,"Toko Hero Bangunan, Tini, Manuaman, Kec. Kota Atambua, Kabupaten Belu, Nusa Tenggara Tim. 85712","Tini, Manuaman, Kec. Kota Atambua, Kabupaten Belu",NUSA TENGGARA TIMUR,85712.0,Indonesia,82221202985.0,,,-9.1117919,124.8871833,https://maps.google.com/?cid=0x0:0xb79f7fc42724fd10,
toko bangunan,Grosir keramik,Toko Bangunan Sumber Berlian,"9FR7+R98, Pitak, Kec. Langke Rembong, Kabupaten Manggarai, Nusa Tenggara Tim.","Kabupaten Manggarai, Nusa Tenggara Tim.",NUSA TENGGARA TIMUR,,Indonesia,38521109.0,,,-8.6079539,120.4634541,https://maps.google.com/?cid=0x0:0x6998fb86419a6f08,
toko bangunan,Toko Bahan Bangunan,TOKO MUTIARA BANGUNAN,"JALAN R. W. MONGINSIDI Jl. Boanawa, Kel. Mbongawani, Kec. Ende Sel., Kabupaten Ende, Nusa Tenggara Tim. 86318","Kel. Mbongawani, Kec. Ende Sel., Kabupaten Ende",NUSA TENGGARA TIMUR,86318.0,Indonesia,82342055794.0,,,-8.8505091,121.649829,https://maps.google.com/?cid=0x0:0xd3b67f3d4b660364,
toko bangunan,Toko Bahan Bangunan,Toko Bangunan Jaya,"Jl. Terusan Timor Raya No.9u KM. 6, Oesapa Bar., Kec. Klp. Lima, Kota Kupang, Nusa Tenggara Tim.","Kota Kupang, Nusa Tenggara Tim.",NUSA TENGGARA TIMUR,,Indonesia,81338567839.0,,,-10.14441,123.6254719,https://maps.google.com/?cid=0x0:0x4a94c89160bbe62c,
toko bangunan,Toko Bahan Bangunan,Toko Graha Bangunan,"Gedung Graha Ariadi, Oesapa Bar., Kec. Klp. Lima, Kota Kupang, Nusa Tenggara Tim. 85228","Oesapa Bar., Kec. Klp. Lima, Kota Kupang",NUSA TENGGARA TIMUR,85228.0,Indonesia,81312893723.0,,,-10.1468703,123.631267,https://maps.google.com/?cid=0x0:0x4167d73ee95fc845,
toko bangunan,Toko Bahan Bangunan,TOKO SAHABAT INTI BANGUNAN,"JL. Ruteng - Labuan Bajo, Cancar, Wae Belang, Kec. Ruteng, Kabupaten Manggarai, Nusa Tenggara Tim.","Kabupaten Manggarai, Nusa Tenggara Tim.",NUSA TENGGARA TIMUR,,Indonesia,81359982021.0,,,-8.5896405,120.3779527,https://maps.google.com/?cid=0x0:0x99120b0035e2b615,
toko bangunan,Pemasok Pipa,Toko Bangunan,"Manulai II, Kec. Alak, Kota Kupang, Nusa Tenggara Tim.","Kota Kupang, Nusa Tenggara Tim.",NUSA TENGGARA TIMUR,,Indonesia,85123255522.0,,,-10.213815,123.5749527,https://maps.google.com/?cid=0x0:0x5559349e9e4fc36f,
toko bangunan,Toko Bahan Bangunan,toko gloria bangunan,"Jl. Kemakmuran No.14, Kel. Mbongawani, Kec. Ende Sel., Kabupaten Ende, Nusa Tenggara Tim.","Kabupaten Ende, Nusa Tenggara Tim.",NUSA TENGGARA TIMUR,,Indonesia,81331006673.0,,,-8.8465826,121.644941,https://maps.google.com/?cid=0x0:0xe6e6044a0d0864ee,
toko bangunan,Toko Bahan Bangunan,toko sinar bangunan (ende),"5J3V+MWW, Kel. Mbongawani, Kec. Ende Sel., Kabupaten Ende, Nusa Tenggara Tim.","Kabupaten Ende, Nusa Tenggara Tim.",NUSA TENGGARA TIMUR,,Indonesia,38121454.0,,,-8.8457706,121.6448129,https://maps.google.com/?cid=0x0:0x286f8de860e51520,
toko bangunan,Toko Bahan Bangunan,Toko Bangunan Saudara,"Mbaumuku, Kec. Langke Rembong, Kabupaten Manggarai, Nusa Tenggara Tim.","Kabupaten Manggarai, Nusa Tenggara Tim.",NUSA TENGGARA TIMUR,,Indonesia,85239009102.0,,,-8.6086449,120.4648361,https://maps.google.com/?cid=0x0:0x5faafa24f0a0065f,
toko bangunan,Toko Bahan Bangunan,TOKO Sinar Galaxi,"H6CR+XJ8, Unnamed Road, Loura, Kabupaten Barat Daya, Nusa Tenggara Tim., Radamata, Kec. Loura, Kabupaten Sumba Barat Daya, Nusa Tenggara Tim.","Kabupaten Sumba Barat Daya, Nusa Tenggara Tim.",NUSA TENGGARA TIMUR,,Indonesia,,,,-9.427579,119.2415805,https://maps.google.com/?cid=0x0:0x50d8175272a243a8,
toko bangunan,Toko Bahan Bangunan,Toko Gloria,"Jl. Kemakmuran No.4, Kel. Rukunlima, Kec. Ende, Kabupaten Ende, Nusa Tenggara Tim.","Kabupaten Ende, Nusa Tenggara Tim.",NUSA TENGGARA TIMUR,,Indonesia,38121405.0,,,-8.853948,121.654251,https://maps.google.com/?cid=0x0:0xbf3a983e033d59a5,
toko bangunan,Pasar bahan bangunan,Toko Sentral Bangunan,"Jl. A. Yani No.31, Oeba, Kec. Kota Lama, Kota Kupang, Nusa Tenggara Tim.","Kota Kupang, Nusa Tenggara Tim.",NUSA TENGGARA TIMUR,,Indonesia,,,,-10.1589841,123.5906754,https://maps.google.com/?cid=0x0:0x86beb21036599681,
toko bangunan,Toko Bahan Bangunan,Toko Sinar Rembulan,"Kel. Mautapaga, Kec. Ende Tim., Kabupaten Ende, Nusa Tenggara Tim.","Kabupaten Ende, Nusa Tenggara Tim.",NUSA TENGGARA TIMUR,,Indonesia,,,,-8.8457899,121.6663021,https://maps.google.com/?cid=0x0:0xbda3c29037862e1f,
toko bangunan,Toko Bahan Bangunan,UD. Fajar Bangunan ENDE,"Jl. Ahmad Yani, Kel. Kelimutu, Kec. Ende Tengah, Kabupaten Ende, Nusa Tenggara Tim.","Kabupaten Ende, Nusa Tenggara Tim.",NUSA TENGGARA TIMUR,,Indonesia,82155194068.0,,,-8.8481109,121.6573345,https://maps.google.com/?cid=0x0:0x8a620756dd470b99,
toko bangunan,toko bangunan,Kec. Lamboya,"Kabupaten Sumba Barat, Nusa Tenggara Tim.","Kabupaten Sumba Barat, Nusa Tenggara Tim.",NUSA TENGGARA TIMUR,,Indonesia,,,,-9.7205484,119.35646,https://maps.google.com/?cid=0x0:0x5968d2d2a2f91860,
toko bangunan,Toko umum,Toko Ahong,"7C52+PF3, Ringu Rara, Kec. Lamboya, Kabupaten Sumba Barat, Nusa Tenggara Tim.","Kabupaten Sumba Barat, Nusa Tenggara Tim.",NUSA TENGGARA TIMUR,,Indonesia,,,,-9.7407269,119.4011595,https://maps.google.com/?cid=0x0:0xa2fd219cad17b521,
toko bangunan,Toko Perlengkapan Rumah,Toko Makmur Jaya Bangunan,"Jl. Bhayangkara, Pada Eweta, Kec. Kota Waikabubak, Kabupaten Sumba Barat, Nusa Tenggara Tim. 87217","Pada Eweta, Kec. Kota Waikabubak, Kabupaten Sumba Barat",NUSA TENGGARA TIMUR,87217.0,Indonesia,81339020447.0,,,-9.6259517,119.4038705,https://maps.google.com/?cid=0x0:0x2bfca63c0a2429f6,
toko bangunan,Toko Bahan Bangunan,Toko Sari jaya,"Jl. Ahmad Yani No.46, Maliti, Kec. Kota Waikabubak, Kabupaten Sumba Barat, Nusa Tenggara Tim.","Kabupaten Sumba Barat, Nusa Tenggara Tim.",NUSA TENGGARA TIMUR,,Indonesia,,,,-9.6343214,119.4099849,https://maps.google.com/?cid=0x0:0xe8e29f399da2912a,
toko bangunan,Toko Bahan Bangunan,Toko Maju Jaya,"Jl. Ahmad Yani No.53, Wailiang, Kec. Kota Waikabubak, Kabupaten Sumba Barat, Nusa Tenggara Tim.","Kabupaten Sumba Barat, Nusa Tenggara Tim.",NUSA TENGGARA TIMUR,,Indonesia,,,,-9.6345057,119.4101474,https://maps.google.com/?cid=0x0:0x15d31afb4b76e8da,
toko bangunan,Toko Bahan Bangunan,Toko Amerta,"Jl. Jend. Sudirman No.3, Kp. Sawah, Kec. Kota Waikabubak, Kabupaten Sumba Barat, Nusa Tenggara Tim.","Kabupaten Sumba Barat, Nusa Tenggara Tim.",NUSA TENGGARA TIMUR,,Indonesia,82122228701.0,,,-9.635767,119.4129349,https://maps.google.com/?cid=0x0:0xd990784987776293,
toko bangunan,Kontraktor Umum,MITRA SEJATI,"9C55+Q3F, Wailiang, Kec. Kota Waikabubak, Kabupaten Sumba Barat, Nusa Tenggara Tim.","Kabupaten Sumba Barat, Nusa Tenggara Tim.",NUSA TENGGARA TIMUR,,Indonesia,,,,-9.6405613,119.4076847,https://maps.google.com/?cid=0x0:0xf7e6717d37618975,
toko bangunan,Toko Bahan Bangunan,Toko Sinar Agape,"Komerda, Kec. Kota Waikabubak, Kabupaten Sumba Barat, Nusa Tenggara Tim.","Kabupaten Sumba Barat, Nusa Tenggara Tim.",NUSA TENGGARA TIMUR,,Indonesia,81339398500.0,,,-9.6282637,119.4066539,https://maps.google.com/?cid=0x0:0x913b17d5f0bd878b,
toko bangunan,Toko Bahan Bangunan,Merdeka,"Jl. Bhayangkara No.38, Komerda, Kec. Kota Waikabubak, Kabupaten Sumba Barat, Nusa Tenggara Tim.","Kabupaten Sumba Barat, Nusa Tenggara Tim.",NUSA TENGGARA TIMUR,,Indonesia,,,,-9.6287962,119.4078268,https://maps.google.com/?cid=0x0:0xdc5a3c120ad9d757,
