Category,Real Category,Business Name,Address,City,State,Postal Code,Country,Phone,Email,Website,Latitude,Longitude,Map Link,Details Link
mall,mall,Kec. Tana Righu,"Kabupaten Sumba Barat, Nusa Tenggara Tim.","Kabupaten Sumba Barat, Nusa Tenggara Tim.",NUSA TENGGARA TIMUR,,Indonesia,,,,-9.4191853,119.398791,https://maps.google.com/?cid=0x0:0xb9763f309124fdd0,
mall,Perhimpunan Pengembang Perumahan,Kabonu Tana,"H826+W9F, Karuni, Kec. Loura, Kabupaten Sumba Barat Daya, Nusa Tenggara Tim.","Kabupaten Sumba Barat Daya, Nusa Tenggara Tim.",NUSA TENGGARA TIMUR,,Indonesia,82146797928.0,,,-9.447688,119.3109163,https://maps.google.com/?cid=0x0:0x5abf63c34962df5f,
mall,Sekolah menengah,SMA Negeri 1 Tana Righu,"Loko Ry, Kec. Tana Righu, Kabupaten Sumba Barat, Nusa Tenggara Tim.","Kabupaten Sumba Barat, Nusa Tenggara Tim.",NUSA TENGGARA TIMUR,,Indonesia,,,,-9.4365618,119.3845562,https://maps.google.com/?cid=0x0:0xe4492f6b1278120d,
mall,Toko umum,Kios Joice sound,"H9HW+XR6, Loko Ry, Kec. Tana Righu, Kabupaten Sumba Barat, Nusa Tenggara Tim.","Kabupaten Sumba Barat, Nusa Tenggara Tim.",NUSA TENGGARA TIMUR,,Indonesia,,,,-9.4200914,119.3970286,https://maps.google.com/?cid=0x0:0xb17b609d18a4abdf,
mall,mall,Kios Ryan Trayd,"HCM4+WP4, Loko Ry, Kec. Tana Righu, Kabupaten Sumba Barat, Nusa Tenggara Tim.","Kabupaten Sumba Barat, Nusa Tenggara Tim.",NUSA TENGGARA TIMUR,,Indonesia,,,,-9.4152367,119.4068247,https://maps.google.com/?cid=0x0:0x47d4682b7a351502,
mall,mall,Nusa Tenggara Tim.,,Nusa Tenggara Tim.,NUSA TENGGARA TIMUR,,Indonesia,,,,-8.6573819,121.0793705,https://maps.google.com/?cid=0x0:0x1030bfbcaf71ae0,
mall,Pusat Perbelanjaan,Lilo Cell,"C8VM+9JW, Letekamouna, Kec. Wewewa Tim., Kabupaten Sumba Barat Daya, Nusa Tenggara Tim.","Kabupaten Sumba Barat Daya, Nusa Tenggara Tim.",NUSA TENGGARA TIMUR,,Indonesia,85333353332.0,,,-9.5565128,119.3340899,https://maps.google.com/?cid=0x0:0x48a9a9f7139abea4,
mall,mall,Kec. Loli,"Kabupaten Sumba Barat, Nusa Tenggara Tim.","Kabupaten Sumba Barat, Nusa Tenggara Tim.",NUSA TENGGARA TIMUR,,Indonesia,,,,-9.6092635,119.4219471,https://maps.google.com/?cid=0x0:0x6e9aecac16211e73,
mall,Galeri Seni,Art Shop,"9C66+54V, Dede Kadu, Kec. Loli, Kabupaten Sumba Barat, Nusa Tenggara Tim.","Kabupaten Sumba Barat, Nusa Tenggara Tim.",NUSA TENGGARA TIMUR,,Indonesia,,,,-9.6395049,119.4102982,https://maps.google.com/?cid=0x0:0x27177712966d145b,
mall,Pusat Perbelanjaan,Art Shop Antiques  Souvenir,"Jl. Ahmad Yani No.99, Maliti, Kec. Kota Waikabubak, Kabupaten Sumba Barat, Nusa Tenggara Tim. 87212","Maliti, Kec. Kota Waikabubak, Kabupaten Sumba Barat",NUSA TENGGARA TIMUR,87212.0,Indonesia,81339238174.0,,,-9.636675,119.4085858,https://maps.google.com/?cid=0x0:0xcb9802c7d5476fbc,
mall,Pusat Perbelanjaan,Lolipos,"ITC Kuningan Lantai 1, JL Dr. Satrio Setiabudi, RT.11/RW.4, Kuningan, Karet Kuningan, Jakarta Selatan, Kota Jakarta Selatan, Daerah Khusus Ibukota Jakarta 12940","JL Dr. Satrio Setiabudi, RT.11/RW.4, Kuningan, Karet Kuningan, Jakarta Selatan, Kota Jakarta Selatan",NUSA TENGGARA TIMUR,12940.0,Indonesia,2157950968.0,,,-6.224052,106.826051,https://maps.google.com/?cid=0x0:0x573a072e1295916a,
mall,Pusat Perbelanjaan,lolika,"Kemang Village, Cipete Utara, Kec. Kby. Baru, Kota Jakarta Selatan, Daerah Khusus Ibukota Jakarta 12150","Cipete Utara, Kec. Kby. Baru, Kota Jakarta Selatan",NUSA TENGGARA TIMUR,12150.0,Indonesia,859106638516.0,,,-6.2579708,106.8083432,https://maps.google.com/?cid=0x0:0xbcd632f812743d86,
mall,Pusat Perbelanjaan,Mall Senayan City,"Jl. Asia Afrika No.Lot 19, Gelora, Kecamatan Tanah Abang, Kota Jakarta Pusat, Daerah Khusus Ibukota Jakarta 10270","Gelora, Kecamatan Tanah Abang, Kota Jakarta Pusat",NUSA TENGGARA TIMUR,10270.0,Indonesia,2172781000.0,,,-6.2271953,106.7970117,https://maps.google.com/?cid=0x0:0x300c043104acc004,
mall,Toko Aksesori Ponsel,Loly Poly,"Plaza Atrium Senen Lt. 2, JL. Senen Raya Unit 30-31, RW.2, Senen, Kec. Senen, Kota Jakarta Pusat, Daerah Khusus Ibukota Jakarta 10410","JL. Senen Raya Unit 30-31, RW.2, Senen, Kec. Senen, Kota Jakarta Pusat",NUSA TENGGARA TIMUR,10410.0,Indonesia,213523709.0,,,-6.1766783,106.841253,https://maps.google.com/?cid=0x0:0x83ce146f3f496e5c,
mall,Pedagang tekstil,LOLIPOLLY,"PD. PASAR JAYA GEMBRONG LT. DASAR BLOK. ALOO AKS NO. Jend Basuki Rahmat Cipinang Besar Jatinegara, Jl. Jenderal Basuki Rachmat No.80, RT.4/RW.6, Cipinang Besar Sel., JAKARTA, Kota Jakarta Timur, Daerah Khusus Ibukota Jakarta 13410","Jl. Jenderal Basuki Rachmat No.80, RT.4/RW.6, Cipinang Besar Sel., JAKARTA, Kota Jakarta Timur",NUSA TENGGARA TIMUR,13410.0,Indonesia,2121281481.0,,,-6.226492,106.8810456,https://maps.google.com/?cid=0x0:0xc2f9dff1449baef9,
mall,mall,Kec. Wanokaka,"Kabupaten Sumba Barat, Nusa Tenggara Tim.","Kabupaten Sumba Barat, Nusa Tenggara Tim.",NUSA TENGGARA TIMUR,,Indonesia,,,,-9.7227274,119.4528333,https://maps.google.com/?cid=0x0:0xb894aaab28ba27d5,
mall,Tujuan Wisata,Wanukaka,"7FG3+W44, Wai Hura, Kec. Wanokaka, Kabupaten Sumba Barat, Nusa Tenggara Tim.","Kabupaten Sumba Barat, Nusa Tenggara Tim.",NUSA TENGGARA TIMUR,,Indonesia,,,,-9.7227274,119.4528333,https://maps.google.com/?cid=0x0:0x6026b074f6ef63ce,
mall,mall,"Bobocabin Umarato, Sumba","Jl. Rua-Wanokaka No. 7, Pahola, Kec. Wanokaka, Kabupaten Sumba Barat, Nusa Tenggara Tim. 87272","Pahola, Kec. Wanokaka, Kabupaten Sumba Barat",NUSA TENGGARA TIMUR,87272.0,Indonesia,81120022864.0,,,-9.7534168,119.413178,https://maps.google.com/?cid=0x0:0x8429f2c37c7984c5,
mall,Tujuan Wisata,Air Terjun Lapopu,"8FCV+F3Q, Manurara, Kec. Katikutana Sel., Kabupaten Sumba Tengah, Nusa Tenggara Tim.","Kabupaten Sumba Tengah, Nusa Tenggara Tim.",NUSA TENGGARA TIMUR,,Indonesia,82221477093.0,,,-9.6787759,119.4927235,https://maps.google.com/?cid=0x0:0x3e214b0555912b37,
mall,mall,Lelewatu Resort Sumba,"Jl. Lelewatu No.168, Hoba Wawi, Wanokaka, Sumba, East Nusa Tenggara 87272","Hoba Wawi, Wanokaka, Sumba",NUSA TENGGARA TIMUR,87272.0,Indonesia,81139606060.0,,,-9.7911026,119.3807849,https://maps.google.com/?cid=0x0:0xe3cfeaac2ee41407,
mall,mall,Rua Beach Resort Sumba,"Rua, Kec. Wanokaka, Kabupaten Sumba Barat, Nusa Tenggara Tim.","Kabupaten Sumba Barat, Nusa Tenggara Tim.",NUSA TENGGARA TIMUR,,Indonesia,8113865586.0,,,-9.7639457,119.4146995,https://maps.google.com/?cid=0x0:0xcf6117e192385cfe,
mall,Pusat Perbelanjaan,Toko Sumba Oke,"H6CR+GCC, Jln. Mars, Desa Weerena, Weetebula, Kec. Kota Tambolaka, Kab, Kalena Wano, Kec. Kota Tambolaka, Kabupaten Sumba Barat Daya, Nusa Tenggara Tim.","Kabupaten Sumba Barat Daya, Nusa Tenggara Tim.",NUSA TENGGARA TIMUR,,Indonesia,81236779987.0,,,-9.4286994,119.2410085,https://maps.google.com/?cid=0x0:0x87bcae157be47bb,
mall,mall,NIHI Sumba,"Hoba Wawi, Kec. Wanokaka, Kabupaten Sumba Barat, Nusa Tenggara Tim.","Kabupaten Sumba Barat, Nusa Tenggara Tim.",NUSA TENGGARA TIMUR,,Indonesia,361757149.0,,,-9.7776308,119.3762222,https://maps.google.com/?cid=0x0:0x2b81189bedf1a30a,
mall,mall,,,,NUSA TENGGARA TIMUR,,Indonesia,,,,,,https://maps.google.com/?cid=0x0:0x2b81189bedf1a30a%7C/g/11bc7r28bv%7Cid-ID,
mall,Pusat Perbelanjaan,Erom Mart,"Jl. Matawai Amahu No.23, Kambajawa, Kec. Kota Waingapu, Kabupaten Sumba Timur, Nusa Tenggara Tim.","Kabupaten Sumba Timur, Nusa Tenggara Tim.",NUSA TENGGARA TIMUR,,Indonesia,81236263379.0,,,-9.6632686,120.2486841,https://maps.google.com/?cid=0x0:0x451fd68bc249eb49,
mall,Pembangunan Perumahan,Hobawawi,"69CQ+3HM, Hoba Wawi, Kec. Wanokaka, Kabupaten Sumba Barat, Nusa Tenggara Tim.","Kabupaten Sumba Barat, Nusa Tenggara Tim.",NUSA TENGGARA TIMUR,,Indonesia,,,,-9.7797811,119.3889082,https://maps.google.com/?cid=0x0:0xbfc36e696656fccd,
mall,Taman,Maujawa,"Kandora Rt 06,Rw 03,Kandora, Kadumbul, Kec. Pandawai, Nusa Tenggara Tim.","Kabupaten Sumba Timur, Nusa Tenggara Tim.",NUSA TENGGARA TIMUR,,Indonesia,82235733755.0,,,-9.7011628,120.5419462,https://maps.google.com/?cid=0x0:0xfbd08211474fc7ae,
mall,Toko bahan makanan,KIOS AWOLLA WUNGA,"F6PR+355, Karekakaka, Waimangura, Kec. Wewewa Bar., Kabupaten Sumba Barat Daya, Nusa Tenggara Tim.","Kabupaten Sumba Barat Daya, Nusa Tenggara Tim.",NUSA TENGGARA TIMUR,,Indonesia,81339560764.0,,,-9.5148699,119.2404999,https://maps.google.com/?cid=0x0:0xf41d4543bacf8122,
mall,Sekolah menengah,SMP Negeri 1 Wanukaka,"7F73+7RF, Jln. Pasola, Wai Hura, Kec. Wanokaka, Kabupaten Sumba Barat, Nusa Tenggara Tim.","Kabupaten Sumba Barat, Nusa Tenggara Tim.",NUSA TENGGARA TIMUR,,Indonesia,,,,-9.736801,119.4545506,https://maps.google.com/?cid=0x0:0xbe8f64f3e17cb85,
mall,mall,Kios Nakanyuru,"7FG3+R5W, Wai Hura, Kec. Wanokaka, Kabupaten Sumba Barat, Nusa Tenggara Tim.","Kabupaten Sumba Barat, Nusa Tenggara Tim.",NUSA TENGGARA TIMUR,,Indonesia,,,,-9.7228974,119.4529516,https://maps.google.com/?cid=0x0:0x11ea23d0ce9a3dd4,
mall,Toko Mebel,Mandiri Wanokaka,"Tara Manu, Kec. Wanokaka, Kabupaten Sumba Barat, Nusa Tenggara Tim.","Kabupaten Sumba Barat, Nusa Tenggara Tim.",NUSA TENGGARA TIMUR,,Indonesia,81286251993.0,,,-9.7064702,119.4542642,https://maps.google.com/?cid=0x0:0x8c7c0a11d10c1cfe,
mall,mall,Cahaya Fashion Store,"Wailiang, Kec. Kota Waikabubak, Kabupaten Sumba Barat, Nusa Tenggara Tim.","Kabupaten Sumba Barat, Nusa Tenggara Tim.",NUSA TENGGARA TIMUR,,Indonesia,,,,-9.6360552,119.4085702,https://maps.google.com/?cid=0x0:0x65c5220f6d4536f,
mall,Pasar,Pasar Inpres Dan Terminal Kota,"Jl. Pisang No.4, Wailiang, Kec. Kota Waikabubak, Kabupaten Sumba Barat, Nusa Tenggara Tim.","Kabupaten Sumba Barat, Nusa Tenggara Tim.",NUSA TENGGARA TIMUR,,Indonesia,,,,-9.6358162,119.4086708,https://maps.google.com/?cid=0x0:0x437bb78d9deb606a,
mall,Toko bahan makanan,Win Mart 3,"H65J+QQH, Langga Lero, Kec. Loura, Kabupaten Sumba Barat Daya, Nusa Tenggara Tim.","Kabupaten Sumba Barat Daya, Nusa Tenggara Tim.",NUSA TENGGARA TIMUR,,Indonesia,,,,-9.4405716,119.231976,https://maps.google.com/?cid=0x0:0xa0583f807e9f61e6,
mall,Pusat Perbelanjaan,Ringroad wone-Bondosula,"986W+X98, Wee Karou, Weedabo, Kabupaten Sumba Barat, Nusa Tenggara Tim.","Kabupaten Sumba Barat, Nusa Tenggara Tim.",NUSA TENGGARA TIMUR,,Indonesia,,,,-9.6375967,119.3459677,https://maps.google.com/?cid=0x0:0x90e6641759bda27c,
mall,Pemasok Air Minum Dalam Kemasan,DEPO AIR MINUM LangitRO,"Wee Karou, Kec. Loli, Kabupaten Sumba Barat, Nusa Tenggara Tim.","Kabupaten Sumba Barat, Nusa Tenggara Tim.",NUSA TENGGARA TIMUR,,Indonesia,,,,-9.6415602,119.4019675,https://maps.google.com/?cid=0x0:0xf8de244a7b90e64,
mall,Pusat Perbelanjaan,Royal Sumba,"9JW2+3QP, Wai Rasa, Kec. Umbu Ratu Nggay Bar., Kabupaten Sumba Tengah, Nusa Tenggara Tim.","Kabupaten Sumba Tengah, Nusa Tenggara Tim.",NUSA TENGGARA TIMUR,,Indonesia,81357500799.0,,,-9.604782,119.6019552,https://maps.google.com/?cid=0x0:0x141ac0b2aafc7bb0,
mall,Kerajinan,Katonga Humba,"Jl. Ahmad Yani No.166, Dede Kadu, Kec. Kota Waikabubak, Kabupaten Sumba Barat, Nusa Tenggara Tim.","Kabupaten Sumba Barat, Nusa Tenggara Tim.",NUSA TENGGARA TIMUR,,Indonesia,,,,-9.6449902,119.4088263,https://maps.google.com/?cid=0x0:0xb3ca9278b862a928,
mall,Toko Elektronik,Sumba Cell Jadi Makmur,"9C75+R7G, Wailiang, Kec. Kota Waikabubak, Kabupaten Sumba Barat, Nusa Tenggara Tim.","Kabupaten Sumba Barat, Nusa Tenggara Tim.",NUSA TENGGARA TIMUR,,Indonesia,,,,-9.6354314,119.4082177,https://maps.google.com/?cid=0x0:0x2a7a920609baa4d,
mall,Toko Pakaian,NIZHAMI COLLECTION,"Wee Karou, Kec. Loli, Kabupaten Sumba Barat, Nusa Tenggara Tim.","Kabupaten Sumba Barat, Nusa Tenggara Tim.",NUSA TENGGARA TIMUR,,Indonesia,81326106122.0,,,-9.6390203,119.4052172,https://maps.google.com/?cid=0x0:0x9810c809a49d9bec,
mall,Pasar,Terminal pasar lama,"Terminal pasar lama, Wailiang, Kec. Kota Waikabubak, Kabupaten Sumba Barat, Nusa Tenggara Tim.","Kabupaten Sumba Barat, Nusa Tenggara Tim.",NUSA TENGGARA TIMUR,,Indonesia,,,,-9.6378431,119.4071079,https://maps.google.com/?cid=0x0:0x8769e308c38a9ce4,
mall,Toko,Kios putra barokah,"Jl. Pisang No.4, Wailiang, Kec. Kota Waikabubak, Kabupaten Sumba Barat, Nusa Tenggara Tim.","Kabupaten Sumba Barat, Nusa Tenggara Tim.",NUSA TENGGARA TIMUR,,Indonesia,,,,-9.6352815,119.40779,https://maps.google.com/?cid=0x0:0xaab8d34d795a9934,
mall,Kedai Kopi,One Belpark Mall,"Jl. RS. Fatmawati Raya No.1, RT.1/RW.1, Pd. Labu, Kec. Cilandak, Kota Jakarta Selatan, Daerah Khusus Ibukota Jakarta 12450","RT.1/RW.1, Pd. Labu, Kec. Cilandak, Kota Jakarta Selatan",NUSA TENGGARA TIMUR,12450.0,Indonesia,2122706888.0,,,-6.3040848,106.7948774,https://maps.google.com/?cid=0x0:0x50cd4b3afac2371,
mall,Komplek perumahan,Mekar Baru Group,"CH6F+4Q7, Unnamed Road, Anakalang, Kec. Katikutana, Kabupaten Sumba Tengah, Nusa Tenggara Tim.","Kabupaten Sumba Tengah, Nusa Tenggara Tim.",NUSA TENGGARA TIMUR,,Indonesia,82146683051.0,,,-9.589707,119.5744302,https://maps.google.com/?cid=0x0:0xee543e015a335fa4,
mall,mall,Kec. Lamboya,"Kabupaten Sumba Barat, Nusa Tenggara Tim.","Kabupaten Sumba Barat, Nusa Tenggara Tim.",NUSA TENGGARA TIMUR,,Indonesia,,,,-9.7205484,119.35646,https://maps.google.com/?cid=0x0:0x5968d2d2a2f91860,
mall,Pertanian,Lapangan Pasola Lamboya,"785H+8JQ, Patiala Bawa, Kec. Lamboya, Kabupaten Sumba Barat, Nusa Tenggara Tim.","Kabupaten Sumba Barat, Nusa Tenggara Tim.",NUSA TENGGARA TIMUR,,Indonesia,82221477093.0,,,-9.7416675,119.3291079,https://maps.google.com/?cid=0x0:0x7c6b94d21c185102,
mall,Polisi Sipil,Polsek Lamboya,"79H5+J3V, Kabu Karudi, Kec. Lamboya, Kabupaten Sumba Barat, Nusa Tenggara Tim.","Kabupaten Sumba Barat, Nusa Tenggara Tim.",NUSA TENGGARA TIMUR,,Indonesia,,,,-9.7208757,119.3576767,https://maps.google.com/?cid=0x0:0x32bfa94efbb3c036,
mall,Tujuan Wisata,Pantai Watu Bella,"68MF+6WF, Patiala Bawa, Kec. Lamboya, Kabupaten Sumba Barat, Nusa Tenggara Tim.","Kabupaten Sumba Barat, Nusa Tenggara Tim.",NUSA TENGGARA TIMUR,,Indonesia,82221477093.0,,,-9.7669273,119.3248024,https://maps.google.com/?cid=0x0:0xc794440599f3be88,
mall,Tujuan Wisata,Pantai Marosi,"68Q7+4QV, Jln. Marosi, Patiala Bawa, Kec. Lamboya, Kabupaten Sumba Barat, Nusa Tenggara Tim.","Kabupaten Sumba Barat, Nusa Tenggara Tim.",NUSA TENGGARA TIMUR,,Indonesia,82221477093.0,,,-9.7621423,119.3144131,https://maps.google.com/?cid=0x0:0xb6ae3800272803d,
mall,Tujuan Wisata,Pantai Palamoko,"69Q3+75X, Desa Palamoko, Patiala Bawa, Kec. Lamboya, Kabupaten Sumba Barat, Nusa Tenggara Tim.","Kabupaten Sumba Barat, Nusa Tenggara Tim.",NUSA TENGGARA TIMUR,,Indonesia,,,,-9.7617542,119.3529904,https://maps.google.com/?cid=0x0:0x924d3b93a712d7ea,
mall,Komplek perumahan,Bodowunta,"7972+HFV, Laboya Bawa, Kec. Lamboya, Kabupaten Sumba Barat, Nusa Tenggara Tim.","Kabupaten Sumba Barat, Nusa Tenggara Tim.",NUSA TENGGARA TIMUR,,Indonesia,,,,-9.736021,119.3511681,https://maps.google.com/?cid=0x0:0x56bf636cfae5d5e9,
mall,Hotel Resor,Pantai kerewe,"Patiala Bawa, Kec. Lamboya, Kabupaten Sumba Barat, Nusa Tenggara Tim.","Kabupaten Sumba Barat, Nusa Tenggara Tim.",NUSA TENGGARA TIMUR,,Indonesia,82146320569.0,,,-9.7610041,119.3317549,https://maps.google.com/?cid=0x0:0xc7bf17e8b7acefd4,
mall,Sekolah menengah,SMP Negeri 1 Lamboya,"79H4+9R7, Kabu Karudi, Kec. Lamboya, Kabupaten Sumba Barat, Nusa Tenggara Tim.","Kabupaten Sumba Barat, Nusa Tenggara Tim.",NUSA TENGGARA TIMUR,,Indonesia,,,,-9.7215794,119.3570466,https://maps.google.com/?cid=0x0:0xa39a2b41262a2ba7,
mall,Sekolah Menengah Pertama,SMK NEGERI 2 LAMBOYA,"Ringu Rara, Kec. Lamboya, Kabupaten Sumba Barat, Nusa Tenggara Tim.","Kabupaten Sumba Barat, Nusa Tenggara Tim.",NUSA TENGGARA TIMUR,,Indonesia,81355540541.0,,,-9.7466586,119.3948442,https://maps.google.com/?cid=0x0:0x622c8fdac5e239fb,
mall,Pusat Perbelanjaan,Ringroad wone-Bondosula,"986W+X98, Wee Karou, Weedabo, Kabupaten Sumba Barat, Nusa Tenggara Tim.","Kabupaten Sumba Barat, Nusa Tenggara Tim.",NUSA TENGGARA TIMUR,,Indonesia,,,,-9.6375967,119.3459677,https://maps.google.com/?cid=0x0:0x90e6641759bda27c,
mall,Pemasok Air Minum Dalam Kemasan,DEPO AIR MINUM LangitRO,"Wee Karou, Kec. Loli, Kabupaten Sumba Barat, Nusa Tenggara Tim.","Kabupaten Sumba Barat, Nusa Tenggara Tim.",NUSA TENGGARA TIMUR,,Indonesia,,,,-9.6415602,119.4019675,https://maps.google.com/?cid=0x0:0xf8de244a7b90e64,
mall,Kantor Pemerintah,Mall Pelayanan,"9C97+62Q, Jl. Jend. Sudirman, Komerda, Kec. Kota Waikabubak, Kabupaten Sumba Barat, Nusa Tenggara Tim.","Kabupaten Sumba Barat, Nusa Tenggara Tim.",NUSA TENGGARA TIMUR,,Indonesia,,,,-9.631913,119.4126171,https://maps.google.com/?cid=0x0:0xb4578efb2dd2cab6,
mall,mall,Cahaya Fashion Store,"Wailiang, Kec. Kota Waikabubak, Kabupaten Sumba Barat, Nusa Tenggara Tim.","Kabupaten Sumba Barat, Nusa Tenggara Tim.",NUSA TENGGARA TIMUR,,Indonesia,,,,-9.6360552,119.4085702,https://maps.google.com/?cid=0x0:0x65c5220f6d4536f,
mall,Toko Pakaian,NIZHAMI COLLECTION,"Wee Karou, Kec. Loli, Kabupaten Sumba Barat, Nusa Tenggara Tim.","Kabupaten Sumba Barat, Nusa Tenggara Tim.",NUSA TENGGARA TIMUR,,Indonesia,81326106122.0,,,-9.6390203,119.4052172,https://maps.google.com/?cid=0x0:0x9810c809a49d9bec,
mall,Toko Elektronik,Sumba Cell Jadi Makmur,"9C75+R7G, Wailiang, Kec. Kota Waikabubak, Kabupaten Sumba Barat, Nusa Tenggara Tim.","Kabupaten Sumba Barat, Nusa Tenggara Tim.",NUSA TENGGARA TIMUR,,Indonesia,,,,-9.6354314,119.4082177,https://maps.google.com/?cid=0x0:0x2a7a920609baa4d,
mall,Pasar,Pasar Inpres Dan Terminal Kota,"Jl. Pisang No.4, Wailiang, Kec. Kota Waikabubak, Kabupaten Sumba Barat, Nusa Tenggara Tim.","Kabupaten Sumba Barat, Nusa Tenggara Tim.",NUSA TENGGARA TIMUR,,Indonesia,,,,-9.6358162,119.4086708,https://maps.google.com/?cid=0x0:0x437bb78d9deb606a,
mall,Pasar,Terminal pasar lama,"Terminal pasar lama, Wailiang, Kec. Kota Waikabubak, Kabupaten Sumba Barat, Nusa Tenggara Tim.","Kabupaten Sumba Barat, Nusa Tenggara Tim.",NUSA TENGGARA TIMUR,,Indonesia,,,,-9.6378431,119.4071079,https://maps.google.com/?cid=0x0:0x8769e308c38a9ce4,
mall,Galeri Seni,Art Shop,"9C66+54V, Dede Kadu, Kec. Loli, Kabupaten Sumba Barat, Nusa Tenggara Tim.","Kabupaten Sumba Barat, Nusa Tenggara Tim.",NUSA TENGGARA TIMUR,,Indonesia,,,,-9.6395049,119.4102982,https://maps.google.com/?cid=0x0:0x27177712966d145b,
mall,Toko,Kios putra barokah,"Jl. Pisang No.4, Wailiang, Kec. Kota Waikabubak, Kabupaten Sumba Barat, Nusa Tenggara Tim.","Kabupaten Sumba Barat, Nusa Tenggara Tim.",NUSA TENGGARA TIMUR,,Indonesia,,,,-9.6352815,119.40779,https://maps.google.com/?cid=0x0:0xaab8d34d795a9934,
mall,Bengkel Sepeda Motor,Toko Sumber Mas Motor,"9CC4+QFQ, Jl. Bhayangkara, Komerda, Kec. Kota Waikabubak, Kabupaten Sumba Barat, Nusa Tenggara Tim.","Kabupaten Sumba Barat, Nusa Tenggara Tim.",NUSA TENGGARA TIMUR,,Indonesia,,,,-9.6280452,119.4062342,https://maps.google.com/?cid=0x0:0xb253222bbb3b1dbc,
mall,Kerajinan,Katonga Humba,"Jl. Ahmad Yani No.166, Dede Kadu, Kec. Kota Waikabubak, Kabupaten Sumba Barat, Nusa Tenggara Tim.","Kabupaten Sumba Barat, Nusa Tenggara Tim.",NUSA TENGGARA TIMUR,,Indonesia,,,,-9.6449902,119.4088263,https://maps.google.com/?cid=0x0:0xb3ca9278b862a928,
mall,mall,Kec. Kota Waikabubak,"Kabupaten Sumba Barat, Nusa Tenggara Tim.","Kabupaten Sumba Barat, Nusa Tenggara Tim.",NUSA TENGGARA TIMUR,,Indonesia,,,,-9.6318508,119.4116981,https://maps.google.com/?cid=0x0:0xc0a3b8deb8dcb273,
mall,Kantor Pemerintah,Mall Pelayanan,"9C97+62Q, Jl. Jend. Sudirman, Komerda, Kec. Kota Waikabubak, Kabupaten Sumba Barat, Nusa Tenggara Tim.","Kabupaten Sumba Barat, Nusa Tenggara Tim.",NUSA TENGGARA TIMUR,,Indonesia,,,,-9.631913,119.4126171,https://maps.google.com/?cid=0x0:0xb4578efb2dd2cab6,
mall,Pasar,Pasar Inpres Dan Terminal Kota,"Jl. Pisang No.4, Wailiang, Kec. Kota Waikabubak, Kabupaten Sumba Barat, Nusa Tenggara Tim.","Kabupaten Sumba Barat, Nusa Tenggara Tim.",NUSA TENGGARA TIMUR,,Indonesia,,,,-9.6358162,119.4086708,https://maps.google.com/?cid=0x0:0x437bb78d9deb606a,
mall,Toko Elektronik,Sumba Cell Jadi Makmur,"9C75+R7G, Wailiang, Kec. Kota Waikabubak, Kabupaten Sumba Barat, Nusa Tenggara Tim.","Kabupaten Sumba Barat, Nusa Tenggara Tim.",NUSA TENGGARA TIMUR,,Indonesia,,,,-9.6354314,119.4082177,https://maps.google.com/?cid=0x0:0x2a7a920609baa4d,
mall,Toko,Toko Sinar Rejeki,"9CC5+75J, Jl. Bhayangkara, Komerda, Kec. Kota Waikabubak, Kabupaten Sumba Barat, Nusa Tenggara Tim.","Kabupaten Sumba Barat, Nusa Tenggara Tim.",NUSA TENGGARA TIMUR,,Indonesia,,,,-9.6292861,119.4078761,https://maps.google.com/?cid=0x0:0xc0277287f1a58206,
mall,Toko,Kios putra barokah,"Jl. Pisang No.4, Wailiang, Kec. Kota Waikabubak, Kabupaten Sumba Barat, Nusa Tenggara Tim.","Kabupaten Sumba Barat, Nusa Tenggara Tim.",NUSA TENGGARA TIMUR,,Indonesia,,,,-9.6352815,119.40779,https://maps.google.com/?cid=0x0:0xaab8d34d795a9934,
mall,Kerajinan,Katonga Humba,"Jl. Ahmad Yani No.166, Dede Kadu, Kec. Kota Waikabubak, Kabupaten Sumba Barat, Nusa Tenggara Tim.","Kabupaten Sumba Barat, Nusa Tenggara Tim.",NUSA TENGGARA TIMUR,,Indonesia,,,,-9.6449902,119.4088263,https://maps.google.com/?cid=0x0:0xb3ca9278b862a928,
mall,Pasar,Terminal pasar lama,"Terminal pasar lama, Wailiang, Kec. Kota Waikabubak, Kabupaten Sumba Barat, Nusa Tenggara Tim.","Kabupaten Sumba Barat, Nusa Tenggara Tim.",NUSA TENGGARA TIMUR,,Indonesia,,,,-9.6378431,119.4071079,https://maps.google.com/?cid=0x0:0x8769e308c38a9ce4,
mall,mall,TOKO BINTORO INDAH,"9C75+WG2, Jl. Ahmad Yani, Wailiang, Kec. Kota Waikabubak, Kabupaten Sumba Barat, Nusa Tenggara Tim.","Kabupaten Sumba Barat, Nusa Tenggara Tim.",NUSA TENGGARA TIMUR,,Indonesia,,,,-9.6352455,119.4087696,https://maps.google.com/?cid=0x0:0xbe42ff32c2cc5f6f,
mall,Kantor Perusahaan,Kantor Telkom,"9C65+XMQ, Kp. Sawah, Kec. Kota Waikabubak, Kabupaten Sumba Barat, Nusa Tenggara Tim.","Kabupaten Sumba Barat, Nusa Tenggara Tim.",NUSA TENGGARA TIMUR,,Indonesia,,,,-9.6375299,119.4092228,https://maps.google.com/?cid=0x0:0x68aaf0f3c6faea0d,
mall,Bengkel Sepeda Motor,Toko Sumber Mas Motor,"9CC4+QFQ, Jl. Bhayangkara, Komerda, Kec. Kota Waikabubak, Kabupaten Sumba Barat, Nusa Tenggara Tim.","Kabupaten Sumba Barat, Nusa Tenggara Tim.",NUSA TENGGARA TIMUR,,Indonesia,,,,-9.6280452,119.4062342,https://maps.google.com/?cid=0x0:0xb253222bbb3b1dbc,
mall,Jasa Kurir,JNE Waikabubak,"9C75+3GJ, Maliti, Kec. Kota Waikabubak, Kabupaten Sumba Barat, Nusa Tenggara Tim.","Kabupaten Sumba Barat, Nusa Tenggara Tim.",NUSA TENGGARA TIMUR,,Indonesia,85230049252.0,,,-9.6372856,119.4087771,https://maps.google.com/?cid=0x0:0x42299f785a4d5ed3,
mall,Galeri Seni,Art Shop,"9C66+54V, Dede Kadu, Kec. Loli, Kabupaten Sumba Barat, Nusa Tenggara Tim.","Kabupaten Sumba Barat, Nusa Tenggara Tim.",NUSA TENGGARA TIMUR,,Indonesia,,,,-9.6395049,119.4102982,https://maps.google.com/?cid=0x0:0x27177712966d145b,
mall,Kantor Pos,Kantorpos Waikabubak,"Jl. Bhayangkara No.1, Komerda, Kec. Kota Waikabubak, Kabupaten Sumba Barat, Nusa Tenggara Tim. 87200","Komerda, Kec. Kota Waikabubak, Kabupaten Sumba Barat",NUSA TENGGARA TIMUR,87200.0,Indonesia,,,,-9.6319636,119.4113336,https://maps.google.com/?cid=0x0:0x63934e752c022a1c,
mall,Gedung Pengadilan Negeri,Kejaksaan Negeri Sumba Barat,"Jl. Adhyaksa No.20, Maliti, Kec. Kota Waikabubak, Kabupaten Sumba Barat, Nusa Tenggara Tim.","Kabupaten Sumba Barat, Nusa Tenggara Tim.",NUSA TENGGARA TIMUR,,Indonesia,81337333726.0,,,-9.622895,119.3958562,https://maps.google.com/?cid=0x0:0xe0f2d15c51defd51,
mall,Penyedia Layanan Telekomunikasi,PT TELKOM WAIKABUBAK,"9C65+XQX, Maliti, Kec. Kota Waikabubak, Kabupaten Sumba Barat, Nusa Tenggara Tim.","Kabupaten Sumba Barat, Nusa Tenggara Tim.",NUSA TENGGARA TIMUR,,Indonesia,,,,-9.6375078,119.4094844,https://maps.google.com/?cid=0x0:0xa9d7ee698b3772e8,
mall,Toko Swalayan,Toko Queen Rose,"9C86+26H, Jl. Pemuda, Maliti, Kec. Kota Waikabubak, Kabupaten Sumba Barat, Nusa Tenggara Tim.","Kabupaten Sumba Barat, Nusa Tenggara Tim.",NUSA TENGGARA TIMUR,,Indonesia,,,,-9.6349378,119.4106063,https://maps.google.com/?cid=0x0:0x10ed8d5dd94aebda,
mall,Toko Pakaian,NIZHAMI COLLECTION,"Wee Karou, Kec. Loli, Kabupaten Sumba Barat, Nusa Tenggara Tim.","Kabupaten Sumba Barat, Nusa Tenggara Tim.",NUSA TENGGARA TIMUR,,Indonesia,81326106122.0,,,-9.6390203,119.4052172,https://maps.google.com/?cid=0x0:0x9810c809a49d9bec,
mall,Pemasok Air Minum Dalam Kemasan,DEPO AIR MINUM LangitRO,"Wee Karou, Kec. Loli, Kabupaten Sumba Barat, Nusa Tenggara Tim.","Kabupaten Sumba Barat, Nusa Tenggara Tim.",NUSA TENGGARA TIMUR,,Indonesia,,,,-9.6415602,119.4019675,https://maps.google.com/?cid=0x0:0xf8de244a7b90e64,
mall,Pasar,Pasar Baru Waikabubak,"994Q+FG4, Wee Karou, Kec. Loli, Kabupaten Sumba Barat, Nusa Tenggara Tim.","Kabupaten Sumba Barat, Nusa Tenggara Tim.",NUSA TENGGARA TIMUR,,Indonesia,,,,-9.6438664,119.3888321,https://maps.google.com/?cid=0x0:0x8fdddfd1abee0ac7,
mall,Komplek perumahan,Jln pisang wailiang Waikabubak,"9C73+CRQ, Jl. Pisang, Wailiang, Kec. Kota Waikabubak, Kabupaten Sumba Barat, Nusa Tenggara Tim.","Kabupaten Sumba Barat, Nusa Tenggara Tim.",NUSA TENGGARA TIMUR,,Indonesia,,,,-9.6364099,119.4045977,https://maps.google.com/?cid=0x0:0xd01246b50b4c398d,
mall,Toko Elektronik,Socco Cell,"9C75+G48, Wailiang, Kec. Kota Waikabubak, Kabupaten Sumba Barat, Nusa Tenggara Tim.","Kabupaten Sumba Barat, Nusa Tenggara Tim.",NUSA TENGGARA TIMUR,,Indonesia,,,,-9.6362096,119.4078154,https://maps.google.com/?cid=0x0:0x34e70c6325fa0cfc,
mall,mall,Kec. Kota Waikabubak,"Kabupaten Sumba Barat, Nusa Tenggara Tim.","Kabupaten Sumba Barat, Nusa Tenggara Tim.",NUSA TENGGARA TIMUR,,Indonesia,,,,-9.6318508,119.4116981,https://maps.google.com/?cid=0x0:0xc0a3b8deb8dcb273,
mall,Kantor Pemerintah,Mall Pelayanan,"9C97+62Q, Jl. Jend. Sudirman, Komerda, Kec. Kota Waikabubak, Kabupaten Sumba Barat, Nusa Tenggara Tim.","Kabupaten Sumba Barat, Nusa Tenggara Tim.",NUSA TENGGARA TIMUR,,Indonesia,,,,-9.631913,119.4126171,https://maps.google.com/?cid=0x0:0xb4578efb2dd2cab6,
mall,Pasar,Pasar Inpres Dan Terminal Kota,"Jl. Pisang No.4, Wailiang, Kec. Kota Waikabubak, Kabupaten Sumba Barat, Nusa Tenggara Tim.","Kabupaten Sumba Barat, Nusa Tenggara Tim.",NUSA TENGGARA TIMUR,,Indonesia,,,,-9.6358162,119.4086708,https://maps.google.com/?cid=0x0:0x437bb78d9deb606a,
mall,Toko Elektronik,Sumba Cell Jadi Makmur,"9C75+R7G, Wailiang, Kec. Kota Waikabubak, Kabupaten Sumba Barat, Nusa Tenggara Tim.","Kabupaten Sumba Barat, Nusa Tenggara Tim.",NUSA TENGGARA TIMUR,,Indonesia,,,,-9.6354314,119.4082177,https://maps.google.com/?cid=0x0:0x2a7a920609baa4d,
mall,Toko,Toko Sinar Rejeki,"9CC5+75J, Jl. Bhayangkara, Komerda, Kec. Kota Waikabubak, Kabupaten Sumba Barat, Nusa Tenggara Tim.","Kabupaten Sumba Barat, Nusa Tenggara Tim.",NUSA TENGGARA TIMUR,,Indonesia,,,,-9.6292861,119.4078761,https://maps.google.com/?cid=0x0:0xc0277287f1a58206,
mall,Toko,Kios putra barokah,"Jl. Pisang No.4, Wailiang, Kec. Kota Waikabubak, Kabupaten Sumba Barat, Nusa Tenggara Tim.","Kabupaten Sumba Barat, Nusa Tenggara Tim.",NUSA TENGGARA TIMUR,,Indonesia,,,,-9.6352815,119.40779,https://maps.google.com/?cid=0x0:0xaab8d34d795a9934,
mall,Kerajinan,Katonga Humba,"Jl. Ahmad Yani No.166, Dede Kadu, Kec. Kota Waikabubak, Kabupaten Sumba Barat, Nusa Tenggara Tim.","Kabupaten Sumba Barat, Nusa Tenggara Tim.",NUSA TENGGARA TIMUR,,Indonesia,,,,-9.6449902,119.4088263,https://maps.google.com/?cid=0x0:0xb3ca9278b862a928,
mall,Pasar,Terminal pasar lama,"Terminal pasar lama, Wailiang, Kec. Kota Waikabubak, Kabupaten Sumba Barat, Nusa Tenggara Tim.","Kabupaten Sumba Barat, Nusa Tenggara Tim.",NUSA TENGGARA TIMUR,,Indonesia,,,,-9.6378431,119.4071079,https://maps.google.com/?cid=0x0:0x8769e308c38a9ce4,
mall,mall,TOKO BINTORO INDAH,"9C75+WG2, Jl. Ahmad Yani, Wailiang, Kec. Kota Waikabubak, Kabupaten Sumba Barat, Nusa Tenggara Tim.","Kabupaten Sumba Barat, Nusa Tenggara Tim.",NUSA TENGGARA TIMUR,,Indonesia,,,,-9.6352455,119.4087696,https://maps.google.com/?cid=0x0:0xbe42ff32c2cc5f6f,
mall,Bengkel Sepeda Motor,Toko Sumber Mas Motor,"9CC4+QFQ, Jl. Bhayangkara, Komerda, Kec. Kota Waikabubak, Kabupaten Sumba Barat, Nusa Tenggara Tim.","Kabupaten Sumba Barat, Nusa Tenggara Tim.",NUSA TENGGARA TIMUR,,Indonesia,,,,-9.6280452,119.4062342,https://maps.google.com/?cid=0x0:0xb253222bbb3b1dbc,
mall,Galeri Seni,Art Shop,"9C66+54V, Dede Kadu, Kec. Loli, Kabupaten Sumba Barat, Nusa Tenggara Tim.","Kabupaten Sumba Barat, Nusa Tenggara Tim.",NUSA TENGGARA TIMUR,,Indonesia,,,,-9.6395049,119.4102982,https://maps.google.com/?cid=0x0:0x27177712966d145b,
mall,Kantor Pos,Kantorpos Waikabubak,"Jl. Bhayangkara No.1, Komerda, Kec. Kota Waikabubak, Kabupaten Sumba Barat, Nusa Tenggara Tim. 87200","Komerda, Kec. Kota Waikabubak, Kabupaten Sumba Barat",NUSA TENGGARA TIMUR,87200.0,Indonesia,,,,-9.6319636,119.4113336,https://maps.google.com/?cid=0x0:0x63934e752c022a1c,
mall,Gedung Pengadilan Negeri,Kejaksaan Negeri Sumba Barat,"Jl. Adhyaksa No.20, Maliti, Kec. Kota Waikabubak, Kabupaten Sumba Barat, Nusa Tenggara Tim.","Kabupaten Sumba Barat, Nusa Tenggara Tim.",NUSA TENGGARA TIMUR,,Indonesia,81337333726.0,,,-9.622895,119.3958562,https://maps.google.com/?cid=0x0:0xe0f2d15c51defd51,
mall,Toko Pakaian,NIZHAMI COLLECTION,"Wee Karou, Kec. Loli, Kabupaten Sumba Barat, Nusa Tenggara Tim.","Kabupaten Sumba Barat, Nusa Tenggara Tim.",NUSA TENGGARA TIMUR,,Indonesia,81326106122.0,,,-9.6390203,119.4052172,https://maps.google.com/?cid=0x0:0x9810c809a49d9bec,
mall,Toko Swalayan,Toko Queen Rose,"9C86+26H, Jl. Pemuda, Maliti, Kec. Kota Waikabubak, Kabupaten Sumba Barat, Nusa Tenggara Tim.","Kabupaten Sumba Barat, Nusa Tenggara Tim.",NUSA TENGGARA TIMUR,,Indonesia,,,,-9.6349378,119.4106063,https://maps.google.com/?cid=0x0:0x10ed8d5dd94aebda,
mall,Pemasok Air Minum Dalam Kemasan,DEPO AIR MINUM LangitRO,"Wee Karou, Kec. Loli, Kabupaten Sumba Barat, Nusa Tenggara Tim.","Kabupaten Sumba Barat, Nusa Tenggara Tim.",NUSA TENGGARA TIMUR,,Indonesia,,,,-9.6415602,119.4019675,https://maps.google.com/?cid=0x0:0xf8de244a7b90e64,
mall,Komplek perumahan,Jln pisang wailiang Waikabubak,"9C73+CRQ, Jl. Pisang, Wailiang, Kec. Kota Waikabubak, Kabupaten Sumba Barat, Nusa Tenggara Tim.","Kabupaten Sumba Barat, Nusa Tenggara Tim.",NUSA TENGGARA TIMUR,,Indonesia,,,,-9.6364099,119.4045977,https://maps.google.com/?cid=0x0:0xd01246b50b4c398d,
mall,Toko Pakaian,Tya Collection Waikabubak,"Jl. Adisucipto, Maliti, Kec. Kota Waikabubak, Kabupaten Sumba Barat, Nusa Tenggara Tim. 87217","Maliti, Kec. Kota Waikabubak, Kabupaten Sumba Barat",NUSA TENGGARA TIMUR,87217.0,Indonesia,82341371892.0,,,-9.6398865,119.4099435,https://maps.google.com/?cid=0x0:0x4b63839904c0e527,
mall,Toko Elektronik,Socco Cell,"9C75+G48, Wailiang, Kec. Kota Waikabubak, Kabupaten Sumba Barat, Nusa Tenggara Tim.","Kabupaten Sumba Barat, Nusa Tenggara Tim.",NUSA TENGGARA TIMUR,,Indonesia,,,,-9.6362096,119.4078154,https://maps.google.com/?cid=0x0:0x34e70c6325fa0cfc,
mall,Pasar,Pasar Baru Waikabubak,"994Q+FG4, Wee Karou, Kec. Loli, Kabupaten Sumba Barat, Nusa Tenggara Tim.","Kabupaten Sumba Barat, Nusa Tenggara Tim.",NUSA TENGGARA TIMUR,,Indonesia,,,,-9.6438664,119.3888321,https://maps.google.com/?cid=0x0:0x8fdddfd1abee0ac7,
mall,Jasa Kurir,JNE Waikabubak,"9C75+3GJ, Maliti, Kec. Kota Waikabubak, Kabupaten Sumba Barat, Nusa Tenggara Tim.","Kabupaten Sumba Barat, Nusa Tenggara Tim.",NUSA TENGGARA TIMUR,,Indonesia,85230049252.0,,,-9.6372856,119.4087771,https://maps.google.com/?cid=0x0:0x42299f785a4d5ed3,
mall,Kantor Pemerintah,Mall Pelayanan,"9C97+62Q, Jl. Jend. Sudirman, Komerda, Kec. Kota Waikabubak, Kabupaten Sumba Barat, Nusa Tenggara Tim.","Kabupaten Sumba Barat, Nusa Tenggara Tim.",NUSA TENGGARA TIMUR,,Indonesia,,,,-9.631913,119.4126171,https://maps.google.com/?cid=0x0:0xb4578efb2dd2cab6,
mall,Kantor Pelayanan Pajak,Kantor Pelayanan Penyuluhan dan Konsultasi Perpajakan,"9CF3+FH7, Jl. Bhayangkara, Pada Eweta, Kec. Kota Waikabubak, Kabupaten Sumba Barat, Nusa Tenggara Tim.","Kabupaten Sumba Barat, Nusa Tenggara Tim.",NUSA TENGGARA TIMUR,,Indonesia,,,,-9.6263473,119.403922,https://maps.google.com/?cid=0x0:0x4622a661d129d526,
mall,mall,Kec. Kota Waikabubak,"Kabupaten Sumba Barat, Nusa Tenggara Tim.","Kabupaten Sumba Barat, Nusa Tenggara Tim.",NUSA TENGGARA TIMUR,,Indonesia,,,,-9.6318508,119.4116981,https://maps.google.com/?cid=0x0:0xc0a3b8deb8dcb273,
mall,mall,Cahaya Fashion Store,"Wailiang, Kec. Kota Waikabubak, Kabupaten Sumba Barat, Nusa Tenggara Tim.","Kabupaten Sumba Barat, Nusa Tenggara Tim.",NUSA TENGGARA TIMUR,,Indonesia,,,,-9.6360552,119.4085702,https://maps.google.com/?cid=0x0:0x65c5220f6d4536f,
mall,Toko Elektronik,Sumba Cell Jadi Makmur,"9C75+R7G, Wailiang, Kec. Kota Waikabubak, Kabupaten Sumba Barat, Nusa Tenggara Tim.","Kabupaten Sumba Barat, Nusa Tenggara Tim.",NUSA TENGGARA TIMUR,,Indonesia,,,,-9.6354314,119.4082177,https://maps.google.com/?cid=0x0:0x2a7a920609baa4d,
mall,Toko,Toko Sinar Rejeki,"9CC5+75J, Jl. Bhayangkara, Komerda, Kec. Kota Waikabubak, Kabupaten Sumba Barat, Nusa Tenggara Tim.","Kabupaten Sumba Barat, Nusa Tenggara Tim.",NUSA TENGGARA TIMUR,,Indonesia,,,,-9.6292861,119.4078761,https://maps.google.com/?cid=0x0:0xc0277287f1a58206,
mall,Toko,Kios putra barokah,"Jl. Pisang No.4, Wailiang, Kec. Kota Waikabubak, Kabupaten Sumba Barat, Nusa Tenggara Tim.","Kabupaten Sumba Barat, Nusa Tenggara Tim.",NUSA TENGGARA TIMUR,,Indonesia,,,,-9.6352815,119.40779,https://maps.google.com/?cid=0x0:0xaab8d34d795a9934,
mall,Kerajinan,Katonga Humba,"Jl. Ahmad Yani No.166, Dede Kadu, Kec. Kota Waikabubak, Kabupaten Sumba Barat, Nusa Tenggara Tim.","Kabupaten Sumba Barat, Nusa Tenggara Tim.",NUSA TENGGARA TIMUR,,Indonesia,,,,-9.6449902,119.4088263,https://maps.google.com/?cid=0x0:0xb3ca9278b862a928,
mall,Pasar,Terminal pasar lama,"Terminal pasar lama, Wailiang, Kec. Kota Waikabubak, Kabupaten Sumba Barat, Nusa Tenggara Tim.","Kabupaten Sumba Barat, Nusa Tenggara Tim.",NUSA TENGGARA TIMUR,,Indonesia,,,,-9.6378431,119.4071079,https://maps.google.com/?cid=0x0:0x8769e308c38a9ce4,
mall,mall,TOKO BINTORO INDAH,"9C75+WG2, Jl. Ahmad Yani, Wailiang, Kec. Kota Waikabubak, Kabupaten Sumba Barat, Nusa Tenggara Tim.","Kabupaten Sumba Barat, Nusa Tenggara Tim.",NUSA TENGGARA TIMUR,,Indonesia,,,,-9.6352455,119.4087696,https://maps.google.com/?cid=0x0:0xbe42ff32c2cc5f6f,
mall,Pasar,Pasar Baru Waikabubak,"994Q+FG4, Wee Karou, Kec. Loli, Kabupaten Sumba Barat, Nusa Tenggara Tim.","Kabupaten Sumba Barat, Nusa Tenggara Tim.",NUSA TENGGARA TIMUR,,Indonesia,,,,-9.6438664,119.3888321,https://maps.google.com/?cid=0x0:0x8fdddfd1abee0ac7,
mall,Bengkel Sepeda Motor,Toko Sumber Mas Motor,"9CC4+QFQ, Jl. Bhayangkara, Komerda, Kec. Kota Waikabubak, Kabupaten Sumba Barat, Nusa Tenggara Tim.","Kabupaten Sumba Barat, Nusa Tenggara Tim.",NUSA TENGGARA TIMUR,,Indonesia,,,,-9.6280452,119.4062342,https://maps.google.com/?cid=0x0:0xb253222bbb3b1dbc,
mall,Galeri Seni,Art Shop,"9C66+54V, Dede Kadu, Kec. Loli, Kabupaten Sumba Barat, Nusa Tenggara Tim.","Kabupaten Sumba Barat, Nusa Tenggara Tim.",NUSA TENGGARA TIMUR,,Indonesia,,,,-9.6395049,119.4102982,https://maps.google.com/?cid=0x0:0x27177712966d145b,
mall,Kantor Pos,Kantorpos Waikabubak,"Jl. Bhayangkara No.1, Komerda, Kec. Kota Waikabubak, Kabupaten Sumba Barat, Nusa Tenggara Tim. 87200","Komerda, Kec. Kota Waikabubak, Kabupaten Sumba Barat",NUSA TENGGARA TIMUR,87200.0,Indonesia,,,,-9.6319636,119.4113336,https://maps.google.com/?cid=0x0:0x63934e752c022a1c,
mall,Gedung Pengadilan Negeri,Kejaksaan Negeri Sumba Barat,"Jl. Adhyaksa No.20, Maliti, Kec. Kota Waikabubak, Kabupaten Sumba Barat, Nusa Tenggara Tim.","Kabupaten Sumba Barat, Nusa Tenggara Tim.",NUSA TENGGARA TIMUR,,Indonesia,81337333726.0,,,-9.622895,119.3958562,https://maps.google.com/?cid=0x0:0xe0f2d15c51defd51,
mall,Pemasok Air Minum Dalam Kemasan,DEPO AIR MINUM LangitRO,"Wee Karou, Kec. Loli, Kabupaten Sumba Barat, Nusa Tenggara Tim.","Kabupaten Sumba Barat, Nusa Tenggara Tim.",NUSA TENGGARA TIMUR,,Indonesia,,,,-9.6415602,119.4019675,https://maps.google.com/?cid=0x0:0xf8de244a7b90e64,
mall,Toko Pakaian,NIZHAMI COLLECTION,"Wee Karou, Kec. Loli, Kabupaten Sumba Barat, Nusa Tenggara Tim.","Kabupaten Sumba Barat, Nusa Tenggara Tim.",NUSA TENGGARA TIMUR,,Indonesia,81326106122.0,,,-9.6390203,119.4052172,https://maps.google.com/?cid=0x0:0x9810c809a49d9bec,
mall,Komplek perumahan,Jln pisang wailiang Waikabubak,"9C73+CRQ, Jl. Pisang, Wailiang, Kec. Kota Waikabubak, Kabupaten Sumba Barat, Nusa Tenggara Tim.","Kabupaten Sumba Barat, Nusa Tenggara Tim.",NUSA TENGGARA TIMUR,,Indonesia,,,,-9.6364099,119.4045977,https://maps.google.com/?cid=0x0:0xd01246b50b4c398d,
mall,Toko Swalayan,Toko Queen Rose,"9C86+26H, Jl. Pemuda, Maliti, Kec. Kota Waikabubak, Kabupaten Sumba Barat, Nusa Tenggara Tim.","Kabupaten Sumba Barat, Nusa Tenggara Tim.",NUSA TENGGARA TIMUR,,Indonesia,,,,-9.6349378,119.4106063,https://maps.google.com/?cid=0x0:0x10ed8d5dd94aebda,
mall,Toko Elektronik,Socco Cell,"9C75+G48, Wailiang, Kec. Kota Waikabubak, Kabupaten Sumba Barat, Nusa Tenggara Tim.","Kabupaten Sumba Barat, Nusa Tenggara Tim.",NUSA TENGGARA TIMUR,,Indonesia,,,,-9.6362096,119.4078154,https://maps.google.com/?cid=0x0:0x34e70c6325fa0cfc,
mall,Pusat Perbelanjaan,Pasar Inpres Lama,"9C75+W38, Wailiang, Kec. Kota Waikabubak, Kabupaten Sumba Barat, Nusa Tenggara Tim.","Kabupaten Sumba Barat, Nusa Tenggara Tim.",NUSA TENGGARA TIMUR,,Indonesia,81337897176.0,,,-9.6352221,119.4077139,https://maps.google.com/?cid=0x0:0x38ecfcd1492ea179,
mall,Kantor Pemerintahan Daerah,Kantor Kecamatan Kota Waikabubak,"9C6C+Q4M, Kp. Sawah, Kec. Kota Waikabubak, Kabupaten Sumba Barat, Nusa Tenggara Tim.","Kabupaten Sumba Barat, Nusa Tenggara Tim.",NUSA TENGGARA TIMUR,,Indonesia,81283885029.0,,,-9.6380375,119.4202969,https://maps.google.com/?cid=0x0:0x1b5f9e4718f01179,
mall,Toko Pakaian,Toko Victory,"9C86+56G, Komerda, Kec. Kota Waikabubak, Kabupaten Sumba Barat, Nusa Tenggara Tim.","Kabupaten Sumba Barat, Nusa Tenggara Tim.",NUSA TENGGARA TIMUR,,Indonesia,,,,-9.6345661,119.4105851,https://maps.google.com/?cid=0x0:0xda73c2841c7bb77b,
mall,Toko Pakaian,Toko Ramona,"9C75+4QJ, Maliti, Kec. Kota Waikabubak, Kabupaten Sumba Barat, Nusa Tenggara Tim.","Kabupaten Sumba Barat, Nusa Tenggara Tim.",NUSA TENGGARA TIMUR,,Indonesia,,,,-9.6371736,119.4093808,https://maps.google.com/?cid=0x0:0xbd25b5f3acf078c6,
mall,Kantor Pemerintah,Mall Pelayanan,"9C97+62Q, Jl. Jend. Sudirman, Komerda, Kec. Kota Waikabubak, Kabupaten Sumba Barat, Nusa Tenggara Tim.","Kabupaten Sumba Barat, Nusa Tenggara Tim.",NUSA TENGGARA TIMUR,,Indonesia,,,,-9.631913,119.4126171,https://maps.google.com/?cid=0x0:0xb4578efb2dd2cab6,
mall,Kantor Pelayanan Pajak,Kantor Pelayanan Penyuluhan dan Konsultasi Perpajakan,"9CF3+FH7, Jl. Bhayangkara, Pada Eweta, Kec. Kota Waikabubak, Kabupaten Sumba Barat, Nusa Tenggara Tim.","Kabupaten Sumba Barat, Nusa Tenggara Tim.",NUSA TENGGARA TIMUR,,Indonesia,,,,-9.6263473,119.403922,https://maps.google.com/?cid=0x0:0x4622a661d129d526,
mall,mall,Nusa Tenggara Tim. 87214,"Kp. Baru, Kec. Kota Waikabubak, Kabupaten Sumba Barat, Nusa Tenggara Tim.","Kabupaten Sumba Barat, Nusa Tenggara Tim.",NUSA TENGGARA TIMUR,,Indonesia,,,,-9.6319416,119.4178502,https://maps.google.com/?cid=0x0:0xf74500f4f5161cf1,
mall,Kantor Pemerintah,Mall Pelayanan,"9C97+62Q, Jl. Jend. Sudirman, Komerda, Kec. Kota Waikabubak, Kabupaten Sumba Barat, Nusa Tenggara Tim.","Kabupaten Sumba Barat, Nusa Tenggara Tim.",NUSA TENGGARA TIMUR,,Indonesia,,,,-9.631913,119.4126171,https://maps.google.com/?cid=0x0:0xb4578efb2dd2cab6,
mall,Kantor Pelayanan Pajak,Kantor Pelayanan Penyuluhan dan Konsultasi Perpajakan,"9CF3+FH7, Jl. Bhayangkara, Pada Eweta, Kec. Kota Waikabubak, Kabupaten Sumba Barat, Nusa Tenggara Tim.","Kabupaten Sumba Barat, Nusa Tenggara Tim.",NUSA TENGGARA TIMUR,,Indonesia,,,,-9.6263473,119.403922,https://maps.google.com/?cid=0x0:0x4622a661d129d526,
mall,mall,Nusa Tenggara Tim.,,Nusa Tenggara Tim.,NUSA TENGGARA TIMUR,,Indonesia,,,,-8.6573819,121.0793705,https://maps.google.com/?cid=0x0:0x1030bfbcaf71ae0,
mall,mall,Cahaya Fashion Store,"Wailiang, Kec. Kota Waikabubak, Kabupaten Sumba Barat, Nusa Tenggara Tim.","Kabupaten Sumba Barat, Nusa Tenggara Tim.",NUSA TENGGARA TIMUR,,Indonesia,,,,-9.6360552,119.4085702,https://maps.google.com/?cid=0x0:0x65c5220f6d4536f,
mall,mall,Kec. Kota Waikabubak,"Kabupaten Sumba Barat, Nusa Tenggara Tim.","Kabupaten Sumba Barat, Nusa Tenggara Tim.",NUSA TENGGARA TIMUR,,Indonesia,,,,-9.6318508,119.4116981,https://maps.google.com/?cid=0x0:0xc0a3b8deb8dcb273,
mall,Toko Elektronik,Sumba Cell Jadi Makmur,"9C75+R7G, Wailiang, Kec. Kota Waikabubak, Kabupaten Sumba Barat, Nusa Tenggara Tim.","Kabupaten Sumba Barat, Nusa Tenggara Tim.",NUSA TENGGARA TIMUR,,Indonesia,,,,-9.6354314,119.4082177,https://maps.google.com/?cid=0x0:0x2a7a920609baa4d,
mall,Toko,Kios putra barokah,"Jl. Pisang No.4, Wailiang, Kec. Kota Waikabubak, Kabupaten Sumba Barat, Nusa Tenggara Tim.","Kabupaten Sumba Barat, Nusa Tenggara Tim.",NUSA TENGGARA TIMUR,,Indonesia,,,,-9.6352815,119.40779,https://maps.google.com/?cid=0x0:0xaab8d34d795a9934,
mall,Pasar,Terminal pasar lama,"Terminal pasar lama, Wailiang, Kec. Kota Waikabubak, Kabupaten Sumba Barat, Nusa Tenggara Tim.","Kabupaten Sumba Barat, Nusa Tenggara Tim.",NUSA TENGGARA TIMUR,,Indonesia,,,,-9.6378431,119.4071079,https://maps.google.com/?cid=0x0:0x8769e308c38a9ce4,
mall,Toko,Toko Sinar Rejeki,"9CC5+75J, Jl. Bhayangkara, Komerda, Kec. Kota Waikabubak, Kabupaten Sumba Barat, Nusa Tenggara Tim.","Kabupaten Sumba Barat, Nusa Tenggara Tim.",NUSA TENGGARA TIMUR,,Indonesia,,,,-9.6292861,119.4078761,https://maps.google.com/?cid=0x0:0xc0277287f1a58206,
mall,Kerajinan,Katonga Humba,"Jl. Ahmad Yani No.166, Dede Kadu, Kec. Kota Waikabubak, Kabupaten Sumba Barat, Nusa Tenggara Tim.","Kabupaten Sumba Barat, Nusa Tenggara Tim.",NUSA TENGGARA TIMUR,,Indonesia,,,,-9.6449902,119.4088263,https://maps.google.com/?cid=0x0:0xb3ca9278b862a928,
mall,mall,TOKO BINTORO INDAH,"9C75+WG2, Jl. Ahmad Yani, Wailiang, Kec. Kota Waikabubak, Kabupaten Sumba Barat, Nusa Tenggara Tim.","Kabupaten Sumba Barat, Nusa Tenggara Tim.",NUSA TENGGARA TIMUR,,Indonesia,,,,-9.6352455,119.4087696,https://maps.google.com/?cid=0x0:0xbe42ff32c2cc5f6f,
mall,Kantor Pemerintah,Mall Pelayanan,"9C97+62Q, Jl. Jend. Sudirman, Komerda, Kec. Kota Waikabubak, Kabupaten Sumba Barat, Nusa Tenggara Tim.","Kabupaten Sumba Barat, Nusa Tenggara Tim.",NUSA TENGGARA TIMUR,,Indonesia,,,,-9.631913,119.4126171,https://maps.google.com/?cid=0x0:0xb4578efb2dd2cab6,
mall,Kantor Pelayanan Pajak,Kantor Pelayanan Penyuluhan dan Konsultasi Perpajakan,"9CF3+FH7, Jl. Bhayangkara, Pada Eweta, Kec. Kota Waikabubak, Kabupaten Sumba Barat, Nusa Tenggara Tim.","Kabupaten Sumba Barat, Nusa Tenggara Tim.",NUSA TENGGARA TIMUR,,Indonesia,,,,-9.6263473,119.403922,https://maps.google.com/?cid=0x0:0x4622a661d129d526,
mall,mall,Kec. Kota Waikabubak,"Kabupaten Sumba Barat, Nusa Tenggara Tim.","Kabupaten Sumba Barat, Nusa Tenggara Tim.",NUSA TENGGARA TIMUR,,Indonesia,,,,-9.6318508,119.4116981,https://maps.google.com/?cid=0x0:0xc0a3b8deb8dcb273,
mall,mall,Cahaya Fashion Store,"Wailiang, Kec. Kota Waikabubak, Kabupaten Sumba Barat, Nusa Tenggara Tim.","Kabupaten Sumba Barat, Nusa Tenggara Tim.",NUSA TENGGARA TIMUR,,Indonesia,,,,-9.6360552,119.4085702,https://maps.google.com/?cid=0x0:0x65c5220f6d4536f,
mall,Toko Elektronik,Sumba Cell Jadi Makmur,"9C75+R7G, Wailiang, Kec. Kota Waikabubak, Kabupaten Sumba Barat, Nusa Tenggara Tim.","Kabupaten Sumba Barat, Nusa Tenggara Tim.",NUSA TENGGARA TIMUR,,Indonesia,,,,-9.6354314,119.4082177,https://maps.google.com/?cid=0x0:0x2a7a920609baa4d,
mall,Toko,Toko Sinar Rejeki,"9CC5+75J, Jl. Bhayangkara, Komerda, Kec. Kota Waikabubak, Kabupaten Sumba Barat, Nusa Tenggara Tim.","Kabupaten Sumba Barat, Nusa Tenggara Tim.",NUSA TENGGARA TIMUR,,Indonesia,,,,-9.6292861,119.4078761,https://maps.google.com/?cid=0x0:0xc0277287f1a58206,
mall,Toko,Kios putra barokah,"Jl. Pisang No.4, Wailiang, Kec. Kota Waikabubak, Kabupaten Sumba Barat, Nusa Tenggara Tim.","Kabupaten Sumba Barat, Nusa Tenggara Tim.",NUSA TENGGARA TIMUR,,Indonesia,,,,-9.6352815,119.40779,https://maps.google.com/?cid=0x0:0xaab8d34d795a9934,
mall,Kerajinan,Katonga Humba,"Jl. Ahmad Yani No.166, Dede Kadu, Kec. Kota Waikabubak, Kabupaten Sumba Barat, Nusa Tenggara Tim.","Kabupaten Sumba Barat, Nusa Tenggara Tim.",NUSA TENGGARA TIMUR,,Indonesia,,,,-9.6449902,119.4088263,https://maps.google.com/?cid=0x0:0xb3ca9278b862a928,
mall,Pasar,Terminal pasar lama,"Terminal pasar lama, Wailiang, Kec. Kota Waikabubak, Kabupaten Sumba Barat, Nusa Tenggara Tim.","Kabupaten Sumba Barat, Nusa Tenggara Tim.",NUSA TENGGARA TIMUR,,Indonesia,,,,-9.6378431,119.4071079,https://maps.google.com/?cid=0x0:0x8769e308c38a9ce4,
mall,mall,TOKO BINTORO INDAH,"9C75+WG2, Jl. Ahmad Yani, Wailiang, Kec. Kota Waikabubak, Kabupaten Sumba Barat, Nusa Tenggara Tim.","Kabupaten Sumba Barat, Nusa Tenggara Tim.",NUSA TENGGARA TIMUR,,Indonesia,,,,-9.6352455,119.4087696,https://maps.google.com/?cid=0x0:0xbe42ff32c2cc5f6f,
mall,Pasar,Pasar Baru Waikabubak,"994Q+FG4, Wee Karou, Kec. Loli, Kabupaten Sumba Barat, Nusa Tenggara Tim.","Kabupaten Sumba Barat, Nusa Tenggara Tim.",NUSA TENGGARA TIMUR,,Indonesia,,,,-9.6438664,119.3888321,https://maps.google.com/?cid=0x0:0x8fdddfd1abee0ac7,
mall,Bengkel Sepeda Motor,Toko Sumber Mas Motor,"9CC4+QFQ, Jl. Bhayangkara, Komerda, Kec. Kota Waikabubak, Kabupaten Sumba Barat, Nusa Tenggara Tim.","Kabupaten Sumba Barat, Nusa Tenggara Tim.",NUSA TENGGARA TIMUR,,Indonesia,,,,-9.6280452,119.4062342,https://maps.google.com/?cid=0x0:0xb253222bbb3b1dbc,
mall,Kantor Perusahaan,Kantor Telkom,"9C65+XMQ, Kp. Sawah, Kec. Kota Waikabubak, Kabupaten Sumba Barat, Nusa Tenggara Tim.","Kabupaten Sumba Barat, Nusa Tenggara Tim.",NUSA TENGGARA TIMUR,,Indonesia,,,,-9.6375299,119.4092228,https://maps.google.com/?cid=0x0:0x68aaf0f3c6faea0d,
mall,Gedung Apartemen,Waikabubak,"9C73+VWP malati, kel Jl gang ekapata, Wailiang, Kota Walkabubak, West Sumba Regency, East Nusa Tenggara","Kabupaten Sumba Barat, Nusa Tenggara Tim.",NUSA TENGGARA TIMUR,,Indonesia,,,,-9.6352994,119.404837,https://maps.google.com/?cid=0x0:0xa15a09c9451fc703,
mall,Jasa Kurir,JNE Waikabubak,"9C75+3GJ, Maliti, Kec. Kota Waikabubak, Kabupaten Sumba Barat, Nusa Tenggara Tim.","Kabupaten Sumba Barat, Nusa Tenggara Tim.",NUSA TENGGARA TIMUR,,Indonesia,85230049252.0,,,-9.6372856,119.4087771,https://maps.google.com/?cid=0x0:0x42299f785a4d5ed3,
mall,Galeri Seni,Art Shop,"9C66+54V, Dede Kadu, Kec. Loli, Kabupaten Sumba Barat, Nusa Tenggara Tim.","Kabupaten Sumba Barat, Nusa Tenggara Tim.",NUSA TENGGARA TIMUR,,Indonesia,,,,-9.6395049,119.4102982,https://maps.google.com/?cid=0x0:0x27177712966d145b,
mall,Toko Pakaian,NIZHAMI COLLECTION,"Wee Karou, Kec. Loli, Kabupaten Sumba Barat, Nusa Tenggara Tim.","Kabupaten Sumba Barat, Nusa Tenggara Tim.",NUSA TENGGARA TIMUR,,Indonesia,81326106122.0,,,-9.6390203,119.4052172,https://maps.google.com/?cid=0x0:0x9810c809a49d9bec,
mall,Pusat Perbelanjaan,Toko Bintang Palapa,"9C95+VJM, Komerda, Kec. Kota Waikabubak, Kabupaten Sumba Barat, Nusa Tenggara Tim.","Kabupaten Sumba Barat, Nusa Tenggara Tim.",NUSA TENGGARA TIMUR,,Indonesia,,,,-9.6302889,119.4090355,https://maps.google.com/?cid=0x0:0x6adb0e7fa1840b33,
mall,Kantor Pos,Kantorpos Waikabubak,"Jl. Bhayangkara No.1, Komerda, Kec. Kota Waikabubak, Kabupaten Sumba Barat, Nusa Tenggara Tim. 87200","Komerda, Kec. Kota Waikabubak, Kabupaten Sumba Barat",NUSA TENGGARA TIMUR,87200.0,Indonesia,,,,-9.6319636,119.4113336,https://maps.google.com/?cid=0x0:0x63934e752c022a1c,
mall,Pemasok Air Minum Dalam Kemasan,DEPO AIR MINUM LangitRO,"Wee Karou, Kec. Loli, Kabupaten Sumba Barat, Nusa Tenggara Tim.","Kabupaten Sumba Barat, Nusa Tenggara Tim.",NUSA TENGGARA TIMUR,,Indonesia,,,,-9.6415602,119.4019675,https://maps.google.com/?cid=0x0:0xf8de244a7b90e64,
mall,Kantor Pemerintah,Mall Pelayanan,"9C97+62Q, Jl. Jend. Sudirman, Komerda, Kec. Kota Waikabubak, Kabupaten Sumba Barat, Nusa Tenggara Tim.","Kabupaten Sumba Barat, Nusa Tenggara Tim.",NUSA TENGGARA TIMUR,,Indonesia,,,,-9.631913,119.4126171,https://maps.google.com/?cid=0x0:0xb4578efb2dd2cab6,
mall,Kantor Pelayanan Pajak,Kantor Pelayanan Penyuluhan dan Konsultasi Perpajakan,"9CF3+FH7, Jl. Bhayangkara, Pada Eweta, Kec. Kota Waikabubak, Kabupaten Sumba Barat, Nusa Tenggara Tim.","Kabupaten Sumba Barat, Nusa Tenggara Tim.",NUSA TENGGARA TIMUR,,Indonesia,,,,-9.6263473,119.403922,https://maps.google.com/?cid=0x0:0x4622a661d129d526,
mall,mall,Kec. Kota Waikabubak,"Kabupaten Sumba Barat, Nusa Tenggara Tim.","Kabupaten Sumba Barat, Nusa Tenggara Tim.",NUSA TENGGARA TIMUR,,Indonesia,,,,-9.6318508,119.4116981,https://maps.google.com/?cid=0x0:0xc0a3b8deb8dcb273,
mall,mall,Cahaya Fashion Store,"Wailiang, Kec. Kota Waikabubak, Kabupaten Sumba Barat, Nusa Tenggara Tim.","Kabupaten Sumba Barat, Nusa Tenggara Tim.",NUSA TENGGARA TIMUR,,Indonesia,,,,-9.6360552,119.4085702,https://maps.google.com/?cid=0x0:0x65c5220f6d4536f,
mall,Toko Elektronik,Sumba Cell Jadi Makmur,"9C75+R7G, Wailiang, Kec. Kota Waikabubak, Kabupaten Sumba Barat, Nusa Tenggara Tim.","Kabupaten Sumba Barat, Nusa Tenggara Tim.",NUSA TENGGARA TIMUR,,Indonesia,,,,-9.6354314,119.4082177,https://maps.google.com/?cid=0x0:0x2a7a920609baa4d,
mall,Toko,Toko Sinar Rejeki,"9CC5+75J, Jl. Bhayangkara, Komerda, Kec. Kota Waikabubak, Kabupaten Sumba Barat, Nusa Tenggara Tim.","Kabupaten Sumba Barat, Nusa Tenggara Tim.",NUSA TENGGARA TIMUR,,Indonesia,,,,-9.6292861,119.4078761,https://maps.google.com/?cid=0x0:0xc0277287f1a58206,
mall,Toko,Kios putra barokah,"Jl. Pisang No.4, Wailiang, Kec. Kota Waikabubak, Kabupaten Sumba Barat, Nusa Tenggara Tim.","Kabupaten Sumba Barat, Nusa Tenggara Tim.",NUSA TENGGARA TIMUR,,Indonesia,,,,-9.6352815,119.40779,https://maps.google.com/?cid=0x0:0xaab8d34d795a9934,
mall,Kerajinan,Katonga Humba,"Jl. Ahmad Yani No.166, Dede Kadu, Kec. Kota Waikabubak, Kabupaten Sumba Barat, Nusa Tenggara Tim.","Kabupaten Sumba Barat, Nusa Tenggara Tim.",NUSA TENGGARA TIMUR,,Indonesia,,,,-9.6449902,119.4088263,https://maps.google.com/?cid=0x0:0xb3ca9278b862a928,
mall,Pasar,Terminal pasar lama,"Terminal pasar lama, Wailiang, Kec. Kota Waikabubak, Kabupaten Sumba Barat, Nusa Tenggara Tim.","Kabupaten Sumba Barat, Nusa Tenggara Tim.",NUSA TENGGARA TIMUR,,Indonesia,,,,-9.6378431,119.4071079,https://maps.google.com/?cid=0x0:0x8769e308c38a9ce4,
mall,mall,TOKO BINTORO INDAH,"9C75+WG2, Jl. Ahmad Yani, Wailiang, Kec. Kota Waikabubak, Kabupaten Sumba Barat, Nusa Tenggara Tim.","Kabupaten Sumba Barat, Nusa Tenggara Tim.",NUSA TENGGARA TIMUR,,Indonesia,,,,-9.6352455,119.4087696,https://maps.google.com/?cid=0x0:0xbe42ff32c2cc5f6f,
mall,Bengkel Sepeda Motor,Toko Sumber Mas Motor,"9CC4+QFQ, Jl. Bhayangkara, Komerda, Kec. Kota Waikabubak, Kabupaten Sumba Barat, Nusa Tenggara Tim.","Kabupaten Sumba Barat, Nusa Tenggara Tim.",NUSA TENGGARA TIMUR,,Indonesia,,,,-9.6280452,119.4062342,https://maps.google.com/?cid=0x0:0xb253222bbb3b1dbc,
mall,Pasar,Pasar Baru Waikabubak,"994Q+FG4, Wee Karou, Kec. Loli, Kabupaten Sumba Barat, Nusa Tenggara Tim.","Kabupaten Sumba Barat, Nusa Tenggara Tim.",NUSA TENGGARA TIMUR,,Indonesia,,,,-9.6438664,119.3888321,https://maps.google.com/?cid=0x0:0x8fdddfd1abee0ac7,
mall,Toko Pakaian,Tya Collection Waikabubak,"Jl. Adisucipto, Maliti, Kec. Kota Waikabubak, Kabupaten Sumba Barat, Nusa Tenggara Tim. 87217","Maliti, Kec. Kota Waikabubak, Kabupaten Sumba Barat",NUSA TENGGARA TIMUR,87217.0,Indonesia,82341371892.0,,,-9.6398865,119.4099435,https://maps.google.com/?cid=0x0:0x4b63839904c0e527,
mall,Galeri Seni,Art Shop,"9C66+54V, Dede Kadu, Kec. Loli, Kabupaten Sumba Barat, Nusa Tenggara Tim.","Kabupaten Sumba Barat, Nusa Tenggara Tim.",NUSA TENGGARA TIMUR,,Indonesia,,,,-9.6395049,119.4102982,https://maps.google.com/?cid=0x0:0x27177712966d145b,
mall,Kantor Pos,Kantorpos Waikabubak,"Jl. Bhayangkara No.1, Komerda, Kec. Kota Waikabubak, Kabupaten Sumba Barat, Nusa Tenggara Tim. 87200","Komerda, Kec. Kota Waikabubak, Kabupaten Sumba Barat",NUSA TENGGARA TIMUR,87200.0,Indonesia,,,,-9.6319636,119.4113336,https://maps.google.com/?cid=0x0:0x63934e752c022a1c,
mall,Gedung Pengadilan Negeri,Kejaksaan Negeri Sumba Barat,"Jl. Adhyaksa No.20, Maliti, Kec. Kota Waikabubak, Kabupaten Sumba Barat, Nusa Tenggara Tim.","Kabupaten Sumba Barat, Nusa Tenggara Tim.",NUSA TENGGARA TIMUR,,Indonesia,81337333726.0,,,-9.622895,119.3958562,https://maps.google.com/?cid=0x0:0xe0f2d15c51defd51,
mall,Toko Pakaian,NIZHAMI COLLECTION,"Wee Karou, Kec. Loli, Kabupaten Sumba Barat, Nusa Tenggara Tim.","Kabupaten Sumba Barat, Nusa Tenggara Tim.",NUSA TENGGARA TIMUR,,Indonesia,81326106122.0,,,-9.6390203,119.4052172,https://maps.google.com/?cid=0x0:0x9810c809a49d9bec,
mall,Toko Swalayan,Toko Queen Rose,"9C86+26H, Jl. Pemuda, Maliti, Kec. Kota Waikabubak, Kabupaten Sumba Barat, Nusa Tenggara Tim.","Kabupaten Sumba Barat, Nusa Tenggara Tim.",NUSA TENGGARA TIMUR,,Indonesia,,,,-9.6349378,119.4106063,https://maps.google.com/?cid=0x0:0x10ed8d5dd94aebda,
mall,Pemasok Air Minum Dalam Kemasan,DEPO AIR MINUM LangitRO,"Wee Karou, Kec. Loli, Kabupaten Sumba Barat, Nusa Tenggara Tim.","Kabupaten Sumba Barat, Nusa Tenggara Tim.",NUSA TENGGARA TIMUR,,Indonesia,,,,-9.6415602,119.4019675,https://maps.google.com/?cid=0x0:0xf8de244a7b90e64,
mall,Komplek perumahan,Jln pisang wailiang Waikabubak,"9C73+CRQ, Jl. Pisang, Wailiang, Kec. Kota Waikabubak, Kabupaten Sumba Barat, Nusa Tenggara Tim.","Kabupaten Sumba Barat, Nusa Tenggara Tim.",NUSA TENGGARA TIMUR,,Indonesia,,,,-9.6364099,119.4045977,https://maps.google.com/?cid=0x0:0xd01246b50b4c398d,
mall,mall,Nusa Tenggara Tim.,,Nusa Tenggara Tim.,NUSA TENGGARA TIMUR,,Indonesia,,,,-8.6573819,121.0793705,https://maps.google.com/?cid=0x0:0x1030bfbcaf71ae0,
mall,Pertanian,Lapangan Pasola Lamboya,"785H+8JQ, Patiala Bawa, Kec. Lamboya, Kabupaten Sumba Barat, Nusa Tenggara Tim.","Kabupaten Sumba Barat, Nusa Tenggara Tim.",NUSA TENGGARA TIMUR,,Indonesia,82221477093.0,,,-9.7416675,119.3291079,https://maps.google.com/?cid=0x0:0x7c6b94d21c185102,
mall,Polisi Sipil,Polsek Lamboya,"79H5+J3V, Kabu Karudi, Kec. Lamboya, Kabupaten Sumba Barat, Nusa Tenggara Tim.","Kabupaten Sumba Barat, Nusa Tenggara Tim.",NUSA TENGGARA TIMUR,,Indonesia,,,,-9.7208757,119.3576767,https://maps.google.com/?cid=0x0:0x32bfa94efbb3c036,
mall,Sekolah Menengah Pertama,SMK NEGERI 2 LAMBOYA,"Ringu Rara, Kec. Lamboya, Kabupaten Sumba Barat, Nusa Tenggara Tim.","Kabupaten Sumba Barat, Nusa Tenggara Tim.",NUSA TENGGARA TIMUR,,Indonesia,81355540541.0,,,-9.7466586,119.3948442,https://maps.google.com/?cid=0x0:0x622c8fdac5e239fb,
mall,mall,Kec. Lamboya,"Kabupaten Sumba Barat, Nusa Tenggara Tim.","Kabupaten Sumba Barat, Nusa Tenggara Tim.",NUSA TENGGARA TIMUR,,Indonesia,,,,-9.7205484,119.35646,https://maps.google.com/?cid=0x0:0x5968d2d2a2f91860,
mall,Kantor Pos,Kantor Pos Elopada,"C8M8+2JG, Kalembu Ndara Mane, Kec. Wewewa Tim., Kabupaten Sumba Barat Daya, Nusa Tenggara Tim.","Kabupaten Sumba Barat Daya, Nusa Tenggara Tim.",NUSA TENGGARA TIMUR,,Indonesia,,,,-9.5674439,119.3165667,https://maps.google.com/?cid=0x0:0x586ee65e85e84623,
mall,Pusat Perbelanjaan,Ringroad wone-Bondosula,"986W+X98, Wee Karou, Weedabo, Kabupaten Sumba Barat, Nusa Tenggara Tim.","Kabupaten Sumba Barat, Nusa Tenggara Tim.",NUSA TENGGARA TIMUR,,Indonesia,,,,-9.6375967,119.3459677,https://maps.google.com/?cid=0x0:0x90e6641759bda27c,
mall,Pemasok Air Minum Dalam Kemasan,DEPO AIR MINUM LangitRO,"Wee Karou, Kec. Loli, Kabupaten Sumba Barat, Nusa Tenggara Tim.","Kabupaten Sumba Barat, Nusa Tenggara Tim.",NUSA TENGGARA TIMUR,,Indonesia,,,,-9.6415602,119.4019675,https://maps.google.com/?cid=0x0:0xf8de244a7b90e64,
mall,mall,Cahaya Fashion Store,"Wailiang, Kec. Kota Waikabubak, Kabupaten Sumba Barat, Nusa Tenggara Tim.","Kabupaten Sumba Barat, Nusa Tenggara Tim.",NUSA TENGGARA TIMUR,,Indonesia,,,,-9.6360552,119.4085702,https://maps.google.com/?cid=0x0:0x65c5220f6d4536f,
mall,Kantor Pemerintah,Mall Pelayanan,"9C97+62Q, Jl. Jend. Sudirman, Komerda, Kec. Kota Waikabubak, Kabupaten Sumba Barat, Nusa Tenggara Tim.","Kabupaten Sumba Barat, Nusa Tenggara Tim.",NUSA TENGGARA TIMUR,,Indonesia,,,,-9.631913,119.4126171,https://maps.google.com/?cid=0x0:0xb4578efb2dd2cab6,
mall,Toko Pakaian,NIZHAMI COLLECTION,"Wee Karou, Kec. Loli, Kabupaten Sumba Barat, Nusa Tenggara Tim.","Kabupaten Sumba Barat, Nusa Tenggara Tim.",NUSA TENGGARA TIMUR,,Indonesia,81326106122.0,,,-9.6390203,119.4052172,https://maps.google.com/?cid=0x0:0x9810c809a49d9bec,
mall,Pasar,Terminal pasar lama,"Terminal pasar lama, Wailiang, Kec. Kota Waikabubak, Kabupaten Sumba Barat, Nusa Tenggara Tim.","Kabupaten Sumba Barat, Nusa Tenggara Tim.",NUSA TENGGARA TIMUR,,Indonesia,,,,-9.6378431,119.4071079,https://maps.google.com/?cid=0x0:0x8769e308c38a9ce4,
mall,Galeri Seni,Art Shop,"9C66+54V, Dede Kadu, Kec. Loli, Kabupaten Sumba Barat, Nusa Tenggara Tim.","Kabupaten Sumba Barat, Nusa Tenggara Tim.",NUSA TENGGARA TIMUR,,Indonesia,,,,-9.6395049,119.4102982,https://maps.google.com/?cid=0x0:0x27177712966d145b,
mall,Toko Elektronik,Sumba Cell Jadi Makmur,"9C75+R7G, Wailiang, Kec. Kota Waikabubak, Kabupaten Sumba Barat, Nusa Tenggara Tim.","Kabupaten Sumba Barat, Nusa Tenggara Tim.",NUSA TENGGARA TIMUR,,Indonesia,,,,-9.6354314,119.4082177,https://maps.google.com/?cid=0x0:0x2a7a920609baa4d,
mall,Pasar,Pasar Inpres Dan Terminal Kota,"Jl. Pisang No.4, Wailiang, Kec. Kota Waikabubak, Kabupaten Sumba Barat, Nusa Tenggara Tim.","Kabupaten Sumba Barat, Nusa Tenggara Tim.",NUSA TENGGARA TIMUR,,Indonesia,,,,-9.6358162,119.4086708,https://maps.google.com/?cid=0x0:0x437bb78d9deb606a,
mall,Kerajinan,Katonga Humba,"Jl. Ahmad Yani No.166, Dede Kadu, Kec. Kota Waikabubak, Kabupaten Sumba Barat, Nusa Tenggara Tim.","Kabupaten Sumba Barat, Nusa Tenggara Tim.",NUSA TENGGARA TIMUR,,Indonesia,,,,-9.6449902,119.4088263,https://maps.google.com/?cid=0x0:0xb3ca9278b862a928,
mall,Toko,Kios putra barokah,"Jl. Pisang No.4, Wailiang, Kec. Kota Waikabubak, Kabupaten Sumba Barat, Nusa Tenggara Tim.","Kabupaten Sumba Barat, Nusa Tenggara Tim.",NUSA TENGGARA TIMUR,,Indonesia,,,,-9.6352815,119.40779,https://maps.google.com/?cid=0x0:0xaab8d34d795a9934,
mall,Pusat Perbelanjaan,Pasar Weewulla,"95MR+63F, Denduka, Kec. Wewewa Sel., Kabupaten Sumba Barat Daya, Nusa Tenggara Tim.","Kabupaten Sumba Barat Daya, Nusa Tenggara Tim.",NUSA TENGGARA TIMUR,,Indonesia,81254833122.0,,,-9.6169281,119.1901602,https://maps.google.com/?cid=0x0:0x46283d3317ee6e42,
mall,Sekolah Menengah Kejuruan,SMKN 1 LAMBOYA,"Harona Kala, Kec. Laboya Bar., Kabupaten Sumba Barat, Nusa Tenggara Tim.","Kabupaten Sumba Barat, Nusa Tenggara Tim.",NUSA TENGGARA TIMUR,,Indonesia,85253431489.0,,,-9.7436913,119.3239937,https://maps.google.com/?cid=0x0:0xd9049d91988585c1,
mall,Tujuan Wisata,Pantai Marosi,"68Q7+4QV, Jln. Marosi, Patiala Bawa, Kec. Lamboya, Kabupaten Sumba Barat, Nusa Tenggara Tim.","Kabupaten Sumba Barat, Nusa Tenggara Tim.",NUSA TENGGARA TIMUR,,Indonesia,82221477093.0,,,-9.7621423,119.3144131,https://maps.google.com/?cid=0x0:0xb6ae3800272803d,
mall,Pasar,Pasar Baru Waikabubak,"994Q+FG4, Wee Karou, Kec. Loli, Kabupaten Sumba Barat, Nusa Tenggara Tim.","Kabupaten Sumba Barat, Nusa Tenggara Tim.",NUSA TENGGARA TIMUR,,Indonesia,,,,-9.6438664,119.3888321,https://maps.google.com/?cid=0x0:0x8fdddfd1abee0ac7,
supermarket,supermarket,Kec. Tana Righu,"Kabupaten Sumba Barat, Nusa Tenggara Tim.","Kabupaten Sumba Barat, Nusa Tenggara Tim.",NUSA TENGGARA TIMUR,,Indonesia,,,,-9.4191853,119.398791,https://maps.google.com/?cid=0x0:0xb9763f309124fdd0,
supermarket,Minimarket,"Pasar Inpres Loko Ry,Tana Righu","H9VW+CW5, Loko Ry, Kec. Tana Righu, Kabupaten Sumba Barat, Nusa Tenggara Tim.","Kabupaten Sumba Barat, Nusa Tenggara Tim.",NUSA TENGGARA TIMUR,,Indonesia,,,,-9.4064822,119.3973509,https://maps.google.com/?cid=0x0:0xb541db83bdcc579,
supermarket,Komplek perumahan,Pasar Malata,"H95J+CG8, Malata, Kec. Tana Righu, Kabupaten Sumba Barat, Nusa Tenggara Tim.","Kabupaten Sumba Barat, Nusa Tenggara Tim.",NUSA TENGGARA TIMUR,,Indonesia,,,,-9.4414622,119.3813308,https://maps.google.com/?cid=0x0:0x1a4b326ebdafe526,
supermarket,Komplek perumahan,Waibangga,"CFX4+C2C, Desa, Tematana, Kec. Loli, Kabupaten Sumba Barat, Nusa Tenggara Tim.","Kabupaten Sumba Barat, Nusa Tenggara Tim.",NUSA TENGGARA TIMUR,,Indonesia,81338984384.0,,,-9.5514363,119.4550179,https://maps.google.com/?cid=0x0:0x5a4a20ca93f22da,
supermarket,Pembangunan Perumahan,Lokory,"H9HW+WVR, Loko Ry, Kec. Tana Righu, Kabupaten Sumba Barat, Nusa Tenggara Tim.","Kabupaten Sumba Barat, Nusa Tenggara Tim.",NUSA TENGGARA TIMUR,,Indonesia,,,,-9.4201263,119.3971261,https://maps.google.com/?cid=0x0:0xd3e055dd350f2701,
supermarket,Toko bahan makanan,Kios Chatleen,"FCG9+Q9V, Kareka Nduku, Kec. Tana Righu, Kabupaten Sumba Barat, Nusa Tenggara Tim.","Kabupaten Sumba Barat, Nusa Tenggara Tim.",NUSA TENGGARA TIMUR,,Indonesia,,,,-9.5230167,119.4184158,https://maps.google.com/?cid=0x0:0xbe3e27693e25549c,
supermarket,Toko,RPK PUTRA DANGU,"HCJ2+QGR, Loko Ry, Kec. Tana Righu, Kabupaten Sumba Barat, Nusa Tenggara Tim.","Kabupaten Sumba Barat, Nusa Tenggara Tim.",NUSA TENGGARA TIMUR,,Indonesia,,,,-9.4180223,119.4012545,https://maps.google.com/?cid=0x0:0xd71524b4e9340079,
supermarket,Toko,TOKO DANGU PUTRA,"HCM2+2WJ, Loko Ry, Kec. Tana Righu, Kabupaten Sumba Barat, Nusa Tenggara Tim.","Kabupaten Sumba Barat, Nusa Tenggara Tim.",NUSA TENGGARA TIMUR,,Indonesia,,,,-9.4174125,119.4022697,https://maps.google.com/?cid=0x0:0x7c41822f3b75ae6a,
supermarket,supermarket,Kios cetlin,"FCG9+V8C, Kareka Nduku, Kec. Tana Righu, Kabupaten Sumba Barat, Nusa Tenggara Tim.","Kabupaten Sumba Barat, Nusa Tenggara Tim.",NUSA TENGGARA TIMUR,,Indonesia,,,,-9.5228011,119.4182536,https://maps.google.com/?cid=0x0:0xc6fee69a17a27276,
supermarket,Toko,Puu kapaka kios LoganStorm,"FF56+4J, Tana Rara, Kec. Loli, Kabupaten Sumba Barat, Nusa Tenggara Tim.","Kabupaten Sumba Barat, Nusa Tenggara Tim.",NUSA TENGGARA TIMUR,,Indonesia,,,,-9.5421755,119.4615176,https://maps.google.com/?cid=0x0:0x3dcff92e34e6d8d1,
supermarket,Minimarket,Korokangali,"HCV4+QG4, Loko Ry, Kec. Tana Righu, Kabupaten Sumba Barat, Nusa Tenggara Tim.","Kabupaten Sumba Barat, Nusa Tenggara Tim.",NUSA TENGGARA TIMUR,,Indonesia,,,,-9.4056057,119.4063234,https://maps.google.com/?cid=0x0:0x61e9f3dc64413068,
supermarket,Kios,RPK MAGHO INA,"GCMM+QG9, Lolo Wano, Kec. Tana Righu, Kabupaten Sumba Barat, Nusa Tenggara Tim.","Kabupaten Sumba Barat, Nusa Tenggara Tim.",NUSA TENGGARA TIMUR,,Indonesia,,,,-9.4655993,119.433859,https://maps.google.com/?cid=0x0:0xff83928de503dad3,
supermarket,Toko,Efrata Mulia (Toko Lama),"CFX3+F7, Doka Kaka, Kec. Loli, Kabupaten Sumba Barat, Nusa Tenggara Tim.","Kabupaten Sumba Barat, Nusa Tenggara Tim.",NUSA TENGGARA TIMUR,,Indonesia,,,,-9.5513125,119.4531875,https://maps.google.com/?cid=0x0:0x9fe2c407333155c1,
supermarket,Toko Perlengkapan Rumah,Yosinta Nona Ina,"H94F+M6, Bondo Boghila, Kec. Loura, Kabupaten Sumba Barat Daya, Nusa Tenggara Tim.","Kabupaten Sumba Barat Daya, Nusa Tenggara Tim.",NUSA TENGGARA TIMUR,,Indonesia,,,,-9.4433125,119.3730625,https://maps.google.com/?cid=0x0:0x260892c98907925c,
supermarket,Toko umum,Tombu-Bali Ledo,"FF6H+6X4, Bali Ledo, Kec. Loli, Kabupaten Sumba Barat, Nusa Tenggara Tim.","Kabupaten Sumba Barat, Nusa Tenggara Tim.",NUSA TENGGARA TIMUR,,Indonesia,82297849596.0,,,-9.5394992,119.4799422,https://maps.google.com/?cid=0x0:0xcd99eaaa752fefbf,
supermarket,supermarket,The Cut Terrace,"Jl. Bina Natu, Loko Ry, Kec. Tana Righu, Kabupaten Sumba Barat, Nusa Tenggara Tim.","Kabupaten Sumba Barat, Nusa Tenggara Tim.",NUSA TENGGARA TIMUR,,Indonesia,8813672592.0,,,-9.4168567,119.395033,https://maps.google.com/?cid=0x0:0xee80d792595608d8,
supermarket,Pusat Perbelanjaan,LYON NUSANTARA SUPER MARKET,"9754+5H3, Kamalaputi, Kec. Kota Waingapu, Kabupaten Sumba Timur, Nusa Tenggara Tim.","Kabupaten Sumba Timur, Nusa Tenggara Tim.",NUSA TENGGARA TIMUR,,Indonesia,,,,-9.6421199,120.2564251,https://maps.google.com/?cid=0x0:0xf39f6f3279d31f50,
supermarket,Toko umum,Kios RATU,"JF57+4V7 Sawi Rara, Jln, West Wendewa, Mamboro, Central Sumba Regency, East Nusa Tenggara","Kabupaten Sumba Tengah, Nusa Tenggara Tim.",NUSA TENGGARA TIMUR,,Indonesia,82233710577.0,,,-9.392221,119.4646663,https://maps.google.com/?cid=0x0:0xafdc0878c1997ea4,
supermarket,Toko Ponsel,Limbu Negha Flasher,"FCP7+WCH Bondo Sulla, Utara, Kareka Nduku, Kec. Tana Righu, Kabupaten Sumba Barat, Nusa Tenggara Tim.","Kabupaten Sumba Barat, Nusa Tenggara Tim.",NUSA TENGGARA TIMUR,,Indonesia,,,,-9.5126934,119.4136073,https://maps.google.com/?cid=0x0:0xd667ca260048ae4c,
supermarket,Sekolah menengah,SDN Wee Tame,"GCVC+PJ8, Lolo Wano, Kec. Tana Righu, Kabupaten Sumba Barat, Nusa Tenggara Tim.","Kabupaten Sumba Barat, Nusa Tenggara Tim.",NUSA TENGGARA TIMUR,,Indonesia,,,,-9.4557248,119.421578,https://maps.google.com/?cid=0x0:0x1e86780bc4135abd,
supermarket,supermarket,Kios kristiano,"H9PM+84F, Loko Ry, Kec. Tana Righu, Kabupaten Sumba Barat, Nusa Tenggara Tim.","Kabupaten Sumba Barat, Nusa Tenggara Tim.",NUSA TENGGARA TIMUR,,Indonesia,,,,-9.414176,119.3827984,https://maps.google.com/?cid=0x0:0xc01273b4c1624414,
supermarket,Sekolah menengah,SMA Negeri 1 Tana Righu,"Loko Ry, Kec. Tana Righu, Kabupaten Sumba Barat, Nusa Tenggara Tim.","Kabupaten Sumba Barat, Nusa Tenggara Tim.",NUSA TENGGARA TIMUR,,Indonesia,,,,-9.4365618,119.3845562,https://maps.google.com/?cid=0x0:0xe4492f6b1278120d,
supermarket,supermarket,Nusa Tenggara Tim.,,Nusa Tenggara Tim.,NUSA TENGGARA TIMUR,,Indonesia,,,,-8.6573819,121.0793705,https://maps.google.com/?cid=0x0:0x1030bfbcaf71ae0,
supermarket,Toko,INDRA MART,"994X+3FG, Unnamed Road, Wee Karou, Kec. Loli, Kabupaten Sumba Barat, Nusa Tenggara Tim.","Kabupaten Sumba Barat, Nusa Tenggara Tim.",NUSA TENGGARA TIMUR,,Indonesia,81237378379.0,,,-9.6448216,119.3987127,https://maps.google.com/?cid=0x0:0x21c917f934388713,
supermarket,Pusat Perbelanjaan,LYON NUSANTARA SUPER MARKET,"9754+5H3, Kamalaputi, Kec. Kota Waingapu, Kabupaten Sumba Timur, Nusa Tenggara Tim.","Kabupaten Sumba Timur, Nusa Tenggara Tim.",NUSA TENGGARA TIMUR,,Indonesia,,,,-9.6421199,120.2564251,https://maps.google.com/?cid=0x0:0xf39f6f3279d31f50,
supermarket,Komplek perumahan,Waibangga,"CFX4+C2C, Desa, Tematana, Kec. Loli, Kabupaten Sumba Barat, Nusa Tenggara Tim.","Kabupaten Sumba Barat, Nusa Tenggara Tim.",NUSA TENGGARA TIMUR,,Indonesia,81338984384.0,,,-9.5514363,119.4550179,https://maps.google.com/?cid=0x0:0x5a4a20ca93f22da,
supermarket,Toko bahan makanan,Kios Mama Yadi,"87V3+JQ2, Hambala, Kec. Kota Waingapu, Kabupaten Sumba Timur, Nusa Tenggara Tim.","Kabupaten Sumba Timur, Nusa Tenggara Tim.",NUSA TENGGARA TIMUR,,Indonesia,,,,-9.6560892,120.2536551,https://maps.google.com/?cid=0x0:0x51b536c0abbe6576,
supermarket,Toko bahan makanan,Kios Sinar Sape,"Jl. Sultan Agung, Kamalaputi, Kec. Kota Waingapu, Kabupaten Sumba Timur, Nusa Tenggara Tim. 87111","Kamalaputi, Kec. Kota Waingapu, Kabupaten Sumba Timur",NUSA TENGGARA TIMUR,87111.0,Indonesia,,,,-9.6503154,120.2656131,https://maps.google.com/?cid=0x0:0x475339a20de6ef5f,
supermarket,Tujuan Wisata,Sumba barat,"89WV+3V8, Wee Karou, Kec. Loli, Kabupaten Sumba Barat, Nusa Tenggara Tim.","Kabupaten Sumba Barat, Nusa Tenggara Tim.",NUSA TENGGARA TIMUR,,Indonesia,,,,-9.6548326,119.3947135,https://maps.google.com/?cid=0x0:0xc6f4f84fce9f0c5b,
supermarket,supermarket,Loli,"Popnam, Kec. Noemuti, Kabupaten Timor Tengah Utara, Nusa Tenggara Tim.","Kabupaten Timor Tengah Utara, Nusa Tenggara Tim.",NUSA TENGGARA TIMUR,,Indonesia,,,,-9.660561,124.526604,https://maps.google.com/?cid=0x0:0x50eebe88faef0b3b,
supermarket,supermarket,Kios Nio,"4MC5+822, Lumbukore, Kec. Umalulu, Kabupaten Sumba Timur, Nusa Tenggara Tim.","Kabupaten Sumba Timur, Nusa Tenggara Tim.",NUSA TENGGARA TIMUR,,Indonesia,,,,-9.8792257,120.6575122,https://maps.google.com/?cid=0x0:0xe0bead8f4af2a09a,
supermarket,supermarket,Loli supermart,"64FR+QHR, Jl. Raya Tebas, Tebas Sungai, Kec. Tebas, Kabupaten Sambas, Kalimantan Barat","Kabupaten Sambas, Kalimantan Barat",NUSA TENGGARA TIMUR,,Indonesia,,,,1.2244137,109.1413754,https://maps.google.com/?cid=0x0:0xd530ed700efd3178,
supermarket,Toko bahan makanan,AEON Store - Mall @ Alam Sutera,"Jl. Jalur Sutera Bar. No.Kav 16, RT.002/RW.003, Panunggangan Tim., Kec. Pinang, Kota Tangerang, Banten 15143","RT.002/RW.003, Panunggangan Tim., Kec. Pinang, Kota Tangerang",NUSA TENGGARA TIMUR,15143.0,Indonesia,81110521626.0,,,-6.2207453,106.6549281,https://maps.google.com/?cid=0x0:0xbe1a2ff9a25b7b24,
supermarket,supermarket,Kec. Wanokaka,"Kabupaten Sumba Barat, Nusa Tenggara Tim.","Kabupaten Sumba Barat, Nusa Tenggara Tim.",NUSA TENGGARA TIMUR,,Indonesia,,,,-9.7227274,119.4528333,https://maps.google.com/?cid=0x0:0xb894aaab28ba27d5,
supermarket,Toko bahan makanan,Cahaya Anugrah,"7C42+XCP, Rua, Kec. Wanokaka, Kabupaten Sumba Barat, Nusa Tenggara Tim.","Kabupaten Sumba Barat, Nusa Tenggara Tim.",NUSA TENGGARA TIMUR,,Indonesia,,,,-9.7425476,119.4010876,https://maps.google.com/?cid=0x0:0x39a3381a0c32248,
supermarket,Toko bahan makanan,PARIS INDAH,"793X+MR6, Unnamed Road, Rua, Kec. Wanokaka, Kabupaten Sumba Barat, Nusa Tenggara Tim.","Kabupaten Sumba Barat, Nusa Tenggara Tim.",NUSA TENGGARA TIMUR,,Indonesia,81335773657.0,,,-9.7458319,119.3995147,https://maps.google.com/?cid=0x0:0x89e1be79cbf3386d,
supermarket,Toko Mebel,Mandiri Wanokaka,"Tara Manu, Kec. Wanokaka, Kabupaten Sumba Barat, Nusa Tenggara Tim.","Kabupaten Sumba Barat, Nusa Tenggara Tim.",NUSA TENGGARA TIMUR,,Indonesia,81286251993.0,,,-9.7064702,119.4542642,https://maps.google.com/?cid=0x0:0x8c7c0a11d10c1cfe,
supermarket,Toko bahan makanan,KIOS HIDUP INDAH,"792W+479, Unnamed Road, Rua, Kec. Wanokaka, Kabupaten Sumba Barat, Nusa Tenggara Tim.","Kabupaten Sumba Barat, Nusa Tenggara Tim.",NUSA TENGGARA TIMUR,,Indonesia,82237138998.0,,,-9.7497087,119.3957442,https://maps.google.com/?cid=0x0:0x82a36d5ccea66d73,
supermarket,Toko bahan makanan,TOKO CAHAYA ANUGERA,"6CQ7+VFJ, Jl. Pantai, Rua, Kec. Wanokaka, Kabupaten Sumba Barat, Nusa Tenggara Tim.","Kabupaten Sumba Barat, Nusa Tenggara Tim.",NUSA TENGGARA TIMUR,,Indonesia,,,,-9.7602826,119.4136451,https://maps.google.com/?cid=0x0:0xc7a713a73aace533,
supermarket,Toko bahan makanan,BODUNG,"8F5V+V89, Hupu Mada, Kec. Wanokaka, Kabupaten Sumba Barat, Nusa Tenggara Tim.","Kabupaten Sumba Barat, Nusa Tenggara Tim.",NUSA TENGGARA TIMUR,,Indonesia,,,,-9.6903487,119.4933682,https://maps.google.com/?cid=0x0:0x9edc61139af987aa,
supermarket,Kios,KIOS GERY LAGA,"7FF2+PWQ, Bali Loku, Kec. Wanokaka, Kabupaten Sumba Barat, Nusa Tenggara Tim.","Kabupaten Sumba Barat, Nusa Tenggara Tim.",NUSA TENGGARA TIMUR,,Indonesia,81237268259.0,,,-9.7251683,119.4528242,https://maps.google.com/?cid=0x0:0x18de0f6e4fb2eb22,
supermarket,supermarket,Kios ladies,"69CQ+3HM, Hoba Wawi, Kec. Wanokaka, Kabupaten Sumba Barat, Nusa Tenggara Tim.","Kabupaten Sumba Barat, Nusa Tenggara Tim.",NUSA TENGGARA TIMUR,,Indonesia,,,,-9.7797811,119.3889082,https://maps.google.com/?cid=0x0:0xeeab39c398dafb91,
supermarket,Toko bahan makanan,Kios ajib,"7FX3+4X3, Tara Manu, Kec. Wanokaka, Kabupaten Sumba Barat, Nusa Tenggara Tim.","Kabupaten Sumba Barat, Nusa Tenggara Tim.",NUSA TENGGARA TIMUR,,Indonesia,82340284449.0,,,-9.702717,119.4552831,https://maps.google.com/?cid=0x0:0x2cf609e1c018d808,
supermarket,Toko bahan makanan,TOKO YAYAN YENTY,"792X+83C, Rua, Kec. Wanokaka, Kabupaten Sumba Barat, Nusa Tenggara Tim.","Kabupaten Sumba Barat, Nusa Tenggara Tim.",NUSA TENGGARA TIMUR,,Indonesia,,,,-9.7491977,119.3976348,https://maps.google.com/?cid=0x0:0x55e56d7b854787bf,
supermarket,Tujuan Wisata,Watubellar,"6CH2+XWM, Unnamed Road, Rua, Wanokaka, West Sumba Regency, East Nusa Tenggara","Kabupaten Sumba Barat, Nusa Tenggara Tim.",NUSA TENGGARA TIMUR,,Indonesia,,,,-9.770051,119.4039412,https://maps.google.com/?cid=0x0:0x7968c699df18faa4,
supermarket,Toko bahan makanan,Kios Hafa,"Kios Hafa Samping Masjid Nurul, Tara Manu, Kec. Wanokaka, Kabupaten Sumba Barat, Nusa Tenggara Tim. 87212","Tara Manu, Kec. Wanokaka, Kabupaten Sumba Barat",NUSA TENGGARA TIMUR,87212.0,Indonesia,812862519933.0,,,-9.706897,119.4547656,https://maps.google.com/?cid=0x0:0xbd6587c10312466a,
supermarket,Minimarket,Ana Paga,"Hoba Wawi, Kecamatan Hobawawi, Kabupaten Sumba Barat, Nusa Tenggara Tim. 87272","Kecamatan Hobawawi, Kabupaten Sumba Barat",NUSA TENGGARA TIMUR,87272.0,Indonesia,82146875556.0,,,-9.7558001,119.3887188,https://maps.google.com/?cid=0x0:0x7f990996c476d5e6,
supermarket,Toko umum,Rumah Bapa yosi,"7FM3+32C, Tara Manu, Kec. Wanokaka, Kabupaten Sumba Barat, Nusa Tenggara Tim.","Kabupaten Sumba Barat, Nusa Tenggara Tim.",NUSA TENGGARA TIMUR,,Indonesia,,,,-9.7173201,119.4525168,https://maps.google.com/?cid=0x0:0xc0899d61f682f582,
supermarket,Toko bahan makanan,Pangkas Mawuregi,"7FC3+5RX, Bali Loku, Kec. Wanokaka, Kabupaten Sumba Barat, Nusa Tenggara Tim.","Kabupaten Sumba Barat, Nusa Tenggara Tim.",NUSA TENGGARA TIMUR,,Indonesia,81386709752.0,,,-9.7295135,119.45461,https://maps.google.com/?cid=0x0:0x1ee39da4d62574ea,
supermarket,supermarket,Adhy house,"Jl.lintas nihi Sumba, Hoba Wawi, Kec. Wanokaka, Kabupaten Sumba Barat, Nusa Tenggara Tim.","Kabupaten Sumba Barat, Nusa Tenggara Tim.",NUSA TENGGARA TIMUR,,Indonesia,,,,-9.7776308,119.3762222,https://maps.google.com/?cid=0x0:0x2c57cf52ff65108e,
supermarket,Minimarket,KIOS OLI MILLA(ZAKA),"7FG2+3V9, Bali Loku, Kec. Wanokaka, Kabupaten Sumba Barat, Nusa Tenggara Tim.","Kabupaten Sumba Barat, Nusa Tenggara Tim.",NUSA TENGGARA TIMUR,,Indonesia,,,,-9.7248231,119.4522398,https://maps.google.com/?cid=0x0:0xee901b6445e20259,
supermarket,Toko umum,Bapa elsi hobajangi,"7F6R+J68, Bali Loku, Kec. Wanokaka, Kabupaten Sumba Barat, Nusa Tenggara Tim.","Kabupaten Sumba Barat, Nusa Tenggara Tim.",NUSA TENGGARA TIMUR,,Indonesia,,,,-9.7382988,119.4915091,https://maps.google.com/?cid=0x0:0x6c6f357828cef521,
supermarket,Toko Swalayan,Toko Mama Tia,"7C52+WF9, Jln Raya, Gaura, Kec. Lamboya, Kabupaten Sumba Barat, Nusa Tenggara Tim.","Kabupaten Sumba Barat, Nusa Tenggara Tim.",NUSA TENGGARA TIMUR,,Indonesia,,,,-9.740218,119.4012413,https://maps.google.com/?cid=0x0:0x80013d9440db0c31,
supermarket,Toko umum,Toko Ahong,"7C52+PF3, Ringu Rara, Kec. Lamboya, Kabupaten Sumba Barat, Nusa Tenggara Tim.","Kabupaten Sumba Barat, Nusa Tenggara Tim.",NUSA TENGGARA TIMUR,,Indonesia,,,,-9.7407269,119.4011595,https://maps.google.com/?cid=0x0:0xa2fd219cad17b521,
supermarket,supermarket,"Bobocabin Umarato, Sumba","Jl. Rua-Wanokaka No. 7, Pahola, Kec. Wanokaka, Kabupaten Sumba Barat, Nusa Tenggara Tim. 87272","Pahola, Kec. Wanokaka, Kabupaten Sumba Barat",NUSA TENGGARA TIMUR,87272.0,Indonesia,81120022864.0,,,-9.7534168,119.413178,https://maps.google.com/?cid=0x0:0x8429f2c37c7984c5,
supermarket,supermarket,Three Queen Villa and Homestay,"7F42+W7, Wai Hura, Kec. Wanokaka, Kabupaten Sumba Barat, Nusa Tenggara Tim.","Kabupaten Sumba Barat, Nusa Tenggara Tim.",NUSA TENGGARA TIMUR,,Indonesia,87865507477.0,,,-9.7430813,119.4506213,https://maps.google.com/?cid=0x0:0xccaae4f6d9e697e7,
supermarket,supermarket,THE VILLAGE INN Rua Beach,"Rua 2, Kec. Wanokaka, Kabupaten Sumba Barat, Nusa Tenggara Tim.","Kabupaten Sumba Barat, Nusa Tenggara Tim.",NUSA TENGGARA TIMUR,,Indonesia,8118632632.0,,,-9.7640069,119.4133303,https://maps.google.com/?cid=0x0:0x6bbc16eb8b8a825e,
supermarket,supermarket,Lambo homestay,"79J5+923, Unnamed Road, Kabu Karudi, Lamboya, West Sumba Regency, East Nusa Tenggara","Kabupaten Sumba Barat, Nusa Tenggara Tim.",NUSA TENGGARA TIMUR,,Indonesia,82359397589.0,,,-9.719103,119.3575402,https://maps.google.com/?cid=0x0:0xb56c4938e5a404ff,
supermarket,Toko umum,Toko Teratai,"797V+27J, Ringu Rara, Kec. Lamboya, Kabupaten Sumba Barat, Nusa Tenggara Tim.","Kabupaten Sumba Barat, Nusa Tenggara Tim.",NUSA TENGGARA TIMUR,,Indonesia,,,,-9.7374048,119.3931455,https://maps.google.com/?cid=0x0:0x29af0769cbdf0a40,
supermarket,supermarket,Nihiwatu Beach,Nusa Tenggara Tim.,Nusa Tenggara Tim.,NUSA TENGGARA TIMUR,,Indonesia,,,,-9.7720795,119.3682249,https://maps.google.com/?cid=0x0:0x54c747e3fc22ac63,
supermarket,supermarket,Kec. Lamboya,"Kabupaten Sumba Barat, Nusa Tenggara Tim.","Kabupaten Sumba Barat, Nusa Tenggara Tim.",NUSA TENGGARA TIMUR,,Indonesia,,,,-9.7205484,119.35646,https://maps.google.com/?cid=0x0:0x5968d2d2a2f91860,
supermarket,Toko,ALESS MART,"78CW+MJ3, Laboya Bawa, Kec. Lamboya, Kabupaten Sumba Barat, Nusa Tenggara Tim.","Kabupaten Sumba Barat, Nusa Tenggara Tim.",NUSA TENGGARA TIMUR,,Indonesia,,,,-9.7283747,119.3465343,https://maps.google.com/?cid=0x0:0x91d58cdd01cb1d46,
supermarket,Kios,kios Usaha Baru,"79H8+477, Kabu Karudi, Kec. Lamboya, Kabupaten Sumba Barat, Nusa Tenggara Tim.","Kabupaten Sumba Barat, Nusa Tenggara Tim.",NUSA TENGGARA TIMUR,,Indonesia,82324498869.0,,,-9.7222151,119.3656846,https://maps.google.com/?cid=0x0:0xe0d5c0c47232c2e2,
supermarket,Toko umum,Toko Ahong,"7C52+PF3, Ringu Rara, Kec. Lamboya, Kabupaten Sumba Barat, Nusa Tenggara Tim.","Kabupaten Sumba Barat, Nusa Tenggara Tim.",NUSA TENGGARA TIMUR,,Indonesia,,,,-9.7407269,119.4011595,https://maps.google.com/?cid=0x0:0xa2fd219cad17b521,
supermarket,Toko Swalayan,Toko Mama Tia,"7C52+WF9, Jln Raya, Gaura, Kec. Lamboya, Kabupaten Sumba Barat, Nusa Tenggara Tim.","Kabupaten Sumba Barat, Nusa Tenggara Tim.",NUSA TENGGARA TIMUR,,Indonesia,,,,-9.740218,119.4012413,https://maps.google.com/?cid=0x0:0x80013d9440db0c31,
supermarket,Toko umum,Toko Teratai,"797V+27J, Ringu Rara, Kec. Lamboya, Kabupaten Sumba Barat, Nusa Tenggara Tim.","Kabupaten Sumba Barat, Nusa Tenggara Tim.",NUSA TENGGARA TIMUR,,Indonesia,,,,-9.7374048,119.3931455,https://maps.google.com/?cid=0x0:0x29af0769cbdf0a40,
supermarket,Toko,INDRA MART,"994X+3FG, Unnamed Road, Wee Karou, Kec. Loli, Kabupaten Sumba Barat, Nusa Tenggara Tim.","Kabupaten Sumba Barat, Nusa Tenggara Tim.",NUSA TENGGARA TIMUR,,Indonesia,81237378379.0,,,-9.6448216,119.3987127,https://maps.google.com/?cid=0x0:0x21c917f934388713,
supermarket,Toko Swalayan,Barahahoro,"797P+WQ2, Ringu Rara, Kec. Lamboya, Kabupaten Sumba Barat, Nusa Tenggara Tim.","Kabupaten Sumba Barat, Nusa Tenggara Tim.",NUSA TENGGARA TIMUR,,Indonesia,,,,-9.7352135,119.3868983,https://maps.google.com/?cid=0x0:0xb712a30f57990f2e,
supermarket,Toko bahan makanan,PARIS INDAH,"793X+MR6, Unnamed Road, Rua, Kec. Wanokaka, Kabupaten Sumba Barat, Nusa Tenggara Tim.","Kabupaten Sumba Barat, Nusa Tenggara Tim.",NUSA TENGGARA TIMUR,,Indonesia,81335773657.0,,,-9.7458319,119.3995147,https://maps.google.com/?cid=0x0:0x89e1be79cbf3386d,
supermarket,Toko umum,Toko milan,"789V+RWC, Laboya Bawa, Kec. Lamboya, Kabupaten Sumba Barat, Nusa Tenggara Tim.","Kabupaten Sumba Barat, Nusa Tenggara Tim.",NUSA TENGGARA TIMUR,,Indonesia,,,,-9.730446,119.3447537,https://maps.google.com/?cid=0x0:0x5e6d0f2c47bf8fed,
supermarket,Toko Swalayan,Kios ana paga,"79H4+QHP, Kabu Karudi, Kec. Lamboya, Kabupaten Sumba Barat, Nusa Tenggara Tim.","Kabupaten Sumba Barat, Nusa Tenggara Tim.",NUSA TENGGARA TIMUR,,Indonesia,,,,-9.7205484,119.35646,https://maps.google.com/?cid=0x0:0x159f96fb683050e0,
supermarket,Toko bahan makanan,Cahaya Anugrah,"7C42+XCP, Rua, Kec. Wanokaka, Kabupaten Sumba Barat, Nusa Tenggara Tim.","Kabupaten Sumba Barat, Nusa Tenggara Tim.",NUSA TENGGARA TIMUR,,Indonesia,,,,-9.7425476,119.4010876,https://maps.google.com/?cid=0x0:0x39a3381a0c32248,
supermarket,Toko bahan makanan,Kios Lolo li'i,"69VQ+GC9, Watu Karere, Kec. Lamboya, Kabupaten Sumba Barat, Nusa Tenggara Tim.","Kabupaten Sumba Barat, Nusa Tenggara Tim.",NUSA TENGGARA TIMUR,,Indonesia,,,,-9.7562217,119.3886013,https://maps.google.com/?cid=0x0:0x1eeca1861060abfb,
supermarket,Toko sembako pemerintah,Kios Lethisya,"798M+RCR, Ringu Rara, Kec. Lamboya, Kabupaten Sumba Barat, Nusa Tenggara Tim.","Kabupaten Sumba Barat, Nusa Tenggara Tim.",NUSA TENGGARA TIMUR,,Indonesia,,,,-9.7328867,119.38352,https://maps.google.com/?cid=0x0:0x45bf964cde68f948,
supermarket,Toko Swalayan,Usaha Tersado Sejahtera,"Kabu Karudi, Kec. Lamboya, Kabupaten Sumba Barat, Nusa Tenggara Tim. 87271","Kec. Lamboya, Kabupaten Sumba Barat",NUSA TENGGARA TIMUR,87271.0,Indonesia,,,,-9.7245793,119.3654389,https://maps.google.com/?cid=0x0:0x7f6f549bbe08dbca,
supermarket,supermarket,Hanis Yailo Rakta,"7949+7JQ, Watu Karere, Kec. Lamboya, Kabupaten Sumba Barat, Nusa Tenggara Tim.","Kabupaten Sumba Barat, Nusa Tenggara Tim.",NUSA TENGGARA TIMUR,,Indonesia,82247256268.0,,,-9.7444534,119.3691137,https://maps.google.com/?cid=0x0:0x1020eeac4872b0d8,
supermarket,Penginapan,Kharisma BTN 2,"Jalan Masuk Perumahan BTN, Kec. Kota Waikabubak, Nusa Tenggara Tim. 87284",Kec. Kota Waikabubak,NUSA TENGGARA TIMUR,87284.0,Indonesia,81233939988.0,,,-9.6534956,119.3878889,https://maps.google.com/?cid=0x0:0xe8a41761068cf0e5,
supermarket,Kios,Kios TATIANA,"Lolowo, Kabu Karudi, Kec. Lamboya, Kabupaten Sumba Barat, Nusa Tenggara Tim. 87271","Kabu Karudi, Kec. Lamboya, Kabupaten Sumba Barat",NUSA TENGGARA TIMUR,87271.0,Indonesia,82139222018.0,,,-9.7238196,119.3509336,https://maps.google.com/?cid=0x0:0x38aabed7a883fb0f,
supermarket,Minimarket,KIOS MOLAS,"89VP+Q9F, Jl.Wee Karou, Lodapare, Wee Karou, Kec. Loli, Kabupaten Sumba Barat, Nusa Tenggara Tim.","Kabupaten Sumba Barat, Nusa Tenggara Tim.",NUSA TENGGARA TIMUR,,Indonesia,81337069488.0,,,-9.655565,119.3859095,https://maps.google.com/?cid=0x0:0x2674cc470edd4e35,
supermarket,supermarket,AtinOlshop,"799Q+8CX, Rajaka, Kec. Lamboya, Kabupaten Sumba Barat, Nusa Tenggara Tim.","Kabupaten Sumba Barat, Nusa Tenggara Tim.",NUSA TENGGARA TIMUR,,Indonesia,,,,-9.7316275,119.3885945,https://maps.google.com/?cid=0x0:0x5e89fe9298320701,
supermarket,Toko bahan makanan,KIOS HIDUP INDAH,"792W+479, Unnamed Road, Rua, Kec. Wanokaka, Kabupaten Sumba Barat, Nusa Tenggara Tim.","Kabupaten Sumba Barat, Nusa Tenggara Tim.",NUSA TENGGARA TIMUR,,Indonesia,82237138998.0,,,-9.7497087,119.3957442,https://maps.google.com/?cid=0x0:0x82a36d5ccea66d73,
supermarket,Toserba,Toko Liberti,"9C98+V8C, Kp. Baru, Kec. Kota Waikabubak, Kabupaten Sumba Barat, Nusa Tenggara Tim.","Kabupaten Sumba Barat, Nusa Tenggara Tim.",NUSA TENGGARA TIMUR,,Indonesia,,,,-9.6303133,119.4157811,https://maps.google.com/?cid=0x0:0x8cacd8e7b6bf023a,
supermarket,Toko bahan makanan,LESTARI GROCERY STORE,"99JJ+7RW, Jl. Ahmad Yani, Soba Wawi, Kec. Loli, Kabupaten Sumba Barat, Nusa Tenggara Tim.","Kabupaten Sumba Barat, Nusa Tenggara Tim.",NUSA TENGGARA TIMUR,,Indonesia,,,,-9.6190688,119.3819369,https://maps.google.com/?cid=0x0:0x258e6cb259965629,
supermarket,Toko Swalayan,Simphony,"9C76+9CX, Maliti, Kec. Kota Waikabubak, Kabupaten Sumba Barat, Nusa Tenggara Tim.","Kabupaten Sumba Barat, Nusa Tenggara Tim.",NUSA TENGGARA TIMUR,,Indonesia,,,,-9.6365234,119.4111112,https://maps.google.com/?cid=0x0:0xdcf20d73641513e6,
supermarket,Toko,Galery 2,"9C73+9Q4, Jl. Pisang, Wailiang, Kec. Kota Waikabubak, Kabupaten Sumba Barat, Nusa Tenggara Tim.","Kabupaten Sumba Barat, Nusa Tenggara Tim.",NUSA TENGGARA TIMUR,,Indonesia,,,,-9.6366137,119.4044553,https://maps.google.com/?cid=0x0:0xc9890c807a47cc44,
supermarket,Pasar,Pasar Baru Waikabubak,"994Q+FG4, Wee Karou, Kec. Loli, Kabupaten Sumba Barat, Nusa Tenggara Tim.","Kabupaten Sumba Barat, Nusa Tenggara Tim.",NUSA TENGGARA TIMUR,,Indonesia,,,,-9.6438664,119.3888321,https://maps.google.com/?cid=0x0:0x8fdddfd1abee0ac7,
supermarket,Kios,Kios Ramayana,"99GV+H5H, Jl. Adhyaksa, Pada Eweta, Kec. Kota Waikabubak, Kabupaten Sumba Barat, Nusa Tenggara Tim.","Kabupaten Sumba Barat, Nusa Tenggara Tim.",NUSA TENGGARA TIMUR,,Indonesia,,,,-9.6236458,119.3934049,https://maps.google.com/?cid=0x0:0xfdba3cb6913da929,
supermarket,Toko bahan makanan,Toko Karya Agung,"Jl. Ahmad Yani, Komerda, Kec. Kota Waikabubak, Kabupaten Sumba Barat, Nusa Tenggara Tim.","Kabupaten Sumba Barat, Nusa Tenggara Tim.",NUSA TENGGARA TIMUR,,Indonesia,38721033.0,,,-9.6330306,119.4111382,https://maps.google.com/?cid=0x0:0xe93b82eea4e94625,
supermarket,supermarket,Kec. Kota Waikabubak,"Kabupaten Sumba Barat, Nusa Tenggara Tim.","Kabupaten Sumba Barat, Nusa Tenggara Tim.",NUSA TENGGARA TIMUR,,Indonesia,,,,-9.6318508,119.4116981,https://maps.google.com/?cid=0x0:0xc0a3b8deb8dcb273,
supermarket,Toko bahan makanan,Toko Karya Agung,"Jl. Ahmad Yani, Komerda, Kec. Kota Waikabubak, Kabupaten Sumba Barat, Nusa Tenggara Tim.","Kabupaten Sumba Barat, Nusa Tenggara Tim.",NUSA TENGGARA TIMUR,,Indonesia,38721033.0,,,-9.6330306,119.4111382,https://maps.google.com/?cid=0x0:0xe93b82eea4e94625,
supermarket,Toko Swalayan,Toko Citra Raya,"9C87+MMW, Kp. Sawah, Kec. Kota Waikabubak, Kabupaten Sumba Barat, Nusa Tenggara Tim.","Kabupaten Sumba Barat, Nusa Tenggara Tim.",NUSA TENGGARA TIMUR,,Indonesia,21515.0,,,-9.6332537,119.4141967,https://maps.google.com/?cid=0x0:0xc083d8a255cc1d52,
supermarket,Pasar,Pasar Baru Waikabubak,"994Q+FG4, Wee Karou, Kec. Loli, Kabupaten Sumba Barat, Nusa Tenggara Tim.","Kabupaten Sumba Barat, Nusa Tenggara Tim.",NUSA TENGGARA TIMUR,,Indonesia,,,,-9.6438664,119.3888321,https://maps.google.com/?cid=0x0:0x8fdddfd1abee0ac7,
supermarket,Toserba,Toko Liberti,"9C98+V8C, Kp. Baru, Kec. Kota Waikabubak, Kabupaten Sumba Barat, Nusa Tenggara Tim.","Kabupaten Sumba Barat, Nusa Tenggara Tim.",NUSA TENGGARA TIMUR,,Indonesia,,,,-9.6303133,119.4157811,https://maps.google.com/?cid=0x0:0x8cacd8e7b6bf023a,
supermarket,Toko Swalayan,Toko Queen Rose,"9C86+26H, Jl. Pemuda, Maliti, Kec. Kota Waikabubak, Kabupaten Sumba Barat, Nusa Tenggara Tim.","Kabupaten Sumba Barat, Nusa Tenggara Tim.",NUSA TENGGARA TIMUR,,Indonesia,,,,-9.6349378,119.4106063,https://maps.google.com/?cid=0x0:0x10ed8d5dd94aebda,
supermarket,Toko bahan makanan,Toko Syalom,"9C86+RJ6, Komerda, Kec. Kota Waikabubak, Kabupaten Sumba Barat, Nusa Tenggara Tim.","Kabupaten Sumba Barat, Nusa Tenggara Tim.",NUSA TENGGARA TIMUR,,Indonesia,,,,-9.6329631,119.4115025,https://maps.google.com/?cid=0x0:0x36529538b7835549,
supermarket,Toko,Galery 2,"9C73+9Q4, Jl. Pisang, Wailiang, Kec. Kota Waikabubak, Kabupaten Sumba Barat, Nusa Tenggara Tim.","Kabupaten Sumba Barat, Nusa Tenggara Tim.",NUSA TENGGARA TIMUR,,Indonesia,,,,-9.6366137,119.4044553,https://maps.google.com/?cid=0x0:0xc9890c807a47cc44,
supermarket,supermarket,Pak Mart 3 Waikabubak,"9C76+JX5, Jl. Pemuda, Maliti, Kec. Kota Waikabubak, Kabupaten Sumba Barat, Nusa Tenggara Tim.","Kabupaten Sumba Barat, Nusa Tenggara Tim.",NUSA TENGGARA TIMUR,,Indonesia,81529734363.0,,,-9.6359855,119.4124784,https://maps.google.com/?cid=0x0:0xe88d41cfd4166063,
supermarket,Grosir,Toko sumba indah,"9C88+F22, Kp. Sawah, Kec. Kota Waikabubak, Kabupaten Sumba Barat, Nusa Tenggara Tim.","Kabupaten Sumba Barat, Nusa Tenggara Tim.",NUSA TENGGARA TIMUR,,Indonesia,,,,-9.6338699,119.4150306,https://maps.google.com/?cid=0x0:0x5137e43600ded9,
supermarket,Toko bahan makanan,Toko Imanuel,"9CC5+56X, Jl. Bhayangkara, Pada Eweta, Kec. Kota Waikabubak, Kabupaten Sumba Barat, Nusa Tenggara Tim.","Kabupaten Sumba Barat, Nusa Tenggara Tim.",NUSA TENGGARA TIMUR,,Indonesia,85239177888.0,,,-9.629505,119.4081231,https://maps.google.com/?cid=0x0:0x6f051f8ff1b34cdd,
supermarket,Toko Swalayan,Toko Queen Rose,"9C86+PF2, Jl. Ahmad Yani, Komerda, Kec. Kota Waikabubak, Kabupaten Sumba Barat, Nusa Tenggara Tim.","Kabupaten Sumba Barat, Nusa Tenggara Tim.",NUSA TENGGARA TIMUR,,Indonesia,82137595002.0,,,-9.6332388,119.411138,https://maps.google.com/?cid=0x0:0xd592effdfce029fe,
supermarket,Toko bahan makanan,Hokky Store 2,"9CC5+2PM, Jl. Bhayangkara, Komerda, Kec. Kota Waikabubak, Kabupaten Sumba Barat, Nusa Tenggara Tim.","Kabupaten Sumba Barat, Nusa Tenggara Tim.",NUSA TENGGARA TIMUR,,Indonesia,81230740690.0,,,-9.6299126,119.4093125,https://maps.google.com/?cid=0x0:0x7ebf98210da6d2ab,
supermarket,Toko bahan makanan,Toko SARINA,"Jl. Ahmad Yani No.27, Komerda, Kec. Kota Waikabubak, Kabupaten Sumba Barat, Nusa Tenggara Tim.","Kabupaten Sumba Barat, Nusa Tenggara Tim.",NUSA TENGGARA TIMUR,,Indonesia,81337921337.0,,,-9.6335574,119.4113209,https://maps.google.com/?cid=0x0:0x6c1e846bea137f83,
supermarket,Pusat Perbelanjaan,Toko Rajawali,"9C76+QQP, Maliti, Kec. Kota Waikabubak, Kabupaten Sumba Barat, Nusa Tenggara Tim.","Kabupaten Sumba Barat, Nusa Tenggara Tim.",NUSA TENGGARA TIMUR,,Indonesia,85253468666.0,,,-9.6355483,119.4119417,https://maps.google.com/?cid=0x0:0xde52c67a9c9045b,
supermarket,Minimarket,Toko fokus,"Jl. Ahmad Yani No.48, Wailiang, Kec. Kota Waikabubak, Kabupaten Sumba Barat, Nusa Tenggara Tim.","Kabupaten Sumba Barat, Nusa Tenggara Tim.",NUSA TENGGARA TIMUR,,Indonesia,82145125081.0,,,-9.6345078,119.4096641,https://maps.google.com/?cid=0x0:0xbd324a24591542a3,
supermarket,Toko,Toko Namu Ole,"9CC5+583, Jl. Bhayangkara, Komerda, Kec. Kota Waikabubak, Kabupaten Sumba Barat, Nusa Tenggara Tim.","Kabupaten Sumba Barat, Nusa Tenggara Tim.",NUSA TENGGARA TIMUR,,Indonesia,,,,-9.6297233,119.4090439,https://maps.google.com/?cid=0x0:0xfd60d1ae715f50a,
supermarket,Minimarket,Indomaret A Yani Waikabubak,"9C65+257, Jl. Cakrawala, Wailiang, Kec. Kota Waikabubak, Kabupaten Sumba Barat, Nusa Tenggara Tim.","Kabupaten Sumba Barat, Nusa Tenggara Tim.",NUSA TENGGARA TIMUR,,Indonesia,,,,-9.6398461,119.4078453,https://maps.google.com/?cid=0x0:0xc4c3d500ef46c94a,
supermarket,Toko bahan makanan,Toko Mitra,"9C75+4RR, Maliti, Kec. Kota Waikabubak, Kabupaten Sumba Barat, Nusa Tenggara Tim.","Kabupaten Sumba Barat, Nusa Tenggara Tim.",NUSA TENGGARA TIMUR,,Indonesia,,,,-9.6371439,119.4095106,https://maps.google.com/?cid=0x0:0xce21f11c0481e5cd,
supermarket,Toko Swalayan,Toko Mutiara,"Maliti, Kec. Kota Waikabubak, Kabupaten Sumba Barat, Nusa Tenggara Tim.","Kabupaten Sumba Barat, Nusa Tenggara Tim.",NUSA TENGGARA TIMUR,,Indonesia,,,,-9.6341014,119.4103273,https://maps.google.com/?cid=0x0:0x4a0982d6adc8abc3,
supermarket,Toko Bahan Bangunan,Toko Makmur,"Jl. Ahmad Yani No.3, Komerda, Kec. Kota Waikabubak, Kabupaten Sumba Barat, Nusa Tenggara Tim. 87211","Komerda, Kec. Kota Waikabubak, Kabupaten Sumba Barat",NUSA TENGGARA TIMUR,87211.0,Indonesia,81339020447.0,,,-9.6323297,119.411732,https://maps.google.com/?cid=0x0:0x70171ded7fc96b84,
supermarket,Minimarket,Alfamart Adiyaksa,"99HJ+9P2, Jl. Adyaksa, Pada Eweta, Kec. Kota Waikabubak, Kabupaten Sumba Barat, Nusa Tenggara Tim.","Kabupaten Sumba Barat, Nusa Tenggara Tim.",NUSA TENGGARA TIMUR,,Indonesia,,,,-9.6215937,119.3815144,https://maps.google.com/?cid=0x0:0x4d3752982f954d5b,
supermarket,Toko Swalayan,FRESCO (CV INDO TIMUR SEJAHTERA),"Jl. Ahmad Yani No.36, Maliti, Kec. Kota Waikabubak, Kabupaten Sumba Barat, Nusa Tenggara Tim. 87211","Maliti, Kec. Kota Waikabubak, Kabupaten Sumba Barat",NUSA TENGGARA TIMUR,87211.0,Indonesia,81298811881.0,,,-9.6340149,119.4104714,https://maps.google.com/?cid=0x0:0x434a8feb1af50c48,
supermarket,Toko Suvenir,KUSUKAMURA,"Belakang Apotik EZRI FARMA, Jalan Bhayangkara No.41, Komerda, Kab, Kp. Sawah, Kec. Kota Waikabubak, Kabupaten Sumba Barat, Nusa Tenggara Tim. 87211","Jalan Bhayangkara No.41, Komerda, Kab, Kp. Sawah, Kec. Kota Waikabubak, Kabupaten Sumba Barat",NUSA TENGGARA TIMUR,87211.0,Indonesia,81318211111.0,,,-9.6285034,119.406447,https://maps.google.com/?cid=0x0:0xb402610e0c741340,
supermarket,supermarket,Kec. Kota Waikabubak,"Kabupaten Sumba Barat, Nusa Tenggara Tim.","Kabupaten Sumba Barat, Nusa Tenggara Tim.",NUSA TENGGARA TIMUR,,Indonesia,,,,-9.6318508,119.4116981,https://maps.google.com/?cid=0x0:0xc0a3b8deb8dcb273,
supermarket,Toko bahan makanan,Toko Karya Agung,"Jl. Ahmad Yani, Komerda, Kec. Kota Waikabubak, Kabupaten Sumba Barat, Nusa Tenggara Tim.","Kabupaten Sumba Barat, Nusa Tenggara Tim.",NUSA TENGGARA TIMUR,,Indonesia,38721033.0,,,-9.6330306,119.4111382,https://maps.google.com/?cid=0x0:0xe93b82eea4e94625,
supermarket,Grosir,Toko Sinar Surya Utama,"9C85+2J2, Wailiang, Kec. Kota Waikabubak, Kabupaten Sumba Barat, Nusa Tenggara Tim.","Kabupaten Sumba Barat, Nusa Tenggara Tim.",NUSA TENGGARA TIMUR,,Indonesia,,,,-9.6349941,119.409021,https://maps.google.com/?cid=0x0:0x89b7a2f1d0722beb,
supermarket,Toko Swalayan,Toko Queen Rose,"9C86+26H, Jl. Pemuda, Maliti, Kec. Kota Waikabubak, Kabupaten Sumba Barat, Nusa Tenggara Tim.","Kabupaten Sumba Barat, Nusa Tenggara Tim.",NUSA TENGGARA TIMUR,,Indonesia,,,,-9.6349378,119.4106063,https://maps.google.com/?cid=0x0:0x10ed8d5dd94aebda,
supermarket,supermarket,Pak Mart 3 Waikabubak,"9C76+JX5, Jl. Pemuda, Maliti, Kec. Kota Waikabubak, Kabupaten Sumba Barat, Nusa Tenggara Tim.","Kabupaten Sumba Barat, Nusa Tenggara Tim.",NUSA TENGGARA TIMUR,,Indonesia,81529734363.0,,,-9.6359855,119.4124784,https://maps.google.com/?cid=0x0:0xe88d41cfd4166063,
supermarket,Pasar,Pasar Baru Waikabubak,"994Q+FG4, Wee Karou, Kec. Loli, Kabupaten Sumba Barat, Nusa Tenggara Tim.","Kabupaten Sumba Barat, Nusa Tenggara Tim.",NUSA TENGGARA TIMUR,,Indonesia,,,,-9.6438664,119.3888321,https://maps.google.com/?cid=0x0:0x8fdddfd1abee0ac7,
supermarket,Toko Swalayan,Toko Queen Rose,"9C86+PF2, Jl. Ahmad Yani, Komerda, Kec. Kota Waikabubak, Kabupaten Sumba Barat, Nusa Tenggara Tim.","Kabupaten Sumba Barat, Nusa Tenggara Tim.",NUSA TENGGARA TIMUR,,Indonesia,82137595002.0,,,-9.6332388,119.411138,https://maps.google.com/?cid=0x0:0xd592effdfce029fe,
supermarket,Toko bahan makanan,Toko Syalom,"9C86+RJ6, Komerda, Kec. Kota Waikabubak, Kabupaten Sumba Barat, Nusa Tenggara Tim.","Kabupaten Sumba Barat, Nusa Tenggara Tim.",NUSA TENGGARA TIMUR,,Indonesia,,,,-9.6329631,119.4115025,https://maps.google.com/?cid=0x0:0x36529538b7835549,
supermarket,Toko Swalayan,Toko Citra Raya,"9C87+MMW, Kp. Sawah, Kec. Kota Waikabubak, Kabupaten Sumba Barat, Nusa Tenggara Tim.","Kabupaten Sumba Barat, Nusa Tenggara Tim.",NUSA TENGGARA TIMUR,,Indonesia,21515.0,,,-9.6332537,119.4141967,https://maps.google.com/?cid=0x0:0xc083d8a255cc1d52,
supermarket,Toko bahan makanan,Toko Imanuel,"9CC5+56X, Jl. Bhayangkara, Pada Eweta, Kec. Kota Waikabubak, Kabupaten Sumba Barat, Nusa Tenggara Tim.","Kabupaten Sumba Barat, Nusa Tenggara Tim.",NUSA TENGGARA TIMUR,,Indonesia,85239177888.0,,,-9.629505,119.4081231,https://maps.google.com/?cid=0x0:0x6f051f8ff1b34cdd,
supermarket,Toko bahan makanan,Toko SARINA,"Jl. Ahmad Yani No.27, Komerda, Kec. Kota Waikabubak, Kabupaten Sumba Barat, Nusa Tenggara Tim.","Kabupaten Sumba Barat, Nusa Tenggara Tim.",NUSA TENGGARA TIMUR,,Indonesia,81337921337.0,,,-9.6335574,119.4113209,https://maps.google.com/?cid=0x0:0x6c1e846bea137f83,
supermarket,Toko,Galery 2,"9C73+9Q4, Jl. Pisang, Wailiang, Kec. Kota Waikabubak, Kabupaten Sumba Barat, Nusa Tenggara Tim.","Kabupaten Sumba Barat, Nusa Tenggara Tim.",NUSA TENGGARA TIMUR,,Indonesia,,,,-9.6366137,119.4044553,https://maps.google.com/?cid=0x0:0xc9890c807a47cc44,
supermarket,Grosir,Toko sumba indah,"9C88+F22, Kp. Sawah, Kec. Kota Waikabubak, Kabupaten Sumba Barat, Nusa Tenggara Tim.","Kabupaten Sumba Barat, Nusa Tenggara Tim.",NUSA TENGGARA TIMUR,,Indonesia,,,,-9.6338699,119.4150306,https://maps.google.com/?cid=0x0:0x5137e43600ded9,
supermarket,Toko bahan makanan,Hokky Store 2,"9CC5+2PM, Jl. Bhayangkara, Komerda, Kec. Kota Waikabubak, Kabupaten Sumba Barat, Nusa Tenggara Tim.","Kabupaten Sumba Barat, Nusa Tenggara Tim.",NUSA TENGGARA TIMUR,,Indonesia,81230740690.0,,,-9.6299126,119.4093125,https://maps.google.com/?cid=0x0:0x7ebf98210da6d2ab,
supermarket,Toko,Toko Namu Ole,"9CC5+583, Jl. Bhayangkara, Komerda, Kec. Kota Waikabubak, Kabupaten Sumba Barat, Nusa Tenggara Tim.","Kabupaten Sumba Barat, Nusa Tenggara Tim.",NUSA TENGGARA TIMUR,,Indonesia,,,,-9.6297233,119.4090439,https://maps.google.com/?cid=0x0:0xfd60d1ae715f50a,
supermarket,Toko bahan makanan,Toko Mitra,"9C75+4RR, Maliti, Kec. Kota Waikabubak, Kabupaten Sumba Barat, Nusa Tenggara Tim.","Kabupaten Sumba Barat, Nusa Tenggara Tim.",NUSA TENGGARA TIMUR,,Indonesia,,,,-9.6371439,119.4095106,https://maps.google.com/?cid=0x0:0xce21f11c0481e5cd,
supermarket,Toko Perlengkapan Rumah,Toko Dessa Ate,"Jl. Ahmad Yani No.21, Komerda, Kec. Kota Waikabubak, Kabupaten Sumba Barat, Nusa Tenggara Tim. 87212","Komerda, Kec. Kota Waikabubak, Kabupaten Sumba Barat",NUSA TENGGARA TIMUR,87212.0,Indonesia,81298811881.0,,,-9.6332942,119.411419,https://maps.google.com/?cid=0x0:0xe8eea1b85345ff,
supermarket,Minimarket,Toko fokus,"Jl. Ahmad Yani No.48, Wailiang, Kec. Kota Waikabubak, Kabupaten Sumba Barat, Nusa Tenggara Tim.","Kabupaten Sumba Barat, Nusa Tenggara Tim.",NUSA TENGGARA TIMUR,,Indonesia,82145125081.0,,,-9.6345078,119.4096641,https://maps.google.com/?cid=0x0:0xbd324a24591542a3,
supermarket,Toko,Toko Laris LAX,"Jl. Ahmad Yani No.85, Wailiang, Kec. Kota Waikabubak, Kabupaten Sumba Barat, Nusa Tenggara Tim.","Kabupaten Sumba Barat, Nusa Tenggara Tim.",NUSA TENGGARA TIMUR,,Indonesia,,,,-9.6356634,119.4090087,https://maps.google.com/?cid=0x0:0xd623a3c0890bc58b,
supermarket,supermarket,Nusa Tenggara Tim.,,Nusa Tenggara Tim.,NUSA TENGGARA TIMUR,,Indonesia,,,,-8.6573819,121.0793705,https://maps.google.com/?cid=0x0:0x1030bfbcaf71ae0,
supermarket,Toko bahan makanan,PAK mart,"F6RP+G4Q, Jl. Ahmad Yani, Waimangura, Kec. Wewewa Bar., Kabupaten Sumba Barat Daya, Nusa Tenggara Tim.","Kabupaten Sumba Barat Daya, Nusa Tenggara Tim.",NUSA TENGGARA TIMUR,,Indonesia,,,,-9.5086572,119.235364,https://maps.google.com/?cid=0x0:0x25051ec6c1ddae72,
supermarket,Kios,Kios Ramayana,"99GV+H5H, Jl. Adhyaksa, Pada Eweta, Kec. Kota Waikabubak, Kabupaten Sumba Barat, Nusa Tenggara Tim.","Kabupaten Sumba Barat, Nusa Tenggara Tim.",NUSA TENGGARA TIMUR,,Indonesia,,,,-9.6236458,119.3934049,https://maps.google.com/?cid=0x0:0xfdba3cb6913da929,
supermarket,Minimarket,Alfamart Adiyaksa,"99HJ+9P2, Jl. Adyaksa, Pada Eweta, Kec. Kota Waikabubak, Kabupaten Sumba Barat, Nusa Tenggara Tim.","Kabupaten Sumba Barat, Nusa Tenggara Tim.",NUSA TENGGARA TIMUR,,Indonesia,,,,-9.6215937,119.3815144,https://maps.google.com/?cid=0x0:0x4d3752982f954d5b,
supermarket,Minimarket,Indomaret A Yani Waikabubak,"9C65+257, Jl. Cakrawala, Wailiang, Kec. Kota Waikabubak, Kabupaten Sumba Barat, Nusa Tenggara Tim.","Kabupaten Sumba Barat, Nusa Tenggara Tim.",NUSA TENGGARA TIMUR,,Indonesia,,,,-9.6398461,119.4078453,https://maps.google.com/?cid=0x0:0xc4c3d500ef46c94a,
supermarket,Toko Swalayan,SARIBUNDO,"87W7+RHM, Matawai, Kec. Kota Waingapu, Kabupaten Sumba Timur, Nusa Tenggara Tim.","Kabupaten Sumba Timur, Nusa Tenggara Tim.",NUSA TENGGARA TIMUR,,Indonesia,85215000272.0,,,-9.6529141,120.2639165,https://maps.google.com/?cid=0x0:0xefd86591bf5ff343,
supermarket,Toko bahan makanan,PARIS INDAH,"793X+MR6, Unnamed Road, Rua, Kec. Wanokaka, Kabupaten Sumba Barat, Nusa Tenggara Tim.","Kabupaten Sumba Barat, Nusa Tenggara Tim.",NUSA TENGGARA TIMUR,,Indonesia,81335773657.0,,,-9.7458319,119.3995147,https://maps.google.com/?cid=0x0:0x89e1be79cbf3386d,
supermarket,Toko Mainan,Indonusa Terbit,"9C85+JV8, Jl Manda elu, Wailiang, Kec. Kota Waikabubak, Waikabubak,Sumba Barat, Nusa Tenggara Tim. 87212","Jl Manda elu, Wailiang, Kec. Kota Waikabubak, Waikabubak,Sumba Barat",NUSA TENGGARA TIMUR,87212.0,Indonesia,82226321333.0,,,-9.6334686,119.4097166,https://maps.google.com/?cid=0x0:0x30a5dfd327fbd6a2,
supermarket,Toko bahan makanan,INDOMARET AYANI WAIKABUBAK,"Jl. Ahmad Yani, Kalembu Ndara Mane, Kec. Kota Waikabubak, Kabupaten Sumba Barat, Nusa Tenggara Tim. 87214","Kalembu Ndara Mane, Kec. Kota Waikabubak, Kabupaten Sumba Barat",NUSA TENGGARA TIMUR,87214.0,Indonesia,,,,-9.5833048,119.3306789,https://maps.google.com/?cid=0x0:0x7c61afbd8c65d8e,
supermarket,supermarket,Kec. Kota Waikabubak,"Kabupaten Sumba Barat, Nusa Tenggara Tim.","Kabupaten Sumba Barat, Nusa Tenggara Tim.",NUSA TENGGARA TIMUR,,Indonesia,,,,-9.6318508,119.4116981,https://maps.google.com/?cid=0x0:0xc0a3b8deb8dcb273,
supermarket,Toko bahan makanan,Toko Karya Agung,"Jl. Ahmad Yani, Komerda, Kec. Kota Waikabubak, Kabupaten Sumba Barat, Nusa Tenggara Tim.","Kabupaten Sumba Barat, Nusa Tenggara Tim.",NUSA TENGGARA TIMUR,,Indonesia,38721033.0,,,-9.6330306,119.4111382,https://maps.google.com/?cid=0x0:0xe93b82eea4e94625,
supermarket,Grosir,Toko Sinar Surya Utama,"9C85+2J2, Wailiang, Kec. Kota Waikabubak, Kabupaten Sumba Barat, Nusa Tenggara Tim.","Kabupaten Sumba Barat, Nusa Tenggara Tim.",NUSA TENGGARA TIMUR,,Indonesia,,,,-9.6349941,119.409021,https://maps.google.com/?cid=0x0:0x89b7a2f1d0722beb,
supermarket,Toko Swalayan,Toko Queen Rose,"9C86+26H, Jl. Pemuda, Maliti, Kec. Kota Waikabubak, Kabupaten Sumba Barat, Nusa Tenggara Tim.","Kabupaten Sumba Barat, Nusa Tenggara Tim.",NUSA TENGGARA TIMUR,,Indonesia,,,,-9.6349378,119.4106063,https://maps.google.com/?cid=0x0:0x10ed8d5dd94aebda,
supermarket,supermarket,Pak Mart 3 Waikabubak,"9C76+JX5, Jl. Pemuda, Maliti, Kec. Kota Waikabubak, Kabupaten Sumba Barat, Nusa Tenggara Tim.","Kabupaten Sumba Barat, Nusa Tenggara Tim.",NUSA TENGGARA TIMUR,,Indonesia,81529734363.0,,,-9.6359855,119.4124784,https://maps.google.com/?cid=0x0:0xe88d41cfd4166063,
supermarket,Pasar,Pasar Baru Waikabubak,"994Q+FG4, Wee Karou, Kec. Loli, Kabupaten Sumba Barat, Nusa Tenggara Tim.","Kabupaten Sumba Barat, Nusa Tenggara Tim.",NUSA TENGGARA TIMUR,,Indonesia,,,,-9.6438664,119.3888321,https://maps.google.com/?cid=0x0:0x8fdddfd1abee0ac7,
supermarket,Toko Swalayan,Toko Queen Rose,"9C86+PF2, Jl. Ahmad Yani, Komerda, Kec. Kota Waikabubak, Kabupaten Sumba Barat, Nusa Tenggara Tim.","Kabupaten Sumba Barat, Nusa Tenggara Tim.",NUSA TENGGARA TIMUR,,Indonesia,82137595002.0,,,-9.6332388,119.411138,https://maps.google.com/?cid=0x0:0xd592effdfce029fe,
supermarket,Toko Swalayan,Toko Citra Raya,"9C87+MMW, Kp. Sawah, Kec. Kota Waikabubak, Kabupaten Sumba Barat, Nusa Tenggara Tim.","Kabupaten Sumba Barat, Nusa Tenggara Tim.",NUSA TENGGARA TIMUR,,Indonesia,21515.0,,,-9.6332537,119.4141967,https://maps.google.com/?cid=0x0:0xc083d8a255cc1d52,
supermarket,Toko bahan makanan,Toko Syalom,"9C86+RJ6, Komerda, Kec. Kota Waikabubak, Kabupaten Sumba Barat, Nusa Tenggara Tim.","Kabupaten Sumba Barat, Nusa Tenggara Tim.",NUSA TENGGARA TIMUR,,Indonesia,,,,-9.6329631,119.4115025,https://maps.google.com/?cid=0x0:0x36529538b7835549,
supermarket,Toko bahan makanan,Toko Imanuel,"9CC5+56X, Jl. Bhayangkara, Pada Eweta, Kec. Kota Waikabubak, Kabupaten Sumba Barat, Nusa Tenggara Tim.","Kabupaten Sumba Barat, Nusa Tenggara Tim.",NUSA TENGGARA TIMUR,,Indonesia,85239177888.0,,,-9.629505,119.4081231,https://maps.google.com/?cid=0x0:0x6f051f8ff1b34cdd,
supermarket,Toko,Galery 2,"9C73+9Q4, Jl. Pisang, Wailiang, Kec. Kota Waikabubak, Kabupaten Sumba Barat, Nusa Tenggara Tim.","Kabupaten Sumba Barat, Nusa Tenggara Tim.",NUSA TENGGARA TIMUR,,Indonesia,,,,-9.6366137,119.4044553,https://maps.google.com/?cid=0x0:0xc9890c807a47cc44,
supermarket,Toko bahan makanan,Toko SARINA,"Jl. Ahmad Yani No.27, Komerda, Kec. Kota Waikabubak, Kabupaten Sumba Barat, Nusa Tenggara Tim.","Kabupaten Sumba Barat, Nusa Tenggara Tim.",NUSA TENGGARA TIMUR,,Indonesia,81337921337.0,,,-9.6335574,119.4113209,https://maps.google.com/?cid=0x0:0x6c1e846bea137f83,
supermarket,Grosir,Toko sumba indah,"9C88+F22, Kp. Sawah, Kec. Kota Waikabubak, Kabupaten Sumba Barat, Nusa Tenggara Tim.","Kabupaten Sumba Barat, Nusa Tenggara Tim.",NUSA TENGGARA TIMUR,,Indonesia,,,,-9.6338699,119.4150306,https://maps.google.com/?cid=0x0:0x5137e43600ded9,
supermarket,Toko,Toko Namu Ole,"9CC5+583, Jl. Bhayangkara, Komerda, Kec. Kota Waikabubak, Kabupaten Sumba Barat, Nusa Tenggara Tim.","Kabupaten Sumba Barat, Nusa Tenggara Tim.",NUSA TENGGARA TIMUR,,Indonesia,,,,-9.6297233,119.4090439,https://maps.google.com/?cid=0x0:0xfd60d1ae715f50a,
supermarket,Toko bahan makanan,Toko Mitra,"9C75+4RR, Maliti, Kec. Kota Waikabubak, Kabupaten Sumba Barat, Nusa Tenggara Tim.","Kabupaten Sumba Barat, Nusa Tenggara Tim.",NUSA TENGGARA TIMUR,,Indonesia,,,,-9.6371439,119.4095106,https://maps.google.com/?cid=0x0:0xce21f11c0481e5cd,
supermarket,Minimarket,Toko fokus,"Jl. Ahmad Yani No.48, Wailiang, Kec. Kota Waikabubak, Kabupaten Sumba Barat, Nusa Tenggara Tim.","Kabupaten Sumba Barat, Nusa Tenggara Tim.",NUSA TENGGARA TIMUR,,Indonesia,82145125081.0,,,-9.6345078,119.4096641,https://maps.google.com/?cid=0x0:0xbd324a24591542a3,
supermarket,Toko bahan makanan,Hokky Store 2,"9CC5+2PM, Jl. Bhayangkara, Komerda, Kec. Kota Waikabubak, Kabupaten Sumba Barat, Nusa Tenggara Tim.","Kabupaten Sumba Barat, Nusa Tenggara Tim.",NUSA TENGGARA TIMUR,,Indonesia,81230740690.0,,,-9.6299126,119.4093125,https://maps.google.com/?cid=0x0:0x7ebf98210da6d2ab,
supermarket,Toko,Toko Romantis,"9C75+R94, Jl. Pisang, Wailiang, Kec. Kota Waikabubak, Kabupaten Sumba Barat, Nusa Tenggara Tim.","Kabupaten Sumba Barat, Nusa Tenggara Tim.",NUSA TENGGARA TIMUR,,Indonesia,,,,-9.6354918,119.4084662,https://maps.google.com/?cid=0x0:0xc8574d43583c7b72,
supermarket,Toko Swalayan,Simphony,"9C76+9CX, Maliti, Kec. Kota Waikabubak, Kabupaten Sumba Barat, Nusa Tenggara Tim.","Kabupaten Sumba Barat, Nusa Tenggara Tim.",NUSA TENGGARA TIMUR,,Indonesia,,,,-9.6365234,119.4111112,https://maps.google.com/?cid=0x0:0xdcf20d73641513e6,
supermarket,Toko,Toko Laris LAX,"Jl. Ahmad Yani No.85, Wailiang, Kec. Kota Waikabubak, Kabupaten Sumba Barat, Nusa Tenggara Tim.","Kabupaten Sumba Barat, Nusa Tenggara Tim.",NUSA TENGGARA TIMUR,,Indonesia,,,,-9.6356634,119.4090087,https://maps.google.com/?cid=0x0:0xd623a3c0890bc58b,
supermarket,supermarket,Nusa Tenggara Tim.,,Nusa Tenggara Tim.,NUSA TENGGARA TIMUR,,Indonesia,,,,-8.6573819,121.0793705,https://maps.google.com/?cid=0x0:0x1030bfbcaf71ae0,
supermarket,Toko bahan makanan,PAK mart,"F6RP+G4Q, Jl. Ahmad Yani, Waimangura, Kec. Wewewa Bar., Kabupaten Sumba Barat Daya, Nusa Tenggara Tim.","Kabupaten Sumba Barat Daya, Nusa Tenggara Tim.",NUSA TENGGARA TIMUR,,Indonesia,,,,-9.5086572,119.235364,https://maps.google.com/?cid=0x0:0x25051ec6c1ddae72,
supermarket,Minimarket,Alfamart Adiyaksa,"99HJ+9P2, Jl. Adyaksa, Pada Eweta, Kec. Kota Waikabubak, Kabupaten Sumba Barat, Nusa Tenggara Tim.","Kabupaten Sumba Barat, Nusa Tenggara Tim.",NUSA TENGGARA TIMUR,,Indonesia,,,,-9.6215937,119.3815144,https://maps.google.com/?cid=0x0:0x4d3752982f954d5b,
supermarket,Kios,Kios Ramayana,"99GV+H5H, Jl. Adhyaksa, Pada Eweta, Kec. Kota Waikabubak, Kabupaten Sumba Barat, Nusa Tenggara Tim.","Kabupaten Sumba Barat, Nusa Tenggara Tim.",NUSA TENGGARA TIMUR,,Indonesia,,,,-9.6236458,119.3934049,https://maps.google.com/?cid=0x0:0xfdba3cb6913da929,
supermarket,Minimarket,Indomaret A Yani Waikabubak,"9C65+257, Jl. Cakrawala, Wailiang, Kec. Kota Waikabubak, Kabupaten Sumba Barat, Nusa Tenggara Tim.","Kabupaten Sumba Barat, Nusa Tenggara Tim.",NUSA TENGGARA TIMUR,,Indonesia,,,,-9.6398461,119.4078453,https://maps.google.com/?cid=0x0:0xc4c3d500ef46c94a,
supermarket,Toko bahan makanan,PARIS INDAH,"793X+MR6, Unnamed Road, Rua, Kec. Wanokaka, Kabupaten Sumba Barat, Nusa Tenggara Tim.","Kabupaten Sumba Barat, Nusa Tenggara Tim.",NUSA TENGGARA TIMUR,,Indonesia,81335773657.0,,,-9.7458319,119.3995147,https://maps.google.com/?cid=0x0:0x89e1be79cbf3386d,
supermarket,Toko Swalayan,Toko Sinar Lombok,"Jl. Pisang No.8, Wailiang, Kec. Kota Waikabubak, Kabupaten Sumba Barat, Nusa Tenggara Tim.","Kabupaten Sumba Barat, Nusa Tenggara Tim.",NUSA TENGGARA TIMUR,,Indonesia,,,,-9.6371148,119.4041918,https://maps.google.com/?cid=0x0:0x6390f69552486683,
supermarket,Toko bahan makanan,INDOMARET AYANI WAIKABUBAK,"Jl. Ahmad Yani, Kalembu Ndara Mane, Kec. Kota Waikabubak, Kabupaten Sumba Barat, Nusa Tenggara Tim. 87214","Kalembu Ndara Mane, Kec. Kota Waikabubak, Kabupaten Sumba Barat",NUSA TENGGARA TIMUR,87214.0,Indonesia,,,,-9.5833048,119.3306789,https://maps.google.com/?cid=0x0:0x7c61afbd8c65d8e,
supermarket,Pusat Perbelanjaan,Pasar Inpres Lama,"9C75+W38, Wailiang, Kec. Kota Waikabubak, Kabupaten Sumba Barat, Nusa Tenggara Tim.","Kabupaten Sumba Barat, Nusa Tenggara Tim.",NUSA TENGGARA TIMUR,,Indonesia,81337897176.0,,,-9.6352221,119.4077139,https://maps.google.com/?cid=0x0:0x38ecfcd1492ea179,
supermarket,Toko bahan makanan,Toko Karya Agung,"Jl. Ahmad Yani, Komerda, Kec. Kota Waikabubak, Kabupaten Sumba Barat, Nusa Tenggara Tim.","Kabupaten Sumba Barat, Nusa Tenggara Tim.",NUSA TENGGARA TIMUR,,Indonesia,38721033.0,,,-9.6330306,119.4111382,https://maps.google.com/?cid=0x0:0xe93b82eea4e94625,
supermarket,supermarket,Nusa Tenggara Tim. 87214,"Kp. Baru, Kec. Kota Waikabubak, Kabupaten Sumba Barat, Nusa Tenggara Tim.","Kabupaten Sumba Barat, Nusa Tenggara Tim.",NUSA TENGGARA TIMUR,,Indonesia,,,,-9.6319416,119.4178502,https://maps.google.com/?cid=0x0:0xf74500f4f5161cf1,
supermarket,Grosir,Toko Sinar Surya Utama,"9C85+2J2, Wailiang, Kec. Kota Waikabubak, Kabupaten Sumba Barat, Nusa Tenggara Tim.","Kabupaten Sumba Barat, Nusa Tenggara Tim.",NUSA TENGGARA TIMUR,,Indonesia,,,,-9.6349941,119.409021,https://maps.google.com/?cid=0x0:0x89b7a2f1d0722beb,
supermarket,Toko bahan makanan,Toko Mitra,"9C75+4RR, Maliti, Kec. Kota Waikabubak, Kabupaten Sumba Barat, Nusa Tenggara Tim.","Kabupaten Sumba Barat, Nusa Tenggara Tim.",NUSA TENGGARA TIMUR,,Indonesia,,,,-9.6371439,119.4095106,https://maps.google.com/?cid=0x0:0xce21f11c0481e5cd,
supermarket,Minimarket,Toko fokus,"Jl. Ahmad Yani No.48, Wailiang, Kec. Kota Waikabubak, Kabupaten Sumba Barat, Nusa Tenggara Tim.","Kabupaten Sumba Barat, Nusa Tenggara Tim.",NUSA TENGGARA TIMUR,,Indonesia,82145125081.0,,,-9.6345078,119.4096641,https://maps.google.com/?cid=0x0:0xbd324a24591542a3,
supermarket,Minimarket,Indomaret A Yani Waikabubak,"9C65+257, Jl. Cakrawala, Wailiang, Kec. Kota Waikabubak, Kabupaten Sumba Barat, Nusa Tenggara Tim.","Kabupaten Sumba Barat, Nusa Tenggara Tim.",NUSA TENGGARA TIMUR,,Indonesia,,,,-9.6398461,119.4078453,https://maps.google.com/?cid=0x0:0xc4c3d500ef46c94a,
supermarket,Pusat Perbelanjaan,Pasar Inpres Lama,"9C75+W38, Wailiang, Kec. Kota Waikabubak, Kabupaten Sumba Barat, Nusa Tenggara Tim.","Kabupaten Sumba Barat, Nusa Tenggara Tim.",NUSA TENGGARA TIMUR,,Indonesia,81337897176.0,,,-9.6352221,119.4077139,https://maps.google.com/?cid=0x0:0x38ecfcd1492ea179,
supermarket,Toko bahan makanan,INDOMARET AYANI WAIKABUBAK,"Jl. Ahmad Yani, Kalembu Ndara Mane, Kec. Kota Waikabubak, Kabupaten Sumba Barat, Nusa Tenggara Tim. 87214","Kalembu Ndara Mane, Kec. Kota Waikabubak, Kabupaten Sumba Barat",NUSA TENGGARA TIMUR,87214.0,Indonesia,,,,-9.5833048,119.3306789,https://maps.google.com/?cid=0x0:0x7c61afbd8c65d8e,
supermarket,Minimarket,Alfamart Adiyaksa,"99HJ+9P2, Jl. Adyaksa, Pada Eweta, Kec. Kota Waikabubak, Kabupaten Sumba Barat, Nusa Tenggara Tim.","Kabupaten Sumba Barat, Nusa Tenggara Tim.",NUSA TENGGARA TIMUR,,Indonesia,,,,-9.6215937,119.3815144,https://maps.google.com/?cid=0x0:0x4d3752982f954d5b,
supermarket,supermarket,Pak Mart 3 Waikabubak,"9C76+JX5, Jl. Pemuda, Maliti, Kec. Kota Waikabubak, Kabupaten Sumba Barat, Nusa Tenggara Tim.","Kabupaten Sumba Barat, Nusa Tenggara Tim.",NUSA TENGGARA TIMUR,,Indonesia,81529734363.0,,,-9.6359855,119.4124784,https://maps.google.com/?cid=0x0:0xe88d41cfd4166063,
supermarket,supermarket,Chinos Waikabubak,"9C65+G6M, Jl. Ahmad Yani, Wailiang, Kec. Kota Waikabubak, Kabupaten Sumba Barat, Nusa Tenggara Tim.","Kabupaten Sumba Barat, Nusa Tenggara Tim.",NUSA TENGGARA TIMUR,,Indonesia,85253726675.0,,,-9.6386714,119.4080501,https://maps.google.com/?cid=0x0:0xb72bc46f6d8279b1,
supermarket,Toko,Galery 2,"9C73+9Q4, Jl. Pisang, Wailiang, Kec. Kota Waikabubak, Kabupaten Sumba Barat, Nusa Tenggara Tim.","Kabupaten Sumba Barat, Nusa Tenggara Tim.",NUSA TENGGARA TIMUR,,Indonesia,,,,-9.6366137,119.4044553,https://maps.google.com/?cid=0x0:0xc9890c807a47cc44,
supermarket,Kios,Kios Ramayana,"99GV+H5H, Jl. Adhyaksa, Pada Eweta, Kec. Kota Waikabubak, Kabupaten Sumba Barat, Nusa Tenggara Tim.","Kabupaten Sumba Barat, Nusa Tenggara Tim.",NUSA TENGGARA TIMUR,,Indonesia,,,,-9.6236458,119.3934049,https://maps.google.com/?cid=0x0:0xfdba3cb6913da929,
supermarket,Apotek,Apotek K-24 Waikabubak Sumba Barat,"Jl. Bhayangkara, Komerda, Kec. Kota Waikabubak, Kabupaten Sumba Barat, Nusa Tenggara Tim. 87211","Komerda, Kec. Kota Waikabubak, Kabupaten Sumba Barat",NUSA TENGGARA TIMUR,87211.0,Indonesia,85156408929.0,,,-9.6272246,119.405823,https://maps.google.com/?cid=0x0:0x3461790c34fe35d8,
supermarket,Toko Elektronik,Socco Cell,"9C75+G48, Wailiang, Kec. Kota Waikabubak, Kabupaten Sumba Barat, Nusa Tenggara Tim.","Kabupaten Sumba Barat, Nusa Tenggara Tim.",NUSA TENGGARA TIMUR,,Indonesia,,,,-9.6362096,119.4078154,https://maps.google.com/?cid=0x0:0x34e70c6325fa0cfc,
supermarket,Toko Swalayan,KIOS GALERY-SEMBAKO  PULSA,"9C73+5M3, Wailiang, Kec. Kota Waikabubak, Kabupaten Sumba Barat, Nusa Tenggara Tim.","Kabupaten Sumba Barat, Nusa Tenggara Tim.",NUSA TENGGARA TIMUR,,Indonesia,8123826126.0,,,-9.6371174,119.4041819,https://maps.google.com/?cid=0x0:0xf8d948af07fc9433,
supermarket,supermarket,Toko Yandri,"9C98+9G9, Jl. Veteran, Kp. Baru, Kec. Kota Waikabubak, Kabupaten Sumba Barat, Nusa Tenggara Tim.","Kabupaten Sumba Barat, Nusa Tenggara Tim.",NUSA TENGGARA TIMUR,,Indonesia,,,,-9.6315982,119.4163717,https://maps.google.com/?cid=0x0:0x768ebbaac14284c4,
supermarket,supermarket,Kec. Kota Waikabubak,"Kabupaten Sumba Barat, Nusa Tenggara Tim.","Kabupaten Sumba Barat, Nusa Tenggara Tim.",NUSA TENGGARA TIMUR,,Indonesia,,,,-9.6318508,119.4116981,https://maps.google.com/?cid=0x0:0xc0a3b8deb8dcb273,
supermarket,Toko bahan makanan,Toko Karya Agung,"Jl. Ahmad Yani, Komerda, Kec. Kota Waikabubak, Kabupaten Sumba Barat, Nusa Tenggara Tim.","Kabupaten Sumba Barat, Nusa Tenggara Tim.",NUSA TENGGARA TIMUR,,Indonesia,38721033.0,,,-9.6330306,119.4111382,https://maps.google.com/?cid=0x0:0xe93b82eea4e94625,
supermarket,Grosir,Toko Sinar Surya Utama,"9C85+2J2, Wailiang, Kec. Kota Waikabubak, Kabupaten Sumba Barat, Nusa Tenggara Tim.","Kabupaten Sumba Barat, Nusa Tenggara Tim.",NUSA TENGGARA TIMUR,,Indonesia,,,,-9.6349941,119.409021,https://maps.google.com/?cid=0x0:0x89b7a2f1d0722beb,
supermarket,Toko bahan makanan,Toko Mitra,"9C75+4RR, Maliti, Kec. Kota Waikabubak, Kabupaten Sumba Barat, Nusa Tenggara Tim.","Kabupaten Sumba Barat, Nusa Tenggara Tim.",NUSA TENGGARA TIMUR,,Indonesia,,,,-9.6371439,119.4095106,https://maps.google.com/?cid=0x0:0xce21f11c0481e5cd,
supermarket,Minimarket,Toko fokus,"Jl. Ahmad Yani No.48, Wailiang, Kec. Kota Waikabubak, Kabupaten Sumba Barat, Nusa Tenggara Tim.","Kabupaten Sumba Barat, Nusa Tenggara Tim.",NUSA TENGGARA TIMUR,,Indonesia,82145125081.0,,,-9.6345078,119.4096641,https://maps.google.com/?cid=0x0:0xbd324a24591542a3,
supermarket,Restoran,Soemba Coffee  Resto Waikabubak,"Jl. Ahmad Yani No.119, Maliti, Kec. Kota Waikabubak, Kabupaten Sumba Barat, Nusa Tenggara Tim.","Kabupaten Sumba Barat, Nusa Tenggara Tim.",NUSA TENGGARA TIMUR,,Indonesia,82155665147.0,,,-9.638199,119.4078702,https://maps.google.com/?cid=0x0:0x7f6da285e14506ee,
supermarket,Toko Bahan Bangunan,Toko Makmur,"Jl. Ahmad Yani No.3, Komerda, Kec. Kota Waikabubak, Kabupaten Sumba Barat, Nusa Tenggara Tim. 87211","Komerda, Kec. Kota Waikabubak, Kabupaten Sumba Barat",NUSA TENGGARA TIMUR,87211.0,Indonesia,81339020447.0,,,-9.6323297,119.411732,https://maps.google.com/?cid=0x0:0x70171ded7fc96b84,
supermarket,Minimarket,Indomaret A Yani Waikabubak,"9C65+257, Jl. Cakrawala, Wailiang, Kec. Kota Waikabubak, Kabupaten Sumba Barat, Nusa Tenggara Tim.","Kabupaten Sumba Barat, Nusa Tenggara Tim.",NUSA TENGGARA TIMUR,,Indonesia,,,,-9.6398461,119.4078453,https://maps.google.com/?cid=0x0:0xc4c3d500ef46c94a,
supermarket,Minimarket,Alfamart Adiyaksa,"99HJ+9P2, Jl. Adyaksa, Pada Eweta, Kec. Kota Waikabubak, Kabupaten Sumba Barat, Nusa Tenggara Tim.","Kabupaten Sumba Barat, Nusa Tenggara Tim.",NUSA TENGGARA TIMUR,,Indonesia,,,,-9.6215937,119.3815144,https://maps.google.com/?cid=0x0:0x4d3752982f954d5b,
supermarket,Pusat Perbelanjaan,Pasar Inpres Lama,"9C75+W38, Wailiang, Kec. Kota Waikabubak, Kabupaten Sumba Barat, Nusa Tenggara Tim.","Kabupaten Sumba Barat, Nusa Tenggara Tim.",NUSA TENGGARA TIMUR,,Indonesia,81337897176.0,,,-9.6352221,119.4077139,https://maps.google.com/?cid=0x0:0x38ecfcd1492ea179,
supermarket,Toko Suvenir,UMMA KABA,"99GX+RGR, Jl. Simpang Puunaga, Pada Eweta, Kec. Kota Waikabubak, Kabupaten Sumba Barat, Nusa Tenggara Tim.","Kabupaten Sumba Barat, Nusa Tenggara Tim.",NUSA TENGGARA TIMUR,,Indonesia,81331970090.0,,,-9.6228783,119.3987502,https://maps.google.com/?cid=0x0:0x68900e85f3dc735,
supermarket,Apotek,Apotek K-24 Waikabubak Sumba Barat,"Jl. Bhayangkara, Komerda, Kec. Kota Waikabubak, Kabupaten Sumba Barat, Nusa Tenggara Tim. 87211","Komerda, Kec. Kota Waikabubak, Kabupaten Sumba Barat",NUSA TENGGARA TIMUR,87211.0,Indonesia,85156408929.0,,,-9.6272246,119.405823,https://maps.google.com/?cid=0x0:0x3461790c34fe35d8,
supermarket,Toko Suvenir,OLEH OLEH KHAS SUMBA,"9C76+59X, Unnamed Road, Maliti, Kec. Kota Waikabubak, Kabupaten Sumba Barat, Nusa Tenggara Tim.","Kabupaten Sumba Barat, Nusa Tenggara Tim.",NUSA TENGGARA TIMUR,,Indonesia,82145970929.0,,,-9.6370235,119.4109908,https://maps.google.com/?cid=0x0:0x3a9e35ef6d2b4738,
supermarket,Toko bahan makanan,PAK mart,"F6RP+G4Q, Jl. Ahmad Yani, Waimangura, Kec. Wewewa Bar., Kabupaten Sumba Barat Daya, Nusa Tenggara Tim.","Kabupaten Sumba Barat Daya, Nusa Tenggara Tim.",NUSA TENGGARA TIMUR,,Indonesia,,,,-9.5086572,119.235364,https://maps.google.com/?cid=0x0:0x25051ec6c1ddae72,
supermarket,Bengkel Sepeda Motor,Miniatur Motor Indonesia,"Jl. Ahmad Yani No.32, Komerda, Kec. Kota Waikabubak, Kabupaten Sumba Barat, Nusa Tenggara Tim. 87211","Komerda, Kec. Kota Waikabubak, Kabupaten Sumba Barat",NUSA TENGGARA TIMUR,87211.0,Indonesia,81392442358.0,,,-9.6334962,119.4109595,https://maps.google.com/?cid=0x0:0x72745f70103d1ab8,
supermarket,Toko Elektronik,Socco Cell,"9C75+G48, Wailiang, Kec. Kota Waikabubak, Kabupaten Sumba Barat, Nusa Tenggara Tim.","Kabupaten Sumba Barat, Nusa Tenggara Tim.",NUSA TENGGARA TIMUR,,Indonesia,,,,-9.6362096,119.4078154,https://maps.google.com/?cid=0x0:0x34e70c6325fa0cfc,
supermarket,supermarket,Chinos Waikabubak,"9C65+G6M, Jl. Ahmad Yani, Wailiang, Kec. Kota Waikabubak, Kabupaten Sumba Barat, Nusa Tenggara Tim.","Kabupaten Sumba Barat, Nusa Tenggara Tim.",NUSA TENGGARA TIMUR,,Indonesia,85253726675.0,,,-9.6386714,119.4080501,https://maps.google.com/?cid=0x0:0xb72bc46f6d8279b1,
supermarket,supermarket,Nusa Tenggara Tim.,,Nusa Tenggara Tim.,NUSA TENGGARA TIMUR,,Indonesia,,,,-8.6573819,121.0793705,https://maps.google.com/?cid=0x0:0x1030bfbcaf71ae0,
supermarket,supermarket,Pak Mart 3 Waikabubak,"9C76+JX5, Jl. Pemuda, Maliti, Kec. Kota Waikabubak, Kabupaten Sumba Barat, Nusa Tenggara Tim.","Kabupaten Sumba Barat, Nusa Tenggara Tim.",NUSA TENGGARA TIMUR,,Indonesia,81529734363.0,,,-9.6359855,119.4124784,https://maps.google.com/?cid=0x0:0xe88d41cfd4166063,
supermarket,Toko,Galery 2,"9C73+9Q4, Jl. Pisang, Wailiang, Kec. Kota Waikabubak, Kabupaten Sumba Barat, Nusa Tenggara Tim.","Kabupaten Sumba Barat, Nusa Tenggara Tim.",NUSA TENGGARA TIMUR,,Indonesia,,,,-9.6366137,119.4044553,https://maps.google.com/?cid=0x0:0xc9890c807a47cc44,
supermarket,,Warna Warni 2,"Jl. Bhayangkara, Komerda, Kec. Kota Waikabubak, Kabupaten Sumba Barat, Nusa Tenggara Tim. 87215","Komerda, Kec. Kota Waikabubak, Kabupaten Sumba Barat",NUSA TENGGARA TIMUR,87215.0,Indonesia,81239790872.0,,,-9.6303875,119.4096224,https://maps.google.com/?cid=0x0:0x185f2e6f5359ace8,
supermarket,Toko Swalayan,SARIBUNDO,"87W7+RHM, Matawai, Kec. Kota Waingapu, Kabupaten Sumba Timur, Nusa Tenggara Tim.","Kabupaten Sumba Timur, Nusa Tenggara Tim.",NUSA TENGGARA TIMUR,,Indonesia,85215000272.0,,,-9.6529141,120.2639165,https://maps.google.com/?cid=0x0:0xefd86591bf5ff343,
supermarket,Toko bahan makanan,PARIS INDAH,"793X+MR6, Unnamed Road, Rua, Kec. Wanokaka, Kabupaten Sumba Barat, Nusa Tenggara Tim.","Kabupaten Sumba Barat, Nusa Tenggara Tim.",NUSA TENGGARA TIMUR,,Indonesia,81335773657.0,,,-9.7458319,119.3995147,https://maps.google.com/?cid=0x0:0x89e1be79cbf3386d,
supermarket,Toko bahan makanan,INDOMARET AYANI WAIKABUBAK,"Jl. Ahmad Yani, Kalembu Ndara Mane, Kec. Kota Waikabubak, Kabupaten Sumba Barat, Nusa Tenggara Tim. 87214","Kalembu Ndara Mane, Kec. Kota Waikabubak, Kabupaten Sumba Barat",NUSA TENGGARA TIMUR,87214.0,Indonesia,,,,-9.5833048,119.3306789,https://maps.google.com/?cid=0x0:0x7c61afbd8c65d8e,
supermarket,Kios,PKH,"G64C+56W, Waimangura, Kec. Wewewa Bar., Kabupaten Sumba Barat Daya, Nusa Tenggara Tim. 87254","Waimangura, Kec. Wewewa Bar., Kabupaten Sumba Barat Daya",NUSA TENGGARA TIMUR,87254.0,Indonesia,85338297173.0,,,-9.4945241,119.2205789,https://maps.google.com/?cid=0x0:0xe4978b745be859ea,
supermarket,Toko Swalayan,KIOS GALERY-SEMBAKO  PULSA,"9C73+5M3, Wailiang, Kec. Kota Waikabubak, Kabupaten Sumba Barat, Nusa Tenggara Tim.","Kabupaten Sumba Barat, Nusa Tenggara Tim.",NUSA TENGGARA TIMUR,,Indonesia,8123826126.0,,,-9.6371174,119.4041819,https://maps.google.com/?cid=0x0:0xf8d948af07fc9433,
supermarket,Toko Swalayan,Kios Rahajeng,"Diratana, Jl. Adyaksa No.Km.3, Pada Eweta, Kec. Kota Waikabubak, Kabupaten Sumba Barat, Nusa Tenggara Tim. 87284","Jl. Adyaksa No.Km.3, Pada Eweta, Kec. Kota Waikabubak, Kabupaten Sumba Barat",NUSA TENGGARA TIMUR,87284.0,Indonesia,82237871005.0,,,-9.6249474,119.3867948,https://maps.google.com/?cid=0x0:0xbae6ef0163894d5d,
supermarket,Toko Swalayan,Toko Citra Raya,"9C87+MMW, Kp. Sawah, Kec. Kota Waikabubak, Kabupaten Sumba Barat, Nusa Tenggara Tim.","Kabupaten Sumba Barat, Nusa Tenggara Tim.",NUSA TENGGARA TIMUR,,Indonesia,21515.0,,,-9.6332537,119.4141967,https://maps.google.com/?cid=0x0:0xc083d8a255cc1d52,
supermarket,Toko Swalayan,Toko Queen Rose,"9C86+26H, Jl. Pemuda, Maliti, Kec. Kota Waikabubak, Kabupaten Sumba Barat, Nusa Tenggara Tim.","Kabupaten Sumba Barat, Nusa Tenggara Tim.",NUSA TENGGARA TIMUR,,Indonesia,,,,-9.6349378,119.4106063,https://maps.google.com/?cid=0x0:0x10ed8d5dd94aebda,
supermarket,supermarket,Kec. Kota Waikabubak,"Kabupaten Sumba Barat, Nusa Tenggara Tim.","Kabupaten Sumba Barat, Nusa Tenggara Tim.",NUSA TENGGARA TIMUR,,Indonesia,,,,-9.6318508,119.4116981,https://maps.google.com/?cid=0x0:0xc0a3b8deb8dcb273,
supermarket,Toko bahan makanan,Toko Karya Agung,"Jl. Ahmad Yani, Komerda, Kec. Kota Waikabubak, Kabupaten Sumba Barat, Nusa Tenggara Tim.","Kabupaten Sumba Barat, Nusa Tenggara Tim.",NUSA TENGGARA TIMUR,,Indonesia,38721033.0,,,-9.6330306,119.4111382,https://maps.google.com/?cid=0x0:0xe93b82eea4e94625,
supermarket,Grosir,Toko Sinar Surya Utama,"9C85+2J2, Wailiang, Kec. Kota Waikabubak, Kabupaten Sumba Barat, Nusa Tenggara Tim.","Kabupaten Sumba Barat, Nusa Tenggara Tim.",NUSA TENGGARA TIMUR,,Indonesia,,,,-9.6349941,119.409021,https://maps.google.com/?cid=0x0:0x89b7a2f1d0722beb,
supermarket,Toko Swalayan,Toko Queen Rose,"9C86+26H, Jl. Pemuda, Maliti, Kec. Kota Waikabubak, Kabupaten Sumba Barat, Nusa Tenggara Tim.","Kabupaten Sumba Barat, Nusa Tenggara Tim.",NUSA TENGGARA TIMUR,,Indonesia,,,,-9.6349378,119.4106063,https://maps.google.com/?cid=0x0:0x10ed8d5dd94aebda,
supermarket,supermarket,Pak Mart 3 Waikabubak,"9C76+JX5, Jl. Pemuda, Maliti, Kec. Kota Waikabubak, Kabupaten Sumba Barat, Nusa Tenggara Tim.","Kabupaten Sumba Barat, Nusa Tenggara Tim.",NUSA TENGGARA TIMUR,,Indonesia,81529734363.0,,,-9.6359855,119.4124784,https://maps.google.com/?cid=0x0:0xe88d41cfd4166063,
supermarket,Pasar,Pasar Baru Waikabubak,"994Q+FG4, Wee Karou, Kec. Loli, Kabupaten Sumba Barat, Nusa Tenggara Tim.","Kabupaten Sumba Barat, Nusa Tenggara Tim.",NUSA TENGGARA TIMUR,,Indonesia,,,,-9.6438664,119.3888321,https://maps.google.com/?cid=0x0:0x8fdddfd1abee0ac7,
supermarket,Toko Swalayan,Toko Queen Rose,"9C86+PF2, Jl. Ahmad Yani, Komerda, Kec. Kota Waikabubak, Kabupaten Sumba Barat, Nusa Tenggara Tim.","Kabupaten Sumba Barat, Nusa Tenggara Tim.",NUSA TENGGARA TIMUR,,Indonesia,82137595002.0,,,-9.6332388,119.411138,https://maps.google.com/?cid=0x0:0xd592effdfce029fe,
supermarket,Toko bahan makanan,Toko Syalom,"9C86+RJ6, Komerda, Kec. Kota Waikabubak, Kabupaten Sumba Barat, Nusa Tenggara Tim.","Kabupaten Sumba Barat, Nusa Tenggara Tim.",NUSA TENGGARA TIMUR,,Indonesia,,,,-9.6329631,119.4115025,https://maps.google.com/?cid=0x0:0x36529538b7835549,
supermarket,Toko Swalayan,Toko Citra Raya,"9C87+MMW, Kp. Sawah, Kec. Kota Waikabubak, Kabupaten Sumba Barat, Nusa Tenggara Tim.","Kabupaten Sumba Barat, Nusa Tenggara Tim.",NUSA TENGGARA TIMUR,,Indonesia,21515.0,,,-9.6332537,119.4141967,https://maps.google.com/?cid=0x0:0xc083d8a255cc1d52,
supermarket,Toko,Galery 2,"9C73+9Q4, Jl. Pisang, Wailiang, Kec. Kota Waikabubak, Kabupaten Sumba Barat, Nusa Tenggara Tim.","Kabupaten Sumba Barat, Nusa Tenggara Tim.",NUSA TENGGARA TIMUR,,Indonesia,,,,-9.6366137,119.4044553,https://maps.google.com/?cid=0x0:0xc9890c807a47cc44,
supermarket,Toko bahan makanan,Toko SARINA,"Jl. Ahmad Yani No.27, Komerda, Kec. Kota Waikabubak, Kabupaten Sumba Barat, Nusa Tenggara Tim.","Kabupaten Sumba Barat, Nusa Tenggara Tim.",NUSA TENGGARA TIMUR,,Indonesia,81337921337.0,,,-9.6335574,119.4113209,https://maps.google.com/?cid=0x0:0x6c1e846bea137f83,
supermarket,Toko bahan makanan,Toko Imanuel,"9CC5+56X, Jl. Bhayangkara, Pada Eweta, Kec. Kota Waikabubak, Kabupaten Sumba Barat, Nusa Tenggara Tim.","Kabupaten Sumba Barat, Nusa Tenggara Tim.",NUSA TENGGARA TIMUR,,Indonesia,85239177888.0,,,-9.629505,119.4081231,https://maps.google.com/?cid=0x0:0x6f051f8ff1b34cdd,
supermarket,Grosir,Toko sumba indah,"9C88+F22, Kp. Sawah, Kec. Kota Waikabubak, Kabupaten Sumba Barat, Nusa Tenggara Tim.","Kabupaten Sumba Barat, Nusa Tenggara Tim.",NUSA TENGGARA TIMUR,,Indonesia,,,,-9.6338699,119.4150306,https://maps.google.com/?cid=0x0:0x5137e43600ded9,
supermarket,Toko bahan makanan,Toko Mitra,"9C75+4RR, Maliti, Kec. Kota Waikabubak, Kabupaten Sumba Barat, Nusa Tenggara Tim.","Kabupaten Sumba Barat, Nusa Tenggara Tim.",NUSA TENGGARA TIMUR,,Indonesia,,,,-9.6371439,119.4095106,https://maps.google.com/?cid=0x0:0xce21f11c0481e5cd,
supermarket,Toko,Toko Namu Ole,"9CC5+583, Jl. Bhayangkara, Komerda, Kec. Kota Waikabubak, Kabupaten Sumba Barat, Nusa Tenggara Tim.","Kabupaten Sumba Barat, Nusa Tenggara Tim.",NUSA TENGGARA TIMUR,,Indonesia,,,,-9.6297233,119.4090439,https://maps.google.com/?cid=0x0:0xfd60d1ae715f50a,
supermarket,Toko bahan makanan,Hokky Store 2,"9CC5+2PM, Jl. Bhayangkara, Komerda, Kec. Kota Waikabubak, Kabupaten Sumba Barat, Nusa Tenggara Tim.","Kabupaten Sumba Barat, Nusa Tenggara Tim.",NUSA TENGGARA TIMUR,,Indonesia,81230740690.0,,,-9.6299126,119.4093125,https://maps.google.com/?cid=0x0:0x7ebf98210da6d2ab,
supermarket,Minimarket,Toko fokus,"Jl. Ahmad Yani No.48, Wailiang, Kec. Kota Waikabubak, Kabupaten Sumba Barat, Nusa Tenggara Tim.","Kabupaten Sumba Barat, Nusa Tenggara Tim.",NUSA TENGGARA TIMUR,,Indonesia,82145125081.0,,,-9.6345078,119.4096641,https://maps.google.com/?cid=0x0:0xbd324a24591542a3,
supermarket,Toko,Toko Romantis,"9C75+R94, Jl. Pisang, Wailiang, Kec. Kota Waikabubak, Kabupaten Sumba Barat, Nusa Tenggara Tim.","Kabupaten Sumba Barat, Nusa Tenggara Tim.",NUSA TENGGARA TIMUR,,Indonesia,,,,-9.6354918,119.4084662,https://maps.google.com/?cid=0x0:0xc8574d43583c7b72,
supermarket,Penyedia Layanan Telekomunikasi,Pt. Simpatindo Multi Media(Telkomsel Waikabubak),"Jl. Bhayangkara No.64, Pada Eweta, Kec. Kota Waikabubak, Kabupaten Sumba Barat, Nusa Tenggara Tim.","Kabupaten Sumba Barat, Nusa Tenggara Tim.",NUSA TENGGARA TIMUR,,Indonesia,,,,-9.6274434,119.4054751,https://maps.google.com/?cid=0x0:0x3280be0c537fe8ae,
supermarket,Toko,Toko Laris LAX,"Jl. Ahmad Yani No.85, Wailiang, Kec. Kota Waikabubak, Kabupaten Sumba Barat, Nusa Tenggara Tim.","Kabupaten Sumba Barat, Nusa Tenggara Tim.",NUSA TENGGARA TIMUR,,Indonesia,,,,-9.6356634,119.4090087,https://maps.google.com/?cid=0x0:0xd623a3c0890bc58b,
supermarket,Pusat Perbelanjaan,Toko Rajawali,"9C76+QQP, Maliti, Kec. Kota Waikabubak, Kabupaten Sumba Barat, Nusa Tenggara Tim.","Kabupaten Sumba Barat, Nusa Tenggara Tim.",NUSA TENGGARA TIMUR,,Indonesia,85253468666.0,,,-9.6355483,119.4119417,https://maps.google.com/?cid=0x0:0xde52c67a9c9045b,
supermarket,Minimarket,Indomaret A Yani Waikabubak,"9C65+257, Jl. Cakrawala, Wailiang, Kec. Kota Waikabubak, Kabupaten Sumba Barat, Nusa Tenggara Tim.","Kabupaten Sumba Barat, Nusa Tenggara Tim.",NUSA TENGGARA TIMUR,,Indonesia,,,,-9.6398461,119.4078453,https://maps.google.com/?cid=0x0:0xc4c3d500ef46c94a,
supermarket,Toko Swalayan,Simphony,"9C76+9CX, Maliti, Kec. Kota Waikabubak, Kabupaten Sumba Barat, Nusa Tenggara Tim.","Kabupaten Sumba Barat, Nusa Tenggara Tim.",NUSA TENGGARA TIMUR,,Indonesia,,,,-9.6365234,119.4111112,https://maps.google.com/?cid=0x0:0xdcf20d73641513e6,
supermarket,Minimarket,Alfamart Adiyaksa,"99HJ+9P2, Jl. Adyaksa, Pada Eweta, Kec. Kota Waikabubak, Kabupaten Sumba Barat, Nusa Tenggara Tim.","Kabupaten Sumba Barat, Nusa Tenggara Tim.",NUSA TENGGARA TIMUR,,Indonesia,,,,-9.6215937,119.3815144,https://maps.google.com/?cid=0x0:0x4d3752982f954d5b,
supermarket,supermarket,Kec. Kota Waikabubak,"Kabupaten Sumba Barat, Nusa Tenggara Tim.","Kabupaten Sumba Barat, Nusa Tenggara Tim.",NUSA TENGGARA TIMUR,,Indonesia,,,,-9.6318508,119.4116981,https://maps.google.com/?cid=0x0:0xc0a3b8deb8dcb273,
supermarket,Toko bahan makanan,Toko Karya Agung,"Jl. Ahmad Yani, Komerda, Kec. Kota Waikabubak, Kabupaten Sumba Barat, Nusa Tenggara Tim.","Kabupaten Sumba Barat, Nusa Tenggara Tim.",NUSA TENGGARA TIMUR,,Indonesia,38721033.0,,,-9.6330306,119.4111382,https://maps.google.com/?cid=0x0:0xe93b82eea4e94625,
supermarket,Grosir,Toko Sinar Surya Utama,"9C85+2J2, Wailiang, Kec. Kota Waikabubak, Kabupaten Sumba Barat, Nusa Tenggara Tim.","Kabupaten Sumba Barat, Nusa Tenggara Tim.",NUSA TENGGARA TIMUR,,Indonesia,,,,-9.6349941,119.409021,https://maps.google.com/?cid=0x0:0x89b7a2f1d0722beb,
supermarket,Toko Swalayan,Toko Queen Rose,"9C86+26H, Jl. Pemuda, Maliti, Kec. Kota Waikabubak, Kabupaten Sumba Barat, Nusa Tenggara Tim.","Kabupaten Sumba Barat, Nusa Tenggara Tim.",NUSA TENGGARA TIMUR,,Indonesia,,,,-9.6349378,119.4106063,https://maps.google.com/?cid=0x0:0x10ed8d5dd94aebda,
supermarket,supermarket,Pak Mart 3 Waikabubak,"9C76+JX5, Jl. Pemuda, Maliti, Kec. Kota Waikabubak, Kabupaten Sumba Barat, Nusa Tenggara Tim.","Kabupaten Sumba Barat, Nusa Tenggara Tim.",NUSA TENGGARA TIMUR,,Indonesia,81529734363.0,,,-9.6359855,119.4124784,https://maps.google.com/?cid=0x0:0xe88d41cfd4166063,
supermarket,Pasar,Pasar Baru Waikabubak,"994Q+FG4, Wee Karou, Kec. Loli, Kabupaten Sumba Barat, Nusa Tenggara Tim.","Kabupaten Sumba Barat, Nusa Tenggara Tim.",NUSA TENGGARA TIMUR,,Indonesia,,,,-9.6438664,119.3888321,https://maps.google.com/?cid=0x0:0x8fdddfd1abee0ac7,
supermarket,Toko Swalayan,Toko Queen Rose,"9C86+PF2, Jl. Ahmad Yani, Komerda, Kec. Kota Waikabubak, Kabupaten Sumba Barat, Nusa Tenggara Tim.","Kabupaten Sumba Barat, Nusa Tenggara Tim.",NUSA TENGGARA TIMUR,,Indonesia,82137595002.0,,,-9.6332388,119.411138,https://maps.google.com/?cid=0x0:0xd592effdfce029fe,
supermarket,Toko bahan makanan,Toko Syalom,"9C86+RJ6, Komerda, Kec. Kota Waikabubak, Kabupaten Sumba Barat, Nusa Tenggara Tim.","Kabupaten Sumba Barat, Nusa Tenggara Tim.",NUSA TENGGARA TIMUR,,Indonesia,,,,-9.6329631,119.4115025,https://maps.google.com/?cid=0x0:0x36529538b7835549,
supermarket,Toko Swalayan,Toko Citra Raya,"9C87+MMW, Kp. Sawah, Kec. Kota Waikabubak, Kabupaten Sumba Barat, Nusa Tenggara Tim.","Kabupaten Sumba Barat, Nusa Tenggara Tim.",NUSA TENGGARA TIMUR,,Indonesia,21515.0,,,-9.6332537,119.4141967,https://maps.google.com/?cid=0x0:0xc083d8a255cc1d52,
supermarket,Toko bahan makanan,Toko Imanuel,"9CC5+56X, Jl. Bhayangkara, Pada Eweta, Kec. Kota Waikabubak, Kabupaten Sumba Barat, Nusa Tenggara Tim.","Kabupaten Sumba Barat, Nusa Tenggara Tim.",NUSA TENGGARA TIMUR,,Indonesia,85239177888.0,,,-9.629505,119.4081231,https://maps.google.com/?cid=0x0:0x6f051f8ff1b34cdd,
supermarket,Toko bahan makanan,Toko SARINA,"Jl. Ahmad Yani No.27, Komerda, Kec. Kota Waikabubak, Kabupaten Sumba Barat, Nusa Tenggara Tim.","Kabupaten Sumba Barat, Nusa Tenggara Tim.",NUSA TENGGARA TIMUR,,Indonesia,81337921337.0,,,-9.6335574,119.4113209,https://maps.google.com/?cid=0x0:0x6c1e846bea137f83,
supermarket,Toko,Galery 2,"9C73+9Q4, Jl. Pisang, Wailiang, Kec. Kota Waikabubak, Kabupaten Sumba Barat, Nusa Tenggara Tim.","Kabupaten Sumba Barat, Nusa Tenggara Tim.",NUSA TENGGARA TIMUR,,Indonesia,,,,-9.6366137,119.4044553,https://maps.google.com/?cid=0x0:0xc9890c807a47cc44,
supermarket,Toko,Toko Namu Ole,"9CC5+583, Jl. Bhayangkara, Komerda, Kec. Kota Waikabubak, Kabupaten Sumba Barat, Nusa Tenggara Tim.","Kabupaten Sumba Barat, Nusa Tenggara Tim.",NUSA TENGGARA TIMUR,,Indonesia,,,,-9.6297233,119.4090439,https://maps.google.com/?cid=0x0:0xfd60d1ae715f50a,
supermarket,Grosir,Toko sumba indah,"9C88+F22, Kp. Sawah, Kec. Kota Waikabubak, Kabupaten Sumba Barat, Nusa Tenggara Tim.","Kabupaten Sumba Barat, Nusa Tenggara Tim.",NUSA TENGGARA TIMUR,,Indonesia,,,,-9.6338699,119.4150306,https://maps.google.com/?cid=0x0:0x5137e43600ded9,
supermarket,Toko bahan makanan,Toko Mitra,"9C75+4RR, Maliti, Kec. Kota Waikabubak, Kabupaten Sumba Barat, Nusa Tenggara Tim.","Kabupaten Sumba Barat, Nusa Tenggara Tim.",NUSA TENGGARA TIMUR,,Indonesia,,,,-9.6371439,119.4095106,https://maps.google.com/?cid=0x0:0xce21f11c0481e5cd,
supermarket,Toko bahan makanan,Hokky Store 2,"9CC5+2PM, Jl. Bhayangkara, Komerda, Kec. Kota Waikabubak, Kabupaten Sumba Barat, Nusa Tenggara Tim.","Kabupaten Sumba Barat, Nusa Tenggara Tim.",NUSA TENGGARA TIMUR,,Indonesia,81230740690.0,,,-9.6299126,119.4093125,https://maps.google.com/?cid=0x0:0x7ebf98210da6d2ab,
supermarket,Minimarket,Toko fokus,"Jl. Ahmad Yani No.48, Wailiang, Kec. Kota Waikabubak, Kabupaten Sumba Barat, Nusa Tenggara Tim.","Kabupaten Sumba Barat, Nusa Tenggara Tim.",NUSA TENGGARA TIMUR,,Indonesia,82145125081.0,,,-9.6345078,119.4096641,https://maps.google.com/?cid=0x0:0xbd324a24591542a3,
supermarket,Toko Swalayan,Simphony,"9C76+9CX, Maliti, Kec. Kota Waikabubak, Kabupaten Sumba Barat, Nusa Tenggara Tim.","Kabupaten Sumba Barat, Nusa Tenggara Tim.",NUSA TENGGARA TIMUR,,Indonesia,,,,-9.6365234,119.4111112,https://maps.google.com/?cid=0x0:0xdcf20d73641513e6,
supermarket,Minimarket,Indomaret A Yani Waikabubak,"9C65+257, Jl. Cakrawala, Wailiang, Kec. Kota Waikabubak, Kabupaten Sumba Barat, Nusa Tenggara Tim.","Kabupaten Sumba Barat, Nusa Tenggara Tim.",NUSA TENGGARA TIMUR,,Indonesia,,,,-9.6398461,119.4078453,https://maps.google.com/?cid=0x0:0xc4c3d500ef46c94a,
supermarket,Penyedia Layanan Telekomunikasi,Pt. Simpatindo Multi Media(Telkomsel Waikabubak),"Jl. Bhayangkara No.64, Pada Eweta, Kec. Kota Waikabubak, Kabupaten Sumba Barat, Nusa Tenggara Tim.","Kabupaten Sumba Barat, Nusa Tenggara Tim.",NUSA TENGGARA TIMUR,,Indonesia,,,,-9.6274434,119.4054751,https://maps.google.com/?cid=0x0:0x3280be0c537fe8ae,
supermarket,Toko,Toko Romantis,"9C75+R94, Jl. Pisang, Wailiang, Kec. Kota Waikabubak, Kabupaten Sumba Barat, Nusa Tenggara Tim.","Kabupaten Sumba Barat, Nusa Tenggara Tim.",NUSA TENGGARA TIMUR,,Indonesia,,,,-9.6354918,119.4084662,https://maps.google.com/?cid=0x0:0xc8574d43583c7b72,
supermarket,Minimarket,Alfamart Adiyaksa,"99HJ+9P2, Jl. Adyaksa, Pada Eweta, Kec. Kota Waikabubak, Kabupaten Sumba Barat, Nusa Tenggara Tim.","Kabupaten Sumba Barat, Nusa Tenggara Tim.",NUSA TENGGARA TIMUR,,Indonesia,,,,-9.6215937,119.3815144,https://maps.google.com/?cid=0x0:0x4d3752982f954d5b,
supermarket,supermarket,Nusa Tenggara Tim.,,Nusa Tenggara Tim.,NUSA TENGGARA TIMUR,,Indonesia,,,,-8.6573819,121.0793705,https://maps.google.com/?cid=0x0:0x1030bfbcaf71ae0,
supermarket,Pusat Perbelanjaan,LYON NUSANTARA SUPER MARKET,"9754+5H3, Kamalaputi, Kec. Kota Waingapu, Kabupaten Sumba Timur, Nusa Tenggara Tim.","Kabupaten Sumba Timur, Nusa Tenggara Tim.",NUSA TENGGARA TIMUR,,Indonesia,,,,-9.6421199,120.2564251,https://maps.google.com/?cid=0x0:0xf39f6f3279d31f50,
supermarket,Toko Swalayan,Toko Mama Tia,"7C52+WF9, Jln Raya, Gaura, Kec. Lamboya, Kabupaten Sumba Barat, Nusa Tenggara Tim.","Kabupaten Sumba Barat, Nusa Tenggara Tim.",NUSA TENGGARA TIMUR,,Indonesia,,,,-9.740218,119.4012413,https://maps.google.com/?cid=0x0:0x80013d9440db0c31,
supermarket,Toserba,Supermarket Matahari,"pasar inpres naikoten No.1, Naikoten I, Kec. Kota Raja, Kota Kupang, Nusa Tenggara Tim. 85142","Naikoten I, Kec. Kota Raja, Kota Kupang",NUSA TENGGARA TIMUR,85142.0,Indonesia,,,,-10.1813187,123.6009175,https://maps.google.com/?cid=0x0:0x47fc92b423019c18,
supermarket,Toko Swalayan,Usaha Tersado Sejahtera,"Kabu Karudi, Kec. Lamboya, Kabupaten Sumba Barat, Nusa Tenggara Tim. 87271","Kec. Lamboya, Kabupaten Sumba Barat",NUSA TENGGARA TIMUR,87271.0,Indonesia,,,,-9.7245793,119.3654389,https://maps.google.com/?cid=0x0:0x7f6f549bbe08dbca,
supermarket,Kios,Kios TATIANA,"Lolowo, Kabu Karudi, Kec. Lamboya, Kabupaten Sumba Barat, Nusa Tenggara Tim. 87271","Kabu Karudi, Kec. Lamboya, Kabupaten Sumba Barat",NUSA TENGGARA TIMUR,87271.0,Indonesia,82139222018.0,,,-9.7238196,119.3509336,https://maps.google.com/?cid=0x0:0x38aabed7a883fb0f,
supermarket,Minimarket,Alfamart Waitabula,"H6CQ+365, Radamata, Kec. Kota Tambolaka, Kabupaten Sumba Barat Daya, Nusa Tenggara Tim.","Kabupaten Sumba Barat Daya, Nusa Tenggara Tim.",NUSA TENGGARA TIMUR,,Indonesia,,,,-9.4298746,119.2380947,https://maps.google.com/?cid=0x0:0x3ac0077a37895662,
supermarket,Toko,ALESS MART,"78CW+MJ3, Laboya Bawa, Kec. Lamboya, Kabupaten Sumba Barat, Nusa Tenggara Tim.","Kabupaten Sumba Barat, Nusa Tenggara Tim.",NUSA TENGGARA TIMUR,,Indonesia,,,,-9.7283747,119.3465343,https://maps.google.com/?cid=0x0:0x91d58cdd01cb1d46,
supermarket,Kios,kios Usaha Baru,"79H8+477, Kabu Karudi, Kec. Lamboya, Kabupaten Sumba Barat, Nusa Tenggara Tim.","Kabupaten Sumba Barat, Nusa Tenggara Tim.",NUSA TENGGARA TIMUR,,Indonesia,82324498869.0,,,-9.7222151,119.3656846,https://maps.google.com/?cid=0x0:0xe0d5c0c47232c2e2,
supermarket,Toko bahan makanan,LESTARI GROCERY STORE,"99JJ+7RW, Jl. Ahmad Yani, Soba Wawi, Kec. Loli, Kabupaten Sumba Barat, Nusa Tenggara Tim.","Kabupaten Sumba Barat, Nusa Tenggara Tim.",NUSA TENGGARA TIMUR,,Indonesia,,,,-9.6190688,119.3819369,https://maps.google.com/?cid=0x0:0x258e6cb259965629,
supermarket,Toko,INDRA MART,"994X+3FG, Unnamed Road, Wee Karou, Kec. Loli, Kabupaten Sumba Barat, Nusa Tenggara Tim.","Kabupaten Sumba Barat, Nusa Tenggara Tim.",NUSA TENGGARA TIMUR,,Indonesia,81237378379.0,,,-9.6448216,119.3987127,https://maps.google.com/?cid=0x0:0x21c917f934388713,
supermarket,Toserba,Toko Liberti,"9C98+V8C, Kp. Baru, Kec. Kota Waikabubak, Kabupaten Sumba Barat, Nusa Tenggara Tim.","Kabupaten Sumba Barat, Nusa Tenggara Tim.",NUSA TENGGARA TIMUR,,Indonesia,,,,-9.6303133,119.4157811,https://maps.google.com/?cid=0x0:0x8cacd8e7b6bf023a,
supermarket,Toko umum,Toko Teratai,"797V+27J, Ringu Rara, Kec. Lamboya, Kabupaten Sumba Barat, Nusa Tenggara Tim.","Kabupaten Sumba Barat, Nusa Tenggara Tim.",NUSA TENGGARA TIMUR,,Indonesia,,,,-9.7374048,119.3931455,https://maps.google.com/?cid=0x0:0x29af0769cbdf0a40,
supermarket,Toko,Galery 2,"9C73+9Q4, Jl. Pisang, Wailiang, Kec. Kota Waikabubak, Kabupaten Sumba Barat, Nusa Tenggara Tim.","Kabupaten Sumba Barat, Nusa Tenggara Tim.",NUSA TENGGARA TIMUR,,Indonesia,,,,-9.6366137,119.4044553,https://maps.google.com/?cid=0x0:0xc9890c807a47cc44,
supermarket,Toko Swalayan,Simphony,"9C76+9CX, Maliti, Kec. Kota Waikabubak, Kabupaten Sumba Barat, Nusa Tenggara Tim.","Kabupaten Sumba Barat, Nusa Tenggara Tim.",NUSA TENGGARA TIMUR,,Indonesia,,,,-9.6365234,119.4111112,https://maps.google.com/?cid=0x0:0xdcf20d73641513e6,
supermarket,supermarket,Kios Ibu Reta Pogowatu,"76QP+HX5, Wetana, Kec. Laboya Bar., Kabupaten Sumba Barat, Nusa Tenggara Tim.","Kabupaten Sumba Barat, Nusa Tenggara Tim.",NUSA TENGGARA TIMUR,,Indonesia,,,,-9.7111198,119.2374758,https://maps.google.com/?cid=0x0:0x1f048dd10b9c380e,
supermarket,Toko bahan makanan,Cahaya Anugrah,"7C42+XCP, Rua, Kec. Wanokaka, Kabupaten Sumba Barat, Nusa Tenggara Tim.","Kabupaten Sumba Barat, Nusa Tenggara Tim.",NUSA TENGGARA TIMUR,,Indonesia,,,,-9.7425476,119.4010876,https://maps.google.com/?cid=0x0:0x39a3381a0c32248,
supermarket,Kios,Kios Ramayana,"99GV+H5H, Jl. Adhyaksa, Pada Eweta, Kec. Kota Waikabubak, Kabupaten Sumba Barat, Nusa Tenggara Tim.","Kabupaten Sumba Barat, Nusa Tenggara Tim.",NUSA TENGGARA TIMUR,,Indonesia,,,,-9.6236458,119.3934049,https://maps.google.com/?cid=0x0:0xfdba3cb6913da929,
supermarket,Toko bahan makanan,PARIS INDAH,"793X+MR6, Unnamed Road, Rua, Kec. Wanokaka, Kabupaten Sumba Barat, Nusa Tenggara Tim.","Kabupaten Sumba Barat, Nusa Tenggara Tim.",NUSA TENGGARA TIMUR,,Indonesia,81335773657.0,,,-9.7458319,119.3995147,https://maps.google.com/?cid=0x0:0x89e1be79cbf3386d,
supermarket,Toko bahan makanan,Toko Karya Agung,"Jl. Ahmad Yani, Komerda, Kec. Kota Waikabubak, Kabupaten Sumba Barat, Nusa Tenggara Tim.","Kabupaten Sumba Barat, Nusa Tenggara Tim.",NUSA TENGGARA TIMUR,,Indonesia,38721033.0,,,-9.6330306,119.4111382,https://maps.google.com/?cid=0x0:0xe93b82eea4e94625,
supermarket,Minimarket,Alfamart Adiyaksa,"99HJ+9P2, Jl. Adyaksa, Pada Eweta, Kec. Kota Waikabubak, Kabupaten Sumba Barat, Nusa Tenggara Tim.","Kabupaten Sumba Barat, Nusa Tenggara Tim.",NUSA TENGGARA TIMUR,,Indonesia,,,,-9.6215937,119.3815144,https://maps.google.com/?cid=0x0:0x4d3752982f954d5b,
supermarket,Penginapan,Kharisma BTN 2,"Jalan Masuk Perumahan BTN, Kec. Kota Waikabubak, Nusa Tenggara Tim. 87284",Kec. Kota Waikabubak,NUSA TENGGARA TIMUR,87284.0,Indonesia,81233939988.0,,,-9.6534956,119.3878889,https://maps.google.com/?cid=0x0:0xe8a41761068cf0e5,
supermarket,Toko bahan makanan,KUNING MAS,"99GQ+673, Jl. Ahmad Yani, Pada Eweta, Kec. Kota Waikabubak, Kabupaten Sumba Barat, Nusa Tenggara Tim.","Kabupaten Sumba Barat, Nusa Tenggara Tim.",NUSA TENGGARA TIMUR,,Indonesia,,,,-9.6244803,119.3881711,https://maps.google.com/?cid=0x0:0xf1573237abe68a8c,
supermarket,Grosir,Toko Sinar Surya Utama,"9C85+2J2, Wailiang, Kec. Kota Waikabubak, Kabupaten Sumba Barat, Nusa Tenggara Tim.","Kabupaten Sumba Barat, Nusa Tenggara Tim.",NUSA TENGGARA TIMUR,,Indonesia,,,,-9.6349941,119.409021,https://maps.google.com/?cid=0x0:0x89b7a2f1d0722beb,
supermarket,Toko bahan makanan,Toko Pada Elo,"99CQ+G7F, Pada Eweta, Kec. Kota Waikabubak, Kabupaten Sumba Barat, Nusa Tenggara Tim.","Kabupaten Sumba Barat, Nusa Tenggara Tim.",NUSA TENGGARA TIMUR,,Indonesia,85237739481.0,,,-9.6286875,119.3881783,https://maps.google.com/?cid=0x0:0x8e13b333c690abd3,
supermarket,Toko bahan makanan,Kios atalea,"9CF8+PJH, Kp. Baru, Kec. Kota Waikabubak, Kabupaten Sumba Barat, Nusa Tenggara Tim.","Kabupaten Sumba Barat, Nusa Tenggara Tim.",NUSA TENGGARA TIMUR,,Indonesia,,,,-9.6256853,119.4166164,https://maps.google.com/?cid=0x0:0x19775334836af63b,
