Category,Real Category,Business Name,Address,City,State,Postal Code,Country,Phone,Email,Website,Latitude,Longitude,Map Link,Details Link
perumahan,Sekolah menengah,SMA Negeri 1 Tana Righu,"Loko Ry, Kec. Tana Righu, Kabupaten Sumba Barat, Nusa Tenggara Tim.","Kabupaten Sumba Barat, Nusa Tenggara Tim.",NUSA TENGGARA TIMUR,,Indonesia,,,,-9.4365618,119.3845562,https://maps.google.com/?cid=0x0:0xe4492f6b1278120d,
perumahan,Sekolah menengah,SMP Negeri 1 Tana Righu,"SMP Negeri 1 Tna Righu, malata., Kabupaten Barat, Nusa Tenggara Tim., Malata, Kec. Tana Righu, Kabupaten Sumba Barat, Nusa Tenggara Tim.","Kabupaten Sumba Barat, Nusa Tenggara Tim.",NUSA TENGGARA TIMUR,,Indonesia,,,,-9.4474573,119.3842372,https://maps.google.com/?cid=0x0:0xf8e1de0a04f4e0a6,
perumahan,perumahan,Kec. Tana Righu,"Kabupaten Sumba Barat, Nusa Tenggara Tim.","Kabupaten Sumba Barat, Nusa Tenggara Tim.",NUSA TENGGARA TIMUR,,Indonesia,,,,-9.4191853,119.398791,https://maps.google.com/?cid=0x0:0xb9763f309124fdd0,
perumahan,Komplek perumahan,Bapa titin,"H9JW+4X2, Loko Ry, Kec. Tana Righu, Kabupaten Sumba Barat, Nusa Tenggara Tim.","Kabupaten Sumba Barat, Nusa Tenggara Tim.",NUSA TENGGARA TIMUR,,Indonesia,,,,-9.4197353,119.3983087,https://maps.google.com/?cid=0x0:0x6f2f2b54d506db43,
perumahan,Perhimpunan Pengembang Perumahan,Tanggu Kai,"FCH7+RWV Tanggu kai, Kareka Nduku, Kec. Tana Righu, Kabupaten Sumba Barat, Nusa Tenggara Tim.","Kabupaten Sumba Barat, Nusa Tenggara Tim.",NUSA TENGGARA TIMUR,,Indonesia,,,,-9.5203998,119.4147903,https://maps.google.com/?cid=0x0:0xdde2275da9b9546a,
perumahan,Komplek perumahan,perumahan KAT Binanatu,"JC54+XCM, Loko Ry, Kec. Tana Righu, Kabupaten Sumba Barat, Nusa Tenggara Tim.","Kabupaten Sumba Barat, Nusa Tenggara Tim.",NUSA TENGGARA TIMUR,,Indonesia,,,,-9.3900417,119.4060406,https://maps.google.com/?cid=0x0:0xaecd59e7af7a7e2e,
perumahan,Komplek perumahan,Vebby,"H94G+3P, Malata, Kec. Tana Righu, Kabupaten Sumba Barat, Nusa Tenggara Tim.","Kabupaten Sumba Barat, Nusa Tenggara Tim.",NUSA TENGGARA TIMUR,,Indonesia,,,,-9.4418587,119.3808129,https://maps.google.com/?cid=0x0:0xf23f5c047459e9b,
perumahan,Komplek perumahan,Ombaghosa,"FCV2+652, Unnamed Road, Lingu Lango, Kec. Tana Righu, Kabupaten Sumba Barat, Nusa Tenggara Tim.","Kabupaten Sumba Barat, Nusa Tenggara Tim.",NUSA TENGGARA TIMUR,,Indonesia,,,,-9.5069845,119.4003844,https://maps.google.com/?cid=0x0:0x13d6988fdc1c2111,
perumahan,Komplek perumahan,Lani pandango,"G9WV+F5H, Ngadu Pada, Kec. Tana Righu, Kabupaten Sumba Barat, Nusa Tenggara Tim.","Kabupaten Sumba Barat, Nusa Tenggara Tim.",NUSA TENGGARA TIMUR,,Indonesia,,,,-9.4538044,119.3929975,https://maps.google.com/?cid=0x0:0x1f11b216b1574d91,
perumahan,Peternakan Ayam,Jual ayam Potong (Sam),"KALEBU ANA KAKA, Bondo Tera, Kec. Tana Righu, Kabupaten Sumba Barat, Nusa Tenggara Tim. 87257","Bondo Tera, Kec. Tana Righu, Kabupaten Sumba Barat",NUSA TENGGARA TIMUR,87257.0,Indonesia,,,,-9.5188346,119.4438001,https://maps.google.com/?cid=0x0:0x99ac2e3b96aa012,
perumahan,Perhimpunan Pengembang Perumahan,Rumahnya pak Marten,"Jalan Gollu Ghimbi No.Desa, Lolo Tana, Kec. Tana Righu, Kabupaten Sumba Barat, Nusa Tenggara Tim.","Kabupaten Sumba Barat, Nusa Tenggara Tim.",NUSA TENGGARA TIMUR,,Indonesia,,,,-9.4633231,119.4115568,https://maps.google.com/?cid=0x0:0x7b1c0f6f72697d68,
perumahan,Pembangunan Perumahan,Kampung Binakikulaboku,"FC78+CJ, Wanokaza, Kec. Tana Righu, Kabupaten Sumba Barat, Nusa Tenggara Tim.","Kabupaten Sumba Barat, Nusa Tenggara Tim.",NUSA TENGGARA TIMUR,,Indonesia,82359494727.0,,,-9.5365095,119.4165035,https://maps.google.com/?cid=0x0:0xf1b726e3bd3dade0,
perumahan,Pembangunan Perumahan,Ama aten citti,"HCJ2+FF8, Loko Ry, Kec. Tana Righu, Kabupaten Sumba Barat, Nusa Tenggara Tim.","Kabupaten Sumba Barat, Nusa Tenggara Tim.",NUSA TENGGARA TIMUR,,Indonesia,,,,-9.4188264,119.4012152,https://maps.google.com/?cid=0x0:0xa598fe23da516a28,
perumahan,Komplek perumahan,PANGAREP,"F9XM+5WR, Lingu Lango, Kec. Tana Righu, Kabupaten Sumba Barat, Nusa Tenggara Tim.","Kabupaten Sumba Barat, Nusa Tenggara Tim.",NUSA TENGGARA TIMUR,,Indonesia,,,,-9.5024145,119.3845841,https://maps.google.com/?cid=0x0:0xe47eca815317e91d,
perumahan,Komplek perumahan,Rumah besar keluarga anarato,"HCV4+QG4, Loko Ry, Kec. Tana Righu, Kabupaten Sumba Barat, Nusa Tenggara Tim.","Kabupaten Sumba Barat, Nusa Tenggara Tim.",NUSA TENGGARA TIMUR,,Indonesia,,,,-9.4056057,119.4063234,https://maps.google.com/?cid=0x0:0x2f3dce1bd4af12a0,
perumahan,Komplek perumahan,Rumah Rini Saingo,"FCHR+9J, Bondo Tera, Kec. Tana Righu, Kabupaten Sumba Barat, Nusa Tenggara Tim.","Kabupaten Sumba Barat, Nusa Tenggara Tim.",NUSA TENGGARA TIMUR,,Indonesia,,,,-9.5216382,119.4417095,https://maps.google.com/?cid=0x0:0x5070f6a92140b374,
perumahan,Komplek perumahan,RUMAH BP TON IVON,"H9JX+9P9, Loko Ry, Kec. Tana Righu, Kabupaten Sumba Barat, Nusa Tenggara Tim.","Kabupaten Sumba Barat, Nusa Tenggara Tim.",NUSA TENGGARA TIMUR,,Indonesia,,,,-9.4190935,119.3993617,https://maps.google.com/?cid=0x0:0xe09198883f36715a,
perumahan,Komplek perumahan,Rumah Ama Yuli Guru,"HCH2+6P, Loko Ry, Kec. Tana Righu, Kabupaten Sumba Barat, Nusa Tenggara Tim.","Kabupaten Sumba Barat, Nusa Tenggara Tim.",NUSA TENGGARA TIMUR,,Indonesia,,,,-9.4219246,119.401754,https://maps.google.com/?cid=0x0:0x2c38f0fe9991645e,
perumahan,Gereja,Loko Ry,"H9JX+9HQ, Loko Ry, Kec. Tana Righu, Kabupaten Sumba Barat, Nusa Tenggara Tim.","Kabupaten Sumba Barat, Nusa Tenggara Tim.",NUSA TENGGARA TIMUR,,Indonesia,,,,-9.4190351,119.3989694,https://maps.google.com/?cid=0x0:0x6c84658a12ec135,
perumahan,Komplek perumahan,Perumahan Translok,"GCJJ+GWM, Lolo Wano, Kec. Tana Righu, Kabupaten Sumba Barat, Nusa Tenggara Tim.","Kabupaten Sumba Barat, Nusa Tenggara Tim.",NUSA TENGGARA TIMUR,,Indonesia,,,,-9.4686554,119.4322948,https://maps.google.com/?cid=0x0:0xa98b46daea4176cf,
perumahan,perumahan,Rumah eko,"GC3H+88, Wee Patola, Kec. Tana Righu, Kabupaten Sumba Barat, Nusa Tenggara Tim.","Kabupaten Sumba Barat, Nusa Tenggara Tim.",NUSA TENGGARA TIMUR,,Indonesia,,,,-9.4967023,119.428232,https://maps.google.com/?cid=0x0:0x10e0e5f5afc91972,
perumahan,Perumahan,Welly house,"H9FR+5W2, Loko Ry, Kec. Tana Righu, Kabupaten Sumba Barat, Nusa Tenggara Tim.","Kabupaten Sumba Barat, Nusa Tenggara Tim.",NUSA TENGGARA TIMUR,,Indonesia,,,,-9.4271141,119.392271,https://maps.google.com/?cid=0x0:0x5f31e044f927d538,
perumahan,Pembangunan Perumahan,Dikita,"FCVG+RMR, Wee Patola, Kec. Tana Righu, Kabupaten Sumba Barat, Nusa Tenggara Tim.","Kabupaten Sumba Barat, Nusa Tenggara Tim.",NUSA TENGGARA TIMUR,,Indonesia,,,,-9.5053772,119.4266385,https://maps.google.com/?cid=0x0:0xd33489a1be77f968,
perumahan,perumahan,Nusa Tenggara Tim.,,Nusa Tenggara Tim.,NUSA TENGGARA TIMUR,,Indonesia,,,,-8.6573819,121.0793705,https://maps.google.com/?cid=0x0:0x1030bfbcaf71ae0,
perumahan,Komplek perumahan,Perumahan Saudara Sejati,"9C33+MF9, Weekarou Road, Wee Karou, Kec. Loli, Kabupaten Sumba Barat, Nusa Tenggara Tim.","Kabupaten Sumba Barat, Nusa Tenggara Tim.",NUSA TENGGARA TIMUR,,Indonesia,,,,-9.6458497,119.4037407,https://maps.google.com/?cid=0x0:0x124b4738153cb376,
perumahan,Komplek perumahan,Rumah BTN,"Komplek perumahan weekarau permai indah, blok d16, Wee Karou, Kec. Loli, Kabupaten Sumba Barat, Nusa Tenggara Tim.","Kabupaten Sumba Barat, Nusa Tenggara Tim.",NUSA TENGGARA TIMUR,,Indonesia,,,,-9.6566884,119.3857793,https://maps.google.com/?cid=0x0:0xfa92ff1d236750d1,
perumahan,perumahan,Rumah,"RJJV+QRQ, Liliba, Kec. Oebobo, Kota Kupang, Nusa Tenggara Tim.","Kota Kupang, Nusa Tenggara Tim.",NUSA TENGGARA TIMUR,,Indonesia,,,,-10.1680486,123.6446032,https://maps.google.com/?cid=0x0:0x1d0f67be4276306b,
perumahan,perumahan,Kec. Wanokaka,"Kabupaten Sumba Barat, Nusa Tenggara Tim.","Kabupaten Sumba Barat, Nusa Tenggara Tim.",NUSA TENGGARA TIMUR,,Indonesia,,,,-9.7227274,119.4528333,https://maps.google.com/?cid=0x0:0xb894aaab28ba27d5,
perumahan,Otoritas Perumahan,Perumahan Wee Karou Permai,"89VP+JCP, Wee Karou, Kec. Loli, Kabupaten Sumba Barat, Nusa Tenggara Tim.","Kabupaten Sumba Barat, Nusa Tenggara Tim.",NUSA TENGGARA TIMUR,,Indonesia,,,,-9.655906,119.3860825,https://maps.google.com/?cid=0x0:0xccd95e44c08291d3,
perumahan,Komplek perumahan,Perumahan BTN Baru Weekarou Permai Indah,"89VQ+F25, BTN Baru Weekarou, Permai Indah (WPI, Kelurahan Loda Pare, Kec. Loli, Kabupaten Sumba Barat, Nusa Tenggara Tim.","Kabupaten Sumba Barat, Nusa Tenggara Tim.",NUSA TENGGARA TIMUR,,Indonesia,,,,-9.6563666,119.387603,https://maps.google.com/?cid=0x0:0x84800d4ca23337de,
perumahan,Komplek perumahan,Perumahan Saudara Sejati,"9C33+MF9, Weekarou Road, Wee Karou, Kec. Loli, Kabupaten Sumba Barat, Nusa Tenggara Tim.","Kabupaten Sumba Barat, Nusa Tenggara Tim.",NUSA TENGGARA TIMUR,,Indonesia,,,,-9.6458497,119.4037407,https://maps.google.com/?cid=0x0:0x124b4738153cb376,
perumahan,Komplek perumahan,Rumah BTN,"Komplek perumahan weekarau permai indah, blok d16, Wee Karou, Kec. Loli, Kabupaten Sumba Barat, Nusa Tenggara Tim.","Kabupaten Sumba Barat, Nusa Tenggara Tim.",NUSA TENGGARA TIMUR,,Indonesia,,,,-9.6566884,119.3857793,https://maps.google.com/?cid=0x0:0xfa92ff1d236750d1,
perumahan,perumahan,Lelewatu Resort Sumba,"Jl. Lelewatu No.168, Hoba Wawi, Wanokaka, Sumba, East Nusa Tenggara 87272","Hoba Wawi, Wanokaka, Sumba",NUSA TENGGARA TIMUR,87272.0,Indonesia,81139606060.0,,,-9.7911026,119.3807849,https://maps.google.com/?cid=0x0:0xe3cfeaac2ee41407,
perumahan,perumahan,Nihiwatu Beach,Nusa Tenggara Tim.,Nusa Tenggara Tim.,NUSA TENGGARA TIMUR,,Indonesia,,,,-9.7720795,119.3682249,https://maps.google.com/?cid=0x0:0x54c747e3fc22ac63,
perumahan,perumahan,Three Queen Villa and Homestay,"7F42+W7, Wai Hura, Kec. Wanokaka, Kabupaten Sumba Barat, Nusa Tenggara Tim.","Kabupaten Sumba Barat, Nusa Tenggara Tim.",NUSA TENGGARA TIMUR,,Indonesia,87865507477.0,,,-9.7430813,119.4506213,https://maps.google.com/?cid=0x0:0xccaae4f6d9e697e7,
perumahan,Tujuan Wisata,View Point Of Praijing Village,"9C4J+RCH, Tebara, Kec. Kota Waikabubak, Kabupaten Sumba Barat, Nusa Tenggara Tim.","Kabupaten Sumba Barat, Nusa Tenggara Tim.",NUSA TENGGARA TIMUR,,Indonesia,,,,-9.6429446,119.4310958,https://maps.google.com/?cid=0x0:0xd8c88669a951ac4e,
perumahan,Tujuan Wisata,Kampung Prai Ijing,"9C5J+F73, Tebara, Kec. Kota Waikabubak, Kabupaten Sumba Barat, Nusa Tenggara Tim.","Kabupaten Sumba Barat, Nusa Tenggara Tim.",NUSA TENGGARA TIMUR,,Indonesia,81338254721.0,,,-9.6413527,119.4306809,https://maps.google.com/?cid=0x0:0xe7166dc23f44e00,
perumahan,Rumah wisata,Jhony Homestay,"7C3X+MPC, Prai Bakul, Kec. Wanokaka, Kabupaten Sumba Barat, Nusa Tenggara Tim.","Kabupaten Sumba Barat, Nusa Tenggara Tim.",NUSA TENGGARA TIMUR,,Indonesia,81236835144.0,,,-9.745818,119.4492619,https://maps.google.com/?cid=0x0:0x5b4cfc789162ecd5,
perumahan,Bangunan Bersejarah,Prai Ijing Traditional Village,"9C4J+XCH, Tebara, Kec. Kota Waikabubak, Kabupaten Sumba Barat, Nusa Tenggara Tim.","Kabupaten Sumba Barat, Nusa Tenggara Tim.",NUSA TENGGARA TIMUR,,Indonesia,,,,-9.6425529,119.431103,https://maps.google.com/?cid=0x0:0xfc1079c4a7a86f12,
perumahan,perumahan,Kabupaten Sumba Barat,Nusa Tenggara Tim.,"Kabupaten Sumba Barat, Nusa Tenggara Tim.",NUSA TENGGARA TIMUR,,Indonesia,,,,-9.6548326,119.3947135,https://maps.google.com/?cid=0x0:0x660ce04d305c15d9,
perumahan,Jawa,RUMAH MAKAN MILENEAL,"7C52+WQ8, Rua, Kec. Wanokaka, Kabupaten Sumba Barat, Nusa Tenggara Tim.","Kabupaten Sumba Barat, Nusa Tenggara Tim.",NUSA TENGGARA TIMUR,,Indonesia,81279241023.0,,,-9.7401875,119.4019375,https://maps.google.com/?cid=0x0:0x5a21763dc6d7473d,
perumahan,,Kampung Adat Pasunga,"CH6F+CR3, Anakalang, Kec. Katikutana, Kabupaten Sumba Tengah, Nusa Tenggara Tim.","Kabupaten Sumba Tengah, Nusa Tenggara Tim.",NUSA TENGGARA TIMUR,,Indonesia,82266456310.0,,,-9.5889821,119.5745392,https://maps.google.com/?cid=0x0:0x8a90635ecdf0bb11,
perumahan,perumahan,Morika Inn and Cafe,"Wee Karou, Kec. Loli, Kabupaten Sumba Barat, Nusa Tenggara Tim.","Kabupaten Sumba Barat, Nusa Tenggara Tim.",NUSA TENGGARA TIMUR,,Indonesia,81259541325.0,,,-9.6453034,119.3963347,https://maps.google.com/?cid=0x0:0x1d57ab1c9a7d79cf,
perumahan,perumahan,NIHI Sumba,"Hoba Wawi, Kec. Wanokaka, Kabupaten Sumba Barat, Nusa Tenggara Tim.","Kabupaten Sumba Barat, Nusa Tenggara Tim.",NUSA TENGGARA TIMUR,,Indonesia,361757149.0,,,-9.7776308,119.3762222,https://maps.google.com/?cid=0x0:0x2b81189bedf1a30a,
perumahan,perumahan,,,,NUSA TENGGARA TIMUR,,Indonesia,,,,,,https://maps.google.com/?cid=0x0:0x2b81189bedf1a30a%7C/g/11bc7r28bv%7Cid-ID,
perumahan,perumahan,Malinjak,"Kec. Katikutana Sel., Kabupaten Sumba Tengah, Nusa Tenggara Tim.","Kabupaten Sumba Tengah, Nusa Tenggara Tim.",NUSA TENGGARA TIMUR,,Indonesia,,,,-9.6639442,119.5629662,https://maps.google.com/?cid=0x0:0x804fa4599190d8b,
perumahan,Padang,Rumah Makan Pondok Salero,"9C65+V82, Wailiang, Kec. Kota Waikabubak, Kabupaten Sumba Barat, Nusa Tenggara Tim.","Kabupaten Sumba Barat, Nusa Tenggara Tim.",NUSA TENGGARA TIMUR,,Indonesia,81337757728.0,,,-9.6378679,119.4082565,https://maps.google.com/?cid=0x0:0xcba49331c1564d4,
perumahan,Restoran,Rumah Makan Blessing,"792W+58X, Rua, Kec. Wanokaka, Kabupaten Sumba Barat, Nusa Tenggara Tim.","Kabupaten Sumba Barat, Nusa Tenggara Tim.",NUSA TENGGARA TIMUR,,Indonesia,81335794307.0,,,-9.7497947,119.3967307,https://maps.google.com/?cid=0x0:0xa300f0ef229f6058,
perumahan,perumahan,Tebara,"Kec. Kota Waikabubak, Kabupaten Sumba Barat, Nusa Tenggara Tim.","Kabupaten Sumba Barat, Nusa Tenggara Tim.",NUSA TENGGARA TIMUR,,Indonesia,,,,-9.6582303,119.4382459,https://maps.google.com/?cid=0x0:0x8d5519f438568a11,
perumahan,perumahan,Watu Lella Wawi,"7CGJ+JH, Mamodu, Kec. Wanokaka, Kabupaten Sumba Barat, Nusa Tenggara Tim.","Kabupaten Sumba Barat, Nusa Tenggara Tim.",NUSA TENGGARA TIMUR,,Indonesia,,,,-9.7234205,119.4314423,https://maps.google.com/?cid=0x0:0xba430c2915e93413,
perumahan,Komplek perumahan,Kampung Kolutena,"7C4W+RX, Wai Hura, Kec. Wanokaka, Kabupaten Sumba Barat, Nusa Tenggara Tim.","Kabupaten Sumba Barat, Nusa Tenggara Tim.",NUSA TENGGARA TIMUR,,Indonesia,,,,-9.742997,119.4474638,https://maps.google.com/?cid=0x0:0x6b5456ad0a184cdd,
perumahan,Komplek perumahan,KAMPUNG TANAWAKAT,"8F53+RQ6, Katiku Loku, Kec. Wanokaka, Kabupaten Sumba Barat, Nusa Tenggara Tim.","Kabupaten Sumba Barat, Nusa Tenggara Tim.",NUSA TENGGARA TIMUR,,Indonesia,,,,-9.6904634,119.4543913,https://maps.google.com/?cid=0x0:0xae20b4dd90b47aa0,
perumahan,Perhimpunan Pengembang Perumahan,Watu bera,"7CX9+R3C, Prai Bakul, Kec. Wanokaka, Kabupaten Sumba Barat, Nusa Tenggara Tim.","Kabupaten Sumba Barat, Nusa Tenggara Tim.",NUSA TENGGARA TIMUR,,Indonesia,,,,-9.7004484,119.4176484,https://maps.google.com/?cid=0x0:0xb70a262981f01da7,
perumahan,Pembangunan Perumahan,KaliwuWora,"7FR3+2FM, Tara Manu, Kec. Wanokaka, Kabupaten Sumba Barat, Nusa Tenggara Tim.","Kabupaten Sumba Barat, Nusa Tenggara Tim.",NUSA TENGGARA TIMUR,,Indonesia,,,,-9.7090436,119.4526204,https://maps.google.com/?cid=0x0:0x3acba558e7364d20,
perumahan,Komplek perumahan,Lahidewa,"7FVF+8M, Hupu Mada, Kec. Wanokaka, Kabupaten Sumba Barat, Nusa Tenggara Tim.","Kabupaten Sumba Barat, Nusa Tenggara Tim.",NUSA TENGGARA TIMUR,,Indonesia,81337772519.0,,,-9.7066612,119.474189,https://maps.google.com/?cid=0x0:0x5b7a853563e9c84c,
perumahan,,Kampung Adat Keikun,"7CGX+MM8, Wai Hura, Kec. Wanokaka, Kabupaten Sumba Barat, Nusa Tenggara Tim.","Kabupaten Sumba Barat, Nusa Tenggara Tim.",NUSA TENGGARA TIMUR,,Indonesia,,,,-9.7233309,119.4492083,https://maps.google.com/?cid=0x0:0xa640b201a65a0cc0,
perumahan,perumahan,Kec. Lamboya,"Kabupaten Sumba Barat, Nusa Tenggara Tim.","Kabupaten Sumba Barat, Nusa Tenggara Tim.",NUSA TENGGARA TIMUR,,Indonesia,,,,-9.7205484,119.35646,https://maps.google.com/?cid=0x0:0x5968d2d2a2f91860,
perumahan,Komplek perumahan,Kampung Lawuta,"796X+W7W, Kampung Lawuta, Dusun 1, Rajaka, Kec. Lamboya, Kabupaten Sumba Barat, Nusa Tenggara Tim.","Kabupaten Sumba Barat, Nusa Tenggara Tim.",NUSA TENGGARA TIMUR,,Indonesia,,,,-9.7376342,119.3982037,https://maps.google.com/?cid=0x0:0x591d038be4fdb0d4,
perumahan,Komplek perumahan,Kampung Moritana,"79HM+PWG, Kampung Moritana, Dusun 4, Rajaka, Kec. Lamboya, Kabupaten Sumba Barat, Nusa Tenggara Tim.","Kabupaten Sumba Barat, Nusa Tenggara Tim.",NUSA TENGGARA TIMUR,,Indonesia,,,,-9.7206978,119.3848321,https://maps.google.com/?cid=0x0:0xc29c09a360544ffd,
perumahan,Komplek perumahan,Tana Woto Village,"79F9+V9J, Unnamed Road, Kabu Karudi, Kec. Lamboya, Kabupaten Sumba Barat, Nusa Tenggara Tim.","Kabupaten Sumba Barat, Nusa Tenggara Tim.",NUSA TENGGARA TIMUR,,Indonesia,,,,-9.7252846,119.368406,https://maps.google.com/?cid=0x0:0x26d90a688a81e317,
perumahan,Komplek perumahan,Kampung Praimodi,"79RV+PMV, Kampung Praimodi, Dusun 4, Rajaka, Kec. Lamboya, Kabupaten Sumba Barat, Nusa Tenggara Tim.","Kabupaten Sumba Barat, Nusa Tenggara Tim.",NUSA TENGGARA TIMUR,,Indonesia,,,,-9.7081497,119.3941656,https://maps.google.com/?cid=0x0:0xab76fca57bfc0a2f,
perumahan,Komplek perumahan,Kampung Kapaka,"796V+XJP, Kampung Kapaka, Dusun 1, Rajaka, Kec. Lamboya, Kabupaten Sumba Barat, Nusa Tenggara Tim.","Kabupaten Sumba Barat, Nusa Tenggara Tim.",NUSA TENGGARA TIMUR,,Indonesia,,,,-9.7375311,119.3940931,https://maps.google.com/?cid=0x0:0x30cc97549ea849b3,
perumahan,Otoritas Perumahan,Perumahan Wee Karou Permai,"89VP+JCP, Wee Karou, Kec. Loli, Kabupaten Sumba Barat, Nusa Tenggara Tim.","Kabupaten Sumba Barat, Nusa Tenggara Tim.",NUSA TENGGARA TIMUR,,Indonesia,,,,-9.655906,119.3860825,https://maps.google.com/?cid=0x0:0xccd95e44c08291d3,
perumahan,Komplek perumahan,Kampung TogowokoWaja,"78FQ+3W, Laboya Bawa, Kec. Lamboya, Kabupaten Sumba Barat, Nusa Tenggara Tim.","Kabupaten Sumba Barat, Nusa Tenggara Tim.",NUSA TENGGARA TIMUR,,Indonesia,,,,-9.7261416,119.3402183,https://maps.google.com/?cid=0x0:0x4cc968622668f210,
perumahan,Komplek perumahan,Kampung Bokariri,"798W+HJG, Kampung Bokariri, Dusun 1, Rajaka, Kec. Lamboya, Kabupaten Sumba Barat, Nusa Tenggara Tim.","Kabupaten Sumba Barat, Nusa Tenggara Tim.",NUSA TENGGARA TIMUR,,Indonesia,,,,-9.73356,119.3965677,https://maps.google.com/?cid=0x0:0x32ee5e709f75ad72,
perumahan,Komplek perumahan,Kampung Galuwayi,"7C74+M4H, Kampung Galuwayi, Dusun 1, Rajaka, Kec. Lamboya, Kabupaten Sumba Barat, Nusa Tenggara Tim.","Kabupaten Sumba Barat, Nusa Tenggara Tim.",NUSA TENGGARA TIMUR,,Indonesia,,,,-9.7358029,119.4053615,https://maps.google.com/?cid=0x0:0xfecaaf59e740ff20,
perumahan,Nasi,Tana Malli,"78CX+M6G, Laboya Bawa, Kec. Lamboya, Kabupaten Sumba Barat, Nusa Tenggara Tim.","Kabupaten Sumba Barat, Nusa Tenggara Tim.",NUSA TENGGARA TIMUR,,Indonesia,,,,-9.7283228,119.3480789,https://maps.google.com/?cid=0x0:0x6cfeda3c25d0f8b8,
perumahan,Komplek perumahan,Kampung Lete Kapata,"797R+M5C Kampung Lete Kapata, Dusun 2, Rajaka, Kec. Lamboya, Kabupaten Sumba Barat, Nusa Tenggara Tim.","Kabupaten Sumba Barat, Nusa Tenggara Tim.",NUSA TENGGARA TIMUR,,Indonesia,,,,-9.7358201,119.3904055,https://maps.google.com/?cid=0x0:0x4c4e2b56e0755f85,
perumahan,Komplek perumahan,Kampung Baru,"79CQ+448, Kampung Baru, Dusun 2, Rajaka, Kec. Lamboya, Kabupaten Sumba Barat, Nusa Tenggara Tim.","Kabupaten Sumba Barat, Nusa Tenggara Tim.",NUSA TENGGARA TIMUR,,Indonesia,,,,-9.7297117,119.3878261,https://maps.google.com/?cid=0x0:0x1746180e6609d7a5,
perumahan,Komplek perumahan,Kampung Kajelo,"797V+G5R, Kampung Kajelo, Dusun 1, Rajaka, Kec. Lamboya, Kabupaten Sumba Barat, Nusa Tenggara Tim.","Kabupaten Sumba Barat, Nusa Tenggara Tim.",NUSA TENGGARA TIMUR,,Indonesia,,,,-9.7361437,119.3928902,https://maps.google.com/?cid=0x0:0xc83cad7faf9112bf,
perumahan,Komplek perumahan,Kampung Lete Baraha,"Kampung Lete Baraha, Dusun 1, Rajaka, Kec. Lamboya, Kabupaten Sumba Barat, Nusa Tenggara Tim.","Kabupaten Sumba Barat, Nusa Tenggara Tim.",NUSA TENGGARA TIMUR,,Indonesia,,,,-9.7384592,119.4016938,https://maps.google.com/?cid=0x0:0x40c48b432fd9e14,
perumahan,Komplek perumahan,Kampung Berakabita,"79G6+R7V, Jl, Kabu Karudi, Kec. Lamboya, Kabupaten Sumba Barat, Nusa Tenggara Tim.","Kabupaten Sumba Barat, Nusa Tenggara Tim.",NUSA TENGGARA TIMUR,,Indonesia,,,,-9.7216215,119.3606733,https://maps.google.com/?cid=0x0:0x89a827b43557fb42,
perumahan,Komplek perumahan,Kampung Lete Dikta,"Kampung Lete Dikta, Dusun 1, Rajaka, Kec. Lamboya, Kabupaten Sumba Barat, Nusa Tenggara Tim.","Kabupaten Sumba Barat, Nusa Tenggara Tim.",NUSA TENGGARA TIMUR,,Indonesia,,,,-9.7222554,119.3918108,https://maps.google.com/?cid=0x0:0x2e337882e0a10536,
perumahan,Komplek perumahan,Kampung Dimu Kutra,"79JP+F59, Rajaka, Kec. Lamboya, Kabupaten Sumba Barat, Nusa Tenggara Tim.","Kabupaten Sumba Barat, Nusa Tenggara Tim.",NUSA TENGGARA TIMUR,,Indonesia,,,,-9.7188449,119.3854911,https://maps.google.com/?cid=0x0:0x6418f91e87725ab9,
perumahan,Pembangunan Perumahan,Watusippi Village,"89G8+298, Sodana, Kec. Lamboya, Kabupaten Sumba Barat, Nusa Tenggara Tim.","Kabupaten Sumba Barat, Nusa Tenggara Tim.",NUSA TENGGARA TIMUR,,Indonesia,,,,-9.6749646,119.3659457,https://maps.google.com/?cid=0x0:0xeb585b0a4b370ed1,
perumahan,Pembangunan Perumahan,Kampung Bodowunta,"Bodowunta, Laboya Bawa, Kec. Lamboya, Kabupaten Sumba Barat, Nusa Tenggara Tim.","Kabupaten Sumba Barat, Nusa Tenggara Tim.",NUSA TENGGARA TIMUR,,Indonesia,,,,-9.7303667,119.3426191,https://maps.google.com/?cid=0x0:0xc4f0052106a5b5ff,
perumahan,Komplek perumahan,Kampung Kawaraka,"79CV+6HQ, Kampung Kawaraka, Dusun 2, Rajaka, Kec. Lamboya, Kabupaten Sumba Barat, Nusa Tenggara Tim.","Kabupaten Sumba Barat, Nusa Tenggara Tim.",NUSA TENGGARA TIMUR,,Indonesia,,,,-9.7294152,119.3939719,https://maps.google.com/?cid=0x0:0x6a9f5a55a077a81d,
perumahan,Komplek perumahan,Kampung Kapaji,"79PP+M48, Kampung Kapaji, Dusun 4, Rajaka, Kec. Lamboya, Kabupaten Sumba Barat, Nusa Tenggara Tim.","Kabupaten Sumba Barat, Nusa Tenggara Tim.",NUSA TENGGARA TIMUR,,Indonesia,,,,-9.7133334,119.3853164,https://maps.google.com/?cid=0x0:0xd916da64325c8332,
perumahan,perumahan,Kampung SUBAKA,"8987+VR, Laboya Dete, Kec. Lamboya, Kabupaten Sumba Barat, Nusa Tenggara Tim.","Kabupaten Sumba Barat, Nusa Tenggara Tim.",NUSA TENGGARA TIMUR,,Indonesia,,,,-9.6828387,119.3645331,https://maps.google.com/?cid=0x0:0xc947899f6d25ea46,
perumahan,Komplek perumahan,Wengaingo,"789V+RWC, Laboya Bawa, Kec. Lamboya, Kabupaten Sumba Barat, Nusa Tenggara Tim.","Kabupaten Sumba Barat, Nusa Tenggara Tim.",NUSA TENGGARA TIMUR,,Indonesia,,,,-9.729998,119.344352,https://maps.google.com/?cid=0x0:0x4c01fdd6e493a637,
perumahan,perumahan,Kec. Kota Waikabubak,"Kabupaten Sumba Barat, Nusa Tenggara Tim.","Kabupaten Sumba Barat, Nusa Tenggara Tim.",NUSA TENGGARA TIMUR,,Indonesia,,,,-9.6318508,119.4116981,https://maps.google.com/?cid=0x0:0xc0a3b8deb8dcb273,
perumahan,Otoritas Perumahan,Perumahan Wee Karou Permai,"89VP+JCP, Wee Karou, Kec. Loli, Kabupaten Sumba Barat, Nusa Tenggara Tim.","Kabupaten Sumba Barat, Nusa Tenggara Tim.",NUSA TENGGARA TIMUR,,Indonesia,,,,-9.655906,119.3860825,https://maps.google.com/?cid=0x0:0xccd95e44c08291d3,
perumahan,Tujuan Wisata,View Point Of Praijing Village,"9C4J+RCH, Tebara, Kec. Kota Waikabubak, Kabupaten Sumba Barat, Nusa Tenggara Tim.","Kabupaten Sumba Barat, Nusa Tenggara Tim.",NUSA TENGGARA TIMUR,,Indonesia,,,,-9.6429446,119.4310958,https://maps.google.com/?cid=0x0:0xd8c88669a951ac4e,
perumahan,Komplek perumahan,Perumahan BTN Baru Weekarou Permai Indah,"89VQ+F25, BTN Baru Weekarou, Permai Indah (WPI, Kelurahan Loda Pare, Kec. Loli, Kabupaten Sumba Barat, Nusa Tenggara Tim.","Kabupaten Sumba Barat, Nusa Tenggara Tim.",NUSA TENGGARA TIMUR,,Indonesia,,,,-9.6563666,119.387603,https://maps.google.com/?cid=0x0:0x84800d4ca23337de,
perumahan,Tujuan Wisata,Kampung Prai Ijing,"9C5J+F73, Tebara, Kec. Kota Waikabubak, Kabupaten Sumba Barat, Nusa Tenggara Tim.","Kabupaten Sumba Barat, Nusa Tenggara Tim.",NUSA TENGGARA TIMUR,,Indonesia,81338254721.0,,,-9.6413527,119.4306809,https://maps.google.com/?cid=0x0:0xe7166dc23f44e00,
perumahan,Komplek perumahan,Perumahan Saudara Sejati,"9C33+MF9, Weekarou Road, Wee Karou, Kec. Loli, Kabupaten Sumba Barat, Nusa Tenggara Tim.","Kabupaten Sumba Barat, Nusa Tenggara Tim.",NUSA TENGGARA TIMUR,,Indonesia,,,,-9.6458497,119.4037407,https://maps.google.com/?cid=0x0:0x124b4738153cb376,
perumahan,Padang,Rumah Makan Pondok Salero,"9C65+V82, Wailiang, Kec. Kota Waikabubak, Kabupaten Sumba Barat, Nusa Tenggara Tim.","Kabupaten Sumba Barat, Nusa Tenggara Tim.",NUSA TENGGARA TIMUR,,Indonesia,81337757728.0,,,-9.6378679,119.4082565,https://maps.google.com/?cid=0x0:0xcba49331c1564d4,
perumahan,Toko Bahan Bangunan,Toko Makmur,"Jl. Ahmad Yani No.3, Komerda, Kec. Kota Waikabubak, Kabupaten Sumba Barat, Nusa Tenggara Tim. 87211","Komerda, Kec. Kota Waikabubak, Kabupaten Sumba Barat",NUSA TENGGARA TIMUR,87211.0,Indonesia,81339020447.0,,,-9.6323297,119.411732,https://maps.google.com/?cid=0x0:0x70171ded7fc96b84,
perumahan,Bangunan Bersejarah,Prai Ijing Traditional Village,"9C4J+XCH, Tebara, Kec. Kota Waikabubak, Kabupaten Sumba Barat, Nusa Tenggara Tim.","Kabupaten Sumba Barat, Nusa Tenggara Tim.",NUSA TENGGARA TIMUR,,Indonesia,,,,-9.6425529,119.431103,https://maps.google.com/?cid=0x0:0xfc1079c4a7a86f12,
perumahan,Komplek perumahan,Rumah BTN,"Komplek perumahan weekarau permai indah, blok d16, Wee Karou, Kec. Loli, Kabupaten Sumba Barat, Nusa Tenggara Tim.","Kabupaten Sumba Barat, Nusa Tenggara Tim.",NUSA TENGGARA TIMUR,,Indonesia,,,,-9.6566884,119.3857793,https://maps.google.com/?cid=0x0:0xfa92ff1d236750d1,
perumahan,Indonesia,Rumah Makan Rahayu,"9C75+3VM, Maliti, Kec. Kota Waikabubak, Kabupaten Sumba Barat, Nusa Tenggara Tim.","Kabupaten Sumba Barat, Nusa Tenggara Tim.",NUSA TENGGARA TIMUR,,Indonesia,,,,-9.6372872,119.4096593,https://maps.google.com/?cid=0x0:0x18b98280f58197de,
perumahan,Restoran,D'Sumba Ate,"Jl. Ahmad Yani No.148 A, Wailiang, Kec. Kota Waikabubak, Kabupaten Sumba Barat, Nusa Tenggara Tim. 87211","Wailiang, Kec. Kota Waikabubak, Kabupaten Sumba Barat",NUSA TENGGARA TIMUR,87211.0,Indonesia,82146325612.0,,,-9.6428236,119.4082311,https://maps.google.com/?cid=0x0:0xb13af0eefc64bd7d,
perumahan,Restoran,Dapur Sumba Waikabubak,"Jl. Ahmad Yani No.51, Maliti, Kec. Kota Waikabubak, Kabupaten Sumba Barat, Nusa Tenggara Tim.","Kabupaten Sumba Barat, Nusa Tenggara Tim.",NUSA TENGGARA TIMUR,,Indonesia,81329575563.0,,,-9.6345839,119.4100495,https://maps.google.com/?cid=0x0:0xfffb69d9ed16ed21,
perumahan,Rumah Makan,Rumah Makan Pondok Bambu,"9C6C+RP6, Kp. Sawah, Kec. Kota Waikabubak, Kabupaten Sumba Barat, Nusa Tenggara Tim.","Kabupaten Sumba Barat, Nusa Tenggara Tim.",NUSA TENGGARA TIMUR,,Indonesia,81338595964.0,,,-9.637967,119.4217657,https://maps.google.com/?cid=0x0:0x3196530451f3d0e9,
perumahan,Restoran,Soemba Coffee  Resto Waikabubak,"Jl. Ahmad Yani No.119, Maliti, Kec. Kota Waikabubak, Kabupaten Sumba Barat, Nusa Tenggara Tim.","Kabupaten Sumba Barat, Nusa Tenggara Tim.",NUSA TENGGARA TIMUR,,Indonesia,82155665147.0,,,-9.638199,119.4078702,https://maps.google.com/?cid=0x0:0x7f6da285e14506ee,
perumahan,Rumah Makan,Rumah Makan Potre Koneng,"Jl. Manda Elu, Maliti, Kec. Kota Waikabubak, Kabupaten Sumba Barat, Nusa Tenggara Tim.","Kabupaten Sumba Barat, Nusa Tenggara Tim.",NUSA TENGGARA TIMUR,,Indonesia,,,,-9.6341112,119.4100438,https://maps.google.com/?cid=0x0:0x8f6808f90767e54,
perumahan,Toko Suvenir,UMMA KABA,"99GX+RGR, Jl. Simpang Puunaga, Pada Eweta, Kec. Kota Waikabubak, Kabupaten Sumba Barat, Nusa Tenggara Tim.","Kabupaten Sumba Barat, Nusa Tenggara Tim.",NUSA TENGGARA TIMUR,,Indonesia,81331970090.0,,,-9.6228783,119.3987502,https://maps.google.com/?cid=0x0:0x68900e85f3dc735,
perumahan,perumahan,Tarung,"Wailiang, Kec. Kota Waikabubak, Kabupaten Sumba Barat, Nusa Tenggara Tim.","Kabupaten Sumba Barat, Nusa Tenggara Tim.",NUSA TENGGARA TIMUR,,Indonesia,,,,-9.6327467,119.409698,https://maps.google.com/?cid=0x0:0x9ac314ba35176664,
perumahan,Tujuan Wisata,Kampung Tarung,"Wailiang, Kec. Kota Waikabubak, Kabupaten Sumba Barat, Nusa Tenggara Tim.","Kabupaten Sumba Barat, Nusa Tenggara Tim.",NUSA TENGGARA TIMUR,,Indonesia,82247562999.0,,,-9.6326473,119.4073704,https://maps.google.com/?cid=0x0:0xc8f717eb1a41562d,
perumahan,Komplek perumahan,Jln pisang wailiang Waikabubak,"9C73+CRQ, Jl. Pisang, Wailiang, Kec. Kota Waikabubak, Kabupaten Sumba Barat, Nusa Tenggara Tim.","Kabupaten Sumba Barat, Nusa Tenggara Tim.",NUSA TENGGARA TIMUR,,Indonesia,,,,-9.6364099,119.4045977,https://maps.google.com/?cid=0x0:0xd01246b50b4c398d,
perumahan,Gedung Apartemen,Waikabubak,"9C73+VWP malati, kel Jl gang ekapata, Wailiang, Kota Walkabubak, West Sumba Regency, East Nusa Tenggara","Kabupaten Sumba Barat, Nusa Tenggara Tim.",NUSA TENGGARA TIMUR,,Indonesia,,,,-9.6352994,119.404837,https://maps.google.com/?cid=0x0:0xa15a09c9451fc703,
perumahan,perumahan,Eden Home,"9CH2+9WX, Pada Eweta, Kec. Kota Waikabubak, Kabupaten Sumba Barat, Nusa Tenggara Tim.","Kabupaten Sumba Barat, Nusa Tenggara Tim.",NUSA TENGGARA TIMUR,,Indonesia,,,,-9.621513,119.4023548,https://maps.google.com/?cid=0x0:0x7c345aab21bc76d0,
perumahan,Pembangunan Perumahan,Wanno komi,"9C7R+26, Kalembu Kuni, Kec. Kota Waikabubak, Kabupaten Sumba Barat, Nusa Tenggara Tim.","Kabupaten Sumba Barat, Nusa Tenggara Tim.",NUSA TENGGARA TIMUR,,Indonesia,,,,-9.6373776,119.4405397,https://maps.google.com/?cid=0x0:0xd79a8ffda843ffcf,
perumahan,Komplek perumahan,Dewa Darma,"9CG6+JXQ, Kp. Baru, Kec. Kota Waikabubak, Kabupaten Sumba Barat, Nusa Tenggara Tim.","Kabupaten Sumba Barat, Nusa Tenggara Tim.",NUSA TENGGARA TIMUR,,Indonesia,,,,-9.6234035,119.4124892,https://maps.google.com/?cid=0x0:0x57074909e529e863,
perumahan,perumahan,Waikabubak kota dingin,"9C87+935, Komerda, Kec. Kota Waikabubak, Kabupaten Sumba Barat, Nusa Tenggara Tim.","Kabupaten Sumba Barat, Nusa Tenggara Tim.",NUSA TENGGARA TIMUR,,Indonesia,,,,-9.6341184,119.4127389,https://maps.google.com/?cid=0x0:0x9ee32f7e0dbff57d,
perumahan,Perumahan,Rumah Alm Hamid Ambu Day,"Jl. Pisang No.34a, Wailiang, Kec. Kota Waikabubak, Kabupaten Sumba Barat, Nusa Tenggara Tim. 87211","Wailiang, Kec. Kota Waikabubak, Kabupaten Sumba Barat",NUSA TENGGARA TIMUR,87211.0,Indonesia,,,,-9.6346912,119.4054805,https://maps.google.com/?cid=0x0:0x3d2ec318e7be6230,
perumahan,Pembangunan Perumahan,David Japi,"99FM+763, Pada Eweta, Kec. Kota Waikabubak, Kabupaten Sumba Barat, Nusa Tenggara Tim.","Kabupaten Sumba Barat, Nusa Tenggara Tim.",NUSA TENGGARA TIMUR,,Indonesia,,,,-9.6268502,119.3830603,https://maps.google.com/?cid=0x0:0x64db424e4dabbf91,
perumahan,Pembangunan Perumahan,Doni Nenokeba,"99GJ+7VX, Jalan Makam Pahlawan, Pada Eweta, Kec. Kota Waikabubak, Kabupaten Sumba Barat, Nusa Tenggara Tim.","Kabupaten Sumba Barat, Nusa Tenggara Tim.",NUSA TENGGARA TIMUR,,Indonesia,,,,-9.6242558,119.3822354,https://maps.google.com/?cid=0x0:0xdd995a914a7fb83,
perumahan,perumahan,Praikajowa,"9C3J+VQ, Tebara, Kec. Kota Waikabubak, Kabupaten Sumba Barat, Nusa Tenggara Tim.","Kabupaten Sumba Barat, Nusa Tenggara Tim.",NUSA TENGGARA TIMUR,,Indonesia,,,,-9.6453102,119.431854,https://maps.google.com/?cid=0x0:0x1a94cb1e1062bbfd,
perumahan,perumahan,Kec. Kota Waikabubak,"Kabupaten Sumba Barat, Nusa Tenggara Tim.","Kabupaten Sumba Barat, Nusa Tenggara Tim.",NUSA TENGGARA TIMUR,,Indonesia,,,,-9.6318508,119.4116981,https://maps.google.com/?cid=0x0:0xc0a3b8deb8dcb273,
perumahan,Komplek perumahan,Jln pisang wailiang Waikabubak,"9C73+CRQ, Jl. Pisang, Wailiang, Kec. Kota Waikabubak, Kabupaten Sumba Barat, Nusa Tenggara Tim.","Kabupaten Sumba Barat, Nusa Tenggara Tim.",NUSA TENGGARA TIMUR,,Indonesia,,,,-9.6364099,119.4045977,https://maps.google.com/?cid=0x0:0xd01246b50b4c398d,
perumahan,Otoritas Perumahan,Perumahan Wee Karou Permai,"89VP+JCP, Wee Karou, Kec. Loli, Kabupaten Sumba Barat, Nusa Tenggara Tim.","Kabupaten Sumba Barat, Nusa Tenggara Tim.",NUSA TENGGARA TIMUR,,Indonesia,,,,-9.655906,119.3860825,https://maps.google.com/?cid=0x0:0xccd95e44c08291d3,
perumahan,Perumahan,Perumahan Wee Karou Permai Indah,"89VQ+J6M, Unnamed Road, Wee Karou, Kec. Loli, Kabupaten Sumba Barat, Nusa Tenggara Tim.","Kabupaten Sumba Barat, Nusa Tenggara Tim.",NUSA TENGGARA TIMUR,,Indonesia,,,,-9.6559103,119.3880615,https://maps.google.com/?cid=0x0:0xa2bc876d3b9946f3,
perumahan,Komplek perumahan,Perumahan Saudara Sejati,"9C33+MF9, Weekarou Road, Wee Karou, Kec. Loli, Kabupaten Sumba Barat, Nusa Tenggara Tim.","Kabupaten Sumba Barat, Nusa Tenggara Tim.",NUSA TENGGARA TIMUR,,Indonesia,,,,-9.6458497,119.4037407,https://maps.google.com/?cid=0x0:0x124b4738153cb376,
perumahan,Tujuan Wisata,View Point Of Praijing Village,"9C4J+RCH, Tebara, Kec. Kota Waikabubak, Kabupaten Sumba Barat, Nusa Tenggara Tim.","Kabupaten Sumba Barat, Nusa Tenggara Tim.",NUSA TENGGARA TIMUR,,Indonesia,,,,-9.6429446,119.4310958,https://maps.google.com/?cid=0x0:0xd8c88669a951ac4e,
perumahan,Padang,Rumah Makan Pondok Salero,"9C65+V82, Wailiang, Kec. Kota Waikabubak, Kabupaten Sumba Barat, Nusa Tenggara Tim.","Kabupaten Sumba Barat, Nusa Tenggara Tim.",NUSA TENGGARA TIMUR,,Indonesia,81337757728.0,,,-9.6378679,119.4082565,https://maps.google.com/?cid=0x0:0xcba49331c1564d4,
perumahan,Komplek perumahan,Rumah BTN,"Komplek perumahan weekarau permai indah, blok d16, Wee Karou, Kec. Loli, Kabupaten Sumba Barat, Nusa Tenggara Tim.","Kabupaten Sumba Barat, Nusa Tenggara Tim.",NUSA TENGGARA TIMUR,,Indonesia,,,,-9.6566884,119.3857793,https://maps.google.com/?cid=0x0:0xfa92ff1d236750d1,
perumahan,Tujuan Wisata,Kampung Prai Ijing,"9C5J+F73, Tebara, Kec. Kota Waikabubak, Kabupaten Sumba Barat, Nusa Tenggara Tim.","Kabupaten Sumba Barat, Nusa Tenggara Tim.",NUSA TENGGARA TIMUR,,Indonesia,81338254721.0,,,-9.6413527,119.4306809,https://maps.google.com/?cid=0x0:0xe7166dc23f44e00,
perumahan,Rumah Makan,Rumah Makan Pondok Bambu,"9C6C+RP6, Kp. Sawah, Kec. Kota Waikabubak, Kabupaten Sumba Barat, Nusa Tenggara Tim.","Kabupaten Sumba Barat, Nusa Tenggara Tim.",NUSA TENGGARA TIMUR,,Indonesia,81338595964.0,,,-9.637967,119.4217657,https://maps.google.com/?cid=0x0:0x3196530451f3d0e9,
perumahan,Restoran,Dapur Sumba Waikabubak,"Jl. Ahmad Yani No.51, Maliti, Kec. Kota Waikabubak, Kabupaten Sumba Barat, Nusa Tenggara Tim.","Kabupaten Sumba Barat, Nusa Tenggara Tim.",NUSA TENGGARA TIMUR,,Indonesia,81329575563.0,,,-9.6345839,119.4100495,https://maps.google.com/?cid=0x0:0xfffb69d9ed16ed21,
perumahan,perumahan,Tarung,"Wailiang, Kec. Kota Waikabubak, Kabupaten Sumba Barat, Nusa Tenggara Tim.","Kabupaten Sumba Barat, Nusa Tenggara Tim.",NUSA TENGGARA TIMUR,,Indonesia,,,,-9.6327467,119.409698,https://maps.google.com/?cid=0x0:0x9ac314ba35176664,
perumahan,Indonesia,Rumah Makan Rahayu,"9C75+3VM, Maliti, Kec. Kota Waikabubak, Kabupaten Sumba Barat, Nusa Tenggara Tim.","Kabupaten Sumba Barat, Nusa Tenggara Tim.",NUSA TENGGARA TIMUR,,Indonesia,,,,-9.6372872,119.4096593,https://maps.google.com/?cid=0x0:0x18b98280f58197de,
perumahan,Toko Bahan Bangunan,Toko Makmur,"Jl. Ahmad Yani No.3, Komerda, Kec. Kota Waikabubak, Kabupaten Sumba Barat, Nusa Tenggara Tim. 87211","Komerda, Kec. Kota Waikabubak, Kabupaten Sumba Barat",NUSA TENGGARA TIMUR,87211.0,Indonesia,81339020447.0,,,-9.6323297,119.411732,https://maps.google.com/?cid=0x0:0x70171ded7fc96b84,
perumahan,Gedung Apartemen,Waikabubak,"9C73+VWP malati, kel Jl gang ekapata, Wailiang, Kota Walkabubak, West Sumba Regency, East Nusa Tenggara","Kabupaten Sumba Barat, Nusa Tenggara Tim.",NUSA TENGGARA TIMUR,,Indonesia,,,,-9.6352994,119.404837,https://maps.google.com/?cid=0x0:0xa15a09c9451fc703,
perumahan,perumahan,Eden Home,"9CH2+9WX, Pada Eweta, Kec. Kota Waikabubak, Kabupaten Sumba Barat, Nusa Tenggara Tim.","Kabupaten Sumba Barat, Nusa Tenggara Tim.",NUSA TENGGARA TIMUR,,Indonesia,,,,-9.621513,119.4023548,https://maps.google.com/?cid=0x0:0x7c345aab21bc76d0,
perumahan,Komplek perumahan,Dewa Darma,"9CG6+JXQ, Kp. Baru, Kec. Kota Waikabubak, Kabupaten Sumba Barat, Nusa Tenggara Tim.","Kabupaten Sumba Barat, Nusa Tenggara Tim.",NUSA TENGGARA TIMUR,,Indonesia,,,,-9.6234035,119.4124892,https://maps.google.com/?cid=0x0:0x57074909e529e863,
perumahan,perumahan,Waikabubak kota dingin,"9C87+935, Komerda, Kec. Kota Waikabubak, Kabupaten Sumba Barat, Nusa Tenggara Tim.","Kabupaten Sumba Barat, Nusa Tenggara Tim.",NUSA TENGGARA TIMUR,,Indonesia,,,,-9.6341184,119.4127389,https://maps.google.com/?cid=0x0:0x9ee32f7e0dbff57d,
perumahan,Pusat Perbelanjaan,Kios kelimutu,"Gg. Teratai No.2, RT.11/RW.06, Kp. Sawah, Kec. Kota Waikabubak, Kabupaten Sumba Barat, Nusa Tenggara Tim. 84213","RT.11/RW.06, Kp. Sawah, Kec. Kota Waikabubak, Kabupaten Sumba Barat",NUSA TENGGARA TIMUR,84213.0,Indonesia,,,,-9.6363873,119.4205508,https://maps.google.com/?cid=0x0:0xa0297ecf3b28b55c,
perumahan,Komplek perumahan,My home,"99FM+8C3, Pada Eweta, Kec. Kota Waikabubak, Kabupaten Sumba Barat, Nusa Tenggara Tim.","Kabupaten Sumba Barat, Nusa Tenggara Tim.",NUSA TENGGARA TIMUR,,Indonesia,,,,-9.626478,119.3844869,https://maps.google.com/?cid=0x0:0xf9395070654b8f46,
perumahan,Kantor Perusahaan,Rumanya kasubag keuangan dispenduk,"99CQ+F5P, Pada Eweta, Kec. Kota Waikabubak, Kabupaten Sumba Barat, Nusa Tenggara Tim.","Kabupaten Sumba Barat, Nusa Tenggara Tim.",NUSA TENGGARA TIMUR,,Indonesia,,,,-9.6283218,119.3874781,https://maps.google.com/?cid=0x0:0x6cd8f86b35e4aaf1,
perumahan,Pembangunan Perumahan,EL KIKHAU,"99HQ+HXX, Soba Wawi, Kec. Kota Waikabubak, Kabupaten Sumba Barat, Nusa Tenggara Tim.","Kabupaten Sumba Barat, Nusa Tenggara Tim.",NUSA TENGGARA TIMUR,,Indonesia,,,,-9.6210173,119.3899822,https://maps.google.com/?cid=0x0:0x226b5bccf3db5abe,
perumahan,Komplek perumahan,Kampung situs praigaga,"9C6R+66, Kalembu Kuni, Kec. Kota Waikabubak, Kabupaten Sumba Barat, Nusa Tenggara Tim.","Kabupaten Sumba Barat, Nusa Tenggara Tim.",NUSA TENGGARA TIMUR,,Indonesia,,,,-9.6393857,119.4405621,https://maps.google.com/?cid=0x0:0x63c68c43a24d047b,
perumahan,Kantor Perusahaan,Waikabubak,"9C6C+X66, Jl. Basuki Rahmat, Kodaka, Kec. Kota Waikabubak, Kabupaten Sumba Barat, Nusa Tenggara Tim.","Kabupaten Sumba Barat, Nusa Tenggara Tim.",NUSA TENGGARA TIMUR,,Indonesia,,,,-9.6375783,119.4205082,https://maps.google.com/?cid=0x0:0x21da044899cfb6c5,
perumahan,Komplek perumahan,Puu kabbo,"9C8Q+6R3, Kalembu Kuni, Kec. Kota Waikabubak, Kabupaten Sumba Barat, Nusa Tenggara Tim.","Kabupaten Sumba Barat, Nusa Tenggara Tim.",NUSA TENGGARA TIMUR,,Indonesia,82144073423.0,,,-9.6354513,119.4396662,https://maps.google.com/?cid=0x0:0x788cd36c7414916,
perumahan,Komplek perumahan,Maximus Kosat,"99JQ+2QR, tawena, Kec. Kota Waikabubak, Kabupaten Sumba Barat, Nusa Tenggara Tim.","Kabupaten Sumba Barat, Nusa Tenggara Tim.",NUSA TENGGARA TIMUR,,Indonesia,,,,-9.6198931,119.3893983,https://maps.google.com/?cid=0x0:0xc98bafa632b619d7,
perumahan,Perumahan,Rumah Alm Hamid Ambu Day,"Jl. Pisang No.34a, Wailiang, Kec. Kota Waikabubak, Kabupaten Sumba Barat, Nusa Tenggara Tim. 87211","Wailiang, Kec. Kota Waikabubak, Kabupaten Sumba Barat",NUSA TENGGARA TIMUR,87211.0,Indonesia,,,,-9.6346912,119.4054805,https://maps.google.com/?cid=0x0:0x3d2ec318e7be6230,
perumahan,Komplek perumahan,Rumah,"Jl. Adyaksa No.Km.3, Pada Eweta, Kec. Kota Waikabubak, Kabupaten Sumba Barat, Nusa Tenggara Tim.","Kabupaten Sumba Barat, Nusa Tenggara Tim.",NUSA TENGGARA TIMUR,,Indonesia,,,,-9.6224841,119.3784672,https://maps.google.com/?cid=0x0:0xc3d04473d6fefc27,
perumahan,Komplek perumahan,Rumah Mbue,"9C87+FW5, Kp. Sawah, Kec. Kota Waikabubak, Kabupaten Sumba Barat, Nusa Tenggara Tim.","Kabupaten Sumba Barat, Nusa Tenggara Tim.",NUSA TENGGARA TIMUR,,Indonesia,,,,-9.6338825,119.414764,https://maps.google.com/?cid=0x0:0x79479b71b6fd2667,
perumahan,perumahan,Kec. Kota Waikabubak,"Kabupaten Sumba Barat, Nusa Tenggara Tim.","Kabupaten Sumba Barat, Nusa Tenggara Tim.",NUSA TENGGARA TIMUR,,Indonesia,,,,-9.6318508,119.4116981,https://maps.google.com/?cid=0x0:0xc0a3b8deb8dcb273,
perumahan,Komplek perumahan,Jln pisang wailiang Waikabubak,"9C73+CRQ, Jl. Pisang, Wailiang, Kec. Kota Waikabubak, Kabupaten Sumba Barat, Nusa Tenggara Tim.","Kabupaten Sumba Barat, Nusa Tenggara Tim.",NUSA TENGGARA TIMUR,,Indonesia,,,,-9.6364099,119.4045977,https://maps.google.com/?cid=0x0:0xd01246b50b4c398d,
perumahan,Otoritas Perumahan,Perumahan Wee Karou Permai,"89VP+JCP, Wee Karou, Kec. Loli, Kabupaten Sumba Barat, Nusa Tenggara Tim.","Kabupaten Sumba Barat, Nusa Tenggara Tim.",NUSA TENGGARA TIMUR,,Indonesia,,,,-9.655906,119.3860825,https://maps.google.com/?cid=0x0:0xccd95e44c08291d3,
perumahan,Perumahan,Perumahan Wee Karou Permai Indah,"89VQ+J6M, Unnamed Road, Wee Karou, Kec. Loli, Kabupaten Sumba Barat, Nusa Tenggara Tim.","Kabupaten Sumba Barat, Nusa Tenggara Tim.",NUSA TENGGARA TIMUR,,Indonesia,,,,-9.6559103,119.3880615,https://maps.google.com/?cid=0x0:0xa2bc876d3b9946f3,
perumahan,Tujuan Wisata,View Point Of Praijing Village,"9C4J+RCH, Tebara, Kec. Kota Waikabubak, Kabupaten Sumba Barat, Nusa Tenggara Tim.","Kabupaten Sumba Barat, Nusa Tenggara Tim.",NUSA TENGGARA TIMUR,,Indonesia,,,,-9.6429446,119.4310958,https://maps.google.com/?cid=0x0:0xd8c88669a951ac4e,
perumahan,Komplek perumahan,Perumahan Saudara Sejati,"9C33+MF9, Weekarou Road, Wee Karou, Kec. Loli, Kabupaten Sumba Barat, Nusa Tenggara Tim.","Kabupaten Sumba Barat, Nusa Tenggara Tim.",NUSA TENGGARA TIMUR,,Indonesia,,,,-9.6458497,119.4037407,https://maps.google.com/?cid=0x0:0x124b4738153cb376,
perumahan,Komplek perumahan,Rumah BTN,"Komplek perumahan weekarau permai indah, blok d16, Wee Karou, Kec. Loli, Kabupaten Sumba Barat, Nusa Tenggara Tim.","Kabupaten Sumba Barat, Nusa Tenggara Tim.",NUSA TENGGARA TIMUR,,Indonesia,,,,-9.6566884,119.3857793,https://maps.google.com/?cid=0x0:0xfa92ff1d236750d1,
perumahan,Padang,Rumah Makan Pondok Salero,"9C65+V82, Wailiang, Kec. Kota Waikabubak, Kabupaten Sumba Barat, Nusa Tenggara Tim.","Kabupaten Sumba Barat, Nusa Tenggara Tim.",NUSA TENGGARA TIMUR,,Indonesia,81337757728.0,,,-9.6378679,119.4082565,https://maps.google.com/?cid=0x0:0xcba49331c1564d4,
perumahan,Rumah Makan,Rumah Makan Pondok Bambu,"9C6C+RP6, Kp. Sawah, Kec. Kota Waikabubak, Kabupaten Sumba Barat, Nusa Tenggara Tim.","Kabupaten Sumba Barat, Nusa Tenggara Tim.",NUSA TENGGARA TIMUR,,Indonesia,81338595964.0,,,-9.637967,119.4217657,https://maps.google.com/?cid=0x0:0x3196530451f3d0e9,
perumahan,Restoran,Dapur Sumba Waikabubak,"Jl. Ahmad Yani No.51, Maliti, Kec. Kota Waikabubak, Kabupaten Sumba Barat, Nusa Tenggara Tim.","Kabupaten Sumba Barat, Nusa Tenggara Tim.",NUSA TENGGARA TIMUR,,Indonesia,81329575563.0,,,-9.6345839,119.4100495,https://maps.google.com/?cid=0x0:0xfffb69d9ed16ed21,
perumahan,Tujuan Wisata,Kampung Prai Ijing,"9C5J+F73, Tebara, Kec. Kota Waikabubak, Kabupaten Sumba Barat, Nusa Tenggara Tim.","Kabupaten Sumba Barat, Nusa Tenggara Tim.",NUSA TENGGARA TIMUR,,Indonesia,81338254721.0,,,-9.6413527,119.4306809,https://maps.google.com/?cid=0x0:0xe7166dc23f44e00,
perumahan,Toko Bahan Bangunan,Toko Makmur,"Jl. Ahmad Yani No.3, Komerda, Kec. Kota Waikabubak, Kabupaten Sumba Barat, Nusa Tenggara Tim. 87211","Komerda, Kec. Kota Waikabubak, Kabupaten Sumba Barat",NUSA TENGGARA TIMUR,87211.0,Indonesia,81339020447.0,,,-9.6323297,119.411732,https://maps.google.com/?cid=0x0:0x70171ded7fc96b84,
perumahan,Indonesia,Rumah Makan Rahayu,"9C75+3VM, Maliti, Kec. Kota Waikabubak, Kabupaten Sumba Barat, Nusa Tenggara Tim.","Kabupaten Sumba Barat, Nusa Tenggara Tim.",NUSA TENGGARA TIMUR,,Indonesia,,,,-9.6372872,119.4096593,https://maps.google.com/?cid=0x0:0x18b98280f58197de,
perumahan,Gedung Apartemen,Waikabubak,"9C73+VWP malati, kel Jl gang ekapata, Wailiang, Kota Walkabubak, West Sumba Regency, East Nusa Tenggara","Kabupaten Sumba Barat, Nusa Tenggara Tim.",NUSA TENGGARA TIMUR,,Indonesia,,,,-9.6352994,119.404837,https://maps.google.com/?cid=0x0:0xa15a09c9451fc703,
perumahan,perumahan,Eden Home,"9CH2+9WX, Pada Eweta, Kec. Kota Waikabubak, Kabupaten Sumba Barat, Nusa Tenggara Tim.","Kabupaten Sumba Barat, Nusa Tenggara Tim.",NUSA TENGGARA TIMUR,,Indonesia,,,,-9.621513,119.4023548,https://maps.google.com/?cid=0x0:0x7c345aab21bc76d0,
perumahan,Komplek perumahan,Dewa Darma,"9CG6+JXQ, Kp. Baru, Kec. Kota Waikabubak, Kabupaten Sumba Barat, Nusa Tenggara Tim.","Kabupaten Sumba Barat, Nusa Tenggara Tim.",NUSA TENGGARA TIMUR,,Indonesia,,,,-9.6234035,119.4124892,https://maps.google.com/?cid=0x0:0x57074909e529e863,
perumahan,perumahan,Waikabubak kota dingin,"9C87+935, Komerda, Kec. Kota Waikabubak, Kabupaten Sumba Barat, Nusa Tenggara Tim.","Kabupaten Sumba Barat, Nusa Tenggara Tim.",NUSA TENGGARA TIMUR,,Indonesia,,,,-9.6341184,119.4127389,https://maps.google.com/?cid=0x0:0x9ee32f7e0dbff57d,
perumahan,Komplek perumahan,Puu kabbo,"9C8Q+6R3, Kalembu Kuni, Kec. Kota Waikabubak, Kabupaten Sumba Barat, Nusa Tenggara Tim.","Kabupaten Sumba Barat, Nusa Tenggara Tim.",NUSA TENGGARA TIMUR,,Indonesia,82144073423.0,,,-9.6354513,119.4396662,https://maps.google.com/?cid=0x0:0x788cd36c7414916,
perumahan,Pembangunan Perumahan,EL KIKHAU,"99HQ+HXX, Soba Wawi, Kec. Kota Waikabubak, Kabupaten Sumba Barat, Nusa Tenggara Tim.","Kabupaten Sumba Barat, Nusa Tenggara Tim.",NUSA TENGGARA TIMUR,,Indonesia,,,,-9.6210173,119.3899822,https://maps.google.com/?cid=0x0:0x226b5bccf3db5abe,
perumahan,Pusat Perbelanjaan,Kios kelimutu,"Gg. Teratai No.2, RT.11/RW.06, Kp. Sawah, Kec. Kota Waikabubak, Kabupaten Sumba Barat, Nusa Tenggara Tim. 84213","RT.11/RW.06, Kp. Sawah, Kec. Kota Waikabubak, Kabupaten Sumba Barat",NUSA TENGGARA TIMUR,84213.0,Indonesia,,,,-9.6363873,119.4205508,https://maps.google.com/?cid=0x0:0xa0297ecf3b28b55c,
perumahan,Pembangunan Perumahan,Wanno komi,"9C7R+26, Kalembu Kuni, Kec. Kota Waikabubak, Kabupaten Sumba Barat, Nusa Tenggara Tim.","Kabupaten Sumba Barat, Nusa Tenggara Tim.",NUSA TENGGARA TIMUR,,Indonesia,,,,-9.6373776,119.4405397,https://maps.google.com/?cid=0x0:0xd79a8ffda843ffcf,
perumahan,Kantor Perusahaan,Rumanya kasubag keuangan dispenduk,"99CQ+F5P, Pada Eweta, Kec. Kota Waikabubak, Kabupaten Sumba Barat, Nusa Tenggara Tim.","Kabupaten Sumba Barat, Nusa Tenggara Tim.",NUSA TENGGARA TIMUR,,Indonesia,,,,-9.6283218,119.3874781,https://maps.google.com/?cid=0x0:0x6cd8f86b35e4aaf1,
perumahan,perumahan,Praikajowa,"9C3J+VQ, Tebara, Kec. Kota Waikabubak, Kabupaten Sumba Barat, Nusa Tenggara Tim.","Kabupaten Sumba Barat, Nusa Tenggara Tim.",NUSA TENGGARA TIMUR,,Indonesia,,,,-9.6453102,119.431854,https://maps.google.com/?cid=0x0:0x1a94cb1e1062bbfd,
perumahan,Kantor Perusahaan,Waikabubak,"9C6C+X66, Jl. Basuki Rahmat, Kodaka, Kec. Kota Waikabubak, Kabupaten Sumba Barat, Nusa Tenggara Tim.","Kabupaten Sumba Barat, Nusa Tenggara Tim.",NUSA TENGGARA TIMUR,,Indonesia,,,,-9.6375783,119.4205082,https://maps.google.com/?cid=0x0:0x21da044899cfb6c5,
perumahan,perumahan,GOLLU WURAK,"99GM+357, Pada Eweta, Kec. Kota Waikabubak, Kabupaten Sumba Barat, Nusa Tenggara Tim.","Kabupaten Sumba Barat, Nusa Tenggara Tim.",NUSA TENGGARA TIMUR,,Indonesia,,,,-9.6248099,119.38302,https://maps.google.com/?cid=0x0:0xc6e3ac7f2a99c055,
perumahan,Komplek perumahan,Rumah,"Jl. Adyaksa No.Km.3, Pada Eweta, Kec. Kota Waikabubak, Kabupaten Sumba Barat, Nusa Tenggara Tim.","Kabupaten Sumba Barat, Nusa Tenggara Tim.",NUSA TENGGARA TIMUR,,Indonesia,,,,-9.6224841,119.3784672,https://maps.google.com/?cid=0x0:0xc3d04473d6fefc27,
perumahan,Pembangunan Perumahan,mabes gang U,"99FM+8PR, Unnamed Road, Pada Eweta, Kec. Kota Waikabubak, Kabupaten Sumba Barat, Nusa Tenggara Tim.","Kabupaten Sumba Barat, Nusa Tenggara Tim.",NUSA TENGGARA TIMUR,,Indonesia,81239077770.0,,,-9.6266334,119.3842602,https://maps.google.com/?cid=0x0:0x48887555b253c1d4,
perumahan,Perhimpunan Pengembang Perumahan,Sumba,"99CR+VPV, Pada Eweta, Kec. Kota Waikabubak, Kabupaten Sumba Barat, Nusa Tenggara Tim.","Kabupaten Sumba Barat, Nusa Tenggara Tim.",NUSA TENGGARA TIMUR,,Indonesia,,,,-9.627762,119.3918108,https://maps.google.com/?cid=0x0:0x22636fdd814ac866,
perumahan,Komplek perumahan,Kampung baru,"Jl. Veteran No.35a, Kp. Baru, Kec. Kota Waikabubak, Kabupaten Sumba Barat, Nusa Tenggara Tim.","Kabupaten Sumba Barat, Nusa Tenggara Tim.",NUSA TENGGARA TIMUR,,Indonesia,,,,-9.6321519,119.4164401,https://maps.google.com/?cid=0x0:0xd37ec70ded1bfb6b,
perumahan,Otoritas Perumahan,Perumahan Wee Karou Permai,"89VP+JCP, Wee Karou, Kec. Loli, Kabupaten Sumba Barat, Nusa Tenggara Tim.","Kabupaten Sumba Barat, Nusa Tenggara Tim.",NUSA TENGGARA TIMUR,,Indonesia,,,,-9.655906,119.3860825,https://maps.google.com/?cid=0x0:0xccd95e44c08291d3,
perumahan,perumahan,Nusa Tenggara Tim. 87214,"Kp. Baru, Kec. Kota Waikabubak, Kabupaten Sumba Barat, Nusa Tenggara Tim.","Kabupaten Sumba Barat, Nusa Tenggara Tim.",NUSA TENGGARA TIMUR,,Indonesia,,,,-9.6319416,119.4178502,https://maps.google.com/?cid=0x0:0xf74500f4f5161cf1,
perumahan,Komplek perumahan,Perumahan BTN Baru Weekarou Permai Indah,"89VQ+F25, BTN Baru Weekarou, Permai Indah (WPI, Kelurahan Loda Pare, Kec. Loli, Kabupaten Sumba Barat, Nusa Tenggara Tim.","Kabupaten Sumba Barat, Nusa Tenggara Tim.",NUSA TENGGARA TIMUR,,Indonesia,,,,-9.6563666,119.387603,https://maps.google.com/?cid=0x0:0x84800d4ca23337de,
perumahan,Komplek perumahan,Rumah BTN,"Komplek perumahan weekarau permai indah, blok d16, Wee Karou, Kec. Loli, Kabupaten Sumba Barat, Nusa Tenggara Tim.","Kabupaten Sumba Barat, Nusa Tenggara Tim.",NUSA TENGGARA TIMUR,,Indonesia,,,,-9.6566884,119.3857793,https://maps.google.com/?cid=0x0:0xfa92ff1d236750d1,
perumahan,Komplek perumahan,Perumahan Saudara Sejati,"9C33+MF9, Weekarou Road, Wee Karou, Kec. Loli, Kabupaten Sumba Barat, Nusa Tenggara Tim.","Kabupaten Sumba Barat, Nusa Tenggara Tim.",NUSA TENGGARA TIMUR,,Indonesia,,,,-9.6458497,119.4037407,https://maps.google.com/?cid=0x0:0x124b4738153cb376,
perumahan,perumahan,Perumahan,"9CG8+8H5, RT.001, Kp. Baru, Kec. Kota Waikabubak, Kabupaten Sumba Barat, Nusa Tenggara Tim.","Kabupaten Sumba Barat, Nusa Tenggara Tim.",NUSA TENGGARA TIMUR,,Indonesia,,,,-9.6242275,119.4164813,https://maps.google.com/?cid=0x0:0xbd40bab293287ba1,
perumahan,Komplek perumahan,Jln pisang wailiang Waikabubak,"9C73+CRQ, Jl. Pisang, Wailiang, Kec. Kota Waikabubak, Kabupaten Sumba Barat, Nusa Tenggara Tim.","Kabupaten Sumba Barat, Nusa Tenggara Tim.",NUSA TENGGARA TIMUR,,Indonesia,,,,-9.6364099,119.4045977,https://maps.google.com/?cid=0x0:0xd01246b50b4c398d,
perumahan,Komplek perumahan,Kampung baru,"Jl. Veteran No.35a, Kp. Baru, Kec. Kota Waikabubak, Kabupaten Sumba Barat, Nusa Tenggara Tim.","Kabupaten Sumba Barat, Nusa Tenggara Tim.",NUSA TENGGARA TIMUR,,Indonesia,,,,-9.6321519,119.4164401,https://maps.google.com/?cid=0x0:0xd37ec70ded1bfb6b,
perumahan,perumahan,Eden Home,"9CH2+9WX, Pada Eweta, Kec. Kota Waikabubak, Kabupaten Sumba Barat, Nusa Tenggara Tim.","Kabupaten Sumba Barat, Nusa Tenggara Tim.",NUSA TENGGARA TIMUR,,Indonesia,,,,-9.621513,119.4023548,https://maps.google.com/?cid=0x0:0x7c345aab21bc76d0,
perumahan,perumahan,Kec. Kota Waikabubak,"Kabupaten Sumba Barat, Nusa Tenggara Tim.","Kabupaten Sumba Barat, Nusa Tenggara Tim.",NUSA TENGGARA TIMUR,,Indonesia,,,,-9.6318508,119.4116981,https://maps.google.com/?cid=0x0:0xc0a3b8deb8dcb273,
perumahan,Komplek perumahan,Dewa Darma,"9CG6+JXQ, Kp. Baru, Kec. Kota Waikabubak, Kabupaten Sumba Barat, Nusa Tenggara Tim.","Kabupaten Sumba Barat, Nusa Tenggara Tim.",NUSA TENGGARA TIMUR,,Indonesia,,,,-9.6234035,119.4124892,https://maps.google.com/?cid=0x0:0x57074909e529e863,
perumahan,Gedung Apartemen,Waikabubak,"9C73+VWP malati, kel Jl gang ekapata, Wailiang, Kota Walkabubak, West Sumba Regency, East Nusa Tenggara","Kabupaten Sumba Barat, Nusa Tenggara Tim.",NUSA TENGGARA TIMUR,,Indonesia,,,,-9.6352994,119.404837,https://maps.google.com/?cid=0x0:0xa15a09c9451fc703,
perumahan,Komplek perumahan,Puu kabbo,"9C8Q+6R3, Kalembu Kuni, Kec. Kota Waikabubak, Kabupaten Sumba Barat, Nusa Tenggara Tim.","Kabupaten Sumba Barat, Nusa Tenggara Tim.",NUSA TENGGARA TIMUR,,Indonesia,82144073423.0,,,-9.6354513,119.4396662,https://maps.google.com/?cid=0x0:0x788cd36c7414916,
perumahan,perumahan,Waikabubak kota dingin,"9C87+935, Komerda, Kec. Kota Waikabubak, Kabupaten Sumba Barat, Nusa Tenggara Tim.","Kabupaten Sumba Barat, Nusa Tenggara Tim.",NUSA TENGGARA TIMUR,,Indonesia,,,,-9.6341184,119.4127389,https://maps.google.com/?cid=0x0:0x9ee32f7e0dbff57d,
perumahan,Otoritas Perumahan,Perumahan Wee Karou Permai,"89VP+JCP, Wee Karou, Kec. Loli, Kabupaten Sumba Barat, Nusa Tenggara Tim.","Kabupaten Sumba Barat, Nusa Tenggara Tim.",NUSA TENGGARA TIMUR,,Indonesia,,,,-9.655906,119.3860825,https://maps.google.com/?cid=0x0:0xccd95e44c08291d3,
perumahan,Pembangunan Perumahan,EL KIKHAU,"99HQ+HXX, Soba Wawi, Kec. Kota Waikabubak, Kabupaten Sumba Barat, Nusa Tenggara Tim.","Kabupaten Sumba Barat, Nusa Tenggara Tim.",NUSA TENGGARA TIMUR,,Indonesia,,,,-9.6210173,119.3899822,https://maps.google.com/?cid=0x0:0x226b5bccf3db5abe,
perumahan,perumahan,GOLLU WURAK,"99GM+357, Pada Eweta, Kec. Kota Waikabubak, Kabupaten Sumba Barat, Nusa Tenggara Tim.","Kabupaten Sumba Barat, Nusa Tenggara Tim.",NUSA TENGGARA TIMUR,,Indonesia,,,,-9.6248099,119.38302,https://maps.google.com/?cid=0x0:0xc6e3ac7f2a99c055,
perumahan,Pusat Perbelanjaan,Kios kelimutu,"Gg. Teratai No.2, RT.11/RW.06, Kp. Sawah, Kec. Kota Waikabubak, Kabupaten Sumba Barat, Nusa Tenggara Tim. 84213","RT.11/RW.06, Kp. Sawah, Kec. Kota Waikabubak, Kabupaten Sumba Barat",NUSA TENGGARA TIMUR,84213.0,Indonesia,,,,-9.6363873,119.4205508,https://maps.google.com/?cid=0x0:0xa0297ecf3b28b55c,
perumahan,Pembangunan Perumahan,Wanno komi,"9C7R+26, Kalembu Kuni, Kec. Kota Waikabubak, Kabupaten Sumba Barat, Nusa Tenggara Tim.","Kabupaten Sumba Barat, Nusa Tenggara Tim.",NUSA TENGGARA TIMUR,,Indonesia,,,,-9.6373776,119.4405397,https://maps.google.com/?cid=0x0:0xd79a8ffda843ffcf,
perumahan,Perhimpunan Pengembang Perumahan,Sumba,"99CR+VPV, Pada Eweta, Kec. Kota Waikabubak, Kabupaten Sumba Barat, Nusa Tenggara Tim.","Kabupaten Sumba Barat, Nusa Tenggara Tim.",NUSA TENGGARA TIMUR,,Indonesia,,,,-9.627762,119.3918108,https://maps.google.com/?cid=0x0:0x22636fdd814ac866,
perumahan,Komplek perumahan,Nus Wea,"Jl. Pisang No.86, Wailiang, Kec. Kota Waikabubak, Kabupaten Sumba Barat, Nusa Tenggara Tim. 87211","Wailiang, Kec. Kota Waikabubak, Kabupaten Sumba Barat",NUSA TENGGARA TIMUR,87211.0,Indonesia,,,,-9.6344376,119.403842,https://maps.google.com/?cid=0x0:0x9a91933c8eb72c4d,
perumahan,Pembangunan Perumahan,mabes gang U,"99FM+8PR, Unnamed Road, Pada Eweta, Kec. Kota Waikabubak, Kabupaten Sumba Barat, Nusa Tenggara Tim.","Kabupaten Sumba Barat, Nusa Tenggara Tim.",NUSA TENGGARA TIMUR,,Indonesia,81239077770.0,,,-9.6266334,119.3842602,https://maps.google.com/?cid=0x0:0x48887555b253c1d4,
perumahan,Komplek perumahan,Maximus Kosat,"99JQ+2QR, tawena, Kec. Kota Waikabubak, Kabupaten Sumba Barat, Nusa Tenggara Tim.","Kabupaten Sumba Barat, Nusa Tenggara Tim.",NUSA TENGGARA TIMUR,,Indonesia,,,,-9.6198931,119.3893983,https://maps.google.com/?cid=0x0:0xc98bafa632b619d7,
perumahan,Komplek perumahan,Perumahan BTN Baru Weekarou Permai Indah,"89VQ+F25, BTN Baru Weekarou, Permai Indah (WPI, Kelurahan Loda Pare, Kec. Loli, Kabupaten Sumba Barat, Nusa Tenggara Tim.","Kabupaten Sumba Barat, Nusa Tenggara Tim.",NUSA TENGGARA TIMUR,,Indonesia,,,,-9.6563666,119.387603,https://maps.google.com/?cid=0x0:0x84800d4ca23337de,
perumahan,Perumahan,Rumah Alm Hamid Ambu Day,"Jl. Pisang No.34a, Wailiang, Kec. Kota Waikabubak, Kabupaten Sumba Barat, Nusa Tenggara Tim. 87211","Wailiang, Kec. Kota Waikabubak, Kabupaten Sumba Barat",NUSA TENGGARA TIMUR,87211.0,Indonesia,,,,-9.6346912,119.4054805,https://maps.google.com/?cid=0x0:0x3d2ec318e7be6230,
perumahan,Komplek perumahan,Rumah,"Jl. Adyaksa No.Km.3, Pada Eweta, Kec. Kota Waikabubak, Kabupaten Sumba Barat, Nusa Tenggara Tim.","Kabupaten Sumba Barat, Nusa Tenggara Tim.",NUSA TENGGARA TIMUR,,Indonesia,,,,-9.6224841,119.3784672,https://maps.google.com/?cid=0x0:0xc3d04473d6fefc27,
perumahan,perumahan,Praikajowa,"9C3J+VQ, Tebara, Kec. Kota Waikabubak, Kabupaten Sumba Barat, Nusa Tenggara Tim.","Kabupaten Sumba Barat, Nusa Tenggara Tim.",NUSA TENGGARA TIMUR,,Indonesia,,,,-9.6453102,119.431854,https://maps.google.com/?cid=0x0:0x1a94cb1e1062bbfd,
perumahan,Komplek perumahan,Blok A Perumahan Weekarou Permai Indah (WPI) BTN Baru,"89VQ+64Q, Wee Karou, Kec. Kota Waikabubak, Kabupaten Sumba Barat, Nusa Tenggara Tim.","Kabupaten Sumba Barat, Nusa Tenggara Tim.",NUSA TENGGARA TIMUR,,Indonesia,,,,-9.6570417,119.3879049,https://maps.google.com/?cid=0x0:0x52c5ddf379d7be5a,
perumahan,Komplek perumahan,Perumahan Saudara Sejati,"9C33+MF9, Weekarou Road, Wee Karou, Kec. Loli, Kabupaten Sumba Barat, Nusa Tenggara Tim.","Kabupaten Sumba Barat, Nusa Tenggara Tim.",NUSA TENGGARA TIMUR,,Indonesia,,,,-9.6458497,119.4037407,https://maps.google.com/?cid=0x0:0x124b4738153cb376,
perumahan,perumahan,Nusa Tenggara Tim.,,Nusa Tenggara Tim.,NUSA TENGGARA TIMUR,,Indonesia,,,,-8.6573819,121.0793705,https://maps.google.com/?cid=0x0:0x1030bfbcaf71ae0,
perumahan,Perumahan,Perumahan Wee Karou Permai Indah,"89VQ+J6M, Unnamed Road, Wee Karou, Kec. Loli, Kabupaten Sumba Barat, Nusa Tenggara Tim.","Kabupaten Sumba Barat, Nusa Tenggara Tim.",NUSA TENGGARA TIMUR,,Indonesia,,,,-9.6559103,119.3880615,https://maps.google.com/?cid=0x0:0xa2bc876d3b9946f3,
perumahan,Komplek perumahan,Rumah BTN,"Komplek perumahan weekarau permai indah, blok d16, Wee Karou, Kec. Loli, Kabupaten Sumba Barat, Nusa Tenggara Tim.","Kabupaten Sumba Barat, Nusa Tenggara Tim.",NUSA TENGGARA TIMUR,,Indonesia,,,,-9.6566884,119.3857793,https://maps.google.com/?cid=0x0:0xfa92ff1d236750d1,
perumahan,Kantor Perusahaan,Rumanya kasubag keuangan dispenduk,"99CQ+F5P, Pada Eweta, Kec. Kota Waikabubak, Kabupaten Sumba Barat, Nusa Tenggara Tim.","Kabupaten Sumba Barat, Nusa Tenggara Tim.",NUSA TENGGARA TIMUR,,Indonesia,,,,-9.6283218,119.3874781,https://maps.google.com/?cid=0x0:0x6cd8f86b35e4aaf1,
perumahan,Pembangunan Perumahan,David Japi,"99FM+763, Pada Eweta, Kec. Kota Waikabubak, Kabupaten Sumba Barat, Nusa Tenggara Tim.","Kabupaten Sumba Barat, Nusa Tenggara Tim.",NUSA TENGGARA TIMUR,,Indonesia,,,,-9.6268502,119.3830603,https://maps.google.com/?cid=0x0:0x64db424e4dabbf91,
perumahan,Pembangunan Perumahan,IWAN MOGE,"9C83+9WJ, Wailiang, Kec. Kota Waikabubak, Kabupaten Sumba Barat, Nusa Tenggara Tim.","Kabupaten Sumba Barat, Nusa Tenggara Tim.",NUSA TENGGARA TIMUR,,Indonesia,,,,-9.6340357,119.4047627,https://maps.google.com/?cid=0x0:0x82d5c8a66b6e6e61,
perumahan,Pembangunan Perumahan,Doni Nenokeba,"99GJ+7VX, Jalan Makam Pahlawan, Pada Eweta, Kec. Kota Waikabubak, Kabupaten Sumba Barat, Nusa Tenggara Tim.","Kabupaten Sumba Barat, Nusa Tenggara Tim.",NUSA TENGGARA TIMUR,,Indonesia,,,,-9.6242558,119.3822354,https://maps.google.com/?cid=0x0:0xdd995a914a7fb83,
perumahan,Komplek perumahan,Kampung baru,"Jl. Veteran No.35a, Kp. Baru, Kec. Kota Waikabubak, Kabupaten Sumba Barat, Nusa Tenggara Tim.","Kabupaten Sumba Barat, Nusa Tenggara Tim.",NUSA TENGGARA TIMUR,,Indonesia,,,,-9.6321519,119.4164401,https://maps.google.com/?cid=0x0:0xd37ec70ded1bfb6b,
perumahan,perumahan,Kec. Kota Waikabubak,"Kabupaten Sumba Barat, Nusa Tenggara Tim.","Kabupaten Sumba Barat, Nusa Tenggara Tim.",NUSA TENGGARA TIMUR,,Indonesia,,,,-9.6318508,119.4116981,https://maps.google.com/?cid=0x0:0xc0a3b8deb8dcb273,
perumahan,Otoritas Perumahan,Perumahan Wee Karou Permai,"89VP+JCP, Wee Karou, Kec. Loli, Kabupaten Sumba Barat, Nusa Tenggara Tim.","Kabupaten Sumba Barat, Nusa Tenggara Tim.",NUSA TENGGARA TIMUR,,Indonesia,,,,-9.655906,119.3860825,https://maps.google.com/?cid=0x0:0xccd95e44c08291d3,
perumahan,Komplek perumahan,Jln pisang wailiang Waikabubak,"9C73+CRQ, Jl. Pisang, Wailiang, Kec. Kota Waikabubak, Kabupaten Sumba Barat, Nusa Tenggara Tim.","Kabupaten Sumba Barat, Nusa Tenggara Tim.",NUSA TENGGARA TIMUR,,Indonesia,,,,-9.6364099,119.4045977,https://maps.google.com/?cid=0x0:0xd01246b50b4c398d,
perumahan,Komplek perumahan,Perumahan BTN Baru Weekarou Permai Indah,"89VQ+F25, BTN Baru Weekarou, Permai Indah (WPI, Kelurahan Loda Pare, Kec. Loli, Kabupaten Sumba Barat, Nusa Tenggara Tim.","Kabupaten Sumba Barat, Nusa Tenggara Tim.",NUSA TENGGARA TIMUR,,Indonesia,,,,-9.6563666,119.387603,https://maps.google.com/?cid=0x0:0x84800d4ca23337de,
perumahan,Komplek perumahan,Perumahan Saudara Sejati,"9C33+MF9, Weekarou Road, Wee Karou, Kec. Loli, Kabupaten Sumba Barat, Nusa Tenggara Tim.","Kabupaten Sumba Barat, Nusa Tenggara Tim.",NUSA TENGGARA TIMUR,,Indonesia,,,,-9.6458497,119.4037407,https://maps.google.com/?cid=0x0:0x124b4738153cb376,
perumahan,Perumahan,Perumahan Wee Karou Permai Indah,"89VQ+J6M, Unnamed Road, Wee Karou, Kec. Loli, Kabupaten Sumba Barat, Nusa Tenggara Tim.","Kabupaten Sumba Barat, Nusa Tenggara Tim.",NUSA TENGGARA TIMUR,,Indonesia,,,,-9.6559103,119.3880615,https://maps.google.com/?cid=0x0:0xa2bc876d3b9946f3,
perumahan,Tujuan Wisata,View Point Of Praijing Village,"9C4J+RCH, Tebara, Kec. Kota Waikabubak, Kabupaten Sumba Barat, Nusa Tenggara Tim.","Kabupaten Sumba Barat, Nusa Tenggara Tim.",NUSA TENGGARA TIMUR,,Indonesia,,,,-9.6429446,119.4310958,https://maps.google.com/?cid=0x0:0xd8c88669a951ac4e,
perumahan,Padang,Rumah Makan Pondok Salero,"9C65+V82, Wailiang, Kec. Kota Waikabubak, Kabupaten Sumba Barat, Nusa Tenggara Tim.","Kabupaten Sumba Barat, Nusa Tenggara Tim.",NUSA TENGGARA TIMUR,,Indonesia,81337757728.0,,,-9.6378679,119.4082565,https://maps.google.com/?cid=0x0:0xcba49331c1564d4,
perumahan,Komplek perumahan,Rumah BTN,"Komplek perumahan weekarau permai indah, blok d16, Wee Karou, Kec. Loli, Kabupaten Sumba Barat, Nusa Tenggara Tim.","Kabupaten Sumba Barat, Nusa Tenggara Tim.",NUSA TENGGARA TIMUR,,Indonesia,,,,-9.6566884,119.3857793,https://maps.google.com/?cid=0x0:0xfa92ff1d236750d1,
perumahan,Restoran,Dapur Sumba Waikabubak,"Jl. Ahmad Yani No.51, Maliti, Kec. Kota Waikabubak, Kabupaten Sumba Barat, Nusa Tenggara Tim.","Kabupaten Sumba Barat, Nusa Tenggara Tim.",NUSA TENGGARA TIMUR,,Indonesia,81329575563.0,,,-9.6345839,119.4100495,https://maps.google.com/?cid=0x0:0xfffb69d9ed16ed21,
perumahan,Rumah Makan,Rumah Makan Pondok Bambu,"9C6C+RP6, Kp. Sawah, Kec. Kota Waikabubak, Kabupaten Sumba Barat, Nusa Tenggara Tim.","Kabupaten Sumba Barat, Nusa Tenggara Tim.",NUSA TENGGARA TIMUR,,Indonesia,81338595964.0,,,-9.637967,119.4217657,https://maps.google.com/?cid=0x0:0x3196530451f3d0e9,
perumahan,Tujuan Wisata,Kampung Prai Ijing,"9C5J+F73, Tebara, Kec. Kota Waikabubak, Kabupaten Sumba Barat, Nusa Tenggara Tim.","Kabupaten Sumba Barat, Nusa Tenggara Tim.",NUSA TENGGARA TIMUR,,Indonesia,81338254721.0,,,-9.6413527,119.4306809,https://maps.google.com/?cid=0x0:0xe7166dc23f44e00,
perumahan,Indonesia,Rumah Makan Rahayu,"9C75+3VM, Maliti, Kec. Kota Waikabubak, Kabupaten Sumba Barat, Nusa Tenggara Tim.","Kabupaten Sumba Barat, Nusa Tenggara Tim.",NUSA TENGGARA TIMUR,,Indonesia,,,,-9.6372872,119.4096593,https://maps.google.com/?cid=0x0:0x18b98280f58197de,
perumahan,Gedung Apartemen,Waikabubak,"9C73+VWP malati, kel Jl gang ekapata, Wailiang, Kota Walkabubak, West Sumba Regency, East Nusa Tenggara","Kabupaten Sumba Barat, Nusa Tenggara Tim.",NUSA TENGGARA TIMUR,,Indonesia,,,,-9.6352994,119.404837,https://maps.google.com/?cid=0x0:0xa15a09c9451fc703,
perumahan,perumahan,Waikabubak kota dingin,"9C87+935, Komerda, Kec. Kota Waikabubak, Kabupaten Sumba Barat, Nusa Tenggara Tim.","Kabupaten Sumba Barat, Nusa Tenggara Tim.",NUSA TENGGARA TIMUR,,Indonesia,,,,-9.6341184,119.4127389,https://maps.google.com/?cid=0x0:0x9ee32f7e0dbff57d,
perumahan,perumahan,Eden Home,"9CH2+9WX, Pada Eweta, Kec. Kota Waikabubak, Kabupaten Sumba Barat, Nusa Tenggara Tim.","Kabupaten Sumba Barat, Nusa Tenggara Tim.",NUSA TENGGARA TIMUR,,Indonesia,,,,-9.621513,119.4023548,https://maps.google.com/?cid=0x0:0x7c345aab21bc76d0,
perumahan,Komplek perumahan,Dewa Darma,"9CG6+JXQ, Kp. Baru, Kec. Kota Waikabubak, Kabupaten Sumba Barat, Nusa Tenggara Tim.","Kabupaten Sumba Barat, Nusa Tenggara Tim.",NUSA TENGGARA TIMUR,,Indonesia,,,,-9.6234035,119.4124892,https://maps.google.com/?cid=0x0:0x57074909e529e863,
perumahan,Pusat Perbelanjaan,Kios kelimutu,"Gg. Teratai No.2, RT.11/RW.06, Kp. Sawah, Kec. Kota Waikabubak, Kabupaten Sumba Barat, Nusa Tenggara Tim. 84213","RT.11/RW.06, Kp. Sawah, Kec. Kota Waikabubak, Kabupaten Sumba Barat",NUSA TENGGARA TIMUR,84213.0,Indonesia,,,,-9.6363873,119.4205508,https://maps.google.com/?cid=0x0:0xa0297ecf3b28b55c,
perumahan,Komplek perumahan,My home,"99FM+8C3, Pada Eweta, Kec. Kota Waikabubak, Kabupaten Sumba Barat, Nusa Tenggara Tim.","Kabupaten Sumba Barat, Nusa Tenggara Tim.",NUSA TENGGARA TIMUR,,Indonesia,,,,-9.626478,119.3844869,https://maps.google.com/?cid=0x0:0xf9395070654b8f46,
perumahan,Komplek perumahan,Maximus Kosat,"99JQ+2QR, tawena, Kec. Kota Waikabubak, Kabupaten Sumba Barat, Nusa Tenggara Tim.","Kabupaten Sumba Barat, Nusa Tenggara Tim.",NUSA TENGGARA TIMUR,,Indonesia,,,,-9.6198931,119.3893983,https://maps.google.com/?cid=0x0:0xc98bafa632b619d7,
perumahan,Kantor Perusahaan,Rumanya kasubag keuangan dispenduk,"99CQ+F5P, Pada Eweta, Kec. Kota Waikabubak, Kabupaten Sumba Barat, Nusa Tenggara Tim.","Kabupaten Sumba Barat, Nusa Tenggara Tim.",NUSA TENGGARA TIMUR,,Indonesia,,,,-9.6283218,119.3874781,https://maps.google.com/?cid=0x0:0x6cd8f86b35e4aaf1,
perumahan,Pembangunan Perumahan,EL KIKHAU,"99HQ+HXX, Soba Wawi, Kec. Kota Waikabubak, Kabupaten Sumba Barat, Nusa Tenggara Tim.","Kabupaten Sumba Barat, Nusa Tenggara Tim.",NUSA TENGGARA TIMUR,,Indonesia,,,,-9.6210173,119.3899822,https://maps.google.com/?cid=0x0:0x226b5bccf3db5abe,
perumahan,Kantor Perusahaan,Waikabubak,"9C6C+X66, Jl. Basuki Rahmat, Kodaka, Kec. Kota Waikabubak, Kabupaten Sumba Barat, Nusa Tenggara Tim.","Kabupaten Sumba Barat, Nusa Tenggara Tim.",NUSA TENGGARA TIMUR,,Indonesia,,,,-9.6375783,119.4205082,https://maps.google.com/?cid=0x0:0x21da044899cfb6c5,
perumahan,perumahan,Kampung wailiang,"9C73+VWP, Wailiang, Kec. Kota Waikabubak, Kabupaten Sumba Barat, Nusa Tenggara Tim.","Kabupaten Sumba Barat, Nusa Tenggara Tim.",NUSA TENGGARA TIMUR,,Indonesia,,,,-9.6352994,119.404837,https://maps.google.com/?cid=0x0:0xb97afa358fda4c17,
perumahan,Komplek perumahan,Puu kabbo,"9C8Q+6R3, Kalembu Kuni, Kec. Kota Waikabubak, Kabupaten Sumba Barat, Nusa Tenggara Tim.","Kabupaten Sumba Barat, Nusa Tenggara Tim.",NUSA TENGGARA TIMUR,,Indonesia,82144073423.0,,,-9.6354513,119.4396662,https://maps.google.com/?cid=0x0:0x788cd36c7414916,
perumahan,Perhimpunan Pengembang Perumahan,Sumba,"99CR+VPV, Pada Eweta, Kec. Kota Waikabubak, Kabupaten Sumba Barat, Nusa Tenggara Tim.","Kabupaten Sumba Barat, Nusa Tenggara Tim.",NUSA TENGGARA TIMUR,,Indonesia,,,,-9.627762,119.3918108,https://maps.google.com/?cid=0x0:0x22636fdd814ac866,
perumahan,Perumahan,Rumah Alm Hamid Ambu Day,"Jl. Pisang No.34a, Wailiang, Kec. Kota Waikabubak, Kabupaten Sumba Barat, Nusa Tenggara Tim. 87211","Wailiang, Kec. Kota Waikabubak, Kabupaten Sumba Barat",NUSA TENGGARA TIMUR,87211.0,Indonesia,,,,-9.6346912,119.4054805,https://maps.google.com/?cid=0x0:0x3d2ec318e7be6230,
perumahan,Komplek perumahan,Kampung baru,"Jl. Veteran No.35a, Kp. Baru, Kec. Kota Waikabubak, Kabupaten Sumba Barat, Nusa Tenggara Tim.","Kabupaten Sumba Barat, Nusa Tenggara Tim.",NUSA TENGGARA TIMUR,,Indonesia,,,,-9.6321519,119.4164401,https://maps.google.com/?cid=0x0:0xd37ec70ded1bfb6b,
perumahan,Komplek perumahan,Arisulistiawati,"9C96+7M4, Komerda, Kec. Kota Waikabubak, Kabupaten Sumba Barat, Nusa Tenggara Tim.","Kabupaten Sumba Barat, Nusa Tenggara Tim.",NUSA TENGGARA TIMUR,,Indonesia,,,,-9.6318508,119.4116981,https://maps.google.com/?cid=0x0:0x8b32ea2ab1db8c0c,
perumahan,perumahan,Kec. Kota Waikabubak,"Kabupaten Sumba Barat, Nusa Tenggara Tim.","Kabupaten Sumba Barat, Nusa Tenggara Tim.",NUSA TENGGARA TIMUR,,Indonesia,,,,-9.6318508,119.4116981,https://maps.google.com/?cid=0x0:0xc0a3b8deb8dcb273,
perumahan,Komplek perumahan,Jln pisang wailiang Waikabubak,"9C73+CRQ, Jl. Pisang, Wailiang, Kec. Kota Waikabubak, Kabupaten Sumba Barat, Nusa Tenggara Tim.","Kabupaten Sumba Barat, Nusa Tenggara Tim.",NUSA TENGGARA TIMUR,,Indonesia,,,,-9.6364099,119.4045977,https://maps.google.com/?cid=0x0:0xd01246b50b4c398d,
perumahan,Otoritas Perumahan,Perumahan Wee Karou Permai,"89VP+JCP, Wee Karou, Kec. Loli, Kabupaten Sumba Barat, Nusa Tenggara Tim.","Kabupaten Sumba Barat, Nusa Tenggara Tim.",NUSA TENGGARA TIMUR,,Indonesia,,,,-9.655906,119.3860825,https://maps.google.com/?cid=0x0:0xccd95e44c08291d3,
perumahan,Perumahan,Perumahan Wee Karou Permai Indah,"89VQ+J6M, Unnamed Road, Wee Karou, Kec. Loli, Kabupaten Sumba Barat, Nusa Tenggara Tim.","Kabupaten Sumba Barat, Nusa Tenggara Tim.",NUSA TENGGARA TIMUR,,Indonesia,,,,-9.6559103,119.3880615,https://maps.google.com/?cid=0x0:0xa2bc876d3b9946f3,
perumahan,Tujuan Wisata,View Point Of Praijing Village,"9C4J+RCH, Tebara, Kec. Kota Waikabubak, Kabupaten Sumba Barat, Nusa Tenggara Tim.","Kabupaten Sumba Barat, Nusa Tenggara Tim.",NUSA TENGGARA TIMUR,,Indonesia,,,,-9.6429446,119.4310958,https://maps.google.com/?cid=0x0:0xd8c88669a951ac4e,
perumahan,Tujuan Wisata,Kampung Prai Ijing,"9C5J+F73, Tebara, Kec. Kota Waikabubak, Kabupaten Sumba Barat, Nusa Tenggara Tim.","Kabupaten Sumba Barat, Nusa Tenggara Tim.",NUSA TENGGARA TIMUR,,Indonesia,81338254721.0,,,-9.6413527,119.4306809,https://maps.google.com/?cid=0x0:0xe7166dc23f44e00,
perumahan,Komplek perumahan,Perumahan Saudara Sejati,"9C33+MF9, Weekarou Road, Wee Karou, Kec. Loli, Kabupaten Sumba Barat, Nusa Tenggara Tim.","Kabupaten Sumba Barat, Nusa Tenggara Tim.",NUSA TENGGARA TIMUR,,Indonesia,,,,-9.6458497,119.4037407,https://maps.google.com/?cid=0x0:0x124b4738153cb376,
perumahan,Padang,Rumah Makan Pondok Salero,"9C65+V82, Wailiang, Kec. Kota Waikabubak, Kabupaten Sumba Barat, Nusa Tenggara Tim.","Kabupaten Sumba Barat, Nusa Tenggara Tim.",NUSA TENGGARA TIMUR,,Indonesia,81337757728.0,,,-9.6378679,119.4082565,https://maps.google.com/?cid=0x0:0xcba49331c1564d4,
perumahan,Komplek perumahan,Rumah BTN,"Komplek perumahan weekarau permai indah, blok d16, Wee Karou, Kec. Loli, Kabupaten Sumba Barat, Nusa Tenggara Tim.","Kabupaten Sumba Barat, Nusa Tenggara Tim.",NUSA TENGGARA TIMUR,,Indonesia,,,,-9.6566884,119.3857793,https://maps.google.com/?cid=0x0:0xfa92ff1d236750d1,
perumahan,Restoran,Dapur Sumba Waikabubak,"Jl. Ahmad Yani No.51, Maliti, Kec. Kota Waikabubak, Kabupaten Sumba Barat, Nusa Tenggara Tim.","Kabupaten Sumba Barat, Nusa Tenggara Tim.",NUSA TENGGARA TIMUR,,Indonesia,81329575563.0,,,-9.6345839,119.4100495,https://maps.google.com/?cid=0x0:0xfffb69d9ed16ed21,
perumahan,Rumah Makan,Rumah Makan Pondok Bambu,"9C6C+RP6, Kp. Sawah, Kec. Kota Waikabubak, Kabupaten Sumba Barat, Nusa Tenggara Tim.","Kabupaten Sumba Barat, Nusa Tenggara Tim.",NUSA TENGGARA TIMUR,,Indonesia,81338595964.0,,,-9.637967,119.4217657,https://maps.google.com/?cid=0x0:0x3196530451f3d0e9,
perumahan,Indonesia,Rumah Makan Rahayu,"9C75+3VM, Maliti, Kec. Kota Waikabubak, Kabupaten Sumba Barat, Nusa Tenggara Tim.","Kabupaten Sumba Barat, Nusa Tenggara Tim.",NUSA TENGGARA TIMUR,,Indonesia,,,,-9.6372872,119.4096593,https://maps.google.com/?cid=0x0:0x18b98280f58197de,
perumahan,perumahan,Tarung,"Wailiang, Kec. Kota Waikabubak, Kabupaten Sumba Barat, Nusa Tenggara Tim.","Kabupaten Sumba Barat, Nusa Tenggara Tim.",NUSA TENGGARA TIMUR,,Indonesia,,,,-9.6327467,119.409698,https://maps.google.com/?cid=0x0:0x9ac314ba35176664,
perumahan,Restoran,Soemba Coffee  Resto Waikabubak,"Jl. Ahmad Yani No.119, Maliti, Kec. Kota Waikabubak, Kabupaten Sumba Barat, Nusa Tenggara Tim.","Kabupaten Sumba Barat, Nusa Tenggara Tim.",NUSA TENGGARA TIMUR,,Indonesia,82155665147.0,,,-9.638199,119.4078702,https://maps.google.com/?cid=0x0:0x7f6da285e14506ee,
perumahan,Restoran,D'Sumba Ate,"Jl. Ahmad Yani No.148 A, Wailiang, Kec. Kota Waikabubak, Kabupaten Sumba Barat, Nusa Tenggara Tim. 87211","Wailiang, Kec. Kota Waikabubak, Kabupaten Sumba Barat",NUSA TENGGARA TIMUR,87211.0,Indonesia,82146325612.0,,,-9.6428236,119.4082311,https://maps.google.com/?cid=0x0:0xb13af0eefc64bd7d,
perumahan,Bangunan Bersejarah,Prai Ijing Traditional Village,"9C4J+XCH, Tebara, Kec. Kota Waikabubak, Kabupaten Sumba Barat, Nusa Tenggara Tim.","Kabupaten Sumba Barat, Nusa Tenggara Tim.",NUSA TENGGARA TIMUR,,Indonesia,,,,-9.6425529,119.431103,https://maps.google.com/?cid=0x0:0xfc1079c4a7a86f12,
perumahan,perumahan,Perumahan,"9CG8+8H5, RT.001, Kp. Baru, Kec. Kota Waikabubak, Kabupaten Sumba Barat, Nusa Tenggara Tim.","Kabupaten Sumba Barat, Nusa Tenggara Tim.",NUSA TENGGARA TIMUR,,Indonesia,,,,-9.6242275,119.4164813,https://maps.google.com/?cid=0x0:0xbd40bab293287ba1,
perumahan,perumahan,Nusa Tenggara Tim.,,Nusa Tenggara Tim.,NUSA TENGGARA TIMUR,,Indonesia,,,,-8.6573819,121.0793705,https://maps.google.com/?cid=0x0:0x1030bfbcaf71ae0,
perumahan,Toko Bahan Bangunan,Toko Makmur,"Jl. Ahmad Yani No.3, Komerda, Kec. Kota Waikabubak, Kabupaten Sumba Barat, Nusa Tenggara Tim. 87211","Komerda, Kec. Kota Waikabubak, Kabupaten Sumba Barat",NUSA TENGGARA TIMUR,87211.0,Indonesia,81339020447.0,,,-9.6323297,119.411732,https://maps.google.com/?cid=0x0:0x70171ded7fc96b84,
perumahan,Gedung Apartemen,Waikabubak,"9C73+VWP malati, kel Jl gang ekapata, Wailiang, Kota Walkabubak, West Sumba Regency, East Nusa Tenggara","Kabupaten Sumba Barat, Nusa Tenggara Tim.",NUSA TENGGARA TIMUR,,Indonesia,,,,-9.6352994,119.404837,https://maps.google.com/?cid=0x0:0xa15a09c9451fc703,
perumahan,Pembangunan Perumahan,Kos kosan Semedi,"Jl. Bhayangkara No.66a, Pada Eweta, Kec. Kota Waikabubak, Kabupaten Sumba Barat, Nusa Tenggara Tim. 87217","Pada Eweta, Kec. Kota Waikabubak, Kabupaten Sumba Barat",NUSA TENGGARA TIMUR,87217.0,Indonesia,85239764269.0,,,-9.6256782,119.4039064,https://maps.google.com/?cid=0x0:0x9ea5f8125a64bab5,
perumahan,Komplek perumahan,Dewa Darma,"9CG6+JXQ, Kp. Baru, Kec. Kota Waikabubak, Kabupaten Sumba Barat, Nusa Tenggara Tim.","Kabupaten Sumba Barat, Nusa Tenggara Tim.",NUSA TENGGARA TIMUR,,Indonesia,,,,-9.6234035,119.4124892,https://maps.google.com/?cid=0x0:0x57074909e529e863,
perumahan,perumahan,Eden Home,"9CH2+9WX, Pada Eweta, Kec. Kota Waikabubak, Kabupaten Sumba Barat, Nusa Tenggara Tim.","Kabupaten Sumba Barat, Nusa Tenggara Tim.",NUSA TENGGARA TIMUR,,Indonesia,,,,-9.621513,119.4023548,https://maps.google.com/?cid=0x0:0x7c345aab21bc76d0,
perumahan,perumahan,Waikabubak kota dingin,"9C87+935, Komerda, Kec. Kota Waikabubak, Kabupaten Sumba Barat, Nusa Tenggara Tim.","Kabupaten Sumba Barat, Nusa Tenggara Tim.",NUSA TENGGARA TIMUR,,Indonesia,,,,-9.6341184,119.4127389,https://maps.google.com/?cid=0x0:0x9ee32f7e0dbff57d,
perumahan,Toko Perlengkapan Rumah,MR.DIY,"Jl. Ahmad Yani, Wailiang, Kec. Kota Waikabubak, Kabupaten Sumba Barat, Nusa Tenggara Tim. 87217","Wailiang, Kec. Kota Waikabubak, Kabupaten Sumba Barat",NUSA TENGGARA TIMUR,87217.0,Indonesia,,,,-9.6406488,119.4078019,https://maps.google.com/?cid=0x0:0x34d1943d35c76109,
perumahan,Pembangunan Perumahan,Wanno komi,"9C7R+26, Kalembu Kuni, Kec. Kota Waikabubak, Kabupaten Sumba Barat, Nusa Tenggara Tim.","Kabupaten Sumba Barat, Nusa Tenggara Tim.",NUSA TENGGARA TIMUR,,Indonesia,,,,-9.6373776,119.4405397,https://maps.google.com/?cid=0x0:0xd79a8ffda843ffcf,
perumahan,Pembangunan Perumahan,Doni Nenokeba,"99GJ+7VX, Jalan Makam Pahlawan, Pada Eweta, Kec. Kota Waikabubak, Kabupaten Sumba Barat, Nusa Tenggara Tim.","Kabupaten Sumba Barat, Nusa Tenggara Tim.",NUSA TENGGARA TIMUR,,Indonesia,,,,-9.6242558,119.3822354,https://maps.google.com/?cid=0x0:0xdd995a914a7fb83,
perumahan,Kantor Perusahaan,Waikabubak,"9C6C+X66, Jl. Basuki Rahmat, Kodaka, Kec. Kota Waikabubak, Kabupaten Sumba Barat, Nusa Tenggara Tim.","Kabupaten Sumba Barat, Nusa Tenggara Tim.",NUSA TENGGARA TIMUR,,Indonesia,,,,-9.6375783,119.4205082,https://maps.google.com/?cid=0x0:0x21da044899cfb6c5,
perumahan,Kantor Perusahaan,Rumanya kasubag keuangan dispenduk,"99CQ+F5P, Pada Eweta, Kec. Kota Waikabubak, Kabupaten Sumba Barat, Nusa Tenggara Tim.","Kabupaten Sumba Barat, Nusa Tenggara Tim.",NUSA TENGGARA TIMUR,,Indonesia,,,,-9.6283218,119.3874781,https://maps.google.com/?cid=0x0:0x6cd8f86b35e4aaf1,
perumahan,Kantor Perusahaan,PALMA REGENCY - PALMA GRUP,"VPP9+7HR, Jl. Teluk Naibenu, Dusun Kuanoah, Noelbaki, Kec. Kupang Tengah, Kabupaten Kupang, Nusa Tenggara Tim.","Kabupaten Kupang, Nusa Tenggara Tim.",NUSA TENGGARA TIMUR,,Indonesia,81337282180.0,,,-10.1142561,123.718893,https://maps.google.com/?cid=0x0:0x35b0946b700b7ed6,
perumahan,perumahan,Kabu Karudi,"Kec. Lamboya, Kabupaten Sumba Barat, Nusa Tenggara Tim.","Kabupaten Sumba Barat, Nusa Tenggara Tim.",NUSA TENGGARA TIMUR,,Indonesia,,,,-9.7222151,119.3656846,https://maps.google.com/?cid=0x0:0xd6fd07a225087980,
perumahan,perumahan,Nusa Tenggara Tim.,,Nusa Tenggara Tim.,NUSA TENGGARA TIMUR,,Indonesia,,,,-8.6573819,121.0793705,https://maps.google.com/?cid=0x0:0x1030bfbcaf71ae0,
perumahan,Komplek perumahan,Kampung Moritana,"79HM+PWG, Kampung Moritana, Dusun 4, Rajaka, Kec. Lamboya, Kabupaten Sumba Barat, Nusa Tenggara Tim.","Kabupaten Sumba Barat, Nusa Tenggara Tim.",NUSA TENGGARA TIMUR,,Indonesia,,,,-9.7206978,119.3848321,https://maps.google.com/?cid=0x0:0xc29c09a360544ffd,
perumahan,Tujuan Wisata,Kampung liling lAmboya bawah,"789V+74, Laboya Bawa, Kec. Lamboya, Kabupaten Sumba Barat, Nusa Tenggara Tim.","Kabupaten Sumba Barat, Nusa Tenggara Tim.",NUSA TENGGARA TIMUR,,Indonesia,,,,-9.7318874,119.34281,https://maps.google.com/?cid=0x0:0xb13310b524810484,
perumahan,Komplek perumahan,Kampung Lawuta,"796X+W7W, Kampung Lawuta, Dusun 1, Rajaka, Kec. Lamboya, Kabupaten Sumba Barat, Nusa Tenggara Tim.","Kabupaten Sumba Barat, Nusa Tenggara Tim.",NUSA TENGGARA TIMUR,,Indonesia,,,,-9.7376342,119.3982037,https://maps.google.com/?cid=0x0:0x591d038be4fdb0d4,
perumahan,Komplek perumahan,Tana Woto Village,"79F9+V9J, Unnamed Road, Kabu Karudi, Kec. Lamboya, Kabupaten Sumba Barat, Nusa Tenggara Tim.","Kabupaten Sumba Barat, Nusa Tenggara Tim.",NUSA TENGGARA TIMUR,,Indonesia,,,,-9.7252846,119.368406,https://maps.google.com/?cid=0x0:0x26d90a688a81e317,
perumahan,Komplek perumahan,Kampung TogowokoWaja,"78FQ+3W, Laboya Bawa, Kec. Lamboya, Kabupaten Sumba Barat, Nusa Tenggara Tim.","Kabupaten Sumba Barat, Nusa Tenggara Tim.",NUSA TENGGARA TIMUR,,Indonesia,,,,-9.7261416,119.3402183,https://maps.google.com/?cid=0x0:0x4cc968622668f210,
perumahan,Komplek perumahan,Kampung Kapaka,"796V+XJP, Kampung Kapaka, Dusun 1, Rajaka, Kec. Lamboya, Kabupaten Sumba Barat, Nusa Tenggara Tim.","Kabupaten Sumba Barat, Nusa Tenggara Tim.",NUSA TENGGARA TIMUR,,Indonesia,,,,-9.7375311,119.3940931,https://maps.google.com/?cid=0x0:0x30cc97549ea849b3,
perumahan,Komplek perumahan,Kampung Praimodi,"79RV+PMV, Kampung Praimodi, Dusun 4, Rajaka, Kec. Lamboya, Kabupaten Sumba Barat, Nusa Tenggara Tim.","Kabupaten Sumba Barat, Nusa Tenggara Tim.",NUSA TENGGARA TIMUR,,Indonesia,,,,-9.7081497,119.3941656,https://maps.google.com/?cid=0x0:0xab76fca57bfc0a2f,
perumahan,Komplek perumahan,Kampung Baru,"79CQ+448, Kampung Baru, Dusun 2, Rajaka, Kec. Lamboya, Kabupaten Sumba Barat, Nusa Tenggara Tim.","Kabupaten Sumba Barat, Nusa Tenggara Tim.",NUSA TENGGARA TIMUR,,Indonesia,,,,-9.7297117,119.3878261,https://maps.google.com/?cid=0x0:0x1746180e6609d7a5,
perumahan,Komplek perumahan,Kampung Bokariri,"798W+HJG, Kampung Bokariri, Dusun 1, Rajaka, Kec. Lamboya, Kabupaten Sumba Barat, Nusa Tenggara Tim.","Kabupaten Sumba Barat, Nusa Tenggara Tim.",NUSA TENGGARA TIMUR,,Indonesia,,,,-9.73356,119.3965677,https://maps.google.com/?cid=0x0:0x32ee5e709f75ad72,
perumahan,Komplek perumahan,Kampung Lete Baraha,"Kampung Lete Baraha, Dusun 1, Rajaka, Kec. Lamboya, Kabupaten Sumba Barat, Nusa Tenggara Tim.","Kabupaten Sumba Barat, Nusa Tenggara Tim.",NUSA TENGGARA TIMUR,,Indonesia,,,,-9.7384592,119.4016938,https://maps.google.com/?cid=0x0:0x40c48b432fd9e14,
perumahan,Komplek perumahan,Kampung Berakabita,"79G6+R7V, Jl, Kabu Karudi, Kec. Lamboya, Kabupaten Sumba Barat, Nusa Tenggara Tim.","Kabupaten Sumba Barat, Nusa Tenggara Tim.",NUSA TENGGARA TIMUR,,Indonesia,,,,-9.7216215,119.3606733,https://maps.google.com/?cid=0x0:0x89a827b43557fb42,
perumahan,Nasi,Tana Malli,"78CX+M6G, Laboya Bawa, Kec. Lamboya, Kabupaten Sumba Barat, Nusa Tenggara Tim.","Kabupaten Sumba Barat, Nusa Tenggara Tim.",NUSA TENGGARA TIMUR,,Indonesia,,,,-9.7283228,119.3480789,https://maps.google.com/?cid=0x0:0x6cfeda3c25d0f8b8,
perumahan,Komplek perumahan,Wengaingo,"789V+RWC, Laboya Bawa, Kec. Lamboya, Kabupaten Sumba Barat, Nusa Tenggara Tim.","Kabupaten Sumba Barat, Nusa Tenggara Tim.",NUSA TENGGARA TIMUR,,Indonesia,,,,-9.729998,119.344352,https://maps.google.com/?cid=0x0:0x4c01fdd6e493a637,
perumahan,perumahan,Kampung SUBAKA,"8987+VR, Laboya Dete, Kec. Lamboya, Kabupaten Sumba Barat, Nusa Tenggara Tim.","Kabupaten Sumba Barat, Nusa Tenggara Tim.",NUSA TENGGARA TIMUR,,Indonesia,,,,-9.6828387,119.3645331,https://maps.google.com/?cid=0x0:0xc947899f6d25ea46,
perumahan,Komplek perumahan,Kampung Dimu Kutra,"79JP+F59, Rajaka, Kec. Lamboya, Kabupaten Sumba Barat, Nusa Tenggara Tim.","Kabupaten Sumba Barat, Nusa Tenggara Tim.",NUSA TENGGARA TIMUR,,Indonesia,,,,-9.7188449,119.3854911,https://maps.google.com/?cid=0x0:0x6418f91e87725ab9,
perumahan,Pembangunan Perumahan,Kampung Bodowunta,"Bodowunta, Laboya Bawa, Kec. Lamboya, Kabupaten Sumba Barat, Nusa Tenggara Tim.","Kabupaten Sumba Barat, Nusa Tenggara Tim.",NUSA TENGGARA TIMUR,,Indonesia,,,,-9.7303667,119.3426191,https://maps.google.com/?cid=0x0:0xc4f0052106a5b5ff,
perumahan,Komplek perumahan,Leterango,"799R+RH4, Rajaka, Kec. Lamboya, Kabupaten Sumba Barat, Nusa Tenggara Tim.","Kabupaten Sumba Barat, Nusa Tenggara Tim.",NUSA TENGGARA TIMUR,,Indonesia,,,,-9.7304985,119.3914626,https://maps.google.com/?cid=0x0:0x3bc645b09b42fa60,
perumahan,perumahan,Kampung Larawatu,"792C+MR5, Watu Karere, Kec. Lamboya, Kabupaten Sumba Barat, Nusa Tenggara Tim.","Kabupaten Sumba Barat, Nusa Tenggara Tim.",NUSA TENGGARA TIMUR,,Indonesia,82247256268.0,,,-9.7482485,119.3714249,https://maps.google.com/?cid=0x0:0x48366a4690bf043f,
perumahan,Komplek perumahan,Kampung Lete Dikta,"Kampung Lete Dikta, Dusun 1, Rajaka, Kec. Lamboya, Kabupaten Sumba Barat, Nusa Tenggara Tim.","Kabupaten Sumba Barat, Nusa Tenggara Tim.",NUSA TENGGARA TIMUR,,Indonesia,,,,-9.7222554,119.3918108,https://maps.google.com/?cid=0x0:0x2e337882e0a10536,
perumahan,Pembangunan Perumahan,Kampung Bila,"7972+HFV, Laboya Bawa, Kec. Lamboya, Kabupaten Sumba Barat, Nusa Tenggara Tim.","Kabupaten Sumba Barat, Nusa Tenggara Tim.",NUSA TENGGARA TIMUR,,Indonesia,,,,-9.736021,119.3511681,https://maps.google.com/?cid=0x0:0xb41f67bc0bbd1b7f,
perumahan,Komplek perumahan,Kampung Galuwayi,"7C74+M4H, Kampung Galuwayi, Dusun 1, Rajaka, Kec. Lamboya, Kabupaten Sumba Barat, Nusa Tenggara Tim.","Kabupaten Sumba Barat, Nusa Tenggara Tim.",NUSA TENGGARA TIMUR,,Indonesia,,,,-9.7358029,119.4053615,https://maps.google.com/?cid=0x0:0xfecaaf59e740ff20,
perumahan,Komplek perumahan,Kampung pukabbo,"7CR3+764, Dusun kadiwatu, Rajaka, Kec. Lamboya, Kabupaten Sumba Barat, Nusa Tenggara Tim.","Kabupaten Sumba Barat, Nusa Tenggara Tim.",NUSA TENGGARA TIMUR,,Indonesia,,,,-9.7093501,119.4030829,https://maps.google.com/?cid=0x0:0x597ed912f4606cde,
