Category,Real Category,Business Name,Address,City,State,Postal Code,Country,Phone,Email,Website,Latitude,Longitude,Map Link,Details Link
mall,Pusat Perbelanjaan,Tarakan Mall,"8H5M+G73, Jl. Yos Sudarso No.1 Lantai 4, Karang Rejo, Kec. Tarakan Bar., Kota Tarakan, Kalimantan Utara","Kota Tarakan, Kalimantan Utara",KALIMANTAN UTARA,,Indonesia,,,,3.308837,117.5831623,https://maps.google.com/?cid=0x0:0x1eeb4f8ef877ebd6,
mall,Toserba,Ramayana Gusher Plaza,"8H4H+7RP, Karang Rejo, Kec. Tarakan Bar., Kota Tarakan, Kalimantan Utara","Kota Tarakan, Kalimantan Utara",KALIMANTAN UTARA,,Indonesia,,,,3.305723,117.5795852,https://maps.google.com/?cid=0x0:0x1e46136bbdb237bc,
mall,mall,Coffee Zone,"Karang Rejo, Kec. Tarakan Bar., Kota Tarakan, Kalimantan Utara","Kota Tarakan, Kalimantan Utara",KALIMANTAN UTARA,,Indonesia,,,,3.3089548,117.5832988,https://maps.google.com/?cid=0x0:0xff17a5448d6db71,
mall,Toko Perlengkapan Bayi,KING BABY TANJUNG SELOR,"Jl. Sengkawit No.104, RT.56/RW.21, Tj. Selor Hilir, Kec. Tj. Selor, Kabupaten Bulungan, Kalimantan Utara 77212","RT.56/RW.21, Tj. Selor Hilir, Kec. Tj. Selor, Kabupaten Bulungan",KALIMANTAN UTARA,77212.0,Indonesia, 085281871878,,,2.855686,117.3662814,https://maps.google.com/?cid=0x0:0xf17a1ff3e8fc8c15,
mall,mall,Peso Hilir,"Kabupaten Bulungan, Kalimantan Utara","Kabupaten Bulungan, Kalimantan Utara",KALIMANTAN UTARA,,Indonesia,,,,2.7979259,116.9381434,https://maps.google.com/?cid=0x0:0x3e0d9d5c1d55d425,
mall,Pusat Perbelanjaan,Pasar Induk Tanjung Selor,"V93F+VHJ, Tj. Selor Hilir, Kec. Tj. Selor, Kabupaten Bulungan, Kalimantan Utara 77216","Tj. Selor Hilir, Kec. Tj. Selor, Kabupaten Bulungan",KALIMANTAN UTARA,77216.0,Indonesia,,,,2.8547102,117.3739018,https://maps.google.com/?cid=0x0:0xf4c7a30b41976d25,
mall,Toko Pakaian Anak,Mall Baby Tanjung Selor,"Jl. Sengkawit, Tj. Selor Hilir, Kec. Tj. Selor, Kabupaten Bulungan, Kalimantan Utara 77216","Tj. Selor Hilir, Kec. Tj. Selor, Kabupaten Bulungan",KALIMANTAN UTARA,77216.0,Indonesia, 081257220004,,,2.8543202,117.3702519,https://maps.google.com/?cid=0x0:0xde36b229e150e202,
mall,Toko Perlengkapan Bayi,KING BABY TANJUNG SELOR,"Jl. Sengkawit No.104, RT.56/RW.21, Tj. Selor Hilir, Kec. Tj. Selor, Kabupaten Bulungan, Kalimantan Utara 77212","RT.56/RW.21, Tj. Selor Hilir, Kec. Tj. Selor, Kabupaten Bulungan",KALIMANTAN UTARA,77212.0,Indonesia, 085281871878,,,2.855686,117.3662814,https://maps.google.com/?cid=0x0:0xf17a1ff3e8fc8c15,
mall,mall,Kalimantan Utara 77263,"Kabupaten Bulungan, Kalimantan Utara","Kabupaten Bulungan, Kalimantan Utara",KALIMANTAN UTARA,,Indonesia,,,,3.1226414,116.8910342,https://maps.google.com/?cid=0x0:0x4e5101a5ecf582e,
mall,Toserba,Toserba cahaya Sekatak,"83F7+P73, Jl. Ahmad Yani, Sekatak Buji, Kec. Sekatak, Kabupaten Bulungan, Kalimantan Utara 77152","Jl. Ahmad Yani, Sekatak Buji, Kec. Sekatak, Kabupaten Bulungan",KALIMANTAN UTARA,77152.0,Indonesia, 081356425345,,,3.3242661,117.0631851,https://maps.google.com/?cid=0x0:0xc671fb661c8f71c9,
mall,Toko bahan makanan,Toko Mitra SRC Sinarmas,"83G6+F26, Jl. Ahmad Yani, Turung, Kec. Sekatak, Kabupaten Bulungan, Kalimantan Utara 77152","Jl. Ahmad Yani, Turung, Kec. Sekatak, Kabupaten Bulungan",KALIMANTAN UTARA,77152.0,Indonesia,,,,3.3261585,117.0600296,https://maps.google.com/?cid=0x0:0xfb1b8caaad578cb9,
mall,Toko umum,Berkah Madinah store,"26J9+VW4, Jl. Ahmad Yani, Karang Agung, Kec. Tj. Palas Utara, Kabupaten Bulungan, Kalimantan Utara 77215","Jl. Ahmad Yani, Karang Agung, Kec. Tj. Palas Utara, Kabupaten Bulungan",KALIMANTAN UTARA,77215.0,Indonesia, 082221108885,,,3.032133,117.219843,https://maps.google.com/?cid=0x0:0xa53b5e18fb9a8ca1,
mall,Makanan Kecil,LAPAK IKAN ERNA RADEN,"83C7+F8J, Jl. Ahmad Yani, Maritam, Kec. Sekatak, Kabupaten Bulungan, Kalimantan Utara 77152","Jl. Ahmad Yani, Maritam, Kec. Sekatak, Kabupaten Bulungan",KALIMANTAN UTARA,77152.0,Indonesia,,,,3.3212205,117.0632804,https://maps.google.com/?cid=0x0:0xc7b62c864e503ac,
mall,Toko Pakaian,Serba 35,"36H7+V3H, Panca Agung, Kec. Tj. Palas Utara, Kabupaten Bulungan, Kalimantan Utara","Kabupaten Bulungan, Kalimantan Utara",KALIMANTAN UTARA,,Indonesia, 082174931508,,,3.0796875,117.2126875,https://maps.google.com/?cid=0x0:0xd063452d5e4dd564,
mall,Toko Swalayan,Fresh Fish,"924M+V6H, Jalan poros kaltara, Turung, Kec. Sekatak, Kabupaten Bulungan, Kalimantan Utara 77152","Jalan poros kaltara, Turung, Kec. Sekatak, Kabupaten Bulungan",KALIMANTAN UTARA,77152.0,Indonesia, 085333388833,,,3.3571917,117.0331124,https://maps.google.com/?cid=0x0:0x953122b40ea1913c,
mall,Toko,Ud berkah usaha desa Ardi mulyo,"462M+738, Jl. Pelabuhan Ancam, Ardi Mulya, Kec. Tj. Palas Utara, Kabupaten Bulungan, Kalimantan Utara 77215","Jl. Pelabuhan Ancam, Ardi Mulya, Kec. Tj. Palas Utara, Kabupaten Bulungan",KALIMANTAN UTARA,77215.0,Indonesia,,,,3.1006724,117.2327022,https://maps.google.com/?cid=0x0:0xd04fedc9b462459a,
mall,Grosir air mineral,Galon isi ulang Acil Banjar,"83G6+86J, Paru Abang, Kec. Sekatak, Kabupaten Bulungan, Kalimantan Utara 77152","Paru Abang, Kec. Sekatak, Kabupaten Bulungan",KALIMANTAN UTARA,77152.0,Indonesia,,,,3.3258291,117.0605291,https://maps.google.com/?cid=0x0:0xd7fc78a5aaba3f7e,
mall,Toko Alat Tulis Kantor,Toko AFIF Copier,"Panca Agung, Kec. Tj. Palas Utara, Kabupaten Bulungan, Kalimantan Utara 77215","Kec. Tj. Palas Utara, Kabupaten Bulungan",KALIMANTAN UTARA,77215.0,Indonesia,,,,3.0792824,117.2126949,https://maps.google.com/?cid=0x0:0xde58272cdb2688c8,
mall,Toko,PANEN SQUARE,"V93G+2CW, Tj. Selor Hilir, Kec. Tj. Selor, Kabupaten Bulungan, Kalimantan Utara 77216","Tj. Selor Hilir, Kec. Tj. Selor, Kabupaten Bulungan",KALIMANTAN UTARA,77216.0,Indonesia, 081255187770,,,2.8525916,117.3760836,https://maps.google.com/?cid=0x0:0x70f3a9182196c949,
mall,Toko Herbal,Kius ibu Hamiati Nasa,"36XM+758, Ardi Mulya, Kec. Tj. Palas Utara, Kabupaten Bulungan, Kalimantan Utara 77215","Ardi Mulya, Kec. Tj. Palas Utara, Kabupaten Bulungan",KALIMANTAN UTARA,77215.0,Indonesia, 082252821967,,,3.0981535,117.2329647,https://maps.google.com/?cid=0x0:0x41dab2975713cf8e,
mall,Toko bahan makanan,Toko Reni Rusiati,"3628+XWX, Jl. H.M Ardans, Karang Agung, Kec. Tj. Palas Utara, Kabupaten Bulungan, Kalimantan Utara 77215","Jl. H.M Ardans, Karang Agung, Kec. Tj. Palas Utara, Kabupaten Bulungan",KALIMANTAN UTARA,77215.0,Indonesia, 085386684444,,,3.052484,117.2173599,https://maps.google.com/?cid=0x0:0xdf2231db914e9643,
mall,mall,Kalimantan Utara 77211,"Kabupaten Bulungan, Kalimantan Utara","Kabupaten Bulungan, Kalimantan Utara",KALIMANTAN UTARA,,Indonesia,,,,2.8426922,117.2911248,https://maps.google.com/?cid=0x0:0x503f82067f46d9d6,
mall,Pusat Perbelanjaan,Pasar Induk Tanjung Selor,"V93F+VHJ, Tj. Selor Hilir, Kec. Tj. Selor, Kabupaten Bulungan, Kalimantan Utara 77216","Tj. Selor Hilir, Kec. Tj. Selor, Kabupaten Bulungan",KALIMANTAN UTARA,77216.0,Indonesia,,,,2.8547102,117.3739018,https://maps.google.com/?cid=0x0:0xf4c7a30b41976d25,
mall,Toko,PANEN SQUARE,"V93G+2CW, Tj. Selor Hilir, Kec. Tj. Selor, Kabupaten Bulungan, Kalimantan Utara 77216","Tj. Selor Hilir, Kec. Tj. Selor, Kabupaten Bulungan",KALIMANTAN UTARA,77216.0,Indonesia, 081255187770,,,2.8525916,117.3760836,https://maps.google.com/?cid=0x0:0x70f3a9182196c949,
mall,Toko bahan makanan,LuLucu,"R9P4+6JJ, Tj. Palas Tengah, Kec. Tj. Palas, Kabupaten Bulungan, Kalimantan Utara 77214","Tj. Palas Tengah, Kec. Tj. Palas, Kabupaten Bulungan",KALIMANTAN UTARA,77214.0,Indonesia, 082251517977,,,2.8355855,117.3565035,https://maps.google.com/?cid=0x0:0xc514b927b142818c,
mall,Toko Perlengkapan Rumah,Suci Seserahan tanjung palas / selor,"R9J5+C6P, Jl. Kasimuddin, Tj. Palas Tengah, Kec. Tj. Palas, Kabupaten Bulungan, Kalimantan Utara 77216","Jl. Kasimuddin, Tj. Palas Tengah, Kec. Tj. Palas, Kabupaten Bulungan",KALIMANTAN UTARA,77216.0,Indonesia, 081258151617,,,2.831098,117.3580898,https://maps.google.com/?cid=0x0:0x11791a155275df45,
mall,Pusat Perbelanjaan,PUJASERA pasar Induk,"V93F+Q2X, Tj. Selor Hilir, Kec. Tj. Selor, Kabupaten Bulungan, Kalimantan Utara 77216","Tj. Selor Hilir, Kec. Tj. Selor, Kabupaten Bulungan",KALIMANTAN UTARA,77216.0,Indonesia,,,,2.8544999,117.3725944,https://maps.google.com/?cid=0x0:0x72dffc4bb359bf4c,
mall,Restoran,Warung Makan Mba Tun,"R8JR+M23, Gn. Putih/Kr. Jenawi, Kec. Tj. Palas, Kabupaten Bulungan, Kalimantan Utara 77211","Gn. Putih/Kr. Jenawi, Kec. Tj. Palas, Kabupaten Bulungan",KALIMANTAN UTARA,77211.0,Indonesia, 082254266137,,,2.8316302,117.3400513,https://maps.google.com/?cid=0x0:0x23d929fa700377a8,
mall,Toko,Kios/ Toko Simpang Tiga,"R9P4+7PR, Tj. Palas Tengah, Kec. Tj. Palas, Kabupaten Bulungan, Kalimantan Utara 77214","Tj. Palas Tengah, Kec. Tj. Palas, Kabupaten Bulungan",KALIMANTAN UTARA,77214.0,Indonesia,,,,2.8357359,117.3567624,https://maps.google.com/?cid=0x0:0x10377a4c167855a2,
mall,Pusat Perbelanjaan,Ikani,"R9P8+R43, Jl. Skip I, Tj. Selor Hulu, Kec. Tj. Selor, Kabupaten Bulungan, Kalimantan Utara 77214","Jl. Skip I, Tj. Selor Hulu, Kec. Tj. Selor, Kabupaten Bulungan",KALIMANTAN UTARA,77214.0,Indonesia, 055221939,,,2.8370158,117.3653091,https://maps.google.com/?cid=0x0:0xf869160fe2cf8d66,
mall,Toko Pakaian,3Z COLLECTION,"RCVJ+4V8, Jl. Selimau 3, Tj. Selor Tim., Kec. Tj. Selor, Kabupaten Bulungan, Kalimantan Utara 77211","Jl. Selimau 3, Tj. Selor Tim., Kec. Tj. Selor, Kabupaten Bulungan",KALIMANTAN UTARA,77211.0,Indonesia, 085247140227,,,2.8427857,117.4321957,https://maps.google.com/?cid=0x0:0xc635b1183da9e7b1,
mall,Pusat Perbelanjaan,Central Walet Tanjung Selor Bulungan,"V939+4J8, Jl. Benuang, Tj. Selor Hilir, Kec. Tj. Selor, Kabupaten Bulungan, Kalimantan Utara 77216","Jl. Benuang, Tj. Selor Hilir, Kec. Tj. Selor, Kabupaten Bulungan",KALIMANTAN UTARA,77216.0,Indonesia, 082157102040,,,2.8527772,117.3690689,https://maps.google.com/?cid=0x0:0x7753048ec1233eeb,
mall,Toko Perlengkapan Rumah,Tk Sumber Makmur,"R9Q6+VM5, Tj. Palas Tengah, Kec. Tj. Palas, Kabupaten Bulungan, Kalimantan Utara 77214","Tj. Palas Tengah, Kec. Tj. Palas, Kabupaten Bulungan",KALIMANTAN UTARA,77214.0,Indonesia,,,,2.8396377,117.3617323,https://maps.google.com/?cid=0x0:0xa0cfdd01f0876542,
mall,Pusat Perbelanjaan,Borneo Store,"Jl. Bumi Rahayu No.Km.9, Bumi Rahayu, Kec. Tj. Selor, Kabupaten Bulungan, Kalimantan Utara 77212","Bumi Rahayu, Kec. Tj. Selor, Kabupaten Bulungan",KALIMANTAN UTARA,77212.0,Indonesia,,,,2.7839803,117.4472329,https://maps.google.com/?cid=0x0:0x47b5e20ae35dc58,
mall,Produsen makanan,Pusat Produksi Tempe,"R8JR+QRP, Gn. Putih/Kr. Jenawi, Kec. Tj. Palas, Kabupaten Bulungan, Kalimantan Utara 77216","Gn. Putih/Kr. Jenawi, Kec. Tj. Palas, Kabupaten Bulungan",KALIMANTAN UTARA,77216.0,Indonesia,,,,2.8319608,117.3420762,https://maps.google.com/?cid=0x0:0x4176eeffeaf12aca,
mall,Toko Perlengkapan Rumah,Bulungan Jaya,"R9X6+PX5, Jl. Katamso, Kabupaten Bulungan, Kalimantan Utara 77214","Jl. Katamso, Kabupaten Bulungan",KALIMANTAN UTARA,77214.0,Indonesia,,,,2.8492715,117.3624714,https://maps.google.com/?cid=0x0:0x838039c6f26f0027,
mall,Pusat Perbelanjaan,Nq tanjung selor,"R9WF+WJP, Jl. Durian, Tj. Selor Hilir, Kec. Tj. Selor, Kabupaten Bulungan, Kalimantan Utara 77216","Jl. Durian, Tj. Selor Hilir, Kec. Tj. Selor, Kabupaten Bulungan",KALIMANTAN UTARA,77216.0,Indonesia, 085245735789,,,2.8473349,117.3740886,https://maps.google.com/?cid=0x0:0x6ec2075cef965561,
mall,Pusat Perbelanjaan,Photo copy,"W8RV+FJ6, Silva Rahayu, Kec. Tj. Palas Tengah, Kabupaten Bulungan, Kalimantan Utara 77216","Silva Rahayu, Kec. Tj. Palas Tengah, Kabupaten Bulungan",KALIMANTAN UTARA,77216.0,Indonesia, 082255281595,,,2.9411622,117.3440155,https://maps.google.com/?cid=0x0:0xdd36df45bcf46968,
mall,Pusat Perbelanjaan,Unka,"Jl. H. Tamrin, Tj. Selor Hilir, Kec. Tj. Selor, Kabupaten Bulungan, Kalimantan Utara 77212","Tj. Selor Hilir, Kec. Tj. Selor, Kabupaten Bulungan",KALIMANTAN UTARA,77212.0,Indonesia,,,,2.8597958,117.374669,https://maps.google.com/?cid=0x0:0xf95d868a2c16b4a5,
mall,Toko Alat Tulis Kantor,A-Z-S Fotocopy  ATK Tg.Palas Hilir,"Tg.Palas hilir, Pinggir Sungai, Tj. Palas Hilir, Kec. Tj. Palas, Kabupaten Bulungan, Kalimantan Utara 77214","Pinggir Sungai, Tj. Palas Hilir, Kec. Tj. Palas, Kabupaten Bulungan",KALIMANTAN UTARA,77214.0,Indonesia, 085347027076,,,2.8388109,117.3557389,https://maps.google.com/?cid=0x0:0xb34a0e59f5058806,
mall,Pusat Perbelanjaan,Gedung Ratu Plaza,"R9XC+JM3, Jl. Durian, Tj. Selor Hilir, Kec. Tj. Selor, Kabupaten Bulungan, Kalimantan Utara 77216","Jl. Durian, Tj. Selor Hilir, Kec. Tj. Selor, Kabupaten Bulungan",KALIMANTAN UTARA,77216.0,Indonesia, 085236562711,,,2.8490173,117.3716838,https://maps.google.com/?cid=0x0:0x2af74c878a0bca00,
mall,Toko Rokok Elektrik,Bulungan Vape Store,"V93C+JF8 Bulungan Vape Store, Jl. Jeruk, Tj. Selor Hilir, Kec. Tj. Selor, Kabupaten Bulungan, Kalimantan Utara 77216","Jl. Jeruk, Tj. Selor Hilir, Kec. Tj. Selor, Kabupaten Bulungan",KALIMANTAN UTARA,77216.0,Indonesia, 081321120510,,,2.8540276,117.3711883,https://maps.google.com/?cid=0x0:0x7625271b2507e2b5,
mall,Pusat Perbelanjaan,Jambu merah Pak Seger,"W964+59C SP 5, Tj. Buka, Kec. Tj. Palas Tengah, Kabupaten Bulungan, Kalimantan Utara 77211","Tj. Buka, Kec. Tj. Palas Tengah, Kabupaten Bulungan",KALIMANTAN UTARA,77211.0,Indonesia, 085231021529,,,2.9104396,117.3558766,https://maps.google.com/?cid=0x0:0x4f246289f101335b,
mall,Pusat Perbelanjaan,KIOS PELANGI pejalin,"jl. abubakar No.rt. 007, Pejalin, Kec. Tj. Palas, Kabupaten Bulungan, Kalimantan Utara 77211","Pejalin, Kec. Tj. Palas, Kabupaten Bulungan",KALIMANTAN UTARA,77211.0,Indonesia, 081354381050,,,2.8150099,117.3191169,https://maps.google.com/?cid=0x0:0xe210383b44322e2b,
mall,Toko bahan makanan,KAJINAM SUNGAI KULI,"R8WV+W5W, Unnamed Road, Gunung Putih/Kr. Jenawi, Tanjung Palas, Bulungan Regency, North Kalimantan 77216","Unnamed Road, Gunung Putih/Kr. Jenawi, Tanjung Palas, Bulungan Regency",KALIMANTAN UTARA,77216.0,Indonesia,,,,2.8473601,117.3429592,https://maps.google.com/?cid=0x0:0xb9b3fae0a7157e10,
mall,mall,Kalimantan Utara 77214,"Kabupaten Bulungan, Kalimantan Utara","Kabupaten Bulungan, Kalimantan Utara",KALIMANTAN UTARA,,Indonesia,,,,2.9077425,117.3675233,https://maps.google.com/?cid=0x0:0xb0bb64f1a0e0ca39,
mall,Pusat Perbelanjaan,Pasar Induk Tanjung Selor,"V93F+VHJ, Tj. Selor Hilir, Kec. Tj. Selor, Kabupaten Bulungan, Kalimantan Utara 77216","Tj. Selor Hilir, Kec. Tj. Selor, Kabupaten Bulungan",KALIMANTAN UTARA,77216.0,Indonesia,,,,2.8547102,117.3739018,https://maps.google.com/?cid=0x0:0xf4c7a30b41976d25,
mall,Toko bahan makanan,LuLucu,"R9P4+6JJ, Tj. Palas Tengah, Kec. Tj. Palas, Kabupaten Bulungan, Kalimantan Utara 77214","Tj. Palas Tengah, Kec. Tj. Palas, Kabupaten Bulungan",KALIMANTAN UTARA,77214.0,Indonesia, 082251517977,,,2.8355855,117.3565035,https://maps.google.com/?cid=0x0:0xc514b927b142818c,
mall,Toko,PANEN SQUARE,"V93G+2CW, Tj. Selor Hilir, Kec. Tj. Selor, Kabupaten Bulungan, Kalimantan Utara 77216","Tj. Selor Hilir, Kec. Tj. Selor, Kabupaten Bulungan",KALIMANTAN UTARA,77216.0,Indonesia, 081255187770,,,2.8525916,117.3760836,https://maps.google.com/?cid=0x0:0x70f3a9182196c949,
mall,Kantor Pemerintah,Mall Pelayanan Publik,"R9RF+76W, Tj. Selor Hilir, Kec. Tj. Selor, Kabupaten Bulungan, Kalimantan Utara 77216","Tj. Selor Hilir, Kec. Tj. Selor, Kabupaten Bulungan",KALIMANTAN UTARA,77216.0,Indonesia,,,,2.8407074,117.3730717,https://maps.google.com/?cid=0x0:0x73df0b16adce10a8,
mall,Toko Perlengkapan Rumah,Suci Seserahan tanjung palas / selor,"R9J5+C6P, Jl. Kasimuddin, Tj. Palas Tengah, Kec. Tj. Palas, Kabupaten Bulungan, Kalimantan Utara 77216","Jl. Kasimuddin, Tj. Palas Tengah, Kec. Tj. Palas, Kabupaten Bulungan",KALIMANTAN UTARA,77216.0,Indonesia, 081258151617,,,2.831098,117.3580898,https://maps.google.com/?cid=0x0:0x11791a155275df45,
mall,Toko,Kios/ Toko Simpang Tiga,"R9P4+7PR, Tj. Palas Tengah, Kec. Tj. Palas, Kabupaten Bulungan, Kalimantan Utara 77214","Tj. Palas Tengah, Kec. Tj. Palas, Kabupaten Bulungan",KALIMANTAN UTARA,77214.0,Indonesia,,,,2.8357359,117.3567624,https://maps.google.com/?cid=0x0:0x10377a4c167855a2,
mall,Pusat Perbelanjaan,PUJASERA pasar Induk,"V93F+Q2X, Tj. Selor Hilir, Kec. Tj. Selor, Kabupaten Bulungan, Kalimantan Utara 77216","Tj. Selor Hilir, Kec. Tj. Selor, Kabupaten Bulungan",KALIMANTAN UTARA,77216.0,Indonesia,,,,2.8544999,117.3725944,https://maps.google.com/?cid=0x0:0x72dffc4bb359bf4c,
mall,Toko Perlengkapan Rumah,Bulungan Jaya,"R9X6+PX5, Jl. Katamso, Kabupaten Bulungan, Kalimantan Utara 77214","Jl. Katamso, Kabupaten Bulungan",KALIMANTAN UTARA,77214.0,Indonesia,,,,2.8492715,117.3624714,https://maps.google.com/?cid=0x0:0x838039c6f26f0027,
mall,Pusat Perbelanjaan,Ikani,"R9P8+R43, Jl. Skip I, Tj. Selor Hulu, Kec. Tj. Selor, Kabupaten Bulungan, Kalimantan Utara 77214","Jl. Skip I, Tj. Selor Hulu, Kec. Tj. Selor, Kabupaten Bulungan",KALIMANTAN UTARA,77214.0,Indonesia, 055221939,,,2.8370158,117.3653091,https://maps.google.com/?cid=0x0:0xf869160fe2cf8d66,
mall,Toko Perlengkapan Rumah,Tk Sumber Makmur,"R9Q6+VM5, Tj. Palas Tengah, Kec. Tj. Palas, Kabupaten Bulungan, Kalimantan Utara 77214","Tj. Palas Tengah, Kec. Tj. Palas, Kabupaten Bulungan",KALIMANTAN UTARA,77214.0,Indonesia,,,,2.8396377,117.3617323,https://maps.google.com/?cid=0x0:0xa0cfdd01f0876542,
mall,Pusat Perbelanjaan,Central Walet Tanjung Selor Bulungan,"V939+4J8, Jl. Benuang, Tj. Selor Hilir, Kec. Tj. Selor, Kabupaten Bulungan, Kalimantan Utara 77216","Jl. Benuang, Tj. Selor Hilir, Kec. Tj. Selor, Kabupaten Bulungan",KALIMANTAN UTARA,77216.0,Indonesia, 082157102040,,,2.8527772,117.3690689,https://maps.google.com/?cid=0x0:0x7753048ec1233eeb,
mall,Toko Alat Tulis Kantor,A-Z-S Fotocopy  ATK Tg.Palas Hilir,"Tg.Palas hilir, Pinggir Sungai, Tj. Palas Hilir, Kec. Tj. Palas, Kabupaten Bulungan, Kalimantan Utara 77214","Pinggir Sungai, Tj. Palas Hilir, Kec. Tj. Palas, Kabupaten Bulungan",KALIMANTAN UTARA,77214.0,Indonesia, 085347027076,,,2.8388109,117.3557389,https://maps.google.com/?cid=0x0:0xb34a0e59f5058806,
mall,Restoran,Warung Makan Mba Tun,"R8JR+M23, Gn. Putih/Kr. Jenawi, Kec. Tj. Palas, Kabupaten Bulungan, Kalimantan Utara 77211","Gn. Putih/Kr. Jenawi, Kec. Tj. Palas, Kabupaten Bulungan",KALIMANTAN UTARA,77211.0,Indonesia, 082254266137,,,2.8316302,117.3400513,https://maps.google.com/?cid=0x0:0x23d929fa700377a8,
mall,Toko Perlengkapan Rumah,Toko Terang Jaya,"R9V9+WP5, Jl. Kolonel Soetadji, Tj. Selor Hilir, Kec. Tj. Selor, Kabupaten Bulungan, Kalimantan Utara 77214","Jl. Kolonel Soetadji, Tj. Selor Hilir, Kec. Tj. Selor, Kabupaten Bulungan",KALIMANTAN UTARA,77214.0,Indonesia,,,,2.8447709,117.3693517,https://maps.google.com/?cid=0x0:0x52910fe6fc27b03,
mall,Pusat Perbelanjaan,Gedung Ratu Plaza,"R9XC+JM3, Jl. Durian, Tj. Selor Hilir, Kec. Tj. Selor, Kabupaten Bulungan, Kalimantan Utara 77216","Jl. Durian, Tj. Selor Hilir, Kec. Tj. Selor, Kabupaten Bulungan",KALIMANTAN UTARA,77216.0,Indonesia, 085236562711,,,2.8490173,117.3716838,https://maps.google.com/?cid=0x0:0x2af74c878a0bca00,
mall,Toko Bunga,Papan Bunga Bulungan,"Jl. Soedirman No.28, Tj. Selor Hilir, Kec. Tj. Selor, Kabupaten Bulungan, Kalimantan Utara 77214","Tj. Selor Hilir, Kec. Tj. Selor, Kabupaten Bulungan",KALIMANTAN UTARA,77214.0,Indonesia, 087784554227,,,2.8412683,117.3616332,https://maps.google.com/?cid=0x0:0x18b502051dc07e2a,
mall,Toko Rokok Elektrik,Bulungan Vape Store,"V93C+JF8 Bulungan Vape Store, Jl. Jeruk, Tj. Selor Hilir, Kec. Tj. Selor, Kabupaten Bulungan, Kalimantan Utara 77216","Jl. Jeruk, Tj. Selor Hilir, Kec. Tj. Selor, Kabupaten Bulungan",KALIMANTAN UTARA,77216.0,Indonesia, 081321120510,,,2.8540276,117.3711883,https://maps.google.com/?cid=0x0:0x7625271b2507e2b5,
mall,Pusat Perbelanjaan,Jambu merah Pak Seger,"W964+59C SP 5, Tj. Buka, Kec. Tj. Palas Tengah, Kabupaten Bulungan, Kalimantan Utara 77211","Tj. Buka, Kec. Tj. Palas Tengah, Kabupaten Bulungan",KALIMANTAN UTARA,77211.0,Indonesia, 085231021529,,,2.9104396,117.3558766,https://maps.google.com/?cid=0x0:0x4f246289f101335b,
mall,Pusat Perbelanjaan,Nq tanjung selor,"R9WF+WJP, Jl. Durian, Tj. Selor Hilir, Kec. Tj. Selor, Kabupaten Bulungan, Kalimantan Utara 77216","Jl. Durian, Tj. Selor Hilir, Kec. Tj. Selor, Kabupaten Bulungan",KALIMANTAN UTARA,77216.0,Indonesia, 085245735789,,,2.8473349,117.3740886,https://maps.google.com/?cid=0x0:0x6ec2075cef965561,
mall,Kantor Perusahaan,Hidroponik Aquaponik Bulungan,"R8XW+8VR, Jalan Poros, Salim Batu, Kec. Tj. Palas, Kabupaten Bulungan, Kalimantan Utara 77216","Jalan Poros, Salim Batu, Kec. Tj. Palas, Kabupaten Bulungan",KALIMANTAN UTARA,77216.0,Indonesia, 081350455747,,,2.8483627,117.3471327,https://maps.google.com/?cid=0x0:0xd7b386d3c71c825,
mall,Toko bahan makanan,KAJINAM SUNGAI KULI,"R8WV+W5W, Unnamed Road, Gunung Putih/Kr. Jenawi, Tanjung Palas, Bulungan Regency, North Kalimantan 77216","Unnamed Road, Gunung Putih/Kr. Jenawi, Tanjung Palas, Bulungan Regency",KALIMANTAN UTARA,77216.0,Indonesia,,,,2.8473601,117.3429592,https://maps.google.com/?cid=0x0:0xb9b3fae0a7157e10,
mall,mall,Kec. Tj. Palas,"Kabupaten Bulungan, Kalimantan Utara","Kabupaten Bulungan, Kalimantan Utara",KALIMANTAN UTARA,,Indonesia,,,,2.8335506,117.3412058,https://maps.google.com/?cid=0x0:0xf6c6997b9149e5ff,
mall,Pusat Perbelanjaan,Pasar Induk Tanjung Selor,"V93F+VHJ, Tj. Selor Hilir, Kec. Tj. Selor, Kabupaten Bulungan, Kalimantan Utara 77216","Tj. Selor Hilir, Kec. Tj. Selor, Kabupaten Bulungan",KALIMANTAN UTARA,77216.0,Indonesia,,,,2.8547102,117.3739018,https://maps.google.com/?cid=0x0:0xf4c7a30b41976d25,
mall,Toko bahan makanan,LuLucu,"R9P4+6JJ, Tj. Palas Tengah, Kec. Tj. Palas, Kabupaten Bulungan, Kalimantan Utara 77214","Tj. Palas Tengah, Kec. Tj. Palas, Kabupaten Bulungan",KALIMANTAN UTARA,77214.0,Indonesia, 082251517977,,,2.8355855,117.3565035,https://maps.google.com/?cid=0x0:0xc514b927b142818c,
mall,Toko,Kios/ Toko Simpang Tiga,"R9P4+7PR, Tj. Palas Tengah, Kec. Tj. Palas, Kabupaten Bulungan, Kalimantan Utara 77214","Tj. Palas Tengah, Kec. Tj. Palas, Kabupaten Bulungan",KALIMANTAN UTARA,77214.0,Indonesia,,,,2.8357359,117.3567624,https://maps.google.com/?cid=0x0:0x10377a4c167855a2,
mall,Toko,PANEN SQUARE,"V93G+2CW, Tj. Selor Hilir, Kec. Tj. Selor, Kabupaten Bulungan, Kalimantan Utara 77216","Tj. Selor Hilir, Kec. Tj. Selor, Kabupaten Bulungan",KALIMANTAN UTARA,77216.0,Indonesia, 081255187770,,,2.8525916,117.3760836,https://maps.google.com/?cid=0x0:0x70f3a9182196c949,
mall,Kantor Pemerintah,Mall Pelayanan Publik,"R9RF+76W, Tj. Selor Hilir, Kec. Tj. Selor, Kabupaten Bulungan, Kalimantan Utara 77216","Tj. Selor Hilir, Kec. Tj. Selor, Kabupaten Bulungan",KALIMANTAN UTARA,77216.0,Indonesia,,,,2.8407074,117.3730717,https://maps.google.com/?cid=0x0:0x73df0b16adce10a8,
mall,Restoran,Warung Makan Mba Tun,"R8JR+M23, Gn. Putih/Kr. Jenawi, Kec. Tj. Palas, Kabupaten Bulungan, Kalimantan Utara 77211","Gn. Putih/Kr. Jenawi, Kec. Tj. Palas, Kabupaten Bulungan",KALIMANTAN UTARA,77211.0,Indonesia, 082254266137,,,2.8316302,117.3400513,https://maps.google.com/?cid=0x0:0x23d929fa700377a8,
mall,Toko Pakaian Anak,Mall Baby Tanjung Selor,"Jl. Sengkawit, Tj. Selor Hilir, Kec. Tj. Selor, Kabupaten Bulungan, Kalimantan Utara 77216","Tj. Selor Hilir, Kec. Tj. Selor, Kabupaten Bulungan",KALIMANTAN UTARA,77216.0,Indonesia, 081257220004,,,2.8543202,117.3702519,https://maps.google.com/?cid=0x0:0xde36b229e150e202,
mall,Pusat Perbelanjaan,PUJASERA pasar Induk,"V93F+Q2X, Tj. Selor Hilir, Kec. Tj. Selor, Kabupaten Bulungan, Kalimantan Utara 77216","Tj. Selor Hilir, Kec. Tj. Selor, Kabupaten Bulungan",KALIMANTAN UTARA,77216.0,Indonesia,,,,2.8544999,117.3725944,https://maps.google.com/?cid=0x0:0x72dffc4bb359bf4c,
mall,Produsen makanan,Pusat Produksi Tempe,"R8JR+QRP, Gn. Putih/Kr. Jenawi, Kec. Tj. Palas, Kabupaten Bulungan, Kalimantan Utara 77216","Gn. Putih/Kr. Jenawi, Kec. Tj. Palas, Kabupaten Bulungan",KALIMANTAN UTARA,77216.0,Indonesia,,,,2.8319608,117.3420762,https://maps.google.com/?cid=0x0:0x4176eeffeaf12aca,
mall,Toko Perlengkapan Rumah,Tk Sumber Makmur,"R9Q6+VM5, Tj. Palas Tengah, Kec. Tj. Palas, Kabupaten Bulungan, Kalimantan Utara 77214","Tj. Palas Tengah, Kec. Tj. Palas, Kabupaten Bulungan",KALIMANTAN UTARA,77214.0,Indonesia,,,,2.8396377,117.3617323,https://maps.google.com/?cid=0x0:0xa0cfdd01f0876542,
mall,Toko Perlengkapan Rumah,Bulungan Jaya,"R9X6+PX5, Jl. Katamso, Kabupaten Bulungan, Kalimantan Utara 77214","Jl. Katamso, Kabupaten Bulungan",KALIMANTAN UTARA,77214.0,Indonesia,,,,2.8492715,117.3624714,https://maps.google.com/?cid=0x0:0x838039c6f26f0027,
mall,Toko Alat Tulis Kantor,A-Z-S Fotocopy  ATK Tg.Palas Hilir,"Tg.Palas hilir, Pinggir Sungai, Tj. Palas Hilir, Kec. Tj. Palas, Kabupaten Bulungan, Kalimantan Utara 77214","Pinggir Sungai, Tj. Palas Hilir, Kec. Tj. Palas, Kabupaten Bulungan",KALIMANTAN UTARA,77214.0,Indonesia, 085347027076,,,2.8388109,117.3557389,https://maps.google.com/?cid=0x0:0xb34a0e59f5058806,
mall,Pusat Perbelanjaan,Ikani,"R9P8+R43, Jl. Skip I, Tj. Selor Hulu, Kec. Tj. Selor, Kabupaten Bulungan, Kalimantan Utara 77214","Jl. Skip I, Tj. Selor Hulu, Kec. Tj. Selor, Kabupaten Bulungan",KALIMANTAN UTARA,77214.0,Indonesia, 055221939,,,2.8370158,117.3653091,https://maps.google.com/?cid=0x0:0xf869160fe2cf8d66,
mall,Toko umum,Berkah Madinah store,"26J9+VW4, Jl. Ahmad Yani, Karang Agung, Kec. Tj. Palas Utara, Kabupaten Bulungan, Kalimantan Utara 77215","Jl. Ahmad Yani, Karang Agung, Kec. Tj. Palas Utara, Kabupaten Bulungan",KALIMANTAN UTARA,77215.0,Indonesia, 082221108885,,,3.032133,117.219843,https://maps.google.com/?cid=0x0:0xa53b5e18fb9a8ca1,
mall,Pusat Perbelanjaan,Unka,"Jl. H. Tamrin, Tj. Selor Hilir, Kec. Tj. Selor, Kabupaten Bulungan, Kalimantan Utara 77212","Tj. Selor Hilir, Kec. Tj. Selor, Kabupaten Bulungan",KALIMANTAN UTARA,77212.0,Indonesia,,,,2.8597958,117.374669,https://maps.google.com/?cid=0x0:0xf95d868a2c16b4a5,
mall,Pusat Perbelanjaan,Jambu merah Pak Seger,"W964+59C SP 5, Tj. Buka, Kec. Tj. Palas Tengah, Kabupaten Bulungan, Kalimantan Utara 77211","Tj. Buka, Kec. Tj. Palas Tengah, Kabupaten Bulungan",KALIMANTAN UTARA,77211.0,Indonesia, 085231021529,,,2.9104396,117.3558766,https://maps.google.com/?cid=0x0:0x4f246289f101335b,
mall,Toko Bunga,Papan Bunga Bulungan,"Jl. Soedirman No.28, Tj. Selor Hilir, Kec. Tj. Selor, Kabupaten Bulungan, Kalimantan Utara 77214","Tj. Selor Hilir, Kec. Tj. Selor, Kabupaten Bulungan",KALIMANTAN UTARA,77214.0,Indonesia, 087784554227,,,2.8412683,117.3616332,https://maps.google.com/?cid=0x0:0x18b502051dc07e2a,
mall,Toko bahan makanan,KAJINAM SUNGAI KULI,"R8WV+W5W, Unnamed Road, Gunung Putih/Kr. Jenawi, Tanjung Palas, Bulungan Regency, North Kalimantan 77216","Unnamed Road, Gunung Putih/Kr. Jenawi, Tanjung Palas, Bulungan Regency",KALIMANTAN UTARA,77216.0,Indonesia,,,,2.8473601,117.3429592,https://maps.google.com/?cid=0x0:0xb9b3fae0a7157e10,
mall,Kantor Perusahaan,Hidroponik Aquaponik Bulungan,"R8XW+8VR, Jalan Poros, Salim Batu, Kec. Tj. Palas, Kabupaten Bulungan, Kalimantan Utara 77216","Jalan Poros, Salim Batu, Kec. Tj. Palas, Kabupaten Bulungan",KALIMANTAN UTARA,77216.0,Indonesia, 081350455747,,,2.8483627,117.3471327,https://maps.google.com/?cid=0x0:0xd7b386d3c71c825,
mall,Pusat Perbelanjaan,KIOS PELANGI pejalin,"jl. abubakar No.rt. 007, Pejalin, Kec. Tj. Palas, Kabupaten Bulungan, Kalimantan Utara 77211","Pejalin, Kec. Tj. Palas, Kabupaten Bulungan",KALIMANTAN UTARA,77211.0,Indonesia, 081354381050,,,2.8150099,117.3191169,https://maps.google.com/?cid=0x0:0xe210383b44322e2b,
mall,Pusat Perbelanjaan,Photo copy,"W8RV+FJ6, Silva Rahayu, Kec. Tj. Palas Tengah, Kabupaten Bulungan, Kalimantan Utara 77216","Silva Rahayu, Kec. Tj. Palas Tengah, Kabupaten Bulungan",KALIMANTAN UTARA,77216.0,Indonesia, 082255281595,,,2.9411622,117.3440155,https://maps.google.com/?cid=0x0:0xdd36df45bcf46968,
mall,mall,Kalimantan Utara 77216,"Kec. Tj. Palas Tengah, Kabupaten Bulungan, Kalimantan Utara","Kabupaten Bulungan, Kalimantan Utara",KALIMANTAN UTARA,,Indonesia,,,,2.9980617,117.5026174,https://maps.google.com/?cid=0x0:0x79c11fd9905607e6,
mall,Pusat Perbelanjaan,Pasar Induk Tanjung Selor,"V93F+VHJ, Tj. Selor Hilir, Kec. Tj. Selor, Kabupaten Bulungan, Kalimantan Utara 77216","Tj. Selor Hilir, Kec. Tj. Selor, Kabupaten Bulungan",KALIMANTAN UTARA,77216.0,Indonesia,,,,2.8547102,117.3739018,https://maps.google.com/?cid=0x0:0xf4c7a30b41976d25,
mall,Toko bahan makanan,LuLucu,"R9P4+6JJ, Tj. Palas Tengah, Kec. Tj. Palas, Kabupaten Bulungan, Kalimantan Utara 77214","Tj. Palas Tengah, Kec. Tj. Palas, Kabupaten Bulungan",KALIMANTAN UTARA,77214.0,Indonesia, 082251517977,,,2.8355855,117.3565035,https://maps.google.com/?cid=0x0:0xc514b927b142818c,
mall,Pusat Perbelanjaan,PUJASERA pasar Induk,"V93F+Q2X, Tj. Selor Hilir, Kec. Tj. Selor, Kabupaten Bulungan, Kalimantan Utara 77216","Tj. Selor Hilir, Kec. Tj. Selor, Kabupaten Bulungan",KALIMANTAN UTARA,77216.0,Indonesia,,,,2.8544999,117.3725944,https://maps.google.com/?cid=0x0:0x72dffc4bb359bf4c,
mall,Pusat Perbelanjaan,Pasar SP.2 Desa Tanjung Buka,"WF4G+6QP, Tj. Buka, Kec. Tj. Selor, Kabupaten Bulungan, Kalimantan Utara 77212","Tj. Buka, Kec. Tj. Selor, Kabupaten Bulungan",KALIMANTAN UTARA,77212.0,Indonesia,,,,2.90559,117.4769511,https://maps.google.com/?cid=0x0:0x81da5906956ae91c,
mall,Toko Perlengkapan Rumah,Suci Seserahan tanjung palas / selor,"R9J5+C6P, Jl. Kasimuddin, Tj. Palas Tengah, Kec. Tj. Palas, Kabupaten Bulungan, Kalimantan Utara 77216","Jl. Kasimuddin, Tj. Palas Tengah, Kec. Tj. Palas, Kabupaten Bulungan",KALIMANTAN UTARA,77216.0,Indonesia, 081258151617,,,2.831098,117.3580898,https://maps.google.com/?cid=0x0:0x11791a155275df45,
mall,Produsen makanan,Pusat Produksi Tempe,"R8JR+QRP, Gn. Putih/Kr. Jenawi, Kec. Tj. Palas, Kabupaten Bulungan, Kalimantan Utara 77216","Gn. Putih/Kr. Jenawi, Kec. Tj. Palas, Kabupaten Bulungan",KALIMANTAN UTARA,77216.0,Indonesia,,,,2.8319608,117.3420762,https://maps.google.com/?cid=0x0:0x4176eeffeaf12aca,
mall,Toko,Kios/ Toko Simpang Tiga,"R9P4+7PR, Tj. Palas Tengah, Kec. Tj. Palas, Kabupaten Bulungan, Kalimantan Utara 77214","Tj. Palas Tengah, Kec. Tj. Palas, Kabupaten Bulungan",KALIMANTAN UTARA,77214.0,Indonesia,,,,2.8357359,117.3567624,https://maps.google.com/?cid=0x0:0x10377a4c167855a2,
mall,Pusat Perbelanjaan,Gedung Ratu Plaza,"R9XC+JM3, Jl. Durian, Tj. Selor Hilir, Kec. Tj. Selor, Kabupaten Bulungan, Kalimantan Utara 77216","Jl. Durian, Tj. Selor Hilir, Kec. Tj. Selor, Kabupaten Bulungan",KALIMANTAN UTARA,77216.0,Indonesia, 085236562711,,,2.8490173,117.3716838,https://maps.google.com/?cid=0x0:0x2af74c878a0bca00,
mall,Toko Pakaian Anak,Mall Baby Tanjung Selor,"Jl. Sengkawit, Tj. Selor Hilir, Kec. Tj. Selor, Kabupaten Bulungan, Kalimantan Utara 77216","Tj. Selor Hilir, Kec. Tj. Selor, Kabupaten Bulungan",KALIMANTAN UTARA,77216.0,Indonesia, 081257220004,,,2.8543202,117.3702519,https://maps.google.com/?cid=0x0:0xde36b229e150e202,
mall,Pusat Perbelanjaan,Jambu merah Pak Seger,"W964+59C SP 5, Tj. Buka, Kec. Tj. Palas Tengah, Kabupaten Bulungan, Kalimantan Utara 77211","Tj. Buka, Kec. Tj. Palas Tengah, Kabupaten Bulungan",KALIMANTAN UTARA,77211.0,Indonesia, 085231021529,,,2.9104396,117.3558766,https://maps.google.com/?cid=0x0:0x4f246289f101335b,
mall,Toko Perlengkapan Rumah,Tk Sumber Makmur,"R9Q6+VM5, Tj. Palas Tengah, Kec. Tj. Palas, Kabupaten Bulungan, Kalimantan Utara 77214","Tj. Palas Tengah, Kec. Tj. Palas, Kabupaten Bulungan",KALIMANTAN UTARA,77214.0,Indonesia,,,,2.8396377,117.3617323,https://maps.google.com/?cid=0x0:0xa0cfdd01f0876542,
mall,Restoran,Warung Makan Mba Tun,"R8JR+M23, Gn. Putih/Kr. Jenawi, Kec. Tj. Palas, Kabupaten Bulungan, Kalimantan Utara 77211","Gn. Putih/Kr. Jenawi, Kec. Tj. Palas, Kabupaten Bulungan",KALIMANTAN UTARA,77211.0,Indonesia, 082254266137,,,2.8316302,117.3400513,https://maps.google.com/?cid=0x0:0x23d929fa700377a8,
mall,Pusat Perbelanjaan,Photo copy,"W8RV+FJ6, Silva Rahayu, Kec. Tj. Palas Tengah, Kabupaten Bulungan, Kalimantan Utara 77216","Silva Rahayu, Kec. Tj. Palas Tengah, Kabupaten Bulungan",KALIMANTAN UTARA,77216.0,Indonesia, 082255281595,,,2.9411622,117.3440155,https://maps.google.com/?cid=0x0:0xdd36df45bcf46968,
mall,Toko bahan makanan,KAJINAM SUNGAI KULI,"R8WV+W5W, Unnamed Road, Gunung Putih/Kr. Jenawi, Tanjung Palas, Bulungan Regency, North Kalimantan 77216","Unnamed Road, Gunung Putih/Kr. Jenawi, Tanjung Palas, Bulungan Regency",KALIMANTAN UTARA,77216.0,Indonesia,,,,2.8473601,117.3429592,https://maps.google.com/?cid=0x0:0xb9b3fae0a7157e10,
mall,Toko Perlengkapan Rumah,Bulungan Jaya,"R9X6+PX5, Jl. Katamso, Kabupaten Bulungan, Kalimantan Utara 77214","Jl. Katamso, Kabupaten Bulungan",KALIMANTAN UTARA,77214.0,Indonesia,,,,2.8492715,117.3624714,https://maps.google.com/?cid=0x0:0x838039c6f26f0027,
mall,Pusat Perbelanjaan,Central Walet Tanjung Selor Bulungan,"V939+4J8, Jl. Benuang, Tj. Selor Hilir, Kec. Tj. Selor, Kabupaten Bulungan, Kalimantan Utara 77216","Jl. Benuang, Tj. Selor Hilir, Kec. Tj. Selor, Kabupaten Bulungan",KALIMANTAN UTARA,77216.0,Indonesia, 082157102040,,,2.8527772,117.3690689,https://maps.google.com/?cid=0x0:0x7753048ec1233eeb,
mall,Kantor Perusahaan,Hidroponik Aquaponik Bulungan,"R8XW+8VR, Jalan Poros, Salim Batu, Kec. Tj. Palas, Kabupaten Bulungan, Kalimantan Utara 77216","Jalan Poros, Salim Batu, Kec. Tj. Palas, Kabupaten Bulungan",KALIMANTAN UTARA,77216.0,Indonesia, 081350455747,,,2.8483627,117.3471327,https://maps.google.com/?cid=0x0:0xd7b386d3c71c825,
mall,Toko Alat Tulis Kantor,A-Z-S Fotocopy  ATK Tg.Palas Hilir,"Tg.Palas hilir, Pinggir Sungai, Tj. Palas Hilir, Kec. Tj. Palas, Kabupaten Bulungan, Kalimantan Utara 77214","Pinggir Sungai, Tj. Palas Hilir, Kec. Tj. Palas, Kabupaten Bulungan",KALIMANTAN UTARA,77214.0,Indonesia, 085347027076,,,2.8388109,117.3557389,https://maps.google.com/?cid=0x0:0xb34a0e59f5058806,
mall,Pusat Perbelanjaan,Nq tanjung selor,"R9WF+WJP, Jl. Durian, Tj. Selor Hilir, Kec. Tj. Selor, Kabupaten Bulungan, Kalimantan Utara 77216","Jl. Durian, Tj. Selor Hilir, Kec. Tj. Selor, Kabupaten Bulungan",KALIMANTAN UTARA,77216.0,Indonesia, 085245735789,,,2.8473349,117.3740886,https://maps.google.com/?cid=0x0:0x6ec2075cef965561,
mall,Pusat Perbelanjaan,Toko Mu,"Tanjung buka sp 5a no 191, Salim Batu, Kec. Tj. Palas Tengah, Kabupaten Bulungan, Kalimantan Utara 77216","Salim Batu, Kec. Tj. Palas Tengah, Kabupaten Bulungan",KALIMANTAN UTARA,77216.0,Indonesia, 085290003005,,,2.8689551,117.6220875,https://maps.google.com/?cid=0x0:0xa7749122b63bb2a,
mall,mall,Kalimantan Timur 77217,"Kabupaten Bulungan, Kalimantan Timur","Kabupaten Bulungan, Kalimantan Timur",KALIMANTAN UTARA,,Indonesia,,,,2.719535,117.2205771,https://maps.google.com/?cid=0x0:0x639273c2b96cd605,
mall,Toko,PANEN SQUARE,"V93G+2CW, Tj. Selor Hilir, Kec. Tj. Selor, Kabupaten Bulungan, Kalimantan Utara 77216","Tj. Selor Hilir, Kec. Tj. Selor, Kabupaten Bulungan",KALIMANTAN UTARA,77216.0,Indonesia, 081255187770,,,2.8525916,117.3760836,https://maps.google.com/?cid=0x0:0x70f3a9182196c949,
mall,Pusat Perbelanjaan,Pasar Induk Tanjung Selor,"V93F+VHJ, Tj. Selor Hilir, Kec. Tj. Selor, Kabupaten Bulungan, Kalimantan Utara 77216","Tj. Selor Hilir, Kec. Tj. Selor, Kabupaten Bulungan",KALIMANTAN UTARA,77216.0,Indonesia,,,,2.8547102,117.3739018,https://maps.google.com/?cid=0x0:0xf4c7a30b41976d25,
mall,Pasar,TOKO BUKIT JAYA,"PG98+4CM, Tj. Agung, Kec. Tj. Palas Tim., Kabupaten Bulungan, Kalimantan Utara 77215","Tj. Agung, Kec. Tj. Palas Tim., Kabupaten Bulungan",KALIMANTAN UTARA,77215.0,Indonesia,,,,2.7178409,117.5160363,https://maps.google.com/?cid=0x0:0x2e5950485a17495b,
mall,Pusat Perbelanjaan,KIOS PELANGI pejalin,"jl. abubakar No.rt. 007, Pejalin, Kec. Tj. Palas, Kabupaten Bulungan, Kalimantan Utara 77211","Pejalin, Kec. Tj. Palas, Kabupaten Bulungan",KALIMANTAN UTARA,77211.0,Indonesia, 081354381050,,,2.8150099,117.3191169,https://maps.google.com/?cid=0x0:0xe210383b44322e2b,
mall,Kedai Kopi,Warung Pak Pagi,"PG7M+7J4, Wono Mulyo, Kec. Tj. Palas Tim., Kabupaten Bulungan, Kalimantan Utara 77215","Wono Mulyo, Kec. Tj. Palas Tim., Kabupaten Bulungan",KALIMANTAN UTARA,77215.0,Indonesia, 082353498869,,,2.713145,117.5340872,https://maps.google.com/?cid=0x0:0xc5468b9836093f1,
mall,Tempat Cukur Rambut,Sitampan Barbershop,"QCMW+HWM, Bumi Rahayu, Kec. Tj. Selor, Kabupaten Bulungan, Kalimantan Utara 77212","Bumi Rahayu, Kec. Tj. Selor, Kabupaten Bulungan",KALIMANTAN UTARA,77212.0,Indonesia, 081342242800,,,2.7839716,117.4472909,https://maps.google.com/?cid=0x0:0xfccfa898433f2b35,
mall,Pusat Perbelanjaan,Muqadim mart,"QCJX+PW3, Jl. Poros Tj. Selor - Tanah Kuning, Bumi Rahayu, Kec. Tj. Selor, Kabupaten Bulungan, Kalimantan Utara 77212","Jl. Poros Tj. Selor - Tanah Kuning, Bumi Rahayu, Kec. Tj. Selor, Kabupaten Bulungan",KALIMANTAN UTARA,77212.0,Indonesia,,,,2.7817631,117.4498082,https://maps.google.com/?cid=0x0:0xe504d5920cabfa32,
mall,Toko bahan makanan,kios sita,"PG6R+J6F, Wono Mulyo, Kec. Tj. Palas Tim., Kabupaten Bulungan, Kalimantan Utara 77215","Wono Mulyo, Kec. Tj. Palas Tim., Kabupaten Bulungan",KALIMANTAN UTARA,77215.0,Indonesia, 082148161477,,,2.7115559,117.540542,https://maps.google.com/?cid=0x0:0x23d912d3bc08f5a1,
mall,Toko bahan makanan,Tokoh murah indah,"PG4W+V8, Wono Mulyo, Kec. Tj. Palas Tim., Kabupaten Bulungan, Kalimantan Utara","Kabupaten Bulungan, Kalimantan Utara",KALIMANTAN UTARA,,Indonesia,,,,2.7072262,117.5458296,https://maps.google.com/?cid=0x0:0xdc34ca7af17f0721,
mall,Toko Swalayan,Toko Flores Indah,"RC23+Q8H, Jl. Poros Bulungan - Malinau, Gn. Seriang, Kec. Tj. Selor, Kabupaten Bulungan, Kalimantan Utara 77215","Jl. Poros Bulungan - Malinau, Gn. Seriang, Kec. Tj. Selor, Kabupaten Bulungan",KALIMANTAN UTARA,77215.0,Indonesia,,,,2.8019412,117.4033491,https://maps.google.com/?cid=0x0:0xa11bc34efc1d86e7,
mall,Pusat Perbelanjaan,Pentacity Mall,"Pentacity Mall Balikpapan, Jl. Jenderal Sudirman No.47, Gunung Bahagia, Balikpapan Selatan, Balikpapan City, East Kalimantan 76114","Jl. Jenderal Sudirman No.47, Gunung Bahagia, Balikpapan Selatan, Balikpapan City",KALIMANTAN UTARA,76114.0,Indonesia, 08115900858,,,-1.2741692,116.8570296,https://maps.google.com/?cid=0x0:0x7e23f599c88ae15a,
mall,Pusat Perbelanjaan,Penjualan Bunga Kilo Meter 2.,"RC34+95R, Jelarai Selor, Kec. Tj. Selor, Kabupaten Bulungan, Kalimantan Utara 77215","Jelarai Selor, Kec. Tj. Selor, Kabupaten Bulungan",KALIMANTAN UTARA,77215.0,Indonesia, 081350582129,,,2.8034977,117.4053983,https://maps.google.com/?cid=0x0:0xe9b1d1e0b39d89f7,
mall,Bengkel Mobil,Bima ban,"RC33+9CV, Jl. Ahmad Yani, Jelarai Selor, Kec. Tj. Selor, Kabupaten Bulungan, Kalimantan Utara 77215","Jl. Ahmad Yani, Jelarai Selor, Kec. Tj. Selor, Kabupaten Bulungan",KALIMANTAN UTARA,77215.0,Indonesia, 082332539051,,,2.8034759,117.4035417,https://maps.google.com/?cid=0x0:0x34ed2152527fb05f,
mall,Pusat Perbelanjaan,Tarakan Mall,"8H5M+G73, Jl. Yos Sudarso No.1 Lantai 4, Karang Rejo, Kec. Tarakan Bar., Kota Tarakan, Kalimantan Utara","Kota Tarakan, Kalimantan Utara",KALIMANTAN UTARA,,Indonesia,,,,3.308837,117.5831623,https://maps.google.com/?cid=0x0:0x1eeb4f8ef877ebd6,
mall,Pusat Perbelanjaan,Soni wijaya Ban,"RC44+GH7, Jl. Jelarai Raya, Jelarai Selor, Kec. Tj. Selor, Kabupaten Bulungan, Kalimantan Utara 77215","Jl. Jelarai Raya, Jelarai Selor, Kec. Tj. Selor, Kabupaten Bulungan",KALIMANTAN UTARA,77215.0,Indonesia, 082148167038,,,2.8062767,117.4064333,https://maps.google.com/?cid=0x0:0x21c48f12fbc4496,
mall,mall,lisa1,"V93C+78R, Tj. Palas Tengah, Kec. Tj. Palas, Kabupaten Bulungan, Kalimantan Utara","Kabupaten Bulungan, Kalimantan Utara",KALIMANTAN UTARA,,Indonesia,,,,2.853228,117.3707578,https://maps.google.com/?cid=0x0:0xdd029815eb2d7e44,
mall,mall,Toko Valerie,"R8MR+7HH, Jl. Diponegoro, Gn. Putih/Kr. Jenawi, Kec. Tj. Palas, Kabupaten Bulungan, Kalimantan Utara 77216","Jl. Diponegoro, Gn. Putih/Kr. Jenawi, Kec. Tj. Palas, Kabupaten Bulungan",KALIMANTAN UTARA,77216.0,Indonesia,,,,2.833193,117.341483,https://maps.google.com/?cid=0x0:0xefc9d75a9c1c9cc2,
mall,Kantor Perusahaan,Desa Long Beluah,"P4J9+RM, Long Beluah, Kec. Tj. Palas Bar., Kabupaten Bulungan, Kalimantan Utara","Kabupaten Bulungan, Kalimantan Utara",KALIMANTAN UTARA,,Indonesia,,,,2.7320221,117.1191378,https://maps.google.com/?cid=0x0:0x430e69319e6af02c,
mall,Kantor Perusahaan,Desa teras baru,"V8CH+7PW, Teras Baru, Kec. Tj. Palas, Kabupaten Bulungan, Kalimantan Utara 77211","Teras Baru, Kec. Tj. Palas, Kabupaten Bulungan",KALIMANTAN UTARA,77211.0,Indonesia,,,,2.8707479,117.3293277,https://maps.google.com/?cid=0x0:0xb44b6c272004a450,
mall,Pusat Perbelanjaan,Toko Mu,"Tanjung buka sp 5a no 191, Salim Batu, Kec. Tj. Palas Tengah, Kabupaten Bulungan, Kalimantan Utara 77216","Salim Batu, Kec. Tj. Palas Tengah, Kabupaten Bulungan",KALIMANTAN UTARA,77216.0,Indonesia, 085290003005,,,2.8689551,117.6220875,https://maps.google.com/?cid=0x0:0xa7749122b63bb2a,
mall,Sekolah Dasar,SD Negeri 007 Tanjung Palas,"R9G5+333, Tj. Palas Hulu, Kec. Tj. Palas, Kabupaten Bulungan, Kalimantan Utara 77211","Tj. Palas Hulu, Kec. Tj. Palas, Kabupaten Bulungan",KALIMANTAN UTARA,77211.0,Indonesia,,,,2.8251482,117.3576608,https://maps.google.com/?cid=0x0:0xf73801c946ed3f5f,
mall,Kantor Pemerintahan Daerah,Kelurahan Tanjung Palas,"R8PW+WW8, Unnamed Road, Karang Anyar, Kec. Tj. Palas, Kabupaten Bulungan, Kalimantan Utara 77216","Unnamed Road, Karang Anyar, Kec. Tj. Palas, Kabupaten Bulungan",KALIMANTAN UTARA,77216.0,Indonesia,,,,2.8372766,117.3473346,https://maps.google.com/?cid=0x0:0xa0500d4200ffad24,
mall,Kantor Perusahaan,YAYASAN MULYA BULUNGAN,"VFQ7+CQ, Tj. Buka, Kec. Tj. Palas Tengah, Kabupaten Bulungan, Kalimantan Utara","Kabupaten Bulungan, Kalimantan Utara",KALIMANTAN UTARA,,Indonesia, 085279679100,,,2.8885514,117.4644232,https://maps.google.com/?cid=0x0:0x9acb5e01cd06d69,
mall,Toko Perlengkapan Rumah,Bulungan Jaya,"R9X6+PX5, Jl. Katamso, Kabupaten Bulungan, Kalimantan Utara 77214","Jl. Katamso, Kabupaten Bulungan",KALIMANTAN UTARA,77214.0,Indonesia,,,,2.8492715,117.3624714,https://maps.google.com/?cid=0x0:0x838039c6f26f0027,
mall,Pujasera,Kuliner Tepi Kayan (Kulteka),"V957+7C7, Kabupaten Bulungan, Kalimantan Utara 77216",Kabupaten Bulungan,KALIMANTAN UTARA,77216.0,Indonesia,,,,2.8581735,117.3635602,https://maps.google.com/?cid=0x0:0x2957902ec6d4a097,
mall,mall,Kalimantan Utara 77216,"Kec. Tj. Palas Tengah, Kabupaten Bulungan, Kalimantan Utara","Kabupaten Bulungan, Kalimantan Utara",KALIMANTAN UTARA,,Indonesia,,,,2.9980617,117.5026174,https://maps.google.com/?cid=0x0:0x79c11fd9905607e6,
mall,Pusat Perbelanjaan,Pasar Induk Tanjung Selor,"V93F+VHJ, Tj. Selor Hilir, Kec. Tj. Selor, Kabupaten Bulungan, Kalimantan Utara 77216","Tj. Selor Hilir, Kec. Tj. Selor, Kabupaten Bulungan",KALIMANTAN UTARA,77216.0,Indonesia,,,,2.8547102,117.3739018,https://maps.google.com/?cid=0x0:0xf4c7a30b41976d25,
mall,Toko bahan makanan,LuLucu,"R9P4+6JJ, Tj. Palas Tengah, Kec. Tj. Palas, Kabupaten Bulungan, Kalimantan Utara 77214","Tj. Palas Tengah, Kec. Tj. Palas, Kabupaten Bulungan",KALIMANTAN UTARA,77214.0,Indonesia, 082251517977,,,2.8355855,117.3565035,https://maps.google.com/?cid=0x0:0xc514b927b142818c,
mall,Pusat Perbelanjaan,Pasar SP.2 Desa Tanjung Buka,"WF4G+6QP, Tj. Buka, Kec. Tj. Selor, Kabupaten Bulungan, Kalimantan Utara 77212","Tj. Buka, Kec. Tj. Selor, Kabupaten Bulungan",KALIMANTAN UTARA,77212.0,Indonesia,,,,2.90559,117.4769511,https://maps.google.com/?cid=0x0:0x81da5906956ae91c,
mall,Produsen makanan,Pusat Produksi Tempe,"R8JR+QRP, Gn. Putih/Kr. Jenawi, Kec. Tj. Palas, Kabupaten Bulungan, Kalimantan Utara 77216","Gn. Putih/Kr. Jenawi, Kec. Tj. Palas, Kabupaten Bulungan",KALIMANTAN UTARA,77216.0,Indonesia,,,,2.8319608,117.3420762,https://maps.google.com/?cid=0x0:0x4176eeffeaf12aca,
mall,Pusat Perbelanjaan,PUJASERA pasar Induk,"V93F+Q2X, Tj. Selor Hilir, Kec. Tj. Selor, Kabupaten Bulungan, Kalimantan Utara 77216","Tj. Selor Hilir, Kec. Tj. Selor, Kabupaten Bulungan",KALIMANTAN UTARA,77216.0,Indonesia,,,,2.8544999,117.3725944,https://maps.google.com/?cid=0x0:0x72dffc4bb359bf4c,
mall,Toko,Kios/ Toko Simpang Tiga,"R9P4+7PR, Tj. Palas Tengah, Kec. Tj. Palas, Kabupaten Bulungan, Kalimantan Utara 77214","Tj. Palas Tengah, Kec. Tj. Palas, Kabupaten Bulungan",KALIMANTAN UTARA,77214.0,Indonesia,,,,2.8357359,117.3567624,https://maps.google.com/?cid=0x0:0x10377a4c167855a2,
mall,Toko Perlengkapan Rumah,Suci Seserahan tanjung palas / selor,"R9J5+C6P, Jl. Kasimuddin, Tj. Palas Tengah, Kec. Tj. Palas, Kabupaten Bulungan, Kalimantan Utara 77216","Jl. Kasimuddin, Tj. Palas Tengah, Kec. Tj. Palas, Kabupaten Bulungan",KALIMANTAN UTARA,77216.0,Indonesia, 081258151617,,,2.831098,117.3580898,https://maps.google.com/?cid=0x0:0x11791a155275df45,
mall,Pusat Perbelanjaan,Jambu merah Pak Seger,"W964+59C SP 5, Tj. Buka, Kec. Tj. Palas Tengah, Kabupaten Bulungan, Kalimantan Utara 77211","Tj. Buka, Kec. Tj. Palas Tengah, Kabupaten Bulungan",KALIMANTAN UTARA,77211.0,Indonesia, 085231021529,,,2.9104396,117.3558766,https://maps.google.com/?cid=0x0:0x4f246289f101335b,
mall,Toko Perlengkapan Rumah,Tk Sumber Makmur,"R9Q6+VM5, Tj. Palas Tengah, Kec. Tj. Palas, Kabupaten Bulungan, Kalimantan Utara 77214","Tj. Palas Tengah, Kec. Tj. Palas, Kabupaten Bulungan",KALIMANTAN UTARA,77214.0,Indonesia,,,,2.8396377,117.3617323,https://maps.google.com/?cid=0x0:0xa0cfdd01f0876542,
mall,Pusat Perbelanjaan,Photo copy,"W8RV+FJ6, Silva Rahayu, Kec. Tj. Palas Tengah, Kabupaten Bulungan, Kalimantan Utara 77216","Silva Rahayu, Kec. Tj. Palas Tengah, Kabupaten Bulungan",KALIMANTAN UTARA,77216.0,Indonesia, 082255281595,,,2.9411622,117.3440155,https://maps.google.com/?cid=0x0:0xdd36df45bcf46968,
mall,Pusat Perbelanjaan,Gedung Ratu Plaza,"R9XC+JM3, Jl. Durian, Tj. Selor Hilir, Kec. Tj. Selor, Kabupaten Bulungan, Kalimantan Utara 77216","Jl. Durian, Tj. Selor Hilir, Kec. Tj. Selor, Kabupaten Bulungan",KALIMANTAN UTARA,77216.0,Indonesia, 085236562711,,,2.8490173,117.3716838,https://maps.google.com/?cid=0x0:0x2af74c878a0bca00,
mall,Restoran,Warung Makan Mba Tun,"R8JR+M23, Gn. Putih/Kr. Jenawi, Kec. Tj. Palas, Kabupaten Bulungan, Kalimantan Utara 77211","Gn. Putih/Kr. Jenawi, Kec. Tj. Palas, Kabupaten Bulungan",KALIMANTAN UTARA,77211.0,Indonesia, 082254266137,,,2.8316302,117.3400513,https://maps.google.com/?cid=0x0:0x23d929fa700377a8,
mall,Toko bahan makanan,KAJINAM SUNGAI KULI,"R8WV+W5W, Unnamed Road, Gunung Putih/Kr. Jenawi, Tanjung Palas, Bulungan Regency, North Kalimantan 77216","Unnamed Road, Gunung Putih/Kr. Jenawi, Tanjung Palas, Bulungan Regency",KALIMANTAN UTARA,77216.0,Indonesia,,,,2.8473601,117.3429592,https://maps.google.com/?cid=0x0:0xb9b3fae0a7157e10,
mall,Toko Pakaian Anak,Mall Baby Tanjung Selor,"Jl. Sengkawit, Tj. Selor Hilir, Kec. Tj. Selor, Kabupaten Bulungan, Kalimantan Utara 77216","Tj. Selor Hilir, Kec. Tj. Selor, Kabupaten Bulungan",KALIMANTAN UTARA,77216.0,Indonesia, 081257220004,,,2.8543202,117.3702519,https://maps.google.com/?cid=0x0:0xde36b229e150e202,
mall,Pusat Perbelanjaan,Nq tanjung selor,"R9WF+WJP, Jl. Durian, Tj. Selor Hilir, Kec. Tj. Selor, Kabupaten Bulungan, Kalimantan Utara 77216","Jl. Durian, Tj. Selor Hilir, Kec. Tj. Selor, Kabupaten Bulungan",KALIMANTAN UTARA,77216.0,Indonesia, 085245735789,,,2.8473349,117.3740886,https://maps.google.com/?cid=0x0:0x6ec2075cef965561,
mall,Pusat Perbelanjaan,Central Walet Tanjung Selor Bulungan,"V939+4J8, Jl. Benuang, Tj. Selor Hilir, Kec. Tj. Selor, Kabupaten Bulungan, Kalimantan Utara 77216","Jl. Benuang, Tj. Selor Hilir, Kec. Tj. Selor, Kabupaten Bulungan",KALIMANTAN UTARA,77216.0,Indonesia, 082157102040,,,2.8527772,117.3690689,https://maps.google.com/?cid=0x0:0x7753048ec1233eeb,
mall,Kantor Perusahaan,Hidroponik Aquaponik Bulungan,"R8XW+8VR, Jalan Poros, Salim Batu, Kec. Tj. Palas, Kabupaten Bulungan, Kalimantan Utara 77216","Jalan Poros, Salim Batu, Kec. Tj. Palas, Kabupaten Bulungan",KALIMANTAN UTARA,77216.0,Indonesia, 081350455747,,,2.8483627,117.3471327,https://maps.google.com/?cid=0x0:0xd7b386d3c71c825,
mall,Pusat Perbelanjaan,Toko Mu,"Tanjung buka sp 5a no 191, Salim Batu, Kec. Tj. Palas Tengah, Kabupaten Bulungan, Kalimantan Utara 77216","Salim Batu, Kec. Tj. Palas Tengah, Kabupaten Bulungan",KALIMANTAN UTARA,77216.0,Indonesia, 085290003005,,,2.8689551,117.6220875,https://maps.google.com/?cid=0x0:0xa7749122b63bb2a,
mall,Toko Perlengkapan Rumah,Bulungan Jaya,"R9X6+PX5, Jl. Katamso, Kabupaten Bulungan, Kalimantan Utara 77214","Jl. Katamso, Kabupaten Bulungan",KALIMANTAN UTARA,77214.0,Indonesia,,,,2.8492715,117.3624714,https://maps.google.com/?cid=0x0:0x838039c6f26f0027,
mall,Toko Alat Tulis Kantor,A-Z-S Fotocopy  ATK Tg.Palas Hilir,"Tg.Palas hilir, Pinggir Sungai, Tj. Palas Hilir, Kec. Tj. Palas, Kabupaten Bulungan, Kalimantan Utara 77214","Pinggir Sungai, Tj. Palas Hilir, Kec. Tj. Palas, Kabupaten Bulungan",KALIMANTAN UTARA,77214.0,Indonesia, 085347027076,,,2.8388109,117.3557389,https://maps.google.com/?cid=0x0:0xb34a0e59f5058806,
mall,Toko,BAROKAH CELL LAILATUL,"WF2X+89 Tanjung Buka, SP 10, Kabupaten Bulungan, Kalimantan Utara","Kabupaten Bulungan, Kalimantan Utara",KALIMANTAN UTARA,,Indonesia, 08134129544,,,2.9007663,117.4984434,https://maps.google.com/?cid=0x0:0x9ee114915571d07d,
mall,mall,Kalimantan Timur 77215,"Kabupaten Bulungan, Kalimantan Timur","Kabupaten Bulungan, Kalimantan Timur",KALIMANTAN UTARA,,Indonesia,,,,2.6736525,117.6434844,https://maps.google.com/?cid=0x0:0xf8c09686d5a94c7c,
mall,Toko,Sentra IKM Maju Bersama,"HV48+222, Mangku Padi, Kec. Tj. Palas Tim., Kabupaten Bulungan, Kalimantan Utara 77215","Mangku Padi, Kec. Tj. Palas Tim., Kabupaten Bulungan",KALIMANTAN UTARA,77215.0,Indonesia, 082155712674,,,2.5550123,117.8650219,https://maps.google.com/?cid=0x0:0x56164b1a626653e9,
mall,Pusat Perbelanjaan,Pasar Induk Tanjung Selor,"V93F+VHJ, Tj. Selor Hilir, Kec. Tj. Selor, Kabupaten Bulungan, Kalimantan Utara 77216","Tj. Selor Hilir, Kec. Tj. Selor, Kabupaten Bulungan",KALIMANTAN UTARA,77216.0,Indonesia,,,,2.8547102,117.3739018,https://maps.google.com/?cid=0x0:0xf4c7a30b41976d25,
mall,Toko,Pasar Karang Agung,"26V8+MJP, Jl. H.M Ardans, Karang Agung, Kec. Tj. Palas Utara, Kabupaten Bulungan, Kalimantan Utara 77215","Jl. H.M Ardans, Karang Agung, Kec. Tj. Palas Utara, Kabupaten Bulungan",KALIMANTAN UTARA,77215.0,Indonesia,,,,3.044215,117.2165734,https://maps.google.com/?cid=0x0:0x15dc3197dee9c205,
mall,Toko bahan makanan,LuLucu,"R9P4+6JJ, Tj. Palas Tengah, Kec. Tj. Palas, Kabupaten Bulungan, Kalimantan Utara 77214","Tj. Palas Tengah, Kec. Tj. Palas, Kabupaten Bulungan",KALIMANTAN UTARA,77214.0,Indonesia, 082251517977,,,2.8355855,117.3565035,https://maps.google.com/?cid=0x0:0xc514b927b142818c,
mall,Toko,PANEN SQUARE,"V93G+2CW, Tj. Selor Hilir, Kec. Tj. Selor, Kabupaten Bulungan, Kalimantan Utara 77216","Tj. Selor Hilir, Kec. Tj. Selor, Kabupaten Bulungan",KALIMANTAN UTARA,77216.0,Indonesia, 081255187770,,,2.8525916,117.3760836,https://maps.google.com/?cid=0x0:0x70f3a9182196c949,
mall,Pusat Perbelanjaan,PUJASERA pasar Induk,"V93F+Q2X, Tj. Selor Hilir, Kec. Tj. Selor, Kabupaten Bulungan, Kalimantan Utara 77216","Tj. Selor Hilir, Kec. Tj. Selor, Kabupaten Bulungan",KALIMANTAN UTARA,77216.0,Indonesia,,,,2.8544999,117.3725944,https://maps.google.com/?cid=0x0:0x72dffc4bb359bf4c,
mall,Toko Pakaian,Serba 35,"36H7+V3H, Panca Agung, Kec. Tj. Palas Utara, Kabupaten Bulungan, Kalimantan Utara","Kabupaten Bulungan, Kalimantan Utara",KALIMANTAN UTARA,,Indonesia, 082174931508,,,3.0796875,117.2126875,https://maps.google.com/?cid=0x0:0xd063452d5e4dd564,
mall,Toko Perlengkapan Rumah,Suci Seserahan tanjung palas / selor,"R9J5+C6P, Jl. Kasimuddin, Tj. Palas Tengah, Kec. Tj. Palas, Kabupaten Bulungan, Kalimantan Utara 77216","Jl. Kasimuddin, Tj. Palas Tengah, Kec. Tj. Palas, Kabupaten Bulungan",KALIMANTAN UTARA,77216.0,Indonesia, 081258151617,,,2.831098,117.3580898,https://maps.google.com/?cid=0x0:0x11791a155275df45,
mall,Toko Perlengkapan Rumah,Tk Sumber Makmur,"R9Q6+VM5, Tj. Palas Tengah, Kec. Tj. Palas, Kabupaten Bulungan, Kalimantan Utara 77214","Tj. Palas Tengah, Kec. Tj. Palas, Kabupaten Bulungan",KALIMANTAN UTARA,77214.0,Indonesia,,,,2.8396377,117.3617323,https://maps.google.com/?cid=0x0:0xa0cfdd01f0876542,
mall,Toko,Ud berkah usaha desa Ardi mulyo,"462M+738, Jl. Pelabuhan Ancam, Ardi Mulya, Kec. Tj. Palas Utara, Kabupaten Bulungan, Kalimantan Utara 77215","Jl. Pelabuhan Ancam, Ardi Mulya, Kec. Tj. Palas Utara, Kabupaten Bulungan",KALIMANTAN UTARA,77215.0,Indonesia,,,,3.1006724,117.2327022,https://maps.google.com/?cid=0x0:0xd04fedc9b462459a,
mall,Pusat Perbelanjaan,Ikani,"R9P8+R43, Jl. Skip I, Tj. Selor Hulu, Kec. Tj. Selor, Kabupaten Bulungan, Kalimantan Utara 77214","Jl. Skip I, Tj. Selor Hulu, Kec. Tj. Selor, Kabupaten Bulungan",KALIMANTAN UTARA,77214.0,Indonesia, 055221939,,,2.8370158,117.3653091,https://maps.google.com/?cid=0x0:0xf869160fe2cf8d66,
mall,Kedai Kopi,Warung Pak Pagi,"PG7M+7J4, Wono Mulyo, Kec. Tj. Palas Tim., Kabupaten Bulungan, Kalimantan Utara 77215","Wono Mulyo, Kec. Tj. Palas Tim., Kabupaten Bulungan",KALIMANTAN UTARA,77215.0,Indonesia, 082353498869,,,2.713145,117.5340872,https://maps.google.com/?cid=0x0:0xc5468b9836093f1,
mall,Pusat Perbelanjaan,Toko Lima Putra,"Unnamed Road, Tanah Kuning, Kec. Tj. Palas Tim., Kabupaten Bulungan, Kalimantan Utara 77215","Tanah Kuning, Kec. Tj. Palas Tim., Kabupaten Bulungan",KALIMANTAN UTARA,77215.0,Indonesia,,,,2.6150876,117.806824,https://maps.google.com/?cid=0x0:0x6076716f9688479e,
mall,Pusat Perbelanjaan,Central Walet Tanjung Selor Bulungan,"V939+4J8, Jl. Benuang, Tj. Selor Hilir, Kec. Tj. Selor, Kabupaten Bulungan, Kalimantan Utara 77216","Jl. Benuang, Tj. Selor Hilir, Kec. Tj. Selor, Kabupaten Bulungan",KALIMANTAN UTARA,77216.0,Indonesia, 082157102040,,,2.8527772,117.3690689,https://maps.google.com/?cid=0x0:0x7753048ec1233eeb,
mall,Toko,Kios/ Toko Simpang Tiga,"R9P4+7PR, Tj. Palas Tengah, Kec. Tj. Palas, Kabupaten Bulungan, Kalimantan Utara 77214","Tj. Palas Tengah, Kec. Tj. Palas, Kabupaten Bulungan",KALIMANTAN UTARA,77214.0,Indonesia,,,,2.8357359,117.3567624,https://maps.google.com/?cid=0x0:0x10377a4c167855a2,
mall,Toko Herbal,Kius ibu Hamiati Nasa,"36XM+758, Ardi Mulya, Kec. Tj. Palas Utara, Kabupaten Bulungan, Kalimantan Utara 77215","Ardi Mulya, Kec. Tj. Palas Utara, Kabupaten Bulungan",KALIMANTAN UTARA,77215.0,Indonesia, 082252821967,,,3.0981535,117.2329647,https://maps.google.com/?cid=0x0:0x41dab2975713cf8e,
mall,Pusat Perbelanjaan,Borneo Store,"Jl. Bumi Rahayu No.Km.9, Bumi Rahayu, Kec. Tj. Selor, Kabupaten Bulungan, Kalimantan Utara 77212","Bumi Rahayu, Kec. Tj. Selor, Kabupaten Bulungan",KALIMANTAN UTARA,77212.0,Indonesia,,,,2.7839803,117.4472329,https://maps.google.com/?cid=0x0:0x47b5e20ae35dc58,
mall,Toko bahan makanan,Tokoh murah indah,"PG4W+V8, Wono Mulyo, Kec. Tj. Palas Tim., Kabupaten Bulungan, Kalimantan Utara","Kabupaten Bulungan, Kalimantan Utara",KALIMANTAN UTARA,,Indonesia,,,,2.7072262,117.5458296,https://maps.google.com/?cid=0x0:0xdc34ca7af17f0721,
mall,Toko Pernak-Pernik,Faidal Olshop,"JR37+93H, Unnamed Road, Tanah Kuning, Kec. Tj. Palas Tim., Kabupaten Bulungan, Kalimantan Utara 77215","Unnamed Road, Tanah Kuning, Kec. Tj. Palas Tim., Kabupaten Bulungan",KALIMANTAN UTARA,77215.0,Indonesia, 082253266313,,,2.603427,117.8127396,https://maps.google.com/?cid=0x0:0xdc9fc51f0cb73f92,
mall,Gudang,Pasar mangkupadi,"HV37+MW6, Mangkupadi, RT.05/RW.01, tg palas timur, Kabupaten Bulungan, Kalimantan Utara 77215","Mangkupadi, RT.05/RW.01, tg palas timur, Kabupaten Bulungan",KALIMANTAN UTARA,77215.0,Indonesia,,,,2.5541532,117.8647687,https://maps.google.com/?cid=0x0:0xd5380eb69eaa5255,
mall,Toko,TIMBANGAN PT.BULUNGAN CITRA AGRO PERSADA,"MQ47+8F, Binai, Kec. Tj. Palas Tim., Kabupaten Bulungan, Kalimantan Utara 77215","Binai, Kec. Tj. Palas Tim., Kabupaten Bulungan",KALIMANTAN UTARA,77215.0,Indonesia, 082153992527,,,2.6558278,117.763622,https://maps.google.com/?cid=0x0:0x7a938d8ba5de1e3,
mall,Toko,Nurfaisah shop/pak mul,"PT bcap, Tanah Kuning, Kec. Tj. Palas Tim., Kabupaten Bulungan, Kalimantan Utara 77214","Tanah Kuning, Kec. Tj. Palas Tim., Kabupaten Bulungan",KALIMANTAN UTARA,77214.0,Indonesia, 085348833078,,,2.5720369,117.8194197,https://maps.google.com/?cid=0x0:0x299045ea238adad8,
mall,Toko bahan makanan,kios sita,"PG6R+J6F, Wono Mulyo, Kec. Tj. Palas Tim., Kabupaten Bulungan, Kalimantan Utara 77215","Wono Mulyo, Kec. Tj. Palas Tim., Kabupaten Bulungan",KALIMANTAN UTARA,77215.0,Indonesia, 082148161477,,,2.7115559,117.540542,https://maps.google.com/?cid=0x0:0x23d912d3bc08f5a1,
mall,Toko,Toko ridho,"Mangku Padi, Kec. Tj. Palas Tim., Kabupaten Bulungan, Kalimantan Utara","Kabupaten Bulungan, Kalimantan Utara",KALIMANTAN UTARA,,Indonesia, 082348208576,,,2.5346671,117.8050229,https://maps.google.com/?cid=0x0:0x9ab6a8e23c94866c,
mall,mall,Kalimantan Timur 77215,"Kabupaten Bulungan, Kalimantan Timur","Kabupaten Bulungan, Kalimantan Timur",KALIMANTAN UTARA,,Indonesia,,,,2.6736525,117.6434844,https://maps.google.com/?cid=0x0:0xf8c09686d5a94c7c,
mall,Sekolah Dasar,SDN 009 TANJUNG PALAS UTARA,"36J6+R7W, Jl. Ahmad Yani, Panca Agung, Kec. Tj. Palas Utara, Kabupaten Bulungan, Kalimantan Utara 77215","Jl. Ahmad Yani, Panca Agung, Kec. Tj. Palas Utara, Kabupaten Bulungan",KALIMANTAN UTARA,77215.0,Indonesia,,,,3.0821057,117.2106876,https://maps.google.com/?cid=0x0:0x6ec8266006cce68,
mall,Perhimpunan Pengembang Perumahan,Patag,"Jl. Depsos RT 12,01,09/RW 01, Desa, Pimping, Kec. Tj. Palas Utara, Kabupaten Bulungan, Kalimantan Utara 77215","Desa, Pimping, Kec. Tj. Palas Utara, Kabupaten Bulungan",KALIMANTAN UTARA,77215.0,Indonesia, 081350975833,,,3.0028899,117.2075484,https://maps.google.com/?cid=0x0:0xae151446066d27a9,
mall,Tujuan Wisata,Sungai Selor,"RC56+P9G, Jelarai Selor, Kec. Tj. Selor, Kabupaten Bulungan, Kalimantan Utara 77211","Jelarai Selor, Kec. Tj. Selor, Kabupaten Bulungan",KALIMANTAN UTARA,77211.0,Indonesia,,,,2.809309,117.4109507,https://maps.google.com/?cid=0x0:0x481b9e697745c379,
mall,Sekolah Dasar,Sdn 009,"R8RM+252, Gn. Putih/Kr. Jenawi, Kec. Tj. Palas, Kabupaten Bulungan, Kalimantan Utara 77216","Gn. Putih/Kr. Jenawi, Kec. Tj. Palas, Kabupaten Bulungan",KALIMANTAN UTARA,77216.0,Indonesia,,,,2.8400065,117.3328973,https://maps.google.com/?cid=0x0:0xeabb60b062348de0,
mall,Sekolah Dasar,SD Negeri 011 Tanjung Palas,"Q8J8+7G5, Sekang, Antutan, Kec. Tj. Palas, Kabupaten Bulungan, Kalimantan Utara 77211","Sekang, Antutan, Kec. Tj. Palas, Kabupaten Bulungan",KALIMANTAN UTARA,77211.0,Indonesia,,,,2.7806256,117.3163553,https://maps.google.com/?cid=0x0:0x667786f58284a9ed,
mall,Sekolah Dasar,SD Negeri 007 Tanjung Palas,"R9G5+333, Tj. Palas Hulu, Kec. Tj. Palas, Kabupaten Bulungan, Kalimantan Utara 77211","Tj. Palas Hulu, Kec. Tj. Palas, Kabupaten Bulungan",KALIMANTAN UTARA,77211.0,Indonesia,,,,2.8251482,117.3576608,https://maps.google.com/?cid=0x0:0xf73801c946ed3f5f,
mall,Pusat Perbelanjaan,Tarakan Mall,"8H5M+G73, Jl. Yos Sudarso No.1 Lantai 4, Karang Rejo, Kec. Tarakan Bar., Kota Tarakan, Kalimantan Utara","Kota Tarakan, Kalimantan Utara",KALIMANTAN UTARA,,Indonesia,,,,3.308837,117.5831623,https://maps.google.com/?cid=0x0:0x1eeb4f8ef877ebd6,
mall,Toko Roti,"Renis Cake (Dessert shop, Bakery and Caffe)","Jl. Pinus, Tj. Selor Hilir, Kec. Tj. Selor, Kabupaten Bulungan, Kalimantan Utara 77212","Tj. Selor Hilir, Kec. Tj. Selor, Kabupaten Bulungan",KALIMANTAN UTARA,77212.0,Indonesia, 085222525259,,,2.8510244,117.3741806,https://maps.google.com/?cid=0x0:0xe300a7486830ca72,
mall,Pusat Perbelanjaan,Pasar Induk Tanjung Selor,"V93F+VHJ, Tj. Selor Hilir, Kec. Tj. Selor, Kabupaten Bulungan, Kalimantan Utara 77216","Tj. Selor Hilir, Kec. Tj. Selor, Kabupaten Bulungan",KALIMANTAN UTARA,77216.0,Indonesia,,,,2.8547102,117.3739018,https://maps.google.com/?cid=0x0:0xf4c7a30b41976d25,
mall,Toko,Sentra IKM Maju Bersama,"HV48+222, Mangku Padi, Kec. Tj. Palas Tim., Kabupaten Bulungan, Kalimantan Utara 77215","Mangku Padi, Kec. Tj. Palas Tim., Kabupaten Bulungan",KALIMANTAN UTARA,77215.0,Indonesia, 082155712674,,,2.5550123,117.8650219,https://maps.google.com/?cid=0x0:0x56164b1a626653e9,
mall,Toko,Pasar Karang Agung,"26V8+MJP, Jl. H.M Ardans, Karang Agung, Kec. Tj. Palas Utara, Kabupaten Bulungan, Kalimantan Utara 77215","Jl. H.M Ardans, Karang Agung, Kec. Tj. Palas Utara, Kabupaten Bulungan",KALIMANTAN UTARA,77215.0,Indonesia,,,,3.044215,117.2165734,https://maps.google.com/?cid=0x0:0x15dc3197dee9c205,
mall,Toko,PANEN SQUARE,"V93G+2CW, Tj. Selor Hilir, Kec. Tj. Selor, Kabupaten Bulungan, Kalimantan Utara 77216","Tj. Selor Hilir, Kec. Tj. Selor, Kabupaten Bulungan",KALIMANTAN UTARA,77216.0,Indonesia, 081255187770,,,2.8525916,117.3760836,https://maps.google.com/?cid=0x0:0x70f3a9182196c949,
mall,Toko umum,Berkah Madinah store,"26J9+VW4, Jl. Ahmad Yani, Karang Agung, Kec. Tj. Palas Utara, Kabupaten Bulungan, Kalimantan Utara 77215","Jl. Ahmad Yani, Karang Agung, Kec. Tj. Palas Utara, Kabupaten Bulungan",KALIMANTAN UTARA,77215.0,Indonesia, 082221108885,,,3.032133,117.219843,https://maps.google.com/?cid=0x0:0xa53b5e18fb9a8ca1,
mall,Toko Perlengkapan Rumah,Suci Seserahan tanjung palas / selor,"R9J5+C6P, Jl. Kasimuddin, Tj. Palas Tengah, Kec. Tj. Palas, Kabupaten Bulungan, Kalimantan Utara 77216","Jl. Kasimuddin, Tj. Palas Tengah, Kec. Tj. Palas, Kabupaten Bulungan",KALIMANTAN UTARA,77216.0,Indonesia, 081258151617,,,2.831098,117.3580898,https://maps.google.com/?cid=0x0:0x11791a155275df45,
mall,Toko Pakaian,Serba 35,"36H7+V3H, Panca Agung, Kec. Tj. Palas Utara, Kabupaten Bulungan, Kalimantan Utara","Kabupaten Bulungan, Kalimantan Utara",KALIMANTAN UTARA,,Indonesia, 082174931508,,,3.0796875,117.2126875,https://maps.google.com/?cid=0x0:0xd063452d5e4dd564,
mall,Toko bahan makanan,LuLucu,"R9P4+6JJ, Tj. Palas Tengah, Kec. Tj. Palas, Kabupaten Bulungan, Kalimantan Utara 77214","Tj. Palas Tengah, Kec. Tj. Palas, Kabupaten Bulungan",KALIMANTAN UTARA,77214.0,Indonesia, 082251517977,,,2.8355855,117.3565035,https://maps.google.com/?cid=0x0:0xc514b927b142818c,
mall,Toko,Ud berkah usaha desa Ardi mulyo,"462M+738, Jl. Pelabuhan Ancam, Ardi Mulya, Kec. Tj. Palas Utara, Kabupaten Bulungan, Kalimantan Utara 77215","Jl. Pelabuhan Ancam, Ardi Mulya, Kec. Tj. Palas Utara, Kabupaten Bulungan",KALIMANTAN UTARA,77215.0,Indonesia,,,,3.1006724,117.2327022,https://maps.google.com/?cid=0x0:0xd04fedc9b462459a,
mall,Tujuan Wisata,Batu tumpuk Tanjung Palas Utara,"36H3+H2H, Panca Agung, Kec. Tj. Palas Utara, Kabupaten Bulungan, Kalimantan Utara 77215","Panca Agung, Kec. Tj. Palas Utara, Kabupaten Bulungan",KALIMANTAN UTARA,77215.0,Indonesia,,,,3.0789269,117.2026192,https://maps.google.com/?cid=0x0:0x667d5f1f6c0ba981,
mall,Pasar,TOKO BUKIT JAYA,"PG98+4CM, Tj. Agung, Kec. Tj. Palas Tim., Kabupaten Bulungan, Kalimantan Utara 77215","Tj. Agung, Kec. Tj. Palas Tim., Kabupaten Bulungan",KALIMANTAN UTARA,77215.0,Indonesia,,,,2.7178409,117.5160363,https://maps.google.com/?cid=0x0:0x2e5950485a17495b,
mall,Toko Herbal,Kius ibu Hamiati Nasa,"36XM+758, Ardi Mulya, Kec. Tj. Palas Utara, Kabupaten Bulungan, Kalimantan Utara 77215","Ardi Mulya, Kec. Tj. Palas Utara, Kabupaten Bulungan",KALIMANTAN UTARA,77215.0,Indonesia, 082252821967,,,3.0981535,117.2329647,https://maps.google.com/?cid=0x0:0x41dab2975713cf8e,
mall,Toko,Kios/ Toko Simpang Tiga,"R9P4+7PR, Tj. Palas Tengah, Kec. Tj. Palas, Kabupaten Bulungan, Kalimantan Utara 77214","Tj. Palas Tengah, Kec. Tj. Palas, Kabupaten Bulungan",KALIMANTAN UTARA,77214.0,Indonesia,,,,2.8357359,117.3567624,https://maps.google.com/?cid=0x0:0x10377a4c167855a2,
mall,Toko Perlengkapan Rumah,Tk Sumber Makmur,"R9Q6+VM5, Tj. Palas Tengah, Kec. Tj. Palas, Kabupaten Bulungan, Kalimantan Utara 77214","Tj. Palas Tengah, Kec. Tj. Palas, Kabupaten Bulungan",KALIMANTAN UTARA,77214.0,Indonesia,,,,2.8396377,117.3617323,https://maps.google.com/?cid=0x0:0xa0cfdd01f0876542,
mall,Toko bahan makanan,Toko Reni Rusiati,"3628+XWX, Jl. H.M Ardans, Karang Agung, Kec. Tj. Palas Utara, Kabupaten Bulungan, Kalimantan Utara 77215","Jl. H.M Ardans, Karang Agung, Kec. Tj. Palas Utara, Kabupaten Bulungan",KALIMANTAN UTARA,77215.0,Indonesia, 085386684444,,,3.052484,117.2173599,https://maps.google.com/?cid=0x0:0xdf2231db914e9643,
mall,Kedai Kopi,Warung Pak Pagi,"PG7M+7J4, Wono Mulyo, Kec. Tj. Palas Tim., Kabupaten Bulungan, Kalimantan Utara 77215","Wono Mulyo, Kec. Tj. Palas Tim., Kabupaten Bulungan",KALIMANTAN UTARA,77215.0,Indonesia, 082353498869,,,2.713145,117.5340872,https://maps.google.com/?cid=0x0:0xc5468b9836093f1,
mall,Toko Elektronik,Dinasty Computer,"36J7+R5G, Jl. Ahmad Yani, Panca Agung, Kec. Tj. Palas Utara, Kabupaten Bulungan, Kalimantan Utara 77215","Jl. Ahmad Yani, Panca Agung, Kec. Tj. Palas Utara, Kabupaten Bulungan",KALIMANTAN UTARA,77215.0,Indonesia, 085393702006,,,3.0820508,117.212942,https://maps.google.com/?cid=0x0:0x7b2c2a2d9d3d4bb3,
mall,Toko Alat Tulis Kantor,Toko AFIF Copier,"Panca Agung, Kec. Tj. Palas Utara, Kabupaten Bulungan, Kalimantan Utara 77215","Kec. Tj. Palas Utara, Kabupaten Bulungan",KALIMANTAN UTARA,77215.0,Indonesia,,,,3.0792824,117.2126949,https://maps.google.com/?cid=0x0:0xde58272cdb2688c8,
mall,Toko Perlengkapan Rumah,Bulungan Jaya,"R9X6+PX5, Jl. Katamso, Kabupaten Bulungan, Kalimantan Utara 77214","Jl. Katamso, Kabupaten Bulungan",KALIMANTAN UTARA,77214.0,Indonesia,,,,2.8492715,117.3624714,https://maps.google.com/?cid=0x0:0x838039c6f26f0027,
mall,Pusat Perbelanjaan,Toko Lima Putra,"Unnamed Road, Tanah Kuning, Kec. Tj. Palas Tim., Kabupaten Bulungan, Kalimantan Utara 77215","Tanah Kuning, Kec. Tj. Palas Tim., Kabupaten Bulungan",KALIMANTAN UTARA,77215.0,Indonesia,,,,2.6150876,117.806824,https://maps.google.com/?cid=0x0:0x6076716f9688479e,
mall,mall,Tandjungselor,"Tj. Palas Tengah, Kec. Tj. Palas, Kabupaten Bulungan, Kalimantan Utara","Kabupaten Bulungan, Kalimantan Utara",KALIMANTAN UTARA,,Indonesia,,,,2.844766,117.3648097,https://maps.google.com/?cid=0x0:0xbe0a10ea478e927,
mall,Pusat Perbelanjaan,Pasar Induk Tanjung Selor,"V93F+VHJ, Tj. Selor Hilir, Kec. Tj. Selor, Kabupaten Bulungan, Kalimantan Utara 77216","Tj. Selor Hilir, Kec. Tj. Selor, Kabupaten Bulungan",KALIMANTAN UTARA,77216.0,Indonesia,,,,2.8547102,117.3739018,https://maps.google.com/?cid=0x0:0xf4c7a30b41976d25,
mall,Toko Pakaian Anak,Mall Baby Tanjung Selor,"Jl. Sengkawit, Tj. Selor Hilir, Kec. Tj. Selor, Kabupaten Bulungan, Kalimantan Utara 77216","Tj. Selor Hilir, Kec. Tj. Selor, Kabupaten Bulungan",KALIMANTAN UTARA,77216.0,Indonesia, 081257220004,,,2.8543202,117.3702519,https://maps.google.com/?cid=0x0:0xde36b229e150e202,
mall,Pusat Perbelanjaan,Central Walet Tanjung Selor Bulungan,"V939+4J8, Jl. Benuang, Tj. Selor Hilir, Kec. Tj. Selor, Kabupaten Bulungan, Kalimantan Utara 77216","Jl. Benuang, Tj. Selor Hilir, Kec. Tj. Selor, Kabupaten Bulungan",KALIMANTAN UTARA,77216.0,Indonesia, 082157102040,,,2.8527772,117.3690689,https://maps.google.com/?cid=0x0:0x7753048ec1233eeb,
mall,Toko,PANEN SQUARE,"V93G+2CW, Tj. Selor Hilir, Kec. Tj. Selor, Kabupaten Bulungan, Kalimantan Utara 77216","Tj. Selor Hilir, Kec. Tj. Selor, Kabupaten Bulungan",KALIMANTAN UTARA,77216.0,Indonesia, 081255187770,,,2.8525916,117.3760836,https://maps.google.com/?cid=0x0:0x70f3a9182196c949,
mall,Pusat Perbelanjaan,Ikani,"R9P8+R43, Jl. Skip I, Tj. Selor Hulu, Kec. Tj. Selor, Kabupaten Bulungan, Kalimantan Utara 77214","Jl. Skip I, Tj. Selor Hulu, Kec. Tj. Selor, Kabupaten Bulungan",KALIMANTAN UTARA,77214.0,Indonesia, 055221939,,,2.8370158,117.3653091,https://maps.google.com/?cid=0x0:0xf869160fe2cf8d66,
mall,Pusat Perbelanjaan,Nq tanjung selor,"R9WF+WJP, Jl. Durian, Tj. Selor Hilir, Kec. Tj. Selor, Kabupaten Bulungan, Kalimantan Utara 77216","Jl. Durian, Tj. Selor Hilir, Kec. Tj. Selor, Kabupaten Bulungan",KALIMANTAN UTARA,77216.0,Indonesia, 085245735789,,,2.8473349,117.3740886,https://maps.google.com/?cid=0x0:0x6ec2075cef965561,
mall,Pusat Perbelanjaan,PUJASERA pasar Induk,"V93F+Q2X, Tj. Selor Hilir, Kec. Tj. Selor, Kabupaten Bulungan, Kalimantan Utara 77216","Tj. Selor Hilir, Kec. Tj. Selor, Kabupaten Bulungan",KALIMANTAN UTARA,77216.0,Indonesia,,,,2.8544999,117.3725944,https://maps.google.com/?cid=0x0:0x72dffc4bb359bf4c,
mall,Pusat Perbelanjaan,Unka,"Jl. H. Tamrin, Tj. Selor Hilir, Kec. Tj. Selor, Kabupaten Bulungan, Kalimantan Utara 77212","Tj. Selor Hilir, Kec. Tj. Selor, Kabupaten Bulungan",KALIMANTAN UTARA,77212.0,Indonesia,,,,2.8597958,117.374669,https://maps.google.com/?cid=0x0:0xf95d868a2c16b4a5,
mall,Toko Perlengkapan Rumah,Toko Terang Jaya,"R9V9+WP5, Jl. Kolonel Soetadji, Tj. Selor Hilir, Kec. Tj. Selor, Kabupaten Bulungan, Kalimantan Utara 77214","Jl. Kolonel Soetadji, Tj. Selor Hilir, Kec. Tj. Selor, Kabupaten Bulungan",KALIMANTAN UTARA,77214.0,Indonesia,,,,2.8447709,117.3693517,https://maps.google.com/?cid=0x0:0x52910fe6fc27b03,
mall,Toko Pakaian,I AM FASHION STORE TANJUNG SELOR,"Jl. Sengkawit, Tj. Selor Hilir, Kec. Tj. Selor, Kabupaten Bulungan, Kalimantan Utara","Kabupaten Bulungan, Kalimantan Utara",KALIMANTAN UTARA,,Indonesia,,,,2.8505323,117.3787606,https://maps.google.com/?cid=0x0:0x79aeb67e90d5d1fc,
mall,Pusat Perbelanjaan,Aini homeshoping,"Jl. Nuri No.8, Tj. Selor Hilir, Kec. Tj. Selor, Kabupaten Bulungan, Kalimantan Utara 77215","Tj. Selor Hilir, Kec. Tj. Selor, Kabupaten Bulungan",KALIMANTAN UTARA,77215.0,Indonesia,,,,2.8368467,117.3818179,https://maps.google.com/?cid=0x0:0xab2f173e026f740c,
mall,Pasar,Pasar Subuh Tanjung Selor,"R9P6+XXM, Jl. P. Tendean, Tj. Selor Hulu, Kec. Tj. Selor, Kabupaten Bulungan, Kalimantan Utara 77214","Jl. P. Tendean, Tj. Selor Hulu, Kec. Tj. Selor, Kabupaten Bulungan",KALIMANTAN UTARA,77214.0,Indonesia,,,,2.8374515,117.3624307,https://maps.google.com/?cid=0x0:0xa325e254ae629cf,
mall,Toko Bunga,Papan Bunga Bulungan,"Jl. Soedirman No.28, Tj. Selor Hilir, Kec. Tj. Selor, Kabupaten Bulungan, Kalimantan Utara 77214","Tj. Selor Hilir, Kec. Tj. Selor, Kabupaten Bulungan",KALIMANTAN UTARA,77214.0,Indonesia, 087784554227,,,2.8412683,117.3616332,https://maps.google.com/?cid=0x0:0x18b502051dc07e2a,
mall,Toko Rokok Elektrik,Bulungan Vape Store,"V93C+JF8 Bulungan Vape Store, Jl. Jeruk, Tj. Selor Hilir, Kec. Tj. Selor, Kabupaten Bulungan, Kalimantan Utara 77216","Jl. Jeruk, Tj. Selor Hilir, Kec. Tj. Selor, Kabupaten Bulungan",KALIMANTAN UTARA,77216.0,Indonesia, 081321120510,,,2.8540276,117.3711883,https://maps.google.com/?cid=0x0:0x7625271b2507e2b5,
mall,Toko umum,Cendana Mart,"Jl. Cendana, Tj. Selor Hilir, Kec. Tj. Selor, Kabupaten Bulungan, Kalimantan Utara 77212","Tj. Selor Hilir, Kec. Tj. Selor, Kabupaten Bulungan",KALIMANTAN UTARA,77212.0,Indonesia, 081350308510,,,2.8531073,117.3770809,https://maps.google.com/?cid=0x0:0x194d9e6d236a5967,
mall,Pusat Perbelanjaan,Gedung Ratu Plaza,"R9XC+JM3, Jl. Durian, Tj. Selor Hilir, Kec. Tj. Selor, Kabupaten Bulungan, Kalimantan Utara 77216","Jl. Durian, Tj. Selor Hilir, Kec. Tj. Selor, Kabupaten Bulungan",KALIMANTAN UTARA,77216.0,Indonesia, 085236562711,,,2.8490173,117.3716838,https://maps.google.com/?cid=0x0:0x2af74c878a0bca00,
mall,Toko,Ole Ole Kaltara,"Jl. Sabanar Lama, Kabupaten Bulungan, Kalimantan Utara 77216",Kabupaten Bulungan,KALIMANTAN UTARA,77216.0,Indonesia, 081348591777,,,2.856448,117.3637258,https://maps.google.com/?cid=0x0:0xbbd2fb6a5f7634fc,
mall,Pusat Perbelanjaan,Kios Glory,"Jl. Katamso depan Pelabuhan peso No.Rt. 04, Tj. Selor Hulu, Kec. Tj. Selor, Kabupaten Bulungan, Kalimantan Utara 77211","Tj. Selor Hulu, Kec. Tj. Selor, Kabupaten Bulungan",KALIMANTAN UTARA,77211.0,Indonesia, 085247221224,,,2.8332767,117.3627451,https://maps.google.com/?cid=0x0:0xf886495faca124f7,
mall,Toko Perlengkapan Rumah,Bulungan Jaya,"R9X6+PX5, Jl. Katamso, Kabupaten Bulungan, Kalimantan Utara 77214","Jl. Katamso, Kabupaten Bulungan",KALIMANTAN UTARA,77214.0,Indonesia,,,,2.8492715,117.3624714,https://maps.google.com/?cid=0x0:0x838039c6f26f0027,
mall,Agen tiket maskapai penerbangan,Nuril Travel,"V937+PVC, Jl. Semangka, Tj. Selor Hilir, Kec. Tj. Selor, Kabupaten Bulungan, Kalimantan Utara 77216","Jl. Semangka, Tj. Selor Hilir, Kec. Tj. Selor, Kabupaten Bulungan",KALIMANTAN UTARA,77216.0,Indonesia, 081253824636,,,2.8543178,117.3646254,https://maps.google.com/?cid=0x0:0xfeffa417103a81f0,
mall,Toko Pakaian,LITTLE DREAM BOUTIQUE,"Jl. Binjai No.B-68, RT.96/RW.36, Tj. Selor Hilir, Kec. Tj. Selor, Kabupaten Bulungan, Kalimantan Utara 77216","RT.96/RW.36, Tj. Selor Hilir, Kec. Tj. Selor, Kabupaten Bulungan",KALIMANTAN UTARA,77216.0,Indonesia, 082277997299,,,2.8503198,117.3716576,https://maps.google.com/?cid=0x0:0xd623dff767b31667,
mall,mall,Kalimantan Utara 77212,"Kec. Tj. Selor, Kabupaten Bulungan, Kalimantan Utara","Kabupaten Bulungan, Kalimantan Utara",KALIMANTAN UTARA,,Indonesia,,,,2.8022152,117.4791295,https://maps.google.com/?cid=0x0:0xac78443d7ec018ec,
mall,Pusat Perbelanjaan,Pasar Induk Tanjung Selor,"V93F+VHJ, Tj. Selor Hilir, Kec. Tj. Selor, Kabupaten Bulungan, Kalimantan Utara 77216","Tj. Selor Hilir, Kec. Tj. Selor, Kabupaten Bulungan",KALIMANTAN UTARA,77216.0,Indonesia,,,,2.8547102,117.3739018,https://maps.google.com/?cid=0x0:0xf4c7a30b41976d25,
mall,Toko Pakaian Anak,Mall Baby Tanjung Selor,"Jl. Sengkawit, Tj. Selor Hilir, Kec. Tj. Selor, Kabupaten Bulungan, Kalimantan Utara 77216","Tj. Selor Hilir, Kec. Tj. Selor, Kabupaten Bulungan",KALIMANTAN UTARA,77216.0,Indonesia, 081257220004,,,2.8543202,117.3702519,https://maps.google.com/?cid=0x0:0xde36b229e150e202,
mall,Pusat Perbelanjaan,PUJASERA pasar Induk,"V93F+Q2X, Tj. Selor Hilir, Kec. Tj. Selor, Kabupaten Bulungan, Kalimantan Utara 77216","Tj. Selor Hilir, Kec. Tj. Selor, Kabupaten Bulungan",KALIMANTAN UTARA,77216.0,Indonesia,,,,2.8544999,117.3725944,https://maps.google.com/?cid=0x0:0x72dffc4bb359bf4c,
mall,Kantor Pemerintah,Mall Pelayanan Publik,"R9RF+76W, Tj. Selor Hilir, Kec. Tj. Selor, Kabupaten Bulungan, Kalimantan Utara 77216","Tj. Selor Hilir, Kec. Tj. Selor, Kabupaten Bulungan",KALIMANTAN UTARA,77216.0,Indonesia,,,,2.8407074,117.3730717,https://maps.google.com/?cid=0x0:0x73df0b16adce10a8,
mall,Pusat Perbelanjaan,Borneo Store,"Jl. Bumi Rahayu No.Km.9, Bumi Rahayu, Kec. Tj. Selor, Kabupaten Bulungan, Kalimantan Utara 77212","Bumi Rahayu, Kec. Tj. Selor, Kabupaten Bulungan",KALIMANTAN UTARA,77212.0,Indonesia,,,,2.7839803,117.4472329,https://maps.google.com/?cid=0x0:0x47b5e20ae35dc58,
mall,Toko,PANEN SQUARE,"V93G+2CW, Tj. Selor Hilir, Kec. Tj. Selor, Kabupaten Bulungan, Kalimantan Utara 77216","Tj. Selor Hilir, Kec. Tj. Selor, Kabupaten Bulungan",KALIMANTAN UTARA,77216.0,Indonesia, 081255187770,,,2.8525916,117.3760836,https://maps.google.com/?cid=0x0:0x70f3a9182196c949,
mall,Toko Pakaian,3Z COLLECTION,"RCVJ+4V8, Jl. Selimau 3, Tj. Selor Tim., Kec. Tj. Selor, Kabupaten Bulungan, Kalimantan Utara 77211","Jl. Selimau 3, Tj. Selor Tim., Kec. Tj. Selor, Kabupaten Bulungan",KALIMANTAN UTARA,77211.0,Indonesia, 085247140227,,,2.8427857,117.4321957,https://maps.google.com/?cid=0x0:0xc635b1183da9e7b1,
mall,Pusat Perbelanjaan,Muqadim mart,"QCJX+PW3, Jl. Poros Tj. Selor - Tanah Kuning, Bumi Rahayu, Kec. Tj. Selor, Kabupaten Bulungan, Kalimantan Utara 77212","Jl. Poros Tj. Selor - Tanah Kuning, Bumi Rahayu, Kec. Tj. Selor, Kabupaten Bulungan",KALIMANTAN UTARA,77212.0,Indonesia,,,,2.7817631,117.4498082,https://maps.google.com/?cid=0x0:0xe504d5920cabfa32,
mall,Pusat Perbelanjaan,Rmd.store7,"RCWC+C8M, Jl. Selimau 3, Tj. Selor Tim., Kec. Tj. Selor, Kabupaten Bulungan, Kalimantan Utara 77212","Jl. Selimau 3, Tj. Selor Tim., Kec. Tj. Selor, Kabupaten Bulungan",KALIMANTAN UTARA,77212.0,Indonesia, 082350722204,,,2.8460933,117.4207981,https://maps.google.com/?cid=0x0:0x632768b7be8033d,
mall,Toko umum,Cendana Mart,"Jl. Cendana, Tj. Selor Hilir, Kec. Tj. Selor, Kabupaten Bulungan, Kalimantan Utara 77212","Tj. Selor Hilir, Kec. Tj. Selor, Kabupaten Bulungan",KALIMANTAN UTARA,77212.0,Indonesia, 081350308510,,,2.8531073,117.3770809,https://maps.google.com/?cid=0x0:0x194d9e6d236a5967,
mall,Toko Perlengkapan Rumah,Toko Terang Jaya,"R9V9+WP5, Jl. Kolonel Soetadji, Tj. Selor Hilir, Kec. Tj. Selor, Kabupaten Bulungan, Kalimantan Utara 77214","Jl. Kolonel Soetadji, Tj. Selor Hilir, Kec. Tj. Selor, Kabupaten Bulungan",KALIMANTAN UTARA,77214.0,Indonesia,,,,2.8447709,117.3693517,https://maps.google.com/?cid=0x0:0x52910fe6fc27b03,
mall,Pasar,Pasar Subuh Tanjung Selor,"R9P6+XXM, Jl. P. Tendean, Tj. Selor Hulu, Kec. Tj. Selor, Kabupaten Bulungan, Kalimantan Utara 77214","Jl. P. Tendean, Tj. Selor Hulu, Kec. Tj. Selor, Kabupaten Bulungan",KALIMANTAN UTARA,77214.0,Indonesia,,,,2.8374515,117.3624307,https://maps.google.com/?cid=0x0:0xa325e254ae629cf,
mall,Pusat Perbelanjaan,Nq tanjung selor,"R9WF+WJP, Jl. Durian, Tj. Selor Hilir, Kec. Tj. Selor, Kabupaten Bulungan, Kalimantan Utara 77216","Jl. Durian, Tj. Selor Hilir, Kec. Tj. Selor, Kabupaten Bulungan",KALIMANTAN UTARA,77216.0,Indonesia, 085245735789,,,2.8473349,117.3740886,https://maps.google.com/?cid=0x0:0x6ec2075cef965561,
mall,Pusat Perbelanjaan,Pasar SP.2 Desa Tanjung Buka,"WF4G+6QP, Tj. Buka, Kec. Tj. Selor, Kabupaten Bulungan, Kalimantan Utara 77212","Tj. Buka, Kec. Tj. Selor, Kabupaten Bulungan",KALIMANTAN UTARA,77212.0,Indonesia,,,,2.90559,117.4769511,https://maps.google.com/?cid=0x0:0x81da5906956ae91c,
mall,Pusat Perbelanjaan,Unka,"Jl. H. Tamrin, Tj. Selor Hilir, Kec. Tj. Selor, Kabupaten Bulungan, Kalimantan Utara 77212","Tj. Selor Hilir, Kec. Tj. Selor, Kabupaten Bulungan",KALIMANTAN UTARA,77212.0,Indonesia,,,,2.8597958,117.374669,https://maps.google.com/?cid=0x0:0xf95d868a2c16b4a5,
mall,Pusat Perbelanjaan,Gedung Ratu Plaza,"R9XC+JM3, Jl. Durian, Tj. Selor Hilir, Kec. Tj. Selor, Kabupaten Bulungan, Kalimantan Utara 77216","Jl. Durian, Tj. Selor Hilir, Kec. Tj. Selor, Kabupaten Bulungan",KALIMANTAN UTARA,77216.0,Indonesia, 085236562711,,,2.8490173,117.3716838,https://maps.google.com/?cid=0x0:0x2af74c878a0bca00,
mall,Pusat Perbelanjaan,Ikani,"R9P8+R43, Jl. Skip I, Tj. Selor Hulu, Kec. Tj. Selor, Kabupaten Bulungan, Kalimantan Utara 77214","Jl. Skip I, Tj. Selor Hulu, Kec. Tj. Selor, Kabupaten Bulungan",KALIMANTAN UTARA,77214.0,Indonesia, 055221939,,,2.8370158,117.3653091,https://maps.google.com/?cid=0x0:0xf869160fe2cf8d66,
mall,Toko Bunga,Papan Bunga Bulungan,"Jl. Soedirman No.28, Tj. Selor Hilir, Kec. Tj. Selor, Kabupaten Bulungan, Kalimantan Utara 77214","Tj. Selor Hilir, Kec. Tj. Selor, Kabupaten Bulungan",KALIMANTAN UTARA,77214.0,Indonesia, 087784554227,,,2.8412683,117.3616332,https://maps.google.com/?cid=0x0:0x18b502051dc07e2a,
mall,mall,Tandjungselor,"Tj. Palas Tengah, Kec. Tj. Palas, Kabupaten Bulungan, Kalimantan Utara","Kabupaten Bulungan, Kalimantan Utara",KALIMANTAN UTARA,,Indonesia,,,,2.844766,117.3648097,https://maps.google.com/?cid=0x0:0xbe0a10ea478e927,
mall,Toko Rokok Elektrik,Bulungan Vape Store,"V93C+JF8 Bulungan Vape Store, Jl. Jeruk, Tj. Selor Hilir, Kec. Tj. Selor, Kabupaten Bulungan, Kalimantan Utara 77216","Jl. Jeruk, Tj. Selor Hilir, Kec. Tj. Selor, Kabupaten Bulungan",KALIMANTAN UTARA,77216.0,Indonesia, 081321120510,,,2.8540276,117.3711883,https://maps.google.com/?cid=0x0:0x7625271b2507e2b5,
mall,Toko Perlengkapan Rumah,Bulungan Jaya,"R9X6+PX5, Jl. Katamso, Kabupaten Bulungan, Kalimantan Utara 77214","Jl. Katamso, Kabupaten Bulungan",KALIMANTAN UTARA,77214.0,Indonesia,,,,2.8492715,117.3624714,https://maps.google.com/?cid=0x0:0x838039c6f26f0027,
mall,Agen tiket maskapai penerbangan,Nuril Travel,"V937+PVC, Jl. Semangka, Tj. Selor Hilir, Kec. Tj. Selor, Kabupaten Bulungan, Kalimantan Utara 77216","Jl. Semangka, Tj. Selor Hilir, Kec. Tj. Selor, Kabupaten Bulungan",KALIMANTAN UTARA,77216.0,Indonesia, 081253824636,,,2.8543178,117.3646254,https://maps.google.com/?cid=0x0:0xfeffa417103a81f0,
mall,Toko Pakaian,LITTLE DREAM BOUTIQUE,"Jl. Binjai No.B-68, RT.96/RW.36, Tj. Selor Hilir, Kec. Tj. Selor, Kabupaten Bulungan, Kalimantan Utara 77216","RT.96/RW.36, Tj. Selor Hilir, Kec. Tj. Selor, Kabupaten Bulungan",KALIMANTAN UTARA,77216.0,Indonesia, 082277997299,,,2.8503198,117.3716576,https://maps.google.com/?cid=0x0:0xd623dff767b31667,
mall,Toko Pakaian,I AM FASHION STORE TANJUNG SELOR,"Jl. Sengkawit, Tj. Selor Hilir, Kec. Tj. Selor, Kabupaten Bulungan, Kalimantan Utara","Kabupaten Bulungan, Kalimantan Utara",KALIMANTAN UTARA,,Indonesia,,,,2.8505323,117.3787606,https://maps.google.com/?cid=0x0:0x79aeb67e90d5d1fc,
mall,Pusat Perbelanjaan,Aini homeshoping,"Jl. Nuri No.8, Tj. Selor Hilir, Kec. Tj. Selor, Kabupaten Bulungan, Kalimantan Utara 77215","Tj. Selor Hilir, Kec. Tj. Selor, Kabupaten Bulungan",KALIMANTAN UTARA,77215.0,Indonesia,,,,2.8368467,117.3818179,https://maps.google.com/?cid=0x0:0xab2f173e026f740c,
mall,Toko Percetakan,PUSATNYA STEMPEL,"R9WF+FCH, Jl. Durian, Tj. Selor Hilir, Kec. Tj. Selor, Kabupaten Bulungan, Kalimantan Utara 77212","Jl. Durian, Tj. Selor Hilir, Kec. Tj. Selor, Kabupaten Bulungan",KALIMANTAN UTARA,77212.0,Indonesia, 085200077728,,,2.846185,117.3736147,https://maps.google.com/?cid=0x0:0x5b4a41d6ddcbb507,
supermarket,Toko,PANEN SQUARE,"V93G+2CW, Tj. Selor Hilir, Kec. Tj. Selor, Kabupaten Bulungan, Kalimantan Utara 77216","Tj. Selor Hilir, Kec. Tj. Selor, Kabupaten Bulungan",KALIMANTAN UTARA,77216.0,Indonesia, 081255187770,,,2.8525916,117.3760836,https://maps.google.com/?cid=0x0:0x70f3a9182196c949,
supermarket,Toko Swalayan,Toko Panen Raya,"R9W8+5JP, Jl. Manggis III, Tj. Selor Hilir, Kec. Tj. Selor, Kabupaten Bulungan, Kalimantan Utara 77214","Jl. Manggis III, Tj. Selor Hilir, Kec. Tj. Selor, Kabupaten Bulungan",KALIMANTAN UTARA,77214.0,Indonesia,,,,2.8454562,117.3665891,https://maps.google.com/?cid=0x0:0x21bc7c65054e2fca,
supermarket,ATM,ATM Mandiri,"V93G+2CW, Tj. Selor Hilir, Kec. Tj. Selor, Kabupaten Bulungan, Kalimantan Utara 77216","Tj. Selor Hilir, Kec. Tj. Selor, Kabupaten Bulungan",KALIMANTAN UTARA,77216.0,Indonesia,,,,2.8526151,117.3760897,https://maps.google.com/?cid=0x0:0xd98e9a540d732ba2,
supermarket,Toko Swalayan,Kianu cell,"P4GH+QM6, Long Beluah, Kec. Tj. Palas Bar., Kabupaten Bulungan, Kalimantan Utara 77261","Long Beluah, Kec. Tj. Palas Bar., Kabupaten Bulungan",KALIMANTAN UTARA,77261.0,Indonesia,,,,2.7267984,117.1292634,https://maps.google.com/?cid=0x0:0xaabbeb1d5d05e0a9,
supermarket,supermarket,Peso Hilir,"Kabupaten Bulungan, Kalimantan Utara","Kabupaten Bulungan, Kalimantan Utara",KALIMANTAN UTARA,,Indonesia,,,,2.7979259,116.9381434,https://maps.google.com/?cid=0x0:0x3e0d9d5c1d55d425,
supermarket,Toko,TWK Jelarai Raya,"RCP3+CHP, Tj. Selor Hilir, Kec. Tj. Selor, Kabupaten Bulungan, Kalimantan Utara 77211","Tj. Selor Hilir, Kec. Tj. Selor, Kabupaten Bulungan",KALIMANTAN UTARA,77211.0,Indonesia,,,,2.8360852,117.4039475,https://maps.google.com/?cid=0x0:0xd123c1457e466380,
supermarket,Toserba,TWK TANJUNG PALAS,"Jl. Kimas Aji Kertosono No.08, Tj. Palas Tengah, Kec. Tj. Palas, Kabupaten Bulungan, Kalimantan Utara 77216","Tj. Palas Tengah, Kec. Tj. Palas, Kabupaten Bulungan",KALIMANTAN UTARA,77216.0,Indonesia,,,,2.835304,117.3540835,https://maps.google.com/?cid=0x0:0xb050734f7cb671c4,
supermarket,supermarket,Kalimantan Utara 77263,"Kabupaten Bulungan, Kalimantan Utara","Kabupaten Bulungan, Kalimantan Utara",KALIMANTAN UTARA,,Indonesia,,,,3.1226414,116.8910342,https://maps.google.com/?cid=0x0:0x4e5101a5ecf582e,
supermarket,Toko bahan makanan,Toko azizah 2,"Jl. Ahmad Yani, Sekatak Buji, Kec. Sekatak, Kabupaten Bulungan, Kalimantan Utara 77152","Sekatak Buji, Kec. Sekatak, Kabupaten Bulungan",KALIMANTAN UTARA,77152.0,Indonesia,,,,3.3167373,117.0660863,https://maps.google.com/?cid=0x0:0x6e7307cb0d4f9063,
supermarket,Toko bahan makanan,Toko bunga muda,"73W7+HFX, Jl. Ahmad Yani, Sekatak Buji, Kec. Sekatak, Kabupaten Bulungan, Kalimantan Utara 77263","Jl. Ahmad Yani, Sekatak Buji, Kec. Sekatak, Kabupaten Bulungan",KALIMANTAN UTARA,77263.0,Indonesia,,,,3.2964869,117.063725,https://maps.google.com/?cid=0x0:0x6906854dfead4459,
supermarket,Minimarket,Indomaret Sekatak,"8388+FGH, Jl. Ahmad Yani, Sekatak Buji, Kec. Sekatak, Kabupaten Bulungan, Kalimantan Utara 77263","Jl. Ahmad Yani, Sekatak Buji, Kec. Sekatak, Kabupaten Bulungan",KALIMANTAN UTARA,77263.0,Indonesia,,,,3.3165997,117.0659581,https://maps.google.com/?cid=0x0:0xd27a82e1afd54201,
supermarket,Kios,Kios Raja wangi pak haji,"83F7+382, Ujang, Kec. Sekatak, Kabupaten Bulungan, Kalimantan Utara 77152","Ujang, Kec. Sekatak, Kabupaten Bulungan",KALIMANTAN UTARA,77152.0,Indonesia,,,,3.322643,117.0632643,https://maps.google.com/?cid=0x0:0xbf0ab02dc87c6514,
supermarket,Toko,Toko ***AZKY***,"365W+5QW, Ruhui Rahayu, Kec. Tj. Palas Utara, Kabupaten Bulungan, Kalimantan Utara 77215","Ruhui Rahayu, Kec. Tj. Palas Utara, Kabupaten Bulungan",KALIMANTAN UTARA,77215.0,Indonesia,,,,3.057992,117.24694,https://maps.google.com/?cid=0x0:0x3ee0874dfe54579,
supermarket,Toko,Toko SIDOGEDE,"Sekatak Buji, Kec. Sekatak, Kabupaten Bulungan, Kalimantan Utara 77263","Kec. Sekatak, Kabupaten Bulungan",KALIMANTAN UTARA,77263.0,Indonesia, 082252681708,,,3.312231,117.0664615,https://maps.google.com/?cid=0x0:0x5868ac3df965087e,
supermarket,Toko Swalayan,Toko Sri Rejeki,"366Q+WWM, Jl. Jaya Baya, Ruhui Rahayu, Tanjung Palas Utara, Bulungan Regency, North Kalimantan 77215","Jl. Jaya Baya, Ruhui Rahayu, Tanjung Palas Utara, Bulungan Regency",KALIMANTAN UTARA,77215.0,Indonesia, 085331412545,,,3.0623345,117.2397888,https://maps.google.com/?cid=0x0:0x2ed92c95668d6925,
supermarket,Toko Swalayan,Toko Cahaya Mulia,"Ruhui Rahayu, Kec. Tj. Palas Utara, Kabupaten Bulungan, Kalimantan Utara 77215","Kec. Tj. Palas Utara, Kabupaten Bulungan",KALIMANTAN UTARA,77215.0,Indonesia, 081347584076,,,3.0640924,117.2464968,https://maps.google.com/?cid=0x0:0xb220a92fedf5aa87,
supermarket,Minimarket,Toko Simpang Lima,"36M7+6QP, Panca Agung, Kec. Tj. Palas Utara, Kabupaten Bulungan, Kalimantan Utara 77215","Panca Agung, Kec. Tj. Palas Utara, Kabupaten Bulungan",KALIMANTAN UTARA,77215.0,Indonesia, 082158595656,,,3.083083,117.2144504,https://maps.google.com/?cid=0x0:0x9ac58f5fac06d91d,
supermarket,Toko bahan makanan,Toko Ginto Marsiano,"367W+JHQ, Unnamed Road, Ruhui Rahayu, Tanjung Palas Utara, Bulungan Regency, North Kalimantan 77215","Unnamed Road, Ruhui Rahayu, Tanjung Palas Utara, Bulungan Regency",KALIMANTAN UTARA,77215.0,Indonesia, 081347584076,,,3.0640941,117.2464961,https://maps.google.com/?cid=0x0:0x9ab02589b1d5141c,
supermarket,Toko Swalayan,Toko Gati,"367R+FC9, Unnamed Road, Ruhui Rahayu, Tanjung Palas Utara, Bulungan Regency, North Kalimantan 77215","Unnamed Road, Ruhui Rahayu, Tanjung Palas Utara, Bulungan Regency",KALIMANTAN UTARA,77215.0,Indonesia, 085346776245,,,3.0636517,117.2411083,https://maps.google.com/?cid=0x0:0xd45633fed752ecb6,
supermarket,Toko bahan makanan,Toko putri jaya,"36C8+H66, Jl. Ahmad Yani, Panca Agung, Kec. Tj. Palas Utara, Kabupaten Bulungan, Kalimantan Utara 77215","Jl. Ahmad Yani, Panca Agung, Kec. Tj. Palas Utara, Kabupaten Bulungan",KALIMANTAN UTARA,77215.0,Indonesia,,,,3.0714231,117.2155151,https://maps.google.com/?cid=0x0:0x56ee04d284959f71,
supermarket,supermarket,Kios HENDZOME,"73VF+P5W, Jl. Ahmad Yani, Sekatak Buji, Kec. Sekatak, Kabupaten Bulungan, Kalimantan Utara 77263","Jl. Ahmad Yani, Sekatak Buji, Kec. Sekatak, Kabupaten Bulungan",KALIMANTAN UTARA,77263.0,Indonesia, 085234144554,,,3.294358,117.0729602,https://maps.google.com/?cid=0x0:0x4497c5348410d97e,
supermarket,supermarket,Kalimantan Utara 77211,"Kabupaten Bulungan, Kalimantan Utara","Kabupaten Bulungan, Kalimantan Utara",KALIMANTAN UTARA,,Indonesia,,,,2.8426922,117.2911248,https://maps.google.com/?cid=0x0:0x503f82067f46d9d6,
supermarket,Toko Perlengkapan Rumah,Toko Pak Sareh,"R8QQ+5Q9, Gn. Putih/Kr. Jenawi, Kec. Tj. Palas, Kabupaten Bulungan, Kalimantan Utara 77216","Gn. Putih/Kr. Jenawi, Kec. Tj. Palas, Kabupaten Bulungan",KALIMANTAN UTARA,77216.0,Indonesia,,,,2.8379144,117.3394846,https://maps.google.com/?cid=0x0:0xd242b7b36e6a72b6,
supermarket,Minimarket,Alfamidi Kasimuddin,"R9H5+8HJ, Jl. Kasimuddin, Tj. Palas Hulu, Kec. Tj. Palas, Kabupaten Bulungan, Kalimantan Utara 77211","Jl. Kasimuddin, Tj. Palas Hulu, Kec. Tj. Palas, Kabupaten Bulungan",KALIMANTAN UTARA,77211.0,Indonesia, 082111342410,,,2.8285467,117.3586795,https://maps.google.com/?cid=0x0:0x28af1151d3cf1f2b,
supermarket,Restoran,F Mart Bulungan,"Tj. Selor Hilir, Kec. Tj. Palas Tengah, Kabupaten Bulungan, Kalimantan Utara 77216","Kec. Tj. Palas Tengah, Kabupaten Bulungan",KALIMANTAN UTARA,77216.0,Indonesia, 083843746499,,,2.8551586,117.3661466,https://maps.google.com/?cid=0x0:0x4280dd8a2c4f5034,
supermarket,Toko,MITRA ANDA,"Jl.Pramuka RT No.2, Karang Anyar, Kec. Tj. Palas, Kabupaten Bulungan, Kalimantan Utara 77216","Karang Anyar, Kec. Tj. Palas, Kabupaten Bulungan",KALIMANTAN UTARA,77216.0,Indonesia, 05522025076,,,2.8309414,117.3449671,https://maps.google.com/?cid=0x0:0x9ae0e0c042571ffd,
supermarket,Minimarket,ZikriWaAhlam,"V9CG+QR4, Jl. Sabanar Lama, Salim Batu, Kec. Tj. Palas Tengah, Kabupaten Bulungan, Kalimantan Utara 77211","Jl. Sabanar Lama, Salim Batu, Kec. Tj. Palas Tengah, Kabupaten Bulungan",KALIMANTAN UTARA,77211.0,Indonesia, 082251303107,,,2.8718786,117.3770699,https://maps.google.com/?cid=0x0:0x58b821ad721339e9,
supermarket,Toko Makanan,Queen's Market  Urban Space,"R9V7+54H, Tj. Selor Hilir, Kec. Tj. Selor, Kabupaten Bulungan, Kalimantan Utara 77214","Tj. Selor Hilir, Kec. Tj. Selor, Kabupaten Bulungan",KALIMANTAN UTARA,77214.0,Indonesia, 083843746499,,,2.8429449,117.3628446,https://maps.google.com/?cid=0x0:0xbdf1e47238fb01c5,
supermarket,Pasar,Pasar Agropolitan Tanjung Palas,"R9M4+M57, Jl. Bendahara, Tj. Palas Tengah, Kec. Tj. Palas, Kabupaten Bulungan, Kalimantan Utara 77211","Jl. Bendahara, Tj. Palas Tengah, Kec. Tj. Palas, Kabupaten Bulungan",KALIMANTAN UTARA,77211.0,Indonesia,,,,2.8341601,117.3554102,https://maps.google.com/?cid=0x0:0x3f8905ff966d328c,
supermarket,Toko Buah dan Sayur,Kios sayur pak no,"R9P4+44M, Jl. Pangeran, Tj. Palas Tengah, Kec. Tj. Palas, Kabupaten Bulungan, Kalimantan Utara 77214","Jl. Pangeran, Tj. Palas Tengah, Kec. Tj. Palas, Kabupaten Bulungan",KALIMANTAN UTARA,77214.0,Indonesia, 081346292363,,,2.8353338,117.3552848,https://maps.google.com/?cid=0x0:0xe468a53bce2aafdb,
supermarket,Toko bahan makanan,rumah Hari Yanto,"R7VR+3CH rt08 RW 03, jalan Hasanudin, Pejalin, Kec. Tj. Palas, Kabupaten Bulungan, Kalimantan Utara 77211","jalan Hasanudin, Pejalin, Kec. Tj. Palas, Kabupaten Bulungan",KALIMANTAN UTARA,77211.0,Indonesia, 082251812371,,,2.8426922,117.2911248,https://maps.google.com/?cid=0x0:0x3aac2412828a727c,
supermarket,Toko,Toko Harapan Baru (BT),"Jl. Jeruk No.1, Tj. Selor Hilir, Kec. Tj. Selor, Kabupaten Bulungan, Kalimantan Utara 77214","Tj. Selor Hilir, Kec. Tj. Selor, Kabupaten Bulungan",KALIMANTAN UTARA,77214.0,Indonesia, 055222448,,,2.8461093,117.3678349,https://maps.google.com/?cid=0x0:0xb2c452bbbf877d44,
supermarket,Toko Swalayan,Toko Sumber Rejeki Abadi,"Jl. Durian, Tj. Selor Hilir, Kec. Tj. Selor, Kabupaten Bulungan, Kalimantan Utara 77214","Tj. Selor Hilir, Kec. Tj. Selor, Kabupaten Bulungan",KALIMANTAN UTARA,77214.0,Indonesia, 082154939900,,,2.8481694,117.3746919,https://maps.google.com/?cid=0x0:0x51f37ccab920e0ae,
supermarket,Toko Swalayan,Toko Panen Raya,"R9W8+5JP, Jl. Manggis III, Tj. Selor Hilir, Kec. Tj. Selor, Kabupaten Bulungan, Kalimantan Utara 77214","Jl. Manggis III, Tj. Selor Hilir, Kec. Tj. Selor, Kabupaten Bulungan",KALIMANTAN UTARA,77214.0,Indonesia,,,,2.8454562,117.3665891,https://maps.google.com/?cid=0x0:0x21bc7c65054e2fca,
supermarket,Toko Swalayan,Toko Sumber Rezeki,"R9QQ+7G9, Jl. Jelarai Raya, Tj. Selor Hilir, Kec. Tj. Selor, Kabupaten Bulungan, Kalimantan Utara 77215","Jl. Jelarai Raya, Tj. Selor Hilir, Kec. Tj. Selor, Kabupaten Bulungan",KALIMANTAN UTARA,77215.0,Indonesia,,,,2.83817,117.3888665,https://maps.google.com/?cid=0x0:0xbfdf985577765c26,
supermarket,Toko makanan beku,UMKM Mart,"V93C+QXQ, Tj. Selor Hilir, Kec. Tj. Selor, Kabupaten Bulungan, Kalimantan Utara 77216","Tj. Selor Hilir, Kec. Tj. Selor, Kabupaten Bulungan",KALIMANTAN UTARA,77216.0,Indonesia, 05222032644,,,2.8544722,117.3724725,https://maps.google.com/?cid=0x0:0x89a7daf9a3d324f2,
supermarket,Toko Swalayan,Alfamidi H. Maskur,"Jl. H. Maskur No.78, Tj. Selor Hilir, Kec. Tj. Selor, Kabupaten Bulungan, Kalimantan Utara 77214","Tj. Selor Hilir, Kec. Tj. Selor, Kabupaten Bulungan",KALIMANTAN UTARA,77214.0,Indonesia,,,,2.8393327,117.363208,https://maps.google.com/?cid=0x0:0x6fba98414c651130,
supermarket,Toko Alat Tulis Kantor,TOKO SHENBI,"Jl. Kimas Aji Kertosono No.RT.1 No.27, Karang Anyar, Kec. Tj. Palas, Kabupaten Bulungan, Kalimantan Utara 77214","Karang Anyar, Kec. Tj. Palas, Kabupaten Bulungan",KALIMANTAN UTARA,77214.0,Indonesia,,,,2.8350943,117.3536882,https://maps.google.com/?cid=0x0:0xdccf1dd57c19b609,
supermarket,Pusat Perbelanjaan,Toko Tanjung Mas,"R9P7+RP4, Jl. Kolonel Soetadji, soetadjie, Tj. Selor Hilir, Kec. Tj. Selor, Kabupaten Bulungan, Kalimantan Utara 77214","Jl. Kolonel Soetadji, soetadjie, Tj. Selor Hilir, Kec. Tj. Selor, Kabupaten Bulungan",KALIMANTAN UTARA,77214.0,Indonesia, 085246380500,,,2.8370101,117.3643422,https://maps.google.com/?cid=0x0:0xf30a7757d482f004,
supermarket,Toko,Toko Fajar Indah,"V88M+FW8, Jl. Skip II, Teras Baru, Kec. Tj. Selor, Kabupaten Bulungan, Kalimantan Utara 77212","Jl. Skip II, Teras Baru, Kec. Tj. Selor, Kabupaten Bulungan",KALIMANTAN UTARA,77212.0,Indonesia, 055222213,,,2.86615,117.334836,https://maps.google.com/?cid=0x0:0x794d094da47b3a5b,
supermarket,Toko Elektronik,Toko Eka Satya,"R9Q6+GP6, Jl. Katamso, Tj. Selor Hilir, Kec. Tj. Selor, Kabupaten Bulungan, Kalimantan Utara 77214","Jl. Katamso, Tj. Selor Hilir, Kec. Tj. Selor, Kabupaten Bulungan",KALIMANTAN UTARA,77214.0,Indonesia, 081254640511,,,2.83879,117.3617735,https://maps.google.com/?cid=0x0:0xccb2242195278c88,
supermarket,Restoran,PISANG IJO WD KALTARA,"R9R6+8MJ, Jl. Katamso, Tj. Selor Hilir, Kec. Tj. Selor, Kabupaten Bulungan, Kalimantan Utara 77214","Jl. Katamso, Tj. Selor Hilir, Kec. Tj. Selor, Kabupaten Bulungan",KALIMANTAN UTARA,77214.0,Indonesia, 081346354778,,,2.8408458,117.3616527,https://maps.google.com/?cid=0x0:0xfa0a33f1ed5b07f7,
supermarket,Toko bahan makanan,Rulilasmana,"R9Q4+M68, Unnamed Road, Tj. Palas Hilir, Kec. Tj. Palas, Kabupaten Bulungan, Kalimantan Utara 77214","Unnamed Road, Tj. Palas Hilir, Kec. Tj. Palas, Kabupaten Bulungan",KALIMANTAN UTARA,77214.0,Indonesia, 081957181795,,,2.8391613,117.3555852,https://maps.google.com/?cid=0x0:0xe3c008af53eb4daf,
supermarket,Toko bahan makanan,Toko Fodillah,"R9H5+3G5, Tj. Palas Hulu, Kec. Tj. Palas, Kabupaten Bulungan, Kalimantan Utara 77211","Tj. Palas Hulu, Kec. Tj. Palas, Kabupaten Bulungan",KALIMANTAN UTARA,77211.0,Indonesia,,,,2.8276251,117.3588659,https://maps.google.com/?cid=0x0:0xbe8d51481e2d3958,
supermarket,Toko,Toko We Bit,"V8HQ+MXC, Teras Nawang, Kec. Tj. Palas, Kabupaten Bulungan, Kalimantan Utara 77211","Teras Nawang, Kec. Tj. Palas, Kabupaten Bulungan",KALIMANTAN UTARA,77211.0,Indonesia,,,,2.8791879,117.339898,https://maps.google.com/?cid=0x0:0x4440f5d94663a880,
supermarket,Toko bahan makanan,Mandiri Djaya,"Jl. Skip I No.82, Tj. Selor Hilir, Kec. Tj. Selor, Kabupaten Bulungan, Kalimantan Utara 77214","Tj. Selor Hilir, Kec. Tj. Selor, Kabupaten Bulungan",KALIMANTAN UTARA,77214.0,Indonesia, 085247219046,,,2.8415177,117.364464,https://maps.google.com/?cid=0x0:0x9bdcba5f7feb3709,
supermarket,Toko bahan makanan,Toko Ayu,"Jl. Kasimuddin No.13, RT.1, Tj. Palas Tengah, Kec. Tj. Palas, Kabupaten Bulungan, Kalimantan Utara 77211","RT.1, Tj. Palas Tengah, Kec. Tj. Palas, Kabupaten Bulungan",KALIMANTAN UTARA,77211.0,Indonesia, 082252069272,,,2.8290575,117.3586062,https://maps.google.com/?cid=0x0:0xe12035c306ad2c17,
supermarket,Toko Aksesori Ponsel,Toko Endang Effata,"Jln.Mulawarman No.RT.2, Antutan, Kec. Tj. Palas, Kabupaten Bulungan, Kalimantan Utara 77217","Antutan, Kec. Tj. Palas, Kabupaten Bulungan",KALIMANTAN UTARA,77217.0,Indonesia, 082254671896,,,2.7534067,117.3003725,https://maps.google.com/?cid=0x0:0x6f1bde79243be905,
supermarket,Kios,Kios sembako dan pulsa,"Jl. Kasimuddin, Tj. Palas Hulu, Kec. Tj. Palas, Kabupaten Bulungan, Kalimantan Utara 77211","Tj. Palas Hulu, Kec. Tj. Palas, Kabupaten Bulungan",KALIMANTAN UTARA,77211.0,Indonesia,,,,2.8192434,117.3598125,https://maps.google.com/?cid=0x0:0x841a3d45a5f8dcdc,
supermarket,supermarket,Tokoh buah,"R9X5+C5, Salim Batu, Kec. Tj. Palas Tengah, Kabupaten Bulungan, Kalimantan Utara","Kabupaten Bulungan, Kalimantan Utara",KALIMANTAN UTARA,,Indonesia, 085822042932,,,2.8486158,117.3578902,https://maps.google.com/?cid=0x0:0x812e936a24f421cc,
supermarket,supermarket,Kalimantan Utara 77214,"Kabupaten Bulungan, Kalimantan Utara","Kabupaten Bulungan, Kalimantan Utara",KALIMANTAN UTARA,,Indonesia,,,,2.9077425,117.3675233,https://maps.google.com/?cid=0x0:0xb0bb64f1a0e0ca39,
supermarket,Restoran,F Mart Bulungan,"Tj. Selor Hilir, Kec. Tj. Palas Tengah, Kabupaten Bulungan, Kalimantan Utara 77216","Kec. Tj. Palas Tengah, Kabupaten Bulungan",KALIMANTAN UTARA,77216.0,Indonesia, 083843746499,,,2.8551586,117.3661466,https://maps.google.com/?cid=0x0:0x4280dd8a2c4f5034,
supermarket,Toko Perlengkapan Rumah,Toko Pak Sareh,"R8QQ+5Q9, Gn. Putih/Kr. Jenawi, Kec. Tj. Palas, Kabupaten Bulungan, Kalimantan Utara 77216","Gn. Putih/Kr. Jenawi, Kec. Tj. Palas, Kabupaten Bulungan",KALIMANTAN UTARA,77216.0,Indonesia,,,,2.8379144,117.3394846,https://maps.google.com/?cid=0x0:0xd242b7b36e6a72b6,
supermarket,Minimarket,Alfamidi Kasimuddin,"R9H5+8HJ, Jl. Kasimuddin, Tj. Palas Hulu, Kec. Tj. Palas, Kabupaten Bulungan, Kalimantan Utara 77211","Jl. Kasimuddin, Tj. Palas Hulu, Kec. Tj. Palas, Kabupaten Bulungan",KALIMANTAN UTARA,77211.0,Indonesia, 082111342410,,,2.8285467,117.3586795,https://maps.google.com/?cid=0x0:0x28af1151d3cf1f2b,
supermarket,Toko,MITRA ANDA,"Jl.Pramuka RT No.2, Karang Anyar, Kec. Tj. Palas, Kabupaten Bulungan, Kalimantan Utara 77216","Karang Anyar, Kec. Tj. Palas, Kabupaten Bulungan",KALIMANTAN UTARA,77216.0,Indonesia, 05522025076,,,2.8309414,117.3449671,https://maps.google.com/?cid=0x0:0x9ae0e0c042571ffd,
supermarket,Toko Makanan,Queen's Market  Urban Space,"R9V7+54H, Tj. Selor Hilir, Kec. Tj. Selor, Kabupaten Bulungan, Kalimantan Utara 77214","Tj. Selor Hilir, Kec. Tj. Selor, Kabupaten Bulungan",KALIMANTAN UTARA,77214.0,Indonesia, 083843746499,,,2.8429449,117.3628446,https://maps.google.com/?cid=0x0:0xbdf1e47238fb01c5,
supermarket,Toko Buah dan Sayur,Kios sayur pak no,"R9P4+44M, Jl. Pangeran, Tj. Palas Tengah, Kec. Tj. Palas, Kabupaten Bulungan, Kalimantan Utara 77214","Jl. Pangeran, Tj. Palas Tengah, Kec. Tj. Palas, Kabupaten Bulungan",KALIMANTAN UTARA,77214.0,Indonesia, 081346292363,,,2.8353338,117.3552848,https://maps.google.com/?cid=0x0:0xe468a53bce2aafdb,
supermarket,Pasar,Pasar Agropolitan Tanjung Palas,"R9M4+M57, Jl. Bendahara, Tj. Palas Tengah, Kec. Tj. Palas, Kabupaten Bulungan, Kalimantan Utara 77211","Jl. Bendahara, Tj. Palas Tengah, Kec. Tj. Palas, Kabupaten Bulungan",KALIMANTAN UTARA,77211.0,Indonesia,,,,2.8341601,117.3554102,https://maps.google.com/?cid=0x0:0x3f8905ff966d328c,
supermarket,Pusat Perbelanjaan,Toko Simpang 4.,"V83R+HPJ, Unnamed Road, Tj. Palas Hilir, Kec. Tj. Palas, Kabupaten Bulungan, Kalimantan Utara 77216","Unnamed Road, Tj. Palas Hilir, Kec. Tj. Palas, Kabupaten Bulungan",KALIMANTAN UTARA,77216.0,Indonesia,,,,2.8539621,117.3417773,https://maps.google.com/?cid=0x0:0x6a7cbb25232c4eb9,
supermarket,Minimarket,ZikriWaAhlam,"V9CG+QR4, Jl. Sabanar Lama, Salim Batu, Kec. Tj. Palas Tengah, Kabupaten Bulungan, Kalimantan Utara 77211","Jl. Sabanar Lama, Salim Batu, Kec. Tj. Palas Tengah, Kabupaten Bulungan",KALIMANTAN UTARA,77211.0,Indonesia, 082251303107,,,2.8718786,117.3770699,https://maps.google.com/?cid=0x0:0x58b821ad721339e9,
supermarket,Toko,Toko Harapan Baru (BT),"Jl. Jeruk No.1, Tj. Selor Hilir, Kec. Tj. Selor, Kabupaten Bulungan, Kalimantan Utara 77214","Tj. Selor Hilir, Kec. Tj. Selor, Kabupaten Bulungan",KALIMANTAN UTARA,77214.0,Indonesia, 055222448,,,2.8461093,117.3678349,https://maps.google.com/?cid=0x0:0xb2c452bbbf877d44,
supermarket,Toko makanan beku,UMKM Mart,"V93C+QXQ, Tj. Selor Hilir, Kec. Tj. Selor, Kabupaten Bulungan, Kalimantan Utara 77216","Tj. Selor Hilir, Kec. Tj. Selor, Kabupaten Bulungan",KALIMANTAN UTARA,77216.0,Indonesia, 05222032644,,,2.8544722,117.3724725,https://maps.google.com/?cid=0x0:0x89a7daf9a3d324f2,
supermarket,Toko Swalayan,Toko Sumber Rejeki Abadi,"Jl. Durian, Tj. Selor Hilir, Kec. Tj. Selor, Kabupaten Bulungan, Kalimantan Utara 77214","Tj. Selor Hilir, Kec. Tj. Selor, Kabupaten Bulungan",KALIMANTAN UTARA,77214.0,Indonesia, 082154939900,,,2.8481694,117.3746919,https://maps.google.com/?cid=0x0:0x51f37ccab920e0ae,
supermarket,Toko Swalayan,Alfamidi H. Maskur,"Jl. H. Maskur No.78, Tj. Selor Hilir, Kec. Tj. Selor, Kabupaten Bulungan, Kalimantan Utara 77214","Tj. Selor Hilir, Kec. Tj. Selor, Kabupaten Bulungan",KALIMANTAN UTARA,77214.0,Indonesia,,,,2.8393327,117.363208,https://maps.google.com/?cid=0x0:0x6fba98414c651130,
supermarket,Toko Alat Tulis Kantor,TOKO SHENBI,"Jl. Kimas Aji Kertosono No.RT.1 No.27, Karang Anyar, Kec. Tj. Palas, Kabupaten Bulungan, Kalimantan Utara 77214","Karang Anyar, Kec. Tj. Palas, Kabupaten Bulungan",KALIMANTAN UTARA,77214.0,Indonesia,,,,2.8350943,117.3536882,https://maps.google.com/?cid=0x0:0xdccf1dd57c19b609,
supermarket,Toko Swalayan,Toko Panen Raya,"R9W8+5JP, Jl. Manggis III, Tj. Selor Hilir, Kec. Tj. Selor, Kabupaten Bulungan, Kalimantan Utara 77214","Jl. Manggis III, Tj. Selor Hilir, Kec. Tj. Selor, Kabupaten Bulungan",KALIMANTAN UTARA,77214.0,Indonesia,,,,2.8454562,117.3665891,https://maps.google.com/?cid=0x0:0x21bc7c65054e2fca,
supermarket,Pusat Perbelanjaan,Toko Tanjung Mas,"R9P7+RP4, Jl. Kolonel Soetadji, soetadjie, Tj. Selor Hilir, Kec. Tj. Selor, Kabupaten Bulungan, Kalimantan Utara 77214","Jl. Kolonel Soetadji, soetadjie, Tj. Selor Hilir, Kec. Tj. Selor, Kabupaten Bulungan",KALIMANTAN UTARA,77214.0,Indonesia, 085246380500,,,2.8370101,117.3643422,https://maps.google.com/?cid=0x0:0xf30a7757d482f004,
supermarket,Toko Elektronik,Toko Eka Satya,"R9Q6+GP6, Jl. Katamso, Tj. Selor Hilir, Kec. Tj. Selor, Kabupaten Bulungan, Kalimantan Utara 77214","Jl. Katamso, Tj. Selor Hilir, Kec. Tj. Selor, Kabupaten Bulungan",KALIMANTAN UTARA,77214.0,Indonesia, 081254640511,,,2.83879,117.3617735,https://maps.google.com/?cid=0x0:0xccb2242195278c88,
supermarket,Toko Peralatan dan Bahan Kue,Toko bahan kue  Bakery Hens grocery,"Jl. Perum BPD, Tj. Selor Hilir, Kec. Tj. Selor, Kabupaten Bulungan, Kalimantan Utara 77212","Tj. Selor Hilir, Kec. Tj. Selor, Kabupaten Bulungan",KALIMANTAN UTARA,77212.0,Indonesia, 087777502750,,,2.8532656,117.3691548,https://maps.google.com/?cid=0x0:0x36efb9ff6787d9c,
supermarket,Restoran,PISANG IJO WD KALTARA,"R9R6+8MJ, Jl. Katamso, Tj. Selor Hilir, Kec. Tj. Selor, Kabupaten Bulungan, Kalimantan Utara 77214","Jl. Katamso, Tj. Selor Hilir, Kec. Tj. Selor, Kabupaten Bulungan",KALIMANTAN UTARA,77214.0,Indonesia, 081346354778,,,2.8408458,117.3616527,https://maps.google.com/?cid=0x0:0xfa0a33f1ed5b07f7,
supermarket,Toko bahan makanan,Rulilasmana,"R9Q4+M68, Unnamed Road, Tj. Palas Hilir, Kec. Tj. Palas, Kabupaten Bulungan, Kalimantan Utara 77214","Unnamed Road, Tj. Palas Hilir, Kec. Tj. Palas, Kabupaten Bulungan",KALIMANTAN UTARA,77214.0,Indonesia, 081957181795,,,2.8391613,117.3555852,https://maps.google.com/?cid=0x0:0xe3c008af53eb4daf,
supermarket,Toko bahan makanan,Toko Fodillah,"R9H5+3G5, Tj. Palas Hulu, Kec. Tj. Palas, Kabupaten Bulungan, Kalimantan Utara 77211","Tj. Palas Hulu, Kec. Tj. Palas, Kabupaten Bulungan",KALIMANTAN UTARA,77211.0,Indonesia,,,,2.8276251,117.3588659,https://maps.google.com/?cid=0x0:0xbe8d51481e2d3958,
supermarket,Toko umum,Toko Putra Jaya ( HASIB ),"5a, UPT Tanjung Buka sp, Salim Batu, Kec. Tj. Palas Tengah, Kabupaten Bulungan, Kalimantan Utara 77216","UPT Tanjung Buka sp, Salim Batu, Kec. Tj. Palas Tengah, Kabupaten Bulungan",KALIMANTAN UTARA,77216.0,Indonesia,,,,2.9175498,117.3837304,https://maps.google.com/?cid=0x0:0x90befca93f483c4e,
supermarket,supermarket,Tokoh buah,"R9X5+C5, Salim Batu, Kec. Tj. Palas Tengah, Kabupaten Bulungan, Kalimantan Utara","Kabupaten Bulungan, Kalimantan Utara",KALIMANTAN UTARA,,Indonesia, 085822042932,,,2.8486158,117.3578902,https://maps.google.com/?cid=0x0:0x812e936a24f421cc,
supermarket,Toko bahan makanan,Mandiri Djaya,"Jl. Skip I No.82, Tj. Selor Hilir, Kec. Tj. Selor, Kabupaten Bulungan, Kalimantan Utara 77214","Tj. Selor Hilir, Kec. Tj. Selor, Kabupaten Bulungan",KALIMANTAN UTARA,77214.0,Indonesia, 085247219046,,,2.8415177,117.364464,https://maps.google.com/?cid=0x0:0x9bdcba5f7feb3709,
supermarket,Ladang Angin,Warung Tebu,"R8PV+MQW, Karang Anyar, Kec. Tj. Palas, Kabupaten Bulungan, Kalimantan Utara 77216","Karang Anyar, Kec. Tj. Palas, Kabupaten Bulungan",KALIMANTAN UTARA,77216.0,Indonesia, 085247317413,,,2.8367402,117.344454,https://maps.google.com/?cid=0x0:0xf2f93ae2f1179e2f,
supermarket,Toko bahan makanan,Toko Arjuna,"Jl. Langsat No.34, Tj. Selor Hilir, Kec. Tj. Selor, Kabupaten Bulungan, Kalimantan Utara 77214","Tj. Selor Hilir, Kec. Tj. Selor, Kabupaten Bulungan",KALIMANTAN UTARA,77214.0,Indonesia,,,,2.8457125,117.369637,https://maps.google.com/?cid=0x0:0x3448577d3ead4dd0,
supermarket,Toko bahan makanan,Toko Ayu,"Jl. Kasimuddin No.13, RT.1, Tj. Palas Tengah, Kec. Tj. Palas, Kabupaten Bulungan, Kalimantan Utara 77211","RT.1, Tj. Palas Tengah, Kec. Tj. Palas, Kabupaten Bulungan",KALIMANTAN UTARA,77211.0,Indonesia, 082252069272,,,2.8290575,117.3586062,https://maps.google.com/?cid=0x0:0xe12035c306ad2c17,
supermarket,Minimarket,Ruko Mama Ijum,"R9P4+7J8, Jl. Sultan Agung, Tj. Palas Tengah, Kec. Tj. Palas, Kabupaten Bulungan, Kalimantan Utara 77214","Jl. Sultan Agung, Tj. Palas Tengah, Kec. Tj. Palas, Kabupaten Bulungan",KALIMANTAN UTARA,77214.0,Indonesia, 085348988182,,,2.8356526,117.356578,https://maps.google.com/?cid=0x0:0x5cbec194c2c4a904,
supermarket,supermarket,Kec. Tj. Palas,"Kabupaten Bulungan, Kalimantan Utara","Kabupaten Bulungan, Kalimantan Utara",KALIMANTAN UTARA,,Indonesia,,,,2.8335506,117.3412058,https://maps.google.com/?cid=0x0:0xf6c6997b9149e5ff,
supermarket,Toko Perlengkapan Rumah,Toko Pak Sareh,"R8QQ+5Q9, Gn. Putih/Kr. Jenawi, Kec. Tj. Palas, Kabupaten Bulungan, Kalimantan Utara 77216","Gn. Putih/Kr. Jenawi, Kec. Tj. Palas, Kabupaten Bulungan",KALIMANTAN UTARA,77216.0,Indonesia,,,,2.8379144,117.3394846,https://maps.google.com/?cid=0x0:0xd242b7b36e6a72b6,
supermarket,Minimarket,Alfamidi Kasimuddin,"R9H5+8HJ, Jl. Kasimuddin, Tj. Palas Hulu, Kec. Tj. Palas, Kabupaten Bulungan, Kalimantan Utara 77211","Jl. Kasimuddin, Tj. Palas Hulu, Kec. Tj. Palas, Kabupaten Bulungan",KALIMANTAN UTARA,77211.0,Indonesia, 082111342410,,,2.8285467,117.3586795,https://maps.google.com/?cid=0x0:0x28af1151d3cf1f2b,
supermarket,Restoran,F Mart Bulungan,"Tj. Selor Hilir, Kec. Tj. Palas Tengah, Kabupaten Bulungan, Kalimantan Utara 77216","Kec. Tj. Palas Tengah, Kabupaten Bulungan",KALIMANTAN UTARA,77216.0,Indonesia, 083843746499,,,2.8551586,117.3661466,https://maps.google.com/?cid=0x0:0x4280dd8a2c4f5034,
supermarket,Minimarket,ZikriWaAhlam,"V9CG+QR4, Jl. Sabanar Lama, Salim Batu, Kec. Tj. Palas Tengah, Kabupaten Bulungan, Kalimantan Utara 77211","Jl. Sabanar Lama, Salim Batu, Kec. Tj. Palas Tengah, Kabupaten Bulungan",KALIMANTAN UTARA,77211.0,Indonesia, 082251303107,,,2.8718786,117.3770699,https://maps.google.com/?cid=0x0:0x58b821ad721339e9,
supermarket,Toko Makanan,Queen's Market  Urban Space,"R9V7+54H, Tj. Selor Hilir, Kec. Tj. Selor, Kabupaten Bulungan, Kalimantan Utara 77214","Tj. Selor Hilir, Kec. Tj. Selor, Kabupaten Bulungan",KALIMANTAN UTARA,77214.0,Indonesia, 083843746499,,,2.8429449,117.3628446,https://maps.google.com/?cid=0x0:0xbdf1e47238fb01c5,
supermarket,Toko,PANEN SQUARE,"V93G+2CW, Tj. Selor Hilir, Kec. Tj. Selor, Kabupaten Bulungan, Kalimantan Utara 77216","Tj. Selor Hilir, Kec. Tj. Selor, Kabupaten Bulungan",KALIMANTAN UTARA,77216.0,Indonesia, 081255187770,,,2.8525916,117.3760836,https://maps.google.com/?cid=0x0:0x70f3a9182196c949,
supermarket,Toko Buah dan Sayur,Kios sayur pak no,"R9P4+44M, Jl. Pangeran, Tj. Palas Tengah, Kec. Tj. Palas, Kabupaten Bulungan, Kalimantan Utara 77214","Jl. Pangeran, Tj. Palas Tengah, Kec. Tj. Palas, Kabupaten Bulungan",KALIMANTAN UTARA,77214.0,Indonesia, 081346292363,,,2.8353338,117.3552848,https://maps.google.com/?cid=0x0:0xe468a53bce2aafdb,
supermarket,Pasar,Pasar Agropolitan Tanjung Palas,"R9M4+M57, Jl. Bendahara, Tj. Palas Tengah, Kec. Tj. Palas, Kabupaten Bulungan, Kalimantan Utara 77211","Jl. Bendahara, Tj. Palas Tengah, Kec. Tj. Palas, Kabupaten Bulungan",KALIMANTAN UTARA,77211.0,Indonesia,,,,2.8341601,117.3554102,https://maps.google.com/?cid=0x0:0x3f8905ff966d328c,
supermarket,Toko bahan makanan,rumah Hari Yanto,"R7VR+3CH rt08 RW 03, jalan Hasanudin, Pejalin, Kec. Tj. Palas, Kabupaten Bulungan, Kalimantan Utara 77211","jalan Hasanudin, Pejalin, Kec. Tj. Palas, Kabupaten Bulungan",KALIMANTAN UTARA,77211.0,Indonesia, 082251812371,,,2.8426922,117.2911248,https://maps.google.com/?cid=0x0:0x3aac2412828a727c,
supermarket,Toko Swalayan,Alfamidi H. Maskur,"Jl. H. Maskur No.78, Tj. Selor Hilir, Kec. Tj. Selor, Kabupaten Bulungan, Kalimantan Utara 77214","Tj. Selor Hilir, Kec. Tj. Selor, Kabupaten Bulungan",KALIMANTAN UTARA,77214.0,Indonesia,,,,2.8393327,117.363208,https://maps.google.com/?cid=0x0:0x6fba98414c651130,
supermarket,Toko Alat Tulis Kantor,TOKO SHENBI,"Jl. Kimas Aji Kertosono No.RT.1 No.27, Karang Anyar, Kec. Tj. Palas, Kabupaten Bulungan, Kalimantan Utara 77214","Karang Anyar, Kec. Tj. Palas, Kabupaten Bulungan",KALIMANTAN UTARA,77214.0,Indonesia,,,,2.8350943,117.3536882,https://maps.google.com/?cid=0x0:0xdccf1dd57c19b609,
supermarket,Toko makanan beku,UMKM Mart,"V93C+QXQ, Tj. Selor Hilir, Kec. Tj. Selor, Kabupaten Bulungan, Kalimantan Utara 77216","Tj. Selor Hilir, Kec. Tj. Selor, Kabupaten Bulungan",KALIMANTAN UTARA,77216.0,Indonesia, 05222032644,,,2.8544722,117.3724725,https://maps.google.com/?cid=0x0:0x89a7daf9a3d324f2,
supermarket,Toko,Toko Harapan Baru (BT),"Jl. Jeruk No.1, Tj. Selor Hilir, Kec. Tj. Selor, Kabupaten Bulungan, Kalimantan Utara 77214","Tj. Selor Hilir, Kec. Tj. Selor, Kabupaten Bulungan",KALIMANTAN UTARA,77214.0,Indonesia, 055222448,,,2.8461093,117.3678349,https://maps.google.com/?cid=0x0:0xb2c452bbbf877d44,
supermarket,Toko Elektronik,Toko Eka Satya,"R9Q6+GP6, Jl. Katamso, Tj. Selor Hilir, Kec. Tj. Selor, Kabupaten Bulungan, Kalimantan Utara 77214","Jl. Katamso, Tj. Selor Hilir, Kec. Tj. Selor, Kabupaten Bulungan",KALIMANTAN UTARA,77214.0,Indonesia, 081254640511,,,2.83879,117.3617735,https://maps.google.com/?cid=0x0:0xccb2242195278c88,
supermarket,Toko,Toko Fajar Indah,"V88M+FW8, Jl. Skip II, Teras Baru, Kec. Tj. Selor, Kabupaten Bulungan, Kalimantan Utara 77212","Jl. Skip II, Teras Baru, Kec. Tj. Selor, Kabupaten Bulungan",KALIMANTAN UTARA,77212.0,Indonesia, 055222213,,,2.86615,117.334836,https://maps.google.com/?cid=0x0:0x794d094da47b3a5b,
supermarket,Pusat Perbelanjaan,Toko Tanjung Mas,"R9P7+RP4, Jl. Kolonel Soetadji, soetadjie, Tj. Selor Hilir, Kec. Tj. Selor, Kabupaten Bulungan, Kalimantan Utara 77214","Jl. Kolonel Soetadji, soetadjie, Tj. Selor Hilir, Kec. Tj. Selor, Kabupaten Bulungan",KALIMANTAN UTARA,77214.0,Indonesia, 085246380500,,,2.8370101,117.3643422,https://maps.google.com/?cid=0x0:0xf30a7757d482f004,
supermarket,Toko Swalayan,Toko Panen Raya,"R9W8+5JP, Jl. Manggis III, Tj. Selor Hilir, Kec. Tj. Selor, Kabupaten Bulungan, Kalimantan Utara 77214","Jl. Manggis III, Tj. Selor Hilir, Kec. Tj. Selor, Kabupaten Bulungan",KALIMANTAN UTARA,77214.0,Indonesia,,,,2.8454562,117.3665891,https://maps.google.com/?cid=0x0:0x21bc7c65054e2fca,
supermarket,Restoran,PISANG IJO WD KALTARA,"R9R6+8MJ, Jl. Katamso, Tj. Selor Hilir, Kec. Tj. Selor, Kabupaten Bulungan, Kalimantan Utara 77214","Jl. Katamso, Tj. Selor Hilir, Kec. Tj. Selor, Kabupaten Bulungan",KALIMANTAN UTARA,77214.0,Indonesia, 081346354778,,,2.8408458,117.3616527,https://maps.google.com/?cid=0x0:0xfa0a33f1ed5b07f7,
supermarket,Toko Swalayan,Toko Sumber Rezeki,"R9QQ+7G9, Jl. Jelarai Raya, Tj. Selor Hilir, Kec. Tj. Selor, Kabupaten Bulungan, Kalimantan Utara 77215","Jl. Jelarai Raya, Tj. Selor Hilir, Kec. Tj. Selor, Kabupaten Bulungan",KALIMANTAN UTARA,77215.0,Indonesia,,,,2.83817,117.3888665,https://maps.google.com/?cid=0x0:0xbfdf985577765c26,
supermarket,Toko bahan makanan,Toko putri jaya,"36C8+H66, Jl. Ahmad Yani, Panca Agung, Kec. Tj. Palas Utara, Kabupaten Bulungan, Kalimantan Utara 77215","Jl. Ahmad Yani, Panca Agung, Kec. Tj. Palas Utara, Kabupaten Bulungan",KALIMANTAN UTARA,77215.0,Indonesia,,,,3.0714231,117.2155151,https://maps.google.com/?cid=0x0:0x56ee04d284959f71,
supermarket,Toko Swalayan,Toko Cahaya Mulia,"Ruhui Rahayu, Kec. Tj. Palas Utara, Kabupaten Bulungan, Kalimantan Utara 77215","Kec. Tj. Palas Utara, Kabupaten Bulungan",KALIMANTAN UTARA,77215.0,Indonesia, 081347584076,,,3.0640924,117.2464968,https://maps.google.com/?cid=0x0:0xb220a92fedf5aa87,
supermarket,Toko bahan makanan,Rulilasmana,"R9Q4+M68, Unnamed Road, Tj. Palas Hilir, Kec. Tj. Palas, Kabupaten Bulungan, Kalimantan Utara 77214","Unnamed Road, Tj. Palas Hilir, Kec. Tj. Palas, Kabupaten Bulungan",KALIMANTAN UTARA,77214.0,Indonesia, 081957181795,,,2.8391613,117.3555852,https://maps.google.com/?cid=0x0:0xe3c008af53eb4daf,
supermarket,Toko bahan makanan,Toko Fodillah,"R9H5+3G5, Tj. Palas Hulu, Kec. Tj. Palas, Kabupaten Bulungan, Kalimantan Utara 77211","Tj. Palas Hulu, Kec. Tj. Palas, Kabupaten Bulungan",KALIMANTAN UTARA,77211.0,Indonesia,,,,2.8276251,117.3588659,https://maps.google.com/?cid=0x0:0xbe8d51481e2d3958,
supermarket,Toko,Toko We Bit,"V8HQ+MXC, Teras Nawang, Kec. Tj. Palas, Kabupaten Bulungan, Kalimantan Utara 77211","Teras Nawang, Kec. Tj. Palas, Kabupaten Bulungan",KALIMANTAN UTARA,77211.0,Indonesia,,,,2.8791879,117.339898,https://maps.google.com/?cid=0x0:0x4440f5d94663a880,
supermarket,Toko Aksesori Ponsel,Toko Endang Effata,"Jln.Mulawarman No.RT.2, Antutan, Kec. Tj. Palas, Kabupaten Bulungan, Kalimantan Utara 77217","Antutan, Kec. Tj. Palas, Kabupaten Bulungan",KALIMANTAN UTARA,77217.0,Indonesia, 082254671896,,,2.7534067,117.3003725,https://maps.google.com/?cid=0x0:0x6f1bde79243be905,
supermarket,supermarket,Tokoh buah,"R9X5+C5, Salim Batu, Kec. Tj. Palas Tengah, Kabupaten Bulungan, Kalimantan Utara","Kabupaten Bulungan, Kalimantan Utara",KALIMANTAN UTARA,,Indonesia, 085822042932,,,2.8486158,117.3578902,https://maps.google.com/?cid=0x0:0x812e936a24f421cc,
supermarket,Toko bahan makanan,Toko Ayu,"Jl. Kasimuddin No.13, RT.1, Tj. Palas Tengah, Kec. Tj. Palas, Kabupaten Bulungan, Kalimantan Utara 77211","RT.1, Tj. Palas Tengah, Kec. Tj. Palas, Kabupaten Bulungan",KALIMANTAN UTARA,77211.0,Indonesia, 082252069272,,,2.8290575,117.3586062,https://maps.google.com/?cid=0x0:0xe12035c306ad2c17,
supermarket,Kios,Kios sembako dan pulsa,"Jl. Kasimuddin, Tj. Palas Hulu, Kec. Tj. Palas, Kabupaten Bulungan, Kalimantan Utara 77211","Tj. Palas Hulu, Kec. Tj. Palas, Kabupaten Bulungan",KALIMANTAN UTARA,77211.0,Indonesia,,,,2.8192434,117.3598125,https://maps.google.com/?cid=0x0:0x841a3d45a5f8dcdc,
supermarket,supermarket,Kalimantan Utara 77216,"Kec. Tj. Palas Tengah, Kabupaten Bulungan, Kalimantan Utara","Kabupaten Bulungan, Kalimantan Utara",KALIMANTAN UTARA,,Indonesia,,,,2.9980617,117.5026174,https://maps.google.com/?cid=0x0:0x79c11fd9905607e6,
supermarket,Toko Perlengkapan Rumah,Toko Pak Sareh,"R8QQ+5Q9, Gn. Putih/Kr. Jenawi, Kec. Tj. Palas, Kabupaten Bulungan, Kalimantan Utara 77216","Gn. Putih/Kr. Jenawi, Kec. Tj. Palas, Kabupaten Bulungan",KALIMANTAN UTARA,77216.0,Indonesia,,,,2.8379144,117.3394846,https://maps.google.com/?cid=0x0:0xd242b7b36e6a72b6,
supermarket,Toko,PANEN SQUARE,"V93G+2CW, Tj. Selor Hilir, Kec. Tj. Selor, Kabupaten Bulungan, Kalimantan Utara 77216","Tj. Selor Hilir, Kec. Tj. Selor, Kabupaten Bulungan",KALIMANTAN UTARA,77216.0,Indonesia, 081255187770,,,2.8525916,117.3760836,https://maps.google.com/?cid=0x0:0x70f3a9182196c949,
supermarket,Restoran,F Mart Bulungan,"Tj. Selor Hilir, Kec. Tj. Palas Tengah, Kabupaten Bulungan, Kalimantan Utara 77216","Kec. Tj. Palas Tengah, Kabupaten Bulungan",KALIMANTAN UTARA,77216.0,Indonesia, 083843746499,,,2.8551586,117.3661466,https://maps.google.com/?cid=0x0:0x4280dd8a2c4f5034,
supermarket,Minimarket,Alfamidi Kasimuddin,"R9H5+8HJ, Jl. Kasimuddin, Tj. Palas Hulu, Kec. Tj. Palas, Kabupaten Bulungan, Kalimantan Utara 77211","Jl. Kasimuddin, Tj. Palas Hulu, Kec. Tj. Palas, Kabupaten Bulungan",KALIMANTAN UTARA,77211.0,Indonesia, 082111342410,,,2.8285467,117.3586795,https://maps.google.com/?cid=0x0:0x28af1151d3cf1f2b,
supermarket,Minimarket,ZikriWaAhlam,"V9CG+QR4, Jl. Sabanar Lama, Salim Batu, Kec. Tj. Palas Tengah, Kabupaten Bulungan, Kalimantan Utara 77211","Jl. Sabanar Lama, Salim Batu, Kec. Tj. Palas Tengah, Kabupaten Bulungan",KALIMANTAN UTARA,77211.0,Indonesia, 082251303107,,,2.8718786,117.3770699,https://maps.google.com/?cid=0x0:0x58b821ad721339e9,
supermarket,Pasar,Pasar Agropolitan Tanjung Palas,"R9M4+M57, Jl. Bendahara, Tj. Palas Tengah, Kec. Tj. Palas, Kabupaten Bulungan, Kalimantan Utara 77211","Jl. Bendahara, Tj. Palas Tengah, Kec. Tj. Palas, Kabupaten Bulungan",KALIMANTAN UTARA,77211.0,Indonesia,,,,2.8341601,117.3554102,https://maps.google.com/?cid=0x0:0x3f8905ff966d328c,
supermarket,Toko Makanan,Queen's Market  Urban Space,"R9V7+54H, Tj. Selor Hilir, Kec. Tj. Selor, Kabupaten Bulungan, Kalimantan Utara 77214","Tj. Selor Hilir, Kec. Tj. Selor, Kabupaten Bulungan",KALIMANTAN UTARA,77214.0,Indonesia, 083843746499,,,2.8429449,117.3628446,https://maps.google.com/?cid=0x0:0xbdf1e47238fb01c5,
supermarket,Toko Buah dan Sayur,Kios sayur pak no,"R9P4+44M, Jl. Pangeran, Tj. Palas Tengah, Kec. Tj. Palas, Kabupaten Bulungan, Kalimantan Utara 77214","Jl. Pangeran, Tj. Palas Tengah, Kec. Tj. Palas, Kabupaten Bulungan",KALIMANTAN UTARA,77214.0,Indonesia, 081346292363,,,2.8353338,117.3552848,https://maps.google.com/?cid=0x0:0xe468a53bce2aafdb,
supermarket,Toko Swalayan,Toko Sumber Rejeki Abadi,"Jl. Durian, Tj. Selor Hilir, Kec. Tj. Selor, Kabupaten Bulungan, Kalimantan Utara 77214","Tj. Selor Hilir, Kec. Tj. Selor, Kabupaten Bulungan",KALIMANTAN UTARA,77214.0,Indonesia, 082154939900,,,2.8481694,117.3746919,https://maps.google.com/?cid=0x0:0x51f37ccab920e0ae,
supermarket,Toko bahan makanan,rumah Hari Yanto,"R7VR+3CH rt08 RW 03, jalan Hasanudin, Pejalin, Kec. Tj. Palas, Kabupaten Bulungan, Kalimantan Utara 77211","jalan Hasanudin, Pejalin, Kec. Tj. Palas, Kabupaten Bulungan",KALIMANTAN UTARA,77211.0,Indonesia, 082251812371,,,2.8426922,117.2911248,https://maps.google.com/?cid=0x0:0x3aac2412828a727c,
supermarket,Toko makanan beku,UMKM Mart,"V93C+QXQ, Tj. Selor Hilir, Kec. Tj. Selor, Kabupaten Bulungan, Kalimantan Utara 77216","Tj. Selor Hilir, Kec. Tj. Selor, Kabupaten Bulungan",KALIMANTAN UTARA,77216.0,Indonesia, 05222032644,,,2.8544722,117.3724725,https://maps.google.com/?cid=0x0:0x89a7daf9a3d324f2,
supermarket,Toko Swalayan,Toko Cahaya Mulia,"Ruhui Rahayu, Kec. Tj. Palas Utara, Kabupaten Bulungan, Kalimantan Utara 77215","Kec. Tj. Palas Utara, Kabupaten Bulungan",KALIMANTAN UTARA,77215.0,Indonesia, 081347584076,,,3.0640924,117.2464968,https://maps.google.com/?cid=0x0:0xb220a92fedf5aa87,
supermarket,Toko,Toko Harapan Baru (BT),"Jl. Jeruk No.1, Tj. Selor Hilir, Kec. Tj. Selor, Kabupaten Bulungan, Kalimantan Utara 77214","Tj. Selor Hilir, Kec. Tj. Selor, Kabupaten Bulungan",KALIMANTAN UTARA,77214.0,Indonesia, 055222448,,,2.8461093,117.3678349,https://maps.google.com/?cid=0x0:0xb2c452bbbf877d44,
supermarket,Toko Swalayan,Toko Sumber Rezeki,"R9QQ+7G9, Jl. Jelarai Raya, Tj. Selor Hilir, Kec. Tj. Selor, Kabupaten Bulungan, Kalimantan Utara 77215","Jl. Jelarai Raya, Tj. Selor Hilir, Kec. Tj. Selor, Kabupaten Bulungan",KALIMANTAN UTARA,77215.0,Indonesia,,,,2.83817,117.3888665,https://maps.google.com/?cid=0x0:0xbfdf985577765c26,
supermarket,Toko,Toko ***AZKY***,"365W+5QW, Ruhui Rahayu, Kec. Tj. Palas Utara, Kabupaten Bulungan, Kalimantan Utara 77215","Ruhui Rahayu, Kec. Tj. Palas Utara, Kabupaten Bulungan",KALIMANTAN UTARA,77215.0,Indonesia,,,,3.057992,117.24694,https://maps.google.com/?cid=0x0:0x3ee0874dfe54579,
supermarket,Toko Swalayan,Toko Panen Raya,"R9W8+5JP, Jl. Manggis III, Tj. Selor Hilir, Kec. Tj. Selor, Kabupaten Bulungan, Kalimantan Utara 77214","Jl. Manggis III, Tj. Selor Hilir, Kec. Tj. Selor, Kabupaten Bulungan",KALIMANTAN UTARA,77214.0,Indonesia,,,,2.8454562,117.3665891,https://maps.google.com/?cid=0x0:0x21bc7c65054e2fca,
supermarket,Toko Swalayan,Alfamidi H. Maskur,"Jl. H. Maskur No.78, Tj. Selor Hilir, Kec. Tj. Selor, Kabupaten Bulungan, Kalimantan Utara 77214","Tj. Selor Hilir, Kec. Tj. Selor, Kabupaten Bulungan",KALIMANTAN UTARA,77214.0,Indonesia,,,,2.8393327,117.363208,https://maps.google.com/?cid=0x0:0x6fba98414c651130,
supermarket,Toko bahan makanan,Toko putri jaya,"36C8+H66, Jl. Ahmad Yani, Panca Agung, Kec. Tj. Palas Utara, Kabupaten Bulungan, Kalimantan Utara 77215","Jl. Ahmad Yani, Panca Agung, Kec. Tj. Palas Utara, Kabupaten Bulungan",KALIMANTAN UTARA,77215.0,Indonesia,,,,3.0714231,117.2155151,https://maps.google.com/?cid=0x0:0x56ee04d284959f71,
supermarket,Minimarket,Toko Simpang Lima,"36M7+6QP, Panca Agung, Kec. Tj. Palas Utara, Kabupaten Bulungan, Kalimantan Utara 77215","Panca Agung, Kec. Tj. Palas Utara, Kabupaten Bulungan",KALIMANTAN UTARA,77215.0,Indonesia, 082158595656,,,3.083083,117.2144504,https://maps.google.com/?cid=0x0:0x9ac58f5fac06d91d,
supermarket,Pusat Perbelanjaan,Toko Tanjung Mas,"R9P7+RP4, Jl. Kolonel Soetadji, soetadjie, Tj. Selor Hilir, Kec. Tj. Selor, Kabupaten Bulungan, Kalimantan Utara 77214","Jl. Kolonel Soetadji, soetadjie, Tj. Selor Hilir, Kec. Tj. Selor, Kabupaten Bulungan",KALIMANTAN UTARA,77214.0,Indonesia, 085246380500,,,2.8370101,117.3643422,https://maps.google.com/?cid=0x0:0xf30a7757d482f004,
supermarket,Toko Alat Tulis Kantor,TOKO SHENBI,"Jl. Kimas Aji Kertosono No.RT.1 No.27, Karang Anyar, Kec. Tj. Palas, Kabupaten Bulungan, Kalimantan Utara 77214","Karang Anyar, Kec. Tj. Palas, Kabupaten Bulungan",KALIMANTAN UTARA,77214.0,Indonesia,,,,2.8350943,117.3536882,https://maps.google.com/?cid=0x0:0xdccf1dd57c19b609,
supermarket,Toko bahan makanan,Toko Fodillah,"R9H5+3G5, Tj. Palas Hulu, Kec. Tj. Palas, Kabupaten Bulungan, Kalimantan Utara 77211","Tj. Palas Hulu, Kec. Tj. Palas, Kabupaten Bulungan",KALIMANTAN UTARA,77211.0,Indonesia,,,,2.8276251,117.3588659,https://maps.google.com/?cid=0x0:0xbe8d51481e2d3958,
supermarket,Toko bahan makanan,Rulilasmana,"R9Q4+M68, Unnamed Road, Tj. Palas Hilir, Kec. Tj. Palas, Kabupaten Bulungan, Kalimantan Utara 77214","Unnamed Road, Tj. Palas Hilir, Kec. Tj. Palas, Kabupaten Bulungan",KALIMANTAN UTARA,77214.0,Indonesia, 081957181795,,,2.8391613,117.3555852,https://maps.google.com/?cid=0x0:0xe3c008af53eb4daf,
supermarket,Toko umum,Toko Putra Jaya ( HASIB ),"5a, UPT Tanjung Buka sp, Salim Batu, Kec. Tj. Palas Tengah, Kabupaten Bulungan, Kalimantan Utara 77216","UPT Tanjung Buka sp, Salim Batu, Kec. Tj. Palas Tengah, Kabupaten Bulungan",KALIMANTAN UTARA,77216.0,Indonesia,,,,2.9175498,117.3837304,https://maps.google.com/?cid=0x0:0x90befca93f483c4e,
supermarket,supermarket,Tokoh buah,"R9X5+C5, Salim Batu, Kec. Tj. Palas Tengah, Kabupaten Bulungan, Kalimantan Utara","Kabupaten Bulungan, Kalimantan Utara",KALIMANTAN UTARA,,Indonesia, 085822042932,,,2.8486158,117.3578902,https://maps.google.com/?cid=0x0:0x812e936a24f421cc,
supermarket,Toko bahan makanan,Toko Arjuna,"Jl. Langsat No.34, Tj. Selor Hilir, Kec. Tj. Selor, Kabupaten Bulungan, Kalimantan Utara 77214","Tj. Selor Hilir, Kec. Tj. Selor, Kabupaten Bulungan",KALIMANTAN UTARA,77214.0,Indonesia,,,,2.8457125,117.369637,https://maps.google.com/?cid=0x0:0x3448577d3ead4dd0,
supermarket,Toko,Sembako Diana,"X82X+854, Silva Rahayu, Kec. Tj. Palas Tengah, Kabupaten Bulungan, Kalimantan Utara 77216","Silva Rahayu, Kec. Tj. Palas Tengah, Kabupaten Bulungan",KALIMANTAN UTARA,77216.0,Indonesia,,,,2.9507631,117.3479415,https://maps.google.com/?cid=0x0:0xa498149b83f97159,
supermarket,Toko bahan makanan,Kios Rahmat Jaya,"V9CH+GRW, Jl. Sabanar Lama, Tj. Selor Hilir, Kec. Tj. Palas Tengah, Kabupaten Bulungan, Kalimantan Utara 77211","Jl. Sabanar Lama, Tj. Selor Hilir, Kec. Tj. Palas Tengah, Kabupaten Bulungan",KALIMANTAN UTARA,77211.0,Indonesia, 085349514792,,,2.8713731,117.3795652,https://maps.google.com/?cid=0x0:0xe023a85584ade05,
supermarket,supermarket,Kalimantan Timur 77217,"Kabupaten Bulungan, Kalimantan Timur","Kabupaten Bulungan, Kalimantan Timur",KALIMANTAN UTARA,,Indonesia,,,,2.719535,117.2205771,https://maps.google.com/?cid=0x0:0x639273c2b96cd605,
supermarket,Toko Ponsel,NABIL CELL ( KIOS NABIL),"Long Beluah, Kec. Tj. Palas Bar., Kabupaten Bulungan, Kalimantan Utara 77261","Kec. Tj. Palas Bar., Kabupaten Bulungan",KALIMANTAN UTARA,77261.0,Indonesia, 082251530093,,,2.732871,117.1267565,https://maps.google.com/?cid=0x0:0xdf3d52641a00c928,
supermarket,Toko Aksesori Ponsel,Toko Endang Effata,"Jln.Mulawarman No.RT.2, Antutan, Kec. Tj. Palas, Kabupaten Bulungan, Kalimantan Utara 77217","Antutan, Kec. Tj. Palas, Kabupaten Bulungan",KALIMANTAN UTARA,77217.0,Indonesia, 082254671896,,,2.7534067,117.3003725,https://maps.google.com/?cid=0x0:0x6f1bde79243be905,
supermarket,Toko Kelontong Asia,Toko Glory Antutan,"Q832+3GR, Antutan, Kec. Tj. Palas, Kabupaten Bulungan, Kalimantan Utara 77217","Antutan, Kec. Tj. Palas, Kabupaten Bulungan",KALIMANTAN UTARA,77217.0,Indonesia, 081258641185,,,2.7527286,117.301262,https://maps.google.com/?cid=0x0:0x3cd6374967e9db22,
supermarket,Toko bahan makanan,Toko Bunga Muda,"P4GJ+M63, Long Beluah, Kec. Tj. Palas Bar., Kabupaten Bulungan, Kalimantan Utara 77261","Long Beluah, Kec. Tj. Palas Bar., Kabupaten Bulungan",KALIMANTAN UTARA,77261.0,Indonesia, 085247510959,,,2.7266283,117.1305408,https://maps.google.com/?cid=0x0:0xd114281861c4695a,
supermarket,Toko bahan makanan,UD. LIMA JAYA,"Long Beluah, Kec. Tj. Palas Bar., Kabupaten Bulungan, Kalimantan Utara 77261","Kec. Tj. Palas Bar., Kabupaten Bulungan",KALIMANTAN UTARA,77261.0,Indonesia, 082159132739,,,2.7377515,117.1227353,https://maps.google.com/?cid=0x0:0x92f5fb732d809859,
supermarket,Toko bahan makanan,Toko Mas Kayan,"P4PF+FXC, Long Beluah, Kec. Tj. Palas Bar., Kabupaten Bulungan, Kalimantan Utara 77261","Long Beluah, Kec. Tj. Palas Bar., Kabupaten Bulungan",KALIMANTAN UTARA,77261.0,Indonesia, 08115407654,,,2.7361752,117.1248971,https://maps.google.com/?cid=0x0:0xe1fff82852fb44c8,
supermarket,Toko Perlengkapan Rumah,Toko Pak Sareh,"R8QQ+5Q9, Gn. Putih/Kr. Jenawi, Kec. Tj. Palas, Kabupaten Bulungan, Kalimantan Utara 77216","Gn. Putih/Kr. Jenawi, Kec. Tj. Palas, Kabupaten Bulungan",KALIMANTAN UTARA,77216.0,Indonesia,,,,2.8379144,117.3394846,https://maps.google.com/?cid=0x0:0xd242b7b36e6a72b6,
supermarket,Toko,MITRA ANDA,"Jl.Pramuka RT No.2, Karang Anyar, Kec. Tj. Palas, Kabupaten Bulungan, Kalimantan Utara 77216","Karang Anyar, Kec. Tj. Palas, Kabupaten Bulungan",KALIMANTAN UTARA,77216.0,Indonesia, 05522025076,,,2.8309414,117.3449671,https://maps.google.com/?cid=0x0:0x9ae0e0c042571ffd,
supermarket,Toko,PANEN SQUARE,"V93G+2CW, Tj. Selor Hilir, Kec. Tj. Selor, Kabupaten Bulungan, Kalimantan Utara 77216","Tj. Selor Hilir, Kec. Tj. Selor, Kabupaten Bulungan",KALIMANTAN UTARA,77216.0,Indonesia, 081255187770,,,2.8525916,117.3760836,https://maps.google.com/?cid=0x0:0x70f3a9182196c949,
supermarket,Pasar,Pasar Agropolitan Tanjung Palas,"R9M4+M57, Jl. Bendahara, Tj. Palas Tengah, Kec. Tj. Palas, Kabupaten Bulungan, Kalimantan Utara 77211","Jl. Bendahara, Tj. Palas Tengah, Kec. Tj. Palas, Kabupaten Bulungan",KALIMANTAN UTARA,77211.0,Indonesia,,,,2.8341601,117.3554102,https://maps.google.com/?cid=0x0:0x3f8905ff966d328c,
supermarket,,ADINEFA CAKE,"Q832+35F, Jl.Mulawarman, RT.02/RW.02, Antutan, Kec. Tj. Palas, Kabupaten Bulungan, Kalimantan Utara 77217","Jl.Mulawarman, RT.02/RW.02, Antutan, Kec. Tj. Palas, Kabupaten Bulungan",KALIMANTAN UTARA,77217.0,Indonesia, 081347573318,,,2.7526806,117.300437,https://maps.google.com/?cid=0x0:0xb84cbc919855f67e,
supermarket,Toko bahan makanan,rumah Hari Yanto,"R7VR+3CH rt08 RW 03, jalan Hasanudin, Pejalin, Kec. Tj. Palas, Kabupaten Bulungan, Kalimantan Utara 77211","jalan Hasanudin, Pejalin, Kec. Tj. Palas, Kabupaten Bulungan",KALIMANTAN UTARA,77211.0,Indonesia, 082251812371,,,2.8426922,117.2911248,https://maps.google.com/?cid=0x0:0x3aac2412828a727c,
supermarket,Kios,Kios sembako dan pulsa,"Jl. Kasimuddin, Tj. Palas Hulu, Kec. Tj. Palas, Kabupaten Bulungan, Kalimantan Utara 77211","Tj. Palas Hulu, Kec. Tj. Palas, Kabupaten Bulungan",KALIMANTAN UTARA,77211.0,Indonesia,,,,2.8192434,117.3598125,https://maps.google.com/?cid=0x0:0x841a3d45a5f8dcdc,
supermarket,supermarket,Toko Citra,"Desa No.Rt. 06, Antutan, Kec. Tj. Palas, Kabupaten Bulungan, Kalimantan Utara 77217","Antutan, Kec. Tj. Palas, Kabupaten Bulungan",KALIMANTAN UTARA,77217.0,Indonesia,,,,2.7549247,117.3006086,https://maps.google.com/?cid=0x0:0x551a8c62b3e141c9,
supermarket,supermarket,MARA SATU SMJ,"Jl. Dermaga No.RT. 03, Mara Satu, Kec. Tj. Palas Bar., Kabupaten Bulungan, Kalimantan Utara 77217","Mara Satu, Kec. Tj. Palas Bar., Kabupaten Bulungan",KALIMANTAN UTARA,77217.0,Indonesia,,,,2.7519883,117.23709,https://maps.google.com/?cid=0x0:0x8680d75843024818,
supermarket,supermarket,Kalimantan Utara 77216,"Kec. Tj. Palas Tengah, Kabupaten Bulungan, Kalimantan Utara","Kabupaten Bulungan, Kalimantan Utara",KALIMANTAN UTARA,,Indonesia,,,,2.9980617,117.5026174,https://maps.google.com/?cid=0x0:0x79c11fd9905607e6,
supermarket,Toko Perlengkapan Rumah,Toko Pak Sareh,"R8QQ+5Q9, Gn. Putih/Kr. Jenawi, Kec. Tj. Palas, Kabupaten Bulungan, Kalimantan Utara 77216","Gn. Putih/Kr. Jenawi, Kec. Tj. Palas, Kabupaten Bulungan",KALIMANTAN UTARA,77216.0,Indonesia,,,,2.8379144,117.3394846,https://maps.google.com/?cid=0x0:0xd242b7b36e6a72b6,
supermarket,Toko,PANEN SQUARE,"V93G+2CW, Tj. Selor Hilir, Kec. Tj. Selor, Kabupaten Bulungan, Kalimantan Utara 77216","Tj. Selor Hilir, Kec. Tj. Selor, Kabupaten Bulungan",KALIMANTAN UTARA,77216.0,Indonesia, 081255187770,,,2.8525916,117.3760836,https://maps.google.com/?cid=0x0:0x70f3a9182196c949,
supermarket,Restoran,F Mart Bulungan,"Tj. Selor Hilir, Kec. Tj. Palas Tengah, Kabupaten Bulungan, Kalimantan Utara 77216","Kec. Tj. Palas Tengah, Kabupaten Bulungan",KALIMANTAN UTARA,77216.0,Indonesia, 083843746499,,,2.8551586,117.3661466,https://maps.google.com/?cid=0x0:0x4280dd8a2c4f5034,
supermarket,Minimarket,ZikriWaAhlam,"V9CG+QR4, Jl. Sabanar Lama, Salim Batu, Kec. Tj. Palas Tengah, Kabupaten Bulungan, Kalimantan Utara 77211","Jl. Sabanar Lama, Salim Batu, Kec. Tj. Palas Tengah, Kabupaten Bulungan",KALIMANTAN UTARA,77211.0,Indonesia, 082251303107,,,2.8718786,117.3770699,https://maps.google.com/?cid=0x0:0x58b821ad721339e9,
supermarket,Pasar,Pasar Agropolitan Tanjung Palas,"R9M4+M57, Jl. Bendahara, Tj. Palas Tengah, Kec. Tj. Palas, Kabupaten Bulungan, Kalimantan Utara 77211","Jl. Bendahara, Tj. Palas Tengah, Kec. Tj. Palas, Kabupaten Bulungan",KALIMANTAN UTARA,77211.0,Indonesia,,,,2.8341601,117.3554102,https://maps.google.com/?cid=0x0:0x3f8905ff966d328c,
supermarket,Minimarket,Alfamidi Kasimuddin,"R9H5+8HJ, Jl. Kasimuddin, Tj. Palas Hulu, Kec. Tj. Palas, Kabupaten Bulungan, Kalimantan Utara 77211","Jl. Kasimuddin, Tj. Palas Hulu, Kec. Tj. Palas, Kabupaten Bulungan",KALIMANTAN UTARA,77211.0,Indonesia, 082111342410,,,2.8285467,117.3586795,https://maps.google.com/?cid=0x0:0x28af1151d3cf1f2b,
supermarket,Toko makanan beku,UMKM Mart,"V93C+QXQ, Tj. Selor Hilir, Kec. Tj. Selor, Kabupaten Bulungan, Kalimantan Utara 77216","Tj. Selor Hilir, Kec. Tj. Selor, Kabupaten Bulungan",KALIMANTAN UTARA,77216.0,Indonesia, 05222032644,,,2.8544722,117.3724725,https://maps.google.com/?cid=0x0:0x89a7daf9a3d324f2,
supermarket,Toko Buah dan Sayur,Kios sayur pak no,"R9P4+44M, Jl. Pangeran, Tj. Palas Tengah, Kec. Tj. Palas, Kabupaten Bulungan, Kalimantan Utara 77214","Jl. Pangeran, Tj. Palas Tengah, Kec. Tj. Palas, Kabupaten Bulungan",KALIMANTAN UTARA,77214.0,Indonesia, 081346292363,,,2.8353338,117.3552848,https://maps.google.com/?cid=0x0:0xe468a53bce2aafdb,
supermarket,Toko Swalayan,Toko Sumber Rejeki Abadi,"Jl. Durian, Tj. Selor Hilir, Kec. Tj. Selor, Kabupaten Bulungan, Kalimantan Utara 77214","Tj. Selor Hilir, Kec. Tj. Selor, Kabupaten Bulungan",KALIMANTAN UTARA,77214.0,Indonesia, 082154939900,,,2.8481694,117.3746919,https://maps.google.com/?cid=0x0:0x51f37ccab920e0ae,
supermarket,Toko Makanan,Queen's Market  Urban Space,"R9V7+54H, Tj. Selor Hilir, Kec. Tj. Selor, Kabupaten Bulungan, Kalimantan Utara 77214","Tj. Selor Hilir, Kec. Tj. Selor, Kabupaten Bulungan",KALIMANTAN UTARA,77214.0,Indonesia, 083843746499,,,2.8429449,117.3628446,https://maps.google.com/?cid=0x0:0xbdf1e47238fb01c5,
supermarket,Toko bahan makanan,rumah Hari Yanto,"R7VR+3CH rt08 RW 03, jalan Hasanudin, Pejalin, Kec. Tj. Palas, Kabupaten Bulungan, Kalimantan Utara 77211","jalan Hasanudin, Pejalin, Kec. Tj. Palas, Kabupaten Bulungan",KALIMANTAN UTARA,77211.0,Indonesia, 082251812371,,,2.8426922,117.2911248,https://maps.google.com/?cid=0x0:0x3aac2412828a727c,
supermarket,Toko Swalayan,Toko Cahaya Mulia,"Ruhui Rahayu, Kec. Tj. Palas Utara, Kabupaten Bulungan, Kalimantan Utara 77215","Kec. Tj. Palas Utara, Kabupaten Bulungan",KALIMANTAN UTARA,77215.0,Indonesia, 081347584076,,,3.0640924,117.2464968,https://maps.google.com/?cid=0x0:0xb220a92fedf5aa87,
supermarket,Toko Swalayan,Toko Sumber Rezeki,"R9QQ+7G9, Jl. Jelarai Raya, Tj. Selor Hilir, Kec. Tj. Selor, Kabupaten Bulungan, Kalimantan Utara 77215","Jl. Jelarai Raya, Tj. Selor Hilir, Kec. Tj. Selor, Kabupaten Bulungan",KALIMANTAN UTARA,77215.0,Indonesia,,,,2.83817,117.3888665,https://maps.google.com/?cid=0x0:0xbfdf985577765c26,
supermarket,Pusat Perbelanjaan,Toko Tanjung Mas,"R9P7+RP4, Jl. Kolonel Soetadji, soetadjie, Tj. Selor Hilir, Kec. Tj. Selor, Kabupaten Bulungan, Kalimantan Utara 77214","Jl. Kolonel Soetadji, soetadjie, Tj. Selor Hilir, Kec. Tj. Selor, Kabupaten Bulungan",KALIMANTAN UTARA,77214.0,Indonesia, 085246380500,,,2.8370101,117.3643422,https://maps.google.com/?cid=0x0:0xf30a7757d482f004,
supermarket,Toko Swalayan,Alfamidi H. Maskur,"Jl. H. Maskur No.78, Tj. Selor Hilir, Kec. Tj. Selor, Kabupaten Bulungan, Kalimantan Utara 77214","Tj. Selor Hilir, Kec. Tj. Selor, Kabupaten Bulungan",KALIMANTAN UTARA,77214.0,Indonesia,,,,2.8393327,117.363208,https://maps.google.com/?cid=0x0:0x6fba98414c651130,
supermarket,Minimarket,Toko Simpang Lima,"36M7+6QP, Panca Agung, Kec. Tj. Palas Utara, Kabupaten Bulungan, Kalimantan Utara 77215","Panca Agung, Kec. Tj. Palas Utara, Kabupaten Bulungan",KALIMANTAN UTARA,77215.0,Indonesia, 082158595656,,,3.083083,117.2144504,https://maps.google.com/?cid=0x0:0x9ac58f5fac06d91d,
supermarket,Toko,Toko Harapan Baru (BT),"Jl. Jeruk No.1, Tj. Selor Hilir, Kec. Tj. Selor, Kabupaten Bulungan, Kalimantan Utara 77214","Tj. Selor Hilir, Kec. Tj. Selor, Kabupaten Bulungan",KALIMANTAN UTARA,77214.0,Indonesia, 055222448,,,2.8461093,117.3678349,https://maps.google.com/?cid=0x0:0xb2c452bbbf877d44,
supermarket,Toko bahan makanan,Toko putri jaya,"36C8+H66, Jl. Ahmad Yani, Panca Agung, Kec. Tj. Palas Utara, Kabupaten Bulungan, Kalimantan Utara 77215","Jl. Ahmad Yani, Panca Agung, Kec. Tj. Palas Utara, Kabupaten Bulungan",KALIMANTAN UTARA,77215.0,Indonesia,,,,3.0714231,117.2155151,https://maps.google.com/?cid=0x0:0x56ee04d284959f71,
supermarket,Toko,Toko ***AZKY***,"365W+5QW, Ruhui Rahayu, Kec. Tj. Palas Utara, Kabupaten Bulungan, Kalimantan Utara 77215","Ruhui Rahayu, Kec. Tj. Palas Utara, Kabupaten Bulungan",KALIMANTAN UTARA,77215.0,Indonesia,,,,3.057992,117.24694,https://maps.google.com/?cid=0x0:0x3ee0874dfe54579,
supermarket,Toko Elektronik,Toko Eka Satya,"R9Q6+GP6, Jl. Katamso, Tj. Selor Hilir, Kec. Tj. Selor, Kabupaten Bulungan, Kalimantan Utara 77214","Jl. Katamso, Tj. Selor Hilir, Kec. Tj. Selor, Kabupaten Bulungan",KALIMANTAN UTARA,77214.0,Indonesia, 081254640511,,,2.83879,117.3617735,https://maps.google.com/?cid=0x0:0xccb2242195278c88,
supermarket,Toko Alat Tulis Kantor,TOKO SHENBI,"Jl. Kimas Aji Kertosono No.RT.1 No.27, Karang Anyar, Kec. Tj. Palas, Kabupaten Bulungan, Kalimantan Utara 77214","Karang Anyar, Kec. Tj. Palas, Kabupaten Bulungan",KALIMANTAN UTARA,77214.0,Indonesia,,,,2.8350943,117.3536882,https://maps.google.com/?cid=0x0:0xdccf1dd57c19b609,
supermarket,Gudang,CV IQBAL UTAMA,"VM7W+2M7, Tj. Buka, Kec. Tj. Palas Tengah, Kabupaten Bulungan, Kalimantan Utara 77216","Tj. Buka, Kec. Tj. Palas Tengah, Kabupaten Bulungan",KALIMANTAN UTARA,77216.0,Indonesia, 085247776634,,,2.8625281,117.6966572,https://maps.google.com/?cid=0x0:0xc1046a56e25d80b4,
supermarket,supermarket,Kalimantan Timur 77215,"Kabupaten Bulungan, Kalimantan Timur","Kabupaten Bulungan, Kalimantan Timur",KALIMANTAN UTARA,,Indonesia,,,,2.6736525,117.6434844,https://maps.google.com/?cid=0x0:0xf8c09686d5a94c7c,
supermarket,Minimarket,Toko Simpang Lima,"36M7+6QP, Panca Agung, Kec. Tj. Palas Utara, Kabupaten Bulungan, Kalimantan Utara 77215","Panca Agung, Kec. Tj. Palas Utara, Kabupaten Bulungan",KALIMANTAN UTARA,77215.0,Indonesia, 082158595656,,,3.083083,117.2144504,https://maps.google.com/?cid=0x0:0x9ac58f5fac06d91d,
supermarket,Toko bahan makanan,Toko putri jaya,"36C8+H66, Jl. Ahmad Yani, Panca Agung, Kec. Tj. Palas Utara, Kabupaten Bulungan, Kalimantan Utara 77215","Jl. Ahmad Yani, Panca Agung, Kec. Tj. Palas Utara, Kabupaten Bulungan",KALIMANTAN UTARA,77215.0,Indonesia,,,,3.0714231,117.2155151,https://maps.google.com/?cid=0x0:0x56ee04d284959f71,
supermarket,Toko,PANEN SQUARE,"V93G+2CW, Tj. Selor Hilir, Kec. Tj. Selor, Kabupaten Bulungan, Kalimantan Utara 77216","Tj. Selor Hilir, Kec. Tj. Selor, Kabupaten Bulungan",KALIMANTAN UTARA,77216.0,Indonesia, 081255187770,,,2.8525916,117.3760836,https://maps.google.com/?cid=0x0:0x70f3a9182196c949,
supermarket,Toko Swalayan,Toko Gati,"367R+FC9, Unnamed Road, Ruhui Rahayu, Tanjung Palas Utara, Bulungan Regency, North Kalimantan 77215","Unnamed Road, Ruhui Rahayu, Tanjung Palas Utara, Bulungan Regency",KALIMANTAN UTARA,77215.0,Indonesia, 085346776245,,,3.0636517,117.2411083,https://maps.google.com/?cid=0x0:0xd45633fed752ecb6,
supermarket,Toko,Toko ***AZKY***,"365W+5QW, Ruhui Rahayu, Kec. Tj. Palas Utara, Kabupaten Bulungan, Kalimantan Utara 77215","Ruhui Rahayu, Kec. Tj. Palas Utara, Kabupaten Bulungan",KALIMANTAN UTARA,77215.0,Indonesia,,,,3.057992,117.24694,https://maps.google.com/?cid=0x0:0x3ee0874dfe54579,
supermarket,Minimarket,Alfamidi Kasimuddin,"R9H5+8HJ, Jl. Kasimuddin, Tj. Palas Hulu, Kec. Tj. Palas, Kabupaten Bulungan, Kalimantan Utara 77211","Jl. Kasimuddin, Tj. Palas Hulu, Kec. Tj. Palas, Kabupaten Bulungan",KALIMANTAN UTARA,77211.0,Indonesia, 082111342410,,,2.8285467,117.3586795,https://maps.google.com/?cid=0x0:0x28af1151d3cf1f2b,
supermarket,Toko Makanan,Queen's Market  Urban Space,"R9V7+54H, Tj. Selor Hilir, Kec. Tj. Selor, Kabupaten Bulungan, Kalimantan Utara 77214","Tj. Selor Hilir, Kec. Tj. Selor, Kabupaten Bulungan",KALIMANTAN UTARA,77214.0,Indonesia, 083843746499,,,2.8429449,117.3628446,https://maps.google.com/?cid=0x0:0xbdf1e47238fb01c5,
supermarket,Toko bahan makanan,Toko Ginto Marsiano,"367W+JHQ, Unnamed Road, Ruhui Rahayu, Tanjung Palas Utara, Bulungan Regency, North Kalimantan 77215","Unnamed Road, Ruhui Rahayu, Tanjung Palas Utara, Bulungan Regency",KALIMANTAN UTARA,77215.0,Indonesia, 081347584076,,,3.0640941,117.2464961,https://maps.google.com/?cid=0x0:0x9ab02589b1d5141c,
supermarket,Toko Swalayan,Toko Cahaya Mulia,"Ruhui Rahayu, Kec. Tj. Palas Utara, Kabupaten Bulungan, Kalimantan Utara 77215","Kec. Tj. Palas Utara, Kabupaten Bulungan",KALIMANTAN UTARA,77215.0,Indonesia, 081347584076,,,3.0640924,117.2464968,https://maps.google.com/?cid=0x0:0xb220a92fedf5aa87,
supermarket,Toko Swalayan,Toko Sri Rejeki,"366Q+WWM, Jl. Jaya Baya, Ruhui Rahayu, Tanjung Palas Utara, Bulungan Regency, North Kalimantan 77215","Jl. Jaya Baya, Ruhui Rahayu, Tanjung Palas Utara, Bulungan Regency",KALIMANTAN UTARA,77215.0,Indonesia, 085331412545,,,3.0623345,117.2397888,https://maps.google.com/?cid=0x0:0x2ed92c95668d6925,
supermarket,Toko,Toko Slamet Jaya 2,"Ds. Wonomulyo, RT.05/RW.01, Wono Mulyo, Kec. Tj. Palas Tim., Kabupaten Bulungan, Kalimantan Utara 77215","RT.05/RW.01, Wono Mulyo, Kec. Tj. Palas Tim., Kabupaten Bulungan",KALIMANTAN UTARA,77215.0,Indonesia,,,,2.707306,117.5455101,https://maps.google.com/?cid=0x0:0xb4090a230a3ec44f,
supermarket,Toko Perlengkapan Rumah,Toko Pak Sareh,"R8QQ+5Q9, Gn. Putih/Kr. Jenawi, Kec. Tj. Palas, Kabupaten Bulungan, Kalimantan Utara 77216","Gn. Putih/Kr. Jenawi, Kec. Tj. Palas, Kabupaten Bulungan",KALIMANTAN UTARA,77216.0,Indonesia,,,,2.8379144,117.3394846,https://maps.google.com/?cid=0x0:0xd242b7b36e6a72b6,
supermarket,Minimarket,ZikriWaAhlam,"V9CG+QR4, Jl. Sabanar Lama, Salim Batu, Kec. Tj. Palas Tengah, Kabupaten Bulungan, Kalimantan Utara 77211","Jl. Sabanar Lama, Salim Batu, Kec. Tj. Palas Tengah, Kabupaten Bulungan",KALIMANTAN UTARA,77211.0,Indonesia, 082251303107,,,2.8718786,117.3770699,https://maps.google.com/?cid=0x0:0x58b821ad721339e9,
supermarket,Toko,MITRA ANDA,"Jl.Pramuka RT No.2, Karang Anyar, Kec. Tj. Palas, Kabupaten Bulungan, Kalimantan Utara 77216","Karang Anyar, Kec. Tj. Palas, Kabupaten Bulungan",KALIMANTAN UTARA,77216.0,Indonesia, 05522025076,,,2.8309414,117.3449671,https://maps.google.com/?cid=0x0:0x9ae0e0c042571ffd,
supermarket,Toko Swalayan,Toko Sumber Rezeki,"R9QQ+7G9, Jl. Jelarai Raya, Tj. Selor Hilir, Kec. Tj. Selor, Kabupaten Bulungan, Kalimantan Utara 77215","Jl. Jelarai Raya, Tj. Selor Hilir, Kec. Tj. Selor, Kabupaten Bulungan",KALIMANTAN UTARA,77215.0,Indonesia,,,,2.83817,117.3888665,https://maps.google.com/?cid=0x0:0xbfdf985577765c26,
supermarket,Toko,Toko Harapan Baru (BT),"Jl. Jeruk No.1, Tj. Selor Hilir, Kec. Tj. Selor, Kabupaten Bulungan, Kalimantan Utara 77214","Tj. Selor Hilir, Kec. Tj. Selor, Kabupaten Bulungan",KALIMANTAN UTARA,77214.0,Indonesia, 055222448,,,2.8461093,117.3678349,https://maps.google.com/?cid=0x0:0xb2c452bbbf877d44,
supermarket,Toko Swalayan,Toko Sumber Rejeki Abadi,"Jl. Durian, Tj. Selor Hilir, Kec. Tj. Selor, Kabupaten Bulungan, Kalimantan Utara 77214","Tj. Selor Hilir, Kec. Tj. Selor, Kabupaten Bulungan",KALIMANTAN UTARA,77214.0,Indonesia, 082154939900,,,2.8481694,117.3746919,https://maps.google.com/?cid=0x0:0x51f37ccab920e0ae,
supermarket,Pasar,Pasar Agropolitan Tanjung Palas,"R9M4+M57, Jl. Bendahara, Tj. Palas Tengah, Kec. Tj. Palas, Kabupaten Bulungan, Kalimantan Utara 77211","Jl. Bendahara, Tj. Palas Tengah, Kec. Tj. Palas, Kabupaten Bulungan",KALIMANTAN UTARA,77211.0,Indonesia,,,,2.8341601,117.3554102,https://maps.google.com/?cid=0x0:0x3f8905ff966d328c,
supermarket,Toko makanan beku,UMKM Mart,"V93C+QXQ, Tj. Selor Hilir, Kec. Tj. Selor, Kabupaten Bulungan, Kalimantan Utara 77216","Tj. Selor Hilir, Kec. Tj. Selor, Kabupaten Bulungan",KALIMANTAN UTARA,77216.0,Indonesia, 05222032644,,,2.8544722,117.3724725,https://maps.google.com/?cid=0x0:0x89a7daf9a3d324f2,
supermarket,Toko Buah dan Sayur,Kios sayur pak no,"R9P4+44M, Jl. Pangeran, Tj. Palas Tengah, Kec. Tj. Palas, Kabupaten Bulungan, Kalimantan Utara 77214","Jl. Pangeran, Tj. Palas Tengah, Kec. Tj. Palas, Kabupaten Bulungan",KALIMANTAN UTARA,77214.0,Indonesia, 081346292363,,,2.8353338,117.3552848,https://maps.google.com/?cid=0x0:0xe468a53bce2aafdb,
supermarket,Toko bahan makanan,Day Maya,"HV36+7QF, Unnamed Road, Tanah Kuning, Kec. Tj. Palas Tim., Kabupaten Bulungan, Kalimantan Utara 77215","Unnamed Road, Tanah Kuning, Kec. Tj. Palas Tim., Kabupaten Bulungan",KALIMANTAN UTARA,77215.0,Indonesia,,,,2.5531764,117.8619308,https://maps.google.com/?cid=0x0:0x7d4873572697deee,
supermarket,Pusat Perbelanjaan,Kios Aisyah,"Wono Mulyo, Kec. Tj. Palas Tim., Kabupaten Bulungan, Kalimantan Utara 77215","Kec. Tj. Palas Tim., Kabupaten Bulungan",KALIMANTAN UTARA,77215.0,Indonesia, 082159884111,,,2.7083515,117.5456616,https://maps.google.com/?cid=0x0:0xb432c33d67f00ab4,
supermarket,Toko bahan makanan,Toko ABID,"PG9C+949, Jl. Poros Tj. Selor - Tanah Kuning, Tj. Agung, Kec. Tj. Palas Tim., Kabupaten Bulungan, Kalimantan Utara 77215","Jl. Poros Tj. Selor - Tanah Kuning, Tj. Agung, Kec. Tj. Palas Tim., Kabupaten Bulungan",KALIMANTAN UTARA,77215.0,Indonesia,,,,2.7184179,117.5203744,https://maps.google.com/?cid=0x0:0x19a735ab6d6c27cb,
supermarket,Toko bahan makanan,Toko Fodillah,"R9H5+3G5, Tj. Palas Hulu, Kec. Tj. Palas, Kabupaten Bulungan, Kalimantan Utara 77211","Tj. Palas Hulu, Kec. Tj. Palas, Kabupaten Bulungan",KALIMANTAN UTARA,77211.0,Indonesia,,,,2.8276251,117.3588659,https://maps.google.com/?cid=0x0:0xbe8d51481e2d3958,
supermarket,,Toko dua putri,"HV36+7GG, Tanah Kuning, Kec. Tj. Palas Tim., Kabupaten Bulungan, Kalimantan Utara","Kabupaten Bulungan, Kalimantan Utara",KALIMANTAN UTARA,,Indonesia, 082157703803,,,2.5531883,117.8613267,https://maps.google.com/?cid=0x0:0x5d55a2e5653d2e42,
supermarket,Toko Pakaian,PERADI MART,"R9QQ+5J7, Jl. Jelarai Raya, Tj. Selor Hilir, Kec. Tj. Selor, Kabupaten Bulungan, Kalimantan Utara 77215","Jl. Jelarai Raya, Tj. Selor Hilir, Kec. Tj. Selor, Kabupaten Bulungan",KALIMANTAN UTARA,77215.0,Indonesia,,,,2.8379042,117.3890463,https://maps.google.com/?cid=0x0:0x767aa76e178094e1,
supermarket,Toko bahan makanan,Rulilasmana,"R9Q4+M68, Unnamed Road, Tj. Palas Hilir, Kec. Tj. Palas, Kabupaten Bulungan, Kalimantan Utara 77214","Unnamed Road, Tj. Palas Hilir, Kec. Tj. Palas, Kabupaten Bulungan",KALIMANTAN UTARA,77214.0,Indonesia, 081957181795,,,2.8391613,117.3555852,https://maps.google.com/?cid=0x0:0xe3c008af53eb4daf,
supermarket,Toko bahan makanan,Toko Arjuna,"Jl. Langsat No.34, Tj. Selor Hilir, Kec. Tj. Selor, Kabupaten Bulungan, Kalimantan Utara 77214","Tj. Selor Hilir, Kec. Tj. Selor, Kabupaten Bulungan",KALIMANTAN UTARA,77214.0,Indonesia,,,,2.8457125,117.369637,https://maps.google.com/?cid=0x0:0x3448577d3ead4dd0,
supermarket,supermarket,Kalimantan Timur 77215,"Kabupaten Bulungan, Kalimantan Timur","Kabupaten Bulungan, Kalimantan Timur",KALIMANTAN UTARA,,Indonesia,,,,2.6736525,117.6434844,https://maps.google.com/?cid=0x0:0xf8c09686d5a94c7c,
supermarket,Toko,PANEN SQUARE,"V93G+2CW, Tj. Selor Hilir, Kec. Tj. Selor, Kabupaten Bulungan, Kalimantan Utara 77216","Tj. Selor Hilir, Kec. Tj. Selor, Kabupaten Bulungan",KALIMANTAN UTARA,77216.0,Indonesia, 081255187770,,,2.8525916,117.3760836,https://maps.google.com/?cid=0x0:0x70f3a9182196c949,
supermarket,Toko Swalayan,Toko Cahaya Mulia,"Ruhui Rahayu, Kec. Tj. Palas Utara, Kabupaten Bulungan, Kalimantan Utara 77215","Kec. Tj. Palas Utara, Kabupaten Bulungan",KALIMANTAN UTARA,77215.0,Indonesia, 081347584076,,,3.0640924,117.2464968,https://maps.google.com/?cid=0x0:0xb220a92fedf5aa87,
supermarket,Pasar,Pasar Agropolitan Tanjung Palas,"R9M4+M57, Jl. Bendahara, Tj. Palas Tengah, Kec. Tj. Palas, Kabupaten Bulungan, Kalimantan Utara 77211","Jl. Bendahara, Tj. Palas Tengah, Kec. Tj. Palas, Kabupaten Bulungan",KALIMANTAN UTARA,77211.0,Indonesia,,,,2.8341601,117.3554102,https://maps.google.com/?cid=0x0:0x3f8905ff966d328c,
supermarket,supermarket,Star Swalayan,"Jl. Duku No.99, Tj. Selor Hilir, Kec. Tj. Selor, Kabupaten Bulungan, Kalimantan Utara 77216","Tj. Selor Hilir, Kec. Tj. Selor, Kabupaten Bulungan",KALIMANTAN UTARA,77216.0,Indonesia, 055223366,,,2.8486988,117.3700232,https://maps.google.com/?cid=0x0:0x12cb44fb735ba556,
supermarket,Minimarket,Toko Simpang Lima,"36M7+6QP, Panca Agung, Kec. Tj. Palas Utara, Kabupaten Bulungan, Kalimantan Utara 77215","Panca Agung, Kec. Tj. Palas Utara, Kabupaten Bulungan",KALIMANTAN UTARA,77215.0,Indonesia, 082158595656,,,3.083083,117.2144504,https://maps.google.com/?cid=0x0:0x9ac58f5fac06d91d,
supermarket,Toko bahan makanan,Toko putri jaya,"36C8+H66, Jl. Ahmad Yani, Panca Agung, Kec. Tj. Palas Utara, Kabupaten Bulungan, Kalimantan Utara 77215","Jl. Ahmad Yani, Panca Agung, Kec. Tj. Palas Utara, Kabupaten Bulungan",KALIMANTAN UTARA,77215.0,Indonesia,,,,3.0714231,117.2155151,https://maps.google.com/?cid=0x0:0x56ee04d284959f71,
supermarket,Restoran,F Mart Bulungan,"Tj. Selor Hilir, Kec. Tj. Palas Tengah, Kabupaten Bulungan, Kalimantan Utara 77216","Kec. Tj. Palas Tengah, Kabupaten Bulungan",KALIMANTAN UTARA,77216.0,Indonesia, 083843746499,,,2.8551586,117.3661466,https://maps.google.com/?cid=0x0:0x4280dd8a2c4f5034,
supermarket,Toko Swalayan,Toko Gati,"367R+FC9, Unnamed Road, Ruhui Rahayu, Tanjung Palas Utara, Bulungan Regency, North Kalimantan 77215","Unnamed Road, Ruhui Rahayu, Tanjung Palas Utara, Bulungan Regency",KALIMANTAN UTARA,77215.0,Indonesia, 085346776245,,,3.0636517,117.2411083,https://maps.google.com/?cid=0x0:0xd45633fed752ecb6,
supermarket,Minimarket,Alfamidi Kasimuddin,"R9H5+8HJ, Jl. Kasimuddin, Tj. Palas Hulu, Kec. Tj. Palas, Kabupaten Bulungan, Kalimantan Utara 77211","Jl. Kasimuddin, Tj. Palas Hulu, Kec. Tj. Palas, Kabupaten Bulungan",KALIMANTAN UTARA,77211.0,Indonesia, 082111342410,,,2.8285467,117.3586795,https://maps.google.com/?cid=0x0:0x28af1151d3cf1f2b,
supermarket,Toko,Toko ***AZKY***,"365W+5QW, Ruhui Rahayu, Kec. Tj. Palas Utara, Kabupaten Bulungan, Kalimantan Utara 77215","Ruhui Rahayu, Kec. Tj. Palas Utara, Kabupaten Bulungan",KALIMANTAN UTARA,77215.0,Indonesia,,,,3.057992,117.24694,https://maps.google.com/?cid=0x0:0x3ee0874dfe54579,
supermarket,Toko bahan makanan,Toko Ginto Marsiano,"367W+JHQ, Unnamed Road, Ruhui Rahayu, Tanjung Palas Utara, Bulungan Regency, North Kalimantan 77215","Unnamed Road, Ruhui Rahayu, Tanjung Palas Utara, Bulungan Regency",KALIMANTAN UTARA,77215.0,Indonesia, 081347584076,,,3.0640941,117.2464961,https://maps.google.com/?cid=0x0:0x9ab02589b1d5141c,
supermarket,Toko Swalayan,Toko Sri Rejeki,"366Q+WWM, Jl. Jaya Baya, Ruhui Rahayu, Tanjung Palas Utara, Bulungan Regency, North Kalimantan 77215","Jl. Jaya Baya, Ruhui Rahayu, Tanjung Palas Utara, Bulungan Regency",KALIMANTAN UTARA,77215.0,Indonesia, 085331412545,,,3.0623345,117.2397888,https://maps.google.com/?cid=0x0:0x2ed92c95668d6925,
supermarket,Toko Perlengkapan Rumah,Toko Pak Sareh,"R8QQ+5Q9, Gn. Putih/Kr. Jenawi, Kec. Tj. Palas, Kabupaten Bulungan, Kalimantan Utara 77216","Gn. Putih/Kr. Jenawi, Kec. Tj. Palas, Kabupaten Bulungan",KALIMANTAN UTARA,77216.0,Indonesia,,,,2.8379144,117.3394846,https://maps.google.com/?cid=0x0:0xd242b7b36e6a72b6,
supermarket,Minimarket,ZikriWaAhlam,"V9CG+QR4, Jl. Sabanar Lama, Salim Batu, Kec. Tj. Palas Tengah, Kabupaten Bulungan, Kalimantan Utara 77211","Jl. Sabanar Lama, Salim Batu, Kec. Tj. Palas Tengah, Kabupaten Bulungan",KALIMANTAN UTARA,77211.0,Indonesia, 082251303107,,,2.8718786,117.3770699,https://maps.google.com/?cid=0x0:0x58b821ad721339e9,
supermarket,Toko Buah dan Sayur,Kios sayur pak no,"R9P4+44M, Jl. Pangeran, Tj. Palas Tengah, Kec. Tj. Palas, Kabupaten Bulungan, Kalimantan Utara 77214","Jl. Pangeran, Tj. Palas Tengah, Kec. Tj. Palas, Kabupaten Bulungan",KALIMANTAN UTARA,77214.0,Indonesia, 081346292363,,,2.8353338,117.3552848,https://maps.google.com/?cid=0x0:0xe468a53bce2aafdb,
supermarket,Toko,Toko Slamet Jaya 2,"Ds. Wonomulyo, RT.05/RW.01, Wono Mulyo, Kec. Tj. Palas Tim., Kabupaten Bulungan, Kalimantan Utara 77215","RT.05/RW.01, Wono Mulyo, Kec. Tj. Palas Tim., Kabupaten Bulungan",KALIMANTAN UTARA,77215.0,Indonesia,,,,2.707306,117.5455101,https://maps.google.com/?cid=0x0:0xb4090a230a3ec44f,
supermarket,Toko Swalayan,Alfamidi H. Maskur,"Jl. H. Maskur No.78, Tj. Selor Hilir, Kec. Tj. Selor, Kabupaten Bulungan, Kalimantan Utara 77214","Tj. Selor Hilir, Kec. Tj. Selor, Kabupaten Bulungan",KALIMANTAN UTARA,77214.0,Indonesia,,,,2.8393327,117.363208,https://maps.google.com/?cid=0x0:0x6fba98414c651130,
supermarket,Sekolah,SDN 010 TANJUNG PALAS UTARA,"369V+P36, Unnamed Road, Ruhui Rahayu, Kec. Tj. Palas Utara, Kabupaten Bulungan, Kalimantan Utara 77215","Unnamed Road, Ruhui Rahayu, Kec. Tj. Palas Utara, Kabupaten Bulungan",KALIMANTAN UTARA,77215.0,Indonesia,,,,3.0692999,117.2426434,https://maps.google.com/?cid=0x0:0x260b46705a819940,
supermarket,Sekolah Dasar,SDN 009 TANJUNG PALAS UTARA,"36J6+R7W, Jl. Ahmad Yani, Panca Agung, Kec. Tj. Palas Utara, Kabupaten Bulungan, Kalimantan Utara 77215","Jl. Ahmad Yani, Panca Agung, Kec. Tj. Palas Utara, Kabupaten Bulungan",KALIMANTAN UTARA,77215.0,Indonesia,,,,3.0821057,117.2106876,https://maps.google.com/?cid=0x0:0x6ec8266006cce68,
supermarket,Toko Alat Tulis Kantor,TOKO SHENBI,"Jl. Kimas Aji Kertosono No.RT.1 No.27, Karang Anyar, Kec. Tj. Palas, Kabupaten Bulungan, Kalimantan Utara 77214","Karang Anyar, Kec. Tj. Palas, Kabupaten Bulungan",KALIMANTAN UTARA,77214.0,Indonesia,,,,2.8350943,117.3536882,https://maps.google.com/?cid=0x0:0xdccf1dd57c19b609,
supermarket,supermarket,Tandjungselor,"Tj. Palas Tengah, Kec. Tj. Palas, Kabupaten Bulungan, Kalimantan Utara","Kabupaten Bulungan, Kalimantan Utara",KALIMANTAN UTARA,,Indonesia,,,,2.844766,117.3648097,https://maps.google.com/?cid=0x0:0xbe0a10ea478e927,
supermarket,Toko,PANEN SQUARE,"V93G+2CW, Tj. Selor Hilir, Kec. Tj. Selor, Kabupaten Bulungan, Kalimantan Utara 77216","Tj. Selor Hilir, Kec. Tj. Selor, Kabupaten Bulungan",KALIMANTAN UTARA,77216.0,Indonesia, 081255187770,,,2.8525916,117.3760836,https://maps.google.com/?cid=0x0:0x70f3a9182196c949,
supermarket,Restoran,F Mart Bulungan,"Tj. Selor Hilir, Kec. Tj. Palas Tengah, Kabupaten Bulungan, Kalimantan Utara 77216","Kec. Tj. Palas Tengah, Kabupaten Bulungan",KALIMANTAN UTARA,77216.0,Indonesia, 083843746499,,,2.8551586,117.3661466,https://maps.google.com/?cid=0x0:0x4280dd8a2c4f5034,
supermarket,Toko Swalayan,Alfamidi H. Maskur,"Jl. H. Maskur No.78, Tj. Selor Hilir, Kec. Tj. Selor, Kabupaten Bulungan, Kalimantan Utara 77214","Tj. Selor Hilir, Kec. Tj. Selor, Kabupaten Bulungan",KALIMANTAN UTARA,77214.0,Indonesia,,,,2.8393327,117.363208,https://maps.google.com/?cid=0x0:0x6fba98414c651130,
supermarket,Toko Swalayan,Toko Sumber Rejeki Abadi,"Jl. Durian, Tj. Selor Hilir, Kec. Tj. Selor, Kabupaten Bulungan, Kalimantan Utara 77214","Tj. Selor Hilir, Kec. Tj. Selor, Kabupaten Bulungan",KALIMANTAN UTARA,77214.0,Indonesia, 082154939900,,,2.8481694,117.3746919,https://maps.google.com/?cid=0x0:0x51f37ccab920e0ae,
supermarket,Toko makanan beku,UMKM Mart,"V93C+QXQ, Tj. Selor Hilir, Kec. Tj. Selor, Kabupaten Bulungan, Kalimantan Utara 77216","Tj. Selor Hilir, Kec. Tj. Selor, Kabupaten Bulungan",KALIMANTAN UTARA,77216.0,Indonesia, 05222032644,,,2.8544722,117.3724725,https://maps.google.com/?cid=0x0:0x89a7daf9a3d324f2,
supermarket,Pusat Perbelanjaan,Pasar Induk Tanjung Selor,"V93F+VHJ, Tj. Selor Hilir, Kec. Tj. Selor, Kabupaten Bulungan, Kalimantan Utara 77216","Tj. Selor Hilir, Kec. Tj. Selor, Kabupaten Bulungan",KALIMANTAN UTARA,77216.0,Indonesia,,,,2.8547102,117.3739018,https://maps.google.com/?cid=0x0:0xf4c7a30b41976d25,
supermarket,Minimarket,ZikriWaAhlam,"V9CG+QR4, Jl. Sabanar Lama, Salim Batu, Kec. Tj. Palas Tengah, Kabupaten Bulungan, Kalimantan Utara 77211","Jl. Sabanar Lama, Salim Batu, Kec. Tj. Palas Tengah, Kabupaten Bulungan",KALIMANTAN UTARA,77211.0,Indonesia, 082251303107,,,2.8718786,117.3770699,https://maps.google.com/?cid=0x0:0x58b821ad721339e9,
supermarket,Toko,Toko Harapan Baru (BT),"Jl. Jeruk No.1, Tj. Selor Hilir, Kec. Tj. Selor, Kabupaten Bulungan, Kalimantan Utara 77214","Tj. Selor Hilir, Kec. Tj. Selor, Kabupaten Bulungan",KALIMANTAN UTARA,77214.0,Indonesia, 055222448,,,2.8461093,117.3678349,https://maps.google.com/?cid=0x0:0xb2c452bbbf877d44,
supermarket,Toko Swalayan,Toko Sumber Rezeki,"R9QQ+7G9, Jl. Jelarai Raya, Tj. Selor Hilir, Kec. Tj. Selor, Kabupaten Bulungan, Kalimantan Utara 77215","Jl. Jelarai Raya, Tj. Selor Hilir, Kec. Tj. Selor, Kabupaten Bulungan",KALIMANTAN UTARA,77215.0,Indonesia,,,,2.83817,117.3888665,https://maps.google.com/?cid=0x0:0xbfdf985577765c26,
supermarket,Pusat Perbelanjaan,Toko Tanjung Mas,"R9P7+RP4, Jl. Kolonel Soetadji, soetadjie, Tj. Selor Hilir, Kec. Tj. Selor, Kabupaten Bulungan, Kalimantan Utara 77214","Jl. Kolonel Soetadji, soetadjie, Tj. Selor Hilir, Kec. Tj. Selor, Kabupaten Bulungan",KALIMANTAN UTARA,77214.0,Indonesia, 085246380500,,,2.8370101,117.3643422,https://maps.google.com/?cid=0x0:0xf30a7757d482f004,
supermarket,Toko Elektronik,Toko Eka Satya,"R9Q6+GP6, Jl. Katamso, Tj. Selor Hilir, Kec. Tj. Selor, Kabupaten Bulungan, Kalimantan Utara 77214","Jl. Katamso, Tj. Selor Hilir, Kec. Tj. Selor, Kabupaten Bulungan",KALIMANTAN UTARA,77214.0,Indonesia, 081254640511,,,2.83879,117.3617735,https://maps.google.com/?cid=0x0:0xccb2242195278c88,
supermarket,Toko Swalayan,Toko Panen Raya,"R9W8+5JP, Jl. Manggis III, Tj. Selor Hilir, Kec. Tj. Selor, Kabupaten Bulungan, Kalimantan Utara 77214","Jl. Manggis III, Tj. Selor Hilir, Kec. Tj. Selor, Kabupaten Bulungan",KALIMANTAN UTARA,77214.0,Indonesia,,,,2.8454562,117.3665891,https://maps.google.com/?cid=0x0:0x21bc7c65054e2fca,
supermarket,Restoran,PISANG IJO WD KALTARA,"R9R6+8MJ, Jl. Katamso, Tj. Selor Hilir, Kec. Tj. Selor, Kabupaten Bulungan, Kalimantan Utara 77214","Jl. Katamso, Tj. Selor Hilir, Kec. Tj. Selor, Kabupaten Bulungan",KALIMANTAN UTARA,77214.0,Indonesia, 081346354778,,,2.8408458,117.3616527,https://maps.google.com/?cid=0x0:0xfa0a33f1ed5b07f7,
supermarket,Minimarket,Alfamidi Kasimuddin,"R9H5+8HJ, Jl. Kasimuddin, Tj. Palas Hulu, Kec. Tj. Palas, Kabupaten Bulungan, Kalimantan Utara 77211","Jl. Kasimuddin, Tj. Palas Hulu, Kec. Tj. Palas, Kabupaten Bulungan",KALIMANTAN UTARA,77211.0,Indonesia, 082111342410,,,2.8285467,117.3586795,https://maps.google.com/?cid=0x0:0x28af1151d3cf1f2b,
supermarket,Toko Peralatan dan Bahan Kue,Toko bahan kue  Bakery Hens grocery,"Jl. Perum BPD, Tj. Selor Hilir, Kec. Tj. Selor, Kabupaten Bulungan, Kalimantan Utara 77212","Tj. Selor Hilir, Kec. Tj. Selor, Kabupaten Bulungan",KALIMANTAN UTARA,77212.0,Indonesia, 087777502750,,,2.8532656,117.3691548,https://maps.google.com/?cid=0x0:0x36efb9ff6787d9c,
supermarket,Minimarket,INDOMARET BRIGJEND KATAMSO,"R9X6+8V6, Jl. Katamso, Kec. Tj. Selor, Kalimantan Utara 77212","Jl. Katamso, Kec. Tj. Selor",KALIMANTAN UTARA,77212.0,Indonesia,,,,2.8483839,117.3621957,https://maps.google.com/?cid=0x0:0x1fb27955488ede93,
supermarket,Minimarket,Toko Sembako,"R9Q6+WP7, Tj. Selor Hilir, Kec. Tj. Selor, Kabupaten Bulungan, Kalimantan Utara 77214","Tj. Selor Hilir, Kec. Tj. Selor, Kabupaten Bulungan",KALIMANTAN UTARA,77214.0,Indonesia,,,,2.8397999,117.3617913,https://maps.google.com/?cid=0x0:0x3db1365229d2606f,
supermarket,Toko,Asena Ice Cream  Frozen Food,"Jl. MT. Haryono No.Rt 13, Tj. Selor Hulu, Kec. Tj. Selor, Kabupaten Bulungan, Kalimantan Utara 77212","Tj. Selor Hulu, Kec. Tj. Selor, Kabupaten Bulungan",KALIMANTAN UTARA,77212.0,Indonesia, 081347850057,,,2.8385529,117.3649614,https://maps.google.com/?cid=0x0:0x60099344afef71c9,
supermarket,Toko bahan makanan,MR. DIY Tanjung Selor,"Jl. Katamso, Tj. Selor Hilir, Kec. Tj. Selor, Kabupaten Bulungan, Kalimantan Utara 77214","Tj. Selor Hilir, Kec. Tj. Selor, Kabupaten Bulungan",KALIMANTAN UTARA,77214.0,Indonesia,,,,2.8441987,117.361502,https://maps.google.com/?cid=0x0:0x9ec5927e4a15e7e0,
supermarket,Toko,MITRA ANDA,"Jl.Pramuka RT No.2, Karang Anyar, Kec. Tj. Palas, Kabupaten Bulungan, Kalimantan Utara 77216","Karang Anyar, Kec. Tj. Palas, Kabupaten Bulungan",KALIMANTAN UTARA,77216.0,Indonesia, 05522025076,,,2.8309414,117.3449671,https://maps.google.com/?cid=0x0:0x9ae0e0c042571ffd,
supermarket,Toko bahan makanan,Mandiri Djaya,"Jl. Skip I No.82, Tj. Selor Hilir, Kec. Tj. Selor, Kabupaten Bulungan, Kalimantan Utara 77214","Tj. Selor Hilir, Kec. Tj. Selor, Kabupaten Bulungan",KALIMANTAN UTARA,77214.0,Indonesia, 085247219046,,,2.8415177,117.364464,https://maps.google.com/?cid=0x0:0x9bdcba5f7feb3709,
supermarket,Toko bahan makanan,Toko Arjuna,"Jl. Langsat No.34, Tj. Selor Hilir, Kec. Tj. Selor, Kabupaten Bulungan, Kalimantan Utara 77214","Tj. Selor Hilir, Kec. Tj. Selor, Kabupaten Bulungan",KALIMANTAN UTARA,77214.0,Indonesia,,,,2.8457125,117.369637,https://maps.google.com/?cid=0x0:0x3448577d3ead4dd0,
supermarket,Toko Pakaian,PERADI MART,"R9QQ+5J7, Jl. Jelarai Raya, Tj. Selor Hilir, Kec. Tj. Selor, Kabupaten Bulungan, Kalimantan Utara 77215","Jl. Jelarai Raya, Tj. Selor Hilir, Kec. Tj. Selor, Kabupaten Bulungan",KALIMANTAN UTARA,77215.0,Indonesia,,,,2.8379042,117.3890463,https://maps.google.com/?cid=0x0:0x767aa76e178094e1,
supermarket,Toko Bahan Bangunan,Toko Mitra,"V947+8RR, Tj. Selor Hilir, Kec. Tj. Selor, Kabupaten Bulungan, Kalimantan Utara 77216","Tj. Selor Hilir, Kec. Tj. Selor, Kabupaten Bulungan",KALIMANTAN UTARA,77216.0,Indonesia,,,,2.855888,117.3645951,https://maps.google.com/?cid=0x0:0x5def91c2b64708de,
supermarket,Toko bahan makanan,CM,"V97Q+5MR, Jl. Sabanar Lama, Tj. Selor Hilir, Kec. Tj. Selor, Kabupaten Bulungan, Kalimantan Utara 77216","Jl. Sabanar Lama, Tj. Selor Hilir, Kec. Tj. Selor, Kabupaten Bulungan",KALIMANTAN UTARA,77216.0,Indonesia,,,,2.863,117.38915,https://maps.google.com/?cid=0x0:0xc2d24362ac1906cf,
supermarket,supermarket,Kalimantan Utara 77212,"Kec. Tj. Selor, Kabupaten Bulungan, Kalimantan Utara","Kabupaten Bulungan, Kalimantan Utara",KALIMANTAN UTARA,,Indonesia,,,,2.8022152,117.4791295,https://maps.google.com/?cid=0x0:0xac78443d7ec018ec,
supermarket,Toko Makanan,Queen's Market  Urban Space,"R9V7+54H, Tj. Selor Hilir, Kec. Tj. Selor, Kabupaten Bulungan, Kalimantan Utara 77214","Tj. Selor Hilir, Kec. Tj. Selor, Kabupaten Bulungan",KALIMANTAN UTARA,77214.0,Indonesia, 083843746499,,,2.8429449,117.3628446,https://maps.google.com/?cid=0x0:0xbdf1e47238fb01c5,
supermarket,Restoran,F Mart Bulungan,"Tj. Selor Hilir, Kec. Tj. Palas Tengah, Kabupaten Bulungan, Kalimantan Utara 77216","Kec. Tj. Palas Tengah, Kabupaten Bulungan",KALIMANTAN UTARA,77216.0,Indonesia, 083843746499,,,2.8551586,117.3661466,https://maps.google.com/?cid=0x0:0x4280dd8a2c4f5034,
supermarket,Toko Swalayan,Toko Sumber Rejeki Abadi,"Jl. Durian, Tj. Selor Hilir, Kec. Tj. Selor, Kabupaten Bulungan, Kalimantan Utara 77214","Tj. Selor Hilir, Kec. Tj. Selor, Kabupaten Bulungan",KALIMANTAN UTARA,77214.0,Indonesia, 082154939900,,,2.8481694,117.3746919,https://maps.google.com/?cid=0x0:0x51f37ccab920e0ae,
supermarket,Toko Swalayan,Toko Sumber Rezeki,"R9QQ+7G9, Jl. Jelarai Raya, Tj. Selor Hilir, Kec. Tj. Selor, Kabupaten Bulungan, Kalimantan Utara 77215","Jl. Jelarai Raya, Tj. Selor Hilir, Kec. Tj. Selor, Kabupaten Bulungan",KALIMANTAN UTARA,77215.0,Indonesia,,,,2.83817,117.3888665,https://maps.google.com/?cid=0x0:0xbfdf985577765c26,
supermarket,Toko Makanan,Warung riskyani,"QCHJ+CWW, Jl. Ahmad Yani, Jelarai Selor, Kec. Tj. Selor, Kabupaten Bulungan, Kalimantan Utara 77212","Jl. Ahmad Yani, Jelarai Selor, Kec. Tj. Selor, Kabupaten Bulungan",KALIMANTAN UTARA,77212.0,Indonesia, 083140852325,,,2.7786053,117.4323224,https://maps.google.com/?cid=0x0:0xa2d1d3a0b2e6625a,
supermarket,Toko makanan beku,UMKM Mart,"V93C+QXQ, Tj. Selor Hilir, Kec. Tj. Selor, Kabupaten Bulungan, Kalimantan Utara 77216","Tj. Selor Hilir, Kec. Tj. Selor, Kabupaten Bulungan",KALIMANTAN UTARA,77216.0,Indonesia, 05222032644,,,2.8544722,117.3724725,https://maps.google.com/?cid=0x0:0x89a7daf9a3d324f2,
supermarket,Toko Peralatan dan Bahan Kue,Toko bahan kue  Bakery Hens grocery,"Jl. Perum BPD, Tj. Selor Hilir, Kec. Tj. Selor, Kabupaten Bulungan, Kalimantan Utara 77212","Tj. Selor Hilir, Kec. Tj. Selor, Kabupaten Bulungan",KALIMANTAN UTARA,77212.0,Indonesia, 087777502750,,,2.8532656,117.3691548,https://maps.google.com/?cid=0x0:0x36efb9ff6787d9c,
supermarket,Toko,Toko Harapan Baru (BT),"Jl. Jeruk No.1, Tj. Selor Hilir, Kec. Tj. Selor, Kabupaten Bulungan, Kalimantan Utara 77214","Tj. Selor Hilir, Kec. Tj. Selor, Kabupaten Bulungan",KALIMANTAN UTARA,77214.0,Indonesia, 055222448,,,2.8461093,117.3678349,https://maps.google.com/?cid=0x0:0xb2c452bbbf877d44,
supermarket,Pusat Perbelanjaan,Pasar Induk Tanjung Selor,"V93F+VHJ, Tj. Selor Hilir, Kec. Tj. Selor, Kabupaten Bulungan, Kalimantan Utara 77216","Tj. Selor Hilir, Kec. Tj. Selor, Kabupaten Bulungan",KALIMANTAN UTARA,77216.0,Indonesia,,,,2.8547102,117.3739018,https://maps.google.com/?cid=0x0:0xf4c7a30b41976d25,
supermarket,Toko Swalayan,Alfamidi H. Maskur,"Jl. H. Maskur No.78, Tj. Selor Hilir, Kec. Tj. Selor, Kabupaten Bulungan, Kalimantan Utara 77214","Tj. Selor Hilir, Kec. Tj. Selor, Kabupaten Bulungan",KALIMANTAN UTARA,77214.0,Indonesia,,,,2.8393327,117.363208,https://maps.google.com/?cid=0x0:0x6fba98414c651130,
supermarket,Pusat Perbelanjaan,bultara,"pasar sore, Jl. Suprapto, Kalimantan Utara 77211",Jl. Suprapto,KALIMANTAN UTARA,77211.0,Indonesia,,,,2.8385953,117.3625744,https://maps.google.com/?cid=0x0:0x8293a2d16525eb84,
supermarket,Minimarket,INDOMARET BRIGJEND KATAMSO,"R9X6+8V6, Jl. Katamso, Kec. Tj. Selor, Kalimantan Utara 77212","Jl. Katamso, Kec. Tj. Selor",KALIMANTAN UTARA,77212.0,Indonesia,,,,2.8483839,117.3621957,https://maps.google.com/?cid=0x0:0x1fb27955488ede93,
supermarket,Restoran,PISANG IJO WD KALTARA,"R9R6+8MJ, Jl. Katamso, Tj. Selor Hilir, Kec. Tj. Selor, Kabupaten Bulungan, Kalimantan Utara 77214","Jl. Katamso, Tj. Selor Hilir, Kec. Tj. Selor, Kabupaten Bulungan",KALIMANTAN UTARA,77214.0,Indonesia, 081346354778,,,2.8408458,117.3616527,https://maps.google.com/?cid=0x0:0xfa0a33f1ed5b07f7,
supermarket,Minimarket,ZikriWaAhlam,"V9CG+QR4, Jl. Sabanar Lama, Salim Batu, Kec. Tj. Palas Tengah, Kabupaten Bulungan, Kalimantan Utara 77211","Jl. Sabanar Lama, Salim Batu, Kec. Tj. Palas Tengah, Kabupaten Bulungan",KALIMANTAN UTARA,77211.0,Indonesia, 082251303107,,,2.8718786,117.3770699,https://maps.google.com/?cid=0x0:0x58b821ad721339e9,
supermarket,Pusat Perbelanjaan,Toko Tanjung Mas,"R9P7+RP4, Jl. Kolonel Soetadji, soetadjie, Tj. Selor Hilir, Kec. Tj. Selor, Kabupaten Bulungan, Kalimantan Utara 77214","Jl. Kolonel Soetadji, soetadjie, Tj. Selor Hilir, Kec. Tj. Selor, Kabupaten Bulungan",KALIMANTAN UTARA,77214.0,Indonesia, 085246380500,,,2.8370101,117.3643422,https://maps.google.com/?cid=0x0:0xf30a7757d482f004,
supermarket,Toko Swalayan,Toko Panen Raya,"R9W8+5JP, Jl. Manggis III, Tj. Selor Hilir, Kec. Tj. Selor, Kabupaten Bulungan, Kalimantan Utara 77214","Jl. Manggis III, Tj. Selor Hilir, Kec. Tj. Selor, Kabupaten Bulungan",KALIMANTAN UTARA,77214.0,Indonesia,,,,2.8454562,117.3665891,https://maps.google.com/?cid=0x0:0x21bc7c65054e2fca,
supermarket,Toko Elektronik,Toko Eka Satya,"R9Q6+GP6, Jl. Katamso, Tj. Selor Hilir, Kec. Tj. Selor, Kabupaten Bulungan, Kalimantan Utara 77214","Jl. Katamso, Tj. Selor Hilir, Kec. Tj. Selor, Kabupaten Bulungan",KALIMANTAN UTARA,77214.0,Indonesia, 081254640511,,,2.83879,117.3617735,https://maps.google.com/?cid=0x0:0xccb2242195278c88,
supermarket,Toko,Toko Fajar Indah,"V88M+FW8, Jl. Skip II, Teras Baru, Kec. Tj. Selor, Kabupaten Bulungan, Kalimantan Utara 77212","Jl. Skip II, Teras Baru, Kec. Tj. Selor, Kabupaten Bulungan",KALIMANTAN UTARA,77212.0,Indonesia, 055222213,,,2.86615,117.334836,https://maps.google.com/?cid=0x0:0x794d094da47b3a5b,
supermarket,Toko,PING HARDWARE,"Jl. Duku, Tj. Selor Hilir, Kec. Tj. Selor, Kabupaten Bulungan, Kalimantan Utara 77212","Tj. Selor Hilir, Kec. Tj. Selor, Kabupaten Bulungan",KALIMANTAN UTARA,77212.0,Indonesia, 085249690313,,,2.8482523,117.3702225,https://maps.google.com/?cid=0x0:0xe2884f6f1c8c1586,
supermarket,Distributor minuman,PT. SINAR NIAGA SEMESTA,"Jl. Mangga III, Tj. Selor Hilir, Kec. Tj. Selor, Kabupaten Bulungan, Kalimantan Utara 77214","Tj. Selor Hilir, Kec. Tj. Selor, Kabupaten Bulungan",KALIMANTAN UTARA,77214.0,Indonesia, 052222612,,,2.8490342,117.3683398,https://maps.google.com/?cid=0x0:0xa1282923e8cadcbd,
supermarket,supermarket,Tandjungselor,"Tj. Palas Tengah, Kec. Tj. Palas, Kabupaten Bulungan, Kalimantan Utara","Kabupaten Bulungan, Kalimantan Utara",KALIMANTAN UTARA,,Indonesia,,,,2.844766,117.3648097,https://maps.google.com/?cid=0x0:0xbe0a10ea478e927,
supermarket,Minimarket,Alfamidi Kasimuddin,"R9H5+8HJ, Jl. Kasimuddin, Tj. Palas Hulu, Kec. Tj. Palas, Kabupaten Bulungan, Kalimantan Utara 77211","Jl. Kasimuddin, Tj. Palas Hulu, Kec. Tj. Palas, Kabupaten Bulungan",KALIMANTAN UTARA,77211.0,Indonesia, 082111342410,,,2.8285467,117.3586795,https://maps.google.com/?cid=0x0:0x28af1151d3cf1f2b,
supermarket,Minimarket,Toko Sembako,"R9Q6+WP7, Tj. Selor Hilir, Kec. Tj. Selor, Kabupaten Bulungan, Kalimantan Utara 77214","Tj. Selor Hilir, Kec. Tj. Selor, Kabupaten Bulungan",KALIMANTAN UTARA,77214.0,Indonesia,,,,2.8397999,117.3617913,https://maps.google.com/?cid=0x0:0x3db1365229d2606f,
