Category,Real Category,Business Name,Address,City,State,Postal Code,Country,Phone,Email,Website,Latitude,Longitude,Map Link,Details Link
komplek housing,Perhimpunan Pengembang Perumahan,Long buang,"HPQG+MC9, Long Buang, Peso, Kabupaten Bulungan, Kalimantan Utara 77261","Long Buang, Peso, Kabupaten Bulungan",KALIMANTAN UTARA,77261.0,Indonesia,,,,2.5891539,116.7261197,https://maps.google.com/?cid=0x0:0x29f792e7449ae77,
komplek housing,komplek housing,Kalimantan Timur 77261,"Kabupaten Bulungan, Kalimantan Timur","Kabupaten Bulungan, Kalimantan Timur",KALIMANTAN UTARA,,Indonesia,,,,2.6962559,116.702495,https://maps.google.com/?cid=0x0:0xe6ef60e95fa46d53,
komplek housing,Kampus Asrama,Perumahan Sofwa Indah Permai 1  2,"RCH6+P5M, Jl. Manunggal, Tj. Selor Tim., Kec. Tj. Selor, Kabupaten Bulungan, Kalimantan Utara","Kabupaten Bulungan, Kalimantan Utara",KALIMANTAN UTARA,,Indonesia,,,,2.8293382,117.4104268,https://maps.google.com/?cid=0x0:0xaaf1018c4c8c0855,
komplek housing,Komplek perumahan,Perumahan OA,"W7X5+93, Pimping, Kec. Tj. Palas Utara, Kabupaten Bulungan, Kalimantan Utara","Kabupaten Bulungan, Kalimantan Utara",KALIMANTAN UTARA,,Indonesia,,,,2.948414,117.2577376,https://maps.google.com/?cid=0x0:0x15e41ab9bb0f1d51,
komplek housing,Perhimpunan Pengembang Perumahan,Rumah ku,"P4QF+5GF, RT.4, Long Beluah, Kec. Tj. Palas Bar., Kabupaten Bulungan, Kalimantan Utara","Kabupaten Bulungan, Kalimantan Utara",KALIMANTAN UTARA,,Indonesia,,,,2.7379457,117.1238021,https://maps.google.com/?cid=0x0:0x6a37ad50c21d6307,
komplek housing,Komplek perumahan,rumah rofiatun,"WX3P+M3X, RT.1/RW.1, Long Bang, Peso Hilir, Kabupaten Bulungan, Kalimantan Utara","Kabupaten Bulungan, Kalimantan Utara",KALIMANTAN UTARA,,Indonesia,,,,2.9042476,116.9852422,https://maps.google.com/?cid=0x0:0x93f80f0b1b80800c,
komplek housing,Perhimpunan Pengembang Perumahan,POS 1,"P4QF+86X, Long Beluah, Kec. Tj. Palas Bar., Kabupaten Bulungan, Kalimantan Utara","Kabupaten Bulungan, Kalimantan Utara",KALIMANTAN UTARA,,Indonesia,,,,2.7383516,117.1231091,https://maps.google.com/?cid=0x0:0x6a09b6b4291c55a2,
komplek housing,Pembangunan Perumahan,Rumah saya,"M68V+6J9, Mara Hilir, Kec. Tj. Palas Bar., Kabupaten Bulungan, Kalimantan Utara","Kabupaten Bulungan, Kalimantan Utara",KALIMANTAN UTARA,,Indonesia,,,,2.6655325,117.2440957,https://maps.google.com/?cid=0x0:0xc6694ef6083ae63,
komplek housing,Komplek perumahan,Perumahan OB,"W7H8+WH, Tj. Palas Hilir, Kec. Tj. Palas, Kabupaten Bulungan, Kalimantan Utara","Kabupaten Bulungan, Kalimantan Utara",KALIMANTAN UTARA,,Indonesia,,,,2.9297817,117.2664477,https://maps.google.com/?cid=0x0:0xbf32ce2b45820be5,
komplek housing,Perhimpunan Pengembang Perumahan,Tajau City,"RH46+V9Q, Long Lejuh, Peso, Kabupaten Bulungan, Kalimantan Utara","Kabupaten Bulungan, Kalimantan Utara",KALIMANTAN UTARA,,Indonesia,,,,2.8072096,116.5609857,https://maps.google.com/?cid=0x0:0xbff9349ee43c46e0,
komplek housing,Komplek perumahan,Perumahan OD,"W7GX+RQ, Silva Rahayu, Kec. Tj. Palas Tengah, Kabupaten Bulungan, Kalimantan Utara","Kabupaten Bulungan, Kalimantan Utara",KALIMANTAN UTARA,,Indonesia,,,,2.927103,117.2994757,https://maps.google.com/?cid=0x0:0xd9a98d1daa46754b,
komplek housing,Komplek perumahan,Heryan Noor,"Permata Indah, Jl. Perum Bulungan, Long Bang, Peso Hilir, Bulungan Regency, North Kalimantan","Kabupaten Bulungan, Kalimantan Utara",KALIMANTAN UTARA,,Indonesia,,,,2.9042476,116.9852422,https://maps.google.com/?cid=0x0:0x86be885d1f4629d,
komplek housing,Pembangunan Perumahan,Perumahan Tanjung Harapan Residence,"R9PH+RQ4, Tj. Selor Hilir, Kec. Tj. Selor, Kabupaten Bulungan, Kalimantan Utara","Kabupaten Bulungan, Kalimantan Utara",KALIMANTAN UTARA,,Indonesia,,,,2.8370056,117.3794593,https://maps.google.com/?cid=0x0:0xbb5808c84bd94b64,
komplek housing,Komplek perumahan,Perumahan Pondok Tiga Tawai Indah,"R9WV+726, Tj. Selor Hilir, Kec. Tj. Selor, Kabupaten Bulungan, Kalimantan Utara","Kabupaten Bulungan, Kalimantan Utara",KALIMANTAN UTARA,,Indonesia,,,,2.8456721,117.3925297,https://maps.google.com/?cid=0x0:0xd344440af57766ab,
komplek housing,Komplek perumahan,Perumahan OC,"X72V+2M3, Silva Rahayu, Kec. Tj. Palas Tengah, Kabupaten Bulungan, Kalimantan Utara","Kabupaten Bulungan, Kalimantan Utara",KALIMANTAN UTARA,,Indonesia,,,,2.9500192,117.294175,https://maps.google.com/?cid=0x0:0xf3503ebd2897f11d,
komplek housing,Kantor Pemerintah,Desa pejalin,"R879+GQ8, Jl. Padat Karya, Pejalin, Kec. Tj. Palas, Kabupaten Bulungan, Kalimantan Utara 77211","Jl. Padat Karya, Pejalin, Kec. Tj. Palas, Kabupaten Bulungan",KALIMANTAN UTARA,77211.0,Indonesia,,,,2.8137857,117.31946,https://maps.google.com/?cid=0x0:0x7d66eddc4d59d3e3,
komplek housing,Komplek perumahan,Rmh Kakek sumpi,"Q63M+GF7, Mara Satu, Kec. Tj. Palas Bar., Kabupaten Bulungan, Kalimantan Utara","Kabupaten Bulungan, Kalimantan Utara",KALIMANTAN UTARA,,Indonesia,,,,2.7537817,117.2336594,https://maps.google.com/?cid=0x0:0xd1e56eee52e7ac25,
komplek housing,Pembangunan Perumahan,Rumah_Alif_Alifa,"R8VJ+PM9, Gn. Putih/Kr. Jenawi, Kec. Tj. Palas, Kabupaten Bulungan, Kalimantan Utara 77216","Gn. Putih/Kr. Jenawi, Kec. Tj. Palas, Kabupaten Bulungan",KALIMANTAN UTARA,77216.0,Indonesia,,,,2.844299,117.3317105,https://maps.google.com/?cid=0x0:0x4600687dfb1456e2,
komplek housing,Komplek perumahan,home ep,"26W4+RX, Karang Agung, Kec. Tj. Palas Utara, Kabupaten Bulungan, Kalimantan Utara","Kabupaten Bulungan, Kalimantan Utara",KALIMANTAN UTARA,,Indonesia,,,,3.047115,117.2073767,https://maps.google.com/?cid=0x0:0xc0047697d380a8c4,
komplek housing,Komplek perumahan,Rumah Henderson Naolen,"Jln Piner No.RT 12, Long Beluah, Kec. Tj. Palas Bar., Kabupaten Bulungan, Kalimantan Utara","Kabupaten Bulungan, Kalimantan Utara",KALIMANTAN UTARA,,Indonesia,,,,2.731033,117.1147095,https://maps.google.com/?cid=0x0:0x3740fb907643d334,
komplek housing,Komplek perumahan,Pondok Gede Housing II,"Housing II, Jl. Raya Hankam, RT.001/RW.004, Jatirahayu, Pondok Gede, Bekasi, West Java","Kota Bks, Jawa Barat",KALIMANTAN UTARA,,Indonesia,,,,-6.2876701,106.9147674,https://maps.google.com/?cid=0x0:0x2a52e601c20d18f2,
komplek housing,Komplek perumahan,Long Yin,"GM2J+XRJ Long Yin, Desa, Long Yiin/Pelaah, Peso, Bulungan Regency, North Kalimantan","Kabupaten Bulungan, Kalimantan Utara",KALIMANTAN UTARA,,Indonesia,,,,2.5024717,116.682019,https://maps.google.com/?cid=0x0:0x98e8b94b948c0e8f,
komplek housing,Komplek perumahan,Pondok Gede Housing 1,"Jl. Cipta Raya No.45-3, RT.001/RW.003, Jatirahayu, Kec. Pd. Melati, Kota Bks, Jawa Barat 17414","RT.001/RW.003, Jatirahayu, Kec. Pd. Melati, Kota Bks",KALIMANTAN UTARA,17414.0,Indonesia,,,,-6.2852504,106.9163397,https://maps.google.com/?cid=0x0:0x3132afedbf38cd61,
komplek housing,Komplek perumahan,White House,"Jl. Komp. Pd. Gede Housing.II Blok FF. 1A, Jatirahayu, Pondok Melati, Bekasi, West Java 17414","Jatirahayu, Pondok Melati, Bekasi",KALIMANTAN UTARA,17414.0,Indonesia,,,,-6.2883969,106.9160196,https://maps.google.com/?cid=0x0:0x2bf8b8029130581f,
komplek housing,komplek housing,Peso Hilir,"Kabupaten Bulungan, Kalimantan Utara","Kabupaten Bulungan, Kalimantan Utara",KALIMANTAN UTARA,,Indonesia,,,,2.7979259,116.9381434,https://maps.google.com/?cid=0x0:0x3e0d9d5c1d55d425,
komplek housing,komplek housing,Kalimantan Utara 77263,"Kabupaten Bulungan, Kalimantan Utara","Kabupaten Bulungan, Kalimantan Utara",KALIMANTAN UTARA,,Indonesia,,,,3.1226414,116.8910342,https://maps.google.com/?cid=0x0:0x4e5101a5ecf582e,
komplek housing,Perhimpunan Pengembang Perumahan,Selatak bengara,"555M+4FG, Sekatak Bengara, Kec. Sekatak, Kabupaten Bulungan, Kalimantan Utara","Kabupaten Bulungan, Kalimantan Utara",KALIMANTAN UTARA,,Indonesia,,,,3.1578127,117.1837076,https://maps.google.com/?cid=0x0:0x555720be2401bfcc,
komplek housing,Komplek perumahan,Basemcamp Jalai,"Jalai, Jl. Jembatan Jalai No.RT.03, Terindak, Kabupaten Bulungan, Kalimantan Utara 77263","Jl. Jembatan Jalai No.RT.03, Terindak, Kabupaten Bulungan",KALIMANTAN UTARA,77263.0,Indonesia,,,,3.2814206,117.0752245,https://maps.google.com/?cid=0x0:0x6602bd11c0c62d7e,
komplek housing,Komplek perumahan,Sanusi house,"36GV+V2, Ruhui Rahayu, Kec. Tj. Palas Utara, Kabupaten Bulungan, Kalimantan Utara","Kabupaten Bulungan, Kalimantan Utara",KALIMANTAN UTARA,,Indonesia,,,,3.0772241,117.2425599,https://maps.google.com/?cid=0x0:0x5389ca7e9250b29c,
komplek housing,Komplek perumahan,Sekatak buji,"8368+2F5, Jl. Ahmad Yani, Sekatak Buji, Kec. Sekatak, Kabupaten Bulungan, Kalimantan Utara 77263","Jl. Ahmad Yani, Sekatak Buji, Kec. Sekatak, Kabupaten Bulungan",KALIMANTAN UTARA,77263.0,Indonesia,,,,3.3094566,117.0661656,https://maps.google.com/?cid=0x0:0xb36d81e1e7ae8eaf,
komplek housing,Komplek perumahan,pelabuhn sekatak buji,"8359+H69, Sekatak Buji, Kec. Sekatak, Kabupaten Bulungan, Kalimantan Utara 77263","Sekatak Buji, Kec. Sekatak, Kabupaten Bulungan",KALIMANTAN UTARA,77263.0,Indonesia,,,,3.309598,117.068207,https://maps.google.com/?cid=0x0:0x21ce6f21c4c6c3d7,
komplek housing,Komplek perumahan,Jln Merak,"36F6+HM, Panca Agung, Kec. Tj. Palas Utara, Kabupaten Bulungan, Kalimantan Utara","Kabupaten Bulungan, Kalimantan Utara",KALIMANTAN UTARA,,Indonesia,,,,3.0738772,117.2117088,https://maps.google.com/?cid=0x0:0xe4a91f1b3e97192f,
komplek housing,Komplek perumahan,Lokasi andi Z,"6XHX+GC7, Bunau, Kec. Sekatak, Kabupaten Bulungan, Kalimantan Utara 77263","Bunau, Kec. Sekatak, Kabupaten Bulungan",KALIMANTAN UTARA,77263.0,Indonesia,,,,3.2287959,116.9985363,https://maps.google.com/?cid=0x0:0xd8c0b06ebe6b4ba9,
komplek housing,Otoritas Perumahan,Guest House PT. SKI (Sanggam Kahuripan Indonesia),"476C+RCP, Silva Rahayu, Kec. Tj. Palas Tengah, Kabupaten Bulungan, Kalimantan Utara 77215","Silva Rahayu, Kec. Tj. Palas Tengah, Kabupaten Bulungan",KALIMANTAN UTARA,77215.0,Indonesia, 081521881045,,,3.1124096,117.2702863,https://maps.google.com/?cid=0x0:0x8a31fa228a0e26e2,
komplek housing,Komplek perumahan,Ruma adi n dodo,"54W7+RV, Ambalat, Kec. Sekatak, Kabupaten Bulungan, Kalimantan Utara","Kabupaten Bulungan, Kalimantan Utara",KALIMANTAN UTARA,,Indonesia,,,,3.1971122,117.1146896,https://maps.google.com/?cid=0x0:0x46239305cb5da396,
komplek housing,Komplek perumahan,Rumah zam zim,"73RG+QPM, Sekatak Buji, Kec. Sekatak, Kabupaten Bulungan, Kalimantan Utara","Kabupaten Bulungan, Kalimantan Utara",KALIMANTAN UTARA,,Indonesia,,,,3.2919738,117.0768048,https://maps.google.com/?cid=0x0:0x10254ec79c01670b,
komplek housing,Komplek perumahan,home ep,"26W4+RX, Karang Agung, Kec. Tj. Palas Utara, Kabupaten Bulungan, Kalimantan Utara","Kabupaten Bulungan, Kalimantan Utara",KALIMANTAN UTARA,,Indonesia,,,,3.047115,117.2073767,https://maps.google.com/?cid=0x0:0xc0047697d380a8c4,
komplek housing,Komplek perumahan,Margono's house,"26W7+FX2, Jl. Ahmad Yani, Karang Agung, Kec. Tj. Palas Utara, Kabupaten Bulungan, Kalimantan Utara","Kabupaten Bulungan, Kalimantan Utara",KALIMANTAN UTARA,,Indonesia,,,,3.0461408,117.2148829,https://maps.google.com/?cid=0x0:0xb1b688c37da72a41,
komplek housing,Komplek perumahan,Pak supri alias pak subuh,"76GV+2J5, RT.1, Sekatak Buji, Kec. Sekatak, Kabupaten Bulungan, Kalimantan Utara","Kabupaten Bulungan, Kalimantan Utara",KALIMANTAN UTARA,,Indonesia,,,,3.2750199,117.2440957,https://maps.google.com/?cid=0x0:0x7a97b3f104ed6837,
komplek housing,Pembangunan Perumahan,Kelubir,"2788+CQ2, Kelubir, Kec. Tj. Palas Utara, Kabupaten Bulungan, Kalimantan Utara 77215","Kelubir, Kec. Tj. Palas Utara, Kabupaten Bulungan",KALIMANTAN UTARA,77215.0,Indonesia,,,,3.0158153,117.2667089,https://maps.google.com/?cid=0x0:0xd368b48eb7c5eba5,
komplek housing,Pembangunan Perumahan,VQ,"36CV+XG5, Ruhui Rahayu, Kec. Tj. Palas Utara, Kabupaten Bulungan, Kalimantan Utara 77215","Ruhui Rahayu, Kec. Tj. Palas Utara, Kabupaten Bulungan",KALIMANTAN UTARA,77215.0,Indonesia,,,,3.072388,117.2438642,https://maps.google.com/?cid=0x0:0xe58058d14ccad844,
komplek housing,Perumahan,Fatih,"369W+Q27, JL. Cut Nyak Dien, Ruhui Rahayu, Kec. Tj. Palas Utara, Kabupaten Bulungan, Kalimantan Utara","Kabupaten Bulungan, Kalimantan Utara",KALIMANTAN UTARA,,Indonesia,,,,3.069416,117.2450487,https://maps.google.com/?cid=0x0:0x19bc7e89e8a47298,
komplek housing,Pembangunan Perumahan,Tubung tubung,"857G+W68, Sekatak Bengara, Kec. Sekatak, Kabupaten Bulungan, Kalimantan Utara","Kabupaten Bulungan, Kalimantan Utara",KALIMANTAN UTARA,,Indonesia,,,,3.314798,117.1755711,https://maps.google.com/?cid=0x0:0xdb95883420a0b0e8,
komplek housing,Pembangunan Perumahan,Lisaa,"24P7+7RH, RT.06/RW.02, Karang Agung, Kec. Tj. Palas Utara, Kabupaten Bulungan, Kalimantan Utara","Kabupaten Bulungan, Kalimantan Utara",KALIMANTAN UTARA,,Indonesia,,,,3.0356856,117.1146021,https://maps.google.com/?cid=0x0:0x4aea681d1a87d551,
komplek housing,Komplek perumahan,Home Mr. Teacher,"36WG+2G5, Ardi Mulya, Kec. Tj. Palas Utara, Kabupaten Bulungan, Kalimantan Utara","Kabupaten Bulungan, Kalimantan Utara",KALIMANTAN UTARA,,Indonesia,,,,3.0953795,117.2272361,https://maps.google.com/?cid=0x0:0x280121a53fc1ac7f,
komplek housing,Rumah Kayu,Desa bekeliu,"76GV+2J5, Sekatak Buji, Kec. Sekatak, Kabupaten Bulungan, Kalimantan Utara","Kabupaten Bulungan, Kalimantan Utara",KALIMANTAN UTARA,,Indonesia,,,,3.2750199,117.2440957,https://maps.google.com/?cid=0x0:0xc317868e514384b5,
komplek housing,Komplek perumahan,Rumah pak supono,"36C6+JVP, Panca Agung, Kec. Tj. Palas Utara, Kabupaten Bulungan, Kalimantan Utara 77215","Panca Agung, Kec. Tj. Palas Utara, Kabupaten Bulungan",KALIMANTAN UTARA,77215.0,Indonesia,,,,3.0709544,117.2116126,https://maps.google.com/?cid=0x0:0xfe7ed1d62d3b936f,
komplek housing,komplek housing,Kec. Sekatak,"Kabupaten Bulungan, Kalimantan Utara","Kabupaten Bulungan, Kalimantan Utara",KALIMANTAN UTARA,,Indonesia,,,,3.261767,117.0794082,https://maps.google.com/?cid=0x0:0x5dcb593ea5d4e1e4,
komplek housing,komplek housing,Kalimantan Utara 77211,"Kabupaten Bulungan, Kalimantan Utara","Kabupaten Bulungan, Kalimantan Utara",KALIMANTAN UTARA,,Indonesia,,,,2.8426922,117.2911248,https://maps.google.com/?cid=0x0:0x503f82067f46d9d6,
komplek housing,Komplek perumahan,Perumahan OB,"W7H8+WH, Tj. Palas Hilir, Kec. Tj. Palas, Kabupaten Bulungan, Kalimantan Utara","Kabupaten Bulungan, Kalimantan Utara",KALIMANTAN UTARA,,Indonesia,,,,2.9297817,117.2664477,https://maps.google.com/?cid=0x0:0xbf32ce2b45820be5,
komplek housing,Komplek perumahan,Perumahan OA,"W7X5+93, Pimping, Kec. Tj. Palas Utara, Kabupaten Bulungan, Kalimantan Utara","Kabupaten Bulungan, Kalimantan Utara",KALIMANTAN UTARA,,Indonesia,,,,2.948414,117.2577376,https://maps.google.com/?cid=0x0:0x15e41ab9bb0f1d51,
komplek housing,Pembangunan Perumahan,rumahhijau,"R8MW+RVP, Karang Anyar, Kec. Tj. Palas, Kabupaten Bulungan, Kalimantan Utara","Kabupaten Bulungan, Kalimantan Utara",KALIMANTAN UTARA,,Indonesia,,,,2.8343886,117.3470292,https://maps.google.com/?cid=0x0:0x25fd4d69def23d0d,
komplek housing,Komplek perumahan,Perumahan OD,"W7GX+RQ, Silva Rahayu, Kec. Tj. Palas Tengah, Kabupaten Bulungan, Kalimantan Utara","Kabupaten Bulungan, Kalimantan Utara",KALIMANTAN UTARA,,Indonesia,,,,2.927103,117.2994757,https://maps.google.com/?cid=0x0:0xd9a98d1daa46754b,
komplek housing,Kantor Perusahaan,Perumahan Grand Bulungan Residence,"RCG3+PRW, Tengkapak, Kec. Tj. Selor, Kabupaten Bulungan, Kalimantan Utara 77211","Tengkapak, Kec. Tj. Selor, Kabupaten Bulungan",KALIMANTAN UTARA,77211.0,Indonesia, 082148406080,,,2.8268531,117.4045657,https://maps.google.com/?cid=0x0:0xad8b2be0316ac2cc,
komplek housing,Pembangunan Perumahan,Rumah_Alif_Alifa,"R8VJ+PM9, Gn. Putih/Kr. Jenawi, Kec. Tj. Palas, Kabupaten Bulungan, Kalimantan Utara 77216","Gn. Putih/Kr. Jenawi, Kec. Tj. Palas, Kabupaten Bulungan",KALIMANTAN UTARA,77216.0,Indonesia,,,,2.844299,117.3317105,https://maps.google.com/?cid=0x0:0x4600687dfb1456e2,
komplek housing,Komplek perumahan,Perumahan OC,"X72V+2M3, Silva Rahayu, Kec. Tj. Palas Tengah, Kabupaten Bulungan, Kalimantan Utara","Kabupaten Bulungan, Kalimantan Utara",KALIMANTAN UTARA,,Indonesia,,,,2.9500192,117.294175,https://maps.google.com/?cid=0x0:0xf3503ebd2897f11d,
komplek housing,Kafe,Base camp,"Jl. Budi Utomo No.11, Gn. Putih/Kr. Jenawi, Kec. Tj. Palas, Kabupaten Bulungan, Kalimantan Utara","Kabupaten Bulungan, Kalimantan Utara",KALIMANTAN UTARA,,Indonesia,,,,2.833846,117.3334181,https://maps.google.com/?cid=0x0:0x11276383d99389ff,
komplek housing,Komplek perumahan,Rmh Kakek sumpi,"Q63M+GF7, Mara Satu, Kec. Tj. Palas Bar., Kabupaten Bulungan, Kalimantan Utara","Kabupaten Bulungan, Kalimantan Utara",KALIMANTAN UTARA,,Indonesia,,,,2.7537817,117.2336594,https://maps.google.com/?cid=0x0:0xd1e56eee52e7ac25,
komplek housing,Komplek perumahan,Perumahan Tepurau/CSL,"W7P8+CM7, Tj. Palas Hilir, Kec. Tj. Palas, Kabupaten Bulungan, Kalimantan Utara","Kabupaten Bulungan, Kalimantan Utara",KALIMANTAN UTARA,,Indonesia,,,,2.9360388,117.2666834,https://maps.google.com/?cid=0x0:0x64f5d26601de9164,
komplek housing,Komplek perumahan,Perumahan Pondok Tiga Tawai Indah,"R9WV+726, Tj. Selor Hilir, Kec. Tj. Selor, Kabupaten Bulungan, Kalimantan Utara","Kabupaten Bulungan, Kalimantan Utara",KALIMANTAN UTARA,,Indonesia,,,,2.8456721,117.3925297,https://maps.google.com/?cid=0x0:0xd344440af57766ab,
komplek housing,Kantor Pemerintah,Desa pejalin,"R879+GQ8, Jl. Padat Karya, Pejalin, Kec. Tj. Palas, Kabupaten Bulungan, Kalimantan Utara 77211","Jl. Padat Karya, Pejalin, Kec. Tj. Palas, Kabupaten Bulungan",KALIMANTAN UTARA,77211.0,Indonesia,,,,2.8137857,117.31946,https://maps.google.com/?cid=0x0:0x7d66eddc4d59d3e3,
komplek housing,Komplek perumahan,Eddy'Z House,"V86Q+M8, Tj. Palas Hilir, Kec. Tj. Palas, Kabupaten Bulungan, Kalimantan Utara","Kabupaten Bulungan, Kalimantan Utara",KALIMANTAN UTARA,,Indonesia,,,,2.861628,117.338251,https://maps.google.com/?cid=0x0:0x9227666ae042209f,
komplek housing,Komplek perumahan,Nustam_Nessy's Home,"V99F+MWQ, Jl. Sabanar Lama, Sabanar Lama, Kec. Tj. Selor, Kabupaten Bulungan, Kalimantan Utara 77212","Jl. Sabanar Lama, Sabanar Lama, Kec. Tj. Selor, Kabupaten Bulungan",KALIMANTAN UTARA,77212.0,Indonesia,,,,2.8693442,117.3749041,https://maps.google.com/?cid=0x0:0x61dd1897905262ef,
komplek housing,Komplek perumahan,RUMAH I SA,"RCJ4+3Q9, Jl. Manunggal, Tengkapak, Kec. Tj. Selor, Kabupaten Bulungan, Kalimantan Utara 77211","Jl. Manunggal, Tengkapak, Kec. Tj. Selor, Kabupaten Bulungan",KALIMANTAN UTARA,77211.0,Indonesia,,,,2.829565,117.4070843,https://maps.google.com/?cid=0x0:0x67661bdcd495ba7b,
komplek housing,Komplek perumahan,Rumah Idaman,"R8MP+RPX, Jl. Katamso, Gn. Putih/Kr. Jenawi, Kec. Tj. Palas, Kabupaten Bulungan, Kalimantan Utara 77211","Jl. Katamso, Gn. Putih/Kr. Jenawi, Kec. Tj. Palas, Kabupaten Bulungan",KALIMANTAN UTARA,77211.0,Indonesia,,,,2.8350943,117.3373244,https://maps.google.com/?cid=0x0:0x78423d805aa4bfde,
komplek housing,Perhimpunan Pengembang Perumahan,Rumah pak ma'un,"R8WM+F49, Jl. Padat Karya, gunung putih, Kec. Tj. Palas, Kabupaten Bulungan, Kalimantan Utara 77216","Jl. Padat Karya, gunung putih, Kec. Tj. Palas, Kabupaten Bulungan",KALIMANTAN UTARA,77216.0,Indonesia,,,,2.845677,117.3334117,https://maps.google.com/?cid=0x0:0x46427a23aeaca7f7,
komplek housing,Komplek perumahan,Rumah Aca / Awis,"V93M+2MX, Tj. Palas Tengah, Kec. Tj. Palas, Kabupaten Bulungan, Kalimantan Utara","Kabupaten Bulungan, Kalimantan Utara",KALIMANTAN UTARA,,Indonesia,,,,2.8526184,117.3842403,https://maps.google.com/?cid=0x0:0x9f4f990c7b212fc6,
komplek housing,Pembangunan Perumahan,SOS,"R9V9+QGP, Tj. Selor Hilir, Kec. Tj. Palas Tengah, Kabupaten Bulungan, Kalimantan Utara 77214","Tj. Selor Hilir, Kec. Tj. Palas Tengah, Kabupaten Bulungan",KALIMANTAN UTARA,77214.0,Indonesia,,,,2.8444639,117.3688317,https://maps.google.com/?cid=0x0:0x389830d0e0e95283,
komplek housing,komplek housing,Kec. Tj. Palas,"Kabupaten Bulungan, Kalimantan Utara","Kabupaten Bulungan, Kalimantan Utara",KALIMANTAN UTARA,,Indonesia,,,,2.8335506,117.3412058,https://maps.google.com/?cid=0x0:0xf6c6997b9149e5ff,
komplek housing,Perhimpunan Pengembang Perumahan,AIRA-SALSA,"V9CG+7V6, Salim Batu, Kec. Tj. Palas Tengah, Kabupaten Bulungan, Kalimantan Utara 77211","Salim Batu, Kec. Tj. Palas Tengah, Kabupaten Bulungan",KALIMANTAN UTARA,77211.0,Indonesia,,,,2.8706642,117.3771254,https://maps.google.com/?cid=0x0:0xa8413f0831456c56,
komplek housing,Inspektur Tempat Tinggal,Rumah Teras Nawang,"V8JR+V5, Teras Nawang, Kec. Tj. Palas, Kabupaten Bulungan, Kalimantan Utara 77211","Teras Nawang, Kec. Tj. Palas, Kabupaten Bulungan",KALIMANTAN UTARA,77211.0,Indonesia,,,,2.882137,117.340452,https://maps.google.com/?cid=0x0:0xcc9b51441cb2bb40,
komplek housing,Komplek perumahan,Pembongkaran,"V85R+C3V, Tj. Palas Hilir, Kec. Tj. Palas, Kabupaten Bulungan, Kalimantan Utara 77211","Tj. Palas Hilir, Kec. Tj. Palas, Kabupaten Bulungan",KALIMANTAN UTARA,77211.0,Indonesia,,,,2.8591729,117.3399982,https://maps.google.com/?cid=0x0:0x27365c9a05c23bad,
komplek housing,Pembangunan Perumahan,jalung,"V8CH+7PW, Teras Baru, Kec. Tj. Palas, Kabupaten Bulungan, Kalimantan Utara 77211","Teras Baru, Kec. Tj. Palas, Kabupaten Bulungan",KALIMANTAN UTARA,77211.0,Indonesia,,,,2.8707479,117.3293277,https://maps.google.com/?cid=0x0:0xd974356d00381b10,
komplek housing,Komplek perumahan,Rumah Gue,"V8CM+9XR, RT.3, Teras Baru, Kec. Tj. Palas, Kabupaten Bulungan, Kalimantan Utara 77211","RT.3, Teras Baru, Kec. Tj. Palas, Kabupaten Bulungan",KALIMANTAN UTARA,77211.0,Indonesia,,,,2.8713788,117.3349003,https://maps.google.com/?cid=0x0:0x4d95c61633a53918,
komplek housing,Otoritas Perumahan,Rumah Sehun EXO,"Jl. Katamso Gg. Merdeka No.RT 18, Gn. Putih/Kr. Jenawi, Kec. Tj. Palas, Kabupaten Bulungan, Kalimantan Utara 77211","Gn. Putih/Kr. Jenawi, Kec. Tj. Palas, Kabupaten Bulungan",KALIMANTAN UTARA,77211.0,Indonesia,,,,2.8352768,117.337606,https://maps.google.com/?cid=0x0:0x5a714497d5d0f498,
komplek housing,Komplek perumahan,Gg.Membangan,"R9H4+JRF, Tj. Palas Tengah, Kec. Tj. Palas, Kabupaten Bulungan, Kalimantan Utara 77211","Tj. Palas Tengah, Kec. Tj. Palas, Kabupaten Bulungan",KALIMANTAN UTARA,77211.0,Indonesia,,,,2.829059,117.3570376,https://maps.google.com/?cid=0x0:0xa8db25cafcab092c,
komplek housing,Komplek perumahan,GG.RAMBUNG,"R9G5+VHC, Jl. Kasimuddin, Tj. Palas Hulu, Kec. Tj. Palas, Kabupaten Bulungan, Kalimantan Utara 77211","Jl. Kasimuddin, Tj. Palas Hulu, Kec. Tj. Palas, Kabupaten Bulungan",KALIMANTAN UTARA,77211.0,Indonesia,,,,2.8271818,117.3589028,https://maps.google.com/?cid=0x0:0x2eb0c1efedf61a61,
komplek housing,komplek housing,Kalimantan Utara 77214,"Kabupaten Bulungan, Kalimantan Utara","Kabupaten Bulungan, Kalimantan Utara",KALIMANTAN UTARA,,Indonesia,,,,2.9077425,117.3675233,https://maps.google.com/?cid=0x0:0xb0bb64f1a0e0ca39,
komplek housing,Pembangunan Perumahan,rumahhijau,"R8MW+RVP, Karang Anyar, Kec. Tj. Palas, Kabupaten Bulungan, Kalimantan Utara","Kabupaten Bulungan, Kalimantan Utara",KALIMANTAN UTARA,,Indonesia,,,,2.8343886,117.3470292,https://maps.google.com/?cid=0x0:0x25fd4d69def23d0d,
komplek housing,Pembangunan Perumahan,SOS,"R9V9+QGP, Tj. Selor Hilir, Kec. Tj. Palas Tengah, Kabupaten Bulungan, Kalimantan Utara 77214","Tj. Selor Hilir, Kec. Tj. Palas Tengah, Kabupaten Bulungan",KALIMANTAN UTARA,77214.0,Indonesia,,,,2.8444639,117.3688317,https://maps.google.com/?cid=0x0:0x389830d0e0e95283,
komplek housing,Komplek perumahan,Hairul,"R9V8+XXR, Jl. Manggis I, RT.6/RW.3, Tj. Selor Hilir, Kec. Tj. Selor, Kabupaten Bulungan, Kalimantan Utara 77214","Jl. Manggis I, RT.6/RW.3, Tj. Selor Hilir, Kec. Tj. Selor, Kabupaten Bulungan",KALIMANTAN UTARA,77214.0,Indonesia,,,,2.8449826,117.3673777,https://maps.google.com/?cid=0x0:0xbf6645fb7668c331,
komplek housing,Komplek perumahan,Rais house,"W97H+GM, Salim Batu, Kec. Tj. Palas Tengah, Kabupaten Bulungan, Kalimantan Utara 77216","Salim Batu, Kec. Tj. Palas Tengah, Kabupaten Bulungan",KALIMANTAN UTARA,77216.0,Indonesia,,,,2.913825,117.3792106,https://maps.google.com/?cid=0x0:0xe1913b0377cf6c9a,
komplek housing,Pembangunan Perumahan,Perumahan Tanjung Harapan Residence,"R9PH+RQ4, Tj. Selor Hilir, Kec. Tj. Selor, Kabupaten Bulungan, Kalimantan Utara","Kabupaten Bulungan, Kalimantan Utara",KALIMANTAN UTARA,,Indonesia,,,,2.8370056,117.3794593,https://maps.google.com/?cid=0x0:0xbb5808c84bd94b64,
komplek housing,Pembangunan Perumahan,Kompleks perumahan kav manjadda properti,"Jl. Lestari, Tj. Selor Hilir, Kec. Tj. Selor, Kabupaten Bulungan, Kalimantan Utara 77216","Tj. Selor Hilir, Kec. Tj. Selor, Kabupaten Bulungan",KALIMANTAN UTARA,77216.0,Indonesia, 085250909999,,,2.8565922,117.3674671,https://maps.google.com/?cid=0x0:0x5c9fccd638894bae,
komplek housing,Pangkalan Militer,Perumahan Korem 092/Mrl,"R9W7+7CJ, Tj. Selor Hilir, Kec. Tj. Selor, Kabupaten Bulungan, Kalimantan Utara 77214","Tj. Selor Hilir, Kec. Tj. Selor, Kabupaten Bulungan",KALIMANTAN UTARA,77214.0,Indonesia,,,,2.8457184,117.3635133,https://maps.google.com/?cid=0x0:0x6542832207fcf19b,
komplek housing,Komplek perumahan,Nustam_Nessy's Home,"V99F+MWQ, Jl. Sabanar Lama, Sabanar Lama, Kec. Tj. Selor, Kabupaten Bulungan, Kalimantan Utara 77212","Jl. Sabanar Lama, Sabanar Lama, Kec. Tj. Selor, Kabupaten Bulungan",KALIMANTAN UTARA,77212.0,Indonesia,,,,2.8693442,117.3749041,https://maps.google.com/?cid=0x0:0x61dd1897905262ef,
komplek housing,Pembangunan Perumahan,Rumah_Alif_Alifa,"R8VJ+PM9, Gn. Putih/Kr. Jenawi, Kec. Tj. Palas, Kabupaten Bulungan, Kalimantan Utara 77216","Gn. Putih/Kr. Jenawi, Kec. Tj. Palas, Kabupaten Bulungan",KALIMANTAN UTARA,77216.0,Indonesia,,,,2.844299,117.3317105,https://maps.google.com/?cid=0x0:0x4600687dfb1456e2,
komplek housing,Pembangunan Perumahan,Rumah ma Itha,"R9WF+6VC, Tj. Palas Tengah, Kec. Tj. Palas, Kabupaten Bulungan, Kalimantan Utara","Kabupaten Bulungan, Kalimantan Utara",KALIMANTAN UTARA,,Indonesia,,,,2.8455502,117.3746364,https://maps.google.com/?cid=0x0:0x2968ea622f3b4ce3,
komplek housing,Komplek perumahan,Simpang empat,"R9V7+WW3, Tj. Selor Hilir, Kec. Tj. Palas Tengah, Kabupaten Bulungan, Kalimantan Utara","Kabupaten Bulungan, Kalimantan Utara",KALIMANTAN UTARA,,Indonesia,,,,2.844766,117.3648097,https://maps.google.com/?cid=0x0:0xa4d904cd5134661a,
komplek housing,Pembangunan Perumahan,Wisma Idaman Kementerian Agama,"R9V7+GMX, Jl. Kolonel Soetadji, Tj. Selor Hilir, Kec. Tj. Selor, Kabupaten Bulungan, Kalimantan Utara","Kabupaten Bulungan, Kalimantan Utara",KALIMANTAN UTARA,,Indonesia,,,,2.843852,117.3642246,https://maps.google.com/?cid=0x0:0x1e811538312a7cc7,
komplek housing,Pembangunan Perumahan,SNS HOUSE,"R9X8+5JH, Tengah, Kec. Tj. Palas, Kabupaten Bulungan, Kalimantan Utara","Kabupaten Bulungan, Kalimantan Utara",KALIMANTAN UTARA,,Indonesia,,,,2.8479279,117.3666154,https://maps.google.com/?cid=0x0:0x2bcca373db44d83a,
komplek housing,Komplek perumahan,Tempat kosku,"Jalur 2 no 159 upt Sp3 Tanjung Buka, Tj. Selor Hilir, Kec. Tj. Selor, Kabupaten Bulungan, Kalimantan Utara 77216","Tj. Selor Hilir, Kec. Tj. Selor, Kabupaten Bulungan",KALIMANTAN UTARA,77216.0,Indonesia,,,,2.8577903,117.3654748,https://maps.google.com/?cid=0x0:0xed514ec12f5bdaf7,
komplek housing,Komplek perumahan,Rumah Pak Bahar,"V949+968, Tj. Selor Hilir, Kec. Tj. Palas Tengah, Kabupaten Bulungan, Kalimantan Utara 77216","Tj. Selor Hilir, Kec. Tj. Palas Tengah, Kabupaten Bulungan",KALIMANTAN UTARA,77216.0,Indonesia,,,,2.8560902,117.3680789,https://maps.google.com/?cid=0x0:0xe4f064f3a648bee4,
komplek housing,Komplek perumahan,H.SUBHANNUDIN,"V938+42G, Gg. Surya, Tj. Selor Hilir, Kec. Tj. Selor, Kabupaten Bulungan, Kalimantan Utara 77216","Gg. Surya, Tj. Selor Hilir, Kec. Tj. Selor, Kabupaten Bulungan",KALIMANTAN UTARA,77216.0,Indonesia,,,,2.8528238,117.3650871,https://maps.google.com/?cid=0x0:0x1caacf54735019dd,
komplek housing,Komplek perumahan,Eddy'Z House,"V86Q+M8, Tj. Palas Hilir, Kec. Tj. Palas, Kabupaten Bulungan, Kalimantan Utara","Kabupaten Bulungan, Kalimantan Utara",KALIMANTAN UTARA,,Indonesia,,,,2.861628,117.338251,https://maps.google.com/?cid=0x0:0x9227666ae042209f,
komplek housing,Perhimpunan Pengembang Perumahan,Gondrong Sp 4,"W94P+FW, Salim Batu, Kec. Tj. Palas Tengah, Kabupaten Bulungan, Kalimantan Utara","Kabupaten Bulungan, Kalimantan Utara",KALIMANTAN UTARA,,Indonesia,,,,2.906157,117.387252,https://maps.google.com/?cid=0x0:0x4ee4c1b6007da093,
komplek housing,komplek housing,Kec. Tj. Palas,"Kabupaten Bulungan, Kalimantan Utara","Kabupaten Bulungan, Kalimantan Utara",KALIMANTAN UTARA,,Indonesia,,,,2.8335506,117.3412058,https://maps.google.com/?cid=0x0:0xf6c6997b9149e5ff,
komplek housing,Komplek perumahan,Daeng adi,"R9P4+464, Jl. Pangeran, Tj. Palas Tengah, Kec. Tj. Palas, Kabupaten Bulungan, Kalimantan Utara 77214","Jl. Pangeran, Tj. Palas Tengah, Kec. Tj. Palas, Kabupaten Bulungan",KALIMANTAN UTARA,77214.0,Indonesia,,,,2.8352648,117.3555691,https://maps.google.com/?cid=0x0:0xdcd3910a930c380d,
komplek housing,Komplek perumahan,Rumah Mukmin,"R9V2+W68, Tj. Palas Hilir, Kec. Tj. Palas, Kabupaten Bulungan, Kalimantan Utara 77214","Tj. Palas Hilir, Kec. Tj. Palas, Kabupaten Bulungan",KALIMANTAN UTARA,77214.0,Indonesia,,,,2.8447806,117.3505738,https://maps.google.com/?cid=0x0:0x71f9b4332d64b951,
komplek housing,Pembangunan Perumahan,Kos,"R9R6+HXR, Gg. IV, Tj. Selor Hilir, Kec. Tj. Selor, Kabupaten Bulungan, Kalimantan Utara 77214","Gg. IV, Tj. Selor Hilir, Kec. Tj. Selor, Kabupaten Bulungan",KALIMANTAN UTARA,77214.0,Indonesia, 082142944656,,,2.8414846,117.3623816,https://maps.google.com/?cid=0x0:0x46d33117e170e3d,
komplek housing,Komplek perumahan,My Home,"R9R8+JCW, Gg. IV, Tj. Selor Hilir, Kec. Tj. Selor, Kabupaten Bulungan, Kalimantan Utara 77214","Gg. IV, Tj. Selor Hilir, Kec. Tj. Selor, Kabupaten Bulungan",KALIMANTAN UTARA,77214.0,Indonesia,,,,2.841619,117.3666,https://maps.google.com/?cid=0x0:0xedfad401a78e60b1,
komplek housing,Pembangunan Perumahan,Distyajhhâ™ª,"R9Q8+3R8, Jl. Kamboja, Tj. Selor Hulu, Kec. Tj. Selor, Kabupaten Bulungan, Kalimantan Utara 77214","Jl. Kamboja, Tj. Selor Hulu, Kec. Tj. Selor, Kabupaten Bulungan",KALIMANTAN UTARA,77214.0,Indonesia,,,,2.8376546,117.3670775,https://maps.google.com/?cid=0x0:0x14735147a8d029fa,
komplek housing,komplek housing,YOUFONG HOUSE,"Jl. Kedondong No.58, Tj. Selor Hilir, Kec. Tj. Selor, Kabupaten Bulungan, Kalimantan Utara 77214","Tj. Selor Hilir, Kec. Tj. Selor, Kabupaten Bulungan",KALIMANTAN UTARA,77214.0,Indonesia,,,,2.8475287,117.366789,https://maps.google.com/?cid=0x0:0x98687adbb64c0dc5,
komplek housing,Komplek perumahan,Dimaz's Kingdom,"Jl. Suprapto No.35, Tj. Selor Hulu, Kec. Tj. Selor, Kabupaten Bulungan, Kalimantan Utara 77214","Tj. Selor Hulu, Kec. Tj. Selor, Kabupaten Bulungan",KALIMANTAN UTARA,77214.0,Indonesia,,,,2.8384929,117.3638823,https://maps.google.com/?cid=0x0:0xeb6a576a37be4861,
komplek housing,Komplek perumahan,Alifbhian Home's,"Jl. Gapensi No.151, RT.028/RW.010, Tj. Selor Hilir, Kec. Tj. Selor, Kabupaten Bulungan, Kalimantan Utara 77214","RT.028/RW.010, Tj. Selor Hilir, Kec. Tj. Selor, Kabupaten Bulungan",KALIMANTAN UTARA,77214.0,Indonesia,,,,2.8487661,117.3659039,https://maps.google.com/?cid=0x0:0x51a9eb3efea2d9ac,
komplek housing,Komplek perumahan,Rumah Nizar,"R9V8+6QM, Tj. Selor Hilir, Kec. Tj. Selor, Kabupaten Bulungan, Kalimantan Utara 77214","Tj. Selor Hilir, Kec. Tj. Selor, Kabupaten Bulungan",KALIMANTAN UTARA,77214.0,Indonesia,,,,2.8429632,117.3666545,https://maps.google.com/?cid=0x0:0x51a73ad8f91e007c,
komplek housing,komplek housing,Kec. Tj. Palas,"Kabupaten Bulungan, Kalimantan Utara","Kabupaten Bulungan, Kalimantan Utara",KALIMANTAN UTARA,,Indonesia,,,,2.8335506,117.3412058,https://maps.google.com/?cid=0x0:0xf6c6997b9149e5ff,
komplek housing,Pembangunan Perumahan,rumahhijau,"R8MW+RVP, Karang Anyar, Kec. Tj. Palas, Kabupaten Bulungan, Kalimantan Utara","Kabupaten Bulungan, Kalimantan Utara",KALIMANTAN UTARA,,Indonesia,,,,2.8343886,117.3470292,https://maps.google.com/?cid=0x0:0x25fd4d69def23d0d,
komplek housing,Kafe,Base camp,"Jl. Budi Utomo No.11, Gn. Putih/Kr. Jenawi, Kec. Tj. Palas, Kabupaten Bulungan, Kalimantan Utara","Kabupaten Bulungan, Kalimantan Utara",KALIMANTAN UTARA,,Indonesia,,,,2.833846,117.3334181,https://maps.google.com/?cid=0x0:0x11276383d99389ff,
komplek housing,Komplek perumahan,Eddy'Z House,"V86Q+M8, Tj. Palas Hilir, Kec. Tj. Palas, Kabupaten Bulungan, Kalimantan Utara","Kabupaten Bulungan, Kalimantan Utara",KALIMANTAN UTARA,,Indonesia,,,,2.861628,117.338251,https://maps.google.com/?cid=0x0:0x9227666ae042209f,
komplek housing,Pembangunan Perumahan,Rumah_Alif_Alifa,"R8VJ+PM9, Gn. Putih/Kr. Jenawi, Kec. Tj. Palas, Kabupaten Bulungan, Kalimantan Utara 77216","Gn. Putih/Kr. Jenawi, Kec. Tj. Palas, Kabupaten Bulungan",KALIMANTAN UTARA,77216.0,Indonesia,,,,2.844299,117.3317105,https://maps.google.com/?cid=0x0:0x4600687dfb1456e2,
komplek housing,Komplek perumahan,Akhmad Iderus,"R9G3+XXV, Jl. Abdul Fatah, Tj. Palas Tengah, Kec. Tj. Palas, Kabupaten Bulungan, Kalimantan Utara 77216","Jl. Abdul Fatah, Tj. Palas Tengah, Kec. Tj. Palas, Kabupaten Bulungan",KALIMANTAN UTARA,77216.0,Indonesia,,,,2.8275012,117.3552238,https://maps.google.com/?cid=0x0:0x7868d1b302585ad3,
komplek housing,Pembangunan Perumahan,Perumahan Tanjung Harapan Residence,"R9PH+RQ4, Tj. Selor Hilir, Kec. Tj. Selor, Kabupaten Bulungan, Kalimantan Utara","Kabupaten Bulungan, Kalimantan Utara",KALIMANTAN UTARA,,Indonesia,,,,2.8370056,117.3794593,https://maps.google.com/?cid=0x0:0xbb5808c84bd94b64,
komplek housing,Komplek perumahan,Rumah Gue,"V8CM+9XR, RT.3, Teras Baru, Kec. Tj. Palas, Kabupaten Bulungan, Kalimantan Utara 77211","RT.3, Teras Baru, Kec. Tj. Palas, Kabupaten Bulungan",KALIMANTAN UTARA,77211.0,Indonesia,,,,2.8713788,117.3349003,https://maps.google.com/?cid=0x0:0x4d95c61633a53918,
komplek housing,Perhimpunan Pengembang Perumahan,Rumah pak ma'un,"R8WM+F49, Jl. Padat Karya, gunung putih, Kec. Tj. Palas, Kabupaten Bulungan, Kalimantan Utara 77216","Jl. Padat Karya, gunung putih, Kec. Tj. Palas, Kabupaten Bulungan",KALIMANTAN UTARA,77216.0,Indonesia,,,,2.845677,117.3334117,https://maps.google.com/?cid=0x0:0x46427a23aeaca7f7,
komplek housing,Perhimpunan Pengembang Perumahan,AIRA-SALSA,"V9CG+7V6, Salim Batu, Kec. Tj. Palas Tengah, Kabupaten Bulungan, Kalimantan Utara 77211","Salim Batu, Kec. Tj. Palas Tengah, Kabupaten Bulungan",KALIMANTAN UTARA,77211.0,Indonesia,,,,2.8706642,117.3771254,https://maps.google.com/?cid=0x0:0xa8413f0831456c56,
komplek housing,Komplek perumahan,Pembongkaran,"V85R+C3V, Tj. Palas Hilir, Kec. Tj. Palas, Kabupaten Bulungan, Kalimantan Utara 77211","Tj. Palas Hilir, Kec. Tj. Palas, Kabupaten Bulungan",KALIMANTAN UTARA,77211.0,Indonesia,,,,2.8591729,117.3399982,https://maps.google.com/?cid=0x0:0x27365c9a05c23bad,
komplek housing,Komplek perumahan,Rumah Idaman,"R8MP+RPX, Jl. Katamso, Gn. Putih/Kr. Jenawi, Kec. Tj. Palas, Kabupaten Bulungan, Kalimantan Utara 77211","Jl. Katamso, Gn. Putih/Kr. Jenawi, Kec. Tj. Palas, Kabupaten Bulungan",KALIMANTAN UTARA,77211.0,Indonesia,,,,2.8350943,117.3373244,https://maps.google.com/?cid=0x0:0x78423d805aa4bfde,
komplek housing,Komplek perumahan,Rumah Pak Bahar,"V949+968, Tj. Selor Hilir, Kec. Tj. Palas Tengah, Kabupaten Bulungan, Kalimantan Utara 77216","Tj. Selor Hilir, Kec. Tj. Palas Tengah, Kabupaten Bulungan",KALIMANTAN UTARA,77216.0,Indonesia,,,,2.8560902,117.3680789,https://maps.google.com/?cid=0x0:0xe4f064f3a648bee4,
komplek housing,Komplek perumahan,Rumah Ismed Salehuddin,"R9G4+X68, Jalan Abdul Fatah, Tj. Palas Tengah, Kec. Tj. Palas, Kabupaten Bulungan, Kalimantan Utara","Kabupaten Bulungan, Kalimantan Utara",KALIMANTAN UTARA,,Indonesia,,,,2.8274033,117.3555913,https://maps.google.com/?cid=0x0:0xe40a19f509ec31c1,
komplek housing,Inspektur Tempat Tinggal,Rumah Teras Nawang,"V8JR+V5, Teras Nawang, Kec. Tj. Palas, Kabupaten Bulungan, Kalimantan Utara 77211","Teras Nawang, Kec. Tj. Palas, Kabupaten Bulungan",KALIMANTAN UTARA,77211.0,Indonesia,,,,2.882137,117.340452,https://maps.google.com/?cid=0x0:0xcc9b51441cb2bb40,
komplek housing,Pembangunan Perumahan,SOS,"R9V9+QGP, Tj. Selor Hilir, Kec. Tj. Palas Tengah, Kabupaten Bulungan, Kalimantan Utara 77214","Tj. Selor Hilir, Kec. Tj. Palas Tengah, Kabupaten Bulungan",KALIMANTAN UTARA,77214.0,Indonesia,,,,2.8444639,117.3688317,https://maps.google.com/?cid=0x0:0x389830d0e0e95283,
komplek housing,Komplek perumahan,rumah Patra hebat,"V8CP+34V, Teras Baru, Kec. Tj. Palas, Kabupaten Bulungan, Kalimantan Utara 77211","Teras Baru, Kec. Tj. Palas, Kabupaten Bulungan",KALIMANTAN UTARA,77211.0,Indonesia,,,,2.8702292,117.3353027,https://maps.google.com/?cid=0x0:0x8e8fb13c7fea833e,
komplek housing,Otoritas Perumahan,Rumah Sehun EXO,"Jl. Katamso Gg. Merdeka No.RT 18, Gn. Putih/Kr. Jenawi, Kec. Tj. Palas, Kabupaten Bulungan, Kalimantan Utara 77211","Gn. Putih/Kr. Jenawi, Kec. Tj. Palas, Kabupaten Bulungan",KALIMANTAN UTARA,77211.0,Indonesia,,,,2.8352768,117.337606,https://maps.google.com/?cid=0x0:0x5a714497d5d0f498,
komplek housing,Komplek perumahan,NCAU.L,"V89M+XW5, Teras Baru, Kec. Tj. Palas, Kabupaten Bulungan, Kalimantan Utara","Kabupaten Bulungan, Kalimantan Utara",KALIMANTAN UTARA,,Indonesia,,,,2.8698875,117.3348594,https://maps.google.com/?cid=0x0:0x4282f9b13b1091bc,
komplek housing,Tempat acara,Lokasi Acara,"R8JX+82H, Tj. Palas Tengah, Kec. Tj. Palas, Kabupaten Bulungan, Kalimantan Utara 77216","Tj. Palas Tengah, Kec. Tj. Palas, Kabupaten Bulungan",KALIMANTAN UTARA,77216.0,Indonesia,,,,2.8308671,117.3475464,https://maps.google.com/?cid=0x0:0x6202d7cbf886363c,
komplek housing,Komplek perumahan,Nustam_Nessy's Home,"V99F+MWQ, Jl. Sabanar Lama, Sabanar Lama, Kec. Tj. Selor, Kabupaten Bulungan, Kalimantan Utara 77212","Jl. Sabanar Lama, Sabanar Lama, Kec. Tj. Selor, Kabupaten Bulungan",KALIMANTAN UTARA,77212.0,Indonesia,,,,2.8693442,117.3749041,https://maps.google.com/?cid=0x0:0x61dd1897905262ef,
komplek housing,Komplek perumahan,Tempat kosku,"Jalur 2 no 159 upt Sp3 Tanjung Buka, Tj. Selor Hilir, Kec. Tj. Selor, Kabupaten Bulungan, Kalimantan Utara 77216","Tj. Selor Hilir, Kec. Tj. Selor, Kabupaten Bulungan",KALIMANTAN UTARA,77216.0,Indonesia,,,,2.8577903,117.3654748,https://maps.google.com/?cid=0x0:0xed514ec12f5bdaf7,
komplek housing,Komplek perumahan,Kompleks Kayan Bugis,"V94J+JFQ, Jl. Cendana GG. Kayan, Bugis, Kec. Tj. Selor, Kabupaten Bulungan, Kalimantan Utara 77216","Jl. Cendana GG. Kayan, Bugis, Kec. Tj. Selor, Kabupaten Bulungan",KALIMANTAN UTARA,77216.0,Indonesia,,,,2.8565801,117.3812476,https://maps.google.com/?cid=0x0:0xec9a6110c0d86eb6,
komplek housing,Komplek perumahan,Daeng adi,"R9P4+464, Jl. Pangeran, Tj. Palas Tengah, Kec. Tj. Palas, Kabupaten Bulungan, Kalimantan Utara 77214","Jl. Pangeran, Tj. Palas Tengah, Kec. Tj. Palas, Kabupaten Bulungan",KALIMANTAN UTARA,77214.0,Indonesia,,,,2.8352648,117.3555691,https://maps.google.com/?cid=0x0:0xdcd3910a930c380d,
komplek housing,Pembangunan Perumahan,Rina sukmawati,"R984+JX6, Jl. Budiman Arifin, Tj. Palas Hulu, Kec. Tj. Palas, Kabupaten Bulungan, Kalimantan Utara 77216","Jl. Budiman Arifin, Tj. Palas Hulu, Kec. Tj. Palas, Kabupaten Bulungan",KALIMANTAN UTARA,77216.0,Indonesia,,,,2.8165296,117.3573856,https://maps.google.com/?cid=0x0:0x47d012f116306266,
komplek housing,Perhimpunan Pengembang Perumahan,Hen house,"Jl. Blk. P2 No.19, Tj. Selor Hilir, Kec. Tj. Selor, Kabupaten Bulungan, Kalimantan Utara 77215","Tj. Selor Hilir, Kec. Tj. Selor, Kabupaten Bulungan",KALIMANTAN UTARA,77215.0,Indonesia,,,,2.8372489,117.3975661,https://maps.google.com/?cid=0x0:0xf9ab2619556915c6,
komplek housing,Komplek perumahan,Toha homes,"Jl. Rw. Payau Jl. Jalur 1 No.39, Tj. Selor Hilir, Kec. Tj. Selor, Kabupaten Bulungan, Kalimantan Utara 77215","Tj. Selor Hilir, Kec. Tj. Selor, Kabupaten Bulungan",KALIMANTAN UTARA,77215.0,Indonesia,,,,2.8384145,117.390703,https://maps.google.com/?cid=0x0:0x4c5f8b6d47d218b4,
komplek housing,Komplek perumahan,Rumah Pak Lukas,"R9PJ+946, Tj. Selor Hilir, Kec. Tj. Selor, Kabupaten Bulungan, Kalimantan Utara 77215","Tj. Selor Hilir, Kec. Tj. Selor, Kabupaten Bulungan",KALIMANTAN UTARA,77215.0,Indonesia,,,,2.8360614,117.3795373,https://maps.google.com/?cid=0x0:0x65ed5eff70a0a7a9,
komplek housing,Sekolah,Komplek Perumahan TELKOM,"R9PP+FGJ, Tj. Selor Hilir, Kec. Tj. Selor, Kabupaten Bulungan, Kalimantan Utara 77215","Tj. Selor Hilir, Kec. Tj. Selor, Kabupaten Bulungan",KALIMANTAN UTARA,77215.0,Indonesia,,,,2.8362248,117.3862543,https://maps.google.com/?cid=0x0:0x173bd580bb640a15,
komplek housing,komplek housing,Kalimantan Utara 77216,"Kec. Tj. Palas Tengah, Kabupaten Bulungan, Kalimantan Utara","Kabupaten Bulungan, Kalimantan Utara",KALIMANTAN UTARA,,Indonesia,,,,2.9980617,117.5026174,https://maps.google.com/?cid=0x0:0x79c11fd9905607e6,
komplek housing,Komplek perumahan,Perumahan OC,"X72V+2M3, Silva Rahayu, Kec. Tj. Palas Tengah, Kabupaten Bulungan, Kalimantan Utara","Kabupaten Bulungan, Kalimantan Utara",KALIMANTAN UTARA,,Indonesia,,,,2.9500192,117.294175,https://maps.google.com/?cid=0x0:0xf3503ebd2897f11d,
komplek housing,Pembangunan Perumahan,Perumahan Tanjung Harapan Residence,"R9PH+RQ4, Tj. Selor Hilir, Kec. Tj. Selor, Kabupaten Bulungan, Kalimantan Utara","Kabupaten Bulungan, Kalimantan Utara",KALIMANTAN UTARA,,Indonesia,,,,2.8370056,117.3794593,https://maps.google.com/?cid=0x0:0xbb5808c84bd94b64,
komplek housing,komplek housing,Rumah Basri Jola,"Perumahan Graha Permata Tiga Tawai, Jl. Tiga Tawai Blok C No 16, Tj. Selor Hilir, Kec. Tj. Selor, Kabupaten Bulungan, Kalimantan Utara 77216","Jl. Tiga Tawai Blok C No 16, Tj. Selor Hilir, Kec. Tj. Selor, Kabupaten Bulungan",KALIMANTAN UTARA,77216.0,Indonesia,,,,2.8441641,117.3952303,https://maps.google.com/?cid=0x0:0x4487d3009b5a9904,
komplek housing,Komplek perumahan,Rumah Pak Bahar,"V949+968, Tj. Selor Hilir, Kec. Tj. Palas Tengah, Kabupaten Bulungan, Kalimantan Utara 77216","Tj. Selor Hilir, Kec. Tj. Palas Tengah, Kabupaten Bulungan",KALIMANTAN UTARA,77216.0,Indonesia,,,,2.8560902,117.3680789,https://maps.google.com/?cid=0x0:0xe4f064f3a648bee4,
komplek housing,Komplek perumahan,Perumahan Pondok Tiga Tawai Indah,"R9WV+726, Tj. Selor Hilir, Kec. Tj. Selor, Kabupaten Bulungan, Kalimantan Utara","Kabupaten Bulungan, Kalimantan Utara",KALIMANTAN UTARA,,Indonesia,,,,2.8456721,117.3925297,https://maps.google.com/?cid=0x0:0xd344440af57766ab,
komplek housing,Komplek perumahan,Perumahan Griya Perdamaian Permai,"Griya Perdamaian Jl. Perdamaian Komplek F4, Tj. Selor Hilir, Kec. Tj. Selor, Kabupaten Bulungan, Kalimantan Utara 77212","Tj. Selor Hilir, Kec. Tj. Selor, Kabupaten Bulungan",KALIMANTAN UTARA,77212.0,Indonesia,,,,2.8513949,117.3988759,https://maps.google.com/?cid=0x0:0x5924fa894b2e2615,
komplek housing,Pembangunan Perumahan,Bayangkara,"V99G+QVQ, Tanjung Palas Barat, Kabupaten Bulungan, Kalimantan Utara","Kabupaten Bulungan, Kalimantan Utara",KALIMANTAN UTARA,,Indonesia,,,,2.86947,117.3772345,https://maps.google.com/?cid=0x0:0xe24b62c5f7414b66,
komplek housing,Pembangunan Perumahan,Turunan Kidul,"X7RX+MG, Silva Rahayu, Kec. Tj. Palas Tengah, Kabupaten Bulungan, Kalimantan Utara","Kabupaten Bulungan, Kalimantan Utara",KALIMANTAN UTARA,,Indonesia,,,,2.9917644,117.2987493,https://maps.google.com/?cid=0x0:0xb3f982439ad8e6b1,
komplek housing,Perhimpunan Pengembang Perumahan,Rumah pak ma'un,"R8WM+F49, Jl. Padat Karya, gunung putih, Kec. Tj. Palas, Kabupaten Bulungan, Kalimantan Utara 77216","Jl. Padat Karya, gunung putih, Kec. Tj. Palas, Kabupaten Bulungan",KALIMANTAN UTARA,77216.0,Indonesia,,,,2.845677,117.3334117,https://maps.google.com/?cid=0x0:0x46427a23aeaca7f7,
komplek housing,Tempat acara,Lokasi Acara,"R8JX+82H, Tj. Palas Tengah, Kec. Tj. Palas, Kabupaten Bulungan, Kalimantan Utara 77216","Tj. Palas Tengah, Kec. Tj. Palas, Kabupaten Bulungan",KALIMANTAN UTARA,77216.0,Indonesia,,,,2.8308671,117.3475464,https://maps.google.com/?cid=0x0:0x6202d7cbf886363c,
komplek housing,Kampus Asrama,Perumahan Sofwa Indah Permai 1  2,"RCH6+P5M, Jl. Manunggal, Tj. Selor Tim., Kec. Tj. Selor, Kabupaten Bulungan, Kalimantan Utara","Kabupaten Bulungan, Kalimantan Utara",KALIMANTAN UTARA,,Indonesia,,,,2.8293382,117.4104268,https://maps.google.com/?cid=0x0:0xaaf1018c4c8c0855,
komplek housing,Pembangunan Perumahan,Kompleks perumahan kav manjadda properti,"Jl. Lestari, Tj. Selor Hilir, Kec. Tj. Selor, Kabupaten Bulungan, Kalimantan Utara 77216","Tj. Selor Hilir, Kec. Tj. Selor, Kabupaten Bulungan",KALIMANTAN UTARA,77216.0,Indonesia, 085250909999,,,2.8565922,117.3674671,https://maps.google.com/?cid=0x0:0x5c9fccd638894bae,
komplek housing,Komplek perumahan,Kompleks Kayan Bugis,"V94J+JFQ, Jl. Cendana GG. Kayan, Bugis, Kec. Tj. Selor, Kabupaten Bulungan, Kalimantan Utara 77216","Jl. Cendana GG. Kayan, Bugis, Kec. Tj. Selor, Kabupaten Bulungan",KALIMANTAN UTARA,77216.0,Indonesia,,,,2.8565801,117.3812476,https://maps.google.com/?cid=0x0:0xec9a6110c0d86eb6,
komplek housing,Perhimpunan Pengembang Perumahan,Hen house,"Jl. Blk. P2 No.19, Tj. Selor Hilir, Kec. Tj. Selor, Kabupaten Bulungan, Kalimantan Utara 77215","Tj. Selor Hilir, Kec. Tj. Selor, Kabupaten Bulungan",KALIMANTAN UTARA,77215.0,Indonesia,,,,2.8372489,117.3975661,https://maps.google.com/?cid=0x0:0xf9ab2619556915c6,
komplek housing,Komplek perumahan,Tempat kosku,"Jalur 2 no 159 upt Sp3 Tanjung Buka, Tj. Selor Hilir, Kec. Tj. Selor, Kabupaten Bulungan, Kalimantan Utara 77216","Tj. Selor Hilir, Kec. Tj. Selor, Kabupaten Bulungan",KALIMANTAN UTARA,77216.0,Indonesia,,,,2.8577903,117.3654748,https://maps.google.com/?cid=0x0:0xed514ec12f5bdaf7,
komplek housing,Pembangunan Perumahan,TANAH MAHMUD FAMILY BULUNGAN,"WCVP+W7G, Tj. Buka, Kec. Tj. Palas Tengah, Kabupaten Bulungan, Kalimantan Utara","Kabupaten Bulungan, Kalimantan Utara",KALIMANTAN UTARA,,Indonesia,,,,2.944825,117.4356976,https://maps.google.com/?cid=0x0:0x2320cfdca9360dd5,
komplek housing,Pembangunan Perumahan,Rumah_Alif_Alifa,"R8VJ+PM9, Gn. Putih/Kr. Jenawi, Kec. Tj. Palas, Kabupaten Bulungan, Kalimantan Utara 77216","Gn. Putih/Kr. Jenawi, Kec. Tj. Palas, Kabupaten Bulungan",KALIMANTAN UTARA,77216.0,Indonesia,,,,2.844299,117.3317105,https://maps.google.com/?cid=0x0:0x4600687dfb1456e2,
komplek housing,Komplek perumahan,Perumahan Perdamaian Residence,"V92W+MVG, Tj. Selor Hilir, Kec. Tj. Selor, Kabupaten Bulungan, Kalimantan Utara","Kabupaten Bulungan, Kalimantan Utara",KALIMANTAN UTARA,,Indonesia,,,,2.8516853,117.3971916,https://maps.google.com/?cid=0x0:0xf394da0e167efbf1,
komplek housing,komplek housing,Perumahan Bulungan Permata Indah Blok C14,"Permata Indah, Jl. Tiga Tawai Perumahan Blok C14, Tanjung Selor Hilir, Tanjung Selor, Bulungan Regency, North Kalimantan 77216","Jl. Tiga Tawai Perumahan Blok C14, Tanjung Selor Hilir, Tanjung Selor, Bulungan Regency",KALIMANTAN UTARA,77216.0,Indonesia,,,,2.8500112,117.3975018,https://maps.google.com/?cid=0x0:0xd1f9eb835ba95458,
komplek housing,komplek housing,Kec. Tj. Palas,"Kabupaten Bulungan, Kalimantan Utara","Kabupaten Bulungan, Kalimantan Utara",KALIMANTAN UTARA,,Indonesia,,,,2.8335506,117.3412058,https://maps.google.com/?cid=0x0:0xf6c6997b9149e5ff,
komplek housing,Kantor Perusahaan,Rumah,"V97Q+56P, Tj. Selor Hilir, Kec. Tj. Selor, Kabupaten Bulungan, Kalimantan Utara 77216","Tj. Selor Hilir, Kec. Tj. Selor, Kabupaten Bulungan",KALIMANTAN UTARA,77216.0,Indonesia,,,,2.8629739,117.3880896,https://maps.google.com/?cid=0x0:0x99c2d54035e7e09d,
komplek housing,Komplek perumahan,Tanah Permukiman Syaiful,"R8MV+3QC, Gn. Putih/Kr. Jenawi, Kec. Tj. Palas, Kabupaten Bulungan, Kalimantan Utara 77216","Gn. Putih/Kr. Jenawi, Kec. Tj. Palas, Kabupaten Bulungan",KALIMANTAN UTARA,77216.0,Indonesia,,,,2.8326978,117.3443998,https://maps.google.com/?cid=0x0:0x7b9d99577787253c,
komplek housing,Pembangunan Perumahan,Nurlaila,"R8QP+7R7, Jelarai selor Jl. Mulawarman, Jelarai hulu, Kec. Tj. Palas, Kabupaten Bulungan, Kalimantan Utara 77216","Jelarai selor Jl. Mulawarman, Jelarai hulu, Kec. Tj. Palas, Kabupaten Bulungan",KALIMANTAN UTARA,77216.0,Indonesia,,,,2.8381727,117.3370411,https://maps.google.com/?cid=0x0:0x60a8da062f4b29c5,
komplek housing,Pembangunan Perumahan,Rina sukmawati,"R984+JX6, Jl. Budiman Arifin, Tj. Palas Hulu, Kec. Tj. Palas, Kabupaten Bulungan, Kalimantan Utara 77216","Jl. Budiman Arifin, Tj. Palas Hulu, Kec. Tj. Palas, Kabupaten Bulungan",KALIMANTAN UTARA,77216.0,Indonesia,,,,2.8165296,117.3573856,https://maps.google.com/?cid=0x0:0x47d012f116306266,
komplek housing,Komplek perumahan,H.SUBHANNUDIN,"V938+42G, Gg. Surya, Tj. Selor Hilir, Kec. Tj. Selor, Kabupaten Bulungan, Kalimantan Utara 77216","Gg. Surya, Tj. Selor Hilir, Kec. Tj. Selor, Kabupaten Bulungan",KALIMANTAN UTARA,77216.0,Indonesia,,,,2.8528238,117.3650871,https://maps.google.com/?cid=0x0:0x1caacf54735019dd,
komplek housing,komplek housing,Rumah (Muh) Ansorri,"R8QR+8R7, Jl. Kebun Sayur, Gn. Putih/Kr. Jenawi, Kec. Tj. Palas, Kabupaten Bulungan, Kalimantan Utara 77216","Jl. Kebun Sayur, Gn. Putih/Kr. Jenawi, Kec. Tj. Palas, Kabupaten Bulungan",KALIMANTAN UTARA,77216.0,Indonesia,,,,2.8382876,117.3420486,https://maps.google.com/?cid=0x0:0x597dd0d62093c782,
komplek housing,Komplek perumahan,Rumah ansel,"V82W+C5F, Tj. Palas Hilir, Kec. Tj. Palas, Kabupaten Bulungan, Kalimantan Utara 77216","Tj. Palas Hilir, Kec. Tj. Palas, Kabupaten Bulungan",KALIMANTAN UTARA,77216.0,Indonesia,,,,2.852184,117.346069,https://maps.google.com/?cid=0x0:0x5a8fe1fa84fd8f8a,
komplek housing,Komplek perumahan,Keluarga Wahoyo,"R8VM+94F, Jl. Padat Karya, Gn. Putih/Kr. Jenawi, Kec. Tj. Palas, Kabupaten Bulungan, Kalimantan Utara 77216","Jl. Padat Karya, Gn. Putih/Kr. Jenawi, Kec. Tj. Palas, Kabupaten Bulungan",KALIMANTAN UTARA,77216.0,Indonesia,,,,2.8432903,117.3326352,https://maps.google.com/?cid=0x0:0x93e27ef72c796ed9,
komplek housing,komplek housing,Kalimantan Timur 77217,"Kabupaten Bulungan, Kalimantan Timur","Kabupaten Bulungan, Kalimantan Timur",KALIMANTAN UTARA,,Indonesia,,,,2.719535,117.2205771,https://maps.google.com/?cid=0x0:0x639273c2b96cd605,
komplek housing,Perhimpunan Pengembang Perumahan,Rumah ku,"P4QF+5GF, RT.4, Long Beluah, Kec. Tj. Palas Bar., Kabupaten Bulungan, Kalimantan Utara","Kabupaten Bulungan, Kalimantan Utara",KALIMANTAN UTARA,,Indonesia,,,,2.7379457,117.1238021,https://maps.google.com/?cid=0x0:0x6a37ad50c21d6307,
komplek housing,Komplek perumahan,Rmh Kakek sumpi,"Q63M+GF7, Mara Satu, Kec. Tj. Palas Bar., Kabupaten Bulungan, Kalimantan Utara","Kabupaten Bulungan, Kalimantan Utara",KALIMANTAN UTARA,,Indonesia,,,,2.7537817,117.2336594,https://maps.google.com/?cid=0x0:0xd1e56eee52e7ac25,
komplek housing,Perhimpunan Pengembang Perumahan,POS 1,"P4QF+86X, Long Beluah, Kec. Tj. Palas Bar., Kabupaten Bulungan, Kalimantan Utara","Kabupaten Bulungan, Kalimantan Utara",KALIMANTAN UTARA,,Indonesia,,,,2.7383516,117.1231091,https://maps.google.com/?cid=0x0:0x6a09b6b4291c55a2,
komplek housing,Perhimpunan Pengembang Perumahan,Rumah pak Yusuf,"Q842+JF7, Antutan, Kec. Tj. Palas, Kabupaten Bulungan, Kalimantan Utara","Kabupaten Bulungan, Kalimantan Utara",KALIMANTAN UTARA,,Indonesia,,,,2.7565268,117.3011699,https://maps.google.com/?cid=0x0:0x1b9b43b49d444d90,
komplek housing,Pembangunan Perumahan,Rina sukmawati,"R984+JX6, Jl. Budiman Arifin, Tj. Palas Hulu, Kec. Tj. Palas, Kabupaten Bulungan, Kalimantan Utara 77216","Jl. Budiman Arifin, Tj. Palas Hulu, Kec. Tj. Palas, Kabupaten Bulungan",KALIMANTAN UTARA,77216.0,Indonesia,,,,2.8165296,117.3573856,https://maps.google.com/?cid=0x0:0x47d012f116306266,
komplek housing,Kantor Pemerintah,Desa pejalin,"R879+GQ8, Jl. Padat Karya, Pejalin, Kec. Tj. Palas, Kabupaten Bulungan, Kalimantan Utara 77211","Jl. Padat Karya, Pejalin, Kec. Tj. Palas, Kabupaten Bulungan",KALIMANTAN UTARA,77211.0,Indonesia,,,,2.8137857,117.31946,https://maps.google.com/?cid=0x0:0x7d66eddc4d59d3e3,
komplek housing,Komplek perumahan,Rumah Henderson Naolen,"Jln Piner No.RT 12, Long Beluah, Kec. Tj. Palas Bar., Kabupaten Bulungan, Kalimantan Utara","Kabupaten Bulungan, Kalimantan Utara",KALIMANTAN UTARA,,Indonesia,,,,2.731033,117.1147095,https://maps.google.com/?cid=0x0:0x3740fb907643d334,
komplek housing,Rumah Kayu,Rumah pak halim,"PG98+7WC RT.10, Tanjung Agung, East Tanjung Palas, Bulungan Regency, North Kalimantan 77215","Tanjung Agung, East Tanjung Palas, Bulungan Regency",KALIMANTAN UTARA,77215.0,Indonesia,,,,2.7181952,117.5172768,https://maps.google.com/?cid=0x0:0x5addb27c8d56478f,
komplek housing,komplek housing,Rumah Mana Ratna,"R9C5+93P, Jl. Budiman Arifin, Tj. Palas Hulu, Kec. Tj. Palas, Kabupaten Bulungan, Kalimantan Utara 77211","Jl. Budiman Arifin, Tj. Palas Hulu, Kec. Tj. Palas, Kabupaten Bulungan",KALIMANTAN UTARA,77211.0,Indonesia,,,,2.8209576,117.3577028,https://maps.google.com/?cid=0x0:0x801066dc659d61a4,
komplek housing,Komplek perumahan,NUTS ME2,"R88C+6C, Pejalin, Kec. Tj. Palas, Kabupaten Bulungan, Kalimantan Utara","Kabupaten Bulungan, Kalimantan Utara",KALIMANTAN UTARA,,Indonesia,,,,2.8157239,117.3207829,https://maps.google.com/?cid=0x0:0x4c238f0eb82d2028,
komplek housing,Komplek perumahan,Rumah Tante Erna,"R8CF+C68, Pejalin, Kec. Tj. Palas, Kabupaten Bulungan, Kalimantan Utara","Kabupaten Bulungan, Kalimantan Utara",KALIMANTAN UTARA,,Indonesia,,,,2.8199529,117.3226564,https://maps.google.com/?cid=0x0:0xebf170b65aa9cf9e,
komplek housing,Pembangunan Perumahan,Rumah ayang,"R9C2+Q97, Jl. Ahmad Yani, Tj. Palas Hulu, Kec. Tj. Palas, Kabupaten Bulungan, Kalimantan Utara 77211","Jl. Ahmad Yani, Tj. Palas Hulu, Kec. Tj. Palas, Kabupaten Bulungan",KALIMANTAN UTARA,77211.0,Indonesia,,,,2.8219106,117.3509306,https://maps.google.com/?cid=0x0:0xd7e194b048ce0932,
komplek housing,Komplek perumahan,Rumah Ulun Benua,"R8FF+4G4, Jl. Ahmad Yani, Pejalin, Kec. Tj. Palas, Kabupaten Bulungan, Kalimantan Utara 77211","Jl. Ahmad Yani, Pejalin, Kec. Tj. Palas, Kabupaten Bulungan",KALIMANTAN UTARA,77211.0,Indonesia,,,,2.8221668,117.3231847,https://maps.google.com/?cid=0x0:0xf58c9bffdd6913ea,
komplek housing,Pembangunan Perumahan,Perumahan Tanjung Harapan Residence,"R9PH+RQ4, Tj. Selor Hilir, Kec. Tj. Selor, Kabupaten Bulungan, Kalimantan Utara","Kabupaten Bulungan, Kalimantan Utara",KALIMANTAN UTARA,,Indonesia,,,,2.8370056,117.3794593,https://maps.google.com/?cid=0x0:0xbb5808c84bd94b64,
komplek housing,Komplek perumahan,Rumah Tanjung,"R9R8+69G, Tj. Selor Hilir, Kec. Tj. Palas Tengah, Kabupaten Bulungan, Kalimantan Utara 77214","Tj. Selor Hilir, Kec. Tj. Palas Tengah, Kabupaten Bulungan",KALIMANTAN UTARA,77214.0,Indonesia,,,,2.8405629,117.3659475,https://maps.google.com/?cid=0x0:0xc33a4f3ccb2acdf9,
komplek housing,komplek housing,Kec. Tj. Palas Bar.,"Kabupaten Bulungan, Kalimantan Utara","Kabupaten Bulungan, Kalimantan Utara",KALIMANTAN UTARA,,Indonesia,,,,2.7260725,117.1300782,https://maps.google.com/?cid=0x0:0x71114963023b9563,
komplek housing,komplek housing,Kalimantan Utara 77216,"Kec. Tj. Palas Tengah, Kabupaten Bulungan, Kalimantan Utara","Kabupaten Bulungan, Kalimantan Utara",KALIMANTAN UTARA,,Indonesia,,,,2.9980617,117.5026174,https://maps.google.com/?cid=0x0:0x79c11fd9905607e6,
komplek housing,Komplek perumahan,Perumahan OC,"X72V+2M3, Silva Rahayu, Kec. Tj. Palas Tengah, Kabupaten Bulungan, Kalimantan Utara","Kabupaten Bulungan, Kalimantan Utara",KALIMANTAN UTARA,,Indonesia,,,,2.9500192,117.294175,https://maps.google.com/?cid=0x0:0xf3503ebd2897f11d,
komplek housing,Komplek perumahan,Rumah Pak Bahar,"V949+968, Tj. Selor Hilir, Kec. Tj. Palas Tengah, Kabupaten Bulungan, Kalimantan Utara 77216","Tj. Selor Hilir, Kec. Tj. Palas Tengah, Kabupaten Bulungan",KALIMANTAN UTARA,77216.0,Indonesia,,,,2.8560902,117.3680789,https://maps.google.com/?cid=0x0:0xe4f064f3a648bee4,
komplek housing,komplek housing,Rumah Basri Jola,"Perumahan Graha Permata Tiga Tawai, Jl. Tiga Tawai Blok C No 16, Tj. Selor Hilir, Kec. Tj. Selor, Kabupaten Bulungan, Kalimantan Utara 77216","Jl. Tiga Tawai Blok C No 16, Tj. Selor Hilir, Kec. Tj. Selor, Kabupaten Bulungan",KALIMANTAN UTARA,77216.0,Indonesia,,,,2.8441641,117.3952303,https://maps.google.com/?cid=0x0:0x4487d3009b5a9904,
komplek housing,Pembangunan Perumahan,Turunan Kidul,"X7RX+MG, Silva Rahayu, Kec. Tj. Palas Tengah, Kabupaten Bulungan, Kalimantan Utara","Kabupaten Bulungan, Kalimantan Utara",KALIMANTAN UTARA,,Indonesia,,,,2.9917644,117.2987493,https://maps.google.com/?cid=0x0:0xb3f982439ad8e6b1,
komplek housing,Pembangunan Perumahan,Perumahan Tanjung Harapan Residence,"R9PH+RQ4, Tj. Selor Hilir, Kec. Tj. Selor, Kabupaten Bulungan, Kalimantan Utara","Kabupaten Bulungan, Kalimantan Utara",KALIMANTAN UTARA,,Indonesia,,,,2.8370056,117.3794593,https://maps.google.com/?cid=0x0:0xbb5808c84bd94b64,
komplek housing,Perhimpunan Pengembang Perumahan,Rumah pak ma'un,"R8WM+F49, Jl. Padat Karya, gunung putih, Kec. Tj. Palas, Kabupaten Bulungan, Kalimantan Utara 77216","Jl. Padat Karya, gunung putih, Kec. Tj. Palas, Kabupaten Bulungan",KALIMANTAN UTARA,77216.0,Indonesia,,,,2.845677,117.3334117,https://maps.google.com/?cid=0x0:0x46427a23aeaca7f7,
komplek housing,Komplek perumahan,Kompleks Kayan Bugis,"V94J+JFQ, Jl. Cendana GG. Kayan, Bugis, Kec. Tj. Selor, Kabupaten Bulungan, Kalimantan Utara 77216","Jl. Cendana GG. Kayan, Bugis, Kec. Tj. Selor, Kabupaten Bulungan",KALIMANTAN UTARA,77216.0,Indonesia,,,,2.8565801,117.3812476,https://maps.google.com/?cid=0x0:0xec9a6110c0d86eb6,
komplek housing,Tempat acara,Lokasi Acara,"R8JX+82H, Tj. Palas Tengah, Kec. Tj. Palas, Kabupaten Bulungan, Kalimantan Utara 77216","Tj. Palas Tengah, Kec. Tj. Palas, Kabupaten Bulungan",KALIMANTAN UTARA,77216.0,Indonesia,,,,2.8308671,117.3475464,https://maps.google.com/?cid=0x0:0x6202d7cbf886363c,
komplek housing,Pembangunan Perumahan,Bayangkara,"V99G+QVQ, Tanjung Palas Barat, Kabupaten Bulungan, Kalimantan Utara","Kabupaten Bulungan, Kalimantan Utara",KALIMANTAN UTARA,,Indonesia,,,,2.86947,117.3772345,https://maps.google.com/?cid=0x0:0xe24b62c5f7414b66,
komplek housing,Pembangunan Perumahan,TANAH MAHMUD FAMILY BULUNGAN,"WCVP+W7G, Tj. Buka, Kec. Tj. Palas Tengah, Kabupaten Bulungan, Kalimantan Utara","Kabupaten Bulungan, Kalimantan Utara",KALIMANTAN UTARA,,Indonesia,,,,2.944825,117.4356976,https://maps.google.com/?cid=0x0:0x2320cfdca9360dd5,
komplek housing,Pembangunan Perumahan,Kompleks perumahan kav manjadda properti,"Jl. Lestari, Tj. Selor Hilir, Kec. Tj. Selor, Kabupaten Bulungan, Kalimantan Utara 77216","Tj. Selor Hilir, Kec. Tj. Selor, Kabupaten Bulungan",KALIMANTAN UTARA,77216.0,Indonesia, 085250909999,,,2.8565922,117.3674671,https://maps.google.com/?cid=0x0:0x5c9fccd638894bae,
komplek housing,Komplek perumahan,CSL,"W8M2+49, Silva Rahayu, Kec. Tj. Palas Tengah, Kabupaten Bulungan, Kalimantan Utara","Kabupaten Bulungan, Kalimantan Utara",KALIMANTAN UTARA,,Indonesia,,,,2.9328333,117.3009367,https://maps.google.com/?cid=0x0:0xc16945073f8c0f46,
komplek housing,Komplek perumahan,Refananta home,"WCHQ+MH, Tj. Buka, Kec. Tj. Palas Tengah, Kabupaten Bulungan, Kalimantan Utara","Kabupaten Bulungan, Kalimantan Utara",KALIMANTAN UTARA,,Indonesia,,,,2.9291931,117.4389654,https://maps.google.com/?cid=0x0:0xfb95c2cd2b8e0315,
komplek housing,Pembangunan Perumahan,Rumah_Alif_Alifa,"R8VJ+PM9, Gn. Putih/Kr. Jenawi, Kec. Tj. Palas, Kabupaten Bulungan, Kalimantan Utara 77216","Gn. Putih/Kr. Jenawi, Kec. Tj. Palas, Kabupaten Bulungan",KALIMANTAN UTARA,77216.0,Indonesia,,,,2.844299,117.3317105,https://maps.google.com/?cid=0x0:0x4600687dfb1456e2,
komplek housing,Pembangunan Perumahan,Rumah ma Itha,"R9WF+6VC, Tj. Palas Tengah, Kec. Tj. Palas, Kabupaten Bulungan, Kalimantan Utara","Kabupaten Bulungan, Kalimantan Utara",KALIMANTAN UTARA,,Indonesia,,,,2.8455502,117.3746364,https://maps.google.com/?cid=0x0:0x2968ea622f3b4ce3,
komplek housing,Komplek perumahan,Tempat kosku,"Jalur 2 no 159 upt Sp3 Tanjung Buka, Tj. Selor Hilir, Kec. Tj. Selor, Kabupaten Bulungan, Kalimantan Utara 77216","Tj. Selor Hilir, Kec. Tj. Selor, Kabupaten Bulungan",KALIMANTAN UTARA,77216.0,Indonesia,,,,2.8577903,117.3654748,https://maps.google.com/?cid=0x0:0xed514ec12f5bdaf7,
komplek housing,Perhimpunan Pengembang Perumahan,Hen house,"Jl. Blk. P2 No.19, Tj. Selor Hilir, Kec. Tj. Selor, Kabupaten Bulungan, Kalimantan Utara 77215","Tj. Selor Hilir, Kec. Tj. Selor, Kabupaten Bulungan",KALIMANTAN UTARA,77215.0,Indonesia,,,,2.8372489,117.3975661,https://maps.google.com/?cid=0x0:0xf9ab2619556915c6,
komplek housing,Perhimpunan Pengembang Perumahan,AIRA-SALSA,"V9CG+7V6, Salim Batu, Kec. Tj. Palas Tengah, Kabupaten Bulungan, Kalimantan Utara 77211","Salim Batu, Kec. Tj. Palas Tengah, Kabupaten Bulungan",KALIMANTAN UTARA,77211.0,Indonesia,,,,2.8706642,117.3771254,https://maps.google.com/?cid=0x0:0xa8413f0831456c56,
komplek housing,Perhimpunan Pengembang Perumahan,C  R Home,"V93P+C2C, Tengah, Kec. Tj. Palas, Kabupaten Bulungan, Kalimantan Timur 77216","Tengah, Kec. Tj. Palas, Kabupaten Bulungan",KALIMANTAN UTARA,77216.0,Indonesia,,,,2.8535597,117.3850302,https://maps.google.com/?cid=0x0:0x467fe981f5054112,
komplek housing,Komplek perumahan,Freza SAS,"W92Q+V3, Salim Batu, Kec. Tj. Palas Tengah, Kabupaten Bulungan, Kalimantan Utara 77214","Salim Batu, Kec. Tj. Palas Tengah, Kabupaten Bulungan",KALIMANTAN UTARA,77214.0,Indonesia,,,,2.902328,117.3877151,https://maps.google.com/?cid=0x0:0x492f13a45f01181f,
komplek housing,Komplek perumahan,Rumah Aca / Awis,"V93M+2MX, Tj. Palas Tengah, Kec. Tj. Palas, Kabupaten Bulungan, Kalimantan Utara","Kabupaten Bulungan, Kalimantan Utara",KALIMANTAN UTARA,,Indonesia,,,,2.8526184,117.3842403,https://maps.google.com/?cid=0x0:0x9f4f990c7b212fc6,
komplek housing,Kantor Perusahaan,Rumah,"V97Q+56P, Tj. Selor Hilir, Kec. Tj. Selor, Kabupaten Bulungan, Kalimantan Utara 77216","Tj. Selor Hilir, Kec. Tj. Selor, Kabupaten Bulungan",KALIMANTAN UTARA,77216.0,Indonesia,,,,2.8629739,117.3880896,https://maps.google.com/?cid=0x0:0x99c2d54035e7e09d,
komplek housing,Komplek perumahan,FEBRY PUTRI'S HOUSE,"Jl. Sengkawit Gg. Klp. Gading 019, RT./RW/RW.050, Tj. Selor Hilir, Kec. Tj. Selor, Kabupaten Bulungan, Kalimantan Utara 77216","RT./RW/RW.050, Tj. Selor Hilir, Kec. Tj. Selor, Kabupaten Bulungan",KALIMANTAN UTARA,77216.0,Indonesia,,,,2.8533469,117.3813251,https://maps.google.com/?cid=0x0:0x83e01b6fc2bc3943,
komplek housing,Komplek perumahan,RBW Pak Fery Ruruk Pasiakan,"V92J+3GG, Tj. Palas Tengah, Kec. Tj. Palas, Kabupaten Bulungan, Kalimantan Utara","Kabupaten Bulungan, Kalimantan Utara",KALIMANTAN UTARA,,Indonesia,,,,2.8501861,117.3813302,https://maps.google.com/?cid=0x0:0x19a27d0405c9584b,
komplek housing,komplek housing,Kec. Tj. Palas Tengah,"Kabupaten Bulungan, Kalimantan Utara","Kabupaten Bulungan, Kalimantan Utara",KALIMANTAN UTARA,,Indonesia,,,,2.8698819,117.6200138,https://maps.google.com/?cid=0x0:0x1cc51c62c33a72e8,
komplek housing,Pembangunan Perumahan,Rumah Arsa dan Reyhan,"WCJ5+VM, Salim Batu, Kec. Tj. Palas Tengah, Kabupaten Bulungan, Kalimantan Utara 77216","Salim Batu, Kec. Tj. Palas Tengah, Kabupaten Bulungan",KALIMANTAN UTARA,77216.0,Indonesia,,,,2.9322145,117.4093092,https://maps.google.com/?cid=0x0:0x8dc91a78bd45b7d7,
komplek housing,Komplek perumahan,Kismanudin,"W8WW+66P, Silva Rahayu, Kec. Tj. Palas Tengah, Kabupaten Bulungan, Kalimantan Utara 77216","Silva Rahayu, Kec. Tj. Palas Tengah, Kabupaten Bulungan",KALIMANTAN UTARA,77216.0,Indonesia,,,,2.9459124,117.3449672,https://maps.google.com/?cid=0x0:0x2ba7ed3d8e9ef376,
komplek housing,Komplek perumahan,Rais house,"W97H+GM, Salim Batu, Kec. Tj. Palas Tengah, Kabupaten Bulungan, Kalimantan Utara 77216","Salim Batu, Kec. Tj. Palas Tengah, Kabupaten Bulungan",KALIMANTAN UTARA,77216.0,Indonesia,,,,2.913825,117.3792106,https://maps.google.com/?cid=0x0:0xe1913b0377cf6c9a,
komplek housing,komplek housing,Kalimantan Timur 77215,"Kabupaten Bulungan, Kalimantan Timur","Kabupaten Bulungan, Kalimantan Timur",KALIMANTAN UTARA,,Indonesia,,,,2.6736525,117.6434844,https://maps.google.com/?cid=0x0:0xf8c09686d5a94c7c,
komplek housing,komplek housing,DAYTIM FAMILY HOME,"PP24+HH, Binai, Kec. Tj. Palas Tim., Kabupaten Bulungan, Kalimantan Utara","Kabupaten Bulungan, Kalimantan Utara",KALIMANTAN UTARA,,Indonesia,,,,2.7013545,117.7063932,https://maps.google.com/?cid=0x0:0x96bd29fa9d2af3df,
komplek housing,Rumah Kayu,Rumah pak halim,"PG98+7WC RT.10, Tanjung Agung, East Tanjung Palas, Bulungan Regency, North Kalimantan 77215","Tanjung Agung, East Tanjung Palas, Bulungan Regency",KALIMANTAN UTARA,77215.0,Indonesia,,,,2.7181952,117.5172768,https://maps.google.com/?cid=0x0:0x5addb27c8d56478f,
komplek housing,Otoritas Perumahan,Guest House PT. SKI (Sanggam Kahuripan Indonesia),"476C+RCP, Silva Rahayu, Kec. Tj. Palas Tengah, Kabupaten Bulungan, Kalimantan Utara 77215","Silva Rahayu, Kec. Tj. Palas Tengah, Kabupaten Bulungan",KALIMANTAN UTARA,77215.0,Indonesia, 081521881045,,,3.1124096,117.2702863,https://maps.google.com/?cid=0x0:0x8a31fa228a0e26e2,
komplek housing,Komplek perumahan,Warung,"MPM9+6CC, Binai, Kec. Tj. Palas Tim., Kabupaten Bulungan, Kalimantan Utara 77215","Binai, Kec. Tj. Palas Tim., Kabupaten Bulungan",KALIMANTAN UTARA,77215.0,Indonesia,,,,2.6830639,117.7185053,https://maps.google.com/?cid=0x0:0xd153e157bc083cfe,
komplek housing,Komplek perumahan,Rumah Nuradila,"PG53+XG, Tj. Agung, Kec. Tj. Palas Tim., Kabupaten Bulungan, Kalimantan Utara","Kabupaten Bulungan, Kalimantan Utara",KALIMANTAN UTARA,,Indonesia,,,,2.710338,117.503494,https://maps.google.com/?cid=0x0:0x19451d775aeba626,
komplek housing,Komplek perumahan,Tanah Fery Ruruk Pasiakan,"HF4W+F8G, Jl. Ahmad Yani, Sajau, Kec. Tj. Palas Tim., Kabupaten Bulungan, Kalimantan Utara 77215","Jl. Ahmad Yani, Sajau, Kec. Tj. Palas Tim., Kabupaten Bulungan",KALIMANTAN UTARA,77215.0,Indonesia,,,,2.5561769,117.4958243,https://maps.google.com/?cid=0x0:0xa3332af7ebe8b49e,
komplek housing,Komplek perumahan,Ashilah Home Alone,"MPM9+WC, Binai, Kec. Tj. Palas Tim., Kabupaten Bulungan, Kalimantan Utara","Kabupaten Bulungan, Kalimantan Utara",KALIMANTAN UTARA,,Indonesia,,,,2.6847885,117.7186047,https://maps.google.com/?cid=0x0:0x33fc3e8f8a334388,
komplek housing,Pembangunan Perumahan,Perumahan Tanjung Harapan Residence,"R9PH+RQ4, Tj. Selor Hilir, Kec. Tj. Selor, Kabupaten Bulungan, Kalimantan Utara","Kabupaten Bulungan, Kalimantan Utara",KALIMANTAN UTARA,,Indonesia,,,,2.8370056,117.3794593,https://maps.google.com/?cid=0x0:0xbb5808c84bd94b64,
komplek housing,Perhimpunan Pengembang Perumahan,Hen house,"Jl. Blk. P2 No.19, Tj. Selor Hilir, Kec. Tj. Selor, Kabupaten Bulungan, Kalimantan Utara 77215","Tj. Selor Hilir, Kec. Tj. Selor, Kabupaten Bulungan",KALIMANTAN UTARA,77215.0,Indonesia,,,,2.8372489,117.3975661,https://maps.google.com/?cid=0x0:0xf9ab2619556915c6,
komplek housing,Komplek perumahan,Rumah Janius,"MPG6+F24, Binai, Kec. Tj. Palas Tim., Kabupaten Bulungan, Kalimantan Utara 77215","Binai, Kec. Tj. Palas Tim., Kabupaten Bulungan",KALIMANTAN UTARA,77215.0,Indonesia,,,,2.6767186,117.7088667,https://maps.google.com/?cid=0x0:0xe57e7b7042176376,
komplek housing,Pembangunan Perumahan,Tanah kedua,"HR5H+F7F, Tanah Kuning, Kec. Tj. Palas Tim., Kabupaten Bulungan, Kalimantan Utara","Kabupaten Bulungan, Kalimantan Utara",KALIMANTAN UTARA,,Indonesia,,,,2.5586756,117.8281723,https://maps.google.com/?cid=0x0:0x2d45c9045e7fa31a,
komplek housing,Komplek perumahan,PERUMAHAN GLOBAL DREAM HOUSE,"QCWF+4VP, Jl. Poros Bulungan - Berau, Jelarai Selor, Kec. Tj. Selor, Kabupaten Bulungan, Kalimantan Utara","Kabupaten Bulungan, Kalimantan Utara",KALIMANTAN UTARA,,Indonesia, 082166908489,,,2.7953306,117.4246992,https://maps.google.com/?cid=0x0:0x4901035fb722e954,
komplek housing,Komplek perumahan,Penguasa Tanjung Agung,"PG98+HRQ, RT.10, Tj. Agung, Kec. Tj. Palas Tim., Kabupaten Bulungan, Kalimantan Utara 77215","RT.10, Tj. Agung, Kec. Tj. Palas Tim., Kabupaten Bulungan",KALIMANTAN UTARA,77215.0,Indonesia,,,,2.7189612,117.5170998,https://maps.google.com/?cid=0x0:0x5d64add43d0c56d8,
komplek housing,Pembangunan Perumahan,Mattalitti Group,"PJHH+X25, Kampung Baru, Sajau Hilir, Kec. Tj. Palas Tim., Kabupaten Bulungan, Kalimantan Utara 77215","Kampung Baru, Sajau Hilir, Kec. Tj. Palas Tim., Kabupaten Bulungan",KALIMANTAN UTARA,77215.0,Indonesia,,,,2.7287385,117.6268702,https://maps.google.com/?cid=0x0:0x1582bf386966af31,
komplek housing,komplek housing,ðŸ¡syafira,"Jl. Azizurahman No.RT 10, Tanah Kuning, Kec. Tj. Palas Tim., Kabupaten Bulungan, Kalimantan Utara 77215","Tanah Kuning, Kec. Tj. Palas Tim., Kabupaten Bulungan",KALIMANTAN UTARA,77215.0,Indonesia,,,,2.554278,117.85972,https://maps.google.com/?cid=0x0:0x4538129e8ff9d257,
komplek housing,Perhimpunan Pengembang Perumahan,Kalimantan utara,"MMX4+X3W, Pura Sajau, Kec. Tj. Palas Tim., Kabupaten Bulungan, Kalimantan Utara 77215","Pura Sajau, Kec. Tj. Palas Tim., Kabupaten Bulungan",KALIMANTAN UTARA,77215.0,Indonesia,,,,2.6999844,117.6552185,https://maps.google.com/?cid=0x0:0xd12bf26bd7e8733d,
komplek housing,Perhimpunan Pengembang Perumahan,Didi,"HV23+PJ8, Tanah Kuning, Kec. Tj. Palas Tim., Kabupaten Bulungan, Kalimantan Utara 77215","Tanah Kuning, Kec. Tj. Palas Tim., Kabupaten Bulungan",KALIMANTAN UTARA,77215.0,Indonesia,,,,2.5517794,117.8540888,https://maps.google.com/?cid=0x0:0x5aeef5497478bf6e,
komplek housing,Perhimpunan Pengembang Perumahan,Rumah darma,"HV34+2GX, Tanah Kuning, Kec. Tj. Palas Tim., Kabupaten Bulungan, Kalimantan Utara","Kabupaten Bulungan, Kalimantan Utara",KALIMANTAN UTARA,,Indonesia,,,,2.5525403,117.8563748,https://maps.google.com/?cid=0x0:0x4211ade6faf0cb35,
komplek housing,Pembangunan Perumahan,Perumahan karyawan prima mill,"MPHR+JVC, Binai, Kec. Tj. Palas Tim., Kabupaten Bulungan, Kalimantan Utara 77215","Binai, Kec. Tj. Palas Tim., Kabupaten Bulungan",KALIMANTAN UTARA,77215.0,Indonesia,,,,2.6790567,117.7421559,https://maps.google.com/?cid=0x0:0x799ed718e458fb26,
komplek housing,Perumahan,PERUMAHAN GLOBAL GREEN HOUSE,"QCQV+M2W, Bumi Rahayu, Kec. Tj. Selor, Kabupaten Bulungan, Kalimantan Utara 77212","Bumi Rahayu, Kec. Tj. Selor, Kabupaten Bulungan",KALIMANTAN UTARA,77212.0,Indonesia, 082166908489,,,2.7892302,117.4425843,https://maps.google.com/?cid=0x0:0x9123fbabe58d6254,
komplek housing,Kantor Perusahaan,Perumahan Grand Bulungan Residence,"RCG3+PRW, Tengkapak, Kec. Tj. Selor, Kabupaten Bulungan, Kalimantan Utara 77211","Tengkapak, Kec. Tj. Selor, Kabupaten Bulungan",KALIMANTAN UTARA,77211.0,Indonesia, 082148406080,,,2.8268531,117.4045657,https://maps.google.com/?cid=0x0:0xad8b2be0316ac2cc,
komplek housing,Kampus Asrama,Perumahan Sofwa Indah Permai 1  2,"RCH6+P5M, Jl. Manunggal, Tj. Selor Tim., Kec. Tj. Selor, Kabupaten Bulungan, Kalimantan Utara","Kabupaten Bulungan, Kalimantan Utara",KALIMANTAN UTARA,,Indonesia,,,,2.8293382,117.4104268,https://maps.google.com/?cid=0x0:0xaaf1018c4c8c0855,
komplek housing,Pembangunan Perumahan,Mess KCW Sawmill,"JMJ7+8VW, Sajau, Kec. Tj. Palas Tim., Kabupaten Bulungan, Kalimantan Utara 77215","Sajau, Kec. Tj. Palas Tim., Kabupaten Bulungan",KALIMANTAN UTARA,77215.0,Indonesia,,,,2.6308699,117.6646967,https://maps.google.com/?cid=0x0:0x4e51fa1048ad1444,
komplek housing,Komplek perumahan,Perumahan Rajawali,"R9MR+9W2, Jl. Rajawali, Tj. Selor Tim, Kec. Tj. Selor, Kabupaten Bulungan, Kalimantan Utara 77215","Jl. Rajawali, Tj. Selor Tim, Kec. Tj. Selor, Kabupaten Bulungan",KALIMANTAN UTARA,77215.0,Indonesia,,,,2.8292649,117.3912255,https://maps.google.com/?cid=0x0:0xc1c4bcb7486cd1cb,
komplek housing,komplek housing,Kec. Tj. Palas Tim.,"Kabupaten Bulungan, Kalimantan Utara","Kabupaten Bulungan, Kalimantan Utara",KALIMANTAN UTARA,,Indonesia,,,,2.6736525,117.6434844,https://maps.google.com/?cid=0x0:0x2cc6e00defb5d007,
komplek housing,Perhimpunan Pengembang Perumahan,Rumah bapak Rahman,"HV23+PJ8, Mangkupadi, East Tanjung Palas, Bulungan Regency, North Kalimantan 77215","Mangkupadi, East Tanjung Palas, Bulungan Regency",KALIMANTAN UTARA,77215.0,Indonesia,,,,2.5517875,117.8540781,https://maps.google.com/?cid=0x0:0xbc57bf7c61783e7d,
komplek housing,Komplek perumahan,Kampung dayak,"MPH6+CXV, Binai, Kec. Tj. Palas Tim., Kabupaten Bulungan, Kalimantan Utara 77215","Binai, Kec. Tj. Palas Tim., Kabupaten Bulungan",KALIMANTAN UTARA,77215.0,Indonesia,,,,2.6786043,117.7124153,https://maps.google.com/?cid=0x0:0xfc55867acb887560,
komplek housing,Komplek perumahan,Rumah Putih,"QG43+4PH, Jl. Bukit Dua Belas, Apung, Kec. Tj. Selor, Kabupaten Bulungan, Kalimantan Utara 77215","Jl. Bukit Dua Belas, Apung, Kec. Tj. Selor, Kabupaten Bulungan",KALIMANTAN UTARA,77215.0,Indonesia,,,,2.7553159,117.5043706,https://maps.google.com/?cid=0x0:0x221f1de95a024ac7,
komplek housing,komplek housing,Kalimantan Timur 77215,"Kabupaten Bulungan, Kalimantan Timur","Kabupaten Bulungan, Kalimantan Timur",KALIMANTAN UTARA,,Indonesia,,,,2.6736525,117.6434844,https://maps.google.com/?cid=0x0:0xf8c09686d5a94c7c,
komplek housing,Otoritas Perumahan,Guest House PT. SKI (Sanggam Kahuripan Indonesia),"476C+RCP, Silva Rahayu, Kec. Tj. Palas Tengah, Kabupaten Bulungan, Kalimantan Utara 77215","Silva Rahayu, Kec. Tj. Palas Tengah, Kabupaten Bulungan",KALIMANTAN UTARA,77215.0,Indonesia, 081521881045,,,3.1124096,117.2702863,https://maps.google.com/?cid=0x0:0x8a31fa228a0e26e2,
komplek housing,Pembangunan Perumahan,Perumahan Tanjung Harapan Residence,"R9PH+RQ4, Tj. Selor Hilir, Kec. Tj. Selor, Kabupaten Bulungan, Kalimantan Utara","Kabupaten Bulungan, Kalimantan Utara",KALIMANTAN UTARA,,Indonesia,,,,2.8370056,117.3794593,https://maps.google.com/?cid=0x0:0xbb5808c84bd94b64,
komplek housing,Komplek perumahan,Perumahan OA,"W7X5+93, Pimping, Kec. Tj. Palas Utara, Kabupaten Bulungan, Kalimantan Utara","Kabupaten Bulungan, Kalimantan Utara",KALIMANTAN UTARA,,Indonesia,,,,2.948414,117.2577376,https://maps.google.com/?cid=0x0:0x15e41ab9bb0f1d51,
komplek housing,Komplek perumahan,Panca agung Tanjung Palas utara,"36P6+55G, Panca Agung, Kec. Tj. Palas Utara, Kabupaten Bulungan, Kalimantan Utara","Kabupaten Bulungan, Kalimantan Utara",KALIMANTAN UTARA,,Indonesia,,,,3.0854469,117.2104532,https://maps.google.com/?cid=0x0:0x7ba4b6b49f54410f,
komplek housing,Komplek perumahan,Jln Merak,"36F6+HM, Panca Agung, Kec. Tj. Palas Utara, Kabupaten Bulungan, Kalimantan Utara","Kabupaten Bulungan, Kalimantan Utara",KALIMANTAN UTARA,,Indonesia,,,,3.0738772,117.2117088,https://maps.google.com/?cid=0x0:0xe4a91f1b3e97192f,
komplek housing,Komplek perumahan,home ep,"26W4+RX, Karang Agung, Kec. Tj. Palas Utara, Kabupaten Bulungan, Kalimantan Utara","Kabupaten Bulungan, Kalimantan Utara",KALIMANTAN UTARA,,Indonesia,,,,3.047115,117.2073767,https://maps.google.com/?cid=0x0:0xc0047697d380a8c4,
komplek housing,komplek housing,DAYTIM FAMILY HOME,"PP24+HH, Binai, Kec. Tj. Palas Tim., Kabupaten Bulungan, Kalimantan Utara","Kabupaten Bulungan, Kalimantan Utara",KALIMANTAN UTARA,,Indonesia,,,,2.7013545,117.7063932,https://maps.google.com/?cid=0x0:0x96bd29fa9d2af3df,
komplek housing,Komplek perumahan,Perumahan OB,"W7H8+WH, Tj. Palas Hilir, Kec. Tj. Palas, Kabupaten Bulungan, Kalimantan Utara","Kabupaten Bulungan, Kalimantan Utara",KALIMANTAN UTARA,,Indonesia,,,,2.9297817,117.2664477,https://maps.google.com/?cid=0x0:0xbf32ce2b45820be5,
komplek housing,Komplek perumahan,Perumahan OC,"X72V+2M3, Silva Rahayu, Kec. Tj. Palas Tengah, Kabupaten Bulungan, Kalimantan Utara","Kabupaten Bulungan, Kalimantan Utara",KALIMANTAN UTARA,,Indonesia,,,,2.9500192,117.294175,https://maps.google.com/?cid=0x0:0xf3503ebd2897f11d,
komplek housing,Komplek perumahan,Perumahan Tepurau/CSL,"W7P8+CM7, Tj. Palas Hilir, Kec. Tj. Palas, Kabupaten Bulungan, Kalimantan Utara","Kabupaten Bulungan, Kalimantan Utara",KALIMANTAN UTARA,,Indonesia,,,,2.9360388,117.2666834,https://maps.google.com/?cid=0x0:0x64f5d26601de9164,
komplek housing,Pembangunan Perumahan,Kelubir,"2788+CQ2, Kelubir, Kec. Tj. Palas Utara, Kabupaten Bulungan, Kalimantan Utara 77215","Kelubir, Kec. Tj. Palas Utara, Kabupaten Bulungan",KALIMANTAN UTARA,77215.0,Indonesia,,,,3.0158153,117.2667089,https://maps.google.com/?cid=0x0:0xd368b48eb7c5eba5,
komplek housing,Komplek perumahan,Perumahan OD,"W7GX+RQ, Silva Rahayu, Kec. Tj. Palas Tengah, Kabupaten Bulungan, Kalimantan Utara","Kabupaten Bulungan, Kalimantan Utara",KALIMANTAN UTARA,,Indonesia,,,,2.927103,117.2994757,https://maps.google.com/?cid=0x0:0xd9a98d1daa46754b,
komplek housing,Pembangunan Perumahan,VQ,"36CV+XG5, Ruhui Rahayu, Kec. Tj. Palas Utara, Kabupaten Bulungan, Kalimantan Utara 77215","Ruhui Rahayu, Kec. Tj. Palas Utara, Kabupaten Bulungan",KALIMANTAN UTARA,77215.0,Indonesia,,,,3.072388,117.2438642,https://maps.google.com/?cid=0x0:0xe58058d14ccad844,
komplek housing,Pembangunan Perumahan,Turunan Kidul,"X7RX+MG, Silva Rahayu, Kec. Tj. Palas Tengah, Kabupaten Bulungan, Kalimantan Utara","Kabupaten Bulungan, Kalimantan Utara",KALIMANTAN UTARA,,Indonesia,,,,2.9917644,117.2987493,https://maps.google.com/?cid=0x0:0xb3f982439ad8e6b1,
komplek housing,Komplek perumahan,Rumah Nuradila,"PG53+XG, Tj. Agung, Kec. Tj. Palas Tim., Kabupaten Bulungan, Kalimantan Utara","Kabupaten Bulungan, Kalimantan Utara",KALIMANTAN UTARA,,Indonesia,,,,2.710338,117.503494,https://maps.google.com/?cid=0x0:0x19451d775aeba626,
komplek housing,Komplek perumahan,Rumah pak supono,"36C6+JVP, Panca Agung, Kec. Tj. Palas Utara, Kabupaten Bulungan, Kalimantan Utara 77215","Panca Agung, Kec. Tj. Palas Utara, Kabupaten Bulungan",KALIMANTAN UTARA,77215.0,Indonesia,,,,3.0709544,117.2116126,https://maps.google.com/?cid=0x0:0xfe7ed1d62d3b936f,
komplek housing,Komplek perumahan,Firman,"24P7+5VW, Jl sakura, Karang Agung, Kec. Tj. Palas Utara, Kabupaten Bulungan, Kalimantan Utara 77215","Jl sakura, Karang Agung, Kec. Tj. Palas Utara, Kabupaten Bulungan",KALIMANTAN UTARA,77215.0,Indonesia,,,,3.0354926,117.1147095,https://maps.google.com/?cid=0x0:0x829f5c6de93057a7,
komplek housing,Pembangunan Perumahan,SOS,"R9V9+QGP, Tj. Selor Hilir, Kec. Tj. Palas Tengah, Kabupaten Bulungan, Kalimantan Utara 77214","Tj. Selor Hilir, Kec. Tj. Palas Tengah, Kabupaten Bulungan",KALIMANTAN UTARA,77214.0,Indonesia,,,,2.8444639,117.3688317,https://maps.google.com/?cid=0x0:0x389830d0e0e95283,
komplek housing,Komplek perumahan,Rumah Deber,"2628+MFV, Jl. Ahmad Yani, Pimping, Kec. Tj. Palas Utara, Kabupaten Bulungan, Kalimantan Utara 77215","Jl. Ahmad Yani, Pimping, Kec. Tj. Palas Utara, Kabupaten Bulungan",KALIMANTAN UTARA,77215.0,Indonesia,,,,3.0022018,117.2170565,https://maps.google.com/?cid=0x0:0xed8815dd1da112b5,
komplek housing,komplek housing,Kec. Tj. Palas,"Kabupaten Bulungan, Kalimantan Utara","Kabupaten Bulungan, Kalimantan Utara",KALIMANTAN UTARA,,Indonesia,,,,2.8335506,117.3412058,https://maps.google.com/?cid=0x0:0xf6c6997b9149e5ff,
komplek housing,komplek housing,Tandjungselor,"Tj. Palas Tengah, Kec. Tj. Palas, Kabupaten Bulungan, Kalimantan Utara","Kabupaten Bulungan, Kalimantan Utara",KALIMANTAN UTARA,,Indonesia,,,,2.844766,117.3648097,https://maps.google.com/?cid=0x0:0xbe0a10ea478e927,
komplek housing,Pembangunan Perumahan,Perumahan Tanjung Harapan Residence,"R9PH+RQ4, Tj. Selor Hilir, Kec. Tj. Selor, Kabupaten Bulungan, Kalimantan Utara","Kabupaten Bulungan, Kalimantan Utara",KALIMANTAN UTARA,,Indonesia,,,,2.8370056,117.3794593,https://maps.google.com/?cid=0x0:0xbb5808c84bd94b64,
komplek housing,Sekolah,Komplek Perumahan TELKOM,"R9PP+FGJ, Tj. Selor Hilir, Kec. Tj. Selor, Kabupaten Bulungan, Kalimantan Utara 77215","Tj. Selor Hilir, Kec. Tj. Selor, Kabupaten Bulungan",KALIMANTAN UTARA,77215.0,Indonesia,,,,2.8362248,117.3862543,https://maps.google.com/?cid=0x0:0x173bd580bb640a15,
komplek housing,Komplek perumahan,Nustam_Nessy's Home,"V99F+MWQ, Jl. Sabanar Lama, Sabanar Lama, Kec. Tj. Selor, Kabupaten Bulungan, Kalimantan Utara 77212","Jl. Sabanar Lama, Sabanar Lama, Kec. Tj. Selor, Kabupaten Bulungan",KALIMANTAN UTARA,77212.0,Indonesia,,,,2.8693442,117.3749041,https://maps.google.com/?cid=0x0:0x61dd1897905262ef,
komplek housing,Kantor Perusahaan,Perumahan Grand Bulungan Residence,"RCG3+PRW, Tengkapak, Kec. Tj. Selor, Kabupaten Bulungan, Kalimantan Utara 77211","Tengkapak, Kec. Tj. Selor, Kabupaten Bulungan",KALIMANTAN UTARA,77211.0,Indonesia, 082148406080,,,2.8268531,117.4045657,https://maps.google.com/?cid=0x0:0xad8b2be0316ac2cc,
komplek housing,Pangkalan Militer,Perumahan Korem 092/Mrl,"R9W7+7CJ, Tj. Selor Hilir, Kec. Tj. Selor, Kabupaten Bulungan, Kalimantan Utara 77214","Tj. Selor Hilir, Kec. Tj. Selor, Kabupaten Bulungan",KALIMANTAN UTARA,77214.0,Indonesia,,,,2.8457184,117.3635133,https://maps.google.com/?cid=0x0:0x6542832207fcf19b,
komplek housing,Komplek perumahan,Perumahan Griya Perdamaian Permai,"Griya Perdamaian Jl. Perdamaian Komplek F4, Tj. Selor Hilir, Kec. Tj. Selor, Kabupaten Bulungan, Kalimantan Utara 77212","Tj. Selor Hilir, Kec. Tj. Selor, Kabupaten Bulungan",KALIMANTAN UTARA,77212.0,Indonesia,,,,2.8513949,117.3988759,https://maps.google.com/?cid=0x0:0x5924fa894b2e2615,
komplek housing,Komplek perumahan,Perumahan Perdamaian Residence,"V92W+MVG, Tj. Selor Hilir, Kec. Tj. Selor, Kabupaten Bulungan, Kalimantan Utara","Kabupaten Bulungan, Kalimantan Utara",KALIMANTAN UTARA,,Indonesia,,,,2.8516853,117.3971916,https://maps.google.com/?cid=0x0:0xf394da0e167efbf1,
komplek housing,Komplek perumahan,Perum Pondok Tiga Tawai 1.,"R9WR+5X5, Tj. Selor Hilir, Kec. Tj. Selor, Kabupaten Bulungan, Kalimantan Utara 77216","Tj. Selor Hilir, Kec. Tj. Selor, Kabupaten Bulungan",KALIMANTAN UTARA,77216.0,Indonesia,,,,2.8453981,117.3924756,https://maps.google.com/?cid=0x0:0x66754932a896370f,
komplek housing,Komplek perumahan,JEF,"R9F8+73, Tj. Selor Hulu, Kabupaten Bulungan, Kalimantan Utara","Kabupaten Bulungan, Kalimantan Utara",KALIMANTAN UTARA,,Indonesia,,,,2.823259,117.36522,https://maps.google.com/?cid=0x0:0x9a570723d7e0ead6,
komplek housing,Kantor Perusahaan,Rumah,"V97Q+56P, Tj. Selor Hilir, Kec. Tj. Selor, Kabupaten Bulungan, Kalimantan Utara 77216","Tj. Selor Hilir, Kec. Tj. Selor, Kabupaten Bulungan",KALIMANTAN UTARA,77216.0,Indonesia,,,,2.8629739,117.3880896,https://maps.google.com/?cid=0x0:0x99c2d54035e7e09d,
komplek housing,Pembangunan Perumahan,Kompleks perumahan kav manjadda properti,"Jl. Lestari, Tj. Selor Hilir, Kec. Tj. Selor, Kabupaten Bulungan, Kalimantan Utara 77216","Tj. Selor Hilir, Kec. Tj. Selor, Kabupaten Bulungan",KALIMANTAN UTARA,77216.0,Indonesia, 085250909999,,,2.8565922,117.3674671,https://maps.google.com/?cid=0x0:0x5c9fccd638894bae,
komplek housing,Komplek perumahan,Hairul,"R9V8+XXR, Jl. Manggis I, RT.6/RW.3, Tj. Selor Hilir, Kec. Tj. Selor, Kabupaten Bulungan, Kalimantan Utara 77214","Jl. Manggis I, RT.6/RW.3, Tj. Selor Hilir, Kec. Tj. Selor, Kabupaten Bulungan",KALIMANTAN UTARA,77214.0,Indonesia,,,,2.8449826,117.3673777,https://maps.google.com/?cid=0x0:0xbf6645fb7668c331,
komplek housing,Komplek perumahan,RUMAH I SA,"RCJ4+3Q9, Jl. Manunggal, Tengkapak, Kec. Tj. Selor, Kabupaten Bulungan, Kalimantan Utara 77211","Jl. Manunggal, Tengkapak, Kec. Tj. Selor, Kabupaten Bulungan",KALIMANTAN UTARA,77211.0,Indonesia,,,,2.829565,117.4070843,https://maps.google.com/?cid=0x0:0x67661bdcd495ba7b,
komplek housing,Komplek perumahan,Rumah,"R9J7+HQ4, Jl. Tengku Umar, waung, Kec. Tj. Selor, Kabupaten Bulungan, Kalimantan Utara 77211","Jl. Tengku Umar, waung, Kec. Tj. Selor, Kabupaten Bulungan",KALIMANTAN UTARA,77211.0,Indonesia,,,,2.8313871,117.3644502,https://maps.google.com/?cid=0x0:0x810257cb6d1262a,
komplek housing,Komplek perumahan,Perumahan Rajawali,"R9MR+9W2, Jl. Rajawali, Tj. Selor Tim, Kec. Tj. Selor, Kabupaten Bulungan, Kalimantan Utara 77215","Jl. Rajawali, Tj. Selor Tim, Kec. Tj. Selor, Kabupaten Bulungan",KALIMANTAN UTARA,77215.0,Indonesia,,,,2.8292649,117.3912255,https://maps.google.com/?cid=0x0:0xc1c4bcb7486cd1cb,
komplek housing,Komplek perumahan,Kompleks Kayan Bugis,"V94J+JFQ, Jl. Cendana GG. Kayan, Bugis, Kec. Tj. Selor, Kabupaten Bulungan, Kalimantan Utara 77216","Jl. Cendana GG. Kayan, Bugis, Kec. Tj. Selor, Kabupaten Bulungan",KALIMANTAN UTARA,77216.0,Indonesia,,,,2.8565801,117.3812476,https://maps.google.com/?cid=0x0:0xec9a6110c0d86eb6,
komplek housing,Pembangunan Perumahan,Perumahan Tiga Tawai Residence 3,"R9VR+WXG, Tj. Selor Hilir, Kec. Tj. Selor, Kabupaten Bulungan, Kalimantan Utara 77216","Tj. Selor Hilir, Kec. Tj. Selor, Kabupaten Bulungan",KALIMANTAN UTARA,77216.0,Indonesia,,,,2.8441232,117.392524,https://maps.google.com/?cid=0x0:0x9c052210b607302b,
komplek housing,Pembangunan Perumahan,Wisma Idaman Kementerian Agama,"R9V7+GMX, Jl. Kolonel Soetadji, Tj. Selor Hilir, Kec. Tj. Selor, Kabupaten Bulungan, Kalimantan Utara","Kabupaten Bulungan, Kalimantan Utara",KALIMANTAN UTARA,,Indonesia,,,,2.843852,117.3642246,https://maps.google.com/?cid=0x0:0x1e811538312a7cc7,
komplek housing,Perhimpunan Pengembang Perumahan,Home Yoga,"R9RV+J2W, Jl. Rw. Payau, Tj. Selor Hilir, Kec. Tj. Selor, Kabupaten Bulungan, Kalimantan Utara","Kabupaten Bulungan, Kalimantan Utara",KALIMANTAN UTARA,,Indonesia,,,,2.8416235,117.3925856,https://maps.google.com/?cid=0x0:0xa366efc3085e41ad,
komplek housing,Komplek perumahan,FEBRY PUTRI'S HOUSE,"Jl. Sengkawit Gg. Klp. Gading 019, RT./RW/RW.050, Tj. Selor Hilir, Kec. Tj. Selor, Kabupaten Bulungan, Kalimantan Utara 77216","RT./RW/RW.050, Tj. Selor Hilir, Kec. Tj. Selor, Kabupaten Bulungan",KALIMANTAN UTARA,77216.0,Indonesia,,,,2.8533469,117.3813251,https://maps.google.com/?cid=0x0:0x83e01b6fc2bc3943,
komplek housing,Komplek perumahan,Tempat kosku,"Jalur 2 no 159 upt Sp3 Tanjung Buka, Tj. Selor Hilir, Kec. Tj. Selor, Kabupaten Bulungan, Kalimantan Utara 77216","Tj. Selor Hilir, Kec. Tj. Selor, Kabupaten Bulungan",KALIMANTAN UTARA,77216.0,Indonesia,,,,2.8577903,117.3654748,https://maps.google.com/?cid=0x0:0xed514ec12f5bdaf7,
komplek housing,Komplek perumahan,D'Zaitun Residence,"V99P+2H9, Jl. Sabanar Lama II, Tj. Selor Hilir, Kabupaten Bulungan, Kalimantan Utara 77211","Jl. Sabanar Lama II, Tj. Selor Hilir, Kabupaten Bulungan",KALIMANTAN UTARA,77211.0,Indonesia,,,,2.8675277,117.3864754,https://maps.google.com/?cid=0x0:0x69450d5e9132e5b1,
komplek housing,Rumah Pondokan,Kontrakan warna warni gang cherry,"gang cherry, Jl. H. Tamrin, Tj. Selor Hilir, Kec. Tj. Selor, Kabupaten Bulungan, Kalimantan Utara 77216","Jl. H. Tamrin, Tj. Selor Hilir, Kec. Tj. Selor, Kabupaten Bulungan",KALIMANTAN UTARA,77216.0,Indonesia,,,,2.8586541,117.3739028,https://maps.google.com/?cid=0x0:0x67bd167df8e5d81c,
komplek housing,Komplek perumahan,Rumah pink,"R9M7+5R4, Jl. Supratman, Tj. Selor Hulu, Kec. Tj. Selor, Kabupaten Bulungan, Kalimantan Utara 77211","Jl. Supratman, Tj. Selor Hulu, Kec. Tj. Selor, Kabupaten Bulungan",KALIMANTAN UTARA,77211.0,Indonesia,,,,2.8328978,117.3645841,https://maps.google.com/?cid=0x0:0x2126bf346067c8c3,
komplek housing,Perhimpunan Pengembang Perumahan,Hari's Home,"RCR2+3G9, Gg. Puma, Tj. Selor Hilir, Kec. Tj. Selor, Kabupaten Bulungan, Kalimantan Utara 77211","Gg. Puma, Tj. Selor Hilir, Kec. Tj. Selor, Kabupaten Bulungan",KALIMANTAN UTARA,77211.0,Indonesia,,,,2.8401618,117.4013578,https://maps.google.com/?cid=0x0:0xdc5654724a7659d0,
komplek housing,Komplek perumahan,Rumah Elizabeth,"R9J8+J27, Jl. Cik Ditiro, Tj. Selor Hulu, Kec. Tj. Selor, Kabupaten Bulungan, Kalimantan Utara 77211","Jl. Cik Ditiro, Tj. Selor Hulu, Kec. Tj. Selor, Kabupaten Bulungan",KALIMANTAN UTARA,77211.0,Indonesia,,,,2.8313217,117.3651559,https://maps.google.com/?cid=0x0:0x3846879561d9a3b,
komplek housing,Komplek perumahan,De'hanie,"RCJ4+9MG, Jl. Jelarai Raya, Tj. Selor Hilir, Kec. Tj. Selor, Kabupaten Bulungan, Kalimantan Utara 77211","Jl. Jelarai Raya, Tj. Selor Hilir, Kec. Tj. Selor, Kabupaten Bulungan",KALIMANTAN UTARA,77211.0,Indonesia,,,,2.8309314,117.4067165,https://maps.google.com/?cid=0x0:0x34bf610b2346114,
komplek housing,Perhimpunan Pengembang Perumahan,AIRA-SALSA,"V9CG+7V6, Salim Batu, Kec. Tj. Palas Tengah, Kabupaten Bulungan, Kalimantan Utara 77211","Salim Batu, Kec. Tj. Palas Tengah, Kabupaten Bulungan",KALIMANTAN UTARA,77211.0,Indonesia,,,,2.8706642,117.3771254,https://maps.google.com/?cid=0x0:0xa8413f0831456c56,
komplek housing,komplek housing,Kalimantan Utara 77212,"Kec. Tj. Selor, Kabupaten Bulungan, Kalimantan Utara","Kabupaten Bulungan, Kalimantan Utara",KALIMANTAN UTARA,,Indonesia,,,,2.8022152,117.4791295,https://maps.google.com/?cid=0x0:0xac78443d7ec018ec,
komplek housing,Pembangunan Perumahan,Perumahan Tanjung Harapan Residence,"R9PH+RQ4, Tj. Selor Hilir, Kec. Tj. Selor, Kabupaten Bulungan, Kalimantan Utara","Kabupaten Bulungan, Kalimantan Utara",KALIMANTAN UTARA,,Indonesia,,,,2.8370056,117.3794593,https://maps.google.com/?cid=0x0:0xbb5808c84bd94b64,
komplek housing,Kantor Perusahaan,Perumahan Grand Bulungan Residence,"RCG3+PRW, Tengkapak, Kec. Tj. Selor, Kabupaten Bulungan, Kalimantan Utara 77211","Tengkapak, Kec. Tj. Selor, Kabupaten Bulungan",KALIMANTAN UTARA,77211.0,Indonesia, 082148406080,,,2.8268531,117.4045657,https://maps.google.com/?cid=0x0:0xad8b2be0316ac2cc,
komplek housing,Komplek perumahan,KAYAN RESIDENCE,"RCW6+XQV, Jl. Garuda, Tj. Selor Tim., Kec. Tj. Selor, Kabupaten Bulungan, Kalimantan Utara 77212","Jl. Garuda, Tj. Selor Tim., Kec. Tj. Selor, Kabupaten Bulungan",KALIMANTAN UTARA,77212.0,Indonesia,,,,2.8474763,117.4119364,https://maps.google.com/?cid=0x0:0x93ae7fffbaa49fa9,
komplek housing,Pembangunan Perumahan,GRIYA SABANAR BARU (GSB),"R9WX+47X, Jl. Sabanar Baru Dalam, Tj. Selor Hilir, Kec. Tj. Selor, Kabupaten Bulungan, Kalimantan Utara 77212","Jl. Sabanar Baru Dalam, Tj. Selor Hilir, Kec. Tj. Selor, Kabupaten Bulungan",KALIMANTAN UTARA,77212.0,Indonesia,,,,2.8453747,117.3982266,https://maps.google.com/?cid=0x0:0x52ff72633df55f74,
komplek housing,Komplek perumahan,PERUMAHAN GLOBAL DREAM HOUSE,"QCWF+4VP, Jl. Poros Bulungan - Berau, Jelarai Selor, Kec. Tj. Selor, Kabupaten Bulungan, Kalimantan Utara","Kabupaten Bulungan, Kalimantan Utara",KALIMANTAN UTARA,,Indonesia, 082166908489,,,2.7953306,117.4246992,https://maps.google.com/?cid=0x0:0x4901035fb722e954,
komplek housing,Komplek perumahan,Perumahan Griya Perdamaian Permai,"Griya Perdamaian Jl. Perdamaian Komplek F4, Tj. Selor Hilir, Kec. Tj. Selor, Kabupaten Bulungan, Kalimantan Utara 77212","Tj. Selor Hilir, Kec. Tj. Selor, Kabupaten Bulungan",KALIMANTAN UTARA,77212.0,Indonesia,,,,2.8513949,117.3988759,https://maps.google.com/?cid=0x0:0x5924fa894b2e2615,
komplek housing,Pembangunan Perumahan,PERUMAHAN BUMI RAHAYU RESIDENCE,"QFP3+2JX, Jalan Ahmad Yani, RT.003, Bumi Rahayu, Kec. Tj. Selor, Kabupaten Bulungan, Kalimantan Utara 77212","Jalan Ahmad Yani, RT.003, Bumi Rahayu, Kec. Tj. Selor, Kabupaten Bulungan",KALIMANTAN UTARA,77212.0,Indonesia, 081349594070,,,2.7851206,117.4541175,https://maps.google.com/?cid=0x0:0xfa2dacfa5d7d9e33,
komplek housing,Gedung Apartemen,Grand Sabanar Residence,"Jl. Padat Karya No.81, Tj. Selor Hilir, Kec. Tj. Selor, Kabupaten Bulungan, Kalimantan Utara 77212","Tj. Selor Hilir, Kec. Tj. Selor, Kabupaten Bulungan",KALIMANTAN UTARA,77212.0,Indonesia, 08125401919,,,2.8517283,117.4061596,https://maps.google.com/?cid=0x0:0x571f85f1dd24efd7,
komplek housing,Pembangunan Perumahan,PERUMAHAN GRAHA BHAYANGKARA,"QCJR+H4X, Jl. Jelara, Bumi Rahayu, Kec. Tj. Selor, Kabupaten Bulungan, Kalimantan Utara 77212","Jl. Jelara, Bumi Rahayu, Kec. Tj. Selor, Kabupaten Bulungan",KALIMANTAN UTARA,77212.0,Indonesia, 081255415844,,,2.7814208,117.4408275,https://maps.google.com/?cid=0x0:0x46dca84e7852382c,
komplek housing,Kampus Asrama,Perumahan Sofwa Indah Permai 1  2,"RCH6+P5M, Jl. Manunggal, Tj. Selor Tim., Kec. Tj. Selor, Kabupaten Bulungan, Kalimantan Utara","Kabupaten Bulungan, Kalimantan Utara",KALIMANTAN UTARA,,Indonesia,,,,2.8293382,117.4104268,https://maps.google.com/?cid=0x0:0xaaf1018c4c8c0855,
komplek housing,Otoritas Perumahan,Perumahan Bukit Permata Hijau Blok D,"Jl. Poros Bulungan - Berau No.KM, RW.4, Jelarai Selor, Kec. Tj. Selor, Kabupaten Bulungan, Kalimantan Utara 77212","RW.4, Jelarai Selor, Kec. Tj. Selor, Kabupaten Bulungan",KALIMANTAN UTARA,77212.0,Indonesia,,,,2.7844223,117.4277876,https://maps.google.com/?cid=0x0:0x711040bcab430d65,
komplek housing,Perhimpunan Pengembang Perumahan,Hen house,"Jl. Blk. P2 No.19, Tj. Selor Hilir, Kec. Tj. Selor, Kabupaten Bulungan, Kalimantan Utara 77215","Tj. Selor Hilir, Kec. Tj. Selor, Kabupaten Bulungan",KALIMANTAN UTARA,77215.0,Indonesia,,,,2.8372489,117.3975661,https://maps.google.com/?cid=0x0:0xf9ab2619556915c6,
komplek housing,Komplek perumahan,perumahan,"Jl. Poros Bulungan - Berau, Jelarai Selor, Kec. Tj. Selor, Kabupaten Bulungan, Kalimantan Utara","Kabupaten Bulungan, Kalimantan Utara",KALIMANTAN UTARA,,Indonesia,,,,2.7953306,117.4246992,https://maps.google.com/?cid=0x0:0x8e8ee4ab6df30229,
komplek housing,Pembangunan Perumahan,Selimau Residence,"RCW7+PX5, Jl. Cendrawasih, Tj. Selor Tim., Kec. Tj. Selor, Kabupaten Bulungan, Kalimantan Utara 77212","Jl. Cendrawasih, Tj. Selor Tim., Kec. Tj. Selor, Kabupaten Bulungan",KALIMANTAN UTARA,77212.0,Indonesia,,,,2.8467542,117.4149766,https://maps.google.com/?cid=0x0:0xd84896597326322f,
komplek housing,Komplek perumahan,Perumahan Rajawali,"R9MR+9W2, Jl. Rajawali, Tj. Selor Tim, Kec. Tj. Selor, Kabupaten Bulungan, Kalimantan Utara 77215","Jl. Rajawali, Tj. Selor Tim, Kec. Tj. Selor, Kabupaten Bulungan",KALIMANTAN UTARA,77215.0,Indonesia,,,,2.8292649,117.3912255,https://maps.google.com/?cid=0x0:0xc1c4bcb7486cd1cb,
komplek housing,Komplek perumahan,Irfank Home,"QFR4+33G, Bumi Rahayu, Kec. Tj. Selor, Kabupaten Bulungan, Kalimantan Utara 77212","Bumi Rahayu, Kec. Tj. Selor, Kabupaten Bulungan",KALIMANTAN UTARA,77212.0,Indonesia,,,,2.7901839,117.4551937,https://maps.google.com/?cid=0x0:0x4e49e7e1057728f9,
komplek housing,Komplek perumahan,Selimau Regency Blok F 37,"RCX7+C33, Jl. Garuda, Tj. Selor Tim., Kec. Tj. Selor, Kabupaten Bulungan, Kalimantan Utara 77212","Jl. Garuda, Tj. Selor Tim., Kec. Tj. Selor, Kabupaten Bulungan",KALIMANTAN UTARA,77212.0,Indonesia,,,,2.8485035,117.4126636,https://maps.google.com/?cid=0x0:0xf042a1cc75a876c8,
komplek housing,Pembangunan Perumahan,Perumahan guru smpn6 tgs,"RCW9+936, Jl. Manunggal, Tj. Selor Tim., Kec. Tj. Selor, Kabupaten Bulungan, Kalimantan Utara 77211","Jl. Manunggal, Tj. Selor Tim., Kec. Tj. Selor, Kabupaten Bulungan",KALIMANTAN UTARA,77211.0,Indonesia,,,,2.8459232,117.4176289,https://maps.google.com/?cid=0x0:0x8a3a2a30825a4df8,
komplek housing,Komplek perumahan,Perumahan Perdamaian Residence,"V92W+MVG, Tj. Selor Hilir, Kec. Tj. Selor, Kabupaten Bulungan, Kalimantan Utara","Kabupaten Bulungan, Kalimantan Utara",KALIMANTAN UTARA,,Indonesia,,,,2.8516853,117.3971916,https://maps.google.com/?cid=0x0:0xf394da0e167efbf1,
komplek housing,Komplek perumahan,Hairul,"R9V8+XXR, Jl. Manggis I, RT.6/RW.3, Tj. Selor Hilir, Kec. Tj. Selor, Kabupaten Bulungan, Kalimantan Utara 77214","Jl. Manggis I, RT.6/RW.3, Tj. Selor Hilir, Kec. Tj. Selor, Kabupaten Bulungan",KALIMANTAN UTARA,77214.0,Indonesia,,,,2.8449826,117.3673777,https://maps.google.com/?cid=0x0:0xbf6645fb7668c331,
komplek housing,Komplek perumahan,H.SUBHANNUDIN,"V938+42G, Gg. Surya, Tj. Selor Hilir, Kec. Tj. Selor, Kabupaten Bulungan, Kalimantan Utara 77216","Gg. Surya, Tj. Selor Hilir, Kec. Tj. Selor, Kabupaten Bulungan",KALIMANTAN UTARA,77216.0,Indonesia,,,,2.8528238,117.3650871,https://maps.google.com/?cid=0x0:0x1caacf54735019dd,
komplek housing,Komplek perumahan,Perumahan Badan Pusat Statistik BPS Prov Kalimantan Utara,"RCM3+GW9, Jl. Jelarai Raya, Tj. Selor Hilir, Kec. Tj. Selor, Kabupaten Bulungan, Kalimantan Utara","Kabupaten Bulungan, Kalimantan Utara",KALIMANTAN UTARA,,Indonesia,,,,2.833789,117.4048577,https://maps.google.com/?cid=0x0:0xae0fc70d3da301de,
komplek housing,Gedung Apartemen Berfasilitas Komplet,Rusun MBR Kab,"R9XM+RM7, Jl. Padaelo, Tj. Selor Hilir, Kec. Tj. Selor, Kabupaten Bulungan, Kalimantan Utara 77216","Jl. Padaelo, Tj. Selor Hilir, Kec. Tj. Selor, Kabupaten Bulungan",KALIMANTAN UTARA,77216.0,Indonesia,,,,2.849538,117.3841732,https://maps.google.com/?cid=0x0:0xb62ac57693e0a4b0,
komplek housing,komplek housing,Rumah Basri Jola,"Perumahan Graha Permata Tiga Tawai, Jl. Tiga Tawai Blok C No 16, Tj. Selor Hilir, Kec. Tj. Selor, Kabupaten Bulungan, Kalimantan Utara 77216","Jl. Tiga Tawai Blok C No 16, Tj. Selor Hilir, Kec. Tj. Selor, Kabupaten Bulungan",KALIMANTAN UTARA,77216.0,Indonesia,,,,2.8441641,117.3952303,https://maps.google.com/?cid=0x0:0x4487d3009b5a9904,
komplek housing,Komplek perumahan,Nustam_Nessy's Home,"V99F+MWQ, Jl. Sabanar Lama, Sabanar Lama, Kec. Tj. Selor, Kabupaten Bulungan, Kalimantan Utara 77212","Jl. Sabanar Lama, Sabanar Lama, Kec. Tj. Selor, Kabupaten Bulungan",KALIMANTAN UTARA,77212.0,Indonesia,,,,2.8693442,117.3749041,https://maps.google.com/?cid=0x0:0x61dd1897905262ef,
komplek housing,Sekolah,Komplek Perumahan TELKOM,"R9PP+FGJ, Tj. Selor Hilir, Kec. Tj. Selor, Kabupaten Bulungan, Kalimantan Utara 77215","Tj. Selor Hilir, Kec. Tj. Selor, Kabupaten Bulungan",KALIMANTAN UTARA,77215.0,Indonesia,,,,2.8362248,117.3862543,https://maps.google.com/?cid=0x0:0x173bd580bb640a15,
komplek housing,Komplek perumahan,Rumah Ryandcurly,"Gg. Bersama, Tj. Selor Hilir, Kec. Tj. Selor, Kabupaten Bulungan, Kalimantan Utara","Kabupaten Bulungan, Kalimantan Utara",KALIMANTAN UTARA,,Indonesia,,,,2.8611739,117.3662219,https://maps.google.com/?cid=0x0:0xcc9dbf039f2ca7fc,
komplek housing,Komplek perumahan,Rumah,"R9J7+HQ4, Jl. Tengku Umar, waung, Kec. Tj. Selor, Kabupaten Bulungan, Kalimantan Utara 77211","Jl. Tengku Umar, waung, Kec. Tj. Selor, Kabupaten Bulungan",KALIMANTAN UTARA,77211.0,Indonesia,,,,2.8313871,117.3644502,https://maps.google.com/?cid=0x0:0x810257cb6d1262a,
perumahan,perumahan,Kalimantan Timur 77261,"Kabupaten Bulungan, Kalimantan Timur","Kabupaten Bulungan, Kalimantan Timur",KALIMANTAN UTARA,,Indonesia,,,,2.6962559,116.702495,https://maps.google.com/?cid=0x0:0xe6ef60e95fa46d53,
perumahan,Perhimpunan Pengembang Perumahan,Gambaran desa peso dan pangean,"JQJP+R26, Long Peso, Peso, Kabupaten Bulungan, Kalimantan Utara","Kabupaten Bulungan, Kalimantan Utara",KALIMANTAN UTARA,,Indonesia,,,,2.6320321,116.7850297,https://maps.google.com/?cid=0x0:0x6d31f8290946bcf7,
perumahan,Komplek perumahan,Long Yin,"GM2J+XRJ Long Yin, Desa, Long Yiin/Pelaah, Peso, Bulungan Regency, North Kalimantan","Kabupaten Bulungan, Kalimantan Utara",KALIMANTAN UTARA,,Indonesia,,,,2.5024717,116.682019,https://maps.google.com/?cid=0x0:0x98e8b94b948c0e8f,
perumahan,Komplek perumahan,Long Lasan,"PRF8+HF, Long Lasan, Peso, Kabupaten Bulungan, Kalimantan Utara","Kabupaten Bulungan, Kalimantan Utara",KALIMANTAN UTARA,,Indonesia,,,,2.7239742,116.8161591,https://maps.google.com/?cid=0x0:0x430bdcf1e2e3415c,
perumahan,Perhimpunan Pengembang Perumahan,Patag,"Jl. Depsos RT 12,01,09/RW 01, Desa, Pimping, Kec. Tj. Palas Utara, Kabupaten Bulungan, Kalimantan Utara 77215","Desa, Pimping, Kec. Tj. Palas Utara, Kabupaten Bulungan",KALIMANTAN UTARA,77215.0,Indonesia, 081350975833,,,3.0028899,117.2075484,https://maps.google.com/?cid=0x0:0xae151446066d27a9,
perumahan,Perhimpunan Pengembang Perumahan,Long buang,"HPQG+MC9, Long Buang, Peso, Kabupaten Bulungan, Kalimantan Utara 77261","Long Buang, Peso, Kabupaten Bulungan",KALIMANTAN UTARA,77261.0,Indonesia,,,,2.5891539,116.7261197,https://maps.google.com/?cid=0x0:0x29f792e7449ae77,
perumahan,Perhimpunan Pengembang Perumahan,Rumah ku,"P4QF+5GF, RT.4, Long Beluah, Kec. Tj. Palas Bar., Kabupaten Bulungan, Kalimantan Utara","Kabupaten Bulungan, Kalimantan Utara",KALIMANTAN UTARA,,Indonesia,,,,2.7379457,117.1238021,https://maps.google.com/?cid=0x0:0x6a37ad50c21d6307,
perumahan,Perhimpunan Pengembang Perumahan,Long telenjau,"9GG3+CR, Long Telenjau, Peso Hilir, Kabupaten Bulungan, Kalimantan Utara","Kabupaten Bulungan, Kalimantan Utara",KALIMANTAN UTARA,,Indonesia,,,,2.9326918,116.9263671,https://maps.google.com/?cid=0x0:0xe91cb357db19ecbe,
perumahan,Komplek perumahan,Perumahan OA,"W7X5+93, Pimping, Kec. Tj. Palas Utara, Kabupaten Bulungan, Kalimantan Utara","Kabupaten Bulungan, Kalimantan Utara",KALIMANTAN UTARA,,Indonesia,,,,2.948414,117.2577376,https://maps.google.com/?cid=0x0:0x15e41ab9bb0f1d51,
perumahan,Perhimpunan Pengembang Perumahan,Desa Long Pelban,"RM23+774, Long Peleban, Peso, Kabupaten Bulungan, Kalimantan Utara","Kabupaten Bulungan, Kalimantan Utara",KALIMANTAN UTARA,,Indonesia,,,,2.800646,116.653198,https://maps.google.com/?cid=0x0:0x7919ee18406f3fc,
perumahan,Komplek perumahan,Perumahan Griya Sabanar Baru,"perumahan griya sabanar baru jl.tiga tawai Blok D no 15, Long Bang, Peso Hilir, Kabupaten Bulungan, Kalimantan Utara","Kabupaten Bulungan, Kalimantan Utara",KALIMANTAN UTARA,,Indonesia,,,,2.9042476,116.9852422,https://maps.google.com/?cid=0x0:0x825f5fccfe1b0cf0,
perumahan,Komplek perumahan,Tanjung palas,"WX3P+M3X, Long Bang, Peso Hilir, Kabupaten Bulungan, Kalimantan Utara","Kabupaten Bulungan, Kalimantan Utara",KALIMANTAN UTARA,,Indonesia,,,,2.9042476,116.9852422,https://maps.google.com/?cid=0x0:0x368c31edd608e714,
perumahan,Komplek perumahan,rumah rofiatun,"WX3P+M3X, RT.1/RW.1, Long Bang, Peso Hilir, Kabupaten Bulungan, Kalimantan Utara","Kabupaten Bulungan, Kalimantan Utara",KALIMANTAN UTARA,,Indonesia,,,,2.9042476,116.9852422,https://maps.google.com/?cid=0x0:0x93f80f0b1b80800c,
perumahan,Kantor Perusahaan,Long telenjau,"RWJM+CG, Long Telenjau, Peso Hilir, Kabupaten Bulungan, Kalimantan Utara","Kabupaten Bulungan, Kalimantan Utara",KALIMANTAN UTARA,,Indonesia,,,,2.8311191,116.9338413,https://maps.google.com/?cid=0x0:0x37f1474283ead34a,
perumahan,Perhimpunan Pengembang Perumahan,Long bang,"PX8F+J9W, Long Bang Hulu, Peso Hilir, Kabupaten Bulungan, Kalimantan Utara","Kabupaten Bulungan, Kalimantan Utara",KALIMANTAN UTARA,,Indonesia,,,,2.7166028,116.9734685,https://maps.google.com/?cid=0x0:0xa75db602a8cf32a,
perumahan,Perhimpunan Pengembang Perumahan,POS 1,"P4QF+86X, Long Beluah, Kec. Tj. Palas Bar., Kabupaten Bulungan, Kalimantan Utara","Kabupaten Bulungan, Kalimantan Utara",KALIMANTAN UTARA,,Indonesia,,,,2.7383516,117.1231091,https://maps.google.com/?cid=0x0:0x6a09b6b4291c55a2,
perumahan,Pembangunan Perumahan,Rumah saya,"M68V+6J9, Mara Hilir, Kec. Tj. Palas Bar., Kabupaten Bulungan, Kalimantan Utara","Kabupaten Bulungan, Kalimantan Utara",KALIMANTAN UTARA,,Indonesia,,,,2.6655325,117.2440957,https://maps.google.com/?cid=0x0:0xc6694ef6083ae63,
perumahan,Kantor Pemerintah,Desa pejalin,"R879+GQ8, Jl. Padat Karya, Pejalin, Kec. Tj. Palas, Kabupaten Bulungan, Kalimantan Utara 77211","Jl. Padat Karya, Pejalin, Kec. Tj. Palas, Kabupaten Bulungan",KALIMANTAN UTARA,77211.0,Indonesia,,,,2.8137857,117.31946,https://maps.google.com/?cid=0x0:0x7d66eddc4d59d3e3,
perumahan,perumahan,Pulau bunyu,"WX3P+M3X, Long Bang, Peso Hilir, Kabupaten Bulungan, Kalimantan Utara","Kabupaten Bulungan, Kalimantan Utara",KALIMANTAN UTARA,,Indonesia,,,,2.9042476,116.9852422,https://maps.google.com/?cid=0x0:0xc61d36f50e444ce6,
perumahan,Perhimpunan Pengembang Perumahan,Long bang,"RX4W+5R6, Long Bang, Peso Hilir, Kabupaten Bulungan, Kalimantan Utara","Kabupaten Bulungan, Kalimantan Utara",KALIMANTAN UTARA,,Indonesia,,,,2.8054119,116.9970153,https://maps.google.com/?cid=0x0:0xa09eaa5ee7c3f193,
perumahan,Kampus Asrama,Perumahan Sofwa Indah Permai 1  2,"RCH6+P5M, Jl. Manunggal, Tj. Selor Tim., Kec. Tj. Selor, Kabupaten Bulungan, Kalimantan Utara","Kabupaten Bulungan, Kalimantan Utara",KALIMANTAN UTARA,,Indonesia,,,,2.8293382,117.4104268,https://maps.google.com/?cid=0x0:0xaaf1018c4c8c0855,
perumahan,Perhimpunan Pengembang Perumahan,Tajau City,"RH46+V9Q, Long Lejuh, Peso, Kabupaten Bulungan, Kalimantan Utara","Kabupaten Bulungan, Kalimantan Utara",KALIMANTAN UTARA,,Indonesia,,,,2.8072096,116.5609857,https://maps.google.com/?cid=0x0:0xbff9349ee43c46e0,
perumahan,Perhimpunan Pengembang Perumahan,Home HFM,"P48X+P8, Long Sam, Kec. Tj. Palas Bar., Kabupaten Bulungan, Kalimantan Utara 77261","Long Sam, Kec. Tj. Palas Bar., Kabupaten Bulungan",KALIMANTAN UTARA,77261.0,Indonesia,,,,2.7167883,117.14837,https://maps.google.com/?cid=0x0:0xcf05fded780cf117,
perumahan,Otoritas Perumahan,Perumahan griya peson,"Perumahan Cluster Griya Pesona Blok P12 No.88 Rt003/004 Desa, Pahlawan Setia, Kec. Tarumajaya, Kabupaten Bekasi, Jawa Barat 17216","Pahlawan Setia, Kec. Tarumajaya, Kabupaten Bekasi",KALIMANTAN UTARA,17216.0,Indonesia, 081807453297,,,-6.1354302,107.0066883,https://maps.google.com/?cid=0x0:0x75e468085bedffb4,
perumahan,Kantor Perusahaan,"Perumahan Cluster Griya Pesona, Pahlawan Setia, Tarumajaya","Jalan Tambun Sungai Angke, Kp. Tambun Kavling, RT.003/RW.004, Desa/Kel. Pahlawan Setia, Pahlawan Setia, Kec. Tarumajaya, Bekasi Utara, Jawa Barat 17216","Kp. Tambun Kavling, RT.003/RW.004, Desa/Kel. Pahlawan Setia, Pahlawan Setia, Kec. Tarumajaya, Bekasi Utara",KALIMANTAN UTARA,17216.0,Indonesia,,,,-6.135441,107.0065334,https://maps.google.com/?cid=0x0:0x69c5969df9e83863,
perumahan,perumahan,Peso Hilir,"Kabupaten Bulungan, Kalimantan Utara","Kabupaten Bulungan, Kalimantan Utara",KALIMANTAN UTARA,,Indonesia,,,,2.7979259,116.9381434,https://maps.google.com/?cid=0x0:0x3e0d9d5c1d55d425,
perumahan,perumahan,Kalimantan Utara 77263,"Kabupaten Bulungan, Kalimantan Utara","Kabupaten Bulungan, Kalimantan Utara",KALIMANTAN UTARA,,Indonesia,,,,3.1226414,116.8910342,https://maps.google.com/?cid=0x0:0x4e5101a5ecf582e,
perumahan,Komplek perumahan,Sekatak buji,"8368+2F5, Jl. Ahmad Yani, Sekatak Buji, Kec. Sekatak, Kabupaten Bulungan, Kalimantan Utara 77263","Jl. Ahmad Yani, Sekatak Buji, Kec. Sekatak, Kabupaten Bulungan",KALIMANTAN UTARA,77263.0,Indonesia,,,,3.3094566,117.0661656,https://maps.google.com/?cid=0x0:0xb36d81e1e7ae8eaf,
perumahan,Perhimpunan Pengembang Perumahan,Selatak bengara,"555M+4FG, Sekatak Bengara, Kec. Sekatak, Kabupaten Bulungan, Kalimantan Utara","Kabupaten Bulungan, Kalimantan Utara",KALIMANTAN UTARA,,Indonesia,,,,3.1578127,117.1837076,https://maps.google.com/?cid=0x0:0x555720be2401bfcc,
perumahan,Komplek perumahan,ARBAIN SPEED,"8369+PHV, Jl. Ahmad Yani, Sekatak Buji, Kec. Sekatak, Kabupaten Bulungan, Kalimantan Utara 77263","Jl. Ahmad Yani, Sekatak Buji, Kec. Sekatak, Kabupaten Bulungan",KALIMANTAN UTARA,77263.0,Indonesia,,,,3.3118733,117.0689083,https://maps.google.com/?cid=0x0:0x3e33952f187d663,
perumahan,perumahan,Kampung Sekatak,"83F6+5R7, Kelembunan, Kec. Sekatak, Kabupaten Bulungan, Kalimantan Utara 77152","Kelembunan, Kec. Sekatak, Kabupaten Bulungan",KALIMANTAN UTARA,77152.0,Indonesia,,,,3.3218005,117.0622468,https://maps.google.com/?cid=0x0:0x4c2724e99cdd0cc6,
perumahan,Produsen,Tanbak milik MUH SATA,"68F2+M82, Sekatak Bengara, Kec. Sekatak, Kabupaten Bulungan, Kalimantan Utara","Kabupaten Bulungan, Kalimantan Utara",KALIMANTAN UTARA,,Indonesia,,,,3.2241352,117.3007552,https://maps.google.com/?cid=0x0:0x8e8f9a3b434cf642,
perumahan,Komplek perumahan,Sekatak bengara,"55FJ+5V, Sekatak Bengara, Kec. Sekatak, Kabupaten Bulungan, Kalimantan Utara","Kabupaten Bulungan, Kalimantan Utara",KALIMANTAN UTARA,,Indonesia,,,,3.172945,117.1822236,https://maps.google.com/?cid=0x0:0x46494bdbfba47640,
perumahan,Komplek perumahan,pelabuhn sekatak buji,"8359+H69, Sekatak Buji, Kec. Sekatak, Kabupaten Bulungan, Kalimantan Utara 77263","Sekatak Buji, Kec. Sekatak, Kabupaten Bulungan",KALIMANTAN UTARA,77263.0,Indonesia,,,,3.309598,117.068207,https://maps.google.com/?cid=0x0:0x21ce6f21c4c6c3d7,
perumahan,Komplek perumahan,Lokasi andi Z,"6XHX+GC7, Bunau, Kec. Sekatak, Kabupaten Bulungan, Kalimantan Utara 77263","Bunau, Kec. Sekatak, Kabupaten Bulungan",KALIMANTAN UTARA,77263.0,Indonesia,,,,3.2287959,116.9985363,https://maps.google.com/?cid=0x0:0xd8c0b06ebe6b4ba9,
perumahan,Perhimpunan Pengembang Perumahan,Balai Adat Desa Terindak,"4XQ6+FMP, Terindak, Kec. Sekatak, Kabupaten Bulungan, Kalimantan Utara 77263","Terindak, Kec. Sekatak, Kabupaten Bulungan",KALIMANTAN UTARA,77263.0,Indonesia,,,,3.138725,116.9616941,https://maps.google.com/?cid=0x0:0x2a5a0600323e0ca0,
perumahan,Perhimpunan Pengembang Perumahan,Patag,"Jl. Depsos RT 12,01,09/RW 01, Desa, Pimping, Kec. Tj. Palas Utara, Kabupaten Bulungan, Kalimantan Utara 77215","Desa, Pimping, Kec. Tj. Palas Utara, Kabupaten Bulungan",KALIMANTAN UTARA,77215.0,Indonesia, 081350975833,,,3.0028899,117.2075484,https://maps.google.com/?cid=0x0:0xae151446066d27a9,
perumahan,Komplek perumahan,Basemcamp Jalai,"Jalai, Jl. Jembatan Jalai No.RT.03, Terindak, Kabupaten Bulungan, Kalimantan Utara 77263","Jl. Jembatan Jalai No.RT.03, Terindak, Kabupaten Bulungan",KALIMANTAN UTARA,77263.0,Indonesia,,,,3.2814206,117.0752245,https://maps.google.com/?cid=0x0:0x6602bd11c0c62d7e,
perumahan,Komplek perumahan,Rumah zam zim,"73RG+QPM, Sekatak Buji, Kec. Sekatak, Kabupaten Bulungan, Kalimantan Utara","Kabupaten Bulungan, Kalimantan Utara",KALIMANTAN UTARA,,Indonesia,,,,3.2919738,117.0768048,https://maps.google.com/?cid=0x0:0x10254ec79c01670b,
perumahan,Komplek perumahan,FIKHOHU,"8398+7J, Sekatak Buji, Kec. Sekatak, Kabupaten Bulungan, Kalimantan Utara 77152","Sekatak Buji, Kec. Sekatak, Kabupaten Bulungan",KALIMANTAN UTARA,77152.0,Indonesia,,,,3.318209,117.06662,https://maps.google.com/?cid=0x0:0x3d2b5057f627d887,
perumahan,Komplek perumahan,Jln Merak,"36F6+HM, Panca Agung, Kec. Tj. Palas Utara, Kabupaten Bulungan, Kalimantan Utara","Kabupaten Bulungan, Kalimantan Utara",KALIMANTAN UTARA,,Indonesia,,,,3.0738772,117.2117088,https://maps.google.com/?cid=0x0:0xe4a91f1b3e97192f,
perumahan,Komplek perumahan,Rmh Yuli Kastyo,"3625+F2, Karang Agung, Kec. Tj. Palas Utara, Kabupaten Bulungan, Kalimantan Utara","Kabupaten Bulungan, Kalimantan Utara",KALIMANTAN UTARA,,Indonesia,,,,3.0511973,117.2076178,https://maps.google.com/?cid=0x0:0xa71d2a1eabfba50c,
perumahan,Gedung Apartemen,Mes Staff,"476C+RCP, Silva Rahayu, Kec. Tj. Palas Tengah, Kabupaten Bulungan, Kalimantan Utara 77215","Silva Rahayu, Kec. Tj. Palas Tengah, Kabupaten Bulungan",KALIMANTAN UTARA,77215.0,Indonesia,,,,3.1121518,117.2710741,https://maps.google.com/?cid=0x0:0x202b5b8a682b0455,
perumahan,Komplek perumahan,Ruma adi n dodo,"54W7+RV, Ambalat, Kec. Sekatak, Kabupaten Bulungan, Kalimantan Utara","Kabupaten Bulungan, Kalimantan Utara",KALIMANTAN UTARA,,Indonesia,,,,3.1971122,117.1146896,https://maps.google.com/?cid=0x0:0x46239305cb5da396,
perumahan,Komplek perumahan,Aci,"858G+77, Sekatak Buji, Kec. Sekatak, Kabupaten Bulungan, Kalimantan Utara","Kabupaten Bulungan, Kalimantan Utara",KALIMANTAN UTARA,,Indonesia,,,,3.31568,117.175713,https://maps.google.com/?cid=0x0:0xb7ed3139f6001cad,
perumahan,Minimarket,Family simpang,"83C9+M7M, Turung, Kec. Sekatak, Kabupaten Bulungan, Kalimantan Utara 77152","Turung, Kec. Sekatak, Kabupaten Bulungan",KALIMANTAN UTARA,77152.0,Indonesia,,,,3.3217035,117.0681671,https://maps.google.com/?cid=0x0:0xaed919ebb2eba811,
perumahan,Perhimpunan Pengembang Perumahan,ANTAL,"4VFR+3C3, Tengah, Kec. Tj. Palas Utara, Kabupaten Bulungan, Kalimantan Utara 77263","Tengah, Kec. Tj. Palas Utara, Kabupaten Bulungan",KALIMANTAN UTARA,77263.0,Indonesia,,,,3.1226414,116.8910342,https://maps.google.com/?cid=0x0:0x33a244b27629576b,
perumahan,Komplek perumahan,Angkringan Solo  Mebel Ahmad Minggus,"27CC+4G9, Kelubir, Kec. Tj. Palas Utara, Kabupaten Bulungan, Kalimantan Utara","Kabupaten Bulungan, Kalimantan Utara",KALIMANTAN UTARA,,Indonesia,,,,3.0202867,117.2713501,https://maps.google.com/?cid=0x0:0xc977c66a42013239,
perumahan,Pembangunan Perumahan,Imran,"83G5+FXG, Jl. Ahmad Yani, Turung, Kec. Sekatak, Kabupaten Bulungan, Kalimantan Utara 77152","Jl. Ahmad Yani, Turung, Kec. Sekatak, Kabupaten Bulungan",KALIMANTAN UTARA,77152.0,Indonesia,,,,3.3261765,117.0599518,https://maps.google.com/?cid=0x0:0xc9f652ee25f2173b,
perumahan,perumahan,Kalimantan Utara 77211,"Kabupaten Bulungan, Kalimantan Utara","Kabupaten Bulungan, Kalimantan Utara",KALIMANTAN UTARA,,Indonesia,,,,2.8426922,117.2911248,https://maps.google.com/?cid=0x0:0x503f82067f46d9d6,
perumahan,Pembangunan Perumahan,rumahhijau,"R8MW+RVP, Karang Anyar, Kec. Tj. Palas, Kabupaten Bulungan, Kalimantan Utara","Kabupaten Bulungan, Kalimantan Utara",KALIMANTAN UTARA,,Indonesia,,,,2.8343886,117.3470292,https://maps.google.com/?cid=0x0:0x25fd4d69def23d0d,
perumahan,Rumah Kayu,HouseFamilyAskar,"R89C+67, Pejalin, Kec. Tj. Palas, Kabupaten Bulungan, Kalimantan Utara 77211","Pejalin, Kec. Tj. Palas, Kabupaten Bulungan",KALIMANTAN UTARA,77211.0,Indonesia,,,,2.8180332,117.320729,https://maps.google.com/?cid=0x0:0xe3f376a497828067,
perumahan,Perhimpunan Pengembang Perumahan,Rahadi,"R8WX+HQC, Tj. Palas Hilir, Kec. Tj. Palas, Kabupaten Bulungan, Kalimantan Utara","Kabupaten Bulungan, Kalimantan Utara",KALIMANTAN UTARA,,Indonesia,,,,2.8464322,117.3493883,https://maps.google.com/?cid=0x0:0xc900471218e8d74c,
perumahan,Komplek perumahan,Perumahan Korpri Jelarai,"R9PX+QRG, Unnamed Road, Tj. Selor Hilir, Kec. Tj. Selor, Kabupaten Bulungan, Kalimantan Utara 77211","Unnamed Road, Tj. Selor Hilir, Kec. Tj. Selor, Kabupaten Bulungan",KALIMANTAN UTARA,77211.0,Indonesia,,,,2.8369375,117.3995817,https://maps.google.com/?cid=0x0:0xd475d16bf925444e,
perumahan,Pembangunan Perumahan,NN,"R879+JQG, Jl. Poros Gn. Seriang, Pejalin, Kec. Tj. Palas, Kabupaten Bulungan, Kalimantan Utara 77211","Jl. Poros Gn. Seriang, Pejalin, Kec. Tj. Palas, Kabupaten Bulungan",KALIMANTAN UTARA,77211.0,Indonesia,,,,2.8140714,117.3194657,https://maps.google.com/?cid=0x0:0x22451b5ff70d311,
perumahan,Komplek perumahan,Perumahan OB,"W7H8+WH, Tj. Palas Hilir, Kec. Tj. Palas, Kabupaten Bulungan, Kalimantan Utara","Kabupaten Bulungan, Kalimantan Utara",KALIMANTAN UTARA,,Indonesia,,,,2.9297817,117.2664477,https://maps.google.com/?cid=0x0:0xbf32ce2b45820be5,
perumahan,Komplek perumahan,Perumahan OA,"W7X5+93, Pimping, Kec. Tj. Palas Utara, Kabupaten Bulungan, Kalimantan Utara","Kabupaten Bulungan, Kalimantan Utara",KALIMANTAN UTARA,,Indonesia,,,,2.948414,117.2577376,https://maps.google.com/?cid=0x0:0x15e41ab9bb0f1d51,
perumahan,Pembangunan Perumahan,Rumah kebun,"V98G+6FG, Tj. Palas Tengah, Kec. Tj. Palas, Kabupaten Bulungan, Kalimantan Utara","Kabupaten Bulungan, Kalimantan Utara",KALIMANTAN UTARA,,Indonesia, 082350128450,,,2.865553,117.3762057,https://maps.google.com/?cid=0x0:0x450daf027034ce9c,
perumahan,Komplek perumahan,Perumahan OD,"W7GX+RQ, Silva Rahayu, Kec. Tj. Palas Tengah, Kabupaten Bulungan, Kalimantan Utara","Kabupaten Bulungan, Kalimantan Utara",KALIMANTAN UTARA,,Indonesia,,,,2.927103,117.2994757,https://maps.google.com/?cid=0x0:0xd9a98d1daa46754b,
perumahan,Komplek perumahan,Tanjung selor,"V9CH+G89, Jl. Sabanar Lama, Tj. Selor Hilir, Kec. Tj. Palas Tengah, Kabupaten Bulungan, Kalimantan Utara 77211","Jl. Sabanar Lama, Tj. Selor Hilir, Kec. Tj. Palas Tengah, Kabupaten Bulungan",KALIMANTAN UTARA,77211.0,Indonesia, 082244497768,,,2.8712914,117.3783552,https://maps.google.com/?cid=0x0:0xc099e95d4a62f80d,
perumahan,Kantor Pemerintah,Desa pejalin,"R879+GQ8, Jl. Padat Karya, Pejalin, Kec. Tj. Palas, Kabupaten Bulungan, Kalimantan Utara 77211","Jl. Padat Karya, Pejalin, Kec. Tj. Palas, Kabupaten Bulungan",KALIMANTAN UTARA,77211.0,Indonesia,,,,2.8137857,117.31946,https://maps.google.com/?cid=0x0:0x7d66eddc4d59d3e3,
perumahan,Komplek perumahan,Kalimantan utara,"R9V7+WW3, Tj. Selor Hilir, Kec. Tj. Palas Tengah, Kabupaten Bulungan, Kalimantan Utara","Kabupaten Bulungan, Kalimantan Utara",KALIMANTAN UTARA,,Indonesia,,,,2.844766,117.3648097,https://maps.google.com/?cid=0x0:0x524588556a95b9ff,
perumahan,Pembangunan Perumahan,Perumahan Tanjung Harapan Residence,"R9PH+RQ4, Tj. Selor Hilir, Kec. Tj. Selor, Kabupaten Bulungan, Kalimantan Utara","Kabupaten Bulungan, Kalimantan Utara",KALIMANTAN UTARA,,Indonesia,,,,2.8370056,117.3794593,https://maps.google.com/?cid=0x0:0xbb5808c84bd94b64,
perumahan,Pembangunan Perumahan,Rumah_Alif_Alifa,"R8VJ+PM9, Gn. Putih/Kr. Jenawi, Kec. Tj. Palas, Kabupaten Bulungan, Kalimantan Utara 77216","Gn. Putih/Kr. Jenawi, Kec. Tj. Palas, Kabupaten Bulungan",KALIMANTAN UTARA,77216.0,Indonesia,,,,2.844299,117.3317105,https://maps.google.com/?cid=0x0:0x4600687dfb1456e2,
perumahan,Kafe,Base camp,"Jl. Budi Utomo No.11, Gn. Putih/Kr. Jenawi, Kec. Tj. Palas, Kabupaten Bulungan, Kalimantan Utara","Kabupaten Bulungan, Kalimantan Utara",KALIMANTAN UTARA,,Indonesia,,,,2.833846,117.3334181,https://maps.google.com/?cid=0x0:0x11276383d99389ff,
perumahan,Komplek perumahan,Perumahan OC,"X72V+2M3, Silva Rahayu, Kec. Tj. Palas Tengah, Kabupaten Bulungan, Kalimantan Utara","Kabupaten Bulungan, Kalimantan Utara",KALIMANTAN UTARA,,Indonesia,,,,2.9500192,117.294175,https://maps.google.com/?cid=0x0:0xf3503ebd2897f11d,
perumahan,Komplek perumahan,Rumah Aca / Awis,"V93M+2MX, Tj. Palas Tengah, Kec. Tj. Palas, Kabupaten Bulungan, Kalimantan Utara","Kabupaten Bulungan, Kalimantan Utara",KALIMANTAN UTARA,,Indonesia,,,,2.8526184,117.3842403,https://maps.google.com/?cid=0x0:0x9f4f990c7b212fc6,
perumahan,Inspektur Tempat Tinggal,Rumah Teras Nawang,"V8JR+V5, Teras Nawang, Kec. Tj. Palas, Kabupaten Bulungan, Kalimantan Utara 77211","Teras Nawang, Kec. Tj. Palas, Kabupaten Bulungan",KALIMANTAN UTARA,77211.0,Indonesia,,,,2.882137,117.340452,https://maps.google.com/?cid=0x0:0xcc9b51441cb2bb40,
perumahan,Komplek perumahan,Rumah Idaman,"R8MP+RPX, Jl. Katamso, Gn. Putih/Kr. Jenawi, Kec. Tj. Palas, Kabupaten Bulungan, Kalimantan Utara 77211","Jl. Katamso, Gn. Putih/Kr. Jenawi, Kec. Tj. Palas, Kabupaten Bulungan",KALIMANTAN UTARA,77211.0,Indonesia,,,,2.8350943,117.3373244,https://maps.google.com/?cid=0x0:0x78423d805aa4bfde,
perumahan,Komplek perumahan,RUMAH I SA,"RCJ4+3Q9, Jl. Manunggal, Tengkapak, Kec. Tj. Selor, Kabupaten Bulungan, Kalimantan Utara 77211","Jl. Manunggal, Tengkapak, Kec. Tj. Selor, Kabupaten Bulungan",KALIMANTAN UTARA,77211.0,Indonesia,,,,2.829565,117.4070843,https://maps.google.com/?cid=0x0:0x67661bdcd495ba7b,
perumahan,Kantor Perusahaan,Perumahan Grand Bulungan Residence,"RCG3+PRW, Tengkapak, Kec. Tj. Selor, Kabupaten Bulungan, Kalimantan Utara 77211","Tengkapak, Kec. Tj. Selor, Kabupaten Bulungan",KALIMANTAN UTARA,77211.0,Indonesia, 082148406080,,,2.8268531,117.4045657,https://maps.google.com/?cid=0x0:0xad8b2be0316ac2cc,
perumahan,Perhimpunan Pengembang Perumahan,Rumah pak ma'un,"R8WM+F49, Jl. Padat Karya, gunung putih, Kec. Tj. Palas, Kabupaten Bulungan, Kalimantan Utara 77216","Jl. Padat Karya, gunung putih, Kec. Tj. Palas, Kabupaten Bulungan",KALIMANTAN UTARA,77216.0,Indonesia,,,,2.845677,117.3334117,https://maps.google.com/?cid=0x0:0x46427a23aeaca7f7,
perumahan,Komplek perumahan,Rumah Pak Bahar,"V949+968, Tj. Selor Hilir, Kec. Tj. Palas Tengah, Kabupaten Bulungan, Kalimantan Utara 77216","Tj. Selor Hilir, Kec. Tj. Palas Tengah, Kabupaten Bulungan",KALIMANTAN UTARA,77216.0,Indonesia,,,,2.8560902,117.3680789,https://maps.google.com/?cid=0x0:0xe4f064f3a648bee4,
perumahan,Perhimpunan Pengembang Perumahan,AIRA-SALSA,"V9CG+7V6, Salim Batu, Kec. Tj. Palas Tengah, Kabupaten Bulungan, Kalimantan Utara 77211","Salim Batu, Kec. Tj. Palas Tengah, Kabupaten Bulungan",KALIMANTAN UTARA,77211.0,Indonesia,,,,2.8706642,117.3771254,https://maps.google.com/?cid=0x0:0xa8413f0831456c56,
perumahan,perumahan,Kalimantan Utara 77214,"Kabupaten Bulungan, Kalimantan Utara","Kabupaten Bulungan, Kalimantan Utara",KALIMANTAN UTARA,,Indonesia,,,,2.9077425,117.3675233,https://maps.google.com/?cid=0x0:0xb0bb64f1a0e0ca39,
perumahan,Komplek perumahan,Kalimantan utara,"R9V7+WW3, Tj. Selor Hilir, Kec. Tj. Palas Tengah, Kabupaten Bulungan, Kalimantan Utara","Kabupaten Bulungan, Kalimantan Utara",KALIMANTAN UTARA,,Indonesia,,,,2.844766,117.3648097,https://maps.google.com/?cid=0x0:0x524588556a95b9ff,
perumahan,Pembangunan Perumahan,Rumah kebun,"V98G+6FG, Tj. Palas Tengah, Kec. Tj. Palas, Kabupaten Bulungan, Kalimantan Utara","Kabupaten Bulungan, Kalimantan Utara",KALIMANTAN UTARA,,Indonesia, 082350128450,,,2.865553,117.3762057,https://maps.google.com/?cid=0x0:0x450daf027034ce9c,
perumahan,Perhimpunan Pengembang Perumahan,Rahadi,"R8WX+HQC, Tj. Palas Hilir, Kec. Tj. Palas, Kabupaten Bulungan, Kalimantan Utara","Kabupaten Bulungan, Kalimantan Utara",KALIMANTAN UTARA,,Indonesia,,,,2.8464322,117.3493883,https://maps.google.com/?cid=0x0:0xc900471218e8d74c,
perumahan,Pembangunan Perumahan,SOS,"R9V9+QGP, Tj. Selor Hilir, Kec. Tj. Palas Tengah, Kabupaten Bulungan, Kalimantan Utara 77214","Tj. Selor Hilir, Kec. Tj. Palas Tengah, Kabupaten Bulungan",KALIMANTAN UTARA,77214.0,Indonesia,,,,2.8444639,117.3688317,https://maps.google.com/?cid=0x0:0x389830d0e0e95283,
perumahan,Komplek perumahan,Hairul,"R9V8+XXR, Jl. Manggis I, RT.6/RW.3, Tj. Selor Hilir, Kec. Tj. Selor, Kabupaten Bulungan, Kalimantan Utara 77214","Jl. Manggis I, RT.6/RW.3, Tj. Selor Hilir, Kec. Tj. Selor, Kabupaten Bulungan",KALIMANTAN UTARA,77214.0,Indonesia,,,,2.8449826,117.3673777,https://maps.google.com/?cid=0x0:0xbf6645fb7668c331,
perumahan,Komplek perumahan,Nustam_Nessy's Home,"V99F+MWQ, Jl. Sabanar Lama, Sabanar Lama, Kec. Tj. Selor, Kabupaten Bulungan, Kalimantan Utara 77212","Jl. Sabanar Lama, Sabanar Lama, Kec. Tj. Selor, Kabupaten Bulungan",KALIMANTAN UTARA,77212.0,Indonesia,,,,2.8693442,117.3749041,https://maps.google.com/?cid=0x0:0x61dd1897905262ef,
perumahan,Perhimpunan Pengembang Perumahan,Rumah pak ma'un,"R8WM+F49, Jl. Padat Karya, gunung putih, Kec. Tj. Palas, Kabupaten Bulungan, Kalimantan Utara 77216","Jl. Padat Karya, gunung putih, Kec. Tj. Palas, Kabupaten Bulungan",KALIMANTAN UTARA,77216.0,Indonesia,,,,2.845677,117.3334117,https://maps.google.com/?cid=0x0:0x46427a23aeaca7f7,
perumahan,Komplek perumahan,Rumah ansel,"V82W+C5F, Tj. Palas Hilir, Kec. Tj. Palas, Kabupaten Bulungan, Kalimantan Utara 77216","Tj. Palas Hilir, Kec. Tj. Palas, Kabupaten Bulungan",KALIMANTAN UTARA,77216.0,Indonesia,,,,2.852184,117.346069,https://maps.google.com/?cid=0x0:0x5a8fe1fa84fd8f8a,
perumahan,Komplek perumahan,Rumah Pak Bahar,"V949+968, Tj. Selor Hilir, Kec. Tj. Palas Tengah, Kabupaten Bulungan, Kalimantan Utara 77216","Tj. Selor Hilir, Kec. Tj. Palas Tengah, Kabupaten Bulungan",KALIMANTAN UTARA,77216.0,Indonesia,,,,2.8560902,117.3680789,https://maps.google.com/?cid=0x0:0xe4f064f3a648bee4,
perumahan,Pembangunan Perumahan,Rumah ma Itha,"R9WF+6VC, Tj. Palas Tengah, Kec. Tj. Palas, Kabupaten Bulungan, Kalimantan Utara","Kabupaten Bulungan, Kalimantan Utara",KALIMANTAN UTARA,,Indonesia,,,,2.8455502,117.3746364,https://maps.google.com/?cid=0x0:0x2968ea622f3b4ce3,
perumahan,Komplek perumahan,Rumah Aca / Awis,"V93M+2MX, Tj. Palas Tengah, Kec. Tj. Palas, Kabupaten Bulungan, Kalimantan Utara","Kabupaten Bulungan, Kalimantan Utara",KALIMANTAN UTARA,,Indonesia,,,,2.8526184,117.3842403,https://maps.google.com/?cid=0x0:0x9f4f990c7b212fc6,
perumahan,Perhimpunan Pengembang Perumahan,Tanah tg palas,"R9P4+PHV, Tj. Palas Tengah, Kec. Tj. Palas, Kabupaten Bulungan, Kalimantan Utara 77214","Tj. Palas Tengah, Kec. Tj. Palas, Kabupaten Bulungan",KALIMANTAN UTARA,77214.0,Indonesia,,,,2.8374086,117.3561863,https://maps.google.com/?cid=0x0:0x39ae246a634885ac,
perumahan,Otoritas Perumahan,Perumahan semampu,"V84Q+MQ9, Tj. Palas Hilir, Kec. Tj. Palas, Kabupaten Bulungan, Kalimantan Utara 77216","Tj. Palas Hilir, Kec. Tj. Palas, Kabupaten Bulungan",KALIMANTAN UTARA,77216.0,Indonesia,,,,2.8557858,117.3379198,https://maps.google.com/?cid=0x0:0xadc57a109d33723,
perumahan,Komplek perumahan,Rumah Mukmin,"R9V2+W68, Tj. Palas Hilir, Kec. Tj. Palas, Kabupaten Bulungan, Kalimantan Utara 77214","Tj. Palas Hilir, Kec. Tj. Palas, Kabupaten Bulungan",KALIMANTAN UTARA,77214.0,Indonesia,,,,2.8447806,117.3505738,https://maps.google.com/?cid=0x0:0x71f9b4332d64b951,
perumahan,Komplek perumahan,Tempat kosku,"Jalur 2 no 159 upt Sp3 Tanjung Buka, Tj. Selor Hilir, Kec. Tj. Selor, Kabupaten Bulungan, Kalimantan Utara 77216","Tj. Selor Hilir, Kec. Tj. Selor, Kabupaten Bulungan",KALIMANTAN UTARA,77216.0,Indonesia,,,,2.8577903,117.3654748,https://maps.google.com/?cid=0x0:0xed514ec12f5bdaf7,
perumahan,Pembangunan Perumahan,Bayangkara,"V99G+QVQ, Tanjung Palas Barat, Kabupaten Bulungan, Kalimantan Utara","Kabupaten Bulungan, Kalimantan Utara",KALIMANTAN UTARA,,Indonesia,,,,2.86947,117.3772345,https://maps.google.com/?cid=0x0:0xe24b62c5f7414b66,
perumahan,Perhimpunan Pengembang Perumahan,Rumah Bpk. Samingin,"W94P+FW, Salim Batu, Kec. Tj. Palas Tengah, Kabupaten Bulungan, Kalimantan Utara","Kabupaten Bulungan, Kalimantan Utara",KALIMANTAN UTARA,,Indonesia,,,,2.9051711,117.3868501,https://maps.google.com/?cid=0x0:0x423331f0a7665b2a,
perumahan,Komplek perumahan,Rumah tinggal,"W94P+FW, Salim Batu, Kec. Tj. Palas Tengah, Kabupaten Bulungan, Kalimantan Utara","Kabupaten Bulungan, Kalimantan Utara",KALIMANTAN UTARA,,Indonesia,,,,2.9052002,117.3868821,https://maps.google.com/?cid=0x0:0x58b333532b8b7dbb,
perumahan,Komplek perumahan,Simpang empat,"R9V7+WW3, Tj. Selor Hilir, Kec. Tj. Palas Tengah, Kabupaten Bulungan, Kalimantan Utara","Kabupaten Bulungan, Kalimantan Utara",KALIMANTAN UTARA,,Indonesia,,,,2.844766,117.3648097,https://maps.google.com/?cid=0x0:0xa4d904cd5134661a,
perumahan,Rumah Kayu,JANAKA,"gang padi No.RT 35, Salim Batu, Kec. Tj. Palas Tengah, Kabupaten Bulungan, Kalimantan Utara 77214","Salim Batu, Kec. Tj. Palas Tengah, Kabupaten Bulungan",KALIMANTAN UTARA,77214.0,Indonesia,,,,2.9083177,117.3634315,https://maps.google.com/?cid=0x0:0xa2343d179d4d1d4d,
perumahan,Komplek perumahan,Daeng adi,"R9P4+464, Jl. Pangeran, Tj. Palas Tengah, Kec. Tj. Palas, Kabupaten Bulungan, Kalimantan Utara 77214","Jl. Pangeran, Tj. Palas Tengah, Kec. Tj. Palas, Kabupaten Bulungan",KALIMANTAN UTARA,77214.0,Indonesia,,,,2.8352648,117.3555691,https://maps.google.com/?cid=0x0:0xdcd3910a930c380d,
perumahan,Perhimpunan Pengembang Perumahan,Gondrong Sp 4,"W94P+FW, Salim Batu, Kec. Tj. Palas Tengah, Kabupaten Bulungan, Kalimantan Utara","Kabupaten Bulungan, Kalimantan Utara",KALIMANTAN UTARA,,Indonesia,,,,2.906157,117.387252,https://maps.google.com/?cid=0x0:0x4ee4c1b6007da093,
perumahan,Komplek perumahan,Rumah Tanjung,"R9R8+69G, Tj. Selor Hilir, Kec. Tj. Palas Tengah, Kabupaten Bulungan, Kalimantan Utara 77214","Tj. Selor Hilir, Kec. Tj. Palas Tengah, Kabupaten Bulungan",KALIMANTAN UTARA,77214.0,Indonesia,,,,2.8405629,117.3659475,https://maps.google.com/?cid=0x0:0xc33a4f3ccb2acdf9,
perumahan,Komplek perumahan,GG MUHAJIRIN 2,"R9P4+588, Jl. Pangeran, Tj. Palas Tengah, Kec. Tj. Palas, Kabupaten Bulungan, Kalimantan Utara 77214","Jl. Pangeran, Tj. Palas Tengah, Kec. Tj. Palas, Kabupaten Bulungan",KALIMANTAN UTARA,77214.0,Indonesia,,,,2.8354207,117.3558268,https://maps.google.com/?cid=0x0:0x35a930fd83fefd87,
perumahan,Komplek perumahan,My home,"R9W2+GH2, Tj. Palas Hilir, Kec. Tj. Palas, Kabupaten Bulungan, Kalimantan Utara 77214","Tj. Palas Hilir, Kec. Tj. Palas, Kabupaten Bulungan",KALIMANTAN UTARA,77214.0,Indonesia,,,,2.8462506,117.3513516,https://maps.google.com/?cid=0x0:0x81c25b6794ed835f,
perumahan,perumahan,Kec. Tj. Palas,"Kabupaten Bulungan, Kalimantan Utara","Kabupaten Bulungan, Kalimantan Utara",KALIMANTAN UTARA,,Indonesia,,,,2.8335506,117.3412058,https://maps.google.com/?cid=0x0:0xf6c6997b9149e5ff,
perumahan,Rumah Kayu,HouseFamilyAskar,"R89C+67, Pejalin, Kec. Tj. Palas, Kabupaten Bulungan, Kalimantan Utara 77211","Pejalin, Kec. Tj. Palas, Kabupaten Bulungan",KALIMANTAN UTARA,77211.0,Indonesia,,,,2.8180332,117.320729,https://maps.google.com/?cid=0x0:0xe3f376a497828067,
perumahan,Pembangunan Perumahan,rumahhijau,"R8MW+RVP, Karang Anyar, Kec. Tj. Palas, Kabupaten Bulungan, Kalimantan Utara","Kabupaten Bulungan, Kalimantan Utara",KALIMANTAN UTARA,,Indonesia,,,,2.8343886,117.3470292,https://maps.google.com/?cid=0x0:0x25fd4d69def23d0d,
perumahan,Gereja,Gereja GKII Pejalin,"R88C+J26, Pejalin, Kec. Tj. Palas, Kabupaten Bulungan, Kalimantan Utara 77211","Pejalin, Kec. Tj. Palas, Kabupaten Bulungan",KALIMANTAN UTARA,77211.0,Indonesia,,,,2.816544,117.320001,https://maps.google.com/?cid=0x0:0xeccd4f55d9383347,
perumahan,Pembangunan Perumahan,Rumah kebun,"V98G+6FG, Tj. Palas Tengah, Kec. Tj. Palas, Kabupaten Bulungan, Kalimantan Utara","Kabupaten Bulungan, Kalimantan Utara",KALIMANTAN UTARA,,Indonesia, 082350128450,,,2.865553,117.3762057,https://maps.google.com/?cid=0x0:0x450daf027034ce9c,
perumahan,Perhimpunan Pengembang Perumahan,Rahadi,"R8WX+HQC, Tj. Palas Hilir, Kec. Tj. Palas, Kabupaten Bulungan, Kalimantan Utara","Kabupaten Bulungan, Kalimantan Utara",KALIMANTAN UTARA,,Indonesia,,,,2.8464322,117.3493883,https://maps.google.com/?cid=0x0:0xc900471218e8d74c,
perumahan,Komplek perumahan,Kalimantan utara,"R9V7+WW3, Tj. Selor Hilir, Kec. Tj. Palas Tengah, Kabupaten Bulungan, Kalimantan Utara","Kabupaten Bulungan, Kalimantan Utara",KALIMANTAN UTARA,,Indonesia,,,,2.844766,117.3648097,https://maps.google.com/?cid=0x0:0x524588556a95b9ff,
perumahan,Kafe,Base camp,"Jl. Budi Utomo No.11, Gn. Putih/Kr. Jenawi, Kec. Tj. Palas, Kabupaten Bulungan, Kalimantan Utara","Kabupaten Bulungan, Kalimantan Utara",KALIMANTAN UTARA,,Indonesia,,,,2.833846,117.3334181,https://maps.google.com/?cid=0x0:0x11276383d99389ff,
perumahan,Kantor Pemerintah,Desa pejalin,"R879+GQ8, Jl. Padat Karya, Pejalin, Kec. Tj. Palas, Kabupaten Bulungan, Kalimantan Utara 77211","Jl. Padat Karya, Pejalin, Kec. Tj. Palas, Kabupaten Bulungan",KALIMANTAN UTARA,77211.0,Indonesia,,,,2.8137857,117.31946,https://maps.google.com/?cid=0x0:0x7d66eddc4d59d3e3,
perumahan,Otoritas Perumahan,Perumahan semampu,"V84Q+MQ9, Tj. Palas Hilir, Kec. Tj. Palas, Kabupaten Bulungan, Kalimantan Utara 77216","Tj. Palas Hilir, Kec. Tj. Palas, Kabupaten Bulungan",KALIMANTAN UTARA,77216.0,Indonesia,,,,2.8557858,117.3379198,https://maps.google.com/?cid=0x0:0xadc57a109d33723,
perumahan,Perhimpunan Pengembang Perumahan,Pak Tukimun Home,"R8JV+FP3, Jl. Pramuka, Tj. Palas Tengah, Kec. Tj. Palas, Kabupaten Bulungan, Kalimantan Utara 77216","Jl. Pramuka, Tj. Palas Tengah, Kec. Tj. Palas, Kabupaten Bulungan",KALIMANTAN UTARA,77216.0,Indonesia,,,,2.8311558,117.3443645,https://maps.google.com/?cid=0x0:0xf9c2aa9ceac1ba0,
perumahan,Perhimpunan Pengembang Perumahan,Rumah pak ma'un,"R8WM+F49, Jl. Padat Karya, gunung putih, Kec. Tj. Palas, Kabupaten Bulungan, Kalimantan Utara 77216","Jl. Padat Karya, gunung putih, Kec. Tj. Palas, Kabupaten Bulungan",KALIMANTAN UTARA,77216.0,Indonesia,,,,2.845677,117.3334117,https://maps.google.com/?cid=0x0:0x46427a23aeaca7f7,
perumahan,Inspektur Tempat Tinggal,Rumah Teras Nawang,"V8JR+V5, Teras Nawang, Kec. Tj. Palas, Kabupaten Bulungan, Kalimantan Utara 77211","Teras Nawang, Kec. Tj. Palas, Kabupaten Bulungan",KALIMANTAN UTARA,77211.0,Indonesia,,,,2.882137,117.340452,https://maps.google.com/?cid=0x0:0xcc9b51441cb2bb40,
perumahan,Komplek perumahan,Rumah Pak Bahar,"V949+968, Tj. Selor Hilir, Kec. Tj. Palas Tengah, Kabupaten Bulungan, Kalimantan Utara 77216","Tj. Selor Hilir, Kec. Tj. Palas Tengah, Kabupaten Bulungan",KALIMANTAN UTARA,77216.0,Indonesia,,,,2.8560902,117.3680789,https://maps.google.com/?cid=0x0:0xe4f064f3a648bee4,
perumahan,Komplek perumahan,Pembongkaran,"V85R+C3V, Tj. Palas Hilir, Kec. Tj. Palas, Kabupaten Bulungan, Kalimantan Utara 77211","Tj. Palas Hilir, Kec. Tj. Palas, Kabupaten Bulungan",KALIMANTAN UTARA,77211.0,Indonesia,,,,2.8591729,117.3399982,https://maps.google.com/?cid=0x0:0x27365c9a05c23bad,
perumahan,Perhimpunan Pengembang Perumahan,Tanah tg palas,"R9P4+PHV, Tj. Palas Tengah, Kec. Tj. Palas, Kabupaten Bulungan, Kalimantan Utara 77214","Tj. Palas Tengah, Kec. Tj. Palas, Kabupaten Bulungan",KALIMANTAN UTARA,77214.0,Indonesia,,,,2.8374086,117.3561863,https://maps.google.com/?cid=0x0:0x39ae246a634885ac,
perumahan,Komplek perumahan,Rumah Gue,"V8CM+9XR, RT.3, Teras Baru, Kec. Tj. Palas, Kabupaten Bulungan, Kalimantan Utara 77211","RT.3, Teras Baru, Kec. Tj. Palas, Kabupaten Bulungan",KALIMANTAN UTARA,77211.0,Indonesia,,,,2.8713788,117.3349003,https://maps.google.com/?cid=0x0:0x4d95c61633a53918,
perumahan,Pembangunan Perumahan,LOKASI RESEPSI,"R8MX+V96, Karang Anyar, Kec. Tj. Palas, Kabupaten Bulungan, Kalimantan Utara 77216","Karang Anyar, Kec. Tj. Palas, Kabupaten Bulungan",KALIMANTAN UTARA,77216.0,Indonesia,,,,2.8346571,117.3484027,https://maps.google.com/?cid=0x0:0xd8f206fe0a459086,
perumahan,Pembangunan Perumahan,Rumah_Alif_Alifa,"R8VJ+PM9, Gn. Putih/Kr. Jenawi, Kec. Tj. Palas, Kabupaten Bulungan, Kalimantan Utara 77216","Gn. Putih/Kr. Jenawi, Kec. Tj. Palas, Kabupaten Bulungan",KALIMANTAN UTARA,77216.0,Indonesia,,,,2.844299,117.3317105,https://maps.google.com/?cid=0x0:0x4600687dfb1456e2,
perumahan,Komplek perumahan,Rumah Idaman,"R8MP+RPX, Jl. Katamso, Gn. Putih/Kr. Jenawi, Kec. Tj. Palas, Kabupaten Bulungan, Kalimantan Utara 77211","Jl. Katamso, Gn. Putih/Kr. Jenawi, Kec. Tj. Palas, Kabupaten Bulungan",KALIMANTAN UTARA,77211.0,Indonesia,,,,2.8350943,117.3373244,https://maps.google.com/?cid=0x0:0x78423d805aa4bfde,
perumahan,Komplek perumahan,Tanjung selor,"V9CH+G89, Jl. Sabanar Lama, Tj. Selor Hilir, Kec. Tj. Palas Tengah, Kabupaten Bulungan, Kalimantan Utara 77211","Jl. Sabanar Lama, Tj. Selor Hilir, Kec. Tj. Palas Tengah, Kabupaten Bulungan",KALIMANTAN UTARA,77211.0,Indonesia, 082244497768,,,2.8712914,117.3783552,https://maps.google.com/?cid=0x0:0xc099e95d4a62f80d,
perumahan,perumahan,Kalimantan Utara 77216,"Kec. Tj. Palas Tengah, Kabupaten Bulungan, Kalimantan Utara","Kabupaten Bulungan, Kalimantan Utara",KALIMANTAN UTARA,,Indonesia,,,,2.9980617,117.5026174,https://maps.google.com/?cid=0x0:0x79c11fd9905607e6,
perumahan,Perhimpunan Pengembang Perumahan,Pak Tukimun Home,"R8JV+FP3, Jl. Pramuka, Tj. Palas Tengah, Kec. Tj. Palas, Kabupaten Bulungan, Kalimantan Utara 77216","Jl. Pramuka, Tj. Palas Tengah, Kec. Tj. Palas, Kabupaten Bulungan",KALIMANTAN UTARA,77216.0,Indonesia,,,,2.8311558,117.3443645,https://maps.google.com/?cid=0x0:0xf9c2aa9ceac1ba0,
perumahan,perumahan,Rumah Basri Jola,"Perumahan Graha Permata Tiga Tawai, Jl. Tiga Tawai Blok C No 16, Tj. Selor Hilir, Kec. Tj. Selor, Kabupaten Bulungan, Kalimantan Utara 77216","Jl. Tiga Tawai Blok C No 16, Tj. Selor Hilir, Kec. Tj. Selor, Kabupaten Bulungan",KALIMANTAN UTARA,77216.0,Indonesia,,,,2.8441641,117.3952303,https://maps.google.com/?cid=0x0:0x4487d3009b5a9904,
perumahan,Komplek perumahan,Rumah Pak Bahar,"V949+968, Tj. Selor Hilir, Kec. Tj. Palas Tengah, Kabupaten Bulungan, Kalimantan Utara 77216","Tj. Selor Hilir, Kec. Tj. Palas Tengah, Kabupaten Bulungan",KALIMANTAN UTARA,77216.0,Indonesia,,,,2.8560902,117.3680789,https://maps.google.com/?cid=0x0:0xe4f064f3a648bee4,
perumahan,Komplek perumahan,Perumahan OC,"X72V+2M3, Silva Rahayu, Kec. Tj. Palas Tengah, Kabupaten Bulungan, Kalimantan Utara","Kabupaten Bulungan, Kalimantan Utara",KALIMANTAN UTARA,,Indonesia,,,,2.9500192,117.294175,https://maps.google.com/?cid=0x0:0xf3503ebd2897f11d,
perumahan,Otoritas Perumahan,Perumahan semampu,"V84Q+MQ9, Tj. Palas Hilir, Kec. Tj. Palas, Kabupaten Bulungan, Kalimantan Utara 77216","Tj. Palas Hilir, Kec. Tj. Palas, Kabupaten Bulungan",KALIMANTAN UTARA,77216.0,Indonesia,,,,2.8557858,117.3379198,https://maps.google.com/?cid=0x0:0xadc57a109d33723,
perumahan,Pembangunan Perumahan,Rumah kebun,"V98G+6FG, Tj. Palas Tengah, Kec. Tj. Palas, Kabupaten Bulungan, Kalimantan Utara","Kabupaten Bulungan, Kalimantan Utara",KALIMANTAN UTARA,,Indonesia, 082350128450,,,2.865553,117.3762057,https://maps.google.com/?cid=0x0:0x450daf027034ce9c,
perumahan,Perhimpunan Pengembang Perumahan,Rumah pak ma'un,"R8WM+F49, Jl. Padat Karya, gunung putih, Kec. Tj. Palas, Kabupaten Bulungan, Kalimantan Utara 77216","Jl. Padat Karya, gunung putih, Kec. Tj. Palas, Kabupaten Bulungan",KALIMANTAN UTARA,77216.0,Indonesia,,,,2.845677,117.3334117,https://maps.google.com/?cid=0x0:0x46427a23aeaca7f7,
perumahan,Komplek perumahan,Perumahan OB,"W7H8+WH, Tj. Palas Hilir, Kec. Tj. Palas, Kabupaten Bulungan, Kalimantan Utara","Kabupaten Bulungan, Kalimantan Utara",KALIMANTAN UTARA,,Indonesia,,,,2.9297817,117.2664477,https://maps.google.com/?cid=0x0:0xbf32ce2b45820be5,
perumahan,Pembangunan Perumahan,Perumahan Bulungan Permata Indah,"V92X+222, Tj. Selor Hilir, Kec. Tj. Selor, Kabupaten Bulungan, Kalimantan Utara 77216","Tj. Selor Hilir, Kec. Tj. Selor, Kabupaten Bulungan",KALIMANTAN UTARA,77216.0,Indonesia, 082255495189,,,2.8500112,117.3975018,https://maps.google.com/?cid=0x0:0x8fb6e869c659e280,
perumahan,Komplek perumahan,Tanjung selor,"V9CH+G89, Jl. Sabanar Lama, Tj. Selor Hilir, Kec. Tj. Palas Tengah, Kabupaten Bulungan, Kalimantan Utara 77211","Jl. Sabanar Lama, Tj. Selor Hilir, Kec. Tj. Palas Tengah, Kabupaten Bulungan",KALIMANTAN UTARA,77211.0,Indonesia, 082244497768,,,2.8712914,117.3783552,https://maps.google.com/?cid=0x0:0xc099e95d4a62f80d,
perumahan,Pembangunan Perumahan,GRAHA PERMATA TIGA TAWAI,"R9VW+M39, Jl. Rw. Payau, Tj. Selor Hilir, Kec. Tj. Selor, Kabupaten Bulungan, Kalimantan Utara 77216","Jl. Rw. Payau, Tj. Selor Hilir, Kec. Tj. Selor, Kabupaten Bulungan",KALIMANTAN UTARA,77216.0,Indonesia,,,,2.8441641,117.3952303,https://maps.google.com/?cid=0x0:0x75e0730de0c88c4,
perumahan,Pembangunan Perumahan,LOKASI RESEPSI,"R8MX+V96, Karang Anyar, Kec. Tj. Palas, Kabupaten Bulungan, Kalimantan Utara 77216","Karang Anyar, Kec. Tj. Palas, Kabupaten Bulungan",KALIMANTAN UTARA,77216.0,Indonesia,,,,2.8346571,117.3484027,https://maps.google.com/?cid=0x0:0xd8f206fe0a459086,
perumahan,Pembangunan Perumahan,Perumahan Tanjung Harapan Residence,"R9PH+RQ4, Tj. Selor Hilir, Kec. Tj. Selor, Kabupaten Bulungan, Kalimantan Utara","Kabupaten Bulungan, Kalimantan Utara",KALIMANTAN UTARA,,Indonesia,,,,2.8370056,117.3794593,https://maps.google.com/?cid=0x0:0xbb5808c84bd94b64,
perumahan,Komplek perumahan,Perumahan OD,"W7GX+RQ, Silva Rahayu, Kec. Tj. Palas Tengah, Kabupaten Bulungan, Kalimantan Utara","Kabupaten Bulungan, Kalimantan Utara",KALIMANTAN UTARA,,Indonesia,,,,2.927103,117.2994757,https://maps.google.com/?cid=0x0:0xd9a98d1daa46754b,
perumahan,Tempat acara,Lokasi Acara,"R8JX+82H, Tj. Palas Tengah, Kec. Tj. Palas, Kabupaten Bulungan, Kalimantan Utara 77216","Tj. Palas Tengah, Kec. Tj. Palas, Kabupaten Bulungan",KALIMANTAN UTARA,77216.0,Indonesia,,,,2.8308671,117.3475464,https://maps.google.com/?cid=0x0:0x6202d7cbf886363c,
perumahan,Komplek perumahan,Pak Suyoto,"WF77+J6Q, Tj. Buka, Kec. Tj. Palas Tengah, Kabupaten Bulungan, Kalimantan Utara","Kabupaten Bulungan, Kalimantan Utara",KALIMANTAN UTARA,,Indonesia,,,,2.9140767,117.4630939,https://maps.google.com/?cid=0x0:0x9e8e57c84eeaeec7,
perumahan,Kantor Perusahaan,Rumah,"V97Q+56P, Tj. Selor Hilir, Kec. Tj. Selor, Kabupaten Bulungan, Kalimantan Utara 77216","Tj. Selor Hilir, Kec. Tj. Selor, Kabupaten Bulungan",KALIMANTAN UTARA,77216.0,Indonesia,,,,2.8629739,117.3880896,https://maps.google.com/?cid=0x0:0x99c2d54035e7e09d,
perumahan,Pembangunan Perumahan,Taman kota,"V923+CC, Salim Batu, Kec. Tj. Palas Tengah, Kabupaten Bulungan, Kalimantan Utara 77216","Salim Batu, Kec. Tj. Palas Tengah, Kabupaten Bulungan",KALIMANTAN UTARA,77216.0,Indonesia,,,,2.8510847,117.3535927,https://maps.google.com/?cid=0x0:0x6959fd336c881e20,
perumahan,Komplek perumahan,Rumah Aca / Awis,"V93M+2MX, Tj. Palas Tengah, Kec. Tj. Palas, Kabupaten Bulungan, Kalimantan Utara","Kabupaten Bulungan, Kalimantan Utara",KALIMANTAN UTARA,,Indonesia,,,,2.8526184,117.3842403,https://maps.google.com/?cid=0x0:0x9f4f990c7b212fc6,
perumahan,Komplek perumahan,Perumahan OA,"W7X5+93, Pimping, Kec. Tj. Palas Utara, Kabupaten Bulungan, Kalimantan Utara","Kabupaten Bulungan, Kalimantan Utara",KALIMANTAN UTARA,,Indonesia,,,,2.948414,117.2577376,https://maps.google.com/?cid=0x0:0x15e41ab9bb0f1d51,
perumahan,Pembangunan Perumahan,Rumah_Alif_Alifa,"R8VJ+PM9, Gn. Putih/Kr. Jenawi, Kec. Tj. Palas, Kabupaten Bulungan, Kalimantan Utara 77216","Gn. Putih/Kr. Jenawi, Kec. Tj. Palas, Kabupaten Bulungan",KALIMANTAN UTARA,77216.0,Indonesia,,,,2.844299,117.3317105,https://maps.google.com/?cid=0x0:0x4600687dfb1456e2,
perumahan,Perhimpunan Pengembang Perumahan,Rumah Bpk. Samingin,"W94P+FW, Salim Batu, Kec. Tj. Palas Tengah, Kabupaten Bulungan, Kalimantan Utara","Kabupaten Bulungan, Kalimantan Utara",KALIMANTAN UTARA,,Indonesia,,,,2.9051711,117.3868501,https://maps.google.com/?cid=0x0:0x423331f0a7665b2a,
perumahan,perumahan,Kalimantan Timur 77217,"Kabupaten Bulungan, Kalimantan Timur","Kabupaten Bulungan, Kalimantan Timur",KALIMANTAN UTARA,,Indonesia,,,,2.719535,117.2205771,https://maps.google.com/?cid=0x0:0x639273c2b96cd605,
perumahan,Perhimpunan Pengembang Perumahan,Rumah ku,"P4QF+5GF, RT.4, Long Beluah, Kec. Tj. Palas Bar., Kabupaten Bulungan, Kalimantan Utara","Kabupaten Bulungan, Kalimantan Utara",KALIMANTAN UTARA,,Indonesia,,,,2.7379457,117.1238021,https://maps.google.com/?cid=0x0:0x6a37ad50c21d6307,
perumahan,Komplek perumahan,Rmh Kakek sumpi,"Q63M+GF7, Mara Satu, Kec. Tj. Palas Bar., Kabupaten Bulungan, Kalimantan Utara","Kabupaten Bulungan, Kalimantan Utara",KALIMANTAN UTARA,,Indonesia,,,,2.7537817,117.2336594,https://maps.google.com/?cid=0x0:0xd1e56eee52e7ac25,
perumahan,Kantor Perusahaan,Desa Long Beluah,"P4J9+RM, Long Beluah, Kec. Tj. Palas Bar., Kabupaten Bulungan, Kalimantan Utara","Kabupaten Bulungan, Kalimantan Utara",KALIMANTAN UTARA,,Indonesia,,,,2.7320221,117.1191378,https://maps.google.com/?cid=0x0:0x430e69319e6af02c,
perumahan,perumahan,Rumah arsyila,"8369+423, Sekatak Buji, Kec. Sekatak, Kabupaten Bulungan, Kalimantan Utara","Kabupaten Bulungan, Kalimantan Utara",KALIMANTAN UTARA,,Indonesia,,,,2.8003647,117.3805529,https://maps.google.com/?cid=0x0:0x63c239892956c725,
perumahan,Perhimpunan Pengembang Perumahan,POS 1,"P4QF+86X, Long Beluah, Kec. Tj. Palas Bar., Kabupaten Bulungan, Kalimantan Utara","Kabupaten Bulungan, Kalimantan Utara",KALIMANTAN UTARA,,Indonesia,,,,2.7383516,117.1231091,https://maps.google.com/?cid=0x0:0x6a09b6b4291c55a2,
perumahan,Komplek perumahan,mara hilir,"M68V+6J9, Mara Hilir, Kec. Tj. Palas Bar., Kabupaten Bulungan, Kalimantan Utara 77217","Mara Hilir, Kec. Tj. Palas Bar., Kabupaten Bulungan",KALIMANTAN UTARA,77217.0,Indonesia,,,,2.6655325,117.2440957,https://maps.google.com/?cid=0x0:0x5601a7f9e033da8b,
perumahan,Pembangunan Perumahan,NN,"R879+JQG, Jl. Poros Gn. Seriang, Pejalin, Kec. Tj. Palas, Kabupaten Bulungan, Kalimantan Utara 77211","Jl. Poros Gn. Seriang, Pejalin, Kec. Tj. Palas, Kabupaten Bulungan",KALIMANTAN UTARA,77211.0,Indonesia,,,,2.8140714,117.3194657,https://maps.google.com/?cid=0x0:0x22451b5ff70d311,
perumahan,Perhimpunan Pengembang Perumahan,Rumah pak Yusuf,"Q842+JF7, Antutan, Kec. Tj. Palas, Kabupaten Bulungan, Kalimantan Utara","Kabupaten Bulungan, Kalimantan Utara",KALIMANTAN UTARA,,Indonesia,,,,2.7565268,117.3011699,https://maps.google.com/?cid=0x0:0x1b9b43b49d444d90,
perumahan,Perhimpunan Pengembang Perumahan,Markas besar,"P4J7+CV8, Long Beluah, Kec. Tj. Palas Bar., Kabupaten Bulungan, Kalimantan Utara","Kabupaten Bulungan, Kalimantan Utara",KALIMANTAN UTARA,,Indonesia,,,,2.731033,117.1147095,https://maps.google.com/?cid=0x0:0x86df4dde55bd85ab,
perumahan,Pusat Kesehatan Masyarakat,Puskesmas Long Beluah Tanjung Palas Barat,"P4CP+W9R, Long Beluah, Kec. Tj. Palas Bar., Kabupaten Bulungan, Kalimantan Utara 77261","Long Beluah, Kec. Tj. Palas Bar., Kabupaten Bulungan",KALIMANTAN UTARA,77261.0,Indonesia,,,,2.722353,117.1358918,https://maps.google.com/?cid=0x0:0x63de8a30bf3023bb,
perumahan,perumahan,Vianey,"R94X+FX, Jelarai Selor, Kec. Tj. Selor, Kabupaten Bulungan, Kalimantan Utara","Kabupaten Bulungan, Kalimantan Utara",KALIMANTAN UTARA,,Indonesia,,,,2.8062393,117.3999278,https://maps.google.com/?cid=0x0:0x6fc592c094bd9999,
perumahan,Hostel,Rumah isam,"Q73X+7XW, Antutan, Kec. Tj. Palas, Kabupaten Bulungan, Kalimantan Utara 77217","Antutan, Kec. Tj. Palas, Kabupaten Bulungan",KALIMANTAN UTARA,77217.0,Indonesia,,,,2.7527188,117.2997041,https://maps.google.com/?cid=0x0:0xc7275dd6ed02726c,
perumahan,Rumah Kayu,HouseFamilyAskar,"R89C+67, Pejalin, Kec. Tj. Palas, Kabupaten Bulungan, Kalimantan Utara 77211","Pejalin, Kec. Tj. Palas, Kabupaten Bulungan",KALIMANTAN UTARA,77211.0,Indonesia,,,,2.8180332,117.320729,https://maps.google.com/?cid=0x0:0xe3f376a497828067,
perumahan,Gereja,Gereja GKII Pejalin,"R88C+J26, Pejalin, Kec. Tj. Palas, Kabupaten Bulungan, Kalimantan Utara 77211","Pejalin, Kec. Tj. Palas, Kabupaten Bulungan",KALIMANTAN UTARA,77211.0,Indonesia,,,,2.816544,117.320001,https://maps.google.com/?cid=0x0:0xeccd4f55d9383347,
perumahan,Pembangunan Perumahan,Rina sukmawati,"R984+JX6, Jl. Budiman Arifin, Tj. Palas Hulu, Kec. Tj. Palas, Kabupaten Bulungan, Kalimantan Utara 77216","Jl. Budiman Arifin, Tj. Palas Hulu, Kec. Tj. Palas, Kabupaten Bulungan",KALIMANTAN UTARA,77216.0,Indonesia,,,,2.8165296,117.3573856,https://maps.google.com/?cid=0x0:0x47d012f116306266,
perumahan,Kantor Pemerintah,Desa pejalin,"R879+GQ8, Jl. Padat Karya, Pejalin, Kec. Tj. Palas, Kabupaten Bulungan, Kalimantan Utara 77211","Jl. Padat Karya, Pejalin, Kec. Tj. Palas, Kabupaten Bulungan",KALIMANTAN UTARA,77211.0,Indonesia,,,,2.8137857,117.31946,https://maps.google.com/?cid=0x0:0x7d66eddc4d59d3e3,
perumahan,Perhimpunan Pengembang Perumahan,Home HFM,"P48X+P8, Long Sam, Kec. Tj. Palas Bar., Kabupaten Bulungan, Kalimantan Utara 77261","Long Sam, Kec. Tj. Palas Bar., Kabupaten Bulungan",KALIMANTAN UTARA,77261.0,Indonesia,,,,2.7167883,117.14837,https://maps.google.com/?cid=0x0:0xcf05fded780cf117,
perumahan,Komplek perumahan,Rumah Henderson Naolen,"Jln Piner No.RT 12, Long Beluah, Kec. Tj. Palas Bar., Kabupaten Bulungan, Kalimantan Utara","Kabupaten Bulungan, Kalimantan Utara",KALIMANTAN UTARA,,Indonesia,,,,2.731033,117.1147095,https://maps.google.com/?cid=0x0:0x3740fb907643d334,
perumahan,Komplek perumahan,Dapoer Mak Chand,"M8R3+85C, Antutan, Kec. Tj. Palas, Kabupaten Bulungan, Kalimantan Utara","Kabupaten Bulungan, Kalimantan Utara",KALIMANTAN UTARA,,Indonesia,,,,2.6908169,117.3028803,https://maps.google.com/?cid=0x0:0xb222e833f0fa24fc,
perumahan,perumahan,Kec. Tj. Palas Bar.,"Kabupaten Bulungan, Kalimantan Utara","Kabupaten Bulungan, Kalimantan Utara",KALIMANTAN UTARA,,Indonesia,,,,2.7260725,117.1300782,https://maps.google.com/?cid=0x0:0x71114963023b9563,
perumahan,Komplek perumahan,Mentari titika,"M8R3+85C, Antutan, Kec. Tj. Palas, Kabupaten Bulungan, Kalimantan Utara","Kabupaten Bulungan, Kalimantan Utara",KALIMANTAN UTARA,,Indonesia,,,,2.6908169,117.3028803,https://maps.google.com/?cid=0x0:0xdea2c8e8ac6ddc59,
perumahan,perumahan,Kalimantan Utara 77216,"Kec. Tj. Palas Tengah, Kabupaten Bulungan, Kalimantan Utara","Kabupaten Bulungan, Kalimantan Utara",KALIMANTAN UTARA,,Indonesia,,,,2.9980617,117.5026174,https://maps.google.com/?cid=0x0:0x79c11fd9905607e6,
perumahan,Perhimpunan Pengembang Perumahan,Pak Tukimun Home,"R8JV+FP3, Jl. Pramuka, Tj. Palas Tengah, Kec. Tj. Palas, Kabupaten Bulungan, Kalimantan Utara 77216","Jl. Pramuka, Tj. Palas Tengah, Kec. Tj. Palas, Kabupaten Bulungan",KALIMANTAN UTARA,77216.0,Indonesia,,,,2.8311558,117.3443645,https://maps.google.com/?cid=0x0:0xf9c2aa9ceac1ba0,
perumahan,perumahan,Rumah Basri Jola,"Perumahan Graha Permata Tiga Tawai, Jl. Tiga Tawai Blok C No 16, Tj. Selor Hilir, Kec. Tj. Selor, Kabupaten Bulungan, Kalimantan Utara 77216","Jl. Tiga Tawai Blok C No 16, Tj. Selor Hilir, Kec. Tj. Selor, Kabupaten Bulungan",KALIMANTAN UTARA,77216.0,Indonesia,,,,2.8441641,117.3952303,https://maps.google.com/?cid=0x0:0x4487d3009b5a9904,
perumahan,Komplek perumahan,Rumah Pak Bahar,"V949+968, Tj. Selor Hilir, Kec. Tj. Palas Tengah, Kabupaten Bulungan, Kalimantan Utara 77216","Tj. Selor Hilir, Kec. Tj. Palas Tengah, Kabupaten Bulungan",KALIMANTAN UTARA,77216.0,Indonesia,,,,2.8560902,117.3680789,https://maps.google.com/?cid=0x0:0xe4f064f3a648bee4,
perumahan,Komplek perumahan,Perumahan OC,"X72V+2M3, Silva Rahayu, Kec. Tj. Palas Tengah, Kabupaten Bulungan, Kalimantan Utara","Kabupaten Bulungan, Kalimantan Utara",KALIMANTAN UTARA,,Indonesia,,,,2.9500192,117.294175,https://maps.google.com/?cid=0x0:0xf3503ebd2897f11d,
perumahan,Pembangunan Perumahan,Turunan Kidul,"X7RX+MG, Silva Rahayu, Kec. Tj. Palas Tengah, Kabupaten Bulungan, Kalimantan Utara","Kabupaten Bulungan, Kalimantan Utara",KALIMANTAN UTARA,,Indonesia,,,,2.9917644,117.2987493,https://maps.google.com/?cid=0x0:0xb3f982439ad8e6b1,
perumahan,Komplek perumahan,Tanjung selor,"V9CH+G89, Jl. Sabanar Lama, Tj. Selor Hilir, Kec. Tj. Palas Tengah, Kabupaten Bulungan, Kalimantan Utara 77211","Jl. Sabanar Lama, Tj. Selor Hilir, Kec. Tj. Palas Tengah, Kabupaten Bulungan",KALIMANTAN UTARA,77211.0,Indonesia, 082244497768,,,2.8712914,117.3783552,https://maps.google.com/?cid=0x0:0xc099e95d4a62f80d,
perumahan,Komplek perumahan,Perumahan OD,"W7GX+RQ, Silva Rahayu, Kec. Tj. Palas Tengah, Kabupaten Bulungan, Kalimantan Utara","Kabupaten Bulungan, Kalimantan Utara",KALIMANTAN UTARA,,Indonesia,,,,2.927103,117.2994757,https://maps.google.com/?cid=0x0:0xd9a98d1daa46754b,
perumahan,Pembangunan Perumahan,Rumah kebun,"V98G+6FG, Tj. Palas Tengah, Kec. Tj. Palas, Kabupaten Bulungan, Kalimantan Utara","Kabupaten Bulungan, Kalimantan Utara",KALIMANTAN UTARA,,Indonesia, 082350128450,,,2.865553,117.3762057,https://maps.google.com/?cid=0x0:0x450daf027034ce9c,
perumahan,Perhimpunan Pengembang Perumahan,Rumah pak ma'un,"R8WM+F49, Jl. Padat Karya, gunung putih, Kec. Tj. Palas, Kabupaten Bulungan, Kalimantan Utara 77216","Jl. Padat Karya, gunung putih, Kec. Tj. Palas, Kabupaten Bulungan",KALIMANTAN UTARA,77216.0,Indonesia,,,,2.845677,117.3334117,https://maps.google.com/?cid=0x0:0x46427a23aeaca7f7,
perumahan,Pembangunan Perumahan,GRAHA PERMATA TIGA TAWAI,"R9VW+M39, Jl. Rw. Payau, Tj. Selor Hilir, Kec. Tj. Selor, Kabupaten Bulungan, Kalimantan Utara 77216","Jl. Rw. Payau, Tj. Selor Hilir, Kec. Tj. Selor, Kabupaten Bulungan",KALIMANTAN UTARA,77216.0,Indonesia,,,,2.8441641,117.3952303,https://maps.google.com/?cid=0x0:0x75e0730de0c88c4,
perumahan,Komplek perumahan,Pak Suyoto,"WF77+J6Q, Tj. Buka, Kec. Tj. Palas Tengah, Kabupaten Bulungan, Kalimantan Utara","Kabupaten Bulungan, Kalimantan Utara",KALIMANTAN UTARA,,Indonesia,,,,2.9140767,117.4630939,https://maps.google.com/?cid=0x0:0x9e8e57c84eeaeec7,
perumahan,Otoritas Perumahan,Perumahan semampu,"V84Q+MQ9, Tj. Palas Hilir, Kec. Tj. Palas, Kabupaten Bulungan, Kalimantan Utara 77216","Tj. Palas Hilir, Kec. Tj. Palas, Kabupaten Bulungan",KALIMANTAN UTARA,77216.0,Indonesia,,,,2.8557858,117.3379198,https://maps.google.com/?cid=0x0:0xadc57a109d33723,
perumahan,Tempat acara,Lokasi Acara,"R8JX+82H, Tj. Palas Tengah, Kec. Tj. Palas, Kabupaten Bulungan, Kalimantan Utara 77216","Tj. Palas Tengah, Kec. Tj. Palas, Kabupaten Bulungan",KALIMANTAN UTARA,77216.0,Indonesia,,,,2.8308671,117.3475464,https://maps.google.com/?cid=0x0:0x6202d7cbf886363c,
perumahan,Pembangunan Perumahan,LOKASI RESEPSI,"R8MX+V96, Karang Anyar, Kec. Tj. Palas, Kabupaten Bulungan, Kalimantan Utara 77216","Karang Anyar, Kec. Tj. Palas, Kabupaten Bulungan",KALIMANTAN UTARA,77216.0,Indonesia,,,,2.8346571,117.3484027,https://maps.google.com/?cid=0x0:0xd8f206fe0a459086,
perumahan,Pembangunan Perumahan,Perumahan Bulungan Permata Indah,"V92X+222, Tj. Selor Hilir, Kec. Tj. Selor, Kabupaten Bulungan, Kalimantan Utara 77216","Tj. Selor Hilir, Kec. Tj. Selor, Kabupaten Bulungan",KALIMANTAN UTARA,77216.0,Indonesia, 082255495189,,,2.8500112,117.3975018,https://maps.google.com/?cid=0x0:0x8fb6e869c659e280,
perumahan,Pembangunan Perumahan,Tanjung buka,"VFQ3+3V, Tj. Buka, Kec. Tj. Palas Tengah, Kabupaten Bulungan, Kalimantan Utara","Kabupaten Bulungan, Kalimantan Utara",KALIMANTAN UTARA,,Indonesia,,,,2.8876828,117.454716,https://maps.google.com/?cid=0x0:0x3ffaa26988d0055,
perumahan,Pembangunan Perumahan,Taman kota,"V923+CC, Salim Batu, Kec. Tj. Palas Tengah, Kabupaten Bulungan, Kalimantan Utara 77216","Salim Batu, Kec. Tj. Palas Tengah, Kabupaten Bulungan",KALIMANTAN UTARA,77216.0,Indonesia,,,,2.8510847,117.3535927,https://maps.google.com/?cid=0x0:0x6959fd336c881e20,
perumahan,Kantor Perusahaan,Rumah,"V97Q+56P, Tj. Selor Hilir, Kec. Tj. Selor, Kabupaten Bulungan, Kalimantan Utara 77216","Tj. Selor Hilir, Kec. Tj. Selor, Kabupaten Bulungan",KALIMANTAN UTARA,77216.0,Indonesia,,,,2.8629739,117.3880896,https://maps.google.com/?cid=0x0:0x99c2d54035e7e09d,
perumahan,Perhimpunan Pengembang Perumahan,Rumah Bpk. Samingin,"W94P+FW, Salim Batu, Kec. Tj. Palas Tengah, Kabupaten Bulungan, Kalimantan Utara","Kabupaten Bulungan, Kalimantan Utara",KALIMANTAN UTARA,,Indonesia,,,,2.9051711,117.3868501,https://maps.google.com/?cid=0x0:0x423331f0a7665b2a,
perumahan,Pembangunan Perumahan,Arumi muna mahib,"VJ9C+X22, Tj. Buka, Kec. Tj. Palas Tengah, Kabupaten Bulungan, Kalimantan Utara","Kabupaten Bulungan, Kalimantan Utara",KALIMANTAN UTARA,,Indonesia,,,,2.8698819,117.6200138,https://maps.google.com/?cid=0x0:0x47bf0fa62deb76ff,
perumahan,Komplek perumahan,Rumah Aca / Awis,"V93M+2MX, Tj. Palas Tengah, Kec. Tj. Palas, Kabupaten Bulungan, Kalimantan Utara","Kabupaten Bulungan, Kalimantan Utara",KALIMANTAN UTARA,,Indonesia,,,,2.8526184,117.3842403,https://maps.google.com/?cid=0x0:0x9f4f990c7b212fc6,
perumahan,Komplek perumahan,Perumahan OB,"W7H8+WH, Tj. Palas Hilir, Kec. Tj. Palas, Kabupaten Bulungan, Kalimantan Utara","Kabupaten Bulungan, Kalimantan Utara",KALIMANTAN UTARA,,Indonesia,,,,2.9297817,117.2664477,https://maps.google.com/?cid=0x0:0xbf32ce2b45820be5,
perumahan,Pembangunan Perumahan,Perumahan Soemampu Lebong,"V84Q+JMX, Tj. Palas Hilir, Kec. Tj. Palas, Kabupaten Bulungan, Kalimantan Utara 77216","Tj. Palas Hilir, Kec. Tj. Palas, Kabupaten Bulungan",KALIMANTAN UTARA,77216.0,Indonesia, 082267673623,,,2.8566103,117.3392452,https://maps.google.com/?cid=0x0:0xce126a8621e584c6,
perumahan,Kantor Perusahaan,Asrama Putri PT.PKN,"V95Q+544, Tengah, Kec. Tj. Palas, Kabupaten Bulungan, Kalimantan Timur 77216","Tengah, Kec. Tj. Palas, Kabupaten Bulungan",KALIMANTAN UTARA,77216.0,Indonesia,,,,2.8578894,117.3878171,https://maps.google.com/?cid=0x0:0x2ed8642f3c09c039,
perumahan,Perhimpunan Pengembang Perumahan,Kampung Tamangga,"WF4R+R5, Tj. Buka, Kec. Tj. Palas Tengah, Kabupaten Bulungan, Kalimantan Utara 77212","Tj. Buka, Kec. Tj. Palas Tengah, Kabupaten Bulungan",KALIMANTAN UTARA,77212.0,Indonesia,,,,2.9070628,117.4904551,https://maps.google.com/?cid=0x0:0x8b6a78187f6929ea,
perumahan,Pembangunan Perumahan,Rumah ma Itha,"R9WF+6VC, Tj. Palas Tengah, Kec. Tj. Palas, Kabupaten Bulungan, Kalimantan Utara","Kabupaten Bulungan, Kalimantan Utara",KALIMANTAN UTARA,,Indonesia,,,,2.8455502,117.3746364,https://maps.google.com/?cid=0x0:0x2968ea622f3b4ce3,
perumahan,perumahan,Kalimantan Timur 77215,"Kabupaten Bulungan, Kalimantan Timur","Kabupaten Bulungan, Kalimantan Timur",KALIMANTAN UTARA,,Indonesia,,,,2.6736525,117.6434844,https://maps.google.com/?cid=0x0:0xf8c09686d5a94c7c,
perumahan,Pembangunan Perumahan,Adhi,"PJM7+H5, Wono Mulyo, Kec. Tj. Palas Tim., Kabupaten Bulungan, Kalimantan Utara","Kabupaten Bulungan, Kalimantan Utara",KALIMANTAN UTARA,,Indonesia,,,,2.734,117.612987,https://maps.google.com/?cid=0x0:0xfd2c095dd934daf0,
perumahan,Komplek perumahan,Faisal,"PJGJ+42W, Sajau Hilir, Kec. Tj. Palas Tim., Kabupaten Bulungan, Kalimantan Utara 77215","Sajau Hilir, Kec. Tj. Palas Tim., Kabupaten Bulungan",KALIMANTAN UTARA,77215.0,Indonesia,,,,2.725075,117.630722,https://maps.google.com/?cid=0x0:0x6b8ab380a3282960,
perumahan,Komplek perumahan,PT.Kayan Plantation,"JJQ3+2RH, Sajau, Kec. Tj. Palas Tim., Kabupaten Bulungan, Kalimantan Utara 77215","Sajau, Kec. Tj. Palas Tim., Kabupaten Bulungan",KALIMANTAN UTARA,77215.0,Indonesia, 082141182102,,,2.6375629,117.6046072,https://maps.google.com/?cid=0x0:0x7f092b3aba627f4f,
perumahan,Perhimpunan Pengembang Perumahan,Rumah Patriansyah,"GRXV+X9G, Mangku Padi, Kec. Tj. Palas Tim., Kabupaten Bulungan, Kalimantan Utara 77215","Mangku Padi, Kec. Tj. Palas Tim., Kabupaten Bulungan",KALIMANTAN UTARA,77215.0,Indonesia,,,,2.5495833,117.8442533,https://maps.google.com/?cid=0x0:0x4d451a81f9b296c5,
perumahan,Pembangunan Perumahan,Lahan HS 1,"GRXR+MPV, Mangku Padi, Kec. Tj. Palas Tim., Kabupaten Bulungan, Kalimantan Utara 77215","Mangku Padi, Kec. Tj. Palas Tim., Kabupaten Bulungan",KALIMANTAN UTARA,77215.0,Indonesia,,,,2.549753,117.842489,https://maps.google.com/?cid=0x0:0xbc7893667a7fa6dd,
perumahan,Komplek perumahan,Rumah Janius,"MPG6+F24, Binai, Kec. Tj. Palas Tim., Kabupaten Bulungan, Kalimantan Utara 77215","Binai, Kec. Tj. Palas Tim., Kabupaten Bulungan",KALIMANTAN UTARA,77215.0,Indonesia,,,,2.6767186,117.7088667,https://maps.google.com/?cid=0x0:0xe57e7b7042176376,
perumahan,Komplek perumahan,Warung,"MPM9+6CC, Binai, Kec. Tj. Palas Tim., Kabupaten Bulungan, Kalimantan Utara 77215","Binai, Kec. Tj. Palas Tim., Kabupaten Bulungan",KALIMANTAN UTARA,77215.0,Indonesia,,,,2.6830639,117.7185053,https://maps.google.com/?cid=0x0:0xd153e157bc083cfe,
perumahan,Komplek perumahan,Site Tanjung Palas,"FQVM+9M5, Mangku Padi, Kec. Tj. Palas Tim., Kabupaten Bulungan, Kalimantan Utara 77215","Mangku Padi, Kec. Tj. Palas Tim., Kabupaten Bulungan",KALIMANTAN UTARA,77215.0,Indonesia,,,,2.4933959,117.784246,https://maps.google.com/?cid=0x0:0xa024e3917128c6d3,
perumahan,Komplek perumahan,Tanah Fery Ruruk Pasiakan,"HF4W+F8G, Jl. Ahmad Yani, Sajau, Kec. Tj. Palas Tim., Kabupaten Bulungan, Kalimantan Utara 77215","Jl. Ahmad Yani, Sajau, Kec. Tj. Palas Tim., Kabupaten Bulungan",KALIMANTAN UTARA,77215.0,Indonesia,,,,2.5561769,117.4958243,https://maps.google.com/?cid=0x0:0xa3332af7ebe8b49e,
perumahan,perumahan,DAYTIM FAMILY HOME,"PP24+HH, Binai, Kec. Tj. Palas Tim., Kabupaten Bulungan, Kalimantan Utara","Kabupaten Bulungan, Kalimantan Utara",KALIMANTAN UTARA,,Indonesia,,,,2.7013545,117.7063932,https://maps.google.com/?cid=0x0:0x96bd29fa9d2af3df,
perumahan,Komplek perumahan,Rumah Pak Imam Alias/Ilyas,"Jl. Azizurahman No.RT 10, Tanah Kuning, Kec. Tj. Palas Tim., Kabupaten Bulungan, Kalimantan Utara 77215","Tanah Kuning, Kec. Tj. Palas Tim., Kabupaten Bulungan",KALIMANTAN UTARA,77215.0,Indonesia, 085393135244,,,2.5533711,117.8598201,https://maps.google.com/?cid=0x0:0x1d455ac1755f2fdf,
perumahan,Komplek perumahan,A fatimah,"PG6R+RWV, jln.Mirah.65, Wono Mulyo, Kec. Tj. Palas Tim., Kabupaten Bulungan, Kalimantan Utara 77215","jln.Mirah.65, Wono Mulyo, Kec. Tj. Palas Tim., Kabupaten Bulungan",KALIMANTAN UTARA,77215.0,Indonesia,,,,2.712114,117.542306,https://maps.google.com/?cid=0x0:0x7c40fad7db21c3e0,
perumahan,Gedung Pertemuan,Desa Mangkupadi,"HRWF+3QV, Mangku Padi, Kec. Tj. Palas Tim., Kabupaten Bulungan, Kalimantan Utara 77215","Mangku Padi, Kec. Tj. Palas Tim., Kabupaten Bulungan",KALIMANTAN UTARA,77215.0,Indonesia,,,,2.5952467,117.8244355,https://maps.google.com/?cid=0x0:0xb9b52d16aae94602,
perumahan,Komplek perumahan,Global Green House,"HRC9+RQ7, Jalan Poros, Tanah Kuning, Kec. Tj. Palas Tim., Kabupaten Bulungan, Kalimantan Utara","Kabupaten Bulungan, Kalimantan Utara",KALIMANTAN UTARA,,Indonesia,,,,2.5720369,117.8194197,https://maps.google.com/?cid=0x0:0xc63370d522125dd1,
perumahan,Rumah Kayu,Rumah pak halim,"PG98+7WC RT.10, Tanjung Agung, East Tanjung Palas, Bulungan Regency, North Kalimantan 77215","Tanjung Agung, East Tanjung Palas, Bulungan Regency",KALIMANTAN UTARA,77215.0,Indonesia,,,,2.7181952,117.5172768,https://maps.google.com/?cid=0x0:0x5addb27c8d56478f,
perumahan,Komplek perumahan,Gg Tinurung dekat lapangan,"MPQ8+VR2, Binai, Kec. Tj. Palas Tim., Kabupaten Bulungan, Kalimantan Utara 77215","Binai, Kec. Tj. Palas Tim., Kabupaten Bulungan",KALIMANTAN UTARA,77215.0,Indonesia,,,,2.688655,117.7173344,https://maps.google.com/?cid=0x0:0x1471fb54c13faca0,
perumahan,Pembangunan Perumahan,Sumber air,"GRXP+H44, Jalan Azizu Rahman rt4, Mangku Padi, Kec. Tj. Palas Tim., Kabupaten Bulungan, Kalimantan Utara","Kabupaten Bulungan, Kalimantan Utara",KALIMANTAN UTARA,,Indonesia,,,,2.5488939,117.8353348,https://maps.google.com/?cid=0x0:0xf3a0e2d85c9325fb,
perumahan,Komplek perumahan,Penguasa Tanjung Agung,"PG98+HRQ, RT.10, Tj. Agung, Kec. Tj. Palas Tim., Kabupaten Bulungan, Kalimantan Utara 77215","RT.10, Tj. Agung, Kec. Tj. Palas Tim., Kabupaten Bulungan",KALIMANTAN UTARA,77215.0,Indonesia,,,,2.7189612,117.5170998,https://maps.google.com/?cid=0x0:0x5d64add43d0c56d8,
perumahan,Pembangunan Perumahan,Mattalitti Group,"PJHH+X25, Kampung Baru, Sajau Hilir, Kec. Tj. Palas Tim., Kabupaten Bulungan, Kalimantan Utara 77215","Kampung Baru, Sajau Hilir, Kec. Tj. Palas Tim., Kabupaten Bulungan",KALIMANTAN UTARA,77215.0,Indonesia,,,,2.7287385,117.6268702,https://maps.google.com/?cid=0x0:0x1582bf386966af31,
perumahan,Perhimpunan Pengembang Perumahan,Kalimantan utara,"MMX4+X3W, Pura Sajau, Kec. Tj. Palas Tim., Kabupaten Bulungan, Kalimantan Utara 77215","Pura Sajau, Kec. Tj. Palas Tim., Kabupaten Bulungan",KALIMANTAN UTARA,77215.0,Indonesia,,,,2.6999844,117.6552185,https://maps.google.com/?cid=0x0:0xd12bf26bd7e8733d,
perumahan,Komplek perumahan,Tanah Adi Purwanto,"HR5M+V8, Tanah Kuning, Kec. Tj. Palas Tim., Kabupaten Bulungan, Kalimantan Utara","Kabupaten Bulungan, Kalimantan Utara",KALIMANTAN UTARA,,Indonesia,,,,2.5596854,117.8333436,https://maps.google.com/?cid=0x0:0x1b2e8c994c32f9b9,
perumahan,Masjid,Pasir putih Ibnu Umar,"JQMP+P58, Unnamed Road, Tanah Kuning, Kec. Tj. Palas Tim., Kabupaten Bulungan, Kalimantan Utara 77215","Unnamed Road, Tanah Kuning, Kec. Tj. Palas Tim., Kabupaten Bulungan",KALIMANTAN UTARA,77215.0,Indonesia,,,,2.6342883,117.7854567,https://maps.google.com/?cid=0x0:0x911104ff4b022ee6,
perumahan,Komplek perumahan,Desa pura sajau,"PJ2G+933, Pura Sajau, Kec. Tj. Palas Tim., Kabupaten Bulungan, Kalimantan Utara 77215","Pura Sajau, Kec. Tj. Palas Tim., Kabupaten Bulungan",KALIMANTAN UTARA,77215.0,Indonesia,,,,2.7011923,117.6245229,https://maps.google.com/?cid=0x0:0xc8e0967cf58e83a,
perumahan,Pembangunan Perumahan,Perumahan karyawan prima mill,"MPHR+JVC, Binai, Kec. Tj. Palas Tim., Kabupaten Bulungan, Kalimantan Utara 77215","Binai, Kec. Tj. Palas Tim., Kabupaten Bulungan",KALIMANTAN UTARA,77215.0,Indonesia,,,,2.6790567,117.7421559,https://maps.google.com/?cid=0x0:0x799ed718e458fb26,
perumahan,perumahan,Kalimantan Timur 77215,"Kabupaten Bulungan, Kalimantan Timur","Kabupaten Bulungan, Kalimantan Timur",KALIMANTAN UTARA,,Indonesia,,,,2.6736525,117.6434844,https://maps.google.com/?cid=0x0:0xf8c09686d5a94c7c,
perumahan,perumahan,Kec. Tj. Palas Utara,"Kabupaten Bulungan, Kalimantan Utara","Kabupaten Bulungan, Kalimantan Utara",KALIMANTAN UTARA,,Indonesia,,,,3.0754035,117.2144223,https://maps.google.com/?cid=0x0:0x877550029fe6765a,
perumahan,Komplek perumahan,PT. SANGGAM KAHURIPAN INDONESIA,"37RM+R5P, Silva Rahayu, Kec. Tj. Palas Tengah, Kabupaten Bulungan, Kalimantan Utara 77215","Silva Rahayu, Kec. Tj. Palas Tengah, Kabupaten Bulungan",KALIMANTAN UTARA,77215.0,Indonesia,,,,3.0920754,117.2829641,https://maps.google.com/?cid=0x0:0xb8d060bc24ed55dc,
perumahan,Otoritas Perumahan,Guest House PT. SKI (Sanggam Kahuripan Indonesia),"476C+RCP, Silva Rahayu, Kec. Tj. Palas Tengah, Kabupaten Bulungan, Kalimantan Utara 77215","Silva Rahayu, Kec. Tj. Palas Tengah, Kabupaten Bulungan",KALIMANTAN UTARA,77215.0,Indonesia, 081521881045,,,3.1124096,117.2702863,https://maps.google.com/?cid=0x0:0x8a31fa228a0e26e2,
perumahan,Gereja,Gereja GKII Pejalin,"R88C+J26, Pejalin, Kec. Tj. Palas, Kabupaten Bulungan, Kalimantan Utara 77211","Pejalin, Kec. Tj. Palas, Kabupaten Bulungan",KALIMANTAN UTARA,77211.0,Indonesia,,,,2.816544,117.320001,https://maps.google.com/?cid=0x0:0xeccd4f55d9383347,
perumahan,perumahan,Tanah Kuning,"Kec. Tj. Palas Tim., Kabupaten Bulungan, Kalimantan Utara","Kabupaten Bulungan, Kalimantan Utara",KALIMANTAN UTARA,,Indonesia,,,,2.5720369,117.8194197,https://maps.google.com/?cid=0x0:0xc6d7a373d6d8ae0,
perumahan,perumahan,Tandjungselor,"Tj. Palas Tengah, Kec. Tj. Palas, Kabupaten Bulungan, Kalimantan Utara","Kabupaten Bulungan, Kalimantan Utara",KALIMANTAN UTARA,,Indonesia,,,,2.844766,117.3648097,https://maps.google.com/?cid=0x0:0xbe0a10ea478e927,
perumahan,perumahan,Perumahan Bahtra Resident,,,KALIMANTAN UTARA,,Indonesia, 085348796379,,,2.731655,117.4229615,https://maps.google.com/?cid=0x0:0xae132a16010119b,
perumahan,Komplek perumahan,Kalimantan utara,"R9V7+WW3, Tj. Selor Hilir, Kec. Tj. Palas Tengah, Kabupaten Bulungan, Kalimantan Utara","Kabupaten Bulungan, Kalimantan Utara",KALIMANTAN UTARA,,Indonesia,,,,2.844766,117.3648097,https://maps.google.com/?cid=0x0:0x524588556a95b9ff,
perumahan,Perhimpunan Pengembang Perumahan,Kalimantan utara,"MMX4+X3W, Pura Sajau, Kec. Tj. Palas Tim., Kabupaten Bulungan, Kalimantan Utara 77215","Pura Sajau, Kec. Tj. Palas Tim., Kabupaten Bulungan",KALIMANTAN UTARA,77215.0,Indonesia,,,,2.6999844,117.6552185,https://maps.google.com/?cid=0x0:0xd12bf26bd7e8733d,
perumahan,Komplek perumahan,Perumahan OA,"W7X5+93, Pimping, Kec. Tj. Palas Utara, Kabupaten Bulungan, Kalimantan Utara","Kabupaten Bulungan, Kalimantan Utara",KALIMANTAN UTARA,,Indonesia,,,,2.948414,117.2577376,https://maps.google.com/?cid=0x0:0x15e41ab9bb0f1d51,
perumahan,Komplek perumahan,Faisal,"PJGJ+42W, Sajau Hilir, Kec. Tj. Palas Tim., Kabupaten Bulungan, Kalimantan Utara 77215","Sajau Hilir, Kec. Tj. Palas Tim., Kabupaten Bulungan",KALIMANTAN UTARA,77215.0,Indonesia,,,,2.725075,117.630722,https://maps.google.com/?cid=0x0:0x6b8ab380a3282960,
perumahan,Pembangunan Perumahan,Perumahan Tanjung Harapan Residence,"R9PH+RQ4, Tj. Selor Hilir, Kec. Tj. Selor, Kabupaten Bulungan, Kalimantan Utara","Kabupaten Bulungan, Kalimantan Utara",KALIMANTAN UTARA,,Indonesia,,,,2.8370056,117.3794593,https://maps.google.com/?cid=0x0:0xbb5808c84bd94b64,
perumahan,Komplek perumahan,Rumah sri,"3696+V47, Panca Agung, Kec. Tj. Palas Utara, Kabupaten Bulungan, Kalimantan Utara 77215","Panca Agung, Kec. Tj. Palas Utara, Kabupaten Bulungan",KALIMANTAN UTARA,77215.0,Indonesia,,,,3.0690843,117.2100777,https://maps.google.com/?cid=0x0:0xbf00c0d03c6a86fd,
perumahan,Komplek perumahan,PT.Kayan Plantation,"JJQ3+2RH, Sajau, Kec. Tj. Palas Tim., Kabupaten Bulungan, Kalimantan Utara 77215","Sajau, Kec. Tj. Palas Tim., Kabupaten Bulungan",KALIMANTAN UTARA,77215.0,Indonesia, 082141182102,,,2.6375629,117.6046072,https://maps.google.com/?cid=0x0:0x7f092b3aba627f4f,
perumahan,Komplek perumahan,Rumah Deber,"2628+MFV, Jl. Ahmad Yani, Pimping, Kec. Tj. Palas Utara, Kabupaten Bulungan, Kalimantan Utara 77215","Jl. Ahmad Yani, Pimping, Kec. Tj. Palas Utara, Kabupaten Bulungan",KALIMANTAN UTARA,77215.0,Indonesia,,,,3.0022018,117.2170565,https://maps.google.com/?cid=0x0:0xed8815dd1da112b5,
perumahan,Komplek perumahan,Warung,"MPM9+6CC, Binai, Kec. Tj. Palas Tim., Kabupaten Bulungan, Kalimantan Utara 77215","Binai, Kec. Tj. Palas Tim., Kabupaten Bulungan",KALIMANTAN UTARA,77215.0,Indonesia,,,,2.6830639,117.7185053,https://maps.google.com/?cid=0x0:0xd153e157bc083cfe,
perumahan,Komplek perumahan,Rumah Janius,"MPG6+F24, Binai, Kec. Tj. Palas Tim., Kabupaten Bulungan, Kalimantan Utara 77215","Binai, Kec. Tj. Palas Tim., Kabupaten Bulungan",KALIMANTAN UTARA,77215.0,Indonesia,,,,2.6767186,117.7088667,https://maps.google.com/?cid=0x0:0xe57e7b7042176376,
perumahan,Pembangunan Perumahan,Rumah kebun,"V98G+6FG, Tj. Palas Tengah, Kec. Tj. Palas, Kabupaten Bulungan, Kalimantan Utara","Kabupaten Bulungan, Kalimantan Utara",KALIMANTAN UTARA,,Indonesia, 082350128450,,,2.865553,117.3762057,https://maps.google.com/?cid=0x0:0x450daf027034ce9c,
perumahan,Komplek perumahan,Tanjung selor,"V9CH+G89, Jl. Sabanar Lama, Tj. Selor Hilir, Kec. Tj. Palas Tengah, Kabupaten Bulungan, Kalimantan Utara 77211","Jl. Sabanar Lama, Tj. Selor Hilir, Kec. Tj. Palas Tengah, Kabupaten Bulungan",KALIMANTAN UTARA,77211.0,Indonesia, 082244497768,,,2.8712914,117.3783552,https://maps.google.com/?cid=0x0:0xc099e95d4a62f80d,
perumahan,Komplek perumahan,Perumahan OD,"W7GX+RQ, Silva Rahayu, Kec. Tj. Palas Tengah, Kabupaten Bulungan, Kalimantan Utara","Kabupaten Bulungan, Kalimantan Utara",KALIMANTAN UTARA,,Indonesia,,,,2.927103,117.2994757,https://maps.google.com/?cid=0x0:0xd9a98d1daa46754b,
perumahan,Komplek perumahan,Rumah Agus Salim,"4645+GR, Panca Agung, Kec. Tj. Palas Utara, Kabupaten Bulungan, Kalimantan Utara 77215","Panca Agung, Kec. Tj. Palas Utara, Kabupaten Bulungan",KALIMANTAN UTARA,77215.0,Indonesia,,,,3.1063386,117.2095115,https://maps.google.com/?cid=0x0:0x691f277d2dad2582,
perumahan,Komplek perumahan,Rumah pak supono,"36C6+JVP, Panca Agung, Kec. Tj. Palas Utara, Kabupaten Bulungan, Kalimantan Utara 77215","Panca Agung, Kec. Tj. Palas Utara, Kabupaten Bulungan",KALIMANTAN UTARA,77215.0,Indonesia,,,,3.0709544,117.2116126,https://maps.google.com/?cid=0x0:0xfe7ed1d62d3b936f,
perumahan,Perhimpunan Pengembang Perumahan,Rahadi,"R8WX+HQC, Tj. Palas Hilir, Kec. Tj. Palas, Kabupaten Bulungan, Kalimantan Utara","Kabupaten Bulungan, Kalimantan Utara",KALIMANTAN UTARA,,Indonesia,,,,2.8464322,117.3493883,https://maps.google.com/?cid=0x0:0xc900471218e8d74c,
perumahan,Pembangunan Perumahan,SOS,"R9V9+QGP, Tj. Selor Hilir, Kec. Tj. Palas Tengah, Kabupaten Bulungan, Kalimantan Utara 77214","Tj. Selor Hilir, Kec. Tj. Palas Tengah, Kabupaten Bulungan",KALIMANTAN UTARA,77214.0,Indonesia,,,,2.8444639,117.3688317,https://maps.google.com/?cid=0x0:0x389830d0e0e95283,
perumahan,Komplek perumahan,Rumah bang je,"2645+224, Pimping, Kec. Tj. Palas Utara, Kabupaten Bulungan, Kalimantan Utara 77215","Pimping, Kec. Tj. Palas Utara, Kabupaten Bulungan",KALIMANTAN UTARA,77215.0,Indonesia,,,,3.0050019,117.2075756,https://maps.google.com/?cid=0x0:0x61fb0008570016e1,
perumahan,Komplek perumahan,Rumah Pak Bahar,"V949+968, Tj. Selor Hilir, Kec. Tj. Palas Tengah, Kabupaten Bulungan, Kalimantan Utara 77216","Tj. Selor Hilir, Kec. Tj. Palas Tengah, Kabupaten Bulungan",KALIMANTAN UTARA,77216.0,Indonesia,,,,2.8560902,117.3680789,https://maps.google.com/?cid=0x0:0xe4f064f3a648bee4,
perumahan,Pembangunan Perumahan,Kelubir,"2788+CQ2, Kelubir, Kec. Tj. Palas Utara, Kabupaten Bulungan, Kalimantan Utara 77215","Kelubir, Kec. Tj. Palas Utara, Kabupaten Bulungan",KALIMANTAN UTARA,77215.0,Indonesia,,,,3.0158153,117.2667089,https://maps.google.com/?cid=0x0:0xd368b48eb7c5eba5,
perumahan,Pembangunan Perumahan,Adhi,"PJM7+H5, Wono Mulyo, Kec. Tj. Palas Tim., Kabupaten Bulungan, Kalimantan Utara","Kabupaten Bulungan, Kalimantan Utara",KALIMANTAN UTARA,,Indonesia,,,,2.734,117.612987,https://maps.google.com/?cid=0x0:0xfd2c095dd934daf0,
perumahan,Komplek perumahan,Perumahan Korpri Jelarai,"R9PX+QRG, Unnamed Road, Tj. Selor Hilir, Kec. Tj. Selor, Kabupaten Bulungan, Kalimantan Utara 77211","Unnamed Road, Tj. Selor Hilir, Kec. Tj. Selor, Kabupaten Bulungan",KALIMANTAN UTARA,77211.0,Indonesia,,,,2.8369375,117.3995817,https://maps.google.com/?cid=0x0:0xd475d16bf925444e,
perumahan,perumahan,Tandjungselor,"Tj. Palas Tengah, Kec. Tj. Palas, Kabupaten Bulungan, Kalimantan Utara","Kabupaten Bulungan, Kalimantan Utara",KALIMANTAN UTARA,,Indonesia,,,,2.844766,117.3648097,https://maps.google.com/?cid=0x0:0xbe0a10ea478e927,
perumahan,Komplek perumahan,Tanjung selor,"V9CH+G89, Jl. Sabanar Lama, Tj. Selor Hilir, Kec. Tj. Palas Tengah, Kabupaten Bulungan, Kalimantan Utara 77211","Jl. Sabanar Lama, Tj. Selor Hilir, Kec. Tj. Palas Tengah, Kabupaten Bulungan",KALIMANTAN UTARA,77211.0,Indonesia, 082244497768,,,2.8712914,117.3783552,https://maps.google.com/?cid=0x0:0xc099e95d4a62f80d,
perumahan,Pembangunan Perumahan,Perumahan Tanjung Harapan Residence,"R9PH+RQ4, Tj. Selor Hilir, Kec. Tj. Selor, Kabupaten Bulungan, Kalimantan Utara","Kabupaten Bulungan, Kalimantan Utara",KALIMANTAN UTARA,,Indonesia,,,,2.8370056,117.3794593,https://maps.google.com/?cid=0x0:0xbb5808c84bd94b64,
perumahan,Komplek perumahan,Perumahan Pondok Tiga Tawai Indah,"R9WV+726, Tj. Selor Hilir, Kec. Tj. Selor, Kabupaten Bulungan, Kalimantan Utara","Kabupaten Bulungan, Kalimantan Utara",KALIMANTAN UTARA,,Indonesia,,,,2.8456721,117.3925297,https://maps.google.com/?cid=0x0:0xd344440af57766ab,
perumahan,perumahan,Rumah Basri Jola,"Perumahan Graha Permata Tiga Tawai, Jl. Tiga Tawai Blok C No 16, Tj. Selor Hilir, Kec. Tj. Selor, Kabupaten Bulungan, Kalimantan Utara 77216","Jl. Tiga Tawai Blok C No 16, Tj. Selor Hilir, Kec. Tj. Selor, Kabupaten Bulungan",KALIMANTAN UTARA,77216.0,Indonesia,,,,2.8441641,117.3952303,https://maps.google.com/?cid=0x0:0x4487d3009b5a9904,
perumahan,Komplek perumahan,Perum Pondok Tiga Tawai 1.,"R9WR+5X5, Tj. Selor Hilir, Kec. Tj. Selor, Kabupaten Bulungan, Kalimantan Utara 77216","Tj. Selor Hilir, Kec. Tj. Selor, Kabupaten Bulungan",KALIMANTAN UTARA,77216.0,Indonesia,,,,2.8453981,117.3924756,https://maps.google.com/?cid=0x0:0x66754932a896370f,
perumahan,Komplek perumahan,RUMAH I SA,"RCJ4+3Q9, Jl. Manunggal, Tengkapak, Kec. Tj. Selor, Kabupaten Bulungan, Kalimantan Utara 77211","Jl. Manunggal, Tengkapak, Kec. Tj. Selor, Kabupaten Bulungan",KALIMANTAN UTARA,77211.0,Indonesia,,,,2.829565,117.4070843,https://maps.google.com/?cid=0x0:0x67661bdcd495ba7b,
perumahan,Kantor Perusahaan,Perumahan Grand Bulungan Residence,"RCG3+PRW, Tengkapak, Kec. Tj. Selor, Kabupaten Bulungan, Kalimantan Utara 77211","Tengkapak, Kec. Tj. Selor, Kabupaten Bulungan",KALIMANTAN UTARA,77211.0,Indonesia, 082148406080,,,2.8268531,117.4045657,https://maps.google.com/?cid=0x0:0xad8b2be0316ac2cc,
perumahan,Komplek perumahan,Rumah,"R9J7+HQ4, Jl. Tengku Umar, waung, Kec. Tj. Selor, Kabupaten Bulungan, Kalimantan Utara 77211","Jl. Tengku Umar, waung, Kec. Tj. Selor, Kabupaten Bulungan",KALIMANTAN UTARA,77211.0,Indonesia,,,,2.8313871,117.3644502,https://maps.google.com/?cid=0x0:0x810257cb6d1262a,
perumahan,Pembangunan Perumahan,Nuanza Khatulistiwa Regency,"Jl. Handal, Tj. Selor Hilir, Kec. Tj. Selor, Kabupaten Bulungan, Kalimantan Utara 77212","Tj. Selor Hilir, Kec. Tj. Selor, Kabupaten Bulungan",KALIMANTAN UTARA,77212.0,Indonesia, 081225652131,,,2.8349009,117.3882192,https://maps.google.com/?cid=0x0:0x2af9b6b78d064a6f,
perumahan,Komplek perumahan,Rumah Ryandcurly,"Gg. Bersama, Tj. Selor Hilir, Kec. Tj. Selor, Kabupaten Bulungan, Kalimantan Utara","Kabupaten Bulungan, Kalimantan Utara",KALIMANTAN UTARA,,Indonesia,,,,2.8611739,117.3662219,https://maps.google.com/?cid=0x0:0xcc9dbf039f2ca7fc,
perumahan,Komplek perumahan,Rumah pink,"R9M7+5R4, Jl. Supratman, Tj. Selor Hulu, Kec. Tj. Selor, Kabupaten Bulungan, Kalimantan Utara 77211","Jl. Supratman, Tj. Selor Hulu, Kec. Tj. Selor, Kabupaten Bulungan",KALIMANTAN UTARA,77211.0,Indonesia,,,,2.8328978,117.3645841,https://maps.google.com/?cid=0x0:0x2126bf346067c8c3,
perumahan,Komplek perumahan,Perumahan Griya Perdamaian Permai,"Griya Perdamaian Jl. Perdamaian Komplek F4, Tj. Selor Hilir, Kec. Tj. Selor, Kabupaten Bulungan, Kalimantan Utara 77212","Tj. Selor Hilir, Kec. Tj. Selor, Kabupaten Bulungan",KALIMANTAN UTARA,77212.0,Indonesia,,,,2.8513949,117.3988759,https://maps.google.com/?cid=0x0:0x5924fa894b2e2615,
perumahan,Komplek perumahan,Kalimantan utara,"R9V7+WW3, Tj. Selor Hilir, Kec. Tj. Palas Tengah, Kabupaten Bulungan, Kalimantan Utara","Kabupaten Bulungan, Kalimantan Utara",KALIMANTAN UTARA,,Indonesia,,,,2.844766,117.3648097,https://maps.google.com/?cid=0x0:0x524588556a95b9ff,
perumahan,Komplek perumahan,Hairul,"R9V8+XXR, Jl. Manggis I, RT.6/RW.3, Tj. Selor Hilir, Kec. Tj. Selor, Kabupaten Bulungan, Kalimantan Utara 77214","Jl. Manggis I, RT.6/RW.3, Tj. Selor Hilir, Kec. Tj. Selor, Kabupaten Bulungan",KALIMANTAN UTARA,77214.0,Indonesia,,,,2.8449826,117.3673777,https://maps.google.com/?cid=0x0:0xbf6645fb7668c331,
perumahan,Komplek perumahan,Tempat kosku,"Jalur 2 no 159 upt Sp3 Tanjung Buka, Tj. Selor Hilir, Kec. Tj. Selor, Kabupaten Bulungan, Kalimantan Utara 77216","Tj. Selor Hilir, Kec. Tj. Selor, Kabupaten Bulungan",KALIMANTAN UTARA,77216.0,Indonesia,,,,2.8577903,117.3654748,https://maps.google.com/?cid=0x0:0xed514ec12f5bdaf7,
perumahan,Komplek perumahan,Rumah ADP,"V92W+9GG, Jl. Perdamaian, Tj. Selor Hilir, Kec. Tj. Selor, Kabupaten Bulungan, Kalimantan Utara","Kabupaten Bulungan, Kalimantan Utara",KALIMANTAN UTARA,,Indonesia,,,,2.8500654,117.3969895,https://maps.google.com/?cid=0x0:0x45925344912943fc,
perumahan,Gedung Apartemen Berfasilitas Komplet,PERUMAHAN ASN_HANDAL,"R9PP+7W5, Tj. Selor Hilir, Kec. Tj. Selor, Kabupaten Bulungan, Kalimantan Utara 77215","Tj. Selor Hilir, Kec. Tj. Selor, Kabupaten Bulungan",KALIMANTAN UTARA,77215.0,Indonesia,,,,2.8356314,117.3873616,https://maps.google.com/?cid=0x0:0x97070a983f056323,
perumahan,Pembangunan Perumahan,Rumah Tanjung Selor,"R9XC+3MJ, Jl. Rambai Padi, Tj. Selor Hilir, Kec. Tj. Selor, Kabupaten Bulungan, Kalimantan Utara","Kabupaten Bulungan, Kalimantan Utara",KALIMANTAN UTARA,,Indonesia,,,,2.8477007,117.3716259,https://maps.google.com/?cid=0x0:0xcb8b4bce0bb662b7,
perumahan,Pembangunan Perumahan,BORNEO RESIDENCE,"R9JQ+25P, Jl. Rajawali, Tj. Selor Hilir, Kec. Tj. Selor, Kabupaten Bulungan, Kalimantan Utara 77215","Jl. Rajawali, Tj. Selor Hilir, Kec. Tj. Selor, Kabupaten Bulungan",KALIMANTAN UTARA,77215.0,Indonesia, 081211435527,,,2.8300861,117.3879538,https://maps.google.com/?cid=0x0:0x6facd737895cfe17,
perumahan,Pembangunan Perumahan,GRAHA PERMATA TIGA TAWAI,"R9VW+M39, Jl. Rw. Payau, Tj. Selor Hilir, Kec. Tj. Selor, Kabupaten Bulungan, Kalimantan Utara 77216","Jl. Rw. Payau, Tj. Selor Hilir, Kec. Tj. Selor, Kabupaten Bulungan",KALIMANTAN UTARA,77216.0,Indonesia,,,,2.8441641,117.3952303,https://maps.google.com/?cid=0x0:0x75e0730de0c88c4,
perumahan,Pembangunan Perumahan,Perumahan Tiga Tawai,"V92W+2WP, Tj. Selor Hilir, Kec. Tj. Selor, Kabupaten Bulungan, Kalimantan Utara","Kabupaten Bulungan, Kalimantan Utara",KALIMANTAN UTARA,,Indonesia,,,,2.8500852,117.3973214,https://maps.google.com/?cid=0x0:0x4effbcd749440ff,
perumahan,Rumah Pondokan,Kontrakan warna warni gang cherry,"gang cherry, Jl. H. Tamrin, Tj. Selor Hilir, Kec. Tj. Selor, Kabupaten Bulungan, Kalimantan Utara 77216","Jl. H. Tamrin, Tj. Selor Hilir, Kec. Tj. Selor, Kabupaten Bulungan",KALIMANTAN UTARA,77216.0,Indonesia,,,,2.8586541,117.3739028,https://maps.google.com/?cid=0x0:0x67bd167df8e5d81c,
perumahan,Komplek perumahan,Jl. Kamali,"V93J+PV7, Tj. Selor Hilir, Kec. Tj. Selor, Kabupaten Bulungan, Kalimantan Utara 77216","Tj. Selor Hilir, Kec. Tj. Selor, Kabupaten Bulungan",KALIMANTAN UTARA,77216.0,Indonesia,,,,2.8543,117.3821633,https://maps.google.com/?cid=0x0:0xd9f0793d687fe36c,
perumahan,Komplek perumahan,Rumah Jabatan Kepala Kemenag Bulungan,"R9QM+82V, Tj. Selor Hilir, Kec. Tj. Selor, Kabupaten Bulungan, Kalimantan Utara 77215","Tj. Selor Hilir, Kec. Tj. Selor, Kabupaten Bulungan",KALIMANTAN UTARA,77215.0,Indonesia,,,,2.837866,117.3827352,https://maps.google.com/?cid=0x0:0xa396d91677bc929b,
perumahan,Pembangunan Perumahan,Brilliant Residence,"V95F+XMH, jl h. thamrin, Tj. Selor Hilir, Kec. Tj. Selor, Kabupaten Bulungan, Kalimantan Utara 77212","jl h. thamrin, Tj. Selor Hilir, Kec. Tj. Selor, Kabupaten Bulungan",KALIMANTAN UTARA,77212.0,Indonesia,,,,2.8599334,117.3742443,https://maps.google.com/?cid=0x0:0x14fc0743fc13719b,
perumahan,perumahan,Kalimantan Utara 77212,"Kec. Tj. Selor, Kabupaten Bulungan, Kalimantan Utara","Kabupaten Bulungan, Kalimantan Utara",KALIMANTAN UTARA,,Indonesia,,,,2.8022152,117.4791295,https://maps.google.com/?cid=0x0:0xac78443d7ec018ec,
perumahan,Pembangunan Perumahan,GRIYA SABANAR BARU (GSB),"R9WX+47X, Jl. Sabanar Baru Dalam, Tj. Selor Hilir, Kec. Tj. Selor, Kabupaten Bulungan, Kalimantan Utara 77212","Jl. Sabanar Baru Dalam, Tj. Selor Hilir, Kec. Tj. Selor, Kabupaten Bulungan",KALIMANTAN UTARA,77212.0,Indonesia,,,,2.8453747,117.3982266,https://maps.google.com/?cid=0x0:0x52ff72633df55f74,
perumahan,Komplek perumahan,Perumahan Global Jelarai Asri,"Kilo 6, Bumi Rahayu, Kec. Tj. Selor, Kabupaten Bulungan, Kalimantan Utara 77212","Bumi Rahayu, Kec. Tj. Selor, Kabupaten Bulungan",KALIMANTAN UTARA,77212.0,Indonesia, 081347396465,,,2.7875669,117.4383542,https://maps.google.com/?cid=0x0:0x937910f752c67956,
perumahan,Kantor Perusahaan,Perumahan Grand Bulungan Residence,"RCG3+PRW, Tengkapak, Kec. Tj. Selor, Kabupaten Bulungan, Kalimantan Utara 77211","Tengkapak, Kec. Tj. Selor, Kabupaten Bulungan",KALIMANTAN UTARA,77211.0,Indonesia, 082148406080,,,2.8268531,117.4045657,https://maps.google.com/?cid=0x0:0xad8b2be0316ac2cc,
perumahan,Gedung Apartemen,Grand Sabanar Residence,"Jl. Padat Karya No.81, Tj. Selor Hilir, Kec. Tj. Selor, Kabupaten Bulungan, Kalimantan Utara 77212","Tj. Selor Hilir, Kec. Tj. Selor, Kabupaten Bulungan",KALIMANTAN UTARA,77212.0,Indonesia, 08125401919,,,2.8517283,117.4061596,https://maps.google.com/?cid=0x0:0x571f85f1dd24efd7,
perumahan,Komplek perumahan,SELIMAU REGENCY,"Jl. Garuda, RT.5/RW.3, Tj. Selor Tim., Kec. Tj. Selor, Kabupaten Bulungan, Kalimantan Utara 77212","RT.5/RW.3, Tj. Selor Tim., Kec. Tj. Selor, Kabupaten Bulungan",KALIMANTAN UTARA,77212.0,Indonesia,,,,2.8491494,117.4132168,https://maps.google.com/?cid=0x0:0x87def547765ebc5,
perumahan,Pembangunan Perumahan,Nuanza Khatulistiwa Regency,"Jl. Handal, Tj. Selor Hilir, Kec. Tj. Selor, Kabupaten Bulungan, Kalimantan Utara 77212","Tj. Selor Hilir, Kec. Tj. Selor, Kabupaten Bulungan",KALIMANTAN UTARA,77212.0,Indonesia, 081225652131,,,2.8349009,117.3882192,https://maps.google.com/?cid=0x0:0x2af9b6b78d064a6f,
perumahan,Perumahan,PERUMAHAN GLOBAL GREEN HOUSE,"QCQV+M2W, Bumi Rahayu, Kec. Tj. Selor, Kabupaten Bulungan, Kalimantan Utara 77212","Bumi Rahayu, Kec. Tj. Selor, Kabupaten Bulungan",KALIMANTAN UTARA,77212.0,Indonesia, 082166908489,,,2.7892302,117.4425843,https://maps.google.com/?cid=0x0:0x9123fbabe58d6254,
perumahan,Pembangunan Perumahan,Perumahan Tanjung Harapan Residence,"R9PH+RQ4, Tj. Selor Hilir, Kec. Tj. Selor, Kabupaten Bulungan, Kalimantan Utara","Kabupaten Bulungan, Kalimantan Utara",KALIMANTAN UTARA,,Indonesia,,,,2.8370056,117.3794593,https://maps.google.com/?cid=0x0:0xbb5808c84bd94b64,
perumahan,Komplek perumahan,Perumahan Griya Perdamaian Permai,"Griya Perdamaian Jl. Perdamaian Komplek F4, Tj. Selor Hilir, Kec. Tj. Selor, Kabupaten Bulungan, Kalimantan Utara 77212","Tj. Selor Hilir, Kec. Tj. Selor, Kabupaten Bulungan",KALIMANTAN UTARA,77212.0,Indonesia,,,,2.8513949,117.3988759,https://maps.google.com/?cid=0x0:0x5924fa894b2e2615,
perumahan,Pembangunan Perumahan,PERUMAHAN BUMI RAHAYU RESIDENCE,"QFP3+2JX, Jalan Ahmad Yani, RT.003, Bumi Rahayu, Kec. Tj. Selor, Kabupaten Bulungan, Kalimantan Utara 77212","Jalan Ahmad Yani, RT.003, Bumi Rahayu, Kec. Tj. Selor, Kabupaten Bulungan",KALIMANTAN UTARA,77212.0,Indonesia, 081349594070,,,2.7851206,117.4541175,https://maps.google.com/?cid=0x0:0xfa2dacfa5d7d9e33,
perumahan,Komplek perumahan,Perumahan KTU Tegsos,"QCWH+WR4, Jl. Jelara, Jelarai Selor, Kec. Tj. Selor, Kabupaten Bulungan, Kalimantan Utara 77212","Jl. Jelara, Jelarai Selor, Kec. Tj. Selor, Kabupaten Bulungan",KALIMANTAN UTARA,77212.0,Indonesia,,,,2.7972583,117.4295745,https://maps.google.com/?cid=0x0:0xe36175a17524f09e,
perumahan,Komplek perumahan,Selimau Village,"Tj. Selor Tim., Kec. Tj. Selor, Kabupaten Bulungan, Kalimantan Utara 77212","Kec. Tj. Selor, Kabupaten Bulungan",KALIMANTAN UTARA,77212.0,Indonesia,,,,2.8481739,117.4224439,https://maps.google.com/?cid=0x0:0x63cc91eaafd46d5f,
perumahan,Komplek perumahan,PERUMAHAN GLOBAL DREAM HOUSE,"QCWF+4VP, Jl. Poros Bulungan - Berau, Jelarai Selor, Kec. Tj. Selor, Kabupaten Bulungan, Kalimantan Utara","Kabupaten Bulungan, Kalimantan Utara",KALIMANTAN UTARA,,Indonesia, 082166908489,,,2.7953306,117.4246992,https://maps.google.com/?cid=0x0:0x4901035fb722e954,
perumahan,Pembangunan Perumahan,PERUMAHAN GRAHA BHAYANGKARA,"QCJR+H4X, Jl. Jelara, Bumi Rahayu, Kec. Tj. Selor, Kabupaten Bulungan, Kalimantan Utara 77212","Jl. Jelara, Bumi Rahayu, Kec. Tj. Selor, Kabupaten Bulungan",KALIMANTAN UTARA,77212.0,Indonesia, 081255415844,,,2.7814208,117.4408275,https://maps.google.com/?cid=0x0:0x46dca84e7852382c,
perumahan,Komplek perumahan,Pemilik Joh R,"QCPP+4FC, Bumi Rahayu, Kec. Tj. Selor, Kabupaten Bulungan, Kalimantan Utara 77212","Bumi Rahayu, Kec. Tj. Selor, Kabupaten Bulungan",KALIMANTAN UTARA,77212.0,Indonesia,,,,2.7845225,117.4362949,https://maps.google.com/?cid=0x0:0xd4f280bc3d5562dd,
perumahan,Komplek perumahan,Bahtra Residence,"QCWH+WR8, Jl. Jelara, Jelarai Selor, Kec. Tj. Selor, Kabupaten Bulungan, Kalimantan Utara 77212","Jl. Jelara, Jelarai Selor, Kec. Tj. Selor, Kabupaten Bulungan",KALIMANTAN UTARA,77212.0,Indonesia,,,,2.797161,117.430664,https://maps.google.com/?cid=0x0:0xa4866b481bd5eb2c,
perumahan,Komplek perumahan,Perumahan bukit permata hijau,"Jl. Poros Bulungan - Berau No.KM 4, Jelarai Selor, Kec. Tj. Selor, Kabupaten Bulungan, Kalimantan Utara 77212","Jelarai Selor, Kec. Tj. Selor, Kabupaten Bulungan",KALIMANTAN UTARA,77212.0,Indonesia,,,,2.7848956,117.4270662,https://maps.google.com/?cid=0x0:0x746e3393abb61723,
perumahan,Komplek perumahan,Rumahku,"QCMG+MRX, Jl. Poros Bulungan - Berau, Jelarai Selor, Kec. Tj. Selor, Kabupaten Bulungan, Kalimantan Utara 77212","Jl. Poros Bulungan - Berau, Jelarai Selor, Kec. Tj. Selor, Kabupaten Bulungan",KALIMANTAN UTARA,77212.0,Indonesia,,,,2.784236,117.4271174,https://maps.google.com/?cid=0x0:0x1568b18756d078ca,
perumahan,Komplek perumahan,BHAYANGKARA REGENCY,"Jalan ahmad yani , jalan poros tanjung selor - berau, Km.04, Jelarai Selor, Kec. Tj. Selor, Kabupaten Bulungan, Kalimantan Utara 77212","jalan poros tanjung selor - berau, Km.04, Jelarai Selor, Kec. Tj. Selor, Kabupaten Bulungan",KALIMANTAN UTARA,77212.0,Indonesia,,,,2.7853972,117.4274786,https://maps.google.com/?cid=0x0:0xae3ea5a0ad6c80d8,
perumahan,perumahan,Tandjungselor,"Tj. Palas Tengah, Kec. Tj. Palas, Kabupaten Bulungan, Kalimantan Utara","Kabupaten Bulungan, Kalimantan Utara",KALIMANTAN UTARA,,Indonesia,,,,2.844766,117.3648097,https://maps.google.com/?cid=0x0:0xbe0a10ea478e927,
perumahan,Pembangunan Perumahan,Perumahan Bulungan Permata Indah,"V92X+222, Tj. Selor Hilir, Kec. Tj. Selor, Kabupaten Bulungan, Kalimantan Utara 77216","Tj. Selor Hilir, Kec. Tj. Selor, Kabupaten Bulungan",KALIMANTAN UTARA,77216.0,Indonesia, 082255495189,,,2.8500112,117.3975018,https://maps.google.com/?cid=0x0:0x8fb6e869c659e280,
perumahan,Komplek perumahan,Perumahan Korpri Jelarai,"R9PX+QRG, Unnamed Road, Tj. Selor Hilir, Kec. Tj. Selor, Kabupaten Bulungan, Kalimantan Utara 77211","Unnamed Road, Tj. Selor Hilir, Kec. Tj. Selor, Kabupaten Bulungan",KALIMANTAN UTARA,77211.0,Indonesia,,,,2.8369375,117.3995817,https://maps.google.com/?cid=0x0:0xd475d16bf925444e,
perumahan,Pembangunan Perumahan,BORNEO RESIDENCE,"R9JQ+25P, Jl. Rajawali, Tj. Selor Hilir, Kec. Tj. Selor, Kabupaten Bulungan, Kalimantan Utara 77215","Jl. Rajawali, Tj. Selor Hilir, Kec. Tj. Selor, Kabupaten Bulungan",KALIMANTAN UTARA,77215.0,Indonesia, 081211435527,,,2.8300861,117.3879538,https://maps.google.com/?cid=0x0:0x6facd737895cfe17,
perumahan,Komplek perumahan,Rumah Ryandcurly,"Gg. Bersama, Tj. Selor Hilir, Kec. Tj. Selor, Kabupaten Bulungan, Kalimantan Utara","Kabupaten Bulungan, Kalimantan Utara",KALIMANTAN UTARA,,Indonesia,,,,2.8611739,117.3662219,https://maps.google.com/?cid=0x0:0xcc9dbf039f2ca7fc,
perumahan,Komplek perumahan,Bhayangkara Residence,"Jl. Bhayangkara No.5, Tj. Selor Hilir, Kec. Tj. Selor, Kabupaten Bulungan, Kalimantan Utara 77212","Tj. Selor Hilir, Kec. Tj. Selor, Kabupaten Bulungan",KALIMANTAN UTARA,77212.0,Indonesia, 08115490199,,,2.8449773,117.3756686,https://maps.google.com/?cid=0x0:0xefcba8703831f548,
perumahan,Pembangunan Perumahan,Brilliant Residence,"V95F+XMH, jl h. thamrin, Tj. Selor Hilir, Kec. Tj. Selor, Kabupaten Bulungan, Kalimantan Utara 77212","jl h. thamrin, Tj. Selor Hilir, Kec. Tj. Selor, Kabupaten Bulungan",KALIMANTAN UTARA,77212.0,Indonesia,,,,2.8599334,117.3742443,https://maps.google.com/?cid=0x0:0x14fc0743fc13719b,
perumahan,Perusahaan investasi properti,PERUMAHAN BINTANG UTARA,"RCX3+8GM, Jl. Perdamaian, Tj. Selor Hilir, Kec. Tj. Selor, Kabupaten Bulungan, Kalimantan Utara 77212","Jl. Perdamaian, Tj. Selor Hilir, Kec. Tj. Selor, Kabupaten Bulungan",KALIMANTAN UTARA,77212.0,Indonesia,,,,2.8483472,117.4037909,https://maps.google.com/?cid=0x0:0x54c37dbe07e41c61,
perumahan,Pembangunan Perumahan,GRAHA PERMATA TIGA TAWAI,"R9VW+M39, Jl. Rw. Payau, Tj. Selor Hilir, Kec. Tj. Selor, Kabupaten Bulungan, Kalimantan Utara 77216","Jl. Rw. Payau, Tj. Selor Hilir, Kec. Tj. Selor, Kabupaten Bulungan",KALIMANTAN UTARA,77216.0,Indonesia,,,,2.8441641,117.3952303,https://maps.google.com/?cid=0x0:0x75e0730de0c88c4,
