Category,Real Category,Business Name,Address,City,State,Postal Code,Country,Phone,Email,Website,Latitude,Longitude,Map Link,Details Link
hotel,hotel,Batauga,"Masiri, Batauga, Kabupaten Buton, Sulawesi Tenggara","Kabupaten Buton, Sulawesi Tenggara",SULAWESI TENGGARA,,Indonesia,,,,-5.610301,122.6157,https://maps.google.com/?cid=0x0:0xb59244aa04e5e53e,
hotel,hotel,ZENITH Premiere Hotel Baubau,"Jl. Pahlawan No.2, Batulo, Kec. Wolio, Kota Bau-Bau, Sulawesi Tenggara 93716","Batulo, Kec. Wolio, Kota Bau-Bau",SULAWESI TENGGARA,93716.0,Indonesia,4022818181.0,,,-5.4605781,122.6202256,https://maps.google.com/?cid=0x0:0x6804d2f2f593324b,
hotel,hotel,RedDoorz Near Lippo Plaza Buton,"Jl. Pahlawan, Kadolo, Kec. Kokalukuna, Kota Bau-Bau, Sulawesi Tenggara 93711","Kadolo, Kec. Kokalukuna, Kota Bau-Bau",SULAWESI TENGGARA,93711.0,Indonesia,895417300072.0,,,-5.4631502,122.6225948,https://maps.google.com/?cid=0x0:0x876b994274395f18,
hotel,hotel,Hing Amimah Hotel,"Jl. Diponegoro No.16C, Batulo, Kec. Wolio, Kota Bau-Bau, Sulawesi Tenggara 93717","Batulo, Kec. Wolio, Kota Bau-Bau",SULAWESI TENGGARA,93717.0,Indonesia,895417300072.0,,,-5.460841,122.6150883,https://maps.google.com/?cid=0x0:0x207762f3208662ed,
hotel,hotel,Nirwana Buton Villa,"Jalan Dayanu Ikhsanuddin, Sulla - Betoambari, Sulaa, Kec. Betoambari, Kota Bau-Bau, Sulawesi Tenggara","Kota Bau-Bau, Sulawesi Tenggara",SULAWESI TENGGARA,,Indonesia,82395399962.0,,,-5.521921,122.565666,https://maps.google.com/?cid=0x0:0x9b537d4c9b6ad161,
hotel,hotel,Lixxio Hotel,"Jl. Budi Utomo, Wangkanapi, Kec. Wolio, Kota Bau-Bau, Sulawesi Tenggara 93717","Wangkanapi, Kec. Wolio, Kota Bau-Bau",SULAWESI TENGGARA,93717.0,Indonesia,4022811575.0,,,-5.4666296,122.607907,https://maps.google.com/?cid=0x0:0xbf75eda8c5ed233d,
hotel,hotel,Sunset Resort Hotel,"Jl. Poros Lakeba Sulaa, Katobengke, Kec. Betoambari, Kota Bau-Bau, Sulawesi Tenggara 93721","Katobengke, Kec. Betoambari, Kota Bau-Bau",SULAWESI TENGGARA,93721.0,Indonesia,2180629666.0,,,-5.4890938,122.5629603,https://maps.google.com/?cid=0x0:0x4a21a5e9622fc2e4,
hotel,hotel,Athina Puncak Hotel  Resort,"GJMG+42J, Jl. Cendana, Kadolo, Kec. Kokalukuna, Kota Bau-Bau, Sulawesi Tenggara 93711","Jl. Cendana, Kadolo, Kec. Kokalukuna, Kota Bau-Bau",SULAWESI TENGGARA,93711.0,Indonesia,85241689034.0,,,-5.4671625,122.6250301,https://maps.google.com/?cid=0x0:0xfbecc0a711b2d55e,
hotel,hotel,Hotel Galaxy Inn,"Jl. Budi Utomo No.71, Bataraguru, Kec. Wolio, Kota Bau-Bau, Sulawesi Tenggara 93717","Bataraguru, Kec. Wolio, Kota Bau-Bau",SULAWESI TENGGARA,93717.0,Indonesia,4022825003.0,,,-5.4666076,122.607875,https://maps.google.com/?cid=0x0:0x94aae5caad99a0ba,
hotel,hotel,Hotel Mira,"Jl. Mawar No.7, Sulawesi Tenggara 93716",Sulawesi Tenggara,SULAWESI TENGGARA,,Indonesia,4022822911.0,,,-5.4580111,122.6215632,https://maps.google.com/?cid=0x0:0xe1ed6673be7b57e7,
hotel,hotel,Grand Hanura Hotel,"Jl. Martadinata No.56, Batulo, Kec. Wolio, Kota Bau-Bau, Sulawesi Tenggara 93717","Batulo, Kec. Wolio, Kota Bau-Bau",SULAWESI TENGGARA,93717.0,Indonesia,4022816840.0,,,-5.4580701,122.6160526,https://maps.google.com/?cid=0x0:0xac93edfdae173f26,
hotel,hotel,Villa The View (0821-6409-4926),"Kadolo, Kec. Kokalukuna, Kota Bau-Bau, Sulawesi Tenggara 93716","Kec. Kokalukuna, Kota Bau-Bau",SULAWESI TENGGARA,93716.0,Indonesia,82164094926.0,,,-5.4636652,122.6191307,https://maps.google.com/?cid=0x0:0x3fc9dbd16a4d85a8,
hotel,hotel,Hotel Lakamali,"Jl. Betoambari, Lipu, Kec. Betoambari, Kota Bau-Bau, Sulawesi Tenggara 93724","Lipu, Kec. Betoambari, Kota Bau-Bau",SULAWESI TENGGARA,93724.0,Indonesia,4022825372.0,,,-5.4780945,122.5820218,https://maps.google.com/?cid=0x0:0xe2c9a292cf1a0c7f,
hotel,hotel,Hotel Ratu Rajawali,"Jl. Sultan Hasanuddin No.69, Batulo, Kec. Wolio, Kota Bau-Bau, Sulawesi Tenggara 93716","Batulo, Kec. Wolio, Kota Bau-Bau",SULAWESI TENGGARA,93716.0,Indonesia,82279281359.0,,,-5.4600121,122.6200294,https://maps.google.com/?cid=0x0:0x5639f99b686f2adb,
hotel,hotel,RedDoorz near Pelabuhan Fery Bau Bau,"Jl. Martadinata No.56, Batulo, Kec. Wolio, Kota Bau-Bau, Sulawesi Tenggara 93717","Batulo, Kec. Wolio, Kota Bau-Bau",SULAWESI TENGGARA,93717.0,Indonesia,2180629666.0,,,-5.4580245,122.6159676,https://maps.google.com/?cid=0x0:0x56ebc374bc14a991,
hotel,hotel,RedDoorz near Betoambari Airport Bau Bau,"FHW6+JPP, Sulaa, Kec. Betoambari, Kota Bau-Bau, Sulawesi Tenggara 93721","Sulaa, Kec. Betoambari, Kota Bau-Bau",SULAWESI TENGGARA,93721.0,Indonesia,2180629666.0,,,-5.5034108,122.5618152,https://maps.google.com/?cid=0x0:0x323cc18307cda612,
hotel,hotel,Hotel Fitriah,"Tomba, Kec. Wolio, Kota Bau-Bau, Sulawesi Tenggara 93717","Kec. Wolio, Kota Bau-Bau",SULAWESI TENGGARA,93717.0,Indonesia,82128006576.0,,,-5.4570398,122.6083308,https://maps.google.com/?cid=0x0:0x9607262ba1d2733,
hotel,hotel,Hotel Debora,"JL. RA. Kartini No.15, Wale, Kec. Wolio, Kota Bau-Bau, Sulawesi Tenggara 93717","Wale, Kec. Wolio, Kota Bau-Bau",SULAWESI TENGGARA,93717.0,Indonesia,4022821203.0,,,-5.456677,122.6076848,https://maps.google.com/?cid=0x0:0xf9e8feba6879d2f3,
hotel,hotel,Mulya Wisma,"Jl. Tangkalawa No. 13, Lakudo Buton Tengah, Wongko Lakudo, Baubau, Kabupaten Buton, Sulawesi Tenggara 93763","Lakudo Buton Tengah, Wongko Lakudo, Baubau, Kabupaten Buton",SULAWESI TENGGARA,93763.0,Indonesia,81242713781.0,,,-5.3189168,122.5313996,https://maps.google.com/?cid=0x0:0x24cd137af11e95cf,
hotel,hotel,Sulawesi Tenggara 93752,"Kabupaten Buton, Sulawesi Tenggara","Kabupaten Buton, Sulawesi Tenggara",SULAWESI TENGGARA,,Indonesia,,,,-5.6000771,122.650351,https://maps.google.com/?cid=0x0:0x1c436516d6448e13,
hotel,hotel,Calista Beach Hotel,"Jl. Yos Sudarso No.25, Wale, Kec. Wolio, Kota Bau-Bau, Sulawesi Tenggara 93711","Wale, Kec. Wolio, Kota Bau-Bau",SULAWESI TENGGARA,93711.0,Indonesia,4022823088.0,,,-5.4551628,122.6076955,https://maps.google.com/?cid=0x0:0xb6aa93333821debf,
hotel,hotel,THE GALTON HOTEL BAUBAU,"Jl. R.a. Kartini, Wale, Kec. Wolio, Kota Bau-Bau, Sulawesi Tenggara 93717","Wale, Kec. Wolio, Kota Bau-Bau",SULAWESI TENGGARA,93717.0,Indonesia,4022811272.0,,,-5.4562939,122.6078209,https://maps.google.com/?cid=0x0:0xe55e85708088710,
hotel,hotel,Wisma Kahyangan,"Jl. Dr. Wahidin No.108, Lamangga, Kec. Murhum, Kota Bau-Bau, Sulawesi Tenggara 97000","Lamangga, Kec. Murhum, Kota Bau-Bau",SULAWESI TENGGARA,97000.0,Indonesia,81355508858.0,,,-5.4677596,122.5982659,https://maps.google.com/?cid=0x0:0x53ca2fa0026360b7,
hotel,hotel,PENGINAPAN BINTANG TIMUR,"Jl. Kamali, Wale, Kec. Wolio, Kota Bau-Bau, Sulawesi Tenggara 93717","Wale, Kec. Wolio, Kota Bau-Bau",SULAWESI TENGGARA,93717.0,Indonesia,82294239246.0,,,-5.4562341,122.6070725,https://maps.google.com/?cid=0x0:0xdf2a93e9102410a8,
hotel,hotel,RedDoorz @ Hotel Bravo Pantai Kamali Bau Bau,"Jl. Yos Sudarso No.19A, Wale, Kec. Wolio, Kota Bau-Bau, Sulawesi Tenggara 93717","Wale, Kec. Wolio, Kota Bau-Bau",SULAWESI TENGGARA,93717.0,Indonesia,895417300072.0,,,-5.4553279,122.6081926,https://maps.google.com/?cid=0x0:0x5149999a1bb19615,
hotel,hotel,Wisma Mulia,"Wale, Kec. Wolio, Kota Bau-Bau, Sulawesi Tenggara 93717","Kec. Wolio, Kota Bau-Bau",SULAWESI TENGGARA,93717.0,Indonesia,4022821673.0,,,-5.4557221,122.6074078,https://maps.google.com/?cid=0x0:0x6115dd3369632f34,
hotel,hotel,Hotel Rosichan Bau-Bau,"Jl. Betoambari No.117, Lamangga, Kec. Murhum, Kota Bau-Bau, Sulawesi Tenggara 93713","Lamangga, Kec. Murhum, Kota Bau-Bau",SULAWESI TENGGARA,93713.0,Indonesia,895417300072.0,,,-5.465081,122.596467,https://maps.google.com/?cid=0x0:0x4b84b1a3577f7831,
hotel,hotel,Sulawesi Tenggara 93753,"Kabupaten Buton, Sulawesi Tenggara","Kabupaten Buton, Sulawesi Tenggara",SULAWESI TENGGARA,,Indonesia,,,,-5.5916275,122.7858791,https://maps.google.com/?cid=0x0:0x5d5b6b7c1f0a9413,
hotel,hotel,ZENITH Premiere Hotel Baubau,"Jl. Pahlawan No.2, Batulo, Kec. Wolio, Kota Bau-Bau, Sulawesi Tenggara 93716","Batulo, Kec. Wolio, Kota Bau-Bau",SULAWESI TENGGARA,93716.0,Indonesia,4022818181.0,,,-5.4605781,122.6202256,https://maps.google.com/?cid=0x0:0x6804d2f2f593324b,
hotel,hotel,Calista Beach Hotel,"Jl. Yos Sudarso No.25, Wale, Kec. Wolio, Kota Bau-Bau, Sulawesi Tenggara 93711","Wale, Kec. Wolio, Kota Bau-Bau",SULAWESI TENGGARA,93711.0,Indonesia,4022823088.0,,,-5.4551628,122.6076955,https://maps.google.com/?cid=0x0:0xb6aa93333821debf,
hotel,hotel,THE GALTON HOTEL BAUBAU,"Jl. R.a. Kartini, Wale, Kec. Wolio, Kota Bau-Bau, Sulawesi Tenggara 93717","Wale, Kec. Wolio, Kota Bau-Bau",SULAWESI TENGGARA,93717.0,Indonesia,4022811272.0,,,-5.4562939,122.6078209,https://maps.google.com/?cid=0x0:0xe55e85708088710,
hotel,hotel,RedDoorz @ Green Homestay Syariah Baubau,"Jl. Lakarambau, Lipu, Kec. Betoambari, Kota Bau-Bau, Sulawesi Tenggara 93724","Lipu, Kec. Betoambari, Kota Bau-Bau",SULAWESI TENGGARA,93724.0,Indonesia,895417300072.0,,,-5.4830603,122.581514,https://maps.google.com/?cid=0x0:0x416e2ec42c090538,
hotel,hotel,RedDoorz Near Lippo Plaza Buton,"Jl. Pahlawan, Kadolo, Kec. Kokalukuna, Kota Bau-Bau, Sulawesi Tenggara 93711","Kadolo, Kec. Kokalukuna, Kota Bau-Bau",SULAWESI TENGGARA,93711.0,Indonesia,895417300072.0,,,-5.4631502,122.6225948,https://maps.google.com/?cid=0x0:0x876b994274395f18,
hotel,hotel,Wisma Kahyangan,"Jl. Dr. Wahidin No.108, Lamangga, Kec. Murhum, Kota Bau-Bau, Sulawesi Tenggara 97000","Lamangga, Kec. Murhum, Kota Bau-Bau",SULAWESI TENGGARA,97000.0,Indonesia,81355508858.0,,,-5.4677596,122.5982659,https://maps.google.com/?cid=0x0:0x53ca2fa0026360b7,
hotel,hotel,Hotel Rosichan Bau-Bau,"Jl. Betoambari No.117, Lamangga, Kec. Murhum, Kota Bau-Bau, Sulawesi Tenggara 93713","Lamangga, Kec. Murhum, Kota Bau-Bau",SULAWESI TENGGARA,93713.0,Indonesia,895417300072.0,,,-5.465081,122.596467,https://maps.google.com/?cid=0x0:0x4b84b1a3577f7831,
hotel,hotel,Hing Amimah Hotel,"Jl. Diponegoro No.16C, Batulo, Kec. Wolio, Kota Bau-Bau, Sulawesi Tenggara 93717","Batulo, Kec. Wolio, Kota Bau-Bau",SULAWESI TENGGARA,93717.0,Indonesia,895417300072.0,,,-5.460841,122.6150883,https://maps.google.com/?cid=0x0:0x207762f3208662ed,
hotel,hotel,RedDoorz @ Hotel Bravo Pantai Kamali Bau Bau,"Jl. Yos Sudarso No.19A, Wale, Kec. Wolio, Kota Bau-Bau, Sulawesi Tenggara 93717","Wale, Kec. Wolio, Kota Bau-Bau",SULAWESI TENGGARA,93717.0,Indonesia,895417300072.0,,,-5.4553279,122.6081926,https://maps.google.com/?cid=0x0:0x5149999a1bb19615,
hotel,hotel,Wisma Mulia,"Wale, Kec. Wolio, Kota Bau-Bau, Sulawesi Tenggara 93717","Kec. Wolio, Kota Bau-Bau",SULAWESI TENGGARA,93717.0,Indonesia,4022821673.0,,,-5.4557221,122.6074078,https://maps.google.com/?cid=0x0:0x6115dd3369632f34,
hotel,hotel,PENGINAPAN BINTANG TIMUR,"Jl. Kamali, Wale, Kec. Wolio, Kota Bau-Bau, Sulawesi Tenggara 93717","Wale, Kec. Wolio, Kota Bau-Bau",SULAWESI TENGGARA,93717.0,Indonesia,82294239246.0,,,-5.4562341,122.6070725,https://maps.google.com/?cid=0x0:0xdf2a93e9102410a8,
hotel,hotel,Nirwana Buton Villa,"Jalan Dayanu Ikhsanuddin, Sulla - Betoambari, Sulaa, Kec. Betoambari, Kota Bau-Bau, Sulawesi Tenggara","Kota Bau-Bau, Sulawesi Tenggara",SULAWESI TENGGARA,,Indonesia,82395399962.0,,,-5.521921,122.565666,https://maps.google.com/?cid=0x0:0x9b537d4c9b6ad161,
hotel,hotel,Sunset Resort Hotel,"Jl. Poros Lakeba Sulaa, Katobengke, Kec. Betoambari, Kota Bau-Bau, Sulawesi Tenggara 93721","Katobengke, Kec. Betoambari, Kota Bau-Bau",SULAWESI TENGGARA,93721.0,Indonesia,2180629666.0,,,-5.4890938,122.5629603,https://maps.google.com/?cid=0x0:0x4a21a5e9622fc2e4,
hotel,hotel,Lixxio Hotel,"Jl. Budi Utomo, Wangkanapi, Kec. Wolio, Kota Bau-Bau, Sulawesi Tenggara 93717","Wangkanapi, Kec. Wolio, Kota Bau-Bau",SULAWESI TENGGARA,93717.0,Indonesia,4022811575.0,,,-5.4666296,122.607907,https://maps.google.com/?cid=0x0:0xbf75eda8c5ed233d,
hotel,hotel,Athina Puncak Hotel  Resort,"GJMG+42J, Jl. Cendana, Kadolo, Kec. Kokalukuna, Kota Bau-Bau, Sulawesi Tenggara 93711","Jl. Cendana, Kadolo, Kec. Kokalukuna, Kota Bau-Bau",SULAWESI TENGGARA,93711.0,Indonesia,85241689034.0,,,-5.4671625,122.6250301,https://maps.google.com/?cid=0x0:0xfbecc0a711b2d55e,
hotel,hotel,Hotel Galaxy Inn,"Jl. Budi Utomo No.71, Bataraguru, Kec. Wolio, Kota Bau-Bau, Sulawesi Tenggara 93717","Bataraguru, Kec. Wolio, Kota Bau-Bau",SULAWESI TENGGARA,93717.0,Indonesia,4022825003.0,,,-5.4666076,122.607875,https://maps.google.com/?cid=0x0:0x94aae5caad99a0ba,
hotel,hotel,Hotel Mira,"Jl. Mawar No.7, Sulawesi Tenggara 93716",Sulawesi Tenggara,SULAWESI TENGGARA,,Indonesia,4022822911.0,,,-5.4580111,122.6215632,https://maps.google.com/?cid=0x0:0xe1ed6673be7b57e7,
hotel,hotel,Grand Hanura Hotel,"Jl. Martadinata No.56, Batulo, Kec. Wolio, Kota Bau-Bau, Sulawesi Tenggara 93717","Batulo, Kec. Wolio, Kota Bau-Bau",SULAWESI TENGGARA,93717.0,Indonesia,4022816840.0,,,-5.4580701,122.6160526,https://maps.google.com/?cid=0x0:0xac93edfdae173f26,
hotel,hotel,Villa The View (0821-6409-4926),"Kadolo, Kec. Kokalukuna, Kota Bau-Bau, Sulawesi Tenggara 93716","Kec. Kokalukuna, Kota Bau-Bau",SULAWESI TENGGARA,93716.0,Indonesia,82164094926.0,,,-5.4636652,122.6191307,https://maps.google.com/?cid=0x0:0x3fc9dbd16a4d85a8,
hotel,hotel,Kec. Batu Atas,"Kabupaten Buton, Sulawesi Tenggara","Kabupaten Buton, Sulawesi Tenggara",SULAWESI TENGGARA,,Indonesia,,,,-6.206587,122.718311,https://maps.google.com/?cid=0x0:0x4823161ea155a8e3,
hotel,hotel,Hotel Fitriah,"Tomba, Kec. Wolio, Kota Bau-Bau, Sulawesi Tenggara 93717","Kec. Wolio, Kota Bau-Bau",SULAWESI TENGGARA,93717.0,Indonesia,82128006576.0,,,-5.4570398,122.6083308,https://maps.google.com/?cid=0x0:0x9607262ba1d2733,
hotel,hotel,Kec. Kadatua,"Kabupaten Buton, Sulawesi Tenggara","Kabupaten Buton, Sulawesi Tenggara",SULAWESI TENGGARA,,Indonesia,,,,-5.5330522,122.4744908,https://maps.google.com/?cid=0x0:0xa7c55634cc618f76,
hotel,hotel,Calista Beach Hotel,"Jl. Yos Sudarso No.25, Wale, Kec. Wolio, Kota Bau-Bau, Sulawesi Tenggara 93711","Wale, Kec. Wolio, Kota Bau-Bau",SULAWESI TENGGARA,93711.0,Indonesia,4022823088.0,,,-5.4551628,122.6076955,https://maps.google.com/?cid=0x0:0xb6aa93333821debf,
hotel,hotel,ZENITH Premiere Hotel Baubau,"Jl. Pahlawan No.2, Batulo, Kec. Wolio, Kota Bau-Bau, Sulawesi Tenggara 93716","Batulo, Kec. Wolio, Kota Bau-Bau",SULAWESI TENGGARA,93716.0,Indonesia,4022818181.0,,,-5.4605781,122.6202256,https://maps.google.com/?cid=0x0:0x6804d2f2f593324b,
hotel,hotel,RedDoorz @ Green Homestay Syariah Baubau,"Jl. Lakarambau, Lipu, Kec. Betoambari, Kota Bau-Bau, Sulawesi Tenggara 93724","Lipu, Kec. Betoambari, Kota Bau-Bau",SULAWESI TENGGARA,93724.0,Indonesia,895417300072.0,,,-5.4830603,122.581514,https://maps.google.com/?cid=0x0:0x416e2ec42c090538,
hotel,hotel,Nirwana Buton Villa,"Jalan Dayanu Ikhsanuddin, Sulla - Betoambari, Sulaa, Kec. Betoambari, Kota Bau-Bau, Sulawesi Tenggara","Kota Bau-Bau, Sulawesi Tenggara",SULAWESI TENGGARA,,Indonesia,82395399962.0,,,-5.521921,122.565666,https://maps.google.com/?cid=0x0:0x9b537d4c9b6ad161,
hotel,hotel,Wisma Kahyangan,"Jl. Dr. Wahidin No.108, Lamangga, Kec. Murhum, Kota Bau-Bau, Sulawesi Tenggara 97000","Lamangga, Kec. Murhum, Kota Bau-Bau",SULAWESI TENGGARA,97000.0,Indonesia,81355508858.0,,,-5.4677596,122.5982659,https://maps.google.com/?cid=0x0:0x53ca2fa0026360b7,
hotel,hotel,Hotel Rosichan Bau-Bau,"Jl. Betoambari No.117, Lamangga, Kec. Murhum, Kota Bau-Bau, Sulawesi Tenggara 93713","Lamangga, Kec. Murhum, Kota Bau-Bau",SULAWESI TENGGARA,93713.0,Indonesia,895417300072.0,,,-5.465081,122.596467,https://maps.google.com/?cid=0x0:0x4b84b1a3577f7831,
hotel,hotel,RedDoorz Near Lippo Plaza Buton,"Jl. Pahlawan, Kadolo, Kec. Kokalukuna, Kota Bau-Bau, Sulawesi Tenggara 93711","Kadolo, Kec. Kokalukuna, Kota Bau-Bau",SULAWESI TENGGARA,93711.0,Indonesia,895417300072.0,,,-5.4631502,122.6225948,https://maps.google.com/?cid=0x0:0x876b994274395f18,
hotel,hotel,Hing Amimah Hotel,"Jl. Diponegoro No.16C, Batulo, Kec. Wolio, Kota Bau-Bau, Sulawesi Tenggara 93717","Batulo, Kec. Wolio, Kota Bau-Bau",SULAWESI TENGGARA,93717.0,Indonesia,895417300072.0,,,-5.460841,122.6150883,https://maps.google.com/?cid=0x0:0x207762f3208662ed,
hotel,hotel,RedDoorz @ Hotel Bravo Pantai Kamali Bau Bau,"Jl. Yos Sudarso No.19A, Wale, Kec. Wolio, Kota Bau-Bau, Sulawesi Tenggara 93717","Wale, Kec. Wolio, Kota Bau-Bau",SULAWESI TENGGARA,93717.0,Indonesia,895417300072.0,,,-5.4553279,122.6081926,https://maps.google.com/?cid=0x0:0x5149999a1bb19615,
hotel,hotel,Wisma Mulia,"Wale, Kec. Wolio, Kota Bau-Bau, Sulawesi Tenggara 93717","Kec. Wolio, Kota Bau-Bau",SULAWESI TENGGARA,93717.0,Indonesia,4022821673.0,,,-5.4557221,122.6074078,https://maps.google.com/?cid=0x0:0x6115dd3369632f34,
hotel,hotel,PENGINAPAN BINTANG TIMUR,"Jl. Kamali, Wale, Kec. Wolio, Kota Bau-Bau, Sulawesi Tenggara 93717","Wale, Kec. Wolio, Kota Bau-Bau",SULAWESI TENGGARA,93717.0,Indonesia,82294239246.0,,,-5.4562341,122.6070725,https://maps.google.com/?cid=0x0:0xdf2a93e9102410a8,
hotel,hotel,Sunset Resort Hotel,"Jl. Poros Lakeba Sulaa, Katobengke, Kec. Betoambari, Kota Bau-Bau, Sulawesi Tenggara 93721","Katobengke, Kec. Betoambari, Kota Bau-Bau",SULAWESI TENGGARA,93721.0,Indonesia,2180629666.0,,,-5.4890938,122.5629603,https://maps.google.com/?cid=0x0:0x4a21a5e9622fc2e4,
hotel,hotel,Lixxio Hotel,"Jl. Budi Utomo, Wangkanapi, Kec. Wolio, Kota Bau-Bau, Sulawesi Tenggara 93717","Wangkanapi, Kec. Wolio, Kota Bau-Bau",SULAWESI TENGGARA,93717.0,Indonesia,4022811575.0,,,-5.4666296,122.607907,https://maps.google.com/?cid=0x0:0xbf75eda8c5ed233d,
hotel,hotel,Hotel Lakamali,"Jl. Betoambari, Lipu, Kec. Betoambari, Kota Bau-Bau, Sulawesi Tenggara 93724","Lipu, Kec. Betoambari, Kota Bau-Bau",SULAWESI TENGGARA,93724.0,Indonesia,4022825372.0,,,-5.4780945,122.5820218,https://maps.google.com/?cid=0x0:0xe2c9a292cf1a0c7f,
hotel,hotel,Hotel Galaxy Inn,"Jl. Budi Utomo No.71, Bataraguru, Kec. Wolio, Kota Bau-Bau, Sulawesi Tenggara 93717","Bataraguru, Kec. Wolio, Kota Bau-Bau",SULAWESI TENGGARA,93717.0,Indonesia,4022825003.0,,,-5.4666076,122.607875,https://maps.google.com/?cid=0x0:0x94aae5caad99a0ba,
hotel,hotel,Athina Puncak Hotel  Resort,"GJMG+42J, Jl. Cendana, Kadolo, Kec. Kokalukuna, Kota Bau-Bau, Sulawesi Tenggara 93711","Jl. Cendana, Kadolo, Kec. Kokalukuna, Kota Bau-Bau",SULAWESI TENGGARA,93711.0,Indonesia,85241689034.0,,,-5.4671625,122.6250301,https://maps.google.com/?cid=0x0:0xfbecc0a711b2d55e,
hotel,hotel,RedDoorz near Betoambari Airport Bau Bau,"FHW6+JPP, Sulaa, Kec. Betoambari, Kota Bau-Bau, Sulawesi Tenggara 93721","Sulaa, Kec. Betoambari, Kota Bau-Bau",SULAWESI TENGGARA,93721.0,Indonesia,2180629666.0,,,-5.5034108,122.5618152,https://maps.google.com/?cid=0x0:0x323cc18307cda612,
hotel,hotel,Grand Hanura Hotel,"Jl. Martadinata No.56, Batulo, Kec. Wolio, Kota Bau-Bau, Sulawesi Tenggara 93717","Batulo, Kec. Wolio, Kota Bau-Bau",SULAWESI TENGGARA,93717.0,Indonesia,4022816840.0,,,-5.4580701,122.6160526,https://maps.google.com/?cid=0x0:0xac93edfdae173f26,
hotel,hotel,Hotel Mira,"Jl. Mawar No.7, Sulawesi Tenggara 93716",Sulawesi Tenggara,SULAWESI TENGGARA,,Indonesia,4022822911.0,,,-5.4580111,122.6215632,https://maps.google.com/?cid=0x0:0xe1ed6673be7b57e7,
hotel,hotel,Pombero Lodge,"Kulati, Kec. Tomia Tim., Kabupaten Wakatobi, Sulawesi Tenggara 93793","Kec. Tomia Tim., Kabupaten Wakatobi",SULAWESI TENGGARA,93793.0,Indonesia,82210793084.0,,,-5.7564475,123.9945641,https://maps.google.com/?cid=0x0:0xc15188896aa3e0c,
hotel,Hotel bintang 1,Hotel Qubah 9 Kendari,"Jl. Martandu No.99A, Kambu, Kec. Kambu, Kota Kendari, Sulawesi Tenggara 93231","Kambu, Kec. Kambu, Kota Kendari",SULAWESI TENGGARA,93231.0,Indonesia,4013136047.0,,,-4.0082509,122.5345007,https://maps.google.com/?cid=0x0:0x16da52124c17b9e7,
hotel,hotel,Villa The View (0821-6409-4926),"Kadolo, Kec. Kokalukuna, Kota Bau-Bau, Sulawesi Tenggara 93716","Kec. Kokalukuna, Kota Bau-Bau",SULAWESI TENGGARA,93716.0,Indonesia,82164094926.0,,,-5.4636652,122.6191307,https://maps.google.com/?cid=0x0:0x3fc9dbd16a4d85a8,
hotel,hotel,BRAVO Hotel,"Jl. Yos Sudarso No.19 A, Wale, Kec. Wolio, Kota Bau-Bau, Sulawesi Tenggara 93711","Wale, Kec. Wolio, Kota Bau-Bau",SULAWESI TENGGARA,93711.0,Indonesia,82393512288.0,,,-5.455327,122.608185,https://maps.google.com/?cid=0x0:0x1121e149f74e5d6,
hotel,Hotel,PENGINAPAN YUSMIN (LOMBE BUTON TENGAH),"PHWC+2P6, Jl. Jend. Sudirman, Walando, Kec. Gu, Kabupaten Buton, Sulawesi Tenggara 93761","Jl. Jend. Sudirman, Walando, Kec. Gu, Kabupaten Buton",SULAWESI TENGGARA,93761.0,Indonesia,,,,-5.2549643,122.5717787,https://maps.google.com/?cid=0x0:0xd7ef33dba9f3a541,
hotel,Hotel,Findi Hotel,"MGGQ+JJ9, Jl. Gersamata, Lakudo, Kec. Lakudo, Kabupaten Buton, Sulawesi Tenggara 93763","Jl. Gersamata, Lakudo, Kec. Lakudo, Kabupaten Buton",SULAWESI TENGGARA,93763.0,Indonesia,,,,-5.3234694,122.5391201,https://maps.google.com/?cid=0x0:0x9046350efa4256c0,
hotel,hotel,Hotel Findi,"HHR7+954, Jl. Poros Wamengkoli Kec. Lakudo Kab. Buton Tengah, Jl. Poros Wamengkoli, Wara, Kec. Lakudo, Kabupaten Buton, Sulawesi Tenggara 93763","Jl. Poros Wamengkoli Kec. Lakudo Kab. Buton Tengah, Jl. Poros Wamengkoli, Wara, Kec. Lakudo, Kabupaten Buton",SULAWESI TENGGARA,93763.0,Indonesia,85240676855.0,,,-5.4091245,122.5629563,https://maps.google.com/?cid=0x0:0xf8a4d4a2e41bf126,
hotel,hotel,Hotel Qubah 9 Kendari,"Jl. Martandu No.99A, Kambu, Kec. Kambu, Kota Kendari, Sulawesi Tenggara 93231","Kambu, Kec. Kambu, Kota Kendari",SULAWESI TENGGARA,93231.0,Indonesia,4013136047.0,,,-4.0082509,122.5345007,https://maps.google.com/?cid=0x0:0x16da52124c17b9e7,
hotel,hotel,Hotel Dewa Bintang 2,"Jl. Tebaonunggu No.17, Mandonga, Kec. Kendari, Kota Kendari, Sulawesi Tenggara 93111","Mandonga, Kec. Kendari, Kota Kendari",SULAWESI TENGGARA,93111.0,Indonesia,4013126799.0,,,-3.9651662,122.517495,https://maps.google.com/?cid=0x0:0x6a608f24d97621c5,
hotel,hotel,SAWA BEACH RESORT,"Ds, RW.Pekarooa, Matanggonawe, Kec. Sawa, Kabupaten Konawe Utara, Sulawesi Tenggara 93352","RW.Pekarooa, Matanggonawe, Kec. Sawa, Kabupaten Konawe Utara",SULAWESI TENGGARA,93352.0,Indonesia,8114056864.0,,,-3.783229,122.4511684,https://maps.google.com/?cid=0x0:0x21bbabf4006bce95,
hotel,hotel,Hotel Cempaka,"Jl. Bunga Tj. No.101, Watu-Watu, Kec. Kendari Bar., Kota Kendari, Sulawesi Tenggara 93873","Watu-Watu, Kec. Kendari Bar., Kota Kendari",SULAWESI TENGGARA,93873.0,Indonesia,,,,-3.9642101,122.542674,https://maps.google.com/?cid=0x0:0xca7fe20f7976380c,
hotel,hotel,Hotel Fitriah,"Tomba, Kec. Wolio, Kota Bau-Bau, Sulawesi Tenggara 93717","Kec. Wolio, Kota Bau-Bau",SULAWESI TENGGARA,93717.0,Indonesia,82128006576.0,,,-5.4570398,122.6083308,https://maps.google.com/?cid=0x0:0x9607262ba1d2733,
hotel,hotel,Hotel Debora,"JL. RA. Kartini No.15, Wale, Kec. Wolio, Kota Bau-Bau, Sulawesi Tenggara 93717","Wale, Kec. Wolio, Kota Bau-Bau",SULAWESI TENGGARA,93717.0,Indonesia,4022821203.0,,,-5.456677,122.6076848,https://maps.google.com/?cid=0x0:0xf9e8feba6879d2f3,
hotel,hotel,Sulawesi Tenggara 93753,"Kabupaten Buton, Sulawesi Tenggara","Kabupaten Buton, Sulawesi Tenggara",SULAWESI TENGGARA,,Indonesia,,,,-5.5916275,122.7858791,https://maps.google.com/?cid=0x0:0x5d5b6b7c1f0a9413,
hotel,hotel,ZENITH Premiere Hotel Baubau,"Jl. Pahlawan No.2, Batulo, Kec. Wolio, Kota Bau-Bau, Sulawesi Tenggara 93716","Batulo, Kec. Wolio, Kota Bau-Bau",SULAWESI TENGGARA,93716.0,Indonesia,4022818181.0,,,-5.4605781,122.6202256,https://maps.google.com/?cid=0x0:0x6804d2f2f593324b,
hotel,Hotel,Calista Beach Hotel,"Jl. Yos Sudarso No.25, Wale, Kec. Wolio, Kota Bau-Bau, Sulawesi Tenggara 93711","Wale, Kec. Wolio, Kota Bau-Bau",SULAWESI TENGGARA,93711.0,Indonesia,4022823088.0,,,-5.4551628,122.6076955,https://maps.google.com/?cid=0x0:0xb6aa93333821debf,
hotel,hotel,Kadena Glamping Dive Resort - Muna Island,"Jl. Poros Lombe No.Desa, RW.Kamama, Wakea Kea, Kec. Gu, Buton Tengah, Sulawesi Tenggara","Buton Tengah, Sulawesi Tenggara",SULAWESI TENGGARA,,Indonesia,81222777348.0,,,-5.3155071,122.6334774,https://maps.google.com/?cid=0x0:0xcdbf16bccf2ffd6a,
hotel,hotel,RedDoorz Near Lippo Plaza Buton,"Jl. Pahlawan, Kadolo, Kec. Kokalukuna, Kota Bau-Bau, Sulawesi Tenggara 93711","Kadolo, Kec. Kokalukuna, Kota Bau-Bau",SULAWESI TENGGARA,93711.0,Indonesia,895417300072.0,,,-5.4631502,122.6225948,https://maps.google.com/?cid=0x0:0x876b994274395f18,
hotel,hotel,Hing Amimah Hotel,"Jl. Diponegoro No.16C, Batulo, Kec. Wolio, Kota Bau-Bau, Sulawesi Tenggara 93717","Batulo, Kec. Wolio, Kota Bau-Bau",SULAWESI TENGGARA,93717.0,Indonesia,895417300072.0,,,-5.460841,122.6150883,https://maps.google.com/?cid=0x0:0x207762f3208662ed,
hotel,hotel,RedDoorz @ Green Homestay Syariah Baubau,"Jl. Lakarambau, Lipu, Kec. Betoambari, Kota Bau-Bau, Sulawesi Tenggara 93724","Lipu, Kec. Betoambari, Kota Bau-Bau",SULAWESI TENGGARA,93724.0,Indonesia,895417300072.0,,,-5.4830603,122.581514,https://maps.google.com/?cid=0x0:0x416e2ec42c090538,
hotel,hotel,Wisma Kahyangan,"Jl. Dr. Wahidin No.108, Lamangga, Kec. Murhum, Kota Bau-Bau, Sulawesi Tenggara 97000","Lamangga, Kec. Murhum, Kota Bau-Bau",SULAWESI TENGGARA,97000.0,Indonesia,81355508858.0,,,-5.4677596,122.5982659,https://maps.google.com/?cid=0x0:0x53ca2fa0026360b7,
hotel,hotel,Hotel Rosichan Bau-Bau,"Jl. Betoambari No.117, Lamangga, Kec. Murhum, Kota Bau-Bau, Sulawesi Tenggara 93713","Lamangga, Kec. Murhum, Kota Bau-Bau",SULAWESI TENGGARA,93713.0,Indonesia,895417300072.0,,,-5.465081,122.596467,https://maps.google.com/?cid=0x0:0x4b84b1a3577f7831,
hotel,hotel,RedDoorz @ Hotel Bravo Pantai Kamali Bau Bau,"Jl. Yos Sudarso No.19A, Wale, Kec. Wolio, Kota Bau-Bau, Sulawesi Tenggara 93717","Wale, Kec. Wolio, Kota Bau-Bau",SULAWESI TENGGARA,93717.0,Indonesia,895417300072.0,,,-5.4553279,122.6081926,https://maps.google.com/?cid=0x0:0x5149999a1bb19615,
hotel,hotel,Lixxio Hotel,"Jl. Budi Utomo, Wangkanapi, Kec. Wolio, Kota Bau-Bau, Sulawesi Tenggara 93717","Wangkanapi, Kec. Wolio, Kota Bau-Bau",SULAWESI TENGGARA,93717.0,Indonesia,4022811575.0,,,-5.4666296,122.607907,https://maps.google.com/?cid=0x0:0xbf75eda8c5ed233d,
hotel,hotel,Wisma Mulia,"Wale, Kec. Wolio, Kota Bau-Bau, Sulawesi Tenggara 93717","Kec. Wolio, Kota Bau-Bau",SULAWESI TENGGARA,93717.0,Indonesia,4022821673.0,,,-5.4557221,122.6074078,https://maps.google.com/?cid=0x0:0x6115dd3369632f34,
hotel,hotel,PENGINAPAN BINTANG TIMUR,"Jl. Kamali, Wale, Kec. Wolio, Kota Bau-Bau, Sulawesi Tenggara 93717","Wale, Kec. Wolio, Kota Bau-Bau",SULAWESI TENGGARA,93717.0,Indonesia,82294239246.0,,,-5.4562341,122.6070725,https://maps.google.com/?cid=0x0:0xdf2a93e9102410a8,
hotel,hotel,Hotel Galaxy Inn,"Jl. Budi Utomo No.71, Bataraguru, Kec. Wolio, Kota Bau-Bau, Sulawesi Tenggara 93717","Bataraguru, Kec. Wolio, Kota Bau-Bau",SULAWESI TENGGARA,93717.0,Indonesia,4022825003.0,,,-5.4666076,122.607875,https://maps.google.com/?cid=0x0:0x94aae5caad99a0ba,
hotel,hotel,Nirwana Buton Villa,"Jalan Dayanu Ikhsanuddin, Sulla - Betoambari, Sulaa, Kec. Betoambari, Kota Bau-Bau, Sulawesi Tenggara","Kota Bau-Bau, Sulawesi Tenggara",SULAWESI TENGGARA,,Indonesia,82395399962.0,,,-5.521921,122.565666,https://maps.google.com/?cid=0x0:0x9b537d4c9b6ad161,
hotel,hotel,Hotel Mira,"Jl. Mawar No.7, Sulawesi Tenggara 93716",Sulawesi Tenggara,SULAWESI TENGGARA,,Indonesia,4022822911.0,,,-5.4580111,122.6215632,https://maps.google.com/?cid=0x0:0xe1ed6673be7b57e7,
hotel,hotel,Grand Hanura Hotel,"Jl. Martadinata No.56, Batulo, Kec. Wolio, Kota Bau-Bau, Sulawesi Tenggara 93717","Batulo, Kec. Wolio, Kota Bau-Bau",SULAWESI TENGGARA,93717.0,Indonesia,4022816840.0,,,-5.4580701,122.6160526,https://maps.google.com/?cid=0x0:0xac93edfdae173f26,
hotel,hotel,Athina Puncak Hotel  Resort,"GJMG+42J, Jl. Cendana, Kadolo, Kec. Kokalukuna, Kota Bau-Bau, Sulawesi Tenggara 93711","Jl. Cendana, Kadolo, Kec. Kokalukuna, Kota Bau-Bau",SULAWESI TENGGARA,93711.0,Indonesia,85241689034.0,,,-5.4671625,122.6250301,https://maps.google.com/?cid=0x0:0xfbecc0a711b2d55e,
hotel,hotel,Sunset Resort Hotel,"Jl. Poros Lakeba Sulaa, Katobengke, Kec. Betoambari, Kota Bau-Bau, Sulawesi Tenggara 93721","Katobengke, Kec. Betoambari, Kota Bau-Bau",SULAWESI TENGGARA,93721.0,Indonesia,2180629666.0,,,-5.4890938,122.5629603,https://maps.google.com/?cid=0x0:0x4a21a5e9622fc2e4,
hotel,hotel,Villa The View (0821-6409-4926),"Kadolo, Kec. Kokalukuna, Kota Bau-Bau, Sulawesi Tenggara 93716","Kec. Kokalukuna, Kota Bau-Bau",SULAWESI TENGGARA,93716.0,Indonesia,82164094926.0,,,-5.4636652,122.6191307,https://maps.google.com/?cid=0x0:0x3fc9dbd16a4d85a8,
hotel,hotel,BRAVO Hotel,"Jl. Yos Sudarso No.19 A, Wale, Kec. Wolio, Kota Bau-Bau, Sulawesi Tenggara 93711","Wale, Kec. Wolio, Kota Bau-Bau",SULAWESI TENGGARA,93711.0,Indonesia,82393512288.0,,,-5.455327,122.608185,https://maps.google.com/?cid=0x0:0x1121e149f74e5d6,
hotel,hotel,Kec. Siompu,"Kabupaten Buton, Sulawesi Tenggara","Kabupaten Buton, Sulawesi Tenggara",SULAWESI TENGGARA,,Indonesia,,,,-5.6304618,122.5254693,https://maps.google.com/?cid=0x0:0x2718691e607a701,
hotel,hotel,Calista Beach Hotel,"Jl. Yos Sudarso No.25, Wale, Kec. Wolio, Kota Bau-Bau, Sulawesi Tenggara 93711","Wale, Kec. Wolio, Kota Bau-Bau",SULAWESI TENGGARA,93711.0,Indonesia,4022823088.0,,,-5.4551628,122.6076955,https://maps.google.com/?cid=0x0:0xb6aa93333821debf,
hotel,hotel,ZENITH Premiere Hotel Baubau,"Jl. Pahlawan No.2, Batulo, Kec. Wolio, Kota Bau-Bau, Sulawesi Tenggara 93716","Batulo, Kec. Wolio, Kota Bau-Bau",SULAWESI TENGGARA,93716.0,Indonesia,4022818181.0,,,-5.4605781,122.6202256,https://maps.google.com/?cid=0x0:0x6804d2f2f593324b,
hotel,hotel,RedDoorz @ Green Homestay Syariah Baubau,"Jl. Lakarambau, Lipu, Kec. Betoambari, Kota Bau-Bau, Sulawesi Tenggara 93724","Lipu, Kec. Betoambari, Kota Bau-Bau",SULAWESI TENGGARA,93724.0,Indonesia,895417300072.0,,,-5.4830603,122.581514,https://maps.google.com/?cid=0x0:0x416e2ec42c090538,
hotel,hotel,RedDoorz Near Lippo Plaza Buton,"Jl. Pahlawan, Kadolo, Kec. Kokalukuna, Kota Bau-Bau, Sulawesi Tenggara 93711","Kadolo, Kec. Kokalukuna, Kota Bau-Bau",SULAWESI TENGGARA,93711.0,Indonesia,895417300072.0,,,-5.4631502,122.6225948,https://maps.google.com/?cid=0x0:0x876b994274395f18,
hotel,hotel,Wisma Kahyangan,"Jl. Dr. Wahidin No.108, Lamangga, Kec. Murhum, Kota Bau-Bau, Sulawesi Tenggara 97000","Lamangga, Kec. Murhum, Kota Bau-Bau",SULAWESI TENGGARA,97000.0,Indonesia,81355508858.0,,,-5.4677596,122.5982659,https://maps.google.com/?cid=0x0:0x53ca2fa0026360b7,
hotel,hotel,Hotel Rosichan Bau-Bau,"Jl. Betoambari No.117, Lamangga, Kec. Murhum, Kota Bau-Bau, Sulawesi Tenggara 93713","Lamangga, Kec. Murhum, Kota Bau-Bau",SULAWESI TENGGARA,93713.0,Indonesia,895417300072.0,,,-5.465081,122.596467,https://maps.google.com/?cid=0x0:0x4b84b1a3577f7831,
hotel,hotel,Hing Amimah Hotel,"Jl. Diponegoro No.16C, Batulo, Kec. Wolio, Kota Bau-Bau, Sulawesi Tenggara 93717","Batulo, Kec. Wolio, Kota Bau-Bau",SULAWESI TENGGARA,93717.0,Indonesia,895417300072.0,,,-5.460841,122.6150883,https://maps.google.com/?cid=0x0:0x207762f3208662ed,
hotel,hotel,PENGINAPAN BINTANG TIMUR,"Jl. Kamali, Wale, Kec. Wolio, Kota Bau-Bau, Sulawesi Tenggara 93717","Wale, Kec. Wolio, Kota Bau-Bau",SULAWESI TENGGARA,93717.0,Indonesia,82294239246.0,,,-5.4562341,122.6070725,https://maps.google.com/?cid=0x0:0xdf2a93e9102410a8,
hotel,hotel,RedDoorz @ Hotel Bravo Pantai Kamali Bau Bau,"Jl. Yos Sudarso No.19A, Wale, Kec. Wolio, Kota Bau-Bau, Sulawesi Tenggara 93717","Wale, Kec. Wolio, Kota Bau-Bau",SULAWESI TENGGARA,93717.0,Indonesia,895417300072.0,,,-5.4553279,122.6081926,https://maps.google.com/?cid=0x0:0x5149999a1bb19615,
hotel,hotel,Wisma Mulia,"Wale, Kec. Wolio, Kota Bau-Bau, Sulawesi Tenggara 93717","Kec. Wolio, Kota Bau-Bau",SULAWESI TENGGARA,93717.0,Indonesia,4022821673.0,,,-5.4557221,122.6074078,https://maps.google.com/?cid=0x0:0x6115dd3369632f34,
hotel,hotel,Nirwana Buton Villa,"Jalan Dayanu Ikhsanuddin, Sulla - Betoambari, Sulaa, Kec. Betoambari, Kota Bau-Bau, Sulawesi Tenggara","Kota Bau-Bau, Sulawesi Tenggara",SULAWESI TENGGARA,,Indonesia,82395399962.0,,,-5.521921,122.565666,https://maps.google.com/?cid=0x0:0x9b537d4c9b6ad161,
hotel,hotel,Lixxio Hotel,"Jl. Budi Utomo, Wangkanapi, Kec. Wolio, Kota Bau-Bau, Sulawesi Tenggara 93717","Wangkanapi, Kec. Wolio, Kota Bau-Bau",SULAWESI TENGGARA,93717.0,Indonesia,4022811575.0,,,-5.4666296,122.607907,https://maps.google.com/?cid=0x0:0xbf75eda8c5ed233d,
hotel,hotel,Sunset Resort Hotel,"Jl. Poros Lakeba Sulaa, Katobengke, Kec. Betoambari, Kota Bau-Bau, Sulawesi Tenggara 93721","Katobengke, Kec. Betoambari, Kota Bau-Bau",SULAWESI TENGGARA,93721.0,Indonesia,2180629666.0,,,-5.4890938,122.5629603,https://maps.google.com/?cid=0x0:0x4a21a5e9622fc2e4,
hotel,hotel,Athina Puncak Hotel  Resort,"GJMG+42J, Jl. Cendana, Kadolo, Kec. Kokalukuna, Kota Bau-Bau, Sulawesi Tenggara 93711","Jl. Cendana, Kadolo, Kec. Kokalukuna, Kota Bau-Bau",SULAWESI TENGGARA,93711.0,Indonesia,85241689034.0,,,-5.4671625,122.6250301,https://maps.google.com/?cid=0x0:0xfbecc0a711b2d55e,
hotel,hotel,Hotel Galaxy Inn,"Jl. Budi Utomo No.71, Bataraguru, Kec. Wolio, Kota Bau-Bau, Sulawesi Tenggara 93717","Bataraguru, Kec. Wolio, Kota Bau-Bau",SULAWESI TENGGARA,93717.0,Indonesia,4022825003.0,,,-5.4666076,122.607875,https://maps.google.com/?cid=0x0:0x94aae5caad99a0ba,
hotel,hotel,Grand Hanura Hotel,"Jl. Martadinata No.56, Batulo, Kec. Wolio, Kota Bau-Bau, Sulawesi Tenggara 93717","Batulo, Kec. Wolio, Kota Bau-Bau",SULAWESI TENGGARA,93717.0,Indonesia,4022816840.0,,,-5.4580701,122.6160526,https://maps.google.com/?cid=0x0:0xac93edfdae173f26,
hotel,hotel,Hotel Mira,"Jl. Mawar No.7, Sulawesi Tenggara 93716",Sulawesi Tenggara,SULAWESI TENGGARA,,Indonesia,4022822911.0,,,-5.4580111,122.6215632,https://maps.google.com/?cid=0x0:0xe1ed6673be7b57e7,
hotel,hotel,Hotel Lakamali,"Jl. Betoambari, Lipu, Kec. Betoambari, Kota Bau-Bau, Sulawesi Tenggara 93724","Lipu, Kec. Betoambari, Kota Bau-Bau",SULAWESI TENGGARA,93724.0,Indonesia,4022825372.0,,,-5.4780945,122.5820218,https://maps.google.com/?cid=0x0:0xe2c9a292cf1a0c7f,
hotel,hotel,Villa The View (0821-6409-4926),"Kadolo, Kec. Kokalukuna, Kota Bau-Bau, Sulawesi Tenggara 93716","Kec. Kokalukuna, Kota Bau-Bau",SULAWESI TENGGARA,93716.0,Indonesia,82164094926.0,,,-5.4636652,122.6191307,https://maps.google.com/?cid=0x0:0x3fc9dbd16a4d85a8,
hotel,hotel,BRAVO Hotel,"Jl. Yos Sudarso No.19 A, Wale, Kec. Wolio, Kota Bau-Bau, Sulawesi Tenggara 93711","Wale, Kec. Wolio, Kota Bau-Bau",SULAWESI TENGGARA,93711.0,Indonesia,82393512288.0,,,-5.455327,122.608185,https://maps.google.com/?cid=0x0:0x1121e149f74e5d6,
hotel,Hostel,Rmh nya Riana aja sih,"8F5J+GJ9, Katampe, Kec. Siompu Bar., Kabupaten Buton, Sulawesi Tenggara","Kabupaten Buton, Sulawesi Tenggara",SULAWESI TENGGARA,,Indonesia,,,,-5.6911511,122.4817476,https://maps.google.com/?cid=0x0:0x956ca5257a040a62,
hotel,Rumah Kayu,Rumah ningsy,"8GW7+CJ8, Wakinamboro, Kec. Siompu, Kabupaten Buton, Sulawesi Tenggara 93752","Wakinamboro, Kec. Siompu, Kabupaten Buton",SULAWESI TENGGARA,93752.0,Indonesia,,,,-5.653888,122.5140405,https://maps.google.com/?cid=0x0:0x590cd64970442779,
hotel,hotel,Kec. Siompu Bar.,"Kabupaten Buton, Sulawesi Tenggara","Kabupaten Buton, Sulawesi Tenggara",SULAWESI TENGGARA,,Indonesia,,,,-5.6899378,122.4818486,https://maps.google.com/?cid=0x0:0xdc7d5a3172232e78,
hotel,hotel,Hotel Debora,"JL. RA. Kartini No.15, Wale, Kec. Wolio, Kota Bau-Bau, Sulawesi Tenggara 93717","Wale, Kec. Wolio, Kota Bau-Bau",SULAWESI TENGGARA,93717.0,Indonesia,4022821203.0,,,-5.456677,122.6076848,https://maps.google.com/?cid=0x0:0xf9e8feba6879d2f3,
restaurant,restaurant,Batauga,"Masiri, Batauga, Kabupaten Buton, Sulawesi Tenggara","Kabupaten Buton, Sulawesi Tenggara",SULAWESI TENGGARA,,Indonesia,,,,-5.610301,122.6157,https://maps.google.com/?cid=0x0:0xb59244aa04e5e53e,
restaurant,restaurant,Rumah Makan Minang Saiyo (Masakan Padang),"9JP2+RH6, Masiri, Batauga, Kabupaten Buton, Sulawesi Tenggara 93752","Masiri, Batauga, Kabupaten Buton",SULAWESI TENGGARA,93752.0,Indonesia,,,,-5.6129518,122.6013931,https://maps.google.com/?cid=0x0:0x140d394b8cf72728,
restaurant,Restoran,Pondok Jati Resto And Cafe Batauga,"9HWW+2G7, Unnamed Road, Masiri, Batauga, Kabupaten Buton, Sulawesi Tenggara 93752","Unnamed Road, Masiri, Batauga, Kabupaten Buton",SULAWESI TENGGARA,93752.0,Indonesia,81818707323.0,,,-5.6049548,122.5963028,https://maps.google.com/?cid=0x0:0x63a39dbb4cfda857,
restaurant,Kafe,Cobek Buton Sky Lounge,"GJPH+3V4, Kadolo, Kec. Kokalukuna, Kota Bau-Bau, Sulawesi Tenggara 93716","Kadolo, Kec. Kokalukuna, Kota Bau-Bau",SULAWESI TENGGARA,93716.0,Indonesia,,,,-5.4647486,122.6296976,https://maps.google.com/?cid=0x0:0x5a622e9c9b640397,
restaurant,Dapur Umum,RUMAH MAKAN BUNDA,"9HXX+H35, Masiri, Batauga, Kabupaten Buton, Sulawesi Tenggara 93752","Masiri, Batauga, Kabupaten Buton",SULAWESI TENGGARA,93752.0,Indonesia,,,,-5.6005869,122.5977975,https://maps.google.com/?cid=0x0:0x1957ff3db67d3f4c,
restaurant,restaurant,Sulawesi Tenggara 93752,"Kabupaten Buton, Sulawesi Tenggara","Kabupaten Buton, Sulawesi Tenggara",SULAWESI TENGGARA,,Indonesia,,,,-5.6000771,122.650351,https://maps.google.com/?cid=0x0:0x1c436516d6448e13,
restaurant,Dapur Umum,Kantin Tidak Enak,"9JR2+P3M, Jl. Gajah Mada, Masiri, Batauga, Kabupaten Buton, Sulawesi Tenggara 93752","Jl. Gajah Mada, Masiri, Batauga, Kabupaten Buton",SULAWESI TENGGARA,93752.0,Indonesia,85342202284.0,,,-5.6081557,122.6001597,https://maps.google.com/?cid=0x0:0x383cf43bc745c596,
restaurant,Sarapan,RM Siompu,"Jl. Gajah Mada No.648, Masiri, Batauga, Kabupaten Buton, Sulawesi Tenggara 93752","Masiri, Batauga, Kabupaten Buton",SULAWESI TENGGARA,93752.0,Indonesia,82320519177.0,,,-5.6082701,122.5978112,https://maps.google.com/?cid=0x0:0xda7150d09ec6bf7d,
restaurant,Padang,Rm.nusantara,"9JP2+7R9, Unnamed Road, Masiri, Batauga, Kabupaten Buton, Sulawesi Tenggara 93752","Unnamed Road, Masiri, Batauga, Kabupaten Buton",SULAWESI TENGGARA,93752.0,Indonesia,82346228438.0,,,-5.6143328,122.6021165,https://maps.google.com/?cid=0x0:0x75d4994e10cc0fd0,
restaurant,Dapur Umum,Rumah Makan Mana Lagi,"CH6W+GP9, Busoa, Batauga, Kabupaten Buton, Sulawesi Tenggara 93752","Busoa, Batauga, Kabupaten Buton",SULAWESI TENGGARA,93752.0,Indonesia,,,,-5.5887017,122.5968572,https://maps.google.com/?cid=0x0:0xd672151940c99a9a,
restaurant,restaurant,RM. DAPUR BUNDA,"Masiri, Batauga, Kabupaten Buton, Sulawesi Tenggara 93752","Batauga, Kabupaten Buton",SULAWESI TENGGARA,93752.0,Indonesia,,,,-5.6058119,122.5966098,https://maps.google.com/?cid=0x0:0x362a7fdf178dcd6f,
restaurant,Restoran,Waroenk ambulue online rapat n dll,"9HRX+CXG, Masiri, Batauga, Kabupaten Buton, Sulawesi Tenggara 93752","Masiri, Batauga, Kabupaten Buton",SULAWESI TENGGARA,93752.0,Indonesia,85298546905.0,,,-5.6089394,122.5999426,https://maps.google.com/?cid=0x0:0xa6d1e7fc59c21be2,
restaurant,Brunch,RUMAH MAKAN MULIA,"9JP2+H75, Masiri, Batauga, Kabupaten Buton, Sulawesi Tenggara 93752","Masiri, Batauga, Kabupaten Buton",SULAWESI TENGGARA,93752.0,Indonesia,,,,-5.6141113,122.6009681,https://maps.google.com/?cid=0x0:0x34fc564775378b20,
restaurant,Restoran,Rumah makan Barokah,"9JP2+CQJ, Jl. Gajah Mada, Laompo, Batauga, Kabupaten Buton, Sulawesi Tenggara 93752","Jl. Gajah Mada, Laompo, Batauga, Kabupaten Buton",SULAWESI TENGGARA,93752.0,Indonesia,,,,-5.6139245,122.6019011,https://maps.google.com/?cid=0x0:0x1c6f0686fe0d1747,
restaurant,Brunch,Rumah Makan Lesehan Citra Rasa,"9JP3+424, Masiri, Batauga, Kabupaten Buton, Sulawesi Tenggara 93752","Masiri, Batauga, Kabupaten Buton",SULAWESI TENGGARA,93752.0,Indonesia,,,,-5.6147395,122.6025654,https://maps.google.com/?cid=0x0:0xddb60c7103b6b3b7,
restaurant,Bakso,Lestari group # Bakso + Minang Lestari,"9JC6+GXQ, Jl. Gajah Mada, selatan, Majapahit, Batauga, Kabupaten Buton, Sulawesi Tenggara 93752","Jl. Gajah Mada, selatan, Majapahit, Batauga, Kabupaten Buton",SULAWESI TENGGARA,93752.0,Indonesia,81341545393.0,,,-5.6286628,122.6124925,https://maps.google.com/?cid=0x0:0xa053191afd1d6288,
restaurant,Rumah Makan,Ikan  Ayam Bakar Bang IIS,"9JQ2+R27, Jl. Poros, Masiri, Batauga, Buton Regency, South East Sulawesi 93752","Jl. Poros, Masiri, Batauga, Buton Regency",SULAWESI TENGGARA,93752.0,Indonesia,82343666327.0,,,-5.6104644,122.6000404,https://maps.google.com/?cid=0x0:0xf38192b22b430e7a,
restaurant,Komplek perumahan,Fam Tea,"CH5W+JRW, Jl. Gajah Mada, RW.Lingkungan Tuamaruju, Busoa, Batauga, Kabupaten Buton, Sulawesi Tenggara 93752","Jl. Gajah Mada, RW.Lingkungan Tuamaruju, Busoa, Batauga, Kabupaten Buton",SULAWESI TENGGARA,93752.0,Indonesia,,,,-5.5908829,122.5970652,https://maps.google.com/?cid=0x0:0x1b567a3e6cfd7f2f,
restaurant,Brunch,Dapur Beauty Neng Wati,"9PG4+9Q8, Jaya Bakti, Kec. Sampolawa, Kabupaten Buton, Sulawesi Tenggara","Kabupaten Buton, Sulawesi Tenggara",SULAWESI TENGGARA,,Indonesia,82292327217.0,,,-5.6240952,122.7069434,https://maps.google.com/?cid=0x0:0x44d65bfa0fd86970,
restaurant,Makanan Kecil,Pop ice,"Depan kantor dinas kesehatan, Masiri, Batauga, Kabupaten Buton, Sulawesi Tenggara 93752","Masiri, Batauga, Kabupaten Buton",SULAWESI TENGGARA,93752.0,Indonesia,82290803771.0,,,-5.6107308,122.6002927,https://maps.google.com/?cid=0x0:0xe3c4bac67d51881b,
restaurant,Rumah Makan,Potingalu Nirwana RM,"Sulaa, Kec. Betoambari, Kota Bau-Bau, Sulawesi Tenggara","Kota Bau-Bau, Sulawesi Tenggara",SULAWESI TENGGARA,,Indonesia,85241661338.0,,,-5.5251876,122.5694578,https://maps.google.com/?cid=0x0:0x3e30578ed94f64a,
restaurant,Brunch,Rumah Makan Kelapa Pa'mi,"CH2W+84, Laompo, Batauga, Kabupaten Buton, Sulawesi Tenggara","Kabupaten Buton, Sulawesi Tenggara",SULAWESI TENGGARA,,Indonesia,,,,-5.599234,122.595319,https://maps.google.com/?cid=0x0:0x8cea3aab694fca31,
restaurant,Kafe,Cobek Buton Sky Lounge,"GJPH+3V4, Kadolo, Kec. Kokalukuna, Kota Bau-Bau, Sulawesi Tenggara 93716","Kadolo, Kec. Kokalukuna, Kota Bau-Bau",SULAWESI TENGGARA,93716.0,Indonesia,,,,-5.4647486,122.6296976,https://maps.google.com/?cid=0x0:0x5a622e9c9b640397,
restaurant,Kafe,Rest Sky,"GHHX+HJW, Jl. Dr. HOS. Cokroaminoto, Lamangga, Kec. Murhum, Kota Bau-Bau, Sulawesi Tenggara 93713","Jl. Dr. HOS. Cokroaminoto, Lamangga, Kec. Murhum, Kota Bau-Bau",SULAWESI TENGGARA,93713.0,Indonesia,,,,-5.4710085,122.5990724,https://maps.google.com/?cid=0x0:0xe46cfb4b78a54fb8,
restaurant,restaurant,Kec. Batu Atas,"Kabupaten Buton, Sulawesi Tenggara","Kabupaten Buton, Sulawesi Tenggara",SULAWESI TENGGARA,,Indonesia,,,,-6.206587,122.718311,https://maps.google.com/?cid=0x0:0x4823161ea155a8e3,
restaurant,restaurant,Kec. Kadatua,"Kabupaten Buton, Sulawesi Tenggara","Kabupaten Buton, Sulawesi Tenggara",SULAWESI TENGGARA,,Indonesia,,,,-5.5330522,122.4744908,https://maps.google.com/?cid=0x0:0xa7c55634cc618f76,
restaurant,Kedai Kopi,Coffee Nami Dharu Fantastik,"FF8F+HJ8, Kaofe, Kec. Kadatua, Kabupaten Buton, Sulawesi Tenggara 93752","Kaofe, Kec. Kadatua, Kabupaten Buton",SULAWESI TENGGARA,93752.0,Indonesia,,,,-5.5335943,122.4740822,https://maps.google.com/?cid=0x0:0xdc318497ebd17506,
restaurant,Restoran,Rumah Makan Syahrial,"FFGQ+R73, Lipu, Kec. Kadatua, Kabupaten Buton, Sulawesi Tenggara","Kabupaten Buton, Sulawesi Tenggara",SULAWESI TENGGARA,,Indonesia,,,,-5.5229815,122.4881665,https://maps.google.com/?cid=0x0:0x117f9a7965cb2cbd,
restaurant,Kedai Kopi,Warung 2R,"FFJV+HP6, Lipu, Kec. Kadatua, Kabupaten Buton, Sulawesi Tenggara 93752","Lipu, Kec. Kadatua, Kabupaten Buton",SULAWESI TENGGARA,93752.0,Indonesia,81313647180.0,,,-5.5186494,122.4942145,https://maps.google.com/?cid=0x0:0x1b40edd7388c6925,
restaurant,Kedai Kopi,Warung Pak Sukman,"FFJV+HP6, Lipu, Kec. Kadatua, Kabupaten Buton, Sulawesi Tenggara 93752","Lipu, Kec. Kadatua, Kabupaten Buton",SULAWESI TENGGARA,93752.0,Indonesia,81313647180.0,,,-5.5186488,122.4942144,https://maps.google.com/?cid=0x0:0xca966bd3d4530245,
restaurant,Tujuan Wisata,Karamba Resto Gerak Makmur,"9P3W+QM3, Gerak Makmur, Kec. Sampolawa, Kabupaten Buton",Kabupaten Buton,SULAWESI TENGGARA,,Indonesia,,,,-5.645617,122.7466597,https://maps.google.com/?cid=0x0:0x1813fb2db1a0651a,
restaurant,Vila,Bungi Beach,"PGFF+WRX, Moko, Kec. Lakudo, Kabupaten Buton, Sulawesi Tenggara","Kabupaten Buton, Sulawesi Tenggara",SULAWESI TENGGARA,,Indonesia,,,,-5.2751453,122.5246228,https://maps.google.com/?cid=0x0:0x2c7f2c85e1e3fce9,
restaurant,Brunch,Nelayan super,"CGQ4+VMH, Kapoa, Kec. Kadatua, Kabupaten Buton, Sulawesi Tenggara","Kabupaten Buton, Sulawesi Tenggara",SULAWESI TENGGARA,,Indonesia,,,,-5.5603027,122.5067321,https://maps.google.com/?cid=0x0:0x70b40846ae072367,
restaurant,Kedai Kopi,Warkop Bumdes Kapoa,"Kapoa, Kec. Kadatua, Kabupaten Buton, Sulawesi Tenggara","Kabupaten Buton, Sulawesi Tenggara",SULAWESI TENGGARA,,Indonesia,81295078442.0,,,-5.5569101,122.5082841,https://maps.google.com/?cid=0x0:0xb56980a312ca9ac4,
restaurant,restaurant,Rumah Makan Wa Ifah,"FF9F+JWC, Kaofe, Kec. Kadatua, Kabupaten Buton, Sulawesi Tenggara 93752","Kaofe, Kec. Kadatua, Kabupaten Buton",SULAWESI TENGGARA,93752.0,Indonesia,,,,-5.5309263,122.4747657,https://maps.google.com/?cid=0x0:0xe67beff0c1b1bbb8,
restaurant,restaurant,Sulawesi Tenggara 93752,"Kabupaten Buton, Sulawesi Tenggara","Kabupaten Buton, Sulawesi Tenggara",SULAWESI TENGGARA,,Indonesia,,,,-5.6000771,122.650351,https://maps.google.com/?cid=0x0:0x1c436516d6448e13,
restaurant,restaurant,Warung Mama Vivi,"CFWJ+HQM, Kapoa, Kec. Kadatua, Kabupaten Buton, Sulawesi Tenggara","Kabupaten Buton, Sulawesi Tenggara",SULAWESI TENGGARA,,Indonesia,,,,-5.5535308,122.4819205,https://maps.google.com/?cid=0x0:0xb025c78202f8ec9a,
restaurant,restaurant,Pulau Kadatung,"Kec. Kadatua, Kabupaten Buton, Sulawesi Tenggara","Kabupaten Buton, Sulawesi Tenggara",SULAWESI TENGGARA,,Indonesia,,,,-5.5326997,122.497668,https://maps.google.com/?cid=0x0:0xcdcbc13870c26f6d,
restaurant,restaurant,Lapandewa,"Kec. Lapandewa, Kabupaten Buton, Sulawesi Tenggara","Kabupaten Buton, Sulawesi Tenggara",SULAWESI TENGGARA,,Indonesia,,,,-5.5950795,122.8028074,https://maps.google.com/?cid=0x0:0x6ff5a1676f28f9a7,
restaurant,Rumah Makan,Lakaliba,"8QRJ+43H, Gaya Baru, desa lakaliba, Kec. Lapandewa, Kabupaten Buton, Sulawesi Tenggara 93753","Gaya Baru, desa lakaliba, Kec. Lapandewa, Kabupaten Buton",SULAWESI TENGGARA,93753.0,Indonesia,82293417301.0,,,-5.6605754,122.765172,https://maps.google.com/?cid=0x0:0x49e3e2efb0caa31b,
restaurant,Restoran,Karamba Resto Lande,"8PXR+FPQ Des, Gerak Makmur, Kec. Sampolawa",,SULAWESI TENGGARA,,Indonesia,82211822157.0,,,-5.651285,122.741855,https://maps.google.com/?cid=0x0:0xc8fa7db431646446,
restaurant,Tujuan Wisata,Karamba Resto Gerak Makmur,"9P3W+QM3, Gerak Makmur, Kec. Sampolawa, Kabupaten Buton",Kabupaten Buton,SULAWESI TENGGARA,,Indonesia,,,,-5.645617,122.7466597,https://maps.google.com/?cid=0x0:0x1813fb2db1a0651a,
restaurant,Tujuan Wisata,Karamba,"9Q54+PHR, Lande, Kec. Lapandewa, Kabupaten Buton, Sulawesi Tenggara","Kabupaten Buton, Sulawesi Tenggara",SULAWESI TENGGARA,,Indonesia,,,,-5.6406362,122.7563959,https://maps.google.com/?cid=0x0:0x3f847b6035dcc3a4,
restaurant,Kafe,Cobek Buton Sky Lounge,"GJPH+3V4, Kadolo, Kec. Kokalukuna, Kota Bau-Bau, Sulawesi Tenggara 93716","Kadolo, Kec. Kokalukuna, Kota Bau-Bau",SULAWESI TENGGARA,93716.0,Indonesia,,,,-5.4647486,122.6296976,https://maps.google.com/?cid=0x0:0x5a622e9c9b640397,
restaurant,Pembangunan Perumahan,Desa Lapandewa Makmur,"9P6X+HVH, Desa, Makmur, Kec. Lapandewa, Kabupaten Buton, Sulawesi Tenggara","Kabupaten Buton, Sulawesi Tenggara",SULAWESI TENGGARA,,Indonesia,,,,-5.6385379,122.7496674,https://maps.google.com/?cid=0x0:0xca979153fd38d496,
restaurant,Prasmanan,Rumah Makan Ibu Dina,"2GFG+5FG, Jl. Buburanda, Korumba, Lepo-Lepo, Kec. Mandonga, Kota Kendari, Sulawesi Tenggara 93231","Jl. Buburanda, Korumba, Lepo-Lepo, Kec. Mandonga, Kota Kendari",SULAWESI TENGGARA,93231.0,Indonesia,85241788278.0,,,-3.9770749,122.5261902,https://maps.google.com/?cid=0x0:0xf740444865374dd,
restaurant,Restoran,Lavanya Cafe,"2G89+WV6, Bende, Kec. Kadia, Kota Kendari, Sulawesi Tenggara","Kota Kendari, Sulawesi Tenggara",SULAWESI TENGGARA,,Indonesia,,,,-3.9825766,122.5195527,https://maps.google.com/?cid=0x0:0x771d813cfebc4fe0,
restaurant,Kantor Perusahaan,jefri edi wilson wewen andreas,"9RR6+45, Lapandewa, Kec. Lapandewa, Kabupaten Buton, Sulawesi Tenggara","Kabupaten Buton, Sulawesi Tenggara",SULAWESI TENGGARA,,Indonesia,,,,-5.6097032,122.8103856,https://maps.google.com/?cid=0x0:0x4aa220a2554f164a,
restaurant,restaurant,Sulawesi,,,SULAWESI TENGGARA,,Indonesia,,,,-1.8479,120.5279,https://maps.google.com/?cid=0x0:0xbc9a51d168f47742,
restaurant,Kedai Kopi,Rumah pojok Lapandewa,"9Q4P+25M, Roda, Jaya, Kec. Lapandewa, Kabupaten Buton, Sulawesi Tenggara 93753","Roda, Jaya, Kec. Lapandewa, Kabupaten Buton",SULAWESI TENGGARA,93753.0,Indonesia,81340338695.0,,,-5.6449228,122.7854171,https://maps.google.com/?cid=0x0:0x17ebabdbeada9935,
restaurant,Kedai Kopi,Teras Rumah coffe,"9Q5M+G6R, Lapandewa Kaindea, Kec. Lapandewa, Kabupaten Buton, Sulawesi Tenggara 93753","Lapandewa Kaindea, Kec. Lapandewa, Kabupaten Buton",SULAWESI TENGGARA,93753.0,Indonesia,82346546209.0,,,-5.6411468,122.7830271,https://maps.google.com/?cid=0x0:0xa13386ab08c52e1f,
restaurant,Kios,Gerai Sun thai,"Gaya Baru, Kec. Lapandewa, Kabupaten Buton, Sulawesi Tenggara 93753","Kec. Lapandewa, Kabupaten Buton",SULAWESI TENGGARA,93753.0,Indonesia,82293607213.0,,,-5.6631619,122.7645587,https://maps.google.com/?cid=0x0:0x63442ea630b68204,
restaurant,Kantor Pemerintah,Desa Gaya Baru Kec. Lapandewa Kab. Buton Selatan,"8QR8+57G, Unnamed Road, Gaya Baru, Kec. Lapandewa, Kabupaten Buton, Sulawesi Tenggara 93753","Unnamed Road, Gaya Baru, Kec. Lapandewa, Kabupaten Buton",SULAWESI TENGGARA,93753.0,Indonesia,81267176038.0,,,-5.6595628,122.7656876,https://maps.google.com/?cid=0x0:0x7dbba0cb515406c8,
restaurant,Dapur Umum,Kios Mama Chaira,"9Q4M+JV2, Gaya Baru, Kec. Lapandewa, Kabupaten Buton, Sulawesi Tenggara 93753","Gaya Baru, Kec. Lapandewa, Kabupaten Buton",SULAWESI TENGGARA,93753.0,Indonesia,,,,-5.6431647,122.7850857,https://maps.google.com/?cid=0x0:0xd3e05accb041893a,
restaurant,restaurant,Sulawesi Tenggara 93753,"Kabupaten Buton, Sulawesi Tenggara","Kabupaten Buton, Sulawesi Tenggara",SULAWESI TENGGARA,,Indonesia,,,,-5.5916275,122.7858791,https://maps.google.com/?cid=0x0:0x5d5b6b7c1f0a9413,
restaurant,Tujuan Wisata,Karamba Resto Gerak Makmur,"9P3W+QM3, Gerak Makmur, Kec. Sampolawa, Kabupaten Buton",Kabupaten Buton,SULAWESI TENGGARA,,Indonesia,,,,-5.645617,122.7466597,https://maps.google.com/?cid=0x0:0x1813fb2db1a0651a,
restaurant,Brunch,Dapur Beauty Neng Wati,"9PG4+9Q8, Jaya Bakti, Kec. Sampolawa, Kabupaten Buton, Sulawesi Tenggara","Kabupaten Buton, Sulawesi Tenggara",SULAWESI TENGGARA,,Indonesia,82292327217.0,,,-5.6240952,122.7069434,https://maps.google.com/?cid=0x0:0x44d65bfa0fd86970,
restaurant,Restoran,Warung Makan Paseba,"FRMV+PPP, Unnamed Road, Banabungi, Kec. Ps. Wajo, Kabupaten Buton, Sulawesi Tenggara 93754","Unnamed Road, Banabungi, Kec. Ps. Wajo, Kabupaten Buton",SULAWESI TENGGARA,93754.0,Indonesia,81276350086.0,,,-5.5156717,122.8443267,https://maps.google.com/?cid=0x0:0x7b584289c0902137,
restaurant,Restoran,Karamba Resto Lande,"8PXR+FPQ Des, Gerak Makmur, Kec. Sampolawa",,SULAWESI TENGGARA,,Indonesia,82211822157.0,,,-5.651285,122.741855,https://maps.google.com/?cid=0x0:0xc8fa7db431646446,
restaurant,Sarapan,RM Siompu,"Jl. Gajah Mada No.648, Masiri, Batauga, Kabupaten Buton, Sulawesi Tenggara 93752","Masiri, Batauga, Kabupaten Buton",SULAWESI TENGGARA,93752.0,Indonesia,82320519177.0,,,-5.6082701,122.5978112,https://maps.google.com/?cid=0x0:0xda7150d09ec6bf7d,
restaurant,Restoran,RM. WANGI-WANGI BUTON,"GR7W+PRM, Saragi, Kec. Ps. Wajo, Kabupaten Buton, Sulawesi Tenggara","Kabupaten Buton, Sulawesi Tenggara",SULAWESI TENGGARA,,Indonesia,85394502156.0,,,-5.4856673,122.8470444,https://maps.google.com/?cid=0x0:0xa14e35b8964e0505,
restaurant,Restoran,Warung Bakso Mama Ryan,"8P98+527, Bahari, Kec. Sampolawa, Kabupaten Buton, Sulawesi Tenggara","Kabupaten Buton, Sulawesi Tenggara",SULAWESI TENGGARA,,Indonesia,82214534426.0,,,-5.6820998,122.7150401,https://maps.google.com/?cid=0x0:0x381a4db396d2bac1,
restaurant,Restoran,RM. BLAMBANGAN,"FRVV+8VV, Jl. Protokol, Kec. Ps. Wajo, Kabupaten Buton, Sulawesi Tenggara","Kabupaten Buton, Sulawesi Tenggara",SULAWESI TENGGARA,,Indonesia,81245913811.0,,,-5.5066313,122.8446619,https://maps.google.com/?cid=0x0:0xa1dceb0fffd69d59,
restaurant,Ayam,Ayam crispy,"8P97+FPQ, Unnamed Road, Bahari, Kec. Sampolawa, Kabupaten Buton, Sulawesi Tenggara 93753","Unnamed Road, Bahari, Kec. Sampolawa, Kabupaten Buton",SULAWESI TENGGARA,93753.0,Indonesia,81342414064.0,,,-5.6813024,122.7143937,https://maps.google.com/?cid=0x0:0xb7579ca68fa11451,
restaurant,restaurant,Warung Makan Jaya Rasa,"8QXQ+F86, Jaya, Kec. Lapandewa, Kabupaten Buton, Sulawesi Tenggara 93753","Jaya, Kec. Lapandewa, Kabupaten Buton",SULAWESI TENGGARA,93753.0,Indonesia,,,,-5.6513254,122.7882698,https://maps.google.com/?cid=0x0:0x7a33cca4aa072150,
restaurant,Dapur Umum,Home Fainal,"8MPJ+GJ4, Wawoangi, Kec. Sampolawa, Kabupaten Buton, Sulawesi Tenggara","Kabupaten Buton, Sulawesi Tenggara",SULAWESI TENGGARA,,Indonesia,,,,-5.6631971,122.6818015,https://maps.google.com/?cid=0x0:0xc0bd955de08169a6,
restaurant,Restoran,Rumah Makan Kulinerku,"FRHR+XX7, Jl. Jend. Sudirman, Banabungi, Kec. Ps. Wajo, Kabupaten Buton, Sulawesi Tenggara 93754","Jl. Jend. Sudirman, Banabungi, Kec. Ps. Wajo, Kabupaten Buton",SULAWESI TENGGARA,93754.0,Indonesia,82292300698.0,,,-5.5200745,122.8424344,https://maps.google.com/?cid=0x0:0xe26d200c62c69de,
restaurant,Restoran,Rumah Makan Wisata,"FRVV+FXC, Jl, Pasar Wajo, Buton Regency, South East Sulawesi","Kabupaten Buton, Sulawesi Tenggara",SULAWESI TENGGARA,,Indonesia,82259056019.0,,,-5.5063153,122.8449037,https://maps.google.com/?cid=0x0:0x1bd1be14bb2de7f0,
restaurant,Rumah Makan,RM. PERLIPUR LAPAR,"GVF3+RWH, Wasaga, Kec. Ps. Wajo, Kabupaten Buton, Sulawesi Tenggara","Kabupaten Buton, Sulawesi Tenggara",SULAWESI TENGGARA,,Indonesia,,,,-5.4754462,122.8548479,https://maps.google.com/?cid=0x0:0xb1b33b7e3ec70eeb,
restaurant,Restoran,Rumah Makan Berkah,"Jl. Kihajar Dewantara No.115, Kambula Mbulana, Kec. Ps. Wajo, Kabupaten Buton, Sulawesi Tenggara 93754","Kambula Mbulana, Kec. Ps. Wajo, Kabupaten Buton",SULAWESI TENGGARA,93754.0,Indonesia,85244696214.0,,,-5.4958221,122.8438869,https://maps.google.com/?cid=0x0:0x364d6a33d5f10291,
restaurant,Restoran,KEDAI SARAS MAYA,"Dusun bente Depan lapangan futsal No.1, Wabula, Kec. Wabula, Kabupaten Buton, Sulawesi Tenggara 93753","Wabula, Kec. Wabula, Kabupaten Buton",SULAWESI TENGGARA,93753.0,Indonesia,82271477416.0,,,-5.612915,122.8569155,https://maps.google.com/?cid=0x0:0x7b5e6a60880a58a9,
restaurant,Restoran,Cafe Pondok Bambu,"GVC2+6RW, Saragi, Kec. Ps. Wajo, Kabupaten Buton, Sulawesi Tenggara","Kabupaten Buton, Sulawesi Tenggara",SULAWESI TENGGARA,,Indonesia,,,,-5.4793958,122.8520776,https://maps.google.com/?cid=0x0:0x572436ae055986dc,
restaurant,Padang,Rm Transit,"Jl. Protokol No.48, Kambula Mbulana, Kec. Ps. Wajo, Kabupaten Buton, Sulawesi Tenggara 93754","Kambula Mbulana, Kec. Ps. Wajo, Kabupaten Buton",SULAWESI TENGGARA,93754.0,Indonesia,82134184249.0,,,-5.4915336,122.8458958,https://maps.google.com/?cid=0x0:0x3779c90c21f7d272,
restaurant,Toko,Depot Elsa,"FR9V+3R6, Kombeli, Kec. Ps. Wajo, Kabupaten Buton, Sulawesi Tenggara 93754","Kombeli, Kec. Ps. Wajo, Kabupaten Buton",SULAWESI TENGGARA,93754.0,Indonesia,,,,-5.532339,122.8445043,https://maps.google.com/?cid=0x0:0x94b4d857f7958cc3,
restaurant,Padang,Rm.nusantara,"9JP2+7R9, Unnamed Road, Masiri, Batauga, Kabupaten Buton, Sulawesi Tenggara 93752","Unnamed Road, Masiri, Batauga, Kabupaten Buton",SULAWESI TENGGARA,93752.0,Indonesia,82346228438.0,,,-5.6143328,122.6021165,https://maps.google.com/?cid=0x0:0x75d4994e10cc0fd0,
restaurant,Rumah Makan,Cafe Triple S,"M969+GXW, Lakorua, Kec. Mawasangka Tengah, Kabupaten Buton, Sulawesi Tenggara 93762","Lakorua, Kec. Mawasangka Tengah, Kabupaten Buton",SULAWESI TENGGARA,93762.0,Indonesia,,,,-5.3397677,122.37032,https://maps.google.com/?cid=0x0:0xb725b4a05c639c51,
restaurant,Rumah Makan,Dapoer Mamatha,"FRCW+M3R, Awainulu, Kec. Ps. Wajo, Kabupaten Buton, Sulawesi Tenggara","Kabupaten Buton, Sulawesi Tenggara",SULAWESI TENGGARA,,Indonesia,,,,-5.5282664,122.8451461,https://maps.google.com/?cid=0x0:0x64812d95d88a31d6,
restaurant,Rumah Makan,Mama Hotplate,"Lippo Plaza Buton, Kota Bau-Bau, Sulawesi Tenggara 93716",Kota Bau-Bau,SULAWESI TENGGARA,93716.0,Indonesia,4022818411.0,,,-5.460806,122.6195263,https://maps.google.com/?cid=0x0:0x56c3c0dc7e5a3e8a,
restaurant,Restoran,Pondok Jati Resto And Cafe Batauga,"9HWW+2G7, Unnamed Road, Masiri, Batauga, Kabupaten Buton, Sulawesi Tenggara 93752","Unnamed Road, Masiri, Batauga, Kabupaten Buton",SULAWESI TENGGARA,93752.0,Indonesia,81818707323.0,,,-5.6049548,122.5963028,https://maps.google.com/?cid=0x0:0x63a39dbb4cfda857,
restaurant,Rumah Makan,Tunas Kapau,"FRQV+F4G, Jl. Protokol, Banabungi, Kec. Ps. Wajo, Kabupaten Buton, Sulawesi Tenggara 93754","Jl. Protokol, Banabungi, Kec. Ps. Wajo, Kabupaten Buton",SULAWESI TENGGARA,93754.0,Indonesia,,,,-5.5113036,122.842839,https://maps.google.com/?cid=0x0:0xe120aa5d23c34dd9,
restaurant,Bakso,RM. Warung Bakso Mombaka Bunda Lia.,"Jl. Ama Hatibi, Laburunci, Kec. Ps. Wajo, Kabupaten Buton, Sulawesi Tenggara 93754","Laburunci, Kec. Ps. Wajo, Kabupaten Buton",SULAWESI TENGGARA,93754.0,Indonesia,81346340930.0,,,-5.5211059,122.8400949,https://maps.google.com/?cid=0x0:0x554fe4716e11f1e2,
restaurant,restaurant,Kec. Siompu,"Kabupaten Buton, Sulawesi Tenggara","Kabupaten Buton, Sulawesi Tenggara",SULAWESI TENGGARA,,Indonesia,,,,-5.6304618,122.5254693,https://maps.google.com/?cid=0x0:0x2718691e607a701,
restaurant,Sarapan,RM Siompu,"Jl. Gajah Mada No.648, Masiri, Batauga, Kabupaten Buton, Sulawesi Tenggara 93752","Masiri, Batauga, Kabupaten Buton",SULAWESI TENGGARA,93752.0,Indonesia,82320519177.0,,,-5.6082701,122.5978112,https://maps.google.com/?cid=0x0:0xda7150d09ec6bf7d,
restaurant,Brunch,Warung Makan Taufik,"8F5J+FFC, Molona, Kec. Siompu Bar., Kabupaten Buton, Sulawesi Tenggara","Kabupaten Buton, Sulawesi Tenggara",SULAWESI TENGGARA,,Indonesia,,,,-5.6913085,122.4811498,https://maps.google.com/?cid=0x0:0xb5799959b7b17661,
restaurant,Rumah Makan,Rumah Makan Singgah Mbak Wiwin,"8GG4+J6X, Jl. Poros Siompu, Lalole, Kec. Siompu Bar., Kabupaten Buton, Sulawesi Tenggara 93752","Jl. Poros Siompu, Lalole, Kec. Siompu Bar., Kabupaten Buton",SULAWESI TENGGARA,93752.0,Indonesia,,,,-5.6733837,122.5055965,https://maps.google.com/?cid=0x0:0xb1ed2d54702b6649,
restaurant,Komplek perumahan,siompu,"8GXH+QG3, Wakinamboro, Kec. Siompu, Kabupaten Buton, Sulawesi Tenggara 93752","Wakinamboro, Kec. Siompu, Kabupaten Buton",SULAWESI TENGGARA,93752.0,Indonesia,,,,-5.6506164,122.5287884,https://maps.google.com/?cid=0x0:0x9c9b8935d6e3ad37,
restaurant,Bar,Siompu barat,"8F5J+MJX, Jl. La Laja, Molona, Kec. Siompu Bar., Kabupaten Buton, Sulawesi Tenggara 93752","Jl. La Laja, Molona, Kec. Siompu Bar., Kabupaten Buton",SULAWESI TENGGARA,93752.0,Indonesia,,,,-5.6906618,122.4815127,https://maps.google.com/?cid=0x0:0x22951cc20102d415,
restaurant,Kios,Pasar wisata kuliner,"8HR4+36F, Lontoi, Kec. Siompu, Kabupaten Buton, Sulawesi Tenggara","Kabupaten Buton, Sulawesi Tenggara",SULAWESI TENGGARA,,Indonesia,,,,-5.659823,122.5555604,https://maps.google.com/?cid=0x0:0xf7025b2334c275f7,
restaurant,Komplek perumahan,Rumah Karlos,"8GV6+JFW, Wakinamboro, Kec. Siompu, Kabupaten Buton, Sulawesi Tenggara","Kabupaten Buton, Sulawesi Tenggara",SULAWESI TENGGARA,,Indonesia,,,,-5.6558978,122.5112043,https://maps.google.com/?cid=0x0:0xe9990e46d8fd9c0b,
restaurant,Kedai Kopi,Cafee wulea,"Lalole, Kec. Siompu Bar., Kabupaten Buton, Sulawesi Tenggara 93752","Kec. Siompu Bar., Kabupaten Buton",SULAWESI TENGGARA,93752.0,Indonesia,,,,-5.68124,122.4876805,https://maps.google.com/?cid=0x0:0x9addc2cf1cc96c1,
restaurant,Restoran,Dapoer Eyang,"Dusun padangkuku, Kec. Siompu Bar., Kabupaten Buton, Sulawesi Tenggara 93744","Kec. Siompu Bar., Kabupaten Buton",SULAWESI TENGGARA,93744.0,Indonesia,81324541808.0,,,-5.691661,122.4812671,https://maps.google.com/?cid=0x0:0x9e384bdd6de5cc7e,
restaurant,Rumah Makan,Kantin family,"8F2R+FMF, Lamaninggara, Kec. Siompu Bar., Kabupaten Buton, Sulawesi Tenggara","Kabupaten Buton, Sulawesi Tenggara",SULAWESI TENGGARA,,Indonesia,,,,-5.698815,122.4916765,https://maps.google.com/?cid=0x0:0xe0c2148eab3b0f96,
restaurant,Kedai Kopi,Yuuu,"8FFG+V28, Watuampara, Kec. Siompu Bar., Kabupaten Buton, Sulawesi Tenggara 93752","Watuampara, Kec. Siompu Bar., Kabupaten Buton",SULAWESI TENGGARA,93752.0,Indonesia,,,,-5.675531,122.47435,https://maps.google.com/?cid=0x0:0x67e245d9bf9654d7,
restaurant,Kafe,Kopi Pastea Siompu Barat,"Jl. Kabawo, Watuampara, Kec. Siompu Bar., Kabupaten Buton, Sulawesi Tenggara 93752","Watuampara, Kec. Siompu Bar., Kabupaten Buton",SULAWESI TENGGARA,93752.0,Indonesia,85292222721.0,,,-5.6801062,122.4716313,https://maps.google.com/?cid=0x0:0x8743fb7a04db1201,
restaurant,Kafe,KEDAI CAMCAM FOOD,"8FCC+4RP, Jl. Kabawo, Watuampara, Kec. Siompu Bar., Kabupaten Buton, Sulawesi Tenggara 93752","Jl. Kabawo, Watuampara, Kec. Siompu Bar., Kabupaten Buton",SULAWESI TENGGARA,93752.0,Indonesia,85220879571.0,,,-5.6793774,122.4721681,https://maps.google.com/?cid=0x0:0xa33c34b548d60e58,
restaurant,Kedai Kopi,Uwais Al qorni,"8F5M+PH8, Jl. Poros, Katampe, Kec. Siompu Bar., Kabupaten Buton, Sulawesi Tenggara 93752","Jl. Poros, Katampe, Kec. Siompu Bar., Kabupaten Buton",SULAWESI TENGGARA,93752.0,Indonesia,85212263930.0,,,-5.6907183,122.4839483,https://maps.google.com/?cid=0x0:0xfca4cae691f68519,
restaurant,restaurant,Rumah Wulan dan Dian,"8GH4+HX2, Biwinapada, Kec. Siompu, Kabupaten Buton, Sulawesi Tenggara 93752","Biwinapada, Kec. Siompu, Kabupaten Buton",SULAWESI TENGGARA,93752.0,Indonesia,,,,-5.671902,122.5077815,https://maps.google.com/?cid=0x0:0x39965e83cb53b8e8,
restaurant,restaurant,Kec. Siompu Bar.,"Kabupaten Buton, Sulawesi Tenggara","Kabupaten Buton, Sulawesi Tenggara",SULAWESI TENGGARA,,Indonesia,,,,-5.6899378,122.4818486,https://maps.google.com/?cid=0x0:0xdc7d5a3172232e78,
restaurant,Bar,Siompu barat,"8F5J+MJX, Jl. La Laja, Molona, Kec. Siompu Bar., Kabupaten Buton, Sulawesi Tenggara 93752","Jl. La Laja, Molona, Kec. Siompu Bar., Kabupaten Buton",SULAWESI TENGGARA,93752.0,Indonesia,,,,-5.6906618,122.4815127,https://maps.google.com/?cid=0x0:0x22951cc20102d415,
restaurant,Brunch,Warung Makan Taufik,"8F5J+FFC, Molona, Kec. Siompu Bar., Kabupaten Buton, Sulawesi Tenggara","Kabupaten Buton, Sulawesi Tenggara",SULAWESI TENGGARA,,Indonesia,,,,-5.6913085,122.4811498,https://maps.google.com/?cid=0x0:0xb5799959b7b17661,
restaurant,Kedai Kopi,Cafe Mustika,"8FFW+8Q9, Jl. Poros Siompu, Lalole, Kec. Siompu Bar., Kabupaten Buton, Sulawesi Tenggara 93752","Jl. Poros Siompu, Lalole, Kec. Siompu Bar., Kabupaten Buton",SULAWESI TENGGARA,93752.0,Indonesia,,,,-5.6767203,122.4969783,https://maps.google.com/?cid=0x0:0x32b89d6cdad4c2a7,
restaurant,Restoran,Dapoer Eyang,"Dusun padangkuku, Kec. Siompu Bar., Kabupaten Buton, Sulawesi Tenggara 93744","Kec. Siompu Bar., Kabupaten Buton",SULAWESI TENGGARA,93744.0,Indonesia,81324541808.0,,,-5.691661,122.4812671,https://maps.google.com/?cid=0x0:0x9e384bdd6de5cc7e,
restaurant,Rumah Makan,Kantin family,"8F2R+FMF, Lamaninggara, Kec. Siompu Bar., Kabupaten Buton, Sulawesi Tenggara","Kabupaten Buton, Sulawesi Tenggara",SULAWESI TENGGARA,,Indonesia,,,,-5.698815,122.4916765,https://maps.google.com/?cid=0x0:0xe0c2148eab3b0f96,
restaurant,Rumah Makan,Rumah Makan Singgah Mbak Wiwin,"8GG4+J6X, Jl. Poros Siompu, Lalole, Kec. Siompu Bar., Kabupaten Buton, Sulawesi Tenggara 93752","Jl. Poros Siompu, Lalole, Kec. Siompu Bar., Kabupaten Buton",SULAWESI TENGGARA,93752.0,Indonesia,,,,-5.6733837,122.5055965,https://maps.google.com/?cid=0x0:0xb1ed2d54702b6649,
restaurant,Kafe,Kopi Pastea Siompu Barat,"Jl. Kabawo, Watuampara, Kec. Siompu Bar., Kabupaten Buton, Sulawesi Tenggara 93752","Watuampara, Kec. Siompu Bar., Kabupaten Buton",SULAWESI TENGGARA,93752.0,Indonesia,85292222721.0,,,-5.6801062,122.4716313,https://maps.google.com/?cid=0x0:0x8743fb7a04db1201,
restaurant,Kedai Kopi,Cafee wulea,"Lalole, Kec. Siompu Bar., Kabupaten Buton, Sulawesi Tenggara 93752","Kec. Siompu Bar., Kabupaten Buton",SULAWESI TENGGARA,93752.0,Indonesia,,,,-5.68124,122.4876805,https://maps.google.com/?cid=0x0:0x9addc2cf1cc96c1,
restaurant,Kedai Kopi,Yuuu,"8FFG+V28, Watuampara, Kec. Siompu Bar., Kabupaten Buton, Sulawesi Tenggara 93752","Watuampara, Kec. Siompu Bar., Kabupaten Buton",SULAWESI TENGGARA,93752.0,Indonesia,,,,-5.675531,122.47435,https://maps.google.com/?cid=0x0:0x67e245d9bf9654d7,
restaurant,Kafe,Kopi Pastea.id - MOLONA Siompu Barat,"Jl. Poros, Molona, Kec. Siompu Bar., Kabupaten Buton, Sulawesi Tenggara 93722","Molona, Kec. Siompu Bar., Kabupaten Buton",SULAWESI TENGGARA,93722.0,Indonesia,85292222721.0,,,-5.6906497,122.479685,https://maps.google.com/?cid=0x0:0x5d40e5392daa8280,
restaurant,Komplek perumahan,Molona Cafe  Resto,"8F6G+6RP, Molona, Kec. Siompu Bar., Kabupaten Buton, Sulawesi Tenggara","Kabupaten Buton, Sulawesi Tenggara",SULAWESI TENGGARA,,Indonesia,,,,-5.6894138,122.4770867,https://maps.google.com/?cid=0x0:0x3fe15be8a9eebf81,
restaurant,Kafe,KEDAI CAMCAM FOOD,"8FCC+4RP, Jl. Kabawo, Watuampara, Kec. Siompu Bar., Kabupaten Buton, Sulawesi Tenggara 93752","Jl. Kabawo, Watuampara, Kec. Siompu Bar., Kabupaten Buton",SULAWESI TENGGARA,93752.0,Indonesia,85220879571.0,,,-5.6793774,122.4721681,https://maps.google.com/?cid=0x0:0xa33c34b548d60e58,
restaurant,Kedai Kopi,A!G0,"8F4J+XMF, Jl. Daeng, Molona, Kec. Siompu Bar., Kabupaten Buton, Sulawesi Tenggara","Kabupaten Buton, Sulawesi Tenggara",SULAWESI TENGGARA,,Indonesia,81340521852.0,,,-5.6925639,122.4816749,https://maps.google.com/?cid=0x0:0xccf062e92a81f5fb,
restaurant,Komplek perumahan,"Sevan, Komplek Welalo.","8F5J+FWJ, Molona, Kec. Siompu Bar., Kabupaten Buton, Sulawesi Tenggara","Kabupaten Buton, Sulawesi Tenggara",SULAWESI TENGGARA,,Indonesia,85235063336.0,,,-5.6912849,122.4822603,https://maps.google.com/?cid=0x0:0x72fc0b6743716f66,
restaurant,Komplek perumahan,Rumah Karlos,"8GV6+JFW, Wakinamboro, Kec. Siompu, Kabupaten Buton, Sulawesi Tenggara","Kabupaten Buton, Sulawesi Tenggara",SULAWESI TENGGARA,,Indonesia,,,,-5.6558978,122.5112043,https://maps.google.com/?cid=0x0:0xe9990e46d8fd9c0b,
restaurant,Tujuan Wisata,Karamba Resto Gerak Makmur,"9P3W+QM3, Gerak Makmur, Kec. Sampolawa, Kabupaten Buton",Kabupaten Buton,SULAWESI TENGGARA,,Indonesia,,,,-5.645617,122.7466597,https://maps.google.com/?cid=0x0:0x1813fb2db1a0651a,
restaurant,Kedai Kopi,Uwais Al qorni,"8F5M+PH8, Jl. Poros, Katampe, Kec. Siompu Bar., Kabupaten Buton, Sulawesi Tenggara 93752","Jl. Poros, Katampe, Kec. Siompu Bar., Kabupaten Buton",SULAWESI TENGGARA,93752.0,Indonesia,85212263930.0,,,-5.6907183,122.4839483,https://maps.google.com/?cid=0x0:0xfca4cae691f68519,
restaurant,restaurant,Ayam Geprek Mama Farel,"8F6H+7MM, samping puskesmas, Molona, Kec. Siompu Bar., Kabupaten Buton, Sulawesi Tenggara","Kabupaten Buton, Sulawesi Tenggara",SULAWESI TENGGARA,,Indonesia,,,,-5.6892815,122.479172,https://maps.google.com/?cid=0x0:0x185191f1513a6208,
restaurant,restaurant,Rumah Wulan dan Dian,"8GH4+HX2, Biwinapada, Kec. Siompu, Kabupaten Buton, Sulawesi Tenggara 93752","Biwinapada, Kec. Siompu, Kabupaten Buton",SULAWESI TENGGARA,93752.0,Indonesia,,,,-5.671902,122.5077815,https://maps.google.com/?cid=0x0:0x39965e83cb53b8e8,
restaurant,Es Krim,Es teler,"8FCF+544, Watuampara, Kec. Siompu Bar., Kabupaten Buton, Sulawesi Tenggara 93752","Watuampara, Kec. Siompu Bar., Kabupaten Buton",SULAWESI TENGGARA,93752.0,Indonesia,,,,-5.6786429,122.4730623,https://maps.google.com/?cid=0x0:0x35dd38525af4dc6f,
cafe,cafe,Batauga,"Masiri, Batauga, Kabupaten Buton, Sulawesi Tenggara","Kabupaten Buton, Sulawesi Tenggara",SULAWESI TENGGARA,,Indonesia,,,,-5.610301,122.6157,https://maps.google.com/?cid=0x0:0xb59244aa04e5e53e,
cafe,Restoran,Pondok Jati Resto And Cafe Batauga,"9HWW+2G7, Unnamed Road, Masiri, Batauga, Kabupaten Buton, Sulawesi Tenggara 93752","Unnamed Road, Masiri, Batauga, Kabupaten Buton",SULAWESI TENGGARA,93752.0,Indonesia,81818707323.0,,,-5.6049548,122.5963028,https://maps.google.com/?cid=0x0:0x63a39dbb4cfda857,
cafe,Kedai Kopi,One Kedai,"9J58+F88, Masiri, Batauga, Kabupaten Buton, Sulawesi Tenggara 93752","Masiri, Batauga, Kabupaten Buton",SULAWESI TENGGARA,93752.0,Indonesia,85342273212.0,,,-5.6413446,122.615835,https://maps.google.com/?cid=0x0:0x32196066c6d8fe2,
cafe,cafe,Poogalampa,"9JQ8+V7G, Masiri, Batauga, Kabupaten Buton, Sulawesi Tenggara","Kabupaten Buton, Sulawesi Tenggara",SULAWESI TENGGARA,,Indonesia,,,,-5.610301,122.6157,https://maps.google.com/?cid=0x0:0xfdfd36f5c36aa13d,
cafe,cafe,MARKAS NGOPI BERJAMAAH,"Bandar, Batauga, Kelurahan Bandar, Batauga, Kabupaten Buton, Sulawesi Tenggara 93752","Batauga, Kelurahan Bandar, Batauga, Kabupaten Buton",SULAWESI TENGGARA,93752.0,Indonesia,,,,-5.5805499,122.5916824,https://maps.google.com/?cid=0x0:0xa074d1d64fb136c,
cafe,cafe,Sulawesi Tenggara 93752,"Kabupaten Buton, Sulawesi Tenggara","Kabupaten Buton, Sulawesi Tenggara",SULAWESI TENGGARA,,Indonesia,,,,-5.6000771,122.650351,https://maps.google.com/?cid=0x0:0x1c436516d6448e13,
cafe,Dapur Umum,Kantin Tidak Enak,"9JR2+P3M, Jl. Gajah Mada, Masiri, Batauga, Kabupaten Buton, Sulawesi Tenggara 93752","Jl. Gajah Mada, Masiri, Batauga, Kabupaten Buton",SULAWESI TENGGARA,93752.0,Indonesia,85342202284.0,,,-5.6081557,122.6001597,https://maps.google.com/?cid=0x0:0x383cf43bc745c596,
cafe,Restoran,Waroenk ambulue online rapat n dll,"9HRX+CXG, Masiri, Batauga, Kabupaten Buton, Sulawesi Tenggara 93752","Masiri, Batauga, Kabupaten Buton",SULAWESI TENGGARA,93752.0,Indonesia,85298546905.0,,,-5.6089394,122.5999426,https://maps.google.com/?cid=0x0:0xa6d1e7fc59c21be2,
cafe,Sarapan,RM Siompu,"Jl. Gajah Mada No.648, Masiri, Batauga, Kabupaten Buton, Sulawesi Tenggara 93752","Masiri, Batauga, Kabupaten Buton",SULAWESI TENGGARA,93752.0,Indonesia,82320519177.0,,,-5.6082701,122.5978112,https://maps.google.com/?cid=0x0:0xda7150d09ec6bf7d,
cafe,Dapur Umum,Rumah Makan Mana Lagi,"CH6W+GP9, Busoa, Batauga, Kabupaten Buton, Sulawesi Tenggara 93752","Busoa, Batauga, Kabupaten Buton",SULAWESI TENGGARA,93752.0,Indonesia,,,,-5.5887017,122.5968572,https://maps.google.com/?cid=0x0:0xd672151940c99a9a,
cafe,cafe,RM. DAPUR BUNDA,"Masiri, Batauga, Kabupaten Buton, Sulawesi Tenggara 93752","Batauga, Kabupaten Buton",SULAWESI TENGGARA,93752.0,Indonesia,,,,-5.6058119,122.5966098,https://maps.google.com/?cid=0x0:0x362a7fdf178dcd6f,
cafe,Kedai Kopi,Coffee Shop Waringin,"Jalan Gajah Mada No.24 a RW.lingk bucu, Laompo, kec, Kabupaten Buton, Sulawesi Tenggara 93752","Laompo, kec, Kabupaten Buton",SULAWESI TENGGARA,93752.0,Indonesia,82259825301.0,,,-5.6084012,122.5982901,https://maps.google.com/?cid=0x0:0x6208284aafa70288,
cafe,Kafe,SIMPLE COFFEE,"GH6C+CQP, JL. DAYANU IKHSANUDIN, Katobengke, Kec. Betoambari, Kota Bau-Bau, Sulawesi Tenggara 93724","JL. DAYANU IKHSANUDIN, Katobengke, Kec. Betoambari, Kota Bau-Bau",SULAWESI TENGGARA,93724.0,Indonesia,82193193319.0,,,-5.4889197,122.5719499,https://maps.google.com/?cid=0x0:0x530a9149c49b75cd,
cafe,Brunch,RUMAH MAKAN MULIA,"9JP2+H75, Masiri, Batauga, Kabupaten Buton, Sulawesi Tenggara 93752","Masiri, Batauga, Kabupaten Buton",SULAWESI TENGGARA,93752.0,Indonesia,,,,-5.6141113,122.6009681,https://maps.google.com/?cid=0x0:0x34fc564775378b20,
cafe,Kafe,Buton Punya Kopi Cafe,"GJJF+387, Bukit Wolio Indah, Kec. Wolio, Kota Bau-Bau, Sulawesi Tenggara 93711","Bukit Wolio Indah, Kec. Wolio, Kota Bau-Bau",SULAWESI TENGGARA,93711.0,Indonesia,,,,-5.4698373,122.6232876,https://maps.google.com/?cid=0x0:0x8c7bd05fc0481312,
cafe,Padang,Rm.nusantara,"9JP2+7R9, Unnamed Road, Masiri, Batauga, Kabupaten Buton, Sulawesi Tenggara 93752","Unnamed Road, Masiri, Batauga, Kabupaten Buton",SULAWESI TENGGARA,93752.0,Indonesia,82346228438.0,,,-5.6143328,122.6021165,https://maps.google.com/?cid=0x0:0x75d4994e10cc0fd0,
cafe,Kafe,The Butonese Coffee Shop n' Gallery,"Jl. Murhum No.96, Lamangga, Kec. Murhum, Kota Bau-Bau, Sulawesi Tenggara 93725","Lamangga, Kec. Murhum, Kota Bau-Bau",SULAWESI TENGGARA,93725.0,Indonesia,,,,-5.4683769,122.600861,https://maps.google.com/?cid=0x0:0x5a722dd6f12a5b2c,
cafe,Kedai Kopi,Semira coffee cafe,"GHCR+VR, Baadia, Kec. Murhum, Kota Bau-Bau, Sulawesi Tenggara","Kota Bau-Bau, Sulawesi Tenggara",SULAWESI TENGGARA,,Indonesia,,,,-5.4778188,122.592069,https://maps.google.com/?cid=0x0:0x27fe14b02ad3e6b,
cafe,Kafe,Mangga 2 Hostpot,"GJC2+G68, Jl. Labuke, Baadia, Kec. Murhum, Kota Bau-Bau, Sulawesi Tenggara 93711","Jl. Labuke, Baadia, Kec. Murhum, Kota Bau-Bau",SULAWESI TENGGARA,93711.0,Indonesia,82290720086.0,,,-5.4787017,122.6005727,https://maps.google.com/?cid=0x0:0x9dfd1683d27df29c,
cafe,Komplek perumahan,Fam Tea,"CH5W+JRW, Jl. Gajah Mada, RW.Lingkungan Tuamaruju, Busoa, Batauga, Kabupaten Buton, Sulawesi Tenggara 93752","Jl. Gajah Mada, RW.Lingkungan Tuamaruju, Busoa, Batauga, Kabupaten Buton",SULAWESI TENGGARA,93752.0,Indonesia,,,,-5.5908829,122.5970652,https://maps.google.com/?cid=0x0:0x1b567a3e6cfd7f2f,
cafe,Kedai Kopi,Benteng Cafe,"Jaya Bakti, Kec. Sampolawa, Kabupaten Buton, Sulawesi Tenggara","Kabupaten Buton, Sulawesi Tenggara",SULAWESI TENGGARA,,Indonesia,85352644641.0,,,-5.6310463,122.7014276,https://maps.google.com/?cid=0x0:0x251d8e1a523ff9d5,
cafe,Kafe,88 COFFEE  RESTO,"GH59+5XX, Lipu, Kec. Betoambari, Kota Bau-Bau, Sulawesi Tenggara 93721","Lipu, Kec. Betoambari, Kota Bau-Bau",SULAWESI TENGGARA,93721.0,Indonesia,81315464087.0,,,-5.4920099,122.5699896,https://maps.google.com/?cid=0x0:0xe127b2385d060fc8,
cafe,Kedai Kopi,SUNSET CAFE dan BAR,"Katobengke, Kec. Betoambari, Kota Bau-Bau, Sulawesi Tenggara 93721","Kec. Betoambari, Kota Bau-Bau",SULAWESI TENGGARA,93721.0,Indonesia,81243884804.0,,,-5.4889674,122.5631089,https://maps.google.com/?cid=0x0:0x86b5d74bbca04b70,
cafe,Bar Kopi Espresso,D'BATAS KOTA CAFE,"XF7F+72J, Jl. Poros Bandara Haluoleo, Kota Bangun, Kec. Baruga, Kabupaten Konawe Selatan, Sulawesi Tenggara 93870","Jl. Poros Bandara Haluoleo, Kota Bangun, Kec. Baruga, Kabupaten Konawe Selatan",SULAWESI TENGGARA,93870.0,Indonesia,,,,-4.036759,122.4724806,https://maps.google.com/?cid=0x0:0xb4c0d7de994d519,
cafe,cafe,,,,SULAWESI TENGGARA,,Indonesia,,,,,,https://maps.google.com/?cid=0x0:0xb4c0d7de994d519u0026onu0026midu003d/g/11l6glv76r,
cafe,Kedai Kopi,Batas Kopi,"BTN GRIYA SYAFIKA BLOK K7, Watubangga, Kec. Baruga, Kota Kendari, Sulawesi Tenggara 93116","Watubangga, Kec. Baruga, Kota Kendari",SULAWESI TENGGARA,93116.0,Indonesia,82312222645.0,,,-4.0281231,122.4710491,https://maps.google.com/?cid=0x0:0x4489c459064df326,
cafe,Brunch,RM.SINAR SEJATI,"Unnamed Road, Mawasangka, Kec. Mawasangka, Kabupaten Buton tengah, Sulawesi Tenggara 93762","Mawasangka, Kec. Mawasangka, Kabupaten Buton tengah",SULAWESI TENGGARA,93762.0,Indonesia,82225162565.0,,,-5.2903213,122.2966418,https://maps.google.com/?cid=0x0:0xc44f7b9c97572bc2,
cafe,cafe,Sulawesi Tenggara 93753,"Kabupaten Buton, Sulawesi Tenggara","Kabupaten Buton, Sulawesi Tenggara",SULAWESI TENGGARA,,Indonesia,,,,-5.5916275,122.7858791,https://maps.google.com/?cid=0x0:0x5d5b6b7c1f0a9413,
cafe,Kedai Kopi,Benteng Cafe,"Jaya Bakti, Kec. Sampolawa, Kabupaten Buton, Sulawesi Tenggara","Kabupaten Buton, Sulawesi Tenggara",SULAWESI TENGGARA,,Indonesia,85352644641.0,,,-5.6310463,122.7014276,https://maps.google.com/?cid=0x0:0x251d8e1a523ff9d5,
cafe,Kedai Kopi,Batoe Coffee and Space,"Jl. Raya Banjaran, Batukarut, Kec. Arjasari, Kabupaten Bandung, Jawa Barat 40379","Batukarut, Kec. Arjasari, Kabupaten Bandung",SULAWESI TENGGARA,40379.0,Indonesia,,,,-7.0474137,107.5970099,https://maps.google.com/?cid=0x0:0x1fdf58525b5ef977,
cafe,Kedai Kopi,ATAS Cafe,"76PG+MCC, Jl. Lintas Kalimantan Poros Tengah, Peruan Dalam, Kec. Tayan Hulu, Kabupaten Sanggau, Kalimantan Barat 78562","Jl. Lintas Kalimantan Poros Tengah, Peruan Dalam, Kec. Tayan Hulu, Kabupaten Sanggau",SULAWESI TENGGARA,78562.0,Indonesia,,,,0.2866839,110.2260233,https://maps.google.com/?cid=0x0:0xb85ae9bd06359271,
cafe,Kedai Kopi,L. CLASICC COFFIE,"9Q73+HP8, Gerak Makmur, Kec. Sampolawa, Kabupaten Buton, Sulawesi Tenggara 93753","Gerak Makmur, Kec. Sampolawa, Kabupaten Buton",SULAWESI TENGGARA,93753.0,Indonesia,81349316058.0,,,-5.6367555,122.7543945,https://maps.google.com/?cid=0x0:0x61bd8d012794c04b,
cafe,Kios,Gerai Sun thai,"Gaya Baru, Kec. Lapandewa, Kabupaten Buton, Sulawesi Tenggara 93753","Kec. Lapandewa, Kabupaten Buton",SULAWESI TENGGARA,93753.0,Indonesia,82293607213.0,,,-5.6631619,122.7645587,https://maps.google.com/?cid=0x0:0x63442ea630b68204,
cafe,Kedai Kopi,Teras Rumah coffe,"9Q5M+G6R, Lapandewa Kaindea, Kec. Lapandewa, Kabupaten Buton, Sulawesi Tenggara 93753","Lapandewa Kaindea, Kec. Lapandewa, Kabupaten Buton",SULAWESI TENGGARA,93753.0,Indonesia,82346546209.0,,,-5.6411468,122.7830271,https://maps.google.com/?cid=0x0:0xa13386ab08c52e1f,
cafe,Toko,Coffee mama saya,"FPRX+MPJ, Hendea, Kec. Sampolawa, Kabupaten Buton, Sulawesi Tenggara","Kabupaten Buton, Sulawesi Tenggara",SULAWESI TENGGARA,,Indonesia,,,,-5.5082789,122.7492648,https://maps.google.com/?cid=0x0:0x7061c3f8aaccac7,
cafe,Bangunan Bersejarah,TARAMONDE COFFEE,"9M5W+Q9R, Jl. Poros Batauga, Katilombu, Kec. Sampolawa, Kabupaten Buton, Sulawesi Tenggara","Kabupaten Buton, Sulawesi Tenggara",SULAWESI TENGGARA,,Indonesia,,,,-5.640525,122.6958783,https://maps.google.com/?cid=0x0:0xa01e73a8419807a1,
cafe,Komplek perumahan,BLYSS CAFE,"4GXQ+WRJ, Bumiaji, Kec. Bumiaji, Kota Batu, Jawa Timur","Kota Batu, Jawa Timur",SULAWESI TENGGARA,,Indonesia,,,,-7.850173,112.539522,https://maps.google.com/?cid=0x0:0x42565ce66be67dae,
cafe,Kedai Kopi,Beuja Street Coffee Stand,"Jl. Masjid, RT.1/RW.2, Bumiaji, Kec. Bumiaji, Kota Batu, Jawa Timur 65331","RT.1/RW.2, Bumiaji, Kec. Bumiaji, Kota Batu",SULAWESI TENGGARA,65331.0,Indonesia,81359536272.0,,,-7.8532743,112.5369591,https://maps.google.com/?cid=0x0:0x91caf5a4fcefca6a,
cafe,Biro Jasa Penyewaan Kondominium,Kedai Maimo Beloka,"FP4R+7X7, Jln. Poros, Sandang Pangan, Kec. Sampolawa, Kabupaten Buton, Sulawesi Tenggara","Kabupaten Buton, Sulawesi Tenggara",SULAWESI TENGGARA,,Indonesia,,,,-5.5443268,122.7424322,https://maps.google.com/?cid=0x0:0x18afbfaf3914849c,
cafe,Kedai Kopi,lokasi usaha ebitbalano,"GQGV+JJ5 teletabis, Warinta, Kec. Ps. Wajo, Kabupaten Buton, Sulawesi Tenggara","Kabupaten Buton, Sulawesi Tenggara",SULAWESI TENGGARA,,Indonesia,,,,-5.4734858,122.794119,https://maps.google.com/?cid=0x0:0xca5cc06a24170523,
cafe,Tujuan Wisata,Karamba Resto Gerak Makmur,"9P3W+QM3, Gerak Makmur, Kec. Sampolawa, Kabupaten Buton",Kabupaten Buton,SULAWESI TENGGARA,,Indonesia,,,,-5.645617,122.7466597,https://maps.google.com/?cid=0x0:0x1813fb2db1a0651a,
cafe,Kedai Kopi,Hendea Coffe D Puncak,"Sandang Pangan, Kec. Sampolawa, Kabupaten Buton, Sulawesi Tenggara","Kabupaten Buton, Sulawesi Tenggara",SULAWESI TENGGARA,,Indonesia,81244357371.0,,,-5.5123564,122.7500695,https://maps.google.com/?cid=0x0:0xa4dd1105d31d0342,
cafe,Kafe,Buton Punya Kopi Cafe,"GJJF+387, Bukit Wolio Indah, Kec. Wolio, Kota Bau-Bau, Sulawesi Tenggara 93711","Bukit Wolio Indah, Kec. Wolio, Kota Bau-Bau",SULAWESI TENGGARA,93711.0,Indonesia,,,,-5.4698373,122.6232876,https://maps.google.com/?cid=0x0:0x8c7bd05fc0481312,
cafe,Kedai Kopi,Cattlea Cafe  Resto,"Jl. Batu Tulis Raya No.36, Kb. Klp., Kecamatan Gambir, Kota Jakarta Pusat, Daerah Khusus Ibukota Jakarta 10120","Kb. Klp., Kecamatan Gambir, Kota Jakarta Pusat",SULAWESI TENGGARA,10120.0,Indonesia,8176882400.0,,,-6.1632723,106.8247887,https://maps.google.com/?cid=0x0:0x3c7cba928c2e8a4c,
cafe,Kedai Kopi,Monsieur Cara Cafe,"FRMR+XMP, Jl. Pangeran Limboro, Banabungi, Kec. Ps. Wajo, Kabupaten Buton, Sulawesi Tenggara 93754","Jl. Pangeran Limboro, Banabungi, Kec. Ps. Wajo, Kabupaten Buton",SULAWESI TENGGARA,93754.0,Indonesia,,,,-5.5150273,122.8417002,https://maps.google.com/?cid=0x0:0x92bbf11f419824bb,
cafe,Kedai Kopi,WARUNG FITRA,"9M4W+W52, Jl. Gajah Mada, Katilombu, Kec. Sampolawa, Kabupaten Buton, Sulawesi Tenggara","Kabupaten Buton, Sulawesi Tenggara",SULAWESI TENGGARA,,Indonesia,,,,-5.6427466,122.695395,https://maps.google.com/?cid=0x0:0xa334dea03430c1f4,
cafe,Kafe,MR.JOSH COFFEE  EATERY,"FRVV+FXC, Jl, Kec. Ps. Wajo, Kabupaten Buton, Sulawesi Tenggara","Kabupaten Buton, Sulawesi Tenggara",SULAWESI TENGGARA,,Indonesia,,,,-5.5064479,122.845016,https://maps.google.com/?cid=0x0:0x703ed6265604d61c,
cafe,Kedai Kopi,Kedai kopi Keti-lano,"FPQX+4WJ, Hendea, Kec. Sampolawa, Kabupaten Buton, Sulawesi Tenggara","Kabupaten Buton, Sulawesi Tenggara",SULAWESI TENGGARA,,Indonesia,,,,-5.5121625,122.7497657,https://maps.google.com/?cid=0x0:0xbb87c9aceb929f18,
cafe,cafe,Kec. Kadatua,"Kabupaten Buton, Sulawesi Tenggara","Kabupaten Buton, Sulawesi Tenggara",SULAWESI TENGGARA,,Indonesia,,,,-5.5330522,122.4744908,https://maps.google.com/?cid=0x0:0xa7c55634cc618f76,
cafe,Kedai Kopi,Coffee Nami Dharu Fantastik,"FF8F+HJ8, Kaofe, Kec. Kadatua, Kabupaten Buton, Sulawesi Tenggara 93752","Kaofe, Kec. Kadatua, Kabupaten Buton",SULAWESI TENGGARA,93752.0,Indonesia,,,,-5.5335943,122.4740822,https://maps.google.com/?cid=0x0:0xdc318497ebd17506,
cafe,Kedai Kopi,Warung 2R,"FFJV+HP6, Lipu, Kec. Kadatua, Kabupaten Buton, Sulawesi Tenggara 93752","Lipu, Kec. Kadatua, Kabupaten Buton",SULAWESI TENGGARA,93752.0,Indonesia,81313647180.0,,,-5.5186494,122.4942145,https://maps.google.com/?cid=0x0:0x1b40edd7388c6925,
cafe,Kios,Fika,"CGP3+W59, Kapoa Bar., Kec. Kadatua, Kabupaten Buton, Sulawesi Tenggara","Kabupaten Buton, Sulawesi Tenggara",SULAWESI TENGGARA,,Indonesia,,,,-5.5627247,122.5029886,https://maps.google.com/?cid=0x0:0x809778010228dea8,
cafe,Kedai Kopi,Warkop Bumdes Kapoa,"Kapoa, Kec. Kadatua, Kabupaten Buton, Sulawesi Tenggara","Kabupaten Buton, Sulawesi Tenggara",SULAWESI TENGGARA,,Indonesia,81295078442.0,,,-5.5569101,122.5082841,https://maps.google.com/?cid=0x0:0xb56980a312ca9ac4,
cafe,Toko bahan makanan,Warung Mama Inal,"FF8F+HG3, Marawali, Kec. Kadatua, Kabupaten Buton, Sulawesi Tenggara 93752","Marawali, Kec. Kadatua, Kabupaten Buton",SULAWESI TENGGARA,93752.0,Indonesia,,,,-5.5336052,122.4738044,https://maps.google.com/?cid=0x0:0xf0713066e5413b81,
cafe,Brunch,Nelayan super,"CGQ4+VMH, Kapoa, Kec. Kadatua, Kabupaten Buton, Sulawesi Tenggara","Kabupaten Buton, Sulawesi Tenggara",SULAWESI TENGGARA,,Indonesia,,,,-5.5603027,122.5067321,https://maps.google.com/?cid=0x0:0x70b40846ae072367,
cafe,Restoran,Rumah Makan Syahrial,"FFGQ+R73, Lipu, Kec. Kadatua, Kabupaten Buton, Sulawesi Tenggara","Kabupaten Buton, Sulawesi Tenggara",SULAWESI TENGGARA,,Indonesia,,,,-5.5229815,122.4881665,https://maps.google.com/?cid=0x0:0x117f9a7965cb2cbd,
cafe,cafe,Sulawesi Tenggara 93752,"Kabupaten Buton, Sulawesi Tenggara","Kabupaten Buton, Sulawesi Tenggara",SULAWESI TENGGARA,,Indonesia,,,,-5.6000771,122.650351,https://maps.google.com/?cid=0x0:0x1c436516d6448e13,
cafe,cafe,Pulau Kadatung,"Kec. Kadatua, Kabupaten Buton, Sulawesi Tenggara","Kabupaten Buton, Sulawesi Tenggara",SULAWESI TENGGARA,,Indonesia,,,,-5.5326997,122.497668,https://maps.google.com/?cid=0x0:0xcdcbc13870c26f6d,
cafe,Kedai Kopi,Rumah pojok Lapandewa,"9Q4P+25M, Roda, Jaya, Kec. Lapandewa, Kabupaten Buton, Sulawesi Tenggara 93753","Roda, Jaya, Kec. Lapandewa, Kabupaten Buton",SULAWESI TENGGARA,93753.0,Indonesia,81340338695.0,,,-5.6449228,122.7854171,https://maps.google.com/?cid=0x0:0x17ebabdbeada9935,
cafe,Kedai Kopi,Teras Rumah coffe,"9Q5M+G6R, Lapandewa Kaindea, Kec. Lapandewa, Kabupaten Buton, Sulawesi Tenggara 93753","Lapandewa Kaindea, Kec. Lapandewa, Kabupaten Buton",SULAWESI TENGGARA,93753.0,Indonesia,82346546209.0,,,-5.6411468,122.7830271,https://maps.google.com/?cid=0x0:0xa13386ab08c52e1f,
cafe,Kedai Kopi,Lace Cafe,"Jl. Raya Cilangkap, RT.4/RW.2, Cilangkap, Kec. Cipayung, Kota Jakarta Timur, Daerah Khusus Ibukota Jakarta 13870","RT.4/RW.2, Cilangkap, Kec. Cipayung, Kota Jakarta Timur",SULAWESI TENGGARA,13870.0,Indonesia,85880024542.0,,,-6.3409875,106.9044316,https://maps.google.com/?cid=0x0:0x98fb6fd8013eea5c,
cafe,Kios,Gerai Sun thai,"Gaya Baru, Kec. Lapandewa, Kabupaten Buton, Sulawesi Tenggara 93753","Kec. Lapandewa, Kabupaten Buton",SULAWESI TENGGARA,93753.0,Indonesia,82293607213.0,,,-5.6631619,122.7645587,https://maps.google.com/?cid=0x0:0x63442ea630b68204,
cafe,Rumah Makan,Lakaliba,"8QRJ+43H, Gaya Baru, desa lakaliba, Kec. Lapandewa, Kabupaten Buton, Sulawesi Tenggara 93753","Gaya Baru, desa lakaliba, Kec. Lapandewa, Kabupaten Buton",SULAWESI TENGGARA,93753.0,Indonesia,82293417301.0,,,-5.6605754,122.765172,https://maps.google.com/?cid=0x0:0x49e3e2efb0caa31b,
cafe,cafe,Warung Makan Jaya Rasa,"8QXQ+F86, Jaya, Kec. Lapandewa, Kabupaten Buton, Sulawesi Tenggara 93753","Jaya, Kec. Lapandewa, Kabupaten Buton",SULAWESI TENGGARA,93753.0,Indonesia,,,,-5.6513254,122.7882698,https://maps.google.com/?cid=0x0:0x7a33cca4aa072150,
cafe,Kafe,Warkop LORPAS Wandaka,"Bangkudu, Kec. Kulisusu, Kabupaten Buton Utara, Sulawesi Tenggara 93672","Kec. Kulisusu, Kabupaten Buton Utara",SULAWESI TENGGARA,93672.0,Indonesia,,,,-4.7792173,123.1735613,https://maps.google.com/?cid=0x0:0x70aac68eec44d0de,
cafe,Kafe,Kopi daerah cafe,"Lasusua, Kec. Lasusua, Kabupaten Kolaka Utara, Sulawesi Tenggara 93914","Kec. Lasusua, Kabupaten Kolaka Utara",SULAWESI TENGGARA,93914.0,Indonesia,8114053553.0,,,-3.5072341,120.8881014,https://maps.google.com/?cid=0x0:0xea0cef50091568c4,
cafe,cafe,Lapandewa,"Kec. Lapandewa, Kabupaten Buton, Sulawesi Tenggara","Kabupaten Buton, Sulawesi Tenggara",SULAWESI TENGGARA,,Indonesia,,,,-5.5950795,122.8028074,https://maps.google.com/?cid=0x0:0x6ff5a1676f28f9a7,
cafe,Kantor Perusahaan,jefri edi wilson wewen andreas,"9RR6+45, Lapandewa, Kec. Lapandewa, Kabupaten Buton, Sulawesi Tenggara","Kabupaten Buton, Sulawesi Tenggara",SULAWESI TENGGARA,,Indonesia,,,,-5.6097032,122.8103856,https://maps.google.com/?cid=0x0:0x4aa220a2554f164a,
cafe,cafe,Sulawesi Tenggara 93753,"Kabupaten Buton, Sulawesi Tenggara","Kabupaten Buton, Sulawesi Tenggara",SULAWESI TENGGARA,,Indonesia,,,,-5.5916275,122.7858791,https://maps.google.com/?cid=0x0:0x5d5b6b7c1f0a9413,
cafe,Kedai Kopi,Benteng Cafe,"Jaya Bakti, Kec. Sampolawa, Kabupaten Buton, Sulawesi Tenggara","Kabupaten Buton, Sulawesi Tenggara",SULAWESI TENGGARA,,Indonesia,85352644641.0,,,-5.6310463,122.7014276,https://maps.google.com/?cid=0x0:0x251d8e1a523ff9d5,
cafe,Kedai Kopi,L. CLASICC COFFIE,"9Q73+HP8, Gerak Makmur, Kec. Sampolawa, Kabupaten Buton, Sulawesi Tenggara 93753","Gerak Makmur, Kec. Sampolawa, Kabupaten Buton",SULAWESI TENGGARA,93753.0,Indonesia,81349316058.0,,,-5.6367555,122.7543945,https://maps.google.com/?cid=0x0:0x61bd8d012794c04b,
cafe,Toko,Coffee mama saya,"FPRX+MPJ, Hendea, Kec. Sampolawa, Kabupaten Buton, Sulawesi Tenggara","Kabupaten Buton, Sulawesi Tenggara",SULAWESI TENGGARA,,Indonesia,,,,-5.5082789,122.7492648,https://maps.google.com/?cid=0x0:0x7061c3f8aaccac7,
cafe,Kedai Kopi,WARUNG FITRA,"9M4W+W52, Jl. Gajah Mada, Katilombu, Kec. Sampolawa, Kabupaten Buton, Sulawesi Tenggara","Kabupaten Buton, Sulawesi Tenggara",SULAWESI TENGGARA,,Indonesia,,,,-5.6427466,122.695395,https://maps.google.com/?cid=0x0:0xa334dea03430c1f4,
cafe,Kedai Kopi,Hendea Coffe D Puncak,"Sandang Pangan, Kec. Sampolawa, Kabupaten Buton, Sulawesi Tenggara","Kabupaten Buton, Sulawesi Tenggara",SULAWESI TENGGARA,,Indonesia,81244357371.0,,,-5.5123564,122.7500695,https://maps.google.com/?cid=0x0:0xa4dd1105d31d0342,
cafe,Kedai Kopi,Kedai kopi Keti-lano,"FPQX+4WJ, Hendea, Kec. Sampolawa, Kabupaten Buton, Sulawesi Tenggara","Kabupaten Buton, Sulawesi Tenggara",SULAWESI TENGGARA,,Indonesia,,,,-5.5121625,122.7497657,https://maps.google.com/?cid=0x0:0xbb87c9aceb929f18,
cafe,Kios,Gerai Sun thai,"Gaya Baru, Kec. Lapandewa, Kabupaten Buton, Sulawesi Tenggara 93753","Kec. Lapandewa, Kabupaten Buton",SULAWESI TENGGARA,93753.0,Indonesia,82293607213.0,,,-5.6631619,122.7645587,https://maps.google.com/?cid=0x0:0x63442ea630b68204,
cafe,Tujuan Wisata,Karamba Resto Gerak Makmur,"9P3W+QM3, Gerak Makmur, Kec. Sampolawa, Kabupaten Buton",Kabupaten Buton,SULAWESI TENGGARA,,Indonesia,,,,-5.645617,122.7466597,https://maps.google.com/?cid=0x0:0x1813fb2db1a0651a,
cafe,Biro Jasa Penyewaan Kondominium,Kedai Maimo Beloka,"FP4R+7X7, Jln. Poros, Sandang Pangan, Kec. Sampolawa, Kabupaten Buton, Sulawesi Tenggara","Kabupaten Buton, Sulawesi Tenggara",SULAWESI TENGGARA,,Indonesia,,,,-5.5443268,122.7424322,https://maps.google.com/?cid=0x0:0x18afbfaf3914849c,
cafe,Kafe,Buton Punya Kopi Cafe,"GJJF+387, Bukit Wolio Indah, Kec. Wolio, Kota Bau-Bau, Sulawesi Tenggara 93711","Bukit Wolio Indah, Kec. Wolio, Kota Bau-Bau",SULAWESI TENGGARA,93711.0,Indonesia,,,,-5.4698373,122.6232876,https://maps.google.com/?cid=0x0:0x8c7bd05fc0481312,
cafe,Brunch,Dapur Beauty Neng Wati,"9PG4+9Q8, Jaya Bakti, Kec. Sampolawa, Kabupaten Buton, Sulawesi Tenggara","Kabupaten Buton, Sulawesi Tenggara",SULAWESI TENGGARA,,Indonesia,82292327217.0,,,-5.6240952,122.7069434,https://maps.google.com/?cid=0x0:0x44d65bfa0fd86970,
cafe,Kafe,MR.JOSH COFFEE  EATERY,"FRVV+FXC, Jl, Kec. Ps. Wajo, Kabupaten Buton, Sulawesi Tenggara","Kabupaten Buton, Sulawesi Tenggara",SULAWESI TENGGARA,,Indonesia,,,,-5.5064479,122.845016,https://maps.google.com/?cid=0x0:0x703ed6265604d61c,
cafe,Agen Properti,BUKIT LANDE INDAH,"9Q73+HP8, Gerak Makmur, Kec. Sampolawa, Kabupaten Buton, Sulawesi Tenggara 93753","Gerak Makmur, Kec. Sampolawa, Kabupaten Buton",SULAWESI TENGGARA,93753.0,Indonesia,,,,-5.6373044,122.7552837,https://maps.google.com/?cid=0x0:0x64ccabaea50d5c23,
cafe,Kedai Kopi,Warung kopi nurlan,"9P92+24C, Jl. Poros Batauga, Jaya Bakti, Kec. Sampolawa, Kabupaten Buton, Sulawesi Tenggara","Kabupaten Buton, Sulawesi Tenggara",SULAWESI TENGGARA,,Indonesia,,,,-5.6324444,122.7002746,https://maps.google.com/?cid=0x0:0xe726192e3b61ceaa,
cafe,Kedai Kopi,Caffe Bambu Kuning,"9M8X+RWP, Jaya Bakti, Kec. Sampolawa, Kabupaten Buton, Sulawesi Tenggara","Kabupaten Buton, Sulawesi Tenggara",SULAWESI TENGGARA,,Indonesia,85280459918.0,,,-5.6328347,122.699849,https://maps.google.com/?cid=0x0:0x6f23010c7910c63d,
cafe,Kedai Kopi,Monsieur Cara Cafe,"FRMR+XMP, Jl. Pangeran Limboro, Banabungi, Kec. Ps. Wajo, Kabupaten Buton, Sulawesi Tenggara 93754","Jl. Pangeran Limboro, Banabungi, Kec. Ps. Wajo, Kabupaten Buton",SULAWESI TENGGARA,93754.0,Indonesia,,,,-5.5150273,122.8417002,https://maps.google.com/?cid=0x0:0x92bbf11f419824bb,
cafe,Ayam,Ayam crispy,"8P97+FPQ, Unnamed Road, Bahari, Kec. Sampolawa, Kabupaten Buton, Sulawesi Tenggara 93753","Unnamed Road, Bahari, Kec. Sampolawa, Kabupaten Buton",SULAWESI TENGGARA,93753.0,Indonesia,81342414064.0,,,-5.6813024,122.7143937,https://maps.google.com/?cid=0x0:0xb7579ca68fa11451,
cafe,Kedai Kopi,Teras Rumah coffe,"9Q5M+G6R, Lapandewa Kaindea, Kec. Lapandewa, Kabupaten Buton, Sulawesi Tenggara 93753","Lapandewa Kaindea, Kec. Lapandewa, Kabupaten Buton",SULAWESI TENGGARA,93753.0,Indonesia,82346546209.0,,,-5.6411468,122.7830271,https://maps.google.com/?cid=0x0:0xa13386ab08c52e1f,
cafe,cafe,A/ Warkop Az-Zahra Wakoea,"FQH2+W9, Sandang Pangan, Kec. Sampolawa, Kabupaten Buton, Sulawesi Tenggara","Kabupaten Buton, Sulawesi Tenggara",SULAWESI TENGGARA,,Indonesia,82238580203.0,,,-5.5201345,122.7509305,https://maps.google.com/?cid=0x0:0x4a093ae59299de7d,
cafe,Kedai Kopi,BOOBA PHINAMIPO,"Jl. Ra. Kartini, Kambula Mbulana, Kec. Ps. Wajo, Kabupaten Buton, Sulawesi Tenggara 93754","Kambula Mbulana, Kec. Ps. Wajo, Kabupaten Buton",SULAWESI TENGGARA,93754.0,Indonesia,82215847230.0,,,-5.4971116,122.8452346,https://maps.google.com/?cid=0x0:0x65788419ea4259fc,
cafe,Restoran,Cafe Pondok Bambu,"GVC2+6RW, Saragi, Kec. Ps. Wajo, Kabupaten Buton, Sulawesi Tenggara","Kabupaten Buton, Sulawesi Tenggara",SULAWESI TENGGARA,,Indonesia,,,,-5.4793958,122.8520776,https://maps.google.com/?cid=0x0:0x572436ae055986dc,
cafe,Pasar,Anes Coffee Kaongkeongkea,"GQH3+9RJ, Wakaokili, Kec. Ps. Wajo, Kabupaten Buton, Sulawesi Tenggara 93757","Wakaokili, Kec. Ps. Wajo, Kabupaten Buton",SULAWESI TENGGARA,93757.0,Indonesia,85240063003.0,,,-5.4715304,122.7545013,https://maps.google.com/?cid=0x0:0x844a7e8f54e1caac,
cafe,Kedai Kopi,Puncak Cahaya Windu,"9Q73+2G4, Gerak Makmur, Kec. Sampolawa, Kabupaten Buton, Sulawesi Tenggara","Kabupaten Buton, Sulawesi Tenggara",SULAWESI TENGGARA,,Indonesia,82211004517.0,,,-5.6374772,122.7538423,https://maps.google.com/?cid=0x0:0xf1c705abc2a8ad3e,
cafe,Kedai Kopi,Rumah pojok Lapandewa,"9Q4P+25M, Roda, Jaya, Kec. Lapandewa, Kabupaten Buton, Sulawesi Tenggara 93753","Roda, Jaya, Kec. Lapandewa, Kabupaten Buton",SULAWESI TENGGARA,93753.0,Indonesia,81340338695.0,,,-5.6449228,122.7854171,https://maps.google.com/?cid=0x0:0x17ebabdbeada9935,
cafe,cafe,Kec. Siompu,"Kabupaten Buton, Sulawesi Tenggara","Kabupaten Buton, Sulawesi Tenggara",SULAWESI TENGGARA,,Indonesia,,,,-5.6304618,122.5254693,https://maps.google.com/?cid=0x0:0x2718691e607a701,
cafe,Sarapan,RM Siompu,"Jl. Gajah Mada No.648, Masiri, Batauga, Kabupaten Buton, Sulawesi Tenggara 93752","Masiri, Batauga, Kabupaten Buton",SULAWESI TENGGARA,93752.0,Indonesia,82320519177.0,,,-5.6082701,122.5978112,https://maps.google.com/?cid=0x0:0xda7150d09ec6bf7d,
cafe,Kedai Kopi,Cafe Mustika,"8FFW+8Q9, Jl. Poros Siompu, Lalole, Kec. Siompu Bar., Kabupaten Buton, Sulawesi Tenggara 93752","Jl. Poros Siompu, Lalole, Kec. Siompu Bar., Kabupaten Buton",SULAWESI TENGGARA,93752.0,Indonesia,,,,-5.6767203,122.4969783,https://maps.google.com/?cid=0x0:0x32b89d6cdad4c2a7,
cafe,Kafe,KEDAI CAMCAM FOOD,"8FCC+4RP, Jl. Kabawo, Watuampara, Kec. Siompu Bar., Kabupaten Buton, Sulawesi Tenggara 93752","Jl. Kabawo, Watuampara, Kec. Siompu Bar., Kabupaten Buton",SULAWESI TENGGARA,93752.0,Indonesia,85220879571.0,,,-5.6793774,122.4721681,https://maps.google.com/?cid=0x0:0xa33c34b548d60e58,
cafe,Kafe,Kopi Pastea Siompu Barat,"Jl. Kabawo, Watuampara, Kec. Siompu Bar., Kabupaten Buton, Sulawesi Tenggara 93752","Watuampara, Kec. Siompu Bar., Kabupaten Buton",SULAWESI TENGGARA,93752.0,Indonesia,85292222721.0,,,-5.6801062,122.4716313,https://maps.google.com/?cid=0x0:0x8743fb7a04db1201,
cafe,Kios,Pasar wisata kuliner,"8HR4+36F, Lontoi, Kec. Siompu, Kabupaten Buton, Sulawesi Tenggara","Kabupaten Buton, Sulawesi Tenggara",SULAWESI TENGGARA,,Indonesia,,,,-5.659823,122.5555604,https://maps.google.com/?cid=0x0:0xf7025b2334c275f7,
cafe,Kedai Kopi,Yuuu,"8FFG+V28, Watuampara, Kec. Siompu Bar., Kabupaten Buton, Sulawesi Tenggara 93752","Watuampara, Kec. Siompu Bar., Kabupaten Buton",SULAWESI TENGGARA,93752.0,Indonesia,,,,-5.675531,122.47435,https://maps.google.com/?cid=0x0:0x67e245d9bf9654d7,
cafe,Komplek perumahan,Molona Cafe  Resto,"8F6G+6RP, Molona, Kec. Siompu Bar., Kabupaten Buton, Sulawesi Tenggara","Kabupaten Buton, Sulawesi Tenggara",SULAWESI TENGGARA,,Indonesia,,,,-5.6894138,122.4770867,https://maps.google.com/?cid=0x0:0x3fe15be8a9eebf81,
cafe,Kedai Kopi,Uwais Al qorni,"8F5M+PH8, Jl. Poros, Katampe, Kec. Siompu Bar., Kabupaten Buton, Sulawesi Tenggara 93752","Jl. Poros, Katampe, Kec. Siompu Bar., Kabupaten Buton",SULAWESI TENGGARA,93752.0,Indonesia,85212263930.0,,,-5.6907183,122.4839483,https://maps.google.com/?cid=0x0:0xfca4cae691f68519,
cafe,Kedai Kopi,A!G0,"8F4J+XMF, Jl. Daeng, Molona, Kec. Siompu Bar., Kabupaten Buton, Sulawesi Tenggara","Kabupaten Buton, Sulawesi Tenggara",SULAWESI TENGGARA,,Indonesia,81340521852.0,,,-5.6925639,122.4816749,https://maps.google.com/?cid=0x0:0xccf062e92a81f5fb,
cafe,Bar,Siompu barat,"8F5J+MJX, Jl. La Laja, Molona, Kec. Siompu Bar., Kabupaten Buton, Sulawesi Tenggara 93752","Jl. La Laja, Molona, Kec. Siompu Bar., Kabupaten Buton",SULAWESI TENGGARA,93752.0,Indonesia,,,,-5.6906618,122.4815127,https://maps.google.com/?cid=0x0:0x22951cc20102d415,
cafe,Brunch,Warung Makan Taufik,"8F5J+FFC, Molona, Kec. Siompu Bar., Kabupaten Buton, Sulawesi Tenggara","Kabupaten Buton, Sulawesi Tenggara",SULAWESI TENGGARA,,Indonesia,,,,-5.6913085,122.4811498,https://maps.google.com/?cid=0x0:0xb5799959b7b17661,
cafe,Kafe,Kopi Pastea.id - MOLONA Siompu Barat,"Jl. Poros, Molona, Kec. Siompu Bar., Kabupaten Buton, Sulawesi Tenggara 93722","Molona, Kec. Siompu Bar., Kabupaten Buton",SULAWESI TENGGARA,93722.0,Indonesia,85292222721.0,,,-5.6906497,122.479685,https://maps.google.com/?cid=0x0:0x5d40e5392daa8280,
cafe,Komplek perumahan,"Sevan, Komplek Welalo.","8F5J+FWJ, Molona, Kec. Siompu Bar., Kabupaten Buton, Sulawesi Tenggara","Kabupaten Buton, Sulawesi Tenggara",SULAWESI TENGGARA,,Indonesia,85235063336.0,,,-5.6912849,122.4822603,https://maps.google.com/?cid=0x0:0x72fc0b6743716f66,
cafe,Rumah Makan,Kantin family,"8F2R+FMF, Lamaninggara, Kec. Siompu Bar., Kabupaten Buton, Sulawesi Tenggara","Kabupaten Buton, Sulawesi Tenggara",SULAWESI TENGGARA,,Indonesia,,,,-5.698815,122.4916765,https://maps.google.com/?cid=0x0:0xe0c2148eab3b0f96,
cafe,Restoran,Dapoer Eyang,"Dusun padangkuku, Kec. Siompu Bar., Kabupaten Buton, Sulawesi Tenggara 93744","Kec. Siompu Bar., Kabupaten Buton",SULAWESI TENGGARA,93744.0,Indonesia,81324541808.0,,,-5.691661,122.4812671,https://maps.google.com/?cid=0x0:0x9e384bdd6de5cc7e,
cafe,Kedai Kopi,Keday suban,"H3JF+Q2, Manuru, Kec. Siontapina, Kabupaten Buton, Sulawesi Tenggara","Kabupaten Buton, Sulawesi Tenggara",SULAWESI TENGGARA,,Indonesia,81344111316.0,,,-5.418039,123.072595,https://maps.google.com/?cid=0x0:0x474839ebedf75457,
cafe,Kedai Kopi,BOOBA PHINAMIPO,"Jl. Ra. Kartini, Kambula Mbulana, Kec. Ps. Wajo, Kabupaten Buton, Sulawesi Tenggara 93754","Kambula Mbulana, Kec. Ps. Wajo, Kabupaten Buton",SULAWESI TENGGARA,93754.0,Indonesia,82215847230.0,,,-5.4971116,122.8452346,https://maps.google.com/?cid=0x0:0x65788419ea4259fc,
cafe,Rumah Makan,Rumah Makan Singgah Mbak Wiwin,"8GG4+J6X, Jl. Poros Siompu, Lalole, Kec. Siompu Bar., Kabupaten Buton, Sulawesi Tenggara 93752","Jl. Poros Siompu, Lalole, Kec. Siompu Bar., Kabupaten Buton",SULAWESI TENGGARA,93752.0,Indonesia,,,,-5.6733837,122.5055965,https://maps.google.com/?cid=0x0:0xb1ed2d54702b6649,
cafe,Es Krim,Es teler,"8FCF+544, Watuampara, Kec. Siompu Bar., Kabupaten Buton, Sulawesi Tenggara 93752","Watuampara, Kec. Siompu Bar., Kabupaten Buton",SULAWESI TENGGARA,93752.0,Indonesia,,,,-5.6786429,122.4730623,https://maps.google.com/?cid=0x0:0x35dd38525af4dc6f,
cafe,Komplek perumahan,Rumah Karlos,"8GV6+JFW, Wakinamboro, Kec. Siompu, Kabupaten Buton, Sulawesi Tenggara","Kabupaten Buton, Sulawesi Tenggara",SULAWESI TENGGARA,,Indonesia,,,,-5.6558978,122.5112043,https://maps.google.com/?cid=0x0:0xe9990e46d8fd9c0b,
cafe,cafe,Rumah Wulan dan Dian,"8GH4+HX2, Biwinapada, Kec. Siompu, Kabupaten Buton, Sulawesi Tenggara 93752","Biwinapada, Kec. Siompu, Kabupaten Buton",SULAWESI TENGGARA,93752.0,Indonesia,,,,-5.671902,122.5077815,https://maps.google.com/?cid=0x0:0x39965e83cb53b8e8,
cafe,cafe,Tinus Cafe,"8GG4+M8F, Unnamed Road, Lalole, Kec. Siompu Bar., Kabupaten Buton, Sulawesi Tenggara 93752","Unnamed Road, Lalole, Kec. Siompu Bar., Kabupaten Buton",SULAWESI TENGGARA,93752.0,Indonesia,,,,-5.6733004,122.5057981,https://maps.google.com/?cid=0x0:0xab1fbbebc3e057d,
cafe,cafe,Kec. Siompu Bar.,"Kabupaten Buton, Sulawesi Tenggara","Kabupaten Buton, Sulawesi Tenggara",SULAWESI TENGGARA,,Indonesia,,,,-5.6899378,122.4818486,https://maps.google.com/?cid=0x0:0xdc7d5a3172232e78,
cafe,Kedai Kopi,Cafe Mustika,"8FFW+8Q9, Jl. Poros Siompu, Lalole, Kec. Siompu Bar., Kabupaten Buton, Sulawesi Tenggara 93752","Jl. Poros Siompu, Lalole, Kec. Siompu Bar., Kabupaten Buton",SULAWESI TENGGARA,93752.0,Indonesia,,,,-5.6767203,122.4969783,https://maps.google.com/?cid=0x0:0x32b89d6cdad4c2a7,
cafe,Kedai Kopi,Cafee wulea,"Lalole, Kec. Siompu Bar., Kabupaten Buton, Sulawesi Tenggara 93752","Kec. Siompu Bar., Kabupaten Buton",SULAWESI TENGGARA,93752.0,Indonesia,,,,-5.68124,122.4876805,https://maps.google.com/?cid=0x0:0x9addc2cf1cc96c1,
cafe,Bar,Siompu barat,"8F5J+MJX, Jl. La Laja, Molona, Kec. Siompu Bar., Kabupaten Buton, Sulawesi Tenggara 93752","Jl. La Laja, Molona, Kec. Siompu Bar., Kabupaten Buton",SULAWESI TENGGARA,93752.0,Indonesia,,,,-5.6906618,122.4815127,https://maps.google.com/?cid=0x0:0x22951cc20102d415,
cafe,Sarapan,RM Siompu,"Jl. Gajah Mada No.648, Masiri, Batauga, Kabupaten Buton, Sulawesi Tenggara 93752","Masiri, Batauga, Kabupaten Buton",SULAWESI TENGGARA,93752.0,Indonesia,82320519177.0,,,-5.6082701,122.5978112,https://maps.google.com/?cid=0x0:0xda7150d09ec6bf7d,
cafe,Kafe,KEDAI CAMCAM FOOD,"8FCC+4RP, Jl. Kabawo, Watuampara, Kec. Siompu Bar., Kabupaten Buton, Sulawesi Tenggara 93752","Jl. Kabawo, Watuampara, Kec. Siompu Bar., Kabupaten Buton",SULAWESI TENGGARA,93752.0,Indonesia,85220879571.0,,,-5.6793774,122.4721681,https://maps.google.com/?cid=0x0:0xa33c34b548d60e58,
cafe,Komplek perumahan,Molona Cafe  Resto,"8F6G+6RP, Molona, Kec. Siompu Bar., Kabupaten Buton, Sulawesi Tenggara","Kabupaten Buton, Sulawesi Tenggara",SULAWESI TENGGARA,,Indonesia,,,,-5.6894138,122.4770867,https://maps.google.com/?cid=0x0:0x3fe15be8a9eebf81,
cafe,Brunch,Warung Makan Taufik,"8F5J+FFC, Molona, Kec. Siompu Bar., Kabupaten Buton, Sulawesi Tenggara","Kabupaten Buton, Sulawesi Tenggara",SULAWESI TENGGARA,,Indonesia,,,,-5.6913085,122.4811498,https://maps.google.com/?cid=0x0:0xb5799959b7b17661,
cafe,Kedai Kopi,Yuuu,"8FFG+V28, Watuampara, Kec. Siompu Bar., Kabupaten Buton, Sulawesi Tenggara 93752","Watuampara, Kec. Siompu Bar., Kabupaten Buton",SULAWESI TENGGARA,93752.0,Indonesia,,,,-5.675531,122.47435,https://maps.google.com/?cid=0x0:0x67e245d9bf9654d7,
cafe,Kedai Kopi,Uwais Al qorni,"8F5M+PH8, Jl. Poros, Katampe, Kec. Siompu Bar., Kabupaten Buton, Sulawesi Tenggara 93752","Jl. Poros, Katampe, Kec. Siompu Bar., Kabupaten Buton",SULAWESI TENGGARA,93752.0,Indonesia,85212263930.0,,,-5.6907183,122.4839483,https://maps.google.com/?cid=0x0:0xfca4cae691f68519,
cafe,Kedai Kopi,A!G0,"8F4J+XMF, Jl. Daeng, Molona, Kec. Siompu Bar., Kabupaten Buton, Sulawesi Tenggara","Kabupaten Buton, Sulawesi Tenggara",SULAWESI TENGGARA,,Indonesia,81340521852.0,,,-5.6925639,122.4816749,https://maps.google.com/?cid=0x0:0xccf062e92a81f5fb,
cafe,Kafe,Kopi Pastea.id - MOLONA Siompu Barat,"Jl. Poros, Molona, Kec. Siompu Bar., Kabupaten Buton, Sulawesi Tenggara 93722","Molona, Kec. Siompu Bar., Kabupaten Buton",SULAWESI TENGGARA,93722.0,Indonesia,85292222721.0,,,-5.6906497,122.479685,https://maps.google.com/?cid=0x0:0x5d40e5392daa8280,
cafe,Komplek perumahan,"Sevan, Komplek Welalo.","8F5J+FWJ, Molona, Kec. Siompu Bar., Kabupaten Buton, Sulawesi Tenggara","Kabupaten Buton, Sulawesi Tenggara",SULAWESI TENGGARA,,Indonesia,85235063336.0,,,-5.6912849,122.4822603,https://maps.google.com/?cid=0x0:0x72fc0b6743716f66,
cafe,Rumah Makan,Kantin family,"8F2R+FMF, Lamaninggara, Kec. Siompu Bar., Kabupaten Buton, Sulawesi Tenggara","Kabupaten Buton, Sulawesi Tenggara",SULAWESI TENGGARA,,Indonesia,,,,-5.698815,122.4916765,https://maps.google.com/?cid=0x0:0xe0c2148eab3b0f96,
cafe,Restoran,Dapoer Eyang,"Dusun padangkuku, Kec. Siompu Bar., Kabupaten Buton, Sulawesi Tenggara 93744","Kec. Siompu Bar., Kabupaten Buton",SULAWESI TENGGARA,93744.0,Indonesia,81324541808.0,,,-5.691661,122.4812671,https://maps.google.com/?cid=0x0:0x9e384bdd6de5cc7e,
cafe,Rumah Makan,Rumah Makan Singgah Mbak Wiwin,"8GG4+J6X, Jl. Poros Siompu, Lalole, Kec. Siompu Bar., Kabupaten Buton, Sulawesi Tenggara 93752","Jl. Poros Siompu, Lalole, Kec. Siompu Bar., Kabupaten Buton",SULAWESI TENGGARA,93752.0,Indonesia,,,,-5.6733837,122.5055965,https://maps.google.com/?cid=0x0:0xb1ed2d54702b6649,
cafe,cafe,Rumah Wulan dan Dian,"8GH4+HX2, Biwinapada, Kec. Siompu, Kabupaten Buton, Sulawesi Tenggara 93752","Biwinapada, Kec. Siompu, Kabupaten Buton",SULAWESI TENGGARA,93752.0,Indonesia,,,,-5.671902,122.5077815,https://maps.google.com/?cid=0x0:0x39965e83cb53b8e8,
cafe,Es Krim,Es teler,"8FCF+544, Watuampara, Kec. Siompu Bar., Kabupaten Buton, Sulawesi Tenggara 93752","Watuampara, Kec. Siompu Bar., Kabupaten Buton",SULAWESI TENGGARA,93752.0,Indonesia,,,,-5.6786429,122.4730623,https://maps.google.com/?cid=0x0:0x35dd38525af4dc6f,
cafe,Komplek perumahan,Rumah Karlos,"8GV6+JFW, Wakinamboro, Kec. Siompu, Kabupaten Buton, Sulawesi Tenggara","Kabupaten Buton, Sulawesi Tenggara",SULAWESI TENGGARA,,Indonesia,,,,-5.6558978,122.5112043,https://maps.google.com/?cid=0x0:0xe9990e46d8fd9c0b,
cafe,cafe,Ayam Geprek Mama Farel,"8F6H+7MM, samping puskesmas, Molona, Kec. Siompu Bar., Kabupaten Buton, Sulawesi Tenggara","Kabupaten Buton, Sulawesi Tenggara",SULAWESI TENGGARA,,Indonesia,,,,-5.6892815,122.479172,https://maps.google.com/?cid=0x0:0x185191f1513a6208,
