Category,Real Category,Business Name,Address,City,State,Postal Code,Country,Phone,Email,Website,Latitude,Longitude,Map Link,Details Link
building materials,building materials,Sulawesi Tenggara 93752,"Kabupaten Buton, Sulawesi Tenggara","Kabupaten Buton, Sulawesi Tenggara",SULAWESI TENGGARA,,Indonesia,,,,-5.6000771,122.650351,https://maps.google.com/?cid=0x0:0x1c436516d6448e13,
building materials,Toko Bahan Bangunan,Toko Tunas Karya,"lingkungan kelurahan No.1, Laompo, Batauga, Kabupaten Buton, Sulawesi Tenggara 93752","Laompo, Batauga, Kabupaten Buton",SULAWESI TENGGARA,93752.0,Indonesia,85394331595.0,,,-5.6139928,122.6037674,https://maps.google.com/?cid=0x0:0x95b6404fb233c1f2,
building materials,Toko Bahan Bangunan,CV. SINAR MAKMUR,"9J8M+V9R, Majapahit, Batauga, Kabupaten Buton, Sulawesi Tenggara","Kabupaten Buton, Sulawesi Tenggara",SULAWESI TENGGARA,,Indonesia,,,,-5.6327668,122.6333973,https://maps.google.com/?cid=0x0:0x4cc92e7dcd7abbdf,
building materials,Minimarket,Toko Kios Magari,"Lingkungan Uwe Magari No.Kelurahan, Laompo, Batauga, Kabupaten Buton, Sulawesi Tenggara","Kabupaten Buton, Sulawesi Tenggara",SULAWESI TENGGARA,,Indonesia,,,,-5.62089,122.607349,https://maps.google.com/?cid=0x0:0xe91327490d9fce83,
building materials,Toko Bahan Bangunan,JOGJA Bangunan Baubau,"Jl. Dayanu Ikhsanuddin No.27, Sulaa, Kec. Betoambari, Kota Bau-Bau, Sulawesi Tenggara","Kota Bau-Bau, Sulawesi Tenggara",SULAWESI TENGGARA,,Indonesia,,,,-5.5004173,122.5625364,https://maps.google.com/?cid=0x0:0xed3d249d1787046f,
building materials,Pasar bahan bangunan,Intan Building Center,"Jl. Budi Utomo No.90, Bataraguru, Kec. Wolio, Kota Bau-Bau, Sulawesi Tenggara 93717","Bataraguru, Kec. Wolio, Kota Bau-Bau",SULAWESI TENGGARA,93717.0,Indonesia,82292888886.0,,,-5.4658703,122.607269,https://maps.google.com/?cid=0x0:0xdd0e5cfd517f12e5,
building materials,Toko Bahan Bangunan,Kios Salju,"8MJ4+XCR, Poogalampa, Batauga, Kabupaten Buton, Sulawesi Tenggara","Kabupaten Buton, Sulawesi Tenggara",SULAWESI TENGGARA,,Indonesia,,,,-5.667522,122.6560016,https://maps.google.com/?cid=0x0:0xc6a8b2ad72862cfe,
building materials,Toko Bahan Bangunan,Toko Mustika Dua,"Jl. Sultan Datanu Ikhsanuddin No.211, Lipu, Kec. Betoambari, Kota Bau-Bau, Sulawesi Tenggara 93724","Lipu, Kec. Betoambari, Kota Bau-Bau",SULAWESI TENGGARA,93724.0,Indonesia,81241998201.0,,,-5.4846192,122.5769278,https://maps.google.com/?cid=0x0:0xe742fb08d0b2aac,
building materials,Toko bahan makanan,Toko Usaha Membangun,"GHFQ+H2J, Jl. Lakarambau, Lipu, Kec. Betoambari, Kota Bau-Bau, Sulawesi Tenggara 93724","Jl. Lakarambau, Lipu, Kec. Betoambari, Kota Bau-Bau",SULAWESI TENGGARA,93724.0,Indonesia,,,,-5.476032,122.5875087,https://maps.google.com/?cid=0x0:0x8f108ec78f0d915,
building materials,Toko,Kios yayat,"GJVP+C89, Jl. Anoa, Kadolomoko, Kec. Kokalukuna, Kota Bau-Bau, Sulawesi Tenggara 93716","Jl. Anoa, Kadolomoko, Kec. Kokalukuna, Kota Bau-Bau",SULAWESI TENGGARA,93716.0,Indonesia,82292826067.0,,,-5.4564721,122.635875,https://maps.google.com/?cid=0x0:0xec6220642d44a89c,
building materials,Tukang Las,Bengkel Las;BATAUGA KREATIF,"9HWW+8FQ, kab:BUSEL, Masiri, Batauga, Kabupaten Buton, Sulawesi Tenggara 93752","kab:BUSEL, Masiri, Batauga, Kabupaten Buton",SULAWESI TENGGARA,93752.0,Indonesia,82293807381.0,,,-5.6041668,122.5962493,https://maps.google.com/?cid=0x0:0xc8cb91889875e085,
building materials,Toko,Kios Mambulu (Barokah) Jaya Utama,"Jl. Poros Batauga, Dusun Laporoworu, Gn. Sejuk, Kec. Sampolawa, Kabupaten Buton, Sulawesi Tenggara 93753","Dusun Laporoworu, Gn. Sejuk, Kec. Sampolawa, Kabupaten Buton",SULAWESI TENGGARA,93753.0,Indonesia,,,,-5.5819375,122.7381875,https://maps.google.com/?cid=0x0:0xc02d319280ee6290,
building materials,building materials,,,,SULAWESI TENGGARA,,Indonesia,82293486588.0,,,-2.44565,117.8888,https://maps.google.com/?cid=0x0:0xde387e986ecf8e6c,
building materials,building materials,Sulawesi Tenggara 93753,"Kabupaten Buton, Sulawesi Tenggara","Kabupaten Buton, Sulawesi Tenggara",SULAWESI TENGGARA,,Indonesia,,,,-5.5916275,122.7858791,https://maps.google.com/?cid=0x0:0x5d5b6b7c1f0a9413,
building materials,Pasar bahan bangunan,Intan Building Center,"Jl. Budi Utomo No.90, Bataraguru, Kec. Wolio, Kota Bau-Bau, Sulawesi Tenggara 93717","Bataraguru, Kec. Wolio, Kota Bau-Bau",SULAWESI TENGGARA,93717.0,Indonesia,82292888886.0,,,-5.4658703,122.607269,https://maps.google.com/?cid=0x0:0xdd0e5cfd517f12e5,
building materials,Toko,Kios Mambulu (Barokah) Jaya Utama,"Jl. Poros Batauga, Dusun Laporoworu, Gn. Sejuk, Kec. Sampolawa, Kabupaten Buton, Sulawesi Tenggara 93753","Dusun Laporoworu, Gn. Sejuk, Kec. Sampolawa, Kabupaten Buton",SULAWESI TENGGARA,93753.0,Indonesia,,,,-5.5819375,122.7381875,https://maps.google.com/?cid=0x0:0xc02d319280ee6290,
building materials,Minimarket,UD. TRI PUTRI,"9Q4M+V9P, Gaya Baru, Kec. Lapandewa, Kabupaten Buton, Sulawesi Tenggara","Kabupaten Buton, Sulawesi Tenggara",SULAWESI TENGGARA,,Indonesia,81261371358.0,,,-5.6428,122.7834626,https://maps.google.com/?cid=0x0:0xba757fcb908236ca,
building materials,Toko Bahan Bangunan,Kios Salju,"8MJ4+XCR, Poogalampa, Batauga, Kabupaten Buton, Sulawesi Tenggara","Kabupaten Buton, Sulawesi Tenggara",SULAWESI TENGGARA,,Indonesia,,,,-5.667522,122.6560016,https://maps.google.com/?cid=0x0:0xc6a8b2ad72862cfe,
building materials,Toko Bahan Bangunan,Toko Tunas Karya,"lingkungan kelurahan No.1, Laompo, Batauga, Kabupaten Buton, Sulawesi Tenggara 93752","Laompo, Batauga, Kabupaten Buton",SULAWESI TENGGARA,93752.0,Indonesia,85394331595.0,,,-5.6139928,122.6037674,https://maps.google.com/?cid=0x0:0x95b6404fb233c1f2,
building materials,Toko Bahan Bangunan,Intan Building Center 2,"Jl. R.a. Kartini No.68, Wale, Kec. Wolio, Kota Bau-Bau, Sulawesi Tenggara 93717","Wale, Kec. Wolio, Kota Bau-Bau",SULAWESI TENGGARA,93717.0,Indonesia,82292888886.0,,,-5.4565292,122.6051852,https://maps.google.com/?cid=0x0:0x4743d2cd70649910,
building materials,Minimarket,Toko Kios Magari,"Lingkungan Uwe Magari No.Kelurahan, Laompo, Batauga, Kabupaten Buton, Sulawesi Tenggara","Kabupaten Buton, Sulawesi Tenggara",SULAWESI TENGGARA,,Indonesia,,,,-5.62089,122.607349,https://maps.google.com/?cid=0x0:0xe91327490d9fce83,
building materials,Toko,Kios yayat,"GJVP+C89, Jl. Anoa, Kadolomoko, Kec. Kokalukuna, Kota Bau-Bau, Sulawesi Tenggara 93716","Jl. Anoa, Kadolomoko, Kec. Kokalukuna, Kota Bau-Bau",SULAWESI TENGGARA,93716.0,Indonesia,82292826067.0,,,-5.4564721,122.635875,https://maps.google.com/?cid=0x0:0xec6220642d44a89c,
building materials,Toko Bahan Bangunan,Bengkel gauri,"FPRX+6GG, Hendea, Kec. Sampolawa, Kabupaten Buton, Sulawesi Tenggara","Kabupaten Buton, Sulawesi Tenggara",SULAWESI TENGGARA,,Indonesia,,,,-5.5094463,122.7488266,https://maps.google.com/?cid=0x0:0xfb5daf40d87f7c82,
building materials,Toko Bahan Bangunan,Toko Sumber Rezeki,"Jl. Pangeran Limboro, Banabungi, Kec. Ps. Wajo, Kabupaten Buton, Sulawesi Tenggara 93754","Banabungi, Kec. Ps. Wajo, Kabupaten Buton",SULAWESI TENGGARA,93754.0,Indonesia,85241637184.0,,,-5.5110635,122.8429251,https://maps.google.com/?cid=0x0:0x502705c8e2f51436,
building materials,Pusat Perbelanjaan,Toko bangunan Melati,"FVF5+WPR, Wagola, Kec. Ps. Wajo, Kabupaten Buton, Sulawesi Tenggara 93754","Wagola, Kec. Ps. Wajo, Kabupaten Buton",SULAWESI TENGGARA,93754.0,Indonesia,,,,-5.5251448,122.8592612,https://maps.google.com/?cid=0x0:0xeba8ba6f03670240,
building materials,Toko Bahan Bangunan,IzzieHome Baubau,"Batulo, Kec. Wolio, Kota Bau-Bau, Sulawesi Tenggara 93717","Kec. Wolio, Kota Bau-Bau",SULAWESI TENGGARA,93717.0,Indonesia,4022821377.0,,,-5.4592394,122.6140646,https://maps.google.com/?cid=0x0:0x63f4893b60e877da,
building materials,Toko,Toko cahaya anugrah,"GP63+C25, Bugi, Kec. Sorawolio, Kota Bau-Bau, Sulawesi Tenggara 93715","Bugi, Kec. Sorawolio, Kota Bau-Bau",SULAWESI TENGGARA,93715.0,Indonesia,,,,-5.4889987,122.7025888,https://maps.google.com/?cid=0x0:0x97207eca1e80dacc,
building materials,Toko Bahan Bangunan,Sinar Berlian,"Jl. Brigjen Katamso No.3 A, Wale, Kec. Wolio, Kota Bau-Bau, Sulawesi Tenggara 93717","Wale, Kec. Wolio, Kota Bau-Bau",SULAWESI TENGGARA,93717.0,Indonesia,4022821413.0,,,-5.4564908,122.6048778,https://maps.google.com/?cid=0x0:0xa0c883fa27494e61,
building materials,Gudang,Toko Jawi Konstruksi,"Lanto, Kec. Murhum, Kota Bau-Bau, Sulawesi Tenggara 93717","Kec. Murhum, Kota Bau-Bau",SULAWESI TENGGARA,93717.0,Indonesia,82119453925.0,,,-5.4571169,122.5991928,https://maps.google.com/?cid=0x0:0xca0f712e7cb09266,
building materials,Toko Bahan Bangunan,JOGJA Bangunan Baubau,"Jl. Dayanu Ikhsanuddin No.27, Sulaa, Kec. Betoambari, Kota Bau-Bau, Sulawesi Tenggara","Kota Bau-Bau, Sulawesi Tenggara",SULAWESI TENGGARA,,Indonesia,,,,-5.5004173,122.5625364,https://maps.google.com/?cid=0x0:0xed3d249d1787046f,
building materials,Tukang Las,Cv.Blessing steel,"GJMX+62F, Kadolo Katapi, Kec. Wolio, Kota Bau-Bau, Sulawesi Tenggara","Kota Bau-Bau, Sulawesi Tenggara",SULAWESI TENGGARA,,Indonesia,,,,-5.466933,122.6475534,https://maps.google.com/?cid=0x0:0xf6ad4737f32aa760,
building materials,Pembangunan Perumahan,TOKO BUKIT MEMORY,"GH6J+R9C, Lipu, Kec. Betoambari, Kota Bau-Bau, Sulawesi Tenggara 93724","Lipu, Kec. Betoambari, Kota Bau-Bau",SULAWESI TENGGARA,93724.0,Indonesia,81341517002.0,,,-5.4879339,122.580895,https://maps.google.com/?cid=0x0:0x9457ed299e145660,
building materials,building materials,Kec. Batu Atas,"Kabupaten Buton, Sulawesi Tenggara","Kabupaten Buton, Sulawesi Tenggara",SULAWESI TENGGARA,,Indonesia,,,,-6.206587,122.718311,https://maps.google.com/?cid=0x0:0x4823161ea155a8e3,
building materials,Toko Bahan Bangunan,Toko Bahan Bangunan Batauga Jaya,"Jl. Poros, pasar, Masiri, Batauga, Kabupaten Buton, Sulawesi Tenggara 93752","pasar, Masiri, Batauga, Kabupaten Buton",SULAWESI TENGGARA,93752.0,Indonesia,81242299192.0,,,-5.6058423,122.5966813,https://maps.google.com/?cid=0x0:0xa23110e6ef30e0e6,
building materials,Toko Batu,Batu Bata Mas Joko Todanga,"Desa, Todanga, Kec. Kapontori, Kabupaten Buton, Sulawesi Tenggara 93755","Todanga, Kec. Kapontori, Kabupaten Buton",SULAWESI TENGGARA,93755.0,Indonesia,82193111191.0,,,-5.1010451,122.7951472,https://maps.google.com/?cid=0x0:0x9f942c763ff9e45,
building materials,Toko Bahan Bangunan,BATU BATA MERAH TODANGA,"Dusun Bakaha , Desa Todanga Jalan Poros, Jl. Bataraguru, Dusun Bakaha, Tuangila, Kec. Kapontori, Kabupaten Buton, Sulawesi Tenggara 93755","Desa Todanga Jalan Poros, Jl. Bataraguru, Dusun Bakaha, Tuangila, Kec. Kapontori, Kabupaten Buton",SULAWESI TENGGARA,93755.0,Indonesia,81292066059.0,,,-5.0998381,122.7978131,https://maps.google.com/?cid=0x0:0x9c690ec0c6f6bfe8,
building materials,Grosir,Lestari Loster  Batako,"Jln.poros air terjun No.Desa, sumbersari, Kec. Moramo, Kabupaten Konawe Selatan, Sulawesi Tenggara 93891","sumbersari, Kec. Moramo, Kabupaten Konawe Selatan",SULAWESI TENGGARA,93891.0,Indonesia,82290892735.0,,,-4.2157574,122.6911609,https://maps.google.com/?cid=0x0:0x32ff47412f6e3503,
building materials,building materials,,,,SULAWESI TENGGARA,,Indonesia,82293486588.0,,,-2.44565,117.8888,https://maps.google.com/?cid=0x0:0xde387e986ecf8e6c,
building materials,building materials,Batu merah mas suprat,"W7PR+V9V, Abenggi, Kec. Landono, Kabupaten Konawe Selatan, Sulawesi Tenggara 93873","Abenggi, Kec. Landono, Kabupaten Konawe Selatan",SULAWESI TENGGARA,93873.0,Indonesia,85342409436.0,,,-4.0627641,122.2909078,https://maps.google.com/?cid=0x0:0xadbdf2486287b046,
building materials,Pemasok pasir dan kerikil,"Material bangunan, pasir , batu pondasi, dll","batu raya No.14, Batua, Kec. Manggala, Kota Makassar, Sulawesi Selatan 28292","Batua, Kec. Manggala, Kota Makassar",SULAWESI TENGGARA,28292.0,Indonesia,81355040619.0,,,-5.1589098,119.4627284,https://maps.google.com/?cid=0x0:0x82852911e0e48be3,
building materials,Toko Bahan Bangunan,UD.Material bangunan kita (penjual pasir batu merah cipping),"Jl. Abd. Kadir, Balang Baru, Kec. Tamalate, Kota Makassar, Sulawesi Selatan 90255","Balang Baru, Kec. Tamalate, Kota Makassar",SULAWESI TENGGARA,90255.0,Indonesia,85397723159.0,,,-5.1875775,119.4131138,https://maps.google.com/?cid=0x0:0x68de0b9af73eb2d9,
building materials,building materials,Sulawesi Tenggara 93752,"Kabupaten Buton, Sulawesi Tenggara","Kabupaten Buton, Sulawesi Tenggara",SULAWESI TENGGARA,,Indonesia,,,,-5.6000771,122.650351,https://maps.google.com/?cid=0x0:0x1c436516d6448e13,
building materials,Toko,Kios yayat,"GJVP+C89, Jl. Anoa, Kadolomoko, Kec. Kokalukuna, Kota Bau-Bau, Sulawesi Tenggara 93716","Jl. Anoa, Kadolomoko, Kec. Kokalukuna, Kota Bau-Bau",SULAWESI TENGGARA,93716.0,Indonesia,82292826067.0,,,-5.4564721,122.635875,https://maps.google.com/?cid=0x0:0xec6220642d44a89c,
building materials,building materials,,,,SULAWESI TENGGARA,,Indonesia,82293486588.0,,,-2.44565,117.8888,https://maps.google.com/?cid=0x0:0xde387e986ecf8e6c,
building materials,Toko Bahan Bangunan,Toko Fitrah Central Bangunan,"Jl. Gersamata, Wongko Lakudo, Kec. Lakudo, Kabupaten Buton, Sulawesi Tenggara 93763","Wongko Lakudo, Kec. Lakudo, Kabupaten Buton",SULAWESI TENGGARA,93763.0,Indonesia,81242310809.0,,,-5.320151,122.535901,https://maps.google.com/?cid=0x0:0x64a3a8274e6efecc,
building materials,Toko Bahan Bangunan,Toko Enam Saudara Lombe,"PHXH+439, kompleks pasar lombe, Bombonawulu, Kec. Gu, Kabupaten Buton, Sulawesi Tenggara 93761","kompleks pasar lombe, Bombonawulu, Kec. Gu, Kabupaten Buton",SULAWESI TENGGARA,93761.0,Indonesia,85299578579.0,,,-5.2522026,122.5777204,https://maps.google.com/?cid=0x0:0x278b5a28c6ed5919,
building materials,Toko Bahan Bangunan,Toko Bangunan Haffisa,"PHXG+2H7, Bombonawulu, Kec. Gu, Kabupaten Buton, Sulawesi Tenggara 93761","Bombonawulu, Kec. Gu, Kabupaten Buton",SULAWESI TENGGARA,93761.0,Indonesia,85399543612.0,,,-5.2524619,122.5764101,https://maps.google.com/?cid=0x0:0x664eed9514923bea,
building materials,Toko Bahan Bangunan,UD. SARANA TARU,"MM6R+25C, Kampeonaho, Kec. Bungi, Kota Bau-Bau, Sulawesi Tenggara","Kota Bau-Bau, Sulawesi Tenggara",SULAWESI TENGGARA,,Indonesia,82293522310.0,,,-5.3399473,122.6904051,https://maps.google.com/?cid=0x0:0xaf68c835877c3485,
building materials,Minimarket,UD. TRI PUTRI,"9Q4M+V9P, Gaya Baru, Kec. Lapandewa, Kabupaten Buton, Sulawesi Tenggara","Kabupaten Buton, Sulawesi Tenggara",SULAWESI TENGGARA,,Indonesia,81261371358.0,,,-5.6428,122.7834626,https://maps.google.com/?cid=0x0:0xba757fcb908236ca,
building materials,Toko,Toko Putri,"8QHQ+J88, Burangasi, Kec. Lapandewa, Kabupaten Buton, Sulawesi Tenggara 93753","Burangasi, Kec. Lapandewa, Kabupaten Buton",SULAWESI TENGGARA,93753.0,Indonesia,,,,-5.6709673,122.7883267,https://maps.google.com/?cid=0x0:0xce231c37d8e7cde9,
building materials,building materials,Lapandewa,"Kec. Lapandewa, Kabupaten Buton, Sulawesi Tenggara","Kabupaten Buton, Sulawesi Tenggara",SULAWESI TENGGARA,,Indonesia,,,,-5.5950795,122.8028074,https://maps.google.com/?cid=0x0:0x6ff5a1676f28f9a7,
building materials,Toko Bahan Bangunan,Toko Enam Saudara Lombe,"PHXH+439, kompleks pasar lombe, Bombonawulu, Kec. Gu, Kabupaten Buton, Sulawesi Tenggara 93761","kompleks pasar lombe, Bombonawulu, Kec. Gu, Kabupaten Buton",SULAWESI TENGGARA,93761.0,Indonesia,85299578579.0,,,-5.2522026,122.5777204,https://maps.google.com/?cid=0x0:0x278b5a28c6ed5919,
building materials,Toko,Toko BERLIAN LOMBE,"PHVG+XVP, Unnamed Road, Bombonawulu, Kec. Gu, Kabupaten Buton, Sulawesi Tenggara 93761","Unnamed Road, Bombonawulu, Kec. Gu, Kabupaten Buton",SULAWESI TENGGARA,93761.0,Indonesia,,,,-5.2550406,122.5772125,https://maps.google.com/?cid=0x0:0xb2653d169c95c330,
building materials,building materials,Sulawesi Tenggara 93753,"Kabupaten Buton, Sulawesi Tenggara","Kabupaten Buton, Sulawesi Tenggara",SULAWESI TENGGARA,,Indonesia,,,,-5.5916275,122.7858791,https://maps.google.com/?cid=0x0:0x5d5b6b7c1f0a9413,
building materials,Toko,Kios Mambulu (Barokah) Jaya Utama,"Jl. Poros Batauga, Dusun Laporoworu, Gn. Sejuk, Kec. Sampolawa, Kabupaten Buton, Sulawesi Tenggara 93753","Dusun Laporoworu, Gn. Sejuk, Kec. Sampolawa, Kabupaten Buton",SULAWESI TENGGARA,93753.0,Indonesia,,,,-5.5819375,122.7381875,https://maps.google.com/?cid=0x0:0xc02d319280ee6290,
building materials,Toko Bahan Bangunan,CV. SINAR MAKMUR,"9J8M+V9R, Majapahit, Batauga, Kabupaten Buton, Sulawesi Tenggara","Kabupaten Buton, Sulawesi Tenggara",SULAWESI TENGGARA,,Indonesia,,,,-5.6327668,122.6333973,https://maps.google.com/?cid=0x0:0x4cc92e7dcd7abbdf,
building materials,Pasar bahan bangunan,Intan Building Center,"Jl. Budi Utomo No.90, Bataraguru, Kec. Wolio, Kota Bau-Bau, Sulawesi Tenggara 93717","Bataraguru, Kec. Wolio, Kota Bau-Bau",SULAWESI TENGGARA,93717.0,Indonesia,82292888886.0,,,-5.4658703,122.607269,https://maps.google.com/?cid=0x0:0xdd0e5cfd517f12e5,
building materials,Toko Bahan Bangunan,Toko Tunas Karya,"lingkungan kelurahan No.1, Laompo, Batauga, Kabupaten Buton, Sulawesi Tenggara 93752","Laompo, Batauga, Kabupaten Buton",SULAWESI TENGGARA,93752.0,Indonesia,85394331595.0,,,-5.6139928,122.6037674,https://maps.google.com/?cid=0x0:0x95b6404fb233c1f2,
building materials,Toko Bahan Bangunan,Bengkel gauri,"FPRX+6GG, Hendea, Kec. Sampolawa, Kabupaten Buton, Sulawesi Tenggara","Kabupaten Buton, Sulawesi Tenggara",SULAWESI TENGGARA,,Indonesia,,,,-5.5094463,122.7488266,https://maps.google.com/?cid=0x0:0xfb5daf40d87f7c82,
building materials,Minimarket,Toko Kios Magari,"Lingkungan Uwe Magari No.Kelurahan, Laompo, Batauga, Kabupaten Buton, Sulawesi Tenggara","Kabupaten Buton, Sulawesi Tenggara",SULAWESI TENGGARA,,Indonesia,,,,-5.62089,122.607349,https://maps.google.com/?cid=0x0:0xe91327490d9fce83,
building materials,Toko Bahan Bangunan,Toko Sumber Rezeki,"Jl. Pangeran Limboro, Banabungi, Kec. Ps. Wajo, Kabupaten Buton, Sulawesi Tenggara 93754","Banabungi, Kec. Ps. Wajo, Kabupaten Buton",SULAWESI TENGGARA,93754.0,Indonesia,85241637184.0,,,-5.5110635,122.8429251,https://maps.google.com/?cid=0x0:0x502705c8e2f51436,
building materials,Toko Bahan Bangunan,Intan Building Center 2,"Jl. R.a. Kartini No.68, Wale, Kec. Wolio, Kota Bau-Bau, Sulawesi Tenggara 93717","Wale, Kec. Wolio, Kota Bau-Bau",SULAWESI TENGGARA,93717.0,Indonesia,82292888886.0,,,-5.4565292,122.6051852,https://maps.google.com/?cid=0x0:0x4743d2cd70649910,
building materials,Toko Bahan Bangunan,Kios Salju,"8MJ4+XCR, Poogalampa, Batauga, Kabupaten Buton, Sulawesi Tenggara","Kabupaten Buton, Sulawesi Tenggara",SULAWESI TENGGARA,,Indonesia,,,,-5.667522,122.6560016,https://maps.google.com/?cid=0x0:0xc6a8b2ad72862cfe,
building materials,Toko,Kios yayat,"GJVP+C89, Jl. Anoa, Kadolomoko, Kec. Kokalukuna, Kota Bau-Bau, Sulawesi Tenggara 93716","Jl. Anoa, Kadolomoko, Kec. Kokalukuna, Kota Bau-Bau",SULAWESI TENGGARA,93716.0,Indonesia,82292826067.0,,,-5.4564721,122.635875,https://maps.google.com/?cid=0x0:0xec6220642d44a89c,
building materials,Toko Bahan Bangunan,JOGJA Bangunan Baubau,"Jl. Dayanu Ikhsanuddin No.27, Sulaa, Kec. Betoambari, Kota Bau-Bau, Sulawesi Tenggara","Kota Bau-Bau, Sulawesi Tenggara",SULAWESI TENGGARA,,Indonesia,,,,-5.5004173,122.5625364,https://maps.google.com/?cid=0x0:0xed3d249d1787046f,
building materials,Toko Bahan Bangunan,Sinar Berlian,"Jl. Brigjen Katamso No.3 A, Wale, Kec. Wolio, Kota Bau-Bau, Sulawesi Tenggara 93717","Wale, Kec. Wolio, Kota Bau-Bau",SULAWESI TENGGARA,93717.0,Indonesia,4022821413.0,,,-5.4564908,122.6048778,https://maps.google.com/?cid=0x0:0xa0c883fa27494e61,
building materials,Pusat Perbelanjaan,Toko bangunan Melati,"FVF5+WPR, Wagola, Kec. Ps. Wajo, Kabupaten Buton, Sulawesi Tenggara 93754","Wagola, Kec. Ps. Wajo, Kabupaten Buton",SULAWESI TENGGARA,93754.0,Indonesia,,,,-5.5251448,122.8592612,https://maps.google.com/?cid=0x0:0xeba8ba6f03670240,
building materials,building materials,Kios Sinar Sibela,"9PM6+FXW Laporan, Kelas, Todombulu, Sampolawa, Buton Regency, South East Sulawesi","Kabupaten Buton, Sulawesi Tenggara",SULAWESI TENGGARA,,Indonesia,,,,-5.6162647,122.712438,https://maps.google.com/?cid=0x0:0xd374118dee8af967,
building materials,building materials,Kec. Siompu,"Kabupaten Buton, Sulawesi Tenggara","Kabupaten Buton, Sulawesi Tenggara",SULAWESI TENGGARA,,Indonesia,,,,-5.6304618,122.5254693,https://maps.google.com/?cid=0x0:0x2718691e607a701,
building materials,Toko,Toko AZ-ZAHRA,"9GCG+46V, Tongali, Kec. Siompu, Kabupaten Buton, Sulawesi Tenggara 93752","Tongali, Kec. Siompu, Kabupaten Buton",SULAWESI TENGGARA,93752.0,Indonesia,85241597768.0,,,-5.6296483,122.5255518,https://maps.google.com/?cid=0x0:0x19f5d5a1a9efba2e,
building materials,Pasar bahan bangunan,Intan Building Center,"Jl. Budi Utomo No.90, Bataraguru, Kec. Wolio, Kota Bau-Bau, Sulawesi Tenggara 93717","Bataraguru, Kec. Wolio, Kota Bau-Bau",SULAWESI TENGGARA,93717.0,Indonesia,82292888886.0,,,-5.4658703,122.607269,https://maps.google.com/?cid=0x0:0xdd0e5cfd517f12e5,
building materials,Toko Bahan Bangunan,Toko Bahan Bangunan Batauga Jaya,"Jl. Poros, pasar, Masiri, Batauga, Kabupaten Buton, Sulawesi Tenggara 93752","pasar, Masiri, Batauga, Kabupaten Buton",SULAWESI TENGGARA,93752.0,Indonesia,81242299192.0,,,-5.6058423,122.5966813,https://maps.google.com/?cid=0x0:0xa23110e6ef30e0e6,
building materials,building materials,UD.BERKAH SIOMPU,"8GJ6+7JV, Biwinapada, Kec. Siompu, Kabupaten Buton, Sulawesi Tenggara 93752","Biwinapada, Kec. Siompu, Kabupaten Buton",SULAWESI TENGGARA,93752.0,Indonesia,,,,-5.6692734,122.51156,https://maps.google.com/?cid=0x0:0x244283436d1a60e5,
building materials,building materials,Kios Herdin,"8GM6+3PJ, Biwinapada, Kec. Siompu, Kabupaten Buton, Sulawesi Tenggara 93752","Biwinapada, Kec. Siompu, Kabupaten Buton",SULAWESI TENGGARA,93752.0,Indonesia,,,,-5.6681413,122.5113901,https://maps.google.com/?cid=0x0:0x71d59bef2157982,
building materials,building materials,Kec. Siompu Bar.,"Kabupaten Buton, Sulawesi Tenggara","Kabupaten Buton, Sulawesi Tenggara",SULAWESI TENGGARA,,Indonesia,,,,-5.6899378,122.4818486,https://maps.google.com/?cid=0x0:0xdc7d5a3172232e78,
building materials,Pasar bahan bangunan,Intan Building Center,"Jl. Budi Utomo No.90, Bataraguru, Kec. Wolio, Kota Bau-Bau, Sulawesi Tenggara 93717","Bataraguru, Kec. Wolio, Kota Bau-Bau",SULAWESI TENGGARA,93717.0,Indonesia,82292888886.0,,,-5.4658703,122.607269,https://maps.google.com/?cid=0x0:0xdd0e5cfd517f12e5,
building materials,Toko Bahan Bangunan,Intan Building Center 2,"Jl. R.a. Kartini No.68, Wale, Kec. Wolio, Kota Bau-Bau, Sulawesi Tenggara 93717","Wale, Kec. Wolio, Kota Bau-Bau",SULAWESI TENGGARA,93717.0,Indonesia,82292888886.0,,,-5.4565292,122.6051852,https://maps.google.com/?cid=0x0:0x4743d2cd70649910,
building materials,building materials,UD.BERKAH SIOMPU,"8GJ6+7JV, Biwinapada, Kec. Siompu, Kabupaten Buton, Sulawesi Tenggara 93752","Biwinapada, Kec. Siompu, Kabupaten Buton",SULAWESI TENGGARA,93752.0,Indonesia,,,,-5.6692734,122.51156,https://maps.google.com/?cid=0x0:0x244283436d1a60e5,
building materials,building materials,Kios Herdin,"8GM6+3PJ, Biwinapada, Kec. Siompu, Kabupaten Buton, Sulawesi Tenggara 93752","Biwinapada, Kec. Siompu, Kabupaten Buton",SULAWESI TENGGARA,93752.0,Indonesia,,,,-5.6681413,122.5113901,https://maps.google.com/?cid=0x0:0x71d59bef2157982,
building materials,Toko Bahan Bangunan,Tb.Setia Jaya utara pasar gadoh,"RQJ8+J34, Setren, Sendangharjo, Kec. Karangrayung, Kabupaten Grobogan, Jawa Tengah 58163","Setren, Sendangharjo, Kec. Karangrayung, Kabupaten Grobogan",SULAWESI TENGGARA,58163.0,Indonesia,81329299229.0,,,-7.1684988,110.7651891,https://maps.google.com/?cid=0x0:0x4dc452dff51012c1,
building materials,building materials,Sorora,"9G27+47J, Batuawu, Kec. Siompu, Kabupaten Buton, Sulawesi Tenggara","Kabupaten Buton, Sulawesi Tenggara",SULAWESI TENGGARA,,Indonesia,,,,-5.6496547,122.5131466,https://maps.google.com/?cid=0x0:0x384c52a6c71d3661,
toko bangunan,toko bangunan,Batauga,"Masiri, Batauga, Kabupaten Buton, Sulawesi Tenggara","Kabupaten Buton, Sulawesi Tenggara",SULAWESI TENGGARA,,Indonesia,,,,-5.610301,122.6157,https://maps.google.com/?cid=0x0:0xb59244aa04e5e53e,
toko bangunan,Toko Bahan Bangunan,Toko Tunas Karya,"lingkungan kelurahan No.1, Laompo, Batauga, Kabupaten Buton, Sulawesi Tenggara 93752","Laompo, Batauga, Kabupaten Buton",SULAWESI TENGGARA,93752.0,Indonesia,85394331595.0,,,-5.6139928,122.6037674,https://maps.google.com/?cid=0x0:0x95b6404fb233c1f2,
toko bangunan,Toko Bahan Bangunan,Toko Bahan Bangunan Batauga Jaya,"Jl. Poros, pasar, Masiri, Batauga, Kabupaten Buton, Sulawesi Tenggara 93752","pasar, Masiri, Batauga, Kabupaten Buton",SULAWESI TENGGARA,93752.0,Indonesia,81242299192.0,,,-5.6058423,122.5966813,https://maps.google.com/?cid=0x0:0xa23110e6ef30e0e6,
toko bangunan,toko bangunan,Kec. Batu Atas,"Kabupaten Buton, Sulawesi Tenggara","Kabupaten Buton, Sulawesi Tenggara",SULAWESI TENGGARA,,Indonesia,,,,-6.206587,122.718311,https://maps.google.com/?cid=0x0:0x4823161ea155a8e3,
toko bangunan,Pasar bahan bangunan,Intan Building Center,"Jl. Budi Utomo No.90, Bataraguru, Kec. Wolio, Kota Bau-Bau, Sulawesi Tenggara 93717","Bataraguru, Kec. Wolio, Kota Bau-Bau",SULAWESI TENGGARA,93717.0,Indonesia,82292888886.0,,,-5.4658703,122.607269,https://maps.google.com/?cid=0x0:0xdd0e5cfd517f12e5,
toko bangunan,Toko,Kios Mambulu (Barokah) Jaya Utama,"Jl. Poros Batauga, Dusun Laporoworu, Gn. Sejuk, Kec. Sampolawa, Kabupaten Buton, Sulawesi Tenggara 93753","Dusun Laporoworu, Gn. Sejuk, Kec. Sampolawa, Kabupaten Buton",SULAWESI TENGGARA,93753.0,Indonesia,,,,-5.5819375,122.7381875,https://maps.google.com/?cid=0x0:0xc02d319280ee6290,
toko bangunan,Toko Bahan Bangunan,Toko Tunas Karya,"lingkungan kelurahan No.1, Laompo, Batauga, Kabupaten Buton, Sulawesi Tenggara 93752","Laompo, Batauga, Kabupaten Buton",SULAWESI TENGGARA,93752.0,Indonesia,85394331595.0,,,-5.6139928,122.6037674,https://maps.google.com/?cid=0x0:0x95b6404fb233c1f2,
toko bangunan,Minimarket,Toko Kios Magari,"Lingkungan Uwe Magari No.Kelurahan, Laompo, Batauga, Kabupaten Buton, Sulawesi Tenggara","Kabupaten Buton, Sulawesi Tenggara",SULAWESI TENGGARA,,Indonesia,,,,-5.62089,122.607349,https://maps.google.com/?cid=0x0:0xe91327490d9fce83,
toko bangunan,Pemasok Bahan Bangunan,TOKO BANGUNAN 88 DANDIZA,"GJJH+6HH, Jl. Pahlawan, Bukit Wolio Indah, Kec. Wolio, Kota Bau-Bau, Sulawesi Tenggara 93711","Jl. Pahlawan, Bukit Wolio Indah, Kec. Wolio, Kota Bau-Bau",SULAWESI TENGGARA,93711.0,Indonesia,85381242891.0,,,-5.4694446,122.6289906,https://maps.google.com/?cid=0x0:0x4d015acbc312e669,
toko bangunan,Toko Bahan Bangunan,Kios Rezky Sejuk (bahan bangunan dan alat listrik),"CP9P+5XC, Jl. Poros Batauga Desa, Gn. Sejuk, Kec. Sampolawa, Kabupaten Buton, Sulawesi Tenggara","Kabupaten Buton, Sulawesi Tenggara",SULAWESI TENGGARA,,Indonesia,82296939694.0,,,-5.5820653,122.7374031,https://maps.google.com/?cid=0x0:0xb96e255c84699a1a,
toko bangunan,Toko Bahan Bangunan,Toko Intan BauBau,"Jl. Brigjen Katamso No.3A, Wale, Kec. Wolio, Kota Bau-Bau, Sulawesi Tenggara 93717","Wale, Kec. Wolio, Kota Bau-Bau",SULAWESI TENGGARA,93717.0,Indonesia,4022821009.0,,,-5.456583,122.6049064,https://maps.google.com/?cid=0x0:0xc82b2fb063975784,
toko bangunan,Toko Bahan Bangunan,Toko Bahan Bangunan Batauga Jaya,"Jl. Poros, pasar, Masiri, Batauga, Kabupaten Buton, Sulawesi Tenggara 93752","pasar, Masiri, Batauga, Kabupaten Buton",SULAWESI TENGGARA,93752.0,Indonesia,81242299192.0,,,-5.6058423,122.5966813,https://maps.google.com/?cid=0x0:0xa23110e6ef30e0e6,
toko bangunan,Toko Bahan Bangunan,Toko Sinar Surya,"Jl. RA. Kartini No.37, Wale, Kec. Wolio, Kota Bau-Bau, Sulawesi Tenggara 93717","Wale, Kec. Wolio, Kota Bau-Bau",SULAWESI TENGGARA,93717.0,Indonesia,4022821608.0,,,-5.4561494,122.6047287,https://maps.google.com/?cid=0x0:0xf9e53df0c463e05e,
toko bangunan,Toko,Toko cahaya anugrah,"GP63+C25, Bugi, Kec. Sorawolio, Kota Bau-Bau, Sulawesi Tenggara 93715","Bugi, Kec. Sorawolio, Kota Bau-Bau",SULAWESI TENGGARA,93715.0,Indonesia,,,,-5.4889987,122.7025888,https://maps.google.com/?cid=0x0:0x97207eca1e80dacc,
toko bangunan,Toko Bahan Bangunan,Toko PELITA BANGUNAN,"G6V3+6GM, Jalan Poros, Asingi, Tinanggea, South Konawe Regency, South East Sulawesi 93885","Jalan Poros, Asingi, Tinanggea, South Konawe Regency",SULAWESI TENGGARA,93885.0,Indonesia,,,,-4.4569106,122.2038017,https://maps.google.com/?cid=0x0:0xe0f78aa91abccd20,
toko bangunan,Toko Bahan Bangunan,Toko Sumber Bangunan,"M3X6+GM8, Jl. Poros Basala-Benua, Lipu Masagena, Kec. Basala, Kabupaten Konawe Selatan, Sulawesi Tenggara 93875","Jl. Poros Basala-Benua, Lipu Masagena, Kec. Basala, Kabupaten Konawe Selatan",SULAWESI TENGGARA,93875.0,Indonesia,82112427393.0,,,-4.3012196,122.0617042,https://maps.google.com/?cid=0x0:0xfe3b3a09c506810e,
toko bangunan,Pusat Perbelanjaan,Toko MUTIARA BANGUNAN,"GJJ7+H4V, Jl. Gatot Subroto, Bukit Wolio Indah, Kec. Wolio, Kota Bau-Bau, Sulawesi Tenggara 93717","Jl. Gatot Subroto, Bukit Wolio Indah, Kec. Wolio, Kota Bau-Bau",SULAWESI TENGGARA,93717.0,Indonesia,,,,-5.4685039,122.6128014,https://maps.google.com/?cid=0x0:0x19ffc296d630dd50,
toko bangunan,Toko Bahan Bangunan,Sinar Berlian,"Jl. Brigjen Katamso No.3 A, Wale, Kec. Wolio, Kota Bau-Bau, Sulawesi Tenggara 93717","Wale, Kec. Wolio, Kota Bau-Bau",SULAWESI TENGGARA,93717.0,Indonesia,4022821413.0,,,-5.4564908,122.6048778,https://maps.google.com/?cid=0x0:0xa0c883fa27494e61,
toko bangunan,Toko Alat Tulis Kantor,TOKO EKHSAND (ATK  BAHAN BANGUNAN),"9Q3P+FP2, Jaya, Kec. Lapandewa, Kabupaten Buton, Sulawesi Tenggara","Kabupaten Buton, Sulawesi Tenggara",SULAWESI TENGGARA,,Indonesia,85396889825.0,,,-5.6463579,122.7867517,https://maps.google.com/?cid=0x0:0x36c18903f7c4950e,
toko bangunan,Toko Bahan Bangunan,Kios Salju,"8MJ4+XCR, Poogalampa, Batauga, Kabupaten Buton, Sulawesi Tenggara","Kabupaten Buton, Sulawesi Tenggara",SULAWESI TENGGARA,,Indonesia,,,,-5.667522,122.6560016,https://maps.google.com/?cid=0x0:0xc6a8b2ad72862cfe,
toko bangunan,Toko Bahan Bangunan,Toko Mustika Dua,"Jl. Sultan Datanu Ikhsanuddin No.211, Lipu, Kec. Betoambari, Kota Bau-Bau, Sulawesi Tenggara 93724","Lipu, Kec. Betoambari, Kota Bau-Bau",SULAWESI TENGGARA,93724.0,Indonesia,81241998201.0,,,-5.4846192,122.5769278,https://maps.google.com/?cid=0x0:0xe742fb08d0b2aac,
toko bangunan,Toko Bahan Bangunan,Intan Building Center 2,"Jl. R.a. Kartini No.68, Wale, Kec. Wolio, Kota Bau-Bau, Sulawesi Tenggara 93717","Wale, Kec. Wolio, Kota Bau-Bau",SULAWESI TENGGARA,93717.0,Indonesia,82292888886.0,,,-5.4565292,122.6051852,https://maps.google.com/?cid=0x0:0x4743d2cd70649910,
toko bangunan,Pusat Perbelanjaan,Toko bangunan Melati,"FVF5+WPR, Wagola, Kec. Ps. Wajo, Kabupaten Buton, Sulawesi Tenggara 93754","Wagola, Kec. Ps. Wajo, Kabupaten Buton",SULAWESI TENGGARA,93754.0,Indonesia,,,,-5.5251448,122.8592612,https://maps.google.com/?cid=0x0:0xeba8ba6f03670240,
toko bangunan,toko bangunan,Sulawesi Tenggara 93753,"Kabupaten Buton, Sulawesi Tenggara","Kabupaten Buton, Sulawesi Tenggara",SULAWESI TENGGARA,,Indonesia,,,,-5.5916275,122.7858791,https://maps.google.com/?cid=0x0:0x5d5b6b7c1f0a9413,
toko bangunan,toko bangunan,Kec. Kadatua,"Kabupaten Buton, Sulawesi Tenggara","Kabupaten Buton, Sulawesi Tenggara",SULAWESI TENGGARA,,Indonesia,,,,-5.5330522,122.4744908,https://maps.google.com/?cid=0x0:0xa7c55634cc618f76,
toko bangunan,toko bangunan,,,,SULAWESI TENGGARA,,Indonesia,82293486588.0,,,-2.44565,117.8888,https://maps.google.com/?cid=0x0:0xde387e986ecf8e6c,
toko bangunan,Toko Bahan Bangunan,Toko Bahan Bangunan Batauga Jaya,"Jl. Poros, pasar, Masiri, Batauga, Kabupaten Buton, Sulawesi Tenggara 93752","pasar, Masiri, Batauga, Kabupaten Buton",SULAWESI TENGGARA,93752.0,Indonesia,81242299192.0,,,-5.6058423,122.5966813,https://maps.google.com/?cid=0x0:0xa23110e6ef30e0e6,
toko bangunan,Toko Bahan Bangunan,Toko Bangunan Haffisa,"PHXG+2H7, Bombonawulu, Kec. Gu, Kabupaten Buton, Sulawesi Tenggara 93761","Bombonawulu, Kec. Gu, Kabupaten Buton",SULAWESI TENGGARA,93761.0,Indonesia,85399543612.0,,,-5.2524619,122.5764101,https://maps.google.com/?cid=0x0:0x664eed9514923bea,
toko bangunan,Toko Bahan Bangunan,Toko Duta Bangunan,"GHHM+2PM, Katobengke, Kec. Betoambari, Kota Bau-Bau, Sulawesi Tenggara","Kota Bau-Bau, Sulawesi Tenggara",SULAWESI TENGGARA,,Indonesia,82290671686.0,,,-5.4724224,122.5842948,https://maps.google.com/?cid=0x0:0xc4880143503a419d,
toko bangunan,Toko Bahan Bangunan,Toko Enam Saudara Lombe,"PHXH+439, kompleks pasar lombe, Bombonawulu, Kec. Gu, Kabupaten Buton, Sulawesi Tenggara 93761","kompleks pasar lombe, Bombonawulu, Kec. Gu, Kabupaten Buton",SULAWESI TENGGARA,93761.0,Indonesia,85299578579.0,,,-5.2522026,122.5777204,https://maps.google.com/?cid=0x0:0x278b5a28c6ed5919,
toko bangunan,Toko Alat Tulis Kantor,TOKO EKHSAND (ATK  BAHAN BANGUNAN),"9Q3P+FP2, Jaya, Kec. Lapandewa, Kabupaten Buton, Sulawesi Tenggara","Kabupaten Buton, Sulawesi Tenggara",SULAWESI TENGGARA,,Indonesia,85396889825.0,,,-5.6463579,122.7867517,https://maps.google.com/?cid=0x0:0x36c18903f7c4950e,
toko bangunan,Toko Bahan Bangunan,Toko Aza bahan bangunan,"HV3J+CC4, Kahulungaya, Kec. Ps. Wajo, Kabupaten Buton, Sulawesi Tenggara","Kabupaten Buton, Sulawesi Tenggara",SULAWESI TENGGARA,,Indonesia,,,,-5.4464894,122.8810813,https://maps.google.com/?cid=0x0:0x218c2ca5248cf2e7,
toko bangunan,Pusat Perbelanjaan,Toko bangunan Melati,"FVF5+WPR, Wagola, Kec. Ps. Wajo, Kabupaten Buton, Sulawesi Tenggara 93754","Wagola, Kec. Ps. Wajo, Kabupaten Buton",SULAWESI TENGGARA,93754.0,Indonesia,,,,-5.5251448,122.8592612,https://maps.google.com/?cid=0x0:0xeba8ba6f03670240,
toko bangunan,toko bangunan,Sulawesi,,,SULAWESI TENGGARA,,Indonesia,,,,-1.8479,120.5279,https://maps.google.com/?cid=0x0:0xbc9a51d168f47742,
toko bangunan,Pusat Perbelanjaan,TOKO NABILAH JAYA BANGUNAN NJ,"WF53+M9W, Jl. Poros Kendari - Andoolo, Lamomea, Kec. Konda, Kabupaten Konawe Selatan, Sulawesi Tenggara 93871","Jl. Poros Kendari - Andoolo, Lamomea, Kec. Konda, Kabupaten Konawe Selatan",SULAWESI TENGGARA,93871.0,Indonesia,,,,-4.0907564,122.4534404,https://maps.google.com/?cid=0x0:0xb44bd62605c2487b,
toko bangunan,Toko Bahan Bangunan,"MAXCELL DEPO TEKNIK  BANGUNAN | Toko Listrik, Elektronik, Furniture Kendari","Ex, Jl. Laode Hadi Jl. Brigjen M. Yoenoes No.149-159, Bende, Kadia, Kendari City, South East Sulawesi 93118","Jl. Laode Hadi Jl. Brigjen M. Yoenoes No.149-159, Bende, Kadia, Kendari City",SULAWESI TENGGARA,93118.0,Indonesia,4013192000.0,,,-3.992658,122.5139203,https://maps.google.com/?cid=0x0:0x8135d7de339a4cf7,
toko bangunan,Toko Bahan Bangunan,Toko bahan bangunan,"M52J+QXP, Unnamed Road, Mataiwoi, Kec. Andoolo, Kabupaten Konawe Selatan, Sulawesi Tenggara 93819","Unnamed Road, Mataiwoi, Kec. Andoolo, Kabupaten Konawe Selatan",SULAWESI TENGGARA,93819.0,Indonesia,,,,-4.348029,122.1824396,https://maps.google.com/?cid=0x0:0x6eac64bf582c5bd2,
toko bangunan,Toko Bahan Bangunan,Toko Elvin Jaya,"G6QG+FH8, Tinanggea, Kec. Tinanggea, Kabupaten Konawe Selatan, Sulawesi Tenggara 93885","Tinanggea, Kec. Tinanggea, Kabupaten Konawe Selatan",SULAWESI TENGGARA,93885.0,Indonesia,,,,-4.4613479,122.22646,https://maps.google.com/?cid=0x0:0x6a7f3ece0da76da,
toko bangunan,Toko Bahan Bangunan,ANEKA BANGUNAN LAPULU,"2H9P+48X, Jl. Setia Budi, Lapulu, Kec. Abeli, Kota Kendari, Sulawesi Tenggara 93885","Jl. Setia Budi, Lapulu, Kec. Abeli, Kota Kendari",SULAWESI TENGGARA,93885.0,Indonesia,,,,-3.9821387,122.5858674,https://maps.google.com/?cid=0x0:0x4031de5eea79afc3,
toko bangunan,Toko Bahan Bangunan,Toko Inti Bangunan,"No.4 B, Jl. Wolter Monginsidi, Malalayang Satu Timur, Kec. Malalayang, Kota Manado, Sulawesi Utara","Kota Manado, Sulawesi Utara",SULAWESI TENGGARA,,Indonesia,8124403955.0,,,1.458951,124.8211324,https://maps.google.com/?cid=0x0:0xcc8486e0851e5480,
toko bangunan,Toko Bahan Bangunan,Toko Bangunan Sinar Baru,"Tomarundung, Kec. Wara Bar., Kota Palopo, Sulawesi Selatan 91913","Kec. Wara Bar., Kota Palopo",SULAWESI TENGGARA,91913.0,Indonesia,,,,-2.9994906,120.185718,https://maps.google.com/?cid=0x0:0x4c177e62c05eb85d,
toko bangunan,,Toko Aneka Bangunan,"2GP9+99M, Mandonga, Kec. Mandonga, Kota Kendari, Sulawesi Tenggara 93111","Mandonga, Kec. Mandonga, Kota Kendari",SULAWESI TENGGARA,93111.0,Indonesia,,,,-3.9640468,122.518437,https://maps.google.com/?cid=0x0:0xa384d48af3738eb4,
toko bangunan,toko bangunan,Sulawesi Tenggara 93753,"Kabupaten Buton, Sulawesi Tenggara","Kabupaten Buton, Sulawesi Tenggara",SULAWESI TENGGARA,,Indonesia,,,,-5.5916275,122.7858791,https://maps.google.com/?cid=0x0:0x5d5b6b7c1f0a9413,
toko bangunan,Toko,Kios Mambulu (Barokah) Jaya Utama,"Jl. Poros Batauga, Dusun Laporoworu, Gn. Sejuk, Kec. Sampolawa, Kabupaten Buton, Sulawesi Tenggara 93753","Dusun Laporoworu, Gn. Sejuk, Kec. Sampolawa, Kabupaten Buton",SULAWESI TENGGARA,93753.0,Indonesia,,,,-5.5819375,122.7381875,https://maps.google.com/?cid=0x0:0xc02d319280ee6290,
toko bangunan,Toko Bahan Bangunan,Kios Rezky Sejuk (bahan bangunan dan alat listrik),"CP9P+5XC, Jl. Poros Batauga Desa, Gn. Sejuk, Kec. Sampolawa, Kabupaten Buton, Sulawesi Tenggara","Kabupaten Buton, Sulawesi Tenggara",SULAWESI TENGGARA,,Indonesia,82296939694.0,,,-5.5820653,122.7374031,https://maps.google.com/?cid=0x0:0xb96e255c84699a1a,
toko bangunan,Minimarket,UD. TRI PUTRI,"9Q4M+V9P, Gaya Baru, Kec. Lapandewa, Kabupaten Buton, Sulawesi Tenggara","Kabupaten Buton, Sulawesi Tenggara",SULAWESI TENGGARA,,Indonesia,81261371358.0,,,-5.6428,122.7834626,https://maps.google.com/?cid=0x0:0xba757fcb908236ca,
toko bangunan,Toko Bahan Bangunan,Toko Tunas Karya,"lingkungan kelurahan No.1, Laompo, Batauga, Kabupaten Buton, Sulawesi Tenggara 93752","Laompo, Batauga, Kabupaten Buton",SULAWESI TENGGARA,93752.0,Indonesia,85394331595.0,,,-5.6139928,122.6037674,https://maps.google.com/?cid=0x0:0x95b6404fb233c1f2,
toko bangunan,Toko Bahan Bangunan,CV. SINAR MAKMUR,"9J8M+V9R, Majapahit, Batauga, Kabupaten Buton, Sulawesi Tenggara","Kabupaten Buton, Sulawesi Tenggara",SULAWESI TENGGARA,,Indonesia,,,,-5.6327668,122.6333973,https://maps.google.com/?cid=0x0:0x4cc92e7dcd7abbdf,
toko bangunan,Minimarket,Toko Kios Magari,"Lingkungan Uwe Magari No.Kelurahan, Laompo, Batauga, Kabupaten Buton, Sulawesi Tenggara","Kabupaten Buton, Sulawesi Tenggara",SULAWESI TENGGARA,,Indonesia,,,,-5.62089,122.607349,https://maps.google.com/?cid=0x0:0xe91327490d9fce83,
toko bangunan,Toko Bahan Bangunan,Toko Sumber Rezeki,"Jl. Pangeran Limboro, Banabungi, Kec. Ps. Wajo, Kabupaten Buton, Sulawesi Tenggara 93754","Banabungi, Kec. Ps. Wajo, Kabupaten Buton",SULAWESI TENGGARA,93754.0,Indonesia,85241637184.0,,,-5.5110635,122.8429251,https://maps.google.com/?cid=0x0:0x502705c8e2f51436,
toko bangunan,Toko Bahan Bangunan,Bengkel gauri,"FPRX+6GG, Hendea, Kec. Sampolawa, Kabupaten Buton, Sulawesi Tenggara","Kabupaten Buton, Sulawesi Tenggara",SULAWESI TENGGARA,,Indonesia,,,,-5.5094463,122.7488266,https://maps.google.com/?cid=0x0:0xfb5daf40d87f7c82,
toko bangunan,Toko Bahan Bangunan,Kios Salju,"8MJ4+XCR, Poogalampa, Batauga, Kabupaten Buton, Sulawesi Tenggara","Kabupaten Buton, Sulawesi Tenggara",SULAWESI TENGGARA,,Indonesia,,,,-5.667522,122.6560016,https://maps.google.com/?cid=0x0:0xc6a8b2ad72862cfe,
toko bangunan,toko bangunan,sinar hajuu,"9Q4M+MJH, Unnamed Road, Gaya Baru, Kec. Lapandewa, Kabupaten Buton, Sulawesi Tenggara 93753","Unnamed Road, Gaya Baru, Kec. Lapandewa, Kabupaten Buton",SULAWESI TENGGARA,93753.0,Indonesia,,,,-5.6433046,122.7841111,https://maps.google.com/?cid=0x0:0x536c0157106adcbf,
toko bangunan,toko bangunan,Sulawesi Tenggara 93753,"Kabupaten Buton, Sulawesi Tenggara","Kabupaten Buton, Sulawesi Tenggara",SULAWESI TENGGARA,,Indonesia,,,,-5.5916275,122.7858791,https://maps.google.com/?cid=0x0:0x5d5b6b7c1f0a9413,
toko bangunan,Toko,Kios Mambulu (Barokah) Jaya Utama,"Jl. Poros Batauga, Dusun Laporoworu, Gn. Sejuk, Kec. Sampolawa, Kabupaten Buton, Sulawesi Tenggara 93753","Dusun Laporoworu, Gn. Sejuk, Kec. Sampolawa, Kabupaten Buton",SULAWESI TENGGARA,93753.0,Indonesia,,,,-5.5819375,122.7381875,https://maps.google.com/?cid=0x0:0xc02d319280ee6290,
toko bangunan,Toko Bahan Bangunan,Kios Rezky Sejuk (bahan bangunan dan alat listrik),"CP9P+5XC, Jl. Poros Batauga Desa, Gn. Sejuk, Kec. Sampolawa, Kabupaten Buton, Sulawesi Tenggara","Kabupaten Buton, Sulawesi Tenggara",SULAWESI TENGGARA,,Indonesia,82296939694.0,,,-5.5820653,122.7374031,https://maps.google.com/?cid=0x0:0xb96e255c84699a1a,
toko bangunan,Toko Bahan Bangunan,CV. SINAR MAKMUR,"9J8M+V9R, Majapahit, Batauga, Kabupaten Buton, Sulawesi Tenggara","Kabupaten Buton, Sulawesi Tenggara",SULAWESI TENGGARA,,Indonesia,,,,-5.6327668,122.6333973,https://maps.google.com/?cid=0x0:0x4cc92e7dcd7abbdf,
toko bangunan,Toko Bahan Bangunan,Toko Tunas Karya,"lingkungan kelurahan No.1, Laompo, Batauga, Kabupaten Buton, Sulawesi Tenggara 93752","Laompo, Batauga, Kabupaten Buton",SULAWESI TENGGARA,93752.0,Indonesia,85394331595.0,,,-5.6139928,122.6037674,https://maps.google.com/?cid=0x0:0x95b6404fb233c1f2,
toko bangunan,Minimarket,Toko Kios Magari,"Lingkungan Uwe Magari No.Kelurahan, Laompo, Batauga, Kabupaten Buton, Sulawesi Tenggara","Kabupaten Buton, Sulawesi Tenggara",SULAWESI TENGGARA,,Indonesia,,,,-5.62089,122.607349,https://maps.google.com/?cid=0x0:0xe91327490d9fce83,
toko bangunan,Toko Bahan Bangunan,Toko Sumber Rezeki,"Jl. Pangeran Limboro, Banabungi, Kec. Ps. Wajo, Kabupaten Buton, Sulawesi Tenggara 93754","Banabungi, Kec. Ps. Wajo, Kabupaten Buton",SULAWESI TENGGARA,93754.0,Indonesia,85241637184.0,,,-5.5110635,122.8429251,https://maps.google.com/?cid=0x0:0x502705c8e2f51436,
toko bangunan,Minimarket,UD. TRI PUTRI,"9Q4M+V9P, Gaya Baru, Kec. Lapandewa, Kabupaten Buton, Sulawesi Tenggara","Kabupaten Buton, Sulawesi Tenggara",SULAWESI TENGGARA,,Indonesia,81261371358.0,,,-5.6428,122.7834626,https://maps.google.com/?cid=0x0:0xba757fcb908236ca,
toko bangunan,Toko Bahan Bangunan,Toko Enam Saudara Lombe,"PHXH+439, kompleks pasar lombe, Bombonawulu, Kec. Gu, Kabupaten Buton, Sulawesi Tenggara 93761","kompleks pasar lombe, Bombonawulu, Kec. Gu, Kabupaten Buton",SULAWESI TENGGARA,93761.0,Indonesia,85299578579.0,,,-5.2522026,122.5777204,https://maps.google.com/?cid=0x0:0x278b5a28c6ed5919,
toko bangunan,Toko Bahan Bangunan,Toko Bangunan Rajawali,"Jl. Jend. Sudirman Lombe Buton Tengah No.7, Bombonawulu, Kec. Gu, Kabupaten Buton, Sulawesi Tenggara 93761","Bombonawulu, Kec. Gu, Kabupaten Buton",SULAWESI TENGGARA,93761.0,Indonesia,85241808922.0,,,-5.2526042,122.5763954,https://maps.google.com/?cid=0x0:0xf2f6cd42a4098c43,
toko bangunan,Pasar,Pasar Sentral Sampolawa,"9PC4+H89, Unnamed Road, Jaya Bakti, Kec. Sampolawa, Kabupaten Buton, Sulawesi Tenggara","Kabupaten Buton, Sulawesi Tenggara",SULAWESI TENGGARA,,Indonesia,,,,-5.6285971,122.705861,https://maps.google.com/?cid=0x0:0xe10293c971c3a998,
toko bangunan,Toko Bahan Bangunan,Bengkel gauri,"FPRX+6GG, Hendea, Kec. Sampolawa, Kabupaten Buton, Sulawesi Tenggara","Kabupaten Buton, Sulawesi Tenggara",SULAWESI TENGGARA,,Indonesia,,,,-5.5094463,122.7488266,https://maps.google.com/?cid=0x0:0xfb5daf40d87f7c82,
toko bangunan,Pusat Perbelanjaan,Toko bangunan Melati,"FVF5+WPR, Wagola, Kec. Ps. Wajo, Kabupaten Buton, Sulawesi Tenggara 93754","Wagola, Kec. Ps. Wajo, Kabupaten Buton",SULAWESI TENGGARA,93754.0,Indonesia,,,,-5.5251448,122.8592612,https://maps.google.com/?cid=0x0:0xeba8ba6f03670240,
toko bangunan,Toko Bahan Bangunan,Toko Mustika Dua,"Jl. Sultan Datanu Ikhsanuddin No.211, Lipu, Kec. Betoambari, Kota Bau-Bau, Sulawesi Tenggara 93724","Lipu, Kec. Betoambari, Kota Bau-Bau",SULAWESI TENGGARA,93724.0,Indonesia,81241998201.0,,,-5.4846192,122.5769278,https://maps.google.com/?cid=0x0:0xe742fb08d0b2aac,
toko bangunan,Toko Bahan Bangunan,JOGJA Bangunan Baubau,"Jl. Dayanu Ikhsanuddin No.27, Sulaa, Kec. Betoambari, Kota Bau-Bau, Sulawesi Tenggara","Kota Bau-Bau, Sulawesi Tenggara",SULAWESI TENGGARA,,Indonesia,,,,-5.5004173,122.5625364,https://maps.google.com/?cid=0x0:0xed3d249d1787046f,
toko bangunan,Toko Bahan Bangunan,Toko Bahan Bangunan Batauga Jaya,"Jl. Poros, pasar, Masiri, Batauga, Kabupaten Buton, Sulawesi Tenggara 93752","pasar, Masiri, Batauga, Kabupaten Buton",SULAWESI TENGGARA,93752.0,Indonesia,81242299192.0,,,-5.6058423,122.5966813,https://maps.google.com/?cid=0x0:0xa23110e6ef30e0e6,
toko bangunan,Toko,Kios yayat,"GJVP+C89, Jl. Anoa, Kadolomoko, Kec. Kokalukuna, Kota Bau-Bau, Sulawesi Tenggara 93716","Jl. Anoa, Kadolomoko, Kec. Kokalukuna, Kota Bau-Bau",SULAWESI TENGGARA,93716.0,Indonesia,82292826067.0,,,-5.4564721,122.635875,https://maps.google.com/?cid=0x0:0xec6220642d44a89c,
toko bangunan,Pusat Perbelanjaan,Toko MUTIARA BANGUNAN,"GJJ7+H4V, Jl. Gatot Subroto, Bukit Wolio Indah, Kec. Wolio, Kota Bau-Bau, Sulawesi Tenggara 93717","Jl. Gatot Subroto, Bukit Wolio Indah, Kec. Wolio, Kota Bau-Bau",SULAWESI TENGGARA,93717.0,Indonesia,,,,-5.4685039,122.6128014,https://maps.google.com/?cid=0x0:0x19ffc296d630dd50,
toko bangunan,Toko Bahan Bangunan,Toko Bangunan Mukhlis,"M5J7+J49, jalan Sulawesi Desa, Ambuau Indah, Lasalimu Selatan, Buton Regency, South East Sulawesi 93756","jalan Sulawesi Desa, Ambuau Indah, Lasalimu Selatan, Buton Regency",SULAWESI TENGGARA,93756.0,Indonesia,,,,-5.3184709,123.1628725,https://maps.google.com/?cid=0x0:0xf58ed61e19c8e691,
toko bangunan,Pasar bahan bangunan,Intan Building Center,"Jl. Budi Utomo No.90, Bataraguru, Kec. Wolio, Kota Bau-Bau, Sulawesi Tenggara 93717","Bataraguru, Kec. Wolio, Kota Bau-Bau",SULAWESI TENGGARA,93717.0,Indonesia,82292888886.0,,,-5.4658703,122.607269,https://maps.google.com/?cid=0x0:0xdd0e5cfd517f12e5,
toko bangunan,toko bangunan,Kec. Siompu,"Kabupaten Buton, Sulawesi Tenggara","Kabupaten Buton, Sulawesi Tenggara",SULAWESI TENGGARA,,Indonesia,,,,-5.6304618,122.5254693,https://maps.google.com/?cid=0x0:0x2718691e607a701,
toko bangunan,Toko Pakaian,"LISTA KATAMPE.Toko pelengkapan rumah,bahan bangunan,elektronik dll.","8F7G+2FJ, Katampe, Kec. Siompu Bar., Kabupaten Buton, Sulawesi Tenggara 93752","Katampe, Kec. Siompu Bar., Kabupaten Buton",SULAWESI TENGGARA,93752.0,Indonesia,81344445680.0,,,-5.6874005,122.4761274,https://maps.google.com/?cid=0x0:0x4d8227f258943142,
toko bangunan,toko bangunan,UD.BERKAH SIOMPU,"8GJ6+7JV, Biwinapada, Kec. Siompu, Kabupaten Buton, Sulawesi Tenggara 93752","Biwinapada, Kec. Siompu, Kabupaten Buton",SULAWESI TENGGARA,93752.0,Indonesia,,,,-5.6692734,122.51156,https://maps.google.com/?cid=0x0:0x244283436d1a60e5,
toko bangunan,Toko Bahan Bangunan,Toko Bahan Bangunan Batauga Jaya,"Jl. Poros, pasar, Masiri, Batauga, Kabupaten Buton, Sulawesi Tenggara 93752","pasar, Masiri, Batauga, Kabupaten Buton",SULAWESI TENGGARA,93752.0,Indonesia,81242299192.0,,,-5.6058423,122.5966813,https://maps.google.com/?cid=0x0:0xa23110e6ef30e0e6,
toko bangunan,Toko Pakaian,"LISTA KATAMPE.Toko pelengkapan rumah,bahan bangunan,elektronik dll.","8F7G+2FJ, Katampe, Kec. Siompu Bar., Kabupaten Buton, Sulawesi Tenggara 93752","Katampe, Kec. Siompu Bar., Kabupaten Buton",SULAWESI TENGGARA,93752.0,Indonesia,81344445680.0,,,-5.6874005,122.4761274,https://maps.google.com/?cid=0x0:0x4d8227f258943142,
toko bangunan,Toko,Toko Lista,"Unnamed Road, Nggulanggula, Kec. Siompu, Kabupaten Buton, Sulawesi Tenggara 93752","Nggulanggula, Kec. Siompu, Kabupaten Buton",SULAWESI TENGGARA,93752.0,Indonesia,,,,-5.6588757,122.5120397,https://maps.google.com/?cid=0x0:0xc90c69190074d57d,
hardware store,hardware store,Sulawesi Tenggara 93752,"Kabupaten Buton, Sulawesi Tenggara","Kabupaten Buton, Sulawesi Tenggara",SULAWESI TENGGARA,,Indonesia,,,,-5.6000771,122.650351,https://maps.google.com/?cid=0x0:0x1c436516d6448e13,
hardware store,Toko Bahan Bangunan,Toko Bahan Bangunan Batauga Jaya,"Jl. Poros, pasar, Masiri, Batauga, Kabupaten Buton, Sulawesi Tenggara 93752","pasar, Masiri, Batauga, Kabupaten Buton",SULAWESI TENGGARA,93752.0,Indonesia,81242299192.0,,,-5.6058423,122.5966813,https://maps.google.com/?cid=0x0:0xa23110e6ef30e0e6,
hardware store,Toko,Kios Mambulu (Barokah) Jaya Utama,"Jl. Poros Batauga, Dusun Laporoworu, Gn. Sejuk, Kec. Sampolawa, Kabupaten Buton, Sulawesi Tenggara 93753","Dusun Laporoworu, Gn. Sejuk, Kec. Sampolawa, Kabupaten Buton",SULAWESI TENGGARA,93753.0,Indonesia,,,,-5.5819375,122.7381875,https://maps.google.com/?cid=0x0:0xc02d319280ee6290,
hardware store,Toko Swalayan,Toko Fajar,"9JQ8+V7G, lrg.bahagia selatan prov., Lakambau, Batauga, Kabupaten Buton, Sulawesi Tenggara 93752","lrg.bahagia selatan prov., Lakambau, Batauga, Kabupaten Buton",SULAWESI TENGGARA,93752.0,Indonesia,85342488495.0,,,-5.610301,122.6157,https://maps.google.com/?cid=0x0:0x6b271853db2e7429,
hardware store,hardware store,,,,SULAWESI TENGGARA,,Indonesia,82293486588.0,,,-2.44565,117.8888,https://maps.google.com/?cid=0x0:0xde387e986ecf8e6c,
hardware store,Pasar bahan bangunan,Intan Building Center,"Jl. Budi Utomo No.90, Bataraguru, Kec. Wolio, Kota Bau-Bau, Sulawesi Tenggara 93717","Bataraguru, Kec. Wolio, Kota Bau-Bau",SULAWESI TENGGARA,93717.0,Indonesia,82292888886.0,,,-5.4658703,122.607269,https://maps.google.com/?cid=0x0:0xdd0e5cfd517f12e5,
hardware store,Toko Perlengkapan Rumah,MR.DIY,"GHHP+JM2, Jl. Betoambari, Katobengke, Kec. Betoambari, Kota Bau-Bau, Sulawesi Tenggara 93714","Jl. Betoambari, Katobengke, Kec. Betoambari, Kota Bau-Bau",SULAWESI TENGGARA,93714.0,Indonesia,,,,-5.4709486,122.5865845,https://maps.google.com/?cid=0x0:0xd3b2f333e8b02115,
hardware store,Gudang,Toko Jawi Konstruksi,"Lanto, Kec. Murhum, Kota Bau-Bau, Sulawesi Tenggara 93717","Kec. Murhum, Kota Bau-Bau",SULAWESI TENGGARA,93717.0,Indonesia,82119453925.0,,,-5.4571169,122.5991928,https://maps.google.com/?cid=0x0:0xca0f712e7cb09266,
hardware store,Toserba,MR.DIY Lippo Buton,"Lippo Plaza Buton, Jl. Sultan Hasanuddin No.58, Batulo, Kec. Wolio, Kota Bau-Bau, Sulawesi Tenggara 93716","Jl. Sultan Hasanuddin No.58, Batulo, Kec. Wolio, Kota Bau-Bau",SULAWESI TENGGARA,93716.0,Indonesia,2130022789.0,,,-5.4610252,122.6195438,https://maps.google.com/?cid=0x0:0xa034470c6f876dce,
hardware store,Toko Perlengkapan Rumah,Toko Jakarta (Alat Teknik  Barang Campuran),"Jl. R.a. Kartini No.80, Wale, Kec. Wolio, Kota Bau-Bau, Sulawesi Tenggara 93717","Wale, Kec. Wolio, Kota Bau-Bau",SULAWESI TENGGARA,93717.0,Indonesia,4022821059.0,,,-5.4566777,122.6048037,https://maps.google.com/?cid=0x0:0x2220a0eb94b5728b,
hardware store,Toko Bahan Bangunan,Sinar Berlian,"Jl. Brigjen Katamso No.3 A, Wale, Kec. Wolio, Kota Bau-Bau, Sulawesi Tenggara 93717","Wale, Kec. Wolio, Kota Bau-Bau",SULAWESI TENGGARA,93717.0,Indonesia,4022821413.0,,,-5.4564908,122.6048778,https://maps.google.com/?cid=0x0:0xa0c883fa27494e61,
hardware store,Toko Bahan Bangunan,Toko Roda Mas 88,"Jl. Yos Sudarso No.88, Wale, Kec. Wolio, Kota Bau-Bau, Sulawesi Tenggara 93711","Wale, Kec. Wolio, Kota Bau-Bau",SULAWESI TENGGARA,93711.0,Indonesia,82193135333.0,,,-5.4563469,122.6042567,https://maps.google.com/?cid=0x0:0x668f3e5a4d1b1366,
hardware store,Toko,Toko Hakiki,"Jl. Dr. Wahidin No.106, Lamangga, Kec. Murhum, Kota Bau-Bau, Sulawesi Tenggara 93713","Lamangga, Kec. Murhum, Kota Bau-Bau",SULAWESI TENGGARA,93713.0,Indonesia,,,,-5.4632577,122.5967795,https://maps.google.com/?cid=0x0:0x99f9d6a11094f05a,
hardware store,Toko Bahan Bangunan,Jual Bahan Bangunan,"Jl. Pahlawan Lorong Perumahan Bukitsari, Kadolo Katapi, Kec. Wolio, Kota Bau-Bau, Sulawesi Tenggara","Kota Bau-Bau, Sulawesi Tenggara",SULAWESI TENGGARA,,Indonesia,81341938700.0,,,-5.4687118,122.6346344,https://maps.google.com/?cid=0x0:0x5132938d11933fa2,
hardware store,hardware store,Batauga,"Masiri, Batauga, Kabupaten Buton, Sulawesi Tenggara","Kabupaten Buton, Sulawesi Tenggara",SULAWESI TENGGARA,,Indonesia,,,,-5.610301,122.6157,https://maps.google.com/?cid=0x0:0xb59244aa04e5e53e,
hardware store,Minimarket,Toko Kios Magari,"Lingkungan Uwe Magari No.Kelurahan, Laompo, Batauga, Kabupaten Buton, Sulawesi Tenggara","Kabupaten Buton, Sulawesi Tenggara",SULAWESI TENGGARA,,Indonesia,,,,-5.62089,122.607349,https://maps.google.com/?cid=0x0:0xe91327490d9fce83,
hardware store,hardware store,Sulawesi Tenggara 93753,"Kabupaten Buton, Sulawesi Tenggara","Kabupaten Buton, Sulawesi Tenggara",SULAWESI TENGGARA,,Indonesia,,,,-5.5916275,122.7858791,https://maps.google.com/?cid=0x0:0x5d5b6b7c1f0a9413,
hardware store,Toko,Kios Mambulu (Barokah) Jaya Utama,"Jl. Poros Batauga, Dusun Laporoworu, Gn. Sejuk, Kec. Sampolawa, Kabupaten Buton, Sulawesi Tenggara 93753","Dusun Laporoworu, Gn. Sejuk, Kec. Sampolawa, Kabupaten Buton",SULAWESI TENGGARA,93753.0,Indonesia,,,,-5.5819375,122.7381875,https://maps.google.com/?cid=0x0:0xc02d319280ee6290,
hardware store,Toserba,MR.DIY Lippo Buton,"Lippo Plaza Buton, Jl. Sultan Hasanuddin No.58, Batulo, Kec. Wolio, Kota Bau-Bau, Sulawesi Tenggara 93716","Jl. Sultan Hasanuddin No.58, Batulo, Kec. Wolio, Kota Bau-Bau",SULAWESI TENGGARA,93716.0,Indonesia,2130022789.0,,,-5.4610252,122.6195438,https://maps.google.com/?cid=0x0:0xa034470c6f876dce,
hardware store,Toko Perlengkapan Rumah,MR.DIY,"GHHP+JM2, Jl. Betoambari, Katobengke, Kec. Betoambari, Kota Bau-Bau, Sulawesi Tenggara 93714","Jl. Betoambari, Katobengke, Kec. Betoambari, Kota Bau-Bau",SULAWESI TENGGARA,93714.0,Indonesia,,,,-5.4709486,122.5865845,https://maps.google.com/?cid=0x0:0xd3b2f333e8b02115,
hardware store,Toko Bahan Bangunan,Toko Sumber Rezeki,"Jl. Pangeran Limboro, Banabungi, Kec. Ps. Wajo, Kabupaten Buton, Sulawesi Tenggara 93754","Banabungi, Kec. Ps. Wajo, Kabupaten Buton",SULAWESI TENGGARA,93754.0,Indonesia,85241637184.0,,,-5.5110635,122.8429251,https://maps.google.com/?cid=0x0:0x502705c8e2f51436,
hardware store,Toko Bahan Bangunan,Sinar Berlian,"Jl. Brigjen Katamso No.3 A, Wale, Kec. Wolio, Kota Bau-Bau, Sulawesi Tenggara 93717","Wale, Kec. Wolio, Kota Bau-Bau",SULAWESI TENGGARA,93717.0,Indonesia,4022821413.0,,,-5.4564908,122.6048778,https://maps.google.com/?cid=0x0:0xa0c883fa27494e61,
hardware store,Gudang,Toko Jawi Konstruksi,"Lanto, Kec. Murhum, Kota Bau-Bau, Sulawesi Tenggara 93717","Kec. Murhum, Kota Bau-Bau",SULAWESI TENGGARA,93717.0,Indonesia,82119453925.0,,,-5.4571169,122.5991928,https://maps.google.com/?cid=0x0:0xca0f712e7cb09266,
hardware store,Toko Bahan Bangunan,IzzieHome Baubau,"Batulo, Kec. Wolio, Kota Bau-Bau, Sulawesi Tenggara 93717","Kec. Wolio, Kota Bau-Bau",SULAWESI TENGGARA,93717.0,Indonesia,4022821377.0,,,-5.4592394,122.6140646,https://maps.google.com/?cid=0x0:0x63f4893b60e877da,
hardware store,Pusat Perbelanjaan,Toko bangunan Melati,"FVF5+WPR, Wagola, Kec. Ps. Wajo, Kabupaten Buton, Sulawesi Tenggara 93754","Wagola, Kec. Ps. Wajo, Kabupaten Buton",SULAWESI TENGGARA,93754.0,Indonesia,,,,-5.5251448,122.8592612,https://maps.google.com/?cid=0x0:0xeba8ba6f03670240,
hardware store,Toko Perlengkapan Rumah,Toko Jakarta (Alat Teknik  Barang Campuran),"Jl. R.a. Kartini No.80, Wale, Kec. Wolio, Kota Bau-Bau, Sulawesi Tenggara 93717","Wale, Kec. Wolio, Kota Bau-Bau",SULAWESI TENGGARA,93717.0,Indonesia,4022821059.0,,,-5.4566777,122.6048037,https://maps.google.com/?cid=0x0:0x2220a0eb94b5728b,
hardware store,Toko Bahan Bangunan,Toko Bahan Bangunan Batauga Jaya,"Jl. Poros, pasar, Masiri, Batauga, Kabupaten Buton, Sulawesi Tenggara 93752","pasar, Masiri, Batauga, Kabupaten Buton",SULAWESI TENGGARA,93752.0,Indonesia,81242299192.0,,,-5.6058423,122.5966813,https://maps.google.com/?cid=0x0:0xa23110e6ef30e0e6,
hardware store,Toko Bahan Bangunan,SUMBER JAYA MAKMUR,"CH4X+834, Busoa, Batauga, Kabupaten Buton, Sulawesi Tenggara","Kabupaten Buton, Sulawesi Tenggara",SULAWESI TENGGARA,,Indonesia,81342354418.0,,,-5.5942443,122.5977009,https://maps.google.com/?cid=0x0:0x8f3cb9d682c29219,
hardware store,Printer Digital,Foto Copy dan Depot Air RO Ar-Rayzah,"Jl. Teuku Umar No.26, Batulo, Kec. Wolio, Kota Bau-Bau, Sulawesi Tenggara 93717","Batulo, Kec. Wolio, Kota Bau-Bau",SULAWESI TENGGARA,93717.0,Indonesia,82310373555.0,,,-5.4583987,122.6167887,https://maps.google.com/?cid=0x0:0x335d51221d170d51,
hardware store,Toko,EIGER ADVENTURE STORE BAUBAU,"Jl. Batara Guru No.83, Wajo, Kec. Murhum, Kota Bau-Bau, Sulawesi Tenggara 93712","Wajo, Kec. Murhum, Kota Bau-Bau",SULAWESI TENGGARA,93712.0,Indonesia,81120008345.0,,,-5.4622761,122.6046166,https://maps.google.com/?cid=0x0:0xfdf3112149567364,
hardware store,Toko Bahan Bangunan,Toko Roda Mas 88,"Jl. Yos Sudarso No.88, Wale, Kec. Wolio, Kota Bau-Bau, Sulawesi Tenggara 93711","Wale, Kec. Wolio, Kota Bau-Bau",SULAWESI TENGGARA,93711.0,Indonesia,82193135333.0,,,-5.4563469,122.6042567,https://maps.google.com/?cid=0x0:0x668f3e5a4d1b1366,
hardware store,Toko Bahan Bangunan,Toko Intan BauBau,"Jl. Brigjen Katamso No.3A, Wale, Kec. Wolio, Kota Bau-Bau, Sulawesi Tenggara 93717","Wale, Kec. Wolio, Kota Bau-Bau",SULAWESI TENGGARA,93717.0,Indonesia,4022821009.0,,,-5.456583,122.6049064,https://maps.google.com/?cid=0x0:0xc82b2fb063975784,
hardware store,Toko Bahan Bangunan,Toko Sinar Surya,"Jl. RA. Kartini No.37, Wale, Kec. Wolio, Kota Bau-Bau, Sulawesi Tenggara 93717","Wale, Kec. Wolio, Kota Bau-Bau",SULAWESI TENGGARA,93717.0,Indonesia,4022821608.0,,,-5.4561494,122.6047287,https://maps.google.com/?cid=0x0:0xf9e53df0c463e05e,
hardware store,Toko,Toko Hakiki,"Jl. Dr. Wahidin No.106, Lamangga, Kec. Murhum, Kota Bau-Bau, Sulawesi Tenggara 93713","Lamangga, Kec. Murhum, Kota Bau-Bau",SULAWESI TENGGARA,93713.0,Indonesia,,,,-5.4632577,122.5967795,https://maps.google.com/?cid=0x0:0x99f9d6a11094f05a,
hardware store,Pusat Perbelanjaan,Family Shop (FS),"GR4R+MJQ, Jl. Balai Kota, Kambula Mbulana, Kec. Ps. Wajo, Kabupaten Buton, Sulawesi Tenggara 93754","Jl. Balai Kota, Kambula Mbulana, Kec. Ps. Wajo, Kabupaten Buton",SULAWESI TENGGARA,93754.0,Indonesia,85216308391.0,,,-5.4932857,122.8416226,https://maps.google.com/?cid=0x0:0xbbfe474e91febead,
hardware store,Toko Alat Tulis Kantor,Lortax Copy,"GHMW+4FF, Lamangga, Kec. Murhum, Kota Bau-Bau, Sulawesi Tenggara 93713","Lamangga, Kec. Murhum, Kota Bau-Bau",SULAWESI TENGGARA,93713.0,Indonesia,,,,-5.4671759,122.596177,https://maps.google.com/?cid=0x0:0x1f49516f83a1b51e,
hardware store,hardware store,Kec. Batu Atas,"Kabupaten Buton, Sulawesi Tenggara","Kabupaten Buton, Sulawesi Tenggara",SULAWESI TENGGARA,,Indonesia,,,,-6.206587,122.718311,https://maps.google.com/?cid=0x0:0x4823161ea155a8e3,
hardware store,Kios,KIOS MAMBULU JAYA,"Jln.Pasar Mambulu No.29 Kel, Jaya Bakti, Kec. Sampolawa, Kabupaten Buton, Sulawesi Tenggara 93753","Jaya Bakti, Kec. Sampolawa, Kabupaten Buton",SULAWESI TENGGARA,93753.0,Indonesia,81396660008.0,,,-5.6287177,122.7057181,https://maps.google.com/?cid=0x0:0x18d08671ac614520,
hardware store,hardware store,,,,SULAWESI TENGGARA,,Indonesia,82293486588.0,,,-2.44565,117.8888,https://maps.google.com/?cid=0x0:0xde387e986ecf8e6c,
hardware store,hardware store,Kec. Kadatua,"Kabupaten Buton, Sulawesi Tenggara","Kabupaten Buton, Sulawesi Tenggara",SULAWESI TENGGARA,,Indonesia,,,,-5.5330522,122.4744908,https://maps.google.com/?cid=0x0:0xa7c55634cc618f76,
hardware store,hardware store,Lapandewa,"Kec. Lapandewa, Kabupaten Buton, Sulawesi Tenggara","Kabupaten Buton, Sulawesi Tenggara",SULAWESI TENGGARA,,Indonesia,,,,-5.5950795,122.8028074,https://maps.google.com/?cid=0x0:0x6ff5a1676f28f9a7,
hardware store,Toko Alat Musik,Galeri Musik Jakarta,"Mall Kelapa Gading 1 Lantai G, Jl. Boulevard Raya, RT.13/RW.18, Klp. Gading Tim., Kec. Klp. Gading, Jkt Utara, Daerah Khusus Ibukota Jakarta 14240","Jl. Boulevard Raya, RT.13/RW.18, Klp. Gading Tim., Kec. Klp. Gading, Jkt Utara",SULAWESI TENGGARA,14240.0,Indonesia,8998915521.0,,,-6.1583247,106.9081361,https://maps.google.com/?cid=0x0:0x5bea531affc8f65b,
hardware store,Toko,Kios Mambulu (Barokah) Jaya Utama,"Jl. Poros Batauga, Dusun Laporoworu, Gn. Sejuk, Kec. Sampolawa, Kabupaten Buton, Sulawesi Tenggara 93753","Dusun Laporoworu, Gn. Sejuk, Kec. Sampolawa, Kabupaten Buton",SULAWESI TENGGARA,93753.0,Indonesia,,,,-5.5819375,122.7381875,https://maps.google.com/?cid=0x0:0xc02d319280ee6290,
hardware store,Kios,KIOS MAMBULU JAYA,"Jln.Pasar Mambulu No.29 Kel, Jaya Bakti, Kec. Sampolawa, Kabupaten Buton, Sulawesi Tenggara 93753","Jaya Bakti, Kec. Sampolawa, Kabupaten Buton",SULAWESI TENGGARA,93753.0,Indonesia,81396660008.0,,,-5.6287177,122.7057181,https://maps.google.com/?cid=0x0:0x18d08671ac614520,
hardware store,Toko Bahan Bangunan,Toko Bahan Bangunan Batauga Jaya,"Jl. Poros, pasar, Masiri, Batauga, Kabupaten Buton, Sulawesi Tenggara 93752","pasar, Masiri, Batauga, Kabupaten Buton",SULAWESI TENGGARA,93752.0,Indonesia,81242299192.0,,,-5.6058423,122.5966813,https://maps.google.com/?cid=0x0:0xa23110e6ef30e0e6,
hardware store,Pemasok Bahan Bangunan,Toko tiga jaya,"Jl. Betoambari No.182, Katobengke, Kec. Betoambari, Kota Bau-Bau, Sulawesi Tenggara 93714","Katobengke, Kec. Betoambari, Kota Bau-Bau",SULAWESI TENGGARA,93714.0,Indonesia,,,,-5.4710023,122.5865496,https://maps.google.com/?cid=0x0:0x1d98e36b55fe2565,
hardware store,hardware store,Kec. Siompu,"Kabupaten Buton, Sulawesi Tenggara","Kabupaten Buton, Sulawesi Tenggara",SULAWESI TENGGARA,,Indonesia,,,,-5.6304618,122.5254693,https://maps.google.com/?cid=0x0:0x2718691e607a701,
hardware store,hardware store,Kec. Siompu Bar.,"Kabupaten Buton, Sulawesi Tenggara","Kabupaten Buton, Sulawesi Tenggara",SULAWESI TENGGARA,,Indonesia,,,,-5.6899378,122.4818486,https://maps.google.com/?cid=0x0:0xdc7d5a3172232e78,
home improvement,home improvement,Sulawesi Tenggara 93752,"Kabupaten Buton, Sulawesi Tenggara","Kabupaten Buton, Sulawesi Tenggara",SULAWESI TENGGARA,,Indonesia,,,,-5.6000771,122.650351,https://maps.google.com/?cid=0x0:0x1c436516d6448e13,
home improvement,Balai masyarakat,"home La Baai, S.Pd.I","Jl. Gajah Mada No.648, Laompo, Batauga, Kabupaten Buton, Sulawesi Tenggara 93752","Laompo, Batauga, Kabupaten Buton",SULAWESI TENGGARA,93752.0,Indonesia,,,,-5.6085208,122.5988399,https://maps.google.com/?cid=0x0:0xe82393d3da5cc82c,
home improvement,Toko Bahan Bangunan,Toko Tunas Karya,"lingkungan kelurahan No.1, Laompo, Batauga, Kabupaten Buton, Sulawesi Tenggara 93752","Laompo, Batauga, Kabupaten Buton",SULAWESI TENGGARA,93752.0,Indonesia,85394331595.0,,,-5.6139928,122.6037674,https://maps.google.com/?cid=0x0:0x95b6404fb233c1f2,
home improvement,Pasar bahan bangunan,Intan Building Center,"Jl. Budi Utomo No.90, Bataraguru, Kec. Wolio, Kota Bau-Bau, Sulawesi Tenggara 93717","Bataraguru, Kec. Wolio, Kota Bau-Bau",SULAWESI TENGGARA,93717.0,Indonesia,82292888886.0,,,-5.4658703,122.607269,https://maps.google.com/?cid=0x0:0xdd0e5cfd517f12e5,
home improvement,Toko Perlengkapan Rumah,MR.DIY,"GHHP+JM2, Jl. Betoambari, Katobengke, Kec. Betoambari, Kota Bau-Bau, Sulawesi Tenggara 93714","Jl. Betoambari, Katobengke, Kec. Betoambari, Kota Bau-Bau",SULAWESI TENGGARA,93714.0,Indonesia,,,,-5.4709486,122.5865845,https://maps.google.com/?cid=0x0:0xd3b2f333e8b02115,
home improvement,Pabrikan mebel,UD. RINO,"8GJ6+39V, Biwinapada, Kec. Siompu, Kabupaten Buton, Sulawesi Tenggara 93752","Biwinapada, Kec. Siompu, Kabupaten Buton",SULAWESI TENGGARA,93752.0,Indonesia,82189976593.0,,,-5.6697587,122.510925,https://maps.google.com/?cid=0x0:0x485a3da41537b63d,
home improvement,Toko Perlengkapan Rumah,CV APU,"GJG7+F73, Jl. Bhakti ABRI, Bukit Wolio Indah, Kec. Wolio, Kota Bau-Bau, Sulawesi Tenggara 93713","Jl. Bhakti ABRI, Bukit Wolio Indah, Kec. Wolio, Kota Bau-Bau",SULAWESI TENGGARA,93713.0,Indonesia,,,,-5.4738541,122.6131741,https://maps.google.com/?cid=0x0:0xdb23c6a1c30c7ba,
home improvement,Toserba,MR.DIY Lippo Buton,"Lippo Plaza Buton, Jl. Sultan Hasanuddin No.58, Batulo, Kec. Wolio, Kota Bau-Bau, Sulawesi Tenggara 93716","Jl. Sultan Hasanuddin No.58, Batulo, Kec. Wolio, Kota Bau-Bau",SULAWESI TENGGARA,93716.0,Indonesia,2130022789.0,,,-5.4610252,122.6195438,https://maps.google.com/?cid=0x0:0xa034470c6f876dce,
home improvement,home improvement,Putra pandawa,,,SULAWESI TENGGARA,,Indonesia,82271421854.0,,,-5.4710754,122.6063884,https://maps.google.com/?cid=0x0:0xf7ee45907f69ed33,
home improvement,Toko Mebel,Toko Bc Home,"GJJF+859, Jl. Pahlawan, Bukit Wolio Indah, Kec. Wolio, Kota Bau-Bau, Sulawesi Tenggara 93711","Jl. Pahlawan, Bukit Wolio Indah, Kec. Wolio, Kota Bau-Bau",SULAWESI TENGGARA,93711.0,Indonesia,,,,-5.4692045,122.622977,https://maps.google.com/?cid=0x0:0x754c8a6859f6eb2,
home improvement,Komplek perumahan,Bau2 Design Interior/Exterior,"FHW7+R74, Sulaa, Kec. Murhum, Kota Bau-Bau, Sulawesi Tenggara 93721","Sulaa, Kec. Murhum, Kota Bau-Bau",SULAWESI TENGGARA,93721.0,Indonesia,81355279191.0,,,-5.5031618,122.563153,https://maps.google.com/?cid=0x0:0x1a2d5db93f517601,
home improvement,Toko Bahan Bangunan,Intan Building Center 2,"Jl. R.a. Kartini No.68, Wale, Kec. Wolio, Kota Bau-Bau, Sulawesi Tenggara 93717","Wale, Kec. Wolio, Kota Bau-Bau",SULAWESI TENGGARA,93717.0,Indonesia,82292888886.0,,,-5.4565292,122.6051852,https://maps.google.com/?cid=0x0:0x4743d2cd70649910,
home improvement,Toko Perlengkapan Rumah,Toko Busa Perdana Tiga,"GH5C+XF8, Lipu, Kec. Betoambari, Kota Bau-Bau, Sulawesi Tenggara 93721","Lipu, Kec. Betoambari, Kota Bau-Bau",SULAWESI TENGGARA,93721.0,Indonesia,85343574617.0,,,-5.4900166,122.5701956,https://maps.google.com/?cid=0x0:0x287e38cdca13f95f,
home improvement,Toko,GOLDEN PLAFON BAUBAU,"Jl. Moh. Husni Thamrin No.55, Bataraguru, Kec. Wolio, Kota Bau-Bau, Sulawesi Tenggara 93717","Bataraguru, Kec. Wolio, Kota Bau-Bau",SULAWESI TENGGARA,93717.0,Indonesia,82271353831.0,,,-5.4633357,122.6088964,https://maps.google.com/?cid=0x0:0x4581a6d850b3578a,
home improvement,Toko Mebel,ILAS SEMOGA JAYA,"Jl. Gajah Mada, Lipu, Kec. Betoambari, Kota Bau-Bau, Sulawesi Tenggara 93714","Lipu, Kec. Betoambari, Kota Bau-Bau",SULAWESI TENGGARA,93714.0,Indonesia,82194762397.0,,,-5.4744614,122.5912772,https://maps.google.com/?cid=0x0:0x46744092f1ede24d,
home improvement,Kantor Perusahaan,Nagamas Tunas Distrindo. PT,"FHWV+HFC, Waborobo, Kec. Betoambari, Kota Bau-Bau, Sulawesi Tenggara 93721","Waborobo, Kec. Betoambari, Kota Bau-Bau",SULAWESI TENGGARA,93721.0,Indonesia,4022821213.0,,,-5.503564,122.593632,https://maps.google.com/?cid=0x0:0x6b0c514504d0295b,
home improvement,Toko,Toko BENGAWAN INTERIOR,"GJR3+W7Q, JEMBATAN GANTUNG, Nganganaumala, Batupoara, Kota Bau-Bau, Sulawesi Tenggara","Kota Bau-Bau, Sulawesi Tenggara",SULAWESI TENGGARA,,Indonesia,,,,-5.4576503,122.603238,https://maps.google.com/?cid=0x0:0xf43210c87efe2e55,
home improvement,Toko Bahan Bangunan,Toko Intan BauBau,"Jl. Brigjen Katamso No.3A, Wale, Kec. Wolio, Kota Bau-Bau, Sulawesi Tenggara 93717","Wale, Kec. Wolio, Kota Bau-Bau",SULAWESI TENGGARA,93717.0,Indonesia,4022821009.0,,,-5.456583,122.6049064,https://maps.google.com/?cid=0x0:0xc82b2fb063975784,
home improvement,Toko Perlengkapan Rumah,Perabot Rumah tangga,"Jalan LA Elangi No.mor 12, Lanto, Kecamatan Batupoaro, Kota Bau-Bau, Sulawesi Tenggara 93721","Lanto, Kecamatan Batupoaro, Kota Bau-Bau",SULAWESI TENGGARA,93721.0,Indonesia,82252245960.0,,,-5.507078,122.596901,https://maps.google.com/?cid=0x0:0x71ff67ad24ef2caf,
home improvement,Komplek perumahan,H. Harsanto's home (Palm Beach Residence),"FHX7+JQH, Jalan, Sulaa, Betoambari, Bau-Bau City, South East Sulawesi 93721","Jalan, Sulaa, Betoambari, Bau-Bau City",SULAWESI TENGGARA,93721.0,Indonesia,,,,-5.5009434,122.564477,https://maps.google.com/?cid=0x0:0x1468227dc4885ae8,
home improvement,Toko Mebel,CV. ASFIRA SEJAHTERA,"Jl. Labalawo, Wajo, Kec. Murhum, Kota Bau-Bau, Sulawesi Tenggara 93713","Wajo, Kec. Murhum, Kota Bau-Bau",SULAWESI TENGGARA,93713.0,Indonesia,82187461555.0,,,-5.4726038,122.6018648,https://maps.google.com/?cid=0x0:0x7b9be29a7c0f54d9,
home improvement,Perusahaan Konstruksi,Benkel las WB,"GJPJ+VGH, Kadolo, Kec. Kokalukuna, Kota Bau-Bau, Sulawesi Tenggara 93716","Kadolo, Kec. Kokalukuna, Kota Bau-Bau",SULAWESI TENGGARA,93716.0,Indonesia,,,,-5.4633317,122.6310196,https://maps.google.com/?cid=0x0:0xf6fb3af0e00e9bf6,
home improvement,Kontraktor Umum,VEY JASA KONTRUKSI,"Bukit Wolio Indah, Kec. Wolio, Kota Bau-Bau, Sulawesi Tenggara","Kota Bau-Bau, Sulawesi Tenggara",SULAWESI TENGGARA,,Indonesia,,,,-5.4745744,122.6154836,https://maps.google.com/?cid=0x0:0xdc1b4d7dc573360d,
home improvement,Kontraktor Umum,LASKARYABUTUNI,"Lrg. SKB, Batulo, Kec. Wolio, Kota Bau-Bau, Sulawesi Tenggara 93717","Batulo, Kec. Wolio, Kota Bau-Bau",SULAWESI TENGGARA,93717.0,Indonesia,85239842969.0,,,-5.4624135,122.6194264,https://maps.google.com/?cid=0x0:0x71f3f543f9cf7570,
home improvement,home improvement,,,,SULAWESI TENGGARA,,Indonesia,81341230406.0,,,-5.4710754,122.6063884,https://maps.google.com/?cid=0x0:0x69ac12b56ca37d37,
home improvement,home improvement,,,,SULAWESI TENGGARA,,Indonesia,82293486588.0,,,-2.44565,117.8888,https://maps.google.com/?cid=0x0:0xde387e986ecf8e6c,
home improvement,home improvement,Putra pandawa,,,SULAWESI TENGGARA,,Indonesia,82271421854.0,,,-5.4710754,122.6063884,https://maps.google.com/?cid=0x0:0xf7ee45907f69ed33,
home improvement,home improvement,Sulawesi Tenggara 93753,"Kabupaten Buton, Sulawesi Tenggara","Kabupaten Buton, Sulawesi Tenggara",SULAWESI TENGGARA,,Indonesia,,,,-5.5916275,122.7858791,https://maps.google.com/?cid=0x0:0x5d5b6b7c1f0a9413,
home improvement,home improvement,Sulawesi Tenggara 93752,"Kabupaten Buton, Sulawesi Tenggara","Kabupaten Buton, Sulawesi Tenggara",SULAWESI TENGGARA,,Indonesia,,,,-5.6000771,122.650351,https://maps.google.com/?cid=0x0:0x1c436516d6448e13,
home improvement,home improvement,,,,SULAWESI TENGGARA,,Indonesia,82293486588.0,,,-2.44565,117.8888,https://maps.google.com/?cid=0x0:0xde387e986ecf8e6c,
home improvement,home improvement,,,,SULAWESI TENGGARA,,Indonesia,81341230406.0,,,-5.4710754,122.6063884,https://maps.google.com/?cid=0x0:0x69ac12b56ca37d37,
home improvement,home improvement,Naning House,"FF8F+FJC, Marawali, Kec. Kadatua, Kabupaten Buton, Sulawesi Tenggara 93752","Marawali, Kec. Kadatua, Kabupaten Buton",SULAWESI TENGGARA,93752.0,Indonesia,,,,-5.5338195,122.4740169,https://maps.google.com/?cid=0x0:0xd1212055524e1e86,
home improvement,home improvement,Putra pandawa,,,SULAWESI TENGGARA,,Indonesia,82271421854.0,,,-5.4710754,122.6063884,https://maps.google.com/?cid=0x0:0xf7ee45907f69ed33,
home improvement,Toko,Kios yayat,"GJVP+C89, Jl. Anoa, Kadolomoko, Kec. Kokalukuna, Kota Bau-Bau, Sulawesi Tenggara 93716","Jl. Anoa, Kadolomoko, Kec. Kokalukuna, Kota Bau-Bau",SULAWESI TENGGARA,93716.0,Indonesia,82292826067.0,,,-5.4564721,122.635875,https://maps.google.com/?cid=0x0:0xec6220642d44a89c,
home improvement,home improvement,Lapandewa,"Kec. Lapandewa, Kabupaten Buton, Sulawesi Tenggara","Kabupaten Buton, Sulawesi Tenggara",SULAWESI TENGGARA,,Indonesia,,,,-5.5950795,122.8028074,https://maps.google.com/?cid=0x0:0x6ff5a1676f28f9a7,
home improvement,Area Mendaki,Lape's home,"M8G7+WFR, Jln, RW.1, Wasilomata I, Kec. Mawasangka, Kabupaten Buton, Sulawesi Tenggara 93762","Jln, RW.1, Wasilomata I, Kec. Mawasangka, Kabupaten Buton",SULAWESI TENGGARA,93762.0,Indonesia,,,,-5.3226399,122.3136476,https://maps.google.com/?cid=0x0:0x3cd474106be27f58,
home improvement,home improvement,Naning House,"FF8F+FJC, Marawali, Kec. Kadatua, Kabupaten Buton, Sulawesi Tenggara 93752","Marawali, Kec. Kadatua, Kabupaten Buton",SULAWESI TENGGARA,93752.0,Indonesia,,,,-5.5338195,122.4740169,https://maps.google.com/?cid=0x0:0xd1212055524e1e86,
home improvement,home improvement,Sulawesi Tenggara 93753,"Kabupaten Buton, Sulawesi Tenggara","Kabupaten Buton, Sulawesi Tenggara",SULAWESI TENGGARA,,Indonesia,,,,-5.5916275,122.7858791,https://maps.google.com/?cid=0x0:0x5d5b6b7c1f0a9413,
home improvement,Pabrikan mebel,Mebel Indah,"9PC3+XHQ, Jl. Korpri, Jaya Bakti, Kec. Sampolawa, Kabupaten Buton, Sulawesi Tenggara","Kabupaten Buton, Sulawesi Tenggara",SULAWESI TENGGARA,,Indonesia,82347053104.0,,,-5.6275282,122.7039727,https://maps.google.com/?cid=0x0:0x291c71502cf30a8f,
home improvement,Toko Bahan Bangunan,IzzieHome Baubau,"Batulo, Kec. Wolio, Kota Bau-Bau, Sulawesi Tenggara 93717","Kec. Wolio, Kota Bau-Bau",SULAWESI TENGGARA,93717.0,Indonesia,4022821377.0,,,-5.4592394,122.6140646,https://maps.google.com/?cid=0x0:0x63f4893b60e877da,
home improvement,home improvement,Putra pandawa,,,SULAWESI TENGGARA,,Indonesia,82271421854.0,,,-5.4710754,122.6063884,https://maps.google.com/?cid=0x0:0xf7ee45907f69ed33,
home improvement,Toserba,MR.DIY Lippo Buton,"Lippo Plaza Buton, Jl. Sultan Hasanuddin No.58, Batulo, Kec. Wolio, Kota Bau-Bau, Sulawesi Tenggara 93716","Jl. Sultan Hasanuddin No.58, Batulo, Kec. Wolio, Kota Bau-Bau",SULAWESI TENGGARA,93716.0,Indonesia,2130022789.0,,,-5.4610252,122.6195438,https://maps.google.com/?cid=0x0:0xa034470c6f876dce,
home improvement,home improvement,,,,SULAWESI TENGGARA,,Indonesia,81341230406.0,,,-5.4710754,122.6063884,https://maps.google.com/?cid=0x0:0x69ac12b56ca37d37,
home improvement,Perusahaan Konstruksi,cv citra mekar jaya,"GQM8+HQP, Waangu-Angu, Kec. Ps. Wajo, Kabupaten Buton, Sulawesi Tenggara","Kabupaten Buton, Sulawesi Tenggara",SULAWESI TENGGARA,,Indonesia,82398709375.0,,,-5.4660328,122.7669546,https://maps.google.com/?cid=0x0:0x3a10147a38670f6c,
home improvement,Organisasi Pelayanan Sosial,SEKRETARIAT KSM BUNGAEJA,"Katilombu, Kec. Sampolawa, Kabupaten Buton, Sulawesi Tenggara","Kabupaten Buton, Sulawesi Tenggara",SULAWESI TENGGARA,,Indonesia,85256868437.0,,,-5.6351143,122.698562,https://maps.google.com/?cid=0x0:0xcc3645439c6c5ea5,
home improvement,Pasar bahan bangunan,Intan Building Center,"Jl. Budi Utomo No.90, Bataraguru, Kec. Wolio, Kota Bau-Bau, Sulawesi Tenggara 93717","Bataraguru, Kec. Wolio, Kota Bau-Bau",SULAWESI TENGGARA,93717.0,Indonesia,82292888886.0,,,-5.4658703,122.607269,https://maps.google.com/?cid=0x0:0xdd0e5cfd517f12e5,
home improvement,Toko Perlengkapan Rumah,MR.DIY,"GHHP+JM2, Jl. Betoambari, Katobengke, Kec. Betoambari, Kota Bau-Bau, Sulawesi Tenggara 93714","Jl. Betoambari, Katobengke, Kec. Betoambari, Kota Bau-Bau",SULAWESI TENGGARA,93714.0,Indonesia,,,,-5.4709486,122.5865845,https://maps.google.com/?cid=0x0:0xd3b2f333e8b02115,
home improvement,home improvement,CV. PRISMA NUSANTARA,,,SULAWESI TENGGARA,,Indonesia,85342620098.0,,,-4.4954609,122.740636,https://maps.google.com/?cid=0x0:0x4b354426382f1c5,
home improvement,Perusahaan Konstruksi,CV.DUA CIKOOLS BERSAUDARA,"Jl. Laode Ana, Ps. Wajo, Kec. Ps. Wajo, Kabupaten Buton, Sulawesi Tenggara 93754","Ps. Wajo, Kec. Ps. Wajo, Kabupaten Buton",SULAWESI TENGGARA,93754.0,Indonesia,82191918008.0,,,-5.4971335,122.8457164,https://maps.google.com/?cid=0x0:0x2f52c4b8bd59672,
home improvement,home improvement,BENGKEL ARDAN STAINLESS STEEL,"Pas Pendakian Gunung Nona, Jln. Kh Jl. H. Agus Salim, Sulawesi Tenggara 93717",Jln. Kh Jl. H. Agus Salim,SULAWESI TENGGARA,93717.0,Indonesia,82394461676.0,,,-5.462477,122.6104712,https://maps.google.com/?cid=0x0:0x3e94a476b5da6d61,
home improvement,Toko Bahan Bangunan,Toko Tunas Karya,"lingkungan kelurahan No.1, Laompo, Batauga, Kabupaten Buton, Sulawesi Tenggara 93752","Laompo, Batauga, Kabupaten Buton",SULAWESI TENGGARA,93752.0,Indonesia,85394331595.0,,,-5.6139928,122.6037674,https://maps.google.com/?cid=0x0:0x95b6404fb233c1f2,
home improvement,Toko Mebel,Toko Bc Home,"GJJF+859, Jl. Pahlawan, Bukit Wolio Indah, Kec. Wolio, Kota Bau-Bau, Sulawesi Tenggara 93711","Jl. Pahlawan, Bukit Wolio Indah, Kec. Wolio, Kota Bau-Bau",SULAWESI TENGGARA,93711.0,Indonesia,,,,-5.4692045,122.622977,https://maps.google.com/?cid=0x0:0x754c8a6859f6eb2,
home improvement,Pemasok Pintu,Rayhan Kos  Furniture,"FRRV+P8Q, Batumatongka kel, Kambula Mbulana, Kec. Ps. Wajo, Kabupaten Buton, Sulawesi Tenggara 93754","Batumatongka kel, Kambula Mbulana, Kec. Ps. Wajo, Kabupaten Buton",SULAWESI TENGGARA,93754.0,Indonesia,82291557555.0,,,-5.5081559,122.843353,https://maps.google.com/?cid=0x0:0x3468231c437867eb,
home improvement,Toko Bahan Bangunan,Intan Building Center 2,"Jl. R.a. Kartini No.68, Wale, Kec. Wolio, Kota Bau-Bau, Sulawesi Tenggara 93717","Wale, Kec. Wolio, Kota Bau-Bau",SULAWESI TENGGARA,93717.0,Indonesia,82292888886.0,,,-5.4565292,122.6051852,https://maps.google.com/?cid=0x0:0x4743d2cd70649910,
home improvement,home improvement,CV AZAN MAKMUR,"Jl. Laode Puka No.10, Bukit Wolio Indah, Kec. Wolio, Kota Bau-Bau, Sulawesi Tenggara 93711","Bukit Wolio Indah, Kec. Wolio, Kota Bau-Bau",SULAWESI TENGGARA,93711.0,Indonesia,,,,-5.468073,122.6170254,https://maps.google.com/?cid=0x0:0xffe2bfa4839ffe5f,
home improvement,Perusahaan Konstruksi,PT PONDOK SUMBER BAHAGIA,"Jl. Murhum No.41D, Nganganaumala, Batupoara, Kota Bau-Bau, Sulawesi Tenggara 93721","Nganganaumala, Batupoara, Kota Bau-Bau",SULAWESI TENGGARA,93721.0,Indonesia,81244404199.0,,,-5.4600326,122.6032867,https://maps.google.com/?cid=0x0:0xaf79f3aa6d0dc57e,
home improvement,Gudang,Rumah Produksi Kasur dan Bantal Ny. Wa Ode Rasiana,"9P28+PP2, Tira, Kec. Sampolawa, Kabupaten Buton, Sulawesi Tenggara 93753","Tira, Kec. Sampolawa, Kabupaten Buton",SULAWESI TENGGARA,93753.0,Indonesia,81340307744.0,,,-5.6481703,122.7167015,https://maps.google.com/?cid=0x0:0x8e751cc50146acf4,
home improvement,Komplek perumahan,CV. FIMADANI,"9M7W+3WP, Jl. Poros Batauga, Jaya Bakti, Kec. Sampolawa, Kabupaten Buton, Sulawesi Tenggara","Kabupaten Buton, Sulawesi Tenggara",SULAWESI TENGGARA,,Indonesia,,,,-5.6372852,122.6973142,https://maps.google.com/?cid=0x0:0xa1402c85fbf8d006,
home improvement,Bengkel Elektronik,Syahrin,"9Q4M+8PJ, Burangasi, Kec. Lapandewa, Kabupaten Buton, Sulawesi Tenggara 93753","Burangasi, Kec. Lapandewa, Kabupaten Buton",SULAWESI TENGGARA,93753.0,Indonesia,,,,-5.6441533,122.7842656,https://maps.google.com/?cid=0x0:0xdd49c821358eecf1,
home improvement,Kontraktor Umum,General IND,"depan SMP13 Baubau, Jalan poros Baubau Pasarwajo No.km.18, Gonda Baru, Kec. Sorawolio, Kota Bau-Bau, Sulawesi Tenggara","Kota Bau-Bau, Sulawesi Tenggara",SULAWESI TENGGARA,,Indonesia,,,,-5.4811663,122.7200684,https://maps.google.com/?cid=0x0:0xa48023a3387f8362,
home improvement,Toko Perlengkapan Rumah,CV APU,"GJG7+F73, Jl. Bhakti ABRI, Bukit Wolio Indah, Kec. Wolio, Kota Bau-Bau, Sulawesi Tenggara 93713","Jl. Bhakti ABRI, Bukit Wolio Indah, Kec. Wolio, Kota Bau-Bau",SULAWESI TENGGARA,93713.0,Indonesia,,,,-5.4738541,122.6131741,https://maps.google.com/?cid=0x0:0xdb23c6a1c30c7ba,
home improvement,Toko Perlengkapan Rumah,AQILA BOX SPEAKER,"GQCM+HF, Waangu-Angu, Kec. Ps. Wajo, Kabupaten Buton, Sulawesi Tenggara","Kabupaten Buton, Sulawesi Tenggara",SULAWESI TENGGARA,,Indonesia,85145812456.0,,,-5.4785143,122.7836752,https://maps.google.com/?cid=0x0:0x5f83a946d5c2deff,
home improvement,Komplek perumahan,Rumah Mama Imlan,"9VR5+FXH, Wabula, Kec. Wabula, Kabupaten Buton, Sulawesi Tenggara 93754","Wabula, Kec. Wabula, Kabupaten Buton",SULAWESI TENGGARA,93754.0,Indonesia,,,,-5.6088242,122.8599979,https://maps.google.com/?cid=0x0:0xf1a769acbb37207e,
home improvement,Pabrikan mebel,UD. RINO,"8GJ6+39V, Biwinapada, Kec. Siompu, Kabupaten Buton, Sulawesi Tenggara 93752","Biwinapada, Kec. Siompu, Kabupaten Buton",SULAWESI TENGGARA,93752.0,Indonesia,82189976593.0,,,-5.6697587,122.510925,https://maps.google.com/?cid=0x0:0x485a3da41537b63d,
home improvement,Toko Mebel,Mebel,"8GW7+435, Wakinamboro, Kec. Siompu, Kabupaten Buton, Sulawesi Tenggara 93752","Wakinamboro, Kec. Siompu, Kabupaten Buton",SULAWESI TENGGARA,93752.0,Indonesia,85341621649.0,,,-5.6550415,122.5134705,https://maps.google.com/?cid=0x0:0xecb6fd7e66cff04e,
home improvement,home improvement,Kec. Siompu,"Kabupaten Buton, Sulawesi Tenggara","Kabupaten Buton, Sulawesi Tenggara",SULAWESI TENGGARA,,Indonesia,,,,-5.6304618,122.5254693,https://maps.google.com/?cid=0x0:0x2718691e607a701,
home improvement,home improvement,Kec. Siompu Bar.,"Kabupaten Buton, Sulawesi Tenggara","Kabupaten Buton, Sulawesi Tenggara",SULAWESI TENGGARA,,Indonesia,,,,-5.6899378,122.4818486,https://maps.google.com/?cid=0x0:0xdc7d5a3172232e78,
home improvement,Pabrikan mebel,UD. RINO,"8GJ6+39V, Biwinapada, Kec. Siompu, Kabupaten Buton, Sulawesi Tenggara 93752","Biwinapada, Kec. Siompu, Kabupaten Buton",SULAWESI TENGGARA,93752.0,Indonesia,82189976593.0,,,-5.6697587,122.510925,https://maps.google.com/?cid=0x0:0x485a3da41537b63d,
home improvement,Bar,Siompu barat,"8F5J+MJX, Jl. La Laja, Molona, Kec. Siompu Bar., Kabupaten Buton, Sulawesi Tenggara 93752","Jl. La Laja, Molona, Kec. Siompu Bar., Kabupaten Buton",SULAWESI TENGGARA,93752.0,Indonesia,,,,-5.6906618,122.4815127,https://maps.google.com/?cid=0x0:0x22951cc20102d415,
home improvement,home improvement,My Home,"8F6G+FJ6, Unnamed Road, Katampe, Kec. Siompu Bar., Kabupaten Buton, Sulawesi Tenggara 93752","Unnamed Road, Katampe, Kec. Siompu Bar., Kabupaten Buton",SULAWESI TENGGARA,93752.0,Indonesia,,,,-5.6888289,122.4765294,https://maps.google.com/?cid=0x0:0xa2a27cf14d117c01,
home improvement,Pembangunan Perumahan,Muchin home,"8GX8+M7M, Dusun Ayi, Batuawu, Kec. Siompu, Kabupaten Buton, Sulawesi Tenggara","Kabupaten Buton, Sulawesi Tenggara",SULAWESI TENGGARA,,Indonesia,,,,-5.6507792,122.5156615,https://maps.google.com/?cid=0x0:0x8225de7b485a15c,
