Category,Real Category,Business Name,Address,City,State,Postal Code,Country,Phone,Email,Website,Latitude,Longitude,Map Link,Details Link
mall,mall,Batauga,"Masiri, Batauga, Kabupaten Buton, Sulawesi Tenggara","Kabupaten Buton, Sulawesi Tenggara",SULAWESI TENGGARA,,Indonesia,,,,-5.610301,122.6157,https://maps.google.com/?cid=0x0:0xb59244aa04e5e53e,
mall,Pusat Perbelanjaan,Lippo Plaza Baubau,"GJQ9+JR2, Batulo, Kec. Wolio, Kota Bau-Bau, Sulawesi Tenggara 93716","Batulo, Kec. Wolio, Kota Bau-Bau",SULAWESI TENGGARA,93716.0,Indonesia,,,,-5.4609875,122.6195156,https://maps.google.com/?cid=0x0:0xa36840a3dba9c932,
mall,Pusat Perbelanjaan,UMNA WOLIO PLAZA,"GJV3+VQ4, umna wolio plaza, Sulawesi Tenggara 93711",umna wolio plaza,SULAWESI TENGGARA,93711.0,Indonesia,,,,-5.4553515,122.6044539,https://maps.google.com/?cid=0x0:0xf416e74b3da1f66b,
mall,Pusat Perbelanjaan,Mall Plaza,"FHVW+5Q6, Waborobo, Kec. Betoambari, Kota Bau-Bau, Sulawesi Tenggara 93721","Waborobo, Kec. Betoambari, Kota Bau-Bau",SULAWESI TENGGARA,93721.0,Indonesia,,,,-5.507078,122.596901,https://maps.google.com/?cid=0x0:0xb838977c27239e8f,
mall,Toko bahan makanan,ZAVA MART,"Bukit Wolio Indah, Kec. Wolio, Kota Bau-Bau, Sulawesi Tenggara 93713","Kec. Wolio, Kota Bau-Bau",SULAWESI TENGGARA,93713.0,Indonesia,,,,-5.4737723,122.6123315,https://maps.google.com/?cid=0x0:0x5aaa31312f44fafc,
mall,Pemasok minyak tanah,Pangkalan Minyak Tanah La Ode Arsyad,"8JX9+52W, Masiri, Batauga, Kabupaten Buton, Sulawesi Tenggara 93752","Masiri, Batauga, Kabupaten Buton",SULAWESI TENGGARA,93752.0,Indonesia,,,,-5.6520213,122.6175874,https://maps.google.com/?cid=0x0:0x5027cceae32928e6,
mall,Toko,Kios Maryam62,"8P89+G55, Bahari Tiga, Kec. Sampolawa, Kabupaten Buton, Sulawesi Tenggara 93753","Bahari Tiga, Kec. Sampolawa, Kabupaten Buton",SULAWESI TENGGARA,93753.0,Indonesia,,,,-5.6837312,122.7179907,https://maps.google.com/?cid=0x0:0x413df6c250c76d5a,
mall,Jasa Perbaikan Telepon,ARIQIN CELL,"9G8F+CHP, Unnamed Road, Tongali, Kec. Siompu, Kabupaten Buton, Sulawesi Tenggara 93752","Unnamed Road, Tongali, Kec. Siompu, Kabupaten Buton",SULAWESI TENGGARA,93752.0,Indonesia,81240316231.0,,,-5.6339056,122.5239595,https://maps.google.com/?cid=0x0:0x6aa1d798795e62de,
mall,Tempat cuci motor,Cuci Motor ARIQIN,"8GX8+HCR, Batuawu, Kec. Siompu, Kabupaten Buton, Sulawesi Tenggara 93752","Batuawu, Kec. Siompu, Kabupaten Buton",SULAWESI TENGGARA,93752.0,Indonesia,81240316231.0,,,-5.6510127,122.5160062,https://maps.google.com/?cid=0x0:0xf47da75bfb74bc67,
mall,Kios,Kios Putra,"Jl. Betoambari No.117, Katobengke, Kec. Betoambari, Kota Bau-Bau, Sulawesi Tenggara 93714","Katobengke, Kec. Betoambari, Kota Bau-Bau",SULAWESI TENGGARA,93714.0,Indonesia,,,,-5.4766792,122.5796494,https://maps.google.com/?cid=0x0:0xd818c4b466453e85,
mall,Pusat Perbelanjaan,Toko Layar Kembang,"GJP6+FPV, Jl. Budi Utomo, Wangkanapi, Kec. Wolio, Kota Bau-Bau, Sulawesi Tenggara 93717","Jl. Budi Utomo, Wangkanapi, Kec. Wolio, Kota Bau-Bau",SULAWESI TENGGARA,93717.0,Indonesia,,,,-5.4637664,122.6118033,https://maps.google.com/?cid=0x0:0x9d5544b1cf732b4a,
mall,Pusat Perbelanjaan,HANAMIZUKI SHOP,"Nggulanggula, Kec. Siompu, Kabupaten Buton, Sulawesi Tenggara 93752","Kec. Siompu, Kabupaten Buton",SULAWESI TENGGARA,93752.0,Indonesia,85398839177.0,,,-5.655884,122.5115748,https://maps.google.com/?cid=0x0:0xbede40e929b7358b,
mall,Pusat Perbelanjaan,Multi Media Baubau,"GHMW+M4J, Tanganapada, Bau-Bau, Kota Bau-Bau, Sulawesi Tenggara 93713","Tanganapada, Bau-Bau, Kota Bau-Bau",SULAWESI TENGGARA,93713.0,Indonesia,,,,-5.4657802,122.5952543,https://maps.google.com/?cid=0x0:0x4afad593505e3d7c,
mall,Toko,KIOS MUNAJAH  IBRAHIM,"9PC3+599, Jaya Bakti, Kec. Sampolawa, Kabupaten Buton, Sulawesi Tenggara","Kabupaten Buton, Sulawesi Tenggara",SULAWESI TENGGARA,,Indonesia,,,,-5.6295776,122.7034789,https://maps.google.com/?cid=0x0:0x7c879402c03028f2,
mall,Kios,Kios sarfil,"GHFQ+XQ4, Lipu, Kec. Betoambari, Kota Bau-Bau, Sulawesi Tenggara 93714","Lipu, Kec. Betoambari, Kota Bau-Bau",SULAWESI TENGGARA,93714.0,Indonesia,,,,-5.4751042,122.5894667,https://maps.google.com/?cid=0x0:0xb750703965527c27,
mall,Pusat Perbelanjaan,Sahrun/ria jaya,"FHX6+CRQ, Jl. Sulaa II, Sulaa, Kec. Betoambari, Kota Bau-Bau, Sulawesi Tenggara 93721","Jl. Sulaa II, Sulaa, Kec. Betoambari, Kota Bau-Bau",SULAWESI TENGGARA,93721.0,Indonesia,85341370517.0,,,-5.5014141,122.562116,https://maps.google.com/?cid=0x0:0xf547ca70ccd2431a,
mall,Jembatan,Galery Bunga Jembatan Tengah,"Jl. Batara Guru No.83, Wajo, Kec. Murhum, Kota Bau-Bau, Sulawesi Tenggara 93717","Wajo, Kec. Murhum, Kota Bau-Bau",SULAWESI TENGGARA,93717.0,Indonesia,85241802600.0,,,-5.4627143,122.6046086,https://maps.google.com/?cid=0x0:0x3c7085f2af01f92f,
mall,Toko,Toko Bersama,"Jl. Wolter Mongonsidi No.103, Tomba, Kec. Wolio, Kota Bau-Bau, Sulawesi Tenggara 93717","Tomba, Kec. Wolio, Kota Bau-Bau",SULAWESI TENGGARA,93717.0,Indonesia,82281812400.0,,,-5.460575,122.6075801,https://maps.google.com/?cid=0x0:0xc7def079990bfa9d,
mall,Pasar,Jualan Online,"GHGV+8C8, Jl. Gajah Mada, Tanganapada, Kec. Murhum, Kota Bau-Bau, Sulawesi Tenggara 93714","Jl. Gajah Mada, Tanganapada, Kec. Murhum, Kota Bau-Bau",SULAWESI TENGGARA,93714.0,Indonesia,82258267239.0,,,-5.4742113,122.5935831,https://maps.google.com/?cid=0x0:0xe2c2afc5d095c13,
mall,mall,Pasar Molona,"8F5J+388, Laut Banda, Cipulir, Kby. Lama, Kota Jakarta Selatan, Daerah Khusus Ibukota Jakarta 12230","Laut Banda, Cipulir, Kby. Lama, Kota Jakarta Selatan",SULAWESI TENGGARA,12230.0,Indonesia,,,,-5.6923258,122.4808367,https://maps.google.com/?cid=0x0:0xd4b977cf27dd9ac9,
mall,Pasar tradisional,Pasar Ikan Malam,"GHMQ+XXG, Bone-Bone, Kec. Murhum, Kota Bau-Bau, Sulawesi Tenggara 93712","Bone-Bone, Kec. Murhum, Kota Bau-Bau",SULAWESI TENGGARA,93712.0,Indonesia,,,,-5.4650696,122.5899416,https://maps.google.com/?cid=0x0:0x20fbf3f7708f5faf,
mall,mall,Sulawesi Tenggara 93753,"Kabupaten Buton, Sulawesi Tenggara","Kabupaten Buton, Sulawesi Tenggara",SULAWESI TENGGARA,,Indonesia,,,,-5.5916275,122.7858791,https://maps.google.com/?cid=0x0:0x5d5b6b7c1f0a9413,
mall,Pusat Perbelanjaan,Lippo Plaza Baubau,"GJQ9+JR2, Batulo, Kec. Wolio, Kota Bau-Bau, Sulawesi Tenggara 93716","Batulo, Kec. Wolio, Kota Bau-Bau",SULAWESI TENGGARA,93716.0,Indonesia,,,,-5.4609875,122.6195156,https://maps.google.com/?cid=0x0:0xa36840a3dba9c932,
mall,Tujuan Wisata,Wabula Satu,"9VQ5+G85, Satu, Wabula, Kec. Wabula, Kabupaten Buton, Sulawesi Tenggara","Kabupaten Buton, Sulawesi Tenggara",SULAWESI TENGGARA,,Indonesia,,,,-5.6112391,122.858358,https://maps.google.com/?cid=0x0:0x747f049d478cf9d7,
mall,Pusat Perbelanjaan,CinÃ©polis Lippo Plaza Buton,"Lippo Plaza Buton, Jl. Sultan Hasanuddin No.58, Batulo, Kec. Wolio, Kota Bau-Bau, Sulawesi Tenggara 93716","Jl. Sultan Hasanuddin No.58, Batulo, Kec. Wolio, Kota Bau-Bau",SULAWESI TENGGARA,93716.0,Indonesia,4022825168.0,,,-5.461392,122.6190469,https://maps.google.com/?cid=0x0:0x823612a1e121354f,
mall,Komplek perumahan,Pasar LAKAMBARA Desa lapandewa kaindea,"9Q4M+W4G, Gaya Baru, Kec. Lapandewa, Kabupaten Buton, Sulawesi Tenggara 93753","Gaya Baru, Kec. Lapandewa, Kabupaten Buton",SULAWESI TENGGARA,93753.0,Indonesia,,,,-5.6426792,122.7828286,https://maps.google.com/?cid=0x0:0xe473c8210a171e0c,
mall,Toko,Pasar Sabo,"GVC3+Q46, Saragi, Kec. Ps. Wajo, Kabupaten Buton, Sulawesi Tenggara","Kabupaten Buton, Sulawesi Tenggara",SULAWESI TENGGARA,,Indonesia,,,,-5.4780855,122.8527641,https://maps.google.com/?cid=0x0:0xcc2c71af1bb2bb6b,
mall,,Toko Isman,"Kombeli, Kec. Ps. Wajo, Kabupaten Buton, Sulawesi Tenggara 93754","Kec. Ps. Wajo, Kabupaten Buton",SULAWESI TENGGARA,93754.0,Indonesia,82187461298.0,,,-5.5303629,122.8464172,https://maps.google.com/?cid=0x0:0x619c9c9e2caac703,
mall,Toko,Kios Maryam62,"8P89+G55, Bahari Tiga, Kec. Sampolawa, Kabupaten Buton, Sulawesi Tenggara 93753","Bahari Tiga, Kec. Sampolawa, Kabupaten Buton",SULAWESI TENGGARA,93753.0,Indonesia,,,,-5.6837312,122.7179907,https://maps.google.com/?cid=0x0:0x413df6c250c76d5a,
mall,Pusat Perbelanjaan,Saharia_mall,"Jl. Jemb. Batu, Sulawesi Tenggara 93717",Sulawesi Tenggara,SULAWESI TENGGARA,,Indonesia,82199183767.0,,,-5.4550833,122.6047199,https://maps.google.com/?cid=0x0:0xba949e07dbc02610,
mall,Pusat Perbelanjaan,UMNA WOLIO PLAZA,"GJV3+VQ4, umna wolio plaza, Sulawesi Tenggara 93711",umna wolio plaza,SULAWESI TENGGARA,93711.0,Indonesia,,,,-5.4553515,122.6044539,https://maps.google.com/?cid=0x0:0xf416e74b3da1f66b,
mall,Pusat Perbelanjaan,Miniso Lippo Plaza Baubau,"GJQ9+JR2, Batulo, Kec. Wolio, Kota Bau-Bau, Sulawesi Tenggara 93716","Batulo, Kec. Wolio, Kota Bau-Bau",SULAWESI TENGGARA,93716.0,Indonesia,,,,-5.4609875,122.6195156,https://maps.google.com/?cid=0x0:0x9b54c80aaa4d2ada,
mall,Pasar tradisional,Pasar Sore Ompu,"FVF5+45C, Jl. Poros Pasarwajo Wabula, Wagola, Kec. Ps. Wajo, Kabupaten Buton, Sulawesi Tenggara 93754","Jl. Poros Pasarwajo Wabula, Wagola, Kec. Ps. Wajo, Kabupaten Buton",SULAWESI TENGGARA,93754.0,Indonesia,,,,-5.5271857,122.8579033,https://maps.google.com/?cid=0x0:0xb954c6ac5a0a31c3,
mall,Toko,Toko sufiati,"FR9W+QGC, Kombeli, Kec. Ps. Wajo, Kabupaten Buton, Sulawesi Tenggara 93754","Kombeli, Kec. Ps. Wajo, Kabupaten Buton",SULAWESI TENGGARA,93754.0,Indonesia,,,,-5.5305697,122.8462714,https://maps.google.com/?cid=0x0:0xd695326763740fc5,
mall,Toko,Kios Indras,"9P92+G2R, Jaya Bakti, Kec. Sampolawa, Kabupaten Buton, Sulawesi Tenggara","Kabupaten Buton, Sulawesi Tenggara",SULAWESI TENGGARA,,Indonesia,82259682814.0,,,-5.6311449,122.7000172,https://maps.google.com/?cid=0x0:0x1465c48c9fa881ea,
mall,Toko bahan makanan,ZAVA MART,"Bukit Wolio Indah, Kec. Wolio, Kota Bau-Bau, Sulawesi Tenggara 93713","Kec. Wolio, Kota Bau-Bau",SULAWESI TENGGARA,93713.0,Indonesia,,,,-5.4737723,122.6123315,https://maps.google.com/?cid=0x0:0x5aaa31312f44fafc,
mall,Toserba,Hypermart Lippo Plaza Baubau,"Jl. Sultan Hasanuddin, Batulo, Kec. Wolio, Kota Bau-Bau, Sulawesi Tenggara","Kota Bau-Bau, Sulawesi Tenggara",SULAWESI TENGGARA,,Indonesia,4022823895.0,,,-5.4609114,122.6201466,https://maps.google.com/?cid=0x0:0x6d97a28db9b15e8f,
mall,Pasar tradisional,Pasar Kaloko,"FVC3+7QC, Takimpo, Kec. Ps. Wajo, Kabupaten Buton, Sulawesi Tenggara 93754","Takimpo, Kec. Ps. Wajo, Kabupaten Buton",SULAWESI TENGGARA,93754.0,Indonesia,82243386183.0,,,-5.5293007,122.8544051,https://maps.google.com/?cid=0x0:0xa9425318cf17703f,
mall,Pusat Perbelanjaan,MULTIMEDIA BAUBAU04,"Jl. Batara Guru No.83, Wajo, Kec. Murhum, Kota Bau-Bau, Sulawesi Tenggara 93717","Wajo, Kec. Murhum, Kota Bau-Bau",SULAWESI TENGGARA,93717.0,Indonesia,82292785898.0,,,-5.462573,122.6048978,https://maps.google.com/?cid=0x0:0x64b416d1bbc12d56,
mall,Pusat Perbelanjaan,Kios Desti,"Jl. Baubau-Pasarwajo, Warinta, Kec. Ps. Wajo, Kabupaten Buton, Sulawesi Tenggara 93754","Warinta, Kec. Ps. Wajo, Kabupaten Buton",SULAWESI TENGGARA,93754.0,Indonesia,85397006171.0,,,-5.4711831,122.8226561,https://maps.google.com/?cid=0x0:0x4a0f23cabb559bc4,
mall,Toko bahan makanan,TOKO TAURUS,"GR3W+5C2, Kambula Mbulana, Kec. Ps. Wajo, Kabupaten Buton, Sulawesi Tenggara","Kabupaten Buton, Sulawesi Tenggara",SULAWESI TENGGARA,,Indonesia,,,,-5.4971224,122.8460282,https://maps.google.com/?cid=0x0:0x17af985db4dd3cdd,
mall,mall,Batu Atas Barat,"QMRR+PC9, Laut kakawia, Wacuala",,SULAWESI TENGGARA,,Indonesia,,,,-6.2082193,122.691117,https://maps.google.com/?cid=0x0:0x3b3326448fbc7e49,
mall,Gedung Apartemen,Mall@Bassura,"Jl. Jenderal Basuki Rachmat No.1A, Cipinang Besar Sel., Kecamatan Jatinegara, Kota Jakarta Timur, Daerah Khusus Ibukota Jakarta 13410","Cipinang Besar Sel., Kecamatan Jatinegara, Kota Jakarta Timur",SULAWESI TENGGARA,13410.0,Indonesia,2122807300.0,,,-6.2240597,106.8778851,https://maps.google.com/?cid=0x0:0x610648e929845480,
mall,Pusat Perbelanjaan,Kalibata city square,"Jl. Raya Kalibata No.1, Rawajati, Kec. Pancoran, Kota Jakarta Selatan, Daerah Khusus Ibukota Jakarta 12750","Rawajati, Kec. Pancoran, Kota Jakarta Selatan",SULAWESI TENGGARA,12750.0,Indonesia,,,,-6.2562715,106.8521776,https://maps.google.com/?cid=0x0:0x59db28d93506d0e6,
mall,Pusat Perbelanjaan,Lippo Plaza Batu,"Jl. Diponegoro No.1, Sisir, Kec. Batu, Kota Batu, Jawa Timur 65314","Sisir, Kec. Batu, Kota Batu",SULAWESI TENGGARA,65314.0,Indonesia,3412991299.0,,,-7.87861,112.534284,https://maps.google.com/?cid=0x0:0x86fc42f21cbd11c5,
mall,Pasar,Pasar Sampolawa,"9PC4+HFM, Laut Banda, RW.11, Cipulir, Kby. Lama, Kota Jakarta Selatan, Daerah Khusus Ibukota Jakarta 12230","Laut Banda, RW.11, Cipulir, Kby. Lama, Kota Jakarta Selatan",SULAWESI TENGGARA,12230.0,Indonesia,,,,-5.628532,122.706179,https://maps.google.com/?cid=0x0:0x6b165c7e67dae5aa,
mall,Perhentian bus,Plaza Slipi Jaya,"Jl. Letjen S. Parman, RT.14/RW.1, Kemanggisan, Kec. Palmerah, Kota Jakarta Barat, Daerah Khusus Ibukota Jakarta 11480","RT.14/RW.1, Kemanggisan, Kec. Palmerah, Kota Jakarta Barat",SULAWESI TENGGARA,11480.0,Indonesia,215304023.0,,,-6.1892704,106.7965048,https://maps.google.com/?cid=0x0:0x4901356a543de45c,
mall,Pusat Perbelanjaan,Arion Mall,"Jl. Pemuda No.Kavling 3-4, RT.2/RW.7, Rawamangun, Kec. Pulo Gadung, Kota Jakarta Timur, Daerah Khusus Ibukota Jakarta 13220","RT.2/RW.7, Rawamangun, Kec. Pulo Gadung, Kota Jakarta Timur",SULAWESI TENGGARA,13220.0,Indonesia,214711652.0,,,-6.1938923,106.890485,https://maps.google.com/?cid=0x0:0x2c3ea95ddd6b2533,
mall,Toko,Ridwan Sembako,"9P6X+MM8 Sempa-sempa, Lapandewa Makmur, Kec. Lapandewa, Kabupaten Buton, Sulawesi Tenggara","Kabupaten Buton, Sulawesi Tenggara",SULAWESI TENGGARA,,Indonesia,82292596113.0,,,-5.6383406,122.7491888,https://maps.google.com/?cid=0x0:0x806e94a3877e11f6,
mall,Toko,KIOS MUNAJAH  IBRAHIM,"9PC3+599, Jaya Bakti, Kec. Sampolawa, Kabupaten Buton, Sulawesi Tenggara","Kabupaten Buton, Sulawesi Tenggara",SULAWESI TENGGARA,,Indonesia,,,,-5.6295776,122.7034789,https://maps.google.com/?cid=0x0:0x7c879402c03028f2,
mall,mall,Kec. Kadatua,"Kabupaten Buton, Sulawesi Tenggara","Kabupaten Buton, Sulawesi Tenggara",SULAWESI TENGGARA,,Indonesia,,,,-5.5330522,122.4744908,https://maps.google.com/?cid=0x0:0xa7c55634cc618f76,
mall,Komplek perumahan,Kampung kadatua,"FGM3+VV9, Banabungi Sel., Kec. Kadatua, Kabupaten Buton, Sulawesi Tenggara","Kabupaten Buton, Sulawesi Tenggara",SULAWESI TENGGARA,,Indonesia,,,,-5.5153302,122.5047416,https://maps.google.com/?cid=0x0:0x46fe27f4dc02a63d,
mall,Kantor Pemerintah,Kapoa Barat,"CGQ3+2HG, Kapoa Bar., Kec. Kadatua, Kabupaten Buton, Sulawesi Tenggara","Kabupaten Buton, Sulawesi Tenggara",SULAWESI TENGGARA,,Indonesia,82291555138.0,,,-5.5624405,122.5039396,https://maps.google.com/?cid=0x0:0xd6f3dd50e9d612ce,
mall,mall,Kios Harapan,"FF8F+MQP, Marawali, Kec. Kadatua, Kabupaten Buton, Sulawesi Tenggara 93752","Marawali, Kec. Kadatua, Kabupaten Buton",SULAWESI TENGGARA,93752.0,Indonesia,,,,-5.5332753,122.4744496,https://maps.google.com/?cid=0x0:0x54c6e58a92da7b49,
mall,Komplek perumahan,Pasar LAKAMBARA Desa lapandewa kaindea,"9Q4M+W4G, Gaya Baru, Kec. Lapandewa, Kabupaten Buton, Sulawesi Tenggara 93753","Gaya Baru, Kec. Lapandewa, Kabupaten Buton",SULAWESI TENGGARA,93753.0,Indonesia,,,,-5.6426792,122.7828286,https://maps.google.com/?cid=0x0:0xe473c8210a171e0c,
mall,Kompleks Kondominium,Di lapandewa kaindea,"9Q5J+9WM, Gerak Makmur, Kec. Sampolawa, Kabupaten Buton, Sulawesi Tenggara 93753","Gerak Makmur, Kec. Sampolawa, Kabupaten Buton",SULAWESI TENGGARA,93753.0,Indonesia,,,,-5.6420871,122.7824345,https://maps.google.com/?cid=0x0:0x6b75ae04dc0fa113,
mall,mall,Sulawesi,,,SULAWESI TENGGARA,,Indonesia,,,,-1.8479,120.5279,https://maps.google.com/?cid=0x0:0xbc9a51d168f47742,
mall,mall,Sulawesi Tenggara 93753,"Kabupaten Buton, Sulawesi Tenggara","Kabupaten Buton, Sulawesi Tenggara",SULAWESI TENGGARA,,Indonesia,,,,-5.5916275,122.7858791,https://maps.google.com/?cid=0x0:0x5d5b6b7c1f0a9413,
mall,Pusat Perbelanjaan,Lippo Plaza Baubau,"GJQ9+JR2, Batulo, Kec. Wolio, Kota Bau-Bau, Sulawesi Tenggara 93716","Batulo, Kec. Wolio, Kota Bau-Bau",SULAWESI TENGGARA,93716.0,Indonesia,,,,-5.4609875,122.6195156,https://maps.google.com/?cid=0x0:0xa36840a3dba9c932,
mall,Toko,Kios Maryam62,"8P89+G55, Bahari Tiga, Kec. Sampolawa, Kabupaten Buton, Sulawesi Tenggara 93753","Bahari Tiga, Kec. Sampolawa, Kabupaten Buton",SULAWESI TENGGARA,93753.0,Indonesia,,,,-5.6837312,122.7179907,https://maps.google.com/?cid=0x0:0x413df6c250c76d5a,
mall,Toko,KIOS MUNAJAH  IBRAHIM,"9PC3+599, Jaya Bakti, Kec. Sampolawa, Kabupaten Buton, Sulawesi Tenggara","Kabupaten Buton, Sulawesi Tenggara",SULAWESI TENGGARA,,Indonesia,,,,-5.6295776,122.7034789,https://maps.google.com/?cid=0x0:0x7c879402c03028f2,
mall,Tujuan Wisata,Wabula Satu,"9VQ5+G85, Satu, Wabula, Kec. Wabula, Kabupaten Buton, Sulawesi Tenggara","Kabupaten Buton, Sulawesi Tenggara",SULAWESI TENGGARA,,Indonesia,,,,-5.6112391,122.858358,https://maps.google.com/?cid=0x0:0x747f049d478cf9d7,
mall,Pusat Perbelanjaan,H. Harnu,"9M6W+QFJ, Jl. Gajah Mada, Katilombu, Kec. Sampolawa, Kabupaten Buton, Sulawesi Tenggara","Kabupaten Buton, Sulawesi Tenggara",SULAWESI TENGGARA,,Indonesia,,,,-5.6381337,122.6961558,https://maps.google.com/?cid=0x0:0x32111d606b09da85,
mall,Pusat Perbelanjaan,Mall Plaza,"FHVW+5Q6, Waborobo, Kec. Betoambari, Kota Bau-Bau, Sulawesi Tenggara 93721","Waborobo, Kec. Betoambari, Kota Bau-Bau",SULAWESI TENGGARA,93721.0,Indonesia,,,,-5.507078,122.596901,https://maps.google.com/?cid=0x0:0xb838977c27239e8f,
mall,Pasar tradisional,Pasar Sore Ompu,"FVF5+45C, Jl. Poros Pasarwajo Wabula, Wagola, Kec. Ps. Wajo, Kabupaten Buton, Sulawesi Tenggara 93754","Jl. Poros Pasarwajo Wabula, Wagola, Kec. Ps. Wajo, Kabupaten Buton",SULAWESI TENGGARA,93754.0,Indonesia,,,,-5.5271857,122.8579033,https://maps.google.com/?cid=0x0:0xb954c6ac5a0a31c3,
mall,Toko,Kios Indras,"9P92+G2R, Jaya Bakti, Kec. Sampolawa, Kabupaten Buton, Sulawesi Tenggara","Kabupaten Buton, Sulawesi Tenggara",SULAWESI TENGGARA,,Indonesia,82259682814.0,,,-5.6311449,122.7000172,https://maps.google.com/?cid=0x0:0x1465c48c9fa881ea,
mall,Toko,Pasar Sabo,"GVC3+Q46, Saragi, Kec. Ps. Wajo, Kabupaten Buton, Sulawesi Tenggara","Kabupaten Buton, Sulawesi Tenggara",SULAWESI TENGGARA,,Indonesia,,,,-5.4780855,122.8527641,https://maps.google.com/?cid=0x0:0xcc2c71af1bb2bb6b,
mall,Toko,Ridwan Sembako,"9P6X+MM8 Sempa-sempa, Lapandewa Makmur, Kec. Lapandewa, Kabupaten Buton, Sulawesi Tenggara","Kabupaten Buton, Sulawesi Tenggara",SULAWESI TENGGARA,,Indonesia,82292596113.0,,,-5.6383406,122.7491888,https://maps.google.com/?cid=0x0:0x806e94a3877e11f6,
mall,Pasar,Pasar Sampolawa,"9PC4+HFM, Laut Banda, RW.11, Cipulir, Kby. Lama, Kota Jakarta Selatan, Daerah Khusus Ibukota Jakarta 12230","Laut Banda, RW.11, Cipulir, Kby. Lama, Kota Jakarta Selatan",SULAWESI TENGGARA,12230.0,Indonesia,,,,-5.628532,122.706179,https://maps.google.com/?cid=0x0:0x6b165c7e67dae5aa,
mall,Toko,Toko sufiati,"FR9W+QGC, Kombeli, Kec. Ps. Wajo, Kabupaten Buton, Sulawesi Tenggara 93754","Kombeli, Kec. Ps. Wajo, Kabupaten Buton",SULAWESI TENGGARA,93754.0,Indonesia,,,,-5.5305697,122.8462714,https://maps.google.com/?cid=0x0:0xd695326763740fc5,
mall,Tujuan Wisata,Pasar Desa Bahari,"8PC6+GWF, Bahari, Kec. Sampolawa, Kabupaten Buton, Sulawesi Tenggara 93753","Bahari, Kec. Sampolawa, Kabupaten Buton",SULAWESI TENGGARA,93753.0,Indonesia,,,,-5.6786838,122.7122875,https://maps.google.com/?cid=0x0:0xed0fcbe234b763b6,
mall,Tujuan Wisata,Pantai La Poili,"8MRP+7G8, Desa, Wawoangi, Kec. Sampolawa, Kabupaten Buton, Sulawesi Tenggara","Kabupaten Buton, Sulawesi Tenggara",SULAWESI TENGGARA,,Indonesia,85210715633.0,,,-5.6593385,122.6863311,https://maps.google.com/?cid=0x0:0x3c7a5b7358f22d34,
mall,,Toko Isman,"Kombeli, Kec. Ps. Wajo, Kabupaten Buton, Sulawesi Tenggara 93754","Kec. Ps. Wajo, Kabupaten Buton",SULAWESI TENGGARA,93754.0,Indonesia,82187461298.0,,,-5.5303629,122.8464172,https://maps.google.com/?cid=0x0:0x619c9c9e2caac703,
mall,Bangunan Bersejarah,Wapulaka,"8P98+2G9, Bahari, Kec. Sampolawa, Kabupaten Buton, Sulawesi Tenggara","Kabupaten Buton, Sulawesi Tenggara",SULAWESI TENGGARA,,Indonesia,,,,-5.6824713,122.7163707,https://maps.google.com/?cid=0x0:0xa2e51786d6a7c9f4,
mall,Pasar tradisional,Pasar Kaloko,"FVC3+7QC, Takimpo, Kec. Ps. Wajo, Kabupaten Buton, Sulawesi Tenggara 93754","Takimpo, Kec. Ps. Wajo, Kabupaten Buton",SULAWESI TENGGARA,93754.0,Indonesia,82243386183.0,,,-5.5293007,122.8544051,https://maps.google.com/?cid=0x0:0xa9425318cf17703f,
mall,Pusat Perbelanjaan,Toko Layar Kembang,"GJP6+FPV, Jl. Budi Utomo, Wangkanapi, Kec. Wolio, Kota Bau-Bau, Sulawesi Tenggara 93717","Jl. Budi Utomo, Wangkanapi, Kec. Wolio, Kota Bau-Bau",SULAWESI TENGGARA,93717.0,Indonesia,,,,-5.4637664,122.6118033,https://maps.google.com/?cid=0x0:0x9d5544b1cf732b4a,
mall,Pembangunan Perumahan,Baruga Wapulaka,"8P88+X6R, Bahari, Kec. Sampolawa, Kabupaten Buton, Sulawesi Tenggara","Kabupaten Buton, Sulawesi Tenggara",SULAWESI TENGGARA,,Indonesia,,,,-5.6822086,122.7154053,https://maps.google.com/?cid=0x0:0xddc5076bd03b5add,
mall,Pasar,Pasar Sentral Sampolawa,"9PC4+H89, Unnamed Road, Jaya Bakti, Kec. Sampolawa, Kabupaten Buton, Sulawesi Tenggara","Kabupaten Buton, Sulawesi Tenggara",SULAWESI TENGGARA,,Indonesia,,,,-5.6285971,122.705861,https://maps.google.com/?cid=0x0:0xe10293c971c3a998,
mall,Toko,Pasar Mambulu,"9PC4+F97, Jaya Bakti, Kec. Sampolawa, Kabupaten Buton, Sulawesi Tenggara","Kabupaten Buton, Sulawesi Tenggara",SULAWESI TENGGARA,,Indonesia,,,,-5.6288389,122.7059097,https://maps.google.com/?cid=0x0:0x7a5e50af12f2ec15,
mall,mall,Kec. Siompu,"Kabupaten Buton, Sulawesi Tenggara","Kabupaten Buton, Sulawesi Tenggara",SULAWESI TENGGARA,,Indonesia,,,,-5.6304618,122.5254693,https://maps.google.com/?cid=0x0:0x2718691e607a701,
mall,Pusat Perbelanjaan,Lippo Plaza Baubau,"GJQ9+JR2, Batulo, Kec. Wolio, Kota Bau-Bau, Sulawesi Tenggara 93716","Batulo, Kec. Wolio, Kota Bau-Bau",SULAWESI TENGGARA,93716.0,Indonesia,,,,-5.4609875,122.6195156,https://maps.google.com/?cid=0x0:0xa36840a3dba9c932,
mall,Pusat Perbelanjaan,HANAMIZUKI SHOP,"Nggulanggula, Kec. Siompu, Kabupaten Buton, Sulawesi Tenggara 93752","Kec. Siompu, Kabupaten Buton",SULAWESI TENGGARA,93752.0,Indonesia,85398839177.0,,,-5.655884,122.5115748,https://maps.google.com/?cid=0x0:0xbede40e929b7358b,
mall,Jasa Perbaikan Telepon,ARIQIN CELL,"9G8F+CHP, Unnamed Road, Tongali, Kec. Siompu, Kabupaten Buton, Sulawesi Tenggara 93752","Unnamed Road, Tongali, Kec. Siompu, Kabupaten Buton",SULAWESI TENGGARA,93752.0,Indonesia,81240316231.0,,,-5.6339056,122.5239595,https://maps.google.com/?cid=0x0:0x6aa1d798795e62de,
mall,Tujuan Wisata,Wisata Permandian Air Loka,"8G9W+6PP, Unnamed Road, Kaimbulawa, Kec. Siompu, Kabupaten Buton, Sulawesi Tenggara","Kabupaten Buton, Sulawesi Tenggara",SULAWESI TENGGARA,,Indonesia,,,,-5.681921,122.5468204,https://maps.google.com/?cid=0x0:0x2a931752aa2cfc4,
mall,Tujuan Wisata,KAPAPORE,"9G24+9F4, Nggulanggula, Kec. Siompu, Kabupaten Buton, Sulawesi Tenggara 93752","Nggulanggula, Kec. Siompu, Kabupaten Buton",SULAWESI TENGGARA,93752.0,Indonesia,82395302222.0,,,-5.6491016,122.5062141,https://maps.google.com/?cid=0x0:0x563c9a329d9f7561,
mall,Tujuan Wisata,Pulau Siompu,"8GHG+8W, Kaimbulawa, Kec. Siompu, Kabupaten Buton, Sulawesi Tenggara","Kabupaten Buton, Sulawesi Tenggara",SULAWESI TENGGARA,,Indonesia,,,,-5.6716281,122.5273382,https://maps.google.com/?cid=0x0:0x215d3ede92a897b3,
mall,Tempat cuci motor,Cuci Motor ARIQIN,"8GX8+HCR, Batuawu, Kec. Siompu, Kabupaten Buton, Sulawesi Tenggara 93752","Batuawu, Kec. Siompu, Kabupaten Buton",SULAWESI TENGGARA,93752.0,Indonesia,81240316231.0,,,-5.6510127,122.5160062,https://maps.google.com/?cid=0x0:0xf47da75bfb74bc67,
mall,mall,Pusat perbelanjaan,"Dusun bante, Wakinamboro, Kec. Siompu, Kabupaten Buton, Sulawesi Tenggara 93752","Wakinamboro, Kec. Siompu, Kabupaten Buton",SULAWESI TENGGARA,93752.0,Indonesia,,,,-5.6577098,122.5111122,https://maps.google.com/?cid=0x0:0x7847f097fec3382b,
mall,mall,Kawala,"8GM7+6PQ, Biwinapada, Kec. Siompu, Kabupaten Buton, Sulawesi Tenggara 93752","Biwinapada, Kec. Siompu, Kabupaten Buton",SULAWESI TENGGARA,93752.0,Indonesia,,,,-5.6669012,122.5143484,https://maps.google.com/?cid=0x0:0x25e696b2e22e6cdc,
mall,mall,Toko dan servis jan,"8GM7+R3V, Unnamed Road, Biwinapada, Kec. Siompu, Kabupaten Buton, Sulawesi Tenggara 93752","Unnamed Road, Biwinapada, Kec. Siompu, Kabupaten Buton",SULAWESI TENGGARA,93752.0,Indonesia,,,,-5.6653804,122.5126708,https://maps.google.com/?cid=0x0:0x63f7055761073ac5,
mall,mall,Kec. Siompu Bar.,"Kabupaten Buton, Sulawesi Tenggara","Kabupaten Buton, Sulawesi Tenggara",SULAWESI TENGGARA,,Indonesia,,,,-5.6899378,122.4818486,https://maps.google.com/?cid=0x0:0xdc7d5a3172232e78,
mall,Toko umum,MARFUDIN CELL,"8F5M+HJV, Mbanua, Kec. Siompu Bar., Kabupaten Buton, Sulawesi Tenggara 93752","Mbanua, Kec. Siompu Bar., Kabupaten Buton",SULAWESI TENGGARA,93752.0,Indonesia,81355394296.0,,,-5.6910126,122.4840329,https://maps.google.com/?cid=0x0:0x1c6f70dcadef5712,
mall,mall,Toko Global Molona,"8F6H+3X6, Selatan, Katampe, Kec. Siompu Bar., Kabupaten Buton, Sulawesi Tenggara 93752","Selatan, Katampe, Kec. Siompu Bar., Kabupaten Buton",SULAWESI TENGGARA,93752.0,Indonesia,,,,-5.6898468,122.479889,https://maps.google.com/?cid=0x0:0xb3555124fa4faef5,
mall,Bar,Siompu barat,"8F5J+MJX, Jl. La Laja, Molona, Kec. Siompu Bar., Kabupaten Buton, Sulawesi Tenggara 93752","Jl. La Laja, Molona, Kec. Siompu Bar., Kabupaten Buton",SULAWESI TENGGARA,93752.0,Indonesia,,,,-5.6906618,122.4815127,https://maps.google.com/?cid=0x0:0x22951cc20102d415,
mall,mall,DC  SC HNI,"8F7G+V43, Lalole, Kec. Siompu Bar., Kabupaten Buton, Sulawesi Tenggara 93752","Lalole, Kec. Siompu Bar., Kabupaten Buton",SULAWESI TENGGARA,93752.0,Indonesia,,,,-5.6853584,122.4753056,https://maps.google.com/?cid=0x0:0xd2bc6d94d6dd308b,
mall,mall,Pasar Molona,"8F5J+388, Laut Banda, Cipulir, Kby. Lama, Kota Jakarta Selatan, Daerah Khusus Ibukota Jakarta 12230","Laut Banda, Cipulir, Kby. Lama, Kota Jakarta Selatan",SULAWESI TENGGARA,12230.0,Indonesia,,,,-5.6923258,122.4808367,https://maps.google.com/?cid=0x0:0xd4b977cf27dd9ac9,
supermarket,supermarket,Batauga,"Masiri, Batauga, Kabupaten Buton, Sulawesi Tenggara","Kabupaten Buton, Sulawesi Tenggara",SULAWESI TENGGARA,,Indonesia,,,,-5.610301,122.6157,https://maps.google.com/?cid=0x0:0xb59244aa04e5e53e,
supermarket,Toko Swalayan,Toko Fajar,"9JQ8+V7G, lrg.bahagia selatan prov., Lakambau, Batauga, Kabupaten Buton, Sulawesi Tenggara 93752","lrg.bahagia selatan prov., Lakambau, Batauga, Kabupaten Buton",SULAWESI TENGGARA,93752.0,Indonesia,85342488495.0,,,-5.610301,122.6157,https://maps.google.com/?cid=0x0:0x6b271853db2e7429,
supermarket,Minimarket,Toko Gaya Baru,"9HWX+W3Q, Masiri, Batauga, Kabupaten Buton, Sulawesi Tenggara 93752","Masiri, Batauga, Kabupaten Buton",SULAWESI TENGGARA,93752.0,Indonesia,,,,-5.6026692,122.5977242,https://maps.google.com/?cid=0x0:0x69121008ab99be7b,
supermarket,supermarket,Sulawesi Tenggara 93752,"Kabupaten Buton, Sulawesi Tenggara","Kabupaten Buton, Sulawesi Tenggara",SULAWESI TENGGARA,,Indonesia,,,,-5.6000771,122.650351,https://maps.google.com/?cid=0x0:0x1c436516d6448e13,
supermarket,Minimarket,Abzarih Mart,"9JM3+W2X, Laompo, Batauga, Kabupaten Buton, Sulawesi Tenggara 93752","Laompo, Batauga, Kabupaten Buton",SULAWESI TENGGARA,93752.0,Indonesia,,,,-5.6151453,122.6026117,https://maps.google.com/?cid=0x0:0xf23d5dc209e33bc4,
supermarket,Toko bahan makanan,Kios Neneng,"GH6C+FRG, Jl. Sultan Datanu Ikhsanuddin, Katobengke, Kec. Betoambari, Kota Bau-Bau, Sulawesi Tenggara 93752","Jl. Sultan Datanu Ikhsanuddin, Katobengke, Kec. Betoambari, Kota Bau-Bau",SULAWESI TENGGARA,93752.0,Indonesia,,,,-5.4888159,122.5720695,https://maps.google.com/?cid=0x0:0xa0b7f02844f713b4,
supermarket,Toko Swalayan,Dua Sekawan swalayan lamangga,"GHHX+C74, Lamangga, Kec. Murhum, Kota Bau-Bau, Sulawesi Tenggara 93713","Lamangga, Kec. Murhum, Kota Bau-Bau",SULAWESI TENGGARA,93713.0,Indonesia,40223855.0,,,-5.4714996,122.5982133,https://maps.google.com/?cid=0x0:0xa6fdbccedf42bbc,
supermarket,Minimarket,Kios Aryel (Sembako),"9JP2+HJC, Masiri, Batauga, Kabupaten Buton, Sulawesi Tenggara 93752","Masiri, Batauga, Kabupaten Buton",SULAWESI TENGGARA,93752.0,Indonesia,85240653886.0,,,-5.613574,122.6015183,https://maps.google.com/?cid=0x0:0x6805128489e08202,
supermarket,Toko bahan makanan,Kios Yusuf Wurugana,"CH8W+FH6, Laompo, Batauga, Kabupaten Buton, Sulawesi Tenggara 93752","Laompo, Batauga, Kabupaten Buton",SULAWESI TENGGARA,93752.0,Indonesia,,,,-5.5838376,122.5963982,https://maps.google.com/?cid=0x0:0xa7729458ede77089,
supermarket,Toko Swalayan,SinggasiQy Mart,"GH3C+867 Topaz3 Residence, Lipu, Kec. Betoambari, Kota Bau-Bau, Sulawesi Tenggara 93721","Lipu, Kec. Betoambari, Kota Bau-Bau",SULAWESI TENGGARA,93721.0,Indonesia,,,,-5.4967067,122.5705496,https://maps.google.com/?cid=0x0:0xd50748ac9abf8b33,
supermarket,Toko Swalayan,Dua Sekawan Swalayan,"GJJF+44R, Jl. Pahlawan, Bukit Wolio Indah, Kec. Wolio, Kota Bau-Bau, Sulawesi Tenggara 93711","Jl. Pahlawan, Bukit Wolio Indah, Kec. Wolio, Kota Bau-Bau",SULAWESI TENGGARA,93711.0,Indonesia,82291453738.0,,,-5.469635,122.6227769,https://maps.google.com/?cid=0x0:0x569c728c1fce6cd4,
supermarket,Toko bahan makanan,Toko Mama Indah,"8GJ6+F38, Biwinapada, Kec. Siompu, Kabupaten Buton, Sulawesi Tenggara 93752","Biwinapada, Kec. Siompu, Kabupaten Buton",SULAWESI TENGGARA,93752.0,Indonesia,,,,-5.6688383,122.5102071,https://maps.google.com/?cid=0x0:0xbbdf6126a24cc3bc,
supermarket,Toko bahan makanan,KhadijahFood,"CH5W+XQ5, Busoa, Batauga, Kabupaten Buton, Sulawesi Tenggara","Kabupaten Buton, Sulawesi Tenggara",SULAWESI TENGGARA,,Indonesia,82318426957.0,,,-5.5901138,122.5969861,https://maps.google.com/?cid=0x0:0x473f2e6fc75813b9,
supermarket,Toko Swalayan,KIOS HIDAYATULLAH,"CH6W+GP9, Busoa, Batauga, Kabupaten Buton, Sulawesi Tenggara 93752","Busoa, Batauga, Kabupaten Buton",SULAWESI TENGGARA,93752.0,Indonesia,82394465663.0,,,-5.5886996,122.5975503,https://maps.google.com/?cid=0x0:0x45bafd847421c6fa,
supermarket,Toko,AGEN GALON LEMINERALE PASIPA RAYA,"Jl. Sultan Datanu Ikhsanuddin No.211, Katobengke, Kec. Betoambari, Kota Bau-Bau, Sulawesi Tenggara 93724","Katobengke, Kec. Betoambari, Kota Bau-Bau",SULAWESI TENGGARA,93724.0,Indonesia,,,,-5.4840724,122.5768419,https://maps.google.com/?cid=0x0:0x45ae6f3f5837bf3,
supermarket,Toko bahan makanan,Kios hafiz,"CJJ4+5M9, Lingkungan labusa, Busoa, Batauga, Kabupaten Buton, Sulawesi Tenggara 93752","Lingkungan labusa, Busoa, Batauga, Kabupaten Buton",SULAWESI TENGGARA,93752.0,Indonesia,82293649128.0,,,-5.5695891,122.6067474,https://maps.google.com/?cid=0x0:0x282fd9efcabfe40f,
supermarket,Toko,TOKO DUTA MODEREN,"GHGR+M5V, Lipu, Kec. Betoambari, Kota Bau-Bau, Sulawesi Tenggara 93714","Lipu, Kec. Betoambari, Kota Bau-Bau",SULAWESI TENGGARA,93714.0,Indonesia,,,,-5.4732574,122.590425,https://maps.google.com/?cid=0x0:0xec3b66f66ec36bb,
supermarket,Pasar tradisional,Tokosemesta,"Lipu, Kec. Betoambari, Kota Bau-Bau, Sulawesi Tenggara 93752","Kec. Betoambari, Kota Bau-Bau",SULAWESI TENGGARA,93752.0,Indonesia,82196029900.0,,,-5.4887265,122.5741768,https://maps.google.com/?cid=0x0:0x81c846fb14528ec8,
supermarket,Toko bahan makanan,Kios Annisa (Rose Kitchen),"9J8M+V9R, Majapahit, Batauga, Kabupaten Buton, Sulawesi Tenggara","Kabupaten Buton, Sulawesi Tenggara",SULAWESI TENGGARA,,Indonesia,81244983813.0,,,-5.6327668,122.6333973,https://maps.google.com/?cid=0x0:0xb232d63d24c259a5,
supermarket,Toko Swalayan,MGM Swalayan Baubau,"GHPX+F5M, Jl. Betoambari, Tanganapada, Kec. Murhum, Kota Bau-Bau, Sulawesi Tenggara 93713","Jl. Betoambari, Tanganapada, Kec. Murhum, Kota Bau-Bau",SULAWESI TENGGARA,93713.0,Indonesia,,,,-5.4637881,122.5979087,https://maps.google.com/?cid=0x0:0x166f744cae826f4b,
supermarket,Toko,Wiraswasta,"FHX7+WJ3, Jl. Dayanu Ikhsanuddin, Sulaa, Kec. Betoambari, Kota Bau-Bau, Sulawesi Tenggara 93724","Jl. Dayanu Ikhsanuddin, Sulaa, Kec. Betoambari, Kota Bau-Bau",SULAWESI TENGGARA,93724.0,Indonesia,85146447070.0,,,-5.5002382,122.5640472,https://maps.google.com/?cid=0x0:0x8a3072de2aa59fea,
supermarket,supermarket,Sulawesi Tenggara 93753,"Kabupaten Buton, Sulawesi Tenggara","Kabupaten Buton, Sulawesi Tenggara",SULAWESI TENGGARA,,Indonesia,,,,-5.5916275,122.7858791,https://maps.google.com/?cid=0x0:0x5d5b6b7c1f0a9413,
supermarket,Toko,Kios Mama Basri,"Takimpo, Kec. Ps. Wajo, Kabupaten Buton, Sulawesi Tenggara","Kabupaten Buton, Sulawesi Tenggara",SULAWESI TENGGARA,,Indonesia,85340601070.0,,,-5.5292017,122.8466565,https://maps.google.com/?cid=0x0:0x9a2fec94c8eab09d,
supermarket,Toko Swalayan,Kios Nerli,"Takimpo, Kec. Ps. Wajo, Kabupaten Buton, Sulawesi Tenggara 93754","Kec. Ps. Wajo, Kabupaten Buton",SULAWESI TENGGARA,93754.0,Indonesia,85242617661.0,,,-5.5301389,122.8542511,https://maps.google.com/?cid=0x0:0xaf38237ff0004e74,
supermarket,Pemasok minyak tanah,Pangkalan minyak tanah,"9M7X+M7J, Jl. Gajah Mada, Jaya Bakti, Kec. Sampolawa, Kabupaten Buton, Sulawesi Tenggara","Kabupaten Buton, Sulawesi Tenggara",SULAWESI TENGGARA,,Indonesia,,,,-5.6357861,122.6981421,https://maps.google.com/?cid=0x0:0x369954209f0a1336,
supermarket,Pasar,Pasar Sentral Sampolawa,"9PC4+H89, Unnamed Road, Jaya Bakti, Kec. Sampolawa, Kabupaten Buton, Sulawesi Tenggara","Kabupaten Buton, Sulawesi Tenggara",SULAWESI TENGGARA,,Indonesia,,,,-5.6285971,122.705861,https://maps.google.com/?cid=0x0:0xe10293c971c3a998,
supermarket,Toserba,Hypermart Lippo Plaza Baubau,"Jl. Sultan Hasanuddin, Batulo, Kec. Wolio, Kota Bau-Bau, Sulawesi Tenggara","Kota Bau-Bau, Sulawesi Tenggara",SULAWESI TENGGARA,,Indonesia,4022823895.0,,,-5.4609114,122.6201466,https://maps.google.com/?cid=0x0:0x6d97a28db9b15e8f,
supermarket,Minimarket,Kios A-Mona,"9P92+747, Lingkungan Makolona, Jaya Bakti, Kec. Sampolawa, Kabupaten Buton, Sulawesi Tenggara","Kabupaten Buton, Sulawesi Tenggara",SULAWESI TENGGARA,,Indonesia,82259173286.0,,,-5.6318377,122.7003024,https://maps.google.com/?cid=0x0:0x6d10941ed07924b3,
supermarket,Pusat Perbelanjaan,UD. Limbo Jaya,"FR9W+97Q, Jl. Poros Kel. Kombeli, Kec., Lapodi, Kec. Ps. Wajo, Kabupaten Buton, Sulawesi Tenggara 93754","Jl. Poros Kel. Kombeli, Kec., Lapodi, Kec. Ps. Wajo, Kabupaten Buton",SULAWESI TENGGARA,93754.0,Indonesia,82250172903.0,,,-5.531525,122.8457268,https://maps.google.com/?cid=0x0:0xe5927a4d05604011,
supermarket,Toko Swalayan,Dua Sekawan Swalayan,"GJJF+44R, Jl. Pahlawan, Bukit Wolio Indah, Kec. Wolio, Kota Bau-Bau, Sulawesi Tenggara 93711","Jl. Pahlawan, Bukit Wolio Indah, Kec. Wolio, Kota Bau-Bau",SULAWESI TENGGARA,93711.0,Indonesia,82291453738.0,,,-5.469635,122.6227769,https://maps.google.com/?cid=0x0:0x569c728c1fce6cd4,
supermarket,Tempat acara,"HENDEA, MIRAHADIA","FPMX+P3P, Sandang Pangan, Kec. Sampolawa, Kabupaten Buton, Sulawesi Tenggara 93753","Sandang Pangan, Kec. Sampolawa, Kabupaten Buton",SULAWESI TENGGARA,93753.0,Indonesia,,,,-5.5156518,122.7476982,https://maps.google.com/?cid=0x0:0xe03c24bebd5a852e,
supermarket,Toko bahan makanan,Kios Annisa (Rose Kitchen),"9J8M+V9R, Majapahit, Batauga, Kabupaten Buton, Sulawesi Tenggara","Kabupaten Buton, Sulawesi Tenggara",SULAWESI TENGGARA,,Indonesia,81244983813.0,,,-5.6327668,122.6333973,https://maps.google.com/?cid=0x0:0xb232d63d24c259a5,
supermarket,Toko,Kios Felly,"CP9Q+MCQ, desa, Gn. Sejuk, Kec. Sampolawa, Kabupaten Buton, Sulawesi Tenggara 93753","desa, Gn. Sejuk, Kec. Sampolawa, Kabupaten Buton",SULAWESI TENGGARA,93753.0,Indonesia,,,,-5.5807936,122.7386099,https://maps.google.com/?cid=0x0:0xe43e4eabdd5be81e,
supermarket,Toko Swalayan,Kios Annisa (La Ode Geger),"8P99+J8J, Bahari, Kec. Sampolawa, Kabupaten Buton, Sulawesi Tenggara 93753","Bahari, Kec. Sampolawa, Kabupaten Buton",SULAWESI TENGGARA,93753.0,Indonesia,82187706869.0,,,-5.6810415,122.7187527,https://maps.google.com/?cid=0x0:0xed94c61ca7f01922,
supermarket,Toko Swalayan,Kios Isra (Ruhiana),"8P98+5VJ, Jl. Padat Karya, Bahari Dua, Kec. Sampolawa, Selatan Regency, Sulawesi Tenggara 93753","Jl. Padat Karya, Bahari Dua, Kec. Sampolawa, Selatan Regency",SULAWESI TENGGARA,93753.0,Indonesia,,,,-5.6822409,122.7175557,https://maps.google.com/?cid=0x0:0xa1898807226c0ed2,
supermarket,Minimarket,Abzarih Mart,"9JM3+W2X, Laompo, Batauga, Kabupaten Buton, Sulawesi Tenggara 93752","Laompo, Batauga, Kabupaten Buton",SULAWESI TENGGARA,93752.0,Indonesia,,,,-5.6151453,122.6026117,https://maps.google.com/?cid=0x0:0xf23d5dc209e33bc4,
supermarket,Rumah Kayu,Rumah Nurul,"8MPJ+5RQ, Buku, Wawoangi, Kec. Sampolawa, Kabupaten Buton, Sulawesi Tenggara","Kabupaten Buton, Sulawesi Tenggara",SULAWESI TENGGARA,,Indonesia,,,,-5.6647318,122.6821573,https://maps.google.com/?cid=0x0:0xf5c0b305291fdffd,
supermarket,Toko Swalayan,Dua Sekawan swalayan lamangga,"GHHX+C74, Lamangga, Kec. Murhum, Kota Bau-Bau, Sulawesi Tenggara 93713","Lamangga, Kec. Murhum, Kota Bau-Bau",SULAWESI TENGGARA,93713.0,Indonesia,40223855.0,,,-5.4714996,122.5982133,https://maps.google.com/?cid=0x0:0xa6fdbccedf42bbc,
supermarket,Toko,Kios Kandar Jaya,"FRFW+M34, Awainulu, Kec. Ps. Wajo, Kabupaten Buton, Sulawesi Tenggara 93754","Awainulu, Kec. Ps. Wajo, Kabupaten Buton",SULAWESI TENGGARA,93754.0,Indonesia,82344330449.0,,,-5.5258572,122.845207,https://maps.google.com/?cid=0x0:0x9719f40fe0e09f52,
supermarket,Toko Perlengkapan Rumah,TOKO MEGA UTAMA,"GJV4+V3Q, Wale, Kec. Wolio, Kota Bau-Bau, Sulawesi Tenggara 93717","Wale, Kec. Wolio, Kota Bau-Bau",SULAWESI TENGGARA,93717.0,Indonesia,5255446128.0,,,-5.455296,122.6052295,https://maps.google.com/?cid=0x0:0x63e881c92a4e1dab,
supermarket,supermarket,Kec. Batu Atas,"Kabupaten Buton, Sulawesi Tenggara","Kabupaten Buton, Sulawesi Tenggara",SULAWESI TENGGARA,,Indonesia,,,,-6.206587,122.718311,https://maps.google.com/?cid=0x0:0x4823161ea155a8e3,
supermarket,supermarket,BEX Mart / Beauty Baubau Wolio,"Jl. Jambu Mente, Bukit Wolio Indah, Kec. Wolio, Kota Bau-Bau, Sulawesi Tenggara 93716","Bukit Wolio Indah, Kec. Wolio, Kota Bau-Bau",SULAWESI TENGGARA,93716.0,Indonesia,,,,-5.4654349,122.618875,https://maps.google.com/?cid=0x0:0x69c9ef797ecd7852,
supermarket,Toko,Wiraswasta,"FHX7+WJ3, Jl. Dayanu Ikhsanuddin, Sulaa, Kec. Betoambari, Kota Bau-Bau, Sulawesi Tenggara 93724","Jl. Dayanu Ikhsanuddin, Sulaa, Kec. Betoambari, Kota Bau-Bau",SULAWESI TENGGARA,93724.0,Indonesia,85146447070.0,,,-5.5002382,122.5640472,https://maps.google.com/?cid=0x0:0x8a3072de2aa59fea,
supermarket,supermarket,Kec. Kadatua,"Kabupaten Buton, Sulawesi Tenggara","Kabupaten Buton, Sulawesi Tenggara",SULAWESI TENGGARA,,Indonesia,,,,-5.5330522,122.4744908,https://maps.google.com/?cid=0x0:0xa7c55634cc618f76,
supermarket,Dapur Umum,Kios Alif ice cream,"FF9F+5M2, Unnamed Road, Marawali, Kec. Kadatua, Kabupaten Buton, Sulawesi Tenggara 93752","Unnamed Road, Marawali, Kec. Kadatua, Kabupaten Buton",SULAWESI TENGGARA,93752.0,Indonesia,,,,-5.5321174,122.4741323,https://maps.google.com/?cid=0x0:0x92daea49046c9e3f,
supermarket,Komplek perumahan,Kampung kadatua,"FGM3+VV9, Banabungi Sel., Kec. Kadatua, Kabupaten Buton, Sulawesi Tenggara","Kabupaten Buton, Sulawesi Tenggara",SULAWESI TENGGARA,,Indonesia,,,,-5.5153302,122.5047416,https://maps.google.com/?cid=0x0:0x46fe27f4dc02a63d,
supermarket,supermarket,Kios Remon,"CGR4+CWJ, Kapoa, Kec. Kadatua, Kabupaten Buton, Sulawesi Tenggara","Kabupaten Buton, Sulawesi Tenggara",SULAWESI TENGGARA,,Indonesia,,,,-5.5589107,122.5072772,https://maps.google.com/?cid=0x0:0x63a7a2cf861d9f0c,
supermarket,supermarket,Kios hasrin,"CGQ3+7XM, Unnamed Road, Uwemaasi, Kec. Kadatua, Kabupaten Buton, Sulawesi Tenggara 93752","Unnamed Road, Uwemaasi, Kec. Kadatua, Kabupaten Buton",SULAWESI TENGGARA,93752.0,Indonesia,,,,-5.5617976,122.5049348,https://maps.google.com/?cid=0x0:0xca3e790198316acb,
supermarket,supermarket,Sulawesi Tenggara 93752,"Kabupaten Buton, Sulawesi Tenggara","Kabupaten Buton, Sulawesi Tenggara",SULAWESI TENGGARA,,Indonesia,,,,-5.6000771,122.650351,https://maps.google.com/?cid=0x0:0x1c436516d6448e13,
supermarket,Toko,Toko Putri,"8QHQ+J88, Burangasi, Kec. Lapandewa, Kabupaten Buton, Sulawesi Tenggara 93753","Burangasi, Kec. Lapandewa, Kabupaten Buton",SULAWESI TENGGARA,93753.0,Indonesia,,,,-5.6709673,122.7883267,https://maps.google.com/?cid=0x0:0xce231c37d8e7cde9,
supermarket,Komplek perumahan,Pasar LAKAMBARA Desa lapandewa kaindea,"9Q4M+W4G, Gaya Baru, Kec. Lapandewa, Kabupaten Buton, Sulawesi Tenggara 93753","Gaya Baru, Kec. Lapandewa, Kabupaten Buton",SULAWESI TENGGARA,93753.0,Indonesia,,,,-5.6426792,122.7828286,https://maps.google.com/?cid=0x0:0xe473c8210a171e0c,
supermarket,Pasar,Pasar Desa Wasuamba ( PPS 1 ),"Q4V5+445, Wasuamba, Kec. Lasalimu, Kabupaten Buton, Sulawesi Tenggara 93756","Wasuamba, Kec. Lasalimu, Kabupaten Buton",SULAWESI TENGGARA,93756.0,Indonesia,,,,-5.207233,123.107873,https://maps.google.com/?cid=0x0:0x2e81ae257cc90bfc,
supermarket,supermarket,Sulawesi Tenggara 93753,"Kabupaten Buton, Sulawesi Tenggara","Kabupaten Buton, Sulawesi Tenggara",SULAWESI TENGGARA,,Indonesia,,,,-5.5916275,122.7858791,https://maps.google.com/?cid=0x0:0x5d5b6b7c1f0a9413,
supermarket,Pasar,Pasar Baru Sampolawa Lapola,"9PM6+CWP, Jaya Bakti, Kec. Sampolawa, Kabupaten Buton, Sulawesi Tenggara 93753","Jaya Bakti, Kec. Sampolawa, Kabupaten Buton",SULAWESI TENGGARA,93753.0,Indonesia,,,,-5.6164039,122.7123251,https://maps.google.com/?cid=0x0:0xb76be7879b2b6dff,
supermarket,Pasar,Pasar Sentral Sampolawa,"9PC4+H89, Unnamed Road, Jaya Bakti, Kec. Sampolawa, Kabupaten Buton, Sulawesi Tenggara","Kabupaten Buton, Sulawesi Tenggara",SULAWESI TENGGARA,,Indonesia,,,,-5.6285971,122.705861,https://maps.google.com/?cid=0x0:0xe10293c971c3a998,
supermarket,Toko umum,Konter Ilal,"Wabula, Kec. Wabula, Kabupaten Buton, Sulawesi Tenggara 93754","Kec. Wabula, Kabupaten Buton",SULAWESI TENGGARA,93754.0,Indonesia,85342196470.0,,,-5.611635,122.8578989,https://maps.google.com/?cid=0x0:0xb9cf615efdedb82e,
supermarket,Seafood,TPI Sampolawa,"9M3R+HRJ, Katilombu, Kec. Sampolawa, Kabupaten Buton, Sulawesi Tenggara","Kabupaten Buton, Sulawesi Tenggara",SULAWESI TENGGARA,,Indonesia,,,,-5.6460341,122.6920191,https://maps.google.com/?cid=0x0:0xbd822bb1710ca7cc,
supermarket,Minimarket,Kios A-Mona,"9P92+747, Lingkungan Makolona, Jaya Bakti, Kec. Sampolawa, Kabupaten Buton, Sulawesi Tenggara","Kabupaten Buton, Sulawesi Tenggara",SULAWESI TENGGARA,,Indonesia,82259173286.0,,,-5.6318377,122.7003024,https://maps.google.com/?cid=0x0:0x6d10941ed07924b3,
supermarket,Pusat Perbelanjaan,UD. Limbo Jaya,"FR9W+97Q, Jl. Poros Kel. Kombeli, Kec., Lapodi, Kec. Ps. Wajo, Kabupaten Buton, Sulawesi Tenggara 93754","Jl. Poros Kel. Kombeli, Kec., Lapodi, Kec. Ps. Wajo, Kabupaten Buton",SULAWESI TENGGARA,93754.0,Indonesia,82250172903.0,,,-5.531525,122.8457268,https://maps.google.com/?cid=0x0:0xe5927a4d05604011,
supermarket,Toko Swalayan,Kios Nerli,"Takimpo, Kec. Ps. Wajo, Kabupaten Buton, Sulawesi Tenggara 93754","Kec. Ps. Wajo, Kabupaten Buton",SULAWESI TENGGARA,93754.0,Indonesia,85242617661.0,,,-5.5301389,122.8542511,https://maps.google.com/?cid=0x0:0xaf38237ff0004e74,
supermarket,Toko Swalayan,Dua Sekawan swalayan lamangga,"GHHX+C74, Lamangga, Kec. Murhum, Kota Bau-Bau, Sulawesi Tenggara 93713","Lamangga, Kec. Murhum, Kota Bau-Bau",SULAWESI TENGGARA,93713.0,Indonesia,40223855.0,,,-5.4714996,122.5982133,https://maps.google.com/?cid=0x0:0xa6fdbccedf42bbc,
supermarket,Toko Swalayan,Dua Sekawan Swalayan,"GJJF+44R, Jl. Pahlawan, Bukit Wolio Indah, Kec. Wolio, Kota Bau-Bau, Sulawesi Tenggara 93711","Jl. Pahlawan, Bukit Wolio Indah, Kec. Wolio, Kota Bau-Bau",SULAWESI TENGGARA,93711.0,Indonesia,82291453738.0,,,-5.469635,122.6227769,https://maps.google.com/?cid=0x0:0x569c728c1fce6cd4,
supermarket,Toserba,Hypermart Lippo Plaza Baubau,"Jl. Sultan Hasanuddin, Batulo, Kec. Wolio, Kota Bau-Bau, Sulawesi Tenggara","Kota Bau-Bau, Sulawesi Tenggara",SULAWESI TENGGARA,,Indonesia,4022823895.0,,,-5.4609114,122.6201466,https://maps.google.com/?cid=0x0:0x6d97a28db9b15e8f,
supermarket,Toko,Kios Mama Basri,"Takimpo, Kec. Ps. Wajo, Kabupaten Buton, Sulawesi Tenggara","Kabupaten Buton, Sulawesi Tenggara",SULAWESI TENGGARA,,Indonesia,85340601070.0,,,-5.5292017,122.8466565,https://maps.google.com/?cid=0x0:0x9a2fec94c8eab09d,
supermarket,Toko Swalayan,Toko Fajar,"9JQ8+V7G, lrg.bahagia selatan prov., Lakambau, Batauga, Kabupaten Buton, Sulawesi Tenggara 93752","lrg.bahagia selatan prov., Lakambau, Batauga, Kabupaten Buton",SULAWESI TENGGARA,93752.0,Indonesia,85342488495.0,,,-5.610301,122.6157,https://maps.google.com/?cid=0x0:0x6b271853db2e7429,
supermarket,Toko bahan makanan,Kios Neneng,"GH6C+FRG, Jl. Sultan Datanu Ikhsanuddin, Katobengke, Kec. Betoambari, Kota Bau-Bau, Sulawesi Tenggara 93752","Jl. Sultan Datanu Ikhsanuddin, Katobengke, Kec. Betoambari, Kota Bau-Bau",SULAWESI TENGGARA,93752.0,Indonesia,,,,-5.4888159,122.5720695,https://maps.google.com/?cid=0x0:0xa0b7f02844f713b4,
supermarket,Toko Alat Tulis,Toko SINAR KENCANA,"Jl. Murhum No.95A, Wajo, Kec. Murhum, Kota Bau-Bau, Sulawesi Tenggara 93717","Wajo, Kec. Murhum, Kota Bau-Bau",SULAWESI TENGGARA,93717.0,Indonesia,4022811951.0,,,-5.464405,122.6015497,https://maps.google.com/?cid=0x0:0x1f19d35976f75198,
supermarket,Toko,Wiraswasta,"FHX7+WJ3, Jl. Dayanu Ikhsanuddin, Sulaa, Kec. Betoambari, Kota Bau-Bau, Sulawesi Tenggara 93724","Jl. Dayanu Ikhsanuddin, Sulaa, Kec. Betoambari, Kota Bau-Bau",SULAWESI TENGGARA,93724.0,Indonesia,85146447070.0,,,-5.5002382,122.5640472,https://maps.google.com/?cid=0x0:0x8a3072de2aa59fea,
supermarket,supermarket,J. M Mart Sorawolio,"Jalan Poros Pasarwajo Depan Lapangan Terminal No.KM. 15, Bugi, Kec. Sorawolio, Kota Bau-Bau, Sulawesi Tenggara","Kota Bau-Bau, Sulawesi Tenggara",SULAWESI TENGGARA,,Indonesia,,,,-5.4875811,122.7011983,https://maps.google.com/?cid=0x0:0x23299109b255811,
supermarket,Toko Kesehatan dan Kecantikan,HALLAL MART HPAI,"GR4W+G25, Kambula Mbulana, Kec. Ps. Wajo, Kabupaten Buton, Sulawesi Tenggara 93754","Kambula Mbulana, Kec. Ps. Wajo, Kabupaten Buton",SULAWESI TENGGARA,93754.0,Indonesia,85282286672.0,,,-5.4937465,122.8451024,https://maps.google.com/?cid=0x0:0x894655403dff78d,
supermarket,Toko Swalayan,MGM Swalayan Baubau,"GHPX+F5M, Jl. Betoambari, Tanganapada, Kec. Murhum, Kota Bau-Bau, Sulawesi Tenggara 93713","Jl. Betoambari, Tanganapada, Kec. Murhum, Kota Bau-Bau",SULAWESI TENGGARA,93713.0,Indonesia,,,,-5.4637881,122.5979087,https://maps.google.com/?cid=0x0:0x166f744cae826f4b,
supermarket,Toko bahan makanan,Kios Yusuf Wurugana,"CH8W+FH6, Laompo, Batauga, Kabupaten Buton, Sulawesi Tenggara 93752","Laompo, Batauga, Kabupaten Buton",SULAWESI TENGGARA,93752.0,Indonesia,,,,-5.5838376,122.5963982,https://maps.google.com/?cid=0x0:0xa7729458ede77089,
supermarket,Toko,Kios Felly,"CP9Q+MCQ, desa, Gn. Sejuk, Kec. Sampolawa, Kabupaten Buton, Sulawesi Tenggara 93753","desa, Gn. Sejuk, Kec. Sampolawa, Kabupaten Buton",SULAWESI TENGGARA,93753.0,Indonesia,,,,-5.5807936,122.7386099,https://maps.google.com/?cid=0x0:0xe43e4eabdd5be81e,
supermarket,Rumah Kayu,Rumah Nurul,"8MPJ+5RQ, Buku, Wawoangi, Kec. Sampolawa, Kabupaten Buton, Sulawesi Tenggara","Kabupaten Buton, Sulawesi Tenggara",SULAWESI TENGGARA,,Indonesia,,,,-5.6647318,122.6821573,https://maps.google.com/?cid=0x0:0xf5c0b305291fdffd,
supermarket,Toko Swalayan,Kios Annisa (La Ode Geger),"8P99+J8J, Bahari, Kec. Sampolawa, Kabupaten Buton, Sulawesi Tenggara 93753","Bahari, Kec. Sampolawa, Kabupaten Buton",SULAWESI TENGGARA,93753.0,Indonesia,82187706869.0,,,-5.6810415,122.7187527,https://maps.google.com/?cid=0x0:0xed94c61ca7f01922,
supermarket,Tempat acara,"HENDEA, MIRAHADIA","FPMX+P3P, Sandang Pangan, Kec. Sampolawa, Kabupaten Buton, Sulawesi Tenggara 93753","Sandang Pangan, Kec. Sampolawa, Kabupaten Buton",SULAWESI TENGGARA,93753.0,Indonesia,,,,-5.5156518,122.7476982,https://maps.google.com/?cid=0x0:0xe03c24bebd5a852e,
supermarket,Toko Swalayan,Kios Isra (Ruhiana),"8P98+5VJ, Jl. Padat Karya, Bahari Dua, Kec. Sampolawa, Selatan Regency, Sulawesi Tenggara 93753","Jl. Padat Karya, Bahari Dua, Kec. Sampolawa, Selatan Regency",SULAWESI TENGGARA,93753.0,Indonesia,,,,-5.6822409,122.7175557,https://maps.google.com/?cid=0x0:0xa1898807226c0ed2,
supermarket,supermarket,Kec. Siompu,"Kabupaten Buton, Sulawesi Tenggara","Kabupaten Buton, Sulawesi Tenggara",SULAWESI TENGGARA,,Indonesia,,,,-5.6304618,122.5254693,https://maps.google.com/?cid=0x0:0x2718691e607a701,
supermarket,Pembangunan Perumahan,Pasar Pagi Siompu Lapara,"9GCG+48J, Tongali, Kec. Siompu, Kabupaten Buton, Sulawesi Tenggara 93752","Tongali, Kec. Siompu, Kabupaten Buton",SULAWESI TENGGARA,93752.0,Indonesia,82395302222.0,,,-5.6296587,122.5257544,https://maps.google.com/?cid=0x0:0x46bb934a63e9fcad,
supermarket,Toko bahan makanan,Toko Mama Indah,"8GJ6+F38, Biwinapada, Kec. Siompu, Kabupaten Buton, Sulawesi Tenggara 93752","Biwinapada, Kec. Siompu, Kabupaten Buton",SULAWESI TENGGARA,93752.0,Indonesia,,,,-5.6688383,122.5102071,https://maps.google.com/?cid=0x0:0xbbdf6126a24cc3bc,
supermarket,Kios,Kios Muhibah,"Unnamed Road, 93752, Biwinapada, Kec. Siompu, Kabupaten Buton, Sulawesi Tenggara 93752","93752, Biwinapada, Kec. Siompu, Kabupaten Buton",SULAWESI TENGGARA,93752.0,Indonesia,194022230.0,,,-5.6674331,122.5140236,https://maps.google.com/?cid=0x0:0x5a2a417a43eb19bc,
supermarket,Toko,Inya Kamarudi,"9G9G+C3C, Tongali, Kec. Siompu, Kabupaten Buton, Sulawesi Tenggara 93752","Tongali, Kec. Siompu, Kabupaten Buton",SULAWESI TENGGARA,93752.0,Indonesia,,,,-5.631555,122.525229,https://maps.google.com/?cid=0x0:0xa2848584ad2decc7,
supermarket,Rumah Kayu,Rumah Mama Alwi,"9GCV+CC2, Karae, Kec. Siompu, Kabupaten Buton, Sulawesi Tenggara","Kabupaten Buton, Sulawesi Tenggara",SULAWESI TENGGARA,,Indonesia,,,,-5.6289814,122.5435252,https://maps.google.com/?cid=0x0:0x5528a24b94abcb82,
supermarket,Kantor Pemerintah Distrik,UPPKA Desa Karae,"9H42+5FP, Karae, Kec. Siompu, Kabupaten Buton, Sulawesi Tenggara 93752","Karae, Kec. Siompu, Kabupaten Buton",SULAWESI TENGGARA,93752.0,Indonesia,85398832792.0,,,-5.6445443,122.5512182,https://maps.google.com/?cid=0x0:0xcb65854242a654cf,
supermarket,Toko bahan makanan,"Kios Daliya, Aldi, Tomi (Rumah Penenun Kain Buton)","8HP3+RR6, Lontoi, Kec. Siompu, Kabupaten Buton, Sulawesi Tenggara 93752","Lontoi, Kec. Siompu, Kabupaten Buton",SULAWESI TENGGARA,93752.0,Indonesia,82214536800.0,,,-5.6633999,122.5542638,https://maps.google.com/?cid=0x0:0x85195672ea1c3b86,
supermarket,supermarket,Kec. Siompu Bar.,"Kabupaten Buton, Sulawesi Tenggara","Kabupaten Buton, Sulawesi Tenggara",SULAWESI TENGGARA,,Indonesia,,,,-5.6899378,122.4818486,https://maps.google.com/?cid=0x0:0xdc7d5a3172232e78,
supermarket,Toko bahan makanan,Toko Mama Indah,"8GJ6+F38, Biwinapada, Kec. Siompu, Kabupaten Buton, Sulawesi Tenggara 93752","Biwinapada, Kec. Siompu, Kabupaten Buton",SULAWESI TENGGARA,93752.0,Indonesia,,,,-5.6688383,122.5102071,https://maps.google.com/?cid=0x0:0xbbdf6126a24cc3bc,
supermarket,Kios,Kios Muhibah,"Unnamed Road, 93752, Biwinapada, Kec. Siompu, Kabupaten Buton, Sulawesi Tenggara 93752","93752, Biwinapada, Kec. Siompu, Kabupaten Buton",SULAWESI TENGGARA,93752.0,Indonesia,194022230.0,,,-5.6674331,122.5140236,https://maps.google.com/?cid=0x0:0x5a2a417a43eb19bc,
supermarket,Pembangunan Perumahan,Pasar Pagi Siompu Lapara,"9GCG+48J, Tongali, Kec. Siompu, Kabupaten Buton, Sulawesi Tenggara 93752","Tongali, Kec. Siompu, Kabupaten Buton",SULAWESI TENGGARA,93752.0,Indonesia,82395302222.0,,,-5.6296587,122.5257544,https://maps.google.com/?cid=0x0:0x46bb934a63e9fcad,
supermarket,Bar,Siompu barat,"8F5J+MJX, Jl. La Laja, Molona, Kec. Siompu Bar., Kabupaten Buton, Sulawesi Tenggara 93752","Jl. La Laja, Molona, Kec. Siompu Bar., Kabupaten Buton",SULAWESI TENGGARA,93752.0,Indonesia,,,,-5.6906618,122.4815127,https://maps.google.com/?cid=0x0:0x22951cc20102d415,
supermarket,Kios,Kios Sembako,"8F5H+WVP, Molona, Kec. Siompu Bar., Kabupaten Buton, Sulawesi Tenggara","Kabupaten Buton, Sulawesi Tenggara",SULAWESI TENGGARA,,Indonesia,82259665138.0,,,-5.6901534,122.4797116,https://maps.google.com/?cid=0x0:0xc990cc6dfc7931b0,
supermarket,Pasar,Pasar Desa Wasuamba ( PPS 1 ),"Q4V5+445, Wasuamba, Kec. Lasalimu, Kabupaten Buton, Sulawesi Tenggara 93756","Wasuamba, Kec. Lasalimu, Kabupaten Buton",SULAWESI TENGGARA,93756.0,Indonesia,,,,-5.207233,123.107873,https://maps.google.com/?cid=0x0:0x2e81ae257cc90bfc,
supermarket,,Leha cantik dong,"8F6H+7Q3, Lorong puskesmas, Molona, Kec. Siompu Bar., Kabupaten Buton, Sulawesi Tenggara","Kabupaten Buton, Sulawesi Tenggara",SULAWESI TENGGARA,,Indonesia,,,,-5.6893669,122.4794299,https://maps.google.com/?cid=0x0:0x10cdc6d1b78f55c6,
supermarket,supermarket,Kios Nufais,"8F8C+9RF, Lalole, Kec. Siompu Bar., Kabupaten Buton, Sulawesi Tenggara 93752","Lalole, Kec. Siompu Bar., Kabupaten Buton",SULAWESI TENGGARA,93752.0,Indonesia,,,,-5.6835371,122.4729959,https://maps.google.com/?cid=0x0:0x989c1f48e4dfdd20,
