Category,Real Category,Business Name,Address,City,State,Postal Code,Country,Phone,Email,Website,Latitude,Longitude,Map Link,Details Link
komplek housing,komplek housing,Sulawesi Tenggara 93752,"Kabupaten Buton, Sulawesi Tenggara","Kabupaten Buton, Sulawesi Tenggara",SULAWESI TENGGARA,,Indonesia,,,,-5.6000771,122.650351,https://maps.google.com/?cid=0x0:0x1c436516d6448e13,
komplek housing,Komplek perumahan,Rumah Igo,"Jl. Gajah Mada No.100, Laompo, Batauga, Kabupaten Buton, Sulawesi Tenggara 93752","Laompo, Batauga, Kabupaten Buton",SULAWESI TENGGARA,93752.0,Indonesia,,,,-5.5864136,122.5964253,https://maps.google.com/?cid=0x0:0x9bbc4474ceeee1ed,
komplek housing,Gedung Apartemen,BATAUGA PERMAI,"CHCX+23W, Laompo, Batauga, Kabupaten Buton, Sulawesi Tenggara","Kabupaten Buton, Sulawesi Tenggara",SULAWESI TENGGARA,,Indonesia,,,,-5.5798879,122.5977012,https://maps.google.com/?cid=0x0:0x67d6c1ff671c6a75,
komplek housing,Komplek perumahan,Kompleks lampu merah dako,"8J6M+MVJ, Jl. Gajah Mada, Bola, Batauga, Kabupaten Buton, Sulawesi Tenggara 93752","Jl. Gajah Mada, Bola, Batauga, Kabupaten Buton",SULAWESI TENGGARA,93752.0,Indonesia,,,,-5.6882936,122.634655,https://maps.google.com/?cid=0x0:0xcda8d968f72d222f,
komplek housing,komplek housing,My home,"FJ23+C8X, Lawela Sel., Batauga, Kabupaten Buton, Sulawesi Tenggara","Kabupaten Buton, Sulawesi Tenggara",SULAWESI TENGGARA,,Indonesia,,,,-5.5488939,122.6033553,https://maps.google.com/?cid=0x0:0x67acfac9cc1a580f,
komplek housing,Komplek perumahan,Rumah Salsya Wahyu Ningsih,"Laompo, Batauga, Kabupaten Buton, Sulawesi Tenggara","Kabupaten Buton, Sulawesi Tenggara",SULAWESI TENGGARA,,Indonesia,,,,-5.6150415,122.6029449,https://maps.google.com/?cid=0x0:0x66b74ee7bf7e577,
komplek housing,Komplek perumahan,RumahQu,"Jl. Gajah Mada No.179, Busoa, Batauga, Kabupaten Buton, Sulawesi Tenggara 93752","Busoa, Batauga, Kabupaten Buton",SULAWESI TENGGARA,93752.0,Indonesia,,,,-5.5837835,122.596124,https://maps.google.com/?cid=0x0:0x37e5f3bfe237d20e,
komplek housing,Komplek perumahan,RUMAH IBU SUPRAPTI,"Jl. Gajah Mada No.107, Laompo, Batauga, Kabupaten Buton, Sulawesi Tenggara 93752","Laompo, Batauga, Kabupaten Buton",SULAWESI TENGGARA,93752.0,Indonesia,,,,-5.5882745,122.5964907,https://maps.google.com/?cid=0x0:0xc1e84776610f2d02,
komplek housing,Komplek perumahan,Rmhh Audiyaa,"9J77+9QQ, Masiri, Batauga, Kabupaten Buton, Sulawesi Tenggara","Kabupaten Buton, Sulawesi Tenggara",SULAWESI TENGGARA,,Indonesia,,,,-5.6364491,122.6145822,https://maps.google.com/?cid=0x0:0x2b3a0b8539ed43e0,
komplek housing,Komplek perumahan,Rumah fatin,"No.129-153, Jl. Gajah Mada, Laompo, Batauga, Kabupaten Buton, Sulawesi Tenggara 93752","Jl. Gajah Mada, Laompo, Batauga, Kabupaten Buton",SULAWESI TENGGARA,93752.0,Indonesia,,,,-5.5860562,122.5961388,https://maps.google.com/?cid=0x0:0xb142368bf9ce9849,
komplek housing,Komplek perumahan,Wasambua,"9HWW+9P3, Wasambua, Batauga, Kabupaten Buton, Sulawesi Tenggara 93752","Wasambua, Batauga, Kabupaten Buton",SULAWESI TENGGARA,93752.0,Indonesia,,,,-5.6041072,122.5967869,https://maps.google.com/?cid=0x0:0x669346628d02c8df,
komplek housing,Kompleks Apartemen,Kompleks MANGGA 2,"Poogalampa, Batauga, Kabupaten Buton, Sulawesi Tenggara 93752","Batauga, Kabupaten Buton",SULAWESI TENGGARA,93752.0,Indonesia,,,,-5.6887729,122.6623798,https://maps.google.com/?cid=0x0:0xf97697097fb307da,
komplek housing,Komplek perumahan,Risman's House,"9JFF+7R9, Molagina, Batauga, Kabupaten Buton, Sulawesi Tenggara 93752","Molagina, Batauga, Kabupaten Buton",SULAWESI TENGGARA,93752.0,Indonesia,,,,-5.6268342,122.6246212,https://maps.google.com/?cid=0x0:0x6df88a46b1193ebb,
komplek housing,Perhimpunan Pengembang Perumahan,Rumah Nadine,"Molagina, Batauga, Kabupaten Buton, Sulawesi Tenggara 93752","Batauga, Kabupaten Buton",SULAWESI TENGGARA,93752.0,Indonesia,,,,-5.6271028,122.6245357,https://maps.google.com/?cid=0x0:0xa94bba9a74d446e0,
komplek housing,Otoritas Perumahan,BTN LIAWONCI,"8J4P+QRV, Jl. Poros, Bola, Batauga, Buton Regency, South East Sulawesi 93752","Jl. Poros, Bola, Batauga, Buton Regency",SULAWESI TENGGARA,93752.0,Indonesia,,,,-5.693023,122.6370408,https://maps.google.com/?cid=0x0:0x7aa43773836997da,
komplek housing,Pembangunan Perumahan,Rehan,"9JM3+74F, Laompo, Batauga, Kabupaten Buton, Sulawesi Tenggara","Kabupaten Buton, Sulawesi Tenggara",SULAWESI TENGGARA,,Indonesia,,,,-5.6168237,122.6028048,https://maps.google.com/?cid=0x0:0x14d41b83747ac003,
komplek housing,Komplek perumahan,Lorong Bahagia,"Lawela Sel., Batauga, Kabupaten Buton, Sulawesi Tenggara","Kabupaten Buton, Sulawesi Tenggara",SULAWESI TENGGARA,,Indonesia,,,,-5.5320217,122.6192672,https://maps.google.com/?cid=0x0:0x9eaee3f3b4df6b93,
komplek housing,Komplek perumahan,Tiwi home stay,"Kel. Molagina, Jl. Gajah Mada No.2, Majapahit, Batauga, Kabupaten Buton, Sulawesi Tenggara 93752","Jl. Gajah Mada No.2, Majapahit, Batauga, Kabupaten Buton",SULAWESI TENGGARA,93752.0,Indonesia,,,,-5.627094,122.6250344,https://maps.google.com/?cid=0x0:0xc9768a6abfe33bfd,
komplek housing,Komplek perumahan,Home Putri Ikmal Aleeza,"CH6W+VM5, Busoa, Batauga, Kabupaten Buton, Sulawesi Tenggara","Kabupaten Buton, Sulawesi Tenggara",SULAWESI TENGGARA,,Indonesia,82290722226.0,,,-5.5878682,122.5967368,https://maps.google.com/?cid=0x0:0x53e80975bcdf44c9,
komplek housing,Komplek perumahan,Rumah Alfia,"9J77+9QW, Lingkungan Kolowu Morikana, Masiri, Batauga, Kabupaten Buton, Sulawesi Tenggara","Kabupaten Buton, Sulawesi Tenggara",SULAWESI TENGGARA,,Indonesia,,,,-5.636518,122.614467,https://maps.google.com/?cid=0x0:0xb9f98d9fa6f87e23,
komplek housing,komplek housing,Batauga,"Masiri, Batauga, Kabupaten Buton, Sulawesi Tenggara","Kabupaten Buton, Sulawesi Tenggara",SULAWESI TENGGARA,,Indonesia,,,,-5.610301,122.6157,https://maps.google.com/?cid=0x0:0xb59244aa04e5e53e,
komplek housing,Komplek perumahan,Rumah Acang,"9JQ8+V7G, Masiri, Batauga, Kabupaten Buton, Sulawesi Tenggara","Kabupaten Buton, Sulawesi Tenggara",SULAWESI TENGGARA,,Indonesia,,,,-5.610301,122.6157,https://maps.google.com/?cid=0x0:0x4e9d3f059af300a4,
komplek housing,Komplek perumahan,Tania wali,"9JQ8+V7G, Masiri, Batauga, Kabupaten Buton, Sulawesi Tenggara","Kabupaten Buton, Sulawesi Tenggara",SULAWESI TENGGARA,,Indonesia,,,,-5.610301,122.6157,https://maps.google.com/?cid=0x0:0xfbad00c16b9b8978,
komplek housing,komplek housing,Batauga,"Kabupaten Buton, Sulawesi Tenggara","Kabupaten Buton, Sulawesi Tenggara",SULAWESI TENGGARA,,Indonesia,,,,-5.6000771,122.650351,https://maps.google.com/?cid=0x0:0x3b6d61ab79220636,
komplek housing,Perhimpunan Pengembang Perumahan,Perdi,"9JFF+JQ9, Kel, molagina, Batauga, Kabupaten Buton, Sulawesi Tenggara 93752","Kel, molagina, Batauga, Kabupaten Buton",SULAWESI TENGGARA,93752.0,Indonesia,,,,-5.6260091,122.6244979,https://maps.google.com/?cid=0x0:0x1ba7917b70bbd4dd,
komplek housing,Perhimpunan Pengembang Perumahan,Rumah la ode,"CH6V+77Q, Laompo, Batauga, Kabupaten Buton, Sulawesi Tenggara 93752","Laompo, Batauga, Kabupaten Buton",SULAWESI TENGGARA,93752.0,Indonesia,,,,-5.5888314,122.59445,https://maps.google.com/?cid=0x0:0x1142800949c734c3,
komplek housing,Komplek perumahan,Rumah Fahmat,"CH6V+77Q, Laompo, Batauga, Kabupaten Buton, Sulawesi Tenggara 93752","Laompo, Batauga, Kabupaten Buton",SULAWESI TENGGARA,93752.0,Indonesia,,,,-5.5886719,122.5933047,https://maps.google.com/?cid=0x0:0x717e4860556ea017,
komplek housing,Komplek perumahan,Rumah Deni,"9JQ2+M44, Jl. Gajah Mada, Masiri, Batauga, Kabupaten Buton, Sulawesi Tenggara 93752","Jl. Gajah Mada, Masiri, Batauga, Kabupaten Buton",SULAWESI TENGGARA,93752.0,Indonesia,,,,-5.6107466,122.6003157,https://maps.google.com/?cid=0x0:0x7fae0ef54dac8b46,
komplek housing,Komplek perumahan,rumah fadli,"CH6V+77Q, Laompo, Batauga, Kabupaten Buton, Sulawesi Tenggara 93752","Laompo, Batauga, Kabupaten Buton",SULAWESI TENGGARA,93752.0,Indonesia,,,,-5.5888592,122.5944312,https://maps.google.com/?cid=0x0:0x4f620a261f3fb938,
komplek housing,komplek housing,Sulawesi Tenggara 93753,"Kabupaten Buton, Sulawesi Tenggara","Kabupaten Buton, Sulawesi Tenggara",SULAWESI TENGGARA,,Indonesia,,,,-5.5916275,122.7858791,https://maps.google.com/?cid=0x0:0x5d5b6b7c1f0a9413,
komplek housing,komplek housing,Rumah snjni,"8QR7+W9H, Gaya Baru, Kec. Lapandewa, Kabupaten Buton, Sulawesi Tenggara 93753","Gaya Baru, Kec. Lapandewa, Kabupaten Buton",SULAWESI TENGGARA,93753.0,Indonesia,,,,-5.657981,122.763923,https://maps.google.com/?cid=0x0:0x7758e17053bc3b1a,
komplek housing,komplek housing,house of memories,"CP39+3JW, Jl. Poros Batauga, Todombulu, Kec. Sampolawa, Kabupaten Buton, Sulawesi Tenggara 93753","Jl. Poros Batauga, Todombulu, Kec. Sampolawa, Kabupaten Buton",SULAWESI TENGGARA,93753.0,Indonesia,,,,-5.596887,122.719365,https://maps.google.com/?cid=0x0:0xe4b96749f52a4705,
komplek housing,Komplek perumahan,Batas dusun petarung,"8QFP+HG2, Rumbia, Kec. Lapandewa, Kabupaten Buton, Sulawesi Tenggara 93753","Rumbia, Kec. Lapandewa, Kabupaten Buton",SULAWESI TENGGARA,93753.0,Indonesia,,,,-5.6761077,122.7862724,https://maps.google.com/?cid=0x0:0x9237a10c05f5f88e,
komplek housing,Komplek perumahan,Katolemando,"FP4V+58V, RT.Katolemando/RW.Katolemando, Katolemando, Sandang Pangan, Kec. Sampolawa, Kabupaten Buton, Sulawesi Tenggara 93753","RT.Katolemando/RW.Katolemando, Katolemando, Sandang Pangan, Kec. Sampolawa, Kabupaten Buton",SULAWESI TENGGARA,93753.0,Indonesia,,,,-5.5445227,122.7433061,https://maps.google.com/?cid=0x0:0x28110841a5f89b91,
komplek housing,Komplek perumahan,Rumahnya Shinta Mawarni,"8QR7+W9H, Gaya Baru, Kec. Lapandewa, Kabupaten Buton, Sulawesi Tenggara 93753","Gaya Baru, Kec. Lapandewa, Kabupaten Buton",SULAWESI TENGGARA,93753.0,Indonesia,,,,-5.6576802,122.7634807,https://maps.google.com/?cid=0x0:0x6b8305605da79135,
komplek housing,Biro Jasa Penyewaan Kondominium,"Lepeka, Beloka","FP4V+49F, RT.Katolemando/RW.Katolemando, Katolemando, Sandang Pangan, Kec. Sampolawa, Kabupaten Buton, Sulawesi Tenggara 93753","RT.Katolemando/RW.Katolemando, Katolemando, Sandang Pangan, Kec. Sampolawa, Kabupaten Buton",SULAWESI TENGGARA,93753.0,Indonesia,,,,-5.5446803,122.7434214,https://maps.google.com/?cid=0x0:0x3607cfe2337aa6f1,
komplek housing,Perumahan rakyat,Rumah Rapu,"8QHQ+47W, Burangasi, Kec. Lapandewa, Kabupaten Buton, Sulawesi Tenggara 93753","Burangasi, Kec. Lapandewa, Kabupaten Buton",SULAWESI TENGGARA,93753.0,Indonesia,,,,-5.6721375,122.7882031,https://maps.google.com/?cid=0x0:0x90a2fc8359700491,
komplek housing,Komplek perumahan,Uli Yomita,"CQMF+VRW, Gn. Sejuk, Kec. Sampolawa, Kabupaten Buton, Sulawesi Tenggara 93753","Gn. Sejuk, Kec. Sampolawa, Kabupaten Buton",SULAWESI TENGGARA,93753.0,Indonesia,,,,-5.5652746,122.7745919,https://maps.google.com/?cid=0x0:0xa730c99fac0b5b91,
komplek housing,Komplek perumahan,Rumah Syinta,"CPFV+J79, Gn. Sejuk, Kec. Sampolawa, Kabupaten Buton, Sulawesi Tenggara 93753","Gn. Sejuk, Kec. Sampolawa, Kabupaten Buton",SULAWESI TENGGARA,93753.0,Indonesia,,,,-5.5759604,122.7432388,https://maps.google.com/?cid=0x0:0x8990fea4ac7828af,
komplek housing,Komplek perumahan,Rumah SSS,"8P97+MMG, Bahari, Kec. Sampolawa, Kabupaten Buton, Sulawesi Tenggara 93753","Bahari, Kec. Sampolawa, Kabupaten Buton",SULAWESI TENGGARA,93753.0,Indonesia,,,,-5.6808011,122.7141965,https://maps.google.com/?cid=0x0:0xb52c21a83ddb14dc,
komplek housing,Komplek perumahan,Rumah nhysma,"9P28+2C3, Tira, Kec. Sampolawa, Kabupaten Buton, Sulawesi Tenggara 93753","Tira, Kec. Sampolawa, Kabupaten Buton",SULAWESI TENGGARA,93753.0,Indonesia,,,,-5.6504977,122.7160134,https://maps.google.com/?cid=0x0:0x3da1d4f9c1fe2abe,
komplek housing,Kantor Pemerintah,Desa Burangasi Rumbia,"8QGP+4VJ, Burangasi, Kec. Lapandewa, Kabupaten Buton, Sulawesi Tenggara 93753","Burangasi, Kec. Lapandewa, Kabupaten Buton",SULAWESI TENGGARA,93753.0,Indonesia,,,,-5.6746882,122.7871432,https://maps.google.com/?cid=0x0:0x97301931af409aa3,
komplek housing,Komplek perumahan,RumahWaldanIzanNasya,"Jl. Korpri No.1, Jaya Bakti, Kec. Sampolawa, Kabupaten Buton, Sulawesi Tenggara 93753","Jaya Bakti, Kec. Sampolawa, Kabupaten Buton",SULAWESI TENGGARA,93753.0,Indonesia,,,,-5.6272943,122.7033186,https://maps.google.com/?cid=0x0:0xaea1ce4e0758acb8,
komplek housing,Komplek perumahan,Rumah Bapa Babo,"8QQ7+9R2, Gaya Baru, Kec. Lapandewa, Kabupaten Buton, Sulawesi Tenggara 93753","Gaya Baru, Kec. Lapandewa, Kabupaten Buton",SULAWESI TENGGARA,93753.0,Indonesia,,,,-5.6613924,122.7655981,https://maps.google.com/?cid=0x0:0xaf08210c67c087fd,
komplek housing,Komplek perumahan,Rumah Opsir,"CP9M+49J, Lipumangau, Kec. Sampolawa, Kabupaten Buton, Sulawesi Tenggara 93753","Lipumangau, Kec. Sampolawa, Kabupaten Buton",SULAWESI TENGGARA,93753.0,Indonesia,,,,-5.5826349,122.7350417,https://maps.google.com/?cid=0x0:0x3f195bcc2be4b791,
komplek housing,Komplek perumahan,Lrg. Kipi Tira Buton Selatan,"Lorong Kipi, Dusun Kancura, Tira, Kec. Sampolawa, Kabupaten Buton, Sulawesi Tenggara 93753","Dusun Kancura, Tira, Kec. Sampolawa, Kabupaten Buton",SULAWESI TENGGARA,93753.0,Indonesia,,,,-5.650133,122.7157035,https://maps.google.com/?cid=0x0:0xe7a4ed457ae3c6b3,
komplek housing,Komplek perumahan,Kampung KONDE,"9M9W+PHW, Makolona, Jaya Bakti, Kec. Sampolawa, Kabupaten Buton, Sulawesi Tenggara 93753","Makolona, Jaya Bakti, Kec. Sampolawa, Kabupaten Buton",SULAWESI TENGGARA,93753.0,Indonesia,,,,-5.6306369,122.6964384,https://maps.google.com/?cid=0x0:0x5ce639731b0aa3fe,
komplek housing,Pembangunan Perumahan,RUMAH TAMIN,"9PRW+WGX, Lapandewa Makmur, Kec. Lapandewa, Kabupaten Buton, Sulawesi Tenggara 93753","Lapandewa Makmur, Kec. Lapandewa, Kabupaten Buton",SULAWESI TENGGARA,93753.0,Indonesia,,,,-5.6076326,122.7463686,https://maps.google.com/?cid=0x0:0x33f30d56c3d2c628,
komplek housing,Komplek perumahan,Rumah Opik Raidar,"CP9M+49J, Lipumangau, Kec. Sampolawa, Kabupaten Buton, Sulawesi Tenggara 93753","Lipumangau, Kec. Sampolawa, Kabupaten Buton",SULAWESI TENGGARA,93753.0,Indonesia,,,,-5.5836687,122.7344874,https://maps.google.com/?cid=0x0:0x6578a56272ec642c,
komplek housing,Komplek perumahan,BATUATAS,"QPVC+QQ3, Batuatas Tim., Kec. Batu Atas, Kabupaten Buton, Sulawesi Tenggara","Kabupaten Buton, Sulawesi Tenggara",SULAWESI TENGGARA,,Indonesia,,,,-6.2056081,122.7219272,https://maps.google.com/?cid=0x0:0xc50035216a592597,
komplek housing,Komplek perumahan,Kampung baru,"QPV9+J4Q, Batuatas Tim., Kec. Batu Atas, Kabupaten Buton, Sulawesi Tenggara","Kabupaten Buton, Sulawesi Tenggara",SULAWESI TENGGARA,,Indonesia,,,,-6.2059028,122.7178609,https://maps.google.com/?cid=0x0:0xbd540c56a186186c,
komplek housing,komplek housing,KIOS AA NEDILA (MAMA ADE),"QPVC+R5C, Tolando Jaya, Kec. Batu Atas, Kabupaten Buton, Sulawesi Tenggara","Kabupaten Buton, Sulawesi Tenggara",SULAWESI TENGGARA,,Indonesia,82291742320.0,,,-6.2054348,122.7203774,https://maps.google.com/?cid=0x0:0x49e38e6b9dc617b1,
komplek housing,komplek housing,Kec. Batu Atas,"Kabupaten Buton, Sulawesi Tenggara","Kabupaten Buton, Sulawesi Tenggara",SULAWESI TENGGARA,,Indonesia,,,,-6.206587,122.718311,https://maps.google.com/?cid=0x0:0x4823161ea155a8e3,
komplek housing,komplek housing,Kec. Kadatua,"Kabupaten Buton, Sulawesi Tenggara","Kabupaten Buton, Sulawesi Tenggara",SULAWESI TENGGARA,,Indonesia,,,,-5.5330522,122.4744908,https://maps.google.com/?cid=0x0:0xa7c55634cc618f76,
komplek housing,Dapur Umum,Kompleks khavkap,"FGWC+C6R, Banabungi, Kec. Kadatua, Kabupaten Buton, Sulawesi Tenggara","Kabupaten Buton, Sulawesi Tenggara",SULAWESI TENGGARA,,Indonesia,,,,-5.503868,122.5197284,https://maps.google.com/?cid=0x0:0xb81ffc31db378bfc,
komplek housing,Komplek perumahan,Kampung kadatua,"FGM3+VV9, Banabungi Sel., Kec. Kadatua, Kabupaten Buton, Sulawesi Tenggara","Kabupaten Buton, Sulawesi Tenggara",SULAWESI TENGGARA,,Indonesia,,,,-5.5153302,122.5047416,https://maps.google.com/?cid=0x0:0x46fe27f4dc02a63d,
komplek housing,Kantor Pemerintah Distrik,Kecamatan kadatua,"FF7J+JMH, Marawali, Kec. Kadatua, Kabupaten Buton, Sulawesi Tenggara","Kabupaten Buton, Sulawesi Tenggara",SULAWESI TENGGARA,,Indonesia,,,,-5.535935,122.4817451,https://maps.google.com/?cid=0x0:0xfeff47cdff32cc8b,
komplek housing,Komplek perumahan,Rumah Uma,"CFVM+X2P, Kapoa, Kec. Kadatua, Kabupaten Buton, Sulawesi Tenggara","Kabupaten Buton, Sulawesi Tenggara",SULAWESI TENGGARA,,Indonesia,,,,-5.5550137,122.482433,https://maps.google.com/?cid=0x0:0xfc9c45149d9c4d72,
komplek housing,Kantor Perusahaan,DESA MAWABUNGA,"CFXH+3XR, Kapoa, Kec. Kadatua, Kabupaten Buton, Sulawesi Tenggara","Kabupaten Buton, Sulawesi Tenggara",SULAWESI TENGGARA,,Indonesia,,,,-5.5522523,122.4798785,https://maps.google.com/?cid=0x0:0x2139d8cb1c8e90b6,
komplek housing,Komplek perumahan,Haikal,"CGR4+XGP, Kapoa, Kec. Kadatua, Kabupaten Buton, Sulawesi Tenggara","Kabupaten Buton, Sulawesi Tenggara",SULAWESI TENGGARA,,Indonesia,,,,-5.5577267,122.5062533,https://maps.google.com/?cid=0x0:0xea875f59cd467ab,
komplek housing,Komplek perumahan,Komplek tekan satu,"FGWC+VQW, Banabungi, Selatan, Kabupaten Buton, Sulawesi Tenggara","Kabupaten Buton, Sulawesi Tenggara",SULAWESI TENGGARA,,Indonesia,,,,-5.5028125,122.5219104,https://maps.google.com/?cid=0x0:0x38f0ab828def1755,
komplek housing,Komplek perumahan,Kompleks kelapa 1,"FGXF+42C, Banabungi, Kec. Kadatua, Kabupaten Buton, Sulawesi Tenggara","Kabupaten Buton, Sulawesi Tenggara",SULAWESI TENGGARA,,Indonesia,,,,-5.5021871,122.5225035,https://maps.google.com/?cid=0x0:0x2ce2ffdfb8365e74,
komplek housing,Komplek perumahan,Rumah Putra-Nisa,"CFXH+3XR, Mawambunga, Kec. Kadatua, Kabupaten Buton, Sulawesi Tenggara","Kabupaten Buton, Sulawesi Tenggara",SULAWESI TENGGARA,,Indonesia,,,,-5.552304,122.4797705,https://maps.google.com/?cid=0x0:0xf3e776b15a75f9f,
komplek housing,Komplek perumahan,Rumah kiki,"CGP3+XMH, Uwemaasi, Kec. Kadatua, Kabupaten Buton, Sulawesi Tenggara","Kabupaten Buton, Sulawesi Tenggara",SULAWESI TENGGARA,,Indonesia,,,,-5.5621676,122.504412,https://maps.google.com/?cid=0x0:0x401dc1c21f933ac7,
komplek housing,Komplek perumahan,Ponia home,"FGWC+VRR, Banabungi, Kec. Kadatua, Kabupaten Buton, Sulawesi Tenggara","Kabupaten Buton, Sulawesi Tenggara",SULAWESI TENGGARA,,Indonesia,,,,-5.5027497,122.521502,https://maps.google.com/?cid=0x0:0x2c5b2453f56a2ee4,
komplek housing,Perhimpunan Pengembang Perumahan,Rumah Avatar,"CGP3+X9C, Uwemaasi, Kec. Kadatua, Kabupaten Buton, Sulawesi Tenggara","Kabupaten Buton, Sulawesi Tenggara",SULAWESI TENGGARA,,Indonesia,,,,-5.5625505,122.5033998,https://maps.google.com/?cid=0x0:0x27c2524c3e0bad6e,
komplek housing,Komplek perumahan,Rumah keramat arsi rido,"FGV7+86V, Banabungi, Kec. Kadatua, Kabupaten Buton, Sulawesi Tenggara 93752","Banabungi, Kec. Kadatua, Kabupaten Buton",SULAWESI TENGGARA,93752.0,Indonesia,,,,-5.5075942,122.5128684,https://maps.google.com/?cid=0x0:0xc76978eb3975a453,
komplek housing,Komplek perumahan,Kantor,"FF7F+85H, Waonu, Kec. Kadatua, Kabupaten Buton, Sulawesi Tenggara 93752","Waonu, Kec. Kadatua, Kabupaten Buton",SULAWESI TENGGARA,93752.0,Indonesia,,,,-5.5360263,122.4730777,https://maps.google.com/?cid=0x0:0x2bdce1938783002b,
komplek housing,komplek housing,Pasir putih,"FF8F+QR7, Marawali, Kec. Kadatua, Kabupaten Buton, Sulawesi Tenggara","Kabupaten Buton, Sulawesi Tenggara",SULAWESI TENGGARA,,Indonesia,,,,-5.533095,122.4745586,https://maps.google.com/?cid=0x0:0xb465a8990319928e,
komplek housing,komplek housing,Lapandewa,"Kec. Lapandewa, Kabupaten Buton, Sulawesi Tenggara","Kabupaten Buton, Sulawesi Tenggara",SULAWESI TENGGARA,,Indonesia,,,,-5.5950795,122.8028074,https://maps.google.com/?cid=0x0:0x6ff5a1676f28f9a7,
komplek housing,Kantor Perusahaan,KAMPOENG LAMA AWAINOELOE,"CRMC+JM, Wabula, Kec. Wabula, Kabupaten Buton, Sulawesi Tenggara","Kabupaten Buton, Sulawesi Tenggara",SULAWESI TENGGARA,,Indonesia,,,,-5.5659463,122.8217099,https://maps.google.com/?cid=0x0:0xd985077df1e056ca,
komplek housing,Pembangunan Perumahan,Bantea,"CQ2M+XR, Lapandewa Kaindea, Kec. Lapandewa, Kabupaten Buton, Sulawesi Tenggara","Kabupaten Buton, Sulawesi Tenggara",SULAWESI TENGGARA,,Indonesia,,,,-5.5975581,122.784563,https://maps.google.com/?cid=0x0:0xe67cb758e80eb69d,
komplek housing,Komplek perumahan,Uli Yomita,"CQMF+VRW, Gn. Sejuk, Kec. Sampolawa, Kabupaten Buton, Sulawesi Tenggara 93753","Gn. Sejuk, Kec. Sampolawa, Kabupaten Buton",SULAWESI TENGGARA,93753.0,Indonesia,,,,-5.5652746,122.7745919,https://maps.google.com/?cid=0x0:0xa730c99fac0b5b91,
komplek housing,Pembangunan Perumahan,Kios bayu,"Gaya Baru, Kec. Lapandewa, Jaya, Sulawesi Tenggara 93753","Kec. Lapandewa, Jaya",SULAWESI TENGGARA,93753.0,Indonesia,85145660981.0,,,-5.6441551,122.785993,https://maps.google.com/?cid=0x0:0x704bf6ebf33fcff1,
komplek housing,Pembangunan Perumahan,Cempaka,"CQMF+VRW, Gn. Sejuk, Kec. Sampolawa, Kabupaten Buton, Sulawesi Tenggara 93753","Gn. Sejuk, Kec. Sampolawa, Kabupaten Buton",SULAWESI TENGGARA,93753.0,Indonesia,,,,-5.5652746,122.7745919,https://maps.google.com/?cid=0x0:0x552594f590a1c2bb,
komplek housing,komplek housing,Sulawesi,,,SULAWESI TENGGARA,,Indonesia,,,,-1.8479,120.5279,https://maps.google.com/?cid=0x0:0xbc9a51d168f47742,
komplek housing,Kompleks Kondominium,Di lapandewa kaindea,"9Q5J+9WM, Gerak Makmur, Kec. Sampolawa, Kabupaten Buton, Sulawesi Tenggara 93753","Gerak Makmur, Kec. Sampolawa, Kabupaten Buton",SULAWESI TENGGARA,93753.0,Indonesia,,,,-5.6420871,122.7824345,https://maps.google.com/?cid=0x0:0x6b75ae04dc0fa113,
komplek housing,Komplek perumahan,Lapandewa,"9Q4M+MJQ, Gaya Baru, Kec. Lapandewa, Kabupaten Buton, Sulawesi Tenggara 93753","Gaya Baru, Kec. Lapandewa, Kabupaten Buton",SULAWESI TENGGARA,93753.0,Indonesia,,,,-5.6432958,122.7841151,https://maps.google.com/?cid=0x0:0x353adbd478bb5caf,
komplek housing,Pembangunan Perumahan,RUMAH TAMIN,"9PRW+WGX, Lapandewa Makmur, Kec. Lapandewa, Kabupaten Buton, Sulawesi Tenggara 93753","Lapandewa Makmur, Kec. Lapandewa, Kabupaten Buton",SULAWESI TENGGARA,93753.0,Indonesia,,,,-5.6076326,122.7463686,https://maps.google.com/?cid=0x0:0x33f30d56c3d2c628,
komplek housing,Perumahan rakyat,Rumah Rapu,"8QHQ+47W, Burangasi, Kec. Lapandewa, Kabupaten Buton, Sulawesi Tenggara 93753","Burangasi, Kec. Lapandewa, Kabupaten Buton",SULAWESI TENGGARA,93753.0,Indonesia,,,,-5.6721375,122.7882031,https://maps.google.com/?cid=0x0:0x90a2fc8359700491,
komplek housing,komplek housing,Rumah snjni,"8QR7+W9H, Gaya Baru, Kec. Lapandewa, Kabupaten Buton, Sulawesi Tenggara 93753","Gaya Baru, Kec. Lapandewa, Kabupaten Buton",SULAWESI TENGGARA,93753.0,Indonesia,,,,-5.657981,122.763923,https://maps.google.com/?cid=0x0:0x7758e17053bc3b1a,
komplek housing,Komplek perumahan,Batas dusun petarung,"8QFP+HG2, Rumbia, Kec. Lapandewa, Kabupaten Buton, Sulawesi Tenggara 93753","Rumbia, Kec. Lapandewa, Kabupaten Buton",SULAWESI TENGGARA,93753.0,Indonesia,,,,-5.6761077,122.7862724,https://maps.google.com/?cid=0x0:0x9237a10c05f5f88e,
komplek housing,Komplek perumahan,Rumahnya Shinta Mawarni,"8QR7+W9H, Gaya Baru, Kec. Lapandewa, Kabupaten Buton, Sulawesi Tenggara 93753","Gaya Baru, Kec. Lapandewa, Kabupaten Buton",SULAWESI TENGGARA,93753.0,Indonesia,,,,-5.6576802,122.7634807,https://maps.google.com/?cid=0x0:0x6b8305605da79135,
komplek housing,Komplek perumahan,Rumah Bapa Babo,"8QQ7+9R2, Gaya Baru, Kec. Lapandewa, Kabupaten Buton, Sulawesi Tenggara 93753","Gaya Baru, Kec. Lapandewa, Kabupaten Buton",SULAWESI TENGGARA,93753.0,Indonesia,,,,-5.6613924,122.7655981,https://maps.google.com/?cid=0x0:0xaf08210c67c087fd,
komplek housing,Kantor Pemerintah,Desa Burangasi Rumbia,"8QGP+4VJ, Burangasi, Kec. Lapandewa, Kabupaten Buton, Sulawesi Tenggara 93753","Burangasi, Kec. Lapandewa, Kabupaten Buton",SULAWESI TENGGARA,93753.0,Indonesia,,,,-5.6746882,122.7871432,https://maps.google.com/?cid=0x0:0x97301931af409aa3,
komplek housing,Komplek perumahan,Kios irsan aurora,"8QMR+HHX, Burangasi, Kec. Lapandewa, Kabupaten Buton, Sulawesi Tenggara 93753","Burangasi, Kec. Lapandewa, Kabupaten Buton",SULAWESI TENGGARA,93753.0,Indonesia,,,,-5.6660004,122.7914786,https://maps.google.com/?cid=0x0:0x25bc92fa8ebea935,
komplek housing,Komplek perumahan,Rumah Bapa Yuni,"8QR8+23M, Gaya Baru, Kec. Lapandewa, Kabupaten Buton, Sulawesi Tenggara 93753","Gaya Baru, Kec. Lapandewa, Kabupaten Buton",SULAWESI TENGGARA,93753.0,Indonesia,,,,-5.6599067,122.7651569,https://maps.google.com/?cid=0x0:0x391f1ee5d5662c51,
komplek housing,komplek housing,Sulawesi Tenggara 93753,"Kabupaten Buton, Sulawesi Tenggara","Kabupaten Buton, Sulawesi Tenggara",SULAWESI TENGGARA,,Indonesia,,,,-5.5916275,122.7858791,https://maps.google.com/?cid=0x0:0x5d5b6b7c1f0a9413,
komplek housing,Komplek perumahan,Rumah Dhea,"CP9M+2PG, Gunung Sejuk, Kec. Sampolawa, Kabupaten Buton, Sulawesi Tenggara","Kabupaten Buton, Sulawesi Tenggara",SULAWESI TENGGARA,,Indonesia,,,,-5.5824378,122.7343351,https://maps.google.com/?cid=0x0:0x154cb703e5ba3fb2,
komplek housing,Komplek perumahan,Rumah fily,"CPGV+29F, Gn. Sejuk, Kec. Sampolawa, Kabupaten Buton, Sulawesi Tenggara 93753","Gn. Sejuk, Kec. Sampolawa, Kabupaten Buton",SULAWESI TENGGARA,93753.0,Indonesia,,,,-5.5749473,122.7434306,https://maps.google.com/?cid=0x0:0xdcb76bca36ee4c5e,
komplek housing,Komplek perumahan,Rumah ningsi,"8PX8+F3J, Tira, Kec. Sampolawa, Kabupaten Buton, Sulawesi Tenggara","Kabupaten Buton, Sulawesi Tenggara",SULAWESI TENGGARA,,Indonesia,,,,-5.6512837,122.7151277,https://maps.google.com/?cid=0x0:0x2c82662f80453695,
komplek housing,Pembangunan Perumahan,My home,"FP8W+F2W, Sandang Pangan, Kec. Sampolawa, Kabupaten Buton, Sulawesi Tenggara","Kabupaten Buton, Sulawesi Tenggara",SULAWESI TENGGARA,,Indonesia,,,,-5.5337511,122.7450802,https://maps.google.com/?cid=0x0:0x273f2b7a22d0e12c,
komplek housing,Komplek perumahan,RumahWaldanIzanNasya,"Jl. Korpri No.1, Jaya Bakti, Kec. Sampolawa, Kabupaten Buton, Sulawesi Tenggara 93753","Jaya Bakti, Kec. Sampolawa, Kabupaten Buton",SULAWESI TENGGARA,93753.0,Indonesia,,,,-5.6272943,122.7033186,https://maps.google.com/?cid=0x0:0xaea1ce4e0758acb8,
komplek housing,komplek housing,LUTFIAH,"9P92+GFW, lingkungan makolona, Jaya Bakti, Kec. Sampolawa, Kabupaten Buton, Sulawesi Tenggara","Kabupaten Buton, Sulawesi Tenggara",SULAWESI TENGGARA,,Indonesia,,,,-5.6311317,122.7011931,https://maps.google.com/?cid=0x0:0x8d0c9ff4c89f47d2,
komplek housing,Pembangunan Perumahan,Wawulaka,"9M4V+FH7, Katilombu, Kec. Sampolawa, Kabupaten Buton, Sulawesi Tenggara","Kabupaten Buton, Sulawesi Tenggara",SULAWESI TENGGARA,,Indonesia,,,,-5.6438474,122.6939324,https://maps.google.com/?cid=0x0:0x60ec0998f2329d08,
komplek housing,Komplek perumahan,Kampung KONDE,"9M9W+PHW, Makolona, Jaya Bakti, Kec. Sampolawa, Kabupaten Buton, Sulawesi Tenggara 93753","Makolona, Jaya Bakti, Kec. Sampolawa, Kabupaten Buton",SULAWESI TENGGARA,93753.0,Indonesia,,,,-5.6306369,122.6964384,https://maps.google.com/?cid=0x0:0x5ce639731b0aa3fe,
komplek housing,Komplek perumahan,Lrg. Kipi Tira Buton Selatan,"Lorong Kipi, Dusun Kancura, Tira, Kec. Sampolawa, Kabupaten Buton, Sulawesi Tenggara 93753","Dusun Kancura, Tira, Kec. Sampolawa, Kabupaten Buton",SULAWESI TENGGARA,93753.0,Indonesia,,,,-5.650133,122.7157035,https://maps.google.com/?cid=0x0:0xe7a4ed457ae3c6b3,
komplek housing,komplek housing,Rumah snjni,"8QR7+W9H, Gaya Baru, Kec. Lapandewa, Kabupaten Buton, Sulawesi Tenggara 93753","Gaya Baru, Kec. Lapandewa, Kabupaten Buton",SULAWESI TENGGARA,93753.0,Indonesia,,,,-5.657981,122.763923,https://maps.google.com/?cid=0x0:0x7758e17053bc3b1a,
komplek housing,komplek housing,Zahra,"9P92+H93, Jaya Bakti, Kec. Sampolawa, Kabupaten Buton, Sulawesi Tenggara","Kabupaten Buton, Sulawesi Tenggara",SULAWESI TENGGARA,,Indonesia,,,,-5.6311034,122.7008606,https://maps.google.com/?cid=0x0:0x72af2e20b2e429dd,
komplek housing,Komplek perumahan,Kompleks perumahan Da,"GQGX+GQ, Warinta, Kec. Ps. Wajo, Kabupaten Buton, Sulawesi Tenggara","Kabupaten Buton, Sulawesi Tenggara",SULAWESI TENGGARA,,Indonesia,,,,-5.473626,122.799397,https://maps.google.com/?cid=0x0:0xb50303c5e1febad1,
komplek housing,Komplek perumahan,Uli Yomita,"CQMF+VRW, Gn. Sejuk, Kec. Sampolawa, Kabupaten Buton, Sulawesi Tenggara 93753","Gn. Sejuk, Kec. Sampolawa, Kabupaten Buton",SULAWESI TENGGARA,93753.0,Indonesia,,,,-5.5652746,122.7745919,https://maps.google.com/?cid=0x0:0xa730c99fac0b5b91,
komplek housing,Komplek perumahan,Rumah SSS,"8P97+MMG, Bahari, Kec. Sampolawa, Kabupaten Buton, Sulawesi Tenggara 93753","Bahari, Kec. Sampolawa, Kabupaten Buton",SULAWESI TENGGARA,93753.0,Indonesia,,,,-5.6808011,122.7141965,https://maps.google.com/?cid=0x0:0xb52c21a83ddb14dc,
komplek housing,Komplek perumahan,Kampung Lawara,"9M4V+WGG, Katilombu, Kec. Sampolawa, Kabupaten Buton, Sulawesi Tenggara","Kabupaten Buton, Sulawesi Tenggara",SULAWESI TENGGARA,,Indonesia,,,,-5.6426979,122.6938354,https://maps.google.com/?cid=0x0:0xb09595ba3ce31c6b,
komplek housing,Komplek perumahan,Rumah Nadiamu,"CP9Q+MCQ, Gn. Sejuk, Kec. Sampolawa, Kabupaten Buton, Sulawesi Tenggara 93753","Gn. Sejuk, Kec. Sampolawa, Kabupaten Buton",SULAWESI TENGGARA,93753.0,Indonesia,,,,-5.5806811,122.7386357,https://maps.google.com/?cid=0x0:0xe37abc8a74b3f9d7,
komplek housing,Komplek perumahan,Rumah Syinta,"CPFV+J79, Gn. Sejuk, Kec. Sampolawa, Kabupaten Buton, Sulawesi Tenggara 93753","Gn. Sejuk, Kec. Sampolawa, Kabupaten Buton",SULAWESI TENGGARA,93753.0,Indonesia,,,,-5.5759604,122.7432388,https://maps.google.com/?cid=0x0:0x8990fea4ac7828af,
komplek housing,Perhimpunan Pengembang Perumahan,Pos gosip,"9M4V+FH7, Katilombu, Kec. Sampolawa, Kabupaten Buton, Sulawesi Tenggara","Kabupaten Buton, Sulawesi Tenggara",SULAWESI TENGGARA,,Indonesia,,,,-5.6436154,122.6945404,https://maps.google.com/?cid=0x0:0xcd6cac59c465a903,
komplek housing,Komplek perumahan,Kaulele Atas,"9M7W+XRP, Jaya Bakti, Kec. Sampolawa, Kabupaten Buton, Sulawesi Tenggara","Kabupaten Buton, Sulawesi Tenggara",SULAWESI TENGGARA,,Indonesia,,,,-5.6350432,122.6970898,https://maps.google.com/?cid=0x0:0x63dd473ac4b7c61d,
komplek housing,komplek housing,Kec. Sampolawa,"Kabupaten Buton Selatan, Sulawesi Tenggara","Kabupaten Buton Selatan, Sulawesi Tenggara",SULAWESI TENGGARA,,Indonesia,,,,-5.5337893,122.7451565,https://maps.google.com/?cid=0x0:0x282cc982b00f3761,
komplek housing,Komplek perumahan,Rumah nhysma,"9P28+2C3, Tira, Kec. Sampolawa, Kabupaten Buton, Sulawesi Tenggara 93753","Tira, Kec. Sampolawa, Kabupaten Buton",SULAWESI TENGGARA,93753.0,Indonesia,,,,-5.6504977,122.7160134,https://maps.google.com/?cid=0x0:0x3da1d4f9c1fe2abe,
komplek housing,Komplek perumahan,RUMAH FIR,"CPCR+46X, Lipumangau, Kec. Sampolawa, Kabupaten Buton, Sulawesi Tenggara 93753","Lipumangau, Kec. Sampolawa, Kabupaten Buton",SULAWESI TENGGARA,93753.0,Indonesia,,,,-5.5801632,122.7402137,https://maps.google.com/?cid=0x0:0x15f6bb97ffeac578,
komplek housing,Warnet,Rumah Tio,"Jl. Korpri No.1, Jaya Bakti, Kec. Sampolawa, Kabupaten Buton, Sulawesi Tenggara 93753","Jaya Bakti, Kec. Sampolawa, Kabupaten Buton",SULAWESI TENGGARA,93753.0,Indonesia,,,,-5.6266627,122.7034383,https://maps.google.com/?cid=0x0:0x2a682c5c68f4c7e3,
komplek housing,Pembangunan Perumahan,Cempaka,"CQMF+VRW, Gn. Sejuk, Kec. Sampolawa, Kabupaten Buton, Sulawesi Tenggara 93753","Gn. Sejuk, Kec. Sampolawa, Kabupaten Buton",SULAWESI TENGGARA,93753.0,Indonesia,,,,-5.5652746,122.7745919,https://maps.google.com/?cid=0x0:0x552594f590a1c2bb,
komplek housing,Komplek perumahan,rumah auraa,"Jl. Korpri No.1, Jaya Bakti, Kec. Sampolawa, Kabupaten Buton, Sulawesi Tenggara 93753","Jaya Bakti, Kec. Sampolawa, Kabupaten Buton",SULAWESI TENGGARA,93753.0,Indonesia,,,,-5.6261045,122.7034765,https://maps.google.com/?cid=0x0:0xd59f8448859df9ac,
komplek housing,Perumahan rakyat,Rumah Ulfa,"CP5J+9FQ, Todombulu, Kec. Sampolawa, Kabupaten Buton, Sulawesi Tenggara 93753","Todombulu, Kec. Sampolawa, Kabupaten Buton",SULAWESI TENGGARA,93753.0,Indonesia,,,,-5.5915444,122.7312197,https://maps.google.com/?cid=0x0:0x5e58a5ea6fe45cee,
komplek housing,Balai Pertemuan Desa,Desa Tira,"9P28+PM9, Tira, Kec. Sampolawa, Kabupaten Buton, Sulawesi Tenggara 93753","Tira, Kec. Sampolawa, Kabupaten Buton",SULAWESI TENGGARA,93753.0,Indonesia,,,,-5.6482081,122.7167303,https://maps.google.com/?cid=0x0:0x97976a16c4e9a736,
komplek housing,Komplek perumahan,Arul,"CP2C+V5W, Todombulu, Kec. Sampolawa, Kabupaten Buton, Sulawesi Tenggara 93753","Todombulu, Kec. Sampolawa, Kabupaten Buton",SULAWESI TENGGARA,93753.0,Indonesia,,,,-5.5986808,122.7193908,https://maps.google.com/?cid=0x0:0xdb6a433a1a59979f,
komplek housing,komplek housing,Kec. Siompu,"Kabupaten Buton, Sulawesi Tenggara","Kabupaten Buton, Sulawesi Tenggara",SULAWESI TENGGARA,,Indonesia,,,,-5.6304618,122.5254693,https://maps.google.com/?cid=0x0:0x2718691e607a701,
komplek housing,Komplek perumahan,Dedi'S Home,"8GH5+VCQ, Biwinapada, Kec. Siompu, Kabupaten Buton, Sulawesi Tenggara 93752","Biwinapada, Kec. Siompu, Kabupaten Buton",SULAWESI TENGGARA,93752.0,Indonesia,,,,-5.6702829,122.5085999,https://maps.google.com/?cid=0x0:0xd0605665f7cf7245,
komplek housing,Komplek perumahan,FAMILY Dhudin,"8HW4+254, Lontoi, Kec. Siompu, Kabupaten Buton, Sulawesi Tenggara 93752","Lontoi, Kec. Siompu, Kabupaten Buton",SULAWESI TENGGARA,93752.0,Indonesia,,,,-5.6549632,122.5554108,https://maps.google.com/?cid=0x0:0xaad539781de752f3,
komplek housing,Perumahan,Rumah Dix,"9GCV+4QQ, Karae, Kec. Siompu, Kabupaten Buton, Sulawesi Tenggara 93752","Karae, Kec. Siompu, Kabupaten Buton",SULAWESI TENGGARA,93752.0,Indonesia,,,,-5.6296669,122.5444915,https://maps.google.com/?cid=0x0:0x162ee65640ec3807,
komplek housing,Komplek perumahan,Agus House,"8GVV+95V, Dusun Kalukua, Lontoi, Kec. Siompu, Kabupaten Buton, Sulawesi Tenggara 93752","Dusun Kalukua, Lontoi, Kec. Siompu, Kabupaten Buton",SULAWESI TENGGARA,93752.0,Indonesia,,,,-5.6565221,122.5429309,https://maps.google.com/?cid=0x0:0xb228eaafdb3412e9,
komplek housing,Pembangunan Perumahan,Muchin home,"8GX8+M7M, Dusun Ayi, Batuawu, Kec. Siompu, Kabupaten Buton, Sulawesi Tenggara","Kabupaten Buton, Sulawesi Tenggara",SULAWESI TENGGARA,,Indonesia,,,,-5.6507792,122.5156615,https://maps.google.com/?cid=0x0:0x8225de7b485a15c,
komplek housing,Komplek perumahan,Rumah Hasim,"8GG4+M3J, Lalole, Kec. Siompu Bar., Kabupaten Buton, Sulawesi Tenggara 93752","Lalole, Kec. Siompu Bar., Kabupaten Buton",SULAWESI TENGGARA,93752.0,Indonesia,,,,-5.6732852,122.5052403,https://maps.google.com/?cid=0x0:0x83ac6ab6b3addaf7,
komplek housing,Komplek perumahan,Kompleks simpang empat,"8FFF+4C9, Watuampara, Kec. Siompu Bar., Kabupaten Buton, Sulawesi Tenggara 93752","Watuampara, Kec. Siompu Bar., Kabupaten Buton",SULAWESI TENGGARA,93752.0,Indonesia,,,,-5.6772385,122.4736345,https://maps.google.com/?cid=0x0:0x1445f50fd36aafd8,
komplek housing,Pembangunan Perumahan,Rumah pusu / tempat pusu,"8GH3+6X6, Biwinapada, Kec. Siompu, Kabupaten Buton, Sulawesi Tenggara","Kabupaten Buton, Sulawesi Tenggara",SULAWESI TENGGARA,,Indonesia,,,,-5.671964,122.5048969,https://maps.google.com/?cid=0x0:0x8495e7c51f679513,
komplek housing,Komplek perumahan,Rumah uceni,"9G29+W9W, Batuawu, Kec. Siompu, Kabupaten Buton, Sulawesi Tenggara 93752","Batuawu, Kec. Siompu, Kabupaten Buton",SULAWESI TENGGARA,93752.0,Indonesia,,,,-5.6485688,122.5185372,https://maps.google.com/?cid=0x0:0xc93bc4444db3be0,
komplek housing,Komplek perumahan,Haris,"8HQ3+3Q6, Kaimbulawa, Kec. Siompu, Kabupaten Buton, Sulawesi Tenggara 93752","Kaimbulawa, Kec. Siompu, Kabupaten Buton",SULAWESI TENGGARA,93752.0,Indonesia,,,,-5.6622616,122.5549837,https://maps.google.com/?cid=0x0:0xa31cc1d97f995d7e,
komplek housing,Pembangunan Perumahan,Lukman,"8GM6+VJ6, Biwinapada, Kec. Siompu, Kabupaten Buton, Sulawesi Tenggara 93752","Biwinapada, Kec. Siompu, Kabupaten Buton",SULAWESI TENGGARA,93752.0,Indonesia,,,,-5.6653381,122.5115091,https://maps.google.com/?cid=0x0:0x881000c5ee454af9,
komplek housing,Komplek perumahan,Rmh jumrin,"8HM3+XPQ, Lontoi, Kec. Siompu, Kabupaten Buton, Sulawesi Tenggara","Kabupaten Buton, Sulawesi Tenggara",SULAWESI TENGGARA,,Indonesia,,,,-5.6650401,122.5543701,https://maps.google.com/?cid=0x0:0x2d7c6f31d08b69f4,
komplek housing,Komplek perumahan,Kompleks Kabulalu,"8G8R+CWM, Kaimbulawa, Kec. Siompu, Kabupaten Buton, Sulawesi Tenggara","Kabupaten Buton, Sulawesi Tenggara",SULAWESI TENGGARA,,Indonesia,,,,-5.6839074,122.5422921,https://maps.google.com/?cid=0x0:0x37ca177e72004c9d,
komplek housing,Perumahan,H. LA SAMSU HOUSE,"8GW7+94R, Wakinamboro, Kec. Siompu, Kabupaten Buton, Sulawesi Tenggara 93752","Wakinamboro, Kec. Siompu, Kabupaten Buton",SULAWESI TENGGARA,93752.0,Indonesia,,,,-5.6530911,122.5126899,https://maps.google.com/?cid=0x0:0x7fc4d61f6e8d9ee7,
komplek housing,komplek housing,Pondok Mama tua,"8FGH+M3J Bar, Watuampara, Kec. Siompu Bar., Kabupaten Buton, Sulawesi Tenggara 93752","Watuampara, Kec. Siompu Bar., Kabupaten Buton",SULAWESI TENGGARA,93752.0,Indonesia,,,,-5.6739702,122.4767561,https://maps.google.com/?cid=0x0:0x62aec211d644d952,
komplek housing,komplek housing,Rumah Iniga,"8FCC+4RP, Jl. Kabawo, Watuampara, Kec. Siompu Bar., Kabupaten Buton, Sulawesi Tenggara 93752","Jl. Kabawo, Watuampara, Kec. Siompu Bar., Kabupaten Buton",SULAWESI TENGGARA,93752.0,Indonesia,,,,-5.6788078,122.4719724,https://maps.google.com/?cid=0x0:0x24b174bb4a9300dd,
komplek housing,Komplek perumahan,Komplex ayu,"9G27+47J, Batuawu, Kec. Siompu, Kabupaten Buton, Sulawesi Tenggara","Kabupaten Buton, Sulawesi Tenggara",SULAWESI TENGGARA,,Indonesia,,,,-5.6494947,122.513906,https://maps.google.com/?cid=0x0:0xc56e75d606c9c477,
komplek housing,Komplek perumahan,Nazma House,"9GCG+96X, Tongali, Kec. Siompu, Kabupaten Buton, Sulawesi Tenggara 93752","Tongali, Kec. Siompu, Kabupaten Buton",SULAWESI TENGGARA,93752.0,Indonesia,,,,-5.6290598,122.5256333,https://maps.google.com/?cid=0x0:0x89d1b8c3ae725e29,
komplek housing,Komplek perumahan,Home stay ARMUTZAH SUHAYLA,"8GJ5+2QQ, Biwinapada, Kec. Siompu, Kabupaten Buton, Sulawesi Tenggara 93752","Biwinapada, Kec. Siompu, Kabupaten Buton",SULAWESI TENGGARA,93752.0,Indonesia,,,,-5.6700113,122.509309,https://maps.google.com/?cid=0x0:0xd5e55dbfa3fb395f,
komplek housing,komplek housing,Rumah Raisya Saqina,"8G9G+6R5, waindawula, Kec. Siompu, Kabupaten Buton, Sulawesi Tenggara 93752","waindawula, Kec. Siompu, Kabupaten Buton",SULAWESI TENGGARA,93752.0,Indonesia,,,,-5.6852033,122.536682,https://maps.google.com/?cid=0x0:0x35d92987ed1a3f2d,
komplek housing,Komplek perumahan,Rumah Agung Sio khalik,"8GM7+R3V, Biwinapada, Kec. Siompu, Kabupaten Buton, Sulawesi Tenggara 93752","Biwinapada, Kec. Siompu, Kabupaten Buton",SULAWESI TENGGARA,93752.0,Indonesia,,,,-5.6652253,122.5118735,https://maps.google.com/?cid=0x0:0x18487f27aca49922,
komplek housing,Komplek perumahan,Rumah loko,"9GCV+7Q3, Karae, Kec. Siompu, Kabupaten Buton, Sulawesi Tenggara 93752","Karae, Kec. Siompu, Kabupaten Buton",SULAWESI TENGGARA,93752.0,Indonesia,,,,-5.6292613,122.5442156,https://maps.google.com/?cid=0x0:0x2871ad64365b1eb6,
komplek housing,Komplek perumahan,DHARE,"8F99+5RR, Lalole, Kec. Siompu Bar., Kabupaten Buton, Sulawesi Tenggara 93752","Lalole, Kec. Siompu Bar., Kabupaten Buton",SULAWESI TENGGARA,93752.0,Indonesia,,,,-5.6810817,122.469265,https://maps.google.com/?cid=0x0:0x858e0ea336c83dbb,
komplek housing,Komplek perumahan,R. UNGKAS,"8GJ6+454, Biwinapada, Kec. Siompu, Kabupaten Buton, Sulawesi Tenggara 93752","Biwinapada, Kec. Siompu, Kabupaten Buton",SULAWESI TENGGARA,93752.0,Indonesia,,,,-5.6701594,122.5102599,https://maps.google.com/?cid=0x0:0x389aea53901e1892,
komplek housing,Pembangunan Perumahan,Waleno guru Dhogu/Sjamsuddin Tatro,"8GJ6+9WJ, Biwinapada, Kec. Siompu, Kabupaten Buton, Sulawesi Tenggara 93752","Biwinapada, Kec. Siompu, Kabupaten Buton",SULAWESI TENGGARA,93752.0,Indonesia,,,,-5.6692286,122.5123808,https://maps.google.com/?cid=0x0:0x355e5e5dfcc83dd1,
komplek housing,Komplek perumahan,RUMAH HAJI ODON,"8F9C+WCH, Lalole, Kec. Siompu Bar., Kabupaten Buton, Sulawesi Tenggara 93752","Lalole, Kec. Siompu Bar., Kabupaten Buton",SULAWESI TENGGARA,93752.0,Indonesia,,,,-5.680236,122.471221,https://maps.google.com/?cid=0x0:0x5ce897719eb5b108,
komplek housing,Komplek perumahan,Rumah La Hanipa,"9GCG+662, Tongali, Kec. Siompu, Kabupaten Buton, Sulawesi Tenggara 93752","Tongali, Kec. Siompu, Kabupaten Buton",SULAWESI TENGGARA,93752.0,Indonesia,,,,-5.6294768,122.525527,https://maps.google.com/?cid=0x0:0xc7285bf4e3db64ce,
komplek housing,komplek housing,Kec. Siompu Bar.,"Kabupaten Buton, Sulawesi Tenggara","Kabupaten Buton, Sulawesi Tenggara",SULAWESI TENGGARA,,Indonesia,,,,-5.6899378,122.4818486,https://maps.google.com/?cid=0x0:0xdc7d5a3172232e78,
komplek housing,Komplek perumahan,Kompleks simpang empat,"8FFF+4C9, Watuampara, Kec. Siompu Bar., Kabupaten Buton, Sulawesi Tenggara 93752","Watuampara, Kec. Siompu Bar., Kabupaten Buton",SULAWESI TENGGARA,93752.0,Indonesia,,,,-5.6772385,122.4736345,https://maps.google.com/?cid=0x0:0x1445f50fd36aafd8,
komplek housing,komplek housing,ICHA home,"8F76+996, Katampe, Kec. Siompu Bar., Kabupaten Buton, Sulawesi Tenggara","Kabupaten Buton, Sulawesi Tenggara",SULAWESI TENGGARA,,Indonesia,,,,-5.6865778,122.4608775,https://maps.google.com/?cid=0x0:0x982b43917b09c76a,
komplek housing,komplek housing,Pondok Mama tua,"8FGH+M3J Bar, Watuampara, Kec. Siompu Bar., Kabupaten Buton, Sulawesi Tenggara 93752","Watuampara, Kec. Siompu Bar., Kabupaten Buton",SULAWESI TENGGARA,93752.0,Indonesia,,,,-5.6739702,122.4767561,https://maps.google.com/?cid=0x0:0x62aec211d644d952,
komplek housing,Komplek perumahan,DHARE,"8F99+5RR, Lalole, Kec. Siompu Bar., Kabupaten Buton, Sulawesi Tenggara 93752","Lalole, Kec. Siompu Bar., Kabupaten Buton",SULAWESI TENGGARA,93752.0,Indonesia,,,,-5.6810817,122.469265,https://maps.google.com/?cid=0x0:0x858e0ea336c83dbb,
komplek housing,Komplek perumahan,Rumah Hasim,"8GG4+M3J, Lalole, Kec. Siompu Bar., Kabupaten Buton, Sulawesi Tenggara 93752","Lalole, Kec. Siompu Bar., Kabupaten Buton",SULAWESI TENGGARA,93752.0,Indonesia,,,,-5.6732852,122.5052403,https://maps.google.com/?cid=0x0:0x83ac6ab6b3addaf7,
komplek housing,Komplek perumahan,Rumah Alimin.K,"8GJ7+C78, Biwinapada, Kec. Siompu, Kabupaten Buton, Sulawesi Tenggara 93752","Biwinapada, Kec. Siompu, Kabupaten Buton",SULAWESI TENGGARA,93752.0,Indonesia,,,,-5.668516,122.513102,https://maps.google.com/?cid=0x0:0xe87e36393d7f3ee3,
komplek housing,Komplek perumahan,Dedi'S Home,"8GH5+VCQ, Biwinapada, Kec. Siompu, Kabupaten Buton, Sulawesi Tenggara 93752","Biwinapada, Kec. Siompu, Kabupaten Buton",SULAWESI TENGGARA,93752.0,Indonesia,,,,-5.6702829,122.5085999,https://maps.google.com/?cid=0x0:0xd0605665f7cf7245,
komplek housing,Pembangunan Perumahan,Jastin is home,"8F9C+7PF, Lalole, Kec. Siompu Bar., Kabupaten Buton, Sulawesi Tenggara","Kabupaten Buton, Sulawesi Tenggara",SULAWESI TENGGARA,,Indonesia,,,,-5.681808,122.4717887,https://maps.google.com/?cid=0x0:0x13d31ce590a76ac9,
komplek housing,komplek housing,HIDAYAT House,"8FCC+3QV, Watuampara, Kec. Siompu Bar., Kabupaten Buton, Sulawesi Tenggara","Kabupaten Buton, Sulawesi Tenggara",SULAWESI TENGGARA,,Indonesia,,,,-5.6797513,122.471932,https://maps.google.com/?cid=0x0:0xcba07ccd67f5a148,
komplek housing,Komplek perumahan,rumahnya Bilah,"8F6H+95G, Katampe, Kec. Siompu Bar., Kabupaten Buton, Sulawesi Tenggara 93752","Katampe, Kec. Siompu Bar., Kabupaten Buton",SULAWESI TENGGARA,93752.0,Indonesia,,,,-5.6890679,122.4779419,https://maps.google.com/?cid=0x0:0x2df19c474df894cd,
komplek housing,Komplek perumahan,Rumah baim,"8FCF+544, Watuampara, Kec. Siompu Bar., Kabupaten Buton, Sulawesi Tenggara 93752","Watuampara, Kec. Siompu Bar., Kabupaten Buton",SULAWESI TENGGARA,93752.0,Indonesia,,,,-5.679096,122.472747,https://maps.google.com/?cid=0x0:0xd38871faf7e52146,
komplek housing,Komplek perumahan,RUMA FITO,"8F6G+3M9, Selatan, Katampe, Kec. Siompu Bar., Kabupaten Buton, Sulawesi Tenggara","Kabupaten Buton, Sulawesi Tenggara",SULAWESI TENGGARA,,Indonesia,,,,-5.6898429,122.4767235,https://maps.google.com/?cid=0x0:0x3cbd77fb76c34858,
komplek housing,komplek housing,Rumah waode mentari,"8F7G+V43, Lalole, Kec. Siompu Bar., Kabupaten Buton, Sulawesi Tenggara 93752","Lalole, Kec. Siompu Bar., Kabupaten Buton",SULAWESI TENGGARA,93752.0,Indonesia,,,,-5.6857844,122.4756959,https://maps.google.com/?cid=0x0:0x697186797719f175,
komplek housing,Komplek perumahan,Tempat berkumpulnya para suhu ep ep,"8F5J+FWJ, Molona, Kec. Siompu Bar., Kabupaten Buton, Sulawesi Tenggara","Kabupaten Buton, Sulawesi Tenggara",SULAWESI TENGGARA,,Indonesia,,,,-5.6913231,122.4822661,https://maps.google.com/?cid=0x0:0x8d6dfdacb06463cc,
komplek housing,Pembangunan Perumahan,Kompleks pln katampe fc,"8F6G+568, Katampe, Kec. Siompu Bar., Kabupaten Buton, Sulawesi Tenggara","Kabupaten Buton, Sulawesi Tenggara",SULAWESI TENGGARA,,Indonesia,,,,-5.6895786,122.4755869,https://maps.google.com/?cid=0x0:0x13aa19ef57d47a79,
komplek housing,Komplek perumahan,Rumah azmin,"8F7G+2FJ, Katampe, Kec. Siompu Bar., Kabupaten Buton, Sulawesi Tenggara 93752","Katampe, Kec. Siompu Bar., Kabupaten Buton",SULAWESI TENGGARA,93752.0,Indonesia,,,,-5.688038,122.476295,https://maps.google.com/?cid=0x0:0x67f6456c0b9e2ee2,
komplek housing,Komplek perumahan,Kamoali,"8F9C+76V, Lalole, Kec. Siompu Bar., Kabupaten Buton, Sulawesi Tenggara","Kabupaten Buton, Sulawesi Tenggara",SULAWESI TENGGARA,,Indonesia,,,,-5.682356,122.4706943,https://maps.google.com/?cid=0x0:0xac6880d5c494dc8a,
komplek housing,komplek housing,Rumah elma maulisa,"8F7G+87W, Lalole, Kec. Siompu Bar., Kabupaten Buton, Sulawesi Tenggara 93752","Lalole, Kec. Siompu Bar., Kabupaten Buton",SULAWESI TENGGARA,93752.0,Indonesia,,,,-5.6859849,122.4757579,https://maps.google.com/?cid=0x0:0x14365370e2b4a7dc,
komplek housing,Komplek perumahan,Rumah sasta,"8F9C+C32, Lalole, Kec. Siompu Bar., Kabupaten Buton, Sulawesi Tenggara","Kabupaten Buton, Sulawesi Tenggara",SULAWESI TENGGARA,,Indonesia,,,,-5.6813228,122.4703234,https://maps.google.com/?cid=0x0:0x2579ae39723c5a90,
komplek housing,Komplek perumahan,Rumah nova,"8F6H+7GF, 8F6H+9GJMolonaKec, Kec. Siompu Bar., Kabupaten Buton, Sulawesi Tenggara 93752","8F6H+9GJMolonaKec, Kec. Siompu Bar., Kabupaten Buton",SULAWESI TENGGARA,93752.0,Indonesia,,,,-5.6893101,122.4787888,https://maps.google.com/?cid=0x0:0x9c00ff73f13813f4,
komplek housing,Komplek perumahan,RUMAH ASMET,"8F8C+9RF, Lalole, Kec. Siompu Bar., Kabupaten Buton, Sulawesi Tenggara 93752","Lalole, Kec. Siompu Bar., Kabupaten Buton",SULAWESI TENGGARA,93752.0,Indonesia,,,,-5.6840625,122.4720469,https://maps.google.com/?cid=0x0:0x2ce304df4e1bd54e,
komplek housing,Komplek perumahan,RUMAH HAJI ODON,"8F9C+WCH, Lalole, Kec. Siompu Bar., Kabupaten Buton, Sulawesi Tenggara 93752","Lalole, Kec. Siompu Bar., Kabupaten Buton",SULAWESI TENGGARA,93752.0,Indonesia,,,,-5.680236,122.471221,https://maps.google.com/?cid=0x0:0x5ce897719eb5b108,
komplek housing,Komplek perumahan,Rumah tisa,"8F8C+9RF, Lalole, Kec. Siompu Bar., Kabupaten Buton, Sulawesi Tenggara 93752","Lalole, Kec. Siompu Bar., Kabupaten Buton",SULAWESI TENGGARA,93752.0,Indonesia,,,,-5.6840625,122.4720469,https://maps.google.com/?cid=0x0:0x5c17ecfee0d395ee,
komplek housing,Komplek perumahan,Tompa(Watuampara ujung),"8FFF+4C9, Watuampara, Kec. Siompu Bar., Kabupaten Buton, Sulawesi Tenggara 93752","Watuampara, Kec. Siompu Bar., Kabupaten Buton",SULAWESI TENGGARA,93752.0,Indonesia,,,,-5.6772035,122.4736493,https://maps.google.com/?cid=0x0:0x42ed3f8a216b1a93,
komplek housing,Balai masyarakat,Lawakano,"Watuampara, Kec. Siompu Bar., Kabupaten Buton, Sulawesi Tenggara 93752","Kec. Siompu Bar., Kabupaten Buton",SULAWESI TENGGARA,93752.0,Indonesia,,,,-5.6786407,122.4718721,https://maps.google.com/?cid=0x0:0x96a07390fdcfa8db,
komplek housing,Komplek perumahan,Rumah oma fathir,"8F6H+6JR, Katampe, Kec. Siompu Bar., Kabupaten Buton, Sulawesi Tenggara 93752","Katampe, Kec. Siompu Bar., Kabupaten Buton",SULAWESI TENGGARA,93752.0,Indonesia,,,,-5.6893779,122.4790229,https://maps.google.com/?cid=0x0:0x165e2baccb5b9554,
komplek housing,Komplek perumahan,rumah denis kembar Nnael,"8F9C+WCH, Lalole, Kec. Siompu Bar., Kabupaten Buton, Sulawesi Tenggara 93752","Lalole, Kec. Siompu Bar., Kabupaten Buton",SULAWESI TENGGARA,93752.0,Indonesia,,,,-5.6801602,122.4710878,https://maps.google.com/?cid=0x0:0xf91f3a4490174629,
komplek housing,Pembangunan Perumahan,Waleno guru Dhogu/Sjamsuddin Tatro,"8GJ6+9WJ, Biwinapada, Kec. Siompu, Kabupaten Buton, Sulawesi Tenggara 93752","Biwinapada, Kec. Siompu, Kabupaten Buton",SULAWESI TENGGARA,93752.0,Indonesia,,,,-5.6692286,122.5123808,https://maps.google.com/?cid=0x0:0x355e5e5dfcc83dd1,
perumahan,perumahan,Batauga,"Masiri, Batauga, Kabupaten Buton, Sulawesi Tenggara","Kabupaten Buton, Sulawesi Tenggara",SULAWESI TENGGARA,,Indonesia,,,,-5.610301,122.6157,https://maps.google.com/?cid=0x0:0xb59244aa04e5e53e,
perumahan,Komplek perumahan,Rumah Acang,"9JQ8+V7G, Masiri, Batauga, Kabupaten Buton, Sulawesi Tenggara","Kabupaten Buton, Sulawesi Tenggara",SULAWESI TENGGARA,,Indonesia,,,,-5.610301,122.6157,https://maps.google.com/?cid=0x0:0x4e9d3f059af300a4,
perumahan,Komplek perumahan,Molagina Rumah Dedy,"9JQ8+V7G, Masiri, Batauga, Kabupaten Buton, Sulawesi Tenggara","Kabupaten Buton, Sulawesi Tenggara",SULAWESI TENGGARA,,Indonesia,,,,-5.610301,122.6157,https://maps.google.com/?cid=0x0:0x9693a615424efe2d,
perumahan,perumahan,Batauga,"Masiri, Batauga, Kabupaten Buton, Sulawesi Tenggara 93752","Batauga, Kabupaten Buton",SULAWESI TENGGARA,93752.0,Indonesia,,,,-5.610301,122.6157,https://maps.google.com/?cid=0x0:0xc5b3ee3ef6ad0ad3,
perumahan,perumahan,Kec. Batu Atas,"Kabupaten Buton, Sulawesi Tenggara","Kabupaten Buton, Sulawesi Tenggara",SULAWESI TENGGARA,,Indonesia,,,,-6.206587,122.718311,https://maps.google.com/?cid=0x0:0x4823161ea155a8e3,
perumahan,Komplek perumahan,BATUATAS,"QPVC+QQ3, Batuatas Tim., Kec. Batu Atas, Kabupaten Buton, Sulawesi Tenggara","Kabupaten Buton, Sulawesi Tenggara",SULAWESI TENGGARA,,Indonesia,,,,-6.2056081,122.7219272,https://maps.google.com/?cid=0x0:0xc50035216a592597,
perumahan,Komplek perumahan,Kampung baru,"QPV9+J4Q, Batuatas Tim., Kec. Batu Atas, Kabupaten Buton, Sulawesi Tenggara","Kabupaten Buton, Sulawesi Tenggara",SULAWESI TENGGARA,,Indonesia,,,,-6.2059028,122.7178609,https://maps.google.com/?cid=0x0:0xbd540c56a186186c,
perumahan,Komplek perumahan,Adot nenek,"QMQX+WP3, Unnamed Road, Kec. Batu Atas, Kabupaten Buton, Sulawesi Tenggara","Kabupaten Buton, Sulawesi Tenggara",SULAWESI TENGGARA,,Indonesia,,,,-6.2102442,122.6992847,https://maps.google.com/?cid=0x0:0x4307516d1569fa3b,
perumahan,Komplek perumahan,House Widianto,"QPV8+PW6, Batuatas Tim., Kec. Batu Atas, Kabupaten Buton, Sulawesi Tenggara","Kabupaten Buton, Sulawesi Tenggara",SULAWESI TENGGARA,,Indonesia,,,,-6.2057232,122.717251,https://maps.google.com/?cid=0x0:0xccbafd3835245b67,
perumahan,Masjid,kampung liwu bersejarah,"RM5J+V5G, Batuatas Bar., Kec. Batu Atas, Kabupaten Buton, Sulawesi Tenggara","Kabupaten Buton, Sulawesi Tenggara",SULAWESI TENGGARA,,Indonesia,,,,-6.1904686,122.6805184,https://maps.google.com/?cid=0x0:0x3cbdb3021de71d97,
perumahan,perumahan,LA MUDA smr HOUSE,"QPV8+PW6, Batuatas Tim., Kec. Batu Atas, Kabupaten Buton, Sulawesi Tenggara","Kabupaten Buton, Sulawesi Tenggara",SULAWESI TENGGARA,,Indonesia,,,,-6.2057146,122.7172827,https://maps.google.com/?cid=0x0:0x2d8f48c80b18accc,
perumahan,Komplek perumahan,Dusun burangasi,"RM7Q+69Q, Batuatas Bar., Kec. Batu Atas, Kabupaten Buton, Sulawesi Tenggara","Kabupaten Buton, Sulawesi Tenggara",SULAWESI TENGGARA,,Indonesia,,,,-6.1869187,122.6884864,https://maps.google.com/?cid=0x0:0xea079ee908d8de53,
perumahan,perumahan,Lorong Kanssas,"QMXX+VH4, Wacuala, Kec. Batu Atas, Kabupaten Buton, Sulawesi Tenggara","Kabupaten Buton, Sulawesi Tenggara",SULAWESI TENGGARA,,Indonesia,,,,-6.1996482,122.6980722,https://maps.google.com/?cid=0x0:0x53e28be8b3cdb8ee,
perumahan,perumahan,Bukit indah,"QPV9+975, Tolando Jaya, Kec. Batu Atas, Kabupaten Buton, Sulawesi Tenggara","Kabupaten Buton, Sulawesi Tenggara",SULAWESI TENGGARA,,Indonesia,,,,-6.2069237,122.7175266,https://maps.google.com/?cid=0x0:0xa8e5fb87462e207d,
perumahan,perumahan,Lorong Kanssas,"QPV9+975, Tolando Jaya, Kec. Batu Atas, Kabupaten Buton, Sulawesi Tenggara","Kabupaten Buton, Sulawesi Tenggara",SULAWESI TENGGARA,,Indonesia,,,,-6.2066101,122.7182487,https://maps.google.com/?cid=0x0:0xc2bbd215dfe2567c,
perumahan,Kantor Pemerintah,Desa wacuala,"QPX2+HC8, Wacuala, Kec. Batu Atas, Kabupaten Buton, Sulawesi Tenggara","Kabupaten Buton, Sulawesi Tenggara",SULAWESI TENGGARA,,Indonesia,,,,-6.2010793,122.7010737,https://maps.google.com/?cid=0x0:0xec4e6f13d253736f,
perumahan,perumahan,Rumah snjni,"8QR7+W9H, Gaya Baru, Kec. Lapandewa, Kabupaten Buton, Sulawesi Tenggara 93753","Gaya Baru, Kec. Lapandewa, Kabupaten Buton",SULAWESI TENGGARA,93753.0,Indonesia,,,,-5.657981,122.763923,https://maps.google.com/?cid=0x0:0x7758e17053bc3b1a,
perumahan,Taman Komunitas,Lorong GMB(generasi muda baru),"QPRJ+984, Tolando Jaya, Kec. Batu Atas, Kabupaten Buton, Sulawesi Tenggara","Kabupaten Buton, Sulawesi Tenggara",SULAWESI TENGGARA,,Indonesia,,,,-6.2091175,122.7308425,https://maps.google.com/?cid=0x0:0x195d03203416b858,
perumahan,Komplek perumahan,Rumah Darmangu,"QMXM+699, Batuatas Liwu, Kabupaten Buton, Sulawesi Tenggara","Kabupaten Buton, Sulawesi Tenggara",SULAWESI TENGGARA,,Indonesia,,,,-6.2019588,122.6834746,https://maps.google.com/?cid=0x0:0x8d5da956ae1fbf6a,
perumahan,Komplek perumahan,Rmh fikram,"QPV9+PMP, timur, Tolando Jaya, Kec. Batu Atas, Kabupaten Buton, Sulawesi Tenggara","Kabupaten Buton, Sulawesi Tenggara",SULAWESI TENGGARA,,Indonesia,,,,-6.205606,122.720107,https://maps.google.com/?cid=0x0:0xa85b07e60bf5c8e3,
perumahan,perumahan,Adenia,"QPRJ+984, Tolando Jaya, Kec. Batu Atas, Kabupaten Buton, Sulawesi Tenggara","Kabupaten Buton, Sulawesi Tenggara",SULAWESI TENGGARA,,Indonesia,,,,-6.2091175,122.7308425,https://maps.google.com/?cid=0x0:0x4b26cbb75ba2d542,
perumahan,Komplek perumahan,House Mama Ade,"QPWG+W3P, Batuatas Tim., Kec. Batu Atas, Kabupaten Buton, Sulawesi Tenggara","Kabupaten Buton, Sulawesi Tenggara",SULAWESI TENGGARA,,Indonesia,,,,-6.2026571,122.725196,https://maps.google.com/?cid=0x0:0xf4ec738c6a164df3,
perumahan,perumahan,wambongi citi,"QMRX+9JR, Pulau, Kec. Batu Atas, Sulawesi Tenggara",Sulawesi Tenggara,SULAWESI TENGGARA,,Indonesia,,,,-6.2090231,122.6990233,https://maps.google.com/?cid=0x0:0x2832795e4e68b7e3,
perumahan,Komplek perumahan,LORONG KAFE(LORKAF),"QPVC+37W, Tolando Jaya, Kec. Batu Atas, Kabupaten Buton, Sulawesi Tenggara","Kabupaten Buton, Sulawesi Tenggara",SULAWESI TENGGARA,,Indonesia,,,,-6.2072734,122.7206878,https://maps.google.com/?cid=0x0:0xb12270a0e349d048,
perumahan,Komplek perumahan,LORJAND,"QPR9+GGW, Tolando Jaya, Kec. Batu Atas, Kabupaten Buton, Sulawesi Tenggara","Kabupaten Buton, Sulawesi Tenggara",SULAWESI TENGGARA,,Indonesia,,,,-6.2077488,122.7188312,https://maps.google.com/?cid=0x0:0x96ddeec1f8d8124f,
perumahan,perumahan,KIOS AA NEDILA (MAMA ADE),"QPVC+R5C, Tolando Jaya, Kec. Batu Atas, Kabupaten Buton, Sulawesi Tenggara","Kabupaten Buton, Sulawesi Tenggara",SULAWESI TENGGARA,,Indonesia,82291742320.0,,,-6.2054348,122.7203774,https://maps.google.com/?cid=0x0:0x49e38e6b9dc617b1,
perumahan,perumahan,Kec. Kadatua,"Kabupaten Buton, Sulawesi Tenggara","Kabupaten Buton, Sulawesi Tenggara",SULAWESI TENGGARA,,Indonesia,,,,-5.5330522,122.4744908,https://maps.google.com/?cid=0x0:0xa7c55634cc618f76,
perumahan,Kantor Pemerintah,Kapoa Barat,"CGQ3+2HG, Kapoa Bar., Kec. Kadatua, Kabupaten Buton, Sulawesi Tenggara","Kabupaten Buton, Sulawesi Tenggara",SULAWESI TENGGARA,,Indonesia,82291555138.0,,,-5.5624405,122.5039396,https://maps.google.com/?cid=0x0:0xd6f3dd50e9d612ce,
perumahan,Komplek perumahan,Kampung kadatua,"FGM3+VV9, Banabungi Sel., Kec. Kadatua, Kabupaten Buton, Sulawesi Tenggara","Kabupaten Buton, Sulawesi Tenggara",SULAWESI TENGGARA,,Indonesia,,,,-5.5153302,122.5047416,https://maps.google.com/?cid=0x0:0x46fe27f4dc02a63d,
perumahan,Komplek perumahan,Rumah ayening,"FGWF+VC7, Banabungi, Kec. Kadatua, Kabupaten Buton, Sulawesi Tenggara","Kabupaten Buton, Sulawesi Tenggara",SULAWESI TENGGARA,,Indonesia,,,,-5.5028261,122.5235606,https://maps.google.com/?cid=0x0:0x1f295114b531b993,
perumahan,Komplek perumahan,Rumah Uma,"CFVM+X2P, Kapoa, Kec. Kadatua, Kabupaten Buton, Sulawesi Tenggara","Kabupaten Buton, Sulawesi Tenggara",SULAWESI TENGGARA,,Indonesia,,,,-5.5550137,122.482433,https://maps.google.com/?cid=0x0:0xfc9c45149d9c4d72,
perumahan,Kantor Pemerintah Distrik,Kecamatan kadatua,"FF7J+JMH, Marawali, Kec. Kadatua, Kabupaten Buton, Sulawesi Tenggara","Kabupaten Buton, Sulawesi Tenggara",SULAWESI TENGGARA,,Indonesia,,,,-5.535935,122.4817451,https://maps.google.com/?cid=0x0:0xfeff47cdff32cc8b,
perumahan,Kantor Perusahaan,DESA MAWABUNGA,"CFXH+3XR, Kapoa, Kec. Kadatua, Kabupaten Buton, Sulawesi Tenggara","Kabupaten Buton, Sulawesi Tenggara",SULAWESI TENGGARA,,Indonesia,,,,-5.5522523,122.4798785,https://maps.google.com/?cid=0x0:0x2139d8cb1c8e90b6,
perumahan,perumahan,DAMAR,"FF8F+QQH, Marawali, Kec. Kadatua, Kabupaten Buton, Sulawesi Tenggara","Kabupaten Buton, Sulawesi Tenggara",SULAWESI TENGGARA,,Indonesia,,,,-5.5330522,122.4744908,https://maps.google.com/?cid=0x0:0xfa91faab8a739b9b,
perumahan,Komplek perumahan,Rumah Putra-Nisa,"CFXH+3XR, Mawambunga, Kec. Kadatua, Kabupaten Buton, Sulawesi Tenggara","Kabupaten Buton, Sulawesi Tenggara",SULAWESI TENGGARA,,Indonesia,,,,-5.552304,122.4797705,https://maps.google.com/?cid=0x0:0xf3e776b15a75f9f,
perumahan,Kantor Pemerintah,Desa Lipu,"FFHQ+7JW, Lipu, Kec. Kadatua, Kabupaten Buton, Sulawesi Tenggara","Kabupaten Buton, Sulawesi Tenggara",SULAWESI TENGGARA,,Indonesia,,,,-5.5217734,122.4890726,https://maps.google.com/?cid=0x0:0xb23ac816ac312919,
perumahan,Komplek perumahan,Rumah kiki,"CGP3+XMH, Uwemaasi, Kec. Kadatua, Kabupaten Buton, Sulawesi Tenggara","Kabupaten Buton, Sulawesi Tenggara",SULAWESI TENGGARA,,Indonesia,,,,-5.5621676,122.504412,https://maps.google.com/?cid=0x0:0x401dc1c21f933ac7,
perumahan,Tujuan Wisata,Rumah Aswin,"CGP3+Q3X, Kapoa Bar., Kec. Kadatua, Kabupaten Buton, Sulawesi Tenggara","Kabupaten Buton, Sulawesi Tenggara",SULAWESI TENGGARA,,Indonesia,,,,-5.562874,122.502811,https://maps.google.com/?cid=0x0:0x7a54c1eae956c15a,
perumahan,Komplek perumahan,Rumah keramat arsi rido,"FGV7+86V, Banabungi, Kec. Kadatua, Kabupaten Buton, Sulawesi Tenggara 93752","Banabungi, Kec. Kadatua, Kabupaten Buton",SULAWESI TENGGARA,93752.0,Indonesia,,,,-5.5075942,122.5128684,https://maps.google.com/?cid=0x0:0xc76978eb3975a453,
perumahan,Komplek perumahan,Rumah Slamet,"FGWF+V4M, Banabungi, Kec. Kadatua, Kabupaten Buton, Sulawesi Tenggara","Kabupaten Buton, Sulawesi Tenggara",SULAWESI TENGGARA,,Indonesia,,,,-5.5028185,122.5225514,https://maps.google.com/?cid=0x0:0x99e06d653bd4b587,
perumahan,Pembangunan Perumahan,Rumah tamu desa lipi,"FFHR+M7, Lipu, Kec. Kadatua, Kabupaten Buton, Sulawesi Tenggara","Kabupaten Buton, Sulawesi Tenggara",SULAWESI TENGGARA,,Indonesia,,,,-5.5208073,122.4907304,https://maps.google.com/?cid=0x0:0x86f750fcd7da5ab5,
perumahan,Perhimpunan Pengembang Perumahan,Rumah Avatar,"CGP3+X9C, Uwemaasi, Kec. Kadatua, Kabupaten Buton, Sulawesi Tenggara","Kabupaten Buton, Sulawesi Tenggara",SULAWESI TENGGARA,,Indonesia,,,,-5.5625505,122.5033998,https://maps.google.com/?cid=0x0:0x27c2524c3e0bad6e,
perumahan,Komplek perumahan,Kantor,"FF7F+85H, Waonu, Kec. Kadatua, Kabupaten Buton, Sulawesi Tenggara 93752","Waonu, Kec. Kadatua, Kabupaten Buton",SULAWESI TENGGARA,93752.0,Indonesia,,,,-5.5360263,122.4730777,https://maps.google.com/?cid=0x0:0x2bdce1938783002b,
perumahan,Komplek perumahan,Rumah mama Akbar,"CFRM+FQX, Kec. Kadatua, Kabupaten Buton, Sulawesi Tenggara","Kabupaten Buton, Sulawesi Tenggara",SULAWESI TENGGARA,,Indonesia,,,,-5.5587745,122.4844865,https://maps.google.com/?cid=0x0:0x32b51837d5cad4bf,
perumahan,Komplek perumahan,Haikal,"CGR4+XGP, Kapoa, Kec. Kadatua, Kabupaten Buton, Sulawesi Tenggara","Kabupaten Buton, Sulawesi Tenggara",SULAWESI TENGGARA,,Indonesia,,,,-5.5577267,122.5062533,https://maps.google.com/?cid=0x0:0xea875f59cd467ab,
perumahan,Komplek perumahan,Komplek tekan satu,"FGWC+VQW, Banabungi, Selatan, Kabupaten Buton, Sulawesi Tenggara","Kabupaten Buton, Sulawesi Tenggara",SULAWESI TENGGARA,,Indonesia,,,,-5.5028125,122.5219104,https://maps.google.com/?cid=0x0:0x38f0ab828def1755,
perumahan,Komplek perumahan,Kompleks kelapa 1,"FGXF+42C, Banabungi, Kec. Kadatua, Kabupaten Buton, Sulawesi Tenggara","Kabupaten Buton, Sulawesi Tenggara",SULAWESI TENGGARA,,Indonesia,,,,-5.5021871,122.5225035,https://maps.google.com/?cid=0x0:0x2ce2ffdfb8365e74,
perumahan,Pembangunan Perumahan,Laode aaga,"FF9F+8MV, Marawali, Kec. Kadatua, Kabupaten Buton, Sulawesi Tenggara 93752","Marawali, Kec. Kadatua, Kabupaten Buton",SULAWESI TENGGARA,93752.0,Indonesia,82248886847.0,,,-5.5316431,122.4741815,https://maps.google.com/?cid=0x0:0xe3a62302a4702fad,
perumahan,perumahan,Lapandewa,"Kec. Lapandewa, Kabupaten Buton, Sulawesi Tenggara","Kabupaten Buton, Sulawesi Tenggara",SULAWESI TENGGARA,,Indonesia,,,,-5.5950795,122.8028074,https://maps.google.com/?cid=0x0:0x6ff5a1676f28f9a7,
perumahan,perumahan,Sulawesi,,,SULAWESI TENGGARA,,Indonesia,,,,-1.8479,120.5279,https://maps.google.com/?cid=0x0:0xbc9a51d168f47742,
perumahan,Perhimpunan Pengembang Perumahan,Lapandewa makmur,"9PRW+WGX, Lapandewa Makmur, Kec. Lapandewa, Kabupaten Buton, Sulawesi Tenggara 93753","Lapandewa Makmur, Kec. Lapandewa, Kabupaten Buton",SULAWESI TENGGARA,93753.0,Indonesia,,,,-5.6076326,122.7463686,https://maps.google.com/?cid=0x0:0x99e566d57c75386d,
perumahan,perumahan,Rumah snjni,"8QR7+W9H, Gaya Baru, Kec. Lapandewa, Kabupaten Buton, Sulawesi Tenggara 93753","Gaya Baru, Kec. Lapandewa, Kabupaten Buton",SULAWESI TENGGARA,93753.0,Indonesia,,,,-5.657981,122.763923,https://maps.google.com/?cid=0x0:0x7758e17053bc3b1a,
perumahan,Kompleks Kondominium,Di lapandewa kaindea,"9Q5J+9WM, Gerak Makmur, Kec. Sampolawa, Kabupaten Buton, Sulawesi Tenggara 93753","Gerak Makmur, Kec. Sampolawa, Kabupaten Buton",SULAWESI TENGGARA,93753.0,Indonesia,,,,-5.6420871,122.7824345,https://maps.google.com/?cid=0x0:0x6b75ae04dc0fa113,
perumahan,Perumahan rakyat,Rumah Rapu,"8QHQ+47W, Burangasi, Kec. Lapandewa, Kabupaten Buton, Sulawesi Tenggara 93753","Burangasi, Kec. Lapandewa, Kabupaten Buton",SULAWESI TENGGARA,93753.0,Indonesia,,,,-5.6721375,122.7882031,https://maps.google.com/?cid=0x0:0x90a2fc8359700491,
perumahan,Pembangunan Perumahan,RUMAH TAMIN,"9PRW+WGX, Lapandewa Makmur, Kec. Lapandewa, Kabupaten Buton, Sulawesi Tenggara 93753","Lapandewa Makmur, Kec. Lapandewa, Kabupaten Buton",SULAWESI TENGGARA,93753.0,Indonesia,,,,-5.6076326,122.7463686,https://maps.google.com/?cid=0x0:0x33f30d56c3d2c628,
perumahan,Kantor Pemerintah,Desa Burangasi Rumbia,"8QGP+4VJ, Burangasi, Kec. Lapandewa, Kabupaten Buton, Sulawesi Tenggara 93753","Burangasi, Kec. Lapandewa, Kabupaten Buton",SULAWESI TENGGARA,93753.0,Indonesia,,,,-5.6746882,122.7871432,https://maps.google.com/?cid=0x0:0x97301931af409aa3,
perumahan,Komplek perumahan,Rumah doi,"9Q5M+946, Gaya Baru, Kec. Lapandewa, Kabupaten Buton, Sulawesi Tenggara 93753","Gaya Baru, Kec. Lapandewa, Kabupaten Buton",SULAWESI TENGGARA,93753.0,Indonesia,,,,-5.6415958,122.7827573,https://maps.google.com/?cid=0x0:0x9fd12dd92289cfe1,
perumahan,Komplek perumahan,Batas dusun petarung,"8QFP+HG2, Rumbia, Kec. Lapandewa, Kabupaten Buton, Sulawesi Tenggara 93753","Rumbia, Kec. Lapandewa, Kabupaten Buton",SULAWESI TENGGARA,93753.0,Indonesia,,,,-5.6761077,122.7862724,https://maps.google.com/?cid=0x0:0x9237a10c05f5f88e,
perumahan,Komplek perumahan,Rumah BPK Alimadi,"9Q6J+HM7, Lapandewa Kaindea, Kec. Sampolawa, Kabupaten Buton, Sulawesi Tenggara 93753","Lapandewa Kaindea, Kec. Sampolawa, Kabupaten Buton",SULAWESI TENGGARA,93753.0,Indonesia,,,,-5.6385813,122.7816595,https://maps.google.com/?cid=0x0:0x9c8a2c67682955ea,
perumahan,Komplek perumahan,Rumah Bapa Babo,"8QQ7+9R2, Gaya Baru, Kec. Lapandewa, Kabupaten Buton, Sulawesi Tenggara 93753","Gaya Baru, Kec. Lapandewa, Kabupaten Buton",SULAWESI TENGGARA,93753.0,Indonesia,,,,-5.6613924,122.7655981,https://maps.google.com/?cid=0x0:0xaf08210c67c087fd,
perumahan,Komplek perumahan,Rumahnya Shinta Mawarni,"8QR7+W9H, Gaya Baru, Kec. Lapandewa, Kabupaten Buton, Sulawesi Tenggara 93753","Gaya Baru, Kec. Lapandewa, Kabupaten Buton",SULAWESI TENGGARA,93753.0,Indonesia,,,,-5.6576802,122.7634807,https://maps.google.com/?cid=0x0:0x6b8305605da79135,
perumahan,Komplek perumahan,Rumah Bapa Yuni,"8QR8+23M, Gaya Baru, Kec. Lapandewa, Kabupaten Buton, Sulawesi Tenggara 93753","Gaya Baru, Kec. Lapandewa, Kabupaten Buton",SULAWESI TENGGARA,93753.0,Indonesia,,,,-5.6599067,122.7651569,https://maps.google.com/?cid=0x0:0x391f1ee5d5662c51,
perumahan,perumahan,Sulawesi Tenggara 93753,"Kabupaten Buton, Sulawesi Tenggara","Kabupaten Buton, Sulawesi Tenggara",SULAWESI TENGGARA,,Indonesia,,,,-5.5916275,122.7858791,https://maps.google.com/?cid=0x0:0x5d5b6b7c1f0a9413,
perumahan,Pembangunan Perumahan,Desa Lapandewa Makmur,"9P6X+HVH, Desa, Makmur, Kec. Lapandewa, Kabupaten Buton, Sulawesi Tenggara","Kabupaten Buton, Sulawesi Tenggara",SULAWESI TENGGARA,,Indonesia,,,,-5.6385379,122.7496674,https://maps.google.com/?cid=0x0:0xca979153fd38d496,
perumahan,Komplek perumahan,Kampung Lawara,"9M4V+WGG, Katilombu, Kec. Sampolawa, Kabupaten Buton, Sulawesi Tenggara","Kabupaten Buton, Sulawesi Tenggara",SULAWESI TENGGARA,,Indonesia,,,,-5.6426979,122.6938354,https://maps.google.com/?cid=0x0:0xb09595ba3ce31c6b,
perumahan,Sekolah menengah,Kepsek SMAN 2 Lapandewa,"9P6X+J2Q, Lorong Makmur, Makmur, Kec. Lapandewa, Kabupaten Buton, Sulawesi Tenggara","Kabupaten Buton, Sulawesi Tenggara",SULAWESI TENGGARA,,Indonesia,,,,-5.638406,122.7476236,https://maps.google.com/?cid=0x0:0x75c3530991dde8ba,
perumahan,Komplek perumahan,Rumah fily,"CPGV+29F, Gn. Sejuk, Kec. Sampolawa, Kabupaten Buton, Sulawesi Tenggara 93753","Gn. Sejuk, Kec. Sampolawa, Kabupaten Buton",SULAWESI TENGGARA,93753.0,Indonesia,,,,-5.5749473,122.7434306,https://maps.google.com/?cid=0x0:0xdcb76bca36ee4c5e,
perumahan,Pembangunan Perumahan,Dusun Tambunaloko II Desa Lapandewa Kec.Lapandewa Kab.Buton Selatan,"9Q3M+WXF, Gaya Baru, Kec. Lapandewa, Kabupaten Buton, Sulawesi Tenggara","Kabupaten Buton, Sulawesi Tenggara",SULAWESI TENGGARA,,Indonesia,,,,-5.6451989,122.7849074,https://maps.google.com/?cid=0x0:0x4c8b418fdc724840,
perumahan,Biro Jasa Penyewaan Kondominium,"Lepeka, Beloka","FP4V+49F, RT.Katolemando/RW.Katolemando, Katolemando, Sandang Pangan, Kec. Sampolawa, Kabupaten Buton, Sulawesi Tenggara 93753","RT.Katolemando/RW.Katolemando, Katolemando, Sandang Pangan, Kec. Sampolawa, Kabupaten Buton",SULAWESI TENGGARA,93753.0,Indonesia,,,,-5.5446803,122.7434214,https://maps.google.com/?cid=0x0:0x3607cfe2337aa6f1,
perumahan,Komplek perumahan,Lrg. Kipi Tira Buton Selatan,"Lorong Kipi, Dusun Kancura, Tira, Kec. Sampolawa, Kabupaten Buton, Sulawesi Tenggara 93753","Dusun Kancura, Tira, Kec. Sampolawa, Kabupaten Buton",SULAWESI TENGGARA,93753.0,Indonesia,,,,-5.650133,122.7157035,https://maps.google.com/?cid=0x0:0xe7a4ed457ae3c6b3,
perumahan,Kompleks Kondominium,Lawa,"9Q3M+WXF, Gaya Baru, Kec. Lapandewa, Kabupaten Buton, Sulawesi Tenggara","Kabupaten Buton, Sulawesi Tenggara",SULAWESI TENGGARA,,Indonesia,,,,-5.6451989,122.7849074,https://maps.google.com/?cid=0x0:0x6312327e586a043e,
perumahan,Kantor Perusahaan,KAMPOENG LAMA AWAINOELOE,"CRMC+JM, Wabula, Kec. Wabula, Kabupaten Buton, Sulawesi Tenggara","Kabupaten Buton, Sulawesi Tenggara",SULAWESI TENGGARA,,Indonesia,,,,-5.5659463,122.8217099,https://maps.google.com/?cid=0x0:0xd985077df1e056ca,
perumahan,Komplek perumahan,Rumah Dhea,"CP9M+2PG, Gunung Sejuk, Kec. Sampolawa, Kabupaten Buton, Sulawesi Tenggara","Kabupaten Buton, Sulawesi Tenggara",SULAWESI TENGGARA,,Indonesia,,,,-5.5824378,122.7343351,https://maps.google.com/?cid=0x0:0x154cb703e5ba3fb2,
perumahan,Pembangunan Perumahan,Rumah La Ria,"9Q3M+WXF, Gaya Baru, Kec. Lapandewa, Kabupaten Buton, Sulawesi Tenggara","Kabupaten Buton, Sulawesi Tenggara",SULAWESI TENGGARA,,Indonesia,,,,-5.6451989,122.7849074,https://maps.google.com/?cid=0x0:0x40a07bcd2b0b9f75,
perumahan,perumahan,Sulawesi Tenggara 93753,"Kabupaten Buton, Sulawesi Tenggara","Kabupaten Buton, Sulawesi Tenggara",SULAWESI TENGGARA,,Indonesia,,,,-5.5916275,122.7858791,https://maps.google.com/?cid=0x0:0x5d5b6b7c1f0a9413,
perumahan,Komplek perumahan,Rumah fily,"CPGV+29F, Gn. Sejuk, Kec. Sampolawa, Kabupaten Buton, Sulawesi Tenggara 93753","Gn. Sejuk, Kec. Sampolawa, Kabupaten Buton",SULAWESI TENGGARA,93753.0,Indonesia,,,,-5.5749473,122.7434306,https://maps.google.com/?cid=0x0:0xdcb76bca36ee4c5e,
perumahan,perumahan,Rumah snjni,"8QR7+W9H, Gaya Baru, Kec. Lapandewa, Kabupaten Buton, Sulawesi Tenggara 93753","Gaya Baru, Kec. Lapandewa, Kabupaten Buton",SULAWESI TENGGARA,93753.0,Indonesia,,,,-5.657981,122.763923,https://maps.google.com/?cid=0x0:0x7758e17053bc3b1a,
perumahan,Komplek perumahan,Amarampo Home,"FPPW+7X8, Sandang Pangan, Kec. Sampolawa, Kabupaten Buton, Sulawesi Tenggara","Kabupaten Buton, Sulawesi Tenggara",SULAWESI TENGGARA,,Indonesia,,,,-5.5143374,122.747452,https://maps.google.com/?cid=0x0:0x5f514000093588a1,
perumahan,Komplek perumahan,Kampung Lawara,"9M4V+WGG, Katilombu, Kec. Sampolawa, Kabupaten Buton, Sulawesi Tenggara","Kabupaten Buton, Sulawesi Tenggara",SULAWESI TENGGARA,,Indonesia,,,,-5.6426979,122.6938354,https://maps.google.com/?cid=0x0:0xb09595ba3ce31c6b,
perumahan,Komplek perumahan,Rumah ningsi,"8PX8+F3J, Tira, Kec. Sampolawa, Kabupaten Buton, Sulawesi Tenggara","Kabupaten Buton, Sulawesi Tenggara",SULAWESI TENGGARA,,Indonesia,,,,-5.6512837,122.7151277,https://maps.google.com/?cid=0x0:0x2c82662f80453695,
perumahan,Komplek perumahan,Lrg. Kipi Tira Buton Selatan,"Lorong Kipi, Dusun Kancura, Tira, Kec. Sampolawa, Kabupaten Buton, Sulawesi Tenggara 93753","Dusun Kancura, Tira, Kec. Sampolawa, Kabupaten Buton",SULAWESI TENGGARA,93753.0,Indonesia,,,,-5.650133,122.7157035,https://maps.google.com/?cid=0x0:0xe7a4ed457ae3c6b3,
perumahan,Komplek perumahan,RUMAH FIR,"CPCR+46X, Lipumangau, Kec. Sampolawa, Kabupaten Buton, Sulawesi Tenggara 93753","Lipumangau, Kec. Sampolawa, Kabupaten Buton",SULAWESI TENGGARA,93753.0,Indonesia,,,,-5.5801632,122.7402137,https://maps.google.com/?cid=0x0:0x15f6bb97ffeac578,
perumahan,Komplek perumahan,Rumah Nadiamu,"CP9Q+MCQ, Gn. Sejuk, Kec. Sampolawa, Kabupaten Buton, Sulawesi Tenggara 93753","Gn. Sejuk, Kec. Sampolawa, Kabupaten Buton",SULAWESI TENGGARA,93753.0,Indonesia,,,,-5.5806811,122.7386357,https://maps.google.com/?cid=0x0:0xe37abc8a74b3f9d7,
perumahan,Balai Pertemuan Desa,Desa Tira,"9P28+PM9, Tira, Kec. Sampolawa, Kabupaten Buton, Sulawesi Tenggara 93753","Tira, Kec. Sampolawa, Kabupaten Buton",SULAWESI TENGGARA,93753.0,Indonesia,,,,-5.6482081,122.7167303,https://maps.google.com/?cid=0x0:0x97976a16c4e9a736,
perumahan,Komplek perumahan,Rumah Syinta,"CPFV+J79, Gn. Sejuk, Kec. Sampolawa, Kabupaten Buton, Sulawesi Tenggara 93753","Gn. Sejuk, Kec. Sampolawa, Kabupaten Buton",SULAWESI TENGGARA,93753.0,Indonesia,,,,-5.5759604,122.7432388,https://maps.google.com/?cid=0x0:0x8990fea4ac7828af,
perumahan,Komplek perumahan,Rumah Opsir,"CP9M+49J, Lipumangau, Kec. Sampolawa, Kabupaten Buton, Sulawesi Tenggara 93753","Lipumangau, Kec. Sampolawa, Kabupaten Buton",SULAWESI TENGGARA,93753.0,Indonesia,,,,-5.5826349,122.7350417,https://maps.google.com/?cid=0x0:0x3f195bcc2be4b791,
perumahan,Komplek perumahan,rumah auraa,"Jl. Korpri No.1, Jaya Bakti, Kec. Sampolawa, Kabupaten Buton, Sulawesi Tenggara 93753","Jaya Bakti, Kec. Sampolawa, Kabupaten Buton",SULAWESI TENGGARA,93753.0,Indonesia,,,,-5.6261045,122.7034765,https://maps.google.com/?cid=0x0:0xd59f8448859df9ac,
perumahan,Komplek perumahan,Rumah Dhea,"CP9M+2PG, Gunung Sejuk, Kec. Sampolawa, Kabupaten Buton, Sulawesi Tenggara","Kabupaten Buton, Sulawesi Tenggara",SULAWESI TENGGARA,,Indonesia,,,,-5.5824378,122.7343351,https://maps.google.com/?cid=0x0:0x154cb703e5ba3fb2,
perumahan,Komplek perumahan,Rumah SSS,"8P97+MMG, Bahari, Kec. Sampolawa, Kabupaten Buton, Sulawesi Tenggara 93753","Bahari, Kec. Sampolawa, Kabupaten Buton",SULAWESI TENGGARA,93753.0,Indonesia,,,,-5.6808011,122.7141965,https://maps.google.com/?cid=0x0:0xb52c21a83ddb14dc,
perumahan,perumahan,LUTFIAH,"9P92+GFW, lingkungan makolona, Jaya Bakti, Kec. Sampolawa, Kabupaten Buton, Sulawesi Tenggara","Kabupaten Buton, Sulawesi Tenggara",SULAWESI TENGGARA,,Indonesia,,,,-5.6311317,122.7011931,https://maps.google.com/?cid=0x0:0x8d0c9ff4c89f47d2,
perumahan,Biro Jasa Penyewaan Kondominium,"Lepeka, Beloka","FP4V+49F, RT.Katolemando/RW.Katolemando, Katolemando, Sandang Pangan, Kec. Sampolawa, Kabupaten Buton, Sulawesi Tenggara 93753","RT.Katolemando/RW.Katolemando, Katolemando, Sandang Pangan, Kec. Sampolawa, Kabupaten Buton",SULAWESI TENGGARA,93753.0,Indonesia,,,,-5.5446803,122.7434214,https://maps.google.com/?cid=0x0:0x3607cfe2337aa6f1,
perumahan,Komplek perumahan,RumahWaldanIzanNasya,"Jl. Korpri No.1, Jaya Bakti, Kec. Sampolawa, Kabupaten Buton, Sulawesi Tenggara 93753","Jaya Bakti, Kec. Sampolawa, Kabupaten Buton",SULAWESI TENGGARA,93753.0,Indonesia,,,,-5.6272943,122.7033186,https://maps.google.com/?cid=0x0:0xaea1ce4e0758acb8,
perumahan,Komplek perumahan,Kampung KONDE,"9M9W+PHW, Makolona, Jaya Bakti, Kec. Sampolawa, Kabupaten Buton, Sulawesi Tenggara 93753","Makolona, Jaya Bakti, Kec. Sampolawa, Kabupaten Buton",SULAWESI TENGGARA,93753.0,Indonesia,,,,-5.6306369,122.6964384,https://maps.google.com/?cid=0x0:0x5ce639731b0aa3fe,
perumahan,Rumah Kayu,Rumah Parabela Saumolewa,"9PX2+CFG, Todombulu, Kec. Sampolawa, Kabupaten Buton, Sulawesi Tenggara 93753","Todombulu, Kec. Sampolawa, Kabupaten Buton",SULAWESI TENGGARA,93753.0,Indonesia,,,,-5.6014255,122.7011951,https://maps.google.com/?cid=0x0:0xbcbc81fe1f2162eb,
perumahan,Komplek perumahan,Katolemando,"FP4V+58V, RT.Katolemando/RW.Katolemando, Katolemando, Sandang Pangan, Kec. Sampolawa, Kabupaten Buton, Sulawesi Tenggara 93753","RT.Katolemando/RW.Katolemando, Katolemando, Sandang Pangan, Kec. Sampolawa, Kabupaten Buton",SULAWESI TENGGARA,93753.0,Indonesia,,,,-5.5445227,122.7433061,https://maps.google.com/?cid=0x0:0x28110841a5f89b91,
perumahan,Komplek perumahan,Rumah Bpk. La Liy,"9P28+CGC, Tira, Kec. Sampolawa, Kabupaten Buton, Sulawesi Tenggara 93753","Tira, Kec. Sampolawa, Kabupaten Buton",SULAWESI TENGGARA,93753.0,Indonesia,,,,-5.6490279,122.7165097,https://maps.google.com/?cid=0x0:0xd3e3f788cee1919c,
perumahan,Komplek perumahan,Pagar jaya,"9P4P+628 dusun bala-bala, Kompleks pagar jaya, Tira, Kec. Sampolawa, Kabupaten Buton, Sulawesi Tenggara 93753","Kompleks pagar jaya, Tira, Kec. Sampolawa, Kabupaten Buton",SULAWESI TENGGARA,93753.0,Indonesia,,,,-5.6444638,122.7350771,https://maps.google.com/?cid=0x0:0xb05ee522253133eb,
perumahan,Komplek perumahan,Rumah nhysma,"9P28+2C3, Tira, Kec. Sampolawa, Kabupaten Buton, Sulawesi Tenggara 93753","Tira, Kec. Sampolawa, Kabupaten Buton",SULAWESI TENGGARA,93753.0,Indonesia,,,,-5.6504977,122.7160134,https://maps.google.com/?cid=0x0:0x3da1d4f9c1fe2abe,
perumahan,Toko umum,Kios mama gafur,"9PQC+8M5, Kp. Lagundi kelurahan, Jaya Bakti, Kec. Sampolawa, Kabupaten Buton, Sulawesi Tenggara 93753","Kp. Lagundi kelurahan, Jaya Bakti, Kec. Sampolawa, Kabupaten Buton",SULAWESI TENGGARA,93753.0,Indonesia,,,,-5.6117268,122.7217308,https://maps.google.com/?cid=0x0:0x50d9ab440d1cc62,
perumahan,Kantor Pemerintah,Desa Gaya Baru Kec. Lapandewa Kab. Buton Selatan,"8QR8+57G, Unnamed Road, Gaya Baru, Kec. Lapandewa, Kabupaten Buton, Sulawesi Tenggara 93753","Unnamed Road, Gaya Baru, Kec. Lapandewa, Kabupaten Buton",SULAWESI TENGGARA,93753.0,Indonesia,81267176038.0,,,-5.6595628,122.7656876,https://maps.google.com/?cid=0x0:0x7dbba0cb515406c8,
perumahan,perumahan,house of memories,"CP39+3JW, Jl. Poros Batauga, Todombulu, Kec. Sampolawa, Kabupaten Buton, Sulawesi Tenggara 93753","Jl. Poros Batauga, Todombulu, Kec. Sampolawa, Kabupaten Buton",SULAWESI TENGGARA,93753.0,Indonesia,,,,-5.596887,122.719365,https://maps.google.com/?cid=0x0:0xe4b96749f52a4705,
perumahan,perumahan,Kec. Siompu,"Kabupaten Buton, Sulawesi Tenggara","Kabupaten Buton, Sulawesi Tenggara",SULAWESI TENGGARA,,Indonesia,,,,-5.6304618,122.5254693,https://maps.google.com/?cid=0x0:0x2718691e607a701,
perumahan,Komplek perumahan,siompu,"8GXH+QG3, Wakinamboro, Kec. Siompu, Kabupaten Buton, Sulawesi Tenggara 93752","Wakinamboro, Kec. Siompu, Kabupaten Buton",SULAWESI TENGGARA,93752.0,Indonesia,,,,-5.6506164,122.5287884,https://maps.google.com/?cid=0x0:0x9c9b8935d6e3ad37,
perumahan,perumahan,Rumah Iniga,"8FCC+4RP, Jl. Kabawo, Watuampara, Kec. Siompu Bar., Kabupaten Buton, Sulawesi Tenggara 93752","Jl. Kabawo, Watuampara, Kec. Siompu Bar., Kabupaten Buton",SULAWESI TENGGARA,93752.0,Indonesia,,,,-5.6788078,122.4719724,https://maps.google.com/?cid=0x0:0x24b174bb4a9300dd,
perumahan,Pembangunan Perumahan,Rumah pusu / tempat pusu,"8GH3+6X6, Biwinapada, Kec. Siompu, Kabupaten Buton, Sulawesi Tenggara","Kabupaten Buton, Sulawesi Tenggara",SULAWESI TENGGARA,,Indonesia,,,,-5.671964,122.5048969,https://maps.google.com/?cid=0x0:0x8495e7c51f679513,
perumahan,Pasar,Pasar,"9GCG+662, Tongali, Kec. Siompu, Kabupaten Buton, Sulawesi Tenggara 93752","Tongali, Kec. Siompu, Kabupaten Buton",SULAWESI TENGGARA,93752.0,Indonesia,,,,-5.6294604,122.5255361,https://maps.google.com/?cid=0x0:0x945acde5b33cbfb2,
perumahan,,kebun kacang siompu tb,"9G7Q+46, Karae, Kec. Siompu, Kabupaten Buton, Sulawesi Tenggara","Kabupaten Buton, Sulawesi Tenggara",SULAWESI TENGGARA,,Indonesia,,,,-5.6371686,122.5380486,https://maps.google.com/?cid=0x0:0xe0305a99ca083801,
perumahan,Komplek perumahan,Mitra kokar,"9H42+Q97, Unnamed Road, Lontoi, Kec. Siompu, Kabupaten Buton, Sulawesi Tenggara 93752","Unnamed Road, Lontoi, Kec. Siompu, Kabupaten Buton",SULAWESI TENGGARA,93752.0,Indonesia,,,,-5.6430893,122.5509258,https://maps.google.com/?cid=0x0:0xb68acb608df9df3b,
perumahan,Komplek perumahan,Kompleks simpang empat,"8FFF+4C9, Watuampara, Kec. Siompu Bar., Kabupaten Buton, Sulawesi Tenggara 93752","Watuampara, Kec. Siompu Bar., Kabupaten Buton",SULAWESI TENGGARA,93752.0,Indonesia,,,,-5.6772385,122.4736345,https://maps.google.com/?cid=0x0:0x1445f50fd36aafd8,
perumahan,Pembangunan Perumahan,Oke,"8HQ3+3Q6, Unnamed Road, Kaimbulawa, Kec. Siompu, Kabupaten Buton, Sulawesi Tenggara 93752","Unnamed Road, Kaimbulawa, Kec. Siompu, Kabupaten Buton",SULAWESI TENGGARA,93752.0,Indonesia,,,,-5.6623325,122.5543848,https://maps.google.com/?cid=0x0:0x6a2eaa0f3891fd7d,
perumahan,perumahan,Pondok Mama tua,"8FGH+M3J Bar, Watuampara, Kec. Siompu Bar., Kabupaten Buton, Sulawesi Tenggara 93752","Watuampara, Kec. Siompu Bar., Kabupaten Buton",SULAWESI TENGGARA,93752.0,Indonesia,,,,-5.6739702,122.4767561,https://maps.google.com/?cid=0x0:0x62aec211d644d952,
perumahan,Perumahan,Rumah Dix,"9GCV+4QQ, Karae, Kec. Siompu, Kabupaten Buton, Sulawesi Tenggara 93752","Karae, Kec. Siompu, Kabupaten Buton",SULAWESI TENGGARA,93752.0,Indonesia,,,,-5.6296669,122.5444915,https://maps.google.com/?cid=0x0:0x162ee65640ec3807,
perumahan,Komplek perumahan,Rumah Guru Towua (Mahmud Tongku),"8G9G+MGP, Kaimbulawa, Kec. Siompu, Kabupaten Buton, Sulawesi Tenggara 93752","Kaimbulawa, Kec. Siompu, Kabupaten Buton",SULAWESI TENGGARA,93752.0,Indonesia,82347142718.0,,,-5.680782,122.5263417,https://maps.google.com/?cid=0x0:0x4e131b8bed8cac2d,
perumahan,Komplek perumahan,Ibu Ros,"8GP6+485, Biwinapada, Kec. Siompu, Kabupaten Buton, Sulawesi Tenggara 93752","Biwinapada, Kec. Siompu, Kabupaten Buton",SULAWESI TENGGARA,93752.0,Indonesia,,,,-5.6644199,122.5110699,https://maps.google.com/?cid=0x0:0x54f8450157595f12,
perumahan,Pembangunan Perumahan,Lukman,"8GM6+VJ6, Biwinapada, Kec. Siompu, Kabupaten Buton, Sulawesi Tenggara 93752","Biwinapada, Kec. Siompu, Kabupaten Buton",SULAWESI TENGGARA,93752.0,Indonesia,,,,-5.6653381,122.5115091,https://maps.google.com/?cid=0x0:0x881000c5ee454af9,
perumahan,Pembangunan Perumahan,FinCes.,"8GQ5+5WW, Nggulanggula, Kec. Siompu, Kabupaten Buton, Sulawesi Tenggara 93752","Nggulanggula, Kec. Siompu, Kabupaten Buton",SULAWESI TENGGARA,93752.0,Indonesia,,,,-5.6620513,122.5098581,https://maps.google.com/?cid=0x0:0x9837102d4c4fe562,
perumahan,Komplek perumahan,Rumah uceni,"9G29+W9W, Batuawu, Kec. Siompu, Kabupaten Buton, Sulawesi Tenggara 93752","Batuawu, Kec. Siompu, Kabupaten Buton",SULAWESI TENGGARA,93752.0,Indonesia,,,,-5.6485688,122.5185372,https://maps.google.com/?cid=0x0:0xc93bc4444db3be0,
perumahan,Komplek perumahan,Dedi'S Home,"8GH5+VCQ, Biwinapada, Kec. Siompu, Kabupaten Buton, Sulawesi Tenggara 93752","Biwinapada, Kec. Siompu, Kabupaten Buton",SULAWESI TENGGARA,93752.0,Indonesia,,,,-5.6702829,122.5085999,https://maps.google.com/?cid=0x0:0xd0605665f7cf7245,
perumahan,Komplek perumahan,Rmh jumrin,"8HM3+XPQ, Lontoi, Kec. Siompu, Kabupaten Buton, Sulawesi Tenggara","Kabupaten Buton, Sulawesi Tenggara",SULAWESI TENGGARA,,Indonesia,,,,-5.6650401,122.5543701,https://maps.google.com/?cid=0x0:0x2d7c6f31d08b69f4,
perumahan,Komplek perumahan,Haris,"8HQ3+3Q6, Kaimbulawa, Kec. Siompu, Kabupaten Buton, Sulawesi Tenggara 93752","Kaimbulawa, Kec. Siompu, Kabupaten Buton",SULAWESI TENGGARA,93752.0,Indonesia,,,,-5.6622616,122.5549837,https://maps.google.com/?cid=0x0:0xa31cc1d97f995d7e,
perumahan,Komplek perumahan,FAMILY Dhudin,"8HW4+254, Lontoi, Kec. Siompu, Kabupaten Buton, Sulawesi Tenggara 93752","Lontoi, Kec. Siompu, Kabupaten Buton",SULAWESI TENGGARA,93752.0,Indonesia,,,,-5.6549632,122.5554108,https://maps.google.com/?cid=0x0:0xaad539781de752f3,
perumahan,Komplek perumahan,Rumah mama Ayu,"9G27+47J, Batuawu, Kec. Siompu, Kabupaten Buton, Sulawesi Tenggara","Kabupaten Buton, Sulawesi Tenggara",SULAWESI TENGGARA,,Indonesia,,,,-5.6506184,122.5139694,https://maps.google.com/?cid=0x0:0xb7919de0d803d6e8,
perumahan,Komplek perumahan,Rumah Nyutir,"8GX8+876, Batuawu, Kec. Siompu, Kabupaten Buton, Sulawesi Tenggara","Kabupaten Buton, Sulawesi Tenggara",SULAWESI TENGGARA,,Indonesia,,,,-5.6517068,122.5156494,https://maps.google.com/?cid=0x0:0x91fcc5fb030cdc2c,
perumahan,Komplek perumahan,Rumah Sahdan,"8GV6+CC6, Wakinamboro, Kec. Siompu, Kabupaten Buton, Sulawesi Tenggara","Kabupaten Buton, Sulawesi Tenggara",SULAWESI TENGGARA,,Indonesia,,,,-5.6564699,122.5110246,https://maps.google.com/?cid=0x0:0x5bc9808e86700aaf,
perumahan,Komplek perumahan,DHARE,"8F99+5RR, Lalole, Kec. Siompu Bar., Kabupaten Buton, Sulawesi Tenggara 93752","Lalole, Kec. Siompu Bar., Kabupaten Buton",SULAWESI TENGGARA,93752.0,Indonesia,,,,-5.6810817,122.469265,https://maps.google.com/?cid=0x0:0x858e0ea336c83dbb,
perumahan,perumahan,Kec. Siompu Bar.,"Kabupaten Buton, Sulawesi Tenggara","Kabupaten Buton, Sulawesi Tenggara",SULAWESI TENGGARA,,Indonesia,,,,-5.6899378,122.4818486,https://maps.google.com/?cid=0x0:0xdc7d5a3172232e78,
perumahan,Komplek perumahan,Kompleks simpang empat,"8FFF+4C9, Watuampara, Kec. Siompu Bar., Kabupaten Buton, Sulawesi Tenggara 93752","Watuampara, Kec. Siompu Bar., Kabupaten Buton",SULAWESI TENGGARA,93752.0,Indonesia,,,,-5.6772385,122.4736345,https://maps.google.com/?cid=0x0:0x1445f50fd36aafd8,
perumahan,perumahan,Rumah Iniga,"8FCC+4RP, Jl. Kabawo, Watuampara, Kec. Siompu Bar., Kabupaten Buton, Sulawesi Tenggara 93752","Jl. Kabawo, Watuampara, Kec. Siompu Bar., Kabupaten Buton",SULAWESI TENGGARA,93752.0,Indonesia,,,,-5.6788078,122.4719724,https://maps.google.com/?cid=0x0:0x24b174bb4a9300dd,
perumahan,Komplek perumahan,DHARE,"8F99+5RR, Lalole, Kec. Siompu Bar., Kabupaten Buton, Sulawesi Tenggara 93752","Lalole, Kec. Siompu Bar., Kabupaten Buton",SULAWESI TENGGARA,93752.0,Indonesia,,,,-5.6810817,122.469265,https://maps.google.com/?cid=0x0:0x858e0ea336c83dbb,
perumahan,Komplek perumahan,Rumah baim,"8FCF+544, Watuampara, Kec. Siompu Bar., Kabupaten Buton, Sulawesi Tenggara 93752","Watuampara, Kec. Siompu Bar., Kabupaten Buton",SULAWESI TENGGARA,93752.0,Indonesia,,,,-5.679096,122.472747,https://maps.google.com/?cid=0x0:0xd38871faf7e52146,
perumahan,Komplek perumahan,Rumah Alimin.K,"8GJ7+C78, Biwinapada, Kec. Siompu, Kabupaten Buton, Sulawesi Tenggara 93752","Biwinapada, Kec. Siompu, Kabupaten Buton",SULAWESI TENGGARA,93752.0,Indonesia,,,,-5.668516,122.513102,https://maps.google.com/?cid=0x0:0xe87e36393d7f3ee3,
perumahan,Komplek perumahan,Wifi,"8F9C+WV5, Watuampara, Kec. Siompu Bar., Kabupaten Buton, Sulawesi Tenggara","Kabupaten Buton, Sulawesi Tenggara",SULAWESI TENGGARA,,Indonesia,,,,-5.681068,122.471933,https://maps.google.com/?cid=0x0:0x6f72b1e68e79d706,
perumahan,Pembangunan Perumahan,Rumah pusu / tempat pusu,"8GH3+6X6, Biwinapada, Kec. Siompu, Kabupaten Buton, Sulawesi Tenggara","Kabupaten Buton, Sulawesi Tenggara",SULAWESI TENGGARA,,Indonesia,,,,-5.671964,122.5048969,https://maps.google.com/?cid=0x0:0x8495e7c51f679513,
perumahan,Pembangunan Perumahan,Perumahan Kesehatan,"8F6H+9GJ, Katampe, Kec. Siompu Bar., Kabupaten Buton, Sulawesi Tenggara 93752","Katampe, Kec. Siompu Bar., Kabupaten Buton",SULAWESI TENGGARA,93752.0,Indonesia,,,,-5.6890477,122.4787518,https://maps.google.com/?cid=0x0:0x6f7107b98903ddf2,
perumahan,Komplek perumahan,Rumah Novita,"8FCC+4RP, Jl. Kabawo, Watuampara, Kec. Siompu Bar., Kabupaten Buton, Sulawesi Tenggara 93752","Jl. Kabawo, Watuampara, Kec. Siompu Bar., Kabupaten Buton",SULAWESI TENGGARA,93752.0,Indonesia,,,,-5.6797917,122.4717217,https://maps.google.com/?cid=0x0:0xcbc8ed6eab38a948,
perumahan,Komplek perumahan,Bimo,"8F99+5RR, Lalole, Kec. Siompu Bar., Kabupaten Buton, Sulawesi Tenggara 93752","Lalole, Kec. Siompu Bar., Kabupaten Buton",SULAWESI TENGGARA,93752.0,Indonesia,,,,-5.6805965,122.4702403,https://maps.google.com/?cid=0x0:0x852b50f122b13298,
perumahan,Komplek perumahan,Rumah Guru Towua (Mahmud Tongku),"8G9G+MGP, Kaimbulawa, Kec. Siompu, Kabupaten Buton, Sulawesi Tenggara 93752","Kaimbulawa, Kec. Siompu, Kabupaten Buton",SULAWESI TENGGARA,93752.0,Indonesia,82347142718.0,,,-5.680782,122.5263417,https://maps.google.com/?cid=0x0:0x4e131b8bed8cac2d,
perumahan,Komplek perumahan,Rumah Hasim,"8GG4+M3J, Lalole, Kec. Siompu Bar., Kabupaten Buton, Sulawesi Tenggara 93752","Lalole, Kec. Siompu Bar., Kabupaten Buton",SULAWESI TENGGARA,93752.0,Indonesia,,,,-5.6732852,122.5052403,https://maps.google.com/?cid=0x0:0x83ac6ab6b3addaf7,
perumahan,Komplek perumahan,Rumah azmin,"8F7G+2FJ, Katampe, Kec. Siompu Bar., Kabupaten Buton, Sulawesi Tenggara 93752","Katampe, Kec. Siompu Bar., Kabupaten Buton",SULAWESI TENGGARA,93752.0,Indonesia,,,,-5.688038,122.476295,https://maps.google.com/?cid=0x0:0x67f6456c0b9e2ee2,
perumahan,Komplek perumahan,Rumah nova,"8F6H+7GF, 8F6H+9GJMolonaKec, Kec. Siompu Bar., Kabupaten Buton, Sulawesi Tenggara 93752","8F6H+9GJMolonaKec, Kec. Siompu Bar., Kabupaten Buton",SULAWESI TENGGARA,93752.0,Indonesia,,,,-5.6893101,122.4787888,https://maps.google.com/?cid=0x0:0x9c00ff73f13813f4,
perumahan,Komplek perumahan,Rumah tisa,"8F8C+9RF, Lalole, Kec. Siompu Bar., Kabupaten Buton, Sulawesi Tenggara 93752","Lalole, Kec. Siompu Bar., Kabupaten Buton",SULAWESI TENGGARA,93752.0,Indonesia,,,,-5.6840625,122.4720469,https://maps.google.com/?cid=0x0:0x5c17ecfee0d395ee,
perumahan,Komplek perumahan,RUMAH AFRIZAL,"8F6G+565, Katampe, Kec. Siompu Bar., Kabupaten Buton, Sulawesi Tenggara","Kabupaten Buton, Sulawesi Tenggara",SULAWESI TENGGARA,,Indonesia,,,,-5.6896121,122.475598,https://maps.google.com/?cid=0x0:0x4f1c72b0da28d68f,
perumahan,Komplek perumahan,Katampe,"8F6F+MX7, Katampe, Kec. Siompu Bar., Kabupaten Buton, Sulawesi Tenggara","Kabupaten Buton, Sulawesi Tenggara",SULAWESI TENGGARA,,Indonesia,,,,-5.6883298,122.4749346,https://maps.google.com/?cid=0x0:0xdb1402ac117c86f2,
perumahan,perumahan,Rumah elma maulisa,"8F7G+87W, Lalole, Kec. Siompu Bar., Kabupaten Buton, Sulawesi Tenggara 93752","Lalole, Kec. Siompu Bar., Kabupaten Buton",SULAWESI TENGGARA,93752.0,Indonesia,,,,-5.6859849,122.4757579,https://maps.google.com/?cid=0x0:0x14365370e2b4a7dc,
perumahan,Komplek perumahan,rumahnya Bilah,"8F6H+95G, Katampe, Kec. Siompu Bar., Kabupaten Buton, Sulawesi Tenggara 93752","Katampe, Kec. Siompu Bar., Kabupaten Buton",SULAWESI TENGGARA,93752.0,Indonesia,,,,-5.6890679,122.4779419,https://maps.google.com/?cid=0x0:0x2df19c474df894cd,
perumahan,Komplek perumahan,Lalole,"8F6J+2PH, Molona, Kec. Siompu Bar., Kabupaten Buton, Sulawesi Tenggara","Kabupaten Buton, Sulawesi Tenggara",SULAWESI TENGGARA,,Indonesia,,,,-5.6899378,122.4818486,https://maps.google.com/?cid=0x0:0x5834482f5bc083f4,
perumahan,Komplek perumahan,Dedi'S Home,"8GH5+VCQ, Biwinapada, Kec. Siompu, Kabupaten Buton, Sulawesi Tenggara 93752","Biwinapada, Kec. Siompu, Kabupaten Buton",SULAWESI TENGGARA,93752.0,Indonesia,,,,-5.6702829,122.5085999,https://maps.google.com/?cid=0x0:0xd0605665f7cf7245,
perumahan,Komplek perumahan,Tompa(Watuampara ujung),"8FFF+4C9, Watuampara, Kec. Siompu Bar., Kabupaten Buton, Sulawesi Tenggara 93752","Watuampara, Kec. Siompu Bar., Kabupaten Buton",SULAWESI TENGGARA,93752.0,Indonesia,,,,-5.6772035,122.4736493,https://maps.google.com/?cid=0x0:0x42ed3f8a216b1a93,
perumahan,Komplek perumahan,RUMAH ASMET,"8F8C+9RF, Lalole, Kec. Siompu Bar., Kabupaten Buton, Sulawesi Tenggara 93752","Lalole, Kec. Siompu Bar., Kabupaten Buton",SULAWESI TENGGARA,93752.0,Indonesia,,,,-5.6840625,122.4720469,https://maps.google.com/?cid=0x0:0x2ce304df4e1bd54e,
