Category,Real Category,Business Name,Address,City,State,Postal Code,Country,Phone,Latitude,Longitude,Map Link
toko bangunan,toko bangunan,Maluku Utara,,Maluku Utara,MALUKU UTARA,,Indonesia,,1.5709993,127.8087693,https://maps.google.com/?cid=0x0:0x1030bfbcaf71ac0
toko bangunan,Toko Bahan Bangunan,TOKO ELDY BANGUNAN,"Bobong, Kec. Taliabu Bar., Pulau Taliabu, Maluku Utara","Pulau Taliabu, Maluku Utara",MALUKU UTARA,,Indonesia,85342270869.0,-1.942625,124.381349,https://maps.google.com/?cid=0x0:0xaf82dabb011de311
toko bangunan,Toko Bahan Bangunan,TOKO ANGGI,"29XM+PF9, Wayo, Kec. Taliabu Bar., Pulau Taliabu, Maluku Utara","Pulau Taliabu, Maluku Utara",MALUKU UTARA,,Indonesia,82195572338.0,-1.9510492,124.3838841,https://maps.google.com/?cid=0x0:0x4020766d2f703676
toko bangunan,Toko Bahan Bangunan,Toko Mitra Bangunan,"Jl. Pahlawan Revolusi No.3, Muhajirin, Kec. Ternate Tengah, Kota Ternate, Maluku Utara 97721","Muhajirin, Kec. Ternate Tengah, Kota Ternate",MALUKU UTARA,97721.0,Indonesia,8124217777.0,0.7863051,127.3886452,https://maps.google.com/?cid=0x0:0x182c1f07e66842a
toko bangunan,Toko Swalayan,intisari store,"Jl. Ps. Inpres Bastiong, Bastiong Talangame, Kec. Ternate Sel., Kota Ternate, Maluku Utara","Kota Ternate, Maluku Utara",MALUKU UTARA,,Indonesia,,0.7662427,127.3764876,https://maps.google.com/?cid=0x0:0xb5fca1232cdd4082
toko bangunan,Toko Bahan Bangunan,Toko Bangunan SENTOSA,"P266+52G O.Sasingan, Wosia, Kec. Tobelo Tengah, Kabupaten Halmahera Utara, Maluku Utara","Kabupaten Halmahera Utara, Maluku Utara",MALUKU UTARA,,Indonesia,82144648989.0,1.7104491,128.0100684,https://maps.google.com/?cid=0x0:0xe043f9c8ba78bb16
toko bangunan,Toko Bahan Bangunan,Toko.Boekit Bangunan,"3FQG+659, Acango, Kec. Jailolo, Kabupaten Halmahera Barat, Maluku Utara","Kabupaten Halmahera Barat, Maluku Utara",MALUKU UTARA,,Indonesia,85166903897.0,1.0882582,127.4754115,https://maps.google.com/?cid=0x0:0x88096a93b702388e
toko bangunan,Pasar bahan bangunan,Toko Sumber Bangunan,"P2G6+2MM, Gamsungi, Kec. Tobelo, Kabupaten Halmahera Utara, Maluku Utara","Kabupaten Halmahera Utara, Maluku Utara",MALUKU UTARA,,Indonesia,9242621455.0,1.7250967,128.0116677,https://maps.google.com/?cid=0x0:0x14835095227102f4
toko bangunan,Toko Bahan Bangunan,Toko.Timur Raya,"8VPJ+29R, Unnamed Road, Fidi Jaya, Kec. Weda, Kabupaten Halmahera Tengah, Maluku Utara","Kabupaten Halmahera Tengah, Maluku Utara",MALUKU UTARA,,Indonesia,,0.3351116,127.8809053,https://maps.google.com/?cid=0x0:0x23faf8ae84e5052a
toko bangunan,Toko Bahan Bangunan,Toko Surya Jaya - Labuha,"9FCJ+69H, Unnamed Road, Labuha, Kec. Bacan, Kabupaten Halmahera Selatan, Maluku Utara","Kabupaten Halmahera Selatan, Maluku Utara",MALUKU UTARA,,Indonesia,9272321732.0,-0.6294262,127.4809969,https://maps.google.com/?cid=0x0:0xdad7b98c88e223e3
toko bangunan,Toko Bahan Bangunan,Makmur Utama Supermarket Bahan Bangunan,"Jambula, Kec. Pulau Ternate, Kota Ternate, Maluku Utara","Kota Ternate, Maluku Utara",MALUKU UTARA,,Indonesia,8114313899.0,0.7581804,127.3220409,https://maps.google.com/?cid=0x0:0xe3a01731f7851efa
toko bangunan,Toko,Fajar bangunan,"Jalan, Hatebicara, Kec. Jailolo, Kabupaten Halmahera Barat, Maluku Utara","Kabupaten Halmahera Barat, Maluku Utara",MALUKU UTARA,,Indonesia,8971539577.0,1.0822391,127.4752556,https://maps.google.com/?cid=0x0:0xe063b30107b4c80b
toko bangunan,Toko Bahan Bangunan,Makmur Utama Supermarket Bahan Bangunan,"Jl. Yasin Gamsungi No.2 Kec. ternate tengah, Kel, Makassar Tim., Makassar Timur, Kota Ternate, Maluku Utara 97724","Kel, Makassar Tim., Makassar Timur, Kota Ternate",MALUKU UTARA,97724.0,Indonesia,8114313799.0,0.7940352,127.3876695,https://maps.google.com/?cid=0x0:0x2f492ae87bf64247
toko bangunan,Toko Bahan Bangunan,TOKO ELDY BANGUNAN,"Bobong, Kec. Taliabu Bar., Pulau Taliabu, Maluku Utara","Pulau Taliabu, Maluku Utara",MALUKU UTARA,,Indonesia,85342270869.0,-1.942625,124.381349,https://maps.google.com/?cid=0x0:0xaf82dabb011de311
toko bangunan,toko bangunan,Kec. Taliabu Bar. Laut,"Pulau Taliabu, Maluku Utara","Pulau Taliabu, Maluku Utara",MALUKU UTARA,,Indonesia,,-1.7679971,124.3713715,https://maps.google.com/?cid=0x0:0x8f7fd7f1ec130894
toko bangunan,Toko Bahan Bangunan,TOKO ANGGI,"29XM+PF9, Wayo, Kec. Taliabu Bar., Pulau Taliabu, Maluku Utara","Pulau Taliabu, Maluku Utara",MALUKU UTARA,,Indonesia,82195572338.0,-1.9510492,124.3838841,https://maps.google.com/?cid=0x0:0x4020766d2f703676
toko bangunan,toko bangunan,Kec. Lede,"Pulau Taliabu, Maluku Utara","Pulau Taliabu, Maluku Utara",MALUKU UTARA,,Indonesia,,-1.6967225,124.3724122,https://maps.google.com/?cid=0x0:0x51b823c7ef07a4ff
toko bangunan,Toko Bahan Bangunan,TOKO ELDY BANGUNAN,"Bobong, Kec. Taliabu Bar., Pulau Taliabu, Maluku Utara","Pulau Taliabu, Maluku Utara",MALUKU UTARA,,Indonesia,85342270869.0,-1.942625,124.381349,https://maps.google.com/?cid=0x0:0xaf82dabb011de311
toko bangunan,Toko Bahan Bangunan,RH,"895G+6W8, Unnamed Road, Langganu, Kec. Lede, Pulau Taliabu, Maluku Utara","Pulau Taliabu, Maluku Utara",MALUKU UTARA,,Indonesia,82347766555.0,-1.691961,124.377322,https://maps.google.com/?cid=0x0:0x9e96eb105a42ae05
toko bangunan,Grosir Perlengkapan Rumah Tangga,Toko Ledy bangunan dan sembako,"FQ5X+WHX, Seriguna, Kec. Tlk. Gelam, Kabupaten Ogan Komering Ilir, Sumatera Selatan 30673","Seriguna, Kec. Tlk. Gelam, Kabupaten Ogan Komering Ilir",MALUKU UTARA,30673.0,Indonesia,85273512189.0,-3.5401357,104.7989824,https://maps.google.com/?cid=0x0:0xacde7883050e85bc
toko bangunan,toko bangunan,Kec. Taliabu Utara,"Pulau Taliabu, Maluku Utara","Pulau Taliabu, Maluku Utara",MALUKU UTARA,,Indonesia,,-1.6577743,124.7098315,https://maps.google.com/?cid=0x0:0x2f87ca321b31898
toko bangunan,Toko Bahan Bangunan,TOKO ELDY BANGUNAN,"Bobong, Kec. Taliabu Bar., Pulau Taliabu, Maluku Utara","Pulau Taliabu, Maluku Utara",MALUKU UTARA,,Indonesia,85342270869.0,-1.942625,124.381349,https://maps.google.com/?cid=0x0:0xaf82dabb011de311
toko bangunan,Toko Bahan Bangunan,TOKO ANGGI,"29XM+PF9, Wayo, Kec. Taliabu Bar., Pulau Taliabu, Maluku Utara","Pulau Taliabu, Maluku Utara",MALUKU UTARA,,Indonesia,82195572338.0,-1.9510492,124.3838841,https://maps.google.com/?cid=0x0:0x4020766d2f703676
toko bangunan,toko bangunan,Maluku Utara,,Maluku Utara,MALUKU UTARA,,Indonesia,,1.5709993,127.8087693,https://maps.google.com/?cid=0x0:0x1030bfbcaf71ac0
toko bangunan,Toko Bahan Bangunan,TOKO ELDY BANGUNAN,"Bobong, Kec. Taliabu Bar., Pulau Taliabu, Maluku Utara","Pulau Taliabu, Maluku Utara",MALUKU UTARA,,Indonesia,85342270869.0,-1.942625,124.381349,https://maps.google.com/?cid=0x0:0xaf82dabb011de311
toko bangunan,Toko Bahan Bangunan,TOKO ANGGI,"29XM+PF9, Wayo, Kec. Taliabu Bar., Pulau Taliabu, Maluku Utara","Pulau Taliabu, Maluku Utara",MALUKU UTARA,,Indonesia,82195572338.0,-1.9510492,124.3838841,https://maps.google.com/?cid=0x0:0x4020766d2f703676
toko bangunan,Toko Bahan Bangunan,Toko.Boekit Bangunan,"3FQG+659, Acango, Kec. Jailolo, Kabupaten Halmahera Barat, Maluku Utara","Kabupaten Halmahera Barat, Maluku Utara",MALUKU UTARA,,Indonesia,85166903897.0,1.0882582,127.4754115,https://maps.google.com/?cid=0x0:0x88096a93b702388e
toko bangunan,Pasar bahan bangunan,Toko Sumber Bangunan,"P2G6+2MM, Gamsungi, Kec. Tobelo, Kabupaten Halmahera Utara, Maluku Utara","Kabupaten Halmahera Utara, Maluku Utara",MALUKU UTARA,,Indonesia,9242621455.0,1.7250967,128.0116677,https://maps.google.com/?cid=0x0:0x14835095227102f4
toko bangunan,Toko Bahan Bangunan,Toko Mitra Bangunan,"Jl. Pahlawan Revolusi No.3, Muhajirin, Kec. Ternate Tengah, Kota Ternate, Maluku Utara 97721","Muhajirin, Kec. Ternate Tengah, Kota Ternate",MALUKU UTARA,97721.0,Indonesia,8124217777.0,0.7863051,127.3886452,https://maps.google.com/?cid=0x0:0x182c1f07e66842a
toko bangunan,Toko,Toko Maba Bangunan,"M7WM+MHQ, Unnamed Road, Maba Sangaji, Kec. Kota Maba, Kabupaten Halmahera Timur, Maluku Utara","Kabupaten Halmahera Timur, Maluku Utara",MALUKU UTARA,,Indonesia,82187925434.0,0.6967101,128.2839897,https://maps.google.com/?cid=0x0:0xb5997f32a3da9b72
toko bangunan,Toko Bahan Bangunan,Makmur Utama Supermarket Bahan Bangunan,"Jambula, Kec. Pulau Ternate, Kota Ternate, Maluku Utara","Kota Ternate, Maluku Utara",MALUKU UTARA,,Indonesia,8114313899.0,0.7581804,127.3220409,https://maps.google.com/?cid=0x0:0xe3a01731f7851efa
toko bangunan,Toko Bahan Bangunan,toko bangunan ko hen,"56W9+R29, Unnamed Road, Tutuling Jaya, Kec. Wasile Tim., Kabupaten Halmahera Timur, Maluku Utara","Kabupaten Halmahera Timur, Maluku Utara",MALUKU UTARA,,Indonesia,,1.1970495,128.2176185,https://maps.google.com/?cid=0x0:0xbfcecb96ec1aeb86
toko bangunan,Toko Bahan Bangunan,Toko.Timur Raya,"8VPJ+29R, Unnamed Road, Fidi Jaya, Kec. Weda, Kabupaten Halmahera Tengah, Maluku Utara","Kabupaten Halmahera Tengah, Maluku Utara",MALUKU UTARA,,Indonesia,,0.3351116,127.8809053,https://maps.google.com/?cid=0x0:0x23faf8ae84e5052a
toko bangunan,Toko Bahan Bangunan,Toko Surya Jaya - Labuha,"9FCJ+69H, Unnamed Road, Labuha, Kec. Bacan, Kabupaten Halmahera Selatan, Maluku Utara","Kabupaten Halmahera Selatan, Maluku Utara",MALUKU UTARA,,Indonesia,9272321732.0,-0.6294262,127.4809969,https://maps.google.com/?cid=0x0:0xdad7b98c88e223e3
toko bangunan,Toko Bahan Bangunan,RH,"895G+6W8, Unnamed Road, Langganu, Kec. Lede, Pulau Taliabu, Maluku Utara","Pulau Taliabu, Maluku Utara",MALUKU UTARA,,Indonesia,82347766555.0,-1.691961,124.377322,https://maps.google.com/?cid=0x0:0x9e96eb105a42ae05
toko bangunan,Toko Bahan Bangunan,Makmur Utama Supermarket Bahan Bangunan,"Jl. Yasin Gamsungi No.2 Kec. ternate tengah, Kel, Makassar Tim., Makassar Timur, Kota Ternate, Maluku Utara 97724","Kel, Makassar Tim., Makassar Timur, Kota Ternate",MALUKU UTARA,97724.0,Indonesia,8114313799.0,0.7940352,127.3876695,https://maps.google.com/?cid=0x0:0x2f492ae87bf64247
toko bangunan,toko bangunan,Maluku Utara,,Maluku Utara,MALUKU UTARA,,Indonesia,,1.5709993,127.8087693,https://maps.google.com/?cid=0x0:0x1030bfbcaf71ac0
toko bangunan,Toko Bahan Bangunan,TOKO ELDY BANGUNAN,"Bobong, Kec. Taliabu Bar., Pulau Taliabu, Maluku Utara","Pulau Taliabu, Maluku Utara",MALUKU UTARA,,Indonesia,85342270869.0,-1.942625,124.381349,https://maps.google.com/?cid=0x0:0xaf82dabb011de311
toko bangunan,Toko Bahan Bangunan,TOKO ANGGI,"29XM+PF9, Wayo, Kec. Taliabu Bar., Pulau Taliabu, Maluku Utara","Pulau Taliabu, Maluku Utara",MALUKU UTARA,,Indonesia,82195572338.0,-1.9510492,124.3838841,https://maps.google.com/?cid=0x0:0x4020766d2f703676
toko bangunan,Pasar bahan bangunan,Toko Intisari2,"PHRH+XHX, Jl. Hijra, Galala, Oba Utara, Kota Tidore Kepulauan, Maluku Utara","Kota Tidore Kepulauan, Maluku Utara",MALUKU UTARA,,Indonesia,8124751378.0,0.7424771,127.5789924,https://maps.google.com/?cid=0x0:0x25129a2cfa046c97
toko bangunan,Pasar bahan bangunan,Toko Sumber Bangunan,"P2G6+2MM, Gamsungi, Kec. Tobelo, Kabupaten Halmahera Utara, Maluku Utara","Kabupaten Halmahera Utara, Maluku Utara",MALUKU UTARA,,Indonesia,9242621455.0,1.7250967,128.0116677,https://maps.google.com/?cid=0x0:0x14835095227102f4
toko bangunan,Toko Bahan Bangunan,toko bangunan ko hen,"56W9+R29, Unnamed Road, Tutuling Jaya, Kec. Wasile Tim., Kabupaten Halmahera Timur, Maluku Utara","Kabupaten Halmahera Timur, Maluku Utara",MALUKU UTARA,,Indonesia,,1.1970495,128.2176185,https://maps.google.com/?cid=0x0:0xbfcecb96ec1aeb86
toko bangunan,Toko Bahan Bangunan,Toko Surya Jaya - Labuha,"9FCJ+69H, Unnamed Road, Labuha, Kec. Bacan, Kabupaten Halmahera Selatan, Maluku Utara","Kabupaten Halmahera Selatan, Maluku Utara",MALUKU UTARA,,Indonesia,9272321732.0,-0.6294262,127.4809969,https://maps.google.com/?cid=0x0:0xdad7b98c88e223e3
toko bangunan,Toko,Toko Maba Bangunan,"M7WM+MHQ, Unnamed Road, Maba Sangaji, Kec. Kota Maba, Kabupaten Halmahera Timur, Maluku Utara","Kabupaten Halmahera Timur, Maluku Utara",MALUKU UTARA,,Indonesia,82187925434.0,0.6967101,128.2839897,https://maps.google.com/?cid=0x0:0xb5997f32a3da9b72
toko bangunan,Toko Bahan Bangunan,Makmur Utama Supermarket Bahan Bangunan,"Jambula, Kec. Pulau Ternate, Kota Ternate, Maluku Utara","Kota Ternate, Maluku Utara",MALUKU UTARA,,Indonesia,8114313899.0,0.7581804,127.3220409,https://maps.google.com/?cid=0x0:0xe3a01731f7851efa
toko bangunan,Toko Bahan Bangunan,Toko Sejati Bangunan,"Jalan Raya Wosia, Depan Saro Nifero, Samping Dealer Honda CV.Lion, Mahia, Kec. Tobelo, Maluku Utara 97762","Depan Saro Nifero, Samping Dealer Honda CV.Lion, Mahia, Kec. Tobelo",MALUKU UTARA,97762.0,Indonesia,82195215789.0,1.7063845,128.0084905,https://maps.google.com/?cid=0x0:0xe07acc47d25781c8
toko bangunan,Toko Bahan Bangunan,RH,"895G+6W8, Unnamed Road, Langganu, Kec. Lede, Pulau Taliabu, Maluku Utara","Pulau Taliabu, Maluku Utara",MALUKU UTARA,,Indonesia,82347766555.0,-1.691961,124.377322,https://maps.google.com/?cid=0x0:0x9e96eb105a42ae05
toko bangunan,Toko Bahan Bangunan,Toko Mitra Bangunan,"Jl. Pahlawan Revolusi No.3, Muhajirin, Kec. Ternate Tengah, Kota Ternate, Maluku Utara 97721","Muhajirin, Kec. Ternate Tengah, Kota Ternate",MALUKU UTARA,97721.0,Indonesia,8124217777.0,0.7863051,127.3886452,https://maps.google.com/?cid=0x0:0x182c1f07e66842a
toko bangunan,Toko Bahan Bangunan,Toko Bangunan SENTOSA,"P266+52G O.Sasingan, Wosia, Kec. Tobelo Tengah, Kabupaten Halmahera Utara, Maluku Utara","Kabupaten Halmahera Utara, Maluku Utara",MALUKU UTARA,,Indonesia,82144648989.0,1.7104491,128.0100684,https://maps.google.com/?cid=0x0:0xe043f9c8ba78bb16
toko bangunan,toko bangunan,Kec. Taliabu Sel.,"Pulau Taliabu, Maluku Utara","Pulau Taliabu, Maluku Utara",MALUKU UTARA,,Indonesia,,-1.9087227,124.7883682,https://maps.google.com/?cid=0x0:0x47ce8e0cf4083a24
toko bangunan,Toko Bahan Bangunan,TOKO ELDY BANGUNAN,"Bobong, Kec. Taliabu Bar., Pulau Taliabu, Maluku Utara","Pulau Taliabu, Maluku Utara",MALUKU UTARA,,Indonesia,85342270869.0,-1.942625,124.381349,https://maps.google.com/?cid=0x0:0xaf82dabb011de311
toko bangunan,Toko Bahan Bangunan,TOKO ANGGI,"29XM+PF9, Wayo, Kec. Taliabu Bar., Pulau Taliabu, Maluku Utara","Pulau Taliabu, Maluku Utara",MALUKU UTARA,,Indonesia,82195572338.0,-1.9510492,124.3838841,https://maps.google.com/?cid=0x0:0x4020766d2f703676
toko bangunan,Toko Bahan Bangunan,Toko Bangunan Lestari Baru,"Waihatu, Kec. Kairatu Bar., Kabupaten Seram Bagian Barat, Maluku","Kabupaten Seram Bagian Barat, Maluku",MALUKU UTARA,,Indonesia,82238832490.0,-3.2864381,128.3222819,https://maps.google.com/?cid=0x0:0xb14d86a65046c260
toko bangunan,Toko Bahan Bangunan,RH,"895G+6W8, Unnamed Road, Langganu, Kec. Lede, Pulau Taliabu, Maluku Utara","Pulau Taliabu, Maluku Utara",MALUKU UTARA,,Indonesia,82347766555.0,-1.691961,124.377322,https://maps.google.com/?cid=0x0:0x9e96eb105a42ae05
building materials,Toko Bahan Bangunan,TOKO ELDY BANGUNAN,"Bobong, Kec. Taliabu Bar., Pulau Taliabu, Maluku Utara","Pulau Taliabu, Maluku Utara",MALUKU UTARA,,Indonesia,85342270869.0,-1.942625,124.381349,https://maps.google.com/?cid=0x0:0xaf82dabb011de311
building materials,Toko Bahan Bangunan,TOKO ANGGI,"29XM+PF9, Wayo, Kec. Taliabu Bar., Pulau Taliabu, Maluku Utara","Pulau Taliabu, Maluku Utara",MALUKU UTARA,,Indonesia,82195572338.0,-1.9510492,124.3838841,https://maps.google.com/?cid=0x0:0x4020766d2f703676
building materials,building materials,Kec. Taliabu Bar.,"Pulau Taliabu, Maluku Utara","Pulau Taliabu, Maluku Utara",MALUKU UTARA,,Indonesia,,-1.9453067,124.3829336,https://maps.google.com/?cid=0x0:0x9b18127cb6600f97
building materials,building materials,Kec. Taliabu Bar. Laut,"Pulau Taliabu, Maluku Utara","Pulau Taliabu, Maluku Utara",MALUKU UTARA,,Indonesia,,-1.7679971,124.3713715,https://maps.google.com/?cid=0x0:0x8f7fd7f1ec130894
building materials,Toko Bahan Bangunan,TOKO ELDY BANGUNAN,"Bobong, Kec. Taliabu Bar., Pulau Taliabu, Maluku Utara","Pulau Taliabu, Maluku Utara",MALUKU UTARA,,Indonesia,85342270869.0,-1.942625,124.381349,https://maps.google.com/?cid=0x0:0xaf82dabb011de311
building materials,Toko Bahan Bangunan,RH,"895G+6W8, Unnamed Road, Langganu, Kec. Lede, Pulau Taliabu, Maluku Utara","Pulau Taliabu, Maluku Utara",MALUKU UTARA,,Indonesia,82347766555.0,-1.691961,124.377322,https://maps.google.com/?cid=0x0:0x9e96eb105a42ae05
building materials,Toko bahan makanan,SINA PENA,"69JC+RVQ, Nggele, Kec. Taliabu Bar. Laut, Pulau Taliabu, Maluku Utara","Pulau Taliabu, Maluku Utara",MALUKU UTARA,,Indonesia,,-1.767901,124.3722467,https://maps.google.com/?cid=0x0:0x62a048db3ad2137d
building materials,Pelayanan Keamanan Jalan,Muara batas,"7CP5+MFX, Langganu, Kec. Lede, Pulau Taliabu, Maluku Utara","Pulau Taliabu, Maluku Utara",MALUKU UTARA,,Indonesia,,-1.7132647,124.4087307,https://maps.google.com/?cid=0x0:0x2739151659c61548
building materials,Toko Bahan Bangunan,CV Damai sehati,"29VR+PCR, Wayo, Kec. Taliabu Bar., Kabupaten Kepulauan Sula, Maluku Utara","Kabupaten Kepulauan Sula, Maluku Utara",MALUKU UTARA,,Indonesia,,-1.9564141,124.3907834,https://maps.google.com/?cid=0x0:0x4c1ad3c70faae04
building materials,Toko Bahan Bangunan,RH,"895G+6W8, Unnamed Road, Langganu, Kec. Lede, Pulau Taliabu, Maluku Utara","Pulau Taliabu, Maluku Utara",MALUKU UTARA,,Indonesia,82347766555.0,-1.691961,124.377322,https://maps.google.com/?cid=0x0:0x9e96eb105a42ae05
building materials,building materials,Kec. Lede,"Pulau Taliabu, Maluku Utara","Pulau Taliabu, Maluku Utara",MALUKU UTARA,,Indonesia,,-1.6967225,124.3724122,https://maps.google.com/?cid=0x0:0x51b823c7ef07a4ff
building materials,Toko Bahan Bangunan,TOKO ELDY BANGUNAN,"Bobong, Kec. Taliabu Bar., Pulau Taliabu, Maluku Utara","Pulau Taliabu, Maluku Utara",MALUKU UTARA,,Indonesia,85342270869.0,-1.942625,124.381349,https://maps.google.com/?cid=0x0:0xaf82dabb011de311
building materials,Toko Bahan Bangunan,Ludeco.id,"Ruko Boston Square RK3/33 Jalan Raya Kota Wisata Ciangsana, Cibubur, Kec. Gn. Putri, Jawa Barat 16968","Cibubur, Kec. Gn. Putri",MALUKU UTARA,16968.0,Indonesia,82297729001.0,-6.3509423,106.9636618,https://maps.google.com/?cid=0x0:0x110c2d145321438f
building materials,Toko Bahan Bangunan,Indec,"Jl. Raya Ciangsana, Bojong Kulur, Kec. Gn. Putri, Kabupaten Bogor, Jawa Barat 16968","Bojong Kulur, Kec. Gn. Putri, Kabupaten Bogor",MALUKU UTARA,16968.0,Indonesia,2182428550.0,-6.3352266,106.9667355,https://maps.google.com/?cid=0x0:0xe31aaf9a573e06ef
building materials,building materials,Kec. Taliabu Utara,"Pulau Taliabu, Maluku Utara","Pulau Taliabu, Maluku Utara",MALUKU UTARA,,Indonesia,,-1.6577743,124.7098315,https://maps.google.com/?cid=0x0:0x2f87ca321b31898
building materials,Toko Bahan Bangunan,TOKO ELDY BANGUNAN,"Bobong, Kec. Taliabu Bar., Pulau Taliabu, Maluku Utara","Pulau Taliabu, Maluku Utara",MALUKU UTARA,,Indonesia,85342270869.0,-1.942625,124.381349,https://maps.google.com/?cid=0x0:0xaf82dabb011de311
building materials,Toko Bahan Bangunan,TOKO ANGGI,"29XM+PF9, Wayo, Kec. Taliabu Bar., Pulau Taliabu, Maluku Utara","Pulau Taliabu, Maluku Utara",MALUKU UTARA,,Indonesia,82195572338.0,-1.9510492,124.3838841,https://maps.google.com/?cid=0x0:0x4020766d2f703676
building materials,Perusahaan Konstruksi,PT. ADIDAYA TANGGUH,"5QFF+7J8, Pencado, Kec. Taliabu Sel., Pulau Taliabu, Maluku Utara","Pulau Taliabu, Maluku Utara",MALUKU UTARA,,Indonesia,82340843658.0,-1.8268344,124.7740793,https://maps.google.com/?cid=0x0:0x8b9bef88e23cba78
building materials,Toko Bahan Bangunan,RH,"895G+6W8, Unnamed Road, Langganu, Kec. Lede, Pulau Taliabu, Maluku Utara","Pulau Taliabu, Maluku Utara",MALUKU UTARA,,Indonesia,82347766555.0,-1.691961,124.377322,https://maps.google.com/?cid=0x0:0x9e96eb105a42ae05
building materials,building materials,Kec. Taliabu Tim.,"Pulau Taliabu, Maluku Utara","Pulau Taliabu, Maluku Utara",MALUKU UTARA,,Indonesia,,-1.7824897,125.2932285,https://maps.google.com/?cid=0x0:0x6fb215108475baa
building materials,Toko Bahan Bangunan,TOKO ELDY BANGUNAN,"Bobong, Kec. Taliabu Bar., Pulau Taliabu, Maluku Utara","Pulau Taliabu, Maluku Utara",MALUKU UTARA,,Indonesia,85342270869.0,-1.942625,124.381349,https://maps.google.com/?cid=0x0:0xaf82dabb011de311
building materials,Toko Bahan Bangunan,TOKO ANGGI,"29XM+PF9, Wayo, Kec. Taliabu Bar., Pulau Taliabu, Maluku Utara","Pulau Taliabu, Maluku Utara",MALUKU UTARA,,Indonesia,82195572338.0,-1.9510492,124.3838841,https://maps.google.com/?cid=0x0:0x4020766d2f703676
building materials,Toko Bahan Bangunan,RH,"895G+6W8, Unnamed Road, Langganu, Kec. Lede, Pulau Taliabu, Maluku Utara","Pulau Taliabu, Maluku Utara",MALUKU UTARA,,Indonesia,82347766555.0,-1.691961,124.377322,https://maps.google.com/?cid=0x0:0x9e96eb105a42ae05
building materials,building materials,Kec. Taliabu Tim. Sel.,"Pulau Taliabu, Maluku Utara","Pulau Taliabu, Maluku Utara",MALUKU UTARA,,Indonesia,,-1.8889627,125.0798626,https://maps.google.com/?cid=0x0:0xa3c2952966278c15
building materials,Toko Bahan Bangunan,TOKO ELDY BANGUNAN,"Bobong, Kec. Taliabu Bar., Pulau Taliabu, Maluku Utara","Pulau Taliabu, Maluku Utara",MALUKU UTARA,,Indonesia,85342270869.0,-1.942625,124.381349,https://maps.google.com/?cid=0x0:0xaf82dabb011de311
building materials,Toko Bahan Bangunan,TOKO ANGGI,"29XM+PF9, Wayo, Kec. Taliabu Bar., Pulau Taliabu, Maluku Utara","Pulau Taliabu, Maluku Utara",MALUKU UTARA,,Indonesia,82195572338.0,-1.9510492,124.3838841,https://maps.google.com/?cid=0x0:0x4020766d2f703676
building materials,Toko Bahan Bangunan,RH,"895G+6W8, Unnamed Road, Langganu, Kec. Lede, Pulau Taliabu, Maluku Utara","Pulau Taliabu, Maluku Utara",MALUKU UTARA,,Indonesia,82347766555.0,-1.691961,124.377322,https://maps.google.com/?cid=0x0:0x9e96eb105a42ae05
building materials,building materials,Kec. Taliabu Sel.,"Pulau Taliabu, Maluku Utara","Pulau Taliabu, Maluku Utara",MALUKU UTARA,,Indonesia,,-1.9087227,124.7883682,https://maps.google.com/?cid=0x0:0x47ce8e0cf4083a24
building materials,Toko Bahan Bangunan,TOKO ELDY BANGUNAN,"Bobong, Kec. Taliabu Bar., Pulau Taliabu, Maluku Utara","Pulau Taliabu, Maluku Utara",MALUKU UTARA,,Indonesia,85342270869.0,-1.942625,124.381349,https://maps.google.com/?cid=0x0:0xaf82dabb011de311
building materials,Toko Bahan Bangunan,TOKO ANGGI,"29XM+PF9, Wayo, Kec. Taliabu Bar., Pulau Taliabu, Maluku Utara","Pulau Taliabu, Maluku Utara",MALUKU UTARA,,Indonesia,82195572338.0,-1.9510492,124.3838841,https://maps.google.com/?cid=0x0:0x4020766d2f703676
building materials,Perusahaan Konstruksi,PT. ADIDAYA TANGGUH,"5QFF+7J8, Pencado, Kec. Taliabu Sel., Pulau Taliabu, Maluku Utara","Pulau Taliabu, Maluku Utara",MALUKU UTARA,,Indonesia,82340843658.0,-1.8268344,124.7740793,https://maps.google.com/?cid=0x0:0x8b9bef88e23cba78
building materials,Toko Bahan Bangunan,Taliabu Timber PT,"Jl. Nona Saar Sopacua No.39, RT.003, Kel Wainitu, Kec. Nusaniwe, Kota Ambon, Maluku","Kota Ambon, Maluku",MALUKU UTARA,,Indonesia,911353229.0,-3.704997,128.169989,https://maps.google.com/?cid=0x0:0x4117085aad0aaeb
building materials,Industri Percetakan,Batako Press Multi Guna Taliabu,"29QV+C4M, Wayo, Kec. Taliabu Bar., Pulau Taliabu, Maluku Utara","Pulau Taliabu, Maluku Utara",MALUKU UTARA,,Indonesia,85240052610.0,-1.961424,124.392799,https://maps.google.com/?cid=0x0:0xdb82e525574e2309
hardware store,hardware store,Maluku Utara,,Maluku Utara,MALUKU UTARA,,Indonesia,,1.5709993,127.8087693,https://maps.google.com/?cid=0x0:0x1030bfbcaf71ac0
hardware store,Toko Bahan Bangunan,TOKO ELDY BANGUNAN,"Bobong, Kec. Taliabu Bar., Pulau Taliabu, Maluku Utara","Pulau Taliabu, Maluku Utara",MALUKU UTARA,,Indonesia,85342270869.0,-1.942625,124.381349,https://maps.google.com/?cid=0x0:0xaf82dabb011de311
hardware store,Toko Bahan Bangunan,TOKO ANGGI,"29XM+PF9, Wayo, Kec. Taliabu Bar., Pulau Taliabu, Maluku Utara","Pulau Taliabu, Maluku Utara",MALUKU UTARA,,Indonesia,82195572338.0,-1.9510492,124.3838841,https://maps.google.com/?cid=0x0:0x4020766d2f703676
hardware store,hardware store,Kec. Taliabu Bar. Laut,"Pulau Taliabu, Maluku Utara","Pulau Taliabu, Maluku Utara",MALUKU UTARA,,Indonesia,,-1.7679971,124.3713715,https://maps.google.com/?cid=0x0:0x8f7fd7f1ec130894
hardware store,Toko Bahan Bangunan,TOKO ELDY BANGUNAN,"Bobong, Kec. Taliabu Bar., Pulau Taliabu, Maluku Utara","Pulau Taliabu, Maluku Utara",MALUKU UTARA,,Indonesia,85342270869.0,-1.942625,124.381349,https://maps.google.com/?cid=0x0:0xaf82dabb011de311
hardware store,Toko Bahan Bangunan,TOKO ANGGI,"29XM+PF9, Wayo, Kec. Taliabu Bar., Pulau Taliabu, Maluku Utara","Pulau Taliabu, Maluku Utara",MALUKU UTARA,,Indonesia,82195572338.0,-1.9510492,124.3838841,https://maps.google.com/?cid=0x0:0x4020766d2f703676
hardware store,Toko Bahan Bangunan,TOKO ELDY BANGUNAN,"Bobong, Kec. Taliabu Bar., Pulau Taliabu, Maluku Utara","Pulau Taliabu, Maluku Utara",MALUKU UTARA,,Indonesia,85342270869.0,-1.942625,124.381349,https://maps.google.com/?cid=0x0:0xaf82dabb011de311
hardware store,Toko Bahan Bangunan,TOKO ANGGI,"29XM+PF9, Wayo, Kec. Taliabu Bar., Pulau Taliabu, Maluku Utara","Pulau Taliabu, Maluku Utara",MALUKU UTARA,,Indonesia,82195572338.0,-1.9510492,124.3838841,https://maps.google.com/?cid=0x0:0x4020766d2f703676
hardware store,hardware store,Kec. Taliabu Utara,"Pulau Taliabu, Maluku Utara","Pulau Taliabu, Maluku Utara",MALUKU UTARA,,Indonesia,,-1.6577743,124.7098315,https://maps.google.com/?cid=0x0:0x2f87ca321b31898
hardware store,Toko Bahan Bangunan,TOKO ELDY BANGUNAN,"Bobong, Kec. Taliabu Bar., Pulau Taliabu, Maluku Utara","Pulau Taliabu, Maluku Utara",MALUKU UTARA,,Indonesia,85342270869.0,-1.942625,124.381349,https://maps.google.com/?cid=0x0:0xaf82dabb011de311
hardware store,Toko bahan makanan,SINA PENA,"69JC+RVQ, Nggele, Kec. Taliabu Bar. Laut, Pulau Taliabu, Maluku Utara","Pulau Taliabu, Maluku Utara",MALUKU UTARA,,Indonesia,,-1.767901,124.3722467,https://maps.google.com/?cid=0x0:0x62a048db3ad2137d
hardware store,hardware store,Maluku Utara,,Maluku Utara,MALUKU UTARA,,Indonesia,,1.5709993,127.8087693,https://maps.google.com/?cid=0x0:0x1030bfbcaf71ac0
hardware store,Toko Bahan Bangunan,TOKO ELDY BANGUNAN,"Bobong, Kec. Taliabu Bar., Pulau Taliabu, Maluku Utara","Pulau Taliabu, Maluku Utara",MALUKU UTARA,,Indonesia,85342270869.0,-1.942625,124.381349,https://maps.google.com/?cid=0x0:0xaf82dabb011de311
hardware store,Toko Bahan Bangunan,TOKO ANGGI,"29XM+PF9, Wayo, Kec. Taliabu Bar., Pulau Taliabu, Maluku Utara","Pulau Taliabu, Maluku Utara",MALUKU UTARA,,Indonesia,82195572338.0,-1.9510492,124.3838841,https://maps.google.com/?cid=0x0:0x4020766d2f703676
hardware store,Toko Bahan Bangunan,Toko.Timur Raya,"8VPJ+29R, Unnamed Road, Fidi Jaya, Kec. Weda, Kabupaten Halmahera Tengah, Maluku Utara","Kabupaten Halmahera Tengah, Maluku Utara",MALUKU UTARA,,Indonesia,,0.3351116,127.8809053,https://maps.google.com/?cid=0x0:0x23faf8ae84e5052a
hardware store,Kios,Kios Sepatu R3,"74X5+H4J, Jl. Pendidikan, Penu, Kec. Taliabu Tim., Pulau Taliabu, Maluku Utara","Pulau Taliabu, Maluku Utara",MALUKU UTARA,,Indonesia,,-1.701039,125.1077573,https://maps.google.com/?cid=0x0:0x1db01487a2ecfe6c
hardware store,hardware store,Kec. Taliabu Tim. Sel.,"Pulau Taliabu, Maluku Utara","Pulau Taliabu, Maluku Utara",MALUKU UTARA,,Indonesia,,-1.8889627,125.0798626,https://maps.google.com/?cid=0x0:0xa3c2952966278c15
hardware store,Toko Bahan Bangunan,TOKO ELDY BANGUNAN,"Bobong, Kec. Taliabu Bar., Pulau Taliabu, Maluku Utara","Pulau Taliabu, Maluku Utara",MALUKU UTARA,,Indonesia,85342270869.0,-1.942625,124.381349,https://maps.google.com/?cid=0x0:0xaf82dabb011de311
hardware store,Toko Bahan Bangunan,TOKO ANGGI,"29XM+PF9, Wayo, Kec. Taliabu Bar., Pulau Taliabu, Maluku Utara","Pulau Taliabu, Maluku Utara",MALUKU UTARA,,Indonesia,82195572338.0,-1.9510492,124.3838841,https://maps.google.com/?cid=0x0:0x4020766d2f703676
hardware store,Toko Bahan Bangunan,RH,"895G+6W8, Unnamed Road, Langganu, Kec. Lede, Pulau Taliabu, Maluku Utara","Pulau Taliabu, Maluku Utara",MALUKU UTARA,,Indonesia,82347766555.0,-1.691961,124.377322,https://maps.google.com/?cid=0x0:0x9e96eb105a42ae05
hardware store,hardware store,Kec. Taliabu Sel.,"Pulau Taliabu, Maluku Utara","Pulau Taliabu, Maluku Utara",MALUKU UTARA,,Indonesia,,-1.9087227,124.7883682,https://maps.google.com/?cid=0x0:0x47ce8e0cf4083a24
hardware store,Toko Bahan Bangunan,TOKO ANGGI,"29XM+PF9, Wayo, Kec. Taliabu Bar., Pulau Taliabu, Maluku Utara","Pulau Taliabu, Maluku Utara",MALUKU UTARA,,Indonesia,82195572338.0,-1.9510492,124.3838841,https://maps.google.com/?cid=0x0:0x4020766d2f703676
hardware store,Toko Bahan Bangunan,TOKO ELDY BANGUNAN,"Bobong, Kec. Taliabu Bar., Pulau Taliabu, Maluku Utara","Pulau Taliabu, Maluku Utara",MALUKU UTARA,,Indonesia,85342270869.0,-1.942625,124.381349,https://maps.google.com/?cid=0x0:0xaf82dabb011de311
supermarket bangunan,supermarket bangunan,Kec. Taliabu Bar.,"Pulau Taliabu, Maluku Utara","Pulau Taliabu, Maluku Utara",MALUKU UTARA,,Indonesia,,-1.9453067,124.3829336,https://maps.google.com/?cid=0x0:0x9b18127cb6600f97
supermarket bangunan,Toko Bahan Bangunan,TOKO ANGGI,"29XM+PF9, Wayo, Kec. Taliabu Bar., Pulau Taliabu, Maluku Utara","Pulau Taliabu, Maluku Utara",MALUKU UTARA,,Indonesia,82195572338.0,-1.9510492,124.3838841,https://maps.google.com/?cid=0x0:0x4020766d2f703676
supermarket bangunan,Toko Bahan Bangunan,TOKO ELDY BANGUNAN,"Bobong, Kec. Taliabu Bar., Pulau Taliabu, Maluku Utara","Pulau Taliabu, Maluku Utara",MALUKU UTARA,,Indonesia,85342270869.0,-1.942625,124.381349,https://maps.google.com/?cid=0x0:0xaf82dabb011de311
supermarket bangunan,supermarket bangunan,Kec. Taliabu Bar. Laut,"Pulau Taliabu, Maluku Utara","Pulau Taliabu, Maluku Utara",MALUKU UTARA,,Indonesia,,-1.7679971,124.3713715,https://maps.google.com/?cid=0x0:0x8f7fd7f1ec130894
supermarket bangunan,Toko Bahan Bangunan,TOKO ELDY BANGUNAN,"Bobong, Kec. Taliabu Bar., Pulau Taliabu, Maluku Utara","Pulau Taliabu, Maluku Utara",MALUKU UTARA,,Indonesia,85342270869.0,-1.942625,124.381349,https://maps.google.com/?cid=0x0:0xaf82dabb011de311
supermarket bangunan,Toko Bahan Bangunan,TOKO ANGGI,"29XM+PF9, Wayo, Kec. Taliabu Bar., Pulau Taliabu, Maluku Utara","Pulau Taliabu, Maluku Utara",MALUKU UTARA,,Indonesia,82195572338.0,-1.9510492,124.3838841,https://maps.google.com/?cid=0x0:0x4020766d2f703676
supermarket bangunan,Toko Bahan Bangunan,Madju Utama Supermarket Bahan Bangunan,"Jl. KH. Noer Ali, RT.003/RW.025, Kayuringin Jaya, Kec. Bekasi Sel., Kota Bks, Jawa Barat 17148","RT.003/RW.025, Kayuringin Jaya, Kec. Bekasi Sel., Kota Bks",MALUKU UTARA,17148.0,Indonesia,87780164555.0,-6.2475509,106.9792324,https://maps.google.com/?cid=0x0:0x3c4fc9f20a3df4f3
supermarket bangunan,Toko Bahan Bangunan,TOKO ELDY BANGUNAN,"Bobong, Kec. Taliabu Bar., Pulau Taliabu, Maluku Utara","Pulau Taliabu, Maluku Utara",MALUKU UTARA,,Indonesia,85342270869.0,-1.942625,124.381349,https://maps.google.com/?cid=0x0:0xaf82dabb011de311
supermarket bangunan,Toko Bahan Bangunan,TOKO ANGGI,"29XM+PF9, Wayo, Kec. Taliabu Bar., Pulau Taliabu, Maluku Utara","Pulau Taliabu, Maluku Utara",MALUKU UTARA,,Indonesia,82195572338.0,-1.9510492,124.3838841,https://maps.google.com/?cid=0x0:0x4020766d2f703676
supermarket bangunan,supermarket bangunan,Supermarket Bahan Bangunan,"Jl. Raya Sawangan No.3, RT.3/RW.1, Mampang, Kec. Pancoran Mas, Kota Depok, Jawa Barat 16433","RT.3/RW.1, Mampang, Kec. Pancoran Mas, Kota Depok",MALUKU UTARA,16433.0,Indonesia,,-6.3956904,106.8033472,https://maps.google.com/?cid=0x0:0xbf85e2787e32635c
supermarket bangunan,Toko Bahan Bangunan,TOKO ELDY BANGUNAN,"Bobong, Kec. Taliabu Bar., Pulau Taliabu, Maluku Utara","Pulau Taliabu, Maluku Utara",MALUKU UTARA,,Indonesia,85342270869.0,-1.942625,124.381349,https://maps.google.com/?cid=0x0:0xaf82dabb011de311
supermarket bangunan,Toko Bahan Bangunan,TOKO ANGGI,"29XM+PF9, Wayo, Kec. Taliabu Bar., Pulau Taliabu, Maluku Utara","Pulau Taliabu, Maluku Utara",MALUKU UTARA,,Indonesia,82195572338.0,-1.9510492,124.3838841,https://maps.google.com/?cid=0x0:0x4020766d2f703676
supermarket bangunan,supermarket bangunan,Kec. Taliabu Tim.,"Pulau Taliabu, Maluku Utara","Pulau Taliabu, Maluku Utara",MALUKU UTARA,,Indonesia,,-1.7824897,125.2932285,https://maps.google.com/?cid=0x0:0x6fb215108475baa
supermarket bangunan,Toko Bahan Bangunan,TOKO ELDY BANGUNAN,"Bobong, Kec. Taliabu Bar., Pulau Taliabu, Maluku Utara","Pulau Taliabu, Maluku Utara",MALUKU UTARA,,Indonesia,85342270869.0,-1.942625,124.381349,https://maps.google.com/?cid=0x0:0xaf82dabb011de311
supermarket bangunan,Toko Bahan Bangunan,TOKO ANGGI,"29XM+PF9, Wayo, Kec. Taliabu Bar., Pulau Taliabu, Maluku Utara","Pulau Taliabu, Maluku Utara",MALUKU UTARA,,Indonesia,82195572338.0,-1.9510492,124.3838841,https://maps.google.com/?cid=0x0:0x4020766d2f703676
supermarket bangunan,supermarket bangunan,Kec. Taliabu Tim. Sel.,"Pulau Taliabu, Maluku Utara","Pulau Taliabu, Maluku Utara",MALUKU UTARA,,Indonesia,,-1.8889627,125.0798626,https://maps.google.com/?cid=0x0:0xa3c2952966278c15
supermarket bangunan,Toko Bahan Bangunan,TOKO ELDY BANGUNAN,"Bobong, Kec. Taliabu Bar., Pulau Taliabu, Maluku Utara","Pulau Taliabu, Maluku Utara",MALUKU UTARA,,Indonesia,85342270869.0,-1.942625,124.381349,https://maps.google.com/?cid=0x0:0xaf82dabb011de311
supermarket bangunan,Toko Bahan Bangunan,TOKO ANGGI,"29XM+PF9, Wayo, Kec. Taliabu Bar., Pulau Taliabu, Maluku Utara","Pulau Taliabu, Maluku Utara",MALUKU UTARA,,Indonesia,82195572338.0,-1.9510492,124.3838841,https://maps.google.com/?cid=0x0:0x4020766d2f703676
supermarket bangunan,Toko Bahan Bangunan,Toko Bangunan Lestari Baru,"Waihatu, Kec. Kairatu Bar., Kabupaten Seram Bagian Barat, Maluku","Kabupaten Seram Bagian Barat, Maluku",MALUKU UTARA,,Indonesia,82238832490.0,-3.2864381,128.3222819,https://maps.google.com/?cid=0x0:0xb14d86a65046c260
supermarket bangunan,Toko Bahan Bangunan,Makmur Utama Supermarket Bahan Bangunan,"Jl. Yasin Gamsungi No.2 Kec. ternate tengah, Kel, Makassar Tim., Makassar Timur, Kota Ternate, Maluku Utara 97724","Kel, Makassar Tim., Makassar Timur, Kota Ternate",MALUKU UTARA,97724.0,Indonesia,8114313799.0,0.7940352,127.3876695,https://maps.google.com/?cid=0x0:0x2f492ae87bf64247
supermarket bangunan,Pasar bahan bangunan,Toko Intisari2,"PHRH+XHX, Jl. Hijra, Galala, Oba Utara, Kota Tidore Kepulauan, Maluku Utara","Kota Tidore Kepulauan, Maluku Utara",MALUKU UTARA,,Indonesia,8124751378.0,0.7424771,127.5789924,https://maps.google.com/?cid=0x0:0x25129a2cfa046c97
supermarket bangunan,Toko Bahan Bangunan,Makmur Utama Supermarket Bahan bangunan,"Tj. Niara, Kec. Tobelo Tengah, Kabupaten Halmahera Utara, Maluku Utara","Kabupaten Halmahera Utara, Maluku Utara",MALUKU UTARA,,Indonesia,85117420324.0,1.7019679,128.0155893,https://maps.google.com/?cid=0x0:0x47ecdf114648cbc2
supermarket bangunan,supermarket bangunan,Kec. Taliabu Sel.,"Pulau Taliabu, Maluku Utara","Pulau Taliabu, Maluku Utara",MALUKU UTARA,,Indonesia,,-1.9087227,124.7883682,https://maps.google.com/?cid=0x0:0x47ce8e0cf4083a24
supermarket bangunan,Toko Bahan Bangunan,TOKO ELDY BANGUNAN,"Bobong, Kec. Taliabu Bar., Pulau Taliabu, Maluku Utara","Pulau Taliabu, Maluku Utara",MALUKU UTARA,,Indonesia,85342270869.0,-1.942625,124.381349,https://maps.google.com/?cid=0x0:0xaf82dabb011de311
supermarket bangunan,Toko Bahan Bangunan,TOKO ANGGI,"29XM+PF9, Wayo, Kec. Taliabu Bar., Pulau Taliabu, Maluku Utara","Pulau Taliabu, Maluku Utara",MALUKU UTARA,,Indonesia,82195572338.0,-1.9510492,124.3838841,https://maps.google.com/?cid=0x0:0x4020766d2f703676
