Category,Real Category,Business Name,Address,City,State,Postal Code,Country,Phone,Latitude,Longitude,Map Link
mall,mall,Kec. Taliabu Bar.,"Pulau Taliabu, Maluku Utara","Pulau Taliabu, Maluku Utara",MALUKU UTARA,,Indonesia,,-1.9453067,124.3829336,https://maps.google.com/?cid=0x0:0x9b18127cb6600f97
mall,Bengkel Sepeda Motor,Variasi motor,"398M+V49, Bobong, Kec. Taliabu Bar., Pulau Taliabu, Maluku Utara","Pulau Taliabu, Maluku Utara",MALUKU UTARA,,Indonesia,,-1.9332737,124.3822443,https://maps.google.com/?cid=0x0:0xe8109292a15ee62b
mall,Toko,Toko Rafa Jaya,"Bobong, Kec. Taliabu Bar., Kabupaten Kepulauan taliabu, Maluku Utara","Kabupaten Kepulauan taliabu, Maluku Utara",MALUKU UTARA,,Indonesia,82393528819.0,-1.9423304,124.3844631,https://maps.google.com/?cid=0x0:0x910629a863ff2505
mall,Toko Ponsel,Surya Ponsel Bobong,"393M+2GF, Unnamed Road, Bobong, Kec. Taliabu Bar., Pulau Taliabu, Maluku Utara","Pulau Taliabu, Maluku Utara",MALUKU UTARA,,Indonesia,82188971456.0,-1.9474347,124.3837859,https://maps.google.com/?cid=0x0:0xd98f086b57c5bc90
mall,Toko Alat Tulis,Raudha Photo Studio,"395M+2QX, Bar., Wayo, Kec. Taliabu Bar., Kabupaten Kepulauan Sula, Maluku Utara","Kabupaten Kepulauan Sula, Maluku Utara",MALUKU UTARA,,Indonesia,81222925582.0,-1.942391,124.384496,https://maps.google.com/?cid=0x0:0xdf82e8f93bd0cc8d
mall,Kios,Toko laris,"8GMF+VWV, Tikong, Kec. Taliabu Utara, Pulau Taliabu, Maluku Utara","Pulau Taliabu, Maluku Utara",MALUKU UTARA,,Indonesia,,-1.6647416,124.5236141,https://maps.google.com/?cid=0x0:0xb2ac3760f2223b6c
mall,Toko,FlyGallery Boutique  Shop,"Bobong, Kec. Taliabu Bar., Kabupaten Kepulauan Sula, Maluku Utara","Kabupaten Kepulauan Sula, Maluku Utara",MALUKU UTARA,,Indonesia,82191938640.0,-1.9378487,124.3779028,https://maps.google.com/?cid=0x0:0xebd30360a573d46f
mall,mall,RM.Cuncun,"395J+544, Bobong, Kec. Taliabu Bar., Pulau Taliabu, Maluku Utara","Pulau Taliabu, Maluku Utara",MALUKU UTARA,,Indonesia,,-1.942119,124.3803379,https://maps.google.com/?cid=0x0:0xe21c6150cdc7be5e
mall,Kios,Outlet Resmi Fastpay,"X9XX+442, Jl. Ki Hajar Dewantara, Tallo, Kec. Taliabu Bar., Pulau Taliabu, Maluku Utara","Pulau Taliabu, Maluku Utara",MALUKU UTARA,,Indonesia,82271160924.0,-2.0022265,124.3977575,https://maps.google.com/?cid=0x0:0x62383d71bfa595e
mall,Toko,SAIDO LISTRIK BOBONG,"394P+J3Q, Bobong, Kec. Taliabu Bar., Kabupaten Kepulauan Sula, Maluku Utara","Kabupaten Kepulauan Sula, Maluku Utara",MALUKU UTARA,,Indonesia,81247965779.0,-1.9434208,124.3852249,https://maps.google.com/?cid=0x0:0xfe936fe8dd29b45
mall,Toko Perlengkapan Rumah,FF STORE,"Desa lohoqbubbaq, Pulau Taliabu, Maluku Utara 97794",Pulau Taliabu,MALUKU UTARA,97794.0,Indonesia,85298084360.0,-1.7883691,124.3153718,https://maps.google.com/?cid=0x0:0x233591d79a909e2
mall,mall,Kec. Taliabu Bar. Laut,"Pulau Taliabu, Maluku Utara","Pulau Taliabu, Maluku Utara",MALUKU UTARA,,Indonesia,,-1.7679971,124.3713715,https://maps.google.com/?cid=0x0:0x8f7fd7f1ec130894
mall,Toko Perlengkapan Rumah,FF STORE,"Desa lohoqbubbaq, Pulau Taliabu, Maluku Utara 97794",Pulau Taliabu,MALUKU UTARA,97794.0,Indonesia,85298084360.0,-1.7883691,124.3153718,https://maps.google.com/?cid=0x0:0x233591d79a909e2
mall,Toko,TOKO GELA-TIKONG,"8GMG+JPJ, Tikong, Kec. Taliabu Utara, Pulau Taliabu, Maluku Utara","Pulau Taliabu, Maluku Utara",MALUKU UTARA,,Indonesia,,-1.6655814,124.5261337,https://maps.google.com/?cid=0x0:0x63ae8ad5fe99e82f
mall,Pusat Perbelanjaan,toko mama fadli,"8R94+WFQ, Jorjoga, Kec. Taliabu Utara, Pulau Taliabu, Maluku Utara","Pulau Taliabu, Maluku Utara",MALUKU UTARA,,Indonesia,,-1.6792891,124.8060048,https://maps.google.com/?cid=0x0:0x391aa91561d02fef
mall,Kios,Outlet Resmi Fastpay,"X9XX+442, Jl. Ki Hajar Dewantara, Tallo, Kec. Taliabu Bar., Pulau Taliabu, Maluku Utara","Pulau Taliabu, Maluku Utara",MALUKU UTARA,,Indonesia,82271160924.0,-2.0022265,124.3977575,https://maps.google.com/?cid=0x0:0x62383d71bfa595e
mall,Bengkel Sepeda Motor,Variasi motor,"398M+V49, Bobong, Kec. Taliabu Bar., Pulau Taliabu, Maluku Utara","Pulau Taliabu, Maluku Utara",MALUKU UTARA,,Indonesia,,-1.9332737,124.3822443,https://maps.google.com/?cid=0x0:0xe8109292a15ee62b
mall,Toko,Toko Rafa Jaya,"Bobong, Kec. Taliabu Bar., Kabupaten Kepulauan taliabu, Maluku Utara","Kabupaten Kepulauan taliabu, Maluku Utara",MALUKU UTARA,,Indonesia,82393528819.0,-1.9423304,124.3844631,https://maps.google.com/?cid=0x0:0x910629a863ff2505
mall,Kantor Pemerintah,Desa onemay Taliabu barat Laut,"69MC+2W5, Desa, onemay, Kec. Taliabu Bar. Laut, Pulau Taliabu, Maluku Utara","Pulau Taliabu, Maluku Utara",MALUKU UTARA,,Indonesia,,-1.7674888,124.3723442,https://maps.google.com/?cid=0x0:0xee5704b7e64cfd9
mall,Toko,Kios mm ika,"8GMF+VWV, Tikong, Kec. Taliabu Utara, Pulau Taliabu, Maluku Utara","Pulau Taliabu, Maluku Utara",MALUKU UTARA,,Indonesia,,-1.6654176,124.5239326,https://maps.google.com/?cid=0x0:0xda1601354a625620
mall,mall,Kec. Lede,"Pulau Taliabu, Maluku Utara","Pulau Taliabu, Maluku Utara",MALUKU UTARA,,Indonesia,,-1.6967225,124.3724122,https://maps.google.com/?cid=0x0:0x51b823c7ef07a4ff
mall,mall,Toko Togel,"8FJC+5XM, Todoli, Kec. Lede, Pulau Taliabu, Maluku Utara","Pulau Taliabu, Maluku Utara",MALUKU UTARA,,Indonesia,,-1.669545,124.4724272,https://maps.google.com/?cid=0x0:0xa6b2338114f354a4
mall,Toko,TOKO GELA-TIKONG,"8GMG+JPJ, Tikong, Kec. Taliabu Utara, Pulau Taliabu, Maluku Utara","Pulau Taliabu, Maluku Utara",MALUKU UTARA,,Indonesia,,-1.6655814,124.5261337,https://maps.google.com/?cid=0x0:0x63ae8ad5fe99e82f
mall,Pusat Perbelanjaan,Distributor telur,"892C+J64, Langganu, Kec. Lede, Kabupaten Kepulauan Sula, Maluku Utara","Kabupaten Kepulauan Sula, Maluku Utara",MALUKU UTARA,,Indonesia,82211560091.0,-1.6984974,124.3705733,https://maps.google.com/?cid=0x0:0xfa64ba1897079982
mall,Toko,Kios mm ika,"8GMF+VWV, Tikong, Kec. Taliabu Utara, Pulau Taliabu, Maluku Utara","Pulau Taliabu, Maluku Utara",MALUKU UTARA,,Indonesia,,-1.6654176,124.5239326,https://maps.google.com/?cid=0x0:0xda1601354a625620
mall,Hipermarket,AEON MALL Jakarta Garden City,"Jl. Jkt Garden City Boulevard No.1, RT.8/RW.6, Cakung Tim., Kec. Cakung, Kota Jakarta Timur, Daerah Khusus Ibukota Jakarta 13910","RT.8/RW.6, Cakung Tim., Kec. Cakung, Kota Jakarta Timur",MALUKU UTARA,13910.0,Indonesia,2122462525.0,-6.1721883,106.9522209,https://maps.google.com/?cid=0x0:0x2c473319d7d1eef6
mall,Pusat Perbelanjaan,AEON Jakarta Garden City,"Jl. Jkt Garden City Boulevard No.8, RT.11/RW.6, Cakung Tim., Kec. Cakung, Kota Jakarta Timur, Daerah Khusus Ibukota Jakarta 13910","RT.11/RW.6, Cakung Tim., Kec. Cakung, Kota Jakarta Timur",MALUKU UTARA,13910.0,Indonesia,8119334730.0,-6.1722633,106.9522359,https://maps.google.com/?cid=0x0:0xfa960f81ce9ba5b2
mall,Stasiun Pengisian Kendaraan Listrik,SPKLU St. Pengisian,"8, RW.6, East Cakung, Cakung, East Jakarta City, Jakarta","Kota Jakarta Timur, Daerah Khusus Ibukota Jakarta",MALUKU UTARA,,Indonesia,,-6.1725129,106.9540805,https://maps.google.com/?cid=0x0:0x331e425577c0a36f
mall,Jus,Fruitylicious - ÃON Mall JGC,"JGC, Aeon Mall, Jl. Jkt Garden City Boulevard No.1, RT.7/RW.6, Cakung Tim., Kec. Cakung, Kota Jakarta Timur, Daerah Khusus Ibukota Jakarta 13910","Aeon Mall, Jl. Jkt Garden City Boulevard No.1, RT.7/RW.6, Cakung Tim., Kec. Cakung, Kota Jakarta Timur",MALUKU UTARA,13910.0,Indonesia,,-6.1725253,106.952666,https://maps.google.com/?cid=0x0:0x2979f7d20555750e
mall,Taman Bermain Dalam Ruangan,J-Sky Ferris Wheel AEON MALL JGC,"Jl. Jkt Garden City Boulevard No.1, RT.8/RW.6, Cakung Tim., Kec. Cakung, Kota Jakarta Timur, Daerah Khusus Ibukota Jakarta 13910","RT.8/RW.6, Cakung Tim., Kec. Cakung, Kota Jakarta Timur",MALUKU UTARA,13910.0,Indonesia,2122463410.0,-6.17248,106.9532166,https://maps.google.com/?cid=0x0:0xdcef3a917606eb8b
mall,mall,Kec. Taliabu Utara,"Pulau Taliabu, Maluku Utara","Pulau Taliabu, Maluku Utara",MALUKU UTARA,,Indonesia,,-1.6577743,124.7098315,https://maps.google.com/?cid=0x0:0x2f87ca321b31898
mall,Toko,TOKO GELA-TIKONG,"8GMG+JPJ, Tikong, Kec. Taliabu Utara, Pulau Taliabu, Maluku Utara","Pulau Taliabu, Maluku Utara",MALUKU UTARA,,Indonesia,,-1.6655814,124.5261337,https://maps.google.com/?cid=0x0:0x63ae8ad5fe99e82f
mall,Kios,Toko laris,"8GMF+VWV, Tikong, Kec. Taliabu Utara, Pulau Taliabu, Maluku Utara","Pulau Taliabu, Maluku Utara",MALUKU UTARA,,Indonesia,,-1.6647416,124.5236141,https://maps.google.com/?cid=0x0:0xb2ac3760f2223b6c
mall,mall,Toko Togel,"8FJC+5XM, Todoli, Kec. Lede, Pulau Taliabu, Maluku Utara","Pulau Taliabu, Maluku Utara",MALUKU UTARA,,Indonesia,,-1.669545,124.4724272,https://maps.google.com/?cid=0x0:0xa6b2338114f354a4
mall,mall,Toko mama intan,"6RG2+GM8, Jorjoga, Kec. Taliabu Utara, Pulau Taliabu, Maluku Utara","Pulau Taliabu, Maluku Utara",MALUKU UTARA,,Indonesia,,-1.7737219,124.8016945,https://maps.google.com/?cid=0x0:0x83bed6efd59415b0
mall,Toko,Kios mm ika,"8GMF+VWV, Tikong, Kec. Taliabu Utara, Pulau Taliabu, Maluku Utara","Pulau Taliabu, Maluku Utara",MALUKU UTARA,,Indonesia,,-1.6654176,124.5239326,https://maps.google.com/?cid=0x0:0xda1601354a625620
mall,Pusat Perbelanjaan,Jamal pandai besi,"8RF3+3CR, Jorjoga, Kec. Taliabu Utara, Pulau Taliabu, Maluku Utara","Pulau Taliabu, Maluku Utara",MALUKU UTARA,,Indonesia,,-1.6778639,124.8040213,https://maps.google.com/?cid=0x0:0xeb24d34daddebc27
mall,mall,Kec. Taliabu Tim.,"Pulau Taliabu, Maluku Utara","Pulau Taliabu, Maluku Utara",MALUKU UTARA,,Indonesia,,-1.7824897,125.2932285,https://maps.google.com/?cid=0x0:0x6fb215108475baa
mall,Minimarket,R3 Mart,"74X5+G49, Penu, Kec. Taliabu Tim., Pulau Taliabu, Maluku Utara","Pulau Taliabu, Maluku Utara",MALUKU UTARA,,Indonesia,,-1.7012244,125.1078686,https://maps.google.com/?cid=0x0:0x9fc6d5c0a6c983da
mall,Pusat Perbelanjaan,toko mama fadli,"8R94+WFQ, Jorjoga, Kec. Taliabu Utara, Pulau Taliabu, Maluku Utara","Pulau Taliabu, Maluku Utara",MALUKU UTARA,,Indonesia,,-1.6792891,124.8060048,https://maps.google.com/?cid=0x0:0x391aa91561d02fef
mall,mall,Indria Shopp,"74X5+9H8, Penu, Kec. Taliabu Tim., Kabupaten Kepulauan Sula, Maluku Utara","Kabupaten Kepulauan Sula, Maluku Utara",MALUKU UTARA,,Indonesia,,-1.7015913,125.1089392,https://maps.google.com/?cid=0x0:0x11fd6f4cd1445ea8
mall,Toko,TOKO GELA-TIKONG,"8GMG+JPJ, Tikong, Kec. Taliabu Utara, Pulau Taliabu, Maluku Utara","Pulau Taliabu, Maluku Utara",MALUKU UTARA,,Indonesia,,-1.6655814,124.5261337,https://maps.google.com/?cid=0x0:0x63ae8ad5fe99e82f
mall,Kios,Toko laris,"8GMF+VWV, Tikong, Kec. Taliabu Utara, Pulau Taliabu, Maluku Utara","Pulau Taliabu, Maluku Utara",MALUKU UTARA,,Indonesia,,-1.6647416,124.5236141,https://maps.google.com/?cid=0x0:0xb2ac3760f2223b6c
mall,Kios,Kios Sepatu R3,"74X5+H4J, Jl. Pendidikan, Penu, Kec. Taliabu Tim., Pulau Taliabu, Maluku Utara","Pulau Taliabu, Maluku Utara",MALUKU UTARA,,Indonesia,,-1.701039,125.1077573,https://maps.google.com/?cid=0x0:0x1db01487a2ecfe6c
mall,mall,Kec. Taliabu Tim. Sel.,"Pulau Taliabu, Maluku Utara","Pulau Taliabu, Maluku Utara",MALUKU UTARA,,Indonesia,,-1.8889627,125.0798626,https://maps.google.com/?cid=0x0:0xa3c2952966278c15
mall,Toko,TOKO GELA-TIKONG,"8GMG+JPJ, Tikong, Kec. Taliabu Utara, Pulau Taliabu, Maluku Utara","Pulau Taliabu, Maluku Utara",MALUKU UTARA,,Indonesia,,-1.6655814,124.5261337,https://maps.google.com/?cid=0x0:0x63ae8ad5fe99e82f
mall,Kios,Toko laris,"8GMF+VWV, Tikong, Kec. Taliabu Utara, Pulau Taliabu, Maluku Utara","Pulau Taliabu, Maluku Utara",MALUKU UTARA,,Indonesia,,-1.6647416,124.5236141,https://maps.google.com/?cid=0x0:0xb2ac3760f2223b6c
mall,Minimarket,R3 Mart,"74X5+G49, Penu, Kec. Taliabu Tim., Pulau Taliabu, Maluku Utara","Pulau Taliabu, Maluku Utara",MALUKU UTARA,,Indonesia,,-1.7012244,125.1078686,https://maps.google.com/?cid=0x0:0x9fc6d5c0a6c983da
mall,Pusat Perbelanjaan,Jatiland Mall,"Jl. Pahlawan Revolusi, Gamalama, Kec. Ternate Tengah, Kota Ternate, Maluku Utara","Kota Ternate, Maluku Utara",MALUKU UTARA,,Indonesia,,0.7913034,127.3904651,https://maps.google.com/?cid=0x0:0xc88fc50abd8f2993
mall,Toko,Kios mm ika,"8GMF+VWV, Tikong, Kec. Taliabu Utara, Pulau Taliabu, Maluku Utara","Pulau Taliabu, Maluku Utara",MALUKU UTARA,,Indonesia,,-1.6654176,124.5239326,https://maps.google.com/?cid=0x0:0xda1601354a625620
mall,mall,Pasar Kawadang,"3X9Q+9MM, Kawadang, Kec. Taliabu Tim. Sel., Kabupaten Kepulauan Sula, Maluku Utara","Kabupaten Kepulauan Sula, Maluku Utara",MALUKU UTARA,,Indonesia,,-1.9315266,124.9891584,https://maps.google.com/?cid=0x0:0x73ad56a6a7e8f0ec
mall,mall,Pelabuhan Desa Waikoka,"476V+P2C, Waikoka, Kec. Taliabu Tim. Sel., Pulau Taliabu, Maluku Utara","Pulau Taliabu, Maluku Utara",MALUKU UTARA,,Indonesia,,-1.8881814,125.2925203,https://maps.google.com/?cid=0x0:0x929d84fcf1a4aecb
mall,Kios,Outlet Resmi Fastpay,"X9XX+442, Jl. Ki Hajar Dewantara, Tallo, Kec. Taliabu Bar., Pulau Taliabu, Maluku Utara","Pulau Taliabu, Maluku Utara",MALUKU UTARA,,Indonesia,82271160924.0,-2.0022265,124.3977575,https://maps.google.com/?cid=0x0:0x62383d71bfa595e
mall,Toko,Kios Thendy,"3VGR+6X4, Kabunu, Kec. Taliabu Tim. Sel., Kabupaten Kepulauan Sula, Maluku Utara","Kabupaten Kepulauan Sula, Maluku Utara",MALUKU UTARA,,Indonesia,,-1.924468,124.8924802,https://maps.google.com/?cid=0x0:0xacd67a5508ca5a64
mall,Pusat Perbelanjaan,toko mama fadli,"8R94+WFQ, Jorjoga, Kec. Taliabu Utara, Pulau Taliabu, Maluku Utara","Pulau Taliabu, Maluku Utara",MALUKU UTARA,,Indonesia,,-1.6792891,124.8060048,https://maps.google.com/?cid=0x0:0x391aa91561d02fef
mall,Kios,Om simon pung kios,"3WFW+G6V, Sofan, Kec. Taliabu Tim. Sel., Pulau Taliabu, Maluku Utara","Pulau Taliabu, Maluku Utara",MALUKU UTARA,,Indonesia,,-1.9261364,124.9455397,https://maps.google.com/?cid=0x0:0x796062e12d33926e
mall,mall,Kec. Taliabu Sel.,"Pulau Taliabu, Maluku Utara","Pulau Taliabu, Maluku Utara",MALUKU UTARA,,Indonesia,,-1.9087227,124.7883682,https://maps.google.com/?cid=0x0:0x47ce8e0cf4083a24
mall,Toko,TOKO GELA-TIKONG,"8GMG+JPJ, Tikong, Kec. Taliabu Utara, Pulau Taliabu, Maluku Utara","Pulau Taliabu, Maluku Utara",MALUKU UTARA,,Indonesia,,-1.6655814,124.5261337,https://maps.google.com/?cid=0x0:0x63ae8ad5fe99e82f
mall,Kios,Toko laris,"8GMF+VWV, Tikong, Kec. Taliabu Utara, Pulau Taliabu, Maluku Utara","Pulau Taliabu, Maluku Utara",MALUKU UTARA,,Indonesia,,-1.6647416,124.5236141,https://maps.google.com/?cid=0x0:0xb2ac3760f2223b6c
mall,Pusat Perbelanjaan,toko mama fadli,"8R94+WFQ, Jorjoga, Kec. Taliabu Utara, Pulau Taliabu, Maluku Utara","Pulau Taliabu, Maluku Utara",MALUKU UTARA,,Indonesia,,-1.6792891,124.8060048,https://maps.google.com/?cid=0x0:0x391aa91561d02fef
mall,Kios,Outlet Resmi Fastpay,"X9XX+442, Jl. Ki Hajar Dewantara, Tallo, Kec. Taliabu Bar., Pulau Taliabu, Maluku Utara","Pulau Taliabu, Maluku Utara",MALUKU UTARA,,Indonesia,82271160924.0,-2.0022265,124.3977575,https://maps.google.com/?cid=0x0:0x62383d71bfa595e
mall,mall,Kec. Taliabu Utara,"Pulau Taliabu, Maluku Utara","Pulau Taliabu, Maluku Utara",MALUKU UTARA,,Indonesia,,-1.6577743,124.7098315,https://maps.google.com/?cid=0x0:0x2f87ca321b31898
mall,Toko,Kios mm ika,"8GMF+VWV, Tikong, Kec. Taliabu Utara, Pulau Taliabu, Maluku Utara","Pulau Taliabu, Maluku Utara",MALUKU UTARA,,Indonesia,,-1.6654176,124.5239326,https://maps.google.com/?cid=0x0:0xda1601354a625620
mall,mall,Toko mama intan,"6RG2+GM8, Jorjoga, Kec. Taliabu Utara, Pulau Taliabu, Maluku Utara","Pulau Taliabu, Maluku Utara",MALUKU UTARA,,Indonesia,,-1.7737219,124.8016945,https://maps.google.com/?cid=0x0:0x83bed6efd59415b0
mall,Toko Perlengkapan Rumah,FF STORE,"Desa lohoqbubbaq, Pulau Taliabu, Maluku Utara 97794",Pulau Taliabu,MALUKU UTARA,97794.0,Indonesia,85298084360.0,-1.7883691,124.3153718,https://maps.google.com/?cid=0x0:0x233591d79a909e2
supermarket,supermarket,Kec. Taliabu Bar.,"Pulau Taliabu, Maluku Utara","Pulau Taliabu, Maluku Utara",MALUKU UTARA,,Indonesia,,-1.9453067,124.3829336,https://maps.google.com/?cid=0x0:0x9b18127cb6600f97
supermarket,Minimarket,RUNDUMA MART,"29XM+7V2, Wayo, Kec. Taliabu Bar., Pulau Taliabu, Maluku Utara","Pulau Taliabu, Maluku Utara",MALUKU UTARA,,Indonesia,,-1.9518652,124.3846335,https://maps.google.com/?cid=0x0:0x8d768aae5a2dc2da
supermarket,Toko,Fujiyama mart,"29VM+GW, Wayo, Kec. Taliabu Bar., Kabupaten Kepulauan Sula, Maluku Utara","Kabupaten Kepulauan Sula, Maluku Utara",MALUKU UTARA,,Indonesia,,-1.9563428,124.3849353,https://maps.google.com/?cid=0x0:0xbb24c6a267a207c1
supermarket,Toko Roti,Pasar Kue Aneka Rasa,"392M+5RW, Wayo, Kec. Taliabu Bar., Pulau Taliabu, Maluku Utara","Pulau Taliabu, Maluku Utara",MALUKU UTARA,,Indonesia,81340257066.0,-1.9495199,124.3845795,https://maps.google.com/?cid=0x0:0xbbb28f9288c30307
supermarket,Minimarket,MNCmart,"395M+9MP, Bobong, Kec. Taliabu Bar., Pulau Taliabu, Maluku Utara","Pulau Taliabu, Maluku Utara",MALUKU UTARA,,Indonesia,,-1.941873,124.3843696,https://maps.google.com/?cid=0x0:0xebf678896749bce2
supermarket,Toko Kosmetik,Toko Cosmetik Mansur,"29WM+4CG, Wayo, Kec. Taliabu Bar., Pulau Taliabu, Maluku Utara","Pulau Taliabu, Maluku Utara",MALUKU UTARA,,Indonesia,,-1.9546805,124.383586,https://maps.google.com/?cid=0x0:0x25a70793fdc7ae62
supermarket,supermarket,M. Ayul,"29RV+3CP, Wayo, Kec. Taliabu Bar., Pulau Taliabu, Maluku Utara","Pulau Taliabu, Maluku Utara",MALUKU UTARA,,Indonesia,,-1.9597845,124.3935779,https://maps.google.com/?cid=0x0:0x2024d941c7cfe99f
supermarket,Toko,KIOS BINTANG,"Bobong, Wayo, Kec. Taliabu Bar., Pulau Taliabu, Maluku Utara","Pulau Taliabu, Maluku Utara",MALUKU UTARA,,Indonesia,,-1.9532336,124.383694,https://maps.google.com/?cid=0x0:0x3053cc3982f7b5d4
supermarket,Kios,M. SARI,"3C46+4G4, Bobong, Kec. Taliabu Bar., Pulau Taliabu, Maluku Utara","Pulau Taliabu, Maluku Utara",MALUKU UTARA,,Indonesia,,-1.9447276,124.4113255,https://maps.google.com/?cid=0x0:0x68f9db31e2b9ed0e
supermarket,Toko Herbal,Halalmart Taliabu,"29VM+5C4, Wayo, Kec. Taliabu Bar., Pulau Taliabu, Maluku Utara","Pulau Taliabu, Maluku Utara",MALUKU UTARA,,Indonesia,,-1.9576353,124.383828,https://maps.google.com/?cid=0x0:0xe3ec2d0be8676531
supermarket,Toko Pakaian,Aiko SHOP,"29XM+7FH, Unnamed Road, Bobong, Wayo, Kec. Taliabu Bar., Pulau Taliabu, Maluku Utara","Pulau Taliabu, Maluku Utara",MALUKU UTARA,,Indonesia,81341833358.0,-1.951823,124.3837369,https://maps.google.com/?cid=0x0:0x1c5b99c8d5582be1
supermarket,Toko,Terang bulan spesial,"392M+XG8, Bobong, Kec. Taliabu Bar., Pulau Taliabu, Maluku Utara","Pulau Taliabu, Maluku Utara",MALUKU UTARA,,Indonesia,,-1.9475751,124.3838315,https://maps.google.com/?cid=0x0:0xcddd059a31accfc9
supermarket,Minimarket,Tsamania Mart,"395J+8C, Bobong, Kec. Taliabu Bar., Kabupaten Kepulauan Sula, Maluku Utara","Kabupaten Kepulauan Sula, Maluku Utara",MALUKU UTARA,,Indonesia,,-1.9416408,124.3810309,https://maps.google.com/?cid=0x0:0x6ac1220914a07c11
supermarket,Toko bahan makanan,Kios ningsi,"Karamat, Kec. Taliabu Bar., Pulau Taliabu, Maluku Utara","Pulau Taliabu, Maluku Utara",MALUKU UTARA,,Indonesia,,-1.8961365,124.3407386,https://maps.google.com/?cid=0x0:0x1431e2dc7f3d70d2
supermarket,supermarket,Kec. Taliabu Bar. Laut,"Pulau Taliabu, Maluku Utara","Pulau Taliabu, Maluku Utara",MALUKU UTARA,,Indonesia,,-1.7679971,124.3713715,https://maps.google.com/?cid=0x0:0x8f7fd7f1ec130894
supermarket,Pasar,Pasar Minggu Nggele,"69P8+GCP, Jl. Lain, Nggele, Kec. Taliabu Bar. Laut, Pulau Taliabu, Maluku Utara","Pulau Taliabu, Maluku Utara",MALUKU UTARA,,Indonesia,,-1.7636701,124.3660746,https://maps.google.com/?cid=0x0:0x67ccb3fd68b29cb0
supermarket,Toko Pakaian,Aiko SHOP,"29XM+7FH, Unnamed Road, Bobong, Wayo, Kec. Taliabu Bar., Pulau Taliabu, Maluku Utara","Pulau Taliabu, Maluku Utara",MALUKU UTARA,,Indonesia,81341833358.0,-1.951823,124.3837369,https://maps.google.com/?cid=0x0:0x1c5b99c8d5582be1
supermarket,Toko,Toko Uwais,"Depn Taman Mangga 1, Bobong, Kec. Taliabu Bar., Pulau Taliabu, Maluku Utara","Pulau Taliabu, Maluku Utara",MALUKU UTARA,,Indonesia,,-1.9391462,124.3828392,https://maps.google.com/?cid=0x0:0xbbea68585abe6ce8
supermarket,supermarket,Kios Sulfin,"3QVR+4Q8, Pencado, Kec. Taliabu Sel., Pulau Taliabu, Maluku Utara","Pulau Taliabu, Maluku Utara",MALUKU UTARA,,Indonesia,,-1.9075212,124.7918152,https://maps.google.com/?cid=0x0:0xda884818b613393b
supermarket,Toko,Arya TOSERBA,"48HR+VCX, Kasango, Kec. Taliabu Bar. Laut, Pulau Taliabu, Maluku Utara","Pulau Taliabu, Maluku Utara",MALUKU UTARA,,Indonesia,,-1.8702641,124.3411042,https://maps.google.com/?cid=0x0:0x678fc01b2ca68ff9
supermarket,Kios,Warucil ULI,"69J9+XJ8, Jl. Lain, Nggele, Kec. Taliabu Bar. Laut, Pulau Taliabu, Maluku Utara","Pulau Taliabu, Maluku Utara",MALUKU UTARA,,Indonesia,,-1.767588,124.3690661,https://maps.google.com/?cid=0x0:0x8c05a64994ff4114
supermarket,Kios,Kios Baru,"69C9+V86, Salati, Kec. Taliabu Bar. Laut, Pulau Taliabu, Maluku Utara","Pulau Taliabu, Maluku Utara",MALUKU UTARA,,Indonesia,,-1.7778416,124.3682638,https://maps.google.com/?cid=0x0:0x4fb58403029c5ef4
supermarket,Toko umum,MENTHARY MART,"892F+W89, Langganu, Kec. Lede, Pulau Taliabu, Maluku Utara","Pulau Taliabu, Maluku Utara",MALUKU UTARA,,Indonesia,82122684092.0,-1.6977188,124.3733492,https://maps.google.com/?cid=0x0:0x68d8e162bf9bb3fa
supermarket,Toko Perlengkapan Rumah,FF STORE,"Desa lohoqbubbaq, Pulau Taliabu, Maluku Utara 97794",Pulau Taliabu,MALUKU UTARA,97794.0,Indonesia,85298084360.0,-1.7883691,124.3153718,https://maps.google.com/?cid=0x0:0x233591d79a909e2
supermarket,Kios,Kios Lita,"69C9+R79, Salati, Kec. Taliabu Bar. Laut, Pulau Taliabu, Maluku Utara","Pulau Taliabu, Maluku Utara",MALUKU UTARA,,Indonesia,,-1.7779673,124.3682247,https://maps.google.com/?cid=0x0:0xb71f12149211a313
supermarket,Kios,Jasmin,"69J9+H24, Nggele, Kec. Taliabu Bar. Laut, Pulau Taliabu, Maluku Utara","Pulau Taliabu, Maluku Utara",MALUKU UTARA,,Indonesia,,-1.7686128,124.3675924,https://maps.google.com/?cid=0x0:0x97a36a0f7aedc2d8
supermarket,Kios,Najwa K105,"Jl. Dusun Kelapa Pendek, Onemay, Kec. Taliabu Bar. Laut, Pulau Taliabu, Maluku Utara","Pulau Taliabu, Maluku Utara",MALUKU UTARA,,Indonesia,85240346080.0,-1.7681004,124.3679846,https://maps.google.com/?cid=0x0:0xee9f652dba7a997e
supermarket,Toko,Fitria Cell,"69C9+QM5, Salati, Kec. Taliabu Bar. Laut, Pulau Taliabu, Maluku Utara","Pulau Taliabu, Maluku Utara",MALUKU UTARA,,Indonesia,,-1.7781029,124.3692297,https://maps.google.com/?cid=0x0:0x96d86a99b25123e8
supermarket,supermarket,Kec. Lede,"Pulau Taliabu, Maluku Utara","Pulau Taliabu, Maluku Utara",MALUKU UTARA,,Indonesia,,-1.6967225,124.3724122,https://maps.google.com/?cid=0x0:0x51b823c7ef07a4ff
supermarket,Toko umum,MENTHARY MART,"892F+W89, Langganu, Kec. Lede, Pulau Taliabu, Maluku Utara","Pulau Taliabu, Maluku Utara",MALUKU UTARA,,Indonesia,82122684092.0,-1.6977188,124.3733492,https://maps.google.com/?cid=0x0:0x68d8e162bf9bb3fa
supermarket,Toko bahan makanan,Salman Store,"79X9+CWR, Jl. Lain, Lede, Kec. Lede, Pulau Taliabu, Maluku Utara","Pulau Taliabu, Maluku Utara",MALUKU UTARA,,Indonesia,,-1.7012874,124.3697938,https://maps.google.com/?cid=0x0:0x6bcd1dfd25e398a5
supermarket,Toko bahan makanan,Lapak RIo,"893F+2PQ, Langganu, Kec. Lede, Pulau Taliabu, Maluku Utara","Pulau Taliabu, Maluku Utara",MALUKU UTARA,,Indonesia,,-1.6974103,124.3743556,https://maps.google.com/?cid=0x0:0x4e0bd3348a743612
supermarket,Toko bahan makanan,Perlengkapan Alat Tulis Kantor,"897F+87X, Unnamed Road, Langganu, Kec. Lede, Pulau Taliabu, Maluku Utara","Pulau Taliabu, Maluku Utara",MALUKU UTARA,,Indonesia,81246342390.0,-1.6866328,124.3732274,https://maps.google.com/?cid=0x0:0xb63923ade5d86470
supermarket,Toko Kosmetik,Fheby Beauty Store,"Lede, Kec. Lede, Pulau Taliabu, Maluku Utara","Pulau Taliabu, Maluku Utara",MALUKU UTARA,,Indonesia,81243631104.0,-1.6961488,124.3675578,https://maps.google.com/?cid=0x0:0x97b1deabddcaa9bc
supermarket,Minimarket,Kios Sifa,"8FP7+9XQ, Unnamed Road, Todoli, Kec. Lede, Pulau Taliabu, Maluku Utara","Pulau Taliabu, Maluku Utara",MALUKU UTARA,,Indonesia,,-1.6640493,124.4649951,https://maps.google.com/?cid=0x0:0x9e9276a6824227ef
supermarket,Toko bahan makanan,BUNGA ATK,"893F+46H, Unnamed Road, Langganu, Kec. Lede, Pulau Taliabu, Maluku Utara","Pulau Taliabu, Maluku Utara",MALUKU UTARA,,Indonesia,81246342390.0,-1.697176,124.373118,https://maps.google.com/?cid=0x0:0x87a9e1b5ef2334f8
supermarket,Toko Obat,Toko obat marissa,"dusun takjiba, Kec. Lede, Pulau Taliabu, Maluku Utara 97794","Kec. Lede, Pulau Taliabu",MALUKU UTARA,97794.0,Indonesia,,-1.697232,124.3690796,https://maps.google.com/?cid=0x0:0xf729fd37512cee5e
supermarket,supermarket,Fheby Beauty Store New,"Langganu, Kec. Lede, Pulau Taliabu, Maluku Utara 97794","Kec. Lede, Pulau Taliabu",MALUKU UTARA,97794.0,Indonesia,82189434611.0,-1.6976586,124.3721332,https://maps.google.com/?cid=0x0:0x5be1ffc695bf2858
supermarket,Kios,Kios Ferdy S.,"8939+J3F, Lede, Kec. Lede, Pulau Taliabu, Maluku Utara","Pulau Taliabu, Maluku Utara",MALUKU UTARA,,Indonesia,,-1.6963727,124.3689972,https://maps.google.com/?cid=0x0:0xe0095f131c43fec1
supermarket,Kios,KIOS GEBY,"8CMP+JR9, Tolong, Kec. Lede, Pulau Taliabu, Maluku Utara","Pulau Taliabu, Maluku Utara",MALUKU UTARA,,Indonesia,,-1.6659533,124.4371147,https://maps.google.com/?cid=0x0:0x44c40bde33d920f
supermarket,Toko Aksesori Ponsel,Queen Store,"8938+5VJ, Lede, Kec. Lede, Pulau Taliabu, Maluku Utara","Pulau Taliabu, Maluku Utara",MALUKU UTARA,,Indonesia,,-1.6973241,124.3676393,https://maps.google.com/?cid=0x0:0x4efc3052ab28fb9f
supermarket,Toko bahan makanan,Rumah Serliani,"893C+8X7, Lede, Kec. Lede, Kepulauan Sula, Maluku Utara","Kepulauan Sula, Maluku Utara",MALUKU UTARA,,Indonesia,,-1.6967225,124.3724122,https://maps.google.com/?cid=0x0:0x8b5524100a884185
supermarket,Kios,Kios Tomia,"9H52+98V, Sahu, Kec. Taliabu Utara, Pulau Taliabu, Maluku Utara","Pulau Taliabu, Maluku Utara",MALUKU UTARA,,Indonesia,,-1.6416095,124.5512546,https://maps.google.com/?cid=0x0:0xf6c003509468dce4
supermarket,Kios,Kios ma astin,"8GMC+HRG, Tikong, Kec. Taliabu Utara, Pulau Taliabu, Maluku Utara","Pulau Taliabu, Maluku Utara",MALUKU UTARA,,Indonesia,82219781176.0,-1.6658747,124.5222167,https://maps.google.com/?cid=0x0:0xd11a2f2dc94a94db
supermarket,supermarket,Kec. Taliabu Utara,"Pulau Taliabu, Maluku Utara","Pulau Taliabu, Maluku Utara",MALUKU UTARA,,Indonesia,,-1.6577743,124.7098315,https://maps.google.com/?cid=0x0:0x2f87ca321b31898
supermarket,Toko umum,MENTHARY MART,"892F+W89, Langganu, Kec. Lede, Pulau Taliabu, Maluku Utara","Pulau Taliabu, Maluku Utara",MALUKU UTARA,,Indonesia,82122684092.0,-1.6977188,124.3733492,https://maps.google.com/?cid=0x0:0x68d8e162bf9bb3fa
supermarket,Minimarket,RUNDUMA MART,"29XM+7V2, Wayo, Kec. Taliabu Bar., Pulau Taliabu, Maluku Utara","Pulau Taliabu, Maluku Utara",MALUKU UTARA,,Indonesia,,-1.9518652,124.3846335,https://maps.google.com/?cid=0x0:0x8d768aae5a2dc2da
supermarket,Toko,BT CELLULER,"SAMPING SDN1, Gela, Kec. Taliabu Utara, Pulau Taliabu, Maluku Utara 97794","Gela, Kec. Taliabu Utara, Pulau Taliabu",MALUKU UTARA,97794.0,Indonesia,82188866645.0,-1.6586492,124.7072588,https://maps.google.com/?cid=0x0:0xc7fcd64b1dd66402
supermarket,Minimarket,Rumah fazlan,"8GMF+F3G, Tikong, Kec. Taliabu Utara, Pulau Taliabu, Maluku Utara","Pulau Taliabu, Maluku Utara",MALUKU UTARA,,Indonesia,,-1.6663043,124.5226941,https://maps.google.com/?cid=0x0:0xb389b3fb1ada670d
supermarket,Komplek perumahan,Mama Teti,"8GMF+JWJ, Tikong, Kec. Taliabu Utara, Pulau Taliabu, Maluku Utara","Pulau Taliabu, Maluku Utara",MALUKU UTARA,,Indonesia,,-1.6659102,124.5247604,https://maps.google.com/?cid=0x0:0x5c7c3dbe3902cc6c
supermarket,Minimarket,R3 Mart,"74X5+G49, Penu, Kec. Taliabu Tim., Pulau Taliabu, Maluku Utara","Pulau Taliabu, Maluku Utara",MALUKU UTARA,,Indonesia,,-1.7012244,125.1078686,https://maps.google.com/?cid=0x0:0x9fc6d5c0a6c983da
supermarket,Toko,Thirza Dekorasi Pengantin dan Fashion Store,"8PV5+8RJ London, Gela, Kec. Taliabu Utara, Pulau Taliabu, Maluku Utara","Pulau Taliabu, Maluku Utara",MALUKU UTARA,,Indonesia,85197460895.0,-1.6566548,124.7095092,https://maps.google.com/?cid=0x0:0x7ffb1f90a48901ee
supermarket,Kios,Warucil ULI,"69J9+XJ8, Jl. Lain, Nggele, Kec. Taliabu Bar. Laut, Pulau Taliabu, Maluku Utara","Pulau Taliabu, Maluku Utara",MALUKU UTARA,,Indonesia,,-1.767588,124.3690661,https://maps.google.com/?cid=0x0:0x8c05a64994ff4114
supermarket,Toko sembako pemerintah,KIOS PINDO,"4V58+532, Tabona, Kec. Taliabu Sel., Pulau Taliabu, Maluku Utara","Pulau Taliabu, Maluku Utara",MALUKU UTARA,,Indonesia,,-1.8921167,124.8651368,https://maps.google.com/?cid=0x0:0x7765584715e68f32
supermarket,Toko,Kios Muti,"8MWV+QH7, Unnamed Road, Minton, Kec. Taliabu Utara, Pulau Taliabu, Maluku Utara","Pulau Taliabu, Maluku Utara",MALUKU UTARA,,Indonesia,85255590801.0,-1.6530792,124.6939367,https://maps.google.com/?cid=0x0:0x1dd5de54e466ae6
supermarket,Komplek perumahan,Toko Ramadhan jjg,"Jorjoga, Kec. Taliabu Utara, Pulau Taliabu, Maluku Utara 97977","Kec. Taliabu Utara, Pulau Taliabu",MALUKU UTARA,97977.0,Indonesia,87888720554.0,-1.6791749,124.804559,https://maps.google.com/?cid=0x0:0xdce21b2eede78eea
supermarket,supermarket,Maluku Utara,,Maluku Utara,MALUKU UTARA,,Indonesia,,1.5709993,127.8087693,https://maps.google.com/?cid=0x0:0x1030bfbcaf71ac0
supermarket,Toko umum,MENTHARY MART,"892F+W89, Langganu, Kec. Lede, Pulau Taliabu, Maluku Utara","Pulau Taliabu, Maluku Utara",MALUKU UTARA,,Indonesia,82122684092.0,-1.6977188,124.3733492,https://maps.google.com/?cid=0x0:0x68d8e162bf9bb3fa
supermarket,Minimarket,RUNDUMA MART,"29XM+7V2, Wayo, Kec. Taliabu Bar., Pulau Taliabu, Maluku Utara","Pulau Taliabu, Maluku Utara",MALUKU UTARA,,Indonesia,,-1.9518652,124.3846335,https://maps.google.com/?cid=0x0:0x8d768aae5a2dc2da
supermarket,Toko bahan makanan,Salman Store,"79X9+CWR, Jl. Lain, Lede, Kec. Lede, Pulau Taliabu, Maluku Utara","Pulau Taliabu, Maluku Utara",MALUKU UTARA,,Indonesia,,-1.7012874,124.3697938,https://maps.google.com/?cid=0x0:0x6bcd1dfd25e398a5
supermarket,Toko Pakaian,Aiko SHOP,"29XM+7FH, Unnamed Road, Bobong, Wayo, Kec. Taliabu Bar., Pulau Taliabu, Maluku Utara","Pulau Taliabu, Maluku Utara",MALUKU UTARA,,Indonesia,81341833358.0,-1.951823,124.3837369,https://maps.google.com/?cid=0x0:0x1c5b99c8d5582be1
supermarket,Toko Herbal,Halalmart Taliabu,"29VM+5C4, Wayo, Kec. Taliabu Bar., Pulau Taliabu, Maluku Utara","Pulau Taliabu, Maluku Utara",MALUKU UTARA,,Indonesia,,-1.9576353,124.383828,https://maps.google.com/?cid=0x0:0xe3ec2d0be8676531
supermarket,Toko umum,Victor,"3QQM+XM7, Pencado, Kec. Taliabu Sel., Pulau Taliabu, Maluku Utara","Pulau Taliabu, Maluku Utara",MALUKU UTARA,,Indonesia,,-1.910076,124.7841609,https://maps.google.com/?cid=0x0:0xd87386748cf4a454
supermarket,Toko Obat,Toko obat marissa,"dusun takjiba, Kec. Lede, Pulau Taliabu, Maluku Utara 97794","Kec. Lede, Pulau Taliabu",MALUKU UTARA,97794.0,Indonesia,,-1.697232,124.3690796,https://maps.google.com/?cid=0x0:0xf729fd37512cee5e
supermarket,Toko Bahan Bangunan,Makmur Utama Supermarket Bahan Bangunan,"Jl. Yasin Gamsungi No.2 Kec. ternate tengah, Kel, Makassar Tim., Makassar Timur, Kota Ternate, Maluku Utara 97724","Kel, Makassar Tim., Makassar Timur, Kota Ternate",MALUKU UTARA,97724.0,Indonesia,8114313799.0,0.7940352,127.3876695,https://maps.google.com/?cid=0x0:0x2f492ae87bf64247
supermarket,Pasar,Pasar Minggu Nggele,"69P8+GCP, Jl. Lain, Nggele, Kec. Taliabu Bar. Laut, Pulau Taliabu, Maluku Utara","Pulau Taliabu, Maluku Utara",MALUKU UTARA,,Indonesia,,-1.7636701,124.3660746,https://maps.google.com/?cid=0x0:0x67ccb3fd68b29cb0
supermarket,Kios,Musdalifa Kios,"69M8+7W7, Nggele, Kec. Taliabu Bar. Laut, Pulau Taliabu, Maluku Utara","Pulau Taliabu, Maluku Utara",MALUKU UTARA,,Indonesia,,-1.7686715,124.371306,https://maps.google.com/?cid=0x0:0x8dfa001cc4c195cc
supermarket,Minimarket,GOTA Supermarket,"8PXR+5C6, Kel. Ohoijang Watdek, Kec. Kei Kecil, Kabupaten Maluku Tenggara, Maluku","Kabupaten Maluku Tenggara, Maluku",MALUKU UTARA,,Indonesia,,-5.652084,132.7410211,https://maps.google.com/?cid=0x0:0xcce642eed6fb72d5
supermarket,Toko,Toko Uwais,"Depn Taman Mangga 1, Bobong, Kec. Taliabu Bar., Pulau Taliabu, Maluku Utara","Pulau Taliabu, Maluku Utara",MALUKU UTARA,,Indonesia,,-1.9391462,124.3828392,https://maps.google.com/?cid=0x0:0xbbea68585abe6ce8
supermarket,Toko,Halal Mart Zayan,"Air Kilong, Bobong, Kec. Taliabu Bar., Pulau Taliabu, Maluku Utara 97941","Bobong, Kec. Taliabu Bar., Pulau Taliabu",MALUKU UTARA,97941.0,Indonesia,85240189020.0,-1.9261139,124.3791243,https://maps.google.com/?cid=0x0:0xf50f463bfaa6f5d2
supermarket,supermarket,Kec. Taliabu Tim. Sel.,"Pulau Taliabu, Maluku Utara","Pulau Taliabu, Maluku Utara",MALUKU UTARA,,Indonesia,,-1.8889627,125.0798626,https://maps.google.com/?cid=0x0:0xa3c2952966278c15
supermarket,Toko sembako pemerintah,KIOS PINDO,"4V58+532, Tabona, Kec. Taliabu Sel., Pulau Taliabu, Maluku Utara","Pulau Taliabu, Maluku Utara",MALUKU UTARA,,Indonesia,,-1.8921167,124.8651368,https://maps.google.com/?cid=0x0:0x7765584715e68f32
supermarket,Toko,Farel BARITO,"4V57+6WR, Tabona, Kec. Taliabu Sel., Pulau Taliabu, Maluku Utara","Pulau Taliabu, Maluku Utara",MALUKU UTARA,,Indonesia,,-1.8916613,124.8654362,https://maps.google.com/?cid=0x0:0xdf5e09938db10a6a
supermarket,Toko umum,Kios ela,"Sofan, Kec. Taliabu Tim. Sel., Pulau Taliabu, Maluku Utara","Pulau Taliabu, Maluku Utara",MALUKU UTARA,,Indonesia,82298210094.0,-1.9266211,124.9468163,https://maps.google.com/?cid=0x0:0x5fb437d6fde09cfc
supermarket,Toko,Kios sugiman,"3VFV+RCP, Kabunu, Kec. Taliabu Tim. Sel., Pulau Taliabu, Maluku Utara","Pulau Taliabu, Maluku Utara",MALUKU UTARA,,Indonesia,,-1.925419,124.8935702,https://maps.google.com/?cid=0x0:0x6308f646b71e8b74
supermarket,Kios,Kios Ibu. Wabani,"32R8+3H5, Losseng, Kec. Taliabu Tim. Sel., Pulau Taliabu, Maluku Utara","Pulau Taliabu, Maluku Utara",MALUKU UTARA,,Indonesia,,-1.9098627,125.0164903,https://maps.google.com/?cid=0x0:0x4427828be9e5f5ae
supermarket,Kios,Om simon pung kios,"3WFW+G6V, Sofan, Kec. Taliabu Tim. Sel., Pulau Taliabu, Maluku Utara","Pulau Taliabu, Maluku Utara",MALUKU UTARA,,Indonesia,,-1.9261364,124.9455397,https://maps.google.com/?cid=0x0:0x796062e12d33926e
supermarket,Kios,KIOS PAK HAJI,"4V58+532, Tabona, Kec. Taliabu Sel., Pulau Taliabu, Maluku Utara","Pulau Taliabu, Maluku Utara",MALUKU UTARA,,Indonesia,,-1.8926532,124.8655633,https://maps.google.com/?cid=0x0:0xffb22504988058cb
supermarket,Kios,CS. Cellular,"Unnamed Road, Tabona, Kec. Taliabu Sel., Pulau Taliabu, Maluku Utara","Pulau Taliabu, Maluku Utara",MALUKU UTARA,,Indonesia,,-1.891947,124.864365,https://maps.google.com/?cid=0x0:0xd51e8299c607e09c
supermarket,Toko,Kios Intan,"4V55+FVG, Tabona, Kec. Taliabu Sel., Kabupaten Kepulauan Sula, Maluku Utara","Kabupaten Kepulauan Sula, Maluku Utara",MALUKU UTARA,,Indonesia,,-1.8913008,124.8596961,https://maps.google.com/?cid=0x0:0x80864423a3945302
supermarket,Toko,KIOS Chandra,"4V57+6WR, Tabona, Kec. Taliabu Sel., Pulau Taliabu, Maluku Utara","Pulau Taliabu, Maluku Utara",MALUKU UTARA,,Indonesia,,-1.8912636,124.8650979,https://maps.google.com/?cid=0x0:0xcbb9a533ae63cc8c
supermarket,Toko umum,MENTHARY MART,"892F+W89, Langganu, Kec. Lede, Pulau Taliabu, Maluku Utara","Pulau Taliabu, Maluku Utara",MALUKU UTARA,,Indonesia,82122684092.0,-1.6977188,124.3733492,https://maps.google.com/?cid=0x0:0x68d8e162bf9bb3fa
supermarket,Toko,Kios Thendy,"3VGR+6X4, Kabunu, Kec. Taliabu Tim. Sel., Kabupaten Kepulauan Sula, Maluku Utara","Kabupaten Kepulauan Sula, Maluku Utara",MALUKU UTARA,,Indonesia,,-1.924468,124.8924802,https://maps.google.com/?cid=0x0:0xacd67a5508ca5a64
supermarket,Toko Beras,ððð ð½ððð¼ð ððððð¼,"4V58+532, Tabona, Kec. Taliabu Sel., Pulau Taliabu, Maluku Utara","Pulau Taliabu, Maluku Utara",MALUKU UTARA,,Indonesia,,-1.892093,124.865062,https://maps.google.com/?cid=0x0:0xd4d28cf532cdccb8
supermarket,supermarket,Maluku Utara,,Maluku Utara,MALUKU UTARA,,Indonesia,,1.5709993,127.8087693,https://maps.google.com/?cid=0x0:0x1030bfbcaf71ac0
supermarket,Toko umum,MENTHARY MART,"892F+W89, Langganu, Kec. Lede, Pulau Taliabu, Maluku Utara","Pulau Taliabu, Maluku Utara",MALUKU UTARA,,Indonesia,82122684092.0,-1.6977188,124.3733492,https://maps.google.com/?cid=0x0:0x68d8e162bf9bb3fa
supermarket,Toko umum,Victor,"3QQM+XM7, Pencado, Kec. Taliabu Sel., Pulau Taliabu, Maluku Utara","Pulau Taliabu, Maluku Utara",MALUKU UTARA,,Indonesia,,-1.910076,124.7841609,https://maps.google.com/?cid=0x0:0xd87386748cf4a454
supermarket,Toko Perlengkapan Rumah,FF STORE,"Desa lohoqbubbaq, Pulau Taliabu, Maluku Utara 97794",Pulau Taliabu,MALUKU UTARA,97794.0,Indonesia,85298084360.0,-1.7883691,124.3153718,https://maps.google.com/?cid=0x0:0x233591d79a909e2
supermarket,Kios,Kios Tomia,"9H52+98V, Sahu, Kec. Taliabu Utara, Pulau Taliabu, Maluku Utara","Pulau Taliabu, Maluku Utara",MALUKU UTARA,,Indonesia,,-1.6416095,124.5512546,https://maps.google.com/?cid=0x0:0xf6c003509468dce4
supermarket,Toko,BT CELLULER,"SAMPING SDN1, Gela, Kec. Taliabu Utara, Pulau Taliabu, Maluku Utara 97794","Gela, Kec. Taliabu Utara, Pulau Taliabu",MALUKU UTARA,97794.0,Indonesia,82188866645.0,-1.6586492,124.7072588,https://maps.google.com/?cid=0x0:0xc7fcd64b1dd66402
supermarket,Toko Herbal,Halalmart Taliabu,"29VM+5C4, Wayo, Kec. Taliabu Bar., Pulau Taliabu, Maluku Utara","Pulau Taliabu, Maluku Utara",MALUKU UTARA,,Indonesia,,-1.9576353,124.383828,https://maps.google.com/?cid=0x0:0xe3ec2d0be8676531
supermarket,Toko Pakaian,Aiko SHOP,"29XM+7FH, Unnamed Road, Bobong, Wayo, Kec. Taliabu Bar., Pulau Taliabu, Maluku Utara","Pulau Taliabu, Maluku Utara",MALUKU UTARA,,Indonesia,81341833358.0,-1.951823,124.3837369,https://maps.google.com/?cid=0x0:0x1c5b99c8d5582be1
supermarket,Pasar,Pasar Minggu Nggele,"69P8+GCP, Jl. Lain, Nggele, Kec. Taliabu Bar. Laut, Pulau Taliabu, Maluku Utara","Pulau Taliabu, Maluku Utara",MALUKU UTARA,,Indonesia,,-1.7636701,124.3660746,https://maps.google.com/?cid=0x0:0x67ccb3fd68b29cb0
supermarket,Toko Obat,Distributor Resmi AFC - Taliabu,"Ds. Air Minggu, Bobong, Kec. Taliabu Bar., Pulau Taliabu, Maluku Utara 97794","Bobong, Kec. Taliabu Bar., Pulau Taliabu",MALUKU UTARA,97794.0,Indonesia,85213084537.0,-1.934702,124.3838174,https://maps.google.com/?cid=0x0:0xbcd2936945609333
supermarket,Toko Pakaian,My Ka Look,"Bobong, Kec. Taliabu Bar., Pulau Taliabu, Maluku Utara 97794","Kec. Taliabu Bar., Pulau Taliabu",MALUKU UTARA,97794.0,Indonesia,82260245691.0,-1.946111,124.3830646,https://maps.google.com/?cid=0x0:0xd2b5312322eb72b
supermarket,Toko,Toko Sobang,"8FP8+GRR Kafa Mena, Jln, Todoli, Lede, Taliabu Island Regency, North Maluku 97794","Jln, Todoli, Lede, Taliabu Island Regency",MALUKU UTARA,97794.0,Indonesia,81242036348.0,-1.6636346,124.4669963,https://maps.google.com/?cid=0x0:0xb9359fddd33d9a83
supermarket,Kios,Kios Clara,"Jln.Pustu, Tolong, Pulau Taliabu, Maluku Utara 97794","Tolong, Pulau Taliabu",MALUKU UTARA,97794.0,Indonesia,85298724809.0,-1.6683415,124.437857,https://maps.google.com/?cid=0x0:0x4977679d41fbb7ab
supermarket,Pasar,Lapak Buah Adzra Bobong,"Lapak Buah Adzra BBG Kebun Janda, Bobong, Kec. Taliabu Bar., Pulau Taliabu, Maluku Utara 97794","Bobong, Kec. Taliabu Bar., Pulau Taliabu",MALUKU UTARA,97794.0,Indonesia,,-1.9399217,124.3834099,https://maps.google.com/?cid=0x0:0xd82473d16735bff3
