Category,Real Category,Business Name,Address,City,State,Postal Code,Country,Phone,Email,Website,Latitude,Longitude,Map Link,Details Link
toko bangunan,toko bangunan,Kalimantan Tengah 73681,"Kabupaten Barito Timur, Kalimantan Tengah","Kabupaten Barito Timur, Kalimantan Tengah",KALIMANTAN TENGAH,,Indonesia,,,,-1.9957549,115.1177654,https://maps.google.com/?cid=0x0:0xad325f18fddf1160,
toko bangunan,Toko Bahan Bangunan,Toko Bangunan Swarga,"Jalan, Tamiang Layang, Dusun Timur, East Barito Regency, Central Kalimantan 73671","Tamiang Layang, Dusun Timur, East Barito Regency",KALIMANTAN TENGAH,73671.0,Indonesia, 085789077202,,,-2.0966672,115.151779,https://maps.google.com/?cid=0x0:0x4153cd1f5a6a0a6e,
toko bangunan,Toko Perlengkapan Rumah,Toko Bangunan,"Jl. A. Yani, Matang Ginalun, Kec. Pandawan, Kabupaten Hulu Sungai Tengah, Kalimantan Selatan 71352","Matang Ginalun, Kec. Pandawan, Kabupaten Hulu Sungai Tengah",KALIMANTAN TENGAH,71352.0,Indonesia, 08161999912,,,-2.5866557,115.3759065,https://maps.google.com/?cid=0x0:0xf79511cc081343d5,
toko bangunan,Toko Perlengkapan Rumah,Toko Bangunan hidry,"FC3X+GJ4, Birayang Surapati, Kec. Batang Alai Sel., Kabupaten Hulu Sungai Tengah, Kalimantan Selatan 71381","Birayang Surapati, Kec. Batang Alai Sel., Kabupaten Hulu Sungai Tengah",KALIMANTAN TENGAH,71381.0,Indonesia,,,,-2.5459785,115.4491334,https://maps.google.com/?cid=0x0:0xf2fddffdc4605a3,
toko bangunan,Toko Bahan Bangunan,TB.Ami Jaya,"Jl. Nansarunai - Tamiang Layang, Sumur, Kec. Dusun Tim., Kabupaten Barito Timur, Kalimantan Tengah 73671","Sumur, Kec. Dusun Tim., Kabupaten Barito Timur",KALIMANTAN TENGAH,73671.0,Indonesia, 085387939888,,,-2.0870694,115.1442128,https://maps.google.com/?cid=0x0:0xfc01ce658be0822a,
toko bangunan,Toko Bahan Bangunan,Toko Bangunan Do'a Banua,"8W47+69W, Sanggu, Kec. Dusun Sel., Kabupaten Barito Selatan, Kalimantan Tengah 73713","Sanggu, Kec. Dusun Sel., Kabupaten Barito Selatan",KALIMANTAN TENGAH,73713.0,Indonesia, 081287458656,,,-1.6943968,114.9134614,https://maps.google.com/?cid=0x0:0x2fc64be4a5791471,
toko bangunan,Toko Perlengkapan Rumah,Toko Bangunan NUGRAHA,"Q7C8+9GX, Bagok, Kec. Kelua, Kabupaten Barito Timur, Kalimantan Tengah 71552","Bagok, Kec. Kelua, Kabupaten Barito Timur",KALIMANTAN TENGAH,71552.0,Indonesia, 081367805201,,,-2.2290034,115.2663504,https://maps.google.com/?cid=0x0:0xa6035c3214169c57,
toko bangunan,Toko Bahan Bangunan,Tb toko bahan bangunan Akbar Achyar,"Unnamed Road, Pulau Pinang Utara, Kec. Binuang, Kabupaten Tapin, Kalimantan Selatan 71185","Pulau Pinang Utara, Kec. Binuang, Kabupaten Tapin",KALIMANTAN TENGAH,71185.0,Indonesia, 087834113340,,,-3.0890066,115.0941513,https://maps.google.com/?cid=0x0:0x7b939793ef930f05,
toko bangunan,Toko Bahan Bangunan,Toko bangunan,"Jl. Bandar Agung, Pelantaran, Kec. Cempaga Hulu, Kabupaten Kotawaringin Timur, Kalimantan Tengah 74354","Pelantaran, Kec. Cempaga Hulu, Kabupaten Kotawaringin Timur",KALIMANTAN TENGAH,74354.0,Indonesia, 08161999912,,,-2.0434116,112.9769704,https://maps.google.com/?cid=0x0:0x1c3ae9dd82e03e2f,
toko bangunan,Toko Perlengkapan Rumah,Toko alat bangunan sudi bungkang.trimas.,"FCH2+JVM, JL.ULAMA, Ilung, Kec. Batang Alai Utara, Kabupaten Hulu Sungai Tengah, Kalimantan Selatan 71391","JL.ULAMA, Ilung, Kec. Batang Alai Utara, Kabupaten Hulu Sungai Tengah",KALIMANTAN TENGAH,71391.0,Indonesia, 08161999912,,,-2.5209169,115.4021704,https://maps.google.com/?cid=0x0:0xb0eed6f4bed79f55,
toko bangunan,Toko Bahan Bangunan,Toko Bangunan Giat Jaya,"Jl. Mulawarman No.RT 22/02, Sepaso, Kec. Bengalon, Kabupaten Kutai Timur, Kalimantan Timur 75618","Sepaso, Kec. Bengalon, Kabupaten Kutai Timur",KALIMANTAN TENGAH,75618.0,Indonesia, 081287458656,,,0.7514735,117.5761453,https://maps.google.com/?cid=0x0:0xa2af32e03477a51,
toko bangunan,Pemasok Bahan Bangunan,"Radi, Toko Bangunan(kayu)","943G+62C, Jln Raya Daha, Muning Tengah, Daha Selatan, South Hulu Sungai Regency, South Kalimantan","Kabupaten Hulu Sungai Selatan, Kalimantan Selatan",KALIMANTAN TENGAH,,Indonesia, 087781689990,,,-2.6469407,115.1250078,https://maps.google.com/?cid=0x0:0x444e14c176a004b2,
toko bangunan,Toko Bahan Bangunan,Amin Chandra,"Jalan A Yani No.Km 6, Karang Langit, Kec. Dusun Tim., Kabupaten Barito Timur, Kalimantan Tengah","Kabupaten Barito Timur, Kalimantan Tengah",KALIMANTAN TENGAH,,Indonesia,,,,-2.0123999,115.188916,https://maps.google.com/?cid=0x0:0xa298e47889474ca4,
toko bangunan,Toko Bahan Bangunan,TOKO BANGUNAN HADI BERKAH MANDIRI (HBM),"Baringin Tunggal Jaya, Kec. Parenggean, SP5H, Kalimantan Tengah 74355","Kec. Parenggean, SP5H",KALIMANTAN TENGAH,74355.0,Indonesia, 08161999912,,,-1.9156133,112.8614535,https://maps.google.com/?cid=0x0:0x43f8a4b7480839b4,
toko bangunan,Toko Bahan Bangunan,Toko Bangunan ANIS,"V5JC+VRJ, Jl. Ahmad Yani, Tamiang Layang, Kec. Dusun Tim., Kabupaten Barito Timur, Kalimantan Tengah 73671","Jl. Ahmad Yani, Tamiang Layang, Kec. Dusun Tim., Kabupaten Barito Timur",KALIMANTAN TENGAH,73671.0,Indonesia, 085249511744,,,-2.1177883,115.172023,https://maps.google.com/?cid=0x0:0x91d0d2599bd1ea1e,
toko bangunan,Toko Swalayan,Toko.Bangunan  Molding,"F5V6+Q97, Jl. Negara Ampah-Muarateweh, Patas II, Kec. Gn. Bintang Awai, Kabupaten Barito Selatan, Kalimantan Tengah 73753","Jl. Negara Ampah-Muarateweh, Patas II, Kec. Gn. Bintang Awai, Kabupaten Barito Selatan",KALIMANTAN TENGAH,73753.0,Indonesia, 081367805201,,,-1.5055901,115.160911,https://maps.google.com/?cid=0x0:0xdf2f3df691cf2c7,
toko bangunan,Toko Bahan Bangunan,Toko Bangunan Hidayah,"Banua Kupang, Kec. Labuan Amas Utara, Kabupaten Hulu Sungai Tengah, Kalimantan Selatan 71362","Kec. Labuan Amas Utara, Kabupaten Hulu Sungai Tengah",KALIMANTAN TENGAH,71362.0,Indonesia, 081357069229,,,-2.6016082,115.3217385,https://maps.google.com/?cid=0x0:0xafeaad0301b35e5e,
toko bangunan,Toko,Toko Bahan Bangunan F,"J6GQ+FGQ, Keramat, Kec. Haur Gading, Kabupaten Hulu Sungai Utara, Kalimantan Selatan 71471","Keramat, Kec. Haur Gading, Kabupaten Hulu Sungai Utara",KALIMANTAN TENGAH,71471.0,Indonesia,,,,-2.3737872,115.2388653,https://maps.google.com/?cid=0x0:0xc7507953cd06095c,
toko bangunan,Toko Bahan Bangunan,Toko Dua Putra,"55GJ+9G8, Jl. Tamiyang Layang - Ampah Ampah, Rodok, Kec. Dusun Tengah, Kabupaten Barito Timur, Kalimantan Tengah 73652","Jl. Tamiyang Layang - Ampah Ampah, Rodok, Kec. Dusun Tengah, Kabupaten Barito Timur",KALIMANTAN TENGAH,73652.0,Indonesia,,,,-1.8240951,115.1813327,https://maps.google.com/?cid=0x0:0xab9f4e642ec46c78,
toko bangunan,Toko,TOKO FAUZAN NIAGARA,"55W4+M74, Jl. Tamiyang Layang - Ampah Ampah, Ampah Kota, Kec. Dusun Tengah, Kabupaten Barito Timur, Kalimantan Tengah 73652","Jl. Tamiyang Layang - Ampah Ampah, Ampah Kota, Kec. Dusun Tengah, Kabupaten Barito Timur",KALIMANTAN TENGAH,73652.0,Indonesia, 081367805201,,,-1.8033641,115.1556954,https://maps.google.com/?cid=0x0:0x7022bb8b2804f08,
toko bangunan,Toko Bahan Bangunan,Toko Hanafi,"6552+Q6R, Ampah Kota, Kec. Dusun Tengah, Kabupaten Barito Timur, Kalimantan Tengah 73652","Ampah Kota, Kec. Dusun Tengah, Kabupaten Barito Timur",KALIMANTAN TENGAH,73652.0,Indonesia, 085248966775,,,-1.7905077,115.1505234,https://maps.google.com/?cid=0x0:0xcd63d9f911c43d1a,
toko bangunan,Toko Bahan Bangunan,toko h.amat bangunan,"G4Q4+96M, Jl. Alabio Danau Panggang, Pandamaan, Kec. Danau Panggang, Kabupaten Hulu Sungai Utara, Kalimantan Selatan 71453","Jl. Alabio Danau Panggang, Pandamaan, Kec. Danau Panggang, Kabupaten Hulu Sungai Utara",KALIMANTAN TENGAH,71453.0,Indonesia, 08161999912,,,-2.4615478,115.1055415,https://maps.google.com/?cid=0x0:0xfbc401c4cdb966d6,
toko bangunan,Toko Perlengkapan Rumah,Royal Bangunan Cileungsi,"Jl. Raya Cileungsi - Jonggol, Cileungsi Kidul, Kec. Cileungsi, Kabupaten Bogor, Jawa Barat 16820","Cileungsi Kidul, Kec. Cileungsi, Kabupaten Bogor",KALIMANTAN TENGAH,16820.0,Indonesia, 081237777863,,,-6.4088027,106.9820147,https://maps.google.com/?cid=0x0:0xb462ffc6da21541d,
toko bangunan,Toko Bahan Bangunan,Depo Bangunan Bogor,"Jalan Sholeh Iskandar No.Km 6,6, RT.01/RW.11, Kedungbadak, Kec. Tanah Sereal, Kota Bogor, Jawa Barat 16163","RT.01/RW.11, Kedungbadak, Kec. Tanah Sereal, Kota Bogor",KALIMANTAN TENGAH,16163.0,Indonesia, 02517558181,,,-6.5618952,106.7965448,https://maps.google.com/?cid=0x0:0xff1a413cca7d2790,
toko bangunan,Toko Bahan Bangunan,TB. Awang Jaya,"Jalan Sultan Agung No.RT.08, RT.08/RW.3, Latukan Utara, Latukan, Kec. Karang Geneng, Kabupaten Lamongan, Jawa Timur 62254","RT.08/RW.3, Latukan Utara, Latukan, Kec. Karang Geneng, Kabupaten Lamongan",KALIMANTAN TENGAH,62254.0,Indonesia, 08161999912,,,-7.0181819,112.326042,https://maps.google.com/?cid=0x0:0x1a0ada7dad608c31,
toko bangunan,toko bangunan,Kalimantan Tengah 73661,"Kec. Benua Lima, Kabupaten Barito Timur, Kalimantan Tengah","Kabupaten Barito Timur, Kalimantan Tengah",KALIMANTAN TENGAH,,Indonesia,,,,-2.2459171,115.1177654,https://maps.google.com/?cid=0x0:0x6244b86fbc9e52c1,
toko bangunan,Komplek perumahan,TBahan bangunan Rumah dari kayuoko,"R64V+9C3, Kandris, Kec. Benua Lima, Kabupaten Barito Timur, Kalimantan Tengah 73661","Kandris, Kec. Benua Lima, Kabupaten Barito Timur",KALIMANTAN TENGAH,73661.0,Indonesia, 081367805201,,,-2.1941218,115.2435545,https://maps.google.com/?cid=0x0:0xdc9b55758e9c487a,
toko bangunan,Toko Perlengkapan Rumah,Toko Bangunan NUGRAHA,"Q7C8+9GX, Bagok, Kec. Kelua, Kabupaten Barito Timur, Kalimantan Tengah 71552","Bagok, Kec. Kelua, Kabupaten Barito Timur",KALIMANTAN TENGAH,71552.0,Indonesia, 081367805201,,,-2.2290034,115.2663504,https://maps.google.com/?cid=0x0:0xa6035c3214169c57,
toko bangunan,Toko Bahan Bangunan,Toko Bangunan ANIS,"V5JC+VRJ, Jl. Ahmad Yani, Tamiang Layang, Kec. Dusun Tim., Kabupaten Barito Timur, Kalimantan Tengah 73671","Jl. Ahmad Yani, Tamiang Layang, Kec. Dusun Tim., Kabupaten Barito Timur",KALIMANTAN TENGAH,73671.0,Indonesia, 085249511744,,,-2.1177883,115.172023,https://maps.google.com/?cid=0x0:0x91d0d2599bd1ea1e,
toko bangunan,Toko Bahan Bangunan,TOKO BANGUNAN FAUZAN,"Q6WX+CQH, Jl. Kelua - Ps. Panas, Ps. Panas, Kec. Kelua, Kabupaten Tabalong, Kalimantan Selatan 73661","Jl. Kelua - Ps. Panas, Ps. Panas, Kec. Kelua, Kabupaten Tabalong",KALIMANTAN TENGAH,73661.0,Indonesia, 085828602873,,,-2.2039433,115.2494691,https://maps.google.com/?cid=0x0:0x81c8126c8ca3f97f,
toko bangunan,Pusat Perbelanjaan,Timbuk Baru. TB,"Jl. Ps. Panas - Tamiang Layang, Jaar, Kec. Dusun Tim., Kabupaten Barito Timur, Kalimantan Tengah 73671","Jaar, Kec. Dusun Tim., Kabupaten Barito Timur",KALIMANTAN TENGAH,73671.0,Indonesia, 085664920865,,,-2.1394112,115.1952203,https://maps.google.com/?cid=0x0:0x75857d0b67f4e686,
toko bangunan,Toko Bahan Bangunan,Toko Bangunan Do'a Banua,"8W47+69W, Sanggu, Kec. Dusun Sel., Kabupaten Barito Selatan, Kalimantan Tengah 73713","Sanggu, Kec. Dusun Sel., Kabupaten Barito Selatan",KALIMANTAN TENGAH,73713.0,Indonesia, 081287458656,,,-1.6943968,114.9134614,https://maps.google.com/?cid=0x0:0x2fc64be4a5791471,
toko bangunan,Toko,TB JUMBERI,"Q6XW+GGV, Jl. Kelua - Ps. Panas, Ps. Panas, Kec. Kelua, Kabupaten Tabalong, Kalimantan Selatan 73661","Jl. Kelua - Ps. Panas, Ps. Panas, Kec. Kelua, Kabupaten Tabalong",KALIMANTAN TENGAH,73661.0,Indonesia,,,,-2.2011361,115.2462935,https://maps.google.com/?cid=0x0:0xbb5fe0f30e7ce052,
toko bangunan,Toko Bahan Bangunan,Toko Bangunan IKIP,"R62R+HMH, Ps. Panas, Kec. Kelua, Kabupaten Tabalong, Kalimantan Selatan 73661","Ps. Panas, Kec. Kelua, Kabupaten Tabalong",KALIMANTAN TENGAH,73661.0,Indonesia,,,,-2.1986054,115.2417872,https://maps.google.com/?cid=0x0:0x34fb39364b9b8bd7,
toko bangunan,Toko Alat-Alat,Ami Jaya. UD,"Jl. Ahmad Yani KM.13, Tamiang Layang, Kec. Dusun Tim., Kabupaten Barito Timur, Kalimantan Tengah 73611","Tamiang Layang, Kec. Dusun Tim., Kabupaten Barito Timur",KALIMANTAN TENGAH,73611.0,Indonesia, 05262092151,,,-2.1109572,115.1643133,https://maps.google.com/?cid=0x0:0x5bfd167739b72544,
toko bangunan,Toko Bahan Bangunan,Toko Mungkur habang jaya(MHJ),"Jl. Kelua - Ps. Panas, Ps. Panas, Kec. Kelua, Kabupaten Tabalong, Kalimantan Selatan 73661","Ps. Panas, Kec. Kelua, Kabupaten Tabalong",KALIMANTAN TENGAH,73661.0,Indonesia, 081248702007,,,-2.205309,115.2511736,https://maps.google.com/?cid=0x0:0x90bf4894c899b7aa,
toko bangunan,Toko Bahan Bangunan,TOKO bangunan Ayip,"Pudak Setegal, Kec. Kelua, Kabupaten Tabalong, Kalimantan Selatan 71552","Kec. Kelua, Kabupaten Tabalong",KALIMANTAN TENGAH,71552.0,Indonesia, 087783141071,,,-2.2873738,115.2808017,https://maps.google.com/?cid=0x0:0xd0ebbd1d37db74bb,
toko bangunan,Jasa Konstruksi dan Bangunan,batako julak ILUK,"V6J2+Q8V, Unnamed Road, Mangkarap, Kec. Dusun Tim., Kabupaten Barito Timur, Kalimantan Tengah 73671","Unnamed Road, Mangkarap, Kec. Dusun Tim., Kabupaten Barito Timur",KALIMANTAN TENGAH,73671.0,Indonesia,,,,-2.1180103,115.2008121,https://maps.google.com/?cid=0x0:0xc2104874741224f6,
toko bangunan,Toko Bahan Bangunan,Toko Bangunan Dani,"Jl. Amuntai - Kelua, Pudak Setegal, Kec. Kelua, Kabupaten Tabalong, Kalimantan Selatan 71552","Pudak Setegal, Kec. Kelua, Kabupaten Tabalong",KALIMANTAN TENGAH,71552.0,Indonesia, 087721911145,,,-2.2813156,115.2966567,https://maps.google.com/?cid=0x0:0xbfb376d45ab2cc02,
toko bangunan,Toko Bahan Bangunan,Toko Alat Bangunan,"RT 03 RW 01 Kabupaten, Tinggiran Baru, Kec. Mekarsari, Kabupaten Barito Kuala, Kalimantan Selatan 70566","Tinggiran Baru, Kec. Mekarsari, Kabupaten Barito Kuala",KALIMANTAN TENGAH,70566.0,Indonesia,,,,-3.2742548,114.5215334,https://maps.google.com/?cid=0x0:0x209535c5cb02fd61,
toko bangunan,Toko Bahan Bangunan,Tb berkat cahaya matahari,"V5W3+CM, Tamiang Layang, Kec. Dusun Tim., Kabupaten Barito Timur, Kalimantan Tengah 73671","Tamiang Layang, Kec. Dusun Tim., Kabupaten Barito Timur",KALIMANTAN TENGAH,73671.0,Indonesia,,,,-2.1039463,115.1541763,https://maps.google.com/?cid=0x0:0x8852c885c37eadd7,
toko bangunan,Toko Bahan Bangunan,Toko Bangun Bersama,"QJ37+XM4, Handil Bakti, Kec. Alalak, Kabupaten Barito Kuala, Kalimantan Selatan 70581","Handil Bakti, Kec. Alalak, Kabupaten Barito Kuala",KALIMANTAN TENGAH,70581.0,Indonesia, 08125410140,,,-3.2451207,114.6142055,https://maps.google.com/?cid=0x0:0xa33963f5ee453e5f,
toko bangunan,Toko Perlengkapan Rumah,Toko Bangunan Raihan,"WJWF+5C6, Belawang Kolam Kiri, Kec. Wanaraya, Kabupaten Barito Kuala, Kalimantan Selatan 70562","Belawang Kolam Kiri, Kec. Wanaraya, Kabupaten Barito Kuala",KALIMANTAN TENGAH,70562.0,Indonesia,,,,-3.0545899,114.6235237,https://maps.google.com/?cid=0x0:0x70f4408c22ee6645,
toko bangunan,Toko Bahan Bangunan,TB.Ami Jaya,"Jl. Nansarunai - Tamiang Layang, Sumur, Kec. Dusun Tim., Kabupaten Barito Timur, Kalimantan Tengah 73671","Sumur, Kec. Dusun Tim., Kabupaten Barito Timur",KALIMANTAN TENGAH,73671.0,Indonesia, 085387939888,,,-2.0870694,115.1442128,https://maps.google.com/?cid=0x0:0xfc01ce658be0822a,
toko bangunan,Toko Bahan Bangunan,Toko.karya sama,"V5V6+C6C, Tamiang Layang, Kec. Dusun Tim., Kabupaten Barito Timur, Kalimantan Tengah 73671","Tamiang Layang, Kec. Dusun Tim., Kabupaten Barito Timur",KALIMANTAN TENGAH,73671.0,Indonesia, 081257856236,,,-2.1064377,115.1605126,https://maps.google.com/?cid=0x0:0x15902a95df69d6ce,
toko bangunan,Toko,Toko Usaha Baru,"V5HG+V73, Tamiang Layang, Kec. Dusun Tim., Kabupaten Barito Timur, Kalimantan Tengah 73671","Tamiang Layang, Kec. Dusun Tim., Kabupaten Barito Timur",KALIMANTAN TENGAH,73671.0,Indonesia, 082154188388,,,-2.12036,115.1756731,https://maps.google.com/?cid=0x0:0xe37193f3622778c4,
toko bangunan,toko bangunan,Kec. Dusun Tengah,"Kabupaten Barito Timur, Kalimantan Tengah","Kabupaten Barito Timur, Kalimantan Tengah",KALIMANTAN TENGAH,,Indonesia,,,,-1.7997404,115.1507466,https://maps.google.com/?cid=0x0:0xca2b51c229ce230f,
toko bangunan,Toko Bahan Bangunan,Bumi Bangunan,"Muara Teweh, Jl. Ampah No.RT 09, Ampah Kota, Kec. Dusun Tengah, Kabupaten Barito Timur, Kalimantan Tengah 73652","Jl. Ampah No.RT 09, Ampah Kota, Kec. Dusun Tengah, Kabupaten Barito Timur",KALIMANTAN TENGAH,73652.0,Indonesia, 081287458656,,,-1.7910596,115.1503415,https://maps.google.com/?cid=0x0:0x332c6d59f1964b74,
toko bangunan,Toko Bahan Bangunan,TOKO USAHA JAYA (UJ),"Jl. Vetran Ampah, Putai, Kec. Dusun Tengah, Kabupaten Barito Timur, Kalimantan Tengah 73652","Putai, Kec. Dusun Tengah, Kabupaten Barito Timur",KALIMANTAN TENGAH,73652.0,Indonesia, 081357891567,,,-1.8007003,115.1504013,https://maps.google.com/?cid=0x0:0xfe206149b85fd21,
toko bangunan,Toko Bahan Bangunan,Toko H. WAHYU,"Ampah Kota, Kec. Dusun Tengah, Kabupaten Barito Timur, Kalimantan Tengah 73652","Kec. Dusun Tengah, Kabupaten Barito Timur",KALIMANTAN TENGAH,73652.0,Indonesia,,,,-1.8005173,115.1523632,https://maps.google.com/?cid=0x0:0x7c7605a68ebe6acf,
toko bangunan,Toko,TOKO FAUZAN NIAGARA,"55W4+M74, Jl. Tamiyang Layang - Ampah Ampah, Ampah Kota, Kec. Dusun Tengah, Kabupaten Barito Timur, Kalimantan Tengah 73652","Jl. Tamiyang Layang - Ampah Ampah, Ampah Kota, Kec. Dusun Tengah, Kabupaten Barito Timur",KALIMANTAN TENGAH,73652.0,Indonesia, 081367805201,,,-1.8033641,115.1556954,https://maps.google.com/?cid=0x0:0x7022bb8b2804f08,
toko bangunan,Toko Bahan Bangunan,TOKO SERVICE GERGAJI. PT PARGUM,"55W4+J6H, Ampah Kota, Kec. Dusun Tengah, Kabupaten Barito Timur, Kalimantan Tengah 73652","Ampah Kota, Kec. Dusun Tengah, Kabupaten Barito Timur",KALIMANTAN TENGAH,73652.0,Indonesia,,,,-1.803442,115.1555939,https://maps.google.com/?cid=0x0:0x2200700e912cba64,
toko bangunan,Toko Bahan Bangunan,Toko Dua Putra,"55GJ+9G8, Jl. Tamiyang Layang - Ampah Ampah, Rodok, Kec. Dusun Tengah, Kabupaten Barito Timur, Kalimantan Tengah 73652","Jl. Tamiyang Layang - Ampah Ampah, Rodok, Kec. Dusun Tengah, Kabupaten Barito Timur",KALIMANTAN TENGAH,73652.0,Indonesia,,,,-1.8240951,115.1813327,https://maps.google.com/?cid=0x0:0xab9f4e642ec46c78,
toko bangunan,Toko Bahan Bangunan,Toko Bangunan Swarga,"Jalan, Tamiang Layang, Dusun Timur, East Barito Regency, Central Kalimantan 73671","Tamiang Layang, Dusun Timur, East Barito Regency",KALIMANTAN TENGAH,73671.0,Indonesia, 085789077202,,,-2.0966672,115.151779,https://maps.google.com/?cid=0x0:0x4153cd1f5a6a0a6e,
toko bangunan,Toko Bahan Bangunan,UD Karya Bersama,"JL. Murung Basuki, No No.27, Ampah Kota, Kec. Dusun Tengah, Kabupaten Barito Timur, Kalimantan Tengah 73652","No No.27, Ampah Kota, Kec. Dusun Tengah, Kabupaten Barito Timur",KALIMANTAN TENGAH,73652.0,Indonesia, 052231150,,,-1.790137,115.15337,https://maps.google.com/?cid=0x0:0xbfe3f5b3221f7d6d,
toko bangunan,Toko Swalayan,Toko.Bangunan  Molding,"F5V6+Q97, Jl. Negara Ampah-Muarateweh, Patas II, Kec. Gn. Bintang Awai, Kabupaten Barito Selatan, Kalimantan Tengah 73753","Jl. Negara Ampah-Muarateweh, Patas II, Kec. Gn. Bintang Awai, Kabupaten Barito Selatan",KALIMANTAN TENGAH,73753.0,Indonesia, 081367805201,,,-1.5055901,115.160911,https://maps.google.com/?cid=0x0:0xdf2f3df691cf2c7,
toko bangunan,Toko Bahan Bangunan,CV. Duo Phett,"Desa Tangkum, RT.04/RW.02, Batuah, Kec. Raren Batuah, Kabupaten Barito Timur, Kalimantan Tengah 73652","RT.04/RW.02, Batuah, Kec. Raren Batuah, Kabupaten Barito Timur",KALIMANTAN TENGAH,73652.0,Indonesia, 082354963750,,,-1.7281602,115.1954738,https://maps.google.com/?cid=0x0:0x68faf7bf1ff7d8a7,
toko bangunan,Toko Bahan Bangunan,RUPA RUPA MUR BAUT AMPAH,"Jl. Patas Ampah, Ampah Kota, Kec. Dusun Tengah, Kabupaten Barito Timur, Kalimantan Tengah 73652","Ampah Kota, Kec. Dusun Tengah, Kabupaten Barito Timur",KALIMANTAN TENGAH,73652.0,Indonesia, 081329490000,,,-1.7982047,115.1507715,https://maps.google.com/?cid=0x0:0x5102febd39692c86,
toko bangunan,toko bangunan,Bahan Bangunan,"Ampah Kota, Kec. Dusun Tengah, Kabupaten Barito Timur, Kalimantan Tengah","Kabupaten Barito Timur, Kalimantan Tengah",KALIMANTAN TENGAH,,Indonesia,,,,-1.8014785,115.1536259,https://maps.google.com/?cid=0x0:0x2fb6f77a1eead4e6,
toko bangunan,toko bangunan,Kalimantan Tengah 73612,"Telang, Kec. Paju Epat, Kabupaten Barito Timur, Kalimantan Tengah","Kabupaten Barito Timur, Kalimantan Tengah",KALIMANTAN TENGAH,,Indonesia,,,,-2.1445423,115.0288051,https://maps.google.com/?cid=0x0:0xebf8e473b2c14e5c,
toko bangunan,Toko Bahan Bangunan,Toko Bangunan Swarga,"Jalan, Tamiang Layang, Dusun Timur, East Barito Regency, Central Kalimantan 73671","Tamiang Layang, Dusun Timur, East Barito Regency",KALIMANTAN TENGAH,73671.0,Indonesia, 085789077202,,,-2.0966672,115.151779,https://maps.google.com/?cid=0x0:0x4153cd1f5a6a0a6e,
toko bangunan,Toko Perlengkapan Rumah,Toko Bangunan NUGRAHA,"Q7C8+9GX, Bagok, Kec. Kelua, Kabupaten Barito Timur, Kalimantan Tengah 71552","Bagok, Kec. Kelua, Kabupaten Barito Timur",KALIMANTAN TENGAH,71552.0,Indonesia, 081367805201,,,-2.2290034,115.2663504,https://maps.google.com/?cid=0x0:0xa6035c3214169c57,
toko bangunan,Toko Bahan Bangunan,Toko Bangunan ANIS,"V5JC+VRJ, Jl. Ahmad Yani, Tamiang Layang, Kec. Dusun Tim., Kabupaten Barito Timur, Kalimantan Tengah 73671","Jl. Ahmad Yani, Tamiang Layang, Kec. Dusun Tim., Kabupaten Barito Timur",KALIMANTAN TENGAH,73671.0,Indonesia, 085249511744,,,-2.1177883,115.172023,https://maps.google.com/?cid=0x0:0x91d0d2599bd1ea1e,
toko bangunan,Toko Bahan Bangunan,Toko Bangunan Do'a Banua,"8W47+69W, Sanggu, Kec. Dusun Sel., Kabupaten Barito Selatan, Kalimantan Tengah 73713","Sanggu, Kec. Dusun Sel., Kabupaten Barito Selatan",KALIMANTAN TENGAH,73713.0,Indonesia, 081287458656,,,-1.6943968,114.9134614,https://maps.google.com/?cid=0x0:0x2fc64be4a5791471,
toko bangunan,Toko Bahan Bangunan,Toko Hanafi,"6552+Q6R, Ampah Kota, Kec. Dusun Tengah, Kabupaten Barito Timur, Kalimantan Tengah 73652","Ampah Kota, Kec. Dusun Tengah, Kabupaten Barito Timur",KALIMANTAN TENGAH,73652.0,Indonesia, 085248966775,,,-1.7905077,115.1505234,https://maps.google.com/?cid=0x0:0xcd63d9f911c43d1a,
toko bangunan,Toko Alat-Alat,Ami Jaya. UD,"Jl. Ahmad Yani KM.13, Tamiang Layang, Kec. Dusun Tim., Kabupaten Barito Timur, Kalimantan Tengah 73611","Tamiang Layang, Kec. Dusun Tim., Kabupaten Barito Timur",KALIMANTAN TENGAH,73611.0,Indonesia, 05262092151,,,-2.1109572,115.1643133,https://maps.google.com/?cid=0x0:0x5bfd167739b72544,
toko bangunan,Toko Bahan Bangunan,TB.Ami Jaya,"Jl. Nansarunai - Tamiang Layang, Sumur, Kec. Dusun Tim., Kabupaten Barito Timur, Kalimantan Tengah 73671","Sumur, Kec. Dusun Tim., Kabupaten Barito Timur",KALIMANTAN TENGAH,73671.0,Indonesia, 085387939888,,,-2.0870694,115.1442128,https://maps.google.com/?cid=0x0:0xfc01ce658be0822a,
toko bangunan,Toko Bahan Bangunan,TB. Yakin,"Handil Bakti, Kec. Alalak, Kabupaten Barito Kuala, Kalimantan Selatan 70582","Kec. Alalak, Kabupaten Barito Kuala",KALIMANTAN TENGAH,70582.0,Indonesia, 089514485280,,,-3.2558791,114.6086376,https://maps.google.com/?cid=0x0:0xca799ccf01220043,
toko bangunan,Toko Bahan Bangunan,TOKO BANGUNAN BARITO,"Lenggang, Kec. Raren Batuah, Kabupaten Barito Timur, Kalimantan Tengah","Kabupaten Barito Timur, Kalimantan Tengah",KALIMANTAN TENGAH,,Indonesia,,,,-1.7019148,115.1422195,https://maps.google.com/?cid=0x0:0x1fdd76b0baae111e,
toko bangunan,Toko Bahan Bangunan,Toko.karya sama,"V5V6+C6C, Tamiang Layang, Kec. Dusun Tim., Kabupaten Barito Timur, Kalimantan Tengah 73671","Tamiang Layang, Kec. Dusun Tim., Kabupaten Barito Timur",KALIMANTAN TENGAH,73671.0,Indonesia, 081257856236,,,-2.1064377,115.1605126,https://maps.google.com/?cid=0x0:0x15902a95df69d6ce,
toko bangunan,toko bangunan,dede unil,"W22J+MP, Telang, Kec. Paju Epat, Kabupaten Barito Timur, Kalimantan Tengah 73613","Telang, Kec. Paju Epat, Kabupaten Barito Timur",KALIMANTAN TENGAH,73613.0,Indonesia,,,,-2.0983189,115.0317927,https://maps.google.com/?cid=0x0:0xabdacfa66f4905c6,
toko bangunan,toko bangunan,Toko alat dan bahan bangunan,"Jl. Tamiyang Layang - Ampah RT 04 No.109, Jaweten, Kec. Dusun Tim., Kabupaten Barito Timur, Kalimantan Tengah 73681","Jaweten, Kec. Dusun Tim., Kabupaten Barito Timur",KALIMANTAN TENGAH,73681.0,Indonesia,,,,-2.0366366,115.1339609,https://maps.google.com/?cid=0x0:0xbf1c994ffb55a4b0,
toko bangunan,Toko Bahan Bangunan,Toko Dua Putra,"55GJ+9G8, Jl. Tamiyang Layang - Ampah Ampah, Rodok, Kec. Dusun Tengah, Kabupaten Barito Timur, Kalimantan Tengah 73652","Jl. Tamiyang Layang - Ampah Ampah, Rodok, Kec. Dusun Tengah, Kabupaten Barito Timur",KALIMANTAN TENGAH,73652.0,Indonesia,,,,-1.8240951,115.1813327,https://maps.google.com/?cid=0x0:0xab9f4e642ec46c78,
toko bangunan,Toko Bahan Bangunan,UD Karya Bersama,"JL. Murung Basuki, No No.27, Ampah Kota, Kec. Dusun Tengah, Kabupaten Barito Timur, Kalimantan Tengah 73652","No No.27, Ampah Kota, Kec. Dusun Tengah, Kabupaten Barito Timur",KALIMANTAN TENGAH,73652.0,Indonesia, 052231150,,,-1.790137,115.15337,https://maps.google.com/?cid=0x0:0xbfe3f5b3221f7d6d,
toko bangunan,toko bangunan,Kalimantan Tengah 73613,"Kec. Paju Epat, Kabupaten Barito Timur, Kalimantan Tengah","Kabupaten Barito Timur, Kalimantan Tengah",KALIMANTAN TENGAH,,Indonesia,,,,-2.1173046,115.0525302,https://maps.google.com/?cid=0x0:0x122a80857309f6e5,
toko bangunan,Toko Bahan Bangunan,Toko Bangunan Swarga,"Jalan, Tamiang Layang, Dusun Timur, East Barito Regency, Central Kalimantan 73671","Tamiang Layang, Dusun Timur, East Barito Regency",KALIMANTAN TENGAH,73671.0,Indonesia, 085789077202,,,-2.0966672,115.151779,https://maps.google.com/?cid=0x0:0x4153cd1f5a6a0a6e,
toko bangunan,Toko Bahan Bangunan,Toko Bangunan ANIS,"V5JC+VRJ, Jl. Ahmad Yani, Tamiang Layang, Kec. Dusun Tim., Kabupaten Barito Timur, Kalimantan Tengah 73671","Jl. Ahmad Yani, Tamiang Layang, Kec. Dusun Tim., Kabupaten Barito Timur",KALIMANTAN TENGAH,73671.0,Indonesia, 085249511744,,,-2.1177883,115.172023,https://maps.google.com/?cid=0x0:0x91d0d2599bd1ea1e,
toko bangunan,Toko Bahan Bangunan,TB.Ami Jaya,"Jl. Nansarunai - Tamiang Layang, Sumur, Kec. Dusun Tim., Kabupaten Barito Timur, Kalimantan Tengah 73671","Sumur, Kec. Dusun Tim., Kabupaten Barito Timur",KALIMANTAN TENGAH,73671.0,Indonesia, 085387939888,,,-2.0870694,115.1442128,https://maps.google.com/?cid=0x0:0xfc01ce658be0822a,
toko bangunan,Toko Swalayan,Toko.Bangunan  Molding,"F5V6+Q97, Jl. Negara Ampah-Muarateweh, Patas II, Kec. Gn. Bintang Awai, Kabupaten Barito Selatan, Kalimantan Tengah 73753","Jl. Negara Ampah-Muarateweh, Patas II, Kec. Gn. Bintang Awai, Kabupaten Barito Selatan",KALIMANTAN TENGAH,73753.0,Indonesia, 081367805201,,,-1.5055901,115.160911,https://maps.google.com/?cid=0x0:0xdf2f3df691cf2c7,
toko bangunan,Toko Alat-Alat,Ami Jaya. UD,"Jl. Ahmad Yani KM.13, Tamiang Layang, Kec. Dusun Tim., Kabupaten Barito Timur, Kalimantan Tengah 73611","Tamiang Layang, Kec. Dusun Tim., Kabupaten Barito Timur",KALIMANTAN TENGAH,73611.0,Indonesia, 05262092151,,,-2.1109572,115.1643133,https://maps.google.com/?cid=0x0:0x5bfd167739b72544,
toko bangunan,Komplek perumahan,TBahan bangunan Rumah dari kayuoko,"R64V+9C3, Kandris, Kec. Benua Lima, Kabupaten Barito Timur, Kalimantan Tengah 73661","Kandris, Kec. Benua Lima, Kabupaten Barito Timur",KALIMANTAN TENGAH,73661.0,Indonesia, 081367805201,,,-2.1941218,115.2435545,https://maps.google.com/?cid=0x0:0xdc9b55758e9c487a,
toko bangunan,Toko Bahan Bangunan,Tb berkat cahaya matahari,"V5W3+CM, Tamiang Layang, Kec. Dusun Tim., Kabupaten Barito Timur, Kalimantan Tengah 73671","Tamiang Layang, Kec. Dusun Tim., Kabupaten Barito Timur",KALIMANTAN TENGAH,73671.0,Indonesia,,,,-2.1039463,115.1541763,https://maps.google.com/?cid=0x0:0x8852c885c37eadd7,
toko bangunan,Toko Bahan Bangunan,Toko Bahan Bangunan Jaya Sentosa,"4MVF+JVF, Karya Jadi, Kec. Tabukan, Kabupaten Barito Kuala, Kalimantan Selatan 70553","Karya Jadi, Kec. Tabukan, Kabupaten Barito Kuala",KALIMANTAN TENGAH,70553.0,Indonesia, 08161999912,,,-2.8559526,114.674664,https://maps.google.com/?cid=0x0:0x9922ca11168825b4,
toko bangunan,Toko Bahan Bangunan,Toko Hanafi,"6552+Q6R, Ampah Kota, Kec. Dusun Tengah, Kabupaten Barito Timur, Kalimantan Tengah 73652","Ampah Kota, Kec. Dusun Tengah, Kabupaten Barito Timur",KALIMANTAN TENGAH,73652.0,Indonesia, 085248966775,,,-1.7905077,115.1505234,https://maps.google.com/?cid=0x0:0xcd63d9f911c43d1a,
toko bangunan,Toko Bahan Bangunan,Toko Bangunan Do'a Banua,"8W47+69W, Sanggu, Kec. Dusun Sel., Kabupaten Barito Selatan, Kalimantan Tengah 73713","Sanggu, Kec. Dusun Sel., Kabupaten Barito Selatan",KALIMANTAN TENGAH,73713.0,Indonesia, 081287458656,,,-1.6943968,114.9134614,https://maps.google.com/?cid=0x0:0x2fc64be4a5791471,
toko bangunan,Toko Bahan Bangunan,Toko.karya sama,"V5V6+C6C, Tamiang Layang, Kec. Dusun Tim., Kabupaten Barito Timur, Kalimantan Tengah 73671","Tamiang Layang, Kec. Dusun Tim., Kabupaten Barito Timur",KALIMANTAN TENGAH,73671.0,Indonesia, 081257856236,,,-2.1064377,115.1605126,https://maps.google.com/?cid=0x0:0x15902a95df69d6ce,
toko bangunan,toko bangunan,dede unil,"W22J+MP, Telang, Kec. Paju Epat, Kabupaten Barito Timur, Kalimantan Tengah 73613","Telang, Kec. Paju Epat, Kabupaten Barito Timur",KALIMANTAN TENGAH,73613.0,Indonesia,,,,-2.0983189,115.0317927,https://maps.google.com/?cid=0x0:0xabdacfa66f4905c6,
toko bangunan,toko bangunan,Toko alat dan bahan bangunan,"Jl. Tamiyang Layang - Ampah RT 04 No.109, Jaweten, Kec. Dusun Tim., Kabupaten Barito Timur, Kalimantan Tengah 73681","Jaweten, Kec. Dusun Tim., Kabupaten Barito Timur",KALIMANTAN TENGAH,73681.0,Indonesia,,,,-2.0366366,115.1339609,https://maps.google.com/?cid=0x0:0xbf1c994ffb55a4b0,
toko bangunan,toko bangunan,Tb sumber rejeki h salimi,"Jl. Ahmad Yani No.12, Tamiang Layang, Kec. Dusun Tim., Kabupaten Barito Timur, Kalimantan Tengah 73671","Tamiang Layang, Kec. Dusun Tim., Kabupaten Barito Timur",KALIMANTAN TENGAH,73671.0,Indonesia,,,,-2.1113721,115.1646967,https://maps.google.com/?cid=0x0:0x31e403c133ce70c1,
toko bangunan,Jasa Konstruksi dan Bangunan,batako julak ILUK,"V6J2+Q8V, Unnamed Road, Mangkarap, Kec. Dusun Tim., Kabupaten Barito Timur, Kalimantan Tengah 73671","Unnamed Road, Mangkarap, Kec. Dusun Tim., Kabupaten Barito Timur",KALIMANTAN TENGAH,73671.0,Indonesia,,,,-2.1180103,115.2008121,https://maps.google.com/?cid=0x0:0xc2104874741224f6,
toko bangunan,toko bangunan,Kalimantan Tengah 73614,"Kec. Paju Epat, Kabupaten Barito Timur, Kalimantan Tengah","Kabupaten Barito Timur, Kalimantan Tengah",KALIMANTAN TENGAH,,Indonesia,,,,-2.081165,115.0762536,https://maps.google.com/?cid=0x0:0x90e53ff734a76b72,
toko bangunan,Toko Bahan Bangunan,Toko Bangunan Swarga,"Jalan, Tamiang Layang, Dusun Timur, East Barito Regency, Central Kalimantan 73671","Tamiang Layang, Dusun Timur, East Barito Regency",KALIMANTAN TENGAH,73671.0,Indonesia, 085789077202,,,-2.0966672,115.151779,https://maps.google.com/?cid=0x0:0x4153cd1f5a6a0a6e,
toko bangunan,Toko Bahan Bangunan,Toko Bangunan ANIS,"V5JC+VRJ, Jl. Ahmad Yani, Tamiang Layang, Kec. Dusun Tim., Kabupaten Barito Timur, Kalimantan Tengah 73671","Jl. Ahmad Yani, Tamiang Layang, Kec. Dusun Tim., Kabupaten Barito Timur",KALIMANTAN TENGAH,73671.0,Indonesia, 085249511744,,,-2.1177883,115.172023,https://maps.google.com/?cid=0x0:0x91d0d2599bd1ea1e,
toko bangunan,Toko Perlengkapan Rumah,Toko Bangunan NUGRAHA,"Q7C8+9GX, Bagok, Kec. Kelua, Kabupaten Barito Timur, Kalimantan Tengah 71552","Bagok, Kec. Kelua, Kabupaten Barito Timur",KALIMANTAN TENGAH,71552.0,Indonesia, 081367805201,,,-2.2290034,115.2663504,https://maps.google.com/?cid=0x0:0xa6035c3214169c57,
toko bangunan,Toko Bahan Bangunan,Tb berkat cahaya matahari,"V5W3+CM, Tamiang Layang, Kec. Dusun Tim., Kabupaten Barito Timur, Kalimantan Tengah 73671","Tamiang Layang, Kec. Dusun Tim., Kabupaten Barito Timur",KALIMANTAN TENGAH,73671.0,Indonesia,,,,-2.1039463,115.1541763,https://maps.google.com/?cid=0x0:0x8852c885c37eadd7,
toko bangunan,Toko Swalayan,Toko.Bangunan  Molding,"F5V6+Q97, Jl. Negara Ampah-Muarateweh, Patas II, Kec. Gn. Bintang Awai, Kabupaten Barito Selatan, Kalimantan Tengah 73753","Jl. Negara Ampah-Muarateweh, Patas II, Kec. Gn. Bintang Awai, Kabupaten Barito Selatan",KALIMANTAN TENGAH,73753.0,Indonesia, 081367805201,,,-1.5055901,115.160911,https://maps.google.com/?cid=0x0:0xdf2f3df691cf2c7,
toko bangunan,Toko Bahan Bangunan,Toko H. WAHYU,"Ampah Kota, Kec. Dusun Tengah, Kabupaten Barito Timur, Kalimantan Tengah 73652","Kec. Dusun Tengah, Kabupaten Barito Timur",KALIMANTAN TENGAH,73652.0,Indonesia,,,,-1.8005173,115.1523632,https://maps.google.com/?cid=0x0:0x7c7605a68ebe6acf,
toko bangunan,Jasa Konstruksi dan Bangunan,batako julak ILUK,"V6J2+Q8V, Unnamed Road, Mangkarap, Kec. Dusun Tim., Kabupaten Barito Timur, Kalimantan Tengah 73671","Unnamed Road, Mangkarap, Kec. Dusun Tim., Kabupaten Barito Timur",KALIMANTAN TENGAH,73671.0,Indonesia,,,,-2.1180103,115.2008121,https://maps.google.com/?cid=0x0:0xc2104874741224f6,
toko bangunan,toko bangunan,Toko alat dan bahan bangunan,"Jl. Tamiyang Layang - Ampah RT 04 No.109, Jaweten, Kec. Dusun Tim., Kabupaten Barito Timur, Kalimantan Tengah 73681","Jaweten, Kec. Dusun Tim., Kabupaten Barito Timur",KALIMANTAN TENGAH,73681.0,Indonesia,,,,-2.0366366,115.1339609,https://maps.google.com/?cid=0x0:0xbf1c994ffb55a4b0,
toko bangunan,toko bangunan,Tb sumber rejeki h salimi,"Jl. Ahmad Yani No.12, Tamiang Layang, Kec. Dusun Tim., Kabupaten Barito Timur, Kalimantan Tengah 73671","Tamiang Layang, Kec. Dusun Tim., Kabupaten Barito Timur",KALIMANTAN TENGAH,73671.0,Indonesia,,,,-2.1113721,115.1646967,https://maps.google.com/?cid=0x0:0x31e403c133ce70c1,
toko bangunan,Toko Bahan Bangunan,Toko.karya sama,"V5V6+C6C, Tamiang Layang, Kec. Dusun Tim., Kabupaten Barito Timur, Kalimantan Tengah 73671","Tamiang Layang, Kec. Dusun Tim., Kabupaten Barito Timur",KALIMANTAN TENGAH,73671.0,Indonesia, 081257856236,,,-2.1064377,115.1605126,https://maps.google.com/?cid=0x0:0x15902a95df69d6ce,
toko bangunan,Toko Bahan Bangunan,TOKO USAHA JAYA (UJ),"Jl. Vetran Ampah, Putai, Kec. Dusun Tengah, Kabupaten Barito Timur, Kalimantan Tengah 73652","Putai, Kec. Dusun Tengah, Kabupaten Barito Timur",KALIMANTAN TENGAH,73652.0,Indonesia, 081357891567,,,-1.8007003,115.1504013,https://maps.google.com/?cid=0x0:0xfe206149b85fd21,
toko bangunan,toko bangunan,Kalimantan Tengah 73615,"Kec. Paju Epat, Kabupaten Barito Timur, Kalimantan Tengah","Kabupaten Barito Timur, Kalimantan Tengah",KALIMANTAN TENGAH,,Indonesia,,,,-2.0549841,115.0406679,https://maps.google.com/?cid=0x0:0xfc49174b02adf151,
toko bangunan,Toko Bahan Bangunan,Toko Bangunan Swarga,"Jalan, Tamiang Layang, Dusun Timur, East Barito Regency, Central Kalimantan 73671","Tamiang Layang, Dusun Timur, East Barito Regency",KALIMANTAN TENGAH,73671.0,Indonesia, 085789077202,,,-2.0966672,115.151779,https://maps.google.com/?cid=0x0:0x4153cd1f5a6a0a6e,
toko bangunan,Toko Bahan Bangunan,Toko Bangunan ANIS,"V5JC+VRJ, Jl. Ahmad Yani, Tamiang Layang, Kec. Dusun Tim., Kabupaten Barito Timur, Kalimantan Tengah 73671","Jl. Ahmad Yani, Tamiang Layang, Kec. Dusun Tim., Kabupaten Barito Timur",KALIMANTAN TENGAH,73671.0,Indonesia, 085249511744,,,-2.1177883,115.172023,https://maps.google.com/?cid=0x0:0x91d0d2599bd1ea1e,
toko bangunan,Toko Bahan Bangunan,Toko.karya sama,"V5V6+C6C, Tamiang Layang, Kec. Dusun Tim., Kabupaten Barito Timur, Kalimantan Tengah 73671","Tamiang Layang, Kec. Dusun Tim., Kabupaten Barito Timur",KALIMANTAN TENGAH,73671.0,Indonesia, 081257856236,,,-2.1064377,115.1605126,https://maps.google.com/?cid=0x0:0x15902a95df69d6ce,
toko bangunan,Toko Bahan Bangunan,Toko Bangunan Fasya,"Jln. Tumbang samba km 27, desa, Karya unggang, Kec. Tewang Sangalang Garing, Kabupaten Katingan, Kalimantan Tengah 74453","desa, Karya unggang, Kec. Tewang Sangalang Garing, Kabupaten Katingan",KALIMANTAN TENGAH,74453.0,Indonesia, 081396801512,,,-1.7299252,113.1453314,https://maps.google.com/?cid=0x0:0x44bf5edc4ed75ac0,
toko bangunan,Toko Bahan Bangunan,Griya Samudra,"Jl. Pangeran Antasari No.15-18, Mentawa Baru Hulu, Kec. Mentawa Baru Ketapang, Kabupaten Kotawaringin Timur, Kalimantan Tengah 74321","Mentawa Baru Hulu, Kec. Mentawa Baru Ketapang, Kabupaten Kotawaringin Timur",KALIMANTAN TENGAH,74321.0,Indonesia,,,,-2.5435595,112.9625606,https://maps.google.com/?cid=0x0:0x58fb317810cd7605,
toko bangunan,Jasa Konstruksi dan Bangunan,batako julak ILUK,"V6J2+Q8V, Unnamed Road, Mangkarap, Kec. Dusun Tim., Kabupaten Barito Timur, Kalimantan Tengah 73671","Unnamed Road, Mangkarap, Kec. Dusun Tim., Kabupaten Barito Timur",KALIMANTAN TENGAH,73671.0,Indonesia,,,,-2.1180103,115.2008121,https://maps.google.com/?cid=0x0:0xc2104874741224f6,
toko bangunan,Toko Bahan Bangunan,Toko Hanafi,"6552+Q6R, Ampah Kota, Kec. Dusun Tengah, Kabupaten Barito Timur, Kalimantan Tengah 73652","Ampah Kota, Kec. Dusun Tengah, Kabupaten Barito Timur",KALIMANTAN TENGAH,73652.0,Indonesia, 085248966775,,,-1.7905077,115.1505234,https://maps.google.com/?cid=0x0:0xcd63d9f911c43d1a,
toko bangunan,Toko Bahan Bangunan,Toko bangunan Mulia Batako,"37V7+XC6, Hampalit, Kec. Katingan Hilir, Kabupaten Katingan, Kalimantan Tengah 74413","Hampalit, Kec. Katingan Hilir, Kabupaten Katingan",KALIMANTAN TENGAH,74413.0,Indonesia, 081396801512,,,-1.9050835,113.2635143,https://maps.google.com/?cid=0x0:0x76397f80d1a8e81e,
toko bangunan,Toko Bahan Bangunan,Toko H. WAHYU,"Ampah Kota, Kec. Dusun Tengah, Kabupaten Barito Timur, Kalimantan Tengah 73652","Kec. Dusun Tengah, Kabupaten Barito Timur",KALIMANTAN TENGAH,73652.0,Indonesia,,,,-1.8005173,115.1523632,https://maps.google.com/?cid=0x0:0x7c7605a68ebe6acf,
toko bangunan,Toko Bahan Bangunan,Toko Bangunan Tiga Berlian,"Jl. Yetro Sinseng No.21, Lanjas, Kec. Teweh Tengah, Kabupaten Barito Utara, Kalimantan Tengah 73814","Lanjas, Kec. Teweh Tengah, Kabupaten Barito Utara",KALIMANTAN TENGAH,73814.0,Indonesia, 081367805201,,,-0.9617625,114.8931326,https://maps.google.com/?cid=0x0:0x642a4ce342ec99fc,
toko bangunan,Toko,Toko HS Anugerah,"Unnamed Rd, Batu Raya I, Kec. Gn. Timang, Kabupaten Barito Utara, Kalimantan Tengah 73862","Batu Raya I, Kec. Gn. Timang, Kabupaten Barito Utara",KALIMANTAN TENGAH,73862.0,Indonesia, 081352437322,,,-1.3524232,115.2603773,https://maps.google.com/?cid=0x0:0x7f187bcb9f16e0f4,
toko bangunan,Toko Bahan Bangunan,Toko Alat Bangunan,"RT 03 RW 01 Kabupaten, Tinggiran Baru, Kec. Mekarsari, Kabupaten Barito Kuala, Kalimantan Selatan 70566","Tinggiran Baru, Kec. Mekarsari, Kabupaten Barito Kuala",KALIMANTAN TENGAH,70566.0,Indonesia,,,,-3.2742548,114.5215334,https://maps.google.com/?cid=0x0:0x209535c5cb02fd61,
toko bangunan,,Toko Berkat Bangun,"P4W8+X6C, Kandui, Kec. Gn. Timang, Kabupaten Barito Utara, Kalimantan Tengah 73862","Kandui, Kec. Gn. Timang, Kabupaten Barito Utara",KALIMANTAN TENGAH,73862.0,Indonesia, 08161999912,,,-1.2525615,115.115516,https://maps.google.com/?cid=0x0:0xab01032469b07357,
toko bangunan,Toko Bahan Bangunan,TOKO BANGUNAN BARITO,"Lenggang, Kec. Raren Batuah, Kabupaten Barito Timur, Kalimantan Tengah","Kabupaten Barito Timur, Kalimantan Tengah",KALIMANTAN TENGAH,,Indonesia,,,,-1.7019148,115.1422195,https://maps.google.com/?cid=0x0:0x1fdd76b0baae111e,
toko bangunan,Toko Bahan Bangunan,Toko Jaya Bangunan,"Jl. D.I. Panjaitan, Mentawa Baru Hilir, Kec. Mentawa Baru Ketapang, Kabupaten Kotawaringin Timur, Kalimantan Tengah 74321","Mentawa Baru Hilir, Kec. Mentawa Baru Ketapang, Kabupaten Kotawaringin Timur",KALIMANTAN TENGAH,74321.0,Indonesia, 081367805201,,,-2.5450472,112.9602294,https://maps.google.com/?cid=0x0:0xc1d838b164554b4b,
toko bangunan,Toko Bahan Bangunan,Toko bangunan Eko,"RJXW+4QH, Karang Bunga, Kec. Mandastana, Kabupaten Barito Kuala, Kalimantan Selatan 70561","Karang Bunga, Kec. Mandastana, Kabupaten Barito Kuala",KALIMANTAN TENGAH,70561.0,Indonesia,,,,-3.1524577,114.6466312,https://maps.google.com/?cid=0x0:0x7805f997a19caea6,
toko bangunan,Toko Perlengkapan Rumah,Toko Bangunan NUGRAHA,"Q7C8+9GX, Bagok, Kec. Kelua, Kabupaten Barito Timur, Kalimantan Tengah 71552","Bagok, Kec. Kelua, Kabupaten Barito Timur",KALIMANTAN TENGAH,71552.0,Indonesia, 081367805201,,,-2.2290034,115.2663504,https://maps.google.com/?cid=0x0:0xa6035c3214169c57,
toko bangunan,Toko Bahan Bangunan,Toko Dua Putra,"55GJ+9G8, Jl. Tamiyang Layang - Ampah Ampah, Rodok, Kec. Dusun Tengah, Kabupaten Barito Timur, Kalimantan Tengah 73652","Jl. Tamiyang Layang - Ampah Ampah, Rodok, Kec. Dusun Tengah, Kabupaten Barito Timur",KALIMANTAN TENGAH,73652.0,Indonesia,,,,-1.8240951,115.1813327,https://maps.google.com/?cid=0x0:0xab9f4e642ec46c78,
toko bangunan,toko bangunan,Toko alat dan bahan bangunan,"Jl. Tamiyang Layang - Ampah RT 04 No.109, Jaweten, Kec. Dusun Tim., Kabupaten Barito Timur, Kalimantan Tengah 73681","Jaweten, Kec. Dusun Tim., Kabupaten Barito Timur",KALIMANTAN TENGAH,73681.0,Indonesia,,,,-2.0366366,115.1339609,https://maps.google.com/?cid=0x0:0xbf1c994ffb55a4b0,
toko bangunan,Toko,Toko Jaya Makmur(Imai),"P4VC+324, Kandui, Kec. Gn. Timang, Kabupaten Barito Utara, Kalimantan Tengah 73862","Kandui, Kec. Gn. Timang, Kabupaten Barito Utara",KALIMANTAN TENGAH,73862.0,Indonesia, 081287458656,,,-1.2573535,115.1200686,https://maps.google.com/?cid=0x0:0xa5da6f5dd1166c52,
toko bangunan,Toko,Toko UD Semangat Baru,"MVGX+F6, Montallat II, Kec. Montallat, Kabupaten Barito Utara, Kalimantan Tengah 73862","Montallat II, Kec. Montallat, Kabupaten Barito Utara",KALIMANTAN TENGAH,73862.0,Indonesia,,,,-1.323921,114.89814,https://maps.google.com/?cid=0x0:0x598c573ff7e76e3e,
toko bangunan,Toko Bahan Bangunan,UD Karya Bersama,"JL. Murung Basuki, No No.27, Ampah Kota, Kec. Dusun Tengah, Kabupaten Barito Timur, Kalimantan Tengah 73652","No No.27, Ampah Kota, Kec. Dusun Tengah, Kabupaten Barito Timur",KALIMANTAN TENGAH,73652.0,Indonesia, 052231150,,,-1.790137,115.15337,https://maps.google.com/?cid=0x0:0xbfe3f5b3221f7d6d,
toko bangunan,toko bangunan,Kalimantan Tengah 73617,Kalimantan Tengah,Kalimantan Tengah,KALIMANTAN TENGAH,,Indonesia,,,,-2.0520057,114.9516869,https://maps.google.com/?cid=0x0:0xf0d04e5ed5edf592,
toko bangunan,Toko Bahan Bangunan,Toko Bangunan Swarga,"Jalan, Tamiang Layang, Dusun Timur, East Barito Regency, Central Kalimantan 73671","Tamiang Layang, Dusun Timur, East Barito Regency",KALIMANTAN TENGAH,73671.0,Indonesia, 085789077202,,,-2.0966672,115.151779,https://maps.google.com/?cid=0x0:0x4153cd1f5a6a0a6e,
toko bangunan,Toko,"Toko Joeyaz'46 jual Alat Listrik, Alat Bangunan DLL","Unnamed Rd, Kab. Barito Sel., 73617, Bangkuang, Kec. Karau Kuala, Kabupaten Barito Selatan, Kalimantan Tengah 73617","Kab. Barito Sel.,",KALIMANTAN TENGAH,73617.0,Indonesia, 082199799669,,,-2.0319484,114.9049836,https://maps.google.com/?cid=0x0:0x833899f5c7014b9c,
toko bangunan,Pusat Perbelanjaan,Timbuk Baru. TB,"Jl. Ps. Panas - Tamiang Layang, Jaar, Kec. Dusun Tim., Kabupaten Barito Timur, Kalimantan Tengah 73671","Jaar, Kec. Dusun Tim., Kabupaten Barito Timur",KALIMANTAN TENGAH,73671.0,Indonesia, 085664920865,,,-2.1394112,115.1952203,https://maps.google.com/?cid=0x0:0x75857d0b67f4e686,
toko bangunan,Toko,Toko laila menjual barang bangunan,"XV8V+FXM, Bangkuang, Kec. Karau Kuala, Kabupaten Barito Selatan, Kalimantan Tengah 73617","Bangkuang, Kec. Karau Kuala, Kabupaten Barito Selatan",KALIMANTAN TENGAH,73617.0,Indonesia, 081251315127,,,-2.0338,114.8949147,https://maps.google.com/?cid=0x0:0x47a6659904820784,
toko bangunan,Toko Alat-Alat,TB.AINAYA,"WV4G+3C, Tlk. Timbau, Kec. Dusun Hilir, Kabupaten Barito Selatan, Kalimantan Tengah 73617","Tlk. Timbau, Kec. Dusun Hilir, Kabupaten Barito Selatan",KALIMANTAN TENGAH,73617.0,Indonesia,,,,-2.0948219,114.8761422,https://maps.google.com/?cid=0x0:0xeeaf42a426f5c965,
toko bangunan,Toko Bahan Bangunan,Toko Bangunan ANIS,"V5JC+VRJ, Jl. Ahmad Yani, Tamiang Layang, Kec. Dusun Tim., Kabupaten Barito Timur, Kalimantan Tengah 73671","Jl. Ahmad Yani, Tamiang Layang, Kec. Dusun Tim., Kabupaten Barito Timur",KALIMANTAN TENGAH,73671.0,Indonesia, 085249511744,,,-2.1177883,115.172023,https://maps.google.com/?cid=0x0:0x91d0d2599bd1ea1e,
toko bangunan,Toko Perlengkapan Rumah,Toko Bangunan NUGRAHA,"Q7C8+9GX, Bagok, Kec. Kelua, Kabupaten Barito Timur, Kalimantan Tengah 71552","Bagok, Kec. Kelua, Kabupaten Barito Timur",KALIMANTAN TENGAH,71552.0,Indonesia, 081367805201,,,-2.2290034,115.2663504,https://maps.google.com/?cid=0x0:0xa6035c3214169c57,
toko bangunan,Toko Bahan Bangunan,Tb berkat cahaya matahari,"V5W3+CM, Tamiang Layang, Kec. Dusun Tim., Kabupaten Barito Timur, Kalimantan Tengah 73671","Tamiang Layang, Kec. Dusun Tim., Kabupaten Barito Timur",KALIMANTAN TENGAH,73671.0,Indonesia,,,,-2.1039463,115.1541763,https://maps.google.com/?cid=0x0:0x8852c885c37eadd7,
toko bangunan,Toko Swalayan,Toko Cv.milyanor,"XV8X+8QQ, Unnamed Road, Bangkuang, Kec. Karau Kuala, Kabupaten Barito Selatan, Kalimantan Tengah 73617","Unnamed Road, Bangkuang, Kec. Karau Kuala, Kabupaten Barito Selatan",KALIMANTAN TENGAH,73617.0,Indonesia, 081297697450,,,-2.0341719,114.8994918,https://maps.google.com/?cid=0x0:0x5d3546bae995d07f,
toko bangunan,Toko Bahan Bangunan,Toko Hanafi,"6552+Q6R, Ampah Kota, Kec. Dusun Tengah, Kabupaten Barito Timur, Kalimantan Tengah 73652","Ampah Kota, Kec. Dusun Tengah, Kabupaten Barito Timur",KALIMANTAN TENGAH,73652.0,Indonesia, 085248966775,,,-1.7905077,115.1505234,https://maps.google.com/?cid=0x0:0xcd63d9f911c43d1a,
toko bangunan,Toko Swalayan,Toko Zainal,"XWF6+V4R, Bangkuang, Kec. Karau Kuala, Kabupaten Barito Selatan, Kalimantan Tengah 73617","Bangkuang, Kec. Karau Kuala, Kabupaten Barito Selatan",KALIMANTAN TENGAH,73617.0,Indonesia, 085249317316,,,-2.0252574,114.910276,https://maps.google.com/?cid=0x0:0xa5d7ba28d695b05b,
toko bangunan,Toko Alat-Alat,Ami Jaya. UD,"Jl. Ahmad Yani KM.13, Tamiang Layang, Kec. Dusun Tim., Kabupaten Barito Timur, Kalimantan Tengah 73611","Tamiang Layang, Kec. Dusun Tim., Kabupaten Barito Timur",KALIMANTAN TENGAH,73611.0,Indonesia, 05262092151,,,-2.1109572,115.1643133,https://maps.google.com/?cid=0x0:0x5bfd167739b72544,
toko bangunan,Toko Bahan Bangunan,Galangan Pasir  Batu Kerikil,"WWX3+J8, Bangkuang, Kec. Karau Kuala, Kabupaten Barito Selatan, Kalimantan Tengah","Kabupaten Barito Selatan, Kalimantan Tengah",KALIMANTAN TENGAH,,Indonesia, 082279629048,,,-2.0515839,114.9042217,https://maps.google.com/?cid=0x0:0x4d383524230a5058,
toko bangunan,Komplek perumahan,TBahan bangunan Rumah dari kayuoko,"R64V+9C3, Kandris, Kec. Benua Lima, Kabupaten Barito Timur, Kalimantan Tengah 73661","Kandris, Kec. Benua Lima, Kabupaten Barito Timur",KALIMANTAN TENGAH,73661.0,Indonesia, 081367805201,,,-2.1941218,115.2435545,https://maps.google.com/?cid=0x0:0xdc9b55758e9c487a,
toko bangunan,Toko Bahan Bangunan,Toko Bahan Bangunan CHANDRA DEWI,"Unnamed Road, Mengkatip, Kec. Dusun Hilir, Kabupaten Barito Selatan, Kalimantan Tengah 73762","Mengkatip, Kec. Dusun Hilir, Kabupaten Barito Selatan",KALIMANTAN TENGAH,73762.0,Indonesia,,,,-2.2292054,114.8554474,https://maps.google.com/?cid=0x0:0xe8e615f94114b0e0,
toko bangunan,Pusat Perbelanjaan,"TOKO KEMBAR tersedia sembako,alat bangunan,Perabutan rumah tangga","QVC4+4CC, Jalan, RT.4/RW.1, Mengkatip, Kec. Dusun Hilir, Kabupaten Barito Selatan, Kalimantan Tengah 73762","Jalan, RT.4/RW.1, Mengkatip, Kec. Dusun Hilir, Kabupaten Barito Selatan",KALIMANTAN TENGAH,73762.0,Indonesia, 085348014642,,,-2.2297179,114.8560423,https://maps.google.com/?cid=0x0:0xc1607a1eb1b5a0fa,
toko bangunan,Toko Bahan Bangunan,TB. Sumber Rezky,"52PR+565, Bambulung, Kec. Pematang Karau, Kabupaten Barito Timur, Kalimantan Tengah","Kabupaten Barito Timur, Kalimantan Tengah",KALIMANTAN TENGAH,,Indonesia,,,,-1.8146357,115.0407356,https://maps.google.com/?cid=0x0:0x729ef7b72a54f7f1,
toko bangunan,Toko Bahan Bangunan,Toko.karya sama,"V5V6+C6C, Tamiang Layang, Kec. Dusun Tim., Kabupaten Barito Timur, Kalimantan Tengah 73671","Tamiang Layang, Kec. Dusun Tim., Kabupaten Barito Timur",KALIMANTAN TENGAH,73671.0,Indonesia, 081257856236,,,-2.1064377,115.1605126,https://maps.google.com/?cid=0x0:0x15902a95df69d6ce,
toko bangunan,Pemasok Telur,Warung sembako Lukni helmi,"Trans siong sp1 blok b, Siong, Kec. Paju Epat, Kabupaten Barito Timur, Kalimantan Tengah","Kabupaten Barito Timur, Kalimantan Tengah",KALIMANTAN TENGAH,,Indonesia,,,,-2.0603418,114.9872821,https://maps.google.com/?cid=0x0:0x1db8f6ea52e277eb,
toko bangunan,Toko Bahan Bangunan,Toko H. WAHYU,"Ampah Kota, Kec. Dusun Tengah, Kabupaten Barito Timur, Kalimantan Tengah 73652","Kec. Dusun Tengah, Kabupaten Barito Timur",KALIMANTAN TENGAH,73652.0,Indonesia,,,,-1.8005173,115.1523632,https://maps.google.com/?cid=0x0:0x7c7605a68ebe6acf,
toko bangunan,Pusat Perbelanjaan,Toko Rauf,"Jl. Ahmad Yani, Tamiang Layang, Kec. Dusun Tim., Kabupaten Barito Timur, Kalimantan Tengah 73671","Tamiang Layang, Kec. Dusun Tim., Kabupaten Barito Timur",KALIMANTAN TENGAH,73671.0,Indonesia, 085775627712,,,-2.1056044,115.1586155,https://maps.google.com/?cid=0x0:0x63467d8be1d491e,
toko bangunan,toko bangunan,Kec. Dusun Tim.,"Kabupaten Barito Timur, Kalimantan Tengah","Kabupaten Barito Timur, Kalimantan Tengah",KALIMANTAN TENGAH,,Indonesia,,,,-2.1126877,115.1670292,https://maps.google.com/?cid=0x0:0x740b7052b652c454,
toko bangunan,Toko Bahan Bangunan,Toko Bangunan Swarga,"Jalan, Tamiang Layang, Dusun Timur, East Barito Regency, Central Kalimantan 73671","Tamiang Layang, Dusun Timur, East Barito Regency",KALIMANTAN TENGAH,73671.0,Indonesia, 085789077202,,,-2.0966672,115.151779,https://maps.google.com/?cid=0x0:0x4153cd1f5a6a0a6e,
toko bangunan,Pusat Perbelanjaan,Timbuk Baru. TB,"Jl. Ps. Panas - Tamiang Layang, Jaar, Kec. Dusun Tim., Kabupaten Barito Timur, Kalimantan Tengah 73671","Jaar, Kec. Dusun Tim., Kabupaten Barito Timur",KALIMANTAN TENGAH,73671.0,Indonesia, 085664920865,,,-2.1394112,115.1952203,https://maps.google.com/?cid=0x0:0x75857d0b67f4e686,
toko bangunan,Toko Bahan Bangunan,TB.Ami Jaya,"Jl. Nansarunai - Tamiang Layang, Sumur, Kec. Dusun Tim., Kabupaten Barito Timur, Kalimantan Tengah 73671","Sumur, Kec. Dusun Tim., Kabupaten Barito Timur",KALIMANTAN TENGAH,73671.0,Indonesia, 085387939888,,,-2.0870694,115.1442128,https://maps.google.com/?cid=0x0:0xfc01ce658be0822a,
toko bangunan,Toko Bahan Bangunan,Tb berkat cahaya matahari,"V5W3+CM, Tamiang Layang, Kec. Dusun Tim., Kabupaten Barito Timur, Kalimantan Tengah 73671","Tamiang Layang, Kec. Dusun Tim., Kabupaten Barito Timur",KALIMANTAN TENGAH,73671.0,Indonesia,,,,-2.1039463,115.1541763,https://maps.google.com/?cid=0x0:0x8852c885c37eadd7,
toko bangunan,Toko Alat-Alat,Ami Jaya. UD,"Jl. Ahmad Yani KM.13, Tamiang Layang, Kec. Dusun Tim., Kabupaten Barito Timur, Kalimantan Tengah 73611","Tamiang Layang, Kec. Dusun Tim., Kabupaten Barito Timur",KALIMANTAN TENGAH,73611.0,Indonesia, 05262092151,,,-2.1109572,115.1643133,https://maps.google.com/?cid=0x0:0x5bfd167739b72544,
toko bangunan,Jasa Konstruksi dan Bangunan,batako julak ILUK,"V6J2+Q8V, Unnamed Road, Mangkarap, Kec. Dusun Tim., Kabupaten Barito Timur, Kalimantan Tengah 73671","Unnamed Road, Mangkarap, Kec. Dusun Tim., Kabupaten Barito Timur",KALIMANTAN TENGAH,73671.0,Indonesia,,,,-2.1180103,115.2008121,https://maps.google.com/?cid=0x0:0xc2104874741224f6,
toko bangunan,Toko Bahan Bangunan,Toko.karya sama,"V5V6+C6C, Tamiang Layang, Kec. Dusun Tim., Kabupaten Barito Timur, Kalimantan Tengah 73671","Tamiang Layang, Kec. Dusun Tim., Kabupaten Barito Timur",KALIMANTAN TENGAH,73671.0,Indonesia, 081257856236,,,-2.1064377,115.1605126,https://maps.google.com/?cid=0x0:0x15902a95df69d6ce,
toko bangunan,Toko Bahan Bangunan,Amin Chandra,"Jalan A Yani No.Km 6, Karang Langit, Kec. Dusun Tim., Kabupaten Barito Timur, Kalimantan Tengah","Kabupaten Barito Timur, Kalimantan Tengah",KALIMANTAN TENGAH,,Indonesia,,,,-2.0123999,115.188916,https://maps.google.com/?cid=0x0:0xa298e47889474ca4,
toko bangunan,Komplek perumahan,TBahan bangunan Rumah dari kayuoko,"R64V+9C3, Kandris, Kec. Benua Lima, Kabupaten Barito Timur, Kalimantan Tengah 73661","Kandris, Kec. Benua Lima, Kabupaten Barito Timur",KALIMANTAN TENGAH,73661.0,Indonesia, 081367805201,,,-2.1941218,115.2435545,https://maps.google.com/?cid=0x0:0xdc9b55758e9c487a,
toko bangunan,Toko,Toko Usaha Baru,"V5HG+V73, Tamiang Layang, Kec. Dusun Tim., Kabupaten Barito Timur, Kalimantan Tengah 73671","Tamiang Layang, Kec. Dusun Tim., Kabupaten Barito Timur",KALIMANTAN TENGAH,73671.0,Indonesia, 082154188388,,,-2.12036,115.1756731,https://maps.google.com/?cid=0x0:0xe37193f3622778c4,
toko bangunan,Toko Bahan Bangunan,Toko Hanafi,"6552+Q6R, Ampah Kota, Kec. Dusun Tengah, Kabupaten Barito Timur, Kalimantan Tengah 73652","Ampah Kota, Kec. Dusun Tengah, Kabupaten Barito Timur",KALIMANTAN TENGAH,73652.0,Indonesia, 085248966775,,,-1.7905077,115.1505234,https://maps.google.com/?cid=0x0:0xcd63d9f911c43d1a,
toko bangunan,Toko Perlengkapan Rumah,Toko Bangunan NUGRAHA,"Q7C8+9GX, Bagok, Kec. Kelua, Kabupaten Barito Timur, Kalimantan Tengah 71552","Bagok, Kec. Kelua, Kabupaten Barito Timur",KALIMANTAN TENGAH,71552.0,Indonesia, 081367805201,,,-2.2290034,115.2663504,https://maps.google.com/?cid=0x0:0xa6035c3214169c57,
toko bangunan,Pusat Perbelanjaan,Toko Rauf,"Jl. Ahmad Yani, Tamiang Layang, Kec. Dusun Tim., Kabupaten Barito Timur, Kalimantan Tengah 73671","Tamiang Layang, Kec. Dusun Tim., Kabupaten Barito Timur",KALIMANTAN TENGAH,73671.0,Indonesia, 085775627712,,,-2.1056044,115.1586155,https://maps.google.com/?cid=0x0:0x63467d8be1d491e,
toko bangunan,Kantor Perusahaan,Tri Difta Utama. PT,"JL. Adaro Kelanis No.Km. 35, Tamiang Layang, Kec. Dusun Tim., Kabupaten Barito Timur, Kalimantan Tengah 73611","Tamiang Layang, Kec. Dusun Tim., Kabupaten Barito Timur",KALIMANTAN TENGAH,73611.0,Indonesia, 05262091434,,,-2.110871,115.153613,https://maps.google.com/?cid=0x0:0xce108f2df4b5f8bd,
toko bangunan,toko bangunan,TB. ITAMELUM,"W45X+2FM, Sumur, Kec. Dusun Tim., Kabupaten Barito Timur, Kalimantan Tengah 73671","Sumur, Kec. Dusun Tim., Kabupaten Barito Timur",KALIMANTAN TENGAH,73671.0,Indonesia,,,,-2.0924148,115.1486875,https://maps.google.com/?cid=0x0:0x40e914773cce3b1d,
toko bangunan,toko bangunan,Toko alat dan bahan bangunan,"Jl. Tamiyang Layang - Ampah RT 04 No.109, Jaweten, Kec. Dusun Tim., Kabupaten Barito Timur, Kalimantan Tengah 73681","Jaweten, Kec. Dusun Tim., Kabupaten Barito Timur",KALIMANTAN TENGAH,73681.0,Indonesia,,,,-2.0366366,115.1339609,https://maps.google.com/?cid=0x0:0xbf1c994ffb55a4b0,
toko bangunan,toko bangunan,Tb sumber rejeki h salimi,"Jl. Ahmad Yani No.12, Tamiang Layang, Kec. Dusun Tim., Kabupaten Barito Timur, Kalimantan Tengah 73671","Tamiang Layang, Kec. Dusun Tim., Kabupaten Barito Timur",KALIMANTAN TENGAH,73671.0,Indonesia,,,,-2.1113721,115.1646967,https://maps.google.com/?cid=0x0:0x31e403c133ce70c1,
toko bangunan,toko bangunan,Kec. Karusen Janang,"Kabupaten Barito Timur, Kalimantan Tengah","Kabupaten Barito Timur, Kalimantan Tengah",KALIMANTAN TENGAH,,Indonesia,,,,-1.9839523,115.0772101,https://maps.google.com/?cid=0x0:0x42d4b63eb9f83bf4,
toko bangunan,Toko Bahan Bangunan,Toko Bangunan Swarga,"Jalan, Tamiang Layang, Dusun Timur, East Barito Regency, Central Kalimantan 73671","Tamiang Layang, Dusun Timur, East Barito Regency",KALIMANTAN TENGAH,73671.0,Indonesia, 085789077202,,,-2.0966672,115.151779,https://maps.google.com/?cid=0x0:0x4153cd1f5a6a0a6e,
toko bangunan,Toko Bahan Bangunan,TOKO USAHA JAYA (UJ),"Jl. Vetran Ampah, Putai, Kec. Dusun Tengah, Kabupaten Barito Timur, Kalimantan Tengah 73652","Putai, Kec. Dusun Tengah, Kabupaten Barito Timur",KALIMANTAN TENGAH,73652.0,Indonesia, 081357891567,,,-1.8007003,115.1504013,https://maps.google.com/?cid=0x0:0xfe206149b85fd21,
toko bangunan,Toko Bahan Bangunan,Amin Chandra,"Jalan A Yani No.Km 6, Karang Langit, Kec. Dusun Tim., Kabupaten Barito Timur, Kalimantan Tengah","Kabupaten Barito Timur, Kalimantan Tengah",KALIMANTAN TENGAH,,Indonesia,,,,-2.0123999,115.188916,https://maps.google.com/?cid=0x0:0xa298e47889474ca4,
toko bangunan,Toko,TOKO FAUZAN NIAGARA,"55W4+M74, Jl. Tamiyang Layang - Ampah Ampah, Ampah Kota, Kec. Dusun Tengah, Kabupaten Barito Timur, Kalimantan Tengah 73652","Jl. Tamiyang Layang - Ampah Ampah, Ampah Kota, Kec. Dusun Tengah, Kabupaten Barito Timur",KALIMANTAN TENGAH,73652.0,Indonesia, 081367805201,,,-1.8033641,115.1556954,https://maps.google.com/?cid=0x0:0x7022bb8b2804f08,
toko bangunan,Toko Bahan Bangunan,"Toko bangunan,toko kaca, dan kosenan","km.6 ujung Kedung soku purwosarii 1, Kec. Tamban","Kabupaten Barito Kuala, Kalimantan Selatan",KALIMANTAN TENGAH,,Indonesia, 081385661699,,,-3.3022447,114.4828093,https://maps.google.com/?cid=0x0:0x3f79615f2c9c2a0e,
toko bangunan,Toko Bahan Bangunan,Toko Bangunan ANIS,"V5JC+VRJ, Jl. Ahmad Yani, Tamiang Layang, Kec. Dusun Tim., Kabupaten Barito Timur, Kalimantan Tengah 73671","Jl. Ahmad Yani, Tamiang Layang, Kec. Dusun Tim., Kabupaten Barito Timur",KALIMANTAN TENGAH,73671.0,Indonesia, 085249511744,,,-2.1177883,115.172023,https://maps.google.com/?cid=0x0:0x91d0d2599bd1ea1e,
toko bangunan,Toko Bahan Bangunan,TB. Sumber Rezky,"52PR+565, Bambulung, Kec. Pematang Karau, Kabupaten Barito Timur, Kalimantan Tengah","Kabupaten Barito Timur, Kalimantan Tengah",KALIMANTAN TENGAH,,Indonesia,,,,-1.8146357,115.0407356,https://maps.google.com/?cid=0x0:0x729ef7b72a54f7f1,
toko bangunan,Toko Bahan Bangunan,TOKO SERVICE GERGAJI. PT PARGUM,"55W4+J6H, Ampah Kota, Kec. Dusun Tengah, Kabupaten Barito Timur, Kalimantan Tengah 73652","Ampah Kota, Kec. Dusun Tengah, Kabupaten Barito Timur",KALIMANTAN TENGAH,73652.0,Indonesia,,,,-1.803442,115.1555939,https://maps.google.com/?cid=0x0:0x2200700e912cba64,
toko bangunan,Toko Bahan Bangunan,Toko Hanafi,"6552+Q6R, Ampah Kota, Kec. Dusun Tengah, Kabupaten Barito Timur, Kalimantan Tengah 73652","Ampah Kota, Kec. Dusun Tengah, Kabupaten Barito Timur",KALIMANTAN TENGAH,73652.0,Indonesia, 085248966775,,,-1.7905077,115.1505234,https://maps.google.com/?cid=0x0:0xcd63d9f911c43d1a,
toko bangunan,Toko Bahan Bangunan,Toko H. WAHYU,"Ampah Kota, Kec. Dusun Tengah, Kabupaten Barito Timur, Kalimantan Tengah 73652","Kec. Dusun Tengah, Kabupaten Barito Timur",KALIMANTAN TENGAH,73652.0,Indonesia,,,,-1.8005173,115.1523632,https://maps.google.com/?cid=0x0:0x7c7605a68ebe6acf,
toko bangunan,Toko Bahan Bangunan,Toko Dua Putra,"55GJ+9G8, Jl. Tamiyang Layang - Ampah Ampah, Rodok, Kec. Dusun Tengah, Kabupaten Barito Timur, Kalimantan Tengah 73652","Jl. Tamiyang Layang - Ampah Ampah, Rodok, Kec. Dusun Tengah, Kabupaten Barito Timur",KALIMANTAN TENGAH,73652.0,Indonesia,,,,-1.8240951,115.1813327,https://maps.google.com/?cid=0x0:0xab9f4e642ec46c78,
toko bangunan,Toko Bahan Bangunan,Toko Bangunan Do'a Banua,"8W47+69W, Sanggu, Kec. Dusun Sel., Kabupaten Barito Selatan, Kalimantan Tengah 73713","Sanggu, Kec. Dusun Sel., Kabupaten Barito Selatan",KALIMANTAN TENGAH,73713.0,Indonesia, 081287458656,,,-1.6943968,114.9134614,https://maps.google.com/?cid=0x0:0x2fc64be4a5791471,
toko bangunan,Toko Bahan Bangunan,UD Karya Bersama,"JL. Murung Basuki, No No.27, Ampah Kota, Kec. Dusun Tengah, Kabupaten Barito Timur, Kalimantan Tengah 73652","No No.27, Ampah Kota, Kec. Dusun Tengah, Kabupaten Barito Timur",KALIMANTAN TENGAH,73652.0,Indonesia, 052231150,,,-1.790137,115.15337,https://maps.google.com/?cid=0x0:0xbfe3f5b3221f7d6d,
toko bangunan,Toko Bahan Bangunan,Tb Mitra Bersama Bambulung,"Unnamed Road, Bambulung, Kec. Pematang Karau, Kabupaten Barito Timur, Kalimantan Tengah 73652","Bambulung, Kec. Pematang Karau, Kabupaten Barito Timur",KALIMANTAN TENGAH,73652.0,Indonesia,,,,-1.8180076,115.0310548,https://maps.google.com/?cid=0x0:0xd1d9f13b67f04c1d,
toko bangunan,Toko Bahan Bangunan,Toko Bahan Bangunan Jaya Sentosa,"4MVF+JVF, Karya Jadi, Kec. Tabukan, Kabupaten Barito Kuala, Kalimantan Selatan 70553","Karya Jadi, Kec. Tabukan, Kabupaten Barito Kuala",KALIMANTAN TENGAH,70553.0,Indonesia, 08161999912,,,-2.8559526,114.674664,https://maps.google.com/?cid=0x0:0x9922ca11168825b4,
toko bangunan,Jasa Konstruksi dan Bangunan,batako julak ILUK,"V6J2+Q8V, Unnamed Road, Mangkarap, Kec. Dusun Tim., Kabupaten Barito Timur, Kalimantan Tengah 73671","Unnamed Road, Mangkarap, Kec. Dusun Tim., Kabupaten Barito Timur",KALIMANTAN TENGAH,73671.0,Indonesia,,,,-2.1180103,115.2008121,https://maps.google.com/?cid=0x0:0xc2104874741224f6,
toko bangunan,toko bangunan,Kalimantan Tengah 73617,Kalimantan Tengah,Kalimantan Tengah,KALIMANTAN TENGAH,,Indonesia,,,,-2.0520057,114.9516869,https://maps.google.com/?cid=0x0:0xf0d04e5ed5edf592,
toko bangunan,Toko Bahan Bangunan,Toko Bangunan Swarga,"Jalan, Tamiang Layang, Dusun Timur, East Barito Regency, Central Kalimantan 73671","Tamiang Layang, Dusun Timur, East Barito Regency",KALIMANTAN TENGAH,73671.0,Indonesia, 085789077202,,,-2.0966672,115.151779,https://maps.google.com/?cid=0x0:0x4153cd1f5a6a0a6e,
toko bangunan,Toko,"Toko Joeyaz'46 jual Alat Listrik, Alat Bangunan DLL","Unnamed Rd, Kab. Barito Sel., 73617, Bangkuang, Kec. Karau Kuala, Kabupaten Barito Selatan, Kalimantan Tengah 73617","Kab. Barito Sel.,",KALIMANTAN TENGAH,73617.0,Indonesia, 082199799669,,,-2.0319484,114.9049836,https://maps.google.com/?cid=0x0:0x833899f5c7014b9c,
toko bangunan,Kantor Perusahaan,PT. INDOPENTA SEJAHTERA ABADI 2,"JL. PERTAMINA No.KM.50, Telang, Kec. Paju Epat, Kabupaten Barito Timur, Kalimantan Tengah 73612","Telang, Kec. Paju Epat, Kabupaten Barito Timur",KALIMANTAN TENGAH,73612.0,Indonesia,,,,-2.1736418,114.9665034,https://maps.google.com/?cid=0x0:0xee804938aab15d23,
toko bangunan,Toko Alat-Alat,TB.AINAYA,"WV4G+3C, Tlk. Timbau, Kec. Dusun Hilir, Kabupaten Barito Selatan, Kalimantan Tengah 73617","Tlk. Timbau, Kec. Dusun Hilir, Kabupaten Barito Selatan",KALIMANTAN TENGAH,73617.0,Indonesia,,,,-2.0948219,114.8761422,https://maps.google.com/?cid=0x0:0xeeaf42a426f5c965,
toko bangunan,Kantor Perusahaan,PT.indopenta,"QXHW+VRF, Telang Baru, Kec. Paju Epat, Kabupaten Barito Timur, Kalimantan Tengah 73617","Telang Baru, Kec. Paju Epat, Kabupaten Barito Timur",KALIMANTAN TENGAH,73617.0,Indonesia, 082252829708,,,-2.2203091,114.9970601,https://maps.google.com/?cid=0x0:0x3832c9ba8f6745c8,
toko bangunan,Toko Swalayan,Toko Cv.milyanor,"XV8X+8QQ, Unnamed Road, Bangkuang, Kec. Karau Kuala, Kabupaten Barito Selatan, Kalimantan Tengah 73617","Unnamed Road, Bangkuang, Kec. Karau Kuala, Kabupaten Barito Selatan",KALIMANTAN TENGAH,73617.0,Indonesia, 081297697450,,,-2.0341719,114.8994918,https://maps.google.com/?cid=0x0:0x5d3546bae995d07f,
toko bangunan,Pemasok Telur,Warung sembako Lukni helmi,"Trans siong sp1 blok b, Siong, Kec. Paju Epat, Kabupaten Barito Timur, Kalimantan Tengah","Kabupaten Barito Timur, Kalimantan Tengah",KALIMANTAN TENGAH,,Indonesia,,,,-2.0603418,114.9872821,https://maps.google.com/?cid=0x0:0x1db8f6ea52e277eb,
toko bangunan,Pusat Perbelanjaan,Timbuk Baru. TB,"Jl. Ps. Panas - Tamiang Layang, Jaar, Kec. Dusun Tim., Kabupaten Barito Timur, Kalimantan Tengah 73671","Jaar, Kec. Dusun Tim., Kabupaten Barito Timur",KALIMANTAN TENGAH,73671.0,Indonesia, 085664920865,,,-2.1394112,115.1952203,https://maps.google.com/?cid=0x0:0x75857d0b67f4e686,
toko bangunan,Toko Bahan Bangunan,TB.Ami Jaya,"Jl. Nansarunai - Tamiang Layang, Sumur, Kec. Dusun Tim., Kabupaten Barito Timur, Kalimantan Tengah 73671","Sumur, Kec. Dusun Tim., Kabupaten Barito Timur",KALIMANTAN TENGAH,73671.0,Indonesia, 085387939888,,,-2.0870694,115.1442128,https://maps.google.com/?cid=0x0:0xfc01ce658be0822a,
toko bangunan,Toko Bahan Bangunan,Galangan Pasir  Batu Kerikil,"WWX3+J8, Bangkuang, Kec. Karau Kuala, Kabupaten Barito Selatan, Kalimantan Tengah","Kabupaten Barito Selatan, Kalimantan Tengah",KALIMANTAN TENGAH,,Indonesia, 082279629048,,,-2.0515839,114.9042217,https://maps.google.com/?cid=0x0:0x4d383524230a5058,
toko bangunan,Toko Bahan Bangunan,Toko Bangunan ANIS,"V5JC+VRJ, Jl. Ahmad Yani, Tamiang Layang, Kec. Dusun Tim., Kabupaten Barito Timur, Kalimantan Tengah 73671","Jl. Ahmad Yani, Tamiang Layang, Kec. Dusun Tim., Kabupaten Barito Timur",KALIMANTAN TENGAH,73671.0,Indonesia, 085249511744,,,-2.1177883,115.172023,https://maps.google.com/?cid=0x0:0x91d0d2599bd1ea1e,
toko bangunan,Toko Swalayan,Toko Zainal,"XWF6+V4R, Bangkuang, Kec. Karau Kuala, Kabupaten Barito Selatan, Kalimantan Tengah 73617","Bangkuang, Kec. Karau Kuala, Kabupaten Barito Selatan",KALIMANTAN TENGAH,73617.0,Indonesia, 085249317316,,,-2.0252574,114.910276,https://maps.google.com/?cid=0x0:0xa5d7ba28d695b05b,
toko bangunan,Toko Bahan Bangunan,Tb berkat cahaya matahari,"V5W3+CM, Tamiang Layang, Kec. Dusun Tim., Kabupaten Barito Timur, Kalimantan Tengah 73671","Tamiang Layang, Kec. Dusun Tim., Kabupaten Barito Timur",KALIMANTAN TENGAH,73671.0,Indonesia,,,,-2.1039463,115.1541763,https://maps.google.com/?cid=0x0:0x8852c885c37eadd7,
toko bangunan,Toko Bahan Bangunan,Toko Hanafi,"6552+Q6R, Ampah Kota, Kec. Dusun Tengah, Kabupaten Barito Timur, Kalimantan Tengah 73652","Ampah Kota, Kec. Dusun Tengah, Kabupaten Barito Timur",KALIMANTAN TENGAH,73652.0,Indonesia, 085248966775,,,-1.7905077,115.1505234,https://maps.google.com/?cid=0x0:0xcd63d9f911c43d1a,
toko bangunan,Toko Perlengkapan Rumah,Toko Bangunan NUGRAHA,"Q7C8+9GX, Bagok, Kec. Kelua, Kabupaten Barito Timur, Kalimantan Tengah 71552","Bagok, Kec. Kelua, Kabupaten Barito Timur",KALIMANTAN TENGAH,71552.0,Indonesia, 081367805201,,,-2.2290034,115.2663504,https://maps.google.com/?cid=0x0:0xa6035c3214169c57,
toko bangunan,Toko Alat-Alat,Ami Jaya. UD,"Jl. Ahmad Yani KM.13, Tamiang Layang, Kec. Dusun Tim., Kabupaten Barito Timur, Kalimantan Tengah 73611","Tamiang Layang, Kec. Dusun Tim., Kabupaten Barito Timur",KALIMANTAN TENGAH,73611.0,Indonesia, 05262092151,,,-2.1109572,115.1643133,https://maps.google.com/?cid=0x0:0x5bfd167739b72544,
toko bangunan,Toko Bahan Bangunan,Toko Bahan Bangunan CHANDRA DEWI,"Unnamed Road, Mengkatip, Kec. Dusun Hilir, Kabupaten Barito Selatan, Kalimantan Tengah 73762","Mengkatip, Kec. Dusun Hilir, Kabupaten Barito Selatan",KALIMANTAN TENGAH,73762.0,Indonesia,,,,-2.2292054,114.8554474,https://maps.google.com/?cid=0x0:0xe8e615f94114b0e0,
toko bangunan,Pusat Perbelanjaan,"TOKO KEMBAR tersedia sembako,alat bangunan,Perabutan rumah tangga","QVC4+4CC, Jalan, RT.4/RW.1, Mengkatip, Kec. Dusun Hilir, Kabupaten Barito Selatan, Kalimantan Tengah 73762","Jalan, RT.4/RW.1, Mengkatip, Kec. Dusun Hilir, Kabupaten Barito Selatan",KALIMANTAN TENGAH,73762.0,Indonesia, 085348014642,,,-2.2297179,114.8560423,https://maps.google.com/?cid=0x0:0xc1607a1eb1b5a0fa,
toko bangunan,Komplek perumahan,TBahan bangunan Rumah dari kayuoko,"R64V+9C3, Kandris, Kec. Benua Lima, Kabupaten Barito Timur, Kalimantan Tengah 73661","Kandris, Kec. Benua Lima, Kabupaten Barito Timur",KALIMANTAN TENGAH,73661.0,Indonesia, 081367805201,,,-2.1941218,115.2435545,https://maps.google.com/?cid=0x0:0xdc9b55758e9c487a,
toko bangunan,Pusat Perbelanjaan,Toko Rauf,"Jl. Ahmad Yani, Tamiang Layang, Kec. Dusun Tim., Kabupaten Barito Timur, Kalimantan Tengah 73671","Tamiang Layang, Kec. Dusun Tim., Kabupaten Barito Timur",KALIMANTAN TENGAH,73671.0,Indonesia, 085775627712,,,-2.1056044,115.1586155,https://maps.google.com/?cid=0x0:0x63467d8be1d491e,
toko bangunan,toko bangunan,Kec. Paku,"Kabupaten Barito Timur, Kalimantan Tengah","Kabupaten Barito Timur, Kalimantan Tengah",KALIMANTAN TENGAH,,Indonesia,,,,-1.8714738,115.1724417,https://maps.google.com/?cid=0x0:0xc6f14ef33602736c,
toko bangunan,Toko Bahan Bangunan,TOKO USAHA JAYA (UJ),"Jl. Vetran Ampah, Putai, Kec. Dusun Tengah, Kabupaten Barito Timur, Kalimantan Tengah 73652","Putai, Kec. Dusun Tengah, Kabupaten Barito Timur",KALIMANTAN TENGAH,73652.0,Indonesia, 081357891567,,,-1.8007003,115.1504013,https://maps.google.com/?cid=0x0:0xfe206149b85fd21,
toko bangunan,Toko Bahan Bangunan,TOKO SERVICE GERGAJI. PT PARGUM,"55W4+J6H, Ampah Kota, Kec. Dusun Tengah, Kabupaten Barito Timur, Kalimantan Tengah 73652","Ampah Kota, Kec. Dusun Tengah, Kabupaten Barito Timur",KALIMANTAN TENGAH,73652.0,Indonesia,,,,-1.803442,115.1555939,https://maps.google.com/?cid=0x0:0x2200700e912cba64,
toko bangunan,Toko Swalayan,Toko.Bangunan  Molding,"F5V6+Q97, Jl. Negara Ampah-Muarateweh, Patas II, Kec. Gn. Bintang Awai, Kabupaten Barito Selatan, Kalimantan Tengah 73753","Jl. Negara Ampah-Muarateweh, Patas II, Kec. Gn. Bintang Awai, Kabupaten Barito Selatan",KALIMANTAN TENGAH,73753.0,Indonesia, 081367805201,,,-1.5055901,115.160911,https://maps.google.com/?cid=0x0:0xdf2f3df691cf2c7,
toko bangunan,Toko Bahan Bangunan,Toko Hanafi,"6552+Q6R, Ampah Kota, Kec. Dusun Tengah, Kabupaten Barito Timur, Kalimantan Tengah 73652","Ampah Kota, Kec. Dusun Tengah, Kabupaten Barito Timur",KALIMANTAN TENGAH,73652.0,Indonesia, 085248966775,,,-1.7905077,115.1505234,https://maps.google.com/?cid=0x0:0xcd63d9f911c43d1a,
toko bangunan,Toko Bahan Bangunan,Toko Dua Putra,"55GJ+9G8, Jl. Tamiyang Layang - Ampah Ampah, Rodok, Kec. Dusun Tengah, Kabupaten Barito Timur, Kalimantan Tengah 73652","Jl. Tamiyang Layang - Ampah Ampah, Rodok, Kec. Dusun Tengah, Kabupaten Barito Timur",KALIMANTAN TENGAH,73652.0,Indonesia,,,,-1.8240951,115.1813327,https://maps.google.com/?cid=0x0:0xab9f4e642ec46c78,
toko bangunan,Toko Bahan Bangunan,Toko H. WAHYU,"Ampah Kota, Kec. Dusun Tengah, Kabupaten Barito Timur, Kalimantan Tengah 73652","Kec. Dusun Tengah, Kabupaten Barito Timur",KALIMANTAN TENGAH,73652.0,Indonesia,,,,-1.8005173,115.1523632,https://maps.google.com/?cid=0x0:0x7c7605a68ebe6acf,
toko bangunan,Toko,TOKO FAUZAN NIAGARA,"55W4+M74, Jl. Tamiyang Layang - Ampah Ampah, Ampah Kota, Kec. Dusun Tengah, Kabupaten Barito Timur, Kalimantan Tengah 73652","Jl. Tamiyang Layang - Ampah Ampah, Ampah Kota, Kec. Dusun Tengah, Kabupaten Barito Timur",KALIMANTAN TENGAH,73652.0,Indonesia, 081367805201,,,-1.8033641,115.1556954,https://maps.google.com/?cid=0x0:0x7022bb8b2804f08,
toko bangunan,Toko Pakaian,Toko Bangunan H. Utuh 2,"MF9C+7WV, Sidorejo, Kec. Tamban, Kabupaten Barito Kuala, Kalimantan Selatan 70566","Sidorejo, Kec. Tamban, Kabupaten Barito Kuala",KALIMANTAN TENGAH,70566.0,Indonesia, 082297903380,,,-3.3317722,114.4722836,https://maps.google.com/?cid=0x0:0xd8ed00680cbe19cf,
toko bangunan,Toko Bahan Bangunan,Toko Bangunan Do'a Banua,"8W47+69W, Sanggu, Kec. Dusun Sel., Kabupaten Barito Selatan, Kalimantan Tengah 73713","Sanggu, Kec. Dusun Sel., Kabupaten Barito Selatan",KALIMANTAN TENGAH,73713.0,Indonesia, 081287458656,,,-1.6943968,114.9134614,https://maps.google.com/?cid=0x0:0x2fc64be4a5791471,
toko bangunan,Jasa Konstruksi dan Bangunan,batako julak ILUK,"V6J2+Q8V, Unnamed Road, Mangkarap, Kec. Dusun Tim., Kabupaten Barito Timur, Kalimantan Tengah 73671","Unnamed Road, Mangkarap, Kec. Dusun Tim., Kabupaten Barito Timur",KALIMANTAN TENGAH,73671.0,Indonesia,,,,-2.1180103,115.2008121,https://maps.google.com/?cid=0x0:0xc2104874741224f6,
toko bangunan,Toko Bahan Bangunan,UD Karya Bersama,"JL. Murung Basuki, No No.27, Ampah Kota, Kec. Dusun Tengah, Kabupaten Barito Timur, Kalimantan Tengah 73652","No No.27, Ampah Kota, Kec. Dusun Tengah, Kabupaten Barito Timur",KALIMANTAN TENGAH,73652.0,Indonesia, 052231150,,,-1.790137,115.15337,https://maps.google.com/?cid=0x0:0xbfe3f5b3221f7d6d,
toko bangunan,Toko Bahan Bangunan,Toko Bangunan ANIS,"V5JC+VRJ, Jl. Ahmad Yani, Tamiang Layang, Kec. Dusun Tim., Kabupaten Barito Timur, Kalimantan Tengah 73671","Jl. Ahmad Yani, Tamiang Layang, Kec. Dusun Tim., Kabupaten Barito Timur",KALIMANTAN TENGAH,73671.0,Indonesia, 085249511744,,,-2.1177883,115.172023,https://maps.google.com/?cid=0x0:0x91d0d2599bd1ea1e,
toko bangunan,Toko,Toko Jaya Makmur(Imai),"P4VC+324, Kandui, Kec. Gn. Timang, Kabupaten Barito Utara, Kalimantan Tengah 73862","Kandui, Kec. Gn. Timang, Kabupaten Barito Utara",KALIMANTAN TENGAH,73862.0,Indonesia, 081287458656,,,-1.2573535,115.1200686,https://maps.google.com/?cid=0x0:0xa5da6f5dd1166c52,
toko bangunan,Toko Bahan Bangunan,TB. Sumber Rezky,"52PR+565, Bambulung, Kec. Pematang Karau, Kabupaten Barito Timur, Kalimantan Tengah","Kabupaten Barito Timur, Kalimantan Tengah",KALIMANTAN TENGAH,,Indonesia,,,,-1.8146357,115.0407356,https://maps.google.com/?cid=0x0:0x729ef7b72a54f7f1,
toko bangunan,Toko Perlengkapan Rumah,Toko Bangunan NUGRAHA,"Q7C8+9GX, Bagok, Kec. Kelua, Kabupaten Barito Timur, Kalimantan Tengah 71552","Bagok, Kec. Kelua, Kabupaten Barito Timur",KALIMANTAN TENGAH,71552.0,Indonesia, 081367805201,,,-2.2290034,115.2663504,https://maps.google.com/?cid=0x0:0xa6035c3214169c57,
toko bangunan,Toko Perlengkapan Rumah,Toko Dua Saudara,"9R56+PP4, Jl. Kalahien, Kalahien, Kec. Dusun Sel., Kabupaten Barito Selatan, Kalimantan Tengah 73751","Jl. Kalahien, Kalahien, Kec. Dusun Sel., Kabupaten Barito Selatan",KALIMANTAN TENGAH,73751.0,Indonesia,,,,-1.6407384,114.8118379,https://maps.google.com/?cid=0x0:0xda63aff01d8ea311,
toko bangunan,Hotel,Toko Bangunan ALBAIK,"RCG8+69, Mabuun, Kec. Murung Pudak, Kabupaten Tabalong, Kalimantan Selatan","Kabupaten Tabalong, Kalimantan Selatan",KALIMANTAN TENGAH,,Indonesia, 081276116218,,,-2.1743461,115.4159243,https://maps.google.com/?cid=0x0:0xdf5ae052bce4ab2a,
toko bangunan,Toko Bahan Bangunan,Molding Yeyen,"F547+HWW, Patas I, Kec. Gn. Bintang Awai, Kabupaten Barito Selatan, Kalimantan Tengah 73753","Patas I, Kec. Gn. Bintang Awai, Kabupaten Barito Selatan",KALIMANTAN TENGAH,73753.0,Indonesia,,,,-1.543514,115.164832,https://maps.google.com/?cid=0x0:0xf76a1ab58adbb811,
toko bangunan,toko bangunan,Kalimantan Tengah 73671,"Kabupaten Barito Timur, Kalimantan Tengah","Kabupaten Barito Timur, Kalimantan Tengah",KALIMANTAN TENGAH,,Indonesia,,,,-2.0472411,115.2363408,https://maps.google.com/?cid=0x0:0x1e460a71bb58cdc3,
toko bangunan,Toko Bahan Bangunan,Toko Bangunan Swarga,"Jalan, Tamiang Layang, Dusun Timur, East Barito Regency, Central Kalimantan 73671","Tamiang Layang, Dusun Timur, East Barito Regency",KALIMANTAN TENGAH,73671.0,Indonesia, 085789077202,,,-2.0966672,115.151779,https://maps.google.com/?cid=0x0:0x4153cd1f5a6a0a6e,
toko bangunan,Pusat Perbelanjaan,Timbuk Baru. TB,"Jl. Ps. Panas - Tamiang Layang, Jaar, Kec. Dusun Tim., Kabupaten Barito Timur, Kalimantan Tengah 73671","Jaar, Kec. Dusun Tim., Kabupaten Barito Timur",KALIMANTAN TENGAH,73671.0,Indonesia, 085664920865,,,-2.1394112,115.1952203,https://maps.google.com/?cid=0x0:0x75857d0b67f4e686,
toko bangunan,Komplek perumahan,TBahan bangunan Rumah dari kayuoko,"R64V+9C3, Kandris, Kec. Benua Lima, Kabupaten Barito Timur, Kalimantan Tengah 73661","Kandris, Kec. Benua Lima, Kabupaten Barito Timur",KALIMANTAN TENGAH,73661.0,Indonesia, 081367805201,,,-2.1941218,115.2435545,https://maps.google.com/?cid=0x0:0xdc9b55758e9c487a,
toko bangunan,Toko Bahan Bangunan,Toko Bangunan ANIS,"V5JC+VRJ, Jl. Ahmad Yani, Tamiang Layang, Kec. Dusun Tim., Kabupaten Barito Timur, Kalimantan Tengah 73671","Jl. Ahmad Yani, Tamiang Layang, Kec. Dusun Tim., Kabupaten Barito Timur",KALIMANTAN TENGAH,73671.0,Indonesia, 085249511744,,,-2.1177883,115.172023,https://maps.google.com/?cid=0x0:0x91d0d2599bd1ea1e,
toko bangunan,Toko Bahan Bangunan,Tb berkat cahaya matahari,"V5W3+CM, Tamiang Layang, Kec. Dusun Tim., Kabupaten Barito Timur, Kalimantan Tengah 73671","Tamiang Layang, Kec. Dusun Tim., Kabupaten Barito Timur",KALIMANTAN TENGAH,73671.0,Indonesia,,,,-2.1039463,115.1541763,https://maps.google.com/?cid=0x0:0x8852c885c37eadd7,
toko bangunan,Jasa Konstruksi dan Bangunan,batako julak ILUK,"V6J2+Q8V, Unnamed Road, Mangkarap, Kec. Dusun Tim., Kabupaten Barito Timur, Kalimantan Tengah 73671","Unnamed Road, Mangkarap, Kec. Dusun Tim., Kabupaten Barito Timur",KALIMANTAN TENGAH,73671.0,Indonesia,,,,-2.1180103,115.2008121,https://maps.google.com/?cid=0x0:0xc2104874741224f6,
toko bangunan,Toko Bahan Bangunan,Toko.karya sama,"V5V6+C6C, Tamiang Layang, Kec. Dusun Tim., Kabupaten Barito Timur, Kalimantan Tengah 73671","Tamiang Layang, Kec. Dusun Tim., Kabupaten Barito Timur",KALIMANTAN TENGAH,73671.0,Indonesia, 081257856236,,,-2.1064377,115.1605126,https://maps.google.com/?cid=0x0:0x15902a95df69d6ce,
toko bangunan,Toko Mebel,meubel sejahtera,"jln.Ramania rt.02 Kalimantan Tengah,Kab, Ramania, Kec. Patangkep Tutui, Kabupaten Barito Timur, Kalimantan Tengah 73671","Ramania, Kec. Patangkep Tutui, Kabupaten Barito Timur",KALIMANTAN TENGAH,73671.0,Indonesia,,,,-2.0656103,115.3203175,https://maps.google.com/?cid=0x0:0xdc8c0756f36ae287,
toko bangunan,Toko Bahan Bangunan,TB.Ami Jaya,"Jl. Nansarunai - Tamiang Layang, Sumur, Kec. Dusun Tim., Kabupaten Barito Timur, Kalimantan Tengah 73671","Sumur, Kec. Dusun Tim., Kabupaten Barito Timur",KALIMANTAN TENGAH,73671.0,Indonesia, 085387939888,,,-2.0870694,115.1442128,https://maps.google.com/?cid=0x0:0xfc01ce658be0822a,
toko bangunan,Sekolah Menengah Pertama,SMP Negeri 1 Patangkep Tutui,"W8QJ+V9X, Bentot, Kec. Patangkep Tutui, Kabupaten Barito Timur, Kalimantan Tengah 71515","Bentot, Kec. Patangkep Tutui, Kabupaten Barito Timur",KALIMANTAN TENGAH,71515.0,Indonesia,,,,-2.0602736,115.3309922,https://maps.google.com/?cid=0x0:0xfaf1e18740997d4a,
toko bangunan,Toko Bahan Bangunan,TOKO USAHA JAYA (UJ),"Jl. Vetran Ampah, Putai, Kec. Dusun Tengah, Kabupaten Barito Timur, Kalimantan Tengah 73652","Putai, Kec. Dusun Tengah, Kabupaten Barito Timur",KALIMANTAN TENGAH,73652.0,Indonesia, 081357891567,,,-1.8007003,115.1504013,https://maps.google.com/?cid=0x0:0xfe206149b85fd21,
toko bangunan,Toko Bahan Bangunan,TOKO BANGUNAN FAUZAN,"Q6WX+CQH, Jl. Kelua - Ps. Panas, Ps. Panas, Kec. Kelua, Kabupaten Tabalong, Kalimantan Selatan 73661","Jl. Kelua - Ps. Panas, Ps. Panas, Kec. Kelua, Kabupaten Tabalong",KALIMANTAN TENGAH,73661.0,Indonesia, 085828602873,,,-2.2039433,115.2494691,https://maps.google.com/?cid=0x0:0x81c8126c8ca3f97f,
toko bangunan,Toko Alat-Alat,Ami Jaya. UD,"Jl. Ahmad Yani KM.13, Tamiang Layang, Kec. Dusun Tim., Kabupaten Barito Timur, Kalimantan Tengah 73611","Tamiang Layang, Kec. Dusun Tim., Kabupaten Barito Timur",KALIMANTAN TENGAH,73611.0,Indonesia, 05262092151,,,-2.1109572,115.1643133,https://maps.google.com/?cid=0x0:0x5bfd167739b72544,
toko bangunan,Pusat Perbelanjaan,Toko Rauf,"Jl. Ahmad Yani, Tamiang Layang, Kec. Dusun Tim., Kabupaten Barito Timur, Kalimantan Tengah 73671","Tamiang Layang, Kec. Dusun Tim., Kabupaten Barito Timur",KALIMANTAN TENGAH,73671.0,Indonesia, 085775627712,,,-2.1056044,115.1586155,https://maps.google.com/?cid=0x0:0x63467d8be1d491e,
toko bangunan,Toko Bahan Bangunan,Toko Hanafi,"6552+Q6R, Ampah Kota, Kec. Dusun Tengah, Kabupaten Barito Timur, Kalimantan Tengah 73652","Ampah Kota, Kec. Dusun Tengah, Kabupaten Barito Timur",KALIMANTAN TENGAH,73652.0,Indonesia, 085248966775,,,-1.7905077,115.1505234,https://maps.google.com/?cid=0x0:0xcd63d9f911c43d1a,
toko bangunan,Toko,Toko Usaha Baru,"V5HG+V73, Tamiang Layang, Kec. Dusun Tim., Kabupaten Barito Timur, Kalimantan Tengah 73671","Tamiang Layang, Kec. Dusun Tim., Kabupaten Barito Timur",KALIMANTAN TENGAH,73671.0,Indonesia, 082154188388,,,-2.12036,115.1756731,https://maps.google.com/?cid=0x0:0xe37193f3622778c4,
toko bangunan,Toko Bahan Bangunan,Toko Bangunan IKIP,"R62R+HMH, Ps. Panas, Kec. Kelua, Kabupaten Tabalong, Kalimantan Selatan 73661","Ps. Panas, Kec. Kelua, Kabupaten Tabalong",KALIMANTAN TENGAH,73661.0,Indonesia,,,,-2.1986054,115.2417872,https://maps.google.com/?cid=0x0:0x34fb39364b9b8bd7,
toko bangunan,toko bangunan,Toko Bangunan Tetei Pamelum,"Hayaping, Kec. Awang, Kabupaten Barito Timur, Kalimantan Tengah","Kabupaten Barito Timur, Kalimantan Tengah",KALIMANTAN TENGAH,,Indonesia,,,,-1.9797685,115.2334791,https://maps.google.com/?cid=0x0:0xab8ce71c2730a951,
toko bangunan,Toko Bahan Bangunan,Amin Chandra,"Jalan A Yani No.Km 6, Karang Langit, Kec. Dusun Tim., Kabupaten Barito Timur, Kalimantan Tengah","Kabupaten Barito Timur, Kalimantan Tengah",KALIMANTAN TENGAH,,Indonesia,,,,-2.0123999,115.188916,https://maps.google.com/?cid=0x0:0xa298e47889474ca4,
toko bangunan,Toko Swalayan,Toko.Bangunan  Molding,"F5V6+Q97, Jl. Negara Ampah-Muarateweh, Patas II, Kec. Gn. Bintang Awai, Kabupaten Barito Selatan, Kalimantan Tengah 73753","Jl. Negara Ampah-Muarateweh, Patas II, Kec. Gn. Bintang Awai, Kabupaten Barito Selatan",KALIMANTAN TENGAH,73753.0,Indonesia, 081367805201,,,-1.5055901,115.160911,https://maps.google.com/?cid=0x0:0xdf2f3df691cf2c7,
toko bangunan,Pasar,Pasar Tamiang Layang,"V5R7+4QG, Tamiang Layang, Kec. Dusun Tim., Kabupaten Barito Timur, Kalimantan Tengah 73671","Tamiang Layang, Kec. Dusun Tim., Kabupaten Barito Timur",KALIMANTAN TENGAH,73671.0,Indonesia,,,,-2.109695,115.1644451,https://maps.google.com/?cid=0x0:0x4f50be0016d819f4,
toko bangunan,Toko Alat Tulis,Fotocopy Amin,"W4FQ+839, Jl. Tamiyang Layang - Ampah, Sumur, Kec. Dusun Tim., Kabupaten Barito Timur, Kalimantan Tengah 73681","Jl. Tamiyang Layang - Ampah, Sumur, Kec. Dusun Tim., Kabupaten Barito Timur",KALIMANTAN TENGAH,73681.0,Indonesia,,,,-2.0767111,115.1377485,https://maps.google.com/?cid=0x0:0xeba947895553839c,
toko bangunan,toko bangunan,Kalimantan Tengah 73653,"Kabupaten Barito Selatan, Kalimantan Tengah","Kabupaten Barito Selatan, Kalimantan Tengah",KALIMANTAN TENGAH,,Indonesia,,,,-1.7491595,114.9754175,https://maps.google.com/?cid=0x0:0xd6ed047f12362357,
toko bangunan,Toko Bahan Bangunan,TB. Sumber Rezky,"52PR+565, Bambulung, Kec. Pematang Karau, Kabupaten Barito Timur, Kalimantan Tengah","Kabupaten Barito Timur, Kalimantan Tengah",KALIMANTAN TENGAH,,Indonesia,,,,-1.8146357,115.0407356,https://maps.google.com/?cid=0x0:0x729ef7b72a54f7f1,
toko bangunan,Toko Bahan Bangunan,Tb Mitra Bersama Bambulung,"Unnamed Road, Bambulung, Kec. Pematang Karau, Kabupaten Barito Timur, Kalimantan Tengah 73652","Bambulung, Kec. Pematang Karau, Kabupaten Barito Timur",KALIMANTAN TENGAH,73652.0,Indonesia,,,,-1.8180076,115.0310548,https://maps.google.com/?cid=0x0:0xd1d9f13b67f04c1d,
toko bangunan,Toko Bahan Bangunan,Toko Bangunan Swarga,"Jalan, Tamiang Layang, Dusun Timur, East Barito Regency, Central Kalimantan 73671","Tamiang Layang, Dusun Timur, East Barito Regency",KALIMANTAN TENGAH,73671.0,Indonesia, 085789077202,,,-2.0966672,115.151779,https://maps.google.com/?cid=0x0:0x4153cd1f5a6a0a6e,
toko bangunan,Toko Bahan Bangunan,BUDHI KARYA,"8V5G+5H, Pamait, Kec. Dusun Sel., Kabupaten Barito Selatan, Kalimantan Tengah 73713","Pamait, Kec. Dusun Sel., Kabupaten Barito Selatan",KALIMANTAN TENGAH,73713.0,Indonesia, 081349596262,,,-1.6920378,114.8764073,https://maps.google.com/?cid=0x0:0xd9acbdd22a0a1c3b,
toko bangunan,Toko Bahan Bangunan,TOKO USAHA JAYA (UJ),"Jl. Vetran Ampah, Putai, Kec. Dusun Tengah, Kabupaten Barito Timur, Kalimantan Tengah 73652","Putai, Kec. Dusun Tengah, Kabupaten Barito Timur",KALIMANTAN TENGAH,73652.0,Indonesia, 081357891567,,,-1.8007003,115.1504013,https://maps.google.com/?cid=0x0:0xfe206149b85fd21,
toko bangunan,Toko Bahan Bangunan,3 putera bangunan,"7RCP+Q8V, Jl. Kartini, Hilir Sper, Kec. Dusun Sel., Kabupaten Barito Selatan, Kalimantan Tengah 73751","Jl. Kartini, Hilir Sper, Kec. Dusun Sel., Kabupaten Barito Selatan",KALIMANTAN TENGAH,73751.0,Indonesia, 083899586603,,,-1.7280023,114.8358011,https://maps.google.com/?cid=0x0:0x7e0aa5869aabd474,
toko bangunan,Toko Bahan Bangunan,Bumi Bangunan,"Muara Teweh, Jl. Ampah No.RT 09, Ampah Kota, Kec. Dusun Tengah, Kabupaten Barito Timur, Kalimantan Tengah 73652","Jl. Ampah No.RT 09, Ampah Kota, Kec. Dusun Tengah, Kabupaten Barito Timur",KALIMANTAN TENGAH,73652.0,Indonesia, 081287458656,,,-1.7910596,115.1503415,https://maps.google.com/?cid=0x0:0x332c6d59f1964b74,
toko bangunan,Toko Bahan Bangunan,Toko Bangunan Setia Maju,"7RHP+HJJ, Jl. Pembangunan, Buntok Kota, Kec. Dusun Sel., Kabupaten Barito Selatan, Kalimantan Tengah 73711","Jl. Pembangunan, Buntok Kota, Kec. Dusun Sel., Kabupaten Barito Selatan",KALIMANTAN TENGAH,73711.0,Indonesia, 081396801512,,,-1.7210253,114.8365047,https://maps.google.com/?cid=0x0:0x35daaac7020b5bfa,
toko bangunan,Toko Swalayan,Toko Zainal,"XWF6+V4R, Bangkuang, Kec. Karau Kuala, Kabupaten Barito Selatan, Kalimantan Tengah 73617","Bangkuang, Kec. Karau Kuala, Kabupaten Barito Selatan",KALIMANTAN TENGAH,73617.0,Indonesia, 085249317316,,,-2.0252574,114.910276,https://maps.google.com/?cid=0x0:0xa5d7ba28d695b05b,
toko bangunan,Toko Bahan Bangunan,TOKO BANGUNAN BARITO,"Lenggang, Kec. Raren Batuah, Kabupaten Barito Timur, Kalimantan Tengah","Kabupaten Barito Timur, Kalimantan Tengah",KALIMANTAN TENGAH,,Indonesia,,,,-1.7019148,115.1422195,https://maps.google.com/?cid=0x0:0x1fdd76b0baae111e,
toko bangunan,Toko Bahan Bangunan,Toko Bangunan Tiga Berlian,"Jl. Yetro Sinseng No.21, Lanjas, Kec. Teweh Tengah, Kabupaten Barito Utara, Kalimantan Tengah 73814","Lanjas, Kec. Teweh Tengah, Kabupaten Barito Utara",KALIMANTAN TENGAH,73814.0,Indonesia, 081367805201,,,-0.9617625,114.8931326,https://maps.google.com/?cid=0x0:0x642a4ce342ec99fc,
toko bangunan,Toko Bahan Bangunan,Toko Anugerah Jaya,"Jl. Pelita Raya, RT.015/RW.004, Buntok Kota, Kec. Dusun Sel., Kabupaten Barito Selatan, Kalimantan Tengah 73711","RT.015/RW.004, Buntok Kota, Kec. Dusun Sel., Kabupaten Barito Selatan",KALIMANTAN TENGAH,73711.0,Indonesia, 087737401068,,,-1.7207836,114.8418198,https://maps.google.com/?cid=0x0:0xf2278e46c02f53f4,
toko bangunan,Toko Bahan Bangunan,Toko Hanafi,"6552+Q6R, Ampah Kota, Kec. Dusun Tengah, Kabupaten Barito Timur, Kalimantan Tengah 73652","Ampah Kota, Kec. Dusun Tengah, Kabupaten Barito Timur",KALIMANTAN TENGAH,73652.0,Indonesia, 085248966775,,,-1.7905077,115.1505234,https://maps.google.com/?cid=0x0:0xcd63d9f911c43d1a,
toko bangunan,Toko,"Toko Joeyaz'46 jual Alat Listrik, Alat Bangunan DLL","Unnamed Rd, Kab. Barito Sel., 73617, Bangkuang, Kec. Karau Kuala, Kabupaten Barito Selatan, Kalimantan Tengah 73617","Kab. Barito Sel.,",KALIMANTAN TENGAH,73617.0,Indonesia, 082199799669,,,-2.0319484,114.9049836,https://maps.google.com/?cid=0x0:0x833899f5c7014b9c,
toko bangunan,Toko,TOKO FAUZAN NIAGARA,"55W4+M74, Jl. Tamiyang Layang - Ampah Ampah, Ampah Kota, Kec. Dusun Tengah, Kabupaten Barito Timur, Kalimantan Tengah 73652","Jl. Tamiyang Layang - Ampah Ampah, Ampah Kota, Kec. Dusun Tengah, Kabupaten Barito Timur",KALIMANTAN TENGAH,73652.0,Indonesia, 081367805201,,,-1.8033641,115.1556954,https://maps.google.com/?cid=0x0:0x7022bb8b2804f08,
toko bangunan,Toko Bahan Bangunan,Matiba Kalimantan. CV,"Jl. Pahlawan No.31, Buntok Kota, Kec. Dusun Sel., Kabupaten Barito Selatan, Kalimantan Tengah 73751","Buntok Kota, Kec. Dusun Sel., Kabupaten Barito Selatan",KALIMANTAN TENGAH,73751.0,Indonesia,,,,-1.7163004,114.8371024,https://maps.google.com/?cid=0x0:0x9b556207981fa3a5,
toko bangunan,toko bangunan,Tb. Anugrah,"Bambulung, Kec. Pematang Karau, Kabupaten Barito Timur, Kalimantan Tengah","Kabupaten Barito Timur, Kalimantan Tengah",KALIMANTAN TENGAH,,Indonesia,,,,-1.8120016,115.0284947,https://maps.google.com/?cid=0x0:0xc75ef8f16046b470,
toko bangunan,toko bangunan,Kec. Raren Batuah,"Kabupaten Barito Timur, Kalimantan Tengah","Kabupaten Barito Timur, Kalimantan Tengah",KALIMANTAN TENGAH,,Indonesia,,,,-1.7435641,115.1517853,https://maps.google.com/?cid=0x0:0x581b014235e95caf,
toko bangunan,Toko Bahan Bangunan,Toko Bangunan Swarga,"Jalan, Tamiang Layang, Dusun Timur, East Barito Regency, Central Kalimantan 73671","Tamiang Layang, Dusun Timur, East Barito Regency",KALIMANTAN TENGAH,73671.0,Indonesia, 085789077202,,,-2.0966672,115.151779,https://maps.google.com/?cid=0x0:0x4153cd1f5a6a0a6e,
toko bangunan,Toko Bahan Bangunan,CV. Duo Phett,"Desa Tangkum, RT.04/RW.02, Batuah, Kec. Raren Batuah, Kabupaten Barito Timur, Kalimantan Tengah 73652","RT.04/RW.02, Batuah, Kec. Raren Batuah, Kabupaten Barito Timur",KALIMANTAN TENGAH,73652.0,Indonesia, 082354963750,,,-1.7281602,115.1954738,https://maps.google.com/?cid=0x0:0x68faf7bf1ff7d8a7,
toko bangunan,Toko Bahan Bangunan,Toko Hanafi,"6552+Q6R, Ampah Kota, Kec. Dusun Tengah, Kabupaten Barito Timur, Kalimantan Tengah 73652","Ampah Kota, Kec. Dusun Tengah, Kabupaten Barito Timur",KALIMANTAN TENGAH,73652.0,Indonesia, 085248966775,,,-1.7905077,115.1505234,https://maps.google.com/?cid=0x0:0xcd63d9f911c43d1a,
toko bangunan,Toko Bahan Bangunan,TOKO BANGUNAN BARITO,"Lenggang, Kec. Raren Batuah, Kabupaten Barito Timur, Kalimantan Tengah","Kabupaten Barito Timur, Kalimantan Tengah",KALIMANTAN TENGAH,,Indonesia,,,,-1.7019148,115.1422195,https://maps.google.com/?cid=0x0:0x1fdd76b0baae111e,
toko bangunan,Toko Perlengkapan Rumah,Toko Bangunan Raihan,"WJWF+5C6, Belawang Kolam Kiri, Kec. Wanaraya, Kabupaten Barito Kuala, Kalimantan Selatan 70562","Belawang Kolam Kiri, Kec. Wanaraya, Kabupaten Barito Kuala",KALIMANTAN TENGAH,70562.0,Indonesia,,,,-3.0545899,114.6235237,https://maps.google.com/?cid=0x0:0x70f4408c22ee6645,
toko bangunan,Toko Bahan Bangunan,Toko Bangunan Tiga Berlian,"Jl. Yetro Sinseng No.21, Lanjas, Kec. Teweh Tengah, Kabupaten Barito Utara, Kalimantan Tengah 73814","Lanjas, Kec. Teweh Tengah, Kabupaten Barito Utara",KALIMANTAN TENGAH,73814.0,Indonesia, 081367805201,,,-0.9617625,114.8931326,https://maps.google.com/?cid=0x0:0x642a4ce342ec99fc,
toko bangunan,Toko Bahan Bangunan,Toko Bangunan ANIS,"V5JC+VRJ, Jl. Ahmad Yani, Tamiang Layang, Kec. Dusun Tim., Kabupaten Barito Timur, Kalimantan Tengah 73671","Jl. Ahmad Yani, Tamiang Layang, Kec. Dusun Tim., Kabupaten Barito Timur",KALIMANTAN TENGAH,73671.0,Indonesia, 085249511744,,,-2.1177883,115.172023,https://maps.google.com/?cid=0x0:0x91d0d2599bd1ea1e,
toko bangunan,Toko,Toko HS Anugerah,"Unnamed Rd, Batu Raya I, Kec. Gn. Timang, Kabupaten Barito Utara, Kalimantan Tengah 73862","Batu Raya I, Kec. Gn. Timang, Kabupaten Barito Utara",KALIMANTAN TENGAH,73862.0,Indonesia, 081352437322,,,-1.3524232,115.2603773,https://maps.google.com/?cid=0x0:0x7f187bcb9f16e0f4,
toko bangunan,Toko Bahan Bangunan,RUPA RUPA MUR BAUT AMPAH,"Jl. Patas Ampah, Ampah Kota, Kec. Dusun Tengah, Kabupaten Barito Timur, Kalimantan Tengah 73652","Ampah Kota, Kec. Dusun Tengah, Kabupaten Barito Timur",KALIMANTAN TENGAH,73652.0,Indonesia, 081329490000,,,-1.7982047,115.1507715,https://maps.google.com/?cid=0x0:0x5102febd39692c86,
toko bangunan,Toko Bahan Bangunan,Arsian Toko Bangunan Sumber Berkah,"PGG7+Q88, Jelapat II, Kec. Mekarsari, Kabupaten Barito Kuala, Kalimantan Selatan 70568","Jelapat II, Kec. Mekarsari, Kabupaten Barito Kuala",KALIMANTAN TENGAH,70568.0,Indonesia, 082171552837,,,-3.2730882,114.5133392,https://maps.google.com/?cid=0x0:0xec06d0a58c26bda1,
toko bangunan,Toko Perlengkapan Rumah,Toko Bangunan NUGRAHA,"Q7C8+9GX, Bagok, Kec. Kelua, Kabupaten Barito Timur, Kalimantan Tengah 71552","Bagok, Kec. Kelua, Kabupaten Barito Timur",KALIMANTAN TENGAH,71552.0,Indonesia, 081367805201,,,-2.2290034,115.2663504,https://maps.google.com/?cid=0x0:0xa6035c3214169c57,
toko bangunan,Toko Bahan Bangunan,UD Karya Bersama,"JL. Murung Basuki, No No.27, Ampah Kota, Kec. Dusun Tengah, Kabupaten Barito Timur, Kalimantan Tengah 73652","No No.27, Ampah Kota, Kec. Dusun Tengah, Kabupaten Barito Timur",KALIMANTAN TENGAH,73652.0,Indonesia, 052231150,,,-1.790137,115.15337,https://maps.google.com/?cid=0x0:0xbfe3f5b3221f7d6d,
toko bangunan,Toko Perlengkapan Rumah,TOKO BANGUN TANI,"Jl. Brigjen Katamso, Melayu, Kec. Teweh Tengah, Kabupaten Barito Utara, Kalimantan Tengah 73814","Melayu, Kec. Teweh Tengah, Kabupaten Barito Utara",KALIMANTAN TENGAH,73814.0,Indonesia, 081351152210,,,-0.9427266,114.9047556,https://maps.google.com/?cid=0x0:0x8c679f1aad05b54d,
toko bangunan,Toko,Toko Lisda,"95GJ+HFX, Wayun, Palu Rejo, Kabupaten Barito Selatan, Kalimantan Tengah","Kabupaten Barito Selatan, Kalimantan Tengah",KALIMANTAN TENGAH,,Indonesia, 085281775051,,,-1.6235216,115.1812263,https://maps.google.com/?cid=0x0:0xf6e50860c0923af3,
hardware store,hardware store,Kalimantan Tengah 73681,"Kabupaten Barito Timur, Kalimantan Tengah","Kabupaten Barito Timur, Kalimantan Tengah",KALIMANTAN TENGAH,,Indonesia,,,,-1.9957549,115.1177654,https://maps.google.com/?cid=0x0:0xad325f18fddf1160,
hardware store,Toko,Anugerah shop,"Jl. Alabio Danau Panggang Hilir, Tlk. Cati, Kec. Sungai Tabukan, Kabupaten Hulu Sungai Utara, Kalimantan Selatan 71455","Tlk. Cati, Kec. Sungai Tabukan, Kabupaten Hulu Sungai Utara",KALIMANTAN TENGAH,71455.0,Indonesia, 081255709361,,,-2.4411153,115.1936096,https://maps.google.com/?cid=0x0:0xf91e0655e0d9a83,
hardware store,Toko Bahan Bangunan,Amin Chandra,"Jalan A Yani No.Km 6, Karang Langit, Kec. Dusun Tim., Kabupaten Barito Timur, Kalimantan Tengah","Kabupaten Barito Timur, Kalimantan Tengah",KALIMANTAN TENGAH,,Indonesia,,,,-2.0123999,115.188916,https://maps.google.com/?cid=0x0:0xa298e47889474ca4,
hardware store,Toko Perlengkapan Rumah,AZKO Grand Metropolitan Bekasi,"Grand Metropolitan Bekasi, Jl. KH. Noer Ali No.11 Lt. 2, RT.007/RW.12, Pekayon Jaya, Bekasi Selatan, Bekasi, West Java 17148","Jl. KH. Noer Ali No.11 Lt. 2, RT.007/RW.12, Pekayon Jaya, Bekasi Selatan, Bekasi",KALIMANTAN TENGAH,17148.0,Indonesia, 0881024941564,,,-6.2494095,106.98505,https://maps.google.com/?cid=0x0:0x581d143071bc1da6,
hardware store,Toko Mebel,Living Plaza Cinere,"RT/RW 003/06, Jl. Cinere Raya No.100, Cinere, Depok City, West Java 16514","Jl. Cinere Raya No.100, Cinere, Depok City",KALIMANTAN TENGAH,16514.0,Indonesia, 085885880328,,,-6.3326503,106.7827599,https://maps.google.com/?cid=0x0:0xe288c098b8af0063,
hardware store,Toko Bahan Bangunan,GOLDEN HARDWARE - Toko Kunci  Keran (Pinangsia),"Jl. Pinangsia Raya No.57, Pinangsia, Kec. Taman Sari, Kota Jakarta Barat, Daerah Khusus Ibukota Jakarta 11110","Pinangsia, Kec. Taman Sari, Kota Jakarta Barat",KALIMANTAN TENGAH,11110.0,Indonesia, 087772726357,,,-6.141081,106.815394,https://maps.google.com/?cid=0x0:0x4311d9981de91e69,
hardware store,Toko umum,AWANG HARDWARE,"565F+G2M, Shariff Aguak - Cotabato City Rd, Datu Odin Sinsuat, Maguindanao, Filipina","Datu Odin Sinsuat, Maguindanao, Filipina",KALIMANTAN TENGAH,,Indonesia,,,,7.158844,124.2225497,https://maps.google.com/?cid=0x0:0xb7ddd98f1cd05c72,
hardware store,Produsen,Gypsum GRC,"BLK. a, No. 25, Ruko Bidex, JL. Pahlawan Seribu, Lengkonggudang, 15321 Tangerang, Indonesia, Lengkong Gudang, Serpong Sub-District, South Tangerang City, Banten 15321",Tangerang,KALIMANTAN TENGAH,15321.0,Indonesia, 081297497704,,,-6.293816,106.6667299,https://maps.google.com/?cid=0x0:0x37ded37f0b67b858,
hardware store,hardware store,Kalimantan Tengah 73661,"Kec. Benua Lima, Kabupaten Barito Timur, Kalimantan Tengah","Kabupaten Barito Timur, Kalimantan Tengah",KALIMANTAN TENGAH,,Indonesia,,,,-2.2459171,115.1177654,https://maps.google.com/?cid=0x0:0x6244b86fbc9e52c1,
hardware store,Pusat Perbelanjaan,Timbuk Baru. TB,"Jl. Ps. Panas - Tamiang Layang, Jaar, Kec. Dusun Tim., Kabupaten Barito Timur, Kalimantan Tengah 73671","Jaar, Kec. Dusun Tim., Kabupaten Barito Timur",KALIMANTAN TENGAH,73671.0,Indonesia, 085664920865,,,-2.1394112,115.1952203,https://maps.google.com/?cid=0x0:0x75857d0b67f4e686,
hardware store,Toko,TB JUMBERI,"Q6XW+GGV, Jl. Kelua - Ps. Panas, Ps. Panas, Kec. Kelua, Kabupaten Tabalong, Kalimantan Selatan 73661","Jl. Kelua - Ps. Panas, Ps. Panas, Kec. Kelua, Kabupaten Tabalong",KALIMANTAN TENGAH,73661.0,Indonesia,,,,-2.2011361,115.2462935,https://maps.google.com/?cid=0x0:0xbb5fe0f30e7ce052,
hardware store,Toko Bahan Bangunan,TOKO bangunan Ayip,"Pudak Setegal, Kec. Kelua, Kabupaten Tabalong, Kalimantan Selatan 71552","Kec. Kelua, Kabupaten Tabalong",KALIMANTAN TENGAH,71552.0,Indonesia, 087783141071,,,-2.2873738,115.2808017,https://maps.google.com/?cid=0x0:0xd0ebbd1d37db74bb,
hardware store,Toko Bahan Bangunan,Mitra Royal Membangun,"R9JX+RPG, Belimbing Raya, Kec. Murung Pudak, Kabupaten Tabalong, Kalimantan Selatan 71571","Belimbing Raya, Kec. Murung Pudak, Kabupaten Tabalong",KALIMANTAN TENGAH,71571.0,Indonesia,,,,-2.1679497,115.399335,https://maps.google.com/?cid=0x0:0x3409fb022e30b23f,
hardware store,Toko Bahan Bangunan,Toko Bintang Timur,"R9JM+45P, Sulingan, Kec. Murung Pudak, Kabupaten Tabalong, Kalimantan Selatan 71571","Sulingan, Kec. Murung Pudak, Kabupaten Tabalong",KALIMANTAN TENGAH,71571.0,Indonesia, 05262021787,,,-2.1696681,115.3829513,https://maps.google.com/?cid=0x0:0xe0a0d67c5ca1589,
hardware store,Toko Komputer,Jet ' Computer,"Jl Ahmad Yani No 207 Matabu, Tamiang Layang, Kec. Dusun Tim., Kabupaten Barito Timur, Kalimantan Tengah 73611","Tamiang Layang, Kec. Dusun Tim., Kabupaten Barito Timur",KALIMANTAN TENGAH,73611.0,Indonesia, 085136106987,,,-2.1256671,115.1835645,https://maps.google.com/?cid=0x0:0xad9bae0d61e75e06,
hardware store,Toko Bahan Bangunan,TB. TIGA PUTERI,"Jl. Ali Said, Pembataan, Kec. Murung Pudak, Kabupaten Tabalong, Kalimantan Selatan 71571","Pembataan, Kec. Murung Pudak, Kabupaten Tabalong",KALIMANTAN TENGAH,71571.0,Indonesia, 082152471981,,,-2.1852597,115.3910738,https://maps.google.com/?cid=0x0:0x1d670c106a8ac7b6,
hardware store,Toko Alat Tulis,Toko Umpu Itak,"jalan temenggung jayakarti No.1, RT.07, Tamiang Layang, Kec. Dusun Tim., Kabupaten Barito Timur, Kalimantan Tengah 73671","RT.07, Tamiang Layang, Kec. Dusun Tim., Kabupaten Barito Timur",KALIMANTAN TENGAH,73671.0,Indonesia,,,,-2.1105505,115.1642977,https://maps.google.com/?cid=0x0:0x4ebf18e83f55a910,
hardware store,Toko Alat Tulis,MEDIA UTAMAJAYA STATIONARY DAN COMPUTER,"Jl. Nansarunai - Tamiang Layang No.5, Tamiang Layang, Kec. Dusun Tim., Kabupaten Barito Timur, Kalimantan Tengah 73671","Tamiang Layang, Kec. Dusun Tim., Kabupaten Barito Timur",KALIMANTAN TENGAH,73671.0,Indonesia, 08575343317,,,-2.1125602,115.1673719,https://maps.google.com/?cid=0x0:0x49d8072e6e2d647,
hardware store,Toko Bahan Bangunan,TB. H.Yus'a,"Jl. Anggrek 7 No.42, Belimbing Raya, Kec. Murung Pudak, Kabupaten Tabalong, Kalimantan Selatan 71571","Belimbing Raya, Kec. Murung Pudak, Kabupaten Tabalong",KALIMANTAN TENGAH,71571.0,Indonesia,,,,-2.1658147,115.3997771,https://maps.google.com/?cid=0x0:0xd39db155338da2b8,
hardware store,,Tb. H. Ijul,"Mabuun, Kec. Murung Pudak, Kabupaten Tabalong, Kalimantan Selatan","Kabupaten Tabalong, Kalimantan Selatan",KALIMANTAN TENGAH,,Indonesia,,,,-2.1723025,115.4091242,https://maps.google.com/?cid=0x0:0x803c04035b3192eb,
hardware store,Lapangan Atletik,PT (Pendopo Teknik),"R9FW+35G, Pembataan, Kec. Murung Pudak, Kabupaten Tabalong, Kalimantan Selatan 71571","Pembataan, Kec. Murung Pudak, Kabupaten Tabalong",KALIMANTAN TENGAH,71571.0,Indonesia,,,,-2.1773221,115.3954507,https://maps.google.com/?cid=0x0:0x560125467ea0f9c1,
hardware store,Toko Bahan Bangunan,Tb maya h imul kalua,"rt 04, Karangan Putih, Kec. Kelua, Kabupaten Tabalong, Kalimantan Selatan 71552","Karangan Putih, Kec. Kelua, Kabupaten Tabalong",KALIMANTAN TENGAH,71552.0,Indonesia,,,,-2.2478243,115.2793114,https://maps.google.com/?cid=0x0:0x12364edb4abe217c,
hardware store,Toko Bahan Bangunan,Jual kayu /wantilan yusuf,"Takulat, Kec. Kelua, Kabupaten Tabalong, Kalimantan Selatan 71552","Kec. Kelua, Kabupaten Tabalong",KALIMANTAN TENGAH,71552.0,Indonesia, 083142129106,,,-2.2625733,115.2830002,https://maps.google.com/?cid=0x0:0xb63a4e39a67b3008,
hardware store,Toko Perlengkapan Rumah,Mr. D.I.Y Amuntai,"Jl. Norman Umar, Kebun Sari, Kec. Amuntai Tengah, Kabupaten Hulu Sungai Utara, Kalimantan Selatan 71414","Kebun Sari, Kec. Amuntai Tengah, Kabupaten Hulu Sungai Utara",KALIMANTAN TENGAH,71414.0,Indonesia,,,,-2.4245164,115.2512497,https://maps.google.com/?cid=0x0:0xa7061604eb5795c,
hardware store,,Alya Fotocopy  Printing,"Jl. Ahmad Yani No.90, Tamiang Layang, Kec. Dusun Tim., Kabupaten Barito Timur, Kalimantan Tengah 73671","Tamiang Layang, Kec. Dusun Tim., Kabupaten Barito Timur",KALIMANTAN TENGAH,73671.0,Indonesia, 081253146374,,,-2.104963,115.1568572,https://maps.google.com/?cid=0x0:0x7380490950dfea4d,
hardware store,Toko Bahan Bangunan,TB. Nurani,"P7HW+7CG, Jl. Kelua - Ps. Panas, Takulat, Kec. Kelua, Kabupaten Tabalong, Kalimantan Selatan 71552","Jl. Kelua - Ps. Panas, Takulat, Kec. Kelua, Kabupaten Tabalong",KALIMANTAN TENGAH,71552.0,Indonesia,,,,-2.2718152,115.2960693,https://maps.google.com/?cid=0x0:0x85af509abd8896ae,
hardware store,Toko Bahan Bangunan,Tb. Mulia-Ia Jaya,"Q8FX+JVV, Jl. Simpang 3, Luk Bayur, Kec. Tanta, Kabupaten Tabalong, Kalimantan Selatan 71561","Jl. Simpang 3, Luk Bayur, Kec. Tanta, Kabupaten Tabalong",KALIMANTAN TENGAH,71561.0,Indonesia,,,,-2.2258935,115.3496625,https://maps.google.com/?cid=0x0:0x8f735fa7721ea80a,
hardware store,Toko Bahan Bangunan,Tb.Putra Berkah,"H7J9+GHV, Jl. Jermani Husein, Sungai Bahadangan, Kec. Banjang, Kabupaten Hulu Sungai Utara, Kalimantan Selatan 71417","Jl. Jermani Husein, Sungai Bahadangan, Kec. Banjang, Kabupaten Hulu Sungai Utara",KALIMANTAN TENGAH,71417.0,Indonesia,,,,-2.4186463,115.268916,https://maps.google.com/?cid=0x0:0xa9dd5e6444b89cae,
hardware store,Toko Bahan Bangunan,TB.ARIF (toko bangunan),"P7CX+VHJ, Pulau, Kec. Kelua, Kabupaten Tabalong, Kalimantan Selatan 71552","Pulau, Kec. Kelua, Kabupaten Tabalong",KALIMANTAN TENGAH,71552.0,Indonesia,,,,-2.2777763,115.2989029,https://maps.google.com/?cid=0x0:0x7e79ebb9645cead2,
hardware store,Minimarket,Toko nabila,"Desa kitang, RT.02/RW.No 79, Jangkung, Kec. Tj., Kabupaten Tabalong, Kalimantan Selatan 71513","RT.02/RW.No 79, Jangkung, Kec. Tj., Kabupaten Tabalong",KALIMANTAN TENGAH,71513.0,Indonesia,,,,-2.1652707,115.3726469,https://maps.google.com/?cid=0x0:0x820232fe55a6aea6,
hardware store,Pusat Perbelanjaan,Toko. 99 Tamiang Layang,"Jl. Nansarunai - Tamiang Layang, RT.05/RW.No. 07, Tamiang Layang, Kec. Dusun Tim., Kabupaten Barito Timur, Kalimantan Tengah 73611","RT.05/RW.No. 07, Tamiang Layang, Kec. Dusun Tim., Kabupaten Barito Timur",KALIMANTAN TENGAH,73611.0,Indonesia,,,,-2.1112003,115.1693367,https://maps.google.com/?cid=0x0:0xbe475794da9a1fc8,
hardware store,hardware store,Kec. Dusun Tengah,"Kabupaten Barito Timur, Kalimantan Tengah","Kabupaten Barito Timur, Kalimantan Tengah",KALIMANTAN TENGAH,,Indonesia,,,,-1.7997404,115.1507466,https://maps.google.com/?cid=0x0:0xca2b51c229ce230f,
hardware store,Toko Bahan Bangunan,Bumi Bangunan,"Muara Teweh, Jl. Ampah No.RT 09, Ampah Kota, Kec. Dusun Tengah, Kabupaten Barito Timur, Kalimantan Tengah 73652","Jl. Ampah No.RT 09, Ampah Kota, Kec. Dusun Tengah, Kabupaten Barito Timur",KALIMANTAN TENGAH,73652.0,Indonesia, 081287458656,,,-1.7910596,115.1503415,https://maps.google.com/?cid=0x0:0x332c6d59f1964b74,
hardware store,Toko Bahan Bangunan,Toko H. WAHYU,"Ampah Kota, Kec. Dusun Tengah, Kabupaten Barito Timur, Kalimantan Tengah 73652","Kec. Dusun Tengah, Kabupaten Barito Timur",KALIMANTAN TENGAH,73652.0,Indonesia,,,,-1.8005173,115.1523632,https://maps.google.com/?cid=0x0:0x7c7605a68ebe6acf,
hardware store,Toko,TOKO FAUZAN NIAGARA,"55W4+M74, Jl. Tamiyang Layang - Ampah Ampah, Ampah Kota, Kec. Dusun Tengah, Kabupaten Barito Timur, Kalimantan Tengah 73652","Jl. Tamiyang Layang - Ampah Ampah, Ampah Kota, Kec. Dusun Tengah, Kabupaten Barito Timur",KALIMANTAN TENGAH,73652.0,Indonesia, 081367805201,,,-1.8033641,115.1556954,https://maps.google.com/?cid=0x0:0x7022bb8b2804f08,
hardware store,hardware store,Kalimantan Tengah 73612,"Telang, Kec. Paju Epat, Kabupaten Barito Timur, Kalimantan Tengah","Kabupaten Barito Timur, Kalimantan Tengah",KALIMANTAN TENGAH,,Indonesia,,,,-2.1445423,115.0288051,https://maps.google.com/?cid=0x0:0xebf8e473b2c14e5c,
hardware store,hardware store,Kalimantan Tengah 73613,"Kec. Paju Epat, Kabupaten Barito Timur, Kalimantan Tengah","Kabupaten Barito Timur, Kalimantan Tengah",KALIMANTAN TENGAH,,Indonesia,,,,-2.1173046,115.0525302,https://maps.google.com/?cid=0x0:0x122a80857309f6e5,
hardware store,hardware store,Kec. Dusun Tim.,"Kabupaten Barito Timur, Kalimantan Tengah","Kabupaten Barito Timur, Kalimantan Tengah",KALIMANTAN TENGAH,,Indonesia,,,,-2.1126877,115.1670292,https://maps.google.com/?cid=0x0:0x740b7052b652c454,
hardware store,Toko Bahan Bangunan,TB.Ami Jaya,"Jl. Nansarunai - Tamiang Layang, Sumur, Kec. Dusun Tim., Kabupaten Barito Timur, Kalimantan Tengah 73671","Sumur, Kec. Dusun Tim., Kabupaten Barito Timur",KALIMANTAN TENGAH,73671.0,Indonesia, 085387939888,,,-2.0870694,115.1442128,https://maps.google.com/?cid=0x0:0xfc01ce658be0822a,
hardware store,hardware store,Kalimantan Tengah 73614,"Kec. Paju Epat, Kabupaten Barito Timur, Kalimantan Tengah","Kabupaten Barito Timur, Kalimantan Tengah",KALIMANTAN TENGAH,,Indonesia,,,,-2.081165,115.0762536,https://maps.google.com/?cid=0x0:0x90e53ff734a76b72,
hardware store,hardware store,Kec. Dusun Tim.,"Kabupaten Barito Timur, Kalimantan Tengah","Kabupaten Barito Timur, Kalimantan Tengah",KALIMANTAN TENGAH,,Indonesia,,,,-2.1126877,115.1670292,https://maps.google.com/?cid=0x0:0x740b7052b652c454,
hardware store,Pusat Perbelanjaan,Timbuk Baru. TB,"Jl. Ps. Panas - Tamiang Layang, Jaar, Kec. Dusun Tim., Kabupaten Barito Timur, Kalimantan Tengah 73671","Jaar, Kec. Dusun Tim., Kabupaten Barito Timur",KALIMANTAN TENGAH,73671.0,Indonesia, 085664920865,,,-2.1394112,115.1952203,https://maps.google.com/?cid=0x0:0x75857d0b67f4e686,
hardware store,,Alya Fotocopy  Printing,"Jl. Ahmad Yani No.90, Tamiang Layang, Kec. Dusun Tim., Kabupaten Barito Timur, Kalimantan Tengah 73671","Tamiang Layang, Kec. Dusun Tim., Kabupaten Barito Timur",KALIMANTAN TENGAH,73671.0,Indonesia, 081253146374,,,-2.104963,115.1568572,https://maps.google.com/?cid=0x0:0x7380490950dfea4d,
hardware store,Toko Komputer,Jet ' Computer,"Jl Ahmad Yani No 207 Matabu, Tamiang Layang, Kec. Dusun Tim., Kabupaten Barito Timur, Kalimantan Tengah 73611","Tamiang Layang, Kec. Dusun Tim., Kabupaten Barito Timur",KALIMANTAN TENGAH,73611.0,Indonesia, 085136106987,,,-2.1256671,115.1835645,https://maps.google.com/?cid=0x0:0xad9bae0d61e75e06,
hardware store,Toko Alat Tulis,MEDIA UTAMAJAYA STATIONARY DAN COMPUTER,"Jl. Nansarunai - Tamiang Layang No.5, Tamiang Layang, Kec. Dusun Tim., Kabupaten Barito Timur, Kalimantan Tengah 73671","Tamiang Layang, Kec. Dusun Tim., Kabupaten Barito Timur",KALIMANTAN TENGAH,73671.0,Indonesia, 08575343317,,,-2.1125602,115.1673719,https://maps.google.com/?cid=0x0:0x49d8072e6e2d647,
hardware store,Pusat Perbelanjaan,Toko. 99 Tamiang Layang,"Jl. Nansarunai - Tamiang Layang, RT.05/RW.No. 07, Tamiang Layang, Kec. Dusun Tim., Kabupaten Barito Timur, Kalimantan Tengah 73611","RT.05/RW.No. 07, Tamiang Layang, Kec. Dusun Tim., Kabupaten Barito Timur",KALIMANTAN TENGAH,73611.0,Indonesia,,,,-2.1112003,115.1693367,https://maps.google.com/?cid=0x0:0xbe475794da9a1fc8,
hardware store,Toko Alat Tulis,Toko Umpu Itak,"jalan temenggung jayakarti No.1, RT.07, Tamiang Layang, Kec. Dusun Tim., Kabupaten Barito Timur, Kalimantan Tengah 73671","RT.07, Tamiang Layang, Kec. Dusun Tim., Kabupaten Barito Timur",KALIMANTAN TENGAH,73671.0,Indonesia,,,,-2.1105505,115.1642977,https://maps.google.com/?cid=0x0:0x4ebf18e83f55a910,
hardware store,Toko Bahan Bangunan,Amin Chandra,"Jalan A Yani No.Km 6, Karang Langit, Kec. Dusun Tim., Kabupaten Barito Timur, Kalimantan Tengah","Kabupaten Barito Timur, Kalimantan Tengah",KALIMANTAN TENGAH,,Indonesia,,,,-2.0123999,115.188916,https://maps.google.com/?cid=0x0:0xa298e47889474ca4,
hardware store,Toko,Toko Usaha Baru,"V5HG+V73, Tamiang Layang, Kec. Dusun Tim., Kabupaten Barito Timur, Kalimantan Tengah 73671","Tamiang Layang, Kec. Dusun Tim., Kabupaten Barito Timur",KALIMANTAN TENGAH,73671.0,Indonesia, 082154188388,,,-2.12036,115.1756731,https://maps.google.com/?cid=0x0:0xe37193f3622778c4,
hardware store,hardware store,Kalimantan Tengah 73615,"Kec. Paju Epat, Kabupaten Barito Timur, Kalimantan Tengah","Kabupaten Barito Timur, Kalimantan Tengah",KALIMANTAN TENGAH,,Indonesia,,,,-2.0549841,115.0406679,https://maps.google.com/?cid=0x0:0xfc49174b02adf151,
hardware store,hardware store,Kalimantan Tengah 73617,Kalimantan Tengah,Kalimantan Tengah,KALIMANTAN TENGAH,,Indonesia,,,,-2.0520057,114.9516869,https://maps.google.com/?cid=0x0:0xf0d04e5ed5edf592,
hardware store,Pusat Perbelanjaan,Timbuk Baru. TB,"Jl. Ps. Panas - Tamiang Layang, Jaar, Kec. Dusun Tim., Kabupaten Barito Timur, Kalimantan Tengah 73671","Jaar, Kec. Dusun Tim., Kabupaten Barito Timur",KALIMANTAN TENGAH,73671.0,Indonesia, 085664920865,,,-2.1394112,115.1952203,https://maps.google.com/?cid=0x0:0x75857d0b67f4e686,
hardware store,Toko Bahan Bangunan,Tb berkat cahaya matahari,"V5W3+CM, Tamiang Layang, Kec. Dusun Tim., Kabupaten Barito Timur, Kalimantan Tengah 73671","Tamiang Layang, Kec. Dusun Tim., Kabupaten Barito Timur",KALIMANTAN TENGAH,73671.0,Indonesia,,,,-2.1039463,115.1541763,https://maps.google.com/?cid=0x0:0x8852c885c37eadd7,
hardware store,Toko Alat Tulis,Toko Umpu Itak,"jalan temenggung jayakarti No.1, RT.07, Tamiang Layang, Kec. Dusun Tim., Kabupaten Barito Timur, Kalimantan Tengah 73671","RT.07, Tamiang Layang, Kec. Dusun Tim., Kabupaten Barito Timur",KALIMANTAN TENGAH,73671.0,Indonesia,,,,-2.1105505,115.1642977,https://maps.google.com/?cid=0x0:0x4ebf18e83f55a910,
hardware store,Toko Bahan Bangunan,Toko Bahan Bangunan CHANDRA DEWI,"Unnamed Road, Mengkatip, Kec. Dusun Hilir, Kabupaten Barito Selatan, Kalimantan Tengah 73762","Mengkatip, Kec. Dusun Hilir, Kabupaten Barito Selatan",KALIMANTAN TENGAH,73762.0,Indonesia,,,,-2.2292054,114.8554474,https://maps.google.com/?cid=0x0:0xe8e615f94114b0e0,
hardware store,Toko bahan makanan,UD. RAHMANI,"RT.003/RW.001, Kalanis, Kec. Dusun Hilir, Kabupaten Barito Selatan, Kalimantan Tengah 73762","Kalanis, Kec. Dusun Hilir, Kabupaten Barito Selatan",KALIMANTAN TENGAH,73762.0,Indonesia, 082252623785,,,-2.2636639,114.8990197,https://maps.google.com/?cid=0x0:0x2fe60a62c3a6b3b8,
hardware store,,Alya Fotocopy  Printing,"Jl. Ahmad Yani No.90, Tamiang Layang, Kec. Dusun Tim., Kabupaten Barito Timur, Kalimantan Tengah 73671","Tamiang Layang, Kec. Dusun Tim., Kabupaten Barito Timur",KALIMANTAN TENGAH,73671.0,Indonesia, 081253146374,,,-2.104963,115.1568572,https://maps.google.com/?cid=0x0:0x7380490950dfea4d,
hardware store,Toko Bahan Bangunan,Amin Chandra,"Jalan A Yani No.Km 6, Karang Langit, Kec. Dusun Tim., Kabupaten Barito Timur, Kalimantan Tengah","Kabupaten Barito Timur, Kalimantan Tengah",KALIMANTAN TENGAH,,Indonesia,,,,-2.0123999,115.188916,https://maps.google.com/?cid=0x0:0xa298e47889474ca4,
hardware store,Toko,Toko Usaha Baru,"V5HG+V73, Tamiang Layang, Kec. Dusun Tim., Kabupaten Barito Timur, Kalimantan Tengah 73671","Tamiang Layang, Kec. Dusun Tim., Kabupaten Barito Timur",KALIMANTAN TENGAH,73671.0,Indonesia, 082154188388,,,-2.12036,115.1756731,https://maps.google.com/?cid=0x0:0xe37193f3622778c4,
hardware store,Pusat Perbelanjaan,Timbuk Baru. TB,"Jl. Ps. Panas - Tamiang Layang, Jaar, Kec. Dusun Tim., Kabupaten Barito Timur, Kalimantan Tengah 73671","Jaar, Kec. Dusun Tim., Kabupaten Barito Timur",KALIMANTAN TENGAH,73671.0,Indonesia, 085664920865,,,-2.1394112,115.1952203,https://maps.google.com/?cid=0x0:0x75857d0b67f4e686,
hardware store,Toko Bahan Bangunan,Tb berkat cahaya matahari,"V5W3+CM, Tamiang Layang, Kec. Dusun Tim., Kabupaten Barito Timur, Kalimantan Tengah 73671","Tamiang Layang, Kec. Dusun Tim., Kabupaten Barito Timur",KALIMANTAN TENGAH,73671.0,Indonesia,,,,-2.1039463,115.1541763,https://maps.google.com/?cid=0x0:0x8852c885c37eadd7,
hardware store,hardware store,Kec. Dusun Tim.,"Kabupaten Barito Timur, Kalimantan Tengah","Kabupaten Barito Timur, Kalimantan Tengah",KALIMANTAN TENGAH,,Indonesia,,,,-2.1126877,115.1670292,https://maps.google.com/?cid=0x0:0x740b7052b652c454,
hardware store,Toko Bahan Bangunan,Amin Chandra,"Jalan A Yani No.Km 6, Karang Langit, Kec. Dusun Tim., Kabupaten Barito Timur, Kalimantan Tengah","Kabupaten Barito Timur, Kalimantan Tengah",KALIMANTAN TENGAH,,Indonesia,,,,-2.0123999,115.188916,https://maps.google.com/?cid=0x0:0xa298e47889474ca4,
hardware store,,Alya Fotocopy  Printing,"Jl. Ahmad Yani No.90, Tamiang Layang, Kec. Dusun Tim., Kabupaten Barito Timur, Kalimantan Tengah 73671","Tamiang Layang, Kec. Dusun Tim., Kabupaten Barito Timur",KALIMANTAN TENGAH,73671.0,Indonesia, 081253146374,,,-2.104963,115.1568572,https://maps.google.com/?cid=0x0:0x7380490950dfea4d,
hardware store,Toko Alat Tulis,MEDIA UTAMAJAYA STATIONARY DAN COMPUTER,"Jl. Nansarunai - Tamiang Layang No.5, Tamiang Layang, Kec. Dusun Tim., Kabupaten Barito Timur, Kalimantan Tengah 73671","Tamiang Layang, Kec. Dusun Tim., Kabupaten Barito Timur",KALIMANTAN TENGAH,73671.0,Indonesia, 08575343317,,,-2.1125602,115.1673719,https://maps.google.com/?cid=0x0:0x49d8072e6e2d647,
hardware store,Pusat Perbelanjaan,Toko. 99 Tamiang Layang,"Jl. Nansarunai - Tamiang Layang, RT.05/RW.No. 07, Tamiang Layang, Kec. Dusun Tim., Kabupaten Barito Timur, Kalimantan Tengah 73611","RT.05/RW.No. 07, Tamiang Layang, Kec. Dusun Tim., Kabupaten Barito Timur",KALIMANTAN TENGAH,73611.0,Indonesia,,,,-2.1112003,115.1693367,https://maps.google.com/?cid=0x0:0xbe475794da9a1fc8,
hardware store,Pasar,Pasar Tamiang Layang,"V5R7+4QG, Tamiang Layang, Kec. Dusun Tim., Kabupaten Barito Timur, Kalimantan Tengah 73671","Tamiang Layang, Kec. Dusun Tim., Kabupaten Barito Timur",KALIMANTAN TENGAH,73671.0,Indonesia,,,,-2.109695,115.1644451,https://maps.google.com/?cid=0x0:0x4f50be0016d819f4,
hardware store,Toko Komputer,Jet ' Computer,"Jl Ahmad Yani No 207 Matabu, Tamiang Layang, Kec. Dusun Tim., Kabupaten Barito Timur, Kalimantan Tengah 73611","Tamiang Layang, Kec. Dusun Tim., Kabupaten Barito Timur",KALIMANTAN TENGAH,73611.0,Indonesia, 085136106987,,,-2.1256671,115.1835645,https://maps.google.com/?cid=0x0:0xad9bae0d61e75e06,
hardware store,Toko Elektronik,Solder Phone Sevis Hp Android  iPhone,"Tamiang Layang, Kec. Dusun Tim., Kabupaten Barito Timur, Kalimantan Tengah","Kabupaten Barito Timur, Kalimantan Tengah",KALIMANTAN TENGAH,,Indonesia, 082254860661,,,-2.1205792,115.1752936,https://maps.google.com/?cid=0x0:0x55e37a75fb4d5429,
hardware store,Toko Bahan Bangunan,TB. TIGA PUTERI,"Jl. Ali Said, Pembataan, Kec. Murung Pudak, Kabupaten Tabalong, Kalimantan Selatan 71571","Pembataan, Kec. Murung Pudak, Kabupaten Tabalong",KALIMANTAN TENGAH,71571.0,Indonesia, 082152471981,,,-2.1852597,115.3910738,https://maps.google.com/?cid=0x0:0x1d670c106a8ac7b6,
hardware store,Toko Bahan Bangunan,Toko Bintang Timur,"R9JM+45P, Sulingan, Kec. Murung Pudak, Kabupaten Tabalong, Kalimantan Selatan 71571","Sulingan, Kec. Murung Pudak, Kabupaten Tabalong",KALIMANTAN TENGAH,71571.0,Indonesia, 05262021787,,,-2.1696681,115.3829513,https://maps.google.com/?cid=0x0:0xe0a0d67c5ca1589,
hardware store,Toko Perlengkapan Rumah,EL-SHADDAI,"Jl. Pertamina No.5 Rt.01, Bentot, Kec. Patangkep Tutui, Kabupaten Barito Timur, Kalimantan Tengah 73671","Bentot, Kec. Patangkep Tutui, Kabupaten Barito Timur",KALIMANTAN TENGAH,73671.0,Indonesia, 082252000901,,,-2.0627178,115.3368395,https://maps.google.com/?cid=0x0:0x4b800f9fcd4aec16,
hardware store,Toko Bahan Bangunan,TOKO bangunan Ayip,"Pudak Setegal, Kec. Kelua, Kabupaten Tabalong, Kalimantan Selatan 71552","Kec. Kelua, Kabupaten Tabalong",KALIMANTAN TENGAH,71552.0,Indonesia, 087783141071,,,-2.2873738,115.2808017,https://maps.google.com/?cid=0x0:0xd0ebbd1d37db74bb,
hardware store,Toko Bahan Bangunan,TB. H.Yus'a,"Jl. Anggrek 7 No.42, Belimbing Raya, Kec. Murung Pudak, Kabupaten Tabalong, Kalimantan Selatan 71571","Belimbing Raya, Kec. Murung Pudak, Kabupaten Tabalong",KALIMANTAN TENGAH,71571.0,Indonesia,,,,-2.1658147,115.3997771,https://maps.google.com/?cid=0x0:0xd39db155338da2b8,
hardware store,Toko Bahan Bangunan,Mitra Royal Membangun,"R9JX+RPG, Belimbing Raya, Kec. Murung Pudak, Kabupaten Tabalong, Kalimantan Selatan 71571","Belimbing Raya, Kec. Murung Pudak, Kabupaten Tabalong",KALIMANTAN TENGAH,71571.0,Indonesia,,,,-2.1679497,115.399335,https://maps.google.com/?cid=0x0:0x3409fb022e30b23f,
hardware store,,Toko Gorden Abu Yazid,"V5R7+789, Unnamed Road, Tamiang Layang, Kec. Dusun Tim., Kabupaten Barito Timur, Kalimantan Tengah 73671","Unnamed Road, Tamiang Layang, Kec. Dusun Tim., Kabupaten Barito Timur",KALIMANTAN TENGAH,73671.0,Indonesia, 085348320907,,,-2.1093484,115.1633447,https://maps.google.com/?cid=0x0:0xe0dc6282079f9982,
hardware store,hardware store,Kec. Karusen Janang,"Kabupaten Barito Timur, Kalimantan Tengah","Kabupaten Barito Timur, Kalimantan Tengah",KALIMANTAN TENGAH,,Indonesia,,,,-1.9839523,115.0772101,https://maps.google.com/?cid=0x0:0x42d4b63eb9f83bf4,
hardware store,Toko,TOKO FAUZAN NIAGARA,"55W4+M74, Jl. Tamiyang Layang - Ampah Ampah, Ampah Kota, Kec. Dusun Tengah, Kabupaten Barito Timur, Kalimantan Tengah 73652","Jl. Tamiyang Layang - Ampah Ampah, Ampah Kota, Kec. Dusun Tengah, Kabupaten Barito Timur",KALIMANTAN TENGAH,73652.0,Indonesia, 081367805201,,,-1.8033641,115.1556954,https://maps.google.com/?cid=0x0:0x7022bb8b2804f08,
hardware store,Toko Bahan Bangunan,Amin Chandra,"Jalan A Yani No.Km 6, Karang Langit, Kec. Dusun Tim., Kabupaten Barito Timur, Kalimantan Tengah","Kabupaten Barito Timur, Kalimantan Tengah",KALIMANTAN TENGAH,,Indonesia,,,,-2.0123999,115.188916,https://maps.google.com/?cid=0x0:0xa298e47889474ca4,
hardware store,Toko Alat-Alat,Ami Jaya. UD,"Jl. Ahmad Yani KM.13, Tamiang Layang, Kec. Dusun Tim., Kabupaten Barito Timur, Kalimantan Tengah 73611","Tamiang Layang, Kec. Dusun Tim., Kabupaten Barito Timur",KALIMANTAN TENGAH,73611.0,Indonesia, 05262092151,,,-2.1109572,115.1643133,https://maps.google.com/?cid=0x0:0x5bfd167739b72544,
hardware store,hardware store,Kalimantan Tengah 73617,Kalimantan Tengah,Kalimantan Tengah,KALIMANTAN TENGAH,,Indonesia,,,,-2.0520057,114.9516869,https://maps.google.com/?cid=0x0:0xf0d04e5ed5edf592,
hardware store,Pusat Perbelanjaan,Timbuk Baru. TB,"Jl. Ps. Panas - Tamiang Layang, Jaar, Kec. Dusun Tim., Kabupaten Barito Timur, Kalimantan Tengah 73671","Jaar, Kec. Dusun Tim., Kabupaten Barito Timur",KALIMANTAN TENGAH,73671.0,Indonesia, 085664920865,,,-2.1394112,115.1952203,https://maps.google.com/?cid=0x0:0x75857d0b67f4e686,
hardware store,Toko Bahan Bangunan,Tb berkat cahaya matahari,"V5W3+CM, Tamiang Layang, Kec. Dusun Tim., Kabupaten Barito Timur, Kalimantan Tengah 73671","Tamiang Layang, Kec. Dusun Tim., Kabupaten Barito Timur",KALIMANTAN TENGAH,73671.0,Indonesia,,,,-2.1039463,115.1541763,https://maps.google.com/?cid=0x0:0x8852c885c37eadd7,
hardware store,Toko Alat Tulis,Toko Umpu Itak,"jalan temenggung jayakarti No.1, RT.07, Tamiang Layang, Kec. Dusun Tim., Kabupaten Barito Timur, Kalimantan Tengah 73671","RT.07, Tamiang Layang, Kec. Dusun Tim., Kabupaten Barito Timur",KALIMANTAN TENGAH,73671.0,Indonesia,,,,-2.1105505,115.1642977,https://maps.google.com/?cid=0x0:0x4ebf18e83f55a910,
hardware store,,Alya Fotocopy  Printing,"Jl. Ahmad Yani No.90, Tamiang Layang, Kec. Dusun Tim., Kabupaten Barito Timur, Kalimantan Tengah 73671","Tamiang Layang, Kec. Dusun Tim., Kabupaten Barito Timur",KALIMANTAN TENGAH,73671.0,Indonesia, 081253146374,,,-2.104963,115.1568572,https://maps.google.com/?cid=0x0:0x7380490950dfea4d,
hardware store,Toko Bahan Bangunan,TOKO bangunan Ayip,"Pudak Setegal, Kec. Kelua, Kabupaten Tabalong, Kalimantan Selatan 71552","Kec. Kelua, Kabupaten Tabalong",KALIMANTAN TENGAH,71552.0,Indonesia, 087783141071,,,-2.2873738,115.2808017,https://maps.google.com/?cid=0x0:0xd0ebbd1d37db74bb,
hardware store,Toko Bahan Bangunan,Toko Bahan Bangunan CHANDRA DEWI,"Unnamed Road, Mengkatip, Kec. Dusun Hilir, Kabupaten Barito Selatan, Kalimantan Tengah 73762","Mengkatip, Kec. Dusun Hilir, Kabupaten Barito Selatan",KALIMANTAN TENGAH,73762.0,Indonesia,,,,-2.2292054,114.8554474,https://maps.google.com/?cid=0x0:0xe8e615f94114b0e0,
hardware store,Toko Komputer,Jet ' Computer,"Jl Ahmad Yani No 207 Matabu, Tamiang Layang, Kec. Dusun Tim., Kabupaten Barito Timur, Kalimantan Tengah 73611","Tamiang Layang, Kec. Dusun Tim., Kabupaten Barito Timur",KALIMANTAN TENGAH,73611.0,Indonesia, 085136106987,,,-2.1256671,115.1835645,https://maps.google.com/?cid=0x0:0xad9bae0d61e75e06,
hardware store,Toko bahan makanan,UD. RAHMANI,"RT.003/RW.001, Kalanis, Kec. Dusun Hilir, Kabupaten Barito Selatan, Kalimantan Tengah 73762","Kalanis, Kec. Dusun Hilir, Kabupaten Barito Selatan",KALIMANTAN TENGAH,73762.0,Indonesia, 082252623785,,,-2.2636639,114.8990197,https://maps.google.com/?cid=0x0:0x2fe60a62c3a6b3b8,
hardware store,Toko Alat Tulis,MEDIA UTAMAJAYA STATIONARY DAN COMPUTER,"Jl. Nansarunai - Tamiang Layang No.5, Tamiang Layang, Kec. Dusun Tim., Kabupaten Barito Timur, Kalimantan Tengah 73671","Tamiang Layang, Kec. Dusun Tim., Kabupaten Barito Timur",KALIMANTAN TENGAH,73671.0,Indonesia, 08575343317,,,-2.1125602,115.1673719,https://maps.google.com/?cid=0x0:0x49d8072e6e2d647,
hardware store,Pusat Perbelanjaan,Toko. 99 Tamiang Layang,"Jl. Nansarunai - Tamiang Layang, RT.05/RW.No. 07, Tamiang Layang, Kec. Dusun Tim., Kabupaten Barito Timur, Kalimantan Tengah 73611","RT.05/RW.No. 07, Tamiang Layang, Kec. Dusun Tim., Kabupaten Barito Timur",KALIMANTAN TENGAH,73611.0,Indonesia,,,,-2.1112003,115.1693367,https://maps.google.com/?cid=0x0:0xbe475794da9a1fc8,
hardware store,hardware store,Kec. Paju Epat,"Kabupaten Barito Timur, Kalimantan Tengah","Kabupaten Barito Timur, Kalimantan Tengah",KALIMANTAN TENGAH,,Indonesia,,,,-2.2273577,114.9493867,https://maps.google.com/?cid=0x0:0x5dd06e219b0079c9,
hardware store,Toko,TOKO FAUZAN NIAGARA,"55W4+M74, Jl. Tamiyang Layang - Ampah Ampah, Ampah Kota, Kec. Dusun Tengah, Kabupaten Barito Timur, Kalimantan Tengah 73652","Jl. Tamiyang Layang - Ampah Ampah, Ampah Kota, Kec. Dusun Tengah, Kabupaten Barito Timur",KALIMANTAN TENGAH,73652.0,Indonesia, 081367805201,,,-1.8033641,115.1556954,https://maps.google.com/?cid=0x0:0x7022bb8b2804f08,
hardware store,Toko,Toko Rahan,"55X3+5V6, Jl. Tamiyang Layang - Ampah Ampah, Ampah Kota, Kec. Dusun Tengah, Kabupaten Barito Timur, Kalimantan Tengah 73652","Jl. Tamiyang Layang - Ampah Ampah, Ampah Kota, Kec. Dusun Tengah, Kabupaten Barito Timur",KALIMANTAN TENGAH,73652.0,Indonesia,,,,-1.8020977,115.1546269,https://maps.google.com/?cid=0x0:0xd2a93b3420594daf,
hardware store,Toko Perkakas,Hanna Teknik,"Jl. Tole Iskandar No.3A, RT.03/RW.020, Sukamaju, Kec. Cilodong, Kota Depok, Jawa Barat 16415","RT.03/RW.020, Sukamaju, Kec. Cilodong, Kota Depok",KALIMANTAN TENGAH,16415.0,Indonesia, 02177846746,,,-6.4087239,106.858965,https://maps.google.com/?cid=0x0:0xcfabaea744c219cb,
hardware store,Toko Bahan Bangunan,TB. BANGUN PERSADA,"Jl. Al Muwahhidiin, Sukamaju, Kec. Cilodong, Kota Depok, Jawa Barat 16415","Sukamaju, Kec. Cilodong, Kota Depok",KALIMANTAN TENGAH,16415.0,Indonesia, 082186748825,,,-6.4128089,106.8522149,https://maps.google.com/?cid=0x0:0xb5cdafa93e5bc040,
hardware store,Toko Bahan Bangunan,TB SINAR JAYA Kedaung Wetan,"Jl. Iskandar Muda No.9, RT.005/RW.002, Kedaung Wetan, Kec. Neglasari, Kota Tangerang, Banten 15128","RT.005/RW.002, Kedaung Wetan, Kec. Neglasari, Kota Tangerang",KALIMANTAN TENGAH,15128.0,Indonesia, 02155722760,,,-6.1233668,106.6242537,https://maps.google.com/?cid=0x0:0x634d53206d5cff91,
hardware store,Toko Bahan Bangunan,paku hardware HQ,"19, Jalan Seri Putra 3/12, Bandar Seri Putra, 43000 Kajang, Selangor, Malaysia",Kajang,KALIMANTAN TENGAH,43000.0,Indonesia, +60389209272,,,2.8877883,101.7799206,https://maps.google.com/?cid=0x0:0xa5db14705f4c75,
hardware store,hardware store,Kalimantan Tengah 73671,"Kabupaten Barito Timur, Kalimantan Tengah","Kabupaten Barito Timur, Kalimantan Tengah",KALIMANTAN TENGAH,,Indonesia,,,,-2.0472411,115.2363408,https://maps.google.com/?cid=0x0:0x1e460a71bb58cdc3,
hardware store,Pusat Perbelanjaan,Timbuk Baru. TB,"Jl. Ps. Panas - Tamiang Layang, Jaar, Kec. Dusun Tim., Kabupaten Barito Timur, Kalimantan Tengah 73671","Jaar, Kec. Dusun Tim., Kabupaten Barito Timur",KALIMANTAN TENGAH,73671.0,Indonesia, 085664920865,,,-2.1394112,115.1952203,https://maps.google.com/?cid=0x0:0x75857d0b67f4e686,
hardware store,Toko Perlengkapan Rumah,EL-SHADDAI,"Jl. Pertamina No.5 Rt.01, Bentot, Kec. Patangkep Tutui, Kabupaten Barito Timur, Kalimantan Tengah 73671","Bentot, Kec. Patangkep Tutui, Kabupaten Barito Timur",KALIMANTAN TENGAH,73671.0,Indonesia, 082252000901,,,-2.0627178,115.3368395,https://maps.google.com/?cid=0x0:0x4b800f9fcd4aec16,
hardware store,Toko Bahan Bangunan,Tb berkat cahaya matahari,"V5W3+CM, Tamiang Layang, Kec. Dusun Tim., Kabupaten Barito Timur, Kalimantan Tengah 73671","Tamiang Layang, Kec. Dusun Tim., Kabupaten Barito Timur",KALIMANTAN TENGAH,73671.0,Indonesia,,,,-2.1039463,115.1541763,https://maps.google.com/?cid=0x0:0x8852c885c37eadd7,
hardware store,Toko Alat Tulis,Toko Umpu Itak,"jalan temenggung jayakarti No.1, RT.07, Tamiang Layang, Kec. Dusun Tim., Kabupaten Barito Timur, Kalimantan Tengah 73671","RT.07, Tamiang Layang, Kec. Dusun Tim., Kabupaten Barito Timur",KALIMANTAN TENGAH,73671.0,Indonesia,,,,-2.1105505,115.1642977,https://maps.google.com/?cid=0x0:0x4ebf18e83f55a910,
hardware store,Toko Alat Tulis,MEDIA UTAMAJAYA STATIONARY DAN COMPUTER,"Jl. Nansarunai - Tamiang Layang No.5, Tamiang Layang, Kec. Dusun Tim., Kabupaten Barito Timur, Kalimantan Tengah 73671","Tamiang Layang, Kec. Dusun Tim., Kabupaten Barito Timur",KALIMANTAN TENGAH,73671.0,Indonesia, 08575343317,,,-2.1125602,115.1673719,https://maps.google.com/?cid=0x0:0x49d8072e6e2d647,
hardware store,Toko,TOKO FAUZAN NIAGARA,"55W4+M74, Jl. Tamiyang Layang - Ampah Ampah, Ampah Kota, Kec. Dusun Tengah, Kabupaten Barito Timur, Kalimantan Tengah 73652","Jl. Tamiyang Layang - Ampah Ampah, Ampah Kota, Kec. Dusun Tengah, Kabupaten Barito Timur",KALIMANTAN TENGAH,73652.0,Indonesia, 081367805201,,,-1.8033641,115.1556954,https://maps.google.com/?cid=0x0:0x7022bb8b2804f08,
hardware store,,Alya Fotocopy  Printing,"Jl. Ahmad Yani No.90, Tamiang Layang, Kec. Dusun Tim., Kabupaten Barito Timur, Kalimantan Tengah 73671","Tamiang Layang, Kec. Dusun Tim., Kabupaten Barito Timur",KALIMANTAN TENGAH,73671.0,Indonesia, 081253146374,,,-2.104963,115.1568572,https://maps.google.com/?cid=0x0:0x7380490950dfea4d,
hardware store,Toko Komputer,Jet ' Computer,"Jl Ahmad Yani No 207 Matabu, Tamiang Layang, Kec. Dusun Tim., Kabupaten Barito Timur, Kalimantan Tengah 73611","Tamiang Layang, Kec. Dusun Tim., Kabupaten Barito Timur",KALIMANTAN TENGAH,73611.0,Indonesia, 085136106987,,,-2.1256671,115.1835645,https://maps.google.com/?cid=0x0:0xad9bae0d61e75e06,
hardware store,Toko Fotokopi,Toko ATK dan Fotocopy Jovanisa,"Unnamed Road, Hayaping, Kec. Awang, Kabupaten Barito Timur, Kalimantan Tengah 73671","Hayaping, Kec. Awang, Kabupaten Barito Timur",KALIMANTAN TENGAH,73671.0,Indonesia,,,,-1.9782099,115.2385558,https://maps.google.com/?cid=0x0:0x81e0c660605b770f,
hardware store,Toko Bahan Bangunan,Amin Chandra,"Jalan A Yani No.Km 6, Karang Langit, Kec. Dusun Tim., Kabupaten Barito Timur, Kalimantan Tengah","Kabupaten Barito Timur, Kalimantan Tengah",KALIMANTAN TENGAH,,Indonesia,,,,-2.0123999,115.188916,https://maps.google.com/?cid=0x0:0xa298e47889474ca4,
hardware store,Pasar,Pasar Tamiang Layang,"V5R7+4QG, Tamiang Layang, Kec. Dusun Tim., Kabupaten Barito Timur, Kalimantan Tengah 73671","Tamiang Layang, Kec. Dusun Tim., Kabupaten Barito Timur",KALIMANTAN TENGAH,73671.0,Indonesia,,,,-2.109695,115.1644451,https://maps.google.com/?cid=0x0:0x4f50be0016d819f4,
hardware store,Pusat Perbelanjaan,Toko. 99 Tamiang Layang,"Jl. Nansarunai - Tamiang Layang, RT.05/RW.No. 07, Tamiang Layang, Kec. Dusun Tim., Kabupaten Barito Timur, Kalimantan Tengah 73611","RT.05/RW.No. 07, Tamiang Layang, Kec. Dusun Tim., Kabupaten Barito Timur",KALIMANTAN TENGAH,73611.0,Indonesia,,,,-2.1112003,115.1693367,https://maps.google.com/?cid=0x0:0xbe475794da9a1fc8,
hardware store,Toko,TB JUMBERI,"Q6XW+GGV, Jl. Kelua - Ps. Panas, Ps. Panas, Kec. Kelua, Kabupaten Tabalong, Kalimantan Selatan 73661","Jl. Kelua - Ps. Panas, Ps. Panas, Kec. Kelua, Kabupaten Tabalong",KALIMANTAN TENGAH,73661.0,Indonesia,,,,-2.2011361,115.2462935,https://maps.google.com/?cid=0x0:0xbb5fe0f30e7ce052,
hardware store,hardware store,Kalimantan Tengah 73653,"Kabupaten Barito Selatan, Kalimantan Tengah","Kabupaten Barito Selatan, Kalimantan Tengah",KALIMANTAN TENGAH,,Indonesia,,,,-1.7491595,114.9754175,https://maps.google.com/?cid=0x0:0xd6ed047f12362357,
hardware store,Toko Bahan Bangunan,Tb Mitra Bersama Bambulung,"Unnamed Road, Bambulung, Kec. Pematang Karau, Kabupaten Barito Timur, Kalimantan Tengah 73652","Bambulung, Kec. Pematang Karau, Kabupaten Barito Timur",KALIMANTAN TENGAH,73652.0,Indonesia,,,,-1.8180076,115.0310548,https://maps.google.com/?cid=0x0:0xd1d9f13b67f04c1d,
hardware store,Toko Bahan Bangunan,Bumi Bangunan,"Muara Teweh, Jl. Ampah No.RT 09, Ampah Kota, Kec. Dusun Tengah, Kabupaten Barito Timur, Kalimantan Tengah 73652","Jl. Ampah No.RT 09, Ampah Kota, Kec. Dusun Tengah, Kabupaten Barito Timur",KALIMANTAN TENGAH,73652.0,Indonesia, 081287458656,,,-1.7910596,115.1503415,https://maps.google.com/?cid=0x0:0x332c6d59f1964b74,
hardware store,Toko Bahan Bangunan,RUPA RUPA MUR BAUT AMPAH,"Jl. Patas Ampah, Ampah Kota, Kec. Dusun Tengah, Kabupaten Barito Timur, Kalimantan Tengah 73652","Ampah Kota, Kec. Dusun Tengah, Kabupaten Barito Timur",KALIMANTAN TENGAH,73652.0,Indonesia, 081329490000,,,-1.7982047,115.1507715,https://maps.google.com/?cid=0x0:0x5102febd39692c86,
hardware store,Toko,TOKO FAUZAN NIAGARA,"55W4+M74, Jl. Tamiyang Layang - Ampah Ampah, Ampah Kota, Kec. Dusun Tengah, Kabupaten Barito Timur, Kalimantan Tengah 73652","Jl. Tamiyang Layang - Ampah Ampah, Ampah Kota, Kec. Dusun Tengah, Kabupaten Barito Timur",KALIMANTAN TENGAH,73652.0,Indonesia, 081367805201,,,-1.8033641,115.1556954,https://maps.google.com/?cid=0x0:0x7022bb8b2804f08,
hardware store,hardware store,Kec. Raren Batuah,"Kabupaten Barito Timur, Kalimantan Tengah","Kabupaten Barito Timur, Kalimantan Tengah",KALIMANTAN TENGAH,,Indonesia,,,,-1.7435641,115.1517853,https://maps.google.com/?cid=0x0:0x581b014235e95caf,
hardware store,Toko Bahan Bangunan,Bumi Bangunan,"Muara Teweh, Jl. Ampah No.RT 09, Ampah Kota, Kec. Dusun Tengah, Kabupaten Barito Timur, Kalimantan Tengah 73652","Jl. Ampah No.RT 09, Ampah Kota, Kec. Dusun Tengah, Kabupaten Barito Timur",KALIMANTAN TENGAH,73652.0,Indonesia, 081287458656,,,-1.7910596,115.1503415,https://maps.google.com/?cid=0x0:0x332c6d59f1964b74,
hardware store,Toko Bahan Bangunan,RUPA RUPA MUR BAUT AMPAH,"Jl. Patas Ampah, Ampah Kota, Kec. Dusun Tengah, Kabupaten Barito Timur, Kalimantan Tengah 73652","Ampah Kota, Kec. Dusun Tengah, Kabupaten Barito Timur",KALIMANTAN TENGAH,73652.0,Indonesia, 081329490000,,,-1.7982047,115.1507715,https://maps.google.com/?cid=0x0:0x5102febd39692c86,
