Category,Real Category,Business Name,Address,City,State,Postal Code,Country,Phone,Email,Website,Latitude,Longitude,Map Link,Details Link
mall,mall,Kalimantan Tengah 73681,"Kabupaten Barito Timur, Kalimantan Tengah","Kabupaten Barito Timur, Kalimantan Tengah",KALIMANTAN TENGAH,,Indonesia,,,,-1.9957549,115.1177654,https://maps.google.com/?cid=0x0:0xad325f18fddf1160,
mall,Pusat Perbelanjaan,Hokki Day's,"W4JP+VCM, Jl. Tamiyang Layang - Ampah, Sumur, Kec. Dusun Tim., Kabupaten Barito Timur, Kalimantan Tengah 73681","Jl. Tamiyang Layang - Ampah, Sumur, Kec. Dusun Tim., Kabupaten Barito Timur",KALIMANTAN TENGAH,73681.0,Indonesia, 085346801534,,,-2.0677865,115.1360423,https://maps.google.com/?cid=0x0:0xae7ee569543afdd4,
mall,Toko,KIOS ANJELI,"Jl. Pelita No.18, Hayaping, Kec. Awang, Kabupaten Barito Timur, Kalimantan Tengah 73671","Hayaping, Kec. Awang, Kabupaten Barito Timur",KALIMANTAN TENGAH,73671.0,Indonesia,,,,-1.9792704,115.2346489,https://maps.google.com/?cid=0x0:0x57871f8996e75c6,
mall,Bengkel Sepeda Motor,Aldi bengkel dayu,"238H+5H4, Jl. Tamiyang Layang - Ampah, Dayu, Kec. Karusen Janang, Kabupaten Barito Timur, Kalimantan Tengah 73681","Jl. Tamiyang Layang - Ampah, Dayu, Kec. Karusen Janang, Kabupaten Barito Timur",KALIMANTAN TENGAH,73681.0,Indonesia,,,,-1.984613,115.0789507,https://maps.google.com/?cid=0x0:0xf43df186b5c8f682,
mall,Minimarket,Toko Cika,"2422+X2J, Jl. Tamiyang Layang - Ampah Ampah, Simpang Naneng, Kec. Karusen Janang, Kabupaten Barito Timur, Kalimantan Tengah 73681","Jl. Tamiyang Layang - Ampah Ampah, Simpang Naneng, Kec. Karusen Janang, Kabupaten Barito Timur",KALIMANTAN TENGAH,73681.0,Indonesia,,,,-1.9975496,115.1000104,https://maps.google.com/?cid=0x0:0x54da73f5331e8962,
mall,Toserba,M4 shop serba 35,"Jl. Tamiyang Layang - Ampah, Tamiang Layang, Kec. Dusun Tim., Kabupaten Barito Timur, Kalimantan Tengah","Kabupaten Barito Timur, Kalimantan Tengah",KALIMANTAN TENGAH,,Indonesia,,,,-2.0905215,115.147689,https://maps.google.com/?cid=0x0:0x2d75c8342795b371,
mall,Restoran,Dayak Ma'anyan,"Hayaping, Kec. Awang, Kabupaten Barito Timur, Kalimantan Tengah 73671","Kec. Awang, Kabupaten Barito Timur",KALIMANTAN TENGAH,73671.0,Indonesia,,,,-1.977731,115.2447869,https://maps.google.com/?cid=0x0:0xf415489259977134,
mall,Pusat Perbelanjaan,WAROENG JALU,"Jl. Fridolin Ukur No.36, Tamiang Layang, Kec. Dusun Tim., Kabupaten Barito Timur, Kalimantan Tengah 73611","Tamiang Layang, Kec. Dusun Tim., Kabupaten Barito Timur",KALIMANTAN TENGAH,73611.0,Indonesia,,,,-2.110826,115.163556,https://maps.google.com/?cid=0x0:0x25895ca5712454ac,
mall,Toko Alat Tulis,Fotocopy Amin,"W4FQ+839, Jl. Tamiyang Layang - Ampah, Sumur, Kec. Dusun Tim., Kabupaten Barito Timur, Kalimantan Tengah 73681","Jl. Tamiyang Layang - Ampah, Sumur, Kec. Dusun Tim., Kabupaten Barito Timur",KALIMANTAN TENGAH,73681.0,Indonesia,,,,-2.0767111,115.1377485,https://maps.google.com/?cid=0x0:0xeba947895553839c,
mall,Toko,UD.Maju,"Jl. Ahmad Yani No.km.2, Tamiang Layang, Kec. Dusun Tim., Kabupaten Barito Timur, Kalimantan Tengah 73671","Tamiang Layang, Kec. Dusun Tim., Kabupaten Barito Timur",KALIMANTAN TENGAH,73671.0,Indonesia,,,,-2.0955087,115.1509847,https://maps.google.com/?cid=0x0:0x48f80ac0b3333de0,
mall,Pusat Perbelanjaan,Daunnet Shop,"V5Q8+779, Tamiang Layang, Kec. Dusun Tim., Kabupaten Barito Timur, Kalimantan Tengah 73671","Tamiang Layang, Kec. Dusun Tim., Kabupaten Barito Timur",KALIMANTAN TENGAH,73671.0,Indonesia, 082253672843,,,-2.1118283,115.1657488,https://maps.google.com/?cid=0x0:0xe12015d54cf20e2b,
mall,Toko Pakaian dan Peralatan Luar Ruangan,Wakat Outdoor Store,"V4P7+JFH, Unnamed Road, Sarapat (Ex Harara), Kec. Dusun Tim., Kabupaten Barito Timur, Kalimantan Tengah 73617","Unnamed Road, Sarapat (Ex Harara), Kec. Dusun Tim., Kabupaten Barito Timur",KALIMANTAN TENGAH,73617.0,Indonesia, 082153595956,,,-2.1134379,115.1137403,https://maps.google.com/?cid=0x0:0x734e8604cddfa482,
mall,Pusat Perbelanjaan,Palangkaraya Mall (Palma),"Jl. Tjilik Riwut No.1, Palangka, Kec. Jekan Raya, Kota Palangka Raya, Kalimantan Tengah 74874","Palangka, Kec. Jekan Raya, Kota Palangka Raya",KALIMANTAN TENGAH,74874.0,Indonesia,,,,-2.2065433,113.9154004,https://maps.google.com/?cid=0x0:0xe30705d17366c7e0,
mall,Kios,Toko Sham One Kupang Baru,"3487+2FH, Jl. Tamiyang Layang - Ampah Ampah, Kupang Baru, Kec. Paku, Kabupaten Barito Timur, Kalimantan Tengah 73652","Jl. Tamiyang Layang - Ampah Ampah, Kupang Baru, Kec. Paku, Kabupaten Barito Timur",KALIMANTAN TENGAH,73652.0,Indonesia,,,,-1.9349354,115.1137188,https://maps.google.com/?cid=0x0:0xfe45f6385f740416,
mall,Toko Pakaian,Toko IFAH,"Magantis, Kec. Dusun Tim., Kabupaten Barito Timur, Kalimantan Tengah 73671","Kec. Dusun Tim., Kabupaten Barito Timur",KALIMANTAN TENGAH,73671.0,Indonesia, 082156388278,,,-2.1330052,115.151642,https://maps.google.com/?cid=0x0:0x42098e209bee90a0,
mall,Bengkel Bubut,Bengkel Las MALL,"W44X+QQ4, Tamiang Layang, Kec. Dusun Tim., Kabupaten Barito Timur, Kalimantan Tengah 73671","Tamiang Layang, Kec. Dusun Tim., Kabupaten Barito Timur",KALIMANTAN TENGAH,73671.0,Indonesia, 081348717231,,,-2.093105,115.1494609,https://maps.google.com/?cid=0x0:0x8e43ff7e4d8eecfa,
mall,Toko Elektronik,Sinar Laris Jaya Group,"V5R8+QVV, Tamiang Layang, Kec. Dusun Tim., Kabupaten Barito Timur, Kalimantan Tengah 73671","Tamiang Layang, Kec. Dusun Tim., Kabupaten Barito Timur",KALIMANTAN TENGAH,73671.0,Indonesia, 082253468984,,,-2.1088337,115.1667146,https://maps.google.com/?cid=0x0:0xa5dec9d2f1f17710,
mall,Pusat Perbelanjaan,Toko tohal,"V5R7+FQ4, Tamiang Layang, Kec. Dusun Tim., Kabupaten Barito Timur, Kalimantan Tengah 73671","Tamiang Layang, Kec. Dusun Tim., Kabupaten Barito Timur",KALIMANTAN TENGAH,73671.0,Indonesia, 0872253791524,,,-2.1088668,115.1644584,https://maps.google.com/?cid=0x0:0xf698927a0b050cff,
mall,Toko bahan makanan,Warung Awang,"HVC8+96J, Jl. Swadaya, Cilangkap, Kec. Tapos, Kota Depok, Jawa Barat 16455","Jl. Swadaya, Cilangkap, Kec. Tapos, Kota Depok",KALIMANTAN TENGAH,16455.0,Indonesia,,,,-6.4290356,106.8655207,https://maps.google.com/?cid=0x0:0x34eb2916eb063b61,
mall,Kedai Kopi,One Belpark Mall,"Jl. RS. Fatmawati Raya No.1, RT.1/RW.1, Pd. Labu, Kec. Cilandak, Kota Jakarta Selatan, Daerah Khusus Ibukota Jakarta 12450","RT.1/RW.1, Pd. Labu, Kec. Cilandak, Kota Jakarta Selatan",KALIMANTAN TENGAH,12450.0,Indonesia, 02122706888,,,-6.3040848,106.7948774,https://maps.google.com/?cid=0x0:0x50cd4b3afac2371,
mall,Pusat Perbelanjaan,Grand Indonesia Shopping Town,"Jl. M.H. Thamrin No.1, Menteng, Kec. Menteng, Kota Jakarta Pusat, Daerah Khusus Ibukota Jakarta 10310","Menteng, Kec. Menteng, Kota Jakarta Pusat",KALIMANTAN TENGAH,10310.0,Indonesia, 02123580001,,,-6.1965848,106.8224882,https://maps.google.com/?cid=0x0:0xccfcc89b95aaf1ae,
mall,Pusat Perbelanjaan,Mall Of Indonesia,"Jl. Boulevard Bar. Raya No.12, RT.18/RW.19, Klp. Gading Bar., Kec. Klp. Gading, Jkt Utara, Daerah Khusus Ibukota Jakarta 14240","RT.18/RW.19, Klp. Gading Bar., Kec. Klp. Gading, Jkt Utara",KALIMANTAN TENGAH,14240.0,Indonesia, 02145867888,,,-6.1514549,106.8918949,https://maps.google.com/?cid=0x0:0x3431c7aaadd1f1b6,
mall,Pusat Perbelanjaan,Plaza Indonesia,"Jl. M.H. Thamrin No.Kav.28-30, Gondangdia, Kec. Menteng, Kota Jakarta Pusat, Daerah Khusus Ibukota Jakarta 10350","Gondangdia, Kec. Menteng, Kota Jakarta Pusat",KALIMANTAN TENGAH,10350.0,Indonesia, 02129920000,,,-6.1935977,106.8219468,https://maps.google.com/?cid=0x0:0x7d7fe17ad64a053f,
mall,mall,Kalimantan Tengah 73661,"Kec. Benua Lima, Kabupaten Barito Timur, Kalimantan Tengah","Kabupaten Barito Timur, Kalimantan Tengah",KALIMANTAN TENGAH,,Indonesia,,,,-2.2459171,115.1177654,https://maps.google.com/?cid=0x0:0x6244b86fbc9e52c1,
mall,Toko umum,Toko Vania,"R6R8+4F3, Jaar, Kec. Dusun Tim., Kabupaten Barito Timur, Kalimantan Tengah 73661","Jaar, Kec. Dusun Tim., Kabupaten Barito Timur",KALIMANTAN TENGAH,73661.0,Indonesia,,,,-2.1597385,115.2161658,https://maps.google.com/?cid=0x0:0x3cf75c43e49259ef,
mall,Toko Pakaian,Toko IFAH,"Magantis, Kec. Dusun Tim., Kabupaten Barito Timur, Kalimantan Tengah 73671","Kec. Dusun Tim., Kabupaten Barito Timur",KALIMANTAN TENGAH,73671.0,Indonesia, 082156388278,,,-2.1330052,115.151642,https://maps.google.com/?cid=0x0:0x42098e209bee90a0,
mall,Toko Swalayan,Toko Herkani,"R6JC+WMV, Jl. Ps. Panas - Tamiang Layang, Tamiang Layang, Kec. Dusun Tim., Kabupaten Barito Timur, Kalimantan Tengah 73661","Jl. Ps. Panas - Tamiang Layang, Tamiang Layang, Kec. Dusun Tim., Kabupaten Barito Timur",KALIMANTAN TENGAH,73661.0,Indonesia,,,,-2.167648,115.221662,https://maps.google.com/?cid=0x0:0xda9fbef9c684bfd6,
mall,Toko,Toko Usaha Baru,"V5HG+V73, Tamiang Layang, Kec. Dusun Tim., Kabupaten Barito Timur, Kalimantan Tengah 73671","Tamiang Layang, Kec. Dusun Tim., Kabupaten Barito Timur",KALIMANTAN TENGAH,73671.0,Indonesia, 082154188388,,,-2.12036,115.1756731,https://maps.google.com/?cid=0x0:0xe37193f3622778c4,
mall,Pusat Perbelanjaan,Kios Mama Irham,"Jl. Magantis, Magantis, Kec. Dusun Tim., Kabupaten Barito Timur, Kalimantan Tengah 73671","Magantis, Kec. Dusun Tim., Kabupaten Barito Timur",KALIMANTAN TENGAH,73671.0,Indonesia, 085250439494,,,-2.1308383,115.1533263,https://maps.google.com/?cid=0x0:0xe8fb1ab7a9c1ecba,
mall,Pusat Perbelanjaan,Toko Bayu,"Jl. Magantis, Tamiang Layang, Kec. Dusun Tim., Kabupaten Barito Timur, Kalimantan Tengah 73671","Tamiang Layang, Kec. Dusun Tim., Kabupaten Barito Timur",KALIMANTAN TENGAH,73671.0,Indonesia, 085332549959,,,-2.1138574,115.16263,https://maps.google.com/?cid=0x0:0xf70137ce9d593c7d,
mall,Gudang,TB Raudah Tamiyang Layang,"V5FM+HQ5, Jl. Ps. Panas - Tamiang Layang, Matabu, Kec. Dusun Tim., Kabupaten Barito Timur, Kalimantan Tengah 73671","Jl. Ps. Panas - Tamiang Layang, Matabu, Kec. Dusun Tim., Kabupaten Barito Timur",KALIMANTAN TENGAH,73671.0,Indonesia, 081349613233,,,-2.126121,115.1844828,https://maps.google.com/?cid=0x0:0xe7cceeb88394c16e,
mall,Pusat Perbelanjaan,WAROENG JALU,"Jl. Fridolin Ukur No.36, Tamiang Layang, Kec. Dusun Tim., Kabupaten Barito Timur, Kalimantan Tengah 73611","Tamiang Layang, Kec. Dusun Tim., Kabupaten Barito Timur",KALIMANTAN TENGAH,73611.0,Indonesia,,,,-2.110826,115.163556,https://maps.google.com/?cid=0x0:0x25895ca5712454ac,
mall,Toko,TOKO MAULIDA,"TOKO MAULIDA, Jl. Ahmad Yani No.RT.18, tumpadayu, Kec. Dusun Tim., Kabupaten Barito Timur, Kalimantan Tengah 73671","Jl. Ahmad Yani No.RT.18, tumpadayu, Kec. Dusun Tim., Kabupaten Barito Timur",KALIMANTAN TENGAH,73671.0,Indonesia, 081256113975,,,-2.105037,115.1563855,https://maps.google.com/?cid=0x0:0x9f362530c995af0,
mall,Pusat Perbelanjaan,Daunnet Shop,"V5Q8+779, Tamiang Layang, Kec. Dusun Tim., Kabupaten Barito Timur, Kalimantan Tengah 73671","Tamiang Layang, Kec. Dusun Tim., Kabupaten Barito Timur",KALIMANTAN TENGAH,73671.0,Indonesia, 082253672843,,,-2.1118283,115.1657488,https://maps.google.com/?cid=0x0:0xe12015d54cf20e2b,
mall,Toko Elektronik,Sinar Laris Jaya Group,"V5R8+QVV, Tamiang Layang, Kec. Dusun Tim., Kabupaten Barito Timur, Kalimantan Tengah 73671","Tamiang Layang, Kec. Dusun Tim., Kabupaten Barito Timur",KALIMANTAN TENGAH,73671.0,Indonesia, 082253468984,,,-2.1088337,115.1667146,https://maps.google.com/?cid=0x0:0xa5dec9d2f1f17710,
mall,Kantor Perusahaan,TRAVEL Jurusan Ampah-Buntok-palangkaraya,"V5H9+FJ8, Tamiang Layang, Kec. Dusun Tim., Kabupaten Barito Timur, Kalimantan Tengah 73671","Tamiang Layang, Kec. Dusun Tim., Kabupaten Barito Timur",KALIMANTAN TENGAH,73671.0,Indonesia, 085247556336,,,-2.1213293,115.1690924,https://maps.google.com/?cid=0x0:0xe67200a41ae0c44d,
mall,Toko Pakaian dan Peralatan Luar Ruangan,Wakat Outdoor Store,"V4P7+JFH, Unnamed Road, Sarapat (Ex Harara), Kec. Dusun Tim., Kabupaten Barito Timur, Kalimantan Tengah 73617","Unnamed Road, Sarapat (Ex Harara), Kec. Dusun Tim., Kabupaten Barito Timur",KALIMANTAN TENGAH,73617.0,Indonesia, 082153595956,,,-2.1134379,115.1137403,https://maps.google.com/?cid=0x0:0x734e8604cddfa482,
mall,Mal outlet,Duta Mall Banjarmasin,"Jl. A. Yani No.98, Melayu, Kec. Banjarmasin Tengah, Kota Banjarmasin, Kalimantan Selatan 70232","Melayu, Kec. Banjarmasin Tengah, Kota Banjarmasin",KALIMANTAN TENGAH,70232.0,Indonesia, 05113278888,,,-3.3230203,114.603136,https://maps.google.com/?cid=0x0:0x91eb1e2406366f9a,
mall,Toko,Toko Delina,"Jl. Nansarunai - Tamiang Layang No.26, Tamiang Layang, Kec. Dusun Tim., Kabupaten Barito Timur, Kalimantan Tengah 73671","Tamiang Layang, Kec. Dusun Tim., Kabupaten Barito Timur",KALIMANTAN TENGAH,73671.0,Indonesia, 081257936993,,,-2.1096994,115.1740916,https://maps.google.com/?cid=0x0:0xe5121f444c4ab0a4,
mall,Pusat Perbelanjaan,Toko tohal,"V5R7+FQ4, Tamiang Layang, Kec. Dusun Tim., Kabupaten Barito Timur, Kalimantan Tengah 73671","Tamiang Layang, Kec. Dusun Tim., Kabupaten Barito Timur",KALIMANTAN TENGAH,73671.0,Indonesia, 0872253791524,,,-2.1088668,115.1644584,https://maps.google.com/?cid=0x0:0xf698927a0b050cff,
mall,Toserba,M4 shop serba 35,"Jl. Tamiyang Layang - Ampah, Tamiang Layang, Kec. Dusun Tim., Kabupaten Barito Timur, Kalimantan Tengah","Kabupaten Barito Timur, Kalimantan Tengah",KALIMANTAN TENGAH,,Indonesia,,,,-2.0905215,115.147689,https://maps.google.com/?cid=0x0:0x2d75c8342795b371,
mall,Toko Pakaian,H2R FASHION,"Karangan Putih, Kec. Kelua, Kabupaten Tabalong, Kalimantan Selatan 71552","Kec. Kelua, Kabupaten Tabalong",KALIMANTAN TENGAH,71552.0,Indonesia, 085349956064,,,-2.2447123,115.2778037,https://maps.google.com/?cid=0x0:0xe6802565f718a546,
mall,ATM,Toko Brilink Ciel,"Jl. Ahmad Yani No.90, Tamiang Layang, Kec. Dusun Tim., Kabupaten Barito Timur, Kalimantan Tengah 73671","Tamiang Layang, Kec. Dusun Tim., Kabupaten Barito Timur",KALIMANTAN TENGAH,73671.0,Indonesia,,,,-2.1170045,115.1712951,https://maps.google.com/?cid=0x0:0x912061c7f0b0e1dc,
mall,Kantor Pemda,Kantor Kecamatan Benua Lima,"R62R+R5M, Taniran, Kec. Benua Lima, Kabupaten Barito Timur, Kalimantan Tengah 73661","Taniran, Kec. Benua Lima, Kabupaten Barito Timur",KALIMANTAN TENGAH,73661.0,Indonesia,,,,-2.1979035,115.2404133,https://maps.google.com/?cid=0x0:0x810e0b755feeab91,
mall,Toko Buah dan Sayur,Grosir buah,"Q8JF+VQP, Jl. Kelua - Pamaringan, Banyu Tajun, Kec. Tj., Kabupaten Tabalong, Kalimantan Selatan 71561","Jl. Kelua - Pamaringan, Banyu Tajun, Kec. Tj., Kabupaten Tabalong",KALIMANTAN TENGAH,71561.0,Indonesia,,,,-2.2177864,115.3244543,https://maps.google.com/?cid=0x0:0x75eead93cb6b4f1,
mall,mall,Kec. Dusun Tengah,"Kabupaten Barito Timur, Kalimantan Tengah","Kabupaten Barito Timur, Kalimantan Tengah",KALIMANTAN TENGAH,,Indonesia,,,,-1.7997404,115.1507466,https://maps.google.com/?cid=0x0:0xca2b51c229ce230f,
mall,Pusat Perbelanjaan,Toko azmi ampah,"55W4+C84, Jl. Tamiyang Layang - Ampah Ampah, Ampah Kota, Kec. Dusun Tengah, Kabupaten Barito Timur, Kalimantan Tengah 73652","Jl. Tamiyang Layang - Ampah Ampah, Ampah Kota, Kec. Dusun Tengah, Kabupaten Barito Timur",KALIMANTAN TENGAH,73652.0,Indonesia,,,,-1.8039867,115.1558238,https://maps.google.com/?cid=0x0:0xae3a367f4bd1576d,
mall,Jasa Kurir,SAP Express Ampah,"54XV+887, Unnamed Road, Putai, Ampah Kota, Kec. Dusun Tengah, Kabupaten Barito Timur, Kalimantan Tengah 73652","Unnamed Road, Putai, Ampah Kota, Kec. Dusun Tengah, Kabupaten Barito Timur",KALIMANTAN TENGAH,73652.0,Indonesia, 082250288755,,,-1.8017122,115.1433055,https://maps.google.com/?cid=0x0:0x68d3db44281a3b6c,
mall,Pembangunan Perumahan,Saniah_Alif,"633W+H2, Lampeong, Kec. Pematang Karau, Kabupaten Barito Timur, Kalimantan Tengah","Kabupaten Barito Timur, Kalimantan Tengah",KALIMANTAN TENGAH,,Indonesia,,,,-1.7960731,115.0950847,https://maps.google.com/?cid=0x0:0xd83a4adec999d971,
mall,Pusat Perbelanjaan,Aaron22,"Unnamed Road, Batuah, Kec. Raren Batuah, Kabupaten Barito Timur, Kalimantan Tengah 73652","Batuah, Kec. Raren Batuah, Kabupaten Barito Timur",KALIMANTAN TENGAH,73652.0,Indonesia, 081250593364,,,-1.732772,115.1847706,https://maps.google.com/?cid=0x0:0x692e9576a53b3289,
mall,Pusat Perbelanjaan,Pelen,"6522+475, Sungai kuruk tiga, Kec. Dusun Tengah, Kabupaten Barito Timur, Kalimantan Tengah 73652","Sungai kuruk tiga, Kec. Dusun Tengah, Kabupaten Barito Timur",KALIMANTAN TENGAH,73652.0,Indonesia,,,,-1.7997404,115.1507466,https://maps.google.com/?cid=0x0:0xeb751d8660d3689c,
mall,Pasar,Toko Kencana Ampah,"55X3+8JH, Ampah, Ampah Kota, Kec. Dusun Tengah, Kabupaten Barito Timur, Kalimantan Tengah 73652","Ampah, Ampah Kota, Kec. Dusun Tengah, Kabupaten Barito Timur",KALIMANTAN TENGAH,73652.0,Indonesia,,,,-1.8016829,115.1541081,https://maps.google.com/?cid=0x0:0xbe88851d1ebb5ad,
mall,Toko Aksesori Ponsel,Gading Cell,"55X3+3X8, Ampah, Ampah Kota, Kec. Dusun Tengah, Kabupaten Barito Timur, Kalimantan Tengah 73652","Ampah, Ampah Kota, Kec. Dusun Tengah, Kabupaten Barito Timur",KALIMANTAN TENGAH,73652.0,Indonesia, 085251251414,,,-1.8023324,115.1549674,https://maps.google.com/?cid=0x0:0xd73ef76cd7a2e35a,
mall,Kantor Perusahaan,Mitsubishi Ampah (Sales Services Sparepart),"Jl. Tamiyang Layang - Ampah, Rodok, Kec. Dusun Tengah, Kabupaten Barito Timur, Kalimantan Tengah 73652","Rodok, Kec. Dusun Tengah, Kabupaten Barito Timur",KALIMANTAN TENGAH,73652.0,Indonesia, 081254728184,,,-1.817098,115.175079,https://maps.google.com/?cid=0x0:0x6fabb2bdf913c225,
mall,Toko,Toko BagasNaomi,"75CP+33W, Unnamed Road, Batuah, Kec. Raren Batuah, Kabupaten Barito Timur, Kalimantan Tengah 73652","Unnamed Road, Batuah, Kec. Raren Batuah, Kabupaten Barito Timur",KALIMANTAN TENGAH,73652.0,Indonesia, 081253250468,,,-1.7297744,115.185192,https://maps.google.com/?cid=0x0:0x5b4bfd9b149e67a2,
mall,Pusat Perbelanjaan,Toko Dani,"55W5+73H, Ampah Kota, Kec. Dusun Tengah, Kabupaten Barito Timur, Kalimantan Tengah 73652","Ampah Kota, Kec. Dusun Tengah, Kabupaten Barito Timur",KALIMANTAN TENGAH,73652.0,Indonesia,,,,-1.8043224,115.1577325,https://maps.google.com/?cid=0x0:0xf655df9f2ba64172,
mall,Toko,Toko wulanarini,"6537+69M, Jl Murung Baki, RT.42/RW.08, Ampah Kota, Kec. Dusun Tengah, Kabupaten Barito Timur, Kalimantan Tengah 73652","Jl Murung Baki, RT.42/RW.08, Ampah Kota, Kec. Dusun Tengah, Kabupaten Barito Timur",KALIMANTAN TENGAH,73652.0,Indonesia, 085247753539,,,-1.7969121,115.1634168,https://maps.google.com/?cid=0x0:0xa3af59a59fabbe7,
mall,Bengkel Sepeda Motor,Yamaha Berkat Motor Ampah,"55W5+2GV, Jl. Tamiyang Layang - Ampah Ampah, Ampah Kota, Kec. Dusun Tengah, Kabupaten Barito Timur, Kalimantan Tengah 73652","Jl. Tamiyang Layang - Ampah Ampah, Ampah Kota, Kec. Dusun Tengah, Kabupaten Barito Timur",KALIMANTAN TENGAH,73652.0,Indonesia, 052231643,,,-1.8048908,115.1588023,https://maps.google.com/?cid=0x0:0xb6b1eec7d6df1ada,
mall,Toko,LIY-Group,"Jl. Mujahidin No.RT 07, Tuyau, Kec. Pematang Karau, Kabupaten Barito Timur, Kalimantan Tengah 73653","Tuyau, Kec. Pematang Karau, Kabupaten Barito Timur",KALIMANTAN TENGAH,73653.0,Indonesia,,,,-1.8500427,115.0525302,https://maps.google.com/?cid=0x0:0x779811051d064cca,
mall,Pusat Perbelanjaan,Toko sepatu Almiyawi ampah,"55X2+QPF, Jl. Tamiyang Layang - Ampah, Ampah Kota, Kec. Dusun Tengah, Kabupaten Barito Timur, Kalimantan Tengah 73652","Jl. Tamiyang Layang - Ampah, Ampah Kota, Kec. Dusun Tengah, Kabupaten Barito Timur",KALIMANTAN TENGAH,73652.0,Indonesia,,,,-1.8005643,115.1517952,https://maps.google.com/?cid=0x0:0x849016c6e496bcd6,
mall,Toko,RARA STATIONERY  ART STORE,"Jl. Pahlawan, Puri, Kec. Dusun Tengah, Kabupaten Barito Timur, Kalimantan Tengah 73652","Puri, Kec. Dusun Tengah, Kabupaten Barito Timur",KALIMANTAN TENGAH,73652.0,Indonesia, 081347413337,,,-1.7707005,115.1484071,https://maps.google.com/?cid=0x0:0x56d9d055e8bcb863,
mall,Toko Rokok Elektrik,Royal Vapor Store,"54XW+C29, Unnamed Road, Putai, Ampah Kota, Kec. Dusun Tengah, Kabupaten Barito Timur, Kalimantan Tengah 73652","Unnamed Road, Putai, Ampah Kota, Kec. Dusun Tengah, Kabupaten Barito Timur",KALIMANTAN TENGAH,73652.0,Indonesia,,,,-1.8014567,115.1451067,https://maps.google.com/?cid=0x0:0xa0a86227fd861d4e,
mall,Gudang,Pabrik Tahu Joko,"55X5+V3C, Ampah Kota, Kec. Dusun Tengah, Kabupaten Barito Timur, Kalimantan Tengah 73652","Ampah Kota, Kec. Dusun Tengah, Kabupaten Barito Timur",KALIMANTAN TENGAH,73652.0,Indonesia, 085251714321,,,-1.8003018,115.1576432,https://maps.google.com/?cid=0x0:0xbe60b7a2c42a9ef3,
mall,Kios,Kios Fida SRc,"jalan ampah buntok km 10 Rt. 05, Bararawa, Kec. Pematang Karau, Kabupaten Barito Timur, Kalimantan Tengah 73652","Bararawa, Kec. Pematang Karau, Kabupaten Barito Timur",KALIMANTAN TENGAH,73652.0,Indonesia, 081351447290,,,-1.8086008,115.0758856,https://maps.google.com/?cid=0x0:0x8cdc9c9aab83d4c5,
mall,Tempat cuci motor,Toko cuci helm Rini,"64JX+GH6, Jl. Pahlawan, Ampah Kota, Kec. Dusun Tengah, Kabupaten Barito Timur, Kalimantan Tengah 73652","Jl. Pahlawan, Ampah Kota, Kec. Dusun Tengah, Kabupaten Barito Timur",KALIMANTAN TENGAH,73652.0,Indonesia,,,,-1.768716,115.1489031,https://maps.google.com/?cid=0x0:0x35b3ca1c3f0a3e3b,
mall,mall,Kalimantan Tengah 73612,"Telang, Kec. Paju Epat, Kabupaten Barito Timur, Kalimantan Tengah","Kabupaten Barito Timur, Kalimantan Tengah",KALIMANTAN TENGAH,,Indonesia,,,,-2.1445423,115.0288051,https://maps.google.com/?cid=0x0:0xebf8e473b2c14e5c,
mall,Pusat Perbelanjaan,WAROENG JALU,"Jl. Fridolin Ukur No.36, Tamiang Layang, Kec. Dusun Tim., Kabupaten Barito Timur, Kalimantan Tengah 73611","Tamiang Layang, Kec. Dusun Tim., Kabupaten Barito Timur",KALIMANTAN TENGAH,73611.0,Indonesia,,,,-2.110826,115.163556,https://maps.google.com/?cid=0x0:0x25895ca5712454ac,
mall,Toko,Toko Usaha Baru,"V5HG+V73, Tamiang Layang, Kec. Dusun Tim., Kabupaten Barito Timur, Kalimantan Tengah 73671","Tamiang Layang, Kec. Dusun Tim., Kabupaten Barito Timur",KALIMANTAN TENGAH,73671.0,Indonesia, 082154188388,,,-2.12036,115.1756731,https://maps.google.com/?cid=0x0:0xe37193f3622778c4,
mall,Komplek perumahan,Dorong Permai,"W53P+829, Dorong, Kec. Dusun Tim., Kabupaten Barito Timur, Kalimantan Tengah 73671","Dorong, Kec. Dusun Tim., Kabupaten Barito Timur",KALIMANTAN TENGAH,73671.0,Indonesia, 082255786135,,,-2.0967104,115.1851007,https://maps.google.com/?cid=0x0:0x3cb56f8db66f2172,
mall,Toko,Pengisian Air Minum AURA,"W227+35J, Telang, Kec. Paju Epat, Kabupaten Barito Timur, Kalimantan Tengah","Kabupaten Barito Timur, Kalimantan Tengah",KALIMANTAN TENGAH,,Indonesia, 082251769704,,,-2.099053,115.0121891,https://maps.google.com/?cid=0x0:0x4eec2be06ec9d8d1,
mall,Pusat Perbelanjaan,Fotocopy A  A,"Jl.limang obe, Ds.Telang, Tamiang Layang, Kec. Paju Epat, Kabupaten Barito Timur, Kalimantan Tengah 73617","Ds.Telang, Tamiang Layang, Kec. Paju Epat, Kabupaten Barito Timur",KALIMANTAN TENGAH,73617.0,Indonesia, 082251769704,,,-2.0986076,115.0292487,https://maps.google.com/?cid=0x0:0x83eec1369baf3284,
mall,Pusat Perbelanjaan,Toko tohal,"V5R7+FQ4, Tamiang Layang, Kec. Dusun Tim., Kabupaten Barito Timur, Kalimantan Tengah 73671","Tamiang Layang, Kec. Dusun Tim., Kabupaten Barito Timur",KALIMANTAN TENGAH,73671.0,Indonesia, 0872253791524,,,-2.1088668,115.1644584,https://maps.google.com/?cid=0x0:0xf698927a0b050cff,
mall,mall,Kalimantan Tengah 73613,"Kec. Paju Epat, Kabupaten Barito Timur, Kalimantan Tengah","Kabupaten Barito Timur, Kalimantan Tengah",KALIMANTAN TENGAH,,Indonesia,,,,-2.1173046,115.0525302,https://maps.google.com/?cid=0x0:0x122a80857309f6e5,
mall,Toserba,M4 shop serba 35,"Jl. Tamiyang Layang - Ampah, Tamiang Layang, Kec. Dusun Tim., Kabupaten Barito Timur, Kalimantan Tengah","Kabupaten Barito Timur, Kalimantan Tengah",KALIMANTAN TENGAH,,Indonesia,,,,-2.0905215,115.147689,https://maps.google.com/?cid=0x0:0x2d75c8342795b371,
mall,Pusat Perbelanjaan,Toko Bayu,"Jl. Magantis, Tamiang Layang, Kec. Dusun Tim., Kabupaten Barito Timur, Kalimantan Tengah 73671","Tamiang Layang, Kec. Dusun Tim., Kabupaten Barito Timur",KALIMANTAN TENGAH,73671.0,Indonesia, 085332549959,,,-2.1138574,115.16263,https://maps.google.com/?cid=0x0:0xf70137ce9d593c7d,
mall,Pusat Perbelanjaan,Pelen,"6522+475, Sungai kuruk tiga, Kec. Dusun Tengah, Kabupaten Barito Timur, Kalimantan Tengah 73652","Sungai kuruk tiga, Kec. Dusun Tengah, Kabupaten Barito Timur",KALIMANTAN TENGAH,73652.0,Indonesia,,,,-1.7997404,115.1507466,https://maps.google.com/?cid=0x0:0xeb751d8660d3689c,
mall,Toko,Pengisian Air Minum AURA,"W227+35J, Telang, Kec. Paju Epat, Kabupaten Barito Timur, Kalimantan Tengah","Kabupaten Barito Timur, Kalimantan Tengah",KALIMANTAN TENGAH,,Indonesia, 082251769704,,,-2.099053,115.0121891,https://maps.google.com/?cid=0x0:0x4eec2be06ec9d8d1,
mall,Pusat Perbelanjaan,Daunnet Shop,"V5Q8+779, Tamiang Layang, Kec. Dusun Tim., Kabupaten Barito Timur, Kalimantan Tengah 73671","Tamiang Layang, Kec. Dusun Tim., Kabupaten Barito Timur",KALIMANTAN TENGAH,73671.0,Indonesia, 082253672843,,,-2.1118283,115.1657488,https://maps.google.com/?cid=0x0:0xe12015d54cf20e2b,
mall,Pasar,Barito timur,"V5Q3+H88, Tamiang Layang, Kec. Dusun Tim., Kabupaten Barito Timur, Kalimantan Tengah","Kabupaten Barito Timur, Kalimantan Tengah",KALIMANTAN TENGAH,,Indonesia,,,,-2.1110964,115.1533426,https://maps.google.com/?cid=0x0:0x7111a99bd6ebc1df,
mall,Toko,Toko Usaha Baru,"V5HG+V73, Tamiang Layang, Kec. Dusun Tim., Kabupaten Barito Timur, Kalimantan Tengah 73671","Tamiang Layang, Kec. Dusun Tim., Kabupaten Barito Timur",KALIMANTAN TENGAH,73671.0,Indonesia, 082154188388,,,-2.12036,115.1756731,https://maps.google.com/?cid=0x0:0xe37193f3622778c4,
mall,Toko,Toko Delina,"Jl. Nansarunai - Tamiang Layang No.26, Tamiang Layang, Kec. Dusun Tim., Kabupaten Barito Timur, Kalimantan Tengah 73671","Tamiang Layang, Kec. Dusun Tim., Kabupaten Barito Timur",KALIMANTAN TENGAH,73671.0,Indonesia, 081257936993,,,-2.1096994,115.1740916,https://maps.google.com/?cid=0x0:0xe5121f444c4ab0a4,
mall,Toko,TOKO OBRALCUCIGUDANG,"55X2+H25, Jl. Vetran Ampah, Putai, Kec. Dusun Tengah, Kabupaten Barito Timur, Kalimantan Tengah 73652","Jl. Vetran Ampah, Putai, Kec. Dusun Tengah, Kabupaten Barito Timur",KALIMANTAN TENGAH,73652.0,Indonesia,,,,-1.8011169,115.1501074,https://maps.google.com/?cid=0x0:0x18d1b0220d171ce7,
mall,Kantor Perusahaan,Site Office PT. MPL,"W52M+RM4, Jl. Nansarunai - Tamiang Layang, Dorong, Kec. Dusun Tim., Kabupaten Barito Timur, Kalimantan Tengah 73671","Jl. Nansarunai - Tamiang Layang, Dorong, Kec. Dusun Tim., Kabupaten Barito Timur",KALIMANTAN TENGAH,73671.0,Indonesia, 085335427922,,,-2.0980866,115.1843159,https://maps.google.com/?cid=0x0:0x4ef78e17ca3b9583,
mall,Kantor Pemerintah,Sekretariat Daerah Kabupaten Barito Timur,"V5M9+RPP, Jl. Ahmad Yani, Tamiang Layang, Kec. Dusun Tim., Kabupaten Barito Timur, Kalimantan Tengah 73661","Jl. Ahmad Yani, Tamiang Layang, Kec. Dusun Tim., Kabupaten Barito Timur",KALIMANTAN TENGAH,73661.0,Indonesia, 05262091153,,,-2.115416,115.1693187,https://maps.google.com/?cid=0x0:0x7a662bf3f729b291,
mall,Kantor SAMSAT,Kantor Kecamatan Dusun Timur,"Jl. Ps. Panas - Tamiang Layang No.90, Tamiang Layang, Kec. Dusun Tim., Kabupaten Barito Timur, Kalimantan Tengah 73671","Tamiang Layang, Kec. Dusun Tim., Kabupaten Barito Timur",KALIMANTAN TENGAH,73671.0,Indonesia,,,,-2.1162134,115.1672891,https://maps.google.com/?cid=0x0:0xab924133cf4046c,
mall,Komplek perumahan,komplek muhajirin,"V5P7+756, Tamiang Layang, Kec. Dusun Tim., Kabupaten Barito Timur, Kalimantan Tengah 73671","Tamiang Layang, Kec. Dusun Tim., Kabupaten Barito Timur",KALIMANTAN TENGAH,73671.0,Indonesia,,,,-2.11433,115.1629061,https://maps.google.com/?cid=0x0:0xdcd9134b1f357634,
mall,Komplek perumahan,Dorong Permai,"W53P+829, Dorong, Kec. Dusun Tim., Kabupaten Barito Timur, Kalimantan Tengah 73671","Dorong, Kec. Dusun Tim., Kabupaten Barito Timur",KALIMANTAN TENGAH,73671.0,Indonesia, 082255786135,,,-2.0967104,115.1851007,https://maps.google.com/?cid=0x0:0x3cb56f8db66f2172,
mall,Pusat Perbelanjaan,Melina collection serba35k,"depan restoran wong solo, Jl. Ahmad Yani, Tamiang Layang, Kec. Dusun Tim., Kabupaten Barito Timur, Kalimantan Tengah 73617","Jl. Ahmad Yani, Tamiang Layang, Kec. Dusun Tim., Kabupaten Barito Timur",KALIMANTAN TENGAH,73617.0,Indonesia, 082341685615,,,-2.1229193,115.1799815,https://maps.google.com/?cid=0x0:0x7005eb89c4b3522,
mall,Pusat Perbelanjaan,Toko Bayu,"Jl. Magantis, Tamiang Layang, Kec. Dusun Tim., Kabupaten Barito Timur, Kalimantan Tengah 73671","Tamiang Layang, Kec. Dusun Tim., Kabupaten Barito Timur",KALIMANTAN TENGAH,73671.0,Indonesia, 085332549959,,,-2.1138574,115.16263,https://maps.google.com/?cid=0x0:0xf70137ce9d593c7d,
mall,Pusat Perbelanjaan,Toko tohal,"V5R7+FQ4, Tamiang Layang, Kec. Dusun Tim., Kabupaten Barito Timur, Kalimantan Tengah 73671","Tamiang Layang, Kec. Dusun Tim., Kabupaten Barito Timur",KALIMANTAN TENGAH,73671.0,Indonesia, 0872253791524,,,-2.1088668,115.1644584,https://maps.google.com/?cid=0x0:0xf698927a0b050cff,
mall,mall,Kalimantan Tengah 73614,"Kec. Paju Epat, Kabupaten Barito Timur, Kalimantan Tengah","Kabupaten Barito Timur, Kalimantan Tengah",KALIMANTAN TENGAH,,Indonesia,,,,-2.081165,115.0762536,https://maps.google.com/?cid=0x0:0x90e53ff734a76b72,
mall,Toserba,M4 shop serba 35,"Jl. Tamiyang Layang - Ampah, Tamiang Layang, Kec. Dusun Tim., Kabupaten Barito Timur, Kalimantan Tengah","Kabupaten Barito Timur, Kalimantan Tengah",KALIMANTAN TENGAH,,Indonesia,,,,-2.0905215,115.147689,https://maps.google.com/?cid=0x0:0x2d75c8342795b371,
mall,Toko,Toko Usaha Baru,"V5HG+V73, Tamiang Layang, Kec. Dusun Tim., Kabupaten Barito Timur, Kalimantan Tengah 73671","Tamiang Layang, Kec. Dusun Tim., Kabupaten Barito Timur",KALIMANTAN TENGAH,73671.0,Indonesia, 082154188388,,,-2.12036,115.1756731,https://maps.google.com/?cid=0x0:0xe37193f3622778c4,
mall,Toko,TOKO OBRALCUCIGUDANG,"55X2+H25, Jl. Vetran Ampah, Putai, Kec. Dusun Tengah, Kabupaten Barito Timur, Kalimantan Tengah 73652","Jl. Vetran Ampah, Putai, Kec. Dusun Tengah, Kabupaten Barito Timur",KALIMANTAN TENGAH,73652.0,Indonesia,,,,-1.8011169,115.1501074,https://maps.google.com/?cid=0x0:0x18d1b0220d171ce7,
mall,Toko umum,Toko Vania,"R6R8+4F3, Jaar, Kec. Dusun Tim., Kabupaten Barito Timur, Kalimantan Tengah 73661","Jaar, Kec. Dusun Tim., Kabupaten Barito Timur",KALIMANTAN TENGAH,73661.0,Indonesia,,,,-2.1597385,115.2161658,https://maps.google.com/?cid=0x0:0x3cf75c43e49259ef,
mall,Pusat Perbelanjaan,Pelen,"6522+475, Sungai kuruk tiga, Kec. Dusun Tengah, Kabupaten Barito Timur, Kalimantan Tengah 73652","Sungai kuruk tiga, Kec. Dusun Tengah, Kabupaten Barito Timur",KALIMANTAN TENGAH,73652.0,Indonesia,,,,-1.7997404,115.1507466,https://maps.google.com/?cid=0x0:0xeb751d8660d3689c,
mall,mall,Kec. Dusun Tim.,"Kabupaten Barito Timur, Kalimantan Tengah","Kabupaten Barito Timur, Kalimantan Tengah",KALIMANTAN TENGAH,,Indonesia,,,,-2.1126877,115.1670292,https://maps.google.com/?cid=0x0:0x740b7052b652c454,
mall,Pusat Perbelanjaan,Hokki Day's,"W4JP+VCM, Jl. Tamiyang Layang - Ampah, Sumur, Kec. Dusun Tim., Kabupaten Barito Timur, Kalimantan Tengah 73681","Jl. Tamiyang Layang - Ampah, Sumur, Kec. Dusun Tim., Kabupaten Barito Timur",KALIMANTAN TENGAH,73681.0,Indonesia, 085346801534,,,-2.0677865,115.1360423,https://maps.google.com/?cid=0x0:0xae7ee569543afdd4,
mall,Toko Elektronik,Sinar Laris Jaya Group,"V5R8+QVV, Tamiang Layang, Kec. Dusun Tim., Kabupaten Barito Timur, Kalimantan Tengah 73671","Tamiang Layang, Kec. Dusun Tim., Kabupaten Barito Timur",KALIMANTAN TENGAH,73671.0,Indonesia, 082253468984,,,-2.1088337,115.1667146,https://maps.google.com/?cid=0x0:0xa5dec9d2f1f17710,
mall,Pusat Perbelanjaan,Daunnet Shop,"V5Q8+779, Tamiang Layang, Kec. Dusun Tim., Kabupaten Barito Timur, Kalimantan Tengah 73671","Tamiang Layang, Kec. Dusun Tim., Kabupaten Barito Timur",KALIMANTAN TENGAH,73671.0,Indonesia, 082253672843,,,-2.1118283,115.1657488,https://maps.google.com/?cid=0x0:0xe12015d54cf20e2b,
mall,Toko,UD.Maju,"Jl. Ahmad Yani No.km.2, Tamiang Layang, Kec. Dusun Tim., Kabupaten Barito Timur, Kalimantan Tengah 73671","Tamiang Layang, Kec. Dusun Tim., Kabupaten Barito Timur",KALIMANTAN TENGAH,73671.0,Indonesia,,,,-2.0955087,115.1509847,https://maps.google.com/?cid=0x0:0x48f80ac0b3333de0,
mall,Toko bahan makanan,Toko Sayur Aisyah,"V5W3+8WW tumpa dayu, Tamiang Layang, Kec. Dusun Tim., Kabupaten Barito Timur, Kalimantan Tengah 73671","Tamiang Layang, Kec. Dusun Tim., Kabupaten Barito Timur",KALIMANTAN TENGAH,73671.0,Indonesia, 085752656063,,,-2.1041363,115.15482,https://maps.google.com/?cid=0x0:0x90541c6687465a0d,
mall,Toko,Toko Delina,"Jl. Nansarunai - Tamiang Layang No.26, Tamiang Layang, Kec. Dusun Tim., Kabupaten Barito Timur, Kalimantan Tengah 73671","Tamiang Layang, Kec. Dusun Tim., Kabupaten Barito Timur",KALIMANTAN TENGAH,73671.0,Indonesia, 081257936993,,,-2.1096994,115.1740916,https://maps.google.com/?cid=0x0:0xe5121f444c4ab0a4,
mall,Toko Pakaian dan Peralatan Luar Ruangan,Wakat Outdoor Store,"V4P7+JFH, Unnamed Road, Sarapat (Ex Harara), Kec. Dusun Tim., Kabupaten Barito Timur, Kalimantan Tengah 73617","Unnamed Road, Sarapat (Ex Harara), Kec. Dusun Tim., Kabupaten Barito Timur",KALIMANTAN TENGAH,73617.0,Indonesia, 082153595956,,,-2.1134379,115.1137403,https://maps.google.com/?cid=0x0:0x734e8604cddfa482,
mall,Gudang,TB Raudah Tamiyang Layang,"V5FM+HQ5, Jl. Ps. Panas - Tamiang Layang, Matabu, Kec. Dusun Tim., Kabupaten Barito Timur, Kalimantan Tengah 73671","Jl. Ps. Panas - Tamiang Layang, Matabu, Kec. Dusun Tim., Kabupaten Barito Timur",KALIMANTAN TENGAH,73671.0,Indonesia, 081349613233,,,-2.126121,115.1844828,https://maps.google.com/?cid=0x0:0xe7cceeb88394c16e,
mall,Toko,TOKO MAULIDA,"TOKO MAULIDA, Jl. Ahmad Yani No.RT.18, tumpadayu, Kec. Dusun Tim., Kabupaten Barito Timur, Kalimantan Tengah 73671","Jl. Ahmad Yani No.RT.18, tumpadayu, Kec. Dusun Tim., Kabupaten Barito Timur",KALIMANTAN TENGAH,73671.0,Indonesia, 081256113975,,,-2.105037,115.1563855,https://maps.google.com/?cid=0x0:0x9f362530c995af0,
mall,Toko Swalayan,Toko Herkani,"R6JC+WMV, Jl. Ps. Panas - Tamiang Layang, Tamiang Layang, Kec. Dusun Tim., Kabupaten Barito Timur, Kalimantan Tengah 73661","Jl. Ps. Panas - Tamiang Layang, Tamiang Layang, Kec. Dusun Tim., Kabupaten Barito Timur",KALIMANTAN TENGAH,73661.0,Indonesia,,,,-2.167648,115.221662,https://maps.google.com/?cid=0x0:0xda9fbef9c684bfd6,
mall,Bengkel Bubut,Bengkel Las MALL,"W44X+QQ4, Tamiang Layang, Kec. Dusun Tim., Kabupaten Barito Timur, Kalimantan Tengah 73671","Tamiang Layang, Kec. Dusun Tim., Kabupaten Barito Timur",KALIMANTAN TENGAH,73671.0,Indonesia, 081348717231,,,-2.093105,115.1494609,https://maps.google.com/?cid=0x0:0x8e43ff7e4d8eecfa,
mall,Toko Pakaian,Toko IFAH,"Magantis, Kec. Dusun Tim., Kabupaten Barito Timur, Kalimantan Tengah 73671","Kec. Dusun Tim., Kabupaten Barito Timur",KALIMANTAN TENGAH,73671.0,Indonesia, 082156388278,,,-2.1330052,115.151642,https://maps.google.com/?cid=0x0:0x42098e209bee90a0,
mall,Toko Alat Pancing,Toko Tiur Pancing,"Jl. Ps. Panas - Tamiang Layang No.90, Tamiang Layang, Kec. Dusun Tim., Kabupaten Barito Timur, Kalimantan Tengah 73671","Tamiang Layang, Kec. Dusun Tim., Kabupaten Barito Timur",KALIMANTAN TENGAH,73671.0,Indonesia,,,,-2.1074939,115.1628283,https://maps.google.com/?cid=0x0:0x417d5612eaccefe9,
mall,mall,Kec. Dusun Tim.,"Kabupaten Barito Timur, Kalimantan Tengah","Kabupaten Barito Timur, Kalimantan Tengah",KALIMANTAN TENGAH,,Indonesia,,,,-2.1126877,115.1670292,https://maps.google.com/?cid=0x0:0x740b7052b652c454,
mall,mall,Kalimantan Tengah 73615,"Kec. Paju Epat, Kabupaten Barito Timur, Kalimantan Tengah","Kabupaten Barito Timur, Kalimantan Tengah",KALIMANTAN TENGAH,,Indonesia,,,,-2.0549841,115.0406679,https://maps.google.com/?cid=0x0:0xfc49174b02adf151,
mall,Toserba,M4 shop serba 35,"Jl. Tamiyang Layang - Ampah, Tamiang Layang, Kec. Dusun Tim., Kabupaten Barito Timur, Kalimantan Tengah","Kabupaten Barito Timur, Kalimantan Tengah",KALIMANTAN TENGAH,,Indonesia,,,,-2.0905215,115.147689,https://maps.google.com/?cid=0x0:0x2d75c8342795b371,
mall,Toko,Toko Usaha Baru,"V5HG+V73, Tamiang Layang, Kec. Dusun Tim., Kabupaten Barito Timur, Kalimantan Tengah 73671","Tamiang Layang, Kec. Dusun Tim., Kabupaten Barito Timur",KALIMANTAN TENGAH,73671.0,Indonesia, 082154188388,,,-2.12036,115.1756731,https://maps.google.com/?cid=0x0:0xe37193f3622778c4,
mall,Pusat Perbelanjaan,Toko Bayu,"Jl. Magantis, Tamiang Layang, Kec. Dusun Tim., Kabupaten Barito Timur, Kalimantan Tengah 73671","Tamiang Layang, Kec. Dusun Tim., Kabupaten Barito Timur",KALIMANTAN TENGAH,73671.0,Indonesia, 085332549959,,,-2.1138574,115.16263,https://maps.google.com/?cid=0x0:0xf70137ce9d593c7d,
mall,Toko umum,Toko Vania,"R6R8+4F3, Jaar, Kec. Dusun Tim., Kabupaten Barito Timur, Kalimantan Tengah 73661","Jaar, Kec. Dusun Tim., Kabupaten Barito Timur",KALIMANTAN TENGAH,73661.0,Indonesia,,,,-2.1597385,115.2161658,https://maps.google.com/?cid=0x0:0x3cf75c43e49259ef,
mall,Pusat Perbelanjaan,Hokki Day's,"W4JP+VCM, Jl. Tamiyang Layang - Ampah, Sumur, Kec. Dusun Tim., Kabupaten Barito Timur, Kalimantan Tengah 73681","Jl. Tamiyang Layang - Ampah, Sumur, Kec. Dusun Tim., Kabupaten Barito Timur",KALIMANTAN TENGAH,73681.0,Indonesia, 085346801534,,,-2.0677865,115.1360423,https://maps.google.com/?cid=0x0:0xae7ee569543afdd4,
mall,Pusat Perbelanjaan,WAROENG JALU,"Jl. Fridolin Ukur No.36, Tamiang Layang, Kec. Dusun Tim., Kabupaten Barito Timur, Kalimantan Tengah 73611","Tamiang Layang, Kec. Dusun Tim., Kabupaten Barito Timur",KALIMANTAN TENGAH,73611.0,Indonesia,,,,-2.110826,115.163556,https://maps.google.com/?cid=0x0:0x25895ca5712454ac,
mall,Pusat Perbelanjaan,Toko tohal,"V5R7+FQ4, Tamiang Layang, Kec. Dusun Tim., Kabupaten Barito Timur, Kalimantan Tengah 73671","Tamiang Layang, Kec. Dusun Tim., Kabupaten Barito Timur",KALIMANTAN TENGAH,73671.0,Indonesia, 0872253791524,,,-2.1088668,115.1644584,https://maps.google.com/?cid=0x0:0xf698927a0b050cff,
mall,Toko Elektronik,Sinar Laris Jaya Group,"V5R8+QVV, Tamiang Layang, Kec. Dusun Tim., Kabupaten Barito Timur, Kalimantan Tengah 73671","Tamiang Layang, Kec. Dusun Tim., Kabupaten Barito Timur",KALIMANTAN TENGAH,73671.0,Indonesia, 082253468984,,,-2.1088337,115.1667146,https://maps.google.com/?cid=0x0:0xa5dec9d2f1f17710,
mall,Toko bahan makanan,Toko Sayur Aisyah,"V5W3+8WW tumpa dayu, Tamiang Layang, Kec. Dusun Tim., Kabupaten Barito Timur, Kalimantan Tengah 73671","Tamiang Layang, Kec. Dusun Tim., Kabupaten Barito Timur",KALIMANTAN TENGAH,73671.0,Indonesia, 085752656063,,,-2.1041363,115.15482,https://maps.google.com/?cid=0x0:0x90541c6687465a0d,
mall,Toko Pakaian,Toko IFAH,"Magantis, Kec. Dusun Tim., Kabupaten Barito Timur, Kalimantan Tengah 73671","Kec. Dusun Tim., Kabupaten Barito Timur",KALIMANTAN TENGAH,73671.0,Indonesia, 082156388278,,,-2.1330052,115.151642,https://maps.google.com/?cid=0x0:0x42098e209bee90a0,
mall,Toko Swalayan,Toko Herkani,"R6JC+WMV, Jl. Ps. Panas - Tamiang Layang, Tamiang Layang, Kec. Dusun Tim., Kabupaten Barito Timur, Kalimantan Tengah 73661","Jl. Ps. Panas - Tamiang Layang, Tamiang Layang, Kec. Dusun Tim., Kabupaten Barito Timur",KALIMANTAN TENGAH,73661.0,Indonesia,,,,-2.167648,115.221662,https://maps.google.com/?cid=0x0:0xda9fbef9c684bfd6,
mall,Toko,UD.Maju,"Jl. Ahmad Yani No.km.2, Tamiang Layang, Kec. Dusun Tim., Kabupaten Barito Timur, Kalimantan Tengah 73671","Tamiang Layang, Kec. Dusun Tim., Kabupaten Barito Timur",KALIMANTAN TENGAH,73671.0,Indonesia,,,,-2.0955087,115.1509847,https://maps.google.com/?cid=0x0:0x48f80ac0b3333de0,
mall,Toko Pakaian dan Peralatan Luar Ruangan,Wakat Outdoor Store,"V4P7+JFH, Unnamed Road, Sarapat (Ex Harara), Kec. Dusun Tim., Kabupaten Barito Timur, Kalimantan Tengah 73617","Unnamed Road, Sarapat (Ex Harara), Kec. Dusun Tim., Kabupaten Barito Timur",KALIMANTAN TENGAH,73617.0,Indonesia, 082153595956,,,-2.1134379,115.1137403,https://maps.google.com/?cid=0x0:0x734e8604cddfa482,
mall,ATM,Toko Brilink Ciel,"Jl. Ahmad Yani No.90, Tamiang Layang, Kec. Dusun Tim., Kabupaten Barito Timur, Kalimantan Tengah 73671","Tamiang Layang, Kec. Dusun Tim., Kabupaten Barito Timur",KALIMANTAN TENGAH,73671.0,Indonesia,,,,-2.1170045,115.1712951,https://maps.google.com/?cid=0x0:0x912061c7f0b0e1dc,
mall,Toko Alat Pancing,Toko Tiur Pancing,"Jl. Ps. Panas - Tamiang Layang No.90, Tamiang Layang, Kec. Dusun Tim., Kabupaten Barito Timur, Kalimantan Tengah 73671","Tamiang Layang, Kec. Dusun Tim., Kabupaten Barito Timur",KALIMANTAN TENGAH,73671.0,Indonesia,,,,-2.1074939,115.1628283,https://maps.google.com/?cid=0x0:0x417d5612eaccefe9,
mall,Toko,TOKO MAULIDA,"TOKO MAULIDA, Jl. Ahmad Yani No.RT.18, tumpadayu, Kec. Dusun Tim., Kabupaten Barito Timur, Kalimantan Tengah 73671","Jl. Ahmad Yani No.RT.18, tumpadayu, Kec. Dusun Tim., Kabupaten Barito Timur",KALIMANTAN TENGAH,73671.0,Indonesia, 081256113975,,,-2.105037,115.1563855,https://maps.google.com/?cid=0x0:0x9f362530c995af0,
mall,Toko,Toko Delina,"Jl. Nansarunai - Tamiang Layang No.26, Tamiang Layang, Kec. Dusun Tim., Kabupaten Barito Timur, Kalimantan Tengah 73671","Tamiang Layang, Kec. Dusun Tim., Kabupaten Barito Timur",KALIMANTAN TENGAH,73671.0,Indonesia, 081257936993,,,-2.1096994,115.1740916,https://maps.google.com/?cid=0x0:0xe5121f444c4ab0a4,
mall,Toko Swalayan,"Toko Beras Do,a Kuitan","V5R7+4J5, Tamiang Layang, Kec. Dusun Tim., Kabupaten Barito Timur, Kalimantan Tengah 73671","Tamiang Layang, Kec. Dusun Tim., Kabupaten Barito Timur",KALIMANTAN TENGAH,73671.0,Indonesia, 087736640936,,,-2.1097433,115.1640957,https://maps.google.com/?cid=0x0:0x154c502a16bb3028,
mall,mall,Kalimantan Tengah 73617,Kalimantan Tengah,Kalimantan Tengah,KALIMANTAN TENGAH,,Indonesia,,,,-2.0520057,114.9516869,https://maps.google.com/?cid=0x0:0xf0d04e5ed5edf592,
mall,Pusat Perbelanjaan,Hokki Day's,"W4JP+VCM, Jl. Tamiyang Layang - Ampah, Sumur, Kec. Dusun Tim., Kabupaten Barito Timur, Kalimantan Tengah 73681","Jl. Tamiyang Layang - Ampah, Sumur, Kec. Dusun Tim., Kabupaten Barito Timur",KALIMANTAN TENGAH,73681.0,Indonesia, 085346801534,,,-2.0677865,115.1360423,https://maps.google.com/?cid=0x0:0xae7ee569543afdd4,
mall,Pasar,PASAR TELANG BARU,"QWCV+2XP, Telang Baru, Kec. Paju Epat, Kabupaten Barito Timur, Kalimantan Tengah 73762","Telang Baru, Kec. Paju Epat, Kabupaten Barito Timur",KALIMANTAN TENGAH,73762.0,Indonesia,,,,-2.2299236,114.9449609,https://maps.google.com/?cid=0x0:0x3fe2dc4b62976cec,
mall,Toko Pakaian dan Peralatan Luar Ruangan,Wakat Outdoor Store,"V4P7+JFH, Unnamed Road, Sarapat (Ex Harara), Kec. Dusun Tim., Kabupaten Barito Timur, Kalimantan Tengah 73617","Unnamed Road, Sarapat (Ex Harara), Kec. Dusun Tim., Kabupaten Barito Timur",KALIMANTAN TENGAH,73617.0,Indonesia, 082153595956,,,-2.1134379,115.1137403,https://maps.google.com/?cid=0x0:0x734e8604cddfa482,
mall,Toko Pakaian,Toko IFAH,"Magantis, Kec. Dusun Tim., Kabupaten Barito Timur, Kalimantan Tengah 73671","Kec. Dusun Tim., Kabupaten Barito Timur",KALIMANTAN TENGAH,73671.0,Indonesia, 082156388278,,,-2.1330052,115.151642,https://maps.google.com/?cid=0x0:0x42098e209bee90a0,
mall,Pusat Perbelanjaan,Warung DEWI TUNGGAL,"WVVR+247, Salat Baru, Kec. Karau Kuala, Kabupaten Barito Selatan, Kalimantan Tengah 73617","Salat Baru, Kec. Karau Kuala, Kabupaten Barito Selatan",KALIMANTAN TENGAH,73617.0,Indonesia,,,,-2.0574657,114.8903114,https://maps.google.com/?cid=0x0:0x88deefbc0a11d612,
mall,Sate,Sate Indah Muda,"V5Q3+H88, pasar, Tamiang Layang, Kec. Dusun Tim., Kabupaten Barito Timur, Kalimantan Tengah 73671","pasar, Tamiang Layang, Kec. Dusun Tim., Kabupaten Barito Timur",KALIMANTAN TENGAH,73671.0,Indonesia, 085355302191,,,-2.1110964,115.1533425,https://maps.google.com/?cid=0x0:0x754d72a321c4f005,
mall,Pusat Perbelanjaan,Daunnet Shop,"V5Q8+779, Tamiang Layang, Kec. Dusun Tim., Kabupaten Barito Timur, Kalimantan Tengah 73671","Tamiang Layang, Kec. Dusun Tim., Kabupaten Barito Timur",KALIMANTAN TENGAH,73671.0,Indonesia, 082253672843,,,-2.1118283,115.1657488,https://maps.google.com/?cid=0x0:0xe12015d54cf20e2b,
mall,Pusat Perbelanjaan,Toko tohal,"V5R7+FQ4, Tamiang Layang, Kec. Dusun Tim., Kabupaten Barito Timur, Kalimantan Tengah 73671","Tamiang Layang, Kec. Dusun Tim., Kabupaten Barito Timur",KALIMANTAN TENGAH,73671.0,Indonesia, 0872253791524,,,-2.1088668,115.1644584,https://maps.google.com/?cid=0x0:0xf698927a0b050cff,
mall,Pusat Perbelanjaan,Azmi,"XV3X+GP8, Bangkuang, Kec. Karau Kuala, Kabupaten Barito Selatan, Kalimantan Tengah 73617","Bangkuang, Kec. Karau Kuala, Kabupaten Barito Selatan",KALIMANTAN TENGAH,73617.0,Indonesia, 082350582781,,,-2.0462148,114.8993298,https://maps.google.com/?cid=0x0:0x5edd4b29fb4497f1,
mall,Bengkel Bubut,Bengkel Las MALL,"W44X+QQ4, Tamiang Layang, Kec. Dusun Tim., Kabupaten Barito Timur, Kalimantan Tengah 73671","Tamiang Layang, Kec. Dusun Tim., Kabupaten Barito Timur",KALIMANTAN TENGAH,73671.0,Indonesia, 081348717231,,,-2.093105,115.1494609,https://maps.google.com/?cid=0x0:0x8e43ff7e4d8eecfa,
mall,Toko bahan makanan,Toko Sayur Aisyah,"V5W3+8WW tumpa dayu, Tamiang Layang, Kec. Dusun Tim., Kabupaten Barito Timur, Kalimantan Tengah 73671","Tamiang Layang, Kec. Dusun Tim., Kabupaten Barito Timur",KALIMANTAN TENGAH,73671.0,Indonesia, 085752656063,,,-2.1041363,115.15482,https://maps.google.com/?cid=0x0:0x90541c6687465a0d,
mall,Pusat Perbelanjaan,WAROENG JALU,"Jl. Fridolin Ukur No.36, Tamiang Layang, Kec. Dusun Tim., Kabupaten Barito Timur, Kalimantan Tengah 73611","Tamiang Layang, Kec. Dusun Tim., Kabupaten Barito Timur",KALIMANTAN TENGAH,73611.0,Indonesia,,,,-2.110826,115.163556,https://maps.google.com/?cid=0x0:0x25895ca5712454ac,
mall,Toko Alat Tulis,Fotocopy Amin,"W4FQ+839, Jl. Tamiyang Layang - Ampah, Sumur, Kec. Dusun Tim., Kabupaten Barito Timur, Kalimantan Tengah 73681","Jl. Tamiyang Layang - Ampah, Sumur, Kec. Dusun Tim., Kabupaten Barito Timur",KALIMANTAN TENGAH,73681.0,Indonesia,,,,-2.0767111,115.1377485,https://maps.google.com/?cid=0x0:0xeba947895553839c,
mall,ATM,Toko Brilink Ciel,"Jl. Ahmad Yani No.90, Tamiang Layang, Kec. Dusun Tim., Kabupaten Barito Timur, Kalimantan Tengah 73671","Tamiang Layang, Kec. Dusun Tim., Kabupaten Barito Timur",KALIMANTAN TENGAH,73671.0,Indonesia,,,,-2.1170045,115.1712951,https://maps.google.com/?cid=0x0:0x912061c7f0b0e1dc,
mall,Pusat Perbelanjaan,waroeng Mirza,"2RWP+G95, Babai, Kec. Karau Kuala, Kabupaten Barito Selatan, Kalimantan Tengah 73617","Babai, Kec. Karau Kuala, Kabupaten Barito Selatan",KALIMANTAN TENGAH,73617.0,Indonesia, 081348231820,,,-1.953727,114.835999,https://maps.google.com/?cid=0x0:0x62e03fe9d8996bb8,
mall,Pusat Perbelanjaan,KIOS H.CAKAM,"XR76+FC, Batilap, Kec. Dusun Hilir, Kabupaten Barito Selatan, Kalimantan Tengah 73617","Batilap, Kec. Dusun Hilir, Kabupaten Barito Selatan",KALIMANTAN TENGAH,73617.0,Indonesia,,,,-2.0362996,114.8104656,https://maps.google.com/?cid=0x0:0xd8aafd7df8a4c807,
mall,Toko Elektronik,Sinar Laris Jaya Group,"V5R8+QVV, Tamiang Layang, Kec. Dusun Tim., Kabupaten Barito Timur, Kalimantan Tengah 73671","Tamiang Layang, Kec. Dusun Tim., Kabupaten Barito Timur",KALIMANTAN TENGAH,73671.0,Indonesia, 082253468984,,,-2.1088337,115.1667146,https://maps.google.com/?cid=0x0:0xa5dec9d2f1f17710,
mall,Toko,UD.Maju,"Jl. Ahmad Yani No.km.2, Tamiang Layang, Kec. Dusun Tim., Kabupaten Barito Timur, Kalimantan Tengah 73671","Tamiang Layang, Kec. Dusun Tim., Kabupaten Barito Timur",KALIMANTAN TENGAH,73671.0,Indonesia,,,,-2.0955087,115.1509847,https://maps.google.com/?cid=0x0:0x48f80ac0b3333de0,
mall,mall,Kec. Dusun Tim.,"Kabupaten Barito Timur, Kalimantan Tengah","Kabupaten Barito Timur, Kalimantan Tengah",KALIMANTAN TENGAH,,Indonesia,,,,-2.1126877,115.1670292,https://maps.google.com/?cid=0x0:0x740b7052b652c454,
mall,Pusat Perbelanjaan,WAROENG JALU,"Jl. Fridolin Ukur No.36, Tamiang Layang, Kec. Dusun Tim., Kabupaten Barito Timur, Kalimantan Tengah 73611","Tamiang Layang, Kec. Dusun Tim., Kabupaten Barito Timur",KALIMANTAN TENGAH,73611.0,Indonesia,,,,-2.110826,115.163556,https://maps.google.com/?cid=0x0:0x25895ca5712454ac,
mall,Toserba,M4 shop serba 35,"Jl. Tamiyang Layang - Ampah, Tamiang Layang, Kec. Dusun Tim., Kabupaten Barito Timur, Kalimantan Tengah","Kabupaten Barito Timur, Kalimantan Tengah",KALIMANTAN TENGAH,,Indonesia,,,,-2.0905215,115.147689,https://maps.google.com/?cid=0x0:0x2d75c8342795b371,
mall,Pusat Perbelanjaan,Daunnet Shop,"V5Q8+779, Tamiang Layang, Kec. Dusun Tim., Kabupaten Barito Timur, Kalimantan Tengah 73671","Tamiang Layang, Kec. Dusun Tim., Kabupaten Barito Timur",KALIMANTAN TENGAH,73671.0,Indonesia, 082253672843,,,-2.1118283,115.1657488,https://maps.google.com/?cid=0x0:0xe12015d54cf20e2b,
mall,Pusat Perbelanjaan,Hokki Day's,"W4JP+VCM, Jl. Tamiyang Layang - Ampah, Sumur, Kec. Dusun Tim., Kabupaten Barito Timur, Kalimantan Tengah 73681","Jl. Tamiyang Layang - Ampah, Sumur, Kec. Dusun Tim., Kabupaten Barito Timur",KALIMANTAN TENGAH,73681.0,Indonesia, 085346801534,,,-2.0677865,115.1360423,https://maps.google.com/?cid=0x0:0xae7ee569543afdd4,
mall,Toko,Toko Usaha Baru,"V5HG+V73, Tamiang Layang, Kec. Dusun Tim., Kabupaten Barito Timur, Kalimantan Tengah 73671","Tamiang Layang, Kec. Dusun Tim., Kabupaten Barito Timur",KALIMANTAN TENGAH,73671.0,Indonesia, 082154188388,,,-2.12036,115.1756731,https://maps.google.com/?cid=0x0:0xe37193f3622778c4,
mall,Toko,UD.Maju,"Jl. Ahmad Yani No.km.2, Tamiang Layang, Kec. Dusun Tim., Kabupaten Barito Timur, Kalimantan Tengah 73671","Tamiang Layang, Kec. Dusun Tim., Kabupaten Barito Timur",KALIMANTAN TENGAH,73671.0,Indonesia,,,,-2.0955087,115.1509847,https://maps.google.com/?cid=0x0:0x48f80ac0b3333de0,
mall,Toko,Toko Delina,"Jl. Nansarunai - Tamiang Layang No.26, Tamiang Layang, Kec. Dusun Tim., Kabupaten Barito Timur, Kalimantan Tengah 73671","Tamiang Layang, Kec. Dusun Tim., Kabupaten Barito Timur",KALIMANTAN TENGAH,73671.0,Indonesia, 081257936993,,,-2.1096994,115.1740916,https://maps.google.com/?cid=0x0:0xe5121f444c4ab0a4,
mall,Pusat Perbelanjaan,Toko tohal,"V5R7+FQ4, Tamiang Layang, Kec. Dusun Tim., Kabupaten Barito Timur, Kalimantan Tengah 73671","Tamiang Layang, Kec. Dusun Tim., Kabupaten Barito Timur",KALIMANTAN TENGAH,73671.0,Indonesia, 0872253791524,,,-2.1088668,115.1644584,https://maps.google.com/?cid=0x0:0xf698927a0b050cff,
mall,Toko umum,Toko Vania,"R6R8+4F3, Jaar, Kec. Dusun Tim., Kabupaten Barito Timur, Kalimantan Tengah 73661","Jaar, Kec. Dusun Tim., Kabupaten Barito Timur",KALIMANTAN TENGAH,73661.0,Indonesia,,,,-2.1597385,115.2161658,https://maps.google.com/?cid=0x0:0x3cf75c43e49259ef,
mall,Toko bahan makanan,Toko Sayur Aisyah,"V5W3+8WW tumpa dayu, Tamiang Layang, Kec. Dusun Tim., Kabupaten Barito Timur, Kalimantan Tengah 73671","Tamiang Layang, Kec. Dusun Tim., Kabupaten Barito Timur",KALIMANTAN TENGAH,73671.0,Indonesia, 085752656063,,,-2.1041363,115.15482,https://maps.google.com/?cid=0x0:0x90541c6687465a0d,
mall,Pusat Perbelanjaan,Toko Bayu,"Jl. Magantis, Tamiang Layang, Kec. Dusun Tim., Kabupaten Barito Timur, Kalimantan Tengah 73671","Tamiang Layang, Kec. Dusun Tim., Kabupaten Barito Timur",KALIMANTAN TENGAH,73671.0,Indonesia, 085332549959,,,-2.1138574,115.16263,https://maps.google.com/?cid=0x0:0xf70137ce9d593c7d,
mall,Gudang,TB Raudah Tamiyang Layang,"V5FM+HQ5, Jl. Ps. Panas - Tamiang Layang, Matabu, Kec. Dusun Tim., Kabupaten Barito Timur, Kalimantan Tengah 73671","Jl. Ps. Panas - Tamiang Layang, Matabu, Kec. Dusun Tim., Kabupaten Barito Timur",KALIMANTAN TENGAH,73671.0,Indonesia, 081349613233,,,-2.126121,115.1844828,https://maps.google.com/?cid=0x0:0xe7cceeb88394c16e,
mall,Toko Pakaian,Toko IFAH,"Magantis, Kec. Dusun Tim., Kabupaten Barito Timur, Kalimantan Tengah 73671","Kec. Dusun Tim., Kabupaten Barito Timur",KALIMANTAN TENGAH,73671.0,Indonesia, 082156388278,,,-2.1330052,115.151642,https://maps.google.com/?cid=0x0:0x42098e209bee90a0,
mall,Toko Swalayan,Toko Herkani,"R6JC+WMV, Jl. Ps. Panas - Tamiang Layang, Tamiang Layang, Kec. Dusun Tim., Kabupaten Barito Timur, Kalimantan Tengah 73661","Jl. Ps. Panas - Tamiang Layang, Tamiang Layang, Kec. Dusun Tim., Kabupaten Barito Timur",KALIMANTAN TENGAH,73661.0,Indonesia,,,,-2.167648,115.221662,https://maps.google.com/?cid=0x0:0xda9fbef9c684bfd6,
mall,Toko Alat Pancing,Toko Tiur Pancing,"Jl. Ps. Panas - Tamiang Layang No.90, Tamiang Layang, Kec. Dusun Tim., Kabupaten Barito Timur, Kalimantan Tengah 73671","Tamiang Layang, Kec. Dusun Tim., Kabupaten Barito Timur",KALIMANTAN TENGAH,73671.0,Indonesia,,,,-2.1074939,115.1628283,https://maps.google.com/?cid=0x0:0x417d5612eaccefe9,
mall,Sate,Sate Indah Muda,"V5Q3+H88, pasar, Tamiang Layang, Kec. Dusun Tim., Kabupaten Barito Timur, Kalimantan Tengah 73671","pasar, Tamiang Layang, Kec. Dusun Tim., Kabupaten Barito Timur",KALIMANTAN TENGAH,73671.0,Indonesia, 085355302191,,,-2.1110964,115.1533425,https://maps.google.com/?cid=0x0:0x754d72a321c4f005,
mall,ATM,Toko Brilink Ciel,"Jl. Ahmad Yani No.90, Tamiang Layang, Kec. Dusun Tim., Kabupaten Barito Timur, Kalimantan Tengah 73671","Tamiang Layang, Kec. Dusun Tim., Kabupaten Barito Timur",KALIMANTAN TENGAH,73671.0,Indonesia,,,,-2.1170045,115.1712951,https://maps.google.com/?cid=0x0:0x912061c7f0b0e1dc,
mall,Pusat Perbelanjaan,Kios Mama Irham,"Jl. Magantis, Magantis, Kec. Dusun Tim., Kabupaten Barito Timur, Kalimantan Tengah 73671","Magantis, Kec. Dusun Tim., Kabupaten Barito Timur",KALIMANTAN TENGAH,73671.0,Indonesia, 085250439494,,,-2.1308383,115.1533263,https://maps.google.com/?cid=0x0:0xe8fb1ab7a9c1ecba,
mall,Toko Alat Tulis,Fotocopy Amin,"W4FQ+839, Jl. Tamiyang Layang - Ampah, Sumur, Kec. Dusun Tim., Kabupaten Barito Timur, Kalimantan Tengah 73681","Jl. Tamiyang Layang - Ampah, Sumur, Kec. Dusun Tim., Kabupaten Barito Timur",KALIMANTAN TENGAH,73681.0,Indonesia,,,,-2.0767111,115.1377485,https://maps.google.com/?cid=0x0:0xeba947895553839c,
mall,Kantor Perusahaan,TRAVEL Jurusan Ampah-Buntok-palangkaraya,"V5H9+FJ8, Tamiang Layang, Kec. Dusun Tim., Kabupaten Barito Timur, Kalimantan Tengah 73671","Tamiang Layang, Kec. Dusun Tim., Kabupaten Barito Timur",KALIMANTAN TENGAH,73671.0,Indonesia, 085247556336,,,-2.1213293,115.1690924,https://maps.google.com/?cid=0x0:0xe67200a41ae0c44d,
mall,Toko Pakaian dan Peralatan Luar Ruangan,Wakat Outdoor Store,"V4P7+JFH, Unnamed Road, Sarapat (Ex Harara), Kec. Dusun Tim., Kabupaten Barito Timur, Kalimantan Tengah 73617","Unnamed Road, Sarapat (Ex Harara), Kec. Dusun Tim., Kabupaten Barito Timur",KALIMANTAN TENGAH,73617.0,Indonesia, 082153595956,,,-2.1134379,115.1137403,https://maps.google.com/?cid=0x0:0x734e8604cddfa482,
mall,Toko,TOKO MAULIDA,"TOKO MAULIDA, Jl. Ahmad Yani No.RT.18, tumpadayu, Kec. Dusun Tim., Kabupaten Barito Timur, Kalimantan Tengah 73671","Jl. Ahmad Yani No.RT.18, tumpadayu, Kec. Dusun Tim., Kabupaten Barito Timur",KALIMANTAN TENGAH,73671.0,Indonesia, 081256113975,,,-2.105037,115.1563855,https://maps.google.com/?cid=0x0:0x9f362530c995af0,
mall,mall,Kec. Karusen Janang,"Kabupaten Barito Timur, Kalimantan Tengah","Kabupaten Barito Timur, Kalimantan Tengah",KALIMANTAN TENGAH,,Indonesia,,,,-1.9839523,115.0772101,https://maps.google.com/?cid=0x0:0x42d4b63eb9f83bf4,
mall,Minimarket,Toko Cika,"2422+X2J, Jl. Tamiyang Layang - Ampah Ampah, Simpang Naneng, Kec. Karusen Janang, Kabupaten Barito Timur, Kalimantan Tengah 73681","Jl. Tamiyang Layang - Ampah Ampah, Simpang Naneng, Kec. Karusen Janang, Kabupaten Barito Timur",KALIMANTAN TENGAH,73681.0,Indonesia,,,,-1.9975496,115.1000104,https://maps.google.com/?cid=0x0:0x54da73f5331e8962,
mall,Toko,Gita Minimarket,"2392+R8W, Dayu, Kec. Karusen Janang, Kabupaten Barito Timur, Kalimantan Tengah 73652","Dayu, Kec. Karusen Janang, Kabupaten Barito Timur",KALIMANTAN TENGAH,73652.0,Indonesia,,,,-1.9803908,115.0508371,https://maps.google.com/?cid=0x0:0x4fe5c25222fb5676,
mall,Bengkel Sepeda Motor,Aldi bengkel dayu,"238H+5H4, Jl. Tamiyang Layang - Ampah, Dayu, Kec. Karusen Janang, Kabupaten Barito Timur, Kalimantan Tengah 73681","Jl. Tamiyang Layang - Ampah, Dayu, Kec. Karusen Janang, Kabupaten Barito Timur",KALIMANTAN TENGAH,73681.0,Indonesia,,,,-1.984613,115.0789507,https://maps.google.com/?cid=0x0:0xf43df186b5c8f682,
mall,Kios,Toko Sham One Kupang Baru,"3487+2FH, Jl. Tamiyang Layang - Ampah Ampah, Kupang Baru, Kec. Paku, Kabupaten Barito Timur, Kalimantan Tengah 73652","Jl. Tamiyang Layang - Ampah Ampah, Kupang Baru, Kec. Paku, Kabupaten Barito Timur",KALIMANTAN TENGAH,73652.0,Indonesia,,,,-1.9349354,115.1137188,https://maps.google.com/?cid=0x0:0xfe45f6385f740416,
mall,Kantor Perusahaan,Kantor Kecamatan Karusen Janang,"23RX+HF4, Jl. Tamiyang Layang - Ampah, Dayu, Kec. Dusun Tengah, Kabupaten Barito Timur, Kalimantan Tengah 73652","Jl. Tamiyang Layang - Ampah, Dayu, Kec. Dusun Tengah, Kabupaten Barito Timur",KALIMANTAN TENGAH,73652.0,Indonesia,,,,-1.9586073,115.0986988,https://maps.google.com/?cid=0x0:0x4492e0884282162b,
mall,mall,Kalimantan Tengah 73617,Kalimantan Tengah,Kalimantan Tengah,KALIMANTAN TENGAH,,Indonesia,,,,-2.0520057,114.9516869,https://maps.google.com/?cid=0x0:0xf0d04e5ed5edf592,
mall,Pasar,PASAR TELANG BARU,"QWCV+2XP, Telang Baru, Kec. Paju Epat, Kabupaten Barito Timur, Kalimantan Tengah 73762","Telang Baru, Kec. Paju Epat, Kabupaten Barito Timur",KALIMANTAN TENGAH,73762.0,Indonesia,,,,-2.2299236,114.9449609,https://maps.google.com/?cid=0x0:0x3fe2dc4b62976cec,
mall,Pusat Perbelanjaan,Hokki Day's,"W4JP+VCM, Jl. Tamiyang Layang - Ampah, Sumur, Kec. Dusun Tim., Kabupaten Barito Timur, Kalimantan Tengah 73681","Jl. Tamiyang Layang - Ampah, Sumur, Kec. Dusun Tim., Kabupaten Barito Timur",KALIMANTAN TENGAH,73681.0,Indonesia, 085346801534,,,-2.0677865,115.1360423,https://maps.google.com/?cid=0x0:0xae7ee569543afdd4,
mall,Pusat Perbelanjaan,Warung DEWI TUNGGAL,"WVVR+247, Salat Baru, Kec. Karau Kuala, Kabupaten Barito Selatan, Kalimantan Tengah 73617","Salat Baru, Kec. Karau Kuala, Kabupaten Barito Selatan",KALIMANTAN TENGAH,73617.0,Indonesia,,,,-2.0574657,114.8903114,https://maps.google.com/?cid=0x0:0x88deefbc0a11d612,
mall,Pusat Perbelanjaan,Azmi,"XV3X+GP8, Bangkuang, Kec. Karau Kuala, Kabupaten Barito Selatan, Kalimantan Tengah 73617","Bangkuang, Kec. Karau Kuala, Kabupaten Barito Selatan",KALIMANTAN TENGAH,73617.0,Indonesia, 082350582781,,,-2.0462148,114.8993298,https://maps.google.com/?cid=0x0:0x5edd4b29fb4497f1,
mall,Toko Pakaian dan Peralatan Luar Ruangan,Wakat Outdoor Store,"V4P7+JFH, Unnamed Road, Sarapat (Ex Harara), Kec. Dusun Tim., Kabupaten Barito Timur, Kalimantan Tengah 73617","Unnamed Road, Sarapat (Ex Harara), Kec. Dusun Tim., Kabupaten Barito Timur",KALIMANTAN TENGAH,73617.0,Indonesia, 082153595956,,,-2.1134379,115.1137403,https://maps.google.com/?cid=0x0:0x734e8604cddfa482,
mall,Toko bahan makanan,Toko Mama Ijum,"PWXW+P3W, Unnamed Road, Juru Banu, Kec. Paju Epat, Kabupaten Barito Timur, Kalimantan Tengah 73762","Unnamed Road, Juru Banu, Kec. Paju Epat, Kabupaten Barito Timur",KALIMANTAN TENGAH,73762.0,Indonesia,,,,-2.250631,114.9452149,https://maps.google.com/?cid=0x0:0xae1103d26005e98d,
mall,Toko,Pengisian Air Minum AURA,"W227+35J, Telang, Kec. Paju Epat, Kabupaten Barito Timur, Kalimantan Tengah","Kabupaten Barito Timur, Kalimantan Tengah",KALIMANTAN TENGAH,,Indonesia, 082251769704,,,-2.099053,115.0121891,https://maps.google.com/?cid=0x0:0x4eec2be06ec9d8d1,
mall,Toserba,M4 shop serba 35,"Jl. Tamiyang Layang - Ampah, Tamiang Layang, Kec. Dusun Tim., Kabupaten Barito Timur, Kalimantan Tengah","Kabupaten Barito Timur, Kalimantan Tengah",KALIMANTAN TENGAH,,Indonesia,,,,-2.0905215,115.147689,https://maps.google.com/?cid=0x0:0x2d75c8342795b371,
mall,Otoritas Pelabuhan,Pelabuhan Perikanan Juru Banu,"PWXV+M2Q, Juru Banu, Kec. Paju Epat, Kabupaten Barito Timur, Kalimantan Tengah 73762","Juru Banu, Kec. Paju Epat, Kabupaten Barito Timur",KALIMANTAN TENGAH,73762.0,Indonesia, 085705863820,,,-2.2507989,114.9426091,https://maps.google.com/?cid=0x0:0x69c62865f4ce85aa,
mall,Pusat Perbelanjaan,waroeng Mirza,"2RWP+G95, Babai, Kec. Karau Kuala, Kabupaten Barito Selatan, Kalimantan Tengah 73617","Babai, Kec. Karau Kuala, Kabupaten Barito Selatan",KALIMANTAN TENGAH,73617.0,Indonesia, 081348231820,,,-1.953727,114.835999,https://maps.google.com/?cid=0x0:0x62e03fe9d8996bb8,
mall,Sate,Sate Indah Muda,"V5Q3+H88, pasar, Tamiang Layang, Kec. Dusun Tim., Kabupaten Barito Timur, Kalimantan Tengah 73671","pasar, Tamiang Layang, Kec. Dusun Tim., Kabupaten Barito Timur",KALIMANTAN TENGAH,73671.0,Indonesia, 085355302191,,,-2.1110964,115.1533425,https://maps.google.com/?cid=0x0:0x754d72a321c4f005,
mall,Pusat Perbelanjaan,Daunnet Shop,"V5Q8+779, Tamiang Layang, Kec. Dusun Tim., Kabupaten Barito Timur, Kalimantan Tengah 73671","Tamiang Layang, Kec. Dusun Tim., Kabupaten Barito Timur",KALIMANTAN TENGAH,73671.0,Indonesia, 082253672843,,,-2.1118283,115.1657488,https://maps.google.com/?cid=0x0:0xe12015d54cf20e2b,
mall,Pusat Perbelanjaan,KIOS H.CAKAM,"XR76+FC, Batilap, Kec. Dusun Hilir, Kabupaten Barito Selatan, Kalimantan Tengah 73617","Batilap, Kec. Dusun Hilir, Kabupaten Barito Selatan",KALIMANTAN TENGAH,73617.0,Indonesia,,,,-2.0362996,114.8104656,https://maps.google.com/?cid=0x0:0xd8aafd7df8a4c807,
mall,Toko Pakaian,Toko IFAH,"Magantis, Kec. Dusun Tim., Kabupaten Barito Timur, Kalimantan Tengah 73671","Kec. Dusun Tim., Kabupaten Barito Timur",KALIMANTAN TENGAH,73671.0,Indonesia, 082156388278,,,-2.1330052,115.151642,https://maps.google.com/?cid=0x0:0x42098e209bee90a0,
mall,Pusat Perbelanjaan,Pasar Selasa Mengkatip,"QRPX+P95, Unnamed Road, Mengkatip, Kec. Dusun Hilir, Kabupaten Barito Selatan, Kalimantan Tengah 73762","Unnamed Road, Mengkatip, Kec. Dusun Hilir, Kabupaten Barito Selatan",KALIMANTAN TENGAH,73762.0,Indonesia,,,,-2.2132267,114.8484736,https://maps.google.com/?cid=0x0:0x15a5905cb44ca4e0,
mall,Toko,Gita Minimarket,"2392+R8W, Dayu, Kec. Karusen Janang, Kabupaten Barito Timur, Kalimantan Tengah 73652","Dayu, Kec. Karusen Janang, Kabupaten Barito Timur",KALIMANTAN TENGAH,73652.0,Indonesia,,,,-1.9803908,115.0508371,https://maps.google.com/?cid=0x0:0x4fe5c25222fb5676,
mall,Pusat Perbelanjaan,KIOS SEMBAKO RIPANA,"XR76+379, Jembatan sei Bangkuang, Batilap, Kec. Dusun Hilir, Kabupaten Barito Selatan, Kalimantan Tengah","Kabupaten Barito Selatan, Kalimantan Tengah",KALIMANTAN TENGAH,,Indonesia,,,,-2.037859,114.8107794,https://maps.google.com/?cid=0x0:0xe24aaab2fc58662d,
mall,Pusat Perbelanjaan,Toko Pa jamal,"QV95+9FF, Mengkatip, Kec. Dusun Hilir, Kabupaten Barito Selatan, Kalimantan Tengah 73762","Mengkatip, Kec. Dusun Hilir, Kabupaten Barito Selatan",KALIMANTAN TENGAH,73762.0,Indonesia,,,,-2.2315632,114.8586577,https://maps.google.com/?cid=0x0:0x944e117e74271881,
mall,Toko Alat Tulis,Fotocopy Amin,"W4FQ+839, Jl. Tamiyang Layang - Ampah, Sumur, Kec. Dusun Tim., Kabupaten Barito Timur, Kalimantan Tengah 73681","Jl. Tamiyang Layang - Ampah, Sumur, Kec. Dusun Tim., Kabupaten Barito Timur",KALIMANTAN TENGAH,73681.0,Indonesia,,,,-2.0767111,115.1377485,https://maps.google.com/?cid=0x0:0xeba947895553839c,
mall,Pusat Perbelanjaan,KIOS SELPI,"XR76+994, Batilap, Kec. Dusun Hilir, Kabupaten Barito Selatan, Kalimantan Tengah","Kabupaten Barito Selatan, Kalimantan Tengah",KALIMANTAN TENGAH,,Indonesia,,,,-2.0369643,114.8107351,https://maps.google.com/?cid=0x0:0x77bc2910dae47b40,
mall,mall,Kec. Paju Epat,"Kabupaten Barito Timur, Kalimantan Tengah","Kabupaten Barito Timur, Kalimantan Tengah",KALIMANTAN TENGAH,,Indonesia,,,,-2.2273577,114.9493867,https://maps.google.com/?cid=0x0:0x5dd06e219b0079c9,
mall,Bengkel Bubut,Bengkel Las MALL,"W44X+QQ4, Tamiang Layang, Kec. Dusun Tim., Kabupaten Barito Timur, Kalimantan Tengah 73671","Tamiang Layang, Kec. Dusun Tim., Kabupaten Barito Timur",KALIMANTAN TENGAH,73671.0,Indonesia, 081348717231,,,-2.093105,115.1494609,https://maps.google.com/?cid=0x0:0x8e43ff7e4d8eecfa,
mall,Toko,UD.Maju,"Jl. Ahmad Yani No.km.2, Tamiang Layang, Kec. Dusun Tim., Kabupaten Barito Timur, Kalimantan Tengah 73671","Tamiang Layang, Kec. Dusun Tim., Kabupaten Barito Timur",KALIMANTAN TENGAH,73671.0,Indonesia,,,,-2.0955087,115.1509847,https://maps.google.com/?cid=0x0:0x48f80ac0b3333de0,
mall,Pusat Perbelanjaan,WAROENG JALU,"Jl. Fridolin Ukur No.36, Tamiang Layang, Kec. Dusun Tim., Kabupaten Barito Timur, Kalimantan Tengah 73611","Tamiang Layang, Kec. Dusun Tim., Kabupaten Barito Timur",KALIMANTAN TENGAH,73611.0,Indonesia,,,,-2.110826,115.163556,https://maps.google.com/?cid=0x0:0x25895ca5712454ac,
mall,Pusat Perbelanjaan,Toko tohal,"V5R7+FQ4, Tamiang Layang, Kec. Dusun Tim., Kabupaten Barito Timur, Kalimantan Tengah 73671","Tamiang Layang, Kec. Dusun Tim., Kabupaten Barito Timur",KALIMANTAN TENGAH,73671.0,Indonesia, 0872253791524,,,-2.1088668,115.1644584,https://maps.google.com/?cid=0x0:0xf698927a0b050cff,
mall,mall,Kec. Paku,"Kabupaten Barito Timur, Kalimantan Tengah","Kabupaten Barito Timur, Kalimantan Tengah",KALIMANTAN TENGAH,,Indonesia,,,,-1.8714738,115.1724417,https://maps.google.com/?cid=0x0:0xc6f14ef33602736c,
mall,Kios,Toko Sham One Kupang Baru,"3487+2FH, Jl. Tamiyang Layang - Ampah Ampah, Kupang Baru, Kec. Paku, Kabupaten Barito Timur, Kalimantan Tengah 73652","Jl. Tamiyang Layang - Ampah Ampah, Kupang Baru, Kec. Paku, Kabupaten Barito Timur",KALIMANTAN TENGAH,73652.0,Indonesia,,,,-1.9349354,115.1137188,https://maps.google.com/?cid=0x0:0xfe45f6385f740416,
mall,Toko,TOKO OBRALCUCIGUDANG,"55X2+H25, Jl. Vetran Ampah, Putai, Kec. Dusun Tengah, Kabupaten Barito Timur, Kalimantan Tengah 73652","Jl. Vetran Ampah, Putai, Kec. Dusun Tengah, Kabupaten Barito Timur",KALIMANTAN TENGAH,73652.0,Indonesia,,,,-1.8011169,115.1501074,https://maps.google.com/?cid=0x0:0x18d1b0220d171ce7,
mall,Toko,LIY-Group,"Jl. Mujahidin No.RT 07, Tuyau, Kec. Pematang Karau, Kabupaten Barito Timur, Kalimantan Tengah 73653","Tuyau, Kec. Pematang Karau, Kabupaten Barito Timur",KALIMANTAN TENGAH,73653.0,Indonesia,,,,-1.8500427,115.0525302,https://maps.google.com/?cid=0x0:0x779811051d064cca,
mall,Kantor Pemerintah,Pasar Desa Lalap,"286H+GWM, Lalap, Kec. Patangkep Tutui, Kabupaten Barito Timur, Kalimantan Tengah 71572","Lalap, Kec. Patangkep Tutui, Kabupaten Barito Timur",KALIMANTAN TENGAH,71572.0,Indonesia,,,,-1.9886513,115.329806,https://maps.google.com/?cid=0x0:0xa6f17131d20c460,
mall,Kios,Kios Fida SRc,"jalan ampah buntok km 10 Rt. 05, Bararawa, Kec. Pematang Karau, Kabupaten Barito Timur, Kalimantan Tengah 73652","Bararawa, Kec. Pematang Karau, Kabupaten Barito Timur",KALIMANTAN TENGAH,73652.0,Indonesia, 081351447290,,,-1.8086008,115.0758856,https://maps.google.com/?cid=0x0:0x8cdc9c9aab83d4c5,
mall,Pusat Perbelanjaan,Toko azmi ampah,"55W4+C84, Jl. Tamiyang Layang - Ampah Ampah, Ampah Kota, Kec. Dusun Tengah, Kabupaten Barito Timur, Kalimantan Tengah 73652","Jl. Tamiyang Layang - Ampah Ampah, Ampah Kota, Kec. Dusun Tengah, Kabupaten Barito Timur",KALIMANTAN TENGAH,73652.0,Indonesia,,,,-1.8039867,115.1558238,https://maps.google.com/?cid=0x0:0xae3a367f4bd1576d,
mall,Toko Aksesori Ponsel,Gading Cell,"55X3+3X8, Ampah, Ampah Kota, Kec. Dusun Tengah, Kabupaten Barito Timur, Kalimantan Tengah 73652","Ampah, Ampah Kota, Kec. Dusun Tengah, Kabupaten Barito Timur",KALIMANTAN TENGAH,73652.0,Indonesia, 085251251414,,,-1.8023324,115.1549674,https://maps.google.com/?cid=0x0:0xd73ef76cd7a2e35a,
mall,Pasar,Toko Kencana Ampah,"55X3+8JH, Ampah, Ampah Kota, Kec. Dusun Tengah, Kabupaten Barito Timur, Kalimantan Tengah 73652","Ampah, Ampah Kota, Kec. Dusun Tengah, Kabupaten Barito Timur",KALIMANTAN TENGAH,73652.0,Indonesia,,,,-1.8016829,115.1541081,https://maps.google.com/?cid=0x0:0xbe88851d1ebb5ad,
mall,Kantor Perusahaan,Mitsubishi Ampah (Sales Services Sparepart),"Jl. Tamiyang Layang - Ampah, Rodok, Kec. Dusun Tengah, Kabupaten Barito Timur, Kalimantan Tengah 73652","Rodok, Kec. Dusun Tengah, Kabupaten Barito Timur",KALIMANTAN TENGAH,73652.0,Indonesia, 081254728184,,,-1.817098,115.175079,https://maps.google.com/?cid=0x0:0x6fabb2bdf913c225,
mall,Restoran,Dayak Ma'anyan,"Hayaping, Kec. Awang, Kabupaten Barito Timur, Kalimantan Tengah 73671","Kec. Awang, Kabupaten Barito Timur",KALIMANTAN TENGAH,73671.0,Indonesia,,,,-1.977731,115.2447869,https://maps.google.com/?cid=0x0:0xf415489259977134,
mall,Pusat Perbelanjaan,Palangkaraya Mall (Palma),"Jl. Tjilik Riwut No.1, Palangka, Kec. Jekan Raya, Kota Palangka Raya, Kalimantan Tengah 74874","Palangka, Kec. Jekan Raya, Kota Palangka Raya",KALIMANTAN TENGAH,74874.0,Indonesia,,,,-2.2065433,113.9154004,https://maps.google.com/?cid=0x0:0xe30705d17366c7e0,
mall,Pusat Perbelanjaan,Toko Dani,"55W5+73H, Ampah Kota, Kec. Dusun Tengah, Kabupaten Barito Timur, Kalimantan Tengah 73652","Ampah Kota, Kec. Dusun Tengah, Kabupaten Barito Timur",KALIMANTAN TENGAH,73652.0,Indonesia,,,,-1.8043224,115.1577325,https://maps.google.com/?cid=0x0:0xf655df9f2ba64172,
mall,Minimarket,Toko Cika,"2422+X2J, Jl. Tamiyang Layang - Ampah Ampah, Simpang Naneng, Kec. Karusen Janang, Kabupaten Barito Timur, Kalimantan Tengah 73681","Jl. Tamiyang Layang - Ampah Ampah, Simpang Naneng, Kec. Karusen Janang, Kabupaten Barito Timur",KALIMANTAN TENGAH,73681.0,Indonesia,,,,-1.9975496,115.1000104,https://maps.google.com/?cid=0x0:0x54da73f5331e8962,
mall,Pusat Perbelanjaan,Q Mall,"Jalan Ahmad Yani Km. 36,8 No.1, Komet, Kec. Banjarbaru Utara, Kota Banjar Baru, Kalimantan Selatan 70714","Komet, Kec. Banjarbaru Utara, Kota Banjar Baru",KALIMANTAN TENGAH,70714.0,Indonesia,,,,-3.4391468,114.8488339,https://maps.google.com/?cid=0x0:0xe5f6d68e79b948b,
mall,Pasar,Pasar Bambulung,"53X2+4CC, Desa, Bambulung, Kec. Pematang Karau, Kabupaten Barito Timur, Kalimantan Tengah 73652","Desa, Bambulung, Kec. Pematang Karau, Kabupaten Barito Timur",KALIMANTAN TENGAH,73652.0,Indonesia,,,,-1.8021791,115.0510161,https://maps.google.com/?cid=0x0:0x3290ca9bb0acf7f2,
mall,Pusat Perbelanjaan,Duta Mall Palangka Raya,"QW2F+G58, Langkai, Kec. Pahandut, Kota Palangka Raya, Kalimantan Tengah 74874","Langkai, Kec. Pahandut, Kota Palangka Raya",KALIMANTAN TENGAH,74874.0,Indonesia,,,,-2.248704,113.922958,https://maps.google.com/?cid=0x0:0xd4fe13501def807f,
mall,Gudang,Pabrik Tahu Joko,"55X5+V3C, Ampah Kota, Kec. Dusun Tengah, Kabupaten Barito Timur, Kalimantan Tengah 73652","Ampah Kota, Kec. Dusun Tengah, Kabupaten Barito Timur",KALIMANTAN TENGAH,73652.0,Indonesia, 085251714321,,,-1.8003018,115.1576432,https://maps.google.com/?cid=0x0:0xbe60b7a2c42a9ef3,
mall,Toko Rokok Elektrik,Royal Vapor Store,"54XW+C29, Unnamed Road, Putai, Ampah Kota, Kec. Dusun Tengah, Kabupaten Barito Timur, Kalimantan Tengah 73652","Unnamed Road, Putai, Ampah Kota, Kec. Dusun Tengah, Kabupaten Barito Timur",KALIMANTAN TENGAH,73652.0,Indonesia,,,,-1.8014567,115.1451067,https://maps.google.com/?cid=0x0:0xa0a86227fd861d4e,
mall,Pusat Perbelanjaan,Toko sepatu Almiyawi ampah,"55X2+QPF, Jl. Tamiyang Layang - Ampah, Ampah Kota, Kec. Dusun Tengah, Kabupaten Barito Timur, Kalimantan Tengah 73652","Jl. Tamiyang Layang - Ampah, Ampah Kota, Kec. Dusun Tengah, Kabupaten Barito Timur",KALIMANTAN TENGAH,73652.0,Indonesia,,,,-1.8005643,115.1517952,https://maps.google.com/?cid=0x0:0x849016c6e496bcd6,
mall,Bengkel Sepeda Motor,Yamaha Berkat Motor Ampah,"55W5+2GV, Jl. Tamiyang Layang - Ampah Ampah, Ampah Kota, Kec. Dusun Tengah, Kabupaten Barito Timur, Kalimantan Tengah 73652","Jl. Tamiyang Layang - Ampah Ampah, Ampah Kota, Kec. Dusun Tengah, Kabupaten Barito Timur",KALIMANTAN TENGAH,73652.0,Indonesia, 052231643,,,-1.8048908,115.1588023,https://maps.google.com/?cid=0x0:0xb6b1eec7d6df1ada,
mall,Pengembang Realestat,Pakuwon Mall Bekasi,"Jl. Raya Pekayon No.002, Pekayon Jaya, Kec. Bekasi Sel., Kota Bks, Jawa Barat 17148","Pekayon Jaya, Kec. Bekasi Sel., Kota Bks",KALIMANTAN TENGAH,17148.0,Indonesia, 02180609888,,,-6.2558744,106.9896919,https://maps.google.com/?cid=0x0:0xc61ce0e879f4e86b,
mall,Pusat Perbelanjaan,Gandaria City,"Jl. Sultan Iskandar Muda, Gandaria, Kec. Kby. Lama, Kota Jakarta Selatan, Daerah Khusus Ibukota Jakarta 12240","Gandaria, Kec. Kby. Lama, Kota Jakarta Selatan",KALIMANTAN TENGAH,12240.0,Indonesia, 02129052888,,,-6.2443009,106.7829375,https://maps.google.com/?cid=0x0:0x6173704d396d5a99,
mall,Pusat Perbelanjaan,Mall Kota Kasablanka,"Jl. Raya Casablanca No.Kav 88, Menteng Dalam, Kec. Tebet, Kota Jakarta Selatan, Daerah Khusus Ibukota Jakarta 12870","Menteng Dalam, Kec. Tebet, Kota Jakarta Selatan",KALIMANTAN TENGAH,12870.0,Indonesia, 02129465000,,,-6.2240353,106.8425979,https://maps.google.com/?cid=0x0:0xaf54cb631563acce,
mall,Pusat Perbelanjaan,Summarecon Mall Kelapa Gading,"Jl. Boulevard Raya, Klp. Gading Tim., Kec. Klp. Gading, Jkt Utara, Daerah Khusus Ibukota Jakarta 14240","Klp. Gading Tim., Kec. Klp. Gading, Jkt Utara",KALIMANTAN TENGAH,14240.0,Indonesia, 0214531101,,,-6.1572666,106.9084263,https://maps.google.com/?cid=0x0:0x1c1a278e20ff1c47,
mall,Komplek perumahan,Blok Paku Cimahpar,"CR4F+4X5, Jl. Babakan Indobaso Cimahpar, RT.03/RW.07, Cimahpar, Kec. Bogor Utara, Kota Bogor, Jawa Barat 16155","Jl. Babakan Indobaso Cimahpar, RT.03/RW.07, Cimahpar, Kec. Bogor Utara, Kota Bogor",KALIMANTAN TENGAH,16155.0,Indonesia, 083875027969,,,-6.5947495,106.8249886,https://maps.google.com/?cid=0x0:0x2a453cebe528cf2f,
mall,Pusat Perbelanjaan,Summarecon Mall Serpong,"Jl. Boulevard Raya Gading Serpong, Pakulonan Bar., Kec. Klp. Dua, Kabupaten Tangerang, Banten 15810","Pakulonan Bar., Kec. Klp. Dua, Kabupaten Tangerang",KALIMANTAN TENGAH,15810.0,Indonesia, 0215460888,,,-6.2409034,106.6288212,https://maps.google.com/?cid=0x0:0x355ee4742c69b52c,
mall,Pusat Perbelanjaan,Summarecon Mall Bekasi,"Sentra Summarecon Bekasi, Jl. Boulevard Ahmad Yani, Marga Mulya, Kec. Bekasi Utara, Kota Bks, Jawa Barat 17142","Jl. Boulevard Ahmad Yani, Marga Mulya, Kec. Bekasi Utara, Kota Bks",KALIMANTAN TENGAH,17142.0,Indonesia, 02129572888,,,-6.2261276,107.0010764,https://maps.google.com/?cid=0x0:0xd22a5d56809f070a,
mall,mall,Kalimantan Tengah 73671,"Kabupaten Barito Timur, Kalimantan Tengah","Kabupaten Barito Timur, Kalimantan Tengah",KALIMANTAN TENGAH,,Indonesia,,,,-2.0472411,115.2363408,https://maps.google.com/?cid=0x0:0x1e460a71bb58cdc3,
mall,Kantor Pemerintah,Pasar Desa Lalap,"286H+GWM, Lalap, Kec. Patangkep Tutui, Kabupaten Barito Timur, Kalimantan Tengah 71572","Lalap, Kec. Patangkep Tutui, Kabupaten Barito Timur",KALIMANTAN TENGAH,71572.0,Indonesia,,,,-1.9886513,115.329806,https://maps.google.com/?cid=0x0:0xa6f17131d20c460,
mall,Toko,Warung Jesni,"3923+H4Q, Kotam, Kec. Patangkep Tutui, Kabupaten Barito Timur, Kalimantan Tengah 71572","Kotam, Kec. Patangkep Tutui, Kabupaten Barito Timur",KALIMANTAN TENGAH,71572.0,Indonesia, 085248891567,,,-1.9485274,115.3528465,https://maps.google.com/?cid=0x0:0x9d00f367530f39d5,
mall,Toko,Lalam junior,"X89F+QXJ, Bentot, Kec. Patangkep Tutui, Kabupaten Barito Timur, Kalimantan Tengah 71515","Bentot, Kec. Patangkep Tutui, Kabupaten Barito Timur",KALIMANTAN TENGAH,71515.0,Indonesia, 085349335925,,,-2.0305368,115.3249012,https://maps.google.com/?cid=0x0:0x5e3b4c7c25c7713a,
mall,Toko umum,Toko Vania,"R6R8+4F3, Jaar, Kec. Dusun Tim., Kabupaten Barito Timur, Kalimantan Tengah 73661","Jaar, Kec. Dusun Tim., Kabupaten Barito Timur",KALIMANTAN TENGAH,73661.0,Indonesia,,,,-2.1597385,115.2161658,https://maps.google.com/?cid=0x0:0x3cf75c43e49259ef,
mall,Pusat Perbelanjaan,Toko Bayu,"Jl. Magantis, Tamiang Layang, Kec. Dusun Tim., Kabupaten Barito Timur, Kalimantan Tengah 73671","Tamiang Layang, Kec. Dusun Tim., Kabupaten Barito Timur",KALIMANTAN TENGAH,73671.0,Indonesia, 085332549959,,,-2.1138574,115.16263,https://maps.google.com/?cid=0x0:0xf70137ce9d593c7d,
mall,Pusat Perbelanjaan,Hokki Day's,"W4JP+VCM, Jl. Tamiyang Layang - Ampah, Sumur, Kec. Dusun Tim., Kabupaten Barito Timur, Kalimantan Tengah 73681","Jl. Tamiyang Layang - Ampah, Sumur, Kec. Dusun Tim., Kabupaten Barito Timur",KALIMANTAN TENGAH,73681.0,Indonesia, 085346801534,,,-2.0677865,115.1360423,https://maps.google.com/?cid=0x0:0xae7ee569543afdd4,
mall,Pusat Perbelanjaan,Toko tohal,"V5R7+FQ4, Tamiang Layang, Kec. Dusun Tim., Kabupaten Barito Timur, Kalimantan Tengah 73671","Tamiang Layang, Kec. Dusun Tim., Kabupaten Barito Timur",KALIMANTAN TENGAH,73671.0,Indonesia, 0872253791524,,,-2.1088668,115.1644584,https://maps.google.com/?cid=0x0:0xf698927a0b050cff,
mall,Toko,UD.Maju,"Jl. Ahmad Yani No.km.2, Tamiang Layang, Kec. Dusun Tim., Kabupaten Barito Timur, Kalimantan Tengah 73671","Tamiang Layang, Kec. Dusun Tim., Kabupaten Barito Timur",KALIMANTAN TENGAH,73671.0,Indonesia,,,,-2.0955087,115.1509847,https://maps.google.com/?cid=0x0:0x48f80ac0b3333de0,
mall,Toko Pakaian dan Peralatan Luar Ruangan,Wakat Outdoor Store,"V4P7+JFH, Unnamed Road, Sarapat (Ex Harara), Kec. Dusun Tim., Kabupaten Barito Timur, Kalimantan Tengah 73617","Unnamed Road, Sarapat (Ex Harara), Kec. Dusun Tim., Kabupaten Barito Timur",KALIMANTAN TENGAH,73617.0,Indonesia, 082153595956,,,-2.1134379,115.1137403,https://maps.google.com/?cid=0x0:0x734e8604cddfa482,
mall,Toko,Toko Usaha Baru,"V5HG+V73, Tamiang Layang, Kec. Dusun Tim., Kabupaten Barito Timur, Kalimantan Tengah 73671","Tamiang Layang, Kec. Dusun Tim., Kabupaten Barito Timur",KALIMANTAN TENGAH,73671.0,Indonesia, 082154188388,,,-2.12036,115.1756731,https://maps.google.com/?cid=0x0:0xe37193f3622778c4,
mall,Toko Pakaian,Toko IFAH,"Magantis, Kec. Dusun Tim., Kabupaten Barito Timur, Kalimantan Tengah 73671","Kec. Dusun Tim., Kabupaten Barito Timur",KALIMANTAN TENGAH,73671.0,Indonesia, 082156388278,,,-2.1330052,115.151642,https://maps.google.com/?cid=0x0:0x42098e209bee90a0,
mall,Pusat Perbelanjaan,WAROENG JALU,"Jl. Fridolin Ukur No.36, Tamiang Layang, Kec. Dusun Tim., Kabupaten Barito Timur, Kalimantan Tengah 73611","Tamiang Layang, Kec. Dusun Tim., Kabupaten Barito Timur",KALIMANTAN TENGAH,73611.0,Indonesia,,,,-2.110826,115.163556,https://maps.google.com/?cid=0x0:0x25895ca5712454ac,
mall,Toko Elektronik,Sinar Laris Jaya Group,"V5R8+QVV, Tamiang Layang, Kec. Dusun Tim., Kabupaten Barito Timur, Kalimantan Tengah 73671","Tamiang Layang, Kec. Dusun Tim., Kabupaten Barito Timur",KALIMANTAN TENGAH,73671.0,Indonesia, 082253468984,,,-2.1088337,115.1667146,https://maps.google.com/?cid=0x0:0xa5dec9d2f1f17710,
mall,Toko,TOKO MAULIDA,"TOKO MAULIDA, Jl. Ahmad Yani No.RT.18, tumpadayu, Kec. Dusun Tim., Kabupaten Barito Timur, Kalimantan Tengah 73671","Jl. Ahmad Yani No.RT.18, tumpadayu, Kec. Dusun Tim., Kabupaten Barito Timur",KALIMANTAN TENGAH,73671.0,Indonesia, 081256113975,,,-2.105037,115.1563855,https://maps.google.com/?cid=0x0:0x9f362530c995af0,
mall,Pusat Perbelanjaan,Kios Mama Irham,"Jl. Magantis, Magantis, Kec. Dusun Tim., Kabupaten Barito Timur, Kalimantan Tengah 73671","Magantis, Kec. Dusun Tim., Kabupaten Barito Timur",KALIMANTAN TENGAH,73671.0,Indonesia, 085250439494,,,-2.1308383,115.1533263,https://maps.google.com/?cid=0x0:0xe8fb1ab7a9c1ecba,
mall,Restoran,Dayak Ma'anyan,"Hayaping, Kec. Awang, Kabupaten Barito Timur, Kalimantan Tengah 73671","Kec. Awang, Kabupaten Barito Timur",KALIMANTAN TENGAH,73671.0,Indonesia,,,,-1.977731,115.2447869,https://maps.google.com/?cid=0x0:0xf415489259977134,
mall,Gudang,TB Raudah Tamiyang Layang,"V5FM+HQ5, Jl. Ps. Panas - Tamiang Layang, Matabu, Kec. Dusun Tim., Kabupaten Barito Timur, Kalimantan Tengah 73671","Jl. Ps. Panas - Tamiang Layang, Matabu, Kec. Dusun Tim., Kabupaten Barito Timur",KALIMANTAN TENGAH,73671.0,Indonesia, 081349613233,,,-2.126121,115.1844828,https://maps.google.com/?cid=0x0:0xe7cceeb88394c16e,
mall,Toko,KIOS ANJELI,"Jl. Pelita No.18, Hayaping, Kec. Awang, Kabupaten Barito Timur, Kalimantan Tengah 73671","Hayaping, Kec. Awang, Kabupaten Barito Timur",KALIMANTAN TENGAH,73671.0,Indonesia,,,,-1.9792704,115.2346489,https://maps.google.com/?cid=0x0:0x57871f8996e75c6,
mall,Toko,Toko Delina,"Jl. Nansarunai - Tamiang Layang No.26, Tamiang Layang, Kec. Dusun Tim., Kabupaten Barito Timur, Kalimantan Tengah 73671","Tamiang Layang, Kec. Dusun Tim., Kabupaten Barito Timur",KALIMANTAN TENGAH,73671.0,Indonesia, 081257936993,,,-2.1096994,115.1740916,https://maps.google.com/?cid=0x0:0xe5121f444c4ab0a4,
mall,Kantor Perusahaan,TRAVEL Jurusan Ampah-Buntok-palangkaraya,"V5H9+FJ8, Tamiang Layang, Kec. Dusun Tim., Kabupaten Barito Timur, Kalimantan Tengah 73671","Tamiang Layang, Kec. Dusun Tim., Kabupaten Barito Timur",KALIMANTAN TENGAH,73671.0,Indonesia, 085247556336,,,-2.1213293,115.1690924,https://maps.google.com/?cid=0x0:0xe67200a41ae0c44d,
mall,Toko Alat Pancing,Toko Tiur Pancing,"Jl. Ps. Panas - Tamiang Layang No.90, Tamiang Layang, Kec. Dusun Tim., Kabupaten Barito Timur, Kalimantan Tengah 73671","Tamiang Layang, Kec. Dusun Tim., Kabupaten Barito Timur",KALIMANTAN TENGAH,73671.0,Indonesia,,,,-2.1074939,115.1628283,https://maps.google.com/?cid=0x0:0x417d5612eaccefe9,
mall,mall,Kalimantan Tengah 73653,"Kabupaten Barito Selatan, Kalimantan Tengah","Kabupaten Barito Selatan, Kalimantan Tengah",KALIMANTAN TENGAH,,Indonesia,,,,-1.7491595,114.9754175,https://maps.google.com/?cid=0x0:0xd6ed047f12362357,
mall,Pembangunan Perumahan,Saniah_Alif,"633W+H2, Lampeong, Kec. Pematang Karau, Kabupaten Barito Timur, Kalimantan Tengah","Kabupaten Barito Timur, Kalimantan Tengah",KALIMANTAN TENGAH,,Indonesia,,,,-1.7960731,115.0950847,https://maps.google.com/?cid=0x0:0xd83a4adec999d971,
mall,Pasar,Pasar Bambulung,"53X2+4CC, Desa, Bambulung, Kec. Pematang Karau, Kabupaten Barito Timur, Kalimantan Tengah 73652","Desa, Bambulung, Kec. Pematang Karau, Kabupaten Barito Timur",KALIMANTAN TENGAH,73652.0,Indonesia,,,,-1.8021791,115.0510161,https://maps.google.com/?cid=0x0:0x3290ca9bb0acf7f2,
mall,Komplek perumahan,Pasar Talio,"5R4H+J4M, Talio, Kec. Karau Kuala, Kabupaten Barito Selatan, Kalimantan Tengah 73713","Talio, Kec. Karau Kuala, Kabupaten Barito Selatan",KALIMANTAN TENGAH,73713.0,Indonesia,,,,-1.8434146,114.8278107,https://maps.google.com/?cid=0x0:0x897c34ba2e1635e5,
mall,Pusat Perbelanjaan,Plaza Beringin,"7RHM+7H2, Pasar beringin, Buntok Kota, Kec. Dusun Sel., Kabupaten Barito Selatan, Kalimantan Tengah 73711","Pasar beringin, Buntok Kota, Kec. Dusun Sel., Kabupaten Barito Selatan",KALIMANTAN TENGAH,73711.0,Indonesia,,,,-1.7218618,114.8339035,https://maps.google.com/?cid=0x0:0xafcbc85d52db905d,
mall,Kios,Kios Fida SRc,"jalan ampah buntok km 10 Rt. 05, Bararawa, Kec. Pematang Karau, Kabupaten Barito Timur, Kalimantan Tengah 73652","Bararawa, Kec. Pematang Karau, Kabupaten Barito Timur",KALIMANTAN TENGAH,73652.0,Indonesia, 081351447290,,,-1.8086008,115.0758856,https://maps.google.com/?cid=0x0:0x8cdc9c9aab83d4c5,
mall,Bangunan Bersejarah,Pasar Muara Plantau,"3X7X+CJJ, Muara Palantau, Kec. Pematang Karau, Kabupaten Barito Timur, Kalimantan Tengah 73652","Muara Palantau, Kec. Pematang Karau, Kabupaten Barito Timur",KALIMANTAN TENGAH,73652.0,Indonesia,,,,-1.9364001,114.9990232,https://maps.google.com/?cid=0x0:0xdf5e09ec7bc908ff,
mall,,Kios indah,"5R2P+QM8, Talio, Kec. Karau Kuala, Kabupaten Barito Selatan, Kalimantan Tengah 73713","Talio, Kec. Karau Kuala, Kabupaten Barito Selatan",KALIMANTAN TENGAH,73713.0,Indonesia,,,,-1.847507,114.835937,https://maps.google.com/?cid=0x0:0x2b5f05f392874902,
mall,Komplek perumahan,Rumah Milagros,"7R9R+CXF, Hilir Sper, Kec. Dusun Sel., Kabupaten Barito Selatan, Kalimantan Tengah 73751","Hilir Sper, Kec. Dusun Sel., Kabupaten Barito Selatan",KALIMANTAN TENGAH,73751.0,Indonesia, 085245128333,,,-1.7314276,114.842408,https://maps.google.com/?cid=0x0:0x52453c5620a42f3b,
mall,Pasar,Alfamart ugang sayu,"94GW+F69, Unnamed Road, Palu Rejo, Kec. Gn. Bintang Awai, Kabupaten Barito Selatan, Kalimantan Tengah 73652","Unnamed Road, Palu Rejo, Kec. Gn. Bintang Awai, Kabupaten Barito Selatan",KALIMANTAN TENGAH,73652.0,Indonesia,,,,-1.62383,115.1456083,https://maps.google.com/?cid=0x0:0xa1d31067dde93b85,
mall,Minimarket,Alfamart Kaladan Desa Hilir Sper,"7R9V+78R, Hilir Sper, Kec. Dusun Sel., Kabupaten Barito Selatan, Kalimantan Tengah 73751","Hilir Sper, Kec. Dusun Sel., Kabupaten Barito Selatan",KALIMANTAN TENGAH,73751.0,Indonesia,,,,-1.7317654,114.8432807,https://maps.google.com/?cid=0x0:0x87514a489cda4a21,
mall,Toko bahan makanan,Faiz Shop,"7RGR+W4J, Hilir Sper, Kec. Dusun Sel., Kabupaten Barito Selatan, Kalimantan Tengah 73751","Hilir Sper, Kec. Dusun Sel., Kabupaten Barito Selatan",KALIMANTAN TENGAH,73751.0,Indonesia, 085250869292,,,-1.7226631,114.840278,https://maps.google.com/?cid=0x0:0xd58ae5f086f66690,
mall,Pusat Perbelanjaan,TOKO BULL PHOTO,"pasar beringin, Buntok Kota, Kec. Dusun Sel., Kabupaten Barito Selatan, Kalimantan Tengah 73711","Buntok Kota, Kec. Dusun Sel., Kabupaten Barito Selatan",KALIMANTAN TENGAH,73711.0,Indonesia, 082251367174,,,-1.7194196,114.8322057,https://maps.google.com/?cid=0x0:0x4e25b8c869645807,
mall,Pusat Perbelanjaan,Aaron22,"Unnamed Road, Batuah, Kec. Raren Batuah, Kabupaten Barito Timur, Kalimantan Tengah 73652","Batuah, Kec. Raren Batuah, Kabupaten Barito Timur",KALIMANTAN TENGAH,73652.0,Indonesia, 081250593364,,,-1.732772,115.1847706,https://maps.google.com/?cid=0x0:0x692e9576a53b3289,
mall,Pemandian Umum,Rawen,"7RVV+8XC, Buntok Kota, Kec. Dusun Sel., Kabupaten Barito Selatan, Kalimantan Tengah 73751","Buntok Kota, Kec. Dusun Sel., Kabupaten Barito Selatan",KALIMANTAN TENGAH,73751.0,Indonesia,,,,-1.7066776,114.844879,https://maps.google.com/?cid=0x0:0x6ea551aee23b7682,
mall,Pusat Perbelanjaan,putri karuniani,"94FW+94P, Ugang Sayu, Kec. Gn. Bintang Awai, Kabupaten Barito Selatan, Kalimantan Tengah 73652","Ugang Sayu, Kec. Gn. Bintang Awai, Kabupaten Barito Selatan",KALIMANTAN TENGAH,73652.0,Indonesia,,,,-1.6265436,115.1453364,https://maps.google.com/?cid=0x0:0xa706f7d220801e3a,
mall,Pusat Perbelanjaan,Mama Ema,"3X7X+4CV, Muara Palantau, Kec. Pematang Karau, Kabupaten Barito Timur, Kalimantan Tengah 73652","Muara Palantau, Kec. Pematang Karau, Kabupaten Barito Timur",KALIMANTAN TENGAH,73652.0,Indonesia, 085348065252,,,-1.9372296,114.9985671,https://maps.google.com/?cid=0x0:0x26cd1fc0e15d6e7a,
mall,Pusat Perbelanjaan,Pelen,"6522+475, Sungai kuruk tiga, Kec. Dusun Tengah, Kabupaten Barito Timur, Kalimantan Tengah 73652","Sungai kuruk tiga, Kec. Dusun Tengah, Kabupaten Barito Timur",KALIMANTAN TENGAH,73652.0,Indonesia,,,,-1.7997404,115.1507466,https://maps.google.com/?cid=0x0:0xeb751d8660d3689c,
mall,Pasar,PASAR DESA PALUREJO,"95GJ+8GC, Palu Rejo, Kec. Gn. Bintang Awai, Kabupaten Barito Selatan, Kalimantan Tengah 73652","Palu Rejo, Kec. Gn. Bintang Awai, Kabupaten Barito Selatan",KALIMANTAN TENGAH,73652.0,Indonesia,,,,-1.6241762,115.1812759,https://maps.google.com/?cid=0x0:0x8d4ff267aa4f101f,
mall,Toko,Lely Member MSI,"Jl. Panglima Batur Gg. Kecil No.50, RT.012/RW.003, Buntok Kota, Kec. Dusun Sel., Kabupaten Barito Selatan, Kalimantan Tengah 73751","RT.012/RW.003, Buntok Kota, Kec. Dusun Sel., Kabupaten Barito Selatan",KALIMANTAN TENGAH,73751.0,Indonesia, 081348191897,,,-1.7205893,114.8369863,https://maps.google.com/?cid=0x0:0x4efce8aea3bfbc00,
mall,Toko,Warung Jerri,"7RFQ+665, Hilir Sper, Kec. Dusun Sel., Kabupaten Barito Selatan, Kalimantan Tengah 73751","Hilir Sper, Kec. Dusun Sel., Kabupaten Barito Selatan",KALIMANTAN TENGAH,73751.0,Indonesia, 085251710048,,,-1.7269899,114.8380994,https://maps.google.com/?cid=0x0:0xdb78bd74fa877336,
mall,Toko Perlengkapan Rumah,Musdalifah OLSHOP,"7RCQ+WGF, Jl. Ibunda Gg.Nusantara, Hilir Sper, Kec. Dusun Sel., Kabupaten Barito Selatan, Kalimantan Tengah 73751","Jl. Ibunda Gg.Nusantara, Hilir Sper, Kec. Dusun Sel., Kabupaten Barito Selatan",KALIMANTAN TENGAH,73751.0,Indonesia, 082252707004,,,-1.727691,114.8388102,https://maps.google.com/?cid=0x0:0xc068c723e889dc07,
mall,mall,Kec. Raren Batuah,"Kabupaten Barito Timur, Kalimantan Tengah","Kabupaten Barito Timur, Kalimantan Tengah",KALIMANTAN TENGAH,,Indonesia,,,,-1.7435641,115.1517853,https://maps.google.com/?cid=0x0:0x581b014235e95caf,
mall,Toko,Toko BagasNaomi,"75CP+33W, Unnamed Road, Batuah, Kec. Raren Batuah, Kabupaten Barito Timur, Kalimantan Tengah 73652","Unnamed Road, Batuah, Kec. Raren Batuah, Kabupaten Barito Timur",KALIMANTAN TENGAH,73652.0,Indonesia, 081253250468,,,-1.7297744,115.185192,https://maps.google.com/?cid=0x0:0x5b4bfd9b149e67a2,
mall,Pusat Perbelanjaan,Aaron22,"Unnamed Road, Batuah, Kec. Raren Batuah, Kabupaten Barito Timur, Kalimantan Tengah 73652","Batuah, Kec. Raren Batuah, Kabupaten Barito Timur",KALIMANTAN TENGAH,73652.0,Indonesia, 081250593364,,,-1.732772,115.1847706,https://maps.google.com/?cid=0x0:0x692e9576a53b3289,
mall,Pembangunan Perumahan,Saniah_Alif,"633W+H2, Lampeong, Kec. Pematang Karau, Kabupaten Barito Timur, Kalimantan Tengah","Kabupaten Barito Timur, Kalimantan Tengah",KALIMANTAN TENGAH,,Indonesia,,,,-1.7960731,115.0950847,https://maps.google.com/?cid=0x0:0xd83a4adec999d971,
supermarket,supermarket,Kalimantan Tengah 73681,"Kabupaten Barito Timur, Kalimantan Tengah","Kabupaten Barito Timur, Kalimantan Tengah",KALIMANTAN TENGAH,,Indonesia,,,,-1.9957549,115.1177654,https://maps.google.com/?cid=0x0:0xad325f18fddf1160,
supermarket,Toko,TOKO HOLLY,"X48M+GCP, Jaweten, Kec. Dusun Tim., Kabupaten Barito Timur, Kalimantan Tengah 73681","Jaweten, Kec. Dusun Tim., Kabupaten Barito Timur",KALIMANTAN TENGAH,73681.0,Indonesia, 081348293651,,,-2.0336719,115.133566,https://maps.google.com/?cid=0x0:0x85a053db502f6ce8,
supermarket,Toko bahan makanan,Toko Pemi,"239G+M95, Jl. Tamiyang Layang - Ampah Ampah, Dayu, Kec. Dusun Tim., Kabupaten Barito Timur, Kalimantan Tengah 73652","Jl. Tamiyang Layang - Ampah Ampah, Dayu, Kec. Dusun Tim., Kabupaten Barito Timur",KALIMANTAN TENGAH,73652.0,Indonesia, 085347738766,,,-1.980858,115.0759983,https://maps.google.com/?cid=0x0:0xd2585ecc88b5822,
supermarket,Dapur Umum,Toko Willy Dayu,"Dayu, Kec. Karusen Janang, Kabupaten Barito Timur, Kalimantan Tengah 73652","Kec. Karusen Janang, Kabupaten Barito Timur",KALIMANTAN TENGAH,73652.0,Indonesia,,,,-1.9810885,115.0761107,https://maps.google.com/?cid=0x0:0x9b7b1673c2530e3,
supermarket,Toko Beras,Toko YAYAN,"34GG+JGV, Tampa, Kec. Paku, Kabupaten Barito Timur, Kalimantan Tengah 73652","Tampa, Kec. Paku, Kabupaten Barito Timur",KALIMANTAN TENGAH,73652.0,Indonesia, 081545388887,,,-1.9233974,115.126285,https://maps.google.com/?cid=0x0:0x978af98783f04eef,
supermarket,Toko,Toko usaha kita,"RT 03, Danau, Kec. Awang, Kabupaten Barito Timur, Kalimantan Tengah 73671","Danau, Kec. Awang, Kabupaten Barito Timur",KALIMANTAN TENGAH,73671.0,Indonesia, 085368873950,,,-1.9268519,115.2541233,https://maps.google.com/?cid=0x0:0xaa38bb35eb0749d0,
supermarket,Salon Kecantikan,Salon MELDA,"W47R+VJG, Sumur, Kec. Dusun Tim., Kabupaten Barito Timur, Kalimantan Tengah 73681","Sumur, Kec. Dusun Tim., Kabupaten Barito Timur",KALIMANTAN TENGAH,73681.0,Indonesia,,,,-2.0853023,115.1415792,https://maps.google.com/?cid=0x0:0x2c85ea08d04289a2,
supermarket,Minimarket,Toko anugerah,"V5Q8+6FQ, Jl. Ahmad Yani, Tamiang Layang, Kec. Dusun Tim., Kabupaten Barito Timur, Kalimantan Tengah 73671","Jl. Ahmad Yani, Tamiang Layang, Kec. Dusun Tim., Kabupaten Barito Timur",KALIMANTAN TENGAH,73671.0,Indonesia, 081385657791,,,-2.1119027,115.1662216,https://maps.google.com/?cid=0x0:0xdb41b1cd8cc34b52,
supermarket,Toko,Toko Ade,"V5P9+H6H, Jl. Ps. Panas - Tamiang Layang, Tamiang Layang, Kec. Dusun Tim., Kabupaten Barito Timur, Kalimantan Tengah 73671","Jl. Ps. Panas - Tamiang Layang, Tamiang Layang, Kec. Dusun Tim., Kabupaten Barito Timur",KALIMANTAN TENGAH,73671.0,Indonesia,,,,-2.1135606,115.1681235,https://maps.google.com/?cid=0x0:0xcc0cd14871538694,
supermarket,Penyedia Jasa Paralegal,Toko jasa bersama/warung makan paliat,"Jl. Ahmad Yani No.90, Tamiang Layang, Kec. Dusun Tim., Kabupaten Barito Timur, Kalimantan Tengah 73671","Tamiang Layang, Kec. Dusun Tim., Kabupaten Barito Timur",KALIMANTAN TENGAH,73671.0,Indonesia,,,,-2.1212368,115.1762673,https://maps.google.com/?cid=0x0:0x9827bfdba0f09160,
supermarket,Kios,Kios Gina Pangkan,"46C5+MRF, Pangkan, Kec. Paku, Kabupaten Barito Timur, Kalimantan Tengah 73652","Pangkan, Kec. Paku, Kabupaten Barito Timur",KALIMANTAN TENGAH,73652.0,Indonesia,,,,-1.878313,115.2095448,https://maps.google.com/?cid=0x0:0x4551e238cfc81841,
supermarket,Minimarket,Toko Awang,"Jl. Pisangan Lama I No.41 5, RT.10/RW.1, Pisangan Tim., Kec. Pulo Gadung, Kota Jakarta Timur, Daerah Khusus Ibukota Jakarta 13230","RT.10/RW.1, Pisangan Tim., Kec. Pulo Gadung, Kota Jakarta Timur",KALIMANTAN TENGAH,13230.0,Indonesia, 081729662717,,,-6.2110078,106.8748998,https://maps.google.com/?cid=0x0:0xfb8a8e8035e0df07,
supermarket,Minimarket,Sabari,"Jl. Pisangan Lama No.21 1, RT.1/RW.2, Pisangan Tim., Kec. Pulo Gadung, Kota Jakarta Timur, Daerah Khusus Ibukota Jakarta 13230","RT.1/RW.2, Pisangan Tim., Kec. Pulo Gadung, Kota Jakarta Timur",KALIMANTAN TENGAH,13230.0,Indonesia, 081376392941,,,-6.2140676,106.8764261,https://maps.google.com/?cid=0x0:0x4e0800439523d597,
supermarket,supermarket,Kalimantan Tengah 73661,"Kec. Benua Lima, Kabupaten Barito Timur, Kalimantan Tengah","Kabupaten Barito Timur, Kalimantan Tengah",KALIMANTAN TENGAH,,Indonesia,,,,-2.2459171,115.1177654,https://maps.google.com/?cid=0x0:0x6244b86fbc9e52c1,
supermarket,Pusat Perbelanjaan,FAMILY MART,"V626+C73, Jaar, Kec. Dusun Tim., Kabupaten Barito Timur, Kalimantan Tengah 73671","Jaar, Kec. Dusun Tim., Kabupaten Barito Timur",KALIMANTAN TENGAH,73671.0,Indonesia,,,,-2.148975,115.2106714,https://maps.google.com/?cid=0x0:0x8fd4314a10675a2c,
supermarket,Minimarket,Toko anugerah,"V5Q8+6FQ, Jl. Ahmad Yani, Tamiang Layang, Kec. Dusun Tim., Kabupaten Barito Timur, Kalimantan Tengah 73671","Jl. Ahmad Yani, Tamiang Layang, Kec. Dusun Tim., Kabupaten Barito Timur",KALIMANTAN TENGAH,73671.0,Indonesia, 081385657791,,,-2.1119027,115.1662216,https://maps.google.com/?cid=0x0:0xdb41b1cd8cc34b52,
supermarket,Penyedia Jasa Paralegal,Toko jasa bersama/warung makan paliat,"Jl. Ahmad Yani No.90, Tamiang Layang, Kec. Dusun Tim., Kabupaten Barito Timur, Kalimantan Tengah 73671","Tamiang Layang, Kec. Dusun Tim., Kabupaten Barito Timur",KALIMANTAN TENGAH,73671.0,Indonesia,,,,-2.1212368,115.1762673,https://maps.google.com/?cid=0x0:0x9827bfdba0f09160,
supermarket,Sarapan,Warung Iqbal,"V5FM+9X2, Jl. Ps. Panas - Tamiang Layang, Matabu, Kec. Dusun Tim., Kabupaten Barito Timur, Kalimantan Tengah 73671","Jl. Ps. Panas - Tamiang Layang, Matabu, Kec. Dusun Tim., Kabupaten Barito Timur",KALIMANTAN TENGAH,73671.0,Indonesia, 085387988087,,,-2.1266008,115.184883,https://maps.google.com/?cid=0x0:0xa2d0fcb789115a37,
supermarket,,Kios Tunukan Rama,"R6PC+433, Jl. Ps. Panas - Tamiang Layang, Jaar, Kec. Dusun Tim., Kabupaten Barito Timur, Kalimantan Tengah 73661","Jl. Ps. Panas - Tamiang Layang, Jaar, Kec. Dusun Tim., Kabupaten Barito Timur",KALIMANTAN TENGAH,73661.0,Indonesia,,,,-2.1647423,115.220169,https://maps.google.com/?cid=0x0:0x1b52a06cafafb3f4,
supermarket,Toko Swalayan,toko aisya,"V59R+HVW, Jl. Ps. Panas - Tamiang Layang, Mangkarap, Kec. Dusun Tim., Kabupaten Barito Timur, Kalimantan Tengah 73671","Jl. Ps. Panas - Tamiang Layang, Mangkarap, Kec. Dusun Tim., Kabupaten Barito Timur",KALIMANTAN TENGAH,73671.0,Indonesia,,,,-2.1310104,115.1922148,https://maps.google.com/?cid=0x0:0xd9a625e5eba6351b,
supermarket,Jembatan,"Toko Ulpah Jembatan Layang Adaro Desa Pasar Panas Kec, Kelua Kab, Tabalong Kalsel","Q7V2+7VH, Jl. Kelua - Ps. Panas, Ps. Panas, Kec. Kelua, Kabupaten Tabalong, Kalimantan Selatan 73661","Jl. Kelua - Ps. Panas, Ps. Panas, Kec. Kelua, Kabupaten Tabalong",KALIMANTAN TENGAH,73661.0,Indonesia, 085285135757,,,-2.2068133,115.252249,https://maps.google.com/?cid=0x0:0x335d3bb4bcd0dbc4,
supermarket,Toko Swalayan,Toko Rahma 24 jam,"Q7R3+JHR, Jl. Kelua - Ps. Panas, Ps. Panas, Kec. Kelua, Kabupaten Tabalong, Kalimantan Selatan 73661","Jl. Kelua - Ps. Panas, Ps. Panas, Kec. Kelua, Kabupaten Tabalong",KALIMANTAN TENGAH,73661.0,Indonesia, 082250208069,,,-2.2083831,115.2538942,https://maps.google.com/?cid=0x0:0x5fed959da89edbf5,
supermarket,Toko,Toko Ade,"V5P9+H6H, Jl. Ps. Panas - Tamiang Layang, Tamiang Layang, Kec. Dusun Tim., Kabupaten Barito Timur, Kalimantan Tengah 73671","Jl. Ps. Panas - Tamiang Layang, Tamiang Layang, Kec. Dusun Tim., Kabupaten Barito Timur",KALIMANTAN TENGAH,73671.0,Indonesia,,,,-2.1135606,115.1681235,https://maps.google.com/?cid=0x0:0xcc0cd14871538694,
supermarket,Toko Perlengkapan Rumah,Toko ifit,"Q7F8+63R, Karangan Putih, Kec. Kelua, Kabupaten Tabalong, Kalimantan Selatan 71552","Karangan Putih, Kec. Kelua, Kabupaten Tabalong",KALIMANTAN TENGAH,71552.0,Indonesia, 081348117687,,,-2.2268971,115.2651343,https://maps.google.com/?cid=0x0:0x6822dfbdae256b5,
supermarket,Toko Swalayan,Kios Bajar,"V55X+8MF, Jl. Ps. Panas - Tamiang Layang, Jaar, Kec. Dusun Tim., Kabupaten Barito Timur, Kalimantan Tengah 73671","Jl. Ps. Panas - Tamiang Layang, Jaar, Kec. Dusun Tim., Kabupaten Barito Timur",KALIMANTAN TENGAH,73671.0,Indonesia, 082351514742,,,-2.141687,115.1991631,https://maps.google.com/?cid=0x0:0x5da0b99a230de4bc,
supermarket,Toko Swalayan,Toko Aray,"V55X+F9X, Jl. Ps. Panas - Tamiang Layang, Jaar, Kec. Dusun Tim., Kabupaten Barito Timur, Kalimantan Tengah 73671","Jl. Ps. Panas - Tamiang Layang, Jaar, Kec. Dusun Tim., Kabupaten Barito Timur",KALIMANTAN TENGAH,73671.0,Indonesia, 085345657585,,,-2.1412748,115.198493,https://maps.google.com/?cid=0x0:0xc0be20d59ec7e208,
supermarket,Toko Swalayan,Toko Erma,"Q7J6+J92, Ps. Panas, Kec. Kelua, Kabupaten Tabalong, Kalimantan Selatan 71552","Ps. Panas, Kec. Kelua, Kabupaten Tabalong",KALIMANTAN TENGAH,71552.0,Indonesia, 085392145748,,,-2.2184786,115.260876,https://maps.google.com/?cid=0x0:0xe175c2b71c4b6002,
supermarket,Peternakan Ayam,Agen telur ayam,"Perumahan, Jalam Permai No.RT 04, Mangkarap, Kec. Dusun Tim., Kabupaten Barito Timur, Kalimantan Tengah 73671","Jalam Permai No.RT 04, Mangkarap, Kec. Dusun Tim., Kabupaten Barito Timur",KALIMANTAN TENGAH,73671.0,Indonesia, 082186560135,,,-2.1273996,115.1960006,https://maps.google.com/?cid=0x0:0xd664c5c28bfe2b4f,
supermarket,Toko bahan makanan,TABALONG-RELOAD,"Q7P2+6FV, Ps. Panas, Kec. Kelua, Kabupaten Tabalong, Kalimantan Selatan 71552","Ps. Panas, Kec. Kelua, Kabupaten Tabalong",KALIMANTAN TENGAH,71552.0,Indonesia, 082351866764,,,-2.2143786,115.2511596,https://maps.google.com/?cid=0x0:0x95a21a8b7fe71052,
supermarket,Dapur Umum,Wr.Mama Saniah,"RT.04 No 13 Kec., Karangan Putih, Kec. Kelua, Kabupaten Tabalong, Kalimantan Selatan 71552","Karangan Putih, Kec. Kelua, Kabupaten Tabalong",KALIMANTAN TENGAH,71552.0,Indonesia, 082251047480,,,-2.2533674,115.2807588,https://maps.google.com/?cid=0x0:0xf3a00f04e3985f0f,
supermarket,Toko Swalayan,KIOS RAHMAN,"simpang 3 batu bara No.Rt.03, Ps. Panas, Kec. Kelua, Kabupaten Tabalong, Kalimantan Selatan","Kabupaten Tabalong, Kalimantan Selatan",KALIMANTAN TENGAH,,Indonesia,,,,-2.2143787,115.2511596,https://maps.google.com/?cid=0x0:0xffb752ad58808bb7,
supermarket,Kios,Aisyah Celluler,"Jalan Sei Rukam No.1, Sungai Anyar, Banua Lawas, Tabalong Regency, South Kalimantan 71552","Sungai Anyar, Banua Lawas, Tabalong Regency",KALIMANTAN TENGAH,71552.0,Indonesia,,,,-2.3143701,115.2845293,https://maps.google.com/?cid=0x0:0x96ec6741b5345fdf,
supermarket,Pusat Perbelanjaan,KIOS MAMA ALEX,"V5XH+5HR, Dorong, Kec. Dusun Tim., Kabupaten Barito Timur, Kalimantan Tengah 73671","Dorong, Kec. Dusun Tim., Kabupaten Barito Timur",KALIMANTAN TENGAH,73671.0,Indonesia,,,,-2.1020018,115.1789005,https://maps.google.com/?cid=0x0:0x75a4d5798e5a8b35,
supermarket,Minimarket,Minimarket Flamboyant,"RCP2+HHJ, Jl. Pembataan Bangun Sari, Belimbing Raya, Kec. Murung Pudak, Kabupaten Tabalong, Kalimantan Selatan 71571","Jl. Pembataan Bangun Sari, Belimbing Raya, Kec. Murung Pudak, Kabupaten Tabalong",KALIMANTAN TENGAH,71571.0,Indonesia,,,,-2.1635333,115.4013897,https://maps.google.com/?cid=0x0:0x27d024b12a60f7df,
supermarket,Toko Kesehatan dan Kecantikan,Toko ACPA dan Biokopi Tabalong,"Pamarangan Kiwa, Kec. Tj., Kabupaten Tabalong, Kalimantan Selatan 71515","Kec. Tj., Kabupaten Tabalong",KALIMANTAN TENGAH,71515.0,Indonesia, 085251108609,,,-2.1937199,115.3480272,https://maps.google.com/?cid=0x0:0xae5034381c1385ff,
supermarket,Toko bahan makanan,Toko Raja,"R85X+6WV, Pamarangan Kiwa, Kec. Tj., Kabupaten Tabalong, Kalimantan Selatan 71515","Pamarangan Kiwa, Kec. Tj., Kabupaten Tabalong",KALIMANTAN TENGAH,71515.0,Indonesia,,,,-2.1918893,115.3497862,https://maps.google.com/?cid=0x0:0xc88c662911f603ec,
supermarket,Minimarket,Toko Rahmat,"RCC9+XQP, Jl. A. Yani, Mabuun, Kec. Murung Pudak, Kabupaten Tabalong, Kalimantan Selatan 71571","Jl. A. Yani, Mabuun, Kec. Murung Pudak, Kabupaten Tabalong",KALIMANTAN TENGAH,71571.0,Indonesia,,,,-2.1775381,115.4194622,https://maps.google.com/?cid=0x0:0xb01e666050ab85a7,
supermarket,Toko,Toko H. Amat/ Toko Mursidah,"M97H+567, Unnamed Road, Lok Panginangan, Kec. Lampihong, Kabupaten Balangan, Kalimantan Selatan 71661","Unnamed Road, Lok Panginangan, Kec. Lampihong, Kabupaten Balangan",KALIMANTAN TENGAH,71661.0,Indonesia,,,,-2.3370806,115.3780572,https://maps.google.com/?cid=0x0:0x5655e6c5ba632632,
supermarket,supermarket,Kios nova,"R7H8+W4M, Bamban, Kec. Benua Lima, Kabupaten Barito Timur, Kalimantan Tengah","Kabupaten Barito Timur, Kalimantan Tengah",KALIMANTAN TENGAH,,Indonesia, 081348212916,,,-2.170462,115.264345,https://maps.google.com/?cid=0x0:0x713cfe9c46253f91,
supermarket,Toko sembako pemerintah,Toko alfi simpang 3,"R62R+JGM, Jl. Pasar Panas-Bentot, Kandris, Kec. Benua Lima, Kabupaten Barito Timur, Kalimantan Tengah 73661","Jl. Pasar Panas-Bentot, Kandris, Kec. Benua Lima, Kabupaten Barito Timur",KALIMANTAN TENGAH,73661.0,Indonesia, 085248186056,,,-2.198422,115.2412935,https://maps.google.com/?cid=0x0:0x9c1a5e3b5065dbd9,
supermarket,Pusat Perbelanjaan,Mini Market Winda,"Matabu, Kec. Dusun Tim., Kabupaten Barito Timur, Kalimantan Tengah 73671","Kec. Dusun Tim., Kabupaten Barito Timur",KALIMANTAN TENGAH,73671.0,Indonesia,,,,-2.1261013,115.1845868,https://maps.google.com/?cid=0x0:0xf9ee9963c3f57d11,
supermarket,Toko bahan makanan,Fadil Kandris,"R65W+X2M, Kandris, Kec. Benua Lima, Kabupaten Barito Timur, Kalimantan Tengah 73661","Kandris, Kec. Benua Lima, Kabupaten Barito Timur",KALIMANTAN TENGAH,73661.0,Indonesia, 081351910051,,,-2.1900353,115.2450468,https://maps.google.com/?cid=0x0:0xeb36c074f060385d,
supermarket,supermarket,Kec. Dusun Tengah,"Kabupaten Barito Timur, Kalimantan Tengah","Kabupaten Barito Timur, Kalimantan Tengah",KALIMANTAN TENGAH,,Indonesia,,,,-1.7997404,115.1507466,https://maps.google.com/?cid=0x0:0xca2b51c229ce230f,
supermarket,Toko Swalayan,Toko Yadi Tinghui,"65M2+PJ8, Jl. Pahlawan, Ampah Kota, Kec. Dusun Tengah, Kabupaten Barito Timur, Kalimantan Tengah 73652","Jl. Pahlawan, Ampah Kota, Kec. Dusun Tengah, Kabupaten Barito Timur",KALIMANTAN TENGAH,73652.0,Indonesia,,,,-1.7657165,115.1515731,https://maps.google.com/?cid=0x0:0xfc616c37766e4945,
supermarket,Toko bahan makanan,SRC eka,"6524+WPJ, Ampah, Ampah Kota, Kec. Dusun Tengah, Kabupaten Barito Timur, Kalimantan Tengah 73652","Ampah, Ampah Kota, Kec. Dusun Tengah, Kabupaten Barito Timur",KALIMANTAN TENGAH,73652.0,Indonesia,,,,-1.7976599,115.1567644,https://maps.google.com/?cid=0x0:0x2ae50a699826cf14,
supermarket,Toko makanan beku,Warung mamah salwa,"54XR+6GM, Ampah Kota, Kec. Dusun Tengah, Kabupaten Barito Timur, Kalimantan Tengah 73652","Ampah Kota, Kec. Dusun Tengah, Kabupaten Barito Timur",KALIMANTAN TENGAH,73652.0,Indonesia, 085821811058,,,-1.801807,115.1409483,https://maps.google.com/?cid=0x0:0x880d39c9a4681b3b,
supermarket,Toko Kelontong Asia,WARUNG NUZHAH  NAJLA,"55HH+QGV, Jl. Tamiyang Layang - Ampah Ampah, Rodok, Kec. Dusun Tengah, Kabupaten Barito Timur, Kalimantan Tengah 73652","Jl. Tamiyang Layang - Ampah Ampah, Rodok, Kec. Dusun Tengah, Kabupaten Barito Timur",KALIMANTAN TENGAH,73652.0,Indonesia,,,,-1.8205087,115.1788044,https://maps.google.com/?cid=0x0:0xeb32465244482bf7,
supermarket,Toko bahan makanan,TOKO RULLY,"Ampah Kota, Kec. Dusun Tengah, Kabupaten Barito Timur, Kalimantan Tengah 73652","Kec. Dusun Tengah, Kabupaten Barito Timur",KALIMANTAN TENGAH,73652.0,Indonesia, 052231481,,,-1.7995777,115.1509772,https://maps.google.com/?cid=0x0:0xaf91f4a4323a1fa1,
supermarket,Toko,Toko jaya,"54WF+J46, Unnamed Road, Putai, Kec. Dusun Tengah, Kabupaten Barito Timur, Kalimantan Tengah 73652","Unnamed Road, Putai, Kec. Dusun Tengah, Kabupaten Barito Timur",KALIMANTAN TENGAH,73652.0,Indonesia, 083159311731,,,-1.8034695,115.1227633,https://maps.google.com/?cid=0x0:0x8b3e903ef1dc07ba,
supermarket,Toko bahan makanan,Toko Beras H.MUHSIR,"55X3+7QC, Jl. Tamiyang Layang - Ampah Ampah, Ampah Kota, Kec. Dusun Tengah, Kabupaten Barito Timur, Kalimantan Tengah 73652","Jl. Tamiyang Layang - Ampah Ampah, Ampah Kota, Kec. Dusun Tengah, Kabupaten Barito Timur",KALIMANTAN TENGAH,73652.0,Indonesia, 081251821413,,,-1.8018078,115.1544043,https://maps.google.com/?cid=0x0:0x514a8265587655b,
supermarket,Toko Swalayan,toko yadi senjaya,"65Q3+334, Ampah Kota, Kec. Dusun Tengah, Kabupaten Barito Timur, Kalimantan Tengah 73652","Ampah Kota, Kec. Dusun Tengah, Kabupaten Barito Timur",KALIMANTAN TENGAH,73652.0,Indonesia,,,,-1.7623708,115.1526917,https://maps.google.com/?cid=0x0:0x57f104b0b41483f8,
supermarket,Toko Swalayan,Rizky Ponsel,"55X4+CWR, Ampah Kota, Kec. Dusun Tengah, Kabupaten Barito Timur, Kalimantan Tengah 73652","Ampah Kota, Kec. Dusun Tengah, Kabupaten Barito Timur",KALIMANTAN TENGAH,73652.0,Indonesia, 082148202144,,,-1.8013897,115.1572679,https://maps.google.com/?cid=0x0:0x8f50c2f0a54b6d12,
supermarket,Toko,Toko Rahmawati 1,"55X3+9J8, Jl. Nansarunai - Tamiang Layang Ampah, Ampah Kota, Kec. Dusun Tengah, Kabupaten Barito Timur, Kalimantan Tengah 73652","Jl. Nansarunai - Tamiang Layang Ampah, Ampah Kota, Kec. Dusun Tengah, Kabupaten Barito Timur",KALIMANTAN TENGAH,73652.0,Indonesia, 082148301476,,,-1.8015823,115.1540662,https://maps.google.com/?cid=0x0:0xd06caf7bf160e2cf,
supermarket,Toko bahan makanan,Toko Pemi,"239G+M95, Jl. Tamiyang Layang - Ampah Ampah, Dayu, Kec. Dusun Tim., Kabupaten Barito Timur, Kalimantan Tengah 73652","Jl. Tamiyang Layang - Ampah Ampah, Dayu, Kec. Dusun Tim., Kabupaten Barito Timur",KALIMANTAN TENGAH,73652.0,Indonesia, 085347738766,,,-1.980858,115.0759983,https://maps.google.com/?cid=0x0:0xd2585ecc88b5822,
supermarket,Toko Makanan,Toko Ridho,"54XR+6GM, Ampah Kota, Kec. Dusun Tengah, Kabupaten Barito Timur, Kalimantan Tengah 73652","Ampah Kota, Kec. Dusun Tengah, Kabupaten Barito Timur",KALIMANTAN TENGAH,73652.0,Indonesia, 085828891704,,,-1.801915,115.1412902,https://maps.google.com/?cid=0x0:0x84caa5d668ccb180,
supermarket,Toko Beras,Toko YAYAN,"34GG+JGV, Tampa, Kec. Paku, Kabupaten Barito Timur, Kalimantan Tengah 73652","Tampa, Kec. Paku, Kabupaten Barito Timur",KALIMANTAN TENGAH,73652.0,Indonesia, 081545388887,,,-1.9233974,115.126285,https://maps.google.com/?cid=0x0:0x978af98783f04eef,
supermarket,Toko bahan makanan,TOKO ZAHRA,"64JX+494, Ampah Kota, Kec. Dusun Tengah, Kabupaten Barito Timur, Kalimantan Tengah 73652","Ampah Kota, Kec. Dusun Tengah, Kabupaten Barito Timur",KALIMANTAN TENGAH,73652.0,Indonesia,,,,-1.7697345,115.1484443,https://maps.google.com/?cid=0x0:0x17ba91f10959e808,
supermarket,Minimarket,toko mudzakir ono,"6572+95C, Jl. Ampah, Ampah Kota, Kec. Dusun Tengah, Kabupaten Barito Timur, Kalimantan Tengah 73652","Jl. Ampah, Ampah Kota, Kec. Dusun Tengah, Kabupaten Barito Timur",KALIMANTAN TENGAH,73652.0,Indonesia,,,,-1.7865663,115.1503804,https://maps.google.com/?cid=0x0:0x1914aceb236b7d1d,
supermarket,Minimarket,Toko anugerah,"V5Q8+6FQ, Jl. Ahmad Yani, Tamiang Layang, Kec. Dusun Tim., Kabupaten Barito Timur, Kalimantan Tengah 73671","Jl. Ahmad Yani, Tamiang Layang, Kec. Dusun Tim., Kabupaten Barito Timur",KALIMANTAN TENGAH,73671.0,Indonesia, 081385657791,,,-2.1119027,115.1662216,https://maps.google.com/?cid=0x0:0xdb41b1cd8cc34b52,
supermarket,supermarket,Kalimantan Tengah 73612,"Telang, Kec. Paju Epat, Kabupaten Barito Timur, Kalimantan Tengah","Kabupaten Barito Timur, Kalimantan Tengah",KALIMANTAN TENGAH,,Indonesia,,,,-2.1445423,115.0288051,https://maps.google.com/?cid=0x0:0xebf8e473b2c14e5c,
supermarket,Pusat Perbelanjaan,FAMILY MART,"V626+C73, Jaar, Kec. Dusun Tim., Kabupaten Barito Timur, Kalimantan Tengah 73671","Jaar, Kec. Dusun Tim., Kabupaten Barito Timur",KALIMANTAN TENGAH,73671.0,Indonesia,,,,-2.148975,115.2106714,https://maps.google.com/?cid=0x0:0x8fd4314a10675a2c,
supermarket,Toko bahan makanan,Toko Pemi,"239G+M95, Jl. Tamiyang Layang - Ampah Ampah, Dayu, Kec. Dusun Tim., Kabupaten Barito Timur, Kalimantan Tengah 73652","Jl. Tamiyang Layang - Ampah Ampah, Dayu, Kec. Dusun Tim., Kabupaten Barito Timur",KALIMANTAN TENGAH,73652.0,Indonesia, 085347738766,,,-1.980858,115.0759983,https://maps.google.com/?cid=0x0:0xd2585ecc88b5822,
supermarket,Toko,Toko ABI,"X47M+FFG, Jaweten, Kec. Dusun Tim., Kabupaten Barito Timur, Kalimantan Tengah 73681","Jaweten, Kec. Dusun Tim., Kabupaten Barito Timur",KALIMANTAN TENGAH,73681.0,Indonesia,,,,-2.0363237,115.133693,https://maps.google.com/?cid=0x0:0x17ab5220b2ee1b2e,
supermarket,Minimarket,Toko anugerah,"V5Q8+6FQ, Jl. Ahmad Yani, Tamiang Layang, Kec. Dusun Tim., Kabupaten Barito Timur, Kalimantan Tengah 73671","Jl. Ahmad Yani, Tamiang Layang, Kec. Dusun Tim., Kabupaten Barito Timur",KALIMANTAN TENGAH,73671.0,Indonesia, 081385657791,,,-2.1119027,115.1662216,https://maps.google.com/?cid=0x0:0xdb41b1cd8cc34b52,
supermarket,Toko,Toko jaya,"54WF+J46, Unnamed Road, Putai, Kec. Dusun Tengah, Kabupaten Barito Timur, Kalimantan Tengah 73652","Unnamed Road, Putai, Kec. Dusun Tengah, Kabupaten Barito Timur",KALIMANTAN TENGAH,73652.0,Indonesia, 083159311731,,,-1.8034695,115.1227633,https://maps.google.com/?cid=0x0:0x8b3e903ef1dc07ba,
supermarket,Toko Swalayan,toko yadi senjaya,"65Q3+334, Ampah Kota, Kec. Dusun Tengah, Kabupaten Barito Timur, Kalimantan Tengah 73652","Ampah Kota, Kec. Dusun Tengah, Kabupaten Barito Timur",KALIMANTAN TENGAH,73652.0,Indonesia,,,,-1.7623708,115.1526917,https://maps.google.com/?cid=0x0:0x57f104b0b41483f8,
supermarket,Toko bahan makanan,TOKO RULLY,"Ampah Kota, Kec. Dusun Tengah, Kabupaten Barito Timur, Kalimantan Tengah 73652","Kec. Dusun Tengah, Kabupaten Barito Timur",KALIMANTAN TENGAH,73652.0,Indonesia, 052231481,,,-1.7995777,115.1509772,https://maps.google.com/?cid=0x0:0xaf91f4a4323a1fa1,
supermarket,Komplek perumahan,Dorong Permai,"W53P+829, Dorong, Kec. Dusun Tim., Kabupaten Barito Timur, Kalimantan Tengah 73671","Dorong, Kec. Dusun Tim., Kabupaten Barito Timur",KALIMANTAN TENGAH,73671.0,Indonesia, 082255786135,,,-2.0967104,115.1851007,https://maps.google.com/?cid=0x0:0x3cb56f8db66f2172,
supermarket,Toko Swalayan,Toko Aray,"V55X+F9X, Jl. Ps. Panas - Tamiang Layang, Jaar, Kec. Dusun Tim., Kabupaten Barito Timur, Kalimantan Tengah 73671","Jl. Ps. Panas - Tamiang Layang, Jaar, Kec. Dusun Tim., Kabupaten Barito Timur",KALIMANTAN TENGAH,73671.0,Indonesia, 085345657585,,,-2.1412748,115.198493,https://maps.google.com/?cid=0x0:0xc0be20d59ec7e208,
supermarket,Toko bahan makanan,TOKO AZZAHRA,"Tamiang Layang, Kec. Dusun Tim., Kabupaten Barito Timur, Kalimantan Tengah 73671","Kec. Dusun Tim., Kabupaten Barito Timur",KALIMANTAN TENGAH,73671.0,Indonesia, 081370736022,,,-2.1140425,115.1630454,https://maps.google.com/?cid=0x0:0xf27f3c92d2b2d265,
supermarket,Toko,Market 99,"W52M+QMR, Jl. Nansarunai - Tamiang Layang, Dorong, Kec. Dusun Tim., Kabupaten Barito Timur, Kalimantan Tengah 73671","Jl. Nansarunai - Tamiang Layang, Dorong, Kec. Dusun Tim., Kabupaten Barito Timur",KALIMANTAN TENGAH,73671.0,Indonesia,,,,-2.0978584,115.1833818,https://maps.google.com/?cid=0x0:0xf91da222c327eb1b,
supermarket,Toko Swalayan,toko aisya,"V59R+HVW, Jl. Ps. Panas - Tamiang Layang, Mangkarap, Kec. Dusun Tim., Kabupaten Barito Timur, Kalimantan Tengah 73671","Jl. Ps. Panas - Tamiang Layang, Mangkarap, Kec. Dusun Tim., Kabupaten Barito Timur",KALIMANTAN TENGAH,73671.0,Indonesia,,,,-2.1310104,115.1922148,https://maps.google.com/?cid=0x0:0xd9a625e5eba6351b,
supermarket,Pusat Perbelanjaan,Family Mart,"RCH8+VXJ, Mabuun, Kec. Murung Pudak, Kabupaten Tabalong, Kalimantan Selatan 71571","Mabuun, Kec. Murung Pudak, Kabupaten Tabalong",KALIMANTAN TENGAH,71571.0,Indonesia,,,,-2.1702848,115.4173831,https://maps.google.com/?cid=0x0:0xc9b02c944ede435d,
supermarket,supermarket,Kalimantan Tengah 73613,"Kec. Paju Epat, Kabupaten Barito Timur, Kalimantan Tengah","Kabupaten Barito Timur, Kalimantan Tengah",KALIMANTAN TENGAH,,Indonesia,,,,-2.1173046,115.0525302,https://maps.google.com/?cid=0x0:0x122a80857309f6e5,
supermarket,Pusat Perbelanjaan,FAMILY MART,"V626+C73, Jaar, Kec. Dusun Tim., Kabupaten Barito Timur, Kalimantan Tengah 73671","Jaar, Kec. Dusun Tim., Kabupaten Barito Timur",KALIMANTAN TENGAH,73671.0,Indonesia,,,,-2.148975,115.2106714,https://maps.google.com/?cid=0x0:0x8fd4314a10675a2c,
supermarket,Toko bahan makanan,Toko Pemi,"239G+M95, Jl. Tamiyang Layang - Ampah Ampah, Dayu, Kec. Dusun Tim., Kabupaten Barito Timur, Kalimantan Tengah 73652","Jl. Tamiyang Layang - Ampah Ampah, Dayu, Kec. Dusun Tim., Kabupaten Barito Timur",KALIMANTAN TENGAH,73652.0,Indonesia, 085347738766,,,-1.980858,115.0759983,https://maps.google.com/?cid=0x0:0xd2585ecc88b5822,
supermarket,Toko Swalayan,Toko Yadi Tinghui,"65M2+PJ8, Jl. Pahlawan, Ampah Kota, Kec. Dusun Tengah, Kabupaten Barito Timur, Kalimantan Tengah 73652","Jl. Pahlawan, Ampah Kota, Kec. Dusun Tengah, Kabupaten Barito Timur",KALIMANTAN TENGAH,73652.0,Indonesia,,,,-1.7657165,115.1515731,https://maps.google.com/?cid=0x0:0xfc616c37766e4945,
supermarket,Toko,Toko jaya,"54WF+J46, Unnamed Road, Putai, Kec. Dusun Tengah, Kabupaten Barito Timur, Kalimantan Tengah 73652","Unnamed Road, Putai, Kec. Dusun Tengah, Kabupaten Barito Timur",KALIMANTAN TENGAH,73652.0,Indonesia, 083159311731,,,-1.8034695,115.1227633,https://maps.google.com/?cid=0x0:0x8b3e903ef1dc07ba,
supermarket,Toko Swalayan,toko aisya,"V59R+HVW, Jl. Ps. Panas - Tamiang Layang, Mangkarap, Kec. Dusun Tim., Kabupaten Barito Timur, Kalimantan Tengah 73671","Jl. Ps. Panas - Tamiang Layang, Mangkarap, Kec. Dusun Tim., Kabupaten Barito Timur",KALIMANTAN TENGAH,73671.0,Indonesia,,,,-2.1310104,115.1922148,https://maps.google.com/?cid=0x0:0xd9a625e5eba6351b,
supermarket,Toko Swalayan,toko yadi senjaya,"65Q3+334, Ampah Kota, Kec. Dusun Tengah, Kabupaten Barito Timur, Kalimantan Tengah 73652","Ampah Kota, Kec. Dusun Tengah, Kabupaten Barito Timur",KALIMANTAN TENGAH,73652.0,Indonesia,,,,-1.7623708,115.1526917,https://maps.google.com/?cid=0x0:0x57f104b0b41483f8,
supermarket,Toko bahan makanan,TOKO RULLY,"Ampah Kota, Kec. Dusun Tengah, Kabupaten Barito Timur, Kalimantan Tengah 73652","Kec. Dusun Tengah, Kabupaten Barito Timur",KALIMANTAN TENGAH,73652.0,Indonesia, 052231481,,,-1.7995777,115.1509772,https://maps.google.com/?cid=0x0:0xaf91f4a4323a1fa1,
supermarket,Toko,Market 99,"W52M+QMR, Jl. Nansarunai - Tamiang Layang, Dorong, Kec. Dusun Tim., Kabupaten Barito Timur, Kalimantan Tengah 73671","Jl. Nansarunai - Tamiang Layang, Dorong, Kec. Dusun Tim., Kabupaten Barito Timur",KALIMANTAN TENGAH,73671.0,Indonesia,,,,-2.0978584,115.1833818,https://maps.google.com/?cid=0x0:0xf91da222c327eb1b,
supermarket,Toko,Toko ABI,"X47M+FFG, Jaweten, Kec. Dusun Tim., Kabupaten Barito Timur, Kalimantan Tengah 73681","Jaweten, Kec. Dusun Tim., Kabupaten Barito Timur",KALIMANTAN TENGAH,73681.0,Indonesia,,,,-2.0363237,115.133693,https://maps.google.com/?cid=0x0:0x17ab5220b2ee1b2e,
supermarket,Toko Swalayan,Toko Aray,"V55X+F9X, Jl. Ps. Panas - Tamiang Layang, Jaar, Kec. Dusun Tim., Kabupaten Barito Timur, Kalimantan Tengah 73671","Jl. Ps. Panas - Tamiang Layang, Jaar, Kec. Dusun Tim., Kabupaten Barito Timur",KALIMANTAN TENGAH,73671.0,Indonesia, 085345657585,,,-2.1412748,115.198493,https://maps.google.com/?cid=0x0:0xc0be20d59ec7e208,
supermarket,supermarket,Kalimantan Tengah 73614,"Kec. Paju Epat, Kabupaten Barito Timur, Kalimantan Tengah","Kabupaten Barito Timur, Kalimantan Tengah",KALIMANTAN TENGAH,,Indonesia,,,,-2.081165,115.0762536,https://maps.google.com/?cid=0x0:0x90e53ff734a76b72,
supermarket,Minimarket,Toko anugerah,"V5Q8+6FQ, Jl. Ahmad Yani, Tamiang Layang, Kec. Dusun Tim., Kabupaten Barito Timur, Kalimantan Tengah 73671","Jl. Ahmad Yani, Tamiang Layang, Kec. Dusun Tim., Kabupaten Barito Timur",KALIMANTAN TENGAH,73671.0,Indonesia, 081385657791,,,-2.1119027,115.1662216,https://maps.google.com/?cid=0x0:0xdb41b1cd8cc34b52,
supermarket,Toko,Nanda raisa,"W2MX+277, Maipe, Kec. Paju Epat, Kabupaten Barito Timur, Kalimantan Tengah 73615","Maipe, Kec. Paju Epat, Kabupaten Barito Timur",KALIMANTAN TENGAH,73615.0,Indonesia, 081348807323,,,-2.0674522,115.0481666,https://maps.google.com/?cid=0x0:0xe5490fce16935553,
supermarket,Toko,Toko ABI,"X47M+FFG, Jaweten, Kec. Dusun Tim., Kabupaten Barito Timur, Kalimantan Tengah 73681","Jaweten, Kec. Dusun Tim., Kabupaten Barito Timur",KALIMANTAN TENGAH,73681.0,Indonesia,,,,-2.0363237,115.133693,https://maps.google.com/?cid=0x0:0x17ab5220b2ee1b2e,
supermarket,Pusat Perbelanjaan,Mini Market Winda,"Matabu, Kec. Dusun Tim., Kabupaten Barito Timur, Kalimantan Tengah 73671","Kec. Dusun Tim., Kabupaten Barito Timur",KALIMANTAN TENGAH,73671.0,Indonesia,,,,-2.1261013,115.1845868,https://maps.google.com/?cid=0x0:0xf9ee9963c3f57d11,
supermarket,Pusat Perbelanjaan,FAMILY MART,"V626+C73, Jaar, Kec. Dusun Tim., Kabupaten Barito Timur, Kalimantan Tengah 73671","Jaar, Kec. Dusun Tim., Kabupaten Barito Timur",KALIMANTAN TENGAH,73671.0,Indonesia,,,,-2.148975,115.2106714,https://maps.google.com/?cid=0x0:0x8fd4314a10675a2c,
supermarket,Toko bahan makanan,Toko Pemi,"239G+M95, Jl. Tamiyang Layang - Ampah Ampah, Dayu, Kec. Dusun Tim., Kabupaten Barito Timur, Kalimantan Tengah 73652","Jl. Tamiyang Layang - Ampah Ampah, Dayu, Kec. Dusun Tim., Kabupaten Barito Timur",KALIMANTAN TENGAH,73652.0,Indonesia, 085347738766,,,-1.980858,115.0759983,https://maps.google.com/?cid=0x0:0xd2585ecc88b5822,
supermarket,Toko Swalayan,Toko Yadi Tinghui,"65M2+PJ8, Jl. Pahlawan, Ampah Kota, Kec. Dusun Tengah, Kabupaten Barito Timur, Kalimantan Tengah 73652","Jl. Pahlawan, Ampah Kota, Kec. Dusun Tengah, Kabupaten Barito Timur",KALIMANTAN TENGAH,73652.0,Indonesia,,,,-1.7657165,115.1515731,https://maps.google.com/?cid=0x0:0xfc616c37766e4945,
supermarket,Toko Swalayan,toko aisya,"V59R+HVW, Jl. Ps. Panas - Tamiang Layang, Mangkarap, Kec. Dusun Tim., Kabupaten Barito Timur, Kalimantan Tengah 73671","Jl. Ps. Panas - Tamiang Layang, Mangkarap, Kec. Dusun Tim., Kabupaten Barito Timur",KALIMANTAN TENGAH,73671.0,Indonesia,,,,-2.1310104,115.1922148,https://maps.google.com/?cid=0x0:0xd9a625e5eba6351b,
supermarket,Toko,Toko jaya,"54WF+J46, Unnamed Road, Putai, Kec. Dusun Tengah, Kabupaten Barito Timur, Kalimantan Tengah 73652","Unnamed Road, Putai, Kec. Dusun Tengah, Kabupaten Barito Timur",KALIMANTAN TENGAH,73652.0,Indonesia, 083159311731,,,-1.8034695,115.1227633,https://maps.google.com/?cid=0x0:0x8b3e903ef1dc07ba,
supermarket,Toko Swalayan,Toko Aray,"V55X+F9X, Jl. Ps. Panas - Tamiang Layang, Jaar, Kec. Dusun Tim., Kabupaten Barito Timur, Kalimantan Tengah 73671","Jl. Ps. Panas - Tamiang Layang, Jaar, Kec. Dusun Tim., Kabupaten Barito Timur",KALIMANTAN TENGAH,73671.0,Indonesia, 085345657585,,,-2.1412748,115.198493,https://maps.google.com/?cid=0x0:0xc0be20d59ec7e208,
supermarket,Toko Swalayan,toko yadi senjaya,"65Q3+334, Ampah Kota, Kec. Dusun Tengah, Kabupaten Barito Timur, Kalimantan Tengah 73652","Ampah Kota, Kec. Dusun Tengah, Kabupaten Barito Timur",KALIMANTAN TENGAH,73652.0,Indonesia,,,,-1.7623708,115.1526917,https://maps.google.com/?cid=0x0:0x57f104b0b41483f8,
supermarket,Minimarket,Mini Market Metro,"Unnamed Rd, Tamiang Layang, Kec. Dusun Tim., Kabupaten Barito Timur, Kalimantan Tengah 73671","Tamiang Layang, Kec. Dusun Tim., Kabupaten Barito Timur",KALIMANTAN TENGAH,73671.0,Indonesia, 081251089788,,,-2.1108886,115.1707237,https://maps.google.com/?cid=0x0:0xc181470e38643fc3,
supermarket,Toko,Market 99,"W52M+QMR, Jl. Nansarunai - Tamiang Layang, Dorong, Kec. Dusun Tim., Kabupaten Barito Timur, Kalimantan Tengah 73671","Jl. Nansarunai - Tamiang Layang, Dorong, Kec. Dusun Tim., Kabupaten Barito Timur",KALIMANTAN TENGAH,73671.0,Indonesia,,,,-2.0978584,115.1833818,https://maps.google.com/?cid=0x0:0xf91da222c327eb1b,
supermarket,Toko Swalayan,"Toko Bersinar (Bahan Kue, Minuman dan Perlengkapannya)","Jl. Ahmad Yani No.47, Tamiang Layang, Kec. Dusun Tim., Kabupaten Barito Timur, Kalimantan Tengah 73611","Tamiang Layang, Kec. Dusun Tim., Kabupaten Barito Timur",KALIMANTAN TENGAH,73611.0,Indonesia, 0811518807,,,-2.1202229,115.1752628,https://maps.google.com/?cid=0x0:0xb19d646471fc7c03,
supermarket,supermarket,Kec. Dusun Tim.,"Kabupaten Barito Timur, Kalimantan Tengah","Kabupaten Barito Timur, Kalimantan Tengah",KALIMANTAN TENGAH,,Indonesia,,,,-2.1126877,115.1670292,https://maps.google.com/?cid=0x0:0x740b7052b652c454,
supermarket,Toko,TOKO HOLLY,"X48M+GCP, Jaweten, Kec. Dusun Tim., Kabupaten Barito Timur, Kalimantan Tengah 73681","Jaweten, Kec. Dusun Tim., Kabupaten Barito Timur",KALIMANTAN TENGAH,73681.0,Indonesia, 081348293651,,,-2.0336719,115.133566,https://maps.google.com/?cid=0x0:0x85a053db502f6ce8,
supermarket,,Kios Tunukan Rama,"R6PC+433, Jl. Ps. Panas - Tamiang Layang, Jaar, Kec. Dusun Tim., Kabupaten Barito Timur, Kalimantan Tengah 73661","Jl. Ps. Panas - Tamiang Layang, Jaar, Kec. Dusun Tim., Kabupaten Barito Timur",KALIMANTAN TENGAH,73661.0,Indonesia,,,,-2.1647423,115.220169,https://maps.google.com/?cid=0x0:0x1b52a06cafafb3f4,
supermarket,Toko,Toko Ade,"V5P9+H6H, Jl. Ps. Panas - Tamiang Layang, Tamiang Layang, Kec. Dusun Tim., Kabupaten Barito Timur, Kalimantan Tengah 73671","Jl. Ps. Panas - Tamiang Layang, Tamiang Layang, Kec. Dusun Tim., Kabupaten Barito Timur",KALIMANTAN TENGAH,73671.0,Indonesia,,,,-2.1135606,115.1681235,https://maps.google.com/?cid=0x0:0xcc0cd14871538694,
supermarket,Toko Swalayan,Kios Bajar,"V55X+8MF, Jl. Ps. Panas - Tamiang Layang, Jaar, Kec. Dusun Tim., Kabupaten Barito Timur, Kalimantan Tengah 73671","Jl. Ps. Panas - Tamiang Layang, Jaar, Kec. Dusun Tim., Kabupaten Barito Timur",KALIMANTAN TENGAH,73671.0,Indonesia, 082351514742,,,-2.141687,115.1991631,https://maps.google.com/?cid=0x0:0x5da0b99a230de4bc,
supermarket,Toko Swalayan,ARIF PONSEL,"V593+54G, Unnamed Road, Magantis, Kec. Dusun Tim., Kabupaten Barito Timur, Kalimantan Tengah 73671","Unnamed Road, Magantis, Kec. Dusun Tim., Kabupaten Barito Timur",KALIMANTAN TENGAH,73671.0,Indonesia,,,,-2.132051,115.152817,https://maps.google.com/?cid=0x0:0xb46ecb54e270dfc4,
supermarket,Penyedia Jasa Paralegal,Toko jasa bersama/warung makan paliat,"Jl. Ahmad Yani No.90, Tamiang Layang, Kec. Dusun Tim., Kabupaten Barito Timur, Kalimantan Tengah 73671","Tamiang Layang, Kec. Dusun Tim., Kabupaten Barito Timur",KALIMANTAN TENGAH,73671.0,Indonesia,,,,-2.1212368,115.1762673,https://maps.google.com/?cid=0x0:0x9827bfdba0f09160,
supermarket,Toko,TOKO ANDRE JAYA,"Tamiang Layang, Kec. Dusun Tim., Kabupaten Barito Timur, Kalimantan Tengah 73671","Kec. Dusun Tim., Kabupaten Barito Timur",KALIMANTAN TENGAH,73671.0,Indonesia, 081250583600,,,-2.1062553,115.1599756,https://maps.google.com/?cid=0x0:0xf5fe21100c05e9fe,
supermarket,Komplek perumahan,Komp. Perumnas Patianom,"V5Q3+H88, Tamiang Layang, Kec. Dusun Tim., Kabupaten Barito Timur, Kalimantan Tengah 73671","Tamiang Layang, Kec. Dusun Tim., Kabupaten Barito Timur",KALIMANTAN TENGAH,73671.0,Indonesia, 081521915915,,,-2.1110964,115.1533426,https://maps.google.com/?cid=0x0:0x2ceb66ab38c14a88,
supermarket,Toko bahan makanan,TOKO AZZAHRA,"Tamiang Layang, Kec. Dusun Tim., Kabupaten Barito Timur, Kalimantan Tengah 73671","Kec. Dusun Tim., Kabupaten Barito Timur",KALIMANTAN TENGAH,73671.0,Indonesia, 081370736022,,,-2.1140425,115.1630454,https://maps.google.com/?cid=0x0:0xf27f3c92d2b2d265,
supermarket,Toko bahan makanan,Sayurdanikan,"V5Q3+H88, Jalan sulung, Tamiang Layang, Kec. Dusun Tim., Kabupaten Barito Timur, Kalimantan Tengah","Kabupaten Barito Timur, Kalimantan Tengah",KALIMANTAN TENGAH,,Indonesia,,,,-2.1110964,115.1533426,https://maps.google.com/?cid=0x0:0xef3722e4a3a07f81,
supermarket,Pusat Perbelanjaan,KIOS MAMA ALEX,"V5XH+5HR, Dorong, Kec. Dusun Tim., Kabupaten Barito Timur, Kalimantan Tengah 73671","Dorong, Kec. Dusun Tim., Kabupaten Barito Timur",KALIMANTAN TENGAH,73671.0,Indonesia,,,,-2.1020018,115.1789005,https://maps.google.com/?cid=0x0:0x75a4d5798e5a8b35,
supermarket,Toko Swalayan,Kios PENAH TAKAM,"Jl. Ps. Panas - Tamiang Layang, Jaar, Kec. Dusun Tim., Kabupaten Barito Timur, Kalimantan Tengah 73661","Jaar, Kec. Dusun Tim., Kabupaten Barito Timur",KALIMANTAN TENGAH,73661.0,Indonesia, 03174745787,,,-2.1584517,115.2156272,https://maps.google.com/?cid=0x0:0xb18851d04ee2b6e,
supermarket,Sarapan,Warung Iqbal,"V5FM+9X2, Jl. Ps. Panas - Tamiang Layang, Matabu, Kec. Dusun Tim., Kabupaten Barito Timur, Kalimantan Tengah 73671","Jl. Ps. Panas - Tamiang Layang, Matabu, Kec. Dusun Tim., Kabupaten Barito Timur",KALIMANTAN TENGAH,73671.0,Indonesia, 085387988087,,,-2.1266008,115.184883,https://maps.google.com/?cid=0x0:0xa2d0fcb789115a37,
supermarket,supermarket,Kalimantan Tengah 73615,"Kec. Paju Epat, Kabupaten Barito Timur, Kalimantan Tengah","Kabupaten Barito Timur, Kalimantan Tengah",KALIMANTAN TENGAH,,Indonesia,,,,-2.0549841,115.0406679,https://maps.google.com/?cid=0x0:0xfc49174b02adf151,
supermarket,Toko bahan makanan,Toko Pemi,"239G+M95, Jl. Tamiyang Layang - Ampah Ampah, Dayu, Kec. Dusun Tim., Kabupaten Barito Timur, Kalimantan Tengah 73652","Jl. Tamiyang Layang - Ampah Ampah, Dayu, Kec. Dusun Tim., Kabupaten Barito Timur",KALIMANTAN TENGAH,73652.0,Indonesia, 085347738766,,,-1.980858,115.0759983,https://maps.google.com/?cid=0x0:0xd2585ecc88b5822,
supermarket,Pusat Perbelanjaan,FAMILY MART,"V626+C73, Jaar, Kec. Dusun Tim., Kabupaten Barito Timur, Kalimantan Tengah 73671","Jaar, Kec. Dusun Tim., Kabupaten Barito Timur",KALIMANTAN TENGAH,73671.0,Indonesia,,,,-2.148975,115.2106714,https://maps.google.com/?cid=0x0:0x8fd4314a10675a2c,
supermarket,Minimarket,Toko anugerah,"V5Q8+6FQ, Jl. Ahmad Yani, Tamiang Layang, Kec. Dusun Tim., Kabupaten Barito Timur, Kalimantan Tengah 73671","Jl. Ahmad Yani, Tamiang Layang, Kec. Dusun Tim., Kabupaten Barito Timur",KALIMANTAN TENGAH,73671.0,Indonesia, 081385657791,,,-2.1119027,115.1662216,https://maps.google.com/?cid=0x0:0xdb41b1cd8cc34b52,
supermarket,Toko,Nanda raisa,"W2MX+277, Maipe, Kec. Paju Epat, Kabupaten Barito Timur, Kalimantan Tengah 73615","Maipe, Kec. Paju Epat, Kabupaten Barito Timur",KALIMANTAN TENGAH,73615.0,Indonesia, 081348807323,,,-2.0674522,115.0481666,https://maps.google.com/?cid=0x0:0xe5490fce16935553,
supermarket,supermarket,Toko Gege,"X332+7V9, Balawa, Kec. Paju Epat, Kabupaten Barito Timur, Kalimantan Tengah 73615","Balawa, Kec. Paju Epat, Kabupaten Barito Timur",KALIMANTAN TENGAH,73615.0,Indonesia,,,,-2.0468301,115.0522485,https://maps.google.com/?cid=0x0:0x491af528c9dce446,
supermarket,supermarket,Kalimantan Tengah 73617,Kalimantan Tengah,Kalimantan Tengah,KALIMANTAN TENGAH,,Indonesia,,,,-2.0520057,114.9516869,https://maps.google.com/?cid=0x0:0xf0d04e5ed5edf592,
supermarket,Toko bahan makanan,Toko Pemi,"239G+M95, Jl. Tamiyang Layang - Ampah Ampah, Dayu, Kec. Dusun Tim., Kabupaten Barito Timur, Kalimantan Tengah 73652","Jl. Tamiyang Layang - Ampah Ampah, Dayu, Kec. Dusun Tim., Kabupaten Barito Timur",KALIMANTAN TENGAH,73652.0,Indonesia, 085347738766,,,-1.980858,115.0759983,https://maps.google.com/?cid=0x0:0xd2585ecc88b5822,
supermarket,Toko,TOKO HOLLY,"X48M+GCP, Jaweten, Kec. Dusun Tim., Kabupaten Barito Timur, Kalimantan Tengah 73681","Jaweten, Kec. Dusun Tim., Kabupaten Barito Timur",KALIMANTAN TENGAH,73681.0,Indonesia, 081348293651,,,-2.0336719,115.133566,https://maps.google.com/?cid=0x0:0x85a053db502f6ce8,
supermarket,Pusat Perbelanjaan,FAMILY MART,"V626+C73, Jaar, Kec. Dusun Tim., Kabupaten Barito Timur, Kalimantan Tengah 73671","Jaar, Kec. Dusun Tim., Kabupaten Barito Timur",KALIMANTAN TENGAH,73671.0,Indonesia,,,,-2.148975,115.2106714,https://maps.google.com/?cid=0x0:0x8fd4314a10675a2c,
supermarket,Toko Swalayan,ARIF PONSEL,"V593+54G, Unnamed Road, Magantis, Kec. Dusun Tim., Kabupaten Barito Timur, Kalimantan Tengah 73671","Unnamed Road, Magantis, Kec. Dusun Tim., Kabupaten Barito Timur",KALIMANTAN TENGAH,73671.0,Indonesia,,,,-2.132051,115.152817,https://maps.google.com/?cid=0x0:0xb46ecb54e270dfc4,
supermarket,Salon Kecantikan,Salon MELDA,"W47R+VJG, Sumur, Kec. Dusun Tim., Kabupaten Barito Timur, Kalimantan Tengah 73681","Sumur, Kec. Dusun Tim., Kabupaten Barito Timur",KALIMANTAN TENGAH,73681.0,Indonesia,,,,-2.0853023,115.1415792,https://maps.google.com/?cid=0x0:0x2c85ea08d04289a2,
supermarket,Toko,Toko ABI,"X47M+FFG, Jaweten, Kec. Dusun Tim., Kabupaten Barito Timur, Kalimantan Tengah 73681","Jaweten, Kec. Dusun Tim., Kabupaten Barito Timur",KALIMANTAN TENGAH,73681.0,Indonesia,,,,-2.0363237,115.133693,https://maps.google.com/?cid=0x0:0x17ab5220b2ee1b2e,
supermarket,Toko,Toko laila menjual barang bangunan,"XV8V+FXM, Bangkuang, Kec. Karau Kuala, Kabupaten Barito Selatan, Kalimantan Tengah 73617","Bangkuang, Kec. Karau Kuala, Kabupaten Barito Selatan",KALIMANTAN TENGAH,73617.0,Indonesia, 081251315127,,,-2.0338,114.8949147,https://maps.google.com/?cid=0x0:0x47a6659904820784,
supermarket,Toko,Toko Ade,"V5P9+H6H, Jl. Ps. Panas - Tamiang Layang, Tamiang Layang, Kec. Dusun Tim., Kabupaten Barito Timur, Kalimantan Tengah 73671","Jl. Ps. Panas - Tamiang Layang, Tamiang Layang, Kec. Dusun Tim., Kabupaten Barito Timur",KALIMANTAN TENGAH,73671.0,Indonesia,,,,-2.1135606,115.1681235,https://maps.google.com/?cid=0x0:0xcc0cd14871538694,
supermarket,Penyedia Jasa Paralegal,Toko jasa bersama/warung makan paliat,"Jl. Ahmad Yani No.90, Tamiang Layang, Kec. Dusun Tim., Kabupaten Barito Timur, Kalimantan Tengah 73671","Tamiang Layang, Kec. Dusun Tim., Kabupaten Barito Timur",KALIMANTAN TENGAH,73671.0,Indonesia,,,,-2.1212368,115.1762673,https://maps.google.com/?cid=0x0:0x9827bfdba0f09160,
supermarket,Toko Swalayan,Toko Yadi Tinghui,"65M2+PJ8, Jl. Pahlawan, Ampah Kota, Kec. Dusun Tengah, Kabupaten Barito Timur, Kalimantan Tengah 73652","Jl. Pahlawan, Ampah Kota, Kec. Dusun Tengah, Kabupaten Barito Timur",KALIMANTAN TENGAH,73652.0,Indonesia,,,,-1.7657165,115.1515731,https://maps.google.com/?cid=0x0:0xfc616c37766e4945,
supermarket,Toko Beras,Toko YAYAN,"34GG+JGV, Tampa, Kec. Paku, Kabupaten Barito Timur, Kalimantan Tengah 73652","Tampa, Kec. Paku, Kabupaten Barito Timur",KALIMANTAN TENGAH,73652.0,Indonesia, 081545388887,,,-1.9233974,115.126285,https://maps.google.com/?cid=0x0:0x978af98783f04eef,
supermarket,Sarapan,Warung Iqbal,"V5FM+9X2, Jl. Ps. Panas - Tamiang Layang, Matabu, Kec. Dusun Tim., Kabupaten Barito Timur, Kalimantan Tengah 73671","Jl. Ps. Panas - Tamiang Layang, Matabu, Kec. Dusun Tim., Kabupaten Barito Timur",KALIMANTAN TENGAH,73671.0,Indonesia, 085387988087,,,-2.1266008,115.184883,https://maps.google.com/?cid=0x0:0xa2d0fcb789115a37,
supermarket,Minimarket,Mini Market Metro,"Unnamed Rd, Tamiang Layang, Kec. Dusun Tim., Kabupaten Barito Timur, Kalimantan Tengah 73671","Tamiang Layang, Kec. Dusun Tim., Kabupaten Barito Timur",KALIMANTAN TENGAH,73671.0,Indonesia, 081251089788,,,-2.1108886,115.1707237,https://maps.google.com/?cid=0x0:0xc181470e38643fc3,
supermarket,Toko Swalayan,toko aisya,"V59R+HVW, Jl. Ps. Panas - Tamiang Layang, Mangkarap, Kec. Dusun Tim., Kabupaten Barito Timur, Kalimantan Tengah 73671","Jl. Ps. Panas - Tamiang Layang, Mangkarap, Kec. Dusun Tim., Kabupaten Barito Timur",KALIMANTAN TENGAH,73671.0,Indonesia,,,,-2.1310104,115.1922148,https://maps.google.com/?cid=0x0:0xd9a625e5eba6351b,
supermarket,Toko,Toko jaya,"54WF+J46, Unnamed Road, Putai, Kec. Dusun Tengah, Kabupaten Barito Timur, Kalimantan Tengah 73652","Unnamed Road, Putai, Kec. Dusun Tengah, Kabupaten Barito Timur",KALIMANTAN TENGAH,73652.0,Indonesia, 083159311731,,,-1.8034695,115.1227633,https://maps.google.com/?cid=0x0:0x8b3e903ef1dc07ba,
supermarket,Toko Swalayan,Kios Bajar,"V55X+8MF, Jl. Ps. Panas - Tamiang Layang, Jaar, Kec. Dusun Tim., Kabupaten Barito Timur, Kalimantan Tengah 73671","Jl. Ps. Panas - Tamiang Layang, Jaar, Kec. Dusun Tim., Kabupaten Barito Timur",KALIMANTAN TENGAH,73671.0,Indonesia, 082351514742,,,-2.141687,115.1991631,https://maps.google.com/?cid=0x0:0x5da0b99a230de4bc,
supermarket,Toko,Toko Haji Ijul,"V5R7+7Q4, Jl. Ps. Panas - Tamiang Layang, Tamiang Layang, Kec. Dusun Tim., Kabupaten Barito Timur, Kalimantan Tengah 73671","Jl. Ps. Panas - Tamiang Layang, Tamiang Layang, Kec. Dusun Tim., Kabupaten Barito Timur",KALIMANTAN TENGAH,73671.0,Indonesia,,,,-2.1093523,115.1644525,https://maps.google.com/?cid=0x0:0x23007cd72556c176,
supermarket,Toko Percetakan,Pencetakan stempel,"3262+44R, Muara Palantau, Kec. Pematang Karau, Kabupaten Barito Timur, Kalimantan Tengah 73652","Muara Palantau, Kec. Pematang Karau, Kabupaten Barito Timur",KALIMANTAN TENGAH,73652.0,Indonesia,,,,-1.9396436,115.0002576,https://maps.google.com/?cid=0x0:0x2bca3d2c8f235c0f,
supermarket,Pusat Perbelanjaan,Mini Market Winda,"Matabu, Kec. Dusun Tim., Kabupaten Barito Timur, Kalimantan Tengah 73671","Kec. Dusun Tim., Kabupaten Barito Timur",KALIMANTAN TENGAH,73671.0,Indonesia,,,,-2.1261013,115.1845868,https://maps.google.com/?cid=0x0:0xf9ee9963c3f57d11,
supermarket,Toko Swalayan,toko yadi senjaya,"65Q3+334, Ampah Kota, Kec. Dusun Tengah, Kabupaten Barito Timur, Kalimantan Tengah 73652","Ampah Kota, Kec. Dusun Tengah, Kabupaten Barito Timur",KALIMANTAN TENGAH,73652.0,Indonesia,,,,-1.7623708,115.1526917,https://maps.google.com/?cid=0x0:0x57f104b0b41483f8,
supermarket,Toko bahan makanan,TOKO RULLY,"Ampah Kota, Kec. Dusun Tengah, Kabupaten Barito Timur, Kalimantan Tengah 73652","Kec. Dusun Tengah, Kabupaten Barito Timur",KALIMANTAN TENGAH,73652.0,Indonesia, 052231481,,,-1.7995777,115.1509772,https://maps.google.com/?cid=0x0:0xaf91f4a4323a1fa1,
supermarket,Minimarket,Tanah pa Haji Helmi,"W4GP+VMX, Jl. Tamiyang Layang - Ampah, Sumur, Kec. Dusun Tim., Kabupaten Barito Timur, Kalimantan Tengah 73681","Jl. Tamiyang Layang - Ampah, Sumur, Kec. Dusun Tim., Kabupaten Barito Timur",KALIMANTAN TENGAH,73681.0,Indonesia,,,,-2.0727655,115.1367223,https://maps.google.com/?cid=0x0:0xe686d3e581e7bd10,
supermarket,Toko bahan makanan,Rumah Makanan Sederhana Bartim,"Jl.A.Yani No.KM 5, RW.Simpang Munsit, Tamiang Layang, Kec. Dusun Tim., Kabupaten Barito Timur, Kalimantan Tengah 73617","RW.Simpang Munsit, Tamiang Layang, Kec. Dusun Tim., Kabupaten Barito Timur",KALIMANTAN TENGAH,73617.0,Indonesia,,,,-2.0811707,115.1379272,https://maps.google.com/?cid=0x0:0xc06dab86daac0490,
supermarket,Toko bahan makanan,Kios HIDAYAH,"XV3X+CQC, Unnamed Road, Bangkuang, Kec. Karau Kuala, Kabupaten Barito Selatan, Kalimantan Tengah 73617","Unnamed Road, Bangkuang, Kec. Karau Kuala, Kabupaten Barito Selatan",KALIMANTAN TENGAH,73617.0,Indonesia, 085251342903,,,-2.0464413,114.8993818,https://maps.google.com/?cid=0x0:0x3ac0567e1d32c13a,
supermarket,Toko,Dina,"WV32+G55, Tlk. Timbau, Kec. Dusun Hilir, Kabupaten Barito Selatan, Kalimantan Tengah 73617","Tlk. Timbau, Kec. Dusun Hilir, Kabupaten Barito Selatan",KALIMANTAN TENGAH,73617.0,Indonesia, 081347814139,,,-2.0962413,114.8504832,https://maps.google.com/?cid=0x0:0xd7ba5fcfd3124df7,
supermarket,supermarket,Warung Adut,"VV68+3WG, Damparan, Kec. Dusun Hilir, Kabupaten Barito Selatan, Kalimantan Tengah 73617","Damparan, Kec. Dusun Hilir, Kabupaten Barito Selatan",KALIMANTAN TENGAH,73617.0,Indonesia,,,,-2.1398029,114.8673372,https://maps.google.com/?cid=0x0:0x264553576143a2b6,
supermarket,supermarket,Kec. Dusun Tim.,"Kabupaten Barito Timur, Kalimantan Tengah","Kabupaten Barito Timur, Kalimantan Tengah",KALIMANTAN TENGAH,,Indonesia,,,,-2.1126877,115.1670292,https://maps.google.com/?cid=0x0:0x740b7052b652c454,
supermarket,Pusat Perbelanjaan,FAMILY MART,"V626+C73, Jaar, Kec. Dusun Tim., Kabupaten Barito Timur, Kalimantan Tengah 73671","Jaar, Kec. Dusun Tim., Kabupaten Barito Timur",KALIMANTAN TENGAH,73671.0,Indonesia,,,,-2.148975,115.2106714,https://maps.google.com/?cid=0x0:0x8fd4314a10675a2c,
supermarket,Toko,TOKO HOLLY,"X48M+GCP, Jaweten, Kec. Dusun Tim., Kabupaten Barito Timur, Kalimantan Tengah 73681","Jaweten, Kec. Dusun Tim., Kabupaten Barito Timur",KALIMANTAN TENGAH,73681.0,Indonesia, 081348293651,,,-2.0336719,115.133566,https://maps.google.com/?cid=0x0:0x85a053db502f6ce8,
supermarket,Toko Swalayan,toko aisya,"V59R+HVW, Jl. Ps. Panas - Tamiang Layang, Mangkarap, Kec. Dusun Tim., Kabupaten Barito Timur, Kalimantan Tengah 73671","Jl. Ps. Panas - Tamiang Layang, Mangkarap, Kec. Dusun Tim., Kabupaten Barito Timur",KALIMANTAN TENGAH,73671.0,Indonesia,,,,-2.1310104,115.1922148,https://maps.google.com/?cid=0x0:0xd9a625e5eba6351b,
supermarket,Toko,Toko Ade,"V5P9+H6H, Jl. Ps. Panas - Tamiang Layang, Tamiang Layang, Kec. Dusun Tim., Kabupaten Barito Timur, Kalimantan Tengah 73671","Jl. Ps. Panas - Tamiang Layang, Tamiang Layang, Kec. Dusun Tim., Kabupaten Barito Timur",KALIMANTAN TENGAH,73671.0,Indonesia,,,,-2.1135606,115.1681235,https://maps.google.com/?cid=0x0:0xcc0cd14871538694,
supermarket,Toko Swalayan,ARIF PONSEL,"V593+54G, Unnamed Road, Magantis, Kec. Dusun Tim., Kabupaten Barito Timur, Kalimantan Tengah 73671","Unnamed Road, Magantis, Kec. Dusun Tim., Kabupaten Barito Timur",KALIMANTAN TENGAH,73671.0,Indonesia,,,,-2.132051,115.152817,https://maps.google.com/?cid=0x0:0xb46ecb54e270dfc4,
supermarket,,Kios Tunukan Rama,"R6PC+433, Jl. Ps. Panas - Tamiang Layang, Jaar, Kec. Dusun Tim., Kabupaten Barito Timur, Kalimantan Tengah 73661","Jl. Ps. Panas - Tamiang Layang, Jaar, Kec. Dusun Tim., Kabupaten Barito Timur",KALIMANTAN TENGAH,73661.0,Indonesia,,,,-2.1647423,115.220169,https://maps.google.com/?cid=0x0:0x1b52a06cafafb3f4,
supermarket,Penyedia Jasa Paralegal,Toko jasa bersama/warung makan paliat,"Jl. Ahmad Yani No.90, Tamiang Layang, Kec. Dusun Tim., Kabupaten Barito Timur, Kalimantan Tengah 73671","Tamiang Layang, Kec. Dusun Tim., Kabupaten Barito Timur",KALIMANTAN TENGAH,73671.0,Indonesia,,,,-2.1212368,115.1762673,https://maps.google.com/?cid=0x0:0x9827bfdba0f09160,
supermarket,Toko Swalayan,Toko Aray,"V55X+F9X, Jl. Ps. Panas - Tamiang Layang, Jaar, Kec. Dusun Tim., Kabupaten Barito Timur, Kalimantan Tengah 73671","Jl. Ps. Panas - Tamiang Layang, Jaar, Kec. Dusun Tim., Kabupaten Barito Timur",KALIMANTAN TENGAH,73671.0,Indonesia, 085345657585,,,-2.1412748,115.198493,https://maps.google.com/?cid=0x0:0xc0be20d59ec7e208,
supermarket,Toko,Toko ABI,"X47M+FFG, Jaweten, Kec. Dusun Tim., Kabupaten Barito Timur, Kalimantan Tengah 73681","Jaweten, Kec. Dusun Tim., Kabupaten Barito Timur",KALIMANTAN TENGAH,73681.0,Indonesia,,,,-2.0363237,115.133693,https://maps.google.com/?cid=0x0:0x17ab5220b2ee1b2e,
supermarket,Toko Swalayan,Kios Bajar,"V55X+8MF, Jl. Ps. Panas - Tamiang Layang, Jaar, Kec. Dusun Tim., Kabupaten Barito Timur, Kalimantan Tengah 73671","Jl. Ps. Panas - Tamiang Layang, Jaar, Kec. Dusun Tim., Kabupaten Barito Timur",KALIMANTAN TENGAH,73671.0,Indonesia, 082351514742,,,-2.141687,115.1991631,https://maps.google.com/?cid=0x0:0x5da0b99a230de4bc,
supermarket,Minimarket,Mini Market Metro,"Unnamed Rd, Tamiang Layang, Kec. Dusun Tim., Kabupaten Barito Timur, Kalimantan Tengah 73671","Tamiang Layang, Kec. Dusun Tim., Kabupaten Barito Timur",KALIMANTAN TENGAH,73671.0,Indonesia, 081251089788,,,-2.1108886,115.1707237,https://maps.google.com/?cid=0x0:0xc181470e38643fc3,
supermarket,Toko bahan makanan,Toko Pemi,"239G+M95, Jl. Tamiyang Layang - Ampah Ampah, Dayu, Kec. Dusun Tim., Kabupaten Barito Timur, Kalimantan Tengah 73652","Jl. Tamiyang Layang - Ampah Ampah, Dayu, Kec. Dusun Tim., Kabupaten Barito Timur",KALIMANTAN TENGAH,73652.0,Indonesia, 085347738766,,,-1.980858,115.0759983,https://maps.google.com/?cid=0x0:0xd2585ecc88b5822,
supermarket,Toko,Market 99,"W52M+QMR, Jl. Nansarunai - Tamiang Layang, Dorong, Kec. Dusun Tim., Kabupaten Barito Timur, Kalimantan Tengah 73671","Jl. Nansarunai - Tamiang Layang, Dorong, Kec. Dusun Tim., Kabupaten Barito Timur",KALIMANTAN TENGAH,73671.0,Indonesia,,,,-2.0978584,115.1833818,https://maps.google.com/?cid=0x0:0xf91da222c327eb1b,
supermarket,Minimarket,Indomaret Tamiang Layang,"Jl. Nansarunai - Tamiang Layang, Tamiang Layang, Kec. Dusun Tim., Kabupaten Barito Timur, Kalimantan Tengah 73671","Tamiang Layang, Kec. Dusun Tim., Kabupaten Barito Timur",KALIMANTAN TENGAH,73671.0,Indonesia, 085333001010,,,-2.1113764,115.1696426,https://maps.google.com/?cid=0x0:0xe212fbfd93037628,
supermarket,Toko Swalayan,"Toko Bersinar (Bahan Kue, Minuman dan Perlengkapannya)","Jl. Ahmad Yani No.47, Tamiang Layang, Kec. Dusun Tim., Kabupaten Barito Timur, Kalimantan Tengah 73611","Tamiang Layang, Kec. Dusun Tim., Kabupaten Barito Timur",KALIMANTAN TENGAH,73611.0,Indonesia, 0811518807,,,-2.1202229,115.1752628,https://maps.google.com/?cid=0x0:0xb19d646471fc7c03,
supermarket,Sarapan,Warung Iqbal,"V5FM+9X2, Jl. Ps. Panas - Tamiang Layang, Matabu, Kec. Dusun Tim., Kabupaten Barito Timur, Kalimantan Tengah 73671","Jl. Ps. Panas - Tamiang Layang, Matabu, Kec. Dusun Tim., Kabupaten Barito Timur",KALIMANTAN TENGAH,73671.0,Indonesia, 085387988087,,,-2.1266008,115.184883,https://maps.google.com/?cid=0x0:0xa2d0fcb789115a37,
supermarket,Toko Beras,Toko YAYAN,"34GG+JGV, Tampa, Kec. Paku, Kabupaten Barito Timur, Kalimantan Tengah 73652","Tampa, Kec. Paku, Kabupaten Barito Timur",KALIMANTAN TENGAH,73652.0,Indonesia, 081545388887,,,-1.9233974,115.126285,https://maps.google.com/?cid=0x0:0x978af98783f04eef,
supermarket,Pusat Perbelanjaan,Mini Market Winda,"Matabu, Kec. Dusun Tim., Kabupaten Barito Timur, Kalimantan Tengah 73671","Kec. Dusun Tim., Kabupaten Barito Timur",KALIMANTAN TENGAH,73671.0,Indonesia,,,,-2.1261013,115.1845868,https://maps.google.com/?cid=0x0:0xf9ee9963c3f57d11,
supermarket,Toko,Toko Haji Ijul,"V5R7+7Q4, Jl. Ps. Panas - Tamiang Layang, Tamiang Layang, Kec. Dusun Tim., Kabupaten Barito Timur, Kalimantan Tengah 73671","Jl. Ps. Panas - Tamiang Layang, Tamiang Layang, Kec. Dusun Tim., Kabupaten Barito Timur",KALIMANTAN TENGAH,73671.0,Indonesia,,,,-2.1093523,115.1644525,https://maps.google.com/?cid=0x0:0x23007cd72556c176,
supermarket,Toko Swalayan,Toko Yadi Tinghui,"65M2+PJ8, Jl. Pahlawan, Ampah Kota, Kec. Dusun Tengah, Kabupaten Barito Timur, Kalimantan Tengah 73652","Jl. Pahlawan, Ampah Kota, Kec. Dusun Tengah, Kabupaten Barito Timur",KALIMANTAN TENGAH,73652.0,Indonesia,,,,-1.7657165,115.1515731,https://maps.google.com/?cid=0x0:0xfc616c37766e4945,
supermarket,Toko,TOKO ANDRE JAYA,"Tamiang Layang, Kec. Dusun Tim., Kabupaten Barito Timur, Kalimantan Tengah 73671","Kec. Dusun Tim., Kabupaten Barito Timur",KALIMANTAN TENGAH,73671.0,Indonesia, 081250583600,,,-2.1062553,115.1599756,https://maps.google.com/?cid=0x0:0xf5fe21100c05e9fe,
supermarket,Komplek perumahan,Komp. Perumnas Patianom,"V5Q3+H88, Tamiang Layang, Kec. Dusun Tim., Kabupaten Barito Timur, Kalimantan Tengah 73671","Tamiang Layang, Kec. Dusun Tim., Kabupaten Barito Timur",KALIMANTAN TENGAH,73671.0,Indonesia, 081521915915,,,-2.1110964,115.1533426,https://maps.google.com/?cid=0x0:0x2ceb66ab38c14a88,
supermarket,Toko bahan makanan,TOKO AZZAHRA,"Tamiang Layang, Kec. Dusun Tim., Kabupaten Barito Timur, Kalimantan Tengah 73671","Kec. Dusun Tim., Kabupaten Barito Timur",KALIMANTAN TENGAH,73671.0,Indonesia, 081370736022,,,-2.1140425,115.1630454,https://maps.google.com/?cid=0x0:0xf27f3c92d2b2d265,
supermarket,Toko bahan makanan,Sayurdanikan,"V5Q3+H88, Jalan sulung, Tamiang Layang, Kec. Dusun Tim., Kabupaten Barito Timur, Kalimantan Tengah","Kabupaten Barito Timur, Kalimantan Tengah",KALIMANTAN TENGAH,,Indonesia,,,,-2.1110964,115.1533426,https://maps.google.com/?cid=0x0:0xef3722e4a3a07f81,
supermarket,Toko,Toko Melinda,"V5CR+39R, Jalan Pasar Panas Mangkarap, Tamiang Layang, Dusun Timur, East Barito Regency, Central Kalimantan 73671","Jalan Pasar Panas Mangkarap, Tamiang Layang, Dusun Timur, East Barito Regency",KALIMANTAN TENGAH,73671.0,Indonesia, 085348057145,,,-2.1297748,115.1908783,https://maps.google.com/?cid=0x0:0x3fe46596581db4fd,
supermarket,Toko Swalayan,Kios PENAH TAKAM,"Jl. Ps. Panas - Tamiang Layang, Jaar, Kec. Dusun Tim., Kabupaten Barito Timur, Kalimantan Tengah 73661","Jaar, Kec. Dusun Tim., Kabupaten Barito Timur",KALIMANTAN TENGAH,73661.0,Indonesia, 03174745787,,,-2.1584517,115.2156272,https://maps.google.com/?cid=0x0:0xb18851d04ee2b6e,
supermarket,supermarket,Kec. Karusen Janang,"Kabupaten Barito Timur, Kalimantan Tengah","Kabupaten Barito Timur, Kalimantan Tengah",KALIMANTAN TENGAH,,Indonesia,,,,-1.9839523,115.0772101,https://maps.google.com/?cid=0x0:0x42d4b63eb9f83bf4,
supermarket,Dapur Umum,Toko Willy Dayu,"Dayu, Kec. Karusen Janang, Kabupaten Barito Timur, Kalimantan Tengah 73652","Kec. Karusen Janang, Kabupaten Barito Timur",KALIMANTAN TENGAH,73652.0,Indonesia,,,,-1.9810885,115.0761107,https://maps.google.com/?cid=0x0:0x9b7b1673c2530e3,
supermarket,Toko Beras,Toko YAYAN,"34GG+JGV, Tampa, Kec. Paku, Kabupaten Barito Timur, Kalimantan Tengah 73652","Tampa, Kec. Paku, Kabupaten Barito Timur",KALIMANTAN TENGAH,73652.0,Indonesia, 081545388887,,,-1.9233974,115.126285,https://maps.google.com/?cid=0x0:0x978af98783f04eef,
supermarket,Toko bahan makanan,Toko Pemi,"239G+M95, Jl. Tamiyang Layang - Ampah Ampah, Dayu, Kec. Dusun Tim., Kabupaten Barito Timur, Kalimantan Tengah 73652","Jl. Tamiyang Layang - Ampah Ampah, Dayu, Kec. Dusun Tim., Kabupaten Barito Timur",KALIMANTAN TENGAH,73652.0,Indonesia, 085347738766,,,-1.980858,115.0759983,https://maps.google.com/?cid=0x0:0xd2585ecc88b5822,
supermarket,Toko,Toko jaya,"54WF+J46, Unnamed Road, Putai, Kec. Dusun Tengah, Kabupaten Barito Timur, Kalimantan Tengah 73652","Unnamed Road, Putai, Kec. Dusun Tengah, Kabupaten Barito Timur",KALIMANTAN TENGAH,73652.0,Indonesia, 083159311731,,,-1.8034695,115.1227633,https://maps.google.com/?cid=0x0:0x8b3e903ef1dc07ba,
supermarket,Toko,Toko ABI,"X47M+FFG, Jaweten, Kec. Dusun Tim., Kabupaten Barito Timur, Kalimantan Tengah 73681","Jaweten, Kec. Dusun Tim., Kabupaten Barito Timur",KALIMANTAN TENGAH,73681.0,Indonesia,,,,-2.0363237,115.133693,https://maps.google.com/?cid=0x0:0x17ab5220b2ee1b2e,
supermarket,Toko Percetakan,Pencetakan stempel,"3262+44R, Muara Palantau, Kec. Pematang Karau, Kabupaten Barito Timur, Kalimantan Tengah 73652","Muara Palantau, Kec. Pematang Karau, Kabupaten Barito Timur",KALIMANTAN TENGAH,73652.0,Indonesia,,,,-1.9396436,115.0002576,https://maps.google.com/?cid=0x0:0x2bca3d2c8f235c0f,
supermarket,Minimarket,Kios RIZKY,"55FM+33R, Jl. Tamiyang Layang - Ampah Ampah, Rodok, Kec. Dusun Tengah, Kabupaten Barito Timur, Kalimantan Tengah 73652","Jl. Tamiyang Layang - Ampah Ampah, Rodok, Kec. Dusun Tengah, Kabupaten Barito Timur",KALIMANTAN TENGAH,73652.0,Indonesia,,,,-1.8272599,115.1826325,https://maps.google.com/?cid=0x0:0xb7c867841a761812,
supermarket,Toko bahan makanan,Toko Alya Ayunda,"23QR+Q72, Jl. Tamiyang Layang - Ampah, Dayu, Kec. Dusun Tengah, Kabupaten Barito Timur, Kalimantan Tengah 73652","Jl. Tamiyang Layang - Ampah, Dayu, Kec. Dusun Tengah, Kabupaten Barito Timur",KALIMANTAN TENGAH,73652.0,Indonesia, 081250500089,,,-1.9606025,115.0906449,https://maps.google.com/?cid=0x0:0x85151ef3c0584da0,
supermarket,Pasar,Pasar Tuyau,"529R+6X4, Tuyau, Kec. Pematang Karau, Kabupaten Barito Timur, Kalimantan Tengah 73652","Tuyau, Kec. Pematang Karau, Kabupaten Barito Timur",KALIMANTAN TENGAH,73652.0,Indonesia,,,,-1.8319953,115.0424679,https://maps.google.com/?cid=0x0:0x2853dae04f9b2b6a,
supermarket,Toko bahan makanan,TOKO NADINE,"239G+HC9, Jl. Tamiyang Layang - Ampah, Dayu, Kec. Dusun Tengah, Kabupaten Barito Timur, Kalimantan Tengah 73652","Jl. Tamiyang Layang - Ampah, Dayu, Kec. Dusun Tengah, Kabupaten Barito Timur",KALIMANTAN TENGAH,73652.0,Indonesia,,,,-1.9810973,115.076119,https://maps.google.com/?cid=0x0:0x9094037af3d5960b,
supermarket,supermarket,Kalimantan Tengah 73617,Kalimantan Tengah,Kalimantan Tengah,KALIMANTAN TENGAH,,Indonesia,,,,-2.0520057,114.9516869,https://maps.google.com/?cid=0x0:0xf0d04e5ed5edf592,
supermarket,Toko,Nanda raisa,"W2MX+277, Maipe, Kec. Paju Epat, Kabupaten Barito Timur, Kalimantan Tengah 73615","Maipe, Kec. Paju Epat, Kabupaten Barito Timur",KALIMANTAN TENGAH,73615.0,Indonesia, 081348807323,,,-2.0674522,115.0481666,https://maps.google.com/?cid=0x0:0xe5490fce16935553,
supermarket,Toko,Toko Usup,"QW9W+CRX, Telang Baru, Kec. Paju Epat, Kabupaten Barito Timur, Kalimantan Tengah 73762","Telang Baru, Kec. Paju Epat, Kabupaten Barito Timur",KALIMANTAN TENGAH,73762.0,Indonesia,,,,-2.2313943,114.9471056,https://maps.google.com/?cid=0x0:0xc20123a57db37b11,
supermarket,Pusat Perbelanjaan,TOKO MAMA MAHDI,"PWXW+VRX, Juru Banu, Kec. Paju Epat, Kabupaten Barito Timur, Kalimantan Tengah 73763","Juru Banu, Kec. Paju Epat, Kabupaten Barito Timur",KALIMANTAN TENGAH,73763.0,Indonesia, 08565180497,,,-2.2502718,114.9470979,https://maps.google.com/?cid=0x0:0xfbc77b6e8e177760,
supermarket,Toko,Holtikultura Caliber,"WXCC+C37, Siong, Kec. Paju Epat, Kabupaten Barito Timur, Kalimantan Tengah","Kabupaten Barito Timur, Kalimantan Tengah",KALIMANTAN TENGAH,,Indonesia, 081271820691,,,-2.0789511,114.9701704,https://maps.google.com/?cid=0x0:0xaa036d3e6c4edf76,
supermarket,Toko bahan makanan,Kios HIDAYAH,"XV3X+CQC, Unnamed Road, Bangkuang, Kec. Karau Kuala, Kabupaten Barito Selatan, Kalimantan Tengah 73617","Unnamed Road, Bangkuang, Kec. Karau Kuala, Kabupaten Barito Selatan",KALIMANTAN TENGAH,73617.0,Indonesia, 085251342903,,,-2.0464413,114.8993818,https://maps.google.com/?cid=0x0:0x3ac0567e1d32c13a,
supermarket,Toko,TOKO HOLLY,"X48M+GCP, Jaweten, Kec. Dusun Tim., Kabupaten Barito Timur, Kalimantan Tengah 73681","Jaweten, Kec. Dusun Tim., Kabupaten Barito Timur",KALIMANTAN TENGAH,73681.0,Indonesia, 081348293651,,,-2.0336719,115.133566,https://maps.google.com/?cid=0x0:0x85a053db502f6ce8,
supermarket,Toko,Toko laila menjual barang bangunan,"XV8V+FXM, Bangkuang, Kec. Karau Kuala, Kabupaten Barito Selatan, Kalimantan Tengah 73617","Bangkuang, Kec. Karau Kuala, Kabupaten Barito Selatan",KALIMANTAN TENGAH,73617.0,Indonesia, 081251315127,,,-2.0338,114.8949147,https://maps.google.com/?cid=0x0:0x47a6659904820784,
supermarket,Minimarket,Toko anugerah,"V5Q8+6FQ, Jl. Ahmad Yani, Tamiang Layang, Kec. Dusun Tim., Kabupaten Barito Timur, Kalimantan Tengah 73671","Jl. Ahmad Yani, Tamiang Layang, Kec. Dusun Tim., Kabupaten Barito Timur",KALIMANTAN TENGAH,73671.0,Indonesia, 081385657791,,,-2.1119027,115.1662216,https://maps.google.com/?cid=0x0:0xdb41b1cd8cc34b52,
supermarket,Penyedia Jasa Paralegal,Toko jasa bersama/warung makan paliat,"Jl. Ahmad Yani No.90, Tamiang Layang, Kec. Dusun Tim., Kabupaten Barito Timur, Kalimantan Tengah 73671","Tamiang Layang, Kec. Dusun Tim., Kabupaten Barito Timur",KALIMANTAN TENGAH,73671.0,Indonesia,,,,-2.1212368,115.1762673,https://maps.google.com/?cid=0x0:0x9827bfdba0f09160,
supermarket,Toko bahan makanan,Mini Market Erin,"XV6R+VX8, Bangkuang, Kec. Karau Kuala, Kabupaten Barito Selatan, Kalimantan Tengah 73617","Bangkuang, Kec. Karau Kuala, Kabupaten Barito Selatan",KALIMANTAN TENGAH,73617.0,Indonesia, 082251509448,,,-2.0378388,114.8924426,https://maps.google.com/?cid=0x0:0x49ea8413817ef0c0,
supermarket,Toko Swalayan,ARIF PONSEL,"V593+54G, Unnamed Road, Magantis, Kec. Dusun Tim., Kabupaten Barito Timur, Kalimantan Tengah 73671","Unnamed Road, Magantis, Kec. Dusun Tim., Kabupaten Barito Timur",KALIMANTAN TENGAH,73671.0,Indonesia,,,,-2.132051,115.152817,https://maps.google.com/?cid=0x0:0xb46ecb54e270dfc4,
supermarket,Toko,Toko Ade,"V5P9+H6H, Jl. Ps. Panas - Tamiang Layang, Tamiang Layang, Kec. Dusun Tim., Kabupaten Barito Timur, Kalimantan Tengah 73671","Jl. Ps. Panas - Tamiang Layang, Tamiang Layang, Kec. Dusun Tim., Kabupaten Barito Timur",KALIMANTAN TENGAH,73671.0,Indonesia,,,,-2.1135606,115.1681235,https://maps.google.com/?cid=0x0:0xcc0cd14871538694,
supermarket,Komplek perumahan,Komp. Perumnas Patianom,"V5Q3+H88, Tamiang Layang, Kec. Dusun Tim., Kabupaten Barito Timur, Kalimantan Tengah 73671","Tamiang Layang, Kec. Dusun Tim., Kabupaten Barito Timur",KALIMANTAN TENGAH,73671.0,Indonesia, 081521915915,,,-2.1110964,115.1533426,https://maps.google.com/?cid=0x0:0x2ceb66ab38c14a88,
supermarket,Toko,Toko ABI,"X47M+FFG, Jaweten, Kec. Dusun Tim., Kabupaten Barito Timur, Kalimantan Tengah 73681","Jaweten, Kec. Dusun Tim., Kabupaten Barito Timur",KALIMANTAN TENGAH,73681.0,Indonesia,,,,-2.0363237,115.133693,https://maps.google.com/?cid=0x0:0x17ab5220b2ee1b2e,
supermarket,Toko,Dina,"WV32+G55, Tlk. Timbau, Kec. Dusun Hilir, Kabupaten Barito Selatan, Kalimantan Tengah 73617","Tlk. Timbau, Kec. Dusun Hilir, Kabupaten Barito Selatan",KALIMANTAN TENGAH,73617.0,Indonesia, 081347814139,,,-2.0962413,114.8504832,https://maps.google.com/?cid=0x0:0xd7ba5fcfd3124df7,
supermarket,Pusat Perbelanjaan,FAMILY MART,"V626+C73, Jaar, Kec. Dusun Tim., Kabupaten Barito Timur, Kalimantan Tengah 73671","Jaar, Kec. Dusun Tim., Kabupaten Barito Timur",KALIMANTAN TENGAH,73671.0,Indonesia,,,,-2.148975,115.2106714,https://maps.google.com/?cid=0x0:0x8fd4314a10675a2c,
supermarket,Salon Kecantikan,Salon MELDA,"W47R+VJG, Sumur, Kec. Dusun Tim., Kabupaten Barito Timur, Kalimantan Tengah 73681","Sumur, Kec. Dusun Tim., Kabupaten Barito Timur",KALIMANTAN TENGAH,73681.0,Indonesia,,,,-2.0853023,115.1415792,https://maps.google.com/?cid=0x0:0x2c85ea08d04289a2,
supermarket,Minimarket,Tanah pa Haji Helmi,"W4GP+VMX, Jl. Tamiyang Layang - Ampah, Sumur, Kec. Dusun Tim., Kabupaten Barito Timur, Kalimantan Tengah 73681","Jl. Tamiyang Layang - Ampah, Sumur, Kec. Dusun Tim., Kabupaten Barito Timur",KALIMANTAN TENGAH,73681.0,Indonesia,,,,-2.0727655,115.1367223,https://maps.google.com/?cid=0x0:0xe686d3e581e7bd10,
supermarket,Toko Perlengkapan Rumah,TOKO EDDY AYNA SANIAH Shop,"V5P7+C48, Jl. Manunggal, Tamiang Layang, Kec. Dusun Tim., Kabupaten Barito Timur, Kalimantan Tengah 73671","Jl. Manunggal, Tamiang Layang, Kec. Dusun Tim., Kabupaten Barito Timur",KALIMANTAN TENGAH,73671.0,Indonesia,,,,-2.113975,115.1628357,https://maps.google.com/?cid=0x0:0xe1e285f98379d91b,
supermarket,Toko Percetakan,Pencetakan stempel,"3262+44R, Muara Palantau, Kec. Pematang Karau, Kabupaten Barito Timur, Kalimantan Tengah 73652","Muara Palantau, Kec. Pematang Karau, Kabupaten Barito Timur",KALIMANTAN TENGAH,73652.0,Indonesia,,,,-1.9396436,115.0002576,https://maps.google.com/?cid=0x0:0x2bca3d2c8f235c0f,
supermarket,Toko Swalayan,toko aisya,"V59R+HVW, Jl. Ps. Panas - Tamiang Layang, Mangkarap, Kec. Dusun Tim., Kabupaten Barito Timur, Kalimantan Tengah 73671","Jl. Ps. Panas - Tamiang Layang, Mangkarap, Kec. Dusun Tim., Kabupaten Barito Timur",KALIMANTAN TENGAH,73671.0,Indonesia,,,,-2.1310104,115.1922148,https://maps.google.com/?cid=0x0:0xd9a625e5eba6351b,
supermarket,Sarapan,Warung Iqbal,"V5FM+9X2, Jl. Ps. Panas - Tamiang Layang, Matabu, Kec. Dusun Tim., Kabupaten Barito Timur, Kalimantan Tengah 73671","Jl. Ps. Panas - Tamiang Layang, Matabu, Kec. Dusun Tim., Kabupaten Barito Timur",KALIMANTAN TENGAH,73671.0,Indonesia, 085387988087,,,-2.1266008,115.184883,https://maps.google.com/?cid=0x0:0xa2d0fcb789115a37,
supermarket,Toko Swalayan,Kios Bajar,"V55X+8MF, Jl. Ps. Panas - Tamiang Layang, Jaar, Kec. Dusun Tim., Kabupaten Barito Timur, Kalimantan Tengah 73671","Jl. Ps. Panas - Tamiang Layang, Jaar, Kec. Dusun Tim., Kabupaten Barito Timur",KALIMANTAN TENGAH,73671.0,Indonesia, 082351514742,,,-2.141687,115.1991631,https://maps.google.com/?cid=0x0:0x5da0b99a230de4bc,
supermarket,Toko,Toko Haji Ijul,"V5R7+7Q4, Jl. Ps. Panas - Tamiang Layang, Tamiang Layang, Kec. Dusun Tim., Kabupaten Barito Timur, Kalimantan Tengah 73671","Jl. Ps. Panas - Tamiang Layang, Tamiang Layang, Kec. Dusun Tim., Kabupaten Barito Timur",KALIMANTAN TENGAH,73671.0,Indonesia,,,,-2.1093523,115.1644525,https://maps.google.com/?cid=0x0:0x23007cd72556c176,
supermarket,Toko Beras,Toko YAYAN,"34GG+JGV, Tampa, Kec. Paku, Kabupaten Barito Timur, Kalimantan Tengah 73652","Tampa, Kec. Paku, Kabupaten Barito Timur",KALIMANTAN TENGAH,73652.0,Indonesia, 081545388887,,,-1.9233974,115.126285,https://maps.google.com/?cid=0x0:0x978af98783f04eef,
supermarket,Toko Swalayan,Toko Aray,"V55X+F9X, Jl. Ps. Panas - Tamiang Layang, Jaar, Kec. Dusun Tim., Kabupaten Barito Timur, Kalimantan Tengah 73671","Jl. Ps. Panas - Tamiang Layang, Jaar, Kec. Dusun Tim., Kabupaten Barito Timur",KALIMANTAN TENGAH,73671.0,Indonesia, 085345657585,,,-2.1412748,115.198493,https://maps.google.com/?cid=0x0:0xc0be20d59ec7e208,
supermarket,Dapur Umum,Toko Willy Dayu,"Dayu, Kec. Karusen Janang, Kabupaten Barito Timur, Kalimantan Tengah 73652","Kec. Karusen Janang, Kabupaten Barito Timur",KALIMANTAN TENGAH,73652.0,Indonesia,,,,-1.9810885,115.0761107,https://maps.google.com/?cid=0x0:0x9b7b1673c2530e3,
supermarket,Toko Beras,Toko Beras Ud.duakuwitan,"V5Q3+H88, Jl. Ps. Panas - Tamiang Layang, Tamiang Layang, Kec. Dusun Tim., Kabupaten Barito Timur, Kalimantan Tengah 73671","Jl. Ps. Panas - Tamiang Layang, Tamiang Layang, Kec. Dusun Tim., Kabupaten Barito Timur",KALIMANTAN TENGAH,73671.0,Indonesia, 082152001575,,,-2.1110964,115.1533425,https://maps.google.com/?cid=0x0:0x1d3e2492aba05ba4,
supermarket,supermarket,Kec. Paku,"Kabupaten Barito Timur, Kalimantan Tengah","Kabupaten Barito Timur, Kalimantan Tengah",KALIMANTAN TENGAH,,Indonesia,,,,-1.8714738,115.1724417,https://maps.google.com/?cid=0x0:0xc6f14ef33602736c,
supermarket,Toko Beras,Toko YAYAN,"34GG+JGV, Tampa, Kec. Paku, Kabupaten Barito Timur, Kalimantan Tengah 73652","Tampa, Kec. Paku, Kabupaten Barito Timur",KALIMANTAN TENGAH,73652.0,Indonesia, 081545388887,,,-1.9233974,115.126285,https://maps.google.com/?cid=0x0:0x978af98783f04eef,
supermarket,Toko bahan makanan,TOKO SEMBAKO M. RIDUAN,"4597+H28, Simpang Bingkuang, Kec. Paku, Kabupaten Barito Timur, Kalimantan Tengah 73652","Simpang Bingkuang, Kec. Paku, Kabupaten Barito Timur",KALIMANTAN TENGAH,73652.0,Indonesia,,,,-1.8810864,115.1625897,https://maps.google.com/?cid=0x0:0x358255b0a4086123,
supermarket,Minimarket,Kios RIZKY,"55FM+33R, Jl. Tamiyang Layang - Ampah Ampah, Rodok, Kec. Dusun Tengah, Kabupaten Barito Timur, Kalimantan Tengah 73652","Jl. Tamiyang Layang - Ampah Ampah, Rodok, Kec. Dusun Tengah, Kabupaten Barito Timur",KALIMANTAN TENGAH,73652.0,Indonesia,,,,-1.8272599,115.1826325,https://maps.google.com/?cid=0x0:0xb7c867841a761812,
supermarket,Toko,Toko jaya,"54WF+J46, Unnamed Road, Putai, Kec. Dusun Tengah, Kabupaten Barito Timur, Kalimantan Tengah 73652","Unnamed Road, Putai, Kec. Dusun Tengah, Kabupaten Barito Timur",KALIMANTAN TENGAH,73652.0,Indonesia, 083159311731,,,-1.8034695,115.1227633,https://maps.google.com/?cid=0x0:0x8b3e903ef1dc07ba,
supermarket,Toko Kelontong Asia,WARUNG NUZHAH  NAJLA,"55HH+QGV, Jl. Tamiyang Layang - Ampah Ampah, Rodok, Kec. Dusun Tengah, Kabupaten Barito Timur, Kalimantan Tengah 73652","Jl. Tamiyang Layang - Ampah Ampah, Rodok, Kec. Dusun Tengah, Kabupaten Barito Timur",KALIMANTAN TENGAH,73652.0,Indonesia,,,,-1.8205087,115.1788044,https://maps.google.com/?cid=0x0:0xeb32465244482bf7,
supermarket,Toko makanan beku,Warung mamah salwa,"54XR+6GM, Ampah Kota, Kec. Dusun Tengah, Kabupaten Barito Timur, Kalimantan Tengah 73652","Ampah Kota, Kec. Dusun Tengah, Kabupaten Barito Timur",KALIMANTAN TENGAH,73652.0,Indonesia, 085821811058,,,-1.801807,115.1409483,https://maps.google.com/?cid=0x0:0x880d39c9a4681b3b,
supermarket,Toko,Toko usaha kita,"RT 03, Danau, Kec. Awang, Kabupaten Barito Timur, Kalimantan Tengah 73671","Danau, Kec. Awang, Kabupaten Barito Timur",KALIMANTAN TENGAH,73671.0,Indonesia, 085368873950,,,-1.9268519,115.2541233,https://maps.google.com/?cid=0x0:0xaa38bb35eb0749d0,
supermarket,Toko bahan makanan,WARUNGQU,"Jl. Lap. No.57 RT03, RT.4/RW.04, Batu Ampar, JAKARTA, Kota Jakarta Timur, Daerah Khusus Ibukota Jakarta 13520","RT.4/RW.04, Batu Ampar, JAKARTA, Kota Jakarta Timur",KALIMANTAN TENGAH,13520.0,Indonesia, 082190771921,,,-6.2805621,106.8567513,https://maps.google.com/?cid=0x0:0x4c370602644305fb,
supermarket,Toko bahan makanan,Warung Ucox,"Jl. Gunuk Raya No.16 11, RT.11/RW.5, Pejaten Timur, Ps. Minggu, Kota Jakarta Selatan, Daerah Khusus Ibukota Jakarta 12510","RT.11/RW.5, Pejaten Timur, Ps. Minggu, Kota Jakarta Selatan",KALIMANTAN TENGAH,12510.0,Indonesia,,,,-6.2967982,106.8498347,https://maps.google.com/?cid=0x0:0x97539a017950748f,
supermarket,Toko Swalayan,Warung Pakuon,"3CP3+JHP, Bojong Bambu Pakuwon, Jati, Kec. Batujajar, Kabupaten Bandung Barat, Jawa Barat 40561","Bojong Bambu Pakuwon, Jati, Kec. Batujajar, Kabupaten Bandung Barat",KALIMANTAN TENGAH,40561.0,Indonesia,,,,-6.9134167,107.4039415,https://maps.google.com/?cid=0x0:0x3696f9863bd28f16,
supermarket,Toko Meja,PERO Indonesia,"Dharmo Adhira, Ruko Beverly, Jl. Pangeran Antasari No.67 4, RT.4/RW.1, Cilandak Bar., Kec. Cilandak, Kota Jakarta Selatan, Daerah Khusus Ibukota Jakarta 12410","Ruko Beverly, Jl. Pangeran Antasari No.67 4, RT.4/RW.1, Cilandak Bar., Kec. Cilandak, Kota Jakarta Selatan",KALIMANTAN TENGAH,12410.0,Indonesia, 02127820967,,,-6.2879496,106.8066094,https://maps.google.com/?cid=0x0:0xe74d8fc1b8b16a1c,
supermarket,Toko umum,Warung Pakuwu,"Dusun Gunungbangka2 RT/RW 028, Sukamanah, Kec. Sindangkasih, Kabupaten Ciamis, Jawa Barat 46268","Sukamanah, Kec. Sindangkasih, Kabupaten Ciamis",KALIMANTAN TENGAH,46268.0,Indonesia, 082118062348,,,-7.2550941,108.2329389,https://maps.google.com/?cid=0x0:0xa0e1e4dcd94b1ca8,
supermarket,supermarket,Warung pak Ato,"MR9P+8CX, Jl. Agung Raya II, RT.7/RW.7, Lenteng Agung, Kec. Jagakarsa, Kota Jakarta Selatan, Daerah Khusus Ibukota Jakarta 12630","Jl. Agung Raya II, RT.7/RW.7, Lenteng Agung, Kec. Jagakarsa, Kota Jakarta Selatan",KALIMANTAN TENGAH,12630.0,Indonesia,,,,-6.3316489,106.836114,https://maps.google.com/?cid=0x0:0xd5af70637a577070,
supermarket,supermarket,Kalimantan Tengah 73671,"Kabupaten Barito Timur, Kalimantan Tengah","Kabupaten Barito Timur, Kalimantan Tengah",KALIMANTAN TENGAH,,Indonesia,,,,-2.0472411,115.2363408,https://maps.google.com/?cid=0x0:0x1e460a71bb58cdc3,
supermarket,Pusat Perbelanjaan,FAMILY MART,"V626+C73, Jaar, Kec. Dusun Tim., Kabupaten Barito Timur, Kalimantan Tengah 73671","Jaar, Kec. Dusun Tim., Kabupaten Barito Timur",KALIMANTAN TENGAH,73671.0,Indonesia,,,,-2.148975,115.2106714,https://maps.google.com/?cid=0x0:0x8fd4314a10675a2c,
supermarket,Toko Swalayan,ARIF PONSEL,"V593+54G, Unnamed Road, Magantis, Kec. Dusun Tim., Kabupaten Barito Timur, Kalimantan Tengah 73671","Unnamed Road, Magantis, Kec. Dusun Tim., Kabupaten Barito Timur",KALIMANTAN TENGAH,73671.0,Indonesia,,,,-2.132051,115.152817,https://maps.google.com/?cid=0x0:0xb46ecb54e270dfc4,
supermarket,Toko Swalayan,toko aisya,"V59R+HVW, Jl. Ps. Panas - Tamiang Layang, Mangkarap, Kec. Dusun Tim., Kabupaten Barito Timur, Kalimantan Tengah 73671","Jl. Ps. Panas - Tamiang Layang, Mangkarap, Kec. Dusun Tim., Kabupaten Barito Timur",KALIMANTAN TENGAH,73671.0,Indonesia,,,,-2.1310104,115.1922148,https://maps.google.com/?cid=0x0:0xd9a625e5eba6351b,
supermarket,Penyedia Jasa Paralegal,Toko jasa bersama/warung makan paliat,"Jl. Ahmad Yani No.90, Tamiang Layang, Kec. Dusun Tim., Kabupaten Barito Timur, Kalimantan Tengah 73671","Tamiang Layang, Kec. Dusun Tim., Kabupaten Barito Timur",KALIMANTAN TENGAH,73671.0,Indonesia,,,,-2.1212368,115.1762673,https://maps.google.com/?cid=0x0:0x9827bfdba0f09160,
supermarket,Toko,Toko usaha kita,"RT 03, Danau, Kec. Awang, Kabupaten Barito Timur, Kalimantan Tengah 73671","Danau, Kec. Awang, Kabupaten Barito Timur",KALIMANTAN TENGAH,73671.0,Indonesia, 085368873950,,,-1.9268519,115.2541233,https://maps.google.com/?cid=0x0:0xaa38bb35eb0749d0,
supermarket,Minimarket,Toko anugerah,"V5Q8+6FQ, Jl. Ahmad Yani, Tamiang Layang, Kec. Dusun Tim., Kabupaten Barito Timur, Kalimantan Tengah 73671","Jl. Ahmad Yani, Tamiang Layang, Kec. Dusun Tim., Kabupaten Barito Timur",KALIMANTAN TENGAH,73671.0,Indonesia, 081385657791,,,-2.1119027,115.1662216,https://maps.google.com/?cid=0x0:0xdb41b1cd8cc34b52,
supermarket,Toko,TOKO HOLLY,"X48M+GCP, Jaweten, Kec. Dusun Tim., Kabupaten Barito Timur, Kalimantan Tengah 73681","Jaweten, Kec. Dusun Tim., Kabupaten Barito Timur",KALIMANTAN TENGAH,73681.0,Indonesia, 081348293651,,,-2.0336719,115.133566,https://maps.google.com/?cid=0x0:0x85a053db502f6ce8,
supermarket,Toko,Toko Ade,"V5P9+H6H, Jl. Ps. Panas - Tamiang Layang, Tamiang Layang, Kec. Dusun Tim., Kabupaten Barito Timur, Kalimantan Tengah 73671","Jl. Ps. Panas - Tamiang Layang, Tamiang Layang, Kec. Dusun Tim., Kabupaten Barito Timur",KALIMANTAN TENGAH,73671.0,Indonesia,,,,-2.1135606,115.1681235,https://maps.google.com/?cid=0x0:0xcc0cd14871538694,
supermarket,,Kios Tunukan Rama,"R6PC+433, Jl. Ps. Panas - Tamiang Layang, Jaar, Kec. Dusun Tim., Kabupaten Barito Timur, Kalimantan Tengah 73661","Jl. Ps. Panas - Tamiang Layang, Jaar, Kec. Dusun Tim., Kabupaten Barito Timur",KALIMANTAN TENGAH,73661.0,Indonesia,,,,-2.1647423,115.220169,https://maps.google.com/?cid=0x0:0x1b52a06cafafb3f4,
supermarket,Kios,Kios Gina Pangkan,"46C5+MRF, Pangkan, Kec. Paku, Kabupaten Barito Timur, Kalimantan Tengah 73652","Pangkan, Kec. Paku, Kabupaten Barito Timur",KALIMANTAN TENGAH,73652.0,Indonesia,,,,-1.878313,115.2095448,https://maps.google.com/?cid=0x0:0x4551e238cfc81841,
supermarket,Toko Swalayan,Kios Bajar,"V55X+8MF, Jl. Ps. Panas - Tamiang Layang, Jaar, Kec. Dusun Tim., Kabupaten Barito Timur, Kalimantan Tengah 73671","Jl. Ps. Panas - Tamiang Layang, Jaar, Kec. Dusun Tim., Kabupaten Barito Timur",KALIMANTAN TENGAH,73671.0,Indonesia, 082351514742,,,-2.141687,115.1991631,https://maps.google.com/?cid=0x0:0x5da0b99a230de4bc,
supermarket,Toko Beras,Toko YAYAN,"34GG+JGV, Tampa, Kec. Paku, Kabupaten Barito Timur, Kalimantan Tengah 73652","Tampa, Kec. Paku, Kabupaten Barito Timur",KALIMANTAN TENGAH,73652.0,Indonesia, 081545388887,,,-1.9233974,115.126285,https://maps.google.com/?cid=0x0:0x978af98783f04eef,
supermarket,Sarapan,Warung Iqbal,"V5FM+9X2, Jl. Ps. Panas - Tamiang Layang, Matabu, Kec. Dusun Tim., Kabupaten Barito Timur, Kalimantan Tengah 73671","Jl. Ps. Panas - Tamiang Layang, Matabu, Kec. Dusun Tim., Kabupaten Barito Timur",KALIMANTAN TENGAH,73671.0,Indonesia, 085387988087,,,-2.1266008,115.184883,https://maps.google.com/?cid=0x0:0xa2d0fcb789115a37,
supermarket,Toko Swalayan,Toko Aray,"V55X+F9X, Jl. Ps. Panas - Tamiang Layang, Jaar, Kec. Dusun Tim., Kabupaten Barito Timur, Kalimantan Tengah 73671","Jl. Ps. Panas - Tamiang Layang, Jaar, Kec. Dusun Tim., Kabupaten Barito Timur",KALIMANTAN TENGAH,73671.0,Indonesia, 085345657585,,,-2.1412748,115.198493,https://maps.google.com/?cid=0x0:0xc0be20d59ec7e208,
supermarket,Pusat Perbelanjaan,KIOS MAMA ALEX,"V5XH+5HR, Dorong, Kec. Dusun Tim., Kabupaten Barito Timur, Kalimantan Tengah 73671","Dorong, Kec. Dusun Tim., Kabupaten Barito Timur",KALIMANTAN TENGAH,73671.0,Indonesia,,,,-2.1020018,115.1789005,https://maps.google.com/?cid=0x0:0x75a4d5798e5a8b35,
supermarket,Sekolah Menengah Pertama,SMP Negeri 1 Patangkep Tutui,"W8QJ+V9X, Bentot, Kec. Patangkep Tutui, Kabupaten Barito Timur, Kalimantan Tengah 71515","Bentot, Kec. Patangkep Tutui, Kabupaten Barito Timur",KALIMANTAN TENGAH,71515.0,Indonesia,,,,-2.0602736,115.3309922,https://maps.google.com/?cid=0x0:0xfaf1e18740997d4a,
supermarket,Toko,Toko jaya,"54WF+J46, Unnamed Road, Putai, Kec. Dusun Tengah, Kabupaten Barito Timur, Kalimantan Tengah 73652","Unnamed Road, Putai, Kec. Dusun Tengah, Kabupaten Barito Timur",KALIMANTAN TENGAH,73652.0,Indonesia, 083159311731,,,-1.8034695,115.1227633,https://maps.google.com/?cid=0x0:0x8b3e903ef1dc07ba,
supermarket,Toko bahan makanan,Toko Pemi,"239G+M95, Jl. Tamiyang Layang - Ampah Ampah, Dayu, Kec. Dusun Tim., Kabupaten Barito Timur, Kalimantan Tengah 73652","Jl. Tamiyang Layang - Ampah Ampah, Dayu, Kec. Dusun Tim., Kabupaten Barito Timur",KALIMANTAN TENGAH,73652.0,Indonesia, 085347738766,,,-1.980858,115.0759983,https://maps.google.com/?cid=0x0:0xd2585ecc88b5822,
supermarket,Toko,Toko Haji Ijul,"V5R7+7Q4, Jl. Ps. Panas - Tamiang Layang, Tamiang Layang, Kec. Dusun Tim., Kabupaten Barito Timur, Kalimantan Tengah 73671","Jl. Ps. Panas - Tamiang Layang, Tamiang Layang, Kec. Dusun Tim., Kabupaten Barito Timur",KALIMANTAN TENGAH,73671.0,Indonesia,,,,-2.1093523,115.1644525,https://maps.google.com/?cid=0x0:0x23007cd72556c176,
supermarket,Salon Kecantikan,Salon MELDA,"W47R+VJG, Sumur, Kec. Dusun Tim., Kabupaten Barito Timur, Kalimantan Tengah 73681","Sumur, Kec. Dusun Tim., Kabupaten Barito Timur",KALIMANTAN TENGAH,73681.0,Indonesia,,,,-2.0853023,115.1415792,https://maps.google.com/?cid=0x0:0x2c85ea08d04289a2,
supermarket,Toko,Toko ABI,"X47M+FFG, Jaweten, Kec. Dusun Tim., Kabupaten Barito Timur, Kalimantan Tengah 73681","Jaweten, Kec. Dusun Tim., Kabupaten Barito Timur",KALIMANTAN TENGAH,73681.0,Indonesia,,,,-2.0363237,115.133693,https://maps.google.com/?cid=0x0:0x17ab5220b2ee1b2e,
supermarket,Minimarket,3D Mart,"X864+265, Bentot, Kec. Patangkep Tutui, Kabupaten Barito Timur, Kalimantan Tengah 71515","Bentot, Kec. Patangkep Tutui, Kabupaten Barito Timur",KALIMANTAN TENGAH,71515.0,Indonesia,,,,-2.0399931,115.3056162,https://maps.google.com/?cid=0x0:0x3e5ed6c159c5705b,
supermarket,Makanan Kecil,Warung Mama Nova,"W878+H95, Ramania, Kec. Patangkep Tutui, Kabupaten Barito Timur, Kalimantan Tengah 73671","Ramania, Kec. Patangkep Tutui, Kabupaten Barito Timur",KALIMANTAN TENGAH,73671.0,Indonesia,,,,-2.0859037,115.3158712,https://maps.google.com/?cid=0x0:0xd315a2a3a1bf6907,
supermarket,Komplek perumahan,Komp. Perumnas Patianom,"V5Q3+H88, Tamiang Layang, Kec. Dusun Tim., Kabupaten Barito Timur, Kalimantan Tengah 73671","Tamiang Layang, Kec. Dusun Tim., Kabupaten Barito Timur",KALIMANTAN TENGAH,73671.0,Indonesia, 081521915915,,,-2.1110964,115.1533426,https://maps.google.com/?cid=0x0:0x2ceb66ab38c14a88,
supermarket,Toko,Toko mama dayah,"39Q8+7MX, Jango, Kec. Patangkep Tutui, Kabupaten Barito Timur, Kalimantan Tengah","Kabupaten Barito Timur, Kalimantan Tengah",KALIMANTAN TENGAH,,Indonesia,,,,-1.9117544,115.3667218,https://maps.google.com/?cid=0x0:0x3f08a109211ae7cc,
supermarket,Toko bahan makanan,Toko Alfi,"Bentot, Kec. Patangkep Tutui, Kabupaten Barito Timur, Kalimantan Tengah 73671","Kec. Patangkep Tutui, Kabupaten Barito Timur",KALIMANTAN TENGAH,73671.0,Indonesia,,,,-2.0401967,115.3061284,https://maps.google.com/?cid=0x0:0x999696f2280874e3,
supermarket,Pusat Perbelanjaan,Mini Market Winda,"Matabu, Kec. Dusun Tim., Kabupaten Barito Timur, Kalimantan Tengah 73671","Kec. Dusun Tim., Kabupaten Barito Timur",KALIMANTAN TENGAH,73671.0,Indonesia,,,,-2.1261013,115.1845868,https://maps.google.com/?cid=0x0:0xf9ee9963c3f57d11,
supermarket,Toko,TOKO ANDRE JAYA,"Tamiang Layang, Kec. Dusun Tim., Kabupaten Barito Timur, Kalimantan Tengah 73671","Kec. Dusun Tim., Kabupaten Barito Timur",KALIMANTAN TENGAH,73671.0,Indonesia, 081250583600,,,-2.1062553,115.1599756,https://maps.google.com/?cid=0x0:0xf5fe21100c05e9fe,
supermarket,supermarket,Kalimantan Tengah 73653,"Kabupaten Barito Selatan, Kalimantan Tengah","Kabupaten Barito Selatan, Kalimantan Tengah",KALIMANTAN TENGAH,,Indonesia,,,,-1.7491595,114.9754175,https://maps.google.com/?cid=0x0:0xd6ed047f12362357,
supermarket,Toko Swalayan,WARUNG ABAH NUR,"938G+9R5, Marga Jaya, Kec. Gn. Bintang Awai, Kabupaten Barito Selatan, Kalimantan Tengah 73653","Marga Jaya, Kec. Gn. Bintang Awai, Kabupaten Barito Selatan",KALIMANTAN TENGAH,73653.0,Indonesia,,,,-1.6341003,115.0771217,https://maps.google.com/?cid=0x0:0x8478fffb081fdb0c,
supermarket,Pusat Perbelanjaan,KM.ARRAHMAN,"Gg. Dua Tiga, Buntok Kota, Kec. Dusun Sel., Kabupaten Barito Selatan, Kalimantan Tengah 73751","Buntok Kota, Kec. Dusun Sel., Kabupaten Barito Selatan",KALIMANTAN TENGAH,73751.0,Indonesia, 081254537778,,,-1.7139773,114.8372638,https://maps.google.com/?cid=0x0:0xd1bff63bb5438dc2,
supermarket,Toko bahan makanan,Warung Abah Dipo,"7VXC+677, Jl. Jemb. Pintas, Pamait, Kec. Dusun Sel., Kabupaten Barito Selatan, Kalimantan Tengah 73713","Jl. Jemb. Pintas, Pamait, Kec. Dusun Sel., Kabupaten Barito Selatan",KALIMANTAN TENGAH,73713.0,Indonesia,,,,-1.7019643,114.8706748,https://maps.google.com/?cid=0x0:0x2109be81e1f886fa,
supermarket,Toko makanan beku,Warung mamah salwa,"54XR+6GM, Ampah Kota, Kec. Dusun Tengah, Kabupaten Barito Timur, Kalimantan Tengah 73652","Ampah Kota, Kec. Dusun Tengah, Kabupaten Barito Timur",KALIMANTAN TENGAH,73652.0,Indonesia, 085821811058,,,-1.801807,115.1409483,https://maps.google.com/?cid=0x0:0x880d39c9a4681b3b,
supermarket,Toko,SM Mart Mini Market Buntok,"7RHV+X5J, Jl. Pelita Raya, Buntok Kota, Kec. Dusun Sel., Kabupaten Barito Selatan, Kalimantan Tengah 73751","Jl. Pelita Raya, Buntok Kota, Kec. Dusun Sel., Kabupaten Barito Selatan",KALIMANTAN TENGAH,73751.0,Indonesia,,,,-1.720028,114.8429015,https://maps.google.com/?cid=0x0:0xe741818a61bcbbda,
supermarket,Toko Swalayan,Megamarket Dudut,"PP. Dinan, Jalan, Tabak Kanilan, Gunung Bintang Awai, South Barito Regency, Central Kalimantan 73753","Jalan, Tabak Kanilan, Gunung Bintang Awai, South Barito Regency",KALIMANTAN TENGAH,73753.0,Indonesia,,,,-1.5539219,115.0528075,https://maps.google.com/?cid=0x0:0x7ee638d3d06f367f,
supermarket,Kafe,The Forest Store,"Kalahien - Buntok, Kalahien, Kec. Dusun Sel., Kabupaten Barito Selatan, Kalimantan Tengah 73751","Kalahien, Kec. Dusun Sel., Kabupaten Barito Selatan",KALIMANTAN TENGAH,73751.0,Indonesia, 081255568699,,,-1.6433787,114.8157361,https://maps.google.com/?cid=0x0:0xa8f5c5b98dcc5d7f,
supermarket,Toko bahan makanan,Toko Pemi,"239G+M95, Jl. Tamiyang Layang - Ampah Ampah, Dayu, Kec. Dusun Tim., Kabupaten Barito Timur, Kalimantan Tengah 73652","Jl. Tamiyang Layang - Ampah Ampah, Dayu, Kec. Dusun Tim., Kabupaten Barito Timur",KALIMANTAN TENGAH,73652.0,Indonesia, 085347738766,,,-1.980858,115.0759983,https://maps.google.com/?cid=0x0:0xd2585ecc88b5822,
supermarket,Toko Perlengkapan Rumah,DW Mart,"Jl. Soekarno - Hatta, Sanggu, Kec. Dusun Sel., Kabupaten Barito Selatan, Kalimantan Tengah 73713","Sanggu, Kec. Dusun Sel., Kabupaten Barito Selatan",KALIMANTAN TENGAH,73713.0,Indonesia,,,,-1.6904417,114.9086704,https://maps.google.com/?cid=0x0:0xacd1be56a6ce9b1e,
supermarket,Toko Beras,Toko YAYAN,"34GG+JGV, Tampa, Kec. Paku, Kabupaten Barito Timur, Kalimantan Tengah 73652","Tampa, Kec. Paku, Kabupaten Barito Timur",KALIMANTAN TENGAH,73652.0,Indonesia, 081545388887,,,-1.9233974,115.126285,https://maps.google.com/?cid=0x0:0x978af98783f04eef,
supermarket,Toko Swalayan,Toko Yadi Tinghui,"65M2+PJ8, Jl. Pahlawan, Ampah Kota, Kec. Dusun Tengah, Kabupaten Barito Timur, Kalimantan Tengah 73652","Jl. Pahlawan, Ampah Kota, Kec. Dusun Tengah, Kabupaten Barito Timur",KALIMANTAN TENGAH,73652.0,Indonesia,,,,-1.7657165,115.1515731,https://maps.google.com/?cid=0x0:0xfc616c37766e4945,
supermarket,Toko Percetakan,Pencetakan stempel,"3262+44R, Muara Palantau, Kec. Pematang Karau, Kabupaten Barito Timur, Kalimantan Tengah 73652","Muara Palantau, Kec. Pematang Karau, Kabupaten Barito Timur",KALIMANTAN TENGAH,73652.0,Indonesia,,,,-1.9396436,115.0002576,https://maps.google.com/?cid=0x0:0x2bca3d2c8f235c0f,
supermarket,Minimarket,Kios RIZKY,"55FM+33R, Jl. Tamiyang Layang - Ampah Ampah, Rodok, Kec. Dusun Tengah, Kabupaten Barito Timur, Kalimantan Tengah 73652","Jl. Tamiyang Layang - Ampah Ampah, Rodok, Kec. Dusun Tengah, Kabupaten Barito Timur",KALIMANTAN TENGAH,73652.0,Indonesia,,,,-1.8272599,115.1826325,https://maps.google.com/?cid=0x0:0xb7c867841a761812,
supermarket,Toko Swalayan,Toko Nizam,"F528+75Q, Luwir, Muara Singan, Kec. Gn. Bintang Awai, Kabupaten Barito Selatan, Kalimantan Tengah 73753","Luwir, Muara Singan, Kec. Gn. Bintang Awai, Kabupaten Barito Selatan",KALIMANTAN TENGAH,73753.0,Indonesia,,,,-1.5492804,115.1654693,https://maps.google.com/?cid=0x0:0x43a59f1050a9e00e,
supermarket,Toko bahan makanan,TOKO RULLY,"Ampah Kota, Kec. Dusun Tengah, Kabupaten Barito Timur, Kalimantan Tengah 73652","Kec. Dusun Tengah, Kabupaten Barito Timur",KALIMANTAN TENGAH,73652.0,Indonesia, 052231481,,,-1.7995777,115.1509772,https://maps.google.com/?cid=0x0:0xaf91f4a4323a1fa1,
supermarket,Toko Kelontong Asia,WARUNG NUZHAH  NAJLA,"55HH+QGV, Jl. Tamiyang Layang - Ampah Ampah, Rodok, Kec. Dusun Tengah, Kabupaten Barito Timur, Kalimantan Tengah 73652","Jl. Tamiyang Layang - Ampah Ampah, Rodok, Kec. Dusun Tengah, Kabupaten Barito Timur",KALIMANTAN TENGAH,73652.0,Indonesia,,,,-1.8205087,115.1788044,https://maps.google.com/?cid=0x0:0xeb32465244482bf7,
supermarket,Toko Swalayan,Lima cahaya,"7RMX+X65, Jl. Pahlawan, Buntok Kota, Kec. Dusun Sel., Kabupaten Barito Selatan, Kalimantan Tengah 73713","Jl. Pahlawan, Buntok Kota, Kec. Dusun Sel., Kabupaten Barito Selatan",KALIMANTAN TENGAH,73713.0,Indonesia,,,,-1.7151037,114.8481029,https://maps.google.com/?cid=0x0:0xcab22defae3647a3,
supermarket,Dapur Umum,Toko Willy Dayu,"Dayu, Kec. Karusen Janang, Kabupaten Barito Timur, Kalimantan Tengah 73652","Kec. Karusen Janang, Kabupaten Barito Timur",KALIMANTAN TENGAH,73652.0,Indonesia,,,,-1.9810885,115.0761107,https://maps.google.com/?cid=0x0:0x9b7b1673c2530e3,
supermarket,Sarapan,Kios mama grace,"844R+C49, Unnamed Road, Unsum, Kec. Raren Batuah, Kabupaten Barito Timur, Kalimantan Tengah 73652","Unnamed Road, Unsum, Kec. Raren Batuah, Kabupaten Barito Timur",KALIMANTAN TENGAH,73652.0,Indonesia,,,,-1.6939671,115.1403573,https://maps.google.com/?cid=0x0:0x925e39ae4d7b1d07,
supermarket,Toko,Toko MM. Gadis,"52RW+HJ7, Bararawa, Kec. Pematang Karau, Kabupaten Barito Timur, Kalimantan Tengah 73652","Bararawa, Kec. Pematang Karau, Kabupaten Barito Timur",KALIMANTAN TENGAH,73652.0,Indonesia,,,,-1.8088034,115.0465425,https://maps.google.com/?cid=0x0:0xdbf780eb93d36a18,
supermarket,Pasar,Pasar Tuyau,"529R+6X4, Tuyau, Kec. Pematang Karau, Kabupaten Barito Timur, Kalimantan Tengah 73652","Tuyau, Kec. Pematang Karau, Kabupaten Barito Timur",KALIMANTAN TENGAH,73652.0,Indonesia,,,,-1.8319953,115.0424679,https://maps.google.com/?cid=0x0:0x2853dae04f9b2b6a,
supermarket,Komplek perumahan,Warung desa bambulung,"53W3+M56, Bararawa, Kec. Pematang Karau, Kabupaten Barito Timur, Kalimantan Tengah 73652","Bararawa, Kec. Pematang Karau, Kabupaten Barito Timur",KALIMANTAN TENGAH,73652.0,Indonesia,,,,-1.8033327,115.0528891,https://maps.google.com/?cid=0x0:0x9ae01b8d5af46d93,
supermarket,Nasi,Warung mama adel,"52PR+565, Bambulung, Kec. Pematang Karau, Kabupaten Barito Timur, Kalimantan Tengah","Kabupaten Barito Timur, Kalimantan Tengah",KALIMANTAN TENGAH,,Indonesia,,,,-1.8151632,115.0400949,https://maps.google.com/?cid=0x0:0x5712f87fae9e1f29,
supermarket,supermarket,Toko sembako huda,"52RG+2MF, Bambulung, Kec. Pematang Karau, Kabupaten Barito Timur, Kalimantan Tengah","Kabupaten Barito Timur, Kalimantan Tengah",KALIMANTAN TENGAH,,Indonesia, 085251565412,,,-1.8093568,115.027866,https://maps.google.com/?cid=0x0:0xb2449f761d78431b,
supermarket,Minimarket,Alfamart Soekarno Hatta KM.14,"8W38+FXX, Jl. Soekarno - Hatta, Sababilah, Kec. Dusun Sel., Kabupaten Barito Selatan, Kalimantan Tengah 73713","Jl. Soekarno - Hatta, Sababilah, Kec. Dusun Sel., Kabupaten Barito Selatan",KALIMANTAN TENGAH,73713.0,Indonesia,,,,-1.6962554,114.9174723,https://maps.google.com/?cid=0x0:0x6cbc4503736261a4,
supermarket,Toko bahan makanan,Toko Rumi Agen Mandiri,"53WQ+JH8, Unnamed Road, Putai, Bararawa, Kec. Dusun Tengah, Kabupaten Barito Timur, Kalimantan Tengah 73652","Unnamed Road, Putai, Bararawa, Kec. Dusun Tengah, Kabupaten Barito Timur",KALIMANTAN TENGAH,73652.0,Indonesia, 081345435487,,,-1.803473,115.0889385,https://maps.google.com/?cid=0x0:0x1b1c7a4542fc85e5,
supermarket,supermarket,Kec. Raren Batuah,"Kabupaten Barito Timur, Kalimantan Tengah","Kabupaten Barito Timur, Kalimantan Tengah",KALIMANTAN TENGAH,,Indonesia,,,,-1.7435641,115.1517853,https://maps.google.com/?cid=0x0:0x581b014235e95caf,
supermarket,Kantor Pemerintah,Pasar Desa Batuah,"75FM+6X4, Unnamed Road, Batuah, Kec. Raren Batuah, Kabupaten Barito Timur, Kalimantan Tengah 73652","Unnamed Road, Batuah, Kec. Raren Batuah, Kabupaten Barito Timur",KALIMANTAN TENGAH,73652.0,Indonesia,,,,-1.7269872,115.1849677,https://maps.google.com/?cid=0x0:0x7d85deab4e70b050,
supermarket,Sarapan,Kios mama grace,"844R+C49, Unnamed Road, Unsum, Kec. Raren Batuah, Kabupaten Barito Timur, Kalimantan Tengah 73652","Unnamed Road, Unsum, Kec. Raren Batuah, Kabupaten Barito Timur",KALIMANTAN TENGAH,73652.0,Indonesia,,,,-1.6939671,115.1403573,https://maps.google.com/?cid=0x0:0x925e39ae4d7b1d07,
supermarket,Toko umum,Isi ulang Galon Eca Unsum,"85J2+C56, Patas - Ampah, Baruyan, Kec. Raren Batuah, Kabupaten Barito Timur, Kalimantan Tengah 73652","Patas - Ampah, Baruyan, Kec. Raren Batuah, Kabupaten Barito Timur",KALIMANTAN TENGAH,73652.0,Indonesia, 081549114761,,,-1.6689673,115.1503923,https://maps.google.com/?cid=0x0:0xadff159b56360403,
supermarket,Toko Swalayan,toko yadi senjaya,"65Q3+334, Ampah Kota, Kec. Dusun Tengah, Kabupaten Barito Timur, Kalimantan Tengah 73652","Ampah Kota, Kec. Dusun Tengah, Kabupaten Barito Timur",KALIMANTAN TENGAH,73652.0,Indonesia,,,,-1.7623708,115.1526917,https://maps.google.com/?cid=0x0:0x57f104b0b41483f8,
supermarket,Toko Swalayan,Toko Yadi Tinghui,"65M2+PJ8, Jl. Pahlawan, Ampah Kota, Kec. Dusun Tengah, Kabupaten Barito Timur, Kalimantan Tengah 73652","Jl. Pahlawan, Ampah Kota, Kec. Dusun Tengah, Kabupaten Barito Timur",KALIMANTAN TENGAH,73652.0,Indonesia,,,,-1.7657165,115.1515731,https://maps.google.com/?cid=0x0:0xfc616c37766e4945,
supermarket,Toko bahan makanan,Toko:SARAH,"Unsum no/50, RT./06, Kec. Raren Batuah","Kabupaten Barito Timur, Kalimantan Tengah",KALIMANTAN TENGAH,,Indonesia,,,,-1.6850535,115.1296249,https://maps.google.com/?cid=0x0:0xdbdd9b64cbbfc524,
supermarket,Toko bahan makanan,SRC eka,"6524+WPJ, Ampah, Ampah Kota, Kec. Dusun Tengah, Kabupaten Barito Timur, Kalimantan Tengah 73652","Ampah, Ampah Kota, Kec. Dusun Tengah, Kabupaten Barito Timur",KALIMANTAN TENGAH,73652.0,Indonesia,,,,-1.7976599,115.1567644,https://maps.google.com/?cid=0x0:0x2ae50a699826cf14,
supermarket,supermarket,TOKO LITTLEBOSS,"758P+83R, Unnamed Road, Batuah, Kec. Raren Batuah, Kabupaten Barito Timur, Kalimantan Tengah 73652","Unnamed Road, Batuah, Kec. Raren Batuah, Kabupaten Barito Timur",KALIMANTAN TENGAH,73652.0,Indonesia,,,,-1.7341404,115.1851274,https://maps.google.com/?cid=0x0:0x5bbc58a3c574ce13,
supermarket,supermarket,Kios ACHA,"Sibung, RT.09, Batuah, Kec. Raren Batuah, Kabupaten Barito Timur, Kalimantan Tengah 73652","RT.09, Batuah, Kec. Raren Batuah, Kabupaten Barito Timur",KALIMANTAN TENGAH,73652.0,Indonesia,,,,-1.738635,115.1844171,https://maps.google.com/?cid=0x0:0x6a69aa8c9be450fb,
supermarket,Toko bahan makanan,TOKO RULLY,"Ampah Kota, Kec. Dusun Tengah, Kabupaten Barito Timur, Kalimantan Tengah 73652","Kec. Dusun Tengah, Kabupaten Barito Timur",KALIMANTAN TENGAH,73652.0,Indonesia, 052231481,,,-1.7995777,115.1509772,https://maps.google.com/?cid=0x0:0xaf91f4a4323a1fa1,
