Category,Real Category,Business Name,Address,City,State,Postal Code,Country,Phone,Email,Website,Latitude,Longitude,Map Link,Details Link
komplek housing,komplek housing,RUMAH RESSA AUREL,"X3XX+RX5, Simpang Naneng, Kec. Karusen Janang, Kabupaten Barito Timur, Kalimantan Tengah 73681","Simpang Naneng, Kec. Karusen Janang, Kabupaten Barito Timur",KALIMANTAN TENGAH,73681.0,Indonesia,,,,-2.0004995,115.0999753,https://maps.google.com/?cid=0x0:0xad0c1c49000c76f3,
komplek housing,komplek housing,Kalimantan Tengah 73681,"Kabupaten Barito Timur, Kalimantan Tengah","Kabupaten Barito Timur, Kalimantan Tengah",KALIMANTAN TENGAH,,Indonesia,,,,-1.9957549,115.1177654,https://maps.google.com/?cid=0x0:0xad325f18fddf1160,
komplek housing,Rumah Kayu,Rumah Ebekson,"Jl. Tamiyang Layang - Ampah No.KM 7, Sumur, Kec. Dusun Tim., Kabupaten Barito Timur, Kalimantan Tengah 73681","Sumur, Kec. Dusun Tim., Kabupaten Barito Timur",KALIMANTAN TENGAH,73681.0,Indonesia,,,,-2.0568774,115.1358165,https://maps.google.com/?cid=0x0:0xf4e963e32d333c9f,
komplek housing,Pembangunan Perumahan,Insyah,"25FW+M8V, Janah Jari, Kec. Awang, Kabupaten Barito Timur, Kalimantan Tengah 73671","Janah Jari, Kec. Awang, Kabupaten Barito Timur",KALIMANTAN TENGAH,73671.0,Indonesia,,,,-1.9757538,115.1957632,https://maps.google.com/?cid=0x0:0x57c28ea5dc53b9bb,
komplek housing,Pembangunan Perumahan,Mengukur sebidang tanah,"X46P+XHR, Dekat SDN 2, Jaweten, Kec. Dusun Tim., Kabupaten Barito Timur, Kalimantan Tengah","Kabupaten Barito Timur, Kalimantan Tengah",KALIMANTAN TENGAH,,Indonesia,,,,-2.0375062,115.1363826,https://maps.google.com/?cid=0x0:0x1a8a96800d35575a,
komplek housing,Pembangunan Perumahan,Rumah amah jabang,"25FW+JCQ, Janah Jari, Kec. Awang, Kabupaten Barito Timur, Kalimantan Tengah 73671","Janah Jari, Kec. Awang, Kabupaten Barito Timur",KALIMANTAN TENGAH,73671.0,Indonesia,,,,-1.976129,115.195894,https://maps.google.com/?cid=0x0:0xdbd1c9001f995fcf,
komplek housing,Pembangunan Perumahan,My home,"Gang warga 1 No.52, Jaweten, Kec. Dusun Tim., Kabupaten Barito Timur, Kalimantan Tengah","Kabupaten Barito Timur, Kalimantan Tengah",KALIMANTAN TENGAH,,Indonesia,,,,-2.0355599,115.1355545,https://maps.google.com/?cid=0x0:0xb0eca45fd6fd5e00,
komplek housing,komplek housing,Rangga saputra,"34CX+933, Tarinsing, Kec. Paku, Kabupaten Barito Timur, Kalimantan Tengah","Kabupaten Barito Timur, Kalimantan Tengah",KALIMANTAN TENGAH,,Indonesia,,,,-1.9291244,115.1476618,https://maps.google.com/?cid=0x0:0xecd2e50da1b6f9fd,
komplek housing,Komplek perumahan,Callen,"W4MP+HH2, Sumur, Kec. Dusun Tim., Kabupaten Barito Timur, Kalimantan Tengah 73681","Sumur, Kec. Dusun Tim., Kabupaten Barito Timur",KALIMANTAN TENGAH,73681.0,Indonesia,,,,-2.0659867,115.1359999,https://maps.google.com/?cid=0x0:0x9bccd14815e34238,
komplek housing,Pembangunan Perumahan,Hayaping,"26CV+7HP, Hayaping, Kec. Awang, Kabupaten Barito Timur, Kalimantan Tengah 73671","Hayaping, Kec. Awang, Kabupaten Barito Timur",KALIMANTAN TENGAH,73671.0,Indonesia,,,,-1.9792917,115.2439615,https://maps.google.com/?cid=0x0:0x8a8b04e2e4ef7a68,
komplek housing,Perhimpunan Pengembang Perumahan,Home lesiana,"X7R8+WRC, Tangkan, Kec. Awang, Kabupaten Barito Timur, Kalimantan Tengah","Kabupaten Barito Timur, Kalimantan Tengah",KALIMANTAN TENGAH,,Indonesia,,,,-2.0076955,115.2670114,https://maps.google.com/?cid=0x0:0x5075e157bb69fcb2,
komplek housing,Motel,Rumahku,"X47P+FC5, Jaweten, Kec. Dusun Tim., Kabupaten Barito Timur, Kalimantan Tengah","Kabupaten Barito Timur, Kalimantan Tengah",KALIMANTAN TENGAH,,Indonesia,,,,-2.036594,115.1353479,https://maps.google.com/?cid=0x0:0x7c54d955d97a8c88,
komplek housing,Perumahan,Perumahan pondok indah 1,"Jl. Ahmad Yani perumahan pondok indah No.1, Tamiang Layang, Kec. Katingan Hilir, Kabupaten Katingan, Kalimantan Tengah 74413","Tamiang Layang, Kec. Katingan Hilir, Kabupaten Katingan",KALIMANTAN TENGAH,74413.0,Indonesia,,,,-2.0942761,115.1461655,https://maps.google.com/?cid=0x0:0xa86d9eaab1a4af,
komplek housing,Komplek perumahan,Depan rumah bapak marvel,"X47P+5J2, Jaweten, Kec. Dusun Tim., Kabupaten Barito Timur, Kalimantan Tengah","Kabupaten Barito Timur, Kalimantan Tengah",KALIMANTAN TENGAH,,Indonesia,,,,-2.0371087,115.1365105,https://maps.google.com/?cid=0x0:0x961882c8530ef641,
komplek housing,Komplek perumahan,Rm. L.N.G,"X46M+26G, Jl. Tamiyang Layang - Ampah, Jaweten, Kec. Dusun Tim., Kabupaten Barito Timur, Kalimantan Tengah 73681","Jl. Tamiyang Layang - Ampah, Jaweten, Kec. Dusun Tim., Kabupaten Barito Timur",KALIMANTAN TENGAH,73681.0,Indonesia,,,,-2.0399606,115.1330623,https://maps.google.com/?cid=0x0:0x9dde3cb6cc9919a3,
komplek housing,Pembangunan Perumahan,Mess kebun,"255R+WQC, Janah Jari, Kec. Awang, Kabupaten Barito Timur, Kalimantan Tengah","Kabupaten Barito Timur, Kalimantan Tengah",KALIMANTAN TENGAH,,Indonesia,,,,-1.990176,115.1918801,https://maps.google.com/?cid=0x0:0x7bc23ff8307fab86,
komplek housing,Pembangunan Perumahan,Rumah Rinto,"X597+XP, Karang Langit, Kec. Dusun Tim., Kabupaten Barito Timur, Kalimantan Tengah","Kabupaten Barito Timur, Kalimantan Tengah",KALIMANTAN TENGAH,,Indonesia, 0822253134423,,,-2.0306488,115.1641436,https://maps.google.com/?cid=0x0:0xcd2b37f039939d81,
komplek housing,Komplek perumahan,Rumah Artikel Lores/Upu,"X48M+QRF, Jl. Tamiyang Layang - Ampah, Jaweten, Kec. Dusun Tim., Kabupaten Barito Timur, Kalimantan Tengah 73681","Jl. Tamiyang Layang - Ampah, Jaweten, Kec. Dusun Tim., Kabupaten Barito Timur",KALIMANTAN TENGAH,73681.0,Indonesia,,,,-2.0324628,115.1347593,https://maps.google.com/?cid=0x0:0x1ed692fc5cff18f0,
komplek housing,Komplek perumahan,Lewu pito,"X597+XP, Karang Langit, Kec. Dusun Tim., Kabupaten Barito Timur, Kalimantan Tengah","Kabupaten Barito Timur, Kalimantan Tengah",KALIMANTAN TENGAH,,Indonesia,,,,-2.0300271,115.1642966,https://maps.google.com/?cid=0x0:0x45395fd572496ed,
komplek housing,Komplek perumahan,Awang lama,"G926+87, Awang, Kec. Batang Alai Utara, Kabupaten Hulu Sungai Tengah, Kalimantan Selatan","Kabupaten Hulu Sungai Tengah, Kalimantan Selatan",KALIMANTAN TENGAH,,Indonesia,,,,-2.499209,115.3607459,https://maps.google.com/?cid=0x0:0xc29324bc0026d26e,
komplek housing,komplek housing,Kec. Awang,"Kabupaten Barito Timur, Kalimantan Tengah","Kabupaten Barito Timur, Kalimantan Tengah",KALIMANTAN TENGAH,,Indonesia,,,,-1.9780657,115.2358685,https://maps.google.com/?cid=0x0:0x1b045016f370f948,
komplek housing,Pembangunan Perumahan,Lewu Bryan Adam,"Jl. B Ngiwis No.43, RT.02, Hayaping, Kec. Awang, Kabupaten Barito Timur, Kalimantan Tengah 73681","RT.02, Hayaping, Kec. Awang, Kabupaten Barito Timur",KALIMANTAN TENGAH,73681.0,Indonesia,,,,-1.9716723,115.2304131,https://maps.google.com/?cid=0x0:0x6523b1be208eca2a,
komplek housing,Komplek perumahan,Jalan Dampu Awang,"RV93+WMR, Jl. Dampu Awang, Bukit Tunggal, Kec. Jekan Raya, Kota Palangka Raya, Kalimantan Tengah 74874","Jl. Dampu Awang, Bukit Tunggal, Kec. Jekan Raya, Kota Palangka Raya",KALIMANTAN TENGAH,74874.0,Indonesia,,,,-2.1801365,113.8541536,https://maps.google.com/?cid=0x0:0x3914268cb5f594c1,
komplek housing,Otoritas Perumahan,Komplek Perumahan Anugrah Fazria Abadi,"QJVM+V82, Puntik Tengah, Kec. Mandastana, Kabupaten Barito Kuala, Kalimantan Selatan 70581","Puntik Tengah, Kec. Mandastana, Kabupaten Barito Kuala",KALIMANTAN TENGAH,70581.0,Indonesia,,,,-3.2053641,114.6332804,https://maps.google.com/?cid=0x0:0xf276b6c5de97e65,
komplek housing,Pembangunan Perumahan,Mempelai wanita,"233W+7RV, Simpang Naneng, Kec. Karusen Janang, Kabupaten Barito Timur, Kalimantan Tengah 73681","Simpang Naneng, Kec. Karusen Janang, Kabupaten Barito Timur",KALIMANTAN TENGAH,73681.0,Indonesia,,,,-1.9970339,115.0974894,https://maps.google.com/?cid=0x0:0x9b1363e54bb1c316,
komplek housing,Perusahaan investasi properti,Property syari'ah,"Jl,.warung asem 3 no 17A Rt 06 Rw 04 Jl.warung asem 3 no 17A, RT.6/RW.4, Rw. Bunga, Kecamatan Jatinegara, Kota Jakarta Timur, Daerah Khusus Ibukota Jakarta 13350","RT.6/RW.4, Rw. Bunga, Kecamatan Jatinegara, Kota Jakarta Timur",KALIMANTAN TENGAH,13350.0,Indonesia, 08811824112,,,-6.2187318,106.8717341,https://maps.google.com/?cid=0x0:0xed1285b140d55172,
komplek housing,Perumahan,Premier estate 3,"RT.001/RW.009, Jatisampurna, Kec. Jatisampurna, Kota Bks, Jawa Barat 17433","Jatisampurna, Kec. Jatisampurna, Kota Bks",KALIMANTAN TENGAH,17433.0,Indonesia,,,,-6.3584867,106.9181935,https://maps.google.com/?cid=0x0:0x5cb230c0f45cc666,
komplek housing,Pembangunan Perumahan,Perumahan Areum Parc,"FP5V+MP4, Jl. Atang Senjaya, Semplak Bar., Kec. Kemang, Kabupaten Bogor, Jawa Barat 16310","Jl. Atang Senjaya, Semplak Bar., Kec. Kemang, Kabupaten Bogor",KALIMANTAN TENGAH,16310.0,Indonesia, 088906129898,,,-6.5406435,106.7442782,https://maps.google.com/?cid=0x0:0xc5659682c9c877a6,
komplek housing,Pembangunan Perumahan,Mutiara Gading Timur(MGT),"Jl. Mutiara Gading Timur Raya No.27-30 Blok R4, RT.010/RW.029, Mustikajaya, Kecamatan Bekasi Timur, Kota Bks, Jawa Barat 17158","RT.010/RW.029, Mustikajaya, Kecamatan Bekasi Timur, Kota Bks",KALIMANTAN TENGAH,17158.0,Indonesia, 02182607272,,,-6.2863289,107.0326047,https://maps.google.com/?cid=0x0:0x8309e954a5483380,
komplek housing,komplek housing,Kalimantan Tengah 73661,"Kec. Benua Lima, Kabupaten Barito Timur, Kalimantan Tengah","Kabupaten Barito Timur, Kalimantan Tengah",KALIMANTAN TENGAH,,Indonesia,,,,-2.2459171,115.1177654,https://maps.google.com/?cid=0x0:0x6244b86fbc9e52c1,
komplek housing,komplek housing,Gg Tiwadak Tunggal,"R6FH+2H8, Jl. Ahmad Yani, Taniran, Kec. Benua Lima, Kabupaten Barito Timur, Kalimantan Tengah","Kabupaten Barito Timur, Kalimantan Tengah",KALIMANTAN TENGAH,,Indonesia,,,,-2.1774703,115.2289629,https://maps.google.com/?cid=0x0:0x649e52f103c9720a,
komplek housing,Pembangunan Perumahan,Yuliana's Home,"R67G+JC, Taniran, Kec. Benua Lima, Kabupaten Barito Timur, Kalimantan Tengah","Kabupaten Barito Timur, Kalimantan Tengah",KALIMANTAN TENGAH,,Indonesia,,,,-2.1860192,115.2260793,https://maps.google.com/?cid=0x0:0x4a8d8cc680607e1a,
komplek housing,Komplek perumahan,Rumah Wahyuni,"R7G3+5R5, Jl. Pasar Panas-Bentot, Bamban, Kec. Benua Lima, Kabupaten Barito Timur, Kalimantan Tengah 73661","Jl. Pasar Panas-Bentot, Bamban, Kec. Benua Lima, Kabupaten Barito Timur",KALIMANTAN TENGAH,73661.0,Indonesia,,,,-2.1748409,115.2543078,https://maps.google.com/?cid=0x0:0x780eb98b32e7f244,
komplek housing,Komplek perumahan,Dea Home,"V5MC+H2V, Tamiang Layang, Kec. Dusun Tim., Kabupaten Barito Timur, Kalimantan Tengah","Kabupaten Barito Timur, Kalimantan Tengah",KALIMANTAN TENGAH,,Indonesia,,,,-2.1160004,115.1700513,https://maps.google.com/?cid=0x0:0x1555e9814dbdcd02,
komplek housing,Pembangunan Perumahan,Alamat Rumah Ineh April,"R68H+JG6, Gang balai wani, Taniran, Kec. Benua Lima, Kabupaten Barito Timur, Kalimantan Tengah","Kabupaten Barito Timur, Kalimantan Tengah",KALIMANTAN TENGAH,,Indonesia,,,,-2.1834724,115.2287738,https://maps.google.com/?cid=0x0:0x901d974820372b6e,
komplek housing,Toko Perlengkapan Rumah,Rumah pak YONO TILUS,"Q7R4+F47, Banyu Landas, Kec. Benua Lima, Kabupaten Barito Timur, Kalimantan Tengah 73661","Banyu Landas, Kec. Benua Lima, Kabupaten Barito Timur",KALIMANTAN TENGAH,73661.0,Indonesia,,,,-2.2088486,115.2552965,https://maps.google.com/?cid=0x0:0x3e62e0ddd77c8199,
komplek housing,Pembangunan Perumahan,Naza home,"V5HJ+2W3, Matabu, Kec. Dusun Tim., Kabupaten Barito Timur, Kalimantan Tengah 73671","Matabu, Kec. Dusun Tim., Kabupaten Barito Timur",KALIMANTAN TENGAH,73671.0,Indonesia,,,,-2.1224824,115.1822952,https://maps.google.com/?cid=0x0:0x4f62acbdee25e141,
komplek housing,Komplek perumahan,Rumah Sari,"R67J+64W, Jl. Ps. Panas - Tamiang Layang, Taniran, Kec. Benua Lima, Kabupaten Barito Timur, Kalimantan Tengah 73661","Jl. Ps. Panas - Tamiang Layang, Taniran, Kec. Benua Lima, Kabupaten Barito Timur",KALIMANTAN TENGAH,73661.0,Indonesia,,,,-2.1875544,115.2300838,https://maps.google.com/?cid=0x0:0xd8245a51f472628a,
komplek housing,Perhimpunan Pengembang Perumahan,Home I'IN HABIBAH,"V5JF+CRX, Tamiang Layang, Kec. Dusun Tim., Kabupaten Barito Timur, Kalimantan Tengah 73671","Tamiang Layang, Kec. Dusun Tim., Kabupaten Barito Timur",KALIMANTAN TENGAH,73671.0,Indonesia,,,,-2.1189602,115.1747153,https://maps.google.com/?cid=0x0:0x1d3d17e3f2c3e4bb,
komplek housing,Komplek perumahan,Rumah ayi,"Jaar, Kec. Dusun Tim., Kabupaten Barito Timur, Kalimantan Tengah","Kabupaten Barito Timur, Kalimantan Tengah",KALIMANTAN TENGAH,,Indonesia, 081258422253,,,-2.133876,115.1930093,https://maps.google.com/?cid=0x0:0x42906d06c3af3086,
komplek housing,komplek housing,RUMAH GUE,"R6G9+3C7, Jaar, Kec. Dusun Tim., Kabupaten Barito Timur, Kalimantan Tengah","Kabupaten Barito Timur, Kalimantan Tengah",KALIMANTAN TENGAH,,Indonesia,,,,-2.1748419,115.2185421,https://maps.google.com/?cid=0x0:0x91b08cd8dd0862c1,
komplek housing,Komplek perumahan,Danang home,"V5JG+V94, Tamiang Layang, Kec. Dusun Tim., Kabupaten Barito Timur, Kalimantan Tengah","Kabupaten Barito Timur, Kalimantan Tengah",KALIMANTAN TENGAH,,Indonesia,,,,-2.1178716,115.1759575,https://maps.google.com/?cid=0x0:0x11312ba6b07dde8a,
komplek housing,komplek housing,Rumah Dimas,"V582+92J, Magantis, Kec. Dusun Tim., Kabupaten Barito Timur, Kalimantan Tengah 73671","Magantis, Kec. Dusun Tim., Kabupaten Barito Timur",KALIMANTAN TENGAH,73671.0,Indonesia,,,,-2.1338472,115.1501901,https://maps.google.com/?cid=0x0:0xd52c819994b90355,
komplek housing,Komplek perumahan,Home Azizah Savana,"V5HJ+RP5, Jl. Rintis, Matabu, Kec. Dusun Tim., Kabupaten Barito Timur, Kalimantan Tengah 73671","Jl. Rintis, Matabu, Kec. Dusun Tim., Kabupaten Barito Timur",KALIMANTAN TENGAH,73671.0,Indonesia,,,,-2.1205046,115.1818959,https://maps.google.com/?cid=0x0:0x1a1f71d1b415b4d2,
komplek housing,Komplek perumahan,Rafka House,"V5JJ+7QC, Tamiang Layang, Kec. Dusun Tim., Kabupaten Barito Timur, Kalimantan Tengah","Kabupaten Barito Timur, Kalimantan Tengah",KALIMANTAN TENGAH,,Indonesia, 085389114145,,,-2.1193109,115.1818962,https://maps.google.com/?cid=0x0:0x5f6337ce708cb700,
komplek housing,Komplek perumahan,RUMAH PRIBADI,"V5FV+43F, Mangkarap, Kec. Dusun Tim., Kabupaten Barito Timur, Kalimantan Tengah 73671","Mangkarap, Kec. Dusun Tim., Kabupaten Barito Timur",KALIMANTAN TENGAH,73671.0,Indonesia,,,,-2.1271919,115.1926655,https://maps.google.com/?cid=0x0:0xbadf2590874f259,
komplek housing,Komplek perumahan,Rumah Diah Anggreni,"R6PF+63W, Jaar, Kec. Dusun Tim., Kabupaten Barito Timur, Kalimantan Tengah 73661","Jaar, Kec. Dusun Tim., Kabupaten Barito Timur",KALIMANTAN TENGAH,73661.0,Indonesia,,,,-2.1643673,115.2226242,https://maps.google.com/?cid=0x0:0x7a22c688f5ca7517,
komplek housing,Inspektur Tempat Tinggal,Tito Saputra,"R7X9+3HR, Bamban, Kec. Benua Lima, Kabupaten Barito Timur, Kalimantan Tengah","Kabupaten Barito Timur, Kalimantan Tengah",KALIMANTAN TENGAH,,Indonesia,,,,-2.1522578,115.2688977,https://maps.google.com/?cid=0x0:0x2fa0820180202942,
komplek housing,Komplek perumahan,komplek muhajirin,"V5P7+756, Tamiang Layang, Kec. Dusun Tim., Kabupaten Barito Timur, Kalimantan Tengah 73671","Tamiang Layang, Kec. Dusun Tim., Kabupaten Barito Timur",KALIMANTAN TENGAH,73671.0,Indonesia,,,,-2.11433,115.1629061,https://maps.google.com/?cid=0x0:0xdcd9134b1f357634,
komplek housing,Komplek perumahan,rudi kandris bakau,"R7C2+XXJ, Jl. Pasar Panas-Bentot, Kandris, Kec. Benua Lima, Kabupaten Barito Timur, Kalimantan Tengah 73661","Jl. Pasar Panas-Bentot, Kandris, Kec. Benua Lima, Kabupaten Barito Timur",KALIMANTAN TENGAH,73661.0,Indonesia,,,,-2.1775373,115.2523867,https://maps.google.com/?cid=0x0:0x9f66f76aa9a80935,
komplek housing,Perumahan,Rumah Angga Nisa Nurul,"V5HF+Q5X, Tamiang Layang, Kec. Dusun Tim., Kabupaten Barito Timur, Kalimantan Tengah 73671","Tamiang Layang, Kec. Dusun Tim., Kabupaten Barito Timur",KALIMANTAN TENGAH,73671.0,Indonesia,,,,-2.1214187,115.1731431,https://maps.google.com/?cid=0x0:0x8b338f12a3fe38a8,
komplek housing,Komplek perumahan,Rumah Advent,"V5H8+VXG, Tamiang Layang, Kec. Dusun Tim., Kabupaten Barito Timur, Kalimantan Tengah 73671","Tamiang Layang, Kec. Dusun Tim., Kabupaten Barito Timur",KALIMANTAN TENGAH,73671.0,Indonesia,,,,-2.1208304,115.1668014,https://maps.google.com/?cid=0x0:0xa08aba2bd620ffed,
komplek housing,komplek housing,Kec. Benua Lima,"Kabupaten Barito Timur, Kalimantan Tengah","Kabupaten Barito Timur, Kalimantan Tengah",KALIMANTAN TENGAH,,Indonesia,,,,-2.1902542,115.2307157,https://maps.google.com/?cid=0x0:0x97624fde3ad6e819,
komplek housing,Komplek perumahan,Komplek PONDOK INDAH 2 LONGKANG,"R6PC+2HW, Jaar, Kec. Dusun Tim., Kabupaten Barito Timur, Kalimantan Tengah 73661","Jaar, Kec. Dusun Tim., Kabupaten Barito Timur",KALIMANTAN TENGAH,73661.0,Indonesia,,,,-2.1648786,115.2214405,https://maps.google.com/?cid=0x0:0xfd7b6e8b257d40de,
komplek housing,komplek housing,Kec. Dusun Tengah,"Kabupaten Barito Timur, Kalimantan Tengah","Kabupaten Barito Timur, Kalimantan Tengah",KALIMANTAN TENGAH,,Indonesia,,,,-1.7997404,115.1507466,https://maps.google.com/?cid=0x0:0xca2b51c229ce230f,
komplek housing,Komplek perumahan,Desi,"54XR+6GM, Ampah Kota, Kec. Dusun Tengah, Kabupaten Barito Timur, Kalimantan Tengah 73652","Ampah Kota, Kec. Dusun Tengah, Kabupaten Barito Timur",KALIMANTAN TENGAH,73652.0,Indonesia,,,,-1.8017434,115.1411551,https://maps.google.com/?cid=0x0:0xbbbed95493524ac3,
komplek housing,Kantor Perusahaan,Perumnas Janah Harapan,"64FX+X9M, Ampah Kota, Kec. Dusun Tengah, Kabupaten Barito Timur, Kalimantan Tengah 73652","Ampah Kota, Kec. Dusun Tengah, Kabupaten Barito Timur",KALIMANTAN TENGAH,73652.0,Indonesia,,,,-1.7750453,115.1484229,https://maps.google.com/?cid=0x0:0xbfdbc004c4a16a99,
komplek housing,Komplek perumahan,Rumah Agnes,"6532+QQJ, Ampah Kota, Kec. Dusun Tengah, Kabupaten Barito Timur, Kalimantan Tengah 73652","Ampah Kota, Kec. Dusun Tengah, Kabupaten Barito Timur",KALIMANTAN TENGAH,73652.0,Indonesia,,,,-1.7955458,115.151876,https://maps.google.com/?cid=0x0:0x25d3a07e9ab7645f,
komplek housing,Komplek perumahan,Wifi irmayanti,"54XV+6R3, Ampah Kota, Kec. Dusun Tengah, Kabupaten Barito Timur, Kalimantan Tengah 73652","Ampah Kota, Kec. Dusun Tengah, Kabupaten Barito Timur",KALIMANTAN TENGAH,73652.0,Indonesia, 085705533108,,,-1.8019814,115.1445384,https://maps.google.com/?cid=0x0:0xe90f4f0a59eaf873,
komplek housing,Komplek perumahan,Rumah FAJAR,"55W2+WJW, Ampah Kota, Kec. Dusun Tengah, Kabupaten Barito Timur, Kalimantan Tengah 73652","Ampah Kota, Kec. Dusun Tengah, Kabupaten Barito Timur",KALIMANTAN TENGAH,73652.0,Indonesia,,,,-1.8026318,115.1515802,https://maps.google.com/?cid=0x0:0xab3c441d6e16c5e6,
komplek housing,Komplek perumahan,Rumah helda,"Jl. Veteran No.21, Ampah Kota, Kec. Dusun Tengah, Kabupaten Barito Timur, Kalimantan Tengah 73652","Ampah Kota, Kec. Dusun Tengah, Kabupaten Barito Timur",KALIMANTAN TENGAH,73652.0,Indonesia,,,,-1.7991614,115.1494863,https://maps.google.com/?cid=0x0:0x63ffa3db0bb2f16a,
komplek housing,Komplek perumahan,Tini,"643X+26, Ampah Kota, Kec. Dusun Tengah, Kabupaten Barito Timur, Kalimantan Tengah","Kabupaten Barito Timur, Kalimantan Tengah",KALIMANTAN TENGAH,,Indonesia,,,,-1.7974414,115.1480885,https://maps.google.com/?cid=0x0:0x8a061f82624e5f94,
komplek housing,Komplek perumahan,Posko induk RGM,"54XV+5M8, Ampah Kota, Kec. Dusun Tengah, Kabupaten Barito Timur, Kalimantan Tengah 73652","Ampah Kota, Kec. Dusun Tengah, Kabupaten Barito Timur",KALIMANTAN TENGAH,73652.0,Indonesia,,,,-1.8020755,115.1441924,https://maps.google.com/?cid=0x0:0x2ad5a3d8bd836f5c,
komplek housing,Komplek perumahan,Rumah kade widi dan mol,"6637+CC, Netampin, Kec. Dusun Tengah, Kabupaten Barito Timur, Kalimantan Tengah","Kabupaten Barito Timur, Kalimantan Tengah",KALIMANTAN TENGAH,,Indonesia,,,,-1.7964638,115.2135091,https://maps.google.com/?cid=0x0:0x6571303619b5b5a6,
komplek housing,Komplek perumahan,Rumah ida,"6522+489, Ampah Kota, Kec. Dusun Tengah, Kabupaten Barito Timur, Kalimantan Tengah 73652","Ampah Kota, Kec. Dusun Tengah, Kabupaten Barito Timur",KALIMANTAN TENGAH,73652.0,Indonesia,,,,-1.7997074,115.1508677,https://maps.google.com/?cid=0x0:0x727b2986a1cc371e,
komplek housing,Pembangunan Perumahan,Urup rt18,"54XW+9H2, Ampah Kota, Kec. Dusun Tengah, Kabupaten Barito Timur, Kalimantan Tengah","Kabupaten Barito Timur, Kalimantan Tengah",KALIMANTAN TENGAH,,Indonesia,,,,-1.8016246,115.1464012,https://maps.google.com/?cid=0x0:0x4ff920d2279e227b,
komplek housing,Pembangunan Perumahan,Mas Obry,"6524+9JV, Ampah Kota, Kec. Dusun Tengah, Kabupaten Barito Timur, Kalimantan Tengah 73652","Ampah Kota, Kec. Dusun Tengah, Kabupaten Barito Timur",KALIMANTAN TENGAH,73652.0,Indonesia,,,,-1.7997251,115.1567357,https://maps.google.com/?cid=0x0:0x2308af5f68928369,
komplek housing,Pembangunan Perumahan,Mess,"55GJ+V8R, Rodok, Kec. Dusun Tengah, Kabupaten Barito Timur, Kalimantan Tengah 73652","Rodok, Kec. Dusun Tengah, Kabupaten Barito Timur",KALIMANTAN TENGAH,73652.0,Indonesia,,,,-1.8227644,115.1807777,https://maps.google.com/?cid=0x0:0xf5affa57cb02d61e,
komplek housing,Komplek perumahan,JEJES,"658Q+M3, Ampah Kota, Kec. Dusun Tengah, Kabupaten Barito Timur, Kalimantan Tengah","Kabupaten Barito Timur, Kalimantan Tengah",KALIMANTAN TENGAH,,Indonesia,,,,-1.783331,115.187658,https://maps.google.com/?cid=0x0:0x97eb927db3f3b35b,
komplek housing,Komplek perumahan,RUMAH RUZAYNA ALZENA,"Jalan Tabuk Luar No.RT.17, Ampah Kota, Kec. Dusun Tengah, Kabupaten Barito Timur, Kalimantan Tengah 73652","Ampah Kota, Kec. Dusun Tengah, Kabupaten Barito Timur",KALIMANTAN TENGAH,73652.0,Indonesia,,,,-1.8025874,115.1521426,https://maps.google.com/?cid=0x0:0xd00159decf604773,
komplek housing,Pembangunan Perumahan,Sahidi linda,"645X+34F, Ampah Kota, Kec. Dusun Tengah, Kabupaten Barito Timur, Kalimantan Tengah 73652","Ampah Kota, Kec. Dusun Tengah, Kabupaten Barito Timur",KALIMANTAN TENGAH,73652.0,Indonesia,,,,-1.7915058,115.1469748,https://maps.google.com/?cid=0x0:0xab89e8067be52100,
komplek housing,Komplek perumahan,Home pak murti,"56X6+6JP, Netampin, Kec. Dusun Tengah, Kabupaten Barito Timur, Kalimantan Tengah 73652","Netampin, Kec. Dusun Tengah, Kabupaten Barito Timur",KALIMANTAN TENGAH,73652.0,Indonesia,,,,-1.8019363,115.2115795,https://maps.google.com/?cid=0x0:0x25f1f110f47cda80,
komplek housing,Pembangunan Perumahan,Rumah Pak Sum,"645W+62V, Jl. Ampah, Ampah Kota, Kec. Dusun Tengah, Kabupaten Barito Timur, Kalimantan Tengah 73652","Jl. Ampah, Ampah Kota, Kec. Dusun Tengah, Kabupaten Barito Timur",KALIMANTAN TENGAH,73652.0,Indonesia,,,,-1.7918761,115.1450551,https://maps.google.com/?cid=0x0:0xf77784103de98a6b,
komplek housing,Pembangunan Perumahan,Jln Tambak dalam belakang masjid besar ampah,"55W2+8QR, Ampah Kota, Kec. Dusun Tengah, Kabupaten Barito Timur, Kalimantan Tengah 73652","Ampah Kota, Kec. Dusun Tengah, Kabupaten Barito Timur",KALIMANTAN TENGAH,73652.0,Indonesia,,,,-1.8041375,115.1518906,https://maps.google.com/?cid=0x0:0x12cce91110f535b9,
komplek housing,Komplek perumahan,Gg.Amie nih bos,"45WH+8VV, Saing, Kec. Dusun Tengah, Kabupaten Barito Timur, Kalimantan Tengah","Kabupaten Barito Timur, Kalimantan Tengah",KALIMANTAN TENGAH,,Indonesia, 082213905280,,,-1.8548273,115.1793055,https://maps.google.com/?cid=0x0:0x9461d79ae1842647,
komplek housing,Komplek perumahan,POSKO RGB 33,"55W4+J6H, Ampah Kota, Kec. Dusun Tengah, Kabupaten Barito Timur, Kalimantan Tengah 73652","Ampah Kota, Kec. Dusun Tengah, Kabupaten Barito Timur",KALIMANTAN TENGAH,73652.0,Indonesia, 085386593756,,,-1.8034426,115.1555952,https://maps.google.com/?cid=0x0:0xd15b3988754e8fb6,
komplek housing,Komplek perumahan,Abah Radit,"6522+489, Jl. Talohen, Ampah Kota, Kec. Dusun Tengah, Kabupaten Barito Timur, Kalimantan Tengah 73652","Jl. Talohen, Ampah Kota, Kec. Dusun Tengah, Kabupaten Barito Timur",KALIMANTAN TENGAH,73652.0,Indonesia,,,,-1.7997074,115.1508677,https://maps.google.com/?cid=0x0:0x6bb598832123f13,
komplek housing,Komplek perumahan,Rumah rahe,"645X+9F3, Ampah Kota, Kec. Dusun Tengah, Kabupaten Barito Timur, Kalimantan Tengah 73652","Ampah Kota, Kec. Dusun Tengah, Kabupaten Barito Timur",KALIMANTAN TENGAH,73652.0,Indonesia,,,,-1.7916181,115.1486746,https://maps.google.com/?cid=0x0:0x9474036fb25a4f97,
komplek housing,Komplek perumahan,Abdul Gani,"6632+35X, Jl. Barumbut, Netampin, Kec. Dusun Tengah, Kabupaten Barito Timur, Kalimantan Tengah 73652","Jl. Barumbut, Netampin, Kec. Dusun Tengah, Kabupaten Barito Timur",KALIMANTAN TENGAH,73652.0,Indonesia,,,,-1.7972561,115.2004914,https://maps.google.com/?cid=0x0:0xdc4139fa856514a9,
komplek housing,Pembangunan Perumahan,Songko baru Ampah kota,"6522+M22, Jln. Songko Baru, RT.039/RW.011, Ampah Kota, Kec. Dusun Tengah, Kabupaten Barito Timur, Kalimantan Tengah 73652","Jln. Songko Baru, RT.039/RW.011, Ampah Kota, Kec. Dusun Tengah, Kabupaten Barito Timur",KALIMANTAN TENGAH,73652.0,Indonesia,,,,-1.7983672,115.1500211,https://maps.google.com/?cid=0x0:0x818fdf9f4982e335,
komplek housing,komplek housing,Kalimantan Tengah 73612,"Telang, Kec. Paju Epat, Kabupaten Barito Timur, Kalimantan Tengah","Kabupaten Barito Timur, Kalimantan Tengah",KALIMANTAN TENGAH,,Indonesia,,,,-2.1445423,115.0288051,https://maps.google.com/?cid=0x0:0xebf8e473b2c14e5c,
komplek housing,komplek housing,Rumah Bahrian,"W23C+22M, Telang, Kec. Paju Epat, Kabupaten Barito Timur, Kalimantan Tengah","Kabupaten Barito Timur, Kalimantan Tengah",KALIMANTAN TENGAH,,Indonesia,,,,-2.0974249,115.0200514,https://maps.google.com/?cid=0x0:0xd8cabb80826e7dfe,
komplek housing,Komplek perumahan,Tempat Orang Pengasar,"W226+X4, Telang, Kec. Paju Epat, Kabupaten Barito Timur, Kalimantan Tengah","Kabupaten Barito Timur, Kalimantan Tengah",KALIMANTAN TENGAH,,Indonesia,,,,-2.0968765,115.0105275,https://maps.google.com/?cid=0x0:0x6db71e810ea073fd,
komplek housing,Taman,Grup Hasbi,"Q2X8+FP, Juru Banu, Kec. Paju Epat, Kabupaten Barito Timur, Kalimantan Tengah","Kabupaten Barito Timur, Kalimantan Tengah",KALIMANTAN TENGAH,,Indonesia,,,,-2.2013068,115.0167677,https://maps.google.com/?cid=0x0:0xaee6df3565043e05,
komplek housing,Komplek perumahan,4P patmo anengramella,"W22G+M95, Telang, Kec. Paju Epat, Kabupaten Barito Timur, Kalimantan Tengah 73613","Telang, Kec. Paju Epat, Kabupaten Barito Timur",KALIMANTAN TENGAH,73613.0,Indonesia,,,,-2.0983576,115.0259908,https://maps.google.com/?cid=0x0:0x5c25ae7597d8a7b4,
komplek housing,Komplek perumahan,Rumah Sabil,"V3WC+C42, Murutuwu, Kec. Paju Epat, Kabupaten Barito Timur, Kalimantan Tengah","Kabupaten Barito Timur, Kalimantan Tengah",KALIMANTAN TENGAH,,Indonesia,,,,-2.1039952,115.0702684,https://maps.google.com/?cid=0x0:0x4524d1ac2656081b,
komplek housing,Komplek perumahan,Rumah Agnes,"V3X3+495, Murutuwu, Kec. Paju Epat, Kabupaten Barito Timur, Kalimantan Tengah 73613","Murutuwu, Kec. Paju Epat, Kabupaten Barito Timur",KALIMANTAN TENGAH,73613.0,Indonesia,,,,-2.1022811,115.0527378,https://maps.google.com/?cid=0x0:0xbc22713d66febe83,
komplek housing,Perumahan,Perumahan pondok indah 1,"Jl. Ahmad Yani perumahan pondok indah No.1, Tamiang Layang, Kec. Katingan Hilir, Kabupaten Katingan, Kalimantan Tengah 74413","Tamiang Layang, Kec. Katingan Hilir, Kabupaten Katingan",KALIMANTAN TENGAH,74413.0,Indonesia,,,,-2.0942761,115.1461655,https://maps.google.com/?cid=0x0:0xa86d9eaab1a4af,
komplek housing,Pembangunan Perumahan,Mess fathh,"W327+RJV, Murutuwu, Kec. Paju Epat, Kabupaten Barito Timur, Kalimantan Tengah","Kabupaten Barito Timur, Kalimantan Tengah",KALIMANTAN TENGAH,,Indonesia, 087862052258,,,-2.09726,115.063955,https://maps.google.com/?cid=0x0:0x87f09b870fe4ae98,
komplek housing,Kantor Perusahaan,Mis pt.sgm div 1 plasma,"V3P7+FJ, Murutuwu, Kec. Paju Epat, Kabupaten Barito Timur, Kalimantan Tengah","Kabupaten Barito Timur, Kalimantan Tengah",KALIMANTAN TENGAH,,Indonesia,,,,-2.1138486,115.0641553,https://maps.google.com/?cid=0x0:0x2446e8b0ef756ebc,
komplek housing,Perumahan,Pondok Indah River,"W44X+H52, Sumur, Kec. Dusun Tim., Kabupaten Barito Timur, Kalimantan Tengah","Kabupaten Barito Timur, Kalimantan Tengah",KALIMANTAN TENGAH,,Indonesia,,,,-2.09361,115.1478952,https://maps.google.com/?cid=0x0:0x17e2197c55d3f992,
komplek housing,Komplek perumahan,Komplek Perumahan Pondok Indah 1,"W45X+2G9, Jl. Tamiyang Layang - Ampah, Sumur, Kec. Dusun Tim., Kabupaten Barito Timur, Kalimantan Tengah 73671","Jl. Tamiyang Layang - Ampah, Sumur, Kec. Dusun Tim., Kabupaten Barito Timur",KALIMANTAN TENGAH,73671.0,Indonesia,,,,-2.0924517,115.1488665,https://maps.google.com/?cid=0x0:0x8f2df3d4e63db725,
komplek housing,Pembangunan Perumahan,Lewu Rorey,"V3W5+JW5, Murutuwu, Kec. Paju Epat, Kabupaten Barito Timur, Kalimantan Tengah","Kabupaten Barito Timur, Kalimantan Tengah",KALIMANTAN TENGAH,,Indonesia,,,,-2.1034843,115.0598583,https://maps.google.com/?cid=0x0:0xf00bb667ec9f4f39,
komplek housing,Pembangunan Perumahan,Mess fathh,"W327+RJV, Murutuwu, Kec. Paju Epat, Kabupaten Barito Timur, Kalimantan Tengah","Kabupaten Barito Timur, Kalimantan Tengah",KALIMANTAN TENGAH,,Indonesia, 087862052258,,,-2.09726,115.063955,https://maps.google.com/?cid=0x0:0x87f09b870fe4ae98,
komplek housing,Kantor Perusahaan,Mis pt.sgm div 1 plasma,"V3P7+FJ, Murutuwu, Kec. Paju Epat, Kabupaten Barito Timur, Kalimantan Tengah","Kabupaten Barito Timur, Kalimantan Tengah",KALIMANTAN TENGAH,,Indonesia,,,,-2.1138486,115.0641553,https://maps.google.com/?cid=0x0:0x2446e8b0ef756ebc,
komplek housing,komplek housing,Kalimantan Tengah 73613,"Kec. Paju Epat, Kabupaten Barito Timur, Kalimantan Tengah","Kabupaten Barito Timur, Kalimantan Tengah",KALIMANTAN TENGAH,,Indonesia,,,,-2.1173046,115.0525302,https://maps.google.com/?cid=0x0:0x122a80857309f6e5,
komplek housing,Komplek perumahan,Rumah Sabil,"V3WC+C42, Murutuwu, Kec. Paju Epat, Kabupaten Barito Timur, Kalimantan Tengah","Kabupaten Barito Timur, Kalimantan Tengah",KALIMANTAN TENGAH,,Indonesia,,,,-2.1039952,115.0702684,https://maps.google.com/?cid=0x0:0x4524d1ac2656081b,
komplek housing,komplek housing,Rumah Bahrian,"W23C+22M, Telang, Kec. Paju Epat, Kabupaten Barito Timur, Kalimantan Tengah","Kabupaten Barito Timur, Kalimantan Tengah",KALIMANTAN TENGAH,,Indonesia,,,,-2.0974249,115.0200514,https://maps.google.com/?cid=0x0:0xd8cabb80826e7dfe,
komplek housing,Kantor distrik,Perumahan DPRD Bartim,"W47W+73F, Tamiang Layang, Kec. Dusun Tim., Kabupaten Barito Timur, Kalimantan Tengah","Kabupaten Barito Timur, Kalimantan Tengah",KALIMANTAN TENGAH,,Indonesia,,,,-2.0868037,115.1451563,https://maps.google.com/?cid=0x0:0x6da524e2bed32ab9,
komplek housing,Komplek perumahan,4P patmo anengramella,"W22G+M95, Telang, Kec. Paju Epat, Kabupaten Barito Timur, Kalimantan Tengah 73613","Telang, Kec. Paju Epat, Kabupaten Barito Timur",KALIMANTAN TENGAH,73613.0,Indonesia,,,,-2.0983576,115.0259908,https://maps.google.com/?cid=0x0:0x5c25ae7597d8a7b4,
komplek housing,Komplek perumahan,Tempat Orang Pengasar,"W226+X4, Telang, Kec. Paju Epat, Kabupaten Barito Timur, Kalimantan Tengah","Kabupaten Barito Timur, Kalimantan Tengah",KALIMANTAN TENGAH,,Indonesia,,,,-2.0968765,115.0105275,https://maps.google.com/?cid=0x0:0x6db71e810ea073fd,
komplek housing,Komplek perumahan,Mess Sugeng Wy,"W327+QC, Murutuwu, Kec. Paju Epat, Kabupaten Barito Timur, Kalimantan Tengah","Kabupaten Barito Timur, Kalimantan Tengah",KALIMANTAN TENGAH,,Indonesia,,,,-2.0979043,115.0628396,https://maps.google.com/?cid=0x0:0x1342fe87f3e608aa,
komplek housing,Pembangunan Perumahan,Lewu Rorey,"V3W5+JW5, Murutuwu, Kec. Paju Epat, Kabupaten Barito Timur, Kalimantan Tengah","Kabupaten Barito Timur, Kalimantan Tengah",KALIMANTAN TENGAH,,Indonesia,,,,-2.1034843,115.0598583,https://maps.google.com/?cid=0x0:0xf00bb667ec9f4f39,
komplek housing,komplek housing,Kec. Dusun Tim.,"Kabupaten Barito Timur, Kalimantan Tengah","Kabupaten Barito Timur, Kalimantan Tengah",KALIMANTAN TENGAH,,Indonesia,,,,-2.1126877,115.1670292,https://maps.google.com/?cid=0x0:0x740b7052b652c454,
komplek housing,Perumahan,Perumahan pondok indah 1,"Jl. Ahmad Yani perumahan pondok indah No.1, Tamiang Layang, Kec. Katingan Hilir, Kabupaten Katingan, Kalimantan Tengah 74413","Tamiang Layang, Kec. Katingan Hilir, Kabupaten Katingan",KALIMANTAN TENGAH,74413.0,Indonesia,,,,-2.0942761,115.1461655,https://maps.google.com/?cid=0x0:0xa86d9eaab1a4af,
komplek housing,Komplek perumahan,Rumah Kahes,"W546+3Q, Haringen, Kec. Dusun Tim., Kabupaten Barito Timur, Kalimantan Tengah 73671","Haringen, Kec. Dusun Tim., Kabupaten Barito Timur",KALIMANTAN TENGAH,73671.0,Indonesia,,,,-2.0948971,115.1619239,https://maps.google.com/?cid=0x0:0x570e147b1e50d691,
komplek housing,komplek housing,Kalimantan Tengah 73614,"Kec. Paju Epat, Kabupaten Barito Timur, Kalimantan Tengah","Kabupaten Barito Timur, Kalimantan Tengah",KALIMANTAN TENGAH,,Indonesia,,,,-2.081165,115.0762536,https://maps.google.com/?cid=0x0:0x90e53ff734a76b72,
komplek housing,Pembangunan Perumahan,Mess fathh,"W327+RJV, Murutuwu, Kec. Paju Epat, Kabupaten Barito Timur, Kalimantan Tengah","Kabupaten Barito Timur, Kalimantan Tengah",KALIMANTAN TENGAH,,Indonesia, 087862052258,,,-2.09726,115.063955,https://maps.google.com/?cid=0x0:0x87f09b870fe4ae98,
komplek housing,Komplek perumahan,Mess Sugeng Wy,"W327+QC, Murutuwu, Kec. Paju Epat, Kabupaten Barito Timur, Kalimantan Tengah","Kabupaten Barito Timur, Kalimantan Tengah",KALIMANTAN TENGAH,,Indonesia,,,,-2.0979043,115.0628396,https://maps.google.com/?cid=0x0:0x1342fe87f3e608aa,
komplek housing,Komplek perumahan,Rumah Sabil,"V3WC+C42, Murutuwu, Kec. Paju Epat, Kabupaten Barito Timur, Kalimantan Tengah","Kabupaten Barito Timur, Kalimantan Tengah",KALIMANTAN TENGAH,,Indonesia,,,,-2.1039952,115.0702684,https://maps.google.com/?cid=0x0:0x4524d1ac2656081b,
komplek housing,Pembangunan Perumahan,RUMAH MEMPELAI,"W2QX+4F8, Maipe, Kec. Paju Epat, Kabupaten Barito Timur, Kalimantan Tengah","Kabupaten Barito Timur, Kalimantan Tengah",KALIMANTAN TENGAH,,Indonesia,,,,-2.0622031,115.0487043,https://maps.google.com/?cid=0x0:0xcf3abbfab93b788b,
komplek housing,Komplek perumahan,Lewu Itak Anjung,"W3H7+2QC, Maipe, Kec. Paju Epat, Kabupaten Barito Timur, Kalimantan Tengah 73617","Maipe, Kec. Paju Epat, Kabupaten Barito Timur",KALIMANTAN TENGAH,73617.0,Indonesia,,,,-2.0724379,115.0643921,https://maps.google.com/?cid=0x0:0x48ee6615f684dbe7,
komplek housing,Pembangunan Perumahan,Lewu Rorey,"V3W5+JW5, Murutuwu, Kec. Paju Epat, Kabupaten Barito Timur, Kalimantan Tengah","Kabupaten Barito Timur, Kalimantan Tengah",KALIMANTAN TENGAH,,Indonesia,,,,-2.1034843,115.0598583,https://maps.google.com/?cid=0x0:0xf00bb667ec9f4f39,
komplek housing,Pembangunan Perumahan,Base Camp Ferdi Sambo,"W327+RJV, Murutuwu, Kec. Paju Epat, Kabupaten Barito Timur, Kalimantan Tengah","Kabupaten Barito Timur, Kalimantan Tengah",KALIMANTAN TENGAH,,Indonesia,,,,-2.0981553,115.0641087,https://maps.google.com/?cid=0x0:0x917818090e8b3083,
komplek housing,Perumahan,Perumahan pondok indah 1,"Jl. Ahmad Yani perumahan pondok indah No.1, Tamiang Layang, Kec. Katingan Hilir, Kabupaten Katingan, Kalimantan Tengah 74413","Tamiang Layang, Kec. Katingan Hilir, Kabupaten Katingan",KALIMANTAN TENGAH,74413.0,Indonesia,,,,-2.0942761,115.1461655,https://maps.google.com/?cid=0x0:0xa86d9eaab1a4af,
komplek housing,Komplek perumahan,Komplek Perumahan Pondok Indah 1,"W45X+2G9, Jl. Tamiyang Layang - Ampah, Sumur, Kec. Dusun Tim., Kabupaten Barito Timur, Kalimantan Tengah 73671","Jl. Tamiyang Layang - Ampah, Sumur, Kec. Dusun Tim., Kabupaten Barito Timur",KALIMANTAN TENGAH,73671.0,Indonesia,,,,-2.0924517,115.1488665,https://maps.google.com/?cid=0x0:0x8f2df3d4e63db725,
komplek housing,Perumahan,Pondok Indah River,"W44X+H52, Sumur, Kec. Dusun Tim., Kabupaten Barito Timur, Kalimantan Tengah","Kabupaten Barito Timur, Kalimantan Tengah",KALIMANTAN TENGAH,,Indonesia,,,,-2.09361,115.1478952,https://maps.google.com/?cid=0x0:0x17e2197c55d3f992,
komplek housing,komplek housing,Kec. Dusun Tim.,"Kabupaten Barito Timur, Kalimantan Tengah","Kabupaten Barito Timur, Kalimantan Tengah",KALIMANTAN TENGAH,,Indonesia,,,,-2.1126877,115.1670292,https://maps.google.com/?cid=0x0:0x740b7052b652c454,
komplek housing,komplek housing,Kalimantan Tengah 73615,"Kec. Paju Epat, Kabupaten Barito Timur, Kalimantan Tengah","Kabupaten Barito Timur, Kalimantan Tengah",KALIMANTAN TENGAH,,Indonesia,,,,-2.0549841,115.0406679,https://maps.google.com/?cid=0x0:0xfc49174b02adf151,
komplek housing,Pembangunan Perumahan,RUMAH MEMPELAI,"W2QX+4F8, Maipe, Kec. Paju Epat, Kabupaten Barito Timur, Kalimantan Tengah","Kabupaten Barito Timur, Kalimantan Tengah",KALIMANTAN TENGAH,,Indonesia,,,,-2.0622031,115.0487043,https://maps.google.com/?cid=0x0:0xcf3abbfab93b788b,
komplek housing,Komplek perumahan,Dorong Permai,"W53P+829, Dorong, Kec. Dusun Tim., Kabupaten Barito Timur, Kalimantan Tengah 73671","Dorong, Kec. Dusun Tim., Kabupaten Barito Timur",KALIMANTAN TENGAH,73671.0,Indonesia, 082255786135,,,-2.0967104,115.1851007,https://maps.google.com/?cid=0x0:0x3cb56f8db66f2172,
komplek housing,Komplek perumahan,Komplek Perumahan Pondok Indah 1,"W45X+2G9, Jl. Tamiyang Layang - Ampah, Sumur, Kec. Dusun Tim., Kabupaten Barito Timur, Kalimantan Tengah 73671","Jl. Tamiyang Layang - Ampah, Sumur, Kec. Dusun Tim., Kabupaten Barito Timur",KALIMANTAN TENGAH,73671.0,Indonesia,,,,-2.0924517,115.1488665,https://maps.google.com/?cid=0x0:0x8f2df3d4e63db725,
komplek housing,Perumahan,Pondok Indah River,"W44X+H52, Sumur, Kec. Dusun Tim., Kabupaten Barito Timur, Kalimantan Tengah","Kabupaten Barito Timur, Kalimantan Tengah",KALIMANTAN TENGAH,,Indonesia,,,,-2.09361,115.1478952,https://maps.google.com/?cid=0x0:0x17e2197c55d3f992,
komplek housing,komplek housing,Kec. Dusun Tim.,"Kabupaten Barito Timur, Kalimantan Tengah","Kabupaten Barito Timur, Kalimantan Tengah",KALIMANTAN TENGAH,,Indonesia,,,,-2.1126877,115.1670292,https://maps.google.com/?cid=0x0:0x740b7052b652c454,
komplek housing,komplek housing,Kalimantan Tengah 73617,Kalimantan Tengah,Kalimantan Tengah,KALIMANTAN TENGAH,,Indonesia,,,,-2.0520057,114.9516869,https://maps.google.com/?cid=0x0:0xf0d04e5ed5edf592,
komplek housing,Rumah Kayu,Rumah Ebekson,"Jl. Tamiyang Layang - Ampah No.KM 7, Sumur, Kec. Dusun Tim., Kabupaten Barito Timur, Kalimantan Tengah 73681","Sumur, Kec. Dusun Tim., Kabupaten Barito Timur",KALIMANTAN TENGAH,73681.0,Indonesia,,,,-2.0568774,115.1358165,https://maps.google.com/?cid=0x0:0xf4e963e32d333c9f,
komplek housing,Komplek perumahan,Sa'i,"VV89+J5F, Damparan, Kec. Dusun Hilir, Kabupaten Barito Selatan, Kalimantan Tengah 73617","Damparan, Kec. Dusun Hilir, Kabupaten Barito Selatan",KALIMANTAN TENGAH,73617.0,Indonesia,,,,-2.1334101,114.8679413,https://maps.google.com/?cid=0x0:0xc6f67d6be5abc426,
komplek housing,Komplek perumahan,My Dream,"VV79+G33, Damparan, Kec. Dusun Hilir, Kabupaten Barito Selatan, Kalimantan Tengah 73617","Damparan, Kec. Dusun Hilir, Kabupaten Barito Selatan",KALIMANTAN TENGAH,73617.0,Indonesia,,,,-2.1362899,114.8675873,https://maps.google.com/?cid=0x0:0x4f4087b006fa10a4,
komplek housing,komplek housing,Rumah Lida,"XVQR+CXM, Tlk. Betung, Kec. Karau Kuala, Kabupaten Barito Selatan, Kalimantan Tengah 73617","Tlk. Betung, Kec. Karau Kuala, Kabupaten Barito Selatan",KALIMANTAN TENGAH,73617.0,Indonesia,,,,-2.0114175,114.8924242,https://maps.google.com/?cid=0x0:0xf718474d5d9f0482,
komplek housing,Komplek perumahan,komplek muhajirin,"V5P7+756, Tamiang Layang, Kec. Dusun Tim., Kabupaten Barito Timur, Kalimantan Tengah 73671","Tamiang Layang, Kec. Dusun Tim., Kabupaten Barito Timur",KALIMANTAN TENGAH,73671.0,Indonesia,,,,-2.11433,115.1629061,https://maps.google.com/?cid=0x0:0xdcd9134b1f357634,
komplek housing,Pembangunan Perumahan,Mengukur sebidang tanah,"X46P+XHR, Dekat SDN 2, Jaweten, Kec. Dusun Tim., Kabupaten Barito Timur, Kalimantan Tengah","Kabupaten Barito Timur, Kalimantan Tengah",KALIMANTAN TENGAH,,Indonesia,,,,-2.0375062,115.1363826,https://maps.google.com/?cid=0x0:0x1a8a96800d35575a,
komplek housing,Komplek perumahan,Aldyysw_,"V48J+25, Sarapat (Ex Harara), Kec. Dusun Tim., Kabupaten Barito Timur, Kalimantan Tengah","Kabupaten Barito Timur, Kalimantan Tengah",KALIMANTAN TENGAH,,Indonesia,,,,-2.1349301,115.130496,https://maps.google.com/?cid=0x0:0xaaf43b7799a04665,
komplek housing,Komplek perumahan,Syahrul Iskandar,"RXF8+J8J, Tampu Langit, Kec. Paju Epat, Kabupaten Barito Timur, Kalimantan Tengah 73617","Tampu Langit, Kec. Paju Epat, Kabupaten Barito Timur",KALIMANTAN TENGAH,73617.0,Indonesia,,,,-2.1759214,114.9657695,https://maps.google.com/?cid=0x0:0x99527e7ddbbe85f5,
komplek housing,Komplek perumahan,Jonico lewu,"V4WQ+J5V, Tamiang Layang, Kec. Dusun Tim., Kabupaten Barito Timur, Kalimantan Tengah 73671","Tamiang Layang, Kec. Dusun Tim., Kabupaten Barito Timur",KALIMANTAN TENGAH,73671.0,Indonesia,,,,-2.103052,115.1369477,https://maps.google.com/?cid=0x0:0x9991a6159edf296c,
komplek housing,Kebun Buah,trans siong,"WXC8+VGQ, Siong, Kec. Paju Epat, Kabupaten Barito Timur, Kalimantan Tengah 73617","Siong, Kec. Paju Epat, Kabupaten Barito Timur",KALIMANTAN TENGAH,73617.0,Indonesia,,,,-2.0775406,114.9666901,https://maps.google.com/?cid=0x0:0x48a5bf9132473ce8,
komplek housing,Perumahan,Perumahan pondok indah 1,"Jl. Ahmad Yani perumahan pondok indah No.1, Tamiang Layang, Kec. Katingan Hilir, Kabupaten Katingan, Kalimantan Tengah 74413","Tamiang Layang, Kec. Katingan Hilir, Kabupaten Katingan",KALIMANTAN TENGAH,74413.0,Indonesia,,,,-2.0942761,115.1461655,https://maps.google.com/?cid=0x0:0xa86d9eaab1a4af,
komplek housing,Komplek perumahan,Danang home,"V5JG+V94, Tamiang Layang, Kec. Dusun Tim., Kabupaten Barito Timur, Kalimantan Tengah","Kabupaten Barito Timur, Kalimantan Tengah",KALIMANTAN TENGAH,,Indonesia,,,,-2.1178716,115.1759575,https://maps.google.com/?cid=0x0:0x11312ba6b07dde8a,
komplek housing,Komplek perumahan,Hatue Bakumpai,"XV8X+PQR, Bangkuang, Kec. Karau Kuala, Kabupaten Barito Selatan, Kalimantan Tengah 73617","Bangkuang, Kec. Karau Kuala, Kabupaten Barito Selatan",KALIMANTAN TENGAH,73617.0,Indonesia,,,,-2.0331463,114.8988454,https://maps.google.com/?cid=0x0:0x7fc5a04dfbf946a2,
komplek housing,Perumahan rakyat,Rumah Tamiang,"W4HP+7X9, Sumur, Kec. Dusun Tim., Kabupaten Barito Timur, Kalimantan Tengah 73681","Sumur, Kec. Dusun Tim., Kabupaten Barito Timur",KALIMANTAN TENGAH,73681.0,Indonesia,,,,-2.0718369,115.1374865,https://maps.google.com/?cid=0x0:0xc1e59fc99f40b3a5,
komplek housing,Pembangunan Perumahan,Mess fathh,"W327+RJV, Murutuwu, Kec. Paju Epat, Kabupaten Barito Timur, Kalimantan Tengah","Kabupaten Barito Timur, Kalimantan Tengah",KALIMANTAN TENGAH,,Indonesia, 087862052258,,,-2.09726,115.063955,https://maps.google.com/?cid=0x0:0x87f09b870fe4ae98,
komplek housing,Komplek perumahan,Rumah AgilObed,"V4WP+CVC, Tamiang Layang, Kec. Dusun Tim., Kabupaten Barito Timur, Kalimantan Tengah","Kabupaten Barito Timur, Kalimantan Tengah",KALIMANTAN TENGAH,,Indonesia,,,,-2.1039493,115.1371451,https://maps.google.com/?cid=0x0:0xd52b9e75cde8d97a,
komplek housing,Komplek perumahan,Rumah Nara,"V4RH+47, Sarapat (Ex Harara), Kec. Dusun Tim., Kabupaten Barito Timur, Kalimantan Tengah","Kabupaten Barito Timur, Kalimantan Tengah",KALIMANTAN TENGAH,,Indonesia,,,,-2.1096726,115.1282249,https://maps.google.com/?cid=0x0:0x9ea9bd78b0ebe869,
komplek housing,Perhimpunan Pengembang Perumahan,Home,"Jalan tamiang layang-ampah, jaweten RT 01, Kec. Dusun Tim., Kabupaten Barito Timur, Kalimantan Tengah","Kabupaten Barito Timur, Kalimantan Tengah",KALIMANTAN TENGAH,,Indonesia,,,,-2.105021,115.1606981,https://maps.google.com/?cid=0x0:0xc17ad5a2cb72a3aa,
komplek housing,Komplek perumahan,Rumah Habibi  Hanifan,"XW84+M28, Bangkuang, Kec. Karau Kuala, Kabupaten Barito Selatan, Kalimantan Tengah 73617","Bangkuang, Kec. Karau Kuala, Kabupaten Barito Selatan",KALIMANTAN TENGAH,73617.0,Indonesia,,,,-2.0333484,114.9050422,https://maps.google.com/?cid=0x0:0xf4e320844bac7c40,
komplek housing,komplek housing,Kec. Dusun Tim.,"Kabupaten Barito Timur, Kalimantan Tengah","Kabupaten Barito Timur, Kalimantan Tengah",KALIMANTAN TENGAH,,Indonesia,,,,-2.1126877,115.1670292,https://maps.google.com/?cid=0x0:0x740b7052b652c454,
komplek housing,Pembangunan Perumahan,Perumahan Rintis Permai | Cv. Mira Mandiri,"Matabu, Kec. Dusun Tim., Kabupaten Barito Timur, Kalimantan Tengah 73671","Kec. Dusun Tim., Kabupaten Barito Timur",KALIMANTAN TENGAH,73671.0,Indonesia, 081349463763,,,-2.1210646,115.1822164,https://maps.google.com/?cid=0x0:0xb123a62bad7f69f,
komplek housing,Komplek perumahan,Lewu Itak Anjung,"W3H7+2QC, Maipe, Kec. Paju Epat, Kabupaten Barito Timur, Kalimantan Tengah 73617","Maipe, Kec. Paju Epat, Kabupaten Barito Timur",KALIMANTAN TENGAH,73617.0,Indonesia,,,,-2.0724379,115.0643921,https://maps.google.com/?cid=0x0:0x48ee6615f684dbe7,
komplek housing,Hotel,Rumah Wulan,"XW84+M28, Bangkuang, Kec. Karau Kuala, Kabupaten Barito Selatan, Kalimantan Tengah 73617","Bangkuang, Kec. Karau Kuala, Kabupaten Barito Selatan",KALIMANTAN TENGAH,73617.0,Indonesia,,,,-2.0333511,114.9050398,https://maps.google.com/?cid=0x0:0x9a7eb42ef9f5ae84,
komplek housing,Pembangunan Perumahan,Rumah Abah abdali,"VWQM+62Q, Kalinapu, Kec. Paju Epat, Kabupaten Barito Timur, Kalimantan Tengah 73617","Kalinapu, Kec. Paju Epat, Kabupaten Barito Timur",KALIMANTAN TENGAH,73617.0,Indonesia,,,,-2.1119125,114.9326094,https://maps.google.com/?cid=0x0:0xd6c789663c855372,
komplek housing,Komplek perumahan,RUMAH LAILI,"XV6V+99G, Jl. Barito Raya, RT.23/RW.08, Bangkuang, Kec. Karau Kuala, Kabupaten Barito Selatan, Kalimantan Tengah 73617","Jl. Barito Raya, RT.23/RW.08, Bangkuang, Kec. Karau Kuala, Kabupaten Barito Selatan",KALIMANTAN TENGAH,73617.0,Indonesia,,,,-2.0390601,114.8934503,https://maps.google.com/?cid=0x0:0x2727d5996ec070df,
komplek housing,komplek housing,Acil sukses bangkuang,"XWC5+RGR, Bangkuang, Kec. Karau Kuala, Kabupaten Barito Selatan, Kalimantan Tengah 73617","Bangkuang, Kec. Karau Kuala, Kabupaten Barito Selatan",KALIMANTAN TENGAH,73617.0,Indonesia,,,,-2.0269935,114.9091118,https://maps.google.com/?cid=0x0:0x8380228e338b9261,
komplek housing,Komplek perumahan,Rumah Puza,"XV6R+HVQ, Jl. Paju Epat, RT.22/RW.08, Bangkuang, Kab, Kabupaten Barito Selatan, Kalimantan Tengah 73617","Jl. Paju Epat, RT.22/RW.08, Bangkuang, Kab, Kabupaten Barito Selatan",KALIMANTAN TENGAH,73617.0,Indonesia,,,,-2.0385465,114.8922277,https://maps.google.com/?cid=0x0:0xda44781871217782,
komplek housing,Pembangunan Perumahan,Home zhilla  Zevan,"XWF8+MCG, Bangkuang, Kec. Karau Kuala, Kabupaten Barito Selatan, Kalimantan Tengah 73617","Bangkuang, Kec. Karau Kuala, Kabupaten Barito Selatan",KALIMANTAN TENGAH,73617.0,Indonesia,,,,-2.0258068,114.916088,https://maps.google.com/?cid=0x0:0xa9bf4aec0e3f79b7,
komplek housing,Perumahan,Perumahan pondok indah 1,"Jl. Ahmad Yani perumahan pondok indah No.1, Tamiang Layang, Kec. Katingan Hilir, Kabupaten Katingan, Kalimantan Tengah 74413","Tamiang Layang, Kec. Katingan Hilir, Kabupaten Katingan",KALIMANTAN TENGAH,74413.0,Indonesia,,,,-2.0942761,115.1461655,https://maps.google.com/?cid=0x0:0xa86d9eaab1a4af,
komplek housing,Komplek perumahan,Komplek Perumahan Pondok Indah 1,"W45X+2G9, Jl. Tamiyang Layang - Ampah, Sumur, Kec. Dusun Tim., Kabupaten Barito Timur, Kalimantan Tengah 73671","Jl. Tamiyang Layang - Ampah, Sumur, Kec. Dusun Tim., Kabupaten Barito Timur",KALIMANTAN TENGAH,73671.0,Indonesia,,,,-2.0924517,115.1488665,https://maps.google.com/?cid=0x0:0x8f2df3d4e63db725,
komplek housing,Perumahan,Pondok Indah River,"W44X+H52, Sumur, Kec. Dusun Tim., Kabupaten Barito Timur, Kalimantan Tengah","Kabupaten Barito Timur, Kalimantan Tengah",KALIMANTAN TENGAH,,Indonesia,,,,-2.09361,115.1478952,https://maps.google.com/?cid=0x0:0x17e2197c55d3f992,
komplek housing,komplek housing,Kec. Karusen Janang,"Kabupaten Barito Timur, Kalimantan Tengah","Kabupaten Barito Timur, Kalimantan Tengah",KALIMANTAN TENGAH,,Indonesia,,,,-1.9839523,115.0772101,https://maps.google.com/?cid=0x0:0x42d4b63eb9f83bf4,
komplek housing,Komplek perumahan,Rumah kakah rere,"33MM+XC, Wuran, Kec. Karusen Janang, Kabupaten Barito Timur, Kalimantan Tengah 73652","Wuran, Kec. Karusen Janang, Kabupaten Barito Timur",KALIMANTAN TENGAH,73652.0,Indonesia,,,,-1.9148758,115.0842903,https://maps.google.com/?cid=0x0:0x92a3925eafffa7f2,
komplek housing,Pembangunan Perumahan,Rumah aliyanto,"33M4+VH, Wuran, Ipu Mea, Kec. Karusen Janang, Kabupaten Barito Timur, Kalimantan Tengah","Kabupaten Barito Timur, Kalimantan Tengah",KALIMANTAN TENGAH,,Indonesia,,,,-1.9141703,115.0560515,https://maps.google.com/?cid=0x0:0xc4b8ffcdbbbc60f3,
komplek housing,Komplek perumahan,Kristian,"23XR+RR, Dayu, Kec. Karusen Janang, Kabupaten Barito Timur, Kalimantan Tengah","Kabupaten Barito Timur, Kalimantan Tengah",KALIMANTAN TENGAH,,Indonesia,,,,-1.950435,115.092124,https://maps.google.com/?cid=0x0:0x34853d0a7f0d6450,
komplek housing,Komplek perumahan,Dayu,"23J5+294, Dayu, Kec. Karusen Janang, Kabupaten Barito Timur, Kalimantan Tengah","Kabupaten Barito Timur, Kalimantan Tengah",KALIMANTAN TENGAH,,Indonesia,,,,-1.9699965,115.0584612,https://maps.google.com/?cid=0x0:0x51f8bc4abbab451c,
komplek housing,Komplek perumahan,Rumah Kristomi Wahyudi,"32QR+27F, Ipu Mea, Kec. Karusen Janang, Kabupaten Barito Timur, Kalimantan Tengah 73652","Ipu Mea, Kec. Karusen Janang, Kabupaten Barito Timur",KALIMANTAN TENGAH,73652.0,Indonesia,,,,-1.9124305,115.0406679,https://maps.google.com/?cid=0x0:0x3c10d5a993edb7f2,
komplek housing,komplek housing,Rumah Meera,"239F+RV4, Dayu, Kec. Karusen Janang, Kabupaten Barito Timur, Kalimantan Tengah 73652","Dayu, Kec. Karusen Janang, Kabupaten Barito Timur",KALIMANTAN TENGAH,73652.0,Indonesia,,,,-1.9810552,115.0741411,https://maps.google.com/?cid=0x0:0xfa1324dff821d370,
komplek housing,Komplek perumahan,Rumah Azka Arsenio,"23MJ+M8P, Dayu, Kec. Karusen Janang, Kabupaten Barito Timur, Kalimantan Tengah","Kabupaten Barito Timur, Kalimantan Tengah",KALIMANTAN TENGAH,,Indonesia,,,,-1.9657817,115.0808376,https://maps.google.com/?cid=0x0:0x22b2d1221fc159dc,
komplek housing,Pembangunan Perumahan,Lewu elinn,"23CG+22G, Jl. Tamiyang Layang - Ampah, Dayu, Kec. Karusen Janang, Kabupaten Barito Timur, Kalimantan Tengah 73652","Jl. Tamiyang Layang - Ampah, Dayu, Kec. Karusen Janang, Kabupaten Barito Timur",KALIMANTAN TENGAH,73652.0,Indonesia,,,,-1.9796355,115.0749948,https://maps.google.com/?cid=0x0:0xb99745478613d9e3,
komplek housing,Kantor Perusahaan,Komplek Mess PT. SGM Div III Ipm,"338H+586, Wuran, Kec. Karusen Janang, Kabupaten Barito Timur, Kalimantan Tengah 73652","Wuran, Kec. Karusen Janang, Kabupaten Barito Timur",KALIMANTAN TENGAH,73652.0,Indonesia,,,,-1.9346412,115.0783105,https://maps.google.com/?cid=0x0:0x976d205421997261,
komplek housing,Tujuan Wisata,DESA PUTUT TAWULUH,"25W4+6Q, Putut Tawuluh, Kec. Karusen Janang, Kabupaten Barito Timur, Kalimantan Tengah","Kabupaten Barito Timur, Kalimantan Tengah",KALIMANTAN TENGAH,,Indonesia,,,,-1.9576101,115.1383562,https://maps.google.com/?cid=0x0:0x739be0465ad9ce1b,
komplek housing,Komplek perumahan,Rumah amah feri,"239G+W44, Gg. Saliakir, Dayu, Kec. Karusen Janang, Kabupaten Barito Timur, Kalimantan Tengah 73652","Gg. Saliakir, Dayu, Kec. Karusen Janang, Kabupaten Barito Timur",KALIMANTAN TENGAH,73652.0,Indonesia,,,,-1.9802266,115.0753297,https://maps.google.com/?cid=0x0:0x2a97956efd5ac7b0,
komplek housing,Pembangunan Perumahan,Mempelai wanita,"233W+7RV, Simpang Naneng, Kec. Karusen Janang, Kabupaten Barito Timur, Kalimantan Tengah 73681","Simpang Naneng, Kec. Karusen Janang, Kabupaten Barito Timur",KALIMANTAN TENGAH,73681.0,Indonesia,,,,-1.9970339,115.0974894,https://maps.google.com/?cid=0x0:0x9b1363e54bb1c316,
komplek housing,komplek housing,Rumah Indra,"24PJ+FX, Putut Tawuluh, Kec. Karusen Janang, Kabupaten Barito Timur, Kalimantan Tengah","Kabupaten Barito Timur, Kalimantan Tengah",KALIMANTAN TENGAH,,Indonesia,,,,-1.963826,115.13249,https://maps.google.com/?cid=0x0:0xcdbbf0fd428b4a07,
komplek housing,komplek housing,RUMAH RESSA AUREL,"X3XX+RX5, Simpang Naneng, Kec. Karusen Janang, Kabupaten Barito Timur, Kalimantan Tengah 73681","Simpang Naneng, Kec. Karusen Janang, Kabupaten Barito Timur",KALIMANTAN TENGAH,73681.0,Indonesia,,,,-2.0004995,115.0999753,https://maps.google.com/?cid=0x0:0xad0c1c49000c76f3,
komplek housing,Komplek perumahan,Rumah Tri Wulandari,"23MJ+P69, Jl. Mula Jari, RT.07/RW.04, Dayu, Kec. Karusen Janang, Kabupaten Barito Timur, Kalimantan Tengah 73652","Jl. Mula Jari, RT.07/RW.04, Dayu, Kec. Karusen Janang, Kabupaten Barito Timur",KALIMANTAN TENGAH,73652.0,Indonesia,,,,-1.9657241,115.0806026,https://maps.google.com/?cid=0x0:0xba30a80664ff9333,
komplek housing,Komplek perumahan,Lusu Dayu,"23F2+8M, Dayu, Kec. Karusen Janang, Kabupaten Barito Timur, Kalimantan Tengah","Kabupaten Barito Timur, Kalimantan Tengah",KALIMANTAN TENGAH,,Indonesia,,,,-1.9775561,115.0517148,https://maps.google.com/?cid=0x0:0x8196e7ae54e1a1e4,
komplek housing,Komplek perumahan,Rumah Leoni Berkat Kasihni,"24RQ+XC6, Putut Tawuluh, Kec. Karusen Janang, Kabupaten Barito Timur, Kalimantan Tengah","Kabupaten Barito Timur, Kalimantan Tengah",KALIMANTAN TENGAH,,Indonesia,,,,-1.9575857,115.1385192,https://maps.google.com/?cid=0x0:0x234957970bb0ba34,
komplek housing,Komplek perumahan,Barak Amri,"23RR+3X, Dayu, Kec. Karusen Janang, Kabupaten Barito Timur, Kalimantan Tengah","Kabupaten Barito Timur, Kalimantan Tengah",KALIMANTAN TENGAH,,Indonesia,,,,-1.9597892,115.092467,https://maps.google.com/?cid=0x0:0xc139765cb614cd2c,
komplek housing,Komplek perumahan,Mess SGM,"23J5+294, Dayu, Kec. Karusen Janang, Kabupaten Barito Timur, Kalimantan Tengah","Kabupaten Barito Timur, Kalimantan Tengah",KALIMANTAN TENGAH,,Indonesia,,,,-1.9699965,115.0584612,https://maps.google.com/?cid=0x0:0x18e67d8d92a89d79,
komplek housing,komplek housing,Kalimantan Tengah 73617,Kalimantan Tengah,Kalimantan Tengah,KALIMANTAN TENGAH,,Indonesia,,,,-2.0520057,114.9516869,https://maps.google.com/?cid=0x0:0xf0d04e5ed5edf592,
komplek housing,komplek housing,Rumah zuhriansyah,"Unnamed Rd, Kab. Barito Sel., 73617, Bangkuang, Kec. Karau Kuala, Kabupaten Barito Selatan, Kalimantan Tengah 73617","Kab. Barito Sel.,",KALIMANTAN TENGAH,73617.0,Indonesia,,,,-2.031932,114.9055029,https://maps.google.com/?cid=0x0:0x4296e45d832364e,
komplek housing,Komplek perumahan,Rumah Puza,"XV6R+HVQ, Jl. Paju Epat, RT.22/RW.08, Bangkuang, Kab, Kabupaten Barito Selatan, Kalimantan Tengah 73617","Jl. Paju Epat, RT.22/RW.08, Bangkuang, Kab, Kabupaten Barito Selatan",KALIMANTAN TENGAH,73617.0,Indonesia,,,,-2.0385465,114.8922277,https://maps.google.com/?cid=0x0:0xda44781871217782,
komplek housing,Komplek perumahan,Syahrul Iskandar,"RXF8+J8J, Tampu Langit, Kec. Paju Epat, Kabupaten Barito Timur, Kalimantan Tengah 73617","Tampu Langit, Kec. Paju Epat, Kabupaten Barito Timur",KALIMANTAN TENGAH,73617.0,Indonesia,,,,-2.1759214,114.9657695,https://maps.google.com/?cid=0x0:0x99527e7ddbbe85f5,
komplek housing,Pembangunan Perumahan,Mess fathh,"W327+RJV, Murutuwu, Kec. Paju Epat, Kabupaten Barito Timur, Kalimantan Tengah","Kabupaten Barito Timur, Kalimantan Tengah",KALIMANTAN TENGAH,,Indonesia, 087862052258,,,-2.09726,115.063955,https://maps.google.com/?cid=0x0:0x87f09b870fe4ae98,
komplek housing,Pembangunan Perumahan,RUMAH MEMPELAI,"W2QX+4F8, Maipe, Kec. Paju Epat, Kabupaten Barito Timur, Kalimantan Tengah","Kabupaten Barito Timur, Kalimantan Tengah",KALIMANTAN TENGAH,,Indonesia,,,,-2.0622031,115.0487043,https://maps.google.com/?cid=0x0:0xcf3abbfab93b788b,
komplek housing,Komplek perumahan,Shinta,"RXF8+GF9, Tampu Langit, Kec. Paju Epat, Kabupaten Barito Timur, Kalimantan Tengah","Kabupaten Barito Timur, Kalimantan Tengah",KALIMANTAN TENGAH,,Indonesia,,,,-2.176224,114.9662319,https://maps.google.com/?cid=0x0:0xe73077b0bec2d71e,
komplek housing,Kantor Perusahaan,Mis pt.sgm div 1 plasma,"V3P7+FJ, Murutuwu, Kec. Paju Epat, Kabupaten Barito Timur, Kalimantan Tengah","Kabupaten Barito Timur, Kalimantan Tengah",KALIMANTAN TENGAH,,Indonesia,,,,-2.1138486,115.0641553,https://maps.google.com/?cid=0x0:0x2446e8b0ef756ebc,
komplek housing,Kantor Pemerintah,Rumah KADES,"QWCX+QPW, Telang Baru, Kec. Paju Epat, Kabupaten Barito Timur, Kalimantan Tengah","Kabupaten Barito Timur, Kalimantan Tengah",KALIMANTAN TENGAH,,Indonesia,,,,-2.2279863,114.9493728,https://maps.google.com/?cid=0x0:0x3dd03efe3cb714c0,
komplek housing,Pembangunan Perumahan,Rumah Abah abdali,"VWQM+62Q, Kalinapu, Kec. Paju Epat, Kabupaten Barito Timur, Kalimantan Tengah 73617","Kalinapu, Kec. Paju Epat, Kabupaten Barito Timur",KALIMANTAN TENGAH,73617.0,Indonesia,,,,-2.1119125,114.9326094,https://maps.google.com/?cid=0x0:0xd6c789663c855372,
komplek housing,Komplek perumahan,Sa'i,"VV89+J5F, Damparan, Kec. Dusun Hilir, Kabupaten Barito Selatan, Kalimantan Tengah 73617","Damparan, Kec. Dusun Hilir, Kabupaten Barito Selatan",KALIMANTAN TENGAH,73617.0,Indonesia,,,,-2.1334101,114.8679413,https://maps.google.com/?cid=0x0:0xc6f67d6be5abc426,
komplek housing,Komplek perumahan,Lewu Itak Anjung,"W3H7+2QC, Maipe, Kec. Paju Epat, Kabupaten Barito Timur, Kalimantan Tengah 73617","Maipe, Kec. Paju Epat, Kabupaten Barito Timur",KALIMANTAN TENGAH,73617.0,Indonesia,,,,-2.0724379,115.0643921,https://maps.google.com/?cid=0x0:0x48ee6615f684dbe7,
komplek housing,Komplek perumahan,Tempat Orang Pengasar,"W226+X4, Telang, Kec. Paju Epat, Kabupaten Barito Timur, Kalimantan Tengah","Kabupaten Barito Timur, Kalimantan Tengah",KALIMANTAN TENGAH,,Indonesia,,,,-2.0968765,115.0105275,https://maps.google.com/?cid=0x0:0x6db71e810ea073fd,
komplek housing,Pembangunan Perumahan,M.iqbal,"QXM9+4Q5, Telang Baru, Kec. Paju Epat, Kabupaten Barito Timur, Kalimantan Tengah","Kabupaten Barito Timur, Kalimantan Tengah",KALIMANTAN TENGAH,,Indonesia,,,,-2.2172399,114.969485,https://maps.google.com/?cid=0x0:0x27c2a330e48424cb,
komplek housing,Pembangunan Perumahan,Base Camp Ferdi Sambo,"W327+RJV, Murutuwu, Kec. Paju Epat, Kabupaten Barito Timur, Kalimantan Tengah","Kabupaten Barito Timur, Kalimantan Tengah",KALIMANTAN TENGAH,,Indonesia,,,,-2.0981553,115.0641087,https://maps.google.com/?cid=0x0:0x917818090e8b3083,
komplek housing,Komplek perumahan,Rumah Sabil,"V3WC+C42, Murutuwu, Kec. Paju Epat, Kabupaten Barito Timur, Kalimantan Tengah","Kabupaten Barito Timur, Kalimantan Tengah",KALIMANTAN TENGAH,,Indonesia,,,,-2.1039952,115.0702684,https://maps.google.com/?cid=0x0:0x4524d1ac2656081b,
komplek housing,Komplek perumahan,Hatue Bakumpai,"XV8X+PQR, Bangkuang, Kec. Karau Kuala, Kabupaten Barito Selatan, Kalimantan Tengah 73617","Bangkuang, Kec. Karau Kuala, Kabupaten Barito Selatan",KALIMANTAN TENGAH,73617.0,Indonesia,,,,-2.0331463,114.8988454,https://maps.google.com/?cid=0x0:0x7fc5a04dfbf946a2,
komplek housing,Rumah Kayu,Rumah Ebekson,"Jl. Tamiyang Layang - Ampah No.KM 7, Sumur, Kec. Dusun Tim., Kabupaten Barito Timur, Kalimantan Tengah 73681","Sumur, Kec. Dusun Tim., Kabupaten Barito Timur",KALIMANTAN TENGAH,73681.0,Indonesia,,,,-2.0568774,115.1358165,https://maps.google.com/?cid=0x0:0xf4e963e32d333c9f,
komplek housing,Komplek perumahan,My Dream,"VV79+G33, Damparan, Kec. Dusun Hilir, Kabupaten Barito Selatan, Kalimantan Tengah 73617","Damparan, Kec. Dusun Hilir, Kabupaten Barito Selatan",KALIMANTAN TENGAH,73617.0,Indonesia,,,,-2.1362899,114.8675873,https://maps.google.com/?cid=0x0:0x4f4087b006fa10a4,
komplek housing,Komplek perumahan,Khairul kahfi,"QWCX+953, Telang Baru, Kec. Paju Epat, Kabupaten Barito Timur, Kalimantan Tengah 73762","Telang Baru, Kec. Paju Epat, Kabupaten Barito Timur",KALIMANTAN TENGAH,73762.0,Indonesia,,,,-2.2291773,114.9467675,https://maps.google.com/?cid=0x0:0xe7cc31a13304019c,
komplek housing,komplek housing,Kec. Paju Epat,"Kabupaten Barito Timur, Kalimantan Tengah","Kabupaten Barito Timur, Kalimantan Tengah",KALIMANTAN TENGAH,,Indonesia,,,,-2.2273577,114.9493867,https://maps.google.com/?cid=0x0:0x5dd06e219b0079c9,
komplek housing,Komplek perumahan,Rumah lesty,"XW2P+2H7, Jl. Paju Epat, Bangkuang, Kec. Karau Kuala, Kabupaten Barito Selatan, Kalimantan Tengah 73617","Jl. Paju Epat, Bangkuang, Kec. Karau Kuala, Kabupaten Barito Selatan",KALIMANTAN TENGAH,73617.0,Indonesia,,,,-2.0499573,114.9364089,https://maps.google.com/?cid=0x0:0x1c6bb5ba2c3f9bb5,
komplek housing,Komplek perumahan,Rabiyatul A.,"XV5W+4HR, Jl. Paju Epat, Bangkuang, Kec. Karau Kuala, Kabupaten Barito Selatan, Kalimantan Tengah 73617","Jl. Paju Epat, Bangkuang, Kec. Karau Kuala, Kabupaten Barito Selatan",KALIMANTAN TENGAH,73617.0,Indonesia,,,,-2.0421255,114.8963878,https://maps.google.com/?cid=0x0:0x375830f1552486ea,
komplek housing,Komplek perumahan,Rumah Habibi  Hanifan,"XW84+M28, Bangkuang, Kec. Karau Kuala, Kabupaten Barito Selatan, Kalimantan Tengah 73617","Bangkuang, Kec. Karau Kuala, Kabupaten Barito Selatan",KALIMANTAN TENGAH,73617.0,Indonesia,,,,-2.0333484,114.9050422,https://maps.google.com/?cid=0x0:0xf4e320844bac7c40,
komplek housing,komplek housing,Kec. Paku,"Kabupaten Barito Timur, Kalimantan Tengah","Kabupaten Barito Timur, Kalimantan Tengah",KALIMANTAN TENGAH,,Indonesia,,,,-1.8714738,115.1724417,https://maps.google.com/?cid=0x0:0xc6f14ef33602736c,
komplek housing,komplek housing,Lidya Home,"34FX+PH, Tarinsing, Kec. Paku, Kabupaten Barito Timur, Kalimantan Tengah","Kabupaten Barito Timur, Kalimantan Tengah",KALIMANTAN TENGAH,,Indonesia,,,,-1.925726,115.148989,https://maps.google.com/?cid=0x0:0x603361502dacb33d,
komplek housing,Komplek perumahan,Rumah abah aci,"46C3+38, Pangkan, Kec. Paku, Kabupaten Barito Timur, Kalimantan Tengah","Kabupaten Barito Timur, Kalimantan Tengah",KALIMANTAN TENGAH,,Indonesia,,,,-1.879803,115.203332,https://maps.google.com/?cid=0x0:0x1484504cda7e646b,
komplek housing,Rumah Kayu,Rumah Anggrianto,"45C7+224, Patung, Kec. Paku, Kabupaten Barito Timur, Kalimantan Tengah 73652","Patung, Kec. Paku, Kabupaten Barito Timur",KALIMANTAN TENGAH,73652.0,Indonesia,,,,-1.8799854,115.1625925,https://maps.google.com/?cid=0x0:0xe7237ef22b646988,
komplek housing,Komplek perumahan,Widi Karuehni,"36MH+976, Kalamus, Kec. Paku, Kabupaten Barito Timur, Kalimantan Tengah","Kabupaten Barito Timur, Kalimantan Tengah",KALIMANTAN TENGAH,,Indonesia,,,,-1.9165774,115.2281433,https://maps.google.com/?cid=0x0:0xca1a7ed3870cfa6d,
komplek housing,Komplek perumahan,Mesriwanto ato,"45HC+M35, Patung, Kec. Paku, Kabupaten Barito Timur, Kalimantan Tengah 73652","Patung, Kec. Paku, Kabupaten Barito Timur",KALIMANTAN TENGAH,73652.0,Indonesia,,,,-1.8709893,115.1689006,https://maps.google.com/?cid=0x0:0x3c03afca97c20b70,
komplek housing,Kompleks Apartemen,Ineh HENGKY / INDUT,"365P+9J, Paku Beto, Kec. Paku, Kabupaten Barito Timur, Kalimantan Tengah","Kabupaten Barito Timur, Kalimantan Tengah",KALIMANTAN TENGAH,,Indonesia,,,,-1.941561,115.236591,https://maps.google.com/?cid=0x0:0x488a579e0d01a46b,
komplek housing,Komplek perumahan,Alfin Herkal,"36CH+PH, Paku Beto, Kec. Paku, Kabupaten Barito Timur, Kalimantan Tengah","Kabupaten Barito Timur, Kalimantan Tengah",KALIMANTAN TENGAH,,Indonesia,,,,-1.9294111,115.2285624,https://maps.google.com/?cid=0x0:0x11b62cd9b0bfe167,
komplek housing,Komplek perumahan,Chellsea home,"3467+49C, Kupang Baru, Kec. Paku, Kabupaten Barito Timur, Kalimantan Tengah 73652","Kupang Baru, Kec. Paku, Kabupaten Barito Timur",KALIMANTAN TENGAH,73652.0,Indonesia,,,,-1.9404246,115.1127443,https://maps.google.com/?cid=0x0:0xe9da0f7d929c35e2,
komplek housing,komplek housing,"Rimun wawui, ponok dalung","35XQ+4J, Tampa, Kec. Paku, Kabupaten Barito Timur, Kalimantan Tengah","Kabupaten Barito Timur, Kalimantan Tengah",KALIMANTAN TENGAH,,Indonesia,,,,-1.9021903,115.1890832,https://maps.google.com/?cid=0x0:0x22c924f2290d3ca1,
komplek housing,Pembangunan Perumahan,Rantau pusi,"33PX+P7F, Jl. RT 5 Rantau Pusi, Kupang Baru, Kec. Paku, Kabupaten Barito Timur, Kalimantan Tengah 73652","Jl. RT 5 Rantau Pusi, Kupang Baru, Kec. Paku, Kabupaten Barito Timur",KALIMANTAN TENGAH,73652.0,Indonesia,,,,-1.9131875,115.0981875,https://maps.google.com/?cid=0x0:0x26278d1446bf4612,
komplek housing,Komplek perumahan,Rumah yudi,"36XC+M6, Kalamus, Kec. Paku, Kabupaten Barito Timur, Kalimantan Tengah","Kabupaten Barito Timur, Kalimantan Tengah",KALIMANTAN TENGAH,,Indonesia,,,,-1.9013696,115.2207976,https://maps.google.com/?cid=0x0:0x1bfc2978fb723e5,
komplek housing,Pembangunan Perumahan,Kantor Pusat Uah Buka,"4597+W6J, Jl. Tamiyang Layang - Ampah, Tampa, Kec. Paku, Kabupaten Barito Timur, Kalimantan Tengah 73652","Jl. Tamiyang Layang - Ampah, Tampa, Kec. Paku, Kabupaten Barito Timur",KALIMANTAN TENGAH,73652.0,Indonesia,,,,-1.8801474,115.1630177,https://maps.google.com/?cid=0x0:0xdaf0cf5d1a282507,
komplek housing,Komplek perumahan,Rumah Fedri,"365P+9J, Paku Beto, Kec. Paku, Kabupaten Barito Timur, Kalimantan Tengah","Kabupaten Barito Timur, Kalimantan Tengah",KALIMANTAN TENGAH,,Indonesia,,,,-1.9418888,115.2362435,https://maps.google.com/?cid=0x0:0x31f0444988fad2ce,
komplek housing,Komplek perumahan,SANUPIR KALAEAU,"46F2+9R, Pangkan, Kec. Paku, Kabupaten Barito Timur, Kalimantan Tengah","Kabupaten Barito Timur, Kalimantan Tengah",KALIMANTAN TENGAH,,Indonesia,,,,-1.876046,115.200944,https://maps.google.com/?cid=0x0:0x9ece738e1a6067ad,
komplek housing,Pembangunan Perumahan,Lewu amah cici muksin mariati,"36GH+5P, Paku Beto, Kec. Paku, Kabupaten Barito Timur, Kalimantan Tengah","Kabupaten Barito Timur, Kalimantan Tengah",KALIMANTAN TENGAH,,Indonesia,,,,-1.9245495,115.2293071,https://maps.google.com/?cid=0x0:0xccbd5e0a3005f939,
komplek housing,komplek housing,Rangga saputra,"34CX+933, Tarinsing, Kec. Paku, Kabupaten Barito Timur, Kalimantan Tengah","Kabupaten Barito Timur, Kalimantan Tengah",KALIMANTAN TENGAH,,Indonesia,,,,-1.9291244,115.1476618,https://maps.google.com/?cid=0x0:0xecd2e50da1b6f9fd,
komplek housing,Komplek perumahan,"Rumah Bapa Kristo, SP.d, MM","3467+4F, Kupang Baru, Kec. Paku, Kabupaten Barito Timur, Kalimantan Tengah 73652","Kupang Baru, Kec. Paku, Kabupaten Barito Timur",KALIMANTAN TENGAH,73652.0,Indonesia,,,,-1.9397183,115.1136367,https://maps.google.com/?cid=0x0:0xed401e5f6a4ae71b,
komplek housing,komplek housing,rumah ajonius bp briney,"36GH+5P, Paku Beto, Kec. Paku, Kabupaten Barito Timur, Kalimantan Tengah","Kabupaten Barito Timur, Kalimantan Tengah",KALIMANTAN TENGAH,,Indonesia,,,,-1.9241577,115.2291681,https://maps.google.com/?cid=0x0:0x10f1162c46ad5e7b,
komplek housing,Komplek perumahan,Uwok jha kalamus,"36JG+2W5, Kalamus, Kec. Paku, Kabupaten Barito Timur, Kalimantan Tengah","Kabupaten Barito Timur, Kalimantan Tengah",KALIMANTAN TENGAH,,Indonesia,,,,-1.9200519,115.227305,https://maps.google.com/?cid=0x0:0xc78909f788fe695b,
komplek housing,Komplek perumahan,Desi,"54XR+6GM, Ampah Kota, Kec. Dusun Tengah, Kabupaten Barito Timur, Kalimantan Tengah 73652","Ampah Kota, Kec. Dusun Tengah, Kabupaten Barito Timur",KALIMANTAN TENGAH,73652.0,Indonesia,,,,-1.8017434,115.1411551,https://maps.google.com/?cid=0x0:0xbbbed95493524ac3,
komplek housing,komplek housing,RUMAH ESTER YESAYA,"34JJ+M93, Jl. Tamiyang Layang - Ampah, Tampa, Kec. Paku, Kabupaten Barito Timur, Kalimantan Tengah 73652","Jl. Tamiyang Layang - Ampah, Tampa, Kec. Paku, Kabupaten Barito Timur",KALIMANTAN TENGAH,73652.0,Indonesia,,,,-1.918375,115.1316983,https://maps.google.com/?cid=0x0:0x4e25a22eec1799ef,
komplek housing,Pembangunan Perumahan,Elgi semata ,"3487+MP4, Jl. Tamiyang Layang - Ampah, Kupang Baru, Kec. Paku, Kabupaten Barito Timur, Kalimantan Tengah 73652","Jl. Tamiyang Layang - Ampah, Kupang Baru, Kec. Paku, Kabupaten Barito Timur",KALIMANTAN TENGAH,73652.0,Indonesia,,,,-1.9333605,115.1143411,https://maps.google.com/?cid=0x0:0x4c0895e28ed0cb67,
komplek housing,Komplek perumahan,Komplek Pakujaya,"Jl. Paku Jaya Permai No.21, Paku Jaya, Kec. Serpong Utara, Kota Tangerang Selatan, Banten 15220","Paku Jaya, Kec. Serpong Utara, Kota Tangerang Selatan",KALIMANTAN TENGAH,15220.0,Indonesia,,,,-6.2351131,106.6716,https://maps.google.com/?cid=0x0:0xf1056719b70f67d4,
komplek housing,Kompleks Townhouse,Pakubuwono Town House Telajung,"Pakubuwono Town House, Telajung, Kec. Cikarang Bar., Kabupaten Bekasi, Jawa Barat 17530","Telajung, Kec. Cikarang Bar., Kabupaten Bekasi",KALIMANTAN TENGAH,17530.0,Indonesia, 088212627395,,,-6.3402618,107.0536468,https://maps.google.com/?cid=0x0:0x7710a6ba0105b282,
komplek housing,Komplek perumahan,ALEESHA RESIDENCE,"PXQH+HVG, Jl. Cendrawasih IV, RT.008/RW.012, Pekayon Jaya, Kec. Bekasi Sel., Kota Bks, Jawa Barat 17148","Jl. Cendrawasih IV, RT.008/RW.012, Pekayon Jaya, Kec. Bekasi Sel., Kota Bks",KALIMANTAN TENGAH,17148.0,Indonesia,,,,-6.2610503,106.9797041,https://maps.google.com/?cid=0x0:0xb00936b9294ab24a,
komplek housing,Gedung Apartemen,The Pakubuwono Spring,"Jl. Teuku Nyak Arief No.9, RT.6/RW.2, Grogol Sel., Kec. Kby. Lama, Kota Jakarta Selatan, Daerah Khusus Ibukota Jakarta 12220","RT.6/RW.2, Grogol Sel., Kec. Kby. Lama, Kota Jakarta Selatan",KALIMANTAN TENGAH,12220.0,Indonesia, 02138789095,,,-6.2328071,106.7872756,https://maps.google.com/?cid=0x0:0x6735e95dfd3310bb,
komplek housing,Pembangunan Perumahan,Perumahan Pondok Ungu Permai,"Jl. Raya Pd. Ungu Permai Melati 4 No.4 Blok B8, RT.002/RW.008, Kaliabang Tengah, Kec. Bekasi Utara, Kota Bks, Jawa Barat 17125","RT.002/RW.008, Kaliabang Tengah, Kec. Bekasi Utara, Kota Bks",KALIMANTAN TENGAH,17125.0,Indonesia,,,,-6.1764808,107.0012361,https://maps.google.com/?cid=0x0:0x19c96507d85ecc28,
komplek housing,Gedung Apartemen,The Pakubuwono Residence,"Jl. Pakubuwono VI No.68, RT.3/RW.1, Gunung, Kec. Kby. Baru, Kota Jakarta Selatan, Daerah Khusus Ibukota Jakarta 12120","RT.3/RW.1, Gunung, Kec. Kby. Baru, Kota Jakarta Selatan",KALIMANTAN TENGAH,12120.0,Indonesia, 02127505000,,,-6.2373798,106.7868448,https://maps.google.com/?cid=0x0:0x9502f47eb8381d75,
komplek housing,komplek housing,Kalimantan Tengah 73671,"Kabupaten Barito Timur, Kalimantan Tengah","Kabupaten Barito Timur, Kalimantan Tengah",KALIMANTAN TENGAH,,Indonesia,,,,-2.0472411,115.2363408,https://maps.google.com/?cid=0x0:0x1e460a71bb58cdc3,
komplek housing,komplek housing,,,,KALIMANTAN TENGAH,,Indonesia,,,,,,https://maps.google.com/?cid=0x0:0xa09b32df8ca878d4,
komplek housing,Rumah Kayu,Batuapi Bersinar,"X846+RFQ, Bentot, Kec. Patangkep Tutui, Kabupaten Barito Timur, Kalimantan Tengah 71515","Bentot, Kec. Patangkep Tutui, Kabupaten Barito Timur",KALIMANTAN TENGAH,71515.0,Indonesia,,,,-2.0429224,115.3112192,https://maps.google.com/?cid=0x0:0x34c4bcf90fd5ccf,
komplek housing,Gedung Apartemen,Rumah lentii,"W8X9+HVQ, Bentot, Kec. Patangkep Tutui, Kabupaten Barito Timur, Kalimantan Tengah","Kabupaten Barito Timur, Kalimantan Tengah",KALIMANTAN TENGAH,,Indonesia,,,,-2.0509314,115.3195629,https://maps.google.com/?cid=0x0:0xd771492fdb1e87fd,
komplek housing,Perumahan,Rumah ku,"komplek griya perintis, Jl. Baruh Rintis No.RT. 008 blok D6No, Matabu, Kec. Dusun Tim., Kabupaten Barito Timur, Kalimantan Tengah 73671","Jl. Baruh Rintis No.RT. 008 blok D6No, Matabu, Kec. Dusun Tim., Kabupaten Barito Timur",KALIMANTAN TENGAH,73671.0,Indonesia,,,,-2.1165894,115.1866551,https://maps.google.com/?cid=0x0:0x3cbd165dcbd089ba,
komplek housing,Perumahan,Perumahan pondok indah 1,"Jl. Ahmad Yani perumahan pondok indah No.1, Tamiang Layang, Kec. Katingan Hilir, Kabupaten Katingan, Kalimantan Tengah 74413","Tamiang Layang, Kec. Katingan Hilir, Kabupaten Katingan",KALIMANTAN TENGAH,74413.0,Indonesia,,,,-2.0942761,115.1461655,https://maps.google.com/?cid=0x0:0xa86d9eaab1a4af,
komplek housing,Komplek perumahan,Rumah Dayah,"W8H8+FQ3, Ramania, Kec. Patangkep Tutui, Kabupaten Barito Timur, Kalimantan Tengah 73671","Ramania, Kec. Patangkep Tutui, Kabupaten Barito Timur",KALIMANTAN TENGAH,73671.0,Indonesia,,,,-2.0721303,115.3169119,https://maps.google.com/?cid=0x0:0xf1f8a1f973db400b,
komplek housing,Komplek perumahan,My Home,"V5QC+GM3, Jl. Nansarunai - Tamiang Layang, Dorong, Kec. Dusun Tim., Kabupaten Barito Timur, Kalimantan Tengah 73671","Jl. Nansarunai - Tamiang Layang, Dorong, Kec. Dusun Tim., Kabupaten Barito Timur",KALIMANTAN TENGAH,73671.0,Indonesia,,,,-2.1112359,115.1716606,https://maps.google.com/?cid=0x0:0x9a9d3ae29f101fa8,
komplek housing,Komplek perumahan,Rumah Hendro,"W878+JG6, Pulau Padang, Kec. Patangkep Tutui, Kabupaten Barito Timur, Kalimantan Tengah 73671","Pulau Padang, Kec. Patangkep Tutui, Kabupaten Barito Timur",KALIMANTAN TENGAH,73671.0,Indonesia,,,,-2.0859647,115.3162521,https://maps.google.com/?cid=0x0:0x41fd6256cda184b3,
komplek housing,Komplek perumahan,komplek muhajirin,"V5P7+756, Tamiang Layang, Kec. Dusun Tim., Kabupaten Barito Timur, Kalimantan Tengah 73671","Tamiang Layang, Kec. Dusun Tim., Kabupaten Barito Timur",KALIMANTAN TENGAH,73671.0,Indonesia,,,,-2.11433,115.1629061,https://maps.google.com/?cid=0x0:0xdcd9134b1f357634,
komplek housing,Perhimpunan Pengembang Perumahan,Rumah Gaul,"384R+W9J, Ampari Bora, Kec. Patangkep Tutui, Kabupaten Barito Timur, Kalimantan Tengah","Kabupaten Barito Timur, Kalimantan Tengah",KALIMANTAN TENGAH,,Indonesia,,,,-1.9426598,115.3408808,https://maps.google.com/?cid=0x0:0xde34c691b169399b,
komplek housing,Komplek perumahan,CNAs Garden,"V5XQ+PV, Dorong, Kec. Dusun Tim., Kabupaten Barito Timur, Kalimantan Tengah 73671","Dorong, Kec. Dusun Tim., Kabupaten Barito Timur",KALIMANTAN TENGAH,73671.0,Indonesia,,,,-2.1006866,115.1897175,https://maps.google.com/?cid=0x0:0x34b8a2cbc4198c13,
komplek housing,Komplek perumahan,Rumah itak yuda/maxim,"W8VF+G2, Bentot, Kec. Patangkep Tutui, Kabupaten Barito Timur, Kalimantan Tengah","Kabupaten Barito Timur, Kalimantan Tengah",KALIMANTAN TENGAH,,Indonesia,,,,-2.0548,115.322579,https://maps.google.com/?cid=0x0:0xa6c9d4f4a110ddd6,
komplek housing,Komplek perumahan,Siti Nurhidayah,"W8H8+FQ3, Ramania, Kec. Patangkep Tutui, Kabupaten Barito Timur, Kalimantan Tengah 73671","Ramania, Kec. Patangkep Tutui, Kabupaten Barito Timur",KALIMANTAN TENGAH,73671.0,Indonesia,,,,-2.0713625,115.3169219,https://maps.google.com/?cid=0x0:0xc8715ab2b17d88f8,
komplek housing,Komplek perumahan,Dea Home,"V5MC+H2V, Tamiang Layang, Kec. Dusun Tim., Kabupaten Barito Timur, Kalimantan Tengah","Kabupaten Barito Timur, Kalimantan Tengah",KALIMANTAN TENGAH,,Indonesia,,,,-2.1160004,115.1700513,https://maps.google.com/?cid=0x0:0x1555e9814dbdcd02,
komplek housing,Perhimpunan Pengembang Perumahan,Rumah Riayati,"X7QC+26, Tangkan, Kec. Awang, Kabupaten Barito Timur, Kalimantan Tengah 73671","Tangkan, Kec. Awang, Kabupaten Barito Timur",KALIMANTAN TENGAH,73671.0,Indonesia,,,,-2.0118983,115.2704027,https://maps.google.com/?cid=0x0:0x6e810d2a3f8884af,
komplek housing,Gedung Apartemen,Fanza,"V5PH+74G, Tamiang Layang, Kec. Dusun Tim., Kabupaten Barito Timur, Kalimantan Tengah 73671","Tamiang Layang, Kec. Dusun Tim., Kabupaten Barito Timur",KALIMANTAN TENGAH,73671.0,Indonesia,,,,-2.1143163,115.1778186,https://maps.google.com/?cid=0x0:0xb09917a7542b3bc6,
komplek housing,komplek housing,"Rumah HARIYAPU, S.AP","277M+MMG, Pianggu, Kec. Awang, Kabupaten Barito Timur, Kalimantan Tengah 73671","Pianggu, Kec. Awang, Kabupaten Barito Timur",KALIMANTAN TENGAH,73671.0,Indonesia,,,,-1.985731,115.2834305,https://maps.google.com/?cid=0x0:0xa3be2d15c201b557,
komplek housing,Komplek perumahan,RUMAH PRIBADI,"V5FV+43F, Mangkarap, Kec. Dusun Tim., Kabupaten Barito Timur, Kalimantan Tengah 73671","Mangkarap, Kec. Dusun Tim., Kabupaten Barito Timur",KALIMANTAN TENGAH,73671.0,Indonesia,,,,-2.1271919,115.1926655,https://maps.google.com/?cid=0x0:0xbadf2590874f259,
komplek housing,komplek housing,Rumah Dimas,"V582+92J, Magantis, Kec. Dusun Tim., Kabupaten Barito Timur, Kalimantan Tengah 73671","Magantis, Kec. Dusun Tim., Kabupaten Barito Timur",KALIMANTAN TENGAH,73671.0,Indonesia,,,,-2.1338472,115.1501901,https://maps.google.com/?cid=0x0:0xd52c819994b90355,
komplek housing,komplek housing,Kec. Patangkep Tutui,"Kabupaten Barito Timur, Kalimantan Tengah","Kabupaten Barito Timur, Kalimantan Tengah",KALIMANTAN TENGAH,,Indonesia,,,,-2.0588589,115.3288619,https://maps.google.com/?cid=0x0:0xe211baddeb6b148e,
komplek housing,Perhimpunan Pengembang Perumahan,Yunani,"W7M4+8PV, Matarah, Kec. Dusun Tim., Kabupaten Barito Timur, Kalimantan Tengah 73671","Matarah, Kec. Dusun Tim., Kabupaten Barito Timur",KALIMANTAN TENGAH,73671.0,Indonesia,,,,-2.066626,115.2568078,https://maps.google.com/?cid=0x0:0xf7adc5c0861da85f,
komplek housing,Komplek perumahan,Rumah Remon,"W6VX+H8X, Matarah, Kec. Dusun Tim., Kabupaten Barito Timur, Kalimantan Tengah 73671","Matarah, Kec. Dusun Tim., Kabupaten Barito Timur",KALIMANTAN TENGAH,73671.0,Indonesia, 081253422509,,,-2.0560049,115.2483637,https://maps.google.com/?cid=0x0:0x320b0c13a1202f56,
komplek housing,Komplek perumahan,Rumah jarjit,"W7M4+8PV, Matarah, Kec. Dusun Tim., Kabupaten Barito Timur, Kalimantan Tengah 73671","Matarah, Kec. Dusun Tim., Kabupaten Barito Timur",KALIMANTAN TENGAH,73671.0,Indonesia,,,,-2.065615,115.257055,https://maps.google.com/?cid=0x0:0x47e99239016b9964,
komplek housing,Perhimpunan Pengembang Perumahan,Rumah mama Temon,"X727+HPW, Matarah, Kec. Dusun Tim., Kabupaten Barito Timur, Kalimantan Tengah 73671","Matarah, Kec. Dusun Tim., Kabupaten Barito Timur",KALIMANTAN TENGAH,73671.0,Indonesia,,,,-2.0485042,115.2643416,https://maps.google.com/?cid=0x0:0x8742d1bfa03885f0,
komplek housing,Komplek perumahan,Padang Permai,"27XV+P3J, Pianggu, Kec. Awang, Kabupaten Barito Timur, Kalimantan Tengah 73671","Pianggu, Kec. Awang, Kabupaten Barito Timur",KALIMANTAN TENGAH,73671.0,Indonesia,,,,-1.9506668,115.2926485,https://maps.google.com/?cid=0x0:0xb21d1dfab78210e1,
komplek housing,Komplek perumahan,asrama YBM,"W7R4+W56, Matarah, Kec. Dusun Tim., Kabupaten Barito Timur, Kalimantan Tengah 73671","Matarah, Kec. Dusun Tim., Kabupaten Barito Timur",KALIMANTAN TENGAH,73671.0,Indonesia,,,,-2.0577097,115.2554025,https://maps.google.com/?cid=0x0:0x3784554a3e1ba5d9,
komplek housing,Komplek perumahan,Rumah amah adit,"W773+5JH, RT.02, Gumpa, Kec. Dusun Tim., Kabupaten Barito Timur, Kalimantan Tengah 73671","RT.02, Gumpa, Kec. Dusun Tim., Kabupaten Barito Timur",KALIMANTAN TENGAH,73671.0,Indonesia,,,,-2.087051,115.2541233,https://maps.google.com/?cid=0x0:0xee5954faca55ef4a,
komplek housing,komplek housing,Barito Timur,"W664+VM4, Dorong, Kec. Dusun Tim., Kabupaten Barito Timur, Kalimantan Tengah 73671","Dorong, Kec. Dusun Tim., Kabupaten Barito Timur",KALIMANTAN TENGAH,73671.0,Indonesia,,,,-2.0878644,115.2067011,https://maps.google.com/?cid=0x0:0x1d0bdecdb23367f8,
komplek housing,komplek housing,Kalimantan Tengah 73653,"Kabupaten Barito Selatan, Kalimantan Tengah","Kabupaten Barito Selatan, Kalimantan Tengah",KALIMANTAN TENGAH,,Indonesia,,,,-1.7491595,114.9754175,https://maps.google.com/?cid=0x0:0xd6ed047f12362357,
komplek housing,komplek housing,Drop Paket,"62VV+P87, Bambulung, Kec. Pematang Karau, Kabupaten Barito Timur, Kalimantan Tengah","Kabupaten Barito Timur, Kalimantan Tengah",KALIMANTAN TENGAH,,Indonesia,,,,-1.7557084,115.0433018,https://maps.google.com/?cid=0x0:0x896527c836023e3c,
komplek housing,Komplek perumahan,Rumah Tukimin,"53VJ+GX, Bararawa, Kec. Pematang Karau, Kabupaten Barito Timur, Kalimantan Tengah","Kabupaten Barito Timur, Kalimantan Tengah",KALIMANTAN TENGAH,,Indonesia,,,,-1.8062915,115.0815149,https://maps.google.com/?cid=0x0:0x17f301703ecdebbe,
komplek housing,Komplek perumahan,Rumah Sarah,"Pinang Tunggal, Kec. Pematang Karau, Kabupaten Barito Timur, Kalimantan Tengah 73652","Kec. Pematang Karau, Kabupaten Barito Timur",KALIMANTAN TENGAH,73652.0,Indonesia,,,,-1.8333766,115.0468252,https://maps.google.com/?cid=0x0:0xbae831801373a756,
komplek housing,Pembangunan Perumahan,AISRS,"52QW+Q4F, Bambulung, Kec. Pematang Karau, Kabupaten Barito Timur, Kalimantan Tengah 73652","Bambulung, Kec. Pematang Karau, Kabupaten Barito Timur",KALIMANTAN TENGAH,73652.0,Indonesia,,,,-1.8101852,115.045474,https://maps.google.com/?cid=0x0:0x31fe0e008f9f7fd8,
komplek housing,Komplek perumahan,Rohmad,"62VV+V8C, Bambulung, Kec. Pematang Karau, Kabupaten Barito Timur, Kalimantan Tengah 73653","Bambulung, Kec. Pematang Karau, Kabupaten Barito Timur",KALIMANTAN TENGAH,73653.0,Indonesia,,,,-1.7548552,115.0431298,https://maps.google.com/?cid=0x0:0xb75cede6da1dbfbb,
komplek housing,Perumahan,rumah rajuu gank,"627P+37P, Sumberejo, Kec. Pematang Karau, Kabupaten Barito Timur, Kalimantan Tengah","Kabupaten Barito Timur, Kalimantan Tengah",KALIMANTAN TENGAH,,Indonesia,,,,-1.7869623,115.0351237,https://maps.google.com/?cid=0x0:0x111f80700cf77dc9,
komplek housing,Komplek perumahan,Azz House,"528W+X27, Tuyau, Kec. Pematang Karau, Kabupaten Barito Timur, Kalimantan Tengah 73652","Tuyau, Kec. Pematang Karau, Kabupaten Barito Timur",KALIMANTAN TENGAH,73652.0,Indonesia,,,,-1.8325854,115.0450438,https://maps.google.com/?cid=0x0:0xee423f43952cef4,
komplek housing,Komplek perumahan,Nagaleah,"539Q+76X, Nagaleah, Kec. Pematang Karau, Kabupaten Barito Timur, Kalimantan Tengah 73652","Nagaleah, Kec. Pematang Karau, Kabupaten Barito Timur",KALIMANTAN TENGAH,73652.0,Indonesia,,,,-1.8317563,115.0881146,https://maps.google.com/?cid=0x0:0x866e3136b251f914,
komplek housing,Komplek perumahan,Rumah devin,"53JP+75, Muruduyung, Kec. Pematang Karau, Kabupaten Barito Timur, Kalimantan Tengah 73652","Muruduyung, Kec. Pematang Karau, Kabupaten Barito Timur",KALIMANTAN TENGAH,73652.0,Indonesia,,,,-1.8196717,115.0866945,https://maps.google.com/?cid=0x0:0xc93c2c291a16299,
komplek housing,Komplek perumahan,Tejo_Mill,"62VV+V8C, Bambulung, Kec. Pematang Karau, Kabupaten Barito Timur, Kalimantan Tengah 73653","Bambulung, Kec. Pematang Karau, Kabupaten Barito Timur",KALIMANTAN TENGAH,73653.0,Indonesia,,,,-1.7550941,115.0429377,https://maps.google.com/?cid=0x0:0xc38f09cbd3356d69,
komplek housing,Komplek perumahan,Hayuput,"62C7+G6W, Bambulung, Kec. Pematang Karau, Kabupaten Barito Timur, Kalimantan Tengah","Kabupaten Barito Timur, Kalimantan Tengah",KALIMANTAN TENGAH,,Indonesia,,,,-1.778645,115.0130773,https://maps.google.com/?cid=0x0:0xce45d389371ec656,
komplek housing,komplek housing,Rumah/Mhmmd andy,"52MH+3RH, Buntok - Ampah, Bambulung, Kec. Pematang Karau, Kabupaten Barito Timur, Kalimantan Tengah 73653","Buntok - Ampah, Bambulung, Kec. Pematang Karau, Kabupaten Barito Timur",KALIMANTAN TENGAH,73653.0,Indonesia,,,,-1.8172985,115.0296691,https://maps.google.com/?cid=0x0:0x826a2c0b0ab047ab,
komplek housing,Komplek perumahan,Amin Fitri Handayani,"623H+4GM, RT.02/RW.02, Sumberejo, Kec. Pematang Karau, Kabupaten Barito Timur, Kalimantan Tengah","Kabupaten Barito Timur, Kalimantan Tengah",KALIMANTAN TENGAH,,Indonesia,,,,-1.7971503,115.0288051,https://maps.google.com/?cid=0x0:0xbe4c28bcd45c8a17,
komplek housing,Hotel,Rumah,"53X3+4QV Rt 1, Bambulung, Kec. Pematang Karau, Kabupaten Barito Timur, Kalimantan Tengah","Kabupaten Barito Timur, Kalimantan Tengah",KALIMANTAN TENGAH,,Indonesia,,,,-1.8021304,115.054433,https://maps.google.com/?cid=0x0:0xb189f753e6e91069,
komplek housing,Komplek perumahan,I.bungsu,"52JM+HGC, Bambulung, Kec. Pematang Karau, Kabupaten Barito Timur, Kalimantan Tengah 73653","Bambulung, Kec. Pematang Karau, Kabupaten Barito Timur",KALIMANTAN TENGAH,73653.0,Indonesia,,,,-1.8185706,115.0337777,https://maps.google.com/?cid=0x0:0x1cdaab6a4831b01,
komplek housing,Komplek perumahan,Rumah pak dwi keluarga,"624C+F9P, Bambulung, Kec. Pematang Karau, Kabupaten Barito Timur, Kalimantan Tengah 73653","Bambulung, Kec. Pematang Karau, Kabupaten Barito Timur",KALIMANTAN TENGAH,73653.0,Indonesia,,,,-1.7937949,115.0209673,https://maps.google.com/?cid=0x0:0xb77057ff65d14f78,
komplek housing,komplek housing,Rumah Heri,"637W+WF, Lampeong, Kec. Pematang Karau, Kabupaten Barito Timur, Kalimantan Tengah","Kabupaten Barito Timur, Kalimantan Tengah",KALIMANTAN TENGAH,,Indonesia,,,,-1.7852261,115.096156,https://maps.google.com/?cid=0x0:0x6102f780a5376fb7,
komplek housing,Komplek perumahan,Dilla family's house,"52MH+7VJ, Bambulung, Kec. Pematang Karau, Kabupaten Barito Timur, Kalimantan Tengah 73652","Bambulung, Kec. Pematang Karau, Kabupaten Barito Timur",KALIMANTAN TENGAH,73652.0,Indonesia,,,,-1.8167848,115.0296423,https://maps.google.com/?cid=0x0:0xcb4df476315482f5,
komplek housing,Komplek perumahan,Rumah abah el-furqan,"529V+4CX, Tuyau, Kec. Pematang Karau, Kabupaten Barito Timur, Kalimantan Tengah","Kabupaten Barito Timur, Kalimantan Tengah",KALIMANTAN TENGAH,,Indonesia,,,,-1.8323969,115.0435346,https://maps.google.com/?cid=0x0:0xe034f6d36614871e,
komplek housing,komplek housing,Kec. Pematang Karau,"Kabupaten Barito Timur, Kalimantan Tengah","Kabupaten Barito Timur, Kalimantan Tengah",KALIMANTAN TENGAH,,Indonesia,,,,-1.8175894,115.029723,https://maps.google.com/?cid=0x0:0x76c502e0a6300f0e,
komplek housing,Komplek perumahan,Ahmadi mill,"62VV+V8C, Bambulung, Kec. Pematang Karau, Kabupaten Barito Timur, Kalimantan Tengah 73653","Bambulung, Kec. Pematang Karau, Kabupaten Barito Timur",KALIMANTAN TENGAH,73653.0,Indonesia,,,,-1.7547939,115.0430852,https://maps.google.com/?cid=0x0:0x5daf0fe1fc818571,
komplek housing,komplek housing,Kec. Raren Batuah,"Kabupaten Barito Timur, Kalimantan Tengah","Kabupaten Barito Timur, Kalimantan Tengah",KALIMANTAN TENGAH,,Indonesia,,,,-1.7435641,115.1517853,https://maps.google.com/?cid=0x0:0x581b014235e95caf,
komplek housing,Rumah Kayu,Aira home,"75H3+X88, Lenggang, Kec. Raren Batuah, Kabupaten Barito Timur, Kalimantan Tengah 73652","Lenggang, Kec. Raren Batuah, Kabupaten Barito Timur",KALIMANTAN TENGAH,73652.0,Indonesia,,,,-1.7200838,115.1533426,https://maps.google.com/?cid=0x0:0x1ddc2247a063a88e,
komplek housing,komplek housing,auliarahmah,"756M+5Q, Batuah, Kec. Raren Batuah, Kabupaten Barito Timur, Kalimantan Tengah 73652","Batuah, Kec. Raren Batuah, Kabupaten Barito Timur",KALIMANTAN TENGAH,73652.0,Indonesia,,,,-1.7395824,115.184452,https://maps.google.com/?cid=0x0:0x9f7f93feaec5f0c4,
komplek housing,Komplek perumahan,Rumah Cik Bodta,"75H3+X88, Lenggang, Kec. Raren Batuah, Kabupaten Barito Timur, Kalimantan Tengah 73652","Lenggang, Kec. Raren Batuah, Kabupaten Barito Timur",KALIMANTAN TENGAH,73652.0,Indonesia,,,,-1.7200838,115.1533426,https://maps.google.com/?cid=0x0:0x60969ff4d826a7e3,
komplek housing,Pembangunan Perumahan,Putri,"75H3+Q8M, Lenggang, Kec. Raren Batuah, Kabupaten Barito Timur, Kalimantan Tengah 73652","Lenggang, Kec. Raren Batuah, Kabupaten Barito Timur",KALIMANTAN TENGAH,73652.0,Indonesia,,,,-1.7205431,115.1532814,https://maps.google.com/?cid=0x0:0xe4e056eae65ef3a9,
komplek housing,Kantor Perusahaan,Komplek janah,"65Q3+VPF, Jl. Pahlawan, Puri, Kec. Raren Batuah, Kabupaten Barito Timur, Kalimantan Tengah 73652","Jl. Pahlawan, Puri, Kec. Raren Batuah, Kabupaten Barito Timur",KALIMANTAN TENGAH,73652.0,Indonesia,,,,-1.7603105,115.1543092,https://maps.google.com/?cid=0x0:0xf1aa12d2cf64c0c2,
komplek housing,Perhimpunan Pengembang Perumahan,Rumah Lilyseva,"85X2+6HW, Baruyan, Kec. Raren Batuah, Kabupaten Barito Timur, Kalimantan Tengah 73652","Baruyan, Kec. Raren Batuah, Kabupaten Barito Timur",KALIMANTAN TENGAH,73652.0,Indonesia,,,,-1.6518838,115.1514414,https://maps.google.com/?cid=0x0:0x2460bae556c5f476,
komplek housing,Perhimpunan Pengembang Perumahan,Maya,"85WV+MWX, Baruyan, Kec. Raren Batuah, Kabupaten Barito Timur, Kalimantan Tengah 73652","Baruyan, Kec. Raren Batuah, Kabupaten Barito Timur",KALIMANTAN TENGAH,73652.0,Indonesia,,,,-1.6532519,115.1948445,https://maps.google.com/?cid=0x0:0xd74821522ecff154,
komplek housing,Perhimpunan Pengembang Perumahan,Desa ku,"8664+JMP, Sibung, Kec. Raren Batuah, Kabupaten Barito Timur, Kalimantan Tengah 73652","Sibung, Kec. Raren Batuah, Kabupaten Barito Timur",KALIMANTAN TENGAH,73652.0,Indonesia,,,,-1.6884053,115.2067011,https://maps.google.com/?cid=0x0:0xd7491211745a4da0,
komplek housing,Perhimpunan Pengembang Perumahan,Rumah said,"758J+VHW, Batuah, Kec. Raren Batuah, Kabupaten Barito Timur, Kalimantan Tengah 73652","Batuah, Kec. Raren Batuah, Kabupaten Barito Timur",KALIMANTAN TENGAH,73652.0,Indonesia,,,,-1.7327657,115.181466,https://maps.google.com/?cid=0x0:0xec2054d15dac4a68,
komplek housing,Toko,KATRIANI's House,"848X+FHF, Unsum, Kec. Raren Batuah, Kabupaten Barito Timur, Kalimantan Tengah 73652","Unsum, Kec. Raren Batuah, Kabupaten Barito Timur",KALIMANTAN TENGAH,73652.0,Indonesia,,,,-1.683806,115.148916,https://maps.google.com/?cid=0x0:0xc11e023d9845b3a7,
komplek housing,komplek housing,Rumah Cristia,"75HQ+QC4, Batuah, Kec. Raren Batuah, Kabupaten Barito Timur, Kalimantan Tengah 73652","Batuah, Kec. Raren Batuah, Kabupaten Barito Timur",KALIMANTAN TENGAH,73652.0,Indonesia,,,,-1.7206168,115.1885786,https://maps.google.com/?cid=0x0:0x739ff3a39ed79472,
komplek housing,Komplek perumahan,HADIL ARIFIN Turan Amis Bartim PPL,"75V2+HW5, Lenggang, Kec. Raren Batuah, Kabupaten Barito Timur, Kalimantan Tengah 73652","Lenggang, Kec. Raren Batuah, Kabupaten Barito Timur",KALIMANTAN TENGAH,73652.0,Indonesia,,,,-1.7061085,115.1523651,https://maps.google.com/?cid=0x0:0x1c2a7c06d6acc8b2,
komplek housing,Komplek perumahan,KARTINO,"749X+5FQ, Jl. Patas, Lenggang, Kec. Raren Batuah, Kabupaten Barito Timur, Kalimantan Tengah 73652","Jl. Patas, Lenggang, Kec. Raren Batuah, Kabupaten Barito Timur",KALIMANTAN TENGAH,73652.0,Indonesia,,,,-1.7313662,115.148207,https://maps.google.com/?cid=0x0:0xf6d9f0346abb0df0,
komplek housing,Perhimpunan Pengembang Perumahan,Rumah Jeniiii,"848X+7C, Unsum, Kec. Raren Batuah, Kabupaten Barito Timur, Kalimantan Tengah","Kabupaten Barito Timur, Kalimantan Tengah",KALIMANTAN TENGAH,,Indonesia,,,,-1.684798,115.14816,https://maps.google.com/?cid=0x0:0xda6070989ebe3bdf,
komplek housing,Komplek perumahan,SUKIYO,"8523+37J, Lenggang, Kec. Raren Batuah, Kabupaten Barito Timur, Kalimantan Tengah 73652","Lenggang, Kec. Raren Batuah, Kabupaten Barito Timur",KALIMANTAN TENGAH,73652.0,Indonesia,,,,-1.6997977,115.1531553,https://maps.google.com/?cid=0x0:0x857d68c30c8e6ad6,
komplek housing,Perhimpunan Pengembang Perumahan,Pak ri,"8595+WP2, Turan Amis, Kec. Raren Batuah, Kabupaten Barito Timur, Kalimantan Tengah 73652","Turan Amis, Kec. Raren Batuah, Kabupaten Barito Timur",KALIMANTAN TENGAH,73652.0,Indonesia,,,,-1.6802273,115.1592718,https://maps.google.com/?cid=0x0:0xd960433847aa9de3,
komplek housing,komplek housing,Mes PT BKI,"75H3+X88, Lenggang, Kec. Raren Batuah, Kabupaten Barito Timur, Kalimantan Tengah 73652","Lenggang, Kec. Raren Batuah, Kabupaten Barito Timur",KALIMANTAN TENGAH,73652.0,Indonesia,,,,-1.7200838,115.1533426,https://maps.google.com/?cid=0x0:0xddd7f954e9f4c346,
komplek housing,Pembangunan Perumahan,Desa Unsum Kec.Raren Batuah Barito Timur,"846V+GM, Unsum, Kec. Raren Batuah, Kabupaten Barito Timur, Kalimantan Tengah","Kabupaten Barito Timur, Kalimantan Tengah",KALIMANTAN TENGAH,,Indonesia,,,,-1.688262,115.144073,https://maps.google.com/?cid=0x0:0x4c9ef6131b5c6d17,
komplek housing,Perhimpunan Pengembang Perumahan,Jasa Servis HPPaket Data,"758J+XRC, Batuah, Kec. Raren Batuah, Kabupaten Barito Timur, Kalimantan Tengah 73652","Batuah, Kec. Raren Batuah, Kabupaten Barito Timur",KALIMANTAN TENGAH,73652.0,Indonesia, 082233020801,,,-1.7325552,115.182026,https://maps.google.com/?cid=0x0:0x66e2852e54a9eef3,
komplek housing,Kantor Perusahaan,Perumahan janah permai,"64GX+397, Jl. Cendrawasih I, Ampah Kota, Kec. Dusun Tengah, Kabupaten Barito Timur, Kalimantan Tengah 73652","Jl. Cendrawasih I, Ampah Kota, Kec. Dusun Tengah, Kabupaten Barito Timur",KALIMANTAN TENGAH,73652.0,Indonesia,,,,-1.7748252,115.1484222,https://maps.google.com/?cid=0x0:0xadc570d3a5a32f28,
komplek housing,Kantor Perusahaan,Perumnas Janah Harapan,"64FX+X9M, Ampah Kota, Kec. Dusun Tengah, Kabupaten Barito Timur, Kalimantan Tengah 73652","Ampah Kota, Kec. Dusun Tengah, Kabupaten Barito Timur",KALIMANTAN TENGAH,73652.0,Indonesia,,,,-1.7750453,115.1484229,https://maps.google.com/?cid=0x0:0xbfdbc004c4a16a99,
perumahan,perumahan,Kalimantan Tengah 73681,"Kabupaten Barito Timur, Kalimantan Tengah","Kabupaten Barito Timur, Kalimantan Tengah",KALIMANTAN TENGAH,,Indonesia,,,,-1.9957549,115.1177654,https://maps.google.com/?cid=0x0:0xad325f18fddf1160,
perumahan,Komplek perumahan,Rumah Alvaro,"W4FQ+887, Sumur, Kec. Dusun Tim., Kabupaten Barito Timur, Kalimantan Tengah 73681","Sumur, Kec. Dusun Tim., Kabupaten Barito Timur",KALIMANTAN TENGAH,73681.0,Indonesia,,,,-2.0767149,115.1382897,https://maps.google.com/?cid=0x0:0x869e9c0c84edd9ef,
perumahan,Rumah Kayu,Rumah Ebekson,"Jl. Tamiyang Layang - Ampah No.KM 7, Sumur, Kec. Dusun Tim., Kabupaten Barito Timur, Kalimantan Tengah 73681","Sumur, Kec. Dusun Tim., Kabupaten Barito Timur",KALIMANTAN TENGAH,73681.0,Indonesia,,,,-2.0568774,115.1358165,https://maps.google.com/?cid=0x0:0xf4e963e32d333c9f,
perumahan,Pembangunan Perumahan,Indra Malelo,"W4HV+HR, Sumur, Kec. Dusun Tim., Kabupaten Barito Timur, Kalimantan Tengah 73681","Sumur, Kec. Dusun Tim., Kabupaten Barito Timur",KALIMANTAN TENGAH,73681.0,Indonesia,,,,-2.0710882,115.1446078,https://maps.google.com/?cid=0x0:0xc10b103e192e22a7,
perumahan,Pembangunan Perumahan,Lewu itak Yanti,"26FX+Q5, Hayaping, Kec. Awang, Kabupaten Barito Timur, Kalimantan Tengah","Kabupaten Barito Timur, Kalimantan Tengah",KALIMANTAN TENGAH,,Indonesia,,,,-1.9755643,115.2479379,https://maps.google.com/?cid=0x0:0x8cd928db608dfc0,
perumahan,Pembangunan Perumahan,Rumah amah jabang,"25FW+JCQ, Janah Jari, Kec. Awang, Kabupaten Barito Timur, Kalimantan Tengah 73671","Janah Jari, Kec. Awang, Kabupaten Barito Timur",KALIMANTAN TENGAH,73671.0,Indonesia,,,,-1.976129,115.195894,https://maps.google.com/?cid=0x0:0xdbd1c9001f995fcf,
perumahan,Perhimpunan Pengembang Perumahan,Tanah Perumahan An.INGKARAYA,"W4FQ+34X, Jl. Tamiyang Layang - Ampah, Sumur, Kec. Dusun Tim., Kabupaten Barito Timur, Kalimantan Tengah 73681","Jl. Tamiyang Layang - Ampah, Sumur, Kec. Dusun Tim., Kabupaten Barito Timur",KALIMANTAN TENGAH,73681.0,Indonesia, 085249938427,,,-2.0773625,115.1377796,https://maps.google.com/?cid=0x0:0xf5f7812ea50ade34,
perumahan,Pembangunan Perumahan,Mengukur sebidang tanah,"X46P+XHR, Dekat SDN 2, Jaweten, Kec. Dusun Tim., Kabupaten Barito Timur, Kalimantan Tengah","Kabupaten Barito Timur, Kalimantan Tengah",KALIMANTAN TENGAH,,Indonesia,,,,-2.0375062,115.1363826,https://maps.google.com/?cid=0x0:0x1a8a96800d35575a,
perumahan,Pembangunan Perumahan,Insyah,"25FW+M8V, Janah Jari, Kec. Awang, Kabupaten Barito Timur, Kalimantan Tengah 73671","Janah Jari, Kec. Awang, Kabupaten Barito Timur",KALIMANTAN TENGAH,73671.0,Indonesia,,,,-1.9757538,115.1957632,https://maps.google.com/?cid=0x0:0x57c28ea5dc53b9bb,
perumahan,Pembangunan Perumahan,Widiastuti home,"269J+HGQ, Hayaping, Kec. Awang, Kabupaten Barito Timur, Kalimantan Tengah","Kabupaten Barito Timur, Kalimantan Tengah",KALIMANTAN TENGAH,,Indonesia,,,,-1.9810439,115.231366,https://maps.google.com/?cid=0x0:0x614aee42e4eec533,
perumahan,Pembangunan Perumahan,Rumah jovan Alvaro antoni anak ludi,"W46R+CJX, Sumur, Kec. Dusun Tim., Kabupaten Barito Timur, Kalimantan Tengah 73671","Sumur, Kec. Dusun Tim., Kabupaten Barito Timur",KALIMANTAN TENGAH,73671.0,Indonesia,,,,-2.0890043,115.1414488,https://maps.google.com/?cid=0x0:0x2664c97becec62ca,
perumahan,Komplek perumahan,janah jari,"25HV+4W5, Janah Jari, Kec. Awang, Kabupaten Barito Timur, Kalimantan Tengah","Kabupaten Barito Timur, Kalimantan Tengah",KALIMANTAN TENGAH,,Indonesia,,,,-1.9722482,115.1948445,https://maps.google.com/?cid=0x0:0x496d9012ba6d3f48,
perumahan,Komplek perumahan,Rumah Artikel Lores/Upu,"X48M+QRF, Jl. Tamiyang Layang - Ampah, Jaweten, Kec. Dusun Tim., Kabupaten Barito Timur, Kalimantan Tengah 73681","Jl. Tamiyang Layang - Ampah, Jaweten, Kec. Dusun Tim., Kabupaten Barito Timur",KALIMANTAN TENGAH,73681.0,Indonesia,,,,-2.0324628,115.1347593,https://maps.google.com/?cid=0x0:0x1ed692fc5cff18f0,
perumahan,Pembangunan Perumahan,Lewu Valen,"Jl. Pembangunan No.102, RT.02, Hayaping, Kec. Awang, Kabupaten Barito Timur, Kalimantan Tengah 73681","RT.02, Hayaping, Kec. Awang, Kabupaten Barito Timur",KALIMANTAN TENGAH,73681.0,Indonesia,,,,-1.9773737,115.2376399,https://maps.google.com/?cid=0x0:0xc0c1e1ed2cf8b258,
perumahan,perumahan,Rangga saputra,"34CX+933, Tarinsing, Kec. Paku, Kabupaten Barito Timur, Kalimantan Tengah","Kabupaten Barito Timur, Kalimantan Tengah",KALIMANTAN TENGAH,,Indonesia,,,,-1.9291244,115.1476618,https://maps.google.com/?cid=0x0:0xecd2e50da1b6f9fd,
perumahan,Komplek perumahan,Lady,"X48Q+WM, Jaweten, Kec. Dusun Tim., Kabupaten Barito Timur, Kalimantan Tengah 73681","Jaweten, Kec. Dusun Tim., Kabupaten Barito Timur",KALIMANTAN TENGAH,73681.0,Indonesia,,,,-2.0337762,115.1388095,https://maps.google.com/?cid=0x0:0x47f73a86776f7428,
perumahan,Komplek perumahan,Depan rumah bapak marvel,"X47P+5J2, Jaweten, Kec. Dusun Tim., Kabupaten Barito Timur, Kalimantan Tengah","Kabupaten Barito Timur, Kalimantan Tengah",KALIMANTAN TENGAH,,Indonesia,,,,-2.0371087,115.1365105,https://maps.google.com/?cid=0x0:0x961882c8530ef641,
perumahan,Komplek perumahan,Komplek Perumahan Pondok Indah 1,"W45X+2G9, Jl. Tamiyang Layang - Ampah, Sumur, Kec. Dusun Tim., Kabupaten Barito Timur, Kalimantan Tengah 73671","Jl. Tamiyang Layang - Ampah, Sumur, Kec. Dusun Tim., Kabupaten Barito Timur",KALIMANTAN TENGAH,73671.0,Indonesia,,,,-2.0924517,115.1488665,https://maps.google.com/?cid=0x0:0x8f2df3d4e63db725,
perumahan,Pembangunan Perumahan,Hayaping,"26CV+7HP, Hayaping, Kec. Awang, Kabupaten Barito Timur, Kalimantan Tengah 73671","Hayaping, Kec. Awang, Kabupaten Barito Timur",KALIMANTAN TENGAH,73671.0,Indonesia,,,,-1.9792917,115.2439615,https://maps.google.com/?cid=0x0:0x8a8b04e2e4ef7a68,
perumahan,perumahan,RUMAH RESSA AUREL,"X3XX+RX5, Simpang Naneng, Kec. Karusen Janang, Kabupaten Barito Timur, Kalimantan Tengah 73681","Simpang Naneng, Kec. Karusen Janang, Kabupaten Barito Timur",KALIMANTAN TENGAH,73681.0,Indonesia,,,,-2.0004995,115.0999753,https://maps.google.com/?cid=0x0:0xad0c1c49000c76f3,
perumahan,Pembangunan Perumahan,PERUMAHAN SANGKAI PERMAI,"V4WP+WWJ, Jl. PP. Dinan Tabak Kanilan, Tamiang Layang, Kec. Dusun Tim., Kabupaten Barito Timur, Kalimantan Tengah 73612","Jl. PP. Dinan Tabak Kanilan, Tamiang Layang, Kec. Dusun Tim., Kabupaten Barito Timur",KALIMANTAN TENGAH,73612.0,Indonesia, 082137166719,,,-2.1026731,115.1372542,https://maps.google.com/?cid=0x0:0xe98e29aa4bd1a151,
perumahan,Perumahan,Perumahan pondok indah 1,"Jl. Ahmad Yani perumahan pondok indah No.1, Tamiang Layang, Kec. Katingan Hilir, Kabupaten Katingan, Kalimantan Tengah 74413","Tamiang Layang, Kec. Katingan Hilir, Kabupaten Katingan",KALIMANTAN TENGAH,74413.0,Indonesia,,,,-2.0942761,115.1461655,https://maps.google.com/?cid=0x0:0xa86d9eaab1a4af,
perumahan,Pembangunan Perumahan,Tunggu raya,"35CM+R55, Runggu Raya, Kec. Paku, Kabupaten Barito Timur, Kalimantan Tengah","Kabupaten Barito Timur, Kalimantan Tengah",KALIMANTAN TENGAH,,Indonesia,,,,-1.9279781,115.1829873,https://maps.google.com/?cid=0x0:0x8556c0967464753,
perumahan,perumahan,Rumah Meera,"239F+RV4, Dayu, Kec. Karusen Janang, Kabupaten Barito Timur, Kalimantan Tengah 73652","Dayu, Kec. Karusen Janang, Kabupaten Barito Timur",KALIMANTAN TENGAH,73652.0,Indonesia,,,,-1.9810552,115.0741411,https://maps.google.com/?cid=0x0:0xfa1324dff821d370,
perumahan,perumahan,Rumah Ria,"X59H+GP, Karang Langit, Kec. Dusun Tim., Kabupaten Barito Timur, Kalimantan Tengah","Kabupaten Barito Timur, Kalimantan Tengah",KALIMANTAN TENGAH,,Indonesia,,,,-2.03137,115.178761,https://maps.google.com/?cid=0x0:0x28e5456e197012b,
perumahan,Komplek perumahan,Lewu Ketti,"35WJ+JJX, Tampa, Kec. Paku, Kabupaten Barito Timur, Kalimantan Tengah","Kabupaten Barito Timur, Kalimantan Tengah",KALIMANTAN TENGAH,,Indonesia,,,,-1.903394,115.1816146,https://maps.google.com/?cid=0x0:0x5e17ab39a36df4cc,
perumahan,perumahan,Pantaruan's,"26JQ+6Q, Hayaping, Kec. Awang, Kabupaten Barito Timur, Kalimantan Tengah 73671","Hayaping, Kec. Awang, Kabupaten Barito Timur",KALIMANTAN TENGAH,73671.0,Indonesia,,,,-1.970017,115.239557,https://maps.google.com/?cid=0x0:0x73bb9d3d0738023,
perumahan,Perhimpunan Pengembang Perumahan,Gian Saputra Home,"X7M8+Q99, Tangkan, Kec. Awang, Kabupaten Barito Timur, Kalimantan Tengah","Kabupaten Barito Timur, Kalimantan Tengah",KALIMANTAN TENGAH,,Indonesia,,,,-2.0155764,115.2659777,https://maps.google.com/?cid=0x0:0xf0ecabee33d276d9,
perumahan,Perhimpunan Pengembang Perumahan,Rumah Riayati,"X7QC+26, Tangkan, Kec. Awang, Kabupaten Barito Timur, Kalimantan Tengah 73671","Tangkan, Kec. Awang, Kabupaten Barito Timur",KALIMANTAN TENGAH,73671.0,Indonesia,,,,-2.0118983,115.2704027,https://maps.google.com/?cid=0x0:0x6e810d2a3f8884af,
perumahan,perumahan,Kalimantan Tengah 73661,"Kec. Benua Lima, Kabupaten Barito Timur, Kalimantan Tengah","Kabupaten Barito Timur, Kalimantan Tengah",KALIMANTAN TENGAH,,Indonesia,,,,-2.2459171,115.1177654,https://maps.google.com/?cid=0x0:0x6244b86fbc9e52c1,
perumahan,perumahan,Gg Tiwadak Tunggal,"R6FH+2H8, Jl. Ahmad Yani, Taniran, Kec. Benua Lima, Kabupaten Barito Timur, Kalimantan Tengah","Kabupaten Barito Timur, Kalimantan Tengah",KALIMANTAN TENGAH,,Indonesia,,,,-2.1774703,115.2289629,https://maps.google.com/?cid=0x0:0x649e52f103c9720a,
perumahan,Pembangunan Perumahan,Yuliana's Home,"R67G+JC, Taniran, Kec. Benua Lima, Kabupaten Barito Timur, Kalimantan Tengah","Kabupaten Barito Timur, Kalimantan Tengah",KALIMANTAN TENGAH,,Indonesia,,,,-2.1860192,115.2260793,https://maps.google.com/?cid=0x0:0x4a8d8cc680607e1a,
perumahan,Pembangunan Perumahan,Lewu Ineh Surai,"R7H8+W4M, Bamban, Kec. Benua Lima, Kabupaten Barito Timur, Kalimantan Tengah","Kabupaten Barito Timur, Kalimantan Tengah",KALIMANTAN TENGAH,,Indonesia,,,,-2.1701716,115.265287,https://maps.google.com/?cid=0x0:0x5c8bca9de8ef0e6b,
perumahan,Perumahan,H . Anang marlan,"R7H4+3W9, Jl. Pasar Panas-Bentot, Bamban, Kec. Benua Lima, Kabupaten Barito Timur, Kalimantan Tengah 73661","Jl. Pasar Panas-Bentot, Bamban, Kec. Benua Lima, Kabupaten Barito Timur",KALIMANTAN TENGAH,73661.0,Indonesia,,,,-2.1723651,115.2574105,https://maps.google.com/?cid=0x0:0x2c8d0adea1f15210,
perumahan,Pembangunan Perumahan,Rumah ello,"R66H+X75, Taniran, Kec. Benua Lima, Kabupaten Barito Timur, Kalimantan Tengah 73661","Taniran, Kec. Benua Lima, Kabupaten Barito Timur",KALIMANTAN TENGAH,73661.0,Indonesia,,,,-2.1876775,115.2282794,https://maps.google.com/?cid=0x0:0x652accb896c5d17f,
perumahan,Komplek perumahan,Taufik rahman,"Q6WW+QXW, Banyu Landas, Kec. Benua Lima, Kabupaten Barito Timur, Kalimantan Tengah 73661","Banyu Landas, Kec. Benua Lima, Kabupaten Barito Timur",KALIMANTAN TENGAH,73661.0,Indonesia,,,,-2.203016,115.2474511,https://maps.google.com/?cid=0x0:0x8097793831a12b65,
perumahan,Komplek perumahan,Rumah Wahyuni,"R7G3+5R5, Jl. Pasar Panas-Bentot, Bamban, Kec. Benua Lima, Kabupaten Barito Timur, Kalimantan Tengah 73661","Jl. Pasar Panas-Bentot, Bamban, Kec. Benua Lima, Kabupaten Barito Timur",KALIMANTAN TENGAH,73661.0,Indonesia,,,,-2.1748409,115.2543078,https://maps.google.com/?cid=0x0:0x780eb98b32e7f244,
perumahan,Pembangunan Perumahan,Perumahan Rintis Permai | Cv. Mira Mandiri,"Matabu, Kec. Dusun Tim., Kabupaten Barito Timur, Kalimantan Tengah 73671","Kec. Dusun Tim., Kabupaten Barito Timur",KALIMANTAN TENGAH,73671.0,Indonesia, 081349463763,,,-2.1210646,115.1822164,https://maps.google.com/?cid=0x0:0xb123a62bad7f69f,
perumahan,Kantor Perusahaan,Perum BTD Longkang,"R6G9+892, Tim., Kabupaten Barito, Jaar, Kec. Dusun Tim., Kabupaten Barito Timur, Kalimantan Tengah 73661","Tim., Kabupaten Barito, Jaar, Kec. Dusun Tim., Kabupaten Barito Timur",KALIMANTAN TENGAH,73661.0,Indonesia,,,,-2.1742271,115.2183897,https://maps.google.com/?cid=0x0:0x4287fcb09edcf3f7,
perumahan,Komplek perumahan,@ndramoi,"R68C+QWQ, Taniran, Kec. Benua Lima, Kabupaten Barito Timur, Kalimantan Tengah 73661","Taniran, Kec. Benua Lima, Kabupaten Barito Timur",KALIMANTAN TENGAH,73661.0,Indonesia,,,,-2.1830586,115.2223815,https://maps.google.com/?cid=0x0:0x28e0ff94f39b59d3,
perumahan,Pembangunan Perumahan,Rizky and Zainur,"Q7HP+RXG, Gudang Seng, Kec. Benua Lima, Kabupaten Barito Timur, Kalimantan Tengah 73661","Gudang Seng, Kec. Benua Lima, Kabupaten Barito Timur",KALIMANTAN TENGAH,73661.0,Indonesia,,,,-2.2204258,115.2874437,https://maps.google.com/?cid=0x0:0xddd4de9c54d6f2df,
perumahan,Pembangunan Perumahan,Zaidan,"Q7GR+P5P, Gudang Seng, Kec. Benua Lima, Kabupaten Barito Timur, Kalimantan Tengah 73661","Gudang Seng, Kec. Benua Lima, Kabupaten Barito Timur",KALIMANTAN TENGAH,73661.0,Indonesia, 085251038809,,,-2.2236292,115.2917682,https://maps.google.com/?cid=0x0:0x7944c9959ddb4a20,
perumahan,Pembangunan Perumahan,Alamat Rumah Ineh April,"R68H+JG6, Gang balai wani, Taniran, Kec. Benua Lima, Kabupaten Barito Timur, Kalimantan Tengah","Kabupaten Barito Timur, Kalimantan Tengah",KALIMANTAN TENGAH,,Indonesia,,,,-2.1834724,115.2287738,https://maps.google.com/?cid=0x0:0x901d974820372b6e,
perumahan,Rumah wisata,Rumah Betang Pasar Panas - Museum Lewu Hante,"R62Q+GX6, Taniran, Kec. Benua Lima, Kabupaten Barito Timur, Kalimantan Tengah 73661","Taniran, Kec. Benua Lima, Kabupaten Barito Timur",KALIMANTAN TENGAH,73661.0,Indonesia, 05262091643,,,-2.1987099,115.2399057,https://maps.google.com/?cid=0x0:0x3a1ea55bc443c31b,
perumahan,Komplek perumahan,Komplek PONDOK INDAH 2 LONGKANG,"R6PC+2HW, Jaar, Kec. Dusun Tim., Kabupaten Barito Timur, Kalimantan Tengah 73661","Jaar, Kec. Dusun Tim., Kabupaten Barito Timur",KALIMANTAN TENGAH,73661.0,Indonesia,,,,-2.1648786,115.2214405,https://maps.google.com/?cid=0x0:0xfd7b6e8b257d40de,
perumahan,Toko Perlengkapan Rumah,Rumah pak YONO TILUS,"Q7R4+F47, Banyu Landas, Kec. Benua Lima, Kabupaten Barito Timur, Kalimantan Tengah 73661","Banyu Landas, Kec. Benua Lima, Kabupaten Barito Timur",KALIMANTAN TENGAH,73661.0,Indonesia,,,,-2.2088486,115.2552965,https://maps.google.com/?cid=0x0:0x3e62e0ddd77c8199,
perumahan,Komplek perumahan,Rumah Sari,"R67J+64W, Jl. Ps. Panas - Tamiang Layang, Taniran, Kec. Benua Lima, Kabupaten Barito Timur, Kalimantan Tengah 73661","Jl. Ps. Panas - Tamiang Layang, Taniran, Kec. Benua Lima, Kabupaten Barito Timur",KALIMANTAN TENGAH,73661.0,Indonesia,,,,-2.1875544,115.2300838,https://maps.google.com/?cid=0x0:0xd8245a51f472628a,
perumahan,Komplek perumahan,Rumah ayi,"Jaar, Kec. Dusun Tim., Kabupaten Barito Timur, Kalimantan Tengah","Kabupaten Barito Timur, Kalimantan Tengah",KALIMANTAN TENGAH,,Indonesia, 081258422253,,,-2.133876,115.1930093,https://maps.google.com/?cid=0x0:0x42906d06c3af3086,
perumahan,Komplek perumahan,Perumahan Flamingo Residence,"V5CG+JV, Matabu, Kec. Dusun Tim., Kabupaten Barito Timur, Kalimantan Tengah 73671","Matabu, Kec. Dusun Tim., Kabupaten Barito Timur",KALIMANTAN TENGAH,73671.0,Indonesia,,,,-2.1285451,115.1770956,https://maps.google.com/?cid=0x0:0xd4912ac854ed00d1,
perumahan,Komplek perumahan,Komplek Perumahan Pondok Indah 1,"W45X+2G9, Jl. Tamiyang Layang - Ampah, Sumur, Kec. Dusun Tim., Kabupaten Barito Timur, Kalimantan Tengah 73671","Jl. Tamiyang Layang - Ampah, Sumur, Kec. Dusun Tim., Kabupaten Barito Timur",KALIMANTAN TENGAH,73671.0,Indonesia,,,,-2.0924517,115.1488665,https://maps.google.com/?cid=0x0:0x8f2df3d4e63db725,
perumahan,perumahan,MiLa,"Jl. Plasma 3 No.jalur 10, bukik Nilam, Kec. Dusun Tim., Kabupaten Barito Timur, Kalimantan Tengah","Kabupaten Barito Timur, Kalimantan Tengah",KALIMANTAN TENGAH,,Indonesia,,,,-2.1126877,115.1670292,https://maps.google.com/?cid=0x0:0x43911b6137a3e094,
perumahan,perumahan,Kec. Dusun Tengah,"Kabupaten Barito Timur, Kalimantan Tengah","Kabupaten Barito Timur, Kalimantan Tengah",KALIMANTAN TENGAH,,Indonesia,,,,-1.7997404,115.1507466,https://maps.google.com/?cid=0x0:0xca2b51c229ce230f,
perumahan,Komplek perumahan,Desi,"54XR+6GM, Ampah Kota, Kec. Dusun Tengah, Kabupaten Barito Timur, Kalimantan Tengah 73652","Ampah Kota, Kec. Dusun Tengah, Kabupaten Barito Timur",KALIMANTAN TENGAH,73652.0,Indonesia,,,,-1.8017434,115.1411551,https://maps.google.com/?cid=0x0:0xbbbed95493524ac3,
perumahan,Toko,Ampah,"55W4+J6H, pasar Los kios, Ampah Kota, Kec. Dusun Tengah, Kabupaten Barito Timur, Kalimantan Tengah 73652","pasar Los kios, Ampah Kota, Kec. Dusun Tengah, Kabupaten Barito Timur",KALIMANTAN TENGAH,73652.0,Indonesia,,,,-1.8019201,115.1542507,https://maps.google.com/?cid=0x0:0xde8caf330e92f167,
perumahan,Perumahan,Ampah,"55X8+67R, Jl. Barumbut, Ampah Kota, Kec. Dusun Tengah, Kabupaten Barito Timur, Kalimantan Tengah 73652","Jl. Barumbut, Ampah Kota, Kec. Dusun Tengah, Kabupaten Barito Timur",KALIMANTAN TENGAH,73652.0,Indonesia,,,,-1.8018865,115.1656493,https://maps.google.com/?cid=0x0:0x3d2858a202bfbf4b,
perumahan,Kantor Perusahaan,Perumnas Janah Harapan,"64FX+X9M, Ampah Kota, Kec. Dusun Tengah, Kabupaten Barito Timur, Kalimantan Tengah 73652","Ampah Kota, Kec. Dusun Tengah, Kabupaten Barito Timur",KALIMANTAN TENGAH,73652.0,Indonesia,,,,-1.7750453,115.1484229,https://maps.google.com/?cid=0x0:0xbfdbc004c4a16a99,
perumahan,Komplek perumahan,Rumah Agnes,"6532+QQJ, Ampah Kota, Kec. Dusun Tengah, Kabupaten Barito Timur, Kalimantan Tengah 73652","Ampah Kota, Kec. Dusun Tengah, Kabupaten Barito Timur",KALIMANTAN TENGAH,73652.0,Indonesia,,,,-1.7955458,115.151876,https://maps.google.com/?cid=0x0:0x25d3a07e9ab7645f,
perumahan,Komplek perumahan,Rumah FAJAR,"55W2+WJW, Ampah Kota, Kec. Dusun Tengah, Kabupaten Barito Timur, Kalimantan Tengah 73652","Ampah Kota, Kec. Dusun Tengah, Kabupaten Barito Timur",KALIMANTAN TENGAH,73652.0,Indonesia,,,,-1.8026318,115.1515802,https://maps.google.com/?cid=0x0:0xab3c441d6e16c5e6,
perumahan,Pembangunan Perumahan,ampah dua,"54QQ+HCC, Ampah Dua, Kec. Dusun Tengah, Kabupaten Barito Timur, Kalimantan Tengah","Kabupaten Barito Timur, Kalimantan Tengah",KALIMANTAN TENGAH,,Indonesia, 082154568242,,,-1.8110501,115.1385192,https://maps.google.com/?cid=0x0:0xa19361a776f507fa,
perumahan,Komplek perumahan,Asyifa Budiyono,"6547+9RC, Ampah Kota, Kec. Dusun Tengah, Kabupaten Barito Timur, Kalimantan Tengah 73652","Ampah Kota, Kec. Dusun Tengah, Kabupaten Barito Timur",KALIMANTAN TENGAH,73652.0,Indonesia,,,,-1.7944263,115.1629363,https://maps.google.com/?cid=0x0:0x5ddc3da5b7d5aef9,
perumahan,Pembangunan Perumahan,JJ,"6548+RRQ, Unnamed Road, Ampah Kota, Kec. Dusun Tengah, Kabupaten Barito Timur, Kalimantan Tengah 73652","Unnamed Road, Ampah Kota, Kec. Dusun Tengah, Kabupaten Barito Timur",KALIMANTAN TENGAH,73652.0,Indonesia,,,,-1.792917,115.167119,https://maps.google.com/?cid=0x0:0x331fd2be6287490b,
perumahan,Komplek perumahan,Jerep,"656M+243, Ampah Kota, Kec. Dusun Tengah, Kabupaten Barito Timur, Kalimantan Tengah 73652","Ampah Kota, Kec. Dusun Tengah, Kabupaten Barito Timur",KALIMANTAN TENGAH,73652.0,Indonesia,,,,-1.7898593,115.1828029,https://maps.google.com/?cid=0x0:0x3ba03b765955d697,
perumahan,Komplek perumahan,Rumah ida,"6522+489, Ampah Kota, Kec. Dusun Tengah, Kabupaten Barito Timur, Kalimantan Tengah 73652","Ampah Kota, Kec. Dusun Tengah, Kabupaten Barito Timur",KALIMANTAN TENGAH,73652.0,Indonesia,,,,-1.7997074,115.1508677,https://maps.google.com/?cid=0x0:0x727b2986a1cc371e,
perumahan,Komplek perumahan,Rumah helda,"Jl. Veteran No.21, Ampah Kota, Kec. Dusun Tengah, Kabupaten Barito Timur, Kalimantan Tengah 73652","Ampah Kota, Kec. Dusun Tengah, Kabupaten Barito Timur",KALIMANTAN TENGAH,73652.0,Indonesia,,,,-1.7991614,115.1494863,https://maps.google.com/?cid=0x0:0x63ffa3db0bb2f16a,
perumahan,Masjid,,"Unnamed Road, Ampah Kota, Kec. Dusun Tengah, Kabupaten Barito Timur, Kalimantan Tengah 73652","Ampah Kota, Kec. Dusun Tengah, Kabupaten Barito Timur",KALIMANTAN TENGAH,73652.0,Indonesia, 083159321967,,,-1.7985441,115.1605826,https://maps.google.com/?cid=0x0:0x222051a63b11649f,
perumahan,Komplek perumahan,Wifi irmayanti,"54XV+6R3, Ampah Kota, Kec. Dusun Tengah, Kabupaten Barito Timur, Kalimantan Tengah 73652","Ampah Kota, Kec. Dusun Tengah, Kabupaten Barito Timur",KALIMANTAN TENGAH,73652.0,Indonesia, 085705533108,,,-1.8019814,115.1445384,https://maps.google.com/?cid=0x0:0xe90f4f0a59eaf873,
perumahan,Komplek perumahan,Posko induk RGM,"54XV+5M8, Ampah Kota, Kec. Dusun Tengah, Kabupaten Barito Timur, Kalimantan Tengah 73652","Ampah Kota, Kec. Dusun Tengah, Kabupaten Barito Timur",KALIMANTAN TENGAH,73652.0,Indonesia,,,,-1.8020755,115.1441924,https://maps.google.com/?cid=0x0:0x2ad5a3d8bd836f5c,
perumahan,Komplek perumahan,Wayan,"56X6+6JP, Unnamed Road, Netampin, Kec. Dusun Tengah, Kabupaten Barito Timur, Kalimantan Tengah 73652","Unnamed Road, Netampin, Kec. Dusun Tengah, Kabupaten Barito Timur",KALIMANTAN TENGAH,73652.0,Indonesia,,,,-1.80192,115.2115667,https://maps.google.com/?cid=0x0:0x8752a276c7143bfe,
perumahan,Pembangunan Perumahan,Rangen,"55Q8+G5Q, Ampah, Ampah Kota, Kec. Dusun Tengah, Kabupaten Barito Timur, Kalimantan Tengah 73652","Ampah, Ampah Kota, Kec. Dusun Tengah, Kabupaten Barito Timur",KALIMANTAN TENGAH,73652.0,Indonesia,,,,-1.8111374,115.1654202,https://maps.google.com/?cid=0x0:0x72fe279fc2bf0ed0,
perumahan,Pembangunan Perumahan,Mas Obry,"6524+9JV, Ampah Kota, Kec. Dusun Tengah, Kabupaten Barito Timur, Kalimantan Tengah 73652","Ampah Kota, Kec. Dusun Tengah, Kabupaten Barito Timur",KALIMANTAN TENGAH,73652.0,Indonesia,,,,-1.7997251,115.1567357,https://maps.google.com/?cid=0x0:0x2308af5f68928369,
perumahan,Pembangunan Perumahan,Sen House,"Perumahan janah Permai C 12, Jl. Ampah, Ampah Kota, Kec. Dusun Tengah, Kabupaten Barito Timur, Kalimantan Tengah 73652","Jl. Ampah, Ampah Kota, Kec. Dusun Tengah, Kabupaten Barito Timur",KALIMANTAN TENGAH,73652.0,Indonesia,,,,-1.7742846,115.1493463,https://maps.google.com/?cid=0x0:0x7f1212f8d9a25c96,
perumahan,Komplek perumahan,RUMAH RUZAYNA ALZENA,"Jalan Tabuk Luar No.RT.17, Ampah Kota, Kec. Dusun Tengah, Kabupaten Barito Timur, Kalimantan Tengah 73652","Ampah Kota, Kec. Dusun Tengah, Kabupaten Barito Timur",KALIMANTAN TENGAH,73652.0,Indonesia,,,,-1.8025874,115.1521426,https://maps.google.com/?cid=0x0:0xd00159decf604773,
perumahan,Komplek perumahan,Perumahan Jannah Residence,"64HW+44Q, Jl. Pahlawan, Ampah Kota, Kec. Dusun Tengah, Kabupaten Barito Timur, Kalimantan Tengah 73652","Jl. Pahlawan, Ampah Kota, Kec. Dusun Tengah, Kabupaten Barito Timur",KALIMANTAN TENGAH,73652.0,Indonesia,,,,-1.7721692,115.1453714,https://maps.google.com/?cid=0x0:0xf90b2dd497cf5612,
perumahan,Komplek perumahan,Kontrakan Bu Hajjah Marlina,"55X4+H2, Ampah Kota, Kec. Dusun Tengah, Kabupaten Barito Timur, Kalimantan Tengah 73652","Ampah Kota, Kec. Dusun Tengah, Kabupaten Barito Timur",KALIMANTAN TENGAH,73652.0,Indonesia,,,,-1.8010991,115.1550394,https://maps.google.com/?cid=0x0:0xde4df3fe2d1ae10c,
perumahan,perumahan,Kec. Dusun Tim.,"Kabupaten Barito Timur, Kalimantan Tengah","Kabupaten Barito Timur, Kalimantan Tengah",KALIMANTAN TENGAH,,Indonesia,,,,-2.1126877,115.1670292,https://maps.google.com/?cid=0x0:0x740b7052b652c454,
perumahan,Pembangunan Perumahan,Indra,"3435+CV5, Jl. Tamiyang Layang - Ampah, Dayu, Kec. Dusun Tim., Kabupaten Barito Timur, Kalimantan Tengah 73652","Jl. Tamiyang Layang - Ampah, Dayu, Kec. Dusun Tim., Kabupaten Barito Timur",KALIMANTAN TENGAH,73652.0,Indonesia,,,,-1.9464931,115.1097424,https://maps.google.com/?cid=0x0:0x43f9a16573d8a540,
perumahan,Komplek perumahan,Mama Rian,"Jl. Tamiyang Layang - Ampah, Dayu, Kec. Dusun Tim., Kabupaten Barito Timur, Kalimantan Tengah 73652","Dayu, Kec. Dusun Tim., Kabupaten Barito Timur",KALIMANTAN TENGAH,73652.0,Indonesia,,,,-1.9829953,115.0760566,https://maps.google.com/?cid=0x0:0x145f5407a7fab899,
perumahan,perumahan,Rumah Meera,"239F+RV4, Dayu, Kec. Karusen Janang, Kabupaten Barito Timur, Kalimantan Tengah 73652","Dayu, Kec. Karusen Janang, Kabupaten Barito Timur",KALIMANTAN TENGAH,73652.0,Indonesia,,,,-1.9810552,115.0741411,https://maps.google.com/?cid=0x0:0xfa1324dff821d370,
perumahan,Komplek perumahan,"Rumah Bapa Kristo, SP.d, MM","3467+4F, Kupang Baru, Kec. Paku, Kabupaten Barito Timur, Kalimantan Tengah 73652","Kupang Baru, Kec. Paku, Kabupaten Barito Timur",KALIMANTAN TENGAH,73652.0,Indonesia,,,,-1.9397183,115.1136367,https://maps.google.com/?cid=0x0:0xed401e5f6a4ae71b,
perumahan,Komplek perumahan,Rumah amah feri,"239G+W44, Gg. Saliakir, Dayu, Kec. Karusen Janang, Kabupaten Barito Timur, Kalimantan Tengah 73652","Gg. Saliakir, Dayu, Kec. Karusen Janang, Kabupaten Barito Timur",KALIMANTAN TENGAH,73652.0,Indonesia,,,,-1.9802266,115.0753297,https://maps.google.com/?cid=0x0:0x2a97956efd5ac7b0,
perumahan,perumahan,Kalimantan Tengah 73612,"Telang, Kec. Paju Epat, Kabupaten Barito Timur, Kalimantan Tengah","Kabupaten Barito Timur, Kalimantan Tengah",KALIMANTAN TENGAH,,Indonesia,,,,-2.1445423,115.0288051,https://maps.google.com/?cid=0x0:0xebf8e473b2c14e5c,
perumahan,Komplek perumahan,Dorong Permai,"W53P+829, Dorong, Kec. Dusun Tim., Kabupaten Barito Timur, Kalimantan Tengah 73671","Dorong, Kec. Dusun Tim., Kabupaten Barito Timur",KALIMANTAN TENGAH,73671.0,Indonesia, 082255786135,,,-2.0967104,115.1851007,https://maps.google.com/?cid=0x0:0x3cb56f8db66f2172,
perumahan,Kantor distrik,Perumahan DPRD Bartim,"W47W+73F, Tamiang Layang, Kec. Dusun Tim., Kabupaten Barito Timur, Kalimantan Tengah","Kabupaten Barito Timur, Kalimantan Tengah",KALIMANTAN TENGAH,,Indonesia,,,,-2.0868037,115.1451563,https://maps.google.com/?cid=0x0:0x6da524e2bed32ab9,
perumahan,perumahan,Rumah Bahrian,"W23C+22M, Telang, Kec. Paju Epat, Kabupaten Barito Timur, Kalimantan Tengah","Kabupaten Barito Timur, Kalimantan Tengah",KALIMANTAN TENGAH,,Indonesia,,,,-2.0974249,115.0200514,https://maps.google.com/?cid=0x0:0xd8cabb80826e7dfe,
perumahan,Pembangunan Perumahan,Abah adit,"W22J+QXR, Telang, Kec. Paju Epat, Kabupaten Barito Timur, Kalimantan Tengah 73613","Telang, Kec. Paju Epat, Kabupaten Barito Timur",KALIMANTAN TENGAH,73613.0,Indonesia,,,,-2.0980074,115.0323882,https://maps.google.com/?cid=0x0:0x51f68f0286a58041,
perumahan,Komplek perumahan,Tempat Orang Pengasar,"W226+X4, Telang, Kec. Paju Epat, Kabupaten Barito Timur, Kalimantan Tengah","Kabupaten Barito Timur, Kalimantan Tengah",KALIMANTAN TENGAH,,Indonesia,,,,-2.0968765,115.0105275,https://maps.google.com/?cid=0x0:0x6db71e810ea073fd,
perumahan,Komplek perumahan,Rumah Sabil,"V3WC+C42, Murutuwu, Kec. Paju Epat, Kabupaten Barito Timur, Kalimantan Tengah","Kabupaten Barito Timur, Kalimantan Tengah",KALIMANTAN TENGAH,,Indonesia,,,,-2.1039952,115.0702684,https://maps.google.com/?cid=0x0:0x4524d1ac2656081b,
perumahan,Pembangunan Perumahan,Rino arnadi,"V2XX+P3, Murutuwu, Kec. Paju Epat, Kabupaten Barito Timur, Kalimantan Tengah","Kabupaten Barito Timur, Kalimantan Tengah",KALIMANTAN TENGAH,,Indonesia,,,,-2.1007029,115.0477203,https://maps.google.com/?cid=0x0:0x48361bf8eee2f7fb,
perumahan,Pembangunan Perumahan,Aditt Cell telang,"Telang, Kec. Paju Epat, Kabupaten Barito Timur, Kalimantan Tengah 73651","Kec. Paju Epat, Kabupaten Barito Timur",KALIMANTAN TENGAH,73651.0,Indonesia,,,,-2.140173,115.0228736,https://maps.google.com/?cid=0x0:0xd5267f2caaba25d1,
perumahan,Perumahan,Perumahan pondok indah 1,"Jl. Ahmad Yani perumahan pondok indah No.1, Tamiang Layang, Kec. Katingan Hilir, Kabupaten Katingan, Kalimantan Tengah 74413","Tamiang Layang, Kec. Katingan Hilir, Kabupaten Katingan",KALIMANTAN TENGAH,74413.0,Indonesia,,,,-2.0942761,115.1461655,https://maps.google.com/?cid=0x0:0xa86d9eaab1a4af,
perumahan,Komplek perumahan,Rumah Agnes,"V3X3+495, Murutuwu, Kec. Paju Epat, Kabupaten Barito Timur, Kalimantan Tengah 73613","Murutuwu, Kec. Paju Epat, Kabupaten Barito Timur",KALIMANTAN TENGAH,73613.0,Indonesia,,,,-2.1022811,115.0527378,https://maps.google.com/?cid=0x0:0xbc22713d66febe83,
perumahan,Komplek perumahan,Mess Babang_Ndut,"W327+RJV, Murutuwu, Kec. Paju Epat, Kabupaten Barito Timur, Kalimantan Tengah","Kabupaten Barito Timur, Kalimantan Tengah",KALIMANTAN TENGAH,,Indonesia,,,,-2.0979653,115.0640775,https://maps.google.com/?cid=0x0:0x9fccf343aaa0cad8,
perumahan,Komplek perumahan,Lewu Pak Andi,"W227+35J, Telang, Kec. Paju Epat, Kabupaten Barito Timur, Kalimantan Tengah","Kabupaten Barito Timur, Kalimantan Tengah",KALIMANTAN TENGAH,,Indonesia,,,,-2.0997875,115.0128906,https://maps.google.com/?cid=0x0:0xb371b2a9ddab42a6,
perumahan,Komplek perumahan,4P patmo anengramella,"W22G+M95, Telang, Kec. Paju Epat, Kabupaten Barito Timur, Kalimantan Tengah 73613","Telang, Kec. Paju Epat, Kabupaten Barito Timur",KALIMANTAN TENGAH,73613.0,Indonesia,,,,-2.0983576,115.0259908,https://maps.google.com/?cid=0x0:0x5c25ae7597d8a7b4,
perumahan,Rumah Pondokan,Pondok MOGE Pa Najar,"R39F+WC, Pulau Patai, Kec. Dusun Tim., Kabupaten Barito Timur, Kalimantan Tengah","Kabupaten Barito Timur, Kalimantan Tengah",KALIMANTAN TENGAH,,Indonesia,,,,-2.1802293,115.0735199,https://maps.google.com/?cid=0x0:0x65679588adf55802,
perumahan,Rumah wisata,Indah BhulBhul,"Murutuwu, Kec. Paju Epat, Kabupaten Barito Timur, Kalimantan Tengah 73613","Kec. Paju Epat, Kabupaten Barito Timur",KALIMANTAN TENGAH,73613.0,Indonesia,,,,-2.0971517,115.0378357,https://maps.google.com/?cid=0x0:0x48b49297a42b6d54,
perumahan,Rumah Kayu,Rumah ola,"W239+5WW, Telang, Kec. Paju Epat, Kabupaten Barito Timur, Kalimantan Tengah","Kabupaten Barito Timur, Kalimantan Tengah",KALIMANTAN TENGAH,,Indonesia,,,,-2.0972399,115.0197248,https://maps.google.com/?cid=0x0:0xd0e466e26a6ec808,
perumahan,Taman,Grup Hasbi,"Q2X8+FP, Juru Banu, Kec. Paju Epat, Kabupaten Barito Timur, Kalimantan Tengah","Kabupaten Barito Timur, Kalimantan Tengah",KALIMANTAN TENGAH,,Indonesia,,,,-2.2013068,115.0167677,https://maps.google.com/?cid=0x0:0xaee6df3565043e05,
perumahan,Kantor Perusahaan,Mis pt.sgm div 1 plasma,"V3P7+FJ, Murutuwu, Kec. Paju Epat, Kabupaten Barito Timur, Kalimantan Tengah","Kabupaten Barito Timur, Kalimantan Tengah",KALIMANTAN TENGAH,,Indonesia,,,,-2.1138486,115.0641553,https://maps.google.com/?cid=0x0:0x2446e8b0ef756ebc,
perumahan,Pembangunan Perumahan,Lewu Rorey,"V3W5+JW5, Murutuwu, Kec. Paju Epat, Kabupaten Barito Timur, Kalimantan Tengah","Kabupaten Barito Timur, Kalimantan Tengah",KALIMANTAN TENGAH,,Indonesia,,,,-2.1034843,115.0598583,https://maps.google.com/?cid=0x0:0xf00bb667ec9f4f39,
perumahan,perumahan,Kalimantan Tengah 73613,"Kec. Paju Epat, Kabupaten Barito Timur, Kalimantan Tengah","Kabupaten Barito Timur, Kalimantan Tengah",KALIMANTAN TENGAH,,Indonesia,,,,-2.1173046,115.0525302,https://maps.google.com/?cid=0x0:0x122a80857309f6e5,
perumahan,Pembangunan Perumahan,Perumahan Rintis Permai | Cv. Mira Mandiri,"Matabu, Kec. Dusun Tim., Kabupaten Barito Timur, Kalimantan Tengah 73671","Kec. Dusun Tim., Kabupaten Barito Timur",KALIMANTAN TENGAH,73671.0,Indonesia, 081349463763,,,-2.1210646,115.1822164,https://maps.google.com/?cid=0x0:0xb123a62bad7f69f,
perumahan,Pembangunan Perumahan,Roni P Matak,"W27Q+WC, Telang, Kec. Paju Epat, Kabupaten Barito Timur, Kalimantan Tengah 73617","Telang, Kec. Paju Epat, Kabupaten Barito Timur",KALIMANTAN TENGAH,73617.0,Indonesia,,,,-2.085222,115.038562,https://maps.google.com/?cid=0x0:0x219ae099e443a8c0,
perumahan,Pembangunan Perumahan,Mess fathh,"W327+RJV, Murutuwu, Kec. Paju Epat, Kabupaten Barito Timur, Kalimantan Tengah","Kabupaten Barito Timur, Kalimantan Tengah",KALIMANTAN TENGAH,,Indonesia, 087862052258,,,-2.09726,115.063955,https://maps.google.com/?cid=0x0:0x87f09b870fe4ae98,
perumahan,perumahan,Rumah Bahrian,"W23C+22M, Telang, Kec. Paju Epat, Kabupaten Barito Timur, Kalimantan Tengah","Kabupaten Barito Timur, Kalimantan Tengah",KALIMANTAN TENGAH,,Indonesia,,,,-2.0974249,115.0200514,https://maps.google.com/?cid=0x0:0xd8cabb80826e7dfe,
perumahan,Kantor distrik,Perumahan DPRD Bartim,"W47W+73F, Tamiang Layang, Kec. Dusun Tim., Kabupaten Barito Timur, Kalimantan Tengah","Kabupaten Barito Timur, Kalimantan Tengah",KALIMANTAN TENGAH,,Indonesia,,,,-2.0868037,115.1451563,https://maps.google.com/?cid=0x0:0x6da524e2bed32ab9,
perumahan,Komplek perumahan,Rumah Agnes,"V3X3+495, Murutuwu, Kec. Paju Epat, Kabupaten Barito Timur, Kalimantan Tengah 73613","Murutuwu, Kec. Paju Epat, Kabupaten Barito Timur",KALIMANTAN TENGAH,73613.0,Indonesia,,,,-2.1022811,115.0527378,https://maps.google.com/?cid=0x0:0xbc22713d66febe83,
perumahan,Pembangunan Perumahan,Abah adit,"W22J+QXR, Telang, Kec. Paju Epat, Kabupaten Barito Timur, Kalimantan Tengah 73613","Telang, Kec. Paju Epat, Kabupaten Barito Timur",KALIMANTAN TENGAH,73613.0,Indonesia,,,,-2.0980074,115.0323882,https://maps.google.com/?cid=0x0:0x51f68f0286a58041,
perumahan,Kantor Pemerintah,Desa murutuwu,"V3W7+JX4, Murutuwu, Kec. Paju Epat, Kabupaten Barito Timur, Kalimantan Tengah 73617","Murutuwu, Kec. Paju Epat, Kabupaten Barito Timur",KALIMANTAN TENGAH,73617.0,Indonesia,,,,-2.1033512,115.0658397,https://maps.google.com/?cid=0x0:0x63180525d62d5a5d,
perumahan,Komplek perumahan,Rumah Sabil,"V3WC+C42, Murutuwu, Kec. Paju Epat, Kabupaten Barito Timur, Kalimantan Tengah","Kabupaten Barito Timur, Kalimantan Tengah",KALIMANTAN TENGAH,,Indonesia,,,,-2.1039952,115.0702684,https://maps.google.com/?cid=0x0:0x4524d1ac2656081b,
perumahan,Rumah wisata,Indah BhulBhul,"Murutuwu, Kec. Paju Epat, Kabupaten Barito Timur, Kalimantan Tengah 73613","Kec. Paju Epat, Kabupaten Barito Timur",KALIMANTAN TENGAH,73613.0,Indonesia,,,,-2.0971517,115.0378357,https://maps.google.com/?cid=0x0:0x48b49297a42b6d54,
perumahan,Kantor Perusahaan,Mis pt.sgm div 1 plasma,"V3P7+FJ, Murutuwu, Kec. Paju Epat, Kabupaten Barito Timur, Kalimantan Tengah","Kabupaten Barito Timur, Kalimantan Tengah",KALIMANTAN TENGAH,,Indonesia,,,,-2.1138486,115.0641553,https://maps.google.com/?cid=0x0:0x2446e8b0ef756ebc,
perumahan,Komplek perumahan,Mess Sugeng Wy,"W327+QC, Murutuwu, Kec. Paju Epat, Kabupaten Barito Timur, Kalimantan Tengah","Kabupaten Barito Timur, Kalimantan Tengah",KALIMANTAN TENGAH,,Indonesia,,,,-2.0979043,115.0628396,https://maps.google.com/?cid=0x0:0x1342fe87f3e608aa,
perumahan,Komplek perumahan,4P patmo anengramella,"W22G+M95, Telang, Kec. Paju Epat, Kabupaten Barito Timur, Kalimantan Tengah 73613","Telang, Kec. Paju Epat, Kabupaten Barito Timur",KALIMANTAN TENGAH,73613.0,Indonesia,,,,-2.0983576,115.0259908,https://maps.google.com/?cid=0x0:0x5c25ae7597d8a7b4,
perumahan,Pembangunan Perumahan,Rino arnadi,"V2XX+P3, Murutuwu, Kec. Paju Epat, Kabupaten Barito Timur, Kalimantan Tengah","Kabupaten Barito Timur, Kalimantan Tengah",KALIMANTAN TENGAH,,Indonesia,,,,-2.1007029,115.0477203,https://maps.google.com/?cid=0x0:0x48361bf8eee2f7fb,
perumahan,Komplek perumahan,Tempat Orang Pengasar,"W226+X4, Telang, Kec. Paju Epat, Kabupaten Barito Timur, Kalimantan Tengah","Kabupaten Barito Timur, Kalimantan Tengah",KALIMANTAN TENGAH,,Indonesia,,,,-2.0968765,115.0105275,https://maps.google.com/?cid=0x0:0x6db71e810ea073fd,
perumahan,Pembangunan Perumahan,Lewu Rorey,"V3W5+JW5, Murutuwu, Kec. Paju Epat, Kabupaten Barito Timur, Kalimantan Tengah","Kabupaten Barito Timur, Kalimantan Tengah",KALIMANTAN TENGAH,,Indonesia,,,,-2.1034843,115.0598583,https://maps.google.com/?cid=0x0:0xf00bb667ec9f4f39,
perumahan,Pembangunan Perumahan,Base Camp Ferdi Sambo,"W327+RJV, Murutuwu, Kec. Paju Epat, Kabupaten Barito Timur, Kalimantan Tengah","Kabupaten Barito Timur, Kalimantan Tengah",KALIMANTAN TENGAH,,Indonesia,,,,-2.0981553,115.0641087,https://maps.google.com/?cid=0x0:0x917818090e8b3083,
perumahan,Rumah Kayu,Rumah ola,"W239+5WW, Telang, Kec. Paju Epat, Kabupaten Barito Timur, Kalimantan Tengah","Kabupaten Barito Timur, Kalimantan Tengah",KALIMANTAN TENGAH,,Indonesia,,,,-2.0972399,115.0197248,https://maps.google.com/?cid=0x0:0xd0e466e26a6ec808,
perumahan,Pembangunan Perumahan,Aditt Cell telang,"Telang, Kec. Paju Epat, Kabupaten Barito Timur, Kalimantan Tengah 73651","Kec. Paju Epat, Kabupaten Barito Timur",KALIMANTAN TENGAH,73651.0,Indonesia,,,,-2.140173,115.0228736,https://maps.google.com/?cid=0x0:0xd5267f2caaba25d1,
perumahan,Perumahan,Perumahan pondok indah 1,"Jl. Ahmad Yani perumahan pondok indah No.1, Tamiang Layang, Kec. Katingan Hilir, Kabupaten Katingan, Kalimantan Tengah 74413","Tamiang Layang, Kec. Katingan Hilir, Kabupaten Katingan",KALIMANTAN TENGAH,74413.0,Indonesia,,,,-2.0942761,115.1461655,https://maps.google.com/?cid=0x0:0xa86d9eaab1a4af,
perumahan,Komplek perumahan,Lewu Pak Andi,"W227+35J, Telang, Kec. Paju Epat, Kabupaten Barito Timur, Kalimantan Tengah","Kabupaten Barito Timur, Kalimantan Tengah",KALIMANTAN TENGAH,,Indonesia,,,,-2.0997875,115.0128906,https://maps.google.com/?cid=0x0:0xb371b2a9ddab42a6,
perumahan,perumahan,Kalimantan Tengah 73614,"Kec. Paju Epat, Kabupaten Barito Timur, Kalimantan Tengah","Kabupaten Barito Timur, Kalimantan Tengah",KALIMANTAN TENGAH,,Indonesia,,,,-2.081165,115.0762536,https://maps.google.com/?cid=0x0:0x90e53ff734a76b72,
perumahan,Pembangunan Perumahan,Roni P Matak,"W27Q+WC, Telang, Kec. Paju Epat, Kabupaten Barito Timur, Kalimantan Tengah 73617","Telang, Kec. Paju Epat, Kabupaten Barito Timur",KALIMANTAN TENGAH,73617.0,Indonesia,,,,-2.085222,115.038562,https://maps.google.com/?cid=0x0:0x219ae099e443a8c0,
perumahan,Komplek perumahan,Mess Babang_Ndut,"W327+RJV, Murutuwu, Kec. Paju Epat, Kabupaten Barito Timur, Kalimantan Tengah","Kabupaten Barito Timur, Kalimantan Tengah",KALIMANTAN TENGAH,,Indonesia,,,,-2.0979653,115.0640775,https://maps.google.com/?cid=0x0:0x9fccf343aaa0cad8,
perumahan,Perumahan,Perumahan pondok indah 1,"Jl. Ahmad Yani perumahan pondok indah No.1, Tamiang Layang, Kec. Katingan Hilir, Kabupaten Katingan, Kalimantan Tengah 74413","Tamiang Layang, Kec. Katingan Hilir, Kabupaten Katingan",KALIMANTAN TENGAH,74413.0,Indonesia,,,,-2.0942761,115.1461655,https://maps.google.com/?cid=0x0:0xa86d9eaab1a4af,
perumahan,Komplek perumahan,Rumah Agnes,"V3X3+495, Murutuwu, Kec. Paju Epat, Kabupaten Barito Timur, Kalimantan Tengah 73613","Murutuwu, Kec. Paju Epat, Kabupaten Barito Timur",KALIMANTAN TENGAH,73613.0,Indonesia,,,,-2.1022811,115.0527378,https://maps.google.com/?cid=0x0:0xbc22713d66febe83,
perumahan,Komplek perumahan,Rumah Sabil,"V3WC+C42, Murutuwu, Kec. Paju Epat, Kabupaten Barito Timur, Kalimantan Tengah","Kabupaten Barito Timur, Kalimantan Tengah",KALIMANTAN TENGAH,,Indonesia,,,,-2.1039952,115.0702684,https://maps.google.com/?cid=0x0:0x4524d1ac2656081b,
perumahan,Pembangunan Perumahan,Mess fathh,"W327+RJV, Murutuwu, Kec. Paju Epat, Kabupaten Barito Timur, Kalimantan Tengah","Kabupaten Barito Timur, Kalimantan Tengah",KALIMANTAN TENGAH,,Indonesia, 087862052258,,,-2.09726,115.063955,https://maps.google.com/?cid=0x0:0x87f09b870fe4ae98,
perumahan,Pembangunan Perumahan,Rino arnadi,"V2XX+P3, Murutuwu, Kec. Paju Epat, Kabupaten Barito Timur, Kalimantan Tengah","Kabupaten Barito Timur, Kalimantan Tengah",KALIMANTAN TENGAH,,Indonesia,,,,-2.1007029,115.0477203,https://maps.google.com/?cid=0x0:0x48361bf8eee2f7fb,
perumahan,Pembangunan Perumahan,Lewu Rorey,"V3W5+JW5, Murutuwu, Kec. Paju Epat, Kabupaten Barito Timur, Kalimantan Tengah","Kabupaten Barito Timur, Kalimantan Tengah",KALIMANTAN TENGAH,,Indonesia,,,,-2.1034843,115.0598583,https://maps.google.com/?cid=0x0:0xf00bb667ec9f4f39,
perumahan,Komplek perumahan,Lewu Itak Anjung,"W3H7+2QC, Maipe, Kec. Paju Epat, Kabupaten Barito Timur, Kalimantan Tengah 73617","Maipe, Kec. Paju Epat, Kabupaten Barito Timur",KALIMANTAN TENGAH,73617.0,Indonesia,,,,-2.0724379,115.0643921,https://maps.google.com/?cid=0x0:0x48ee6615f684dbe7,
perumahan,Komplek perumahan,Taursky Ustinov,"W34J+6V7, Murutuwu, Kec. Paju Epat, Kabupaten Barito Timur, Kalimantan Tengah","Kabupaten Barito Timur, Kalimantan Tengah",KALIMANTAN TENGAH,,Indonesia,,,,-2.0944587,115.0821842,https://maps.google.com/?cid=0x0:0x4d907d8d230ae22f,
perumahan,Pembangunan Perumahan,Hari Siswanto,"W2XX+G9, Balawa, Kec. Paju Epat, Kabupaten Barito Timur, Kalimantan Tengah 73615","Balawa, Kec. Paju Epat, Kabupaten Barito Timur",KALIMANTAN TENGAH,73615.0,Indonesia,,,,-2.0512797,115.0484744,https://maps.google.com/?cid=0x0:0x87f6815b3c9e1d8c,
perumahan,Komplek perumahan,Mess Sugeng Wy,"W327+QC, Murutuwu, Kec. Paju Epat, Kabupaten Barito Timur, Kalimantan Tengah","Kabupaten Barito Timur, Kalimantan Tengah",KALIMANTAN TENGAH,,Indonesia,,,,-2.0979043,115.0628396,https://maps.google.com/?cid=0x0:0x1342fe87f3e608aa,
perumahan,Kantor Perusahaan,Mis pt.sgm div 1 plasma,"V3P7+FJ, Murutuwu, Kec. Paju Epat, Kabupaten Barito Timur, Kalimantan Tengah","Kabupaten Barito Timur, Kalimantan Tengah",KALIMANTAN TENGAH,,Indonesia,,,,-2.1138486,115.0641553,https://maps.google.com/?cid=0x0:0x2446e8b0ef756ebc,
perumahan,Kantor Pemerintah,Desa murutuwu,"V3W7+JX4, Murutuwu, Kec. Paju Epat, Kabupaten Barito Timur, Kalimantan Tengah 73617","Murutuwu, Kec. Paju Epat, Kabupaten Barito Timur",KALIMANTAN TENGAH,73617.0,Indonesia,,,,-2.1033512,115.0658397,https://maps.google.com/?cid=0x0:0x63180525d62d5a5d,
perumahan,Pembangunan Perumahan,Base Camp Ferdi Sambo,"W327+RJV, Murutuwu, Kec. Paju Epat, Kabupaten Barito Timur, Kalimantan Tengah","Kabupaten Barito Timur, Kalimantan Tengah",KALIMANTAN TENGAH,,Indonesia,,,,-2.0981553,115.0641087,https://maps.google.com/?cid=0x0:0x917818090e8b3083,
perumahan,Komplek perumahan,Lewu Hendra.jms,"V3XC+FP, Murutuwu, Kec. Paju Epat, Kabupaten Barito Timur, Kalimantan Tengah","Kabupaten Barito Timur, Kalimantan Tengah",KALIMANTAN TENGAH,,Indonesia,,,,-2.1012749,115.0718609,https://maps.google.com/?cid=0x0:0x67013ecc286c5a45,
perumahan,Rumah berlibur,Rumah Unil,"W34J+6V7, Murutuwu, Kec. Paju Epat, Kabupaten Barito Timur, Kalimantan Tengah 73614","Murutuwu, Kec. Paju Epat, Kabupaten Barito Timur",KALIMANTAN TENGAH,73614.0,Indonesia,,,,-2.0944587,115.0821842,https://maps.google.com/?cid=0x0:0x8605c7f5c43da66,
perumahan,perumahan,Perumahan PT. SGM TIE,"W3FP+GH9, Murutuwu, Kec. Paju Epat, Kabupaten Barito Timur, Kalimantan Tengah 73617","Murutuwu, Kec. Paju Epat, Kabupaten Barito Timur",KALIMANTAN TENGAH,73617.0,Indonesia,,,,-2.0756472,115.0854305,https://maps.google.com/?cid=0x0:0x391f126469d85abb,
perumahan,Kantor distrik,Perumahan DPRD Bartim,"W47W+73F, Tamiang Layang, Kec. Dusun Tim., Kabupaten Barito Timur, Kalimantan Tengah","Kabupaten Barito Timur, Kalimantan Tengah",KALIMANTAN TENGAH,,Indonesia,,,,-2.0868037,115.1451563,https://maps.google.com/?cid=0x0:0x6da524e2bed32ab9,
perumahan,Kantor Perusahaan,Mess SGM,"W3HM+4P6, Murutuwu, Kec. Paju Epat, Kabupaten Barito Timur, Kalimantan Tengah","Kabupaten Barito Timur, Kalimantan Tengah",KALIMANTAN TENGAH,,Indonesia,,,,-2.0722047,115.084279,https://maps.google.com/?cid=0x0:0xcde327343c6c37fd,
perumahan,perumahan,Kalimantan Tengah 73615,"Kec. Paju Epat, Kabupaten Barito Timur, Kalimantan Tengah","Kabupaten Barito Timur, Kalimantan Tengah",KALIMANTAN TENGAH,,Indonesia,,,,-2.0549841,115.0406679,https://maps.google.com/?cid=0x0:0xfc49174b02adf151,
perumahan,Pembangunan Perumahan,Hari Siswanto,"W2XX+G9, Balawa, Kec. Paju Epat, Kabupaten Barito Timur, Kalimantan Tengah 73615","Balawa, Kec. Paju Epat, Kabupaten Barito Timur",KALIMANTAN TENGAH,73615.0,Indonesia,,,,-2.0512797,115.0484744,https://maps.google.com/?cid=0x0:0x87f6815b3c9e1d8c,
perumahan,Komplek perumahan,Dorong Permai,"W53P+829, Dorong, Kec. Dusun Tim., Kabupaten Barito Timur, Kalimantan Tengah 73671","Dorong, Kec. Dusun Tim., Kabupaten Barito Timur",KALIMANTAN TENGAH,73671.0,Indonesia, 082255786135,,,-2.0967104,115.1851007,https://maps.google.com/?cid=0x0:0x3cb56f8db66f2172,
perumahan,Pembangunan Perumahan,RUMAH MEMPELAI,"W2QX+4F8, Maipe, Kec. Paju Epat, Kabupaten Barito Timur, Kalimantan Tengah","Kabupaten Barito Timur, Kalimantan Tengah",KALIMANTAN TENGAH,,Indonesia,,,,-2.0622031,115.0487043,https://maps.google.com/?cid=0x0:0xcf3abbfab93b788b,
perumahan,perumahan,Kalimantan Tengah 73617,Kalimantan Tengah,Kalimantan Tengah,KALIMANTAN TENGAH,,Indonesia,,,,-2.0520057,114.9516869,https://maps.google.com/?cid=0x0:0xf0d04e5ed5edf592,
perumahan,Rumah Kayu,Rumah Ebekson,"Jl. Tamiyang Layang - Ampah No.KM 7, Sumur, Kec. Dusun Tim., Kabupaten Barito Timur, Kalimantan Tengah 73681","Sumur, Kec. Dusun Tim., Kabupaten Barito Timur",KALIMANTAN TENGAH,73681.0,Indonesia,,,,-2.0568774,115.1358165,https://maps.google.com/?cid=0x0:0xf4e963e32d333c9f,
perumahan,perumahan,Rumah zuhriansyah,"Unnamed Rd, Kab. Barito Sel., 73617, Bangkuang, Kec. Karau Kuala, Kabupaten Barito Selatan, Kalimantan Tengah 73617","Kab. Barito Sel.,",KALIMANTAN TENGAH,73617.0,Indonesia,,,,-2.031932,114.9055029,https://maps.google.com/?cid=0x0:0x4296e45d832364e,
perumahan,Komplek perumahan,Komplek Perumahan Pondok Indah 1,"W45X+2G9, Jl. Tamiyang Layang - Ampah, Sumur, Kec. Dusun Tim., Kabupaten Barito Timur, Kalimantan Tengah 73671","Jl. Tamiyang Layang - Ampah, Sumur, Kec. Dusun Tim., Kabupaten Barito Timur",KALIMANTAN TENGAH,73671.0,Indonesia,,,,-2.0924517,115.1488665,https://maps.google.com/?cid=0x0:0x8f2df3d4e63db725,
perumahan,Komplek perumahan,Sa'i,"VV89+J5F, Damparan, Kec. Dusun Hilir, Kabupaten Barito Selatan, Kalimantan Tengah 73617","Damparan, Kec. Dusun Hilir, Kabupaten Barito Selatan",KALIMANTAN TENGAH,73617.0,Indonesia,,,,-2.1334101,114.8679413,https://maps.google.com/?cid=0x0:0xc6f67d6be5abc426,
perumahan,Komplek perumahan,My Dream,"VV79+G33, Damparan, Kec. Dusun Hilir, Kabupaten Barito Selatan, Kalimantan Tengah 73617","Damparan, Kec. Dusun Hilir, Kabupaten Barito Selatan",KALIMANTAN TENGAH,73617.0,Indonesia,,,,-2.1362899,114.8675873,https://maps.google.com/?cid=0x0:0x4f4087b006fa10a4,
perumahan,Pembangunan Perumahan,Perumahan Rintis Permai | Cv. Mira Mandiri,"Matabu, Kec. Dusun Tim., Kabupaten Barito Timur, Kalimantan Tengah 73671","Kec. Dusun Tim., Kabupaten Barito Timur",KALIMANTAN TENGAH,73671.0,Indonesia, 081349463763,,,-2.1210646,115.1822164,https://maps.google.com/?cid=0x0:0xb123a62bad7f69f,
perumahan,Pembangunan Perumahan,Cahaya,"WV3G+CFH, Unnamed Road, Tlk. Timbau, Kec. Dusun Hilir, Kabupaten Barito Selatan, Kalimantan Tengah 73617","Unnamed Road, Tlk. Timbau, Kec. Dusun Hilir, Kabupaten Barito Selatan",KALIMANTAN TENGAH,73617.0,Indonesia,,,,-2.0964456,114.8762208,https://maps.google.com/?cid=0x0:0xfa2ae6c4db7e93d3,
perumahan,Komplek perumahan,Rumah Alvaro,"W4FQ+887, Sumur, Kec. Dusun Tim., Kabupaten Barito Timur, Kalimantan Tengah 73681","Sumur, Kec. Dusun Tim., Kabupaten Barito Timur",KALIMANTAN TENGAH,73681.0,Indonesia,,,,-2.0767149,115.1382897,https://maps.google.com/?cid=0x0:0x869e9c0c84edd9ef,
perumahan,perumahan,Rumah Lida,"XVQR+CXM, Tlk. Betung, Kec. Karau Kuala, Kabupaten Barito Selatan, Kalimantan Tengah 73617","Tlk. Betung, Kec. Karau Kuala, Kabupaten Barito Selatan",KALIMANTAN TENGAH,73617.0,Indonesia,,,,-2.0114175,114.8924242,https://maps.google.com/?cid=0x0:0xf718474d5d9f0482,
perumahan,Pembangunan Perumahan,Rahim timur,"RVX9+7CH, RT.11, Damparan, Kec. Dusun Hilir, Kabupaten Barito Selatan, Kalimantan Tengah","Kabupaten Barito Selatan, Kalimantan Tengah",KALIMANTAN TENGAH,,Indonesia,,,,-2.1518098,114.8686169,https://maps.google.com/?cid=0x0:0x4c848f83b64d720e,
perumahan,Kantor distrik,Perumahan DPRD Bartim,"W47W+73F, Tamiang Layang, Kec. Dusun Tim., Kabupaten Barito Timur, Kalimantan Tengah","Kabupaten Barito Timur, Kalimantan Tengah",KALIMANTAN TENGAH,,Indonesia,,,,-2.0868037,115.1451563,https://maps.google.com/?cid=0x0:0x6da524e2bed32ab9,
perumahan,Komplek perumahan,Syahrul Iskandar,"RXF8+J8J, Tampu Langit, Kec. Paju Epat, Kabupaten Barito Timur, Kalimantan Tengah 73617","Tampu Langit, Kec. Paju Epat, Kabupaten Barito Timur",KALIMANTAN TENGAH,73617.0,Indonesia,,,,-2.1759214,114.9657695,https://maps.google.com/?cid=0x0:0x99527e7ddbbe85f5,
perumahan,Pembangunan Perumahan,Perumahan Griya Tamiang Makmur,"Tamiang Layang, Kec. Dusun Tim., Kabupaten Barito Timur, Kalimantan Tengah 73671","Kec. Dusun Tim., Kabupaten Barito Timur",KALIMANTAN TENGAH,73671.0,Indonesia, 082194879085,,,-2.0978279,115.1666336,https://maps.google.com/?cid=0x0:0xb29fc013b43146fe,
perumahan,Komplek perumahan,Bana residence,"Jl. Dambung Kurui No.RT.04, Tamiang Layang, Kec. Dusun Tim., Kabupaten Barito Timur, Kalimantan Tengah 73617","Tamiang Layang, Kec. Dusun Tim., Kabupaten Barito Timur",KALIMANTAN TENGAH,73617.0,Indonesia, 082339640546,,,-2.1181363,115.1671968,https://maps.google.com/?cid=0x0:0x57c470d6281d17aa,
perumahan,Perhimpunan Pengembang Perumahan,Desa Babai,"2RWP+G95, Babai, Kec. Karau Kuala, Kabupaten Barito Selatan, Kalimantan Tengah 73617","Babai, Kec. Karau Kuala, Kabupaten Barito Selatan",KALIMANTAN TENGAH,73617.0,Indonesia,,,,-1.953727,114.835999,https://maps.google.com/?cid=0x0:0x7543cb55119436f2,
perumahan,Komplek perumahan,Rumah YTS Family,"X45M+P8Q, Jaweten, Kec. Dusun Tim., Kabupaten Barito Timur, Kalimantan Tengah 73681","Jaweten, Kec. Dusun Tim., Kabupaten Barito Timur",KALIMANTAN TENGAH,73681.0,Indonesia,,,,-2.0406523,115.1333746,https://maps.google.com/?cid=0x0:0xb99c9ee6159fe560,
perumahan,Perumahan rakyat,Rumah Tamiang,"W4HP+7X9, Sumur, Kec. Dusun Tim., Kabupaten Barito Timur, Kalimantan Tengah 73681","Sumur, Kec. Dusun Tim., Kabupaten Barito Timur",KALIMANTAN TENGAH,73681.0,Indonesia,,,,-2.0718369,115.1374865,https://maps.google.com/?cid=0x0:0xc1e59fc99f40b3a5,
perumahan,Pembangunan Perumahan,Hairul,"XVVV+6HX, Tlk. Betung, Kec. Karau Kuala, Kabupaten Barito Selatan, Kalimantan Tengah 73617","Tlk. Betung, Kec. Karau Kuala, Kabupaten Barito Selatan",KALIMANTAN TENGAH,73617.0,Indonesia,,,,-2.006475,114.894277,https://maps.google.com/?cid=0x0:0xe2a6e5c4fa42c29e,
perumahan,Komplek perumahan,Rumah Nara,"V4RH+47, Sarapat (Ex Harara), Kec. Dusun Tim., Kabupaten Barito Timur, Kalimantan Tengah","Kabupaten Barito Timur, Kalimantan Tengah",KALIMANTAN TENGAH,,Indonesia,,,,-2.1096726,115.1282249,https://maps.google.com/?cid=0x0:0x9ea9bd78b0ebe869,
perumahan,Komplek perumahan,Efrata pertama,"V4JJ+VRV, Sarapat (Ex Harara), Kec. Dusun Tim., Kabupaten Barito Timur, Kalimantan Tengah","Kabupaten Barito Timur, Kalimantan Tengah",KALIMANTAN TENGAH,,Indonesia,,,,-2.1177587,115.1320383,https://maps.google.com/?cid=0x0:0x7d378498b70ca457,
perumahan,Pembangunan Perumahan,Mengukur sebidang tanah,"X46P+XHR, Dekat SDN 2, Jaweten, Kec. Dusun Tim., Kabupaten Barito Timur, Kalimantan Tengah","Kabupaten Barito Timur, Kalimantan Tengah",KALIMANTAN TENGAH,,Indonesia,,,,-2.0375062,115.1363826,https://maps.google.com/?cid=0x0:0x1a8a96800d35575a,
perumahan,Komplek perumahan,Aldyysw_,"V48J+25, Sarapat (Ex Harara), Kec. Dusun Tim., Kabupaten Barito Timur, Kalimantan Tengah","Kabupaten Barito Timur, Kalimantan Tengah",KALIMANTAN TENGAH,,Indonesia,,,,-2.1349301,115.130496,https://maps.google.com/?cid=0x0:0xaaf43b7799a04665,
perumahan,perumahan,Kec. Dusun Tim.,"Kabupaten Barito Timur, Kalimantan Tengah","Kabupaten Barito Timur, Kalimantan Tengah",KALIMANTAN TENGAH,,Indonesia,,,,-2.1126877,115.1670292,https://maps.google.com/?cid=0x0:0x740b7052b652c454,
perumahan,Komplek perumahan,Komplek Perumahan Pondok Indah 1,"W45X+2G9, Jl. Tamiyang Layang - Ampah, Sumur, Kec. Dusun Tim., Kabupaten Barito Timur, Kalimantan Tengah 73671","Jl. Tamiyang Layang - Ampah, Sumur, Kec. Dusun Tim., Kabupaten Barito Timur",KALIMANTAN TENGAH,73671.0,Indonesia,,,,-2.0924517,115.1488665,https://maps.google.com/?cid=0x0:0x8f2df3d4e63db725,
perumahan,Pembangunan Perumahan,Perumahan Griya Tamiang Makmur,"Tamiang Layang, Kec. Dusun Tim., Kabupaten Barito Timur, Kalimantan Tengah 73671","Kec. Dusun Tim., Kabupaten Barito Timur",KALIMANTAN TENGAH,73671.0,Indonesia, 082194879085,,,-2.0978279,115.1666336,https://maps.google.com/?cid=0x0:0xb29fc013b43146fe,
perumahan,Komplek perumahan,komplek muhajirin,"V5P7+756, Tamiang Layang, Kec. Dusun Tim., Kabupaten Barito Timur, Kalimantan Tengah 73671","Tamiang Layang, Kec. Dusun Tim., Kabupaten Barito Timur",KALIMANTAN TENGAH,73671.0,Indonesia,,,,-2.11433,115.1629061,https://maps.google.com/?cid=0x0:0xdcd9134b1f357634,
perumahan,Pembangunan Perumahan,PERUMAHAN SANGKAI PERMAI,"V4WP+WWJ, Jl. PP. Dinan Tabak Kanilan, Tamiang Layang, Kec. Dusun Tim., Kabupaten Barito Timur, Kalimantan Tengah 73612","Jl. PP. Dinan Tabak Kanilan, Tamiang Layang, Kec. Dusun Tim., Kabupaten Barito Timur",KALIMANTAN TENGAH,73612.0,Indonesia, 082137166719,,,-2.1026731,115.1372542,https://maps.google.com/?cid=0x0:0xe98e29aa4bd1a151,
perumahan,Komplek perumahan,Dorong Permai,"W53P+829, Dorong, Kec. Dusun Tim., Kabupaten Barito Timur, Kalimantan Tengah 73671","Dorong, Kec. Dusun Tim., Kabupaten Barito Timur",KALIMANTAN TENGAH,73671.0,Indonesia, 082255786135,,,-2.0967104,115.1851007,https://maps.google.com/?cid=0x0:0x3cb56f8db66f2172,
perumahan,Pembangunan Perumahan,inyel,"W538+2Q, Tamiang Layang, Kec. Dusun Tim., Kabupaten Barito Timur, Kalimantan Tengah","Kabupaten Barito Timur, Kalimantan Tengah",KALIMANTAN TENGAH,,Indonesia,,,,-2.0974375,115.1669375,https://maps.google.com/?cid=0x0:0x4cd67738ea36277f,
perumahan,Kantor distrik,Perumahan DPRD Bartim,"W47W+73F, Tamiang Layang, Kec. Dusun Tim., Kabupaten Barito Timur, Kalimantan Tengah","Kabupaten Barito Timur, Kalimantan Tengah",KALIMANTAN TENGAH,,Indonesia,,,,-2.0868037,115.1451563,https://maps.google.com/?cid=0x0:0x6da524e2bed32ab9,
perumahan,Komplek perumahan,Perumnas Nansarunai,"V5PC+W2P, Jl. Nansarunai - Tamiang Layang, Tamiang Layang, Kec. Dusun Tim., Kabupaten Barito Timur, Kalimantan Tengah 73671","Jl. Nansarunai - Tamiang Layang, Tamiang Layang, Kec. Dusun Tim., Kabupaten Barito Timur",KALIMANTAN TENGAH,73671.0,Indonesia,,,,-2.1126552,115.1700673,https://maps.google.com/?cid=0x0:0x8c5c89894c6fa748,
perumahan,Komplek perumahan,My Home,"V5QC+GM3, Jl. Nansarunai - Tamiang Layang, Dorong, Kec. Dusun Tim., Kabupaten Barito Timur, Kalimantan Tengah 73671","Jl. Nansarunai - Tamiang Layang, Dorong, Kec. Dusun Tim., Kabupaten Barito Timur",KALIMANTAN TENGAH,73671.0,Indonesia,,,,-2.1112359,115.1716606,https://maps.google.com/?cid=0x0:0x9a9d3ae29f101fa8,
perumahan,Perhimpunan Pengembang Perumahan,Ampah,"Jl. Ahmad Yani No.90, Tamiang Layang, Kec. Dusun Tim., Kabupaten Barito Timur, Kalimantan Tengah 73671","Tamiang Layang, Kec. Dusun Tim., Kabupaten Barito Timur",KALIMANTAN TENGAH,73671.0,Indonesia,,,,-2.104972,115.160624,https://maps.google.com/?cid=0x0:0xbdb7268631e88773,
perumahan,Komplek perumahan,Tamiang layang,"V5Q7+382, Jl. Fridolin Ukur, Tamiang Layang, Kec. Dusun Tim., Kabupaten Barito Timur, Kalimantan Tengah 73671","Jl. Fridolin Ukur, Tamiang Layang, Kec. Dusun Tim., Kabupaten Barito Timur",KALIMANTAN TENGAH,73671.0,Indonesia,,,,-2.1123611,115.1632736,https://maps.google.com/?cid=0x0:0x35489d0ea6a20972,
perumahan,Komplek perumahan,Rumah ku,"V5R8+37F, Tamiang Layang, Kec. Dusun Tim., Kabupaten Barito Timur, Kalimantan Tengah 73671","Tamiang Layang, Kec. Dusun Tim., Kabupaten Barito Timur",KALIMANTAN TENGAH,73671.0,Indonesia,,,,-2.1098172,115.1656586,https://maps.google.com/?cid=0x0:0xdcc570f0c6a6c5b6,
perumahan,Komplek perumahan,Perumahan Flamingo Residence,"V5CG+JV, Matabu, Kec. Dusun Tim., Kabupaten Barito Timur, Kalimantan Tengah 73671","Matabu, Kec. Dusun Tim., Kabupaten Barito Timur",KALIMANTAN TENGAH,73671.0,Indonesia,,,,-2.1285451,115.1770956,https://maps.google.com/?cid=0x0:0xd4912ac854ed00d1,
perumahan,Komplek perumahan,Perjalanan terbaru,"Jl. Ahmad Yani No.90, Tamiang Layang, Kec. Dusun Tim., Kabupaten Barito Timur, Kalimantan Tengah 73671","Tamiang Layang, Kec. Dusun Tim., Kabupaten Barito Timur",KALIMANTAN TENGAH,73671.0,Indonesia,,,,-2.1139272,115.1679193,https://maps.google.com/?cid=0x0:0x69eac57018781fc7,
perumahan,Pembangunan Perumahan,Andi The Radit,"V593+M89, Jl. Magantis, Magantis, Kec. Dusun Tim., Kabupaten Barito Timur, Kalimantan Tengah 73671","Jl. Magantis, Magantis, Kec. Dusun Tim., Kabupaten Barito Timur",KALIMANTAN TENGAH,73671.0,Indonesia,,,,-2.1308308,115.1533471,https://maps.google.com/?cid=0x0:0x91851185351fa1e0,
perumahan,Pembangunan Perumahan,pati anom,"V5Q3+H88, Tamiang Layang, Kec. Dusun Tim., Kabupaten Barito Timur, Kalimantan Tengah","Kabupaten Barito Timur, Kalimantan Tengah",KALIMANTAN TENGAH,,Indonesia,,,,-2.1110964,115.1533426,https://maps.google.com/?cid=0x0:0xceda7e0ac689b912,
perumahan,Komplek perumahan,Rumah Drs. Martino,"W537+6W, Tamiang Layang, Kec. Dusun Tim., Kabupaten Barito Timur, Kalimantan Tengah 73671","Tamiang Layang, Kec. Dusun Tim., Kabupaten Barito Timur",KALIMANTAN TENGAH,73671.0,Indonesia,,,,-2.096991,115.164832,https://maps.google.com/?cid=0x0:0xd10029c8f2a5a21d,
perumahan,Komplek perumahan,RUMAH KENZIE,"V5JF+WJM, Tamiang Layang, Kec. Dusun Tim., Kabupaten Barito Timur, Kalimantan Tengah 73671","Tamiang Layang, Kec. Dusun Tim., Kabupaten Barito Timur",KALIMANTAN TENGAH,73671.0,Indonesia, 085346026662,,,-2.1176572,115.1740353,https://maps.google.com/?cid=0x0:0x723824f8f59b6df4,
perumahan,Komplek perumahan,Perumahan Griya Tamiang Makmur,"Jln Haringen Lama (tampiyua, RT.004, Haringen, Kec. Dusun Tim., Kabupaten Barito Timur, Kalimantan Tengah 73671","RT.004, Haringen, Kec. Dusun Tim., Kabupaten Barito Timur",KALIMANTAN TENGAH,73671.0,Indonesia, 082194879085,,,-2.0749895,115.1770586,https://maps.google.com/?cid=0x0:0xc4515401a94233b9,
perumahan,Pembangunan Perumahan,Perum Dorong Permai I | Cv. Mira Mandiri,"W52J+CH6, Dorong, Kec. Dusun Tim., Kabupaten Barito Timur, Kalimantan Tengah 73671","Dorong, Kec. Dusun Tim., Kabupaten Barito Timur",KALIMANTAN TENGAH,73671.0,Indonesia, 081349463763,,,-2.0989564,115.1813752,https://maps.google.com/?cid=0x0:0xcd7f602d5d415c0a,
perumahan,Komplek perumahan,RUMAH PRIBADI,"V5FV+43F, Mangkarap, Kec. Dusun Tim., Kabupaten Barito Timur, Kalimantan Tengah 73671","Mangkarap, Kec. Dusun Tim., Kabupaten Barito Timur",KALIMANTAN TENGAH,73671.0,Indonesia,,,,-2.1271919,115.1926655,https://maps.google.com/?cid=0x0:0xbadf2590874f259,
perumahan,perumahan,Kec. Karusen Janang,"Kabupaten Barito Timur, Kalimantan Tengah","Kabupaten Barito Timur, Kalimantan Tengah",KALIMANTAN TENGAH,,Indonesia,,,,-1.9839523,115.0772101,https://maps.google.com/?cid=0x0:0x42d4b63eb9f83bf4,
perumahan,Pembangunan Perumahan,Rumah aliyanto,"33M4+VH, Wuran, Ipu Mea, Kec. Karusen Janang, Kabupaten Barito Timur, Kalimantan Tengah","Kabupaten Barito Timur, Kalimantan Tengah",KALIMANTAN TENGAH,,Indonesia,,,,-1.9141703,115.0560515,https://maps.google.com/?cid=0x0:0xc4b8ffcdbbbc60f3,
perumahan,Komplek perumahan,Rumah S,"239F+RV4, Dayu, Kec. Karusen Janang, Kabupaten Barito Timur, Kalimantan Tengah 73652","Dayu, Kec. Karusen Janang, Kabupaten Barito Timur",KALIMANTAN TENGAH,73652.0,Indonesia,,,,-1.9813109,115.0747416,https://maps.google.com/?cid=0x0:0xce7cdc21667ffcf7,
perumahan,perumahan,Rumah Meera,"239F+RV4, Dayu, Kec. Karusen Janang, Kabupaten Barito Timur, Kalimantan Tengah 73652","Dayu, Kec. Karusen Janang, Kabupaten Barito Timur",KALIMANTAN TENGAH,73652.0,Indonesia,,,,-1.9810552,115.0741411,https://maps.google.com/?cid=0x0:0xfa1324dff821d370,
perumahan,Pembangunan Perumahan,Lewu elinn,"23CG+22G, Jl. Tamiyang Layang - Ampah, Dayu, Kec. Karusen Janang, Kabupaten Barito Timur, Kalimantan Tengah 73652","Jl. Tamiyang Layang - Ampah, Dayu, Kec. Karusen Janang, Kabupaten Barito Timur",KALIMANTAN TENGAH,73652.0,Indonesia,,,,-1.9796355,115.0749948,https://maps.google.com/?cid=0x0:0xb99745478613d9e3,
perumahan,Komplek perumahan,Rumah Azka Arsenio,"23MJ+M8P, Dayu, Kec. Karusen Janang, Kabupaten Barito Timur, Kalimantan Tengah","Kabupaten Barito Timur, Kalimantan Tengah",KALIMANTAN TENGAH,,Indonesia,,,,-1.9657817,115.0808376,https://maps.google.com/?cid=0x0:0x22b2d1221fc159dc,
perumahan,Komplek perumahan,Alyuen,"33HP+5P9, Jl. Ipu Mea, Wuran, Kec. Karusen Janang, Kabupaten Barito Timur, Kalimantan Tengah 73652","Jl. Ipu Mea, Wuran, Kec. Karusen Janang, Kabupaten Barito Timur",KALIMANTAN TENGAH,73652.0,Indonesia,,,,-1.9221924,115.0863093,https://maps.google.com/?cid=0x0:0x191676a914ced308,
perumahan,Komplek perumahan,Rumah Kristomi Wahyudi,"32QR+27F, Ipu Mea, Kec. Karusen Janang, Kabupaten Barito Timur, Kalimantan Tengah 73652","Ipu Mea, Kec. Karusen Janang, Kabupaten Barito Timur",KALIMANTAN TENGAH,73652.0,Indonesia,,,,-1.9124305,115.0406679,https://maps.google.com/?cid=0x0:0x3c10d5a993edb7f2,
perumahan,Komplek perumahan,Dayu,"23J5+294, Dayu, Kec. Karusen Janang, Kabupaten Barito Timur, Kalimantan Tengah","Kabupaten Barito Timur, Kalimantan Tengah",KALIMANTAN TENGAH,,Indonesia,,,,-1.9699965,115.0584612,https://maps.google.com/?cid=0x0:0x51f8bc4abbab451c,
perumahan,Komplek perumahan,Kristian,"23XR+RR, Dayu, Kec. Karusen Janang, Kabupaten Barito Timur, Kalimantan Tengah","Kabupaten Barito Timur, Kalimantan Tengah",KALIMANTAN TENGAH,,Indonesia,,,,-1.950435,115.092124,https://maps.google.com/?cid=0x0:0x34853d0a7f0d6450,
perumahan,Komplek perumahan,Rumah amah feri,"239G+W44, Gg. Saliakir, Dayu, Kec. Karusen Janang, Kabupaten Barito Timur, Kalimantan Tengah 73652","Gg. Saliakir, Dayu, Kec. Karusen Janang, Kabupaten Barito Timur",KALIMANTAN TENGAH,73652.0,Indonesia,,,,-1.9802266,115.0753297,https://maps.google.com/?cid=0x0:0x2a97956efd5ac7b0,
perumahan,Tujuan Wisata,DESA PUTUT TAWULUH,"25W4+6Q, Putut Tawuluh, Kec. Karusen Janang, Kabupaten Barito Timur, Kalimantan Tengah","Kabupaten Barito Timur, Kalimantan Tengah",KALIMANTAN TENGAH,,Indonesia,,,,-1.9576101,115.1383562,https://maps.google.com/?cid=0x0:0x739be0465ad9ce1b,
perumahan,Komplek perumahan,Rumah Tri Wulandari,"23MJ+P69, Jl. Mula Jari, RT.07/RW.04, Dayu, Kec. Karusen Janang, Kabupaten Barito Timur, Kalimantan Tengah 73652","Jl. Mula Jari, RT.07/RW.04, Dayu, Kec. Karusen Janang, Kabupaten Barito Timur",KALIMANTAN TENGAH,73652.0,Indonesia,,,,-1.9657241,115.0806026,https://maps.google.com/?cid=0x0:0xba30a80664ff9333,
perumahan,Komplek perumahan,Rumh ternak toe,"33F3+325 Trans 200, Wuran, Kec. Karusen Janang, Kabupaten Barito Timur, Kalimantan Tengah 73652","Wuran, Kec. Karusen Janang, Kabupaten Barito Timur",KALIMANTAN TENGAH,73652.0,Indonesia,,,,-1.9273568,115.0526161,https://maps.google.com/?cid=0x0:0x673ac9725f1b0723,
perumahan,Pembangunan Perumahan,Mempelai wanita,"233W+7RV, Simpang Naneng, Kec. Karusen Janang, Kabupaten Barito Timur, Kalimantan Tengah 73681","Simpang Naneng, Kec. Karusen Janang, Kabupaten Barito Timur",KALIMANTAN TENGAH,73681.0,Indonesia,,,,-1.9970339,115.0974894,https://maps.google.com/?cid=0x0:0x9b1363e54bb1c316,
perumahan,perumahan,Rumah Indra,"24PJ+FX, Putut Tawuluh, Kec. Karusen Janang, Kabupaten Barito Timur, Kalimantan Tengah","Kabupaten Barito Timur, Kalimantan Tengah",KALIMANTAN TENGAH,,Indonesia,,,,-1.963826,115.13249,https://maps.google.com/?cid=0x0:0xcdbbf0fd428b4a07,
perumahan,perumahan,RUMAH RESSA AUREL,"X3XX+RX5, Simpang Naneng, Kec. Karusen Janang, Kabupaten Barito Timur, Kalimantan Tengah 73681","Simpang Naneng, Kec. Karusen Janang, Kabupaten Barito Timur",KALIMANTAN TENGAH,73681.0,Indonesia,,,,-2.0004995,115.0999753,https://maps.google.com/?cid=0x0:0xad0c1c49000c76f3,
perumahan,Gereja,Pastori GKE Petra Ipm,"33PM+M45, Wuran, Kec. Karusen Janang, Kabupaten Barito Timur, Kalimantan Tengah 73652","Wuran, Kec. Karusen Janang, Kabupaten Barito Timur",KALIMANTAN TENGAH,73652.0,Indonesia,,,,-1.9133521,115.0828667,https://maps.google.com/?cid=0x0:0x36271fe54cf2da2e,
perumahan,Kantor Perusahaan,Komplek Mess PT. SGM Div III Ipm,"338H+586, Wuran, Kec. Karusen Janang, Kabupaten Barito Timur, Kalimantan Tengah 73652","Wuran, Kec. Karusen Janang, Kabupaten Barito Timur",KALIMANTAN TENGAH,73652.0,Indonesia,,,,-1.9346412,115.0783105,https://maps.google.com/?cid=0x0:0x976d205421997261,
perumahan,Komplek perumahan,Barak Amri,"23RR+3X, Dayu, Kec. Karusen Janang, Kabupaten Barito Timur, Kalimantan Tengah","Kabupaten Barito Timur, Kalimantan Tengah",KALIMANTAN TENGAH,,Indonesia,,,,-1.9597892,115.092467,https://maps.google.com/?cid=0x0:0xc139765cb614cd2c,
perumahan,Komplek perumahan,Lewu Uyek,"23J5+294, Dayu, Kec. Karusen Janang, Kabupaten Barito Timur, Kalimantan Tengah","Kabupaten Barito Timur, Kalimantan Tengah",KALIMANTAN TENGAH,,Indonesia,,,,-1.9699965,115.0584612,https://maps.google.com/?cid=0x0:0x8e37f3ed74a5ae93,
perumahan,Komplek perumahan,Lusu Dayu,"23F2+8M, Dayu, Kec. Karusen Janang, Kabupaten Barito Timur, Kalimantan Tengah","Kabupaten Barito Timur, Kalimantan Tengah",KALIMANTAN TENGAH,,Indonesia,,,,-1.9775561,115.0517148,https://maps.google.com/?cid=0x0:0x8196e7ae54e1a1e4,
perumahan,perumahan,Kalimantan Tengah 73617,Kalimantan Tengah,Kalimantan Tengah,KALIMANTAN TENGAH,,Indonesia,,,,-2.0520057,114.9516869,https://maps.google.com/?cid=0x0:0xf0d04e5ed5edf592,
perumahan,perumahan,Rumah zuhriansyah,"Unnamed Rd, Kab. Barito Sel., 73617, Bangkuang, Kec. Karau Kuala, Kabupaten Barito Selatan, Kalimantan Tengah 73617","Kab. Barito Sel.,",KALIMANTAN TENGAH,73617.0,Indonesia,,,,-2.031932,114.9055029,https://maps.google.com/?cid=0x0:0x4296e45d832364e,
perumahan,Komplek perumahan,Rumah Puza,"XV6R+HVQ, Jl. Paju Epat, RT.22/RW.08, Bangkuang, Kab, Kabupaten Barito Selatan, Kalimantan Tengah 73617","Jl. Paju Epat, RT.22/RW.08, Bangkuang, Kab, Kabupaten Barito Selatan",KALIMANTAN TENGAH,73617.0,Indonesia,,,,-2.0385465,114.8922277,https://maps.google.com/?cid=0x0:0xda44781871217782,
perumahan,Komplek perumahan,Syahrul Iskandar,"RXF8+J8J, Tampu Langit, Kec. Paju Epat, Kabupaten Barito Timur, Kalimantan Tengah 73617","Tampu Langit, Kec. Paju Epat, Kabupaten Barito Timur",KALIMANTAN TENGAH,73617.0,Indonesia,,,,-2.1759214,114.9657695,https://maps.google.com/?cid=0x0:0x99527e7ddbbe85f5,
perumahan,Pembangunan Perumahan,Roni P Matak,"W27Q+WC, Telang, Kec. Paju Epat, Kabupaten Barito Timur, Kalimantan Tengah 73617","Telang, Kec. Paju Epat, Kabupaten Barito Timur",KALIMANTAN TENGAH,73617.0,Indonesia,,,,-2.085222,115.038562,https://maps.google.com/?cid=0x0:0x219ae099e443a8c0,
perumahan,Kebun Buah,trans siong,"WXC8+VGQ, Siong, Kec. Paju Epat, Kabupaten Barito Timur, Kalimantan Tengah 73617","Siong, Kec. Paju Epat, Kabupaten Barito Timur",KALIMANTAN TENGAH,73617.0,Indonesia,,,,-2.0775406,114.9666901,https://maps.google.com/?cid=0x0:0x48a5bf9132473ce8,
perumahan,Komplek perumahan,Ganda Pasaribu,"RW7J+RJ2, Kalinapu, Kec. Paju Epat, Kabupaten Barito Timur, Kalimantan Tengah 73617","Kalinapu, Kec. Paju Epat, Kabupaten Barito Timur",KALIMANTAN TENGAH,73617.0,Indonesia,,,,-2.1854759,114.931507,https://maps.google.com/?cid=0x0:0xe871008fdb4d4fb2,
perumahan,Pembangunan Perumahan,Abah adit,"W22J+QXR, Telang, Kec. Paju Epat, Kabupaten Barito Timur, Kalimantan Tengah 73613","Telang, Kec. Paju Epat, Kabupaten Barito Timur",KALIMANTAN TENGAH,73613.0,Indonesia,,,,-2.0980074,115.0323882,https://maps.google.com/?cid=0x0:0x51f68f0286a58041,
perumahan,Pembangunan Perumahan,Hari Siswanto,"W2XX+G9, Balawa, Kec. Paju Epat, Kabupaten Barito Timur, Kalimantan Tengah 73615","Balawa, Kec. Paju Epat, Kabupaten Barito Timur",KALIMANTAN TENGAH,73615.0,Indonesia,,,,-2.0512797,115.0484744,https://maps.google.com/?cid=0x0:0x87f6815b3c9e1d8c,
perumahan,Pembangunan Perumahan,RUMAH MEMPELAI,"W2QX+4F8, Maipe, Kec. Paju Epat, Kabupaten Barito Timur, Kalimantan Tengah","Kabupaten Barito Timur, Kalimantan Tengah",KALIMANTAN TENGAH,,Indonesia,,,,-2.0622031,115.0487043,https://maps.google.com/?cid=0x0:0xcf3abbfab93b788b,
perumahan,Perhimpunan Pengembang Perumahan,Tulus BP,"WXQP+VW7, Siong, Kec. Paju Epat, Kabupaten Barito Timur, Kalimantan Tengah","Kabupaten Barito Timur, Kalimantan Tengah",KALIMANTAN TENGAH,,Indonesia,,,,-2.0603418,114.9872821,https://maps.google.com/?cid=0x0:0x7deebbc327df7922,
perumahan,Gedung Apartemen,RISKO PARATAMA,"WXHX+42, Siong, Kec. Paju Epat, Kabupaten Barito Timur, Kalimantan Tengah","Kabupaten Barito Timur, Kalimantan Tengah",KALIMANTAN TENGAH,,Indonesia,,,,-2.0721886,114.9976221,https://maps.google.com/?cid=0x0:0xe7463d257f9fa7a6,
perumahan,Pembangunan Perumahan,Rumah Abah abdali,"VWQM+62Q, Kalinapu, Kec. Paju Epat, Kabupaten Barito Timur, Kalimantan Tengah 73617","Kalinapu, Kec. Paju Epat, Kabupaten Barito Timur",KALIMANTAN TENGAH,73617.0,Indonesia,,,,-2.1119125,114.9326094,https://maps.google.com/?cid=0x0:0xd6c789663c855372,
perumahan,Komplek perumahan,Shinta,"RXF8+GF9, Tampu Langit, Kec. Paju Epat, Kabupaten Barito Timur, Kalimantan Tengah","Kabupaten Barito Timur, Kalimantan Tengah",KALIMANTAN TENGAH,,Indonesia,,,,-2.176224,114.9662319,https://maps.google.com/?cid=0x0:0xe73077b0bec2d71e,
perumahan,Pembangunan Perumahan,Mess fathh,"W327+RJV, Murutuwu, Kec. Paju Epat, Kabupaten Barito Timur, Kalimantan Tengah","Kabupaten Barito Timur, Kalimantan Tengah",KALIMANTAN TENGAH,,Indonesia, 087862052258,,,-2.09726,115.063955,https://maps.google.com/?cid=0x0:0x87f09b870fe4ae98,
perumahan,Komplek perumahan,Mess Babang_Ndut,"W327+RJV, Murutuwu, Kec. Paju Epat, Kabupaten Barito Timur, Kalimantan Tengah","Kabupaten Barito Timur, Kalimantan Tengah",KALIMANTAN TENGAH,,Indonesia,,,,-2.0979653,115.0640775,https://maps.google.com/?cid=0x0:0x9fccf343aaa0cad8,
perumahan,perumahan,HOME ASEP,"VWRM+349, Kalinapu, Kec. Paju Epat, Kabupaten Barito Timur, Kalimantan Tengah","Kabupaten Barito Timur, Kalimantan Tengah",KALIMANTAN TENGAH,,Indonesia,,,,-2.1098418,114.9328521,https://maps.google.com/?cid=0x0:0x91ae60c2f14413d8,
perumahan,Komplek perumahan,Rumah Sabil,"V3WC+C42, Murutuwu, Kec. Paju Epat, Kabupaten Barito Timur, Kalimantan Tengah","Kabupaten Barito Timur, Kalimantan Tengah",KALIMANTAN TENGAH,,Indonesia,,,,-2.1039952,115.0702684,https://maps.google.com/?cid=0x0:0x4524d1ac2656081b,
perumahan,Komplek perumahan,Ahmat ridani,"QWCX+HQ4, Telang Baru, Kec. Paju Epat, Kabupaten Barito Timur, Kalimantan Tengah 73762","Telang Baru, Kec. Paju Epat, Kabupaten Barito Timur",KALIMANTAN TENGAH,73762.0,Indonesia,,,,-2.228539,114.9495089,https://maps.google.com/?cid=0x0:0xa40a065d07bdcff9,
perumahan,Komplek perumahan,Petakan,"QX92+F9, Telang Baru, Kec. Paju Epat, Kabupaten Barito Timur, Kalimantan Tengah","Kabupaten Barito Timur, Kalimantan Tengah",KALIMANTAN TENGAH,,Indonesia,,,,-2.2312792,114.9509997,https://maps.google.com/?cid=0x0:0xd1f5748edd01ed5b,
perumahan,Kantor Pemerintah,Rumah KADES,"QWCX+QPW, Telang Baru, Kec. Paju Epat, Kabupaten Barito Timur, Kalimantan Tengah","Kabupaten Barito Timur, Kalimantan Tengah",KALIMANTAN TENGAH,,Indonesia,,,,-2.2279863,114.9493728,https://maps.google.com/?cid=0x0:0x3dd03efe3cb714c0,
perumahan,Komplek perumahan,Lewu Itak Anjung,"W3H7+2QC, Maipe, Kec. Paju Epat, Kabupaten Barito Timur, Kalimantan Tengah 73617","Maipe, Kec. Paju Epat, Kabupaten Barito Timur",KALIMANTAN TENGAH,73617.0,Indonesia,,,,-2.0724379,115.0643921,https://maps.google.com/?cid=0x0:0x48ee6615f684dbe7,
perumahan,perumahan,Kec. Paku,"Kabupaten Barito Timur, Kalimantan Tengah","Kabupaten Barito Timur, Kalimantan Tengah",KALIMANTAN TENGAH,,Indonesia,,,,-1.8714738,115.1724417,https://maps.google.com/?cid=0x0:0xc6f14ef33602736c,
perumahan,perumahan,LAHAN HARTONI,"46G4+7MG, Pangkan, Kec. Paku, Kabupaten Barito Timur, Kalimantan Tengah 73652","Pangkan, Kec. Paku, Kabupaten Barito Timur",KALIMANTAN TENGAH,73652.0,Indonesia,,,,-1.8743238,115.2067011,https://maps.google.com/?cid=0x0:0xdfd4511b5aa2bae6,
perumahan,Biro Informasi Warga,Desa kupang baru,"3467+49C, Kupang Baru, Kec. Paku, Kabupaten Barito Timur, Kalimantan Tengah 73652","Kupang Baru, Kec. Paku, Kabupaten Barito Timur",KALIMANTAN TENGAH,73652.0,Indonesia,,,,-1.9404305,115.1125225,https://maps.google.com/?cid=0x0:0x37134d9f1e00c845,
perumahan,Rumah Kayu,Rumah Anggrianto,"45C7+224, Patung, Kec. Paku, Kabupaten Barito Timur, Kalimantan Tengah 73652","Patung, Kec. Paku, Kabupaten Barito Timur",KALIMANTAN TENGAH,73652.0,Indonesia,,,,-1.8799854,115.1625925,https://maps.google.com/?cid=0x0:0xe7237ef22b646988,
perumahan,Komplek perumahan,Rumah abah aci,"46C3+38, Pangkan, Kec. Paku, Kabupaten Barito Timur, Kalimantan Tengah","Kabupaten Barito Timur, Kalimantan Tengah",KALIMANTAN TENGAH,,Indonesia,,,,-1.879803,115.203332,https://maps.google.com/?cid=0x0:0x1484504cda7e646b,
perumahan,Pembangunan Perumahan,Rantau pusi,"33PX+P7F, Jl. RT 5 Rantau Pusi, Kupang Baru, Kec. Paku, Kabupaten Barito Timur, Kalimantan Tengah 73652","Jl. RT 5 Rantau Pusi, Kupang Baru, Kec. Paku, Kabupaten Barito Timur",KALIMANTAN TENGAH,73652.0,Indonesia,,,,-1.9131875,115.0981875,https://maps.google.com/?cid=0x0:0x26278d1446bf4612,
perumahan,Komplek perumahan,Rumah yudi,"36XC+M6, Kalamus, Kec. Paku, Kabupaten Barito Timur, Kalimantan Tengah","Kabupaten Barito Timur, Kalimantan Tengah",KALIMANTAN TENGAH,,Indonesia,,,,-1.9013696,115.2207976,https://maps.google.com/?cid=0x0:0x1bfc2978fb723e5,
perumahan,Pembangunan Perumahan,Pemukiman,"35CM+R55, Runggu Raya, Kec. Paku, Kabupaten Barito Timur, Kalimantan Tengah","Kabupaten Barito Timur, Kalimantan Tengah",KALIMANTAN TENGAH,,Indonesia,,,,-1.9279781,115.1829873,https://maps.google.com/?cid=0x0:0xbe60d1159b626dcc,
perumahan,Komplek perumahan,Habarianus,"45HC+3VH, Patung, Kec. Paku, Kabupaten Barito Timur, Kalimantan Tengah 73652","Patung, Kec. Paku, Kabupaten Barito Timur",KALIMANTAN TENGAH,73652.0,Indonesia,,,,-1.8723186,115.1722249,https://maps.google.com/?cid=0x0:0xc518df5651eaa079,
perumahan,Komplek perumahan,Mesriwanto ato,"45HC+M35, Patung, Kec. Paku, Kabupaten Barito Timur, Kalimantan Tengah 73652","Patung, Kec. Paku, Kabupaten Barito Timur",KALIMANTAN TENGAH,73652.0,Indonesia,,,,-1.8709893,115.1689006,https://maps.google.com/?cid=0x0:0x3c03afca97c20b70,
perumahan,perumahan,rumah ajonius bp briney,"36GH+5P, Paku Beto, Kec. Paku, Kabupaten Barito Timur, Kalimantan Tengah","Kabupaten Barito Timur, Kalimantan Tengah",KALIMANTAN TENGAH,,Indonesia,,,,-1.9241577,115.2291681,https://maps.google.com/?cid=0x0:0x10f1162c46ad5e7b,
perumahan,Komplek perumahan,Rumah Fedri,"365P+9J, Paku Beto, Kec. Paku, Kabupaten Barito Timur, Kalimantan Tengah","Kabupaten Barito Timur, Kalimantan Tengah",KALIMANTAN TENGAH,,Indonesia,,,,-1.9418888,115.2362435,https://maps.google.com/?cid=0x0:0x31f0444988fad2ce,
perumahan,Komplek perumahan,Lewu Ketti,"35WJ+JJX, Tampa, Kec. Paku, Kabupaten Barito Timur, Kalimantan Tengah","Kabupaten Barito Timur, Kalimantan Tengah",KALIMANTAN TENGAH,,Indonesia,,,,-1.903394,115.1816146,https://maps.google.com/?cid=0x0:0x5e17ab39a36df4cc,
perumahan,Komplek perumahan,SANUPIR KALAEAU,"46F2+9R, Pangkan, Kec. Paku, Kabupaten Barito Timur, Kalimantan Tengah","Kabupaten Barito Timur, Kalimantan Tengah",KALIMANTAN TENGAH,,Indonesia,,,,-1.876046,115.200944,https://maps.google.com/?cid=0x0:0x9ece738e1a6067ad,
perumahan,perumahan,"Rimun wawui, ponok dalung","35XQ+4J, Tampa, Kec. Paku, Kabupaten Barito Timur, Kalimantan Tengah","Kabupaten Barito Timur, Kalimantan Tengah",KALIMANTAN TENGAH,,Indonesia,,,,-1.9021903,115.1890832,https://maps.google.com/?cid=0x0:0x22c924f2290d3ca1,
perumahan,Rumah Kayu,Harianto amah rido,"46F3+64X, Pangkan, Kec. Paku, Kabupaten Barito Timur, Kalimantan Tengah 73652","Pangkan, Kec. Paku, Kabupaten Barito Timur",KALIMANTAN TENGAH,73652.0,Indonesia,,,,-1.876897,115.2028502,https://maps.google.com/?cid=0x0:0xc68fbe42da68381,
perumahan,Komplek perumahan,Lewu amah Ralin,"36QH+2JC, Kalamus, Kec. Paku, Kabupaten Barito Timur, Kalimantan Tengah","Kabupaten Barito Timur, Kalimantan Tengah",KALIMANTAN TENGAH,,Indonesia,,,,-1.9124282,115.2290141,https://maps.google.com/?cid=0x0:0xc2efe8da3234ad68,
perumahan,Komplek perumahan,"Rumah Bapa Kristo, SP.d, MM","3467+4F, Kupang Baru, Kec. Paku, Kabupaten Barito Timur, Kalimantan Tengah 73652","Kupang Baru, Kec. Paku, Kabupaten Barito Timur",KALIMANTAN TENGAH,73652.0,Indonesia,,,,-1.9397183,115.1136367,https://maps.google.com/?cid=0x0:0xed401e5f6a4ae71b,
perumahan,Komplek perumahan,Widi Karuehni,"36MH+976, Kalamus, Kec. Paku, Kabupaten Barito Timur, Kalimantan Tengah","Kabupaten Barito Timur, Kalimantan Tengah",KALIMANTAN TENGAH,,Indonesia,,,,-1.9165774,115.2281433,https://maps.google.com/?cid=0x0:0xca1a7ed3870cfa6d,
perumahan,Perhimpunan Pengembang Perumahan,Posyandu tarinsing,"34MJ+QH5, Tampa, Kec. Paku, Kabupaten Barito Timur, Kalimantan Tengah","Kabupaten Barito Timur, Kalimantan Tengah",KALIMANTAN TENGAH,,Indonesia,,,,-1.9156022,115.1314819,https://maps.google.com/?cid=0x0:0xc558a0613fe3bf9e,
perumahan,Pembangunan Perumahan,Kios Candra,"34PM+CX4, Tampa, Kec. Paku, Kabupaten Barito Timur, Kalimantan Tengah 73652","Tampa, Kec. Paku, Kabupaten Barito Timur",KALIMANTAN TENGAH,73652.0,Indonesia,,,,-1.913993,115.1349677,https://maps.google.com/?cid=0x0:0x4ead8a2aa6401ca4,
perumahan,Pembangunan Perumahan,Kantor Pusat Uah Buka,"4597+W6J, Jl. Tamiyang Layang - Ampah, Tampa, Kec. Paku, Kabupaten Barito Timur, Kalimantan Tengah 73652","Jl. Tamiyang Layang - Ampah, Tampa, Kec. Paku, Kabupaten Barito Timur",KALIMANTAN TENGAH,73652.0,Indonesia,,,,-1.8801474,115.1630177,https://maps.google.com/?cid=0x0:0xdaf0cf5d1a282507,
perumahan,perumahan,Kalimantan Tengah 73652,"Kabupaten Barito Timur, Kalimantan Tengah","Kabupaten Barito Timur, Kalimantan Tengah",KALIMANTAN TENGAH,,Indonesia,,,,-1.728424,115.188916,https://maps.google.com/?cid=0x0:0x3d093f0b990d2fde,
perumahan,perumahan,Kalimantan Tengah 73671,"Kabupaten Barito Timur, Kalimantan Tengah","Kabupaten Barito Timur, Kalimantan Tengah",KALIMANTAN TENGAH,,Indonesia,,,,-2.0472411,115.2363408,https://maps.google.com/?cid=0x0:0x1e460a71bb58cdc3,
perumahan,Komplek perumahan,Komplek Perumahan Pondok Indah 1,"W45X+2G9, Jl. Tamiyang Layang - Ampah, Sumur, Kec. Dusun Tim., Kabupaten Barito Timur, Kalimantan Tengah 73671","Jl. Tamiyang Layang - Ampah, Sumur, Kec. Dusun Tim., Kabupaten Barito Timur",KALIMANTAN TENGAH,73671.0,Indonesia,,,,-2.0924517,115.1488665,https://maps.google.com/?cid=0x0:0x8f2df3d4e63db725,
perumahan,perumahan,,,,KALIMANTAN TENGAH,,Indonesia,,,,,,https://maps.google.com/?cid=0x0:0xa09b32df8ca878d4,
perumahan,Komplek perumahan,Perumahan Pondok Karet Tamiang Layang,"V5PG+QPG, Tim., Kabupaten Barito, Tamiang Layang, Kec. Dusun Tim., Kabupaten Barito Timur, Kalimantan Tengah 73671","Tim., Kabupaten Barito, Tamiang Layang, Kec. Dusun Tim., Kabupaten Barito Timur",KALIMANTAN TENGAH,73671.0,Indonesia,,,,-2.1130545,115.1768148,https://maps.google.com/?cid=0x0:0xba2a56604b2de376,
perumahan,Gedung Apartemen,Rumah lentii,"W8X9+HVQ, Bentot, Kec. Patangkep Tutui, Kabupaten Barito Timur, Kalimantan Tengah","Kabupaten Barito Timur, Kalimantan Tengah",KALIMANTAN TENGAH,,Indonesia,,,,-2.0509314,115.3195629,https://maps.google.com/?cid=0x0:0xd771492fdb1e87fd,
perumahan,Komplek perumahan,Rumah Christe,"W888+C3J, Pulau Padang, Kec. Patangkep Tutui, Kabupaten Barito Timur, Kalimantan Tengah 73671","Pulau Padang, Kec. Patangkep Tutui, Kabupaten Barito Timur",KALIMANTAN TENGAH,73671.0,Indonesia,,,,-2.0839047,115.3151515,https://maps.google.com/?cid=0x0:0xafb6c14f846c607f,
perumahan,Perhimpunan Pengembang Perumahan,Tano,"Dorong, Kec. Dusun Tim., Kabupaten Barito Timur, Kalimantan Tengah 73671","Kec. Dusun Tim., Kabupaten Barito Timur",KALIMANTAN TENGAH,73671.0,Indonesia,,,,-2.0878644,115.2067011,https://maps.google.com/?cid=0x0:0xfa13ec9bd1c7ae21,
perumahan,Perumahan,Rumah ku,"komplek griya perintis, Jl. Baruh Rintis No.RT. 008 blok D6No, Matabu, Kec. Dusun Tim., Kabupaten Barito Timur, Kalimantan Tengah 73671","Jl. Baruh Rintis No.RT. 008 blok D6No, Matabu, Kec. Dusun Tim., Kabupaten Barito Timur",KALIMANTAN TENGAH,73671.0,Indonesia,,,,-2.1165894,115.1866551,https://maps.google.com/?cid=0x0:0x3cbd165dcbd089ba,
perumahan,Komplek perumahan,Rumah Hendro,"W878+JG6, Pulau Padang, Kec. Patangkep Tutui, Kabupaten Barito Timur, Kalimantan Tengah 73671","Pulau Padang, Kec. Patangkep Tutui, Kabupaten Barito Timur",KALIMANTAN TENGAH,73671.0,Indonesia,,,,-2.0859647,115.3162521,https://maps.google.com/?cid=0x0:0x41fd6256cda184b3,
perumahan,Komplek perumahan,Rumah Dayah,"W8H8+FQ3, Ramania, Kec. Patangkep Tutui, Kabupaten Barito Timur, Kalimantan Tengah 73671","Ramania, Kec. Patangkep Tutui, Kabupaten Barito Timur",KALIMANTAN TENGAH,73671.0,Indonesia,,,,-2.0721303,115.3169119,https://maps.google.com/?cid=0x0:0xf1f8a1f973db400b,
perumahan,Komplek perumahan,RUMAH KENZIE,"V5JF+WJM, Tamiang Layang, Kec. Dusun Tim., Kabupaten Barito Timur, Kalimantan Tengah 73671","Tamiang Layang, Kec. Dusun Tim., Kabupaten Barito Timur",KALIMANTAN TENGAH,73671.0,Indonesia, 085346026662,,,-2.1176572,115.1740353,https://maps.google.com/?cid=0x0:0x723824f8f59b6df4,
perumahan,Pembangunan Perumahan,Perumahan Griya Tamiang Makmur,"Tamiang Layang, Kec. Dusun Tim., Kabupaten Barito Timur, Kalimantan Tengah 73671","Kec. Dusun Tim., Kabupaten Barito Timur",KALIMANTAN TENGAH,73671.0,Indonesia, 082194879085,,,-2.0978279,115.1666336,https://maps.google.com/?cid=0x0:0xb29fc013b43146fe,
perumahan,Komplek perumahan,Siti Nurhidayah,"W8H8+FQ3, Ramania, Kec. Patangkep Tutui, Kabupaten Barito Timur, Kalimantan Tengah 73671","Ramania, Kec. Patangkep Tutui, Kabupaten Barito Timur",KALIMANTAN TENGAH,73671.0,Indonesia,,,,-2.0713625,115.3169219,https://maps.google.com/?cid=0x0:0xc8715ab2b17d88f8,
perumahan,Pembangunan Perumahan,Perumahan Rintis Permai | Cv. Mira Mandiri,"Matabu, Kec. Dusun Tim., Kabupaten Barito Timur, Kalimantan Tengah 73671","Kec. Dusun Tim., Kabupaten Barito Timur",KALIMANTAN TENGAH,73671.0,Indonesia, 081349463763,,,-2.1210646,115.1822164,https://maps.google.com/?cid=0x0:0xb123a62bad7f69f,
perumahan,Perhimpunan Pengembang Perumahan,Rumah Riayati,"X7QC+26, Tangkan, Kec. Awang, Kabupaten Barito Timur, Kalimantan Tengah 73671","Tangkan, Kec. Awang, Kabupaten Barito Timur",KALIMANTAN TENGAH,73671.0,Indonesia,,,,-2.0118983,115.2704027,https://maps.google.com/?cid=0x0:0x6e810d2a3f8884af,
perumahan,Komplek perumahan,Rumah ku,"V5R8+37F, Tamiang Layang, Kec. Dusun Tim., Kabupaten Barito Timur, Kalimantan Tengah 73671","Tamiang Layang, Kec. Dusun Tim., Kabupaten Barito Timur",KALIMANTAN TENGAH,73671.0,Indonesia,,,,-2.1098172,115.1656586,https://maps.google.com/?cid=0x0:0xdcc570f0c6a6c5b6,
perumahan,perumahan,Pantaruan's,"26JQ+6Q, Hayaping, Kec. Awang, Kabupaten Barito Timur, Kalimantan Tengah 73671","Hayaping, Kec. Awang, Kabupaten Barito Timur",KALIMANTAN TENGAH,73671.0,Indonesia,,,,-1.970017,115.239557,https://maps.google.com/?cid=0x0:0x73bb9d3d0738023,
perumahan,Komplek perumahan,Peho,"2755+73Q, Wungkur Nanakan, Kec. Awang, Kabupaten Barito Timur, Kalimantan Tengah 73671","Wungkur Nanakan, Kec. Awang, Kabupaten Barito Timur",KALIMANTAN TENGAH,73671.0,Indonesia,,,,-1.991793,115.2577367,https://maps.google.com/?cid=0x0:0x10c588e92d7cc55e,
perumahan,Komplek perumahan,Rumah itak yuda/maxim,"W8VF+G2, Bentot, Kec. Patangkep Tutui, Kabupaten Barito Timur, Kalimantan Tengah","Kabupaten Barito Timur, Kalimantan Tengah",KALIMANTAN TENGAH,,Indonesia,,,,-2.0548,115.322579,https://maps.google.com/?cid=0x0:0xa6c9d4f4a110ddd6,
perumahan,Komplek perumahan,RUMAH PRIBADI,"V5FV+43F, Mangkarap, Kec. Dusun Tim., Kabupaten Barito Timur, Kalimantan Tengah 73671","Mangkarap, Kec. Dusun Tim., Kabupaten Barito Timur",KALIMANTAN TENGAH,73671.0,Indonesia,,,,-2.1271919,115.1926655,https://maps.google.com/?cid=0x0:0xbadf2590874f259,
perumahan,Kantor Administrasi Kota,Desa Matarah,"W7X8+G9H, Matarah, Kec. Dusun Tim., Kabupaten Barito Timur, Kalimantan Tengah 73671","Matarah, Kec. Dusun Tim., Kabupaten Barito Timur",KALIMANTAN TENGAH,73671.0,Indonesia,,,,-2.0511963,115.2659777,https://maps.google.com/?cid=0x0:0x26f7be94099e5bc4,
perumahan,Perumahan,Rumah Angga Nisa Nurul,"V5HF+Q5X, Tamiang Layang, Kec. Dusun Tim., Kabupaten Barito Timur, Kalimantan Tengah 73671","Tamiang Layang, Kec. Dusun Tim., Kabupaten Barito Timur",KALIMANTAN TENGAH,73671.0,Indonesia,,,,-2.1214187,115.1731431,https://maps.google.com/?cid=0x0:0x8b338f12a3fe38a8,
perumahan,Komplek perumahan,Hartison Family,"W8RF+HXQ, Bentot, Kec. Patangkep Tutui, Kabupaten Barito Timur, Kalimantan Tengah","Kabupaten Barito Timur, Kalimantan Tengah",KALIMANTAN TENGAH,,Indonesia,,,,-2.0585313,115.3249803,https://maps.google.com/?cid=0x0:0x9cc5de78329dcdb2,
perumahan,perumahan,Kalimantan Tengah 73653,"Kabupaten Barito Selatan, Kalimantan Tengah","Kabupaten Barito Selatan, Kalimantan Tengah",KALIMANTAN TENGAH,,Indonesia,,,,-1.7491595,114.9754175,https://maps.google.com/?cid=0x0:0xd6ed047f12362357,
perumahan,perumahan,Drop Paket,"62VV+P87, Bambulung, Kec. Pematang Karau, Kabupaten Barito Timur, Kalimantan Tengah","Kabupaten Barito Timur, Kalimantan Tengah",KALIMANTAN TENGAH,,Indonesia,,,,-1.7557084,115.0433018,https://maps.google.com/?cid=0x0:0x896527c836023e3c,
perumahan,Komplek perumahan,Rumah Rayu,"53VM+QF4, Lampeong, Kec. Pematang Karau, Kabupaten Barito Timur, Kalimantan Tengah 73652","Lampeong, Kec. Pematang Karau, Kabupaten Barito Timur",KALIMANTAN TENGAH,73652.0,Indonesia,,,,-1.8061813,115.0836372,https://maps.google.com/?cid=0x0:0xcfaa44bd9fa9211b,
perumahan,Komplek perumahan,KINARA.N,"62VV+V8C, Bambulung, Kec. Pematang Karau, Kabupaten Barito Timur, Kalimantan Tengah 73653","Bambulung, Kec. Pematang Karau, Kabupaten Barito Timur",KALIMANTAN TENGAH,73653.0,Indonesia,,,,-1.7550734,115.0426932,https://maps.google.com/?cid=0x0:0xc4f3524a0ee0581c,
perumahan,Pembangunan Perumahan,Rumah Meydi/Abah Eel,"52PH+QHJ, Bambulung, Kec. Pematang Karau, Kabupaten Barito Timur, Kalimantan Tengah","Kabupaten Barito Timur, Kalimantan Tengah",KALIMANTAN TENGAH,,Indonesia,,,,-1.8130366,115.0288906,https://maps.google.com/?cid=0x0:0xfbbd057964556bae,
perumahan,Komplek perumahan,Rumah devin,"53JP+75, Muruduyung, Kec. Pematang Karau, Kabupaten Barito Timur, Kalimantan Tengah 73652","Muruduyung, Kec. Pematang Karau, Kabupaten Barito Timur",KALIMANTAN TENGAH,73652.0,Indonesia,,,,-1.8196717,115.0866945,https://maps.google.com/?cid=0x0:0xc93c2c291a16299,
perumahan,Pembangunan Perumahan,AISRS,"52QW+Q4F, Bambulung, Kec. Pematang Karau, Kabupaten Barito Timur, Kalimantan Tengah 73652","Bambulung, Kec. Pematang Karau, Kabupaten Barito Timur",KALIMANTAN TENGAH,73652.0,Indonesia,,,,-1.8101852,115.045474,https://maps.google.com/?cid=0x0:0x31fe0e008f9f7fd8,
perumahan,Komplek perumahan,Rumah Sarah,"Pinang Tunggal, Kec. Pematang Karau, Kabupaten Barito Timur, Kalimantan Tengah 73652","Kec. Pematang Karau, Kabupaten Barito Timur",KALIMANTAN TENGAH,73652.0,Indonesia,,,,-1.8333766,115.0468252,https://maps.google.com/?cid=0x0:0xbae831801373a756,
perumahan,Komplek perumahan,Rohmad,"62VV+V8C, Bambulung, Kec. Pematang Karau, Kabupaten Barito Timur, Kalimantan Tengah 73653","Bambulung, Kec. Pematang Karau, Kabupaten Barito Timur",KALIMANTAN TENGAH,73653.0,Indonesia,,,,-1.7548552,115.0431298,https://maps.google.com/?cid=0x0:0xb75cede6da1dbfbb,
perumahan,Pembangunan Perumahan,elis sunaryati,"52RW+48H, Bambulung, Kec. Pematang Karau, Kabupaten Barito Timur, Kalimantan Tengah 73652","Bambulung, Kec. Pematang Karau, Kabupaten Barito Timur",KALIMANTAN TENGAH,73652.0,Indonesia,,,,-1.8096976,115.0458532,https://maps.google.com/?cid=0x0:0x31ab861b4ff98674,
perumahan,Komplek perumahan,Rumah pak dwi keluarga,"624C+F9P, Bambulung, Kec. Pematang Karau, Kabupaten Barito Timur, Kalimantan Tengah 73653","Bambulung, Kec. Pematang Karau, Kabupaten Barito Timur",KALIMANTAN TENGAH,73653.0,Indonesia,,,,-1.7937949,115.0209673,https://maps.google.com/?cid=0x0:0xb77057ff65d14f78,
perumahan,Komplek perumahan,Regiananda,"52XF+PVM, Bambulung, Kec. Pematang Karau, Kabupaten Barito Timur, Kalimantan Tengah 73653","Bambulung, Kec. Pematang Karau, Kabupaten Barito Timur",KALIMANTAN TENGAH,73653.0,Indonesia,,,,-1.8006602,115.024671,https://maps.google.com/?cid=0x0:0xef1336d38a67c7d0,
perumahan,Perumahan,rumah rajuu gank,"627P+37P, Sumberejo, Kec. Pematang Karau, Kabupaten Barito Timur, Kalimantan Tengah","Kabupaten Barito Timur, Kalimantan Tengah",KALIMANTAN TENGAH,,Indonesia,,,,-1.7869623,115.0351237,https://maps.google.com/?cid=0x0:0x111f80700cf77dc9,
perumahan,Komplek perumahan,Nagaleah,"539Q+76X, Nagaleah, Kec. Pematang Karau, Kabupaten Barito Timur, Kalimantan Tengah 73652","Nagaleah, Kec. Pematang Karau, Kabupaten Barito Timur",KALIMANTAN TENGAH,73652.0,Indonesia,,,,-1.8317563,115.0881146,https://maps.google.com/?cid=0x0:0x866e3136b251f914,
perumahan,Perumahan,Ampah,"632R+FG, Lampeong, Kec. Pematang Karau, Kabupaten Barito Timur, Kalimantan Tengah 73652","Lampeong, Kec. Pematang Karau, Kabupaten Barito Timur",KALIMANTAN TENGAH,73652.0,Indonesia,,,,-1.7988509,115.0912827,https://maps.google.com/?cid=0x0:0x9eca3cd440303208,
perumahan,Komplek perumahan,Tejo_Mill,"62VV+V8C, Bambulung, Kec. Pematang Karau, Kabupaten Barito Timur, Kalimantan Tengah 73653","Bambulung, Kec. Pematang Karau, Kabupaten Barito Timur",KALIMANTAN TENGAH,73653.0,Indonesia,,,,-1.7550941,115.0429377,https://maps.google.com/?cid=0x0:0xc38f09cbd3356d69,
perumahan,Hotel,Rumah,"53X3+4QV Rt 1, Bambulung, Kec. Pematang Karau, Kabupaten Barito Timur, Kalimantan Tengah","Kabupaten Barito Timur, Kalimantan Tengah",KALIMANTAN TENGAH,,Indonesia,,,,-1.8021304,115.054433,https://maps.google.com/?cid=0x0:0xb189f753e6e91069,
perumahan,perumahan,Rumah/Mhmmd andy,"52MH+3RH, Buntok - Ampah, Bambulung, Kec. Pematang Karau, Kabupaten Barito Timur, Kalimantan Tengah 73653","Buntok - Ampah, Bambulung, Kec. Pematang Karau, Kabupaten Barito Timur",KALIMANTAN TENGAH,73653.0,Indonesia,,,,-1.8172985,115.0296691,https://maps.google.com/?cid=0x0:0x826a2c0b0ab047ab,
perumahan,Perhimpunan Pengembang Perumahan,Warung misna,"528W+V3W, Tuyau, Kec. Pematang Karau, Kabupaten Barito Timur, Kalimantan Tengah 73652","Tuyau, Kec. Pematang Karau, Kabupaten Barito Timur",KALIMANTAN TENGAH,73652.0,Indonesia,,,,-1.832775,115.0451933,https://maps.google.com/?cid=0x0:0xc4c344938c427a0d,
perumahan,Hotel,Bambulung,"53X2+4CC, Bambulung, Kec. Pematang Karau, Kabupaten Barito Timur, Kalimantan Tengah 73652","Bambulung, Kec. Pematang Karau, Kabupaten Barito Timur",KALIMANTAN TENGAH,73652.0,Indonesia,,,,-1.8021875,115.0510156,https://maps.google.com/?cid=0x0:0x8bf4ecbafaa81ca5,
perumahan,Komplek perumahan,Rumah Edrian May,"52PH+QGG, Bambulung, Kec. Pematang Karau, Kabupaten Barito Timur, Kalimantan Tengah","Kabupaten Barito Timur, Kalimantan Tengah",KALIMANTAN TENGAH,,Indonesia,,,,-1.8130502,115.0288427,https://maps.google.com/?cid=0x0:0xc74ab57598c9247a,
perumahan,Perumahan,Rumah Fauzan,"6437+8G, Tumpung Ulung, Kec. Pematang Karau, Kabupaten Barito Timur, Kalimantan Tengah 73653","Tumpung Ulung, Kec. Pematang Karau, Kabupaten Barito Timur",KALIMANTAN TENGAH,73653.0,Indonesia, 082251000765,,,-1.7966875,115.1138125,https://maps.google.com/?cid=0x0:0xf83c4174aafd2f5a,
perumahan,Komplek perumahan,I.bungsu,"52JM+HGC, Bambulung, Kec. Pematang Karau, Kabupaten Barito Timur, Kalimantan Tengah 73653","Bambulung, Kec. Pematang Karau, Kabupaten Barito Timur",KALIMANTAN TENGAH,73653.0,Indonesia,,,,-1.8185706,115.0337777,https://maps.google.com/?cid=0x0:0x1cdaab6a4831b01,
perumahan,perumahan,Kec. Raren Batuah,"Kabupaten Barito Timur, Kalimantan Tengah","Kabupaten Barito Timur, Kalimantan Tengah",KALIMANTAN TENGAH,,Indonesia,,,,-1.7435641,115.1517853,https://maps.google.com/?cid=0x0:0x581b014235e95caf,
perumahan,Komplek perumahan,Rumah Dadang Susilo,"8664+JMP, RT.01/RW.01, Sibung, Kec. Raren Batuah, Kabupaten Barito Timur, Kalimantan Tengah 73652","RT.01/RW.01, Sibung, Kec. Raren Batuah, Kabupaten Barito Timur",KALIMANTAN TENGAH,73652.0,Indonesia,,,,-1.6884053,115.2067011,https://maps.google.com/?cid=0x0:0xaaf3373496943ba,
perumahan,Toko,Rumah ARDONIS (Bpk.Enteng),"843R+2J9, Unnamed Road, Unsum, Kec. Raren Batuah, Kabupaten Barito Timur, Kalimantan Tengah 73652","Unnamed Road, Unsum, Kec. Raren Batuah, Kabupaten Barito Timur",KALIMANTAN TENGAH,73652.0,Indonesia, 082253089763,,,-1.6974582,115.1416161,https://maps.google.com/?cid=0x0:0x898792859b29ca9c,
perumahan,perumahan,auliarahmah,"756M+5Q, Batuah, Kec. Raren Batuah, Kabupaten Barito Timur, Kalimantan Tengah 73652","Batuah, Kec. Raren Batuah, Kabupaten Barito Timur",KALIMANTAN TENGAH,73652.0,Indonesia,,,,-1.7395824,115.184452,https://maps.google.com/?cid=0x0:0x9f7f93feaec5f0c4,
perumahan,Komplek perumahan,Rumah Cik Bodta,"75H3+X88, Lenggang, Kec. Raren Batuah, Kabupaten Barito Timur, Kalimantan Tengah 73652","Lenggang, Kec. Raren Batuah, Kabupaten Barito Timur",KALIMANTAN TENGAH,73652.0,Indonesia,,,,-1.7200838,115.1533426,https://maps.google.com/?cid=0x0:0x60969ff4d826a7e3,
perumahan,Pembangunan Perumahan,Putri,"75H3+Q8M, Lenggang, Kec. Raren Batuah, Kabupaten Barito Timur, Kalimantan Tengah 73652","Lenggang, Kec. Raren Batuah, Kabupaten Barito Timur",KALIMANTAN TENGAH,73652.0,Indonesia,,,,-1.7205431,115.1532814,https://maps.google.com/?cid=0x0:0xe4e056eae65ef3a9,
perumahan,Rumah Kayu,Aira home,"75H3+X88, Lenggang, Kec. Raren Batuah, Kabupaten Barito Timur, Kalimantan Tengah 73652","Lenggang, Kec. Raren Batuah, Kabupaten Barito Timur",KALIMANTAN TENGAH,73652.0,Indonesia,,,,-1.7200838,115.1533426,https://maps.google.com/?cid=0x0:0x1ddc2247a063a88e,
perumahan,Komplek perumahan,Servis elektronik,"85C5+GC9, Turan Amis, Kec. Raren Batuah, Kabupaten Barito Timur, Kalimantan Tengah 73652","Turan Amis, Kec. Raren Batuah, Kabupaten Barito Timur",KALIMANTAN TENGAH,73652.0,Indonesia,,,,-1.6787066,115.1585938,https://maps.google.com/?cid=0x0:0x64a98245ecb3421a,
perumahan,Perhimpunan Pengembang Perumahan,Rumah said,"758J+VHW, Batuah, Kec. Raren Batuah, Kabupaten Barito Timur, Kalimantan Tengah 73652","Batuah, Kec. Raren Batuah, Kabupaten Barito Timur",KALIMANTAN TENGAH,73652.0,Indonesia,,,,-1.7327657,115.181466,https://maps.google.com/?cid=0x0:0xec2054d15dac4a68,
perumahan,Komplek perumahan,Iwan kala lana,"84GX+6H, Unsum, Kec. Raren Batuah, Kabupaten Barito Timur, Kalimantan Tengah 73652","Unsum, Kec. Raren Batuah, Kabupaten Barito Timur",KALIMANTAN TENGAH,73652.0,Indonesia,,,,-1.6744132,115.1489925,https://maps.google.com/?cid=0x0:0x134f203961062c1e,
perumahan,Perhimpunan Pengembang Perumahan,Maya,"85WV+MWX, Baruyan, Kec. Raren Batuah, Kabupaten Barito Timur, Kalimantan Tengah 73652","Baruyan, Kec. Raren Batuah, Kabupaten Barito Timur",KALIMANTAN TENGAH,73652.0,Indonesia,,,,-1.6532519,115.1948445,https://maps.google.com/?cid=0x0:0xd74821522ecff154,
perumahan,perumahan,Rumah Cristia,"75HQ+QC4, Batuah, Kec. Raren Batuah, Kabupaten Barito Timur, Kalimantan Tengah 73652","Batuah, Kec. Raren Batuah, Kabupaten Barito Timur",KALIMANTAN TENGAH,73652.0,Indonesia,,,,-1.7206168,115.1885786,https://maps.google.com/?cid=0x0:0x739ff3a39ed79472,
perumahan,Perhimpunan Pengembang Perumahan,Desa ku,"8664+JMP, Sibung, Kec. Raren Batuah, Kabupaten Barito Timur, Kalimantan Tengah 73652","Sibung, Kec. Raren Batuah, Kabupaten Barito Timur",KALIMANTAN TENGAH,73652.0,Indonesia,,,,-1.6884053,115.2067011,https://maps.google.com/?cid=0x0:0xd7491211745a4da0,
perumahan,Komplek perumahan,HADIL ARIFIN Turan Amis Bartim PPL,"75V2+HW5, Lenggang, Kec. Raren Batuah, Kabupaten Barito Timur, Kalimantan Tengah 73652","Lenggang, Kec. Raren Batuah, Kabupaten Barito Timur",KALIMANTAN TENGAH,73652.0,Indonesia,,,,-1.7061085,115.1523651,https://maps.google.com/?cid=0x0:0x1c2a7c06d6acc8b2,
perumahan,Komplek perumahan,KARTINO,"749X+5FQ, Jl. Patas, Lenggang, Kec. Raren Batuah, Kabupaten Barito Timur, Kalimantan Tengah 73652","Jl. Patas, Lenggang, Kec. Raren Batuah, Kabupaten Barito Timur",KALIMANTAN TENGAH,73652.0,Indonesia,,,,-1.7313662,115.148207,https://maps.google.com/?cid=0x0:0xf6d9f0346abb0df0,
perumahan,Toko,House Ratna,"7562+73X, Puri, Kec. Raren Batuah, Kabupaten Barito Timur, Kalimantan Tengah 73652","Puri, Kec. Raren Batuah, Kabupaten Barito Timur",KALIMANTAN TENGAH,73652.0,Indonesia,,,,-1.7392604,115.1502344,https://maps.google.com/?cid=0x0:0x54821d136fcc01b0,
perumahan,perumahan,Patas,"85M2+QRX, Patas - Ampah, Baruyan, Kec. Raren Batuah, Kabupaten Barito Timur, Kalimantan Tengah","Kabupaten Barito Timur, Kalimantan Tengah",KALIMANTAN TENGAH,,Indonesia,,,,-1.6655001,115.152111,https://maps.google.com/?cid=0x0:0xda354f2095754ea6,
perumahan,Perhimpunan Pengembang Perumahan,Pak ri,"8595+WP2, Turan Amis, Kec. Raren Batuah, Kabupaten Barito Timur, Kalimantan Tengah 73652","Turan Amis, Kec. Raren Batuah, Kabupaten Barito Timur",KALIMANTAN TENGAH,73652.0,Indonesia,,,,-1.6802273,115.1592718,https://maps.google.com/?cid=0x0:0xd960433847aa9de3,
perumahan,Perhimpunan Pengembang Perumahan,Rumah Jeniiii,"848X+7C, Unsum, Kec. Raren Batuah, Kabupaten Barito Timur, Kalimantan Tengah","Kabupaten Barito Timur, Kalimantan Tengah",KALIMANTAN TENGAH,,Indonesia,,,,-1.684798,115.14816,https://maps.google.com/?cid=0x0:0xda6070989ebe3bdf,
perumahan,Komplek perumahan,Desa unsum,"845R+6PC, Unsum, Kec. Raren Batuah, Kabupaten Barito Timur, Kalimantan Tengah 73652","Unsum, Kec. Raren Batuah, Kabupaten Barito Timur",KALIMANTAN TENGAH,73652.0,Indonesia,,,,-1.692365,115.141319,https://maps.google.com/?cid=0x0:0x1aa17a72b47ffd93,
perumahan,Pembangunan Perumahan,Desa Unsum Kec.Raren Batuah Barito Timur,"846V+GM, Unsum, Kec. Raren Batuah, Kabupaten Barito Timur, Kalimantan Tengah","Kabupaten Barito Timur, Kalimantan Tengah",KALIMANTAN TENGAH,,Indonesia,,,,-1.688262,115.144073,https://maps.google.com/?cid=0x0:0x4c9ef6131b5c6d17,
perumahan,Perhimpunan Pengembang Perumahan,Jasa Servis HPPaket Data,"758J+XRC, Batuah, Kec. Raren Batuah, Kabupaten Barito Timur, Kalimantan Tengah 73652","Batuah, Kec. Raren Batuah, Kabupaten Barito Timur",KALIMANTAN TENGAH,73652.0,Indonesia, 082233020801,,,-1.7325552,115.182026,https://maps.google.com/?cid=0x0:0x66e2852e54a9eef3,
perumahan,perumahan,Mes PT BKI,"75H3+X88, Lenggang, Kec. Raren Batuah, Kabupaten Barito Timur, Kalimantan Tengah 73652","Lenggang, Kec. Raren Batuah, Kabupaten Barito Timur",KALIMANTAN TENGAH,73652.0,Indonesia,,,,-1.7200838,115.1533426,https://maps.google.com/?cid=0x0:0xddd7f954e9f4c346,
