Category,Real Category,Business Name,Address,City,State,Postal Code,Country,Phone,Latitude,Longitude,Map Link
cafe,cafe,Papua Bar. 98311,"Kec. Manokwari Tim., Kabupaten Manokwari, Papua Bar.","Kabupaten Manokwari, Papua Bar.",PAPUA BARAT,,Indonesia,,-0.853122,134.1102895,https://maps.google.com/?cid=0x0:0x327a91d22239a4d5
cafe,Kafe,Bukit Coffee  Resto Manokwari,"Jl. Gn. Salju, Amban, Kec. Manokwari Bar., Kabupaten Manokwari, Papua Bar. 98311","Amban, Kec. Manokwari Bar., Kabupaten Manokwari",PAPUA BARAT,98311.0,Indonesia,,-0.8452551,134.0664679,https://maps.google.com/?cid=0x0:0x2babb9104b5505f
cafe,Pujasera,Torang Kofie Manokwari,"Jl. Yos Sudarso No.8, Manokwari Bar., Kec. Manokwari Bar., Kabupaten Manokwari, Papua Bar. 98312","Manokwari Bar., Kec. Manokwari Bar., Kabupaten Manokwari",PAPUA BARAT,98312.0,Indonesia,8114869988.0,-0.8568949,134.0673228,https://maps.google.com/?cid=0x0:0xf637fe327424a42
cafe,Indonesia,Cafe Pantai Fasharkan TNI AL,"43H9+C4, Sanggeng, Kec. Manokwari Bar., Kabupaten Manokwari, Papua Bar.","Kabupaten Manokwari, Papua Bar.",PAPUA BARAT,,Indonesia,,-0.8715115,134.0678559,https://maps.google.com/?cid=0x0:0x7da1dcd9f7d226d3
cafe,Restoran,Cafe Laut,"Jl. Pasir Putih No.7, Pasir Putih, Kec. Manokwari Tim., Kabupaten Manokwari, Papua Bar. 98313","Pasir Putih, Kec. Manokwari Tim., Kabupaten Manokwari",PAPUA BARAT,98313.0,Indonesia,,-0.8790277,134.0896794,https://maps.google.com/?cid=0x0:0xd7761569d030427e
cafe,Restoran,Billy Cafe,"Jl. Merdeka No.57, Padarni, Kec. Manokwari Bar., Kabupaten Manokwari, Papua Bar. 98312","Padarni, Kec. Manokwari Bar., Kabupaten Manokwari",PAPUA BARAT,98312.0,Indonesia,81240501959.0,-0.8596376,134.0734046,https://maps.google.com/?cid=0x0:0x245b68c7c99f326f
cafe,Kedai Kopi,KOPIkir Sendiri Cafe,"425R+QWW Kantor bupati, Sowi, Distrik Manokwari, Kabupaten Manokwari, Papua Bar.","Kabupaten Manokwari, Papua Bar.",PAPUA BARAT,,Indonesia,81354179269.0,-0.8905188,134.0423211,https://maps.google.com/?cid=0x0:0xe18448fb10dff5fd
cafe,Kedai Kopi,Kandera Cafe,"Jalan Reremi Permai No.50, Manokwari Bar., Kec. Manokwari Bar., Kabupaten Manokwari, Papua Bar. 98312","Manokwari Bar., Kec. Manokwari Bar., Kabupaten Manokwari",PAPUA BARAT,98312.0,Indonesia,85244067676.0,-0.8614531,134.0620421,https://maps.google.com/?cid=0x0:0x3df0d0628479781f
cafe,cafe,New Calais Cafe,"Jl. Jend. Sudirman No.92, Padarni, Kec. Manokwari Bar., Kabupaten Manokwari, Papua Bar. 98312","Padarni, Kec. Manokwari Bar., Kabupaten Manokwari",PAPUA BARAT,98312.0,Indonesia,2180629666.0,-0.8561587,134.0698943,https://maps.google.com/?cid=0x0:0x7e171e315fe44cb2
cafe,cafe,RedDoorz near Reremi Pemancar Manokwari,"JL. Ekonomi Reremi Manokwari, SMKN 3, Kabupaten Manokwari, Papua Bar. 98312","SMKN 3, Kabupaten Manokwari",PAPUA BARAT,98312.0,Indonesia,895417300072.0,-0.8564389,134.0627895,https://maps.google.com/?cid=0x0:0xe2ead707b1bdd259
cafe,cafe,Hotel Triton,"Jl. Gn. Salju No.6, Manokwari Bar., Kec. Manokwari Bar., Kabupaten Manokwari, Papua Bar. 98311","Manokwari Bar., Kec. Manokwari Bar., Kabupaten Manokwari",PAPUA BARAT,98311.0,Indonesia,986212666.0,-0.8532727,134.068781,https://maps.google.com/?cid=0x0:0x6021b02b4fb20af
cafe,cafe,Hotel Rama,"42JW+GWX, Jl. Trikora Rendani, Wosi, Kec. Manokwari Bar., Kabupaten Manokwari, Papua Bar. 98312","Jl. Trikora Rendani, Wosi, Kec. Manokwari Bar., Kabupaten Manokwari",PAPUA BARAT,98312.0,Indonesia,,-0.8686391,134.0473473,https://maps.google.com/?cid=0x0:0xbc8387651670c591
cafe,cafe,The Alexander Hotel,"43V9+HX4, Jl. Jend. Sudirman, Padarni, Kec. Manokwari Bar., Kabupaten Manokwari, Papua Bar. 98312","Jl. Jend. Sudirman, Padarni, Kec. Manokwari Bar., Kabupaten Manokwari",PAPUA BARAT,98312.0,Indonesia,9862214551.0,-0.8561036,134.06994,https://maps.google.com/?cid=0x0:0xdc6bdc355d4e63ab
cafe,cafe,RedDoorz near Jalan Yos Sudarso Manokwari,"Jl. Pahlawan No.88, Sanggeng, Kec. Manokwari Bar., Kabupaten Manokwari, Papua Bar. 98312","Sanggeng, Kec. Manokwari Bar., Kabupaten Manokwari",PAPUA BARAT,98312.0,Indonesia,2180629666.0,-0.8661016,134.0598053,https://maps.google.com/?cid=0x0:0xd186d17c4dbb51c
cafe,cafe,Papua Bar. 98312,"Kabupaten Manokwari, Papua Bar.","Kabupaten Manokwari, Papua Bar.",PAPUA BARAT,,Indonesia,,-0.8581559,134.0008674,https://maps.google.com/?cid=0x0:0x55f33f0d52b5b6d0
cafe,Kafe,BATAS KOFFIE,"Gg. Gorong-Gorong, Wosi, Kec. Manokwari Bar., Kabupaten Manokwari, Papua Bar. 98312","Wosi, Kec. Manokwari Bar., Kabupaten Manokwari",PAPUA BARAT,98312.0,Indonesia,82111181802.0,-0.8604385,134.0479228,https://maps.google.com/?cid=0x0:0xf1837bea92b6d291
cafe,Minimarket,RPM - Ropang Plus Manokwari,"Reremi Permai KPR, Manokwari Barat, Manokwari Regency, West Papua 98312","Manokwari Barat, Manokwari Regency",PAPUA BARAT,98312.0,Indonesia,82288884887.0,-0.8614531,134.0620421,https://maps.google.com/?cid=0x0:0xdd26e7ae1aa9865c
cafe,cafe,RedDoorz near Reremi Pemancar Manokwari,"JL. Ekonomi Reremi Manokwari, SMKN 3, Kabupaten Manokwari, Papua Bar. 98312","SMKN 3, Kabupaten Manokwari",PAPUA BARAT,98312.0,Indonesia,895417300072.0,-0.8564389,134.0627895,https://maps.google.com/?cid=0x0:0xe2ead707b1bdd259
cafe,cafe,Hotel Triton,"Jl. Gn. Salju No.6, Manokwari Bar., Kec. Manokwari Bar., Kabupaten Manokwari, Papua Bar. 98311","Manokwari Bar., Kec. Manokwari Bar., Kabupaten Manokwari",PAPUA BARAT,98311.0,Indonesia,986212666.0,-0.8532727,134.068781,https://maps.google.com/?cid=0x0:0x6021b02b4fb20af
cafe,cafe,Hotel Rama,"42JW+GWX, Jl. Trikora Rendani, Wosi, Kec. Manokwari Bar., Kabupaten Manokwari, Papua Bar. 98312","Jl. Trikora Rendani, Wosi, Kec. Manokwari Bar., Kabupaten Manokwari",PAPUA BARAT,98312.0,Indonesia,,-0.8686391,134.0473473,https://maps.google.com/?cid=0x0:0xbc8387651670c591
cafe,cafe,The Alexander Hotel,"43V9+HX4, Jl. Jend. Sudirman, Padarni, Kec. Manokwari Bar., Kabupaten Manokwari, Papua Bar. 98312","Jl. Jend. Sudirman, Padarni, Kec. Manokwari Bar., Kabupaten Manokwari",PAPUA BARAT,98312.0,Indonesia,9862214551.0,-0.8561036,134.06994,https://maps.google.com/?cid=0x0:0xdc6bdc355d4e63ab
cafe,cafe,RedDoorz near Jalan Yos Sudarso Manokwari,"Jl. Pahlawan No.88, Sanggeng, Kec. Manokwari Bar., Kabupaten Manokwari, Papua Bar. 98312","Sanggeng, Kec. Manokwari Bar., Kabupaten Manokwari",PAPUA BARAT,98312.0,Indonesia,2180629666.0,-0.8661016,134.0598053,https://maps.google.com/?cid=0x0:0xd186d17c4dbb51c
cafe,cafe,Lin Hotel,"Jl. Merdeka, Padarni, Kec. Manokwari Bar., Kabupaten Manokwari, Papua Bar. 98312","Padarni, Kec. Manokwari Bar., Kabupaten Manokwari",PAPUA BARAT,98312.0,Indonesia,9862210524.0,-0.8548281,134.0697853,https://maps.google.com/?cid=0x0:0xed579408172519e3
cafe,cafe,Billy Jaya Hotel,"43RF+3C6, Jl. Merdeka, Padarni, Kec. Manokwari Bar., Kabupaten Manokwari, Papua Bar. 98312","Jl. Merdeka, Padarni, Kec. Manokwari Bar., Kabupaten Manokwari",PAPUA BARAT,98312.0,Indonesia,82198029508.0,-0.8598283,134.0735063,https://maps.google.com/?cid=0x0:0x660c895db907e9f4
cafe,cafe,Oriestom Bay Hotel,"43F2+G29, Jl. Trikora Rendani, Wosi, Kec. Manokwari Bar., Kabupaten Manokwari, Papua Bar. 98312","Jl. Trikora Rendani, Wosi, Kec. Manokwari Bar., Kabupaten Manokwari",PAPUA BARAT,98312.0,Indonesia,81240197780.0,-0.8762108,134.0501061,https://maps.google.com/?cid=0x0:0x8bd50034329ebf97
cafe,cafe,Valdos Hotel Manokwari,"43J5+F44, Jl. Trikora Wosi, Wosi, Kec. Manokwari Bar., Kabupaten Manokwari, Papua Bar. 98312","Jl. Trikora Wosi, Wosi, Kec. Manokwari Bar., Kabupaten Manokwari",PAPUA BARAT,98312.0,Indonesia,986213044.0,-0.8688721,134.0578193,https://maps.google.com/?cid=0x0:0x60b28ba9ef2d716e
cafe,cafe,Pulau Mansinam,"Mansinam, Kec. Manokwari Tim., Kabupaten Manokwari, Papua Bar.","Kabupaten Manokwari, Papua Bar.",PAPUA BARAT,,Indonesia,,-0.9141667,134.1083333,https://maps.google.com/?cid=0x0:0x94a3a276c08ef3eb
cafe,Pujasera,Torang Kofie Manokwari,"Jl. Yos Sudarso No.8, Manokwari Bar., Kec. Manokwari Bar., Kabupaten Manokwari, Papua Bar. 98312","Manokwari Bar., Kec. Manokwari Bar., Kabupaten Manokwari",PAPUA BARAT,98312.0,Indonesia,8114869988.0,-0.8568949,134.0673228,https://maps.google.com/?cid=0x0:0xf637fe327424a42
cafe,cafe,Papua Bar. 98314,"Amban, Kec. Manokwari Bar., Kabupaten Manokwari, Papua Bar.","Kabupaten Manokwari, Papua Bar.",PAPUA BARAT,,Indonesia,,-0.8229506,134.0484728,https://maps.google.com/?cid=0x0:0xf25e0ecc06fa0aa1
cafe,Kafe,Wilchof Cafe,"Manokwari Tim., Kec. Manokwari Bar., Kabupaten Manokwari, Papua Bar. 98312","Kec. Manokwari Bar., Kabupaten Manokwari",PAPUA BARAT,98312.0,Indonesia,8124801913.0,-0.8418764,134.0699628,https://maps.google.com/?cid=0x0:0xdf7fa1241fcb9fab
cafe,Kafe,TanyaKopi_Mkw,"53PG+3HF, Pantai, Amban, Kec. Manokwari Bar., Kabupaten Manokwari, Papua Bar. 98314","Pantai, Amban, Kec. Manokwari Bar., Kabupaten Manokwari",PAPUA BARAT,98314.0,Indonesia,,-0.8146325,134.0758623,https://maps.google.com/?cid=0x0:0xff2bf54c921a1311
cafe,Kafe,Bukit Coffee  Resto Manokwari,"Jl. Gn. Salju, Amban, Kec. Manokwari Bar., Kabupaten Manokwari, Papua Bar. 98311","Amban, Kec. Manokwari Bar., Kabupaten Manokwari",PAPUA BARAT,98311.0,Indonesia,,-0.8452551,134.0664679,https://maps.google.com/?cid=0x0:0x2babb9104b5505f
cafe,Kedai Kopi,Koteka Coffee,"Jl. Gn. Salju, Amban, Kec. Manokwari Bar., Kabupaten Manokwari, Papua Bar. 98312","Amban, Kec. Manokwari Bar., Kabupaten Manokwari",PAPUA BARAT,98312.0,Indonesia,,-0.8438197,134.067053,https://maps.google.com/?cid=0x0:0x48ea82233d71529f
cafe,Kedai Kopi,Surfing Cafe,"JlN. Lewi Mandacan, Amban, Kec. Manokwari Bar., Kabupaten Manokwari, Papua Bar. 98314","Amban, Kec. Manokwari Bar., Kabupaten Manokwari",PAPUA BARAT,98314.0,Indonesia,,-0.8147616,134.0782357,https://maps.google.com/?cid=0x0:0xed656a72d9318d48
cafe,Kedai Kopi,Sorabi Beach Cafe,"53PF+3GP, Amban, Kec. Manokwari Bar., Kabupaten Manokwari, Papua Bar. 98314","Amban, Kec. Manokwari Bar., Kabupaten Manokwari",PAPUA BARAT,98314.0,Indonesia,,-0.8147847,134.0738332,https://maps.google.com/?cid=0x0:0x39b060a0859a06f9
cafe,Kedai Kopi,Pondok Kopi Matoa,"Jl. Gn. Salju, Amban, Kec. Manokwari Bar., Kabupaten Manokwari, Papua Bar. 98314","Amban, Kec. Manokwari Bar., Kabupaten Manokwari",PAPUA BARAT,98314.0,Indonesia,8114860000.0,-0.8369567,134.0586793,https://maps.google.com/?cid=0x0:0xc2d60275e273b8e2
cafe,Kedai Kopi,Coffee Shop Ss,"Jl. Kebun Cengkeh No.L7, irman jaya, Kec. Manokwari Bar., Kabupaten Manokwari, Papua Bar. 98312","irman jaya, Kec. Manokwari Bar., Kabupaten Manokwari",PAPUA BARAT,98312.0,Indonesia,,-0.8400307,134.0536764,https://maps.google.com/?cid=0x0:0x6af1aabb6b0c17cd
cafe,Kedai Kopi,Bongkard Coffee,"Amban, Kec. Manokwari Bar., Kabupaten Manokwari, Papua Bar. 98312","Kec. Manokwari Bar., Kabupaten Manokwari",PAPUA BARAT,98312.0,Indonesia,81344553008.0,-0.8435362,134.0551732,https://maps.google.com/?cid=0x0:0x30927fa86799b21f
cafe,Kafe,ZERO,"5385+28M, Amban, Kec. Manokwari Bar., Kabupaten Manokwari, Papua Bar. 98314","Amban, Kec. Manokwari Bar., Kabupaten Manokwari",PAPUA BARAT,98314.0,Indonesia,81386205693.0,-0.8349884,134.0584323,https://maps.google.com/?cid=0x0:0xfef7cd1c198a7d26
cafe,Kafe,HONAI KOPI,"Jl. Angkasa Mulyono, Amban, Kec. Manokwari Bar., Kabupaten Manokwari, Papua Bar. 98312","Amban, Kec. Manokwari Bar., Kabupaten Manokwari",PAPUA BARAT,98312.0,Indonesia,82198853071.0,-0.8440426,134.0548234,https://maps.google.com/?cid=0x0:0xc2bdbdcd3365a4df
cafe,Kafe,KOTIBA Coffee,"Jl. Manunggal, Besar, Kec. Manokwari Bar., Kabupaten Manokwari, Papua Bar. 98314","Besar, Kec. Manokwari Bar., Kabupaten Manokwari",PAPUA BARAT,98314.0,Indonesia,81354003189.0,-0.8330291,134.0606743,https://maps.google.com/?cid=0x0:0x517f3eacdcba0091
cafe,Pujasera,Torang Kofie Manokwari,"Jl. Yos Sudarso No.8, Manokwari Bar., Kec. Manokwari Bar., Kabupaten Manokwari, Papua Bar. 98312","Manokwari Bar., Kec. Manokwari Bar., Kabupaten Manokwari",PAPUA BARAT,98312.0,Indonesia,8114869988.0,-0.8568949,134.0673228,https://maps.google.com/?cid=0x0:0xf637fe327424a42
cafe,cafe,Distrik Manokwari,"Kabupaten Manokwari, Papua Bar.","Kabupaten Manokwari, Papua Bar.",PAPUA BARAT,,Indonesia,,-0.8912103,134.046322,https://maps.google.com/?cid=0x0:0x25e95a286c9053b8
cafe,Kedai Kopi,CAFFE PANDOS,"32FV+MGC pantai dosa arfai, Anday, Distrik Manokwari, Kabupaten Manokwari, Papua Bar. 98315","Anday, Distrik Manokwari, Kabupaten Manokwari",PAPUA BARAT,98315.0,Indonesia,,-0.9258218,134.0437809,https://maps.google.com/?cid=0x0:0x17b3e75a07d288a0
cafe,Kedai Kopi,Vetcoffee,"Sowi, Distrik Manokwari, Kabupaten Manokwari, Papua Bar. 98315","Distrik Manokwari, Kabupaten Manokwari",PAPUA BARAT,98315.0,Indonesia,81355937646.0,-0.8867838,134.0463915,https://maps.google.com/?cid=0x0:0x99b834a0ad36b9d9
cafe,Kafe,Coffee Master,"Jl. Trikora Rendani, Wosi, Kec. Manokwari Bar., Kabupaten Manokwari, Papua Bar. 98312","Wosi, Kec. Manokwari Bar., Kabupaten Manokwari",PAPUA BARAT,98312.0,Indonesia,,-0.8766051,134.0501093,https://maps.google.com/?cid=0x0:0xf763f8acf00553b5
cafe,Indonesia,Cafe Pantai Fasharkan TNI AL,"43H9+C4, Sanggeng, Kec. Manokwari Bar., Kabupaten Manokwari, Papua Bar.","Kabupaten Manokwari, Papua Bar.",PAPUA BARAT,,Indonesia,,-0.8715115,134.0678559,https://maps.google.com/?cid=0x0:0x7da1dcd9f7d226d3
cafe,cafe,New Calais Cafe,"Jl. Jend. Sudirman No.92, Padarni, Kec. Manokwari Bar., Kabupaten Manokwari, Papua Bar. 98312","Padarni, Kec. Manokwari Bar., Kabupaten Manokwari",PAPUA BARAT,98312.0,Indonesia,2180629666.0,-0.8561587,134.0698943,https://maps.google.com/?cid=0x0:0x7e171e315fe44cb2
cafe,cafe,RedDoorz near Reremi Pemancar Manokwari,"JL. Ekonomi Reremi Manokwari, SMKN 3, Kabupaten Manokwari, Papua Bar. 98312","SMKN 3, Kabupaten Manokwari",PAPUA BARAT,98312.0,Indonesia,895417300072.0,-0.8564389,134.0627895,https://maps.google.com/?cid=0x0:0xe2ead707b1bdd259
cafe,cafe,Hotel Triton,"Jl. Gn. Salju No.6, Manokwari Bar., Kec. Manokwari Bar., Kabupaten Manokwari, Papua Bar. 98311","Manokwari Bar., Kec. Manokwari Bar., Kabupaten Manokwari",PAPUA BARAT,98311.0,Indonesia,986212666.0,-0.8532727,134.068781,https://maps.google.com/?cid=0x0:0x6021b02b4fb20af
cafe,cafe,Hotel Rama,"42JW+GWX, Jl. Trikora Rendani, Wosi, Kec. Manokwari Bar., Kabupaten Manokwari, Papua Bar. 98312","Jl. Trikora Rendani, Wosi, Kec. Manokwari Bar., Kabupaten Manokwari",PAPUA BARAT,98312.0,Indonesia,,-0.8686391,134.0473473,https://maps.google.com/?cid=0x0:0xbc8387651670c591
cafe,cafe,RedDoorz near Jalan Yos Sudarso Manokwari,"Jl. Pahlawan No.88, Sanggeng, Kec. Manokwari Bar., Kabupaten Manokwari, Papua Bar. 98312","Sanggeng, Kec. Manokwari Bar., Kabupaten Manokwari",PAPUA BARAT,98312.0,Indonesia,2180629666.0,-0.8661016,134.0598053,https://maps.google.com/?cid=0x0:0xd186d17c4dbb51c
cafe,cafe,The Alexander Hotel,"43V9+HX4, Jl. Jend. Sudirman, Padarni, Kec. Manokwari Bar., Kabupaten Manokwari, Papua Bar. 98312","Jl. Jend. Sudirman, Padarni, Kec. Manokwari Bar., Kabupaten Manokwari",PAPUA BARAT,98312.0,Indonesia,9862214551.0,-0.8561036,134.06994,https://maps.google.com/?cid=0x0:0xdc6bdc355d4e63ab
cafe,cafe,Lin Hotel,"Jl. Merdeka, Padarni, Kec. Manokwari Bar., Kabupaten Manokwari, Papua Bar. 98312","Padarni, Kec. Manokwari Bar., Kabupaten Manokwari",PAPUA BARAT,98312.0,Indonesia,9862210524.0,-0.8548281,134.0697853,https://maps.google.com/?cid=0x0:0xed579408172519e3
cafe,cafe,Oriestom Bay Hotel,"43F2+G29, Jl. Trikora Rendani, Wosi, Kec. Manokwari Bar., Kabupaten Manokwari, Papua Bar. 98312","Jl. Trikora Rendani, Wosi, Kec. Manokwari Bar., Kabupaten Manokwari",PAPUA BARAT,98312.0,Indonesia,81240197780.0,-0.8762108,134.0501061,https://maps.google.com/?cid=0x0:0x8bd50034329ebf97
cafe,cafe,Billy Jaya Hotel,"43RF+3C6, Jl. Merdeka, Padarni, Kec. Manokwari Bar., Kabupaten Manokwari, Papua Bar. 98312","Jl. Merdeka, Padarni, Kec. Manokwari Bar., Kabupaten Manokwari",PAPUA BARAT,98312.0,Indonesia,82198029508.0,-0.8598283,134.0735063,https://maps.google.com/?cid=0x0:0x660c895db907e9f4
cafe,cafe,Papua Bar. 98311,"Kec. Manokwari Tim., Kabupaten Manokwari, Papua Bar.","Kabupaten Manokwari, Papua Bar.",PAPUA BARAT,,Indonesia,,-0.853122,134.1102895,https://maps.google.com/?cid=0x0:0x327a91d22239a4d5
cafe,Restoran,Cafe Laut,"Jl. Pasir Putih No.7, Pasir Putih, Kec. Manokwari Tim., Kabupaten Manokwari, Papua Bar. 98313","Pasir Putih, Kec. Manokwari Tim., Kabupaten Manokwari",PAPUA BARAT,98313.0,Indonesia,,-0.8790277,134.0896794,https://maps.google.com/?cid=0x0:0xd7761569d030427e
cafe,Kafe,Jejak Cafe,"43MH+F59, Manokwari Tim., Kec. Manokwari Tim., Kabupaten Manokwari, Papua Bar.","Kabupaten Manokwari, Papua Bar.",PAPUA BARAT,,Indonesia,,-0.8664834,134.0775451,https://maps.google.com/?cid=0x0:0x2651f14540af0da4
cafe,Kafe,Wilchof Cafe,"Manokwari Tim., Kec. Manokwari Bar., Kabupaten Manokwari, Papua Bar. 98312","Kec. Manokwari Bar., Kabupaten Manokwari",PAPUA BARAT,98312.0,Indonesia,8124801913.0,-0.8418764,134.0699628,https://maps.google.com/?cid=0x0:0xdf7fa1241fcb9fab
cafe,Pujasera,Torang Kofie Manokwari,"Jl. Yos Sudarso No.8, Manokwari Bar., Kec. Manokwari Bar., Kabupaten Manokwari, Papua Bar. 98312","Manokwari Bar., Kec. Manokwari Bar., Kabupaten Manokwari",PAPUA BARAT,98312.0,Indonesia,8114869988.0,-0.8568949,134.0673228,https://maps.google.com/?cid=0x0:0xf637fe327424a42
cafe,Kafe,Dorebai Resto and Cafe,"43GM+64J, Pasir Putih, Kec. Manokwari Tim., Kabupaten Manokwari, Papua Bar. 98311","Pasir Putih, Kec. Manokwari Tim., Kabupaten Manokwari",PAPUA BARAT,98311.0,Indonesia,81247404115.0,-0.8744127,134.0827653,https://maps.google.com/?cid=0x0:0x58fa2cffd12bf8c2
cafe,Kafe,Cafe Ketapang Lima (CafeK5),"44J5+3JR, Pantai, Pasir Putih, Kec. Manokwari Tim., Kabupaten Manokwari, Papua Bar. 98313","Pantai, Pasir Putih, Kec. Manokwari Tim., Kabupaten Manokwari",PAPUA BARAT,98313.0,Indonesia,,-0.8697614,134.1090098,https://maps.google.com/?cid=0x0:0x70851c779f329034
cafe,cafe,New Calais Cafe,"Jl. Jend. Sudirman No.92, Padarni, Kec. Manokwari Bar., Kabupaten Manokwari, Papua Bar. 98312","Padarni, Kec. Manokwari Bar., Kabupaten Manokwari",PAPUA BARAT,98312.0,Indonesia,2180629666.0,-0.8561587,134.0698943,https://maps.google.com/?cid=0x0:0x7e171e315fe44cb2
cafe,cafe,RedDoorz near Reremi Pemancar Manokwari,"JL. Ekonomi Reremi Manokwari, SMKN 3, Kabupaten Manokwari, Papua Bar. 98312","SMKN 3, Kabupaten Manokwari",PAPUA BARAT,98312.0,Indonesia,895417300072.0,-0.8564389,134.0627895,https://maps.google.com/?cid=0x0:0xe2ead707b1bdd259
cafe,cafe,Hotel Triton,"Jl. Gn. Salju No.6, Manokwari Bar., Kec. Manokwari Bar., Kabupaten Manokwari, Papua Bar. 98311","Manokwari Bar., Kec. Manokwari Bar., Kabupaten Manokwari",PAPUA BARAT,98311.0,Indonesia,986212666.0,-0.8532727,134.068781,https://maps.google.com/?cid=0x0:0x6021b02b4fb20af
cafe,cafe,Hotel Rama,"42JW+GWX, Jl. Trikora Rendani, Wosi, Kec. Manokwari Bar., Kabupaten Manokwari, Papua Bar. 98312","Jl. Trikora Rendani, Wosi, Kec. Manokwari Bar., Kabupaten Manokwari",PAPUA BARAT,98312.0,Indonesia,,-0.8686391,134.0473473,https://maps.google.com/?cid=0x0:0xbc8387651670c591
cafe,cafe,The Alexander Hotel,"43V9+HX4, Jl. Jend. Sudirman, Padarni, Kec. Manokwari Bar., Kabupaten Manokwari, Papua Bar. 98312","Jl. Jend. Sudirman, Padarni, Kec. Manokwari Bar., Kabupaten Manokwari",PAPUA BARAT,98312.0,Indonesia,9862214551.0,-0.8561036,134.06994,https://maps.google.com/?cid=0x0:0xdc6bdc355d4e63ab
cafe,cafe,RedDoorz near Jalan Yos Sudarso Manokwari,"Jl. Pahlawan No.88, Sanggeng, Kec. Manokwari Bar., Kabupaten Manokwari, Papua Bar. 98312","Sanggeng, Kec. Manokwari Bar., Kabupaten Manokwari",PAPUA BARAT,98312.0,Indonesia,2180629666.0,-0.8661016,134.0598053,https://maps.google.com/?cid=0x0:0xd186d17c4dbb51c
cafe,cafe,Lin Hotel,"Jl. Merdeka, Padarni, Kec. Manokwari Bar., Kabupaten Manokwari, Papua Bar. 98312","Padarni, Kec. Manokwari Bar., Kabupaten Manokwari",PAPUA BARAT,98312.0,Indonesia,9862210524.0,-0.8548281,134.0697853,https://maps.google.com/?cid=0x0:0xed579408172519e3
cafe,cafe,Papua Bar. 98313,"Kec. Manokwari Tim., Kabupaten Manokwari, Papua Bar.","Kabupaten Manokwari, Papua Bar.",PAPUA BARAT,,Indonesia,,-0.8667845,134.1197927,https://maps.google.com/?cid=0x0:0xc87b5f10f76e2d0f
cafe,Restoran,Cafe Laut,"Jl. Pasir Putih No.7, Pasir Putih, Kec. Manokwari Tim., Kabupaten Manokwari, Papua Bar. 98313","Pasir Putih, Kec. Manokwari Tim., Kabupaten Manokwari",PAPUA BARAT,98313.0,Indonesia,,-0.8790277,134.0896794,https://maps.google.com/?cid=0x0:0xd7761569d030427e
cafe,cafe,New Calais Cafe,"Jl. Jend. Sudirman No.92, Padarni, Kec. Manokwari Bar., Kabupaten Manokwari, Papua Bar. 98312","Padarni, Kec. Manokwari Bar., Kabupaten Manokwari",PAPUA BARAT,98312.0,Indonesia,2180629666.0,-0.8561587,134.0698943,https://maps.google.com/?cid=0x0:0x7e171e315fe44cb2
cafe,cafe,Hotel Triton,"Jl. Gn. Salju No.6, Manokwari Bar., Kec. Manokwari Bar., Kabupaten Manokwari, Papua Bar. 98311","Manokwari Bar., Kec. Manokwari Bar., Kabupaten Manokwari",PAPUA BARAT,98311.0,Indonesia,986212666.0,-0.8532727,134.068781,https://maps.google.com/?cid=0x0:0x6021b02b4fb20af
cafe,cafe,Hotel Rama,"42JW+GWX, Jl. Trikora Rendani, Wosi, Kec. Manokwari Bar., Kabupaten Manokwari, Papua Bar. 98312","Jl. Trikora Rendani, Wosi, Kec. Manokwari Bar., Kabupaten Manokwari",PAPUA BARAT,98312.0,Indonesia,,-0.8686391,134.0473473,https://maps.google.com/?cid=0x0:0xbc8387651670c591
cafe,cafe,The Alexander Hotel,"43V9+HX4, Jl. Jend. Sudirman, Padarni, Kec. Manokwari Bar., Kabupaten Manokwari, Papua Bar. 98312","Jl. Jend. Sudirman, Padarni, Kec. Manokwari Bar., Kabupaten Manokwari",PAPUA BARAT,98312.0,Indonesia,9862214551.0,-0.8561036,134.06994,https://maps.google.com/?cid=0x0:0xdc6bdc355d4e63ab
cafe,cafe,RedDoorz near Jalan Yos Sudarso Manokwari,"Jl. Pahlawan No.88, Sanggeng, Kec. Manokwari Bar., Kabupaten Manokwari, Papua Bar. 98312","Sanggeng, Kec. Manokwari Bar., Kabupaten Manokwari",PAPUA BARAT,98312.0,Indonesia,2180629666.0,-0.8661016,134.0598053,https://maps.google.com/?cid=0x0:0xd186d17c4dbb51c
cafe,cafe,Lin Hotel,"Jl. Merdeka, Padarni, Kec. Manokwari Bar., Kabupaten Manokwari, Papua Bar. 98312","Padarni, Kec. Manokwari Bar., Kabupaten Manokwari",PAPUA BARAT,98312.0,Indonesia,9862210524.0,-0.8548281,134.0697853,https://maps.google.com/?cid=0x0:0xed579408172519e3
cafe,cafe,Billy Jaya Hotel,"43RF+3C6, Jl. Merdeka, Padarni, Kec. Manokwari Bar., Kabupaten Manokwari, Papua Bar. 98312","Jl. Merdeka, Padarni, Kec. Manokwari Bar., Kabupaten Manokwari",PAPUA BARAT,98312.0,Indonesia,82198029508.0,-0.8598283,134.0735063,https://maps.google.com/?cid=0x0:0x660c895db907e9f4
cafe,cafe,Oriestom Bay Hotel,"43F2+G29, Jl. Trikora Rendani, Wosi, Kec. Manokwari Bar., Kabupaten Manokwari, Papua Bar. 98312","Jl. Trikora Rendani, Wosi, Kec. Manokwari Bar., Kabupaten Manokwari",PAPUA BARAT,98312.0,Indonesia,81240197780.0,-0.8762108,134.0501061,https://maps.google.com/?cid=0x0:0x8bd50034329ebf97
cafe,cafe,Valdos Hotel Manokwari,"43J5+F44, Jl. Trikora Wosi, Wosi, Kec. Manokwari Bar., Kabupaten Manokwari, Papua Bar. 98312","Jl. Trikora Wosi, Wosi, Kec. Manokwari Bar., Kabupaten Manokwari",PAPUA BARAT,98312.0,Indonesia,986213044.0,-0.8688721,134.0578193,https://maps.google.com/?cid=0x0:0x60b28ba9ef2d716e
cafe,cafe,Pulau Mansinam,"Mansinam, Kec. Manokwari Tim., Kabupaten Manokwari, Papua Bar.","Kabupaten Manokwari, Papua Bar.",PAPUA BARAT,,Indonesia,,-0.9141667,134.1083333,https://maps.google.com/?cid=0x0:0x94a3a276c08ef3eb
cafe,Kafe,Wilchof Cafe,"Manokwari Tim., Kec. Manokwari Bar., Kabupaten Manokwari, Papua Bar. 98312","Kec. Manokwari Bar., Kabupaten Manokwari",PAPUA BARAT,98312.0,Indonesia,8124801913.0,-0.8418764,134.0699628,https://maps.google.com/?cid=0x0:0xdf7fa1241fcb9fab
cafe,Kafe,Cafe Ketapang Lima (CafeK5),"44J5+3JR, Pantai, Pasir Putih, Kec. Manokwari Tim., Kabupaten Manokwari, Papua Bar. 98313","Pantai, Pasir Putih, Kec. Manokwari Tim., Kabupaten Manokwari",PAPUA BARAT,98313.0,Indonesia,,-0.8697614,134.1090098,https://maps.google.com/?cid=0x0:0x70851c779f329034
cafe,cafe,Kec. Manokwari Utara,"Kabupaten Manokwari, Papua Bar.","Kabupaten Manokwari, Papua Bar.",PAPUA BARAT,,Indonesia,,-0.7545947,133.9845162,https://maps.google.com/?cid=0x0:0x4e2d072dfe215e65
cafe,Kafe,Wilchof Cafe,"Manokwari Tim., Kec. Manokwari Bar., Kabupaten Manokwari, Papua Bar. 98312","Kec. Manokwari Bar., Kabupaten Manokwari",PAPUA BARAT,98312.0,Indonesia,8124801913.0,-0.8418764,134.0699628,https://maps.google.com/?cid=0x0:0xdf7fa1241fcb9fab
cafe,Kedai Kopi,Vetcoffee,"Sowi, Distrik Manokwari, Kabupaten Manokwari, Papua Bar. 98315","Distrik Manokwari, Kabupaten Manokwari",PAPUA BARAT,98315.0,Indonesia,81355937646.0,-0.8867838,134.0463915,https://maps.google.com/?cid=0x0:0x99b834a0ad36b9d9
cafe,Kedai Kopi,KOPIkir Sendiri Cafe,"425R+QWW Kantor bupati, Sowi, Distrik Manokwari, Kabupaten Manokwari, Papua Bar.","Kabupaten Manokwari, Papua Bar.",PAPUA BARAT,,Indonesia,81354179269.0,-0.8905188,134.0423211,https://maps.google.com/?cid=0x0:0xe18448fb10dff5fd
cafe,Kafe,Bukit Coffee  Resto Manokwari,"Jl. Gn. Salju, Amban, Kec. Manokwari Bar., Kabupaten Manokwari, Papua Bar. 98311","Amban, Kec. Manokwari Bar., Kabupaten Manokwari",PAPUA BARAT,98311.0,Indonesia,,-0.8452551,134.0664679,https://maps.google.com/?cid=0x0:0x2babb9104b5505f
cafe,Kafe,Kebun Kafe,"5357+39P, Amban, Kec. Manokwari Bar., Kabupaten Manokwari, Papua Bar. 98312","Amban, Kec. Manokwari Bar., Kabupaten Manokwari",PAPUA BARAT,98312.0,Indonesia,82197661635.0,-0.8422825,134.0634598,https://maps.google.com/?cid=0x0:0x44197b4e638b4bb8
cafe,Kafe,Coffee Master,"Jl. Trikora Rendani, Wosi, Kec. Manokwari Bar., Kabupaten Manokwari, Papua Bar. 98312","Wosi, Kec. Manokwari Bar., Kabupaten Manokwari",PAPUA BARAT,98312.0,Indonesia,,-0.8766051,134.0501093,https://maps.google.com/?cid=0x0:0xf763f8acf00553b5
cafe,Kedai Kopi,Bongkard Coffee,"Amban, Kec. Manokwari Bar., Kabupaten Manokwari, Papua Bar. 98312","Kec. Manokwari Bar., Kabupaten Manokwari",PAPUA BARAT,98312.0,Indonesia,81344553008.0,-0.8435362,134.0551732,https://maps.google.com/?cid=0x0:0x30927fa86799b21f
cafe,Kafe,Cafe Cakbor 22,"43F2+M3C, Jl. Trikora Rendani, Wosi, Kec. Manokwari Bar., Kabupaten Manokwari, Papua Bar. 98312","Jl. Trikora Rendani, Wosi, Kec. Manokwari Bar., Kabupaten Manokwari",PAPUA BARAT,98312.0,Indonesia,,-0.8758121,134.0501327,https://maps.google.com/?cid=0x0:0xbb4b3116a8c8b990
cafe,Kedai Kopi,Coffee Shop Ss,"Jl. Kebun Cengkeh No.L7, irman jaya, Kec. Manokwari Bar., Kabupaten Manokwari, Papua Bar. 98312","irman jaya, Kec. Manokwari Bar., Kabupaten Manokwari",PAPUA BARAT,98312.0,Indonesia,,-0.8400307,134.0536764,https://maps.google.com/?cid=0x0:0x6af1aabb6b0c17cd
cafe,Kafe,BATAS KOFFIE,"Gg. Gorong-Gorong, Wosi, Kec. Manokwari Bar., Kabupaten Manokwari, Papua Bar. 98312","Wosi, Kec. Manokwari Bar., Kabupaten Manokwari",PAPUA BARAT,98312.0,Indonesia,82111181802.0,-0.8604385,134.0479228,https://maps.google.com/?cid=0x0:0xf1837bea92b6d291
cafe,Toko Swalayan,Orchid Cafe Wosi,"Jl. Trikora Wosi, Wosi, Kec. Manokwari Bar., Kabupaten Manokwari, Papua Bar. 98312","Wosi, Kec. Manokwari Bar., Kabupaten Manokwari",PAPUA BARAT,98312.0,Indonesia,82249189940.0,-0.8624085,134.0521759,https://maps.google.com/?cid=0x0:0xbeb058e9217bebb9
cafe,Kedai Kopi,CAFFE PANDOS,"32FV+MGC pantai dosa arfai, Anday, Distrik Manokwari, Kabupaten Manokwari, Papua Bar. 98315","Anday, Distrik Manokwari, Kabupaten Manokwari",PAPUA BARAT,98315.0,Indonesia,,-0.9258218,134.0437809,https://maps.google.com/?cid=0x0:0x17b3e75a07d288a0
cafe,Kafe,Puncak Cafe,"Jl. Anggi gida, Reremi, puncak, Kec. Manokwari Bar., Kabupaten Manokwari, Papua Bar. 98312","Reremi, puncak, Kec. Manokwari Bar., Kabupaten Manokwari",PAPUA BARAT,98312.0,Indonesia,82192888284.0,-0.8475264,134.053339,https://maps.google.com/?cid=0x0:0x8e49a8aa3a54ff4b
cafe,cafe,Distrik Masni,"Kabupaten Manokwari, Papua Bar.","Kabupaten Manokwari, Papua Bar.",PAPUA BARAT,,Indonesia,,-0.7868548,133.728488,https://maps.google.com/?cid=0x0:0x887c8da652d5665d
cafe,Korea,EXO Korean Cafe,"Udapi Hilir, Distrik Prafi, Kabupaten Manokwari, Papua Bar. 98356","Distrik Prafi, Kabupaten Manokwari",PAPUA BARAT,98356.0,Indonesia,81245008384.0,-0.8842664,133.8223763,https://maps.google.com/?cid=0x0:0x928b6ce6058bb3fd
cafe,Kedai Kopi,Yampi Cafe,"4R8C+J62, Jl. Poros, Aimasi/Sp III Aimasi, Distrik Prafi, Kabupaten Manokwari, Papua Bar. 98356","Jl. Poros, Aimasi/Sp III Aimasi, Distrik Prafi, Kabupaten Manokwari",PAPUA BARAT,98356.0,Indonesia,,-0.8834888,133.8205183,https://maps.google.com/?cid=0x0:0xc35cf86e29fff038
cafe,Kedai Kopi,STEAK  SHAKE,"Bar. Papua Bar. 98356, Udapi Hilir, Distrik Prafi, Kabupaten Manokwari, Papua Bar. 98356","Udapi Hilir, Distrik Prafi, Kabupaten Manokwari",PAPUA BARAT,98356.0,Indonesia,,-0.8843499,133.8210703,https://maps.google.com/?cid=0x0:0x65787006c10c733
cafe,Kedai Kopi,"se.rasa coffee, Manokwari","Bar, Udapi Hilir, Distrik Prafi, Kabupaten Manokwari, Papua Bar. 98356","Udapi Hilir, Distrik Prafi, Kabupaten Manokwari",PAPUA BARAT,98356.0,Indonesia,81240951908.0,-0.8792473,133.8265157,https://maps.google.com/?cid=0x0:0x4d99722bf1a67811
cafe,Brunch,WM.Pandhawi,"5JX4+25F, Meyof I, Distrik Sidey, Kabupaten Manokwari, Papua Bar. 98357","Meyof I, Distrik Sidey, Kabupaten Manokwari",PAPUA BARAT,98357.0,Indonesia,,-0.8024412,133.6054285,https://maps.google.com/?cid=0x0:0x35c8be23c2b4856c
cafe,Es Krim,CokelatClassic,"4QWJ+5XJ, Jl. POROS SP V, Macuan, Distrik Masni, Kabupaten Manokwari, Papua Bar. 98357","Jl. POROS SP V, Macuan, Distrik Masni, Kabupaten Manokwari",PAPUA BARAT,98357.0,Indonesia,85354565689.0,-0.8545261,133.7823964,https://maps.google.com/?cid=0x0:0x6b2c15d407a262ce
cafe,Restoran,warung deva idriz,"4PV5+P7W, Ririnfos, Distrik Masni, Kabupaten Manokwari, Papua Bar. 98357","Ririnfos, Distrik Masni, Kabupaten Manokwari",PAPUA BARAT,98357.0,Indonesia,85320668685.0,-0.8556374,133.7082117,https://maps.google.com/?cid=0x0:0xc1289732127f8f78
cafe,Kedai Kopi,Kedai Zaida,"6P3G+G9G, Sumber Boga, Distrik Masni, Kabupaten Manokwari, Papua Bar. 98357","Sumber Boga, Distrik Masni, Kabupaten Manokwari",PAPUA BARAT,98357.0,Indonesia,82197773694.0,-0.7961751,133.7259525,https://maps.google.com/?cid=0x0:0x21b495b31b1acbc1
cafe,cafe,Lapak Seblak Miss-U,"6PC2+XWF Sp8, Wariori, Distrik Masni, Kabupaten Manokwari, Papua Bar. 98357","Wariori, Distrik Masni, Kabupaten Manokwari",PAPUA BARAT,98357.0,Indonesia,,-0.7775736,133.7022981,https://maps.google.com/?cid=0x0:0xf8cb8423a3093a76
cafe,Restoran,Wm.nusantara,"5JW4+94J, Jl. Sorong - Manokwari, Manggupi, Distrik Sidey, Kabupaten Manokwari, Papua Bar. 98357","Jl. Sorong - Manokwari, Manggupi, Distrik Sidey, Kabupaten Manokwari",PAPUA BARAT,98357.0,Indonesia,,-0.8040389,133.6052677,https://maps.google.com/?cid=0x0:0xfcdc260598b91e9f
cafe,Kedai Kopi,Familiy nyonge,"5PRM+M8Q, Dasa Wisma Anggrek Ungu, Bowi Subur, Distrik Masni, Kabupaten Manokwari, Papua Bar. 98357","Dasa Wisma Anggrek Ungu, Bowi Subur, Distrik Masni, Kabupaten Manokwari",PAPUA BARAT,98357.0,Indonesia,,-0.808186,133.733422,https://maps.google.com/?cid=0x0:0x3875b6d7e0ab2de8
cafe,Kedai Kopi,SAN WILDCRAFT,"Jlr. 03 Mongkeyes Feda, Koyani, Distrik Masni, Kabupaten Manokwari, Papua Bar.","Kabupaten Manokwari, Papua Bar.",PAPUA BARAT,,Indonesia,,-0.8311152,133.7094571,https://maps.google.com/?cid=0x0:0xaa39a84f5e178f1
cafe,Minimarket,Alma Cafe,"4R6V+MP3, Udapi Hilir, Distrik Prafi, Kabupaten Manokwari, Papua Bar.","Kabupaten Manokwari, Papua Bar.",PAPUA BARAT,,Indonesia,85250884487.0,-0.8883733,133.8443,https://maps.google.com/?cid=0x0:0xd4a45aa360eb0400
cafe,cafe,Distrik Prafi,"Kabupaten Manokwari, Papua Bar.","Kabupaten Manokwari, Papua Bar.",PAPUA BARAT,,Indonesia,,-0.8781986,133.8274668,https://maps.google.com/?cid=0x0:0xb111fb1aee64e776
cafe,Korea,EXO Korean Cafe,"Udapi Hilir, Distrik Prafi, Kabupaten Manokwari, Papua Bar. 98356","Distrik Prafi, Kabupaten Manokwari",PAPUA BARAT,98356.0,Indonesia,81245008384.0,-0.8842664,133.8223763,https://maps.google.com/?cid=0x0:0x928b6ce6058bb3fd
cafe,Kedai Kopi,STEAK  SHAKE,"Bar. Papua Bar. 98356, Udapi Hilir, Distrik Prafi, Kabupaten Manokwari, Papua Bar. 98356","Udapi Hilir, Distrik Prafi, Kabupaten Manokwari",PAPUA BARAT,98356.0,Indonesia,,-0.8843499,133.8210703,https://maps.google.com/?cid=0x0:0x65787006c10c733
cafe,Rumah Makan,ZAFIRAH CAKE  CAFE,"4RCG+6GC, Udapi Hilir, Distrik Prafi, Kabupaten Manokwari, Papua Bar. 98356","Udapi Hilir, Distrik Prafi, Kabupaten Manokwari",PAPUA BARAT,98356.0,Indonesia,81354012348.0,-0.8794333,133.8262506,https://maps.google.com/?cid=0x0:0xb279174a0f5ac61a
cafe,Kedai Kopi,"se.rasa coffee, Manokwari","Bar, Udapi Hilir, Distrik Prafi, Kabupaten Manokwari, Papua Bar. 98356","Udapi Hilir, Distrik Prafi, Kabupaten Manokwari",PAPUA BARAT,98356.0,Indonesia,81240951908.0,-0.8792473,133.8265157,https://maps.google.com/?cid=0x0:0x4d99722bf1a67811
cafe,Kedai Kopi,Kopi Lain Hati Prafi,"4RCH+R69, Udapi Hilir, Distrik Prafi, Kabupaten Manokwari, Papua Bar. 98356","Udapi Hilir, Distrik Prafi, Kabupaten Manokwari",PAPUA BARAT,98356.0,Indonesia,,-0.8779718,133.8281027,https://maps.google.com/?cid=0x0:0xab68db48e5693cf3
cafe,Kedai Kopi,Yampi Cafe,"4R8C+J62, Jl. Poros, Aimasi/Sp III Aimasi, Distrik Prafi, Kabupaten Manokwari, Papua Bar. 98356","Jl. Poros, Aimasi/Sp III Aimasi, Distrik Prafi, Kabupaten Manokwari",PAPUA BARAT,98356.0,Indonesia,,-0.8834888,133.8205183,https://maps.google.com/?cid=0x0:0xc35cf86e29fff038
cafe,Restoran,Harris Cafe,"4RCG+7HG, Bar, Udapi Hilir, Prafi, Manokwari Regency, West Papua 98356","Bar, Udapi Hilir, Prafi, Manokwari Regency",PAPUA BARAT,98356.0,Indonesia,82214254603.0,-0.8793003,133.8264666,https://maps.google.com/?cid=0x0:0x3ecadd773528508b
cafe,cafe,"BINGXUE PRAFI, Manokwari","Jl. Merpati, Udapi Hilir, Distrik Prafi, Kabupaten Manokwari, Papua Bar. 98356","Udapi Hilir, Distrik Prafi, Kabupaten Manokwari",PAPUA BARAT,98356.0,Indonesia,,-0.8767641,133.8287625,https://maps.google.com/?cid=0x0:0xaa415d5cfe2f873f
cafe,Kedai Kopi,CAFFE PANDOS,"32FV+MGC pantai dosa arfai, Anday, Distrik Manokwari, Kabupaten Manokwari, Papua Bar. 98315","Anday, Distrik Manokwari, Kabupaten Manokwari",PAPUA BARAT,98315.0,Indonesia,,-0.9258218,134.0437809,https://maps.google.com/?cid=0x0:0x17b3e75a07d288a0
cafe,Kedai Kopi,Ekaria Rawandari,"Sp 4 jalur 8 poros, Udapi Hilir, Distrik Prafi, Kabupaten Manokwari, Papua Bar. 98315","Udapi Hilir, Distrik Prafi, Kabupaten Manokwari",PAPUA BARAT,98315.0,Indonesia,81344021010.0,-0.8603606,133.8482142,https://maps.google.com/?cid=0x0:0x873e8d4f8350493e
cafe,Kafe,Es Kotor  Bubble Drink,"4RCG+4C9, Udapi Hilir, Distrik Prafi, Kabupaten Manokwari, Papua Bar. 98356","Udapi Hilir, Distrik Prafi, Kabupaten Manokwari",PAPUA BARAT,98356.0,Indonesia,82197527257.0,-0.8797099,133.8261128,https://maps.google.com/?cid=0x0:0xace533ab034c22a6
cafe,Kafe,Tela - Tela  coffe,"4RFJ+HC2, Udapi Hilir, Distrik Prafi, Kabupaten Manokwari, Papua Bar. 98356","Udapi Hilir, Distrik Prafi, Kabupaten Manokwari",PAPUA BARAT,98356.0,Indonesia,82198622728.0,-0.8761137,133.8310275,https://maps.google.com/?cid=0x0:0x440f117744a63147
cafe,Kedai Kopi,Megha Laros,"Sp3, Waseki, Distrik Prafi, Kabupaten Manokwari, Papua Bar. 98356","Waseki, Distrik Prafi, Kabupaten Manokwari",PAPUA BARAT,98356.0,Indonesia,82145925012.0,-0.8930717,133.8146363,https://maps.google.com/?cid=0x0:0xa5628a166a45ce23
cafe,cafe,Papua Bar. 98356,"Kabupaten Manokwari, Papua Bar.","Kabupaten Manokwari, Papua Bar.",PAPUA BARAT,,Indonesia,,-0.944854,133.7717073,https://maps.google.com/?cid=0x0:0x8f6cbc943a6f12d8
cafe,Korea,EXO Korean Cafe,"Udapi Hilir, Distrik Prafi, Kabupaten Manokwari, Papua Bar. 98356","Distrik Prafi, Kabupaten Manokwari",PAPUA BARAT,98356.0,Indonesia,81245008384.0,-0.8842664,133.8223763,https://maps.google.com/?cid=0x0:0x928b6ce6058bb3fd
cafe,Kedai Kopi,STEAK  SHAKE,"Bar. Papua Bar. 98356, Udapi Hilir, Distrik Prafi, Kabupaten Manokwari, Papua Bar. 98356","Udapi Hilir, Distrik Prafi, Kabupaten Manokwari",PAPUA BARAT,98356.0,Indonesia,,-0.8843499,133.8210703,https://maps.google.com/?cid=0x0:0x65787006c10c733
cafe,Rumah Makan,ZAFIRAH CAKE  CAFE,"4RCG+6GC, Udapi Hilir, Distrik Prafi, Kabupaten Manokwari, Papua Bar. 98356","Udapi Hilir, Distrik Prafi, Kabupaten Manokwari",PAPUA BARAT,98356.0,Indonesia,81354012348.0,-0.8794333,133.8262506,https://maps.google.com/?cid=0x0:0xb279174a0f5ac61a
cafe,Kedai Kopi,Kopi Lain Hati Prafi,"4RCH+R69, Udapi Hilir, Distrik Prafi, Kabupaten Manokwari, Papua Bar. 98356","Udapi Hilir, Distrik Prafi, Kabupaten Manokwari",PAPUA BARAT,98356.0,Indonesia,,-0.8779718,133.8281027,https://maps.google.com/?cid=0x0:0xab68db48e5693cf3
cafe,Kedai Kopi,"se.rasa coffee, Manokwari","Bar, Udapi Hilir, Distrik Prafi, Kabupaten Manokwari, Papua Bar. 98356","Udapi Hilir, Distrik Prafi, Kabupaten Manokwari",PAPUA BARAT,98356.0,Indonesia,81240951908.0,-0.8792473,133.8265157,https://maps.google.com/?cid=0x0:0x4d99722bf1a67811
cafe,Minimarket,Alma Cafe,"4R6V+MP3, Udapi Hilir, Distrik Prafi, Kabupaten Manokwari, Papua Bar.","Kabupaten Manokwari, Papua Bar.",PAPUA BARAT,,Indonesia,85250884487.0,-0.8883733,133.8443,https://maps.google.com/?cid=0x0:0xd4a45aa360eb0400
cafe,Kafe,Tela - Tela  coffe,"4RFJ+HC2, Udapi Hilir, Distrik Prafi, Kabupaten Manokwari, Papua Bar. 98356","Udapi Hilir, Distrik Prafi, Kabupaten Manokwari",PAPUA BARAT,98356.0,Indonesia,82198622728.0,-0.8761137,133.8310275,https://maps.google.com/?cid=0x0:0x440f117744a63147
cafe,cafe,"BINGXUE PRAFI, Manokwari","Jl. Merpati, Udapi Hilir, Distrik Prafi, Kabupaten Manokwari, Papua Bar. 98356","Udapi Hilir, Distrik Prafi, Kabupaten Manokwari",PAPUA BARAT,98356.0,Indonesia,,-0.8767641,133.8287625,https://maps.google.com/?cid=0x0:0xaa415d5cfe2f873f
cafe,Kedai Kopi,Megha Laros,"Sp3, Waseki, Distrik Prafi, Kabupaten Manokwari, Papua Bar. 98356","Waseki, Distrik Prafi, Kabupaten Manokwari",PAPUA BARAT,98356.0,Indonesia,82145925012.0,-0.8930717,133.8146363,https://maps.google.com/?cid=0x0:0xa5628a166a45ce23
cafe,Nasi,Makan Lesehan Mba Ida,"3VMH+6QG, Jl. Sorong - Manokwari, Prafi Mulia, Distrik Prafi, Kabupaten Manokwari, Papua Bar. 98356","Jl. Sorong - Manokwari, Prafi Mulia, Distrik Prafi, Kabupaten Manokwari",PAPUA BARAT,98356.0,Indonesia,,-0.916942,133.8794645,https://maps.google.com/?cid=0x0:0x50e73a273c46dfdd
cafe,Dapur Umum,SAUNG TANI,"3VGW+72W, Prafi Mulia, Distrik Prafi, Kabupaten Manokwari, Papua Bar. 98352","Prafi Mulia, Distrik Prafi, Kabupaten Manokwari",PAPUA BARAT,98352.0,Indonesia,,-0.9242548,133.8950633,https://maps.google.com/?cid=0x0:0x7e782d9e0f280b0a
cafe,Kedai Kopi,KIOMO,"Jln Rajawali No.1, Udapi Hilir, Distrik Prafi, Kabupaten Manokwari, Papua Bar. 98356","Udapi Hilir, Distrik Prafi, Kabupaten Manokwari",PAPUA BARAT,98356.0,Indonesia,85244014744.0,-0.8763003,133.8313263,https://maps.google.com/?cid=0x0:0xfe0fb2ed2ec3f27e
cafe,Rumah Makan,BALAI JAGONG SP4,"Udapi Hilir, Distrik Prafi, Kabupaten Manokwari, Papua Bar. 98356","Distrik Prafi, Kabupaten Manokwari",PAPUA BARAT,98356.0,Indonesia,,-0.8762998,133.8313201,https://maps.google.com/?cid=0x0:0x5147bb3efa2e0da9
cafe,cafe,Distrik Sidey,"Kabupaten Manokwari, Papua Bar.","Kabupaten Manokwari, Papua Bar.",PAPUA BARAT,,Indonesia,,-0.7605514,133.5946268,https://maps.google.com/?cid=0x0:0x8c34ad1374e4a89e
cafe,Brunch,WM.Pandhawi,"5JX4+25F, Meyof I, Distrik Sidey, Kabupaten Manokwari, Papua Bar. 98357","Meyof I, Distrik Sidey, Kabupaten Manokwari",PAPUA BARAT,98357.0,Indonesia,,-0.8024412,133.6054285,https://maps.google.com/?cid=0x0:0x35c8be23c2b4856c
cafe,Nasi,Warung Makan Adem Ayem,"6H2R+4Q3, Meyof I, Distrik Sidey, Kabupaten Manokwari, Papua Bar. 98357","Meyof I, Distrik Sidey, Kabupaten Manokwari",PAPUA BARAT,98357.0,Indonesia,,-0.7997344,133.591924,https://maps.google.com/?cid=0x0:0x8f53995adb844a3c
cafe,Kedai Kopi,KEDAI TAMA JAYA,"Jalan Mubrani Meyof 1, Meyof I, Distrik Sidey, Kabupaten Manokwari, Papua Bar. 98357","Meyof I, Distrik Sidey, Kabupaten Manokwari",PAPUA BARAT,98357.0,Indonesia,81240786402.0,-0.8010455,133.6049348,https://maps.google.com/?cid=0x0:0xc165f0d8b955468c
cafe,Restoran,Warung Makan ARPON,"6J33+RFP, Sidey Jaya, Distrik Sidey, Kabupaten Manokwari, Papua Bar. 98357","Sidey Jaya, Distrik Sidey, Kabupaten Manokwari",PAPUA BARAT,98357.0,Indonesia,85333200307.0,-0.7954248,133.6036883,https://maps.google.com/?cid=0x0:0x2311b96501278d89
cafe,Restoran,Warung Makan Ambar,"5HV7+W9, Meyof I, Distrik Sidey, Kabupaten Manokwari, Papua Bar.","Kabupaten Manokwari, Papua Bar.",PAPUA BARAT,,Indonesia,85256091129.0,-0.8052145,133.5633961,https://maps.google.com/?cid=0x0:0xc1f9f8f83a4359a9
cafe,Rumah Makan,Rumah makan sidomulyo,"5HCW+2V3, Manggupi, Distrik Sidey, Kabupaten Manokwari, Papua Bar. 98357","Manggupi, Distrik Sidey, Kabupaten Manokwari",PAPUA BARAT,98357.0,Indonesia,82334812122.0,-0.8299789,133.5971866,https://maps.google.com/?cid=0x0:0x5b5adf7d630c440e
cafe,Makanan Kecil,Kedai angkringan begadang mom echa,"6H39+956, Sidey Jaya, Distrik Sidey, Kabupaten Manokwari, Papua Bar. 98357","Sidey Jaya, Distrik Sidey, Kabupaten Manokwari",PAPUA BARAT,98357.0,Indonesia,,-0.7965797,133.5679032,https://maps.google.com/?cid=0x0:0xca5a7a5ae071b8d9
cafe,Ayam,Warung Pondok Bambu,"Wam Bola, Distrik Masni, Kabupaten Manokwari, Papua Bar. 98357","Distrik Masni, Kabupaten Manokwari",PAPUA BARAT,98357.0,Indonesia,,-0.8385652,133.6330291,https://maps.google.com/?cid=0x0:0xdcdacf29675bce1
cafe,Kedai Kopi,Z COFFEE,"42HX+V6C, Jl. Trikora Rendani, Wosi, Kec. Manokwari Bar., Kabupaten Manokwari, Papua Bar. 98312","Jl. Trikora Rendani, Wosi, Kec. Manokwari Bar., Kabupaten Manokwari",PAPUA BARAT,98312.0,Indonesia,81247192526.0,-0.8703133,134.0480103,https://maps.google.com/?cid=0x0:0x52fc52684fc7839c
cafe,Kedai Kopi,Coffee Shop Ss,"Jl. Kebun Cengkeh No.L7, irman jaya, Kec. Manokwari Bar., Kabupaten Manokwari, Papua Bar. 98312","irman jaya, Kec. Manokwari Bar., Kabupaten Manokwari",PAPUA BARAT,98312.0,Indonesia,,-0.8400307,134.0536764,https://maps.google.com/?cid=0x0:0x6af1aabb6b0c17cd
cafe,Kafe,7ty.coffeehouse,"Perumahan Bumi Marina Asri blok i 19, Amban, Kec. Manokwari Bar., Kabupaten Manokwari, Papua Bar. 98312","Amban, Kec. Manokwari Bar., Kabupaten Manokwari",PAPUA BARAT,98312.0,Indonesia,,-0.8393916,134.0550663,https://maps.google.com/?cid=0x0:0xe5ed0ced56f5375d
cafe,Bakso,Bakso idola,"5HWH+JW, Meyof I, Distrik Sidey, Kabupaten Manokwari, Papua Bar.","Kabupaten Manokwari, Papua Bar.",PAPUA BARAT,,Indonesia,85234625095.0,-0.803492,133.579839,https://maps.google.com/?cid=0x0:0x55c15ade70927a75
cafe,Kedai Kopi,Lapak angkringan begadang mom echa,"Jln poros, Jl. Mubrani jalur 7 timur, Sidey Jaya, Kabupaten Manokwari, Papua Bar. 98319","Jl. Mubrani jalur 7 timur, Sidey Jaya, Kabupaten Manokwari",PAPUA BARAT,98319.0,Indonesia,,-0.794083,133.6035952,https://maps.google.com/?cid=0x0:0xf867d033926bb26
cafe,cafe,Kec. Tanah Rubuh,"Kabupaten Manokwari, Papua Bar.","Kabupaten Manokwari, Papua Bar.",PAPUA BARAT,,Indonesia,,-1.1718674,134.1443544,https://maps.google.com/?cid=0x0:0x2304a7a7ad451175
cafe,Kedai Kopi,KOPIkir Sendiri Cafe,"425R+QWW Kantor bupati, Sowi, Distrik Manokwari, Kabupaten Manokwari, Papua Bar.","Kabupaten Manokwari, Papua Bar.",PAPUA BARAT,,Indonesia,81354179269.0,-0.8905188,134.0423211,https://maps.google.com/?cid=0x0:0xe18448fb10dff5fd
cafe,Kedai Kopi,Vetcoffee,"Sowi, Distrik Manokwari, Kabupaten Manokwari, Papua Bar. 98315","Distrik Manokwari, Kabupaten Manokwari",PAPUA BARAT,98315.0,Indonesia,81355937646.0,-0.8867838,134.0463915,https://maps.google.com/?cid=0x0:0x99b834a0ad36b9d9
cafe,Kedai Kopi,Kandera Cafe,"Jalan Reremi Permai No.50, Manokwari Bar., Kec. Manokwari Bar., Kabupaten Manokwari, Papua Bar. 98312","Manokwari Bar., Kec. Manokwari Bar., Kabupaten Manokwari",PAPUA BARAT,98312.0,Indonesia,85244067676.0,-0.8614531,134.0620421,https://maps.google.com/?cid=0x0:0x3df0d0628479781f
cafe,Kedai Kopi,Garasi Ipok (Kopi),"Wosi, Kec. Manokwari Bar., Kabupaten Manokwari, Papua Bar. 98312","Kec. Manokwari Bar., Kabupaten Manokwari",PAPUA BARAT,98312.0,Indonesia,,-0.8752236,134.0501855,https://maps.google.com/?cid=0x0:0x12e09be1a67f324f
cafe,Restoran,Oâ Snack Kafe Otoritas,"Jl. Trikora Rendani, Sowi, Distrik Manokwari, Kabupaten Manokwari, Papua Bar. 98313","Sowi, Distrik Manokwari, Kabupaten Manokwari",PAPUA BARAT,98313.0,Indonesia,,-0.8859283,134.0517921,https://maps.google.com/?cid=0x0:0x2b1b712fbfee7434
cafe,Kafe,Bukit Coffee  Resto Manokwari,"Jl. Gn. Salju, Amban, Kec. Manokwari Bar., Kabupaten Manokwari, Papua Bar. 98311","Amban, Kec. Manokwari Bar., Kabupaten Manokwari",PAPUA BARAT,98311.0,Indonesia,,-0.8452551,134.0664679,https://maps.google.com/?cid=0x0:0x2babb9104b5505f
cafe,Kedai Kopi,Z COFFEE,"42HX+V6C, Jl. Trikora Rendani, Wosi, Kec. Manokwari Bar., Kabupaten Manokwari, Papua Bar. 98312","Jl. Trikora Rendani, Wosi, Kec. Manokwari Bar., Kabupaten Manokwari",PAPUA BARAT,98312.0,Indonesia,81247192526.0,-0.8703133,134.0480103,https://maps.google.com/?cid=0x0:0x52fc52684fc7839c
cafe,Kafe,Tabea Social House,"Jl. Gn. Salju, Manokwari Bar., Kec. Manokwari Bar., Kabupaten Manokwari, Papua Bar. 98312","Manokwari Bar., Kec. Manokwari Bar., Kabupaten Manokwari",PAPUA BARAT,98312.0,Indonesia,85254149747.0,-0.8532734,134.068623,https://maps.google.com/?cid=0x0:0x5ffda2a896680a45
cafe,Kafe,Warkop The Joint,"bambu kuning No.4, Sowi, Distrik Manokwari, Kabupaten Manokwari, Papua Bar. 98313","Sowi, Distrik Manokwari, Kabupaten Manokwari",PAPUA BARAT,98313.0,Indonesia,82397008155.0,-0.9171291,134.0381344,https://maps.google.com/?cid=0x0:0x3a7d647af2873292
cafe,Pujasera,Torang Kofie Manokwari,"Jl. Yos Sudarso No.8, Manokwari Bar., Kec. Manokwari Bar., Kabupaten Manokwari, Papua Bar. 98312","Manokwari Bar., Kec. Manokwari Bar., Kabupaten Manokwari",PAPUA BARAT,98312.0,Indonesia,8114869988.0,-0.8568949,134.0673228,https://maps.google.com/?cid=0x0:0xf637fe327424a42
cafe,Restoran,Billy Cafe,"Jl. Merdeka No.57, Padarni, Kec. Manokwari Bar., Kabupaten Manokwari, Papua Bar. 98312","Padarni, Kec. Manokwari Bar., Kabupaten Manokwari",PAPUA BARAT,98312.0,Indonesia,81240501959.0,-0.8596376,134.0734046,https://maps.google.com/?cid=0x0:0x245b68c7c99f326f
cafe,Kios,Kios Naila Ode,"Wedoni, Kec. Tanah Rubuh, Kabupaten Manokwari, Papua Bar. 98315","Kec. Tanah Rubuh, Kabupaten Manokwari",PAPUA BARAT,98315.0,Indonesia,81324249119.0,-1.2102243,134.1960457,https://maps.google.com/?cid=0x0:0xc5ed5cc8f8001129
cafe,Jepang,Anris Cafe,"43W4+Q85, Jl. Ekonomi pemancar RRi.Reremi, Jalan Ekonomi Reremi, Manokwari Bar., Kec. Manokwari Bar., Kabupaten Manokwari, Papua Bar. 98311","Jl. Ekonomi pemancar RRi.Reremi, Jalan Ekonomi Reremi, Manokwari Bar., Kec. Manokwari Bar., Kabupaten Manokwari",PAPUA BARAT,98311.0,Indonesia,85399990665.0,-0.8542488,134.0618503,https://maps.google.com/?cid=0x0:0x563c17522093e9c3
cafe,cafe,Kec. Tanah Rubuh,"Kabupaten Manokwari, Papua Bar.","Kabupaten Manokwari, Papua Bar.",PAPUA BARAT,,Indonesia,,-1.1718674,134.1443544,https://maps.google.com/?cid=0x0:0x2304a7a7ad451175
cafe,Kedai Kopi,KOPIkir Sendiri Cafe,"425R+QWW Kantor bupati, Sowi, Distrik Manokwari, Kabupaten Manokwari, Papua Bar.","Kabupaten Manokwari, Papua Bar.",PAPUA BARAT,,Indonesia,81354179269.0,-0.8905188,134.0423211,https://maps.google.com/?cid=0x0:0xe18448fb10dff5fd
cafe,Kedai Kopi,Kandera Cafe,"Jalan Reremi Permai No.50, Manokwari Bar., Kec. Manokwari Bar., Kabupaten Manokwari, Papua Bar. 98312","Manokwari Bar., Kec. Manokwari Bar., Kabupaten Manokwari",PAPUA BARAT,98312.0,Indonesia,85244067676.0,-0.8614531,134.0620421,https://maps.google.com/?cid=0x0:0x3df0d0628479781f
cafe,Kedai Kopi,Garasi Ipok (Kopi),"Wosi, Kec. Manokwari Bar., Kabupaten Manokwari, Papua Bar. 98312","Kec. Manokwari Bar., Kabupaten Manokwari",PAPUA BARAT,98312.0,Indonesia,,-0.8752236,134.0501855,https://maps.google.com/?cid=0x0:0x12e09be1a67f324f
cafe,Kedai Kopi,Z COFFEE,"42HX+V6C, Jl. Trikora Rendani, Wosi, Kec. Manokwari Bar., Kabupaten Manokwari, Papua Bar. 98312","Jl. Trikora Rendani, Wosi, Kec. Manokwari Bar., Kabupaten Manokwari",PAPUA BARAT,98312.0,Indonesia,81247192526.0,-0.8703133,134.0480103,https://maps.google.com/?cid=0x0:0x52fc52684fc7839c
cafe,Kedai Kopi,Vetcoffee,"Sowi, Distrik Manokwari, Kabupaten Manokwari, Papua Bar. 98315","Distrik Manokwari, Kabupaten Manokwari",PAPUA BARAT,98315.0,Indonesia,81355937646.0,-0.8867838,134.0463915,https://maps.google.com/?cid=0x0:0x99b834a0ad36b9d9
cafe,Kafe,Bukit Coffee  Resto Manokwari,"Jl. Gn. Salju, Amban, Kec. Manokwari Bar., Kabupaten Manokwari, Papua Bar. 98311","Amban, Kec. Manokwari Bar., Kabupaten Manokwari",PAPUA BARAT,98311.0,Indonesia,,-0.8452551,134.0664679,https://maps.google.com/?cid=0x0:0x2babb9104b5505f
cafe,Kafe,Warkop The Joint,"bambu kuning No.4, Sowi, Distrik Manokwari, Kabupaten Manokwari, Papua Bar. 98313","Sowi, Distrik Manokwari, Kabupaten Manokwari",PAPUA BARAT,98313.0,Indonesia,82397008155.0,-0.9171291,134.0381344,https://maps.google.com/?cid=0x0:0x3a7d647af2873292
cafe,Kafe,Oâ Snack Kafe Otoritas,"Jl. Trikora Rendani, Sowi, Distrik Manokwari, Kabupaten Manokwari, Papua Bar. 98313","Sowi, Distrik Manokwari, Kabupaten Manokwari",PAPUA BARAT,98313.0,Indonesia,,-0.8859283,134.0517921,https://maps.google.com/?cid=0x0:0x2b1b712fbfee7434
cafe,Kedai Kopi,JNJ Coffee,"Jl. Angkasa Mulyono, Amban, Kec. Manokwari Bar., Kabupaten Manokwari, Papua Bar. 98312","Amban, Kec. Manokwari Bar., Kabupaten Manokwari",PAPUA BARAT,98312.0,Indonesia,81242244544.0,-0.8430483,134.0531361,https://maps.google.com/?cid=0x0:0x2c65a12c2fc56e48
cafe,Kafe,BATAS KOFFIE,"Gg. Gorong-Gorong, Wosi, Kec. Manokwari Bar., Kabupaten Manokwari, Papua Bar. 98312","Wosi, Kec. Manokwari Bar., Kabupaten Manokwari",PAPUA BARAT,98312.0,Indonesia,82111181802.0,-0.8604385,134.0479228,https://maps.google.com/?cid=0x0:0xf1837bea92b6d291
cafe,Pujasera,Torang Kofie Manokwari,"Jl. Yos Sudarso No.8, Manokwari Bar., Kec. Manokwari Bar., Kabupaten Manokwari, Papua Bar. 98312","Manokwari Bar., Kec. Manokwari Bar., Kabupaten Manokwari",PAPUA BARAT,98312.0,Indonesia,8114869988.0,-0.8568949,134.0673228,https://maps.google.com/?cid=0x0:0xf637fe327424a42
cafe,Kios,Kios Naila Ode,"Wedoni, Kec. Tanah Rubuh, Kabupaten Manokwari, Papua Bar. 98315","Kec. Tanah Rubuh, Kabupaten Manokwari",PAPUA BARAT,98315.0,Indonesia,81324249119.0,-1.2102243,134.1960457,https://maps.google.com/?cid=0x0:0xc5ed5cc8f8001129
cafe,cafe,Kios Enno Waode,"Kampung Warnyeti , Distrik tanah rubuh manokwari selatan, Masabui, Kec. Oransbari, Kabupaten Manokwari, Papua Bar. 98315","Distrik tanah rubuh manokwari selatan, Masabui, Kec. Oransbari, Kabupaten Manokwari",PAPUA BARAT,98315.0,Indonesia,82238429200.0,-1.2048044,134.1756276,https://maps.google.com/?cid=0x0:0xd877ff58264c18df
cafe,cafe,We Food,"43C2+M26, Wosi, Kec. Manokwari Bar., Kabupaten Manokwari, Papua Bar. 98312","Wosi, Kec. Manokwari Bar., Kabupaten Manokwari",PAPUA BARAT,98312.0,Indonesia,81248375845.0,-0.8783487,134.0500304,https://maps.google.com/?cid=0x0:0x582446984ee52da8
cafe,cafe,Papua Bar. 98352,"Kabupaten Manokwari, Papua Bar.","Kabupaten Manokwari, Papua Bar.",PAPUA BARAT,,Indonesia,,-1.0122519,133.9055155,https://maps.google.com/?cid=0x0:0x665ab61075e0d624
cafe,Korea,EXO Korean Cafe,"Udapi Hilir, Distrik Prafi, Kabupaten Manokwari, Papua Bar. 98356","Distrik Prafi, Kabupaten Manokwari",PAPUA BARAT,98356.0,Indonesia,81245008384.0,-0.8842664,133.8223763,https://maps.google.com/?cid=0x0:0x928b6ce6058bb3fd
cafe,cafe,Warkopin aja,"3222+RWH, Anday, Distrik Manokwari, Kabupaten Manokwari, Papua Bar. 98315","Anday, Distrik Manokwari, Kabupaten Manokwari",PAPUA BARAT,98315.0,Indonesia,,-0.948599,134.0016671,https://maps.google.com/?cid=0x0:0x534abc6a41bb787d
cafe,Sulawesi Selatan,Warung Coto  konro Warmare,"Unnamed Road, Dindey, Kec. Warmare, Kabupaten Manokwari, Papua Bar. 98352","Dindey, Kec. Warmare, Kabupaten Manokwari",PAPUA BARAT,98352.0,Indonesia,85242888369.0,-0.9745048,133.9363439,https://maps.google.com/?cid=0x0:0xf1661fb628fbbeec
cafe,Kedai Kopi,"se.rasa coffee, Manokwari","Bar, Udapi Hilir, Distrik Prafi, Kabupaten Manokwari, Papua Bar. 98356","Udapi Hilir, Distrik Prafi, Kabupaten Manokwari",PAPUA BARAT,98356.0,Indonesia,81240951908.0,-0.8792473,133.8265157,https://maps.google.com/?cid=0x0:0x4d99722bf1a67811
cafe,Kedai Kopi,Yampi Cafe,"4R8C+J62, Jl. Poros, Aimasi/Sp III Aimasi, Distrik Prafi, Kabupaten Manokwari, Papua Bar. 98356","Jl. Poros, Aimasi/Sp III Aimasi, Distrik Prafi, Kabupaten Manokwari",PAPUA BARAT,98356.0,Indonesia,,-0.8834888,133.8205183,https://maps.google.com/?cid=0x0:0xc35cf86e29fff038
cafe,Dapur Umum,SAUNG TANI,"3VGW+72W, Prafi Mulia, Distrik Prafi, Kabupaten Manokwari, Papua Bar. 98352","Prafi Mulia, Distrik Prafi, Kabupaten Manokwari",PAPUA BARAT,98352.0,Indonesia,,-0.9242548,133.8950633,https://maps.google.com/?cid=0x0:0x7e782d9e0f280b0a
cafe,Kedai Kopi,Vetcoffee,"Sowi, Distrik Manokwari, Kabupaten Manokwari, Papua Bar. 98315","Distrik Manokwari, Kabupaten Manokwari",PAPUA BARAT,98315.0,Indonesia,81355937646.0,-0.8867838,134.0463915,https://maps.google.com/?cid=0x0:0x99b834a0ad36b9d9
cafe,Kedai Kopi,KOPIkir Sendiri Cafe,"425R+QWW Kantor bupati, Sowi, Distrik Manokwari, Kabupaten Manokwari, Papua Bar.","Kabupaten Manokwari, Papua Bar.",PAPUA BARAT,,Indonesia,81354179269.0,-0.8905188,134.0423211,https://maps.google.com/?cid=0x0:0xe18448fb10dff5fd
cafe,cafe,Wedrink Manokwari,"Jl. Drs Esau Sesa, Sowi, Distrik Manokwari, Kabupaten Manokwari, Papua Bar. 98312","Sowi, Distrik Manokwari, Kabupaten Manokwari",PAPUA BARAT,98312.0,Indonesia,81398818808.0,-0.8910755,134.0464671,https://maps.google.com/?cid=0x0:0xac9d0570bd188aa0
cafe,Kafe,Awin cafe (coffe  resto),"43G9+H85, Jl komplek BLK asrama taruna, Kabupaten Manokwari",Kabupaten Manokwari,PAPUA BARAT,,Indonesia,82197652330.0,-0.8736146,134.0683592,https://maps.google.com/?cid=0x0:0x266e3c85c87e88ac
cafe,Dapur Umum,Warung makan wardha,"3VJV+844, Unnamed Road, Prafi Mulia, Distrik Prafi, Kabupaten Manokwari, Papua Bar. 98352","Unnamed Road, Prafi Mulia, Distrik Prafi, Kabupaten Manokwari",PAPUA BARAT,98352.0,Indonesia,82394568193.0,-0.9192436,133.8928332,https://maps.google.com/?cid=0x0:0x4214f5aabeefee44
cafe,Kedai Kopi,Z COFFEE,"42HX+V6C, Jl. Trikora Rendani, Wosi, Kec. Manokwari Bar., Kabupaten Manokwari, Papua Bar. 98312","Jl. Trikora Rendani, Wosi, Kec. Manokwari Bar., Kabupaten Manokwari",PAPUA BARAT,98312.0,Indonesia,81247192526.0,-0.8703133,134.0480103,https://maps.google.com/?cid=0x0:0x52fc52684fc7839c
hotel,hotel,Papua Bar. 98311,"Kec. Manokwari Tim., Kabupaten Manokwari, Papua Bar.","Kabupaten Manokwari, Papua Bar.",PAPUA BARAT,,Indonesia,,-0.853122,134.1102895,https://maps.google.com/?cid=0x0:0x327a91d22239a4d5
hotel,hotel,Mansinam Beach Hotel,"43CR+H6X, Jl. Pasir Putih No.7, Pasir Putih, Kec. Manokwari Tim., Kabupaten Manokwari, Papua Bar. 98313","Jl. Pasir Putih No.7, Pasir Putih, Kec. Manokwari Tim., Kabupaten Manokwari",PAPUA BARAT,98313.0,Indonesia,986213585.0,-0.878422,134.0901197,https://maps.google.com/?cid=0x0:0x7d51b487bac82f8f
hotel,hotel,Hotel Triton,"Jl. Gn. Salju No.6, Manokwari Bar., Kec. Manokwari Bar., Kabupaten Manokwari, Papua Bar. 98311","Manokwari Bar., Kec. Manokwari Bar., Kabupaten Manokwari",PAPUA BARAT,98311.0,Indonesia,986212666.0,-0.8532727,134.068781,https://maps.google.com/?cid=0x0:0x6021b02b4fb20af
hotel,hotel,,,,PAPUA BARAT,,Indonesia,,,,https://maps.google.com/?cid=0x0:0x92c98d5e96ee2a8f%7C/g/1yl475f47%7Cid-ID
hotel,hotel,Hotel Rama,"42JW+GWX, Jl. Trikora Rendani, Wosi, Kec. Manokwari Bar., Kabupaten Manokwari, Papua Bar. 98312","Jl. Trikora Rendani, Wosi, Kec. Manokwari Bar., Kabupaten Manokwari",PAPUA BARAT,98312.0,Indonesia,,-0.8686391,134.0473473,https://maps.google.com/?cid=0x0:0xbc8387651670c591
hotel,hotel,RAMA TRANSITO HOTEL,"42RV+276, Unnamed Road, Wosi, Kec. Manokwari Bar., Kabupaten Manokwari, Papua Bar. 98312","Unnamed Road, Wosi, Kec. Manokwari Bar., Kabupaten Manokwari",PAPUA BARAT,98312.0,Indonesia,82198250318.0,-0.8599684,134.0431297,https://maps.google.com/?cid=0x0:0x61e002737b3747f1
hotel,hotel,Mahanaim Hotel dan Homestay Manokwari,"jln trikora kalidingin no 109, Wosi, Kec. Manokwari Bar., Kabupaten Manokwari, Papua Bar. 98312","Wosi, Kec. Manokwari Bar., Kabupaten Manokwari",PAPUA BARAT,98312.0,Indonesia,8124830147.0,-0.8699305,134.0471193,https://maps.google.com/?cid=0x0:0xeec6727952b4f3e6
hotel,hotel,Vitta Hotel Manokwari,"32PP+MFR, Jl. Trikora Taman Ria, Sowi, Distrik Manokwari, Kabupaten Manokwari, Papua Bar. 98315","Jl. Trikora Taman Ria, Sowi, Distrik Manokwari, Kabupaten Manokwari",PAPUA BARAT,98315.0,Indonesia,81367287972.0,-0.9131667,134.0359179,https://maps.google.com/?cid=0x0:0x4ec173a9ed9776eb
hotel,hotel,RedDoorz near Reremi Pemancar Manokwari,"JL. Ekonomi Reremi Manokwari, SMKN 3, Kabupaten Manokwari, Papua Bar. 98312","SMKN 3, Kabupaten Manokwari",PAPUA BARAT,98312.0,Indonesia,895417300072.0,-0.8564389,134.0627895,https://maps.google.com/?cid=0x0:0xe2ead707b1bdd259
hotel,hotel,Aston Niu Manokwari,"Sogun Hill, Jl. Drs Esau Sesa No.3 Blok B, Sowi, Distrik Manokwari, Kabupaten Manokwari, Papua Bar. 98315","Jl. Drs Esau Sesa No.3 Blok B, Sowi, Distrik Manokwari, Kabupaten Manokwari",PAPUA BARAT,98315.0,Indonesia,81369878787.0,-0.8978109,134.0416499,https://maps.google.com/?cid=0x0:0xe96b706fef94b3a2
hotel,hotel,,,,PAPUA BARAT,,Indonesia,,,,https://maps.google.com/?cid=0x0:0xe96b706fef94b3a2%7C/g/120jr49w%7Cid-ID
hotel,hotel,Amban Beach House,"Amban, Pantai, Kabupaten Manokwari, Papua Bar. 98312","Pantai, Kabupaten Manokwari",PAPUA BARAT,98312.0,Indonesia,85251590060.0,-0.8151637,134.0780254,https://maps.google.com/?cid=0x0:0x6bfad7f54baf0beb
hotel,hotel,,,,PAPUA BARAT,,Indonesia,,,,https://maps.google.com/?cid=0x0:0xf2c8eb1ca8dee63b%7C/g/11h4kv3ppk%7Cid-ID
hotel,hotel,Quattrick Dee Homestay,"Jl. KPR Reremi Permai, Manokwari Bar., Kec. Manokwari Bar., Kabupaten Manokwari, Papua Bar. 98312","Manokwari Bar., Kec. Manokwari Bar., Kabupaten Manokwari",PAPUA BARAT,98312.0,Indonesia,895417300072.0,-0.8533263,134.0555329,https://maps.google.com/?cid=0x0:0xf2c8eb1ca8dee63b
hotel,hotel,Papua Bar. 98312,"Kabupaten Manokwari, Papua Bar.","Kabupaten Manokwari, Papua Bar.",PAPUA BARAT,,Indonesia,,-0.8581559,134.0008674,https://maps.google.com/?cid=0x0:0x55f33f0d52b5b6d0
hotel,hotel,RAMA TRANSITO HOTEL,"42RV+276, Unnamed Road, Wosi, Kec. Manokwari Bar., Kabupaten Manokwari, Papua Bar. 98312","Unnamed Road, Wosi, Kec. Manokwari Bar., Kabupaten Manokwari",PAPUA BARAT,98312.0,Indonesia,82198250318.0,-0.8599684,134.0431297,https://maps.google.com/?cid=0x0:0x61e002737b3747f1
hotel,hotel,,,,PAPUA BARAT,,Indonesia,,,,https://maps.google.com/?cid=0x0:0x92c98d5e96ee2a8f%7C/g/1yl475f47%7Cid-ID
hotel,hotel,Hotel Rama,"42JW+GWX, Jl. Trikora Rendani, Wosi, Kec. Manokwari Bar., Kabupaten Manokwari, Papua Bar. 98312","Jl. Trikora Rendani, Wosi, Kec. Manokwari Bar., Kabupaten Manokwari",PAPUA BARAT,98312.0,Indonesia,,-0.8686391,134.0473473,https://maps.google.com/?cid=0x0:0xbc8387651670c591
hotel,hotel,Hotel Triton,"Jl. Gn. Salju No.6, Manokwari Bar., Kec. Manokwari Bar., Kabupaten Manokwari, Papua Bar. 98311","Manokwari Bar., Kec. Manokwari Bar., Kabupaten Manokwari",PAPUA BARAT,98311.0,Indonesia,986212666.0,-0.8532727,134.068781,https://maps.google.com/?cid=0x0:0x6021b02b4fb20af
hotel,hotel,Mahanaim Hotel dan Homestay Manokwari,"jln trikora kalidingin no 109, Wosi, Kec. Manokwari Bar., Kabupaten Manokwari, Papua Bar. 98312","Wosi, Kec. Manokwari Bar., Kabupaten Manokwari",PAPUA BARAT,98312.0,Indonesia,8124830147.0,-0.8699305,134.0471193,https://maps.google.com/?cid=0x0:0xeec6727952b4f3e6
hotel,hotel,Mansinam Beach Hotel,"43CR+H6X, Jl. Pasir Putih No.7, Pasir Putih, Kec. Manokwari Tim., Kabupaten Manokwari, Papua Bar. 98313","Jl. Pasir Putih No.7, Pasir Putih, Kec. Manokwari Tim., Kabupaten Manokwari",PAPUA BARAT,98313.0,Indonesia,986213585.0,-0.878422,134.0901197,https://maps.google.com/?cid=0x0:0x7d51b487bac82f8f
hotel,hotel,Vitta Hotel Manokwari,"32PP+MFR, Jl. Trikora Taman Ria, Sowi, Distrik Manokwari, Kabupaten Manokwari, Papua Bar. 98315","Jl. Trikora Taman Ria, Sowi, Distrik Manokwari, Kabupaten Manokwari",PAPUA BARAT,98315.0,Indonesia,81367287972.0,-0.9131667,134.0359179,https://maps.google.com/?cid=0x0:0x4ec173a9ed9776eb
hotel,hotel,,,,PAPUA BARAT,,Indonesia,,,,https://maps.google.com/?cid=0x0:0xe96b706fef94b3a2%7C/g/120jr49w%7Cid-ID
hotel,hotel,Aston Niu Manokwari,"Sogun Hill, Jl. Drs Esau Sesa No.3 Blok B, Sowi, Distrik Manokwari, Kabupaten Manokwari, Papua Bar. 98315","Jl. Drs Esau Sesa No.3 Blok B, Sowi, Distrik Manokwari, Kabupaten Manokwari",PAPUA BARAT,98315.0,Indonesia,81369878787.0,-0.8978109,134.0416499,https://maps.google.com/?cid=0x0:0xe96b706fef94b3a2
hotel,hotel,RedDoorz near Reremi Pemancar Manokwari,"JL. Ekonomi Reremi Manokwari, SMKN 3, Kabupaten Manokwari, Papua Bar. 98312","SMKN 3, Kabupaten Manokwari",PAPUA BARAT,98312.0,Indonesia,895417300072.0,-0.8564389,134.0627895,https://maps.google.com/?cid=0x0:0xe2ead707b1bdd259
hotel,hotel,,,,PAPUA BARAT,,Indonesia,,,,https://maps.google.com/?cid=0x0:0xf2c8eb1ca8dee63b%7C/g/11h4kv3ppk%7Cid-ID
hotel,hotel,Quattrick Dee Homestay,"Jl. KPR Reremi Permai, Manokwari Bar., Kec. Manokwari Bar., Kabupaten Manokwari, Papua Bar. 98312","Manokwari Bar., Kec. Manokwari Bar., Kabupaten Manokwari",PAPUA BARAT,98312.0,Indonesia,895417300072.0,-0.8533263,134.0555329,https://maps.google.com/?cid=0x0:0xf2c8eb1ca8dee63b
hotel,hotel,Amban Beach House,"Amban, Pantai, Kabupaten Manokwari, Papua Bar. 98312","Pantai, Kabupaten Manokwari",PAPUA BARAT,98312.0,Indonesia,85251590060.0,-0.8151637,134.0780254,https://maps.google.com/?cid=0x0:0x6bfad7f54baf0beb
hotel,hotel,Papua Bar. 98314,"Amban, Kec. Manokwari Bar., Kabupaten Manokwari, Papua Bar.","Kabupaten Manokwari, Papua Bar.",PAPUA BARAT,,Indonesia,,-0.8229506,134.0484728,https://maps.google.com/?cid=0x0:0xf25e0ecc06fa0aa1
hotel,hotel,RAMA TRANSITO HOTEL,"42RV+276, Unnamed Road, Wosi, Kec. Manokwari Bar., Kabupaten Manokwari, Papua Bar. 98312","Unnamed Road, Wosi, Kec. Manokwari Bar., Kabupaten Manokwari",PAPUA BARAT,98312.0,Indonesia,82198250318.0,-0.8599684,134.0431297,https://maps.google.com/?cid=0x0:0x61e002737b3747f1
hotel,hotel,Hotel Triton,"Jl. Gn. Salju No.6, Manokwari Bar., Kec. Manokwari Bar., Kabupaten Manokwari, Papua Bar. 98311","Manokwari Bar., Kec. Manokwari Bar., Kabupaten Manokwari",PAPUA BARAT,98311.0,Indonesia,986212666.0,-0.8532727,134.068781,https://maps.google.com/?cid=0x0:0x6021b02b4fb20af
hotel,hotel,,,,PAPUA BARAT,,Indonesia,,,,https://maps.google.com/?cid=0x0:0x92c98d5e96ee2a8f%7C/g/1yl475f47%7Cid-ID
hotel,hotel,Swiss Belhotel Manokwari,"Jl. Yos Sudarso Manokwari No.8, Manokwari Bar., Kec. Manokwari Bar., Kabupaten Manokwari, Papua Bar. 98312","Manokwari Bar., Kec. Manokwari Bar., Kabupaten Manokwari",PAPUA BARAT,98312.0,Indonesia,8114854000.0,-0.8572937,134.0672125,https://maps.google.com/?cid=0x0:0x92c98d5e96ee2a8f
hotel,hotel,Amban Beach House,"Amban, Pantai, Kabupaten Manokwari, Papua Bar. 98312","Pantai, Kabupaten Manokwari",PAPUA BARAT,98312.0,Indonesia,85251590060.0,-0.8151637,134.0780254,https://maps.google.com/?cid=0x0:0x6bfad7f54baf0beb
hotel,hotel,Mahanaim Hotel dan Homestay Manokwari,"jln trikora kalidingin no 109, Wosi, Kec. Manokwari Bar., Kabupaten Manokwari, Papua Bar. 98312","Wosi, Kec. Manokwari Bar., Kabupaten Manokwari",PAPUA BARAT,98312.0,Indonesia,8124830147.0,-0.8699305,134.0471193,https://maps.google.com/?cid=0x0:0xeec6727952b4f3e6
hotel,hotel,Quattrick Dee Homestay,"Jl. KPR Reremi Permai, Manokwari Bar., Kec. Manokwari Bar., Kabupaten Manokwari, Papua Bar. 98312","Manokwari Bar., Kec. Manokwari Bar., Kabupaten Manokwari",PAPUA BARAT,98312.0,Indonesia,895417300072.0,-0.8533263,134.0555329,https://maps.google.com/?cid=0x0:0xf2c8eb1ca8dee63b
hotel,hotel,,,,PAPUA BARAT,,Indonesia,,,,https://maps.google.com/?cid=0x0:0xf2c8eb1ca8dee63b%7C/g/11h4kv3ppk%7Cid-ID
hotel,hotel,RedDoorz near Reremi Pemancar Manokwari,"JL. Ekonomi Reremi Manokwari, SMKN 3, Kabupaten Manokwari, Papua Bar. 98312","SMKN 3, Kabupaten Manokwari",PAPUA BARAT,98312.0,Indonesia,895417300072.0,-0.8564389,134.0627895,https://maps.google.com/?cid=0x0:0xe2ead707b1bdd259
hotel,hotel,Vitta Hotel Manokwari,"32PP+MFR, Jl. Trikora Taman Ria, Sowi, Distrik Manokwari, Kabupaten Manokwari, Papua Bar. 98315","Jl. Trikora Taman Ria, Sowi, Distrik Manokwari, Kabupaten Manokwari",PAPUA BARAT,98315.0,Indonesia,81367287972.0,-0.9131667,134.0359179,https://maps.google.com/?cid=0x0:0x4ec173a9ed9776eb
hotel,hotel,Aston Niu Manokwari,"Sogun Hill, Jl. Drs Esau Sesa No.3 Blok B, Sowi, Distrik Manokwari, Kabupaten Manokwari, Papua Bar. 98315","Jl. Drs Esau Sesa No.3 Blok B, Sowi, Distrik Manokwari, Kabupaten Manokwari",PAPUA BARAT,98315.0,Indonesia,81369878787.0,-0.8978109,134.0416499,https://maps.google.com/?cid=0x0:0xe96b706fef94b3a2
hotel,hotel,,,,PAPUA BARAT,,Indonesia,,,,https://maps.google.com/?cid=0x0:0xe96b706fef94b3a2%7C/g/120jr49w%7Cid-ID
hotel,hotel,VILLA BINTANG LIMA,"Amban, Kec. Manokwari Bar., Kabupaten Manokwari, Papua Bar. 98314","Kec. Manokwari Bar., Kabupaten Manokwari",PAPUA BARAT,98314.0,Indonesia,82144177278.0,-0.8366638,134.0514883,https://maps.google.com/?cid=0x0:0x98d42d0974fb218e
hotel,hotel,Distrik Manokwari,"Kabupaten Manokwari, Papua Bar.","Kabupaten Manokwari, Papua Bar.",PAPUA BARAT,,Indonesia,,-0.8912103,134.046322,https://maps.google.com/?cid=0x0:0x25e95a286c9053b8
hotel,hotel,Vitta Hotel Manokwari,"32PP+MFR, Jl. Trikora Taman Ria, Sowi, Distrik Manokwari, Kabupaten Manokwari, Papua Bar. 98315","Jl. Trikora Taman Ria, Sowi, Distrik Manokwari, Kabupaten Manokwari",PAPUA BARAT,98315.0,Indonesia,81367287972.0,-0.9131667,134.0359179,https://maps.google.com/?cid=0x0:0x4ec173a9ed9776eb
hotel,hotel,Hotel Rama,"42JW+GWX, Jl. Trikora Rendani, Wosi, Kec. Manokwari Bar., Kabupaten Manokwari, Papua Bar. 98312","Jl. Trikora Rendani, Wosi, Kec. Manokwari Bar., Kabupaten Manokwari",PAPUA BARAT,98312.0,Indonesia,,-0.8686391,134.0473473,https://maps.google.com/?cid=0x0:0xbc8387651670c591
hotel,hotel,Aston Niu Manokwari,"Sogun Hill, Jl. Drs Esau Sesa No.3 Blok B, Sowi, Distrik Manokwari, Kabupaten Manokwari, Papua Bar. 98315","Jl. Drs Esau Sesa No.3 Blok B, Sowi, Distrik Manokwari, Kabupaten Manokwari",PAPUA BARAT,98315.0,Indonesia,81369878787.0,-0.8978109,134.0416499,https://maps.google.com/?cid=0x0:0xe96b706fef94b3a2
hotel,hotel,,,,PAPUA BARAT,,Indonesia,,,,https://maps.google.com/?cid=0x0:0xe96b706fef94b3a2%7C/g/120jr49w%7Cid-ID
hotel,hotel,RAMA TRANSITO HOTEL,"42RV+276, Unnamed Road, Wosi, Kec. Manokwari Bar., Kabupaten Manokwari, Papua Bar. 98312","Unnamed Road, Wosi, Kec. Manokwari Bar., Kabupaten Manokwari",PAPUA BARAT,98312.0,Indonesia,82198250318.0,-0.8599684,134.0431297,https://maps.google.com/?cid=0x0:0x61e002737b3747f1
hotel,hotel,Hotel Triton,"Jl. Gn. Salju No.6, Manokwari Bar., Kec. Manokwari Bar., Kabupaten Manokwari, Papua Bar. 98311","Manokwari Bar., Kec. Manokwari Bar., Kabupaten Manokwari",PAPUA BARAT,98311.0,Indonesia,986212666.0,-0.8532727,134.068781,https://maps.google.com/?cid=0x0:0x6021b02b4fb20af
hotel,hotel,Swiss Belhotel Manokwari,"Jl. Yos Sudarso Manokwari No.8, Manokwari Bar., Kec. Manokwari Bar., Kabupaten Manokwari, Papua Bar. 98312","Manokwari Bar., Kec. Manokwari Bar., Kabupaten Manokwari",PAPUA BARAT,98312.0,Indonesia,8114854000.0,-0.8572937,134.0672125,https://maps.google.com/?cid=0x0:0x92c98d5e96ee2a8f
hotel,hotel,Mansinam Beach Hotel,"43CR+H6X, Jl. Pasir Putih No.7, Pasir Putih, Kec. Manokwari Tim., Kabupaten Manokwari, Papua Bar. 98313","Jl. Pasir Putih No.7, Pasir Putih, Kec. Manokwari Tim., Kabupaten Manokwari",PAPUA BARAT,98313.0,Indonesia,986213585.0,-0.878422,134.0901197,https://maps.google.com/?cid=0x0:0x7d51b487bac82f8f
hotel,hotel,,,,PAPUA BARAT,,Indonesia,,,,https://maps.google.com/?cid=0x0:0x92c98d5e96ee2a8f%7C/g/1yl475f47%7Cid-ID
hotel,hotel,Quattrick Dee Homestay,"Jl. KPR Reremi Permai, Manokwari Bar., Kec. Manokwari Bar., Kabupaten Manokwari, Papua Bar. 98312","Manokwari Bar., Kec. Manokwari Bar., Kabupaten Manokwari",PAPUA BARAT,98312.0,Indonesia,895417300072.0,-0.8533263,134.0555329,https://maps.google.com/?cid=0x0:0xf2c8eb1ca8dee63b
hotel,hotel,,,,PAPUA BARAT,,Indonesia,,,,https://maps.google.com/?cid=0x0:0xf2c8eb1ca8dee63b%7C/g/11h4kv3ppk%7Cid-ID
hotel,hotel,Oriestom Bay Hotel,"43F2+G29, Jl. Trikora Rendani, Wosi, Kec. Manokwari Bar., Kabupaten Manokwari, Papua Bar. 98312","Jl. Trikora Rendani, Wosi, Kec. Manokwari Bar., Kabupaten Manokwari",PAPUA BARAT,98312.0,Indonesia,81240197780.0,-0.8762108,134.0501061,https://maps.google.com/?cid=0x0:0x8bd50034329ebf97
hotel,hotel,RedDoorz near Reremi Pemancar Manokwari,"JL. Ekonomi Reremi Manokwari, SMKN 3, Kabupaten Manokwari, Papua Bar. 98312","SMKN 3, Kabupaten Manokwari",PAPUA BARAT,98312.0,Indonesia,895417300072.0,-0.8564389,134.0627895,https://maps.google.com/?cid=0x0:0xe2ead707b1bdd259
hotel,hotel,Papua Bar. 98311,"Kec. Manokwari Tim., Kabupaten Manokwari, Papua Bar.","Kabupaten Manokwari, Papua Bar.",PAPUA BARAT,,Indonesia,,-0.853122,134.1102895,https://maps.google.com/?cid=0x0:0x327a91d22239a4d5
hotel,hotel,Mansinam Beach Hotel,"43CR+H6X, Jl. Pasir Putih No.7, Pasir Putih, Kec. Manokwari Tim., Kabupaten Manokwari, Papua Bar. 98313","Jl. Pasir Putih No.7, Pasir Putih, Kec. Manokwari Tim., Kabupaten Manokwari",PAPUA BARAT,98313.0,Indonesia,986213585.0,-0.878422,134.0901197,https://maps.google.com/?cid=0x0:0x7d51b487bac82f8f
hotel,hotel,Hotel Triton,"Jl. Gn. Salju No.6, Manokwari Bar., Kec. Manokwari Bar., Kabupaten Manokwari, Papua Bar. 98311","Manokwari Bar., Kec. Manokwari Bar., Kabupaten Manokwari",PAPUA BARAT,98311.0,Indonesia,986212666.0,-0.8532727,134.068781,https://maps.google.com/?cid=0x0:0x6021b02b4fb20af
hotel,hotel,,,,PAPUA BARAT,,Indonesia,,,,https://maps.google.com/?cid=0x0:0x92c98d5e96ee2a8f%7C/g/1yl475f47%7Cid-ID
hotel,hotel,Hotel Rama,"42JW+GWX, Jl. Trikora Rendani, Wosi, Kec. Manokwari Bar., Kabupaten Manokwari, Papua Bar. 98312","Jl. Trikora Rendani, Wosi, Kec. Manokwari Bar., Kabupaten Manokwari",PAPUA BARAT,98312.0,Indonesia,,-0.8686391,134.0473473,https://maps.google.com/?cid=0x0:0xbc8387651670c591
hotel,hotel,Mahanaim Hotel dan Homestay Manokwari,"jln trikora kalidingin no 109, Wosi, Kec. Manokwari Bar., Kabupaten Manokwari, Papua Bar. 98312","Wosi, Kec. Manokwari Bar., Kabupaten Manokwari",PAPUA BARAT,98312.0,Indonesia,8124830147.0,-0.8699305,134.0471193,https://maps.google.com/?cid=0x0:0xeec6727952b4f3e6
hotel,hotel,RAMA TRANSITO HOTEL,"42RV+276, Unnamed Road, Wosi, Kec. Manokwari Bar., Kabupaten Manokwari, Papua Bar. 98312","Unnamed Road, Wosi, Kec. Manokwari Bar., Kabupaten Manokwari",PAPUA BARAT,98312.0,Indonesia,82198250318.0,-0.8599684,134.0431297,https://maps.google.com/?cid=0x0:0x61e002737b3747f1
hotel,hotel,,,,PAPUA BARAT,,Indonesia,,,,https://maps.google.com/?cid=0x0:0xe96b706fef94b3a2%7C/g/120jr49w%7Cid-ID
hotel,hotel,Aston Niu Manokwari,"Sogun Hill, Jl. Drs Esau Sesa No.3 Blok B, Sowi, Distrik Manokwari, Kabupaten Manokwari, Papua Bar. 98315","Jl. Drs Esau Sesa No.3 Blok B, Sowi, Distrik Manokwari, Kabupaten Manokwari",PAPUA BARAT,98315.0,Indonesia,81369878787.0,-0.8978109,134.0416499,https://maps.google.com/?cid=0x0:0xe96b706fef94b3a2
hotel,hotel,Amban Beach House,"Amban, Pantai, Kabupaten Manokwari, Papua Bar. 98312","Pantai, Kabupaten Manokwari",PAPUA BARAT,98312.0,Indonesia,85251590060.0,-0.8151637,134.0780254,https://maps.google.com/?cid=0x0:0x6bfad7f54baf0beb
hotel,hotel,Vitta Hotel Manokwari,"32PP+MFR, Jl. Trikora Taman Ria, Sowi, Distrik Manokwari, Kabupaten Manokwari, Papua Bar. 98315","Jl. Trikora Taman Ria, Sowi, Distrik Manokwari, Kabupaten Manokwari",PAPUA BARAT,98315.0,Indonesia,81367287972.0,-0.9131667,134.0359179,https://maps.google.com/?cid=0x0:0x4ec173a9ed9776eb
hotel,hotel,RedDoorz near Reremi Pemancar Manokwari,"JL. Ekonomi Reremi Manokwari, SMKN 3, Kabupaten Manokwari, Papua Bar. 98312","SMKN 3, Kabupaten Manokwari",PAPUA BARAT,98312.0,Indonesia,895417300072.0,-0.8564389,134.0627895,https://maps.google.com/?cid=0x0:0xe2ead707b1bdd259
hotel,hotel,Quattrick Dee Homestay,"Jl. KPR Reremi Permai, Manokwari Bar., Kec. Manokwari Bar., Kabupaten Manokwari, Papua Bar. 98312","Manokwari Bar., Kec. Manokwari Bar., Kabupaten Manokwari",PAPUA BARAT,98312.0,Indonesia,895417300072.0,-0.8533263,134.0555329,https://maps.google.com/?cid=0x0:0xf2c8eb1ca8dee63b
hotel,hotel,,,,PAPUA BARAT,,Indonesia,,,,https://maps.google.com/?cid=0x0:0xf2c8eb1ca8dee63b%7C/g/11h4kv3ppk%7Cid-ID
hotel,hotel,Papua Bar. 98313,"Kec. Manokwari Tim., Kabupaten Manokwari, Papua Bar.","Kabupaten Manokwari, Papua Bar.",PAPUA BARAT,,Indonesia,,-0.8667845,134.1197927,https://maps.google.com/?cid=0x0:0xc87b5f10f76e2d0f
hotel,hotel,Mansinam Beach Hotel,"43CR+H6X, Jl. Pasir Putih No.7, Pasir Putih, Kec. Manokwari Tim., Kabupaten Manokwari, Papua Bar. 98313","Jl. Pasir Putih No.7, Pasir Putih, Kec. Manokwari Tim., Kabupaten Manokwari",PAPUA BARAT,98313.0,Indonesia,986213585.0,-0.878422,134.0901197,https://maps.google.com/?cid=0x0:0x7d51b487bac82f8f
hotel,hotel,Hotel Rama,"42JW+GWX, Jl. Trikora Rendani, Wosi, Kec. Manokwari Bar., Kabupaten Manokwari, Papua Bar. 98312","Jl. Trikora Rendani, Wosi, Kec. Manokwari Bar., Kabupaten Manokwari",PAPUA BARAT,98312.0,Indonesia,,-0.8686391,134.0473473,https://maps.google.com/?cid=0x0:0xbc8387651670c591
hotel,hotel,,,,PAPUA BARAT,,Indonesia,,,,https://maps.google.com/?cid=0x0:0x92c98d5e96ee2a8f%7C/g/1yl475f47%7Cid-ID
hotel,hotel,Mahanaim Hotel dan Homestay Manokwari,"jln trikora kalidingin no 109, Wosi, Kec. Manokwari Bar., Kabupaten Manokwari, Papua Bar. 98312","Wosi, Kec. Manokwari Bar., Kabupaten Manokwari",PAPUA BARAT,98312.0,Indonesia,8124830147.0,-0.8699305,134.0471193,https://maps.google.com/?cid=0x0:0xeec6727952b4f3e6
hotel,hotel,RAMA TRANSITO HOTEL,"42RV+276, Unnamed Road, Wosi, Kec. Manokwari Bar., Kabupaten Manokwari, Papua Bar. 98312","Unnamed Road, Wosi, Kec. Manokwari Bar., Kabupaten Manokwari",PAPUA BARAT,98312.0,Indonesia,82198250318.0,-0.8599684,134.0431297,https://maps.google.com/?cid=0x0:0x61e002737b3747f1
hotel,hotel,Hotel Triton,"Jl. Gn. Salju No.6, Manokwari Bar., Kec. Manokwari Bar., Kabupaten Manokwari, Papua Bar. 98311","Manokwari Bar., Kec. Manokwari Bar., Kabupaten Manokwari",PAPUA BARAT,98311.0,Indonesia,986212666.0,-0.8532727,134.068781,https://maps.google.com/?cid=0x0:0x6021b02b4fb20af
hotel,hotel,Aston Niu Manokwari,"Sogun Hill, Jl. Drs Esau Sesa No.3 Blok B, Sowi, Distrik Manokwari, Kabupaten Manokwari, Papua Bar. 98315","Jl. Drs Esau Sesa No.3 Blok B, Sowi, Distrik Manokwari, Kabupaten Manokwari",PAPUA BARAT,98315.0,Indonesia,81369878787.0,-0.8978109,134.0416499,https://maps.google.com/?cid=0x0:0xe96b706fef94b3a2
hotel,hotel,,,,PAPUA BARAT,,Indonesia,,,,https://maps.google.com/?cid=0x0:0xe96b706fef94b3a2%7C/g/120jr49w%7Cid-ID
hotel,hotel,Vitta Hotel Manokwari,"32PP+MFR, Jl. Trikora Taman Ria, Sowi, Distrik Manokwari, Kabupaten Manokwari, Papua Bar. 98315","Jl. Trikora Taman Ria, Sowi, Distrik Manokwari, Kabupaten Manokwari",PAPUA BARAT,98315.0,Indonesia,81367287972.0,-0.9131667,134.0359179,https://maps.google.com/?cid=0x0:0x4ec173a9ed9776eb
hotel,hotel,Amban Beach House,"Amban, Pantai, Kabupaten Manokwari, Papua Bar. 98312","Pantai, Kabupaten Manokwari",PAPUA BARAT,98312.0,Indonesia,85251590060.0,-0.8151637,134.0780254,https://maps.google.com/?cid=0x0:0x6bfad7f54baf0beb
hotel,hotel,RedDoorz near Reremi Pemancar Manokwari,"JL. Ekonomi Reremi Manokwari, SMKN 3, Kabupaten Manokwari, Papua Bar. 98312","SMKN 3, Kabupaten Manokwari",PAPUA BARAT,98312.0,Indonesia,895417300072.0,-0.8564389,134.0627895,https://maps.google.com/?cid=0x0:0xe2ead707b1bdd259
hotel,hotel,Quattrick Dee Homestay,"Jl. KPR Reremi Permai, Manokwari Bar., Kec. Manokwari Bar., Kabupaten Manokwari, Papua Bar. 98312","Manokwari Bar., Kec. Manokwari Bar., Kabupaten Manokwari",PAPUA BARAT,98312.0,Indonesia,895417300072.0,-0.8533263,134.0555329,https://maps.google.com/?cid=0x0:0xf2c8eb1ca8dee63b
hotel,hotel,,,,PAPUA BARAT,,Indonesia,,,,https://maps.google.com/?cid=0x0:0xf2c8eb1ca8dee63b%7C/g/11h4kv3ppk%7Cid-ID
hotel,hotel,Kec. Manokwari Utara,"Kabupaten Manokwari, Papua Bar.","Kabupaten Manokwari, Papua Bar.",PAPUA BARAT,,Indonesia,,-0.7545947,133.9845162,https://maps.google.com/?cid=0x0:0x4e2d072dfe215e65
hotel,hotel,RAMA TRANSITO HOTEL,"42RV+276, Unnamed Road, Wosi, Kec. Manokwari Bar., Kabupaten Manokwari, Papua Bar. 98312","Unnamed Road, Wosi, Kec. Manokwari Bar., Kabupaten Manokwari",PAPUA BARAT,98312.0,Indonesia,82198250318.0,-0.8599684,134.0431297,https://maps.google.com/?cid=0x0:0x61e002737b3747f1
hotel,hotel,Hotel Rama,"42JW+GWX, Jl. Trikora Rendani, Wosi, Kec. Manokwari Bar., Kabupaten Manokwari, Papua Bar. 98312","Jl. Trikora Rendani, Wosi, Kec. Manokwari Bar., Kabupaten Manokwari",PAPUA BARAT,98312.0,Indonesia,,-0.8686391,134.0473473,https://maps.google.com/?cid=0x0:0xbc8387651670c591
hotel,hotel,Vitta Hotel Manokwari,"32PP+MFR, Jl. Trikora Taman Ria, Sowi, Distrik Manokwari, Kabupaten Manokwari, Papua Bar. 98315","Jl. Trikora Taman Ria, Sowi, Distrik Manokwari, Kabupaten Manokwari",PAPUA BARAT,98315.0,Indonesia,81367287972.0,-0.9131667,134.0359179,https://maps.google.com/?cid=0x0:0x4ec173a9ed9776eb
hotel,hotel,Amban Beach House,"Amban, Pantai, Kabupaten Manokwari, Papua Bar. 98312","Pantai, Kabupaten Manokwari",PAPUA BARAT,98312.0,Indonesia,85251590060.0,-0.8151637,134.0780254,https://maps.google.com/?cid=0x0:0x6bfad7f54baf0beb
hotel,hotel,Hotel Triton,"Jl. Gn. Salju No.6, Manokwari Bar., Kec. Manokwari Bar., Kabupaten Manokwari, Papua Bar. 98311","Manokwari Bar., Kec. Manokwari Bar., Kabupaten Manokwari",PAPUA BARAT,98311.0,Indonesia,986212666.0,-0.8532727,134.068781,https://maps.google.com/?cid=0x0:0x6021b02b4fb20af
hotel,hotel,Mansinam Beach Hotel,"43CR+H6X, Jl. Pasir Putih No.7, Pasir Putih, Kec. Manokwari Tim., Kabupaten Manokwari, Papua Bar. 98313","Jl. Pasir Putih No.7, Pasir Putih, Kec. Manokwari Tim., Kabupaten Manokwari",PAPUA BARAT,98313.0,Indonesia,986213585.0,-0.878422,134.0901197,https://maps.google.com/?cid=0x0:0x7d51b487bac82f8f
hotel,hotel,,,,PAPUA BARAT,,Indonesia,,,,https://maps.google.com/?cid=0x0:0xe96b706fef94b3a2%7C/g/120jr49w%7Cid-ID
hotel,hotel,Aston Niu Manokwari,"Sogun Hill, Jl. Drs Esau Sesa No.3 Blok B, Sowi, Distrik Manokwari, Kabupaten Manokwari, Papua Bar. 98315","Jl. Drs Esau Sesa No.3 Blok B, Sowi, Distrik Manokwari, Kabupaten Manokwari",PAPUA BARAT,98315.0,Indonesia,81369878787.0,-0.8978109,134.0416499,https://maps.google.com/?cid=0x0:0xe96b706fef94b3a2
hotel,hotel,Quattrick Dee Homestay,"Jl. KPR Reremi Permai, Manokwari Bar., Kec. Manokwari Bar., Kabupaten Manokwari, Papua Bar. 98312","Manokwari Bar., Kec. Manokwari Bar., Kabupaten Manokwari",PAPUA BARAT,98312.0,Indonesia,895417300072.0,-0.8533263,134.0555329,https://maps.google.com/?cid=0x0:0xf2c8eb1ca8dee63b
hotel,hotel,,,,PAPUA BARAT,,Indonesia,,,,https://maps.google.com/?cid=0x0:0xf2c8eb1ca8dee63b%7C/g/11h4kv3ppk%7Cid-ID
hotel,hotel,Swiss Belhotel Manokwari,"Jl. Yos Sudarso Manokwari No.8, Manokwari Bar., Kec. Manokwari Bar., Kabupaten Manokwari, Papua Bar. 98312","Manokwari Bar., Kec. Manokwari Bar., Kabupaten Manokwari",PAPUA BARAT,98312.0,Indonesia,8114854000.0,-0.8572937,134.0672125,https://maps.google.com/?cid=0x0:0x92c98d5e96ee2a8f
hotel,hotel,,,,PAPUA BARAT,,Indonesia,,,,https://maps.google.com/?cid=0x0:0x92c98d5e96ee2a8f%7C/g/1yl475f47%7Cid-ID
hotel,hotel,RedDoorz near Reremi Pemancar Manokwari,"JL. Ekonomi Reremi Manokwari, SMKN 3, Kabupaten Manokwari, Papua Bar. 98312","SMKN 3, Kabupaten Manokwari",PAPUA BARAT,98312.0,Indonesia,895417300072.0,-0.8564389,134.0627895,https://maps.google.com/?cid=0x0:0xe2ead707b1bdd259
hotel,hotel,Distrik Masni,"Kabupaten Manokwari, Papua Bar.","Kabupaten Manokwari, Papua Bar.",PAPUA BARAT,,Indonesia,,-0.7868548,133.728488,https://maps.google.com/?cid=0x0:0x887c8da652d5665d
hotel,hotel,Mahanaim Hotel dan Homestay Manokwari,"jln trikora kalidingin no 109, Wosi, Kec. Manokwari Bar., Kabupaten Manokwari, Papua Bar. 98312","Wosi, Kec. Manokwari Bar., Kabupaten Manokwari",PAPUA BARAT,98312.0,Indonesia,8124830147.0,-0.8699305,134.0471193,https://maps.google.com/?cid=0x0:0xeec6727952b4f3e6
hotel,hotel,Aston Niu Manokwari,"Sogun Hill, Jl. Drs Esau Sesa No.3 Blok B, Sowi, Distrik Manokwari, Kabupaten Manokwari, Papua Bar. 98315","Jl. Drs Esau Sesa No.3 Blok B, Sowi, Distrik Manokwari, Kabupaten Manokwari",PAPUA BARAT,98315.0,Indonesia,81369878787.0,-0.8978109,134.0416499,https://maps.google.com/?cid=0x0:0xe96b706fef94b3a2
hotel,hotel,Mansinam Beach Hotel,"43CR+H6X, Jl. Pasir Putih No.7, Pasir Putih, Kec. Manokwari Tim., Kabupaten Manokwari, Papua Bar. 98313","Jl. Pasir Putih No.7, Pasir Putih, Kec. Manokwari Tim., Kabupaten Manokwari",PAPUA BARAT,98313.0,Indonesia,986213585.0,-0.878422,134.0901197,https://maps.google.com/?cid=0x0:0x7d51b487bac82f8f
hotel,hotel,RAMA TRANSITO HOTEL,"42RV+276, Unnamed Road, Wosi, Kec. Manokwari Bar., Kabupaten Manokwari, Papua Bar. 98312","Unnamed Road, Wosi, Kec. Manokwari Bar., Kabupaten Manokwari",PAPUA BARAT,98312.0,Indonesia,82198250318.0,-0.8599684,134.0431297,https://maps.google.com/?cid=0x0:0x61e002737b3747f1
hotel,hotel,Fajar Roon Hotel,"Jl. Trikora Wosi, Wosi, Kec. Manokwari Bar., Kabupaten Manokwari, Papua Bar. 98312","Wosi, Kec. Manokwari Bar., Kabupaten Manokwari",PAPUA BARAT,98312.0,Indonesia,85333112338.0,-0.8680273,134.0564644,https://maps.google.com/?cid=0x0:0xec6cf3d20bba5444
hotel,hotel,Mangga Hotel,"Jl. Bhayangkara No.1, Manokwari Tim., Kec. Manokwari Bar., Kabupaten Manokwari, Papua Bar. 98312","Manokwari Tim., Kec. Manokwari Bar., Kabupaten Manokwari",PAPUA BARAT,98312.0,Indonesia,62986211693.0,-0.870176,134.0778405,https://maps.google.com/?cid=0x0:0x3d2ada72a869c631
hotel,hotel,Hotel Rama,"42JW+GWX, Jl. Trikora Rendani, Wosi, Kec. Manokwari Bar., Kabupaten Manokwari, Papua Bar. 98312","Jl. Trikora Rendani, Wosi, Kec. Manokwari Bar., Kabupaten Manokwari",PAPUA BARAT,98312.0,Indonesia,,-0.8686391,134.0473473,https://maps.google.com/?cid=0x0:0xbc8387651670c591
hotel,Hotel,Masni,"6P9Q+478, Sumber Boga, Distrik Masni, Kabupaten Manokwari, Papua Bar.","Kabupaten Manokwari, Papua Bar.",PAPUA BARAT,,Indonesia,,-0.7822035,133.7381978,https://maps.google.com/?cid=0x0:0x53b4083618ac804f
hotel,Hotel,kos,"6P7H+3QG, Unnamed Road, Sumber Boga, Masni, Manokwari Regency, West Papua 98357","Unnamed Road, Sumber Boga, Masni, Manokwari Regency",PAPUA BARAT,98357.0,Indonesia,,-0.7873245,133.7294544,https://maps.google.com/?cid=0x0:0x2933365fd2214dc9
hotel,hotel,Distrik Prafi,"Kabupaten Manokwari, Papua Bar.","Kabupaten Manokwari, Papua Bar.",PAPUA BARAT,,Indonesia,,-0.8781986,133.8274668,https://maps.google.com/?cid=0x0:0xb111fb1aee64e776
hotel,hotel,Hotel Rama,"42JW+GWX, Jl. Trikora Rendani, Wosi, Kec. Manokwari Bar., Kabupaten Manokwari, Papua Bar. 98312","Jl. Trikora Rendani, Wosi, Kec. Manokwari Bar., Kabupaten Manokwari",PAPUA BARAT,98312.0,Indonesia,,-0.8686391,134.0473473,https://maps.google.com/?cid=0x0:0xbc8387651670c591
hotel,hotel,Vitta Hotel Manokwari,"32PP+MFR, Jl. Trikora Taman Ria, Sowi, Distrik Manokwari, Kabupaten Manokwari, Papua Bar. 98315","Jl. Trikora Taman Ria, Sowi, Distrik Manokwari, Kabupaten Manokwari",PAPUA BARAT,98315.0,Indonesia,81367287972.0,-0.9131667,134.0359179,https://maps.google.com/?cid=0x0:0x4ec173a9ed9776eb
hotel,hotel,Hotel Triton,"Jl. Gn. Salju No.6, Manokwari Bar., Kec. Manokwari Bar., Kabupaten Manokwari, Papua Bar. 98311","Manokwari Bar., Kec. Manokwari Bar., Kabupaten Manokwari",PAPUA BARAT,98311.0,Indonesia,986212666.0,-0.8532727,134.068781,https://maps.google.com/?cid=0x0:0x6021b02b4fb20af
hotel,hotel,,,,PAPUA BARAT,,Indonesia,,,,https://maps.google.com/?cid=0x0:0x92c98d5e96ee2a8f%7C/g/1yl475f47%7Cid-ID
hotel,hotel,Swiss Belhotel Manokwari,"Jl. Yos Sudarso Manokwari No.8, Manokwari Bar., Kec. Manokwari Bar., Kabupaten Manokwari, Papua Bar. 98312","Manokwari Bar., Kec. Manokwari Bar., Kabupaten Manokwari",PAPUA BARAT,98312.0,Indonesia,8114854000.0,-0.8572937,134.0672125,https://maps.google.com/?cid=0x0:0x92c98d5e96ee2a8f
hotel,hotel,Oriestom Bay Hotel,"43F2+G29, Jl. Trikora Rendani, Wosi, Kec. Manokwari Bar., Kabupaten Manokwari, Papua Bar. 98312","Jl. Trikora Rendani, Wosi, Kec. Manokwari Bar., Kabupaten Manokwari",PAPUA BARAT,98312.0,Indonesia,81240197780.0,-0.8762108,134.0501061,https://maps.google.com/?cid=0x0:0x8bd50034329ebf97
hotel,hotel,RAMA TRANSITO HOTEL,"42RV+276, Unnamed Road, Wosi, Kec. Manokwari Bar., Kabupaten Manokwari, Papua Bar. 98312","Unnamed Road, Wosi, Kec. Manokwari Bar., Kabupaten Manokwari",PAPUA BARAT,98312.0,Indonesia,82198250318.0,-0.8599684,134.0431297,https://maps.google.com/?cid=0x0:0x61e002737b3747f1
hotel,hotel,Hotel Fujita Papua,"Jl. Drs Esau Sesa, Wosi, Kec. Manokwari Bar., Kabupaten Manokwari, Papua Bar. 98312","Wosi, Kec. Manokwari Bar., Kabupaten Manokwari",PAPUA BARAT,98312.0,Indonesia,9862210707.0,-0.8727087,134.0465433,https://maps.google.com/?cid=0x0:0x12ad8f54a87fdc03
hotel,hotel,hotel oriestom,"43PG+J4M, Jl. Merdeka, Manokwari Tim., Kec. Manokwari Bar., Kabupaten Manokwari, Papua Bar. 98312","Jl. Merdeka, Manokwari Tim., Kec. Manokwari Bar., Kabupaten Manokwari",PAPUA BARAT,98312.0,Indonesia,62986211519.0,-0.8634113,134.0752839,https://maps.google.com/?cid=0x0:0x215631a03bde85f8
hotel,hotel,Soribo Hotel,"42HX+88F, Jl. Trikora Taman Ria, Wosi, Kec. Manokwari Bar., Kabupaten Manokwari, Papua Bar. 98312","Jl. Trikora Taman Ria, Wosi, Kec. Manokwari Bar., Kabupaten Manokwari",PAPUA BARAT,98312.0,Indonesia,82399358933.0,-0.8716912,134.0482957,https://maps.google.com/?cid=0x0:0x2fa30b65d0c34345
hotel,hotel,Holiday Park Hotel,"Jl. Pahlawan No.88, Sanggeng, Kec. Manokwari Bar., Kabupaten Manokwari, Papua Bar. 98312","Sanggeng, Kec. Manokwari Bar., Kabupaten Manokwari",PAPUA BARAT,98312.0,Indonesia,,-0.8661016,134.0598053,https://maps.google.com/?cid=0x0:0xc540ec9eb51f19b5
hotel,hotel,Fajar Roon Hotel,"Jl. Trikora Wosi, Wosi, Kec. Manokwari Bar., Kabupaten Manokwari, Papua Bar. 98312","Wosi, Kec. Manokwari Bar., Kabupaten Manokwari",PAPUA BARAT,98312.0,Indonesia,85333112338.0,-0.8680273,134.0564644,https://maps.google.com/?cid=0x0:0xec6cf3d20bba5444
hotel,hotel,Hotel HI,"38C2+2X4, Fak Fak Selatan, Distrik Fakfak, Kabupaten Fakfak, Papua Bar. 98651","Fak Fak Selatan, Distrik Fakfak, Kabupaten Fakfak",PAPUA BARAT,98651.0,Indonesia,8888695878.0,-2.9299949,132.3024558,https://maps.google.com/?cid=0x0:0xa6762a3966976144
hotel,hotel,Hotel Rama,"42JW+GWX, Jl. Trikora Rendani, Wosi, Kec. Manokwari Bar., Kabupaten Manokwari, Papua Bar. 98312","Jl. Trikora Rendani, Wosi, Kec. Manokwari Bar., Kabupaten Manokwari",PAPUA BARAT,98312.0,Indonesia,,-0.8686391,134.0473473,https://maps.google.com/?cid=0x0:0xbc8387651670c591
hotel,hotel,Papua Bar. 98356,"Kabupaten Manokwari, Papua Bar.","Kabupaten Manokwari, Papua Bar.",PAPUA BARAT,,Indonesia,,-0.944854,133.7717073,https://maps.google.com/?cid=0x0:0x8f6cbc943a6f12d8
hotel,hotel,Swiss Belhotel Manokwari,"Jl. Yos Sudarso Manokwari No.8, Manokwari Bar., Kec. Manokwari Bar., Kabupaten Manokwari, Papua Bar. 98312","Manokwari Bar., Kec. Manokwari Bar., Kabupaten Manokwari",PAPUA BARAT,98312.0,Indonesia,8114854000.0,-0.8572937,134.0672125,https://maps.google.com/?cid=0x0:0x92c98d5e96ee2a8f
hotel,hotel,Hotel Triton,"Jl. Gn. Salju No.6, Manokwari Bar., Kec. Manokwari Bar., Kabupaten Manokwari, Papua Bar. 98311","Manokwari Bar., Kec. Manokwari Bar., Kabupaten Manokwari",PAPUA BARAT,98311.0,Indonesia,986212666.0,-0.8532727,134.068781,https://maps.google.com/?cid=0x0:0x6021b02b4fb20af
hotel,hotel,Aston Niu Manokwari,"Sogun Hill, Jl. Drs Esau Sesa No.3 Blok B, Sowi, Distrik Manokwari, Kabupaten Manokwari, Papua Bar. 98315","Jl. Drs Esau Sesa No.3 Blok B, Sowi, Distrik Manokwari, Kabupaten Manokwari",PAPUA BARAT,98315.0,Indonesia,81369878787.0,-0.8978109,134.0416499,https://maps.google.com/?cid=0x0:0xe96b706fef94b3a2
hotel,hotel,,,,PAPUA BARAT,,Indonesia,,,,https://maps.google.com/?cid=0x0:0xe96b706fef94b3a2%7C/g/120jr49w%7Cid-ID
hotel,hotel,Vitta Hotel Manokwari,"32PP+MFR, Jl. Trikora Taman Ria, Sowi, Distrik Manokwari, Kabupaten Manokwari, Papua Bar. 98315","Jl. Trikora Taman Ria, Sowi, Distrik Manokwari, Kabupaten Manokwari",PAPUA BARAT,98315.0,Indonesia,81367287972.0,-0.9131667,134.0359179,https://maps.google.com/?cid=0x0:0x4ec173a9ed9776eb
hotel,hotel,Mahanaim Hotel dan Homestay Manokwari,"jln trikora kalidingin no 109, Wosi, Kec. Manokwari Bar., Kabupaten Manokwari, Papua Bar. 98312","Wosi, Kec. Manokwari Bar., Kabupaten Manokwari",PAPUA BARAT,98312.0,Indonesia,8124830147.0,-0.8699305,134.0471193,https://maps.google.com/?cid=0x0:0xeec6727952b4f3e6
hotel,hotel,RAMA TRANSITO HOTEL,"42RV+276, Unnamed Road, Wosi, Kec. Manokwari Bar., Kabupaten Manokwari, Papua Bar. 98312","Unnamed Road, Wosi, Kec. Manokwari Bar., Kabupaten Manokwari",PAPUA BARAT,98312.0,Indonesia,82198250318.0,-0.8599684,134.0431297,https://maps.google.com/?cid=0x0:0x61e002737b3747f1
hotel,hotel,Quattrick Dee Homestay,"Jl. KPR Reremi Permai, Manokwari Bar., Kec. Manokwari Bar., Kabupaten Manokwari, Papua Bar. 98312","Manokwari Bar., Kec. Manokwari Bar., Kabupaten Manokwari",PAPUA BARAT,98312.0,Indonesia,895417300072.0,-0.8533263,134.0555329,https://maps.google.com/?cid=0x0:0xf2c8eb1ca8dee63b
hotel,hotel,Oriestom Bay Hotel,"43F2+G29, Jl. Trikora Rendani, Wosi, Kec. Manokwari Bar., Kabupaten Manokwari, Papua Bar. 98312","Jl. Trikora Rendani, Wosi, Kec. Manokwari Bar., Kabupaten Manokwari",PAPUA BARAT,98312.0,Indonesia,81240197780.0,-0.8762108,134.0501061,https://maps.google.com/?cid=0x0:0x8bd50034329ebf97
hotel,hotel,,,,PAPUA BARAT,,Indonesia,,,,https://maps.google.com/?cid=0x0:0xf2c8eb1ca8dee63b%7C/g/11h4kv3ppk%7Cid-ID
hotel,hotel,Valdos Hotel Manokwari,"43J5+F44, Jl. Trikora Wosi, Wosi, Kec. Manokwari Bar., Kabupaten Manokwari, Papua Bar. 98312","Jl. Trikora Wosi, Wosi, Kec. Manokwari Bar., Kabupaten Manokwari",PAPUA BARAT,98312.0,Indonesia,986213044.0,-0.8688721,134.0578193,https://maps.google.com/?cid=0x0:0x60b28ba9ef2d716e
hotel,hotel,Hotel Fujita Papua,"Jl. Drs Esau Sesa, Wosi, Kec. Manokwari Bar., Kabupaten Manokwari, Papua Bar. 98312","Wosi, Kec. Manokwari Bar., Kabupaten Manokwari",PAPUA BARAT,98312.0,Indonesia,9862210707.0,-0.8727087,134.0465433,https://maps.google.com/?cid=0x0:0x12ad8f54a87fdc03
hotel,hotel,Aimas Hotel And Convention Center,"Klamasen, Distrik Mariat, Kabupaten Sorong, Papua Bar. 98416","Distrik Mariat, Kabupaten Sorong",PAPUA BARAT,98416.0,Indonesia,8114887778.0,-0.9780957,131.3535192,https://maps.google.com/?cid=0x0:0x622ceae2f7c756cf
hotel,hotel,Distrik Sidey,"Kabupaten Manokwari, Papua Bar.","Kabupaten Manokwari, Papua Bar.",PAPUA BARAT,,Indonesia,,-0.7605514,133.5946268,https://maps.google.com/?cid=0x0:0x8c34ad1374e4a89e
hotel,hotel,Mahanaim Hotel dan Homestay Manokwari,"jln trikora kalidingin no 109, Wosi, Kec. Manokwari Bar., Kabupaten Manokwari, Papua Bar. 98312","Wosi, Kec. Manokwari Bar., Kabupaten Manokwari",PAPUA BARAT,98312.0,Indonesia,8124830147.0,-0.8699305,134.0471193,https://maps.google.com/?cid=0x0:0xeec6727952b4f3e6
hotel,hotel,Aston Sorong Hotel  Conference Center,"476V+J9X, Jl. Basuki Rahmat, Malaingkedi, Kec. Sorong Utara, Kota Sorong, Papua Bar. 98412","Jl. Basuki Rahmat, Malaingkedi, Kec. Sorong Utara, Kota Sorong",PAPUA BARAT,98412.0,Indonesia,81148500888.0,-0.8887467,131.2931592,https://maps.google.com/?cid=0x0:0x110a6a5f0a67a7f7
hotel,hotel,,,,PAPUA BARAT,,Indonesia,,,,https://maps.google.com/?cid=0x0:0xe96b706fef94b3a2%7C/g/120jr49w%7Cid-ID
hotel,hotel,Hotel Mariat,"479F+3XR, Jl. Ahmad Yani No.1, Klademak, Distrik Sorong, Kota Sorong, Papua Bar. 98412","Jl. Ahmad Yani No.1, Klademak, Distrik Sorong, Kota Sorong",PAPUA BARAT,98412.0,Indonesia,951323535.0,-0.8822653,131.2745998,https://maps.google.com/?cid=0x0:0xbf6ecabef3414744
hotel,hotel,,,,PAPUA BARAT,,Indonesia,,,,https://maps.google.com/?cid=0x0:0xbf6ecabef3414744%7C/g/12hnlthc5%7Cid-ID
hotel,hotel,The ignislo sorong hotel,"Basuki Rahmat Street KM 7 Sorong, Malaingkedi, Sorong Utara, Sorong City, West Papua 98412","Malaingkedi, Sorong Utara, Sorong City",PAPUA BARAT,98412.0,Indonesia,,-0.8885403,131.2925628,https://maps.google.com/?cid=0x0:0x9992b24f2542a546
hotel,hotel,Darefan Hotel Sorong,"Jl. Selat Morotai, Remu Sel., Kecamatan Sorong Manoi, Kota Sorong, Papua Bar. 98412","Remu Sel., Kecamatan Sorong Manoi, Kota Sorong",PAPUA BARAT,98412.0,Indonesia,8114868887.0,-0.8877595,131.2893739,https://maps.google.com/?cid=0x0:0x5709bb2ac9cbd24
hotel,hotel,M Hotel Sorong,"Jl. Sungai Maruni, Klawuyuk, Kec. Sorong Utara, Kota Sorong, Papua Bar. 98416","Klawuyuk, Kec. Sorong Utara, Kota Sorong",PAPUA BARAT,98416.0,Indonesia,8114863111.0,-0.8858638,131.3227746,https://maps.google.com/?cid=0x0:0x9b9160ef43d35fd5
hotel,hotel,,,,PAPUA BARAT,,Indonesia,,,,https://maps.google.com/?cid=0x0:0x9b9160ef43d35fd5%7C/g/11clwlw14h%7Cid-ID
hotel,hotel,Penginapan Kofiyau,"46MX+QV7, Unnamed Road, Klasuur, Distrik Sorong, Kota Sorong, Papua Bar. 98411","Unnamed Road, Klasuur, Distrik Sorong, Kota Sorong",PAPUA BARAT,98411.0,Indonesia,82398017326.0,-0.86559,131.2496721,https://maps.google.com/?cid=0x0:0xfc32a1234a9c5c47
hotel,hotel,35 Inn,"476C+RFX, Jl. Ferry, Malawei, Distrik Sorong, Kota Sorong, Papua Bar. 98412","Jl. Ferry, Malawei, Distrik Sorong, Kota Sorong",PAPUA BARAT,98412.0,Indonesia,,-0.8878893,131.271243,https://maps.google.com/?cid=0x0:0xb276478752dcd2b2
hotel,hotel,Hotel Fujita Papua,"Jl. Drs Esau Sesa, Wosi, Kec. Manokwari Bar., Kabupaten Manokwari, Papua Bar. 98312","Wosi, Kec. Manokwari Bar., Kabupaten Manokwari",PAPUA BARAT,98312.0,Indonesia,9862210707.0,-0.8727087,134.0465433,https://maps.google.com/?cid=0x0:0x12ad8f54a87fdc03
hotel,hotel,Kec. Tanah Rubuh,"Kabupaten Manokwari, Papua Bar.","Kabupaten Manokwari, Papua Bar.",PAPUA BARAT,,Indonesia,,-1.1718674,134.1443544,https://maps.google.com/?cid=0x0:0x2304a7a7ad451175
hotel,hotel,Vitta Hotel Manokwari,"32PP+MFR, Jl. Trikora Taman Ria, Sowi, Distrik Manokwari, Kabupaten Manokwari, Papua Bar. 98315","Jl. Trikora Taman Ria, Sowi, Distrik Manokwari, Kabupaten Manokwari",PAPUA BARAT,98315.0,Indonesia,81367287972.0,-0.9131667,134.0359179,https://maps.google.com/?cid=0x0:0x4ec173a9ed9776eb
hotel,hotel,Pulau Mansinam,"Mansinam, Kec. Manokwari Tim., Kabupaten Manokwari, Papua Bar.","Kabupaten Manokwari, Papua Bar.",PAPUA BARAT,,Indonesia,,-0.9141667,134.1083333,https://maps.google.com/?cid=0x0:0x94a3a276c08ef3eb
hotel,hotel,,,,PAPUA BARAT,,Indonesia,,,,https://maps.google.com/?cid=0x0:0xe96b706fef94b3a2%7C/g/120jr49w%7Cid-ID
hotel,hotel,Swiss Belhotel Manokwari,"Jl. Yos Sudarso Manokwari No.8, Manokwari Bar., Kec. Manokwari Bar., Kabupaten Manokwari, Papua Bar. 98312","Manokwari Bar., Kec. Manokwari Bar., Kabupaten Manokwari",PAPUA BARAT,98312.0,Indonesia,8114854000.0,-0.8572937,134.0672125,https://maps.google.com/?cid=0x0:0x92c98d5e96ee2a8f
hotel,hotel,,,,PAPUA BARAT,,Indonesia,,,,https://maps.google.com/?cid=0x0:0x92c98d5e96ee2a8f%7C/g/1yl475f47%7Cid-ID
hotel,hotel,Hotel Triton,"Jl. Gn. Salju No.6, Manokwari Bar., Kec. Manokwari Bar., Kabupaten Manokwari, Papua Bar. 98311","Manokwari Bar., Kec. Manokwari Bar., Kabupaten Manokwari",PAPUA BARAT,98311.0,Indonesia,986212666.0,-0.8532727,134.068781,https://maps.google.com/?cid=0x0:0x6021b02b4fb20af
hotel,hotel,Fajar Roon Hotel,"Jl. Trikora Wosi, Wosi, Kec. Manokwari Bar., Kabupaten Manokwari, Papua Bar. 98312","Wosi, Kec. Manokwari Bar., Kabupaten Manokwari",PAPUA BARAT,98312.0,Indonesia,85333112338.0,-0.8680273,134.0564644,https://maps.google.com/?cid=0x0:0xec6cf3d20bba5444
hotel,hotel,Mansinam Beach Hotel,"43CR+H6X, Jl. Pasir Putih No.7, Pasir Putih, Kec. Manokwari Tim., Kabupaten Manokwari, Papua Bar. 98313","Jl. Pasir Putih No.7, Pasir Putih, Kec. Manokwari Tim., Kabupaten Manokwari",PAPUA BARAT,98313.0,Indonesia,986213585.0,-0.878422,134.0901197,https://maps.google.com/?cid=0x0:0x7d51b487bac82f8f
hotel,hotel,The Alexander Hotel,"43V9+HX4, Jl. Jend. Sudirman, Padarni, Kec. Manokwari Bar., Kabupaten Manokwari, Papua Bar. 98312","Jl. Jend. Sudirman, Padarni, Kec. Manokwari Bar., Kabupaten Manokwari",PAPUA BARAT,98312.0,Indonesia,9862214551.0,-0.8561036,134.06994,https://maps.google.com/?cid=0x0:0xdc6bdc355d4e63ab
hotel,hotel,Oriestom Bay Hotel,"43F2+G29, Jl. Trikora Rendani, Wosi, Kec. Manokwari Bar., Kabupaten Manokwari, Papua Bar. 98312","Jl. Trikora Rendani, Wosi, Kec. Manokwari Bar., Kabupaten Manokwari",PAPUA BARAT,98312.0,Indonesia,81240197780.0,-0.8762108,134.0501061,https://maps.google.com/?cid=0x0:0x8bd50034329ebf97
hotel,hotel,Hotel Fujita Papua,"Jl. Drs Esau Sesa, Wosi, Kec. Manokwari Bar., Kabupaten Manokwari, Papua Bar. 98312","Wosi, Kec. Manokwari Bar., Kabupaten Manokwari",PAPUA BARAT,98312.0,Indonesia,9862210707.0,-0.8727087,134.0465433,https://maps.google.com/?cid=0x0:0x12ad8f54a87fdc03
hotel,hotel,Lin Hotel,"Jl. Merdeka, Padarni, Kec. Manokwari Bar., Kabupaten Manokwari, Papua Bar. 98312","Padarni, Kec. Manokwari Bar., Kabupaten Manokwari",PAPUA BARAT,98312.0,Indonesia,9862210524.0,-0.8548281,134.0697853,https://maps.google.com/?cid=0x0:0xed579408172519e3
hotel,hotel,Hotel Rama,"42JW+GWX, Jl. Trikora Rendani, Wosi, Kec. Manokwari Bar., Kabupaten Manokwari, Papua Bar. 98312","Jl. Trikora Rendani, Wosi, Kec. Manokwari Bar., Kabupaten Manokwari",PAPUA BARAT,98312.0,Indonesia,,-0.8686391,134.0473473,https://maps.google.com/?cid=0x0:0xbc8387651670c591
hotel,hotel,Kec. Tanah Rubuh,"Kabupaten Manokwari, Papua Bar.","Kabupaten Manokwari, Papua Bar.",PAPUA BARAT,,Indonesia,,-1.1718674,134.1443544,https://maps.google.com/?cid=0x0:0x2304a7a7ad451175
hotel,hotel,Swiss Belhotel Manokwari,"Jl. Yos Sudarso Manokwari No.8, Manokwari Bar., Kec. Manokwari Bar., Kabupaten Manokwari, Papua Bar. 98312","Manokwari Bar., Kec. Manokwari Bar., Kabupaten Manokwari",PAPUA BARAT,98312.0,Indonesia,8114854000.0,-0.8572937,134.0672125,https://maps.google.com/?cid=0x0:0x92c98d5e96ee2a8f
hotel,hotel,,,,PAPUA BARAT,,Indonesia,,,,https://maps.google.com/?cid=0x0:0x92c98d5e96ee2a8f%7C/g/1yl475f47%7Cid-ID
hotel,hotel,Vitta Hotel Manokwari,"32PP+MFR, Jl. Trikora Taman Ria, Sowi, Distrik Manokwari, Kabupaten Manokwari, Papua Bar. 98315","Jl. Trikora Taman Ria, Sowi, Distrik Manokwari, Kabupaten Manokwari",PAPUA BARAT,98315.0,Indonesia,81367287972.0,-0.9131667,134.0359179,https://maps.google.com/?cid=0x0:0x4ec173a9ed9776eb
hotel,hotel,Mansinam Beach Hotel,"43CR+H6X, Jl. Pasir Putih No.7, Pasir Putih, Kec. Manokwari Tim., Kabupaten Manokwari, Papua Bar. 98313","Jl. Pasir Putih No.7, Pasir Putih, Kec. Manokwari Tim., Kabupaten Manokwari",PAPUA BARAT,98313.0,Indonesia,986213585.0,-0.878422,134.0901197,https://maps.google.com/?cid=0x0:0x7d51b487bac82f8f
hotel,hotel,Aston Niu Manokwari,"Sogun Hill, Jl. Drs Esau Sesa No.3 Blok B, Sowi, Distrik Manokwari, Kabupaten Manokwari, Papua Bar. 98315","Jl. Drs Esau Sesa No.3 Blok B, Sowi, Distrik Manokwari, Kabupaten Manokwari",PAPUA BARAT,98315.0,Indonesia,81369878787.0,-0.8978109,134.0416499,https://maps.google.com/?cid=0x0:0xe96b706fef94b3a2
hotel,hotel,,,,PAPUA BARAT,,Indonesia,,,,https://maps.google.com/?cid=0x0:0xe96b706fef94b3a2%7C/g/120jr49w%7Cid-ID
hotel,hotel,Hotel Fujita Papua,"Jl. Drs Esau Sesa, Wosi, Kec. Manokwari Bar., Kabupaten Manokwari, Papua Bar. 98312","Wosi, Kec. Manokwari Bar., Kabupaten Manokwari",PAPUA BARAT,98312.0,Indonesia,9862210707.0,-0.8727087,134.0465433,https://maps.google.com/?cid=0x0:0x12ad8f54a87fdc03
hotel,hotel,Hotel Triton,"Jl. Gn. Salju No.6, Manokwari Bar., Kec. Manokwari Bar., Kabupaten Manokwari, Papua Bar. 98311","Manokwari Bar., Kec. Manokwari Bar., Kabupaten Manokwari",PAPUA BARAT,98311.0,Indonesia,986212666.0,-0.8532727,134.068781,https://maps.google.com/?cid=0x0:0x6021b02b4fb20af
hotel,hotel,Hotel Rama,"42JW+GWX, Jl. Trikora Rendani, Wosi, Kec. Manokwari Bar., Kabupaten Manokwari, Papua Bar. 98312","Jl. Trikora Rendani, Wosi, Kec. Manokwari Bar., Kabupaten Manokwari",PAPUA BARAT,98312.0,Indonesia,,-0.8686391,134.0473473,https://maps.google.com/?cid=0x0:0xbc8387651670c591
hotel,hotel,Billy Jaya Hotel,"43RF+3C6, Jl. Merdeka, Padarni, Kec. Manokwari Bar., Kabupaten Manokwari, Papua Bar. 98312","Jl. Merdeka, Padarni, Kec. Manokwari Bar., Kabupaten Manokwari",PAPUA BARAT,98312.0,Indonesia,82198029508.0,-0.8598283,134.0735063,https://maps.google.com/?cid=0x0:0x660c895db907e9f4
hotel,hotel,RAMA TRANSITO HOTEL,"42RV+276, Unnamed Road, Wosi, Kec. Manokwari Bar., Kabupaten Manokwari, Papua Bar. 98312","Unnamed Road, Wosi, Kec. Manokwari Bar., Kabupaten Manokwari",PAPUA BARAT,98312.0,Indonesia,82198250318.0,-0.8599684,134.0431297,https://maps.google.com/?cid=0x0:0x61e002737b3747f1
hotel,hotel,Oriestom Bay Hotel,"43F2+G29, Jl. Trikora Rendani, Wosi, Kec. Manokwari Bar., Kabupaten Manokwari, Papua Bar. 98312","Jl. Trikora Rendani, Wosi, Kec. Manokwari Bar., Kabupaten Manokwari",PAPUA BARAT,98312.0,Indonesia,81240197780.0,-0.8762108,134.0501061,https://maps.google.com/?cid=0x0:0x8bd50034329ebf97
hotel,Hotel,Hotel Melia Grand,"43J4+JPV, Bar., Wosi, Kec. Manokwari Bar., Kabupaten Manokwari, Papua Bar. 98312","Bar., Wosi, Kec. Manokwari Bar., Kabupaten Manokwari",PAPUA BARAT,98312.0,Indonesia,83141604590.0,-0.8683961,134.056811,https://maps.google.com/?cid=0x0:0x78b1102679396334
hotel,hotel,Papua Bar. 98352,"Kabupaten Manokwari, Papua Bar.","Kabupaten Manokwari, Papua Bar.",PAPUA BARAT,,Indonesia,,-1.0122519,133.9055155,https://maps.google.com/?cid=0x0:0x665ab61075e0d624
hotel,hotel,Hotel Rama,"42JW+GWX, Jl. Trikora Rendani, Wosi, Kec. Manokwari Bar., Kabupaten Manokwari, Papua Bar. 98312","Jl. Trikora Rendani, Wosi, Kec. Manokwari Bar., Kabupaten Manokwari",PAPUA BARAT,98312.0,Indonesia,,-0.8686391,134.0473473,https://maps.google.com/?cid=0x0:0xbc8387651670c591
hotel,hotel,Swiss Belhotel Manokwari,"Jl. Yos Sudarso Manokwari No.8, Manokwari Bar., Kec. Manokwari Bar., Kabupaten Manokwari, Papua Bar. 98312","Manokwari Bar., Kec. Manokwari Bar., Kabupaten Manokwari",PAPUA BARAT,98312.0,Indonesia,8114854000.0,-0.8572937,134.0672125,https://maps.google.com/?cid=0x0:0x92c98d5e96ee2a8f
hotel,hotel,,,,PAPUA BARAT,,Indonesia,,,,https://maps.google.com/?cid=0x0:0xe96b706fef94b3a2%7C/g/120jr49w%7Cid-ID
hotel,hotel,Aston Niu Manokwari,"Sogun Hill, Jl. Drs Esau Sesa No.3 Blok B, Sowi, Distrik Manokwari, Kabupaten Manokwari, Papua Bar. 98315","Jl. Drs Esau Sesa No.3 Blok B, Sowi, Distrik Manokwari, Kabupaten Manokwari",PAPUA BARAT,98315.0,Indonesia,81369878787.0,-0.8978109,134.0416499,https://maps.google.com/?cid=0x0:0xe96b706fef94b3a2
hotel,hotel,Vitta Hotel Manokwari,"32PP+MFR, Jl. Trikora Taman Ria, Sowi, Distrik Manokwari, Kabupaten Manokwari, Papua Bar. 98315","Jl. Trikora Taman Ria, Sowi, Distrik Manokwari, Kabupaten Manokwari",PAPUA BARAT,98315.0,Indonesia,81367287972.0,-0.9131667,134.0359179,https://maps.google.com/?cid=0x0:0x4ec173a9ed9776eb
hotel,hotel,Hotel Triton,"Jl. Gn. Salju No.6, Manokwari Bar., Kec. Manokwari Bar., Kabupaten Manokwari, Papua Bar. 98311","Manokwari Bar., Kec. Manokwari Bar., Kabupaten Manokwari",PAPUA BARAT,98311.0,Indonesia,986212666.0,-0.8532727,134.068781,https://maps.google.com/?cid=0x0:0x6021b02b4fb20af
hotel,hotel,Mahanaim Hotel dan Homestay Manokwari,"jln trikora kalidingin no 109, Wosi, Kec. Manokwari Bar., Kabupaten Manokwari, Papua Bar. 98312","Wosi, Kec. Manokwari Bar., Kabupaten Manokwari",PAPUA BARAT,98312.0,Indonesia,8124830147.0,-0.8699305,134.0471193,https://maps.google.com/?cid=0x0:0xeec6727952b4f3e6
hotel,hotel,Mansinam Beach Hotel,"43CR+H6X, Jl. Pasir Putih No.7, Pasir Putih, Kec. Manokwari Tim., Kabupaten Manokwari, Papua Bar. 98313","Jl. Pasir Putih No.7, Pasir Putih, Kec. Manokwari Tim., Kabupaten Manokwari",PAPUA BARAT,98313.0,Indonesia,986213585.0,-0.878422,134.0901197,https://maps.google.com/?cid=0x0:0x7d51b487bac82f8f
hotel,hotel,RAMA TRANSITO HOTEL,"42RV+276, Unnamed Road, Wosi, Kec. Manokwari Bar., Kabupaten Manokwari, Papua Bar. 98312","Unnamed Road, Wosi, Kec. Manokwari Bar., Kabupaten Manokwari",PAPUA BARAT,98312.0,Indonesia,82198250318.0,-0.8599684,134.0431297,https://maps.google.com/?cid=0x0:0x61e002737b3747f1
hotel,hotel,Amban Beach House,"Amban, Pantai, Kabupaten Manokwari, Papua Bar. 98312","Pantai, Kabupaten Manokwari",PAPUA BARAT,98312.0,Indonesia,85251590060.0,-0.8151637,134.0780254,https://maps.google.com/?cid=0x0:0x6bfad7f54baf0beb
hotel,hotel,Quattrick Dee Homestay,"Jl. KPR Reremi Permai, Manokwari Bar., Kec. Manokwari Bar., Kabupaten Manokwari, Papua Bar. 98312","Manokwari Bar., Kec. Manokwari Bar., Kabupaten Manokwari",PAPUA BARAT,98312.0,Indonesia,895417300072.0,-0.8533263,134.0555329,https://maps.google.com/?cid=0x0:0xf2c8eb1ca8dee63b
hotel,hotel,,,,PAPUA BARAT,,Indonesia,,,,https://maps.google.com/?cid=0x0:0xf2c8eb1ca8dee63b%7C/g/11h4kv3ppk%7Cid-ID
hotel,hotel,RedDoorz near Reremi Pemancar Manokwari,"JL. Ekonomi Reremi Manokwari, SMKN 3, Kabupaten Manokwari, Papua Bar. 98312","SMKN 3, Kabupaten Manokwari",PAPUA BARAT,98312.0,Indonesia,895417300072.0,-0.8564389,134.0627895,https://maps.google.com/?cid=0x0:0xe2ead707b1bdd259
restaurant,restaurant,Papua Bar. 98311,"Kec. Manokwari Tim., Kabupaten Manokwari, Papua Bar.","Kabupaten Manokwari, Papua Bar.",PAPUA BARAT,,Indonesia,,-0.853122,134.1102895,https://maps.google.com/?cid=0x0:0x327a91d22239a4d5
restaurant,Restoran,Billy Cafe,"Jl. Merdeka No.57, Padarni, Kec. Manokwari Bar., Kabupaten Manokwari, Papua Bar. 98312","Padarni, Kec. Manokwari Bar., Kabupaten Manokwari",PAPUA BARAT,98312.0,Indonesia,81240501959.0,-0.8596376,134.0734046,https://maps.google.com/?cid=0x0:0x245b68c7c99f326f
restaurant,Restoran,Inggandi Beach Restaurant,"43GV+7Q3, Jl. Pasir Putih No.33, Pasir Putih, Kec. Manokwari Tim., Kabupaten Manokwari, Papua Bar. 98313","Jl. Pasir Putih No.33, Pasir Putih, Kec. Manokwari Tim., Kabupaten Manokwari",PAPUA BARAT,98313.0,Indonesia,81240372255.0,-0.8780927,134.0933631,https://maps.google.com/?cid=0x0:0xba66c7a3124731e6
restaurant,Makanan Siap Saji,Foodpedia Manokwari,"Jl. Jend. Sudirman No.17, Padarni, Kec. Manokwari Bar., Kabupaten Manokwari, Papua Bar. 98312","Padarni, Kec. Manokwari Bar., Kabupaten Manokwari",PAPUA BARAT,98312.0,Indonesia,82253232323.0,-0.8599298,134.0725307,https://maps.google.com/?cid=0x0:0x56ce5ead32f231fd
restaurant,Jepang,Anris Cafe,"43W4+Q85, Jl. Ekonomi pemancar RRi.Reremi, Jalan Ekonomi Reremi, Manokwari Bar., Kec. Manokwari Bar., Kabupaten Manokwari, Papua Bar. 98311","Jl. Ekonomi pemancar RRi.Reremi, Jalan Ekonomi Reremi, Manokwari Bar., Kec. Manokwari Bar., Kabupaten Manokwari",PAPUA BARAT,98311.0,Indonesia,85399990665.0,-0.8542488,134.0618503,https://maps.google.com/?cid=0x0:0x563c17522093e9c3
restaurant,Restoran,Dapoer Clara Resto  Cafe,"Jl. Merdeka, Padarni, Kec. Manokwari Bar., Kabupaten Manokwari, Papua Bar. 98312","Padarni, Kec. Manokwari Bar., Kabupaten Manokwari",PAPUA BARAT,98312.0,Indonesia,81376561946.0,-0.8599743,134.0734977,https://maps.google.com/?cid=0x0:0xf72c792d9c9dae56
restaurant,China,Ta wan - Manokwari,"Jl. Yos Sudarso No.8 LG Floor, Sanggeng, Kec. Manokwari Bar., Kabupaten Manokwari, Papua Bar. 98311","Sanggeng, Kec. Manokwari Bar., Kabupaten Manokwari",PAPUA BARAT,98311.0,Indonesia,,-0.8650032,134.0655736,https://maps.google.com/?cid=0x0:0x9a4bd0f96556840e
restaurant,Padang,Restoran Padang Sederhana Lintau,"Jalan Kotabaru 37, Manokwari Regency, West Papua 98311",Manokwari Regency,PAPUA BARAT,98311.0,Indonesia,811488870.0,-0.8629976,134.0740788,https://maps.google.com/?cid=0x0:0x561b2e2133908915
restaurant,Sesuai untuk keluarga,Rumah Makan Permata,"Jl. Merdeka No.50, Padarni, Kec. Manokwari Bar., Kabupaten Manokwari, Papua Bar. 98312","Padarni, Kec. Manokwari Bar., Kabupaten Manokwari",PAPUA BARAT,98312.0,Indonesia,986214858.0,-0.860484,134.073742,https://maps.google.com/?cid=0x0:0x483d12c81bcdb73c
restaurant,Indonesia,Manokwari Water Sport dan Resto Pantai Yen Beba,"Jl. Pasir Putih Kwawi No.110, Pasir Putih, Kec. Manokwari Tim., Kabupaten Manokwari, Papua Bar. 98313","Pasir Putih, Kec. Manokwari Tim., Kabupaten Manokwari",PAPUA BARAT,98313.0,Indonesia,82197928585.0,-0.8703003,134.1077717,https://maps.google.com/?cid=0x0:0x600b70ef9df77bb7
restaurant,Restoran,Resto 223,"43X3+G5X, Manokwari Bar., Kec. Manokwari Bar., Kabupaten Manokwari, Papua Bar. 98312","Manokwari Bar., Kec. Manokwari Bar., Kabupaten Manokwari",PAPUA BARAT,98312.0,Indonesia,,-0.8511261,134.0529747,https://maps.google.com/?cid=0x0:0xa1701e4b932395b3
restaurant,Restoran,HOKKY resto,"Sekolah Yapis, Reremi Dekat, Jl. S. Condronegoro, Manokwari Bar., Kec. Manokwari Bar., Kabupaten Manokwari, Papua Bar. 98312","Reremi Dekat, Jl. S. Condronegoro, Manokwari Bar., Kec. Manokwari Bar., Kabupaten Manokwari",PAPUA BARAT,98312.0,Indonesia,82198509898.0,-0.859351,134.0650242,https://maps.google.com/?cid=0x0:0x382b007555edfcf4
restaurant,Steak,Go! Steak Manokwari,"Jl. Merdeka depan RRI No.97A, Padarni, Kec. Manokwari Bar., Kabupaten Manokwari, Papua Bar. 98313","Padarni, Kec. Manokwari Bar., Kabupaten Manokwari",PAPUA BARAT,98313.0,Indonesia,,-0.8558377,134.0706563,https://maps.google.com/?cid=0x0:0xd2fcc7ff8f6971ff
restaurant,Indonesia,Rumah Makan Salam Manis,"Padarni, Kec. Manokwari Bar., Kabupaten Manokwari, Papua Bar. 98312","Kec. Manokwari Bar., Kabupaten Manokwari",PAPUA BARAT,98312.0,Indonesia,85243892971.0,-0.8599493,134.0732226,https://maps.google.com/?cid=0x0:0xc8178bc74b430107
restaurant,restaurant,Papua Bar. 98312,"Kabupaten Manokwari, Papua Bar.","Kabupaten Manokwari, Papua Bar.",PAPUA BARAT,,Indonesia,,-0.8581559,134.0008674,https://maps.google.com/?cid=0x0:0x55f33f0d52b5b6d0
restaurant,Kafe,Oriestom Cafe  Restaurant,"43F2+G88, Jl. Trikora Rendani, Wosi, Kec. Manokwari Bar., Kabupaten Manokwari, Papua Bar. 98312","Jl. Trikora Rendani, Wosi, Kec. Manokwari Bar., Kabupaten Manokwari",PAPUA BARAT,98312.0,Indonesia,,-0.8762199,134.0508422,https://maps.google.com/?cid=0x0:0xe50589caa694703f
restaurant,Restoran,Resto 223,"43X3+G5X, Manokwari Bar., Kec. Manokwari Bar., Kabupaten Manokwari, Papua Bar. 98312","Manokwari Bar., Kec. Manokwari Bar., Kabupaten Manokwari",PAPUA BARAT,98312.0,Indonesia,,-0.8511261,134.0529747,https://maps.google.com/?cid=0x0:0xa1701e4b932395b3
restaurant,Makanan Siap Saji,Foodpedia Manokwari,"Jl. Jend. Sudirman No.17, Padarni, Kec. Manokwari Bar., Kabupaten Manokwari, Papua Bar. 98312","Padarni, Kec. Manokwari Bar., Kabupaten Manokwari",PAPUA BARAT,98312.0,Indonesia,82253232323.0,-0.8599298,134.0725307,https://maps.google.com/?cid=0x0:0x56ce5ead32f231fd
restaurant,Sulawesi Selatan,COTO MAROS REREMI PUNCAK MANOKWARI,"Jl. Angkasa Mulyono, Amban, Kec. Manokwari Bar., Kabupaten Manokwari, Papua Bar. 98312","Amban, Kec. Manokwari Bar., Kabupaten Manokwari",PAPUA BARAT,98312.0,Indonesia,81344227754.0,-0.8467258,134.0506623,https://maps.google.com/?cid=0x0:0xbd3c19ad1f974db0
restaurant,Rumah Makan,Coto AMD Manokwari,"42PW+8PC, Jl. Trikora Wosi, Wosi, Kec. Manokwari Bar., Kabupaten Manokwari, Papua Bar. 98312","Jl. Trikora Wosi, Wosi, Kec. Manokwari Bar., Kabupaten Manokwari",PAPUA BARAT,98312.0,Indonesia,82198522200.0,-0.8641947,134.046758,https://maps.google.com/?cid=0x0:0x1d602a9e49a41aab
restaurant,Makanan Siap Saji,Omalicious,"42QX+V2J, Jl. Nusantara III, Wosi, Kec. Manokwari Bar., Kabupaten Manokwari, Papua Bar. 98312","Jl. Nusantara III, Wosi, Kec. Manokwari Bar., Kabupaten Manokwari",PAPUA BARAT,98312.0,Indonesia,82197897607.0,-0.8602936,134.0475275,https://maps.google.com/?cid=0x0:0xb7ee29b5dcb7d5ee
restaurant,Pusat Perbelanjaan,Solaria - Manokwari City Mall,"Jl. Yos Sudarso No.8, Manokwari Bar., Kec. Manokwari Bar., Kabupaten Manokwari, Papua Bar. 98312","Manokwari Bar., Kec. Manokwari Bar., Kabupaten Manokwari",PAPUA BARAT,98312.0,Indonesia,,-0.8568296,134.0677534,https://maps.google.com/?cid=0x0:0x2f8eaeac754b6e6b
restaurant,China,Rumah Makan 889 Chinessefood,"Jl. Trikora Wosi, Wosi, Kec. Manokwari Bar., Kabupaten Manokwari, Papua Bar. 98312","Wosi, Kec. Manokwari Bar., Kabupaten Manokwari",PAPUA BARAT,98312.0,Indonesia,,-0.8629167,134.0511539,https://maps.google.com/?cid=0x0:0x7e670de61bde0dbc
restaurant,Restoran,Masak,"Jl. Trikora Wosi, Wosi, Kec. Manokwari Bar., Kabupaten Manokwari, Papua Bar. 98312","Wosi, Kec. Manokwari Bar., Kabupaten Manokwari",PAPUA BARAT,98312.0,Indonesia,82198345607.0,-0.8625573,134.0513914,https://maps.google.com/?cid=0x0:0x1c88a5987e2990fe
restaurant,Restoran,HOKKY resto,"Sekolah Yapis, Reremi Dekat, Jl. S. Condronegoro, Manokwari Bar., Kec. Manokwari Bar., Kabupaten Manokwari, Papua Bar. 98312","Reremi Dekat, Jl. S. Condronegoro, Manokwari Bar., Kec. Manokwari Bar., Kabupaten Manokwari",PAPUA BARAT,98312.0,Indonesia,82198509898.0,-0.859351,134.0650242,https://maps.google.com/?cid=0x0:0x382b007555edfcf4
restaurant,Sate,"Pujasera, Dermaga AL, Briyosi, Manokwari","43G6+X67, Dermaga AL, Briyosi,, Sanggeng, Kec. Manokwari Bar., Kabupaten Manokwari, Papua Bar. 98312","Dermaga AL, Briyosi,, Sanggeng, Kec. Manokwari Bar., Kabupaten Manokwari",PAPUA BARAT,98312.0,Indonesia,,-0.8725767,134.0605362,https://maps.google.com/?cid=0x0:0x6540d2eb03995ac0
restaurant,Ikan Bakar,Rumah Makan Pangkep,"43P2+XXP, Jl. Trikora Wosi, Wosi, Kec. Manokwari Bar., Kabupaten Manokwari, Papua Bar. 98312","Jl. Trikora Wosi, Wosi, Kec. Manokwari Bar., Kabupaten Manokwari",PAPUA BARAT,98312.0,Indonesia,81344300979.0,-0.8625391,134.0524483,https://maps.google.com/?cid=0x0:0x429a538df8aef187
restaurant,Restoran,Billy Cafe,"Jl. Merdeka No.57, Padarni, Kec. Manokwari Bar., Kabupaten Manokwari, Papua Bar. 98312","Padarni, Kec. Manokwari Bar., Kabupaten Manokwari",PAPUA BARAT,98312.0,Indonesia,81240501959.0,-0.8596376,134.0734046,https://maps.google.com/?cid=0x0:0x245b68c7c99f326f
restaurant,restaurant,Papua Bar. 98314,"Amban, Kec. Manokwari Bar., Kabupaten Manokwari, Papua Bar.","Kabupaten Manokwari, Papua Bar.",PAPUA BARAT,,Indonesia,,-0.8229506,134.0484728,https://maps.google.com/?cid=0x0:0xf25e0ecc06fa0aa1
restaurant,Restoran,RM. Dapur Nona Manokwari,"5344+QFR, Amban, Kec. Manokwari Bar., Kabupaten Manokwari, Papua Bar. 98312","Amban, Kec. Manokwari Bar., Kabupaten Manokwari",PAPUA BARAT,98312.0,Indonesia,81259214040.0,-0.8430057,134.056151,https://maps.google.com/?cid=0x0:0xade351214859c66a
restaurant,Steak,ZOZO STEAK,"Ruko Marina, Jl. Angkasa Mulyono No.09 No. U, Amban, Kec. Manokwari Bar., Kabupaten Manokwari, Papua Bar. 98312","Jl. Angkasa Mulyono No.09 No. U, Amban, Kec. Manokwari Bar., Kabupaten Manokwari",PAPUA BARAT,98312.0,Indonesia,85354338605.0,-0.8410474,134.0580824,https://maps.google.com/?cid=0x0:0x880fce4245f21999
restaurant,Restoran,Rumah Makan Handayani,"Jl. Gn. Salju No.70, Amban, Kec. Manokwari Bar., Kabupaten Manokwari, Papua Bar. 98314","Amban, Kec. Manokwari Bar., Kabupaten Manokwari",PAPUA BARAT,98314.0,Indonesia,,-0.8366771,134.0658172,https://maps.google.com/?cid=0x0:0xadd13a4453ce800b
restaurant,Restoran,Resto 223,"43X3+G5X, Manokwari Bar., Kec. Manokwari Bar., Kabupaten Manokwari, Papua Bar. 98312","Manokwari Bar., Kec. Manokwari Bar., Kabupaten Manokwari",PAPUA BARAT,98312.0,Indonesia,,-0.8511261,134.0529747,https://maps.google.com/?cid=0x0:0xa1701e4b932395b3
restaurant,Restoran,WM Duta Solo,"Jl. Angkasa Mulyono No.17a, Amban, Kec. Manokwari Bar., Kabupaten Manokwari, Papua Bar. 98312","Amban, Kec. Manokwari Bar., Kabupaten Manokwari",PAPUA BARAT,98312.0,Indonesia,82127498457.0,-0.8396507,134.0599383,https://maps.google.com/?cid=0x0:0xae05537de18dc33
restaurant,Sulawesi Selatan,COTO MAROS REREMI PUNCAK MANOKWARI,"Jl. Angkasa Mulyono, Amban, Kec. Manokwari Bar., Kabupaten Manokwari, Papua Bar. 98312","Amban, Kec. Manokwari Bar., Kabupaten Manokwari",PAPUA BARAT,98312.0,Indonesia,81344227754.0,-0.8467258,134.0506623,https://maps.google.com/?cid=0x0:0xbd3c19ad1f974db0
restaurant,Sulawesi Selatan,COTO MAKASSAR MARINA,"5343+9MG, Jl. Reremi Puncak Bar, Amban, Kec. Manokwari Bar., Kabupaten Manokwari, Papua Bar. 98312","Jl. Reremi Puncak Bar, Amban, Kec. Manokwari Bar., Kabupaten Manokwari",PAPUA BARAT,98312.0,Indonesia,81343896199.0,-0.844063,134.0542174,https://maps.google.com/?cid=0x0:0xfbf56cb19573e75d
restaurant,Restoran,Inggandi Beach Restaurant,"43GV+7Q3, Jl. Pasir Putih No.33, Pasir Putih, Kec. Manokwari Tim., Kabupaten Manokwari, Papua Bar. 98313","Jl. Pasir Putih No.33, Pasir Putih, Kec. Manokwari Tim., Kabupaten Manokwari",PAPUA BARAT,98313.0,Indonesia,81240372255.0,-0.8780927,134.0933631,https://maps.google.com/?cid=0x0:0xba66c7a3124731e6
restaurant,Rumah Makan,RM. Citra Rasa,"Bar, Amban, Kec. Manokwari Bar., Kabupaten Manokwari, Papua Bar. 98314","Amban, Kec. Manokwari Bar., Kabupaten Manokwari",PAPUA BARAT,98314.0,Indonesia,85244587172.0,-0.8362122,134.0661097,https://maps.google.com/?cid=0x0:0x11a9be24039a5caf
restaurant,Kedai Kopi,Pondok Kopi Matoa,"Jl. Gn. Salju, Amban, Kec. Manokwari Bar., Kabupaten Manokwari, Papua Bar. 98314","Amban, Kec. Manokwari Bar., Kabupaten Manokwari",PAPUA BARAT,98314.0,Indonesia,8114860000.0,-0.8369567,134.0586793,https://maps.google.com/?cid=0x0:0xc2d60275e273b8e2
restaurant,Restoran,RM. MORWA,"Amban, Kec. Manokwari Bar., Kabupaten Manokwari, Papua Bar. 98312","Kec. Manokwari Bar., Kabupaten Manokwari",PAPUA BARAT,98312.0,Indonesia,81344955081.0,-0.841709,134.0547958,https://maps.google.com/?cid=0x0:0x641a0f2c69b18279
restaurant,Jepang,Anris Cafe,"43W4+Q85, Jl. Ekonomi pemancar RRi.Reremi, Jalan Ekonomi Reremi, Manokwari Bar., Kec. Manokwari Bar., Kabupaten Manokwari, Papua Bar. 98311","Jl. Ekonomi pemancar RRi.Reremi, Jalan Ekonomi Reremi, Manokwari Bar., Kec. Manokwari Bar., Kabupaten Manokwari",PAPUA BARAT,98311.0,Indonesia,85399990665.0,-0.8542488,134.0618503,https://maps.google.com/?cid=0x0:0x563c17522093e9c3
restaurant,Kafe,Wilchof Cafe,"Manokwari Tim., Kec. Manokwari Bar., Kabupaten Manokwari, Papua Bar. 98312","Kec. Manokwari Bar., Kabupaten Manokwari",PAPUA BARAT,98312.0,Indonesia,8124801913.0,-0.8418764,134.0699628,https://maps.google.com/?cid=0x0:0xdf7fa1241fcb9fab
restaurant,restaurant,Distrik Manokwari,"Kabupaten Manokwari, Papua Bar.","Kabupaten Manokwari, Papua Bar.",PAPUA BARAT,,Indonesia,,-0.8912103,134.046322,https://maps.google.com/?cid=0x0:0x25e95a286c9053b8
restaurant,Kafe,Oriestom Cafe  Restaurant,"43F2+G88, Jl. Trikora Rendani, Wosi, Kec. Manokwari Bar., Kabupaten Manokwari, Papua Bar. 98312","Jl. Trikora Rendani, Wosi, Kec. Manokwari Bar., Kabupaten Manokwari",PAPUA BARAT,98312.0,Indonesia,,-0.8762199,134.0508422,https://maps.google.com/?cid=0x0:0xe50589caa694703f
restaurant,restaurant,Aston Niu Manokwari,"Sogun Hill, Jl. Drs Esau Sesa No.3 Blok B, Sowi, Distrik Manokwari, Kabupaten Manokwari, Papua Bar. 98315","Jl. Drs Esau Sesa No.3 Blok B, Sowi, Distrik Manokwari, Kabupaten Manokwari",PAPUA BARAT,98315.0,Indonesia,81369878787.0,-0.8978109,134.0416499,https://maps.google.com/?cid=0x0:0xe96b706fef94b3a2
restaurant,restaurant,Swiss Belhotel Manokwari,"Jl. Yos Sudarso Manokwari No.8, Manokwari Bar., Kec. Manokwari Bar., Kabupaten Manokwari, Papua Bar. 98312","Manokwari Bar., Kec. Manokwari Bar., Kabupaten Manokwari",PAPUA BARAT,98312.0,Indonesia,8114854000.0,-0.8572937,134.0672125,https://maps.google.com/?cid=0x0:0x92c98d5e96ee2a8f
restaurant,restaurant,Hotel Triton,"Jl. Gn. Salju No.6, Manokwari Bar., Kec. Manokwari Bar., Kabupaten Manokwari, Papua Bar. 98311","Manokwari Bar., Kec. Manokwari Bar., Kabupaten Manokwari",PAPUA BARAT,98311.0,Indonesia,986212666.0,-0.8532727,134.068781,https://maps.google.com/?cid=0x0:0x6021b02b4fb20af
restaurant,restaurant,Pulau Mansinam,"Mansinam, Kec. Manokwari Tim., Kabupaten Manokwari, Papua Bar.","Kabupaten Manokwari, Papua Bar.",PAPUA BARAT,,Indonesia,,-0.9141667,134.1083333,https://maps.google.com/?cid=0x0:0x94a3a276c08ef3eb
restaurant,restaurant,The Alexander Hotel,"43V9+HX4, Jl. Jend. Sudirman, Padarni, Kec. Manokwari Bar., Kabupaten Manokwari, Papua Bar. 98312","Jl. Jend. Sudirman, Padarni, Kec. Manokwari Bar., Kabupaten Manokwari",PAPUA BARAT,98312.0,Indonesia,9862214551.0,-0.8561036,134.06994,https://maps.google.com/?cid=0x0:0xdc6bdc355d4e63ab
restaurant,Rumah Makan,Bakso Jeletot Wonogiri,"427W+2HC, Jl. Drs Esau Sesa, Sowi, Distrik Manokwari, Kabupaten Manokwari, Papua Bar. 98315","Jl. Drs Esau Sesa, Sowi, Distrik Manokwari, Kabupaten Manokwari",PAPUA BARAT,98315.0,Indonesia,,-0.8874439,134.0463883,https://maps.google.com/?cid=0x0:0xf9899a5bfcea7156
restaurant,Restoran,Inggandi Beach Restaurant,"43GV+7Q3, Jl. Pasir Putih No.33, Pasir Putih, Kec. Manokwari Tim., Kabupaten Manokwari, Papua Bar. 98313","Jl. Pasir Putih No.33, Pasir Putih, Kec. Manokwari Tim., Kabupaten Manokwari",PAPUA BARAT,98313.0,Indonesia,81240372255.0,-0.8780927,134.0933631,https://maps.google.com/?cid=0x0:0xba66c7a3124731e6
restaurant,Padang,SURYA MANIK masakan padang,"Sowi, Jl. Trikora Rendani, Papua Bar.","Kabupaten Manokwari, Papua Bar.",PAPUA BARAT,,Indonesia,81331318299.0,-0.8693923,134.0475218,https://maps.google.com/?cid=0x0:0x2b2e6eff3150678c
restaurant,Perpaduan,Waroeng.Mak Nyuus(warung Makan  Kedai Kopi),"42FX+R93, Wosi, Kec. Manokwari Bar., Kabupaten Manokwari, Papua Bar. 98312","Wosi, Kec. Manokwari Bar., Kabupaten Manokwari",PAPUA BARAT,98312.0,Indonesia,81294525032.0,-0.8752576,134.0484096,https://maps.google.com/?cid=0x0:0x1460688302f980d6
restaurant,Rumah Makan,RM.Cetar Rasa,"Jl. Trikora Sowi No.2, Sowi, Distrik Manokwari, Kabupaten Manokwari, Papua Bar. 98315","Sowi, Distrik Manokwari, Kabupaten Manokwari",PAPUA BARAT,98315.0,Indonesia,,-0.9010077,134.0373329,https://maps.google.com/?cid=0x0:0x1a48341792145254
restaurant,Sesuai untuk keluarga,Omafood,"426W+RGQ, Jl. Drs Esau Sesa, Sowi, Distrik Manokwari, Kabupaten Manokwari, Papua Bar. 98315","Jl. Drs Esau Sesa, Sowi, Distrik Manokwari, Kabupaten Manokwari",PAPUA BARAT,98315.0,Indonesia,81248409370.0,-0.8879175,134.0463506,https://maps.google.com/?cid=0x0:0xa9be492f7608f920
restaurant,Rumah Makan,iLALANG coffee and Resto,"Jl. Trikora Wosi, Wosi, Kec. Manokwari Bar., Kabupaten Manokwari, Papua Bar. 98312","Wosi, Kec. Manokwari Bar., Kabupaten Manokwari",PAPUA BARAT,98312.0,Indonesia,82398331233.0,-0.8625068,134.0518646,https://maps.google.com/?cid=0x0:0x523570523de9ef36
restaurant,restaurant,Papua Bar. 98311,"Kec. Manokwari Tim., Kabupaten Manokwari, Papua Bar.","Kabupaten Manokwari, Papua Bar.",PAPUA BARAT,,Indonesia,,-0.853122,134.1102895,https://maps.google.com/?cid=0x0:0x327a91d22239a4d5
restaurant,Restoran,Inggandi Beach Restaurant,"43GV+7Q3, Jl. Pasir Putih No.33, Pasir Putih, Kec. Manokwari Tim., Kabupaten Manokwari, Papua Bar. 98313","Jl. Pasir Putih No.33, Pasir Putih, Kec. Manokwari Tim., Kabupaten Manokwari",PAPUA BARAT,98313.0,Indonesia,81240372255.0,-0.8780927,134.0933631,https://maps.google.com/?cid=0x0:0xba66c7a3124731e6
restaurant,Restoran,Cafe Laut,"Jl. Pasir Putih No.7, Pasir Putih, Kec. Manokwari Tim., Kabupaten Manokwari, Papua Bar. 98313","Pasir Putih, Kec. Manokwari Tim., Kabupaten Manokwari",PAPUA BARAT,98313.0,Indonesia,,-0.8790277,134.0896794,https://maps.google.com/?cid=0x0:0xd7761569d030427e
restaurant,Makanan Siap Saji,Foodpedia Manokwari,"Jl. Jend. Sudirman No.17, Padarni, Kec. Manokwari Bar., Kabupaten Manokwari, Papua Bar. 98312","Padarni, Kec. Manokwari Bar., Kabupaten Manokwari",PAPUA BARAT,98312.0,Indonesia,82253232323.0,-0.8599298,134.0725307,https://maps.google.com/?cid=0x0:0x56ce5ead32f231fd
restaurant,Jepang,Anris Cafe,"43W4+Q85, Jl. Ekonomi pemancar RRi.Reremi, Jalan Ekonomi Reremi, Manokwari Bar., Kec. Manokwari Bar., Kabupaten Manokwari, Papua Bar. 98311","Jl. Ekonomi pemancar RRi.Reremi, Jalan Ekonomi Reremi, Manokwari Bar., Kec. Manokwari Bar., Kabupaten Manokwari",PAPUA BARAT,98311.0,Indonesia,85399990665.0,-0.8542488,134.0618503,https://maps.google.com/?cid=0x0:0x563c17522093e9c3
restaurant,Restoran,Dapoer Clara Resto  Cafe,"Jl. Merdeka, Padarni, Kec. Manokwari Bar., Kabupaten Manokwari, Papua Bar. 98312","Padarni, Kec. Manokwari Bar., Kabupaten Manokwari",PAPUA BARAT,98312.0,Indonesia,81376561946.0,-0.8599743,134.0734977,https://maps.google.com/?cid=0x0:0xf72c792d9c9dae56
restaurant,Indonesia,Manokwari Water Sport dan Resto Pantai Yen Beba,"Jl. Pasir Putih Kwawi No.110, Pasir Putih, Kec. Manokwari Tim., Kabupaten Manokwari, Papua Bar. 98313","Pasir Putih, Kec. Manokwari Tim., Kabupaten Manokwari",PAPUA BARAT,98313.0,Indonesia,82197928585.0,-0.8703003,134.1077717,https://maps.google.com/?cid=0x0:0x600b70ef9df77bb7
restaurant,Dapur Umum,SaladBar Manokwari,"Perempatan Bank Indonesia ( Samping Gorengan, Jl. Merdeka, Manokwari Tim., Kec. Manokwari Bar., Kabupaten Manokwari, Papua Bar. 98311","Jl. Merdeka, Manokwari Tim., Kec. Manokwari Bar., Kabupaten Manokwari",PAPUA BARAT,98311.0,Indonesia,81343394508.0,-0.8656001,134.0753312,https://maps.google.com/?cid=0x0:0x8d2421e7b4d37971
restaurant,Indonesia,Rumah Makan Salam Manis,"Padarni, Kec. Manokwari Bar., Kabupaten Manokwari, Papua Bar. 98312","Kec. Manokwari Bar., Kabupaten Manokwari",PAPUA BARAT,98312.0,Indonesia,85243892971.0,-0.8599493,134.0732226,https://maps.google.com/?cid=0x0:0xc8178bc74b430107
restaurant,Sesuai untuk keluarga,Rumah Makan Permata,"Jl. Merdeka No.50, Padarni, Kec. Manokwari Bar., Kabupaten Manokwari, Papua Bar. 98312","Padarni, Kec. Manokwari Bar., Kabupaten Manokwari",PAPUA BARAT,98312.0,Indonesia,986214858.0,-0.860484,134.073742,https://maps.google.com/?cid=0x0:0x483d12c81bcdb73c
restaurant,Padang,Restoran Padang Sederhana Lintau,"Jalan Kotabaru 37, Manokwari Regency, West Papua 98311",Manokwari Regency,PAPUA BARAT,98311.0,Indonesia,811488870.0,-0.8629976,134.0740788,https://maps.google.com/?cid=0x0:0x561b2e2133908915
restaurant,China,Ta wan - Manokwari,"Jl. Yos Sudarso No.8 LG Floor, Sanggeng, Kec. Manokwari Bar., Kabupaten Manokwari, Papua Bar. 98311","Sanggeng, Kec. Manokwari Bar., Kabupaten Manokwari",PAPUA BARAT,98311.0,Indonesia,,-0.8650032,134.0655736,https://maps.google.com/?cid=0x0:0x9a4bd0f96556840e
restaurant,Restoran,HOKKY resto,"Sekolah Yapis, Reremi Dekat, Jl. S. Condronegoro, Manokwari Bar., Kec. Manokwari Bar., Kabupaten Manokwari, Papua Bar. 98312","Reremi Dekat, Jl. S. Condronegoro, Manokwari Bar., Kec. Manokwari Bar., Kabupaten Manokwari",PAPUA BARAT,98312.0,Indonesia,82198509898.0,-0.859351,134.0650242,https://maps.google.com/?cid=0x0:0x382b007555edfcf4
restaurant,Steak,Go! Steak Manokwari,"Jl. Merdeka depan RRI No.97A, Padarni, Kec. Manokwari Bar., Kabupaten Manokwari, Papua Bar. 98313","Padarni, Kec. Manokwari Bar., Kabupaten Manokwari",PAPUA BARAT,98313.0,Indonesia,,-0.8558377,134.0706563,https://maps.google.com/?cid=0x0:0xd2fcc7ff8f6971ff
restaurant,Restoran,Inggandi Beach Restaurant,"43GV+7Q3, Jl. Pasir Putih No.33, Pasir Putih, Kec. Manokwari Tim., Kabupaten Manokwari, Papua Bar. 98313","Jl. Pasir Putih No.33, Pasir Putih, Kec. Manokwari Tim., Kabupaten Manokwari",PAPUA BARAT,98313.0,Indonesia,81240372255.0,-0.8780927,134.0933631,https://maps.google.com/?cid=0x0:0xba66c7a3124731e6
restaurant,restaurant,Papua Bar. 98313,"Kec. Manokwari Tim., Kabupaten Manokwari, Papua Bar.","Kabupaten Manokwari, Papua Bar.",PAPUA BARAT,,Indonesia,,-0.8667845,134.1197927,https://maps.google.com/?cid=0x0:0xc87b5f10f76e2d0f
restaurant,Restoran,Cafe Laut,"Jl. Pasir Putih No.7, Pasir Putih, Kec. Manokwari Tim., Kabupaten Manokwari, Papua Bar. 98313","Pasir Putih, Kec. Manokwari Tim., Kabupaten Manokwari",PAPUA BARAT,98313.0,Indonesia,,-0.8790277,134.0896794,https://maps.google.com/?cid=0x0:0xd7761569d030427e
restaurant,Steak,Go! Steak Manokwari,"Jl. Merdeka depan RRI No.97A, Padarni, Kec. Manokwari Bar., Kabupaten Manokwari, Papua Bar. 98313","Padarni, Kec. Manokwari Bar., Kabupaten Manokwari",PAPUA BARAT,98313.0,Indonesia,,-0.8558377,134.0706563,https://maps.google.com/?cid=0x0:0xd2fcc7ff8f6971ff
restaurant,Restoran,Billy Cafe,"Jl. Merdeka No.57, Padarni, Kec. Manokwari Bar., Kabupaten Manokwari, Papua Bar. 98312","Padarni, Kec. Manokwari Bar., Kabupaten Manokwari",PAPUA BARAT,98312.0,Indonesia,81240501959.0,-0.8596376,134.0734046,https://maps.google.com/?cid=0x0:0x245b68c7c99f326f
restaurant,Jepang,Anris Cafe,"43W4+Q85, Jl. Ekonomi pemancar RRi.Reremi, Jalan Ekonomi Reremi, Manokwari Bar., Kec. Manokwari Bar., Kabupaten Manokwari, Papua Bar. 98311","Jl. Ekonomi pemancar RRi.Reremi, Jalan Ekonomi Reremi, Manokwari Bar., Kec. Manokwari Bar., Kabupaten Manokwari",PAPUA BARAT,98311.0,Indonesia,85399990665.0,-0.8542488,134.0618503,https://maps.google.com/?cid=0x0:0x563c17522093e9c3
restaurant,Restoran,Masak,"Jl. Trikora Wosi, Wosi, Kec. Manokwari Bar., Kabupaten Manokwari, Papua Bar. 98312","Wosi, Kec. Manokwari Bar., Kabupaten Manokwari",PAPUA BARAT,98312.0,Indonesia,82198345607.0,-0.8625573,134.0513914,https://maps.google.com/?cid=0x0:0x1c88a5987e2990fe
restaurant,Pujasera,Torang Kofie Manokwari,"Jl. Yos Sudarso No.8, Manokwari Bar., Kec. Manokwari Bar., Kabupaten Manokwari, Papua Bar. 98312","Manokwari Bar., Kec. Manokwari Bar., Kabupaten Manokwari",PAPUA BARAT,98312.0,Indonesia,8114869988.0,-0.8568949,134.0673228,https://maps.google.com/?cid=0x0:0xf637fe327424a42
restaurant,Sesuai untuk keluarga,Omafood,"426W+RGQ, Jl. Drs Esau Sesa, Sowi, Distrik Manokwari, Kabupaten Manokwari, Papua Bar. 98315","Jl. Drs Esau Sesa, Sowi, Distrik Manokwari, Kabupaten Manokwari",PAPUA BARAT,98315.0,Indonesia,81248409370.0,-0.8879175,134.0463506,https://maps.google.com/?cid=0x0:0xa9be492f7608f920
restaurant,Kafe,Wilchof Cafe,"Manokwari Tim., Kec. Manokwari Bar., Kabupaten Manokwari, Papua Bar. 98312","Kec. Manokwari Bar., Kabupaten Manokwari",PAPUA BARAT,98312.0,Indonesia,8124801913.0,-0.8418764,134.0699628,https://maps.google.com/?cid=0x0:0xdf7fa1241fcb9fab
restaurant,restaurant,Mansinam Beach Hotel,"43CR+H6X, Jl. Pasir Putih No.7, Pasir Putih, Kec. Manokwari Tim., Kabupaten Manokwari, Papua Bar. 98313","Jl. Pasir Putih No.7, Pasir Putih, Kec. Manokwari Tim., Kabupaten Manokwari",PAPUA BARAT,98313.0,Indonesia,986213585.0,-0.878422,134.0901197,https://maps.google.com/?cid=0x0:0x7d51b487bac82f8f
restaurant,Layanan Rental Peralatan Olahraga Air,Resto Pantai Yen Beba,"44H5+W5R, Jl. Pasir Putih, Pasir Putih, Kec. Manokwari Tim., Kabupaten Manokwari, Papua Bar.","Kabupaten Manokwari, Papua Bar.",PAPUA BARAT,,Indonesia,82197878781.0,-0.8701414,134.1078875,https://maps.google.com/?cid=0x0:0x5b07a2981a5d483f
restaurant,restaurant,Hotel Rama,"42JW+GWX, Jl. Trikora Rendani, Wosi, Kec. Manokwari Bar., Kabupaten Manokwari, Papua Bar. 98312","Jl. Trikora Rendani, Wosi, Kec. Manokwari Bar., Kabupaten Manokwari",PAPUA BARAT,98312.0,Indonesia,,-0.8686391,134.0473473,https://maps.google.com/?cid=0x0:0xbc8387651670c591
restaurant,restaurant,RAMA TRANSITO HOTEL,"42RV+276, Unnamed Road, Wosi, Kec. Manokwari Bar., Kabupaten Manokwari, Papua Bar. 98312","Unnamed Road, Wosi, Kec. Manokwari Bar., Kabupaten Manokwari",PAPUA BARAT,98312.0,Indonesia,82198250318.0,-0.8599684,134.0431297,https://maps.google.com/?cid=0x0:0x61e002737b3747f1
restaurant,restaurant,Kec. Manokwari Utara,"Kabupaten Manokwari, Papua Bar.","Kabupaten Manokwari, Papua Bar.",PAPUA BARAT,,Indonesia,,-0.7545947,133.9845162,https://maps.google.com/?cid=0x0:0x4e2d072dfe215e65
restaurant,Restoran,RM. Dapur Nona Manokwari,"5344+QFR, Amban, Kec. Manokwari Bar., Kabupaten Manokwari, Papua Bar. 98312","Amban, Kec. Manokwari Bar., Kabupaten Manokwari",PAPUA BARAT,98312.0,Indonesia,81259214040.0,-0.8430057,134.056151,https://maps.google.com/?cid=0x0:0xade351214859c66a
restaurant,Restoran,Inggandi Beach Restaurant,"43GV+7Q3, Jl. Pasir Putih No.33, Pasir Putih, Kec. Manokwari Tim., Kabupaten Manokwari, Papua Bar. 98313","Jl. Pasir Putih No.33, Pasir Putih, Kec. Manokwari Tim., Kabupaten Manokwari",PAPUA BARAT,98313.0,Indonesia,81240372255.0,-0.8780927,134.0933631,https://maps.google.com/?cid=0x0:0xba66c7a3124731e6
restaurant,Rumah Makan,iLALANG coffee and Resto,"Jl. Trikora Wosi, Wosi, Kec. Manokwari Bar., Kabupaten Manokwari, Papua Bar. 98312","Wosi, Kec. Manokwari Bar., Kabupaten Manokwari",PAPUA BARAT,98312.0,Indonesia,82398331233.0,-0.8625068,134.0518646,https://maps.google.com/?cid=0x0:0x523570523de9ef36
restaurant,Restoran,Masak,"Jl. Trikora Wosi, Wosi, Kec. Manokwari Bar., Kabupaten Manokwari, Papua Bar. 98312","Wosi, Kec. Manokwari Bar., Kabupaten Manokwari",PAPUA BARAT,98312.0,Indonesia,82198345607.0,-0.8625573,134.0513914,https://maps.google.com/?cid=0x0:0x1c88a5987e2990fe
restaurant,Jepang,Anris Cafe,"43W4+Q85, Jl. Ekonomi pemancar RRi.Reremi, Jalan Ekonomi Reremi, Manokwari Bar., Kec. Manokwari Bar., Kabupaten Manokwari, Papua Bar. 98311","Jl. Ekonomi pemancar RRi.Reremi, Jalan Ekonomi Reremi, Manokwari Bar., Kec. Manokwari Bar., Kabupaten Manokwari",PAPUA BARAT,98311.0,Indonesia,85399990665.0,-0.8542488,134.0618503,https://maps.google.com/?cid=0x0:0x563c17522093e9c3
restaurant,restaurant,Aston Niu Manokwari,"Sogun Hill, Jl. Drs Esau Sesa No.3 Blok B, Sowi, Distrik Manokwari, Kabupaten Manokwari, Papua Bar. 98315","Jl. Drs Esau Sesa No.3 Blok B, Sowi, Distrik Manokwari, Kabupaten Manokwari",PAPUA BARAT,98315.0,Indonesia,81369878787.0,-0.8978109,134.0416499,https://maps.google.com/?cid=0x0:0xe96b706fef94b3a2
restaurant,restaurant,,,,PAPUA BARAT,,Indonesia,,,,https://maps.google.com/?cid=0x0:0xe96b706fef94b3a2%7C/g/120jr49w%7Cid-ID
restaurant,restaurant,Swiss Belhotel Manokwari,"Jl. Yos Sudarso Manokwari No.8, Manokwari Bar., Kec. Manokwari Bar., Kabupaten Manokwari, Papua Bar. 98312","Manokwari Bar., Kec. Manokwari Bar., Kabupaten Manokwari",PAPUA BARAT,98312.0,Indonesia,8114854000.0,-0.8572937,134.0672125,https://maps.google.com/?cid=0x0:0x92c98d5e96ee2a8f
restaurant,restaurant,The Alexander Hotel,"43V9+HX4, Jl. Jend. Sudirman, Padarni, Kec. Manokwari Bar., Kabupaten Manokwari, Papua Bar. 98312","Jl. Jend. Sudirman, Padarni, Kec. Manokwari Bar., Kabupaten Manokwari",PAPUA BARAT,98312.0,Indonesia,9862214551.0,-0.8561036,134.06994,https://maps.google.com/?cid=0x0:0xdc6bdc355d4e63ab
restaurant,restaurant,Hotel Triton,"Jl. Gn. Salju No.6, Manokwari Bar., Kec. Manokwari Bar., Kabupaten Manokwari, Papua Bar. 98311","Manokwari Bar., Kec. Manokwari Bar., Kabupaten Manokwari",PAPUA BARAT,98311.0,Indonesia,986212666.0,-0.8532727,134.068781,https://maps.google.com/?cid=0x0:0x6021b02b4fb20af
restaurant,restaurant,Pulau Mansinam,"Mansinam, Kec. Manokwari Tim., Kabupaten Manokwari, Papua Bar.","Kabupaten Manokwari, Papua Bar.",PAPUA BARAT,,Indonesia,,-0.9141667,134.1083333,https://maps.google.com/?cid=0x0:0x94a3a276c08ef3eb
restaurant,China,Rumah Makan 889 Chinessefood,"Jl. Trikora Wosi, Wosi, Kec. Manokwari Bar., Kabupaten Manokwari, Papua Bar. 98312","Wosi, Kec. Manokwari Bar., Kabupaten Manokwari",PAPUA BARAT,98312.0,Indonesia,,-0.8629167,134.0511539,https://maps.google.com/?cid=0x0:0x7e670de61bde0dbc
restaurant,Sesuai untuk keluarga,Omafood,"426W+RGQ, Jl. Drs Esau Sesa, Sowi, Distrik Manokwari, Kabupaten Manokwari, Papua Bar. 98315","Jl. Drs Esau Sesa, Sowi, Distrik Manokwari, Kabupaten Manokwari",PAPUA BARAT,98315.0,Indonesia,81248409370.0,-0.8879175,134.0463506,https://maps.google.com/?cid=0x0:0xa9be492f7608f920
restaurant,restaurant,Distrik Masni,"Kabupaten Manokwari, Papua Bar.","Kabupaten Manokwari, Papua Bar.",PAPUA BARAT,,Indonesia,,-0.7868548,133.728488,https://maps.google.com/?cid=0x0:0x887c8da652d5665d
restaurant,Brunch,WM.Pandhawi,"5JX4+25F, Meyof I, Distrik Sidey, Kabupaten Manokwari, Papua Bar. 98357","Meyof I, Distrik Sidey, Kabupaten Manokwari",PAPUA BARAT,98357.0,Indonesia,,-0.8024412,133.6054285,https://maps.google.com/?cid=0x0:0x35c8be23c2b4856c
restaurant,Rumah Makan,Warung Makan Ibu Nunuk,"4QVJ+38J, Macuan, Distrik Masni, Kabupaten Manokwari, Papua Bar. 98356","Macuan, Distrik Masni, Kabupaten Manokwari",PAPUA BARAT,98356.0,Indonesia,,-0.8572955,133.7807754,https://maps.google.com/?cid=0x0:0xb8d37f02fdbfd71
restaurant,Restoran,Lesehan Kinanti,"Jl. Sorong - Manokwari, Macuan, Distrik Masni, Kabupaten Manokwari, Papua Bar. 98356","Macuan, Distrik Masni, Kabupaten Manokwari",PAPUA BARAT,98356.0,Indonesia,,-0.8645079,133.7819898,https://maps.google.com/?cid=0x0:0xa2d701f63353a384
restaurant,Restoran,warung deva idriz,"4PV5+P7W, Ririnfos, Distrik Masni, Kabupaten Manokwari, Papua Bar. 98357","Ririnfos, Distrik Masni, Kabupaten Manokwari",PAPUA BARAT,98357.0,Indonesia,85320668685.0,-0.8556374,133.7082117,https://maps.google.com/?cid=0x0:0xc1289732127f8f78
restaurant,Ayam,Warung Pondok Bambu,"Wam Bola, Distrik Masni, Kabupaten Manokwari, Papua Bar. 98357","Distrik Masni, Kabupaten Manokwari",PAPUA BARAT,98357.0,Indonesia,,-0.8385652,133.6330291,https://maps.google.com/?cid=0x0:0xdcdacf29675bce1
restaurant,Korea,EXO Korean Cafe,"Udapi Hilir, Distrik Prafi, Kabupaten Manokwari, Papua Bar. 98356","Distrik Prafi, Kabupaten Manokwari",PAPUA BARAT,98356.0,Indonesia,81245008384.0,-0.8842664,133.8223763,https://maps.google.com/?cid=0x0:0x928b6ce6058bb3fd
restaurant,Restoran,Inggandi Beach Restaurant,"43GV+7Q3, Jl. Pasir Putih No.33, Pasir Putih, Kec. Manokwari Tim., Kabupaten Manokwari, Papua Bar. 98313","Jl. Pasir Putih No.33, Pasir Putih, Kec. Manokwari Tim., Kabupaten Manokwari",PAPUA BARAT,98313.0,Indonesia,81240372255.0,-0.8780927,134.0933631,https://maps.google.com/?cid=0x0:0xba66c7a3124731e6
restaurant,Rumah Makan,Rumah makan sidomulyo,"5HCW+2V3, Manggupi, Distrik Sidey, Kabupaten Manokwari, Papua Bar. 98357","Manggupi, Distrik Sidey, Kabupaten Manokwari",PAPUA BARAT,98357.0,Indonesia,82334812122.0,-0.8299789,133.5971866,https://maps.google.com/?cid=0x0:0x5b5adf7d630c440e
restaurant,Restoran,Resto Celeng Kiman Neyeng Family,"3VMH+X6P, Desay, Distrik Prafi, Kabupaten Manokwari, Papua Bar. 98356","Desay, Distrik Prafi, Kabupaten Manokwari",PAPUA BARAT,98356.0,Indonesia,82260054174.0,-0.9150316,133.8780732,https://maps.google.com/?cid=0x0:0x541c788dd06c7e60
restaurant,Rumah Makan,Warung makan modeasfirnaf,"6P7H+9RW, Unnamed Road, Sumber Boga, Distrik Masni, Kabupaten Manokwari, Papua Bar. 98357","Unnamed Road, Sumber Boga, Distrik Masni, Kabupaten Manokwari",PAPUA BARAT,98357.0,Indonesia,82238467545.0,-0.7865083,133.7295673,https://maps.google.com/?cid=0x0:0x9f8d23af088ef43
restaurant,Restoran,Mie ayambakso aulia,"4QMM+M9W, Macuan, Distrik Masni, Kabupaten Manokwari, Papua Bar. 98356","Macuan, Distrik Masni, Kabupaten Manokwari",PAPUA BARAT,98356.0,Indonesia,81230369305.0,-0.8657721,133.7834673,https://maps.google.com/?cid=0x0:0xd4f52ee30d3eb52a
restaurant,Restoran,Warung Makan Indah Jaya,"Unnamed Road, Waseki Indah, Distrik Prafi, Kabupaten Manokwari, Papua Bar. 98356","Waseki Indah, Distrik Prafi, Kabupaten Manokwari",PAPUA BARAT,98356.0,Indonesia,,-0.8767155,133.812115,https://maps.google.com/?cid=0x0:0x7f38f1c70f6c1268
restaurant,Restoran,Wm.nusantara,"5JW4+94J, Jl. Sorong - Manokwari, Manggupi, Distrik Sidey, Kabupaten Manokwari, Papua Bar. 98357","Jl. Sorong - Manokwari, Manggupi, Distrik Sidey, Kabupaten Manokwari",PAPUA BARAT,98357.0,Indonesia,,-0.8040389,133.6052677,https://maps.google.com/?cid=0x0:0xfcdc260598b91e9f
restaurant,Padang,RM Sabar Menanti,"3VJV+G4R, Prafi Mulia, Distrik Prafi, Kabupaten Manokwari, Papua Bar. 98352","Prafi Mulia, Distrik Prafi, Kabupaten Manokwari",PAPUA BARAT,98352.0,Indonesia,82199543692.0,-0.9186418,133.8927765,https://maps.google.com/?cid=0x0:0x9ccd68e273cb940f
restaurant,restaurant,Distrik Prafi,"Kabupaten Manokwari, Papua Bar.","Kabupaten Manokwari, Papua Bar.",PAPUA BARAT,,Indonesia,,-0.8781986,133.8274668,https://maps.google.com/?cid=0x0:0xb111fb1aee64e776
restaurant,Kedai Kopi,STEAK  SHAKE,"Bar. Papua Bar. 98356, Udapi Hilir, Distrik Prafi, Kabupaten Manokwari, Papua Bar. 98356","Udapi Hilir, Distrik Prafi, Kabupaten Manokwari",PAPUA BARAT,98356.0,Indonesia,,-0.8843499,133.8210703,https://maps.google.com/?cid=0x0:0x65787006c10c733
restaurant,Korea,EXO Korean Cafe,"Udapi Hilir, Distrik Prafi, Kabupaten Manokwari, Papua Bar. 98356","Distrik Prafi, Kabupaten Manokwari",PAPUA BARAT,98356.0,Indonesia,81245008384.0,-0.8842664,133.8223763,https://maps.google.com/?cid=0x0:0x928b6ce6058bb3fd
restaurant,Nasi,Makan Lesehan Mba Ida,"3VMH+6QG, Jl. Sorong - Manokwari, Prafi Mulia, Distrik Prafi, Kabupaten Manokwari, Papua Bar. 98356","Jl. Sorong - Manokwari, Prafi Mulia, Distrik Prafi, Kabupaten Manokwari",PAPUA BARAT,98356.0,Indonesia,,-0.916942,133.8794645,https://maps.google.com/?cid=0x0:0x50e73a273c46dfdd
restaurant,Rumah Makan,BALAI JAGONG SP4,"Udapi Hilir, Distrik Prafi, Kabupaten Manokwari, Papua Bar. 98356","Distrik Prafi, Kabupaten Manokwari",PAPUA BARAT,98356.0,Indonesia,,-0.8762998,133.8313201,https://maps.google.com/?cid=0x0:0x5147bb3efa2e0da9
restaurant,Dapur Umum,Rumah Makan Barokah,"Jl. Poros, Udapi Hilir, Distrik Prafi, Kabupaten Manokwari, Papua Bar. 98356","Udapi Hilir, Distrik Prafi, Kabupaten Manokwari",PAPUA BARAT,98356.0,Indonesia,,-0.8853347,133.8369152,https://maps.google.com/?cid=0x0:0x17000892748e0728
restaurant,Restoran,Garo Rica,"Jl. Pertanian Wosi No.18, Udapi Hilir, Kecamatan Manokwari Barat, Kabupaten Manokwari, Papua Bar. 98312","Udapi Hilir, Kecamatan Manokwari Barat, Kabupaten Manokwari",PAPUA BARAT,98312.0,Indonesia,81344757627.0,-0.8843551,133.83651,https://maps.google.com/?cid=0x0:0xdad9ce68da8cadb4
restaurant,Restoran,Inggandi Beach Restaurant,"43GV+7Q3, Jl. Pasir Putih No.33, Pasir Putih, Kec. Manokwari Tim., Kabupaten Manokwari, Papua Bar. 98313","Jl. Pasir Putih No.33, Pasir Putih, Kec. Manokwari Tim., Kabupaten Manokwari",PAPUA BARAT,98313.0,Indonesia,81240372255.0,-0.8780927,134.0933631,https://maps.google.com/?cid=0x0:0xba66c7a3124731e6
restaurant,Restoran,Chicken Pro Manokwari,"3VJV+96Q, Prafi Mulia, Distrik Prafi, Kabupaten Manokwari, Papua Bar. 98352","Prafi Mulia, Distrik Prafi, Kabupaten Manokwari",PAPUA BARAT,98352.0,Indonesia,85219828961.0,-0.919047,133.893107,https://maps.google.com/?cid=0x0:0x9b5a940ff320a6c4
restaurant,Rumah Makan,Warung Makan Ibu Nunuk,"4QVJ+38J, Macuan, Distrik Masni, Kabupaten Manokwari, Papua Bar. 98356","Macuan, Distrik Masni, Kabupaten Manokwari",PAPUA BARAT,98356.0,Indonesia,,-0.8572955,133.7807754,https://maps.google.com/?cid=0x0:0xb8d37f02fdbfd71
restaurant,Restoran,Resto Celeng Kiman Neyeng Family,"3VMH+X6P, Desay, Distrik Prafi, Kabupaten Manokwari, Papua Bar. 98356","Desay, Distrik Prafi, Kabupaten Manokwari",PAPUA BARAT,98356.0,Indonesia,82260054174.0,-0.9150316,133.8780732,https://maps.google.com/?cid=0x0:0x541c788dd06c7e60
restaurant,Restoran,Warung makan hidayah 2,"4RCG+4HX, Unnamed Road, Udapi Hilir, Distrik Prafi, Kabupaten Manokwari, Papua Bar. 98356","Unnamed Road, Udapi Hilir, Distrik Prafi, Kabupaten Manokwari",PAPUA BARAT,98356.0,Indonesia,,-0.8796311,133.8264851,https://maps.google.com/?cid=0x0:0xee203efe5779b232
restaurant,restaurant,Papua Bar. 98356,"Kabupaten Manokwari, Papua Bar.","Kabupaten Manokwari, Papua Bar.",PAPUA BARAT,,Indonesia,,-0.944854,133.7717073,https://maps.google.com/?cid=0x0:0x8f6cbc943a6f12d8
restaurant,Kedai Kopi,STEAK  SHAKE,"Bar. Papua Bar. 98356, Udapi Hilir, Distrik Prafi, Kabupaten Manokwari, Papua Bar. 98356","Udapi Hilir, Distrik Prafi, Kabupaten Manokwari",PAPUA BARAT,98356.0,Indonesia,,-0.8843499,133.8210703,https://maps.google.com/?cid=0x0:0x65787006c10c733
restaurant,Padang,RM Sabar Menanti,"3VJV+G4R, Prafi Mulia, Distrik Prafi, Kabupaten Manokwari, Papua Bar. 98352","Prafi Mulia, Distrik Prafi, Kabupaten Manokwari",PAPUA BARAT,98352.0,Indonesia,82199543692.0,-0.9186418,133.8927765,https://maps.google.com/?cid=0x0:0x9ccd68e273cb940f
restaurant,Nasi,Makan Lesehan Mba Ida,"3VMH+6QG, Jl. Sorong - Manokwari, Prafi Mulia, Distrik Prafi, Kabupaten Manokwari, Papua Bar. 98356","Jl. Sorong - Manokwari, Prafi Mulia, Distrik Prafi, Kabupaten Manokwari",PAPUA BARAT,98356.0,Indonesia,,-0.916942,133.8794645,https://maps.google.com/?cid=0x0:0x50e73a273c46dfdd
restaurant,Restoran,Resto Celeng Kiman Neyeng Family,"3VMH+X6P, Desay, Distrik Prafi, Kabupaten Manokwari, Papua Bar. 98356","Desay, Distrik Prafi, Kabupaten Manokwari",PAPUA BARAT,98356.0,Indonesia,82260054174.0,-0.9150316,133.8780732,https://maps.google.com/?cid=0x0:0x541c788dd06c7e60
restaurant,Restoran,Warung Makan Indah Jaya,"Unnamed Road, Waseki Indah, Distrik Prafi, Kabupaten Manokwari, Papua Bar. 98356","Waseki Indah, Distrik Prafi, Kabupaten Manokwari",PAPUA BARAT,98356.0,Indonesia,,-0.8767155,133.812115,https://maps.google.com/?cid=0x0:0x7f38f1c70f6c1268
restaurant,Dapur Umum,Rumah Makan Barokah,"Jl. Poros, Udapi Hilir, Distrik Prafi, Kabupaten Manokwari, Papua Bar. 98356","Udapi Hilir, Distrik Prafi, Kabupaten Manokwari",PAPUA BARAT,98356.0,Indonesia,,-0.8853347,133.8369152,https://maps.google.com/?cid=0x0:0x17000892748e0728
restaurant,Rumah Makan,BALAI JAGONG SP4,"Udapi Hilir, Distrik Prafi, Kabupaten Manokwari, Papua Bar. 98356","Distrik Prafi, Kabupaten Manokwari",PAPUA BARAT,98356.0,Indonesia,,-0.8762998,133.8313201,https://maps.google.com/?cid=0x0:0x5147bb3efa2e0da9
restaurant,restaurant,YessJajan,"Jl. Poros No.Sp 3, Udapi Hilir, Distrik Prafi, Kabupaten Manokwari, Papua Bar. 98316","Udapi Hilir, Distrik Prafi, Kabupaten Manokwari",PAPUA BARAT,98316.0,Indonesia,82238080032.0,-0.8747585,133.8340829,https://maps.google.com/?cid=0x0:0x7c635f3e5dd2b5ef
restaurant,Restoran,WARUNG MAKAN 99,"4R5V+C48, Jl. Sorong - Manokwari, Udapi Hilir, Distrik Prafi, Kabupaten Manokwari, Papua Bar. 98356","Jl. Sorong - Manokwari, Udapi Hilir, Distrik Prafi, Kabupaten Manokwari",PAPUA BARAT,98356.0,Indonesia,85361535044.0,-0.8914746,133.8428186,https://maps.google.com/?cid=0x0:0x607838dd5063fbf3
restaurant,Rumah Makan,Warung Makan Ibu Nunuk,"4QVJ+38J, Macuan, Distrik Masni, Kabupaten Manokwari, Papua Bar. 98356","Macuan, Distrik Masni, Kabupaten Manokwari",PAPUA BARAT,98356.0,Indonesia,,-0.8572955,133.7807754,https://maps.google.com/?cid=0x0:0xb8d37f02fdbfd71
restaurant,Restoran,Chicken Pro Manokwari,"3VJV+96Q, Prafi Mulia, Distrik Prafi, Kabupaten Manokwari, Papua Bar. 98352","Prafi Mulia, Distrik Prafi, Kabupaten Manokwari",PAPUA BARAT,98352.0,Indonesia,85219828961.0,-0.919047,133.893107,https://maps.google.com/?cid=0x0:0x9b5a940ff320a6c4
restaurant,restaurant,RM Singgah Indah,"3VJV+P9X SP 1, Prafi Mulia, Prafi, Manokwari Regency, West Papua","Kabupaten Manokwari, Papua Bar.",PAPUA BARAT,,Indonesia,85344126333.0,-0.9181449,133.8934694,https://maps.google.com/?cid=0x0:0xee871fb14259fa6d
restaurant,Brunch,Warung Makan BUTUTIK,"4R9G+H5X, Udapi Hilir, Distrik Prafi, Kabupaten Manokwari, Papua Bar. 98356","Udapi Hilir, Distrik Prafi, Kabupaten Manokwari",PAPUA BARAT,98356.0,Indonesia,82199020725.0,-0.8810189,133.8254831,https://maps.google.com/?cid=0x0:0xe96e2acbee8e6d57
restaurant,restaurant,Distrik Sidey,"Kabupaten Manokwari, Papua Bar.","Kabupaten Manokwari, Papua Bar.",PAPUA BARAT,,Indonesia,,-0.7605514,133.5946268,https://maps.google.com/?cid=0x0:0x8c34ad1374e4a89e
restaurant,Rumah Makan,Rumah makan sidomulyo,"5HCW+2V3, Manggupi, Distrik Sidey, Kabupaten Manokwari, Papua Bar. 98357","Manggupi, Distrik Sidey, Kabupaten Manokwari",PAPUA BARAT,98357.0,Indonesia,82334812122.0,-0.8299789,133.5971866,https://maps.google.com/?cid=0x0:0x5b5adf7d630c440e
restaurant,Brunch,WM.Pandhawi,"5JX4+25F, Meyof I, Distrik Sidey, Kabupaten Manokwari, Papua Bar. 98357","Meyof I, Distrik Sidey, Kabupaten Manokwari",PAPUA BARAT,98357.0,Indonesia,,-0.8024412,133.6054285,https://maps.google.com/?cid=0x0:0x35c8be23c2b4856c
restaurant,Restoran,Warung Makan ARPON,"6J33+RFP, Sidey Jaya, Distrik Sidey, Kabupaten Manokwari, Papua Bar. 98357","Sidey Jaya, Distrik Sidey, Kabupaten Manokwari",PAPUA BARAT,98357.0,Indonesia,85333200307.0,-0.7954248,133.6036883,https://maps.google.com/?cid=0x0:0x2311b96501278d89
restaurant,Nasi,Warung Makan Adem Ayem,"6H2R+4Q3, Meyof I, Distrik Sidey, Kabupaten Manokwari, Papua Bar. 98357","Meyof I, Distrik Sidey, Kabupaten Manokwari",PAPUA BARAT,98357.0,Indonesia,,-0.7997344,133.591924,https://maps.google.com/?cid=0x0:0x8f53995adb844a3c
restaurant,Restoran,Warung Makan Ambar,"5HV7+W9, Meyof I, Distrik Sidey, Kabupaten Manokwari, Papua Bar.","Kabupaten Manokwari, Papua Bar.",PAPUA BARAT,,Indonesia,85256091129.0,-0.8052145,133.5633961,https://maps.google.com/?cid=0x0:0xc1f9f8f83a4359a9
restaurant,Ayam,Warung Pondok Bambu,"Wam Bola, Distrik Masni, Kabupaten Manokwari, Papua Bar. 98357","Distrik Masni, Kabupaten Manokwari",PAPUA BARAT,98357.0,Indonesia,,-0.8385652,133.6330291,https://maps.google.com/?cid=0x0:0xdcdacf29675bce1
restaurant,Restoran,Wm.nusantara,"5JW4+94J, Jl. Sorong - Manokwari, Manggupi, Distrik Sidey, Kabupaten Manokwari, Papua Bar. 98357","Jl. Sorong - Manokwari, Manggupi, Distrik Sidey, Kabupaten Manokwari",PAPUA BARAT,98357.0,Indonesia,,-0.8040389,133.6052677,https://maps.google.com/?cid=0x0:0xfcdc260598b91e9f
restaurant,Bakso,Bakso idola,"5HWH+JW, Meyof I, Distrik Sidey, Kabupaten Manokwari, Papua Bar.","Kabupaten Manokwari, Papua Bar.",PAPUA BARAT,,Indonesia,85234625095.0,-0.803492,133.579839,https://maps.google.com/?cid=0x0:0x55c15ade70927a75
restaurant,Restoran,Inggandi Beach Restaurant,"43GV+7Q3, Jl. Pasir Putih No.33, Pasir Putih, Kec. Manokwari Tim., Kabupaten Manokwari, Papua Bar. 98313","Jl. Pasir Putih No.33, Pasir Putih, Kec. Manokwari Tim., Kabupaten Manokwari",PAPUA BARAT,98313.0,Indonesia,81240372255.0,-0.8780927,134.0933631,https://maps.google.com/?cid=0x0:0xba66c7a3124731e6
restaurant,Toko Mebel,Mebel Kayu SIDEY BARU SP10,"6HVV+H8P, Sidey Baru, Distrik Sidey, Kabupaten Manokwari, Papua Bar. 98357","Sidey Baru, Distrik Sidey, Kabupaten Manokwari",PAPUA BARAT,98357.0,Indonesia,,-0.7557643,133.5930032,https://maps.google.com/?cid=0x0:0xc553db38513796de
restaurant,Restoran,Billy Cafe,"Jl. Merdeka No.57, Padarni, Kec. Manokwari Bar., Kabupaten Manokwari, Papua Bar. 98312","Padarni, Kec. Manokwari Bar., Kabupaten Manokwari",PAPUA BARAT,98312.0,Indonesia,81240501959.0,-0.8596376,134.0734046,https://maps.google.com/?cid=0x0:0x245b68c7c99f326f
restaurant,Makanan Kecil,Kedai angkringan begadang mom echa,"6H39+956, Sidey Jaya, Distrik Sidey, Kabupaten Manokwari, Papua Bar. 98357","Sidey Jaya, Distrik Sidey, Kabupaten Manokwari",PAPUA BARAT,98357.0,Indonesia,,-0.7965797,133.5679032,https://maps.google.com/?cid=0x0:0xca5a7a5ae071b8d9
restaurant,Kedai Kopi,Lapak angkringan begadang mom echa,"Jln poros, Jl. Mubrani jalur 7 timur, Sidey Jaya, Kabupaten Manokwari, Papua Bar. 98319","Jl. Mubrani jalur 7 timur, Sidey Jaya, Kabupaten Manokwari",PAPUA BARAT,98319.0,Indonesia,,-0.794083,133.6035952,https://maps.google.com/?cid=0x0:0xf867d033926bb26
restaurant,Restoran,Inggandi Beach Restaurant,"43GV+7Q3, Jl. Pasir Putih No.33, Pasir Putih, Kec. Manokwari Tim., Kabupaten Manokwari, Papua Bar. 98313","Jl. Pasir Putih No.33, Pasir Putih, Kec. Manokwari Tim., Kabupaten Manokwari",PAPUA BARAT,98313.0,Indonesia,81240372255.0,-0.8780927,134.0933631,https://maps.google.com/?cid=0x0:0xba66c7a3124731e6
restaurant,restaurant,Kec. Tanah Rubuh,"Kabupaten Manokwari, Papua Bar.","Kabupaten Manokwari, Papua Bar.",PAPUA BARAT,,Indonesia,,-1.1718674,134.1443544,https://maps.google.com/?cid=0x0:0x2304a7a7ad451175
restaurant,restaurant,Kios Enno Waode,"Kampung Warnyeti , Distrik tanah rubuh manokwari selatan, Masabui, Kec. Oransbari, Kabupaten Manokwari, Papua Bar. 98315","Distrik tanah rubuh manokwari selatan, Masabui, Kec. Oransbari, Kabupaten Manokwari",PAPUA BARAT,98315.0,Indonesia,82238429200.0,-1.2048044,134.1756276,https://maps.google.com/?cid=0x0:0xd877ff58264c18df
restaurant,Kafe,Tabea Social House,"Jl. Gn. Salju, Manokwari Bar., Kec. Manokwari Bar., Kabupaten Manokwari, Papua Bar. 98312","Manokwari Bar., Kec. Manokwari Bar., Kabupaten Manokwari",PAPUA BARAT,98312.0,Indonesia,85254149747.0,-0.8532734,134.068623,https://maps.google.com/?cid=0x0:0x5ffda2a896680a45
restaurant,Kafe,Oriestom Cafe  Restaurant,"43F2+G88, Jl. Trikora Rendani, Wosi, Kec. Manokwari Bar., Kabupaten Manokwari, Papua Bar. 98312","Jl. Trikora Rendani, Wosi, Kec. Manokwari Bar., Kabupaten Manokwari",PAPUA BARAT,98312.0,Indonesia,,-0.8762199,134.0508422,https://maps.google.com/?cid=0x0:0xe50589caa694703f
restaurant,Restoran,Billy Cafe,"Jl. Merdeka No.57, Padarni, Kec. Manokwari Bar., Kabupaten Manokwari, Papua Bar. 98312","Padarni, Kec. Manokwari Bar., Kabupaten Manokwari",PAPUA BARAT,98312.0,Indonesia,81240501959.0,-0.8596376,134.0734046,https://maps.google.com/?cid=0x0:0x245b68c7c99f326f
restaurant,Jepang,Anris Cafe,"43W4+Q85, Jl. Ekonomi pemancar RRi.Reremi, Jalan Ekonomi Reremi, Manokwari Bar., Kec. Manokwari Bar., Kabupaten Manokwari, Papua Bar. 98311","Jl. Ekonomi pemancar RRi.Reremi, Jalan Ekonomi Reremi, Manokwari Bar., Kec. Manokwari Bar., Kabupaten Manokwari",PAPUA BARAT,98311.0,Indonesia,85399990665.0,-0.8542488,134.0618503,https://maps.google.com/?cid=0x0:0x563c17522093e9c3
restaurant,Kafe,Oâ Snack Kafe Otoritas,"Jl. Trikora Rendani, Sowi, Distrik Manokwari, Kabupaten Manokwari, Papua Bar. 98313","Sowi, Distrik Manokwari, Kabupaten Manokwari",PAPUA BARAT,98313.0,Indonesia,,-0.8859283,134.0517921,https://maps.google.com/?cid=0x0:0x2b1b712fbfee7434
restaurant,restaurant,Aston Niu Manokwari,"Sogun Hill, Jl. Drs Esau Sesa No.3 Blok B, Sowi, Distrik Manokwari, Kabupaten Manokwari, Papua Bar. 98315","Jl. Drs Esau Sesa No.3 Blok B, Sowi, Distrik Manokwari, Kabupaten Manokwari",PAPUA BARAT,98315.0,Indonesia,81369878787.0,-0.8978109,134.0416499,https://maps.google.com/?cid=0x0:0xe96b706fef94b3a2
restaurant,restaurant,,,,PAPUA BARAT,,Indonesia,,,,https://maps.google.com/?cid=0x0:0xe96b706fef94b3a2%7C/g/120jr49w%7Cid-ID
restaurant,restaurant,Swiss Belhotel Manokwari,"Jl. Yos Sudarso Manokwari No.8, Manokwari Bar., Kec. Manokwari Bar., Kabupaten Manokwari, Papua Bar. 98312","Manokwari Bar., Kec. Manokwari Bar., Kabupaten Manokwari",PAPUA BARAT,98312.0,Indonesia,8114854000.0,-0.8572937,134.0672125,https://maps.google.com/?cid=0x0:0x92c98d5e96ee2a8f
restaurant,restaurant,The Alexander Hotel,"43V9+HX4, Jl. Jend. Sudirman, Padarni, Kec. Manokwari Bar., Kabupaten Manokwari, Papua Bar. 98312","Jl. Jend. Sudirman, Padarni, Kec. Manokwari Bar., Kabupaten Manokwari",PAPUA BARAT,98312.0,Indonesia,9862214551.0,-0.8561036,134.06994,https://maps.google.com/?cid=0x0:0xdc6bdc355d4e63ab
restaurant,restaurant,Hotel Triton,"Jl. Gn. Salju No.6, Manokwari Bar., Kec. Manokwari Bar., Kabupaten Manokwari, Papua Bar. 98311","Manokwari Bar., Kec. Manokwari Bar., Kabupaten Manokwari",PAPUA BARAT,98311.0,Indonesia,986212666.0,-0.8532727,134.068781,https://maps.google.com/?cid=0x0:0x6021b02b4fb20af
restaurant,restaurant,Pulau Mansinam,"Mansinam, Kec. Manokwari Tim., Kabupaten Manokwari, Papua Bar.","Kabupaten Manokwari, Papua Bar.",PAPUA BARAT,,Indonesia,,-0.9141667,134.1083333,https://maps.google.com/?cid=0x0:0x94a3a276c08ef3eb
restaurant,restaurant,Kec. Tanah Rubuh,"Kabupaten Manokwari, Papua Bar.","Kabupaten Manokwari, Papua Bar.",PAPUA BARAT,,Indonesia,,-1.1718674,134.1443544,https://maps.google.com/?cid=0x0:0x2304a7a7ad451175
restaurant,Kafe,Oriestom Cafe  Restaurant,"43F2+G88, Jl. Trikora Rendani, Wosi, Kec. Manokwari Bar., Kabupaten Manokwari, Papua Bar. 98312","Jl. Trikora Rendani, Wosi, Kec. Manokwari Bar., Kabupaten Manokwari",PAPUA BARAT,98312.0,Indonesia,,-0.8762199,134.0508422,https://maps.google.com/?cid=0x0:0xe50589caa694703f
restaurant,Restoran,Inggandi Beach Restaurant,"43GV+7Q3, Jl. Pasir Putih No.33, Pasir Putih, Kec. Manokwari Tim., Kabupaten Manokwari, Papua Bar. 98313","Jl. Pasir Putih No.33, Pasir Putih, Kec. Manokwari Tim., Kabupaten Manokwari",PAPUA BARAT,98313.0,Indonesia,81240372255.0,-0.8780927,134.0933631,https://maps.google.com/?cid=0x0:0xba66c7a3124731e6
restaurant,restaurant,Kios Enno Waode,"Kampung Warnyeti , Distrik tanah rubuh manokwari selatan, Masabui, Kec. Oransbari, Kabupaten Manokwari, Papua Bar. 98315","Distrik tanah rubuh manokwari selatan, Masabui, Kec. Oransbari, Kabupaten Manokwari",PAPUA BARAT,98315.0,Indonesia,82238429200.0,-1.2048044,134.1756276,https://maps.google.com/?cid=0x0:0xd877ff58264c18df
restaurant,Sesuai untuk keluarga,Omafood,"426W+RGQ, Jl. Drs Esau Sesa, Sowi, Distrik Manokwari, Kabupaten Manokwari, Papua Bar. 98315","Jl. Drs Esau Sesa, Sowi, Distrik Manokwari, Kabupaten Manokwari",PAPUA BARAT,98315.0,Indonesia,81248409370.0,-0.8879175,134.0463506,https://maps.google.com/?cid=0x0:0xa9be492f7608f920
restaurant,Padang,RM Sabar Menanti,"3VJV+G4R, Prafi Mulia, Distrik Prafi, Kabupaten Manokwari, Papua Bar. 98352","Prafi Mulia, Distrik Prafi, Kabupaten Manokwari",PAPUA BARAT,98352.0,Indonesia,82199543692.0,-0.9186418,133.8927765,https://maps.google.com/?cid=0x0:0x9ccd68e273cb940f
restaurant,restaurant,Papua Bar. 98352,"Kabupaten Manokwari, Papua Bar.","Kabupaten Manokwari, Papua Bar.",PAPUA BARAT,,Indonesia,,-1.0122519,133.9055155,https://maps.google.com/?cid=0x0:0x665ab61075e0d624
restaurant,Padang,W.R. BAROKAH âNGUDI ROSOâ,"2WGW+7H6, Unnamed Road, Dindey, Kec. Warmare, Kabupaten Manokwari, Papua Bar. 98352","Unnamed Road, Dindey, Kec. Warmare, Kabupaten Manokwari",PAPUA BARAT,98352.0,Indonesia,,-0.974332,133.9463847,https://maps.google.com/?cid=0x0:0x12db3df9fc36f398
restaurant,Sesuai untuk keluarga,Rumah Makan Segeri,"224G+GQP, Jl. Manokwari - Bintuni, Maruni, Distrik Manokwari, Kabupaten Manokwari, Papua Bar. 98315","Jl. Manokwari - Bintuni, Maruni, Distrik Manokwari, Kabupaten Manokwari",PAPUA BARAT,98315.0,Indonesia,,-0.993664,134.026939,https://maps.google.com/?cid=0x0:0x7fba6dd234646c72
restaurant,Dapur Umum,Warung makan wardha,"3VJV+844, Unnamed Road, Prafi Mulia, Distrik Prafi, Kabupaten Manokwari, Papua Bar. 98352","Unnamed Road, Prafi Mulia, Distrik Prafi, Kabupaten Manokwari",PAPUA BARAT,98352.0,Indonesia,82394568193.0,-0.9192436,133.8928332,https://maps.google.com/?cid=0x0:0x4214f5aabeefee44
restaurant,restaurant,RM Singgah Indah,"3VJV+P9X SP 1, Prafi Mulia, Prafi, Manokwari Regency, West Papua","Kabupaten Manokwari, Papua Bar.",PAPUA BARAT,,Indonesia,85344126333.0,-0.9181449,133.8934694,https://maps.google.com/?cid=0x0:0xee871fb14259fa6d
restaurant,Restoran,Resto Celeng Kiman Neyeng Family,"3VMH+X6P, Desay, Distrik Prafi, Kabupaten Manokwari, Papua Bar. 98356","Desay, Distrik Prafi, Kabupaten Manokwari",PAPUA BARAT,98356.0,Indonesia,82260054174.0,-0.9150316,133.8780732,https://maps.google.com/?cid=0x0:0x541c788dd06c7e60
restaurant,Nasi,Makan Lesehan Mba Ida,"3VMH+6QG, Jl. Sorong - Manokwari, Prafi Mulia, Distrik Prafi, Kabupaten Manokwari, Papua Bar. 98356","Jl. Sorong - Manokwari, Prafi Mulia, Distrik Prafi, Kabupaten Manokwari",PAPUA BARAT,98356.0,Indonesia,,-0.916942,133.8794645,https://maps.google.com/?cid=0x0:0x50e73a273c46dfdd
restaurant,Restoran,Inggandi Beach Restaurant,"43GV+7Q3, Jl. Pasir Putih No.33, Pasir Putih, Kec. Manokwari Tim., Kabupaten Manokwari, Papua Bar. 98313","Jl. Pasir Putih No.33, Pasir Putih, Kec. Manokwari Tim., Kabupaten Manokwari",PAPUA BARAT,98313.0,Indonesia,81240372255.0,-0.8780927,134.0933631,https://maps.google.com/?cid=0x0:0xba66c7a3124731e6
restaurant,Restoran,Rumah Makan Coto Karya Baru,"3VMH+F9P, Jl. Sorong - Manokwari, Nimbay, Kec. Warmare, Kabupaten Manokwari, Papua Bar. 98356","Jl. Sorong - Manokwari, Nimbay, Kec. Warmare, Kabupaten Manokwari",PAPUA BARAT,98356.0,Indonesia,81248570250.0,-0.9155804,133.8778254,https://maps.google.com/?cid=0x0:0x52744509e66d6bcc
restaurant,Brunch,Rumah Makan Robema,"Anday, Distrik Manokwari, Kabupaten Manokwari, Papua Bar. 98315","Distrik Manokwari, Kabupaten Manokwari",PAPUA BARAT,98315.0,Indonesia,85276136715.0,-0.9309665,134.0172974,https://maps.google.com/?cid=0x0:0xdbce2ad74cede746
restaurant,Brunch,Rumah Makan Sinar Nirwana,"3VJV+659, Unnamed Road, Prafi Mulia, Distrik Prafi, Kabupaten Manokwari, Papua Bar. 98352","Unnamed Road, Prafi Mulia, Distrik Prafi, Kabupaten Manokwari",PAPUA BARAT,98352.0,Indonesia,,-0.9194592,133.8929781,https://maps.google.com/?cid=0x0:0x194a6162046f203d
restaurant,Restoran,Chicken Pro Manokwari,"3VJV+96Q, Prafi Mulia, Distrik Prafi, Kabupaten Manokwari, Papua Bar. 98352","Prafi Mulia, Distrik Prafi, Kabupaten Manokwari",PAPUA BARAT,98352.0,Indonesia,85219828961.0,-0.919047,133.893107,https://maps.google.com/?cid=0x0:0x9b5a940ff320a6c4
restaurant,Padang,RM Kharunia Ketapang 2,"22X3+PPW, Jl. Manokwari - Bintuni, Anday, Distrik Manokwari, Kabupaten Manokwari, Papua Bar. 98315","Jl. Manokwari - Bintuni, Anday, Distrik Manokwari, Kabupaten Manokwari",PAPUA BARAT,98315.0,Indonesia,,-0.9506381,134.004338,https://maps.google.com/?cid=0x0:0x434f8dc228dd2920
