Category,Real Category,Business Name,Address,City,State,Postal Code,Country,Phone,Latitude,Longitude,Map Link
mall,Pusat Perbelanjaan,Manokwari City Mall (MCM),"Jl. Yos Sudarso Manokwari, Manokwari Bar., Kec. Manokwari Bar., Kabupaten Manokwari, Papua Bar. 98312","Manokwari Bar., Kec. Manokwari Bar., Kabupaten Manokwari",PAPUA BARAT,98312.0,Indonesia,8114918899.0,-0.85693,134.0678051,https://maps.google.com/?cid=0x0:0x7e7b90df1d787501
mall,mall,Papua Bar. 98311,"Kec. Manokwari Tim., Kabupaten Manokwari, Papua Bar.","Kabupaten Manokwari, Papua Bar.",PAPUA BARAT,,Indonesia,,-0.853122,134.1102895,https://maps.google.com/?cid=0x0:0x327a91d22239a4d5
mall,Pusat Perbelanjaan,XXI Manokwari City Mall,"43V9+336, Manokwari Bar., Kec. Manokwari Bar., Kabupaten Manokwari, Papua Bar. 98312","Manokwari Bar., Kec. Manokwari Bar., Kabupaten Manokwari",PAPUA BARAT,98312.0,Indonesia,,-0.8573313,134.0676452,https://maps.google.com/?cid=0x0:0xe937482c99d96980
mall,Pusat Perbelanjaan,Solaria - Manokwari City Mall,"Jl. Yos Sudarso No.8, Manokwari Bar., Kec. Manokwari Bar., Kabupaten Manokwari, Papua Bar. 98312","Manokwari Bar., Kec. Manokwari Bar., Kabupaten Manokwari",PAPUA BARAT,98312.0,Indonesia,,-0.8568296,134.0677534,https://maps.google.com/?cid=0x0:0x2f8eaeac754b6e6b
mall,Toko bahan makanan,Kalawai Mart,"42GW+JX7, Jl. Drs Esau Sesa, Wosi, Kec. Manokwari Bar., Kabupaten Manokwari, Papua Bar. 98312","Jl. Drs Esau Sesa, Wosi, Kec. Manokwari Bar., Kabupaten Manokwari",PAPUA BARAT,98312.0,Indonesia,82239404628.0,-0.8734685,134.0474365,https://maps.google.com/?cid=0x0:0xa03f46416c062468
mall,Toko Elektronik,Erafone Manokwari City Mall,"City Mall, Jl. Yos Sudarso Manokwari No.FF-06 LT. 1, Manokwari Bar., Kec. Manokwari Bar., Kabupaten Manokwari, Papua Bar. 98312","Jl. Yos Sudarso Manokwari No.FF-06 LT. 1, Manokwari Bar., Kec. Manokwari Bar., Kabupaten Manokwari",PAPUA BARAT,98312.0,Indonesia,,-0.8572223,134.0678973,https://maps.google.com/?cid=0x0:0x15034185202b422c
mall,Pasar,Pasar Borobudur,"Jl. Jend. Sudirman No.17, Padarni, Kec. Manokwari Bar., Kabupaten Manokwari, Papua Bar. 98312","Padarni, Kec. Manokwari Bar., Kabupaten Manokwari",PAPUA BARAT,98312.0,Indonesia,,-0.8585799,134.0715162,https://maps.google.com/?cid=0x0:0x9e6356f508961607
mall,Minimarket,Hadi Supermarket Manokwari,"43V9+632, Jl. Yos Sudarso Manokwari, Manokwari Bar., Barat, Kabupaten Manokwari, Papua Bar. 98312","Jl. Yos Sudarso Manokwari, Manokwari Bar., Barat, Kabupaten Manokwari",PAPUA BARAT,98312.0,Indonesia,81344231138.0,-0.8569848,134.0676451,https://maps.google.com/?cid=0x0:0x9eff32c2ea26d6a2
mall,Kantor Perusahaan,PT INDOPRIMA MANOKWARI,"Jl. Merdeka No.43, Manokwari Tim., Kec. Manokwari Bar., Kabupaten Manokwari, Papua Bar. 98312","Manokwari Tim., Kec. Manokwari Bar., Kabupaten Manokwari",PAPUA BARAT,98312.0,Indonesia,82197465442.0,-0.8645878,134.0755419,https://maps.google.com/?cid=0x0:0x8d2dd60cde2c56dd
mall,Toko Optik,Optik Melawai - Manokwari City Mall,"Jl. Yos Sudarso Manokwari No.8, Manokwari Bar., Kec. Manokwari Bar., Kabupaten Manokwari, Papua Bar. 98312","Manokwari Bar., Kec. Manokwari Bar., Kabupaten Manokwari",PAPUA BARAT,98312.0,Indonesia,81574206945.0,-0.8569401,134.0673937,https://maps.google.com/?cid=0x0:0x1673f3eebaa3c75b
mall,Toko Elektronik,digibox - Manokwari City Mall,"City Mall, Jl. Yos Sudarso No.8, Sanggeng, Kec. Manokwari Bar., Kabupaten Manokwari, Papua Bar. 98312","Jl. Yos Sudarso No.8, Sanggeng, Kec. Manokwari Bar., Kabupaten Manokwari",PAPUA BARAT,98312.0,Indonesia,82197777456.0,-0.8650032,134.0655736,https://maps.google.com/?cid=0x0:0x4f823da7673ada2e
mall,Jepang,Ichiban Sushi Manokwari City Mall,"Jl. Yos Sudarso, Manokwari Bar., Kec. Manokwari Bar., Kabupaten Manokwari, Papua Bar. 98312","Manokwari Bar., Kec. Manokwari Bar., Kabupaten Manokwari",PAPUA BARAT,98312.0,Indonesia,,-0.85696,134.0676162,https://maps.google.com/?cid=0x0:0x345744965a30969a
mall,Toko Perhiasan,Naughty Hadi Mall,"Jl. Yos Sudarso No.8, Manokwari Bar., Kec. Manokwari Bar., Kabupaten Manokwari, Papua Bar. 98312","Manokwari Bar., Kec. Manokwari Bar., Kabupaten Manokwari",PAPUA BARAT,98312.0,Indonesia,,-0.8571975,134.0675484,https://maps.google.com/?cid=0x0:0x4fdc9271213b8a6b
mall,Toko Sepatu,Toko Sepatu Bata Manokwari City Mall,"City Mall, Jl. Yos Sudarso Manokwari Lantai GF, Manokwari Barat, Manokwari Regency, West Papua 98312","Jl. Yos Sudarso Manokwari Lantai GF, Manokwari Barat, Manokwari Regency",PAPUA BARAT,98312.0,Indonesia,81344990813.0,-0.856941,134.0673946,https://maps.google.com/?cid=0x0:0x93ade862fbf9f98f
mall,Pusat Perbelanjaan,Manokwari City Mall (MCM),"Jl. Yos Sudarso Manokwari, Manokwari Bar., Kec. Manokwari Bar., Kabupaten Manokwari, Papua Bar. 98312","Manokwari Bar., Kec. Manokwari Bar., Kabupaten Manokwari",PAPUA BARAT,98312.0,Indonesia,8114918899.0,-0.85693,134.0678051,https://maps.google.com/?cid=0x0:0x7e7b90df1d787501
mall,Toko bahan makanan,Kalawai Mart,"42GW+JX7, Jl. Drs Esau Sesa, Wosi, Kec. Manokwari Bar., Kabupaten Manokwari, Papua Bar. 98312","Jl. Drs Esau Sesa, Wosi, Kec. Manokwari Bar., Kabupaten Manokwari",PAPUA BARAT,98312.0,Indonesia,82239404628.0,-0.8734685,134.0474365,https://maps.google.com/?cid=0x0:0xa03f46416c062468
mall,mall,Papua Bar. 98312,"Kabupaten Manokwari, Papua Bar.","Kabupaten Manokwari, Papua Bar.",PAPUA BARAT,,Indonesia,,-0.8581559,134.0008674,https://maps.google.com/?cid=0x0:0x55f33f0d52b5b6d0
mall,Pusat Perbelanjaan,XXI Manokwari City Mall,"43V9+336, Manokwari Bar., Kec. Manokwari Bar., Kabupaten Manokwari, Papua Bar. 98312","Manokwari Bar., Kec. Manokwari Bar., Kabupaten Manokwari",PAPUA BARAT,98312.0,Indonesia,,-0.8573313,134.0676452,https://maps.google.com/?cid=0x0:0xe937482c99d96980
mall,Pusat Perbelanjaan,Belakang Manokwari city mall,"43W7+F3H, Manokwari Bar., Kec. Manokwari Bar., Kabupaten Manokwari, Papua Bar. 98312","Manokwari Bar., Kec. Manokwari Bar., Kabupaten Manokwari",PAPUA BARAT,98312.0,Indonesia,,-0.8538079,134.0627452,https://maps.google.com/?cid=0x0:0x59f633fd28048da4
mall,Pusat Perbelanjaan,Solaria - Manokwari City Mall,"Jl. Yos Sudarso No.8, Manokwari Bar., Kec. Manokwari Bar., Kabupaten Manokwari, Papua Bar. 98312","Manokwari Bar., Kec. Manokwari Bar., Kabupaten Manokwari",PAPUA BARAT,98312.0,Indonesia,,-0.8568296,134.0677534,https://maps.google.com/?cid=0x0:0x2f8eaeac754b6e6b
mall,Minimarket,YUBI MART,"Wosi, Kec. Manokwari Bar., Kabupaten Manokwari, Papua Bar. 98312","Kec. Manokwari Bar., Kabupaten Manokwari",PAPUA BARAT,98312.0,Indonesia,,-0.8633329,134.0494077,https://maps.google.com/?cid=0x0:0x7f386d9e9c6b4e20
mall,Pasar,Pasar Borobudur,"Jl. Jend. Sudirman No.17, Padarni, Kec. Manokwari Bar., Kabupaten Manokwari, Papua Bar. 98312","Padarni, Kec. Manokwari Bar., Kabupaten Manokwari",PAPUA BARAT,98312.0,Indonesia,,-0.8585799,134.0715162,https://maps.google.com/?cid=0x0:0x9e6356f508961607
mall,Minimarket,Hadi Supermarket Manokwari,"43V9+632, Jl. Yos Sudarso Manokwari, Manokwari Bar., Barat, Kabupaten Manokwari, Papua Bar. 98312","Jl. Yos Sudarso Manokwari, Manokwari Bar., Barat, Kabupaten Manokwari",PAPUA BARAT,98312.0,Indonesia,81344231138.0,-0.8569848,134.0676451,https://maps.google.com/?cid=0x0:0x9eff32c2ea26d6a2
mall,Toko,Toko Tangguh,"42JX+8W9, Wosi, Kec. Manokwari Bar., Kabupaten Manokwari, Papua Bar. 98312","Wosi, Kec. Manokwari Bar., Kabupaten Manokwari",PAPUA BARAT,98312.0,Indonesia,,-0.869218,134.0498678,https://maps.google.com/?cid=0x0:0xb7a8a87411d5d22
mall,Toko Elektronik,Erafone Manokwari City Mall,"City Mall, Jl. Yos Sudarso Manokwari No.FF-06 LT. 1, Manokwari Bar., Kec. Manokwari Bar., Kabupaten Manokwari, Papua Bar. 98312","Jl. Yos Sudarso Manokwari No.FF-06 LT. 1, Manokwari Bar., Kec. Manokwari Bar., Kabupaten Manokwari",PAPUA BARAT,98312.0,Indonesia,,-0.8572223,134.0678973,https://maps.google.com/?cid=0x0:0x15034185202b422c
mall,Jepang,Ichiban Sushi Manokwari City Mall,"Jl. Yos Sudarso, Manokwari Bar., Kec. Manokwari Bar., Kabupaten Manokwari, Papua Bar. 98312","Manokwari Bar., Kec. Manokwari Bar., Kabupaten Manokwari",PAPUA BARAT,98312.0,Indonesia,,-0.85696,134.0676162,https://maps.google.com/?cid=0x0:0x345744965a30969a
mall,Toko Optik,Optik Melawai - Manokwari City Mall,"Jl. Yos Sudarso Manokwari No.8, Manokwari Bar., Kec. Manokwari Bar., Kabupaten Manokwari, Papua Bar. 98312","Manokwari Bar., Kec. Manokwari Bar., Kabupaten Manokwari",PAPUA BARAT,98312.0,Indonesia,81574206945.0,-0.8569401,134.0673937,https://maps.google.com/?cid=0x0:0x1673f3eebaa3c75b
mall,Toko Perhiasan,Naughty Hadi Mall,"Jl. Yos Sudarso No.8, Manokwari Bar., Kec. Manokwari Bar., Kabupaten Manokwari, Papua Bar. 98312","Manokwari Bar., Kec. Manokwari Bar., Kabupaten Manokwari",PAPUA BARAT,98312.0,Indonesia,,-0.8571975,134.0675484,https://maps.google.com/?cid=0x0:0x4fdc9271213b8a6b
mall,Pusat Perbelanjaan,Belakang Manokwari city mall,"43W7+F3H, Manokwari Bar., Kec. Manokwari Bar., Kabupaten Manokwari, Papua Bar. 98312","Manokwari Bar., Kec. Manokwari Bar., Kabupaten Manokwari",PAPUA BARAT,98312.0,Indonesia,,-0.8538079,134.0627452,https://maps.google.com/?cid=0x0:0x59f633fd28048da4
mall,Pusat Perbelanjaan,Manokwari City Mall (MCM),"Jl. Yos Sudarso Manokwari, Manokwari Bar., Kec. Manokwari Bar., Kabupaten Manokwari, Papua Bar. 98312","Manokwari Bar., Kec. Manokwari Bar., Kabupaten Manokwari",PAPUA BARAT,98312.0,Indonesia,8114918899.0,-0.85693,134.0678051,https://maps.google.com/?cid=0x0:0x7e7b90df1d787501
mall,Komplek perumahan,Fanindi Pantai,"43R9+J9P Bar, Padarni, Kec. Manokwari Bar., Kabupaten Manokwari, Papua Bar. 98312","Padarni, Kec. Manokwari Bar., Kabupaten Manokwari",PAPUA BARAT,98312.0,Indonesia,81344477231.0,-0.8584193,134.0684588,https://maps.google.com/?cid=0x0:0xfea55ca67440bcde
mall,mall,Distrik Manokwari,"Kabupaten Manokwari, Papua Bar.","Kabupaten Manokwari, Papua Bar.",PAPUA BARAT,,Indonesia,,-0.8912103,134.046322,https://maps.google.com/?cid=0x0:0x25e95a286c9053b8
mall,Toko Perlengkapan Rumah,Mitra ilhamiqbal,"223G+PM9, Jl. Manokwari - Bintuni, Doput, Distrik Manokwari, Kabupaten Manokwari, Papua Bar. 98315","Jl. Manokwari - Bintuni, Doput, Distrik Manokwari, Kabupaten Manokwari",PAPUA BARAT,98315.0,Indonesia,81344054885.0,-0.995708,134.02673,https://maps.google.com/?cid=0x0:0x281ad3d2f3150760
mall,Pusat Perbelanjaan,Manokwari City Mall (MCM),"Jl. Yos Sudarso Manokwari, Manokwari Bar., Kec. Manokwari Bar., Kabupaten Manokwari, Papua Bar. 98312","Manokwari Bar., Kec. Manokwari Bar., Kabupaten Manokwari",PAPUA BARAT,98312.0,Indonesia,8114918899.0,-0.85693,134.0678051,https://maps.google.com/?cid=0x0:0x7e7b90df1d787501
mall,Toko Perlengkapan Rumah,Senyum 5000 Manokwari,"43P2+Q8X, Jl. Trikora Wosi, Wosi, Kec. Manokwari Bar., Kabupaten Manokwari, Papua Bar. 98312","Jl. Trikora Wosi, Wosi, Kec. Manokwari Bar., Kabupaten Manokwari",PAPUA BARAT,98312.0,Indonesia,81247922326.0,-0.8630164,134.0508546,https://maps.google.com/?cid=0x0:0xeeabc2d59f005514
mall,Toko bahan makanan,Kalawai Mart,"42GW+JX7, Jl. Drs Esau Sesa, Wosi, Kec. Manokwari Bar., Kabupaten Manokwari, Papua Bar. 98312","Jl. Drs Esau Sesa, Wosi, Kec. Manokwari Bar., Kabupaten Manokwari",PAPUA BARAT,98312.0,Indonesia,82239404628.0,-0.8734685,134.0474365,https://maps.google.com/?cid=0x0:0xa03f46416c062468
mall,Toko Tas,Andinys,"427W+4WG, Sowi, Distrik Manokwari, Kabupaten Manokwari, Papua Bar. 98315","Sowi, Distrik Manokwari, Kabupaten Manokwari",PAPUA BARAT,98315.0,Indonesia,81391945636.0,-0.8871845,134.0473414,https://maps.google.com/?cid=0x0:0xf72cfd82c249bcf6
mall,Toko,Aryshop.mkw,"428H+GQJ, Unnamed Road, Sowi, Distrik Manokwari, Kabupaten Manokwari, Papua Bar. 98315","Unnamed Road, Sowi, Distrik Manokwari, Kabupaten Manokwari",PAPUA BARAT,98315.0,Indonesia,82198471223.0,-0.8836695,134.0293952,https://maps.google.com/?cid=0x0:0xaf2005c47d861a40
mall,Toko,Fitri Syamsul,"3262+MPJ, Jl. Manokwari - Maruni, Anday, Distrik Manokwari, Kabupaten Manokwari, Papua Bar. 98315","Jl. Manokwari - Maruni, Anday, Distrik Manokwari, Kabupaten Manokwari",PAPUA BARAT,98315.0,Indonesia,82248203152.0,-0.9382989,134.0017807,https://maps.google.com/?cid=0x0:0xef0f65a0e5132fb8
mall,Toko,Toko Tangguh,"42JX+8W9, Wosi, Kec. Manokwari Bar., Kabupaten Manokwari, Papua Bar. 98312","Wosi, Kec. Manokwari Bar., Kabupaten Manokwari",PAPUA BARAT,98312.0,Indonesia,,-0.869218,134.0498678,https://maps.google.com/?cid=0x0:0xb7a8a87411d5d22
mall,Toko bahan makanan,Toko Axel,"Jl. Drs Esau Sesa, Wosi, Kec. Manokwari Bar., Kabupaten Manokwari, Papua Bar. 98312","Wosi, Kec. Manokwari Bar., Kabupaten Manokwari",PAPUA BARAT,98312.0,Indonesia,81330452323.0,-0.8747999,134.0478065,https://maps.google.com/?cid=0x0:0x97bf68176f1bfae
mall,Pusat Perbelanjaan,Belakang Manokwari city mall,"43W7+F3H, Manokwari Bar., Kec. Manokwari Bar., Kabupaten Manokwari, Papua Bar. 98312","Manokwari Bar., Kec. Manokwari Bar., Kabupaten Manokwari",PAPUA BARAT,98312.0,Indonesia,,-0.8538079,134.0627452,https://maps.google.com/?cid=0x0:0x59f633fd28048da4
mall,Pusat Perbelanjaan,Pusat produk Nasa,"426W+R6W, Jl. Drs Esau Sesa, Wosi, Kec. Manokwari Bar., Kabupaten Manokwari, Papua Bar. 98315","Jl. Drs Esau Sesa, Wosi, Kec. Manokwari Bar., Kabupaten Manokwari",PAPUA BARAT,98315.0,Indonesia,85292444274.0,-0.8878896,134.0455711,https://maps.google.com/?cid=0x0:0x688c4d2951c510bc
mall,Kios,Kios T,"Dindey, Kec. Warmare, Kabupaten Manokwari, Papua Bar. 98352","Kec. Warmare, Kabupaten Manokwari",PAPUA BARAT,98352.0,Indonesia,,-0.97383,133.9467202,https://maps.google.com/?cid=0x0:0xe140806c3ab2f308
mall,Minimarket,YUBI MART,"Wosi, Kec. Manokwari Bar., Kabupaten Manokwari, Papua Bar. 98312","Kec. Manokwari Bar., Kabupaten Manokwari",PAPUA BARAT,98312.0,Indonesia,,-0.8633329,134.0494077,https://maps.google.com/?cid=0x0:0x7f386d9e9c6b4e20
mall,mall,Papua Bar. 98311,"Kec. Manokwari Tim., Kabupaten Manokwari, Papua Bar.","Kabupaten Manokwari, Papua Bar.",PAPUA BARAT,,Indonesia,,-0.853122,134.1102895,https://maps.google.com/?cid=0x0:0x327a91d22239a4d5
mall,Pusat Perbelanjaan,Manokwari City Mall (MCM),"Jl. Yos Sudarso Manokwari, Manokwari Bar., Kec. Manokwari Bar., Kabupaten Manokwari, Papua Bar. 98312","Manokwari Bar., Kec. Manokwari Bar., Kabupaten Manokwari",PAPUA BARAT,98312.0,Indonesia,8114918899.0,-0.85693,134.0678051,https://maps.google.com/?cid=0x0:0x7e7b90df1d787501
mall,Pusat Perbelanjaan,XXI Manokwari City Mall,"43V9+336, Manokwari Bar., Kec. Manokwari Bar., Kabupaten Manokwari, Papua Bar. 98312","Manokwari Bar., Kec. Manokwari Bar., Kabupaten Manokwari",PAPUA BARAT,98312.0,Indonesia,,-0.8573313,134.0676452,https://maps.google.com/?cid=0x0:0xe937482c99d96980
mall,Pasar,Pasar Borobudur,"Jl. Jend. Sudirman No.17, Padarni, Kec. Manokwari Bar., Kabupaten Manokwari, Papua Bar. 98312","Padarni, Kec. Manokwari Bar., Kabupaten Manokwari",PAPUA BARAT,98312.0,Indonesia,,-0.8585799,134.0715162,https://maps.google.com/?cid=0x0:0x9e6356f508961607
mall,Kantor Perusahaan,PT INDOPRIMA MANOKWARI,"Jl. Merdeka No.43, Manokwari Tim., Kec. Manokwari Bar., Kabupaten Manokwari, Papua Bar. 98312","Manokwari Tim., Kec. Manokwari Bar., Kabupaten Manokwari",PAPUA BARAT,98312.0,Indonesia,82197465442.0,-0.8645878,134.0755419,https://maps.google.com/?cid=0x0:0x8d2dd60cde2c56dd
mall,Minimarket,Hadi Supermarket Manokwari,"43V9+632, Jl. Yos Sudarso Manokwari, Manokwari Bar., Barat, Kabupaten Manokwari, Papua Bar. 98312","Jl. Yos Sudarso Manokwari, Manokwari Bar., Barat, Kabupaten Manokwari",PAPUA BARAT,98312.0,Indonesia,81344231138.0,-0.8569848,134.0676451,https://maps.google.com/?cid=0x0:0x9eff32c2ea26d6a2
mall,Pusat Perbelanjaan,Solaria - Manokwari City Mall,"Jl. Yos Sudarso No.8, Manokwari Bar., Kec. Manokwari Bar., Kabupaten Manokwari, Papua Bar. 98312","Manokwari Bar., Kec. Manokwari Bar., Kabupaten Manokwari",PAPUA BARAT,98312.0,Indonesia,,-0.8568296,134.0677534,https://maps.google.com/?cid=0x0:0x2f8eaeac754b6e6b
mall,Toko Elektronik,Erafone Manokwari City Mall,"City Mall, Jl. Yos Sudarso Manokwari No.FF-06 LT. 1, Manokwari Bar., Kec. Manokwari Bar., Kabupaten Manokwari, Papua Bar. 98312","Jl. Yos Sudarso Manokwari No.FF-06 LT. 1, Manokwari Bar., Kec. Manokwari Bar., Kabupaten Manokwari",PAPUA BARAT,98312.0,Indonesia,,-0.8572223,134.0678973,https://maps.google.com/?cid=0x0:0x15034185202b422c
mall,Jepang,Ichiban Sushi Manokwari City Mall,"Jl. Yos Sudarso, Manokwari Bar., Kec. Manokwari Bar., Kabupaten Manokwari, Papua Bar. 98312","Manokwari Bar., Kec. Manokwari Bar., Kabupaten Manokwari",PAPUA BARAT,98312.0,Indonesia,,-0.85696,134.0676162,https://maps.google.com/?cid=0x0:0x345744965a30969a
mall,Pusat Perbelanjaan,UP. PRIMA GRAFIKA,"Jl. Merdeka No.9, Padarni, Kec. Manokwari Bar., Kabupaten Manokwari, Papua Bar. 98312","Padarni, Kec. Manokwari Bar., Kabupaten Manokwari",PAPUA BARAT,98312.0,Indonesia,,-0.8660887,134.0754868,https://maps.google.com/?cid=0x0:0xde6430d6dd32570d
mall,Toko Elektronik,digibox - Manokwari City Mall,"City Mall, Jl. Yos Sudarso No.8, Sanggeng, Kec. Manokwari Bar., Kabupaten Manokwari, Papua Bar. 98312","Jl. Yos Sudarso No.8, Sanggeng, Kec. Manokwari Bar., Kabupaten Manokwari",PAPUA BARAT,98312.0,Indonesia,82197777456.0,-0.8650032,134.0655736,https://maps.google.com/?cid=0x0:0x4f823da7673ada2e
mall,Toko Perhiasan,Naughty Hadi Mall,"Jl. Yos Sudarso No.8, Manokwari Bar., Kec. Manokwari Bar., Kabupaten Manokwari, Papua Bar. 98312","Manokwari Bar., Kec. Manokwari Bar., Kabupaten Manokwari",PAPUA BARAT,98312.0,Indonesia,,-0.8571975,134.0675484,https://maps.google.com/?cid=0x0:0x4fdc9271213b8a6b
mall,Toko Optik,Optik Melawai - Manokwari City Mall,"Jl. Yos Sudarso Manokwari No.8, Manokwari Bar., Kec. Manokwari Bar., Kabupaten Manokwari, Papua Bar. 98312","Manokwari Bar., Kec. Manokwari Bar., Kabupaten Manokwari",PAPUA BARAT,98312.0,Indonesia,81574206945.0,-0.8569401,134.0673937,https://maps.google.com/?cid=0x0:0x1673f3eebaa3c75b
mall,Toko Sepatu,Toko Sepatu Bata Manokwari City Mall,"City Mall, Jl. Yos Sudarso Manokwari Lantai GF, Manokwari Barat, Manokwari Regency, West Papua 98312","Jl. Yos Sudarso Manokwari Lantai GF, Manokwari Barat, Manokwari Regency",PAPUA BARAT,98312.0,Indonesia,81344990813.0,-0.856941,134.0673946,https://maps.google.com/?cid=0x0:0x93ade862fbf9f98f
mall,Pusat Perbelanjaan,Belakang Manokwari city mall,"43W7+F3H, Manokwari Bar., Kec. Manokwari Bar., Kabupaten Manokwari, Papua Bar. 98312","Manokwari Bar., Kec. Manokwari Bar., Kabupaten Manokwari",PAPUA BARAT,98312.0,Indonesia,,-0.8538079,134.0627452,https://maps.google.com/?cid=0x0:0x59f633fd28048da4
mall,Pusat Perbelanjaan,Manokwari City Mall (MCM),"Jl. Yos Sudarso Manokwari, Manokwari Bar., Kec. Manokwari Bar., Kabupaten Manokwari, Papua Bar. 98312","Manokwari Bar., Kec. Manokwari Bar., Kabupaten Manokwari",PAPUA BARAT,98312.0,Indonesia,8114918899.0,-0.85693,134.0678051,https://maps.google.com/?cid=0x0:0x7e7b90df1d787501
mall,Komplek perumahan,Fanindi Pantai,"43R9+J9P Bar, Padarni, Kec. Manokwari Bar., Kabupaten Manokwari, Papua Bar. 98312","Padarni, Kec. Manokwari Bar., Kabupaten Manokwari",PAPUA BARAT,98312.0,Indonesia,81344477231.0,-0.8584193,134.0684588,https://maps.google.com/?cid=0x0:0xfea55ca67440bcde
mall,Pusat Perbelanjaan,Manokwari City Mall (MCM),"Jl. Yos Sudarso Manokwari, Manokwari Bar., Kec. Manokwari Bar., Kabupaten Manokwari, Papua Bar. 98312","Manokwari Bar., Kec. Manokwari Bar., Kabupaten Manokwari",PAPUA BARAT,98312.0,Indonesia,8114918899.0,-0.85693,134.0678051,https://maps.google.com/?cid=0x0:0x7e7b90df1d787501
mall,mall,Kec. Manokwari Utara,"Kabupaten Manokwari, Papua Bar.","Kabupaten Manokwari, Papua Bar.",PAPUA BARAT,,Indonesia,,-0.7545947,133.9845162,https://maps.google.com/?cid=0x0:0x4e2d072dfe215e65
mall,Toko Perlengkapan Rumah,Senyum 5000 Manokwari,"43P2+Q8X, Jl. Trikora Wosi, Wosi, Kec. Manokwari Bar., Kabupaten Manokwari, Papua Bar. 98312","Jl. Trikora Wosi, Wosi, Kec. Manokwari Bar., Kabupaten Manokwari",PAPUA BARAT,98312.0,Indonesia,81247922326.0,-0.8630164,134.0508546,https://maps.google.com/?cid=0x0:0xeeabc2d59f005514
mall,Pusat Perbelanjaan,Belakang Manokwari city mall,"43W7+F3H, Manokwari Bar., Kec. Manokwari Bar., Kabupaten Manokwari, Papua Bar. 98312","Manokwari Bar., Kec. Manokwari Bar., Kabupaten Manokwari",PAPUA BARAT,98312.0,Indonesia,,-0.8538079,134.0627452,https://maps.google.com/?cid=0x0:0x59f633fd28048da4
mall,Toko bahan makanan,Kalawai Mart,"42GW+JX7, Jl. Drs Esau Sesa, Wosi, Kec. Manokwari Bar., Kabupaten Manokwari, Papua Bar. 98312","Jl. Drs Esau Sesa, Wosi, Kec. Manokwari Bar., Kabupaten Manokwari",PAPUA BARAT,98312.0,Indonesia,82239404628.0,-0.8734685,134.0474365,https://maps.google.com/?cid=0x0:0xa03f46416c062468
mall,Toko,Kios Tuan apo,"7XC9+5H5, Saubeba, Kec. Manokwari Utara, Kabupaten Manokwari, Papua Bar. 98315","Saubeba, Kec. Manokwari Utara, Kabupaten Manokwari",PAPUA BARAT,98315.0,Indonesia,,-0.731281,133.9687235,https://maps.google.com/?cid=0x0:0xb44aea4b5f97aaf8
mall,Pusat Perbelanjaan,XXI Manokwari City Mall,"43V9+336, Manokwari Bar., Kec. Manokwari Bar., Kabupaten Manokwari, Papua Bar. 98312","Manokwari Bar., Kec. Manokwari Bar., Kabupaten Manokwari",PAPUA BARAT,98312.0,Indonesia,,-0.8573313,134.0676452,https://maps.google.com/?cid=0x0:0xe937482c99d96980
mall,Toko,Aryshop.mkw,"428H+GQJ, Unnamed Road, Sowi, Distrik Manokwari, Kabupaten Manokwari, Papua Bar. 98315","Unnamed Road, Sowi, Distrik Manokwari, Kabupaten Manokwari",PAPUA BARAT,98315.0,Indonesia,82198471223.0,-0.8836695,134.0293952,https://maps.google.com/?cid=0x0:0xaf2005c47d861a40
mall,Perhimpunan Pengembang Perumahan,Komplek Jawa Wosi Manokwari,"43M3+35H, Jl. Komplek Jawa, Wosi, Kec. Manokwari Bar., Kabupaten Manokwari, Papua Bar. 98312","Jl. Komplek Jawa, Wosi, Kec. Manokwari Bar., Kabupaten Manokwari",PAPUA BARAT,98312.0,Indonesia,,-0.8673201,134.0529957,https://maps.google.com/?cid=0x0:0xd8ae7c8a3bacba72
mall,Toko bahan makanan,Toko Axel,"Jl. Drs Esau Sesa, Wosi, Kec. Manokwari Bar., Kabupaten Manokwari, Papua Bar. 98312","Wosi, Kec. Manokwari Bar., Kabupaten Manokwari",PAPUA BARAT,98312.0,Indonesia,81330452323.0,-0.8747999,134.0478065,https://maps.google.com/?cid=0x0:0x97bf68176f1bfae
mall,Minimarket,YUBI MART,"Wosi, Kec. Manokwari Bar., Kabupaten Manokwari, Papua Bar. 98312","Kec. Manokwari Bar., Kabupaten Manokwari",PAPUA BARAT,98312.0,Indonesia,,-0.8633329,134.0494077,https://maps.google.com/?cid=0x0:0x7f386d9e9c6b4e20
mall,Pusat Perbelanjaan,Pusat produk Nasa,"426W+R6W, Jl. Drs Esau Sesa, Wosi, Kec. Manokwari Bar., Kabupaten Manokwari, Papua Bar. 98315","Jl. Drs Esau Sesa, Wosi, Kec. Manokwari Bar., Kabupaten Manokwari",PAPUA BARAT,98315.0,Indonesia,85292444274.0,-0.8878896,134.0455711,https://maps.google.com/?cid=0x0:0x688c4d2951c510bc
mall,Minimarket,Hadi Supermarket Manokwari,"43V9+632, Jl. Yos Sudarso Manokwari, Manokwari Bar., Barat, Kabupaten Manokwari, Papua Bar. 98312","Jl. Yos Sudarso Manokwari, Manokwari Bar., Barat, Kabupaten Manokwari",PAPUA BARAT,98312.0,Indonesia,81344231138.0,-0.8569848,134.0676451,https://maps.google.com/?cid=0x0:0x9eff32c2ea26d6a2
mall,Toko,Toko Tangguh,"42JX+8W9, Wosi, Kec. Manokwari Bar., Kabupaten Manokwari, Papua Bar. 98312","Wosi, Kec. Manokwari Bar., Kabupaten Manokwari",PAPUA BARAT,98312.0,Indonesia,,-0.869218,134.0498678,https://maps.google.com/?cid=0x0:0xb7a8a87411d5d22
mall,mall,Distrik Masni,"Kabupaten Manokwari, Papua Bar.","Kabupaten Manokwari, Papua Bar.",PAPUA BARAT,,Indonesia,,-0.7868548,133.728488,https://maps.google.com/?cid=0x0:0x887c8da652d5665d
mall,Pusat Perbelanjaan,Manokwari City Mall (MCM),"Jl. Yos Sudarso Manokwari, Manokwari Bar., Kec. Manokwari Bar., Kabupaten Manokwari, Papua Bar. 98312","Manokwari Bar., Kec. Manokwari Bar., Kabupaten Manokwari",PAPUA BARAT,98312.0,Indonesia,8114918899.0,-0.85693,134.0678051,https://maps.google.com/?cid=0x0:0x7e7b90df1d787501
mall,Pusat Perbelanjaan,Fita,"6Q7V+X3G, Unnamed Road, Kali Merah, Distrik Masni, Kabupaten Manokwari, Papua Bar. 98357","Unnamed Road, Kali Merah, Distrik Masni, Kabupaten Manokwari",PAPUA BARAT,98357.0,Indonesia,,-0.7850552,133.7926999,https://maps.google.com/?cid=0x0:0xe6bb3d6961a3981c
mall,Toko,Toko Mokwan jaya,"4QW6+2F7, Makwan, Distrik Masni, Kabupaten Manokwari, Papua Bar. 98357","Makwan, Distrik Masni, Kabupaten Manokwari",PAPUA BARAT,98357.0,Indonesia,8113666534.0,-0.8549578,133.7611788,https://maps.google.com/?cid=0x0:0x5ca38039875f30cb
mall,Toko bahan makanan,Kios duduk,"5Q2J+F3G, Macuan, Distrik Masni, Kabupaten Manokwari, Papua Bar.","Kabupaten Manokwari, Papua Bar.",PAPUA BARAT,,Indonesia,,-0.8488012,133.7802113,https://maps.google.com/?cid=0x0:0xa1d39dc9e8f38c30
mall,Toko bahan makanan,Kios Mama Nina,"6J9X+P8X, Kampung kamantiar, Aurmios, warikon, Kabupaten Manokwari, Papua Bar. 98357","Kampung kamantiar, Aurmios, warikon, Kabupaten Manokwari",PAPUA BARAT,98357.0,Indonesia,,-0.7806323,133.6483463,https://maps.google.com/?cid=0x0:0x1c82adb8965aebe4
mall,Pusat Perbelanjaan,Toserba PRAFI INDAH,"4RCM+M94, Udapi Hilir, Distrik Prafi, Kabupaten Manokwari, Papua Bar. 98356","Udapi Hilir, Distrik Prafi, Kabupaten Manokwari",PAPUA BARAT,98356.0,Indonesia,81248929649.0,-0.8783629,133.8334382,https://maps.google.com/?cid=0x0:0xb249f2095645ca6
mall,Toko,KIOS POJOK AURMIOS,"6J2X+HF, Aurmios, Distrik Masni, Kabupaten Manokwari, Papua Bar. 98357","Aurmios, Distrik Masni, Kabupaten Manokwari",PAPUA BARAT,98357.0,Indonesia,,-0.7986116,133.6486903,https://maps.google.com/?cid=0x0:0x1bdd8b4a673ccc7f
mall,Pusat Perbelanjaan,Papa Dika,"4RF6+MVC, Waseki Indah, Distrik Prafi, Kabupaten Manokwari, Papua Bar. 98356","Waseki Indah, Distrik Prafi, Kabupaten Manokwari",PAPUA BARAT,98356.0,Indonesia,85258009788.0,-0.8758135,133.8121396,https://maps.google.com/?cid=0x0:0xa4eaf29aa9267a2
mall,Minimarket,HADI MART,"4R69+JQ7, Udapi Hilir, Distrik Prafi, Kabupaten Manokwari, Papua Bar.","Kabupaten Manokwari, Papua Bar.",PAPUA BARAT,,Indonesia,,-0.8881049,133.8190029,https://maps.google.com/?cid=0x0:0x6098dac7ad9de118
mall,Toko Kue,Cita Cake  Cookies,"4RFJ+36X, Unnamed Road, Udapi Hilir, Distrik Prafi, Kabupaten Manokwari, Papua Bar. 98356","Unnamed Road, Udapi Hilir, Distrik Prafi, Kabupaten Manokwari",PAPUA BARAT,98356.0,Indonesia,82197590975.0,-0.8772529,133.8306072,https://maps.google.com/?cid=0x0:0x6857b8318baa9232
mall,Toko,Lapak ''Mbak Mi'',"4RF6+4X3, Waseki Indah, Distrik Prafi, Kabupaten Manokwari, Papua Bar. 98356","Waseki Indah, Distrik Prafi, Kabupaten Manokwari",PAPUA BARAT,98356.0,Indonesia,,-0.8772362,133.8124245,https://maps.google.com/?cid=0x0:0xe6a67d1ebd34d292
mall,Kios,Kios Bobon,"4R9F+5RQ, Udapi Hilir, Distrik Prafi, Kabupaten Manokwari, Papua Bar. 98356","Udapi Hilir, Distrik Prafi, Kabupaten Manokwari",PAPUA BARAT,98356.0,Indonesia,,-0.8820475,133.8246024,https://maps.google.com/?cid=0x0:0xfd7fbb9b1dc93973
mall,Toko Swalayan,Ari Cakra / Ruko Tumper,"4R8C+79W, Bar, Udapi Hilir, Distrik Prafi, Kabupaten Manokwari, Papua Bar. 98356","Bar, Udapi Hilir, Distrik Prafi, Kabupaten Manokwari",PAPUA BARAT,98356.0,Indonesia,81248273515.0,-0.8842605,133.8209488,https://maps.google.com/?cid=0x0:0x70f17f6d133c6822
mall,Pusat Perbelanjaan,Toserba PRAFI INDAH,"4RCM+M94, Udapi Hilir, Distrik Prafi, Kabupaten Manokwari, Papua Bar. 98356","Udapi Hilir, Distrik Prafi, Kabupaten Manokwari",PAPUA BARAT,98356.0,Indonesia,81248929649.0,-0.8783629,133.8334382,https://maps.google.com/?cid=0x0:0xb249f2095645ca6
mall,mall,Distrik Prafi,"Kabupaten Manokwari, Papua Bar.","Kabupaten Manokwari, Papua Bar.",PAPUA BARAT,,Indonesia,,-0.8781986,133.8274668,https://maps.google.com/?cid=0x0:0xb111fb1aee64e776
mall,Minimarket,HADI MART,"4R69+JQ7, Udapi Hilir, Distrik Prafi, Kabupaten Manokwari, Papua Bar.","Kabupaten Manokwari, Papua Bar.",PAPUA BARAT,,Indonesia,,-0.8881049,133.8190029,https://maps.google.com/?cid=0x0:0x6098dac7ad9de118
mall,Toko Swalayan,Ari Cakra / Ruko Tumper,"4R8C+79W, Bar, Udapi Hilir, Distrik Prafi, Kabupaten Manokwari, Papua Bar. 98356","Bar, Udapi Hilir, Distrik Prafi, Kabupaten Manokwari",PAPUA BARAT,98356.0,Indonesia,81248273515.0,-0.8842605,133.8209488,https://maps.google.com/?cid=0x0:0x70f17f6d133c6822
mall,Pusat Perbelanjaan,Papa Dika,"4RF6+MVC, Waseki Indah, Distrik Prafi, Kabupaten Manokwari, Papua Bar. 98356","Waseki Indah, Distrik Prafi, Kabupaten Manokwari",PAPUA BARAT,98356.0,Indonesia,85258009788.0,-0.8758135,133.8121396,https://maps.google.com/?cid=0x0:0xa4eaf29aa9267a2
mall,Toko Kue,Cita Cake  Cookies,"4RFJ+36X, Unnamed Road, Udapi Hilir, Distrik Prafi, Kabupaten Manokwari, Papua Bar. 98356","Unnamed Road, Udapi Hilir, Distrik Prafi, Kabupaten Manokwari",PAPUA BARAT,98356.0,Indonesia,82197590975.0,-0.8772529,133.8306072,https://maps.google.com/?cid=0x0:0x6857b8318baa9232
mall,Toko Hobi,"Toko Ikan Hias , Prafi Aquarium","Jl. Cempaka, Udapi Hilir, Distrik Prafi, Kabupaten Manokwari, Papua Bar. 98356","Udapi Hilir, Distrik Prafi, Kabupaten Manokwari",PAPUA BARAT,98356.0,Indonesia,81343318323.0,-0.8759125,133.8369227,https://maps.google.com/?cid=0x0:0x4dd8b362299472f
mall,Kios,Kios Bobon,"4R9F+5RQ, Udapi Hilir, Distrik Prafi, Kabupaten Manokwari, Papua Bar. 98356","Udapi Hilir, Distrik Prafi, Kabupaten Manokwari",PAPUA BARAT,98356.0,Indonesia,,-0.8820475,133.8246024,https://maps.google.com/?cid=0x0:0xfd7fbb9b1dc93973
mall,Pasar,BAROKAH 2,"3VPJ+JXR, Desay, Distrik Prafi, Kabupaten Manokwari, Papua Bar. 98356","Desay, Distrik Prafi, Kabupaten Manokwari",PAPUA BARAT,98356.0,Indonesia,85254092288.0,-0.9133997,133.8823875,https://maps.google.com/?cid=0x0:0x20dbaa9222b8b821
mall,Toko,CV.JADI JAYA PERKASA,"4RCH+R69, Udapi Hilir, Distrik Prafi, Kabupaten Manokwari, Papua Bar. 98356","Udapi Hilir, Distrik Prafi, Kabupaten Manokwari",PAPUA BARAT,98356.0,Indonesia,82198469906.0,-0.8779611,133.8281023,https://maps.google.com/?cid=0x0:0x1895d17700023f60
mall,Toko,Lapak ''Mbak Mi'',"4RF6+4X3, Waseki Indah, Distrik Prafi, Kabupaten Manokwari, Papua Bar. 98356","Waseki Indah, Distrik Prafi, Kabupaten Manokwari",PAPUA BARAT,98356.0,Indonesia,,-0.8772362,133.8124245,https://maps.google.com/?cid=0x0:0xe6a67d1ebd34d292
mall,Toko,Toko Mokwan jaya,"4QW6+2F7, Makwan, Distrik Masni, Kabupaten Manokwari, Papua Bar. 98357","Makwan, Distrik Masni, Kabupaten Manokwari",PAPUA BARAT,98357.0,Indonesia,8113666534.0,-0.8549578,133.7611788,https://maps.google.com/?cid=0x0:0x5ca38039875f30cb
mall,Pusat Perbelanjaan,Toko Aulian,"3WJ2+28X, Jalur 1, Prafi Mulia, Distrik Prafi, Kabupaten Manokwari, Papua Bar. 98352","Jalur 1, Prafi Mulia, Distrik Prafi, Kabupaten Manokwari",PAPUA BARAT,98352.0,Indonesia,,-0.9198829,133.900859,https://maps.google.com/?cid=0x0:0xc6bb938d92bf3422
mall,Toko,Toko Sahabat Anda,"4QVJ+QMV, Macuan, Distrik Masni, Kabupaten Manokwari, Papua Bar. 98356","Macuan, Distrik Masni, Kabupaten Manokwari",PAPUA BARAT,98356.0,Indonesia,85244596324.0,-0.855501,133.7816592,https://maps.google.com/?cid=0x0:0xd80119a794a57fd7
mall,mall,Papua Bar. 98356,"Kabupaten Manokwari, Papua Bar.","Kabupaten Manokwari, Papua Bar.",PAPUA BARAT,,Indonesia,,-0.944854,133.7717073,https://maps.google.com/?cid=0x0:0x8f6cbc943a6f12d8
mall,Pusat Perbelanjaan,Toserba PRAFI INDAH,"4RCM+M94, Udapi Hilir, Distrik Prafi, Kabupaten Manokwari, Papua Bar. 98356","Udapi Hilir, Distrik Prafi, Kabupaten Manokwari",PAPUA BARAT,98356.0,Indonesia,81248929649.0,-0.8783629,133.8334382,https://maps.google.com/?cid=0x0:0xb249f2095645ca6
mall,Minimarket,HADI MART,"4R69+JQ7, Udapi Hilir, Distrik Prafi, Kabupaten Manokwari, Papua Bar.","Kabupaten Manokwari, Papua Bar.",PAPUA BARAT,,Indonesia,,-0.8881049,133.8190029,https://maps.google.com/?cid=0x0:0x6098dac7ad9de118
mall,Toko Swalayan,Ari Cakra / Ruko Tumper,"4R8C+79W, Bar, Udapi Hilir, Distrik Prafi, Kabupaten Manokwari, Papua Bar. 98356","Bar, Udapi Hilir, Distrik Prafi, Kabupaten Manokwari",PAPUA BARAT,98356.0,Indonesia,81248273515.0,-0.8842605,133.8209488,https://maps.google.com/?cid=0x0:0x70f17f6d133c6822
mall,Pusat Perbelanjaan,Papa Dika,"4RF6+MVC, Waseki Indah, Distrik Prafi, Kabupaten Manokwari, Papua Bar. 98356","Waseki Indah, Distrik Prafi, Kabupaten Manokwari",PAPUA BARAT,98356.0,Indonesia,85258009788.0,-0.8758135,133.8121396,https://maps.google.com/?cid=0x0:0xa4eaf29aa9267a2
mall,Toko Kue,Cita Cake  Cookies,"4RFJ+36X, Unnamed Road, Udapi Hilir, Distrik Prafi, Kabupaten Manokwari, Papua Bar. 98356","Unnamed Road, Udapi Hilir, Distrik Prafi, Kabupaten Manokwari",PAPUA BARAT,98356.0,Indonesia,82197590975.0,-0.8772529,133.8306072,https://maps.google.com/?cid=0x0:0x6857b8318baa9232
mall,Pasar,BAROKAH 2,"3VPJ+JXR, Desay, Distrik Prafi, Kabupaten Manokwari, Papua Bar. 98356","Desay, Distrik Prafi, Kabupaten Manokwari",PAPUA BARAT,98356.0,Indonesia,85254092288.0,-0.9133997,133.8823875,https://maps.google.com/?cid=0x0:0x20dbaa9222b8b821
mall,Kios,Kios Bobon,"4R9F+5RQ, Udapi Hilir, Distrik Prafi, Kabupaten Manokwari, Papua Bar. 98356","Udapi Hilir, Distrik Prafi, Kabupaten Manokwari",PAPUA BARAT,98356.0,Indonesia,,-0.8820475,133.8246024,https://maps.google.com/?cid=0x0:0xfd7fbb9b1dc93973
mall,Toko Hobi,"Toko Ikan Hias , Prafi Aquarium","Jl. Cempaka, Udapi Hilir, Distrik Prafi, Kabupaten Manokwari, Papua Bar. 98356","Udapi Hilir, Distrik Prafi, Kabupaten Manokwari",PAPUA BARAT,98356.0,Indonesia,81343318323.0,-0.8759125,133.8369227,https://maps.google.com/?cid=0x0:0x4dd8b362299472f
mall,Toko,Lapak ''Mbak Mi'',"4RF6+4X3, Waseki Indah, Distrik Prafi, Kabupaten Manokwari, Papua Bar. 98356","Waseki Indah, Distrik Prafi, Kabupaten Manokwari",PAPUA BARAT,98356.0,Indonesia,,-0.8772362,133.8124245,https://maps.google.com/?cid=0x0:0xe6a67d1ebd34d292
mall,Toko,CV.JADI JAYA PERKASA,"4RCH+R69, Udapi Hilir, Distrik Prafi, Kabupaten Manokwari, Papua Bar. 98356","Udapi Hilir, Distrik Prafi, Kabupaten Manokwari",PAPUA BARAT,98356.0,Indonesia,82198469906.0,-0.8779611,133.8281023,https://maps.google.com/?cid=0x0:0x1895d17700023f60
mall,Toko,Toko Mokwan jaya,"4QW6+2F7, Makwan, Distrik Masni, Kabupaten Manokwari, Papua Bar. 98357","Makwan, Distrik Masni, Kabupaten Manokwari",PAPUA BARAT,98357.0,Indonesia,8113666534.0,-0.8549578,133.7611788,https://maps.google.com/?cid=0x0:0x5ca38039875f30cb
mall,Pusat Perbelanjaan,Toko Aulian,"3WJ2+28X, Jalur 1, Prafi Mulia, Distrik Prafi, Kabupaten Manokwari, Papua Bar. 98352","Jalur 1, Prafi Mulia, Distrik Prafi, Kabupaten Manokwari",PAPUA BARAT,98352.0,Indonesia,,-0.9198829,133.900859,https://maps.google.com/?cid=0x0:0xc6bb938d92bf3422
mall,Toko,Toko Sahabat Anda,"4QVJ+QMV, Macuan, Distrik Masni, Kabupaten Manokwari, Papua Bar. 98356","Macuan, Distrik Masni, Kabupaten Manokwari",PAPUA BARAT,98356.0,Indonesia,85244596324.0,-0.855501,133.7816592,https://maps.google.com/?cid=0x0:0xd80119a794a57fd7
mall,mall,Distrik Sidey,"Kabupaten Manokwari, Papua Bar.","Kabupaten Manokwari, Papua Bar.",PAPUA BARAT,,Indonesia,,-0.7605514,133.5946268,https://maps.google.com/?cid=0x0:0x8c34ad1374e4a89e
mall,Pusat Perbelanjaan,Manokwari City Mall (MCM),"Jl. Yos Sudarso Manokwari, Manokwari Bar., Kec. Manokwari Bar., Kabupaten Manokwari, Papua Bar. 98312","Manokwari Bar., Kec. Manokwari Bar., Kabupaten Manokwari",PAPUA BARAT,98312.0,Indonesia,8114918899.0,-0.85693,134.0678051,https://maps.google.com/?cid=0x0:0x7e7b90df1d787501
mall,Pusat Perbelanjaan,Ita,"5HW9+W7, Meyof I, Distrik Sidey, Kabupaten Manokwari, Papua Bar.","Kabupaten Manokwari, Papua Bar.",PAPUA BARAT,,Indonesia,,-0.8026335,133.5681788,https://maps.google.com/?cid=0x0:0x799cf323886155ab
mall,Pusat Perbelanjaan,Gandaria City,"Jl. Sultan Iskandar Muda, Gandaria, Kec. Kby. Lama, Kota Jakarta Selatan, Daerah Khusus Ibukota Jakarta 12240","Gandaria, Kec. Kby. Lama, Kota Jakarta Selatan",PAPUA BARAT,12240.0,Indonesia,2129052888.0,-6.2443009,106.7829375,https://maps.google.com/?cid=0x0:0x6173704d396d5a99
mall,Pusat Perbelanjaan,Mall Senayan City,"Jl. Asia Afrika No.Lot 19, Gelora, Kecamatan Tanah Abang, Kota Jakarta Pusat, Daerah Khusus Ibukota Jakarta 10270","Gelora, Kecamatan Tanah Abang, Kota Jakarta Pusat",PAPUA BARAT,10270.0,Indonesia,2172781000.0,-6.2271953,106.7970117,https://maps.google.com/?cid=0x0:0x300c043104acc004
mall,Toko Swalayan,AEON Mall Tanjung Barat,"Jl. Raya Tj. Barat No.163, RT.12/RW.4, Tj. Bar., Kec. Jagakarsa, Kota Jakarta Selatan, Daerah Khusus Ibukota Jakarta 12530","RT.12/RW.4, Tj. Bar., Kec. Jagakarsa, Kota Jakarta Selatan",PAPUA BARAT,12530.0,Indonesia,2150959888.0,-6.3067712,106.8398711,https://maps.google.com/?cid=0x0:0x5ce799145dbf8630
mall,Toko Pakaian Olahraga,Living World Alam Sutera,"Jl. Alam Sutera Boulevard No.Kav. 21, Pakulonan, Kec. Serpong Utara, Kota Tangerang Selatan, Banten 15325","Pakulonan, Kec. Serpong Utara, Kota Tangerang Selatan",PAPUA BARAT,15325.0,Indonesia,2153128580.0,-6.2443767,106.653103,https://maps.google.com/?cid=0x0:0x12783cb2371fb070
mall,Pusat Perbelanjaan,Lippo Mall Puri,"Jl. Puri Indah Raya Blok U 1, RT.3/RW.2, Kembangan Sel., Kec. Kembangan, Kota Jakarta Barat, Daerah Khusus Ibukota Jakarta 11610","RT.3/RW.2, Kembangan Sel., Kec. Kembangan, Kota Jakarta Barat",PAPUA BARAT,11610.0,Indonesia,2129111111.0,-6.1884554,106.7389094,https://maps.google.com/?cid=0x0:0x41cca4768f8bf65b
mall,Toko Swalayan,AEON Mall BSD City,"Jl. BSD Raya Utama, Pagedangan, Kec. Pagedangan, Kabupaten Tangerang, Banten 15339","Pagedangan, Kec. Pagedangan, Kabupaten Tangerang",PAPUA BARAT,15339.0,Indonesia,2129168585.0,-6.3052093,106.6432014,https://maps.google.com/?cid=0x0:0xf96b8f0f880ed863
mall,Pusat Perbelanjaan,Mall Of Indonesia,"Jl. Boulevard Bar. Raya No.12, RT.18/RW.19, Klp. Gading Bar., Kec. Klp. Gading, Jkt Utara, Daerah Khusus Ibukota Jakarta 14240","RT.18/RW.19, Klp. Gading Bar., Kec. Klp. Gading, Jkt Utara",PAPUA BARAT,14240.0,Indonesia,2145867888.0,-6.1514549,106.8918949,https://maps.google.com/?cid=0x0:0x3431c7aaadd1f1b6
mall,Pusat Perbelanjaan,Emporium Pluit Mall,"Jl. Pluit Selatan Raya No.1, Penjaringan, Kec. Penjaringan, Jkt Utara, Daerah Khusus Ibukota Jakarta 14440","Penjaringan, Kec. Penjaringan, Jkt Utara",PAPUA BARAT,14440.0,Indonesia,2166676288.0,-6.1272711,106.7909758,https://maps.google.com/?cid=0x0:0x54cb9f1766bde458
mall,Pusat Perbelanjaan,Pluit Village Mall,"Jl. Pluit Indah, RT.6/RW.4, Pluit, Kec. Penjaringan, Jkt Utara, Daerah Khusus Ibukota Jakarta 14450","RT.6/RW.4, Pluit, Kec. Penjaringan, Jkt Utara",PAPUA BARAT,14450.0,Indonesia,216683888.0,-6.1164462,106.7896199,https://maps.google.com/?cid=0x0:0xdacb917bfb866141
mall,Pusat Perbelanjaan,Summarecon Mall Bekasi,"Sentra Summarecon Bekasi, Jl. Boulevard Ahmad Yani, Marga Mulya, Kec. Bekasi Utara, Kota Bks, Jawa Barat 17142","Jl. Boulevard Ahmad Yani, Marga Mulya, Kec. Bekasi Utara, Kota Bks",PAPUA BARAT,17142.0,Indonesia,2129572888.0,-6.2261276,107.0010764,https://maps.google.com/?cid=0x0:0xd22a5d56809f070a
mall,Pusat Perbelanjaan,Summarecon Mall Kelapa Gading,"Jl. Boulevard Raya, Klp. Gading Tim., Kec. Klp. Gading, Jkt Utara, Daerah Khusus Ibukota Jakarta 14240","Klp. Gading Tim., Kec. Klp. Gading, Jkt Utara",PAPUA BARAT,14240.0,Indonesia,214531101.0,-6.1572666,106.9084263,https://maps.google.com/?cid=0x0:0x1c1a278e20ff1c47
mall,mall,Kec. Tanah Rubuh,"Kabupaten Manokwari, Papua Bar.","Kabupaten Manokwari, Papua Bar.",PAPUA BARAT,,Indonesia,,-1.1718674,134.1443544,https://maps.google.com/?cid=0x0:0x2304a7a7ad451175
mall,Toko bahan makanan,Kalawai Mart,"42GW+JX7, Jl. Drs Esau Sesa, Wosi, Kec. Manokwari Bar., Kabupaten Manokwari, Papua Bar. 98312","Jl. Drs Esau Sesa, Wosi, Kec. Manokwari Bar., Kabupaten Manokwari",PAPUA BARAT,98312.0,Indonesia,82239404628.0,-0.8734685,134.0474365,https://maps.google.com/?cid=0x0:0xa03f46416c062468
mall,Pusat Perbelanjaan,Manokwari City Mall (MCM),"Jl. Yos Sudarso Manokwari, Manokwari Bar., Kec. Manokwari Bar., Kabupaten Manokwari, Papua Bar. 98312","Manokwari Bar., Kec. Manokwari Bar., Kabupaten Manokwari",PAPUA BARAT,98312.0,Indonesia,8114918899.0,-0.85693,134.0678051,https://maps.google.com/?cid=0x0:0x7e7b90df1d787501
mall,Pusat Perbelanjaan,Manokwari City Mall (MCM),"Jl. Yos Sudarso Manokwari, Manokwari Bar., Kec. Manokwari Bar., Kabupaten Manokwari, Papua Bar. 98312","Manokwari Bar., Kec. Manokwari Bar., Kabupaten Manokwari",PAPUA BARAT,98312.0,Indonesia,8114918899.0,-0.85693,134.0678051,https://maps.google.com/?cid=0x0:0x7e7b90df1d787501
mall,mall,Kec. Tanah Rubuh,"Kabupaten Manokwari, Papua Bar.","Kabupaten Manokwari, Papua Bar.",PAPUA BARAT,,Indonesia,,-1.1718674,134.1443544,https://maps.google.com/?cid=0x0:0x2304a7a7ad451175
mall,Toko bahan makanan,Kalawai Mart,"42GW+JX7, Jl. Drs Esau Sesa, Wosi, Kec. Manokwari Bar., Kabupaten Manokwari, Papua Bar. 98312","Jl. Drs Esau Sesa, Wosi, Kec. Manokwari Bar., Kabupaten Manokwari",PAPUA BARAT,98312.0,Indonesia,82239404628.0,-0.8734685,134.0474365,https://maps.google.com/?cid=0x0:0xa03f46416c062468
mall,Komplek perumahan,Fanindi Pantai,"43R9+J9P Bar, Padarni, Kec. Manokwari Bar., Kabupaten Manokwari, Papua Bar. 98312","Padarni, Kec. Manokwari Bar., Kabupaten Manokwari",PAPUA BARAT,98312.0,Indonesia,81344477231.0,-0.8584193,134.0684588,https://maps.google.com/?cid=0x0:0xfea55ca67440bcde
mall,Jepang,Ichiban Sushi Manokwari City Mall,"Jl. Yos Sudarso, Manokwari Bar., Kec. Manokwari Bar., Kabupaten Manokwari, Papua Bar. 98312","Manokwari Bar., Kec. Manokwari Bar., Kabupaten Manokwari",PAPUA BARAT,98312.0,Indonesia,,-0.85696,134.0676162,https://maps.google.com/?cid=0x0:0x345744965a30969a
mall,mall,Papua Bar. 98352,"Kabupaten Manokwari, Papua Bar.","Kabupaten Manokwari, Papua Bar.",PAPUA BARAT,,Indonesia,,-1.0122519,133.9055155,https://maps.google.com/?cid=0x0:0x665ab61075e0d624
mall,Pusat Perbelanjaan,Pasar Warmare,"2XH3+92V, Umcen, Kec. Warmare, Kabupaten Manokwari, Papua Bar. 98352","Umcen, Kec. Warmare, Kabupaten Manokwari",PAPUA BARAT,98352.0,Indonesia,,-0.9715019,133.9525521,https://maps.google.com/?cid=0x0:0xb955e8fe56eaf987
mall,Pusat Perbelanjaan,Manokwari City Mall (MCM),"Jl. Yos Sudarso Manokwari, Manokwari Bar., Kec. Manokwari Bar., Kabupaten Manokwari, Papua Bar. 98312","Manokwari Bar., Kec. Manokwari Bar., Kabupaten Manokwari",PAPUA BARAT,98312.0,Indonesia,8114918899.0,-0.85693,134.0678051,https://maps.google.com/?cid=0x0:0x7e7b90df1d787501
mall,Pasar,BAROKAH 2,"3VPJ+JXR, Desay, Distrik Prafi, Kabupaten Manokwari, Papua Bar. 98356","Desay, Distrik Prafi, Kabupaten Manokwari",PAPUA BARAT,98356.0,Indonesia,85254092288.0,-0.9133997,133.8823875,https://maps.google.com/?cid=0x0:0x20dbaa9222b8b821
mall,Toko bahan makanan,Kalawai Mart,"42GW+JX7, Jl. Drs Esau Sesa, Wosi, Kec. Manokwari Bar., Kabupaten Manokwari, Papua Bar. 98312","Jl. Drs Esau Sesa, Wosi, Kec. Manokwari Bar., Kabupaten Manokwari",PAPUA BARAT,98312.0,Indonesia,82239404628.0,-0.8734685,134.0474365,https://maps.google.com/?cid=0x0:0xa03f46416c062468
mall,Pusat Perbelanjaan,Toko Aulian,"3WJ2+28X, Jalur 1, Prafi Mulia, Distrik Prafi, Kabupaten Manokwari, Papua Bar. 98352","Jalur 1, Prafi Mulia, Distrik Prafi, Kabupaten Manokwari",PAPUA BARAT,98352.0,Indonesia,,-0.9198829,133.900859,https://maps.google.com/?cid=0x0:0xc6bb938d92bf3422
supermarket,supermarket,Papua Bar. 98311,"Kec. Manokwari Tim., Kabupaten Manokwari, Papua Bar.","Kabupaten Manokwari, Papua Bar.",PAPUA BARAT,,Indonesia,,-0.853122,134.1102895,https://maps.google.com/?cid=0x0:0x327a91d22239a4d5
supermarket,Toko Swalayan,Orchid Swalayan,"43RF+C74, Jl. Merdeka, Padarni, Kec. Manokwari Bar., Kabupaten Manokwari, Papua Bar. 98312","Jl. Merdeka, Padarni, Kec. Manokwari Bar., Kabupaten Manokwari",PAPUA BARAT,98312.0,Indonesia,986211094.0,-0.8589972,134.0731963,https://maps.google.com/?cid=0x0:0xa0da1efaf3ec9af4
supermarket,Minimarket,Hadi Supermarket Manokwari,"43V9+632, Jl. Yos Sudarso Manokwari, Manokwari Bar., Barat, Kabupaten Manokwari, Papua Bar. 98312","Jl. Yos Sudarso Manokwari, Manokwari Bar., Barat, Kabupaten Manokwari",PAPUA BARAT,98312.0,Indonesia,81344231138.0,-0.8569848,134.0676451,https://maps.google.com/?cid=0x0:0x9eff32c2ea26d6a2
supermarket,Minimarket,Orange Mart,"Jl. Merdeka, Manokwari Tim., Kec. Manokwari Bar., Kabupaten Manokwari, Papua Bar. 98312","Manokwari Tim., Kec. Manokwari Bar., Kabupaten Manokwari",PAPUA BARAT,98312.0,Indonesia,85257101432.0,-0.8558744,134.0707445,https://maps.google.com/?cid=0x0:0xf4bd4c8bfefe8ba4
supermarket,Minimarket,TB mart,"Jl. Jend. Sudirman No.1, RW.3, Manokwari Tim., Kec. Manokwari Bar., Kabupaten Manokwari, Papua Bar. 98312","RW.3, Manokwari Tim., Kec. Manokwari Bar., Kabupaten Manokwari",PAPUA BARAT,98312.0,Indonesia,82239897057.0,-0.8650701,134.0744592,https://maps.google.com/?cid=0x0:0x404b6e2bc4355501
supermarket,Pusat Perbelanjaan,Manokwari City Mall (MCM),"Jl. Yos Sudarso Manokwari, Manokwari Bar., Kec. Manokwari Bar., Kabupaten Manokwari, Papua Bar. 98312","Manokwari Bar., Kec. Manokwari Bar., Kabupaten Manokwari",PAPUA BARAT,98312.0,Indonesia,8114918899.0,-0.85693,134.0678051,https://maps.google.com/?cid=0x0:0x7e7b90df1d787501
supermarket,Toko bahan makanan,ORCHID SWALAYAN WOSI,"Jl. Trikora Wosi, Wosi, Kec. Manokwari Bar., Kabupaten Manokwari, Papua Bar. 98312","Wosi, Kec. Manokwari Bar., Kabupaten Manokwari",PAPUA BARAT,98312.0,Indonesia,8114863377.0,-0.8625968,134.0521198,https://maps.google.com/?cid=0x0:0xefc90cd267cb5423
supermarket,Toko,Devan Mart,"Jl. Angkasa Mulyono, Amban, Kec. Manokwari Bar., Kabupaten Manokwari, Papua Bar. 98312","Amban, Kec. Manokwari Bar., Kabupaten Manokwari",PAPUA BARAT,98312.0,Indonesia,85288812221.0,-0.8474498,134.0500077,https://maps.google.com/?cid=0x0:0xbb0a46e42852dea1
supermarket,Toko bahan makanan,KIOS ETIKA,"Jl. Sabang No.24, Manokwari Tim., Kec. Manokwari Bar., Kabupaten Manokwari, Papua Bar. 98311","Manokwari Tim., Kec. Manokwari Bar., Kabupaten Manokwari",PAPUA BARAT,98311.0,Indonesia,85343321003.0,-0.8708609,134.0828906,https://maps.google.com/?cid=0x0:0xb475bcb53381be65
supermarket,Minimarket,Happy Mart,"42PW+6MJ, Jl. Trikora Wosi, Wosi, Kec. Manokwari Bar., Kabupaten Manokwari, Papua Bar. 98312","Jl. Trikora Wosi, Wosi, Kec. Manokwari Bar., Kabupaten Manokwari",PAPUA BARAT,98312.0,Indonesia,,-0.8644012,134.0466391,https://maps.google.com/?cid=0x0:0x3c3629e3c9f17f37
supermarket,Minimarket,Kios Sinar Muna,"Rodi, Jl. Gajtjqjgjejtu, Manokwari Tim., Kec. Manokwari Bar., Kabupaten Manokwari, Papua Bar. 98311","Jl. Gajtjqjgjejtu, Manokwari Tim., Kec. Manokwari Bar., Kabupaten Manokwari",PAPUA BARAT,98311.0,Indonesia,81344432708.0,-0.872745,134.0786564,https://maps.google.com/?cid=0x0:0xcb17f6ee286780f
supermarket,Toko bahan makanan,Toko Tengah,"Jl. Yos Sudarso No.56, Sanggeng, Kec. Manokwari Bar., Kabupaten Manokwari, Papua Bar. 98312","Sanggeng, Kec. Manokwari Bar., Kabupaten Manokwari",PAPUA BARAT,98312.0,Indonesia,82136667000.0,-0.866747,134.0649717,https://maps.google.com/?cid=0x0:0xdb399205492d2172
supermarket,Minimarket,Borarsicell/borarsimart,"Bar., Manokwari Tim., Kec. Manokwari Bar., Kabupaten Manokwari, Papua Bar. 98312","Manokwari Tim., Kec. Manokwari Bar., Kabupaten Manokwari",PAPUA BARAT,98312.0,Indonesia,,-0.8631809,134.0725393,https://maps.google.com/?cid=0x0:0xe73f34bc2f870159
supermarket,Toko Elektronik,EMOND STORE,"Jl. Jend. Sudirman, Padarni, Kec. Manokwari Bar., Kabupaten Manokwari, Papua Bar. 98312","Padarni, Kec. Manokwari Bar., Kabupaten Manokwari",PAPUA BARAT,98312.0,Indonesia,82251030202.0,-0.8562317,134.0700789,https://maps.google.com/?cid=0x0:0x53da01712775b017
supermarket,supermarket,Papua Bar. 98312,"Kabupaten Manokwari, Papua Bar.","Kabupaten Manokwari, Papua Bar.",PAPUA BARAT,,Indonesia,,-0.8581559,134.0008674,https://maps.google.com/?cid=0x0:0x55f33f0d52b5b6d0
supermarket,Toko bahan makanan,ORCHID SWALAYAN WOSI,"Jl. Trikora Wosi, Wosi, Kec. Manokwari Bar., Kabupaten Manokwari, Papua Bar. 98312","Wosi, Kec. Manokwari Bar., Kabupaten Manokwari",PAPUA BARAT,98312.0,Indonesia,8114863377.0,-0.8625968,134.0521198,https://maps.google.com/?cid=0x0:0xefc90cd267cb5423
supermarket,Toko Swalayan,Orchid Swalayan,"43RF+C74, Jl. Merdeka, Padarni, Kec. Manokwari Bar., Kabupaten Manokwari, Papua Bar. 98312","Jl. Merdeka, Padarni, Kec. Manokwari Bar., Kabupaten Manokwari",PAPUA BARAT,98312.0,Indonesia,986211094.0,-0.8589972,134.0731963,https://maps.google.com/?cid=0x0:0xa0da1efaf3ec9af4
supermarket,Toko bahan makanan,Intan jaya mart,"42QX+VFH, Wosi, Kec. Manokwari Bar., Kabupaten Manokwari, Papua Bar. 98312","Wosi, Kec. Manokwari Bar., Kabupaten Manokwari",PAPUA BARAT,98312.0,Indonesia,,-0.8603072,134.0487217,https://maps.google.com/?cid=0x0:0x341c38b2e9ecd592
supermarket,Toko,Devan Mart,"Jl. Angkasa Mulyono, Amban, Kec. Manokwari Bar., Kabupaten Manokwari, Papua Bar. 98312","Amban, Kec. Manokwari Bar., Kabupaten Manokwari",PAPUA BARAT,98312.0,Indonesia,85288812221.0,-0.8474498,134.0500077,https://maps.google.com/?cid=0x0:0xbb0a46e42852dea1
supermarket,Toko Swalayan,Marina Mart,"Amban, Kec. Manokwari Bar., Kabupaten Manokwari, Papua Bar. 98312","Kec. Manokwari Bar., Kabupaten Manokwari",PAPUA BARAT,98312.0,Indonesia,82239474878.0,-0.8411584,134.0577579,https://maps.google.com/?cid=0x0:0x92e469d7218993aa
supermarket,Toko Swalayan,Orchid Mart Taman Ria,"42GX+PG9, Jl. Trikora Rendani, Wosi, Kec. Manokwari Bar., Kabupaten Manokwari, Papua Bar. 98312","Jl. Trikora Rendani, Wosi, Kec. Manokwari Bar., Kabupaten Manokwari",PAPUA BARAT,98312.0,Indonesia,9862214900.0,-0.8732036,134.0488716,https://maps.google.com/?cid=0x0:0x8e7d672683eda775
supermarket,Toko,Toko BERINGIN,"42HX+7F9, Jl. Trikora Rendani, Wosi, Kec. Manokwari Bar., Kabupaten Manokwari, Papua Bar. 98312","Jl. Trikora Rendani, Wosi, Kec. Manokwari Bar., Kabupaten Manokwari",PAPUA BARAT,98312.0,Indonesia,,-0.8718349,134.04874,https://maps.google.com/?cid=0x0:0x224dd396e71e5c8d
supermarket,Minimarket,Hadi Supermarket Manokwari,"43V9+632, Jl. Yos Sudarso Manokwari, Manokwari Bar., Barat, Kabupaten Manokwari, Papua Bar. 98312","Jl. Yos Sudarso Manokwari, Manokwari Bar., Barat, Kabupaten Manokwari",PAPUA BARAT,98312.0,Indonesia,81344231138.0,-0.8569848,134.0676451,https://maps.google.com/?cid=0x0:0x9eff32c2ea26d6a2
supermarket,Minimarket,Win Mart,"Jl. Drs Esau Sesa, Wosi, Kec. Manokwari Bar., Kabupaten Manokwari, Papua Bar. 98312","Wosi, Kec. Manokwari Bar., Kabupaten Manokwari",PAPUA BARAT,98312.0,Indonesia,,-0.8713031,134.0464301,https://maps.google.com/?cid=0x0:0xf38b5c7878a43c12
supermarket,Toko Swalayan,Fresco Swalayan,"Jl. Merdeka No.51, Padarni, Kec. Manokwari Bar., Kabupaten Manokwari, Papua Bar. 98312","Padarni, Kec. Manokwari Bar., Kabupaten Manokwari",PAPUA BARAT,98312.0,Indonesia,9862213874.0,-0.8601332,134.0733651,https://maps.google.com/?cid=0x0:0x52ae815ced98b665
supermarket,Minimarket,Tirza Mart,"5352+FQ7, Jl.Kebun Cengkeh, Irmanjaya, Amban, Kec. Manokwari Bar., Kabupaten Manokwari, Papua Bar. 98312","Jl.Kebun Cengkeh, Irmanjaya, Amban, Kec. Manokwari Bar., Kabupaten Manokwari",PAPUA BARAT,98312.0,Indonesia,,-0.8413307,134.0519265,https://maps.google.com/?cid=0x0:0xa875129817221faf
supermarket,Toko bahan makanan,Kalawai Mart,"42GW+JX7, Jl. Drs Esau Sesa, Wosi, Kec. Manokwari Bar., Kabupaten Manokwari, Papua Bar. 98312","Jl. Drs Esau Sesa, Wosi, Kec. Manokwari Bar., Kabupaten Manokwari",PAPUA BARAT,98312.0,Indonesia,82239404628.0,-0.8734685,134.0474365,https://maps.google.com/?cid=0x0:0xa03f46416c062468
supermarket,Minimarket,YUBI MART,"Wosi, Kec. Manokwari Bar., Kabupaten Manokwari, Papua Bar. 98312","Kec. Manokwari Bar., Kabupaten Manokwari",PAPUA BARAT,98312.0,Indonesia,,-0.8633329,134.0494077,https://maps.google.com/?cid=0x0:0x7f386d9e9c6b4e20
supermarket,Toko Swalayan,Orchid Swalayan,"43RF+C74, Jl. Merdeka, Padarni, Kec. Manokwari Bar., Kabupaten Manokwari, Papua Bar. 98312","Jl. Merdeka, Padarni, Kec. Manokwari Bar., Kabupaten Manokwari",PAPUA BARAT,98312.0,Indonesia,986211094.0,-0.8589972,134.0731963,https://maps.google.com/?cid=0x0:0xa0da1efaf3ec9af4
supermarket,supermarket,Papua Bar. 98314,"Amban, Kec. Manokwari Bar., Kabupaten Manokwari, Papua Bar.","Kabupaten Manokwari, Papua Bar.",PAPUA BARAT,,Indonesia,,-0.8229506,134.0484728,https://maps.google.com/?cid=0x0:0xf25e0ecc06fa0aa1
supermarket,Toko Swalayan,Marina Mart,"Amban, Kec. Manokwari Bar., Kabupaten Manokwari, Papua Bar. 98312","Kec. Manokwari Bar., Kabupaten Manokwari",PAPUA BARAT,98312.0,Indonesia,82239474878.0,-0.8411584,134.0577579,https://maps.google.com/?cid=0x0:0x92e469d7218993aa
supermarket,Minimarket,Tirza Mart,"5352+FQ7, Jl.Kebun Cengkeh, Irmanjaya, Amban, Kec. Manokwari Bar., Kabupaten Manokwari, Papua Bar. 98312","Jl.Kebun Cengkeh, Irmanjaya, Amban, Kec. Manokwari Bar., Kabupaten Manokwari",PAPUA BARAT,98312.0,Indonesia,,-0.8413307,134.0519265,https://maps.google.com/?cid=0x0:0xa875129817221faf
supermarket,Minimarket,Hadi Supermarket Manokwari,"43V9+632, Jl. Yos Sudarso Manokwari, Manokwari Bar., Barat, Kabupaten Manokwari, Papua Bar. 98312","Jl. Yos Sudarso Manokwari, Manokwari Bar., Barat, Kabupaten Manokwari",PAPUA BARAT,98312.0,Indonesia,81344231138.0,-0.8569848,134.0676451,https://maps.google.com/?cid=0x0:0x9eff32c2ea26d6a2
supermarket,Minimarket,Orange Mart,"Jl. Merdeka, Manokwari Tim., Kec. Manokwari Bar., Kabupaten Manokwari, Papua Bar. 98312","Manokwari Tim., Kec. Manokwari Bar., Kabupaten Manokwari",PAPUA BARAT,98312.0,Indonesia,85257101432.0,-0.8558744,134.0707445,https://maps.google.com/?cid=0x0:0xf4bd4c8bfefe8ba4
supermarket,Toko bahan makanan,ORCHID SWALAYAN WOSI,"Jl. Trikora Wosi, Wosi, Kec. Manokwari Bar., Kabupaten Manokwari, Papua Bar. 98312","Wosi, Kec. Manokwari Bar., Kabupaten Manokwari",PAPUA BARAT,98312.0,Indonesia,8114863377.0,-0.8625968,134.0521198,https://maps.google.com/?cid=0x0:0xefc90cd267cb5423
supermarket,Minimarket,Happy Mart,"42PW+6MJ, Jl. Trikora Wosi, Wosi, Kec. Manokwari Bar., Kabupaten Manokwari, Papua Bar. 98312","Jl. Trikora Wosi, Wosi, Kec. Manokwari Bar., Kabupaten Manokwari",PAPUA BARAT,98312.0,Indonesia,,-0.8644012,134.0466391,https://maps.google.com/?cid=0x0:0x3c3629e3c9f17f37
supermarket,Toko bahan makanan,Kios Kampus Mbak Mar,"5378+GGJ, Jl. Gn. Salju, Amban, Kec. Manokwari Bar., Kabupaten Manokwari, Papua Bar. 98312","Jl. Gn. Salju, Amban, Kec. Manokwari Bar., Kabupaten Manokwari",PAPUA BARAT,98312.0,Indonesia,81240429215.0,-0.836154,134.066269,https://maps.google.com/?cid=0x0:0x5503a35793beac6f
supermarket,Area Mendaki,Kampung Anggori,"539F+8PC, Jl. Litbang, Amban, Kec. Manokwari Bar., Kabupaten Manokwari, Papua Bar. 98314","Jl. Litbang, Amban, Kec. Manokwari Bar., Kabupaten Manokwari",PAPUA BARAT,98314.0,Indonesia,,-0.8316899,134.0742667,https://maps.google.com/?cid=0x0:0xafd73a0d96e07e74
supermarket,Minimarket,HNI Mart Manokwari,"5332+XG2, Jl. Reremi Puncak, Amban, Kec. Manokwari Bar., Kabupaten Manokwari, Papua Bar. 98312","Jl. Reremi Puncak, Amban, Kec. Manokwari Bar., Kabupaten Manokwari",PAPUA BARAT,98312.0,Indonesia,81344070978.0,-0.8451044,134.0512565,https://maps.google.com/?cid=0x0:0xb4dd9d2f682f19ba
supermarket,Toko bahan makanan,kios atika,"5387+PH6, Jl. Ki Hajar Dewantara, Amban, Kec. Manokwari Bar., Kabupaten Manokwari, Papua Bar. 98314","Jl. Ki Hajar Dewantara, Amban, Kec. Manokwari Bar., Kabupaten Manokwari",PAPUA BARAT,98314.0,Indonesia,82199553337.0,-0.8332016,134.0638855,https://maps.google.com/?cid=0x0:0xbc7f933e1d7e25b8
supermarket,Toko,Adonia Mart,"53HF+73Q, Amban, Kec. Manokwari Bar., Kabupaten Manokwari, Papua Bar. 98314","Amban, Kec. Manokwari Bar., Kabupaten Manokwari",PAPUA BARAT,98314.0,Indonesia,81232165614.0,-0.8217799,134.0727477,https://maps.google.com/?cid=0x0:0x19c92e31cee70d55
supermarket,Toko Swalayan,Fresco Swalayan,"Jl. Merdeka No.51, Padarni, Kec. Manokwari Bar., Kabupaten Manokwari, Papua Bar. 98312","Padarni, Kec. Manokwari Bar., Kabupaten Manokwari",PAPUA BARAT,98312.0,Indonesia,9862213874.0,-0.8601332,134.0733651,https://maps.google.com/?cid=0x0:0x52ae815ced98b665
supermarket,Toko Swalayan,Orchid Swalayan,"43RF+C74, Jl. Merdeka, Padarni, Kec. Manokwari Bar., Kabupaten Manokwari, Papua Bar. 98312","Jl. Merdeka, Padarni, Kec. Manokwari Bar., Kabupaten Manokwari",PAPUA BARAT,98312.0,Indonesia,986211094.0,-0.8589972,134.0731963,https://maps.google.com/?cid=0x0:0xa0da1efaf3ec9af4
supermarket,supermarket,Distrik Manokwari,"Kabupaten Manokwari, Papua Bar.","Kabupaten Manokwari, Papua Bar.",PAPUA BARAT,,Indonesia,,-0.8912103,134.046322,https://maps.google.com/?cid=0x0:0x25e95a286c9053b8
supermarket,Pusat Perbelanjaan,Hadi supermarket,"32XQ+W6X, Sowi, Distrik Manokwari, Kabupaten Manokwari, Papua Bar.","Kabupaten Manokwari, Papua Bar.",PAPUA BARAT,,Indonesia,,-0.9001308,134.0381223,https://maps.google.com/?cid=0x0:0xe361d5fae3f38b24
supermarket,Minimarket,Win Mart,"Jl. Drs Esau Sesa, Wosi, Kec. Manokwari Bar., Kabupaten Manokwari, Papua Bar. 98312","Wosi, Kec. Manokwari Bar., Kabupaten Manokwari",PAPUA BARAT,98312.0,Indonesia,,-0.8713031,134.0464301,https://maps.google.com/?cid=0x0:0xf38b5c7878a43c12
supermarket,Toko bahan makanan,Nui Fresh Market,"42GW+7V4, Jl. Drs Esau Sesa, Wosi, Kec. Manokwari Bar., Kabupaten Manokwari, Papua Bar. 98312","Jl. Drs Esau Sesa, Wosi, Kec. Manokwari Bar., Kabupaten Manokwari",PAPUA BARAT,98312.0,Indonesia,,-0.8744023,134.0472373,https://maps.google.com/?cid=0x0:0xe0b7549230889ff7
supermarket,Toko,Toko BERINGIN,"42HX+7F9, Jl. Trikora Rendani, Wosi, Kec. Manokwari Bar., Kabupaten Manokwari, Papua Bar. 98312","Jl. Trikora Rendani, Wosi, Kec. Manokwari Bar., Kabupaten Manokwari",PAPUA BARAT,98312.0,Indonesia,,-0.8718349,134.04874,https://maps.google.com/?cid=0x0:0x224dd396e71e5c8d
supermarket,Minimarket,NADIRA MART,"422R+29V, Jl. Trikora Sowi, Sowi, Distrik Manokwari, Kabupaten Manokwari, Papua Bar. 98315","Jl. Trikora Sowi, Sowi, Distrik Manokwari, Kabupaten Manokwari",PAPUA BARAT,98315.0,Indonesia,,-0.8998975,134.0409111,https://maps.google.com/?cid=0x0:0xddf73fa445fa8aff
supermarket,Toko bahan makanan,Kalawai Mart,"42GW+JX7, Jl. Drs Esau Sesa, Wosi, Kec. Manokwari Bar., Kabupaten Manokwari, Papua Bar. 98312","Jl. Drs Esau Sesa, Wosi, Kec. Manokwari Bar., Kabupaten Manokwari",PAPUA BARAT,98312.0,Indonesia,82239404628.0,-0.8734685,134.0474365,https://maps.google.com/?cid=0x0:0xa03f46416c062468
supermarket,Minimarket,Happy Mart,"42PW+6MJ, Jl. Trikora Wosi, Wosi, Kec. Manokwari Bar., Kabupaten Manokwari, Papua Bar. 98312","Jl. Trikora Wosi, Wosi, Kec. Manokwari Bar., Kabupaten Manokwari",PAPUA BARAT,98312.0,Indonesia,,-0.8644012,134.0466391,https://maps.google.com/?cid=0x0:0x3c3629e3c9f17f37
supermarket,Toko bahan makanan,ORCHID SWALAYAN WOSI,"Jl. Trikora Wosi, Wosi, Kec. Manokwari Bar., Kabupaten Manokwari, Papua Bar. 98312","Wosi, Kec. Manokwari Bar., Kabupaten Manokwari",PAPUA BARAT,98312.0,Indonesia,8114863377.0,-0.8625968,134.0521198,https://maps.google.com/?cid=0x0:0xefc90cd267cb5423
supermarket,Toko Peralatan Hiasan Kue,NQ Mart,"Wosi, Kec. Manokwari Bar., Kabupaten Manokwari, Papua Bar. 98312","Kec. Manokwari Bar., Kabupaten Manokwari",PAPUA BARAT,98312.0,Indonesia,,-0.8723115,134.0460683,https://maps.google.com/?cid=0x0:0xd34760d70c73bcbf
supermarket,Minimarket,Kios Merah Anday,"Anday, Distrik Manokwari, Kabupaten Manokwari, Papua Bar. 98315","Distrik Manokwari, Kabupaten Manokwari",PAPUA BARAT,98315.0,Indonesia,85218713512.0,-0.9324459,134.0114189,https://maps.google.com/?cid=0x0:0xce53730c2173a74c
supermarket,Toko bahan makanan,Permata Mart,"424W+CCX, Jalan, Gunung, Sowi, Manokwari Selatan, Manokwari Regency, West Papua 98315","Jalan, Gunung, Sowi, Manokwari Selatan, Manokwari Regency",PAPUA BARAT,98315.0,Indonesia,,-0.8938776,134.0462457,https://maps.google.com/?cid=0x0:0x60f0bd0fff6b44c6
supermarket,Kios,Kios Elan No. AA 17,"427H+9MR, Sowi, Distrik Manokwari, Kabupaten Manokwari, Papua Bar. 98315","Sowi, Distrik Manokwari, Kabupaten Manokwari",PAPUA BARAT,98315.0,Indonesia,,-0.8865096,134.0291275,https://maps.google.com/?cid=0x0:0xf4085fdc6fef4d87
supermarket,Minimarket,Orange Mart,"Jl. Merdeka, Manokwari Tim., Kec. Manokwari Bar., Kabupaten Manokwari, Papua Bar. 98312","Manokwari Tim., Kec. Manokwari Bar., Kabupaten Manokwari",PAPUA BARAT,98312.0,Indonesia,85257101432.0,-0.8558744,134.0707445,https://maps.google.com/?cid=0x0:0xf4bd4c8bfefe8ba4
supermarket,Toko Swalayan,Orchid Swalayan,"43RF+C74, Jl. Merdeka, Padarni, Kec. Manokwari Bar., Kabupaten Manokwari, Papua Bar. 98312","Jl. Merdeka, Padarni, Kec. Manokwari Bar., Kabupaten Manokwari",PAPUA BARAT,98312.0,Indonesia,986211094.0,-0.8589972,134.0731963,https://maps.google.com/?cid=0x0:0xa0da1efaf3ec9af4
supermarket,supermarket,Papua Bar. 98311,"Kec. Manokwari Tim., Kabupaten Manokwari, Papua Bar.","Kabupaten Manokwari, Papua Bar.",PAPUA BARAT,,Indonesia,,-0.853122,134.1102895,https://maps.google.com/?cid=0x0:0x327a91d22239a4d5
supermarket,Toko Swalayan,Fresco Swalayan,"Jl. Merdeka No.51, Padarni, Kec. Manokwari Bar., Kabupaten Manokwari, Papua Bar. 98312","Padarni, Kec. Manokwari Bar., Kabupaten Manokwari",PAPUA BARAT,98312.0,Indonesia,9862213874.0,-0.8601332,134.0733651,https://maps.google.com/?cid=0x0:0x52ae815ced98b665
supermarket,Minimarket,Kios Sinar Muna,"Rodi, Jl. Gajtjqjgjejtu, Manokwari Tim., Kec. Manokwari Bar., Kabupaten Manokwari, Papua Bar. 98311","Jl. Gajtjqjgjejtu, Manokwari Tim., Kec. Manokwari Bar., Kabupaten Manokwari",PAPUA BARAT,98311.0,Indonesia,81344432708.0,-0.872745,134.0786564,https://maps.google.com/?cid=0x0:0xcb17f6ee286780f
supermarket,Minimarket,TB mart,"Jl. Jend. Sudirman No.1, RW.3, Manokwari Tim., Kec. Manokwari Bar., Kabupaten Manokwari, Papua Bar. 98312","RW.3, Manokwari Tim., Kec. Manokwari Bar., Kabupaten Manokwari",PAPUA BARAT,98312.0,Indonesia,82239897057.0,-0.8650701,134.0744592,https://maps.google.com/?cid=0x0:0x404b6e2bc4355501
supermarket,Toko bahan makanan,KIOS ETIKA,"Jl. Sabang No.24, Manokwari Tim., Kec. Manokwari Bar., Kabupaten Manokwari, Papua Bar. 98311","Manokwari Tim., Kec. Manokwari Bar., Kabupaten Manokwari",PAPUA BARAT,98311.0,Indonesia,85343321003.0,-0.8708609,134.0828906,https://maps.google.com/?cid=0x0:0xb475bcb53381be65
supermarket,Pusat Perbelanjaan,Manokwari City Mall (MCM),"Jl. Yos Sudarso Manokwari, Manokwari Bar., Kec. Manokwari Bar., Kabupaten Manokwari, Papua Bar. 98312","Manokwari Bar., Kec. Manokwari Bar., Kabupaten Manokwari",PAPUA BARAT,98312.0,Indonesia,8114918899.0,-0.85693,134.0678051,https://maps.google.com/?cid=0x0:0x7e7b90df1d787501
supermarket,Toko bahan makanan,ORCHID SWALAYAN WOSI,"Jl. Trikora Wosi, Wosi, Kec. Manokwari Bar., Kabupaten Manokwari, Papua Bar. 98312","Wosi, Kec. Manokwari Bar., Kabupaten Manokwari",PAPUA BARAT,98312.0,Indonesia,8114863377.0,-0.8625968,134.0521198,https://maps.google.com/?cid=0x0:0xefc90cd267cb5423
supermarket,Minimarket,Borarsicell/borarsimart,"Bar., Manokwari Tim., Kec. Manokwari Bar., Kabupaten Manokwari, Papua Bar. 98312","Manokwari Tim., Kec. Manokwari Bar., Kabupaten Manokwari",PAPUA BARAT,98312.0,Indonesia,,-0.8631809,134.0725393,https://maps.google.com/?cid=0x0:0xe73f34bc2f870159
supermarket,Toko Swalayan,Sin Sin Mart,"Jl. Pasir Putih, Pasir Putih, Kec. Manokwari Tim., Kabupaten Manokwari, Papua Bar. 98313","Pasir Putih, Kec. Manokwari Tim., Kabupaten Manokwari",PAPUA BARAT,98313.0,Indonesia,82239305498.0,-0.8775768,134.0959527,https://maps.google.com/?cid=0x0:0xe75ea6769098d034
supermarket,,CV.SULINDAH,"Jl. Merdeka No.38, Padarni, Kec. Manokwari Bar., Kabupaten Manokwari, Papua Bar. 98312","Padarni, Kec. Manokwari Bar., Kabupaten Manokwari",PAPUA BARAT,98312.0,Indonesia,,-0.8616613,134.074513,https://maps.google.com/?cid=0x0:0xe7210fa071e1d1e6
supermarket,Pusat Perbelanjaan,Hadi supermarket,"32XQ+W6X, Sowi, Distrik Manokwari, Kabupaten Manokwari, Papua Bar.","Kabupaten Manokwari, Papua Bar.",PAPUA BARAT,,Indonesia,,-0.9001308,134.0381223,https://maps.google.com/?cid=0x0:0xe361d5fae3f38b24
supermarket,Toko bahan makanan,Toko Berdikari,"43P8+59W, Manokwari Bar., Kec. Manokwari Bar., Kabupaten Manokwari, Papua Bar. 98312","Manokwari Bar., Kec. Manokwari Bar., Kabupaten Manokwari",PAPUA BARAT,98312.0,Indonesia,962211484.0,-0.8645132,134.0659546,https://maps.google.com/?cid=0x0:0xd4aeeef3fe73018d
supermarket,supermarket,Papua Bar. 98313,"Kec. Manokwari Tim., Kabupaten Manokwari, Papua Bar.","Kabupaten Manokwari, Papua Bar.",PAPUA BARAT,,Indonesia,,-0.8667845,134.1197927,https://maps.google.com/?cid=0x0:0xc87b5f10f76e2d0f
supermarket,Minimarket,Orange Mart,"Jl. Merdeka, Manokwari Tim., Kec. Manokwari Bar., Kabupaten Manokwari, Papua Bar. 98312","Manokwari Tim., Kec. Manokwari Bar., Kabupaten Manokwari",PAPUA BARAT,98312.0,Indonesia,85257101432.0,-0.8558744,134.0707445,https://maps.google.com/?cid=0x0:0xf4bd4c8bfefe8ba4
supermarket,Toko Swalayan,Orchid Swalayan,"43RF+C74, Jl. Merdeka, Padarni, Kec. Manokwari Bar., Kabupaten Manokwari, Papua Bar. 98312","Jl. Merdeka, Padarni, Kec. Manokwari Bar., Kabupaten Manokwari",PAPUA BARAT,98312.0,Indonesia,986211094.0,-0.8589972,134.0731963,https://maps.google.com/?cid=0x0:0xa0da1efaf3ec9af4
supermarket,Minimarket,Hadi Supermarket Manokwari,"43V9+632, Jl. Yos Sudarso Manokwari, Manokwari Bar., Barat, Kabupaten Manokwari, Papua Bar. 98312","Jl. Yos Sudarso Manokwari, Manokwari Bar., Barat, Kabupaten Manokwari",PAPUA BARAT,98312.0,Indonesia,81344231138.0,-0.8569848,134.0676451,https://maps.google.com/?cid=0x0:0x9eff32c2ea26d6a2
supermarket,Toko Swalayan,Sin Sin Mart,"Jl. Pasir Putih, Pasir Putih, Kec. Manokwari Tim., Kabupaten Manokwari, Papua Bar. 98313","Pasir Putih, Kec. Manokwari Tim., Kabupaten Manokwari",PAPUA BARAT,98313.0,Indonesia,82239305498.0,-0.8775768,134.0959527,https://maps.google.com/?cid=0x0:0xe75ea6769098d034
supermarket,Toko bahan makanan,ORCHID SWALAYAN WOSI,"Jl. Trikora Wosi, Wosi, Kec. Manokwari Bar., Kabupaten Manokwari, Papua Bar. 98312","Wosi, Kec. Manokwari Bar., Kabupaten Manokwari",PAPUA BARAT,98312.0,Indonesia,8114863377.0,-0.8625968,134.0521198,https://maps.google.com/?cid=0x0:0xefc90cd267cb5423
supermarket,Toko Swalayan,Fresco Swalayan,"Jl. Merdeka No.51, Padarni, Kec. Manokwari Bar., Kabupaten Manokwari, Papua Bar. 98312","Padarni, Kec. Manokwari Bar., Kabupaten Manokwari",PAPUA BARAT,98312.0,Indonesia,9862213874.0,-0.8601332,134.0733651,https://maps.google.com/?cid=0x0:0x52ae815ced98b665
supermarket,Minimarket,Happy Mart,"42PW+6MJ, Jl. Trikora Wosi, Wosi, Kec. Manokwari Bar., Kabupaten Manokwari, Papua Bar. 98312","Jl. Trikora Wosi, Wosi, Kec. Manokwari Bar., Kabupaten Manokwari",PAPUA BARAT,98312.0,Indonesia,,-0.8644012,134.0466391,https://maps.google.com/?cid=0x0:0x3c3629e3c9f17f37
supermarket,Toko bahan makanan,KIOS ETIKA,"Jl. Sabang No.24, Manokwari Tim., Kec. Manokwari Bar., Kabupaten Manokwari, Papua Bar. 98311","Manokwari Tim., Kec. Manokwari Bar., Kabupaten Manokwari",PAPUA BARAT,98311.0,Indonesia,85343321003.0,-0.8708609,134.0828906,https://maps.google.com/?cid=0x0:0xb475bcb53381be65
supermarket,Pusat Perbelanjaan,Hadi supermarket,"32XQ+W6X, Sowi, Distrik Manokwari, Kabupaten Manokwari, Papua Bar.","Kabupaten Manokwari, Papua Bar.",PAPUA BARAT,,Indonesia,,-0.9001308,134.0381223,https://maps.google.com/?cid=0x0:0xe361d5fae3f38b24
supermarket,Minimarket,TB mart,"Jl. Jend. Sudirman No.1, RW.3, Manokwari Tim., Kec. Manokwari Bar., Kabupaten Manokwari, Papua Bar. 98312","RW.3, Manokwari Tim., Kec. Manokwari Bar., Kabupaten Manokwari",PAPUA BARAT,98312.0,Indonesia,82239897057.0,-0.8650701,134.0744592,https://maps.google.com/?cid=0x0:0x404b6e2bc4355501
supermarket,Kios,Kios Indrian,"44FF+M93, Arowi, Kec. Manokwari Tim., Kabupaten Manokwari, Papua Bar. 98313","Arowi, Kec. Manokwari Tim., Kabupaten Manokwari",PAPUA BARAT,98313.0,Indonesia,,-0.8758569,134.123407,https://maps.google.com/?cid=0x0:0xfd54970cca5ea7f4
supermarket,Toko bahan makanan,Kalawai Mart,"42GW+JX7, Jl. Drs Esau Sesa, Wosi, Kec. Manokwari Bar., Kabupaten Manokwari, Papua Bar. 98312","Jl. Drs Esau Sesa, Wosi, Kec. Manokwari Bar., Kabupaten Manokwari",PAPUA BARAT,98312.0,Indonesia,82239404628.0,-0.8734685,134.0474365,https://maps.google.com/?cid=0x0:0xa03f46416c062468
supermarket,Toko bahan makanan,Toko Berdikari,"43P8+59W, Manokwari Bar., Kec. Manokwari Bar., Kabupaten Manokwari, Papua Bar. 98312","Manokwari Bar., Kec. Manokwari Bar., Kabupaten Manokwari",PAPUA BARAT,98312.0,Indonesia,962211484.0,-0.8645132,134.0659546,https://maps.google.com/?cid=0x0:0xd4aeeef3fe73018d
supermarket,Toko Swalayan,Orchid Swalayan,"43RF+C74, Jl. Merdeka, Padarni, Kec. Manokwari Bar., Kabupaten Manokwari, Papua Bar. 98312","Jl. Merdeka, Padarni, Kec. Manokwari Bar., Kabupaten Manokwari",PAPUA BARAT,98312.0,Indonesia,986211094.0,-0.8589972,134.0731963,https://maps.google.com/?cid=0x0:0xa0da1efaf3ec9af4
supermarket,supermarket,Kec. Manokwari Utara,"Kabupaten Manokwari, Papua Bar.","Kabupaten Manokwari, Papua Bar.",PAPUA BARAT,,Indonesia,,-0.7545947,133.9845162,https://maps.google.com/?cid=0x0:0x4e2d072dfe215e65
supermarket,Minimarket,Hadi Supermarket Manokwari,"43V9+632, Jl. Yos Sudarso Manokwari, Manokwari Bar., Barat, Kabupaten Manokwari, Papua Bar. 98312","Jl. Yos Sudarso Manokwari, Manokwari Bar., Barat, Kabupaten Manokwari",PAPUA BARAT,98312.0,Indonesia,81344231138.0,-0.8569848,134.0676451,https://maps.google.com/?cid=0x0:0x9eff32c2ea26d6a2
supermarket,Toko bahan makanan,ORCHID SWALAYAN WOSI,"Jl. Trikora Wosi, Wosi, Kec. Manokwari Bar., Kabupaten Manokwari, Papua Bar. 98312","Wosi, Kec. Manokwari Bar., Kabupaten Manokwari",PAPUA BARAT,98312.0,Indonesia,8114863377.0,-0.8625968,134.0521198,https://maps.google.com/?cid=0x0:0xefc90cd267cb5423
supermarket,Toko bahan makanan,Intan jaya mart,"42QX+VFH, Wosi, Kec. Manokwari Bar., Kabupaten Manokwari, Papua Bar. 98312","Wosi, Kec. Manokwari Bar., Kabupaten Manokwari",PAPUA BARAT,98312.0,Indonesia,,-0.8603072,134.0487217,https://maps.google.com/?cid=0x0:0x341c38b2e9ecd592
supermarket,Pusat Perbelanjaan,Hadi supermarket,"32XQ+W6X, Sowi, Distrik Manokwari, Kabupaten Manokwari, Papua Bar.","Kabupaten Manokwari, Papua Bar.",PAPUA BARAT,,Indonesia,,-0.9001308,134.0381223,https://maps.google.com/?cid=0x0:0xe361d5fae3f38b24
supermarket,Toko Swalayan,Marina Mart,"Amban, Kec. Manokwari Bar., Kabupaten Manokwari, Papua Bar. 98312","Kec. Manokwari Bar., Kabupaten Manokwari",PAPUA BARAT,98312.0,Indonesia,82239474878.0,-0.8411584,134.0577579,https://maps.google.com/?cid=0x0:0x92e469d7218993aa
supermarket,Minimarket,Berlian Mart,"Jl. Trikora Wosi No.168, Wosi, Kec. Manokwari Bar., Kabupaten Manokwari, Papua Bar. 98312","Wosi, Kec. Manokwari Bar., Kabupaten Manokwari",PAPUA BARAT,98312.0,Indonesia,8114850329.0,-0.8666673,134.0557186,https://maps.google.com/?cid=0x0:0x32152f270ee8450c
supermarket,Minimarket,Happy Mart,"42PW+6MJ, Jl. Trikora Wosi, Wosi, Kec. Manokwari Bar., Kabupaten Manokwari, Papua Bar. 98312","Jl. Trikora Wosi, Wosi, Kec. Manokwari Bar., Kabupaten Manokwari",PAPUA BARAT,98312.0,Indonesia,,-0.8644012,134.0466391,https://maps.google.com/?cid=0x0:0x3c3629e3c9f17f37
supermarket,Toko,Toko BERINGIN,"42HX+7F9, Jl. Trikora Rendani, Wosi, Kec. Manokwari Bar., Kabupaten Manokwari, Papua Bar. 98312","Jl. Trikora Rendani, Wosi, Kec. Manokwari Bar., Kabupaten Manokwari",PAPUA BARAT,98312.0,Indonesia,,-0.8718349,134.04874,https://maps.google.com/?cid=0x0:0x224dd396e71e5c8d
supermarket,Toko Swalayan,Fresco Swalayan,"Jl. Merdeka No.51, Padarni, Kec. Manokwari Bar., Kabupaten Manokwari, Papua Bar. 98312","Padarni, Kec. Manokwari Bar., Kabupaten Manokwari",PAPUA BARAT,98312.0,Indonesia,9862213874.0,-0.8601332,134.0733651,https://maps.google.com/?cid=0x0:0x52ae815ced98b665
supermarket,Minimarket,Orange Mart,"Jl. Merdeka, Manokwari Tim., Kec. Manokwari Bar., Kabupaten Manokwari, Papua Bar. 98312","Manokwari Tim., Kec. Manokwari Bar., Kabupaten Manokwari",PAPUA BARAT,98312.0,Indonesia,85257101432.0,-0.8558744,134.0707445,https://maps.google.com/?cid=0x0:0xf4bd4c8bfefe8ba4
supermarket,Minimarket,Win Mart,"Jl. Drs Esau Sesa, Wosi, Kec. Manokwari Bar., Kabupaten Manokwari, Papua Bar. 98312","Wosi, Kec. Manokwari Bar., Kabupaten Manokwari",PAPUA BARAT,98312.0,Indonesia,,-0.8713031,134.0464301,https://maps.google.com/?cid=0x0:0xf38b5c7878a43c12
supermarket,Minimarket,Tirza Mart,"5352+FQ7, Jl.Kebun Cengkeh, Irmanjaya, Amban, Kec. Manokwari Bar., Kabupaten Manokwari, Papua Bar. 98312","Jl.Kebun Cengkeh, Irmanjaya, Amban, Kec. Manokwari Bar., Kabupaten Manokwari",PAPUA BARAT,98312.0,Indonesia,,-0.8413307,134.0519265,https://maps.google.com/?cid=0x0:0xa875129817221faf
supermarket,supermarket,Distrik Masni,"Kabupaten Manokwari, Papua Bar.","Kabupaten Manokwari, Papua Bar.",PAPUA BARAT,,Indonesia,,-0.7868548,133.728488,https://maps.google.com/?cid=0x0:0x887c8da652d5665d
supermarket,Toko Swalayan,Toko SEJAHTERA,"4QV4+C92, Makwan, Distrik Masni, Kabupaten Manokwari, Papua Bar. 98357","Makwan, Distrik Masni, Kabupaten Manokwari",PAPUA BARAT,98357.0,Indonesia,85331182200.0,-0.856499,133.755895,https://maps.google.com/?cid=0x0:0xdcd30ce87f630f8e
supermarket,Toko umum,Senu Wibowo,"5JWX+WGM, Unnamed Road, Aurmios, Distrik Masni, Kabupaten Manokwari, Papua Bar. 98357","Unnamed Road, Aurmios, Distrik Masni, Kabupaten Manokwari",PAPUA BARAT,98357.0,Indonesia,,-0.8026727,133.648801,https://maps.google.com/?cid=0x0:0xb2737eea2c28d750
supermarket,Toko,KIOS MINANG JAYA,"5QG7+WF5, Meiforga, Distrik Masni, Kabupaten Manokwari, Papua Bar. 98357","Meiforga, Distrik Masni, Kabupaten Manokwari",PAPUA BARAT,98357.0,Indonesia,,-0.8227353,133.7637305,https://maps.google.com/?cid=0x0:0xbd1aa7020957e206
supermarket,Toko Swalayan,Master Yaseen Traders,"6MFR+J4V Head, Wariori, Masni, Manokwari Regency, West Papua 98357","Wariori, Masni, Manokwari Regency",PAPUA BARAT,98357.0,Indonesia,,-0.7758995,133.6902872,https://maps.google.com/?cid=0x0:0x4fa9fdc7d7075237
supermarket,Toko,Toko Melati,"Jalan Poros SP 6, RT.03/RW04, Bowi Subur, Distrik Masni, Kabupaten Manokwari, Papua Bar. 98357","RT.03/RW04, Bowi Subur, Distrik Masni, Kabupaten Manokwari",PAPUA BARAT,98357.0,Indonesia,,-0.8112919,133.7339588,https://maps.google.com/?cid=0x0:0xfa3937e140ba6934
supermarket,Minimarket,Toko Delta,"4RF6+P85, Waseki Indah, Distrik Prafi, Kabupaten Manokwari, Papua Bar. 98356","Waseki Indah, Distrik Prafi, Kabupaten Manokwari",PAPUA BARAT,98356.0,Indonesia,82219229801.0,-0.8757266,133.810845,https://maps.google.com/?cid=0x0:0x49421937820da7dc
supermarket,Toko,Kios Ari1,"4RC8+27P, Waseki Indah, Distrik Prafi, Kabupaten Manokwari, Papua Bar. 98356","Waseki Indah, Distrik Prafi, Kabupaten Manokwari",PAPUA BARAT,98356.0,Indonesia,82399106766.0,-0.8799178,133.8156997,https://maps.google.com/?cid=0x0:0xb2e8069c11d42ee2
supermarket,Kios,Kios NANIRA,"6P6H+776, Sumber Boga, Distrik Masni, Kabupaten Manokwari, Papua Bar. 98357","Sumber Boga, Distrik Masni, Kabupaten Manokwari",PAPUA BARAT,98357.0,Indonesia,85254034003.0,-0.7893474,133.7281318,https://maps.google.com/?cid=0x0:0x5d714a25f4e84868
supermarket,Pusat Perbelanjaan,Toko hidayah,"Merejneg, Distrik Masni, Kabupaten Manokwari, Papua Bar. 98318","Distrik Masni, Kabupaten Manokwari",PAPUA BARAT,98318.0,Indonesia,81247546089.0,-0.8484988,133.6571666,https://maps.google.com/?cid=0x0:0x3e62c7fcc9e38862
supermarket,Minimarket,TOKO DAHLYA,"5J5Q+JPX, Jl. Sorong - Manokwari, Wam Bola, Distrik Masni, Kabupaten Manokwari, Papua Bar. 98357","Jl. Sorong - Manokwari, Wam Bola, Distrik Masni, Kabupaten Manokwari",PAPUA BARAT,98357.0,Indonesia,81240245635.0,-0.8408841,133.6393438,https://maps.google.com/?cid=0x0:0x447f450bb645f582
supermarket,Toko Swalayan,pravit,"4R99+3CV sp 3, jl. raya, kampung aimasi, Distrik Prafi, Kabupaten Manokwari, Papua Bar.","Kabupaten Manokwari, Papua Bar.",PAPUA BARAT,,Indonesia,,-0.8822668,133.8185332,https://maps.google.com/?cid=0x0:0x772180392091d070
supermarket,Pasar,7NAGA SWALAYAN Sp3 prafi Manokwari,"depan bank papua, Jl. Poros No.sp 3, Waseki Indah, Distrik Prafi, Kabupaten Manokwari, Papua Bar. 98356","Jl. Poros No.sp 3, Waseki Indah, Distrik Prafi, Kabupaten Manokwari",PAPUA BARAT,98356.0,Indonesia,85211934307.0,-0.8814679,133.8180343,https://maps.google.com/?cid=0x0:0x4ab419fa3fd0a1bd
supermarket,supermarket,Kios puji/warung makan sedap malam,"6P2G+JC2, Sumber Boga, Distrik Masni, Kabupaten Manokwari, Papua Bar. 98357","Sumber Boga, Distrik Masni, Kabupaten Manokwari",PAPUA BARAT,98357.0,Indonesia,,-0.798499,133.7260225,https://maps.google.com/?cid=0x0:0x7f6cc47f7ac0c7d2
supermarket,supermarket,Distrik Prafi,"Kabupaten Manokwari, Papua Bar.","Kabupaten Manokwari, Papua Bar.",PAPUA BARAT,,Indonesia,,-0.8781986,133.8274668,https://maps.google.com/?cid=0x0:0xb111fb1aee64e776
supermarket,Toko Swalayan,PT. ANGGUN SWALAYAN,"Unnamed Road, Papua Bar. 98356, Udapi Hilir, Distrik Prafi, Kabupaten Manokwari, Papua Bar. 98356",Papua Bar.,PAPUA BARAT,98356.0,Indonesia,,-0.8765216,133.8291573,https://maps.google.com/?cid=0x0:0x25497da2a488e925
supermarket,Minimarket,Minimarket Prafi,"3VVP+5PW, Desay, Distrik Prafi, Kabupaten Manokwari, Papua Bar. 98356","Desay, Distrik Prafi, Kabupaten Manokwari",PAPUA BARAT,98356.0,Indonesia,,-0.9070129,133.8868394,https://maps.google.com/?cid=0x0:0x8d5bfe04fb607dc0
supermarket,Pasar,7NAGA SWALAYAN Sp3 prafi Manokwari,"depan bank papua, Jl. Poros No.sp 3, Waseki Indah, Distrik Prafi, Kabupaten Manokwari, Papua Bar. 98356","Jl. Poros No.sp 3, Waseki Indah, Distrik Prafi, Kabupaten Manokwari",PAPUA BARAT,98356.0,Indonesia,85211934307.0,-0.8814679,133.8180343,https://maps.google.com/?cid=0x0:0x4ab419fa3fd0a1bd
supermarket,Toko Swalayan,pravit,"4R99+3CV sp 3, jl. raya, kampung aimasi, Distrik Prafi, Kabupaten Manokwari, Papua Bar.","Kabupaten Manokwari, Papua Bar.",PAPUA BARAT,,Indonesia,,-0.8822668,133.8185332,https://maps.google.com/?cid=0x0:0x772180392091d070
supermarket,Toko,Kios Ari1,"4RC8+27P, Waseki Indah, Distrik Prafi, Kabupaten Manokwari, Papua Bar. 98356","Waseki Indah, Distrik Prafi, Kabupaten Manokwari",PAPUA BARAT,98356.0,Indonesia,82399106766.0,-0.8799178,133.8156997,https://maps.google.com/?cid=0x0:0xb2e8069c11d42ee2
supermarket,Minimarket,Cendrawasih mart,"3VHV+JMV, Prafi Mulia, Distrik Prafi, Kabupaten Manokwari, Papua Bar. 98352","Prafi Mulia, Distrik Prafi, Kabupaten Manokwari",PAPUA BARAT,98352.0,Indonesia,82239808915.0,-0.9212444,133.89345,https://maps.google.com/?cid=0x0:0x6585efd46a30a08d
supermarket,Toko Pertanian,KIOS HIJAU,"3VPJ+8JG, Desay, Distrik Prafi, Kabupaten Manokwari, Papua Bar. 98356","Desay, Distrik Prafi, Kabupaten Manokwari",PAPUA BARAT,98356.0,Indonesia,82399497770.0,-0.9141931,133.8815923,https://maps.google.com/?cid=0x0:0xe9f7a609f32810a9
supermarket,Minimarket,toko thiara,"3VWP+Q86, Desay, Distrik Prafi, Kabupaten Manokwari, Papua Bar. 98356","Desay, Distrik Prafi, Kabupaten Manokwari",PAPUA BARAT,98356.0,Indonesia,82198142255.0,-0.9030835,133.8857549,https://maps.google.com/?cid=0x0:0xa1c181c3cb79e0e3
supermarket,Toko grosir buah dan sayur,Pasar Buah Prafi,"4R83+VC7, Jl. Sorong - Manokwari, Macuan, Distrik Masni, Kabupaten Manokwari, Papua Bar. 98356","Jl. Sorong - Manokwari, Macuan, Distrik Masni, Kabupaten Manokwari",PAPUA BARAT,98356.0,Indonesia,,-0.8828257,133.8035382,https://maps.google.com/?cid=0x0:0x45d9319e752b0a71
supermarket,Minimarket,Toko Delta,"4RF6+P85, Waseki Indah, Distrik Prafi, Kabupaten Manokwari, Papua Bar. 98356","Waseki Indah, Distrik Prafi, Kabupaten Manokwari",PAPUA BARAT,98356.0,Indonesia,82219229801.0,-0.8757266,133.810845,https://maps.google.com/?cid=0x0:0x49421937820da7dc
supermarket,Toko,Toko Tapanuli Jaya ( Sinaga ),"Jln. Merpati SP 4, Udapi Hilir, Distrik Prafi, Kabupaten Manokwari, Papua Bar. 98356","Udapi Hilir, Distrik Prafi, Kabupaten Manokwari",PAPUA BARAT,98356.0,Indonesia,81370126543.0,-0.876799,133.8286786,https://maps.google.com/?cid=0x0:0xb117b9a8f7d4a0e6
supermarket,Toko Swalayan,Orchid Swalayan,"43RF+C74, Jl. Merdeka, Padarni, Kec. Manokwari Bar., Kabupaten Manokwari, Papua Bar. 98312","Jl. Merdeka, Padarni, Kec. Manokwari Bar., Kabupaten Manokwari",PAPUA BARAT,98312.0,Indonesia,986211094.0,-0.8589972,134.0731963,https://maps.google.com/?cid=0x0:0xa0da1efaf3ec9af4
supermarket,Pusat Perbelanjaan,HNI SC PRAFI HRMART,"sp3, Waseki Indah, Distrik Prafi, Kabupaten Manokwari, Papua Bar. 98356","Waseki Indah, Distrik Prafi, Kabupaten Manokwari",PAPUA BARAT,98356.0,Indonesia,82188130851.0,-0.8777925,133.814113,https://maps.google.com/?cid=0x0:0x85259acaa0b8d824
supermarket,Toko Swalayan,PT. ANGGUN SWALAYAN,"Unnamed Road, Papua Bar. 98356, Udapi Hilir, Distrik Prafi, Kabupaten Manokwari, Papua Bar. 98356",Papua Bar.,PAPUA BARAT,98356.0,Indonesia,,-0.8765216,133.8291573,https://maps.google.com/?cid=0x0:0x25497da2a488e925
supermarket,Pasar,7NAGA SWALAYAN Sp3 prafi Manokwari,"depan bank papua, Jl. Poros No.sp 3, Waseki Indah, Distrik Prafi, Kabupaten Manokwari, Papua Bar. 98356","Jl. Poros No.sp 3, Waseki Indah, Distrik Prafi, Kabupaten Manokwari",PAPUA BARAT,98356.0,Indonesia,85211934307.0,-0.8814679,133.8180343,https://maps.google.com/?cid=0x0:0x4ab419fa3fd0a1bd
supermarket,supermarket,Papua Bar. 98356,"Kabupaten Manokwari, Papua Bar.","Kabupaten Manokwari, Papua Bar.",PAPUA BARAT,,Indonesia,,-0.944854,133.7717073,https://maps.google.com/?cid=0x0:0x8f6cbc943a6f12d8
supermarket,Toko,Kios Ari1,"4RC8+27P, Waseki Indah, Distrik Prafi, Kabupaten Manokwari, Papua Bar. 98356","Waseki Indah, Distrik Prafi, Kabupaten Manokwari",PAPUA BARAT,98356.0,Indonesia,82399106766.0,-0.8799178,133.8156997,https://maps.google.com/?cid=0x0:0xb2e8069c11d42ee2
supermarket,Toko Swalayan,pravit,"4R99+3CV sp 3, jl. raya, kampung aimasi, Distrik Prafi, Kabupaten Manokwari, Papua Bar.","Kabupaten Manokwari, Papua Bar.",PAPUA BARAT,,Indonesia,,-0.8822668,133.8185332,https://maps.google.com/?cid=0x0:0x772180392091d070
supermarket,Minimarket,toko thiara,"3VWP+Q86, Desay, Distrik Prafi, Kabupaten Manokwari, Papua Bar. 98356","Desay, Distrik Prafi, Kabupaten Manokwari",PAPUA BARAT,98356.0,Indonesia,82198142255.0,-0.9030835,133.8857549,https://maps.google.com/?cid=0x0:0xa1c181c3cb79e0e3
supermarket,Toko Pertanian,KIOS HIJAU,"3VPJ+8JG, Desay, Distrik Prafi, Kabupaten Manokwari, Papua Bar. 98356","Desay, Distrik Prafi, Kabupaten Manokwari",PAPUA BARAT,98356.0,Indonesia,82399497770.0,-0.9141931,133.8815923,https://maps.google.com/?cid=0x0:0xe9f7a609f32810a9
supermarket,Toko grosir buah dan sayur,Pasar Buah Prafi,"4R83+VC7, Jl. Sorong - Manokwari, Macuan, Distrik Masni, Kabupaten Manokwari, Papua Bar. 98356","Jl. Sorong - Manokwari, Macuan, Distrik Masni, Kabupaten Manokwari",PAPUA BARAT,98356.0,Indonesia,,-0.8828257,133.8035382,https://maps.google.com/?cid=0x0:0x45d9319e752b0a71
supermarket,Toko bahan makanan,Kios ABID,"3VJV+849, Unnamed Road, Prafi Mulia, Distrik Prafi, Kabupaten Manokwari, Papua Bar. 98352","Unnamed Road, Prafi Mulia, Distrik Prafi, Kabupaten Manokwari",PAPUA BARAT,98352.0,Indonesia,85244027521.0,-0.9192097,133.8928584,https://maps.google.com/?cid=0x0:0x465a98b0249b96b1
supermarket,Minimarket,Toko Delta,"4RF6+P85, Waseki Indah, Distrik Prafi, Kabupaten Manokwari, Papua Bar. 98356","Waseki Indah, Distrik Prafi, Kabupaten Manokwari",PAPUA BARAT,98356.0,Indonesia,82219229801.0,-0.8757266,133.810845,https://maps.google.com/?cid=0x0:0x49421937820da7dc
supermarket,Toko,Toko Tapanuli Jaya ( Sinaga ),"Jln. Merpati SP 4, Udapi Hilir, Distrik Prafi, Kabupaten Manokwari, Papua Bar. 98356","Udapi Hilir, Distrik Prafi, Kabupaten Manokwari",PAPUA BARAT,98356.0,Indonesia,81370126543.0,-0.876799,133.8286786,https://maps.google.com/?cid=0x0:0xb117b9a8f7d4a0e6
supermarket,Minimarket,Cendrawasih mart,"3VHV+JMV, Prafi Mulia, Distrik Prafi, Kabupaten Manokwari, Papua Bar. 98352","Prafi Mulia, Distrik Prafi, Kabupaten Manokwari",PAPUA BARAT,98352.0,Indonesia,82239808915.0,-0.9212444,133.89345,https://maps.google.com/?cid=0x0:0x6585efd46a30a08d
supermarket,Toko,TATA MART,"4R8F+WGV, Udapi Hilir, Distrik Prafi, Kabupaten Manokwari, Papua Bar. 98356","Udapi Hilir, Distrik Prafi, Kabupaten Manokwari",PAPUA BARAT,98356.0,Indonesia,,-0.882548,133.8237803,https://maps.google.com/?cid=0x0:0x61b664dd362ecf73
supermarket,Pusat Perbelanjaan,HNI SC PRAFI HRMART,"sp3, Waseki Indah, Distrik Prafi, Kabupaten Manokwari, Papua Bar. 98356","Waseki Indah, Distrik Prafi, Kabupaten Manokwari",PAPUA BARAT,98356.0,Indonesia,82188130851.0,-0.8777925,133.814113,https://maps.google.com/?cid=0x0:0x85259acaa0b8d824
supermarket,Toko,Kios pak idris,"6HQV+PX7, Jl. Mubrani, Sidey Baru, Distrik Sidey, Kabupaten Manokwari, Papua Bar. 98357","Jl. Mubrani, Sidey Baru, Distrik Sidey, Kabupaten Manokwari",PAPUA BARAT,98357.0,Indonesia,,-0.7607102,133.5949221,https://maps.google.com/?cid=0x0:0x31f75c7f673506e3
supermarket,supermarket,Distrik Sidey,"Kabupaten Manokwari, Papua Bar.","Kabupaten Manokwari, Papua Bar.",PAPUA BARAT,,Indonesia,,-0.7605514,133.5946268,https://maps.google.com/?cid=0x0:0x8c34ad1374e4a89e
supermarket,Pemasok Air Minum Dalam Kemasan,Depot Air Minum TWIN AIR,"6HVV+97R, Jl. Mubrani, Sidey Baru, Distrik Sidey, Kabupaten Manokwari, Papua Bar. 98357","Jl. Mubrani, Sidey Baru, Distrik Sidey, Kabupaten Manokwari",PAPUA BARAT,98357.0,Indonesia,82397007710.0,-0.7565049,133.5931468,https://maps.google.com/?cid=0x0:0x95ee4bedfbef4478
supermarket,Toko Swalayan,GrandLucky - SCBD,"Kawasan Niaga Terpadu Sudirman (SCBD, Jl. Jenderal Sudirman LOT-12, Senayan, Kec. Kby. Baru, Kota Jakarta Selatan, Daerah Khusus Ibukota Jakarta 12190","Jl. Jenderal Sudirman LOT-12, Senayan, Kec. Kby. Baru, Kota Jakarta Selatan",PAPUA BARAT,12190.0,Indonesia,215153832.0,-6.22691,106.8059153,https://maps.google.com/?cid=0x0:0x4efcd0d8d64cad53
supermarket,Toko Swalayan,Super Indo Cinere Raya,"Jl. Cinere Raya No.17, Cinere, Kec. Cinere, Kota Depok, Jawa Barat 16514","Cinere, Kec. Cinere, Kota Depok",PAPUA BARAT,16514.0,Indonesia,,-6.3285756,106.7853393,https://maps.google.com/?cid=0x0:0xa1ab3e3c664ccad6
supermarket,Toko umum,Super Indo Mustika Jaya,"Jalan Raya Mustika Jaya No. 36, Bekasi Timur, RT.002/RW.012, Mustikajaya, Kec. Mustika Jaya, Kota Bks, Jawa Barat 17158","Bekasi Timur, RT.002/RW.012, Mustikajaya, Kec. Mustika Jaya, Kota Bks",PAPUA BARAT,17158.0,Indonesia,2182615322.0,-6.2858441,107.0348261,https://maps.google.com/?cid=0x0:0x74b745a9c6aeca45
supermarket,Toko Buah dan Sayuran,All Fresh Alam Sutera,"All Fresh (Panunggangan Timur), Jl. Alam Sutera Boulevard No.38, Pakualam, Kec. Serpong Utara, Kota Tangerang Selatan, Banten 15320","Jl. Alam Sutera Boulevard No.38, Pakualam, Kec. Serpong Utara, Kota Tangerang Selatan",PAPUA BARAT,15320.0,Indonesia,2130429859.0,-6.2274946,106.6559587,https://maps.google.com/?cid=0x0:0xc9166dde283e14e8
supermarket,Minimarket,Indomaret Versailles 2,"MMRF+RCJ, Jl. Ruko Versailles, Rw. Buntu, Kec. Serpong, Kota Tangerang Selatan, Banten 15310","Jl. Ruko Versailles, Rw. Buntu, Kec. Serpong, Kota Tangerang Selatan",PAPUA BARAT,15310.0,Indonesia,211500580.0,-6.3079032,106.6735088,https://maps.google.com/?cid=0x0:0xb43b06fec2143b1f
supermarket,Toko bahan makanan,AEON Store - Mall @ Alam Sutera,"Jl. Jalur Sutera Bar. No.Kav 16, RT.002/RW.003, Panunggangan Tim., Kec. Pinang, Kota Tangerang, Banten 15143","RT.002/RW.003, Panunggangan Tim., Kec. Pinang, Kota Tangerang",PAPUA BARAT,15143.0,Indonesia,81110521626.0,-6.2207453,106.6549281,https://maps.google.com/?cid=0x0:0xbe1a2ff9a25b7b24
supermarket,Minimarket,Alfamart Ruko Versailles,"BSD, Rsd Blk Fb7 No.8, Rw. Buntu, Kec. Serpong, Kota Tangerang Selatan, Banten 15318","Rsd Blk Fb7 No.8, Rw. Buntu, Kec. Serpong, Kota Tangerang Selatan",PAPUA BARAT,15318.0,Indonesia,1500959.0,-6.3082147,106.6737981,https://maps.google.com/?cid=0x0:0xd76e3242540fccf5
supermarket,Minimarket,Indomaret Villa Melati Mas 2,"Jl. Villa Melati Mas Raya No.23, RT.39/RW.9, Jelupang, Kec. Serpong Utara, Kota Tangerang Selatan, Banten 15323","RT.39/RW.9, Jelupang, Kec. Serpong Utara, Kota Tangerang Selatan",PAPUA BARAT,15323.0,Indonesia,,-6.2578485,106.663485,https://maps.google.com/?cid=0x0:0x36625600fd6a928a
supermarket,Minimarket,Alfamart Alam Sutera 4,"Jl. Jalur Sutera, RT.001/RW.003, Kunciran, Kec. Pinang, Kota Tangerang, Banten 15143","RT.001/RW.003, Kunciran, Kec. Pinang, Kota Tangerang",PAPUA BARAT,15143.0,Indonesia,816638557.0,-6.2235377,106.6624644,https://maps.google.com/?cid=0x0:0x280bc55e4a3b0cb9
supermarket,Toko Buah dan Sayuran,Rumah Buah Gading Serpong,"Summarecon, Jl. Gading Serpong Boulevard No.3, Pakulonan Bar., Kec. Klp. Dua, Kabupaten Tangerang, Banten 15810","Jl. Gading Serpong Boulevard No.3, Pakulonan Bar., Kec. Klp. Dua, Kabupaten Tangerang",PAPUA BARAT,15810.0,Indonesia,81289793303.0,-6.2293534,106.6345182,https://maps.google.com/?cid=0x0:0x6c792f1ffb2dcd0e
supermarket,supermarket,Kec. Tanah Rubuh,"Kabupaten Manokwari, Papua Bar.","Kabupaten Manokwari, Papua Bar.",PAPUA BARAT,,Indonesia,,-1.1718674,134.1443544,https://maps.google.com/?cid=0x0:0x2304a7a7ad451175
supermarket,Toko Swalayan,Orchid Swalayan,"43RF+C74, Jl. Merdeka, Padarni, Kec. Manokwari Bar., Kabupaten Manokwari, Papua Bar. 98312","Jl. Merdeka, Padarni, Kec. Manokwari Bar., Kabupaten Manokwari",PAPUA BARAT,98312.0,Indonesia,986211094.0,-0.8589972,134.0731963,https://maps.google.com/?cid=0x0:0xa0da1efaf3ec9af4
supermarket,Kios,Kios Bilal Ode,"Q5VQ+PW, Ukembousi, Kec. Tanah Rubuh, Kabupaten Manokwari, Papua Bar.","Kabupaten Manokwari, Papua Bar.",PAPUA BARAT,,Indonesia,81354172018.0,-1.2056552,134.1897791,https://maps.google.com/?cid=0x0:0x3aac45a3a936c652
supermarket,Kios,Kios Naila Ode,"Wedoni, Kec. Tanah Rubuh, Kabupaten Manokwari, Papua Bar. 98315","Kec. Tanah Rubuh, Kabupaten Manokwari",PAPUA BARAT,98315.0,Indonesia,81324249119.0,-1.2102243,134.1960457,https://maps.google.com/?cid=0x0:0xc5ed5cc8f8001129
supermarket,Minimarket,Hadi Supermarket Manokwari,"43V9+632, Jl. Yos Sudarso Manokwari, Manokwari Bar., Barat, Kabupaten Manokwari, Papua Bar. 98312","Jl. Yos Sudarso Manokwari, Manokwari Bar., Barat, Kabupaten Manokwari",PAPUA BARAT,98312.0,Indonesia,81344231138.0,-0.8569848,134.0676451,https://maps.google.com/?cid=0x0:0x9eff32c2ea26d6a2
supermarket,Toko bahan makanan,Kalawai Mart,"42GW+JX7, Jl. Drs Esau Sesa, Wosi, Kec. Manokwari Bar., Kabupaten Manokwari, Papua Bar. 98312","Jl. Drs Esau Sesa, Wosi, Kec. Manokwari Bar., Kabupaten Manokwari",PAPUA BARAT,98312.0,Indonesia,82239404628.0,-0.8734685,134.0474365,https://maps.google.com/?cid=0x0:0xa03f46416c062468
supermarket,Minimarket,NADIRA MART,"422R+29V, Jl. Trikora Sowi, Sowi, Distrik Manokwari, Kabupaten Manokwari, Papua Bar. 98315","Jl. Trikora Sowi, Sowi, Distrik Manokwari, Kabupaten Manokwari",PAPUA BARAT,98315.0,Indonesia,,-0.8998975,134.0409111,https://maps.google.com/?cid=0x0:0xddf73fa445fa8aff
supermarket,Toko bahan makanan,Nui Fresh Market,"42GW+7V4, Jl. Drs Esau Sesa, Wosi, Kec. Manokwari Bar., Kabupaten Manokwari, Papua Bar. 98312","Jl. Drs Esau Sesa, Wosi, Kec. Manokwari Bar., Kabupaten Manokwari",PAPUA BARAT,98312.0,Indonesia,,-0.8744023,134.0472373,https://maps.google.com/?cid=0x0:0xe0b7549230889ff7
supermarket,Toko bahan makanan,ORCHID SWALAYAN WOSI,"Jl. Trikora Wosi, Wosi, Kec. Manokwari Bar., Kabupaten Manokwari, Papua Bar. 98312","Wosi, Kec. Manokwari Bar., Kabupaten Manokwari",PAPUA BARAT,98312.0,Indonesia,8114863377.0,-0.8625968,134.0521198,https://maps.google.com/?cid=0x0:0xefc90cd267cb5423
supermarket,Toko Ponsel,Bintang mas Celluler,"Q5VG+J33, Jl. Manokwari - Bintuni, Masabui, Kec. Oransbari, Kabupaten Manokwari, Papua Bar. 98315","Jl. Manokwari - Bintuni, Masabui, Kec. Oransbari, Kabupaten Manokwari",PAPUA BARAT,98315.0,Indonesia,85244130992.0,-1.2059934,134.1751651,https://maps.google.com/?cid=0x0:0xda6a73393fce1457
supermarket,Toko bahan makanan,Kios yunhie,"Unnamed Road, Sowi, Distrik Manokwari, Kabupaten Manokwari, Papua Bar. 98315","Sowi, Distrik Manokwari, Kabupaten Manokwari",PAPUA BARAT,98315.0,Indonesia,82238560682.0,-0.8877825,134.0324049,https://maps.google.com/?cid=0x0:0x4b02b8d32949f3d4
supermarket,supermarket,Kios Nasya Syukur,"Jl. Manokwari - Bintuni, Warmarway, Kec. Tanah Rubuh, Kabupaten Manokwari, Papua Bar. 98315","Warmarway, Kec. Tanah Rubuh, Kabupaten Manokwari",PAPUA BARAT,98315.0,Indonesia,,-1.097664,134.090853,https://maps.google.com/?cid=0x0:0x69a7f5bbd83e27d
supermarket,supermarket,Kec. Tanah Rubuh,"Kabupaten Manokwari, Papua Bar.","Kabupaten Manokwari, Papua Bar.",PAPUA BARAT,,Indonesia,,-1.1718674,134.1443544,https://maps.google.com/?cid=0x0:0x2304a7a7ad451175
supermarket,Kios,Kios Bilal Ode,"Q5VQ+PW, Ukembousi, Kec. Tanah Rubuh, Kabupaten Manokwari, Papua Bar.","Kabupaten Manokwari, Papua Bar.",PAPUA BARAT,,Indonesia,81354172018.0,-1.2056552,134.1897791,https://maps.google.com/?cid=0x0:0x3aac45a3a936c652
supermarket,Pusat Perbelanjaan,Hadi supermarket,"32XQ+W6X, Sowi, Distrik Manokwari, Kabupaten Manokwari, Papua Bar.","Kabupaten Manokwari, Papua Bar.",PAPUA BARAT,,Indonesia,,-0.9001308,134.0381223,https://maps.google.com/?cid=0x0:0xe361d5fae3f38b24
supermarket,Minimarket,Hadi Supermarket Manokwari,"43V9+632, Jl. Yos Sudarso Manokwari, Manokwari Bar., Barat, Kabupaten Manokwari, Papua Bar. 98312","Jl. Yos Sudarso Manokwari, Manokwari Bar., Barat, Kabupaten Manokwari",PAPUA BARAT,98312.0,Indonesia,81344231138.0,-0.8569848,134.0676451,https://maps.google.com/?cid=0x0:0x9eff32c2ea26d6a2
supermarket,Toko bahan makanan,Nui Fresh Market,"42GW+7V4, Jl. Drs Esau Sesa, Wosi, Kec. Manokwari Bar., Kabupaten Manokwari, Papua Bar. 98312","Jl. Drs Esau Sesa, Wosi, Kec. Manokwari Bar., Kabupaten Manokwari",PAPUA BARAT,98312.0,Indonesia,,-0.8744023,134.0472373,https://maps.google.com/?cid=0x0:0xe0b7549230889ff7
supermarket,Kios,Kios Naila Ode,"Wedoni, Kec. Tanah Rubuh, Kabupaten Manokwari, Papua Bar. 98315","Kec. Tanah Rubuh, Kabupaten Manokwari",PAPUA BARAT,98315.0,Indonesia,81324249119.0,-1.2102243,134.1960457,https://maps.google.com/?cid=0x0:0xc5ed5cc8f8001129
supermarket,Toko Ponsel,Bintang mas Celluler,"Q5VG+J33, Jl. Manokwari - Bintuni, Masabui, Kec. Oransbari, Kabupaten Manokwari, Papua Bar. 98315","Jl. Manokwari - Bintuni, Masabui, Kec. Oransbari, Kabupaten Manokwari",PAPUA BARAT,98315.0,Indonesia,85244130992.0,-1.2059934,134.1751651,https://maps.google.com/?cid=0x0:0xda6a73393fce1457
supermarket,supermarket,Kios Nasya Syukur,"Jl. Manokwari - Bintuni, Warmarway, Kec. Tanah Rubuh, Kabupaten Manokwari, Papua Bar. 98315","Warmarway, Kec. Tanah Rubuh, Kabupaten Manokwari",PAPUA BARAT,98315.0,Indonesia,,-1.097664,134.090853,https://maps.google.com/?cid=0x0:0x69a7f5bbd83e27d
supermarket,supermarket,Papua Bar. 98352,"Kabupaten Manokwari, Papua Bar.","Kabupaten Manokwari, Papua Bar.",PAPUA BARAT,,Indonesia,,-1.0122519,133.9055155,https://maps.google.com/?cid=0x0:0x665ab61075e0d624
supermarket,Toko bahan makanan,Kios Esa,"2WQ3+G4R, Ibuwau, Kec. Warmare, Kabupaten Manokwari, Papua Bar.","Kabupaten Manokwari, Papua Bar.",PAPUA BARAT,,Indonesia,82399363608.0,-0.9611346,133.9027767,https://maps.google.com/?cid=0x0:0x19b2f3606ab3dab1
supermarket,Toko bahan makanan,Kios ABID,"3VJV+849, Unnamed Road, Prafi Mulia, Distrik Prafi, Kabupaten Manokwari, Papua Bar. 98352","Unnamed Road, Prafi Mulia, Distrik Prafi, Kabupaten Manokwari",PAPUA BARAT,98352.0,Indonesia,85244027521.0,-0.9192097,133.8928584,https://maps.google.com/?cid=0x0:0x465a98b0249b96b1
supermarket,Toko Swalayan,PT. ANGGUN SWALAYAN,"Unnamed Road, Papua Bar. 98356, Udapi Hilir, Distrik Prafi, Kabupaten Manokwari, Papua Bar. 98356",Papua Bar.,PAPUA BARAT,98356.0,Indonesia,,-0.8765216,133.8291573,https://maps.google.com/?cid=0x0:0x25497da2a488e925
supermarket,Pasar,Rayna Mart,"3299+V6J, Jl. Manokwari - Maruni, Anday, Distrik Manokwari, Kabupaten Manokwari, Papua Bar. 98315","Jl. Manokwari - Maruni, Anday, Distrik Manokwari, Kabupaten Manokwari",PAPUA BARAT,98315.0,Indonesia,,-0.9302797,134.0180044,https://maps.google.com/?cid=0x0:0xd03fbe6e4931b509
supermarket,Minimarket,toko thiara,"3VWP+Q86, Desay, Distrik Prafi, Kabupaten Manokwari, Papua Bar. 98356","Desay, Distrik Prafi, Kabupaten Manokwari",PAPUA BARAT,98356.0,Indonesia,82198142255.0,-0.9030835,133.8857549,https://maps.google.com/?cid=0x0:0xa1c181c3cb79e0e3
supermarket,Toko bahan makanan,Kalawai Mart,"42GW+JX7, Jl. Drs Esau Sesa, Wosi, Kec. Manokwari Bar., Kabupaten Manokwari, Papua Bar. 98312","Jl. Drs Esau Sesa, Wosi, Kec. Manokwari Bar., Kabupaten Manokwari",PAPUA BARAT,98312.0,Indonesia,82239404628.0,-0.8734685,134.0474365,https://maps.google.com/?cid=0x0:0xa03f46416c062468
supermarket,Toko,Toko Cahaya Matahati,"3VMH+F9P, Jl. Sorong - Manokwari, Nimbay, Kec. Warmare, Kabupaten Manokwari, Papua Bar. 98356","Jl. Sorong - Manokwari, Nimbay, Kec. Warmare, Kabupaten Manokwari",PAPUA BARAT,98356.0,Indonesia,,-0.9162918,133.8784508,https://maps.google.com/?cid=0x0:0xb4f705d478e1c6b6
supermarket,Toko bahan makanan,M Mart,"3298+CF6, Jl. Manokwari - Maruni, Anday, Distrik Manokwari, Kabupaten Manokwari, Papua Bar. 98315","Jl. Manokwari - Maruni, Anday, Distrik Manokwari, Kabupaten Manokwari",PAPUA BARAT,98315.0,Indonesia,,-0.9314628,134.0161443,https://maps.google.com/?cid=0x0:0x875c29792e1da315
supermarket,Minimarket,Minimarket Prafi,"3VVP+5PW, Desay, Distrik Prafi, Kabupaten Manokwari, Papua Bar. 98356","Desay, Distrik Prafi, Kabupaten Manokwari",PAPUA BARAT,98356.0,Indonesia,,-0.9070129,133.8868394,https://maps.google.com/?cid=0x0:0x8d5bfe04fb607dc0
supermarket,Minimarket,Win Mart,"Jl. Drs Esau Sesa, Wosi, Kec. Manokwari Bar., Kabupaten Manokwari, Papua Bar. 98312","Wosi, Kec. Manokwari Bar., Kabupaten Manokwari",PAPUA BARAT,98312.0,Indonesia,,-0.8713031,134.0464301,https://maps.google.com/?cid=0x0:0xf38b5c7878a43c12
supermarket,Toko Pertanian,KIOS HIJAU,"3VPJ+8JG, Desay, Distrik Prafi, Kabupaten Manokwari, Papua Bar. 98356","Desay, Distrik Prafi, Kabupaten Manokwari",PAPUA BARAT,98356.0,Indonesia,82399497770.0,-0.9141931,133.8815923,https://maps.google.com/?cid=0x0:0xe9f7a609f32810a9
supermarket,Toko Airsoft Gun,"Toko Elektro,Obat Pertanian  Service Senapan Angin","3VPG+4W2, Desay, Distrik Prafi, Kabupaten Manokwari, Papua Bar. 98356","Desay, Distrik Prafi, Kabupaten Manokwari",PAPUA BARAT,98356.0,Indonesia,85254629132.0,-0.9147263,133.8772588,https://maps.google.com/?cid=0x0:0x312fe39275638d43
supermarket,Toko umum,Barsun,"3VRP+H9M, Desay, Distrik Prafi, Kabupaten Manokwari, Papua Bar. 98356","Desay, Distrik Prafi, Kabupaten Manokwari",PAPUA BARAT,98356.0,Indonesia,81344507329.0,-0.908529,133.8859271,https://maps.google.com/?cid=0x0:0xc433bfbc93eaafb2
