Category,Real Category,Business Name,Address,City,State,Postal Code,Country,Phone,Latitude,Longitude,Map Link
perumahan,perumahan,Papua Bar. 98311,"Kec. Manokwari Tim., Kabupaten Manokwari, Papua Bar.","Kabupaten Manokwari, Papua Bar.",PAPUA BARAT,,Indonesia,,-0.853122,134.1102895,https://maps.google.com/?cid=0x0:0x327a91d22239a4d5
perumahan,Pembangunan Perumahan,Perumahan Susweni Indah Permai,"43VW+386, Sunsweni, Kec. Manokwari Tim., Kabupaten Manokwari, Papua Bar. 98311","Sunsweni, Kec. Manokwari Tim., Kabupaten Manokwari",PAPUA BARAT,98311.0,Indonesia,8114824788.0,-0.8573435,134.0957786,https://maps.google.com/?cid=0x0:0x1e527cb9e6dcb551
perumahan,Kantor Pemerintahan Daerah,Perumahan DPR Provinsi Papua Barat,"44JF+8F5, Unnamed Road, Tim, Sunsweni, Kec. Manokwari Tim., Kabupaten Manokwari, Papua Bar. 98313","Unnamed Road, Tim, Sunsweni, Kec. Manokwari Tim., Kabupaten Manokwari",PAPUA BARAT,98313.0,Indonesia,,-0.8692357,134.1237324,https://maps.google.com/?cid=0x0:0x35f4d186a75391d8
perumahan,Komplek perumahan,"Kediaman SekDa PB, Susweni","44V9+RGX, Aipiri, Kec. Manokwari Tim., Kabupaten Manokwari, Papua Bar. 98311","Aipiri, Kec. Manokwari Tim., Kabupaten Manokwari",PAPUA BARAT,98311.0,Indonesia,,-0.8553879,134.1188722,https://maps.google.com/?cid=0x0:0x7af552fba8a26dcd
perumahan,Perumahan,Perumahan Anggori Persada Regency,"537J+286, Jl. Litbang, Amban, Kec. Manokwari Bar., Kabupaten Manokwari, Papua Bar. 98312","Jl. Litbang, Amban, Kec. Manokwari Bar., Kabupaten Manokwari",PAPUA BARAT,98312.0,Indonesia,,-0.8374722,134.0807664,https://maps.google.com/?cid=0x0:0x941b275d58c08a1
perumahan,Perumahan,Perumahan Green Tea J1,"536F+QJM, Amban, Kec. Manokwari Bar., Kabupaten Manokwari, Papua Bar. 98314","Amban, Kec. Manokwari Bar., Kabupaten Manokwari",PAPUA BARAT,98314.0,Indonesia,,-0.8380277,134.0740575,https://maps.google.com/?cid=0x0:0x7566d65c448cfe43
perumahan,perumahan,Susweni wamnai,"44Q6+3G5, Sunsweni, Kec. Manokwari Tim., Kabupaten Manokwari, Papua Bar.","Kabupaten Manokwari, Papua Bar.",PAPUA BARAT,,Indonesia,,-0.8625159,134.1123095,https://maps.google.com/?cid=0x0:0xdb542003e6be64ef
perumahan,Komplek perumahan,Perumahan Pengadilan Negeri manokwari,"43R6+6H3, Jl Irian, Manokwari Bar., Kec. Manokwari Bar., Kabupaten Manokwari, Papua Bar. 98312","Jl Irian, Manokwari Bar., Kec. Manokwari Bar., Kabupaten Manokwari",PAPUA BARAT,98312.0,Indonesia,,-0.8594937,134.0614273,https://maps.google.com/?cid=0x0:0xa2508e0a6b9f3485
perumahan,Komplek perumahan,Ayambori Residence,"43PR+R8V, Ayambori, Kec. Manokwari Tim., Kabupaten Manokwari, Papua Bar. 98311","Ayambori, Kec. Manokwari Tim., Kabupaten Manokwari",PAPUA BARAT,98311.0,Indonesia,81247778163.0,-0.8628977,134.0907858,https://maps.google.com/?cid=0x0:0x57c173d7b377daf9
perumahan,Perhimpunan Pengembang Perumahan,Lokasi baru,"43HV+6V5, Kampung Metmotjhon, Kec. Manokwari Tim., Kabupaten Manokwari, Papua Bar.","Kabupaten Manokwari, Papua Bar.",PAPUA BARAT,,Indonesia,,-0.8719937,134.0947243,https://maps.google.com/?cid=0x0:0x9479985e3aa4a190
perumahan,Komplek perumahan,Susweni Manokwari timur,"44Q5+7RC, Sunsweni, Kec. Manokwari Tim., Kabupaten Manokwari, Papua Bar.","Kabupaten Manokwari, Papua Bar.",PAPUA BARAT,,Indonesia,82256899502.0,-0.8618246,134.1095083,https://maps.google.com/?cid=0x0:0xa62d5af56e7ad1ec
perumahan,Pembangunan Perumahan,Manggowi (Perum Wororomi),"43CV+QCX, Jl. Pasir Putih, Pasir Putih, Kec. Manokwari Tim., Kabupaten Manokwari, Papua Bar. 98313","Jl. Pasir Putih, Pasir Putih, Kec. Manokwari Tim., Kabupaten Manokwari",PAPUA BARAT,98313.0,Indonesia,,-0.8780148,134.0935959,https://maps.google.com/?cid=0x0:0x656bd9a40c4792bf
perumahan,Komplek perumahan,Ayambori,"43PQ+3QX, Ayambori, Kec. Manokwari Tim., Kabupaten Manokwari, Papua Bar. 98311","Ayambori, Kec. Manokwari Tim., Kabupaten Manokwari",PAPUA BARAT,98311.0,Indonesia,,-0.864756,134.0894705,https://maps.google.com/?cid=0x0:0x8b8d760d3b11b7b9
perumahan,Area Mendaki,Kompleks Rumah Belanda Panorama Berg,"43VF+M64, Padarni, Kec. Manokwari Bar., Kabupaten Manokwari, Papua Bar. 98312","Padarni, Kec. Manokwari Bar., Kabupaten Manokwari",PAPUA BARAT,98312.0,Indonesia,,-0.8558668,134.0730844,https://maps.google.com/?cid=0x0:0xe72b969ee1eab805
perumahan,perumahan,Papua Bar. 98312,"Kabupaten Manokwari, Papua Bar.","Kabupaten Manokwari, Papua Bar.",PAPUA BARAT,,Indonesia,,-0.8581559,134.0008674,https://maps.google.com/?cid=0x0:0x55f33f0d52b5b6d0
perumahan,Perumahan,Perumahan Anggori Persada Regency,"537J+286, Jl. Litbang, Amban, Kec. Manokwari Bar., Kabupaten Manokwari, Papua Bar. 98312","Jl. Litbang, Amban, Kec. Manokwari Bar., Kabupaten Manokwari",PAPUA BARAT,98312.0,Indonesia,,-0.8374722,134.0807664,https://maps.google.com/?cid=0x0:0x941b275d58c08a1
perumahan,Komplek perumahan,Perumahan dosen,"5359+3XC, Amban, Kec. Manokwari Bar., Kabupaten Manokwari, Papua Bar. 98312","Amban, Kec. Manokwari Bar., Kabupaten Manokwari",PAPUA BARAT,98312.0,Indonesia,,-0.8423055,134.0699036,https://maps.google.com/?cid=0x0:0xe12de2f045d8b2c6
perumahan,Pembangunan Perumahan,Perumahan inggramui,"Inggramui, Kec. Manokwari Bar., Kabupaten Manokwari, Papua Bar. 98312","Kec. Manokwari Bar., Kabupaten Manokwari",PAPUA BARAT,98312.0,Indonesia,,-0.8562476,134.0415231,https://maps.google.com/?cid=0x0:0x21f01fbee0d708b6
perumahan,Pembangunan Perumahan,Graha Marina Swavenia,"Manokwari Bar., Kec. Manokwari Bar., Kabupaten Manokwari, Papua Bar. 98312","Kec. Manokwari Bar., Kabupaten Manokwari",PAPUA BARAT,98312.0,Indonesia,,-0.8546674,134.0508956,https://maps.google.com/?cid=0x0:0xbdc1d015b312b14b
perumahan,Komplek perumahan,Perum,"5358+6PF, PERUM GRIYA MANGGUAPI, Amban, Kec. Manokwari Bar., Kabupaten Manokwari, Papua Bar. 98312","PERUM GRIYA MANGGUAPI, Amban, Kec. Manokwari Bar., Kabupaten Manokwari",PAPUA BARAT,98312.0,Indonesia,,-0.8419454,134.0668044,https://maps.google.com/?cid=0x0:0x6b702e21ee506178
perumahan,Pembangunan Perumahan,Perumahan Soribo hillss,"Biniraw, Kec. Manokwari Bar., Kabupaten Manokwari, Papua Bar. 98312","Kec. Manokwari Bar., Kabupaten Manokwari",PAPUA BARAT,98312.0,Indonesia,,-0.8662394,134.0375895,https://maps.google.com/?cid=0x0:0x6818447836667fe5
perumahan,Pembangunan Perumahan,Perumahan Green Falley,"42WW+582, Manokwari Bar., Kec. Manokwari Bar., Kabupaten Manokwari, Papua Bar. 98312","Manokwari Bar., Kec. Manokwari Bar., Kabupaten Manokwari",PAPUA BARAT,98312.0,Indonesia,,-0.8546083,134.045777,https://maps.google.com/?cid=0x0:0x24ae28aebf4afbed
perumahan,Komplek perumahan,Kompleks Perumahan FLPP Amban Hill 2,"536C+FH8, Jl. Cenderawasih, Amban, Kec. Manokwari Bar., Kabupaten Manokwari, Papua Bar. 98312","Jl. Cenderawasih, Amban, Kec. Manokwari Bar., Kabupaten Manokwari",PAPUA BARAT,98312.0,Indonesia,,-0.8388339,134.0714512,https://maps.google.com/?cid=0x0:0xb2ea50b1e00fbe93
perumahan,Polisi Negara Bagian,perumahan dinas polda papua barat,"42HM+RX8, jalan baru Jl. Drs Esau Sesa, kampung soribu, Kec. Manokwari Bar., Kabupaten Manokwari, Papua Bar. 98312","jalan baru Jl. Drs Esau Sesa, kampung soribu, Kec. Manokwari Bar., Kabupaten Manokwari",PAPUA BARAT,98312.0,Indonesia,,-0.8704619,134.0349576,https://maps.google.com/?cid=0x0:0x76d4831c31fee25f
perumahan,Perumahan,Green Valley Residence,"42WW+347, Jl. Trikora Wosi, Wosi, Kec. Manokwari Bar., Kabupaten Manokwari, Papua Bar. 98312","Jl. Trikora Wosi, Wosi, Kec. Manokwari Bar., Kabupaten Manokwari",PAPUA BARAT,98312.0,Indonesia,81148607778.0,-0.8548416,134.0453063,https://maps.google.com/?cid=0x0:0xa646d961d2ee27cf
perumahan,Komplek perumahan,Perumahan Pengadilan Negeri manokwari,"43R6+6H3, Jl Irian, Manokwari Bar., Kec. Manokwari Bar., Kabupaten Manokwari, Papua Bar. 98312","Jl Irian, Manokwari Bar., Kec. Manokwari Bar., Kabupaten Manokwari",PAPUA BARAT,98312.0,Indonesia,,-0.8594937,134.0614273,https://maps.google.com/?cid=0x0:0xa2508e0a6b9f3485
perumahan,Komplek perumahan,"Perumahan Griya Indah,Amban","Perumahan Griya Indah, Belakang Kantor BPMP Blok A 08, Amban, Kec. Manokwari Bar., Kabupaten Manokwari, Papua Bar. 98312","Belakang Kantor BPMP Blok A 08, Amban, Kec. Manokwari Bar., Kabupaten Manokwari",PAPUA BARAT,98312.0,Indonesia,,-0.8426003,134.0764459,https://maps.google.com/?cid=0x0:0xb40b6b1fa9382192
perumahan,Komplek perumahan,Sekretariat Perumahan Beringin Hills Residence Amban,"Unnamed Road, Amban, Kec. Manokwari Bar., Kabupaten Manokwari, Papua Bar. 98312","Amban, Kec. Manokwari Bar., Kabupaten Manokwari",PAPUA BARAT,98312.0,Indonesia,8114873550.0,-0.8453853,134.0779345,https://maps.google.com/?cid=0x0:0x13a77c26500c5db9
perumahan,Pembangunan Perumahan,Graha Marina Swavenia,"Manokwari Bar., Kec. Manokwari Bar., Kabupaten Manokwari, Papua Bar. 98312","Kec. Manokwari Bar., Kabupaten Manokwari",PAPUA BARAT,98312.0,Indonesia,,-0.8546674,134.0508956,https://maps.google.com/?cid=0x0:0xbdc1d015b312b14b
perumahan,Pembangunan Perumahan,PERUM GRAND MARINA SAVANIA,"43W2+385, Unnamed Road, Manokwari Bar., Kec. Manokwari Bar., Kabupaten Manokwari, Papua Bar. 98312","Unnamed Road, Manokwari Bar., Kec. Manokwari Bar., Kabupaten Manokwari",PAPUA BARAT,98312.0,Indonesia,,-0.8548739,134.0508516,https://maps.google.com/?cid=0x0:0xe878b7c7a70f2ccd
perumahan,perumahan,Papua Bar. 98314,"Amban, Kec. Manokwari Bar., Kabupaten Manokwari, Papua Bar.","Kabupaten Manokwari, Papua Bar.",PAPUA BARAT,,Indonesia,,-0.8229506,134.0484728,https://maps.google.com/?cid=0x0:0xf25e0ecc06fa0aa1
perumahan,perumahan,Love no as,"53HF+7X, Amban, Kec. Manokwari Bar., Kabupaten Manokwari, Papua Bar. 98314","Amban, Kec. Manokwari Bar., Kabupaten Manokwari",PAPUA BARAT,98314.0,Indonesia,,-0.8219106,134.0747697,https://maps.google.com/?cid=0x0:0xf46d7e62ae0f70b3
perumahan,Komplek perumahan,Perumahan dosen,"5359+3XC, Amban, Kec. Manokwari Bar., Kabupaten Manokwari, Papua Bar. 98312","Amban, Kec. Manokwari Bar., Kabupaten Manokwari",PAPUA BARAT,98312.0,Indonesia,,-0.8423055,134.0699036,https://maps.google.com/?cid=0x0:0xe12de2f045d8b2c6
perumahan,Perumahan,Perumahan Green Tea J1,"536F+QJM, Amban, Kec. Manokwari Bar., Kabupaten Manokwari, Papua Bar. 98314","Amban, Kec. Manokwari Bar., Kabupaten Manokwari",PAPUA BARAT,98314.0,Indonesia,,-0.8380277,134.0740575,https://maps.google.com/?cid=0x0:0x7566d65c448cfe43
perumahan,Pembangunan Perumahan,Perumahan Revival Blok G-H,"5375+X4J, Amban, Kec. Manokwari Bar., Kabupaten Manokwari, Papua Bar. 98314","Amban, Kec. Manokwari Bar., Kabupaten Manokwari",PAPUA BARAT,98314.0,Indonesia,,-0.8348176,134.056545,https://maps.google.com/?cid=0x0:0xbb5bf22fd5110a61
perumahan,Penginapan,Rumah Pribadi,"537F+MR6, Amban, Kec. Manokwari Bar., Kabupaten Manokwari, Papua Bar. 98314","Amban, Kec. Manokwari Bar., Kabupaten Manokwari",PAPUA BARAT,98314.0,Indonesia,,-0.8358489,134.0745078,https://maps.google.com/?cid=0x0:0x1d9a7dcb7e24f8b0
perumahan,Pembangunan Perumahan,SKG,"53C8+H28, Amban, Kec. Manokwari Bar., Kabupaten Manokwari, Papua Bar. 98314","Amban, Kec. Manokwari Bar., Kabupaten Manokwari",PAPUA BARAT,98314.0,Indonesia,,-0.8291857,134.0647278,https://maps.google.com/?cid=0x0:0x6a9494184ce478dc
perumahan,Komplek perumahan,"Perumahan Griya Indah,Amban","Perumahan Griya Indah, Belakang Kantor BPMP Blok A 08, Amban, Kec. Manokwari Bar., Kabupaten Manokwari, Papua Bar. 98312","Belakang Kantor BPMP Blok A 08, Amban, Kec. Manokwari Bar., Kabupaten Manokwari",PAPUA BARAT,98312.0,Indonesia,,-0.8426003,134.0764459,https://maps.google.com/?cid=0x0:0xb40b6b1fa9382192
perumahan,Komplek perumahan,Rumah Pak Jefri,"5375+929, Jl. Gn. Salju, Amban, Kec. Manokwari Bar., Kabupaten Manokwari, Papua Bar. 98314","Jl. Gn. Salju, Amban, Kec. Manokwari Bar., Kabupaten Manokwari",PAPUA BARAT,98314.0,Indonesia,,-0.8365876,134.057649,https://maps.google.com/?cid=0x0:0x4d2827c9f80a4f7
perumahan,Komplek perumahan,RUMAH VAR,"5355+R69, Amban, Kec. Manokwari Bar., Kabupaten Manokwari, Papua Bar. 98312","Amban, Kec. Manokwari Bar., Kabupaten Manokwari",PAPUA BARAT,98312.0,Indonesia,,-0.840367,134.0581282,https://maps.google.com/?cid=0x0:0x1e1d56caa2ce0b7c
perumahan,Komplek perumahan,Amban pante petrus kafiar,"527X+79X, Amban, Kec. Manokwari Bar., Kabupaten Manokwari, Papua Bar. 98314","Amban, Kec. Manokwari Bar., Kabupaten Manokwari",PAPUA BARAT,98314.0,Indonesia,81273978124.0,-0.8367524,134.0484728,https://maps.google.com/?cid=0x0:0x5de78194a650bea3
perumahan,perumahan,FMâs House,"536C+WXG, Amban, Kec. Manokwari Bar., Kabupaten Manokwari, Papua Bar. 98314","Amban, Kec. Manokwari Bar., Kabupaten Manokwari",PAPUA BARAT,98314.0,Indonesia,,-0.8376113,134.0720952,https://maps.google.com/?cid=0x0:0x692da94cb0575357
perumahan,perumahan,Distrik Manokwari,"Kabupaten Manokwari, Papua Bar.","Kabupaten Manokwari, Papua Bar.",PAPUA BARAT,,Indonesia,,-0.8912103,134.046322,https://maps.google.com/?cid=0x0:0x25e95a286c9053b8
perumahan,Komplek perumahan,Perumahan FAJAR SOWI DAMAI,"Sowi, Distrik Manokwari, Kabupaten Manokwari, Papua Bar. 98315","Distrik Manokwari, Kabupaten Manokwari",PAPUA BARAT,98315.0,Indonesia,81344004527.0,-0.8974311,134.0305967,https://maps.google.com/?cid=0x0:0x91ce0cb77fe5af79
perumahan,Pembangunan Perumahan,Perumahan Alamanda Sowi Gunung,"Jalan Sowi Gunung, Sowi, Distrik Manokwari, Kabupaten Manokwari, Papua Bar. 98315","Sowi, Distrik Manokwari, Kabupaten Manokwari",PAPUA BARAT,98315.0,Indonesia,,-0.8867522,134.024501,https://maps.google.com/?cid=0x0:0xd8af7a46490c92ca
perumahan,Gedung Apartemen,Perumahan Sogun Permai 2,"428H+49F, Sowi, Distrik Manokwari, Kabupaten Manokwari, Papua Bar. 98315","Sowi, Distrik Manokwari, Kabupaten Manokwari",PAPUA BARAT,98315.0,Indonesia,,-0.884698,134.0284292,https://maps.google.com/?cid=0x0:0x1d03e9a9f3921c7f
perumahan,Pembangunan Perumahan,"Kaplingan Perum Alamanda, sowi gunung","427F+2XF, Perumahan KPR Alamanda, Sowi, Distrik Manokwari, Kabupaten Manokwari, Papua Bar. 98315","Perumahan KPR Alamanda, Sowi, Distrik Manokwari, Kabupaten Manokwari",PAPUA BARAT,98315.0,Indonesia,,-0.8874408,134.0249173,https://maps.google.com/?cid=0x0:0x2095b3e0552841c7
perumahan,Komplek perumahan,Perumahan Gerbang Arfai Indah,"32HR+5R2, Sowi, Distrik Manokwari, Kabupaten Manokwari, Papua Bar. 98315","Sowi, Distrik Manokwari, Kabupaten Manokwari",PAPUA BARAT,98315.0,Indonesia,81343077784.0,-0.9221016,134.0420128,https://maps.google.com/?cid=0x0:0x5f5179e73d7ee10f
perumahan,Komplek perumahan,Perumahan Sogun Hills,"423V+423, Sowi, Distrik Manokwari, Kabupaten Manokwari, Papua Bar. 98315","Sowi, Distrik Manokwari, Kabupaten Manokwari",PAPUA BARAT,98315.0,Indonesia,,-0.8972264,134.04255,https://maps.google.com/?cid=0x0:0xfc12e5325de2b592
perumahan,Komplek perumahan,Sogun Permai 5,"429F+V9J, Jl. Drs Esau Sesa, Sowi, Distrik Manokwari, Kabupaten Manokwari, Papua Bar. 98315","Jl. Drs Esau Sesa, Sowi, Distrik Manokwari, Kabupaten Manokwari",PAPUA BARAT,98315.0,Indonesia,,-0.8802862,134.0233934,https://maps.google.com/?cid=0x0:0x9e11038dcbfdad68
perumahan,Komplek perumahan,Perumahan Weluri Indah Regency Anday (WIRA),"Weluri, Distrik Manokwari, Kabupaten Manokwari, Papua Bar. 98315","Distrik Manokwari, Kabupaten Manokwari",PAPUA BARAT,98315.0,Indonesia,82138383858.0,-0.9348876,133.9951047,https://maps.google.com/?cid=0x0:0xce82f1739955bfbb
perumahan,Pembangunan Perumahan,GRIYA PERMATA SOWI,"32VH+RRC, Sowi, Distrik Manokwari, Kabupaten Manokwari, Papua Bar. 98315","Sowi, Distrik Manokwari, Kabupaten Manokwari",PAPUA BARAT,98315.0,Indonesia,,-0.9054338,134.0295221,https://maps.google.com/?cid=0x0:0x1f3998515c9f0263
perumahan,Taman,Perumahan Bukit Sowi Indah,"426J+HMF, Unnamed Road, Sowi, Distrik Manokwari, Kabupaten Manokwari, Papua Bar. 98315","Unnamed Road, Sowi, Distrik Manokwari, Kabupaten Manokwari",PAPUA BARAT,98315.0,Indonesia,,-0.8885742,134.0316604,https://maps.google.com/?cid=0x0:0xe4de0d0d8a8f199e
perumahan,Komplek perumahan,Perumahan Puncak Arfai Permai,"Unnamed Road, Masiepi, Distrik Manokwari, Kabupaten Manokwari, Papua Bar. 98315","Masiepi, Distrik Manokwari, Kabupaten Manokwari",PAPUA BARAT,98315.0,Indonesia,,-0.9119357,134.027256,https://maps.google.com/?cid=0x0:0xd8810083021faa5e
perumahan,perumahan,Rini's Home,"427H+8G6, Sowi, Distrik Manokwari, Kabupaten Manokwari, Papua Bar. 98315","Sowi, Distrik Manokwari, Kabupaten Manokwari",PAPUA BARAT,98315.0,Indonesia,,-0.8867125,134.0287656,https://maps.google.com/?cid=0x0:0x4b5d5328a9582260
perumahan,Komplek perumahan,Perumahan Sowi Green Park,"Dist, Jl. Trikora Sowi No.II, Sowi, Distrik Manokwari, Kabupaten Manokwari, Papua Bar. 98315","Jl. Trikora Sowi No.II, Sowi, Distrik Manokwari, Kabupaten Manokwari",PAPUA BARAT,98315.0,Indonesia,,-0.8981374,134.0371141,https://maps.google.com/?cid=0x0:0xb105897417485861
perumahan,perumahan,Papua Bar. 98311,"Kec. Manokwari Tim., Kabupaten Manokwari, Papua Bar.","Kabupaten Manokwari, Papua Bar.",PAPUA BARAT,,Indonesia,,-0.853122,134.1102895,https://maps.google.com/?cid=0x0:0x327a91d22239a4d5
perumahan,Pembangunan Perumahan,Perumahan Susweni Indah Permai,"43VW+386, Sunsweni, Kec. Manokwari Tim., Kabupaten Manokwari, Papua Bar. 98311","Sunsweni, Kec. Manokwari Tim., Kabupaten Manokwari",PAPUA BARAT,98311.0,Indonesia,8114824788.0,-0.8573435,134.0957786,https://maps.google.com/?cid=0x0:0x1e527cb9e6dcb551
perumahan,Kantor Pemerintahan Daerah,Perumahan DPR Provinsi Papua Barat,"44JF+8F5, Unnamed Road, Tim, Sunsweni, Kec. Manokwari Tim., Kabupaten Manokwari, Papua Bar. 98313","Unnamed Road, Tim, Sunsweni, Kec. Manokwari Tim., Kabupaten Manokwari",PAPUA BARAT,98313.0,Indonesia,,-0.8692357,134.1237324,https://maps.google.com/?cid=0x0:0x35f4d186a75391d8
perumahan,Komplek perumahan,"Kediaman SekDa PB, Susweni","44V9+RGX, Aipiri, Kec. Manokwari Tim., Kabupaten Manokwari, Papua Bar. 98311","Aipiri, Kec. Manokwari Tim., Kabupaten Manokwari",PAPUA BARAT,98311.0,Indonesia,,-0.8553879,134.1188722,https://maps.google.com/?cid=0x0:0x7af552fba8a26dcd
perumahan,Komplek perumahan,Ayambori Residence,"43PR+R8V, Ayambori, Kec. Manokwari Tim., Kabupaten Manokwari, Papua Bar. 98311","Ayambori, Kec. Manokwari Tim., Kabupaten Manokwari",PAPUA BARAT,98311.0,Indonesia,81247778163.0,-0.8628977,134.0907858,https://maps.google.com/?cid=0x0:0x57c173d7b377daf9
perumahan,perumahan,Susweni wamnai,"44Q6+3G5, Sunsweni, Kec. Manokwari Tim., Kabupaten Manokwari, Papua Bar.","Kabupaten Manokwari, Papua Bar.",PAPUA BARAT,,Indonesia,,-0.8625159,134.1123095,https://maps.google.com/?cid=0x0:0xdb542003e6be64ef
perumahan,Pembangunan Perumahan,Manggowi (Perum Wororomi),"43CV+QCX, Jl. Pasir Putih, Pasir Putih, Kec. Manokwari Tim., Kabupaten Manokwari, Papua Bar. 98313","Jl. Pasir Putih, Pasir Putih, Kec. Manokwari Tim., Kabupaten Manokwari",PAPUA BARAT,98313.0,Indonesia,,-0.8780148,134.0935959,https://maps.google.com/?cid=0x0:0x656bd9a40c4792bf
perumahan,Komplek perumahan,Rumah Andi Ariks,"44J5+3JR, Pantai, Pasir Putih, Kec. Manokwari Tim., Kabupaten Manokwari, Papua Bar. 98313","Pantai, Pasir Putih, Kec. Manokwari Tim., Kabupaten Manokwari",PAPUA BARAT,98313.0,Indonesia,,-0.8695591,134.1084214,https://maps.google.com/?cid=0x0:0xac841e423c28e383
perumahan,Komplek perumahan,Ayambori,"43PQ+3QX, Ayambori, Kec. Manokwari Tim., Kabupaten Manokwari, Papua Bar. 98311","Ayambori, Kec. Manokwari Tim., Kabupaten Manokwari",PAPUA BARAT,98311.0,Indonesia,,-0.864756,134.0894705,https://maps.google.com/?cid=0x0:0x8b8d760d3b11b7b9
perumahan,Komplek perumahan,Angrem,"Jl. Bhayangkara No.1, Manokwari Tim., Kec. Manokwari Bar., Kabupaten Manokwari, Papua Bar. 98312","Manokwari Tim., Kec. Manokwari Bar., Kabupaten Manokwari",PAPUA BARAT,98312.0,Indonesia,,-0.8715083,134.074822,https://maps.google.com/?cid=0x0:0x8be026ffc6390fd8
perumahan,Gedung Apartemen,Kampung Ambon atas,"Jl. Sabang No.24, Manokwari Tim., Kec. Manokwari Bar., Kabupaten Manokwari, Papua Bar. 98311","Manokwari Tim., Kec. Manokwari Bar., Kabupaten Manokwari",PAPUA BARAT,98311.0,Indonesia,85369783612.0,-0.8697416,134.0807413,https://maps.google.com/?cid=0x0:0x1fd186ea6323b72a
perumahan,Komplek perumahan,Arowi 1,"44FF+JXP, Arowi, Kec. Manokwari Tim., Kabupaten Manokwari, Papua Bar. 98313","Arowi, Kec. Manokwari Tim., Kabupaten Manokwari",PAPUA BARAT,98313.0,Indonesia,,-0.8759163,134.1249404,https://maps.google.com/?cid=0x0:0x130c1a700cf22d54
perumahan,Komplek perumahan,Putri,"43QR+WV3, Tim, Ayambori, Kec. Manokwari Tim., Kabupaten Manokwari, Papua Bar. 98311","Tim, Ayambori, Kec. Manokwari Tim., Kabupaten Manokwari",PAPUA BARAT,98311.0,Indonesia,,-0.8602416,134.0921721,https://maps.google.com/?cid=0x0:0x84603944905591d6
perumahan,Pembangunan Perumahan,Rumah Keluarga Alm.Socrates Duwiri,"Jl. Aru No.3, Manokwari Tim., kampung ambon, Kabupaten Manokwari, Papua Bar. 98311","Manokwari Tim., kampung ambon, Kabupaten Manokwari",PAPUA BARAT,98311.0,Indonesia,,-0.8710527,134.080733,https://maps.google.com/?cid=0x0:0xdc17b55562bd4afd
perumahan,perumahan,Papua Bar. 98313,"Kec. Manokwari Tim., Kabupaten Manokwari, Papua Bar.","Kabupaten Manokwari, Papua Bar.",PAPUA BARAT,,Indonesia,,-0.8667845,134.1197927,https://maps.google.com/?cid=0x0:0xc87b5f10f76e2d0f
perumahan,Kantor Pemerintahan Daerah,Perumahan DPR Provinsi Papua Barat,"44JF+8F5, Unnamed Road, Tim, Sunsweni, Kec. Manokwari Tim., Kabupaten Manokwari, Papua Bar. 98313","Unnamed Road, Tim, Sunsweni, Kec. Manokwari Tim., Kabupaten Manokwari",PAPUA BARAT,98313.0,Indonesia,,-0.8692357,134.1237324,https://maps.google.com/?cid=0x0:0x35f4d186a75391d8
perumahan,Pembangunan Perumahan,Manggowi (Perum Wororomi),"43CV+QCX, Jl. Pasir Putih, Pasir Putih, Kec. Manokwari Tim., Kabupaten Manokwari, Papua Bar. 98313","Jl. Pasir Putih, Pasir Putih, Kec. Manokwari Tim., Kabupaten Manokwari",PAPUA BARAT,98313.0,Indonesia,,-0.8780148,134.0935959,https://maps.google.com/?cid=0x0:0x656bd9a40c4792bf
perumahan,Komplek perumahan,Kompleks Perumahan Bakaro Permai no 14,"44HC+XWV, Jl. Pasir Putih, Sunsweni, Kec. Manokwari Tim., Kabupaten Manokwari, Papua Bar. 98313","Jl. Pasir Putih, Sunsweni, Kec. Manokwari Tim., Kabupaten Manokwari",PAPUA BARAT,98313.0,Indonesia,,-0.8700061,134.1222979,https://maps.google.com/?cid=0x0:0xe31b20efefd9ab2b
perumahan,Komplek perumahan,Arowi 1,"44FF+JXP, Arowi, Kec. Manokwari Tim., Kabupaten Manokwari, Papua Bar. 98313","Arowi, Kec. Manokwari Tim., Kabupaten Manokwari",PAPUA BARAT,98313.0,Indonesia,,-0.8759163,134.1249404,https://maps.google.com/?cid=0x0:0x130c1a700cf22d54
perumahan,perumahan,Susweni wamnai,"44Q6+3G5, Sunsweni, Kec. Manokwari Tim., Kabupaten Manokwari, Papua Bar.","Kabupaten Manokwari, Papua Bar.",PAPUA BARAT,,Indonesia,,-0.8625159,134.1123095,https://maps.google.com/?cid=0x0:0xdb542003e6be64ef
perumahan,perumahan,Rumah kediaman,"44Q6+3G5, Sunsweni, Kec. Manokwari Tim., Kabupaten Manokwari, Papua Bar.","Kabupaten Manokwari, Papua Bar.",PAPUA BARAT,,Indonesia,,-0.862508,134.1123066,https://maps.google.com/?cid=0x0:0xa4043ada778ea48c
perumahan,Komplek perumahan,Rumah Andris Ariks,"44J5+3JR, Pantai, Pasir Putih, Kec. Manokwari Tim., Kabupaten Manokwari, Papua Bar. 98313","Pantai, Pasir Putih, Kec. Manokwari Tim., Kabupaten Manokwari",PAPUA BARAT,98313.0,Indonesia,,-0.8695143,134.1084248,https://maps.google.com/?cid=0x0:0x8657783400484203
perumahan,Perhimpunan Pengembang Perumahan,Lokasi baru,"43HV+6V5, Kampung Metmotjhon, Kec. Manokwari Tim., Kabupaten Manokwari, Papua Bar.","Kabupaten Manokwari, Papua Bar.",PAPUA BARAT,,Indonesia,,-0.8719937,134.0947243,https://maps.google.com/?cid=0x0:0x9479985e3aa4a190
perumahan,Komplek perumahan,Susweni Manokwari timur,"44Q5+7RC, Sunsweni, Kec. Manokwari Tim., Kabupaten Manokwari, Papua Bar.","Kabupaten Manokwari, Papua Bar.",PAPUA BARAT,,Indonesia,82256899502.0,-0.8618246,134.1095083,https://maps.google.com/?cid=0x0:0xa62d5af56e7ad1ec
perumahan,Pembangunan Perumahan,Perumahan Susweni Indah Permai,"43VW+386, Sunsweni, Kec. Manokwari Tim., Kabupaten Manokwari, Papua Bar. 98311","Sunsweni, Kec. Manokwari Tim., Kabupaten Manokwari",PAPUA BARAT,98311.0,Indonesia,8114824788.0,-0.8573435,134.0957786,https://maps.google.com/?cid=0x0:0x1e527cb9e6dcb551
perumahan,Komplek perumahan,Komplex RAS Mambri OmnAp_Ompai Napi,"44FF+XCV, Arowi, Kec. Manokwari Tim., Kabupaten Manokwari, Papua Bar. 98313","Arowi, Kec. Manokwari Tim., Kabupaten Manokwari",PAPUA BARAT,98313.0,Indonesia,,-0.8750125,134.1235469,https://maps.google.com/?cid=0x0:0xe194c2913be44beb
perumahan,Komplek perumahan,Samuel Brz,"44CC+VFP, Jl. Pasir Putih, Arowi, Kec. Manokwari Tim., Kabupaten Manokwari, Papua Bar. 98313","Jl. Pasir Putih, Arowi, Kec. Manokwari Tim., Kabupaten Manokwari",PAPUA BARAT,98313.0,Indonesia,,-0.878577,134.11948,https://maps.google.com/?cid=0x0:0x9bdb19beb059c5a3
perumahan,Komplek perumahan,Perum,"5358+6PF, PERUM GRIYA MANGGUAPI, Amban, Kec. Manokwari Bar., Kabupaten Manokwari, Papua Bar. 98312","PERUM GRIYA MANGGUAPI, Amban, Kec. Manokwari Bar., Kabupaten Manokwari",PAPUA BARAT,98312.0,Indonesia,,-0.8419454,134.0668044,https://maps.google.com/?cid=0x0:0x6b702e21ee506178
perumahan,Komplek perumahan,Sogun Permai 5,"429F+V9J, Jl. Drs Esau Sesa, Sowi, Distrik Manokwari, Kabupaten Manokwari, Papua Bar. 98315","Jl. Drs Esau Sesa, Sowi, Distrik Manokwari, Kabupaten Manokwari",PAPUA BARAT,98315.0,Indonesia,,-0.8802862,134.0233934,https://maps.google.com/?cid=0x0:0x9e11038dcbfdad68
perumahan,perumahan,Kec. Manokwari Utara,"Kabupaten Manokwari, Papua Bar.","Kabupaten Manokwari, Papua Bar.",PAPUA BARAT,,Indonesia,,-0.7545947,133.9845162,https://maps.google.com/?cid=0x0:0x4e2d072dfe215e65
perumahan,Pembangunan Perumahan,Perumahan Alamanda Sowi Gunung,"Jalan Sowi Gunung, Sowi, Distrik Manokwari, Kabupaten Manokwari, Papua Bar. 98315","Sowi, Distrik Manokwari, Kabupaten Manokwari",PAPUA BARAT,98315.0,Indonesia,,-0.8867522,134.024501,https://maps.google.com/?cid=0x0:0xd8af7a46490c92ca
perumahan,Gedung Apartemen,Perumahan Sogun Permai 2,"428H+49F, Sowi, Distrik Manokwari, Kabupaten Manokwari, Papua Bar. 98315","Sowi, Distrik Manokwari, Kabupaten Manokwari",PAPUA BARAT,98315.0,Indonesia,,-0.884698,134.0284292,https://maps.google.com/?cid=0x0:0x1d03e9a9f3921c7f
perumahan,Komplek perumahan,Perumahan FAJAR SOWI DAMAI,"Sowi, Distrik Manokwari, Kabupaten Manokwari, Papua Bar. 98315","Distrik Manokwari, Kabupaten Manokwari",PAPUA BARAT,98315.0,Indonesia,81344004527.0,-0.8974311,134.0305967,https://maps.google.com/?cid=0x0:0x91ce0cb77fe5af79
perumahan,Kantor Perusahaan,Perumahan Fulica Land,"427H+G4R, Sowi, Distrik Manokwari, Kabupaten Manokwari, Papua Bar. 98315","Sowi, Distrik Manokwari, Kabupaten Manokwari",PAPUA BARAT,98315.0,Indonesia,,-0.8861329,134.0277521,https://maps.google.com/?cid=0x0:0x9ebf7ba976ef15eb
perumahan,Komplek perumahan,Kampung Inyei,"6V8R+5XR, Inyei, Kec. Manokwari Utara, Kabupaten Manokwari, Papua Bar. 98315","Inyei, Kec. Manokwari Utara, Kabupaten Manokwari",PAPUA BARAT,98315.0,Indonesia,,-0.7845038,133.8923899,https://maps.google.com/?cid=0x0:0x1cbc3635bbda480f
perumahan,Komplek perumahan,Kampung inoduas,"52FV+9M, Amban, Kec. Manokwari Utara, Kabupaten Manokwari, Papua Bar.","Kabupaten Manokwari, Papua Bar.",PAPUA BARAT,,Indonesia,,-0.8269366,134.0439333,https://maps.google.com/?cid=0x0:0x5a460870bfd245e0
perumahan,Perumahan,Perumahan Anggori Persada Regency,"537J+286, Jl. Litbang, Amban, Kec. Manokwari Bar., Kabupaten Manokwari, Papua Bar. 98312","Jl. Litbang, Amban, Kec. Manokwari Bar., Kabupaten Manokwari",PAPUA BARAT,98312.0,Indonesia,,-0.8374722,134.0807664,https://maps.google.com/?cid=0x0:0x941b275d58c08a1
perumahan,Pembangunan Perumahan,Perumahan inggramui,"Inggramui, Kec. Manokwari Bar., Kabupaten Manokwari, Papua Bar. 98312","Kec. Manokwari Bar., Kabupaten Manokwari",PAPUA BARAT,98312.0,Indonesia,,-0.8562476,134.0415231,https://maps.google.com/?cid=0x0:0x21f01fbee0d708b6
perumahan,Dealer mobil,JUAL MOTOR HONDA TERBARU,"Sowi, Distrik Manokwari, Kabupaten Manokwari, Papua Bar. 98315","Distrik Manokwari, Kabupaten Manokwari",PAPUA BARAT,98315.0,Indonesia,82198247643.0,-0.8845866,134.0283138,https://maps.google.com/?cid=0x0:0x4186e2ce1997ab25
perumahan,Pembangunan Perumahan,Inoduas,"52VM+JMP, Inoduas, Kec. Manokwari Utara, Kabupaten Manokwari, Papua Bar. 98314","Inoduas, Kec. Manokwari Utara, Kabupaten Manokwari",PAPUA BARAT,98314.0,Indonesia,,-0.8059015,134.0341961,https://maps.google.com/?cid=0x0:0x2c09688b355cb701
perumahan,Balai masyarakat,Balai Kampung Indou-Oufa,"7W6M+XC, Menaito / Mubraidiba, Kec. Manokwari Utara, Kabupaten Manokwari, Papua Bar.","Kabupaten Manokwari, Papua Bar.",PAPUA BARAT,,Indonesia,,-0.737576,133.9335735,https://maps.google.com/?cid=0x0:0xa88afeb4d7821fbc
perumahan,Komplek perumahan,kampung Mubraidiba,"7W7J+RQ, Menaito / Mubraidiba, Kec. Manokwari Utara, Kabupaten Manokwari, Papua Bar.","Kabupaten Manokwari, Papua Bar.",PAPUA BARAT,,Indonesia,,-0.7354244,133.9319373,https://maps.google.com/?cid=0x0:0x1cd8a4ce15fccd36
perumahan,perumahan,Distrik Masni,"Kabupaten Manokwari, Papua Bar.","Kabupaten Manokwari, Papua Bar.",PAPUA BARAT,,Indonesia,,-0.7868548,133.728488,https://maps.google.com/?cid=0x0:0x887c8da652d5665d
perumahan,Komplek perumahan,RUMAH EVI,"5Q9C+CQ9, Unnamed Road, Meiforga, Masni, Manokwari Regency, West Papua 98357","Unnamed Road, Meiforga, Masni, Manokwari Regency",PAPUA BARAT,98357.0,Indonesia,,-0.8314603,133.7719723,https://maps.google.com/?cid=0x0:0x835e140097cb836d
perumahan,Komplek perumahan,Posko unipa 2023/2024,"5PRJ+X88, Bowi Subur, Distrik Masni, Kabupaten Manokwari, Papua Bar. 98357","Bowi Subur, Distrik Masni, Kabupaten Manokwari",PAPUA BARAT,98357.0,Indonesia,82199626277.0,-0.8075872,133.7308432,https://maps.google.com/?cid=0x0:0x11a902b4e03345dc
perumahan,Komplek perumahan,Satia Monim House,"6P8F+CQV, Sumber Boga, Distrik Masni, Kabupaten Manokwari, Papua Bar. 98357","Sumber Boga, Distrik Masni, Kabupaten Manokwari",PAPUA BARAT,98357.0,Indonesia,,-0.783894,133.7244105,https://maps.google.com/?cid=0x0:0x6cd4847210596f78
perumahan,Asrama Sekolah,TK SANTA MARIA 1 SP 8 MASNI,"6P83+F85, Wariori, Distrik Masni, Kabupaten Manokwari, Papua Bar. 98357","Wariori, Distrik Masni, Kabupaten Manokwari",PAPUA BARAT,98357.0,Indonesia,,-0.7838628,133.7033572,https://maps.google.com/?cid=0x0:0x11a6434ef5a00edc
perumahan,Minimarket,Kompleks balagu,"6MFX+CP6, Wariori, Distrik Masni, Kabupaten Manokwari, Papua Bar. 98357","Wariori, Distrik Masni, Kabupaten Manokwari",PAPUA BARAT,98357.0,Indonesia,,-0.7754878,133.6985352,https://maps.google.com/?cid=0x0:0x177df3b1332de92c
perumahan,Pembangunan Perumahan,Nasifa,"5PHJ+592, Bowi Subur, Distrik Masni, Kabupaten Manokwari, Papua Bar. 98357","Bowi Subur, Distrik Masni, Kabupaten Manokwari",PAPUA BARAT,98357.0,Indonesia,,-0.8221094,133.730885,https://maps.google.com/?cid=0x0:0x94d6f6973a72356d
perumahan,Komplek perumahan,Rissa,"5P28+9JX, Membowi, Distrik Masni, Kabupaten Manokwari, Papua Bar. 98357","Membowi, Distrik Masni, Kabupaten Manokwari",PAPUA BARAT,98357.0,Indonesia,,-0.8490024,133.7166089,https://maps.google.com/?cid=0x0:0xf28e21b4cf2f017d
perumahan,Komplek perumahan,Wardiaman Satia House,"6P8F+9WF, Sumber Boga, Distrik Masni, Kabupaten Manokwari, Papua Bar. 98357","Sumber Boga, Distrik Masni, Kabupaten Manokwari",PAPUA BARAT,98357.0,Indonesia,,-0.78407,133.7247964,https://maps.google.com/?cid=0x0:0x2945538497588e3d
perumahan,Pembangunan Perumahan,Distrik Masni Kampung sumber boga,"6P4G+3WG, Sumber Boga, Distrik Masni, Kabupaten Manokwari, Papua Bar.","Kabupaten Manokwari, Papua Bar.",PAPUA BARAT,,Indonesia,,-0.7948109,133.7273153,https://maps.google.com/?cid=0x0:0xe981450fd96b35a
perumahan,Komplek perumahan,Masni 19,"6P7H+795, Sumber Boga, Distrik Masni, Kabupaten Manokwari, Papua Bar.","Kabupaten Manokwari, Papua Bar.",PAPUA BARAT,,Indonesia,,-0.7868548,133.728488,https://maps.google.com/?cid=0x0:0xbd9bfbc375086f09
perumahan,Komplek perumahan,Isok meyah Irman,"4QW5+P2P, Makwan, Distrik Masni, Kabupaten Manokwari, Papua Bar. 98357","Makwan, Distrik Masni, Kabupaten Manokwari",PAPUA BARAT,98357.0,Indonesia,,-0.8531745,133.7575716,https://maps.google.com/?cid=0x0:0x8c2c513e0837e08
perumahan,Komplek perumahan,Sumber Boga,"6P7G+74C, Sumber Boga, Distrik Masni, Kabupaten Manokwari, Papua Bar. 98357","Sumber Boga, Distrik Masni, Kabupaten Manokwari",PAPUA BARAT,98357.0,Indonesia,,-0.7868201,133.7252805,https://maps.google.com/?cid=0x0:0xe316734dcbc0eeea
perumahan,Komplek perumahan,Rumah kepala kampung muara prafi,"5QM6+C47, Muara Prafi, Distrik Masni, Kabupaten Manokwari, Papua Bar. 98357","Muara Prafi, Distrik Masni, Kabupaten Manokwari",PAPUA BARAT,98357.0,Indonesia,,-0.8164662,133.7603067,https://maps.google.com/?cid=0x0:0x591cb631ce456c86
perumahan,perumahan,Distrik Prafi,"Kabupaten Manokwari, Papua Bar.","Kabupaten Manokwari, Papua Bar.",PAPUA BARAT,,Indonesia,,-0.8781986,133.8274668,https://maps.google.com/?cid=0x0:0xb111fb1aee64e776
perumahan,Komplek perumahan,Prafi sp3,"Kompleks psar sp2, Desay, Distrik Prafi, Kabupaten Manokwari, Papua Bar.","Kabupaten Manokwari, Papua Bar.",PAPUA BARAT,,Indonesia,,-0.9149309,133.87784,https://maps.google.com/?cid=0x0:0xcd1d345300a015f2
perumahan,perumahan,Prafi,"4RF6+58X, Jalur 7, Waseki Indah, Distrik Prafi, Kabupaten Manokwari, Papua Bar. 98356","Jalur 7, Waseki Indah, Distrik Prafi, Kabupaten Manokwari",PAPUA BARAT,98356.0,Indonesia,,-0.8770116,133.8108534,https://maps.google.com/?cid=0x0:0x498487ea34232a4b
perumahan,Balai masyarakat,Kampung Waseki Pop Distrik Prafi,"4R48+R7G Sp3, Waseki, Distrik Prafi, Kabupaten Manokwari, Papua Bar. 98356","Waseki, Distrik Prafi, Kabupaten Manokwari",PAPUA BARAT,98356.0,Indonesia,,-0.8929369,133.8157082,https://maps.google.com/?cid=0x0:0x297c645b273505cf
perumahan,Pembangunan Perumahan,Udapi hilir,"4VP5+3F9, Jl, Udapi Hilir, Distrik Prafi, Kabupaten Manokwari, Papua Bar.","Kabupaten Manokwari, Papua Bar.",PAPUA BARAT,,Indonesia,,-0.8648367,133.8587301,https://maps.google.com/?cid=0x0:0x45d5f2cd1ddfd356
perumahan,Perhimpunan Pengembang Perumahan,Prafi,"4R5V+8CJ, Udapi Hilir, Distrik Prafi, Kabupaten Manokwari, Papua Bar. 98356","Udapi Hilir, Distrik Prafi, Kabupaten Manokwari",PAPUA BARAT,98356.0,Indonesia,,-0.8915486,133.8435219,https://maps.google.com/?cid=0x0:0x5bdf5728536f8ee8
perumahan,Pembangunan Perumahan,Pak Hasim,"sp3, Jalur 2, Waseki Indah, Distrik Prafi, Kabupaten Manokwari, Papua Bar. 98356","Jalur 2, Waseki Indah, Distrik Prafi, Kabupaten Manokwari",PAPUA BARAT,98356.0,Indonesia,,-0.8824042,133.8128836,https://maps.google.com/?cid=0x0:0xd334c16140bd1305
perumahan,Komplek perumahan,Rumah Pak Lusimin,"4RCH+R69, Udapi Hilir, Distrik Prafi, Kabupaten Manokwari, Papua Bar. 98356","Udapi Hilir, Distrik Prafi, Kabupaten Manokwari",PAPUA BARAT,98356.0,Indonesia,,-0.8782704,133.828904,https://maps.google.com/?cid=0x0:0xcbc0a234e6ca2956
perumahan,Pusat Perbelanjaan,Prafi indah,"4RCH+P27, Udapi Hilir, Distrik Prafi, Kabupaten Manokwari, Papua Bar.","Kabupaten Manokwari, Papua Bar.",PAPUA BARAT,,Indonesia,,-0.8782208,133.8275491,https://maps.google.com/?cid=0x0:0xce174a3e35f9072b
perumahan,Komplek perumahan,Kompleks remas,"4V42+HM7, Lismaungu, Distrik Prafi, Kabupaten Manokwari, Papua Bar. 98356","Lismaungu, Distrik Prafi, Kabupaten Manokwari",PAPUA BARAT,98356.0,Indonesia,,-0.8935875,133.8516719,https://maps.google.com/?cid=0x0:0xa86db8764710fa6f
perumahan,Perhimpunan Pengembang Perumahan,SP3,"4RC8+36F, Jalur 1, Waseki Indah, Distrik Prafi, Kabupaten Manokwari, Papua Bar. 98356","Jalur 1, Waseki Indah, Distrik Prafi, Kabupaten Manokwari",PAPUA BARAT,98356.0,Indonesia,,-0.8775925,133.817707,https://maps.google.com/?cid=0x0:0x455986870f770a9e
perumahan,Komplek perumahan,Nasirun,"3VJV+XHG, Prafi Mulia, Distrik Prafi, Kabupaten Manokwari, Papua Bar.","Kabupaten Manokwari, Papua Bar.",PAPUA BARAT,,Indonesia,,-0.9175736,133.8939458,https://maps.google.com/?cid=0x0:0xbfd8f6d798d4aea
perumahan,Otoritas Perumahan,Perumahan,"4Q6W+WXJ, Kampung Baru AMIN JAYA, Waseki Indah, Distrik Prafi, Kabupaten Manokwari, Papua Bar. 98356","Kampung Baru AMIN JAYA, Waseki Indah, Distrik Prafi, Kabupaten Manokwari",PAPUA BARAT,98356.0,Indonesia,,-0.8876588,133.7973825,https://maps.google.com/?cid=0x0:0x52b2a769cf3df929
perumahan,Komplek perumahan,Tarsono,"4R8J+XMJ, Unnamed Road, Udapi Hilir, Distrik Prafi, Kabupaten Manokwari, Papua Bar. 98356","Unnamed Road, Udapi Hilir, Distrik Prafi, Kabupaten Manokwari",PAPUA BARAT,98356.0,Indonesia,,-0.8825345,133.8316271,https://maps.google.com/?cid=0x0:0xb6593ee32cf4e3fc
perumahan,perumahan,Papua Bar. 98356,"Kabupaten Manokwari, Papua Bar.","Kabupaten Manokwari, Papua Bar.",PAPUA BARAT,,Indonesia,,-0.944854,133.7717073,https://maps.google.com/?cid=0x0:0x8f6cbc943a6f12d8
perumahan,Balai masyarakat,Kampung Waseki Pop Distrik Prafi,"4R48+R7G Sp3, Waseki, Distrik Prafi, Kabupaten Manokwari, Papua Bar. 98356","Waseki, Distrik Prafi, Kabupaten Manokwari",PAPUA BARAT,98356.0,Indonesia,,-0.8929369,133.8157082,https://maps.google.com/?cid=0x0:0x297c645b273505cf
perumahan,Perhimpunan Pengembang Perumahan,SP3,"4RC8+36F, Jalur 1, Waseki Indah, Distrik Prafi, Kabupaten Manokwari, Papua Bar. 98356","Jalur 1, Waseki Indah, Distrik Prafi, Kabupaten Manokwari",PAPUA BARAT,98356.0,Indonesia,,-0.8775925,133.817707,https://maps.google.com/?cid=0x0:0x455986870f770a9e
perumahan,Otoritas Perumahan,Perumahan,"4Q6W+WXJ, Kampung Baru AMIN JAYA, Waseki Indah, Distrik Prafi, Kabupaten Manokwari, Papua Bar. 98356","Kampung Baru AMIN JAYA, Waseki Indah, Distrik Prafi, Kabupaten Manokwari",PAPUA BARAT,98356.0,Indonesia,,-0.8876588,133.7973825,https://maps.google.com/?cid=0x0:0x52b2a769cf3df929
perumahan,Komplek perumahan,Prafi sp3,"Kompleks psar sp2, Desay, Distrik Prafi, Kabupaten Manokwari, Papua Bar.","Kabupaten Manokwari, Papua Bar.",PAPUA BARAT,,Indonesia,,-0.9149309,133.87784,https://maps.google.com/?cid=0x0:0xcd1d345300a015f2
perumahan,Komplek perumahan,Kompleks remas,"4V42+HM7, Lismaungu, Distrik Prafi, Kabupaten Manokwari, Papua Bar. 98356","Lismaungu, Distrik Prafi, Kabupaten Manokwari",PAPUA BARAT,98356.0,Indonesia,,-0.8935875,133.8516719,https://maps.google.com/?cid=0x0:0xa86db8764710fa6f
perumahan,Komplek perumahan,Perum. Marlin Indah,"Jln. Tembus Kantor Distrk Sp.4, Udapi Hilir, Distrik Prafi, Kabupaten Manokwari, Papua Bar. 98356","Udapi Hilir, Distrik Prafi, Kabupaten Manokwari",PAPUA BARAT,98356.0,Indonesia,,-0.8789264,133.8234497,https://maps.google.com/?cid=0x0:0x6f068f0ff220cab8
perumahan,Komplek perumahan,KOPEL AMSTAR 89,"Jln. Tembus Kantor Distrk Sp.4, Udapi Hilir, Distrik Prafi, Kabupaten Manokwari, Papua Bar. 98356","Udapi Hilir, Distrik Prafi, Kabupaten Manokwari",PAPUA BARAT,98356.0,Indonesia,,-0.8780287,133.8231523,https://maps.google.com/?cid=0x0:0xfd68d6a4be0557af
perumahan,Komplek perumahan,Perumahan guru SMK,"4RCP+8W4, Udapi Hilir, Distrik Prafi, Kabupaten Manokwari, Papua Bar. 98356","Udapi Hilir, Distrik Prafi, Kabupaten Manokwari",PAPUA BARAT,98356.0,Indonesia,,-0.8792466,133.8373271,https://maps.google.com/?cid=0x0:0xe1528937faf56bd0
perumahan,Komplek perumahan,Rumah Pak Lusimin,"4RCH+R69, Udapi Hilir, Distrik Prafi, Kabupaten Manokwari, Papua Bar. 98356","Udapi Hilir, Distrik Prafi, Kabupaten Manokwari",PAPUA BARAT,98356.0,Indonesia,,-0.8782704,133.828904,https://maps.google.com/?cid=0x0:0xcbc0a234e6ca2956
perumahan,Komplek perumahan,KEDIAMAN BAPAK SYAIFUDIN,"4RG6+29M, Waseki Indah, Distrik Prafi, Kabupaten Manokwari, Papua Bar. 98356","Waseki Indah, Distrik Prafi, Kabupaten Manokwari",PAPUA BARAT,98356.0,Indonesia,85254019898.0,-0.8749224,133.8109305,https://maps.google.com/?cid=0x0:0x8678f4174afbbb8c
perumahan,Komplek perumahan,RUMAH PAK SUKARI,"4V2H+6JP, Jalur 4 Barat, Desay, Distrik Prafi, Kabupaten Manokwari, Papua Bar. 98356","Jalur 4 Barat, Desay, Distrik Prafi, Kabupaten Manokwari",PAPUA BARAT,98356.0,Indonesia,,-0.899856,133.879658,https://maps.google.com/?cid=0x0:0x2f201b1fb4a5f3ee
perumahan,Pembangunan Perumahan,Pak Hasim,"sp3, Jalur 2, Waseki Indah, Distrik Prafi, Kabupaten Manokwari, Papua Bar. 98356","Jalur 2, Waseki Indah, Distrik Prafi, Kabupaten Manokwari",PAPUA BARAT,98356.0,Indonesia,,-0.8824042,133.8128836,https://maps.google.com/?cid=0x0:0xd334c16140bd1305
perumahan,Gedung Apartemen,mbah Jogja,"4V5C+R93, Lismaungu, Distrik Prafi, Kabupaten Manokwari, Papua Bar. 98356","Lismaungu, Distrik Prafi, Kabupaten Manokwari",PAPUA BARAT,98356.0,Indonesia,82136504300.0,-0.890047,133.869904,https://maps.google.com/?cid=0x0:0x5e54abebdd2fff3a
perumahan,perumahan,Distrik Sidey,"Kabupaten Manokwari, Papua Bar.","Kabupaten Manokwari, Papua Bar.",PAPUA BARAT,,Indonesia,,-0.7605514,133.5946268,https://maps.google.com/?cid=0x0:0x8c34ad1374e4a89e
perumahan,Balai masyarakat,Kampung Wariki Distrik Sidey,"5HQ7+3WG, Wariki, Distrik Sidey, Kabupaten Manokwari, Papua Bar.","Kabupaten Manokwari, Papua Bar.",PAPUA BARAT,,Indonesia,,-0.8123137,133.5648216,https://maps.google.com/?cid=0x0:0x47cb436916783e99
perumahan,Komplek perumahan,Rumah wiwik,"6HXR+255, Sidey Baru, Distrik Sidey, Kabupaten Manokwari, Papua Bar. 98357","Sidey Baru, Distrik Sidey, Kabupaten Manokwari",PAPUA BARAT,98357.0,Indonesia,,-0.7526226,133.5900412,https://maps.google.com/?cid=0x0:0xf8713bf9bb56e7fe
perumahan,Pembangunan Perumahan,House of Mutia,"Jalur 13 Poros No.SP 10, Sidey Baru, Distrik Sidey, Kabupaten Manokwari, Papua Bar. 98357","Sidey Baru, Distrik Sidey, Kabupaten Manokwari",PAPUA BARAT,98357.0,Indonesia,,-0.7532278,133.5900418,https://maps.google.com/?cid=0x0:0x927be45e11726ab7
perumahan,Perhimpunan Pengembang Perumahan,Manggupi distrik sidey kabupaten manokwari papua barat,"5HCX+P29, Manggupi, Distrik Sidey, Kabupaten Manokwari, Papua Bar. 98357","Manggupi, Distrik Sidey, Kabupaten Manokwari",PAPUA BARAT,98357.0,Indonesia,,-0.8282249,133.5976198,https://maps.google.com/?cid=0x0:0xa05f11c36d2ac767
perumahan,Pembangunan Perumahan,Distryk sidey,"6HG2+8C4, Sidey Makmur, Distrik Sidey, Kabupaten Manokwari, Papua Bar. 98357","Sidey Makmur, Distrik Sidey, Kabupaten Manokwari",PAPUA BARAT,98357.0,Indonesia,,-0.7742257,133.5510816,https://maps.google.com/?cid=0x0:0xd6882ac0122207b5
perumahan,perumahan,The executor,"6HGQ+GR2 sp 10, Jalur 12 timur, Sidey Baru, Distrik Sidey, Kabupaten Manokwari, Papua Bar. 98357","Jalur 12 timur, Sidey Baru, Distrik Sidey, Kabupaten Manokwari",PAPUA BARAT,98357.0,Indonesia,,-0.7737318,133.5895225,https://maps.google.com/?cid=0x0:0x68ae900d4f50a1eb
perumahan,Pembangunan Perumahan,Nawa the executor projetc,"6HXR+6X6, Sidey Baru, Distrik Sidey, Kabupaten Manokwari, Papua Bar.","Kabupaten Manokwari, Papua Bar.",PAPUA BARAT,,Indonesia,,-0.7519575,133.5924059,https://maps.google.com/?cid=0x0:0x1747baacef0e01f1
perumahan,Kantor Pemerintahan Federal,Sidey Makmur,"6HG2+8C, Sidey Makmur, Distrik Sidey, Kabupaten Manokwari, Papua Bar. 98357","Sidey Makmur, Distrik Sidey, Kabupaten Manokwari",PAPUA BARAT,98357.0,Indonesia,,-0.758638,133.5522592,https://maps.google.com/?cid=0x0:0x219f65d4fdd39a88
perumahan,Pembangunan Perumahan,Sidey,"43Q6+CR7 Sp 9, Manokwari Bar., Kec. Manokwari Bar., Kabupaten Manokwari, Papua Bar.","Kabupaten Manokwari, Papua Bar.",PAPUA BARAT,,Indonesia,,-0.8614531,134.0620421,https://maps.google.com/?cid=0x0:0xb321e6993b4482d7
perumahan,Komplek perumahan,rumah dinas mbah wondo,"6HPW+X3Q, Sidey Baru, Distrik Sidey, Kabupaten Manokwari, Papua Bar. 98357","Sidey Baru, Distrik Sidey, Kabupaten Manokwari",PAPUA BARAT,98357.0,Indonesia,,-0.7617431,133.5945863,https://maps.google.com/?cid=0x0:0x56a2b4360715ef3a
perumahan,Kompleks Kondominium,Home Ayuni DRW Skincare,"Jalur 13, SP 10, Sidey Baru, Distrik Sidey, Kabupaten Manokwari, Papua Bar. 98357","SP 10, Sidey Baru, Distrik Sidey, Kabupaten Manokwari",PAPUA BARAT,98357.0,Indonesia,85282557626.0,-0.7544366,133.5888379,https://maps.google.com/?cid=0x0:0x505244fbaa02876
perumahan,Sekolah Dasar,Kaironi,"7H59+4QP, Kaironi, Distrik Sidey, Kabupaten Manokwari, Papua Bar. 98357","Kaironi, Distrik Sidey, Kabupaten Manokwari",PAPUA BARAT,98357.0,Indonesia,,-0.7421683,133.5694653,https://maps.google.com/?cid=0x0:0xd54861be2cf69d1d
perumahan,Komplek perumahan,Perumahan Guru,"7H2G+42X, Kaironi, Distrik Sidey, Kabupaten Manokwari, Papua Bar. 98357","Kaironi, Distrik Sidey, Kabupaten Manokwari",PAPUA BARAT,98357.0,Indonesia,,-0.7496329,133.5751106,https://maps.google.com/?cid=0x0:0x8ac51e3867962702
perumahan,perumahan,Kec. Tanah Rubuh,"Kabupaten Manokwari, Papua Bar.","Kabupaten Manokwari, Papua Bar.",PAPUA BARAT,,Indonesia,,-1.1718674,134.1443544,https://maps.google.com/?cid=0x0:0x2304a7a7ad451175
perumahan,Rumah Sakit,PUSKESMAS TANAH RUBUH,"V428+5M2, Jl. Manokwari - Bintuni, Ayawi, Kec. Tanah Rubuh, Kabupaten Manokwari, Papua Bar. 98315","Jl. Manokwari - Bintuni, Ayawi, Kec. Tanah Rubuh, Kabupaten Manokwari",PAPUA BARAT,98315.0,Indonesia,,-1.1496098,134.1166389,https://maps.google.com/?cid=0x0:0x766a49993c7963a2
perumahan,Pembangunan Perumahan,Wagey,"R556+HX, Wamigti, Kec. Tanah Rubuh, Kabupaten Manokwari, Papua Bar.","Kabupaten Manokwari, Papua Bar.",PAPUA BARAT,,Indonesia,,-1.1910494,134.1624973,https://maps.google.com/?cid=0x0:0xb67835937c1e7c0c
perumahan,Pembangunan Perumahan,Asset Jai mansel,"Q5MP+XX8, Wedoni, Kec. Tanah Rubuh, Kabupaten Manokwari, Papua Bar. 98315","Wedoni, Kec. Tanah Rubuh, Kabupaten Manokwari",PAPUA BARAT,98315.0,Indonesia,,-1.2150881,134.1874484,https://maps.google.com/?cid=0x0:0x16d1d68005840704
perumahan,Perhimpunan Pengembang Perumahan,Pades Wariari ...Mandepy Marisan,"Q6H2+P6, Wariari, Kec. Tanah Rubuh, Kabupaten Manokwari, Papua Bar.","Kabupaten Manokwari, Papua Bar.",PAPUA BARAT,,Indonesia,,-1.2206875,134.2005625,https://maps.google.com/?cid=0x0:0x731cb8889b56e56d
perumahan,perumahan,Kec. Tanah Rubuh,"Kabupaten Manokwari, Papua Bar.","Kabupaten Manokwari, Papua Bar.",PAPUA BARAT,,Indonesia,,-1.1718674,134.1443544,https://maps.google.com/?cid=0x0:0x2304a7a7ad451175
perumahan,Rumah Sakit,PUSKESMAS TANAH RUBUH,"V428+5M2, Jl. Manokwari - Bintuni, Ayawi, Kec. Tanah Rubuh, Kabupaten Manokwari, Papua Bar. 98315","Jl. Manokwari - Bintuni, Ayawi, Kec. Tanah Rubuh, Kabupaten Manokwari",PAPUA BARAT,98315.0,Indonesia,,-1.1496098,134.1166389,https://maps.google.com/?cid=0x0:0x766a49993c7963a2
perumahan,Pembangunan Perumahan,Wagey,"R556+HX, Wamigti, Kec. Tanah Rubuh, Kabupaten Manokwari, Papua Bar.","Kabupaten Manokwari, Papua Bar.",PAPUA BARAT,,Indonesia,,-1.1910494,134.1624973,https://maps.google.com/?cid=0x0:0xb67835937c1e7c0c
perumahan,Balai Pertemuan Desa,Balai kampung warkapi,"V437+QR, Warkapi, Kec. Tanah Rubuh, Kabupaten Manokwari, Papua Bar.","Kabupaten Manokwari, Papua Bar.",PAPUA BARAT,,Indonesia,,-1.1456198,134.114575,https://maps.google.com/?cid=0x0:0x368dd53442cfd78b
perumahan,Perhimpunan Pengembang Perumahan,Pades Wariari ...Mandepy Marisan,"Q6H2+P6, Wariari, Kec. Tanah Rubuh, Kabupaten Manokwari, Papua Bar.","Kabupaten Manokwari, Papua Bar.",PAPUA BARAT,,Indonesia,,-1.2206875,134.2005625,https://maps.google.com/?cid=0x0:0x731cb8889b56e56d
perumahan,Pembangunan Perumahan,Asset Jai mansel,"Q5MP+XX8, Wedoni, Kec. Tanah Rubuh, Kabupaten Manokwari, Papua Bar. 98315","Wedoni, Kec. Tanah Rubuh, Kabupaten Manokwari",PAPUA BARAT,98315.0,Indonesia,,-1.2150881,134.1874484,https://maps.google.com/?cid=0x0:0x16d1d68005840704
perumahan,Komplek perumahan,Warmare,"2VQP+426, Snaimboy, Kec. Warmare, Kabupaten Manokwari, Papua Bar.","Kabupaten Manokwari, Papua Bar.",PAPUA BARAT,,Indonesia,,-0.9622076,133.8850087,https://maps.google.com/?cid=0x0:0x7dcc91ee82f8ff82
perumahan,perumahan,Papua Bar. 98352,"Kabupaten Manokwari, Papua Bar.","Kabupaten Manokwari, Papua Bar.",PAPUA BARAT,,Indonesia,,-1.0122519,133.9055155,https://maps.google.com/?cid=0x0:0x665ab61075e0d624
perumahan,Pembangunan Perumahan,PERTIGAAN KE MAYAMBOUW,"2VQP+32V, Snaimboy, Kec. Warmare, Kabupaten Manokwari, Papua Bar. 98352","Snaimboy, Kec. Warmare, Kabupaten Manokwari",PAPUA BARAT,98352.0,Indonesia,,-0.9622506,133.8850335,https://maps.google.com/?cid=0x0:0xba410d7b451e0216
perumahan,Komplek perumahan,Hariyanto/Murni,"2VWF+H2F, Kampung BEDIP JAYA, Kec. Warmare, Kabupaten Manokwari, Papua Bar.","Kabupaten Manokwari, Papua Bar.",PAPUA BARAT,,Indonesia,,-0.953554,133.8725559,https://maps.google.com/?cid=0x0:0xe002e3413ca8e7a0
perumahan,Balai masyarakat,Posko KKN UNIPA KAMPUNG DUWIN 2025,"Duwin Umsini, Kec. Warmare, Kabupaten Manokwari, Papua Bar. 98352","Kec. Warmare, Kabupaten Manokwari",PAPUA BARAT,98352.0,Indonesia,,-0.9814605,133.9605112,https://maps.google.com/?cid=0x0:0x2496d18d4b5dd8f1
perumahan,Komplek perumahan,Manokwari,"2WGP+743, Madrat, Kec. Warmare, Kabupaten Manokwari, Papua Bar. 98352","Madrat, Kec. Warmare, Kabupaten Manokwari",PAPUA BARAT,98352.0,Indonesia,,-0.974361,133.9353008,https://maps.google.com/?cid=0x0:0x8dc6405ca5a80cfc
perumahan,Komplek perumahan,Dusun 2 Kampung Meniy,"2WC9+3XQ, Meniy, Kec. Warmare, Kabupaten Manokwari, Papua Bar. 98352","Meniy, Kec. Warmare, Kabupaten Manokwari",PAPUA BARAT,98352.0,Indonesia,,-0.9797986,133.9199832,https://maps.google.com/?cid=0x0:0xb1c8c0ff3a69bd54
perumahan,Pembangunan Perumahan,Snaymboy,"2VMM+MW9, Snaimboy, Kec. Warmare, Kabupaten Manokwari, Papua Bar. 98352","Snaimboy, Kec. Warmare, Kabupaten Manokwari",PAPUA BARAT,98352.0,Indonesia,,-0.9658499,133.8848579,https://maps.google.com/?cid=0x0:0xab48d2cd1ded328d
perumahan,Pembangunan Perumahan,Kampunf NDONBEY,"2XJ2+5R5, Dindey, Kec. Warmare, Kabupaten Manokwari, Papua Bar.","Kabupaten Manokwari, Papua Bar.",PAPUA BARAT,,Indonesia,,-0.9696027,133.9521224,https://maps.google.com/?cid=0x0:0x1f22aa471cc2d17f
perumahan,Komplek perumahan,Perumahan Weluri Indah Regency Anday (WIRA),"Weluri, Distrik Manokwari, Kabupaten Manokwari, Papua Bar. 98315","Distrik Manokwari, Kabupaten Manokwari",PAPUA BARAT,98315.0,Indonesia,82138383858.0,-0.9348876,133.9951047,https://maps.google.com/?cid=0x0:0xce82f1739955bfbb
perumahan,Rumah Sakit,RSUD PRATAMA WARMARE,"Prafi Kp. / Indise, Kec. Warmare, Kabupaten Manokwari, Papua Bar. 98352","Kec. Warmare, Kabupaten Manokwari",PAPUA BARAT,98352.0,Indonesia,81343122667.0,-0.9583517,133.8842772,https://maps.google.com/?cid=0x0:0xcbd7469dac3f3e69
perumahan,perumahan,Uripncuw,"2WR5+34, Cening/Sotea, Kec. Warmare, Kabupaten Manokwari, Papua Bar.","Kabupaten Manokwari, Papua Bar.",PAPUA BARAT,,Indonesia,,-0.9599019,133.9078684,https://maps.google.com/?cid=0x0:0xc0873415aae1f241
perumahan,Pembangunan Perumahan,Rumah bang ipul,"2WW3+85, Ibuwau, Kec. Warmare, Kabupaten Manokwari, Papua Bar.","Kabupaten Manokwari, Papua Bar.",PAPUA BARAT,,Indonesia,,-0.9542312,133.902937,https://maps.google.com/?cid=0x0:0xdd0fdffa875b3c2c
perumahan,Komplek perumahan,Rumah,"3VJR+GFP, Prafi Mulia, Distrik Prafi, Kabupaten Manokwari, Papua Bar.","Kabupaten Manokwari, Papua Bar.",PAPUA BARAT,,Indonesia,,-0.9196079,133.8968159,https://maps.google.com/?cid=0x0:0x8db156a94978aeb6
housing complex,housing complex,Papua Bar. 98311,"Kec. Manokwari Tim., Kabupaten Manokwari, Papua Bar.","Kabupaten Manokwari, Papua Bar.",PAPUA BARAT,,Indonesia,,-0.853122,134.1102895,https://maps.google.com/?cid=0x0:0x327a91d22239a4d5
housing complex,Pembangunan Perumahan,Kompleks COBRA 04/07,"43RF+9WM, Jl. Ringan Tangan, Padarni, Kec. Manokwari Bar., Kabupaten Manokwari, Papua Bar. 98312","Jl. Ringan Tangan, Padarni, Kec. Manokwari Bar., Kabupaten Manokwari",PAPUA BARAT,98312.0,Indonesia,,-0.8590352,134.0747863,https://maps.google.com/?cid=0x0:0xce97d1621d08a17f
housing complex,housing complex,KompI(Kompleks Inggandi),"43GV+7Q3, Jl. Pasir Putih No.33, Pasir Putih, Kec. Manokwari Tim., Kabupaten Manokwari, Papua Bar. 98313","Jl. Pasir Putih No.33, Pasir Putih, Kec. Manokwari Tim., Kabupaten Manokwari",PAPUA BARAT,98313.0,Indonesia,,-0.878038,134.0934133,https://maps.google.com/?cid=0x0:0xcb48d5cb3a92d090
housing complex,Komplek perumahan,Pos Utama Kediaman Gub. Prov PB,"44Q7+92V, Sunsweni, Kec. Manokwari Tim., Kabupaten Manokwari, Papua Bar.","Kabupaten Manokwari, Papua Bar.",PAPUA BARAT,,Indonesia,,-0.8615229,134.1125399,https://maps.google.com/?cid=0x0:0x784a77a3270bfc35
housing complex,Pembangunan Perumahan,Dessy house,"43JJ+J7C, Manokwari Tim., Kec. Manokwari Bar., Kabupaten Manokwari, Papua Bar. 98312","Manokwari Tim., Kec. Manokwari Bar., Kabupaten Manokwari",PAPUA BARAT,98312.0,Indonesia,,-0.867982,134.082245,https://maps.google.com/?cid=0x0:0xa7b9ac4a290ed562
housing complex,Komplek perumahan,Keluarga Patandianan,"43PG+9GV, Manokwari Tim., Kec. Manokwari Bar., Kabupaten Manokwari, Papua Bar. 98312","Manokwari Tim., Kec. Manokwari Bar., Kabupaten Manokwari",PAPUA BARAT,98312.0,Indonesia,,-0.8637033,134.0761225,https://maps.google.com/?cid=0x0:0xf359d9992ce4a91e
housing complex,Pembangunan Perumahan,Perumahan Susweni Indah Permai,"43VW+386, Sunsweni, Kec. Manokwari Tim., Kabupaten Manokwari, Papua Bar. 98311","Sunsweni, Kec. Manokwari Tim., Kabupaten Manokwari",PAPUA BARAT,98311.0,Indonesia,8114824788.0,-0.8573435,134.0957786,https://maps.google.com/?cid=0x0:0x1e527cb9e6dcb551
housing complex,Komplek perumahan,Jalan merdeka,"Jl. Merdeka, Padarni, Kec. Manokwari Bar., Kabupaten Manokwari, Papua Bar. 98312","Padarni, Kec. Manokwari Bar., Kabupaten Manokwari",PAPUA BARAT,98312.0,Indonesia,,-0.8612146,134.0742342,https://maps.google.com/?cid=0x0:0xa4a48cb886ea855d
housing complex,Komplek perumahan,Kompleks padarni,"43V9+V9W, Jl. Yos Sudarso Manokwari, Padarni, Kec. Manokwari Bar., Kabupaten Manokwari, Papua Bar. 98312","Jl. Yos Sudarso Manokwari, Padarni, Kec. Manokwari Bar., Kabupaten Manokwari",PAPUA BARAT,98312.0,Indonesia,8123125134.0,-0.8552591,134.0684424,https://maps.google.com/?cid=0x0:0x6e6d870bbd518250
housing complex,Komplek perumahan,Omah Cookies Manokwari,"43W8+6GX, Kompleks Perumahan Polbangtan Jl. SPMA Reremi, Manokwari Bar., Kec. Manokwari Bar., Kabupaten Manokwari, Papua Bar. 98312","Kompleks Perumahan Polbangtan Jl. SPMA Reremi, Manokwari Bar., Kec. Manokwari Bar., Kabupaten Manokwari",PAPUA BARAT,98312.0,Indonesia,,-0.85439,134.0663519,https://maps.google.com/?cid=0x0:0x612dd5900450a9f
housing complex,Asrama Pelajar,Asrama pelayaran kmp.ambon,"43GJ+G5G, Jl. Bhayangkara, Manokwari Tim., Kec. Manokwari Bar., Kabupaten Manokwari, Papua Bar. 98311","Jl. Bhayangkara, Manokwari Tim., Kec. Manokwari Bar., Kabupaten Manokwari",PAPUA BARAT,98311.0,Indonesia,,-0.8736896,134.0804454,https://maps.google.com/?cid=0x0:0x9a007309d40aa457
housing complex,Gedung Apartemen,Kampung Ambon atas,"Jl. Sabang No.24, Manokwari Tim., Kec. Manokwari Bar., Kabupaten Manokwari, Papua Bar. 98311","Manokwari Tim., Kec. Manokwari Bar., Kabupaten Manokwari",PAPUA BARAT,98311.0,Indonesia,85369783612.0,-0.8697416,134.0807413,https://maps.google.com/?cid=0x0:0x1fd186ea6323b72a
housing complex,Komplek perumahan,Ayambori,"43PQ+3QX, Ayambori, Kec. Manokwari Tim., Kabupaten Manokwari, Papua Bar. 98311","Ayambori, Kec. Manokwari Tim., Kabupaten Manokwari",PAPUA BARAT,98311.0,Indonesia,,-0.864756,134.0894705,https://maps.google.com/?cid=0x0:0x8b8d760d3b11b7b9
housing complex,Pembangunan Perumahan,Manggowi (Perum Wororomi),"43CV+QCX, Jl. Pasir Putih, Pasir Putih, Kec. Manokwari Tim., Kabupaten Manokwari, Papua Bar. 98313","Jl. Pasir Putih, Pasir Putih, Kec. Manokwari Tim., Kabupaten Manokwari",PAPUA BARAT,98313.0,Indonesia,,-0.8780148,134.0935959,https://maps.google.com/?cid=0x0:0x656bd9a40c4792bf
housing complex,housing complex,Papua Bar. 98312,"Kabupaten Manokwari, Papua Bar.","Kabupaten Manokwari, Papua Bar.",PAPUA BARAT,,Indonesia,,-0.8581559,134.0008674,https://maps.google.com/?cid=0x0:0x55f33f0d52b5b6d0
housing complex,Komplek perumahan,Perumahan dosen,"5359+3XC, Amban, Kec. Manokwari Bar., Kabupaten Manokwari, Papua Bar. 98312","Amban, Kec. Manokwari Bar., Kabupaten Manokwari",PAPUA BARAT,98312.0,Indonesia,,-0.8423055,134.0699036,https://maps.google.com/?cid=0x0:0xe12de2f045d8b2c6
housing complex,Pembangunan Perumahan,KOMPLEK BUDAYA NUSANTARA,"5323+VX4, Amban, Kec. Manokwari Bar., Kabupaten Manokwari, Papua Bar. 98312","Amban, Kec. Manokwari Bar., Kabupaten Manokwari",PAPUA BARAT,98312.0,Indonesia,,-0.847874,134.0549377,https://maps.google.com/?cid=0x0:0x3fb7d7f053a079e7
housing complex,Komplek perumahan,Omah Cookies Manokwari,"43W8+6GX, Kompleks Perumahan Polbangtan Jl. SPMA Reremi, Manokwari Bar., Kec. Manokwari Bar., Kabupaten Manokwari, Papua Bar. 98312","Kompleks Perumahan Polbangtan Jl. SPMA Reremi, Manokwari Bar., Kec. Manokwari Bar., Kabupaten Manokwari",PAPUA BARAT,98312.0,Indonesia,,-0.85439,134.0663519,https://maps.google.com/?cid=0x0:0x612dd5900450a9f
housing complex,Komplek perumahan,House Family RM,"5355+3FP, Jl. Angkasa Mulyono, Amban, Kec. Manokwari Bar., Kabupaten Manokwari, Papua Bar. 98312","Jl. Angkasa Mulyono, Amban, Kec. Manokwari Bar., Kabupaten Manokwari",PAPUA BARAT,98312.0,Indonesia,,-0.8422128,134.0582566,https://maps.google.com/?cid=0x0:0xd5020911f6a496a0
housing complex,Komplek perumahan,Bumi marina Manokwari Papua Barat,"5354+4MC, Jl. Angkasa Mulyono, Amban, Kec. Manokwari Bar., Kabupaten Manokwari, Papua Bar. 98312","Jl. Angkasa Mulyono, Amban, Kec. Manokwari Bar., Kabupaten Manokwari",PAPUA BARAT,98312.0,Indonesia,82198049400.0,-0.842196,134.0566362,https://maps.google.com/?cid=0x0:0xe83341f5a16ca84e
housing complex,Komplek perumahan,Nur Afifah house,"43M2+WQJ, Jl. Pasir, Wosi, Kec. Manokwari Bar., Kabupaten Manokwari, Papua Bar. 98312","Jl. Pasir, Wosi, Kec. Manokwari Bar., Kabupaten Manokwari",PAPUA BARAT,98312.0,Indonesia,,-0.8651562,134.0518995,https://maps.google.com/?cid=0x0:0x5d4bde5c0f0db560
housing complex,Toko Ponsel,Hp jadul Manokwari,"43J2+X23, Jl. Ps. Wosi, Wosi, Kec. Manokwari Bar., Kabupaten Manokwari, Papua Bar. 98312","Jl. Ps. Wosi, Wosi, Kec. Manokwari Bar., Kabupaten Manokwari",PAPUA BARAT,98312.0,Indonesia,,-0.867611,134.0500426,https://maps.google.com/?cid=0x0:0x879bf76872ce3383
housing complex,Komplek perumahan,Hardi Manullang Resort,"5322+479, Manokwari Bar., Kec. Manokwari Bar., Kabupaten Manokwari, Papua Bar. 98312","Manokwari Bar., Kec. Manokwari Bar., Kabupaten Manokwari",PAPUA BARAT,98312.0,Indonesia,,-0.8496551,134.0508627,https://maps.google.com/?cid=0x0:0x3c77d0e7cd1da3de
housing complex,Rumah Makan,Suapen Bahari,"Wosi, Kec. Manokwari Bar., Kabupaten Manokwari, Papua Bar. 98312","Kec. Manokwari Bar., Kabupaten Manokwari",PAPUA BARAT,98312.0,Indonesia,,-0.8625487,134.0550168,https://maps.google.com/?cid=0x0:0xb99909f315e1f9ab
housing complex,Komplek perumahan,Dhidin home,"42JX+M93, Jl. Trikora Wosi Blk. 3, kampung bugis, Kec. Manokwari Bar., Kabupaten Manokwari, Papua Bar. 98312","Jl. Trikora Wosi Blk. 3, kampung bugis, Kec. Manokwari Bar., Kabupaten Manokwari",PAPUA BARAT,98312.0,Indonesia,,-0.868352,134.0484096,https://maps.google.com/?cid=0x0:0xf698b7adb3f968ef
housing complex,Dapur Umum,Lembah hijauh,"42RQ+6J7, Wosi, Kec. Manokwari Bar., Kabupaten Manokwari, Papua Bar. 98312","Wosi, Kec. Manokwari Bar., Kabupaten Manokwari",PAPUA BARAT,98312.0,Indonesia,,-0.859456,134.0390358,https://maps.google.com/?cid=0x0:0xfff0e6a7496da915
housing complex,Komplek perumahan,Home,"42QX+9VC, Wosi, Kec. Manokwari Bar., Kabupaten Manokwari, Papua Bar. 98312","Wosi, Kec. Manokwari Bar., Kabupaten Manokwari",PAPUA BARAT,98312.0,Indonesia,,-0.8615732,134.0496424,https://maps.google.com/?cid=0x0:0x5646ffb4706613ad
housing complex,Komplek perumahan,Kelg. M. J. Ramandei,"Jln. Lembah Hijau Jl. Transito Wosi, Wosi, Kec. Manokwari Bar., Kabupaten Manokwari, Papua Bar. 98312","Wosi, Kec. Manokwari Bar., Kabupaten Manokwari",PAPUA BARAT,98312.0,Indonesia,,-0.8637434,134.0438166,https://maps.google.com/?cid=0x0:0x5a2c5f831bc32b92
housing complex,housing complex,FMâs House,"536C+WXG, Amban, Kec. Manokwari Bar., Kabupaten Manokwari, Papua Bar. 98314","Amban, Kec. Manokwari Bar., Kabupaten Manokwari",PAPUA BARAT,98314.0,Indonesia,,-0.8376113,134.0720952,https://maps.google.com/?cid=0x0:0x692da94cb0575357
housing complex,Komplek perumahan,Perumahan dosen,"5359+3XC, Amban, Kec. Manokwari Bar., Kabupaten Manokwari, Papua Bar. 98312","Amban, Kec. Manokwari Bar., Kabupaten Manokwari",PAPUA BARAT,98312.0,Indonesia,,-0.8423055,134.0699036,https://maps.google.com/?cid=0x0:0xe12de2f045d8b2c6
housing complex,housing complex,Papua Bar. 98314,"Amban, Kec. Manokwari Bar., Kabupaten Manokwari, Papua Bar.","Kabupaten Manokwari, Papua Bar.",PAPUA BARAT,,Indonesia,,-0.8229506,134.0484728,https://maps.google.com/?cid=0x0:0xf25e0ecc06fa0aa1
housing complex,Pembangunan Perumahan,SKG,"53C8+H28, Amban, Kec. Manokwari Bar., Kabupaten Manokwari, Papua Bar. 98314","Amban, Kec. Manokwari Bar., Kabupaten Manokwari",PAPUA BARAT,98314.0,Indonesia,,-0.8291857,134.0647278,https://maps.google.com/?cid=0x0:0x6a9494184ce478dc
housing complex,Pembangunan Perumahan,Perumahan Revival Blok G-H,"5375+X4J, Amban, Kec. Manokwari Bar., Kabupaten Manokwari, Papua Bar. 98314","Amban, Kec. Manokwari Bar., Kabupaten Manokwari",PAPUA BARAT,98314.0,Indonesia,,-0.8348176,134.056545,https://maps.google.com/?cid=0x0:0xbb5bf22fd5110a61
housing complex,Komplek perumahan,House Family RM,"5355+3FP, Jl. Angkasa Mulyono, Amban, Kec. Manokwari Bar., Kabupaten Manokwari, Papua Bar. 98312","Jl. Angkasa Mulyono, Amban, Kec. Manokwari Bar., Kabupaten Manokwari",PAPUA BARAT,98312.0,Indonesia,,-0.8422128,134.0582566,https://maps.google.com/?cid=0x0:0xd5020911f6a496a0
housing complex,Komplek perumahan,Frengky Hara House,"53C8+5CW, Unnamed Road, Amban, Kec. Manokwari Bar., Kabupaten Manokwari, Papua Bar. 98314","Unnamed Road, Amban, Kec. Manokwari Bar., Kabupaten Manokwari",PAPUA BARAT,98314.0,Indonesia,,-0.8295081,134.0660898,https://maps.google.com/?cid=0x0:0xc09a56cd954697ae
housing complex,Komplek perumahan,Kel G Mentansan,"Perum Dosen Unipa, Jl.Mabruk No.C-43, Amban, Kec. Manokwari Bar., Kabupaten Manokwari, Papua Bar.","Kabupaten Manokwari, Papua Bar.",PAPUA BARAT,,Indonesia,,-0.8374343,134.0671143,https://maps.google.com/?cid=0x0:0xaea375317089d49e
housing complex,housing complex,Love no as,"53HF+7X, Amban, Kec. Manokwari Bar., Kabupaten Manokwari, Papua Bar. 98314","Amban, Kec. Manokwari Bar., Kabupaten Manokwari",PAPUA BARAT,98314.0,Indonesia,,-0.8219106,134.0747697,https://maps.google.com/?cid=0x0:0xf46d7e62ae0f70b3
housing complex,Pembangunan Perumahan,Perumahan Beringin Hills Recidense Amban,"527X+79X, Amban, Kec. Manokwari Bar., Kabupaten Manokwari, Papua Bar.","Kabupaten Manokwari, Papua Bar.",PAPUA BARAT,,Indonesia,,-0.8367524,134.0484728,https://maps.google.com/?cid=0x0:0xe5685b260b28dbc1
housing complex,Penginapan,Rumah Pribadi,"537F+MR6, Amban, Kec. Manokwari Bar., Kabupaten Manokwari, Papua Bar. 98314","Amban, Kec. Manokwari Bar., Kabupaten Manokwari",PAPUA BARAT,98314.0,Indonesia,,-0.8358489,134.0745078,https://maps.google.com/?cid=0x0:0x1d9a7dcb7e24f8b0
housing complex,Perumahan,Perumahan Green Tea J1,"536F+QJM, Amban, Kec. Manokwari Bar., Kabupaten Manokwari, Papua Bar. 98314","Amban, Kec. Manokwari Bar., Kabupaten Manokwari",PAPUA BARAT,98314.0,Indonesia,,-0.8380277,134.0740575,https://maps.google.com/?cid=0x0:0x7566d65c448cfe43
housing complex,Komplek perumahan,Rumah Pak Jefri,"5375+929, Jl. Gn. Salju, Amban, Kec. Manokwari Bar., Kabupaten Manokwari, Papua Bar. 98314","Jl. Gn. Salju, Amban, Kec. Manokwari Bar., Kabupaten Manokwari",PAPUA BARAT,98314.0,Indonesia,,-0.8365876,134.057649,https://maps.google.com/?cid=0x0:0x4d2827c9f80a4f7
housing complex,Komplek perumahan,Bumi marina Manokwari Papua Barat,"5354+4MC, Jl. Angkasa Mulyono, Amban, Kec. Manokwari Bar., Kabupaten Manokwari, Papua Bar. 98312","Jl. Angkasa Mulyono, Amban, Kec. Manokwari Bar., Kabupaten Manokwari",PAPUA BARAT,98312.0,Indonesia,82198049400.0,-0.842196,134.0566362,https://maps.google.com/?cid=0x0:0xe83341f5a16ca84e
housing complex,Komplek perumahan,HOME KEL. AHMAD RUMADAUL,"32PP+9JR, Jl. Trikora Taman Ria, Sowi, Distrik Manokwari, Kabupaten Manokwari, Papua Bar. 98315","Jl. Trikora Taman Ria, Sowi, Distrik Manokwari, Kabupaten Manokwari",PAPUA BARAT,98315.0,Indonesia,,-0.9140884,134.0359306,https://maps.google.com/?cid=0x0:0x37c17535a867ad39
housing complex,housing complex,Distrik Manokwari,"Kabupaten Manokwari, Papua Bar.","Kabupaten Manokwari, Papua Bar.",PAPUA BARAT,,Indonesia,,-0.8912103,134.046322,https://maps.google.com/?cid=0x0:0x25e95a286c9053b8
housing complex,Komplek perumahan,Ben Ben,"429C+XRX, Shogun Permai 5, Gunung, Sowi, Distrik Manokwari, Kabupaten Manokwari, Papua Bar. 98315","Shogun Permai 5, Gunung, Sowi, Distrik Manokwari, Kabupaten Manokwari",PAPUA BARAT,98315.0,Indonesia,,-0.8800187,134.0220974,https://maps.google.com/?cid=0x0:0xd59aea5b9f038b39
housing complex,Komplek perumahan,Complex CPL II,"32VG+7JH, Sowi, Distrik Manokwari, Kabupaten Manokwari, Papua Bar.","Kabupaten Manokwari, Papua Bar.",PAPUA BARAT,,Indonesia,,-0.906818,134.0266017,https://maps.google.com/?cid=0x0:0x2d0ae94bebc94efd
housing complex,Komplek perumahan,ð¥¶,"43M3+284, kampung Jawa, Kec. Manokwari Bar., Kabupaten Manokwari, Papua Bar. 98312","kampung Jawa, Kec. Manokwari Bar., Kabupaten Manokwari",PAPUA BARAT,98312.0,Indonesia,,-0.8675759,134.0533178,https://maps.google.com/?cid=0x0:0x4958af832c7e61c6
housing complex,Komplek perumahan,Perumahan Weluri Indah Regency Anday (WIRA),"Weluri, Distrik Manokwari, Kabupaten Manokwari, Papua Bar. 98315","Distrik Manokwari, Kabupaten Manokwari",PAPUA BARAT,98315.0,Indonesia,82138383858.0,-0.9348876,133.9951047,https://maps.google.com/?cid=0x0:0xce82f1739955bfbb
housing complex,Komplek perumahan,Rumah kel N,"32CC+3M6, Jl. Manokwari - Maruni, Anday, Distrik Manokwari, Kabupaten Manokwari, Papua Bar. 98315","Jl. Manokwari - Maruni, Anday, Distrik Manokwari, Kabupaten Manokwari",PAPUA BARAT,98315.0,Indonesia,,-0.9299535,134.0217789,https://maps.google.com/?cid=0x0:0x7855aa616ce91aee
housing complex,Komplek perumahan,Rumah Kasi Family,"428C+C87, Sowi, Distrik Manokwari, Gunung, Papua Bar. 98315","Sowi, Distrik Manokwari, Gunung",PAPUA BARAT,98315.0,Indonesia,,-0.8839606,134.0208043,https://maps.google.com/?cid=0x0:0x167947e9b9e8b94f
housing complex,Komplek perumahan,FSD Cluster Warkomi,"Perumahan FSD, Sowi, Distrik Manokwari, Kabupaten Manokwari, Papua Bar. 98315","Sowi, Distrik Manokwari, Kabupaten Manokwari",PAPUA BARAT,98315.0,Indonesia,81344004527.0,-0.8995176,134.0313957,https://maps.google.com/?cid=0x0:0x7682ff263d8e3f08
housing complex,Komplek perumahan,Rumah Eka,"Jl. Drs Esau Sesa, Sowi, Distrik Manokwari, Kabupaten Manokwari, Papua Bar.","Kabupaten Manokwari, Papua Bar.",PAPUA BARAT,,Indonesia,,-0.8946569,134.0474116,https://maps.google.com/?cid=0x0:0x74175ef0c87c6506
housing complex,Pembangunan Perumahan,Block A-5,"427H+9MR, Sowi, Distrik Manokwari, Kabupaten Manokwari, Papua Bar. 98315","Sowi, Distrik Manokwari, Kabupaten Manokwari",PAPUA BARAT,98315.0,Indonesia,,-0.8865321,134.0291107,https://maps.google.com/?cid=0x0:0x7447f2388582206b
housing complex,Komplek perumahan,Perumahan Sogun Permai 1 Blok D 38,"427H+G4R, Sowi, Distrik Manokwari, Kabupaten Manokwari, Papua Bar. 98315","Sowi, Distrik Manokwari, Kabupaten Manokwari",PAPUA BARAT,98315.0,Indonesia,,-0.886382,134.027802,https://maps.google.com/?cid=0x0:0x9e6e83e1b22e5de5
housing complex,Komplek perumahan,Ammar's Home,"426J+QWW, Jl. Sowi Gn., Sowi, Distrik Manokwari, Kabupaten Manokwari, Papua Bar. 98315","Jl. Sowi Gn., Sowi, Distrik Manokwari, Kabupaten Manokwari",PAPUA BARAT,98315.0,Indonesia,,-0.888008,134.0323388,https://maps.google.com/?cid=0x0:0x4c8b04631733d8db
housing complex,housing complex,Rini's Home,"427H+8G6, Sowi, Distrik Manokwari, Kabupaten Manokwari, Papua Bar. 98315","Sowi, Distrik Manokwari, Kabupaten Manokwari",PAPUA BARAT,98315.0,Indonesia,,-0.8867125,134.0287656,https://maps.google.com/?cid=0x0:0x4b5d5328a9582260
housing complex,housing complex,Papua Bar. 98311,"Kec. Manokwari Tim., Kabupaten Manokwari, Papua Bar.","Kabupaten Manokwari, Papua Bar.",PAPUA BARAT,,Indonesia,,-0.853122,134.1102895,https://maps.google.com/?cid=0x0:0x327a91d22239a4d5
housing complex,housing complex,Rotterdam Family,"43HH+M5V, Manokwari Tim., Kec. Manokwari Bar., Kabupaten Manokwari, Papua Bar.","Kabupaten Manokwari, Papua Bar.",PAPUA BARAT,,Indonesia,,-0.8707577,134.0779133,https://maps.google.com/?cid=0x0:0x3c8b649497b13912
housing complex,Pembangunan Perumahan,Dessy house,"43JJ+J7C, Manokwari Tim., Kec. Manokwari Bar., Kabupaten Manokwari, Papua Bar. 98312","Manokwari Tim., Kec. Manokwari Bar., Kabupaten Manokwari",PAPUA BARAT,98312.0,Indonesia,,-0.867982,134.082245,https://maps.google.com/?cid=0x0:0xa7b9ac4a290ed562
housing complex,housing complex,KompI(Kompleks Inggandi),"43GV+7Q3, Jl. Pasir Putih No.33, Pasir Putih, Kec. Manokwari Tim., Kabupaten Manokwari, Papua Bar. 98313","Jl. Pasir Putih No.33, Pasir Putih, Kec. Manokwari Tim., Kabupaten Manokwari",PAPUA BARAT,98313.0,Indonesia,,-0.878038,134.0934133,https://maps.google.com/?cid=0x0:0xcb48d5cb3a92d090
housing complex,Komplek perumahan,Pos Utama Kediaman Gub. Prov PB,"44Q7+92V, Sunsweni, Kec. Manokwari Tim., Kabupaten Manokwari, Papua Bar.","Kabupaten Manokwari, Papua Bar.",PAPUA BARAT,,Indonesia,,-0.8615229,134.1125399,https://maps.google.com/?cid=0x0:0x784a77a3270bfc35
housing complex,housing complex,Susweni wamnai,"44Q6+3G5, Sunsweni, Kec. Manokwari Tim., Kabupaten Manokwari, Papua Bar.","Kabupaten Manokwari, Papua Bar.",PAPUA BARAT,,Indonesia,,-0.8625159,134.1123095,https://maps.google.com/?cid=0x0:0xdb542003e6be64ef
housing complex,Komplek perumahan,Keluarga Patandianan,"43PG+9GV, Manokwari Tim., Kec. Manokwari Bar., Kabupaten Manokwari, Papua Bar. 98312","Manokwari Tim., Kec. Manokwari Bar., Kabupaten Manokwari",PAPUA BARAT,98312.0,Indonesia,,-0.8637033,134.0761225,https://maps.google.com/?cid=0x0:0xf359d9992ce4a91e
housing complex,Pembangunan Perumahan,Manggowi (Perum Wororomi),"43CV+QCX, Jl. Pasir Putih, Pasir Putih, Kec. Manokwari Tim., Kabupaten Manokwari, Papua Bar. 98313","Jl. Pasir Putih, Pasir Putih, Kec. Manokwari Tim., Kabupaten Manokwari",PAPUA BARAT,98313.0,Indonesia,,-0.8780148,134.0935959,https://maps.google.com/?cid=0x0:0x656bd9a40c4792bf
housing complex,Komplek perumahan,Domi'homeð¡,"43FM+PQC, Jl. Pasir Putih, Kabupaten Manokwari, Papua Bar.","Kabupaten Manokwari, Papua Bar.",PAPUA BARAT,,Indonesia,,-0.875688,134.084382,https://maps.google.com/?cid=0x0:0xb17ac1b236b1218c
housing complex,Area Mendaki,Kompleks Rumah Belanda Panorama Berg,"43VF+M64, Padarni, Kec. Manokwari Bar., Kabupaten Manokwari, Papua Bar. 98312","Padarni, Kec. Manokwari Bar., Kabupaten Manokwari",PAPUA BARAT,98312.0,Indonesia,,-0.8558668,134.0730844,https://maps.google.com/?cid=0x0:0xe72b969ee1eab805
housing complex,Pembangunan Perumahan,Kompleks COBRA 04/07,"43RF+9WM, Jl. Ringan Tangan, Padarni, Kec. Manokwari Bar., Kabupaten Manokwari, Papua Bar. 98312","Jl. Ringan Tangan, Padarni, Kec. Manokwari Bar., Kabupaten Manokwari",PAPUA BARAT,98312.0,Indonesia,,-0.8590352,134.0747863,https://maps.google.com/?cid=0x0:0xce97d1621d08a17f
housing complex,Komplek perumahan,Jalan merdeka,"Jl. Merdeka, Padarni, Kec. Manokwari Bar., Kabupaten Manokwari, Papua Bar. 98312","Padarni, Kec. Manokwari Bar., Kabupaten Manokwari",PAPUA BARAT,98312.0,Indonesia,,-0.8612146,134.0742342,https://maps.google.com/?cid=0x0:0xa4a48cb886ea855d
housing complex,Pembangunan Perumahan,Perumahan Susweni Indah Permai,"43VW+386, Sunsweni, Kec. Manokwari Tim., Kabupaten Manokwari, Papua Bar. 98311","Sunsweni, Kec. Manokwari Tim., Kabupaten Manokwari",PAPUA BARAT,98311.0,Indonesia,8114824788.0,-0.8573435,134.0957786,https://maps.google.com/?cid=0x0:0x1e527cb9e6dcb551
housing complex,Gedung Apartemen,Kampung Ambon atas,"Jl. Sabang No.24, Manokwari Tim., Kec. Manokwari Bar., Kabupaten Manokwari, Papua Bar. 98311","Manokwari Tim., Kec. Manokwari Bar., Kabupaten Manokwari",PAPUA BARAT,98311.0,Indonesia,85369783612.0,-0.8697416,134.0807413,https://maps.google.com/?cid=0x0:0x1fd186ea6323b72a
housing complex,housing complex,Papua Bar. 98313,"Kec. Manokwari Tim., Kabupaten Manokwari, Papua Bar.","Kabupaten Manokwari, Papua Bar.",PAPUA BARAT,,Indonesia,,-0.8667845,134.1197927,https://maps.google.com/?cid=0x0:0xc87b5f10f76e2d0f
housing complex,housing complex,KompI(Kompleks Inggandi),"43GV+7Q3, Jl. Pasir Putih No.33, Pasir Putih, Kec. Manokwari Tim., Kabupaten Manokwari, Papua Bar. 98313","Jl. Pasir Putih No.33, Pasir Putih, Kec. Manokwari Tim., Kabupaten Manokwari",PAPUA BARAT,98313.0,Indonesia,,-0.878038,134.0934133,https://maps.google.com/?cid=0x0:0xcb48d5cb3a92d090
housing complex,housing complex,Rotterdam Family,"43HH+M5V, Manokwari Tim., Kec. Manokwari Bar., Kabupaten Manokwari, Papua Bar.","Kabupaten Manokwari, Papua Bar.",PAPUA BARAT,,Indonesia,,-0.8707577,134.0779133,https://maps.google.com/?cid=0x0:0x3c8b649497b13912
housing complex,Komplek perumahan,Komplex RAS Mambri OmnAp_Ompai Napi,"44FF+XCV, Arowi, Kec. Manokwari Tim., Kabupaten Manokwari, Papua Bar. 98313","Arowi, Kec. Manokwari Tim., Kabupaten Manokwari",PAPUA BARAT,98313.0,Indonesia,,-0.8750125,134.1235469,https://maps.google.com/?cid=0x0:0xe194c2913be44beb
housing complex,Komplek perumahan,Pos Kontrol Kediaman Gub. Provinsi Papua Barat,"44V9+GC6, Jl. Pasir Putih, Pasir Putih, Kec. Manokwari Tim., Kabupaten Manokwari, Papua Bar.","Kabupaten Manokwari, Papua Bar.",PAPUA BARAT,,Indonesia,,-0.8562107,134.1185091,https://maps.google.com/?cid=0x0:0xf36979f1235a9864
housing complex,Komplek perumahan,Komplek Keluarga Wanma,"44F8+XHW, Jl. Pasir Putih, Pasir Putih, Kec. Manokwari Tim., Kabupaten Manokwari, Papua Bar. 98313","Jl. Pasir Putih, Pasir Putih, Kec. Manokwari Tim., Kabupaten Manokwari",PAPUA BARAT,98313.0,Indonesia,,-0.8749043,134.1163536,https://maps.google.com/?cid=0x0:0x125c00920fbf23a2
housing complex,housing complex,Susweni wamnai,"44Q6+3G5, Sunsweni, Kec. Manokwari Tim., Kabupaten Manokwari, Papua Bar.","Kabupaten Manokwari, Papua Bar.",PAPUA BARAT,,Indonesia,,-0.8625159,134.1123095,https://maps.google.com/?cid=0x0:0xdb542003e6be64ef
housing complex,Komplek perumahan,Pos Utama Kediaman Gub. Prov PB,"44Q7+92V, Sunsweni, Kec. Manokwari Tim., Kabupaten Manokwari, Papua Bar.","Kabupaten Manokwari, Papua Bar.",PAPUA BARAT,,Indonesia,,-0.8615229,134.1125399,https://maps.google.com/?cid=0x0:0x784a77a3270bfc35
housing complex,Komplek perumahan,Wanma Willi,"44F9+C2P, Jl. Pasir Putih, Arowi, Kec. Manokwari Tim., Kabupaten Manokwari, Papua Bar. 98313","Jl. Pasir Putih, Arowi, Kec. Manokwari Tim., Kabupaten Manokwari",PAPUA BARAT,98313.0,Indonesia,,-0.8764165,134.1175656,https://maps.google.com/?cid=0x0:0x5c03cf0a8cabaa0a
housing complex,Komplek perumahan,Samuel Brz,"44CC+VFP, Jl. Pasir Putih, Arowi, Kec. Manokwari Tim., Kabupaten Manokwari, Papua Bar. 98313","Jl. Pasir Putih, Arowi, Kec. Manokwari Tim., Kabupaten Manokwari",PAPUA BARAT,98313.0,Indonesia,,-0.878577,134.11948,https://maps.google.com/?cid=0x0:0x9bdb19beb059c5a3
housing complex,Komplek perumahan,"Kediaman SekDa PB, Susweni","44V9+RGX, Aipiri, Kec. Manokwari Tim., Kabupaten Manokwari, Papua Bar. 98311","Aipiri, Kec. Manokwari Tim., Kabupaten Manokwari",PAPUA BARAT,98311.0,Indonesia,,-0.8553879,134.1188722,https://maps.google.com/?cid=0x0:0x7af552fba8a26dcd
housing complex,Pembangunan Perumahan,Dessy house,"43JJ+J7C, Manokwari Tim., Kec. Manokwari Bar., Kabupaten Manokwari, Papua Bar. 98312","Manokwari Tim., Kec. Manokwari Bar., Kabupaten Manokwari",PAPUA BARAT,98312.0,Indonesia,,-0.867982,134.082245,https://maps.google.com/?cid=0x0:0xa7b9ac4a290ed562
housing complex,Komplek perumahan,Adibaboy Hills,"43MW+RPJ, Unnamed Road, Pasir Putih, Kec. Manokwari Tim., Kabupaten Manokwari, Papua Bar. 98313","Unnamed Road, Pasir Putih, Kec. Manokwari Tim., Kabupaten Manokwari",PAPUA BARAT,98313.0,Indonesia,,-0.8654103,134.0967715,https://maps.google.com/?cid=0x0:0x819543c304c06737
housing complex,Komplek perumahan,Rumah Andi Ariks,"44J5+3JR, Pantai, Pasir Putih, Kec. Manokwari Tim., Kabupaten Manokwari, Papua Bar. 98313","Pantai, Pasir Putih, Kec. Manokwari Tim., Kabupaten Manokwari",PAPUA BARAT,98313.0,Indonesia,,-0.8695591,134.1084214,https://maps.google.com/?cid=0x0:0xac841e423c28e383
housing complex,housing complex,Kec. Manokwari Utara,"Kabupaten Manokwari, Papua Bar.","Kabupaten Manokwari, Papua Bar.",PAPUA BARAT,,Indonesia,,-0.7545947,133.9845162,https://maps.google.com/?cid=0x0:0x4e2d072dfe215e65
housing complex,Balai masyarakat,Balai Kampung Indou-Oufa,"7W6M+XC, Menaito / Mubraidiba, Kec. Manokwari Utara, Kabupaten Manokwari, Papua Bar.","Kabupaten Manokwari, Papua Bar.",PAPUA BARAT,,Indonesia,,-0.737576,133.9335735,https://maps.google.com/?cid=0x0:0xa88afeb4d7821fbc
housing complex,Komplek perumahan,Ben Ben,"429C+XRX, Shogun Permai 5, Gunung, Sowi, Distrik Manokwari, Kabupaten Manokwari, Papua Bar. 98315","Shogun Permai 5, Gunung, Sowi, Distrik Manokwari, Kabupaten Manokwari",PAPUA BARAT,98315.0,Indonesia,,-0.8800187,134.0220974,https://maps.google.com/?cid=0x0:0xd59aea5b9f038b39
housing complex,housing complex,Home,"5353+WC8, Jl. Kebun Cengkeh, Amban, Kec. Manokwari Bar., Kabupaten Manokwari, Papua Bar. 98312","Jl. Kebun Cengkeh, Amban, Kec. Manokwari Bar., Kabupaten Manokwari",PAPUA BARAT,98312.0,Indonesia,,-0.8402012,134.0535784,https://maps.google.com/?cid=0x0:0x3f1fee94116caf10
housing complex,Komplek perumahan,Pos Pengawasan pesisir dan pulau-pulau kecil,"7W8J+RMC, Menaito / Mubraidiba, Kec. Manokwari Utara, Kabupaten Manokwari, Papua Bar.","Kabupaten Manokwari, Papua Bar.",PAPUA BARAT,,Indonesia,,-0.7329123,133.931585,https://maps.google.com/?cid=0x0:0xf8d20a78d2a090ad
housing complex,Pembangunan Perumahan,SKG,"53C8+H28, Amban, Kec. Manokwari Bar., Kabupaten Manokwari, Papua Bar. 98314","Amban, Kec. Manokwari Bar., Kabupaten Manokwari",PAPUA BARAT,98314.0,Indonesia,,-0.8291857,134.0647278,https://maps.google.com/?cid=0x0:0x6a9494184ce478dc
housing complex,Komplek perumahan,Kabupaten manokwari provinsi Papua barat,"6XC8+693, Yoom I, Kec. Manokwari Utara, Kabupaten Manokwari, Papua Bar. 98315","Yoom I, Kec. Manokwari Utara, Kabupaten Manokwari",PAPUA BARAT,98315.0,Indonesia,,-0.7794765,133.9659283,https://maps.google.com/?cid=0x0:0xb89da334911f09b2
housing complex,Pembangunan Perumahan,Perumahan Revival Blok G-H,"5375+X4J, Amban, Kec. Manokwari Bar., Kabupaten Manokwari, Papua Bar. 98314","Amban, Kec. Manokwari Bar., Kabupaten Manokwari",PAPUA BARAT,98314.0,Indonesia,,-0.8348176,134.056545,https://maps.google.com/?cid=0x0:0xbb5bf22fd5110a61
housing complex,Komplek perumahan,Kinawa's House,"42P6+25C, Kampung Nuham, Soribo, Kec. Manokwari Bar., Kabupaten Manokwari, Papua Bar. 98312","Kampung Nuham, Soribo, Kec. Manokwari Bar., Kabupaten Manokwari",PAPUA BARAT,98312.0,Indonesia,,-0.8649308,134.0103922,https://maps.google.com/?cid=0x0:0x539206aba42748bc
housing complex,Pembangunan Perumahan,Block A-5,"427H+9MR, Sowi, Distrik Manokwari, Kabupaten Manokwari, Papua Bar. 98315","Sowi, Distrik Manokwari, Kabupaten Manokwari",PAPUA BARAT,98315.0,Indonesia,,-0.8865321,134.0291107,https://maps.google.com/?cid=0x0:0x7447f2388582206b
housing complex,housing complex,Rini's Home,"427H+8G6, Sowi, Distrik Manokwari, Kabupaten Manokwari, Papua Bar. 98315","Sowi, Distrik Manokwari, Kabupaten Manokwari",PAPUA BARAT,98315.0,Indonesia,,-0.8867125,134.0287656,https://maps.google.com/?cid=0x0:0x4b5d5328a9582260
housing complex,Komplek perumahan,Perumahan dosen,"5359+3XC, Amban, Kec. Manokwari Bar., Kabupaten Manokwari, Papua Bar. 98312","Amban, Kec. Manokwari Bar., Kabupaten Manokwari",PAPUA BARAT,98312.0,Indonesia,,-0.8423055,134.0699036,https://maps.google.com/?cid=0x0:0xe12de2f045d8b2c6
housing complex,Komplek perumahan,House Family RM,"5355+3FP, Jl. Angkasa Mulyono, Amban, Kec. Manokwari Bar., Kabupaten Manokwari, Papua Bar. 98312","Jl. Angkasa Mulyono, Amban, Kec. Manokwari Bar., Kabupaten Manokwari",PAPUA BARAT,98312.0,Indonesia,,-0.8422128,134.0582566,https://maps.google.com/?cid=0x0:0xd5020911f6a496a0
housing complex,Komplek perumahan,Perumahan FAJAR SOWI DAMAI,"Sowi, Distrik Manokwari, Kabupaten Manokwari, Papua Bar. 98315","Distrik Manokwari, Kabupaten Manokwari",PAPUA BARAT,98315.0,Indonesia,81344004527.0,-0.8974311,134.0305967,https://maps.google.com/?cid=0x0:0x91ce0cb77fe5af79
housing complex,housing complex,Distrik Masni,"Kabupaten Manokwari, Papua Bar.","Kabupaten Manokwari, Papua Bar.",PAPUA BARAT,,Indonesia,,-0.7868548,133.728488,https://maps.google.com/?cid=0x0:0x887c8da652d5665d
housing complex,Minimarket,Kompleks balagu,"6MFX+CP6, Wariori, Distrik Masni, Kabupaten Manokwari, Papua Bar. 98357","Wariori, Distrik Masni, Kabupaten Manokwari",PAPUA BARAT,98357.0,Indonesia,,-0.7754878,133.6985352,https://maps.google.com/?cid=0x0:0x177df3b1332de92c
housing complex,Komplek perumahan,RUMAH EVI,"5Q9C+CQ9, Unnamed Road, Meiforga, Masni, Manokwari Regency, West Papua 98357","Unnamed Road, Meiforga, Masni, Manokwari Regency",PAPUA BARAT,98357.0,Indonesia,,-0.8314603,133.7719723,https://maps.google.com/?cid=0x0:0x835e140097cb836d
housing complex,Asrama Sekolah,TK SANTA MARIA 1 SP 8 MASNI,"6P83+F85, Wariori, Distrik Masni, Kabupaten Manokwari, Papua Bar. 98357","Wariori, Distrik Masni, Kabupaten Manokwari",PAPUA BARAT,98357.0,Indonesia,,-0.7838628,133.7033572,https://maps.google.com/?cid=0x0:0x11a6434ef5a00edc
housing complex,Pembangunan Perumahan,Distrik Masni Kampung sumber boga,"6P4G+3WG, Sumber Boga, Distrik Masni, Kabupaten Manokwari, Papua Bar.","Kabupaten Manokwari, Papua Bar.",PAPUA BARAT,,Indonesia,,-0.7948109,133.7273153,https://maps.google.com/?cid=0x0:0xe981450fd96b35a
housing complex,Komplek perumahan,Wardiaman Satia House,"6P8F+9WF, Sumber Boga, Distrik Masni, Kabupaten Manokwari, Papua Bar. 98357","Sumber Boga, Distrik Masni, Kabupaten Manokwari",PAPUA BARAT,98357.0,Indonesia,,-0.78407,133.7247964,https://maps.google.com/?cid=0x0:0x2945538497588e3d
housing complex,Pembangunan Perumahan,PERUMAHAN,"6P9J+QGX, Unnamed Road, Sumber Boga, Distrik Masni, Kabupaten Manokwari, Papua Bar. 98357","Unnamed Road, Sumber Boga, Distrik Masni, Kabupaten Manokwari",PAPUA BARAT,98357.0,Indonesia,,-0.78052,133.731366,https://maps.google.com/?cid=0x0:0x6f2aabec16bf17f7
housing complex,Pembangunan Perumahan,Nasifa,"5PHJ+592, Bowi Subur, Distrik Masni, Kabupaten Manokwari, Papua Bar. 98357","Bowi Subur, Distrik Masni, Kabupaten Manokwari",PAPUA BARAT,98357.0,Indonesia,,-0.8221094,133.730885,https://maps.google.com/?cid=0x0:0x94d6f6973a72356d
housing complex,Komplek perumahan,Satia Monim House,"6P8F+CQV, Sumber Boga, Distrik Masni, Kabupaten Manokwari, Papua Bar. 98357","Sumber Boga, Distrik Masni, Kabupaten Manokwari",PAPUA BARAT,98357.0,Indonesia,,-0.783894,133.7244105,https://maps.google.com/?cid=0x0:0x6cd4847210596f78
housing complex,housing complex,Kompleks kecil k2,"5QQ4+4FC, Muara Prafi, Distrik Masni, Kabupaten Manokwari, Papua Bar.","Kabupaten Manokwari, Papua Bar.",PAPUA BARAT,,Indonesia,,-0.8121789,133.7561561,https://maps.google.com/?cid=0x0:0x9f8296f8909340f9
housing complex,Perhimpunan Pengembang Perumahan,Happy Mia,"5QCC+Q5, Meiforga, Distrik Masni, Kabupaten Manokwari, Papua Bar.","Kabupaten Manokwari, Papua Bar.",PAPUA BARAT,,Indonesia,,-0.8279283,133.7703427,https://maps.google.com/?cid=0x0:0xe5117a02c325912d
housing complex,Komplek perumahan,Masni 19,"6P7H+795, Sumber Boga, Distrik Masni, Kabupaten Manokwari, Papua Bar.","Kabupaten Manokwari, Papua Bar.",PAPUA BARAT,,Indonesia,,-0.7868548,133.728488,https://maps.google.com/?cid=0x0:0xbd9bfbc375086f09
housing complex,Musala,Mushola insanu tawakal Bowi subur,"5PRJ+CJ9, Bowi Subur, Distrik Masni, Kabupaten Manokwari, Papua Bar. 98357","Bowi Subur, Distrik Masni, Kabupaten Manokwari",PAPUA BARAT,98357.0,Indonesia,,-0.8089743,133.7316149,https://maps.google.com/?cid=0x0:0x64f35a7a2dff514e
housing complex,Pembangunan Perumahan,Ririnfos,"4MVX+496, Ririnfos, Distrik Masni, Kabupaten Manokwari, Papua Bar. 98357","Ririnfos, Distrik Masni, Kabupaten Manokwari",PAPUA BARAT,98357.0,Indonesia,,-0.855998,133.699107,https://maps.google.com/?cid=0x0:0x913e0c6d9e5acadb
housing complex,housing complex,Distrik Prafi,"Kabupaten Manokwari, Papua Bar.","Kabupaten Manokwari, Papua Bar.",PAPUA BARAT,,Indonesia,,-0.8781986,133.8274668,https://maps.google.com/?cid=0x0:0xb111fb1aee64e776
housing complex,Komplek perumahan,Kompleks remas,"4V42+HM7, Lismaungu, Distrik Prafi, Kabupaten Manokwari, Papua Bar. 98356","Lismaungu, Distrik Prafi, Kabupaten Manokwari",PAPUA BARAT,98356.0,Indonesia,,-0.8935875,133.8516719,https://maps.google.com/?cid=0x0:0xa86db8764710fa6f
housing complex,Pembangunan Perumahan,Pak Hasim,"sp3, Jalur 2, Waseki Indah, Distrik Prafi, Kabupaten Manokwari, Papua Bar. 98356","Jalur 2, Waseki Indah, Distrik Prafi, Kabupaten Manokwari",PAPUA BARAT,98356.0,Indonesia,,-0.8824042,133.8128836,https://maps.google.com/?cid=0x0:0xd334c16140bd1305
housing complex,Balai masyarakat,Kampung Waseki Pop Distrik Prafi,"4R48+R7G Sp3, Waseki, Distrik Prafi, Kabupaten Manokwari, Papua Bar. 98356","Waseki, Distrik Prafi, Kabupaten Manokwari",PAPUA BARAT,98356.0,Indonesia,,-0.8929369,133.8157082,https://maps.google.com/?cid=0x0:0x297c645b273505cf
housing complex,Komplek perumahan,Rumah,"3VJR+GFP, Prafi Mulia, Distrik Prafi, Kabupaten Manokwari, Papua Bar.","Kabupaten Manokwari, Papua Bar.",PAPUA BARAT,,Indonesia,,-0.9196079,133.8968159,https://maps.google.com/?cid=0x0:0x8db156a94978aeb6
housing complex,Inspektur Tempat Tinggal,"Jalur E, SP4","4RFH+WW6, Udapi Hilir, Distrik Prafi, Kabupaten Manokwari, Papua Bar. 98356","Udapi Hilir, Distrik Prafi, Kabupaten Manokwari",PAPUA BARAT,98356.0,Indonesia,,-0.8752142,133.8297595,https://maps.google.com/?cid=0x0:0x32f87a7854b77327
housing complex,Perhimpunan Pengembang Perumahan,SP3,"4RC8+36F, Jalur 1, Waseki Indah, Distrik Prafi, Kabupaten Manokwari, Papua Bar. 98356","Jalur 1, Waseki Indah, Distrik Prafi, Kabupaten Manokwari",PAPUA BARAT,98356.0,Indonesia,,-0.8775925,133.817707,https://maps.google.com/?cid=0x0:0x455986870f770a9e
housing complex,Komplek perumahan,komplex prapatan,"3VRP+GMX, Desay, Distrik Prafi, Kabupaten Manokwari, Papua Bar. 98356","Desay, Distrik Prafi, Kabupaten Manokwari",PAPUA BARAT,98356.0,Indonesia,,-0.908776,133.886616,https://maps.google.com/?cid=0x0:0xcfd47dc8c2f161d1
housing complex,Pembangunan Perumahan,Diman Family,"4RCM+38H, Udapi Hilir, Distrik Prafi, Kabupaten Manokwari, Papua Bar. 98356","Udapi Hilir, Distrik Prafi, Kabupaten Manokwari",PAPUA BARAT,98356.0,Indonesia,,-0.8798256,133.8334328,https://maps.google.com/?cid=0x0:0x59a4cdf7736e8441
housing complex,housing complex,Papuacollectinbynurulpuji,"4R75+3Q, Waseki Indah, Distrik Prafi, Kabupaten Manokwari, Papua Bar.","Kabupaten Manokwari, Papua Bar.",PAPUA BARAT,,Indonesia,,-0.8873414,133.809405,https://maps.google.com/?cid=0x0:0x5b9ecdcc19abfb64
housing complex,Perumahan,Muel Home,"Jl. Merpati No.jalur 8, Udapi Hilir, Distrik Prafi, Kabupaten Manokwari, Papua Bar. 98356","Udapi Hilir, Distrik Prafi, Kabupaten Manokwari",PAPUA BARAT,98356.0,Indonesia,,-0.8839533,133.823502,https://maps.google.com/?cid=0x0:0x22927bb655590104
housing complex,Komplek perumahan,Tarsono,"4R8J+XMJ, Unnamed Road, Udapi Hilir, Distrik Prafi, Kabupaten Manokwari, Papua Bar. 98356","Unnamed Road, Udapi Hilir, Distrik Prafi, Kabupaten Manokwari",PAPUA BARAT,98356.0,Indonesia,,-0.8825345,133.8316271,https://maps.google.com/?cid=0x0:0xb6593ee32cf4e3fc
housing complex,Komplek perumahan,Perumahan guru SMK,"4RCP+8W4, Udapi Hilir, Distrik Prafi, Kabupaten Manokwari, Papua Bar. 98356","Udapi Hilir, Distrik Prafi, Kabupaten Manokwari",PAPUA BARAT,98356.0,Indonesia,,-0.8792466,133.8373271,https://maps.google.com/?cid=0x0:0xe1528937faf56bd0
housing complex,Komplek perumahan,Rumah Pak Lusimin,"4RCH+R69, Udapi Hilir, Distrik Prafi, Kabupaten Manokwari, Papua Bar. 98356","Udapi Hilir, Distrik Prafi, Kabupaten Manokwari",PAPUA BARAT,98356.0,Indonesia,,-0.8782704,133.828904,https://maps.google.com/?cid=0x0:0xcbc0a234e6ca2956
housing complex,housing complex,Papua Bar. 98356,"Kabupaten Manokwari, Papua Bar.","Kabupaten Manokwari, Papua Bar.",PAPUA BARAT,,Indonesia,,-0.944854,133.7717073,https://maps.google.com/?cid=0x0:0x8f6cbc943a6f12d8
housing complex,Balai masyarakat,Kampung Waseki Pop Distrik Prafi,"4R48+R7G Sp3, Waseki, Distrik Prafi, Kabupaten Manokwari, Papua Bar. 98356","Waseki, Distrik Prafi, Kabupaten Manokwari",PAPUA BARAT,98356.0,Indonesia,,-0.8929369,133.8157082,https://maps.google.com/?cid=0x0:0x297c645b273505cf
housing complex,Komplek perumahan,Kompleks remas,"4V42+HM7, Lismaungu, Distrik Prafi, Kabupaten Manokwari, Papua Bar. 98356","Lismaungu, Distrik Prafi, Kabupaten Manokwari",PAPUA BARAT,98356.0,Indonesia,,-0.8935875,133.8516719,https://maps.google.com/?cid=0x0:0xa86db8764710fa6f
housing complex,Inspektur Tempat Tinggal,"Jalur E, SP4","4RFH+WW6, Udapi Hilir, Distrik Prafi, Kabupaten Manokwari, Papua Bar. 98356","Udapi Hilir, Distrik Prafi, Kabupaten Manokwari",PAPUA BARAT,98356.0,Indonesia,,-0.8752142,133.8297595,https://maps.google.com/?cid=0x0:0x32f87a7854b77327
housing complex,Pembangunan Perumahan,Pak Hasim,"sp3, Jalur 2, Waseki Indah, Distrik Prafi, Kabupaten Manokwari, Papua Bar. 98356","Jalur 2, Waseki Indah, Distrik Prafi, Kabupaten Manokwari",PAPUA BARAT,98356.0,Indonesia,,-0.8824042,133.8128836,https://maps.google.com/?cid=0x0:0xd334c16140bd1305
housing complex,Pembangunan Perumahan,"SP 1, Prafi Mulya,Manokwari","3VJW+336, Prafi Mulia, Distrik Prafi, Kabupaten Manokwari, Papua Bar.","Kabupaten Manokwari, Papua Bar.",PAPUA BARAT,,Indonesia,,-0.9198318,133.8951549,https://maps.google.com/?cid=0x0:0x953610c4706df50
housing complex,housing complex,karetji,"4RF8+98F, Waseki Indah, Distrik Prafi, Kabupaten Manokwari, Papua Bar. 98356","Waseki Indah, Distrik Prafi, Kabupaten Manokwari",PAPUA BARAT,98356.0,Indonesia,,-0.8771715,133.8158708,https://maps.google.com/?cid=0x0:0xd35afeea41dec81f
housing complex,Komplek perumahan,KOMPLEKS ZPARTA PKS,"3V95+6CR, Ngungguen, Kec. Warmare, Kabupaten Manokwari, Papua Bar. 98356","Ngungguen, Kec. Warmare, Kabupaten Manokwari",PAPUA BARAT,98356.0,Indonesia,,-0.9318938,133.8585145,https://maps.google.com/?cid=0x0:0x418ce798158dc523
housing complex,Komplek perumahan,Rumah,"3VJR+GFP, Prafi Mulia, Distrik Prafi, Kabupaten Manokwari, Papua Bar.","Kabupaten Manokwari, Papua Bar.",PAPUA BARAT,,Indonesia,,-0.9196079,133.8968159,https://maps.google.com/?cid=0x0:0x8db156a94978aeb6
housing complex,Komplek perumahan,Kompleks SP2,"3VVM+Q9H, Desay, Distrik Prafi, Kabupaten Manokwari, Papua Bar. 98356","Desay, Distrik Prafi, Kabupaten Manokwari",PAPUA BARAT,98356.0,Indonesia,,-0.9055574,133.8834758,https://maps.google.com/?cid=0x0:0x6d9581e5f5dd6ec4
housing complex,Komplek perumahan,komplex prapatan,"3VRP+GMX, Desay, Distrik Prafi, Kabupaten Manokwari, Papua Bar. 98356","Desay, Distrik Prafi, Kabupaten Manokwari",PAPUA BARAT,98356.0,Indonesia,,-0.908776,133.886616,https://maps.google.com/?cid=0x0:0xcfd47dc8c2f161d1
housing complex,Balai Pertemuan Desa,Balai kampung baru sari star,"3VX6+8GF, Jl. Sorong - Manokwari, Desay, Distrik Prafi, Kabupaten Manokwari, Papua Bar. 98356","Jl. Sorong - Manokwari, Desay, Distrik Prafi, Kabupaten Manokwari",PAPUA BARAT,98356.0,Indonesia,,-0.9016876,133.86129,https://maps.google.com/?cid=0x0:0x7c6eeb4228070481
housing complex,housing complex,Papuacollectinbynurulpuji,"4R75+3Q, Waseki Indah, Distrik Prafi, Kabupaten Manokwari, Papua Bar.","Kabupaten Manokwari, Papua Bar.",PAPUA BARAT,,Indonesia,,-0.8873414,133.809405,https://maps.google.com/?cid=0x0:0x5b9ecdcc19abfb64
housing complex,Komplek perumahan,KOPEL AMSTAR 89,"Jln. Tembus Kantor Distrk Sp.4, Udapi Hilir, Distrik Prafi, Kabupaten Manokwari, Papua Bar. 98356","Udapi Hilir, Distrik Prafi, Kabupaten Manokwari",PAPUA BARAT,98356.0,Indonesia,,-0.8780287,133.8231523,https://maps.google.com/?cid=0x0:0xfd68d6a4be0557af
housing complex,housing complex,Distrik Sidey,"Kabupaten Manokwari, Papua Bar.","Kabupaten Manokwari, Papua Bar.",PAPUA BARAT,,Indonesia,,-0.7605514,133.5946268,https://maps.google.com/?cid=0x0:0x8c34ad1374e4a89e
housing complex,housing complex,The executor,"6HGQ+GR2 sp 10, Jalur 12 timur, Sidey Baru, Distrik Sidey, Kabupaten Manokwari, Papua Bar. 98357","Jalur 12 timur, Sidey Baru, Distrik Sidey, Kabupaten Manokwari",PAPUA BARAT,98357.0,Indonesia,,-0.7737318,133.5895225,https://maps.google.com/?cid=0x0:0x68ae900d4f50a1eb
housing complex,Pembangunan Perumahan,House of Mutia,"Jalur 13 Poros No.SP 10, Sidey Baru, Distrik Sidey, Kabupaten Manokwari, Papua Bar. 98357","Sidey Baru, Distrik Sidey, Kabupaten Manokwari",PAPUA BARAT,98357.0,Indonesia,,-0.7532278,133.5900418,https://maps.google.com/?cid=0x0:0x927be45e11726ab7
housing complex,Perhimpunan Pengembang Perumahan,Manggupi distrik sidey kabupaten manokwari papua barat,"5HCX+P29, Manggupi, Distrik Sidey, Kabupaten Manokwari, Papua Bar. 98357","Manggupi, Distrik Sidey, Kabupaten Manokwari",PAPUA BARAT,98357.0,Indonesia,,-0.8282249,133.5976198,https://maps.google.com/?cid=0x0:0xa05f11c36d2ac767
housing complex,Balai masyarakat,Kampung Wariki Distrik Sidey,"5HQ7+3WG, Wariki, Distrik Sidey, Kabupaten Manokwari, Papua Bar.","Kabupaten Manokwari, Papua Bar.",PAPUA BARAT,,Indonesia,,-0.8123137,133.5648216,https://maps.google.com/?cid=0x0:0x47cb436916783e99
housing complex,Kompleks Kondominium,Home Ayuni DRW Skincare,"Jalur 13, SP 10, Sidey Baru, Distrik Sidey, Kabupaten Manokwari, Papua Bar. 98357","SP 10, Sidey Baru, Distrik Sidey, Kabupaten Manokwari",PAPUA BARAT,98357.0,Indonesia,85282557626.0,-0.7544366,133.5888379,https://maps.google.com/?cid=0x0:0x505244fbaa02876
housing complex,Pembangunan Perumahan,Sidey jaya sp.9,"6J53+67X sp 9, Sidey Jaya, Distrik Sidey, Kabupaten Manokwari, Papua Bar. 98357","Sidey Jaya, Distrik Sidey, Kabupaten Manokwari",PAPUA BARAT,98357.0,Indonesia,81344570073.0,-0.7918893,133.6032229,https://maps.google.com/?cid=0x0:0xf9f6fa80ab62979e
housing complex,Sekolah Dasar,Kaironi,"7H59+4QP, Kaironi, Distrik Sidey, Kabupaten Manokwari, Papua Bar. 98357","Kaironi, Distrik Sidey, Kabupaten Manokwari",PAPUA BARAT,98357.0,Indonesia,,-0.7421683,133.5694653,https://maps.google.com/?cid=0x0:0xd54861be2cf69d1d
housing complex,Pembangunan Perumahan,Nawa the executor projetc,"6HXR+6X6, Sidey Baru, Distrik Sidey, Kabupaten Manokwari, Papua Bar.","Kabupaten Manokwari, Papua Bar.",PAPUA BARAT,,Indonesia,,-0.7519575,133.5924059,https://maps.google.com/?cid=0x0:0x1747baacef0e01f1
housing complex,Pembangunan Perumahan,Distryk sidey,"6HG2+8C4, Sidey Makmur, Distrik Sidey, Kabupaten Manokwari, Papua Bar. 98357","Sidey Makmur, Distrik Sidey, Kabupaten Manokwari",PAPUA BARAT,98357.0,Indonesia,,-0.7742257,133.5510816,https://maps.google.com/?cid=0x0:0xd6882ac0122207b5
housing complex,Komplek perumahan,Rumah wiwik,"6HXR+255, Sidey Baru, Distrik Sidey, Kabupaten Manokwari, Papua Bar. 98357","Sidey Baru, Distrik Sidey, Kabupaten Manokwari",PAPUA BARAT,98357.0,Indonesia,,-0.7526226,133.5900412,https://maps.google.com/?cid=0x0:0xf8713bf9bb56e7fe
housing complex,Kantor Pemerintahan Federal,Sidey Makmur,"6HG2+8C, Sidey Makmur, Distrik Sidey, Kabupaten Manokwari, Papua Bar. 98357","Sidey Makmur, Distrik Sidey, Kabupaten Manokwari",PAPUA BARAT,98357.0,Indonesia,,-0.758638,133.5522592,https://maps.google.com/?cid=0x0:0x219f65d4fdd39a88
housing complex,Komplek perumahan,Rumah mbk duwik,"5JR4+5J9, Jl. Sorong - Manokwari, Manggupi, Distrik Sidey, Kabupaten Manokwari, Papua Bar. 98357","Jl. Sorong - Manokwari, Manggupi, Distrik Sidey, Kabupaten Manokwari",PAPUA BARAT,98357.0,Indonesia,,-0.8096022,133.6065526,https://maps.google.com/?cid=0x0:0x3d2e05ce1b980b2b
housing complex,Komplek perumahan,Perumahan Guru,"7H2G+42X, Kaironi, Distrik Sidey, Kabupaten Manokwari, Papua Bar. 98357","Kaironi, Distrik Sidey, Kabupaten Manokwari",PAPUA BARAT,98357.0,Indonesia,,-0.7496329,133.5751106,https://maps.google.com/?cid=0x0:0x8ac51e3867962702
housing complex,housing complex,Kec. Tanah Rubuh,"Kabupaten Manokwari, Papua Bar.","Kabupaten Manokwari, Papua Bar.",PAPUA BARAT,,Indonesia,,-1.1718674,134.1443544,https://maps.google.com/?cid=0x0:0x2304a7a7ad451175
housing complex,Perhimpunan Pengembang Perumahan,Pades Wariari ...Mandepy Marisan,"Q6H2+P6, Wariari, Kec. Tanah Rubuh, Kabupaten Manokwari, Papua Bar.","Kabupaten Manokwari, Papua Bar.",PAPUA BARAT,,Indonesia,,-1.2206875,134.2005625,https://maps.google.com/?cid=0x0:0x731cb8889b56e56d
housing complex,housing complex,dusun ukomda,"X329+WVG, Jl. Manokwari - Bintuni, Warkomi, Distrik Manokwari, Kabupaten Manokwari, Papua Bar. 98315","Jl. Manokwari - Bintuni, Warkomi, Distrik Manokwari, Kabupaten Manokwari",PAPUA BARAT,98315.0,Indonesia,,-1.0476184,134.0696147,https://maps.google.com/?cid=0x0:0x75d8f1b53851bf91
housing complex,Balai masyarakat,PERUMAHAN KAMPUNG MBISOY PUKBEY,"P63M+HXM, Warbiadi, Kec. Oransbari, Kabupaten Manokwari, Papua Bar. 98353","Warbiadi, Kec. Oransbari, Kabupaten Manokwari",PAPUA BARAT,98353.0,Indonesia,,-1.2960344,134.234916,https://maps.google.com/?cid=0x0:0x8daee7893ed907b5
housing complex,Pembangunan Perumahan,Arowi 1 laut,"VXW7+XP3, Figoud, Distrik Minyambouw, Kabupaten Manokwari, Papua Bar. 98315","Figoud, Distrik Minyambouw, Kabupaten Manokwari",PAPUA BARAT,98315.0,Indonesia,,-1.102602,133.964294,https://maps.google.com/?cid=0x0:0x68ffdfd0e742dd27
housing complex,Pembangunan Perumahan,Inggesi home,"P63P+6CF, Warbiadi, Kec. Oransbari, Kab. Manokwari Selatan, Papua Bar. 98353","Warbiadi, Kec. Oransbari, Kab. Manokwari Selatan",PAPUA BARAT,98353.0,Indonesia,,-1.2969489,134.236054,https://maps.google.com/?cid=0x0:0x341301cbed7438d6
housing complex,housing complex,Kec. Tanah Rubuh,"Kabupaten Manokwari, Papua Bar.","Kabupaten Manokwari, Papua Bar.",PAPUA BARAT,,Indonesia,,-1.1718674,134.1443544,https://maps.google.com/?cid=0x0:0x2304a7a7ad451175
housing complex,housing complex,dusun ukomda,"X329+WVG, Jl. Manokwari - Bintuni, Warkomi, Distrik Manokwari, Kabupaten Manokwari, Papua Bar. 98315","Jl. Manokwari - Bintuni, Warkomi, Distrik Manokwari, Kabupaten Manokwari",PAPUA BARAT,98315.0,Indonesia,,-1.0476184,134.0696147,https://maps.google.com/?cid=0x0:0x75d8f1b53851bf91
housing complex,Perhimpunan Pengembang Perumahan,Pades Wariari ...Mandepy Marisan,"Q6H2+P6, Wariari, Kec. Tanah Rubuh, Kabupaten Manokwari, Papua Bar.","Kabupaten Manokwari, Papua Bar.",PAPUA BARAT,,Indonesia,,-1.2206875,134.2005625,https://maps.google.com/?cid=0x0:0x731cb8889b56e56d
housing complex,Pembangunan Perumahan,Arowi 1 laut,"VXW7+XP3, Figoud, Distrik Minyambouw, Kabupaten Manokwari, Papua Bar. 98315","Figoud, Distrik Minyambouw, Kabupaten Manokwari",PAPUA BARAT,98315.0,Indonesia,,-1.102602,133.964294,https://maps.google.com/?cid=0x0:0x68ffdfd0e742dd27
housing complex,Balai masyarakat,PERUMAHAN KAMPUNG MBISOY PUKBEY,"P63M+HXM, Warbiadi, Kec. Oransbari, Kabupaten Manokwari, Papua Bar. 98353","Warbiadi, Kec. Oransbari, Kabupaten Manokwari",PAPUA BARAT,98353.0,Indonesia,,-1.2960344,134.234916,https://maps.google.com/?cid=0x0:0x8daee7893ed907b5
housing complex,Pembangunan Perumahan,Inggesi home,"P63P+6CF, Warbiadi, Kec. Oransbari, Kab. Manokwari Selatan, Papua Bar. 98353","Warbiadi, Kec. Oransbari, Kab. Manokwari Selatan",PAPUA BARAT,98353.0,Indonesia,,-1.2969489,134.236054,https://maps.google.com/?cid=0x0:0x341301cbed7438d6
housing complex,Komplek perumahan,Kampung Akeju,"M6R8+33, Sidomulyo, Kec. Oransbari, Kab. Manokwari Selatan, Papua Bar.","Kab. Manokwari Selatan, Papua Bar.",PAPUA BARAT,,Indonesia,,-1.309792,134.215139,https://maps.google.com/?cid=0x0:0x6432a9e130a1ab01
housing complex,housing complex,Papua Bar. 98352,"Kabupaten Manokwari, Papua Bar.","Kabupaten Manokwari, Papua Bar.",PAPUA BARAT,,Indonesia,,-1.0122519,133.9055155,https://maps.google.com/?cid=0x0:0x665ab61075e0d624
housing complex,Pembangunan Perumahan,KAMPUNG BEDIB JAYA,"2VWF+R6X, Nimbay, Kec. Warmare, Kabupaten Manokwari, Papua Bar. 98352","Nimbay, Kec. Warmare, Kabupaten Manokwari",PAPUA BARAT,98352.0,Indonesia,,-0.9528805,133.8730986,https://maps.google.com/?cid=0x0:0xf9bb10bc2b203338
housing complex,Pembangunan Perumahan,Rumah Sekretaris Kamp. Ibuwau,"2VQX+G8, Ibuwau, Kec. Warmare, Kabupaten Manokwari, Papua Bar.","Kabupaten Manokwari, Papua Bar.",PAPUA BARAT,,Indonesia,,-0.9612101,133.8984009,https://maps.google.com/?cid=0x0:0x2da538c90cb24079
housing complex,Komplek perumahan,Manokwari,"2WGP+743, Madrat, Kec. Warmare, Kabupaten Manokwari, Papua Bar. 98352","Madrat, Kec. Warmare, Kabupaten Manokwari",PAPUA BARAT,98352.0,Indonesia,,-0.974361,133.9353008,https://maps.google.com/?cid=0x0:0x8dc6405ca5a80cfc
housing complex,Balai masyarakat,Posko KKN UNIPA KAMPUNG DUWIN 2025,"Duwin Umsini, Kec. Warmare, Kabupaten Manokwari, Papua Bar. 98352","Kec. Warmare, Kabupaten Manokwari",PAPUA BARAT,98352.0,Indonesia,,-0.9814605,133.9605112,https://maps.google.com/?cid=0x0:0x2496d18d4b5dd8f1
housing complex,Komplek perumahan,Pondok I one,"2VQP+426, Snaimboy, Kec. Warmare, Kabupaten Manokwari, Papua Bar.","Kabupaten Manokwari, Papua Bar.",PAPUA BARAT,,Indonesia,,-0.9622076,133.8850087,https://maps.google.com/?cid=0x0:0xc0400ac3427a1296
housing complex,Komplek perumahan,KOMPLEKS ZPARTA PKS,"3V95+6CR, Ngungguen, Kec. Warmare, Kabupaten Manokwari, Papua Bar. 98356","Ngungguen, Kec. Warmare, Kabupaten Manokwari",PAPUA BARAT,98356.0,Indonesia,,-0.9318938,133.8585145,https://maps.google.com/?cid=0x0:0x418ce798158dc523
housing complex,Pembangunan Perumahan,Snaymboy,"2VMM+MW9, Snaimboy, Kec. Warmare, Kabupaten Manokwari, Papua Bar. 98352","Snaimboy, Kec. Warmare, Kabupaten Manokwari",PAPUA BARAT,98352.0,Indonesia,,-0.9658499,133.8848579,https://maps.google.com/?cid=0x0:0xab48d2cd1ded328d
housing complex,Perumahan rakyat,BALAI KAMPUNG IBOISRATI,"XXX5+4C3, Kampung Iboisrati, Kec. Warmare, Kabupaten Manokwari, Papua Bar.","Kabupaten Manokwari, Papua Bar.",PAPUA BARAT,,Indonesia,,-1.0022313,133.9585557,https://maps.google.com/?cid=0x0:0xa5e29ef594307390
housing complex,Komplek perumahan,Dusun 2 Kampung Meniy,"2WC9+3XQ, Meniy, Kec. Warmare, Kabupaten Manokwari, Papua Bar. 98352","Meniy, Kec. Warmare, Kabupaten Manokwari",PAPUA BARAT,98352.0,Indonesia,,-0.9797986,133.9199832,https://maps.google.com/?cid=0x0:0xb1c8c0ff3a69bd54
housing complex,Balai masyarakat,Balai Kampung Tanah Merah,"XXXM+GQ7, Tanah Merah, Kec. Warmare, Kabupaten Manokwari, Papua Bar.","Kabupaten Manokwari, Papua Bar.",PAPUA BARAT,,Indonesia,,-1.0012106,133.9844154,https://maps.google.com/?cid=0x0:0x1a2fa8387fb2f12f
housing complex,Komplek perumahan,Rumah,"3VJR+GFP, Prafi Mulia, Distrik Prafi, Kabupaten Manokwari, Papua Bar.","Kabupaten Manokwari, Papua Bar.",PAPUA BARAT,,Indonesia,,-0.9196079,133.8968159,https://maps.google.com/?cid=0x0:0x8db156a94978aeb6
housing complex,Pembangunan Perumahan,Kampung Meniy Dusun Gobbriy,"2WM6+3R4, Subsay, Kec. Warmare, Kabupaten Manokwari, Papua Bar.","Kabupaten Manokwari, Papua Bar.",PAPUA BARAT,,Indonesia,,-0.9673554,133.912093,https://maps.google.com/?cid=0x0:0x7b27e43ac31897d
housing complex,housing complex,Restu home,"3VGX+9MQ, Prafi Mulia, Distrik Prafi, Kabupaten Manokwari, Papua Bar.","Kabupaten Manokwari, Papua Bar.",PAPUA BARAT,,Indonesia,,-0.9240849,133.8993331,https://maps.google.com/?cid=0x0:0x3f5fb58049b0691f
