Category,Real Category,Business Name,Address,City,State,Postal Code,Country,Phone,Email,Website,Latitude,Longitude,Map Link,Details Link
supermarket,supermarket,Lenangguar,"Kec. Lenangguar, Kabupaten Sumbawa, Nusa Tenggara Bar.","Kabupaten Sumbawa, Nusa Tenggara Bar.",NUSA TENGGARA BARAT,,Indonesia,,,,-87.217.791,1.173.733.989,https://maps.google.com/?cid=0x0:0x9c20f7bd29d8166b,
supermarket,Toko bahan makanan,Toko Lila,"7987+M7C, Lenangguar, Kec. Lenangguar, Kabupaten Sumbawa, Nusa Tenggara Bar. 84372","Lenangguar, Kec. Lenangguar, Kabupaten Sumbawa",NUSA TENGGARA BARAT,84372.0,Indonesia,,,,-87.333.097,1.173.631.433,https://maps.google.com/?cid=0x0:0x266e98eeb5fdfd08,
supermarket,Toko Swalayan,Alfamart Lenangguar,"Lenangguar, Kec. Lenangguar, Kabupaten Sumbawa, Nusa Tenggara Bar. 84372","Kec. Lenangguar, Kabupaten Sumbawa",NUSA TENGGARA BARAT,84372.0,Indonesia,,,,-87.369.199,1.173.658.105,https://maps.google.com/?cid=0x0:0x26f2fe3e64e0b286,
supermarket,Toko bahan makanan,CV Nasrudin Makmur,"RT.004/RW.002, Dusun Kramat, Lenangguar, Kec. Lenangguar, Sumbawa selatan, Nusa Tenggara Bar. 84372","Dusun Kramat, Lenangguar, Kec. Lenangguar, Sumbawa selatan",NUSA TENGGARA BARAT,84372.0,Indonesia,85205876708,,,-87.291.875,1.173.783.125,https://maps.google.com/?cid=0x0:0xa5d0396e0c743fb6,
supermarket,Toko Swalayan,Lopas Lenagguar,"7978+42Q, Jl. Sumbawa-Lunyuk, Lenangguar, Kec. Lenangguar, Kabupaten Sumbawa, Nusa Tenggara Bar. 84372","Jl. Sumbawa-Lunyuk, Lenangguar, Kec. Lenangguar, Kabupaten Sumbawa",NUSA TENGGARA BARAT,84372.0,Indonesia,,,,-87.371.215,1.173.650.733,https://maps.google.com/?cid=0x0:0xb9990663ed9f7a4c,
supermarket,Toko Pakaian,UD. JULIAN,"7976+XFH, Lenangguar, Kec. Lenangguar, Kabupaten Sumbawa, Nusa Tenggara Bar. 84372","Lenangguar, Kec. Lenangguar, Kabupaten Sumbawa",NUSA TENGGARA BARAT,84372.0,Indonesia,82350910588,,,-87.349.537,1.173.612.557,https://maps.google.com/?cid=0x0:0x49c30f73d22d1f96,
supermarket,Toko umum,Telur Ayam Kampung Pak Zulkarnaen,"7978+RWX Rumah erul, Lenangguar, Kec. Lenangguar, Kabupaten Sumbawa, Nusa Tenggara Bar. 84372","Lenangguar, Kec. Lenangguar, Kabupaten Sumbawa",NUSA TENGGARA BARAT,84372.0,Indonesia,,,,-87.346.283,1.173.665.065,https://maps.google.com/?cid=0x0:0xa36f6099ddb3d1f3,
supermarket,Toko umum,Balee NyePebb,"7979+V7F, Lenangguar, Kec. Lenangguar, Kabupaten Sumbawa, Nusa Tenggara Bar. 84372","Lenangguar, Kec. Lenangguar, Kabupaten Sumbawa",NUSA TENGGARA BARAT,84372.0,Indonesia,,,,-87.352.271,1.173.681.742,https://maps.google.com/?cid=0x0:0x961765b8a9892686,
supermarket,Toko Swalayan,Toko lili,"799F+MR9, Lenangguar, Kec. Lenangguar, Kabupaten Sumbawa, Nusa Tenggara Bar. 84372","Lenangguar, Kec. Lenangguar, Kabupaten Sumbawa",NUSA TENGGARA BARAT,84372.0,Indonesia,,,,-87.308.284,1.173.746.048,https://maps.google.com/?cid=0x0:0x198d0016213cadb1,
supermarket,Toko,Kios Ibu Andun,"Jl. Sumbawa-Lunyuk No.40, Lenangguar, Kec. Lenangguar, Kabupaten Sumbawa, Nusa Tenggara Bar. 84372","Lenangguar, Kec. Lenangguar, Kabupaten Sumbawa",NUSA TENGGARA BARAT,84372.0,Indonesia,,,,-87.342.777,1.173.615.022,https://maps.google.com/?cid=0x0:0xd7ff0635b4b702cf,
supermarket,Kios,Abon lele pak Dian Lengguar,"7978+98P, Jl. Sumbawa-Lunyuk, Lenangguar, Kec. Lenangguar, Kabupaten Sumbawa, Nusa Tenggara Bar. 84372","Jl. Sumbawa-Lunyuk, Lenangguar, Kec. Lenangguar, Kabupaten Sumbawa",NUSA TENGGARA BARAT,84372.0,Indonesia,82341293307,,,-87.362.667,1.173.657.917,https://maps.google.com/?cid=0x0:0xab35c470854dc98e,
supermarket,Balai masyarakat,Sekar Lenangguar,"69H3+RHV, Jalan lintas Jl. Sumbawa-Lunyuk, Tatebal, Kec. Lenangguar, Kabupaten Sumbawa, Nusa Tenggara Bar.","Kabupaten Sumbawa, Nusa Tenggara Bar.",NUSA TENGGARA BARAT,,Indonesia,,,,-8.770.397,1.173.539.097,https://maps.google.com/?cid=0x0:0xcc2181097515c13c,
supermarket,Toko Elektronik,Queensha fruit,"7987+H86, Jl. Sumbawa-Lunyuk, Lenangguar, Kec. Lenangguar, Kabupaten Sumbawa, Nusa Tenggara Bar. 84372","Jl. Sumbawa-Lunyuk, Lenangguar, Kec. Lenangguar, Kabupaten Sumbawa",NUSA TENGGARA BARAT,84372.0,Indonesia,81238727960,,,-87.335.756,1.173.632.696,https://maps.google.com/?cid=0x0:0x38587898b3b8be96,
supermarket,supermarket,Konter LF RELOAD,"7978+MCV, Lenangguar, Kec. Lenangguar, Kabupaten Sumbawa, Nusa Tenggara Bar. 84372","Lenangguar, Kec. Lenangguar, Kabupaten Sumbawa",NUSA TENGGARA BARAT,84372.0,Indonesia,83129138333,,,-8.735.753,1.173.660.478,https://maps.google.com/?cid=0x0:0x71f5be8b5a2d2f8,
supermarket,Toko Swalayan,Kios Giza,"Unnamed Road, Lenangguar, Kec. Lenangguar, Kabupaten Sumbawa, Nusa Tenggara Bar. 84372","Lenangguar, Kec. Lenangguar, Kabupaten Sumbawa",NUSA TENGGARA BARAT,84372.0,Indonesia,85333540848,,,-87.333.135,1.173.626.407,https://maps.google.com/?cid=0x0:0x9b18e772897c3708,
supermarket,Toko,UD.RELASI,"7986+3G3, Lenangguar, Kec. Lenangguar, Kabupaten Sumbawa, Nusa Tenggara Bar. 84372","Lenangguar, Kec. Lenangguar, Kabupaten Sumbawa",NUSA TENGGARA BARAT,84372.0,Indonesia,87863957666,,,-87.348.695,1.173.613.028,https://maps.google.com/?cid=0x0:0xe17b067d3b6a06e1,
supermarket,Toko,Ud.Dua Putri,"7986+GP8, Jl. Sumbawa-Lunyuk, Lenangguar, Kec. Lenangguar, Kabupaten Sumbawa, Nusa Tenggara Bar. 84372","Jl. Sumbawa-Lunyuk, Lenangguar, Kec. Lenangguar, Kabupaten Sumbawa",NUSA TENGGARA BARAT,84372.0,Indonesia,85337134814,,,-87.337.118,1.173.618.138,https://maps.google.com/?cid=0x0:0xb27669ad489d2903,
supermarket,Toko Kayu,Jual-Beli Kayu,"7986+MWG, Lenangguar, Kec. Lenangguar, Kabupaten Sumbawa, Nusa Tenggara Bar. 84372","Lenangguar, Kec. Lenangguar, Kabupaten Sumbawa",NUSA TENGGARA BARAT,84372.0,Indonesia,82339574050,,,-87.333.173,1.173.623.271,https://maps.google.com/?cid=0x0:0xcd105fafaa5eb3ee,
supermarket,Toko bahan makanan,UD FAJERIN,"682X+M65, Jl. Sumbawa-Lunyuk, Ledang, Kec. Lenangguar, Kabupaten Sumbawa, Nusa Tenggara Bar. 84372","Jl. Sumbawa-Lunyuk, Ledang, Kec. Lenangguar, Kabupaten Sumbawa",NUSA TENGGARA BARAT,84372.0,Indonesia,87863616483,,,-87.983.723,1.173.480.973,https://maps.google.com/?cid=0x0:0x184b8b2ee76ec2b9,
supermarket,Kantor Perusahaan,Kita Cell  Printing,"7987+9FW, Lenangguar, Kec. Lenangguar, Kabupaten Sumbawa, Nusa Tenggara Bar. 84372","Lenangguar, Kec. Lenangguar, Kabupaten Sumbawa",NUSA TENGGARA BARAT,84372.0,Indonesia,81381889453,,,-87.340.093,1.173.637.026,https://maps.google.com/?cid=0x0:0x2ee8d98ece96bdd0,
supermarket,supermarket,Nusa Tenggara Bar. 84373,"Kabupaten Sumbawa, Nusa Tenggara Bar.","Kabupaten Sumbawa, Nusa Tenggara Bar.",NUSA TENGGARA BARAT,,Indonesia,,,,-8.863.502,1.172.205.771,https://maps.google.com/?cid=0x0:0xd0eb521b9a71c154,
supermarket,Minimarket,Alfamart,"Jl Raya, Lunyuk Ode, Kec. Lunyuk, Kabupaten Sumbawa, Nusa Tenggara Bar. 84373","Lunyuk Ode, Kec. Lunyuk, Kabupaten Sumbawa",NUSA TENGGARA BARAT,84373.0,Indonesia,1500959,,,-89.827.299,117.212.532,https://maps.google.com/?cid=0x0:0xf7de19524e494b04,
supermarket,Toko Pakaian,Pasar Desa Padasuka,"2656+M32, Pada Suka, Kec. Lunyuk, Kabupaten Sumbawa, Nusa Tenggara Bar. 84373","Pada Suka, Kec. Lunyuk, Kabupaten Sumbawa",NUSA TENGGARA BARAT,84373.0,Indonesia,,,,-89.908.708,1.172.101.454,https://maps.google.com/?cid=0x0:0x6d08607550af62f,
supermarket,Toko Swalayan,Toko Faranisa,"Rt 06 Rw 02 kalbir, Emang Lestari, Kec. Lunyuk, Kabupaten Sumbawa, Nusa Tenggara Bar. 84373","Emang Lestari, Kec. Lunyuk, Kabupaten Sumbawa",NUSA TENGGARA BARAT,84373.0,Indonesia,85205817897,,,-89.923.235,1.171.869.742,https://maps.google.com/?cid=0x0:0x9ba7c5f910609d6b,
supermarket,Grosir Barang Kelontong,Cahaya buana,"26G2+57M, Suka Maju, Kec. Lunyuk, Kabupaten Sumbawa, Nusa Tenggara Bar. 84373","Suka Maju, Kec. Lunyuk, Kabupaten Sumbawa",NUSA TENGGARA BARAT,84373.0,Indonesia,,,,-89.745.425,1.172.006.737,https://maps.google.com/?cid=0x0:0xca525e618783a589,
supermarket,Toko Swalayan,UD Putra Jaya,"26F2+7WX, Suka Maju, Kec. Lunyuk, Kabupaten Sumbawa, Nusa Tenggara Bar. 84373","Suka Maju, Kec. Lunyuk, Kabupaten Sumbawa",NUSA TENGGARA BARAT,84373.0,Indonesia,82341642722,,,-89.767.516,1.172.023.469,https://maps.google.com/?cid=0x0:0x1dcb143115cd532e,
supermarket,Toko Swalayan,Ud Alit Putra,"25FX+XRV, Jamu, Kec. Lunyuk, Kabupaten Sumbawa, Nusa Tenggara Bar. 84373","Jamu, Kec. Lunyuk, Kabupaten Sumbawa",NUSA TENGGARA BARAT,84373.0,Indonesia,85338949029,,,-89.750.169,117.199.537,https://maps.google.com/?cid=0x0:0x6a996569ede543aa,
supermarket,Minimarket,Naufal Mart  Fotocopy,"26J8+9FX, Lunyuk Ode, Kec. Lunyuk, Kabupaten Sumbawa, Nusa Tenggara Bar. 84373","Lunyuk Ode, Kec. Lunyuk, Kabupaten Sumbawa",NUSA TENGGARA BARAT,84373.0,Indonesia,81917512227,,,-8.969.022,1.172.162.495,https://maps.google.com/?cid=0x0:0xc9d475627a3b68ff,
supermarket,Grosir Barang Kelontong,UD. SAHABAT,"2655+MR6, Pada Suka, Kec. Lunyuk, Kabupaten Sumbawa, Nusa Tenggara Bar. 84373","Pada Suka, Kec. Lunyuk, Kabupaten Sumbawa",NUSA TENGGARA BARAT,84373.0,Indonesia,,,,-89.908.321,1.172.095.133,https://maps.google.com/?cid=0x0:0x727e430fa33f8e3f,
supermarket,Toko Pertanian,UD. NANDA,"2654+9HM, Pada Suka, Kec. Lunyuk, Kabupaten Sumbawa, Nusa Tenggara Bar. 84373","Pada Suka, Kec. Lunyuk, Kabupaten Sumbawa",NUSA TENGGARA BARAT,84373.0,Indonesia,81805613917,,,-89.915.451,1.172.064.098,https://maps.google.com/?cid=0x0:0x9b8b2504e395564,
supermarket,Toko Elektronik,Jingga Cell,"Suka Maju, Kec. Lunyuk, Kabupaten Sumbawa, Nusa Tenggara Bar. 84373","Kec. Lunyuk, Kabupaten Sumbawa",NUSA TENGGARA BARAT,84373.0,Indonesia,85338466048,,,-89.763.211,1.172.023.707,https://maps.google.com/?cid=0x0:0x4be1f2e9f47ed1e4,
supermarket,Apotek,AP,"26XF+FGP, Lunyuk Rea, Kec. Lunyuk, Kabupaten Sumbawa, Nusa Tenggara Bar. 84373","Lunyuk Rea, Kec. Lunyuk, Kabupaten Sumbawa",NUSA TENGGARA BARAT,84373.0,Indonesia,85333122766,,,-89.512.953,1.172.238.383,https://maps.google.com/?cid=0x0:0xd60901f9247db393,
supermarket,Toko,Ks Izzara,"26P9+X7R, Jalan Sumbawa, Lunyuk Rea, Lunyuk, Sumbawa Regency, West Nusa Tenggara 84373","Jalan Sumbawa, Lunyuk Rea, Lunyuk, Sumbawa Regency",NUSA TENGGARA BARAT,84373.0,Indonesia,81909097165,,,-89.625.113,1.172.181.487,https://maps.google.com/?cid=0x0:0xb03dcfd1b04bf204,
supermarket,Toko Pakaian,Spooka Store,"26C4+J63, Suka Maju, Kec. Lunyuk, Kabupaten Sumbawa, Nusa Tenggara Bar. 84373","Suka Maju, Kec. Lunyuk, Kabupaten Sumbawa",NUSA TENGGARA BARAT,84373.0,Indonesia,87862900222,,,-89.784.972,1.172.055.543,https://maps.google.com/?cid=0x0:0x2f5ffd754177bd37,
supermarket,Toko Swalayan,UD.JAYA ABADI,"255Q+W3F, dusun kalbir desa, Emang Lestari, Kec. Lunyuk, Kabupaten Sumbawa, Nusa Tenggara Bar. 84373","dusun kalbir desa, Emang Lestari, Kec. Lunyuk, Kabupaten Sumbawa",NUSA TENGGARA BARAT,84373.0,Indonesia,85333555353,,,-89.901.902,1.171.876.651,https://maps.google.com/?cid=0x0:0xf04717c34b9c49b4,
supermarket,Minimarket,Toko Ani,"2667+P9G, Unnamed Road, Perung, Kec. Lunyuk, Kabupaten Sumbawa, Nusa Tenggara Bar. 84373","Unnamed Road, Perung, Kec. Lunyuk, Kabupaten Sumbawa",NUSA TENGGARA BARAT,84373.0,Indonesia,87863724335,,,-89.881.851,1.172.134.454,https://maps.google.com/?cid=0x0:0x5b36e1422f03f228,
supermarket,Toko bahan makanan,Luthfie Store,"Dusun Kalbir, Desa, RT.05/RW.02, Emang Lestari, Kec. Lunyuk, Kabupaten Sumbawa, Nusa Tenggara Bar. 84373","Desa, RT.05/RW.02, Emang Lestari, Kec. Lunyuk, Kabupaten Sumbawa",NUSA TENGGARA BARAT,84373.0,Indonesia,83142601001,,,-89.921.868,1.171.868.217,https://maps.google.com/?cid=0x0:0x1fbf73904d53c9fb,
supermarket,Toko bahan makanan,UD. Puncak Srinadi,"RT. 05 RW. 02 Dusun Sukanadi Desa, Suka Maju, Kec. Lunyuk, Kabupaten Sumbawa, Nusa Tenggara Bar. 84373","Suka Maju, Kec. Lunyuk, Kabupaten Sumbawa",NUSA TENGGARA BARAT,84373.0,Indonesia,87865904128,,,-89.789.333,1.172.069.228,https://maps.google.com/?cid=0x0:0x14b30a93861c79dc,
supermarket,Toko Elektronik,TCB cell,"2655+F35, Unnamed Road, Pada Suka, Lunyuk, Sumbawa Regency, West Nusa Tenggara 84373","Unnamed Road, Pada Suka, Lunyuk, Sumbawa Regency",NUSA TENGGARA BARAT,84373.0,Indonesia,87863677773,,,-89.913.691,1.172.077.367,https://maps.google.com/?cid=0x0:0xda81ff222590dad8,
supermarket,Pemasok Air Minum Dalam Kemasan,Depot Air Minum / UD. MAARAS,"Lunyuk Ode, Kec. Lunyuk, Kabupaten Sumbawa, Nusa Tenggara Bar. 84373","Kec. Lunyuk, Kabupaten Sumbawa",NUSA TENGGARA BARAT,84373.0,Indonesia,85239688964,,,-89.765.602,1.172.132.692,https://maps.google.com/?cid=0x0:0x6de75e73b191a640,
supermarket,Toko bahan makanan,UD. FIQQA,"Dusun Emang, Desa, RT.003/RW.001, Emang Lestari, Kec. Lunyuk, Kabupaten Sumbawa, Nusa Tenggara Bar. 84373","Desa, RT.003/RW.001, Emang Lestari, Kec. Lunyuk, Kabupaten Sumbawa",NUSA TENGGARA BARAT,84373.0,Indonesia,87863576111,,,-90.042.419,117.181.047,https://maps.google.com/?cid=0x0:0x2aa23773399ecd3f,
supermarket,Toko Swalayan,Kios Azra Sakinah,"2645+F35, Pada Suka, Kec. Lunyuk, Kabupaten Sumbawa, Nusa Tenggara Bar.","Kabupaten Sumbawa, Nusa Tenggara Bar.",NUSA TENGGARA BARAT,,Indonesia,82235327412,,,-89.938.694,1.172.077.234,https://maps.google.com/?cid=0x0:0x3b9ab1e42101413e,
supermarket,Toko Swalayan,WRG. MEK JANGIH,"2696+GR5, Lunyuk Ode, Kec. Lunyuk, Kabupaten Sumbawa, Nusa Tenggara Bar.","Kabupaten Sumbawa, Nusa Tenggara Bar.",NUSA TENGGARA BARAT,,Indonesia,,,,-89.812.277,1.172.121.216,https://maps.google.com/?cid=0x0:0x6c9baf51289e54c7,
supermarket,Pusat Perbelanjaan,Toko Laris,"Jl. Raya Alas, Jamu, baturomong, Kabupaten Sumbawa, Nusa Tenggara Bar. 84373","Jamu, baturomong, Kabupaten Sumbawa",NUSA TENGGARA BARAT,84373.0,Indonesia,85253719226,,,-89.793.774,1.171.920.641,https://maps.google.com/?cid=0x0:0x9c4b4e461f791778,
supermarket,Toko bahan makanan,Toko Lila,"7987+M7C, Lenangguar, Kec. Lenangguar, Kabupaten Sumbawa, Nusa Tenggara Bar. 84372","Lenangguar, Kec. Lenangguar, Kabupaten Sumbawa",NUSA TENGGARA BARAT,84372.0,Indonesia,,,,-87.333.097,1.173.631.433,https://maps.google.com/?cid=0x0:0x266e98eeb5fdfd08,
supermarket,Toko Swalayan,Warung Pak Nurdin dan ibu Nurhayati,"W287+2Q8, Talonang Baru, Kec. Sekongkang, Kabupaten Sumbawa Barat, Nusa Tenggara Bar. 84457","Talonang Baru, Kec. Sekongkang, Kabupaten Sumbawa Barat",NUSA TENGGARA BARAT,84457.0,Indonesia,,,,-90.849.659,1.170.144.535,https://maps.google.com/?cid=0x0:0xeaeb7a259e41004a,
supermarket,supermarket,UD Dua Satu,"2666+6XM, Perung, Kec. Lunyuk, Kabupaten Sumbawa, Nusa Tenggara Bar. 84373","Perung, Kec. Lunyuk, Kabupaten Sumbawa",NUSA TENGGARA BARAT,84373.0,Indonesia,,,,-89.894.021,1.172.124.169,https://maps.google.com/?cid=0x0:0x98deadeaa1592710,
supermarket,Pusat Perbelanjaan,UD Bejo Gemilang Mandiri,"Jalan Pendidikan No.RT 02, Lopok Beru, Kec. Lopok, Kabupaten Sumbawa, Nusa Tenggara Bar. 84382","Lopok Beru, Kec. Lopok, Kabupaten Sumbawa",NUSA TENGGARA BARAT,84382.0,Indonesia,85333988923,,,-86.145.432,1.175.374.672,https://maps.google.com/?cid=0x0:0xd5b2319fbf440dd6,
supermarket,supermarket,Nusa Tenggara Bar. 84382,"Kabupaten Sumbawa, Nusa Tenggara Bar.","Kabupaten Sumbawa, Nusa Tenggara Bar.",NUSA TENGGARA BARAT,,Indonesia,,,,-86.130.859,1.176.200.138,https://maps.google.com/?cid=0x0:0xabe7da967925340f,
supermarket,Toko umum,Kios Andika,"CG3R+469, Lopok, Kec. Lopok, Kabupaten Sumbawa, Nusa Tenggara Bar. 84382","Lopok, Kec. Lopok, Kabupaten Sumbawa",NUSA TENGGARA BARAT,84382.0,Indonesia,81353960108,,,-85.972.212,1.175.406.155,https://maps.google.com/?cid=0x0:0x960611d8ef6060d1,
supermarket,Toko makanan beku,3R Frozen Food,"Jl. Lintas Sumbawa - Bima, Langam, Kec. Lopok, Kabupaten Sumbawa, Nusa Tenggara Bar. 84382","Langam, Kec. Lopok, Kabupaten Sumbawa",NUSA TENGGARA BARAT,84382.0,Indonesia,85159807008,,,-86.109.509,1.175.725.085,https://maps.google.com/?cid=0x0:0x843723c384a9d7f0,
supermarket,Toko bahan makanan,Erick Cell,"Berora, Kec. Lopok, Kabupaten Sumbawa, Nusa Tenggara Bar. 84382","Kec. Lopok, Kabupaten Sumbawa",NUSA TENGGARA BARAT,84382.0,Indonesia,81917600006,,,-8.639.681,1.175.772.319,https://maps.google.com/?cid=0x0:0xa7eaf2373bcbeee0,
supermarket,Toko bahan makanan,Pendor Cell,"Berora, Kec. Lopok, Kabupaten Sumbawa, Nusa Tenggara Bar. 84382","Kec. Lopok, Kabupaten Sumbawa",NUSA TENGGARA BARAT,84382.0,Indonesia,82340796865,,,-86.423.782,1.175.760.574,https://maps.google.com/?cid=0x0:0x71e199d55776f88e,
supermarket,Toko umum,UD. Chanda,"8HVC+29F, Berora, Kec. Lopok, Kabupaten Sumbawa, Nusa Tenggara Bar. 84382","Berora, Kec. Lopok, Kabupaten Sumbawa",NUSA TENGGARA BARAT,84382.0,Indonesia,,,,-86.572.542,1.175.710.833,https://maps.google.com/?cid=0x0:0xe615fb773a451227,
supermarket,Toko Perlengkapan Rumah,UD LINO SUMBER MAKMUR,"9HQH+RC2, Jl. Lintas Sumbawa - Bima, Langam, Kec. Lopok, Kabupaten Sumbawa, Nusa Tenggara Bar. 84382","Jl. Lintas Sumbawa - Bima, Langam, Kec. Lopok, Kabupaten Sumbawa",NUSA TENGGARA BARAT,84382.0,Indonesia,,,,-86.104.862,1.175.785.133,https://maps.google.com/?cid=0x0:0xee8b1ad7f80dabe8,
supermarket,Toko,Fifara Fashion Store,"9HQ9+2RX, Langam, Kec. Lopok, Kabupaten Sumbawa, Nusa Tenggara Bar. 84382","Langam, Kec. Lopok, Kabupaten Sumbawa",NUSA TENGGARA BARAT,84382.0,Indonesia,82341073590,,,-86.123.982,1.175.696.107,https://maps.google.com/?cid=0x0:0xd0094fad90dbced1,
supermarket,Toko Swalayan,Gerai kak Dina,"8HRC+HG4, Mama, Kec. Lopok, Kabupaten Sumbawa, Nusa Tenggara Bar. 84382","Mama, Kec. Lopok, Kabupaten Sumbawa",NUSA TENGGARA BARAT,84382.0,Indonesia,,,,-86.586.142,1.175.713.351,https://maps.google.com/?cid=0x0:0x35eb17d8ebbae5fe,
supermarket,Kios,UD.THOHA,"9HMM+JG, Langam, Kec. Lopok, Kabupaten Sumbawa, Nusa Tenggara Bar. 84382","Langam, Kec. Lopok, Kabupaten Sumbawa",NUSA TENGGARA BARAT,84382.0,Indonesia,,,,-8.615.954,1.175.837.811,https://maps.google.com/?cid=0x0:0x260d4a5d75152c28,
supermarket,Toko,Toko UD. Kantari,"8HRC+7H5, Berora, Kec. Lopok, Kabupaten Sumbawa, Nusa Tenggara Bar. 84382","Berora, Kec. Lopok, Kabupaten Sumbawa",NUSA TENGGARA BARAT,84382.0,Indonesia,81237110331,,,-86.593.739,1.175.714.796,https://maps.google.com/?cid=0x0:0x9517a72e4d3b37d8,
supermarket,Minimarket,INDOMARET LAPE,"Lape, Kec. Lape, Kabupaten Sumbawa, Nusa Tenggara Bar. 84382","Kec. Lape, Kabupaten Sumbawa",NUSA TENGGARA BARAT,84382.0,Indonesia,,,,-86.326.188,1.176.082.318,https://maps.google.com/?cid=0x0:0x678e9f8a7c1feae1,
supermarket,Toko,Cinta Mart,"JL Lintas Sumbawa - Bima, RT03 RW10, Bima, 84251",RT03 RW10,NUSA TENGGARA BARAT,84251.0,Indonesia,85337115610,,,-86.226.388,1.175.970.214,https://maps.google.com/?cid=0x0:0x97bd250d3c5a63b1,
supermarket,Toko bahan makanan,orin_torin CeLLuLaR,"Jl. TaQwa, RT.001/RW.004, Lape, Kec. Lape, Kabupaten Sumbawa, Nusa Tenggara Bar. 84382","RT.001/RW.004, Lape, Kec. Lape, Kabupaten Sumbawa",NUSA TENGGARA BARAT,84382.0,Indonesia,,,,-8.639.182,1.176.119,https://maps.google.com/?cid=0x0:0xe4324929be94dadf,
supermarket,Minimarket,Warung khanaya,"9H5H+G79, RT.002/RW.006, Dusun Serange, Berora, Kec. Lopok, Kabupaten Sumbawa, Nusa Tenggara Bar. 84382","RT.002/RW.006, Dusun Serange, Berora, Kec. Lopok, Kabupaten Sumbawa",NUSA TENGGARA BARAT,84382.0,Indonesia,,,,-8.641.218,1.175.782.233,https://maps.google.com/?cid=0x0:0x7e22be81152822ed,
supermarket,Minimarket,Alfamart,"Jl Raya, Langam, Kec. Lape, Kabupaten Sumbawa, Nusa Tenggara Bar. 84382","Langam, Kec. Lape, Kabupaten Sumbawa",NUSA TENGGARA BARAT,84382.0,Indonesia,1500959,,,-86.128.033,1.175.594.254,https://maps.google.com/?cid=0x0:0xa4e9dce116aa4f18,
supermarket,Toko Swalayan,UD PUTRI CAHAYA,"9M84+54H, Jl. Lintas Sumbawa - Bima, Lape, Kec. Lape, Kabupaten Sumbawa, Nusa Tenggara Bar. 84382","Jl. Lintas Sumbawa - Bima, Lape, Kec. Lape, Kabupaten Sumbawa",NUSA TENGGARA BARAT,84382.0,Indonesia,,,,-86.345.693,1.176.553.539,https://maps.google.com/?cid=0x0:0x19e23364356fb794,
supermarket,Pertanian,CV. TALO FAMILY,"Jl. Lintas Sumbawa - Bima No.KM-20, Lape, Kec. Sumbawa, Kabupaten Sumbawa, Nusa Tenggara Bar. 84382","Lape, Kec. Sumbawa, Kabupaten Sumbawa",NUSA TENGGARA BARAT,84382.0,Indonesia,82339172599,,,-86.211.492,1.175.947.193,https://maps.google.com/?cid=0x0:0x1b28f636876e02a3,
supermarket,Minimarket,Alfamart,"Jl. Raya Lape, Dete, Kec. Lape, Kabupaten Sumbawa, Nusa Tenggara Bar. 84382","Dete, Kec. Lape, Kabupaten Sumbawa",NUSA TENGGARA BARAT,84382.0,Indonesia,1500959,,,-86.325.319,117.606.809,https://maps.google.com/?cid=0x0:0xafce4eb73c8cefd7,
supermarket,Pusat Perbelanjaan,UD.GEMINI,"Langam, Kec. Lopok, Kabupaten Sumbawa, Nusa Tenggara Bar. 84382","Kec. Lopok, Kabupaten Sumbawa",NUSA TENGGARA BARAT,84382.0,Indonesia,85237405091,,,-86.139.455,117.561.257,https://maps.google.com/?cid=0x0:0xd23b624939a3f9b,
supermarket,Kios,UD. WINATA ANWAR,"8G58+MX8, Pungkit, Kec. Lopok, Kabupaten Sumbawa, Nusa Tenggara Bar. 84371","Pungkit, Kec. Lopok, Kabupaten Sumbawa",NUSA TENGGARA BARAT,84371.0,Indonesia,,,,-8.690.827,1.175.174.516,https://maps.google.com/?cid=0x0:0xd21b1d00ca20fba,
supermarket,Toko,Dyra Store,"9HP6+G98, Jl. Lintas Sumbawa - Bima, Langam, Kec. Lopok, Kabupaten Sumbawa, Nusa Tenggara Bar. 84382","Jl. Lintas Sumbawa - Bima, Langam, Kec. Lopok, Kabupaten Sumbawa",NUSA TENGGARA BARAT,84382.0,Indonesia,85237862156,,,-86.137.077,1.175.609.633,https://maps.google.com/?cid=0x0:0xb5e41d3abf6e17dd,
supermarket,Toko,Sunarmiati,"Pasar Langam Los 2 No. 32, JL Lintas Sumbawa - Bima, RT 02 RW 07, Kabuyit Barat, Langam, Lopok, Sumbawa, Langam, Sumbawa Besar, Kabupaten Sumbawa, Nusa Tenggara Bar. 84382","JL Lintas Sumbawa - Bima, RT 02 RW 07, Kabuyit Barat, Langam, Lopok, Sumbawa, Langam, Sumbawa Besar, Kabupaten Sumbawa",NUSA TENGGARA BARAT,84382.0,Indonesia,81917566468,,,-86.142.039,1.175.643.969,https://maps.google.com/?cid=0x0:0x25ddeab85349fd25,
supermarket,supermarket,Ocha Radja Fiirouun,"9GQX+PQ6, Jl. Lintas Sumbawa - Bima, Lopok, Kec. Lopok, Kabupaten Sumbawa, Nusa Tenggara Bar.","Kabupaten Sumbawa, Nusa Tenggara Bar.",NUSA TENGGARA BARAT,,Indonesia,,,,-86.105.375,1.175.496.377,https://maps.google.com/?cid=0x0:0x9b1dfe2e69940e87,
supermarket,Toko Swalayan,UD.SANTI,"Lape, Kec. Lape, Kabupaten Sumbawa, Nusa Tenggara Bar. 84382","Kec. Lape, Kabupaten Sumbawa",NUSA TENGGARA BARAT,84382.0,Indonesia,,,,-86.278.102,1.176.190.759,https://maps.google.com/?cid=0x0:0x667b44c172b7aa81,
supermarket,Pusat Perbelanjaan,Kios Empat Putra,"9HH7+P6V, Langam, Kec. Lopok, Kabupaten Sumbawa, Nusa Tenggara Bar.","Kabupaten Sumbawa, Nusa Tenggara Bar.",NUSA TENGGARA BARAT,,Indonesia,82340832664,,,-86.206.477,1.175.630.407,https://maps.google.com/?cid=0x0:0x7757939157e113e3,
supermarket,supermarket,Master Frozen Mart,"8PH4+V72, Labuhan Sangoro, Kec. Maronge, Kabupaten Sumbawa, Nusa Tenggara Bar. 84383","Labuhan Sangoro, Kec. Maronge, Kabupaten Sumbawa",NUSA TENGGARA BARAT,84383.0,Indonesia,,,,-86.704.137,11.770.568,https://maps.google.com/?cid=0x0:0x948bf762c6c51c8,
supermarket,Toko Swalayan,Rini Mart,"8MRC+274, Pemasar, Kec. Maronge, Kabupaten Sumbawa, Nusa Tenggara Bar. 84383","Pemasar, Kec. Maronge, Kabupaten Sumbawa",NUSA TENGGARA BARAT,84383.0,Indonesia,85333026157,,,-86.599.914,1.176.706.988,https://maps.google.com/?cid=0x0:0xfcc4a9efe86a79f3,
supermarket,supermarket,Nusa Tenggara Bar. 84383,"Kabupaten Sumbawa, Nusa Tenggara Bar.","Kabupaten Sumbawa, Nusa Tenggara Bar.",NUSA TENGGARA BARAT,,Indonesia,,,,-88.189.341,117.784.246,https://maps.google.com/?cid=0x0:0x656c5e354fc14eea,
supermarket,Toko,Alfamart Maronge,"Jl Raya No.Kel, Maronge, Kec. Maronge, Kabupaten Sumbawa, Nusa Tenggara Bar. 84383","Maronge, Kec. Maronge, Kabupaten Sumbawa",NUSA TENGGARA BARAT,84383.0,Indonesia,1500959,,,-86.701.504,1.177.054.427,https://maps.google.com/?cid=0x0:0xd373178cb79535d8,
supermarket,Toko Swalayan,Rini Mart,"8MRC+274, Pemasar, Kec. Maronge, Kabupaten Sumbawa, Nusa Tenggara Bar. 84383","Pemasar, Kec. Maronge, Kabupaten Sumbawa",NUSA TENGGARA BARAT,84383.0,Indonesia,85333026157,,,-86.599.914,1.176.706.988,https://maps.google.com/?cid=0x0:0xfcc4a9efe86a79f3,
supermarket,Toko,Runis,"6Q6J+X2R, Plampang, Kec. Plampang, Kabupaten Sumbawa, Nusa Tenggara Bar. 84383","Plampang, Kec. Plampang, Kabupaten Sumbawa",NUSA TENGGARA BARAT,84383.0,Indonesia,82383110025,,,-87.875.203,1.177.800.113,https://maps.google.com/?cid=0x0:0x2eac86bae299ea7f,
supermarket,Toko bahan makanan,Toko Tegar Jaya,"6Q4F+FQ2, Jl. Lintas Sumbawa - Bima, Selante, Kec. Plampang, Kabupaten Sumbawa, Nusa Tenggara Bar. 84383","Jl. Lintas Sumbawa - Bima, Selante, Kec. Plampang, Kabupaten Sumbawa",NUSA TENGGARA BARAT,84383.0,Indonesia,,,,-87.938.646,1.177.743.852,https://maps.google.com/?cid=0x0:0x5260915c1f34abe3,
supermarket,Minimarket,Alfamart Labangka,"3QX9+RPC, Labangka, Kec. Labangka, Kabupaten Sumbawa, Nusa Tenggara Bar. 84383","Labangka, Kec. Labangka, Kabupaten Sumbawa",NUSA TENGGARA BARAT,84383.0,Indonesia,,,,-89.004.315,1.177.692.603,https://maps.google.com/?cid=0x0:0x2974e86864cad05c,
supermarket,Toko,Minimarket UD RISKA,"6Q4R+58Q, Jl. Lintas Sumbawa - Bima, Plampang, Kec. Plampang, Kabupaten Sumbawa, Nusa Tenggara Bar. 84383","Jl. Lintas Sumbawa - Bima, Plampang, Kec. Plampang, Kabupaten Sumbawa",NUSA TENGGARA BARAT,84383.0,Indonesia,,,,-87.945.359,1.177.908.725,https://maps.google.com/?cid=0x0:0x5829474b55755dd,
supermarket,supermarket,Kios bagas,"6Q4H+P56, Plampang, Kec. Plampang, Kabupaten Sumbawa, Nusa Tenggara Bar.","Kabupaten Sumbawa, Nusa Tenggara Bar.",NUSA TENGGARA BARAT,,Indonesia,,,,-87.932.227,1.177.778.869,https://maps.google.com/?cid=0x0:0xa1f3bc4969be8f44,
supermarket,Toko,Zairur Arifin,"JL Lintas Sumbawa-Bima, RT 01 RW 06, Brang Kolong, Pelampang, Sumbawa Besar, 84251","RT 01 RW 06, Brang Kolong, Pelampang",NUSA TENGGARA BARAT,84251.0,Indonesia,81906986128,,,-87.433.756,1.177.307.349,https://maps.google.com/?cid=0x0:0xc70a5c54ba934bc,
supermarket,Kedai Kopi,Kios Rohana,"Usar, Kec. Plampang, Kabupaten Sumbawa, Nusa Tenggara Bar.","Kabupaten Sumbawa, Nusa Tenggara Bar.",NUSA TENGGARA BARAT,,Indonesia,,,,-87.893.435,1.178.036.357,https://maps.google.com/?cid=0x0:0x223e4906d966487d,
supermarket,Toko Bahan Bangunan,UD. IMAM PERKASA,"6Q3M+276, Plampang, Kec. Plampang, Kabupaten Sumbawa, Nusa Tenggara Bar. 84383","Plampang, Kec. Plampang, Kabupaten Sumbawa",NUSA TENGGARA BARAT,84383.0,Indonesia,85337012004,,,-87.974.693,1.177.831.361,https://maps.google.com/?cid=0x0:0x4c3eefa55154c2bd,
supermarket,Toko,Toko Yanti,"6Q2H+77C, karya jaya plampang, Plampang, Kec. Plampang, Kabupaten Sumbawa, Nusa Tenggara Bar. 84383","karya jaya plampang, Plampang, Kec. Plampang, Kabupaten Sumbawa",NUSA TENGGARA BARAT,84383.0,Indonesia,,,,-87.993.245,1.177.781.324,https://maps.google.com/?cid=0x0:0xc50437717d9479c6,
supermarket,Produsen makanan,Tokoh buah bunda sinzah,"6Q3G+QC4, Plampang, Kec. Plampang, Kabupaten Sumbawa, Nusa Tenggara Bar. 84383","Plampang, Kec. Plampang, Kabupaten Sumbawa",NUSA TENGGARA BARAT,84383.0,Indonesia,82340524143,,,-87.956.036,1.177.760.917,https://maps.google.com/?cid=0x0:0xcbac7ebdfbd05498,
supermarket,Toko Swalayan,Toko Empat Putri,"Jl. Lintas Labangka No.369, Plampang, Sumbawa, Kabupaten Sumbawa, Nusa Tenggara Bar. 84383","Plampang, Sumbawa, Kabupaten Sumbawa",NUSA TENGGARA BARAT,84383.0,Indonesia,37123313,,,-87.975.014,11.777.877,https://maps.google.com/?cid=0x0:0xa15c7188c70a8258,
supermarket,Toko,Alfamart,"Karya Mulya, Jl Raya, Plampang, Kec. Plampang, Kabupaten Sumbawa, Nusa Tenggara Bar. 84351","Jl Raya, Plampang, Kec. Plampang, Kabupaten Sumbawa",NUSA TENGGARA BARAT,84351.0,Indonesia,1500959,,,-87.970.876,1.177.791.123,https://maps.google.com/?cid=0x0:0x9c74dda9cbb4e64a,
supermarket,Toko bahan makanan,Toko Wijaya,"6R64+G47, Jl. Lintas Sumbawa - Bima, Plampang, Kec. Plampang, Kabupaten Sumbawa, Nusa Tenggara Bar. 84383","Jl. Lintas Sumbawa - Bima, Plampang, Kec. Plampang, Kabupaten Sumbawa",NUSA TENGGARA BARAT,84383.0,Indonesia,,,,-87.887.895,1.178.050.879,https://maps.google.com/?cid=0x0:0xc3849366f7ceaeea,
supermarket,,UD Kenangi,"5QQC+F2F, Selante, Kec. Plampang, Kabupaten Sumbawa, Nusa Tenggara Bar. 84383","Selante, Kec. Plampang, Kabupaten Sumbawa",NUSA TENGGARA BARAT,84383.0,Indonesia,81236263273,,,-88.113.145,1.177.700.418,https://maps.google.com/?cid=0x0:0x19a101e998b25837,
supermarket,Toko,almaira fruits plampang,"jalan raya lintas, labangka, Kec. Plampang, Kabupaten Sumbawa, Nusa Tenggara Bar. 84383","labangka, Kec. Plampang, Kabupaten Sumbawa",NUSA TENGGARA BARAT,84383.0,Indonesia,81353406498,,,-88.000.398,1.177.784.353,https://maps.google.com/?cid=0x0:0x47920a0abced74c1,
supermarket,Toko,Alfamart,"Sepayung, Kec. Plampang, Kabupaten Sumbawa, Nusa Tenggara Bar. 84383","Kec. Plampang, Kabupaten Sumbawa",NUSA TENGGARA BARAT,84383.0,Indonesia,,,,-87.737.191,1.178.269.867,https://maps.google.com/?cid=0x0:0x40535f63c37f90ec,
supermarket,Toko Swalayan,UD. Bismillah,"3PWW+MH3, Suka Damai, Kec. Labangka, Kabupaten Sumbawa, Nusa Tenggara Bar. 84383","Suka Damai, Kec. Labangka, Kabupaten Sumbawa",NUSA TENGGARA BARAT,84383.0,Indonesia,,,,-89.033.628,1.177.464.166,https://maps.google.com/?cid=0x0:0xbde679f5578602f8,
supermarket,supermarket,Nusa Tenggara Bar. 84381,"Kec. Moyo Utara, Kabupaten Sumbawa, Nusa Tenggara Bar.","Kabupaten Sumbawa, Nusa Tenggara Bar.",NUSA TENGGARA BARAT,,Indonesia,,,,-85.011.362,1.175.261.025,https://maps.google.com/?cid=0x0:0x87caee70964ef17f,
supermarket,Minimarket,Alfamart Moyo Utara,"Raya No.Kel, Sebewe, Kec. Moyo Utara, Kabupaten Sumbawa, Nusa Tenggara Bar. 84381","Sebewe, Kec. Moyo Utara, Kabupaten Sumbawa",NUSA TENGGARA BARAT,84381.0,Indonesia,1500959,,,-84.811.031,1.174.747.099,https://maps.google.com/?cid=0x0:0x56275ecd614511d5,
supermarket,Toko bahan makanan,Empat saudara,"FF3M+MQP, Moyo, Kec. Moyohilir, Kabupaten Sumbawa, Nusa Tenggara Bar. 84381","Moyo, Kec. Moyohilir, Kabupaten Sumbawa",NUSA TENGGARA BARAT,84381.0,Indonesia,85338928023,,,-85.457.971,117.484.439,https://maps.google.com/?cid=0x0:0x5d0e1eccec6ed7d,
supermarket,Toko Swalayan,Alfamart,"Jalan Raya Sumbawa - Moyo Kel.Moyo, Kec, Moyo, Kec. Moyohilir, Kabupaten Sumbawa, Nusa Tenggara Bar. 84381","Kec, Moyo, Kec. Moyohilir, Kabupaten Sumbawa",NUSA TENGGARA BARAT,84381.0,Indonesia,1500959,,,-85.304.455,1.174.514.904,https://maps.google.com/?cid=0x0:0x245ddd89de1ed70a,
supermarket,Toko,Family store ( Aryati ),"Jln. Undru Desa Moyo Mekar Dusun Moyo, Atas, RT.010/RW.004, Kec, Kec. Moyohilir, Kabupaten Sumbawa, Nusa Tenggara Bar. 84381","Atas, RT.010/RW.004, Kec, Kec. Moyohilir, Kabupaten Sumbawa",NUSA TENGGARA BARAT,84381.0,Indonesia,82340545594,,,-8.527.919,117.492.617,https://maps.google.com/?cid=0x0:0x759f092860af0dc,
supermarket,Minimarket,Artha Raya (Arthaya),"BTN Puri Citra Samawa No.A29, Moyo, Kec. Moyohilir, Kabupaten Sumbawa, Nusa Tenggara Bar. 84381","Moyo, Kec. Moyohilir, Kabupaten Sumbawa",NUSA TENGGARA BARAT,84381.0,Indonesia,,,,-85.284.882,117.471.727,https://maps.google.com/?cid=0x0:0xd62e315805a1b0d,
supermarket,Minimarket,UD. Ayuri,"CG68+VQJ, Serading, Kec. Moyohilir, Kabupaten Sumbawa, Nusa Tenggara Bar. 84381","Serading, Kec. Moyohilir, Kabupaten Sumbawa",NUSA TENGGARA BARAT,84381.0,Indonesia,,,,-85.877.965,1.175.168.929,https://maps.google.com/?cid=0x0:0x789ade3224166005,
supermarket,Toko Swalayan,SF,"Green Toyyibah Resident No.A10, Kec. Moyohilir, Nusa Tenggara Bar.","Kabupaten Sumbawa, Nusa Tenggara Bar.",NUSA TENGGARA BARAT,,Indonesia,82341331678,,,-85.293.281,1.174.611.557,https://maps.google.com/?cid=0x0:0x5890a6700a87463d,
supermarket,Toko Bahan Bangunan,Toko Ruriz,"FFFP+FHC, Jl. Raya Moyo Hilir, Moyo, Kec. Moyohilir, Kabupaten Sumbawa, Nusa Tenggara Bar. 84381","Jl. Raya Moyo Hilir, Moyo, Kec. Moyohilir, Kabupaten Sumbawa",NUSA TENGGARA BARAT,84381.0,Indonesia,81353411126,,,-85.263.144,117.486.398,https://maps.google.com/?cid=0x0:0x56a02e00bf678ff2,
supermarket,Toko,ADEHERMI,"CG87+X94, Serading, Kec. Moyohilir, Kabupaten Sumbawa, Nusa Tenggara Bar. 84381","Serading, Kec. Moyohilir, Kabupaten Sumbawa",NUSA TENGGARA BARAT,84381.0,Indonesia,,,,-85.825.286,1.175.135.868,https://maps.google.com/?cid=0x0:0x434e53f33c2ee969,
supermarket,Minimarket,Devii Mart,"GFJH+78V, Baru Tahan, Kec. Moyo Utara, Kabupaten Sumbawa, Nusa Tenggara Bar. 84381","Baru Tahan, Kec. Moyo Utara, Kabupaten Sumbawa",NUSA TENGGARA BARAT,84381.0,Indonesia,,,,-8.469.254,117.478.301,https://maps.google.com/?cid=0x0:0xe9e3c0c9eb1fad6e,
supermarket,Grosir,Bumi ayu moyo,"FF92+VR, Moyo, Kec. Moyohilir, Kabupaten Sumbawa, Nusa Tenggara Bar.","Kabupaten Sumbawa, Nusa Tenggara Bar.",NUSA TENGGARA BARAT,,Indonesia,,,,-85.303.592,1.174.520.448,https://maps.google.com/?cid=0x0:0xf973460a5628af2b,
supermarket,Toko bahan makanan,ALIYA MART,"Baru Tahan, Kec. Moyo Utara, Kabupaten Sumbawa, Nusa Tenggara Bar. 84381","Kec. Moyo Utara, Kabupaten Sumbawa",NUSA TENGGARA BARAT,84381.0,Indonesia,,,,-84.712.776,1.174.781.769,https://maps.google.com/?cid=0x0:0x2712e73861a5bc39,
supermarket,Minimarket,INDOMARET Sabang,"GF9F+JQ7, Sebewe, Kec. Moyo Utara, Kabupaten Sumbawa, Nusa Tenggara Bar. 84381","Sebewe, Kec. Moyo Utara, Kabupaten Sumbawa",NUSA TENGGARA BARAT,84381.0,Indonesia,82340855720,,,-84.809.574,1.174.744.289,https://maps.google.com/?cid=0x0:0xf0fd1debef47890a,
supermarket,Minimarket,Alfamart Simpang Sebasang Moyo Hulu,"Jl. Sumbawa-Lunyuk, Marga Karya, Kec. Moyo Hulu, Kabupaten Sumbawa, Nusa Tenggara Bar. 84371","Marga Karya, Kec. Moyo Hulu, Kabupaten Sumbawa",NUSA TENGGARA BARAT,84371.0,Indonesia,,,,-86.442.022,1.174.387.682,https://maps.google.com/?cid=0x0:0xdfdc302986e9b383,
supermarket,Kafe,kios,"FFGR+R27, Moyo, Kec. Moyohilir, Kabupaten Sumbawa, Nusa Tenggara Bar. 84381","Moyo, Kec. Moyohilir, Kabupaten Sumbawa",NUSA TENGGARA BARAT,84381.0,Indonesia,82340875912,,,-85.229.624,1.174.900.514,https://maps.google.com/?cid=0x0:0xa0cddf86269b7d69,
supermarket,Toko umum,Warung Asri,"FF3M+9RC, Serading, Kec. Moyohilir, Kabupaten Sumbawa, Nusa Tenggara Bar. 84381","Serading, Kec. Moyohilir, Kabupaten Sumbawa",NUSA TENGGARA BARAT,84381.0,Indonesia,,,,-85.465.534,117.484.515,https://maps.google.com/?cid=0x0:0x49d8bc02ef79b991,
supermarket,supermarket,Rumah Amna,"FFR9+97V, Poto, Kec. Moyohilir, Kabupaten Sumbawa, Nusa Tenggara Bar. 94315","Poto, Kec. Moyohilir, Kabupaten Sumbawa",NUSA TENGGARA BARAT,94315.0,Indonesia,,,,-8.508.996,1.174.680.804,https://maps.google.com/?cid=0x0:0x2f68c9fe58f720b3,
supermarket,Toko umum,Sinar abadi 28,"FGJ8+FFP, Ngeru, Kec. Moyohilir, Kabupaten Sumbawa, Nusa Tenggara Bar. 84381","Ngeru, Kec. Moyohilir, Kabupaten Sumbawa",NUSA TENGGARA BARAT,84381.0,Indonesia,,,,-85.187.814,1.175.162.102,https://maps.google.com/?cid=0x0:0x3a184aabdeb2fdf1,
supermarket,Toko Elektronik,Toko Uhud,"FFJV+CMM, Jl. Raya Moyo Hilir, Berare, Kec. Moyohilir, Kabupaten Sumbawa, Nusa Tenggara Bar. 84381","Jl. Raya Moyo Hilir, Berare, Kec. Moyohilir, Kabupaten Sumbawa",NUSA TENGGARA BARAT,84381.0,Indonesia,8978100011,,,-85.189.027,1.174.942.456,https://maps.google.com/?cid=0x0:0x804261f959c63936,
supermarket,Toko Kesehatan dan Kecantikan,Tiens Syariah Sumbawa,"Jl. Pendidikan No.1/5, Ngeru, Kec. Moyohilir, Kabupaten Sumbawa, Nusa Tenggara Bar. 84381","Ngeru, Kec. Moyohilir, Kabupaten Sumbawa",NUSA TENGGARA BARAT,84381.0,Indonesia,87896540632,,,-85.011.362,1.175.261.025,https://maps.google.com/?cid=0x0:0x807db51f23046493,
supermarket,Minimarket,Hermiade,"CG87+X94, Serading, Kec. Moyohilir, Kabupaten Sumbawa, Nusa Tenggara Bar. 84381","Serading, Kec. Moyohilir, Kabupaten Sumbawa",NUSA TENGGARA BARAT,84381.0,Indonesia,,,,-85.825.316,1.175.136.082,https://maps.google.com/?cid=0x0:0x57a858dbd7c98731,
supermarket,Toko,Amat ode',"FFMW+X7W, Berare, Kec. Moyohilir, Kabupaten Sumbawa, Nusa Tenggara Bar. 84381","Berare, Kec. Moyohilir, Kabupaten Sumbawa",NUSA TENGGARA BARAT,84381.0,Indonesia,87863520749,,,-85.150.099,1.174.956.961,https://maps.google.com/?cid=0x0:0x106487d5c42c0323,
supermarket,supermarket,Nusa Tenggara Bar. 84371,"Kec. Moyo Hulu, Kabupaten Sumbawa, Nusa Tenggara Bar.","Kabupaten Sumbawa, Nusa Tenggara Bar.",NUSA TENGGARA BARAT,,Indonesia,,,,-8.627.595,1.174.321.452,https://maps.google.com/?cid=0x0:0xccafdd5f53eea7b3,
supermarket,Minimarket,Poteng Ibu Surya,"Pernek, Kec. Moyo Hulu, Kabupaten Sumbawa, Nusa Tenggara Bar. 84371","Kec. Moyo Hulu, Kabupaten Sumbawa",NUSA TENGGARA BARAT,84371.0,Indonesia,85339095913,,,-8.595.484,1.174.320.868,https://maps.google.com/?cid=0x0:0xc7918146ba2e9073,
supermarket,Minimarket,Alfamart Simpang Sebasang Moyo Hulu,"Jl. Sumbawa-Lunyuk, Marga Karya, Kec. Moyo Hulu, Kabupaten Sumbawa, Nusa Tenggara Bar. 84371","Marga Karya, Kec. Moyo Hulu, Kabupaten Sumbawa",NUSA TENGGARA BARAT,84371.0,Indonesia,,,,-86.442.022,1.174.387.682,https://maps.google.com/?cid=0x0:0xdfdc302986e9b383,
supermarket,Pembangunan Perumahan,UD Satria,"8FPM+P2X, Unnamed Road, BatubTering, Lito, Kec. Moyo Hulu, Kabupaten Sumbawa, Nusa Tenggara Bar. 84371","Unnamed Road, BatubTering, Lito, Kec. Moyo Hulu, Kabupaten Sumbawa",NUSA TENGGARA BARAT,84371.0,Indonesia,,,,-86.631.492,1.174.826.204,https://maps.google.com/?cid=0x0:0x15643f78d881434e,
supermarket,Kios,KIOS SABINA,"8FMH+CVQ, Unnamed Road, Lito, Kec. Moyo Hulu, Kabupaten Sumbawa, Nusa Tenggara Bar. 84371","Unnamed Road, Lito, Kec. Moyo Hulu, Kabupaten Sumbawa",NUSA TENGGARA BARAT,84371.0,Indonesia,85338256886,,,-86.664.105,1.174.797.331,https://maps.google.com/?cid=0x0:0xefeb1f0805a8084c,
supermarket,Kios,Kios boby Jaya Talwa,"CFC7+GHW, Batubulan, Kec. Moyo Hulu, Kabupaten Sumbawa, Nusa Tenggara Bar. 84371","Batubulan, Kec. Moyo Hulu, Kabupaten Sumbawa",NUSA TENGGARA BARAT,84371.0,Indonesia,,,,-85.780.411,1.174.641.751,https://maps.google.com/?cid=0x0:0x299d4a13986f7670,
supermarket,Taman,Minimark Talwa(Bukit Cantik),"CFC7+GHW, Batubulan, Kec. Moyo Hulu, Kabupaten Sumbawa, Nusa Tenggara Bar. 84371","Batubulan, Kec. Moyo Hulu, Kabupaten Sumbawa",NUSA TENGGARA BARAT,84371.0,Indonesia,,,,-85.786.472,1.174.639.602,https://maps.google.com/?cid=0x0:0xc90ae42277868fea,
supermarket,Toko Swalayan,Alfamart,"CCGX+J8R, Batubulan, Kec. Moyo Hulu, Kabupaten Sumbawa, Nusa Tenggara Bar. 84316","Batubulan, Kec. Moyo Hulu, Kabupaten Sumbawa",NUSA TENGGARA BARAT,84316.0,Indonesia,,,,-85.733.965,1.174.482.788,https://maps.google.com/?cid=0x0:0x155a691e064c91e5,
supermarket,Gudang Peralatan,RAZQA JAYA,"9FM2+386, Mokong, Kec. Moyo Hulu, Kabupaten Sumbawa, Nusa Tenggara Bar. 84371","Mokong, Kec. Moyo Hulu, Kabupaten Sumbawa",NUSA TENGGARA BARAT,84371.0,Indonesia,,,,-86.173.496,117.450.763,https://maps.google.com/?cid=0x0:0x547cbdcbf827562,
supermarket,supermarket,Agung jaya,"89W6+RMC, Sempe, Kec. Moyo Hulu, Kabupaten Sumbawa, Nusa Tenggara Bar.","Kabupaten Sumbawa, Nusa Tenggara Bar.",NUSA TENGGARA BARAT,,Indonesia,,,,-86.529.334,1.173.616.476,https://maps.google.com/?cid=0x0:0x2b4a1c9282e3aaba,
supermarket,Minimarket,UD. Jaya Nining Samawa,"UD.Jaya Nining Samawa, Mokong, Kec. Moyo Hulu, Sumbawa besar, Nusa Tenggara Bar. 84371","Mokong, Kec. Moyo Hulu, Sumbawa besar",NUSA TENGGARA BARAT,84371.0,Indonesia,81246504168,,,-86.193.559,1.174.313.123,https://maps.google.com/?cid=0x0:0xfd41475cc2f03353,
supermarket,Toko,UD JIHAD,"9C4Q+85W, Simpang, Sebasang, Kec. Moyo Hulu, Kabupaten Sumbawa, Nusa Tenggara Bar. 84371","Simpang, Sebasang, Kec. Moyo Hulu, Kabupaten Sumbawa",NUSA TENGGARA BARAT,84371.0,Indonesia,85238185858,,,-86.441.258,1.174.379.601,https://maps.google.com/?cid=0x0:0xbf7ef54dce8e6e73,
supermarket,Toko Swalayan,UD. USAHA BARU,"Jalan Lintas Jl. Sumbawa-Lunyuk, Mokong, Kec. Moyo Hulu, Kabupaten Sumbawa, Nusa Tenggara Bar. 84371","Mokong, Kec. Moyo Hulu, Kabupaten Sumbawa",NUSA TENGGARA BARAT,84371.0,Indonesia,,,,-86.149.605,1.174.514.513,https://maps.google.com/?cid=0x0:0x3f8d4b8a1e33d22,
supermarket,Toko,IRFVN,"Unnamed Road, Sebasang, Kec. Moyo Hulu, Kabupaten Sumbawa, Nusa Tenggara Bar. 84371","Sebasang, Kec. Moyo Hulu, Kabupaten Sumbawa",NUSA TENGGARA BARAT,84371.0,Indonesia,,,,-86.490.242,1.174.467.984,https://maps.google.com/?cid=0x0:0x4a712e89d495d69e,
supermarket,Toko Swalayan,UD. Syifa'a,"8CXG+CCF, Semamung, Kec. Moyo Hulu, Kabupaten Sumbawa, Nusa Tenggara Bar. 84371","Semamung, Kec. Moyo Hulu, Kabupaten Sumbawa",NUSA TENGGARA BARAT,84371.0,Indonesia,,,,-86.514.424,1.174.260.395,https://maps.google.com/?cid=0x0:0xa418762379d9f7ea,
supermarket,Toko Kelontong Asia,Sinar Berlian Toko,"89X6+326, Sempe, Kec. Moyo Hulu, Kabupaten Sumbawa, Nusa Tenggara Bar. 84371","Sempe, Kec. Moyo Hulu, Kabupaten Sumbawa",NUSA TENGGARA BARAT,84371.0,Indonesia,37121041,,,-8.652.326,11.736.003,https://maps.google.com/?cid=0x0:0xc4f7a0ce12e0adeb,
supermarket,Toko Kesehatan dan Kecantikan,Toko Herbal Tiens Moyo Hulu,"Desa pernek,kec, Pungka, Kec. Moyo Hulu, Kabupaten Sumbawa, Nusa Tenggara Bar. 84371","Pungka, Kec. Moyo Hulu, Kabupaten Sumbawa",NUSA TENGGARA BARAT,84371.0,Indonesia,81237107133,,,-85.268.014,1.174.176.563,https://maps.google.com/?cid=0x0:0xfa3236788652a5c2,
supermarket,Toko,KIOS RUDIAN,"Pernek, Kec. Moyo Hulu, Kabupaten Sumbawa, Nusa Tenggara Bar. 84371","Kec. Moyo Hulu, Kabupaten Sumbawa",NUSA TENGGARA BARAT,84371.0,Indonesia,81210758143,,,-85.955.078,1.174.321.174,https://maps.google.com/?cid=0x0:0xde27fbfd25c9db2b,
supermarket,Toko,UD tanata,"9C5X+GWJ, Marga Karya, Kec. Moyo Hulu, Kabupaten Sumbawa, Nusa Tenggara Bar. 84371","Marga Karya, Kec. Moyo Hulu, Kabupaten Sumbawa",NUSA TENGGARA BARAT,84371.0,Indonesia,,,,-86.411.645,1.174.497.657,https://maps.google.com/?cid=0x0:0x8ff10446ce83a677,
supermarket,Toko Ponsel,TUAN ANYET,"9F4R+2P7, Lito, Kec. Moyo Hulu, Kabupaten Sumbawa, Nusa Tenggara Bar. 84371","Lito, Kec. Moyo Hulu, Kabupaten Sumbawa",NUSA TENGGARA BARAT,84371.0,Indonesia,82341292553,,,-86.449.525,1.174.917.835,https://maps.google.com/?cid=0x0:0xde17bb93faaf85f8,
supermarket,Toko umum,UD. AT DOFA,"8CXV+WXQ Ketanga, Sebasang, Kec. Moyo Hulu, Kabupaten Sumbawa, Nusa Tenggara Bar. 84371","Sebasang, Kec. Moyo Hulu, Kabupaten Sumbawa",NUSA TENGGARA BARAT,84371.0,Indonesia,81339752923,,,-86.501.679,1.174.449.848,https://maps.google.com/?cid=0x0:0xbbc5a900a6e77f1f,
supermarket,Nasi,Warung makan,"CCJG+844, Jl. Raya Olat Maras, Pernek, Kec. Moyo Hulu, Kabupaten Sumbawa, Nusa Tenggara Bar. 84316","Jl. Raya Olat Maras, Pernek, Kec. Moyo Hulu, Kabupaten Sumbawa",NUSA TENGGARA BARAT,84316.0,Indonesia,,,,-85.692.433,1.174.253.273,https://maps.google.com/?cid=0x0:0x16bcbdda9b68de5c,
supermarket,Pasar,Lapak fauziah,"89W6+RMC, Sempe, Kec. Moyo Hulu, Kabupaten Sumbawa, Nusa Tenggara Bar.","Kabupaten Sumbawa, Nusa Tenggara Bar.",NUSA TENGGARA BARAT,,Indonesia,,,,-86.529.334,1.173.616.476,https://maps.google.com/?cid=0x0:0x6364b28df7993323,
supermarket,Toserba,Depot Gibran Ro,"9FH6+VJ2, Maman, Kec. Moyo Hulu, Kabupaten Sumbawa, Nusa Tenggara Bar. 84371","Maman, Kec. Moyo Hulu, Kabupaten Sumbawa",NUSA TENGGARA BARAT,84371.0,Indonesia,82340251213,,,-8.620.359,1.174.615.117,https://maps.google.com/?cid=0x0:0xf3b982f2fcd6222c,
supermarket,Tempat Ibadah,Pelabuhan bima,"89W6+RMC, Sempe, Kec. Moyo Hulu, Kabupaten Sumbawa, Nusa Tenggara Bar.","Kabupaten Sumbawa, Nusa Tenggara Bar.",NUSA TENGGARA BARAT,,Indonesia,,,,-86.529.334,1.173.616.476,https://maps.google.com/?cid=0x0:0x6656dcd839ce258b,
supermarket,Komplek perumahan,Leseng Moyo hulu,"CF9G+6FG, Leseng, Kec. Moyo Hulu, Kabupaten Sumbawa, Nusa Tenggara Bar.","Kabupaten Sumbawa, Nusa Tenggara Bar.",NUSA TENGGARA BARAT,,Indonesia,,,,-85.819.375,1.174.761.934,https://maps.google.com/?cid=0x0:0x5d6968eb5c155480,
supermarket,Toserba,Toko sembako,"89W6+RMC, Sempe, Kec. Moyo Hulu, Kabupaten Sumbawa, Nusa Tenggara Bar.","Kabupaten Sumbawa, Nusa Tenggara Bar.",NUSA TENGGARA BARAT,,Indonesia,,,,-86.529.334,1.173.616.476,https://maps.google.com/?cid=0x0:0x5956d611e89a2623,
supermarket,Kios,Kios pop es,"CF82+W5M, Jl. Sumbawa-Lunyuk, Batubulan, Kec. Moyo Hulu, Kabupaten Sumbawa, Nusa Tenggara Bar. 84371","Jl. Sumbawa-Lunyuk, Batubulan, Kec. Moyo Hulu, Kabupaten Sumbawa",NUSA TENGGARA BARAT,84371.0,Indonesia,,,,-8.582.652,1.174.508.816,https://maps.google.com/?cid=0x0:0xb3f45ba95311c732,
supermarket,Toko Kue,KIOS IBU SAHMAWATI,"Jl Sumbawa-Lunyuk, Pelita, Mokong, Kec. Moyo Hulu, Kabupaten Sumbawa, Nusa Tenggara Bar. 84371","Pelita, Mokong, Kec. Moyo Hulu, Kabupaten Sumbawa",NUSA TENGGARA BARAT,84371.0,Indonesia,85239070494,,,-86.169.273,1.174.517.213,https://maps.google.com/?cid=0x0:0x345144fdb824b9c7,
supermarket,Minimarket,Alfamart Moyo Utara,"Raya No.Kel, Sebewe, Kec. Moyo Utara, Kabupaten Sumbawa, Nusa Tenggara Bar. 84381","Sebewe, Kec. Moyo Utara, Kabupaten Sumbawa",NUSA TENGGARA BARAT,84381.0,Indonesia,1500959,,,-84.811.031,1.174.747.099,https://maps.google.com/?cid=0x0:0x56275ecd614511d5,
supermarket,supermarket,Kec. Moyo Utara,"Kabupaten Sumbawa, Nusa Tenggara Bar.","Kabupaten Sumbawa, Nusa Tenggara Bar.",NUSA TENGGARA BARAT,,Indonesia,,,,-84.725.136,1.174.780.541,https://maps.google.com/?cid=0x0:0xcc581bdcf8ad2cb,
supermarket,Minimarket,INDOMARET Sabang,"GF9F+JQ7, Sebewe, Kec. Moyo Utara, Kabupaten Sumbawa, Nusa Tenggara Bar. 84381","Sebewe, Kec. Moyo Utara, Kabupaten Sumbawa",NUSA TENGGARA BARAT,84381.0,Indonesia,82340855720,,,-84.809.574,1.174.744.289,https://maps.google.com/?cid=0x0:0xf0fd1debef47890a,
supermarket,Toko Swalayan,UD. NABILA,"GF9F+HMC, Sebewe, Kec. Moyo Utara, Kabupaten Sumbawa, Nusa Tenggara Bar.","Kabupaten Sumbawa, Nusa Tenggara Bar.",NUSA TENGGARA BARAT,,Indonesia,,,,-8.481.072,1.174.741.519,https://maps.google.com/?cid=0x0:0x8b292ac6889bd15d,
supermarket,Toko bahan makanan,ALIYA MART,"Baru Tahan, Kec. Moyo Utara, Kabupaten Sumbawa, Nusa Tenggara Bar. 84381","Kec. Moyo Utara, Kabupaten Sumbawa",NUSA TENGGARA BARAT,84381.0,Indonesia,,,,-84.712.776,1.174.781.769,https://maps.google.com/?cid=0x0:0x2712e73861a5bc39,
supermarket,Minimarket,Alfamart,"Jl. Raya Jl. Raya Moyo Hilir No.Desa, Berare, Kec. Moyohilir, Kabupaten Sumbawa, Nusa Tenggara Bar. 84381","Berare, Kec. Moyohilir, Kabupaten Sumbawa",NUSA TENGGARA BARAT,84381.0,Indonesia,1500959,,,-85.111.918,1.174.976.719,https://maps.google.com/?cid=0x0:0x9abfcbf813efe4d1,
supermarket,Toko Swalayan,Alfamart,"Jalan Raya Sumbawa - Moyo Kel.Moyo, Kec, Moyo, Kec. Moyohilir, Kabupaten Sumbawa, Nusa Tenggara Bar. 84381","Kec, Moyo, Kec. Moyohilir, Kabupaten Sumbawa",NUSA TENGGARA BARAT,84381.0,Indonesia,1500959,,,-85.304.455,1.174.514.904,https://maps.google.com/?cid=0x0:0x245ddd89de1ed70a,
supermarket,Toserba,Ud Zikri Jaya,"GFRP+V8X, Kukin, Kec. Moyo Utara, Kabupaten Sumbawa, Nusa Tenggara Bar. 84381","Kukin, Kec. Moyo Utara, Kabupaten Sumbawa",NUSA TENGGARA BARAT,84381.0,Indonesia,,,,-84.577.923,1.174.858.513,https://maps.google.com/?cid=0x0:0x552a5764897fbc61,
supermarket,Toko Swalayan,KUSUMA Grosir Murah,"Jl. Manggis, Uma Sima, Kec. Sumbawa, Kabupaten Sumbawa, Nusa Tenggara Bar. 84313","Uma Sima, Kec. Sumbawa, Kabupaten Sumbawa",NUSA TENGGARA BARAT,84313.0,Indonesia,85339246486,,,-84.927.697,117.425.125,https://maps.google.com/?cid=0x0:0x9a4ff26c5a53ce9a,
supermarket,Toko,UD.NINA,"Sebewe, Kec. Moyo Utara, Kabupaten Sumbawa, Nusa Tenggara Bar. 84381","Kec. Moyo Utara, Kabupaten Sumbawa",NUSA TENGGARA BARAT,84381.0,Indonesia,85339945684,,,-84.880.061,1.174.703.209,https://maps.google.com/?cid=0x0:0x414f7bc70ce11e35,
supermarket,Toko bahan makanan,UD DINDANINDY,"GFH8+M7F, Jln kartini B, Penyaring, Kec. Moyo Utara, Kabupaten Sumbawa, Nusa Tenggara Bar. 84381","Jln kartini B, Penyaring, Kec. Moyo Utara, Kabupaten Sumbawa",NUSA TENGGARA BARAT,84381.0,Indonesia,85239980872,,,-84.707.962,1.174.655.972,https://maps.google.com/?cid=0x0:0x1ae55b6815cfa04b,
supermarket,Masjid,Songkar,"GFHX+JVV, Songkar, Kec. Moyo Utara, Kabupaten Sumbawa, Nusa Tenggara Bar. 84381","Songkar, Kec. Moyo Utara, Kabupaten Sumbawa",NUSA TENGGARA BARAT,84381.0,Indonesia,,,,-847.089,1.174.996.816,https://maps.google.com/?cid=0x0:0x93a4315d6449cfb6,
supermarket,supermarket,Rumah makan ibu Mini,"GF88+XHQ, Penyaring, Kec. Moyo Utara, Kabupaten Sumbawa, Nusa Tenggara Bar. 84311","Penyaring, Kec. Moyo Utara, Kabupaten Sumbawa",NUSA TENGGARA BARAT,84311.0,Indonesia,,,,-84.822.759,1.174.663.433,https://maps.google.com/?cid=0x0:0xfdc78ece619d6044,
supermarket,Toko,Toko CHELIN CELL,"GFHH+352, Baru Tahan, Kec. Moyo Utara, Kabupaten Sumbawa, Nusa Tenggara Bar. 84381","Baru Tahan, Kec. Moyo Utara, Kabupaten Sumbawa",NUSA TENGGARA BARAT,84381.0,Indonesia,85337696977,,,-84.723.639,1.174.778.814,https://maps.google.com/?cid=0x0:0x26ecc4ce10d6017a,
supermarket,Toko,UD.RISKIKA (produksi permen susu khas sumbawa),"GFH8+G78, Penyaring, Kec. Moyo Utara, Kabupaten Sumbawa, Nusa Tenggara Bar. 84381","Penyaring, Kec. Moyo Utara, Kabupaten Sumbawa",NUSA TENGGARA BARAT,84381.0,Indonesia,,,,-84.711.546,1.174.657.558,https://maps.google.com/?cid=0x0:0xd1ac50ad22775bea,
supermarket,Toko Pakaian,"BUTIK, UD.ERI","Unnamed Road, Nusa Tenggara Bar. 84381, Baru Tahan, Kec. Moyo Utara, Kabupaten Sumbawa, Nusa Tenggara Bar. 84381",Nusa Tenggara Bar.,NUSA TENGGARA BARAT,84381.0,Indonesia,83114435593,,,-8.472.319,117.477.521,https://maps.google.com/?cid=0x0:0x2506f5c7eabe2b26,
supermarket,Minimarket,Alfamart Simpang Sebasang Moyo Hulu,"Jl. Sumbawa-Lunyuk, Marga Karya, Kec. Moyo Hulu, Kabupaten Sumbawa, Nusa Tenggara Bar. 84371","Marga Karya, Kec. Moyo Hulu, Kabupaten Sumbawa",NUSA TENGGARA BARAT,84371.0,Indonesia,,,,-86.442.022,1.174.387.682,https://maps.google.com/?cid=0x0:0xdfdc302986e9b383,
supermarket,Pembangunan Perumahan,Rumah sukaesih,"GF6G+QM, Sebewe, Kec. Moyo Utara, Kabupaten Sumbawa, Nusa Tenggara Bar.","Kabupaten Sumbawa, Nusa Tenggara Bar.",NUSA TENGGARA BARAT,,Indonesia,82341500065,,,-84.880.687,1.174.767.585,https://maps.google.com/?cid=0x0:0xb5efb5d75429863e,
supermarket,Toko,UD.SAKINAH,"GGJ3+9F8, Songkar, Kec. Moyo Utara, Kabupaten Sumbawa, Nusa Tenggara Bar. 84381","Songkar, Kec. Moyo Utara, Kabupaten Sumbawa",NUSA TENGGARA BARAT,84381.0,Indonesia,,,,-84.690.975,1.175.037.012,https://maps.google.com/?cid=0x0:0xc971a36188d400bf,
supermarket,Toko,Family store ( Aryati ),"Jln. Undru Desa Moyo Mekar Dusun Moyo, Atas, RT.010/RW.004, Kec, Kec. Moyohilir, Kabupaten Sumbawa, Nusa Tenggara Bar. 84381","Atas, RT.010/RW.004, Kec, Kec. Moyohilir, Kabupaten Sumbawa",NUSA TENGGARA BARAT,84381.0,Indonesia,82340545594,,,-8.527.919,117.492.617,https://maps.google.com/?cid=0x0:0x759f092860af0dc,
supermarket,Kios,UD. Hendri,"RT.004/RW.002, Pungkit, Kec. Moyo Utara, Kabupaten Sumbawa, Nusa Tenggara Bar. 84381","Pungkit, Kec. Moyo Utara, Kabupaten Sumbawa",NUSA TENGGARA BARAT,84381.0,Indonesia,82144321151,,,-8.478.564,1.174.811.099,https://maps.google.com/?cid=0x0:0x71a0e2f6bdcdde98,
supermarket,Toko bahan makanan,toko chris jaya,"Jl. Yos Sudarso No.16, Seketeng, Kec. Sumbawa, Kabupaten Sumbawa, Nusa Tenggara Bar. 84313","Seketeng, Kec. Sumbawa, Kabupaten Sumbawa",NUSA TENGGARA BARAT,84313.0,Indonesia,82145946181,,,-84.942.887,1.174.240.608,https://maps.google.com/?cid=0x0:0xb18f8651bbcad4f3,
supermarket,supermarket,Kec. Orong Telu,"Kabupaten Sumbawa, Nusa Tenggara Bar.","Kabupaten Sumbawa, Nusa Tenggara Bar.",NUSA TENGGARA BARAT,,Indonesia,,,,-87.588.562,1.171.847.123,https://maps.google.com/?cid=0x0:0x6d77041b0a298ea5,
supermarket,Pemasok Peralatan Pertanian,PI mart agen pupuk subsidi/nonsubsidi,"642C+HCC, Unnamed Road, Mungkin, Kec. Orong Telu, Kabupaten Sumbawa, Nusa Tenggara Bar. 84373","Unnamed Road, Mungkin, Kec. Orong Telu, Kabupaten Sumbawa",NUSA TENGGARA BARAT,84373.0,Indonesia,85333589705,,,-87.985.631,1.171.210.052,https://maps.google.com/?cid=0x0:0x8589d7d2e431d5a7,
supermarket,supermarket,Yayu Store,"65HH+XH8, Dusun Pelitamasa, Kelawis, Kec. Orong Telu, Kabupaten Sumbawa, Nusa Tenggara Bar. 84373","Dusun Pelitamasa, Kelawis, Kec. Orong Telu, Kabupaten Sumbawa",NUSA TENGGARA BARAT,84373.0,Indonesia,,,,-8.770.098,1.171.789.527,https://maps.google.com/?cid=0x0:0x839659b179bbdd0d,
supermarket,Dapur Umum,Ibanibin food,"Dasan bilok, Kec. Orong Telu, Timur, Nusa Tenggara Bar. 83666","Kec. Orong Telu, Timur",NUSA TENGGARA BARAT,83666.0,Indonesia,85237221806,,,-87.806.762,1.171.062.922,https://maps.google.com/?cid=0x0:0xf345d78b1ca9857a,
supermarket,Rumah Sakit,Puskesmas Orong Telu,"65RP+92X, Sebeok, Kec. Orong Telu, Kabupaten Sumbawa, Nusa Tenggara Bar. 84373","Sebeok, Kec. Orong Telu, Kabupaten Sumbawa",NUSA TENGGARA BARAT,84373.0,Indonesia,,,,-87.590.216,117.185.109,https://maps.google.com/?cid=0x0:0x4d02f4827a4486b5,
supermarket,Toko Mebel,DH JAYA MEUBLE,"65RP+6G, Sebeok, Kec. Orong Telu, Kabupaten Sumbawa, Nusa Tenggara Bar. 84373","Sebeok, Kec. Orong Telu, Kabupaten Sumbawa",NUSA TENGGARA BARAT,84373.0,Indonesia,,,,-87.599.322,1.171.863.834,https://maps.google.com/?cid=0x0:0x92d878b0574fe59b,
supermarket,Pusat Perbelanjaan,moro seneng retail,"Jl. Raya Maluk No.46, Pasir Putih, Kec. Maluk, Kabupaten Sumbawa Barat, Nusa Tenggara Bar. 84456","Pasir Putih, Kec. Maluk, Kabupaten Sumbawa Barat",NUSA TENGGARA BARAT,84456.0,Indonesia,82342630000,,,-89.147.901,1.167.515.588,https://maps.google.com/?cid=0x0:0xc2fe3c8783bf2622,
supermarket,supermarket,RATE B,"69P2+4HR, Tatebal, Kec. Lenangguar, Kabupaten Sumbawa, Nusa Tenggara Bar.","Kabupaten Sumbawa, Nusa Tenggara Bar.",NUSA TENGGARA BARAT,,Indonesia,,,,-87.646.306,1.173.514.023,https://maps.google.com/?cid=0x0:0x58cd922a76a10d7c,
supermarket,Pertanian,Warung Nasi Mantap Desa Sebeok,"Jl lintas, Batu Rotok, Sebeok, Kec. Lenangguar, Kabupaten Sumbawa, Nusa Tenggara Bar. 54373","Batu Rotok, Sebeok, Kec. Lenangguar, Kabupaten Sumbawa",NUSA TENGGARA BARAT,54373.0,Indonesia,82340123744,,,-87.634.992,1.171.847.025,https://maps.google.com/?cid=0x0:0xc9dd6b1111f8b28d,
supermarket,supermarket,UD. Naufal Rama,"54XC+945, Mungkin, Kec. Orong Telu, Kabupaten Sumbawa, Nusa Tenggara Bar.","Kabupaten Sumbawa, Nusa Tenggara Bar.",NUSA TENGGARA BARAT,,Indonesia,,,,-88.016.009,1.171.203.481,https://maps.google.com/?cid=0x0:0x64eba55db31ecdf0,
supermarket,supermarket,UD. ADITYA MENTARI,"74F9+XRW, Mungkin, Kec. Orong Telu, Kabupaten Sumbawa, Nusa Tenggara Bar. 84373","Mungkin, Kec. Orong Telu, Kabupaten Sumbawa",NUSA TENGGARA BARAT,84373.0,Indonesia,,,,-87.250.176,1.171.195.756,https://maps.google.com/?cid=0x0:0xfc5f435c340052eb,
supermarket,supermarket,Plampang,"Plampang, Kec. Plampang, Kabupaten Sumbawa, Nusa Tenggara Bar.","Kabupaten Sumbawa, Nusa Tenggara Bar.",NUSA TENGGARA BARAT,,Indonesia,,,,-8.815.327,1.178.078,https://maps.google.com/?cid=0x0:0x7a9cc1b2a62e435d,
supermarket,Toko,toko serba ada,"jl. lintas sumbawa- km 70Plampang,Kabupaten Sumbawa, Nusa Tenggara Bar., Indonesia, Plampang, Kec. Plampang, Bima, Nusa Tenggara Bar. 84383","Nusa Tenggara Bar., Indonesia, Plampang, Kec. Plampang, Bima",NUSA TENGGARA BARAT,84383.0,Indonesia,81770051784,,,-87.888.557,1.178.057.726,https://maps.google.com/?cid=0x0:0xe11b6ea6bc2bf9ec,
supermarket,Toko,Runis,"6Q6J+X2R, Plampang, Kec. Plampang, Kabupaten Sumbawa, Nusa Tenggara Bar. 84383","Plampang, Kec. Plampang, Kabupaten Sumbawa",NUSA TENGGARA BARAT,84383.0,Indonesia,82383110025,,,-87.875.203,1.177.800.113,https://maps.google.com/?cid=0x0:0x2eac86bae299ea7f,
supermarket,Kedai Kopi,Kios Rohana,"Usar, Kec. Plampang, Kabupaten Sumbawa, Nusa Tenggara Bar.","Kabupaten Sumbawa, Nusa Tenggara Bar.",NUSA TENGGARA BARAT,,Indonesia,,,,-87.893.435,1.178.036.357,https://maps.google.com/?cid=0x0:0x223e4906d966487d,
supermarket,Toko,Alfamart,"Karya Mulya, Jl Raya, Plampang, Kec. Plampang, Kabupaten Sumbawa, Nusa Tenggara Bar. 84351","Jl Raya, Plampang, Kec. Plampang, Kabupaten Sumbawa",NUSA TENGGARA BARAT,84351.0,Indonesia,1500959,,,-87.970.876,1.177.791.123,https://maps.google.com/?cid=0x0:0x9c74dda9cbb4e64a,
supermarket,supermarket,Toko Alkha,"003/003 Bulusari, Kec. Plampang","Kabupaten Sumbawa, Nusa Tenggara Bar.",NUSA TENGGARA BARAT,,Indonesia,,,,-8.815.327,1.178.078,https://maps.google.com/?cid=0x0:0x30e1550cf2dac2df,
supermarket,Toko,Alfamart,"Sepayung, Kec. Plampang, Kabupaten Sumbawa, Nusa Tenggara Bar. 84383","Kec. Plampang, Kabupaten Sumbawa",NUSA TENGGARA BARAT,84383.0,Indonesia,,,,-87.737.191,1.178.269.867,https://maps.google.com/?cid=0x0:0x40535f63c37f90ec,
supermarket,Toko bahan makanan,UD.DHANI,"6Q4C+3R5, Selante, Kec. Plampang, Kabupaten Sumbawa, Nusa Tenggara Bar. 84383","Selante, Kec. Plampang, Kabupaten Sumbawa",NUSA TENGGARA BARAT,84383.0,Indonesia,82341799542,,,-8.794.871,1.177.721.249,https://maps.google.com/?cid=0x0:0x330f04dc1930fb2b,
supermarket,Toko,TriMan Garage,"5RM5+V47 rejo, Krajan 2/1, Plampang, Kec. Plampang, Kabupaten Sumbawa, Nusa Tenggara Bar.","Kabupaten Sumbawa, Nusa Tenggara Bar.",NUSA TENGGARA BARAT,,Indonesia,,,,-8.815.327,1.178.078,https://maps.google.com/?cid=0x0:0x1bd98dfe6b5e0698,
supermarket,Minimarket,Alfa Mart,"Jl. Lintas Sumbawa - Bima, Plampang, Kec. Plampang, Kabupaten Sumbawa, Nusa Tenggara Bar. 84383","Plampang, Kec. Plampang, Kabupaten Sumbawa",NUSA TENGGARA BARAT,84383.0,Indonesia,,,,-87.924.504,117.773.186,https://maps.google.com/?cid=0x0:0xac69f2bc9e32c08,
supermarket,Toko,Toko Yanti,"6Q2H+77C, karya jaya plampang, Plampang, Kec. Plampang, Kabupaten Sumbawa, Nusa Tenggara Bar. 84383","karya jaya plampang, Plampang, Kec. Plampang, Kabupaten Sumbawa",NUSA TENGGARA BARAT,84383.0,Indonesia,,,,-87.993.245,1.177.781.324,https://maps.google.com/?cid=0x0:0xc50437717d9479c6,
supermarket,Toko bahan makanan,UD YENNI,"7PRM+8RV, Brang Kolong, Kec. Plampang, Kabupaten Sumbawa, Nusa Tenggara Bar. 84383","Brang Kolong, Kec. Plampang, Kabupaten Sumbawa",NUSA TENGGARA BARAT,84383.0,Indonesia,,,,-87.091.328,1.177.345.593,https://maps.google.com/?cid=0x0:0x286ddc1b73668fc4,
supermarket,Toko bahan makanan,Toko Wijaya,"6R64+G47, Jl. Lintas Sumbawa - Bima, Plampang, Kec. Plampang, Kabupaten Sumbawa, Nusa Tenggara Bar. 84383","Jl. Lintas Sumbawa - Bima, Plampang, Kec. Plampang, Kabupaten Sumbawa",NUSA TENGGARA BARAT,84383.0,Indonesia,,,,-87.887.895,1.178.050.879,https://maps.google.com/?cid=0x0:0xc3849366f7ceaeea,
supermarket,Produsen makanan,Tokoh buah bunda sinzah,"6Q3G+QC4, Plampang, Kec. Plampang, Kabupaten Sumbawa, Nusa Tenggara Bar. 84383","Plampang, Kec. Plampang, Kabupaten Sumbawa",NUSA TENGGARA BARAT,84383.0,Indonesia,82340524143,,,-87.956.036,1.177.760.917,https://maps.google.com/?cid=0x0:0xcbac7ebdfbd05498,
supermarket,supermarket,Rhee,"Kec. Rhee, Kabupaten Sumbawa, Nusa Tenggara Bar.","Kabupaten Sumbawa, Nusa Tenggara Bar.",NUSA TENGGARA BARAT,,Indonesia,,,,-84.321.516,117.255.854,https://maps.google.com/?cid=0x0:0x40d5cddabbaf28e1,
supermarket,Toko,UD RIZQI RHEE,"Jl. Lintas Sumbawa Tano No.KM. 34, Rhee, Kec. Rhee, Kabupaten Sumbawa, Nusa Tenggara Bar. 84352","Rhee, Kec. Rhee, Kabupaten Sumbawa",NUSA TENGGARA BARAT,84352.0,Indonesia,85333788855,,,-84.177.279,1.172.383.115,https://maps.google.com/?cid=0x0:0x81ee95900d9d10a2,
supermarket,Minimarket,Alfamart,"Jl. Raya No.Kel, Rhee, Kec. Rhee, Kabupaten Sumbawa, Nusa Tenggara Bar. 84352","Rhee, Kec. Rhee, Kabupaten Sumbawa",NUSA TENGGARA BARAT,84352.0,Indonesia,1500959,,,-84.187.261,1.172.347.204,https://maps.google.com/?cid=0x0:0x5989e2be674f26ab,
supermarket,Toko Elektronik,Adel Cell Rhee,"H6JP+PJ4, Jl. Lintas Sumbawa Tano, Rhee, Kec. Rhee, Kabupaten Sumbawa, Nusa Tenggara Bar. 84352","Jl. Lintas Sumbawa Tano, Rhee, Kec. Rhee, Kabupaten Sumbawa",NUSA TENGGARA BARAT,84352.0,Indonesia,85239993888,,,-84.182.466,1.172.365.653,https://maps.google.com/?cid=0x0:0x7eda07256c5e84a,
supermarket,Balai masyarakat,rhee gedong,"H6JQ+J6J, Rhee, Kec. Rhee, Kabupaten Sumbawa, Nusa Tenggara Bar.","Kabupaten Sumbawa, Nusa Tenggara Bar.",NUSA TENGGARA BARAT,,Indonesia,,,,-8.418.412,1.172.380.048,https://maps.google.com/?cid=0x0:0x3b3db03b25d27a6a,
supermarket,Toko,Indomaret,"H6JP+MG3, Rhee, Kec. Rhee, Kabupaten Sumbawa, Nusa Tenggara Bar. 84352","Rhee, Kec. Rhee, Kabupaten Sumbawa",NUSA TENGGARA BARAT,84352.0,Indonesia,,,,-84.182.456,1.172.362.341,https://maps.google.com/?cid=0x0:0x5011a66fcc43a9ef,
supermarket,Toko Pertanian,Sakiki Utama,"Gedong, Kec. Rhee, Kabupaten Sumbawa, Nusa Tenggara Bar. 84352","Kec. Rhee, Kabupaten Sumbawa",NUSA TENGGARA BARAT,84352.0,Indonesia,82340723435,,,-84.178.034,1.172.365.364,https://maps.google.com/?cid=0x0:0xd5197e3ac9943aa9,
supermarket,Toko Pertanian,UD. Sumber Rezeki,"H7J2+47G, Jl. Lintas Sumbawa Tano, Rhee, Kec. Rhee, Kabupaten Sumbawa, Nusa Tenggara Bar. 84352","Jl. Lintas Sumbawa Tano, Rhee, Kec. Rhee, Kabupaten Sumbawa",NUSA TENGGARA BARAT,84352.0,Indonesia,82247471514,,,-84.196.992,1.172.507.035,https://maps.google.com/?cid=0x0:0x88d0281fad2e84ce,
supermarket,Apotek,APOTEK RHEE,"Jl. Lintas Sumbawa Tano No.km 33, Rhee, Kec. Rhee, Kabupaten Sumbawa, Nusa Tenggara Bar. 84352","Rhee, Kec. Rhee, Kabupaten Sumbawa",NUSA TENGGARA BARAT,84352.0,Indonesia,,,,-84.172.356,1.172.387.739,https://maps.google.com/?cid=0x0:0x96b46a18cd0f289c,
supermarket,Toko Pertanian,Berkah Sahabat Tani,"Jl. Lintas Sumbawa Tano, Rhee, Kec. Rhee, Kabupaten Sumbawa, Nusa Tenggara Bar. 84352","Rhee, Kec. Rhee, Kabupaten Sumbawa",NUSA TENGGARA BARAT,84352.0,Indonesia,81253475016,,,-84.170.571,1.172.452.965,https://maps.google.com/?cid=0x0:0x81e29a40d758f7fa,
supermarket,Minimarket,INDOMARET RHEE,"H6HX+XXM, Jl. Lintas Sumbawa Tano, Rhee, Kec. Rhee, Kabupaten Sumbawa, Nusa Tenggara Bar.","Kabupaten Sumbawa, Nusa Tenggara Bar.",NUSA TENGGARA BARAT,,Indonesia,,,,-84.200.279,1.172.499.334,https://maps.google.com/?cid=0x0:0x1a5243f7917072dd,
supermarket,Toko Kosmetik,Sherly ollshop rhee ll,"H6JP+PJ4, Jl. Lintas Sumbawa Tano, Rhee, Kec. Rhee, Kabupaten Sumbawa, Nusa Tenggara Bar. 84352","Jl. Lintas Sumbawa Tano, Rhee, Kec. Rhee, Kabupaten Sumbawa",NUSA TENGGARA BARAT,84352.0,Indonesia,82341458003,,,-84.175.842,1.172.364.123,https://maps.google.com/?cid=0x0:0x310b46685f29c255,
supermarket,Toko Sepatu,Arya Sepatu Second,"H6MQ+29P, Jl. Lintas Sumbawa Tano, Rhee, Kec. Rhee, Kabupaten Sumbawa, Nusa Tenggara Bar. 84352","Jl. Lintas Sumbawa Tano, Rhee, Kec. Rhee, Kabupaten Sumbawa",NUSA TENGGARA BARAT,84352.0,Indonesia,,,,-84.172.548,1.172.384.847,https://maps.google.com/?cid=0x0:0x7c02add126d8aff5,
supermarket,Pusat Perbelanjaan,UD. LATIFA,"H6JW+HQW Dusun Poto Pedu, RT.009/RW.004, Rhee, Kec. Rhee, Kabupaten Sumbawa, Nusa Tenggara Bar. 84352","RT.009/RW.004, Rhee, Kec. Rhee, Kabupaten Sumbawa",NUSA TENGGARA BARAT,84352.0,Indonesia,85337122531,,,-84.185.202,1.172.469.521,https://maps.google.com/?cid=0x0:0xdc33064304a0ba74,
supermarket,Toko Pakaian,Ud.Linda Agustin,"H6JH+FGG, Jl. Lintas Sumbawa Tano, Rhee Loka, Kec. Rhee, Kabupaten Sumbawa, Nusa Tenggara Bar. 84352","Jl. Lintas Sumbawa Tano, Rhee Loka, Kec. Rhee, Kabupaten Sumbawa",NUSA TENGGARA BARAT,84352.0,Indonesia,,,,-84.188.176,1.172.288.172,https://maps.google.com/?cid=0x0:0xefa02492a94f9513,
supermarket,Toko Gadai,Pegadaian Utan Rhee,"Jl. Pasar Utan Rhee No., Utan Rhee, Rhee, Sumbawa, Sumbawa Regency, West Nusa Tenggara 84352","Utan Rhee, Rhee, Sumbawa, Sumbawa Regency",NUSA TENGGARA BARAT,84352.0,Indonesia,3712522511,,,-84.321.516,117.255.854,https://maps.google.com/?cid=0x0:0x8099ef3deea009e3,
supermarket,Bengkel Elektronik,Tkomputer (Reparasi  Aksesoris),"Rhee, Kec. Rhee, Kabupaten Sumbawa, Nusa Tenggara Bar. 84352","Kec. Rhee, Kabupaten Sumbawa",NUSA TENGGARA BARAT,84352.0,Indonesia,82339121184,,,-84.194.638,117.247.624,https://maps.google.com/?cid=0x0:0x5fa58f91b8d3c701,
supermarket,Toserba,Ud . Sederhana,"H842+PV2, Luk, Kec. Rhee, Kabupaten Sumbawa, Nusa Tenggara Bar. 84352","Luk, Kec. Rhee, Kabupaten Sumbawa",NUSA TENGGARA BARAT,84352.0,Indonesia,81236154009,,,-84.432.392,1.173.021.416,https://maps.google.com/?cid=0x0:0xbce744e7e0be023d,
supermarket,Toko Ponsel,Berkah Dua Putri Cell,"H6JP+WR4, Rhee, Kec. Rhee, Kabupaten Sumbawa, Nusa Tenggara Bar. 84352","Rhee, Kec. Rhee, Kabupaten Sumbawa",NUSA TENGGARA BARAT,84352.0,Indonesia,85337452621,,,-84.177.394,1.172.370.919,https://maps.google.com/?cid=0x0:0xcdce2f3891063843,
supermarket,Toko,UD MADJU MAPAN,"H6JH+GJ7, Rhee Loka, Kec. Rhee, Kabupaten Sumbawa, Nusa Tenggara Bar. 84352","Rhee Loka, Kec. Rhee, Kabupaten Sumbawa",NUSA TENGGARA BARAT,84352.0,Indonesia,82340878200,,,-84.187.147,1.172.290.428,https://maps.google.com/?cid=0x0:0x5b5f899b07813630,
supermarket,Toko Swalayan,Gs supermarket,"Jl. KH. Hasyim Ashari No.93, RT.002/RW.003, Poris Plawad Utara, Kec. Cipondoh, Kota Tangerang, Banten 15148","RT.002/RW.003, Poris Plawad Utara, Kec. Cipondoh, Kota Tangerang",NUSA TENGGARA BARAT,15148.0,Indonesia,2155712070,,,-61.879.187,106.661.738,https://maps.google.com/?cid=0x0:0x86a83e6d17a220b2,
supermarket,Pujasera,Tahu GO! GS Cipondoh,"RM66+RMH, Jl. KH. Hasyim Ashari, RT.002/RW.003, Kenanga, Kec. Cipondoh, Kota Tangerang, Banten 15141","Jl. KH. Hasyim Ashari, RT.002/RW.003, Kenanga, Kec. Cipondoh, Kota Tangerang",NUSA TENGGARA BARAT,15141.0,Indonesia,81213119110,,,-61.879.367,1.066.617.322,https://maps.google.com/?cid=0x0:0x899e28e47647bc36,
supermarket,Toko Swalayan,GS The Fresh Alam Sutera,"Flavor Bliss, Jl. Alam Sutera Boulevard, Pakulonan, Kec. Serpong Utara, Kota Tangerang Selatan, Banten 15325","Jl. Alam Sutera Boulevard, Pakulonan, Kec. Serpong Utara, Kota Tangerang Selatan",NUSA TENGGARA BARAT,15325.0,Indonesia,2150200763,,,-62.429.576,1.066.509.779,https://maps.google.com/?cid=0x0:0x2e1e78cfe6fb23eb,
supermarket,Kios,Kios udin,"4GC4+JJX, Ranan, Kec. Ropang, Kabupaten Sumbawa, Nusa Tenggara Bar.","Kabupaten Sumbawa, Nusa Tenggara Bar.",NUSA TENGGARA BARAT,,Indonesia,,,,-8.878.387,117.506.599,https://maps.google.com/?cid=0x0:0xbe39ddb56dd52498,
supermarket,supermarket,Ropang,"Ranan, Kec. Ropang, Kabupaten Sumbawa, Nusa Tenggara Bar.","Kabupaten Sumbawa, Nusa Tenggara Bar.",NUSA TENGGARA BARAT,,Indonesia,,,,-8.878.387,117.506.599,https://maps.google.com/?cid=0x0:0x96b8da19add73014,
supermarket,supermarket,Kec. Ropang,"Kabupaten Sumbawa, Nusa Tenggara Bar.","Kabupaten Sumbawa, Nusa Tenggara Bar.",NUSA TENGGARA BARAT,,Indonesia,,,,-88.880.841,1.174.834.144,https://maps.google.com/?cid=0x0:0x415f387a78136971,
supermarket,supermarket,Nusa Tenggara Bar. 84311,"Kabupaten Sumbawa, Nusa Tenggara Bar.","Kabupaten Sumbawa, Nusa Tenggara Bar.",NUSA TENGGARA BARAT,,Indonesia,,,,-84.938.621,1.174.585.753,https://maps.google.com/?cid=0x0:0x49d794f523bebb05,
supermarket,Pusat Perbelanjaan,Samawa Great Mall,"Jl. DR. Wahidin, Brang Bara, Kec. Sumbawa, Kabupaten Sumbawa, Nusa Tenggara Bar. 84313","Brang Bara, Kec. Sumbawa, Kabupaten Sumbawa",NUSA TENGGARA BARAT,84313.0,Indonesia,,,,-85.004.221,1.174.263.353,https://maps.google.com/?cid=0x0:0x412a6da322a9bdf9,
supermarket,Toko Swalayan,KUSUMA Grosir Murah,"Jl. Manggis, Uma Sima, Kec. Sumbawa, Kabupaten Sumbawa, Nusa Tenggara Bar. 84313","Uma Sima, Kec. Sumbawa, Kabupaten Sumbawa",NUSA TENGGARA BARAT,84313.0,Indonesia,85339246486,,,-84.927.697,117.425.125,https://maps.google.com/?cid=0x0:0x9a4ff26c5a53ce9a,
supermarket,Minimarket,Toko Fortuna,"FCWF+9VH, Brang Bara, Kec. Sumbawa, Kabupaten Sumbawa, Nusa Tenggara Bar. 84313","Brang Bara, Kec. Sumbawa, Kabupaten Sumbawa",NUSA TENGGARA BARAT,84313.0,Indonesia,,,,-85.040.529,1.174.247.343,https://maps.google.com/?cid=0x0:0x79cd73d5dea5fb4c,
supermarket,Minimarket,TOPPISC,"Jln.tenggiri no.35 seketeng komplek stadion pragas sumbawa NTB, (Gerbang stadion arah ke pasar seketeng), Seketeng, Kec. Sumbawa, Kabupaten Sumbawa, Nusa Tenggara Bar. 84311","(Gerbang stadion arah ke pasar seketeng), Seketeng, Kec. Sumbawa, Kabupaten Sumbawa",NUSA TENGGARA BARAT,84311.0,Indonesia,85333628388,,,-85.011.476,117.429.234,https://maps.google.com/?cid=0x0:0x48edd072265f4f24,
supermarket,Toko Swalayan,Kawan baru toko grosir,"GC3F+897, Bugis, Kec. Sumbawa, Kabupaten Sumbawa, Nusa Tenggara Bar. 84313","Bugis, Kec. Sumbawa, Kabupaten Sumbawa",NUSA TENGGARA BARAT,84313.0,Indonesia,,,,-84.967.248,1.174.234.371,https://maps.google.com/?cid=0x0:0xb40b318aadd9823b,
supermarket,Minimarket,Alfamart,"Jl. Raberas, Seketeng, Kec. Sumbawa, Kabupaten Sumbawa, Nusa Tenggara Bar. 84311","Seketeng, Kec. Sumbawa, Kabupaten Sumbawa",NUSA TENGGARA BARAT,84311.0,Indonesia,1500959,,,-84.984.882,1.174.314.264,https://maps.google.com/?cid=0x0:0xae5832048489d211,
supermarket,Minimarket,BARATA,"FCW6+5J3, Jl. Sultan Kaharuddin, Kerato, Kec. Unter Iwes, Kabupaten Sumbawa, Nusa Tenggara Bar. 84316","Jl. Sultan Kaharuddin, Kerato, Kec. Unter Iwes, Kabupaten Sumbawa",NUSA TENGGARA BARAT,84316.0,Indonesia,,,,-8.504.607,1.174.115.562,https://maps.google.com/?cid=0x0:0xb4f49438a35bc776,
supermarket,Toko umum,Toko Sentral,"JL. Dr. Wahiddin Sudirohusodo No.53, Seketeng, Sumbawa, Sumbawa Regency, West Nusa Tenggara 84311","Seketeng, Sumbawa, Sumbawa Regency",NUSA TENGGARA BARAT,84311.0,Indonesia,,,,-85.032.356,1.174.265.064,https://maps.google.com/?cid=0x0:0xb7b94ac77efec7eb,
supermarket,Kantor Perusahaan,Toko Puncak Sari,"GC3F+R8X, Jl. Lintas Sumbawa - Bima, Bugis, Kec. Sumbawa, Kabupaten Sumbawa, Nusa Tenggara Bar. 84313","Jl. Lintas Sumbawa - Bima, Bugis, Kec. Sumbawa, Kabupaten Sumbawa",NUSA TENGGARA BARAT,84313.0,Indonesia,,,,-84.953.799,1.174.233.698,https://maps.google.com/?cid=0x0:0x4497d5d154b3a6,
supermarket,Minimarket,Alfamart Moyo Utara,"Raya No.Kel, Sebewe, Kec. Moyo Utara, Kabupaten Sumbawa, Nusa Tenggara Bar. 84381","Sebewe, Kec. Moyo Utara, Kabupaten Sumbawa",NUSA TENGGARA BARAT,84381.0,Indonesia,1500959,,,-84.811.031,1.174.747.099,https://maps.google.com/?cid=0x0:0x56275ecd614511d5,
supermarket,Toko makanan beku,ARL Frozen Sumbawa,"GC5F+V53, Uma Sima, Kec. Sumbawa, Kabupaten Sumbawa, Nusa Tenggara Bar. 84313","Uma Sima, Kec. Sumbawa, Kabupaten Sumbawa",NUSA TENGGARA BARAT,84313.0,Indonesia,81355668087,,,-8.490.373,1.174.229.134,https://maps.google.com/?cid=0x0:0x9fc5df640903ea0b,
supermarket,Toko bahan makanan,toko chris jaya,"Jl. Yos Sudarso No.16, Seketeng, Kec. Sumbawa, Kabupaten Sumbawa, Nusa Tenggara Bar. 84313","Seketeng, Kec. Sumbawa, Kabupaten Sumbawa",NUSA TENGGARA BARAT,84313.0,Indonesia,82145946181,,,-84.942.887,1.174.240.608,https://maps.google.com/?cid=0x0:0xb18f8651bbcad4f3,
supermarket,Kios,Kios Agung,"Seketeng, Kec. Sumbawa, Kabupaten Sumbawa, Nusa Tenggara Bar. 84313","Kec. Sumbawa, Kabupaten Sumbawa",NUSA TENGGARA BARAT,84313.0,Indonesia,,,,-85.016.327,1.174.292.538,https://maps.google.com/?cid=0x0:0xb2c01a77926989,
supermarket,Toserba,Pentolan Comel sumbawa,"FCW9+CQX, Jl. Sultan Kaharuddin, Brang Bara, Kec. Sumbawa, Kabupaten Sumbawa, Nusa Tenggara Bar. 84316","Jl. Sultan Kaharuddin, Brang Bara, Kec. Sumbawa, Kabupaten Sumbawa",NUSA TENGGARA BARAT,84316.0,Indonesia,85338253660,,,-85.038.838,1.174.194.908,https://maps.google.com/?cid=0x0:0xd1db6e051db3031e,
supermarket,Toko,UD Ratna,"FCWF+FRV, JL Jenderal Sudirman, RT.2/RW.1, Brang Bara, Kec. Sumbawa, Kabupaten Sumbawa, Nusa Tenggara Bar. 84313","JL Jenderal Sudirman, RT.2/RW.1, Brang Bara, Kec. Sumbawa, Kabupaten Sumbawa",NUSA TENGGARA BARAT,84313.0,Indonesia,37121097,,,-85.037.667,1.174.245.379,https://maps.google.com/?cid=0x0:0x1889e4a25dee58fa,
supermarket,Toko bahan makanan,UD. Mandiri,"Jl. Udang No.5, Seketeng, Kec. Sumbawa, Kabupaten Sumbawa, Nusa Tenggara Bar. 84313","Seketeng, Kec. Sumbawa, Kabupaten Sumbawa",NUSA TENGGARA BARAT,84313.0,Indonesia,37122932,,,-8.503.839,1.174.290.817,https://maps.google.com/?cid=0x0:0xd9e36d51a9012bdb,
supermarket,Toko Swalayan,UD. NABILA,"GF9F+HMC, Sebewe, Kec. Moyo Utara, Kabupaten Sumbawa, Nusa Tenggara Bar.","Kabupaten Sumbawa, Nusa Tenggara Bar.",NUSA TENGGARA BARAT,,Indonesia,,,,-8.481.072,1.174.741.519,https://maps.google.com/?cid=0x0:0x8b292ac6889bd15d,
supermarket,Minimarket,ALFAMART UNTIR KETIMIS,"GC4M+W5V, Ppn bukit indah, Seketeng, Kec. Sumbawa, Kabupaten Sumbawa, Nusa Tenggara Bar. 84313","Ppn bukit indah, Seketeng, Kec. Sumbawa, Kabupaten Sumbawa",NUSA TENGGARA BARAT,84313.0,Indonesia,,,,-84.924.114,1.174.333.441,https://maps.google.com/?cid=0x0:0xe0b54339f3e1858f,
supermarket,Toko Makanan,TIWIK KITCHEN,"Jl. BTN Bukit Permai No.25 blok L, Seketeng, Kec. Sumbawa, Kabupaten Sumbawa, Nusa Tenggara Bar. 84311","Seketeng, Kec. Sumbawa, Kabupaten Sumbawa",NUSA TENGGARA BARAT,84311.0,Indonesia,81917901465,,,-85.057.676,1.174.352.843,https://maps.google.com/?cid=0x0:0x6c0eb11f0f858fb5,
supermarket,Minimarket,ALFAMART PPN,"FCXM+VR7, Seketeng, Kec. Sumbawa, Kabupaten Sumbawa, Nusa Tenggara Bar. 84313","Seketeng, Kec. Sumbawa, Kabupaten Sumbawa",NUSA TENGGARA BARAT,84313.0,Indonesia,,,,-85.003.408,1.174.345.321,https://maps.google.com/?cid=0x0:0x23d5d079ac1b99f8,
supermarket,Toko bahan makanan,Toko Mega W,"GCGG+CG6, Jl. Dari Sumbawa, sernu, Kec. Sumbawa, Kabupaten Sumbawa, Nusa Tenggara Bar. 84311","Jl. Dari Sumbawa, sernu, Kec. Sumbawa, Kabupaten Sumbawa",NUSA TENGGARA BARAT,84311.0,Indonesia,,,,-84.739.685,1.174.262.714,https://maps.google.com/?cid=0x0:0x5fbf4035a303d008,
supermarket,Toko Swalayan,Ud. Cris,"FCWJ+MXQ, Unnamed Road, Seketeng, Kec. Sumbawa, Kabupaten Sumbawa, Nusa Tenggara Bar. 84313","Unnamed Road, Seketeng, Kec. Sumbawa, Kabupaten Sumbawa",NUSA TENGGARA BARAT,84313.0,Indonesia,,,,-85.032.933,117.432.499,https://maps.google.com/?cid=0x0:0x9567edc884a9397f,
supermarket,Minimarket,Alfamart,"Jl. Dr. Sutomo, Pekat, Kec. Sumbawa, Kabupaten Sumbawa, Nusa Tenggara Bar. 84315","Pekat, Kec. Sumbawa, Kabupaten Sumbawa",NUSA TENGGARA BARAT,84315.0,Indonesia,1500959,,,-85.067.636,1.174.277.676,https://maps.google.com/?cid=0x0:0x8a7d76ef4bfebdf8,
supermarket,Pusat Perbelanjaan,Pusat Pertokoan Samawa,"Jl. Kartini No.22, Brang Bara, Kec. Sumbawa, Kabupaten Sumbawa, Nusa Tenggara Bar. 84313","Brang Bara, Kec. Sumbawa, Kabupaten Sumbawa",NUSA TENGGARA BARAT,84313.0,Indonesia,,,,-85.024.307,1.174.245.027,https://maps.google.com/?cid=0x0:0xec153cbcf6f4d41a,
supermarket,Pusat Perbelanjaan,Samawa Great Mall,"Jl. DR. Wahidin, Brang Bara, Kec. Sumbawa, Kabupaten Sumbawa, Nusa Tenggara Bar. 84313","Brang Bara, Kec. Sumbawa, Kabupaten Sumbawa",NUSA TENGGARA BARAT,84313.0,Indonesia,,,,-85.004.221,1.174.263.353,https://maps.google.com/?cid=0x0:0x412a6da322a9bdf9,
supermarket,Arena Bermain Anak-Anak,Happy Zone,"Jl. Merdeka No.9, Brang Bara, Kec. Sumbawa, Kabupaten Sumbawa, Nusa Tenggara Bar. 84313","Brang Bara, Kec. Sumbawa, Kabupaten Sumbawa",NUSA TENGGARA BARAT,84313.0,Indonesia,,,,-8.500.656,1.174.258.796,https://maps.google.com/?cid=0x0:0xc38849df025ebeb3,
supermarket,Toko Swalayan,Kawan baru toko grosir,"GC3F+897, Bugis, Kec. Sumbawa, Kabupaten Sumbawa, Nusa Tenggara Bar. 84313","Bugis, Kec. Sumbawa, Kabupaten Sumbawa",NUSA TENGGARA BARAT,84313.0,Indonesia,,,,-84.967.248,1.174.234.371,https://maps.google.com/?cid=0x0:0xb40b318aadd9823b,
supermarket,Toko makanan beku,ARL Frozen Sumbawa,"GC5F+V53, Uma Sima, Kec. Sumbawa, Kabupaten Sumbawa, Nusa Tenggara Bar. 84313","Uma Sima, Kec. Sumbawa, Kabupaten Sumbawa",NUSA TENGGARA BARAT,84313.0,Indonesia,81355668087,,,-8.490.373,1.174.229.134,https://maps.google.com/?cid=0x0:0x9fc5df640903ea0b,
supermarket,Toserba,Toko New Dinasty Sumbawa,"Jl. Garuda No.1, Brang Biji, Kec. Sumbawa, Kabupaten Sumbawa, Nusa Tenggara Bar. 84316","Brang Biji, Kec. Sumbawa, Kabupaten Sumbawa",NUSA TENGGARA BARAT,84316.0,Indonesia,81916814684,,,-84.889.453,1.174.188.328,https://maps.google.com/?cid=0x0:0x7e66993b77716e81,
supermarket,Toko Swalayan,KUSUMA Grosir Murah,"Jl. Manggis, Uma Sima, Kec. Sumbawa, Kabupaten Sumbawa, Nusa Tenggara Bar. 84313","Uma Sima, Kec. Sumbawa, Kabupaten Sumbawa",NUSA TENGGARA BARAT,84313.0,Indonesia,85339246486,,,-84.927.697,117.425.125,https://maps.google.com/?cid=0x0:0x9a4ff26c5a53ce9a,
supermarket,Minimarket,Alfamart Brang Biji,"Jl Kel, Brang Biji, Kec. Sumbawa, Kabupaten Sumbawa, Nusa Tenggara Bar. 84318","Brang Biji, Kec. Sumbawa, Kabupaten Sumbawa",NUSA TENGGARA BARAT,84318.0,Indonesia,1500959,,,-84.863.196,1.174.150.595,https://maps.google.com/?cid=0x0:0xbc20cbb7efeb9d97,
supermarket,Toko Buah dan Sayuran,TOKO BUAH EWI,"Jl. Hasanudin depan sd 2 sumbawa sebelum polres, Bugis, Kec. Sumbawa, Sumbawa besar, Nusa Tenggara Bar. 84312","Bugis, Kec. Sumbawa, Sumbawa besar",NUSA TENGGARA BARAT,84312.0,Indonesia,82341511467,,,-84.927.382,1.174.201.029,https://maps.google.com/?cid=0x0:0xaa42ec3cb5968680,
supermarket,Pemasok Bahan Bangunan,Supermarket Bahan Bangunan Sumber Mas,"Jl. Diponegoro No.18, Bugis, Kec. Sumbawa, Kabupaten Sumbawa, Nusa Tenggara Bar. 84313","Bugis, Kec. Sumbawa, Kabupaten Sumbawa",NUSA TENGGARA BARAT,84313.0,Indonesia,85338002696,,,-84.976.828,1.174.243.998,https://maps.google.com/?cid=0x0:0xec7dd62e6b040cfa,
supermarket,Kantor Perusahaan,Toko Puncak Sari,"GC3F+R8X, Jl. Lintas Sumbawa - Bima, Bugis, Kec. Sumbawa, Kabupaten Sumbawa, Nusa Tenggara Bar. 84313","Jl. Lintas Sumbawa - Bima, Bugis, Kec. Sumbawa, Kabupaten Sumbawa",NUSA TENGGARA BARAT,84313.0,Indonesia,,,,-84.953.799,1.174.233.698,https://maps.google.com/?cid=0x0:0x4497d5d154b3a6,
supermarket,Minimarket,BARATA,"FCW6+5J3, Jl. Sultan Kaharuddin, Kerato, Kec. Unter Iwes, Kabupaten Sumbawa, Nusa Tenggara Bar. 84316","Jl. Sultan Kaharuddin, Kerato, Kec. Unter Iwes, Kabupaten Sumbawa",NUSA TENGGARA BARAT,84316.0,Indonesia,,,,-8.504.607,1.174.115.562,https://maps.google.com/?cid=0x0:0xb4f49438a35bc776,
supermarket,Minimarket,Alfamart,"Jl. Kebayan, Samapuin, Kec. Sumbawa, Kabupaten Sumbawa, Nusa Tenggara Bar. 84316","Samapuin, Kec. Sumbawa, Kabupaten Sumbawa",NUSA TENGGARA BARAT,84316.0,Indonesia,1500959,,,-84.887.244,1.174.203.631,https://maps.google.com/?cid=0x0:0x9953514612fc9fa,
supermarket,Toko Swalayan,Alfamart,"Jl. Garuda, Lempeh, Kec. Sumbawa, Kabupaten Sumbawa, Nusa Tenggara Bar. 84312","Lempeh, Kec. Sumbawa, Kabupaten Sumbawa",NUSA TENGGARA BARAT,84312.0,Indonesia,1500959,,,-84.876.698,1.174.136.222,https://maps.google.com/?cid=0x0:0x7a2302cf51acf322,
supermarket,Toko,UD. Ramadhani,"Jl. Cendrawasih No.92, Brang Biji, Kec. Sumbawa, Kabupaten Sumbawa, Nusa Tenggara Bar. 84316","Brang Biji, Kec. Sumbawa, Kabupaten Sumbawa",NUSA TENGGARA BARAT,84316.0,Indonesia,371626486,,,-84.853.555,1.174.142.163,https://maps.google.com/?cid=0x0:0x329dbc2a8e1161ec,
supermarket,Toko bahan makanan,toko chris jaya,"Jl. Yos Sudarso No.16, Seketeng, Kec. Sumbawa, Kabupaten Sumbawa, Nusa Tenggara Bar. 84313","Seketeng, Kec. Sumbawa, Kabupaten Sumbawa",NUSA TENGGARA BARAT,84313.0,Indonesia,82145946181,,,-84.942.887,1.174.240.608,https://maps.google.com/?cid=0x0:0xb18f8651bbcad4f3,
supermarket,Toko,Kios Zuhrya Cell,"Gg. Pramuka No.1, Brang Biji, Kec. Sumbawa, Kabupaten Sumbawa, Nusa Tenggara Bar. 84312","Brang Biji, Kec. Sumbawa, Kabupaten Sumbawa",NUSA TENGGARA BARAT,84312.0,Indonesia,82339041815,,,-84.850.249,1.174.220.926,https://maps.google.com/?cid=0x0:0xf509d018229ce73b,
supermarket,Minimarket,Indomaret,"Jl. Cendrawasih No.130, RT.02/RW.08, Brang Biji, Kec. Sumbawa, Kabupaten Sumbawa, Nusa Tenggara Bar. 84316","RT.02/RW.08, Brang Biji, Kec. Sumbawa, Kabupaten Sumbawa",NUSA TENGGARA BARAT,84316.0,Indonesia,,,,-84.838.227,1.174.144.385,https://maps.google.com/?cid=0x0:0xe66c7826234f2d4a,
supermarket,Minimarket,Alfamart cendrawasih,"Jl. Cendrawasih No.Kel, Brang Biji, Kec. Sumbawa, Kabupaten Sumbawa, Nusa Tenggara Bar. 84318","Brang Biji, Kec. Sumbawa, Kabupaten Sumbawa",NUSA TENGGARA BARAT,84318.0,Indonesia,1500959,,,-84.778.605,1.174.130.985,https://maps.google.com/?cid=0x0:0x12d3712c6292e907,
supermarket,Minimarket,INDOMARET KEBAYAN,"GC7F+99M, Uma Sima, Kec. Sumbawa, Kabupaten Sumbawa, Nusa Tenggara Bar. 84312","Uma Sima, Kec. Sumbawa, Kabupaten Sumbawa",NUSA TENGGARA BARAT,84312.0,Indonesia,,,,-84.865.414,1.174.234.179,https://maps.google.com/?cid=0x0:0xf385208bef71d229,
supermarket,Pasar,UD. ALISA,"Jl. Garuda No.41, Lempeh, Kec. Sumbawa, Kabupaten Sumbawa, Nusa Tenggara Bar. 84316","Lempeh, Kec. Sumbawa, Kabupaten Sumbawa",NUSA TENGGARA BARAT,84316.0,Indonesia,81998977633,,,-84.824.508,117.410.417,https://maps.google.com/?cid=0x0:0x40d4096af896f2c0,
supermarket,Minimarket,Alfamart,"Jl. Yos Sudarso, Bugis, Kec. Sumbawa, Kabupaten Sumbawa, Nusa Tenggara Bar. 84313","Bugis, Kec. Sumbawa, Kabupaten Sumbawa",NUSA TENGGARA BARAT,84313.0,Indonesia,1500959,,,-84.963.891,1.174.242.961,https://maps.google.com/?cid=0x0:0xdddc40a0d2f7cbab,
supermarket,Kios,Kios Sehati H. Aswad,"Brang Biji, Kec. Sumbawa, Kabupaten Sumbawa, Nusa Tenggara Bar. 84312","Kec. Sumbawa, Kabupaten Sumbawa",NUSA TENGGARA BARAT,84312.0,Indonesia,82340860171,,,-84.856.838,1.174.236.756,https://maps.google.com/?cid=0x0:0xeb94f3bd9a5ab69e,
supermarket,Toko Peralatan Olahraga,Toko Victoria,"JL Garuda, No. 71, RT 1 RW 12, Labuan Sumbawa, Labuhan Badas, Labuan Sumbawa, Sumbawa Besar, Kabupaten Sumbawa, Nusa Tenggara Bar. 84312","No. 71, RT 1 RW 12, Labuan Sumbawa, Labuhan Badas, Labuan Sumbawa, Sumbawa Besar, Kabupaten Sumbawa",NUSA TENGGARA BARAT,84312.0,Indonesia,37121518,,,-84.703.163,1.174.006.397,https://maps.google.com/?cid=0x0:0x6541d8d0ba087639,
supermarket,supermarket,daru sayur sumbawa,"Jl. Cendrawasih No.121, Brang Biji, Kec. Sumbawa, Kabupaten Sumbawa, Nusa Tenggara Bar. 84312","Brang Biji, Kec. Sumbawa, Kabupaten Sumbawa",NUSA TENGGARA BARAT,84312.0,Indonesia,85253999500,,,-84.844.244,1.174.137.223,https://maps.google.com/?cid=0x0:0x56e589ac70d3b4e8,
supermarket,Minimarket,Alfamart,"Jl. Durian, Kerato, Kec. Sumbawa, Kabupaten Sumbawa, Nusa Tenggara Bar. 84351","Kerato, Kec. Sumbawa, Kabupaten Sumbawa",NUSA TENGGARA BARAT,84351.0,Indonesia,1500959,,,-84.889.534,1.174.227.883,https://maps.google.com/?cid=0x0:0xc4f113245d810e43,
supermarket,Dapur Umum,AciMoy Cireng  Cimol,"Indomaret, Jl. Kebayan, Uma Sima, Kec. Sumbawa, Kabupaten Sumbawa, Nusa Tenggara Bar. 84312","Jl. Kebayan, Uma Sima, Kec. Sumbawa, Kabupaten Sumbawa",NUSA TENGGARA BARAT,84312.0,Indonesia,81529648907,,,-84.864.224,1.174.234.256,https://maps.google.com/?cid=0x0:0x3b9ce0dfafb1d9e9,
supermarket,Toko bahan makanan,Toko Es Batu Maesaroh,"GC8F+HRG, Brang Biji, Kec. Sumbawa, Kabupaten Sumbawa, Nusa Tenggara Bar. 84312","Brang Biji, Kec. Sumbawa, Kabupaten Sumbawa",NUSA TENGGARA BARAT,84312.0,Indonesia,,,,-84.835.533,1.174.245.809,https://maps.google.com/?cid=0x0:0xe32b842d0b2c6cb0,
supermarket,Pemasok Bahan Bangunan,Supermarket Bahan Bangunan Sumber Mas,"Jl. Diponegoro No.18, Bugis, Kec. Sumbawa, Kabupaten Sumbawa, Nusa Tenggara Bar. 84313","Bugis, Kec. Sumbawa, Kabupaten Sumbawa",NUSA TENGGARA BARAT,84313.0,Indonesia,85338002696,,,-84.976.828,1.174.243.998,https://maps.google.com/?cid=0x0:0xec7dd62e6b040cfa,
supermarket,supermarket,Nusa Tenggara Bar. 84313,"Kec. Sumbawa, Kabupaten Sumbawa, Nusa Tenggara Bar.","Kabupaten Sumbawa, Nusa Tenggara Bar.",NUSA TENGGARA BARAT,,Indonesia,,,,-84.960.903,1.174.292.083,https://maps.google.com/?cid=0x0:0x8504d5a6509358ef,
supermarket,Toko Swalayan,KUSUMA Grosir Murah,"Jl. Manggis, Uma Sima, Kec. Sumbawa, Kabupaten Sumbawa, Nusa Tenggara Bar. 84313","Uma Sima, Kec. Sumbawa, Kabupaten Sumbawa",NUSA TENGGARA BARAT,84313.0,Indonesia,85339246486,,,-84.927.697,117.425.125,https://maps.google.com/?cid=0x0:0x9a4ff26c5a53ce9a,
supermarket,Toko Swalayan,Kawan baru toko grosir,"GC3F+897, Bugis, Kec. Sumbawa, Kabupaten Sumbawa, Nusa Tenggara Bar. 84313","Bugis, Kec. Sumbawa, Kabupaten Sumbawa",NUSA TENGGARA BARAT,84313.0,Indonesia,,,,-84.967.248,1.174.234.371,https://maps.google.com/?cid=0x0:0xb40b318aadd9823b,
supermarket,Toko makanan beku,ARL Frozen Sumbawa,"GC5F+V53, Uma Sima, Kec. Sumbawa, Kabupaten Sumbawa, Nusa Tenggara Bar. 84313","Uma Sima, Kec. Sumbawa, Kabupaten Sumbawa",NUSA TENGGARA BARAT,84313.0,Indonesia,81355668087,,,-8.490.373,1.174.229.134,https://maps.google.com/?cid=0x0:0x9fc5df640903ea0b,
supermarket,Kantor Perusahaan,Toko Puncak Sari,"GC3F+R8X, Jl. Lintas Sumbawa - Bima, Bugis, Kec. Sumbawa, Kabupaten Sumbawa, Nusa Tenggara Bar. 84313","Jl. Lintas Sumbawa - Bima, Bugis, Kec. Sumbawa, Kabupaten Sumbawa",NUSA TENGGARA BARAT,84313.0,Indonesia,,,,-84.953.799,1.174.233.698,https://maps.google.com/?cid=0x0:0x4497d5d154b3a6,
supermarket,Toko Mebel,Toko Sukses,"Jl. Lintas Sumbawa - Bima No.87, Bugis, Kec. Sumbawa, Kabupaten Sumbawa, Nusa Tenggara Bar. 84313","Bugis, Kec. Sumbawa, Kabupaten Sumbawa",NUSA TENGGARA BARAT,84313.0,Indonesia,37121668,,,-84.939.215,1.174.218.029,https://maps.google.com/?cid=0x0:0x8a12cda91032a076,
supermarket,Toko bahan makanan,toko chris jaya,"Jl. Yos Sudarso No.16, Seketeng, Kec. Sumbawa, Kabupaten Sumbawa, Nusa Tenggara Bar. 84313","Seketeng, Kec. Sumbawa, Kabupaten Sumbawa",NUSA TENGGARA BARAT,84313.0,Indonesia,82145946181,,,-84.942.887,1.174.240.608,https://maps.google.com/?cid=0x0:0xb18f8651bbcad4f3,
supermarket,Minimarket,Toko Fortuna,"FCWF+9VH, Brang Bara, Kec. Sumbawa, Kabupaten Sumbawa, Nusa Tenggara Bar. 84313","Brang Bara, Kec. Sumbawa, Kabupaten Sumbawa",NUSA TENGGARA BARAT,84313.0,Indonesia,,,,-85.040.529,1.174.247.343,https://maps.google.com/?cid=0x0:0x79cd73d5dea5fb4c,
supermarket,Minimarket,PRIMART,"FCWH+F52, JL Jenderal Sudirman, RT.04/RW.01, Seketeng, Kec. Sumbawa, Kabupaten Sumbawa, Nusa Tenggara Bar. 84313","JL Jenderal Sudirman, RT.04/RW.01, Seketeng, Kec. Sumbawa, Kabupaten Sumbawa",NUSA TENGGARA BARAT,84313.0,Indonesia,37121371,,,-85.038.577,1.174.279.002,https://maps.google.com/?cid=0x0:0xb5600d3e1fd2a087,
supermarket,Kios,Kios Agung,"Seketeng, Kec. Sumbawa, Kabupaten Sumbawa, Nusa Tenggara Bar. 84313","Kec. Sumbawa, Kabupaten Sumbawa",NUSA TENGGARA BARAT,84313.0,Indonesia,,,,-85.016.327,1.174.292.538,https://maps.google.com/?cid=0x0:0xb2c01a77926989,
supermarket,Toko Pakaian,Balegra Muslimah Outlet,"GC4C+J8R, Bugis, Kec. Sumbawa, Kabupaten Sumbawa, Nusa Tenggara Bar. 84313","Bugis, Kec. Sumbawa, Kabupaten Sumbawa",NUSA TENGGARA BARAT,84313.0,Indonesia,81805725883,,,-84.933.866,1.174.207.733,https://maps.google.com/?cid=0x0:0x3d29cd6b9d65d939,
supermarket,Minimarket,Alfamart,"Jl. Sultan Hasanudin, Bugis, Kec. Sumbawa, Kabupaten Sumbawa, Nusa Tenggara Bar. 84313","Bugis, Kec. Sumbawa, Kabupaten Sumbawa",NUSA TENGGARA BARAT,84313.0,Indonesia,1500959,,,-84.971.513,1.174.213.867,https://maps.google.com/?cid=0x0:0x5295ab7a6f586a53,
supermarket,Minimarket,Alfamart,"Jl. Yos Sudarso, Bugis, Kec. Sumbawa, Kabupaten Sumbawa, Nusa Tenggara Bar. 84313","Bugis, Kec. Sumbawa, Kabupaten Sumbawa",NUSA TENGGARA BARAT,84313.0,Indonesia,1500959,,,-84.963.891,1.174.242.961,https://maps.google.com/?cid=0x0:0xdddc40a0d2f7cbab,
supermarket,Minimarket,Binaco Widjaya Kusuma. PT,"Jl. Hasanudin No.107, Bugis, Kec. Sumbawa, Kabupaten Sumbawa, Nusa Tenggara Bar. 84313","Bugis, Kec. Sumbawa, Kabupaten Sumbawa",NUSA TENGGARA BARAT,84313.0,Indonesia,37121097,,,-84.929.134,1.174.196.877,https://maps.google.com/?cid=0x0:0xbc9cc32bb8326ff7,
supermarket,Toko Perlengkapan Rumah,Toserba Tunggal Jaya,"Jl. Hasanudin No.7, Bugis, Kec. Sumbawa, Kabupaten Sumbawa, Nusa Tenggara Bar. 84313","Bugis, Kec. Sumbawa, Kabupaten Sumbawa",NUSA TENGGARA BARAT,84313.0,Indonesia,,,,-84.985.425,117.422.919,https://maps.google.com/?cid=0x0:0x586b5705509f0448,
supermarket,Toko Perlengkapan Bayi,Toko wish wizh,"Jl. Diponegoro No.91, Bugis, Kec. Sumbawa, Kabupaten Sumbawa, Nusa Tenggara Bar. 84313","Bugis, Kec. Sumbawa, Kabupaten Sumbawa",NUSA TENGGARA BARAT,84313.0,Indonesia,,,,-84.934.147,1.174.215.774,https://maps.google.com/?cid=0x0:0x72990096c4cf7125,
supermarket,Toko Rokok Elektrik,Tossvape Sumbawa Besar,"Jl. Hasanudin No.35, Bugis, Kec. Sumbawa, Kabupaten Sumbawa, Nusa Tenggara Bar. 84313","Bugis, Kec. Sumbawa, Kabupaten Sumbawa",NUSA TENGGARA BARAT,84313.0,Indonesia,8113001617,,,-84.974.733,1.174.216.017,https://maps.google.com/?cid=0x0:0xd8a0708baf4d0f8e,
supermarket,Minimarket,BARATA,"FCW6+5J3, Jl. Sultan Kaharuddin, Kerato, Kec. Unter Iwes, Kabupaten Sumbawa, Nusa Tenggara Bar. 84316","Jl. Sultan Kaharuddin, Kerato, Kec. Unter Iwes, Kabupaten Sumbawa",NUSA TENGGARA BARAT,84316.0,Indonesia,,,,-8.504.607,1.174.115.562,https://maps.google.com/?cid=0x0:0xb4f49438a35bc776,
supermarket,Toko Alat Tulis Kantor,Toko Mitra (Buku Dan Alat Tulis Kantor)/ATK Store,"Jl. Hasanudin No.13, Bugis, Kec. Sumbawa, Kabupaten Sumbawa, Nusa Tenggara Bar. 84313","Bugis, Kec. Sumbawa, Kabupaten Sumbawa",NUSA TENGGARA BARAT,84313.0,Indonesia,85183938523,,,-84.989.498,1.174.237.632,https://maps.google.com/?cid=0x0:0x1ce9d9ea9a53124a,
supermarket,Toko Peralatan dan Bahan Kue,Toko HOKKY,"Jl. Mawar, Bugis, Kec. Sumbawa, Kabupaten Sumbawa, Nusa Tenggara Bar. 84313","Bugis, Kec. Sumbawa, Kabupaten Sumbawa",NUSA TENGGARA BARAT,84313.0,Indonesia,817889997,,,-84.948.937,1.174.213.798,https://maps.google.com/?cid=0x0:0xa5e1988b46ef9bdd,
supermarket,Minimarket,Indomaret Bugis,"GC4C+63F, Bugis, Kec. Sumbawa, Kabupaten Sumbawa, Nusa Tenggara Bar. 84313","Bugis, Kec. Sumbawa, Kabupaten Sumbawa",NUSA TENGGARA BARAT,84313.0,Indonesia,,,,-84.944.331,1.174.201.628,https://maps.google.com/?cid=0x0:0xffd63466895e9f17,
supermarket,Pusat Perbelanjaan,Toko Oleh-Oleh Sumbawa EVI,"FCWG+HH8, Jl. DR. Wahidin, Brang Bara, Kec. Sumbawa, Kabupaten Sumbawa, Nusa Tenggara Bar. 84313","Jl. DR. Wahidin, Brang Bara, Kec. Sumbawa, Kabupaten Sumbawa",NUSA TENGGARA BARAT,84313.0,Indonesia,81233266111,,,-85.036.206,1.174.264.864,https://maps.google.com/?cid=0x0:0x2bcda177365322ae,
supermarket,Minimarket,Alfamart,"Jl. Diponegoro, Bugis, Kec. Sumbawa, Kabupaten Sumbawa, Nusa Tenggara Bar. 84313","Bugis, Kec. Sumbawa, Kabupaten Sumbawa",NUSA TENGGARA BARAT,84313.0,Indonesia,1500959,,,-84.931.159,1.174.212.497,https://maps.google.com/?cid=0x0:0x29faef94324816c1,
supermarket,Minimarket,Toko Fortuna,"FCWF+9VH, Brang Bara, Kec. Sumbawa, Kabupaten Sumbawa, Nusa Tenggara Bar. 84313","Brang Bara, Kec. Sumbawa, Kabupaten Sumbawa",NUSA TENGGARA BARAT,84313.0,Indonesia,,,,-85.040.529,1.174.247.343,https://maps.google.com/?cid=0x0:0x79cd73d5dea5fb4c,
supermarket,supermarket,Nusa Tenggara Bar. 84314,"Brang Bara, Kec. Sumbawa, Kabupaten Sumbawa, Nusa Tenggara Bar.","Kabupaten Sumbawa, Nusa Tenggara Bar.",NUSA TENGGARA BARAT,,Indonesia,,,,-85.155.113,1.174.350.821,https://maps.google.com/?cid=0x0:0xea6b9bc50d2848df,
supermarket,Toko,UD Ratna,"FCWF+FRV, JL Jenderal Sudirman, RT.2/RW.1, Brang Bara, Kec. Sumbawa, Kabupaten Sumbawa, Nusa Tenggara Bar. 84313","JL Jenderal Sudirman, RT.2/RW.1, Brang Bara, Kec. Sumbawa, Kabupaten Sumbawa",NUSA TENGGARA BARAT,84313.0,Indonesia,37121097,,,-85.037.667,1.174.245.379,https://maps.google.com/?cid=0x0:0x1889e4a25dee58fa,
supermarket,Pusat Perbelanjaan,Samawa Great Mall,"Jl. DR. Wahidin, Brang Bara, Kec. Sumbawa, Kabupaten Sumbawa, Nusa Tenggara Bar. 84313","Brang Bara, Kec. Sumbawa, Kabupaten Sumbawa",NUSA TENGGARA BARAT,84313.0,Indonesia,,,,-85.004.221,1.174.263.353,https://maps.google.com/?cid=0x0:0x412a6da322a9bdf9,
supermarket,Minimarket,BARATA,"FCW6+5J3, Jl. Sultan Kaharuddin, Kerato, Kec. Unter Iwes, Kabupaten Sumbawa, Nusa Tenggara Bar. 84316","Jl. Sultan Kaharuddin, Kerato, Kec. Unter Iwes, Kabupaten Sumbawa",NUSA TENGGARA BARAT,84316.0,Indonesia,,,,-8.504.607,1.174.115.562,https://maps.google.com/?cid=0x0:0xb4f49438a35bc776,
supermarket,Toko bahan makanan,Amaliah Kukis And Shop,"FCQG+77M, Samapuin, Kec. Sumbawa, Kabupaten Sumbawa, Nusa Tenggara Bar. 84314","Samapuin, Kec. Sumbawa, Kabupaten Sumbawa",NUSA TENGGARA BARAT,84314.0,Indonesia,81376041104,,,-8.511.793,1.174.256.577,https://maps.google.com/?cid=0x0:0xfb30c9c2c234a965,
supermarket,Ahli tembakau,Toko AYU LESTARI,"RT.3/RW.06, Karang goreng, Brang Bara, Kec. Sumbawa, Kabupaten Sumbawa, Nusa Tenggara Bar. 84316","Karang goreng, Brang Bara, Kec. Sumbawa, Kabupaten Sumbawa",NUSA TENGGARA BARAT,84316.0,Indonesia,,,,-85.038.421,1.174.205.929,https://maps.google.com/?cid=0x0:0x26d4ffae6d352887,
supermarket,Toko Bahan Bangunan,MR.DIY,"Ruko Blok M Seketeng Sumbawa Besar, Jl. Dr. Cipto RT 01/01 Kel, Seketeng, Kec. Sumbawa, Kabupaten Sumbawa, Nusa Tenggara Bar. 84314","Jl. Dr. Cipto RT 01/01 Kel, Seketeng, Kec. Sumbawa, Kabupaten Sumbawa",NUSA TENGGARA BARAT,84314.0,Indonesia,2130022789,,,-85.037.111,117.428.369,https://maps.google.com/?cid=0x0:0x11df267b8f7a200a,
supermarket,Pemasok Bahan Bangunan,PERSATUAN BANGUNAN,"FCVH+6Q6, Pekat, Kec. Sumbawa, Kabupaten Sumbawa, Nusa Tenggara Bar. 84314","Pekat, Kec. Sumbawa, Kabupaten Sumbawa",NUSA TENGGARA BARAT,84314.0,Indonesia,81917571882,,,-85.069.613,1.174.293.907,https://maps.google.com/?cid=0x0:0x7e1c514d1135c33c,
supermarket,Toko makanan beku,ARL Frozen Sumbawa,"GC5F+V53, Uma Sima, Kec. Sumbawa, Kabupaten Sumbawa, Nusa Tenggara Bar. 84313","Uma Sima, Kec. Sumbawa, Kabupaten Sumbawa",NUSA TENGGARA BARAT,84313.0,Indonesia,81355668087,,,-8.490.373,1.174.229.134,https://maps.google.com/?cid=0x0:0x9fc5df640903ea0b,
supermarket,Minimarket,Alfamart Kartini,"Jl. Ra. Kartini No.Kel, Brang Bara, Kec. Sumbawa, Kabupaten Sumbawa, Nusa Tenggara Bar. 84314","Brang Bara, Kec. Sumbawa, Kabupaten Sumbawa",NUSA TENGGARA BARAT,84314.0,Indonesia,1500959,,,-85.031.527,117.424.298,https://maps.google.com/?cid=0x0:0xe05fa17e66cbd025,
supermarket,Minimarket,Alfamart,"Jl. Dr. Sutomo, Pekat, Kec. Sumbawa, Kabupaten Sumbawa, Nusa Tenggara Bar. 84315","Pekat, Kec. Sumbawa, Kabupaten Sumbawa",NUSA TENGGARA BARAT,84315.0,Indonesia,1500959,,,-85.067.636,1.174.277.676,https://maps.google.com/?cid=0x0:0x8a7d76ef4bfebdf8,
supermarket,Toko,Indomaret,"FCRH+X9M, Pekat, Kec. Sumbawa, Kabupaten Sumbawa, Nusa Tenggara Bar. 84314","Pekat, Kec. Sumbawa, Kabupaten Sumbawa",NUSA TENGGARA BARAT,84314.0,Indonesia,,,,-8.507.541,1.174.284.136,https://maps.google.com/?cid=0x0:0xff4a1c13ccfd07e8,
supermarket,Pusat Perbelanjaan,UD. Permata Ayu,"Jl. Ki Hajar Dewantoro No.41, Pekat, Kec. Sumbawa, Kabupaten Sumbawa, Nusa Tenggara Bar. 84314","Pekat, Kec. Sumbawa, Kabupaten Sumbawa",NUSA TENGGARA BARAT,84314.0,Indonesia,8123730821,,,-85.068.284,1.174.278.788,https://maps.google.com/?cid=0x0:0xe20f43c5cb46f75d,
supermarket,Toko Makanan,Toko Cahaya Bunda,"FCWM+7WW, Jl. Raya Bukit Permai, Seketeng, Kec. Sumbawa, Kabupaten Sumbawa, Nusa Tenggara Bar. 84314","Jl. Raya Bukit Permai, Seketeng, Kec. Sumbawa, Kabupaten Sumbawa",NUSA TENGGARA BARAT,84314.0,Indonesia,81237054506,,,-85.042.637,1.174.348.186,https://maps.google.com/?cid=0x0:0x626e59375be3e158,
supermarket,Toko bahan makanan,UD. Mandiri,"Jl. Udang No.5, Seketeng, Kec. Sumbawa, Kabupaten Sumbawa, Nusa Tenggara Bar. 84313","Seketeng, Kec. Sumbawa, Kabupaten Sumbawa",NUSA TENGGARA BARAT,84313.0,Indonesia,37122932,,,-8.503.839,1.174.290.817,https://maps.google.com/?cid=0x0:0xd9e36d51a9012bdb,
supermarket,Pusat Perbelanjaan,Toko Oleh-Oleh Sumbawa EVI,"FCWG+HH8, Jl. DR. Wahidin, Brang Bara, Kec. Sumbawa, Kabupaten Sumbawa, Nusa Tenggara Bar. 84313","Jl. DR. Wahidin, Brang Bara, Kec. Sumbawa, Kabupaten Sumbawa",NUSA TENGGARA BARAT,84313.0,Indonesia,81233266111,,,-85.036.206,1.174.264.864,https://maps.google.com/?cid=0x0:0x2bcda177365322ae,
supermarket,Kios,Kios Agung,"Seketeng, Kec. Sumbawa, Kabupaten Sumbawa, Nusa Tenggara Bar. 84313","Kec. Sumbawa, Kabupaten Sumbawa",NUSA TENGGARA BARAT,84313.0,Indonesia,,,,-85.016.327,1.174.292.538,https://maps.google.com/?cid=0x0:0xb2c01a77926989,
supermarket,Minimarket,Alfamart,"Jl. Raya No.Kel, Samapuin, Kec. Sumbawa, Kabupaten Sumbawa, Nusa Tenggara Bar. 84316","Samapuin, Kec. Sumbawa, Kabupaten Sumbawa",NUSA TENGGARA BARAT,84316.0,Indonesia,1500959,,,-85.315.071,1.174.375.124,https://maps.google.com/?cid=0x0:0x7bdd43e1a4339758,
supermarket,Minimarket,Alfamart,"Jl. Raberas, Seketeng, Kec. Sumbawa, Kabupaten Sumbawa, Nusa Tenggara Bar. 84311","Seketeng, Kec. Sumbawa, Kabupaten Sumbawa",NUSA TENGGARA BARAT,84311.0,Indonesia,1500959,,,-84.984.882,1.174.314.264,https://maps.google.com/?cid=0x0:0xae5832048489d211,
supermarket,Minimarket,PRIMART,"FCWH+F52, JL Jenderal Sudirman, RT.04/RW.01, Seketeng, Kec. Sumbawa, Kabupaten Sumbawa, Nusa Tenggara Bar. 84313","JL Jenderal Sudirman, RT.04/RW.01, Seketeng, Kec. Sumbawa, Kabupaten Sumbawa",NUSA TENGGARA BARAT,84313.0,Indonesia,37121371,,,-85.038.577,1.174.279.002,https://maps.google.com/?cid=0x0:0xb5600d3e1fd2a087,
supermarket,Toko bahan makanan,Dodo Mart 2,"FC9P+CPR, Jorok, Kec. Unter Iwes, Kabupaten Sumbawa, Nusa Tenggara Bar. 84316","Jorok, Kec. Unter Iwes, Kabupaten Sumbawa",NUSA TENGGARA BARAT,84316.0,Indonesia,,,,-85.313.883,1.174.367.683,https://maps.google.com/?cid=0x0:0xf58fa128ae2cbe99,
supermarket,Toko Elektronik,UD. Usaha Bersama,"Jl. Sudirman No.27, Brang Bara, Kec. Sumbawa, Kabupaten Sumbawa, Nusa Tenggara Bar. 84313","Brang Bara, Kec. Sumbawa, Kabupaten Sumbawa",NUSA TENGGARA BARAT,84313.0,Indonesia,8123770113,,,-85.038.533,1.174.277.626,https://maps.google.com/?cid=0x0:0x9138fb816fedb9b,
supermarket,Pusat Perbelanjaan,Suara Muhammadiyah Corner Sumbawa,"FCWH+FH5, Jl. Udang, Seketeng, Kec. Sumbawa, Kabupaten Sumbawa, Nusa Tenggara Bar. 84313","Jl. Udang, Seketeng, Kec. Sumbawa, Kabupaten Sumbawa",NUSA TENGGARA BARAT,84313.0,Indonesia,85338715477,,,-8.503.863,1.174.289.879,https://maps.google.com/?cid=0x0:0xeacb154d668e3de,
supermarket,supermarket,Toko Pusat aki Sumbawa Besar NTB,"depan bawaslu, Jl. Dr. Cipto No.39, Seketeng, Kec. Sumbawa, Kabupaten Sumbawa, Nusa Tenggara Bar. 84313","Jl. Dr. Cipto No.39, Seketeng, Kec. Sumbawa, Kabupaten Sumbawa",NUSA TENGGARA BARAT,84313.0,Indonesia,81999555463,,,-85.048.928,1.174.283.511,https://maps.google.com/?cid=0x0:0x3aefc2c7553ec99e,
supermarket,supermarket,Pulau Sumbawa,Nusa Tenggara Bar.,Nusa Tenggara Bar.,NUSA TENGGARA BARAT,,Indonesia,,,,-8.738.072,1.181.171.082,https://maps.google.com/?cid=0x0:0x82a1915875a8c41c,
supermarket,Pemasok Bahan Bangunan,Supermarket Bahan Bangunan Sumber Mas,"Jl. Diponegoro No.18, Bugis, Kec. Sumbawa, Kabupaten Sumbawa, Nusa Tenggara Bar. 84313","Bugis, Kec. Sumbawa, Kabupaten Sumbawa",NUSA TENGGARA BARAT,84313.0,Indonesia,85338002696,,,-84.976.828,1.174.243.998,https://maps.google.com/?cid=0x0:0xec7dd62e6b040cfa,
supermarket,Minimarket,BARATA,"FCW6+5J3, Jl. Sultan Kaharuddin, Kerato, Kec. Unter Iwes, Kabupaten Sumbawa, Nusa Tenggara Bar. 84316","Jl. Sultan Kaharuddin, Kerato, Kec. Unter Iwes, Kabupaten Sumbawa",NUSA TENGGARA BARAT,84316.0,Indonesia,,,,-8.504.607,1.174.115.562,https://maps.google.com/?cid=0x0:0xb4f49438a35bc776,
supermarket,Toko,toko serba ada,"jl. lintas sumbawa- km 70Plampang,Kabupaten Sumbawa, Nusa Tenggara Bar., Indonesia, Plampang, Kec. Plampang, Bima, Nusa Tenggara Bar. 84383","Nusa Tenggara Bar., Indonesia, Plampang, Kec. Plampang, Bima",NUSA TENGGARA BARAT,84383.0,Indonesia,81770051784,,,-87.888.557,1.178.057.726,https://maps.google.com/?cid=0x0:0xe11b6ea6bc2bf9ec,
supermarket,Toko makanan beku,ARL Frozen Sumbawa,"GC5F+V53, Uma Sima, Kec. Sumbawa, Kabupaten Sumbawa, Nusa Tenggara Bar. 84313","Uma Sima, Kec. Sumbawa, Kabupaten Sumbawa",NUSA TENGGARA BARAT,84313.0,Indonesia,81355668087,,,-8.490.373,1.174.229.134,https://maps.google.com/?cid=0x0:0x9fc5df640903ea0b,
supermarket,Toko Swalayan,UD Triolanang,"76MW+M8R, Tolo' Oi, Kec. Tarano, Kabupaten Sumbawa, Nusa Tenggara Bar. 84384","Tolo' Oi, Kec. Tarano, Kabupaten Sumbawa",NUSA TENGGARA BARAT,84384.0,Indonesia,81237146016,,,-8.715.758,1.182.457.728,https://maps.google.com/?cid=0x0:0x3ce608df75baa0b4,
supermarket,Toko Swalayan,UD. TIGA SAUDARA,"Tlk. Santong, Kec. Plampang, Kabupaten Sumbawa, Nusa Tenggara Bar.","Kabupaten Sumbawa, Nusa Tenggara Bar.",NUSA TENGGARA BARAT,,Indonesia,81237118167,,,-87.251.363,1.178.872.144,https://maps.google.com/?cid=0x0:0x56b24f914d24a105,
supermarket,Toko,UD Ratna,"FCWF+FRV, JL Jenderal Sudirman, RT.2/RW.1, Brang Bara, Kec. Sumbawa, Kabupaten Sumbawa, Nusa Tenggara Bar. 84313","JL Jenderal Sudirman, RT.2/RW.1, Brang Bara, Kec. Sumbawa, Kabupaten Sumbawa",NUSA TENGGARA BARAT,84313.0,Indonesia,37121097,,,-85.037.667,1.174.245.379,https://maps.google.com/?cid=0x0:0x1889e4a25dee58fa,
supermarket,Pemasok Bahan Bangunan,CV. Aurora Jaya,"Empang Bawah, Kec. Empang, Kabupaten Sumbawa, Nusa Tenggara Bar. 84384","Kec. Empang, Kabupaten Sumbawa",NUSA TENGGARA BARAT,84384.0,Indonesia,,,,-87.584.131,1.179.976.166,https://maps.google.com/?cid=0x0:0x2204cd091cbd6c68,
supermarket,Toko umum,Pasar Baru Empang,"6XRW+QJ2, Empang Bawah, Kec. Empang, Kabupaten Sumbawa, Nusa Tenggara Bar. 84384","Empang Bawah, Kec. Empang, Kabupaten Sumbawa",NUSA TENGGARA BARAT,84384.0,Indonesia,,,,-87.593.231,1.179.966.417,https://maps.google.com/?cid=0x0:0xbb51846b982d7f5d,
supermarket,Toko,Zairur Arifin,"JL Lintas Sumbawa-Bima, RT 01 RW 06, Brang Kolong, Pelampang, Sumbawa Besar, 84251","RT 01 RW 06, Brang Kolong, Pelampang",NUSA TENGGARA BARAT,84251.0,Indonesia,81906986128,,,-87.433.756,1.177.307.349,https://maps.google.com/?cid=0x0:0xc70a5c54ba934bc,
supermarket,Minimarket,Alfamart,"Jl. Yos Sudarso, Bugis, Kec. Sumbawa, Kabupaten Sumbawa, Nusa Tenggara Bar. 84313","Bugis, Kec. Sumbawa, Kabupaten Sumbawa",NUSA TENGGARA BARAT,84313.0,Indonesia,1500959,,,-84.963.891,1.174.242.961,https://maps.google.com/?cid=0x0:0xdddc40a0d2f7cbab,
supermarket,Minimarket,Alfamart Empang Bawa,"Jl Raya Desa, Empang Bawah, Kec. Empang, Kabupaten Sumbawa, Nusa Tenggara Bar. 84384","Empang Bawah, Kec. Empang, Kabupaten Sumbawa",NUSA TENGGARA BARAT,84384.0,Indonesia,1500959,,,-87.630.927,1.180.011.761,https://maps.google.com/?cid=0x0:0xaa9c8f361a223d33,
supermarket,Toko,Ud Barokah,"6XVR+XW2, Empang Bawah, Kec. Empang, Kabupaten Sumbawa, Nusa Tenggara Bar. 84384","Empang Bawah, Kec. Empang, Kabupaten Sumbawa",NUSA TENGGARA BARAT,84384.0,Indonesia,81909084008,,,-87.551.001,1.179.922.582,https://maps.google.com/?cid=0x0:0xda3f19b8738778dd,
supermarket,Toko Swalayan,Toko Ud.Ilwa,"7X2V+9XJ, Jl. Lintas Sumbawa - Bima, Empang Bawah, Kec. Empang, Kabupaten Sumbawa, Nusa Tenggara Bar. 84384","Jl. Lintas Sumbawa - Bima, Empang Bawah, Kec. Empang, Kabupaten Sumbawa",NUSA TENGGARA BARAT,84384.0,Indonesia,85205232542,,,-87.490.285,1.179.948.814,https://maps.google.com/?cid=0x0:0x9d601a26320e47d6,
supermarket,Minimarket,Indomaret,"62M3+36R, Empang Bawah, Kec. Empang, Kabupaten Sumbawa, Nusa Tenggara Bar. 84384","Empang Bawah, Kec. Empang, Kabupaten Sumbawa",NUSA TENGGARA BARAT,84384.0,Indonesia,,,,-87.672.598,1.180.030.225,https://maps.google.com/?cid=0x0:0x6b6cca79a2820c72,
supermarket,Toko,UD Sukses Bersama,"Empang Bawah, Kec. Empang, Kabupaten Sumbawa, Nusa Tenggara Bar. 84384","Kec. Empang, Kabupaten Sumbawa",NUSA TENGGARA BARAT,84384.0,Indonesia,,,,-87.644.058,1.180.024.296,https://maps.google.com/?cid=0x0:0xb355fde6dd5fad0c,
supermarket,Minimarket,Alfamart,"Jl. Merdeka, Empang Bawah, Kec. Empang, Kabupaten Sumbawa, Nusa Tenggara Bar. 84384","Empang Bawah, Kec. Empang, Kabupaten Sumbawa",NUSA TENGGARA BARAT,84384.0,Indonesia,1500959,,,-87.672.251,1.180.033.423,https://maps.google.com/?cid=0x0:0xc772af90233a04ee,
supermarket,Toko Swalayan,UD PUTRI CAHAYA,"9M84+54H, Jl. Lintas Sumbawa - Bima, Lape, Kec. Lape, Kabupaten Sumbawa, Nusa Tenggara Bar. 84382","Jl. Lintas Sumbawa - Bima, Lape, Kec. Lape, Kabupaten Sumbawa",NUSA TENGGARA BARAT,84382.0,Indonesia,,,,-86.345.693,1.176.553.539,https://maps.google.com/?cid=0x0:0x19e23364356fb794,
supermarket,Minimarket,Alfamart,"Jl. Raberas, Seketeng, Kec. Sumbawa, Kabupaten Sumbawa, Nusa Tenggara Bar. 84311","Seketeng, Kec. Sumbawa, Kabupaten Sumbawa",NUSA TENGGARA BARAT,84311.0,Indonesia,1500959,,,-84.984.882,1.174.314.264,https://maps.google.com/?cid=0x0:0xae5832048489d211,
supermarket,Toko Swalayan,Kawan baru toko grosir,"GC3F+897, Bugis, Kec. Sumbawa, Kabupaten Sumbawa, Nusa Tenggara Bar. 84313","Bugis, Kec. Sumbawa, Kabupaten Sumbawa",NUSA TENGGARA BARAT,84313.0,Indonesia,,,,-84.967.248,1.174.234.371,https://maps.google.com/?cid=0x0:0xb40b318aadd9823b,
supermarket,Toko,Alfamart Maronge,"Jl Raya No.Kel, Maronge, Kec. Maronge, Kabupaten Sumbawa, Nusa Tenggara Bar. 84383","Maronge, Kec. Maronge, Kabupaten Sumbawa",NUSA TENGGARA BARAT,84383.0,Indonesia,1500959,,,-86.701.504,1.177.054.427,https://maps.google.com/?cid=0x0:0xd373178cb79535d8,
supermarket,Minimarket,Toko Fortuna,"FCWF+9VH, Brang Bara, Kec. Sumbawa, Kabupaten Sumbawa, Nusa Tenggara Bar. 84313","Brang Bara, Kec. Sumbawa, Kabupaten Sumbawa",NUSA TENGGARA BARAT,84313.0,Indonesia,,,,-85.040.529,1.174.247.343,https://maps.google.com/?cid=0x0:0x79cd73d5dea5fb4c,
supermarket,Kantor Perusahaan,Toko Puncak Sari,"GC3F+R8X, Jl. Lintas Sumbawa - Bima, Bugis, Kec. Sumbawa, Kabupaten Sumbawa, Nusa Tenggara Bar. 84313","Jl. Lintas Sumbawa - Bima, Bugis, Kec. Sumbawa, Kabupaten Sumbawa",NUSA TENGGARA BARAT,84313.0,Indonesia,,,,-84.953.799,1.174.233.698,https://maps.google.com/?cid=0x0:0x4497d5d154b3a6,
supermarket,Toko bahan makanan,Toko Lila,"7987+M7C, Lenangguar, Kec. Lenangguar, Kabupaten Sumbawa, Nusa Tenggara Bar. 84372","Lenangguar, Kec. Lenangguar, Kabupaten Sumbawa",NUSA TENGGARA BARAT,84372.0,Indonesia,,,,-87.333.097,1.173.631.433,https://maps.google.com/?cid=0x0:0x266e98eeb5fdfd08,
supermarket,Toko Buah dan Sayuran,TOKO BUAH EWI,"Jl. Hasanudin depan sd 2 sumbawa sebelum polres, Bugis, Kec. Sumbawa, Sumbawa besar, Nusa Tenggara Bar. 84312","Bugis, Kec. Sumbawa, Sumbawa besar",NUSA TENGGARA BARAT,84312.0,Indonesia,82341511467,,,-84.927.382,1.174.201.029,https://maps.google.com/?cid=0x0:0xaa42ec3cb5968680,
supermarket,Minimarket,Alfamart,"Jl. Dr. Sutomo, Pekat, Kec. Sumbawa, Kabupaten Sumbawa, Nusa Tenggara Bar. 84315","Pekat, Kec. Sumbawa, Kabupaten Sumbawa",NUSA TENGGARA BARAT,84315.0,Indonesia,1500959,,,-85.067.636,1.174.277.676,https://maps.google.com/?cid=0x0:0x8a7d76ef4bfebdf8,
supermarket,Minimarket,Kios Dedi,"F98M+2Q8, Pelat, Kec. Unter Iwes, Kabupaten Sumbawa, Nusa Tenggara Bar. 84316","Pelat, Kec. Unter Iwes, Kabupaten Sumbawa",NUSA TENGGARA BARAT,84316.0,Indonesia,,,,-85.349.504,1.173.844.405,https://maps.google.com/?cid=0x0:0x9bb45234bab6c04e,
supermarket,Toko Pakaian,Balegra Muslimah Outlet,"GC4C+J8R, Bugis, Kec. Sumbawa, Kabupaten Sumbawa, Nusa Tenggara Bar. 84313","Bugis, Kec. Sumbawa, Kabupaten Sumbawa",NUSA TENGGARA BARAT,84313.0,Indonesia,81805725883,,,-84.933.866,1.174.207.733,https://maps.google.com/?cid=0x0:0x3d29cd6b9d65d939,
supermarket,supermarket,Nusa Tenggara Bar. 84316,"Kabupaten Sumbawa, Nusa Tenggara Bar.","Kabupaten Sumbawa, Nusa Tenggara Bar.",NUSA TENGGARA BARAT,,Indonesia,,,,-83.425.116,1.175.261.025,https://maps.google.com/?cid=0x0:0xae3c45be75c5d8c3,
supermarket,Pemasok Bahan Bangunan,Supermarket Bahan Bangunan Sumber Mas,"Jl. Diponegoro No.18, Bugis, Kec. Sumbawa, Kabupaten Sumbawa, Nusa Tenggara Bar. 84313","Bugis, Kec. Sumbawa, Kabupaten Sumbawa",NUSA TENGGARA BARAT,84313.0,Indonesia,85338002696,,,-84.976.828,1.174.243.998,https://maps.google.com/?cid=0x0:0xec7dd62e6b040cfa,
supermarket,Toserba,Pentolan Comel sumbawa,"FCW9+CQX, Jl. Sultan Kaharuddin, Brang Bara, Kec. Sumbawa, Kabupaten Sumbawa, Nusa Tenggara Bar. 84316","Jl. Sultan Kaharuddin, Brang Bara, Kec. Sumbawa, Kabupaten Sumbawa",NUSA TENGGARA BARAT,84316.0,Indonesia,85338253660,,,-85.038.838,1.174.194.908,https://maps.google.com/?cid=0x0:0xd1db6e051db3031e,
supermarket,Pusat Perbelanjaan,Samawa Great Mall,"Jl. DR. Wahidin, Brang Bara, Kec. Sumbawa, Kabupaten Sumbawa, Nusa Tenggara Bar. 84313","Brang Bara, Kec. Sumbawa, Kabupaten Sumbawa",NUSA TENGGARA BARAT,84313.0,Indonesia,,,,-85.004.221,1.174.263.353,https://maps.google.com/?cid=0x0:0x412a6da322a9bdf9,
supermarket,Toko Perlengkapan Rumah,Pink Kios,"GCH3+37P, Unnamed Road, Labuan Sumbawa, Labuhan Badas, Kabupaten Sumbawa, Nusa Tenggara Bar. 84316","Unnamed Road, Labuan Sumbawa, Labuhan Badas, Kabupaten Sumbawa",NUSA TENGGARA BARAT,84316.0,Indonesia,,,,-84.722.774,1.174.032.075,https://maps.google.com/?cid=0x0:0x33f1ad23c900f4df,
supermarket,Minimarket,Toko Fortuna,"FCWF+9VH, Brang Bara, Kec. Sumbawa, Kabupaten Sumbawa, Nusa Tenggara Bar. 84313","Brang Bara, Kec. Sumbawa, Kabupaten Sumbawa",NUSA TENGGARA BARAT,84313.0,Indonesia,,,,-85.040.529,1.174.247.343,https://maps.google.com/?cid=0x0:0x79cd73d5dea5fb4c,
supermarket,Toko Perlengkapan Rumah,toko oma,"Unnamed Road, Nusa Tenggara Bar. 84316, Karang Dima, Labuhan Badas, Kabupaten Sumbawa, Nusa Tenggara Bar. 84316",Nusa Tenggara Bar.,NUSA TENGGARA BARAT,84316.0,Indonesia,82342634279,,,-84.753.097,1.173.785.311,https://maps.google.com/?cid=0x0:0x207734deee613b0b,
supermarket,Kantor Perusahaan,Toko Puncak Sari,"GC3F+R8X, Jl. Lintas Sumbawa - Bima, Bugis, Kec. Sumbawa, Kabupaten Sumbawa, Nusa Tenggara Bar. 84313","Jl. Lintas Sumbawa - Bima, Bugis, Kec. Sumbawa, Kabupaten Sumbawa",NUSA TENGGARA BARAT,84313.0,Indonesia,,,,-84.953.799,1.174.233.698,https://maps.google.com/?cid=0x0:0x4497d5d154b3a6,
supermarket,supermarket,Toko Bahan Kue D'Kichen,"Lempeh, Kec. Sumbawa, Kabupaten Sumbawa, Nusa Tenggara Bar. 84316","Kec. Sumbawa, Kabupaten Sumbawa",NUSA TENGGARA BARAT,84316.0,Indonesia,,,,-84.793.468,1.174.098.746,https://maps.google.com/?cid=0x0:0xb155a908a013a264,
supermarket,Toserba,Toko New Dinasty Sumbawa,"Jl. Garuda No.1, Brang Biji, Kec. Sumbawa, Kabupaten Sumbawa, Nusa Tenggara Bar. 84316","Brang Biji, Kec. Sumbawa, Kabupaten Sumbawa",NUSA TENGGARA BARAT,84316.0,Indonesia,81916814684,,,-84.889.453,1.174.188.328,https://maps.google.com/?cid=0x0:0x7e66993b77716e81,
supermarket,Toko bahan makanan,Alfamart,"Jl. Karang Dima, Karang Dima, Labuhan Badas, Kabupaten Sumbawa, Nusa Tenggara Bar. 84316","Karang Dima, Labuhan Badas, Kabupaten Sumbawa",NUSA TENGGARA BARAT,84316.0,Indonesia,1500959,,,-84.723.013,1.173.816.437,https://maps.google.com/?cid=0x0:0x9d5c4621783e06c6,
supermarket,Toko Swalayan,Kawan baru toko grosir,"GC3F+897, Bugis, Kec. Sumbawa, Kabupaten Sumbawa, Nusa Tenggara Bar. 84313","Bugis, Kec. Sumbawa, Kabupaten Sumbawa",NUSA TENGGARA BARAT,84313.0,Indonesia,,,,-84.967.248,1.174.234.371,https://maps.google.com/?cid=0x0:0xb40b318aadd9823b,
supermarket,Pasar,UD. ALISA,"Jl. Garuda No.41, Lempeh, Kec. Sumbawa, Kabupaten Sumbawa, Nusa Tenggara Bar. 84316","Lempeh, Kec. Sumbawa, Kabupaten Sumbawa",NUSA TENGGARA BARAT,84316.0,Indonesia,81998977633,,,-84.824.508,117.410.417,https://maps.google.com/?cid=0x0:0x40d4096af896f2c0,
supermarket,Toko makanan beku,ARL Frozen Sumbawa,"GC5F+V53, Uma Sima, Kec. Sumbawa, Kabupaten Sumbawa, Nusa Tenggara Bar. 84313","Uma Sima, Kec. Sumbawa, Kabupaten Sumbawa",NUSA TENGGARA BARAT,84313.0,Indonesia,81355668087,,,-8.490.373,1.174.229.134,https://maps.google.com/?cid=0x0:0x9fc5df640903ea0b,
supermarket,Toko bahan makanan,toko chris jaya,"Jl. Yos Sudarso No.16, Seketeng, Kec. Sumbawa, Kabupaten Sumbawa, Nusa Tenggara Bar. 84313","Seketeng, Kec. Sumbawa, Kabupaten Sumbawa",NUSA TENGGARA BARAT,84313.0,Indonesia,82145946181,,,-84.942.887,1.174.240.608,https://maps.google.com/?cid=0x0:0xb18f8651bbcad4f3,
supermarket,Toko bahan makanan,UD SYAFA,"GCH3+9M3, Unnamed Road, Labuan Sumbawa, Labuhan Badas, Kabupaten Sumbawa, Nusa Tenggara Bar. 84316","Unnamed Road, Labuan Sumbawa, Labuhan Badas, Kabupaten Sumbawa",NUSA TENGGARA BARAT,84316.0,Indonesia,,,,-84.716.172,117.404.165,https://maps.google.com/?cid=0x0:0xdaf1cf76dfdac5ff,
supermarket,Minimarket,Alfamart,"Jl. Kebayan, Samapuin, Kec. Sumbawa, Kabupaten Sumbawa, Nusa Tenggara Bar. 84316","Samapuin, Kec. Sumbawa, Kabupaten Sumbawa",NUSA TENGGARA BARAT,84316.0,Indonesia,1500959,,,-84.887.244,1.174.203.631,https://maps.google.com/?cid=0x0:0x9953514612fc9fa,
supermarket,Minimarket,Alfamart Labuhan Sumbawa,"Jl. Garuda No.Kel, Labuan Sumbawa, Labuhan Badas, Kabupaten Sumbawa, Nusa Tenggara Bar. 84316","Labuan Sumbawa, Labuhan Badas, Kabupaten Sumbawa",NUSA TENGGARA BARAT,84316.0,Indonesia,1500959,,,-84.724.646,1.173.974.311,https://maps.google.com/?cid=0x0:0xc4aa841dc93ce777,
supermarket,Minimarket,TOKO ASAKU,"Jl. Cendrawasih, Brang Biji, Kec. Sumbawa, Kabupaten Sumbawa, Nusa Tenggara Bar. 84316","Brang Biji, Kec. Sumbawa, Kabupaten Sumbawa",NUSA TENGGARA BARAT,84316.0,Indonesia,3712622155,,,-84.769.381,1.174.115.273,https://maps.google.com/?cid=0x0:0xf3763cdf9a291672,
supermarket,Minimarket,Alfamart Karang Dima,"Jl. By Pass, Karang Dima, Labuhan Badas, Kabupaten Sumbawa, Nusa Tenggara Bar. 84316","Karang Dima, Labuhan Badas, Kabupaten Sumbawa",NUSA TENGGARA BARAT,84316.0,Indonesia,1500959,,,-84.802.775,1.173.924.679,https://maps.google.com/?cid=0x0:0x8e81d788c0266f5a,
supermarket,Toko bahan makanan,UD.INDIRA,"GC24+VPQ, Jl. Nijang, Kerato, Kec. Unter Iwes, Kabupaten Sumbawa, Nusa Tenggara Bar. 84316","Jl. Nijang, Kerato, Kec. Unter Iwes, Kabupaten Sumbawa",NUSA TENGGARA BARAT,84316.0,Indonesia,82339384990,,,-8.497.775,1.174.068.486,https://maps.google.com/?cid=0x0:0xbabed9352a4b3f40,
supermarket,Toko bahan makanan,Indomaret Karang Dima,"Jl. Garuda No.132, Karang Dima, Labuhan Badas, Kabupaten Sumbawa, Nusa Tenggara Bar. 84316","Karang Dima, Labuhan Badas, Kabupaten Sumbawa",NUSA TENGGARA BARAT,84316.0,Indonesia,,,,-84.725.132,1.173.830.585,https://maps.google.com/?cid=0x0:0x6c12ec194cdabba7,
supermarket,Minimarket,Alfamart,"Jl. Raya No.Kel, Samapuin, Kec. Sumbawa, Kabupaten Sumbawa, Nusa Tenggara Bar. 84316","Samapuin, Kec. Sumbawa, Kabupaten Sumbawa",NUSA TENGGARA BARAT,84316.0,Indonesia,1500959,,,-85.315.071,1.174.375.124,https://maps.google.com/?cid=0x0:0x7bdd43e1a4339758,
supermarket,Ahli tembakau,Toko AYU LESTARI,"RT.3/RW.06, Karang goreng, Brang Bara, Kec. Sumbawa, Kabupaten Sumbawa, Nusa Tenggara Bar. 84316","Karang goreng, Brang Bara, Kec. Sumbawa, Kabupaten Sumbawa",NUSA TENGGARA BARAT,84316.0,Indonesia,,,,-85.038.421,1.174.205.929,https://maps.google.com/?cid=0x0:0x26d4ffae6d352887,
supermarket,Minimarket,Alfamart Brang Biji,"Jl Kel, Brang Biji, Kec. Sumbawa, Kabupaten Sumbawa, Nusa Tenggara Bar. 84318","Brang Biji, Kec. Sumbawa, Kabupaten Sumbawa",NUSA TENGGARA BARAT,84318.0,Indonesia,1500959,,,-84.863.196,1.174.150.595,https://maps.google.com/?cid=0x0:0xbc20cbb7efeb9d97,
supermarket,supermarket,Nusa Tenggara Bar. 84317,"Kabupaten Sumbawa, Nusa Tenggara Bar.","Kabupaten Sumbawa, Nusa Tenggara Bar.",NUSA TENGGARA BARAT,,Indonesia,,,,-84.821.188,1.174.497.657,https://maps.google.com/?cid=0x0:0xda63529bf763eba1,
supermarket,Toko makanan beku,ARL Frozen Sumbawa,"GC5F+V53, Uma Sima, Kec. Sumbawa, Kabupaten Sumbawa, Nusa Tenggara Bar. 84313","Uma Sima, Kec. Sumbawa, Kabupaten Sumbawa",NUSA TENGGARA BARAT,84313.0,Indonesia,81355668087,,,-8.490.373,1.174.229.134,https://maps.google.com/?cid=0x0:0x9fc5df640903ea0b,
supermarket,Pusat Perbelanjaan,Samawa Great Mall,"Jl. DR. Wahidin, Brang Bara, Kec. Sumbawa, Kabupaten Sumbawa, Nusa Tenggara Bar. 84313","Brang Bara, Kec. Sumbawa, Kabupaten Sumbawa",NUSA TENGGARA BARAT,84313.0,Indonesia,,,,-85.004.221,1.174.263.353,https://maps.google.com/?cid=0x0:0x412a6da322a9bdf9,
supermarket,Toko,UD Ratna,"FCWF+FRV, JL Jenderal Sudirman, RT.2/RW.1, Brang Bara, Kec. Sumbawa, Kabupaten Sumbawa, Nusa Tenggara Bar. 84313","JL Jenderal Sudirman, RT.2/RW.1, Brang Bara, Kec. Sumbawa, Kabupaten Sumbawa",NUSA TENGGARA BARAT,84313.0,Indonesia,37121097,,,-85.037.667,1.174.245.379,https://maps.google.com/?cid=0x0:0x1889e4a25dee58fa,
supermarket,Toko bahan makanan,Toko Mega W,"GCGG+CG6, Jl. Dari Sumbawa, sernu, Kec. Sumbawa, Kabupaten Sumbawa, Nusa Tenggara Bar. 84311","Jl. Dari Sumbawa, sernu, Kec. Sumbawa, Kabupaten Sumbawa",NUSA TENGGARA BARAT,84311.0,Indonesia,,,,-84.739.685,1.174.262.714,https://maps.google.com/?cid=0x0:0x5fbf4035a303d008,
supermarket,Minimarket,ALFAMART UNTIR KETIMIS,"GC4M+W5V, Ppn bukit indah, Seketeng, Kec. Sumbawa, Kabupaten Sumbawa, Nusa Tenggara Bar. 84313","Ppn bukit indah, Seketeng, Kec. Sumbawa, Kabupaten Sumbawa",NUSA TENGGARA BARAT,84313.0,Indonesia,,,,-84.924.114,1.174.333.441,https://maps.google.com/?cid=0x0:0xe0b54339f3e1858f,
supermarket,Minimarket,Alfamart,"Jl. Durian, Kerato, Kec. Sumbawa, Kabupaten Sumbawa, Nusa Tenggara Bar. 84351","Kerato, Kec. Sumbawa, Kabupaten Sumbawa",NUSA TENGGARA BARAT,84351.0,Indonesia,1500959,,,-84.889.534,1.174.227.883,https://maps.google.com/?cid=0x0:0xc4f113245d810e43,
supermarket,Toko Swalayan,Kios paow,"Graha nusantara lintas kebayan atas, Nusa Tenggara Bar. 84317","Kabupaten Sumbawa, Nusa Tenggara Bar.",NUSA TENGGARA BARAT,,Indonesia,,,,-84.858.927,1.174.313.471,https://maps.google.com/?cid=0x0:0x589821a13f9bcaba,
supermarket,Minimarket,Alfamart,"Jl. Raberas, Seketeng, Kec. Sumbawa, Kabupaten Sumbawa, Nusa Tenggara Bar. 84311","Seketeng, Kec. Sumbawa, Kabupaten Sumbawa",NUSA TENGGARA BARAT,84311.0,Indonesia,1500959,,,-84.984.882,1.174.314.264,https://maps.google.com/?cid=0x0:0xae5832048489d211,
supermarket,Minimarket,Alfamart,"Jl. Yos Sudarso, Bugis, Kec. Sumbawa, Kabupaten Sumbawa, Nusa Tenggara Bar. 84313","Bugis, Kec. Sumbawa, Kabupaten Sumbawa",NUSA TENGGARA BARAT,84313.0,Indonesia,1500959,,,-84.963.891,1.174.242.961,https://maps.google.com/?cid=0x0:0xdddc40a0d2f7cbab,
supermarket,Dapur Umum,AciMoy Cireng  Cimol,"Indomaret, Jl. Kebayan, Uma Sima, Kec. Sumbawa, Kabupaten Sumbawa, Nusa Tenggara Bar. 84312","Jl. Kebayan, Uma Sima, Kec. Sumbawa, Kabupaten Sumbawa",NUSA TENGGARA BARAT,84312.0,Indonesia,81529648907,,,-84.864.224,1.174.234.256,https://maps.google.com/?cid=0x0:0x3b9ce0dfafb1d9e9,
supermarket,Minimarket,ALFAMART RABERAS,"GC3V+XF5, Jl. Raberas, Seketeng, Kec. Sumbawa, Kabupaten Sumbawa, Nusa Tenggara Bar.","Kabupaten Sumbawa, Nusa Tenggara Bar.",NUSA TENGGARA BARAT,,Indonesia,,,,-84.951.119,1.174.437.304,https://maps.google.com/?cid=0x0:0x94c6d97fc748301f,
supermarket,supermarket,YEN'S STORE,"GC8C+FG8, Brang Biji, Kec. Sumbawa, Kabupaten Sumbawa, Nusa Tenggara Bar. 84312","Brang Biji, Kec. Sumbawa, Kabupaten Sumbawa",NUSA TENGGARA BARAT,84312.0,Indonesia,82339562277,,,-84.839.367,1.174.207.432,https://maps.google.com/?cid=0x0:0x7973fe843766e74d,
supermarket,supermarket,Rumah makan ibu Mini,"GF88+XHQ, Penyaring, Kec. Moyo Utara, Kabupaten Sumbawa, Nusa Tenggara Bar. 84311","Penyaring, Kec. Moyo Utara, Kabupaten Sumbawa",NUSA TENGGARA BARAT,84311.0,Indonesia,,,,-84.822.759,1.174.663.433,https://maps.google.com/?cid=0x0:0xfdc78ece619d6044,
supermarket,Toko,Kios Zuhrya Cell,"Gg. Pramuka No.1, Brang Biji, Kec. Sumbawa, Kabupaten Sumbawa, Nusa Tenggara Bar. 84312","Brang Biji, Kec. Sumbawa, Kabupaten Sumbawa",NUSA TENGGARA BARAT,84312.0,Indonesia,82339041815,,,-84.850.249,1.174.220.926,https://maps.google.com/?cid=0x0:0xf509d018229ce73b,
supermarket,Toserba,Sejoli. CV,"GC7F+878, Uma Sima, Kec. Sumbawa, Kabupaten Sumbawa, Nusa Tenggara Bar. 84313","Uma Sima, Kec. Sumbawa, Kabupaten Sumbawa",NUSA TENGGARA BARAT,84313.0,Indonesia,371625261,,,-84.867.018,1.174.232.187,https://maps.google.com/?cid=0x0:0x88c236d07a7fee00,
supermarket,Toko,UD.RISKIKA (produksi permen susu khas sumbawa),"GFH8+G78, Penyaring, Kec. Moyo Utara, Kabupaten Sumbawa, Nusa Tenggara Bar. 84381","Penyaring, Kec. Moyo Utara, Kabupaten Sumbawa",NUSA TENGGARA BARAT,84381.0,Indonesia,,,,-84.711.546,1.174.657.558,https://maps.google.com/?cid=0x0:0xd1ac50ad22775bea,
supermarket,Toko Perkakas,Vivian lee GROSIR SUMBAWA,"Btn, Jl. Perumahan Gn. Setia, Brang Biji, Kec. Sumbawa, Kabupaten Sumbawa, Nusa Tenggara Bar. 84318","Jl. Perumahan Gn. Setia, Brang Biji, Kec. Sumbawa, Kabupaten Sumbawa",NUSA TENGGARA BARAT,84318.0,Indonesia,85253865549,,,-84.865.842,1.174.214.943,https://maps.google.com/?cid=0x0:0x151f9a121b16dc5d,
supermarket,Toko Elektronik,Toko 555,"Jl. Kartini No.55, Brang Biji, Kec. Sumbawa, Kabupaten Sumbawa, Nusa Tenggara Bar. 84312","Brang Biji, Kec. Sumbawa, Kabupaten Sumbawa",NUSA TENGGARA BARAT,84312.0,Indonesia,371626255,,,-84.845.461,1.174.248.281,https://maps.google.com/?cid=0x0:0x7cd0c2699ba8b5a5,
supermarket,Toko,KIOS BAROKAH,"Buintreng, Jl. Lkr. Jl. Kelapis, RT.4/RW.14, Brang Biji, Kec. Sumbawa, Kabupaten Sumbawa, Nusa Tenggara Bar. 84312","Jl. Lkr. Jl. Kelapis, RT.4/RW.14, Brang Biji, Kec. Sumbawa, Kabupaten Sumbawa",NUSA TENGGARA BARAT,84312.0,Indonesia,,,,-84.798.394,1.174.262.977,https://maps.google.com/?cid=0x0:0x97a6317b6a349872,
supermarket,Kios,Kios Sehati H. Aswad,"Brang Biji, Kec. Sumbawa, Kabupaten Sumbawa, Nusa Tenggara Bar. 84312","Kec. Sumbawa, Kabupaten Sumbawa",NUSA TENGGARA BARAT,84312.0,Indonesia,82340860171,,,-84.856.838,1.174.236.756,https://maps.google.com/?cid=0x0:0xeb94f3bd9a5ab69e,
supermarket,Minimarket,Alfamart,"Jl. Kebayan, Samapuin, Kec. Sumbawa, Kabupaten Sumbawa, Nusa Tenggara Bar. 84316","Samapuin, Kec. Sumbawa, Kabupaten Sumbawa",NUSA TENGGARA BARAT,84316.0,Indonesia,1500959,,,-84.887.244,1.174.203.631,https://maps.google.com/?cid=0x0:0x9953514612fc9fa,
supermarket,Toko bahan makanan,Toko Es Batu Maesaroh,"GC8F+HRG, Brang Biji, Kec. Sumbawa, Kabupaten Sumbawa, Nusa Tenggara Bar. 84312","Brang Biji, Kec. Sumbawa, Kabupaten Sumbawa",NUSA TENGGARA BARAT,84312.0,Indonesia,,,,-84.835.533,1.174.245.809,https://maps.google.com/?cid=0x0:0xe32b842d0b2c6cb0,
supermarket,supermarket,Nusa Tenggara Bar. 84318,"Brang Biji, Kec. Sumbawa, Kabupaten Sumbawa, Nusa Tenggara Bar.","Kabupaten Sumbawa, Nusa Tenggara Bar.",NUSA TENGGARA BARAT,,Indonesia,,,,-84.577.454,1.174.438.924,https://maps.google.com/?cid=0x0:0x189768f48d111a4d,
supermarket,Minimarket,Alfamart Brang Biji,"Jl Kel, Brang Biji, Kec. Sumbawa, Kabupaten Sumbawa, Nusa Tenggara Bar. 84318","Brang Biji, Kec. Sumbawa, Kabupaten Sumbawa",NUSA TENGGARA BARAT,84318.0,Indonesia,1500959,,,-84.863.196,1.174.150.595,https://maps.google.com/?cid=0x0:0xbc20cbb7efeb9d97,
supermarket,Minimarket,Alfamart cendrawasih,"Jl. Cendrawasih No.Kel, Brang Biji, Kec. Sumbawa, Kabupaten Sumbawa, Nusa Tenggara Bar. 84318","Brang Biji, Kec. Sumbawa, Kabupaten Sumbawa",NUSA TENGGARA BARAT,84318.0,Indonesia,1500959,,,-84.778.605,1.174.130.985,https://maps.google.com/?cid=0x0:0x12d3712c6292e907,
supermarket,Minimarket,BARATA,"FCW6+5J3, Jl. Sultan Kaharuddin, Kerato, Kec. Unter Iwes, Kabupaten Sumbawa, Nusa Tenggara Bar. 84316","Jl. Sultan Kaharuddin, Kerato, Kec. Unter Iwes, Kabupaten Sumbawa",NUSA TENGGARA BARAT,84316.0,Indonesia,,,,-8.504.607,1.174.115.562,https://maps.google.com/?cid=0x0:0xb4f49438a35bc776,
supermarket,Toko bahan makanan,Toko Mega W,"GCGG+CG6, Jl. Dari Sumbawa, sernu, Kec. Sumbawa, Kabupaten Sumbawa, Nusa Tenggara Bar. 84311","Jl. Dari Sumbawa, sernu, Kec. Sumbawa, Kabupaten Sumbawa",NUSA TENGGARA BARAT,84311.0,Indonesia,,,,-84.739.685,1.174.262.714,https://maps.google.com/?cid=0x0:0x5fbf4035a303d008,
supermarket,Pusat Perbelanjaan,Samawa Great Mall,"Jl. DR. Wahidin, Brang Bara, Kec. Sumbawa, Kabupaten Sumbawa, Nusa Tenggara Bar. 84313","Brang Bara, Kec. Sumbawa, Kabupaten Sumbawa",NUSA TENGGARA BARAT,84313.0,Indonesia,,,,-85.004.221,1.174.263.353,https://maps.google.com/?cid=0x0:0x412a6da322a9bdf9,
supermarket,supermarket,Kios Bu Aldy,"Jl. Pramuka Gg. Tj. Menangis 2, Brang Biji, Kec. Sumbawa, Kabupaten Sumbawa, Nusa Tenggara Bar. 84318","Brang Biji, Kec. Sumbawa, Kabupaten Sumbawa",NUSA TENGGARA BARAT,84318.0,Indonesia,82340120097,,,-84.757.104,1.174.142.966,https://maps.google.com/?cid=0x0:0x6ce333eed7ac5587,
supermarket,Minimarket,TOKO ASAKU,"Jl. Cendrawasih, Brang Biji, Kec. Sumbawa, Kabupaten Sumbawa, Nusa Tenggara Bar. 84316","Brang Biji, Kec. Sumbawa, Kabupaten Sumbawa",NUSA TENGGARA BARAT,84316.0,Indonesia,3712622155,,,-84.769.381,1.174.115.273,https://maps.google.com/?cid=0x0:0xf3763cdf9a291672,
supermarket,Toserba,Toko New Dinasty Sumbawa,"Jl. Garuda No.1, Brang Biji, Kec. Sumbawa, Kabupaten Sumbawa, Nusa Tenggara Bar. 84316","Brang Biji, Kec. Sumbawa, Kabupaten Sumbawa",NUSA TENGGARA BARAT,84316.0,Indonesia,81916814684,,,-84.889.453,1.174.188.328,https://maps.google.com/?cid=0x0:0x7e66993b77716e81,
supermarket,Toko bahan makanan,UD SYAFA,"GCH3+9M3, Unnamed Road, Labuan Sumbawa, Labuhan Badas, Kabupaten Sumbawa, Nusa Tenggara Bar. 84316","Unnamed Road, Labuan Sumbawa, Labuhan Badas, Kabupaten Sumbawa",NUSA TENGGARA BARAT,84316.0,Indonesia,,,,-84.716.172,117.404.165,https://maps.google.com/?cid=0x0:0xdaf1cf76dfdac5ff,
supermarket,Toko Perlengkapan Rumah,Pink Kios,"GCH3+37P, Unnamed Road, Labuan Sumbawa, Labuhan Badas, Kabupaten Sumbawa, Nusa Tenggara Bar. 84316","Unnamed Road, Labuan Sumbawa, Labuhan Badas, Kabupaten Sumbawa",NUSA TENGGARA BARAT,84316.0,Indonesia,,,,-84.722.774,1.174.032.075,https://maps.google.com/?cid=0x0:0x33f1ad23c900f4df,
supermarket,Pasar,UD. ALISA,"Jl. Garuda No.41, Lempeh, Kec. Sumbawa, Kabupaten Sumbawa, Nusa Tenggara Bar. 84316","Lempeh, Kec. Sumbawa, Kabupaten Sumbawa",NUSA TENGGARA BARAT,84316.0,Indonesia,81998977633,,,-84.824.508,117.410.417,https://maps.google.com/?cid=0x0:0x40d4096af896f2c0,
supermarket,Toko Peralatan Olahraga,Toko Victoria,"JL Garuda, No. 71, RT 1 RW 12, Labuan Sumbawa, Labuhan Badas, Labuan Sumbawa, Sumbawa Besar, Kabupaten Sumbawa, Nusa Tenggara Bar. 84312","No. 71, RT 1 RW 12, Labuan Sumbawa, Labuhan Badas, Labuan Sumbawa, Sumbawa Besar, Kabupaten Sumbawa",NUSA TENGGARA BARAT,84312.0,Indonesia,37121518,,,-84.703.163,1.174.006.397,https://maps.google.com/?cid=0x0:0x6541d8d0ba087639,
supermarket,Minimarket,TOKO K4RRO5,"Jl. Gunung Setia No.45, Brang Biji, Kec. Sumbawa, Kabupaten Sumbawa, Nusa Tenggara Bar. 84318","Brang Biji, Kec. Sumbawa, Kabupaten Sumbawa",NUSA TENGGARA BARAT,84318.0,Indonesia,,,,-84.860.144,1.174.186.745,https://maps.google.com/?cid=0x0:0xf2097f4933c24b19,
supermarket,Minimarket,Alfamart,"Jl. Kebayan, Samapuin, Kec. Sumbawa, Kabupaten Sumbawa, Nusa Tenggara Bar. 84316","Samapuin, Kec. Sumbawa, Kabupaten Sumbawa",NUSA TENGGARA BARAT,84316.0,Indonesia,1500959,,,-84.887.244,1.174.203.631,https://maps.google.com/?cid=0x0:0x9953514612fc9fa,
supermarket,Komplek perumahan,Griya Idola Blok T8,"GCH3+CCR, Unnamed Road, Labuan Sumbawa, Labuhan Badas, Kabupaten Sumbawa, Nusa Tenggara Bar. 84316","Unnamed Road, Labuan Sumbawa, Labuhan Badas, Kabupaten Sumbawa",NUSA TENGGARA BARAT,84316.0,Indonesia,,,,-84.713.814,1.174.035.079,https://maps.google.com/?cid=0x0:0xa0cacf06da39d1f1,
supermarket,Minimarket,Alfamart Moyo Utara,"Raya No.Kel, Sebewe, Kec. Moyo Utara, Kabupaten Sumbawa, Nusa Tenggara Bar. 84381","Sebewe, Kec. Moyo Utara, Kabupaten Sumbawa",NUSA TENGGARA BARAT,84381.0,Indonesia,1500959,,,-84.811.031,1.174.747.099,https://maps.google.com/?cid=0x0:0x56275ecd614511d5,
supermarket,Toko Swalayan,Alfamart,"Jl. Garuda, Lempeh, Kec. Sumbawa, Kabupaten Sumbawa, Nusa Tenggara Bar. 84312","Lempeh, Kec. Sumbawa, Kabupaten Sumbawa",NUSA TENGGARA BARAT,84312.0,Indonesia,1500959,,,-84.876.698,1.174.136.222,https://maps.google.com/?cid=0x0:0x7a2302cf51acf322,
supermarket,Toko Perkakas,Vivian lee GROSIR SUMBAWA,"Btn, Jl. Perumahan Gn. Setia, Brang Biji, Kec. Sumbawa, Kabupaten Sumbawa, Nusa Tenggara Bar. 84318","Jl. Perumahan Gn. Setia, Brang Biji, Kec. Sumbawa, Kabupaten Sumbawa",NUSA TENGGARA BARAT,84318.0,Indonesia,85253865549,,,-84.865.842,1.174.214.943,https://maps.google.com/?cid=0x0:0x151f9a121b16dc5d,
supermarket,Toko Ponsel,Gee Cell,"GCFF+HXM, Jl. Lkr. Jl. Kelapis, Brang Biji, Kec. Sumbawa, Kabupaten Sumbawa, Nusa Tenggara Bar. 84318","Jl. Lkr. Jl. Kelapis, Brang Biji, Kec. Sumbawa, Kabupaten Sumbawa",NUSA TENGGARA BARAT,84318.0,Indonesia,85338270560,,,-84.760.499,1.174.249.312,https://maps.google.com/?cid=0x0:0xc26b352cded6ad5,
supermarket,Toko Swalayan,Kawan baru toko grosir,"GC3F+897, Bugis, Kec. Sumbawa, Kabupaten Sumbawa, Nusa Tenggara Bar. 84313","Bugis, Kec. Sumbawa, Kabupaten Sumbawa",NUSA TENGGARA BARAT,84313.0,Indonesia,,,,-84.967.248,1.174.234.371,https://maps.google.com/?cid=0x0:0xb40b318aadd9823b,
supermarket,Pemasok Bahan Bangunan,Supermarket Bahan Bangunan Sumber Mas,"Jl. Diponegoro No.18, Bugis, Kec. Sumbawa, Kabupaten Sumbawa, Nusa Tenggara Bar. 84313","Bugis, Kec. Sumbawa, Kabupaten Sumbawa",NUSA TENGGARA BARAT,84313.0,Indonesia,85338002696,,,-84.976.828,1.174.243.998,https://maps.google.com/?cid=0x0:0xec7dd62e6b040cfa,
supermarket,Minimarket,Toko Fortuna,"FCWF+9VH, Brang Bara, Kec. Sumbawa, Kabupaten Sumbawa, Nusa Tenggara Bar. 84313","Brang Bara, Kec. Sumbawa, Kabupaten Sumbawa",NUSA TENGGARA BARAT,84313.0,Indonesia,,,,-85.040.529,1.174.247.343,https://maps.google.com/?cid=0x0:0x79cd73d5dea5fb4c,
supermarket,Toko,Kios Zuhrya Cell,"Gg. Pramuka No.1, Brang Biji, Kec. Sumbawa, Kabupaten Sumbawa, Nusa Tenggara Bar. 84312","Brang Biji, Kec. Sumbawa, Kabupaten Sumbawa",NUSA TENGGARA BARAT,84312.0,Indonesia,82339041815,,,-84.850.249,1.174.220.926,https://maps.google.com/?cid=0x0:0xf509d018229ce73b,
supermarket,Toserba,Harmoni,"Jl. Pramuka Gg. V, Brang Biji, Kec. Sumbawa, Kabupaten Sumbawa, Nusa Tenggara Bar. 84318","Brang Biji, Kec. Sumbawa, Kabupaten Sumbawa",NUSA TENGGARA BARAT,84318.0,Indonesia,85236747146,,,-84.749.695,1.174.175.542,https://maps.google.com/?cid=0x0:0x85506c1527edca1a,
supermarket,Grosir,UD AGUNG KARYA,"Jl. Cendrawasih, Brang Biji, Kec. Sumbawa, Kabupaten Sumbawa, Nusa Tenggara Bar. 84317","Brang Biji, Kec. Sumbawa, Kabupaten Sumbawa",NUSA TENGGARA BARAT,84317.0,Indonesia,82144890534,,,-84.769.665,1.174.117.129,https://maps.google.com/?cid=0x0:0xa08da3a037e08717,
supermarket,Toko Makanan Sehat,Sumbawa Heritage,"Gang Stm45 Jl. Garuda No.99, Lempeh, Kec. Sumbawa, Kabupaten Sumbawa, Nusa Tenggara Bar. 84316","Lempeh, Kec. Sumbawa, Kabupaten Sumbawa",NUSA TENGGARA BARAT,84316.0,Indonesia,81318493601,,,-84.792.284,1.174.085.372,https://maps.google.com/?cid=0x0:0xd70b9d22d5dccc0d,
supermarket,Toko Kosmetik,SR12 Skincare Sumbawa Besar,"Jl. Cendrawasih No.132, Brang Biji, Kec. Sumbawa, Kabupaten Sumbawa, Nusa Tenggara Bar. 84316","Brang Biji, Kec. Sumbawa, Kabupaten Sumbawa",NUSA TENGGARA BARAT,84316.0,Indonesia,81916800048,,,-84.813.276,1.174.142.062,https://maps.google.com/?cid=0x0:0xc4775f661b09af3,
supermarket,Toko Kosmetik,MS GLOW SUMBAWA STORE,"GC95+6VP, Jl. Garuda, Lempeh, Kec. Sumbawa, Kabupaten Sumbawa, Nusa Tenggara Bar. 84316","Jl. Garuda, Lempeh, Kec. Sumbawa, Kabupaten Sumbawa",NUSA TENGGARA BARAT,84316.0,Indonesia,81935912326,,,-8.481.913,1.174.096.944,https://maps.google.com/?cid=0x0:0x8e10badaff19c7be,
supermarket,supermarket,Kec. Unter Iwes,"Kabupaten Sumbawa, Nusa Tenggara Bar.","Kabupaten Sumbawa, Nusa Tenggara Bar.",NUSA TENGGARA BARAT,,Indonesia,,,,-85.065.225,1.174.091.909,https://maps.google.com/?cid=0x0:0xdef0dbe9524d39fd,
supermarket,Toko bahan makanan,UD.INDIRA,"GC24+VPQ, Jl. Nijang, Kerato, Kec. Unter Iwes, Kabupaten Sumbawa, Nusa Tenggara Bar. 84316","Jl. Nijang, Kerato, Kec. Unter Iwes, Kabupaten Sumbawa",NUSA TENGGARA BARAT,84316.0,Indonesia,82339384990,,,-8.497.775,1.174.068.486,https://maps.google.com/?cid=0x0:0xbabed9352a4b3f40,
supermarket,Minimarket,BARATA,"FCW6+5J3, Jl. Sultan Kaharuddin, Kerato, Kec. Unter Iwes, Kabupaten Sumbawa, Nusa Tenggara Bar. 84316","Jl. Sultan Kaharuddin, Kerato, Kec. Unter Iwes, Kabupaten Sumbawa",NUSA TENGGARA BARAT,84316.0,Indonesia,,,,-8.504.607,1.174.115.562,https://maps.google.com/?cid=0x0:0xb4f49438a35bc776,
supermarket,Toko makanan beku,ARL Frozen Sumbawa,"GC5F+V53, Uma Sima, Kec. Sumbawa, Kabupaten Sumbawa, Nusa Tenggara Bar. 84313","Uma Sima, Kec. Sumbawa, Kabupaten Sumbawa",NUSA TENGGARA BARAT,84313.0,Indonesia,81355668087,,,-8.490.373,1.174.229.134,https://maps.google.com/?cid=0x0:0x9fc5df640903ea0b,
supermarket,Toko umum,moe,"FCX3+8X3, Jl. Bypass Sering, Kerato, Kec. Unter Iwes, Kabupaten Sumbawa, Nusa Tenggara Bar. 84316","Jl. Bypass Sering, Kerato, Kec. Unter Iwes, Kabupaten Sumbawa",NUSA TENGGARA BARAT,84316.0,Indonesia,,,,-85.016.465,1.174.048.666,https://maps.google.com/?cid=0x0:0xa8a12ad752428086,
supermarket,Minimarket,Alfamart,"Jl. Lintas Sumbawa - Bima No.5, Brang Biji, Kec. Unter Iwes, Kabupaten Sumbawa, Nusa Tenggara Bar.","Kabupaten Sumbawa, Nusa Tenggara Bar.",NUSA TENGGARA BARAT,,Indonesia,,,,-85.320.847,1.174.473.591,https://maps.google.com/?cid=0x0:0xaafb2cab5ab9bf5,
supermarket,Minimarket,Alfamart,"Jl. Unter Iwes, Kerato, Kec. Sumbawa, Kabupaten Sumbawa, Nusa Tenggara Bar. 84351","Kerato, Kec. Sumbawa, Kabupaten Sumbawa",NUSA TENGGARA BARAT,84351.0,Indonesia,1500959,,,-85.046.615,1.174.077.575,https://maps.google.com/?cid=0x0:0x5f76eb30d21b8aaf,
supermarket,Minimarket,Kios Dedi,"F98M+2Q8, Pelat, Kec. Unter Iwes, Kabupaten Sumbawa, Nusa Tenggara Bar. 84316","Pelat, Kec. Unter Iwes, Kabupaten Sumbawa",NUSA TENGGARA BARAT,84316.0,Indonesia,,,,-85.349.504,1.173.844.405,https://maps.google.com/?cid=0x0:0x9bb45234bab6c04e,
supermarket,Kios,Warung khadijah,"FCX8+J7J, Jalan, Kerato, Unter Iwes, Sumbawa Regency, West Nusa Tenggara 84316","Jalan, Kerato, Unter Iwes, Sumbawa Regency",NUSA TENGGARA BARAT,84316.0,Indonesia,,,,-85.009.166,1.174.156.336,https://maps.google.com/?cid=0x0:0xc2306a3708ee853e,
supermarket,supermarket,Utan,"Motong, Kec. Utan, Kabupaten Sumbawa, Nusa Tenggara Bar.","Kabupaten Sumbawa, Nusa Tenggara Bar.",NUSA TENGGARA BARAT,,Indonesia,,,,-8.412.375,117.144.997,https://maps.google.com/?cid=0x0:0x1dc03bf4ed6a19ac,
supermarket,Toko,INDOMARET LINTAS UTAN,"H4PJ+CGX, Jl. Lintas Sumbawa Tano, Jorok, Kec. Utan, Kabupaten Sumbawa, Nusa Tenggara Bar. 84352","Jl. Lintas Sumbawa Tano, Jorok, Kec. Utan, Kabupaten Sumbawa",NUSA TENGGARA BARAT,84352.0,Indonesia,82339726644,,,-84.138.776,1.171.313.517,https://maps.google.com/?cid=0x0:0xc9352e2d9ead3f83,
supermarket,Toko Swalayan,Alfamart,"Jl Desa, Motong, Kec. Utan, Kabupaten Sumbawa, Nusa Tenggara Bar. 84352","Motong, Kec. Utan, Kabupaten Sumbawa",NUSA TENGGARA BARAT,84352.0,Indonesia,1500959,,,-84.094.322,1.171.456.608,https://maps.google.com/?cid=0x0:0xc215590175f9f6b7,
supermarket,Toko Swalayan,Alfamart,"Jl. Raya Utan, Jorok, Kec. Utan, Kabupaten Sumbawa, Nusa Tenggara Bar. 84352","Jorok, Kec. Utan, Kabupaten Sumbawa",NUSA TENGGARA BARAT,84352.0,Indonesia,1500959,,,-8.413.632,1.171.309.808,https://maps.google.com/?cid=0x0:0x8c5881cbeea6cd03,
supermarket,Toko bahan makanan,Gupron,"Pasar Utan Los 4 No. 20, JL Raya Utan, RT. 03 RW. 03, Utan Montong, Motong, Sumbawa Besar, Kabupaten Sumbawa, Nusa Tenggara Bar. 84352","JL Raya Utan, RT. 03 RW. 03, Utan Montong, Motong, Sumbawa Besar, Kabupaten Sumbawa",NUSA TENGGARA BARAT,84352.0,Indonesia,87863815333,,,-8.415.483,1.171.301.028,https://maps.google.com/?cid=0x0:0x786c5a78613bf3c0,
supermarket,Toko Organik,Alaudin,"Pasar Utan JL Raya Utan Los 1 No. 15, RT.03/RW.03, Motong, Kec. Utan, Kabupaten Sumbawa, Nusa Tenggara Bar. 84352","RT.03/RW.03, Motong, Kec. Utan, Kabupaten Sumbawa",NUSA TENGGARA BARAT,84352.0,Indonesia,87863815333,,,-8.415.553,117.130.114,https://maps.google.com/?cid=0x0:0xabec0e69a91dd943,
supermarket,Minimarket,ALFAMART,"H38M+549, Stowe Brang, Kec. Utan, Kabupaten Sumbawa, Nusa Tenggara Bar. 84352","Stowe Brang, Kec. Utan, Kabupaten Sumbawa",NUSA TENGGARA BARAT,84352.0,Indonesia,,,,-84.345.899,1.170.828.698,https://maps.google.com/?cid=0x0:0x7b2516fd2d97807e,
supermarket,Toko Organik,Erwin,"Pasar Utan Los 2 No. 24, JL Raya Utan, RT 03 RW 03, Motong, Utan, Motong, Sumbawa Besar, Kabupaten Sumbawa, Nusa Tenggara Bar. 84352","JL Raya Utan, RT 03 RW 03, Motong, Utan, Motong, Sumbawa Besar, Kabupaten Sumbawa",NUSA TENGGARA BARAT,84352.0,Indonesia,87863815333,,,-8.415.483,117.130.103,https://maps.google.com/?cid=0x0:0x94ed87cc1e506b1f,
supermarket,Toko Organik,Winardi,"Pasar Utan Los 2 No. 26, JL Raya Utan, RT 03 RW 03, Motong, Utan, Motong, Sumbawa Besar, Kabupaten Sumbawa, Nusa Tenggara Bar. 84352","JL Raya Utan, RT 03 RW 03, Motong, Utan, Motong, Sumbawa Besar, Kabupaten Sumbawa",NUSA TENGGARA BARAT,84352.0,Indonesia,87863815333,,,-8.415.483,117.130.103,https://maps.google.com/?cid=0x0:0xd4f8b79f1cd5ef51,
supermarket,Toko Organik,Tamrin,"Pasar Utan Los 1 No. 18, JL Raya Utan, RT 03 RW 03, Motong, Utan, Motong, Sumbawa Besar, Kabupaten Sumbawa, Nusa Tenggara Bar. 84352","JL Raya Utan, RT 03 RW 03, Motong, Utan, Motong, Sumbawa Besar, Kabupaten Sumbawa",NUSA TENGGARA BARAT,84352.0,Indonesia,87863815333,,,-8.415.483,117.130.103,https://maps.google.com/?cid=0x0:0x3cab04a6172ddd19,
supermarket,Kantor Perusahaan,UD. Budi Utama,"H4QV+3X5, Motong, Kec. Utan, Kabupaten Sumbawa, Nusa Tenggara Bar. 84352","Motong, Kec. Utan, Kabupaten Sumbawa",NUSA TENGGARA BARAT,84352.0,Indonesia,37121797,,,-8.412.375,117.144.997,https://maps.google.com/?cid=0x0:0x7df05a40872cdaee,
supermarket,Toko Organik,Jafarudin,"Pasar Utan Los 1 No. 26, JL Raya Utan, RT 03 RW 03, Motong, Utan, Motong, Sumbawa Besar, Kabupaten Sumbawa, Nusa Tenggara Bar. 84352","JL Raya Utan, RT 03 RW 03, Motong, Utan, Motong, Sumbawa Besar, Kabupaten Sumbawa",NUSA TENGGARA BARAT,84352.0,Indonesia,87863815333,,,-8.415.483,117.130.103,https://maps.google.com/?cid=0x0:0x96f7ebfce79a5931,
supermarket,Toko Organik,Sawaludin,"Pasar Utan Los 1 No. 27, JL Raya Utan, RT 03 RW 03, Motong, Utan, Motong, Sumbawa Besar, Kabupaten Sumbawa, Nusa Tenggara Bar. 84352","JL Raya Utan, RT 03 RW 03, Motong, Utan, Motong, Sumbawa Besar, Kabupaten Sumbawa",NUSA TENGGARA BARAT,84352.0,Indonesia,87863815333,,,-8.415.483,117.130.103,https://maps.google.com/?cid=0x0:0xf030d541206086d1,
supermarket,Toko Organik,Nazarudin,"Pasar Utan Los 2 No. 8, JL Raya Utan, RT 03 RW 03, Motong, Utan, Motong, Sumbawa Besar, Kabupaten Sumbawa, Nusa Tenggara Bar. 84352","JL Raya Utan, RT 03 RW 03, Motong, Utan, Motong, Sumbawa Besar, Kabupaten Sumbawa",NUSA TENGGARA BARAT,84352.0,Indonesia,87863815333,,,-8.415.483,117.130.103,https://maps.google.com/?cid=0x0:0xc05b092d0906eeec,
supermarket,Toko Organik,H. Nurudin,"Pasar Utan Los 1 No. 16, JL Raya Utan, RT 03 RW 03, Motong, Utan, Motong, Sumbawa Besar, Kabupaten Sumbawa, Nusa Tenggara Bar. 84352","JL Raya Utan, RT 03 RW 03, Motong, Utan, Motong, Sumbawa Besar, Kabupaten Sumbawa",NUSA TENGGARA BARAT,84352.0,Indonesia,87863815333,,,-8.415.483,117.130.103,https://maps.google.com/?cid=0x0:0x4fc7fd9e36d846de,
supermarket,Toko Organik,Suhendra,"Pasar Utan Los 1 No. 6, JL Raya Utan, RT 03 RW 03, Motong, Utan, Motong, Sumbawa Besar, Kabupaten Sumbawa, Nusa Tenggara Bar. 84352","JL Raya Utan, RT 03 RW 03, Motong, Utan, Motong, Sumbawa Besar, Kabupaten Sumbawa",NUSA TENGGARA BARAT,84352.0,Indonesia,87863815333,,,-8.415.483,117.130.103,https://maps.google.com/?cid=0x0:0xcccedf79a0c97ec9,
supermarket,supermarket,Nusa Tenggara Bar. 84384,"Kec. Empang, Kabupaten Sumbawa, Nusa Tenggara Bar.","Kabupaten Sumbawa, Nusa Tenggara Bar.",NUSA TENGGARA BARAT,,Indonesia,,,,-8.796.382,1.180.654.445,https://maps.google.com/?cid=0x0:0x2155e536e62d694,
supermarket,Toko Swalayan,UD Triolanang,"76MW+M8R, Tolo' Oi, Kec. Tarano, Kabupaten Sumbawa, Nusa Tenggara Bar. 84384","Tolo' Oi, Kec. Tarano, Kabupaten Sumbawa",NUSA TENGGARA BARAT,84384.0,Indonesia,81237146016,,,-8.715.758,1.182.457.728,https://maps.google.com/?cid=0x0:0x3ce608df75baa0b4,
supermarket,Minimarket,Alfamart,"Jl. Lintas Sumbawa - Bima, Labuan Sumbawa, Kec. Tarano, Kabupaten Sumbawa, Nusa Tenggara Bar. 84384","Labuan Sumbawa, Kec. Tarano, Kabupaten Sumbawa",NUSA TENGGARA BARAT,84384.0,Indonesia,1500959,,,-8.742.216,1.179.964.859,https://maps.google.com/?cid=0x0:0xc7759936b202a4cf,
supermarket,Toko Swalayan,Kios Arianti,"66W4+7WG, Unnamed Road, Tolo' Oi, Kec. Tarano, Kabupaten Sumbawa, Nusa Tenggara Bar. 84384","Unnamed Road, Tolo' Oi, Kec. Tarano, Kabupaten Sumbawa",NUSA TENGGARA BARAT,84384.0,Indonesia,,,,-87.543.087,1.182.073.286,https://maps.google.com/?cid=0x0:0xb5a34a3e20ae6058,
supermarket,Toko Aksesori Ponsel,Tarano Cell,"7X6X+735, Jl. Lintas Sumbawa - Bima, Labuan Bontong, Kec. Tarano, Kabupaten Sumbawa, Nusa Tenggara Bar. 84384","Jl. Lintas Sumbawa - Bima, Labuan Bontong, Kec. Tarano, Kabupaten Sumbawa",NUSA TENGGARA BARAT,84384.0,Indonesia,82342612613,,,-87.393.562,1.179.977.245,https://maps.google.com/?cid=0x0:0xf4446e1f54dda799,
supermarket,Minimarket,Alfamart.,"72W7+GM9, Labuan Jambu, Kec. Tarano, Kabupaten Sumbawa, Nusa Tenggara Bar. 84384","Labuan Jambu, Kec. Tarano, Kabupaten Sumbawa",NUSA TENGGARA BARAT,84384.0,Indonesia,,,,-87.037.084,1.180.142.333,https://maps.google.com/?cid=0x0:0x85259f1940f913f7,
supermarket,Toko umum,Pasar Baru Empang,"6XRW+QJ2, Empang Bawah, Kec. Empang, Kabupaten Sumbawa, Nusa Tenggara Bar. 84384","Empang Bawah, Kec. Empang, Kabupaten Sumbawa",NUSA TENGGARA BARAT,84384.0,Indonesia,,,,-87.593.231,1.179.966.417,https://maps.google.com/?cid=0x0:0xbb51846b982d7f5d,
supermarket,supermarket,Toko Hotel Transit Tarano,"7X6X+RCX, Labuan Bontong, Kec. Tarano, Kabupaten Sumbawa, Nusa Tenggara Bar. 84384","Labuan Bontong, Kec. Tarano, Kabupaten Sumbawa",NUSA TENGGARA BARAT,84384.0,Indonesia,,,,-87.378.766,1.179.985.979,https://maps.google.com/?cid=0x0:0x3aaeb4a74f259f24,
supermarket,Toko Buah dan Sayur,SRC VINZA LABUHAN JAMBU,"823C+W79, Labuan Jambu, Kec. Tarano, Kabupaten Sumbawa, Nusa Tenggara Bar. 84384","Labuan Jambu, Kec. Tarano, Kabupaten Sumbawa",NUSA TENGGARA BARAT,84384.0,Indonesia,82340918074,,,-86.952.113,1.180.207.483,https://maps.google.com/?cid=0x0:0x92aee60ff248b73b,
supermarket,Minimarket,Alfamart Empang Bawa,"Jl Raya Desa, Empang Bawah, Kec. Empang, Kabupaten Sumbawa, Nusa Tenggara Bar. 84384","Empang Bawah, Kec. Empang, Kabupaten Sumbawa",NUSA TENGGARA BARAT,84384.0,Indonesia,1500959,,,-87.630.927,1.180.011.761,https://maps.google.com/?cid=0x0:0xaa9c8f361a223d33,
supermarket,Toko Swalayan,UD. SINAR REJEKI,"724W+6C7, Dusun Majapahit, Ongko, Kec. Empang, Kabupaten Sumbawa, Nusa Tenggara Bar. 84384","Dusun Majapahit, Ongko, Kec. Empang, Kabupaten Sumbawa",NUSA TENGGARA BARAT,84384.0,Indonesia,85205231618,,,-87.444.712,1.180.460.494,https://maps.google.com/?cid=0x0:0x5188af490ee7c68f,
supermarket,Toko Swalayan,Es rumput laut Haburida,"6XXW+86Q, Empang Bawah, Kec. Empang, Kabupaten Sumbawa, Nusa Tenggara Bar. 84384","Empang Bawah, Kec. Empang, Kabupaten Sumbawa",NUSA TENGGARA BARAT,84384.0,Indonesia,,,,-87.516.701,1.179.956.225,https://maps.google.com/?cid=0x0:0x612e4c0e6cbaafca,
supermarket,Pemasok Bahan Bangunan,CV. Aurora Jaya,"Empang Bawah, Kec. Empang, Kabupaten Sumbawa, Nusa Tenggara Bar. 84384","Kec. Empang, Kabupaten Sumbawa",NUSA TENGGARA BARAT,84384.0,Indonesia,,,,-87.584.131,1.179.976.166,https://maps.google.com/?cid=0x0:0x2204cd091cbd6c68,
supermarket,Minimarket,Alfamart,"Jl. Merdeka, Empang Bawah, Kec. Empang, Kabupaten Sumbawa, Nusa Tenggara Bar. 84384","Empang Bawah, Kec. Empang, Kabupaten Sumbawa",NUSA TENGGARA BARAT,84384.0,Indonesia,1500959,,,-87.672.251,1.180.033.423,https://maps.google.com/?cid=0x0:0xc772af90233a04ee,
supermarket,Grosir,Toko Ida,"7X3J+JWC, Labuan Bontong, Kec. Tarano, Kabupaten Sumbawa, Nusa Tenggara Bar. 84384","Labuan Bontong, Kec. Tarano, Kabupaten Sumbawa",NUSA TENGGARA BARAT,84384.0,Indonesia,85338823957,,,-87.459.346,1.179.822.537,https://maps.google.com/?cid=0x0:0x7331ce1c7e44a1e5,
supermarket,Minimarket,Indomaret,"62M3+36R, Empang Bawah, Kec. Empang, Kabupaten Sumbawa, Nusa Tenggara Bar. 84384","Empang Bawah, Kec. Empang, Kabupaten Sumbawa",NUSA TENGGARA BARAT,84384.0,Indonesia,,,,-87.672.598,1.180.030.225,https://maps.google.com/?cid=0x0:0x6b6cca79a2820c72,
supermarket,Salon Rambut,TOBAKU NURUL,"Jl. Lintas Sumbawa - Bima No.1945, Empang Bawah, Kec. Empang, Kabupaten Sumbawa, Nusa Tenggara Bar. 84384","Empang Bawah, Kec. Empang, Kabupaten Sumbawa",NUSA TENGGARA BARAT,84384.0,Indonesia,81339062374,,,-87.487.269,1.179.950.338,https://maps.google.com/?cid=0x0:0x23423cf0e6e8df2,
supermarket,Toko,UD Sukses Bersama,"Empang Bawah, Kec. Empang, Kabupaten Sumbawa, Nusa Tenggara Bar. 84384","Kec. Empang, Kabupaten Sumbawa",NUSA TENGGARA BARAT,84384.0,Indonesia,,,,-87.644.058,1.180.024.296,https://maps.google.com/?cid=0x0:0xb355fde6dd5fad0c,
supermarket,Toko Buah dan Sayur,Nurul Annisa Olshop,"Dusun Tiu Sangat, Labuan Bontong, Kec. Tarano, Kabupaten Sumbawa, Nusa Tenggara Bar. 84384","Labuan Bontong, Kec. Tarano, Kabupaten Sumbawa",NUSA TENGGARA BARAT,84384.0,Indonesia,82339173832,,,-87.447.246,117.994.966,https://maps.google.com/?cid=0x0:0x11584a39450c04cf,
supermarket,Toko Pertanian,UD.Sahabat Tani tolo'oi,"76MW+M8R, Tolo' Oi, Kec. Tarano, Kabupaten Sumbawa, Nusa Tenggara Bar. 84384","Tolo' Oi, Kec. Tarano, Kabupaten Sumbawa",NUSA TENGGARA BARAT,84384.0,Indonesia,,,,-87.157.078,1.182.459.599,https://maps.google.com/?cid=0x0:0x75f5747dbb01284a,
supermarket,supermarket,Tarano,"02040 Tarano, Provinsi Rieti, Italia",Tarano,NUSA TENGGARA BARAT,2040.0,Indonesia,,,,423.569.736,125.965.581,https://maps.google.com/?cid=0x0:0x73fd48edd89a9a20,
supermarket,supermarket,Il Merangolo Agriturismo,"Strada Provinciale 54, 02040 Montebuono RI, Italia",Montebuono RI,NUSA TENGGARA BARAT,2040.0,Indonesia,"3,93394E+11",,,42.369.221,1.260.661,https://maps.google.com/?cid=0x0:0xd2753607e661cbd1,
