Category,Real Category,Business Name,Address,City,State,Postal Code,Country,Phone,Email,Website,Latitude,Longitude,Map Link,Details Link
perumahan,Komplek perumahan,GRIYA ALAS BARAT,"FWHW+923, Jalan Raya, Labuan Mapin, Kec. Alas Bar., Kabupaten Sumbawa, Nusa Tenggara Bar. 84353","Jalan Raya, Labuan Mapin, Kec. Alas Bar., Kabupaten Sumbawa",NUSA TENGGARA BARAT,84353.0,Indonesia,81339201475,,,-85.206.017,1.169.451.291,https://maps.google.com/?cid=0x0:0x8b587b26abbc097b,
perumahan,perumahan,Alas,"Labuhan Alas, Kec. Alas, Kabupaten Sumbawa, Nusa Tenggara Bar.","Kabupaten Sumbawa, Nusa Tenggara Bar.",NUSA TENGGARA BARAT,,Indonesia,,,,-8.512.134,117.012.703,https://maps.google.com/?cid=0x0:0xa3538b2cbc12d68,
perumahan,perumahan,Desa lekong,"F2Q7+43W, Labuhan Alas, Kec. Alas, Kabupaten Sumbawa, Nusa Tenggara Bar.","Kabupaten Sumbawa, Nusa Tenggara Bar.",NUSA TENGGARA BARAT,,Indonesia,,,,-8.512.134,117.012.703,https://maps.google.com/?cid=0x0:0x6aecf2ed85d1eb39,
perumahan,Komplek perumahan,Perumahan Griya Alas Barat Blok H No. 4,"FWJV+7H6, Jl. Raya Alas Bar., Labuan Mapin, Kec. Alas Bar., Kabupaten Sumbawa, Nusa Tenggara Bar. 84353","Jl. Raya Alas Bar., Labuan Mapin, Kec. Alas Bar., Kabupaten Sumbawa",NUSA TENGGARA BARAT,84353.0,Indonesia,,,,-85.193.347,116.943.902,https://maps.google.com/?cid=0x0:0x4f5a08b753a47496,
perumahan,Komplek perumahan,Perumahan Griya Alas Barat Blok H No. 5,"Jl. Raya Alas Bar., Labuan Mapin, Kec. Alas Bar., Kabupaten Sumbawa, Nusa Tenggara Bar. 84353","Labuan Mapin, Kec. Alas Bar., Kabupaten Sumbawa",NUSA TENGGARA BARAT,84353.0,Indonesia,,,,-85.193.195,1.169.438.011,https://maps.google.com/?cid=0x0:0x30f2d845be07207b,
perumahan,Perumahan,Alas Barat Permai,"FXH4+PGQ Samping kantor camat, Jl. Raya Alas Bar., Usar Mapin, Kec. Alas Bar., Kabupaten Sumbawa, Nusa Tenggara Bar. 84353","Jl. Raya Alas Bar., Usar Mapin, Kec. Alas Bar., Kabupaten Sumbawa",NUSA TENGGARA BARAT,84353.0,Indonesia,87704502412,,,-85.206.655,1.169.563.478,https://maps.google.com/?cid=0x0:0x35774b5add7003fd,
perumahan,Komplek perumahan,RUMAH AZZAM,"FXQH+RMP, Gontar, Kec. Alas Bar., Kabupaten Sumbawa, Nusa Tenggara Bar. 84353","Gontar, Kec. Alas Bar., Kabupaten Sumbawa",NUSA TENGGARA BARAT,84353.0,Indonesia,,,,-85.104.188,1.169.793.699,https://maps.google.com/?cid=0x0:0xa6332f27ffffdcfc,
perumahan,Komplek perumahan,Perumahan Griya Alas Barat Blok I No. 4,"FWJV+7HV, Jl. Raya Alas Bar., Labuan Mapin, Kec. Alas Bar., Kabupaten Sumbawa, Nusa Tenggara Bar. 84353","Jl. Raya Alas Bar., Labuan Mapin, Kec. Alas Bar., Kabupaten Sumbawa",NUSA TENGGARA BARAT,84353.0,Indonesia,,,,-85.192.654,1.169.439.258,https://maps.google.com/?cid=0x0:0x2a4b35b9c4e51189,
perumahan,Komplek perumahan,Rumah Firman,"FXQV+R8C, Dalam, Kec. Alas, Kabupaten Sumbawa, Nusa Tenggara Bar. 84353","Dalam, Kec. Alas, Kabupaten Sumbawa",NUSA TENGGARA BARAT,84353.0,Indonesia,,,,-8.510.682,116.992.733,https://maps.google.com/?cid=0x0:0x39a517096ff631ee,
perumahan,Komplek perumahan,AJ,"FXQF+WW5, Gontar, Kec. Alas Bar., Kabupaten Sumbawa, Nusa Tenggara Bar. 84353","Gontar, Kec. Alas Bar., Kabupaten Sumbawa",NUSA TENGGARA BARAT,84353.0,Indonesia,,,,-85.102.479,1.169.748.467,https://maps.google.com/?cid=0x0:0x524dcc71cabd54dc,
perumahan,Pembangunan Perumahan,Rumah ibu Rita pak gen,"FXPJ+968, Luar, Kec. Alas, Kabupaten Sumbawa, Nusa Tenggara Bar. 84353","Luar, Kec. Alas, Kabupaten Sumbawa",NUSA TENGGARA BARAT,84353.0,Indonesia,,,,-85.140.816,11.698.057,https://maps.google.com/?cid=0x0:0xce0bbbccfaa94c72,
perumahan,Gedung Apartemen,Rumah edry,"Jl. Raya Alas Bar. No.Desa, Gontar, Kec. Alas Bar., Kabupaten Sumbawa, Nusa Tenggara Bar. 84353","Gontar, Kec. Alas Bar., Kabupaten Sumbawa",NUSA TENGGARA BARAT,84353.0,Indonesia,,,,-85.122.709,1.169.768.185,https://maps.google.com/?cid=0x0:0xa61b3b683ff0aeb7,
perumahan,Pembangunan Perumahan,RUMAH SAHLY,"F239+9FP, Marenteh, Kec. Alas, Kabupaten Sumbawa, Nusa Tenggara Bar. 84353","Marenteh, Kec. Alas, Kabupaten Sumbawa",NUSA TENGGARA BARAT,84353.0,Indonesia,,,,-85.465.424,1.170.187.083,https://maps.google.com/?cid=0x0:0xd2b79b610dfc861,
perumahan,Toko bahan makanan,Rumah mapin rea,"CXC4+987, Mapin Rea, Kec. Alas Bar., Kabupaten Sumbawa, Nusa Tenggara Bar. 84353","Mapin Rea, Kec. Alas Bar., Kabupaten Sumbawa",NUSA TENGGARA BARAT,84353.0,Indonesia,,,,-85.790.886,1.169.558.067,https://maps.google.com/?cid=0x0:0xce29bfdefc807ec6,
perumahan,Pembangunan Perumahan,Syafa Adelia Kusuma,"FX83+9Q3, Jl. Montong, Usar Mapin, Kec. Alas Bar., Kabupaten Sumbawa, Nusa Tenggara Bar. 84353","Jl. Montong, Usar Mapin, Kec. Alas Bar., Kabupaten Sumbawa",NUSA TENGGARA BARAT,84353.0,Indonesia,,,,-85.341.128,1.169.544.156,https://maps.google.com/?cid=0x0:0x78e5f87ed56964f9,
perumahan,Komplek perumahan,Rumah Wika,"F239+9FP, Marenteh, Kec. Alas, Kabupaten Sumbawa, Nusa Tenggara Bar. 84353","Marenteh, Kec. Alas, Kabupaten Sumbawa",NUSA TENGGARA BARAT,84353.0,Indonesia,,,,-85.465.466,1.170.188.976,https://maps.google.com/?cid=0x0:0xc9ffc941ef367c77,
perumahan,Kantor Pemerintah,Desa Mapin Kebak,"FW2R+3CG, Mapin Kebak, Kec. Alas Bar., Kabupaten Sumbawa, Nusa Tenggara Bar. 84353","Mapin Kebak, Kec. Alas Bar., Kabupaten Sumbawa",NUSA TENGGARA BARAT,84353.0,Indonesia,,,,-85.498.241,1.169.410.752,https://maps.google.com/?cid=0x0:0x6fed3b8611d71159,
perumahan,Pembangunan Perumahan,Rumah alesha,"FX83+2WQ, Jl. Montong, Usar Mapin, Kec. Alas Bar., Kabupaten Sumbawa, Nusa Tenggara Bar. 84353","Jl. Montong, Usar Mapin, Kec. Alas Bar., Kabupaten Sumbawa",NUSA TENGGARA BARAT,84353.0,Indonesia,,,,-8.534.913,1.169.548.731,https://maps.google.com/?cid=0x0:0x5304efce78d16e2c,
perumahan,Perhimpunan Pengembang Perumahan,Alas,"F2F4+J6X, Juranalas, Kec. Alas, Kabupaten Sumbawa, Nusa Tenggara Bar.","Kabupaten Sumbawa, Nusa Tenggara Bar.",NUSA TENGGARA BARAT,,Indonesia,,,,-85.258.796,1.170.056.193,https://maps.google.com/?cid=0x0:0xe6a12bad60e0fd56,
perumahan,Perhimpunan Pengembang Perumahan,R.pak Sam tkg sol,"FXPP+3RH, Dalam, Kec. Alas, Kabupaten Sumbawa, Nusa Tenggara Bar. 84353","Dalam, Kec. Alas, Kabupaten Sumbawa",NUSA TENGGARA BARAT,84353.0,Indonesia,,,,-85.160.194,1.169.878.098,https://maps.google.com/?cid=0x0:0xb1fde94fca8ea65d,
perumahan,Perhimpunan Pengembang Perumahan,Rumah pak cu alas Praya kalimango,"CXWX+MX8, Dusun Praya, Kalimango, Kec. Alas, Kabupaten Sumbawa, Nusa Tenggara Bar. 84353","Dusun Praya, Kalimango, Kec. Alas, Kabupaten Sumbawa",NUSA TENGGARA BARAT,84353.0,Indonesia,,,,-8.553.332,1.169.999.584,https://maps.google.com/?cid=0x0:0x91856067b3fbfa1e,
perumahan,Komplek perumahan,Perumahan Bumi Sukaragam Asri (BSA),"Sukaragam Asri Blok B.No 7, Sukaragam, Kec. Serang Baru, Kabupaten Bekasi, Jawa Barat 17330","Sukaragam, Kec. Serang Baru, Kabupaten Bekasi",NUSA TENGGARA BARAT,17330.0,Indonesia,,,,-639.043,1.071.089.232,https://maps.google.com/?cid=0x0:0xdb55f9ef7ab7f3d7,
perumahan,perumahan,Kec. Alas Bar.,"Kabupaten Sumbawa, Nusa Tenggara Bar.","Kabupaten Sumbawa, Nusa Tenggara Bar.",NUSA TENGGARA BARAT,,Indonesia,,,,-8.521.242,1.169.390.592,https://maps.google.com/?cid=0x0:0xe1284760da023615,
perumahan,Komplek perumahan,Perumahan Griya Alas Barat Blok H No. 4,"FWJV+7H6, Jl. Raya Alas Bar., Labuan Mapin, Kec. Alas Bar., Kabupaten Sumbawa, Nusa Tenggara Bar. 84353","Jl. Raya Alas Bar., Labuan Mapin, Kec. Alas Bar., Kabupaten Sumbawa",NUSA TENGGARA BARAT,84353.0,Indonesia,,,,-85.193.347,116.943.902,https://maps.google.com/?cid=0x0:0x4f5a08b753a47496,
perumahan,Komplek perumahan,GRIYA ALAS BARAT,"FWHW+923, Jalan Raya, Labuan Mapin, Kec. Alas Bar., Kabupaten Sumbawa, Nusa Tenggara Bar. 84353","Jalan Raya, Labuan Mapin, Kec. Alas Bar., Kabupaten Sumbawa",NUSA TENGGARA BARAT,84353.0,Indonesia,81339201475,,,-85.206.017,1.169.451.291,https://maps.google.com/?cid=0x0:0x8b587b26abbc097b,
perumahan,Komplek perumahan,Perumahan Griya Alas Barat Blok H No. 5,"Jl. Raya Alas Bar., Labuan Mapin, Kec. Alas Bar., Kabupaten Sumbawa, Nusa Tenggara Bar. 84353","Labuan Mapin, Kec. Alas Bar., Kabupaten Sumbawa",NUSA TENGGARA BARAT,84353.0,Indonesia,,,,-85.193.195,1.169.438.011,https://maps.google.com/?cid=0x0:0x30f2d845be07207b,
perumahan,Komplek perumahan,Perumahan Griya Alas Barat Blok I No. 4,"FWJV+7HV, Jl. Raya Alas Bar., Labuan Mapin, Kec. Alas Bar., Kabupaten Sumbawa, Nusa Tenggara Bar. 84353","Jl. Raya Alas Bar., Labuan Mapin, Kec. Alas Bar., Kabupaten Sumbawa",NUSA TENGGARA BARAT,84353.0,Indonesia,,,,-85.192.654,1.169.439.258,https://maps.google.com/?cid=0x0:0x2a4b35b9c4e51189,
perumahan,Komplek perumahan,RUMAH AZZAM,"FXQH+RMP, Gontar, Kec. Alas Bar., Kabupaten Sumbawa, Nusa Tenggara Bar. 84353","Gontar, Kec. Alas Bar., Kabupaten Sumbawa",NUSA TENGGARA BARAT,84353.0,Indonesia,,,,-85.104.188,1.169.793.699,https://maps.google.com/?cid=0x0:0xa6332f27ffffdcfc,
perumahan,Komplek perumahan,AJ,"FXQF+WW5, Gontar, Kec. Alas Bar., Kabupaten Sumbawa, Nusa Tenggara Bar. 84353","Gontar, Kec. Alas Bar., Kabupaten Sumbawa",NUSA TENGGARA BARAT,84353.0,Indonesia,,,,-85.102.479,1.169.748.467,https://maps.google.com/?cid=0x0:0x524dcc71cabd54dc,
perumahan,Kantor Pemerintah,Desa Mapin Kebak,"FW2R+3CG, Mapin Kebak, Kec. Alas Bar., Kabupaten Sumbawa, Nusa Tenggara Bar. 84353","Mapin Kebak, Kec. Alas Bar., Kabupaten Sumbawa",NUSA TENGGARA BARAT,84353.0,Indonesia,,,,-85.498.241,1.169.410.752,https://maps.google.com/?cid=0x0:0x6fed3b8611d71159,
perumahan,Toko bahan makanan,Rumah mapin rea,"CXC4+987, Mapin Rea, Kec. Alas Bar., Kabupaten Sumbawa, Nusa Tenggara Bar. 84353","Mapin Rea, Kec. Alas Bar., Kabupaten Sumbawa",NUSA TENGGARA BARAT,84353.0,Indonesia,,,,-85.790.886,1.169.558.067,https://maps.google.com/?cid=0x0:0xce29bfdefc807ec6,
perumahan,Gedung Apartemen,Rumah edry,"Jl. Raya Alas Bar. No.Desa, Gontar, Kec. Alas Bar., Kabupaten Sumbawa, Nusa Tenggara Bar. 84353","Gontar, Kec. Alas Bar., Kabupaten Sumbawa",NUSA TENGGARA BARAT,84353.0,Indonesia,,,,-85.122.709,1.169.768.185,https://maps.google.com/?cid=0x0:0xa61b3b683ff0aeb7,
perumahan,Pembangunan Perumahan,Rumah ibu Rita pak gen,"FXPJ+968, Luar, Kec. Alas, Kabupaten Sumbawa, Nusa Tenggara Bar. 84353","Luar, Kec. Alas, Kabupaten Sumbawa",NUSA TENGGARA BARAT,84353.0,Indonesia,,,,-85.140.816,11.698.057,https://maps.google.com/?cid=0x0:0xce0bbbccfaa94c72,
perumahan,Kelompok Bermain,Gontar baru,"GX3F+G7C, Gontar Baru, Kec. Alas Bar., Kabupaten Sumbawa, Nusa Tenggara Bar. 84353","Gontar Baru, Kec. Alas Bar., Kabupaten Sumbawa",NUSA TENGGARA BARAT,84353.0,Indonesia,,,,-8.496.189,1.169.731.421,https://maps.google.com/?cid=0x0:0x2bec55239d590702,
perumahan,Pembangunan Perumahan,Syafa Adelia Kusuma,"FX83+9Q3, Jl. Montong, Usar Mapin, Kec. Alas Bar., Kabupaten Sumbawa, Nusa Tenggara Bar. 84353","Jl. Montong, Usar Mapin, Kec. Alas Bar., Kabupaten Sumbawa",NUSA TENGGARA BARAT,84353.0,Indonesia,,,,-85.341.128,1.169.544.156,https://maps.google.com/?cid=0x0:0x78e5f87ed56964f9,
perumahan,Pembangunan Perumahan,Rumah alesha,"FX83+2WQ, Jl. Montong, Usar Mapin, Kec. Alas Bar., Kabupaten Sumbawa, Nusa Tenggara Bar. 84353","Jl. Montong, Usar Mapin, Kec. Alas Bar., Kabupaten Sumbawa",NUSA TENGGARA BARAT,84353.0,Indonesia,,,,-8.534.913,1.169.548.731,https://maps.google.com/?cid=0x0:0x5304efce78d16e2c,
perumahan,Perhimpunan Pengembang Perumahan,Sambira House,"CWRV+8XF, Unnamed Road, Mapin Rea, Kec. Alas Bar., Kabupaten Sumbawa, Nusa Tenggara Bar. 84353","Unnamed Road, Mapin Rea, Kec. Alas Bar., Kabupaten Sumbawa",NUSA TENGGARA BARAT,84353.0,Indonesia,,,,-85.591.961,1.169.449.205,https://maps.google.com/?cid=0x0:0xb2fe0d349bf6a5e8,
perumahan,Perhimpunan Pengembang Perumahan,Amrullah,"FWCV+C2F, daki, Mapin Beru, Kec. Alas Bar., Kabupaten Sumbawa, Nusa Tenggara Bar. 84353","daki, Mapin Beru, Kec. Alas Bar., Kabupaten Sumbawa",NUSA TENGGARA BARAT,84353.0,Indonesia,,,,-85.289.499,1.169.425.594,https://maps.google.com/?cid=0x0:0x35c082244828ba39,
perumahan,Perhimpunan Pengembang Perumahan,Bale pakReTe IDRUS,"CWXR+55W, Mapin Kebak, Kec. Alas Bar., Kabupaten Sumbawa, Nusa Tenggara Bar. 84353","Mapin Kebak, Kec. Alas Bar., Kabupaten Sumbawa",NUSA TENGGARA BARAT,84353.0,Indonesia,,,,-85.520.208,1.169.404.597,https://maps.google.com/?cid=0x0:0x21290934744c56cd,
perumahan,Komplek perumahan,Haydar home,"FXQG+RXJ, Jl. Gontar, Gontar, Kec. Alas Bar., Kabupaten Sumbawa, Nusa Tenggara Bar. 84353","Jl. Gontar, Gontar, Kec. Alas Bar., Kabupaten Sumbawa",NUSA TENGGARA BARAT,84353.0,Indonesia,,,,-85.104.212,1.169.773.795,https://maps.google.com/?cid=0x0:0xcfa2f804b85382a6,
perumahan,Perhimpunan Pengembang Perumahan,Ferdiansyah,"FX88+F65, Lekong, Kec. Alas Bar., Kabupaten Sumbawa, Nusa Tenggara Bar. 84353","Lekong, Kec. Alas Bar., Kabupaten Sumbawa",NUSA TENGGARA BARAT,84353.0,Indonesia,,,,-85.338.749,1.169.656.032,https://maps.google.com/?cid=0x0:0x80025244119f8896,
perumahan,Komplek perumahan,Rumah Firman,"FXQV+R8C, Dalam, Kec. Alas, Kabupaten Sumbawa, Nusa Tenggara Bar. 84353","Dalam, Kec. Alas, Kabupaten Sumbawa",NUSA TENGGARA BARAT,84353.0,Indonesia,,,,-8.510.682,116.992.733,https://maps.google.com/?cid=0x0:0x39a517096ff631ee,
perumahan,Pembangunan Perumahan,Jhon Silama pelita sanggarahan,"FWGQ+MR6, Labuan Mapin, Kec. Alas Bar., Kabupaten Sumbawa, Nusa Tenggara Bar. 84353","Labuan Mapin, Kec. Alas Bar., Kabupaten Sumbawa",NUSA TENGGARA BARAT,84353.0,Indonesia,85333653298,,,-85.233.407,1.169.395.292,https://maps.google.com/?cid=0x0:0x31dcb571c7ce78a3,
perumahan,Pembangunan Perumahan,RUMAH SAHLY,"F239+9FP, Marenteh, Kec. Alas, Kabupaten Sumbawa, Nusa Tenggara Bar. 84353","Marenteh, Kec. Alas, Kabupaten Sumbawa",NUSA TENGGARA BARAT,84353.0,Indonesia,,,,-85.465.424,1.170.187.083,https://maps.google.com/?cid=0x0:0xd2b79b610dfc861,
perumahan,Pembangunan Perumahan,Keluarga bahari,"84M6+GFM, Unnamed Road, Baturotok, Kec. Batulanteh, Kabupaten Sumbawa, Nusa Tenggara Bar. 84361","Unnamed Road, Baturotok, Kec. Batulanteh, Kabupaten Sumbawa",NUSA TENGGARA BARAT,84361.0,Indonesia,,,,-86.661.629,1.171.111.732,https://maps.google.com/?cid=0x0:0xae1bcd51414cabf6,
perumahan,perumahan,Nusa Tenggara Bar. 84361,"Kec. Batulanteh, Kabupaten Sumbawa, Nusa Tenggara Bar.","Kabupaten Sumbawa, Nusa Tenggara Bar.",NUSA TENGGARA BARAT,,Indonesia,,,,-86.420.255,1.172.440.957,https://maps.google.com/?cid=0x0:0x581f76821ead6bc5,
perumahan,Komplek perumahan,sekte tang,"84MW+C8, Baturotok, Kec. Batulanteh, Kabupaten Sumbawa, Nusa Tenggara Bar.","Kabupaten Sumbawa, Nusa Tenggara Bar.",NUSA TENGGARA BARAT,,Indonesia,,,,-8.666.375,117.145.838,https://maps.google.com/?cid=0x0:0x761e625211ce251c,
perumahan,Pembangunan Perumahan,Rumah Marginauh,"C8XP+7WQ, Kelungkung, Kec. Batulanteh, Kabupaten Sumbawa, Nusa Tenggara Bar. 84361","Kelungkung, Kec. Batulanteh, Kabupaten Sumbawa",NUSA TENGGARA BARAT,84361.0,Indonesia,,,,-85.517.755,1.173.373.691,https://maps.google.com/?cid=0x0:0xc018b18a83fb2133,
perumahan,Kantor Pemda,Tepal,"95FH+7M6, Jl. Desa, Tepal, Kec. Batulanteh, Kabupaten Sumbawa, Nusa Tenggara Bar. 84361","Jl. Desa, Tepal, Kec. Batulanteh, Kabupaten Sumbawa",NUSA TENGGARA BARAT,84361.0,Indonesia,,,,-86.268.042,1.171.791.979,https://maps.google.com/?cid=0x0:0xa4409a7d530292d7,
perumahan,Komplek perumahan,Rini Dwi Parani,"C8XQ+GFR, Sultan Kaharuddin Road, Kelungkung, Kec. Batulanteh, Kabupaten Sumbawa, Nusa Tenggara Bar. 84361","Sultan Kaharuddin Road, Kelungkung, Kec. Batulanteh, Kabupaten Sumbawa",NUSA TENGGARA BARAT,84361.0,Indonesia,,,,-85.511.392,117.338.737,https://maps.google.com/?cid=0x0:0x68756dbaea4c7e09,
perumahan,Rumah Kayu,Rumah Muslimin,"85RC+29, Tangkan Pulit, Kec. Batulanteh, Kabupaten Sumbawa, Nusa Tenggara Bar.","Kabupaten Sumbawa, Nusa Tenggara Bar.",NUSA TENGGARA BARAT,,Indonesia,,,,-86.598.903,1.171.709.342,https://maps.google.com/?cid=0x0:0x66af0f958bf8881,
perumahan,Komplek perumahan,Indi's Home,"F82P+3V, Kelungkung, Kec. Batulanteh, Kabupaten Sumbawa, Nusa Tenggara Bar.","Kabupaten Sumbawa, Nusa Tenggara Bar.",NUSA TENGGARA BARAT,,Indonesia,,,,-85.502.591,1.173.373.946,https://maps.google.com/?cid=0x0:0xc45036940b45160f,
perumahan,Komplek perumahan,BAODESA... yang mana rumah kamu tutiani ?,"9562+97W, Bao Desa, Kec. Batulanteh, Kabupaten Sumbawa, Nusa Tenggara Bar. 84361","Bao Desa, Kec. Batulanteh, Kabupaten Sumbawa",NUSA TENGGARA BARAT,84361.0,Indonesia,,,,-86.390.127,1.171.506.909,https://maps.google.com/?cid=0x0:0x3f1d1c79763518f7,
perumahan,Toko,SDN Musuk,"85WH+H8F, Tangkan Pulit, Kec. Batulanteh, Kabupaten Sumbawa, Nusa Tenggara Bar. 84361","Tangkan Pulit, Kec. Batulanteh, Kabupaten Sumbawa",NUSA TENGGARA BARAT,84361.0,Indonesia,,,,-86.546.128,1.171.789.919,https://maps.google.com/?cid=0x0:0x1e2041ae74502f38,
perumahan,Rumah wisata,Anna Home,"84M7+C3M, Baturotok, Kec. Batulanteh, Kabupaten Sumbawa, Nusa Tenggara Bar.","Kabupaten Sumbawa, Nusa Tenggara Bar.",NUSA TENGGARA BARAT,,Indonesia,,,,-86.664.235,1.171.126.844,https://maps.google.com/?cid=0x0:0xe18daa992e263db1,
perumahan,Pembangunan Perumahan,Dian  Dilon,"9562+6F2, Jl. Desa, Bao Desa, Kec. Batulanteh, Kabupaten Sumbawa, Nusa Tenggara Bar. 84361","Jl. Desa, Bao Desa, Kec. Batulanteh, Kabupaten Sumbawa",NUSA TENGGARA BARAT,84361.0,Indonesia,,,,-8.639.475,117.151.128,https://maps.google.com/?cid=0x0:0xc8dae16b2fae807f,
perumahan,Komplek perumahan,Rumah Ega,"C8H9+3P5, Kelungkung, Kec. Batulanteh, Kabupaten Sumbawa, Nusa Tenggara Bar. 84361","Kelungkung, Kec. Batulanteh, Kabupaten Sumbawa",NUSA TENGGARA BARAT,84361.0,Indonesia,,,,-85.723.744,1.173.193.577,https://maps.google.com/?cid=0x0:0xa3df567fba2f0ab3,
perumahan,Komplek perumahan,Agus,"84MW+28, Baturotok, Kec. Batulanteh, Kabupaten Sumbawa, Nusa Tenggara Bar.","Kabupaten Sumbawa, Nusa Tenggara Bar.",NUSA TENGGARA BARAT,,Indonesia,,,,-86.674.495,1.171.457.602,https://maps.google.com/?cid=0x0:0x217a7cc431b5a65a,
perumahan,Komplek perumahan,Rumah nurse Islamia,"C8QC+96R, Kelungkung, Kec. Batulanteh, Kabupaten Sumbawa, Nusa Tenggara Bar.","Kabupaten Sumbawa, Nusa Tenggara Bar.",NUSA TENGGARA BARAT,,Indonesia,,,,-85.615.066,1.173.205.123,https://maps.google.com/?cid=0x0:0x59415a5c52fe577f,
perumahan,Komplek perumahan,Rumah hares den,"C55P+C87, Tepal, Kec. Batulanteh, Kabupaten Sumbawa, Nusa Tenggara Bar. 84352","Tepal, Kec. Batulanteh, Kabupaten Sumbawa",NUSA TENGGARA BARAT,84352.0,Indonesia,,,,-85.914.642,1.171.857.914,https://maps.google.com/?cid=0x0:0xfd81f7bfc6a546ba,
perumahan,Komplek perumahan,Mustamin,"C8XQ+GFR, Sultan Kaharuddin Road, Kelungkung, Kec. Batulanteh, Kabupaten Sumbawa, Nusa Tenggara Bar. 84361","Sultan Kaharuddin Road, Kelungkung, Kec. Batulanteh, Kabupaten Sumbawa",NUSA TENGGARA BARAT,84361.0,Indonesia,,,,-85.511.444,1.173.387.425,https://maps.google.com/?cid=0x0:0x98927ecc8efe24d5,
perumahan,Komplek perumahan,Rumah Roby,"C76J+WHG, Batudulang, Kec. Batulanteh, Kabupaten Sumbawa, Nusa Tenggara Bar.","Kabupaten Sumbawa, Nusa Tenggara Bar.",NUSA TENGGARA BARAT,,Indonesia,,,,-85.876.877,1.172.814.386,https://maps.google.com/?cid=0x0:0x218366f258e32b15,
perumahan,Komplek perumahan,Istana Raja Tongo,"BTN baiti jannati, B3 no 7, Sempe, Kec. Moyo Hulu, Kabupaten Sumbawa, Nusa Tenggara Bar. 84371","B3 no 7, Sempe, Kec. Moyo Hulu, Kabupaten Sumbawa",NUSA TENGGARA BARAT,84371.0,Indonesia,,,,-86.529.334,1.173.616.476,https://maps.google.com/?cid=0x0:0x274e3f15a49c17fe,
perumahan,Komplek perumahan,ARDIYAN SULANA,"9562+97V, Bao Desa, Kec. Batulanteh, Kabupaten Sumbawa, Nusa Tenggara Bar. 84361","Bao Desa, Kec. Batulanteh, Kabupaten Sumbawa",NUSA TENGGARA BARAT,84361.0,Indonesia,,,,-86.390.134,1.171.506.872,https://maps.google.com/?cid=0x0:0xde59f9a953cf8003,
perumahan,Komplek perumahan,Dusun Talagumung Desa Tepal,"95JF+HP, Tepal, Kec. Batulanteh, Kabupaten Sumbawa, Nusa Tenggara Bar.","Kabupaten Sumbawa, Nusa Tenggara Bar.",NUSA TENGGARA BARAT,,Indonesia,,,,-8.618.512,117.174.292,https://maps.google.com/?cid=0x0:0x4bd9a2d141a1ad3a,
perumahan,Komplek perumahan,Hari Ahriansyah,"C8XQ+GFR, Sultan Kaharuddin Road, Kelungkung, Kec. Batulanteh, Kabupaten Sumbawa, Nusa Tenggara Bar. 84361","Sultan Kaharuddin Road, Kelungkung, Kec. Batulanteh, Kabupaten Sumbawa",NUSA TENGGARA BARAT,84361.0,Indonesia,,,,-85.511.427,1.173.387.407,https://maps.google.com/?cid=0x0:0xe25ca578536432ea,
perumahan,Komplek perumahan,bale Dandi,"Rt02, RW.02, Kelungkung, Kec. Batulanteh, Kabupaten Sumbawa, Nusa Tenggara Bar.","Kabupaten Sumbawa, Nusa Tenggara Bar.",NUSA TENGGARA BARAT,,Indonesia,,,,-85.615.066,1.173.205.123,https://maps.google.com/?cid=0x0:0x7f28c69d74dc2d68,
perumahan,perumahan,Kec. Buer,"Kabupaten Sumbawa, Nusa Tenggara Bar.","Kabupaten Sumbawa, Nusa Tenggara Bar.",NUSA TENGGARA BARAT,,Indonesia,,,,-84.615.443,1.170.407.281,https://maps.google.com/?cid=0x0:0xc5055156bb7148fa,
perumahan,Komplek perumahan,Rumah Kaharuddin/Jumiyarti,"G29W+78P, RT.09/RW.04, Kalabeso, Kec. Buer, Kabupaten Sumbawa, Nusa Tenggara Bar. 84353","RT.09/RW.04, Kalabeso, Kec. Buer, Kabupaten Sumbawa",NUSA TENGGARA BARAT,84353.0,Indonesia,,,,-84.817.961,1.170.458.212,https://maps.google.com/?cid=0x0:0xa9bcaee235ea81e2,
perumahan,perumahan,Suta muhammad,"G25X+9QR, RT.01/RW.06, Juru Mapin, Kec. Buer, Kabupaten Sumbawa, Nusa Tenggara Bar. 84364","RT.01/RW.06, Juru Mapin, Kec. Buer, Kabupaten Sumbawa",NUSA TENGGARA BARAT,84364.0,Indonesia,,,,-84.910.115,1.170.491.254,https://maps.google.com/?cid=0x0:0x5c636d931486c58f,
perumahan,perumahan,LOKASI SURVEY DF,"GXFV+6MW, Pulau Bungin, Kec. Alas, Kabupaten Sumbawa, Nusa Tenggara Bar.","Kabupaten Sumbawa, Nusa Tenggara Bar.",NUSA TENGGARA BARAT,,Indonesia,,,,-84.768.918,1.169.942.064,https://maps.google.com/?cid=0x0:0x52e897e02a819c52,
perumahan,Komplek perumahan,Rumah Ibu Fitri Fadillah Sekdes Labuhan Burung,"G2QR+VPX, Labuhan Burung, Kec. Buer, Kabupaten Sumbawa, Nusa Tenggara Bar. 84353","Labuhan Burung, Kec. Buer, Kabupaten Sumbawa",NUSA TENGGARA BARAT,84353.0,Indonesia,,,,-84.603.556,1.170.418.626,https://maps.google.com/?cid=0x0:0x3339e99a2c6516d4,
perumahan,Pembangunan Perumahan,Dusun belekong,"H325+7GG, Buin Baru, Kec. Buer, Kabupaten Sumbawa, Nusa Tenggara Bar. 84353","Buin Baru, Kec. Buer, Kabupaten Sumbawa",NUSA TENGGARA BARAT,84353.0,Indonesia,,,,-84.493.141,117.058.813,https://maps.google.com/?cid=0x0:0x66d7a15801edcba4,
perumahan,Pusat Perbelanjaan,Tarusa,"G28Q+WHP, Tarusa, Kec. Buer, Kabupaten Sumbawa, Nusa Tenggara Bar. 84353","Tarusa, Kec. Buer, Kabupaten Sumbawa",NUSA TENGGARA BARAT,84353.0,Indonesia,,,,-84.826.775,1.170.389.454,https://maps.google.com/?cid=0x0:0x384e98dea0d17519,
perumahan,Pembangunan Perumahan,Intan savira,"G2RV+GPF, Jl. Lintas Sumbawa Tano, Labuhan Burung, Kec. Buer, Kabupaten Sumbawa, Nusa Tenggara Bar. 84353","Jl. Lintas Sumbawa Tano, Labuhan Burung, Kec. Buer, Kabupaten Sumbawa",NUSA TENGGARA BARAT,84353.0,Indonesia,,,,-84.581.344,117.044.108,https://maps.google.com/?cid=0x0:0x4a257601e2418e5c,
perumahan,Komplek perumahan,Toni Wirawan,"G2RV+GPF, Jl. Lintas Sumbawa Tano, Labuhan Burung, Kec. Buer, Kabupaten Sumbawa, Nusa Tenggara Bar. 84353","Jl. Lintas Sumbawa Tano, Labuhan Burung, Kec. Buer, Kabupaten Sumbawa",NUSA TENGGARA BARAT,84353.0,Indonesia,,,,-84.581.609,1.170.442.206,https://maps.google.com/?cid=0x0:0xf91e2765aefcead0,
perumahan,Komplek perumahan,Firmansyah Home,"G342+G24, Atas, RT.01/RW.08, Juru Mapin, Kec. Buer, Kabupaten Sumbawa, Nusa Tenggara Bar.","Kabupaten Sumbawa, Nusa Tenggara Bar.",NUSA TENGGARA BARAT,,Indonesia,,,,-84.937.288,1.170.500.652,https://maps.google.com/?cid=0x0:0xd137fca8a2454e4,
perumahan,Komplek perumahan,Rumah Putriana,"Kalabeso, Kec. Buer, Kabupaten Sumbawa, Nusa Tenggara Bar. 84353","Kec. Buer, Kabupaten Sumbawa",NUSA TENGGARA BARAT,84353.0,Indonesia,,,,-84.817.949,1.170.458.236,https://maps.google.com/?cid=0x0:0x6e80a81b3235980b,
perumahan,Komplek perumahan,Rumah mulbasri,"G2PQ+P99, Labuhan Burung, Kec. Buer, Kabupaten Sumbawa, Nusa Tenggara Bar.","Kabupaten Sumbawa, Nusa Tenggara Bar.",NUSA TENGGARA BARAT,,Indonesia,,,,-8.463.208,1.170.384.962,https://maps.google.com/?cid=0x0:0x743e001932506752,
perumahan,Pembangunan Perumahan,Villa Moia Brang Loka,"H325+7GG, Buin Baru, Kec. Buer, Kabupaten Sumbawa, Nusa Tenggara Bar. 84353","Buin Baru, Kec. Buer, Kabupaten Sumbawa",NUSA TENGGARA BARAT,84353.0,Indonesia,,,,-8.449.691,117.058.668,https://maps.google.com/?cid=0x0:0x72abbda5a360b680,
perumahan,perumahan,Rumah satriana,"G2RW+M2X, Jl. Lintas Sumbawa Tano, Labuhan Burung, Kec. Buer, Kabupaten Sumbawa, Nusa Tenggara Bar.","Kabupaten Sumbawa, Nusa Tenggara Bar.",NUSA TENGGARA BARAT,,Indonesia,,,,-84.588.232,1.170.450.793,https://maps.google.com/?cid=0x0:0xa3909a74457ff351,
perumahan,Komplek perumahan,Rumah Ulfa,"G342+M47, Juru Mapin, Kec. Buer, Kabupaten Sumbawa, Nusa Tenggara Bar. 84353","Juru Mapin, Kec. Buer, Kabupaten Sumbawa",NUSA TENGGARA BARAT,84353.0,Indonesia,,,,-84.933.401,11.705.031,https://maps.google.com/?cid=0x0:0x485ced25550bf28e,
perumahan,Komplek perumahan,Rumah Pak Tanwir,"G26W+PWG, Juru Mapin, Kec. Buer, Kabupaten Sumbawa, Nusa Tenggara Bar.","Kabupaten Sumbawa, Nusa Tenggara Bar.",NUSA TENGGARA BARAT,,Indonesia,,,,-84.881.865,1.170.473.266,https://maps.google.com/?cid=0x0:0x6122b8d400d291be,
perumahan,perumahan,Rumah satri,"G2RW+F28, Labuhan Burung, Kec. Buer, Kabupaten Sumbawa, Nusa Tenggara Bar.","Kabupaten Sumbawa, Nusa Tenggara Bar.",NUSA TENGGARA BARAT,,Indonesia,,,,-84.588.293,1.170.450.714,https://maps.google.com/?cid=0x0:0x3228fd49fcbed499,
perumahan,Komplek perumahan,Rumah kalabeso,"G3H6+CP2, Kalabeso, Kec. Buer, Kabupaten Sumbawa, Nusa Tenggara Bar. 84353","Kalabeso, Kec. Buer, Kabupaten Sumbawa",NUSA TENGGARA BARAT,84353.0,Indonesia,,,,-8.471.493,1.170.617.553,https://maps.google.com/?cid=0x0:0xaef54ab7fd01f842,
perumahan,Komplek perumahan,Rumah Tisnawandi,"H336+9C6, Jl. Lintas Sumbawa Tano, Buin Baru, Kec. Buer, Kabupaten Sumbawa, Nusa Tenggara Bar. 84353","Jl. Lintas Sumbawa Tano, Buin Baru, Kec. Buer, Kabupaten Sumbawa",NUSA TENGGARA BARAT,84353.0,Indonesia,,,,-84.467.185,1.170.608.654,https://maps.google.com/?cid=0x0:0x33ee9c4434f55141,
perumahan,Vila,Rumahhhh kuu üèª,"Kaung atas RW No.Rt 004, RT.Rw 001/RW.RT.004, Pulau Kaung, Kec. Buer, Kabupaten Sumbawa, Nusa Tenggara Bar. 84353","RT.Rw 001/RW.RT.004, Pulau Kaung, Kec. Buer, Kabupaten Sumbawa",NUSA TENGGARA BARAT,84353.0,Indonesia,,,,-84.651.758,1.170.102.218,https://maps.google.com/?cid=0x0:0x855ccd34819bbde0,
perumahan,Komplek perumahan,Rumah Eka Jaka,"G28W+X48, Kalabeso, Kec. Buer, Kabupaten Sumbawa, Nusa Tenggara Bar. 84353","Kalabeso, Kec. Buer, Kabupaten Sumbawa",NUSA TENGGARA BARAT,84353.0,Indonesia,,,,-84.820.375,1.170.456.737,https://maps.google.com/?cid=0x0:0xf07d8f2e7db26e0e,
perumahan,Pembangunan Perumahan,Rumah Walet Propok,"G3X3+87W Propok, Buin Baru, Kec. Buer, Kabupaten Sumbawa, Nusa Tenggara Bar. 84353","Buin Baru, Kec. Buer, Kabupaten Sumbawa",NUSA TENGGARA BARAT,84353.0,Indonesia,,,,-8.451.649,1.170.531.883,https://maps.google.com/?cid=0x0:0xa620dffe222329ce,
perumahan,Komplek perumahan,naura's home,"G2F9+PJQ, Jl. Lintas Sumbawa Tano, Tarusa, Kec. Buer, Kabupaten Sumbawa, Nusa Tenggara Bar. 84353","Jl. Lintas Sumbawa Tano, Tarusa, Kec. Buer, Kabupaten Sumbawa",NUSA TENGGARA BARAT,84353.0,Indonesia,,,,-8.475.259,117.018.352,https://maps.google.com/?cid=0x0:0x68941813030809cd,
perumahan,Komplek perumahan,bale kakuu,"H324+CV8, Buin Baru, Kec. Buer, Kabupaten Sumbawa, Nusa Tenggara Bar. 84353","Buin Baru, Kec. Buer, Kabupaten Sumbawa",NUSA TENGGARA BARAT,84353.0,Indonesia,,,,-84.489.689,1.170.572.758,https://maps.google.com/?cid=0x0:0xf72f914be31cc590,
perumahan,perumahan,Nusa Tenggara Bar. 84384,"Kec. Empang, Kabupaten Sumbawa, Nusa Tenggara Bar.","Kabupaten Sumbawa, Nusa Tenggara Bar.",NUSA TENGGARA BARAT,,Indonesia,,,,-8.796.382,1.180.654.445,https://maps.google.com/?cid=0x0:0x2155e536e62d694,
perumahan,perumahan,Rumah Alvin,"62H3+HFG, RT.05/RW.02, Pamanto, Kec. Empang, Kabupaten Sumbawa, Nusa Tenggara Bar.","Kabupaten Sumbawa, Nusa Tenggara Bar.",NUSA TENGGARA BARAT,,Indonesia,,,,-87.718.718,1.180.044.173,https://maps.google.com/?cid=0x0:0xe50ed8c9a934e5ba,
perumahan,Pembangunan Perumahan,Bale Padu Tengah Desa Empang (Pak Ipin),"62M3+VF4, Jl. Lintas Sumbawa - Bima, Empang Bawah, Kec. Empang, Kabupaten Sumbawa, Nusa Tenggara Bar. 84384","Jl. Lintas Sumbawa - Bima, Empang Bawah, Kec. Empang, Kabupaten Sumbawa",NUSA TENGGARA BARAT,84384.0,Indonesia,,,,-87.653.631,1.180.036.989,https://maps.google.com/?cid=0x0:0xb26c7a3dccb075cc,
perumahan,Perhimpunan Pengembang Perumahan,Rumah mia,"62M3+6JQ, Empang Bawah, Kec. Empang, Kabupaten Sumbawa, Nusa Tenggara Bar. 84384","Empang Bawah, Kec. Empang, Kabupaten Sumbawa",NUSA TENGGARA BARAT,84384.0,Indonesia,,,,-87.669.227,118.004.105,https://maps.google.com/?cid=0x0:0x720f5d2c90185851,
perumahan,Komplek perumahan,Rumah Jasvir  Nabil,"62M4+QPH, Empang Atas, Kec. Empang, Kabupaten Sumbawa, Nusa Tenggara Bar. 84384","Empang Atas, Kec. Empang, Kabupaten Sumbawa",NUSA TENGGARA BARAT,84384.0,Indonesia,,,,-87.658.553,1.180.067.511,https://maps.google.com/?cid=0x0:0xcf72dd540ad5bc97,
perumahan,Komplek perumahan,Rumah melan suka TOBRUT,"62M4+8FF, Dusun awo, Empang Atas, Kec. Empang, Kabupaten Sumbawa, Nusa Tenggara Bar.","Kabupaten Sumbawa, Nusa Tenggara Bar.",NUSA TENGGARA BARAT,,Indonesia,,,,-87.666.021,1.180.061.986,https://maps.google.com/?cid=0x0:0xe1749eb9dda2d6d3,
perumahan,Komplek perumahan,Rumah Nila,"62J4+J5G, Empang Atas, Kec. Empang, Kabupaten Sumbawa, Nusa Tenggara Bar. 84384","Empang Atas, Kec. Empang, Kabupaten Sumbawa",NUSA TENGGARA BARAT,84384.0,Indonesia,,,,-87.684.375,1.180.054.535,https://maps.google.com/?cid=0x0:0x8d2cfd0d0643c6db,
perumahan,Komplek perumahan,Rumah Sultan,"6XXW+C2X, Empang Bawah, Kec. Empang, Kabupaten Sumbawa, Nusa Tenggara Bar. 84384","Empang Bawah, Kec. Empang, Kabupaten Sumbawa",NUSA TENGGARA BARAT,84384.0,Indonesia,85337181660,,,-87.513.722,1.179.950.936,https://maps.google.com/?cid=0x0:0xe01809e5751cf085,
perumahan,Komplek perumahan,Rumah Ichan,"62G5+GRC, Jotang, Kec. Empang, Kabupaten Sumbawa, Nusa Tenggara Bar. 84384","Jotang, Kec. Empang, Kabupaten Sumbawa",NUSA TENGGARA BARAT,84384.0,Indonesia,,,,-87.735.409,1.180.094.248,https://maps.google.com/?cid=0x0:0x9bee84eac0a73c99,
perumahan,Komplek perumahan,Rumah syarif,"7X2W+2V, Empang Bawah, Kec. Empang, Kabupaten Sumbawa, Nusa Tenggara Bar.","Kabupaten Sumbawa, Nusa Tenggara Bar.",NUSA TENGGARA BARAT,,Indonesia,,,,-87.499.271,1.179.971.643,https://maps.google.com/?cid=0x0:0x3bb4dddb03f4a115,
perumahan,Komplek perumahan,Rumah Millatus CjDw,"6X8R+PCM, Gapit, Kec. Empang, Kabupaten Sumbawa, Nusa Tenggara Bar. 84384","Gapit, Kec. Empang, Kabupaten Sumbawa",NUSA TENGGARA BARAT,84384.0,Indonesia,,,,-87.831.196,1.179.910.523,https://maps.google.com/?cid=0x0:0x916ae27f53c3510b,
perumahan,Komplek perumahan,Kak Dini,"62M2+FPM, Unnamed Road, Empang Bawah, Kec. Empang, Kabupaten Sumbawa, Nusa Tenggara Bar. 84384","Unnamed Road, Empang Bawah, Kec. Empang, Kabupaten Sumbawa",NUSA TENGGARA BARAT,84384.0,Indonesia,,,,-87.662.958,1.180.018.069,https://maps.google.com/?cid=0x0:0x9cb55d5338dc7d08,
perumahan,Taman bermain,Ongko empang,"7488+HHX, Ongko, Kec. Empang, Kabupaten Sumbawa, Nusa Tenggara Bar. 84384","Ongko, Kec. Empang, Kabupaten Sumbawa",NUSA TENGGARA BARAT,84384.0,Indonesia,,,,-8.733.512,118.116.487,https://maps.google.com/?cid=0x0:0x63f4cecdac3f921,
perumahan,Komplek perumahan,Empang atas,"62P8+P7M kampung ponong, Empang Atas, Kec. Empang, Kabupaten Sumbawa, Nusa Tenggara Bar.","Kabupaten Sumbawa, Nusa Tenggara Bar.",NUSA TENGGARA BARAT,,Indonesia,,,,-87.631.525,1.180.156.811,https://maps.google.com/?cid=0x0:0x5840d9563dabdde6,
perumahan,Komplek perumahan,rumah rido,"6XXW+86Q, Empang Bawah, Kec. Empang, Kabupaten Sumbawa, Nusa Tenggara Bar. 84384","Empang Bawah, Kec. Empang, Kabupaten Sumbawa",NUSA TENGGARA BARAT,84384.0,Indonesia,,,,-87.517.699,1.179.956.337,https://maps.google.com/?cid=0x0:0xcc4cb999284f2f25,
perumahan,Komplek perumahan,Rumah Gherifbr,"6X8R+PCM, Gapit, Kec. Empang, Kabupaten Sumbawa, Nusa Tenggara Bar. 84384","Gapit, Kec. Empang, Kabupaten Sumbawa",NUSA TENGGARA BARAT,84384.0,Indonesia,,,,-87.831.594,1.179.910.353,https://maps.google.com/?cid=0x0:0x1ac0aee47b33992b,
perumahan,Komplek perumahan,Rumah pak mustami,"Lamenta, rt 03 rw 02 dusun lamenta atas, Gapit, Kec. Empang, Kabupaten Sumbawa, Nusa Tenggara Bar. 84384","rt 03 rw 02 dusun lamenta atas, Gapit, Kec. Empang, Kabupaten Sumbawa",NUSA TENGGARA BARAT,84384.0,Indonesia,,,,-87.848.024,1.179.899.911,https://maps.google.com/?cid=0x0:0xeb4f133a8bdc1ceb,
perumahan,Pembangunan Perumahan,.,"Jotang, Kec. Empang, Kabupaten Sumbawa, Nusa Tenggara Bar. 84384","Kec. Empang, Kabupaten Sumbawa",NUSA TENGGARA BARAT,84384.0,Indonesia,,,,-88.365.514,118.025.417,https://maps.google.com/?cid=0x0:0x9ac1dd3ec424db77,
perumahan,Komplek perumahan,Rumah Andi KB,"6XVR+XW2, RT.004/RW.002, Dusun Masjid, Empang Bawah, Kec. Empang, Kabupaten Sumbawa, Nusa Tenggara Bar. 84384","RT.004/RW.002, Dusun Masjid, Empang Bawah, Kec. Empang, Kabupaten Sumbawa",NUSA TENGGARA BARAT,84384.0,Indonesia,,,,-87.551.001,1.179.922.582,https://maps.google.com/?cid=0x0:0x8cdb6c8a4533b3ba,
perumahan,Komplek perumahan,Rumah Geri,"6X8R+PCM, Gapit, Kec. Empang, Kabupaten Sumbawa, Nusa Tenggara Bar. 84384","Gapit, Kec. Empang, Kabupaten Sumbawa",NUSA TENGGARA BARAT,84384.0,Indonesia,,,,-87.838.497,1.179.917.649,https://maps.google.com/?cid=0x0:0x99547bb55625e06b,
perumahan,Inspektur Tempat Tinggal,Talemo,"6XVW+W4R, Gg patimura, Empang Bawah, Kec. Empang, Kabupaten Sumbawa, Nusa Tenggara Bar. 84384","Gg patimura, Empang Bawah, Kec. Empang, Kabupaten Sumbawa",NUSA TENGGARA BARAT,84384.0,Indonesia,,,,-87.551.475,1.179.952.664,https://maps.google.com/?cid=0x0:0x36354be8ed51168,
perumahan,Komplek perumahan,Pak muslimin,"6WHR+MGR, Boal, Kec. Empang, Kabupaten Sumbawa, Nusa Tenggara Bar. 84384","Boal, Kec. Empang, Kabupaten Sumbawa",NUSA TENGGARA BARAT,84384.0,Indonesia,,,,-87.711.865,1.179.408.761,https://maps.google.com/?cid=0x0:0x6a9aa400c8ceed3a,
perumahan,Komplek perumahan,Rumah Winda Cantik,"6XQX+VWX, Jl. Lintas Sumbawa - Bima, Empang Bawah, Kec. Empang, Kabupaten Sumbawa, Nusa Tenggara Bar. 84384","Jl. Lintas Sumbawa - Bima, Empang Bawah, Kec. Empang, Kabupaten Sumbawa",NUSA TENGGARA BARAT,84384.0,Indonesia,,,,-87.603.926,1.179.999.469,https://maps.google.com/?cid=0x0:0xc44b6c54ea5f0f3d,
perumahan,perumahan,Empang,"Kec. Bogor Sel., Kota Bogor, Jawa Barat","Kota Bogor, Jawa Barat",NUSA TENGGARA BARAT,,Indonesia,,,,-66.165.827,1.068.016.144,https://maps.google.com/?cid=0x0:0x29b38753fcc38d38,
perumahan,Perhimpunan Pengembang Perumahan,Rumah Kindai,"Jl. Layungsari I No.29, RT.04/RW.07, Empang, Kec. Bogor Sel., Kota Bogor, Jawa Barat 16132","RT.04/RW.07, Empang, Kec. Bogor Sel., Kota Bogor",NUSA TENGGARA BARAT,16132.0,Indonesia,,,,-66.143.279,1.068.015.864,https://maps.google.com/?cid=0x0:0x386c99587d5c5fa,
perumahan,Komplek perumahan,Rumah Dita Alya,"Jl. Layungsari III Gg.Sirnasari No.28, RT.02/RW.14, Empang, Kec. Bogor Sel., Kota Bogor, Jawa Barat 16132","RT.02/RW.14, Empang, Kec. Bogor Sel., Kota Bogor",NUSA TENGGARA BARAT,16132.0,Indonesia,,,,-66.134.192,1.067.971.301,https://maps.google.com/?cid=0x0:0xd7bf15b25cbaf3ec,
perumahan,Perumahan,Gerbang Perumahan BNR (The Jungle),"9RM2+443, Jl. Bogor Nirwana Residence, RT.04/RW.10, Empang, Kec. Bogor Sel., Kota Bogor, Jawa Barat 16132","Jl. Bogor Nirwana Residence, RT.04/RW.10, Empang, Kec. Bogor Sel., Kota Bogor",NUSA TENGGARA BARAT,16132.0,Indonesia,,,,-66.172.382,1.068.002.985,https://maps.google.com/?cid=0x0:0x4bf5ae15174f5c24,
perumahan,Kantor Perusahaan,Bogor siliwangi,"9QMX+6VH, RT.07/RW.04, Kp. Parung Jambu, Empang, Kec. Bogor Sel., Kota Bogor, Jawa Barat 16132","RT.07/RW.04, Kp. Parung Jambu, Empang, Kec. Bogor Sel., Kota Bogor",NUSA TENGGARA BARAT,16132.0,Indonesia,,,,-66.169.361,1.067.997.465,https://maps.google.com/?cid=0x0:0x8e3fd3a0da8e5bb3,
perumahan,Komplek perumahan,Aspol Bondongan RT.02,"9QQX+7V3, RT.02/RW.16, Empang, Kec. Bogor Sel., Kota Bogor, Jawa Barat 16132","RT.02/RW.16, Empang, Kec. Bogor Sel., Kota Bogor",NUSA TENGGARA BARAT,16132.0,Indonesia,,,,-66.118.548,1.067.996.734,https://maps.google.com/?cid=0x0:0xdb3932762592ff7,
perumahan,perumahan,Kec. Labangka,"Kabupaten Sumbawa, Nusa Tenggara Bar.","Kabupaten Sumbawa, Nusa Tenggara Bar.",NUSA TENGGARA BARAT,,Indonesia,,,,-88.990.513,1.177.707.479,https://maps.google.com/?cid=0x0:0xbf2419d37a6140c,
perumahan,Perkebunan Pohon,RUMAH KARNADI,"4Q7V+853, Suka Mulya, Kec. Labangka, Kabupaten Sumbawa, Nusa Tenggara Bar. 84383","Suka Mulya, Kec. Labangka, Kabupaten Sumbawa",NUSA TENGGARA BARAT,84383.0,Indonesia,,,,-88.867.263,117.792.914,https://maps.google.com/?cid=0x0:0xa10108cd7d34eef4,
perumahan,Perhimpunan Pengembang Perumahan,Labangka,"4Q2C+97H, Labangka, Kec. Labangka, Kabupaten Sumbawa, Nusa Tenggara Bar.","Kabupaten Sumbawa, Nusa Tenggara Bar.",NUSA TENGGARA BARAT,,Indonesia,,,,-88.990.513,1.177.707.479,https://maps.google.com/?cid=0x0:0x533cec9c5f8f9cb1,
perumahan,Pembangunan Perumahan,Bukit tinggi ( rumah said),"3QV9+FJP, Labangka, Kec. Labangka, Kabupaten Sumbawa, Nusa Tenggara Bar. 84383","Labangka, Kec. Labangka, Kabupaten Sumbawa",NUSA TENGGARA BARAT,84383.0,Indonesia,,,,-89.059.463,1.177.697.126,https://maps.google.com/?cid=0x0:0x7ade8ca71e163c88,
perumahan,Perhimpunan Pengembang Perumahan,Lalu Maryono,"4Q6F+526, Labangka, 5 kapaten, Kabupaten Sumbawa, Nusa Tenggara Bar. 84383","Labangka, 5 kapaten, Kabupaten Sumbawa",NUSA TENGGARA BARAT,84383.0,Indonesia,,,,-88.895.796,11.777.252,https://maps.google.com/?cid=0x0:0x6b2a1a9a9b5ff290,
perumahan,Komplek perumahan,Rumah safar,"3PWR+QFM, Jl. Muktitama, Suka Damai, Kec. Labangka, Kabupaten Sumbawa, Nusa Tenggara Bar. 84383","Jl. Muktitama, Suka Damai, Kec. Labangka, Kabupaten Sumbawa",NUSA TENGGARA BARAT,84383.0,Indonesia,85932677653,,,-8.903.036,1.177.411.864,https://maps.google.com/?cid=0x0:0x34e9ada4abd126d4,
perumahan,Pembangunan Perumahan,Nyucuk fams,"Labangka, Kec. Labangka, Sumbawa besar, Nusa Tenggara Bar. 84383","Kec. Labangka, Sumbawa besar",NUSA TENGGARA BARAT,84383.0,Indonesia,,,,-89.019.977,1.177.655.035,https://maps.google.com/?cid=0x0:0xa8e01313a4e28aa5,
perumahan,Perhimpunan Pengembang Perumahan,Rumah ali,"3PWX+QFC, Suka Damai, Kec. Labangka, Kabupaten Sumbawa, Nusa Tenggara Bar.","Kabupaten Sumbawa, Nusa Tenggara Bar.",NUSA TENGGARA BARAT,,Indonesia,,,,-89.030.555,1.177.486.317,https://maps.google.com/?cid=0x0:0x3b01a23c98b39b25,
perumahan,perumahan,Rumah H.L.Jaffafudin,"3MPQ+G7M, Jaya Makmur, Kec. Labangka, Kabupaten Sumbawa, Nusa Tenggara Bar. 84383","Jaya Makmur, Kec. Labangka, Kabupaten Sumbawa",NUSA TENGGARA BARAT,84383.0,Indonesia,81915922230,,,-89.136.861,1.176.880.673,https://maps.google.com/?cid=0x0:0x49a7805bf75fd346,
perumahan,Pembangunan Perumahan,Labangka 4,"Suka Damai, Kec. Labangka, Kabupaten Sumbawa, Nusa Tenggara Bar. 84383","Kec. Labangka, Kabupaten Sumbawa",NUSA TENGGARA BARAT,84383.0,Indonesia,,,,-89.030.944,1.177.434.719,https://maps.google.com/?cid=0x0:0x658987229e87660a,
perumahan,Pembangunan Perumahan,SINAR HARAPAN BERKAH,"3MPM+5MW, Jl. Lkr. Selatan, Jaya Makmur, Kec. Labangka, Kabupaten Sumbawa, Nusa Tenggara Bar.","Kabupaten Sumbawa, Nusa Tenggara Bar.",NUSA TENGGARA BARAT,,Indonesia,,,,-89.146.994,1.176.841.334,https://maps.google.com/?cid=0x0:0xbf2a8f24a9dbe00a,
perumahan,Komplek perumahan,Najwa salsabila,"3MRM+8W6, Jaya Makmur, Kec. Labangka, Kabupaten Sumbawa, Nusa Tenggara Bar. 84383","Jaya Makmur, Kec. Labangka, Kabupaten Sumbawa",NUSA TENGGARA BARAT,84383.0,Indonesia,,,,-89.094.794,1.176.840.223,https://maps.google.com/?cid=0x0:0x720dec8aa2266618,
perumahan,Perhimpunan Pengembang Perumahan,Perumahan mashur hadi,"3QXC+HQ, Labangka, Kec. Labangka, Kabupaten Sumbawa, Nusa Tenggara Bar.","Kabupaten Sumbawa, Nusa Tenggara Bar.",NUSA TENGGARA BARAT,,Indonesia,,,,-89.008.969,1.177.726.375,https://maps.google.com/?cid=0x0:0x47fef162681edddd,
perumahan,Komplek perumahan,Syaqhina My Home,"3PX7+7M, Sekokat, Kec. Labangka, Kabupaten Sumbawa, Nusa Tenggara Bar. 84383","Sekokat, Kec. Labangka, Kabupaten Sumbawa",NUSA TENGGARA BARAT,84383.0,Indonesia,,,,-89.007.939,1.177.143.994,https://maps.google.com/?cid=0x0:0xd1fd606c28954402,
perumahan,Komplek perumahan,Rumah minimalis,"4P27+9CX Rumah juliamin, Sekokat, Kec. Labangka, Kabupaten Sumbawa, Nusa Tenggara Bar. 84383","Sekokat, Kec. Labangka, Kabupaten Sumbawa",NUSA TENGGARA BARAT,84383.0,Indonesia,,,,-8.898.979,117.713.592,https://maps.google.com/?cid=0x0:0x61d0b35e09ead74f,
perumahan,Pembangunan Perumahan,Rumah evander,"RT 01, Kec. Labangka","Kabupaten Sumbawa, Nusa Tenggara Bar.",NUSA TENGGARA BARAT,,Indonesia,,,,-88.990.513,1.177.707.479,https://maps.google.com/?cid=0x0:0x6f29113804e4fb3a,
perumahan,Pembangunan Perumahan,Labcangk,"Jl. Mawar, Labangka, Kec. Labangka, Kabupaten Sumbawa, Nusa Tenggara Bar. 84383","Labangka, Kec. Labangka, Kabupaten Sumbawa",NUSA TENGGARA BARAT,84383.0,Indonesia,,,,-89.025.417,1.177.709.876,https://maps.google.com/?cid=0x0:0x9ead45455ba582ba,
perumahan,Pembangunan Perumahan,Kampung bima,"3QR5+F86, Labangka, Kec. Labangka, Kabupaten Sumbawa, Nusa Tenggara Bar. 84383","Labangka, Kec. Labangka, Kabupaten Sumbawa",NUSA TENGGARA BARAT,84383.0,Indonesia,,,,-89.088.336,1.177.582.733,https://maps.google.com/?cid=0x0:0x725020bb29d15d10,
perumahan,perumahan,Rumah ila,"3PW6+53C, Sekokat, Kec. Labangka, Kabupaten Sumbawa, Nusa Tenggara Bar. 84383","Sekokat, Kec. Labangka, Kabupaten Sumbawa",NUSA TENGGARA BARAT,84383.0,Indonesia,,,,-89.045.705,1.177.101.507,https://maps.google.com/?cid=0x0:0x13da50ada896fdbb,
perumahan,Komplek perumahan,Rumah Ruslan Abikusuma,"3MWP+4V, Jaya Makmur, Kec. Labangka, Kabupaten Sumbawa, Nusa Tenggara Bar.","Kabupaten Sumbawa, Nusa Tenggara Bar.",NUSA TENGGARA BARAT,,Indonesia,,,,-89.046.624,1.176.871.813,https://maps.google.com/?cid=0x0:0x338cbd43eef0c6b5,
perumahan,Komplek perumahan,RM. Maulana Syeh,"3PX7+7M, Sekokat, Kec. Labangka, Kabupaten Sumbawa, Nusa Tenggara Bar. 84383","Sekokat, Kec. Labangka, Kabupaten Sumbawa",NUSA TENGGARA BARAT,84383.0,Indonesia,,,,-89.016.292,1.177.141.855,https://maps.google.com/?cid=0x0:0x94fb3b7bcc634aba,
perumahan,Pembangunan Perumahan,Sum ounya,"3PX9+QQQ, jln irian, Sekokat, Kec. Labangka, Kabupaten Sumbawa, Nusa Tenggara Bar. 84383","jln irian, Sekokat, Kec. Labangka, Kabupaten Sumbawa",NUSA TENGGARA BARAT,84383.0,Indonesia,,,,-89.001.066,1.177.196.106,https://maps.google.com/?cid=0x0:0x445e0e8f603c21cd,
perumahan,Komplek perumahan,Bunda Yanti,"3PX9+P76, Sekokat, Kec. Labangka, Kabupaten Sumbawa, Nusa Tenggara Bar. 84383","Sekokat, Kec. Labangka, Kabupaten Sumbawa",NUSA TENGGARA BARAT,84383.0,Indonesia,,,,-88.998.456,1.177.175.429,https://maps.google.com/?cid=0x0:0xc98a710dd45e28da,
perumahan,Pembangunan Perumahan,Lalu pendiirawa,"3QWF+PPJ, Labangka, Kec. Labangka, Kabupaten Sumbawa, Nusa Tenggara Bar. 84383","Labangka, Kec. Labangka, Kabupaten Sumbawa",NUSA TENGGARA BARAT,84383.0,Indonesia,,,,-89.031.689,1.177.742.767,https://maps.google.com/?cid=0x0:0xc7e578e0cb8e78b8,
perumahan,perumahan,Nusa Tenggara Bar. 84316,"Kabupaten Sumbawa, Nusa Tenggara Bar.","Kabupaten Sumbawa, Nusa Tenggara Bar.",NUSA TENGGARA BARAT,,Indonesia,,,,-83.425.116,1.175.261.025,https://maps.google.com/?cid=0x0:0xae3c45be75c5d8c3,
perumahan,Komplek perumahan,Mampu jawa,"G8XH+MG3, Labuhan Badas, Kabupaten Sumbawa, Nusa Tenggara Bar. 84316","Labuhan Badas, Kabupaten Sumbawa",NUSA TENGGARA BARAT,84316.0,Indonesia,,,,-84.508.828,1.173.289.021,https://maps.google.com/?cid=0x0:0xdd942572bc6cf9bd,
perumahan,Komplek perumahan,Rumah tinggal,"GCJ4+H2C, Labuan Sumbawa, Labuhan Badas, Kabupaten Sumbawa, Nusa Tenggara Bar. 84316","Labuan Sumbawa, Labuhan Badas, Kabupaten Sumbawa",NUSA TENGGARA BARAT,84316.0,Indonesia,,,,-84.685.678,1.174.050.048,https://maps.google.com/?cid=0x0:0xb7cadd3335d5e933,
perumahan,Perumahan,Rumah Adib_iPin,"G9CX+P6Q, Labuan Sumbawa, Labuhan Badas, Kabupaten Sumbawa, Nusa Tenggara Bar. 84316","Labuan Sumbawa, Labuhan Badas, Kabupaten Sumbawa",NUSA TENGGARA BARAT,84316.0,Indonesia,,,,-84.781.749,1.173.980.986,https://maps.google.com/?cid=0x0:0x1e75560513fabce0,
perumahan,Komplek perumahan,Perumahan Puri Damai Regency,"G9HJ+395, Karang Dima, Labuhan Badas, Kabupaten Sumbawa, Nusa Tenggara Bar. 84316","Karang Dima, Labuhan Badas, Kabupaten Sumbawa",NUSA TENGGARA BARAT,84316.0,Indonesia,,,,-84.723.832,1.173.810.656,https://maps.google.com/?cid=0x0:0x3c3ff92f742e50be,
perumahan,Komplek perumahan,Rumah Junaidi,"G9CH+P88, Unnamed Road, Karang Dima, Labuhan Badas, Kabupaten Sumbawa, Nusa Tenggara Bar. 84316","Unnamed Road, Karang Dima, Labuhan Badas, Kabupaten Sumbawa",NUSA TENGGARA BARAT,84316.0,Indonesia,,,,-84.782.001,1.173.783.396,https://maps.google.com/?cid=0x0:0xf3c3ba0187183238,
perumahan,Vila,RumahYudha,"GCG2+5H7, Jl. Kauman 2, Labuan Sumbawa, Labuhan Badas, Kabupaten Sumbawa, Nusa Tenggara Bar. 84316","Jl. Kauman 2, Labuan Sumbawa, Labuhan Badas, Kabupaten Sumbawa",NUSA TENGGARA BARAT,84316.0,Indonesia,85205394722,,,-84.745.905,1.174.014.332,https://maps.google.com/?cid=0x0:0x7df75b3209797114,
perumahan,Perhimpunan Pengembang Perumahan,Rumah widya,"G9FQ+XJG, Jl. Garuda, Karang Dima, Labuhan Badas, Kabupaten Sumbawa, Nusa Tenggara Bar. 84316","Jl. Garuda, Karang Dima, Labuhan Badas, Kabupaten Sumbawa",NUSA TENGGARA BARAT,84316.0,Indonesia,,,,-8.475.055,117.389.073,https://maps.google.com/?cid=0x0:0xa9cb490e895f4f23,
perumahan,perumahan,Rumah Fitriyadi Prasong,"GCG2+2Q5, Labuan Sumbawa, Labuhan Badas, Kabupaten Sumbawa, Nusa Tenggara Bar. 84316","Labuan Sumbawa, Labuhan Badas, Kabupaten Sumbawa",NUSA TENGGARA BARAT,84316.0,Indonesia,,,,-84.749.951,1.174.019.694,https://maps.google.com/?cid=0x0:0x10323d7c63c9d44c,
perumahan,Komplek perumahan,Rumah Putra,"G8WJ+5Q8, Labuhan Badas, Kabupaten Sumbawa, Nusa Tenggara Bar. 84316","Labuhan Badas, Kabupaten Sumbawa",NUSA TENGGARA BARAT,84316.0,Indonesia,,,,-84.534.677,1.173.318.364,https://maps.google.com/?cid=0x0:0xa224d3dbd9c0062e,
perumahan,Komplek perumahan,Rumah Titin Kusminingsih,"G8WH+RHQ, Labuhan Badas, Kabupaten Sumbawa, Nusa Tenggara Bar. 84316","Labuhan Badas, Kabupaten Sumbawa",NUSA TENGGARA BARAT,84316.0,Indonesia,,,,-84.532.571,1.173.287.715,https://maps.google.com/?cid=0x0:0x60641cfa376d0c0f,
perumahan,Komplek perumahan,"Kampung Rinjani, Labuhan Sumbawa","G9FX+R7R, Jl. Kauman 1, Labuan Sumbawa, Labuhan Badas, Kabupaten Sumbawa, Nusa Tenggara Bar. 84316","Jl. Kauman 1, Labuan Sumbawa, Labuhan Badas, Kabupaten Sumbawa",NUSA TENGGARA BARAT,84316.0,Indonesia,,,,-8.475.393,1.173.981.511,https://maps.google.com/?cid=0x0:0xcf3a525477ee7109,
perumahan,Komplek perumahan,Diana House,"G9CH+P8F, Karang Dima, Labuhan Badas, Kabupaten Sumbawa, Nusa Tenggara Bar. 84316","Karang Dima, Labuhan Badas, Kabupaten Sumbawa",NUSA TENGGARA BARAT,84316.0,Indonesia,,,,-84.781.912,1.173.783.033,https://maps.google.com/?cid=0x0:0x68f0f0c0a9621aa4,
perumahan,Perhimpunan Pengembang Perumahan,Rumah Sudirman,"G97R+938, Karang Dima, Labuhan Badas, Kabupaten Sumbawa, Nusa Tenggara Bar. 84316","Karang Dima, Labuhan Badas, Kabupaten Sumbawa",NUSA TENGGARA BARAT,84316.0,Indonesia,,,,-84.865.864,1.173.901.959,https://maps.google.com/?cid=0x0:0x8055e9632f22ff21,
perumahan,Komplek perumahan,Rumah Joy Pradinata,"GCF2+VV3, Labuan Sumbawa, Labuhan Badas, Kabupaten Sumbawa, Nusa Tenggara Bar. 84316","Labuan Sumbawa, Labuhan Badas, Kabupaten Sumbawa",NUSA TENGGARA BARAT,84316.0,Indonesia,,,,-8.475.393,117.402.294,https://maps.google.com/?cid=0x0:0x90e95d2a0631f442,
perumahan,Komplek perumahan,Rumah Axel Labib,"G9CX+V3X, Labuan Sumbawa, Labuhan Badas, Kabupaten Sumbawa, Nusa Tenggara Bar. 84316","Labuan Sumbawa, Labuhan Badas, Kabupaten Sumbawa",NUSA TENGGARA BARAT,84316.0,Indonesia,,,,-8.477.963,117.397.838,https://maps.google.com/?cid=0x0:0xe7246f8d135a8fb4,
perumahan,Komplek perumahan,Dinda Kharisma,"GCG3+9J3, Labuan Sumbawa, Labuhan Badas, Kabupaten Sumbawa, Nusa Tenggara Bar. 84316","Labuan Sumbawa, Labuhan Badas, Kabupaten Sumbawa",NUSA TENGGARA BARAT,84316.0,Indonesia,,,,-8.473.138,1.174.047.038,https://maps.google.com/?cid=0x0:0x407e4550f36764e5,
perumahan,Pembangunan Perumahan,Rumah wahid,"G99W+68F, Karang Dima, Labuhan Badas, Kabupaten Sumbawa, Nusa Tenggara Bar. 84316","Karang Dima, Labuhan Badas, Kabupaten Sumbawa",NUSA TENGGARA BARAT,84316.0,Indonesia,,,,-8.481.936,1.173.957.875,https://maps.google.com/?cid=0x0:0xd71451812ca0db06,
perumahan,Komplek perumahan,Rumah M. Yunda,"GCF2+GW6, Labuan Sumbawa, Labuhan Badas, Kabupaten Sumbawa, Nusa Tenggara Bar. 84316","Labuan Sumbawa, Labuhan Badas, Kabupaten Sumbawa",NUSA TENGGARA BARAT,84316.0,Indonesia,,,,-84.762.244,1.174.022.686,https://maps.google.com/?cid=0x0:0x6153412b76871141,
perumahan,Pembangunan Perumahan,BTN Karang Dima,"BTN, Blok F No.23, Karang Dima, Labuhan Badas, Kabupaten Sumbawa, Nusa Tenggara Bar. 84316","Blok F No.23, Karang Dima, Labuhan Badas, Kabupaten Sumbawa",NUSA TENGGARA BARAT,84316.0,Indonesia,,,,-84.752.789,1.173.781.184,https://maps.google.com/?cid=0x0:0xcc1491a484127471,
perumahan,Kompleks Apartemen,Kos Abu,"GCC2+M5H, Labuan Sumbawa, Labuhan Badas, Kabupaten Sumbawa, Nusa Tenggara Bar. 84316","Labuan Sumbawa, Labuhan Badas, Kabupaten Sumbawa",NUSA TENGGARA BARAT,84316.0,Indonesia,,,,-84.781.955,1.174.006.134,https://maps.google.com/?cid=0x0:0x8ad6f740055c4f85,
perumahan,Komplek perumahan,Komplek Disbun,"GCF4+9PV, Jl. Cendrawasih, Labuan Sumbawa, Labuhan Badas, Kabupaten Sumbawa, Nusa Tenggara Bar. 84316","Jl. Cendrawasih, Labuan Sumbawa, Labuhan Badas, Kabupaten Sumbawa",NUSA TENGGARA BARAT,84316.0,Indonesia,,,,-84.765.029,117.406.807,https://maps.google.com/?cid=0x0:0x7c522113f1220e2a,
perumahan,Komplek perumahan,House Firmansyah,"G99X+WVP, Jl. Bung Karno Lintas Sernu, Labuan Sumbawa, Labuhan Badas, Kabupaten Sumbawa, Nusa Tenggara Bar. 84316","Jl. Bung Karno Lintas Sernu, Labuan Sumbawa, Labuhan Badas, Kabupaten Sumbawa",NUSA TENGGARA BARAT,84316.0,Indonesia,,,,-84.801.667,1.173.997.178,https://maps.google.com/?cid=0x0:0xd32b9e699f76fa18,
perumahan,Komplek perumahan,Pak Mus,"G9GX+CRP, Labuan Sumbawa, Labuhan Badas, Kabupaten Sumbawa, Nusa Tenggara Bar. 84316","Labuan Sumbawa, Labuhan Badas, Kabupaten Sumbawa",NUSA TENGGARA BARAT,84316.0,Indonesia,,,,-84.739.165,1.173.995.704,https://maps.google.com/?cid=0x0:0x61d6471fc082b2f,
perumahan,Pembangunan Perumahan,Bamabad home,"Jl. Kauman 1 No.34, Labuan Sumbawa, Labuhan Badas, Kabupaten Sumbawa, Nusa Tenggara Bar. 84316","Labuan Sumbawa, Labuhan Badas, Kabupaten Sumbawa",NUSA TENGGARA BARAT,84316.0,Indonesia,,,,-8.473.639,1.174.003.975,https://maps.google.com/?cid=0x0:0x57472a55ca9b881d,
perumahan,Pembangunan Perumahan,home JH,"G9FW+MPQ, Labuan Sumbawa, Labuhan Badas, Kabupaten Sumbawa, Nusa Tenggara Bar. 84316","Labuan Sumbawa, Labuhan Badas, Kabupaten Sumbawa",NUSA TENGGARA BARAT,84316.0,Indonesia,,,,-84.757.806,1.173.968.439,https://maps.google.com/?cid=0x0:0x4dd0a71d89cbd82f,
perumahan,Perhimpunan Pengembang Perumahan,BALE YAYAN,"G9GW+V8P, Labuan Sumbawa, Labuhan Badas, Kabupaten Sumbawa, Nusa Tenggara Bar. 84316","Labuan Sumbawa, Labuhan Badas, Kabupaten Sumbawa",NUSA TENGGARA BARAT,84316.0,Indonesia,,,,-84.727.848,1.173.958.398,https://maps.google.com/?cid=0x0:0xf2e16f45e5ea33ee,
perumahan,Komplek perumahan,I Nengah Widiana,"G8WQ+XVW, Labuhan Badas, Kabupaten Sumbawa, Nusa Tenggara Bar. 84316","Labuhan Badas, Kabupaten Sumbawa",NUSA TENGGARA BARAT,84316.0,Indonesia,,,,-84.526.015,1.173.387.702,https://maps.google.com/?cid=0x0:0xcc4ce6c33ad068ea,
perumahan,,Arung Santek Desa Labuhan Aji Pulau Moyo,"QMX4+7GH, Labuan Aji, Labuhan Badas, Kabupaten Sumbawa, Nusa Tenggara Bar. 84316","Labuan Aji, Labuhan Badas, Kabupaten Sumbawa",NUSA TENGGARA BARAT,84316.0,Indonesia,,,,-82.017.907,1.176.563.681,https://maps.google.com/?cid=0x0:0xf5c920d7ea923c24,
perumahan,perumahan,Kec. Lantung,"Kabupaten Sumbawa, Nusa Tenggara Bar.","Kabupaten Sumbawa, Nusa Tenggara Bar.",NUSA TENGGARA BARAT,,Indonesia,,,,-87.709.478,1.175.167.447,https://maps.google.com/?cid=0x0:0xc4f4784db3ed827a,
perumahan,Komplek perumahan,Reni Oktapiani,"6GH8+VCP, Sepukur, Kec. Lantung, Kabupaten Sumbawa, Nusa Tenggara Bar. 84372","Sepukur, Kec. Lantung, Kabupaten Sumbawa",NUSA TENGGARA BARAT,84372.0,Indonesia,,,,-87.702.773,1.175.160.671,https://maps.google.com/?cid=0x0:0xbd66da94b2fa44b,
perumahan,Komplek perumahan,PBT,"6GVF+5PQ, Jl. Lintas Sumbawa-Ropang, Ai Mual, Kec. Lantung, Kabupaten Sumbawa, Nusa Tenggara Bar. 84372","Jl. Lintas Sumbawa-Ropang, Ai Mual, Kec. Lantung, Kabupaten Sumbawa",NUSA TENGGARA BARAT,84372.0,Indonesia,,,,-87.570.427,1.175.243.548,https://maps.google.com/?cid=0x0:0x997a382a5657a4fc,
perumahan,Komplek perumahan,Naisa Bahar,"6GH8+8FM, Sepukur, Kec. Lantung, Kabupaten Sumbawa, Nusa Tenggara Bar. 84372","Sepukur, Kec. Lantung, Kabupaten Sumbawa",NUSA TENGGARA BARAT,84372.0,Indonesia,,,,-87.713.714,1.175.169.218,https://maps.google.com/?cid=0x0:0xc8c6ba1285893840,
perumahan,Komplek perumahan,Rumah FAJRIN POLISI,"6FXR+285, Jln lingkungan, dusun A, Padesa, Lantung, Sumbawa Regency, West Nusa Tenggara 84372","Jln lingkungan, dusun A, Padesa, Lantung, Sumbawa Regency",NUSA TENGGARA BARAT,84372.0,Indonesia,,,,-87.524.931,1.174.908.738,https://maps.google.com/?cid=0x0:0xc431c1f2701d2627,
perumahan,Komplek perumahan,Remon Aksa Dinata,"6GG8+QHW, Sepukur, Kec. Lantung, Kabupaten Sumbawa, Nusa Tenggara Bar. 84372","Sepukur, Kec. Lantung, Kabupaten Sumbawa",NUSA TENGGARA BARAT,84372.0,Indonesia,,,,-87.730.128,1.175.164.635,https://maps.google.com/?cid=0x0:0xb7a75100909813ca,
perumahan,Gudang,Penggilingan padi pak samsu,"6GQF+W22, Sepukur, Kec. Lantung, Kabupaten Sumbawa, Nusa Tenggara Bar. 84372","Sepukur, Kec. Lantung, Kabupaten Sumbawa",NUSA TENGGARA BARAT,84372.0,Indonesia,,,,-87.613.382,1.175.229.916,https://maps.google.com/?cid=0x0:0xccfdb1772884fa80,
perumahan,Area Mendaki,Rumah Aprian Clara Julistian,"6GWG+877, Jl. Lintas Langam-Ropang, Ai Mual, Kec. Lantung, Kabupaten Sumbawa, Nusa Tenggara Bar. 84372","Jl. Lintas Langam-Ropang, Ai Mual, Kec. Lantung, Kabupaten Sumbawa",NUSA TENGGARA BARAT,84372.0,Indonesia,,,,-87.542.228,1.175.256.788,https://maps.google.com/?cid=0x0:0x82e3dace66636c5d,
perumahan,perumahan,Lape,"Lape, Kec. Lape, Kabupaten Sumbawa, Nusa Tenggara Bar.","Kabupaten Sumbawa, Nusa Tenggara Bar.",NUSA TENGGARA BARAT,,Indonesia,,,,-8.639.182,1.176.119,https://maps.google.com/?cid=0x0:0x672b42ea422ce3f9,
perumahan,Perumahan,Lape atas desa lape,"9J66+8QC, ATAS, RT.01_RW/RW.02, Lape, Kec. Lape, Kabupaten Sumbawa, Nusa Tenggara Bar.","Kabupaten Sumbawa, Nusa Tenggara Bar.",NUSA TENGGARA BARAT,,Indonesia,,,,-8.639.182,1.176.119,https://maps.google.com/?cid=0x0:0xab4147b154a4e18e,
perumahan,Perumahan,Eldhys home,"depan sektor Lape, Jalan Sasambo 1, Lape, Kec. Lape, Kabupaten Sumbawa, Nusa Tenggara Bar.","Kabupaten Sumbawa, Nusa Tenggara Bar.",NUSA TENGGARA BARAT,,Indonesia,,,,-8.639.182,1.176.119,https://maps.google.com/?cid=0x0:0xa4f3e3a2a2c7859,
perumahan,perumahan,Siti laesah,"9J66+8QC, RT.01/RW.04, bawa, Kec. Lape, Kabupaten Sumbawa, Nusa Tenggara Bar.","Kabupaten Sumbawa, Nusa Tenggara Bar.",NUSA TENGGARA BARAT,,Indonesia,,,,-8.639.182,1.176.119,https://maps.google.com/?cid=0x0:0xbb5d1eeef2e67caf,
perumahan,Pembangunan Perumahan,RENDY MOTOR,"9J66+8QC, Belakang PLN, Lape, Kec. Lape, Kabupaten Sumbawa, Nusa Tenggara Bar.","Kabupaten Sumbawa, Nusa Tenggara Bar.",NUSA TENGGARA BARAT,,Indonesia,,,,-8.639.182,1.176.119,https://maps.google.com/?cid=0x0:0x3e3b9460b2f92f22,
perumahan,perumahan,Sumbawa Grand Hotel,"GC29+WQR, Jl. Kerangka Baja No.12, Brang Bara, Kec. Sumbawa, Kabupaten Sumbawa, Nusa Tenggara Bar. 84316","Jl. Kerangka Baja No.12, Brang Bara, Kec. Sumbawa, Kabupaten Sumbawa",NUSA TENGGARA BARAT,84316.0,Indonesia,81234569878,,,-84.981.576,1.174.172.978,https://maps.google.com/?cid=0x0:0x1a92270261a93a29,
perumahan,Jasa Pengiriman,JT Express Lenangguar,"Jl. Sumbawa-Lunyuk No.40, Lenangguar, Kec. Lenangguar, Kabupaten Sumbawa, Nusa Tenggara Bar. 84372","Lenangguar, Kec. Lenangguar, Kabupaten Sumbawa",NUSA TENGGARA BARAT,84372.0,Indonesia,,,,-87.342.777,1.173.615.022,https://maps.google.com/?cid=0x0:0x38f89eba6c05c729,
perumahan,perumahan,Lenangguar,"Kec. Lenangguar, Kabupaten Sumbawa, Nusa Tenggara Bar.","Kabupaten Sumbawa, Nusa Tenggara Bar.",NUSA TENGGARA BARAT,,Indonesia,,,,-87.217.791,1.173.733.989,https://maps.google.com/?cid=0x0:0x9c20f7bd29d8166b,
perumahan,Perhimpunan Pengembang Perumahan,Dusun gunung setia kec.lenangguar,"785F+GV, Telaga, Kec. Lenangguar, Kabupaten Sumbawa, Nusa Tenggara Bar.","Kabupaten Sumbawa, Nusa Tenggara Bar.",NUSA TENGGARA BARAT,,Indonesia,,,,-87.411.596,1.173.247.344,https://maps.google.com/?cid=0x0:0x63ddc8ed4a755e67,
perumahan,Komplek perumahan,RUMAH AZKA,"7987+2VP, Lenangguar, Kec. Lenangguar, Kabupaten Sumbawa, Nusa Tenggara Bar. 84372","Lenangguar, Kec. Lenangguar, Kabupaten Sumbawa",NUSA TENGGARA BARAT,84372.0,Indonesia,,,,-8.734.407,117.365.489,https://maps.google.com/?cid=0x0:0x7c13b2a413e9efb7,
perumahan,Pembangunan Perumahan,Rumah Andi purnawansyah,"7987+X6H, Lenangguar, Kec. Lenangguar, Kabupaten Sumbawa, Nusa Tenggara Bar. 84372","Lenangguar, Kec. Lenangguar, Kabupaten Sumbawa",NUSA TENGGARA BARAT,84372.0,Indonesia,,,,-87.319.398,1.173.637.324,https://maps.google.com/?cid=0x0:0x5c116e3f45b398ae,
perumahan,Pembangunan Perumahan,Bale Ekalll,"7978+8W7, Lenangguar, Kec. Lenangguar, Kabupaten Sumbawa, Nusa Tenggara Bar. 84372","Lenangguar, Kec. Lenangguar, Kabupaten Sumbawa",NUSA TENGGARA BARAT,84372.0,Indonesia,,,,-87.367.174,1.173.672.874,https://maps.google.com/?cid=0x0:0x17a446d820da7553,
perumahan,Komplek perumahan,TATEBAL,"69W3+G3F, Telaga, Kec. Lenangguar, Kabupaten Sumbawa, Nusa Tenggara Bar. 84372","Telaga, Kec. Lenangguar, Kabupaten Sumbawa",NUSA TENGGARA BARAT,84372.0,Indonesia,,,,-87.536.777,1.173.526.807,https://maps.google.com/?cid=0x0:0x5784a157b51d44ec,
perumahan,Komplek perumahan,Rumah Suharti,"69P2+PFQ, Tatebal, Kec. Lenangguar, Kabupaten Sumbawa, Nusa Tenggara Bar. 84372","Tatebal, Kec. Lenangguar, Kabupaten Sumbawa",NUSA TENGGARA BARAT,84372.0,Indonesia,,,,-87.631.747,1.173.512.238,https://maps.google.com/?cid=0x0:0x963f463a4b09af62,
perumahan,Komplek perumahan,Bale Keban,"79FJ+MM5, Jl. Sumbawa-Lunyuk, Lenangguar, Kec. Lenangguar, Kabupaten Sumbawa, Nusa Tenggara Bar.","Kabupaten Sumbawa, Nusa Tenggara Bar.",NUSA TENGGARA BARAT,,Indonesia,,,,-87.258.552,1.173.817.251,https://maps.google.com/?cid=0x0:0xe2f254f24bb04848,
perumahan,Perhimpunan Pengembang Perumahan,Kurniawan,"Rt 8 rw4, jalan lintas sumbawa, lunyuk","Kabupaten Sumbawa, Nusa Tenggara Bar.",NUSA TENGGARA BARAT,,Indonesia,,,,-87.361.587,1.173.586.778,https://maps.google.com/?cid=0x0:0x17ff0f622f746ca2,
perumahan,Komplek perumahan,Iyekmalaka,"7986+FHM, Jalan lintas sumbawa, Lenangguar, lunyuk, Kabupaten Sumbawa, Nusa Tenggara Bar.","Kabupaten Sumbawa, Nusa Tenggara Bar.",NUSA TENGGARA BARAT,,Indonesia,,,,-87.337.863,1.173.614.334,https://maps.google.com/?cid=0x0:0x880b35a3203105b3,
perumahan,Pembangunan Perumahan,Gedung wisma hajjah yuliana luthan(HYL),"79FH+43H, Jl. Sumbawa-Lunyuk, Lenangguar, Kec. Lenangguar, Kabupaten Sumbawa, Nusa Tenggara Bar. 84372","Jl. Sumbawa-Lunyuk, Lenangguar, Kec. Lenangguar, Kabupaten Sumbawa",NUSA TENGGARA BARAT,84372.0,Indonesia,,,,-87.267.906,1.173.778.137,https://maps.google.com/?cid=0x0:0xdc4715fbd027bb41,
perumahan,perumahan,Rumah Bedul,"79HF+79J, A, RT.001/RW.003, Lenangguar, Kec. Lenangguar, Kabupaten Sumbawa, Nusa Tenggara Bar. 84372","A, RT.001/RW.003, Lenangguar, Kec. Lenangguar, Kabupaten Sumbawa",NUSA TENGGARA BARAT,84372.0,Indonesia,,,,-87.217.791,1.173.733.989,https://maps.google.com/?cid=0x0:0xcd6b2d438006a9eb,
perumahan,Komplek perumahan,Rumah erul,"7978+RWX, Lenangguar, Kec. Lenangguar, Kabupaten Sumbawa, Nusa Tenggara Bar. 84372","Lenangguar, Kec. Lenangguar, Kabupaten Sumbawa",NUSA TENGGARA BARAT,84372.0,Indonesia,,,,-87.344.364,1.173.664.438,https://maps.google.com/?cid=0x0:0x1ff72a6537f5ba33,
perumahan,Komplek perumahan,UD ADHELIA MEUBLE,"Jalan lintas Jl. Sumbawa-Lunyuk No.Km 40, belakang kantor, Kec. Lenangguar, Kabupaten Sumbawa, Nusa Tenggara Bar.","Kabupaten Sumbawa, Nusa Tenggara Bar.",NUSA TENGGARA BARAT,,Indonesia,85333244842,,,-87.367.073,1.173.669.814,https://maps.google.com/?cid=0x0:0xa5e3b38cf7fc0278,
perumahan,Komplek perumahan,Rumah Eno,"79G9+3QV, Lenangguar, Kec. Lenangguar, Kabupaten Sumbawa, Nusa Tenggara Bar. 84372","Lenangguar, Kec. Lenangguar, Kabupaten Sumbawa",NUSA TENGGARA BARAT,84372.0,Indonesia,,,,-87.247.638,1.173.694.247,https://maps.google.com/?cid=0x0:0x17747d31d10d6e5b,
perumahan,Perhimpunan Pengembang Perumahan,Rmh Bpk Erwinsyah,"7987+F4J, Lenangguar, Kec. Lenangguar, Kabupaten Sumbawa, Nusa Tenggara Bar.","Kabupaten Sumbawa, Nusa Tenggara Bar.",NUSA TENGGARA BARAT,,Indonesia,,,,-87.337.899,1.173.627.587,https://maps.google.com/?cid=0x0:0x8cfd0cafc6850433,
perumahan,Restoran,Rumah Makan Jelita,"7975+GJ7, Lenangguar, Kec. Lenangguar, Kabupaten Sumbawa, Nusa Tenggara Bar. 84372","Lenangguar, Kec. Lenangguar, Kabupaten Sumbawa",NUSA TENGGARA BARAT,84372.0,Indonesia,,,,-87.362.163,1.173.590.586,https://maps.google.com/?cid=0x0:0xcb9f01522fbb72,
perumahan,Komplek perumahan,Balai Pertemuan Dusun Gunung Setia,"676G+HX, Telaga, Kec. Lenangguar, Kabupaten Sumbawa, Nusa Tenggara Bar.","Kabupaten Sumbawa, Nusa Tenggara Bar.",NUSA TENGGARA BARAT,,Indonesia,,,,-87.885.153,1.172.774.665,https://maps.google.com/?cid=0x0:0xb807586c598c76e5,
perumahan,Komplek perumahan,Asrama putra (gastra) PMIDM,"79FG+4M7, Jl. Sumbawa-Lunyuk, Lenangguar, Kec. Lenangguar, Kabupaten Sumbawa, Nusa Tenggara Bar. 84372","Jl. Sumbawa-Lunyuk, Lenangguar, Kec. Lenangguar, Kabupaten Sumbawa",NUSA TENGGARA BARAT,84372.0,Indonesia,,,,-8.726.853,117.376.879,https://maps.google.com/?cid=0x0:0xfb2a79a1900e1496,
perumahan,Komplek perumahan,Fetty 855,"58QP+JH7, Pengkaweng dusun lamurung, Ledang, Kec. Lenangguar, Kabupaten Sumbawa, Nusa Tenggara Bar. 84372","Pengkaweng dusun lamurung, Ledang, Kec. Lenangguar, Kabupaten Sumbawa",NUSA TENGGARA BARAT,84372.0,Indonesia,,,,-88.109.696,1.173.364.275,https://maps.google.com/?cid=0x0:0xb27a20cbd3c5a601,
perumahan,Kantor Pemerintah,Puskesmas Lenangguar,"7987+H8C, Jl. Sumbawa-Lunyuk, Lenangguar, Kec. Lenangguar, Kabupaten Sumbawa, Nusa Tenggara Bar. 84372","Jl. Sumbawa-Lunyuk, Lenangguar, Kec. Lenangguar, Kabupaten Sumbawa",NUSA TENGGARA BARAT,84372.0,Indonesia,,,,-87.335.849,1.173.632.676,https://maps.google.com/?cid=0x0:0x7a0c7c6dc21b5671,
perumahan,perumahan,Nusa Tenggara Bar. 84373,"Kabupaten Sumbawa, Nusa Tenggara Bar.","Kabupaten Sumbawa, Nusa Tenggara Bar.",NUSA TENGGARA BARAT,,Indonesia,,,,-8.863.502,1.172.205.771,https://maps.google.com/?cid=0x0:0xd0eb521b9a71c154,
perumahan,perumahan,Lunyuk,"26FC+CCV, Lunyuk Ode, Kec. Lunyuk, Kabupaten Sumbawa, Nusa Tenggara Bar.","Kabupaten Sumbawa, Nusa Tenggara Bar.",NUSA TENGGARA BARAT,,Indonesia,,,,-89.763.923,1.172.210.503,https://maps.google.com/?cid=0x0:0xf93aa5e7cab88abf,
perumahan,Komplek perumahan,Rumah Shandie,"26G8+V8X, Jl. Sutan Zainuddin, Lunyuk Ode, Kec. Lunyuk, Kabupaten Sumbawa, Nusa Tenggara Bar. 84373","Jl. Sutan Zainuddin, Lunyuk Ode, Kec. Lunyuk, Kabupaten Sumbawa",NUSA TENGGARA BARAT,84373.0,Indonesia,,,,-89.727.574,1.172.158.609,https://maps.google.com/?cid=0x0:0x9b3bcf6188688813,
perumahan,Komplek perumahan,Mariadi,"2645+V4P, Pada Suka, Kec. Lunyuk, Kabupaten Sumbawa, Nusa Tenggara Bar. 84373","Pada Suka, Kec. Lunyuk, Kabupaten Sumbawa",NUSA TENGGARA BARAT,84373.0,Indonesia,,,,-89.926.779,1.172.076.776,https://maps.google.com/?cid=0x0:0x91c66cd90fab1bf,
perumahan,Kompleks Kondominium,Rumah kevin renata,"258Q+2CF, Suka Maju, Kec. Lunyuk, Kabupaten Sumbawa, Nusa Tenggara Bar. 84373","Suka Maju, Kec. Lunyuk, Kabupaten Sumbawa",NUSA TENGGARA BARAT,84373.0,Indonesia,,,,-89.849.297,1.171.885.542,https://maps.google.com/?cid=0x0:0x10312b4e5fa78493,
perumahan,Komplek perumahan,@ll@n_@lf@d,"26H8+RHW, Lunyuk Ode, Kec. Lunyuk, Kabupaten Sumbawa, Nusa Tenggara Bar. 84373","Lunyuk Ode, Kec. Lunyuk, Kabupaten Sumbawa",NUSA TENGGARA BARAT,84373.0,Indonesia,,,,-89.703.985,1.172.164.494,https://maps.google.com/?cid=0x0:0x41251d5728d3c749,
perumahan,Toko Pakaian,Padasuka,"256P+HXQ, Pada Suka, Kec. Lunyuk, Kabupaten Sumbawa, Nusa Tenggara Bar. 84373","Pada Suka, Kec. Lunyuk, Kabupaten Sumbawa",NUSA TENGGARA BARAT,84373.0,Indonesia,87753377075,,,-89.924.375,1.171.868.594,https://maps.google.com/?cid=0x0:0xa6fcac7e12d2c282,
perumahan,Komplek perumahan,home my home,"26H8+GC4, Lunyuk Ode, Kec. Lunyuk, Kabupaten Sumbawa, Nusa Tenggara Bar. 84373","Lunyuk Ode, Kec. Lunyuk, Kabupaten Sumbawa",NUSA TENGGARA BARAT,84373.0,Indonesia,,,,-89.712.296,1.172.160.644,https://maps.google.com/?cid=0x0:0x14cd4790f26fde60,
perumahan,Komplek perumahan,Rumah julia,"26P9+MW, Lunyuk Rea, Kec. Lunyuk, Kabupaten Sumbawa, Nusa Tenggara Bar. 84373","Lunyuk Rea, Kec. Lunyuk, Kabupaten Sumbawa",NUSA TENGGARA BARAT,84373.0,Indonesia,,,,-89.632.494,1.172.198.477,https://maps.google.com/?cid=0x0:0x5a47ea3a40106d3,
perumahan,Komplek perumahan,Shakeel Rafca Home,"26H6+C3W, Lunyuk Rea, Kec. Lunyuk, Kabupaten Sumbawa, Nusa Tenggara Bar. 84373","Lunyuk Rea, Kec. Lunyuk, Kabupaten Sumbawa",NUSA TENGGARA BARAT,84373.0,Indonesia,,,,-8.971.813,1.172.101.379,https://maps.google.com/?cid=0x0:0xf992fdde3d729c88,
perumahan,Komplek perumahan,Tanah 2 are,"26F7+8PM, Lunyuk Ode, Kec. Lunyuk, Kabupaten Sumbawa, Nusa Tenggara Bar. 84373","Lunyuk Ode, Kec. Lunyuk, Kabupaten Sumbawa",NUSA TENGGARA BARAT,84373.0,Indonesia,,,,-89.766.532,1.172.142.974,https://maps.google.com/?cid=0x0:0xf6c89ff564744986,
perumahan,Komplek perumahan,Rumah yankar,"26C2+2PQ, Suka Maju, Kec. Lunyuk, Kabupaten Sumbawa, Nusa Tenggara Bar. 84373","Suka Maju, Kec. Lunyuk, Kabupaten Sumbawa",NUSA TENGGARA BARAT,84373.0,Indonesia,,,,-8.979.566,117.202.434,https://maps.google.com/?cid=0x0:0x9adbee5e1e97a3eb,
perumahan,,NINJA EXPRESS,"2633+F98, Pada Suka, Kec. Lunyuk, Kabupaten Sumbawa, Nusa Tenggara Bar. 84373","Pada Suka, Kec. Lunyuk, Kabupaten Sumbawa",NUSA TENGGARA BARAT,84373.0,Indonesia,,,,-89.963.488,1.172.034.548,https://maps.google.com/?cid=0x0:0x186b56a81ec66f2a,
perumahan,Pemakaman,TPU SUKAJAYA,"26G6+J9, Lunyuk Rea, Kec. Lunyuk, Kabupaten Sumbawa, Nusa Tenggara Bar. 84373","Lunyuk Rea, Kec. Lunyuk, Kabupaten Sumbawa",NUSA TENGGARA BARAT,84373.0,Indonesia,,,,-89.734.671,1.172.109.706,https://maps.google.com/?cid=0x0:0x8a9f59ecc7aa21d3,
perumahan,Komplek perumahan,"Khaerul Anam,QH.,S.Kom","X5J6+MP2, Pada Suka, Kec. Lunyuk, Kabupaten Sumbawa, Nusa Tenggara Bar. 84373","Pada Suka, Kec. Lunyuk, Kabupaten Sumbawa",NUSA TENGGARA BARAT,84373.0,Indonesia,,,,-90.183.566,1.171.617.685,https://maps.google.com/?cid=0x0:0x315dde2909cf29d9,
perumahan,Rumah wisata,Desa perung Dusun ai Ketapang,"2647+WXC, Perung, Kec. Lunyuk, Kabupaten Sumbawa, Nusa Tenggara Bar. 84373","Perung, Kec. Lunyuk, Kabupaten Sumbawa",NUSA TENGGARA BARAT,84373.0,Indonesia,,,,-89.926.751,1.172.149.024,https://maps.google.com/?cid=0x0:0x8423f6928ec974b8,
perumahan,Pusat Perbelanjaan,"Des. Sukamaju, kec. Lunyuk, kab. Sumbawa","26C5+2CG, Suka Maju, Kec. Lunyuk, Kabupaten Sumbawa, Nusa Tenggara Bar.","Kabupaten Sumbawa, Nusa Tenggara Bar.",NUSA TENGGARA BARAT,,Indonesia,,,,-89.799.372,1.172.085.634,https://maps.google.com/?cid=0x0:0xef0004b41d94f886,
perumahan,Pembangunan Perumahan,ZONE 2 BPK FENLY,"2696+9JR, Lunyuk Ode, Kec. Lunyuk, Kabupaten Sumbawa, Nusa Tenggara Bar.","Kabupaten Sumbawa, Nusa Tenggara Bar.",NUSA TENGGARA BARAT,,Indonesia,,,,-89.815.046,1.172.115.294,https://maps.google.com/?cid=0x0:0x4cafbe5e02f6ad84,
perumahan,Komplek perumahan,Alex Jepe Residence,"26F7+QCM, Lunyuk Ode, Kec. Lunyuk, Kabupaten Sumbawa, Nusa Tenggara Bar. 84373","Lunyuk Ode, Kec. Lunyuk, Kabupaten Sumbawa",NUSA TENGGARA BARAT,84373.0,Indonesia,,,,-89.755.375,1.172.135.445,https://maps.google.com/?cid=0x0:0x793b3cde9c9d04f0,
perumahan,Pembangunan Perumahan,Bale tau,"26F7+CFM, RT.05/RW.02, Lunyuk Ode, Kec. Lunyuk, Kabupaten Sumbawa, Nusa Tenggara Bar. 84373","RT.05/RW.02, Lunyuk Ode, Kec. Lunyuk, Kabupaten Sumbawa",NUSA TENGGARA BARAT,84373.0,Indonesia,,,,-89.764.002,1.172.136.568,https://maps.google.com/?cid=0x0:0xb7243baa964995b5,
perumahan,Pembangunan Perumahan,Fathir straw,"2645+PJJ, Unnamed Road, Pada Suka, Kec. Lunyuk, Kabupaten Sumbawa, Nusa Tenggara Bar. 84373","Unnamed Road, Pada Suka, Kec. Lunyuk, Kabupaten Sumbawa",NUSA TENGGARA BARAT,84373.0,Indonesia,,,,-899.317,1.172.090.199,https://maps.google.com/?cid=0x0:0x341e22066459ee81,
perumahan,perumahan,Agung Nata Wijaya,"258Q+2CF, Suka Maju, Kec. Lunyuk, Kabupaten Sumbawa, Nusa Tenggara Bar. 84373","Suka Maju, Kec. Lunyuk, Kabupaten Sumbawa",NUSA TENGGARA BARAT,84373.0,Indonesia,,,,-8.984.587,1.171.881.942,https://maps.google.com/?cid=0x0:0x217dc769de8f0f3f,
perumahan,Komplek perumahan,Rumah Sendi Akramullah,"65RP+6G, Sebeok, Kec. Orong Telu, Kabupaten Sumbawa, Nusa Tenggara Bar. 84373","Sebeok, Kec. Orong Telu, Kabupaten Sumbawa",NUSA TENGGARA BARAT,84373.0,Indonesia,,,,-87.594.595,1.171.861.952,https://maps.google.com/?cid=0x0:0x5bb72507f04c6527,
perumahan,Perhimpunan Pengembang Perumahan,Rumah gita,"26H8+H4G, Lunyuk Ode, Kec. Lunyuk, Kabupaten Sumbawa, Nusa Tenggara Bar. 84373","Lunyuk Ode, Kec. Lunyuk, Kabupaten Sumbawa",NUSA TENGGARA BARAT,84373.0,Indonesia,,,,-89.713.025,1.172.158.487,https://maps.google.com/?cid=0x0:0x3618d2b3c2fbc174,
perumahan,Komplek perumahan,Rumah saya,"26C5+78R, Suka Maju, Kec. Lunyuk, Kabupaten Sumbawa, Nusa Tenggara Bar. 84373","Suka Maju, Kec. Lunyuk, Kabupaten Sumbawa",NUSA TENGGARA BARAT,84373.0,Indonesia,,,,-89.792.576,1.172.083.288,https://maps.google.com/?cid=0x0:0xe7ab0eecaa05784a,
perumahan,perumahan,Nusa Tenggara Bar. 84382,"Kabupaten Sumbawa, Nusa Tenggara Bar.","Kabupaten Sumbawa, Nusa Tenggara Bar.",NUSA TENGGARA BARAT,,Indonesia,,,,-86.130.859,1.176.200.138,https://maps.google.com/?cid=0x0:0xabe7da967925340f,
perumahan,Komplek perumahan,Rumah Delis,"8GXH+HF4, Pungkit, Kec. Lopok, Kabupaten Sumbawa, Nusa Tenggara Bar. 84382","Pungkit, Kec. Lopok, Kabupaten Sumbawa",NUSA TENGGARA BARAT,84382.0,Indonesia,,,,-86.499.538,1.175.290.158,https://maps.google.com/?cid=0x0:0xaa94477e9cd779dd,
perumahan,Komplek perumahan,Tempat tinggal syahril,"9H6G+4VH, Berora, Kec. Lopok, Kabupaten Sumbawa, Nusa Tenggara Bar. 84382","Berora, Kec. Lopok, Kabupaten Sumbawa",NUSA TENGGARA BARAT,84382.0,Indonesia,,,,-86.396.578,1.175.775.062,https://maps.google.com/?cid=0x0:0xfccd4ac2788c891b,
perumahan,Tujuan Wisata,Dusun lopok ber,"9GMC+M39, Lopok Beru, Kec. Lopok, Kabupaten Sumbawa, Nusa Tenggara Bar. 84382","Lopok Beru, Kec. Lopok, Kabupaten Sumbawa",NUSA TENGGARA BARAT,84382.0,Indonesia,,,,-86.158.319,1.175.202.315,https://maps.google.com/?cid=0x0:0x1fb3ddc0870e6a02,
perumahan,Pembangunan Perumahan,Rumah q tho the lopok,"9HJ5+F2J, Langam, Kec. Lopok, Kabupaten Sumbawa, Nusa Tenggara Bar. 84382","Langam, Kec. Lopok, Kabupaten Sumbawa",NUSA TENGGARA BARAT,84382.0,Indonesia,,,,-86.187.835,1.175.575.224,https://maps.google.com/?cid=0x0:0x414fe77f291d06bf,
perumahan,Perhimpunan Pengembang Perumahan,M.saleh House,"9HP7+28Q, Langam, Kec. Lopok, Kabupaten Sumbawa, Nusa Tenggara Bar. 84382","Langam, Kec. Lopok, Kabupaten Sumbawa",NUSA TENGGARA BARAT,84382.0,Indonesia,,,,-86.153.675,1.175.636.667,https://maps.google.com/?cid=0x0:0xe9e09341657a1a94,
perumahan,Komplek perumahan,LBK,"9GRP+3XQ, Lopok Beru, Kec. Lopok, Kabupaten Sumbawa, Nusa Tenggara Bar.","Kabupaten Sumbawa, Nusa Tenggara Bar.",NUSA TENGGARA BARAT,,Indonesia,,,,-86.097.913,1.175.374.876,https://maps.google.com/?cid=0x0:0x148b022aae3e344d,
perumahan,Pembangunan Perumahan,Perumahan koramil,"9HMM+W6V, Jl. Lintas Sumbawa - Bima, Langam, Kec. Lopok, Kabupaten Sumbawa, Nusa Tenggara Bar. 84382","Jl. Lintas Sumbawa - Bima, Langam, Kec. Lopok, Kabupaten Sumbawa",NUSA TENGGARA BARAT,84382.0,Indonesia,,,,-8.614.968,1.175.830.392,https://maps.google.com/?cid=0x0:0xc961df530b911063,
perumahan,Komplek perumahan,Rumah Hamzah  Mardiah,"9H6H+29, Berora, Kec. Lopok, Kabupaten Sumbawa, Nusa Tenggara Bar. 84382","Berora, Kec. Lopok, Kabupaten Sumbawa",NUSA TENGGARA BARAT,84382.0,Indonesia,,,,-86.399.946,1.175.783.759,https://maps.google.com/?cid=0x0:0x740a7f83c2daf0fb,
perumahan,Komplek perumahan,"SYAFRUDDIN, S.Pd.SD","Dusun tepisilaga, RT.002/RW.001, DESA MAMA, Kec. Lopok, Kabupaten Sumbawa, Nusa Tenggara Bar. 84382","RT.002/RW.001, DESA MAMA, Kec. Lopok, Kabupaten Sumbawa",NUSA TENGGARA BARAT,84382.0,Indonesia,,,,-865.706,1.175.694.318,https://maps.google.com/?cid=0x0:0xdcff3b35f753b969,
perumahan,Komplek perumahan,RUMAH AGAM,"9GRW+H97, Lopok, Kec. Lopok, Kabupaten Sumbawa, Nusa Tenggara Bar. 84382","Lopok, Kec. Lopok, Kabupaten Sumbawa",NUSA TENGGARA BARAT,84382.0,Indonesia,,,,-86.085.857,1.175.459.252,https://maps.google.com/?cid=0x0:0xc2eca3a8e63e5655,
perumahan,Komplek perumahan,Rumah Marni,"9GPP+F87, Lopok Beru, Kec. Lopok, Kabupaten Sumbawa, Nusa Tenggara Bar. 84382","Lopok Beru, Kec. Lopok, Kabupaten Sumbawa",NUSA TENGGARA BARAT,84382.0,Indonesia,,,,-86.138.353,117.535.808,https://maps.google.com/?cid=0x0:0x4791b929a70ed336,
perumahan,Komplek perumahan,Cabang Lanam kecamatan lopok,"9HP6+5X4, Jl. Lintas Sumbawa - Bima, Langam, Kec. Lopok, Kabupaten Sumbawa, Nusa Tenggara Bar. 84382","Jl. Lintas Sumbawa - Bima, Langam, Kec. Lopok, Kabupaten Sumbawa",NUSA TENGGARA BARAT,84382.0,Indonesia,,,,-86.146.123,1.175.624.586,https://maps.google.com/?cid=0x0:0x38875e03ba3eff79,
perumahan,Balai masyarakat,gang lapangan desa lopok,"9GVX+22M, Jl. Sudirman, Lopok, Kec. Lopok, Kabupaten Sumbawa, Nusa Tenggara Bar. 84382","Jl. Sudirman, Lopok, Kec. Lopok, Kabupaten Sumbawa",NUSA TENGGARA BARAT,84382.0,Indonesia,,,,-86.074.012,1.175.475.358,https://maps.google.com/?cid=0x0:0x26d86b6ce12344d1,
perumahan,Kantor distrik,Desa langam kec. Lopok kab. Sumbawa,"9HP7+8F9, Jl. Lintas Sumbawa - Bima, Langam, Kec. Lopok, Kabupaten Sumbawa, Nusa Tenggara Bar. 84382","Jl. Lintas Sumbawa - Bima, Langam, Kec. Lopok, Kabupaten Sumbawa",NUSA TENGGARA BARAT,84382.0,Indonesia,,,,-86.142.483,1.175.638.559,https://maps.google.com/?cid=0x0:0xf3a4b1061445045a,
perumahan,Pembangunan Perumahan,Rumah Sudarmin,"9GXR+6VR, Jl. Lintas Sumbawa - Bima, Lopok, Kec. Lopok, Kabupaten Sumbawa, Nusa Tenggara Bar. 84382","Jl. Lintas Sumbawa - Bima, Lopok, Kec. Lopok, Kabupaten Sumbawa",NUSA TENGGARA BARAT,84382.0,Indonesia,,,,-8.602.078,1.175.420.531,https://maps.google.com/?cid=0x0:0x3239d97d0d544084,
perumahan,Komplek perumahan,Rudi innawan,"Jl. Lintas Sumbawa - Bima No.10, Lopok, Kec. Lopok, Kabupaten Sumbawa, Nusa Tenggara Bar. 84382","Lopok, Kec. Lopok, Kabupaten Sumbawa",NUSA TENGGARA BARAT,84382.0,Indonesia,,,,-8.596.761,117.539.764,https://maps.google.com/?cid=0x0:0xdcc13fbade409d,
perumahan,perumahan,Rumah m jauk m nur,"9GQP+FR6, Lopok Beru, Kec. Lopok, Kabupaten Sumbawa, Nusa Tenggara Bar. 84382","Lopok Beru, Kec. Lopok, Kabupaten Sumbawa",NUSA TENGGARA BARAT,84382.0,Indonesia,,,,-86.113.424,1.175.370.279,https://maps.google.com/?cid=0x0:0xee3c34a240fffdb6,
perumahan,perumahan,Rumah Nindy,"CG3R+F5C, Dusun bagetango, Lopok, Kec. Lopok, Kabupaten Sumbawa, Nusa Tenggara Bar. 84382","Dusun bagetango, Lopok, Kec. Lopok, Kabupaten Sumbawa",NUSA TENGGARA BARAT,84382.0,Indonesia,,,,-85.963.204,1.175.404.045,https://maps.google.com/?cid=0x0:0xc8b938ef7f236591,
perumahan,Perhimpunan Pengembang Perumahan,Rumah raswati,"CH58+3V8, Langam, Kec. Lopok, Kabupaten Sumbawa, Nusa Tenggara Bar. 84382","Langam, Kec. Lopok, Kabupaten Sumbawa",NUSA TENGGARA BARAT,84382.0,Indonesia,,,,-85.923.298,1.175.671.944,https://maps.google.com/?cid=0x0:0xcc44a1ff783e54b7,
perumahan,perumahan,Fendy homestay,"9H5H+JCJ, Berora, Kec. Lopok, Kabupaten Sumbawa, Nusa Tenggara Bar. 84382","Berora, Kec. Lopok, Kabupaten Sumbawa",NUSA TENGGARA BARAT,84382.0,Indonesia,,,,-86.409.007,1.175.785.211,https://maps.google.com/?cid=0x0:0x548fc8a0fda54d72,
perumahan,Komplek perumahan,Pungkit Bru,"8GVG+46, Pungkit, Kec. Lopok, Kabupaten Sumbawa, Nusa Tenggara Bar.","Kabupaten Sumbawa, Nusa Tenggara Bar.",NUSA TENGGARA BARAT,,Indonesia,,,,-86.571.095,1.175.255.471,https://maps.google.com/?cid=0x0:0x986e3801fd43503,
perumahan,Pembangunan Perumahan,Rumah irvan,"9HC9+F5M, Berora, Kec. Lopok, Kabupaten Sumbawa, Nusa Tenggara Bar. 84382","Berora, Kec. Lopok, Kabupaten Sumbawa",NUSA TENGGARA BARAT,84382.0,Indonesia,,,,-86.282.667,1.175.682.067,https://maps.google.com/?cid=0x0:0x142695678c031c1e,
perumahan,Pembangunan Perumahan,Rumah Nydia Cantik,"9HP6+WG4, Langam, Kec. Lopok, Kabupaten Sumbawa, Nusa Tenggara Bar.","Kabupaten Sumbawa, Nusa Tenggara Bar.",NUSA TENGGARA BARAT,,Indonesia,,,,-8.612.821,117.561.609,https://maps.google.com/?cid=0x0:0x1b45232f8dd1eab6,
perumahan,Komplek perumahan,Rumah Rafqa Pranata,"9GRX+3H5, Lopok, Kec. Lopok, Kabupaten Sumbawa, Nusa Tenggara Bar. 84382","Lopok, Kec. Lopok, Kabupaten Sumbawa",NUSA TENGGARA BARAT,84382.0,Indonesia,,,,-86.098.732,1.175.489.861,https://maps.google.com/?cid=0x0:0xa306d94cb15c58e2,
perumahan,Perhimpunan Pengembang Perumahan,Maronge City,"8PH4+V72, Labuhan Sangoro, Kec. Maronge, Kabupaten Sumbawa, Nusa Tenggara Bar. 84383","Labuhan Sangoro, Kec. Maronge, Kabupaten Sumbawa",NUSA TENGGARA BARAT,84383.0,Indonesia,,,,-86.698.681,117.705.457,https://maps.google.com/?cid=0x0:0x713efc6d4d5f5c44,
perumahan,Perhimpunan Pengembang Perumahan,Maronge,"7MPV+93C, Maronge, Kec. Maronge, Kabupaten Sumbawa, Nusa Tenggara Bar. 84383","Maronge, Kec. Maronge, Kabupaten Sumbawa",NUSA TENGGARA BARAT,84383.0,Indonesia,,,,-87.140.502,117.692.648,https://maps.google.com/?cid=0x0:0xb4998da95f93b812,
perumahan,Kantor Pemerintah,desa.maronge,"8PH4+47P, Jl. Lintas Sumbawa - Bima, Labuhan Sangoro, Kec. Maronge, Kabupaten Sumbawa, Nusa Tenggara Bar. 84383","Jl. Lintas Sumbawa - Bima, Labuhan Sangoro, Kec. Maronge, Kabupaten Sumbawa",NUSA TENGGARA BARAT,84383.0,Indonesia,,,,-86.729.181,1.177.054.901,https://maps.google.com/?cid=0x0:0x7ea65fbff2521767,
perumahan,Komplek perumahan,Kaharudin/hadijah,"8MJV+65P, Simu, Kec. Maronge, Kabupaten Sumbawa, Nusa Tenggara Bar. 84383","Simu, Kec. Maronge, Kabupaten Sumbawa",NUSA TENGGARA BARAT,84383.0,Indonesia,,,,-8.670.034,117.691.634,https://maps.google.com/?cid=0x0:0x7c41d7c6d3daa0f2,
perumahan,perumahan,Muhammad Yusuf,"8PJ7+66W, Jl. Lintas Sumbawa - Bima, Labuhan Sangoro, Kec. Maronge, Kabupaten Sumbawa, Nusa Tenggara Bar. 84383","Jl. Lintas Sumbawa - Bima, Labuhan Sangoro, Kec. Maronge, Kabupaten Sumbawa",NUSA TENGGARA BARAT,84383.0,Indonesia,,,,-86.784.516,1.177.063.078,https://maps.google.com/?cid=0x0:0x27a27af97f6977b8,
perumahan,perumahan,Nusa Tenggara Bar. 84381,"Kec. Moyo Utara, Kabupaten Sumbawa, Nusa Tenggara Bar.","Kabupaten Sumbawa, Nusa Tenggara Bar.",NUSA TENGGARA BARAT,,Indonesia,,,,-85.011.362,1.175.261.025,https://maps.google.com/?cid=0x0:0x87caee70964ef17f,
perumahan,Komplek perumahan,Perumahan Puri Citra Samawa,"FFCC+JVR, Jl. Raya Moyo Hilir No.KM, RW.7, Moyo, Kec. Moyohilir, Kabupaten Sumbawa, Nusa Tenggara Bar. 84316","Jl. Raya Moyo Hilir No.KM, RW.7, Moyo, Kec. Moyohilir, Kabupaten Sumbawa",NUSA TENGGARA BARAT,84316.0,Indonesia,,,,-85.281.824,1.174.727.116,https://maps.google.com/?cid=0x0:0xe210ff360d7123c3,
perumahan,Komplek perumahan,GRIYA GALESA,"FFC7+9HM, Jl. Raya Moyo Hilir, Moyo, Kec. Moyohilir, Kabupaten Sumbawa, Nusa Tenggara Bar. 84316","Jl. Raya Moyo Hilir, Moyo, Kec. Moyohilir, Kabupaten Sumbawa",NUSA TENGGARA BARAT,84316.0,Indonesia,,,,-85.287.971,1.174.632.162,https://maps.google.com/?cid=0x0:0x4b5d84e88fc4b682,
perumahan,Komplek perumahan,Perumahan graha family,"FF4F+MH8, Jl. Lintas Sumbawa - Bima, Moyo, Kec. Moyohilir, Kabupaten Sumbawa, Nusa Tenggara Bar.","Kabupaten Sumbawa, Nusa Tenggara Bar.",NUSA TENGGARA BARAT,,Indonesia,,,,-85.433.347,1.174.739.566,https://maps.google.com/?cid=0x0:0xf77f5fe750b4178d,
perumahan,Komplek perumahan,Queena,"FF3M+GQX, Moyo, Kec. Moyohilir, Kabupaten Sumbawa, Nusa Tenggara Bar. 84381","Moyo, Kec. Moyohilir, Kabupaten Sumbawa",NUSA TENGGARA BARAT,84381.0,Indonesia,,,,-8.546.146,1.174.844.896,https://maps.google.com/?cid=0x0:0x108872c721e794c6,
perumahan,Rumah wisata,Rumah Tahfizh Minhajul Huffazh,"Rt10 Rw 04 Moyo, Atas, Moyo Mekar, Kec. Moyohilir, Kabupaten Sumbawa, Nusa Tenggara Bar. 84381","Atas, Moyo Mekar, Kec. Moyohilir, Kabupaten Sumbawa",NUSA TENGGARA BARAT,84381.0,Indonesia,,,,-85.295.657,1.174.887.254,https://maps.google.com/?cid=0x0:0x594a551f7524b7a8,
perumahan,Kantor Perusahaan,Syakila residence moyo,"FC9X+HPQ, Jl. Gn. Galesa, Moyo, Kec. Moyohilir, Kabupaten Sumbawa, Nusa Tenggara Bar. 84316","Jl. Gn. Galesa, Moyo, Kec. Moyohilir, Kabupaten Sumbawa",NUSA TENGGARA BARAT,84316.0,Indonesia,,,,-85.310.349,1.174.493.707,https://maps.google.com/?cid=0x0:0xfcf2bd4495c1dcc3,
perumahan,Komplek perumahan,Perumahan Grand Faesal,"FFCC+JGX, Jl. Raya Moyo Hilir, Moyo, Kec. Moyohilir, Kabupaten Sumbawa, Nusa Tenggara Bar.","Kabupaten Sumbawa, Nusa Tenggara Bar.",NUSA TENGGARA BARAT,,Indonesia,,,,-85.283.828,1.174.713.478,https://maps.google.com/?cid=0x0:0xf730c9d8fd21388,
perumahan,Komplek perumahan,Perumahan Griya Mercy SALVA PROPERTI,"FFGR+87J, Jln Raya Jurusan, Moyo, Kec. Moyohilir, Sumbawa Besar, Nusa Tenggara Bar.","Sumbawa Besar, Nusa Tenggara Bar.",NUSA TENGGARA BARAT,,Indonesia,,,,-85.241.591,1.174.906.413,https://maps.google.com/?cid=0x0:0xa65d1275c4a51617,
perumahan,Komplek perumahan,Perumahan Griya Metro Recyden,"FF96+W2W, Jl. Raya Moyo Hilir, Moyo, Kec. Moyohilir, Kabupaten Sumbawa, Nusa Tenggara Bar. 84316","Jl. Raya Moyo Hilir, Moyo, Kec. Moyohilir, Kabupaten Sumbawa",NUSA TENGGARA BARAT,84316.0,Indonesia,,,,-8.529.893,117.460.089,https://maps.google.com/?cid=0x0:0x9a91da6cecc11d0f,
perumahan,Komplek perumahan,rumah,"FFGR+M54, Moyo, Kec. Moyohilir, Kabupaten Sumbawa, Nusa Tenggara Bar. 84381","Moyo, Kec. Moyohilir, Kabupaten Sumbawa",NUSA TENGGARA BARAT,84381.0,Indonesia,,,,-85.234.434,1.174.903.966,https://maps.google.com/?cid=0x0:0xbabe3c26cf86cbdc,
perumahan,Pembangunan Perumahan,Rumah mbah ci,"FF76+2JV, Jl. Lintas Sumbawa - Bima, Moyo, Kec. Moyohilir, Kabupaten Sumbawa, Nusa Tenggara Bar. 84316","Jl. Lintas Sumbawa - Bima, Moyo, Kec. Moyohilir, Kabupaten Sumbawa",NUSA TENGGARA BARAT,84316.0,Indonesia,,,,-85.373.896,1.174.615.391,https://maps.google.com/?cid=0x0:0x185ddbb61d1a3e53,
perumahan,Komplek perumahan,Rumah Erlya,"GFCH+CFP, Sebewe, Kec. Moyo Utara, Kabupaten Sumbawa, Nusa Tenggara Bar. 84381","Sebewe, Kec. Moyo Utara, Kabupaten Sumbawa",NUSA TENGGARA BARAT,84381.0,Indonesia,,,,-84.789.167,1.174.787.066,https://maps.google.com/?cid=0x0:0xbacd051104893fa1,
perumahan,Otoritas Perumahan,Perumahan Graha Manasa,"Jl. Lintas Sumbawa - Bima, Moyo, Kec. Moyohilir, Kabupaten Sumbawa, Nusa Tenggara Bar.","Kabupaten Sumbawa, Nusa Tenggara Bar.",NUSA TENGGARA BARAT,,Indonesia,,,,-8.530.627,1.174.643.287,https://maps.google.com/?cid=0x0:0x37142f1ee7109ca7,
perumahan,Pembangunan Perumahan,Rumah M. Subhani,"FFFR+8PG, Moyo, Kec. Moyohilir, Kabupaten Sumbawa, Nusa Tenggara Bar. 84381","Moyo, Kec. Moyohilir, Kabupaten Sumbawa",NUSA TENGGARA BARAT,84381.0,Indonesia,,,,-8.526.699,1.174.918.183,https://maps.google.com/?cid=0x0:0x57a3004e30e67172,
perumahan,perumahan,MOYO HILIR DESA SERADING,"FF2M+PPV, Serading, Kec. Moyohilir, Kabupaten Sumbawa, Nusa Tenggara Bar.","Kabupaten Sumbawa, Nusa Tenggara Bar.",NUSA TENGGARA BARAT,,Indonesia,,,,-85.481.473,117.484.296,https://maps.google.com/?cid=0x0:0x9fc87879640bfc42,
perumahan,Komplek perumahan,A18,"FFC6+866, Jl. Lintas Sumbawa - Bima, Moyo, Kec. Moyohilir, Kabupaten Sumbawa, Nusa Tenggara Bar.","Kabupaten Sumbawa, Nusa Tenggara Bar.",NUSA TENGGARA BARAT,,Indonesia,82341971748,,,-85.292.219,1.174.605.311,https://maps.google.com/?cid=0x0:0x86d31b42d00e0767,
perumahan,Komplek perumahan,Gang belakang masjid,"FFFQ+MRF, Gg. Paroso III, Moyo, Kec. Moyohilir, Kabupaten Sumbawa, Nusa Tenggara Bar. 84381","Gg. Paroso III, Moyo, Kec. Moyohilir, Kabupaten Sumbawa",NUSA TENGGARA BARAT,84381.0,Indonesia,,,,-85.264.803,1.174.894.946,https://maps.google.com/?cid=0x0:0xf6e3e2676a27c958,
perumahan,Pusat Kesehatan Masyarakat,Puskesmas Moyo Hilir,"FFGR+V42, Moyo, Kec. Moyohilir, Kabupaten Sumbawa, Nusa Tenggara Bar. 84381","Moyo, Kec. Moyohilir, Kabupaten Sumbawa",NUSA TENGGARA BARAT,84381.0,Indonesia,,,,-85.228.585,1.174.902.634,https://maps.google.com/?cid=0x0:0xe52972e395c22823,
perumahan,Pembangunan Perumahan,Rumah tempat tinggal Bpk. Mulyadi,"FF76+VPP, Jl. Lintas Sumbawa - Bima, Moyo, Kec. Moyohilir, Kabupaten Sumbawa, Nusa Tenggara Bar. 84316","Jl. Lintas Sumbawa - Bima, Moyo, Kec. Moyohilir, Kabupaten Sumbawa",NUSA TENGGARA BARAT,84316.0,Indonesia,,,,-8.535.628,1.174.621.648,https://maps.google.com/?cid=0x0:0x96d381369f37655a,
perumahan,Pembangunan Perumahan,Komplek Perumahan GRIYA MANASA PRATAMA,"FFC7+5Q7, Moyo, Kec. Moyohilir, Kabupaten Sumbawa, Nusa Tenggara Bar. 84316","Moyo, Kec. Moyohilir, Kabupaten Sumbawa",NUSA TENGGARA BARAT,84316.0,Indonesia,,,,-85.295.773,1.174.644.113,https://maps.google.com/?cid=0x0:0x8d777c9975850bc0,
perumahan,Komplek perumahan,Leseng Moyo hulu,"CF9G+6FG, Leseng, Kec. Moyo Hulu, Kabupaten Sumbawa, Nusa Tenggara Bar.","Kabupaten Sumbawa, Nusa Tenggara Bar.",NUSA TENGGARA BARAT,,Indonesia,,,,-85.819.375,1.174.761.934,https://maps.google.com/?cid=0x0:0x5d6968eb5c155480,
perumahan,Perumahan,PERUMAHAN HAYATU SA‚ÄôIDA RESIDENCE,"FFC9+FFF, Jl. Lintas Sumbawa - Bima, Moyo, Kec. Moyohilir, Kabupaten Sumbawa, Nusa Tenggara Bar. 84316","Jl. Lintas Sumbawa - Bima, Moyo, Kec. Moyohilir, Kabupaten Sumbawa",NUSA TENGGARA BARAT,84316.0,Indonesia,,,,-8.528.801,1.174.686.829,https://maps.google.com/?cid=0x0:0xc370355b0013111e,
perumahan,Komplek perumahan,Ainunuk marchel,"CGF3+GCX, Serading, Kec. Moyohilir, Kabupaten Sumbawa, Nusa Tenggara Bar. 84381","Serading, Kec. Moyohilir, Kabupaten Sumbawa",NUSA TENGGARA BARAT,84381.0,Indonesia,,,,-8.576.329,1.175.042.316,https://maps.google.com/?cid=0x0:0xc3fbef8401d76f8b,
perumahan,Komplek perumahan,Tizar's House,"GFCM+W8W, Jl. Lintas Pungkit, Pungkit, Kec. Moyo Utara, Kabupaten Sumbawa, Nusa Tenggara Bar. 84381","Jl. Lintas Pungkit, Pungkit, Kec. Moyo Utara, Kabupaten Sumbawa",NUSA TENGGARA BARAT,84381.0,Indonesia,,,,-84.784.213,1.174.828.131,https://maps.google.com/?cid=0x0:0xebe87937f49e3bf9,
perumahan,Pembangunan Perumahan,Bale nyabim,"GF2H+2CG, Poto, Kec. Moyohilir, Kabupaten Sumbawa, Nusa Tenggara Bar. 84381","Poto, Kec. Moyohilir, Kabupaten Sumbawa",NUSA TENGGARA BARAT,84381.0,Indonesia,,,,-8.499.929,1.174.785.813,https://maps.google.com/?cid=0x0:0x4527712680da194c,
perumahan,Komplek perumahan,Rumah pak Agus marsudi,"FFWJ+CF3, Poto, Kec. Moyohilir, Kabupaten Sumbawa, Nusa Tenggara Bar.","Kabupaten Sumbawa, Nusa Tenggara Bar.",NUSA TENGGARA BARAT,,Indonesia,,,,-8.504.293,117.481.969,https://maps.google.com/?cid=0x0:0x20d63fb2b5df4df,
perumahan,perumahan,Nusa Tenggara Bar. 84371,"Kec. Moyo Hulu, Kabupaten Sumbawa, Nusa Tenggara Bar.","Kabupaten Sumbawa, Nusa Tenggara Bar.",NUSA TENGGARA BARAT,,Indonesia,,,,-8.627.595,1.174.321.452,https://maps.google.com/?cid=0x0:0xccafdd5f53eea7b3,
perumahan,Komplek perumahan,Leseng Moyo hulu,"CF9G+6FG, Leseng, Kec. Moyo Hulu, Kabupaten Sumbawa, Nusa Tenggara Bar.","Kabupaten Sumbawa, Nusa Tenggara Bar.",NUSA TENGGARA BARAT,,Indonesia,,,,-85.819.375,1.174.761.934,https://maps.google.com/?cid=0x0:0x5d6968eb5c155480,
perumahan,Perhimpunan Pengembang Perumahan,Rumah,"89V7+X2J, Sempe, Kec. Moyo Hulu, Kabupaten Sumbawa, Nusa Tenggara Bar. 84371","Sempe, Kec. Moyo Hulu, Kabupaten Sumbawa",NUSA TENGGARA BARAT,84371.0,Indonesia,,,,-8.655.347,1.173.619.313,https://maps.google.com/?cid=0x0:0xaa0ded2381f7d8a8,
perumahan,Komplek perumahan,Rumah Yuris,"9F92+J62, Jl. Sumbawa-Lunyuk, Marga Karya, Kec. Moyo Hulu, Kabupaten Sumbawa, Nusa Tenggara Bar. 84371","Jl. Sumbawa-Lunyuk, Marga Karya, Kec. Moyo Hulu, Kabupaten Sumbawa",NUSA TENGGARA BARAT,84371.0,Indonesia,,,,-86.309.763,1.174.505.279,https://maps.google.com/?cid=0x0:0x6b86d774f83e0a08,
perumahan,Komplek perumahan,Istana Raja Tongo,"BTN baiti jannati, B3 no 7, Sempe, Kec. Moyo Hulu, Kabupaten Sumbawa, Nusa Tenggara Bar. 84371","B3 no 7, Sempe, Kec. Moyo Hulu, Kabupaten Sumbawa",NUSA TENGGARA BARAT,84371.0,Indonesia,,,,-86.529.334,1.173.616.476,https://maps.google.com/?cid=0x0:0x274e3f15a49c17fe,
perumahan,Komplek perumahan,Rumah isty,"9C47+CRR, Semamung, Kec. Moyo Hulu, Kabupaten Sumbawa, Nusa Tenggara Bar. 84371","Semamung, Kec. Moyo Hulu, Kabupaten Sumbawa",NUSA TENGGARA BARAT,84371.0,Indonesia,,,,-86.438.821,1.174.145.232,https://maps.google.com/?cid=0x0:0x716fffe728af8826,
perumahan,Komplek perumahan,Perumahan lasdacim,"Rumah sakit provinsi ntb, Sempe, Kec. Moyo Hulu, Kabupaten Sumbawa, Nusa Tenggara Bar.","Kabupaten Sumbawa, Nusa Tenggara Bar.",NUSA TENGGARA BARAT,,Indonesia,,,,-86.529.334,1.173.616.476,https://maps.google.com/?cid=0x0:0xa2c158db07358fbd,
perumahan,Komplek perumahan,Mataram,"89W6+RMC, Sempe, Kec. Moyo Hulu, Kabupaten Sumbawa, Nusa Tenggara Bar. 84371","Sempe, Kec. Moyo Hulu, Kabupaten Sumbawa",NUSA TENGGARA BARAT,84371.0,Indonesia,,,,-86.529.334,1.173.616.476,https://maps.google.com/?cid=0x0:0x262c9611aabc16c4,
perumahan,Perhimpunan Pengembang Perumahan,RUMAH DEFI JUNIATI,"9CJX+VWG, Mokong, Kec. Moyo Hulu, Kabupaten Sumbawa, Nusa Tenggara Bar. 84371","Mokong, Kec. Moyo Hulu, Kabupaten Sumbawa",NUSA TENGGARA BARAT,84371.0,Indonesia,,,,-86.171.701,1.174.495.279,https://maps.google.com/?cid=0x0:0xb69920b101b1940,
perumahan,Pondok pedesaan,Nusa tenggara Barat,"89W6+RMC, Sempe, Kec. Moyo Hulu, Kabupaten Sumbawa, Nusa Tenggara Bar.","Kabupaten Sumbawa, Nusa Tenggara Bar.",NUSA TENGGARA BARAT,,Indonesia,,,,-86.529.334,1.173.616.476,https://maps.google.com/?cid=0x0:0x342702e2207a3127,
perumahan,Komplek perumahan,Rumah fatin dan yumna,"CC3M+459, Pernek, Kec. Moyo Hulu, Kabupaten Sumbawa, Nusa Tenggara Bar. 84371","Pernek, Kec. Moyo Hulu, Kabupaten Sumbawa",NUSA TENGGARA BARAT,84371.0,Indonesia,,,,-85.974.955,117.434.038,https://maps.google.com/?cid=0x0:0xb07efa1da7544aff,
perumahan,Pembangunan Perumahan,Vanzz,"CF87+735, Batubulan, Kec. Moyo Hulu, Kabupaten Sumbawa, Nusa Tenggara Bar.","Kabupaten Sumbawa, Nusa Tenggara Bar.",NUSA TENGGARA BARAT,,Indonesia,,,,-85.843.625,1.174.627.344,https://maps.google.com/?cid=0x0:0x1d86a4ffc7e48e05,
perumahan,Tukang Kebun,Kebun saif,"Jl. Batu Bulan No.339x, Batubulan, Kec. Moyo Hulu, Kabupaten Sumbawa, Nusa Tenggara Bar. 84371","Batubulan, Kec. Moyo Hulu, Kabupaten Sumbawa",NUSA TENGGARA BARAT,84371.0,Indonesia,,,,-85.990.308,1.174.691.955,https://maps.google.com/?cid=0x0:0x7861d45df48e3208,
perumahan,Komplek perumahan,Rumah Renot,"8CXH+M9Q, Semamung, Kec. Moyo Hulu, Kabupaten Sumbawa, Nusa Tenggara Bar. 84371","Semamung, Kec. Moyo Hulu, Kabupaten Sumbawa",NUSA TENGGARA BARAT,84371.0,Indonesia,,,,-86.507.894,1.174.284.977,https://maps.google.com/?cid=0x0:0x54dbab969dfefa05,
perumahan,Komplek perumahan,Rumah Cef,"8FMH+CHQ, Batutering, Kec. Moyo Hulu, Kabupaten Sumbawa, Nusa Tenggara Bar. 84371","Batutering, Kec. Moyo Hulu, Kabupaten Sumbawa",NUSA TENGGARA BARAT,84371.0,Indonesia,,,,-86.662.364,1.174.789.527,https://maps.google.com/?cid=0x0:0x58a6217533b90a91,
perumahan,Komplek perumahan,Perumahan Dea Mas Garden,"CCM9+6RG, Jalan Raya Olat, Maras, Pernek, Moyo Hulu, Sumbawa Regency, West Nusa Tenggara 84316","Jalan Raya Olat, Maras, Pernek, Moyo Hulu, Sumbawa Regency",NUSA TENGGARA BARAT,84316.0,Indonesia,,,,-85.669.468,1.174.195.743,https://maps.google.com/?cid=0x0:0x7bfc8c37e4e0f2b2,
perumahan,Pembangunan Perumahan,GL(Green Lucky),"komplek kampus UTS, Jln olat maras, Dusun Batu Alang, Pernek, Kec. Moyo Hulu, Kabupaten Sumbawa, Nusa Tenggara Bar. 84371","Jln olat maras, Dusun Batu Alang, Pernek, Kec. Moyo Hulu, Kabupaten Sumbawa",NUSA TENGGARA BARAT,84371.0,Indonesia,85333601230,,,-85.726.692,117.443.774,https://maps.google.com/?cid=0x0:0x6bbc7b92673f7a8a,
perumahan,Perhimpunan Pengembang Perumahan,Monta,"89W6+RMC, Sempe, Kec. Moyo Hulu, Kabupaten Sumbawa, Nusa Tenggara Bar. 84371","Sempe, Kec. Moyo Hulu, Kabupaten Sumbawa",NUSA TENGGARA BARAT,84371.0,Indonesia,,,,-86.529.334,1.173.616.476,https://maps.google.com/?cid=0x0:0x68cdc47bf1b1dcbd,
perumahan,Toko bahan makanan,Satria,"Rt 04 Rw 04 dusun melung, desa, Batutering, Kec. Moyo Hulu, Kabupaten Sumbawa, Nusa Tenggara Bar.","Kabupaten Sumbawa, Nusa Tenggara Bar.",NUSA TENGGARA BARAT,,Indonesia,,,,-86.631.001,1.174.885.832,https://maps.google.com/?cid=0x0:0x557458099dfae224,
perumahan,Komplek perumahan,REMON,"9F4V+78M, Lito, Kec. Moyo Hulu, Kabupaten Sumbawa, Nusa Tenggara Bar. 84371","Lito, Kec. Moyo Hulu, Kabupaten Sumbawa",NUSA TENGGARA BARAT,84371.0,Indonesia,,,,-86.432.731,1.174.940.046,https://maps.google.com/?cid=0x0:0x6b2ecb48b2bdf5fb,
perumahan,Tujuan Wisata,Desa pernek,"CC8G+MGJ, Pernek, Kec. Moyo Hulu, Kabupaten Sumbawa, Nusa Tenggara Bar. 84371","Pernek, Kec. Moyo Hulu, Kabupaten Sumbawa",NUSA TENGGARA BARAT,84371.0,Indonesia,,,,-85.832.786,1.174.262.714,https://maps.google.com/?cid=0x0:0xb0ff545fdf73c515,
perumahan,perumahan,Markas star boy kecamatan,"CF49+GRP, Batubulan, Kec. Moyo Hulu, Kabupaten Sumbawa, Nusa Tenggara Bar.","Kabupaten Sumbawa, Nusa Tenggara Bar.",NUSA TENGGARA BARAT,,Indonesia,,,,-85.936.729,1.174.695.776,https://maps.google.com/?cid=0x0:0x26d372b69f49f015,
perumahan,perumahan,Rupit harin,"9FH6+VJ2, Maman, Kec. Moyo Hulu, Kabupaten Sumbawa, Nusa Tenggara Bar. 84371","Maman, Kec. Moyo Hulu, Kabupaten Sumbawa",NUSA TENGGARA BARAT,84371.0,Indonesia,,,,-86.203.589,1.174.615.118,https://maps.google.com/?cid=0x0:0x2c38683d1268238,
perumahan,perumahan,Kec. Moyo Utara,"Kabupaten Sumbawa, Nusa Tenggara Bar.","Kabupaten Sumbawa, Nusa Tenggara Bar.",NUSA TENGGARA BARAT,,Indonesia,,,,-84.725.136,1.174.780.541,https://maps.google.com/?cid=0x0:0xcc581bdcf8ad2cb,
perumahan,Komplek perumahan,Rumah Erlya,"GFCH+CFP, Sebewe, Kec. Moyo Utara, Kabupaten Sumbawa, Nusa Tenggara Bar. 84381","Sebewe, Kec. Moyo Utara, Kabupaten Sumbawa",NUSA TENGGARA BARAT,84381.0,Indonesia,,,,-84.789.167,1.174.787.066,https://maps.google.com/?cid=0x0:0xbacd051104893fa1,
perumahan,Komplek perumahan,Rumah Dwi,"GFVG+2FP, Unnamed Road, Baru Tahan, Kec. Moyo Utara, Kabupaten Sumbawa, Nusa Tenggara Bar. 84381","Unnamed Road, Baru Tahan, Kec. Moyo Utara, Kabupaten Sumbawa",NUSA TENGGARA BARAT,84381.0,Indonesia,,,,-84.574.084,1.174.762.035,https://maps.google.com/?cid=0x0:0xc3dfdb9b13f29545,
perumahan,Komplek perumahan,Rumah ikha,"GF5G+RM2, Jl. Lintas Sebewe, Sebewe, Kec. Moyo Utara, Kabupaten Sumbawa, Nusa Tenggara Bar. 84381","Jl. Lintas Sebewe, Sebewe, Kec. Moyo Utara, Kabupaten Sumbawa",NUSA TENGGARA BARAT,84381.0,Indonesia,,,,-84.904.754,1.174.766.343,https://maps.google.com/?cid=0x0:0xd3223c4121d7acd0,
perumahan,perumahan,Penyaring,"GFP9+48, Penyaring, Kec. Moyo Utara, Kabupaten Sumbawa, Nusa Tenggara Bar.","Kabupaten Sumbawa, Nusa Tenggara Bar.",NUSA TENGGARA BARAT,,Indonesia,,,,-846.464,1.174.683.033,https://maps.google.com/?cid=0x0:0x921039a5c3dc47b,
perumahan,Perhimpunan Pengembang Perumahan,RUMAH RAISYATHINAJHA,"GFVG+4HJ, Baru Tahan, Kec. Moyo Utara, Kabupaten Sumbawa, Nusa Tenggara Bar. 84381","Baru Tahan, Kec. Moyo Utara, Kabupaten Sumbawa",NUSA TENGGARA BARAT,84381.0,Indonesia,,,,-84.576.173,1.174.774.986,https://maps.google.com/?cid=0x0:0xcced66ce732cb471,
perumahan,Komplek perumahan,Nurmang Home,"GFCH+F6F, Sebewe, Kec. Moyo Utara, Kabupaten Sumbawa, Nusa Tenggara Bar.","Kabupaten Sumbawa, Nusa Tenggara Bar.",NUSA TENGGARA BARAT,,Indonesia,,,,-8.478.801,1.174.780.612,https://maps.google.com/?cid=0x0:0xf3d858631697ddee,
perumahan,Pembangunan Perumahan,Muh Salahuddin,"GFCG+8VH, Sebewe, Kec. Moyo Utara, Kabupaten Sumbawa, Nusa Tenggara Bar.","Kabupaten Sumbawa, Nusa Tenggara Bar.",NUSA TENGGARA BARAT,,Indonesia,,,,-84.791.989,1.174.772.298,https://maps.google.com/?cid=0x0:0xee00760a86e7b13,
perumahan,Komplek perumahan,Rumah ghafi,"GFF7+QX, Penyaring, Kec. Moyo Utara, Kabupaten Sumbawa, Nusa Tenggara Bar. 84311","Penyaring, Kec. Moyo Utara, Kabupaten Sumbawa",NUSA TENGGARA BARAT,84311.0,Indonesia,,,,-84.754.699,117.464.973,https://maps.google.com/?cid=0x0:0x64eb13ff10f86861,
perumahan,Komplek perumahan,Rumah itzz me,"GFGH+X6X, Baru Tahan, Kec. Moyo Utara, Kabupaten Sumbawa, Nusa Tenggara Bar.","Kabupaten Sumbawa, Nusa Tenggara Bar.",NUSA TENGGARA BARAT,,Indonesia,,,,-84.725.162,1.174.781.068,https://maps.google.com/?cid=0x0:0x4c1aee72061debd4,
perumahan,Komplek perumahan,Rumah gege patura,"GFRP+H8W, Kukin, Kec. Moyo Utara, Kabupaten Sumbawa, Nusa Tenggara Bar. 84381","Kukin, Kec. Moyo Utara, Kabupaten Sumbawa",NUSA TENGGARA BARAT,84381.0,Indonesia,,,,-84.585.111,1.174.858.252,https://maps.google.com/?cid=0x0:0xd182e66062147381,
perumahan,Komplek perumahan,Rumah Bautasah,"HHV2+G56, Pungkit, Kec. Moyo Utara, Kabupaten Sumbawa, Nusa Tenggara Bar. 84381","Pungkit, Kec. Moyo Utara, Kabupaten Sumbawa",NUSA TENGGARA BARAT,84381.0,Indonesia,,,,-84.059.914,1.175.515.124,https://maps.google.com/?cid=0x0:0xf85a5306389c8cf4,
perumahan,Komplek perumahan,Alimuddin,"GFQH+JVJ, Kukin, Kec. Moyo Utara, Kabupaten Sumbawa, Nusa Tenggara Bar. 84381","Kukin, Kec. Moyo Utara, Kabupaten Sumbawa",NUSA TENGGARA BARAT,84381.0,Indonesia,,,,-84.609.165,1.174.796.462,https://maps.google.com/?cid=0x0:0xf8d619cb289d77f7,
perumahan,Komplek perumahan,Rumah pia,"GFH7+XXC, Gg. Kihajar Dewantara, Penyaring, Kec. Moyo Utara, Kabupaten Sumbawa, Nusa Tenggara Bar. 84318","Gg. Kihajar Dewantara, Penyaring, Kec. Moyo Utara, Kabupaten Sumbawa",NUSA TENGGARA BARAT,84318.0,Indonesia,,,,-84.700.328,1.174.649.053,https://maps.google.com/?cid=0x0:0xf118abac37c6a62d,
perumahan,Komplek perumahan,Dusun Tahan,"GFVG+2FP, Baru Tahan, Kec. Moyo Utara, Kabupaten Sumbawa, Nusa Tenggara Bar. 84381","Baru Tahan, Kec. Moyo Utara, Kabupaten Sumbawa",NUSA TENGGARA BARAT,84381.0,Indonesia,,,,-84.574.231,1.174.762.637,https://maps.google.com/?cid=0x0:0xa8cc51916ff10622,
perumahan,Komplek perumahan,SYAHRILMUDDIN,"GFCJ+JH8, Jl. Lintas Pungkit, Pungkit, Kec. Moyo Utara, Kabupaten Sumbawa, Nusa Tenggara Bar. 84381","Jl. Lintas Pungkit, Pungkit, Kec. Moyo Utara, Kabupaten Sumbawa",NUSA TENGGARA BARAT,84381.0,Indonesia,,,,-84.783.443,117.481.524,https://maps.google.com/?cid=0x0:0xa21483c9d1f59cdc,
perumahan,Komplek perumahan,Rumah lek ibut,"Jl. Undru No.1, Sebewe, Kec. Moyo Utara, Kabupaten Sumbawa, Nusa Tenggara Bar. 84381","Sebewe, Kec. Moyo Utara, Kabupaten Sumbawa",NUSA TENGGARA BARAT,84381.0,Indonesia,,,,-84.795.139,1.174.801.001,https://maps.google.com/?cid=0x0:0x6e2615765f145fd4,
perumahan,Pembangunan Perumahan,Rumah syahril,"GFCJ+JH8, Jl. Lintas Pungkit, Pungkit, Kec. Moyo Utara, Kabupaten Sumbawa, Nusa Tenggara Bar. 84381","Jl. Lintas Pungkit, Pungkit, Kec. Moyo Utara, Kabupaten Sumbawa",NUSA TENGGARA BARAT,84381.0,Indonesia,,,,-84.783.334,1.174.815.035,https://maps.google.com/?cid=0x0:0xbbc6879ccb31f14a,
perumahan,Pembangunan Perumahan,Pungkit tengah,"GFCJ+VF6, Pungkit, Kec. Moyo Utara, Kabupaten Sumbawa, Nusa Tenggara Bar.","Kabupaten Sumbawa, Nusa Tenggara Bar.",NUSA TENGGARA BARAT,,Indonesia,,,,-84.778.329,1.174.811.348,https://maps.google.com/?cid=0x0:0xdc2c72fd45db024c,
perumahan,Balai Pertemuan Desa,Kepala Desa Sebewe,"GFCG+8VH, Sebewe, Kec. Moyo Utara, Kabupaten Sumbawa, Nusa Tenggara Bar. 84381","Sebewe, Kec. Moyo Utara, Kabupaten Sumbawa",NUSA TENGGARA BARAT,84381.0,Indonesia,,,,-84.791.809,1.174.772.372,https://maps.google.com/?cid=0x0:0x3c2b174337f35eb8,
perumahan,Komplek perumahan,Rumah pak Agus marsudi,"FFWJ+CF3, Poto, Kec. Moyohilir, Kabupaten Sumbawa, Nusa Tenggara Bar.","Kabupaten Sumbawa, Nusa Tenggara Bar.",NUSA TENGGARA BARAT,,Indonesia,,,,-8.504.293,117.481.969,https://maps.google.com/?cid=0x0:0x20d63fb2b5df4df,
perumahan,perumahan,Kec. Orong Telu,"Kabupaten Sumbawa, Nusa Tenggara Bar.","Kabupaten Sumbawa, Nusa Tenggara Bar.",NUSA TENGGARA BARAT,,Indonesia,,,,-87.588.562,1.171.847.123,https://maps.google.com/?cid=0x0:0x6d77041b0a298ea5,
perumahan,Komplek perumahan,Rumah Sendi Akramullah,"65RP+6G, Sebeok, Kec. Orong Telu, Kabupaten Sumbawa, Nusa Tenggara Bar. 84373","Sebeok, Kec. Orong Telu, Kabupaten Sumbawa",NUSA TENGGARA BARAT,84373.0,Indonesia,,,,-87.594.595,1.171.861.952,https://maps.google.com/?cid=0x0:0x5bb72507f04c6527,
perumahan,Komplek perumahan,Bang bone,"54XC+74R, Mungkin, Kec. Orong Telu, Kabupaten Sumbawa, Nusa Tenggara Bar. 84373","Mungkin, Kec. Orong Telu, Kabupaten Sumbawa",NUSA TENGGARA BARAT,84373.0,Indonesia,,,,-8.801.874,1.171.203.315,https://maps.google.com/?cid=0x0:0x7848a37682a42728,
perumahan,Perhimpunan Pengembang Perumahan,Rumah Pak Ayang,"74F9+9RM, Mungkin, Kec. Orong Telu, Kabupaten Sumbawa, Nusa Tenggara Bar.","Kabupaten Sumbawa, Nusa Tenggara Bar.",NUSA TENGGARA BARAT,,Indonesia,,,,-87.265.419,1.171.195.356,https://maps.google.com/?cid=0x0:0x6f6151229ac26d3c,
perumahan,Perhimpunan Pengembang Perumahan,Rumah Pak Susyono,"74F9+VMJ, Mungkin, Kec. Orong Telu, Kabupaten Sumbawa, Nusa Tenggara Bar.","Kabupaten Sumbawa, Nusa Tenggara Bar.",NUSA TENGGARA BARAT,,Indonesia,,,,-87.252.796,1.171.191.466,https://maps.google.com/?cid=0x0:0x758987393d376e98,
perumahan,Rumah Sakit,Puskesmas Orong Telu,"65RP+92X, Sebeok, Kec. Orong Telu, Kabupaten Sumbawa, Nusa Tenggara Bar. 84373","Sebeok, Kec. Orong Telu, Kabupaten Sumbawa",NUSA TENGGARA BARAT,84373.0,Indonesia,,,,-87.590.216,117.185.109,https://maps.google.com/?cid=0x0:0x4d02f4827a4486b5,
perumahan,Pembangunan Perumahan,Siti aisyah,"65RP+6G, Sebeok, Kec. Orong Telu, Kabupaten Sumbawa, Nusa Tenggara Bar. 84373","Sebeok, Kec. Orong Telu, Kabupaten Sumbawa",NUSA TENGGARA BARAT,84373.0,Indonesia,,,,-8.759.688,117.186.371,https://maps.google.com/?cid=0x0:0xc4f13e891a80711,
perumahan,Komplek perumahan,Sereng,"54C6+FJ, Mungkin, Kec. Orong Telu, Kabupaten Sumbawa, Nusa Tenggara Bar.","Kabupaten Sumbawa, Nusa Tenggara Bar.",NUSA TENGGARA BARAT,,Indonesia,,,,-8.828.785,117.111.613,https://maps.google.com/?cid=0x0:0xf5b249ee67dbf9d2,
perumahan,Perhimpunan Pengembang Perumahan,RUMAH YUSUF,"54C6+FM, Mungkin, Kec. Orong Telu, Kabupaten Sumbawa, Nusa Tenggara Bar.","Kabupaten Sumbawa, Nusa Tenggara Bar.",NUSA TENGGARA BARAT,,Indonesia,,,,-88.287.537,1.171.116.323,https://maps.google.com/?cid=0x0:0x27ce5897ecf1aaef,
perumahan,Perhimpunan Pengembang Perumahan,Rumah Ibu Tri Handayani,"74F9+9V4, Mungkin, Kec. Orong Telu, Kabupaten Sumbawa, Nusa Tenggara Bar.","Kabupaten Sumbawa, Nusa Tenggara Bar.",NUSA TENGGARA BARAT,,Indonesia,,,,-87.266.072,1.171.197.012,https://maps.google.com/?cid=0x0:0x61ff444d93efe9a2,
perumahan,Sekolah Dasar,Rumah Dinas SD Negeri Tangkelak,"74F9+QX3, Mungkin, Kec. Orong Telu, Kabupaten Sumbawa, Nusa Tenggara Bar.","Kabupaten Sumbawa, Nusa Tenggara Bar.",NUSA TENGGARA BARAT,,Indonesia,,,,-87.256.071,117.119.911,https://maps.google.com/?cid=0x0:0xeb86c75f007ea1fc,
perumahan,Gedung Apartemen,Rumah Arda,"65RP+92X, Sebeok, Kec. Orong Telu, Kabupaten Sumbawa, Nusa Tenggara Bar. 84373","Sebeok, Kec. Orong Telu, Kabupaten Sumbawa",NUSA TENGGARA BARAT,84373.0,Indonesia,,,,-87.590.125,1.171.851.094,https://maps.google.com/?cid=0x0:0xcfee36860d5e60d2,
perumahan,Perhimpunan Pengembang Perumahan,dusun kopo,"642C+J8P, Mungkin, Kec. Orong Telu, Kabupaten Sumbawa, Nusa Tenggara Bar.","Kabupaten Sumbawa, Nusa Tenggara Bar.",NUSA TENGGARA BARAT,,Indonesia,,,,-87.984.183,1.171.208.202,https://maps.google.com/?cid=0x0:0xff0d75e29adcf0b9,
perumahan,Komplek perumahan,ABDI ICAM,"65FC+MFG, Kelawis, Kec. Orong Telu, Kabupaten Sumbawa, Nusa Tenggara Bar. 84373","Kelawis, Kec. Orong Telu, Kabupaten Sumbawa",NUSA TENGGARA BARAT,84373.0,Indonesia,,,,-87.758.215,1.171.712.092,https://maps.google.com/?cid=0x0:0xbfd6af1f1169da08,
perumahan,Perhimpunan Pengembang Perumahan,"A, Arya posong","6352+C9, Mungkin, Kec. Orong Telu, Kabupaten Sumbawa, Nusa Tenggara Bar. 84455","Mungkin, Kec. Orong Telu, Kabupaten Sumbawa",NUSA TENGGARA BARAT,84455.0,Indonesia,85239545496,,,-87.914.518,1.170.508.959,https://maps.google.com/?cid=0x0:0x163c46153856cb57,
perumahan,perumahan,Rumah Joni Ardiansyah,"65RP+6G, Sebeok, Kec. Orong Telu, Kabupaten Sumbawa, Nusa Tenggara Bar. 84373","Sebeok, Kec. Orong Telu, Kabupaten Sumbawa",NUSA TENGGARA BARAT,84373.0,Indonesia,,,,-87.582.903,1.171.856.254,https://maps.google.com/?cid=0x0:0x64341dabcb611a0e,
perumahan,Komplek perumahan,Bakti jaya,"64MJ+GM, Mungkin, Kec. Orong Telu, Kabupaten Sumbawa, Nusa Tenggara Bar.","Kabupaten Sumbawa, Nusa Tenggara Bar.",NUSA TENGGARA BARAT,,Indonesia,,,,-8.766.127,1.171.317.146,https://maps.google.com/?cid=0x0:0x729f877c3bc0a10f,
perumahan,Bengkel Sepeda Motor,Bengkel Motor pk Abdul idham,"65QP+CF9, Sebeok, Kec. Orong Telu, Kabupaten Sumbawa, Nusa Tenggara Bar. 84373","Sebeok, Kec. Orong Telu, Kabupaten Sumbawa",NUSA TENGGARA BARAT,84373.0,Indonesia,,,,-8.761.596,1.171.864.957,https://maps.google.com/?cid=0x0:0xa811957009bbd330,
perumahan,Komplek perumahan,Balai Pertemuan Dusun Gunung Setia,"676G+HX, Telaga, Kec. Lenangguar, Kabupaten Sumbawa, Nusa Tenggara Bar.","Kabupaten Sumbawa, Nusa Tenggara Bar.",NUSA TENGGARA BARAT,,Indonesia,,,,-87.885.153,1.172.774.665,https://maps.google.com/?cid=0x0:0xb807586c598c76e5,
perumahan,Pembangunan Perumahan,Plampang,"5RM5+V47, Plampang, Kec. Plampang, Kabupaten Sumbawa, Nusa Tenggara Bar.","Kabupaten Sumbawa, Nusa Tenggara Bar.",NUSA TENGGARA BARAT,,Indonesia,,,,-8.815.327,1.178.078,https://maps.google.com/?cid=0x0:0x557f554c472f00f0,
perumahan,perumahan,Plampang,"Plampang, Kec. Plampang, Kabupaten Sumbawa, Nusa Tenggara Bar.","Kabupaten Sumbawa, Nusa Tenggara Bar.",NUSA TENGGARA BARAT,,Indonesia,,,,-8.815.327,1.178.078,https://maps.google.com/?cid=0x0:0x7a9cc1b2a62e435d,
perumahan,Komplek perumahan,Taradi,"5RM5+V47, Plampang, Kec. Plampang, Kabupaten Sumbawa, Nusa Tenggara Bar. 84383","Plampang, Kec. Plampang, Kabupaten Sumbawa",NUSA TENGGARA BARAT,84383.0,Indonesia,,,,-8.815.327,1.178.078,https://maps.google.com/?cid=0x0:0x28e34360dbf11077,
perumahan,Komplek perumahan,HERURIA,"5RM5+V47, Plampang, Kec. Plampang, Kabupaten Sumbawa, Nusa Tenggara Bar.","Kabupaten Sumbawa, Nusa Tenggara Bar.",NUSA TENGGARA BARAT,,Indonesia,,,,-8.815.327,1.178.078,https://maps.google.com/?cid=0x0:0xcbd9094d9f21d0c5,
perumahan,Komplek perumahan,Rumah ujhe,"5RM5+V47, Plampang, Kec. Plampang, Kabupaten Sumbawa, Nusa Tenggara Bar.","Kabupaten Sumbawa, Nusa Tenggara Bar.",NUSA TENGGARA BARAT,,Indonesia,,,,-8.815.327,1.178.078,https://maps.google.com/?cid=0x0:0x38649d7fca03e728,
perumahan,Komplek perumahan,Rumah Ulandari,"5RM5+V47 Rumah Ulandari, Plampang, Kec. Plampang, Kabupaten Sumbawa, Nusa Tenggara Bar.","Kabupaten Sumbawa, Nusa Tenggara Bar.",NUSA TENGGARA BARAT,,Indonesia,,,,-8.815.327,1.178.078,https://maps.google.com/?cid=0x0:0x7fa02c156bedf61f,
perumahan,Komplek perumahan,Rumah panggung,"5RM5+V47, Plampang, Kec. Plampang, Kabupaten Sumbawa, Nusa Tenggara Bar.","Kabupaten Sumbawa, Nusa Tenggara Bar.",NUSA TENGGARA BARAT,,Indonesia,,,,-8.815.327,1.178.078,https://maps.google.com/?cid=0x0:0x64d5cce153a46395,
perumahan,Komplek perumahan,Yohan,"5RM5+V47, Plampang, Kec. Plampang, Kabupaten Sumbawa, Nusa Tenggara Bar.","Kabupaten Sumbawa, Nusa Tenggara Bar.",NUSA TENGGARA BARAT,,Indonesia,,,,-8.815.327,1.178.078,https://maps.google.com/?cid=0x0:0xe50530c602b078e3,
perumahan,Pembangunan Perumahan,Ibrahim,"5RM5+V47, Plampang, Kec. Plampang, Kabupaten Sumbawa, Nusa Tenggara Bar.","Kabupaten Sumbawa, Nusa Tenggara Bar.",NUSA TENGGARA BARAT,,Indonesia,,,,-8.815.327,1.178.078,https://maps.google.com/?cid=0x0:0xc73b1489ed56bcad,
perumahan,Pembangunan Perumahan,Banjar mertha sari,"5RM5+V47, Plampang, Kec. Plampang, Kabupaten Sumbawa, Nusa Tenggara Bar.","Kabupaten Sumbawa, Nusa Tenggara Bar.",NUSA TENGGARA BARAT,,Indonesia,,,,-8.815.327,1.178.078,https://maps.google.com/?cid=0x0:0x8843613686b79d97,
perumahan,Komplek perumahan,So uba sukrin Ama la ebin,"5RM5+V47, Plampang, Kec. Plampang, Kabupaten Sumbawa, Nusa Tenggara Bar.","Kabupaten Sumbawa, Nusa Tenggara Bar.",NUSA TENGGARA BARAT,,Indonesia,,,,-8.815.327,1.178.078,https://maps.google.com/?cid=0x0:0xe3246879d1ddc44b,
perumahan,perumahan,Rhee,"Kec. Rhee, Kabupaten Sumbawa, Nusa Tenggara Bar.","Kabupaten Sumbawa, Nusa Tenggara Bar.",NUSA TENGGARA BARAT,,Indonesia,,,,-84.321.516,117.255.854,https://maps.google.com/?cid=0x0:0x40d5cddabbaf28e1,
perumahan,Komplek perumahan,Rumah rizal,"H6HH+C6M, Rhee Loka, Kec. Rhee, Kabupaten Sumbawa, Nusa Tenggara Bar.","Kabupaten Sumbawa, Nusa Tenggara Bar.",NUSA TENGGARA BARAT,,Indonesia,,,,-84.214.008,1.172.280.354,https://maps.google.com/?cid=0x0:0xcecc3cb06cfee87d,
perumahan,Komplek perumahan,Simpangan Rhee,"H6JH+8GG, Rhee Loka, Kec. Rhee, Kabupaten Sumbawa, Nusa Tenggara Bar.","Kabupaten Sumbawa, Nusa Tenggara Bar.",NUSA TENGGARA BARAT,,Indonesia,,,,-84.191.804,1.172.288.252,https://maps.google.com/?cid=0x0:0x6afb1b6f8ad549ec,
perumahan,Pembangunan Perumahan,Developer rumah subsidi,"Rhee, Kec. Rhee, Kabupaten Sumbawa, Nusa Tenggara Bar. 84352","Kec. Rhee, Kabupaten Sumbawa",NUSA TENGGARA BARAT,84352.0,Indonesia,81267663333,,,-84.176.462,1.172.382.888,https://maps.google.com/?cid=0x0:0x4686f6c195fba6e9,
perumahan,Komplek perumahan,ALVAN LAUNDRY,"H6JP+V5P, RT.04/RW.02, Rhee, Kec. Rhee, Sumbawa Besar, Nusa Tenggara Bar. 84352","RT.04/RW.02, Rhee, Kec. Rhee, Sumbawa Besar",NUSA TENGGARA BARAT,84352.0,Indonesia,85205332712,,,-84.177.802,1.172.354.652,https://maps.google.com/?cid=0x0:0x17ae4d8b5e7b4dc1,
perumahan,Komplek perumahan,Rumah ku,"H67M+WXR, Dan karang luar, Rhee Loka, Kec. Rhee, Kabupaten Sumbawa, Nusa Tenggara Bar.","Kabupaten Sumbawa, Nusa Tenggara Bar.",NUSA TENGGARA BARAT,,Indonesia,,,,-84.351.353,1.172.348.841,https://maps.google.com/?cid=0x0:0xad32d002c669f67b,
perumahan,Toko,UD RIZQI RHEE,"Jl. Lintas Sumbawa Tano No.KM. 34, Rhee, Kec. Rhee, Kabupaten Sumbawa, Nusa Tenggara Bar. 84352","Rhee, Kec. Rhee, Kabupaten Sumbawa",NUSA TENGGARA BARAT,84352.0,Indonesia,85333788855,,,-84.177.279,1.172.383.115,https://maps.google.com/?cid=0x0:0x81ee95900d9d10a2,
perumahan,Komplek perumahan,Sekretariat POKDAKAN Nila Lestari,"H67P+WG7, Rhee Loka, Kec. Rhee, Kabupaten Sumbawa, Nusa Tenggara Bar. 84352","Rhee Loka, Kec. Rhee, Kabupaten Sumbawa",NUSA TENGGARA BARAT,84352.0,Indonesia,,,,-84.353.377,1.172.371.068,https://maps.google.com/?cid=0x0:0xf824b1854eafedb3,
perumahan,Kantor Pemda,Desa Luk.A,"H842+VH8, Luk, Kec. Rhee, Kabupaten Sumbawa, Nusa Tenggara Bar. 84352","Luk, Kec. Rhee, Kabupaten Sumbawa",NUSA TENGGARA BARAT,84352.0,Indonesia,,,,-84.428.436,1.173.014.653,https://maps.google.com/?cid=0x0:0xfdb2862bfbdae61f,
perumahan,Pembangunan Perumahan,Doniputra,"H853+2GJ, Jl. Lintas Sumbawa Tano, Luk, Kec. Rhee, Kabupaten Sumbawa, Nusa Tenggara Bar. 84352","Jl. Lintas Sumbawa Tano, Luk, Kec. Rhee, Kabupaten Sumbawa",NUSA TENGGARA BARAT,84352.0,Indonesia,,,,-84.424.214,1.173.037.631,https://maps.google.com/?cid=0x0:0xe9b80d8a35b6fcb8,
perumahan,Kantor Pemerintah,Desa seseng,"G6JH+GX8, Sampe, Kec. Rhee, Kabupaten Sumbawa, Nusa Tenggara Bar.","Kabupaten Sumbawa, Nusa Tenggara Bar.",NUSA TENGGARA BARAT,,Indonesia,,,,-84.687.082,1.172.299.418,https://maps.google.com/?cid=0x0:0xd0321b74c3218d7f,
perumahan,Developer Rumah Hunian Khusus,Cynthia's Beach House,"Rhee, Kec. Rhee, Kabupaten Sumbawa, Nusa Tenggara Bar.","Kabupaten Sumbawa, Nusa Tenggara Bar.",NUSA TENGGARA BARAT,,Indonesia,,,,-84.192.231,1.172.682.776,https://maps.google.com/?cid=0x0:0x808fbd7feb9f5146,
perumahan,perumahan,Cahaya hamizan,"H6JH+HHJ, Penyampang, Kec. Rhee, Kabupaten Sumbawa, Nusa Tenggara Bar. 84352","Penyampang, Kec. Rhee, Kabupaten Sumbawa",NUSA TENGGARA BARAT,84352.0,Indonesia,,,,-84.185.154,1.172.288.571,https://maps.google.com/?cid=0x0:0x7c03caba7923e2d8,
perumahan,Komplek perumahan,Bale ijo,"H842+PV2, Luk, Kec. Rhee, Kabupaten Sumbawa, Nusa Tenggara Bar. 84352","Luk, Kec. Rhee, Kabupaten Sumbawa",NUSA TENGGARA BARAT,84352.0,Indonesia,,,,-8.443.729,1.173.025.272,https://maps.google.com/?cid=0x0:0xeaed07f0722890a7,
perumahan,Kantor Perusahaan,G home,"H73R+P4P, banjar kerthasari, dusun bermang, Luk, Kec. Rhee, Kabupaten Sumbawa, Nusa Tenggara Bar.","Kabupaten Sumbawa, Nusa Tenggara Bar.",NUSA TENGGARA BARAT,,Indonesia,,,,-84.456.495,1.172.903.317,https://maps.google.com/?cid=0x0:0xe391d70a33edaf20,
perumahan,perumahan,Kec. Rhee,"Kabupaten Sumbawa, Nusa Tenggara Bar.","Kabupaten Sumbawa, Nusa Tenggara Bar.",NUSA TENGGARA BARAT,,Indonesia,,,,-84.188.825,1.172.346.352,https://maps.google.com/?cid=0x0:0x25423682c434cde7,
perumahan,Indonesia,Jagung Bakar Rhee,"H6JJ+7G3, Jl. Lintas Sumbawa Tanu, Rhee Beru, Kec. Rhee, Rhee Loka, Sumbawa, Kabupaten Sumbawa, Nusa Tenggara Bar. 84352","Jl. Lintas Sumbawa Tanu, Rhee Beru, Kec. Rhee, Rhee Loka, Sumbawa, Kabupaten Sumbawa",NUSA TENGGARA BARAT,84352.0,Indonesia,81906977336,,,-84.193.722,1.172.312.815,https://maps.google.com/?cid=0x0:0x56e48897aa80cf6,
perumahan,Komplek perumahan,Rumah Sagitariyus,"Jl. Lintas Sumbawa Tano, Rhee, Kec. Rhee, Kabupaten Sumbawa, Nusa Tenggara Bar. 84352","Rhee, Kec. Rhee, Kabupaten Sumbawa",NUSA TENGGARA BARAT,84352.0,Indonesia,,,,-84.200.816,117.250.224,https://maps.google.com/?cid=0x0:0xd4f778e8200ca7da,
perumahan,Toko,UD MADJU MAPAN,"H6JH+GJ7, Rhee Loka, Kec. Rhee, Kabupaten Sumbawa, Nusa Tenggara Bar. 84352","Rhee Loka, Kec. Rhee, Kabupaten Sumbawa",NUSA TENGGARA BARAT,84352.0,Indonesia,82340878200,,,-84.187.147,1.172.290.428,https://maps.google.com/?cid=0x0:0x5b5f899b07813630,
perumahan,Restoran,RUMAH MAKAN Pak Kemis,"H6JM+9QV, Jl. Lintas Sumbawa Tano, Rhee, Kec. Rhee, Kabupaten Sumbawa, Nusa Tenggara Bar. 84352","Jl. Lintas Sumbawa Tano, Rhee, Kec. Rhee, Kabupaten Sumbawa",NUSA TENGGARA BARAT,84352.0,Indonesia,,,,-8.419.002,1.172.344.137,https://maps.google.com/?cid=0x0:0xb2610fd78421c702,
perumahan,perumahan,Nusa Tenggara Bar. 84352,"Kabupaten Sumbawa, Nusa Tenggara Bar.","Kabupaten Sumbawa, Nusa Tenggara Bar.",NUSA TENGGARA BARAT,,Indonesia,,,,-84.646.091,1.172.205.771,https://maps.google.com/?cid=0x0:0xbf188d19c3af4368,
perumahan,Komplek perumahan,Rumah deni,"J47Q+HP4, Jorok, Kec. Utan, Kabupaten Sumbawa, Nusa Tenggara Bar. 84352","Jorok, Kec. Utan, Kabupaten Sumbawa",NUSA TENGGARA BARAT,84352.0,Indonesia,,,,-83.865.376,117.139.355,https://maps.google.com/?cid=0x0:0x1d869c7933baaa35,
perumahan,Pembangunan Perumahan,"BURHANUDDIN,S.Pd.","H4MH+HQQ, depan pasar, Motong, Kec. Utan, Kabupaten Sumbawa, Nusa Tenggara Bar. 84352","depan pasar, Motong, Kec. Utan, Kabupaten Sumbawa",NUSA TENGGARA BARAT,84352.0,Indonesia,,,,-8.416.046,1.171.294.961,https://maps.google.com/?cid=0x0:0x885201d4b4ae14f3,
perumahan,Komplek perumahan,MUHAMMAD RIZAL,"G5VP+34F, RT.004/RW.002, satoe orong, Sabedo, Kec. Utan, Kabupaten Sumbawa, Nusa Tenggara Bar. 84352","RT.004/RW.002, satoe orong, Sabedo, Kec. Utan, Kabupaten Sumbawa",NUSA TENGGARA BARAT,84352.0,Indonesia,,,,-84.573.045,117.185.294,https://maps.google.com/?cid=0x0:0x90c3cec973802018,
perumahan,Pembangunan Perumahan,Elidiawati,"H4MC+2PF, Jl. Lintas Sumbawa Tano, Stowe Brang, Kec. Utan, Kabupaten Sumbawa, Nusa Tenggara Bar. 84352","Jl. Lintas Sumbawa Tano, Stowe Brang, Kec. Utan, Kabupaten Sumbawa",NUSA TENGGARA BARAT,84352.0,Indonesia,,,,-84.174.371,1.171.218.019,https://maps.google.com/?cid=0x0:0xcd36c423b74bf0d4,
perumahan,Komplek perumahan,SR 3,"H6R7+P4, Rhee Loka, Kec. Rhee, Kabupaten Sumbawa, Nusa Tenggara Bar.","Kabupaten Sumbawa, Nusa Tenggara Bar.",NUSA TENGGARA BARAT,,Indonesia,,,,-84.083.211,1.172.128.626,https://maps.google.com/?cid=0x0:0x8d3331c9c9facb87,
perumahan,Pembangunan Perumahan,RUMAH IRJAN,"H3VW+JR6, Pukat, Kec. Utan, Kabupaten Sumbawa, Nusa Tenggara Bar.","Kabupaten Sumbawa, Nusa Tenggara Bar.",NUSA TENGGARA BARAT,,Indonesia,,,,-84.059.692,1.170.970.102,https://maps.google.com/?cid=0x0:0x4cad217531c7870f,
perumahan,Toko bahan makanan,BALE IRWAN,"J4C6+GQH Lab Bua, Kuang DAM, Jl. Lintas, RT.04/RW.06, Pukat, Kec. Utan, Kabupaten Sumbawa, Nusa Tenggara Bar. 84352","Kuang DAM, Jl. Lintas, RT.04/RW.06, Pukat, Kec. Utan, Kabupaten Sumbawa",NUSA TENGGARA BARAT,84352.0,Indonesia,,,,-8.378.686,117.111.981,https://maps.google.com/?cid=0x0:0xdfd980956959cd2d,
perumahan,Pembangunan Perumahan,Pengolahan gula aren,"H6R7+GWJ, Jl. Lintas Sumbawa Tano, Rhee Loka, Kec. Rhee, Kabupaten Sumbawa, Nusa Tenggara Bar. 84352","Jl. Lintas Sumbawa Tano, Rhee Loka, Kec. Rhee, Kabupaten Sumbawa",NUSA TENGGARA BARAT,84352.0,Indonesia,,,,-84.093.814,1.172.142.972,https://maps.google.com/?cid=0x0:0xaf03603b67f551ee,
perumahan,Komplek perumahan,Ropang,"4GC4+JJX, Ranan, Kec. Ropang, Kabupaten Sumbawa, Nusa Tenggara Bar.","Kabupaten Sumbawa, Nusa Tenggara Bar.",NUSA TENGGARA BARAT,,Indonesia,,,,-8.878.387,117.506.599,https://maps.google.com/?cid=0x0:0xccee79fe067011b2,
perumahan,Komplek perumahan,Rumah afya,"4FM8+7HQ, Ropang, Kec. Ropang, Kabupaten Sumbawa, Nusa Tenggara Bar. 84372","Ropang, Kec. Ropang, Kabupaten Sumbawa",NUSA TENGGARA BARAT,84372.0,Indonesia,,,,-88.666.625,1.174.671.225,https://maps.google.com/?cid=0x0:0xef31af3f06ad5fc2,
perumahan,perumahan,Nusa Tenggara Bar. 84311,"Kabupaten Sumbawa, Nusa Tenggara Bar.","Kabupaten Sumbawa, Nusa Tenggara Bar.",NUSA TENGGARA BARAT,,Indonesia,,,,-84.938.621,1.174.585.753,https://maps.google.com/?cid=0x0:0x49d794f523bebb05,
perumahan,Pembangunan Perumahan,Perumahan Bumi Indah Residence,"GC3J+VV4, Seketeng, Kec. Sumbawa, Kabupaten Sumbawa, Nusa Tenggara Bar. 84313","Seketeng, Kec. Sumbawa, Kabupaten Sumbawa",NUSA TENGGARA BARAT,84313.0,Indonesia,,,,-84.953.593,1.174.322.015,https://maps.google.com/?cid=0x0:0xcfa6a74ee747c679,
perumahan,Perumahan,Bumi Asri Residence,"GC4P+JR5, Seketeng, Kec. Sumbawa, Kabupaten Sumbawa, Nusa Tenggara Bar. 84311","Seketeng, Kec. Sumbawa, Kabupaten Sumbawa",NUSA TENGGARA BARAT,84311.0,Indonesia,,,,-84.936.931,1.174.363.787,https://maps.google.com/?cid=0x0:0x6848f2381164935,
perumahan,Pembangunan Perumahan,perumahan samawa regency,"GC8P+HHF, Uma Sima, Kec. Sumbawa, Kabupaten Sumbawa, Nusa Tenggara Bar.","Kabupaten Sumbawa, Nusa Tenggara Bar.",NUSA TENGGARA BARAT,,Indonesia,,,,-8.483.557,1.174.364.372,https://maps.google.com/?cid=0x0:0xb78940adc3afc146,
perumahan,Perumahan,BTN Bukit Permata Residence,"GC2Q+GP9, Seketeng, Kec. Sumbawa, Kabupaten Sumbawa, Nusa Tenggara Bar. 84311","Seketeng, Kec. Sumbawa, Kabupaten Sumbawa",NUSA TENGGARA BARAT,84311.0,Indonesia,,,,-84.977.873,1.174.387.887,https://maps.google.com/?cid=0x0:0x5bb7e17f51672675,
perumahan,Komplek perumahan,Perumahan Puri Kencana Asri,"GC5J+852 Belakang Taman Inter Katumis, Jl. Lintas Sumbawa - Bima Jl. Kebayan, Uma Sima, Kec. Sumbawa, Kabupaten Sumbawa, Nusa Tenggara Bar. 84313","Jl. Lintas Sumbawa - Bima Jl. Kebayan, Uma Sima, Kec. Sumbawa, Kabupaten Sumbawa",NUSA TENGGARA BARAT,84313.0,Indonesia,,,,-84.917.392,1.174.303.769,https://maps.google.com/?cid=0x0:0x9522cfb9e2b33cad,
perumahan,Gedung Apartemen,Rumah,"GC3M+GR, Seketeng, Kec. Sumbawa, Kabupaten Sumbawa, Nusa Tenggara Bar. 84313","Seketeng, Kec. Sumbawa, Kabupaten Sumbawa",NUSA TENGGARA BARAT,84313.0,Indonesia,,,,-8.496.124,1.174.346.461,https://maps.google.com/?cid=0x0:0x29947dcd3c3f14d3,
perumahan,Perumahan,Rumah Bukit Permai,"Perumahan Jl. BTN Bukit Permai No.18, RT.004/RW.005, Seketeng, Kec. Sumbawa, Kabupaten Sumbawa, Nusa Tenggara Bar. 84311","RT.004/RW.005, Seketeng, Kec. Sumbawa, Kabupaten Sumbawa",NUSA TENGGARA BARAT,84311.0,Indonesia,,,,-85.024.522,1.174.354.902,https://maps.google.com/?cid=0x0:0xcda944f29f0b1fc5,
perumahan,Komplek perumahan,Rumah Erlya,"GFCH+CFP, Sebewe, Kec. Moyo Utara, Kabupaten Sumbawa, Nusa Tenggara Bar. 84381","Sebewe, Kec. Moyo Utara, Kabupaten Sumbawa",NUSA TENGGARA BARAT,84381.0,Indonesia,,,,-84.789.167,1.174.787.066,https://maps.google.com/?cid=0x0:0xbacd051104893fa1,
perumahan,Pembangunan Perumahan,Muh Salahuddin,"GFCG+8VH, Sebewe, Kec. Moyo Utara, Kabupaten Sumbawa, Nusa Tenggara Bar.","Kabupaten Sumbawa, Nusa Tenggara Bar.",NUSA TENGGARA BARAT,,Indonesia,,,,-84.791.989,1.174.772.298,https://maps.google.com/?cid=0x0:0xee00760a86e7b13,
perumahan,Komplek perumahan,Rumah,"FCXJ+9V3, Jl. Ppn Bukit Permai Seketeng, Seketeng, Kec. Sumbawa, Kabupaten Sumbawa, Nusa Tenggara Bar. 84313","Jl. Ppn Bukit Permai Seketeng, Seketeng, Kec. Sumbawa, Kabupaten Sumbawa",NUSA TENGGARA BARAT,84313.0,Indonesia,,,,-85.016.164,1.174.321.708,https://maps.google.com/?cid=0x0:0x4184d5fe08d1e3b3,
perumahan,Komplek perumahan,Rumah BL,"GC29+4MQ, Brang Bara, Kec. Sumbawa, Kabupaten Sumbawa, Nusa Tenggara Bar. 84316","Brang Bara, Kec. Sumbawa, Kabupaten Sumbawa",NUSA TENGGARA BARAT,84316.0,Indonesia,,,,-84.989.966,1.174.197.488,https://maps.google.com/?cid=0x0:0x55721bdd7cb44587,
perumahan,Otoritas Perumahan,Perumahan,"FCWG+FWR, Seketeng, Kec. Sumbawa, Kabupaten Sumbawa, Nusa Tenggara Bar.","Kabupaten Sumbawa, Nusa Tenggara Bar.",NUSA TENGGARA BARAT,,Indonesia,,,,-85.037.619,1.174.272.562,https://maps.google.com/?cid=0x0:0xcbffca3f3175712f,
perumahan,Pembangunan Perumahan,Perumahan Pesona Raberas,"GF63+W9P, Jl. Raberas, Seketeng, Kec. Sumbawa, Kabupaten Sumbawa, Nusa Tenggara Bar. 84317","Jl. Raberas, Seketeng, Kec. Sumbawa, Kabupaten Sumbawa",NUSA TENGGARA BARAT,84317.0,Indonesia,,,,-84.876.566,1.174.534.419,https://maps.google.com/?cid=0x0:0x70e9ee052a5e4602,
perumahan,Komplek perumahan,UD yan,"GC3V+57V, Seketeng, Kec. Sumbawa, Kabupaten Sumbawa, Nusa Tenggara Bar. 84311","Seketeng, Kec. Sumbawa, Kabupaten Sumbawa",NUSA TENGGARA BARAT,84311.0,Indonesia,,,,-84.969.701,11.744.276,https://maps.google.com/?cid=0x0:0x2212abd4e9d00985,
perumahan,Komplek perumahan,MAHKOTA Residence,"FCPM+8G, Seketeng, Kec. Sumbawa, Kabupaten Sumbawa, Nusa Tenggara Bar.","Kabupaten Sumbawa, Nusa Tenggara Bar.",NUSA TENGGARA BARAT,,Indonesia,,,,-8.514.168,1.174.338.705,https://maps.google.com/?cid=0x0:0x4cf8652d973c65cb,
perumahan,perumahan,GREEN,"GC2M+FPV, Seketeng, Kec. Sumbawa, Kabupaten Sumbawa, Nusa Tenggara Bar. 84313","Seketeng, Kec. Sumbawa, Kabupaten Sumbawa",NUSA TENGGARA BARAT,84313.0,Indonesia,,,,-84.987.702,1.174.342.865,https://maps.google.com/?cid=0x0:0xbcce301a74751868,
perumahan,Komplek perumahan,Rumah earlita,"GC5J+V9V, Uma Sima, Kec. Sumbawa, Kabupaten Sumbawa, Nusa Tenggara Bar.","Kabupaten Sumbawa, Nusa Tenggara Bar.",NUSA TENGGARA BARAT,,Indonesia,,,,-84.902.663,1.174.309.368,https://maps.google.com/?cid=0x0:0x1601b000743a377a,
perumahan,,Rumah Fara,"GC8G+927 dekat kuburan katolik, Jl. Kebayan, Brang Biji, Kec. Sumbawa, Kabupaten Sumbawa, Nusa Tenggara Bar.","Kabupaten Sumbawa, Nusa Tenggara Bar.",NUSA TENGGARA BARAT,,Indonesia,,,,-84.840.817,1.174.250.338,https://maps.google.com/?cid=0x0:0xe998e3c07bb7f6e3,
perumahan,Pembangunan Perumahan,Perumahan UNTERA GARDEN,"GC5M+VP9, Seketeng, Kec. Sumbawa, Kabupaten Sumbawa, Nusa Tenggara Bar.","Kabupaten Sumbawa, Nusa Tenggara Bar.",NUSA TENGGARA BARAT,,Indonesia,,,,-84.903.497,1.174.343.633,https://maps.google.com/?cid=0x0:0x2de9f76ec7ca4a42,
perumahan,Perumahan,Perumahan TAMAN INDAH RESIDENCE,"GC5M+Q8G, Kel, Uma Sima, Kec. Sumbawa, Kabupaten Sumbawa, Nusa Tenggara Bar. 84312","Kel, Uma Sima, Kec. Sumbawa, Kabupaten Sumbawa",NUSA TENGGARA BARAT,84312.0,Indonesia,,,,-84.905.577,1.174.333.425,https://maps.google.com/?cid=0x0:0x879fcec48c1df6c7,
perumahan,Komplek perumahan,GRAHA NUSANTARA,"Lintas, Jl. Kebayan","Kabupaten Sumbawa, Nusa Tenggara Bar.",NUSA TENGGARA BARAT,,Indonesia,,,,-84.856.927,1.174.312.086,https://maps.google.com/?cid=0x0:0x93fd0ad11503ea7a,
perumahan,Pembangunan Perumahan,BTN Bukit Permai,"Jl. Ppn Bukit Permai Seketeng, Seketeng, Kec. Sumbawa, Kabupaten Sumbawa, Nusa Tenggara Bar. 84313","Seketeng, Kec. Sumbawa, Kabupaten Sumbawa",NUSA TENGGARA BARAT,84313.0,Indonesia,,,,-85.016.049,1.174.321.241,https://maps.google.com/?cid=0x0:0x16a9fb44aba97830,
perumahan,Perhimpunan Pengembang Perumahan,Rumah Sangaji,"GC5G+VMV, Jl. Tongkol, Uma Sima, Kec. Sumbawa, Kabupaten Sumbawa, Nusa Tenggara Bar. 84313","Jl. Tongkol, Uma Sima, Kec. Sumbawa, Kabupaten Sumbawa",NUSA TENGGARA BARAT,84313.0,Indonesia,,,,-84.897.045,1.174.270.269,https://maps.google.com/?cid=0x0:0x74948fcfe414e297,
perumahan,Gedung Apartemen,Rumah bang Ancus,"FCXM+7R5, Jl. Raya Bukit Permai, Seketeng, Kec. Sumbawa, Kabupaten Sumbawa, Nusa Tenggara Bar. 84313","Jl. Raya Bukit Permai, Seketeng, Kec. Sumbawa, Kabupaten Sumbawa",NUSA TENGGARA BARAT,84313.0,Indonesia,,,,-85.019.139,1.174.343.572,https://maps.google.com/?cid=0x0:0xfa3e0528eda0fc59,
perumahan,Komplek perumahan,Rumah paskal,"GC8G+579, Brang Biji, Kec. Sumbawa, Kabupaten Sumbawa, Nusa Tenggara Bar.","Kabupaten Sumbawa, Nusa Tenggara Bar.",NUSA TENGGARA BARAT,,Indonesia,,,,-84.845.863,1.174.257.207,https://maps.google.com/?cid=0x0:0x3ecdfc564020b2e8,
perumahan,perumahan,Nusa Tenggara Bar. 84312,"Brang Biji, Kec. Sumbawa, Kabupaten Sumbawa, Nusa Tenggara Bar.","Kabupaten Sumbawa, Nusa Tenggara Bar.",NUSA TENGGARA BARAT,,Indonesia,,,,-84.766.731,1.174.233.344,https://maps.google.com/?cid=0x0:0xc546a8f0117450d6,
perumahan,Komplek perumahan,Perumahan Kebayan,"GC8G+W5G, Brang Biji, Kec. Sumbawa, Kabupaten Sumbawa, Nusa Tenggara Bar. 84312","Brang Biji, Kec. Sumbawa, Kabupaten Sumbawa",NUSA TENGGARA BARAT,84312.0,Indonesia,,,,-8.482.699,1.174.254.604,https://maps.google.com/?cid=0x0:0xddd23b7cfcbafa3a,
perumahan,Pembangunan Perumahan,Shiane Home,"GC7G+V36, Brang Biji, Kec. Sumbawa, Kabupaten Sumbawa, Nusa Tenggara Bar. 84312","Brang Biji, Kec. Sumbawa, Kabupaten Sumbawa",NUSA TENGGARA BARAT,84312.0,Indonesia,,,,-848.535,1.174.251.366,https://maps.google.com/?cid=0x0:0xf3edf1c4c78b2da0,
perumahan,Perhimpunan Pengembang Perumahan,Rumah jaya albilad,"Gg. V, Brang Biji, Kec. Sumbawa, Kabupaten Sumbawa, Nusa Tenggara Bar. 84312","Brang Biji, Kec. Sumbawa, Kabupaten Sumbawa",NUSA TENGGARA BARAT,84312.0,Indonesia,82112141219,,,-8.474.797,117.416.979,https://maps.google.com/?cid=0x0:0x81e619040533cee7,
perumahan,Perumahan,BTN Bukit Permata Residence,"GC2Q+GP9, Seketeng, Kec. Sumbawa, Kabupaten Sumbawa, Nusa Tenggara Bar. 84311","Seketeng, Kec. Sumbawa, Kabupaten Sumbawa",NUSA TENGGARA BARAT,84311.0,Indonesia,,,,-84.977.873,1.174.387.887,https://maps.google.com/?cid=0x0:0x5bb7e17f51672675,
perumahan,Pembangunan Perumahan,Rumah Toyyib junaidi,"GC8C+GJV, Brang Biji, Kec. Sumbawa, Kabupaten Sumbawa, Nusa Tenggara Bar. 84312","Brang Biji, Kec. Sumbawa, Kabupaten Sumbawa",NUSA TENGGARA BARAT,84312.0,Indonesia,,,,-84.838.461,1.174.215.867,https://maps.google.com/?cid=0x0:0x81f8867c9fe6b3ab,
perumahan,Pembangunan Perumahan,Nata,"GC9F+5MV, Brang Biji, Kec. Sumbawa, Kabupaten Sumbawa, Nusa Tenggara Bar. 84312","Brang Biji, Kec. Sumbawa, Kabupaten Sumbawa",NUSA TENGGARA BARAT,84312.0,Indonesia,,,,-84.820.035,1.174.241.632,https://maps.google.com/?cid=0x0:0x4e6d50171827a64e,
perumahan,Komplek perumahan,Rayyan's house,"GC7C+9M5, Jl. Perumahan Gn. Setia, Brang Biji, Kec. Sumbawa, Kabupaten Sumbawa, Nusa Tenggara Bar.","Kabupaten Sumbawa, Nusa Tenggara Bar.",NUSA TENGGARA BARAT,,Indonesia,,,,-84.866.035,117.421.723,https://maps.google.com/?cid=0x0:0xb25248ab31aba6b5,
perumahan,Taman,Rusun Sumbawa,"GC5J+PJQ, Uma Sima, Kec. Sumbawa, Kabupaten Sumbawa, Nusa Tenggara Bar. 84312","Uma Sima, Kec. Sumbawa, Kabupaten Sumbawa",NUSA TENGGARA BARAT,84312.0,Indonesia,,,,-84.909.281,1.174.313.241,https://maps.google.com/?cid=0x0:0x68a3b8def313e941,
perumahan,Komplek perumahan,Perumahan Puri Kencana Asri,"GC5J+852 Belakang Taman Inter Katumis, Jl. Lintas Sumbawa - Bima Jl. Kebayan, Uma Sima, Kec. Sumbawa, Kabupaten Sumbawa, Nusa Tenggara Bar. 84313","Jl. Lintas Sumbawa - Bima Jl. Kebayan, Uma Sima, Kec. Sumbawa, Kabupaten Sumbawa",NUSA TENGGARA BARAT,84313.0,Indonesia,,,,-84.917.392,1.174.303.769,https://maps.google.com/?cid=0x0:0x9522cfb9e2b33cad,
perumahan,Komplek perumahan,SR_BB_9,"JL. Udang, No. 8 Blok CD/8, Lempeh, Brang Biji, Kec. Sumbawa, Kabupaten Sumbawa, Nusa Tenggara Bar. 84312","No. 8 Blok CD/8, Lempeh, Brang Biji, Kec. Sumbawa, Kabupaten Sumbawa",NUSA TENGGARA BARAT,84312.0,Indonesia,,,,-84.764.372,1.174.241.619,https://maps.google.com/?cid=0x0:0xa9c1eb4d248dd3fd,
perumahan,Komplek perumahan,Rumah paskal,"GC8G+579, Brang Biji, Kec. Sumbawa, Kabupaten Sumbawa, Nusa Tenggara Bar.","Kabupaten Sumbawa, Nusa Tenggara Bar.",NUSA TENGGARA BARAT,,Indonesia,,,,-84.845.863,1.174.257.207,https://maps.google.com/?cid=0x0:0x3ecdfc564020b2e8,
perumahan,Perumahan,Bumi Asri Residence,"GC4P+JR5, Seketeng, Kec. Sumbawa, Kabupaten Sumbawa, Nusa Tenggara Bar. 84311","Seketeng, Kec. Sumbawa, Kabupaten Sumbawa",NUSA TENGGARA BARAT,84311.0,Indonesia,,,,-84.936.931,1.174.363.787,https://maps.google.com/?cid=0x0:0x6848f2381164935,
perumahan,Perumahan,BTN SAMOTA RESIDENCE,"Brang Biji, Kec. Sumbawa, Kabupaten Sumbawa, Nusa Tenggara Bar. 84318","Kec. Sumbawa, Kabupaten Sumbawa",NUSA TENGGARA BARAT,84318.0,Indonesia,87860393665,,,-84.603.065,1.174.104.106,https://maps.google.com/?cid=0x0:0xceb2aa61b5e3a784,
perumahan,Pembangunan Perumahan,Kos G1anNawr4,"Jl. Lkr., Brang Biji, Kec. Sumbawa, Kabupaten Sumbawa, Nusa Tenggara Bar. 84312","Brang Biji, Kec. Sumbawa, Kabupaten Sumbawa",NUSA TENGGARA BARAT,84312.0,Indonesia,85205223614,,,-84.772.641,1.174.233.527,https://maps.google.com/?cid=0x0:0x74a90843dc463e4e,
perumahan,Komplek perumahan,Niryanti,"JL Manggis No.14, RT 01 RW 05, Uma Sima, Sumbawa, Uma Sima, Mataram, Kabupaten Sumbawa, Nusa Tenggara Bar. 84313","RT 01 RW 05, Uma Sima, Sumbawa, Uma Sima, Mataram, Kabupaten Sumbawa",NUSA TENGGARA BARAT,84313.0,Indonesia,,,,-84.900.067,1.174.277.698,https://maps.google.com/?cid=0x0:0x923b648c2ac2e8e4,
perumahan,Komplek perumahan,Rumah earlita,"GC5J+V9V, Uma Sima, Kec. Sumbawa, Kabupaten Sumbawa, Nusa Tenggara Bar.","Kabupaten Sumbawa, Nusa Tenggara Bar.",NUSA TENGGARA BARAT,,Indonesia,,,,-84.902.663,1.174.309.368,https://maps.google.com/?cid=0x0:0x1601b000743a377a,
perumahan,Komplek perumahan,GRAHA NUSANTARA,"Lintas, Jl. Kebayan","Kabupaten Sumbawa, Nusa Tenggara Bar.",NUSA TENGGARA BARAT,,Indonesia,,,,-84.856.927,1.174.312.086,https://maps.google.com/?cid=0x0:0x93fd0ad11503ea7a,
perumahan,Komplek perumahan,Aksara house,"GCF9+J3R, Gg. V, Brang Biji, Kec. Sumbawa, Kabupaten Sumbawa, Nusa Tenggara Bar. 84316","Gg. V, Brang Biji, Kec. Sumbawa, Kabupaten Sumbawa",NUSA TENGGARA BARAT,84316.0,Indonesia,,,,-8.475.889,1.174.176.373,https://maps.google.com/?cid=0x0:0x51d8b030cfca5e66,
perumahan,Pembangunan Perumahan,Panto Daeng Residence,"Jl. Kerangka Baja, Brang Bara, Kec. Sumbawa, Kabupaten Sumbawa, Nusa Tenggara Bar. 84316","Brang Bara, Kec. Sumbawa, Kabupaten Sumbawa",NUSA TENGGARA BARAT,84316.0,Indonesia,,,,-84.986.554,1.174.205.517,https://maps.google.com/?cid=0x0:0x90d3cfc9a90bb83d,
perumahan,Perumahan,Perumahan TAMAN INDAH RESIDENCE,"GC5M+Q8G, Kel, Uma Sima, Kec. Sumbawa, Kabupaten Sumbawa, Nusa Tenggara Bar. 84312","Kel, Uma Sima, Kec. Sumbawa, Kabupaten Sumbawa",NUSA TENGGARA BARAT,84312.0,Indonesia,,,,-84.905.577,1.174.333.425,https://maps.google.com/?cid=0x0:0x879fcec48c1df6c7,
perumahan,Hostel,Kos putri permata,"Jl. Kebayan gang buin kadewa No.47, Uma Sima, Kec. Sumbawa, Kabupaten Sumbawa, Nusa Tenggara Bar. 84312","Uma Sima, Kec. Sumbawa, Kabupaten Sumbawa",NUSA TENGGARA BARAT,84312.0,Indonesia,,,,-84.869.652,1.174.248.035,https://maps.google.com/?cid=0x0:0xa2bb6f6ff2e7ebd9,
perumahan,Komplek perumahan,Rumah anom,"GC7H+V4F, Jl. Kebayan, Brang Biji, Kec. Sumbawa, Kabupaten Sumbawa, Nusa Tenggara Bar.","Kabupaten Sumbawa, Nusa Tenggara Bar.",NUSA TENGGARA BARAT,,Indonesia,,,,-84.853.194,1.174.277.991,https://maps.google.com/?cid=0x0:0x87f4eb5fa5c9396a,
perumahan,Komplek perumahan,BTN Graha Taman Kota,"GC5M+Q8G, Kel, Uma Sima, Kec. Sumbawa, Kabupaten Sumbawa, Nusa Tenggara Bar. 84312","Kel, Uma Sima, Kec. Sumbawa, Kabupaten Sumbawa",NUSA TENGGARA BARAT,84312.0,Indonesia,,,,-84.901.608,117.433.038,https://maps.google.com/?cid=0x0:0xee0b374bff5f6152,
perumahan,,Rumah Fara,"GC8G+927 dekat kuburan katolik, Jl. Kebayan, Brang Biji, Kec. Sumbawa, Kabupaten Sumbawa, Nusa Tenggara Bar.","Kabupaten Sumbawa, Nusa Tenggara Bar.",NUSA TENGGARA BARAT,,Indonesia,,,,-84.840.817,1.174.250.338,https://maps.google.com/?cid=0x0:0xe998e3c07bb7f6e3,
perumahan,Komplek perumahan,Rumah HARI SOLO,"GCG8+2QF, Gg. V, Brang Biji, Kec. Sumbawa, Kabupaten Sumbawa, Nusa Tenggara Bar. 84316","Gg. V, Brang Biji, Kec. Sumbawa, Kabupaten Sumbawa",NUSA TENGGARA BARAT,84316.0,Indonesia,,,,-84.748.584,1.174.169.092,https://maps.google.com/?cid=0x0:0x5bab326cd2b2b812,
perumahan,Pembangunan Perumahan,perumahan samawa regency,"GC8P+HHF, Uma Sima, Kec. Sumbawa, Kabupaten Sumbawa, Nusa Tenggara Bar.","Kabupaten Sumbawa, Nusa Tenggara Bar.",NUSA TENGGARA BARAT,,Indonesia,,,,-8.483.557,1.174.364.372,https://maps.google.com/?cid=0x0:0xb78940adc3afc146,
perumahan,perumahan,Nusa Tenggara Bar. 84313,"Kec. Sumbawa, Kabupaten Sumbawa, Nusa Tenggara Bar.","Kabupaten Sumbawa, Nusa Tenggara Bar.",NUSA TENGGARA BARAT,,Indonesia,,,,-84.960.903,1.174.292.083,https://maps.google.com/?cid=0x0:0x8504d5a6509358ef,
perumahan,Pembangunan Perumahan,Perumahan Bumi Indah Residence,"GC3J+VV4, Seketeng, Kec. Sumbawa, Kabupaten Sumbawa, Nusa Tenggara Bar. 84313","Seketeng, Kec. Sumbawa, Kabupaten Sumbawa",NUSA TENGGARA BARAT,84313.0,Indonesia,,,,-84.953.593,1.174.322.015,https://maps.google.com/?cid=0x0:0xcfa6a74ee747c679,
perumahan,Komplek perumahan,SR_BG_05,"GC39+PWM, Bugis, Kec. Sumbawa, Kabupaten Sumbawa, Nusa Tenggara Bar. 84313","Bugis, Kec. Sumbawa, Kabupaten Sumbawa",NUSA TENGGARA BARAT,84313.0,Indonesia,,,,-84.954.493,1.174.197.151,https://maps.google.com/?cid=0x0:0x80af8b6cd701174d,
perumahan,Komplek perumahan,SR_BG_12,"GC59+9F6, Bugis, Kec. Sumbawa, Kabupaten Sumbawa, Nusa Tenggara Bar. 84313","Bugis, Kec. Sumbawa, Kabupaten Sumbawa",NUSA TENGGARA BARAT,84313.0,Indonesia,,,,-8.491.788,117.417.721,https://maps.google.com/?cid=0x0:0x2d53c3c8b9b61f0c,
perumahan,Komplek perumahan,SR_BG_13,"GC59+9F6, Bugis, Kec. Sumbawa, Kabupaten Sumbawa, Nusa Tenggara Bar. 84313","Bugis, Kec. Sumbawa, Kabupaten Sumbawa",NUSA TENGGARA BARAT,84313.0,Indonesia,,,,-84.919.684,1.174.177.769,https://maps.google.com/?cid=0x0:0x11d6fea93826a73e,
perumahan,Komplek perumahan,SR_BG_11,"GC59+9F6, Bugis, Kec. Sumbawa, Kabupaten Sumbawa, Nusa Tenggara Bar. 84313","Bugis, Kec. Sumbawa, Kabupaten Sumbawa",NUSA TENGGARA BARAT,84313.0,Indonesia,,,,-84.921.479,117.418.102,https://maps.google.com/?cid=0x0:0x405a27a048e5ed7f,
perumahan,Perhimpunan Pengembang Perumahan,Rumah Sangaji,"GC5G+VMV, Jl. Tongkol, Uma Sima, Kec. Sumbawa, Kabupaten Sumbawa, Nusa Tenggara Bar. 84313","Jl. Tongkol, Uma Sima, Kec. Sumbawa, Kabupaten Sumbawa",NUSA TENGGARA BARAT,84313.0,Indonesia,,,,-84.897.045,1.174.270.269,https://maps.google.com/?cid=0x0:0x74948fcfe414e297,
perumahan,Komplek perumahan,Jalan A Yani,"GC4F+6HC, Jl. Yos Sudarso, Bugis, Kec. Sumbawa, Kabupaten Sumbawa, Nusa Tenggara Bar. 84313","Jl. Yos Sudarso, Bugis, Kec. Sumbawa, Kabupaten Sumbawa",NUSA TENGGARA BARAT,84313.0,Indonesia,,,,-84.944.772,1.174.238.479,https://maps.google.com/?cid=0x0:0xdacca9fe97f89f77,
perumahan,Komplek perumahan,SR_BG_07,"GC2F+95V, Jl. Hasanudin, Bugis, Kec. Sumbawa, Kabupaten Sumbawa, Nusa Tenggara Bar. 84313","Jl. Hasanudin, Bugis, Kec. Sumbawa, Kabupaten Sumbawa",NUSA TENGGARA BARAT,84313.0,Indonesia,,,,-84.990.771,1.174.229.057,https://maps.google.com/?cid=0x0:0x3b57a10df3b89384,
perumahan,Gedung Apartemen,Rumah,"GC3M+GR, Seketeng, Kec. Sumbawa, Kabupaten Sumbawa, Nusa Tenggara Bar. 84313","Seketeng, Kec. Sumbawa, Kabupaten Sumbawa",NUSA TENGGARA BARAT,84313.0,Indonesia,,,,-8.496.124,1.174.346.461,https://maps.google.com/?cid=0x0:0x29947dcd3c3f14d3,
perumahan,Komplek perumahan,Rumah Risto,"GC59+G7M, Bugis, Kec. Sumbawa, Kabupaten Sumbawa, Nusa Tenggara Bar.","Kabupaten Sumbawa, Nusa Tenggara Bar.",NUSA TENGGARA BARAT,,Indonesia,,,,-8.491.153,1.174.181.733,https://maps.google.com/?cid=0x0:0x3d6b41d27f7b65b3,
perumahan,Pembangunan Perumahan,Panto Daeng Residence,"Jl. Kerangka Baja, Brang Bara, Kec. Sumbawa, Kabupaten Sumbawa, Nusa Tenggara Bar. 84316","Brang Bara, Kec. Sumbawa, Kabupaten Sumbawa",NUSA TENGGARA BARAT,84316.0,Indonesia,,,,-84.986.554,1.174.205.517,https://maps.google.com/?cid=0x0:0x90d3cfc9a90bb83d,
perumahan,Perumahan,Bumi Asri Residence,"GC4P+JR5, Seketeng, Kec. Sumbawa, Kabupaten Sumbawa, Nusa Tenggara Bar. 84311","Seketeng, Kec. Sumbawa, Kabupaten Sumbawa",NUSA TENGGARA BARAT,84311.0,Indonesia,,,,-84.936.931,1.174.363.787,https://maps.google.com/?cid=0x0:0x6848f2381164935,
perumahan,perumahan,GREEN,"GC2M+FPV, Seketeng, Kec. Sumbawa, Kabupaten Sumbawa, Nusa Tenggara Bar. 84313","Seketeng, Kec. Sumbawa, Kabupaten Sumbawa",NUSA TENGGARA BARAT,84313.0,Indonesia,,,,-84.987.702,1.174.342.865,https://maps.google.com/?cid=0x0:0xbcce301a74751868,
perumahan,Komplek perumahan,SR_BG_09,"GC39+6PX, Jl. Kerangka Baja Jalan, Brang Bara, Kec. Sumbawa, Kabupaten Sumbawa, Nusa Tenggara Bar. 84313","Jl. Kerangka Baja Jalan, Brang Bara, Kec. Sumbawa, Kabupaten Sumbawa",NUSA TENGGARA BARAT,84313.0,Indonesia,,,,-84.968.101,1.174.193.754,https://maps.google.com/?cid=0x0:0xf87bd5d402819e0e,
perumahan,Pembangunan Perumahan,Rumahku,"GC49+FXQ, Bugis, Kec. Sumbawa, Kabupaten Sumbawa, Nusa Tenggara Bar. 84313","Bugis, Kec. Sumbawa, Kabupaten Sumbawa",NUSA TENGGARA BARAT,84313.0,Indonesia,,,,-84.938.175,1.174.199.609,https://maps.google.com/?cid=0x0:0x77c63c20fca84bef,
perumahan,perumahan,PERUMAHAN GRAND HARMONI SUMBAWA,"GC5M+W2R, Uma Sima, Kec. Sumbawa, Kabupaten Sumbawa, Nusa Tenggara Bar.","Kabupaten Sumbawa, Nusa Tenggara Bar.",NUSA TENGGARA BARAT,,Indonesia,,,,-84.894.346,1.174.326.816,https://maps.google.com/?cid=0x0:0xa825481cad40c40d,
perumahan,Komplek perumahan,Niryanti,"JL Manggis No.14, RT 01 RW 05, Uma Sima, Sumbawa, Uma Sima, Mataram, Kabupaten Sumbawa, Nusa Tenggara Bar. 84313","RT 01 RW 05, Uma Sima, Sumbawa, Uma Sima, Mataram, Kabupaten Sumbawa",NUSA TENGGARA BARAT,84313.0,Indonesia,,,,-84.900.067,1.174.277.698,https://maps.google.com/?cid=0x0:0x923b648c2ac2e8e4,
perumahan,Otoritas Perumahan,Perumahan,"FCWG+FWR, Seketeng, Kec. Sumbawa, Kabupaten Sumbawa, Nusa Tenggara Bar.","Kabupaten Sumbawa, Nusa Tenggara Bar.",NUSA TENGGARA BARAT,,Indonesia,,,,-85.037.619,1.174.272.562,https://maps.google.com/?cid=0x0:0xcbffca3f3175712f,
perumahan,Gedung Apartemen,Rumah bang Ancus,"FCXM+7R5, Jl. Raya Bukit Permai, Seketeng, Kec. Sumbawa, Kabupaten Sumbawa, Nusa Tenggara Bar. 84313","Jl. Raya Bukit Permai, Seketeng, Kec. Sumbawa, Kabupaten Sumbawa",NUSA TENGGARA BARAT,84313.0,Indonesia,,,,-85.019.139,1.174.343.572,https://maps.google.com/?cid=0x0:0xfa3e0528eda0fc59,
perumahan,Perumahan,Perumahan TAMAN INDAH RESIDENCE,"GC5M+Q8G, Kel, Uma Sima, Kec. Sumbawa, Kabupaten Sumbawa, Nusa Tenggara Bar. 84312","Kel, Uma Sima, Kec. Sumbawa, Kabupaten Sumbawa",NUSA TENGGARA BARAT,84312.0,Indonesia,,,,-84.905.577,1.174.333.425,https://maps.google.com/?cid=0x0:0x879fcec48c1df6c7,
perumahan,Komplek perumahan,Perumahan Puri Kencana Asri,"GC5J+852 Belakang Taman Inter Katumis, Jl. Lintas Sumbawa - Bima Jl. Kebayan, Uma Sima, Kec. Sumbawa, Kabupaten Sumbawa, Nusa Tenggara Bar. 84313","Jl. Lintas Sumbawa - Bima Jl. Kebayan, Uma Sima, Kec. Sumbawa, Kabupaten Sumbawa",NUSA TENGGARA BARAT,84313.0,Indonesia,,,,-84.917.392,1.174.303.769,https://maps.google.com/?cid=0x0:0x9522cfb9e2b33cad,
perumahan,Gedung Apartemen,Revi Rinanda House,"GC49+8XH, Jl. Hasanudin Gang Teratai, Bugis, Kec. Sumbawa, Kabupaten Sumbawa, Nusa Tenggara Bar. 84313","Jl. Hasanudin Gang Teratai, Bugis, Kec. Sumbawa, Kabupaten Sumbawa",NUSA TENGGARA BARAT,84313.0,Indonesia,,,,-84.941.765,1.174.199.821,https://maps.google.com/?cid=0x0:0xd88738ee3aac1654,
perumahan,Pembangunan Perumahan,Bale Padu,"FCXJ+5W9, Seketeng, Kec. Sumbawa, Kabupaten Sumbawa, Nusa Tenggara Bar. 84313","Seketeng, Kec. Sumbawa, Kabupaten Sumbawa",NUSA TENGGARA BARAT,84313.0,Indonesia,,,,-8.502.092,1.174.323.592,https://maps.google.com/?cid=0x0:0xe4cc06921477cecc,
perumahan,Komplek perumahan,Rumah Pak Ahok,"FCXF+69M, Jl. Nuri Gg. Walet, RT.01/RW.03, Brang Bara, Kec. Sumbawa, Kabupaten Sumbawa, Nusa Tenggara Bar. 84313","Jl. Nuri Gg. Walet, RT.01/RW.03, Brang Bara, Kec. Sumbawa, Kabupaten Sumbawa",NUSA TENGGARA BARAT,84313.0,Indonesia,,,,-85.019.114,1.174.234.124,https://maps.google.com/?cid=0x0:0x90c2e31d81f6ffdf,
perumahan,Komplek perumahan,Perumahan bale balong,"FCGH+QH3, Jorok, Kec. Unter Iwes, Kabupaten Sumbawa, Nusa Tenggara Bar. 84316","Jorok, Kec. Unter Iwes, Kabupaten Sumbawa",NUSA TENGGARA BARAT,84316.0,Indonesia,87754737358,,,-85.231.228,1.174.289.275,https://maps.google.com/?cid=0x0:0x752264540a4f4107,
perumahan,perumahan,Nusa Tenggara Bar. 84314,"Brang Bara, Kec. Sumbawa, Kabupaten Sumbawa, Nusa Tenggara Bar.","Kabupaten Sumbawa, Nusa Tenggara Bar.",NUSA TENGGARA BARAT,,Indonesia,,,,-85.155.113,1.174.350.821,https://maps.google.com/?cid=0x0:0xea6b9bc50d2848df,
perumahan,Komplek perumahan,KOMP PERIKANAN,"FCRH+W3R, Pekat, Kec. Sumbawa, Kabupaten Sumbawa, Nusa Tenggara Bar. 84314","Pekat, Kec. Sumbawa, Kabupaten Sumbawa",NUSA TENGGARA BARAT,84314.0,Indonesia,85338722418,,,-85.076.279,117.427.629,https://maps.google.com/?cid=0x0:0x3e3b2a7ab2d81b46,
perumahan,Komplek perumahan,Pekat,"FCVG+JWG, Pekat, Kec. Sumbawa, Kabupaten Sumbawa, Nusa Tenggara Bar. 84314","Pekat, Kec. Sumbawa, Kabupaten Sumbawa",NUSA TENGGARA BARAT,84314.0,Indonesia,81219289280,,,-85.059.474,1.174.273.187,https://maps.google.com/?cid=0x0:0x8e23aa3fdd1a77aa,
perumahan,Perumahan,Komplek Perumahan BSD,"FCGP+529, Samapuin, Kec. Sumbawa, Kabupaten Sumbawa, Nusa Tenggara Bar. 84314","Samapuin, Kec. Sumbawa, Kabupaten Sumbawa",NUSA TENGGARA BARAT,84314.0,Indonesia,,,,-8.524.596,117.435.123,https://maps.google.com/?cid=0x0:0x57228a53b1fc7f9d,
perumahan,Komplek perumahan,"Rumah H. Lahmuddin, M.Pd.I","Jl. Dr. Sutomo No.25b, Pekat, Kec. Sumbawa, Kabupaten Sumbawa, Nusa Tenggara Bar. 84314","Pekat, Kec. Sumbawa, Kabupaten Sumbawa",NUSA TENGGARA BARAT,84314.0,Indonesia,,,,-85.073.769,1.174.275.772,https://maps.google.com/?cid=0x0:0x7658fca3c02e26,
perumahan,Otoritas Perumahan,Perumahan,"FCWG+FWR, Seketeng, Kec. Sumbawa, Kabupaten Sumbawa, Nusa Tenggara Bar.","Kabupaten Sumbawa, Nusa Tenggara Bar.",NUSA TENGGARA BARAT,,Indonesia,,,,-85.037.619,1.174.272.562,https://maps.google.com/?cid=0x0:0xcbffca3f3175712f,
perumahan,perumahan,Perumahan Graha Permata,"FC9P+P8W, Jl. Lintas Sumbawa - Bima, Seketeng, Kec. Sumbawa, Kabupaten Sumbawa, Nusa Tenggara Bar. 84316","Jl. Lintas Sumbawa - Bima, Seketeng, Kec. Sumbawa, Kabupaten Sumbawa",NUSA TENGGARA BARAT,84316.0,Indonesia,82339568860,,,-8.529.936,1.174.359.155,https://maps.google.com/?cid=0x0:0xea6ba289c1580de7,
perumahan,Komplek perumahan,Lalu Nurwana,"FCWC+RPW, Brang Bara, Kec. Sumbawa, Kabupaten Sumbawa, Nusa Tenggara Bar.","Kabupaten Sumbawa, Nusa Tenggara Bar.",NUSA TENGGARA BARAT,,Indonesia,,,,-85.028.863,1.174.218.404,https://maps.google.com/?cid=0x0:0x62592d1ee77a5ee,
perumahan,Komplek perumahan,MAHKOTA Residence,"FCPM+8G, Seketeng, Kec. Sumbawa, Kabupaten Sumbawa, Nusa Tenggara Bar.","Kabupaten Sumbawa, Nusa Tenggara Bar.",NUSA TENGGARA BARAT,,Indonesia,,,,-8.514.168,1.174.338.705,https://maps.google.com/?cid=0x0:0x4cf8652d973c65cb,
perumahan,Masjid,Jalan Baitul Makmur,"FCMP+Q2W, Pamanto Daeng Kelurahan, Brang Bara, Kec. Sumbawa, Kabupaten Sumbawa, Nusa Tenggara Bar. 84314","Pamanto Daeng Kelurahan, Brang Bara, Kec. Sumbawa, Kabupaten Sumbawa",NUSA TENGGARA BARAT,84314.0,Indonesia,81246490409,,,-85.155.113,1.174.350.821,https://maps.google.com/?cid=0x0:0xb5b4dca024dbfe1f,
perumahan,Perumahan,BALE BALONG RESIDENCE,"JL Sumbawa-Bima, RT 03, RW 03, Samapuin, Seketeng, Kec. Sumbawa, Kabupaten Sumbawa, Nusa Tenggara Bar. 84314","RT 03, RW 03, Samapuin, Seketeng, Kec. Sumbawa, Kabupaten Sumbawa",NUSA TENGGARA BARAT,84314.0,Indonesia,,,,-85.229.378,1.174.305.673,https://maps.google.com/?cid=0x0:0x6e2e0ab5cdf33ad5,
perumahan,Rumah Kayu,Kontrakan Rumah Kembar,"FCVJ+VQG, BTN Bukit Permai blok CC, gang Pamanto 2, Seketeng, Kec. Sumbawa, Kabupaten Sumbawa, Nusa Tenggara Bar. 84314","BTN Bukit Permai blok CC, gang Pamanto 2, Seketeng, Kec. Sumbawa, Kabupaten Sumbawa",NUSA TENGGARA BARAT,84314.0,Indonesia,,,,-85.053.051,1.174.319.574,https://maps.google.com/?cid=0x0:0x3a36cc5ebfa08ce5,
perumahan,Pembangunan Perumahan,SR_SM_14,"FCGJ+WMR, Seketeng, Kec. Sumbawa, Kabupaten Sumbawa, Nusa Tenggara Bar. 84314","Seketeng, Kec. Sumbawa, Kabupaten Sumbawa",NUSA TENGGARA BARAT,84314.0,Indonesia,,,,-85.228.209,1.174.312.975,https://maps.google.com/?cid=0x0:0x5cc1caa933673bcb,
perumahan,Komplek perumahan,Yasmi Al-Limungi,"Samapuin, Kec. Sumbawa, Kabupaten Sumbawa, Nusa Tenggara Bar. 84316","Kec. Sumbawa, Kabupaten Sumbawa",NUSA TENGGARA BARAT,84316.0,Indonesia,,,,-85.094.141,1.174.231.544,https://maps.google.com/?cid=0x0:0x3b6c729cb3658ced,
perumahan,Komplek perumahan,KARANG LAPAN,"FCVH+WWW, Jl. Tongkol, Pekat, Kec. Sumbawa, Kabupaten Sumbawa, Nusa Tenggara Bar. 84314","Jl. Tongkol, Pekat, Kec. Sumbawa, Kabupaten Sumbawa",NUSA TENGGARA BARAT,84314.0,Indonesia,,,,-85.051.473,1.174.298.391,https://maps.google.com/?cid=0x0:0xfe654a1cdfddc182,
perumahan,Komplek perumahan,SR_SM_04,"FCPF+M87, Samapuin, Kec. Sumbawa, Kabupaten Sumbawa, Nusa Tenggara Bar. 84316","Samapuin, Kec. Sumbawa, Kabupaten Sumbawa",NUSA TENGGARA BARAT,84316.0,Indonesia,,,,-85.132.681,1.174.235.259,https://maps.google.com/?cid=0x0:0x35402233dbcba32b,
perumahan,Pembangunan Perumahan,SR_SM_15,"FCGJ+WMR, Seketeng, Kec. Sumbawa, Kabupaten Sumbawa, Nusa Tenggara Bar. 84314","Seketeng, Kec. Sumbawa, Kabupaten Sumbawa",NUSA TENGGARA BARAT,84314.0,Indonesia,,,,-85.228.259,1.174.312.979,https://maps.google.com/?cid=0x0:0x923357f5e3ea9ebf,
perumahan,Pembangunan Perumahan,SR_SM_16,"FCGJ+WMR, Seketeng, Kec. Sumbawa, Kabupaten Sumbawa, Nusa Tenggara Bar. 84314","Seketeng, Kec. Sumbawa, Kabupaten Sumbawa",NUSA TENGGARA BARAT,84314.0,Indonesia,,,,-85.227.996,1.174.313.042,https://maps.google.com/?cid=0x0:0xbefda67e60115806,
perumahan,Otoritas Perumahan,Bukit Tinggi Residence,"FCJJ+V59, Jl. Lintas Sumbawa - Bima, Samapuin, Kec. Sumbawa, Kabupaten Sumbawa, Nusa Tenggara Bar. 84314","Jl. Lintas Sumbawa - Bima, Samapuin, Kec. Sumbawa, Kabupaten Sumbawa",NUSA TENGGARA BARAT,84314.0,Indonesia,,,,-85.178.424,1.174.304.707,https://maps.google.com/?cid=0x0:0xb8154c73a317cff6,
perumahan,Pembangunan Perumahan,Perumahan Bumi Indah Residence,"GC3J+VV4, Seketeng, Kec. Sumbawa, Kabupaten Sumbawa, Nusa Tenggara Bar. 84313","Seketeng, Kec. Sumbawa, Kabupaten Sumbawa",NUSA TENGGARA BARAT,84313.0,Indonesia,,,,-84.953.593,1.174.322.015,https://maps.google.com/?cid=0x0:0xcfa6a74ee747c679,
perumahan,Pembangunan Perumahan,Bukit Tinggi,"FCRH+GMC, Jl. Ki Hajar Dewantara, Pekat, Kec. Sumbawa, Kabupaten Sumbawa, Nusa Tenggara Bar. 84314","Jl. Ki Hajar Dewantara, Pekat, Kec. Sumbawa, Kabupaten Sumbawa",NUSA TENGGARA BARAT,84314.0,Indonesia,,,,-85.086.846,1.174.291.538,https://maps.google.com/?cid=0x0:0x7a8170ec2e0c66b,
perumahan,Komplek perumahan,Karang cemes,"FCRG+G6X, Pekat, Kec. Sumbawa, Kabupaten Sumbawa, Nusa Tenggara Bar. 84316","Pekat, Kec. Sumbawa, Kabupaten Sumbawa",NUSA TENGGARA BARAT,84316.0,Indonesia,,,,-85.086.299,117.425.619,https://maps.google.com/?cid=0x0:0xc965c88b9fc59d84,
perumahan,Gedung Apartemen,Rumah bang Ancus,"FCXM+7R5, Jl. Raya Bukit Permai, Seketeng, Kec. Sumbawa, Kabupaten Sumbawa, Nusa Tenggara Bar. 84313","Jl. Raya Bukit Permai, Seketeng, Kec. Sumbawa, Kabupaten Sumbawa",NUSA TENGGARA BARAT,84313.0,Indonesia,,,,-85.019.139,1.174.343.572,https://maps.google.com/?cid=0x0:0xfa3e0528eda0fc59,
perumahan,Perumahan,BTN Bukit Permata Residence,"GC2Q+GP9, Seketeng, Kec. Sumbawa, Kabupaten Sumbawa, Nusa Tenggara Bar. 84311","Seketeng, Kec. Sumbawa, Kabupaten Sumbawa",NUSA TENGGARA BARAT,84311.0,Indonesia,,,,-84.977.873,1.174.387.887,https://maps.google.com/?cid=0x0:0x5bb7e17f51672675,
perumahan,Pembangunan Perumahan,JAMHUR,"FCFJ+6X, Jorok, Kec. Unter Iwes, Kabupaten Sumbawa, Nusa Tenggara Bar.","Kabupaten Sumbawa, Nusa Tenggara Bar.",NUSA TENGGARA BARAT,,Indonesia,,,,-85.268.782,1.174.324.136,https://maps.google.com/?cid=0x0:0xf1413119c908594a,
perumahan,perumahan,Pulau Sumbawa,Nusa Tenggara Bar.,Nusa Tenggara Bar.,NUSA TENGGARA BARAT,,Indonesia,,,,-8.738.072,1.181.171.082,https://maps.google.com/?cid=0x0:0x82a1915875a8c41c,
perumahan,Perhimpunan Pengembang Perumahan,Perumahan ALAM KERATO ASRI,"GC55+7WR, Jl. Bung Karno Lintas Sernu, Lempeh, Kec. Sumbawa, Kabupaten Sumbawa, Nusa Tenggara Bar. 84316","Jl. Bung Karno Lintas Sernu, Lempeh, Kec. Sumbawa, Kabupaten Sumbawa",NUSA TENGGARA BARAT,84316.0,Indonesia,,,,-84.917.615,1.174.097.558,https://maps.google.com/?cid=0x0:0xfb8615260b203bca,
perumahan,Perumahan,BTN SAMOTA RESIDENCE,"Brang Biji, Kec. Sumbawa, Kabupaten Sumbawa, Nusa Tenggara Bar. 84318","Kec. Sumbawa, Kabupaten Sumbawa",NUSA TENGGARA BARAT,84318.0,Indonesia,87860393665,,,-84.603.065,1.174.104.106,https://maps.google.com/?cid=0x0:0xceb2aa61b5e3a784,
perumahan,Komplek perumahan,Perumahan Graha Bintang Perdana,"7R4G+898, Banjar, Kec. Taliwang, Kabupaten Sumbawa Barat, Nusa Tenggara Bar. 84455","Banjar, Kec. Taliwang, Kabupaten Sumbawa Barat",NUSA TENGGARA BARAT,84455.0,Indonesia,,,,-87.442.117,1.168.259.564,https://maps.google.com/?cid=0x0:0x8ce715ac2dcbcb7c,
perumahan,perumahan,Rumah Alvin,"62H3+HFG, RT.05/RW.02, Pamanto, Kec. Empang, Kabupaten Sumbawa, Nusa Tenggara Bar.","Kabupaten Sumbawa, Nusa Tenggara Bar.",NUSA TENGGARA BARAT,,Indonesia,,,,-87.718.718,1.180.044.173,https://maps.google.com/?cid=0x0:0xe50ed8c9a934e5ba,
perumahan,Komplek perumahan,Perumahan Teluk Saleh Residance,"83M6+M2, Labuan Jambu, Kec. Tarano, Kabupaten Sumbawa, Nusa Tenggara Bar.","Kabupaten Sumbawa, Nusa Tenggara Bar.",NUSA TENGGARA BARAT,,Indonesia,,,,-8.665.784,118.060.036,https://maps.google.com/?cid=0x0:0x2d6e78b465ba4036,
perumahan,Komplek perumahan,Rumah melan suka TOBRUT,"62M4+8FF, Dusun awo, Empang Atas, Kec. Empang, Kabupaten Sumbawa, Nusa Tenggara Bar.","Kabupaten Sumbawa, Nusa Tenggara Bar.",NUSA TENGGARA BARAT,,Indonesia,,,,-87.666.021,1.180.061.986,https://maps.google.com/?cid=0x0:0xe1749eb9dda2d6d3,
perumahan,Komplek perumahan,Rumah Ichan,"62G5+GRC, Jotang, Kec. Empang, Kabupaten Sumbawa, Nusa Tenggara Bar. 84384","Jotang, Kec. Empang, Kabupaten Sumbawa",NUSA TENGGARA BARAT,84384.0,Indonesia,,,,-87.735.409,1.180.094.248,https://maps.google.com/?cid=0x0:0x9bee84eac0a73c99,
perumahan,Komplek perumahan,Rumah nur ilfania,"7X4P+JM6, Labuan Bontong, Kec. Tarano, Kabupaten Sumbawa, Nusa Tenggara Bar. 84384","Labuan Bontong, Kec. Tarano, Kabupaten Sumbawa",NUSA TENGGARA BARAT,84384.0,Indonesia,,,,-87.444,117.988.259,https://maps.google.com/?cid=0x0:0x752365710adead5e,
perumahan,Komplek perumahan,Rumah nabil budiman,"6WJR+589, Gapit, Kec. Empang, Kabupaten Sumbawa, Nusa Tenggara Bar.","Kabupaten Sumbawa, Nusa Tenggara Bar.",NUSA TENGGARA BARAT,,Indonesia,,,,-87.695.815,1.179.408.747,https://maps.google.com/?cid=0x0:0xe35adf7a936d12bd,
perumahan,Perhimpunan Pengembang Perumahan,Rumah mia,"62M3+6JQ, Empang Bawah, Kec. Empang, Kabupaten Sumbawa, Nusa Tenggara Bar. 84384","Empang Bawah, Kec. Empang, Kabupaten Sumbawa",NUSA TENGGARA BARAT,84384.0,Indonesia,,,,-87.669.227,118.004.105,https://maps.google.com/?cid=0x0:0x720f5d2c90185851,
perumahan,Komplek perumahan,Rumah syarif,"7X2W+2V, Empang Bawah, Kec. Empang, Kabupaten Sumbawa, Nusa Tenggara Bar.","Kabupaten Sumbawa, Nusa Tenggara Bar.",NUSA TENGGARA BARAT,,Indonesia,,,,-87.499.271,1.179.971.643,https://maps.google.com/?cid=0x0:0x3bb4dddb03f4a115,
perumahan,Perhimpunan Pengembang Perumahan,Imelda,"6VJ6+XGC, Sepayung, Kec. Plampang, Kabupaten Sumbawa, Nusa Tenggara Bar.","Kabupaten Sumbawa, Nusa Tenggara Bar.",NUSA TENGGARA BARAT,,Indonesia,,,,-87.675.691,1.178.612.738,https://maps.google.com/?cid=0x0:0x5bb5fe5a205ca047,
perumahan,Perumahan,BTN Bukit Permata Residence,"GC2Q+GP9, Seketeng, Kec. Sumbawa, Kabupaten Sumbawa, Nusa Tenggara Bar. 84311","Seketeng, Kec. Sumbawa, Kabupaten Sumbawa",NUSA TENGGARA BARAT,84311.0,Indonesia,,,,-84.977.873,1.174.387.887,https://maps.google.com/?cid=0x0:0x5bb7e17f51672675,
perumahan,Komplek perumahan,Empang atas,"62P8+P7M kampung ponong, Empang Atas, Kec. Empang, Kabupaten Sumbawa, Nusa Tenggara Bar.","Kabupaten Sumbawa, Nusa Tenggara Bar.",NUSA TENGGARA BARAT,,Indonesia,,,,-87.631.525,1.180.156.811,https://maps.google.com/?cid=0x0:0x5840d9563dabdde6,
perumahan,Komplek perumahan,Kak Dini,"62M2+FPM, Unnamed Road, Empang Bawah, Kec. Empang, Kabupaten Sumbawa, Nusa Tenggara Bar. 84384","Unnamed Road, Empang Bawah, Kec. Empang, Kabupaten Sumbawa",NUSA TENGGARA BARAT,84384.0,Indonesia,,,,-87.662.958,1.180.018.069,https://maps.google.com/?cid=0x0:0x9cb55d5338dc7d08,
perumahan,Pembangunan Perumahan,PT. ALAM ASRI PROPERTI,"Jl. Bung Karno Lintas Sernu, Lempeh, Kec. Sumbawa, Kabupaten Sumbawa, Nusa Tenggara Bar. 84316","Lempeh, Kec. Sumbawa, Kabupaten Sumbawa",NUSA TENGGARA BARAT,84316.0,Indonesia,82341314866,,,-84.795.534,1.174.005.504,https://maps.google.com/?cid=0x0:0x1aa3a47ff804810e,
perumahan,Pembangunan Perumahan,.,"Jotang, Kec. Empang, Kabupaten Sumbawa, Nusa Tenggara Bar. 84384","Kec. Empang, Kabupaten Sumbawa",NUSA TENGGARA BARAT,84384.0,Indonesia,,,,-88.365.514,118.025.417,https://maps.google.com/?cid=0x0:0x9ac1dd3ec424db77,
perumahan,Pembangunan Perumahan,Bale ridho,"62M4+8FF, Dusun awo, Empang Atas, Kec. Empang, Kabupaten Sumbawa, Nusa Tenggara Bar.","Kabupaten Sumbawa, Nusa Tenggara Bar.",NUSA TENGGARA BARAT,,Indonesia,,,,-87.666.844,1.180.061.748,https://maps.google.com/?cid=0x0:0x1845a1f90d204f18,
perumahan,Komplek perumahan,Rumah Jasvir  Nabil,"62M4+QPH, Empang Atas, Kec. Empang, Kabupaten Sumbawa, Nusa Tenggara Bar. 84384","Empang Atas, Kec. Empang, Kabupaten Sumbawa",NUSA TENGGARA BARAT,84384.0,Indonesia,,,,-87.658.553,1.180.067.511,https://maps.google.com/?cid=0x0:0xcf72dd540ad5bc97,
perumahan,Komplek perumahan,Tandon 1,"67F5+F5 BSI camp area, Tolo' Oi, Kec. Tarano, Kabupaten Sumbawa, Nusa Tenggara Bar.","Kabupaten Sumbawa, Nusa Tenggara Bar.",NUSA TENGGARA BARAT,,Indonesia,,,,-87.751.681,1.182.573.519,https://maps.google.com/?cid=0x0:0xa07dbfebae7dc95a,
perumahan,Kompleks Kondominium,Baiti jannati,"FCFW+4PQ, Samapuin, Kec. Sumbawa, Kabupaten Sumbawa, Nusa Tenggara Bar.","Kabupaten Sumbawa, Nusa Tenggara Bar.",NUSA TENGGARA BARAT,,Indonesia,,,,-85.271.744,1.174.468.732,https://maps.google.com/?cid=0x0:0x8595c10582b757fc,
perumahan,Komplek perumahan,Perumahan Puri Kencana Asri,"GC5J+852 Belakang Taman Inter Katumis, Jl. Lintas Sumbawa - Bima Jl. Kebayan, Uma Sima, Kec. Sumbawa, Kabupaten Sumbawa, Nusa Tenggara Bar. 84313","Jl. Lintas Sumbawa - Bima Jl. Kebayan, Uma Sima, Kec. Sumbawa, Kabupaten Sumbawa",NUSA TENGGARA BARAT,84313.0,Indonesia,,,,-84.917.392,1.174.303.769,https://maps.google.com/?cid=0x0:0x9522cfb9e2b33cad,
perumahan,Pondok pedesaan,Nusa tenggara Barat,"89W6+RMC, Sempe, Kec. Moyo Hulu, Kabupaten Sumbawa, Nusa Tenggara Bar.","Kabupaten Sumbawa, Nusa Tenggara Bar.",NUSA TENGGARA BARAT,,Indonesia,,,,-86.529.334,1.173.616.476,https://maps.google.com/?cid=0x0:0x342702e2207a3127,
perumahan,Komplek perumahan,Perumahan Dea Mas Garden,"CCM9+6RG, Jalan Raya Olat, Maras, Pernek, Moyo Hulu, Sumbawa Regency, West Nusa Tenggara 84316","Jalan Raya Olat, Maras, Pernek, Moyo Hulu, Sumbawa Regency",NUSA TENGGARA BARAT,84316.0,Indonesia,,,,-85.669.468,1.174.195.743,https://maps.google.com/?cid=0x0:0x7bfc8c37e4e0f2b2,
perumahan,Perumahan,GReen HiLL ReGencY SumBawa BeSaR,"Jln. RaYa Sumbawa-Bima Km.7, Boak, Kec. Unter Iwes, Kabupaten Sumbawa, Nusa Tenggara Bar. 84316","Boak, Kec. Unter Iwes, Kabupaten Sumbawa",NUSA TENGGARA BARAT,84316.0,Indonesia,85333302300,,,-85.371.916,1.174.613.189,https://maps.google.com/?cid=0x0:0xfbd299a361993366,
perumahan,Perhimpunan Pengembang Perumahan,Rumah,"89V7+X2J, Sempe, Kec. Moyo Hulu, Kabupaten Sumbawa, Nusa Tenggara Bar. 84371","Sempe, Kec. Moyo Hulu, Kabupaten Sumbawa",NUSA TENGGARA BARAT,84371.0,Indonesia,,,,-8.655.347,1.173.619.313,https://maps.google.com/?cid=0x0:0xaa0ded2381f7d8a8,
perumahan,Perumahan,Komplek Perumahan BSD,"FCGP+529, Samapuin, Kec. Sumbawa, Kabupaten Sumbawa, Nusa Tenggara Bar. 84314","Samapuin, Kec. Sumbawa, Kabupaten Sumbawa",NUSA TENGGARA BARAT,84314.0,Indonesia,,,,-8.524.596,117.435.123,https://maps.google.com/?cid=0x0:0x57228a53b1fc7f9d,
perumahan,Pembangunan Perumahan,Bale ode kuri,"F94G+7PH, Pelat, Kec. Unter Iwes, Kabupaten Sumbawa, Nusa Tenggara Bar. 84316","Pelat, Kec. Unter Iwes, Kabupaten Sumbawa",NUSA TENGGARA BARAT,84316.0,Indonesia,,,,-85.443.047,1.173.768.477,https://maps.google.com/?cid=0x0:0xd02d04701a71aa96,
perumahan,perumahan,Nusa Tenggara Bar. 84316,"Kabupaten Sumbawa, Nusa Tenggara Bar.","Kabupaten Sumbawa, Nusa Tenggara Bar.",NUSA TENGGARA BARAT,,Indonesia,,,,-83.425.116,1.175.261.025,https://maps.google.com/?cid=0x0:0xae3c45be75c5d8c3,
perumahan,Komplek perumahan,Perumahan Puri Citra Samawa,"FFCC+JVR, Jl. Raya Moyo Hilir No.KM, RW.7, Moyo, Kec. Moyohilir, Kabupaten Sumbawa, Nusa Tenggara Bar. 84316","Jl. Raya Moyo Hilir No.KM, RW.7, Moyo, Kec. Moyohilir, Kabupaten Sumbawa",NUSA TENGGARA BARAT,84316.0,Indonesia,,,,-85.281.824,1.174.727.116,https://maps.google.com/?cid=0x0:0xe210ff360d7123c3,
perumahan,Pembangunan Perumahan,Panto Daeng Residence,"Jl. Kerangka Baja, Brang Bara, Kec. Sumbawa, Kabupaten Sumbawa, Nusa Tenggara Bar. 84316","Brang Bara, Kec. Sumbawa, Kabupaten Sumbawa",NUSA TENGGARA BARAT,84316.0,Indonesia,,,,-84.986.554,1.174.205.517,https://maps.google.com/?cid=0x0:0x90d3cfc9a90bb83d,
perumahan,Komplek perumahan,Perumahan Dea Mas Garden,"CCM9+6RG, Jalan Raya Olat, Maras, Pernek, Moyo Hulu, Sumbawa Regency, West Nusa Tenggara 84316","Jalan Raya Olat, Maras, Pernek, Moyo Hulu, Sumbawa Regency",NUSA TENGGARA BARAT,84316.0,Indonesia,,,,-85.669.468,1.174.195.743,https://maps.google.com/?cid=0x0:0x7bfc8c37e4e0f2b2,
perumahan,perumahan,Perumahan Graha Permata,"FC9P+P8W, Jl. Lintas Sumbawa - Bima, Seketeng, Kec. Sumbawa, Kabupaten Sumbawa, Nusa Tenggara Bar. 84316","Jl. Lintas Sumbawa - Bima, Seketeng, Kec. Sumbawa, Kabupaten Sumbawa",NUSA TENGGARA BARAT,84316.0,Indonesia,82339568860,,,-8.529.936,1.174.359.155,https://maps.google.com/?cid=0x0:0xea6ba289c1580de7,
perumahan,Komplek perumahan,Rumah tinggal,"GCJ4+H2C, Labuan Sumbawa, Labuhan Badas, Kabupaten Sumbawa, Nusa Tenggara Bar. 84316","Labuan Sumbawa, Labuhan Badas, Kabupaten Sumbawa",NUSA TENGGARA BARAT,84316.0,Indonesia,,,,-84.685.678,1.174.050.048,https://maps.google.com/?cid=0x0:0xb7cadd3335d5e933,
perumahan,Komplek perumahan,Rumah H Maswarang,"G92P+485, Karang Dima, Labuhan Badas, Kabupaten Sumbawa, Nusa Tenggara Bar. 84316","Karang Dima, Labuhan Badas, Kabupaten Sumbawa",NUSA TENGGARA BARAT,84316.0,Indonesia,,,,-8.499.739,1.173.858.466,https://maps.google.com/?cid=0x0:0x93a9387b4f195115,
perumahan,Komplek perumahan,SR-LP-06 Rumah Asyifa,"GCF5+JWJ, Lempeh, Kec. Sumbawa, Kabupaten Sumbawa, Nusa Tenggara Bar. 84316","Lempeh, Kec. Sumbawa, Kabupaten Sumbawa",NUSA TENGGARA BARAT,84316.0,Indonesia,,,,-84.751.275,1.174.098.245,https://maps.google.com/?cid=0x0:0x476876a8661608dd,
perumahan,Komplek perumahan,Griya Samota Indah,"GCP5+5HC, Jalan Raya Samota, Brang Biji, Kec. Sumbawa, Kabupaten Sumbawa, Nusa Tenggara Bar. 84316","Jalan Raya Samota, Brang Biji, Kec. Sumbawa, Kabupaten Sumbawa",NUSA TENGGARA BARAT,84316.0,Indonesia,,,,-84.645.729,1.174.088.891,https://maps.google.com/?cid=0x0:0x115baa8a5545a80,
perumahan,Perhimpunan Pengembang Perumahan,Perumahan ALAM KERATO ASRI,"GC55+7WR, Jl. Bung Karno Lintas Sernu, Lempeh, Kec. Sumbawa, Kabupaten Sumbawa, Nusa Tenggara Bar. 84316","Jl. Bung Karno Lintas Sernu, Lempeh, Kec. Sumbawa, Kabupaten Sumbawa",NUSA TENGGARA BARAT,84316.0,Indonesia,,,,-84.917.615,1.174.097.558,https://maps.google.com/?cid=0x0:0xfb8615260b203bca,
perumahan,Komplek perumahan,Perumahan Puri Damai Regency,"G9HJ+395, Karang Dima, Labuhan Badas, Kabupaten Sumbawa, Nusa Tenggara Bar. 84316","Karang Dima, Labuhan Badas, Kabupaten Sumbawa",NUSA TENGGARA BARAT,84316.0,Indonesia,,,,-84.723.832,1.173.810.656,https://maps.google.com/?cid=0x0:0x3c3ff92f742e50be,
perumahan,Perumahan,Rumah Adib_iPin,"G9CX+P6Q, Labuan Sumbawa, Labuhan Badas, Kabupaten Sumbawa, Nusa Tenggara Bar. 84316","Labuan Sumbawa, Labuhan Badas, Kabupaten Sumbawa",NUSA TENGGARA BARAT,84316.0,Indonesia,,,,-84.781.749,1.173.980.986,https://maps.google.com/?cid=0x0:0x1e75560513fabce0,
perumahan,Pembangunan Perumahan,Perumahan Bumi Indah Residence,"GC3J+VV4, Seketeng, Kec. Sumbawa, Kabupaten Sumbawa, Nusa Tenggara Bar. 84313","Seketeng, Kec. Sumbawa, Kabupaten Sumbawa",NUSA TENGGARA BARAT,84313.0,Indonesia,,,,-84.953.593,1.174.322.015,https://maps.google.com/?cid=0x0:0xcfa6a74ee747c679,
perumahan,Perumahan,Perumahan Green Samawa Residence,"GC54+W95, Jl. Bung Karno Lintas Sernu, Lempeh, Kec. Sumbawa, Kabupaten Sumbawa, Nusa Tenggara Bar. 84316","Jl. Bung Karno Lintas Sernu, Lempeh, Kec. Sumbawa, Kabupaten Sumbawa",NUSA TENGGARA BARAT,84316.0,Indonesia,,,,-84.902.267,1.174.059.992,https://maps.google.com/?cid=0x0:0x10553595080fccb9,
perumahan,Perhimpunan Pengembang Perumahan,Rumah widya,"G9FQ+XJG, Jl. Garuda, Karang Dima, Labuhan Badas, Kabupaten Sumbawa, Nusa Tenggara Bar. 84316","Jl. Garuda, Karang Dima, Labuhan Badas, Kabupaten Sumbawa",NUSA TENGGARA BARAT,84316.0,Indonesia,,,,-8.475.055,117.389.073,https://maps.google.com/?cid=0x0:0xa9cb490e895f4f23,
perumahan,Kompleks Kondominium,BTN BAITI JAINATI,"FCFX+H72, Kelurahan Samapuin, Poto, Kec. Moyohilir, Kabupaten Sumbawa, Nusa Tenggara Bar. 84316","Kelurahan Samapuin, Poto, Kec. Moyohilir, Kabupaten Sumbawa",NUSA TENGGARA BARAT,84316.0,Indonesia,,,,-85.261.077,1.174.481.521,https://maps.google.com/?cid=0x0:0x82d44c163d4c08b5,
perumahan,Pembangunan Perumahan,Perumahan Griya Permata HIjau,"GC93+858, Lempeh, Kec. Sumbawa, Kabupaten Sumbawa, Nusa Tenggara Bar.","Kabupaten Sumbawa, Nusa Tenggara Bar.",NUSA TENGGARA BARAT,,Indonesia,,,,-84.817.065,1.174.029.597,https://maps.google.com/?cid=0x0:0x9e638bf209c81d92,
perumahan,Komplek perumahan,Rumah Junaidi,"G9CH+P88, Unnamed Road, Karang Dima, Labuhan Badas, Kabupaten Sumbawa, Nusa Tenggara Bar. 84316","Unnamed Road, Karang Dima, Labuhan Badas, Kabupaten Sumbawa",NUSA TENGGARA BARAT,84316.0,Indonesia,,,,-84.782.001,1.173.783.396,https://maps.google.com/?cid=0x0:0xf3c3ba0187183238,
perumahan,Pembangunan Perumahan,Rumah tempat tinggal Bpk. Mulyadi,"FF76+VPP, Jl. Lintas Sumbawa - Bima, Moyo, Kec. Moyohilir, Kabupaten Sumbawa, Nusa Tenggara Bar. 84316","Jl. Lintas Sumbawa - Bima, Moyo, Kec. Moyohilir, Kabupaten Sumbawa",NUSA TENGGARA BARAT,84316.0,Indonesia,,,,-8.535.628,1.174.621.648,https://maps.google.com/?cid=0x0:0x96d381369f37655a,
perumahan,Perumahan,BTN Green Hills,"FF76+7J2, Unnamed Road, Boak, Kec. Unter Iwes, Kabupaten Sumbawa, Nusa Tenggara Bar. 84316","Unnamed Road, Boak, Kec. Unter Iwes, Kabupaten Sumbawa",NUSA TENGGARA BARAT,84316.0,Indonesia,,,,-85.368.538,117.461.508,https://maps.google.com/?cid=0x0:0xf91e655827b56948,
perumahan,Komplek perumahan,"Kampung Rinjani, Labuhan Sumbawa","G9FX+R7R, Jl. Kauman 1, Labuan Sumbawa, Labuhan Badas, Kabupaten Sumbawa, Nusa Tenggara Bar. 84316","Jl. Kauman 1, Labuan Sumbawa, Labuhan Badas, Kabupaten Sumbawa",NUSA TENGGARA BARAT,84316.0,Indonesia,,,,-8.475.393,1.173.981.511,https://maps.google.com/?cid=0x0:0xcf3a525477ee7109,
perumahan,Komplek perumahan,Rumah Axel Labib,"G9CX+V3X, Labuan Sumbawa, Labuhan Badas, Kabupaten Sumbawa, Nusa Tenggara Bar. 84316","Labuan Sumbawa, Labuhan Badas, Kabupaten Sumbawa",NUSA TENGGARA BARAT,84316.0,Indonesia,,,,-8.477.963,117.397.838,https://maps.google.com/?cid=0x0:0xe7246f8d135a8fb4,
perumahan,Komplek perumahan,Rumah HARI SOLO,"GCG8+2QF, Gg. V, Brang Biji, Kec. Sumbawa, Kabupaten Sumbawa, Nusa Tenggara Bar. 84316","Gg. V, Brang Biji, Kec. Sumbawa, Kabupaten Sumbawa",NUSA TENGGARA BARAT,84316.0,Indonesia,,,,-84.748.584,1.174.169.092,https://maps.google.com/?cid=0x0:0x5bab326cd2b2b812,
perumahan,Komplek perumahan,Rumah WAFA,"FCXC+249, Brang Bara, Kec. Sumbawa, Kabupaten Sumbawa, Nusa Tenggara Bar. 84316","Brang Bara, Kec. Sumbawa, Kabupaten Sumbawa",NUSA TENGGARA BARAT,84316.0,Indonesia,,,,-85.024.662,1.174.202.805,https://maps.google.com/?cid=0x0:0xc46994a4d8fe6cd7,
perumahan,Pembangunan Perumahan,ArniAlfi,"Gg DPRD I, Kelurahan samapuin, Kec. Sumbawa, Kabupaten Sumbawa, Nusa Tenggara Bar. 84316","Kelurahan samapuin, Kec. Sumbawa, Kabupaten Sumbawa",NUSA TENGGARA BARAT,84316.0,Indonesia,,,,-84.789.154,1.174.237.896,https://maps.google.com/?cid=0x0:0xc7ec22704d77f032,
perumahan,Pembangunan Perumahan,perumahan samawa regency,"GC8P+HHF, Uma Sima, Kec. Sumbawa, Kabupaten Sumbawa, Nusa Tenggara Bar.","Kabupaten Sumbawa, Nusa Tenggara Bar.",NUSA TENGGARA BARAT,,Indonesia,,,,-8.483.557,1.174.364.372,https://maps.google.com/?cid=0x0:0xb78940adc3afc146,
perumahan,perumahan,Nusa Tenggara Bar. 84317,"Kabupaten Sumbawa, Nusa Tenggara Bar.","Kabupaten Sumbawa, Nusa Tenggara Bar.",NUSA TENGGARA BARAT,,Indonesia,,,,-84.821.188,1.174.497.657,https://maps.google.com/?cid=0x0:0xda63529bf763eba1,
perumahan,Pembangunan Perumahan,Perumahan Bumi Indah Residence,"GC3J+VV4, Seketeng, Kec. Sumbawa, Kabupaten Sumbawa, Nusa Tenggara Bar. 84313","Seketeng, Kec. Sumbawa, Kabupaten Sumbawa",NUSA TENGGARA BARAT,84313.0,Indonesia,,,,-84.953.593,1.174.322.015,https://maps.google.com/?cid=0x0:0xcfa6a74ee747c679,
perumahan,Perumahan,Perumahan TAMAN INDAH RESIDENCE,"GC5M+Q8G, Kel, Uma Sima, Kec. Sumbawa, Kabupaten Sumbawa, Nusa Tenggara Bar. 84312","Kel, Uma Sima, Kec. Sumbawa, Kabupaten Sumbawa",NUSA TENGGARA BARAT,84312.0,Indonesia,,,,-84.905.577,1.174.333.425,https://maps.google.com/?cid=0x0:0x879fcec48c1df6c7,
perumahan,Pembangunan Perumahan,Perumahan Pesona Raberas,"GF63+W9P, Jl. Raberas, Seketeng, Kec. Sumbawa, Kabupaten Sumbawa, Nusa Tenggara Bar. 84317","Jl. Raberas, Seketeng, Kec. Sumbawa, Kabupaten Sumbawa",NUSA TENGGARA BARAT,84317.0,Indonesia,,,,-84.876.566,1.174.534.419,https://maps.google.com/?cid=0x0:0x70e9ee052a5e4602,
perumahan,Komplek perumahan,Rumah anom,"GC7H+V4F, Jl. Kebayan, Brang Biji, Kec. Sumbawa, Kabupaten Sumbawa, Nusa Tenggara Bar.","Kabupaten Sumbawa, Nusa Tenggara Bar.",NUSA TENGGARA BARAT,,Indonesia,,,,-84.853.194,1.174.277.991,https://maps.google.com/?cid=0x0:0x87f4eb5fa5c9396a,
perumahan,Komplek perumahan,Perumahan Puri Kencana Asri,"GC5J+852 Belakang Taman Inter Katumis, Jl. Lintas Sumbawa - Bima Jl. Kebayan, Uma Sima, Kec. Sumbawa, Kabupaten Sumbawa, Nusa Tenggara Bar. 84313","Jl. Lintas Sumbawa - Bima Jl. Kebayan, Uma Sima, Kec. Sumbawa, Kabupaten Sumbawa",NUSA TENGGARA BARAT,84313.0,Indonesia,,,,-84.917.392,1.174.303.769,https://maps.google.com/?cid=0x0:0x9522cfb9e2b33cad,
perumahan,Perumahan,BTN Bukit Permata Residence,"GC2Q+GP9, Seketeng, Kec. Sumbawa, Kabupaten Sumbawa, Nusa Tenggara Bar. 84311","Seketeng, Kec. Sumbawa, Kabupaten Sumbawa",NUSA TENGGARA BARAT,84311.0,Indonesia,,,,-84.977.873,1.174.387.887,https://maps.google.com/?cid=0x0:0x5bb7e17f51672675,
perumahan,,Rumah Fara,"GC8G+927 dekat kuburan katolik, Jl. Kebayan, Brang Biji, Kec. Sumbawa, Kabupaten Sumbawa, Nusa Tenggara Bar.","Kabupaten Sumbawa, Nusa Tenggara Bar.",NUSA TENGGARA BARAT,,Indonesia,,,,-84.840.817,1.174.250.338,https://maps.google.com/?cid=0x0:0xe998e3c07bb7f6e3,
perumahan,Komplek perumahan,"KOS RAKAT NIO, GLEN, RENDRA","GC8J+6QR, Seketeng, Kec. Sumbawa, Kabupaten Sumbawa, Nusa Tenggara Bar. 84317","Seketeng, Kec. Sumbawa, Kabupaten Sumbawa",NUSA TENGGARA BARAT,84317.0,Indonesia,,,,-84.843.757,1.174.318.589,https://maps.google.com/?cid=0x0:0x9d3808e28127ff67,
perumahan,Komplek perumahan,Perumahan Kebayan,"GC8G+W5G, Brang Biji, Kec. Sumbawa, Kabupaten Sumbawa, Nusa Tenggara Bar. 84312","Brang Biji, Kec. Sumbawa, Kabupaten Sumbawa",NUSA TENGGARA BARAT,84312.0,Indonesia,,,,-8.482.699,1.174.254.604,https://maps.google.com/?cid=0x0:0xddd23b7cfcbafa3a,
perumahan,Pembangunan Perumahan,Shiane Home,"GC7G+V36, Brang Biji, Kec. Sumbawa, Kabupaten Sumbawa, Nusa Tenggara Bar. 84312","Brang Biji, Kec. Sumbawa, Kabupaten Sumbawa",NUSA TENGGARA BARAT,84312.0,Indonesia,,,,-848.535,1.174.251.366,https://maps.google.com/?cid=0x0:0xf3edf1c4c78b2da0,
perumahan,Komplek perumahan,Rumah earlita,"GC5J+V9V, Uma Sima, Kec. Sumbawa, Kabupaten Sumbawa, Nusa Tenggara Bar.","Kabupaten Sumbawa, Nusa Tenggara Bar.",NUSA TENGGARA BARAT,,Indonesia,,,,-84.902.663,1.174.309.368,https://maps.google.com/?cid=0x0:0x1601b000743a377a,
perumahan,Komplek perumahan,Rumah paskal,"GC8G+579, Brang Biji, Kec. Sumbawa, Kabupaten Sumbawa, Nusa Tenggara Bar.","Kabupaten Sumbawa, Nusa Tenggara Bar.",NUSA TENGGARA BARAT,,Indonesia,,,,-84.845.863,1.174.257.207,https://maps.google.com/?cid=0x0:0x3ecdfc564020b2e8,
perumahan,perumahan,Rumah Yul,"Jl. Raberas No.04, RW.10, Seketeng, Kec. Sumbawa, Kabupaten Sumbawa, Nusa Tenggara Bar. 84317","RW.10, Seketeng, Kec. Sumbawa, Kabupaten Sumbawa",NUSA TENGGARA BARAT,84317.0,Indonesia,,,,-84.884.781,1.174.523.501,https://maps.google.com/?cid=0x0:0x12ca491cf406ace9,
perumahan,Pembangunan Perumahan,Perumahan UNTERA GARDEN,"GC5M+VP9, Seketeng, Kec. Sumbawa, Kabupaten Sumbawa, Nusa Tenggara Bar.","Kabupaten Sumbawa, Nusa Tenggara Bar.",NUSA TENGGARA BARAT,,Indonesia,,,,-84.903.497,1.174.343.633,https://maps.google.com/?cid=0x0:0x2de9f76ec7ca4a42,
perumahan,Komplek perumahan,GRAHA NUSANTARA,"Lintas, Jl. Kebayan","Kabupaten Sumbawa, Nusa Tenggara Bar.",NUSA TENGGARA BARAT,,Indonesia,,,,-84.856.927,1.174.312.086,https://maps.google.com/?cid=0x0:0x93fd0ad11503ea7a,
perumahan,Perhimpunan Pengembang Perumahan,Rumah Sangaji,"GC5G+VMV, Jl. Tongkol, Uma Sima, Kec. Sumbawa, Kabupaten Sumbawa, Nusa Tenggara Bar. 84313","Jl. Tongkol, Uma Sima, Kec. Sumbawa, Kabupaten Sumbawa",NUSA TENGGARA BARAT,84313.0,Indonesia,,,,-84.897.045,1.174.270.269,https://maps.google.com/?cid=0x0:0x74948fcfe414e297,
perumahan,Pembangunan Perumahan,Kos G1anNawr4,"Jl. Lkr., Brang Biji, Kec. Sumbawa, Kabupaten Sumbawa, Nusa Tenggara Bar. 84312","Brang Biji, Kec. Sumbawa, Kabupaten Sumbawa",NUSA TENGGARA BARAT,84312.0,Indonesia,85205223614,,,-84.772.641,1.174.233.527,https://maps.google.com/?cid=0x0:0x74a90843dc463e4e,
perumahan,Perhimpunan Pengembang Perumahan,Perumahan ALAM KERATO ASRI,"GC55+7WR, Jl. Bung Karno Lintas Sernu, Lempeh, Kec. Sumbawa, Kabupaten Sumbawa, Nusa Tenggara Bar. 84316","Jl. Bung Karno Lintas Sernu, Lempeh, Kec. Sumbawa, Kabupaten Sumbawa",NUSA TENGGARA BARAT,84316.0,Indonesia,,,,-84.917.615,1.174.097.558,https://maps.google.com/?cid=0x0:0xfb8615260b203bca,
perumahan,Komplek perumahan,Bale Kr√®a,"Jl. Kebayan No.26, Brang Biji, Kec. Sumbawa, Kabupaten Sumbawa, Nusa Tenggara Bar. 84313","Brang Biji, Kec. Sumbawa, Kabupaten Sumbawa",NUSA TENGGARA BARAT,84313.0,Indonesia,,,,-84.862.598,1.174.248.583,https://maps.google.com/?cid=0x0:0x5d40d1a4fabca4fb,
perumahan,perumahan,PERUMAHAN GRAND HARMONI SUMBAWA,"GC5M+W2R, Uma Sima, Kec. Sumbawa, Kabupaten Sumbawa, Nusa Tenggara Bar.","Kabupaten Sumbawa, Nusa Tenggara Bar.",NUSA TENGGARA BARAT,,Indonesia,,,,-84.894.346,1.174.326.816,https://maps.google.com/?cid=0x0:0xa825481cad40c40d,
perumahan,Pembangunan Perumahan,ArniAlfi,"Gg DPRD I, Kelurahan samapuin, Kec. Sumbawa, Kabupaten Sumbawa, Nusa Tenggara Bar. 84316","Kelurahan samapuin, Kec. Sumbawa, Kabupaten Sumbawa",NUSA TENGGARA BARAT,84316.0,Indonesia,,,,-84.789.154,1.174.237.896,https://maps.google.com/?cid=0x0:0xc7ec22704d77f032,
perumahan,Pembangunan Perumahan,"GANG BIDARA, PPN BUKIT INDAH","GC2M+WPC, Seketeng, Kec. Sumbawa, Kabupaten Sumbawa, Nusa Tenggara Bar. 84313","Seketeng, Kec. Sumbawa, Kabupaten Sumbawa",NUSA TENGGARA BARAT,84313.0,Indonesia,,,,-8.497.696,1.174.342.529,https://maps.google.com/?cid=0x0:0x7fafd2026c5d710b,
perumahan,Taman,Rusun Sumbawa,"GC5J+PJQ, Uma Sima, Kec. Sumbawa, Kabupaten Sumbawa, Nusa Tenggara Bar. 84312","Uma Sima, Kec. Sumbawa, Kabupaten Sumbawa",NUSA TENGGARA BARAT,84312.0,Indonesia,,,,-84.909.281,1.174.313.241,https://maps.google.com/?cid=0x0:0x68a3b8def313e941,
perumahan,perumahan,Nusa Tenggara Bar. 84318,"Brang Biji, Kec. Sumbawa, Kabupaten Sumbawa, Nusa Tenggara Bar.","Kabupaten Sumbawa, Nusa Tenggara Bar.",NUSA TENGGARA BARAT,,Indonesia,,,,-84.577.454,1.174.438.924,https://maps.google.com/?cid=0x0:0x189768f48d111a4d,
perumahan,Perumahan,BTN SAMOTA RESIDENCE,"Brang Biji, Kec. Sumbawa, Kabupaten Sumbawa, Nusa Tenggara Bar. 84318","Kec. Sumbawa, Kabupaten Sumbawa",NUSA TENGGARA BARAT,84318.0,Indonesia,87860393665,,,-84.603.065,1.174.104.106,https://maps.google.com/?cid=0x0:0xceb2aa61b5e3a784,
perumahan,Komplek perumahan,Rumah HARI SOLO,"GCG8+2QF, Gg. V, Brang Biji, Kec. Sumbawa, Kabupaten Sumbawa, Nusa Tenggara Bar. 84316","Gg. V, Brang Biji, Kec. Sumbawa, Kabupaten Sumbawa",NUSA TENGGARA BARAT,84316.0,Indonesia,,,,-84.748.584,1.174.169.092,https://maps.google.com/?cid=0x0:0x5bab326cd2b2b812,
perumahan,Komplek perumahan,Griya Samota Indah,"GCP5+5HC, Jalan Raya Samota, Brang Biji, Kec. Sumbawa, Kabupaten Sumbawa, Nusa Tenggara Bar. 84316","Jalan Raya Samota, Brang Biji, Kec. Sumbawa, Kabupaten Sumbawa",NUSA TENGGARA BARAT,84316.0,Indonesia,,,,-84.645.729,1.174.088.891,https://maps.google.com/?cid=0x0:0x115baa8a5545a80,
perumahan,Komplek perumahan,Rumah tinggal,"GCJ4+H2C, Labuan Sumbawa, Labuhan Badas, Kabupaten Sumbawa, Nusa Tenggara Bar. 84316","Labuan Sumbawa, Labuhan Badas, Kabupaten Sumbawa",NUSA TENGGARA BARAT,84316.0,Indonesia,,,,-84.685.678,1.174.050.048,https://maps.google.com/?cid=0x0:0xb7cadd3335d5e933,
perumahan,Komplek perumahan,Rumah Erlya,"GFCH+CFP, Sebewe, Kec. Moyo Utara, Kabupaten Sumbawa, Nusa Tenggara Bar. 84381","Sebewe, Kec. Moyo Utara, Kabupaten Sumbawa",NUSA TENGGARA BARAT,84381.0,Indonesia,,,,-84.789.167,1.174.787.066,https://maps.google.com/?cid=0x0:0xbacd051104893fa1,
perumahan,Perhimpunan Pengembang Perumahan,Rumah jaya albilad,"Gg. V, Brang Biji, Kec. Sumbawa, Kabupaten Sumbawa, Nusa Tenggara Bar. 84312","Brang Biji, Kec. Sumbawa, Kabupaten Sumbawa",NUSA TENGGARA BARAT,84312.0,Indonesia,82112141219,,,-8.474.797,117.416.979,https://maps.google.com/?cid=0x0:0x81e619040533cee7,
perumahan,Pembangunan Perumahan,Perumahan Bumi Indah Residence,"GC3J+VV4, Seketeng, Kec. Sumbawa, Kabupaten Sumbawa, Nusa Tenggara Bar. 84313","Seketeng, Kec. Sumbawa, Kabupaten Sumbawa",NUSA TENGGARA BARAT,84313.0,Indonesia,,,,-84.953.593,1.174.322.015,https://maps.google.com/?cid=0x0:0xcfa6a74ee747c679,
perumahan,Komplek perumahan,SR_BB_8,"GCF9+377, Jl. Pramuka, Brang Biji, Kec. Sumbawa, Kabupaten Sumbawa, Nusa Tenggara Bar. 84316","Jl. Pramuka, Brang Biji, Kec. Sumbawa, Kabupaten Sumbawa",NUSA TENGGARA BARAT,84316.0,Indonesia,,,,-84.768.269,1.174.178.949,https://maps.google.com/?cid=0x0:0x1f0051de5647fa58,
perumahan,Komplek perumahan,SR-LP-06 Rumah Asyifa,"GCF5+JWJ, Lempeh, Kec. Sumbawa, Kabupaten Sumbawa, Nusa Tenggara Bar. 84316","Lempeh, Kec. Sumbawa, Kabupaten Sumbawa",NUSA TENGGARA BARAT,84316.0,Indonesia,,,,-84.751.275,1.174.098.245,https://maps.google.com/?cid=0x0:0x476876a8661608dd,
perumahan,Pembangunan Perumahan,Kos G1anNawr4,"Jl. Lkr., Brang Biji, Kec. Sumbawa, Kabupaten Sumbawa, Nusa Tenggara Bar. 84312","Brang Biji, Kec. Sumbawa, Kabupaten Sumbawa",NUSA TENGGARA BARAT,84312.0,Indonesia,85205223614,,,-84.772.641,1.174.233.527,https://maps.google.com/?cid=0x0:0x74a90843dc463e4e,
perumahan,Pembangunan Perumahan,Rumah Toyyib junaidi,"GC8C+GJV, Brang Biji, Kec. Sumbawa, Kabupaten Sumbawa, Nusa Tenggara Bar. 84312","Brang Biji, Kec. Sumbawa, Kabupaten Sumbawa",NUSA TENGGARA BARAT,84312.0,Indonesia,,,,-84.838.461,1.174.215.867,https://maps.google.com/?cid=0x0:0x81f8867c9fe6b3ab,
perumahan,Komplek perumahan,Meme Home,"GCR6+4Q, Brang Biji, Kec. Sumbawa, Kabupaten Sumbawa, Nusa Tenggara Bar. 84318","Brang Biji, Kec. Sumbawa, Kabupaten Sumbawa",NUSA TENGGARA BARAT,84318.0,Indonesia,,,,-84.596.376,1.174.121.017,https://maps.google.com/?cid=0x0:0xed3a0c5c48ad0c2,
perumahan,Komplek perumahan,Rumah paskal,"GC8G+579, Brang Biji, Kec. Sumbawa, Kabupaten Sumbawa, Nusa Tenggara Bar.","Kabupaten Sumbawa, Nusa Tenggara Bar.",NUSA TENGGARA BARAT,,Indonesia,,,,-84.845.863,1.174.257.207,https://maps.google.com/?cid=0x0:0x3ecdfc564020b2e8,
perumahan,Pembangunan Perumahan,Khaeruddin y,"GCWG+9G2, Brang Biji, Kec. Sumbawa, Kabupaten Sumbawa, Nusa Tenggara Bar. 84318","Brang Biji, Kec. Sumbawa, Kabupaten Sumbawa",NUSA TENGGARA BARAT,84318.0,Indonesia,,,,-8.454.113,1.174.262.714,https://maps.google.com/?cid=0x0:0xada9d65d963e2170,
perumahan,,Rumah Fara,"GC8G+927 dekat kuburan katolik, Jl. Kebayan, Brang Biji, Kec. Sumbawa, Kabupaten Sumbawa, Nusa Tenggara Bar.","Kabupaten Sumbawa, Nusa Tenggara Bar.",NUSA TENGGARA BARAT,,Indonesia,,,,-84.840.817,1.174.250.338,https://maps.google.com/?cid=0x0:0xe998e3c07bb7f6e3,
perumahan,Komplek perumahan,SR-LP-05,"GCG6+535, Lempeh, Kec. Sumbawa, Kabupaten Sumbawa, Nusa Tenggara Bar. 84316","Lempeh, Kec. Sumbawa, Kabupaten Sumbawa",NUSA TENGGARA BARAT,84316.0,Indonesia,,,,-84.745.481,1.174.100.809,https://maps.google.com/?cid=0x0:0xd588c73f09e9e491,
perumahan,Pembangunan Perumahan,ArniAlfi,"Gg DPRD I, Kelurahan samapuin, Kec. Sumbawa, Kabupaten Sumbawa, Nusa Tenggara Bar. 84316","Kelurahan samapuin, Kec. Sumbawa, Kabupaten Sumbawa",NUSA TENGGARA BARAT,84316.0,Indonesia,,,,-84.789.154,1.174.237.896,https://maps.google.com/?cid=0x0:0xc7ec22704d77f032,
perumahan,Komplek perumahan,SR_BB_9,"JL. Udang, No. 8 Blok CD/8, Lempeh, Brang Biji, Kec. Sumbawa, Kabupaten Sumbawa, Nusa Tenggara Bar. 84312","No. 8 Blok CD/8, Lempeh, Brang Biji, Kec. Sumbawa, Kabupaten Sumbawa",NUSA TENGGARA BARAT,84312.0,Indonesia,,,,-84.764.372,1.174.241.619,https://maps.google.com/?cid=0x0:0xa9c1eb4d248dd3fd,
perumahan,Komplek perumahan,Rumah Adi,"GC98+M3J, Jl. Gunung Setia, Brang Biji, Kec. Sumbawa, Kabupaten Sumbawa, Nusa Tenggara Bar. 84316","Jl. Gunung Setia, Brang Biji, Kec. Sumbawa, Kabupaten Sumbawa",NUSA TENGGARA BARAT,84316.0,Indonesia,,,,-84.808.371,1.174.151.225,https://maps.google.com/?cid=0x0:0x2fcc77685cb2eb1,
perumahan,Perhimpunan Pengembang Perumahan,Perumahan ALAM KERATO ASRI,"GC55+7WR, Jl. Bung Karno Lintas Sernu, Lempeh, Kec. Sumbawa, Kabupaten Sumbawa, Nusa Tenggara Bar. 84316","Jl. Bung Karno Lintas Sernu, Lempeh, Kec. Sumbawa, Kabupaten Sumbawa",NUSA TENGGARA BARAT,84316.0,Indonesia,,,,-84.917.615,1.174.097.558,https://maps.google.com/?cid=0x0:0xfb8615260b203bca,
perumahan,Komplek perumahan,Coca-Cola bisnis,"GCR6+FRQ, Seketeng, Kec. Sumbawa, Kabupaten Sumbawa, Nusa Tenggara Bar. 84318","Seketeng, Kec. Sumbawa, Kabupaten Sumbawa",NUSA TENGGARA BARAT,84318.0,Indonesia,,,,-8.457.856,117.412.275,https://maps.google.com/?cid=0x0:0x6975a2929bb5f19e,
perumahan,Pembangunan Perumahan,perumahan samawa regency,"GC8P+HHF, Uma Sima, Kec. Sumbawa, Kabupaten Sumbawa, Nusa Tenggara Bar.","Kabupaten Sumbawa, Nusa Tenggara Bar.",NUSA TENGGARA BARAT,,Indonesia,,,,-8.483.557,1.174.364.372,https://maps.google.com/?cid=0x0:0xb78940adc3afc146,
perumahan,perumahan,Kec. Unter Iwes,"Kabupaten Sumbawa, Nusa Tenggara Bar.","Kabupaten Sumbawa, Nusa Tenggara Bar.",NUSA TENGGARA BARAT,,Indonesia,,,,-85.065.225,1.174.091.909,https://maps.google.com/?cid=0x0:0xdef0dbe9524d39fd,
perumahan,perumahan,Rumah Panggung,"Dusun Beru Desa Boak Rt.005/Rw.002. KAB. SUMBAWA, UNTER IWES (UNTERWIRIS), NUSA TENGGARA BARAT (NTB, Boak, Kec. Unter Iwes, Kabupaten Sumbawa, Nusa Tenggara Bar. 84359","UNTER IWES (UNTERWIRIS), NUSA TENGGARA BARAT (NTB, Boak, Kec. Unter Iwes, Kabupaten Sumbawa",NUSA TENGGARA BARAT,84359.0,Indonesia,,,,-85.485.763,1.174.473.795,https://maps.google.com/?cid=0x0:0xbf98c12966826d0,
perumahan,perumahan,Utan,"Motong, Kec. Utan, Kabupaten Sumbawa, Nusa Tenggara Bar.","Kabupaten Sumbawa, Nusa Tenggara Bar.",NUSA TENGGARA BARAT,,Indonesia,,,,-8.412.375,117.144.997,https://maps.google.com/?cid=0x0:0x1dc03bf4ed6a19ac,
perumahan,Komplek perumahan,Ibu parmi,"H4QV+3X5, Motong, Kec. Utan, Kabupaten Sumbawa, Nusa Tenggara Bar. 84352","Motong, Kec. Utan, Kabupaten Sumbawa",NUSA TENGGARA BARAT,84352.0,Indonesia,,,,-8.412.375,117.144.997,https://maps.google.com/?cid=0x0:0x93ea78db7b2cf862,
perumahan,Komplek perumahan,Rumah Saddam,"H4QV+3X5, Utan Ringin, Kec. Utan, Kabupaten Sumbawa, Nusa Tenggara Bar.","Kabupaten Sumbawa, Nusa Tenggara Bar.",NUSA TENGGARA BARAT,,Indonesia,,,,-8.412.375,117.144.997,https://maps.google.com/?cid=0x0:0x33416b4dde4b75b4,
perumahan,Komplek perumahan,Rumah nur ilfania,"7X4P+JM6, Labuan Bontong, Kec. Tarano, Kabupaten Sumbawa, Nusa Tenggara Bar. 84384","Labuan Bontong, Kec. Tarano, Kabupaten Sumbawa",NUSA TENGGARA BARAT,84384.0,Indonesia,,,,-87.444,117.988.259,https://maps.google.com/?cid=0x0:0x752365710adead5e,
perumahan,perumahan,Rumah Alvin,"62H3+HFG, RT.05/RW.02, Pamanto, Kec. Empang, Kabupaten Sumbawa, Nusa Tenggara Bar.","Kabupaten Sumbawa, Nusa Tenggara Bar.",NUSA TENGGARA BARAT,,Indonesia,,,,-87.718.718,1.180.044.173,https://maps.google.com/?cid=0x0:0xe50ed8c9a934e5ba,
perumahan,perumahan,Nusa Tenggara Bar. 84384,"Kec. Empang, Kabupaten Sumbawa, Nusa Tenggara Bar.","Kabupaten Sumbawa, Nusa Tenggara Bar.",NUSA TENGGARA BARAT,,Indonesia,,,,-8.796.382,1.180.654.445,https://maps.google.com/?cid=0x0:0x2155e536e62d694,
perumahan,Komplek perumahan,Perumahan SDN Mata Suratz,"66V5+32X, Tolo' Oi, Kec. Tarano, Kabupaten Sumbawa, Nusa Tenggara Bar. 84384","Tolo' Oi, Kec. Tarano, Kabupaten Sumbawa",NUSA TENGGARA BARAT,84384.0,Indonesia,,,,-87.568.943,1.182.070.431,https://maps.google.com/?cid=0x0:0xfe78165cf21193,
perumahan,Pembangunan Perumahan,Andi sujono,"7X4V+6MM, Labuan Bontong, Kec. Tarano, Kabupaten Sumbawa, Nusa Tenggara Bar. 84384","Labuan Bontong, Kec. Tarano, Kabupaten Sumbawa",NUSA TENGGARA BARAT,84384.0,Indonesia,,,,-87.444.035,1.179.941.865,https://maps.google.com/?cid=0x0:0x3797342138402697,
perumahan,Komplek perumahan,Perumahan Teluk Saleh Residance,"83M6+M2, Labuan Jambu, Kec. Tarano, Kabupaten Sumbawa, Nusa Tenggara Bar.","Kabupaten Sumbawa, Nusa Tenggara Bar.",NUSA TENGGARA BARAT,,Indonesia,,,,-8.665.784,118.060.036,https://maps.google.com/?cid=0x0:0x2d6e78b465ba4036,
perumahan,Komplek perumahan,Pustakawan SMPN 1 Tarano,"62Q2+C5Q, Jl. Lintas Sumbawa - Bima, Empang Bawah, Kec. Empang, Kabupaten Sumbawa, Nusa Tenggara Bar. 84384","Jl. Lintas Sumbawa - Bima, Empang Bawah, Kec. Empang, Kabupaten Sumbawa",NUSA TENGGARA BARAT,84384.0,Indonesia,,,,-87.614.244,1.180.004.906,https://maps.google.com/?cid=0x0:0x6c03149639717196,
perumahan,Perhimpunan Pengembang Perumahan,Hikmat House,"7X8X+4QR, Labuan Bontong, Kec. Tarano, Kabupaten Sumbawa, Nusa Tenggara Bar. 84384","Labuan Bontong, Kec. Tarano, Kabupaten Sumbawa",NUSA TENGGARA BARAT,84384.0,Indonesia,,,,-87.346.353,1.179.993.896,https://maps.google.com/?cid=0x0:0xa867006c118ae095,
perumahan,perumahan,Rumah Arin,"722C+6GH, Bantulanteh, Kec. Tarano, Kabupaten Sumbawa, Nusa Tenggara Bar. 84384","Bantulanteh, Kec. Tarano, Kabupaten Sumbawa",NUSA TENGGARA BARAT,84384.0,Indonesia,,,,-8.749.843,1.180.209.108,https://maps.google.com/?cid=0x0:0xbc73062778720837,
perumahan,Komplek perumahan,Rumah melan suka TOBRUT,"62M4+8FF, Dusun awo, Empang Atas, Kec. Empang, Kabupaten Sumbawa, Nusa Tenggara Bar.","Kabupaten Sumbawa, Nusa Tenggara Bar.",NUSA TENGGARA BARAT,,Indonesia,,,,-87.666.021,1.180.061.986,https://maps.google.com/?cid=0x0:0xe1749eb9dda2d6d3,
perumahan,Pertanian,Rumahnya Nurull,"55VJ+7XX, Mata, Kec. Tarano, Kabupaten Sumbawa, Nusa Tenggara Bar.","Kabupaten Sumbawa, Nusa Tenggara Bar.",NUSA TENGGARA BARAT,,Indonesia,,,,-87.572.432,1.182.078.048,https://maps.google.com/?cid=0x0:0xf981788cece7a388,
perumahan,Komplek perumahan,Rumah Resty,"7X6X+95M, Labuan Bontong, Kec. Tarano, Kabupaten Sumbawa, Nusa Tenggara Bar.","Kabupaten Sumbawa, Nusa Tenggara Bar.",NUSA TENGGARA BARAT,,Indonesia,,,,-87.390.283,1.179.979.238,https://maps.google.com/?cid=0x0:0xdeb1dcc059504c39,
perumahan,Komplek perumahan,Rumah Yudi,"7X4J+GV7, Labuan Bontong, Kec. Tarano, Kabupaten Sumbawa, Nusa Tenggara Bar. 84384","Labuan Bontong, Kec. Tarano, Kabupaten Sumbawa",NUSA TENGGARA BARAT,84384.0,Indonesia,,,,-8.743.825,1.179.815.658,https://maps.google.com/?cid=0x0:0xd0c2837065481853,
perumahan,Komplek perumahan,Tandon 1,"67F5+F5 BSI camp area, Tolo' Oi, Kec. Tarano, Kabupaten Sumbawa, Nusa Tenggara Bar.","Kabupaten Sumbawa, Nusa Tenggara Bar.",NUSA TENGGARA BARAT,,Indonesia,,,,-87.751.681,1.182.573.519,https://maps.google.com/?cid=0x0:0xa07dbfebae7dc95a,
perumahan,Komplek perumahan,Bale Andie,"83J4+M24, Labuan Jambu, Kec. Tarano, Kabupaten Sumbawa, Nusa Tenggara Bar. 84384","Labuan Jambu, Kec. Tarano, Kabupaten Sumbawa",NUSA TENGGARA BARAT,84384.0,Indonesia,,,,-86.683.618,1.180.550.688,https://maps.google.com/?cid=0x0:0x97bb3b3e6c92b785,
perumahan,Komplek perumahan,Rumah Roby,"66R5+J4X, Tolo' Oi, Kec. Tarano, Kabupaten Sumbawa, Nusa Tenggara Bar. 84384","Tolo' Oi, Kec. Tarano, Kabupaten Sumbawa",NUSA TENGGARA BARAT,84384.0,Indonesia,,,,-87.583.327,1.182.073.073,https://maps.google.com/?cid=0x0:0x66fa3e89a29db16,
perumahan,Komplek perumahan,R. Bang Tekas,"728G+CM5, Bantulanteh, Kec. Tarano, Kabupaten Sumbawa, Nusa Tenggara Bar. 84384","Bantulanteh, Kec. Tarano, Kabupaten Sumbawa",NUSA TENGGARA BARAT,84384.0,Indonesia,,,,-87.339.875,1.180.267.344,https://maps.google.com/?cid=0x0:0x5250f925fef86b5f,
perumahan,Pertanian,Rumah Insan,"72G4+V27, Jl. Lintas Sumbawa - Bima, Labuan Aji, Kec. Tarano, Kabupaten Sumbawa, Nusa Tenggara Bar. 84384","Jl. Lintas Sumbawa - Bima, Labuan Aji, Kec. Tarano, Kabupaten Sumbawa",NUSA TENGGARA BARAT,84384.0,Indonesia,,,,-87.227.808,1.180.050.421,https://maps.google.com/?cid=0x0:0x2e8e315daf578144,
perumahan,Komplek perumahan,Rumah Sultan,"6XXW+C2X, Empang Bawah, Kec. Empang, Kabupaten Sumbawa, Nusa Tenggara Bar. 84384","Empang Bawah, Kec. Empang, Kabupaten Sumbawa",NUSA TENGGARA BARAT,84384.0,Indonesia,85337181660,,,-87.513.722,1.179.950.936,https://maps.google.com/?cid=0x0:0xe01809e5751cf085,
perumahan,Komplek perumahan,Rumah Abdul Rais,"729G+JQ8, Bantulanteh, Kec. Tarano, Kabupaten Sumbawa, Nusa Tenggara Bar. 84384","Bantulanteh, Kec. Tarano, Kabupaten Sumbawa",NUSA TENGGARA BARAT,84384.0,Indonesia,,,,-87.298.487,1.180.265.904,https://maps.google.com/?cid=0x0:0x97c08cb92c73df25,
perumahan,Komplek perumahan,Rumah Raisa dan Risyam,"6XCG+5QX, Gapit, Kec. Empang, Kabupaten Sumbawa, Nusa Tenggara Bar. 84384","Gapit, Kec. Empang, Kabupaten Sumbawa",NUSA TENGGARA BARAT,84384.0,Indonesia,,,,-87.795.167,1.179.769.732,https://maps.google.com/?cid=0x0:0x12f486519acd6e5c,
perumahan,Perumahan,BALE DAYAT AMPU,"72C3+QM3, Labuan Aji, Kec. Tarano, Kabupaten Sumbawa, Nusa Tenggara Bar. 84384","Labuan Aji, Kec. Tarano, Kabupaten Sumbawa",NUSA TENGGARA BARAT,84384.0,Indonesia,,,,-87.281.818,1.180.041.625,https://maps.google.com/?cid=0x0:0x2cf8d959c6cbab99,
perumahan,Komplek perumahan,Rumah Nila,"62J4+J5G, Empang Atas, Kec. Empang, Kabupaten Sumbawa, Nusa Tenggara Bar. 84384","Empang Atas, Kec. Empang, Kabupaten Sumbawa",NUSA TENGGARA BARAT,84384.0,Indonesia,,,,-87.684.375,1.180.054.535,https://maps.google.com/?cid=0x0:0x8d2cfd0d0643c6db,
perumahan,Komplek perumahan,Rumah Ichan,"62G5+GRC, Jotang, Kec. Empang, Kabupaten Sumbawa, Nusa Tenggara Bar. 84384","Jotang, Kec. Empang, Kabupaten Sumbawa",NUSA TENGGARA BARAT,84384.0,Indonesia,,,,-87.735.409,1.180.094.248,https://maps.google.com/?cid=0x0:0x9bee84eac0a73c99,
perumahan,Perhimpunan Pengembang Perumahan,Rumah mia,"62M3+6JQ, Empang Bawah, Kec. Empang, Kabupaten Sumbawa, Nusa Tenggara Bar. 84384","Empang Bawah, Kec. Empang, Kabupaten Sumbawa",NUSA TENGGARA BARAT,84384.0,Indonesia,,,,-87.669.227,118.004.105,https://maps.google.com/?cid=0x0:0x720f5d2c90185851,
perumahan,Komplek perumahan,Rumah pak mustami,"Lamenta, rt 03 rw 02 dusun lamenta atas, Gapit, Kec. Empang, Kabupaten Sumbawa, Nusa Tenggara Bar. 84384","rt 03 rw 02 dusun lamenta atas, Gapit, Kec. Empang, Kabupaten Sumbawa",NUSA TENGGARA BARAT,84384.0,Indonesia,,,,-87.848.024,1.179.899.911,https://maps.google.com/?cid=0x0:0xeb4f133a8bdc1ceb,
