Category,Real Category,Business Name,Address,City,State,Postal Code,Country,Phone,Email,Website,Latitude,Longitude,Map Link,Details Link
mall,mall,Sulawesi Tengah 94355,"Kec. Balaesang, Kabupaten Donggala, Sulawesi Tengah","Kabupaten Donggala, Sulawesi Tengah",SULAWESI TENGAH,,Indonesia,,,,-0.0809372,1.199.046.594,https://maps.google.com/?cid=0x0:0xfb3f30164124e211,
mall,Toko Pakaian,NM_Store,"Tovia Tambu, Kec. Balaesang, Kabupaten Donggala, Sulawesi Tengah 94355","Kec. Balaesang, Kabupaten Donggala",SULAWESI TENGAH,94355.0,Indonesia,81356724974,,,-0.0518528,1.198.841.001,https://maps.google.com/?cid=0x0:0xf3433cf0ccf8252f,
mall,Toko,Sisainshop cabang Balaesang/Tambu,"XV3H+5XW, Tambu, Kec. Balaesang, Kabupaten Donggala, Sulawesi Tengah","Kabupaten Donggala, Sulawesi Tengah",SULAWESI TENGAH,,Indonesia,85156704331,,,-0.0470089,1.198.799.545,https://maps.google.com/?cid=0x0:0x81b5e6b639a9a52c,
mall,Toko Perlengkapan Rumah,Toko Imelsya Abadi,"Jalan Poros Labean-Manimbaya, Dusun 3, Malei, Balaesang Tanjung, Donggala, Kabupaten Donggala, Sulawesi Tengah 94355","Dusun 3, Malei, Balaesang Tanjung, Donggala, Kabupaten Donggala",SULAWESI TENGAH,94355.0,Indonesia,85396286745,,,-0.1249618,1.196.897.887,https://maps.google.com/?cid=0x0:0x5c019280864e8199,
mall,Kompleks Kondominium,Pasar Sibayu,"4V2C+968, Sibayu, Kec. Balaesang, Kabupaten Donggala, Sulawesi Tengah 94356","Sibayu, Kec. Balaesang, Kabupaten Donggala",SULAWESI TENGAH,94356.0,Indonesia,82271360030,,,0.1009113,1.198.705.651,https://maps.google.com/?cid=0x0:0xcfc53be29eec1012,
mall,Pasar,Pasar kamang desa ketong,"XJ2J+53W, Ketong, Balaesang Tanjung, Donggala, Kabupaten Donggala, Sulawesi Tengah","Kabupaten Donggala, Sulawesi Tengah",SULAWESI TENGAH,,Indonesia,,,,-0.0495055,1.196.301.981,https://maps.google.com/?cid=0x0:0x3f6e65414a92f6b9,
mall,Toko Ponsel,INARA CELL,"XV6M+MXM, Mapane Tambu, Kec. Balaesang, Kabupaten Donggala, Sulawesi Tengah 94355","Mapane Tambu, Kec. Balaesang, Kabupaten Donggala",SULAWESI TENGAH,94355.0,Indonesia,82197814191,,,-0.0382863,119.884.934,https://maps.google.com/?cid=0x0:0xd4008138fdd9e5c0,
mall,Toko bahan makanan,Kios IMRAN,"2VJM+HM3, Jl. Tolitoli - Palu, Siweli, Kec. Balaesang, Kabupaten Donggala, Sulawesi Tengah 94355","Jl. Tolitoli - Palu, Siweli, Kec. Balaesang, Kabupaten Donggala",SULAWESI TENGAH,94355.0,Indonesia,82191950654,,,0.031384,119.884.174,https://maps.google.com/?cid=0x0:0x4bc132ab7b5f8a01,
mall,mall,Mabrur Cell,"Unnamed Road, Malei, Balaesang Tanjung, Donggala, Kabupaten Donggala, Sulawesi Tengah 94355","Malei, Balaesang Tanjung, Donggala, Kabupaten Donggala",SULAWESI TENGAH,94355.0,Indonesia,81225135354,,,-0.1221091,1.196.864.731,https://maps.google.com/?cid=0x0:0x9b9abff876de0b7c,
mall,mall,Balaesang Tj.,"Kabupaten Donggala, Sulawesi Tengah","Kabupaten Donggala, Sulawesi Tengah",SULAWESI TENGAH,,Indonesia,,,,-0.1135774,1.197.194.377,https://maps.google.com/?cid=0x0:0x65452b97dff5320a,
mall,Pasar,Pasar kamang desa ketong,"XJ2J+53W, Ketong, Balaesang Tanjung, Donggala, Kabupaten Donggala, Sulawesi Tengah","Kabupaten Donggala, Sulawesi Tengah",SULAWESI TENGAH,,Indonesia,,,,-0.0495055,1.196.301.981,https://maps.google.com/?cid=0x0:0x3f6e65414a92f6b9,
mall,Toko Perlengkapan Rumah,Toko Imelsya Abadi,"Jalan Poros Labean-Manimbaya, Dusun 3, Malei, Balaesang Tanjung, Donggala, Kabupaten Donggala, Sulawesi Tengah 94355","Dusun 3, Malei, Balaesang Tanjung, Donggala, Kabupaten Donggala",SULAWESI TENGAH,94355.0,Indonesia,85396286745,,,-0.1249618,1.196.897.887,https://maps.google.com/?cid=0x0:0x5c019280864e8199,
mall,mall,Kec. Banawa Tengah,"Kabupaten Donggala, Sulawesi Tengah","Kabupaten Donggala, Sulawesi Tengah",SULAWESI TENGAH,,Indonesia,,,,-0.7228051,1.196.992.156,https://maps.google.com/?cid=0x0:0xe02be6cd56068455,
mall,Toko Bahan Bangunan,Toko Bangunan Anugerah,"Jl. Pettalolo No.166, Boya, Kec. Banawa, Kabupaten Donggala, Sulawesi Tengah 94351","Boya, Kec. Banawa, Kabupaten Donggala",SULAWESI TENGAH,94351.0,Indonesia,45771198,,,-0.6731764,1.197.385.955,https://maps.google.com/?cid=0x0:0x5f23532c1e5ea1b3,
mall,Toko,Pasar Ganti Donggala,"8P3M+2RV, Jl.Trans Banawa, Ganti, Kec. Banawa Tengah, Kabupaten Donggala, Sulawesi Tengah 94351","Jl.Trans Banawa, Ganti, Kec. Banawa Tengah, Kabupaten Donggala",SULAWESI TENGAH,94351.0,Indonesia,85256937280,,,-0.69739,1.197.345.346,https://maps.google.com/?cid=0x0:0x8d75c308f2e2767e,
mall,Kios,Kios aliya,"7MFR+X5G, Mekar Baru, Kec. Banawa Tengah, Kabupaten Donggala, Sulawesi Tengah 94351","Mekar Baru, Kec. Banawa Tengah, Kabupaten Donggala",SULAWESI TENGAH,94351.0,Indonesia,81354786634,,,-0.7250515,1.196.904.629,https://maps.google.com/?cid=0x0:0x4c84dc9139c00139,
mall,Toko Aksesori Ponsel,BINTANG BANAWA(Phone Accesories Hp),"Jl. Poros Majene - Mamuju, Watatu, Kec. Banawa Sel., Kabupaten Donggala, Sulawesi Tengah 94351","Watatu, Kec. Banawa Sel., Kabupaten Donggala",SULAWESI TENGAH,94351.0,Indonesia,81222441788,,,-0.8746426,1.195.875.978,https://maps.google.com/?cid=0x0:0xcfc978fc9f51cd38,
mall,Toko,Kios Sumiati,"6QXM+745, Loli Dondo, Kec. Banawa, Kabupaten Donggala, Sulawesi Tengah 94351","Loli Dondo, Kec. Banawa, Kabupaten Donggala",SULAWESI TENGAH,94351.0,Indonesia,,,,-0.7518676,119.782.862,https://maps.google.com/?cid=0x0:0xf159f3214299ab8c,
mall,Toko,Citra Toko,"Jl. Pettalolo No.78, Boya, Kec. Banawa, Kabupaten Donggala, Sulawesi Tengah 94351","Boya, Kec. Banawa, Kabupaten Donggala",SULAWESI TENGAH,94351.0,Indonesia,82197409979,,,-0.6734832,1.197.381.264,https://maps.google.com/?cid=0x0:0x63bb9d824a9c3d85,
mall,Toko bahan makanan,Kios papa depi,"Jl. Trans Palu-Donggala No.122, Loli Tasiburi, Kec. Banawa, Kabupaten Donggala, Sulawesi Tengah 94351","Loli Tasiburi, Kec. Banawa, Kabupaten Donggala",SULAWESI TENGAH,94351.0,Indonesia,82190227041,,,-0.7513089,1.197.821.856,https://maps.google.com/?cid=0x0:0x589a10231554ce42,
mall,Pusat Perbelanjaan,XEIGHT Palu Grand Mall,"Grand Mall, Jl. Cumi-Cumi No.77 LT. GF UNIT G - 0150, BUMI BAHARI, Kec. Palu Bar., Kota Palu, Sulawesi Tengah 94221","Jl. Cumi-Cumi No.77 LT. GF UNIT G - 0150, BUMI BAHARI, Kec. Palu Bar., Kota Palu",SULAWESI TENGAH,94221.0,Indonesia,4514134547,,,-0.8828723,1.198.427.211,https://maps.google.com/?cid=0x0:0xd7e6e97d68971afd,
mall,Toko,Pucis store,"8P3M+99V, Petobo, Ganti, Kec. Banawa, Kabupaten Donggala, Sulawesi Tengah 94351","Petobo, Ganti, Kec. Banawa, Kabupaten Donggala",SULAWESI TENGAH,94351.0,Indonesia,82296339306,,,-0.6965123,1.197.334.138,https://maps.google.com/?cid=0x0:0xde48f65d50d735a7,
mall,Pusat Perbelanjaan,"Toko RIKAL"" Jual Campuran Dan Bahan Bangunan""","Toko Rikal, Loli Tasiburi, Kec. Banawa, Kabupaten Donggala, Sulawesi Tengah 94351","Loli Tasiburi, Kec. Banawa, Kabupaten Donggala",SULAWESI TENGAH,94351.0,Indonesia,85146461366,,,-0.765441,1.197.715.563,https://maps.google.com/?cid=0x0:0xd5464d890a0a1867,
mall,Toko,Gunung bale,"8PFW+855, Gn. Bale, Kec. Banawa, Kabupaten Donggala, Sulawesi Tengah","Kabupaten Donggala, Sulawesi Tengah",SULAWESI TENGAH,,Indonesia,,,,-0.6767416,1.197.454.995,https://maps.google.com/?cid=0x0:0x57bd573e5725aa4a,
mall,mall,Rumah Produksi Keripik TIGA DARA,"7PRG+7VV, Jalan, Ganti, Banawa, Donggala Regency, Central Sulawesi 94351","Jalan, Ganti, Banawa, Donggala Regency",SULAWESI TENGAH,94351.0,Indonesia,85395720537,,,-0.7092688,1.197.271.668,https://maps.google.com/?cid=0x0:0x2e4209acb26d88ca,
mall,Dapur Umum,Siomai mas tofa,"Jl. Pelabuhan No.36, Boya, Kec. Banawa, Kabupaten Donggala, Sulawesi Tengah 94351","Boya, Kec. Banawa, Kabupaten Donggala",SULAWESI TENGAH,94351.0,Indonesia,,,,-0.6675069,1.197.419.945,https://maps.google.com/?cid=0x0:0x27ddb91f2162120f,
mall,Toko Swalayan,One Pavilion Mall,"One Pavilion Mall, 22 R. Duterte St. Banawa, Cebu City, 6000 Cebu, Filipina","Cebu City, Cebu, Filipina",SULAWESI TENGAH,,Indonesia,63322398888,,,103.151.243,123.884.173,https://maps.google.com/?cid=0x0:0x1802169d4989de40,
mall,Perhimpunan Pengembang Perumahan,8 Banawa Centrale,"8V6G+9FW, Salvador St, Cebu City, 6000 Cebu, Filipina","Cebu City, Cebu, Filipina",SULAWESI TENGAH,,Indonesia,,,,103.109.985,1.238.761.883,https://maps.google.com/?cid=0x0:0x1e395bb5d9340fb8,
mall,mall,Sulawesi Tengah 94351,"Kabupaten Donggala, Sulawesi Tengah","Kabupaten Donggala, Sulawesi Tengah",SULAWESI TENGAH,,Indonesia,,,,-0.8867487,1.196.499.162,https://maps.google.com/?cid=0x0:0x74085d8dce3801b4,
mall,Toko Aksesori Ponsel,BINTANG BANAWA(Phone Accesories Hp),"Jl. Poros Majene - Mamuju, Watatu, Kec. Banawa Sel., Kabupaten Donggala, Sulawesi Tengah 94351","Watatu, Kec. Banawa Sel., Kabupaten Donggala",SULAWESI TENGAH,94351.0,Indonesia,81222441788,,,-0.8746426,1.195.875.978,https://maps.google.com/?cid=0x0:0xcfc978fc9f51cd38,
mall,Toko,Pasar Ganti Donggala,"8P3M+2RV, Jl.Trans Banawa, Ganti, Kec. Banawa Tengah, Kabupaten Donggala, Sulawesi Tengah 94351","Jl.Trans Banawa, Ganti, Kec. Banawa Tengah, Kabupaten Donggala",SULAWESI TENGAH,94351.0,Indonesia,85256937280,,,-0.69739,1.197.345.346,https://maps.google.com/?cid=0x0:0x8d75c308f2e2767e,
mall,Toko,Kios Sumiati,"6QXM+745, Loli Dondo, Kec. Banawa, Kabupaten Donggala, Sulawesi Tengah 94351","Loli Dondo, Kec. Banawa, Kabupaten Donggala",SULAWESI TENGAH,94351.0,Indonesia,,,,-0.7518676,119.782.862,https://maps.google.com/?cid=0x0:0xf159f3214299ab8c,
mall,Toko bahan makanan,Kios papa depi,"Jl. Trans Palu-Donggala No.122, Loli Tasiburi, Kec. Banawa, Kabupaten Donggala, Sulawesi Tengah 94351","Loli Tasiburi, Kec. Banawa, Kabupaten Donggala",SULAWESI TENGAH,94351.0,Indonesia,82190227041,,,-0.7513089,1.197.821.856,https://maps.google.com/?cid=0x0:0x589a10231554ce42,
mall,Kios,Kios aliya,"7MFR+X5G, Mekar Baru, Kec. Banawa Tengah, Kabupaten Donggala, Sulawesi Tengah 94351","Mekar Baru, Kec. Banawa Tengah, Kabupaten Donggala",SULAWESI TENGAH,94351.0,Indonesia,81354786634,,,-0.7250515,1.196.904.629,https://maps.google.com/?cid=0x0:0x4c84dc9139c00139,
mall,Pusat Perbelanjaan,XEIGHT Palu Grand Mall,"Grand Mall, Jl. Cumi-Cumi No.77 LT. GF UNIT G - 0150, BUMI BAHARI, Kec. Palu Bar., Kota Palu, Sulawesi Tengah 94221","Jl. Cumi-Cumi No.77 LT. GF UNIT G - 0150, BUMI BAHARI, Kec. Palu Bar., Kota Palu",SULAWESI TENGAH,94221.0,Indonesia,4514134547,,,-0.8828723,1.198.427.211,https://maps.google.com/?cid=0x0:0xd7e6e97d68971afd,
mall,Toko,Citra Toko,"Jl. Pettalolo No.78, Boya, Kec. Banawa, Kabupaten Donggala, Sulawesi Tengah 94351","Boya, Kec. Banawa, Kabupaten Donggala",SULAWESI TENGAH,94351.0,Indonesia,82197409979,,,-0.6734832,1.197.381.264,https://maps.google.com/?cid=0x0:0x63bb9d824a9c3d85,
mall,mall,Kec. Banawa Sel.,"Kabupaten Donggala, Sulawesi Tengah","Kabupaten Donggala, Sulawesi Tengah",SULAWESI TENGAH,,Indonesia,,,,-0.8747147,1.195.868.734,https://maps.google.com/?cid=0x0:0x1770e8ddd4c1c609,
mall,Toko,Pucis store,"8P3M+99V, Petobo, Ganti, Kec. Banawa, Kabupaten Donggala, Sulawesi Tengah 94351","Petobo, Ganti, Kec. Banawa, Kabupaten Donggala",SULAWESI TENGAH,94351.0,Indonesia,82296339306,,,-0.6965123,1.197.334.138,https://maps.google.com/?cid=0x0:0xde48f65d50d735a7,
mall,Pusat Perbelanjaan,"Toko RIKAL"" Jual Campuran Dan Bahan Bangunan""","Toko Rikal, Loli Tasiburi, Kec. Banawa, Kabupaten Donggala, Sulawesi Tengah 94351","Loli Tasiburi, Kec. Banawa, Kabupaten Donggala",SULAWESI TENGAH,94351.0,Indonesia,85146461366,,,-0.765441,1.197.715.563,https://maps.google.com/?cid=0x0:0xd5464d890a0a1867,
mall,mall,Rumah Produksi Keripik TIGA DARA,"7PRG+7VV, Jalan, Ganti, Banawa, Donggala Regency, Central Sulawesi 94351","Jalan, Ganti, Banawa, Donggala Regency",SULAWESI TENGAH,94351.0,Indonesia,85395720537,,,-0.7092688,1.197.271.668,https://maps.google.com/?cid=0x0:0x2e4209acb26d88ca,
mall,mall,Rm.Reza,"5J4H+3F8, Lalombi, Kec. Banawa Sel., Kabupaten Donggala, Sulawesi Tengah 94351","Lalombi, Kec. Banawa Sel., Kabupaten Donggala",SULAWESI TENGAH,94351.0,Indonesia,,,,-0.8448387,1.196.287.141,https://maps.google.com/?cid=0x0:0xba85a3d44c5432f,
mall,mall,PETTABENAG,"8PCR+49R, Maleni, Kec. Banawa, Kabupaten Donggala, Sulawesi Tengah 94351","Maleni, Kec. Banawa, Kabupaten Donggala",SULAWESI TENGAH,94351.0,Indonesia,,,,-0.679645,119.740.898,https://maps.google.com/?cid=0x0:0xfe4ac8b4e7bfe1f2,
mall,mall,Minopolitan Donggala,"5J55+F28, Lalombi, Kec. Banawa Sel., Kabupaten Donggala, Sulawesi Tengah 94351","Lalombi, Kec. Banawa Sel., Kabupaten Donggala",SULAWESI TENGAH,94351.0,Indonesia,81356459347,,,-0.8413429,1.196.075.806,https://maps.google.com/?cid=0x0:0xfdcc1d5b65dd2de0,
mall,mall,Kios Viola _shanum,"6QXM+427, Loli Dondo, Kec. Banawa, Kabupaten Donggala, Sulawesi Tengah 94351","Loli Dondo, Kec. Banawa, Kabupaten Donggala",SULAWESI TENGAH,94351.0,Indonesia,,,,-0.7522153,1.197.825.435,https://maps.google.com/?cid=0x0:0x321ba47ec1df35df,
mall,mall,Kios Viola _shanum,"7Q55+PX9, Loli Dondo, Kec. Banawa, Kabupaten Donggala, Sulawesi Tengah 94351","Loli Dondo, Kec. Banawa, Kabupaten Donggala",SULAWESI TENGAH,94351.0,Indonesia,,,,-0.7407016,1.197.599.761,https://maps.google.com/?cid=0x0:0x69f2d3b9721b936e,
mall,mall,Kios inda,"5JQF+33, Tanahmea, Kec. Banawa Sel., Kabupaten Donggala, Sulawesi Tengah 94351","Tanahmea, Kec. Banawa Sel., Kabupaten Donggala",SULAWESI TENGAH,94351.0,Indonesia,,,,-0.8121875,1.196.231.875,https://maps.google.com/?cid=0x0:0x5df500f040a6eed,
mall,Toko Bahan Bangunan,Toko Bangunan Anugerah,"Jl. Pettalolo No.166, Boya, Kec. Banawa, Kabupaten Donggala, Sulawesi Tengah 94351","Boya, Kec. Banawa, Kabupaten Donggala",SULAWESI TENGAH,94351.0,Indonesia,45771198,,,-0.6731764,1.197.385.955,https://maps.google.com/?cid=0x0:0x5f23532c1e5ea1b3,
mall,mall,Kec. Banawa Tengah,"Kabupaten Donggala, Sulawesi Tengah","Kabupaten Donggala, Sulawesi Tengah",SULAWESI TENGAH,,Indonesia,,,,-0.7228051,1.196.992.156,https://maps.google.com/?cid=0x0:0xe02be6cd56068455,
mall,Tujuan Wisata,Pasar TOWALE,"7MCH+MQ4, Towale, Kec. Banawa Tengah, Kabupaten Donggala, Sulawesi Tengah 94351","Towale, Kec. Banawa Tengah, Kabupaten Donggala",SULAWESI TENGAH,94351.0,Indonesia,,,,-0.728362,1.196.794.583,https://maps.google.com/?cid=0x0:0xe0c823b212bc5c3,
mall,Toko,Pasar Ganti Donggala,"8P3M+2RV, Jl.Trans Banawa, Ganti, Kec. Banawa Tengah, Kabupaten Donggala, Sulawesi Tengah 94351","Jl.Trans Banawa, Ganti, Kec. Banawa Tengah, Kabupaten Donggala",SULAWESI TENGAH,94351.0,Indonesia,85256937280,,,-0.69739,1.197.345.346,https://maps.google.com/?cid=0x0:0x8d75c308f2e2767e,
mall,Kios,Kios aliya,"7MFR+X5G, Mekar Baru, Kec. Banawa Tengah, Kabupaten Donggala, Sulawesi Tengah 94351","Mekar Baru, Kec. Banawa Tengah, Kabupaten Donggala",SULAWESI TENGAH,94351.0,Indonesia,81354786634,,,-0.7250515,1.196.904.629,https://maps.google.com/?cid=0x0:0x4c84dc9139c00139,
mall,Pusat Perbelanjaan,XEIGHT Palu Grand Mall,"Grand Mall, Jl. Cumi-Cumi No.77 LT. GF UNIT G - 0150, BUMI BAHARI, Kec. Palu Bar., Kota Palu, Sulawesi Tengah 94221","Jl. Cumi-Cumi No.77 LT. GF UNIT G - 0150, BUMI BAHARI, Kec. Palu Bar., Kota Palu",SULAWESI TENGAH,94221.0,Indonesia,4514134547,,,-0.8828723,1.198.427.211,https://maps.google.com/?cid=0x0:0xd7e6e97d68971afd,
mall,Toko,Kios Sumiati,"6QXM+745, Loli Dondo, Kec. Banawa, Kabupaten Donggala, Sulawesi Tengah 94351","Loli Dondo, Kec. Banawa, Kabupaten Donggala",SULAWESI TENGAH,94351.0,Indonesia,,,,-0.7518676,119.782.862,https://maps.google.com/?cid=0x0:0xf159f3214299ab8c,
mall,Toko bahan makanan,Kios papa depi,"Jl. Trans Palu-Donggala No.122, Loli Tasiburi, Kec. Banawa, Kabupaten Donggala, Sulawesi Tengah 94351","Loli Tasiburi, Kec. Banawa, Kabupaten Donggala",SULAWESI TENGAH,94351.0,Indonesia,82190227041,,,-0.7513089,1.197.821.856,https://maps.google.com/?cid=0x0:0x589a10231554ce42,
mall,Toko,Citra Toko,"Jl. Pettalolo No.78, Boya, Kec. Banawa, Kabupaten Donggala, Sulawesi Tengah 94351","Boya, Kec. Banawa, Kabupaten Donggala",SULAWESI TENGAH,94351.0,Indonesia,82197409979,,,-0.6734832,1.197.381.264,https://maps.google.com/?cid=0x0:0x63bb9d824a9c3d85,
mall,Pusat Perbelanjaan,"Toko RIKAL"" Jual Campuran Dan Bahan Bangunan""","Toko Rikal, Loli Tasiburi, Kec. Banawa, Kabupaten Donggala, Sulawesi Tengah 94351","Loli Tasiburi, Kec. Banawa, Kabupaten Donggala",SULAWESI TENGAH,94351.0,Indonesia,85146461366,,,-0.765441,1.197.715.563,https://maps.google.com/?cid=0x0:0xd5464d890a0a1867,
mall,Toko,Pucis store,"8P3M+99V, Petobo, Ganti, Kec. Banawa, Kabupaten Donggala, Sulawesi Tengah 94351","Petobo, Ganti, Kec. Banawa, Kabupaten Donggala",SULAWESI TENGAH,94351.0,Indonesia,82296339306,,,-0.6965123,1.197.334.138,https://maps.google.com/?cid=0x0:0xde48f65d50d735a7,
mall,Toko,Gunung bale,"8PFW+855, Gn. Bale, Kec. Banawa, Kabupaten Donggala, Sulawesi Tengah","Kabupaten Donggala, Sulawesi Tengah",SULAWESI TENGAH,,Indonesia,,,,-0.6767416,1.197.454.995,https://maps.google.com/?cid=0x0:0x57bd573e5725aa4a,
mall,Toko Aksesori Ponsel,BINTANG BANAWA(Phone Accesories Hp),"Jl. Poros Majene - Mamuju, Watatu, Kec. Banawa Sel., Kabupaten Donggala, Sulawesi Tengah 94351","Watatu, Kec. Banawa Sel., Kabupaten Donggala",SULAWESI TENGAH,94351.0,Indonesia,81222441788,,,-0.8746426,1.195.875.978,https://maps.google.com/?cid=0x0:0xcfc978fc9f51cd38,
mall,mall,Rumah Produksi Keripik TIGA DARA,"7PRG+7VV, Jalan, Ganti, Banawa, Donggala Regency, Central Sulawesi 94351","Jalan, Ganti, Banawa, Donggala Regency",SULAWESI TENGAH,94351.0,Indonesia,85395720537,,,-0.7092688,1.197.271.668,https://maps.google.com/?cid=0x0:0x2e4209acb26d88ca,
mall,Dapur Umum,Siomai mas tofa,"Jl. Pelabuhan No.36, Boya, Kec. Banawa, Kabupaten Donggala, Sulawesi Tengah 94351","Boya, Kec. Banawa, Kabupaten Donggala",SULAWESI TENGAH,94351.0,Indonesia,,,,-0.6675069,1.197.419.945,https://maps.google.com/?cid=0x0:0x27ddb91f2162120f,
mall,Tujuan Wisata,Salubomba wandu,"7M8R+MJM, Salubomba, Kec. Banawa Tengah, Kabupaten Donggala, Sulawesi Tengah 94351","Salubomba, Kec. Banawa Tengah, Kabupaten Donggala",SULAWESI TENGAH,94351.0,Indonesia,,,,-0.7332852,1.196.915.318,https://maps.google.com/?cid=0x0:0x5d732e1472b0e6f1,
mall,Sekolah Dasar,SDN 12 Banawa,"8P99+C6W, Boneoge, Kec. Banawa, Kabupaten Donggala, Sulawesi Tengah 94351","Boneoge, Kec. Banawa, Kabupaten Donggala",SULAWESI TENGAH,94351.0,Indonesia,,,,-0.681393,1.197.180.851,https://maps.google.com/?cid=0x0:0xa64d19f75e1b1215,
mall,Sekolah menengah,SDN 12 Wandu,"7M8Q+MWH, Salubomba, Kec. Banawa Tengah, Kabupaten Donggala, Sulawesi Tengah 94351","Salubomba, Kec. Banawa Tengah, Kabupaten Donggala",SULAWESI TENGAH,94351.0,Indonesia,,,,-0.733324,1.196.898.473,https://maps.google.com/?cid=0x0:0xd2f402b6f16bab,
mall,mall,Sulawesi Tengah 94356,"Kabupaten Donggala, Sulawesi Tengah","Kabupaten Donggala, Sulawesi Tengah",SULAWESI TENGAH,,Indonesia,,,,0.3571796,1.200.202.964,https://maps.google.com/?cid=0x0:0x35d848f8a4662f0d,
mall,mall,Kec. Damsol,"Kabupaten Donggala, Sulawesi Tengah","Kabupaten Donggala, Sulawesi Tengah",SULAWESI TENGAH,,Indonesia,,,,0.2652522,1.199.219.896,https://maps.google.com/?cid=0x0:0x8ab478bb4a288230,
mall,Pembangunan Perumahan,PASAR MALONAS,"7W8C+6Q2, Malonas, Kec. Damsol, Kabupaten Donggala, Sulawesi Tengah 94356","Malonas, Kec. Damsol, Kabupaten Donggala",SULAWESI TENGAH,94356.0,Indonesia,,,,0.265522,1.199.218.828,https://maps.google.com/?cid=0x0:0xd911a92cd70a7052,
mall,Pusat Perbelanjaan,Puji celll,"5WX6+F57, Sioyong, Kec. Damsol, Kabupaten Donggala, Sulawesi Tengah","Kabupaten Donggala, Sulawesi Tengah",SULAWESI TENGAH,,Indonesia,,,,0.1986699,1.199.104.172,https://maps.google.com/?cid=0x0:0x86c9d16b373f50b4,
mall,Pasar,Pasar Tradisional Desa Siwalempu,"G3J7+R78, Siwalempu, Kec. Sojol, Kabupaten Donggala, Sulawesi Tengah 94356","Siwalempu, Kec. Sojol, Kabupaten Donggala",SULAWESI TENGAH,94356.0,Indonesia,,,,0.5320472,1.200.631.947,https://maps.google.com/?cid=0x0:0x239581ba4a2bd0e1,
mall,Toko umum,kios baco hani,"H368+888, Balukang II, Kec. Sojol, Kabupaten Donggala, Sulawesi Tengah 94356","Balukang II, Kec. Sojol, Kabupaten Donggala",SULAWESI TENGAH,94356.0,Indonesia,,,,0.5607984,1.200.658.314,https://maps.google.com/?cid=0x0:0x284149fbc55fb893,
mall,Toko umum,Al's Store,"M5GC+959, Ogoamas I, Kec. Sojol Utara, Kabupaten Donggala, Sulawesi Tengah 94476","Ogoamas I, Kec. Sojol Utara, Kabupaten Donggala",SULAWESI TENGAH,94476.0,Indonesia,82296829980,,,0.6759109,1.201.704.766,https://maps.google.com/?cid=0x0:0x100894a2f09e8e7d,
mall,Kompleks Kondominium,Pasar Sibayu,"4V2C+968, Sibayu, Kec. Balaesang, Kabupaten Donggala, Sulawesi Tengah 94356","Sibayu, Kec. Balaesang, Kabupaten Donggala",SULAWESI TENGAH,94356.0,Indonesia,82271360030,,,0.1009113,1.198.705.651,https://maps.google.com/?cid=0x0:0xcfc53be29eec1012,
mall,Toko umum,TOKO SALSABILA,"FXGG+25Q, Desa, Tonggolobibi, Kec. Sojol, Kabupaten Donggala, Sulawesi Tengah 94356","Desa, Tonggolobibi, Kec. Sojol, Kabupaten Donggala",SULAWESI TENGAH,94356.0,Indonesia,,,,0.4750832,1.199.754.724,https://maps.google.com/?cid=0x0:0x86c66354ca3ee677,
mall,Toko umum,Kios Dua Putra AbhyEkhy,"8VC6+R7V, Rerang, Kec. Damsol, Kabupaten Donggala, Sulawesi Tengah 94356","Rerang, Kec. Damsol, Kabupaten Donggala",SULAWESI TENGAH,94356.0,Indonesia,82188544466,,,0.3221004,1.198.606.694,https://maps.google.com/?cid=0x0:0x1c43ded261e60ccb,
mall,Toko,E-warong rizki,"7W22+4QC, Jl. Tolitoli - Palu, Ponggerang, Kec. Damsol, Kabupaten Donggala, Sulawesi Tengah 94356","Jl. Tolitoli - Palu, Ponggerang, Kec. Damsol, Kabupaten Donggala",SULAWESI TENGAH,94356.0,Indonesia,,,,0.2503226,119.901.882,https://maps.google.com/?cid=0x0:0x9fd0723f9c36456f,
mall,Toko Pakaian,Dewina Shop,"7W22+3P2, Jl. Tolitoli - Palu, Ponggerang, Kec. Damsol, Kabupaten Donggala, Sulawesi Tengah 94356","Jl. Tolitoli - Palu, Ponggerang, Kec. Damsol, Kabupaten Donggala",SULAWESI TENGAH,94356.0,Indonesia,82221028783,,,0.2501308,1.199.017.649,https://maps.google.com/?cid=0x0:0xcf51bfa0f46936c5,
mall,Kios,Kios Nabila,"5W9M+8X9, Karyamukti, Kec. Damsol, Kabupaten Donggala, Sulawesi Tengah 94356","Karyamukti, Kec. Damsol, Kabupaten Donggala",SULAWESI TENGAH,94356.0,Indonesia,,,,0.1682785,1.199.349.831,https://maps.google.com/?cid=0x0:0x836c314ca779f81e,
mall,Pusat Perbelanjaan,Kios Fuji cell Sioyong,"6V5V+9JG, Tonggolobibi - Sabang, Sioyong, Kec. Damsol, Kabupaten Donggala, Sulawesi Tengah 94356","Tonggolobibi - Sabang, Sioyong, Kec. Damsol, Kabupaten Donggala",SULAWESI TENGAH,94356.0,Indonesia,,,,0.2084389,1.198.940.764,https://maps.google.com/?cid=0x0:0xcfe364ded9ea2b67,
mall,Pusat Perbelanjaan,CV.FIRDAUS SANI,"5WFM+MCP, Karyamukti, Kec. Damsol, Kabupaten Donggala, Sulawesi Tengah 94356","Karyamukti, Kec. Damsol, Kabupaten Donggala",SULAWESI TENGAH,94356.0,Indonesia,81341303321,,,0.1742079,1.199.335.779,https://maps.google.com/?cid=0x0:0xdd01956acf228011,
mall,Pusat Perbelanjaan,Kios Fuji cell,"5WX6+F57, Sioyong, Kec. Damsol, Kabupaten Donggala, Sulawesi Tengah","Kabupaten Donggala, Sulawesi Tengah",SULAWESI TENGAH,,Indonesia,,,,0.1986699,1.199.104.172,https://maps.google.com/?cid=0x0:0x30da0696ff291cf4,
mall,Toko Aksesori Ponsel,Agen Pulsa Nautica Cell,"P4HP+QPR, Jl. Gn. Sojol, Ogoamas I, Kec. Sojol Utara, Kabupaten Donggala, Sulawesi Tengah 94356","Jl. Gn. Sojol, Ogoamas I, Kec. Sojol Utara, Kabupaten Donggala",SULAWESI TENGAH,94356.0,Indonesia,,,,0.7301932,1.201.357.824,https://maps.google.com/?cid=0x0:0x68227a9a6543bcf,
mall,Kantor Perusahaan,Desa Lembah Mukti Kec. Dampelas kab. Donggala,"8WX8+QF5, Lemba Mukti, Kec. Damsol, Kabupaten Donggala, Sulawesi Tengah 94356","Lemba Mukti, Kec. Damsol, Kabupaten Donggala",SULAWESI TENGAH,94356.0,Indonesia,,,,0.3493854,1.199.162.276,https://maps.google.com/?cid=0x0:0xd1b5dee53c24ed8f,
mall,Pasar,Pasar Panii,"6WG5+X3H, Jl. Tolitoli - Palu, Panii, Kec. Damsol, Kabupaten Donggala, Sulawesi Tengah 94356","Jl. Tolitoli - Palu, Panii, Kec. Damsol, Kabupaten Donggala",SULAWESI TENGAH,94356.0,Indonesia,,,,0.2274283,1.199.077.275,https://maps.google.com/?cid=0x0:0x9b524b2ba998a5d9,
mall,Toko bahan makanan,E-warong jirhan shop,"H385+8PW, Jl. Tolitoli - Palu, Balukang II, Kec. Sojol, Kabupaten Donggala, Sulawesi Tengah 94356","Jl. Tolitoli - Palu, Balukang II, Kec. Sojol, Kabupaten Donggala",SULAWESI TENGAH,94356.0,Indonesia,,,,0.5658656,120.059.319,https://maps.google.com/?cid=0x0:0x333d3af73b3fb5dd,
mall,Toko,Kios.AUREL,"P4R4+43Q, Ogoamas II, Kec. Sojol Utara, Kabupaten Donggala, Sulawesi Tengah","Kabupaten Donggala, Sulawesi Tengah",SULAWESI TENGAH,,Indonesia,85323159153,,,0.740042,1.201.053.957,https://maps.google.com/?cid=0x0:0x20ec74776fff39fb,
mall,mall,Arifin,"8R9H+Q5X, Labuan, Kec. Labuan, Kabupaten Donggala, Sulawesi Tengah 94352","Labuan, Kec. Labuan, Kabupaten Donggala",SULAWESI TENGAH,94352.0,Indonesia,,,,-0.681419,119.827.258,https://maps.google.com/?cid=0x0:0x8b8fa2f390e73151,
mall,Toko,AnisaCall,"9R2X+XV9, Labuan Toposo, Kec. Labuan, Kabupaten Donggala, Sulawesi Tengah","Kabupaten Donggala, Sulawesi Tengah",SULAWESI TENGAH,,Indonesia,,,,-0.6475938,1.198.497.325,https://maps.google.com/?cid=0x0:0xb9137960a4d77c6e,
mall,Toko,Kios Jerlin,"8RJC+C7G, Labuan Salumbone, Kec. Labuan, Kabupaten Donggala, Sulawesi Tengah 94353","Labuan Salumbone, Kec. Labuan, Kabupaten Donggala",SULAWESI TENGAH,94353.0,Indonesia,,,,-0.6689478,1.198.207.167,https://maps.google.com/?cid=0x0:0x89e43b9ce71c0f3c,
mall,Toko,Pasar Ganti Donggala,"8P3M+2RV, Jl.Trans Banawa, Ganti, Kec. Banawa Tengah, Kabupaten Donggala, Sulawesi Tengah 94351","Jl.Trans Banawa, Ganti, Kec. Banawa Tengah, Kabupaten Donggala",SULAWESI TENGAH,94351.0,Indonesia,85256937280,,,-0.69739,1.197.345.346,https://maps.google.com/?cid=0x0:0x8d75c308f2e2767e,
mall,Toko,Gunung bale,"8PFW+855, Gn. Bale, Kec. Banawa, Kabupaten Donggala, Sulawesi Tengah","Kabupaten Donggala, Sulawesi Tengah",SULAWESI TENGAH,,Indonesia,,,,-0.6767416,1.197.454.995,https://maps.google.com/?cid=0x0:0x57bd573e5725aa4a,
mall,Toko Fotokopi,Rezeki fotocopy  seluler,"8RPM+VCC, Labuan Panimba, Kec. Labuan, Kabupaten Donggala, Sulawesi Tengah 94353","Labuan Panimba, Kec. Labuan, Kabupaten Donggala",SULAWESI TENGAH,94353.0,Indonesia,82395089186,,,-0.6628096,1.198.335.245,https://maps.google.com/?cid=0x0:0x497c0bcabfdb9be8,
mall,,Empat Enam Cbd,"8R4R+V33, Jl. Empat Enam, Wani Dua, Kec. Tanantovea, Kabupaten Donggala, Sulawesi Tengah 94352","Jl. Empat Enam, Wani Dua, Kec. Tanantovea, Kabupaten Donggala",SULAWESI TENGAH,94352.0,Indonesia,8114562046,,,-0.692854,1.198.401.661,https://maps.google.com/?cid=0x0:0xf274785e0dc07e3b,
mall,mall,Labuhan,"Kalanganyar, Kec. Labuan, Kabupaten Pandeglang, Banten","Kabupaten Pandeglang, Banten",SULAWESI TENGAH,,Indonesia,,,,-6.372.081,105.832.298,https://maps.google.com/?cid=0x0:0xb6b8c7fc89825364,
mall,Pusat Perbelanjaan,Kota Labuan,"Jl. Raya Jend. Sudirman, Kalanganyar, Kec. Labuan, Kabupaten Pandeglang, Banten 42264","Kalanganyar, Kec. Labuan, Kabupaten Pandeglang",SULAWESI TENGAH,42264.0,Indonesia,,,,-63.720.205,1.058.282.958,https://maps.google.com/?cid=0x0:0x7e7aa6a10cda2a95,
mall,Pasar,Pasar Tradisional Kecamatan Labuan,"JRFG+P4V, Unnamed Road, Labuan, Kec. Labuan, Kabupaten Pandeglang, Banten 42264","Unnamed Road, Labuan, Kec. Labuan, Kabupaten Pandeglang",SULAWESI TENGAH,42264.0,Indonesia,,,,-63.756.297,1.058.252.871,https://maps.google.com/?cid=0x0:0xf84409639d128494,
mall,Pasar,RIA BUSANA LABUAN,"JRFG+WF8, Jl. Raya Jend. Sudirman No.RT01/04, Labuan, Kec. Labuan, Kabupaten Pandeglang, Banten 42264","Jl. Raya Jend. Sudirman No.RT01/04, Labuan, Kec. Labuan, Kabupaten Pandeglang",SULAWESI TENGAH,42264.0,Indonesia,,,,-63.752.049,1.058.262.214,https://maps.google.com/?cid=0x0:0xb9f85d8e20ac59b5,
mall,Pusat Perbelanjaan,SPO 1343 Labuan,"JRCG+C8X, Jl. Kramat, Cigondang, Kec. Labuan, Kabupaten Pandeglang, Banten 42264","Jl. Kramat, Cigondang, Kec. Labuan, Kabupaten Pandeglang",SULAWESI TENGAH,42264.0,Indonesia,87773764118,,,-63.788.783,1.058.258.672,https://maps.google.com/?cid=0x0:0x1f2f894c8724ca9f,
mall,Toko Sepatu,Carvil Store - Labuan Pandeglang,"Jl. Raya Jend. Sudirman No.29 RT.002/009, KEL.LABUAN, Kec. Labuan, Kabupaten Pandeglang, Banten 42264","KEL.LABUAN, Kec. Labuan, Kabupaten Pandeglang",SULAWESI TENGAH,42264.0,Indonesia,,,,-63.772.071,105.829.355,https://maps.google.com/?cid=0x0:0x293d114457d87344,
mall,Pusat Perbelanjaan,Kampung,"JRMG+J2F, Caringin, Kec. Labuan, Kabupaten Pandeglang, Banten 42264","Caringin, Kec. Labuan, Kabupaten Pandeglang",SULAWESI TENGAH,42264.0,Indonesia,,,,-63.659.461,1.058.250.355,https://maps.google.com/?cid=0x0:0xa5bfdd72b524ea9e,
mall,Toko,Miftah Mart,"JRHF+56R, Teluk, Kec. Labuan, Kabupaten Pandeglang, Banten 42264","Teluk, Kec. Labuan, Kabupaten Pandeglang",SULAWESI TENGAH,42264.0,Indonesia,,,,-63.720.081,1.058.230.147,https://maps.google.com/?cid=0x0:0x3c98e9d35037d5,
mall,Toko,Hi Accesoris Labuan,"JRGG+974, Labuan, Kec. Labuan, Kabupaten Pandeglang, Banten 42264","Labuan, Kec. Labuan, Kabupaten Pandeglang",SULAWESI TENGAH,42264.0,Indonesia,83806524000,,,-63.741.143,1.058.257.106,https://maps.google.com/?cid=0x0:0xcf763025cb173cfa,
mall,Toko Perlengkapan Olahraga,Central sport labuan pandeglang,"Jl. Raya Perintis Kemerdekaan No.155, Kalanganyar, Kec. Labuan, Kabupaten Pandeglang, Banten 42264","Kalanganyar, Kec. Labuan, Kabupaten Pandeglang",SULAWESI TENGAH,42264.0,Indonesia,83871668316,,,-63.718.247,1.058.284.022,https://maps.google.com/?cid=0x0:0x506bd80b57735556,
mall,Toko,Tb. Bangunan Jaya,"JRGG+PRF, Labuan, Kec. Labuan, Kabupaten Pandeglang, Banten 42264","Labuan, Kec. Labuan, Kabupaten Pandeglang",SULAWESI TENGAH,42264.0,Indonesia,,,,-6.373.187,1.058.270.588,https://maps.google.com/?cid=0x0:0x46fd140402a82d9d,
mall,Toko,PD. Mustika Sari Labuan,"JR6Q+W9X, Jl. Nasional III, Sukamaju, Kec. Labuan, Kabupaten Pandeglang, Banten 42264","Jl. Nasional III, Sukamaju, Kec. Labuan, Kabupaten Pandeglang",SULAWESI TENGAH,42264.0,Indonesia,81282763839,,,-63.876.391,105.838.486,https://maps.google.com/?cid=0x0:0xddaa0efbeddb4984,
mall,Toko,Toko Sherly,"Jl. Raya Jend. Sudirman No.8, Sukamaju, Kec. Labuan, Kabupaten Pandeglang, Banten 42264","Sukamaju, Kec. Labuan, Kabupaten Pandeglang",SULAWESI TENGAH,42264.0,Indonesia,,,,-63.840.878,1.058.357.614,https://maps.google.com/?cid=0x0:0x79db5342b1aec6c1,
mall,Toko Buah dan Sayur,PD.Buah Mekar Jaya,"JRFF+WVM, pasar ikan di dekat, Labuan, Kec. Labuan, Kabupaten Pandeglang, Banten 42264","pasar ikan di dekat, Labuan, Kec. Labuan, Kabupaten Pandeglang",SULAWESI TENGAH,42264.0,Indonesia,87772632278,,,-63.751.663,105.824.675,https://maps.google.com/?cid=0x0:0xa46659090a7c33e3,
mall,Pusat Perbelanjaan,ilalteknik AC,"JRCH+J4F, Labuan, Kec. Labuan, Kabupaten Pandeglang, Banten 42264","Labuan, Kec. Labuan, Kabupaten Pandeglang",SULAWESI TENGAH,42264.0,Indonesia,83841366677,,,-63.784.373,1.058.278.019,https://maps.google.com/?cid=0x0:0x5ea772fe19f0a71a,
mall,Kedai Pernak-pernik,Toko masJono,"Jl.Pelelangan 1 RT.02 RW.12 No.14 Desa. Teluk, Teluk, Kec. Labuan, Labuan Pandeglang, Banten 42264","Teluk, Kec. Labuan, Labuan Pandeglang",SULAWESI TENGAH,42264.0,Indonesia,8973244779,,,-63.748.285,1.058.237.672,https://maps.google.com/?cid=0x0:0xe7d148a560dd1693,
mall,Pusat Perbelanjaan,Gerai kotaku,"JRFF+XQ2, Labuan, Kec. Labuan, Kabupaten Pandeglang, Banten 42264","Labuan, Kec. Labuan, Kabupaten Pandeglang",SULAWESI TENGAH,42264.0,Indonesia,,,,-63.751.231,1.058.243.973,https://maps.google.com/?cid=0x0:0x8ef90fbe8b1f5df3,
mall,Salon Kecantikan,Salon Neni,"Jl. Raya Jend. Sudirman No.3, Labuan, Kec. Labuan, Kabupaten Pandeglang, Banten 42264","Labuan, Kec. Labuan, Kabupaten Pandeglang",SULAWESI TENGAH,42264.0,Indonesia,87718951200,,,-63.732.019,1.058.259.028,https://maps.google.com/?cid=0x0:0x5e406a7a99c129d9,
mall,Pusat Perbelanjaan,Bakulan Rere,"JRGP+G4W BTN, Kalanganyar, Kec. Labuan, Kabupaten Pandeglang, Banten 42264","Kalanganyar, Kec. Labuan, Kabupaten Pandeglang",SULAWESI TENGAH,42264.0,Indonesia,81398338811,,,-63.736.351,1.058.353.326,https://maps.google.com/?cid=0x0:0x46a2115e1fcc38f0,
mall,Toko Perlengkapan Rumah,LinaQua,"JRCG+49H, Jl. Kramat, Cigondang, Kec. Labuan, Kabupaten Pandeglang, Banten 42264","Jl. Kramat, Cigondang, Kec. Labuan, Kabupaten Pandeglang",SULAWESI TENGAH,42264.0,Indonesia,85724027855,,,-6.379.677,1.058.259.875,https://maps.google.com/?cid=0x0:0x8badaa527d2d2596,
mall,Toko Suku Cadang Motor,Jaya Motor,"JRGG+G5V, Kp panguseupan, Labuan, Kec. Labuan, Kabupaten Pandeglang, Banten 42264","Kp panguseupan, Labuan, Kec. Labuan, Kabupaten Pandeglang",SULAWESI TENGAH,42264.0,Indonesia,,,,-63.736.355,1.058.254.341,https://maps.google.com/?cid=0x0:0x4165cef5b097a6b6,
mall,mall,Sulawesi Tengah 94352,Sulawesi Tengah,Sulawesi Tengah,SULAWESI TENGAH,,Indonesia,,,,-0.7431556,1.199.856.157,https://maps.google.com/?cid=0x0:0x9958293db6b9e135,
mall,mall,Arifin,"8R9H+Q5X, Labuan, Kec. Labuan, Kabupaten Donggala, Sulawesi Tengah 94352","Labuan, Kec. Labuan, Kabupaten Donggala",SULAWESI TENGAH,94352.0,Indonesia,,,,-0.681419,119.827.258,https://maps.google.com/?cid=0x0:0x8b8fa2f390e73151,
mall,Toko,AnisaCall,"9R2X+XV9, Labuan Toposo, Kec. Labuan, Kabupaten Donggala, Sulawesi Tengah","Kabupaten Donggala, Sulawesi Tengah",SULAWESI TENGAH,,Indonesia,,,,-0.6475938,1.198.497.325,https://maps.google.com/?cid=0x0:0xb9137960a4d77c6e,
mall,Toko,Kios Jerlin,"8RJC+C7G, Labuan Salumbone, Kec. Labuan, Kabupaten Donggala, Sulawesi Tengah 94353","Labuan Salumbone, Kec. Labuan, Kabupaten Donggala",SULAWESI TENGAH,94353.0,Indonesia,,,,-0.6689478,1.198.207.167,https://maps.google.com/?cid=0x0:0x89e43b9ce71c0f3c,
mall,Toko Fotokopi,Rezeki fotocopy  seluler,"8RPM+VCC, Labuan Panimba, Kec. Labuan, Kabupaten Donggala, Sulawesi Tengah 94353","Labuan Panimba, Kec. Labuan, Kabupaten Donggala",SULAWESI TENGAH,94353.0,Indonesia,82395089186,,,-0.6628096,1.198.335.245,https://maps.google.com/?cid=0x0:0x497c0bcabfdb9be8,
mall,Toko Kosmetik,Rahayu Kosmetik,"Jl. Kayu Riya, Wani I, Kec. Tanantovea, Kabupaten Donggala, Sulawesi Tengah 94352","Wani I, Kec. Tanantovea, Kabupaten Donggala",SULAWESI TENGAH,94352.0,Indonesia,82293825162,,,-0.6908658,1.198.444.268,https://maps.google.com/?cid=0x0:0x21e7563126380e7b,
mall,Toko Kosmetik,Fajriani kosmetik,"8V6M+2MP, Wombo Panau, Kec. Tanantovea, Kabupaten Donggala, Sulawesi Tengah 94352","Wombo Panau, Kec. Tanantovea, Kabupaten Donggala",SULAWESI TENGAH,94352.0,Indonesia,81543315301,,,-0.6899207,1.198.842.073,https://maps.google.com/?cid=0x0:0xde1512f93969f7a1,
mall,,Empat Enam Cbd,"8R4R+V33, Jl. Empat Enam, Wani Dua, Kec. Tanantovea, Kabupaten Donggala, Sulawesi Tengah 94352","Jl. Empat Enam, Wani Dua, Kec. Tanantovea, Kabupaten Donggala",SULAWESI TENGAH,94352.0,Indonesia,8114562046,,,-0.692854,1.198.401.661,https://maps.google.com/?cid=0x0:0xf274785e0dc07e3b,
mall,Toko bahan makanan,Stokis Halal Mart Wani,"8R5V+8MJ, Jl. Kayu Riya, Wani I, Kec. Tawaeli, Kabupaten Donggala, Sulawesi Tengah 94352","Jl. Kayu Riya, Wani I, Kec. Tawaeli, Kabupaten Donggala",SULAWESI TENGAH,94352.0,Indonesia,85341144460,,,-0.6916739,1.198.441.327,https://maps.google.com/?cid=0x0:0xd2dd70c25768a89b,
mall,mall,Labuan,"87000, Labuan, Malaysia","Labuan, Malaysia",SULAWESI TENGAH,,Indonesia,,,,52.831.456,115.230.825,https://maps.google.com/?cid=0x0:0xc3d4051e24b4aa7c,
mall,Pusat Perbelanjaan,Kompleks Ujana Kewangan,"Jln Merdeka, Financial Park, 87000 Labuan, Wilayah Persekutuan Labuan, Malaysia",Labuan,SULAWESI TENGAH,87000.0,Indonesia,6087419477,,,52.756.766,1.152.488.585,https://maps.google.com/?cid=0x0:0x2ba7075c28f1da4e,
mall,Pasar,UTC  Labuan Central Market,"Jalan Bunga Tanjung, Bandar Labuan, 87000 Labuan, Wilayah Persekutuan Labuan, Malaysia",Labuan,SULAWESI TENGAH,87000.0,Indonesia,6087408600,,,52.820.646,115.240.568,https://maps.google.com/?cid=0x0:0xe5a9297d9fac93a9,
mall,Pusat Perbelanjaan,Financial Park Complex Labuan,"Jln Merdeka, Financial Park, 87000 Labuan, Wilayah Persekutuan Labuan, Malaysia",Labuan,SULAWESI TENGAH,87000.0,Indonesia,6087419477,,,52.764.306,115.249.388,https://maps.google.com/?cid=0x0:0x5ae7935015360fff,
mall,Toko Perlengkapan Rumah,One Stop Premium Outlet,"Jalan Bunga Melati, Bandar Labuan, 87000 Labuan, Wilayah Persekutuan Labuan, Malaysia",Labuan,SULAWESI TENGAH,87000.0,Indonesia,,,,52.791.892,1.152.426.425,https://maps.google.com/?cid=0x0:0xfa8de13c5ba11e57,
mall,Pusat Perbelanjaan,Labuan Times Square,"Bandar Labuan, 87000 Labuan, Labuan Federal Territory, Malaysia",Labuan,SULAWESI TENGAH,87000.0,Indonesia,60148522784,,,52.748.104,1.152.452.661,https://maps.google.com/?cid=0x0:0x3593247666fba678,
mall,Pasar,Labuan Walk,"Bandar Labuan, 87000 Labuan, Labuan Federal Territory, Malaysia",Labuan,SULAWESI TENGAH,87000.0,Indonesia,,,,52.781.252,1.152.457.057,https://maps.google.com/?cid=0x0:0xbaa1f6b619e203ce,
mall,Toko Swalayan,Emporium Labuan,"87000 Labuan, Labuan Federal Territory, Malaysia",Labuan,SULAWESI TENGAH,87000.0,Indonesia,6087424661,,,52.784.421,1.152.337.758,https://maps.google.com/?cid=0x0:0x34f499b2ee80df91,
mall,Toko Perlengkapan Rumah,Labuan,"Kampung Patau-Patau 2, 87000 Labuan, Labuan Federal Territory, Malaysia",Labuan,SULAWESI TENGAH,87000.0,Indonesia,,,,52.831.456,115.230.825,https://maps.google.com/?cid=0x0:0x7a7ccfba8ad9cdf3,
mall,Toko Swalayan,Labuan Supermarket,"Bandar Labuan, 87000 Labuan, Labuan Federal Territory, Malaysia",Labuan,SULAWESI TENGAH,87000.0,Indonesia,6087411798,,,52.786.497,1.152.423.736,https://maps.google.com/?cid=0x0:0xebb51c53e63a4bd4,
mall,Toko Bebas Bea,Sky Park Duty Free Labuan,"Jln Merdeka, Financial Park, 87000, 87016 Victoria, Labuan Federal Territory, Malaysia",Victoria,SULAWESI TENGAH,87016.0,Indonesia,6087422562,,,5.276.042,1.152.490.004,https://maps.google.com/?cid=0x0:0x2de7ac4d20848c6b,
mall,Toko Swalayan,Milimewa Superstore,"Bandar Labuan, 87000 Labuan, Labuan Federal Territory, Malaysia",Labuan,SULAWESI TENGAH,87000.0,Indonesia,,,,52.803.691,1.152.454.713,https://maps.google.com/?cid=0x0:0x57db010da2271b50,
mall,Pusat Perbelanjaan,QH GLOBAL EMPIRE,"Bandar Labuan, 87000 Labuan, Labuan Federal Territory, Malaysia",Labuan,SULAWESI TENGAH,87000.0,Indonesia,60166693031,,,52.792.914,1.152.452.201,https://maps.google.com/?cid=0x0:0xbe37d520a406b287,
mall,Toko Swalayan,Utama Jaya Superstore,"Unnamed Road, Bandar Labuan, 87000 Labuan, Labuan Federal Territory, Malaysia",Labuan,SULAWESI TENGAH,87000.0,Indonesia,6087581788,,,52.805.974,1.152.408.461,https://maps.google.com/?cid=0x0:0x69a46436c79ff4e,
mall,Pusat Perbelanjaan,Kota Labuan,"Jl. Raya Jend. Sudirman, Kalanganyar, Kec. Labuan, Kabupaten Pandeglang, Banten 42264","Kalanganyar, Kec. Labuan, Kabupaten Pandeglang",SULAWESI TENGAH,42264.0,Indonesia,,,,-63.720.205,1.058.282.958,https://maps.google.com/?cid=0x0:0x7e7aa6a10cda2a95,
mall,Apartemen berlayanan,Master Like Enterprise Paragon,"Bandar Labuan, 87000 Labuan, Labuan Federal Territory, Malaysia",Labuan,SULAWESI TENGAH,87000.0,Indonesia,6087490199,,,52.810.952,115.244.052,https://maps.google.com/?cid=0x0:0x5bd8b5500346847a,
mall,Toko Bebas Bea,Sky Park Ujana Kewangan,"Financial Park, 87000 Labuan, Labuan Federal Territory, Malaysia",Labuan,SULAWESI TENGAH,87000.0,Indonesia,,,,52.756.591,1.152.490.316,https://maps.google.com/?cid=0x0:0xafb55c13b0ad8b70,
mall,Hipermarket,Bataras Hypermarket Labuan,"SU3588, Kg. Batu Arang, 700, 87032 Labuan, Labuan Federal Territory, Malaysia",Labuan,SULAWESI TENGAH,87032.0,Indonesia,6087581508,,,52.945.907,1.152.414.627,https://maps.google.com/?cid=0x0:0xada22e1f3cc93058,
mall,Toko Bebas Bea,LMJ DUTY FREE,"Jalan Bunga Kenanga, Bandar Labuan, 87000 Labuan, Wilayah Persekutuan Labuan, Malaysia",Labuan,SULAWESI TENGAH,87000.0,Indonesia,,,,52.775.923,1.152.420.515,https://maps.google.com/?cid=0x0:0x269861df2adf3fc,
mall,Pusat Perbelanjaan,Labuan Shoppers,"87000, Unnamed Road, 87000 Labuan, Labuan Federal Territory, Malaysia",Labuan,SULAWESI TENGAH,87000.0,Indonesia,60178040300,,,53.121.192,1.152.157.691,https://maps.google.com/?cid=0x0:0x5ce054ea21a6a118,
mall,mall,Pasar Bambakaenu,"XMF3+2WX, Unnamed Road, Bambakaenu, Kec. Pinembani, Kabupaten Donggala, Sulawesi Tengah 94362","Unnamed Road, Bambakaenu, Kec. Pinembani, Kabupaten Donggala",SULAWESI TENGAH,94362.0,Indonesia,,,,-10.273.853,1.196.548.532,https://maps.google.com/?cid=0x0:0x49268fc71cbbdc63,
mall,mall,Sulawesi Tengah 94362,Sulawesi Tengah,Sulawesi Tengah,SULAWESI TENGAH,,Indonesia,,,,-11.527.932,119.742.604,https://maps.google.com/?cid=0x0:0xfe92898e8bcefdb7,
mall,Bengkel Motor Skuter,Buana Motor,"MGCC+6P7, Minti Makmur, Kec. Rio Pakava, Kabupaten Donggala, Sulawesi Tengah 94362","Minti Makmur, Kec. Rio Pakava, Kabupaten Donggala",SULAWESI TENGAH,94362.0,Indonesia,85241040082,,,-13.294.724,1.195.217.952,https://maps.google.com/?cid=0x0:0x15c0442f8d5fb010,
mall,mall,Kec. Rio Pakava,"Kabupaten Donggala, Sulawesi Tengah","Kabupaten Donggala, Sulawesi Tengah",SULAWESI TENGAH,,Indonesia,,,,-13.341.336,1.195.275.249,https://maps.google.com/?cid=0x0:0x14ea44bfafeedd5c,
mall,Pusat Perbelanjaan,XEIGHT Palu Grand Mall,"Grand Mall, Jl. Cumi-Cumi No.77 LT. GF UNIT G - 0150, BUMI BAHARI, Kec. Palu Bar., Kota Palu, Sulawesi Tengah 94221","Jl. Cumi-Cumi No.77 LT. GF UNIT G - 0150, BUMI BAHARI, Kec. Palu Bar., Kota Palu",SULAWESI TENGAH,94221.0,Indonesia,4514134547,,,-0.8828723,1.198.427.211,https://maps.google.com/?cid=0x0:0xd7e6e97d68971afd,
mall,Toko,Kio 3 saudara,"Jalan Trans Lalundu No.3, Polanto Jaya, Kec. Rio Pakava, Kabupaten Donggala, Sulawesi Tengah 94362","Polanto Jaya, Kec. Rio Pakava, Kabupaten Donggala",SULAWESI TENGAH,94362.0,Indonesia,822902965,,,-13.215.266,1.195.514.604,https://maps.google.com/?cid=0x0:0xf09c503032bf7f36,
mall,mall,BANANI LALUNDU1,"Jl perintis lalundu No.1, Minti Makmur, Kec. Rio Pakava, Kabupaten Donggala, Sulawesi Tengah 83175","Minti Makmur, Kec. Rio Pakava, Kabupaten Donggala",SULAWESI TENGAH,83175.0,Indonesia,82188285657,,,-13.342.827,1.195.307.739,https://maps.google.com/?cid=0x0:0x45c39b6470de49be,
mall,mall,Pasar Tangarava,"2VR4+C4V, Padende, Kec. Marawola, Kabupaten Sigi, Sulawesi Tengah 94237","Padende, Kec. Marawola, Kabupaten Sigi",SULAWESI TENGAH,94237.0,Indonesia,85254773799,,,-0.958893,1.198.553.033,https://maps.google.com/?cid=0x0:0x9ae17100aacc9795,
mall,Pusat Perbelanjaan,Plaza Palu,"Komplek Palu Plaza, Jl. Sis AlJufri, Blok IV, Siranindi, Kec. Ulujadi, Kota Palu, Sulawesi Tengah 94111","Jl. Sis AlJufri, Blok IV, Siranindi, Kec. Ulujadi, Kota Palu",SULAWESI TENGAH,94111.0,Indonesia,,,,-0.8993996,1.198.607.805,https://maps.google.com/?cid=0x0:0xc5f25dc5c9bc56bd,
mall,Minimarket,Pasar Mingguan Minti Makmur,"MG8G+4VV, Minti Makmur, Kec. Rio Pakava, Kabupaten Donggala, Sulawesi Tengah 94362","Minti Makmur, Kec. Rio Pakava, Kabupaten Donggala",SULAWESI TENGAH,94362.0,Indonesia,,,,-13.346.266,1.195.271.603,https://maps.google.com/?cid=0x0:0xb0de926572b7b2e,
mall,Toko Elektronik,RADIT STORE PALU (CABANG TOMBOLOTUTU),"Jl. I Gusti Ngurah Rai No.28, Tawanjuka, Kec. Tatanga, Kota Palu, Sulawesi Tengah 94127","Tawanjuka, Kec. Tatanga, Kota Palu",SULAWESI TENGAH,94127.0,Indonesia,81341413663,,,-0.9224846,1.198.681.926,https://maps.google.com/?cid=0x0:0xe9bd8cb1fb58df8f,
mall,Kios,CLEOSHOP,"Desa Beka No. 75 (Depan Lapangan Bola, Kec. Marawola, Kabupaten Sigi, Sulawesi Tengah 94372","Kec. Marawola, Kabupaten Sigi",SULAWESI TENGAH,94372.0,Indonesia,82229300084,,,-0.9862635,1.198.628.325,https://maps.google.com/?cid=0x0:0xc03679a9a5bf2dde,
mall,Toko Swalayan,Banani TourTravel,"Minti Makmur, Kec. Rio Pakava, Kabupaten Donggala, Sulawesi Tengah 94362","Kec. Rio Pakava, Kabupaten Donggala",SULAWESI TENGAH,94362.0,Indonesia,82234382830,,,-133.602,1.195.281.244,https://maps.google.com/?cid=0x0:0xbd9058d1abec7d79,
mall,Pusat Perbelanjaan,It's My Mabello Palu,"3VF6+G45, Palupi, Kec. Palu Sel., Kota Palu, Sulawesi Tengah 94222","Palupi, Kec. Palu Sel., Kota Palu",SULAWESI TENGAH,94222.0,Indonesia,82210066674,,,-0.926236,119.860.351,https://maps.google.com/?cid=0x0:0x847fe86880694050,
mall,Toko Kerajinan Tangan,banua flanel,"Jl. Lasaganti No.20, Tinggede, Kec. Marawola, Kabupaten Sigi, Sulawesi Tengah 94235","Tinggede, Kec. Marawola, Kabupaten Sigi",SULAWESI TENGAH,94235.0,Indonesia,85242008940,,,-0.9269846,1.198.696.361,https://maps.google.com/?cid=0x0:0x53e7940fabab3748,
mall,Perumahan,Vera Distributor Nasa,"3V32+V5W, Boyabaliase, Kec. Marawola, Kabupaten Sigi, Sulawesi Tengah 94222","Boyabaliase, Kec. Marawola, Kabupaten Sigi",SULAWESI TENGAH,94222.0,Indonesia,85294425935,,,-0.9452966,1.198.502.498,https://maps.google.com/?cid=0x0:0x6672546224b7715f,
mall,Toko,ILSHOP,"Tinggede Sel., Kec. Marawola, Kabupaten Sigi, Sulawesi Tengah 94235","Kec. Marawola, Kabupaten Sigi",SULAWESI TENGAH,94235.0,Indonesia,85241442772,,,-0.9361517,1.198.771.023,https://maps.google.com/?cid=0x0:0xb249acfa279bd601,
mall,Toko,Kasa Snack palu,"Perum Griya Excotic Residence III Blok A4/14, Tinggede, Kec. Marawola, Kabupaten Sigi, Sulawesi Tengah 94235","Tinggede, Kec. Marawola, Kabupaten Sigi",SULAWESI TENGAH,94235.0,Indonesia,81241546412,,,-0.9362002,1.198.693.652,https://maps.google.com/?cid=0x0:0xa0e4f1fa65bb5c77,
mall,Pertanian,BASE CAMP HKBC PALU,"2VXM+RMP, Kalukubula, Kec. Sigi Biromaru, Kabupaten Sigi, Sulawesi Tengah 94236","Kalukubula, Kec. Sigi Biromaru, Kabupaten Sigi",SULAWESI TENGAH,94236.0,Indonesia,82293551438,,,-0.9504119,1.198.842.149,https://maps.google.com/?cid=0x0:0x32e5b8b0ff852915,
mall,Komplek perumahan,Rumahku Istanaku,"3V47+8G5, Tinggede Sel., Kec. Marawola, Kabupaten Sigi, Sulawesi Tengah","Kabupaten Sigi, Sulawesi Tengah",SULAWESI TENGAH,,Indonesia,,,,-0.9446277,1.198.636.963,https://maps.google.com/?cid=0x0:0x72cbf0db445543ae,
mall,Toko Pakaian,Naila jaya,"3V84+GC8, Jl. Poros Palu Bangga, Baliase, Kec. Marawola, Kabupaten Sigi, Sulawesi Tengah 94222","Jl. Poros Palu Bangga, Baliase, Kec. Marawola, Kabupaten Sigi",SULAWESI TENGAH,94222.0,Indonesia,82262693069,,,-0.9336686,1.198.560.944,https://maps.google.com/?cid=0x0:0x4c6f5c5468157595,
mall,mall,Pakava,"Kec. Rio Pakava, Kabupaten Donggala, Sulawesi Tengah","Kabupaten Donggala, Sulawesi Tengah",SULAWESI TENGAH,,Indonesia,,,,-11.961.841,1.196.151.426,https://maps.google.com/?cid=0x0:0x9d547aaef1debc9,
mall,mall,Toko AKZAR,"MG7G+JW9, Minti Makmur, Kec. Rio Pakava, Kabupaten Donggala, Sulawesi Tengah 94362","Minti Makmur, Kec. Rio Pakava, Kabupaten Donggala",SULAWESI TENGAH,94362.0,Indonesia,,,,-13.359.705,1.195.273.646,https://maps.google.com/?cid=0x0:0x27fb2e4c31b3544c,
mall,mall,Maros,"JF8Q+CXX, Towiora, Kec. Rio Pakava, Kabupaten Donggala, Sulawesi Tengah","Kabupaten Donggala, Sulawesi Tengah",SULAWESI TENGAH,,Indonesia,,,,-13.838.833,1.194.899.752,https://maps.google.com/?cid=0x0:0xc40e8d25ceb92c9,
mall,mall,Kios buk megy,"PG43+8X9, Rio Mukti, Kec. Rio Pakava, Kabupaten Donggala, Sulawesi Tengah 94362","Rio Mukti, Kec. Rio Pakava, Kabupaten Donggala",SULAWESI TENGAH,94362.0,Indonesia,,,,-12.942.133,1.195.049.702,https://maps.google.com/?cid=0x0:0x7ea33e74d5c5df18,
mall,Sekolah menengah,SMKN 1 RIO PAKAVA,"Bonemarawa, Kec. Rio Pakava, Kabupaten Donggala, Sulawesi Tengah 91571","Kec. Rio Pakava, Kabupaten Donggala",SULAWESI TENGAH,91571.0,Indonesia,,,,-12.361.694,1.195.443.979,https://maps.google.com/?cid=0x0:0xd1a720baeefc5df3,
mall,mall,Kios..siska,"PG57+5RR, Rio Mukti, Kec. Rio Pakava, Kabupaten Donggala, Sulawesi Tengah 94362","Rio Mukti, Kec. Rio Pakava, Kabupaten Donggala",SULAWESI TENGAH,94362.0,Indonesia,,,,-12.921.366,1.195.129.325,https://maps.google.com/?cid=0x0:0xa652e95003731f7b,
mall,Sekolah menengah,pasar bonemarawa,"QH42+C69, Bonemarawa, Kec. Rio Pakava, Kabupaten Donggala, Sulawesi Tengah 94361","Bonemarawa, Kec. Rio Pakava, Kabupaten Donggala",SULAWESI TENGAH,94361.0,Indonesia,,,,-12.439.733,1.195.505.939,https://maps.google.com/?cid=0x0:0x5019296bc714638,
mall,Area Wi-Fi,Pasar Lalundu 2,"MGH3+2J8, Polanto Jaya, Kec. Rio Pakava, Kabupaten Donggala, Sulawesi Tengah 94362","Polanto Jaya, Kec. Rio Pakava, Kabupaten Donggala",SULAWESI TENGAH,94362.0,Indonesia,82311125697,,,-13.222.368,119.504.106,https://maps.google.com/?cid=0x0:0x74fb0a74d9cb61e,
mall,Pura,Riomukti,"PF4W+9MM, Rio Mukti, Kec. Rio Pakava, Kabupaten Donggala, Sulawesi Tengah 94362","Rio Mukti, Kec. Rio Pakava, Kabupaten Donggala",SULAWESI TENGAH,94362.0,Indonesia,,,,-12.940.354,119.496.677,https://maps.google.com/?cid=0x0:0xbc48cbe523eac770,
mall,mall,Kec. Sindue,"Kabupaten Donggala, Sulawesi Tengah","Kabupaten Donggala, Sulawesi Tengah",SULAWESI TENGAH,,Indonesia,,,,-0.6019749,119.798.096,https://maps.google.com/?cid=0x0:0xb966d820671bea77,
mall,,Jaya celll masaingi,"Jl. Tolitoli - Palu No.76, Masaingi, Kec. Sindue, Kabupaten Donggala, Sulawesi Tengah 94353","Masaingi, Kec. Sindue, Kabupaten Donggala",SULAWESI TENGAH,94353.0,Indonesia,,,,-0.5835592,1.197.928.602,https://maps.google.com/?cid=0x0:0x9095386243decae1,
mall,Toko,AnisaCall,"9R2X+XV9, Labuan Toposo, Kec. Labuan, Kabupaten Donggala, Sulawesi Tengah","Kabupaten Donggala, Sulawesi Tengah",SULAWESI TENGAH,,Indonesia,,,,-0.6475938,1.198.497.325,https://maps.google.com/?cid=0x0:0xb9137960a4d77c6e,
mall,Pusat Perbelanjaan,XEIGHT Palu Grand Mall,"Grand Mall, Jl. Cumi-Cumi No.77 LT. GF UNIT G - 0150, BUMI BAHARI, Kec. Palu Bar., Kota Palu, Sulawesi Tengah 94221","Jl. Cumi-Cumi No.77 LT. GF UNIT G - 0150, BUMI BAHARI, Kec. Palu Bar., Kota Palu",SULAWESI TENGAH,94221.0,Indonesia,4514134547,,,-0.8828723,1.198.427.211,https://maps.google.com/?cid=0x0:0xd7e6e97d68971afd,
mall,Toko Ponsel,Akram cell,"Jl. Tolitoli - Palu No.91, Lero Tatari, Kec. Sindue, Kabupaten Donggala, Sulawesi Tengah 94353","Lero Tatari, Kec. Sindue, Kabupaten Donggala",SULAWESI TENGAH,94353.0,Indonesia,,,,-0.6504298,1.198.126.996,https://maps.google.com/?cid=0x0:0xb647ed94be36a0d5,
mall,Pusat Perbelanjaan,E-warong haikal,"Jl. Tolitoli - Palu No.58, Kaliburu, Kec. Sindue Tombusabora, Kabupaten Donggala, Sulawesi Tengah 94353","Kaliburu, Kec. Sindue Tombusabora, Kabupaten Donggala",SULAWESI TENGAH,94353.0,Indonesia,,,,-0.4853482,1.197.647.127,https://maps.google.com/?cid=0x0:0x3a0ae742ab68e753,
mall,mall,Arifin,"8R9H+Q5X, Labuan, Kec. Labuan, Kabupaten Donggala, Sulawesi Tengah 94352","Labuan, Kec. Labuan, Kabupaten Donggala",SULAWESI TENGAH,94352.0,Indonesia,,,,-0.681419,119.827.258,https://maps.google.com/?cid=0x0:0x8b8fa2f390e73151,
mall,Toko,Kios Jerlin,"8RJC+C7G, Labuan Salumbone, Kec. Labuan, Kabupaten Donggala, Sulawesi Tengah 94353","Labuan Salumbone, Kec. Labuan, Kabupaten Donggala",SULAWESI TENGAH,94353.0,Indonesia,,,,-0.6689478,1.198.207.167,https://maps.google.com/?cid=0x0:0x89e43b9ce71c0f3c,
mall,,Empat Enam Cbd,"8R4R+V33, Jl. Empat Enam, Wani Dua, Kec. Tanantovea, Kabupaten Donggala, Sulawesi Tengah 94352","Jl. Empat Enam, Wani Dua, Kec. Tanantovea, Kabupaten Donggala",SULAWESI TENGAH,94352.0,Indonesia,8114562046,,,-0.692854,1.198.401.661,https://maps.google.com/?cid=0x0:0xf274785e0dc07e3b,
mall,mall,Sulawesi Tengah 94353,"Kabupaten Donggala, Sulawesi Tengah","Kabupaten Donggala, Sulawesi Tengah",SULAWESI TENGAH,,Indonesia,,,,-0.488912,1.198.352.303,https://maps.google.com/?cid=0x0:0xf435d84490586123,
mall,,Jaya celll masaingi,"Jl. Tolitoli - Palu No.76, Masaingi, Kec. Sindue, Kabupaten Donggala, Sulawesi Tengah 94353","Masaingi, Kec. Sindue, Kabupaten Donggala",SULAWESI TENGAH,94353.0,Indonesia,,,,-0.5835592,1.197.928.602,https://maps.google.com/?cid=0x0:0x9095386243decae1,
mall,Toko,Sertin shopy peyleter,"JQP4+9VX, Jl. Tolitoli - Palu, Oti, Kec. Sindue Tobata, Kabupaten Donggala, Sulawesi Tengah 94354","Jl. Tolitoli - Palu, Oti, Kec. Sindue Tobata, Kabupaten Donggala",SULAWESI TENGAH,94354.0,Indonesia,81355655960,,,-0.3640165,1.197.572.292,https://maps.google.com/?cid=0x0:0xcb3a3cd36b3c8ff4,
mall,Toko,AnisaCall,"9R2X+XV9, Labuan Toposo, Kec. Labuan, Kabupaten Donggala, Sulawesi Tengah","Kabupaten Donggala, Sulawesi Tengah",SULAWESI TENGAH,,Indonesia,,,,-0.6475938,1.198.497.325,https://maps.google.com/?cid=0x0:0xb9137960a4d77c6e,
mall,,Fc Arini Berkah,"9QWX+P78, Toaya, Kec. Sindue, Kabupaten Donggala, Sulawesi Tengah 94353","Toaya, Kec. Sindue, Kabupaten Donggala",SULAWESI TENGAH,94353.0,Indonesia,85398849832,,,-0.6032104,1.197.982.064,https://maps.google.com/?cid=0x0:0x9e3e714354a0b100,
mall,Pusat Perbelanjaan,E-warong haikal,"Jl. Tolitoli - Palu No.58, Kaliburu, Kec. Sindue Tombusabora, Kabupaten Donggala, Sulawesi Tengah 94353","Kaliburu, Kec. Sindue Tombusabora, Kabupaten Donggala",SULAWESI TENGAH,94353.0,Indonesia,,,,-0.4853482,1.197.647.127,https://maps.google.com/?cid=0x0:0x3a0ae742ab68e753,
mall,Pusat Perbelanjaan,E-warong nadoly,"HQP6+HJF, Jl. Tolitoli - Palu, Batusuya, Kec. Sindue Tombusabora, Kabupaten Donggala, Sulawesi Tengah 94353","Jl. Tolitoli - Palu, Batusuya, Kec. Sindue Tombusabora, Kabupaten Donggala",SULAWESI TENGAH,94353.0,Indonesia,,,,-0.4135662,1.197.615.324,https://maps.google.com/?cid=0x0:0xd0b5fed7422d19f6,
mall,mall,Arifin,"8R9H+Q5X, Labuan, Kec. Labuan, Kabupaten Donggala, Sulawesi Tengah 94352","Labuan, Kec. Labuan, Kabupaten Donggala",SULAWESI TENGAH,94352.0,Indonesia,,,,-0.681419,119.827.258,https://maps.google.com/?cid=0x0:0x8b8fa2f390e73151,
mall,Toko Ponsel,Akram cell,"Jl. Tolitoli - Palu No.91, Lero Tatari, Kec. Sindue, Kabupaten Donggala, Sulawesi Tengah 94353","Lero Tatari, Kec. Sindue, Kabupaten Donggala",SULAWESI TENGAH,94353.0,Indonesia,,,,-0.6504298,1.198.126.996,https://maps.google.com/?cid=0x0:0xb647ed94be36a0d5,
mall,Toko Kosmetik,Rahayu Kosmetik,"Jl. Kayu Riya, Wani I, Kec. Tanantovea, Kabupaten Donggala, Sulawesi Tengah 94352","Wani I, Kec. Tanantovea, Kabupaten Donggala",SULAWESI TENGAH,94352.0,Indonesia,82293825162,,,-0.6908658,1.198.444.268,https://maps.google.com/?cid=0x0:0x21e7563126380e7b,
mall,Toko,Kios Jerlin,"8RJC+C7G, Labuan Salumbone, Kec. Labuan, Kabupaten Donggala, Sulawesi Tengah 94353","Labuan Salumbone, Kec. Labuan, Kabupaten Donggala",SULAWESI TENGAH,94353.0,Indonesia,,,,-0.6689478,1.198.207.167,https://maps.google.com/?cid=0x0:0x89e43b9ce71c0f3c,
mall,Toko Fotokopi,Rezeki fotocopy  seluler,"8RPM+VCC, Labuan Panimba, Kec. Labuan, Kabupaten Donggala, Sulawesi Tengah 94353","Labuan Panimba, Kec. Labuan, Kabupaten Donggala",SULAWESI TENGAH,94353.0,Indonesia,82395089186,,,-0.6628096,1.198.335.245,https://maps.google.com/?cid=0x0:0x497c0bcabfdb9be8,
mall,Toko bahan makanan,Stokis Halal Mart Wani,"8R5V+8MJ, Jl. Kayu Riya, Wani I, Kec. Tawaeli, Kabupaten Donggala, Sulawesi Tengah 94352","Jl. Kayu Riya, Wani I, Kec. Tawaeli, Kabupaten Donggala",SULAWESI TENGAH,94352.0,Indonesia,85341144460,,,-0.6916739,1.198.441.327,https://maps.google.com/?cid=0x0:0xd2dd70c25768a89b,
mall,Toko Kosmetik,Fajriani kosmetik,"8V6M+2MP, Wombo Panau, Kec. Tanantovea, Kabupaten Donggala, Sulawesi Tengah 94352","Wombo Panau, Kec. Tanantovea, Kabupaten Donggala",SULAWESI TENGAH,94352.0,Indonesia,81543315301,,,-0.6899207,1.198.842.073,https://maps.google.com/?cid=0x0:0xde1512f93969f7a1,
mall,mall,Isna olshop,"HRM4+4HG, Desa, Tamarenja, Kec. Sindue Tobata, Kabupaten Donggala, Sulawesi Tengah 94353","Desa, Tamarenja, Kec. Sindue Tobata, Kabupaten Donggala",SULAWESI TENGAH,94353.0,Indonesia,,,,-0.4171975,1.198.064.671,https://maps.google.com/?cid=0x0:0x4b83a50bd6868b70,
mall,,Empat Enam Cbd,"8R4R+V33, Jl. Empat Enam, Wani Dua, Kec. Tanantovea, Kabupaten Donggala, Sulawesi Tengah 94352","Jl. Empat Enam, Wani Dua, Kec. Tanantovea, Kabupaten Donggala",SULAWESI TENGAH,94352.0,Indonesia,8114562046,,,-0.692854,1.198.401.661,https://maps.google.com/?cid=0x0:0xf274785e0dc07e3b,
mall,mall,Sulawesi Tengah 94353,"Kabupaten Donggala, Sulawesi Tengah","Kabupaten Donggala, Sulawesi Tengah",SULAWESI TENGAH,,Indonesia,,,,-0.488912,1.198.352.303,https://maps.google.com/?cid=0x0:0xf435d84490586123,
mall,Pusat Perbelanjaan,E-warong nadoly,"HQP6+HJF, Jl. Tolitoli - Palu, Batusuya, Kec. Sindue Tombusabora, Kabupaten Donggala, Sulawesi Tengah 94353","Jl. Tolitoli - Palu, Batusuya, Kec. Sindue Tombusabora, Kabupaten Donggala",SULAWESI TENGAH,94353.0,Indonesia,,,,-0.4135662,1.197.615.324,https://maps.google.com/?cid=0x0:0xd0b5fed7422d19f6,
mall,,Jaya celll masaingi,"Jl. Tolitoli - Palu No.76, Masaingi, Kec. Sindue, Kabupaten Donggala, Sulawesi Tengah 94353","Masaingi, Kec. Sindue, Kabupaten Donggala",SULAWESI TENGAH,94353.0,Indonesia,,,,-0.5835592,1.197.928.602,https://maps.google.com/?cid=0x0:0x9095386243decae1,
mall,Toko,Sertin shopy peyleter,"JQP4+9VX, Jl. Tolitoli - Palu, Oti, Kec. Sindue Tobata, Kabupaten Donggala, Sulawesi Tengah 94354","Jl. Tolitoli - Palu, Oti, Kec. Sindue Tobata, Kabupaten Donggala",SULAWESI TENGAH,94354.0,Indonesia,81355655960,,,-0.3640165,1.197.572.292,https://maps.google.com/?cid=0x0:0xcb3a3cd36b3c8ff4,
mall,Toko,AnisaCall,"9R2X+XV9, Labuan Toposo, Kec. Labuan, Kabupaten Donggala, Sulawesi Tengah","Kabupaten Donggala, Sulawesi Tengah",SULAWESI TENGAH,,Indonesia,,,,-0.6475938,1.198.497.325,https://maps.google.com/?cid=0x0:0xb9137960a4d77c6e,
mall,Pusat Perbelanjaan,XEIGHT Palu Grand Mall,"Grand Mall, Jl. Cumi-Cumi No.77 LT. GF UNIT G - 0150, BUMI BAHARI, Kec. Palu Bar., Kota Palu, Sulawesi Tengah 94221","Jl. Cumi-Cumi No.77 LT. GF UNIT G - 0150, BUMI BAHARI, Kec. Palu Bar., Kota Palu",SULAWESI TENGAH,94221.0,Indonesia,4514134547,,,-0.8828723,1.198.427.211,https://maps.google.com/?cid=0x0:0xd7e6e97d68971afd,
mall,,Fc Arini Berkah,"9QWX+P78, Toaya, Kec. Sindue, Kabupaten Donggala, Sulawesi Tengah 94353","Toaya, Kec. Sindue, Kabupaten Donggala",SULAWESI TENGAH,94353.0,Indonesia,85398849832,,,-0.6032104,1.197.982.064,https://maps.google.com/?cid=0x0:0x9e3e714354a0b100,
mall,Pusat Bisnis,Pusat pendaftaran paytren,"HRGP+M3H, Tamarenja, Kec. Sindue Tobata, Kabupaten Donggala, Sulawesi Tengah 94353","Tamarenja, Kec. Sindue Tobata, Kabupaten Donggala",SULAWESI TENGAH,94353.0,Indonesia,83863001890,,,-0.4233155,1.198.352.303,https://maps.google.com/?cid=0x0:0x97b98527a9dfa562,
mall,Toko Ponsel,Akram cell,"Jl. Tolitoli - Palu No.91, Lero Tatari, Kec. Sindue, Kabupaten Donggala, Sulawesi Tengah 94353","Lero Tatari, Kec. Sindue, Kabupaten Donggala",SULAWESI TENGAH,94353.0,Indonesia,,,,-0.6504298,1.198.126.996,https://maps.google.com/?cid=0x0:0xb647ed94be36a0d5,
mall,mall,Arifin,"8R9H+Q5X, Labuan, Kec. Labuan, Kabupaten Donggala, Sulawesi Tengah 94352","Labuan, Kec. Labuan, Kabupaten Donggala",SULAWESI TENGAH,94352.0,Indonesia,,,,-0.681419,119.827.258,https://maps.google.com/?cid=0x0:0x8b8fa2f390e73151,
mall,Perhimpunan Pengembang Perumahan,Site Sindue Tombusabora,"HQHV+XF, Tamarenja, Kec. Sindue Tobata, Kabupaten Donggala, Sulawesi Tengah","Kabupaten Donggala, Sulawesi Tengah",SULAWESI TENGAH,,Indonesia,,,,-0.4200625,1.197.936.875,https://maps.google.com/?cid=0x0:0x47e41bc72359d066,
mall,Toko Kosmetik,Rahayu Kosmetik,"Jl. Kayu Riya, Wani I, Kec. Tanantovea, Kabupaten Donggala, Sulawesi Tengah 94352","Wani I, Kec. Tanantovea, Kabupaten Donggala",SULAWESI TENGAH,94352.0,Indonesia,82293825162,,,-0.6908658,1.198.444.268,https://maps.google.com/?cid=0x0:0x21e7563126380e7b,
mall,Toko,Kios Jerlin,"8RJC+C7G, Labuan Salumbone, Kec. Labuan, Kabupaten Donggala, Sulawesi Tengah 94353","Labuan Salumbone, Kec. Labuan, Kabupaten Donggala",SULAWESI TENGAH,94353.0,Indonesia,,,,-0.6689478,1.198.207.167,https://maps.google.com/?cid=0x0:0x89e43b9ce71c0f3c,
mall,Toko Fotokopi,Rezeki fotocopy  seluler,"8RPM+VCC, Labuan Panimba, Kec. Labuan, Kabupaten Donggala, Sulawesi Tengah 94353","Labuan Panimba, Kec. Labuan, Kabupaten Donggala",SULAWESI TENGAH,94353.0,Indonesia,82395089186,,,-0.6628096,1.198.335.245,https://maps.google.com/?cid=0x0:0x497c0bcabfdb9be8,
mall,mall,Kisty Olshop,"Jl. Tolitoli - Palu No.63a, Kaliburu, Kec. Sindue Tombusabora, Kabupaten Donggala, Sulawesi Tengah 94353","Kaliburu, Kec. Sindue Tombusabora, Kabupaten Donggala",SULAWESI TENGAH,94353.0,Indonesia,85338749723,,,-0.4824415,119.764.274,https://maps.google.com/?cid=0x0:0xd026d97528dd502f,
mall,mall,Isna olshop,"HRM4+4HG, Desa, Tamarenja, Kec. Sindue Tobata, Kabupaten Donggala, Sulawesi Tengah 94353","Desa, Tamarenja, Kec. Sindue Tobata, Kabupaten Donggala",SULAWESI TENGAH,94353.0,Indonesia,,,,-0.4171975,1.198.064.671,https://maps.google.com/?cid=0x0:0x4b83a50bd6868b70,
mall,,Empat Enam Cbd,"8R4R+V33, Jl. Empat Enam, Wani Dua, Kec. Tanantovea, Kabupaten Donggala, Sulawesi Tengah 94352","Jl. Empat Enam, Wani Dua, Kec. Tanantovea, Kabupaten Donggala",SULAWESI TENGAH,94352.0,Indonesia,8114562046,,,-0.692854,1.198.401.661,https://maps.google.com/?cid=0x0:0xf274785e0dc07e3b,
mall,mall,Sulawesi Tengah 94354,"Kec. Sirenja, Kabupaten Donggala, Sulawesi Tengah","Kabupaten Donggala, Sulawesi Tengah",SULAWESI TENGAH,,Indonesia,,,,-0.2924986,1.198.352.303,https://maps.google.com/?cid=0x0:0x51f61779e987a6a,
mall,Toko,Sertin shopy peyleter,"JQP4+9VX, Jl. Tolitoli - Palu, Oti, Kec. Sindue Tobata, Kabupaten Donggala, Sulawesi Tengah 94354","Jl. Tolitoli - Palu, Oti, Kec. Sindue Tobata, Kabupaten Donggala",SULAWESI TENGAH,94354.0,Indonesia,81355655960,,,-0.3640165,1.197.572.292,https://maps.google.com/?cid=0x0:0xcb3a3cd36b3c8ff4,
mall,Pusat Perbelanjaan,Pasar Desa Tanjung Padang,"Jl. Tolitoli - Palu No.15, Tj. Padang, Kec. Sirenja, Kabupaten Donggala, Sulawesi Tengah 94354","Tj. Padang, Kec. Sirenja, Kabupaten Donggala",SULAWESI TENGAH,94354.0,Indonesia,,,,-0.2308801,1.198.038.263,https://maps.google.com/?cid=0x0:0xea01983889836633,
mall,mall,ALFAMIDI TOMPE,"QRP6+W7M, Tompe, Kec. Sirenja, Kabupaten Donggala, Sulawesi Tengah","Kabupaten Donggala, Sulawesi Tengah",SULAWESI TENGAH,,Indonesia,,,,-0.2126693,1.198.106.698,https://maps.google.com/?cid=0x0:0x1627509e373a1d70,
mall,Toko,Toko Makmur,"Jalan Hj jamaludin 72, Tompe, Kec. Sirenja, Tompe, Sulawesi Tengah 94354","Tompe, Kec. Sirenja, Tompe",SULAWESI TENGAH,94354.0,Indonesia,81245188344,,,-0.2128822,1.198.102.709,https://maps.google.com/?cid=0x0:0xd147181e9bce3dd9,
mall,Toko,"Foto Copy DZAZA""""","PQ5G+8MJ, Sikara Tobata, Kec. Sindue Tobata, Kabupaten Donggala, Sulawesi Tengah 94354","Sikara Tobata, Kec. Sindue Tobata, Kabupaten Donggala",SULAWESI TENGAH,94354.0,Indonesia,,,,-0.2916597,1.197.766.281,https://maps.google.com/?cid=0x0:0x4c4ef53bc4d525cf,
mall,Pusat Perbelanjaan,E-warong nadoly,"HQP6+HJF, Jl. Tolitoli - Palu, Batusuya, Kec. Sindue Tombusabora, Kabupaten Donggala, Sulawesi Tengah 94353","Jl. Tolitoli - Palu, Batusuya, Kec. Sindue Tombusabora, Kabupaten Donggala",SULAWESI TENGAH,94353.0,Indonesia,,,,-0.4135662,1.197.615.324,https://maps.google.com/?cid=0x0:0xd0b5fed7422d19f6,
mall,mall,kios anto,"QRMH+GF3, Unnamed Road, Sibado, Kec. Sirenja, Kabupaten Donggala, Sulawesi Tengah 94354","Unnamed Road, Sibado, Kec. Sirenja, Kabupaten Donggala",SULAWESI TENGAH,94354.0,Indonesia,,,,-0.2162291,1.198.286.745,https://maps.google.com/?cid=0x0:0x2ec61998b4ee481c,
mall,mall,Agra sipi bangkit (menjual hasil kebun),"QR7F+4HM, Unnamed Road, Sipi, Kec. Sirenja, Kabupaten Donggala, Sulawesi Tengah 94354","Unnamed Road, Sipi, Kec. Sirenja, Kabupaten Donggala",SULAWESI TENGAH,94354.0,Indonesia,81256665677,,,-0.2371512,1.198.239.167,https://maps.google.com/?cid=0x0:0xf01917ac14d99a12,
mall,mall,Sulawesi Tengah 94356,"Kabupaten Donggala, Sulawesi Tengah","Kabupaten Donggala, Sulawesi Tengah",SULAWESI TENGAH,,Indonesia,,,,0.3571796,1.200.202.964,https://maps.google.com/?cid=0x0:0x35d848f8a4662f0d,
mall,Toko umum,kios baco hani,"H368+888, Balukang II, Kec. Sojol, Kabupaten Donggala, Sulawesi Tengah 94356","Balukang II, Kec. Sojol, Kabupaten Donggala",SULAWESI TENGAH,94356.0,Indonesia,,,,0.5607984,1.200.658.314,https://maps.google.com/?cid=0x0:0x284149fbc55fb893,
mall,Pembangunan Perumahan,PASAR MALONAS,"7W8C+6Q2, Malonas, Kec. Damsol, Kabupaten Donggala, Sulawesi Tengah 94356","Malonas, Kec. Damsol, Kabupaten Donggala",SULAWESI TENGAH,94356.0,Indonesia,,,,0.265522,1.199.218.828,https://maps.google.com/?cid=0x0:0xd911a92cd70a7052,
mall,Pusat Perbelanjaan,STOKIS BLACKWALET,"DUSUN 1 DESA LABULANG OGOAMAS 1, Jalan hj punggawa, Ogoamas II, Kec. Sojol Utara, Kabupaten Donggala, Sulawesi Tengah","Kabupaten Donggala, Sulawesi Tengah",SULAWESI TENGAH,,Indonesia,85397665961,,,0.7392094,120.120.798,https://maps.google.com/?cid=0x0:0xce5716bff8afe42e,
mall,Pasar,Pasar Tradisional Desa Siwalempu,"G3J7+R78, Siwalempu, Kec. Sojol, Kabupaten Donggala, Sulawesi Tengah 94356","Siwalempu, Kec. Sojol, Kabupaten Donggala",SULAWESI TENGAH,94356.0,Indonesia,,,,0.5320472,1.200.631.947,https://maps.google.com/?cid=0x0:0x239581ba4a2bd0e1,
mall,Toko umum,Al's Store,"M5GC+959, Ogoamas I, Kec. Sojol Utara, Kabupaten Donggala, Sulawesi Tengah 94476","Ogoamas I, Kec. Sojol Utara, Kabupaten Donggala",SULAWESI TENGAH,94476.0,Indonesia,82296829980,,,0.6759109,1.201.704.766,https://maps.google.com/?cid=0x0:0x100894a2f09e8e7d,
mall,Pusat Perbelanjaan,Puji celll,"5WX6+F57, Sioyong, Kec. Damsol, Kabupaten Donggala, Sulawesi Tengah","Kabupaten Donggala, Sulawesi Tengah",SULAWESI TENGAH,,Indonesia,,,,0.1986699,1.199.104.172,https://maps.google.com/?cid=0x0:0x86c9d16b373f50b4,
mall,Toko umum,TOKO SALSABILA,"FXGG+25Q, Desa, Tonggolobibi, Kec. Sojol, Kabupaten Donggala, Sulawesi Tengah 94356","Desa, Tonggolobibi, Kec. Sojol, Kabupaten Donggala",SULAWESI TENGAH,94356.0,Indonesia,,,,0.4750832,1.199.754.724,https://maps.google.com/?cid=0x0:0x86c66354ca3ee677,
mall,Toko umum,Kios Dua Putra AbhyEkhy,"8VC6+R7V, Rerang, Kec. Damsol, Kabupaten Donggala, Sulawesi Tengah 94356","Rerang, Kec. Damsol, Kabupaten Donggala",SULAWESI TENGAH,94356.0,Indonesia,82188544466,,,0.3221004,1.198.606.694,https://maps.google.com/?cid=0x0:0x1c43ded261e60ccb,
mall,Toko,E-warong rizki,"7W22+4QC, Jl. Tolitoli - Palu, Ponggerang, Kec. Damsol, Kabupaten Donggala, Sulawesi Tengah 94356","Jl. Tolitoli - Palu, Ponggerang, Kec. Damsol, Kabupaten Donggala",SULAWESI TENGAH,94356.0,Indonesia,,,,0.2503226,119.901.882,https://maps.google.com/?cid=0x0:0x9fd0723f9c36456f,
mall,Pusat Perbelanjaan,Kios Fuji cell Sioyong,"6V5V+9JG, Tonggolobibi - Sabang, Sioyong, Kec. Damsol, Kabupaten Donggala, Sulawesi Tengah 94356","Tonggolobibi - Sabang, Sioyong, Kec. Damsol, Kabupaten Donggala",SULAWESI TENGAH,94356.0,Indonesia,,,,0.2084389,1.198.940.764,https://maps.google.com/?cid=0x0:0xcfe364ded9ea2b67,
mall,Toko Aksesori Ponsel,Agen Pulsa Nautica Cell,"P4HP+QPR, Jl. Gn. Sojol, Ogoamas I, Kec. Sojol Utara, Kabupaten Donggala, Sulawesi Tengah 94356","Jl. Gn. Sojol, Ogoamas I, Kec. Sojol Utara, Kabupaten Donggala",SULAWESI TENGAH,94356.0,Indonesia,,,,0.7301932,1.201.357.824,https://maps.google.com/?cid=0x0:0x68227a9a6543bcf,
mall,Toko bahan makanan,E-warong jirhan shop,"H385+8PW, Jl. Tolitoli - Palu, Balukang II, Kec. Sojol, Kabupaten Donggala, Sulawesi Tengah 94356","Jl. Tolitoli - Palu, Balukang II, Kec. Sojol, Kabupaten Donggala",SULAWESI TENGAH,94356.0,Indonesia,,,,0.5658656,120.059.319,https://maps.google.com/?cid=0x0:0x333d3af73b3fb5dd,
mall,Pasar,Pasar Panii,"6WG5+X3H, Jl. Tolitoli - Palu, Panii, Kec. Damsol, Kabupaten Donggala, Sulawesi Tengah 94356","Jl. Tolitoli - Palu, Panii, Kec. Damsol, Kabupaten Donggala",SULAWESI TENGAH,94356.0,Indonesia,,,,0.2274283,1.199.077.275,https://maps.google.com/?cid=0x0:0x9b524b2ba998a5d9,
mall,Toko Pakaian,Dewina Shop,"7W22+3P2, Jl. Tolitoli - Palu, Ponggerang, Kec. Damsol, Kabupaten Donggala, Sulawesi Tengah 94356","Jl. Tolitoli - Palu, Ponggerang, Kec. Damsol, Kabupaten Donggala",SULAWESI TENGAH,94356.0,Indonesia,82221028783,,,0.2501308,1.199.017.649,https://maps.google.com/?cid=0x0:0xcf51bfa0f46936c5,
mall,Kios,Kios Nabila,"5W9M+8X9, Karyamukti, Kec. Damsol, Kabupaten Donggala, Sulawesi Tengah 94356","Karyamukti, Kec. Damsol, Kabupaten Donggala",SULAWESI TENGAH,94356.0,Indonesia,,,,0.1682785,1.199.349.831,https://maps.google.com/?cid=0x0:0x836c314ca779f81e,
mall,Pusat Perbelanjaan,CV.FIRDAUS SANI,"5WFM+MCP, Karyamukti, Kec. Damsol, Kabupaten Donggala, Sulawesi Tengah 94356","Karyamukti, Kec. Damsol, Kabupaten Donggala",SULAWESI TENGAH,94356.0,Indonesia,81341303321,,,0.1742079,1.199.335.779,https://maps.google.com/?cid=0x0:0xdd01956acf228011,
mall,Pusat Perbelanjaan,Kios Fuji cell,"5WX6+F57, Sioyong, Kec. Damsol, Kabupaten Donggala, Sulawesi Tengah","Kabupaten Donggala, Sulawesi Tengah",SULAWESI TENGAH,,Indonesia,,,,0.1986699,1.199.104.172,https://maps.google.com/?cid=0x0:0x30da0696ff291cf4,
mall,mall,Kios Putri Blok 2,"Blok 2, Lemba Mukti, Kec. Damsol, Kabupaten Donggala, Sulawesi Tengah 94356","Lemba Mukti, Kec. Damsol, Kabupaten Donggala",SULAWESI TENGAH,94356.0,Indonesia,,,,0.3493854,1.199.162.276,https://maps.google.com/?cid=0x0:0x6dc50ec8fac885dc,
mall,mall,Kec. Sojol Utara,"Kabupaten Donggala, Sulawesi Tengah","Kabupaten Donggala, Sulawesi Tengah",SULAWESI TENGAH,,Indonesia,,,,0.7421584,120.129.098,https://maps.google.com/?cid=0x0:0xe78ec5bb19f7cd50,
mall,Pusat Perbelanjaan,STOKIS BLACKWALET,"DUSUN 1 DESA LABULANG OGOAMAS 1, Jalan hj punggawa, Ogoamas II, Kec. Sojol Utara, Kabupaten Donggala, Sulawesi Tengah","Kabupaten Donggala, Sulawesi Tengah",SULAWESI TENGAH,,Indonesia,85397665961,,,0.7392094,120.120.798,https://maps.google.com/?cid=0x0:0xce5716bff8afe42e,
mall,Toko umum,Al's Store,"M5GC+959, Ogoamas I, Kec. Sojol Utara, Kabupaten Donggala, Sulawesi Tengah 94476","Ogoamas I, Kec. Sojol Utara, Kabupaten Donggala",SULAWESI TENGAH,94476.0,Indonesia,82296829980,,,0.6759109,1.201.704.766,https://maps.google.com/?cid=0x0:0x100894a2f09e8e7d,
mall,Otoritas Pelabuhan,Pelabuhan Ogoamas,"P4R3+GWH, Ogoamas II, Kec. Sojol Utara, Kabupaten Donggala, Sulawesi Tengah","Kabupaten Donggala, Sulawesi Tengah",SULAWESI TENGAH,,Indonesia,,,,0.741309,1.201.048.622,https://maps.google.com/?cid=0x0:0x615c6b48477e3a4a,
mall,Pondok,Penginapan Lista,"P4RF+3HH, Ogoamas II, Kec. Sojol Utara, Kabupaten Donggala, Sulawesi Tengah","Kabupaten Donggala, Sulawesi Tengah",SULAWESI TENGAH,,Indonesia,,,,0.7401886,1.201.239.733,https://maps.google.com/?cid=0x0:0xa701d4dcc4074c6a,
mall,Sekolah menengah,SMK Negeri 1 Sojol Utara,"P4QC+JJJ, Ogoamas II, Kec. Sojol Utara, Kabupaten Donggala, Sulawesi Tengah 94356","Ogoamas II, Kec. Sojol Utara, Kabupaten Donggala",SULAWESI TENGAH,94356.0,Indonesia,,,,0.7390884,1.201.215.235,https://maps.google.com/?cid=0x0:0xe41105f18a19632c,
mall,Toko Perbaikan Ponsel,HIZAM CALL,"Jln.Trans sulawesi, dusun oloang, Kombo, Kec. Dampal Sel., Kabupaten Toli-Toli, Sulawesi Tengah 94554","dusun oloang, Kombo, Kec. Dampal Sel., Kabupaten Toli-Toli",SULAWESI TENGAH,94554.0,Indonesia,82291499393,,,0.7456247,1.201.423.442,https://maps.google.com/?cid=0x0:0x8ce5e81ebc78aea6,
mall,Toko,Kios.AUREL,"P4R4+43Q, Ogoamas II, Kec. Sojol Utara, Kabupaten Donggala, Sulawesi Tengah","Kabupaten Donggala, Sulawesi Tengah",SULAWESI TENGAH,,Indonesia,85323159153,,,0.740042,1.201.053.957,https://maps.google.com/?cid=0x0:0x20ec74776fff39fb,
mall,mall,Jajanan Malam,"P4RF+5QM, Ogoamas II, Kec. Sojol Utara, Kabupaten Donggala, Sulawesi Tengah","Kabupaten Donggala, Sulawesi Tengah",SULAWESI TENGAH,,Indonesia,,,,0.7404514,1.201.244.098,https://maps.google.com/?cid=0x0:0x318f29e718a382ce,
mall,mall,Sulawesi Tengah 94352,Sulawesi Tengah,Sulawesi Tengah,SULAWESI TENGAH,,Indonesia,,,,-0.7431556,1.199.856.157,https://maps.google.com/?cid=0x0:0x9958293db6b9e135,
mall,Toko Kosmetik,Rahayu Kosmetik,"Jl. Kayu Riya, Wani I, Kec. Tanantovea, Kabupaten Donggala, Sulawesi Tengah 94352","Wani I, Kec. Tanantovea, Kabupaten Donggala",SULAWESI TENGAH,94352.0,Indonesia,82293825162,,,-0.6908658,1.198.444.268,https://maps.google.com/?cid=0x0:0x21e7563126380e7b,
mall,Pusat Perbelanjaan,XEIGHT Palu Grand Mall,"Grand Mall, Jl. Cumi-Cumi No.77 LT. GF UNIT G - 0150, BUMI BAHARI, Kec. Palu Bar., Kota Palu, Sulawesi Tengah 94221","Jl. Cumi-Cumi No.77 LT. GF UNIT G - 0150, BUMI BAHARI, Kec. Palu Bar., Kota Palu",SULAWESI TENGAH,94221.0,Indonesia,4514134547,,,-0.8828723,1.198.427.211,https://maps.google.com/?cid=0x0:0xd7e6e97d68971afd,
mall,Toko bahan makanan,Stokis Halal Mart Wani,"8R5V+8MJ, Jl. Kayu Riya, Wani I, Kec. Tawaeli, Kabupaten Donggala, Sulawesi Tengah 94352","Jl. Kayu Riya, Wani I, Kec. Tawaeli, Kabupaten Donggala",SULAWESI TENGAH,94352.0,Indonesia,85341144460,,,-0.6916739,1.198.441.327,https://maps.google.com/?cid=0x0:0xd2dd70c25768a89b,
mall,Pusat Perbelanjaan,Novielvianti Olshop Tawaeli,"7V96+MV9, Panau, Kec. Tawaeli, Kota Palu, Sulawesi Tengah 94352","Panau, Kec. Tawaeli, Kota Palu",SULAWESI TENGAH,94352.0,Indonesia,82292433763,,,-0.7308463,1.198.622.215,https://maps.google.com/?cid=0x0:0x139fadc1cb623b8b,
mall,mall,Arifin,"8R9H+Q5X, Labuan, Kec. Labuan, Kabupaten Donggala, Sulawesi Tengah 94352","Labuan, Kec. Labuan, Kabupaten Donggala",SULAWESI TENGAH,94352.0,Indonesia,,,,-0.681419,119.827.258,https://maps.google.com/?cid=0x0:0x8b8fa2f390e73151,
mall,Toko bahan makanan,Nana,"7V95+3WQ, Jl. Yodo, Panau, Kec. Tawaeli, Kota Palu, Sulawesi Tengah 94352","Jl. Yodo, Panau, Kec. Tawaeli, Kota Palu",SULAWESI TENGAH,94352.0,Indonesia,81242921574,,,-0.7322765,1.198.598.613,https://maps.google.com/?cid=0x0:0x9f12483b7d434659,
mall,Pasar,Pasar Vinase Tavaili,"7VM8+JM7, Baiya, Kec. Palu Utara, Kota Palu, Sulawesi Tengah 94352","Baiya, Kec. Palu Utara, Kota Palu",SULAWESI TENGAH,94352.0,Indonesia,,,,-0.7159676,1.198.666.773,https://maps.google.com/?cid=0x0:0x9335c8dcc6912284,
mall,Toko,AnisaCall,"9R2X+XV9, Labuan Toposo, Kec. Labuan, Kabupaten Donggala, Sulawesi Tengah","Kabupaten Donggala, Sulawesi Tengah",SULAWESI TENGAH,,Indonesia,,,,-0.6475938,1.198.497.325,https://maps.google.com/?cid=0x0:0xb9137960a4d77c6e,
mall,Komplek perumahan,Anja City,"7V58+VQV, Lambara, Kec. Palu Utara, Kota Palu, Sulawesi Tengah 94352","Lambara, Kec. Palu Utara, Kota Palu",SULAWESI TENGAH,94352.0,Indonesia,,,,-0.7402675,1.198.669.109,https://maps.google.com/?cid=0x0:0xb2022191c180144,
mall,Pantai Umum,Baywalk Citraland Palu,"5V9J+64W, Kompleks Citraland, Tondo, Kec. Mantikulore, Kota Palu, Sulawesi Tengah","Kota Palu, Sulawesi Tengah",SULAWESI TENGAH,,Indonesia,,,,-0.8318931,1.198.803.137,https://maps.google.com/?cid=0x0:0xc3306c8cbd78f7ce,
mall,,Empat Enam Cbd,"8R4R+V33, Jl. Empat Enam, Wani Dua, Kec. Tanantovea, Kabupaten Donggala, Sulawesi Tengah 94352","Jl. Empat Enam, Wani Dua, Kec. Tanantovea, Kabupaten Donggala",SULAWESI TENGAH,94352.0,Indonesia,8114562046,,,-0.692854,1.198.401.661,https://maps.google.com/?cid=0x0:0xf274785e0dc07e3b,
mall,Taman,Taman Mualo 2,"6X44+HX, Bale, Kec. Tanantovea, Kabupaten Donggala, Sulawesi Tengah","Kabupaten Donggala, Sulawesi Tengah",SULAWESI TENGAH,,Indonesia,,,,-0.79357,11.995.748,https://maps.google.com/?cid=0x0:0x49dac72dbeb2782d,
mall,Grosir kosmetik,Agen kosmetik RK glow,"8R4R+XJJ, Jl. Tolitoli - Palu, Wani I, Kec. Tanantovea, Kabupaten Donggala, Sulawesi Tengah 94352","Jl. Tolitoli - Palu, Wani I, Kec. Tanantovea, Kabupaten Donggala",SULAWESI TENGAH,94352.0,Indonesia,82396031416,,,-0.6925389,119.841.524,https://maps.google.com/?cid=0x0:0x3234c9eb193547ac,
mall,Toko outlet,Outlet Lina,"6VG9+VF9, Taipa, Kec. Palu Utara, Kota Palu, Sulawesi Tengah 94141","Taipa, Kec. Palu Utara, Kota Palu",SULAWESI TENGAH,94141.0,Indonesia,,,,-0.7728472,1.198.687.274,https://maps.google.com/?cid=0x0:0x4d9f4b922fc5e340,
mall,Kantor Pemerintah,"Desa Wombo Kalonggo,tanantovea,donggala","8V6W+982, Wombo Kalonggo, Kec. Tanantovea, Kabupaten Donggala, Sulawesi Tengah 94352","Wombo Kalonggo, Kec. Tanantovea, Kabupaten Donggala",SULAWESI TENGAH,94352.0,Indonesia,,,,-0.6891126,1.198.957.688,https://maps.google.com/?cid=0x0:0x5496fedaefadf515,
mall,mall,Kios campuran,"Jl. H.I Mas'ud Pettalolo, Wani dua, Kota Palu, Sulawesi Tengah 94352","Wani dua, Kota Palu",SULAWESI TENGAH,94352.0,Indonesia,82283638584,,,-0.6913573,1.198.411.546,https://maps.google.com/?cid=0x0:0x2c16ac1c3f94bcdc,
mall,Bengkel Motor Elektrik,Bengkel Nabila Motor,"8R3V+XGC, Jl. Tolitoli - Palu, Wani I, Kec. Tanantovea, Kabupaten Donggala, Sulawesi Tengah 94352","Jl. Tolitoli - Palu, Wani I, Kec. Tanantovea, Kabupaten Donggala",SULAWESI TENGAH,94352.0,Indonesia,82348260885,,,-0.6950704,119.843.761,https://maps.google.com/?cid=0x0:0xd53c975c6dd14de0,
mall,Toko Ponsel,"Pulsa,bensin dll","7V94+9W4, Jl. Yodo, Panau, Kec. Palu Utara, Kota Palu, Sulawesi Tengah 94352","Jl. Yodo, Panau, Kec. Palu Utara, Kota Palu",SULAWESI TENGAH,94352.0,Indonesia,,,,-0.7316052,1.198.573.184,https://maps.google.com/?cid=0x0:0x55888e55b94df4ab,
mall,Sekolah menengah,SD Negeri 2 Tanantovea,"8V5J+QGJ, Wombo Panau, Kec. Tanantovea, Kabupaten Donggala, Sulawesi Tengah 94352","Wombo Panau, Kec. Tanantovea, Kabupaten Donggala",SULAWESI TENGAH,94352.0,Indonesia,85399970448,,,-0.6905428,1.198.812.754,https://maps.google.com/?cid=0x0:0x1b48683e9bbe47f8,
mall,Toko Kosmetik,Mini Galery Shop,"Jl. Bunga Raya No.20, Baiya, Kec. Palu Utara, Kota Palu, Sulawesi Tengah 94352","Baiya, Kec. Palu Utara, Kota Palu",SULAWESI TENGAH,94352.0,Indonesia,,,,-0.7314104,1.198.666.122,https://maps.google.com/?cid=0x0:0x97570253ceb5e5ab,
mall,Kios,KIOS FAZHKA,"7V95+FJ2, Jl. Yodo, Panau, Kec. Tawaeli, Kota Palu, Sulawesi Tengah 94352","Jl. Yodo, Panau, Kec. Tawaeli, Kota Palu",SULAWESI TENGAH,94352.0,Indonesia,,,,-0.731363,119.859.028,https://maps.google.com/?cid=0x0:0xf2fffe501b5730ad,
mall,Toko Fotokopi,Rezeki fotocopy  seluler,"8RPM+VCC, Labuan Panimba, Kec. Labuan, Kabupaten Donggala, Sulawesi Tengah 94353","Labuan Panimba, Kec. Labuan, Kabupaten Donggala",SULAWESI TENGAH,94353.0,Indonesia,82395089186,,,-0.6628096,1.198.335.245,https://maps.google.com/?cid=0x0:0x497c0bcabfdb9be8,
mall,Pusat Perbelanjaan,Kios Gleys,"6VW8+7WV, Jl. Sinombili, Kayumalue Ngapa, Kec. Palu Utara, Kota Palu, Sulawesi Tengah 94142","Jl. Sinombili, Kayumalue Ngapa, Kec. Palu Utara, Kota Palu",SULAWESI TENGAH,94142.0,Indonesia,,,,-0.7542661,1.198.672.987,https://maps.google.com/?cid=0x0:0xea102b88832d8950,
supermarket,supermarket,Sulawesi Tengah 94355,"Kec. Balaesang, Kabupaten Donggala, Sulawesi Tengah","Kabupaten Donggala, Sulawesi Tengah",SULAWESI TENGAH,,Indonesia,,,,-0.0809372,1.199.046.594,https://maps.google.com/?cid=0x0:0xfb3f30164124e211,
supermarket,Pasar,Toko Karunia Tambu,"XV3H+2RF, Tambu, Kec. Balaesang, Kabupaten Donggala, Sulawesi Tengah 94355","Tambu, Kec. Balaesang, Kabupaten Donggala",SULAWESI TENGAH,94355.0,Indonesia,,,,-0.0474325,1.198.795.315,https://maps.google.com/?cid=0x0:0x6e77547a93c633d,
supermarket,Minimarket,Alfamidi Labean,"VRGM+M7R, Jl. Tolitoli - Palu, Labean, Kec. Balaesang, Kabupaten Donggala, Sulawesi Tengah 94355","Jl. Tolitoli - Palu, Labean, Kec. Balaesang, Kabupaten Donggala",SULAWESI TENGAH,94355.0,Indonesia,81399506279,,,-0.1232534,1.198.331.397,https://maps.google.com/?cid=0x0:0x1c613ad781a7a853,
supermarket,Toko,Toko Sam,"XV2H+CH5, Tambu, Kec. Balaesang, Kabupaten Donggala, Sulawesi Tengah 94355","Tambu, Kec. Balaesang, Kabupaten Donggala",SULAWESI TENGAH,94355.0,Indonesia,,,,-0.0489934,1.198.789.778,https://maps.google.com/?cid=0x0:0x5dfa6029bb29519e,
supermarket,Toko bahan makanan,Agen brilink salma,"Sibualong, Kec. Balaesang, Palu, Sulawesi Tengah 94355","Kec. Balaesang, Palu",SULAWESI TENGAH,94355.0,Indonesia,,,,0.0426042,1.198.807.122,https://maps.google.com/?cid=0x0:0xa359e182227fb4bf,
supermarket,Toko,WARUNG KITA SEMUA,"RR2H+FHQ, Lompio, Kec. Sirenja, Kabupaten Donggala, Sulawesi Tengah 94354","Lompio, Kec. Sirenja, Kabupaten Donggala",SULAWESI TENGAH,94354.0,Indonesia,,,,-0.1987784,1.198.289.816,https://maps.google.com/?cid=0x0:0xa75566ddff13116,
supermarket,Sekolah Dasar,SDN 24 BALAESANG,"VRMG+XGV, Jl.Perumahan Seratus, Labean, Kec. Balaesang, Kabupaten Donggala, Sulawesi Tengah 94355","Jl.Perumahan Seratus, Labean, Kec. Balaesang, Kabupaten Donggala",SULAWESI TENGAH,94355.0,Indonesia,,,,-0.1150097,1.198.262.836,https://maps.google.com/?cid=0x0:0x3da4e5980843ecb6,
supermarket,Minimarket,LakecaGroup,"RXVH+63P, Unnamed Road, Tovalo, Kec. Kasimbar, Kabupaten Parigi Moutong, Sulawesi Tengah 94474","Unnamed Road, Tovalo, Kec. Kasimbar, Kabupaten Parigi Moutong",SULAWESI TENGAH,94474.0,Indonesia,85299149798,,,-0.1569166,119.977.688,https://maps.google.com/?cid=0x0:0x9625908670461e4e,
supermarket,Toko,Toko isna,"QQ3W+8XJ, Unnamed Road, Dampal, Kec. Sirenja, Kabupaten Donggala, Sulawesi Tengah 94354","Unnamed Road, Dampal, Kec. Sirenja, Kabupaten Donggala",SULAWESI TENGAH,94354.0,Indonesia,,,,-0.2466616,1.197.973.771,https://maps.google.com/?cid=0x0:0x54c92879228d1134,
supermarket,Toko,Kios ADHAR,"2VHM+2PQ, Jl. Tolitoli - Palu, Siweli, Kec. Balaesang, Kabupaten Donggala, Sulawesi Tengah 94355","Jl. Tolitoli - Palu, Siweli, Kec. Balaesang, Kabupaten Donggala",SULAWESI TENGAH,94355.0,Indonesia,81341124939,,,0.0275942,1.198.843.518,https://maps.google.com/?cid=0x0:0xe0196d4da2bc2583,
supermarket,supermarket,Kios (Melinda Ceell),"RRW4+GM, Lende, Kec. Sirenja, Kabupaten Donggala, Sulawesi Tengah","Kabupaten Donggala, Sulawesi Tengah",SULAWESI TENGAH,,Indonesia,,,,-0.1536875,1.198.066.875,https://maps.google.com/?cid=0x0:0x930a21d2a8567617,
supermarket,Toko umum,KIOS GULA AREN(Gulmer Pratiwi),"Dusun 01, mapane, Kec. Balaesang, Kabupaten Donggala, Sulawesi Tengah 94355","mapane, Kec. Balaesang, Kabupaten Donggala",SULAWESI TENGAH,94355.0,Indonesia,85342456047,,,-0.0353525,1.198.867.862,https://maps.google.com/?cid=0x0:0x904c7ce3d112c44d,
supermarket,supermarket,Samsuhadi Home,"VM8X+V9, Malei, Balaesang Tanjung, Donggala, Kabupaten Donggala, Sulawesi Tengah 94355","Malei, Balaesang Tanjung, Donggala, Kabupaten Donggala",SULAWESI TENGAH,94355.0,Indonesia,,,,-0.133072,1.196.988.411,https://maps.google.com/?cid=0x0:0xd9b14c2e6e9db48b,
supermarket,Toko,Kios Moh Razak,"VRJ4+XGM, Lombonga, Kec. Balaesang, Kabupaten Donggala, Sulawesi Tengah","Kabupaten Donggala, Sulawesi Tengah",SULAWESI TENGAH,,Indonesia,,,,-0.117539,1.198.062.912,https://maps.google.com/?cid=0x0:0xdbef28c8b2b411f0,
supermarket,Minimarket,WINDA FROZEN FOOD,"XV2H+PPW, Jl. Tolitoli - Palu, Tambu, Kec. Balaesang, Kabupaten Donggala, Sulawesi Tengah 94355","Jl. Tolitoli - Palu, Tambu, Kec. Balaesang, Kabupaten Donggala",SULAWESI TENGAH,94355.0,Indonesia,,,,-0.0481429,1.198.793.259,https://maps.google.com/?cid=0x0:0x97f88103c2c756fc,
supermarket,Toko Perlengkapan Rumah,Kios Amel Adel,"VR6W+WHM, Jln poros Palu - sabang, Labean, Kec. Balaesang, Kabupaten Donggala, Sulawesi Tengah","Kabupaten Donggala, Sulawesi Tengah",SULAWESI TENGAH,,Indonesia,,,,-0.1376666,1.198.464.334,https://maps.google.com/?cid=0x0:0x7b810327f40450ad,
supermarket,Kios,Kios Athar Zayyan,"VQC8+86, Walandano, Balaesang Tanjung, Donggala, Kabupaten Donggala, Sulawesi Tengah","Kabupaten Donggala, Sulawesi Tengah",SULAWESI TENGAH,,Indonesia,,,,-0.1294583,1.197.655.068,https://maps.google.com/?cid=0x0:0x5dadef41534f2118,
supermarket,Seafood,Sentral Ikan Segar Diana Agus Dalle,"3VXF+MFM, Jl. Poros Palu, Sibayu, Kec. Balaesang, Kabupaten Donggala, Sulawesi Tengah 94356","Jl. Poros Palu, Sibayu, Kec. Balaesang, Kabupaten Donggala",SULAWESI TENGAH,94356.0,Indonesia,,,,0.0986147,1.198.738.821,https://maps.google.com/?cid=0x0:0x482e281b2b4d9e16,
supermarket,Toko umum,Kios Rara Awesang,"XP2Q+5VH, Pomolulu, Balaesang Tanjung, Donggala, Kabupaten Donggala, Sulawesi Tengah 94355","Pomolulu, Balaesang Tanjung, Donggala, Kabupaten Donggala",SULAWESI TENGAH,94355.0,Indonesia,,,,-0.049582,1.197.397.729,https://maps.google.com/?cid=0x0:0x50efc603c29f46d4,
supermarket,Toko bahan makanan,Kios IMRAN,"2VJM+HM3, Jl. Tolitoli - Palu, Siweli, Kec. Balaesang, Kabupaten Donggala, Sulawesi Tengah 94355","Jl. Tolitoli - Palu, Siweli, Kec. Balaesang, Kabupaten Donggala",SULAWESI TENGAH,94355.0,Indonesia,82191950654,,,0.031384,119.884.174,https://maps.google.com/?cid=0x0:0x4bc132ab7b5f8a01,
supermarket,Toko,Kios ADHAR,"2VHM+2PQ, Jl. Tolitoli - Palu, Siweli, Kec. Balaesang, Kabupaten Donggala, Sulawesi Tengah 94355","Jl. Tolitoli - Palu, Siweli, Kec. Balaesang, Kabupaten Donggala",SULAWESI TENGAH,94355.0,Indonesia,81341124939,,,0.0275942,1.198.843.518,https://maps.google.com/?cid=0x0:0xe0196d4da2bc2583,
supermarket,supermarket,Balaesang Tj.,"Kabupaten Donggala, Sulawesi Tengah","Kabupaten Donggala, Sulawesi Tengah",SULAWESI TENGAH,,Indonesia,,,,-0.1135774,1.197.194.377,https://maps.google.com/?cid=0x0:0x65452b97dff5320a,
supermarket,Sekolah Dasar,SDN 5 BALAESANG TANJUNG,"VQ94+2QH, Jln. Pendidikan, Dusun II, Walandano, Kec. Balaesang, Kabupaten Donggala, Sulawesi Tengah 94355","Jln. Pendidikan, Dusun II, Walandano, Kec. Balaesang, Kabupaten Donggala",SULAWESI TENGAH,94355.0,Indonesia,,,,-0.1324375,1.197.569.844,https://maps.google.com/?cid=0x0:0x5eca19a2ec311323,
supermarket,Minimarket,Alfamidi Labean,"VRGM+M7R, Jl. Tolitoli - Palu, Labean, Kec. Balaesang, Kabupaten Donggala, Sulawesi Tengah 94355","Jl. Tolitoli - Palu, Labean, Kec. Balaesang, Kabupaten Donggala",SULAWESI TENGAH,94355.0,Indonesia,81399506279,,,-0.1232534,1.198.331.397,https://maps.google.com/?cid=0x0:0x1c613ad781a7a853,
supermarket,Sekolah,SDN 2 Balaesang Tanjung,"XP37+WW5, Rano B, Kec. Balaesang, Kabupaten Donggala, Sulawesi Tengah 94355","Rano B, Kec. Balaesang, Kabupaten Donggala",SULAWESI TENGAH,94355.0,Indonesia,82199970253,,,-0.0452262,1.197.148.583,https://maps.google.com/?cid=0x0:0xc89d3183d17ceeba,
supermarket,Sekolah Dasar,SDN 20 Balaesang Tanjung,"XP55+VH6, Rano B, Kec. Balaesang, Kabupaten Donggala, Sulawesi Tengah 94355","Rano B, Kec. Balaesang, Kabupaten Donggala",SULAWESI TENGAH,94355.0,Indonesia,,,,-0.0403356,119.708.883,https://maps.google.com/?cid=0x0:0x5e2fb3b4aeb40715,
supermarket,Sekolah Dasar,SDN 15 BALAESANG TANJUNG,"WJRW+FPC, Ketong, Kec. Balaesang, Kabupaten Donggala, Sulawesi Tengah 94355","Ketong, Kec. Balaesang, Kabupaten Donggala",SULAWESI TENGAH,94355.0,Indonesia,,,,-0.0588117,1.196.467.755,https://maps.google.com/?cid=0x0:0x289f04028f279e90,
supermarket,Sekolah Dasar,SDN 8 Balaesang Tanjung,"XJ2J+GJG, Ketong, Balaesang, Kabupaten Donggala, Sulawesi Tengah 94355","Ketong, Balaesang, Kabupaten Donggala",SULAWESI TENGAH,94355.0,Indonesia,,,,-0.0486811,119.631.565,https://maps.google.com/?cid=0x0:0x53de001de6606f75,
supermarket,Sekolah Dasar,SDN 19 Balaesang Tanjung,"WPR3+74, Rano B, Balaesang Tj., Kabupaten Donggala, Sulawesi Tengah","Kabupaten Donggala, Sulawesi Tengah",SULAWESI TENGAH,,Indonesia,,,,-0.0592948,1.197.028.756,https://maps.google.com/?cid=0x0:0x88c4e44448cef903,
supermarket,Sekolah Dasar,SDN 12 BALAESANG TANJUNG,"VP64+JW8, Walandano, Balaesang Tanjung, Donggala, Kabupaten Donggala, Sulawesi Tengah 94355","Walandano, Balaesang Tanjung, Donggala, Kabupaten Donggala",SULAWESI TENGAH,94355.0,Indonesia,,,,-0.1384565,1.197.073.227,https://maps.google.com/?cid=0x0:0x2c7bdc14d7992c2b,
supermarket,Sekolah Dasar,SDN 7 balaesang tanjung,"VM9W+8WF, Malei, Balaesang Tanjung, Donggala, Kabupaten Donggala, Sulawesi Tengah 94355","Malei, Balaesang Tanjung, Donggala, Kabupaten Donggala",SULAWESI TENGAH,94355.0,Indonesia,,,,-0.1316864,1.196.972.833,https://maps.google.com/?cid=0x0:0xee258d9123407704,
supermarket,,Sdn 5 Balaesang Tanjung,"XJ4F+CP7, Ketong, Balaesang Tj., Kabupaten Donggala, Sulawesi Tengah","Kabupaten Donggala, Sulawesi Tengah",SULAWESI TENGAH,,Indonesia,,,,-0.0439748,1.196.243.082,https://maps.google.com/?cid=0x0:0x370798a97ea5b011,
supermarket,Sekolah Dasar,SDN 18 Balaesang Tanjung,"VQPJ+H5, Palau, Balaesang Tj., Kabupaten Donggala, Sulawesi Tengah","Kabupaten Donggala, Sulawesi Tengah",SULAWESI TENGAH,,Indonesia,,,,-0.113623,1.197.804.376,https://maps.google.com/?cid=0x0:0x9fbe9314db44ef56,
supermarket,Sekolah,SDN 4 BALAESANG TANJUNG,"WQF2+W6J, Pomolulu, Kec. Balaesang, Kabupaten Donggala, Sulawesi Tengah 94355","Pomolulu, Kec. Balaesang, Kabupaten Donggala",SULAWESI TENGAH,94355.0,Indonesia,8114505354,,,-0.0751565,1.197.505.019,https://maps.google.com/?cid=0x0:0x4ba4ec1f587cf770,
supermarket,Sekolah Dasar,SDN 1 MALEI,"VPR7+5FR, Malei, Balaesang Tanjung, Donggala, Kabupaten Donggala, Sulawesi Tengah 94355","Malei, Balaesang Tanjung, Donggala, Kabupaten Donggala",SULAWESI TENGAH,94355.0,Indonesia,,,,-0.1095207,1.197.136.456,https://maps.google.com/?cid=0x0:0xec1f8b2e791d34be,
supermarket,Kios,Toko Harapan Baru,"6M73+5FX, Tolongano, Kec. Banawa Sel., Kabupaten Donggala, Sulawesi Tengah","Kabupaten Donggala, Sulawesi Tengah",SULAWESI TENGAH,,Indonesia,,,,-0.7870163,1.196.537.417,https://maps.google.com/?cid=0x0:0xacfc8aac40b26330,
supermarket,Sekolah Dasar,SDN 13 Balaesang,"VRFJ+88R, Labean, Kec. Balaesang, Kabupaten Donggala, Sulawesi Tengah 94355","Labean, Kec. Balaesang, Kabupaten Donggala",SULAWESI TENGAH,94355.0,Indonesia,,,,-0.1266421,1.198.307.538,https://maps.google.com/?cid=0x0:0x48d60f5ddcad5ed6,
supermarket,Sekolah Dasar,SDN 6 Balaesang,"VVW2+666, Meli, Kec. Balaesang, Kabupaten Donggala, Sulawesi Tengah 94355","Meli, Kec. Balaesang, Kabupaten Donggala",SULAWESI TENGAH,94355.0,Indonesia,85341204700,,,-0.1044682,1.198.505.168,https://maps.google.com/?cid=0x0:0xb2ce95ff33ad0d9d,
supermarket,Sekolah,SDN 3 Balaesang,"VRHM+256, Labean, Kec. Balaesang, Kabupaten Donggala, Sulawesi Tengah 94355","Labean, Kec. Balaesang, Kabupaten Donggala",SULAWESI TENGAH,94355.0,Indonesia,,,,-0.1224694,1.198.329.009,https://maps.google.com/?cid=0x0:0xeeac0471af0b6463,
supermarket,Sekolah Dasar,SDN 16 BALAESANG,"VR95+J29, Lombonga, Kec. Balaesang, Kabupaten Donggala, Sulawesi Tengah 94355","Lombonga, Kec. Balaesang, Kabupaten Donggala",SULAWESI TENGAH,94355.0,Indonesia,,,,-0.1309597,1.198.076.186,https://maps.google.com/?cid=0x0:0x6d442738590aab76,
supermarket,Sekolah,SDN 11 BALAESANG,"2VXJ+P35, Sibualong, Kec. Balaesang, Kabupaten Donggala, Sulawesi Tengah 94355","Sibualong, Kec. Balaesang, Kabupaten Donggala",SULAWESI TENGAH,94355.0,Indonesia,,,,0.0492705,1.198.802.485,https://maps.google.com/?cid=0x0:0xca49a051eac856bb,
supermarket,supermarket,Samsuhadi Home,"VM8X+V9, Malei, Balaesang Tanjung, Donggala, Kabupaten Donggala, Sulawesi Tengah 94355","Malei, Balaesang Tanjung, Donggala, Kabupaten Donggala",SULAWESI TENGAH,94355.0,Indonesia,,,,-0.133072,1.196.988.411,https://maps.google.com/?cid=0x0:0xd9b14c2e6e9db48b,
supermarket,Kios,Kios Athar Zayyan,"VQC8+86, Walandano, Balaesang Tanjung, Donggala, Kabupaten Donggala, Sulawesi Tengah","Kabupaten Donggala, Sulawesi Tengah",SULAWESI TENGAH,,Indonesia,,,,-0.1294583,1.197.655.068,https://maps.google.com/?cid=0x0:0x5dadef41534f2118,
supermarket,supermarket,Kios (Melinda Ceell),"RRW4+GM, Lende, Kec. Sirenja, Kabupaten Donggala, Sulawesi Tengah","Kabupaten Donggala, Sulawesi Tengah",SULAWESI TENGAH,,Indonesia,,,,-0.1536875,1.198.066.875,https://maps.google.com/?cid=0x0:0x930a21d2a8567617,
supermarket,Toko,Kios Moh Razak,"VRJ4+XGM, Lombonga, Kec. Balaesang, Kabupaten Donggala, Sulawesi Tengah","Kabupaten Donggala, Sulawesi Tengah",SULAWESI TENGAH,,Indonesia,,,,-0.117539,1.198.062.912,https://maps.google.com/?cid=0x0:0xdbef28c8b2b411f0,
supermarket,Toko umum,Kios Rara Awesang,"XP2Q+5VH, Pomolulu, Balaesang Tanjung, Donggala, Kabupaten Donggala, Sulawesi Tengah 94355","Pomolulu, Balaesang Tanjung, Donggala, Kabupaten Donggala",SULAWESI TENGAH,94355.0,Indonesia,,,,-0.049582,1.197.397.729,https://maps.google.com/?cid=0x0:0x50efc603c29f46d4,
supermarket,supermarket,Kec. Banawa Tengah,"Kabupaten Donggala, Sulawesi Tengah","Kabupaten Donggala, Sulawesi Tengah",SULAWESI TENGAH,,Indonesia,,,,-0.7228051,1.196.992.156,https://maps.google.com/?cid=0x0:0xe02be6cd56068455,
supermarket,Toko bahan makanan,Anindy Mart,"7MCH+RWV depan pasar jum'at, Jl. Trans sulawesi, Towale, Kec. Banawa Tengah, Kabupaten Donggala, Sulawesi Tengah 94351","Jl. Trans sulawesi, Towale, Kec. Banawa Tengah, Kabupaten Donggala",SULAWESI TENGAH,94351.0,Indonesia,81243664624,,,-0.7278885,1.196.798.001,https://maps.google.com/?cid=0x0:0x7136bf47fa52f346,
supermarket,Toko,Toko Mulia,"Jl. Hasanuddin, Boya, Kec. Banawa, Kabupaten Donggala, Sulawesi Tengah 94351","Boya, Kec. Banawa, Kabupaten Donggala",SULAWESI TENGAH,94351.0,Indonesia,83137231516,,,-0.6688045,1.197.437.035,https://maps.google.com/?cid=0x0:0x2f3305acd334de3,
supermarket,Minimarket,Alfamidi Donggala,"Jl. Lamarauna, Tj. Batu, Kec. Banawa, Kabupaten Donggala, Sulawesi Tengah 94351","Tj. Batu, Kec. Banawa, Kabupaten Donggala",SULAWESI TENGAH,94351.0,Indonesia,,,,-0.6694742,1.197.459.219,https://maps.google.com/?cid=0x0:0xbe4fab815a9b6620,
supermarket,Toko Swalayan,Toko Grace,"8PMV+7V6, Boya, Kec. Banawa, Kabupaten Donggala, Sulawesi Tengah","Kabupaten Donggala, Sulawesi Tengah",SULAWESI TENGAH,,Indonesia,,,,-0.6668424,1.197.446.493,https://maps.google.com/?cid=0x0:0xdbe02d171e66ddb9,
supermarket,Kios,Kios mama tina,"6MGP+5C6, Tosale, Kec. Banawa Sel., Kabupaten Donggala, Sulawesi Tengah 94351","Tosale, Kec. Banawa Sel., Kabupaten Donggala",SULAWESI TENGAH,94351.0,Indonesia,,,,-0.7745829,1.196.860.279,https://maps.google.com/?cid=0x0:0x81080b28c4b6e625,
supermarket,Kios,Toko Harapan Baru,"6M73+5FX, Tolongano, Kec. Banawa Sel., Kabupaten Donggala, Sulawesi Tengah","Kabupaten Donggala, Sulawesi Tengah",SULAWESI TENGAH,,Indonesia,,,,-0.7870163,1.196.537.417,https://maps.google.com/?cid=0x0:0xacfc8aac40b26330,
supermarket,supermarket,Toko Bundar,"Jl. Samratulangi No.25, Boya, Kec. Banawa, Kabupaten Donggala, Sulawesi Tengah 94351","Boya, Kec. Banawa, Kabupaten Donggala",SULAWESI TENGAH,94351.0,Indonesia,,,,-0.6667223,119.743.434,https://maps.google.com/?cid=0x0:0x2f8707892528c093,
supermarket,Pasar,The Marketplace at Banawa Centrale,"Banawa, Cebu City, 6000 Cebu, Filipina","Cebu City, Cebu, Filipina",SULAWESI TENGAH,,Indonesia,,,,103.110.582,1.238.766.546,https://maps.google.com/?cid=0x0:0x85fa6be4e5fc2204,
supermarket,supermarket,Sulawesi Tengah 94351,"Kabupaten Donggala, Sulawesi Tengah","Kabupaten Donggala, Sulawesi Tengah",SULAWESI TENGAH,,Indonesia,,,,-0.8867487,1.196.499.162,https://maps.google.com/?cid=0x0:0x74085d8dce3801b4,
supermarket,Toko,Toko Mulia,"Jl. Hasanuddin, Boya, Kec. Banawa, Kabupaten Donggala, Sulawesi Tengah 94351","Boya, Kec. Banawa, Kabupaten Donggala",SULAWESI TENGAH,94351.0,Indonesia,83137231516,,,-0.6688045,1.197.437.035,https://maps.google.com/?cid=0x0:0x2f3305acd334de3,
supermarket,Toko bahan makanan,Sinar Ceng Ceng,"Jl. Pettalolo No.48, Boya, Kec. Banawa, Kabupaten Donggala, Sulawesi Tengah 94351","Boya, Kec. Banawa, Kabupaten Donggala",SULAWESI TENGAH,94351.0,Indonesia,4577020039,,,-0.6677252,119.742.938,https://maps.google.com/?cid=0x0:0x3baa24d319b39f6e,
supermarket,Kios,Toko Harapan Baru,"6M73+5FX, Tolongano, Kec. Banawa Sel., Kabupaten Donggala, Sulawesi Tengah","Kabupaten Donggala, Sulawesi Tengah",SULAWESI TENGAH,,Indonesia,,,,-0.7870163,1.196.537.417,https://maps.google.com/?cid=0x0:0xacfc8aac40b26330,
supermarket,Minimarket,Alfamidi Donggala,"Jl. Lamarauna, Tj. Batu, Kec. Banawa, Kabupaten Donggala, Sulawesi Tengah 94351","Tj. Batu, Kec. Banawa, Kabupaten Donggala",SULAWESI TENGAH,94351.0,Indonesia,,,,-0.6694742,1.197.459.219,https://maps.google.com/?cid=0x0:0xbe4fab815a9b6620,
supermarket,Toko Swalayan,Toko Grace,"8PMV+7V6, Boya, Kec. Banawa, Kabupaten Donggala, Sulawesi Tengah","Kabupaten Donggala, Sulawesi Tengah",SULAWESI TENGAH,,Indonesia,,,,-0.6668424,1.197.446.493,https://maps.google.com/?cid=0x0:0xdbe02d171e66ddb9,
supermarket,Dapur Umum,Depot Zahrah,"4JX4+9J5, Jl. Poros Majene - Mamuju, Lalombi, Kec. Banawa Sel., Kabupaten Donggala, Sulawesi Tengah 94351","Jl. Poros Majene - Mamuju, Lalombi, Kec. Banawa Sel., Kabupaten Donggala",SULAWESI TENGAH,94351.0,Indonesia,81341248230,,,-0.85161,1.196.065.995,https://maps.google.com/?cid=0x0:0xe517646aba3dfa53,
supermarket,Kios,Kios mama tina,"6MGP+5C6, Tosale, Kec. Banawa Sel., Kabupaten Donggala, Sulawesi Tengah 94351","Tosale, Kec. Banawa Sel., Kabupaten Donggala",SULAWESI TENGAH,94351.0,Indonesia,,,,-0.7745829,1.196.860.279,https://maps.google.com/?cid=0x0:0x81080b28c4b6e625,
supermarket,Toserba,Zhafira Mart,"Donggala Kodi, Kec. Ulujadi, Kota Palu, Sulawesi Tengah 94111","Kec. Ulujadi, Kota Palu",SULAWESI TENGAH,94111.0,Indonesia,,,,-0.8978818,1.198.505.976,https://maps.google.com/?cid=0x0:0x619a5da9b6fc2354,
supermarket,Toko bahan makanan,Swalayan Akbar,"4R9P+Q75, Jl. Munif Rahman, Silae, Kec. Palu Bar., Kota Palu, Sulawesi Tengah 94227","Jl. Munif Rahman, Silae, Kec. Palu Bar., Kota Palu",SULAWESI TENGAH,94227.0,Indonesia,,,,-0.8806169,1.198.357.334,https://maps.google.com/?cid=0x0:0x9ba756260359e434,
supermarket,Toko Swalayan,Seven Mart,"Jl. I Gusti Ngurah Rai No.77, Tawanjuka, Kec. Palu Sel., Kota Palu, Sulawesi Tengah 94111","Tawanjuka, Kec. Palu Sel., Kota Palu",SULAWESI TENGAH,94111.0,Indonesia,,,,-0.9227722,1.198.643.451,https://maps.google.com/?cid=0x0:0xf6f567a3e7ac003b,
supermarket,Toko Swalayan,Swalayan Ganesha,"3VF4+3FW, Jl. Poros Palu Bangga, Palupi, Kec. Tatanga, Kota Palu, Sulawesi Tengah 94222","Jl. Poros Palu Bangga, Palupi, Kec. Tatanga, Kota Palu",SULAWESI TENGAH,94222.0,Indonesia,,,,-0.9272713,1.198.561.982,https://maps.google.com/?cid=0x0:0x84914685b537bd0f,
supermarket,supermarket,Toko Bundar,"Jl. Samratulangi No.25, Boya, Kec. Banawa, Kabupaten Donggala, Sulawesi Tengah 94351","Boya, Kec. Banawa, Kabupaten Donggala",SULAWESI TENGAH,94351.0,Indonesia,,,,-0.6667223,119.743.434,https://maps.google.com/?cid=0x0:0x2f8707892528c093,
supermarket,Kios,Kios Nava,"Jl. Malonda No.129, Watusampu, Kec. Ulujadi, Kota Palu, Sulawesi Tengah 94351","Watusampu, Kec. Ulujadi, Kota Palu",SULAWESI TENGAH,94351.0,Indonesia,81354664311,,,-0.8113152,1.198.098.405,https://maps.google.com/?cid=0x0:0x81a322c4995b5f6e,
supermarket,Minimarket,TOKO WA Mart,"Jl. Banawa No.75, Towale, Kec. Banawa Tengah, Kabupaten Donggala, Sulawesi Tengah 94351","Towale, Kec. Banawa Tengah, Kabupaten Donggala",SULAWESI TENGAH,94351.0,Indonesia,85343538526,,,-0.7253096,1.196.824.542,https://maps.google.com/?cid=0x0:0x9661c085022fa3b3,
supermarket,Kios,Kios Babas,"4JWQ+42, Salumpaku, Kec. Banawa Sel., Kabupaten Donggala, Sulawesi Tengah","Kabupaten Donggala, Sulawesi Tengah",SULAWESI TENGAH,,Indonesia,,,,-0.8547343,1.196.375.936,https://maps.google.com/?cid=0x0:0x405a0b4178a37eee,
supermarket,Toko,Mini Market 2 Putra,"4HGJ+JP8, Watatu, Kec. Banawa Sel., Kabupaten Donggala, Sulawesi Tengah 94351","Watatu, Kec. Banawa Sel., Kabupaten Donggala",SULAWESI TENGAH,94351.0,Indonesia,82187991147,,,-0.8734507,1.195.818.411,https://maps.google.com/?cid=0x0:0xb8cf42514b21022e,
supermarket,Toko,Souw Lante,"6Q5X+4QV, Jl. Poros Palu - Mamuju, Loli Oge, Kec. Banawa, Kabupaten Donggala, Sulawesi Tengah 94351","Jl. Poros Palu - Mamuju, Loli Oge, Kec. Banawa, Kabupaten Donggala",SULAWESI TENGAH,94351.0,Indonesia,85299904117,,,-0.7921423,1.197.994.302,https://maps.google.com/?cid=0x0:0x8ad40edf5e9aa21d,
supermarket,Pasar,Pasar Mbuwu,"4H7V+MV8, Watatu, Kec. Banawa Sel., Kabupaten Donggala, Sulawesi Tengah 94351","Watatu, Kec. Banawa Sel., Kabupaten Donggala",SULAWESI TENGAH,94351.0,Indonesia,,,,-0.8858469,1.195.947.027,https://maps.google.com/?cid=0x0:0x14cf79fdbf948600,
supermarket,Brunch,E-warong fadilah,"5J99+64X, Jl. Poros Majene - Mamuju, Lalombi, Kec. Banawa Sel., Kabupaten Donggala, Sulawesi Tengah 94351","Jl. Poros Majene - Mamuju, Lalombi, Kec. Banawa Sel., Kabupaten Donggala",SULAWESI TENGAH,94351.0,Indonesia,,,,-0.831899,1.196.178.682,https://maps.google.com/?cid=0x0:0xcd56c183ad55ce97,
supermarket,Pusat Bisnis,Gondola Cell Limboro Banawa Tengah,"Jl. Banawa, Limboro, Kec. Banawa Tengah, Kabupaten Donggala, Sulawesi Tengah 94351","Limboro, Kec. Banawa Tengah, Kabupaten Donggala",SULAWESI TENGAH,94351.0,Indonesia,81245084000,,,-0.7219596,1.196.998.166,https://maps.google.com/?cid=0x0:0xdb6d53f1d80fafc9,
supermarket,Pusat Perbelanjaan,SC Halal Mart HNI-HPAI Loli Pesua,"6QJP+VRQ, Loli Pesua, Kec. Banawa, Kabupaten Donggala, Sulawesi Tengah 94351","Loli Pesua, Kec. Banawa, Kabupaten Donggala",SULAWESI TENGAH,94351.0,Indonesia,82316210080,,,-0.7677768,1.197.871.031,https://maps.google.com/?cid=0x0:0x75197bd12f2de0ac,
supermarket,Toko bahan makanan,salumpu,"4JWQ+425, Lalombi, Kec. Banawa Sel., Kabupaten Donggala, Sulawesi Tengah 94351","Lalombi, Kec. Banawa Sel., Kabupaten Donggala",SULAWESI TENGAH,94351.0,Indonesia,82393175113,,,-0.8547266,1.196.376.026,https://maps.google.com/?cid=0x0:0x4488466204e972f7,
supermarket,Toko bahan makanan,Lalombi,"5J2C+598, Lalombi, Kec. Banawa Sel., Kabupaten Donggala, Sulawesi Tengah 94351","Lalombi, Kec. Banawa Sel., Kabupaten Donggala",SULAWESI TENGAH,94351.0,Indonesia,,,,-0.8495901,1.196.209.388,https://maps.google.com/?cid=0x0:0x81e666039b309751,
supermarket,Toko umum,Kios empatbersodara,"4MMR+Q55, Bambarimi, Kec. Banawa Sel., Kabupaten Donggala, Sulawesi Tengah 94351","Bambarimi, Kec. Banawa Sel., Kabupaten Donggala",SULAWESI TENGAH,94351.0,Indonesia,,,,-0.8329454,1.196.655.498,https://maps.google.com/?cid=0x0:0xcde173b7b4ccdfa5,
supermarket,Pasar,Pasar Watatu,"4HFP+528, Watatu, Kec. Banawa Sel., Kabupaten Donggala, Sulawesi Tengah 94351","Watatu, Kec. Banawa Sel., Kabupaten Donggala",SULAWESI TENGAH,94351.0,Indonesia,,,,-0.87708,1.195.850.822,https://maps.google.com/?cid=0x0:0x8a19d49bb416d7f,
supermarket,Kios,Kios Reifan R2,"7PQ2+84F, Limboro, Kec. Banawa Tengah, Kabupaten Donggala, Sulawesi Tengah 94351","Limboro, Kec. Banawa Tengah, Kabupaten Donggala",SULAWESI TENGAH,94351.0,Indonesia,,,,-0.7116971,1.197.002.895,https://maps.google.com/?cid=0x0:0x273bdc72ac786ca8,
supermarket,supermarket,Kec. Banawa Tengah,"Kabupaten Donggala, Sulawesi Tengah","Kabupaten Donggala, Sulawesi Tengah",SULAWESI TENGAH,,Indonesia,,,,-0.7228051,1.196.992.156,https://maps.google.com/?cid=0x0:0xe02be6cd56068455,
supermarket,Toko bahan makanan,Anindy Mart,"7MCH+RWV depan pasar jum'at, Jl. Trans sulawesi, Towale, Kec. Banawa Tengah, Kabupaten Donggala, Sulawesi Tengah 94351","Jl. Trans sulawesi, Towale, Kec. Banawa Tengah, Kabupaten Donggala",SULAWESI TENGAH,94351.0,Indonesia,81243664624,,,-0.7278885,1.196.798.001,https://maps.google.com/?cid=0x0:0x7136bf47fa52f346,
supermarket,Toko,Toko Mulia,"Jl. Hasanuddin, Boya, Kec. Banawa, Kabupaten Donggala, Sulawesi Tengah 94351","Boya, Kec. Banawa, Kabupaten Donggala",SULAWESI TENGAH,94351.0,Indonesia,83137231516,,,-0.6688045,1.197.437.035,https://maps.google.com/?cid=0x0:0x2f3305acd334de3,
supermarket,Toko Swalayan,Toko Grace,"8PMV+7V6, Boya, Kec. Banawa, Kabupaten Donggala, Sulawesi Tengah","Kabupaten Donggala, Sulawesi Tengah",SULAWESI TENGAH,,Indonesia,,,,-0.6668424,1.197.446.493,https://maps.google.com/?cid=0x0:0xdbe02d171e66ddb9,
supermarket,Minimarket,Alfamidi Donggala,"Jl. Lamarauna, Tj. Batu, Kec. Banawa, Kabupaten Donggala, Sulawesi Tengah 94351","Tj. Batu, Kec. Banawa, Kabupaten Donggala",SULAWESI TENGAH,94351.0,Indonesia,,,,-0.6694742,1.197.459.219,https://maps.google.com/?cid=0x0:0xbe4fab815a9b6620,
supermarket,Kios,Toko Harapan Baru,"6M73+5FX, Tolongano, Kec. Banawa Sel., Kabupaten Donggala, Sulawesi Tengah","Kabupaten Donggala, Sulawesi Tengah",SULAWESI TENGAH,,Indonesia,,,,-0.7870163,1.196.537.417,https://maps.google.com/?cid=0x0:0xacfc8aac40b26330,
supermarket,Kios,Kios mama tina,"6MGP+5C6, Tosale, Kec. Banawa Sel., Kabupaten Donggala, Sulawesi Tengah 94351","Tosale, Kec. Banawa Sel., Kabupaten Donggala",SULAWESI TENGAH,94351.0,Indonesia,,,,-0.7745829,1.196.860.279,https://maps.google.com/?cid=0x0:0x81080b28c4b6e625,
supermarket,Minimarket,TOKO WA Mart,"Jl. Banawa No.75, Towale, Kec. Banawa Tengah, Kabupaten Donggala, Sulawesi Tengah 94351","Towale, Kec. Banawa Tengah, Kabupaten Donggala",SULAWESI TENGAH,94351.0,Indonesia,85343538526,,,-0.7253096,1.196.824.542,https://maps.google.com/?cid=0x0:0x9661c085022fa3b3,
supermarket,Pusat Bisnis,Gondola Cell Limboro Banawa Tengah,"Jl. Banawa, Limboro, Kec. Banawa Tengah, Kabupaten Donggala, Sulawesi Tengah 94351","Limboro, Kec. Banawa Tengah, Kabupaten Donggala",SULAWESI TENGAH,94351.0,Indonesia,81245084000,,,-0.7219596,1.196.998.166,https://maps.google.com/?cid=0x0:0xdb6d53f1d80fafc9,
supermarket,,Toko Sinar Baru,"Jl. Pelabuhan No.41, Boya, Kec. Banawa, Kabupaten Donggala, Sulawesi Tengah 94351","Boya, Kec. Banawa, Kabupaten Donggala",SULAWESI TENGAH,94351.0,Indonesia,,,,-0.6680651,1.197.425.316,https://maps.google.com/?cid=0x0:0x9c2c8351e8216862,
supermarket,Toko,Kios Asyifah,"Jl. Trans Palu-Donggala No.42, Kabonga Kecil, Kec. Banawa, Kabupaten Donggala, Sulawesi Tengah 94351","Kabonga Kecil, Kec. Banawa, Kabupaten Donggala",SULAWESI TENGAH,94351.0,Indonesia,,,,-0.7000918,1.197.550.404,https://maps.google.com/?cid=0x0:0x9676225b9481e288,
supermarket,Kios,Kios Reifan R2,"7PQ2+84F, Limboro, Kec. Banawa Tengah, Kabupaten Donggala, Sulawesi Tengah 94351","Limboro, Kec. Banawa Tengah, Kabupaten Donggala",SULAWESI TENGAH,94351.0,Indonesia,,,,-0.7116971,1.197.002.895,https://maps.google.com/?cid=0x0:0x273bdc72ac786ca8,
supermarket,Kios,Kios Henni,"Jl. Trans Sulawesi, Boneoge, Kec. Banawa, Kabupaten Donggala, Sulawesi Tengah 94357","Boneoge, Kec. Banawa, Kabupaten Donggala",SULAWESI TENGAH,94357.0,Indonesia,82296554281,,,-0.6819896,1.197.119.641,https://maps.google.com/?cid=0x0:0xcf7a20a575cbffa6,
supermarket,Pusat Perbelanjaan,SC Halal Mart HNI-HPAI Loli Pesua,"6QJP+VRQ, Loli Pesua, Kec. Banawa, Kabupaten Donggala, Sulawesi Tengah 94351","Loli Pesua, Kec. Banawa, Kabupaten Donggala",SULAWESI TENGAH,94351.0,Indonesia,82316210080,,,-0.7677768,1.197.871.031,https://maps.google.com/?cid=0x0:0x75197bd12f2de0ac,
supermarket,Toko Swalayan,AKENG.TK,"Jl. Pelabuhan No.98, Boya, Kec. Banawa, Kabupaten Donggala, Sulawesi Tengah 94351","Boya, Kec. Banawa, Kabupaten Donggala",SULAWESI TENGAH,94351.0,Indonesia,,,,-0.6720212,1.197.407.257,https://maps.google.com/?cid=0x0:0x2f3f150c33800b07,
supermarket,Toko,Kios Nur,"7QX3+4Q8, Jl. Tanjakan Ganti, Kabonga Kecil, Kec. Banawa, Kabupaten Donggala, Sulawesi Tengah 94351","Jl. Tanjakan Ganti, Kabonga Kecil, Kec. Banawa, Kabupaten Donggala",SULAWESI TENGAH,94351.0,Indonesia,,,,-0.702204,1.197.544.588,https://maps.google.com/?cid=0x0:0xd5aa3a66b03096a7,
supermarket,Toko bahan makanan,Rumah YADINNANGSIH,"7QR4+3H4, Kabonga Besar, Kec. Banawa, Kabupaten Donggala, Sulawesi Tengah 94351","Kabonga Besar, Kec. Banawa, Kabupaten Donggala",SULAWESI TENGAH,94351.0,Indonesia,,,,-0.7098662,1.197.564.424,https://maps.google.com/?cid=0x0:0x4cc4f5b4384d10dd,
supermarket,Toko umum,Kios empatbersodara,"4MMR+Q55, Bambarimi, Kec. Banawa Sel., Kabupaten Donggala, Sulawesi Tengah 94351","Bambarimi, Kec. Banawa Sel., Kabupaten Donggala",SULAWESI TENGAH,94351.0,Indonesia,,,,-0.8329454,1.196.655.498,https://maps.google.com/?cid=0x0:0xcde173b7b4ccdfa5,
supermarket,supermarket,TOKO Warda,"8PPQ+MQV, Jl. Karang Ria Jl. Dua Wisata, Labuan Bajo, Kec. Banawa, Kabupaten Donggala, Sulawesi Tengah 94351","Jl. Karang Ria Jl. Dua Wisata, Labuan Bajo, Kec. Banawa, Kabupaten Donggala",SULAWESI TENGAH,94351.0,Indonesia,,,,-0.6632698,1.197.394.083,https://maps.google.com/?cid=0x0:0xe814ff335c345e94,
supermarket,Toko makanan beku,Lucky frozenfood,"Jl. Pramuka No.52, Labuan Bajo, Kec. Banawa, Kabupaten Donggala, Sulawesi Tengah","Kabupaten Donggala, Sulawesi Tengah",SULAWESI TENGAH,,Indonesia,81253713857,,,-0.6663305,119.740.807,https://maps.google.com/?cid=0x0:0xf5831d273536c26f,
supermarket,supermarket,Sulawesi Tengah 94356,"Kabupaten Donggala, Sulawesi Tengah","Kabupaten Donggala, Sulawesi Tengah",SULAWESI TENGAH,,Indonesia,,,,0.3571796,1.200.202.964,https://maps.google.com/?cid=0x0:0x35d848f8a4662f0d,
supermarket,Minimarket,Alfa Midi Sioyong,"6V8X+HQM, Sioyong, Kec. Damsol, Kabupaten Donggala, Sulawesi Tengah","Kabupaten Donggala, Sulawesi Tengah",SULAWESI TENGAH,,Indonesia,,,,0.2164565,1.198.994.374,https://maps.google.com/?cid=0x0:0x8a8f4a700d018634,
supermarket,Kios,Kios Farel,"6WP4+9F8, Desa, Ponggerang, Kec. Damsol, Kabupaten Donggala, Sulawesi Tengah 94356","Desa, Ponggerang, Kec. Damsol, Kabupaten Donggala",SULAWESI TENGAH,94356.0,Indonesia,,,,0.2359046,1.199.062.111,https://maps.google.com/?cid=0x0:0xa97ee3ab6252515e,
supermarket,Toko umum,Toko Mega Buana,"P4RF+3QV, Ogoamas II, Kec. Sojol Utara, Kabupaten Donggala, Sulawesi Tengah","Kabupaten Donggala, Sulawesi Tengah",SULAWESI TENGAH,,Indonesia,82192631999,,,0.7402371,1.201.244.321,https://maps.google.com/?cid=0x0:0x2438fe98e94269b8,
supermarket,Toko bahan makanan,Toko LUTFIA,"P4RG+737, Ogoamas II, Kec. Sojol Utara, Kabupaten Donggala, Sulawesi Tengah","Kabupaten Donggala, Sulawesi Tengah",SULAWESI TENGAH,,Indonesia,81243262778,,,0.7406744,1.201.251.779,https://maps.google.com/?cid=0x0:0x581df9c4ed09ff21,
supermarket,Toko umum,Toko MUIZ,"H2CX+HXM, Balukang II, Kec. Sojol, Kabupaten Donggala, Sulawesi Tengah 94356","Balukang II, Kec. Sojol, Kabupaten Donggala",SULAWESI TENGAH,94356.0,Indonesia,82296544691,,,0.5714512,1.200.499.138,https://maps.google.com/?cid=0x0:0x8167b6931ba2567,
supermarket,Toko,Toko Baru,"P4RG+CWF, Ogoamas I, Kec. Sojol Utara, Kabupaten Donggala, Sulawesi Tengah","Kabupaten Donggala, Sulawesi Tengah",SULAWESI TENGAH,,Indonesia,,,,0.7410534,1.201.272.992,https://maps.google.com/?cid=0x0:0x57b6f67039376164,
supermarket,Toko Swalayan,Monikha Cell,"7W82+823, Jl. Tolitoli - Palu, Malonas, Kec. Damsol, Kabupaten Donggala, Sulawesi Tengah 94356","Jl. Tolitoli - Palu, Malonas, Kec. Damsol, Kabupaten Donggala",SULAWESI TENGAH,94356.0,Indonesia,82189110456,,,0.2657657,1.199.000.586,https://maps.google.com/?cid=0x0:0x7fefbd76d26b0628,
supermarket,Toko Swalayan,AMERTHA GANI (GANI CELL),"4VMX+X58, Budimukti, Kec. Damsol, Kabupaten Donggala, Sulawesi Tengah 94356","Budimukti, Kec. Damsol, Kabupaten Donggala",SULAWESI TENGAH,94356.0,Indonesia,85256341168,,,0.134921,1.198.979.408,https://maps.google.com/?cid=0x0:0xf84f1d39ef74a6df,
supermarket,supermarket,Kec. Damsol,"Kabupaten Donggala, Sulawesi Tengah","Kabupaten Donggala, Sulawesi Tengah",SULAWESI TENGAH,,Indonesia,,,,0.2652522,1.199.219.896,https://maps.google.com/?cid=0x0:0x8ab478bb4a288230,
supermarket,Toko umum,kios dewi,"9W37+43J, Lemba Mukti, Kec. Damsol, Kabupaten Donggala, Sulawesi Tengah 94356","Lemba Mukti, Kec. Damsol, Kabupaten Donggala",SULAWESI TENGAH,94356.0,Indonesia,,,,0.3528302,1.199.126.307,https://maps.google.com/?cid=0x0:0xb285b3f7811ec714,
supermarket,Toko Swalayan,Nikmah Swalayan,"CWV2+746, Jl. Tolitoli - Palu, Pangalasiang, Kec. Sojol, Kabupaten Donggala, Sulawesi Tengah 94356","Jl. Tolitoli - Palu, Pangalasiang, Kec. Sojol, Kabupaten Donggala",SULAWESI TENGAH,94356.0,Indonesia,85102437400,,,0.4431588,1.199.002.665,https://maps.google.com/?cid=0x0:0x2b224f1da4b6a9aa,
supermarket,Komplek perumahan,Rumah dikaa,"CXMR+MR, Samalili, Kec. Sojol, Kabupaten Donggala, Sulawesi Tengah","Kabupaten Donggala, Sulawesi Tengah",SULAWESI TENGAH,,Indonesia,,,,0.4352261,1.199.925.061,https://maps.google.com/?cid=0x0:0xcd0084badb00a6b8,
supermarket,Toko,Kios sembako pulsa,"FX32+J7, Bukit HArapan (hti, Pangalasiang, Kec. Sojol, Kabupaten Donggala, Sulawesi Tengah","Kabupaten Donggala, Sulawesi Tengah",SULAWESI TENGAH,,Indonesia,,,,0.4541184,1.199.506.917,https://maps.google.com/?cid=0x0:0xa2d48be11f6ef179,
supermarket,Toko Pakaian,Dzakiyya Olshop,"CVRW+7WC, Pangalasiang, Kec. Sojol, Kabupaten Donggala, Sulawesi Tengah 94356","Pangalasiang, Kec. Sojol, Kabupaten Donggala",SULAWESI TENGAH,94356.0,Indonesia,85238957399,,,0.4406786,1.198.972.532,https://maps.google.com/?cid=0x0:0x4b155883a0821719,
supermarket,supermarket,Jaya kios,"CWQ4+753, Pangalasiang, Kec. Sojol, Kabupaten Donggala, Sulawesi Tengah 94356","Pangalasiang, Kec. Sojol, Kabupaten Donggala",SULAWESI TENGAH,94356.0,Indonesia,,,,0.4378124,1.199.058.631,https://maps.google.com/?cid=0x0:0xf0d31af204f0da4c,
supermarket,Toko Swalayan,Alfamidi Labuan,"8RFG+XC8, Labuan, Kec. Labuan, Kabupaten Donggala, Sulawesi Tengah 94353","Labuan, Kec. Labuan, Kabupaten Donggala",SULAWESI TENGAH,94353.0,Indonesia,,,,-0.675083,1.198.260.865,https://maps.google.com/?cid=0x0:0x4ecbce3980399ea3,
supermarket,Toko,Toko Mulia,"Jl. Hasanuddin, Boya, Kec. Banawa, Kabupaten Donggala, Sulawesi Tengah 94351","Boya, Kec. Banawa, Kabupaten Donggala",SULAWESI TENGAH,94351.0,Indonesia,83137231516,,,-0.6688045,1.197.437.035,https://maps.google.com/?cid=0x0:0x2f3305acd334de3,
supermarket,Minimarket,Alfamidi Donggala,"Jl. Lamarauna, Tj. Batu, Kec. Banawa, Kabupaten Donggala, Sulawesi Tengah 94351","Tj. Batu, Kec. Banawa, Kabupaten Donggala",SULAWESI TENGAH,94351.0,Indonesia,,,,-0.6694742,1.197.459.219,https://maps.google.com/?cid=0x0:0xbe4fab815a9b6620,
supermarket,supermarket,Kec. Labuan,"Kabupaten Donggala, Sulawesi Tengah","Kabupaten Donggala, Sulawesi Tengah",SULAWESI TENGAH,,Indonesia,,,,-0.6765394,1.198.261.606,https://maps.google.com/?cid=0x0:0xe761366f3760ef82,
supermarket,Minimarket,TOKO FIRA,"8RQM+XWC, Unnamed Road, Labuan Panimba, Labuan, Donggala Regency, Central Sulawesi 94353","Unnamed Road, Labuan Panimba, Labuan, Donggala Regency",SULAWESI TENGAH,94353.0,Indonesia,,,,-0.66007,1.198.347.549,https://maps.google.com/?cid=0x0:0x1aa97bb822cd5bd6,
supermarket,Toko umum,SINAR SOPPENG WANI 1,"Jln.sultan alaudin, desa wani 1,kabupaten Donggala, Pantoloan, Kec. Tawaeli, Kota Palu, Sulawesi Tengah 94352","desa wani 1,kabupaten Donggala, Pantoloan, Kec. Tawaeli, Kota Palu",SULAWESI TENGAH,94352.0,Indonesia,85352419872,,,-0.6927933,119.842.064,https://maps.google.com/?cid=0x0:0x5fd6860ab518fe6b,
supermarket,supermarket,Labuhan,"Kalanganyar, Kec. Labuan, Kabupaten Pandeglang, Banten","Kabupaten Pandeglang, Banten",SULAWESI TENGAH,,Indonesia,,,,-6.372.081,105.832.298,https://maps.google.com/?cid=0x0:0xb6b8c7fc89825364,
supermarket,Toko bahan makanan,Indomaret Labuan 1,"JRFH+C52, Labuan, Kec. Labuan, Kabupaten Pandeglang, Banten 42264","Labuan, Kec. Labuan, Kabupaten Pandeglang",SULAWESI TENGAH,42264.0,Indonesia,,,,-63.764.983,1.058.278.753,https://maps.google.com/?cid=0x0:0x6cc89dd16988cc4f,
supermarket,Minimarket,Alfamidi LABUAN,"JRHG+PHX, Teluk, Kec. Labuan, Kabupaten Pandeglang, Banten 42264","Teluk, Kec. Labuan, Kabupaten Pandeglang",SULAWESI TENGAH,42264.0,Indonesia,82312782270,,,-63.706.353,1.058.264.869,https://maps.google.com/?cid=0x0:0xae22947067f5ed14,
supermarket,Toko bahan makanan,Berkah Mart Labuan,"JRGH+V24, Kp. Masjid, Labuan, Kec. Labuan, Kabupaten Pandeglang, Banten 42264","Kp. Masjid, Labuan, Kec. Labuan, Kabupaten Pandeglang",SULAWESI TENGAH,42264.0,Indonesia,,,,-63.728.709,1.058.275.901,https://maps.google.com/?cid=0x0:0x95d945754c99fe65,
supermarket,Toko Perlengkapan Rumah,Toko Asoka Plastik  Sembako,"Jl. Raya Jend. Sudirman, Labuan, Kec. Labuan, Kabupaten Pandeglang, Banten 42264","Labuan, Kec. Labuan, Kabupaten Pandeglang",SULAWESI TENGAH,42264.0,Indonesia,8179814224,,,-63.755.355,1.058.263.013,https://maps.google.com/?cid=0x0:0x76fe7e3619686f5,
supermarket,Toko Swalayan,Toko Irsan/Irwan,"Jl. Jend. Ahmad Yani Kampung Sumur kopo No.96, Kalanganyar, Kec. Labuan, Kabupaten Pandeglang, Banten 42264","Kalanganyar, Kec. Labuan, Kabupaten Pandeglang",SULAWESI TENGAH,42264.0,Indonesia,81931929295,,,-63.733.946,1.058.311.961,https://maps.google.com/?cid=0x0:0xdda0c8d6425ebf6f,
supermarket,Toko Swalayan,Toko Dina Madura,"kampung sumur kopo rt 03/07 no 98, Kalanganyar, Kec. Labuan, Kabupaten Pandeglang, Banten 42264","Kalanganyar, Kec. Labuan, Kabupaten Pandeglang",SULAWESI TENGAH,42264.0,Indonesia,,,,-63.730.574,1.058.307.453,https://maps.google.com/?cid=0x0:0x2e6b17b4b8de55ee,
supermarket,Pusat Perbelanjaan,Depot Gas  Aqua Hasan Gas,"Jl. Raya Perintis Kemerdekaan No.3, Labuan, Kec. Labuan, Kabupaten Pandeglang, Banten 42264","Labuan, Kec. Labuan, Kabupaten Pandeglang",SULAWESI TENGAH,42264.0,Indonesia,85280345445,,,-63.732.454,1.058.268.812,https://maps.google.com/?cid=0x0:0x37d70cf5d6965211,
supermarket,Minimarket,INDOMARET SUMUR KOPO LABUAN,"JRGJ+GCQ, Kalanganyar, Kec. Labuan, Kabupaten Pandeglang, Banten 42264","Kalanganyar, Kec. Labuan, Kabupaten Pandeglang",SULAWESI TENGAH,42264.0,Indonesia,,,,-63.736.547,1.058.311.204,https://maps.google.com/?cid=0x0:0x3b62ffcda6123c03,
supermarket,Toko bahan makanan,Toko Hj Sri,"JRGF+3WV, Unnamed Road, Labuan, Kec. Labuan, Kabupaten Pandeglang, Banten 42264","Unnamed Road, Labuan, Kec. Labuan, Kabupaten Pandeglang",SULAWESI TENGAH,42264.0,Indonesia,87772081727,,,-63.747.722,1.058.247.954,https://maps.google.com/?cid=0x0:0x5ea3219bcd3c1bfb,
supermarket,Toko Swalayan,Toko Beni Labuan,"Jl. Raya Jend. Sudirman, Labuan, Kec. Labuan, Kabupaten Pandeglang, Banten 42264","Labuan, Kec. Labuan, Kabupaten Pandeglang",SULAWESI TENGAH,42264.0,Indonesia,,,,-63.755.601,1.058.263.413,https://maps.google.com/?cid=0x0:0x5db231d89989e32c,
supermarket,Minimarket,Alfamart LABUAN Mandiri,"Jl. Raya Jend. Sudirman, RT.01/RW.02, Labuan, Kec. Labuan, Kabupaten Pandeglang, Banten 42264","RT.01/RW.02, Labuan, Kec. Labuan, Kabupaten Pandeglang",SULAWESI TENGAH,42264.0,Indonesia,1500959,,,-63.764.857,1.058.277.232,https://maps.google.com/?cid=0x0:0xfd7f19e7d9caba93,
supermarket,Toko Kesehatan dan Kecantikan,Toko Sinar (Spirit Body Therapy),"JRGG+279, Jl. Raya Perintis Kemerdekaan, Labuan, Kec. Labuan, Kabupaten Pandeglang, Banten 42264","Jl. Raya Perintis Kemerdekaan, Labuan, Kec. Labuan, Kabupaten Pandeglang",SULAWESI TENGAH,42264.0,Indonesia,87871377772,,,-63.749.579,1.058.257.326,https://maps.google.com/?cid=0x0:0x5d4c9e6369107ecf,
supermarket,Toko Swalayan,Toko Ibu Eri,"kp. karabohong rt/rw 01/11 Des, Labuan, Kec. Labuan, Kabupaten Pandeglang, Banten 42264","Labuan, Kec. Labuan, Kabupaten Pandeglang",SULAWESI TENGAH,42264.0,Indonesia,,,,-63.805.403,1.058.353.422,https://maps.google.com/?cid=0x0:0xbdcfb9bbd8584f09,
supermarket,Toko makanan beku,Fitri Frozen Labuan,"pertigaan patung nelayan, Jl. Raya Perintis Kemerdekaan, Labuan, Kec. Labuan, Kabupaten Pandeglang, Banten 42264","Jl. Raya Perintis Kemerdekaan, Labuan, Kec. Labuan, Kabupaten Pandeglang",SULAWESI TENGAH,42264.0,Indonesia,81280481186,,,-63.722.007,1.058.282.271,https://maps.google.com/?cid=0x0:0x40392f45c8690725,
supermarket,Toko bahan makanan,Toko ASEP Ibu AI,"Jl. Jend. Ahmad Yani No.16, Kalanganyar, Kec. Labuan, Kabupaten Pandeglang, Banten 42264","Kalanganyar, Kec. Labuan, Kabupaten Pandeglang",SULAWESI TENGAH,42264.0,Indonesia,85958052337,,,-63.743.279,1.058.316.861,https://maps.google.com/?cid=0x0:0x53cf1c1dc27cc204,
supermarket,Kafe,Salah Bin Chicken Shop,"JRGG+QWQ, Labuan, Kec. Labuan, Kabupaten Pandeglang, Banten 42264","Labuan, Kec. Labuan, Kabupaten Pandeglang",SULAWESI TENGAH,42264.0,Indonesia,85960047276,,,-63.730.409,1.058.273.561,https://maps.google.com/?cid=0x0:0x2e89def6f033a065,
supermarket,Toko Swalayan,Toko Madura Bang Alim,"JRFH+RC4, Labuan, Kec. Labuan, Kabupaten Pandeglang, Banten 42264","Labuan, Kec. Labuan, Kabupaten Pandeglang",SULAWESI TENGAH,42264.0,Indonesia,,,,-63.754.811,105.828.573,https://maps.google.com/?cid=0x0:0x2a6972bea2fa0307,
supermarket,Toko bahan makanan,Toko Sembako H. Undang,"JRFG+M57, Labuan, Kec. Labuan, Kabupaten Pandeglang, Banten 42264","Labuan, Kec. Labuan, Kabupaten Pandeglang",SULAWESI TENGAH,42264.0,Indonesia,81911190128,,,-63.758.441,1.058.254.279,https://maps.google.com/?cid=0x0:0xaf1d987f11d55dd8,
supermarket,Toko grosir,Toko Ibu Yuyun,"JRHM+23C, Kp. Makui Tonggoh, Kalanganyar, Kec. Labuan, Kabupaten Pandeglang, Banten 42264","Kp. Makui Tonggoh, Kalanganyar, Kec. Labuan, Kabupaten Pandeglang",SULAWESI TENGAH,42264.0,Indonesia,8994142756,,,-63.724.276,10.583.264,https://maps.google.com/?cid=0x0:0xf1ff21140564f37b,
supermarket,Toko Swalayan,Indomart,"JRCM+3XG, Jl. Kh. Khalim, Kalanganyar, Kec. Labuan, Kabupaten Pandeglang, Banten 42264","Jl. Kh. Khalim, Kalanganyar, Kec. Labuan, Kabupaten Pandeglang",SULAWESI TENGAH,42264.0,Indonesia,,,,-63.798.177,105.834.951,https://maps.google.com/?cid=0x0:0x67579ace21ff23d5,
supermarket,supermarket,Sulawesi Tengah 94352,Sulawesi Tengah,Sulawesi Tengah,SULAWESI TENGAH,,Indonesia,,,,-0.7431556,1.199.856.157,https://maps.google.com/?cid=0x0:0x9958293db6b9e135,
supermarket,Toko Swalayan,Alfamidi Labuan,"8RFG+XC8, Labuan, Kec. Labuan, Kabupaten Donggala, Sulawesi Tengah 94353","Labuan, Kec. Labuan, Kabupaten Donggala",SULAWESI TENGAH,94353.0,Indonesia,,,,-0.675083,1.198.260.865,https://maps.google.com/?cid=0x0:0x4ecbce3980399ea3,
supermarket,Toko Swalayan,SAMAS Jaya Farm,"6VHR+868, Desa, Guntarano, Kec. Tanantovea, Kabupaten Donggala, Sulawesi Tengah 94141","Desa, Guntarano, Kec. Tanantovea, Kabupaten Donggala",SULAWESI TENGAH,94141.0,Indonesia,,,,-0.7717092,1.198.905.835,https://maps.google.com/?cid=0x0:0xb4c7e217a63b3f83,
supermarket,Toko umum,SINAR SOPPENG WANI 1,"Jln.sultan alaudin, desa wani 1,kabupaten Donggala, Pantoloan, Kec. Tawaeli, Kota Palu, Sulawesi Tengah 94352","desa wani 1,kabupaten Donggala, Pantoloan, Kec. Tawaeli, Kota Palu",SULAWESI TENGAH,94352.0,Indonesia,85352419872,,,-0.6927933,119.842.064,https://maps.google.com/?cid=0x0:0x5fd6860ab518fe6b,
supermarket,Sekolah Dasar,SDN 2 Labuan,"8RCH+X5V, Jl. Lamalagau, Kec. Labuan, Kabupaten Donggala, Sulawesi Tengah 94352","Jl. Lamalagau, Kec. Labuan, Kabupaten Donggala",SULAWESI TENGAH,94352.0,Indonesia,,,,-0.6775112,119.827.912,https://maps.google.com/?cid=0x0:0xea4e1129263610e4,
supermarket,Toserba,Zhafira Mart,"Donggala Kodi, Kec. Ulujadi, Kota Palu, Sulawesi Tengah 94111","Kec. Ulujadi, Kota Palu",SULAWESI TENGAH,94111.0,Indonesia,,,,-0.8978818,1.198.505.976,https://maps.google.com/?cid=0x0:0x619a5da9b6fc2354,
supermarket,Toko bahan makanan,Alfamidi Pantoloan,"7VR5+M93, Jl. Pengga Lembah, Pantoloan, Kec. Palu Utara, Kota Palu, Sulawesi Tengah 94352","Jl. Pengga Lembah, Pantoloan, Kec. Palu Utara, Kota Palu",SULAWESI TENGAH,94352.0,Indonesia,,,,-0.70836,1.198.584.317,https://maps.google.com/?cid=0x0:0x63df88ae6fc06fc,
supermarket,Pusat Perbelanjaan,Bumi Nyiur Swalayan,"Jl. Letjen Jl. S. Parman No.44 lt.3, Besusu Tengah, Palu Timur, Palu City, Central Sulawesi 94111","Besusu Tengah, Palu Timur, Palu City",SULAWESI TENGAH,94111.0,Indonesia,,,,-0.8886556,1.198.781.443,https://maps.google.com/?cid=0x0:0xc91b8a1d69958b17,
supermarket,Pusat Perbelanjaan,Hypermart Palu Grand Mall,"Jl. Diponegoro No.8A, Lere, Kec. Palu Bar., Kota Palu, Sulawesi Tengah 94221","Lere, Kec. Palu Bar., Kota Palu",SULAWESI TENGAH,94221.0,Indonesia,81312097422,,,-0.8837991,1.198.423.758,https://maps.google.com/?cid=0x0:0x9567cc1a06bb61e4,
supermarket,Toko,Cemara Swalayan,"Jl. Setia Budi No.36, Besusu Tengah, Kec. Palu Tim., Kota Palu, Sulawesi Tengah 94118","Besusu Tengah, Kec. Palu Tim., Kota Palu",SULAWESI TENGAH,94118.0,Indonesia,82129089434,,,-0.8889602,1.198.788.128,https://maps.google.com/?cid=0x0:0x4147d219667a4674,
supermarket,Kios,Toko Harapan Baru,"6M73+5FX, Tolongano, Kec. Banawa Sel., Kabupaten Donggala, Sulawesi Tengah","Kabupaten Donggala, Sulawesi Tengah",SULAWESI TENGAH,,Indonesia,,,,-0.7870163,1.196.537.417,https://maps.google.com/?cid=0x0:0xacfc8aac40b26330,
supermarket,Pasar,Kios Angga Tawaeli,"Jl. Trans Sulawesi No.16, Panau, Kec. Palu Utara, Kota Palu, Sulawesi Tengah 94352","Panau, Kec. Palu Utara, Kota Palu",SULAWESI TENGAH,94352.0,Indonesia,,,,-0.7378872,1.198.630.835,https://maps.google.com/?cid=0x0:0xa6bb8cf758248596,
supermarket,supermarket,Labuan,"87000, Labuan, Malaysia","Labuan, Malaysia",SULAWESI TENGAH,,Indonesia,,,,52.831.456,115.230.825,https://maps.google.com/?cid=0x0:0xc3d4051e24b4aa7c,
supermarket,Toko Swalayan,Labuan Supermarket,"Bandar Labuan, 87000 Labuan, Labuan Federal Territory, Malaysia",Labuan,SULAWESI TENGAH,87000.0,Indonesia,6087411798,,,52.786.497,1.152.423.736,https://maps.google.com/?cid=0x0:0xebb51c53e63a4bd4,
supermarket,Toko Swalayan,Utama Jaya Superstore,"Unnamed Road, Bandar Labuan, 87000 Labuan, Labuan Federal Territory, Malaysia",Labuan,SULAWESI TENGAH,87000.0,Indonesia,6087581788,,,52.805.974,1.152.408.461,https://maps.google.com/?cid=0x0:0x69a46436c79ff4e,
supermarket,Toko Swalayan,"HapHuat Superstore Sdn Bhd, Labuan","Lot 13-18 Court Light Ind Kampung Durian Tunjung, 87000, Labuan Federal Territory, Malaysia","Labuan, Labuan Federal Territory, Malaysia",SULAWESI TENGAH,,Indonesia,6087463778,,,53.251.639,1.152.309.937,https://maps.google.com/?cid=0x0:0x5ee6204be1a9b7c6,
supermarket,Toko Swalayan,Milimewa Superstore,"Bandar Labuan, 87000 Labuan, Labuan Federal Territory, Malaysia",Labuan,SULAWESI TENGAH,87000.0,Indonesia,,,,52.803.691,1.152.454.713,https://maps.google.com/?cid=0x0:0x57db010da2271b50,
supermarket,Hipermarket,Bataras Hypermarket Labuan,"SU3588, Kg. Batu Arang, 700, 87032 Labuan, Labuan Federal Territory, Malaysia",Labuan,SULAWESI TENGAH,87032.0,Indonesia,6087581508,,,52.945.907,1.152.414.627,https://maps.google.com/?cid=0x0:0xada22e1f3cc93058,
supermarket,Toko Swalayan,Emporium Labuan,"87000 Labuan, Labuan Federal Territory, Malaysia",Labuan,SULAWESI TENGAH,87000.0,Indonesia,6087424661,,,52.784.421,1.152.337.758,https://maps.google.com/?cid=0x0:0x34f499b2ee80df91,
supermarket,Toko Swalayan,Savemore Supermarket PLT,"704, 87000 Labuan, Labuan Federal Territory, Malaysia",Labuan,SULAWESI TENGAH,87000.0,Indonesia,60128925497,,,53.208.075,1.152.189.581,https://maps.google.com/?cid=0x0:0xee50c09f1d7278ea,
supermarket,Toko Swalayan,D One Mart,"Bandar labuan Bandar Labuan, 87000 Labuan, Wilayah Persekutuan Labuan, Malaysia",Labuan,SULAWESI TENGAH,87000.0,Indonesia,6087425850,,,52.795.942,1.152.451.724,https://maps.google.com/?cid=0x0:0xaf62cccb40814728,
supermarket,Toko bahan makanan,44 Superstore,"Bandar Labuan, 87000 Labuan, Labuan Federal Territory, Malaysia",Labuan,SULAWESI TENGAH,87000.0,Indonesia,,,,52.826.881,1.152.495.803,https://maps.google.com/?cid=0x0:0x19beb478a8e0efec,
supermarket,Toko Swalayan,ZMart Labuan Sdn Bhd,"lot 17 lusu plaza, 87000 Labuan, Wilayah Persekutuan Labuan, Malaysia",Labuan,SULAWESI TENGAH,87000.0,Indonesia,60105088577,,,53.399.139,1.152.323.545,https://maps.google.com/?cid=0x0:0x2db6daaae0d6340f,
supermarket,Toko bahan makanan,Layangan Superstore,"Taman Perumahan Layang-layangan, 87000 Labuan, Labuan Federal Territory, Malaysia",Labuan,SULAWESI TENGAH,87000.0,Indonesia,,,,53.322.315,1.151.953.967,https://maps.google.com/?cid=0x0:0x142300380192e7eb,
supermarket,Toko bahan makanan,Focus Mart Labuan,"Phase 1, Kampung Nagalang, Lot 48-51, Shop Office, Lazenda Nagalang Beach Residence, 707, 87000 Labuan, Labuan Federal Territory, Malaysia",Labuan,SULAWESI TENGAH,87000.0,Indonesia,60128181851,,,53.272.794,1.152.448.835,https://maps.google.com/?cid=0x0:0xd4a1e39fafb9a0b4,
supermarket,Toko bahan makanan,Kedai Ekonomi,"Victoria, 87000, Labuan Federal Territory, Malaysia","Labuan, Labuan Federal Territory, Malaysia",SULAWESI TENGAH,,Indonesia,60102002734,,,52.805.394,115.238.582,https://maps.google.com/?cid=0x0:0x91b099a3b2a7d840,
supermarket,Toko bahan makanan,Familymart,"Taman Mutiara, Kg. Sungai Bedaun, 87000, Labuan Federal Territory, Malaysia","Kg. Sungai Bedaun,",SULAWESI TENGAH,87000.0,Indonesia,,,,52.929.132,1.152.068.467,https://maps.google.com/?cid=0x0:0xb8e50f3f9049ae40,
supermarket,Toko Roti,New Chip Guan Econmart,"Ground Floor Taman Fulliwa, Jalan Ranca-Ranca, 87000, Labuan, Wilayah Persekutuan Labuan, Jalan Rancha - Rancha, 87000 Labuan, Wilayah Persekutuan Labuan, Malaysia",Labuan,SULAWESI TENGAH,87000.0,Indonesia,6087428782,,,53.031.765,1.152.332.219,https://maps.google.com/?cid=0x0:0x6161c76e3ba97c6c,
supermarket,Toko Swalayan,Layangan Shopper PLT,"703, 87000 Labuan, Labuan Federal Territory, Malaysia",Labuan,SULAWESI TENGAH,87000.0,Indonesia,,,,53.327.896,1.151.963.104,https://maps.google.com/?cid=0x0:0xd88a53c7e03af884,
supermarket,supermarket,Kec. Pinembani,"Kabupaten Donggala, Sulawesi Tengah","Kabupaten Donggala, Sulawesi Tengah",SULAWESI TENGAH,,Indonesia,,,,-1.072.272,1.197.022.938,https://maps.google.com/?cid=0x0:0x47dadddf8c1947ef,
supermarket,Toko umum,Kios Rian,"XVV6+68R, Unnamed Road, Bomba, Kec. Marawola, Kabupaten Sigi, Sulawesi Tengah 94362","Unnamed Road, Bomba, Kec. Marawola, Kabupaten Sigi",SULAWESI TENGAH,94362.0,Indonesia,,,,-10.068.846,1.198.607.714,https://maps.google.com/?cid=0x0:0x90ef5e622bde5a00,
supermarket,Toko bahan makanan,Kios Mama,"Rarampadende, Kec. Dolo Bar., Kabupaten Sigi, Sulawesi Tengah 94362","Kec. Dolo Bar., Kabupaten Sigi",SULAWESI TENGAH,94362.0,Indonesia,,,,-10.514.139,1.198.705.712,https://maps.google.com/?cid=0x0:0x47aebcb1c6fef148,
supermarket,Minimarket,Toko cahaya berkah,"XV6G+H79, Kaleke, Kec. Dolo Bar., Kabupaten Sigi, Sulawesi Tengah 94362","Kaleke, Kec. Dolo Bar., Kabupaten Sigi",SULAWESI TENGAH,94362.0,Indonesia,85242601986,,,-10.385.862,1.198.757.349,https://maps.google.com/?cid=0x0:0x8e72cf1ed0b274d5,
supermarket,Toko Swalayan,Kios Viffal,"Wisolo, Kec. Dolo Sel., Kabupaten Sigi, Sulawesi Tengah 94362","Kec. Dolo Sel., Kabupaten Sigi",SULAWESI TENGAH,94362.0,Indonesia,"8,9532E+11",,,-1.122.846,1.198.769.465,https://maps.google.com/?cid=0x0:0x197fdc433a6e3f49,
supermarket,Toko Swalayan,Kios Asilah,"WVMC+3Q2, Jl. Poros Palu Bangga, desa luku, Kec. Dolo Bar., Kabupaten Sigi, Sulawesi Tengah","Kabupaten Sigi, Sulawesi Tengah",SULAWESI TENGAH,,Indonesia,81354381138,,,-10.673.554,119.871.902,https://maps.google.com/?cid=0x0:0x3b8f06e7fd0c40fa,
supermarket,Minimarket,Kios alya,"2V6F+R8W, Jl. Poros Palu - Kulawi, Kotarindau, Kec. Dolo, Kabupaten Sigi, Sulawesi Tengah 94362","Jl. Poros Palu - Kulawi, Kotarindau, Kec. Dolo, Kabupaten Sigi",SULAWESI TENGAH,94362.0,Indonesia,,,,-0.988049,1.198.734.007,https://maps.google.com/?cid=0x0:0x6219727c97b6e2b7,
supermarket,Toko Swalayan,KIOS FAUZI,"2V7H+GWX, Kotarindau, Kec. Dolo, Kabupaten Sigi, Sulawesi Tengah 94362","Kotarindau, Kec. Dolo, Kabupaten Sigi",SULAWESI TENGAH,94362.0,Indonesia,81240764540,,,-0.9863165,1.198.799.264,https://maps.google.com/?cid=0x0:0x62c3fdf293a1b9f2,
supermarket,Toko umum,Pangkalan LPJ imran,"RGHM+6H9, Pakawa, Kec. Pasangkayu, Kab. Pasangkayu, Sulawesi Barat","Kab. Pasangkayu, Sulawesi Barat",SULAWESI TENGAH,,Indonesia,81241242242,,,-11.719.626,1.195.339.711,https://maps.google.com/?cid=0x0:0xfec25a8abad55043,
supermarket,Toko Swalayan,KIOS ALFIT,"XVPJ+64F, Tulo, Kec. Dolo, Kabupaten Sigi, Sulawesi Tengah 94362","Tulo, Kec. Dolo, Kabupaten Sigi",SULAWESI TENGAH,94362.0,Indonesia,,,,-10.144.456,1.198.803.068,https://maps.google.com/?cid=0x0:0xbc2b1b44bfb8349,
supermarket,supermarket,Rarampadende,"WVXC+979, Jl. Poros Palu Bangga, Rarampadende, Kec. Dolo Bar., Kabupaten Sigi, Sulawesi Tengah 94362","Jl. Poros Palu Bangga, Rarampadende, Kec. Dolo Bar., Kabupaten Sigi",SULAWESI TENGAH,94362.0,Indonesia,,,,-10.515.767,1.198.707.303,https://maps.google.com/?cid=0x0:0x9549627051723419,
supermarket,Pasar,Pasar Dombu,"2QQM+WWM, Dombu, Kec. Banawa Sel., Kabupaten Sigi, Sulawesi Tengah 94226","Dombu, Kec. Banawa Sel., Kabupaten Sigi",SULAWESI TENGAH,94226.0,Indonesia,,,,-0.9601522,1.197.847.917,https://maps.google.com/?cid=0x0:0xd50b85cb9b56504c,
supermarket,Toko Swalayan,Kios beby,"XV69+6M8, Jl. Poros Palu Bangga, Kaleke, Kec. Dolo Bar., Kabupaten Sigi, Sulawesi Tengah 94362","Jl. Poros Palu Bangga, Kaleke, Kec. Dolo Bar., Kabupaten Sigi",SULAWESI TENGAH,94362.0,Indonesia,82111709465,,,-10.394.669,1.198.692.182,https://maps.google.com/?cid=0x0:0x58d296134ab79a7d,
supermarket,Minimarket,Radja Online Market,"2V7H+3GQ, Unnamed Road, Kotarindau, Kec. Dolo, Kabupaten Sigi, Sulawesi Tengah 94362","Unnamed Road, Kotarindau, Kec. Dolo, Kabupaten Sigi",SULAWESI TENGAH,94362.0,Indonesia,82291541449,,,-0.9872762,1.198.788.511,https://maps.google.com/?cid=0x0:0x3dcd2efb41a9ddcf,
supermarket,Pasar,IRWAN KOPRA,"Jl. Poros Palu Bangga, Pewunu, Kec. Dolo Bar., Kabupaten Sigi, Sulawesi Tengah 94360","Pewunu, Kec. Dolo Bar., Kabupaten Sigi",SULAWESI TENGAH,94360.0,Indonesia,,,,-1.024.674,1.198.661.905,https://maps.google.com/?cid=0x0:0x89a76183202b1c22,
supermarket,Kios,Kios tiara,"WVPC+XJJ, Rarampadende, Kec. Dolo Bar., Kabupaten Sigi, Sulawesi Tengah 94362","Rarampadende, Kec. Dolo Bar., Kabupaten Sigi",SULAWESI TENGAH,94362.0,Indonesia,,,,-10.625.401,1.198.715.278,https://maps.google.com/?cid=0x0:0xb5ea6963715a018f,
supermarket,supermarket,Kios Munifa,"WV4C+8QX, Jl. Poros Palu Bangga, Bobo, Kec. Dolo Bar., Kabupaten Sigi, Sulawesi Tengah 94362","Jl. Poros Palu Bangga, Bobo, Kec. Dolo Bar., Kabupaten Sigi",SULAWESI TENGAH,94362.0,Indonesia,,,,-10.941.309,1.198.719.754,https://maps.google.com/?cid=0x0:0x580d066abf40e5b1,
supermarket,supermarket,Sulawesi Tengah 94362,Sulawesi Tengah,Sulawesi Tengah,SULAWESI TENGAH,,Indonesia,,,,-11.527.932,119.742.604,https://maps.google.com/?cid=0x0:0xfe92898e8bcefdb7,
supermarket,Toko bahan makanan,Toko Sahrul Rio Mukti,"PG54+CPR, Rio Mukti, Kec. Rio Pakava, Kabupaten Donggala, Sulawesi Tengah 94362","Rio Mukti, Kec. Rio Pakava, Kabupaten Donggala",SULAWESI TENGAH,94362.0,Indonesia,,,,-12.913.939,1.195.067.616,https://maps.google.com/?cid=0x0:0xf9a7cd09e1fb1198,
supermarket,Toko Swalayan,Seven Mart,"Jl. I Gusti Ngurah Rai No.77, Tawanjuka, Kec. Palu Sel., Kota Palu, Sulawesi Tengah 94111","Tawanjuka, Kec. Palu Sel., Kota Palu",SULAWESI TENGAH,94111.0,Indonesia,,,,-0.9227722,1.198.643.451,https://maps.google.com/?cid=0x0:0xf6f567a3e7ac003b,
supermarket,Toko Elektronik,TOKO PERABOTAN PAK KIRUN,"Polanto Jaya, Kec. Rio Pakava, Kabupaten Donggala, Sulawesi Tengah","Kabupaten Donggala, Sulawesi Tengah",SULAWESI TENGAH,,Indonesia,85240567838,,,-13.225.821,1.195.045.369,https://maps.google.com/?cid=0x0:0x31eb0ea6c3926c9c,
supermarket,Toko Swalayan,Swalayan Ganesha,"3VF4+3FW, Jl. Poros Palu Bangga, Palupi, Kec. Tatanga, Kota Palu, Sulawesi Tengah 94222","Jl. Poros Palu Bangga, Palupi, Kec. Tatanga, Kota Palu",SULAWESI TENGAH,94222.0,Indonesia,,,,-0.9272713,1.198.561.982,https://maps.google.com/?cid=0x0:0x84914685b537bd0f,
supermarket,Toko Swalayan,Swalayan Fitrah,"3VCW+JGM, Jl. Dewi Sartika, Birobuli Sel., Kec. Palu Sel., Kota Palu, Sulawesi Tengah 94235","Jl. Dewi Sartika, Birobuli Sel., Kec. Palu Sel., Kota Palu",SULAWESI TENGAH,94235.0,Indonesia,88896885977,,,-0.9284144,119.896.285,https://maps.google.com/?cid=0x0:0x58b75f29b110197f,
supermarket,Toko bahan makanan,Toko sumber murah rejeki,"MGH3+275, Polanto Jaya, Kec. Rio Pakava, Kota Palu, Sulawesi Tengah 94362","Polanto Jaya, Kec. Rio Pakava, Kota Palu",SULAWESI TENGAH,94362.0,Indonesia,82292034624,,,-13.224.789,1.195.032.461,https://maps.google.com/?cid=0x0:0x3ff63a685ed433c8,
supermarket,Toko umum,Kios Rian,"XVV6+68R, Unnamed Road, Bomba, Kec. Marawola, Kabupaten Sigi, Sulawesi Tengah 94362","Unnamed Road, Bomba, Kec. Marawola, Kabupaten Sigi",SULAWESI TENGAH,94362.0,Indonesia,,,,-10.068.846,1.198.607.714,https://maps.google.com/?cid=0x0:0x90ef5e622bde5a00,
supermarket,Toko bahan makanan,Toko Pancaran Kasih,"3VFM+VX3, Tatura Sel., Kec. Palu Sel., Kota Palu, Sulawesi Tengah 94235","Tatura Sel., Kec. Palu Sel., Kota Palu",SULAWESI TENGAH,94235.0,Indonesia,,,,-0.9253629,1.198.849.089,https://maps.google.com/?cid=0x0:0xe6f6b66ebb718a33,
supermarket,Toko Elektronik,Sandrya Com,"Jalan Bali, Polanto Jaya, Kec. Rio Pakava, Kabupaten Donggala, Sulawesi Tengah 94362","Polanto Jaya, Kec. Rio Pakava, Kabupaten Donggala",SULAWESI TENGAH,94362.0,Indonesia,,,,-13.261.088,119.499.356,https://maps.google.com/?cid=0x0:0xfcbec348d8fe2e45,
supermarket,Pasar,IRWAN KOPRA,"Jl. Poros Palu Bangga, Pewunu, Kec. Dolo Bar., Kabupaten Sigi, Sulawesi Tengah 94360","Pewunu, Kec. Dolo Bar., Kabupaten Sigi",SULAWESI TENGAH,94360.0,Indonesia,,,,-1.024.674,1.198.661.905,https://maps.google.com/?cid=0x0:0x89a76183202b1c22,
supermarket,Pasar,Gudang Aqua galon,"MFHW+8G7, Polanto Jaya, Kec. Rio Pakava, Kabupaten Donggala, Sulawesi Tengah 94362","Polanto Jaya, Kec. Rio Pakava, Kabupaten Donggala",SULAWESI TENGAH,94362.0,Indonesia,811451784,,,-1.321.714,1.194.962.869,https://maps.google.com/?cid=0x0:0x887b6441d8e8d334,
supermarket,Grosir Khusus Penganan,BANANI eReload,"Unnamed Road, Minti Makmur, Kec. Rio Pakava, Kabupaten Donggala, Sulawesi Tengah 94362","Minti Makmur, Kec. Rio Pakava, Kabupaten Donggala",SULAWESI TENGAH,94362.0,Indonesia,81252208588,,,-13.343.409,1.195.307.475,https://maps.google.com/?cid=0x0:0x7942395247f0d110,
supermarket,Sekolah menengah,pasar bonemarawa,"QH42+C69, Bonemarawa, Kec. Rio Pakava, Kabupaten Donggala, Sulawesi Tengah 94361","Bonemarawa, Kec. Rio Pakava, Kabupaten Donggala",SULAWESI TENGAH,94361.0,Indonesia,,,,-12.439.733,1.195.505.939,https://maps.google.com/?cid=0x0:0x5019296bc714638,
supermarket,Toko bahan makanan,Kios Afkar,"QHHX+92W, Pakava, Kec. Rio Pakava, Kabupaten Donggala, Sulawesi Tengah","Kabupaten Donggala, Sulawesi Tengah",SULAWESI TENGAH,,Indonesia,,,,-1.221.517,1.195.975.743,https://maps.google.com/?cid=0x0:0xf1710239eb3f615b,
supermarket,Toko bahan makanan,Toko RIFKAgrosir,"VWP5+3HC, Jl. Poros Palu - Kulawi, Sibowi, Kec. Tanambulava, Kabupaten Sigi, Sulawesi Tengah 94361","Jl. Poros Palu - Kulawi, Sibowi, Kec. Tanambulava, Kabupaten Sigi",SULAWESI TENGAH,94361.0,Indonesia,,,,-1.114.824,1.199.088.873,https://maps.google.com/?cid=0x0:0x4af776ab168c3eb6,
supermarket,Toko Swalayan,Grand Hero Swalayan,"Jl. Jenderal Basuki Rahmat No.31, Tatura Sel., Kec. Palu Sel., Kota Palu, Sulawesi Tengah 94111","Tatura Sel., Kec. Palu Sel., Kota Palu",SULAWESI TENGAH,94111.0,Indonesia,451481451,,,-0.9187004,1.198.796.472,https://maps.google.com/?cid=0x0:0xb9406a15fa1dd6dc,
supermarket,supermarket,Hj hayati,"MG7J+5VW, Minti Makmur, Kec. Rio Pakava, Kabupaten Donggala, Sulawesi Tengah 94362","Minti Makmur, Kec. Rio Pakava, Kabupaten Donggala",SULAWESI TENGAH,94362.0,Indonesia,,,,-13.370.202,1.195.322.153,https://maps.google.com/?cid=0x0:0xda2e61f29a61d543,
supermarket,Toko bahan makanan,Rizwar CELL,"3V54+578, Baliase, Kec. Marawola, Kabupaten Sigi, Sulawesi Tengah 94222","Baliase, Kec. Marawola, Kabupaten Sigi",SULAWESI TENGAH,94222.0,Indonesia,82195322191,,,-0.9420913,1.198.557.127,https://maps.google.com/?cid=0x0:0xc5692650fe160ba4,
supermarket,Toko bahan makanan,Amar 2 Mini Swalayan,"2VGJ+R6H, Jl. Habib Moh. Al-Jufri, Kabobona, Kec. Dolo, Kabupaten Sigi, Sulawesi Tengah 94361","Jl. Habib Moh. Al-Jufri, Kabobona, Kec. Dolo, Kabupaten Sigi",SULAWESI TENGAH,94361.0,Indonesia,,,,-0.9729444,1.198.806.131,https://maps.google.com/?cid=0x0:0x6cb1af0ed630f3fc,
supermarket,Toko,Swalayan Amar Palupi,"3VC4+9QJ, Palupi, Kec. Tatanga, Kota Palu, Sulawesi Tengah 94222","Palupi, Kec. Tatanga, Kota Palu",SULAWESI TENGAH,94222.0,Indonesia,,,,-0.9290282,1.198.568.866,https://maps.google.com/?cid=0x0:0xe8d8177a1b4e63a1,
supermarket,Toko bahan makanan,EMPAT MUTIARA,"MFHW+8F4, Polanto Jaya, Kec. Rio Pakava, Kabupaten Donggala, Sulawesi Tengah 94362","Polanto Jaya, Kec. Rio Pakava, Kabupaten Donggala",SULAWESI TENGAH,94362.0,Indonesia,81354976793,,,-13.217.408,1.194.961.898,https://maps.google.com/?cid=0x0:0xf69e63dabeff8d57,
supermarket,Toko,DevanShita Kios n Cell,"MFFW+PVF, Polanto Jaya, Kec. Rio Pakava, Kabupaten Donggala, Sulawesi Tengah 94362","Polanto Jaya, Kec. Rio Pakava, Kabupaten Donggala",SULAWESI TENGAH,94362.0,Indonesia,82290309065,,,-13.256.807,1.194.971.648,https://maps.google.com/?cid=0x0:0x3bdc930ae7553c15,
supermarket,Kios,Kios Indri,"3RFV+VQ8, Jl. Padan Jakaya, Pengawu, Kec. Palu Sel., Kota Palu, Sulawesi Tengah 94221","Jl. Padan Jakaya, Pengawu, Kec. Palu Sel., Kota Palu",SULAWESI TENGAH,94221.0,Indonesia,82188360003,,,-0.925343,1.198.444.637,https://maps.google.com/?cid=0x0:0x8090076962b06e2a,
supermarket,Pusat Perbelanjaan,Kios fikran (ff_store),"XW2V+667, Jl. Poros Palu-Palolo, Bora, Kec. Sigi Biromaru, Kabupaten Sigi, Sulawesi Tengah 94361","Jl. Poros Palu-Palolo, Bora, Kec. Sigi Biromaru, Kabupaten Sigi",SULAWESI TENGAH,94361.0,Indonesia,82188449305,,,-10.494.748,1.199.430.332,https://maps.google.com/?cid=0x0:0xc78f754a52051236,
supermarket,supermarket,Kec. Rio Pakava,"Kabupaten Donggala, Sulawesi Tengah","Kabupaten Donggala, Sulawesi Tengah",SULAWESI TENGAH,,Indonesia,,,,-13.341.336,1.195.275.249,https://maps.google.com/?cid=0x0:0x14ea44bfafeedd5c,
supermarket,Minimarket,KIOS WAHYU,"MGQP+F53, Polando Jaya, Kec. Rio Pakava, Kabupaten Donggala, Sulawesi Tengah 94362","Polando Jaya, Kec. Rio Pakava, Kabupaten Donggala",SULAWESI TENGAH,94362.0,Indonesia,,,,-13.113.527,1.195.354.346,https://maps.google.com/?cid=0x0:0x900c4efa61338942,
supermarket,Toko bahan makanan,TOKO SASA,"Unnamed Road, Minti Makmur, Kec. Rio Pakava, Kabupaten Donggala, Sulawesi Tengah 94362","Minti Makmur, Kec. Rio Pakava, Kabupaten Donggala",SULAWESI TENGAH,94362.0,Indonesia,82259514916,,,-13.306.097,1.195.275.111,https://maps.google.com/?cid=0x0:0x281628d888714e7e,
supermarket,Sekolah Dasar,SDN 4 RIO PAKAVA,"PH27+MF2, Lalundu, Kec. Rio Pakava, Kabupaten Donggala, Sulawesi Tengah 94362","Lalundu, Kec. Rio Pakava, Kabupaten Donggala",SULAWESI TENGAH,94362.0,Indonesia,,,,-12.983.573,1.195.636.483,https://maps.google.com/?cid=0x0:0xce1a499e3831a046,
supermarket,supermarket,Kec. Sindue,"Kabupaten Donggala, Sulawesi Tengah","Kabupaten Donggala, Sulawesi Tengah",SULAWESI TENGAH,,Indonesia,,,,-0.6019749,119.798.096,https://maps.google.com/?cid=0x0:0xb966d820671bea77,
supermarket,Pasar tradisional,Pasar Induk Sindue,"9QWV+X8G, Toaya, Kec. Sindue, Kabupaten Donggala, Sulawesi Tengah 94353","Toaya, Kec. Sindue, Kabupaten Donggala",SULAWESI TENGAH,94353.0,Indonesia,,,,-0.6025562,1.197.933.266,https://maps.google.com/?cid=0x0:0x156e743600d469f6,
supermarket,Toko bahan makanan,Sinar Ceng Ceng,"Jl. Pettalolo No.48, Boya, Kec. Banawa, Kabupaten Donggala, Sulawesi Tengah 94351","Boya, Kec. Banawa, Kabupaten Donggala",SULAWESI TENGAH,94351.0,Indonesia,4577020039,,,-0.6677252,119.742.938,https://maps.google.com/?cid=0x0:0x3baa24d319b39f6e,
supermarket,Toko,Toko Mulia,"Jl. Hasanuddin, Boya, Kec. Banawa, Kabupaten Donggala, Sulawesi Tengah 94351","Boya, Kec. Banawa, Kabupaten Donggala",SULAWESI TENGAH,94351.0,Indonesia,83137231516,,,-0.6688045,1.197.437.035,https://maps.google.com/?cid=0x0:0x2f3305acd334de3,
supermarket,Toko Swalayan,Toko Grace,"8PMV+7V6, Boya, Kec. Banawa, Kabupaten Donggala, Sulawesi Tengah","Kabupaten Donggala, Sulawesi Tengah",SULAWESI TENGAH,,Indonesia,,,,-0.6668424,1.197.446.493,https://maps.google.com/?cid=0x0:0xdbe02d171e66ddb9,
supermarket,Toko Swalayan,Alfamidi Labuan,"8RFG+XC8, Labuan, Kec. Labuan, Kabupaten Donggala, Sulawesi Tengah 94353","Labuan, Kec. Labuan, Kabupaten Donggala",SULAWESI TENGAH,94353.0,Indonesia,,,,-0.675083,1.198.260.865,https://maps.google.com/?cid=0x0:0x4ecbce3980399ea3,
supermarket,Nasi,Rono Dange Kambarogo Lero Tatari,"Lero Tatari, Kec. Sindue, Kabupaten Donggala, Sulawesi Tengah","Kabupaten Donggala, Sulawesi Tengah",SULAWESI TENGAH,,Indonesia,,,,-0.6351303,119.809.903,https://maps.google.com/?cid=0x0:0x2082fe5af851f152,
supermarket,Sekolah,SDN 6 SINDUE,"9QXX+XH6, Jl.Tandiabe, Toaya, Kec. Sindue, Kabupaten Donggala, Sulawesi Tengah 94353","Jl.Tandiabe, Toaya, Kec. Sindue, Kabupaten Donggala",SULAWESI TENGAH,94353.0,Indonesia,85398849832,,,-0.6000955,1.197.988.858,https://maps.google.com/?cid=0x0:0x3bb489abc145da3c,
supermarket,supermarket,Kios Rail,"9R97+2R9, Lero Tatari, Kec. Sindue, Kabupaten Donggala, Sulawesi Tengah","Kabupaten Donggala, Sulawesi Tengah",SULAWESI TENGAH,,Indonesia,,,,-0.6324557,1.198.146.049,https://maps.google.com/?cid=0x0:0xa027bb65f834de95,
supermarket,Toko,Kios FtwoA,"CVMP+8WM, Taripa, Kec. Sindue, Kabupaten Donggala, Sulawesi Tengah","Kabupaten Donggala, Sulawesi Tengah",SULAWESI TENGAH,,Indonesia,82333550720,,,-0.5666746,1.198.873.054,https://maps.google.com/?cid=0x0:0xb349eba0218032e3,
supermarket,Sekolah Dasar,SDN 8 SINDUE,"Jl. Pendidikan No.17, Masaingi, Kec. Sindue, Kabupaten Donggala, Sulawesi Tengah 94353","Masaingi, Kec. Sindue, Kabupaten Donggala",SULAWESI TENGAH,94353.0,Indonesia,,,,-0.5836946,1.197.941.095,https://maps.google.com/?cid=0x0:0x64eef82d0028e26f,
supermarket,Toko,Kios M Bulan,"FQW8+MHP, Tibo, Kec. Sindue Tombusabora, Kabupaten Donggala, Sulawesi Tengah 94353","Tibo, Kec. Sindue Tombusabora, Kabupaten Donggala",SULAWESI TENGAH,94353.0,Indonesia,,,,-0.503287,1.197.664.675,https://maps.google.com/?cid=0x0:0x9f50f6a4fd9aab38,
supermarket,Pemasok Es,Penjual es batu,"9RF5+HFP, Lero, Kec. Sindue, Kabupaten Donggala, Sulawesi Tengah","Kabupaten Donggala, Sulawesi Tengah",SULAWESI TENGAH,,Indonesia,81362517411,,,-0.6260778,1.198.089.247,https://maps.google.com/?cid=0x0:0x3afd3ab5f7f535de,
supermarket,Pusat Perbelanjaan,Enhyy Febrianii Nasa,"9QXW+WW5, Unnamed Road, Toaya, Kec. Sindue, Kabupaten Donggala, Sulawesi Tengah 94353","Unnamed Road, Toaya, Kec. Sindue, Kabupaten Donggala",SULAWESI TENGAH,94353.0,Indonesia,"8,81355E+11",,,-0.6002402,1.197.973.556,https://maps.google.com/?cid=0x0:0xf5b41709ef7de3bb,
supermarket,Minimarket,Kios Rina,"GQ48+69C, Tibo, Kec. Sindue Tombusabora, Kabupaten Donggala, Sulawesi Tengah 94353","Tibo, Kec. Sindue Tombusabora, Kabupaten Donggala",SULAWESI TENGAH,94353.0,Indonesia,,,,-0.4944323,1.197.659.057,https://maps.google.com/?cid=0x0:0x26e35a3a3a554a78,
supermarket,supermarket,Lapak Sayur Mafaz,"9QWX+F9M, Toaya, Kec. Sindue, Kabupaten Donggala, Sulawesi Tengah","Kabupaten Donggala, Sulawesi Tengah",SULAWESI TENGAH,,Indonesia,85299374388,,,-0.6037796,1.197.984.252,https://maps.google.com/?cid=0x0:0xc9a2a3a08176383e,
supermarket,Kompleks Kondominium,Lero pabre,"9RF5+HFP, Lero, Kec. Sindue, Kabupaten Donggala, Sulawesi Tengah","Kabupaten Donggala, Sulawesi Tengah",SULAWESI TENGAH,,Indonesia,,,,-0.6261472,1.198.090.152,https://maps.google.com/?cid=0x0:0xebcf3231354af0ec,
supermarket,Minimarket,TOKO FIRA,"8RQM+XWC, Unnamed Road, Labuan Panimba, Labuan, Donggala Regency, Central Sulawesi 94353","Unnamed Road, Labuan Panimba, Labuan, Donggala Regency",SULAWESI TENGAH,94353.0,Indonesia,,,,-0.66007,1.198.347.549,https://maps.google.com/?cid=0x0:0x1aa97bb822cd5bd6,
supermarket,Kios,Kios dua putra,"9R7Q+4V, Labuan Toposo, Kec. Labuan, Kabupaten Donggala, Sulawesi Tengah","Kabupaten Donggala, Sulawesi Tengah",SULAWESI TENGAH,,Indonesia,,,,-0.637167,119.839.737,https://maps.google.com/?cid=0x0:0x3fed7c997b7e18e2,
supermarket,Sekolah menengah,SMA NEGERI 1 SINDUE,"Jl. UDKP Toaya, Sindue, Toaya Vunta, Kec. Sindue, Kabupaten Donggala, Sulawesi Tengah 94353","Sindue, Toaya Vunta, Kec. Sindue, Kabupaten Donggala",SULAWESI TENGAH,94353.0,Indonesia,,,,-0.6040955,1.198.014.441,https://maps.google.com/?cid=0x0:0x245a41382841fedb,
supermarket,Kios,Kios sanger,"8RQ9+PH5, Labuan Salumbone, Kec. Labuan, Kabupaten Donggala, Sulawesi Tengah 94353","Labuan Salumbone, Kec. Labuan, Kabupaten Donggala",SULAWESI TENGAH,94353.0,Indonesia,82192978866,,,-0.660749,1.198.189.707,https://maps.google.com/?cid=0x0:0x6de9cc0a9c5b2260,
supermarket,supermarket,Sulawesi Tengah 94353,"Kabupaten Donggala, Sulawesi Tengah","Kabupaten Donggala, Sulawesi Tengah",SULAWESI TENGAH,,Indonesia,,,,-0.488912,1.198.352.303,https://maps.google.com/?cid=0x0:0xf435d84490586123,
supermarket,Pasar tradisional,Pasar Induk Sindue,"9QWV+X8G, Toaya, Kec. Sindue, Kabupaten Donggala, Sulawesi Tengah 94353","Toaya, Kec. Sindue, Kabupaten Donggala",SULAWESI TENGAH,94353.0,Indonesia,,,,-0.6025562,1.197.933.266,https://maps.google.com/?cid=0x0:0x156e743600d469f6,
supermarket,Toko,Kios Sinar dagang Mutiara,"HRM4+H67, Tamarenja, Kec. Sindue Tobata, Kabupaten Donggala, Sulawesi Tengah 94353","Tamarenja, Kec. Sindue Tobata, Kabupaten Donggala",SULAWESI TENGAH,94353.0,Indonesia,,,,-0.4161782,1.198.055.682,https://maps.google.com/?cid=0x0:0xef6fe21a9cd9451d,
supermarket,Toko,Nahdlatul Khairaat Mart,"8R8J+HQ6, Jl. Tolitoli - Palu, Labuan, Kec. Labuan, Kabupaten Donggala, Sulawesi Tengah 94352","Jl. Tolitoli - Palu, Labuan, Kec. Labuan, Kabupaten Donggala",SULAWESI TENGAH,94352.0,Indonesia,,,,-0.6835814,1.198.319.048,https://maps.google.com/?cid=0x0:0xe5973a71a7df4eec,
supermarket,Minimarket,Kios Rina,"GQ48+69C, Tibo, Kec. Sindue Tombusabora, Kabupaten Donggala, Sulawesi Tengah 94353","Tibo, Kec. Sindue Tombusabora, Kabupaten Donggala",SULAWESI TENGAH,94353.0,Indonesia,,,,-0.4944323,1.197.659.057,https://maps.google.com/?cid=0x0:0x26e35a3a3a554a78,
supermarket,Kantor Perusahaan,"Donggala,sojol,pangalasiang","HRGP+M3H, Tamarenja, Kec. Sindue Tobata, Kabupaten Donggala, Sulawesi Tengah","Kabupaten Donggala, Sulawesi Tengah",SULAWESI TENGAH,,Indonesia,,,,-0.4233155,1.198.352.303,https://maps.google.com/?cid=0x0:0x2461417b083e1f13,
supermarket,Toko,Kios FtwoA,"CVMP+8WM, Taripa, Kec. Sindue, Kabupaten Donggala, Sulawesi Tengah","Kabupaten Donggala, Sulawesi Tengah",SULAWESI TENGAH,,Indonesia,82333550720,,,-0.5666746,1.198.873.054,https://maps.google.com/?cid=0x0:0xb349eba0218032e3,
supermarket,Toko,Kios M Bulan,"FQW8+MHP, Tibo, Kec. Sindue Tombusabora, Kabupaten Donggala, Sulawesi Tengah 94353","Tibo, Kec. Sindue Tombusabora, Kabupaten Donggala",SULAWESI TENGAH,94353.0,Indonesia,,,,-0.503287,1.197.664.675,https://maps.google.com/?cid=0x0:0x9f50f6a4fd9aab38,
supermarket,Toko,Toko Mulia,"Jl. Hasanuddin, Boya, Kec. Banawa, Kabupaten Donggala, Sulawesi Tengah 94351","Boya, Kec. Banawa, Kabupaten Donggala",SULAWESI TENGAH,94351.0,Indonesia,83137231516,,,-0.6688045,1.197.437.035,https://maps.google.com/?cid=0x0:0x2f3305acd334de3,
supermarket,Toko Swalayan,Alfamidi Labuan,"8RFG+XC8, Labuan, Kec. Labuan, Kabupaten Donggala, Sulawesi Tengah 94353","Labuan, Kec. Labuan, Kabupaten Donggala",SULAWESI TENGAH,94353.0,Indonesia,,,,-0.675083,1.198.260.865,https://maps.google.com/?cid=0x0:0x4ecbce3980399ea3,
supermarket,Toko bahan makanan,Warung Roma,"HQ69+VJ, Batusuya, Kec. Sindue Tombusabora, Kabupaten Donggala, Sulawesi Tengah 94353","Batusuya, Kec. Sindue Tombusabora, Kabupaten Donggala",SULAWESI TENGAH,94353.0,Indonesia,,,,-0.4377939,1.197.690.562,https://maps.google.com/?cid=0x0:0xebcf3f0f6f319913,
supermarket,Kompleks Kondominium,Lero pabre,"9RF5+HFP, Lero, Kec. Sindue, Kabupaten Donggala, Sulawesi Tengah","Kabupaten Donggala, Sulawesi Tengah",SULAWESI TENGAH,,Indonesia,,,,-0.6261472,1.198.090.152,https://maps.google.com/?cid=0x0:0xebcf3231354af0ec,
supermarket,Pusat Perbelanjaan,Enhyy Febrianii Nasa,"9QXW+WW5, Unnamed Road, Toaya, Kec. Sindue, Kabupaten Donggala, Sulawesi Tengah 94353","Unnamed Road, Toaya, Kec. Sindue, Kabupaten Donggala",SULAWESI TENGAH,94353.0,Indonesia,"8,81355E+11",,,-0.6002402,1.197.973.556,https://maps.google.com/?cid=0x0:0xf5b41709ef7de3bb,
supermarket,Minimarket,TOKO FIRA,"8RQM+XWC, Unnamed Road, Labuan Panimba, Labuan, Donggala Regency, Central Sulawesi 94353","Unnamed Road, Labuan Panimba, Labuan, Donggala Regency",SULAWESI TENGAH,94353.0,Indonesia,,,,-0.66007,1.198.347.549,https://maps.google.com/?cid=0x0:0x1aa97bb822cd5bd6,
supermarket,Pemasok Es,Penjual es batu,"9RF5+HFP, Lero, Kec. Sindue, Kabupaten Donggala, Sulawesi Tengah","Kabupaten Donggala, Sulawesi Tengah",SULAWESI TENGAH,,Indonesia,81362517411,,,-0.6260778,1.198.089.247,https://maps.google.com/?cid=0x0:0x3afd3ab5f7f535de,
supermarket,Minimarket,Alfamidi Donggala,"Jl. Lamarauna, Tj. Batu, Kec. Banawa, Kabupaten Donggala, Sulawesi Tengah 94351","Tj. Batu, Kec. Banawa, Kabupaten Donggala",SULAWESI TENGAH,94351.0,Indonesia,,,,-0.6694742,1.197.459.219,https://maps.google.com/?cid=0x0:0xbe4fab815a9b6620,
supermarket,Toko Swalayan,Toko Grace,"8PMV+7V6, Boya, Kec. Banawa, Kabupaten Donggala, Sulawesi Tengah","Kabupaten Donggala, Sulawesi Tengah",SULAWESI TENGAH,,Indonesia,,,,-0.6668424,1.197.446.493,https://maps.google.com/?cid=0x0:0xdbe02d171e66ddb9,
supermarket,Toko umum,SINAR SOPPENG WANI 1,"Jln.sultan alaudin, desa wani 1,kabupaten Donggala, Pantoloan, Kec. Tawaeli, Kota Palu, Sulawesi Tengah 94352","desa wani 1,kabupaten Donggala, Pantoloan, Kec. Tawaeli, Kota Palu",SULAWESI TENGAH,94352.0,Indonesia,85352419872,,,-0.6927933,119.842.064,https://maps.google.com/?cid=0x0:0x5fd6860ab518fe6b,
supermarket,supermarket,Lapak Sayur Mafaz,"9QWX+F9M, Toaya, Kec. Sindue, Kabupaten Donggala, Sulawesi Tengah","Kabupaten Donggala, Sulawesi Tengah",SULAWESI TENGAH,,Indonesia,85299374388,,,-0.6037796,1.197.984.252,https://maps.google.com/?cid=0x0:0xc9a2a3a08176383e,
supermarket,Minimarket,Smart,"8R6Q+373, Jl. Tolitoli - Palu, Wani Dua, Kec. Tanantovea, Kabupaten Donggala, Sulawesi Tengah 94352","Jl. Tolitoli - Palu, Wani Dua, Kec. Tanantovea, Kabupaten Donggala",SULAWESI TENGAH,94352.0,Indonesia,,,,-0.6898569,1.198.381.632,https://maps.google.com/?cid=0x0:0xf4894f4b959ae06d,
supermarket,supermarket,Kios Rail,"9R97+2R9, Lero Tatari, Kec. Sindue, Kabupaten Donggala, Sulawesi Tengah","Kabupaten Donggala, Sulawesi Tengah",SULAWESI TENGAH,,Indonesia,,,,-0.6324557,1.198.146.049,https://maps.google.com/?cid=0x0:0xa027bb65f834de95,
supermarket,Toko bahan makanan,Alfamidi Pantoloan,"7VR5+M93, Jl. Pengga Lembah, Pantoloan, Kec. Palu Utara, Kota Palu, Sulawesi Tengah 94352","Jl. Pengga Lembah, Pantoloan, Kec. Palu Utara, Kota Palu",SULAWESI TENGAH,94352.0,Indonesia,,,,-0.70836,1.198.584.317,https://maps.google.com/?cid=0x0:0x63df88ae6fc06fc,
supermarket,supermarket,Tiga Putri,"HRJ4+V9X, Tamarenja, Kec. Sindue Tobata, Kabupaten Donggala, Sulawesi Tengah 94353","Tamarenja, Kec. Sindue Tobata, Kabupaten Donggala",SULAWESI TENGAH,94353.0,Indonesia,,,,-0.4177584,1.198.059.973,https://maps.google.com/?cid=0x0:0x26f49aa0efa71e7b,
supermarket,Minimarket,Toko Hoki,"depan masjid Al-istiqomah, Jln. Trans Sulawesi, Labuan Lelea, Kec. Labuan, Kabupaten Donggala, Sulawesi Tengah","Kabupaten Donggala, Sulawesi Tengah",SULAWESI TENGAH,,Indonesia,81242458924,,,-0.6856013,1.198.333.298,https://maps.google.com/?cid=0x0:0x2063a97775609f84,
supermarket,supermarket,Kios Pintar,"8R8J+FV4, Labuan Lelea, Kec. Labuan, Kabupaten Donggala, Sulawesi Tengah 94352","Labuan Lelea, Kec. Labuan, Kabupaten Donggala",SULAWESI TENGAH,94352.0,Indonesia,82291279426,,,-0.6838677,119.832.211,https://maps.google.com/?cid=0x0:0xbaeacee251041a7b,
supermarket,Toko bahan makanan,Lapak sayur barokah,"Jl.Lantigau Jl. Tolitoli - Palu No.56, Labuan, Kec. Labuan, Kabupaten Donggala, Sulawesi Tengah","Kabupaten Donggala, Sulawesi Tengah",SULAWESI TENGAH,,Indonesia,,,,-0.6773912,1.198.263.664,https://maps.google.com/?cid=0x0:0xd1dc962c160b52c8,
supermarket,supermarket,Sulawesi Tengah 94353,"Kabupaten Donggala, Sulawesi Tengah","Kabupaten Donggala, Sulawesi Tengah",SULAWESI TENGAH,,Indonesia,,,,-0.488912,1.198.352.303,https://maps.google.com/?cid=0x0:0xf435d84490586123,
supermarket,Toko bahan makanan,Sinar Ceng Ceng,"Jl. Pettalolo No.48, Boya, Kec. Banawa, Kabupaten Donggala, Sulawesi Tengah 94351","Boya, Kec. Banawa, Kabupaten Donggala",SULAWESI TENGAH,94351.0,Indonesia,4577020039,,,-0.6677252,119.742.938,https://maps.google.com/?cid=0x0:0x3baa24d319b39f6e,
supermarket,Toko,Toko Mulia,"Jl. Hasanuddin, Boya, Kec. Banawa, Kabupaten Donggala, Sulawesi Tengah 94351","Boya, Kec. Banawa, Kabupaten Donggala",SULAWESI TENGAH,94351.0,Indonesia,83137231516,,,-0.6688045,1.197.437.035,https://maps.google.com/?cid=0x0:0x2f3305acd334de3,
supermarket,Toko Swalayan,Alfamidi Labuan,"8RFG+XC8, Labuan, Kec. Labuan, Kabupaten Donggala, Sulawesi Tengah 94353","Labuan, Kec. Labuan, Kabupaten Donggala",SULAWESI TENGAH,94353.0,Indonesia,,,,-0.675083,1.198.260.865,https://maps.google.com/?cid=0x0:0x4ecbce3980399ea3,
supermarket,Sekolah,SDN 8 SINDUE TOMBUSABORA,"HQX8+X45, Batusuya Go'o, Kec. Sindue Tombusabora, Kabupaten Donggala, Sulawesi Tengah 94353","Batusuya Go'o, Kec. Sindue Tombusabora, Kabupaten Donggala",SULAWESI TENGAH,94353.0,Indonesia,,,,-0.4001008,1.197.653.503,https://maps.google.com/?cid=0x0:0xbe869e3ab8105840,
supermarket,Sekolah,SDN 1 SINDUE TOMBUSABORA,"HQP7+94C, Batusuya, Kec. Sindue Tombusabora, Kabupaten Donggala, Sulawesi Tengah 94353","Batusuya, Kec. Sindue Tombusabora, Kabupaten Donggala",SULAWESI TENGAH,94353.0,Indonesia,,,,-0.4140597,1.197.627.783,https://maps.google.com/?cid=0x0:0x4b5d5b59e28ed6bf,
supermarket,Toko Swalayan,Toko Grace,"8PMV+7V6, Boya, Kec. Banawa, Kabupaten Donggala, Sulawesi Tengah","Kabupaten Donggala, Sulawesi Tengah",SULAWESI TENGAH,,Indonesia,,,,-0.6668424,1.197.446.493,https://maps.google.com/?cid=0x0:0xdbe02d171e66ddb9,
supermarket,Sekolah,SDN 10 SINDUE TOMBUSABORA,"HQP8+486, Batusuya, Kec. Sindue Tombusabora, Kabupaten Donggala, Sulawesi Tengah","Kabupaten Donggala, Sulawesi Tengah",SULAWESI TENGAH,,Indonesia,,,,-0.4147215,1.197.657.565,https://maps.google.com/?cid=0x0:0xbd6ba9be144ccfef,
supermarket,Sekolah Dasar,SDN 11 sindue tombusabora,"GR89+24X, Tibo, Kec. Sindue Tombusabora, Kabupaten Donggala, Sulawesi Tengah","Kabupaten Donggala, Sulawesi Tengah",SULAWESI TENGAH,,Indonesia,,,,-0.4848928,1.198.178.676,https://maps.google.com/?cid=0x0:0xf7a89ae517a40003,
supermarket,Minimarket,Alfamidi Donggala,"Jl. Lamarauna, Tj. Batu, Kec. Banawa, Kabupaten Donggala, Sulawesi Tengah 94351","Tj. Batu, Kec. Banawa, Kabupaten Donggala",SULAWESI TENGAH,94351.0,Indonesia,,,,-0.6694742,1.197.459.219,https://maps.google.com/?cid=0x0:0xbe4fab815a9b6620,
supermarket,Toko umum,SINAR SOPPENG WANI 1,"Jln.sultan alaudin, desa wani 1,kabupaten Donggala, Pantoloan, Kec. Tawaeli, Kota Palu, Sulawesi Tengah 94352","desa wani 1,kabupaten Donggala, Pantoloan, Kec. Tawaeli, Kota Palu",SULAWESI TENGAH,94352.0,Indonesia,85352419872,,,-0.6927933,119.842.064,https://maps.google.com/?cid=0x0:0x5fd6860ab518fe6b,
supermarket,Sekolah,SDN 6 SINDUE,"9QXX+XH6, Jl.Tandiabe, Toaya, Kec. Sindue, Kabupaten Donggala, Sulawesi Tengah 94353","Jl.Tandiabe, Toaya, Kec. Sindue, Kabupaten Donggala",SULAWESI TENGAH,94353.0,Indonesia,85398849832,,,-0.6000955,1.197.988.858,https://maps.google.com/?cid=0x0:0x3bb489abc145da3c,
supermarket,supermarket,Kios Rail,"9R97+2R9, Lero Tatari, Kec. Sindue, Kabupaten Donggala, Sulawesi Tengah","Kabupaten Donggala, Sulawesi Tengah",SULAWESI TENGAH,,Indonesia,,,,-0.6324557,1.198.146.049,https://maps.google.com/?cid=0x0:0xa027bb65f834de95,
supermarket,supermarket,Pasar Tibo,"GQ5F+R6V, Unnamed Road, Tibo, Kec. Sindue Tombusabora, Kabupaten Donggala, Sulawesi Tengah 94353","Unnamed Road, Tibo, Kec. Sindue Tombusabora, Kabupaten Donggala",SULAWESI TENGAH,94353.0,Indonesia,,,,-0.4903937,1.197.730.464,https://maps.google.com/?cid=0x0:0xbb273830dfa66e85,
supermarket,supermarket,Kios Pintar,"8R8J+FV4, Labuan Lelea, Kec. Labuan, Kabupaten Donggala, Sulawesi Tengah 94352","Labuan Lelea, Kec. Labuan, Kabupaten Donggala",SULAWESI TENGAH,94352.0,Indonesia,82291279426,,,-0.6838677,119.832.211,https://maps.google.com/?cid=0x0:0xbaeacee251041a7b,
supermarket,Toko,Kios M Bulan,"FQW8+MHP, Tibo, Kec. Sindue Tombusabora, Kabupaten Donggala, Sulawesi Tengah 94353","Tibo, Kec. Sindue Tombusabora, Kabupaten Donggala",SULAWESI TENGAH,94353.0,Indonesia,,,,-0.503287,1.197.664.675,https://maps.google.com/?cid=0x0:0x9f50f6a4fd9aab38,
supermarket,Pasar tradisional,Pasar Induk Sindue,"9QWV+X8G, Toaya, Kec. Sindue, Kabupaten Donggala, Sulawesi Tengah 94353","Toaya, Kec. Sindue, Kabupaten Donggala",SULAWESI TENGAH,94353.0,Indonesia,,,,-0.6025562,1.197.933.266,https://maps.google.com/?cid=0x0:0x156e743600d469f6,
supermarket,Toko,Kios Sinar dagang Mutiara,"HRM4+H67, Tamarenja, Kec. Sindue Tobata, Kabupaten Donggala, Sulawesi Tengah 94353","Tamarenja, Kec. Sindue Tobata, Kabupaten Donggala",SULAWESI TENGAH,94353.0,Indonesia,,,,-0.4161782,1.198.055.682,https://maps.google.com/?cid=0x0:0xef6fe21a9cd9451d,
supermarket,Minimarket,Kios Rina,"GQ48+69C, Tibo, Kec. Sindue Tombusabora, Kabupaten Donggala, Sulawesi Tengah 94353","Tibo, Kec. Sindue Tombusabora, Kabupaten Donggala",SULAWESI TENGAH,94353.0,Indonesia,,,,-0.4944323,1.197.659.057,https://maps.google.com/?cid=0x0:0x26e35a3a3a554a78,
supermarket,Toko bahan makanan,Warung Roma,"HQ69+VJ, Batusuya, Kec. Sindue Tombusabora, Kabupaten Donggala, Sulawesi Tengah 94353","Batusuya, Kec. Sindue Tombusabora, Kabupaten Donggala",SULAWESI TENGAH,94353.0,Indonesia,,,,-0.4377939,1.197.690.562,https://maps.google.com/?cid=0x0:0xebcf3f0f6f319913,
supermarket,Minimarket,TOKO FIRA,"8RQM+XWC, Unnamed Road, Labuan Panimba, Labuan, Donggala Regency, Central Sulawesi 94353","Unnamed Road, Labuan Panimba, Labuan, Donggala Regency",SULAWESI TENGAH,94353.0,Indonesia,,,,-0.66007,1.198.347.549,https://maps.google.com/?cid=0x0:0x1aa97bb822cd5bd6,
supermarket,Toko,Kios FtwoA,"CVMP+8WM, Taripa, Kec. Sindue, Kabupaten Donggala, Sulawesi Tengah","Kabupaten Donggala, Sulawesi Tengah",SULAWESI TENGAH,,Indonesia,82333550720,,,-0.5666746,1.198.873.054,https://maps.google.com/?cid=0x0:0xb349eba0218032e3,
supermarket,Toko,Nahdlatul Khairaat Mart,"8R8J+HQ6, Jl. Tolitoli - Palu, Labuan, Kec. Labuan, Kabupaten Donggala, Sulawesi Tengah 94352","Jl. Tolitoli - Palu, Labuan, Kec. Labuan, Kabupaten Donggala",SULAWESI TENGAH,94352.0,Indonesia,,,,-0.6835814,1.198.319.048,https://maps.google.com/?cid=0x0:0xe5973a71a7df4eec,
supermarket,Pusat Perbelanjaan,Enhyy Febrianii Nasa,"9QXW+WW5, Unnamed Road, Toaya, Kec. Sindue, Kabupaten Donggala, Sulawesi Tengah 94353","Unnamed Road, Toaya, Kec. Sindue, Kabupaten Donggala",SULAWESI TENGAH,94353.0,Indonesia,"8,81355E+11",,,-0.6002402,1.197.973.556,https://maps.google.com/?cid=0x0:0xf5b41709ef7de3bb,
supermarket,Kompleks Kondominium,Lero pabre,"9RF5+HFP, Lero, Kec. Sindue, Kabupaten Donggala, Sulawesi Tengah","Kabupaten Donggala, Sulawesi Tengah",SULAWESI TENGAH,,Indonesia,,,,-0.6261472,1.198.090.152,https://maps.google.com/?cid=0x0:0xebcf3231354af0ec,
supermarket,Kantor Perusahaan,"Donggala,sojol,pangalasiang","HRGP+M3H, Tamarenja, Kec. Sindue Tobata, Kabupaten Donggala, Sulawesi Tengah","Kabupaten Donggala, Sulawesi Tengah",SULAWESI TENGAH,,Indonesia,,,,-0.4233155,1.198.352.303,https://maps.google.com/?cid=0x0:0x2461417b083e1f13,
supermarket,Pemasok Es,Penjual es batu,"9RF5+HFP, Lero, Kec. Sindue, Kabupaten Donggala, Sulawesi Tengah","Kabupaten Donggala, Sulawesi Tengah",SULAWESI TENGAH,,Indonesia,81362517411,,,-0.6260778,1.198.089.247,https://maps.google.com/?cid=0x0:0x3afd3ab5f7f535de,
supermarket,Minimarket,Smart,"8R6Q+373, Jl. Tolitoli - Palu, Wani Dua, Kec. Tanantovea, Kabupaten Donggala, Sulawesi Tengah 94352","Jl. Tolitoli - Palu, Wani Dua, Kec. Tanantovea, Kabupaten Donggala",SULAWESI TENGAH,94352.0,Indonesia,,,,-0.6898569,1.198.381.632,https://maps.google.com/?cid=0x0:0xf4894f4b959ae06d,
supermarket,Minimarket,Toko Hoki,"depan masjid Al-istiqomah, Jln. Trans Sulawesi, Labuan Lelea, Kec. Labuan, Kabupaten Donggala, Sulawesi Tengah","Kabupaten Donggala, Sulawesi Tengah",SULAWESI TENGAH,,Indonesia,81242458924,,,-0.6856013,1.198.333.298,https://maps.google.com/?cid=0x0:0x2063a97775609f84,
supermarket,supermarket,Sulawesi Tengah 94354,"Kec. Sirenja, Kabupaten Donggala, Sulawesi Tengah","Kabupaten Donggala, Sulawesi Tengah",SULAWESI TENGAH,,Indonesia,,,,-0.2924986,1.198.352.303,https://maps.google.com/?cid=0x0:0x51f61779e987a6a,
supermarket,Toko,Toko isna,"QQ3W+8XJ, Unnamed Road, Dampal, Kec. Sirenja, Kabupaten Donggala, Sulawesi Tengah 94354","Unnamed Road, Dampal, Kec. Sirenja, Kabupaten Donggala",SULAWESI TENGAH,94354.0,Indonesia,,,,-0.2466616,1.197.973.771,https://maps.google.com/?cid=0x0:0x54c92879228d1134,
supermarket,Toko,WARUNG KITA SEMUA,"RR2H+FHQ, Lompio, Kec. Sirenja, Kabupaten Donggala, Sulawesi Tengah 94354","Lompio, Kec. Sirenja, Kabupaten Donggala",SULAWESI TENGAH,94354.0,Indonesia,,,,-0.1987784,1.198.289.816,https://maps.google.com/?cid=0x0:0xa75566ddff13116,
supermarket,Toko,Kios Humaira,"Jl. Tolitoli - Palu No.28, Tj. Padang, Kec. Sirenja, Kabupaten Donggala, Sulawesi Tengah 94354","Tj. Padang, Kec. Sirenja, Kabupaten Donggala",SULAWESI TENGAH,94354.0,Indonesia,,,,-0.2316058,1.198.033.838,https://maps.google.com/?cid=0x0:0x504a7138a2cf90f6,
supermarket,Toko bahan makanan,Kios M. Rezky,"QR8F+MMH, Sipi, Kec. Sirenja, Kabupaten Donggala, Sulawesi Tengah 94354","Sipi, Kec. Sirenja, Kabupaten Donggala",SULAWESI TENGAH,94354.0,Indonesia,82213497956,,,-0.233259,1.198.255.732,https://maps.google.com/?cid=0x0:0x4394ab955f1317a0,
supermarket,Kios,KIOS INDHA XENZA PALOMA,"QR94+5GJ, Tj. Padang, Kec. Sirenja, Kabupaten Donggala, Sulawesi Tengah 94354","Tj. Padang, Kec. Sirenja, Kabupaten Donggala",SULAWESI TENGAH,94354.0,Indonesia,,,,-0.2320358,1.198.062.524,https://maps.google.com/?cid=0x0:0x2ed499f861bb9600,
supermarket,Kios,Kios Medica 28,"QR83+VWJ, Tj. Padang, Kec. Sirenja, Kabupaten Donggala, Sulawesi Tengah 94354","Tj. Padang, Kec. Sirenja, Kabupaten Donggala",SULAWESI TENGAH,94354.0,Indonesia,82196012829,,,-0.2327818,1.198.047.608,https://maps.google.com/?cid=0x0:0xd26f253509399576,
supermarket,Tujuan Wisata,Mustika Pantai Payapi,"Jl Trans Sulawesi, Tompe, Kec. Sirenja, Kabupaten Donggala, Sulawesi Tengah 94354","Tompe, Kec. Sirenja, Kabupaten Donggala",SULAWESI TENGAH,94354.0,Indonesia,85253948599,,,-0.2033982,1.198.144.363,https://maps.google.com/?cid=0x0:0x2e0bb4b25b420b4e,
supermarket,Toko bahan makanan,Toko/Kios Mama Ayu,"QR7F+QJC, Sipi, Kec. Sirenja, Kabupaten Donggala, Sulawesi Tengah","Kabupaten Donggala, Sulawesi Tengah",SULAWESI TENGAH,,Indonesia,,,,-0.2355541,1.198.240.022,https://maps.google.com/?cid=0x0:0x94dbb08e125376a7,
supermarket,supermarket,Sulawesi Tengah 94356,"Kabupaten Donggala, Sulawesi Tengah","Kabupaten Donggala, Sulawesi Tengah",SULAWESI TENGAH,,Indonesia,,,,0.3571796,1.200.202.964,https://maps.google.com/?cid=0x0:0x35d848f8a4662f0d,
supermarket,Toko,Toko Baru,"P4RG+CWF, Ogoamas I, Kec. Sojol Utara, Kabupaten Donggala, Sulawesi Tengah","Kabupaten Donggala, Sulawesi Tengah",SULAWESI TENGAH,,Indonesia,,,,0.7410534,1.201.272.992,https://maps.google.com/?cid=0x0:0x57b6f67039376164,
supermarket,Toko bahan makanan,Toko LUTFIA,"P4RG+737, Ogoamas II, Kec. Sojol Utara, Kabupaten Donggala, Sulawesi Tengah","Kabupaten Donggala, Sulawesi Tengah",SULAWESI TENGAH,,Indonesia,81243262778,,,0.7406744,1.201.251.779,https://maps.google.com/?cid=0x0:0x581df9c4ed09ff21,
supermarket,Toko umum,Toko Mega Buana,"P4RF+3QV, Ogoamas II, Kec. Sojol Utara, Kabupaten Donggala, Sulawesi Tengah","Kabupaten Donggala, Sulawesi Tengah",SULAWESI TENGAH,,Indonesia,82192631999,,,0.7402371,1.201.244.321,https://maps.google.com/?cid=0x0:0x2438fe98e94269b8,
supermarket,Minimarket,Alfa Midi Sioyong,"6V8X+HQM, Sioyong, Kec. Damsol, Kabupaten Donggala, Sulawesi Tengah","Kabupaten Donggala, Sulawesi Tengah",SULAWESI TENGAH,,Indonesia,,,,0.2164565,1.198.994.374,https://maps.google.com/?cid=0x0:0x8a8f4a700d018634,
supermarket,Toko umum,Toko MUIZ,"H2CX+HXM, Balukang II, Kec. Sojol, Kabupaten Donggala, Sulawesi Tengah 94356","Balukang II, Kec. Sojol, Kabupaten Donggala",SULAWESI TENGAH,94356.0,Indonesia,82296544691,,,0.5714512,1.200.499.138,https://maps.google.com/?cid=0x0:0x8167b6931ba2567,
supermarket,Kios,Kios Farel,"6WP4+9F8, Desa, Ponggerang, Kec. Damsol, Kabupaten Donggala, Sulawesi Tengah 94356","Desa, Ponggerang, Kec. Damsol, Kabupaten Donggala",SULAWESI TENGAH,94356.0,Indonesia,,,,0.2359046,1.199.062.111,https://maps.google.com/?cid=0x0:0xa97ee3ab6252515e,
supermarket,Toko Swalayan,Monikha Cell,"7W82+823, Jl. Tolitoli - Palu, Malonas, Kec. Damsol, Kabupaten Donggala, Sulawesi Tengah 94356","Jl. Tolitoli - Palu, Malonas, Kec. Damsol, Kabupaten Donggala",SULAWESI TENGAH,94356.0,Indonesia,82189110456,,,0.2657657,1.199.000.586,https://maps.google.com/?cid=0x0:0x7fefbd76d26b0628,
supermarket,Toko umum,kios dewi,"9W37+43J, Lemba Mukti, Kec. Damsol, Kabupaten Donggala, Sulawesi Tengah 94356","Lemba Mukti, Kec. Damsol, Kabupaten Donggala",SULAWESI TENGAH,94356.0,Indonesia,,,,0.3528302,1.199.126.307,https://maps.google.com/?cid=0x0:0xb285b3f7811ec714,
supermarket,Toko Swalayan,Nikmah Swalayan,"CWV2+746, Jl. Tolitoli - Palu, Pangalasiang, Kec. Sojol, Kabupaten Donggala, Sulawesi Tengah 94356","Jl. Tolitoli - Palu, Pangalasiang, Kec. Sojol, Kabupaten Donggala",SULAWESI TENGAH,94356.0,Indonesia,85102437400,,,0.4431588,1.199.002.665,https://maps.google.com/?cid=0x0:0x2b224f1da4b6a9aa,
supermarket,,Kios Mawan,"M24F+GJ2, Bou, Kec. Sojol, Kabupaten Donggala, Sulawesi Tengah 94356","Bou, Kec. Sojol, Kabupaten Donggala",SULAWESI TENGAH,94356.0,Indonesia,,,,0.6562605,1.200.240.144,https://maps.google.com/?cid=0x0:0x9be02baf1473aab4,
supermarket,Toko umum,Kios M Salsa,"H3R5+7QG, Balukang, Kec. Sojol, Kabupaten Donggala, Sulawesi Tengah 94356","Balukang, Kec. Sojol, Kabupaten Donggala",SULAWESI TENGAH,94356.0,Indonesia,,,,0.5906754,1.200.594.589,https://maps.google.com/?cid=0x0:0x40736f7e4472a98b,
supermarket,Kios,KIOS SOFIA,"4V7M+4Q, Malino, Kec. Balaesang, Kabupaten Donggala, Sulawesi Tengah 94356","Malino, Kec. Balaesang, Kabupaten Donggala",SULAWESI TENGAH,94356.0,Indonesia,,,,0.112827,119.884.464,https://maps.google.com/?cid=0x0:0x37159a5155ac1894,
supermarket,Toko Pakaian,Dzakiyya Olshop,"CVRW+7WC, Pangalasiang, Kec. Sojol, Kabupaten Donggala, Sulawesi Tengah 94356","Pangalasiang, Kec. Sojol, Kabupaten Donggala",SULAWESI TENGAH,94356.0,Indonesia,85238957399,,,0.4406786,1.198.972.532,https://maps.google.com/?cid=0x0:0x4b155883a0821719,
supermarket,Pusat Perbelanjaan,PASAR TRADISIONAL DESA SIBOANG,"F2WM+Q2M, Siboang, Kec. Sojol, Kabupaten Donggala, Sulawesi Tengah 94356","Siboang, Kec. Sojol, Kabupaten Donggala",SULAWESI TENGAH,94356.0,Indonesia,,,,0.4969708,1.200.325.481,https://maps.google.com/?cid=0x0:0x2145913e0f53b9ad,
supermarket,Toko bahan makanan,Kios 2F,"P4JP+2GX, Ogoamas I, Kec. Sojol Utara, Kabupaten Donggala, Sulawesi Tengah 94356","Ogoamas I, Kec. Sojol Utara, Kabupaten Donggala",SULAWESI TENGAH,94356.0,Indonesia,,,,0.7301125,1.201.363.594,https://maps.google.com/?cid=0x0:0xe74219228dc61ecd,
supermarket,Kios,Pasar Sioyong,"6V8W+2H5, Sioyong, Kec. Damsol, Kabupaten Donggala, Sulawesi Tengah 94356","Sioyong, Kec. Damsol, Kabupaten Donggala",SULAWESI TENGAH,94356.0,Indonesia,,,,0.2150091,1.198.964.837,https://maps.google.com/?cid=0x0:0x5e0403f09b699da4,
supermarket,Toko,Kios Ratu,"H2FX+9C4, Balukang II, Kec. Sojol, Kabupaten Donggala, Sulawesi Tengah 94356","Balukang II, Kec. Sojol, Kabupaten Donggala",SULAWESI TENGAH,94356.0,Indonesia,,,,0.5733941,1.200.485.783,https://maps.google.com/?cid=0x0:0xcb92c00e433915e1,
supermarket,Toko,Kios sembako pulsa,"FX32+J7, Bukit HArapan (hti, Pangalasiang, Kec. Sojol, Kabupaten Donggala, Sulawesi Tengah","Kabupaten Donggala, Sulawesi Tengah",SULAWESI TENGAH,,Indonesia,,,,0.4541184,1.199.506.917,https://maps.google.com/?cid=0x0:0xa2d48be11f6ef179,
supermarket,Pusat Perbelanjaan,E-warong Asrianti,"G3C9+GRG, Siwalempu, Kec. Sojol, Kabupaten Donggala, Sulawesi Tengah 94356","Siwalempu, Kec. Sojol, Kabupaten Donggala",SULAWESI TENGAH,94356.0,Indonesia,,,,0.5213157,1.200.695.709,https://maps.google.com/?cid=0x0:0x3d31057c9dbe318f,
supermarket,Toko umum,Alfamidi Ogoamas,"P4RH+WR9, Ogoamas I, Kec. Sojol Utara, Kabupaten Donggala, Sulawesi Tengah","Kabupaten Donggala, Sulawesi Tengah",SULAWESI TENGAH,,Indonesia,,,,0.7422865,1.201.296.117,https://maps.google.com/?cid=0x0:0xc620b83d0920e22a,
supermarket,Toko bahan makanan,Ks Andika Sipayo,"54H9+HQJ, Sipayo, Kec. Tinombo, Kabupaten Parigi Moutong, Sulawesi Tengah 94475","Sipayo, Kec. Tinombo, Kabupaten Parigi Moutong",SULAWESI TENGAH,94475.0,Indonesia,,,,0.1789641,1.201.193.904,https://maps.google.com/?cid=0x0:0x53aa438169826a7,
supermarket,supermarket,Kec. Sojol Utara,"Kabupaten Donggala, Sulawesi Tengah","Kabupaten Donggala, Sulawesi Tengah",SULAWESI TENGAH,,Indonesia,,,,0.7421584,120.129.098,https://maps.google.com/?cid=0x0:0xe78ec5bb19f7cd50,
supermarket,Toko,Toko Baru,"P4RG+CWF, Ogoamas I, Kec. Sojol Utara, Kabupaten Donggala, Sulawesi Tengah","Kabupaten Donggala, Sulawesi Tengah",SULAWESI TENGAH,,Indonesia,,,,0.7410534,1.201.272.992,https://maps.google.com/?cid=0x0:0x57b6f67039376164,
supermarket,Toko umum,Toko Mega Buana,"P4RF+3QV, Ogoamas II, Kec. Sojol Utara, Kabupaten Donggala, Sulawesi Tengah","Kabupaten Donggala, Sulawesi Tengah",SULAWESI TENGAH,,Indonesia,82192631999,,,0.7402371,1.201.244.321,https://maps.google.com/?cid=0x0:0x2438fe98e94269b8,
supermarket,Toko bahan makanan,Toko LUTFIA,"P4RG+737, Ogoamas II, Kec. Sojol Utara, Kabupaten Donggala, Sulawesi Tengah","Kabupaten Donggala, Sulawesi Tengah",SULAWESI TENGAH,,Indonesia,81243262778,,,0.7406744,1.201.251.779,https://maps.google.com/?cid=0x0:0x581df9c4ed09ff21,
supermarket,Toko umum,Alfamidi Ogoamas,"P4RH+WR9, Ogoamas I, Kec. Sojol Utara, Kabupaten Donggala, Sulawesi Tengah","Kabupaten Donggala, Sulawesi Tengah",SULAWESI TENGAH,,Indonesia,,,,0.7422865,1.201.296.117,https://maps.google.com/?cid=0x0:0xc620b83d0920e22a,
supermarket,Toko bahan makanan,Kios Rifki,"P4CW+5CC, Jl. Gn. Sojol, Ogoamas I, Kec. Sojol Utara, Kabupaten Donggala, Sulawesi Tengah","Kabupaten Donggala, Sulawesi Tengah",SULAWESI TENGAH,,Indonesia,,,,0.720621,12.014.553,https://maps.google.com/?cid=0x0:0xae24644e0daa9139,
supermarket,Toko bahan makanan,Kios jumardin,"P4R7+2PF, Ogoamas II, Kec. Sojol Utara, Kabupaten Donggala, Sulawesi Tengah","Kabupaten Donggala, Sulawesi Tengah",SULAWESI TENGAH,,Indonesia,,,,0.7400743,1.201.142.834,https://maps.google.com/?cid=0x0:0xec33aeff87ea0895,
supermarket,Toko bahan makanan,Kios 2F,"P4JP+2GX, Ogoamas I, Kec. Sojol Utara, Kabupaten Donggala, Sulawesi Tengah 94356","Ogoamas I, Kec. Sojol Utara, Kabupaten Donggala",SULAWESI TENGAH,94356.0,Indonesia,,,,0.7301125,1.201.363.594,https://maps.google.com/?cid=0x0:0xe74219228dc61ecd,
supermarket,Toko bahan makanan,Kios Jumardin tandaiyo,"M4VF+3PF, Ogoamas II, Kec. Sojol Utara, Kabupaten Donggala, Sulawesi Tengah","Kabupaten Donggala, Sulawesi Tengah",SULAWESI TENGAH,,Indonesia,,,,0.6926878,1.201.242.853,https://maps.google.com/?cid=0x0:0x84bc30e21ea6cdae,
supermarket,Kios,Usaha bersama pengelolaan ikan,"P4RG+C36, Jl. Nelayan, Ogoamas I, Kec. Sojol Utara, Kabupaten Donggala, Sulawesi Tengah","Kabupaten Donggala, Sulawesi Tengah",SULAWESI TENGAH,,Indonesia,,,,0.7410382,1.201.251.477,https://maps.google.com/?cid=0x0:0xb99cea6e6739065b,
supermarket,supermarket,Sulawesi Tengah 94352,Sulawesi Tengah,Sulawesi Tengah,SULAWESI TENGAH,,Indonesia,,,,-0.7431556,1.199.856.157,https://maps.google.com/?cid=0x0:0x9958293db6b9e135,
supermarket,Toko umum,SINAR SOPPENG WANI 1,"Jln.sultan alaudin, desa wani 1,kabupaten Donggala, Pantoloan, Kec. Tawaeli, Kota Palu, Sulawesi Tengah 94352","desa wani 1,kabupaten Donggala, Pantoloan, Kec. Tawaeli, Kota Palu",SULAWESI TENGAH,94352.0,Indonesia,85352419872,,,-0.6927933,119.842.064,https://maps.google.com/?cid=0x0:0x5fd6860ab518fe6b,
supermarket,Minimarket,Smart,"8R6Q+373, Jl. Tolitoli - Palu, Wani Dua, Kec. Tanantovea, Kabupaten Donggala, Sulawesi Tengah 94352","Jl. Tolitoli - Palu, Wani Dua, Kec. Tanantovea, Kabupaten Donggala",SULAWESI TENGAH,94352.0,Indonesia,,,,-0.6898569,1.198.381.632,https://maps.google.com/?cid=0x0:0xf4894f4b959ae06d,
supermarket,Toko bahan makanan,Alfamidi Pantoloan,"7VR5+M93, Jl. Pengga Lembah, Pantoloan, Kec. Palu Utara, Kota Palu, Sulawesi Tengah 94352","Jl. Pengga Lembah, Pantoloan, Kec. Palu Utara, Kota Palu",SULAWESI TENGAH,94352.0,Indonesia,,,,-0.70836,1.198.584.317,https://maps.google.com/?cid=0x0:0x63df88ae6fc06fc,
supermarket,Pasar,Kios Angga Tawaeli,"Jl. Trans Sulawesi No.16, Panau, Kec. Palu Utara, Kota Palu, Sulawesi Tengah 94352","Panau, Kec. Palu Utara, Kota Palu",SULAWESI TENGAH,94352.0,Indonesia,,,,-0.7378872,1.198.630.835,https://maps.google.com/?cid=0x0:0xa6bb8cf758248596,
supermarket,Komplek perumahan,Banuaku,"6W4P+5H, Bale, Kec. Tanantovea, Kabupaten Donggala, Sulawesi Tengah","Kabupaten Donggala, Sulawesi Tengah",SULAWESI TENGAH,,Indonesia,,,,-0.7946145,1.199.364.074,https://maps.google.com/?cid=0x0:0xa2888f255df68fa0,
supermarket,Toko Swalayan,Seven Mart,"Jl. I Gusti Ngurah Rai No.77, Tawanjuka, Kec. Palu Sel., Kota Palu, Sulawesi Tengah 94111","Tawanjuka, Kec. Palu Sel., Kota Palu",SULAWESI TENGAH,94111.0,Indonesia,,,,-0.9227722,1.198.643.451,https://maps.google.com/?cid=0x0:0xf6f567a3e7ac003b,
supermarket,Grosir Buah,Agro Buah Pantoloan,"8V6F+F3X, Wombo Panau, Kec. Tanantovea, Kabupaten Donggala, Sulawesi Tengah 94352","Wombo Panau, Kec. Tanantovea, Kabupaten Donggala",SULAWESI TENGAH,94352.0,Indonesia,81354229955,,,-0.6887747,1.198.727.274,https://maps.google.com/?cid=0x0:0x32766ee36ae7cf0f,
supermarket,Toko Swalayan,SAMAS Jaya Farm,"6VHR+868, Desa, Guntarano, Kec. Tanantovea, Kabupaten Donggala, Sulawesi Tengah 94141","Desa, Guntarano, Kec. Tanantovea, Kabupaten Donggala",SULAWESI TENGAH,94141.0,Indonesia,,,,-0.7717092,1.198.905.835,https://maps.google.com/?cid=0x0:0xb4c7e217a63b3f83,
supermarket,Minimarket,Mitra Mart,"Jl. Tolitoli - Palu, Baiya, Kec. Tawaeli, Kota Palu, Sulawesi Tengah 94352","Baiya, Kec. Tawaeli, Kota Palu",SULAWESI TENGAH,94352.0,Indonesia,,,,-0.7291729,1.198.635.335,https://maps.google.com/?cid=0x0:0xa3198fc5855f8870,
supermarket,Toko bahan makanan,BNSmart Mamboro,"6V5F+JF2, Jl. Trans Sulawesi No.153, Mamboro, Kec. Palu Utara, Kota Palu, Sulawesi Tengah 94145","Jl. Trans Sulawesi No.153, Mamboro, Kec. Palu Utara, Kota Palu",SULAWESI TENGAH,94145.0,Indonesia,451491717,,,-0.7914351,1.198.735.981,https://maps.google.com/?cid=0x0:0xcede7461983c3db2,
supermarket,Restoran,MOUZA SUPERMART,"5V2J+8XX, Tondo, Kec. Mantikulore, Kota Palu, Sulawesi Tengah 94115","Tondo, Kec. Mantikulore, Kota Palu",SULAWESI TENGAH,94115.0,Indonesia,,,,-0.8491459,1.198.824.698,https://maps.google.com/?cid=0x0:0xf998cdfd03a27695,
supermarket,Pusat Perbelanjaan,Hypermart Palu Grand Mall,"Jl. Diponegoro No.8A, Lere, Kec. Palu Bar., Kota Palu, Sulawesi Tengah 94221","Lere, Kec. Palu Bar., Kota Palu",SULAWESI TENGAH,94221.0,Indonesia,81312097422,,,-0.8837991,1.198.423.758,https://maps.google.com/?cid=0x0:0x9567cc1a06bb61e4,
supermarket,Toko Swalayan,STRAWBERRY JUMBO KEBUN KOPI,"7XGV+QCH, Jl. Parigi - Palu, Nupa Bomba, Kec. Tanantovea, Kabupaten Donggala, Sulawesi Tengah 94352","Jl. Parigi - Palu, Nupa Bomba, Kec. Tanantovea, Kabupaten Donggala",SULAWESI TENGAH,94352.0,Indonesia,,,,-0.7230515,1.199.935.936,https://maps.google.com/?cid=0x0:0xf2157a541a269292,
supermarket,Toko bahan makanan,BNSmart Tondo,"5V5M+PC7, Jl. RE Martadinata I, Tondo, Kec. Mantikulore, Kota Palu, Sulawesi Tengah 94148","Jl. RE Martadinata I, Tondo, Kec. Mantikulore, Kota Palu",SULAWESI TENGAH,94148.0,Indonesia,451425017,,,-0.8407176,1.198.835.519,https://maps.google.com/?cid=0x0:0xddf2f6b1b687b40e,
supermarket,Toko bahan makanan,BNSmart Lagarutu,"Jl. Dayodara, Talise, Kec. Palu Tim., Kota Palu, Sulawesi Tengah 94118","Talise, Kec. Palu Tim., Kota Palu",SULAWESI TENGAH,94118.0,Indonesia,4514130323,,,-0.8863406,1.198.902.882,https://maps.google.com/?cid=0x0:0x3ceebc3f69b94aa3,
supermarket,Toko Swalayan,TOKO ROHIT,"Jl. Parigi - Palu No.55, Lambara, Kec. Palu Utara, Kota Palu, Sulawesi Tengah 94352","Lambara, Kec. Palu Utara, Kota Palu",SULAWESI TENGAH,94352.0,Indonesia,,,,-0.7329228,1.198.667.976,https://maps.google.com/?cid=0x0:0x1e29479da095f274,
supermarket,Toko Pakaian,A' Three Mart,"4V6Q+4MV, Jl. Lagarutu, Talise, Kec. Mantikulore, Kota Palu, Sulawesi Tengah 94118","Jl. Lagarutu, Talise, Kec. Mantikulore, Kota Palu",SULAWESI TENGAH,94118.0,Indonesia,,,,-0.8896435,1.198.891.619,https://maps.google.com/?cid=0x0:0x23eee71a5126a463,
supermarket,Toko bahan makanan,Kios Aura,"Kayumalue Ngapa, Kec. Palu Utara, Kota Palu, Sulawesi Tengah 94142","Kec. Palu Utara, Kota Palu",SULAWESI TENGAH,94142.0,Indonesia,81340327078,,,-0.752573,1.198.753.083,https://maps.google.com/?cid=0x0:0x152df03c88bc4654,
supermarket,Pusat Perbelanjaan,Swalayan Amar Kabonena,"4R4P+6CH, Jl. Munif Rahman, Kabonena, Kec. Palu Bar., Kota Palu, Sulawesi Tengah 94111","Jl. Munif Rahman, Kabonena, Kec. Palu Bar., Kota Palu",SULAWESI TENGAH,94111.0,Indonesia,,,,-0.8944487,1.198.360.948,https://maps.google.com/?cid=0x0:0xda93496757ced3c,
supermarket,Toserba,Zhafira Mart,"Donggala Kodi, Kec. Ulujadi, Kota Palu, Sulawesi Tengah 94111","Kec. Ulujadi, Kota Palu",SULAWESI TENGAH,94111.0,Indonesia,,,,-0.8978818,1.198.505.976,https://maps.google.com/?cid=0x0:0x619a5da9b6fc2354,
supermarket,Grosir Buah,Pasar Senja Wani,"8R3R+X9J, Jl. Pue Yolu, Wani Dua, Kec. Tanantovea, Kabupaten Donggala, Sulawesi Tengah 94352","Jl. Pue Yolu, Wani Dua, Kec. Tanantovea, Kabupaten Donggala",SULAWESI TENGAH,94352.0,Indonesia,,,,-0.6950358,1.198.408.939,https://maps.google.com/?cid=0x0:0x97b78ecf036b3500,
supermarket,Toko umum,Kios SelfiCell,"7V7J+7HX, Nupa Bomba, Kec. Tanantovea, Kabupaten Donggala, Sulawesi Tengah 94352","Nupa Bomba, Kec. Tanantovea, Kabupaten Donggala",SULAWESI TENGAH,94352.0,Indonesia,85366661716,,,-0.7367508,1.198.814.837,https://maps.google.com/?cid=0x0:0x1dec3000bf469ae7,
supermarket,Grosir Buah,BNSmart Wani,"Jl. Kayu Riva, Wani I, Kec. Tanantovea, Kabupaten Donggala, Sulawesi Tengah 94352","Wani I, Kec. Tanantovea, Kabupaten Donggala",SULAWESI TENGAH,94352.0,Indonesia,8124220837,,,-0.6941379,1.198.433.827,https://maps.google.com/?cid=0x0:0x47ddb0e297b262e6,
supermarket,Toko umum,Toko Surya Tavaeli,"Jl. Bulangisi, Lambara, Kec. Tawaeli, Kota Palu, Sulawesi Tengah 94352","Lambara, Kec. Tawaeli, Kota Palu",SULAWESI TENGAH,94352.0,Indonesia,81355515126,,,-0.735599,1.198.631.974,https://maps.google.com/?cid=0x0:0xa723882d16ed814b,
supermarket,Kios,NOVI,"7V5V+675, Jl. Parigi - Palu, Nupa Bomba, Kec. Tanantovea, Kabupaten Donggala, Sulawesi Tengah 94142","Jl. Parigi - Palu, Nupa Bomba, Kec. Tanantovea, Kabupaten Donggala",SULAWESI TENGAH,94142.0,Indonesia,,,,-0.7419899,1.198.932.324,https://maps.google.com/?cid=0x0:0x27a8679d2e4d701f,
supermarket,Toko Makanan,Bunga Bawang,"8V6X+MF9, Wombo Kalonggo, Kec. Tanantovea, Kabupaten Donggala, Sulawesi Tengah 94352","Wombo Kalonggo, Kec. Tanantovea, Kabupaten Donggala",SULAWESI TENGAH,94352.0,Indonesia,,,,-0.688504,1.198.986.567,https://maps.google.com/?cid=0x0:0xa21f438b9738e637,
supermarket,Toko Buah dan Sayuran,Strawberry Central Sulawesi,"72F6+8R, Nupa Bomba, Kec. Tanantovea, Kabupaten Donggala, Sulawesi Tengah","Kabupaten Donggala, Sulawesi Tengah",SULAWESI TENGAH,,Indonesia,85399619773,,,-0.725998,120.013.303,https://maps.google.com/?cid=0x0:0xdc0637b42ccd77f8,
supermarket,Pusat Perbelanjaan,Pasar Tawaeli,"7V87+X38, Panau, Kec. Tawaeli, Kota Palu, Sulawesi Tengah 94352","Panau, Kec. Tawaeli, Kota Palu",SULAWESI TENGAH,94352.0,Indonesia,,,,-0.7325835,1.198.626.922,https://maps.google.com/?cid=0x0:0xf6ad92bb3e9d7d99,
