Category,Real Category,Business Name,Address,City,State,Postal Code,Country,Phone,Email,Website,Latitude,Longitude,Map Link,Details Link
hotel,hotel,Kec. Aesesa,"Kabupaten Nagekeo, Nusa Tenggara Tim.","Kabupaten Nagekeo, Nusa Tenggara Tim.",NUSA TENGGARA TIMUR,,Indonesia,,,,-8.5575585,121.2692731,https://maps.google.com/?cid=0x0:0x7382490e0d580d1,
hotel,hotel,Hotel Sinar Kasih,"Danga, Kec. Aesesa, Kabupaten Nagekeo, Nusa Tenggara Tim.","Kabupaten Nagekeo, Nusa Tenggara Tim.",NUSA TENGGARA TIMUR,,Indonesia,85847726157.0,,,-8.5641222,121.2707581,https://maps.google.com/?cid=0x0:0x7ae0153a3fc8f36e,
hotel,hotel,Nirvana Bungalows RIUNG / Nirvana RIUNG,"Nirvana Road, Nangamese, Kec. Riung, Kabupaten Ngada, Nusa Tenggara Tim.","Kabupaten Ngada, Nusa Tenggara Tim.",NUSA TENGGARA TIMUR,,Indonesia,81338528529.0,,,-8.4184645,121.0292928,https://maps.google.com/?cid=0x0:0xcecab3c11952c396,
hotel,hotel,Hotel Mandiri,"C7Q9+H3R, Unnamed Road, Danga, Kec. Aesesa, Kabupaten Nagekeo, Nusa Tenggara Tim.","Kabupaten Nagekeo, Nusa Tenggara Tim.",NUSA TENGGARA TIMUR,,Indonesia,,,,-8.5610095,121.2676463,https://maps.google.com/?cid=0x0:0x650aa005edec09bc,
hotel,hotel,Hotel Bintang Wisata Riung,"Pasar Riung, Nangamese, Ngada, Kabupaten Ngada, Nusa Tenggara Tim. 86413","Nangamese, Ngada, Kabupaten Ngada",NUSA TENGGARA TIMUR,86413.0,Indonesia,81246130831.0,,,-8.4216979,121.0276,https://maps.google.com/?cid=0x0:0xb52401ae12d0c70e,
hotel,hotel,Lalong Terong Guest House,"H2FF+95M, Benteng Tengah, Kec. Riung, Kabupaten Ngada, Nusa Tenggara Tim.","Kabupaten Ngada, Nusa Tenggara Tim.",NUSA TENGGARA TIMUR,,Indonesia,81392260506.0,,,-8.4265291,121.0229223,https://maps.google.com/?cid=0x0:0x57ec504013cc24e9,
hotel,hotel,Pondok SVD Riung,"H2HG+CWC Pondok SVD, Nangamese, Kec. Riung, Kabupaten Ngada, Nusa Tenggara Tim.","Kabupaten Ngada, Nusa Tenggara Tim.",NUSA TENGGARA TIMUR,,Indonesia,81339341572.0,,,-8.4214305,121.0272598,https://maps.google.com/?cid=0x0:0xb912826d60152fe1,
hotel,hotel,Penginapan Tiga Empat Tujuh,"H2JG+3PC, Nangamese, Kec. Riung, Kabupaten Ngada, Nusa Tenggara Tim.","Kabupaten Ngada, Nusa Tenggara Tim.",NUSA TENGGARA TIMUR,,Indonesia,,,,-8.4198196,121.026772,https://maps.google.com/?cid=0x0:0x6c10cfa017ed05ce,
hotel,hotel,Hotel Silverin Bajawa,"Jl. Trans Flores Bajawa-Ende Km. 04, Bajawa, Kabupaten Ngada, Nusa Tenggara Tim. 86411","Bajawa, Kabupaten Ngada",NUSA TENGGARA TIMUR,86411.0,Indonesia,3842225506.0,,,-8.8068765,120.9768528,https://maps.google.com/?cid=0x0:0xa57ca8b51e4d7ac3,
hotel,hotel,BERLIAN HOTEL,"Jl. Kelimutu No.7, Kel. Onekore, Kec. Ende Tengah, Kabupaten Ende, Nusa Tenggara Tim.","Kabupaten Ende, Nusa Tenggara Tim.",NUSA TENGGARA TIMUR,,Indonesia,81353390308.0,,,-8.8424389,121.650632,https://maps.google.com/?cid=0x0:0xcb36d70d4e492c3,
hotel,hotel,El Ora Hotel  Eatery Labuan Bajo,"Jl. Yohanis Sahadun No.8, Labuan Bajo, Kec. Komodo, Kabupaten Manggarai Barat, Nusa Tenggara Tim.","Kabupaten Manggarai Barat, Nusa Tenggara Tim.",NUSA TENGGARA TIMUR,,Indonesia,85106077731.0,,,-8.4956322,119.8857116,https://maps.google.com/?cid=0x0:0xe53b28681242ee9c,
hotel,hotel,Hotel J 2,"Jl. Durian, Ende, Kec. Ende Tengah, Kabupaten Ende, Nusa Tenggara Tim.","Kabupaten Ende, Nusa Tenggara Tim.",NUSA TENGGARA TIMUR,,Indonesia,895417300072.0,,,-8.8414961,121.6674588,https://maps.google.com/?cid=0x0:0xad8197550147e3ec,
hotel,hotel,Hotel J 1,"Jl. Gatot Soebroto No.KM. 3, Kel. Mautapaga, Kec. Ende Tim., Kabupaten Ende, Nusa Tenggara Tim.","Kabupaten Ende, Nusa Tenggara Tim.",NUSA TENGGARA TIMUR,,Indonesia,895417300072.0,,,-8.8446697,121.6707952,https://maps.google.com/?cid=0x0:0x788687eb7713bb54,
hotel,hotel,Penginapan Wisma Keluarga,"Kollbali -Gang 2, Danga, Kec. Aesesa, Kabupaten Nagekeo, Nusa Tenggara Tim.","Kabupaten Nagekeo, Nusa Tenggara Tim.",NUSA TENGGARA TIMUR,,Indonesia,81339474719.0,,,-8.5656693,121.2725117,https://maps.google.com/?cid=0x0:0x31da8d8ef3d97adf,
hotel,hotel,Omah Erma Lenkosamby Barat Riung,"Jl.Pantai, Lengkosambi Bar., Kec. Riung, Flores-NTT, Nusa Tenggara Tim.","Flores-NTT, Nusa Tenggara Tim.",NUSA TENGGARA TIMUR,,Indonesia,81246224886.0,,,-8.4363908,121.1247173,https://maps.google.com/?cid=0x0:0x2d5ed646680b16a4,
hotel,hotel,Nuna Bungalows,"Jalan Masjid Punsu, Nangamese, Kec. Riung, Kabupaten Ngada, Nusa Tenggara Tim.","Kabupaten Ngada, Nusa Tenggara Tim.",NUSA TENGGARA TIMUR,,Indonesia,81337043769.0,,,-8.4166161,121.026405,https://maps.google.com/?cid=0x0:0x38452698f8c170ce,
hotel,hotel,Tanawatu Hill Cottage  Camp Site,"9336+RJG, RT.02, Nginamanu, Kec. Wolomeze, Kabupaten Ngada, Nusa Tenggara Tim.","Kabupaten Ngada, Nusa Tenggara Tim.",NUSA TENGGARA TIMUR,,Indonesia,81292896192.0,,,-8.6454396,121.0615907,https://maps.google.com/?cid=0x0:0xba3d9065ef552c9e,
hotel,hotel,Hotel Harrison Wa. 0851-6998-4624,"Jl. Kelimutu No.11, Kel. Onekore, Kec. Ende Tengah, Kabupaten Ende, Nusa Tenggara Tim.","Kabupaten Ende, Nusa Tenggara Tim.",NUSA TENGGARA TIMUR,,Indonesia,85169984624.0,,,-8.8425648,121.651077,https://maps.google.com/?cid=0x0:0x1d38da7c93494d50,
hotel,hotel,Riung Guest House,"Bajawa, Jl. Trans Flores, Benteng Tengah, Kec. Riung, Kabupaten Ngada, Nusa Tenggara Tim.","Kabupaten Ngada, Nusa Tenggara Tim.",NUSA TENGGARA TIMUR,,Indonesia,81239564009.0,,,-8.4261562,121.0252731,https://maps.google.com/?cid=0x0:0x112a338a20e97b01,
hotel,hotel,Cafe Del Mar,"H2JG+RQF, Nangamese, Kec. Riung, Kabupaten Ngada, Nusa Tenggara Tim.","Kabupaten Ngada, Nusa Tenggara Tim.",NUSA TENGGARA TIMUR,,Indonesia,,,,-8.4179465,121.0269191,https://maps.google.com/?cid=0x0:0xe1f74127261eb048,
hotel,hotel,Hotel Sanian Bajawa,"6X7F+P98, Jl. Mayjend D.I. Panjaitan, Ngedukelu, Bajawa, Kabupaten Ngada, Nusa Tenggara Tim.","Kabupaten Ngada, Nusa Tenggara Tim.",NUSA TENGGARA TIMUR,,Indonesia,8113498877.0,,,-8.7857195,120.973459,https://maps.google.com/?cid=0x0:0x674775ce67be94a9,
hotel,hotel,Bajo Komodo Eco Lodge,"83VH+2JR, Nginamanu, Kec. Wolomeze, Kabupaten Ngada, Nusa Tenggara Tim.","Kabupaten Ngada, Nusa Tenggara Tim.",NUSA TENGGARA TIMUR,,Indonesia,,,,-8.65738,121.079,https://maps.google.com/?cid=0x0:0xac18532eb7df99cd,
hotel,hotel,Hotel Nusantara I,"6X7C+FXM, Trikora, Bajawa, Kabupaten Ngada, Nusa Tenggara Tim.","Kabupaten Ngada, Nusa Tenggara Tim.",NUSA TENGGARA TIMUR,,Indonesia,,,,-8.7862906,120.9724155,https://maps.google.com/?cid=0x0:0xbb6d38c934ad3644,
hotel,hotel,Larensia,"Labuan Bajo, Kec. Komodo, Kabupaten Manggarai Barat, Nusa Tenggara Tim.","Kabupaten Manggarai Barat, Nusa Tenggara Tim.",NUSA TENGGARA TIMUR,,Indonesia,85768133373.0,,,-8.4900431,119.8823585,https://maps.google.com/?cid=0x0:0xd70885e69c1b651e,
hotel,hotel,Vanesa hotel,"Jl. Soekarno Hatta No.20, Labuan Bajo, Kec. Komodo, Kabupaten Manggarai Barat, Nusa Tenggara Tim.","Kabupaten Manggarai Barat, Nusa Tenggara Tim.",NUSA TENGGARA TIMUR,,Indonesia,82266085127.0,,,-8.4908237,119.8768878,https://maps.google.com/?cid=0x0:0x698c928829a02e99,
hotel,hotel,Nangaroro,"Tendarea, Kec. Nangapanda, Kabupaten Ende, Nusa Tenggara Tim.","Kabupaten Ende, Nusa Tenggara Tim.",NUSA TENGGARA TIMUR,,Indonesia,,,,-8.745726,121.425201,https://maps.google.com/?cid=0x0:0x1095ef522bf10a11,
hotel,hotel,Bajawa Roo Hotel,"Jln. Martadinatha, RT Ngali, Trikora, Bajawa, Flores, East Nusa Tenggara 86411","RT Ngali, Trikora, Bajawa, Flores",NUSA TENGGARA TIMUR,86411.0,Indonesia,81338639607.0,,,-8.7846152,120.9692896,https://maps.google.com/?cid=0x0:0x7602b2bd0e921492,
hotel,hotel,Puri Komodo Resort,"JL. El Tari, No. 5, Lohayong Larantuka, Nggorang, Kec. Komodo, Kabupaten Manggarai Barat, Nusa Tenggara Tim. 86215","No. 5, Lohayong Larantuka, Nggorang, Kec. Komodo, Kabupaten Manggarai Barat",NUSA TENGGARA TIMUR,86215.0,Indonesia,38541319.0,,,-8.541809,119.945798,https://maps.google.com/?cid=0x0:0xdbc126ef4118e823,
hotel,hotel,Hotel Anggrek Bajawa,"MT. Haryono No.09, Trikora, Bajawa, Kabupaten Ngada, Nusa Tenggara Tim. 86414","Trikora, Bajawa, Kabupaten Ngada",NUSA TENGGARA TIMUR,86414.0,Indonesia,82147104880.0,,,-8.7859478,120.9721755,https://maps.google.com/?cid=0x0:0x77db28e5598bff0,
hotel,hotel,Hotel Kembang,"Trikora, Bajawa, Kabupaten Ngada, Nusa Tenggara Tim.","Kabupaten Ngada, Nusa Tenggara Tim.",NUSA TENGGARA TIMUR,,Indonesia,85239499961.0,,,-8.7868555,120.9711423,https://maps.google.com/?cid=0x0:0x6d30f444b9cf1e33,
hotel,hotel,WATUBURU VICTORY COTTAGE  RESTAURANT,"Jl.Trans flores Ende -Maumere No.Km.53, Watuburu Moni, Koanara, Kec. Kelimutu, Kabupaten Ende, Nusa Tenggara Tim. 86318","Watuburu Moni, Koanara, Kec. Kelimutu, Kabupaten Ende",NUSA TENGGARA TIMUR,86318.0,Indonesia,82146610965.0,,,-8.7453243,121.8479487,https://maps.google.com/?cid=0x0:0xf2c482b1de1bb7d3,
hotel,hotel,Hotel Silverin Bajawa,"Jl. Trans Flores Bajawa-Ende Km. 04, Bajawa, Kabupaten Ngada, Nusa Tenggara Tim. 86411","Bajawa, Kabupaten Ngada",NUSA TENGGARA TIMUR,86411.0,Indonesia,3842225506.0,,,-8.8068765,120.9768528,https://maps.google.com/?cid=0x0:0xa57ca8b51e4d7ac3,
hotel,hotel,Hotel J 1,"Jl. Gatot Soebroto No.KM. 3, Kel. Mautapaga, Kec. Ende Tim., Kabupaten Ende, Nusa Tenggara Tim.","Kabupaten Ende, Nusa Tenggara Tim.",NUSA TENGGARA TIMUR,,Indonesia,895417300072.0,,,-8.8446697,121.6707952,https://maps.google.com/?cid=0x0:0x788687eb7713bb54,
hotel,hotel,Hotel Merpati,"5M35+4V5, Jl. Ahmad Yani, Kel. Mautapaga, Kec. Ende Tim., Kabupaten Ende, Nusa Tenggara Tim.","Kabupaten Ende, Nusa Tenggara Tim.",NUSA TENGGARA TIMUR,,Indonesia,38122535.0,,,-8.8472384,121.6597189,https://maps.google.com/?cid=0x0:0x7db50f5e68eb48ff,
hotel,hotel,"Hotel Satar Mese,Aula dan Kolam Renang","5M56+GG4, Jalan Eltari, Ende Tengah, Kel. Mautapaga, Kec. Ende, Kabupaten Ende, Nusa Tenggara Tim.","Kabupaten Ende, Nusa Tenggara Tim.",NUSA TENGGARA TIMUR,,Indonesia,85232220007.0,,,-8.8412383,121.6613313,https://maps.google.com/?cid=0x0:0xbab8f1c085161a8f,
hotel,hotel,Hotel Sanian Bajawa,"6X7F+P98, Jl. Mayjend D.I. Panjaitan, Ngedukelu, Bajawa, Kabupaten Ngada, Nusa Tenggara Tim.","Kabupaten Ngada, Nusa Tenggara Tim.",NUSA TENGGARA TIMUR,,Indonesia,8113498877.0,,,-8.7857195,120.973459,https://maps.google.com/?cid=0x0:0x674775ce67be94a9,
hotel,hotel,Dewandaru Home Stay Bajawa,"Jl, Lebijaga, Bajawa, Kabupaten Ngada, Nusa Tenggara Tim. 86418","Lebijaga, Bajawa, Kabupaten Ngada",NUSA TENGGARA TIMUR,86418.0,Indonesia,81339332665.0,,,-8.781164,120.9837896,https://maps.google.com/?cid=0x0:0xd9e31f66d2298448,
hotel,hotel,Hotel Nusantara I,"6X7C+FXM, Trikora, Bajawa, Kabupaten Ngada, Nusa Tenggara Tim.","Kabupaten Ngada, Nusa Tenggara Tim.",NUSA TENGGARA TIMUR,,Indonesia,,,,-8.7862906,120.9724155,https://maps.google.com/?cid=0x0:0xbb6d38c934ad3644,
hotel,hotel,Hotel Binongko Jaya,"96HC+8XR, Jl. Sultan Hasanudin, Beru, Kec. Alok Tim., Kabupaten Sikka, Nusa Tenggara Tim.","Kabupaten Sikka, Nusa Tenggara Tim.",NUSA TENGGARA TIMUR,,Indonesia,85259161871.0,,,-8.6216417,122.2223772,https://maps.google.com/?cid=0x0:0xa3a3c2c464e3c80e,
hotel,hotel,Korina Hotel,"Jl. Ahmad Yani No.81, Tanalodu, Bajawa, Kabupaten Ngada, Nusa Tenggara Tim. 86412","Tanalodu, Bajawa, Kabupaten Ngada",NUSA TENGGARA TIMUR,86412.0,Indonesia,38421162.0,,,-8.7917528,120.9749383,https://maps.google.com/?cid=0x0:0xf2a24bd08b01f07e,
hotel,hotel,"Hotel Nusra : Hotel , Resto And Caf√©","9667+WM5, Kota Baru, Kec. Alok Tim., Kabupaten Sikka, Nusa Tenggara Tim.","Kabupaten Sikka, Nusa Tenggara Tim.",NUSA TENGGARA TIMUR,,Indonesia,2180629666.0,,,-8.6377433,122.2142309,https://maps.google.com/?cid=0x0:0x2b772e67ea573f67,
hotel,hotel,Hotel Mandiri,"C7Q9+H3R, Unnamed Road, Danga, Kec. Aesesa, Kabupaten Nagekeo, Nusa Tenggara Tim.","Kabupaten Nagekeo, Nusa Tenggara Tim.",NUSA TENGGARA TIMUR,,Indonesia,,,,-8.5610095,121.2676463,https://maps.google.com/?cid=0x0:0x650aa005edec09bc,
hotel,hotel,The Roomz,"Jl. Woloare, Kel. Kotaratu, Kec. Ende Utara, Kabupaten Ende, Nusa Tenggara Tim.","Kabupaten Ende, Nusa Tenggara Tim.",NUSA TENGGARA TIMUR,,Indonesia,81249000901.0,,,-8.8371697,121.6399873,https://maps.google.com/?cid=0x0:0x9bb2c9681216e1dd,
hotel,hotel,Kec. Nangaroro,"Kabupaten Nagekeo, Nusa Tenggara Tim.","Kabupaten Nagekeo, Nusa Tenggara Tim.",NUSA TENGGARA TIMUR,,Indonesia,,,,-8.7877249,121.393929,https://maps.google.com/?cid=0x0:0x7c1a30a4c1814805,
hotel,hotel,Riani homestay,"73QF+5HH, Piga, Kec. Soa, Kabupaten Ngada, Nusa Tenggara Tim.","Kabupaten Ngada, Nusa Tenggara Tim.",NUSA TENGGARA TIMUR,,Indonesia,85755469263.0,,,-8.7120571,121.0739981,https://maps.google.com/?cid=0x0:0x15654c3de2ff725b,
hotel,hotel,PURI MA'U BEACH  BUNGALOWS,"34M6+R74, Were III, Kec. Golewa, Kabupaten Ngada, Nusa Tenggara Tim.","Kabupaten Ngada, Nusa Tenggara Tim.",NUSA TENGGARA TIMUR,,Indonesia,81338639607.0,,,-8.9154966,121.1106993,https://maps.google.com/?cid=0x0:0xbb64ff3dcde61083,
hotel,hotel,Hotel Sinar Kasih,"Danga, Kec. Aesesa, Kabupaten Nagekeo, Nusa Tenggara Tim.","Kabupaten Nagekeo, Nusa Tenggara Tim.",NUSA TENGGARA TIMUR,,Indonesia,85847726157.0,,,-8.5641222,121.2707581,https://maps.google.com/?cid=0x0:0x7ae0153a3fc8f36e,
hotel,hotel,Penginapan Wisma Keluarga,"Kollbali -Gang 2, Danga, Kec. Aesesa, Kabupaten Nagekeo, Nusa Tenggara Tim.","Kabupaten Nagekeo, Nusa Tenggara Tim.",NUSA TENGGARA TIMUR,,Indonesia,81339474719.0,,,-8.5656693,121.2725117,https://maps.google.com/?cid=0x0:0x31da8d8ef3d97adf,
hotel,hotel,Wisma BARATA,"65R7+8HX, Natanage, Kec. Boawae, Kabupaten Nagekeo, Nusa Tenggara Tim.","Kabupaten Nagekeo, Nusa Tenggara Tim.",NUSA TENGGARA TIMUR,,Indonesia,,,,-8.7591399,121.1639931,https://maps.google.com/?cid=0x0:0xac553405edcc04fc,
hotel,hotel,Kec. Boawae,"Kabupaten Nagekeo, Nusa Tenggara Tim.","Kabupaten Nagekeo, Nusa Tenggara Tim.",NUSA TENGGARA TIMUR,,Indonesia,,,,-8.7639474,121.1651632,https://maps.google.com/?cid=0x0:0x7defadf688be794f,
hotel,hotel,Penginapan Manulalu,"Jalan. Mangulewa Jerebu'u, Tiworiwu, Kec. Jerebuu, Kabupaten Ngada, Nusa Tenggara Tim.","Kabupaten Ngada, Nusa Tenggara Tim.",NUSA TENGGARA TIMUR,,Indonesia,82144774417.0,,,-8.8632173,120.9944403,https://maps.google.com/?cid=0x0:0x349a06c91182b160,
hotel,hotel,Hotel Silverin Bajawa,"Jl. Trans Flores Bajawa-Ende Km. 04, Bajawa, Kabupaten Ngada, Nusa Tenggara Tim. 86411","Bajawa, Kabupaten Ngada",NUSA TENGGARA TIMUR,86411.0,Indonesia,3842225506.0,,,-8.8068765,120.9768528,https://maps.google.com/?cid=0x0:0xa57ca8b51e4d7ac3,
hotel,hotel,PURI MA'U BEACH  BUNGALOWS,"34M6+R74, Were III, Kec. Golewa, Kabupaten Ngada, Nusa Tenggara Tim.","Kabupaten Ngada, Nusa Tenggara Tim.",NUSA TENGGARA TIMUR,,Indonesia,81338639607.0,,,-8.9154966,121.1106993,https://maps.google.com/?cid=0x0:0xbb64ff3dcde61083,
hotel,hotel,Lucas Authentic Lodge,"Jl. Hayam Wuruk, Tanalodu, Bajawa, Kabupaten Ngada, Nusa Tenggara Tim.","Kabupaten Ngada, Nusa Tenggara Tim.",NUSA TENGGARA TIMUR,,Indonesia,81238799773.0,,,-8.7917677,120.9741875,https://maps.google.com/?cid=0x0:0xb791056f3f272072,
hotel,hotel,Cinnamon Guesthouse,"Jl. Ahmad Yani No.71, Tanalodu, Bajawa, Kabupaten Ngada, Nusa Tenggara Tim.","Kabupaten Ngada, Nusa Tenggara Tim.",NUSA TENGGARA TIMUR,,Indonesia,85237934918.0,,,-8.7921322,120.974131,https://maps.google.com/?cid=0x0:0xe97dae13df254b03,
hotel,hotel,Kristian Homestay,"6X4G+H4P, Unnamed Road, Bajawa, Kabupaten Ngada, Nusa Tenggara Tim.","Kabupaten Ngada, Nusa Tenggara Tim.",NUSA TENGGARA TIMUR,,Indonesia,81339480142.0,,,-8.7935334,120.9753132,https://maps.google.com/?cid=0x0:0x1fe97ebc303d5d72,
hotel,hotel,Bajawa Roo Hotel,"Jln. Martadinatha, RT Ngali, Trikora, Bajawa, Flores, East Nusa Tenggara 86411","RT Ngali, Trikora, Bajawa, Flores",NUSA TENGGARA TIMUR,86411.0,Indonesia,81338639607.0,,,-8.7846152,120.9692896,https://maps.google.com/?cid=0x0:0x7602b2bd0e921492,
hotel,hotel,WATUBURU VICTORY COTTAGE  RESTAURANT,"Jl.Trans flores Ende -Maumere No.Km.53, Watuburu Moni, Koanara, Kec. Kelimutu, Kabupaten Ende, Nusa Tenggara Tim. 86318","Watuburu Moni, Koanara, Kec. Kelimutu, Kabupaten Ende",NUSA TENGGARA TIMUR,86318.0,Indonesia,82146610965.0,,,-8.7453243,121.8479487,https://maps.google.com/?cid=0x0:0xf2c482b1de1bb7d3,
hotel,hotel,Komodo Boutique Hotel,"Labuan Bajo, Jalan Raya Sernaru, Wae Kelambu, Kec. Komodo, Flores, Nusa Tenggara Tim. 86554","Jalan Raya Sernaru, Wae Kelambu, Kec. Komodo, Flores",NUSA TENGGARA TIMUR,86554.0,Indonesia,81213162968.0,,,-8.5059914,119.9025001,https://maps.google.com/?cid=0x0:0x5bd707fad246785e,
hotel,hotel,BERLIAN HOTEL,"Jl. Kelimutu No.7, Kel. Onekore, Kec. Ende Tengah, Kabupaten Ende, Nusa Tenggara Tim.","Kabupaten Ende, Nusa Tenggara Tim.",NUSA TENGGARA TIMUR,,Indonesia,81353390308.0,,,-8.8424389,121.650632,https://maps.google.com/?cid=0x0:0xcb36d70d4e492c3,
hotel,hotel,Arnolds Family Homestay,"Jl. El Tari, Trikora, Bajawa, Kabupaten Ngada, Nusa Tenggara Tim. 86514","Trikora, Bajawa, Kabupaten Ngada",NUSA TENGGARA TIMUR,86514.0,Indonesia,,,,-8.7861305,120.9702128,https://maps.google.com/?cid=0x0:0x338ad602d6eda750,
hotel,hotel,Wisma BARATA,"65R7+8HX, Natanage, Kec. Boawae, Kabupaten Nagekeo, Nusa Tenggara Tim.","Kabupaten Nagekeo, Nusa Tenggara Tim.",NUSA TENGGARA TIMUR,,Indonesia,,,,-8.7591399,121.1639931,https://maps.google.com/?cid=0x0:0xac553405edcc04fc,
hotel,hotel,Dobel V Resort,"Unnamed Road, Nanganesa, Kec. Ndona, Kabupaten Ende, Nusa Tenggara Tim.","Kabupaten Ende, Nusa Tenggara Tim.",NUSA TENGGARA TIMUR,,Indonesia,82236312203.0,,,-8.8389574,121.6829871,https://maps.google.com/?cid=0x0:0x830875e044e74484,
hotel,hotel,Tanawatu Hill Cottage  Camp Site,"9336+RJG, RT.02, Nginamanu, Kec. Wolomeze, Kabupaten Ngada, Nusa Tenggara Tim.","Kabupaten Ngada, Nusa Tenggara Tim.",NUSA TENGGARA TIMUR,,Indonesia,81292896192.0,,,-8.6454396,121.0615907,https://maps.google.com/?cid=0x0:0xba3d9065ef552c9e,
hotel,hotel,Vernado Homestay,"6X5G+95G, Jl. Ahmad Yani, Tanalodu, Bajawa, Kabupaten Ngada, Nusa Tenggara Tim.","Kabupaten Ngada, Nusa Tenggara Tim.",NUSA TENGGARA TIMUR,,Indonesia,82237204519.0,,,-8.7915623,120.9754424,https://maps.google.com/?cid=0x0:0xcf7a001d89850eaf,
hotel,hotel,Bajo Komodo Eco Lodge,"83VH+2JR, Nginamanu, Kec. Wolomeze, Kabupaten Ngada, Nusa Tenggara Tim.","Kabupaten Ngada, Nusa Tenggara Tim.",NUSA TENGGARA TIMUR,,Indonesia,,,,-8.65738,121.079,https://maps.google.com/?cid=0x0:0xac18532eb7df99cd,
hotel,hotel,Manulalu Jungle,"Jl Mangulewa - Jerebu'u, Tiworiwu, Kec. Jerebu'u, Bajawa, Kabupaten Ngada, Nusa Tenggara Tim. 86451","Tiworiwu, Kec. Jerebu'u, Bajawa, Kabupaten Ngada",NUSA TENGGARA TIMUR,86451.0,Indonesia,,,,-8.8667539,120.9918168,https://maps.google.com/?cid=0x0:0x72192f047e8d6cdb,
hotel,hotel,Riani homestay,"73QF+5HH, Piga, Kec. Soa, Kabupaten Ngada, Nusa Tenggara Tim.","Kabupaten Ngada, Nusa Tenggara Tim.",NUSA TENGGARA TIMUR,,Indonesia,85755469263.0,,,-8.7120571,121.0739981,https://maps.google.com/?cid=0x0:0x15654c3de2ff725b,
hotel,hotel,Kelimutu View Bungalows,"Watugana Kelimutu, Koanara, Ende, Kabupaten Ende, Nusa Tenggara Tim.","Kabupaten Ende, Nusa Tenggara Tim.",NUSA TENGGARA TIMUR,,Indonesia,82235168496.0,,,-8.7490517,121.8493803,https://maps.google.com/?cid=0x0:0x36fe32ff53ec9255,
hotel,hotel,Hotel Grand Wisata,"Jl. Kelimutu No.32, Kel. Kelimutu, Kec. Ende Tengah, Kabupaten Ende, Nusa Tenggara Tim.","Kabupaten Ende, Nusa Tenggara Tim.",NUSA TENGGARA TIMUR,,Indonesia,38124010.0,,,-8.8451038,121.657478,https://maps.google.com/?cid=0x0:0xa482da44531457a2,
hotel,hotel,Sabrina Rest and Living,"Unnamed Road, Tanalodu, Bajawa, Kabupaten Ngada, Nusa Tenggara Tim.","Kabupaten Ngada, Nusa Tenggara Tim.",NUSA TENGGARA TIMUR,,Indonesia,8114494555.0,,,-8.7902697,120.9829519,https://maps.google.com/?cid=0x0:0x4e9c62ea58fcb80e,
hotel,hotel,,,,NUSA TENGGARA TIMUR,,Indonesia,,,,,,https://maps.google.com/?cid=0x0:0xa482da44531457a2%7C/g/1q6cdvdj9%7Cid-ID,
hotel,hotel,Kec. Mauponggo,"Kabupaten Nagekeo, Nusa Tenggara Tim.","Kabupaten Nagekeo, Nusa Tenggara Tim.",NUSA TENGGARA TIMUR,,Indonesia,,,,-8.8893553,121.2119342,https://maps.google.com/?cid=0x0:0x6584ed4b0b02f822,
hotel,hotel,PURI MA'U BEACH  BUNGALOWS,"34M6+R74, Were III, Kec. Golewa, Kabupaten Ngada, Nusa Tenggara Tim.","Kabupaten Ngada, Nusa Tenggara Tim.",NUSA TENGGARA TIMUR,,Indonesia,81338639607.0,,,-8.9154966,121.1106993,https://maps.google.com/?cid=0x0:0xbb64ff3dcde61083,
hotel,hotel,Penginapan Manulalu,"Jalan. Mangulewa Jerebu'u, Tiworiwu, Kec. Jerebuu, Kabupaten Ngada, Nusa Tenggara Tim.","Kabupaten Ngada, Nusa Tenggara Tim.",NUSA TENGGARA TIMUR,,Indonesia,82144774417.0,,,-8.8632173,120.9944403,https://maps.google.com/?cid=0x0:0x349a06c91182b160,
hotel,hotel,new bintang hotel,"6X3G+HJ6, bokua,bajawa,kabupaten ngada, Bajawa, bajawa, Nusa Tenggara Tim. 86431","bokua,bajawa,kabupaten ngada, Bajawa, bajawa",NUSA TENGGARA TIMUR,86431.0,Indonesia,81237504359.0,,,-8.7960915,120.976501,https://maps.google.com/?cid=0x0:0x7659dc5a443aab1b,
hotel,hotel,Cinnamon Guesthouse,"Jl. Ahmad Yani No.71, Tanalodu, Bajawa, Kabupaten Ngada, Nusa Tenggara Tim.","Kabupaten Ngada, Nusa Tenggara Tim.",NUSA TENGGARA TIMUR,,Indonesia,85237934918.0,,,-8.7921322,120.974131,https://maps.google.com/?cid=0x0:0xe97dae13df254b03,
hotel,hotel,Lucas Authentic Lodge,"Jl. Hayam Wuruk, Tanalodu, Bajawa, Kabupaten Ngada, Nusa Tenggara Tim.","Kabupaten Ngada, Nusa Tenggara Tim.",NUSA TENGGARA TIMUR,,Indonesia,81238799773.0,,,-8.7917677,120.9741875,https://maps.google.com/?cid=0x0:0xb791056f3f272072,
hotel,hotel,Kristian Homestay,"6X4G+H4P, Unnamed Road, Bajawa, Kabupaten Ngada, Nusa Tenggara Tim.","Kabupaten Ngada, Nusa Tenggara Tim.",NUSA TENGGARA TIMUR,,Indonesia,81339480142.0,,,-8.7935334,120.9753132,https://maps.google.com/?cid=0x0:0x1fe97ebc303d5d72,
hotel,hotel,Bajawa Roo Hotel,"Jln. Martadinatha, RT Ngali, Trikora, Bajawa, Flores, East Nusa Tenggara 86411","RT Ngali, Trikora, Bajawa, Flores",NUSA TENGGARA TIMUR,86411.0,Indonesia,81338639607.0,,,-8.7846152,120.9692896,https://maps.google.com/?cid=0x0:0x7602b2bd0e921492,
hotel,hotel,WATUBURU VICTORY COTTAGE  RESTAURANT,"Jl.Trans flores Ende -Maumere No.Km.53, Watuburu Moni, Koanara, Kec. Kelimutu, Kabupaten Ende, Nusa Tenggara Tim. 86318","Watuburu Moni, Koanara, Kec. Kelimutu, Kabupaten Ende",NUSA TENGGARA TIMUR,86318.0,Indonesia,82146610965.0,,,-8.7453243,121.8479487,https://maps.google.com/?cid=0x0:0xf2c482b1de1bb7d3,
hotel,hotel,Arnolds Family Homestay,"Jl. El Tari, Trikora, Bajawa, Kabupaten Ngada, Nusa Tenggara Tim. 86514","Trikora, Bajawa, Kabupaten Ngada",NUSA TENGGARA TIMUR,86514.0,Indonesia,,,,-8.7861305,120.9702128,https://maps.google.com/?cid=0x0:0x338ad602d6eda750,
hotel,hotel,Vernado Homestay,"6X5G+95G, Jl. Ahmad Yani, Tanalodu, Bajawa, Kabupaten Ngada, Nusa Tenggara Tim.","Kabupaten Ngada, Nusa Tenggara Tim.",NUSA TENGGARA TIMUR,,Indonesia,82237204519.0,,,-8.7915623,120.9754424,https://maps.google.com/?cid=0x0:0xcf7a001d89850eaf,
hotel,hotel,Manulalu Jungle,"Jl Mangulewa - Jerebu'u, Tiworiwu, Kec. Jerebu'u, Bajawa, Kabupaten Ngada, Nusa Tenggara Tim. 86451","Tiworiwu, Kec. Jerebu'u, Bajawa, Kabupaten Ngada",NUSA TENGGARA TIMUR,86451.0,Indonesia,,,,-8.8667539,120.9918168,https://maps.google.com/?cid=0x0:0x72192f047e8d6cdb,
hotel,hotel,Moon IN,"7R2X+2C4, Jl. Moni - Kelimutu, Koanara, Kec. Kelimutu, Kabupaten Ende, Nusa Tenggara Tim.","Kabupaten Ende, Nusa Tenggara Tim.",NUSA TENGGARA TIMUR,,Indonesia,,,,-8.7499757,121.8485808,https://maps.google.com/?cid=0x0:0xb7724f4ce2d6afe3,
hotel,hotel,Hotel Virgo,"6X7F+H6Q, Jalan D. I. Panjaitan, Trikora, Bajawa, Ngada Regency, East Nusa Tenggara 86411","Jalan D. I. Panjaitan, Trikora, Bajawa, Ngada Regency",NUSA TENGGARA TIMUR,86411.0,Indonesia,82145968066.0,,,-8.7860313,120.9731117,https://maps.google.com/?cid=0x0:0x8fc26f2f43f4869,
hotel,hotel,Edelweis Hotel,"Bawa, Jl. Ahmad Yani No.76, Tanalodu, Bajawa, Kabupaten Ngada, Nusa Tenggara Tim. 86412","Jl. Ahmad Yani No.76, Tanalodu, Bajawa, Kabupaten Ngada",NUSA TENGGARA TIMUR,86412.0,Indonesia,38421345.0,,,-8.7915637,120.9749948,https://maps.google.com/?cid=0x0:0xe5367e325489d3ca,
hotel,hotel,Hotel Sanian Bajawa,"6X7F+P98, Jl. Mayjend D.I. Panjaitan, Ngedukelu, Bajawa, Kabupaten Ngada, Nusa Tenggara Tim.","Kabupaten Ngada, Nusa Tenggara Tim.",NUSA TENGGARA TIMUR,,Indonesia,8113498877.0,,,-8.7857195,120.973459,https://maps.google.com/?cid=0x0:0x674775ce67be94a9,
hotel,hotel,Sabrina Rest and Living,"Unnamed Road, Tanalodu, Bajawa, Kabupaten Ngada, Nusa Tenggara Tim.","Kabupaten Ngada, Nusa Tenggara Tim.",NUSA TENGGARA TIMUR,,Indonesia,8114494555.0,,,-8.7902697,120.9829519,https://maps.google.com/?cid=0x0:0x4e9c62ea58fcb80e,
hotel,hotel,Tanawatu Hill Cottage  Camp Site,"9336+RJG, RT.02, Nginamanu, Kec. Wolomeze, Kabupaten Ngada, Nusa Tenggara Tim.","Kabupaten Ngada, Nusa Tenggara Tim.",NUSA TENGGARA TIMUR,,Indonesia,81292896192.0,,,-8.6454396,121.0615907,https://maps.google.com/?cid=0x0:0xba3d9065ef552c9e,
hotel,hotel,Hotel Edelweis 2 Bajawa,"Jl. Sriwijaya, Tanalodu, Bajawa, Kabupaten Ngada, Nusa Tenggara Tim.","Kabupaten Ngada, Nusa Tenggara Tim.",NUSA TENGGARA TIMUR,,Indonesia,81237800369.0,,,-8.7900255,120.9761325,https://maps.google.com/?cid=0x0:0xd06d6f9bf3f9bcfe,
hotel,hotel,Dewandaru Home Stay Bajawa,"Jl, Lebijaga, Bajawa, Kabupaten Ngada, Nusa Tenggara Tim. 86418","Lebijaga, Bajawa, Kabupaten Ngada",NUSA TENGGARA TIMUR,86418.0,Indonesia,81339332665.0,,,-8.781164,120.9837896,https://maps.google.com/?cid=0x0:0xd9e31f66d2298448,
hotel,hotel,Hotel Nusantara I,"6X7C+FXM, Trikora, Bajawa, Kabupaten Ngada, Nusa Tenggara Tim.","Kabupaten Ngada, Nusa Tenggara Tim.",NUSA TENGGARA TIMUR,,Indonesia,,,,-8.7862906,120.9724155,https://maps.google.com/?cid=0x0:0xbb6d38c934ad3644,
hotel,hotel,GO Hotel Maumere,"Jl. Don Thomas, Kota Baru, Kec. Alok Tim., Kabupaten Sikka, Nusa Tenggara Tim.","Kabupaten Sikka, Nusa Tenggara Tim.",NUSA TENGGARA TIMUR,,Indonesia,81260798978.0,,,-8.6231219,122.2203468,https://maps.google.com/?cid=0x0:0xa6f9b165841dccce,
hotel,hotel,"Anjo Maumere - Hotel, Restaurant and Events","Jl. Lintas Jl. Raya Maumere - Magepanda, Hewuli, Kec. Alok Bar., Kabupaten Sikka, Nusa Tenggara Tim. 86115","Hewuli, Kec. Alok Bar., Kabupaten Sikka",NUSA TENGGARA TIMUR,86115.0,Indonesia,85337125151.0,,,-8.5715169,122.1689982,https://maps.google.com/?cid=0x0:0x170ea308659b3184,
hotel,hotel,Hotel J 1,"Jl. Gatot Soebroto No.KM. 3, Kel. Mautapaga, Kec. Ende Tim., Kabupaten Ende, Nusa Tenggara Tim.","Kabupaten Ende, Nusa Tenggara Tim.",NUSA TENGGARA TIMUR,,Indonesia,895417300072.0,,,-8.8446697,121.6707952,https://maps.google.com/?cid=0x0:0x788687eb7713bb54,
hotel,hotel,Kelimutu View Bungalows,"Watugana Kelimutu, Koanara, Ende, Kabupaten Ende, Nusa Tenggara Tim.","Kabupaten Ende, Nusa Tenggara Tim.",NUSA TENGGARA TIMUR,,Indonesia,82235168496.0,,,-8.7490517,121.8493803,https://maps.google.com/?cid=0x0:0x36fe32ff53ec9255,
hotel,hotel,Kec. Wolowae,"Kabupaten Nagekeo, Nusa Tenggara Tim.","Kabupaten Nagekeo, Nusa Tenggara Tim.",NUSA TENGGARA TIMUR,,Indonesia,,,,-8.6305795,121.5020191,https://maps.google.com/?cid=0x0:0x21a9f7a6f47b294d,
hotel,hotel,LCR HOTEL,"Jl. Melati, Kel. Paupire, Kec. Ende Tengah, Kabupaten Ende, Nusa Tenggara Tim.","Kabupaten Ende, Nusa Tenggara Tim.",NUSA TENGGARA TIMUR,,Indonesia,8113821140.0,,,-8.8395405,121.6639143,https://maps.google.com/?cid=0x0:0x300a9cd95002409f,
hotel,hotel,Flores Passport House,"Jl. Woloare, Kel. Kotaratu, Kec. Ende Utara, Kabupaten Ende, Nusa Tenggara Tim. 86319","Kel. Kotaratu, Kec. Ende Utara, Kabupaten Ende",NUSA TENGGARA TIMUR,86319.0,Indonesia,38122434.0,,,-8.8341359,121.6400463,https://maps.google.com/?cid=0x0:0x7a68cb57e0d3a822,
hotel,hotel,,,,NUSA TENGGARA TIMUR,,Indonesia,,,,,,https://maps.google.com/?cid=0x0:0xa482da44531457a2%7C/g/1q6cdvdj9%7Cid-ID,
hotel,hotel,Hotel Apollo Capsul,"Jl. Diponegoro, Kel. Onekore, Kec. Ende Tengah, Kabupaten Ende, Nusa Tenggara Tim. 86318","Kel. Onekore, Kec. Ende Tengah, Kabupaten Ende",NUSA TENGGARA TIMUR,86318.0,Indonesia,81337257116.0,,,-8.8423928,121.6510531,https://maps.google.com/?cid=0x0:0xec975f784b06dd62,
hotel,hotel,BERLIAN HOTEL,"Jl. Kelimutu No.7, Kel. Onekore, Kec. Ende Tengah, Kabupaten Ende, Nusa Tenggara Tim.","Kabupaten Ende, Nusa Tenggara Tim.",NUSA TENGGARA TIMUR,,Indonesia,81353390308.0,,,-8.8424389,121.650632,https://maps.google.com/?cid=0x0:0xcb36d70d4e492c3,
hotel,hotel,Hotel Silverin Bajawa,"Jl. Trans Flores Bajawa-Ende Km. 04, Bajawa, Kabupaten Ngada, Nusa Tenggara Tim. 86411","Bajawa, Kabupaten Ngada",NUSA TENGGARA TIMUR,86411.0,Indonesia,3842225506.0,,,-8.8068765,120.9768528,https://maps.google.com/?cid=0x0:0xa57ca8b51e4d7ac3,
hotel,hotel,WATUBURU VICTORY COTTAGE  RESTAURANT,"Jl.Trans flores Ende -Maumere No.Km.53, Watuburu Moni, Koanara, Kec. Kelimutu, Kabupaten Ende, Nusa Tenggara Tim. 86318","Watuburu Moni, Koanara, Kec. Kelimutu, Kabupaten Ende",NUSA TENGGARA TIMUR,86318.0,Indonesia,82146610965.0,,,-8.7453243,121.8479487,https://maps.google.com/?cid=0x0:0xf2c482b1de1bb7d3,
hotel,hotel,Lanina rental motorbike  homestay ( tourist information ),"Jl. Kokos 2 lorong bidadari No.1, Kel. Kelimutu, Kec. Ende Tengah, Kabupaten Ende, Nusa Tenggara Tim. 86317","Kel. Kelimutu, Kec. Ende Tengah, Kabupaten Ende",NUSA TENGGARA TIMUR,86317.0,Indonesia,82299778254.0,,,-8.8478143,121.6579642,https://maps.google.com/?cid=0x0:0xc260cca9f3d1174e,
hotel,hotel,Global View Hotel,"Jl. Gatot Soebroto No.km 3, Kel. Mautapaga, Kec. Ende Tim., Kabupaten Ende, Nusa Tenggara Tim.","Kabupaten Ende, Nusa Tenggara Tim.",NUSA TENGGARA TIMUR,,Indonesia,,,,-8.8448128,121.6730337,https://maps.google.com/?cid=0x0:0x73ff40f26dafed7,
hotel,hotel,Hotel Flores Mandiri,"Jl. Melati, Kel. Paupire, Kec. Ende Tengah, Kabupaten Ende, Nusa Tenggara Tim. 16318","Kel. Paupire, Kec. Ende Tengah, Kabupaten Ende",NUSA TENGGARA TIMUR,16318.0,Indonesia,85231822142.0,,,-8.835232,121.6641185,https://maps.google.com/?cid=0x0:0x9f5954dd8221226e,
hotel,hotel,Hotel J 2,"Jl. Durian, Ende, Kec. Ende Tengah, Kabupaten Ende, Nusa Tenggara Tim.","Kabupaten Ende, Nusa Tenggara Tim.",NUSA TENGGARA TIMUR,,Indonesia,895417300072.0,,,-8.8414961,121.6674588,https://maps.google.com/?cid=0x0:0xad8197550147e3ec,
hotel,hotel,Hotel J 1,"Jl. Gatot Soebroto No.KM. 3, Kel. Mautapaga, Kec. Ende Tim., Kabupaten Ende, Nusa Tenggara Tim.","Kabupaten Ende, Nusa Tenggara Tim.",NUSA TENGGARA TIMUR,,Indonesia,895417300072.0,,,-8.8446697,121.6707952,https://maps.google.com/?cid=0x0:0x788687eb7713bb54,
hotel,hotel,El Ora Hotel  Eatery Labuan Bajo,"Jl. Yohanis Sahadun No.8, Labuan Bajo, Kec. Komodo, Kabupaten Manggarai Barat, Nusa Tenggara Tim.","Kabupaten Manggarai Barat, Nusa Tenggara Tim.",NUSA TENGGARA TIMUR,,Indonesia,85106077731.0,,,-8.4956322,119.8857116,https://maps.google.com/?cid=0x0:0xe53b28681242ee9c,
hotel,hotel,Worho Rhena cottage,"5JGV+H6C, Jl. Woloare, Kel. Roworena, Kec. Ende Utara, Ende Flores, Nusa Tenggara Tim.","Ende Flores, Nusa Tenggara Tim.",NUSA TENGGARA TIMUR,,Indonesia,85247647440.0,,,-8.8235709,121.6430141,https://maps.google.com/?cid=0x0:0xf75e4b9e44d871c1,
hotel,hotel,Bajawa Roo Hotel,"Jln. Martadinatha, RT Ngali, Trikora, Bajawa, Flores, East Nusa Tenggara 86411","RT Ngali, Trikora, Bajawa, Flores",NUSA TENGGARA TIMUR,86411.0,Indonesia,81338639607.0,,,-8.7846152,120.9692896,https://maps.google.com/?cid=0x0:0x7602b2bd0e921492,
hotel,hotel,DASI Guest House,"Jalan Durian Atas, Depan RRI No.2 No. 2, Kel. Mautapaga, Kec. Ende Tim., Kabupaten Ende, Nusa Tenggara Tim. 86300","Depan RRI No.2 No. 2, Kel. Mautapaga, Kec. Ende Tim., Kabupaten Ende",NUSA TENGGARA TIMUR,86300.0,Indonesia,85218638432.0,,,-8.8381063,121.6678263,https://maps.google.com/?cid=0x0:0x5479278247317523,
hotel,hotel,Rezka roomz,"5M5F+V34, Jl. Gatot Subroto, Kel. Mautapaga, Kec. Ende Tim., Kabupaten Ende, Nusa Tenggara Tim.","Kabupaten Ende, Nusa Tenggara Tim.",NUSA TENGGARA TIMUR,,Indonesia,,,,-8.8403737,121.6727025,https://maps.google.com/?cid=0x0:0xab5d962b4473021b,
hotel,hotel,Hotel Harrison Wa. 0851-6998-4624,"Jl. Kelimutu No.11, Kel. Onekore, Kec. Ende Tengah, Kabupaten Ende, Nusa Tenggara Tim.","Kabupaten Ende, Nusa Tenggara Tim.",NUSA TENGGARA TIMUR,,Indonesia,85169984624.0,,,-8.8425648,121.651077,https://maps.google.com/?cid=0x0:0x1d38da7c93494d50,
hotel,hotel,Hotel Sinar Kasih,"Danga, Kec. Aesesa, Kabupaten Nagekeo, Nusa Tenggara Tim.","Kabupaten Nagekeo, Nusa Tenggara Tim.",NUSA TENGGARA TIMUR,,Indonesia,85847726157.0,,,-8.5641222,121.2707581,https://maps.google.com/?cid=0x0:0x7ae0153a3fc8f36e,
hotel,hotel,Hotel Merpati,"5M35+4V5, Jl. Ahmad Yani, Kel. Mautapaga, Kec. Ende Tim., Kabupaten Ende, Nusa Tenggara Tim.","Kabupaten Ende, Nusa Tenggara Tim.",NUSA TENGGARA TIMUR,,Indonesia,38122535.0,,,-8.8472384,121.6597189,https://maps.google.com/?cid=0x0:0x7db50f5e68eb48ff,
hotel,hotel,MENTARI Hotel  Restaurant,"Jl. Pahlawan No.19, Kel. Kotaraja, Kec. Ende Utara, Kabupaten Ende, Nusa Tenggara Tim. 86311","Kel. Kotaraja, Kec. Ende Utara, Kabupaten Ende",NUSA TENGGARA TIMUR,86311.0,Indonesia,81339419800.0,,,-8.841696,121.6472943,https://maps.google.com/?cid=0x0:0xf8f1dba9a5d8fbec,
hotel,hotel,Kec. Keo Tengah,"Kabupaten Nagekeo, Nusa Tenggara Tim.","Kabupaten Nagekeo, Nusa Tenggara Tim.",NUSA TENGGARA TIMUR,,Indonesia,,,,-8.8998644,121.2916699,https://maps.google.com/?cid=0x0:0x5db8ac2ea9b5e857,
hotel,hotel,PURI MA'U BEACH  BUNGALOWS,"34M6+R74, Were III, Kec. Golewa, Kabupaten Ngada, Nusa Tenggara Tim.","Kabupaten Ngada, Nusa Tenggara Tim.",NUSA TENGGARA TIMUR,,Indonesia,81338639607.0,,,-8.9154966,121.1106993,https://maps.google.com/?cid=0x0:0xbb64ff3dcde61083,
hotel,hotel,Ndetukou village,"Jl. Woloare No.1, Kel. Kotaratu, Kec. Ende Utara, Kabupaten Ende, Nusa Tenggara Tim. 86319","Kel. Kotaratu, Kec. Ende Utara, Kabupaten Ende",NUSA TENGGARA TIMUR,86319.0,Indonesia,81248242442.0,,,-8.8368045,121.6395541,https://maps.google.com/?cid=0x0:0xc8dd4ceb5a29ec0,
hotel,hotel,Wisma BARATA,"65R7+8HX, Natanage, Kec. Boawae, Kabupaten Nagekeo, Nusa Tenggara Tim.","Kabupaten Nagekeo, Nusa Tenggara Tim.",NUSA TENGGARA TIMUR,,Indonesia,,,,-8.7591399,121.1639931,https://maps.google.com/?cid=0x0:0xac553405edcc04fc,
hotel,hotel,Hotel Kembang,"Trikora, Bajawa, Kabupaten Ngada, Nusa Tenggara Tim.","Kabupaten Ngada, Nusa Tenggara Tim.",NUSA TENGGARA TIMUR,,Indonesia,85239499961.0,,,-8.7868555,120.9711423,https://maps.google.com/?cid=0x0:0x6d30f444b9cf1e33,
hotel,hotel,Bajawa Roo Hotel,"Jln. Martadinatha, RT Ngali, Trikora, Bajawa, Flores, East Nusa Tenggara 86411","RT Ngali, Trikora, Bajawa, Flores",NUSA TENGGARA TIMUR,86411.0,Indonesia,81338639607.0,,,-8.7846152,120.9692896,https://maps.google.com/?cid=0x0:0x7602b2bd0e921492,
hotel,hotel,Korina Hotel,"Jl. Ahmad Yani No.81, Tanalodu, Bajawa, Kabupaten Ngada, Nusa Tenggara Tim. 86412","Tanalodu, Bajawa, Kabupaten Ngada",NUSA TENGGARA TIMUR,86412.0,Indonesia,38421162.0,,,-8.7917528,120.9749383,https://maps.google.com/?cid=0x0:0xf2a24bd08b01f07e,
hotel,hotel,Penginapan Wisma Keluarga,"Kollbali -Gang 2, Danga, Kec. Aesesa, Kabupaten Nagekeo, Nusa Tenggara Tim.","Kabupaten Nagekeo, Nusa Tenggara Tim.",NUSA TENGGARA TIMUR,,Indonesia,81339474719.0,,,-8.5656693,121.2725117,https://maps.google.com/?cid=0x0:0x31da8d8ef3d97adf,
hotel,hotel,Hotel Binongko Jaya,"96HC+8XR, Jl. Sultan Hasanudin, Beru, Kec. Alok Tim., Kabupaten Sikka, Nusa Tenggara Tim.","Kabupaten Sikka, Nusa Tenggara Tim.",NUSA TENGGARA TIMUR,,Indonesia,85259161871.0,,,-8.6216417,122.2223772,https://maps.google.com/?cid=0x0:0xa3a3c2c464e3c80e,
hotel,hotel,Riani homestay,"73QF+5HH, Piga, Kec. Soa, Kabupaten Ngada, Nusa Tenggara Tim.","Kabupaten Ngada, Nusa Tenggara Tim.",NUSA TENGGARA TIMUR,,Indonesia,85755469263.0,,,-8.7120571,121.0739981,https://maps.google.com/?cid=0x0:0x15654c3de2ff725b,
hotel,hotel,Kec. Aesesa Sel.,"Kabupaten Nagekeo, Nusa Tenggara Tim.","Kabupaten Nagekeo, Nusa Tenggara Tim.",NUSA TENGGARA TIMUR,,Indonesia,,,,-8.6719735,121.2280955,https://maps.google.com/?cid=0x0:0xfaff85aad88b98e2,
hotel,hotel,Hotel Sinar Kasih,"Danga, Kec. Aesesa, Kabupaten Nagekeo, Nusa Tenggara Tim.","Kabupaten Nagekeo, Nusa Tenggara Tim.",NUSA TENGGARA TIMUR,,Indonesia,85847726157.0,,,-8.5641222,121.2707581,https://maps.google.com/?cid=0x0:0x7ae0153a3fc8f36e,
hotel,hotel,Hotel Mandiri,"C7Q9+H3R, Unnamed Road, Danga, Kec. Aesesa, Kabupaten Nagekeo, Nusa Tenggara Tim.","Kabupaten Nagekeo, Nusa Tenggara Tim.",NUSA TENGGARA TIMUR,,Indonesia,,,,-8.5610095,121.2676463,https://maps.google.com/?cid=0x0:0x650aa005edec09bc,
hotel,hotel,Penginapan Wisma Keluarga,"Kollbali -Gang 2, Danga, Kec. Aesesa, Kabupaten Nagekeo, Nusa Tenggara Tim.","Kabupaten Nagekeo, Nusa Tenggara Tim.",NUSA TENGGARA TIMUR,,Indonesia,81339474719.0,,,-8.5656693,121.2725117,https://maps.google.com/?cid=0x0:0x31da8d8ef3d97adf,
hotel,hotel,Bajo Komodo Eco Lodge,"83VH+2JR, Nginamanu, Kec. Wolomeze, Kabupaten Ngada, Nusa Tenggara Tim.","Kabupaten Ngada, Nusa Tenggara Tim.",NUSA TENGGARA TIMUR,,Indonesia,,,,-8.65738,121.079,https://maps.google.com/?cid=0x0:0xac18532eb7df99cd,
hotel,hotel,Wisma BARATA,"65R7+8HX, Natanage, Kec. Boawae, Kabupaten Nagekeo, Nusa Tenggara Tim.","Kabupaten Nagekeo, Nusa Tenggara Tim.",NUSA TENGGARA TIMUR,,Indonesia,,,,-8.7591399,121.1639931,https://maps.google.com/?cid=0x0:0xac553405edcc04fc,
hotel,hotel,Riani homestay,"73QF+5HH, Piga, Kec. Soa, Kabupaten Ngada, Nusa Tenggara Tim.","Kabupaten Ngada, Nusa Tenggara Tim.",NUSA TENGGARA TIMUR,,Indonesia,85755469263.0,,,-8.7120571,121.0739981,https://maps.google.com/?cid=0x0:0x15654c3de2ff725b,
hotel,hotel,Ikhlas Hotel,"Jl. Ahmad Yani Jl. Kelimutu No.69, Kel. Kelimutu, Kec. Ende Tengah, Kabupaten Ende, Nusa Tenggara Tim.","Kabupaten Ende, Nusa Tenggara Tim.",NUSA TENGGARA TIMUR,,Indonesia,38121695.0,,,-8.8482127,121.658812,https://maps.google.com/?cid=0x0:0xcfd00c5b5c73d9e1,
hotel,hotel,Hotel Sanian Bajawa,"6X7F+P98, Jl. Mayjend D.I. Panjaitan, Ngedukelu, Bajawa, Kabupaten Ngada, Nusa Tenggara Tim.","Kabupaten Ngada, Nusa Tenggara Tim.",NUSA TENGGARA TIMUR,,Indonesia,8113498877.0,,,-8.7857195,120.973459,https://maps.google.com/?cid=0x0:0x674775ce67be94a9,
hotel,hotel,Hotel Silverin Bajawa,"Jl. Trans Flores Bajawa-Ende Km. 04, Bajawa, Kabupaten Ngada, Nusa Tenggara Tim. 86411","Bajawa, Kabupaten Ngada",NUSA TENGGARA TIMUR,86411.0,Indonesia,3842225506.0,,,-8.8068765,120.9768528,https://maps.google.com/?cid=0x0:0xa57ca8b51e4d7ac3,
hotel,hotel,Hotel J 1,"Jl. Gatot Soebroto No.KM. 3, Kel. Mautapaga, Kec. Ende Tim., Kabupaten Ende, Nusa Tenggara Tim.","Kabupaten Ende, Nusa Tenggara Tim.",NUSA TENGGARA TIMUR,,Indonesia,895417300072.0,,,-8.8446697,121.6707952,https://maps.google.com/?cid=0x0:0x788687eb7713bb54,
hotel,hotel,Larensia,"Labuan Bajo, Kec. Komodo, Kabupaten Manggarai Barat, Nusa Tenggara Tim.","Kabupaten Manggarai Barat, Nusa Tenggara Tim.",NUSA TENGGARA TIMUR,,Indonesia,85768133373.0,,,-8.4900431,119.8823585,https://maps.google.com/?cid=0x0:0xd70885e69c1b651e,
hotel,hotel,Hotel Harrison Wa. 0851-6998-4624,"Jl. Kelimutu No.11, Kel. Onekore, Kec. Ende Tengah, Kabupaten Ende, Nusa Tenggara Tim.","Kabupaten Ende, Nusa Tenggara Tim.",NUSA TENGGARA TIMUR,,Indonesia,85169984624.0,,,-8.8425648,121.651077,https://maps.google.com/?cid=0x0:0x1d38da7c93494d50,
hotel,hotel,"Hotel Satar Mese,Aula dan Kolam Renang","5M56+GG4, Jalan Eltari, Ende Tengah, Kel. Mautapaga, Kec. Ende, Kabupaten Ende, Nusa Tenggara Tim.","Kabupaten Ende, Nusa Tenggara Tim.",NUSA TENGGARA TIMUR,,Indonesia,85232220007.0,,,-8.8412383,121.6613313,https://maps.google.com/?cid=0x0:0xbab8f1c085161a8f,
restaurant,restaurant,Kec. Aesesa,"Kabupaten Nagekeo, Nusa Tenggara Tim.","Kabupaten Nagekeo, Nusa Tenggara Tim.",NUSA TENGGARA TIMUR,,Indonesia,,,,-8.5575585,121.2692731,https://maps.google.com/?cid=0x0:0x7382490e0d580d1,
restaurant,Restoran,Rumah Makan Nusantara,"Jl. Soekarno Hatta, Danga, Kec. Aesesa, Kabupaten Nagekeo, Nusa Tenggara Tim.","Kabupaten Nagekeo, Nusa Tenggara Tim.",NUSA TENGGARA TIMUR,,Indonesia,81389211627.0,,,-8.5671396,121.2693417,https://maps.google.com/?cid=0x0:0x85cb73af34ce2607,
restaurant,Rumah Makan,Warung sari jaya,"C7PF+62X, Danga, Kec. Aesesa, Kabupaten Nagekeo, Nusa Tenggara Tim.","Kabupaten Nagekeo, Nusa Tenggara Tim.",NUSA TENGGARA TIMUR,,Indonesia,,,,-8.5639835,121.2730903,https://maps.google.com/?cid=0x0:0xef6cc2f224d38480,
restaurant,Indonesia,WARUNG POJOK,"Danga, Kec. Aesesa, Kabupaten Nagekeo, Nusa Tenggara Tim.","Kabupaten Nagekeo, Nusa Tenggara Tim.",NUSA TENGGARA TIMUR,,Indonesia,85339050523.0,,,-8.5667915,121.2651959,https://maps.google.com/?cid=0x0:0xdc1f36b61b01e8bd,
restaurant,Rumah Makan,Rumah Makan HARNEL (menu khas olahan domba),"C7P8+VFJ, Danga, Kec. Aesesa, Kabupaten Nagekeo, Nusa Tenggara Tim.","Kabupaten Nagekeo, Nusa Tenggara Tim.",NUSA TENGGARA TIMUR,,Indonesia,,,,-8.56279,121.2661482,https://maps.google.com/?cid=0x0:0x4569786aca55e484,
restaurant,Kafe,SOJA Drink,"Jl. Jenderal Soeharto, Danga, Mbay I, Kec. Aesesa, Kabupaten Nagekeo, Nusa Tenggara Tim. 86472","Danga, Mbay I, Kec. Aesesa, Kabupaten Nagekeo",NUSA TENGGARA TIMUR,86472.0,Indonesia,81238060621.0,,,-8.56602,121.265352,https://maps.google.com/?cid=0x0:0xf9b6d8befc4484a8,
restaurant,Rumah Makan,Rumah Makan Mbay Makmur,"C7JH+WC9, Danga, Kec. Aesesa, Kabupaten Nagekeo, Nusa Tenggara Tim.","Kabupaten Nagekeo, Nusa Tenggara Tim.",NUSA TENGGARA TIMUR,,Indonesia,81338090239.0,,,-8.5683446,121.2786716,https://maps.google.com/?cid=0x0:0x6be2c28ba5258823,
restaurant,Restoran,Aroma Faii,"Jl. Moh. Hatta, Danga, Kec. Aesesa, Kabupaten Nagekeo, Nusa Tenggara Tim.","Kabupaten Nagekeo, Nusa Tenggara Tim.",NUSA TENGGARA TIMUR,,Indonesia,85253090951.0,,,-8.5668009,121.2656704,https://maps.google.com/?cid=0x0:0x92e477289fe47329,
restaurant,Restoran,RM. SURABAYA,"C7JC+XW8, Danga, Kec. Aesesa, Kabupaten Nagekeo, Nusa Tenggara Tim.","Kabupaten Nagekeo, Nusa Tenggara Tim.",NUSA TENGGARA TIMUR,,Indonesia,,,,-8.5675817,121.2723303,https://maps.google.com/?cid=0x0:0x553e9bfe4dfea449,
restaurant,Brunch,Warung Erlangga (Ragil II),"Danga, Kec. Aesesa, Kabupaten Nagekeo, Nusa Tenggara Tim.","Kabupaten Nagekeo, Nusa Tenggara Tim.",NUSA TENGGARA TIMUR,,Indonesia,82147333326.0,,,-8.5589793,121.2692951,https://maps.google.com/?cid=0x0:0xe310df98d38f12f4,
restaurant,Restoran,RM Gandoriah,"C7P8+8GC, Danga, Kec. Aesesa, Kabupaten Nagekeo, Nusa Tenggara Tim.","Kabupaten Nagekeo, Nusa Tenggara Tim.",NUSA TENGGARA TIMUR,,Indonesia,82144752897.0,,,-8.5641975,121.2662918,https://maps.google.com/?cid=0x0:0xdaad23ddcc3b3b70,
restaurant,Restoran,Calysta Coffee Shop  Resto,"C7JF+R46, Danga, Kec. Aesesa, Kabupaten Nagekeo, Nusa Tenggara Tim.","Kabupaten Nagekeo, Nusa Tenggara Tim.",NUSA TENGGARA TIMUR,,Indonesia,,,,-8.5679634,121.2727576,https://maps.google.com/?cid=0x0:0x15bab1a54fdb78d5,
restaurant,Restoran,Warung Nasi Goreng 77 Lalapan,"C7R9+PPW, Danga, Kec. Aesesa, Kabupaten Nagekeo, Nusa Tenggara Tim.","Kabupaten Nagekeo, Nusa Tenggara Tim.",NUSA TENGGARA TIMUR,,Indonesia,,,,-8.5581332,121.2693399,https://maps.google.com/?cid=0x0:0x1793c6c5dc03abe4,
restaurant,Restoran,RM PONDOK SALERO,"C7M9+646, Jl. Moh. Hatta, Danga, Kec. Aesesa, Kabupaten Nagekeo, Nusa Tenggara Tim.","Kabupaten Nagekeo, Nusa Tenggara Tim.",NUSA TENGGARA TIMUR,,Indonesia,82339415923.0,,,-8.5669566,121.2677543,https://maps.google.com/?cid=0x0:0xab438ee83fd42f44,
restaurant,Indonesia,Warung Rengganis,"C7PH+4V7, Danga, Kec. Aesesa, Kabupaten Nagekeo, Nusa Tenggara Tim.","Kabupaten Nagekeo, Nusa Tenggara Tim.",NUSA TENGGARA TIMUR,,Indonesia,81338768909.0,,,-8.564722,121.2796736,https://maps.google.com/?cid=0x0:0x23a54cc0c1157c04,
restaurant,Restoran,Warung Palapa (Masakan Padang),"C7JG+Q8C, Danga, Kec. Aesesa, Kabupaten Nagekeo, Nusa Tenggara Tim.","Kabupaten Nagekeo, Nusa Tenggara Tim.",NUSA TENGGARA TIMUR,,Indonesia,,,,-8.5680641,121.2757786,https://maps.google.com/?cid=0x0:0x60bba575f120b366,
restaurant,Rumah Makan,Rm.Sambal Bakar Ibu Sri,"C7JH+7VR, Danga, Kec. Aesesa, Kabupaten Nagekeo, Nusa Tenggara Tim.","Kabupaten Nagekeo, Nusa Tenggara Tim.",NUSA TENGGARA TIMUR,,Indonesia,,,,-8.5687338,121.2793338,https://maps.google.com/?cid=0x0:0x103f251b861378ad,
restaurant,Pujasera,Familia Resto  Cafe,"C7P8+VFJ, Danga, Kec. Aesesa, Kabupaten Nagekeo, Nusa Tenggara Tim.","Kabupaten Nagekeo, Nusa Tenggara Tim.",NUSA TENGGARA TIMUR,,Indonesia,,,,-8.5628003,121.2662129,https://maps.google.com/?cid=0x0:0x529cd93a5658aec4,
restaurant,Rumah Makan,Rumah makan Mini indah 2,"mbay, flores, Danga, Kec. Aesesa, Kabupaten Nagekeo, Nusa Tenggara Tim.","Kabupaten Nagekeo, Nusa Tenggara Tim.",NUSA TENGGARA TIMUR,,Indonesia,82140761534.0,,,-8.5598425,121.2687263,https://maps.google.com/?cid=0x0:0x53c55c0057367d36,
restaurant,Restoran,AYAM MA'NINIS FREID CHICKEN,"Mbay I, Kec. Aesesa, Kabupaten Nagekeo, Nusa Tenggara Tim.","Kabupaten Nagekeo, Nusa Tenggara Tim.",NUSA TENGGARA TIMUR,,Indonesia,81338252908.0,,,-8.55254,121.268892,https://maps.google.com/?cid=0x0:0x2f1907974f603a6a,
restaurant,Kafe,Cafe Maitulisee,"Tonggu Rambang, Kec. Aesesa, Kabupaten Nagekeo, Nusa Tenggara Tim.","Kabupaten Nagekeo, Nusa Tenggara Tim.",NUSA TENGGARA TIMUR,,Indonesia,81338476917.0,,,-8.5051861,121.2897408,https://maps.google.com/?cid=0x0:0xc922fb27ca9c44b8,
restaurant,Jawa,Warung Putra Rahayu,"C7P9+9J9, Jl. Pramuka, Danga, Kec. Aesesa, Kabupaten Nagekeo, Nusa Tenggara Tim.","Kabupaten Nagekeo, Nusa Tenggara Tim.",NUSA TENGGARA TIMUR,,Indonesia,,,,-8.5640826,121.2691136,https://maps.google.com/?cid=0x0:0xd1aa3e4273e65d73,
restaurant,Restoran,Warung Sederhana Om Badrus,"F89J+J7C, Nangadhero, Kec. Aesesa, Kabupaten Nagekeo, Nusa Tenggara Tim.","Kabupaten Nagekeo, Nusa Tenggara Tim.",NUSA TENGGARA TIMUR,,Indonesia,81239220009.0,,,-8.5309383,121.3306346,https://maps.google.com/?cid=0x0:0x33320bf60626a7e2,
restaurant,Rumah Makan,LD BarResto,"G72Q+47C, Unnamed Road, Tonggu Rambang, Kec. Aesesa, Kabupaten Nagekeo, Nusa Tenggara Tim.","Kabupaten Nagekeo, Nusa Tenggara Tim.",NUSA TENGGARA TIMUR,,Indonesia,81338904080.0,,,-8.4996998,121.2881445,https://maps.google.com/?cid=0x0:0x3b70575ee5ef72b3,
restaurant,Restoran,Aroma Faii CafeResto,"Gang 8, Watukesu, Danga, Mbay, Kabupaten Nagekeo, Nusa Tenggara Tim.","Kabupaten Nagekeo, Nusa Tenggara Tim.",NUSA TENGGARA TIMUR,,Indonesia,81246684069.0,,,-8.5641253,121.2799961,https://maps.google.com/?cid=0x0:0xee904ebbb74bd391,
restaurant,restaurant,Nusa Tenggara Tim.,,Nusa Tenggara Tim.,NUSA TENGGARA TIMUR,,Indonesia,,,,-8.6573819,121.0793705,https://maps.google.com/?cid=0x0:0x1030bfbcaf71ae0,
restaurant,Restoran,CAFE VILA BUKIT NANGOR,"Unnamed Road, Nangaroro, Kec. Nangaroro, Kabupaten Nagekeo, Nusa Tenggara Tim.","Kabupaten Nagekeo, Nusa Tenggara Tim.",NUSA TENGGARA TIMUR,,Indonesia,,,,-8.7856733,121.3848417,https://maps.google.com/?cid=0x0:0x57a04db290b9a7e9,
restaurant,Rumah Makan,Rumah Makan Nangaroro,"698P+4C6, Nangaroro, Kec. Nangaroro, Kabupaten Nagekeo, Nusa Tenggara Tim.","Kabupaten Nagekeo, Nusa Tenggara Tim.",NUSA TENGGARA TIMUR,,Indonesia,1239974737.0,,,-8.7847072,121.3860006,https://maps.google.com/?cid=0x0:0x44d7bf1aaab72393,
restaurant,Restoran,Rumah Makan Bu Ida,"697R+X9R, Nangaroro, Kec. Nangaroro, Kabupaten Nagekeo, Nusa Tenggara Tim.","Kabupaten Nagekeo, Nusa Tenggara Tim.",NUSA TENGGARA TIMUR,,Indonesia,,,,-8.78501,121.3909034,https://maps.google.com/?cid=0x0:0x7203e83394c7934c,
restaurant,restaurant,Kec. Nangaroro,"Kabupaten Nagekeo, Nusa Tenggara Tim.","Kabupaten Nagekeo, Nusa Tenggara Tim.",NUSA TENGGARA TIMUR,,Indonesia,,,,-8.7877249,121.393929,https://maps.google.com/?cid=0x0:0x7c1a30a4c1814805,
restaurant,Pom bensin/SPBU,Pertigaan Aegela,"788P+7MH, Bidoa, Kec. Nangaroro, Kabupaten Nagekeo, Nusa Tenggara Tim.","Kabupaten Nagekeo, Nusa Tenggara Tim.",NUSA TENGGARA TIMUR,,Indonesia,,,,-8.7343173,121.3367231,https://maps.google.com/?cid=0x0:0x753c5b15ce3f2dc6,
restaurant,Rumah Makan,RM.BUNDA UJUNG/SARAKAKA RESTO,"Nangaroror, Sarakaka, Kabupaten Nagekeo, Nusa Tenggara Tim. 86464","Sarakaka, Kabupaten Nagekeo",NUSA TENGGARA TIMUR,86464.0,Indonesia,85237884568.0,,,-8.7877994,121.3969651,https://maps.google.com/?cid=0x0:0x7e44d24cc5ba7421,
restaurant,restaurant,Kec. Boawae,"Kabupaten Nagekeo, Nusa Tenggara Tim.","Kabupaten Nagekeo, Nusa Tenggara Tim.",NUSA TENGGARA TIMUR,,Indonesia,,,,-8.7639474,121.1651632,https://maps.google.com/?cid=0x0:0x7defadf688be794f,
restaurant,Restoran,Depot Oriental Boawae,"65QJ+X3Q, Nageoga, Kec. Boawae, Kabupaten Nagekeo, Nusa Tenggara Tim.","Kabupaten Nagekeo, Nusa Tenggara Tim.",NUSA TENGGARA TIMUR,,Indonesia,82144670006.0,,,-8.7597066,121.1799918,https://maps.google.com/?cid=0x0:0x887b70c518a6b24,
restaurant,Brunch,Rumah Makan Handayani,"65P8+2V3, Natanage, Kec. Boawae, Kabupaten Nagekeo, Nusa Tenggara Tim.","Kabupaten Nagekeo, Nusa Tenggara Tim.",NUSA TENGGARA TIMUR,,Indonesia,85253190547.0,,,-8.7649987,121.1671659,https://maps.google.com/?cid=0x0:0x577ea21801925b2e,
restaurant,Indonesia,Warung Solo PODOMORO Boawae,"65PC+7PQ, Jl. Raya Bajawa, Natanage Tim., Kec. Boawae, Kabupaten Nagekeo, Nusa Tenggara Tim.","Kabupaten Nagekeo, Nusa Tenggara Tim.",NUSA TENGGARA TIMUR,,Indonesia,,,,-8.7642928,121.1718512,https://maps.google.com/?cid=0x0:0x44215cd0733bf888,
restaurant,Restoran,Warung Makan Jawa Timur,"67W5+CM6, Jl. Raya Bajawa, Raja, Kec. Boawae, Kabupaten Nagekeo, Nusa Tenggara Tim.","Kabupaten Nagekeo, Nusa Tenggara Tim.",NUSA TENGGARA TIMUR,,Indonesia,,,,-8.7539676,121.2591494,https://maps.google.com/?cid=0x0:0xdb373943ec88c3a4,
restaurant,Padang,LESEHAN SEDERHANA,"65QJ+FRP, Aemali, Nageoga, Kec. Boawae, Kabupaten Nagekeo, Nusa Tenggara Tim.","Kabupaten Nagekeo, Nusa Tenggara Tim.",NUSA TENGGARA TIMUR,,Indonesia,81236141184.0,,,-8.761294,121.1820674,https://maps.google.com/?cid=0x0:0x26c5c93807e54cae,
restaurant,Rumah Makan,Warung Horas,"67W6+VP6, Jl. Raya Bajawa, Raja, Kec. Boawae, Kabupaten Nagekeo, Nusa Tenggara Tim.","Kabupaten Nagekeo, Nusa Tenggara Tim.",NUSA TENGGARA TIMUR,,Indonesia,,,,-8.752826,121.2617694,https://maps.google.com/?cid=0x0:0x8df385b3edafaa0c,
restaurant,Padang,Warung RW Sederhana,"67X7+RW8, Unnamed Road Raja Timur, Raja, Kec. Boawae, Kabupaten Nagekeo, Nusa Tenggara Tim.","Kabupaten Nagekeo, Nusa Tenggara Tim.",NUSA TENGGARA TIMUR,,Indonesia,81339183846.0,,,-8.7504749,121.2648138,https://maps.google.com/?cid=0x0:0xf75e67952172bb4,
restaurant,Padang,RM.NABILA MASAKAN PADANG,"65QM+C3F, Nageoga, Kec. Boawae, Kabupaten Nagekeo, Nusa Tenggara Tim.","Kabupaten Nagekeo, Nusa Tenggara Tim.",NUSA TENGGARA TIMUR,,Indonesia,82145925252.0,,,-8.7614442,121.182663,https://maps.google.com/?cid=0x0:0x9e17937a882ac54f,
restaurant,Rumah Makan,WARUNG MAKAN DAN KEDAI LEFIS KITCHEN,"65QM+H25, Jl. Raya Bajawa, Nageoga, Kec. Boawae, Kabupaten Nagekeo, Nusa Tenggara Tim.","Kabupaten Nagekeo, Nusa Tenggara Tim.",NUSA TENGGARA TIMUR,,Indonesia,81272990393.0,,,-8.7611182,121.1826079,https://maps.google.com/?cid=0x0:0x490a3a4c70660c1b,
restaurant,Brunch,Warung Semarang,"65PC+4CM, Natanage Tim., Kec. Boawae, Kabupaten Nagekeo, Nusa Tenggara Tim.","Kabupaten Nagekeo, Nusa Tenggara Tim.",NUSA TENGGARA TIMUR,,Indonesia,8223669278.0,,,-8.7646674,121.1710624,https://maps.google.com/?cid=0x0:0x922af95e70a6f26,
restaurant,Restoran,Bajawa Family Resto,"Jl. WJ Lalamentik, Faobata, Bajawa, Kabupaten Ngada, Nusa Tenggara Tim. 86419","Faobata, Bajawa, Kabupaten Ngada",NUSA TENGGARA TIMUR,86419.0,Indonesia,82266397945.0,,,-8.7777766,120.9887957,https://maps.google.com/?cid=0x0:0x1bebbd2301fe2c95,
restaurant,Rumah Makan,Warung rahayu,"65QM+C39, Jl. Raya Bajawa, Nageoga, Kec. Boawae, Kabupaten Nagekeo, Nusa Tenggara Tim.","Kabupaten Nagekeo, Nusa Tenggara Tim.",NUSA TENGGARA TIMUR,,Indonesia,,,,-8.7614573,121.1827253,https://maps.google.com/?cid=0x0:0xe11fe2ed32dfd560,
restaurant,Rumah Makan,PAGONAGE,"trans ende_bajawa, Nageoga, Bajawa, Kabupaten Ngada, Nusa Tenggara Tim.","Kabupaten Ngada, Nusa Tenggara Tim.",NUSA TENGGARA TIMUR,,Indonesia,81338736973.0,,,-8.7622256,121.1808954,https://maps.google.com/?cid=0x0:0x4b1e370a6bcd1c37,
restaurant,Kedai Kopi,Cafe Coffee Kampung 18+,"65QF+2V2, Jln. Ebulobo, Paulewa, Nageoga, Kec. Boawae, Kabupaten Nagekeo, Nusa Tenggara Tim. 86462","Jln. Ebulobo, Paulewa, Nageoga, Kec. Boawae, Kabupaten Nagekeo",NUSA TENGGARA TIMUR,86462.0,Indonesia,82242598326.0,,,-8.7624755,121.1746465,https://maps.google.com/?cid=0x0:0x651763773a4f4f2,
restaurant,Restoran,MAIBETH RESTAURANT,"Jl. Ahmad Yani No.70, Tanalodu, Bajawa, Kabupaten Ngada, Nusa Tenggara Tim.","Kabupaten Ngada, Nusa Tenggara Tim.",NUSA TENGGARA TIMUR,,Indonesia,81338319349.0,,,-8.7918124,120.9741893,https://maps.google.com/?cid=0x0:0xe81b14e4190a7f5f,
restaurant,Rumah Makan,WARUNG MAKAN MAS GONDRONG,"67W6+VQW, Gako - Aegela, Raja, Kec. Boawae, Kabupaten Nagekeo, Nusa Tenggara Tim.","Kabupaten Nagekeo, Nusa Tenggara Tim.",NUSA TENGGARA TIMUR,,Indonesia,,,,-8.7527592,121.261968,https://maps.google.com/?cid=0x0:0x3fb0ee3badd5c432,
restaurant,Indonesia,Heaven‚Äôs Door Bar  Restaurant,"Jerebu‚Äôu, Tiworiwu, Bajawa, Kabupaten Ngada, Nusa Tenggara Tim. 86413","Tiworiwu, Bajawa, Kabupaten Ngada",NUSA TENGGARA TIMUR,86413.0,Indonesia,82144774417.0,,,-8.8641596,120.994707,https://maps.google.com/?cid=0x0:0xcee91644a99e188b,
restaurant,Restoran,Anugrah Resto,"Jl. Ahmad Yani No.76, Tanalodu, Bajawa, Kabupaten Ngada, Nusa Tenggara Tim. 86412","Tanalodu, Bajawa, Kabupaten Ngada",NUSA TENGGARA TIMUR,86412.0,Indonesia,,,,-8.7915706,120.9750104,https://maps.google.com/?cid=0x0:0xd4f8011f7b7298b7,
restaurant,Padang,Warung Sederhana Bu'e,"65Q7+Q42, Kompleks Pasar Rabu Kotagoa, RT.13/RW.03, Natanage, Kec. Boawae, Kabupaten Nagekeo, Nusa Tenggara Tim.","Kabupaten Nagekeo, Nusa Tenggara Tim.",NUSA TENGGARA TIMUR,,Indonesia,81333873442.0,,,-8.7606205,121.1627539,https://maps.google.com/?cid=0x0:0xecb6b739c5ffd561,
restaurant,Indonesia,Kuliner Oma Mia,"Jl. Ebulobo No.2, Nageoga, Kec. Boawae, Kabupaten Nagekeo, Nusa Tenggara Tim.","Kabupaten Nagekeo, Nusa Tenggara Tim.",NUSA TENGGARA TIMUR,,Indonesia,82339144227.0,,,-8.7623986,121.1748762,https://maps.google.com/?cid=0x0:0xd54417c19e260f74,
restaurant,Kafe,Long Mango Community Cafe,"65PF+XVX, Jl. Ebulobo, Nageoga, Kec. Boawae, Kabupaten Nagekeo, Nusa Tenggara Tim.","Kabupaten Nagekeo, Nusa Tenggara Tim.",NUSA TENGGARA TIMUR,,Indonesia,81337928506.0,,,-8.7625151,121.1747459,https://maps.google.com/?cid=0x0:0x1a5e3b166f82d99c,
restaurant,Pondok,"Wisma Nusa Bunga, Boawae Kabupaten Nagekeo","65M7+GG2, Natanage, Kec. Boawae, Kabupaten Nagekeo, Nusa Tenggara Tim.","Kabupaten Nagekeo, Nusa Tenggara Tim.",NUSA TENGGARA TIMUR,,Indonesia,81338805719.0,,,-8.7662283,121.163773,https://maps.google.com/?cid=0x0:0xeac7ad096d132bd9,
restaurant,Kafe,Fygo'S Cafe,"Jalan Darurat No.Rt 007, Natanage Tim., Kec. Boawae, Kabupaten Nagekeo, Nusa Tenggara Tim.","Kabupaten Nagekeo, Nusa Tenggara Tim.",NUSA TENGGARA TIMUR,,Indonesia,85238312170.0,,,-8.7650389,121.1701396,https://maps.google.com/?cid=0x0:0x45f46432bbc6c833,
restaurant,restaurant,Nusa Tenggara Tim.,,Nusa Tenggara Tim.,NUSA TENGGARA TIMUR,,Indonesia,,,,-8.6573819,121.0793705,https://maps.google.com/?cid=0x0:0x1030bfbcaf71ae0,
restaurant,Jawa,RM.SATE GULE KAMBING ANUGERAH,"4666+7RJ, Mauponggo, Kec. Mauponggo, Kabupaten Nagekeo, Nusa Tenggara Tim.","Kabupaten Nagekeo, Nusa Tenggara Tim.",NUSA TENGGARA TIMUR,,Indonesia,81238485833.0,,,-8.889276,121.2120304,https://maps.google.com/?cid=0x0:0x11dc582497e8b47,
restaurant,Sate,rumah makan anugrah masakan jawa,"45RV+3H8, Jawapogo, Kec. Mauponggo, Kabupaten Nagekeo, Nusa Tenggara Tim.","Kabupaten Nagekeo, Nusa Tenggara Tim.",NUSA TENGGARA TIMUR,,Indonesia,81238485833.0,,,-8.8598312,121.193945,https://maps.google.com/?cid=0x0:0x5033bdaf3d52a07d,
restaurant,restaurant,Kec. Mauponggo,"Kabupaten Nagekeo, Nusa Tenggara Tim.","Kabupaten Nagekeo, Nusa Tenggara Tim.",NUSA TENGGARA TIMUR,,Indonesia,,,,-8.8893553,121.2119342,https://maps.google.com/?cid=0x0:0x6584ed4b0b02f822,
restaurant,Grosir minuman beralkohol,Moke Wudhi,"Sawu, Kec. Mauponggo, Kabupaten Nagekeo, Nusa Tenggara Tim.","Kabupaten Nagekeo, Nusa Tenggara Tim.",NUSA TENGGARA TIMUR,,Indonesia,81236186399.0,,,-8.8685487,121.2065189,https://maps.google.com/?cid=0x0:0xe37000fc0dc60d95,
restaurant,Padang,Warung Pondok Bambu Maunday,"37XR+Q43, Maunday, Kec. Keo Tengah, Kabupaten Nagekeo, Nusa Tenggara Tim.","Kabupaten Nagekeo, Nusa Tenggara Tim.",NUSA TENGGARA TIMUR,,Indonesia,,,,-8.9006127,121.2902913,https://maps.google.com/?cid=0x0:0xe6cbcd808b402519,
restaurant,Warnet,Sergio Mg,"45J5+547, Wuliwalo, Kec. Mauponggo, Kabupaten Nagekeo, Nusa Tenggara Tim.","Kabupaten Nagekeo, Nusa Tenggara Tim.",NUSA TENGGARA TIMUR,,Indonesia,,,,-8.8695829,121.1577923,https://maps.google.com/?cid=0x0:0xbc50d7a839cc1dbe,
restaurant,Rumah Makan,Delon,"65PM+7RH, Nageoga, Kec. Boawae, Kabupaten Nagekeo, Nusa Tenggara Tim.","Kabupaten Nagekeo, Nusa Tenggara Tim.",NUSA TENGGARA TIMUR,,Indonesia,,,,-8.7643182,121.1845994,https://maps.google.com/?cid=0x0:0x19662954d6657b26,
restaurant,restaurant,Kec. Wolowae,"Kabupaten Nagekeo, Nusa Tenggara Tim.","Kabupaten Nagekeo, Nusa Tenggara Tim.",NUSA TENGGARA TIMUR,,Indonesia,,,,-8.6305795,121.5020191,https://maps.google.com/?cid=0x0:0x21a9f7a6f47b294d,
restaurant,Restoran,Aroma Faii CafeResto,"Gang 8, Watukesu, Danga, Mbay, Kabupaten Nagekeo, Nusa Tenggara Tim.","Kabupaten Nagekeo, Nusa Tenggara Tim.",NUSA TENGGARA TIMUR,,Indonesia,81246684069.0,,,-8.5641253,121.2799961,https://maps.google.com/?cid=0x0:0xee904ebbb74bd391,
restaurant,Restoran,Depot warung makan mama candra,"9GH8+8V9, Unnamed Road, Tenda Kinde, Kec. Wolowae, Kabupaten Nagekeo, Nusa Tenggara Tim.","Kabupaten Nagekeo, Nusa Tenggara Tim.",NUSA TENGGARA TIMUR,,Indonesia,81238714732.0,,,-8.6217195,121.5172229,https://maps.google.com/?cid=0x0:0xc3b01efdc9c3bc94,
restaurant,Restoran,Aroma Faii,"Jl. Moh. Hatta, Danga, Kec. Aesesa, Kabupaten Nagekeo, Nusa Tenggara Tim.","Kabupaten Nagekeo, Nusa Tenggara Tim.",NUSA TENGGARA TIMUR,,Indonesia,85253090951.0,,,-8.5668009,121.2656704,https://maps.google.com/?cid=0x0:0x92e477289fe47329,
restaurant,Rumah Makan,Rumah Makan Mbay Makmur,"C7JH+WC9, Danga, Kec. Aesesa, Kabupaten Nagekeo, Nusa Tenggara Tim.","Kabupaten Nagekeo, Nusa Tenggara Tim.",NUSA TENGGARA TIMUR,,Indonesia,81338090239.0,,,-8.5683446,121.2786716,https://maps.google.com/?cid=0x0:0x6be2c28ba5258823,
restaurant,Indonesia,Nua Seafood Resto Mbay,"Jalan Jendral Soeharto, Mbay I, Kec. Aesesa, Kabupaten Nagekeo, Nusa Tenggara Tim. 86472","Mbay I, Kec. Aesesa, Kabupaten Nagekeo",NUSA TENGGARA TIMUR,86472.0,Indonesia,82247262995.0,,,-8.5664068,121.2655901,https://maps.google.com/?cid=0x0:0x10611e3f203247e6,
restaurant,Kafe,SOJA Drink,"Jl. Jenderal Soeharto, Danga, Mbay I, Kec. Aesesa, Kabupaten Nagekeo, Nusa Tenggara Tim. 86472","Danga, Mbay I, Kec. Aesesa, Kabupaten Nagekeo",NUSA TENGGARA TIMUR,86472.0,Indonesia,81238060621.0,,,-8.56602,121.265352,https://maps.google.com/?cid=0x0:0xf9b6d8befc4484a8,
restaurant,Rumah Makan,Warung sari jaya,"C7PF+62X, Danga, Kec. Aesesa, Kabupaten Nagekeo, Nusa Tenggara Tim.","Kabupaten Nagekeo, Nusa Tenggara Tim.",NUSA TENGGARA TIMUR,,Indonesia,,,,-8.5639835,121.2730903,https://maps.google.com/?cid=0x0:0xef6cc2f224d38480,
restaurant,Brunch,Warung Nasi Olalape,"C7HW+X27, Lape, Kec. Aesesa, Kabupaten Nagekeo, Nusa Tenggara Tim.","Kabupaten Nagekeo, Nusa Tenggara Tim.",NUSA TENGGARA TIMUR,,Indonesia,,,,-8.5700803,121.2950507,https://maps.google.com/?cid=0x0:0xfd820e73e7273853,
restaurant,Jawa,Warung Putra Rahayu,"C7P9+9J9, Jl. Pramuka, Danga, Kec. Aesesa, Kabupaten Nagekeo, Nusa Tenggara Tim.","Kabupaten Nagekeo, Nusa Tenggara Tim.",NUSA TENGGARA TIMUR,,Indonesia,,,,-8.5640826,121.2691136,https://maps.google.com/?cid=0x0:0xd1aa3e4273e65d73,
restaurant,Indonesia,WARUNG POJOK,"Danga, Kec. Aesesa, Kabupaten Nagekeo, Nusa Tenggara Tim.","Kabupaten Nagekeo, Nusa Tenggara Tim.",NUSA TENGGARA TIMUR,,Indonesia,85339050523.0,,,-8.5667915,121.2651959,https://maps.google.com/?cid=0x0:0xdc1f36b61b01e8bd,
restaurant,Restoran,Rumah Makan Mulia,"C7JF+PP6, Jl. Moh. Hatta, Danga, Kec. Aesesa, Kabupaten Nagekeo, Nusa Tenggara Tim.","Kabupaten Nagekeo, Nusa Tenggara Tim.",NUSA TENGGARA TIMUR,,Indonesia,81238248068.0,,,-8.5682078,121.2742665,https://maps.google.com/?cid=0x0:0xa0f764cf5d1678d0,
restaurant,Restoran,Calysta Coffee Shop  Resto,"C7JF+R46, Danga, Kec. Aesesa, Kabupaten Nagekeo, Nusa Tenggara Tim.","Kabupaten Nagekeo, Nusa Tenggara Tim.",NUSA TENGGARA TIMUR,,Indonesia,,,,-8.5679634,121.2727576,https://maps.google.com/?cid=0x0:0x15bab1a54fdb78d5,
restaurant,Restoran,Warung Lamongan,"C7M9+5F5, Danga, Kec. Aesesa, Kabupaten Nagekeo, Nusa Tenggara Tim.","Kabupaten Nagekeo, Nusa Tenggara Tim.",NUSA TENGGARA TIMUR,,Indonesia,81252868427.0,,,-8.5671038,121.2687384,https://maps.google.com/?cid=0x0:0xc4528b4c1870fe99,
restaurant,Restoran,RM. SURABAYA,"C7JC+XW8, Danga, Kec. Aesesa, Kabupaten Nagekeo, Nusa Tenggara Tim.","Kabupaten Nagekeo, Nusa Tenggara Tim.",NUSA TENGGARA TIMUR,,Indonesia,,,,-8.5675817,121.2723303,https://maps.google.com/?cid=0x0:0x553e9bfe4dfea449,
restaurant,Dapur Umum,Rumah Makan,"9GMG+W3V, Kebirangga, Kec. Maukaro, Kabupaten Ende, Nusa Tenggara Tim.","Kabupaten Ende, Nusa Tenggara Tim.",NUSA TENGGARA TIMUR,,Indonesia,,,,-8.6151377,121.525167,https://maps.google.com/?cid=0x0:0xd577ef8d4dbbf8a2,
restaurant,Restoran,RM Gandoriah,"C7P8+8GC, Danga, Kec. Aesesa, Kabupaten Nagekeo, Nusa Tenggara Tim.","Kabupaten Nagekeo, Nusa Tenggara Tim.",NUSA TENGGARA TIMUR,,Indonesia,82144752897.0,,,-8.5641975,121.2662918,https://maps.google.com/?cid=0x0:0xdaad23ddcc3b3b70,
restaurant,Rumah Makan,Warung Cindy,"C89M+4FM, Aeramo, Kec. Aesesa, Kabupaten Nagekeo, Nusa Tenggara Tim.","Kabupaten Nagekeo, Nusa Tenggara Tim.",NUSA TENGGARA TIMUR,,Indonesia,,,,-8.5821675,121.333672,https://maps.google.com/?cid=0x0:0x9736b1ea7b2ce93,
restaurant,restaurant,Rumah Makan Kania,"9GJC+888, Tenda Kinde, Kec. Wolowae, Kabupaten Nagekeo, Nusa Tenggara Tim.","Kabupaten Nagekeo, Nusa Tenggara Tim.",NUSA TENGGARA TIMUR,,Indonesia,,,,-8.6192097,121.5208129,https://maps.google.com/?cid=0x0:0x10f7afa4b5419fc1,
restaurant,Sekolah menengah,SMAN 1 Keo Tengah,"38R9+8X2, Kotadirumali, Kec. Keo Tengah, Kabupaten Nagekeo, Nusa Tenggara Tim.","Kabupaten Nagekeo, Nusa Tenggara Tim.",NUSA TENGGARA TIMUR,,Indonesia,,,,-8.9092288,121.3198972,https://maps.google.com/?cid=0x0:0xbe50b33e5aa58a60,
restaurant,Sekolah Menengah Umum,SMAN 1 MAUPONGGO,"Wolokisa, Kec. Mauponggo, Kabupaten Nagekeo, Nusa Tenggara Tim.","Kabupaten Nagekeo, Nusa Tenggara Tim.",NUSA TENGGARA TIMUR,,Indonesia,,,,-8.894332,121.1507249,https://maps.google.com/?cid=0x0:0xdf88ee3da535ee41,
restaurant,Sekolah Menengah Pertama,Tanjung Bengga_pantai harapan,"38RC+48W, Unnamed Road, Kotadirumali, Kec. Keo Tengah, Kabupaten Nagekeo, Nusa Tenggara Tim.","Kabupaten Nagekeo, Nusa Tenggara Tim.",NUSA TENGGARA TIMUR,,Indonesia,,,,-8.9096438,121.3208142,https://maps.google.com/?cid=0x0:0xd165d5b5633cb743,
restaurant,Padang,Warung Pondok Bambu Maunday,"37XR+Q43, Maunday, Kec. Keo Tengah, Kabupaten Nagekeo, Nusa Tenggara Tim.","Kabupaten Nagekeo, Nusa Tenggara Tim.",NUSA TENGGARA TIMUR,,Indonesia,,,,-8.9006127,121.2902913,https://maps.google.com/?cid=0x0:0xe6cbcd808b402519,
restaurant,Kedai Kopi,Warkop Ade Eti,"Oka, RT.05/RW.04, Mbaenuamuri, Kec. Keo Tengah, Kabupaten Nagekeo, Nusa Tenggara Tim. 86464","RT.05/RW.04, Mbaenuamuri, Kec. Keo Tengah, Kabupaten Nagekeo",NUSA TENGGARA TIMUR,86464.0,Indonesia,81237956525.0,,,-8.8824109,121.2847434,https://maps.google.com/?cid=0x0:0x72b1caa71bd97af1,
restaurant,restaurant,Kec. Aesesa Sel.,"Kabupaten Nagekeo, Nusa Tenggara Tim.","Kabupaten Nagekeo, Nusa Tenggara Tim.",NUSA TENGGARA TIMUR,,Indonesia,,,,-8.6719735,121.2280955,https://maps.google.com/?cid=0x0:0xfaff85aad88b98e2,
restaurant,Restoran,Rumah Makan Nusantara,"Jl. Soekarno Hatta, Danga, Kec. Aesesa, Kabupaten Nagekeo, Nusa Tenggara Tim.","Kabupaten Nagekeo, Nusa Tenggara Tim.",NUSA TENGGARA TIMUR,,Indonesia,81389211627.0,,,-8.5671396,121.2693417,https://maps.google.com/?cid=0x0:0x85cb73af34ce2607,
restaurant,Rumah Makan,Rumah Makan Mbay Makmur,"C7JH+WC9, Danga, Kec. Aesesa, Kabupaten Nagekeo, Nusa Tenggara Tim.","Kabupaten Nagekeo, Nusa Tenggara Tim.",NUSA TENGGARA TIMUR,,Indonesia,81338090239.0,,,-8.5683446,121.2786716,https://maps.google.com/?cid=0x0:0x6be2c28ba5258823,
restaurant,Rumah Makan,Rm.Sambal Bakar Ibu Sri,"C7JH+7VR, Danga, Kec. Aesesa, Kabupaten Nagekeo, Nusa Tenggara Tim.","Kabupaten Nagekeo, Nusa Tenggara Tim.",NUSA TENGGARA TIMUR,,Indonesia,,,,-8.5687338,121.2793338,https://maps.google.com/?cid=0x0:0x103f251b861378ad,
restaurant,Indonesia,WARUNG POJOK,"Danga, Kec. Aesesa, Kabupaten Nagekeo, Nusa Tenggara Tim.","Kabupaten Nagekeo, Nusa Tenggara Tim.",NUSA TENGGARA TIMUR,,Indonesia,85339050523.0,,,-8.5667915,121.2651959,https://maps.google.com/?cid=0x0:0xdc1f36b61b01e8bd,
restaurant,Restoran,RM. SURABAYA,"C7JC+XW8, Danga, Kec. Aesesa, Kabupaten Nagekeo, Nusa Tenggara Tim.","Kabupaten Nagekeo, Nusa Tenggara Tim.",NUSA TENGGARA TIMUR,,Indonesia,,,,-8.5675817,121.2723303,https://maps.google.com/?cid=0x0:0x553e9bfe4dfea449,
restaurant,Restoran,Warung Palapa (Masakan Padang),"C7JG+Q8C, Danga, Kec. Aesesa, Kabupaten Nagekeo, Nusa Tenggara Tim.","Kabupaten Nagekeo, Nusa Tenggara Tim.",NUSA TENGGARA TIMUR,,Indonesia,,,,-8.5680641,121.2757786,https://maps.google.com/?cid=0x0:0x60bba575f120b366,
restaurant,Restoran,RM.Pondok Bambu,"C7M8+998, Danga, Kec. Aesesa, Kabupaten Nagekeo, Nusa Tenggara Tim.","Kabupaten Nagekeo, Nusa Tenggara Tim.",NUSA TENGGARA TIMUR,,Indonesia,81337873111.0,,,-8.5665897,121.2659531,https://maps.google.com/?cid=0x0:0xe9aff5bb20d36676,
restaurant,Padang,LESEHAN SEDERHANA,"65QJ+FRP, Aemali, Nageoga, Kec. Boawae, Kabupaten Nagekeo, Nusa Tenggara Tim.","Kabupaten Nagekeo, Nusa Tenggara Tim.",NUSA TENGGARA TIMUR,,Indonesia,81236141184.0,,,-8.761294,121.1820674,https://maps.google.com/?cid=0x0:0x26c5c93807e54cae,
restaurant,Indonesia,Rumah makan minang jaya,"Jl. Jenderal Soehart, Danga, Kec. Aesesa, Kabupaten Nagekeo, Nusa Tenggara Tim.","Kabupaten Nagekeo, Nusa Tenggara Tim.",NUSA TENGGARA TIMUR,,Indonesia,81246720529.0,,,-8.5583238,121.2689577,https://maps.google.com/?cid=0x0:0x21b1259b8b4f605e,
restaurant,Indonesia,Rumah Makan B2,"C7PF+34C, Danga, Kec. Aesesa, Kabupaten Nagekeo, Nusa Tenggara Tim.","Kabupaten Nagekeo, Nusa Tenggara Tim.",NUSA TENGGARA TIMUR,,Indonesia,,,,-8.564812,121.2727627,https://maps.google.com/?cid=0x0:0xa0d1b1d14937247c,
restaurant,Brunch,Warung Nasi Olalape,"C7HW+X27, Lape, Kec. Aesesa, Kabupaten Nagekeo, Nusa Tenggara Tim.","Kabupaten Nagekeo, Nusa Tenggara Tim.",NUSA TENGGARA TIMUR,,Indonesia,,,,-8.5700803,121.2950507,https://maps.google.com/?cid=0x0:0xfd820e73e7273853,
restaurant,Restoran,Depot Oriental Boawae,"65QJ+X3Q, Nageoga, Kec. Boawae, Kabupaten Nagekeo, Nusa Tenggara Tim.","Kabupaten Nagekeo, Nusa Tenggara Tim.",NUSA TENGGARA TIMUR,,Indonesia,82144670006.0,,,-8.7597066,121.1799918,https://maps.google.com/?cid=0x0:0x887b70c518a6b24,
restaurant,Indonesia,RUMAH MAKAN SARI JAYA,"F7CH+HWV, JALAN BIDARA MANIS PADA GANG 4, Mbay I, Kec. Aesesa, Kabupaten Nagekeo, Nusa Tenggara Tim.","Kabupaten Nagekeo, Nusa Tenggara Tim.",NUSA TENGGARA TIMUR,,Indonesia,,,,-8.5285113,121.2798033,https://maps.google.com/?cid=0x0:0xbcc0b1503bd346c5,
restaurant,Indonesia,Dapur sari,"Danga, Mbay, Kabupaten Nagekeo, Nusa Tenggara Tim. 86472","Mbay, Kabupaten Nagekeo",NUSA TENGGARA TIMUR,86472.0,Indonesia,87765431830.0,,,-8.568067,121.2683591,https://maps.google.com/?cid=0x0:0x67690eb9503e011c,
restaurant,Padang,RM.NABILA MASAKAN PADANG,"65QM+C3F, Nageoga, Kec. Boawae, Kabupaten Nagekeo, Nusa Tenggara Tim.","Kabupaten Nagekeo, Nusa Tenggara Tim.",NUSA TENGGARA TIMUR,,Indonesia,82145925252.0,,,-8.7614442,121.182663,https://maps.google.com/?cid=0x0:0x9e17937a882ac54f,
restaurant,Kafe,Nea House Coffee Shop,"Komplek Watukesu Gang IV RT.36, Danga, Aesesa, Danga, Kec. Aesesa, Kabupaten Nagekeo, Nusa Tenggara Tim.","Kabupaten Nagekeo, Nusa Tenggara Tim.",NUSA TENGGARA TIMUR,,Indonesia,82141351958.0,,,-8.5660586,121.2761584,https://maps.google.com/?cid=0x0:0x7a702d38c0e43027,
restaurant,Indonesia,Nua Seafood Resto Mbay,"Jalan Jendral Soeharto, Mbay I, Kec. Aesesa, Kabupaten Nagekeo, Nusa Tenggara Tim. 86472","Mbay I, Kec. Aesesa, Kabupaten Nagekeo",NUSA TENGGARA TIMUR,86472.0,Indonesia,82247262995.0,,,-8.5664068,121.2655901,https://maps.google.com/?cid=0x0:0x10611e3f203247e6,
restaurant,Kafe,SOJA Drink,"Jl. Jenderal Soeharto, Danga, Mbay I, Kec. Aesesa, Kabupaten Nagekeo, Nusa Tenggara Tim. 86472","Danga, Mbay I, Kec. Aesesa, Kabupaten Nagekeo",NUSA TENGGARA TIMUR,86472.0,Indonesia,81238060621.0,,,-8.56602,121.265352,https://maps.google.com/?cid=0x0:0xf9b6d8befc4484a8,
restaurant,Restoran,Aroma Faii,"Jl. Moh. Hatta, Danga, Kec. Aesesa, Kabupaten Nagekeo, Nusa Tenggara Tim.","Kabupaten Nagekeo, Nusa Tenggara Tim.",NUSA TENGGARA TIMUR,,Indonesia,85253090951.0,,,-8.5668009,121.2656704,https://maps.google.com/?cid=0x0:0x92e477289fe47329,
restaurant,Restoran,Calysta Coffee Shop  Resto,"C7JF+R46, Danga, Kec. Aesesa, Kabupaten Nagekeo, Nusa Tenggara Tim.","Kabupaten Nagekeo, Nusa Tenggara Tim.",NUSA TENGGARA TIMUR,,Indonesia,,,,-8.5679634,121.2727576,https://maps.google.com/?cid=0x0:0x15bab1a54fdb78d5,
restaurant,Restoran,RM Gandoriah,"C7P8+8GC, Danga, Kec. Aesesa, Kabupaten Nagekeo, Nusa Tenggara Tim.","Kabupaten Nagekeo, Nusa Tenggara Tim.",NUSA TENGGARA TIMUR,,Indonesia,82144752897.0,,,-8.5641975,121.2662918,https://maps.google.com/?cid=0x0:0xdaad23ddcc3b3b70,
restaurant,Restoran,RM PONDOK SALERO,"C7M9+646, Jl. Moh. Hatta, Danga, Kec. Aesesa, Kabupaten Nagekeo, Nusa Tenggara Tim.","Kabupaten Nagekeo, Nusa Tenggara Tim.",NUSA TENGGARA TIMUR,,Indonesia,82339415923.0,,,-8.5669566,121.2677543,https://maps.google.com/?cid=0x0:0xab438ee83fd42f44,
restaurant,Restoran,Aroma Faii CafeResto,"Gang 8, Watukesu, Danga, Mbay, Kabupaten Nagekeo, Nusa Tenggara Tim.","Kabupaten Nagekeo, Nusa Tenggara Tim.",NUSA TENGGARA TIMUR,,Indonesia,81246684069.0,,,-8.5641253,121.2799961,https://maps.google.com/?cid=0x0:0xee904ebbb74bd391,
restaurant,Jawa,Warung Putra Rahayu,"C7P9+9J9, Jl. Pramuka, Danga, Kec. Aesesa, Kabupaten Nagekeo, Nusa Tenggara Tim.","Kabupaten Nagekeo, Nusa Tenggara Tim.",NUSA TENGGARA TIMUR,,Indonesia,,,,-8.5640826,121.2691136,https://maps.google.com/?cid=0x0:0xd1aa3e4273e65d73,
restaurant,Kafe,EL CAFE,"C7MC+Q5R, Unnamed Road, Danga, Kec. Aesesa, Kabupaten Nagekeo, Nusa Tenggara Tim.","Kabupaten Nagekeo, Nusa Tenggara Tim.",NUSA TENGGARA TIMUR,,Indonesia,,,,-8.5655053,121.2703889,https://maps.google.com/?cid=0x0:0x9bce5334d35a380e,
restaurant,Restoran,Warung Lamongan,"C7M9+5F5, Danga, Kec. Aesesa, Kabupaten Nagekeo, Nusa Tenggara Tim.","Kabupaten Nagekeo, Nusa Tenggara Tim.",NUSA TENGGARA TIMUR,,Indonesia,81252868427.0,,,-8.5671038,121.2687384,https://maps.google.com/?cid=0x0:0xc4528b4c1870fe99,
restaurant,Indonesia,Warung Rengganis,"C7PH+4V7, Danga, Kec. Aesesa, Kabupaten Nagekeo, Nusa Tenggara Tim.","Kabupaten Nagekeo, Nusa Tenggara Tim.",NUSA TENGGARA TIMUR,,Indonesia,81338768909.0,,,-8.564722,121.2796736,https://maps.google.com/?cid=0x0:0x23a54cc0c1157c04,
cafe,cafe,Kec. Aesesa,"Kabupaten Nagekeo, Nusa Tenggara Tim.","Kabupaten Nagekeo, Nusa Tenggara Tim.",NUSA TENGGARA TIMUR,,Indonesia,,,,-8.5575585,121.2692731,https://maps.google.com/?cid=0x0:0x7382490e0d580d1,
cafe,Restoran,Calysta Coffee Shop  Resto,"C7JF+R46, Danga, Kec. Aesesa, Kabupaten Nagekeo, Nusa Tenggara Tim.","Kabupaten Nagekeo, Nusa Tenggara Tim.",NUSA TENGGARA TIMUR,,Indonesia,,,,-8.5679634,121.2727576,https://maps.google.com/?cid=0x0:0x15bab1a54fdb78d5,
cafe,Kafe,EL CAFE,"C7MC+Q5R, Unnamed Road, Danga, Kec. Aesesa, Kabupaten Nagekeo, Nusa Tenggara Tim.","Kabupaten Nagekeo, Nusa Tenggara Tim.",NUSA TENGGARA TIMUR,,Indonesia,,,,-8.5655053,121.2703889,https://maps.google.com/?cid=0x0:0x9bce5334d35a380e,
cafe,Kafe,Cafe Maitulisee,"Tonggu Rambang, Kec. Aesesa, Kabupaten Nagekeo, Nusa Tenggara Tim.","Kabupaten Nagekeo, Nusa Tenggara Tim.",NUSA TENGGARA TIMUR,,Indonesia,81338476917.0,,,-8.5051861,121.2897408,https://maps.google.com/?cid=0x0:0xc922fb27ca9c44b8,
cafe,Pujasera,Familia Resto  Cafe,"C7P8+VFJ, Danga, Kec. Aesesa, Kabupaten Nagekeo, Nusa Tenggara Tim.","Kabupaten Nagekeo, Nusa Tenggara Tim.",NUSA TENGGARA TIMUR,,Indonesia,,,,-8.5628003,121.2662129,https://maps.google.com/?cid=0x0:0x529cd93a5658aec4,
cafe,Kedai Kopi,Coffee Pinggir Jalan,"C88F+2QR, Aeramo, Kec. Aesesa, Kabupaten Nagekeo, Nusa Tenggara Tim.","Kabupaten Nagekeo, Nusa Tenggara Tim.",NUSA TENGGARA TIMUR,,Indonesia,,,,-8.5854065,121.3245218,https://maps.google.com/?cid=0x0:0xa835d6db41743d1d,
cafe,Kedai Kopi,AEGELA,"C8G2+V9H, Jl. To Aegela, Lape, Kec. Aesesa, Kabupaten Nagekeo, Nusa Tenggara Tim.","Kabupaten Nagekeo, Nusa Tenggara Tim.",NUSA TENGGARA TIMUR,,Indonesia,,,,-8.572824,121.3009806,https://maps.google.com/?cid=0x0:0x27a47ca99a6a1fd9,
cafe,Restoran,Kedai Rina,"C7M9+73P, Unnamed Road, Danga, Kec. Aesesa, Kabupaten Nagekeo, Nusa Tenggara Tim.","Kabupaten Nagekeo, Nusa Tenggara Tim.",NUSA TENGGARA TIMUR,,Indonesia,81281411403.0,,,-8.566776,121.2676937,https://maps.google.com/?cid=0x0:0xccfb575b65d8d6e1,
cafe,Kafe,Chella Jacobs (CJ) Coffee,"C7RF+P8X, Jl. Jkt, Danga, Kec. Aesesa, Kabupaten Nagekeo, Nusa Tenggara Tim.","Kabupaten Nagekeo, Nusa Tenggara Tim.",NUSA TENGGARA TIMUR,,Indonesia,,,,-8.5581336,121.2733511,https://maps.google.com/?cid=0x0:0xac7995a38ef715a4,
cafe,Kafe,UnCafe,"C7JG+PVX, Jl. Moh. Hatta, Danga, Kec. Aesesa, Kabupaten Nagekeo, Nusa Tenggara Tim.","Kabupaten Nagekeo, Nusa Tenggara Tim.",NUSA TENGGARA TIMUR,,Indonesia,,,,-8.5682388,121.2771421,https://maps.google.com/?cid=0x0:0x62d2c46400887511,
cafe,Rumah wisata,Valensof Caffe,"C7MC+JR4, Danga, Kec. Aesesa, Kabupaten Nagekeo, Nusa Tenggara Tim.","Kabupaten Nagekeo, Nusa Tenggara Tim.",NUSA TENGGARA TIMUR,,Indonesia,85161047438.0,,,-8.5658316,121.2721538,https://maps.google.com/?cid=0x0:0x5784b91c12b27d14,
cafe,Kafe,Cafe Berdikari,"C7P9+X64, Mbay I, Kec. Aesesa, Kabupaten Nagekeo, Nusa Tenggara Tim.","Kabupaten Nagekeo, Nusa Tenggara Tim.",NUSA TENGGARA TIMUR,,Indonesia,,,,-8.5628152,121.2675415,https://maps.google.com/?cid=0x0:0xe963558c51f1b112,
cafe,Kafe,Teras Madre,"C7PC+C26, Danga, Kec. Aesesa, Kabupaten Nagekeo, Nusa Tenggara Tim.","Kabupaten Nagekeo, Nusa Tenggara Tim.",NUSA TENGGARA TIMUR,,Indonesia,,,,-8.5639527,121.2700188,https://maps.google.com/?cid=0x0:0x21cf6970ca65fffd,
cafe,Kafe,Iki Mea,"C7M9+399, Jl. Moh. Hatta, Danga, Kec. Aesesa, Kabupaten Nagekeo, Nusa Tenggara Tim.","Kabupaten Nagekeo, Nusa Tenggara Tim.",NUSA TENGGARA TIMUR,,Indonesia,81246460066.0,,,-8.5673497,121.2684799,https://maps.google.com/?cid=0x0:0xf695249a08f62d3c,
cafe,Kedai Kopi,Berlian Cafe,"F8FG+7V5, Marapokot, Kec. Aesesa, Kabupaten Nagekeo, Nusa Tenggara Tim.","Kabupaten Nagekeo, Nusa Tenggara Tim.",NUSA TENGGARA TIMUR,,Indonesia,8123844716.0,,,-8.5268657,121.327229,https://maps.google.com/?cid=0x0:0x59a4ce2fa52ca75a,
cafe,Kafe,Junior cafe,"F784+8C6, Towak, Kec. Aesesa, Kabupaten Nagekeo, Nusa Tenggara Tim.","Kabupaten Nagekeo, Nusa Tenggara Tim.",NUSA TENGGARA TIMUR,,Indonesia,,,,-8.5342184,121.2560174,https://maps.google.com/?cid=0x0:0xa83b6b61471efaa5,
cafe,Restoran,Rumah Makan Nusantara,"Jl. Soekarno Hatta, Danga, Kec. Aesesa, Kabupaten Nagekeo, Nusa Tenggara Tim.","Kabupaten Nagekeo, Nusa Tenggara Tim.",NUSA TENGGARA TIMUR,,Indonesia,81389211627.0,,,-8.5671396,121.2693417,https://maps.google.com/?cid=0x0:0x85cb73af34ce2607,
cafe,Kedai Kopi,Warung kopi Village coffee,"88JG+R3V Kompleks KABOR, Labolewa, Kec. Aesesa, Kabupaten Nagekeo, Nusa Tenggara Tim.","Kabupaten Nagekeo, Nusa Tenggara Tim.",NUSA TENGGARA TIMUR,,Indonesia,,,,-8.6678827,121.3251704,https://maps.google.com/?cid=0x0:0x7e72981a8421f719,
cafe,Rumah Makan,Warung sari jaya,"C7PF+62X, Danga, Kec. Aesesa, Kabupaten Nagekeo, Nusa Tenggara Tim.","Kabupaten Nagekeo, Nusa Tenggara Tim.",NUSA TENGGARA TIMUR,,Indonesia,,,,-8.5639835,121.2730903,https://maps.google.com/?cid=0x0:0xef6cc2f224d38480,
cafe,Indonesia,WARUNG POJOK,"Danga, Kec. Aesesa, Kabupaten Nagekeo, Nusa Tenggara Tim.","Kabupaten Nagekeo, Nusa Tenggara Tim.",NUSA TENGGARA TIMUR,,Indonesia,85339050523.0,,,-8.5667915,121.2651959,https://maps.google.com/?cid=0x0:0xdc1f36b61b01e8bd,
cafe,Kafe,SOJA Drink,"Jl. Jenderal Soeharto, Danga, Mbay I, Kec. Aesesa, Kabupaten Nagekeo, Nusa Tenggara Tim. 86472","Danga, Mbay I, Kec. Aesesa, Kabupaten Nagekeo",NUSA TENGGARA TIMUR,86472.0,Indonesia,81238060621.0,,,-8.56602,121.265352,https://maps.google.com/?cid=0x0:0xf9b6d8befc4484a8,
cafe,Kafe,Aneka Es Turatea,"C7P9+7H4, Danga, Kec. Aesesa, Kabupaten Nagekeo, Nusa Tenggara Tim.","Kabupaten Nagekeo, Nusa Tenggara Tim.",NUSA TENGGARA TIMUR,,Indonesia,82155511101.0,,,-8.5643649,121.2689419,https://maps.google.com/?cid=0x0:0x2f906e106f8660a1,
cafe,Kedai Kopi,Kedai 51,"Labolewa, Kec. Aesesa, Kabupaten Nagekeo, Nusa Tenggara Tim.","Kabupaten Nagekeo, Nusa Tenggara Tim.",NUSA TENGGARA TIMUR,,Indonesia,81230365114.0,,,-8.6866638,121.3256854,https://maps.google.com/?cid=0x0:0xceba9a2e6a0ec48f,
cafe,Toko Roti,K'Bakery  Cafe,"C7JG+QMF, Danga, Kec. Aesesa, Kabupaten Nagekeo, Nusa Tenggara Tim.","Kabupaten Nagekeo, Nusa Tenggara Tim.",NUSA TENGGARA TIMUR,,Indonesia,81236287894.0,,,-8.5683631,121.2775689,https://maps.google.com/?cid=0x0:0xcccb510c55b6c139,
cafe,Restoran,Aroma Faii,"Jl. Moh. Hatta, Danga, Kec. Aesesa, Kabupaten Nagekeo, Nusa Tenggara Tim.","Kabupaten Nagekeo, Nusa Tenggara Tim.",NUSA TENGGARA TIMUR,,Indonesia,85253090951.0,,,-8.5668009,121.2656704,https://maps.google.com/?cid=0x0:0x92e477289fe47329,
cafe,cafe,Nusa Tenggara Tim.,,Nusa Tenggara Tim.,NUSA TENGGARA TIMUR,,Indonesia,,,,-8.6573819,121.0793705,https://maps.google.com/?cid=0x0:0x1030bfbcaf71ae0,
cafe,Tujuan Wisata,Tanjung NANGARORO,"697M+QVX, jalan Ende- Kecamatan Nangaroro, Kabupaten Nagekeo, Nusa Tenggara Tim., Bajawa, Kec. Nangaroro, Kabupaten Ngada, Nusa Tenggara Tim.","Kabupaten Ngada, Nusa Tenggara Tim.",NUSA TENGGARA TIMUR,,Indonesia,,,,-8.7855048,121.3847413,https://maps.google.com/?cid=0x0:0x61946bf3141b77fb,
cafe,Restoran,CAFE VILA BUKIT NANGOR,"Unnamed Road, Nangaroro, Kec. Nangaroro, Kabupaten Nagekeo, Nusa Tenggara Tim.","Kabupaten Nagekeo, Nusa Tenggara Tim.",NUSA TENGGARA TIMUR,,Indonesia,,,,-8.7856733,121.3848417,https://maps.google.com/?cid=0x0:0x57a04db290b9a7e9,
cafe,Pom bensin/SPBU,Pertigaan Aegela,"788P+7MH, Bidoa, Kec. Nangaroro, Kabupaten Nagekeo, Nusa Tenggara Tim.","Kabupaten Nagekeo, Nusa Tenggara Tim.",NUSA TENGGARA TIMUR,,Indonesia,,,,-8.7343173,121.3367231,https://maps.google.com/?cid=0x0:0x753c5b15ce3f2dc6,
cafe,Rumah Makan,Rumah Makan Nangaroro,"698P+4C6, Nangaroro, Kec. Nangaroro, Kabupaten Nagekeo, Nusa Tenggara Tim.","Kabupaten Nagekeo, Nusa Tenggara Tim.",NUSA TENGGARA TIMUR,,Indonesia,1239974737.0,,,-8.7847072,121.3860006,https://maps.google.com/?cid=0x0:0x44d7bf1aaab72393,
cafe,Restoran,Kedai Rina,"C7M9+73P, Unnamed Road, Danga, Kec. Aesesa, Kabupaten Nagekeo, Nusa Tenggara Tim.","Kabupaten Nagekeo, Nusa Tenggara Tim.",NUSA TENGGARA TIMUR,,Indonesia,81281411403.0,,,-8.566776,121.2676937,https://maps.google.com/?cid=0x0:0xccfb575b65d8d6e1,
cafe,Kedai Kopi,Cafe Coffee Kampung 18+,"65QF+2V2, Jln. Ebulobo, Paulewa, Nageoga, Kec. Boawae, Kabupaten Nagekeo, Nusa Tenggara Tim. 86462","Jln. Ebulobo, Paulewa, Nageoga, Kec. Boawae, Kabupaten Nagekeo",NUSA TENGGARA TIMUR,86462.0,Indonesia,82242598326.0,,,-8.7624755,121.1746465,https://maps.google.com/?cid=0x0:0x651763773a4f4f2,
cafe,Kafe,SOJA Drink,"Jl. Jenderal Soeharto, Danga, Mbay I, Kec. Aesesa, Kabupaten Nagekeo, Nusa Tenggara Tim. 86472","Danga, Mbay I, Kec. Aesesa, Kabupaten Nagekeo",NUSA TENGGARA TIMUR,86472.0,Indonesia,81238060621.0,,,-8.56602,121.265352,https://maps.google.com/?cid=0x0:0xf9b6d8befc4484a8,
cafe,Kedai Kopi,Coffee Pinggir Jalan,"C88F+2QR, Aeramo, Kec. Aesesa, Kabupaten Nagekeo, Nusa Tenggara Tim.","Kabupaten Nagekeo, Nusa Tenggara Tim.",NUSA TENGGARA TIMUR,,Indonesia,,,,-8.5854065,121.3245218,https://maps.google.com/?cid=0x0:0xa835d6db41743d1d,
cafe,Kafe,Long Mango Community Cafe,"65PF+XVX, Jl. Ebulobo, Nageoga, Kec. Boawae, Kabupaten Nagekeo, Nusa Tenggara Tim.","Kabupaten Nagekeo, Nusa Tenggara Tim.",NUSA TENGGARA TIMUR,,Indonesia,81337928506.0,,,-8.7625151,121.1747459,https://maps.google.com/?cid=0x0:0x1a5e3b166f82d99c,
cafe,Kafe,Nea House Coffee Shop,"Komplek Watukesu Gang IV RT.36, Danga, Aesesa, Danga, Kec. Aesesa, Kabupaten Nagekeo, Nusa Tenggara Tim.","Kabupaten Nagekeo, Nusa Tenggara Tim.",NUSA TENGGARA TIMUR,,Indonesia,82141351958.0,,,-8.5660586,121.2761584,https://maps.google.com/?cid=0x0:0x7a702d38c0e43027,
cafe,cafe,Kec. Nangaroro,"Kabupaten Nagekeo, Nusa Tenggara Tim.","Kabupaten Nagekeo, Nusa Tenggara Tim.",NUSA TENGGARA TIMUR,,Indonesia,,,,-8.7877249,121.393929,https://maps.google.com/?cid=0x0:0x7c1a30a4c1814805,
cafe,Komplek perumahan,Pasar Kamis Nangaroro,"696R+R6W, Nangaroro, Kec. Nangaroro, Kabupaten Nagekeo, Nusa Tenggara Tim.","Kabupaten Nagekeo, Nusa Tenggara Tim.",NUSA TENGGARA TIMUR,,Indonesia,,,,-8.7878812,121.3905761,https://maps.google.com/?cid=0x0:0xe72cd2ccee684e54,
cafe,Restoran,Rumah Makan Bu Ida,"697R+X9R, Nangaroro, Kec. Nangaroro, Kabupaten Nagekeo, Nusa Tenggara Tim.","Kabupaten Nagekeo, Nusa Tenggara Tim.",NUSA TENGGARA TIMUR,,Indonesia,,,,-8.78501,121.3909034,https://maps.google.com/?cid=0x0:0x7203e83394c7934c,
cafe,Kedai Kopi,Jagung Bakar Aegela,"788P+HHF, Unnamed Road, Bidoa, Kec. Nangaroro, Kabupaten Nagekeo, Nusa Tenggara Tim.","Kabupaten Nagekeo, Nusa Tenggara Tim.",NUSA TENGGARA TIMUR,,Indonesia,,,,-8.7335563,121.336416,https://maps.google.com/?cid=0x0:0xfe5fa39e35edbbe5,
cafe,Restoran,Calysta Coffee Shop  Resto,"C7JF+R46, Danga, Kec. Aesesa, Kabupaten Nagekeo, Nusa Tenggara Tim.","Kabupaten Nagekeo, Nusa Tenggara Tim.",NUSA TENGGARA TIMUR,,Indonesia,,,,-8.5679634,121.2727576,https://maps.google.com/?cid=0x0:0x15bab1a54fdb78d5,
cafe,Kedai Kopi,Warung kopi Village coffee,"88JG+R3V Kompleks KABOR, Labolewa, Kec. Aesesa, Kabupaten Nagekeo, Nusa Tenggara Tim.","Kabupaten Nagekeo, Nusa Tenggara Tim.",NUSA TENGGARA TIMUR,,Indonesia,,,,-8.6678827,121.3251704,https://maps.google.com/?cid=0x0:0x7e72981a8421f719,
cafe,Kedai Kopi,Kedai 51,"Labolewa, Kec. Aesesa, Kabupaten Nagekeo, Nusa Tenggara Tim.","Kabupaten Nagekeo, Nusa Tenggara Tim.",NUSA TENGGARA TIMUR,,Indonesia,81230365114.0,,,-8.6866638,121.3256854,https://maps.google.com/?cid=0x0:0xceba9a2e6a0ec48f,
cafe,Kedai Kopi,Astin bai,"48WR+QPC, Riti, Kec. Nangaroro, Kabupaten Nagekeo, Nusa Tenggara Tim.","Kabupaten Nagekeo, Nusa Tenggara Tim.",NUSA TENGGARA TIMUR,,Indonesia,,,,-8.8530166,121.3417596,https://maps.google.com/?cid=0x0:0x5cccada4ec8bd677,
cafe,Produsen,Sa'o Tenun Ikat Pipi Tolo,"696X+CQ3, Unnamed Road, Nataute, Kec. Nangaroro, Kabupaten Nagekeo, Nusa Tenggara Tim.","Kabupaten Nagekeo, Nusa Tenggara Tim.",NUSA TENGGARA TIMUR,,Indonesia,,,,-8.7889919,121.3994082,https://maps.google.com/?cid=0x0:0xe2f9af68634aa03f,
cafe,Kafe,EL CAFE,"C7MC+Q5R, Unnamed Road, Danga, Kec. Aesesa, Kabupaten Nagekeo, Nusa Tenggara Tim.","Kabupaten Nagekeo, Nusa Tenggara Tim.",NUSA TENGGARA TIMUR,,Indonesia,,,,-8.5655053,121.2703889,https://maps.google.com/?cid=0x0:0x9bce5334d35a380e,
cafe,cafe,Kec. Boawae,"Kabupaten Nagekeo, Nusa Tenggara Tim.","Kabupaten Nagekeo, Nusa Tenggara Tim.",NUSA TENGGARA TIMUR,,Indonesia,,,,-8.7639474,121.1651632,https://maps.google.com/?cid=0x0:0x7defadf688be794f,
cafe,Kedai Kopi,Cafe Coffee Kampung 18+,"65QF+2V2, Jln. Ebulobo, Paulewa, Nageoga, Kec. Boawae, Kabupaten Nagekeo, Nusa Tenggara Tim. 86462","Jln. Ebulobo, Paulewa, Nageoga, Kec. Boawae, Kabupaten Nagekeo",NUSA TENGGARA TIMUR,86462.0,Indonesia,82242598326.0,,,-8.7624755,121.1746465,https://maps.google.com/?cid=0x0:0x651763773a4f4f2,
cafe,Restoran,Depot Oriental Boawae,"65QJ+X3Q, Nageoga, Kec. Boawae, Kabupaten Nagekeo, Nusa Tenggara Tim.","Kabupaten Nagekeo, Nusa Tenggara Tim.",NUSA TENGGARA TIMUR,,Indonesia,82144670006.0,,,-8.7597066,121.1799918,https://maps.google.com/?cid=0x0:0x887b70c518a6b24,
cafe,Restoran,RM. Lalapan Jawa Timur,"jln. raya bowae ende lingkungan 2 ngepada kel natange timur, Natanage Tim., Kec. Boawae, Kabupaten Nagekeo, Nusa Tenggara Tim.","Kabupaten Nagekeo, Nusa Tenggara Tim.",NUSA TENGGARA TIMUR,,Indonesia,82147329722.0,,,-8.7654421,121.1701224,https://maps.google.com/?cid=0x0:0xab762141ecc932f2,
cafe,Indonesia,Cafe  Resto Teras Rumah Bajawa,"Jl. Gajah Mada No.9, Ngedukelu, Bajawa, Kabupaten Ngada, Nusa Tenggara Tim.","Kabupaten Ngada, Nusa Tenggara Tim.",NUSA TENGGARA TIMUR,,Indonesia,,,,-8.7900308,120.9696739,https://maps.google.com/?cid=0x0:0xaa0a0b946bdc704,
cafe,Padang,LESEHAN SEDERHANA,"65QJ+FRP, Aemali, Nageoga, Kec. Boawae, Kabupaten Nagekeo, Nusa Tenggara Tim.","Kabupaten Nagekeo, Nusa Tenggara Tim.",NUSA TENGGARA TIMUR,,Indonesia,81236141184.0,,,-8.761294,121.1820674,https://maps.google.com/?cid=0x0:0x26c5c93807e54cae,
cafe,Restoran,Bajawa Family Resto,"Jl. WJ Lalamentik, Faobata, Bajawa, Kabupaten Ngada, Nusa Tenggara Tim. 86419","Faobata, Bajawa, Kabupaten Ngada",NUSA TENGGARA TIMUR,86419.0,Indonesia,82266397945.0,,,-8.7777766,120.9887957,https://maps.google.com/?cid=0x0:0x1bebbd2301fe2c95,
cafe,Kedai Kopi,Lekosoro Coffee Shop Bajawa,"6X7G+VHR, Jln.S.Parman No.1.lekokosoro, Jl. TW Mengeruda, Lebijaga, Bajawa, Kabupaten Ngada, Nusa Tenggara Tim.","Kabupaten Ngada, Nusa Tenggara Tim.",NUSA TENGGARA TIMUR,,Indonesia,82243708942.0,,,-8.7843892,120.9771555,https://maps.google.com/?cid=0x0:0x148a469ac46da50d,
cafe,Bengkel Sepeda Motor,WARKOP R-MUSTH,"Natanage Tim., Kec. Boawae, Kabupaten Nagekeo, Nusa Tenggara Tim.","Kabupaten Nagekeo, Nusa Tenggara Tim.",NUSA TENGGARA TIMUR,,Indonesia,81339167920.0,,,-8.7656673,121.1697855,https://maps.google.com/?cid=0x0:0xc57fb22c8616a413,
cafe,Indonesia,Heaven‚Äôs Door Bar  Restaurant,"Jerebu‚Äôu, Tiworiwu, Bajawa, Kabupaten Ngada, Nusa Tenggara Tim. 86413","Tiworiwu, Bajawa, Kabupaten Ngada",NUSA TENGGARA TIMUR,86413.0,Indonesia,82144774417.0,,,-8.8641596,120.994707,https://maps.google.com/?cid=0x0:0xcee91644a99e188b,
cafe,Padang,RM.NABILA MASAKAN PADANG,"65QM+C3F, Nageoga, Kec. Boawae, Kabupaten Nagekeo, Nusa Tenggara Tim.","Kabupaten Nagekeo, Nusa Tenggara Tim.",NUSA TENGGARA TIMUR,,Indonesia,82145925252.0,,,-8.7614442,121.182663,https://maps.google.com/?cid=0x0:0x9e17937a882ac54f,
cafe,Kafe,Nea House Coffee Shop,"Komplek Watukesu Gang IV RT.36, Danga, Aesesa, Danga, Kec. Aesesa, Kabupaten Nagekeo, Nusa Tenggara Tim.","Kabupaten Nagekeo, Nusa Tenggara Tim.",NUSA TENGGARA TIMUR,,Indonesia,82141351958.0,,,-8.5660586,121.2761584,https://maps.google.com/?cid=0x0:0x7a702d38c0e43027,
cafe,Kafe,Fygo'S Cafe,"Jalan Darurat No.Rt 007, Natanage Tim., Kec. Boawae, Kabupaten Nagekeo, Nusa Tenggara Tim.","Kabupaten Nagekeo, Nusa Tenggara Tim.",NUSA TENGGARA TIMUR,,Indonesia,85238312170.0,,,-8.7650389,121.1701396,https://maps.google.com/?cid=0x0:0x45f46432bbc6c833,
cafe,Kafe,Long Mango Community Cafe,"65PF+XVX, Jl. Ebulobo, Nageoga, Kec. Boawae, Kabupaten Nagekeo, Nusa Tenggara Tim.","Kabupaten Nagekeo, Nusa Tenggara Tim.",NUSA TENGGARA TIMUR,,Indonesia,81337928506.0,,,-8.7625151,121.1747459,https://maps.google.com/?cid=0x0:0x1a5e3b166f82d99c,
cafe,Restoran,Warung Makan Jawa Timur,"67W5+CM6, Jl. Raya Bajawa, Raja, Kec. Boawae, Kabupaten Nagekeo, Nusa Tenggara Tim.","Kabupaten Nagekeo, Nusa Tenggara Tim.",NUSA TENGGARA TIMUR,,Indonesia,,,,-8.7539676,121.2591494,https://maps.google.com/?cid=0x0:0xdb373943ec88c3a4,
cafe,Indonesia,Kuliner Oma Mia,"Jl. Ebulobo No.2, Nageoga, Kec. Boawae, Kabupaten Nagekeo, Nusa Tenggara Tim.","Kabupaten Nagekeo, Nusa Tenggara Tim.",NUSA TENGGARA TIMUR,,Indonesia,82339144227.0,,,-8.7623986,121.1748762,https://maps.google.com/?cid=0x0:0xd54417c19e260f74,
cafe,Indonesia,Warung Solo PODOMORO Boawae,"65PC+7PQ, Jl. Raya Bajawa, Natanage Tim., Kec. Boawae, Kabupaten Nagekeo, Nusa Tenggara Tim.","Kabupaten Nagekeo, Nusa Tenggara Tim.",NUSA TENGGARA TIMUR,,Indonesia,,,,-8.7642928,121.1718512,https://maps.google.com/?cid=0x0:0x44215cd0733bf888,
cafe,Kafe,Mango Tree Cafe  Community Rest Area,"Jl. Ebulobo No.2, Nageoga, Kec. Boawae, Kabupaten Nagekeo, Nusa Tenggara Tim.","Kabupaten Nagekeo, Nusa Tenggara Tim.",NUSA TENGGARA TIMUR,,Indonesia,81337928506.0,,,-8.7634899,121.1751704,https://maps.google.com/?cid=0x0:0xeb79445a9e589299,
cafe,Kafe,KEDAI KOPI BANG ACHEN,"Jl. Ebulobo, Nageoga, Kec. Boawae, Kabupaten Nagekeo, Nusa Tenggara Tim.","Kabupaten Nagekeo, Nusa Tenggara Tim.",NUSA TENGGARA TIMUR,,Indonesia,82247400185.0,,,-8.7626607,121.1749637,https://maps.google.com/?cid=0x0:0x422b6ac93a875ab0,
cafe,Kafe,SOJA Drink,"Jl. Jenderal Soeharto, Danga, Mbay I, Kec. Aesesa, Kabupaten Nagekeo, Nusa Tenggara Tim. 86472","Danga, Mbay I, Kec. Aesesa, Kabupaten Nagekeo",NUSA TENGGARA TIMUR,86472.0,Indonesia,81238060621.0,,,-8.56602,121.265352,https://maps.google.com/?cid=0x0:0xf9b6d8befc4484a8,
cafe,Kedai Kopi,Giling Kopi Bang Dedy DJ.,"65P8+G3Q, Jl. Raya Bajawa, Natanage, Kec. Boawae, Kabupaten Nagekeo, Nusa Tenggara Tim.","Kabupaten Nagekeo, Nusa Tenggara Tim.",NUSA TENGGARA TIMUR,,Indonesia,81238034466.0,,,-8.7636695,121.1652483,https://maps.google.com/?cid=0x0:0x302aa5ee62f9bf9e,
cafe,Rumah Makan,PAGONAGE,"trans ende_bajawa, Nageoga, Bajawa, Kabupaten Ngada, Nusa Tenggara Tim.","Kabupaten Ngada, Nusa Tenggara Tim.",NUSA TENGGARA TIMUR,,Indonesia,81338736973.0,,,-8.7622256,121.1808954,https://maps.google.com/?cid=0x0:0x4b1e370a6bcd1c37,
cafe,Indonesia,Gratia Cafe,"6X7M+9CX, Ngedukelu, Bajawa, Kabupaten Ngada, Nusa Tenggara Tim.","Kabupaten Ngada, Nusa Tenggara Tim.",NUSA TENGGARA TIMUR,,Indonesia,,,,-8.7865211,120.9836103,https://maps.google.com/?cid=0x0:0xea5e1048d1074574,
cafe,Rumah Makan,Warung Horas,"67W6+VP6, Jl. Raya Bajawa, Raja, Kec. Boawae, Kabupaten Nagekeo, Nusa Tenggara Tim.","Kabupaten Nagekeo, Nusa Tenggara Tim.",NUSA TENGGARA TIMUR,,Indonesia,,,,-8.752826,121.2617694,https://maps.google.com/?cid=0x0:0x8df385b3edafaa0c,
cafe,Kafe,EL CAFE,"C7MC+Q5R, Unnamed Road, Danga, Kec. Aesesa, Kabupaten Nagekeo, Nusa Tenggara Tim.","Kabupaten Nagekeo, Nusa Tenggara Tim.",NUSA TENGGARA TIMUR,,Indonesia,,,,-8.5655053,121.2703889,https://maps.google.com/?cid=0x0:0x9bce5334d35a380e,
cafe,Brunch,Warung Semarang,"65PC+4CM, Natanage Tim., Kec. Boawae, Kabupaten Nagekeo, Nusa Tenggara Tim.","Kabupaten Nagekeo, Nusa Tenggara Tim.",NUSA TENGGARA TIMUR,,Indonesia,8223669278.0,,,-8.7646674,121.1710624,https://maps.google.com/?cid=0x0:0x922af95e70a6f26,
cafe,Kedai Kopi,Warung kopi Village coffee,"88JG+R3V Kompleks KABOR, Labolewa, Kec. Aesesa, Kabupaten Nagekeo, Nusa Tenggara Tim.","Kabupaten Nagekeo, Nusa Tenggara Tim.",NUSA TENGGARA TIMUR,,Indonesia,,,,-8.6678827,121.3251704,https://maps.google.com/?cid=0x0:0x7e72981a8421f719,
cafe,Rumah Makan,WARUNG MAKAN DAN KEDAI LEFIS KITCHEN,"65QM+H25, Jl. Raya Bajawa, Nageoga, Kec. Boawae, Kabupaten Nagekeo, Nusa Tenggara Tim.","Kabupaten Nagekeo, Nusa Tenggara Tim.",NUSA TENGGARA TIMUR,,Indonesia,81272990393.0,,,-8.7611182,121.1826079,https://maps.google.com/?cid=0x0:0x490a3a4c70660c1b,
cafe,cafe,Nusa Tenggara Tim.,,Nusa Tenggara Tim.,NUSA TENGGARA TIMUR,,Indonesia,,,,-8.6573819,121.0793705,https://maps.google.com/?cid=0x0:0x1030bfbcaf71ae0,
cafe,Kafe,Long Mango Community Cafe,"65PF+XVX, Jl. Ebulobo, Nageoga, Kec. Boawae, Kabupaten Nagekeo, Nusa Tenggara Tim.","Kabupaten Nagekeo, Nusa Tenggara Tim.",NUSA TENGGARA TIMUR,,Indonesia,81337928506.0,,,-8.7625151,121.1747459,https://maps.google.com/?cid=0x0:0x1a5e3b166f82d99c,
cafe,Kafe,Mango Tree Cafe  Community Rest Area,"Jl. Ebulobo No.2, Nageoga, Kec. Boawae, Kabupaten Nagekeo, Nusa Tenggara Tim.","Kabupaten Nagekeo, Nusa Tenggara Tim.",NUSA TENGGARA TIMUR,,Indonesia,81337928506.0,,,-8.7634899,121.1751704,https://maps.google.com/?cid=0x0:0xeb79445a9e589299,
cafe,Komplek perumahan,Tongkrongan DT,"4675+GV4, Mauponggo, Kec. Mauponggo, Kabupaten Nagekeo, Nusa Tenggara Tim.","Kabupaten Nagekeo, Nusa Tenggara Tim.",NUSA TENGGARA TIMUR,,Indonesia,,,,-8.8862273,121.2096903,https://maps.google.com/?cid=0x0:0x1d487e1446881f12,
cafe,Kios,Kios  AGEN BRILink PAULUS GUNU,"RT/RW: 001, 000, RW.PUSU, Selalejo, Kec. Mauponggo, Kabupaten Nagekeo, Nusa Tenggara Tim. 86463","000, RW.PUSU, Selalejo, Kec. Mauponggo, Kabupaten Nagekeo",NUSA TENGGARA TIMUR,86463.0,Indonesia,81236637356.0,,,-8.8293771,121.2467232,https://maps.google.com/?cid=0x0:0x9a24f9e676c34af9,
cafe,cafe,Mala Sawu Mauponggo,"45RV+3H8, Jawapogo, Kec. Mauponggo, Kabupaten Nagekeo, Nusa Tenggara Tim.","Kabupaten Nagekeo, Nusa Tenggara Tim.",NUSA TENGGARA TIMUR,,Indonesia,,,,-8.8598312,121.193945,https://maps.google.com/?cid=0x0:0x429b63ea74d51e2,
cafe,cafe,Kec. Mauponggo,"Kabupaten Nagekeo, Nusa Tenggara Tim.","Kabupaten Nagekeo, Nusa Tenggara Tim.",NUSA TENGGARA TIMUR,,Indonesia,,,,-8.8893553,121.2119342,https://maps.google.com/?cid=0x0:0x6584ed4b0b02f822,
cafe,Warnet,Sergio Mg,"45J5+547, Wuliwalo, Kec. Mauponggo, Kabupaten Nagekeo, Nusa Tenggara Tim.","Kabupaten Nagekeo, Nusa Tenggara Tim.",NUSA TENGGARA TIMUR,,Indonesia,,,,-8.8695829,121.1577923,https://maps.google.com/?cid=0x0:0xbc50d7a839cc1dbe,
cafe,Sate,rumah makan anugrah masakan jawa,"45RV+3H8, Jawapogo, Kec. Mauponggo, Kabupaten Nagekeo, Nusa Tenggara Tim.","Kabupaten Nagekeo, Nusa Tenggara Tim.",NUSA TENGGARA TIMUR,,Indonesia,81238485833.0,,,-8.8598312,121.193945,https://maps.google.com/?cid=0x0:0x5033bdaf3d52a07d,
cafe,Jawa,RM.SATE GULE KAMBING ANUGERAH,"4666+7RJ, Mauponggo, Kec. Mauponggo, Kabupaten Nagekeo, Nusa Tenggara Tim.","Kabupaten Nagekeo, Nusa Tenggara Tim.",NUSA TENGGARA TIMUR,,Indonesia,81238485833.0,,,-8.889276,121.2120304,https://maps.google.com/?cid=0x0:0x11dc582497e8b47,
cafe,Kedai Kopi,Kantin Tasya,"44W3+GFC, Sadha, Kec. Golewa, Kabupaten Ngada, Nusa Tenggara Tim.","Kabupaten Ngada, Nusa Tenggara Tim.",NUSA TENGGARA TIMUR,,Indonesia,,,,-8.8537164,121.1035903,https://maps.google.com/?cid=0x0:0xc4387bf1055c70b7,
cafe,Bar,Jual es helmyi,"44F7+QW7 Desa Nirmala, Unnamed Road, Kezewea, Kec. Golewa Selatan, Kabupaten Ngada, Nusa Tenggara Tim.","Kabupaten Ngada, Nusa Tenggara Tim.",NUSA TENGGARA TIMUR,,Indonesia,81228453974.0,,,-8.8755916,121.1147886,https://maps.google.com/?cid=0x0:0x40f4b0974e0dec3,
cafe,Pusat Perbelanjaan,Restagon Kios,"56V8+8P4, Mulakoli, Kec. Boawae, Kabupaten Nagekeo, Nusa Tenggara Tim.","Kabupaten Nagekeo, Nusa Tenggara Tim.",NUSA TENGGARA TIMUR,,Indonesia,85215080623.0,,,-8.8067445,121.2168303,https://maps.google.com/?cid=0x0:0xd0805e114c78d02c,
cafe,Pasar,Pasar Sabtu Maunori,"Mbaenuamuri, Kec. Keo Tengah, Kabupaten Nagekeo, Nusa Tenggara Tim.","Kabupaten Nagekeo, Nusa Tenggara Tim.",NUSA TENGGARA TIMUR,,Indonesia,81237145091.0,,,-8.8910977,121.2802855,https://maps.google.com/?cid=0x0:0x3c7bb4ebe8b250a6,
cafe,Toko kopi,Shintusdjara,"4488+QFW, Kezewea, Kec. Golewa Selatan, Kabupaten Ngada, Nusa Tenggara Tim.","Kabupaten Ngada, Nusa Tenggara Tim.",NUSA TENGGARA TIMUR,,Indonesia,,,,-8.8830225,121.1161918,https://maps.google.com/?cid=0x0:0x9f437db072f950b5,
cafe,Bengkel Sepeda Motor,WARKOP R-MUSTH,"Natanage Tim., Kec. Boawae, Kabupaten Nagekeo, Nusa Tenggara Tim.","Kabupaten Nagekeo, Nusa Tenggara Tim.",NUSA TENGGARA TIMUR,,Indonesia,81339167920.0,,,-8.7656673,121.1697855,https://maps.google.com/?cid=0x0:0xc57fb22c8616a413,
cafe,cafe,BABO TEGU RENTAL,"46V8+9G3, Wololelu, Kec. Mauponggo, Kabupaten Nagekeo, Nusa Tenggara Tim.","Kabupaten Nagekeo, Nusa Tenggara Tim.",NUSA TENGGARA TIMUR,,Indonesia,,,,-8.8566194,121.2162868,https://maps.google.com/?cid=0x0:0xca2465aa6d8c480e,
cafe,cafe,Rumah makan,"4656+88Q, Unnamed Road, Mauponggo, Kec. Mauponggo, Kabupaten Nagekeo, Nusa Tenggara Tim.","Kabupaten Nagekeo, Nusa Tenggara Tim.",NUSA TENGGARA TIMUR,,Indonesia,,,,-8.8916748,121.210857,https://maps.google.com/?cid=0x0:0xae95969a715e6e1f,
cafe,Rumah Makan,Delon,"65PM+7RH, Nageoga, Kec. Boawae, Kabupaten Nagekeo, Nusa Tenggara Tim.","Kabupaten Nagekeo, Nusa Tenggara Tim.",NUSA TENGGARA TIMUR,,Indonesia,,,,-8.7643182,121.1845994,https://maps.google.com/?cid=0x0:0x19662954d6657b26,
cafe,cafe,Kec. Wolowae,"Kabupaten Nagekeo, Nusa Tenggara Tim.","Kabupaten Nagekeo, Nusa Tenggara Tim.",NUSA TENGGARA TIMUR,,Indonesia,,,,-8.6305795,121.5020191,https://maps.google.com/?cid=0x0:0x21a9f7a6f47b294d,
cafe,Restoran,Rumah Makan Nusantara,"Jl. Soekarno Hatta, Danga, Kec. Aesesa, Kabupaten Nagekeo, Nusa Tenggara Tim.","Kabupaten Nagekeo, Nusa Tenggara Tim.",NUSA TENGGARA TIMUR,,Indonesia,81389211627.0,,,-8.5671396,121.2693417,https://maps.google.com/?cid=0x0:0x85cb73af34ce2607,
cafe,Kedai Kopi,Cafe Coffee Kampung 18+,"65QF+2V2, Jln. Ebulobo, Paulewa, Nageoga, Kec. Boawae, Kabupaten Nagekeo, Nusa Tenggara Tim. 86462","Jln. Ebulobo, Paulewa, Nageoga, Kec. Boawae, Kabupaten Nagekeo",NUSA TENGGARA TIMUR,86462.0,Indonesia,82242598326.0,,,-8.7624755,121.1746465,https://maps.google.com/?cid=0x0:0x651763773a4f4f2,
cafe,Brunch,Warung Nasi Olalape,"C7HW+X27, Lape, Kec. Aesesa, Kabupaten Nagekeo, Nusa Tenggara Tim.","Kabupaten Nagekeo, Nusa Tenggara Tim.",NUSA TENGGARA TIMUR,,Indonesia,,,,-8.5700803,121.2950507,https://maps.google.com/?cid=0x0:0xfd820e73e7273853,
cafe,Kafe,Nea House Coffee Shop,"Komplek Watukesu Gang IV RT.36, Danga, Aesesa, Danga, Kec. Aesesa, Kabupaten Nagekeo, Nusa Tenggara Tim.","Kabupaten Nagekeo, Nusa Tenggara Tim.",NUSA TENGGARA TIMUR,,Indonesia,82141351958.0,,,-8.5660586,121.2761584,https://maps.google.com/?cid=0x0:0x7a702d38c0e43027,
cafe,Indonesia,WARUNG POJOK,"Danga, Kec. Aesesa, Kabupaten Nagekeo, Nusa Tenggara Tim.","Kabupaten Nagekeo, Nusa Tenggara Tim.",NUSA TENGGARA TIMUR,,Indonesia,85339050523.0,,,-8.5667915,121.2651959,https://maps.google.com/?cid=0x0:0xdc1f36b61b01e8bd,
cafe,Rumah Makan,Warung sari jaya,"C7PF+62X, Danga, Kec. Aesesa, Kabupaten Nagekeo, Nusa Tenggara Tim.","Kabupaten Nagekeo, Nusa Tenggara Tim.",NUSA TENGGARA TIMUR,,Indonesia,,,,-8.5639835,121.2730903,https://maps.google.com/?cid=0x0:0xef6cc2f224d38480,
cafe,Kompleks Apartemen,Pasar Mbay Kabupaten Nagekeo,"C7M8+PXF, Danga, Kec. Aesesa, Kabupaten Nagekeo, Nusa Tenggara Tim.","Kabupaten Nagekeo, Nusa Tenggara Tim.",NUSA TENGGARA TIMUR,,Indonesia,,,,-8.5656813,121.267411,https://maps.google.com/?cid=0x0:0xd1d4febd3c5c4476,
cafe,Restoran,Warung Palapa (Masakan Padang),"C7JG+Q8C, Danga, Kec. Aesesa, Kabupaten Nagekeo, Nusa Tenggara Tim.","Kabupaten Nagekeo, Nusa Tenggara Tim.",NUSA TENGGARA TIMUR,,Indonesia,,,,-8.5680641,121.2757786,https://maps.google.com/?cid=0x0:0x60bba575f120b366,
cafe,Rumah Makan,Rm.Sambal Bakar Ibu Sri,"C7JH+7VR, Danga, Kec. Aesesa, Kabupaten Nagekeo, Nusa Tenggara Tim.","Kabupaten Nagekeo, Nusa Tenggara Tim.",NUSA TENGGARA TIMUR,,Indonesia,,,,-8.5687338,121.2793338,https://maps.google.com/?cid=0x0:0x103f251b861378ad,
cafe,Indonesia,Dapur sari,"Danga, Mbay, Kabupaten Nagekeo, Nusa Tenggara Tim. 86472","Mbay, Kabupaten Nagekeo",NUSA TENGGARA TIMUR,86472.0,Indonesia,87765431830.0,,,-8.568067,121.2683591,https://maps.google.com/?cid=0x0:0x67690eb9503e011c,
cafe,Restoran,RM.Pondok Bambu,"C7M8+998, Danga, Kec. Aesesa, Kabupaten Nagekeo, Nusa Tenggara Tim.","Kabupaten Nagekeo, Nusa Tenggara Tim.",NUSA TENGGARA TIMUR,,Indonesia,81337873111.0,,,-8.5665897,121.2659531,https://maps.google.com/?cid=0x0:0xe9aff5bb20d36676,
cafe,Brunch,Warung Bakso Suramadu,"9GMC+W56, Kebirangga, Kec. Maukaro, Kabupaten Ende, Nusa Tenggara Tim.","Kabupaten Ende, Nusa Tenggara Tim.",NUSA TENGGARA TIMUR,,Indonesia,82147088208.0,,,-8.6152103,121.5203922,https://maps.google.com/?cid=0x0:0xcaa55f10793594fa,
cafe,cafe,Depot Bakso Mama Can,"9GH8+FP2, Jalan Pantura Mbay-Maumere, Kamp. Kaburea, Ds, Tenda Kinde, Kec. Wolowae, Kabupaten Nagekeo, Nusa Tenggara Tim.","Kabupaten Nagekeo, Nusa Tenggara Tim.",NUSA TENGGARA TIMUR,,Indonesia,,,,-8.6213538,121.5167675,https://maps.google.com/?cid=0x0:0x5bf95eeefe6da961,
cafe,Kafe,SOJA Drink,"Jl. Jenderal Soeharto, Danga, Mbay I, Kec. Aesesa, Kabupaten Nagekeo, Nusa Tenggara Tim. 86472","Danga, Mbay I, Kec. Aesesa, Kabupaten Nagekeo",NUSA TENGGARA TIMUR,86472.0,Indonesia,81238060621.0,,,-8.56602,121.265352,https://maps.google.com/?cid=0x0:0xf9b6d8befc4484a8,
cafe,Kedai Kopi,Coffee Pinggir Jalan,"C88F+2QR, Aeramo, Kec. Aesesa, Kabupaten Nagekeo, Nusa Tenggara Tim.","Kabupaten Nagekeo, Nusa Tenggara Tim.",NUSA TENGGARA TIMUR,,Indonesia,,,,-8.5854065,121.3245218,https://maps.google.com/?cid=0x0:0xa835d6db41743d1d,
cafe,Kedai Kopi,Warung kopi Village coffee,"88JG+R3V Kompleks KABOR, Labolewa, Kec. Aesesa, Kabupaten Nagekeo, Nusa Tenggara Tim.","Kabupaten Nagekeo, Nusa Tenggara Tim.",NUSA TENGGARA TIMUR,,Indonesia,,,,-8.6678827,121.3251704,https://maps.google.com/?cid=0x0:0x7e72981a8421f719,
cafe,Restoran,Calysta Coffee Shop  Resto,"C7JF+R46, Danga, Kec. Aesesa, Kabupaten Nagekeo, Nusa Tenggara Tim.","Kabupaten Nagekeo, Nusa Tenggara Tim.",NUSA TENGGARA TIMUR,,Indonesia,,,,-8.5679634,121.2727576,https://maps.google.com/?cid=0x0:0x15bab1a54fdb78d5,
cafe,Restoran,Aroma Faii CafeResto,"Gang 8, Watukesu, Danga, Mbay, Kabupaten Nagekeo, Nusa Tenggara Tim.","Kabupaten Nagekeo, Nusa Tenggara Tim.",NUSA TENGGARA TIMUR,,Indonesia,81246684069.0,,,-8.5641253,121.2799961,https://maps.google.com/?cid=0x0:0xee904ebbb74bd391,
cafe,Kafe,EL CAFE,"C7MC+Q5R, Unnamed Road, Danga, Kec. Aesesa, Kabupaten Nagekeo, Nusa Tenggara Tim.","Kabupaten Nagekeo, Nusa Tenggara Tim.",NUSA TENGGARA TIMUR,,Indonesia,,,,-8.5655053,121.2703889,https://maps.google.com/?cid=0x0:0x9bce5334d35a380e,
cafe,Rumah wisata,Valensof Caffe,"C7MC+JR4, Danga, Kec. Aesesa, Kabupaten Nagekeo, Nusa Tenggara Tim.","Kabupaten Nagekeo, Nusa Tenggara Tim.",NUSA TENGGARA TIMUR,,Indonesia,85161047438.0,,,-8.5658316,121.2721538,https://maps.google.com/?cid=0x0:0x5784b91c12b27d14,
cafe,Restoran,Kedai Rina,"C7M9+73P, Unnamed Road, Danga, Kec. Aesesa, Kabupaten Nagekeo, Nusa Tenggara Tim.","Kabupaten Nagekeo, Nusa Tenggara Tim.",NUSA TENGGARA TIMUR,,Indonesia,81281411403.0,,,-8.566776,121.2676937,https://maps.google.com/?cid=0x0:0xccfb575b65d8d6e1,
cafe,Kafe,Cafe coklat room,"C865+P62, Jl. Raya Mbay-segel, Danga, Lape, Kec. Aesesa, Kabupaten Nagekeo, Nusa Tenggara Tim.","Kabupaten Nagekeo, Nusa Tenggara Tim.",NUSA TENGGARA TIMUR,,Indonesia,,,,-8.5882411,121.3080144,https://maps.google.com/?cid=0x0:0x31c7eed22745c9b1,
cafe,Toko Roti,K'Bakery  Cafe,"C7JG+QMF, Danga, Kec. Aesesa, Kabupaten Nagekeo, Nusa Tenggara Tim.","Kabupaten Nagekeo, Nusa Tenggara Tim.",NUSA TENGGARA TIMUR,,Indonesia,81236287894.0,,,-8.5683631,121.2775689,https://maps.google.com/?cid=0x0:0xcccb510c55b6c139,
cafe,Kafe,UnCafe,"C7JG+PVX, Jl. Moh. Hatta, Danga, Kec. Aesesa, Kabupaten Nagekeo, Nusa Tenggara Tim.","Kabupaten Nagekeo, Nusa Tenggara Tim.",NUSA TENGGARA TIMUR,,Indonesia,,,,-8.5682388,121.2771421,https://maps.google.com/?cid=0x0:0x62d2c46400887511,
cafe,Kedai Kopi,Kedai 51,"Labolewa, Kec. Aesesa, Kabupaten Nagekeo, Nusa Tenggara Tim.","Kabupaten Nagekeo, Nusa Tenggara Tim.",NUSA TENGGARA TIMUR,,Indonesia,81230365114.0,,,-8.6866638,121.3256854,https://maps.google.com/?cid=0x0:0xceba9a2e6a0ec48f,
cafe,Restoran,Aroma Faii,"Jl. Moh. Hatta, Danga, Kec. Aesesa, Kabupaten Nagekeo, Nusa Tenggara Tim.","Kabupaten Nagekeo, Nusa Tenggara Tim.",NUSA TENGGARA TIMUR,,Indonesia,85253090951.0,,,-8.5668009,121.2656704,https://maps.google.com/?cid=0x0:0x92e477289fe47329,
cafe,Komplek perumahan,Pasar Marilewa,"9F9X+3GP, Tendatoto, Kec. Wolowae, Kabupaten Nagekeo, Nusa Tenggara Tim.","Kabupaten Nagekeo, Nusa Tenggara Tim.",NUSA TENGGARA TIMUR,,Indonesia,,,,-8.6322878,121.498822,https://maps.google.com/?cid=0x0:0xa59093cb6c74d990,
cafe,Sekolah menengah,SMAN 1 Keo Tengah,"38R9+8X2, Kotadirumali, Kec. Keo Tengah, Kabupaten Nagekeo, Nusa Tenggara Tim.","Kabupaten Nagekeo, Nusa Tenggara Tim.",NUSA TENGGARA TIMUR,,Indonesia,,,,-8.9092288,121.3198972,https://maps.google.com/?cid=0x0:0xbe50b33e5aa58a60,
cafe,Sekolah Menengah Umum,SMAN 1 MAUPONGGO,"Wolokisa, Kec. Mauponggo, Kabupaten Nagekeo, Nusa Tenggara Tim.","Kabupaten Nagekeo, Nusa Tenggara Tim.",NUSA TENGGARA TIMUR,,Indonesia,,,,-8.894332,121.1507249,https://maps.google.com/?cid=0x0:0xdf88ee3da535ee41,
cafe,Sekolah Menengah Pertama,Tanjung Bengga_pantai harapan,"38RC+48W, Unnamed Road, Kotadirumali, Kec. Keo Tengah, Kabupaten Nagekeo, Nusa Tenggara Tim.","Kabupaten Nagekeo, Nusa Tenggara Tim.",NUSA TENGGARA TIMUR,,Indonesia,,,,-8.9096438,121.3208142,https://maps.google.com/?cid=0x0:0xd165d5b5633cb743,
cafe,Kedai Kopi,AEGELA,"C8G2+V9H, Jl. To Aegela, Lape, Kec. Aesesa, Kabupaten Nagekeo, Nusa Tenggara Tim.","Kabupaten Nagekeo, Nusa Tenggara Tim.",NUSA TENGGARA TIMUR,,Indonesia,,,,-8.572824,121.3009806,https://maps.google.com/?cid=0x0:0x27a47ca99a6a1fd9,
cafe,cafe,,,,NUSA TENGGARA TIMUR,,Indonesia,,,,,,https://maps.google.com/?cid=0x0:0x72b1caa71bd97af1u0026onu0026midu003d/g/11tstxw093,
cafe,cafe,Kec. Aesesa Sel.,"Kabupaten Nagekeo, Nusa Tenggara Tim.","Kabupaten Nagekeo, Nusa Tenggara Tim.",NUSA TENGGARA TIMUR,,Indonesia,,,,-8.6719735,121.2280955,https://maps.google.com/?cid=0x0:0xfaff85aad88b98e2,
cafe,Restoran,Calysta Coffee Shop  Resto,"C7JF+R46, Danga, Kec. Aesesa, Kabupaten Nagekeo, Nusa Tenggara Tim.","Kabupaten Nagekeo, Nusa Tenggara Tim.",NUSA TENGGARA TIMUR,,Indonesia,,,,-8.5679634,121.2727576,https://maps.google.com/?cid=0x0:0x15bab1a54fdb78d5,
cafe,Pujasera,Familia Resto  Cafe,"C7P8+VFJ, Danga, Kec. Aesesa, Kabupaten Nagekeo, Nusa Tenggara Tim.","Kabupaten Nagekeo, Nusa Tenggara Tim.",NUSA TENGGARA TIMUR,,Indonesia,,,,-8.5628003,121.2662129,https://maps.google.com/?cid=0x0:0x529cd93a5658aec4,
cafe,Restoran,Kedai Rina,"C7M9+73P, Unnamed Road, Danga, Kec. Aesesa, Kabupaten Nagekeo, Nusa Tenggara Tim.","Kabupaten Nagekeo, Nusa Tenggara Tim.",NUSA TENGGARA TIMUR,,Indonesia,81281411403.0,,,-8.566776,121.2676937,https://maps.google.com/?cid=0x0:0xccfb575b65d8d6e1,
cafe,Kafe,Cafe Maitulisee,"Tonggu Rambang, Kec. Aesesa, Kabupaten Nagekeo, Nusa Tenggara Tim.","Kabupaten Nagekeo, Nusa Tenggara Tim.",NUSA TENGGARA TIMUR,,Indonesia,81338476917.0,,,-8.5051861,121.2897408,https://maps.google.com/?cid=0x0:0xc922fb27ca9c44b8,
cafe,Kedai Kopi,Coffee Pinggir Jalan,"C88F+2QR, Aeramo, Kec. Aesesa, Kabupaten Nagekeo, Nusa Tenggara Tim.","Kabupaten Nagekeo, Nusa Tenggara Tim.",NUSA TENGGARA TIMUR,,Indonesia,,,,-8.5854065,121.3245218,https://maps.google.com/?cid=0x0:0xa835d6db41743d1d,
cafe,Kafe,UnCafe,"C7JG+PVX, Jl. Moh. Hatta, Danga, Kec. Aesesa, Kabupaten Nagekeo, Nusa Tenggara Tim.","Kabupaten Nagekeo, Nusa Tenggara Tim.",NUSA TENGGARA TIMUR,,Indonesia,,,,-8.5682388,121.2771421,https://maps.google.com/?cid=0x0:0x62d2c46400887511,
cafe,Restoran,Rumah Makan Nusantara,"Jl. Soekarno Hatta, Danga, Kec. Aesesa, Kabupaten Nagekeo, Nusa Tenggara Tim.","Kabupaten Nagekeo, Nusa Tenggara Tim.",NUSA TENGGARA TIMUR,,Indonesia,81389211627.0,,,-8.5671396,121.2693417,https://maps.google.com/?cid=0x0:0x85cb73af34ce2607,
cafe,Rumah wisata,Valensof Caffe,"C7MC+JR4, Danga, Kec. Aesesa, Kabupaten Nagekeo, Nusa Tenggara Tim.","Kabupaten Nagekeo, Nusa Tenggara Tim.",NUSA TENGGARA TIMUR,,Indonesia,85161047438.0,,,-8.5658316,121.2721538,https://maps.google.com/?cid=0x0:0x5784b91c12b27d14,
cafe,Kedai Kopi,AEGELA,"C8G2+V9H, Jl. To Aegela, Lape, Kec. Aesesa, Kabupaten Nagekeo, Nusa Tenggara Tim.","Kabupaten Nagekeo, Nusa Tenggara Tim.",NUSA TENGGARA TIMUR,,Indonesia,,,,-8.572824,121.3009806,https://maps.google.com/?cid=0x0:0x27a47ca99a6a1fd9,
cafe,Kedai Kopi,Berlian Cafe,"F8FG+7V5, Marapokot, Kec. Aesesa, Kabupaten Nagekeo, Nusa Tenggara Tim.","Kabupaten Nagekeo, Nusa Tenggara Tim.",NUSA TENGGARA TIMUR,,Indonesia,8123844716.0,,,-8.5268657,121.327229,https://maps.google.com/?cid=0x0:0x59a4ce2fa52ca75a,
cafe,Kafe,Teras Madre,"C7PC+C26, Danga, Kec. Aesesa, Kabupaten Nagekeo, Nusa Tenggara Tim.","Kabupaten Nagekeo, Nusa Tenggara Tim.",NUSA TENGGARA TIMUR,,Indonesia,,,,-8.5639527,121.2700188,https://maps.google.com/?cid=0x0:0x21cf6970ca65fffd,
cafe,Kedai Kopi,Warung kopi Village coffee,"88JG+R3V Kompleks KABOR, Labolewa, Kec. Aesesa, Kabupaten Nagekeo, Nusa Tenggara Tim.","Kabupaten Nagekeo, Nusa Tenggara Tim.",NUSA TENGGARA TIMUR,,Indonesia,,,,-8.6678827,121.3251704,https://maps.google.com/?cid=0x0:0x7e72981a8421f719,
cafe,Kedai Kopi,Kedai 51,"Labolewa, Kec. Aesesa, Kabupaten Nagekeo, Nusa Tenggara Tim.","Kabupaten Nagekeo, Nusa Tenggara Tim.",NUSA TENGGARA TIMUR,,Indonesia,81230365114.0,,,-8.6866638,121.3256854,https://maps.google.com/?cid=0x0:0xceba9a2e6a0ec48f,
cafe,Rumah Makan,Warung sari jaya,"C7PF+62X, Danga, Kec. Aesesa, Kabupaten Nagekeo, Nusa Tenggara Tim.","Kabupaten Nagekeo, Nusa Tenggara Tim.",NUSA TENGGARA TIMUR,,Indonesia,,,,-8.5639835,121.2730903,https://maps.google.com/?cid=0x0:0xef6cc2f224d38480,
cafe,Indonesia,WARUNG POJOK,"Danga, Kec. Aesesa, Kabupaten Nagekeo, Nusa Tenggara Tim.","Kabupaten Nagekeo, Nusa Tenggara Tim.",NUSA TENGGARA TIMUR,,Indonesia,85339050523.0,,,-8.5667915,121.2651959,https://maps.google.com/?cid=0x0:0xdc1f36b61b01e8bd,
cafe,Rumah Makan,Rumah Makan Mbay Makmur,"C7JH+WC9, Danga, Kec. Aesesa, Kabupaten Nagekeo, Nusa Tenggara Tim.","Kabupaten Nagekeo, Nusa Tenggara Tim.",NUSA TENGGARA TIMUR,,Indonesia,81338090239.0,,,-8.5683446,121.2786716,https://maps.google.com/?cid=0x0:0x6be2c28ba5258823,
cafe,Kedai Kopi,UD VEVI TEDA____KULINER,"F728+XF8, Mbay I, Kec. Aesesa, Kabupaten Nagekeo, Nusa Tenggara Tim.","Kabupaten Nagekeo, Nusa Tenggara Tim.",NUSA TENGGARA TIMUR,,Indonesia,81210696043.0,,,-8.5475784,121.2661909,https://maps.google.com/?cid=0x0:0x8a69f52c66ca9cb7,
cafe,Brunch,REPATAZ,"C7J9+Q8H, Danga, Kec. Aesesa, Kabupaten Nagekeo, Nusa Tenggara Tim.","Kabupaten Nagekeo, Nusa Tenggara Tim.",NUSA TENGGARA TIMUR,,Indonesia,82237598611.0,,,-8.568067,121.2683591,https://maps.google.com/?cid=0x0:0x826b74d8e0d91137,
cafe,Kafe,SOJA Drink,"Jl. Jenderal Soeharto, Danga, Mbay I, Kec. Aesesa, Kabupaten Nagekeo, Nusa Tenggara Tim. 86472","Danga, Mbay I, Kec. Aesesa, Kabupaten Nagekeo",NUSA TENGGARA TIMUR,86472.0,Indonesia,81238060621.0,,,-8.56602,121.265352,https://maps.google.com/?cid=0x0:0xf9b6d8befc4484a8,
cafe,Kafe,Aneka Es Turatea,"C7P9+7H4, Danga, Kec. Aesesa, Kabupaten Nagekeo, Nusa Tenggara Tim.","Kabupaten Nagekeo, Nusa Tenggara Tim.",NUSA TENGGARA TIMUR,,Indonesia,82155511101.0,,,-8.5643649,121.2689419,https://maps.google.com/?cid=0x0:0x2f906e106f8660a1,
cafe,Restoran,Aroma Faii,"Jl. Moh. Hatta, Danga, Kec. Aesesa, Kabupaten Nagekeo, Nusa Tenggara Tim.","Kabupaten Nagekeo, Nusa Tenggara Tim.",NUSA TENGGARA TIMUR,,Indonesia,85253090951.0,,,-8.5668009,121.2656704,https://maps.google.com/?cid=0x0:0x92e477289fe47329,
cafe,Kafe,Iki Mea,"C7M9+399, Jl. Moh. Hatta, Danga, Kec. Aesesa, Kabupaten Nagekeo, Nusa Tenggara Tim.","Kabupaten Nagekeo, Nusa Tenggara Tim.",NUSA TENGGARA TIMUR,,Indonesia,81246460066.0,,,-8.5673497,121.2684799,https://maps.google.com/?cid=0x0:0xf695249a08f62d3c,
cafe,Restoran,Aroma Faii CafeResto,"Gang 8, Watukesu, Danga, Mbay, Kabupaten Nagekeo, Nusa Tenggara Tim.","Kabupaten Nagekeo, Nusa Tenggara Tim.",NUSA TENGGARA TIMUR,,Indonesia,81246684069.0,,,-8.5641253,121.2799961,https://maps.google.com/?cid=0x0:0xee904ebbb74bd391,
cafe,Kedai Kopi,Cafe Coffee Kampung 18+,"65QF+2V2, Jln. Ebulobo, Paulewa, Nageoga, Kec. Boawae, Kabupaten Nagekeo, Nusa Tenggara Tim. 86462","Jln. Ebulobo, Paulewa, Nageoga, Kec. Boawae, Kabupaten Nagekeo",NUSA TENGGARA TIMUR,86462.0,Indonesia,82242598326.0,,,-8.7624755,121.1746465,https://maps.google.com/?cid=0x0:0x651763773a4f4f2,
cafe,Indonesia,Nua Seafood Resto Mbay,"Jalan Jendral Soeharto, Mbay I, Kec. Aesesa, Kabupaten Nagekeo, Nusa Tenggara Tim. 86472","Mbay I, Kec. Aesesa, Kabupaten Nagekeo",NUSA TENGGARA TIMUR,86472.0,Indonesia,82247262995.0,,,-8.5664068,121.2655901,https://maps.google.com/?cid=0x0:0x10611e3f203247e6,
cafe,Warnet,Barbarian Warnet,"Mbay, Danga, Kec. Aesesa, Kabupaten Nagekeo, Nusa Tenggara Tim. 86472","Danga, Kec. Aesesa, Kabupaten Nagekeo",NUSA TENGGARA TIMUR,86472.0,Indonesia,8123604500.0,,,-8.564091,121.265393,https://maps.google.com/?cid=0x0:0xfb1695376b4fd57c,
cafe,Kafe,Nea House Coffee Shop,"Komplek Watukesu Gang IV RT.36, Danga, Aesesa, Danga, Kec. Aesesa, Kabupaten Nagekeo, Nusa Tenggara Tim.","Kabupaten Nagekeo, Nusa Tenggara Tim.",NUSA TENGGARA TIMUR,,Indonesia,82141351958.0,,,-8.5660586,121.2761584,https://maps.google.com/?cid=0x0:0x7a702d38c0e43027,
