Category,Real Category,Business Name,Address,City,State,Postal Code,Country,Phone,Email,Website,Latitude,Longitude,Map Link,Details Link
perumahan,Perhimpunan Pengembang Perumahan,"TEKNISI ALAT BERAT Aesesa Mbay, Kabupaten Nagekeo","DANGA, Kec. Aesesa, Kabupaten Nagekeo, Nusa Tenggara Tim.","Kabupaten Nagekeo, Nusa Tenggara Tim.",NUSA TENGGARA TIMUR,,Indonesia,82242600151.0,,,-8.5285113,121.2798033,https://maps.google.com/?cid=0x0:0x34081ec136ad1b8d,
perumahan,perumahan,Kec. Aesesa,"Kabupaten Nagekeo, Nusa Tenggara Tim.","Kabupaten Nagekeo, Nusa Tenggara Tim.",NUSA TENGGARA TIMUR,,Indonesia,,,,-8.5575585,121.2692731,https://maps.google.com/?cid=0x0:0x7382490e0d580d1,
perumahan,Kantor Perusahaan,Tutubhada,"963F+R7, Langedhawe, Kec. Aesesa Sel., Kabupaten Nagekeo, Nusa Tenggara Tim.","Kabupaten Nagekeo, Nusa Tenggara Tim.",NUSA TENGGARA TIMUR,,Indonesia,,,,-8.6454562,121.2231382,https://maps.google.com/?cid=0x0:0x4786c2b9cac3e657,
perumahan,Rumah Makan,Rumah makan Mini indah 2,"mbay, flores, Danga, Kec. Aesesa, Kabupaten Nagekeo, Nusa Tenggara Tim.","Kabupaten Nagekeo, Nusa Tenggara Tim.",NUSA TENGGARA TIMUR,,Indonesia,82140761534.0,,,-8.5598425,121.2687263,https://maps.google.com/?cid=0x0:0x53c55c0057367d36,
perumahan,Restoran,Rumah Makan Nusantara,"Jl. Soekarno Hatta, Danga, Kec. Aesesa, Kabupaten Nagekeo, Nusa Tenggara Tim.","Kabupaten Nagekeo, Nusa Tenggara Tim.",NUSA TENGGARA TIMUR,,Indonesia,81389211627.0,,,-8.5671396,121.2693417,https://maps.google.com/?cid=0x0:0x85cb73af34ce2607,
perumahan,Indonesia,Rumah makan minang jaya,"Jl. Jenderal Soehart, Danga, Kec. Aesesa, Kabupaten Nagekeo, Nusa Tenggara Tim.","Kabupaten Nagekeo, Nusa Tenggara Tim.",NUSA TENGGARA TIMUR,,Indonesia,81246720529.0,,,-8.5583238,121.2689577,https://maps.google.com/?cid=0x0:0x21b1259b8b4f605e,
perumahan,perumahan,Aesesa,"C7JR+55Q, Lape, Kec. Aesesa, Kabupaten Nagekeo, Nusa Tenggara Tim.","Kabupaten Nagekeo, Nusa Tenggara Tim.",NUSA TENGGARA TIMUR,,Indonesia,,,,-8.5695358,121.2904784,https://maps.google.com/?cid=0x0:0x83e27806ffa9605c,
perumahan,perumahan,Aesesa,"C7R9+XPC, Danga, Kec. Aesesa, Kabupaten Nagekeo, Nusa Tenggara Tim.","Kabupaten Nagekeo, Nusa Tenggara Tim.",NUSA TENGGARA TIMUR,,Indonesia,,,,-8.5575585,121.2692731,https://maps.google.com/?cid=0x0:0x9b6f18303bceb9e9,
perumahan,Komplek perumahan,Rumah Buyung Asgara,"C7F3+J6R, Nggolo Mbay, Kec. Aesesa, Kabupaten Nagekeo, Nusa Tenggara Tim.","Kabupaten Nagekeo, Nusa Tenggara Tim.",NUSA TENGGARA TIMUR,,Indonesia,,,,-8.575687,121.253416,https://maps.google.com/?cid=0x0:0xf140cc0f14416897,
perumahan,Komplek perumahan,Rumah. RIS Do,"C7P7+G2G, Danga, Kec. Aesesa, Kabupaten Nagekeo, Nusa Tenggara Tim.","Kabupaten Nagekeo, Nusa Tenggara Tim.",NUSA TENGGARA TIMUR,,Indonesia,,,,-8.5640362,121.2618163,https://maps.google.com/?cid=0x0:0xdb81940761990791,
perumahan,perumahan,RUMAH ENDINY,"C7V9+F3R, Mbay I, Kec. Aesesa, Kabupaten Nagekeo, Nusa Tenggara Tim. 86472","Mbay I, Kec. Aesesa, Kabupaten Nagekeo",NUSA TENGGARA TIMUR,86472.0,Indonesia,,,,-8.5562778,121.2669722,https://maps.google.com/?cid=0x0:0xdd8ff7853dc951b5,
perumahan,Pembangunan Perumahan,Kampung baru,"C7J4+CQF, Nggolo Mbay, Kec. Aesesa, Kabupaten Nagekeo, Nusa Tenggara Tim.","Kabupaten Nagekeo, Nusa Tenggara Tim.",NUSA TENGGARA TIMUR,,Indonesia,,,,-8.5693662,121.2567835,https://maps.google.com/?cid=0x0:0xa9b3c061684c69d6,
perumahan,Gedung Apartemen,Rumah Paul Sabu,"C6GX+4WF, Jl. Kendedes, Alobuu, Nggolo Mbay, Kec. Aesesa, Kabupaten Nagekeo, Nusa Tenggara Tim.","Kabupaten Nagekeo, Nusa Tenggara Tim.",NUSA TENGGARA TIMUR,,Indonesia,,,,-8.574675,121.2492103,https://maps.google.com/?cid=0x0:0x9cf63d516f51b7b6,
perumahan,Komplek perumahan,Rumah Saya,"F72C+527, Mbay I, Kec. Aesesa, Kabupaten Nagekeo, Nusa Tenggara Tim.","Kabupaten Nagekeo, Nusa Tenggara Tim.",NUSA TENGGARA TIMUR,,Indonesia,,,,-8.5495853,121.2700323,https://maps.google.com/?cid=0x0:0xae567093b26c2f82,
perumahan,Kantor Pemerintah,Desa lape,"C7MR+CGQ, Lape, Kec. Aesesa, Kabupaten Nagekeo, Nusa Tenggara Tim.","Kabupaten Nagekeo, Nusa Tenggara Tim.",NUSA TENGGARA TIMUR,,Indonesia,,,,-8.5669153,121.2912783,https://maps.google.com/?cid=0x0:0x9c98aae15a2b513c,
perumahan,Komplek perumahan,Vian mallo,"Jl. Aeramo No.20, Lape, Kec. Aesesa, Kabupaten Nagekeo, Nusa Tenggara Tim. 86472","Lape, Kec. Aesesa, Kabupaten Nagekeo",NUSA TENGGARA TIMUR,86472.0,Indonesia,,,,-8.573477,121.3060167,https://maps.google.com/?cid=0x0:0x6928faad593d513,
perumahan,Pembangunan Perumahan,Cadas.,"C7F3+QR7, Danga, Kec. Aesesa, Kabupaten Nagekeo, Nusa Tenggara Tim.","Kabupaten Nagekeo, Nusa Tenggara Tim.",NUSA TENGGARA TIMUR,,Indonesia,,,,-8.5755757,121.2545413,https://maps.google.com/?cid=0x0:0x90dd39411d172dac,
perumahan,Komplek perumahan,Yanne Rangga Sa'o,"C7G2+8W3, Nggolo Mbay, Kec. Aesesa, Kabupaten Nagekeo, Nusa Tenggara Tim.","Kabupaten Nagekeo, Nusa Tenggara Tim.",NUSA TENGGARA TIMUR,,Indonesia,,,,-8.5742279,121.2528151,https://maps.google.com/?cid=0x0:0xd73fdead800e2c5,
perumahan,perumahan,Rumah Hasbil rena,"C7R6+5F7, Mbay I, Kec. Aesesa, Kabupaten Nagekeo, Nusa Tenggara Tim.","Kabupaten Nagekeo, Nusa Tenggara Tim.",NUSA TENGGARA TIMUR,,Indonesia,,,,-8.5583539,121.2611089,https://maps.google.com/?cid=0x0:0x8ac1a9364c5b1789,
perumahan,perumahan,Rumah Seren dan Putri,"C6CW+8WC, Dhawe, Kec. Aesesa, Kabupaten Nagekeo, Nusa Tenggara Tim.","Kabupaten Nagekeo, Nusa Tenggara Tim.",NUSA TENGGARA TIMUR,,Indonesia,,,,-8.5783667,121.247094,https://maps.google.com/?cid=0x0:0xc898d1a26772f4a2,
perumahan,perumahan,Rumah Yanto,"C6CW+PR2, Dhawe, Kec. Aesesa, Kabupaten Nagekeo, Nusa Tenggara Tim.","Kabupaten Nagekeo, Nusa Tenggara Tim.",NUSA TENGGARA TIMUR,,Indonesia,,,,-8.5782455,121.2470029,https://maps.google.com/?cid=0x0:0xab2c7586871d8be3,
perumahan,Perhimpunan Pengembang Perumahan,rumah Icha,"F739+C4M, Mbay I, Kec. Aesesa, Kabupaten Nagekeo, Nusa Tenggara Tim.","Kabupaten Nagekeo, Nusa Tenggara Tim.",NUSA TENGGARA TIMUR,,Indonesia,,,,-8.546421,121.2677899,https://maps.google.com/?cid=0x0:0xcb4bb8aac08ac2b5,
perumahan,Komplek perumahan,Gunung batu,"C7GV+WCM, Lape, Kec. Aesesa, Kabupaten Nagekeo, Nusa Tenggara Tim.","Kabupaten Nagekeo, Nusa Tenggara Tim.",NUSA TENGGARA TIMUR,,Indonesia,,,,-8.5723044,121.2945181,https://maps.google.com/?cid=0x0:0x84e21b09feb13d3a,
perumahan,Komplek perumahan,Kios 1 putri BOATIBA,"Jl. Masjid Baiturrahman, Mbay I, Kec. Aesesa, Kabupaten Nagekeo, Nusa Tenggara Tim.","Kabupaten Nagekeo, Nusa Tenggara Tim.",NUSA TENGGARA TIMUR,,Indonesia,,,,-8.5555561,121.2691893,https://maps.google.com/?cid=0x0:0x204a7879a6972067,
perumahan,Komplek perumahan,Rumah jabatan bupati,"C7G9+V6, Danga, Kec. Aesesa, Kabupaten Nagekeo, Nusa Tenggara Tim.","Kabupaten Nagekeo, Nusa Tenggara Tim.",NUSA TENGGARA TIMUR,,Indonesia,,,,-8.5727228,121.2676709,https://maps.google.com/?cid=0x0:0x6f16f6a8dfbf97d2,
perumahan,Komplek perumahan,Faris Dhomang,"F7QJ+M3H, Mbay II, Kec. Aesesa, Kabupaten Nagekeo, Nusa Tenggara Tim.","Kabupaten Nagekeo, Nusa Tenggara Tim.",NUSA TENGGARA TIMUR,,Indonesia,,,,-8.5108025,121.2802189,https://maps.google.com/?cid=0x0:0x46b4582a2b62494e,
perumahan,Komplek perumahan,Ladha,"F7JM+5GG, Mbay I, Kec. Aesesa, Kabupaten Nagekeo, Nusa Tenggara Tim.","Kabupaten Nagekeo, Nusa Tenggara Tim.",NUSA TENGGARA TIMUR,,Indonesia,,,,-8.5195876,121.2837335,https://maps.google.com/?cid=0x0:0xa27a4db897a0c56e,
perumahan,Komplek perumahan,R. EI,"C7CX+5X, Lape, Kec. Aesesa, Kabupaten Nagekeo, Nusa Tenggara Tim.","Kabupaten Nagekeo, Nusa Tenggara Tim.",NUSA TENGGARA TIMUR,,Indonesia,,,,-8.5795125,121.2999975,https://maps.google.com/?cid=0x0:0xad4e095031755b83,
perumahan,Pembangunan Perumahan,nagekeo,"C76W+5Q8, Lape, Kec. Aesesa, Kabupaten Nagekeo, Nusa Tenggara Tim.","Kabupaten Nagekeo, Nusa Tenggara Tim.",NUSA TENGGARA TIMUR,,Indonesia,,,,-8.5895963,121.2969674,https://maps.google.com/?cid=0x0:0x48198d63f32cf64,
perumahan,perumahan,Nangaroro,"Gg. Angker Jl. Raya Bajawa No.Km. 42, RT.0 RT/RW.005, Rega, Kec. Boawae, Kabupaten Nagekeo, Nusa Tenggara Tim.","Kabupaten Nagekeo, Nusa Tenggara Tim.",NUSA TENGGARA TIMUR,,Indonesia,,,,-8.7666323,121.2037027,https://maps.google.com/?cid=0x0:0xd65c2c0c5aa06c34,
perumahan,Pasar,Komplek pasar Nangaroro,"696R+WHW, Kompleks pasar, Kec. Nangaroro, Kabupaten Nagekeo, Nusa Tenggara Tim.","Kabupaten Nagekeo, Nusa Tenggara Tim.",NUSA TENGGARA TIMUR,,Indonesia,,,,-8.7876516,121.3914577,https://maps.google.com/?cid=0x0:0x675a6674982a5f2a,
perumahan,Perhimpunan Pengembang Perumahan,Puuperi,"69CQ+G4, Nangaroro, Kec. Nangaroro, Kabupaten Nagekeo, Nusa Tenggara Tim.","Kabupaten Nagekeo, Nusa Tenggara Tim.",NUSA TENGGARA TIMUR,,Indonesia,81236147526.0,,,-8.7787433,121.3877755,https://maps.google.com/?cid=0x0:0xcc7da3ef6062649c,
perumahan,Komplek perumahan,"Kampung Pu'uluto, Nangaroro","593C+835, Tonggo, Kec. Nangaroro, Kabupaten Nagekeo, Nusa Tenggara Tim.","Kabupaten Nagekeo, Nusa Tenggara Tim.",NUSA TENGGARA TIMUR,,Indonesia,,,,-8.846735,121.3702188,https://maps.google.com/?cid=0x0:0xb4bcd00b480a9adf,
perumahan,Komplek perumahan,Okaman,"58JP+CX, Wokodekororo, Kec. Nangaroro, Kabupaten Nagekeo, Nusa Tenggara Tim.","Kabupaten Nagekeo, Nusa Tenggara Tim.",NUSA TENGGARA TIMUR,,Indonesia,,,,-8.818911,121.3375091,https://maps.google.com/?cid=0x0:0x58e9d2ee50c98ea9,
perumahan,Pembangunan Perumahan,KAMPUNG MAUBARE,"Tonggo, Kec. Nangaroro, Kabupaten Nagekeo, Nusa Tenggara Tim.","Kabupaten Nagekeo, Nusa Tenggara Tim.",NUSA TENGGARA TIMUR,,Indonesia,,,,-8.8454623,121.3699308,https://maps.google.com/?cid=0x0:0x96abac3215fb87bd,
perumahan,Komplek perumahan,Kampung Dongga,"48WR+QPC, Riti, Kec. Nangaroro, Kabupaten Nagekeo, Nusa Tenggara Tim.","Kabupaten Nagekeo, Nusa Tenggara Tim.",NUSA TENGGARA TIMUR,,Indonesia,,,,-8.8530746,121.3417596,https://maps.google.com/?cid=0x0:0x94f8a2527ad914f0,
perumahan,Komplek perumahan,Kampung Tonga,"Riti, Kec. Nangaroro, Kabupaten Nagekeo, Nusa Tenggara Tim.","Kabupaten Nagekeo, Nusa Tenggara Tim.",NUSA TENGGARA TIMUR,,Indonesia,,,,-8.8550168,121.3473764,https://maps.google.com/?cid=0x0:0xac6020b1d5124891,
perumahan,Komplek perumahan,Angakapa,"68Q2+P6H, Pagomogo, Kec. Nangaroro, Kabupaten Nagekeo, Nusa Tenggara Tim.","Kabupaten Nagekeo, Nusa Tenggara Tim.",NUSA TENGGARA TIMUR,,Indonesia,,,,-8.7595916,121.3011542,https://maps.google.com/?cid=0x0:0x9e383ec2ec577594,
perumahan,Komplek perumahan,Maubare,"696V+WH7, Nangaroro, Kec. Nangaroro, Kabupaten Nagekeo, Nusa Tenggara Tim.","Kabupaten Nagekeo, Nusa Tenggara Tim.",NUSA TENGGARA TIMUR,,Indonesia,,,,-8.7877249,121.393929,https://maps.google.com/?cid=0x0:0x36e0b35213b75a55,
perumahan,Komplek perumahan,Kampung Kecil Kekamere,"59J7+FW, Tonggo, Kec. Nangaroro, Kabupaten Nagekeo, Nusa Tenggara Tim.","Kabupaten Nagekeo, Nusa Tenggara Tim.",NUSA TENGGARA TIMUR,,Indonesia,,,,-8.8187952,121.3647504,https://maps.google.com/?cid=0x0:0xa234a331887e1e18,
perumahan,Komplek perumahan,KOMPAS FAMILY,"696Q+JW7, Nangaroro, Kec. Nangaroro, Kabupaten Nagekeo, Nusa Tenggara Tim.","Kabupaten Nagekeo, Nusa Tenggara Tim.",NUSA TENGGARA TIMUR,,Indonesia,,,,-8.7884553,121.3897939,https://maps.google.com/?cid=0x0:0x7c472f48c4978e17,
perumahan,Komplek perumahan,Doze ( Rumah Kepala Desa ),"794P+74R, Odaute, Kec. Nangaroro, Kabupaten Nagekeo, Nusa Tenggara Tim.","Kabupaten Nagekeo, Nusa Tenggara Tim.",NUSA TENGGARA TIMUR,,Indonesia,,,,-8.7442592,121.3852549,https://maps.google.com/?cid=0x0:0x260d4122dd0e1293,
perumahan,Komplek perumahan,BHONDUKADO,"7C75+CP3, Utetoto, Kec. Nangaroro, Kabupaten Nagekeo, Nusa Tenggara Tim.","Kabupaten Nagekeo, Nusa Tenggara Tim.",NUSA TENGGARA TIMUR,,Indonesia,,,,-8.7364836,121.4093064,https://maps.google.com/?cid=0x0:0x215b369fa991a554,
perumahan,Perhimpunan Pengembang Perumahan,Kampung Baru,"59H9+QH, Woewutu, Kec. Nangaroro, Kabupaten Nagekeo, Nusa Tenggara Tim.","Kabupaten Nagekeo, Nusa Tenggara Tim.",NUSA TENGGARA TIMUR,,Indonesia,,,,-8.8205413,121.368937,https://maps.google.com/?cid=0x0:0x6900e4a4808f5c35,
perumahan,Perhimpunan Pengembang Perumahan,Paulus Epe,"697R+CCW, Nangaroro, Kec. Nangaroro, Kabupaten Nagekeo, Nusa Tenggara Tim.","Kabupaten Nagekeo, Nusa Tenggara Tim.",NUSA TENGGARA TIMUR,,Indonesia,,,,-8.7863094,121.390952,https://maps.google.com/?cid=0x0:0x8b0875ad63c3e711,
perumahan,Komplek perumahan,Rumah Pritha Philip,"789G+PQ9, Ulupulu, Kec. Nangaroro, Kabupaten Nagekeo, Nusa Tenggara Tim.","Kabupaten Nagekeo, Nusa Tenggara Tim.",NUSA TENGGARA TIMUR,,Indonesia,,,,-8.7307076,121.3269997,https://maps.google.com/?cid=0x0:0x31e3272a0f2dc52c,
perumahan,Komplek perumahan,Bo'a Go,"6952+WR4, Woewutu, Kec. Nangaroro, Kabupaten Nagekeo, Nusa Tenggara Tim.","Kabupaten Nagekeo, Nusa Tenggara Tim.",NUSA TENGGARA TIMUR,,Indonesia,,,,-8.790232,121.3520699,https://maps.google.com/?cid=0x0:0x2e82ec594556a67c,
perumahan,Komplek perumahan,Onggy Nua Kita,"49C4+Q93, Onggi, Riti, Podenura, Kec. Nangaroro, Kabupaten Nagekeo, Nusa Tenggara Tim.","Kabupaten Nagekeo, Nusa Tenggara Tim.",NUSA TENGGARA TIMUR,,Indonesia,,,,-8.8781136,121.3559273,https://maps.google.com/?cid=0x0:0x5798ca8de846b7be,
perumahan,perumahan,"Desa Tendambepa, kecamatan Nangapanda, Ende","8C3J+H5, Tendambepa, Kec. Nangapanda, Kabupaten Ende, Nusa Tenggara Tim.","Kabupaten Ende, Nusa Tenggara Tim.",NUSA TENGGARA TIMUR,,Indonesia,,,,-8.6960129,121.4303759,https://maps.google.com/?cid=0x0:0x912301031b84fe5d,
perumahan,perumahan,Kec. Nangaroro,"Kabupaten Nagekeo, Nusa Tenggara Tim.","Kabupaten Nagekeo, Nusa Tenggara Tim.",NUSA TENGGARA TIMUR,,Indonesia,,,,-8.7877249,121.393929,https://maps.google.com/?cid=0x0:0x7c1a30a4c1814805,
perumahan,Perhimpunan Pengembang Perumahan,Kampung Usu,"49G3+HJR, Podenura, Kec. Nangaroro, Kabupaten Nagekeo, Nusa Tenggara Tim.","Kabupaten Nagekeo, Nusa Tenggara Tim.",NUSA TENGGARA TIMUR,,Indonesia,,,,-8.8735094,121.3540194,https://maps.google.com/?cid=0x0:0xa2a297acddd8c7b5,
perumahan,Komplek perumahan,KAMPUNG BAJO,"48HW+26G, Podenura, Kec. Nangaroro, Kabupaten Nagekeo, Nusa Tenggara Tim.","Kabupaten Nagekeo, Nusa Tenggara Tim.",NUSA TENGGARA TIMUR,,Indonesia,,,,-8.8724275,121.3455856,https://maps.google.com/?cid=0x0:0x47da9a2b48ad0c88,
perumahan,Komplek perumahan,Bpk Sipri - Mauliti,"49RC+R5, Tonggo, Kec. Nangaroro, Kabupaten Nagekeo, Nusa Tenggara Tim.","Kabupaten Nagekeo, Nusa Tenggara Tim.",NUSA TENGGARA TIMUR,,Indonesia,,,,-8.857937,121.3704907,https://maps.google.com/?cid=0x0:0xfef60185a7b21262,
perumahan,Komplek perumahan,RUMAH ALBERTHO MALO,"696P+F5V, Nangaroro, Kec. Nangaroro, Kabupaten Nagekeo, Nusa Tenggara Tim.","Kabupaten Nagekeo, Nusa Tenggara Tim.",NUSA TENGGARA TIMUR,,Indonesia,,,,-8.788736,121.3853448,https://maps.google.com/?cid=0x0:0x65b06bf1c2c515b8,
perumahan,perumahan,Kec. Boawae,"Kabupaten Nagekeo, Nusa Tenggara Tim.","Kabupaten Nagekeo, Nusa Tenggara Tim.",NUSA TENGGARA TIMUR,,Indonesia,,,,-8.7639474,121.1651632,https://maps.google.com/?cid=0x0:0x7defadf688be794f,
perumahan,perumahan,Kompleks perumahan,"65QM+6V3, Nageoga, Kec. Boawae, Kabupaten Nagekeo, Nusa Tenggara Tim.","Kabupaten Nagekeo, Nusa Tenggara Tim.",NUSA TENGGARA TIMUR,,Indonesia,82235110229.0,,,-8.7620193,121.184555,https://maps.google.com/?cid=0x0:0x98c54b65d1aaab2b,
perumahan,Pembangunan Perumahan,wae lama,"55J8+C4V, Kelewae, Kec. Boawae, Kabupaten Nagekeo, Nusa Tenggara Tim.","Kabupaten Nagekeo, Nusa Tenggara Tim.",NUSA TENGGARA TIMUR,,Indonesia,,,,-8.8188851,121.1653117,https://maps.google.com/?cid=0x0:0x907f597cea92614e,
perumahan,Perhimpunan Pengembang Perumahan,Desa solo,"649Q+XR7, Solo, Kec. Boawae, Kabupaten Nagekeo, Nusa Tenggara Tim.","Kabupaten Nagekeo, Nusa Tenggara Tim.",NUSA TENGGARA TIMUR,,Indonesia,81237277799.0,,,-8.7800992,121.1395358,https://maps.google.com/?cid=0x0:0x422d152e08e0be7d,
perumahan,Komplek perumahan,Hareto,"65PQ+862, Nageoga, Kec. Boawae, Kabupaten Nagekeo, Nusa Tenggara Tim.","Kabupaten Nagekeo, Nusa Tenggara Tim.",NUSA TENGGARA TIMUR,,Indonesia,,,,-8.765041,121.1882432,https://maps.google.com/?cid=0x0:0x3b7329176b65bc91,
perumahan,Pembangunan Perumahan,AREA RENASPA,"65M9+QPQ, Jl. Raya Bajawa, Natanage Tim., Kec. Boawae, Kabupaten Nagekeo, Nusa Tenggara Tim.","Kabupaten Nagekeo, Nusa Tenggara Tim.",NUSA TENGGARA TIMUR,,Indonesia,,,,-8.7655338,121.169373,https://maps.google.com/?cid=0x0:0xc12ddd8aa15eece7,
perumahan,Pembangunan Perumahan,Rumah Opa Yohanes Nuwa,"66H4+CF4, RT.01, Wolopogo, Kec. Boawae, Kabupaten Nagekeo, Nusa Tenggara Tim. 86412","RT.01, Wolopogo, Kec. Boawae, Kabupaten Nagekeo",NUSA TENGGARA TIMUR,86412.0,Indonesia,82138783089.0,,,-8.7714855,121.2062075,https://maps.google.com/?cid=0x0:0x31a3200ecc2e8f57,
perumahan,Komplek perumahan,Nagenai,"65P9+9RH, Natanage Tim., Kec. Boawae, Kabupaten Nagekeo, Nusa Tenggara Tim.","Kabupaten Nagekeo, Nusa Tenggara Tim.",NUSA TENGGARA TIMUR,,Indonesia,,,,-8.7640654,121.1696103,https://maps.google.com/?cid=0x0:0x48a93af62e714b48,
perumahan,Komplek perumahan,Rumah Bapa Gaspar Sawu,"65M9+5G4, Natanage Tim., Kec. Boawae, Kabupaten Nagekeo, Nusa Tenggara Tim.","Kabupaten Nagekeo, Nusa Tenggara Tim.",NUSA TENGGARA TIMUR,,Indonesia,,,,-8.7670969,121.1689642,https://maps.google.com/?cid=0x0:0x3c8eef2bc2b11076,
perumahan,Perhimpunan Pengembang Perumahan,"Dekat Ratongamobo, Kec. Boawae, Kabupaten Nagekeo, Nusa Tenggara Tim.","758P+6HP Gregorius migu, Ratongamobo, Kec. Boawae, Kabupaten Nagekeo, Nusa Tenggara Tim.","Kabupaten Nagekeo, Nusa Tenggara Tim.",NUSA TENGGARA TIMUR,,Indonesia,,,,-8.7344212,121.186466,https://maps.google.com/?cid=0x0:0x7a8ac5d8dae1d2f,
perumahan,Perumahan,Bowolo,"65PH+78, Nageoga, Kec. Boawae, Kabupaten Nagekeo, Nusa Tenggara Tim.","Kabupaten Nagekeo, Nusa Tenggara Tim.",NUSA TENGGARA TIMUR,,Indonesia,,,,-8.7642702,121.1783739,https://maps.google.com/?cid=0x0:0x7b0c3a18fdf120a9,
perumahan,Komplek perumahan,Wolopogo boawae,"66G2+7M5, Wolopogo, Kec. Boawae, Kabupaten Nagekeo, Nusa Tenggara Tim.","Kabupaten Nagekeo, Nusa Tenggara Tim.",NUSA TENGGARA TIMUR,,Indonesia,,,,-8.7743693,121.2017221,https://maps.google.com/?cid=0x0:0xcfa4aa36fa1e482f,
perumahan,Tujuan Wisata,Gako Boawae,"649V+99R, Gako, Kec. Boawae, Kabupaten Nagekeo, Nusa Tenggara Tim.","Kabupaten Nagekeo, Nusa Tenggara Tim.",NUSA TENGGARA TIMUR,,Indonesia,,,,-8.7815223,121.1433842,https://maps.google.com/?cid=0x0:0x42324da6d0c33274,
perumahan,Komplek perumahan,RUMAH TINUS,"Natanage Tim., Kec. Boawae, Kabupaten Nagekeo, Nusa Tenggara Tim.","Kabupaten Nagekeo, Nusa Tenggara Tim.",NUSA TENGGARA TIMUR,,Indonesia,,,,-8.7673929,121.1693376,https://maps.google.com/?cid=0x0:0xb60de83c0690668a,
perumahan,Komplek perumahan,Rumah Rio ceme,"7526+WPC, Olakile, Kec. Boawae, Kabupaten Nagekeo, Nusa Tenggara Tim.","Kabupaten Nagekeo, Nusa Tenggara Tim.",NUSA TENGGARA TIMUR,,Indonesia,,,,-8.7471963,121.1619714,https://maps.google.com/?cid=0x0:0xecca81b18e54495e,
perumahan,Komplek perumahan,HOME,"65Q7+F6H, Unnamed Road, Natanage, Kec. Boawae, Kabupaten Nagekeo, Nusa Tenggara Tim.","Kabupaten Nagekeo, Nusa Tenggara Tim.",NUSA TENGGARA TIMUR,,Indonesia,,,,-8.7613111,121.163122,https://maps.google.com/?cid=0x0:0x252b9b627c4050c1,
perumahan,Perhimpunan Pengembang Perumahan,tongananga,"759P+RC, Ratongamobo, Kec. Boawae, Kabupaten Nagekeo, Nusa Tenggara Tim.","Kabupaten Nagekeo, Nusa Tenggara Tim.",NUSA TENGGARA TIMUR,,Indonesia,,,,-8.7304369,121.1860756,https://maps.google.com/?cid=0x0:0xc5d8b62e2cbe79a,
perumahan,Perumahan,Rumah Ana Wae,"55C6+HXP, Kelewae, Kec. Boawae, Kabupaten Nagekeo, Nusa Tenggara Tim.","Kabupaten Nagekeo, Nusa Tenggara Tim.",NUSA TENGGARA TIMUR,,Indonesia,,,,-8.8284447,121.1627708,https://maps.google.com/?cid=0x0:0xb338cf0447d3c695,
perumahan,Perhimpunan Pengembang Perumahan,NAGEPADA 1,"65M9+5G4, Natanage Tim., Kec. Boawae, Kabupaten Nagekeo, Nusa Tenggara Tim.","Kabupaten Nagekeo, Nusa Tenggara Tim.",NUSA TENGGARA TIMUR,,Indonesia,,,,-8.7670707,121.1689738,https://maps.google.com/?cid=0x0:0x900dde193ce1eb29,
perumahan,Komplek perumahan,TANJUNG KISS BOAWAE,"65P8+6PH, Natanage, Kec. Boawae, Kabupaten Nagekeo, Nusa Tenggara Tim.","Kabupaten Nagekeo, Nusa Tenggara Tim.",NUSA TENGGARA TIMUR,,Indonesia,85237818589.0,,,-8.7644436,121.1668598,https://maps.google.com/?cid=0x0:0xa67142fcf488634c,
perumahan,Perhimpunan Pengembang Perumahan,Wolouma,"Ratongamobo ,rt007rw002tongananga, wolouma, Kec. Boawae, Kabupaten Nagekeo, Nusa Tenggara Tim.","Kabupaten Nagekeo, Nusa Tenggara Tim.",NUSA TENGGARA TIMUR,,Indonesia,,,,-8.7355611,121.1862044,https://maps.google.com/?cid=0x0:0x42935179de5e97,
perumahan,Komplek perumahan,"Kampung bowolo, ruma jhon loma","65PH+HCV, Nageoga, Kec. Boawae, Kabupaten Nagekeo, Nusa Tenggara Tim.","Kabupaten Nagekeo, Nusa Tenggara Tim.",NUSA TENGGARA TIMUR,,Indonesia,,,,-8.7635206,121.1785508,https://maps.google.com/?cid=0x0:0x602e0363e7267fc2,
perumahan,Komplek perumahan,Rumah Bung Edo Lowa,"65Q5+C4V, pedha, Nagesapadhi, Kec. Boawae, Kabupaten Nagekeo, Nusa Tenggara Tim.","Kabupaten Nagekeo, Nusa Tenggara Tim.",NUSA TENGGARA TIMUR,,Indonesia,,,,-8.7613806,121.1577832,https://maps.google.com/?cid=0x0:0x9971525ca666cddd,
perumahan,Pembangunan Perumahan,Lorong tower neco,"65QF+5WQ, Nageoga, Kec. Boawae, Kabupaten Nagekeo, Nusa Tenggara Tim.","Kabupaten Nagekeo, Nusa Tenggara Tim.",NUSA TENGGARA TIMUR,,Indonesia,,,,-8.7608477,121.175392,https://maps.google.com/?cid=0x0:0xe1fd375295afdbe8,
perumahan,perumahan,Nusa Tenggara Tim.,,Nusa Tenggara Tim.,NUSA TENGGARA TIMUR,,Indonesia,,,,-8.6573819,121.0793705,https://maps.google.com/?cid=0x0:0x1030bfbcaf71ae0,
perumahan,Komplek perumahan,Perumahan Baumata,"Rss, no 31, blok S, Baumata","Kabupaten Kupang, Nusa Tenggara Tim.",NUSA TENGGARA TIMUR,,Indonesia,,,,-10.1908193,123.668547,https://maps.google.com/?cid=0x0:0x816e2dddd1e45189,
perumahan,Penginapan,Palami Pajoreja,"Pajoreja, Desa Ululoga, Kecamatan Mauponggo, Nagekoe, Kabupaten Nagekeo, Nusa Tenggara Tim. 86463","Desa Ululoga, Kecamatan Mauponggo, Nagekoe, Kabupaten Nagekeo",NUSA TENGGARA TIMUR,86463.0,Indonesia,,,,-8.8452248,121.195352,https://maps.google.com/?cid=0x0:0xb5c9ed7d495d4ce7,
perumahan,Hostel,Sonny Homestay,"Kampung Pajoreja, Ululoga, Kec. Mauponggo, Kabupaten Nagekeo, Nusa Tenggara Tim. 86463","Ululoga, Kec. Mauponggo, Kabupaten Nagekeo",NUSA TENGGARA TIMUR,86463.0,Indonesia,822237511849.0,,,-8.8458846,121.1959262,https://maps.google.com/?cid=0x0:0x7f0d95955335c0fe,
perumahan,Toko Ponsel,Counter Pulsa All Operator,"Dusun Boloroga, Lajawajo, Kec. Mauponggo, Kabupaten Nagekeo, Nusa Tenggara Tim. 86463","Lajawajo, Kec. Mauponggo, Kabupaten Nagekeo",NUSA TENGGARA TIMUR,86463.0,Indonesia,81339826851.0,,,-8.8371764,121.169581,https://maps.google.com/?cid=0x0:0xad4a7ca0fe981dcd,
perumahan,Komplek perumahan,Perumahan Gloria Regency,"Waturia, Kolisia B, Kec. Magepanda, Kabupaten Sikka, Nusa Tenggara Tim. 86111","Kolisia B, Kec. Magepanda, Kabupaten Sikka",NUSA TENGGARA TIMUR,86111.0,Indonesia,81353928372.0,,,-8.5500341,122.1347679,https://maps.google.com/?cid=0x0:0xa74817ac7a773063,
perumahan,Komplek perumahan,Rumah Nadine,"RJ37+MGJ, Oepura, Kec. Maulafa, Kota Kupang, Nusa Tenggara Tim. 85142","Oepura, Kec. Maulafa, Kota Kupang",NUSA TENGGARA TIMUR,85142.0,Indonesia,,,,-10.1957882,123.6137726,https://maps.google.com/?cid=0x0:0x353b540635419f22,
perumahan,Klinik Kesehatan,Perumnas Maumere,"96H6+3MP, Jl. Dahlia 1, Madawat, Kec. Alok, Kabupaten Sikka, Nusa Tenggara Tim.","Kabupaten Sikka, Nusa Tenggara Tim.",NUSA TENGGARA TIMUR,,Indonesia,,,,-8.6222838,122.2117176,https://maps.google.com/?cid=0x0:0x206c6c9f15b5d2e3,
perumahan,Pembangunan Perumahan,naioni,"QH9W+M58, Jl. Laluteti, Fatukoa, Kec. Maulafa, Kota Kupang, Nusa Tenggara Tim.","Kota Kupang, Nusa Tenggara Tim.",NUSA TENGGARA TIMUR,,Indonesia,,,,-10.230846,123.595466,https://maps.google.com/?cid=0x0:0x3eafa979d3f7dbf,
perumahan,Komplek perumahan,SOU REGENCY,"86V8+53P, Nelle Urung, Kec. Nelle, Kabupaten Sikka, Nusa Tenggara Tim.","Kabupaten Sikka, Nusa Tenggara Tim.",NUSA TENGGARA TIMUR,,Indonesia,82236514864.0,,,-8.6570434,122.2152004,https://maps.google.com/?cid=0x0:0x8dec4edc1aaf29d9,
perumahan,Komplek perumahan,Dody Sadipun,"96H6+485, Jln.KS Tubun, Madawat, Kec. Alok, Kabupaten Sikka, Nusa Tenggara Tim.","Kabupaten Sikka, Nusa Tenggara Tim.",NUSA TENGGARA TIMUR,,Indonesia,,,,-8.6222468,122.2108589,https://maps.google.com/?cid=0x0:0x9fe2bc4ca9b87b59,
perumahan,Pengembang Realestat,timor sarana,"Jl. Jend. Soeharto No.119a, Oepura, Kec. Maulafa, Kota Kupang, Nusa Tenggara Tim. 85142","Oepura, Kec. Maulafa, Kota Kupang",NUSA TENGGARA TIMUR,85142.0,Indonesia,,,,-10.1864412,123.6060899,https://maps.google.com/?cid=0x0:0xaa4dc544ddab7,
perumahan,Komplek perumahan,Mandato Islamic Residence,"QHQC+222, Manulai II, Kec. Alak, Kota Kupang, Nusa Tenggara Tim.","Kota Kupang, Nusa Tenggara Tim.",NUSA TENGGARA TIMUR,,Indonesia,,,,-10.2124813,123.5700036,https://maps.google.com/?cid=0x0:0x780ee406a8f1ea97,
perumahan,Rumah Sakit Pemerintah,RSU LEONA,"Jl. Soverdi No.20, Oebufu, Kec. Oebobo, Kota Kupang, Nusa Tenggara Tim. 85228","Oebufu, Kec. Oebobo, Kota Kupang",NUSA TENGGARA TIMUR,85228.0,Indonesia,8113818622.0,,,-10.1707999,123.6274983,https://maps.google.com/?cid=0x0:0xd15200964d401f1b,
perumahan,Hotel,Rumah Maumere,"969R+C5H, Waioti, Kec. Alok Tim., Kabupaten Sikka, Nusa Tenggara Tim.","Kabupaten Sikka, Nusa Tenggara Tim.",NUSA TENGGARA TIMUR,,Indonesia,,,,-8.6314926,122.2405319,https://maps.google.com/?cid=0x0:0xea3dc4adb96213a,
perumahan,Komplek perumahan,GAS RESIDENCE,"46R8+XC9, Wololelu, Kec. Mauponggo, Kabupaten Nagekeo, Nusa Tenggara Tim.","Kabupaten Nagekeo, Nusa Tenggara Tim.",NUSA TENGGARA TIMUR,,Indonesia,,,,-8.8575813,121.2161175,https://maps.google.com/?cid=0x0:0x325d1b72e22aeb64,
perumahan,Komplek perumahan,NATASULE,"56CH+HH, Woewolo, Kec. Mauponggo, Kabupaten Nagekeo, Nusa Tenggara Tim.","Kabupaten Nagekeo, Nusa Tenggara Tim.",NUSA TENGGARA TIMUR,,Indonesia,,,,-8.8285767,121.2290226,https://maps.google.com/?cid=0x0:0x43a109008b45ca65,
perumahan,Komplek perumahan,GELU,"5629+93M, Wololelu, Kec. Mauponggo, Kabupaten Nagekeo, Nusa Tenggara Tim.","Kabupaten Nagekeo, Nusa Tenggara Tim.",NUSA TENGGARA TIMUR,,Indonesia,,,,-8.8490339,121.2176669,https://maps.google.com/?cid=0x0:0x7102ff7b8cd2bdcf,
perumahan,Komplek perumahan,My home,"46VG+2M, UA, Kec. Mauponggo, Kabupaten Nagekeo, Nusa Tenggara Tim.","Kabupaten Nagekeo, Nusa Tenggara Tim.",NUSA TENGGARA TIMUR,,Indonesia,,,,-8.8574375,121.2266875,https://maps.google.com/?cid=0x0:0x29972749f1e5ead7,
perumahan,Komplek perumahan,Kp.Puunage,"5542+H2P, Kp.Puunage, Wolokisa, Kec. Mauponggo, Kabupaten Nagekeo, Nusa Tenggara Tim.","Kabupaten Nagekeo, Nusa Tenggara Tim.",NUSA TENGGARA TIMUR,,Indonesia,,,,-8.8435256,121.1500875,https://maps.google.com/?cid=0x0:0x89d078322a7fdcd6,
perumahan,Tujuan Wisata,KAMPUNGLAJATIRO,"45F2+24F, Wolokisa, Kec. Mauponggo, Kabupaten Nagekeo, Nusa Tenggara Tim.","Kabupaten Nagekeo, Nusa Tenggara Tim.",NUSA TENGGARA TIMUR,,Indonesia,,,,-8.8774377,121.1502863,https://maps.google.com/?cid=0x0:0x1d9fe013274fca09,
perumahan,Komplek perumahan,Kampung Paulundu,"45QV+253, Jawapogo, Kec. Mauponggo, Kabupaten Nagekeo, Nusa Tenggara Tim.","Kabupaten Nagekeo, Nusa Tenggara Tim.",NUSA TENGGARA TIMUR,,Indonesia,,,,-8.8624805,121.1929181,https://maps.google.com/?cid=0x0:0x60538f1ceee14bd7,
perumahan,Pembangunan Perumahan,Bhoko Gego,"45QV+78G, Jawapogo, Kec. Mauponggo, Kabupaten Nagekeo, Nusa Tenggara Tim.","Kabupaten Nagekeo, Nusa Tenggara Tim.",NUSA TENGGARA TIMUR,,Indonesia,,,,-8.8618243,121.193319,https://maps.google.com/?cid=0x0:0xdc1ac77b6e8425bd,
perumahan,Komplek perumahan,TERABHOJA,"56FX+4C, Selalejo, Kec. Mauponggo, Kabupaten Nagekeo, Nusa Tenggara Tim.","Kabupaten Nagekeo, Nusa Tenggara Tim.",NUSA TENGGARA TIMUR,,Indonesia,,,,-8.8272291,121.2486817,https://maps.google.com/?cid=0x0:0x15160fb38833a13f,
perumahan,Pembangunan Perumahan,Kampung Sukamaju,"45VV+86, Jawapogo, Kec. Mauponggo, Kabupaten Nagekeo, Nusa Tenggara Tim.","Kabupaten Nagekeo, Nusa Tenggara Tim.",NUSA TENGGARA TIMUR,,Indonesia,,,,-8.8566121,121.1929752,https://maps.google.com/?cid=0x0:0xac45fe7d1841d4ef,
perumahan,Perhimpunan Pengembang Perumahan,Kampung Tawea,"569H+C2, Woewolo, Kec. Mauponggo, Kabupaten Nagekeo, Nusa Tenggara Tim.","Kabupaten Nagekeo, Nusa Tenggara Tim.",NUSA TENGGARA TIMUR,,Indonesia,,,,-8.831476,121.2275229,https://maps.google.com/?cid=0x0:0xdf7ef21669c9b661,
perumahan,Pembangunan Perumahan,KAMPUNG LOKANIO MAJAMERE,"5665+PQ3, Woloede, Kec. Mauponggo, Kabupaten Nagekeo, Nusa Tenggara Tim.","Kabupaten Nagekeo, Nusa Tenggara Tim.",NUSA TENGGARA TIMUR,,Indonesia,,,,-8.8382498,121.2094318,https://maps.google.com/?cid=0x0:0x2d01827e698ace07,
perumahan,Komplek perumahan,KAMPUNG LEDHO WORU,"46J8+VRQ, UA, Kec. Mauponggo, Kabupaten Nagekeo, Nusa Tenggara Tim.","Kabupaten Nagekeo, Nusa Tenggara Tim.",NUSA TENGGARA TIMUR,,Indonesia,,,,-8.867781,121.217121,https://maps.google.com/?cid=0x0:0x9670594f96c66e71,
perumahan,perumahan,Kec. Wolowae,"Kabupaten Nagekeo, Nusa Tenggara Tim.","Kabupaten Nagekeo, Nusa Tenggara Tim.",NUSA TENGGARA TIMUR,,Indonesia,,,,-8.6305795,121.5020191,https://maps.google.com/?cid=0x0:0x21a9f7a6f47b294d,
perumahan,Komplek perumahan,WOLOWAWO,"75J6+C2, Olakile, Kec. Boawae, Kabupaten Nagekeo, Nusa Tenggara Tim.","Kabupaten Nagekeo, Nusa Tenggara Tim.",NUSA TENGGARA TIMUR,,Indonesia,,,,-8.718895,121.1601026,https://maps.google.com/?cid=0x0:0x46aec6c8bd3aab11,
perumahan,perumahan,Aeramo,"Kec. Aesesa, Kabupaten Nagekeo, Nusa Tenggara Tim.","Kabupaten Nagekeo, Nusa Tenggara Tim.",NUSA TENGGARA TIMUR,,Indonesia,,,,-8.5854853,121.3427262,https://maps.google.com/?cid=0x0:0x35ebfbdec0a4cfd0,
perumahan,Restoran,Rumah Makan Nusantara,"Jl. Soekarno Hatta, Danga, Kec. Aesesa, Kabupaten Nagekeo, Nusa Tenggara Tim.","Kabupaten Nagekeo, Nusa Tenggara Tim.",NUSA TENGGARA TIMUR,,Indonesia,81389211627.0,,,-8.5671396,121.2693417,https://maps.google.com/?cid=0x0:0x85cb73af34ce2607,
perumahan,perumahan,"Desa Tendambepa, kecamatan Nangapanda, Ende","8C3J+H5, Tendambepa, Kec. Nangapanda, Kabupaten Ende, Nusa Tenggara Tim.","Kabupaten Ende, Nusa Tenggara Tim.",NUSA TENGGARA TIMUR,,Indonesia,,,,-8.6960129,121.4303759,https://maps.google.com/?cid=0x0:0x912301031b84fe5d,
perumahan,Komplek perumahan,Domi thegu,"9F52+G9, Tendatoto, Kec. Wolowae, Kabupaten Nagekeo, Nusa Tenggara Tim.","Kabupaten Nagekeo, Nusa Tenggara Tim.",NUSA TENGGARA TIMUR,,Indonesia,,,,-8.641642,121.450092,https://maps.google.com/?cid=0x0:0xc8e3a9c9a3c5c2e4,
perumahan,Komplek perumahan,Kokaranda,"9F6C+X9H, Tendatoto, Kec. Wolowae, Kabupaten Nagekeo, Nusa Tenggara Tim.","Kabupaten Nagekeo, Nusa Tenggara Tim.",NUSA TENGGARA TIMUR,,Indonesia,,,,-8.6375558,121.4709887,https://maps.google.com/?cid=0x0:0x69f9f7b9f55f7bea,
perumahan,Sekolah,KAMPUNG MARILEWA,"9F8X+59P, Tendatoto, Kec. Wolowae, Kabupaten Nagekeo, Nusa Tenggara Tim.","Kabupaten Nagekeo, Nusa Tenggara Tim.",NUSA TENGGARA TIMUR,,Indonesia,,,,-8.6345286,121.4984488,https://maps.google.com/?cid=0x0:0xa7e5bae2720dac6a,
perumahan,perumahan,PEKAT,"9975+6XH, Ratedao, Natatoto, Kec. Wolowae, Kabupaten Nagekeo, Nusa Tenggara Tim.","Kabupaten Nagekeo, Nusa Tenggara Tim.",NUSA TENGGARA TIMUR,,Indonesia,,,,-8.636464,121.3607522,https://maps.google.com/?cid=0x0:0x2de076112be01e73,
perumahan,perumahan,Rumah Ciko Gani,"9F9X+3GP, tendakinde, Kec. Wolowae, Kabupaten Nagekeo, Nusa Tenggara Tim.","Kabupaten Nagekeo, Nusa Tenggara Tim.",NUSA TENGGARA TIMUR,,Indonesia,,,,-8.6322875,121.4988281,https://maps.google.com/?cid=0x0:0xe3792494a0de9316,
perumahan,Pembangunan Perumahan,Resort Ursula Wolowae,"89W5+HPH, Natatoto, Kec. Wolowae, Kabupaten Nagekeo, Nusa Tenggara Tim.","Kabupaten Nagekeo, Nusa Tenggara Tim.",NUSA TENGGARA TIMUR,,Indonesia,,,,-8.6535561,121.3593536,https://maps.google.com/?cid=0x0:0x468ce86b2470501a,
perumahan,perumahan,Danil,"9F9V+M7, Tenda Kinde, Kec. Wolowae, Kabupaten Nagekeo, Nusa Tenggara Tim.","Kabupaten Nagekeo, Nusa Tenggara Tim.",NUSA TENGGARA TIMUR,,Indonesia,,,,-8.6308662,121.4931985,https://maps.google.com/?cid=0x0:0x6d1f801ac05bb353,
perumahan,perumahan,Caesar lajar,"9FJ5+7J4, Tenda Kinde, Kec. Wolowae, Kabupaten Nagekeo, Nusa Tenggara Tim. 86511","Tenda Kinde, Kec. Wolowae, Kabupaten Nagekeo",NUSA TENGGARA TIMUR,86511.0,Indonesia,81222287357.0,,,-8.6193125,121.4590625,https://maps.google.com/?cid=0x0:0xd53963ebe53a15e4,
perumahan,perumahan,Sawah madaaya,"9947+42, Natatoto, Kec. Wolowae, Kabupaten Nagekeo, Nusa Tenggara Tim.","Kabupaten Nagekeo, Nusa Tenggara Tim.",NUSA TENGGARA TIMUR,,Indonesia,,,,-8.6447084,121.3626114,https://maps.google.com/?cid=0x0:0x6609a1a5bcc046d1,
perumahan,Komplek perumahan,WODO NAKGHE,"9F7C+F62, Tendatoto, Kec. Wolowae, Kabupaten Nagekeo, Nusa Tenggara Tim.","Kabupaten Nagekeo, Nusa Tenggara Tim.",NUSA TENGGARA TIMUR,,Indonesia,,,,-8.6363507,121.4705099,https://maps.google.com/?cid=0x0:0xe325577ad5b821c1,
perumahan,Komplek perumahan,Toghu Nunujea,"994M+54R, Natatoto, Kec. Wolowae, Kabupaten Nagekeo, Nusa Tenggara Tim.","Kabupaten Nagekeo, Nusa Tenggara Tim.",NUSA TENGGARA TIMUR,,Indonesia,,,,-8.6445048,121.3827505,https://maps.google.com/?cid=0x0:0x5cf8d0c9d52eb482,
perumahan,Perhimpunan Pengembang Perumahan,Rumah Bpk Mansesius Moda,"89X6+C6, Natatoto, Kec. Wolowae, Kabupaten Nagekeo, Nusa Tenggara Tim.","Kabupaten Nagekeo, Nusa Tenggara Tim.",NUSA TENGGARA TIMUR,,Indonesia,,,,-8.6514176,121.3605792,https://maps.google.com/?cid=0x0:0x8c04e5905a4391af,
perumahan,perumahan,Markas plengkor,"9F8W+H6F, Tendatoto, Kec. Wolowae, Kabupaten Nagekeo, Nusa Tenggara Tim.","Kabupaten Nagekeo, Nusa Tenggara Tim.",NUSA TENGGARA TIMUR,,Indonesia,,,,-8.633554,121.4955336,https://maps.google.com/?cid=0x0:0xd9f9f63bbeb39132,
perumahan,Komplek perumahan,Koba kua,"9G92+QR6, Tenda Kinde, Kec. Wolowae, Kabupaten Nagekeo, Nusa Tenggara Tim.","Kabupaten Nagekeo, Nusa Tenggara Tim.",NUSA TENGGARA TIMUR,,Indonesia,,,,-8.6305795,121.5020191,https://maps.google.com/?cid=0x0:0x54c18e3b86732baa,
perumahan,Pemasok Alat Bantu Jalan,Malawaru Kab ENDE kec Nangapenda,"8FM5+QP, Tendatoto, Kec. Wolowae, Kabupaten Nagekeo, Nusa Tenggara Tim.","Kabupaten Nagekeo, Nusa Tenggara Tim.",NUSA TENGGARA TIMUR,,Indonesia,,,,-8.6655639,121.4593393,https://maps.google.com/?cid=0x0:0xd202c65b1243c100,
perumahan,Komplek perumahan,Dandi Nuga,"8FM5+3P, Tendatoto, Kec. Wolowae, Kabupaten Nagekeo, Nusa Tenggara Tim.","Kabupaten Nagekeo, Nusa Tenggara Tim.",NUSA TENGGARA TIMUR,,Indonesia,,,,-8.665563,121.4593388,https://maps.google.com/?cid=0x0:0x16ca28ec248f1c3a,
perumahan,Komplek perumahan,Vian mallo,"Jl. Aeramo No.20, Lape, Kec. Aesesa, Kabupaten Nagekeo, Nusa Tenggara Tim. 86472","Lape, Kec. Aesesa, Kabupaten Nagekeo",NUSA TENGGARA TIMUR,86472.0,Indonesia,,,,-8.573477,121.3060167,https://maps.google.com/?cid=0x0:0x6928faad593d513,
perumahan,Komplek perumahan,Rmh Jois Chu,"9F52+G9, Tendatoto, Kec. Wolowae, Kabupaten Nagekeo, Nusa Tenggara Tim.","Kabupaten Nagekeo, Nusa Tenggara Tim.",NUSA TENGGARA TIMUR,,Indonesia,,,,-8.6412104,121.4509197,https://maps.google.com/?cid=0x0:0xca4dbdf0e4e65389,
perumahan,Pembangunan Perumahan,Wisa Lowo,"C87V+R35, Aeramo, Kec. Aesesa, Kabupaten Nagekeo, Nusa Tenggara Tim.","Kabupaten Nagekeo, Nusa Tenggara Tim.",NUSA TENGGARA TIMUR,,Indonesia,,,,-8.5854853,121.3427262,https://maps.google.com/?cid=0x0:0xc971789097dc827a,
perumahan,perumahan,Kec. Keo Tengah,"Kabupaten Nagekeo, Nusa Tenggara Tim.","Kabupaten Nagekeo, Nusa Tenggara Tim.",NUSA TENGGARA TIMUR,,Indonesia,,,,-8.8998644,121.2916699,https://maps.google.com/?cid=0x0:0x5db8ac2ea9b5e857,
perumahan,perumahan,Keo Tengah,"472R+2JX, Udiworowatu, Kec. Keo Tengah, Kabupaten Nagekeo, Nusa Tenggara Tim.","Kabupaten Nagekeo, Nusa Tenggara Tim.",NUSA TENGGARA TIMUR,,Indonesia,,,,-8.8998838,121.2916075,https://maps.google.com/?cid=0x0:0xf119ef5c6df49fac,
perumahan,Komplek perumahan,Kampung Ndetumali,"Kotadirumali, Kec. Keo Tengah, Kabupaten Nagekeo, Nusa Tenggara Tim.","Kabupaten Nagekeo, Nusa Tenggara Tim.",NUSA TENGGARA TIMUR,,Indonesia,,,,-8.8830282,121.362322,https://maps.google.com/?cid=0x0:0x3be69958ff76cc12,
perumahan,Pembangunan Perumahan,Kampung Witu,"4842+JMC, Witurombaua, Kec. Keo Tengah, Kabupaten Nagekeo, Nusa Tenggara Tim.","Kabupaten Nagekeo, Nusa Tenggara Tim.",NUSA TENGGARA TIMUR,,Indonesia,,,,-8.8934411,121.3016311,https://maps.google.com/?cid=0x0:0xb6428d0598512865,
perumahan,Komplek perumahan,Rawe,"47RR+65P, Kotawuji Bar., Kec. Keo Tengah, Kabupaten Nagekeo, Nusa Tenggara Tim.","Kabupaten Nagekeo, Nusa Tenggara Tim.",NUSA TENGGARA TIMUR,,Indonesia,,,,-8.859935,121.290588,https://maps.google.com/?cid=0x0:0x2304691c37aef823,
perumahan,Komplek perumahan,AJ,"47RR+989, Kotawuji Bar., Kec. Keo Tengah, Kabupaten Nagekeo, Nusa Tenggara Tim.","Kabupaten Nagekeo, Nusa Tenggara Tim.",NUSA TENGGARA TIMUR,,Indonesia,,,,-8.8590906,121.2908569,https://maps.google.com/?cid=0x0:0xcaf7701d6fd7baea,
perumahan,perumahan,Kampung Wio,"47V7+MHV, Lewangera, Kec. Keo Tengah, Kabupaten Nagekeo, Nusa Tenggara Tim.","Kabupaten Nagekeo, Nusa Tenggara Tim.",NUSA TENGGARA TIMUR,,Indonesia,,,,-8.8557516,121.2639198,https://maps.google.com/?cid=0x0:0x5f9c4d5196a367b4,
perumahan,perumahan,Gemilang,"38R8+JRG, Kotadirumali, Kec. Keo Tengah, Kabupaten Nagekeo, Nusa Tenggara Tim.","Kabupaten Nagekeo, Nusa Tenggara Tim.",NUSA TENGGARA TIMUR,,Indonesia,,,,-8.9084448,121.3170674,https://maps.google.com/?cid=0x0:0x79c5b3c34f4c119d,
perumahan,Komplek perumahan,Zakarias Sa Home,"479R+HP, Kotawuji Tim., Kec. Keo Tengah, Kabupaten Nagekeo, Nusa Tenggara Tim.","Kabupaten Nagekeo, Nusa Tenggara Tim.",NUSA TENGGARA TIMUR,,Indonesia,,,,-8.8810502,121.2917712,https://maps.google.com/?cid=0x0:0xc416b030fb5e53cf,
perumahan,perumahan,Giriwawo,"48C2+2P, Kotawuji Tim., Kec. Keo Tengah, Kabupaten Nagekeo, Nusa Tenggara Tim.","Kabupaten Nagekeo, Nusa Tenggara Tim.",NUSA TENGGARA TIMUR,,Indonesia,,,,-8.87991,121.3017849,https://maps.google.com/?cid=0x0:0xa83a45fbb596d91f,
perumahan,Komplek perumahan,Aleks house,"474W+V5Q, Udiworowatu, Kec. Keo Tengah, Kabupaten Nagekeo, Nusa Tenggara Tim.","Kabupaten Nagekeo, Nusa Tenggara Tim.",NUSA TENGGARA TIMUR,,Indonesia,,,,-8.8927964,121.2954838,https://maps.google.com/?cid=0x0:0xbfd8113e9ad41e08,
perumahan,Komplek perumahan,Kalawoso,"47WF+PH, Lewangera, Kec. Keo Tengah, Kabupaten Nagekeo, Nusa Tenggara Tim.","Kabupaten Nagekeo, Nusa Tenggara Tim.",NUSA TENGGARA TIMUR,,Indonesia,,,,-8.8531565,121.2739505,https://maps.google.com/?cid=0x0:0xd165aebd2b4bca40,
perumahan,Komplek perumahan,Maunory,"475M+F3G, Maunory, Kec. Keo Tengah, Kabupaten Nagekeo, Nusa Tenggara Tim.","Kabupaten Nagekeo, Nusa Tenggara Tim.",NUSA TENGGARA TIMUR,,Indonesia,,,,-8.8913167,121.2827164,https://maps.google.com/?cid=0x0:0x945f8e9de6753381,
perumahan,Pembangunan Perumahan,Gerardus Goo,"38R7+9XR, Kotadirumali, Kec. Keo Tengah, Kabupaten Nagekeo, Nusa Tenggara Tim.","Kabupaten Nagekeo, Nusa Tenggara Tim.",NUSA TENGGARA TIMUR,,Indonesia,,,,-8.909014,121.3149013,https://maps.google.com/?cid=0x0:0x1fa8c3b8669d7123,
perumahan,Perhimpunan Pengembang Perumahan,Kampung Diawatu,"48R2+5M, Pautola, Kec. Keo Tengah, Kabupaten Nagekeo, Nusa Tenggara Tim.","Kabupaten Nagekeo, Nusa Tenggara Tim.",NUSA TENGGARA TIMUR,,Indonesia,,,,-8.859583,121.3017018,https://maps.google.com/?cid=0x0:0x1b3f1265ae1046d5,
perumahan,Perumahan,Kotaodo,"47RR+65P, Kotawuji Bar., Kec. Keo Tengah, Kabupaten Nagekeo, Nusa Tenggara Tim.","Kabupaten Nagekeo, Nusa Tenggara Tim.",NUSA TENGGARA TIMUR,,Indonesia,,,,-8.8594113,121.2904509,https://maps.google.com/?cid=0x0:0x9b39b8328fc90b57,
perumahan,Komplek perumahan,Puuwada,"47QP+WC8, Wajo, Kec. Keo Tengah, Kabupaten Nagekeo, Nusa Tenggara Tim.","Kabupaten Nagekeo, Nusa Tenggara Tim.",NUSA TENGGARA TIMUR,,Indonesia,,,,-8.8613715,121.2858117,https://maps.google.com/?cid=0x0:0x575abde7b09ef91e,
perumahan,Komplek perumahan,Rumah dedy donga,"474X+P3, Udiworowatu, Kec. Keo Tengah, Kabupaten Nagekeo, Nusa Tenggara Tim.","Kabupaten Nagekeo, Nusa Tenggara Tim.",NUSA TENGGARA TIMUR,,Indonesia,,,,-8.8932619,121.297633,https://maps.google.com/?cid=0x0:0xb177dc28b6cb6c07,
perumahan,Komplek perumahan,Wodowawo,"47XW+48P, Wajo Timur, Kec. Keo Tengah, Kabupaten Nagekeo, Nusa Tenggara Tim.","Kabupaten Nagekeo, Nusa Tenggara Tim.",NUSA TENGGARA TIMUR,,Indonesia,,,,-8.8521504,121.2958355,https://maps.google.com/?cid=0x0:0x7b813279c0af93fb,
perumahan,Perhimpunan Pengembang Perumahan,Kampung Mauara,"37WW+HJV, Witurombaua, Kec. Keo Tengah, Kabupaten Nagekeo, Nusa Tenggara Tim.","Kabupaten Nagekeo, Nusa Tenggara Tim.",NUSA TENGGARA TIMUR,,Indonesia,,,,-8.9035203,121.2965482,https://maps.google.com/?cid=0x0:0xc1d6fd0fc6ae0904,
perumahan,Komplek perumahan,Sofian Sandy Putra²⁴,"38R6+RMR, Daja, Kotadirumali, Kec. Keo Tengah, Kabupaten Nagekeo, Nusa Tenggara Tim.","Kabupaten Nagekeo, Nusa Tenggara Tim.",NUSA TENGGARA TIMUR,,Indonesia,,,,-8.9078979,121.311635,https://maps.google.com/?cid=0x0:0xaadf2b414036e189,
perumahan,Komplek perumahan,KAMPUNG ADAT DAJA WAWO,"38X7+82W, Kotadirumali, Kec. Keo Tengah, Kabupaten Nagekeo, Nusa Tenggara Tim.","Kabupaten Nagekeo, Nusa Tenggara Tim.",NUSA TENGGARA TIMUR,,Indonesia,,,,-8.9016263,121.3125875,https://maps.google.com/?cid=0x0:0xbf44e4e21c7900eb,
perumahan,perumahan,Kec. Aesesa Sel.,"Kabupaten Nagekeo, Nusa Tenggara Tim.","Kabupaten Nagekeo, Nusa Tenggara Tim.",NUSA TENGGARA TIMUR,,Indonesia,,,,-8.6719735,121.2280955,https://maps.google.com/?cid=0x0:0xfaff85aad88b98e2,
perumahan,Perhimpunan Pengembang Perumahan,"TEKNISI ALAT BERAT Aesesa Mbay, Kabupaten Nagekeo","DANGA, Kec. Aesesa, Kabupaten Nagekeo, Nusa Tenggara Tim.","Kabupaten Nagekeo, Nusa Tenggara Tim.",NUSA TENGGARA TIMUR,,Indonesia,82242600151.0,,,-8.5285113,121.2798033,https://maps.google.com/?cid=0x0:0x34081ec136ad1b8d,
perumahan,Komplek perumahan,Rendu Ola,"77P8+QX, Rendu Butowe, Kec. Aesesa Sel., Kabupaten Nagekeo, Nusa Tenggara Tim.","Kabupaten Nagekeo, Nusa Tenggara Tim.",NUSA TENGGARA TIMUR,,Indonesia,,,,-8.713106,121.2674095,https://maps.google.com/?cid=0x0:0xccb86131653df51b,
perumahan,Pembangunan Perumahan,BONAT,"86RM+RJ6, Tengatiba, Kec. Aesesa Sel., Kabupaten Nagekeo, Nusa Tenggara Tim.","Kabupaten Nagekeo, Nusa Tenggara Tim.",NUSA TENGGARA TIMUR,,Indonesia,,,,-8.6579568,121.2340199,https://maps.google.com/?cid=0x0:0xdfa999ee48a5e0a4,
perumahan,Komplek perumahan,NUNUBINA,"86VC+266, Tengatiba, Kec. Aesesa Sel., Kabupaten Nagekeo, Nusa Tenggara Tim.","Kabupaten Nagekeo, Nusa Tenggara Tim.",NUSA TENGGARA TIMUR,,Indonesia,,,,-8.6574609,121.2205005,https://maps.google.com/?cid=0x0:0x31dc09226cd2e220,
perumahan,perumahan,Aesesa,"C7JR+55Q, Lape, Kec. Aesesa, Kabupaten Nagekeo, Nusa Tenggara Tim.","Kabupaten Nagekeo, Nusa Tenggara Tim.",NUSA TENGGARA TIMUR,,Indonesia,,,,-8.5695358,121.2904784,https://maps.google.com/?cid=0x0:0x83e27806ffa9605c,
perumahan,Komplek perumahan,Rumah Buyung Asgara,"C7F3+J6R, Nggolo Mbay, Kec. Aesesa, Kabupaten Nagekeo, Nusa Tenggara Tim.","Kabupaten Nagekeo, Nusa Tenggara Tim.",NUSA TENGGARA TIMUR,,Indonesia,,,,-8.575687,121.253416,https://maps.google.com/?cid=0x0:0xf140cc0f14416897,
perumahan,Perhimpunan Pengembang Perumahan,Kampung adat Rendu lari,"9698+P3, Rendutenoe, Kec. Aesesa Sel., Kabupaten Nagekeo, Nusa Tenggara Tim.","Kabupaten Nagekeo, Nusa Tenggara Tim.",NUSA TENGGARA TIMUR,,Indonesia,,,,-8.6307023,121.2152458,https://maps.google.com/?cid=0x0:0x45ea1d89eee718e,
perumahan,Rumah Kayu,Rmh aklin,"867P+VG, Tengatiba, Kec. Aesesa Sel., Kabupaten Nagekeo, Nusa Tenggara Tim.","Kabupaten Nagekeo, Nusa Tenggara Tim.",NUSA TENGGARA TIMUR,,Indonesia,,,,-8.6853381,121.2363444,https://maps.google.com/?cid=0x0:0x66aef46fcff7813c,
perumahan,Komplek perumahan,Dusun Jawatiwa,"77RJ+J7, Rendu Butowe, Kec. Aesesa Sel., Kabupaten Nagekeo, Nusa Tenggara Tim.","Kabupaten Nagekeo, Nusa Tenggara Tim.",NUSA TENGGARA TIMUR,,Indonesia,,,,-8.7084205,121.2808116,https://maps.google.com/?cid=0x0:0x44d66e5f97ea643a,
perumahan,Pembangunan Perumahan,Malalado,"96XW+G5C, Dhawe, Kec. Aesesa, Kabupaten Nagekeo, Nusa Tenggara Tim.","Kabupaten Nagekeo, Nusa Tenggara Tim.",NUSA TENGGARA TIMUR,,Indonesia,,,,-8.6011839,121.2453844,https://maps.google.com/?cid=0x0:0x289d373cfd1ec947,
perumahan,Kantor Perusahaan,Tutubhada,"963F+R7, Langedhawe, Kec. Aesesa Sel., Kabupaten Nagekeo, Nusa Tenggara Tim.","Kabupaten Nagekeo, Nusa Tenggara Tim.",NUSA TENGGARA TIMUR,,Indonesia,,,,-8.6454562,121.2231382,https://maps.google.com/?cid=0x0:0x4786c2b9cac3e657,
perumahan,perumahan,Segho,"862W+97, Renduwawo, Kec. Aesesa Sel., Kabupaten Nagekeo, Nusa Tenggara Tim.","Kabupaten Nagekeo, Nusa Tenggara Tim.",NUSA TENGGARA TIMUR,,Indonesia,,,,-8.6991102,121.2457297,https://maps.google.com/?cid=0x0:0x585aaae55f28ecb9,
perumahan,Perhimpunan Pengembang Perumahan,Darmo'th,"967G+JM, Langedhawe, Kec. Aesesa Sel., Kabupaten Nagekeo, Nusa Tenggara Tim.","Kabupaten Nagekeo, Nusa Tenggara Tim.",NUSA TENGGARA TIMUR,,Indonesia,,,,-8.6359368,121.2267064,https://maps.google.com/?cid=0x0:0xd316cf8a13fcf996,
perumahan,Komplek perumahan,Kampung degho,"96JP+CV, Langedhawe, Kec. Aesesa Sel., Kabupaten Nagekeo, Nusa Tenggara Tim.","Kabupaten Nagekeo, Nusa Tenggara Tim.",NUSA TENGGARA TIMUR,,Indonesia,,,,-8.6188759,121.2372298,https://maps.google.com/?cid=0x0:0x38a7e84f87016fc2,
perumahan,Komplek perumahan,Masolewa Kompleks,"7875+P5, Ulupulu, Kec. Nangaroro, Kabupaten Nagekeo, Nusa Tenggara Tim.","Kabupaten Nagekeo, Nusa Tenggara Tim.",NUSA TENGGARA TIMUR,,Indonesia,,,,-8.7356875,121.3079375,https://maps.google.com/?cid=0x0:0xa870b7c58a8df2f,
perumahan,Gedung Apartemen,Rumah Paul Sabu,"C6GX+4WF, Jl. Kendedes, Alobuu, Nggolo Mbay, Kec. Aesesa, Kabupaten Nagekeo, Nusa Tenggara Tim.","Kabupaten Nagekeo, Nusa Tenggara Tim.",NUSA TENGGARA TIMUR,,Indonesia,,,,-8.574675,121.2492103,https://maps.google.com/?cid=0x0:0x9cf63d516f51b7b6,
perumahan,Pembangunan Perumahan,Kampung baru,"C7J4+CQF, Nggolo Mbay, Kec. Aesesa, Kabupaten Nagekeo, Nusa Tenggara Tim.","Kabupaten Nagekeo, Nusa Tenggara Tim.",NUSA TENGGARA TIMUR,,Indonesia,,,,-8.5693662,121.2567835,https://maps.google.com/?cid=0x0:0xa9b3c061684c69d6,
perumahan,perumahan,Kompleks perumahan,"65QM+6V3, Nageoga, Kec. Boawae, Kabupaten Nagekeo, Nusa Tenggara Tim.","Kabupaten Nagekeo, Nusa Tenggara Tim.",NUSA TENGGARA TIMUR,,Indonesia,82235110229.0,,,-8.7620193,121.184555,https://maps.google.com/?cid=0x0:0x98c54b65d1aaab2b,
perumahan,perumahan,Rumah Baron,"963F+7FP, Tengatiba, Kec. Aesesa Sel., Kabupaten Nagekeo, Nusa Tenggara Tim.","Kabupaten Nagekeo, Nusa Tenggara Tim.",NUSA TENGGARA TIMUR,,Indonesia,,,,-8.6467957,121.2236995,https://maps.google.com/?cid=0x0:0x9c5796d30093e77b,
perumahan,Komplek perumahan,Lowo Pebhu,"86CG+3R, Tengatiba, Kec. Aesesa Sel., Kabupaten Nagekeo, Nusa Tenggara Tim.","Kabupaten Nagekeo, Nusa Tenggara Tim.",NUSA TENGGARA TIMUR,,Indonesia,,,,-8.6797634,121.2270911,https://maps.google.com/?cid=0x0:0x5d3a695a85f20dd3,
perumahan,Kompleks Apartemen,Kelurahan Mbay 1,"9844+5R3, Ngegedhawe, Kec. Aesesa, Kabupaten Nagekeo, Nusa Tenggara Tim.","Kabupaten Nagekeo, Nusa Tenggara Tim.",NUSA TENGGARA TIMUR,,Indonesia,,,,-8.6446025,121.307043,https://maps.google.com/?cid=0x0:0x299f5895c21d0490,
perumahan,Komplek perumahan,Rumah. RIS Do,"C7P7+G2G, Danga, Kec. Aesesa, Kabupaten Nagekeo, Nusa Tenggara Tim.","Kabupaten Nagekeo, Nusa Tenggara Tim.",NUSA TENGGARA TIMUR,,Indonesia,,,,-8.5640362,121.2618163,https://maps.google.com/?cid=0x0:0xdb81940761990791,
perumahan,Komplek perumahan,Ojawaja,"C56J+MF9, RT.04/RW.Dusun II, Tedakisa, Kec. Aesesa, Kabupaten Nagekeo, Nusa Tenggara Tim.","Kabupaten Nagekeo, Nusa Tenggara Tim.",NUSA TENGGARA TIMUR,,Indonesia,,,,-8.5883495,121.1812226,https://maps.google.com/?cid=0x0:0x2ce9f9356c78acdc,
perumahan,Komplek perumahan,Yanne Rangga Sa'o,"C7G2+8W3, Nggolo Mbay, Kec. Aesesa, Kabupaten Nagekeo, Nusa Tenggara Tim.","Kabupaten Nagekeo, Nusa Tenggara Tim.",NUSA TENGGARA TIMUR,,Indonesia,,,,-8.5742279,121.2528151,https://maps.google.com/?cid=0x0:0xd73fdead800e2c5,
perumahan,perumahan,Perumnas malasera,"C765+9H, Danga, Kec. Aesesa, Kabupaten Nagekeo, Nusa Tenggara Tim.","Kabupaten Nagekeo, Nusa Tenggara Tim.",NUSA TENGGARA TIMUR,,Indonesia,,,,-8.5891135,121.2589057,https://maps.google.com/?cid=0x0:0x4083916219682b91,
perumahan,Pembangunan Perumahan,nagekeo,"C76W+5Q8, Lape, Kec. Aesesa, Kabupaten Nagekeo, Nusa Tenggara Tim.","Kabupaten Nagekeo, Nusa Tenggara Tim.",NUSA TENGGARA TIMUR,,Indonesia,,,,-8.5895963,121.2969674,https://maps.google.com/?cid=0x0:0x48198d63f32cf64,
perumahan,Pembangunan Perumahan,Cadas.,"C7F3+QR7, Danga, Kec. Aesesa, Kabupaten Nagekeo, Nusa Tenggara Tim.","Kabupaten Nagekeo, Nusa Tenggara Tim.",NUSA TENGGARA TIMUR,,Indonesia,,,,-8.5755757,121.2545413,https://maps.google.com/?cid=0x0:0x90dd39411d172dac,
