Category,Real Category,Business Name,Address,City,State,Postal Code,Country,Phone,Latitude,Longitude,Map Link
cafe,Kedai Kopi,Arvastenk cafe,"34QF+J34 Vasco Damneen, Ekam, Tomu, Teluk Bintuni Regency, West Papua","Kabupaten Teluk Bintuni, Papua Bar.",PAPUA BARAT,,Indonesia,,-1.9109991,133.1226998,https://maps.google.com/?cid=0x0:0xa6ebd0aba70dc384
cafe,cafe,Distrik Aranday,"Kabupaten Teluk Bintuni, Papua Bar.","Kabupaten Teluk Bintuni, Papua Bar.",PAPUA BARAT,,Indonesia,,-1.925379,133.229204,https://maps.google.com/?cid=0x0:0xab05e8c7d8e39b11
cafe,cafe,WARUNG AREMA,"Stengkol 3, distrik Meyado, Ekam, Tomu, Kabupaten Teluk Bintuni, Papua Bar. 98364","distrik Meyado, Ekam, Tomu, Kabupaten Teluk Bintuni",PAPUA BARAT,98364.0,Indonesia,,-1.9122117,133.1273117,https://maps.google.com/?cid=0x0:0xfd77b77e70977991
cafe,Kedai Kopi,IndCaffe,"VJV7+8F3, Sp V. Manimery/ Argo Sigemeray, Distrik Bintuni, Kabupaten Teluk Bintuni, Papua Bar. 98364","Sp V. Manimery/ Argo Sigemeray, Distrik Bintuni, Kabupaten Teluk Bintuni",PAPUA BARAT,98364.0,Indonesia,,-2.1067275,133.6136765,https://maps.google.com/?cid=0x0:0x72add400e5e4b85d
cafe,Indonesia,Warung Rizky,"Kampung Wesiri, Km 6, Distrik Bintuni, Kabupaten Teluk Bintuni, Papua Bar. 98364","Km 6, Distrik Bintuni, Kabupaten Teluk Bintuni",PAPUA BARAT,98364.0,Indonesia,,-2.0604501,133.4644802,https://maps.google.com/?cid=0x0:0x8901f778886d7990
cafe,Brunch,RM.bosowa,"34QF+G82, Ekam, Tomu, Kabupaten Teluk Bintuni, Papua Bar. 98364","Ekam, Tomu, Kabupaten Teluk Bintuni",PAPUA BARAT,98364.0,Indonesia,,-1.911225,133.123254,https://maps.google.com/?cid=0x0:0xd2e17b91c3c2edb2
cafe,Kedai Kopi,Cafe Candu,"FC4W+6Q5, Nusei, Babo, Kabupaten Teluk Bintuni, Papua Bar. 98363","Nusei, Babo, Kabupaten Teluk Bintuni",PAPUA BARAT,98363.0,Indonesia,,-2.5430787,133.4472981,https://maps.google.com/?cid=0x0:0x30a3023fb4861441
cafe,Kedai Kopi,FD Billiard  Coffeeshop,"Jln. Trans Manokwari, Ransiki Kota, Ransiki, Teluk Bintuni Regency, West Papua 98355","Ransiki Kota, Ransiki, Teluk Bintuni Regency",PAPUA BARAT,98355.0,Indonesia,81240269469.0,-1.5010586,134.1714819,https://maps.google.com/?cid=0x0:0xa3d36becfd448018
cafe,China,Kedai Joy,"Jln. Km7 Samping Dinas Pendidikan, Wesiri, Bintuni, Teluk Bintuni Regency, West Papua 98364","Wesiri, Bintuni, Teluk Bintuni Regency",PAPUA BARAT,98364.0,Indonesia,82399130385.0,-2.0785516,133.4831511,https://maps.google.com/?cid=0x0:0x8778a17471559227
cafe,Kedai Kopi,Arvastenk cafe,"34QF+J34 Vasco Damneen, Ekam, Tomu, Teluk Bintuni Regency, West Papua","Kabupaten Teluk Bintuni, Papua Bar.",PAPUA BARAT,,Indonesia,,-1.9109991,133.1226998,https://maps.google.com/?cid=0x0:0xa6ebd0aba70dc384
cafe,cafe,Aroba,"Distrik Aroba, Kabupaten Teluk Bintuni, Papua Bar.","Kabupaten Teluk Bintuni, Papua Bar.",PAPUA BARAT,,Indonesia,,-2.7579448,133.5799151,https://maps.google.com/?cid=0x0:0xde88d08daed2fbc6
cafe,Kedai Kopi,Cafe Candu,"FC4W+6Q5, Nusei, Babo, Kabupaten Teluk Bintuni, Papua Bar. 98363","Nusei, Babo, Kabupaten Teluk Bintuni",PAPUA BARAT,98363.0,Indonesia,,-2.5430787,133.4472981,https://maps.google.com/?cid=0x0:0x30a3023fb4861441
cafe,cafe,Meubel Aroba,"Aroba, Distrik Aroba, Kabupaten Teluk Bintuni, Papua Bar. 98363","Distrik Aroba, Kabupaten Teluk Bintuni",PAPUA BARAT,98363.0,Indonesia,85925385494.0,-2.7614741,133.5748287,https://maps.google.com/?cid=0x0:0x84872fc16e9dd739
cafe,Kafe,Mangrove Family Karaoke And Cafe,"Bintuni Tim., Distrik Bintuni, Kabupaten Teluk Bintuni, Papua Bar. 98364","Distrik Bintuni, Kabupaten Teluk Bintuni",PAPUA BARAT,98364.0,Indonesia,82399466658.0,-2.1277471,133.551995,https://maps.google.com/?cid=0x0:0x70b082e76b7525d1
cafe,cafe,Distrik Aroba,"Kabupaten Teluk Bintuni, Papua Bar.","Kabupaten Teluk Bintuni, Papua Bar.",PAPUA BARAT,,Indonesia,,-2.6623708,133.4066618,https://maps.google.com/?cid=0x0:0x34e1822373826341
cafe,Komplek perumahan,Kasira,"FF82+2QG, Nusei, Distrik Aroba, Kabupaten Teluk Bintuni, Papua Bar. 98363","Nusei, Distrik Aroba, Kabupaten Teluk Bintuni",PAPUA BARAT,98363.0,Indonesia,81344553065.0,-2.534939,133.4519651,https://maps.google.com/?cid=0x0:0x6992e2868d82a97c
cafe,Kantor Perusahaan,OMK Caffe,"Jl. Pendidikan No.RT. 06, Tofoi, Kec. Sumuri, Kabupaten Teluk Bintuni, Papua Bar. 98363","Tofoi, Kec. Sumuri, Kabupaten Teluk Bintuni",PAPUA BARAT,98363.0,Indonesia,,-2.5382463,133.2536905,https://maps.google.com/?cid=0x0:0xe9ff5955fdafbcf9
cafe,Minimarket,Warung Makan,"G924+VV5, Sido Makmur, Distrik Aroba, Kabupaten Teluk Bintuni, Papua Bar. 98363","Sido Makmur, Distrik Aroba, Kabupaten Teluk Bintuni",PAPUA BARAT,98363.0,Indonesia,,-2.4982436,133.3573854,https://maps.google.com/?cid=0x0:0x75ee501bb8d696b5
cafe,Kafe,Coffee Brothers,"Maniwak, Manggurai PEMDA, Iriati, Distrik Wasior, Kabupaten Teluk Wondama, Papua Bar. 98362","Manggurai PEMDA, Iriati, Distrik Wasior, Kabupaten Teluk Wondama",PAPUA BARAT,98362.0,Indonesia,85244343890.0,-2.761305,134.5119245,https://maps.google.com/?cid=0x0:0x40dcc2c8a660e005
cafe,Pusat Perbelanjaan,Kios Bu Hajir,"G924+RRX, Kasira, Distrik Aroba, Kabupaten Teluk Bintuni, Papua Bar. 98363","Kasira, Distrik Aroba, Kabupaten Teluk Bintuni",PAPUA BARAT,98363.0,Indonesia,,-2.4983458,133.3570042,https://maps.google.com/?cid=0x0:0x33b2a453980a94b8
cafe,Restoran,Rumah Makan Babor,"IRARUTU III, RT.01/RW.02, Nusei, Babo, Kabupaten Teluk Bintuni, Papua Bar. 98364","RT.01/RW.02, Nusei, Babo, Kabupaten Teluk Bintuni",PAPUA BARAT,98364.0,Indonesia,81343003329.0,-2.5419199,133.4504804,https://maps.google.com/?cid=0x0:0x8899db8d0b95b7d
cafe,Restoran,Warung Bakso Pak Nur Babo,"Irarutu III, Babo, Kabupaten Teluk Bintuni, Papua Bar. 98363","Babo, Kabupaten Teluk Bintuni",PAPUA BARAT,98363.0,Indonesia,82238454404.0,-2.5419245,133.4507752,https://maps.google.com/?cid=0x0:0x228c6dc43a8a738
cafe,Brunch,Warung Mbak Novi,"G924+VV5, Sido Makmur, Aroba, Teluk Bintuni Regency, West Papua 98363","Sido Makmur, Aroba, Teluk Bintuni Regency",PAPUA BARAT,98363.0,Indonesia,,-2.49814,133.357486,https://maps.google.com/?cid=0x0:0x8d69c75c6bbb9f43
cafe,cafe,Babo,"Kabupaten Teluk Bintuni, Papua Bar.","Kabupaten Teluk Bintuni, Papua Bar.",PAPUA BARAT,,Indonesia,,-2.5410944,133.4455624,https://maps.google.com/?cid=0x0:0x4d33f662184232b6
cafe,Kedai Kopi,Cafe Candu,"FC4W+6Q5, Nusei, Babo, Kabupaten Teluk Bintuni, Papua Bar. 98363","Nusei, Babo, Kabupaten Teluk Bintuni",PAPUA BARAT,98363.0,Indonesia,,-2.5430787,133.4472981,https://maps.google.com/?cid=0x0:0x30a3023fb4861441
cafe,Restoran,Warung Bakso Pak Nur Babo,"Irarutu III, Babo, Kabupaten Teluk Bintuni, Papua Bar. 98363","Babo, Kabupaten Teluk Bintuni",PAPUA BARAT,98363.0,Indonesia,82238454404.0,-2.5419245,133.4507752,https://maps.google.com/?cid=0x0:0x228c6dc43a8a738
cafe,Komplek perumahan,Kasira,"FF82+2QG, Nusei, Distrik Aroba, Kabupaten Teluk Bintuni, Papua Bar. 98363","Nusei, Distrik Aroba, Kabupaten Teluk Bintuni",PAPUA BARAT,98363.0,Indonesia,81344553065.0,-2.534939,133.4519651,https://maps.google.com/?cid=0x0:0x6992e2868d82a97c
cafe,Indonesia,Lapak Bubur Ayam Chef Bilal,"FF52+F2R, Nusei, Babo, Kabupaten Teluk Bintuni, Papua Bar. 98363","Nusei, Babo, Kabupaten Teluk Bintuni",PAPUA BARAT,98363.0,Indonesia,81347420739.0,-2.5412932,133.4500293,https://maps.google.com/?cid=0x0:0xbb1612a81e1f1ab9
cafe,Restoran,Rumah Makan Babor,"IRARUTU III, RT.01/RW.02, Nusei, Babo, Kabupaten Teluk Bintuni, Papua Bar. 98364","RT.01/RW.02, Nusei, Babo, Kabupaten Teluk Bintuni",PAPUA BARAT,98364.0,Indonesia,81343003329.0,-2.5419199,133.4504804,https://maps.google.com/?cid=0x0:0x8899db8d0b95b7d
cafe,Kafe,Mangrove Family Karaoke And Cafe,"Bintuni Tim., Distrik Bintuni, Kabupaten Teluk Bintuni, Papua Bar. 98364","Distrik Bintuni, Kabupaten Teluk Bintuni",PAPUA BARAT,98364.0,Indonesia,82399466658.0,-2.1277471,133.551995,https://maps.google.com/?cid=0x0:0x70b082e76b7525d1
cafe,Minimarket,Warung Makan,"G924+VV5, Sido Makmur, Distrik Aroba, Kabupaten Teluk Bintuni, Papua Bar. 98363","Sido Makmur, Distrik Aroba, Kabupaten Teluk Bintuni",PAPUA BARAT,98363.0,Indonesia,,-2.4982436,133.3573854,https://maps.google.com/?cid=0x0:0x75ee501bb8d696b5
cafe,Kantor Perusahaan,OMK Caffe,"Jl. Pendidikan No.RT. 06, Tofoi, Kec. Sumuri, Kabupaten Teluk Bintuni, Papua Bar. 98363","Tofoi, Kec. Sumuri, Kabupaten Teluk Bintuni",PAPUA BARAT,98363.0,Indonesia,,-2.5382463,133.2536905,https://maps.google.com/?cid=0x0:0xe9ff5955fdafbcf9
cafe,Kedai Kopi,Babatri Cafe - Coffee and Eatery,"Jl. Mawar II No.6 5, RT.5/RW.13, Bintaro, Kec. Pesanggrahan, Kota Tangerang Selatan, Daerah Khusus Ibukota Jakarta 12330","RT.5/RW.13, Bintaro, Kec. Pesanggrahan, Kota Tangerang Selatan",PAPUA BARAT,12330.0,Indonesia,,-6.2866142,106.7642864,https://maps.google.com/?cid=0x0:0x796398d6e169ae03
cafe,Kedai Kopi,Babah Koffie by Kawisari,"Jl. Kali Besar Barat No.28, RT.7/RW.3, Roa Malaka, Kec. Tambora, Kota Jakarta Barat, Daerah Khusus Ibukota Jakarta 11230","RT.7/RW.3, Roa Malaka, Kec. Tambora, Kota Jakarta Barat",PAPUA BARAT,11230.0,Indonesia,8118711248.0,-6.1346673,106.8110363,https://maps.google.com/?cid=0x0:0xdcdb6a4b78a3f03c
cafe,Kedai Kopi,Babocha,"P4Q3+55W, Jalan Perumahan Griya, Sei Raya, Kec. Cikarang Bar., Kabupaten Karimun, Kepulauan Riau","Kabupaten Karimun, Kepulauan Riau",PAPUA BARAT,,Indonesia,87764015027.0,-6.2620031,107.1029476,https://maps.google.com/?cid=0x0:0x1cdd93fe269c4d94
cafe,Otoritas Pelabuhan,Pasar Rakyat Babo,"FC6V+7RV, Modan, Nusei, Babo, Kabupaten Teluk Bintuni, Papua Bar. 98363","Modan, Nusei, Babo, Kabupaten Teluk Bintuni",PAPUA BARAT,98363.0,Indonesia,,-2.5392709,133.4445525,https://maps.google.com/?cid=0x0:0xbe1e68c434b88899
cafe,cafe,Bintuni,"Bintuni Tim., Distrik Bintuni, Kabupaten Teluk Bintuni, Papua Bar.","Kabupaten Teluk Bintuni, Papua Bar.",PAPUA BARAT,,Indonesia,,-2.116667,133.533333,https://maps.google.com/?cid=0x0:0xb2abe6f637dc67dd
cafe,Kedai Kopi,INGAT KOPI BINTUNI,"Samping Penginapan Kabira, Ingat Kopi Bintuni, Jl Raya, Bintuni Tim., Distrik Bintuni, Kabupaten Teluk Bintuni, Papua Bar. 98364","Ingat Kopi Bintuni, Jl Raya, Bintuni Tim., Distrik Bintuni, Kabupaten Teluk Bintuni",PAPUA BARAT,98364.0,Indonesia,85287200241.0,-2.1179985,133.5336587,https://maps.google.com/?cid=0x0:0xb6794b3d5220f992
cafe,Kafe,D'meong Coffee,"VGHQ+V3G, Unnamed Road, Bintuni Tim., Distrik Bintuni, Kabupaten Teluk Bintuni, Papua Bar. 98364","Unnamed Road, Bintuni Tim., Distrik Bintuni, Kabupaten Teluk Bintuni",PAPUA BARAT,98364.0,Indonesia,81246969627.0,-2.1203214,133.5377157,https://maps.google.com/?cid=0x0:0xff6cb93e8ca143e7
cafe,Kedai Kopi,IndCaffe,"VJV7+8F3, Sp V. Manimery/ Argo Sigemeray, Distrik Bintuni, Kabupaten Teluk Bintuni, Papua Bar. 98364","Sp V. Manimery/ Argo Sigemeray, Distrik Bintuni, Kabupaten Teluk Bintuni",PAPUA BARAT,98364.0,Indonesia,,-2.1067275,133.6136765,https://maps.google.com/?cid=0x0:0x72add400e5e4b85d
cafe,Kedai Kopi,Coffee Bos'Q,"Bintuni Bar., Distrik Bintuni, Kabupaten Teluk Bintuni, Papua Bar. 98364","Distrik Bintuni, Kabupaten Teluk Bintuni",PAPUA BARAT,98364.0,Indonesia,82234742726.0,-2.1136829,133.5289437,https://maps.google.com/?cid=0x0:0xd9ea3c488540c9ec
cafe,Kedai Kopi,Cafe  Resto Bintuni Business Center (BBC),Jln. Raya SP 5,"Kabupaten Teluk Bintuni, Papua Bar.",PAPUA BARAT,,Indonesia,,-2.1134603,133.615269,https://maps.google.com/?cid=0x0:0xe2e5143ddff55b23
cafe,Kedai Kopi,SEJALUR KOPI BINTUNI,"Bintuni Bar., Distrik Bintuni, Kabupaten Teluk Bintuni, Papua Bar. 98364","Distrik Bintuni, Kabupaten Teluk Bintuni",PAPUA BARAT,98364.0,Indonesia,,-2.1067688,133.522645,https://maps.google.com/?cid=0x0:0x95343a9047189c9f
cafe,Kafe,Keday MJM,"VGGR+XGG, Unnamed Road, Bintuni Tim., Distrik Bintuni, Kabupaten Teluk Bintuni, Papua Bar. 98364","Unnamed Road, Bintuni Tim., Distrik Bintuni, Kabupaten Teluk Bintuni",PAPUA BARAT,98364.0,Indonesia,82398401221.0,-2.1225684,133.5413437,https://maps.google.com/?cid=0x0:0x66762cea44710e2b
cafe,Kafe,Mangrove,"Jln Raya, Bintuni Tim., Distrik Bintuni, Kabupaten Teluk Bintuni, Papua Bar. 98364","Bintuni Tim., Distrik Bintuni, Kabupaten Teluk Bintuni",PAPUA BARAT,98364.0,Indonesia,81389162929.0,-2.116667,133.533333,https://maps.google.com/?cid=0x0:0xaf47491924b5dcfd
cafe,Es Krim,Jaslyn Ice Cream,"Jl. Raya Bintuni, RT.002/RW.002, Bintuni Tim., Distrik Bintuni, Kabupaten Teluk Bintuni, Papua Bar. 98364","RT.002/RW.002, Bintuni Tim., Distrik Bintuni, Kabupaten Teluk Bintuni",PAPUA BARAT,98364.0,Indonesia,88295130054.0,-2.116667,133.533333,https://maps.google.com/?cid=0x0:0xd17704ff25f08eaa
cafe,Kedai Kopi,Kopisenjatb,"VGHJ+XPX, Kampung nelayan, Bintuni Tim., Distrik Bintuni, Kabupaten Teluk Bintuni, Papua Bar. 98364","Kampung nelayan, Bintuni Tim., Distrik Bintuni, Kabupaten Teluk Bintuni",PAPUA BARAT,98364.0,Indonesia,82238859339.0,-2.1200104,133.531864,https://maps.google.com/?cid=0x0:0x5bd1a1813da36b15
cafe,Nasi,Warung Lamongan,"VGJM+WFP, Bintuni Tim., Distrik Bintuni, Kabupaten Teluk Bintuni, Papua Bar. 98364","Bintuni Tim., Distrik Bintuni, Kabupaten Teluk Bintuni",PAPUA BARAT,98364.0,Indonesia,,-2.1176994,133.5336893,https://maps.google.com/?cid=0x0:0x9c912e9f627146c5
cafe,China,Kedai Blessings,"Jl.Bintuni-manokwari, Bintuni Tim., Distrik Bintuni, Kabupaten Teluk Bintuni, Papua Bar.","Kabupaten Teluk Bintuni, Papua Bar.",PAPUA BARAT,,Indonesia,81343209178.0,-2.116667,133.533333,https://maps.google.com/?cid=0x0:0x8fd12e2f622f702b
cafe,Toko Roti,Roti Bakar Az Zahraa,"VGJM+VC7, Jalan Raya, Bintuni Tim., Distrik Bintuni, Kabupaten Teluk Bintuni, Papua Bar. 98364","Jalan Raya, Bintuni Tim., Distrik Bintuni, Kabupaten Teluk Bintuni",PAPUA BARAT,98364.0,Indonesia,82310172502.0,-2.1178494,133.533561,https://maps.google.com/?cid=0x0:0x5d8e359174ccd73e
cafe,cafe,Papua Bar. 98373,"Kabupaten Teluk Bintuni, Papua Bar.","Kabupaten Teluk Bintuni, Papua Bar.",PAPUA BARAT,,Indonesia,,-1.4464953,133.329466,https://maps.google.com/?cid=0x0:0xa7a537a3a20b81b4
cafe,Kafe,Kopu Kopi CafÃ© (Coffee  Eatery),"Jl. Raya Abepura, Wahno, Kec. Abepura, Kota Jayapura, Papua 99224","Wahno, Kec. Abepura, Kota Jayapura",PAPUA BARAT,99224.0,Indonesia,81263800182.0,-2.5972248,140.6796506,https://maps.google.com/?cid=0x0:0x55eedda55f616417
cafe,Toko bahan makanan,Ibiza Coffee Shop,"Holtekamp Bridge, Tobati, Distrik Jayapura Selatan, Kota Jayapura, Papua","Kota Jayapura, Papua",PAPUA BARAT,,Indonesia,,-2.5912293,140.7138469,https://maps.google.com/?cid=0x0:0xff0cb137c224cdf4
cafe,Kedai Kopi,"Big Bro  Sis"" - ""Food  Coffe""""","5322+22P, Jl. Angkasa Mulyono, Amban, Kec. Manokwari Bar., Kabupaten Manokwari, Papua Bar. 98312","Jl. Angkasa Mulyono, Amban, Kec. Manokwari Bar., Kabupaten Manokwari",PAPUA BARAT,98312.0,Indonesia,,-0.8499146,134.0500829,https://maps.google.com/?cid=0x0:0xabbedfb4a2db570d
cafe,cafe,Candra Eka Risti,"M57F+HV4, jln nunsatra, Jl. Nusantara Katapop II, Majaran, Salawati, Sorong, Papua Bar. 98451","jln nunsatra, Jl. Nusantara Katapop II, Majaran, Salawati, Sorong",PAPUA BARAT,98451.0,Indonesia,82238320365.0,-1.3361154,133.1747162,https://maps.google.com/?cid=0x0:0xbf1062e385641c3f
cafe,Kedai Kopi,Binsyo Coffee,"Jl Raya Kotaraja No.93, Wai Mhorock, Kec. Abepura, Kota Jayapura, Papua 99351","Wai Mhorock, Kec. Abepura, Kota Jayapura",PAPUA BARAT,99351.0,Indonesia,85251667890.0,-2.6054242,140.6718344,https://maps.google.com/?cid=0x0:0x4ce0f038ffa9d59e
cafe,Kedai Kopi,BUNGKOEZ JAYAPURA,"CM3M+V6G, Wahno, Kec. Abepura, Kota Jayapura, Papua","Kota Jayapura, Papua",PAPUA BARAT,,Indonesia,,-2.5953445,140.6829525,https://maps.google.com/?cid=0x0:0x5d9db7091a746303
cafe,Kedai Kopi,Rumah Makan Bersama dan MR Cafee Papua,"Sp V. Manimery/ Argo Sigemeray, Distrik Bintuni, Kabupaten Teluk Bintuni, Papua Bar.","Kabupaten Teluk Bintuni, Papua Bar.",PAPUA BARAT,,Indonesia,81355323235.0,-2.1136466,133.6151242,https://maps.google.com/?cid=0x0:0xef3ba017f79d2f81
cafe,Kedai Kopi,Z COFFEE,"42HX+V6C, Jl. Trikora Rendani, Wosi, Kec. Manokwari Bar., Kabupaten Manokwari, Papua Bar. 98312","Jl. Trikora Rendani, Wosi, Kec. Manokwari Bar., Kabupaten Manokwari",PAPUA BARAT,98312.0,Indonesia,81247192526.0,-0.8703133,134.0480103,https://maps.google.com/?cid=0x0:0x52fc52684fc7839c
cafe,Kedai Kopi,Sorong Cafe,"Sawagumu, Kec. Sorong Utara, Kota Sorong, Papua Bar.","Kota Sorong, Papua Bar.",PAPUA BARAT,,Indonesia,81248201730.0,-0.8893784,131.3128926,https://maps.google.com/?cid=0x0:0x7962c1d0ce1b0528
cafe,Kafe,Coffee Brothers,"Maniwak, Manggurai PEMDA, Iriati, Distrik Wasior, Kabupaten Teluk Wondama, Papua Bar. 98362","Manggurai PEMDA, Iriati, Distrik Wasior, Kabupaten Teluk Wondama",PAPUA BARAT,98362.0,Indonesia,85244343890.0,-2.761305,134.5119245,https://maps.google.com/?cid=0x0:0x40dcc2c8a660e005
cafe,Restoran,Yasbeer Cafe dan resto,"Engros, Kec. Abepura, Kota Jayapura, Papua","Kota Jayapura, Papua",PAPUA BARAT,,Indonesia,81248941111.0,-2.6005334,140.7153915,https://maps.google.com/?cid=0x0:0x34cbd734e60fa36b
cafe,Kedai Kopi,wabisabicoffee,"Kp. Baru, Distrik Sorong, Kota Sorong, Papua Bar. 98411","Distrik Sorong, Kota Sorong",PAPUA BARAT,98411.0,Indonesia,82137563208.0,-0.8704999,131.253128,https://maps.google.com/?cid=0x0:0xd4029d1b24ccb3b3
cafe,Kedai Kopi,Wildbean Cafe - SPBU BP TB Simatupang,"Jl. TB Simatupang No.8, Tj. Bar., Tanjung Barat, Kota Jakarta Selatan, Daerah Khusus Ibukota Jakarta 12530","Tj. Bar., Tanjung Barat, Kota Jakarta Selatan",PAPUA BARAT,12530.0,Indonesia,,-6.3040556,106.843471,https://maps.google.com/?cid=0x0:0xcb6695f278462d72
cafe,cafe,Distrik Dataran Beimes,"Kabupaten Teluk Bintuni, Papua Bar.","Kabupaten Teluk Bintuni, Papua Bar.",PAPUA BARAT,,Indonesia,,-1.6164845,133.6599628,https://maps.google.com/?cid=0x0:0x8fa53e8e503789bf
cafe,Kafe,D'meong Coffee,"VGHQ+V3G, Unnamed Road, Bintuni Tim., Distrik Bintuni, Kabupaten Teluk Bintuni, Papua Bar. 98364","Unnamed Road, Bintuni Tim., Distrik Bintuni, Kabupaten Teluk Bintuni",PAPUA BARAT,98364.0,Indonesia,81246969627.0,-2.1203214,133.5377157,https://maps.google.com/?cid=0x0:0xff6cb93e8ca143e7
cafe,Kafe,Keday MJM,"VGGR+XGG, Unnamed Road, Bintuni Tim., Distrik Bintuni, Kabupaten Teluk Bintuni, Papua Bar. 98364","Unnamed Road, Bintuni Tim., Distrik Bintuni, Kabupaten Teluk Bintuni",PAPUA BARAT,98364.0,Indonesia,82398401221.0,-2.1225684,133.5413437,https://maps.google.com/?cid=0x0:0x66762cea44710e2b
cafe,Kafe seni,ALDRI WARKOP,"Iriati, Distrik Wasior, Kabupaten Teluk Wondama, Papua Bar. 98346","Distrik Wasior, Kabupaten Teluk Wondama",PAPUA BARAT,98346.0,Indonesia,82248183514.0,-2.8551699,134.3236557,https://maps.google.com/?cid=0x0:0x6f4274922c3bfa18
cafe,Kafe,Coffee Brothers,"Maniwak, Manggurai PEMDA, Iriati, Distrik Wasior, Kabupaten Teluk Wondama, Papua Bar. 98362","Manggurai PEMDA, Iriati, Distrik Wasior, Kabupaten Teluk Wondama",PAPUA BARAT,98362.0,Indonesia,85244343890.0,-2.761305,134.5119245,https://maps.google.com/?cid=0x0:0x40dcc2c8a660e005
cafe,Kedai Kopi,Cafe Candu,"FC4W+6Q5, Nusei, Babo, Kabupaten Teluk Bintuni, Papua Bar. 98363","Nusei, Babo, Kabupaten Teluk Bintuni",PAPUA BARAT,98363.0,Indonesia,,-2.5430787,133.4472981,https://maps.google.com/?cid=0x0:0x30a3023fb4861441
cafe,Hidangan Laut,Cirita Cafe,"FP66+98R South Pacific Ocean, Bayangkara, Kota Jayapura, Papua","Kota Jayapura, Papua",PAPUA BARAT,,Indonesia,81247669213.0,-2.5390073,140.7107564,https://maps.google.com/?cid=0x0:0xed81e29a56bb51b6
cafe,Hidangan Laut,Kaita Cafe  Gallery,"Tj. Ria, Kec. Jayapura Utara, Kota Jayapura, Papua 99117","Kec. Jayapura Utara, Kota Jayapura",PAPUA BARAT,99117.0,Indonesia,82198055571.0,-2.5035506,140.7169244,https://maps.google.com/?cid=0x0:0xc4945c6f20f301b7
cafe,cafe,,,,PAPUA BARAT,,Indonesia,,,,https://maps.google.com/?cid=0x0:0xc4945c6f20f301b7u0026onu003dEs+Kacang+Merahu0026midu003d/g/11f77vtq28
cafe,cafe,,,,PAPUA BARAT,,Indonesia,,,,https://maps.google.com/?cid=0x0:0xc4945c6f20f301b7u0026onu003dIce+Thailandu0026midu003d/g/11f77vtq28
cafe,cafe,,,,PAPUA BARAT,,Indonesia,,,,https://maps.google.com/?cid=0x0:0xc4945c6f20f301b7u0026onu003dKelapa+Muda+Es+Gulmeru0026midu003d/g/11f77vtq28
cafe,cafe,,,,PAPUA BARAT,,Indonesia,,,,https://maps.google.com/?cid=0x0:0xc4945c6f20f301b7u0026onu003dMie+Cakalang+%26+Es+Thailandu0026midu003d/g/11f77vtq28
cafe,cafe,,,,PAPUA BARAT,,Indonesia,,,,https://maps.google.com/?cid=0x0:0xc4945c6f20f301b7u0026onu0026midu003d/g/11f77vtq28
cafe,Kafe seni,ALDRI WARKOP,"Iriati, Distrik Wasior, Kabupaten Teluk Wondama, Papua Bar. 98346","Distrik Wasior, Kabupaten Teluk Wondama",PAPUA BARAT,98346.0,Indonesia,82248183514.0,-2.8551699,134.3236557,https://maps.google.com/?cid=0x0:0x6f4274922c3bfa18
cafe,Kafe,Coffee Brothers,"Maniwak, Manggurai PEMDA, Iriati, Distrik Wasior, Kabupaten Teluk Wondama, Papua Bar. 98362","Manggurai PEMDA, Iriati, Distrik Wasior, Kabupaten Teluk Wondama",PAPUA BARAT,98362.0,Indonesia,85244343890.0,-2.761305,134.5119245,https://maps.google.com/?cid=0x0:0x40dcc2c8a660e005
cafe,Kedai Kopi,Cafe Candu,"FC4W+6Q5, Nusei, Babo, Kabupaten Teluk Bintuni, Papua Bar. 98363","Nusei, Babo, Kabupaten Teluk Bintuni",PAPUA BARAT,98363.0,Indonesia,,-2.5430787,133.4472981,https://maps.google.com/?cid=0x0:0x30a3023fb4861441
cafe,Kedai Kopi,Auno Kopi,"VGRF+6P5 Depan Toko Babo, Bintuni Bar., Distrik Bintuni, Kabupaten Teluk Bintuni, Papua Bar. 98141","Bintuni Bar., Distrik Bintuni, Kabupaten Teluk Bintuni",PAPUA BARAT,98141.0,Indonesia,82242813234.0,-2.1094867,133.5243588,https://maps.google.com/?cid=0x0:0x33752ea0e091e912
cafe,cafe,Papua Bar. 98365,"Kabupaten Teluk Bintuni, Papua Bar.","Kabupaten Teluk Bintuni, Papua Bar.",PAPUA BARAT,,Indonesia,,-1.9250686,132.7076107,https://maps.google.com/?cid=0x0:0xe2813bacbf5a0787
cafe,Kafe,Mangrove Family Karaoke And Cafe,"Bintuni Tim., Distrik Bintuni, Kabupaten Teluk Bintuni, Papua Bar. 98364","Distrik Bintuni, Kabupaten Teluk Bintuni",PAPUA BARAT,98364.0,Indonesia,82399466658.0,-2.1277471,133.551995,https://maps.google.com/?cid=0x0:0x70b082e76b7525d1
cafe,Pembangunan Perumahan,Kantor Distrik Kamundan,"QM3F+G59, Kalitami II, Komundan, Kabupaten Teluk Bintuni, Papua Bar. 98365","Kalitami II, Komundan, Kabupaten Teluk Bintuni",PAPUA BARAT,98365.0,Indonesia,,-2.246217,132.672974,https://maps.google.com/?cid=0x0:0xeca178e6d96806f0
cafe,cafe,Papua Bar. 98363,"Kabupaten Teluk Bintuni, Papua Bar.","Kabupaten Teluk Bintuni, Papua Bar.",PAPUA BARAT,,Indonesia,,-2.6488329,133.7142484,https://maps.google.com/?cid=0x0:0x1d8cc8ce6f581e70
cafe,Tujuan Wisata,Wondama,"48VF+WFJ, Iriati, Kuri Wamesa, Kabupaten Teluk Wondama, Papua Bar.","Kabupaten Teluk Wondama, Papua Bar.",PAPUA BARAT,,Indonesia,85319092604.0,-2.8551699,134.3236557,https://maps.google.com/?cid=0x0:0x8ce6de66c8bd402f
cafe,Kafe,Coffee Brothers,"Maniwak, Manggurai PEMDA, Iriati, Distrik Wasior, Kabupaten Teluk Wondama, Papua Bar. 98362","Manggurai PEMDA, Iriati, Distrik Wasior, Kabupaten Teluk Wondama",PAPUA BARAT,98362.0,Indonesia,85244343890.0,-2.761305,134.5119245,https://maps.google.com/?cid=0x0:0x40dcc2c8a660e005
cafe,cafe,Distrik Manimeri,"Kabupaten Teluk Bintuni, Papua Bar.","Kabupaten Teluk Bintuni, Papua Bar.",PAPUA BARAT,,Indonesia,,-2.0348077,133.7298305,https://maps.google.com/?cid=0x0:0xfcc9735ace17ac7
cafe,Kafe,Ayam Kampung Bintuni d'cafe  resto,"WMFM+2XF, Jl. Manokwari - Bintuni, Waraitama, Distrik Manimeri, Kabupaten Teluk Bintuni, Papua Bar. 98364","Jl. Manokwari - Bintuni, Waraitama, Distrik Manimeri, Kabupaten Teluk Bintuni",PAPUA BARAT,98364.0,Indonesia,82191584657.0,-2.0774299,133.6849179,https://maps.google.com/?cid=0x0:0x810d24da39b58501
cafe,Kedai Kopi,IndCaffe,"VJV7+8F3, Sp V. Manimery/ Argo Sigemeray, Distrik Bintuni, Kabupaten Teluk Bintuni, Papua Bar. 98364","Sp V. Manimery/ Argo Sigemeray, Distrik Bintuni, Kabupaten Teluk Bintuni",PAPUA BARAT,98364.0,Indonesia,,-2.1067275,133.6136765,https://maps.google.com/?cid=0x0:0x72add400e5e4b85d
cafe,Kedai Kopi,Cafe  Resto Bintuni Business Center (BBC),Jln. Raya SP 5,"Kabupaten Teluk Bintuni, Papua Bar.",PAPUA BARAT,,Indonesia,,-2.1134603,133.615269,https://maps.google.com/?cid=0x0:0xe2e5143ddff55b23
cafe,Kedai Kopi,Mirabow Coffee Shop,"VJM6+RHV, Jl. Manokwari - Bintuni, Sp V. Manimery/ Argo Sigemeray, Distrik Bintuni, Kabupaten Teluk Bintuni, Papua Bar. 98364","Jl. Manokwari - Bintuni, Sp V. Manimery/ Argo Sigemeray, Distrik Bintuni, Kabupaten Teluk Bintuni",PAPUA BARAT,98364.0,Indonesia,,-2.1153999,133.6114103,https://maps.google.com/?cid=0x0:0x4ea1d4e40505767
cafe,Restoran,DEPOT AMORA,"WM78+79V, Banjar Ausoy (Sp IV), Distrik Manimeri, Kabupaten Teluk Bintuni, Papua Bar. 98364","Banjar Ausoy (Sp IV), Distrik Manimeri, Kabupaten Teluk Bintuni",PAPUA BARAT,98364.0,Indonesia,,-2.0867648,133.6659162,https://maps.google.com/?cid=0x0:0xb055930a0bae5985
cafe,Kafe,Mangrove Family Karaoke And Cafe,"Bintuni Tim., Distrik Bintuni, Kabupaten Teluk Bintuni, Papua Bar. 98364","Distrik Bintuni, Kabupaten Teluk Bintuni",PAPUA BARAT,98364.0,Indonesia,82399466658.0,-2.1277471,133.551995,https://maps.google.com/?cid=0x0:0x70b082e76b7525d1
cafe,Brunch,Saung 88,"Jalan Poros Irigasi Jalur 3, Waraitama, Distrik Manimeri, Kabupaten Teluk Bintuni, Papua Bar. 98364","Waraitama, Distrik Manimeri, Kabupaten Teluk Bintuni",PAPUA BARAT,98364.0,Indonesia,82238200258.0,-2.0826357,133.6837728,https://maps.google.com/?cid=0x0:0xb7d4883d474815b2
cafe,Indonesia,Cafe  Resto Makkareso,"VGMJ+PHJ, Bintuni Tim., Distrik Bintuni, Kabupaten Teluk Bintuni, Papua Bar. 98364","Bintuni Tim., Distrik Bintuni, Kabupaten Teluk Bintuni",PAPUA BARAT,98364.0,Indonesia,82343582016.0,-2.11567,133.5313977,https://maps.google.com/?cid=0x0:0xf12c2c81c9f633fe
cafe,Kafe,D'meong Coffee,"VGHQ+V3G, Unnamed Road, Bintuni Tim., Distrik Bintuni, Kabupaten Teluk Bintuni, Papua Bar. 98364","Unnamed Road, Bintuni Tim., Distrik Bintuni, Kabupaten Teluk Bintuni",PAPUA BARAT,98364.0,Indonesia,81246969627.0,-2.1203214,133.5377157,https://maps.google.com/?cid=0x0:0xff6cb93e8ca143e7
cafe,Dapur Umum,Wr. Nasi Merah Sp 3,"XP8F+2CV, Jl. Manokwari - Bintuni, Bumi Saniari, Distrik Manimeri, Kabupaten Teluk Bintuni, Papua Bar. 98364","Jl. Manokwari - Bintuni, Bumi Saniari, Distrik Manimeri, Kabupaten Teluk Bintuni",PAPUA BARAT,98364.0,Indonesia,,-2.034642,133.7236145,https://maps.google.com/?cid=0x0:0xe277faba90dbfd3a
cafe,Kafe,Keday MJM,"VGGR+XGG, Unnamed Road, Bintuni Tim., Distrik Bintuni, Kabupaten Teluk Bintuni, Papua Bar. 98364","Unnamed Road, Bintuni Tim., Distrik Bintuni, Kabupaten Teluk Bintuni",PAPUA BARAT,98364.0,Indonesia,82398401221.0,-2.1225684,133.5413437,https://maps.google.com/?cid=0x0:0x66762cea44710e2b
cafe,Kedai Kopi,INGAT KOPI BINTUNI,"Samping Penginapan Kabira, Ingat Kopi Bintuni, Jl Raya, Bintuni Tim., Distrik Bintuni, Kabupaten Teluk Bintuni, Papua Bar. 98364","Ingat Kopi Bintuni, Jl Raya, Bintuni Tim., Distrik Bintuni, Kabupaten Teluk Bintuni",PAPUA BARAT,98364.0,Indonesia,85287200241.0,-2.1179985,133.5336587,https://maps.google.com/?cid=0x0:0xb6794b3d5220f992
cafe,Brunch,Rumah makan Tibers,"Jl. Manokwari - Bintuni, Bumi Saniari, Distrik Manimeri, Kabupaten Teluk Bintuni, Papua Bar. 98364","Bumi Saniari, Distrik Manimeri, Kabupaten Teluk Bintuni",PAPUA BARAT,98364.0,Indonesia,81343190200.0,-2.0351278,133.7224246,https://maps.google.com/?cid=0x0:0x19faa27479241880
cafe,Kedai Kopi,Timur Madju - Kopitiam,"Fresh Market Emerald Bintaro, Pintu Utara, PE-KC01, Kota Tangerang Selatan, Banten 15227","Pintu Utara, PE-KC01, Kota Tangerang Selatan",PAPUA BARAT,15227.0,Indonesia,81617468280.0,-6.2746825,106.6999341,https://maps.google.com/?cid=0x0:0xc144ca3722db6f72
cafe,Kafe,Masagi Koffee @Batubata,"Jl. Cilenggang 2 No.6, Cilenggang, Kec. Serpong, Kota Tangerang Selatan, Banten 15310","Cilenggang, Kec. Serpong, Kota Tangerang Selatan",PAPUA BARAT,15310.0,Indonesia,82295298511.0,-6.304247,106.6662279,https://maps.google.com/?cid=0x0:0x339c056dd7a145b6
cafe,Kedai Kopi,Cafe Azah,"Jalan raya, Bintuni Tim., Distrik Bintuni, Kabupaten Teluk Bintuni, Papua Bar. 93864","Bintuni Tim., Distrik Bintuni, Kabupaten Teluk Bintuni",PAPUA BARAT,93864.0,Indonesia,81341196633.0,-2.1255859,133.5479876,https://maps.google.com/?cid=0x0:0x61879265a93f5191
cafe,Kedai Kopi,Mata Kopi Coffee Shop,"Ps. Modern Bintaro, Blok RA 25 sek.7, Pd. Jaya, Kec. Pd. Aren, Kota Tangerang Selatan, Banten 15220","Blok RA 25 sek.7, Pd. Jaya, Kec. Pd. Aren, Kota Tangerang Selatan",PAPUA BARAT,15220.0,Indonesia,217458100.0,-6.280068,106.7192924,https://maps.google.com/?cid=0x0:0x45fc3704a3ff72f3
cafe,Kedai Kopi,IndCaffe,"VJV7+8F3, Sp V. Manimery/ Argo Sigemeray, Distrik Bintuni, Kabupaten Teluk Bintuni, Papua Bar. 98364","Sp V. Manimery/ Argo Sigemeray, Distrik Bintuni, Kabupaten Teluk Bintuni",PAPUA BARAT,98364.0,Indonesia,,-2.1067275,133.6136765,https://maps.google.com/?cid=0x0:0x72add400e5e4b85d
cafe,Kedai Kopi,Rumah Makan Bersama dan MR Cafee Papua,"Sp V. Manimery/ Argo Sigemeray, Distrik Bintuni, Kabupaten Teluk Bintuni, Papua Bar.","Kabupaten Teluk Bintuni, Papua Bar.",PAPUA BARAT,,Indonesia,81355323235.0,-2.1136466,133.6151242,https://maps.google.com/?cid=0x0:0xef3ba017f79d2f81
cafe,Restoran,Benton Junction,"Jl. Boulevard Palem Raya No. 38, Lippo Karawaci 1200, Curug, Neglasari, Kelapa Dua, Klp. Dua, Kec. Klp. Dua, Kabupaten Tangerang, Banten 15810","Lippo Karawaci 1200, Curug, Neglasari, Kelapa Dua, Klp. Dua, Kec. Klp. Dua, Kabupaten Tangerang",PAPUA BARAT,15810.0,Indonesia,215471935.0,-6.2286636,106.6091349,https://maps.google.com/?cid=0x0:0xb5120c674a188a23
cafe,Kedai Kopi,Mokopi Metland Puri,"Jl. Puri Utama, RT.004/RW.008, Petir, Kec. Cipondoh, Kota Tangerang, Banten 15147","RT.004/RW.008, Petir, Kec. Cipondoh, Kota Tangerang",PAPUA BARAT,15147.0,Indonesia,8558971337.0,-6.1941805,106.7094262,https://maps.google.com/?cid=0x0:0xd5453c406efa679a
cafe,Kedai Kopi,TMK Shisha Coffee at New Permata Culinary,"Villa permata sports club, Binong, Kec. Curug, Kabupaten Tangerang, Banten 15810","Binong, Kec. Curug, Kabupaten Tangerang",PAPUA BARAT,15810.0,Indonesia,81294634599.0,-6.2237451,106.5903353,https://maps.google.com/?cid=0x0:0x2cbac7b8a45f3c7a
cafe,Kafe,Keday MJM,"VGGR+XGG, Unnamed Road, Bintuni Tim., Distrik Bintuni, Kabupaten Teluk Bintuni, Papua Bar. 98364","Unnamed Road, Bintuni Tim., Distrik Bintuni, Kabupaten Teluk Bintuni",PAPUA BARAT,98364.0,Indonesia,82398401221.0,-2.1225684,133.5413437,https://maps.google.com/?cid=0x0:0x66762cea44710e2b
cafe,Kedai Kopi,Maison Kurashi,"Jl. H. Nawi Raya No.52, Gandaria Sel., Kec. Cilandak, Kota Jakarta Selatan, Daerah Khusus Ibukota Jakarta 12420","Gandaria Sel., Kec. Cilandak, Kota Jakarta Selatan",PAPUA BARAT,12420.0,Indonesia,881023099583.0,-6.2640441,106.7920182,https://maps.google.com/?cid=0x0:0xf9b3f8621dab35cb
cafe,Kafe,Harmony Square Coffee Shop,"Jl. Hayam Wuruk No.36 37, Kb. Klp., Kecamatan Gambir, Kota Jakarta Pusat, Daerah Khusus Ibukota Jakarta 10120","Kb. Klp., Kecamatan Gambir, Kota Jakarta Pusat",PAPUA BARAT,10120.0,Indonesia,213453777.0,-6.1603243,106.8193746,https://maps.google.com/?cid=0x0:0xc4c2ebc084b513ac
cafe,Indonesia,Hutan Kota by Plataran,"Jl. Jenderal Sudirman No.54-55, RT.1/RW.3, Gelora, Kecamatan Tanah Abang, Kota Jakarta Pusat, Daerah Khusus Ibukota Jakarta 10270","RT.1/RW.3, Gelora, Kecamatan Tanah Abang, Kota Jakarta Pusat",PAPUA BARAT,10270.0,Indonesia,2122531199.0,-6.2223165,106.8065261,https://maps.google.com/?cid=0x0:0x1484fba81f47e6d
cafe,Lounge,Catappa Restaurant,"Jl. H Benyamin Sueb No.Kav B6, Superblok Mega, Kec. Kemayoran, JAKARTA, Daerah Khusus Ibukota Jakarta 10610","Superblok Mega, Kec. Kemayoran, JAKARTA",PAPUA BARAT,10610.0,Indonesia,87804141988.0,-6.1291301,106.8460894,https://maps.google.com/?cid=0x0:0x292f88cb2e65e254
cafe,Kedai Kopi,Timur Madju - Kopitiam,"Fresh Market Emerald Bintaro, Pintu Utara, PE-KC01, Kota Tangerang Selatan, Banten 15227","Pintu Utara, PE-KC01, Kota Tangerang Selatan",PAPUA BARAT,15227.0,Indonesia,81617468280.0,-6.2746825,106.6999341,https://maps.google.com/?cid=0x0:0xc144ca3722db6f72
cafe,Kedai Hidangan Penutup,Maru Little Cafe,"Pasaraya Blok M, Jl. Melawai 3 Gedung A , lantai GF, Melawai, Kec. Kby. Baru, Kota Jakarta Selatan, Daerah Khusus Ibukota Jakarta 12160","Jl. Melawai 3 Gedung A , lantai GF, Melawai, Kec. Kby. Baru, Kota Jakarta Selatan",PAPUA BARAT,12160.0,Indonesia,,-6.2438469,106.8031567,https://maps.google.com/?cid=0x0:0x13ebbfab9b5663c1
cafe,Indonesia,Strangers' Reunion Coffee Bintaro,"Jl Kasuari Raya HD 8A no 23, Bintaro Sektor 9, Pd. Pucung, Kec. Pd. Aren, Kota Tangerang Selatan, Banten 15229","Bintaro Sektor 9, Pd. Pucung, Kec. Pd. Aren, Kota Tangerang Selatan",PAPUA BARAT,15229.0,Indonesia,85173338838.0,-6.2771276,106.7069734,https://maps.google.com/?cid=0x0:0xfca67a64fb15d0b5
cafe,Kedai Kopi,Tanatap Coffee Meruya,"Blok 30, Jl. Jalur 20 No.19, Meruya Utara, Kec. Kembangan, Kota Jakarta Barat, Daerah Khusus Ibukota Jakarta 11620","Jl. Jalur 20 No.19, Meruya Utara, Kec. Kembangan, Kota Jakarta Barat",PAPUA BARAT,11620.0,Indonesia,81292632172.0,-6.1991305,106.727403,https://maps.google.com/?cid=0x0:0xb796929928581e6b
cafe,Kafe,Keday MJM,"VGGR+XGG, Unnamed Road, Bintuni Tim., Distrik Bintuni, Kabupaten Teluk Bintuni, Papua Bar. 98364","Unnamed Road, Bintuni Tim., Distrik Bintuni, Kabupaten Teluk Bintuni",PAPUA BARAT,98364.0,Indonesia,82398401221.0,-2.1225684,133.5413437,https://maps.google.com/?cid=0x0:0x66762cea44710e2b
cafe,Toko Roti,Maru (Gabin Fla),"Fresh Market Emerald Bintaro, Parigi, Kec. Pd. Aren, Kota Tangerang Selatan, Banten 15227","Parigi, Kec. Pd. Aren, Kota Tangerang Selatan",PAPUA BARAT,15227.0,Indonesia,,-6.275311,106.6999543,https://maps.google.com/?cid=0x0:0xd7c8d3588f1779be
cafe,Kedai Kopi,Tanatap Coffee Ampera,"Jl. Ampera Raya No.129A, Ragunan, Ps. Minggu, Kota Jakarta Selatan, Daerah Khusus Ibukota Jakarta 12560","Ragunan, Ps. Minggu, Kota Jakarta Selatan",PAPUA BARAT,12560.0,Indonesia,81274194789.0,-6.2808339,106.8203932,https://maps.google.com/?cid=0x0:0xbd19ec7c4e3538b8
cafe,Kafe,D'meong Coffee,"VGHQ+V3G, Unnamed Road, Bintuni Tim., Distrik Bintuni, Kabupaten Teluk Bintuni, Papua Bar. 98364","Unnamed Road, Bintuni Tim., Distrik Bintuni, Kabupaten Teluk Bintuni",PAPUA BARAT,98364.0,Indonesia,81246969627.0,-2.1203214,133.5377157,https://maps.google.com/?cid=0x0:0xff6cb93e8ca143e7
cafe,Kafe,Mangrove Family Karaoke And Cafe,"Bintuni Tim., Distrik Bintuni, Kabupaten Teluk Bintuni, Papua Bar. 98364","Distrik Bintuni, Kabupaten Teluk Bintuni",PAPUA BARAT,98364.0,Indonesia,82399466658.0,-2.1277471,133.551995,https://maps.google.com/?cid=0x0:0x70b082e76b7525d1
cafe,Restoran,Kabupaten wasior,"M57F+HV4, Morombuy, Merdey, Kabupaten Teluk Bintuni, Papua Bar.","Kabupaten Teluk Bintuni, Papua Bar.",PAPUA BARAT,,Indonesia,,-1.3361154,133.1747162,https://maps.google.com/?cid=0x0:0x5c8a1dc8576d6163
cafe,Minimarket,Fresh Market Emerald Bintaro,"Fresh Market Emerald Bintaro, Pintu Selatan Blok PE / KA-01, RW.1, Parigi, Pondok Aren, South Tangerang City, Banten 15227","Pintu Selatan Blok PE / KA-01, RW.1, Parigi, Pondok Aren, South Tangerang City",PAPUA BARAT,15227.0,Indonesia,,-6.2753483,106.6999926,https://maps.google.com/?cid=0x0:0x767ba9acbc4a8453
cafe,Makanan Kecil,"Little Amsterdam, Fresh Market Emerald Bintaro","Fresh Market Emerald Bintaro Blok KI-15 jalan cbd emarald Ce/D-08, Jl. Boulevard Bintaro Jaya, Parigi, Pondok Aren, South Tangerang City, Banten","Kota Tangerang Selatan, Banten",PAPUA BARAT,,Indonesia,,-6.27535,106.7003211,https://maps.google.com/?cid=0x0:0x3bce30ab936e82c8
cafe,cafe,Merdey,"Kabupaten Teluk Bintuni, Papua Bar.","Kabupaten Teluk Bintuni, Papua Bar.",PAPUA BARAT,,Indonesia,,-1.4189158,133.2908233,https://maps.google.com/?cid=0x0:0x7183c941829ec812
cafe,Kedai Kopi,Kopi Lokali,"Jl. H. Sarmah No.25, Parigi, Kec. Pd. Aren, Kota Tangerang Selatan, Banten 15227","Parigi, Kec. Pd. Aren, Kota Tangerang Selatan",PAPUA BARAT,15227.0,Indonesia,8170041266.0,-6.2752734,106.7004368,https://maps.google.com/?cid=0x0:0x55a2acb6746c05b8
cafe,Kafe,Mangrove Family Karaoke And Cafe,"Bintuni Tim., Distrik Bintuni, Kabupaten Teluk Bintuni, Papua Bar. 98364","Distrik Bintuni, Kabupaten Teluk Bintuni",PAPUA BARAT,98364.0,Indonesia,82399466658.0,-2.1277471,133.551995,https://maps.google.com/?cid=0x0:0x70b082e76b7525d1
cafe,Kafe,King Karaoke Billiard,"VH92+V27, Unnamed Road, East Bintuni, Bintuni, Teluk Bintuni Regency, West Papua 98364","Unnamed Road, East Bintuni, Bintuni, Teluk Bintuni Regency",PAPUA BARAT,98364.0,Indonesia,85398595972.0,-2.1303378,133.5500401,https://maps.google.com/?cid=0x0:0xda0766908faea530
cafe,cafe,,,,PAPUA BARAT,,Indonesia,,,,https://maps.google.com/?cid=0x0:0x70b082e76b7525d1u0026onu003dJuice+Alpukatu0026midu003d/g/11hbgj5g7x
cafe,cafe,,,,PAPUA BARAT,,Indonesia,,,,https://maps.google.com/?cid=0x0:0x70b082e76b7525d1u0026onu003dAyam+Gorengu0026midu003d/g/11hbgj5g7x
cafe,cafe,,,,PAPUA BARAT,,Indonesia,,,,https://maps.google.com/?cid=0x0:0x70b082e76b7525d1u0026onu003dAvocado+Juiceu0026midu003d/g/11hbgj5g7x
cafe,cafe,,,,PAPUA BARAT,,Indonesia,,,,https://maps.google.com/?cid=0x0:0x70b082e76b7525d1u0026onu003dMie+Rebusu0026midu003d/g/11hbgj5g7x
cafe,cafe,,,,PAPUA BARAT,,Indonesia,,,,https://maps.google.com/?cid=0x0:0x70b082e76b7525d1u0026onu003dUdnag+Goreng+Tepungu0026midu003d/g/11hbgj5g7x
cafe,cafe,,,,PAPUA BARAT,,Indonesia,,,,https://maps.google.com/?cid=0x0:0x70b082e76b7525d1u0026onu003dAyam+Gepreku0026midu003d/g/11hbgj5g7x
cafe,cafe,,,,PAPUA BARAT,,Indonesia,,,,https://maps.google.com/?cid=0x0:0x70b082e76b7525d1u0026onu003dCapcay+Kuahu0026midu003d/g/11hbgj5g7x
cafe,cafe,,,,PAPUA BARAT,,Indonesia,,,,https://maps.google.com/?cid=0x0:0x70b082e76b7525d1u0026onu003dAyam+Kampung+Gorengu0026midu003d/g/11hbgj5g7x
cafe,cafe,,,,PAPUA BARAT,,Indonesia,,,,https://maps.google.com/?cid=0x0:0x70b082e76b7525d1u0026onu003dPizza+Seafoodu0026midu003d/g/11hbgj5g7x
cafe,cafe,,,,PAPUA BARAT,,Indonesia,,,,https://maps.google.com/?cid=0x0:0x70b082e76b7525d1u0026onu003dNasi+Goreng+Ayamu0026midu003d/g/11hbgj5g7x
cafe,cafe,,,,PAPUA BARAT,,Indonesia,,,,https://maps.google.com/?cid=0x0:0x70b082e76b7525d1u0026onu003dLunpia+Sayur+Gorengu0026midu003d/g/11hbgj5g7x
cafe,cafe,,,,PAPUA BARAT,,Indonesia,,,,https://maps.google.com/?cid=0x0:0x70b082e76b7525d1u0026onu003dBirthday+Cakeu0026midu003d/g/11hbgj5g7x
cafe,cafe,Distrik Moskona Selatan,"Kabupaten Teluk Bintuni, Papua Bar.","Kabupaten Teluk Bintuni, Papua Bar.",PAPUA BARAT,,Indonesia,,-1.6286738,132.9546549,https://maps.google.com/?cid=0x0:0xef5ad832b0358efc
cafe,Kedai Kopi,Arvastenk cafe,"34QF+J34 Vasco Damneen, Ekam, Tomu, Teluk Bintuni Regency, West Papua","Kabupaten Teluk Bintuni, Papua Bar.",PAPUA BARAT,,Indonesia,,-1.9109991,133.1226998,https://maps.google.com/?cid=0x0:0xa6ebd0aba70dc384
cafe,Kafe,Mangrove Family Karaoke And Cafe,"Bintuni Tim., Distrik Bintuni, Kabupaten Teluk Bintuni, Papua Bar. 98364","Distrik Bintuni, Kabupaten Teluk Bintuni",PAPUA BARAT,98364.0,Indonesia,82399466658.0,-2.1277471,133.551995,https://maps.google.com/?cid=0x0:0x70b082e76b7525d1
cafe,Kedai Kopi,Auno Kopi,"VGRF+6P5 Depan Toko Babo, Bintuni Bar., Distrik Bintuni, Kabupaten Teluk Bintuni, Papua Bar. 98141","Bintuni Bar., Distrik Bintuni, Kabupaten Teluk Bintuni",PAPUA BARAT,98141.0,Indonesia,82242813234.0,-2.1094867,133.5243588,https://maps.google.com/?cid=0x0:0x33752ea0e091e912
cafe,Kedai Kopi,Babatri Cafe - Coffee and Eatery,"Jl. Mawar II No.6 5, RT.5/RW.13, Bintaro, Kec. Pesanggrahan, Kota Tangerang Selatan, Daerah Khusus Ibukota Jakarta 12330","RT.5/RW.13, Bintaro, Kec. Pesanggrahan, Kota Tangerang Selatan",PAPUA BARAT,12330.0,Indonesia,,-6.2866142,106.7642864,https://maps.google.com/?cid=0x0:0x796398d6e169ae03
cafe,Brunch,RM.bosowa,"34QF+G82, Ekam, Tomu, Kabupaten Teluk Bintuni, Papua Bar. 98364","Ekam, Tomu, Kabupaten Teluk Bintuni",PAPUA BARAT,98364.0,Indonesia,,-1.911225,133.123254,https://maps.google.com/?cid=0x0:0xd2e17b91c3c2edb2
cafe,Kedai Kopi,VamousCafe,"VHFW+C29, Bintuni Tim., Distrik Bintuni, Kabupaten Teluk Bintuni, Papua Bar. 98364","Bintuni Tim., Distrik Bintuni, Kabupaten Teluk Bintuni",PAPUA BARAT,98364.0,Indonesia,,-2.1263704,133.5940437,https://maps.google.com/?cid=0x0:0x9e974526cceb5bd2
cafe,cafe,Lestari.Net,"Jl. Kosmos Asmorom No.136B, RT.002/RW.001, Kampung Vascodamneem, Kec. Meyado, Kabupaten Teluk Bintuni, Papua Bar.","Kabupaten Teluk Bintuni, Papua Bar.",PAPUA BARAT,,Indonesia,,-1.8231739,133.0491501,https://maps.google.com/?cid=0x0:0x2466c0a67f8f79e3
cafe,Kafe,Mangrove Family Karaoke And Cafe,"Bintuni Tim., Distrik Bintuni, Kabupaten Teluk Bintuni, Papua Bar. 98364","Distrik Bintuni, Kabupaten Teluk Bintuni",PAPUA BARAT,98364.0,Indonesia,82399466658.0,-2.1277471,133.551995,https://maps.google.com/?cid=0x0:0x70b082e76b7525d1
cafe,cafe,Distrik Moskona Timur,"Kabupaten Teluk Bintuni, Papua Bar.","Kabupaten Teluk Bintuni, Papua Bar.",PAPUA BARAT,,Indonesia,,-1.311813,132.9806087,https://maps.google.com/?cid=0x0:0x97750e766a777e76
cafe,Kedai Kopi,Mozas coffee  eatery,"FV5J+7CR, Jl. Cendrawasih, Kwamki, Kec. Mimika Baru, Kabupaten Mimika, Papua 99971","Jl. Cendrawasih, Kwamki, Kec. Mimika Baru, Kabupaten Mimika",PAPUA BARAT,99971.0,Indonesia,82346211581.0,-4.541764,136.8810199,https://maps.google.com/?cid=0x0:0x472df8cc9760865b
cafe,Kedai Kopi,Auno Kopi,"VGRF+6P5 Depan Toko Babo, Bintuni Bar., Distrik Bintuni, Kabupaten Teluk Bintuni, Papua Bar. 98141","Bintuni Bar., Distrik Bintuni, Kabupaten Teluk Bintuni",PAPUA BARAT,98141.0,Indonesia,82242813234.0,-2.1094867,133.5243588,https://maps.google.com/?cid=0x0:0x33752ea0e091e912
cafe,Restoran,Kabupaten wasior,"M57F+HV4, Morombuy, Merdey, Kabupaten Teluk Bintuni, Papua Bar.","Kabupaten Teluk Bintuni, Papua Bar.",PAPUA BARAT,,Indonesia,,-1.3361154,133.1747162,https://maps.google.com/?cid=0x0:0x5c8a1dc8576d6163
cafe,Kafe,PUA-PUA CAFE,"Jl. Budi Utomo, Nawaripi, Kec. Mimika Baru, Kabupaten Mimika, Papua 99952","Nawaripi, Kec. Mimika Baru, Kabupaten Mimika",PAPUA BARAT,99952.0,Indonesia,82346750560.0,-4.5620805,136.8806057,https://maps.google.com/?cid=0x0:0xb7cc07f877baacb2
cafe,Kafe,Coffee Brothers,"Maniwak, Manggurai PEMDA, Iriati, Distrik Wasior, Kabupaten Teluk Wondama, Papua Bar. 98362","Manggurai PEMDA, Iriati, Distrik Wasior, Kabupaten Teluk Wondama",PAPUA BARAT,98362.0,Indonesia,85244343890.0,-2.761305,134.5119245,https://maps.google.com/?cid=0x0:0x40dcc2c8a660e005
cafe,Kedai Kopi,Z COFFEE,"42HX+V6C, Jl. Trikora Rendani, Wosi, Kec. Manokwari Bar., Kabupaten Manokwari, Papua Bar. 98312","Jl. Trikora Rendani, Wosi, Kec. Manokwari Bar., Kabupaten Manokwari",PAPUA BARAT,98312.0,Indonesia,81247192526.0,-0.8703133,134.0480103,https://maps.google.com/?cid=0x0:0x52fc52684fc7839c
cafe,Restoran,Papua Cafe,"JV38+MF6, Kuala Kencana, Kec. Kuala Kencana, Kabupaten Mimika, Papua 99910","Kuala Kencana, Kec. Kuala Kencana, Kabupaten Mimika",PAPUA BARAT,99910.0,Indonesia,811490804.0,-4.395844,136.8661365,https://maps.google.com/?cid=0x0:0x314a0b94209cdb62
cafe,Kedai Kopi,Three - C Caffe  Resto,"Kios Putih, Belakang, Yafdas, Samofa, Biak Numfor Regency, Papua","Kabupaten Biak Numfor, Papua",PAPUA BARAT,,Indonesia,8124825299.0,-1.1568604,136.0741199,https://maps.google.com/?cid=0x0:0xda23b17446b60b0c
cafe,Kedai Kopi,Mosslife Coffee - Taman Literasi,"Taman Literasi Martha Christina Tiahahu, Jl. Sisingamangaraja Unit D1, Melawai, Kec. Kby. Baru, Kota Jakarta Selatan, Daerah Khusus Ibukota Jakarta 12160","Jl. Sisingamangaraja Unit D1, Melawai, Kec. Kby. Baru, Kota Jakarta Selatan",PAPUA BARAT,12160.0,Indonesia,81399047472.0,-6.243269,106.7983685,https://maps.google.com/?cid=0x0:0x218ac94f5e22db66
cafe,Pujasera,Torang Kofie Manokwari,"Jl. Yos Sudarso No.8, Manokwari Bar., Kec. Manokwari Bar., Kabupaten Manokwari, Papua Bar. 98312","Manokwari Bar., Kec. Manokwari Bar., Kabupaten Manokwari",PAPUA BARAT,98312.0,Indonesia,8114869988.0,-0.8568949,134.0673228,https://maps.google.com/?cid=0x0:0xf637fe327424a42
cafe,Kedai Kopi,Warung Bapak Zaka,"M57F+HV4, Morombuy, Merdey, Kabupaten Teluk Bintuni, Papua Bar.","Kabupaten Teluk Bintuni, Papua Bar.",PAPUA BARAT,,Indonesia,,-1.3361154,133.1747162,https://maps.google.com/?cid=0x0:0x4cf7ab3ae62f4727
cafe,Kedai Kopi,Mokopi Metland Puri,"Jl. Puri Utama, RT.004/RW.008, Petir, Kec. Cipondoh, Kota Tangerang, Banten 15147","RT.004/RW.008, Petir, Kec. Cipondoh, Kota Tangerang",PAPUA BARAT,15147.0,Indonesia,8558971337.0,-6.1941805,106.7094262,https://maps.google.com/?cid=0x0:0xd5453c406efa679a
cafe,Kafe,King Karaoke Billiard,"VH92+V27, Unnamed Road, East Bintuni, Bintuni, Teluk Bintuni Regency, West Papua 98364","Unnamed Road, East Bintuni, Bintuni, Teluk Bintuni Regency",PAPUA BARAT,98364.0,Indonesia,85398595972.0,-2.1303378,133.5500401,https://maps.google.com/?cid=0x0:0xda0766908faea530
cafe,Kafe,Mangrove Family Karaoke And Cafe,"Bintuni Tim., Distrik Bintuni, Kabupaten Teluk Bintuni, Papua Bar. 98364","Distrik Bintuni, Kabupaten Teluk Bintuni",PAPUA BARAT,98364.0,Indonesia,82399466658.0,-2.1277471,133.551995,https://maps.google.com/?cid=0x0:0x70b082e76b7525d1
cafe,cafe,,,,PAPUA BARAT,,Indonesia,,,,https://maps.google.com/?cid=0x0:0x70b082e76b7525d1u0026onu003dJuice+Alpukatu0026midu003d/g/11hbgj5g7x
cafe,cafe,,,,PAPUA BARAT,,Indonesia,,,,https://maps.google.com/?cid=0x0:0x70b082e76b7525d1u0026onu003dAyam+Gorengu0026midu003d/g/11hbgj5g7x
cafe,cafe,,,,PAPUA BARAT,,Indonesia,,,,https://maps.google.com/?cid=0x0:0x70b082e76b7525d1u0026onu003dAvocado+Juiceu0026midu003d/g/11hbgj5g7x
cafe,cafe,,,,PAPUA BARAT,,Indonesia,,,,https://maps.google.com/?cid=0x0:0x70b082e76b7525d1u0026onu003dMie+Rebusu0026midu003d/g/11hbgj5g7x
cafe,cafe,,,,PAPUA BARAT,,Indonesia,,,,https://maps.google.com/?cid=0x0:0x70b082e76b7525d1u0026onu003dAyam+Gepreku0026midu003d/g/11hbgj5g7x
cafe,cafe,,,,PAPUA BARAT,,Indonesia,,,,https://maps.google.com/?cid=0x0:0x70b082e76b7525d1u0026onu003dUdnag+Goreng+Tepungu0026midu003d/g/11hbgj5g7x
cafe,cafe,,,,PAPUA BARAT,,Indonesia,,,,https://maps.google.com/?cid=0x0:0x70b082e76b7525d1u0026onu003dCapcay+Kuahu0026midu003d/g/11hbgj5g7x
cafe,cafe,,,,PAPUA BARAT,,Indonesia,,,,https://maps.google.com/?cid=0x0:0x70b082e76b7525d1u0026onu003dAyam+Kampung+Gorengu0026midu003d/g/11hbgj5g7x
cafe,cafe,,,,PAPUA BARAT,,Indonesia,,,,https://maps.google.com/?cid=0x0:0x70b082e76b7525d1u0026onu003dPizza+Seafoodu0026midu003d/g/11hbgj5g7x
cafe,cafe,,,,PAPUA BARAT,,Indonesia,,,,https://maps.google.com/?cid=0x0:0x70b082e76b7525d1u0026onu003dNasi+Goreng+Ayamu0026midu003d/g/11hbgj5g7x
cafe,cafe,,,,PAPUA BARAT,,Indonesia,,,,https://maps.google.com/?cid=0x0:0x70b082e76b7525d1u0026onu003dLunpia+Sayur+Gorengu0026midu003d/g/11hbgj5g7x
cafe,cafe,,,,PAPUA BARAT,,Indonesia,,,,https://maps.google.com/?cid=0x0:0x70b082e76b7525d1u0026onu003dBirthday+Cakeu0026midu003d/g/11hbgj5g7x
cafe,Kafe seni,ALDRI WARKOP,"Iriati, Distrik Wasior, Kabupaten Teluk Wondama, Papua Bar. 98346","Distrik Wasior, Kabupaten Teluk Wondama",PAPUA BARAT,98346.0,Indonesia,82248183514.0,-2.8551699,134.3236557,https://maps.google.com/?cid=0x0:0x6f4274922c3bfa18
cafe,Kafe,Coffee Brothers,"Maniwak, Manggurai PEMDA, Iriati, Distrik Wasior, Kabupaten Teluk Wondama, Papua Bar. 98362","Manggurai PEMDA, Iriati, Distrik Wasior, Kabupaten Teluk Wondama",PAPUA BARAT,98362.0,Indonesia,85244343890.0,-2.761305,134.5119245,https://maps.google.com/?cid=0x0:0x40dcc2c8a660e005
cafe,cafe,Saengga,"Kec. Sumuri, Kabupaten Teluk Bintuni, Papua Bar.","Kabupaten Teluk Bintuni, Papua Bar.",PAPUA BARAT,,Indonesia,,-2.5122975,133.1165621,https://maps.google.com/?cid=0x0:0xe50ca1b18a711d41
cafe,Indonesia,Warung Rizky,"Kampung Wesiri, Km 6, Distrik Bintuni, Kabupaten Teluk Bintuni, Papua Bar. 98364","Km 6, Distrik Bintuni, Kabupaten Teluk Bintuni",PAPUA BARAT,98364.0,Indonesia,,-2.0604501,133.4644802,https://maps.google.com/?cid=0x0:0x8901f778886d7990
cafe,Toko umum,Pasar Tanah Merah Distrik Sumuri,"Desa, Tanah Merah, Sumuri, Teluk Bintuni Regency, West Papua 98363","Tanah Merah, Sumuri, Teluk Bintuni Regency",PAPUA BARAT,98363.0,Indonesia,,-2.4614172,133.1030211,https://maps.google.com/?cid=0x0:0x4194336d7a432acc
cafe,Pasar tradisional,Minimarket Mairy Tanah Merah,"Tanah Merah, Kec. Sumuri, Kabupaten Teluk Bintuni, Papua Bar. 98136","Kec. Sumuri, Kabupaten Teluk Bintuni",PAPUA BARAT,98136.0,Indonesia,81240375026.0,-2.4571533,133.1103783,https://maps.google.com/?cid=0x0:0xf968ab6657291052
cafe,cafe,Warkop 03,"F786+M2J, Tofoi, Kec. Sumuri, Kabupaten Teluk Bintuni, Papua Bar. 98363","Tofoi, Kec. Sumuri, Kabupaten Teluk Bintuni",PAPUA BARAT,98363.0,Indonesia,82199141213.0,-2.5332904,133.2600141,https://maps.google.com/?cid=0x0:0x9d5106dac391f4b5
cafe,cafe,Distrik Tembuni,"Kabupaten Teluk Bintuni, Papua Bar.","Kabupaten Teluk Bintuni, Papua Bar.",PAPUA BARAT,,Indonesia,,-1.9799814,133.4065009,https://maps.google.com/?cid=0x0:0xdf538382e229efa6
cafe,Kafe,D'meong Coffee,"VGHQ+V3G, Unnamed Road, Bintuni Tim., Distrik Bintuni, Kabupaten Teluk Bintuni, Papua Bar. 98364","Unnamed Road, Bintuni Tim., Distrik Bintuni, Kabupaten Teluk Bintuni",PAPUA BARAT,98364.0,Indonesia,81246969627.0,-2.1203214,133.5377157,https://maps.google.com/?cid=0x0:0xff6cb93e8ca143e7
cafe,Kafe,Mangrove Family Karaoke And Cafe,"Bintuni Tim., Distrik Bintuni, Kabupaten Teluk Bintuni, Papua Bar. 98364","Distrik Bintuni, Kabupaten Teluk Bintuni",PAPUA BARAT,98364.0,Indonesia,82399466658.0,-2.1277471,133.551995,https://maps.google.com/?cid=0x0:0x70b082e76b7525d1
cafe,Makanan Siap Saji,MACE KITCHEN AND COFFEESHOP,"Jl. Raya Kali Tubi, Bintuni Tim., Distrik Bintuni, Kabupaten Teluk Bintuni, Papua Bar. 98364","Bintuni Tim., Distrik Bintuni, Kabupaten Teluk Bintuni",PAPUA BARAT,98364.0,Indonesia,,-2.1278533,133.5530143,https://maps.google.com/?cid=0x0:0x84dd65486cd7a3ec
cafe,Kedai Kopi,INGAT KOPI BINTUNI,"Samping Penginapan Kabira, Ingat Kopi Bintuni, Jl Raya, Bintuni Tim., Distrik Bintuni, Kabupaten Teluk Bintuni, Papua Bar. 98364","Ingat Kopi Bintuni, Jl Raya, Bintuni Tim., Distrik Bintuni, Kabupaten Teluk Bintuni",PAPUA BARAT,98364.0,Indonesia,85287200241.0,-2.1179985,133.5336587,https://maps.google.com/?cid=0x0:0xb6794b3d5220f992
cafe,Kedai Kopi,IndCaffe,"VJV7+8F3, Sp V. Manimery/ Argo Sigemeray, Distrik Bintuni, Kabupaten Teluk Bintuni, Papua Bar. 98364","Sp V. Manimery/ Argo Sigemeray, Distrik Bintuni, Kabupaten Teluk Bintuni",PAPUA BARAT,98364.0,Indonesia,,-2.1067275,133.6136765,https://maps.google.com/?cid=0x0:0x72add400e5e4b85d
cafe,Kedai Kopi,Kopisenjatb,"VGHJ+XPX, Kampung nelayan, Bintuni Tim., Distrik Bintuni, Kabupaten Teluk Bintuni, Papua Bar. 98364","Kampung nelayan, Bintuni Tim., Distrik Bintuni, Kabupaten Teluk Bintuni",PAPUA BARAT,98364.0,Indonesia,82238859339.0,-2.1200104,133.531864,https://maps.google.com/?cid=0x0:0x5bd1a1813da36b15
cafe,Kedai Kopi,Mirabow Coffee Shop,"VJM6+RHV, Jl. Manokwari - Bintuni, Sp V. Manimery/ Argo Sigemeray, Distrik Bintuni, Kabupaten Teluk Bintuni, Papua Bar. 98364","Jl. Manokwari - Bintuni, Sp V. Manimery/ Argo Sigemeray, Distrik Bintuni, Kabupaten Teluk Bintuni",PAPUA BARAT,98364.0,Indonesia,,-2.1153999,133.6114103,https://maps.google.com/?cid=0x0:0x4ea1d4e40505767
cafe,Kedai Kopi,SEJALUR KOPI BINTUNI,"Bintuni Bar., Distrik Bintuni, Kabupaten Teluk Bintuni, Papua Bar. 98364","Distrik Bintuni, Kabupaten Teluk Bintuni",PAPUA BARAT,98364.0,Indonesia,,-2.1067688,133.522645,https://maps.google.com/?cid=0x0:0x95343a9047189c9f
cafe,cafe,Zenzana Ice drink,"Korano 2 No.samping, toko agung, Distrik Aranday, Kabupaten Teluk Bintuni, Papua Bar.","Kabupaten Teluk Bintuni, Papua Bar.",PAPUA BARAT,,Indonesia,85215827895.0,-1.9056848,133.329466,https://maps.google.com/?cid=0x0:0x1568af31849dde86
cafe,cafe,Seven Coffee Bintuni,"VGMJ+GJW, Tahiti, Agro Lama, Bintuni Tim., Distrik Bintuni, Kabupaten Teluk Bintuni, Papua Bar. 98364","Tahiti, Agro Lama, Bintuni Tim., Distrik Bintuni, Kabupaten Teluk Bintuni",PAPUA BARAT,98364.0,Indonesia,81340940693.0,-2.1161421,133.5315668,https://maps.google.com/?cid=0x0:0xb258118cb788e482
cafe,Klinik Medis,Dr. Jacob R dan Bidan Engeline,"Jl. Kemang Tim. 18 No.35 1, RT.4/RW.3, Bangka, Kec. Mampang Prpt., Kota Jakarta Selatan, Daerah Khusus Ibukota Jakarta 12730","RT.4/RW.3, Bangka, Kec. Mampang Prpt., Kota Jakarta Selatan",PAPUA BARAT,12730.0,Indonesia,217182818.0,-6.2721521,106.8212559,https://maps.google.com/?cid=0x0:0xce9fbfad87858326
cafe,Rumah Sakit,Tembuni Birth Center,"Jl. Kemang Timur VIII No.L 13, Bangka, Kec. Mampang Prpt., Kota Jakarta Selatan, Daerah Khusus Ibukota Jakarta 12730","Bangka, Kec. Mampang Prpt., Kota Jakarta Selatan",PAPUA BARAT,12730.0,Indonesia,2122715222.0,-6.2661168,106.8216999,https://maps.google.com/?cid=0x0:0xa477f96c073156d2
cafe,cafe,Papua Bar. 98365,"Kabupaten Teluk Bintuni, Papua Bar.","Kabupaten Teluk Bintuni, Papua Bar.",PAPUA BARAT,,Indonesia,,-1.9250686,132.7076107,https://maps.google.com/?cid=0x0:0xe2813bacbf5a0787
cafe,Kedai Kopi,Arvastenk cafe,"34QF+J34 Vasco Damneen, Ekam, Tomu, Teluk Bintuni Regency, West Papua","Kabupaten Teluk Bintuni, Papua Bar.",PAPUA BARAT,,Indonesia,,-1.9109991,133.1226998,https://maps.google.com/?cid=0x0:0xa6ebd0aba70dc384
cafe,Dapur Umum,Warung Risma,"3499+JH, Ekam, Tomu, Kabupaten Teluk Bintuni, Papua Bar.","Kabupaten Teluk Bintuni, Papua Bar.",PAPUA BARAT,,Indonesia,,-1.9309121,133.118944,https://maps.google.com/?cid=0x0:0x85b905e43f695115
cafe,Restoran,RM Selera Jogorogo.,"QXMC+8P9, Unnamed Road, Sebyar Rejosari, Tomu, Kabupaten Teluk Bintuni, Papua Bar. 98365","Unnamed Road, Sebyar Rejosari, Tomu, Kabupaten Teluk Bintuni",PAPUA BARAT,98365.0,Indonesia,81247461378.0,-2.216711,132.9718596,https://maps.google.com/?cid=0x0:0xc7a04d5c3fda931d
cafe,Brunch,RM.bosowa,"34QF+G82, Ekam, Tomu, Kabupaten Teluk Bintuni, Papua Bar. 98364","Ekam, Tomu, Kabupaten Teluk Bintuni",PAPUA BARAT,98364.0,Indonesia,,-1.911225,133.123254,https://maps.google.com/?cid=0x0:0xd2e17b91c3c2edb2
cafe,Kedai Kopi,Cafe Candu,"FC4W+6Q5, Nusei, Babo, Kabupaten Teluk Bintuni, Papua Bar. 98363","Nusei, Babo, Kabupaten Teluk Bintuni",PAPUA BARAT,98363.0,Indonesia,,-2.5430787,133.4472981,https://maps.google.com/?cid=0x0:0x30a3023fb4861441
cafe,Rumah Makan,RM Mubin Farid,"QXJC+RH9, Unnamed Road, Sebyar Rejosari, Tomu, Kabupaten Teluk Bintuni, Papua Bar. 98365","Unnamed Road, Sebyar Rejosari, Tomu, Kabupaten Teluk Bintuni",PAPUA BARAT,98365.0,Indonesia,82398177071.0,-2.217975,132.9714983,https://maps.google.com/?cid=0x0:0x737c63031376d285
cafe,Kedai Kopi,Lestari.Net,"34QF+6QJ, Ekam, Tomu, Kabupaten Teluk Bintuni, Papua Bar. 98364","Ekam, Tomu, Kabupaten Teluk Bintuni",PAPUA BARAT,98364.0,Indonesia,,-1.9119112,133.1244038,https://maps.google.com/?cid=0x0:0x1b29130a63b8be3b
cafe,Restoran,Warung Makan Mubin Farid,"V3J5+Q8W, Sebyar Rejosari, Tomu, Kabupaten Teluk Bintuni, Papua Bar. 98365","Sebyar Rejosari, Tomu, Kabupaten Teluk Bintuni",PAPUA BARAT,98365.0,Indonesia,81343124220.0,-2.1180173,133.0583409,https://maps.google.com/?cid=0x0:0x329c7e1330a2ce5c
cafe,Kafe,TOM'S Cafe,"Jl. Cempaka IV No.17 6, RT.6/RW.11, Bintaro, Kec. Pesanggrahan, Kota Jakarta Selatan, Daerah Khusus Ibukota Jakarta 12330","RT.6/RW.11, Bintaro, Kec. Pesanggrahan, Kota Jakarta Selatan",PAPUA BARAT,12330.0,Indonesia,,-6.2739307,106.7597169,https://maps.google.com/?cid=0x0:0x2d4a62ae853349bb
cafe,Kedai Kopi,D'Toms Coffee,"Jl. Kayu Manis Timur No.10, RT.1/RW.3, Utan Kayu Utara, Kec. Matraman, Kota Jakarta Timur, Daerah Khusus Ibukota Jakarta 13120","RT.1/RW.3, Utan Kayu Utara, Kec. Matraman, Kota Jakarta Timur",PAPUA BARAT,13120.0,Indonesia,2122985755.0,-6.1968788,106.8615911,https://maps.google.com/?cid=0x0:0x85b6f860c198557
cafe,Kedai Kopi,Temanta Meruya,"Jl. Astinapura KAV DKI No.18 Blok 25, Meruya Utara, Kec. Kembangan, Kota Jakarta Barat, Daerah Khusus Ibukota Jakarta 11620","Meruya Utara, Kec. Kembangan, Kota Jakarta Barat",PAPUA BARAT,11620.0,Indonesia,85175122087.0,-6.1973798,106.7251706,https://maps.google.com/?cid=0x0:0xff789bd62fb3dc67
cafe,cafe,Tumotu Cafe,"Jl. Enggano No.85 7, RT.7/RW.8, Tj. Priok, Kec. Tj. Priok, Jkt Utara, Daerah Khusus Ibukota Jakarta 14310","RT.7/RW.8, Tj. Priok, Kec. Tj. Priok, Jkt Utara",PAPUA BARAT,14310.0,Indonesia,,-6.1099118,106.8916226,https://maps.google.com/?cid=0x0:0x57e588dc54a2ee99
cafe,cafe,Distrik Tuhiba,"Kabupaten Teluk Bintuni, Papua Bar.","Kabupaten Teluk Bintuni, Papua Bar.",PAPUA BARAT,,Indonesia,,-1.9874608,133.6203736,https://maps.google.com/?cid=0x0:0x19d3a0288704397d
cafe,Kedai Kopi,IndCaffe,"VJV7+8F3, Sp V. Manimery/ Argo Sigemeray, Distrik Bintuni, Kabupaten Teluk Bintuni, Papua Bar. 98364","Sp V. Manimery/ Argo Sigemeray, Distrik Bintuni, Kabupaten Teluk Bintuni",PAPUA BARAT,98364.0,Indonesia,,-2.1067275,133.6136765,https://maps.google.com/?cid=0x0:0x72add400e5e4b85d
cafe,Makanan Siap Saji,MACE KITCHEN AND COFFEESHOP,"Jl. Raya Kali Tubi, Bintuni Tim., Distrik Bintuni, Kabupaten Teluk Bintuni, Papua Bar. 98364","Bintuni Tim., Distrik Bintuni, Kabupaten Teluk Bintuni",PAPUA BARAT,98364.0,Indonesia,,-2.1278533,133.5530143,https://maps.google.com/?cid=0x0:0x84dd65486cd7a3ec
cafe,Kedai Kopi,Coffee Bos'Q,"Bintuni Bar., Distrik Bintuni, Kabupaten Teluk Bintuni, Papua Bar. 98364","Distrik Bintuni, Kabupaten Teluk Bintuni",PAPUA BARAT,98364.0,Indonesia,82234742726.0,-2.1136829,133.5289437,https://maps.google.com/?cid=0x0:0xd9ea3c488540c9ec
cafe,Kedai Kopi,Cafe  Resto Bintuni Business Center (BBC),Jln. Raya SP 5,"Kabupaten Teluk Bintuni, Papua Bar.",PAPUA BARAT,,Indonesia,,-2.1134603,133.615269,https://maps.google.com/?cid=0x0:0xe2e5143ddff55b23
cafe,Kedai Kopi,INGAT KOPI BINTUNI,"Samping Penginapan Kabira, Ingat Kopi Bintuni, Jl Raya, Bintuni Tim., Distrik Bintuni, Kabupaten Teluk Bintuni, Papua Bar. 98364","Ingat Kopi Bintuni, Jl Raya, Bintuni Tim., Distrik Bintuni, Kabupaten Teluk Bintuni",PAPUA BARAT,98364.0,Indonesia,85287200241.0,-2.1179985,133.5336587,https://maps.google.com/?cid=0x0:0xb6794b3d5220f992
cafe,Kafe,D'meong Coffee,"VGHQ+V3G, Unnamed Road, Bintuni Tim., Distrik Bintuni, Kabupaten Teluk Bintuni, Papua Bar. 98364","Unnamed Road, Bintuni Tim., Distrik Bintuni, Kabupaten Teluk Bintuni",PAPUA BARAT,98364.0,Indonesia,81246969627.0,-2.1203214,133.5377157,https://maps.google.com/?cid=0x0:0xff6cb93e8ca143e7
cafe,Kedai Kopi,Mirabow Coffee Shop,"VJM6+RHV, Jl. Manokwari - Bintuni, Sp V. Manimery/ Argo Sigemeray, Distrik Bintuni, Kabupaten Teluk Bintuni, Papua Bar. 98364","Jl. Manokwari - Bintuni, Sp V. Manimery/ Argo Sigemeray, Distrik Bintuni, Kabupaten Teluk Bintuni",PAPUA BARAT,98364.0,Indonesia,,-2.1153999,133.6114103,https://maps.google.com/?cid=0x0:0x4ea1d4e40505767
cafe,Kafe,Mangrove Family Karaoke And Cafe,"Bintuni Tim., Distrik Bintuni, Kabupaten Teluk Bintuni, Papua Bar. 98364","Distrik Bintuni, Kabupaten Teluk Bintuni",PAPUA BARAT,98364.0,Indonesia,82399466658.0,-2.1277471,133.551995,https://maps.google.com/?cid=0x0:0x70b082e76b7525d1
cafe,Indonesia,Cafe  Resto Makkareso,"VGMJ+PHJ, Bintuni Tim., Distrik Bintuni, Kabupaten Teluk Bintuni, Papua Bar. 98364","Bintuni Tim., Distrik Bintuni, Kabupaten Teluk Bintuni",PAPUA BARAT,98364.0,Indonesia,82343582016.0,-2.11567,133.5313977,https://maps.google.com/?cid=0x0:0xf12c2c81c9f633fe
cafe,Kafe,Ayam Kampung Bintuni d'cafe  resto,"WMFM+2XF, Jl. Manokwari - Bintuni, Waraitama, Distrik Manimeri, Kabupaten Teluk Bintuni, Papua Bar. 98364","Jl. Manokwari - Bintuni, Waraitama, Distrik Manimeri, Kabupaten Teluk Bintuni",PAPUA BARAT,98364.0,Indonesia,82191584657.0,-2.0774299,133.6849179,https://maps.google.com/?cid=0x0:0x810d24da39b58501
cafe,Sulawesi Selatan,Nabilah Coto Makassar  Cafe,"VGJP+4CR, Unnamed Road, Bintuni Tim., Distrik Bintuni, Kabupaten Teluk Bintuni, Papua Bar. 98364","Unnamed Road, Bintuni Tim., Distrik Bintuni, Kabupaten Teluk Bintuni",PAPUA BARAT,98364.0,Indonesia,,-2.1196391,133.5360152,https://maps.google.com/?cid=0x0:0x571bfc572dbc8b39
cafe,Kedai Kopi,Your Coffee,"VJVF+2WX, Dekat, Jl. Manokwari - Bintuni, Beimes, Distrik Bintuni, Kabupaten Teluk Bintuni, Papua Bar. 98364","Dekat, Jl. Manokwari - Bintuni, Beimes, Distrik Bintuni, Kabupaten Teluk Bintuni",PAPUA BARAT,98364.0,Indonesia,82399211313.0,-2.1073899,133.6248586,https://maps.google.com/?cid=0x0:0x4223cd9b5e66d6c8
cafe,Kedai Kopi,SEJALUR KOPI BINTUNI,"Bintuni Bar., Distrik Bintuni, Kabupaten Teluk Bintuni, Papua Bar. 98364","Distrik Bintuni, Kabupaten Teluk Bintuni",PAPUA BARAT,98364.0,Indonesia,,-2.1067688,133.522645,https://maps.google.com/?cid=0x0:0x95343a9047189c9f
cafe,Kedai Kopi,Melanesian Coffee,"Jl. Wasior - Rado, Moru, Distrik Wasior, Kabupaten Teluk Wondama, Papua Bar. 98362","Moru, Distrik Wasior, Kabupaten Teluk Wondama",PAPUA BARAT,98362.0,Indonesia,81240930026.0,-2.7016017,134.5057633,https://maps.google.com/?cid=0x0:0xd845bbbbbdd329ed
cafe,cafe,,,,PAPUA BARAT,,Indonesia,,,,https://maps.google.com/?cid=0x0:0xd845bbbbbdd329edu0026onu0026midu003d/g/11n7jlh0fy
cafe,Tujuan Wisata,Wondama,"48VF+WFJ, Iriati, Kuri Wamesa, Kabupaten Teluk Wondama, Papua Bar.","Kabupaten Teluk Wondama, Papua Bar.",PAPUA BARAT,,Indonesia,85319092604.0,-2.8551699,134.3236557,https://maps.google.com/?cid=0x0:0x8ce6de66c8bd402f
cafe,Kedai Kopi,Melanesian Coffee,"7GF4+MHF, Wasior II, Distrik Wasior, Kabupaten Teluk Wondama, Papua Bar. 98362","Wasior II, Distrik Wasior, Kabupaten Teluk Wondama",PAPUA BARAT,98362.0,Indonesia,81328140090.0,-2.7258182,134.5064296,https://maps.google.com/?cid=0x0:0xedc90f86d0eb5a1a
cafe,Kafe,Coffee Brothers,"Maniwak, Manggurai PEMDA, Iriati, Distrik Wasior, Kabupaten Teluk Wondama, Papua Bar. 98362","Manggurai PEMDA, Iriati, Distrik Wasior, Kabupaten Teluk Wondama",PAPUA BARAT,98362.0,Indonesia,85244343890.0,-2.761305,134.5119245,https://maps.google.com/?cid=0x0:0x40dcc2c8a660e005
cafe,cafe,Wamesa,"Kabupaten Teluk Bintuni, Papua Bar.","Kabupaten Teluk Bintuni, Papua Bar.",PAPUA BARAT,,Indonesia,,-2.1434612,133.981812,https://maps.google.com/?cid=0x0:0x255b33cb1fd7a021
cafe,Kafe,Waanal Coffee And Resto,"Jl. Cendrawasih, Karang Senang, Kec. Kuala Kencana, Kabupaten Mimika, Papua 99910","Karang Senang, Kec. Kuala Kencana, Kabupaten Mimika",PAPUA BARAT,99910.0,Indonesia,81248677897.0,-4.4916566,136.8474106,https://maps.google.com/?cid=0x0:0xe6f6936c8a14d771
cafe,Kedai Kopi,Z COFFEE,"42HX+V6C, Jl. Trikora Rendani, Wosi, Kec. Manokwari Bar., Kabupaten Manokwari, Papua Bar. 98312","Jl. Trikora Rendani, Wosi, Kec. Manokwari Bar., Kabupaten Manokwari",PAPUA BARAT,98312.0,Indonesia,81247192526.0,-0.8703133,134.0480103,https://maps.google.com/?cid=0x0:0x52fc52684fc7839c
cafe,Kedai Kopi,wabisabicoffee,"Kp. Baru, Distrik Sorong, Kota Sorong, Papua Bar. 98411","Distrik Sorong, Kota Sorong",PAPUA BARAT,98411.0,Indonesia,82137563208.0,-0.8704999,131.253128,https://maps.google.com/?cid=0x0:0xd4029d1b24ccb3b3
cafe,Kafe,Cafe Aria,"expo, Perumahan Lentera 2 no A4.gelanggang tengah, Waena, Kec. Abepura, Papua 98667","Perumahan Lentera 2 no A4.gelanggang tengah, Waena, Kec. Abepura",PAPUA BARAT,98667.0,Indonesia,,-2.5932318,140.6339916,https://maps.google.com/?cid=0x0:0xc35b3404eb912edc
cafe,Kedai Kopi,Cafe Isasai,"Danau Sentani, Kp. Waena, Kec. Heram, Kota Jayapura, Papua 99351","Kp. Waena, Kec. Heram, Kota Jayapura",PAPUA BARAT,99351.0,Indonesia,,-2.598538,140.6244014,https://maps.google.com/?cid=0x0:0xc37a24107e869a96
cafe,Kedai Kopi,Wells Coffee  Milkbar,"9J87+CXP, Handil Jaya, Kec. Jelutung, Kota Jambi, Jambi","Kota Jambi, Jambi",PAPUA BARAT,,Indonesia,,-1.6339174,103.6149493,https://maps.google.com/?cid=0x0:0x93e8e60691bb6372
cafe,Kedai Kopi,Cafe6233,"Jalan Kampung Perepat Kapar, 42200 Klang, Selangor, Malaysia",Klang,PAPUA BARAT,42200.0,Indonesia,60176460407.0,3.112431,101.3587378,https://maps.google.com/?cid=0x0:0x4d7a532a368a10a0
cafe,cafe,Wamesa,"Kabupaten Teluk Bintuni, Papua Bar.","Kabupaten Teluk Bintuni, Papua Bar.",PAPUA BARAT,,Indonesia,,-2.1434612,133.981812,https://maps.google.com/?cid=0x0:0x255b33cb1fd7a021
cafe,Kafe,Coffee Brothers,"Maniwak, Manggurai PEMDA, Iriati, Distrik Wasior, Kabupaten Teluk Wondama, Papua Bar. 98362","Manggurai PEMDA, Iriati, Distrik Wasior, Kabupaten Teluk Wondama",PAPUA BARAT,98362.0,Indonesia,85244343890.0,-2.761305,134.5119245,https://maps.google.com/?cid=0x0:0x40dcc2c8a660e005
cafe,Restoran,DEPOT AMORA,"WM78+79V, Banjar Ausoy (Sp IV), Distrik Manimeri, Kabupaten Teluk Bintuni, Papua Bar. 98364","Banjar Ausoy (Sp IV), Distrik Manimeri, Kabupaten Teluk Bintuni",PAPUA BARAT,98364.0,Indonesia,,-2.0867648,133.6659162,https://maps.google.com/?cid=0x0:0xb055930a0bae5985
cafe,Kedai Kopi,Melanesian Coffee,"Jl. Wasior - Rado, Moru, Distrik Wasior, Kabupaten Teluk Wondama, Papua Bar. 98362","Moru, Distrik Wasior, Kabupaten Teluk Wondama",PAPUA BARAT,98362.0,Indonesia,81240930026.0,-2.7016017,134.5057633,https://maps.google.com/?cid=0x0:0xd845bbbbbdd329ed
cafe,cafe,Cafe and resto,"Gang 1 No.7, Bintuni Timur, Distrik Manimeri, Kabupaten Teluk Bintuni, Papua Bar.","Kabupaten Teluk Bintuni, Papua Bar.",PAPUA BARAT,,Indonesia,,-2.0889825,133.6892846,https://maps.google.com/?cid=0x0:0x8a15a7ec8f00e0f6
cafe,cafe,Warkop Yolanda,"WPJC+67W, Korano Jaya, Distrik Manimeri, Kabupaten Teluk Bintuni, Papua Bar. 98364","Korano Jaya, Distrik Manimeri, Kabupaten Teluk Bintuni",PAPUA BARAT,98364.0,Indonesia,82398078009.0,-2.0693761,133.7207107,https://maps.google.com/?cid=0x0:0x4eb27fbe7a172fab
cafe,Dapur Umum,WarungeZ,"Jalur A SP 3, Bumi Saniari, Distrik Manimeri, Kabupaten Teluk Bintuni, Papua Bar. 98364","Bumi Saniari, Distrik Manimeri, Kabupaten Teluk Bintuni",PAPUA BARAT,98364.0,Indonesia,,-2.0490367,133.7269103,https://maps.google.com/?cid=0x0:0xb13663c80bfe452f
cafe,cafe,Papua Bar. 98364,"Kabupaten Teluk Bintuni, Papua Bar.","Kabupaten Teluk Bintuni, Papua Bar.",PAPUA BARAT,,Indonesia,,-1.8959987,133.6375314,https://maps.google.com/?cid=0x0:0x5d92307b98683ecf
cafe,Kafe,D'meong Coffee,"VGHQ+V3G, Unnamed Road, Bintuni Tim., Distrik Bintuni, Kabupaten Teluk Bintuni, Papua Bar. 98364","Unnamed Road, Bintuni Tim., Distrik Bintuni, Kabupaten Teluk Bintuni",PAPUA BARAT,98364.0,Indonesia,81246969627.0,-2.1203214,133.5377157,https://maps.google.com/?cid=0x0:0xff6cb93e8ca143e7
cafe,Padang,Warung Makan D'NIRA /Maharani Parfum,"VGCX+9XQ, Bintuni Tim., Distrik Bintuni, Kabupaten Teluk Bintuni, Papua Bar. 98364","Bintuni Tim., Distrik Bintuni, Kabupaten Teluk Bintuni",PAPUA BARAT,98364.0,Indonesia,,-2.1290498,133.5499736,https://maps.google.com/?cid=0x0:0x2814b20ed4aa919b
cafe,Kedai Kopi,INGAT KOPI BINTUNI,"Samping Penginapan Kabira, Ingat Kopi Bintuni, Jl Raya, Bintuni Tim., Distrik Bintuni, Kabupaten Teluk Bintuni, Papua Bar. 98364","Ingat Kopi Bintuni, Jl Raya, Bintuni Tim., Distrik Bintuni, Kabupaten Teluk Bintuni",PAPUA BARAT,98364.0,Indonesia,85287200241.0,-2.1179985,133.5336587,https://maps.google.com/?cid=0x0:0xb6794b3d5220f992
cafe,Kedai Kopi,Cafe  Resto Bintuni Business Center (BBC),Jln. Raya SP 5,"Kabupaten Teluk Bintuni, Papua Bar.",PAPUA BARAT,,Indonesia,,-2.1134603,133.615269,https://maps.google.com/?cid=0x0:0xe2e5143ddff55b23
cafe,Kedai Kopi,Kopisenjatb,"VGHJ+XPX, Kampung nelayan, Bintuni Tim., Distrik Bintuni, Kabupaten Teluk Bintuni, Papua Bar. 98364","Kampung nelayan, Bintuni Tim., Distrik Bintuni, Kabupaten Teluk Bintuni",PAPUA BARAT,98364.0,Indonesia,82238859339.0,-2.1200104,133.531864,https://maps.google.com/?cid=0x0:0x5bd1a1813da36b15
cafe,cafe,Distrik Weriagar,"Kabupaten Teluk Bintuni, Papua Bar.","Kabupaten Teluk Bintuni, Papua Bar.",PAPUA BARAT,,Indonesia,,-2.2729914,132.892696,https://maps.google.com/?cid=0x0:0xa59e3da385ccd401
cafe,Restoran,RM Selera Jogorogo.,"QXMC+8P9, Unnamed Road, Sebyar Rejosari, Tomu, Kabupaten Teluk Bintuni, Papua Bar. 98365","Unnamed Road, Sebyar Rejosari, Tomu, Kabupaten Teluk Bintuni",PAPUA BARAT,98365.0,Indonesia,81247461378.0,-2.216711,132.9718596,https://maps.google.com/?cid=0x0:0xc7a04d5c3fda931d
cafe,Kedai Kopi,Arvastenk cafe,"34QF+J34 Vasco Damneen, Ekam, Tomu, Teluk Bintuni Regency, West Papua","Kabupaten Teluk Bintuni, Papua Bar.",PAPUA BARAT,,Indonesia,,-1.9109991,133.1226998,https://maps.google.com/?cid=0x0:0xa6ebd0aba70dc384
cafe,Kedai Kopi,IndCaffe,"VJV7+8F3, Sp V. Manimery/ Argo Sigemeray, Distrik Bintuni, Kabupaten Teluk Bintuni, Papua Bar. 98364","Sp V. Manimery/ Argo Sigemeray, Distrik Bintuni, Kabupaten Teluk Bintuni",PAPUA BARAT,98364.0,Indonesia,,-2.1067275,133.6136765,https://maps.google.com/?cid=0x0:0x72add400e5e4b85d
cafe,Kafe,Mangrove Family Karaoke And Cafe,"Bintuni Tim., Distrik Bintuni, Kabupaten Teluk Bintuni, Papua Bar. 98364","Distrik Bintuni, Kabupaten Teluk Bintuni",PAPUA BARAT,98364.0,Indonesia,82399466658.0,-2.1277471,133.551995,https://maps.google.com/?cid=0x0:0x70b082e76b7525d1
cafe,Kedai Kopi,INGAT KOPI BINTUNI,"Samping Penginapan Kabira, Ingat Kopi Bintuni, Jl Raya, Bintuni Tim., Distrik Bintuni, Kabupaten Teluk Bintuni, Papua Bar. 98364","Ingat Kopi Bintuni, Jl Raya, Bintuni Tim., Distrik Bintuni, Kabupaten Teluk Bintuni",PAPUA BARAT,98364.0,Indonesia,85287200241.0,-2.1179985,133.5336587,https://maps.google.com/?cid=0x0:0xb6794b3d5220f992
cafe,Dapur Umum,Warung Risma,"3499+JH, Ekam, Tomu, Kabupaten Teluk Bintuni, Papua Bar.","Kabupaten Teluk Bintuni, Papua Bar.",PAPUA BARAT,,Indonesia,,-1.9309121,133.118944,https://maps.google.com/?cid=0x0:0x85b905e43f695115
cafe,Kedai Kopi,Rumah Makan Bersama dan MR Cafee Papua,"Sp V. Manimery/ Argo Sigemeray, Distrik Bintuni, Kabupaten Teluk Bintuni, Papua Bar.","Kabupaten Teluk Bintuni, Papua Bar.",PAPUA BARAT,,Indonesia,81355323235.0,-2.1136466,133.6151242,https://maps.google.com/?cid=0x0:0xef3ba017f79d2f81
cafe,Indonesia,Warung Rizky,"Kampung Wesiri, Km 6, Distrik Bintuni, Kabupaten Teluk Bintuni, Papua Bar. 98364","Km 6, Distrik Bintuni, Kabupaten Teluk Bintuni",PAPUA BARAT,98364.0,Indonesia,,-2.0604501,133.4644802,https://maps.google.com/?cid=0x0:0x8901f778886d7990
cafe,Kedai Kopi,Babatri Cafe - Coffee and Eatery,"Jl. Mawar II No.6 5, RT.5/RW.13, Bintaro, Kec. Pesanggrahan, Kota Tangerang Selatan, Daerah Khusus Ibukota Jakarta 12330","RT.5/RW.13, Bintaro, Kec. Pesanggrahan, Kota Tangerang Selatan",PAPUA BARAT,12330.0,Indonesia,,-6.2866142,106.7642864,https://maps.google.com/?cid=0x0:0x796398d6e169ae03
cafe,cafe,WARUNG AREMA,"Stengkol 3, distrik Meyado, Ekam, Tomu, Kabupaten Teluk Bintuni, Papua Bar. 98364","distrik Meyado, Ekam, Tomu, Kabupaten Teluk Bintuni",PAPUA BARAT,98364.0,Indonesia,,-1.9122117,133.1273117,https://maps.google.com/?cid=0x0:0xfd77b77e70977991
cafe,Kafe,Waanal Coffee And Resto,"Jl. Cendrawasih, Karang Senang, Kec. Kuala Kencana, Kabupaten Mimika, Papua 99910","Karang Senang, Kec. Kuala Kencana, Kabupaten Mimika",PAPUA BARAT,99910.0,Indonesia,81248677897.0,-4.4916566,136.8474106,https://maps.google.com/?cid=0x0:0xe6f6936c8a14d771
cafe,Kafe,Coffee Brothers,"Maniwak, Manggurai PEMDA, Iriati, Distrik Wasior, Kabupaten Teluk Wondama, Papua Bar. 98362","Manggurai PEMDA, Iriati, Distrik Wasior, Kabupaten Teluk Wondama",PAPUA BARAT,98362.0,Indonesia,85244343890.0,-2.761305,134.5119245,https://maps.google.com/?cid=0x0:0x40dcc2c8a660e005
cafe,Kedai Kopi,Z COFFEE,"42HX+V6C, Jl. Trikora Rendani, Wosi, Kec. Manokwari Bar., Kabupaten Manokwari, Papua Bar. 98312","Jl. Trikora Rendani, Wosi, Kec. Manokwari Bar., Kabupaten Manokwari",PAPUA BARAT,98312.0,Indonesia,81247192526.0,-0.8703133,134.0480103,https://maps.google.com/?cid=0x0:0x52fc52684fc7839c
hotel,hotel,Distrik Aranday,"Kabupaten Teluk Bintuni, Papua Bar.","Kabupaten Teluk Bintuni, Papua Bar.",PAPUA BARAT,,Indonesia,,-1.925379,133.229204,https://maps.google.com/?cid=0x0:0xab05e8c7d8e39b11
hotel,hotel,Aimas Hotel And Convention Center,"Klamasen, Distrik Mariat, Kabupaten Sorong, Papua Bar. 98416","Distrik Mariat, Kabupaten Sorong",PAPUA BARAT,98416.0,Indonesia,8114887778.0,-0.9780957,131.3535192,https://maps.google.com/?cid=0x0:0x622ceae2f7c756cf
hotel,hotel,Mahanaim Hotel dan Homestay Manokwari,"jln trikora kalidingin no 109, Wosi, Kec. Manokwari Bar., Kabupaten Manokwari, Papua Bar. 98312","Wosi, Kec. Manokwari Bar., Kabupaten Manokwari",PAPUA BARAT,98312.0,Indonesia,8124830147.0,-0.8699305,134.0471193,https://maps.google.com/?cid=0x0:0xeec6727952b4f3e6
hotel,hotel,The ignislo sorong hotel,"Basuki Rahmat Street KM 7 Sorong, Malaingkedi, Sorong Utara, Sorong City, West Papua 98412","Malaingkedi, Sorong Utara, Sorong City",PAPUA BARAT,98412.0,Indonesia,,-0.8885403,131.2925628,https://maps.google.com/?cid=0x0:0x9992b24f2542a546
hotel,hotel,Darefan Hotel Sorong,"Jl. Selat Morotai, Remu Sel., Kecamatan Sorong Manoi, Kota Sorong, Papua Bar. 98412","Remu Sel., Kecamatan Sorong Manoi, Kota Sorong",PAPUA BARAT,98412.0,Indonesia,8114868887.0,-0.8877595,131.2893739,https://maps.google.com/?cid=0x0:0x5709bb2ac9cbd24
hotel,hotel,M Hotel Sorong,"Jl. Sungai Maruni, Klawuyuk, Kec. Sorong Utara, Kota Sorong, Papua Bar. 98416","Klawuyuk, Kec. Sorong Utara, Kota Sorong",PAPUA BARAT,98416.0,Indonesia,8114863111.0,-0.8858638,131.3227746,https://maps.google.com/?cid=0x0:0x9b9160ef43d35fd5
hotel,hotel,,,,PAPUA BARAT,,Indonesia,,,,https://maps.google.com/?cid=0x0:0x9b9160ef43d35fd5%7C/g/11clwlw14h%7Cid-ID
hotel,hotel,Penginapan Kofiyau,"46MX+QV7, Unnamed Road, Klasuur, Distrik Sorong, Kota Sorong, Papua Bar. 98411","Unnamed Road, Klasuur, Distrik Sorong, Kota Sorong",PAPUA BARAT,98411.0,Indonesia,82398017326.0,-0.86559,131.2496721,https://maps.google.com/?cid=0x0:0xfc32a1234a9c5c47
hotel,hotel,Asana Biak Papua,"Jl. M Yamin No.04, Mandala, Kec. Biak Kota, Kabupaten Biak Numfor, Papua 98111","Mandala, Kec. Biak Kota, Kabupaten Biak Numfor",PAPUA BARAT,98111.0,Indonesia,8114743111.0,-1.1918619,136.1049095,https://maps.google.com/?cid=0x0:0x94321ded15c5a4a3
hotel,hotel,Steenkool Hotel  Resto,"WG53+P73, Wesiri, Distrik Bintuni, Kabupaten Teluk Bintuni, Papua Bar. 98364","Wesiri, Distrik Bintuni, Kabupaten Teluk Bintuni",PAPUA BARAT,98364.0,Indonesia,9553236660.0,-2.0907496,133.5031777,https://maps.google.com/?cid=0x0:0x69386e6d9549e17b
hotel,hotel,35 Inn,"476C+RFX, Jl. Ferry, Malawei, Distrik Sorong, Kota Sorong, Papua Bar. 98412","Jl. Ferry, Malawei, Distrik Sorong, Kota Sorong",PAPUA BARAT,98412.0,Indonesia,,-0.8878893,131.271243,https://maps.google.com/?cid=0x0:0xb276478752dcd2b2
hotel,hotel,JESONE Hotel  Resto,"Jl. Basuki Rahmat No.KM 7, South Remu, Sorong Manoi, Sorong City, West Papua 98412","South Remu, Sorong Manoi, Sorong City",PAPUA BARAT,98412.0,Indonesia,82198134499.0,-0.8859307,131.2879742,https://maps.google.com/?cid=0x0:0xf06b0978fb75d6f1
hotel,hotel,Hotel HI,"38C2+2X4, Fak Fak Selatan, Distrik Fakfak, Kabupaten Fakfak, Papua Bar. 98651","Fak Fak Selatan, Distrik Fakfak, Kabupaten Fakfak",PAPUA BARAT,98651.0,Indonesia,8888695878.0,-2.9299949,132.3024558,https://maps.google.com/?cid=0x0:0xa6762a3966976144
hotel,hotel,hotel oriestom,"43PG+J4M, Jl. Merdeka, Manokwari Tim., Kec. Manokwari Bar., Kabupaten Manokwari, Papua Bar. 98312","Jl. Merdeka, Manokwari Tim., Kec. Manokwari Bar., Kabupaten Manokwari",PAPUA BARAT,98312.0,Indonesia,62986211519.0,-0.8634113,134.0752839,https://maps.google.com/?cid=0x0:0x215631a03bde85f8
hotel,hotel,Aroba,"Distrik Aroba, Kabupaten Teluk Bintuni, Papua Bar.","Kabupaten Teluk Bintuni, Papua Bar.",PAPUA BARAT,,Indonesia,,-2.7579448,133.5799151,https://maps.google.com/?cid=0x0:0xde88d08daed2fbc6
hotel,hotel,Penginapan Kofiyau,"46MX+QV7, Unnamed Road, Klasuur, Distrik Sorong, Kota Sorong, Papua Bar. 98411","Unnamed Road, Klasuur, Distrik Sorong, Kota Sorong",PAPUA BARAT,98411.0,Indonesia,82398017326.0,-0.86559,131.2496721,https://maps.google.com/?cid=0x0:0xfc32a1234a9c5c47
hotel,hotel,Hotel HI,"38C2+2X4, Fak Fak Selatan, Distrik Fakfak, Kabupaten Fakfak, Papua Bar. 98651","Fak Fak Selatan, Distrik Fakfak, Kabupaten Fakfak",PAPUA BARAT,98651.0,Indonesia,8888695878.0,-2.9299949,132.3024558,https://maps.google.com/?cid=0x0:0xa6762a3966976144
hotel,hotel,Aries Hotel,"43HH+X36, Jl. Bhayangkara, Manokwari Tim., Kec. Manokwari Bar., Kabupaten Manokwari, Papua Bar. 98312","Jl. Bhayangkara, Manokwari Tim., Kec. Manokwari Bar., Kabupaten Manokwari",PAPUA BARAT,98312.0,Indonesia,85348704163.0,-0.8700859,134.077642,https://maps.google.com/?cid=0x0:0x3725d1ade6fcfeff
hotel,hotel,Hotel Batanta,"46GW+RMC, Kp. Baru, Distrik Sorong, Kota Sorong, Papua Bar. 98411","Kp. Baru, Distrik Sorong, Kota Sorong",PAPUA BARAT,98411.0,Indonesia,,-0.8729338,131.246629,https://maps.google.com/?cid=0x0:0xd18e7775760a134a
hotel,hotel,O,"Jl. Jend. A. Yani No.27, Malabutor, Kecamatan Sorong Manoi, Kota Sorong, Papua Bar. 98412","Malabutor, Kecamatan Sorong Manoi, Kota Sorong",PAPUA BARAT,98412.0,Indonesia,,-0.8827427,131.2828186,https://maps.google.com/?cid=0x0:0x9aebba5ddda67893
hotel,hotel,HOTEL F-TWO,"4797+HR6 Bar, Klaligi, Kecamatan Sorong Manoi, Kota Sorong, Papua Bar. 98412","Klaligi, Kecamatan Sorong Manoi, Kota Sorong",PAPUA BARAT,98412.0,Indonesia,,-0.8810964,131.2645222,https://maps.google.com/?cid=0x0:0xdc612394de83f39d
hotel,hotel,Penginapan Kabira,"Bintuni Tim., Distrik Bintuni, Kabupaten Teluk Bintuni, Papua Bar. 98364","Distrik Bintuni, Kabupaten Teluk Bintuni",PAPUA BARAT,98364.0,Indonesia,,-2.1181021,133.5336782,https://maps.google.com/?cid=0x0:0x6b4f5e6b8503872c
hotel,Otoritas Pelabuhan,Bintuni,"Bintuni Bar., Distrik Bintuni, Kabupaten Teluk Bintuni, Papua Bar.","Kabupaten Teluk Bintuni, Papua Bar.",PAPUA BARAT,,Indonesia,,-2.11287,133.52649,https://maps.google.com/?cid=0x0:0x6831237378f07fbd
hotel,Hotel,Hotel Alkahfi,"VGJP+8GJ, Bintuni Tim., Distrik Bintuni, Kabupaten Teluk Bintuni, Papua Bar. 98364","Bintuni Tim., Distrik Bintuni, Kabupaten Teluk Bintuni",PAPUA BARAT,98364.0,Indonesia,,-2.1191651,133.536272,https://maps.google.com/?cid=0x0:0x7e3dc39c16833745
hotel,hotel,Steenkool Hotel  Resto,"WG53+P73, Wesiri, Distrik Bintuni, Kabupaten Teluk Bintuni, Papua Bar. 98364","Wesiri, Distrik Bintuni, Kabupaten Teluk Bintuni",PAPUA BARAT,98364.0,Indonesia,9553236660.0,-2.0907496,133.5031777,https://maps.google.com/?cid=0x0:0x69386e6d9549e17b
hotel,Hotel,Hotel 84 Bintuni,"VGPH+7WG, Bintuni Bar., Distrik Bintuni, Kabupaten Teluk Bintuni, Papua Bar. 98364","Bintuni Bar., Distrik Bintuni, Kabupaten Teluk Bintuni",PAPUA BARAT,98364.0,Indonesia,,-2.1143211,133.5298192,https://maps.google.com/?cid=0x0:0x3004d626c67149d3
hotel,Motel,Penginapan Nusantara babo,"FC5V+P7P, Nusei, Babo, Kabupaten Teluk Bintuni, Papua Bar. 98363","Nusei, Babo, Kabupaten Teluk Bintuni",PAPUA BARAT,98363.0,Indonesia,85240895224.0,-2.5406229,133.4431837,https://maps.google.com/?cid=0x0:0xd7e517235376d2d
hotel,Kantor Pemerintah Distrik,RKI,"F9X7+4PR, Unnamed Road, Kasira, Babo, Kabupaten Teluk Bintuni, Papua Bar. 98363","Unnamed Road, Kasira, Babo, Kabupaten Teluk Bintuni",PAPUA BARAT,98363.0,Indonesia,,-2.5021378,133.3642793,https://maps.google.com/?cid=0x0:0x2d95deec14dbd025
hotel,hotel,Babo,"Kabupaten Teluk Bintuni, Papua Bar.","Kabupaten Teluk Bintuni, Papua Bar.",PAPUA BARAT,,Indonesia,,-2.5410944,133.4455624,https://maps.google.com/?cid=0x0:0x4d33f662184232b6
hotel,hotel,Mahanaim Hotel dan Homestay Manokwari,"jln trikora kalidingin no 109, Wosi, Kec. Manokwari Bar., Kabupaten Manokwari, Papua Bar. 98312","Wosi, Kec. Manokwari Bar., Kabupaten Manokwari",PAPUA BARAT,98312.0,Indonesia,8124830147.0,-0.8699305,134.0471193,https://maps.google.com/?cid=0x0:0xeec6727952b4f3e6
hotel,hotel,Royal Mamberamo Hotel,"Jl. Dr. Sam Ratulangi No.35, Kp. Baru, Distrik Sorong, Kota Sorong, Papua Bar. 98413","Kp. Baru, Distrik Sorong, Kota Sorong",PAPUA BARAT,98413.0,Indonesia,951325666.0,-0.871573,131.250864,https://maps.google.com/?cid=0x0:0xb5e32e36111d42eb
hotel,hotel,Hotel Batanta,"46GW+RMC, Kp. Baru, Distrik Sorong, Kota Sorong, Papua Bar. 98411","Kp. Baru, Distrik Sorong, Kota Sorong",PAPUA BARAT,98411.0,Indonesia,,-0.8729338,131.246629,https://maps.google.com/?cid=0x0:0xd18e7775760a134a
hotel,Motel,Penginapan Nusantara babo,"FC5V+P7P, Nusei, Babo, Kabupaten Teluk Bintuni, Papua Bar. 98363","Nusei, Babo, Kabupaten Teluk Bintuni",PAPUA BARAT,98363.0,Indonesia,85240895224.0,-2.5406229,133.4431837,https://maps.google.com/?cid=0x0:0xd7e517235376d2d
hotel,Penginapan Dalam Ruangan,Penginapan Kaisar,"FC5V+P7P, Unnamed Road, Nusei, Babo, Kabupaten Teluk Bintuni, Papua Bar. 98363","Unnamed Road, Nusei, Babo, Kabupaten Teluk Bintuni",PAPUA BARAT,98363.0,Indonesia,85244268484.0,-2.540666,133.4432098,https://maps.google.com/?cid=0x0:0x9c4acc62419a9a1
hotel,Kantor Pemerintah Distrik,RKI,"F9X7+4PR, Unnamed Road, Kasira, Babo, Kabupaten Teluk Bintuni, Papua Bar. 98363","Unnamed Road, Kasira, Babo, Kabupaten Teluk Bintuni",PAPUA BARAT,98363.0,Indonesia,,-2.5021378,133.3642793,https://maps.google.com/?cid=0x0:0x2d95deec14dbd025
hotel,hotel,Hotel Modern Wimbro,"F9X7+45V, Wimbro, Babo, Kabupaten Teluk Bintuni, Papua Bar. 98363","Wimbro, Babo, Kabupaten Teluk Bintuni",PAPUA BARAT,98363.0,Indonesia,,-2.5021278,133.3629305,https://maps.google.com/?cid=0x0:0x2b3975efeef93b75
hotel,hotel,Penginapan 77 Bintuni,"VGHQ+Q4V, Jl.Raya, Bintuni Tim., Distrik Bintuni, Kabupaten Teluk Bintuni, Papua Bar. 98364","Jl.Raya, Bintuni Tim., Distrik Bintuni, Kabupaten Teluk Bintuni",PAPUA BARAT,98364.0,Indonesia,81248394605.0,-2.120519,133.5377896,https://maps.google.com/?cid=0x0:0x3eb7f613f5a810d5
hotel,hotel,Bintuni,"Bintuni Tim., Distrik Bintuni, Kabupaten Teluk Bintuni, Papua Bar.","Kabupaten Teluk Bintuni, Papua Bar.",PAPUA BARAT,,Indonesia,,-2.116667,133.533333,https://maps.google.com/?cid=0x0:0xb2abe6f637dc67dd
hotel,hotel,Steenkool Hotel  Resto,"WG53+P73, Wesiri, Distrik Bintuni, Kabupaten Teluk Bintuni, Papua Bar. 98364","Wesiri, Distrik Bintuni, Kabupaten Teluk Bintuni",PAPUA BARAT,98364.0,Indonesia,9553236660.0,-2.0907496,133.5031777,https://maps.google.com/?cid=0x0:0x69386e6d9549e17b
hotel,hotel,35 Inn,"476C+RFX, Jl. Ferry, Malawei, Distrik Sorong, Kota Sorong, Papua Bar. 98412","Jl. Ferry, Malawei, Distrik Sorong, Kota Sorong",PAPUA BARAT,98412.0,Indonesia,,-0.8878893,131.271243,https://maps.google.com/?cid=0x0:0xb276478752dcd2b2
hotel,hotel,Papua Bar. 98373,"Kabupaten Teluk Bintuni, Papua Bar.","Kabupaten Teluk Bintuni, Papua Bar.",PAPUA BARAT,,Indonesia,,-1.4464953,133.329466,https://maps.google.com/?cid=0x0:0xa7a537a3a20b81b4
hotel,hotel,Aston Sorong Hotel  Conference Center,"476V+J9X, Jl. Basuki Rahmat, Malaingkedi, Kec. Sorong Utara, Kota Sorong, Papua Bar. 98412","Jl. Basuki Rahmat, Malaingkedi, Kec. Sorong Utara, Kota Sorong",PAPUA BARAT,98412.0,Indonesia,81148500888.0,-0.8887467,131.2931592,https://maps.google.com/?cid=0x0:0x110a6a5f0a67a7f7
hotel,hotel,The Luxio Hotel,"Jl. Basuki Rahmat KM.12 Sorong, Malaingkedi, Kec. Sorong Utara, West Papua, Papua Bar. 98412","Malaingkedi, Kec. Sorong Utara, West Papua",PAPUA BARAT,98412.0,Indonesia,81344807777.0,-0.9040377,131.3236469,https://maps.google.com/?cid=0x0:0x4a37ba927853645b
hotel,hotel,The ignislo sorong hotel,"Basuki Rahmat Street KM 7 Sorong, Malaingkedi, Sorong Utara, Sorong City, West Papua 98412","Malaingkedi, Sorong Utara, Sorong City",PAPUA BARAT,98412.0,Indonesia,,-0.8885403,131.2925628,https://maps.google.com/?cid=0x0:0x9992b24f2542a546
hotel,hotel,Penginapan Kofiyau,"46MX+QV7, Unnamed Road, Klasuur, Distrik Sorong, Kota Sorong, Papua Bar. 98411","Unnamed Road, Klasuur, Distrik Sorong, Kota Sorong",PAPUA BARAT,98411.0,Indonesia,82398017326.0,-0.86559,131.2496721,https://maps.google.com/?cid=0x0:0xfc32a1234a9c5c47
hotel,hotel,Hotel HI,"38C2+2X4, Fak Fak Selatan, Distrik Fakfak, Kabupaten Fakfak, Papua Bar. 98651","Fak Fak Selatan, Distrik Fakfak, Kabupaten Fakfak",PAPUA BARAT,98651.0,Indonesia,8888695878.0,-2.9299949,132.3024558,https://maps.google.com/?cid=0x0:0xa6762a3966976144
hotel,hotel,Hotel Batanta,"46GW+RMC, Kp. Baru, Distrik Sorong, Kota Sorong, Papua Bar. 98411","Kp. Baru, Distrik Sorong, Kota Sorong",PAPUA BARAT,98411.0,Indonesia,,-0.8729338,131.246629,https://maps.google.com/?cid=0x0:0xd18e7775760a134a
hotel,hotel,O,"Jl. Jend. A. Yani No.27, Malabutor, Kecamatan Sorong Manoi, Kota Sorong, Papua Bar. 98412","Malabutor, Kecamatan Sorong Manoi, Kota Sorong",PAPUA BARAT,98412.0,Indonesia,,-0.8827427,131.2828186,https://maps.google.com/?cid=0x0:0x9aebba5ddda67893
hotel,hotel,Biscoop,"Kabupaten Teluk Bintuni, Papua Bar.","Kabupaten Teluk Bintuni, Papua Bar.",PAPUA BARAT,,Indonesia,,-1.4978011,133.5606946,https://maps.google.com/?cid=0x0:0x8de700464050f6ca
hotel,hotel,Soribo Hotel,"42HX+88F, Jl. Trikora Taman Ria, Wosi, Kec. Manokwari Bar., Kabupaten Manokwari, Papua Bar. 98312","Jl. Trikora Taman Ria, Wosi, Kec. Manokwari Bar., Kabupaten Manokwari",PAPUA BARAT,98312.0,Indonesia,82399358933.0,-0.8716912,134.0482957,https://maps.google.com/?cid=0x0:0x2fa30b65d0c34345
hotel,Hotel,Papua Barat bintuni,"M57F+HV4, Morombuy, Merdey, Kabupaten Teluk Bintuni, Papua Bar.","Kabupaten Teluk Bintuni, Papua Bar.",PAPUA BARAT,,Indonesia,,-1.3361154,133.1747162,https://maps.google.com/?cid=0x0:0x63dc827f989229fb
hotel,Rumah wisata,Jayapura,"M57F+HV4, Morombuy, Merdey, Kabupaten Teluk Bintuni, Papua Bar.","Kabupaten Teluk Bintuni, Papua Bar.",PAPUA BARAT,,Indonesia,,-1.3361154,133.1747162,https://maps.google.com/?cid=0x0:0x91b0e4e0b291748c
hotel,Hotel,Penginapan Sahabat,"VGQH+526, Bintuni Bar., Distrik Bintuni, Kabupaten Teluk Bintuni, Papua Bar. 98364","Bintuni Bar., Distrik Bintuni, Kabupaten Teluk Bintuni",PAPUA BARAT,98364.0,Indonesia,85243205131.0,-2.1120878,133.5275186,https://maps.google.com/?cid=0x0:0xfc8bcbe54f2c984f
hotel,Hotel,Penginapan Tahiti,"VGPH+GGW tahiti street, Bintuni Bar., Distrik Bintuni, Kabupaten Teluk Bintuni, Papua Bar. 98364","Bintuni Bar., Distrik Bintuni, Kabupaten Teluk Bintuni",PAPUA BARAT,98364.0,Indonesia,,-2.1136495,133.528814,https://maps.google.com/?cid=0x0:0xcb0620a2167525ec
hotel,hotel,Distrik Dataran Beimes,"Kabupaten Teluk Bintuni, Papua Bar.","Kabupaten Teluk Bintuni, Papua Bar.",PAPUA BARAT,,Indonesia,,-1.6164845,133.6599628,https://maps.google.com/?cid=0x0:0x8fa53e8e503789bf
hotel,Otoritas Pelabuhan,Bintuni,"Bintuni Bar., Distrik Bintuni, Kabupaten Teluk Bintuni, Papua Bar.","Kabupaten Teluk Bintuni, Papua Bar.",PAPUA BARAT,,Indonesia,,-2.11287,133.52649,https://maps.google.com/?cid=0x0:0x6831237378f07fbd
hotel,Hotel,Hotel 84 Bintuni,"VGPH+7WG, Bintuni Bar., Distrik Bintuni, Kabupaten Teluk Bintuni, Papua Bar. 98364","Bintuni Bar., Distrik Bintuni, Kabupaten Teluk Bintuni",PAPUA BARAT,98364.0,Indonesia,,-2.1143211,133.5298192,https://maps.google.com/?cid=0x0:0x3004d626c67149d3
hotel,Hotel,Hotel Alkahfi,"VGJP+8GJ, Bintuni Tim., Distrik Bintuni, Kabupaten Teluk Bintuni, Papua Bar. 98364","Bintuni Tim., Distrik Bintuni, Kabupaten Teluk Bintuni",PAPUA BARAT,98364.0,Indonesia,,-2.1191651,133.536272,https://maps.google.com/?cid=0x0:0x7e3dc39c16833745
hotel,Penginapan,Penginapan sentral,"Bintuni Tim., Distrik Bintuni, Kabupaten Teluk Bintuni, Papua Bar.","Kabupaten Teluk Bintuni, Papua Bar.",PAPUA BARAT,,Indonesia,,-2.1206799,133.5356734,https://maps.google.com/?cid=0x0:0xc06e52ff2da353c4
hotel,hotel,Penginapan Kabira,"Bintuni Tim., Distrik Bintuni, Kabupaten Teluk Bintuni, Papua Bar. 98364","Distrik Bintuni, Kabupaten Teluk Bintuni",PAPUA BARAT,98364.0,Indonesia,,-2.1181021,133.5336782,https://maps.google.com/?cid=0x0:0x6b4f5e6b8503872c
hotel,hotel,Penginapan 77 Bintuni,"VGHQ+Q4V, Jl.Raya, Bintuni Tim., Distrik Bintuni, Kabupaten Teluk Bintuni, Papua Bar. 98364","Jl.Raya, Bintuni Tim., Distrik Bintuni, Kabupaten Teluk Bintuni",PAPUA BARAT,98364.0,Indonesia,81248394605.0,-2.120519,133.5377896,https://maps.google.com/?cid=0x0:0x3eb7f613f5a810d5
hotel,hotel,Penginapan Kabira,"Bintuni Tim., Distrik Bintuni, Kabupaten Teluk Bintuni, Papua Bar. 98364","Distrik Bintuni, Kabupaten Teluk Bintuni",PAPUA BARAT,98364.0,Indonesia,,-2.1181021,133.5336782,https://maps.google.com/?cid=0x0:0x6b4f5e6b8503872c
hotel,hotel,Distrik Fafurwar,"Kabupaten Teluk Bintuni, Papua Bar.","Kabupaten Teluk Bintuni, Papua Bar.",PAPUA BARAT,,Indonesia,,-2.9160631,133.6759049,https://maps.google.com/?cid=0x0:0x78e970d7052f06c0
hotel,Otoritas Pelabuhan,Bintuni,"Bintuni Bar., Distrik Bintuni, Kabupaten Teluk Bintuni, Papua Bar.","Kabupaten Teluk Bintuni, Papua Bar.",PAPUA BARAT,,Indonesia,,-2.11287,133.52649,https://maps.google.com/?cid=0x0:0x6831237378f07fbd
hotel,Hotel,Hotel Alkahfi,"VGJP+8GJ, Bintuni Tim., Distrik Bintuni, Kabupaten Teluk Bintuni, Papua Bar. 98364","Bintuni Tim., Distrik Bintuni, Kabupaten Teluk Bintuni",PAPUA BARAT,98364.0,Indonesia,,-2.1191651,133.536272,https://maps.google.com/?cid=0x0:0x7e3dc39c16833745
hotel,hotel,Distrik Kaitaro,"Kabupaten Teluk Bintuni, Papua Bar.","Kabupaten Teluk Bintuni, Papua Bar.",PAPUA BARAT,,Indonesia,,-2.7432339,133.7496581,https://maps.google.com/?cid=0x0:0x18a3c86c44b96f44
hotel,hotel,Hotel HI,"38C2+2X4, Fak Fak Selatan, Distrik Fakfak, Kabupaten Fakfak, Papua Bar. 98651","Fak Fak Selatan, Distrik Fakfak, Kabupaten Fakfak",PAPUA BARAT,98651.0,Indonesia,8888695878.0,-2.9299949,132.3024558,https://maps.google.com/?cid=0x0:0xa6762a3966976144
hotel,hotel,O,"Jl. Jend. A. Yani No.27, Malabutor, Kecamatan Sorong Manoi, Kota Sorong, Papua Bar. 98412","Malabutor, Kecamatan Sorong Manoi, Kota Sorong",PAPUA BARAT,98412.0,Indonesia,,-0.8827427,131.2828186,https://maps.google.com/?cid=0x0:0x9aebba5ddda67893
hotel,hotel,Hotel Rama,"42JW+GWX, Jl. Trikora Rendani, Wosi, Kec. Manokwari Bar., Kabupaten Manokwari, Papua Bar. 98312","Jl. Trikora Rendani, Wosi, Kec. Manokwari Bar., Kabupaten Manokwari",PAPUA BARAT,98312.0,Indonesia,,-0.8686391,134.0473473,https://maps.google.com/?cid=0x0:0xbc8387651670c591
hotel,hotel,Mahanaim Hotel dan Homestay Manokwari,"jln trikora kalidingin no 109, Wosi, Kec. Manokwari Bar., Kabupaten Manokwari, Papua Bar. 98312","Wosi, Kec. Manokwari Bar., Kabupaten Manokwari",PAPUA BARAT,98312.0,Indonesia,8124830147.0,-0.8699305,134.0471193,https://maps.google.com/?cid=0x0:0xeec6727952b4f3e6
hotel,hotel,Swiss Belhotel Manokwari,"Jl. Yos Sudarso Manokwari No.8, Manokwari Bar., Kec. Manokwari Bar., Kabupaten Manokwari, Papua Bar. 98312","Manokwari Bar., Kec. Manokwari Bar., Kabupaten Manokwari",PAPUA BARAT,98312.0,Indonesia,8114854000.0,-0.8572937,134.0672125,https://maps.google.com/?cid=0x0:0x92c98d5e96ee2a8f
hotel,hotel,Hotel Triton,"Jl. Gn. Salju No.6, Manokwari Bar., Kec. Manokwari Bar., Kabupaten Manokwari, Papua Bar. 98311","Manokwari Bar., Kec. Manokwari Bar., Kabupaten Manokwari",PAPUA BARAT,98311.0,Indonesia,986212666.0,-0.8532727,134.068781,https://maps.google.com/?cid=0x0:0x6021b02b4fb20af
hotel,hotel,Oriestom Bay Hotel,"43F2+G29, Jl. Trikora Rendani, Wosi, Kec. Manokwari Bar., Kabupaten Manokwari, Papua Bar. 98312","Jl. Trikora Rendani, Wosi, Kec. Manokwari Bar., Kabupaten Manokwari",PAPUA BARAT,98312.0,Indonesia,81240197780.0,-0.8762108,134.0501061,https://maps.google.com/?cid=0x0:0x8bd50034329ebf97
hotel,hotel,Valdos Hotel Manokwari,"43J5+F44, Jl. Trikora Wosi, Wosi, Kec. Manokwari Bar., Kabupaten Manokwari, Papua Bar. 98312","Jl. Trikora Wosi, Wosi, Kec. Manokwari Bar., Kabupaten Manokwari",PAPUA BARAT,98312.0,Indonesia,986213044.0,-0.8688721,134.0578193,https://maps.google.com/?cid=0x0:0x60b28ba9ef2d716e
hotel,hotel,RedDoorz near Jalan Yos Sudarso Manokwari,"Jl. Pahlawan No.88, Sanggeng, Kec. Manokwari Bar., Kabupaten Manokwari, Papua Bar. 98312","Sanggeng, Kec. Manokwari Bar., Kabupaten Manokwari",PAPUA BARAT,98312.0,Indonesia,2180629666.0,-0.8661016,134.0598053,https://maps.google.com/?cid=0x0:0xd186d17c4dbb51c
hotel,hotel,Soribo Hotel,"42HX+88F, Jl. Trikora Taman Ria, Wosi, Kec. Manokwari Bar., Kabupaten Manokwari, Papua Bar. 98312","Jl. Trikora Taman Ria, Wosi, Kec. Manokwari Bar., Kabupaten Manokwari",PAPUA BARAT,98312.0,Indonesia,82399358933.0,-0.8716912,134.0482957,https://maps.google.com/?cid=0x0:0x2fa30b65d0c34345
hotel,hotel,New Calais Cafe,"Jl. Jend. Sudirman No.92, Padarni, Kec. Manokwari Bar., Kabupaten Manokwari, Papua Bar. 98312","Padarni, Kec. Manokwari Bar., Kabupaten Manokwari",PAPUA BARAT,98312.0,Indonesia,2180629666.0,-0.8561587,134.0698943,https://maps.google.com/?cid=0x0:0x7e171e315fe44cb2
hotel,hotel,Pulau Mansinam,"Mansinam, Kec. Manokwari Tim., Kabupaten Manokwari, Papua Bar.","Kabupaten Manokwari, Papua Bar.",PAPUA BARAT,,Indonesia,,-0.9141667,134.1083333,https://maps.google.com/?cid=0x0:0x94a3a276c08ef3eb
hotel,Hotel,Hotel Alkahfi,"VGJP+8GJ, Bintuni Tim., Distrik Bintuni, Kabupaten Teluk Bintuni, Papua Bar. 98364","Bintuni Tim., Distrik Bintuni, Kabupaten Teluk Bintuni",PAPUA BARAT,98364.0,Indonesia,,-2.1191651,133.536272,https://maps.google.com/?cid=0x0:0x7e3dc39c16833745
hotel,hotel,Kamundan,"Kec. Kokoda Utara, Kabupaten Sorong Selatan, Papua Bar.","Kabupaten Sorong Selatan, Papua Bar.",PAPUA BARAT,,Indonesia,,-1.9007247,132.4282484,https://maps.google.com/?cid=0x0:0xbbd5f56fd848d8d8
hotel,hotel,Hotel Rama,"42JW+GWX, Jl. Trikora Rendani, Wosi, Kec. Manokwari Bar., Kabupaten Manokwari, Papua Bar. 98312","Jl. Trikora Rendani, Wosi, Kec. Manokwari Bar., Kabupaten Manokwari",PAPUA BARAT,98312.0,Indonesia,,-0.8686391,134.0473473,https://maps.google.com/?cid=0x0:0xbc8387651670c591
hotel,hotel,Aimas Hotel And Convention Center,"Klamasen, Distrik Mariat, Kabupaten Sorong, Papua Bar. 98416","Distrik Mariat, Kabupaten Sorong",PAPUA BARAT,98416.0,Indonesia,8114887778.0,-0.9780957,131.3535192,https://maps.google.com/?cid=0x0:0x622ceae2f7c756cf
hotel,hotel,The ignislo sorong hotel,"Basuki Rahmat Street KM 7 Sorong, Malaingkedi, Sorong Utara, Sorong City, West Papua 98412","Malaingkedi, Sorong Utara, Sorong City",PAPUA BARAT,98412.0,Indonesia,,-0.8885403,131.2925628,https://maps.google.com/?cid=0x0:0x9992b24f2542a546
hotel,hotel,Royal Mamberamo Hotel,"Jl. Dr. Sam Ratulangi No.35, Kp. Baru, Distrik Sorong, Kota Sorong, Papua Bar. 98413","Kp. Baru, Distrik Sorong, Kota Sorong",PAPUA BARAT,98413.0,Indonesia,951325666.0,-0.871573,131.250864,https://maps.google.com/?cid=0x0:0xb5e32e36111d42eb
hotel,hotel,RAMA TRANSITO HOTEL,"42RV+276, Unnamed Road, Wosi, Kec. Manokwari Bar., Kabupaten Manokwari, Papua Bar. 98312","Unnamed Road, Wosi, Kec. Manokwari Bar., Kabupaten Manokwari",PAPUA BARAT,98312.0,Indonesia,82198250318.0,-0.8599684,134.0431297,https://maps.google.com/?cid=0x0:0x61e002737b3747f1
hotel,hotel,M Hotel Sorong,"Jl. Sungai Maruni, Klawuyuk, Kec. Sorong Utara, Kota Sorong, Papua Bar. 98416","Klawuyuk, Kec. Sorong Utara, Kota Sorong",PAPUA BARAT,98416.0,Indonesia,8114863111.0,-0.8858638,131.3227746,https://maps.google.com/?cid=0x0:0x9b9160ef43d35fd5
hotel,hotel,,,,PAPUA BARAT,,Indonesia,,,,https://maps.google.com/?cid=0x0:0x9b9160ef43d35fd5%7C/g/11clwlw14h%7Cid-ID
hotel,hotel,Penginapan Kofiyau,"46MX+QV7, Unnamed Road, Klasuur, Distrik Sorong, Kota Sorong, Papua Bar. 98411","Unnamed Road, Klasuur, Distrik Sorong, Kota Sorong",PAPUA BARAT,98411.0,Indonesia,82398017326.0,-0.86559,131.2496721,https://maps.google.com/?cid=0x0:0xfc32a1234a9c5c47
hotel,hotel,35 Inn,"476C+RFX, Jl. Ferry, Malawei, Distrik Sorong, Kota Sorong, Papua Bar. 98412","Jl. Ferry, Malawei, Distrik Sorong, Kota Sorong",PAPUA BARAT,98412.0,Indonesia,,-0.8878893,131.271243,https://maps.google.com/?cid=0x0:0xb276478752dcd2b2
hotel,hotel,Hotel Mratuwa Sesna,"G39P+JXC, Keyen, Kec. Teminabuan, Kabupaten Sorong Selatan, Papua Bar. 98454","Keyen, Kec. Teminabuan, Kabupaten Sorong Selatan",PAPUA BARAT,98454.0,Indonesia,81344070037.0,-1.4809318,132.0873892,https://maps.google.com/?cid=0x0:0xa5b0539434328bee
hotel,hotel,Steenkool Hotel  Resto,"WG53+P73, Wesiri, Distrik Bintuni, Kabupaten Teluk Bintuni, Papua Bar. 98364","Wesiri, Distrik Bintuni, Kabupaten Teluk Bintuni",PAPUA BARAT,98364.0,Indonesia,9553236660.0,-2.0907496,133.5031777,https://maps.google.com/?cid=0x0:0x69386e6d9549e17b
hotel,hotel,Hotel Rumberpon,"Jl. Selat Rumberpon No.10a, Remu Sel., Kecamatan Sorong Manoi, Kota Sorong, Papua Bar. 98412","Remu Sel., Kecamatan Sorong Manoi, Kota Sorong",PAPUA BARAT,98412.0,Indonesia,82238504121.0,-0.885408,131.2865376,https://maps.google.com/?cid=0x0:0xceee6e69b9e3daac
hotel,hotel,Hotel Marannu,"HRG9+842, Waisai, Kec. Waigeo Sel., Kabupaten Raja Ampat, Papua Bar. 98482","Waisai, Kec. Waigeo Sel., Kabupaten Raja Ampat",PAPUA BARAT,98482.0,Indonesia,81258290891.0,-0.4242312,130.8177684,https://maps.google.com/?cid=0x0:0x4bfcf0ab6dd8ceba
hotel,hotel,M Hotel Sorong,"Jl. Sungai Maruni, Klawuyuk, Kec. Sorong Utara, Kota Sorong, Papua Bar. 98416","Klawuyuk, Kec. Sorong Utara, Kota Sorong",PAPUA BARAT,98416.0,Indonesia,8114863111.0,-0.8858638,131.3227746,https://maps.google.com/?cid=0x0:0x9b9160ef43d35fd5
hotel,hotel,Papua Bar. 98363,"Kabupaten Teluk Bintuni, Papua Bar.","Kabupaten Teluk Bintuni, Papua Bar.",PAPUA BARAT,,Indonesia,,-2.6488329,133.7142484,https://maps.google.com/?cid=0x0:0x1d8cc8ce6f581e70
hotel,hotel,,,,PAPUA BARAT,,Indonesia,,,,https://maps.google.com/?cid=0x0:0x9b9160ef43d35fd5%7C/g/11clwlw14h%7Cid-ID
hotel,hotel,"Port Angeles, Washington 98363","Port Angeles, Washington, Amerika Serikat","Port Angeles, Washington, Amerika Serikat",PAPUA BARAT,,Indonesia,,48.0643594,-123.8115765,https://maps.google.com/?cid=0x0:0x68ccc2daedcd404f
hotel,hotel,O,"Jl. Jend. A. Yani No.27, Malabutor, Kecamatan Sorong Manoi, Kota Sorong, Papua Bar. 98412","Malabutor, Kecamatan Sorong Manoi, Kota Sorong",PAPUA BARAT,98412.0,Indonesia,,-0.8827427,131.2828186,https://maps.google.com/?cid=0x0:0x9aebba5ddda67893
hotel,hotel,Super 8 by Wyndham Port Angeles at Olympic National Park,"2104 E 1st St, Port Angeles, WA 98362, Amerika Serikat","Port Angeles, WA",PAPUA BARAT,98362.0,Indonesia,13605040362.0,48.1054422,-123.396332,https://maps.google.com/?cid=0x0:0x4b3063e80924f218
hotel,hotel,Red Lion Hotel Port Angeles Harbor,"221 N Lincoln St, Port Angeles, WA 98362, Amerika Serikat","Port Angeles, WA",PAPUA BARAT,98362.0,Indonesia,13604529215.0,48.1190298,-123.4285505,https://maps.google.com/?cid=0x0:0xf3eaeabbaa05aee7
hotel,hotel,Olympic Inn  Suites,"1510 E Front St, Port Angeles, WA 98362, Amerika Serikat","Port Angeles, WA",PAPUA BARAT,98362.0,Indonesia,13604524015.0,48.1088743,-123.406862,https://maps.google.com/?cid=0x0:0x6dedd29a21b7e283
hotel,hotel,Riviera Inn Motel,"535 E Front St, Port Angeles, WA 98362, Amerika Serikat","Port Angeles, WA",PAPUA BARAT,98362.0,Indonesia,13604173955.0,48.1166423,-123.4237243,https://maps.google.com/?cid=0x0:0x1572ae5887f7556b
hotel,hotel,Quality Inn Port Angeles - near Olympic National Park,"101 E 2nd St, Port Angeles, WA 98362, Amerika Serikat","Port Angeles, WA",PAPUA BARAT,98362.0,Indonesia,13602070375.0,48.1180143,-123.4346437,https://maps.google.com/?cid=0x0:0x87ccfc26233ad03f
hotel,hotel,Holiday Lodge,"1414 E 1st St, Port Angeles, WA 98362, Amerika Serikat","Port Angeles, WA",PAPUA BARAT,98362.0,Indonesia,13604579201.0,48.1088551,-123.409391,https://maps.google.com/?cid=0x0:0x29786ff8b5d1f21b
hotel,hotel,Terra Vista Chalet,"907 Herrick Rd, Port Angeles, WA 98363, Amerika Serikat","Port Angeles, WA",PAPUA BARAT,98363.0,Indonesia,13604065490.0,48.0477194,-123.5952983,https://maps.google.com/?cid=0x0:0xfa6bcb3b8cf9c7de
hotel,hotel,Fairmount Motel,"1137 US-101, Port Angeles, WA 98363, Amerika Serikat","Port Angeles, WA",PAPUA BARAT,98363.0,Indonesia,13604576113.0,48.1062455,-123.4697836,https://maps.google.com/?cid=0x0:0x78398573338d5eae
hotel,hotel,Royal Victorian Motel,"521 E 1st St, Port Angeles, WA 98362, Amerika Serikat","Port Angeles, WA",PAPUA BARAT,98362.0,Indonesia,13604528400.0,48.1159227,-123.4250185,https://maps.google.com/?cid=0x0:0x5880ea167381fa1d
hotel,hotel,Distrik Manimeri,"Kabupaten Teluk Bintuni, Papua Bar.","Kabupaten Teluk Bintuni, Papua Bar.",PAPUA BARAT,,Indonesia,,-2.0348077,133.7298305,https://maps.google.com/?cid=0x0:0xfcc9735ace17ac7
hotel,hotel,Aimas Hotel And Convention Center,"Klamasen, Distrik Mariat, Kabupaten Sorong, Papua Bar. 98416","Distrik Mariat, Kabupaten Sorong",PAPUA BARAT,98416.0,Indonesia,8114887778.0,-0.9780957,131.3535192,https://maps.google.com/?cid=0x0:0x622ceae2f7c756cf
hotel,hotel,Mahanaim Hotel dan Homestay Manokwari,"jln trikora kalidingin no 109, Wosi, Kec. Manokwari Bar., Kabupaten Manokwari, Papua Bar. 98312","Wosi, Kec. Manokwari Bar., Kabupaten Manokwari",PAPUA BARAT,98312.0,Indonesia,8124830147.0,-0.8699305,134.0471193,https://maps.google.com/?cid=0x0:0xeec6727952b4f3e6
hotel,hotel,,,,PAPUA BARAT,,Indonesia,,,,https://maps.google.com/?cid=0x0:0xe96b706fef94b3a2%7C/g/120jr49w%7Cid-ID
hotel,hotel,Hotel Mratuwa Sesna,"G39P+JXC, Keyen, Kec. Teminabuan, Kabupaten Sorong Selatan, Papua Bar. 98454","Keyen, Kec. Teminabuan, Kabupaten Sorong Selatan",PAPUA BARAT,98454.0,Indonesia,81344070037.0,-1.4809318,132.0873892,https://maps.google.com/?cid=0x0:0xa5b0539434328bee
hotel,hotel,Penginapan 77 Bintuni,"VGHQ+Q4V, Jl.Raya, Bintuni Tim., Distrik Bintuni, Kabupaten Teluk Bintuni, Papua Bar. 98364","Jl.Raya, Bintuni Tim., Distrik Bintuni, Kabupaten Teluk Bintuni",PAPUA BARAT,98364.0,Indonesia,81248394605.0,-2.120519,133.5377896,https://maps.google.com/?cid=0x0:0x3eb7f613f5a810d5
hotel,hotel,Steenkool Hotel  Resto,"WG53+P73, Wesiri, Distrik Bintuni, Kabupaten Teluk Bintuni, Papua Bar. 98364","Wesiri, Distrik Bintuni, Kabupaten Teluk Bintuni",PAPUA BARAT,98364.0,Indonesia,9553236660.0,-2.0907496,133.5031777,https://maps.google.com/?cid=0x0:0x69386e6d9549e17b
hotel,hotel,Penginapan Kabira,"Bintuni Tim., Distrik Bintuni, Kabupaten Teluk Bintuni, Papua Bar. 98364","Distrik Bintuni, Kabupaten Teluk Bintuni",PAPUA BARAT,98364.0,Indonesia,,-2.1181021,133.5336782,https://maps.google.com/?cid=0x0:0x6b4f5e6b8503872c
hotel,hotel,Lin Hotel,"Jl. Merdeka, Padarni, Kec. Manokwari Bar., Kabupaten Manokwari, Papua Bar. 98312","Padarni, Kec. Manokwari Bar., Kabupaten Manokwari",PAPUA BARAT,98312.0,Indonesia,9862210524.0,-0.8548281,134.0697853,https://maps.google.com/?cid=0x0:0xed579408172519e3
hotel,hotel,35 Inn,"476C+RFX, Jl. Ferry, Malawei, Distrik Sorong, Kota Sorong, Papua Bar. 98412","Jl. Ferry, Malawei, Distrik Sorong, Kota Sorong",PAPUA BARAT,98412.0,Indonesia,,-0.8878893,131.271243,https://maps.google.com/?cid=0x0:0xb276478752dcd2b2
hotel,hotel,Mangga Hotel,"Jl. Bhayangkara No.1, Manokwari Tim., Kec. Manokwari Bar., Kabupaten Manokwari, Papua Bar. 98312","Manokwari Tim., Kec. Manokwari Bar., Kabupaten Manokwari",PAPUA BARAT,98312.0,Indonesia,62986211693.0,-0.870176,134.0778405,https://maps.google.com/?cid=0x0:0x3d2ada72a869c631
hotel,hotel,Aimas Hotel And Convention Center,"Klamasen, Distrik Mariat, Kabupaten Sorong, Papua Bar. 98416","Distrik Mariat, Kabupaten Sorong",PAPUA BARAT,98416.0,Indonesia,8114887778.0,-0.9780957,131.3535192,https://maps.google.com/?cid=0x0:0x622ceae2f7c756cf
hotel,hotel,Masyeta,"Masyeta, Kabupaten Teluk Bintuni, Papua Bar.","Kabupaten Teluk Bintuni, Papua Bar.",PAPUA BARAT,,Indonesia,,-1.479691,133.1359542,https://maps.google.com/?cid=0x0:0xd119356286bbe217
hotel,hotel,Mahanaim Hotel dan Homestay Manokwari,"jln trikora kalidingin no 109, Wosi, Kec. Manokwari Bar., Kabupaten Manokwari, Papua Bar. 98312","Wosi, Kec. Manokwari Bar., Kabupaten Manokwari",PAPUA BARAT,98312.0,Indonesia,8124830147.0,-0.8699305,134.0471193,https://maps.google.com/?cid=0x0:0xeec6727952b4f3e6
hotel,hotel,Mangga Hotel,"Jl. Bhayangkara No.1, Manokwari Tim., Kec. Manokwari Bar., Kabupaten Manokwari, Papua Bar. 98312","Manokwari Tim., Kec. Manokwari Bar., Kabupaten Manokwari",PAPUA BARAT,98312.0,Indonesia,62986211693.0,-0.870176,134.0778405,https://maps.google.com/?cid=0x0:0x3d2ada72a869c631
hotel,hotel,Hotel Batanta,"46GW+RMC, Kp. Baru, Distrik Sorong, Kota Sorong, Papua Bar. 98411","Kp. Baru, Distrik Sorong, Kota Sorong",PAPUA BARAT,98411.0,Indonesia,,-0.8729338,131.246629,https://maps.google.com/?cid=0x0:0xd18e7775760a134a
hotel,hotel,Masyeta,"Kabupaten Teluk Bintuni, Papua Bar.","Kabupaten Teluk Bintuni, Papua Bar.",PAPUA BARAT,,Indonesia,,-1.5130947,132.941698,https://maps.google.com/?cid=0x0:0x934a864707b4525e
hotel,Rumah wisata,Jayapura,"M57F+HV4, Morombuy, Merdey, Kabupaten Teluk Bintuni, Papua Bar.","Kabupaten Teluk Bintuni, Papua Bar.",PAPUA BARAT,,Indonesia,,-1.3361154,133.1747162,https://maps.google.com/?cid=0x0:0x91b0e4e0b291748c
hotel,Hotel,Papua Barat bintuni,"M57F+HV4, Morombuy, Merdey, Kabupaten Teluk Bintuni, Papua Bar.","Kabupaten Teluk Bintuni, Papua Bar.",PAPUA BARAT,,Indonesia,,-1.3361154,133.1747162,https://maps.google.com/?cid=0x0:0x63dc827f989229fb
hotel,hotel,Merdey,"Merdey, Kabupaten Teluk Bintuni, Papua Bar.","Kabupaten Teluk Bintuni, Papua Bar.",PAPUA BARAT,,Indonesia,,-1.5754791,133.3101484,https://maps.google.com/?cid=0x0:0x5d88d2e6117bad19
hotel,hotel,Aimas Hotel And Convention Center,"Klamasen, Distrik Mariat, Kabupaten Sorong, Papua Bar. 98416","Distrik Mariat, Kabupaten Sorong",PAPUA BARAT,98416.0,Indonesia,8114887778.0,-0.9780957,131.3535192,https://maps.google.com/?cid=0x0:0x622ceae2f7c756cf
hotel,hotel,Mahanaim Hotel dan Homestay Manokwari,"jln trikora kalidingin no 109, Wosi, Kec. Manokwari Bar., Kabupaten Manokwari, Papua Bar. 98312","Wosi, Kec. Manokwari Bar., Kabupaten Manokwari",PAPUA BARAT,98312.0,Indonesia,8124830147.0,-0.8699305,134.0471193,https://maps.google.com/?cid=0x0:0xeec6727952b4f3e6
hotel,hotel,,,,PAPUA BARAT,,Indonesia,,,,https://maps.google.com/?cid=0x0:0xbf6ecabef3414744%7C/g/12hnlthc5%7Cid-ID
hotel,hotel,Aston Sorong Hotel  Conference Center,"476V+J9X, Jl. Basuki Rahmat, Malaingkedi, Kec. Sorong Utara, Kota Sorong, Papua Bar. 98412","Jl. Basuki Rahmat, Malaingkedi, Kec. Sorong Utara, Kota Sorong",PAPUA BARAT,98412.0,Indonesia,81148500888.0,-0.8887467,131.2931592,https://maps.google.com/?cid=0x0:0x110a6a5f0a67a7f7
hotel,hotel,The ignislo sorong hotel,"Basuki Rahmat Street KM 7 Sorong, Malaingkedi, Sorong Utara, Sorong City, West Papua 98412","Malaingkedi, Sorong Utara, Sorong City",PAPUA BARAT,98412.0,Indonesia,,-0.8885403,131.2925628,https://maps.google.com/?cid=0x0:0x9992b24f2542a546
hotel,hotel,M Hotel Sorong,"Jl. Sungai Maruni, Klawuyuk, Kec. Sorong Utara, Kota Sorong, Papua Bar. 98416","Klawuyuk, Kec. Sorong Utara, Kota Sorong",PAPUA BARAT,98416.0,Indonesia,8114863111.0,-0.8858638,131.3227746,https://maps.google.com/?cid=0x0:0x9b9160ef43d35fd5
hotel,hotel,,,,PAPUA BARAT,,Indonesia,,,,https://maps.google.com/?cid=0x0:0x9b9160ef43d35fd5%7C/g/11clwlw14h%7Cid-ID
hotel,hotel,JESONE Hotel  Resto,"Jl. Basuki Rahmat No.KM 7, South Remu, Sorong Manoi, Sorong City, West Papua 98412","South Remu, Sorong Manoi, Sorong City",PAPUA BARAT,98412.0,Indonesia,82198134499.0,-0.8859307,131.2879742,https://maps.google.com/?cid=0x0:0xf06b0978fb75d6f1
hotel,hotel,Darefan Hotel Sorong,"Jl. Selat Morotai, Remu Sel., Kecamatan Sorong Manoi, Kota Sorong, Papua Bar. 98412","Remu Sel., Kecamatan Sorong Manoi, Kota Sorong",PAPUA BARAT,98412.0,Indonesia,8114868887.0,-0.8877595,131.2893739,https://maps.google.com/?cid=0x0:0x5709bb2ac9cbd24
hotel,hotel,Hotel HI,"38C2+2X4, Fak Fak Selatan, Distrik Fakfak, Kabupaten Fakfak, Papua Bar. 98651","Fak Fak Selatan, Distrik Fakfak, Kabupaten Fakfak",PAPUA BARAT,98651.0,Indonesia,8888695878.0,-2.9299949,132.3024558,https://maps.google.com/?cid=0x0:0xa6762a3966976144
hotel,hotel,Hotel Batanta,"46GW+RMC, Kp. Baru, Distrik Sorong, Kota Sorong, Papua Bar. 98411","Kp. Baru, Distrik Sorong, Kota Sorong",PAPUA BARAT,98411.0,Indonesia,,-0.8729338,131.246629,https://maps.google.com/?cid=0x0:0xd18e7775760a134a
hotel,hotel,O,"Jl. Jend. A. Yani No.27, Malabutor, Kecamatan Sorong Manoi, Kota Sorong, Papua Bar. 98412","Malabutor, Kecamatan Sorong Manoi, Kota Sorong",PAPUA BARAT,98412.0,Indonesia,,-0.8827427,131.2828186,https://maps.google.com/?cid=0x0:0x9aebba5ddda67893
hotel,hotel,My hotel,"476V+4RR, Malaingkedi, Kec. Sorong Utara, Kota Sorong, Papua Bar. 98412","Malaingkedi, Kec. Sorong Utara, Kota Sorong",PAPUA BARAT,98412.0,Indonesia,,-0.8896471,131.2945287,https://maps.google.com/?cid=0x0:0xb3bbff10842298a6
hotel,hotel,Moskona Bar.,"Kabupaten Teluk Bintuni, Papua Bar.","Kabupaten Teluk Bintuni, Papua Bar.",PAPUA BARAT,,Indonesia,,-1.7525507,132.6293446,https://maps.google.com/?cid=0x0:0x1103cd5643d830c8
hotel,hotel,Mahanaim Hotel dan Homestay Manokwari,"jln trikora kalidingin no 109, Wosi, Kec. Manokwari Bar., Kabupaten Manokwari, Papua Bar. 98312","Wosi, Kec. Manokwari Bar., Kabupaten Manokwari",PAPUA BARAT,98312.0,Indonesia,8124830147.0,-0.8699305,134.0471193,https://maps.google.com/?cid=0x0:0xeec6727952b4f3e6
hotel,hotel,hotel oriestom,"43PG+J4M, Jl. Merdeka, Manokwari Tim., Kec. Manokwari Bar., Kabupaten Manokwari, Papua Bar. 98312","Jl. Merdeka, Manokwari Tim., Kec. Manokwari Bar., Kabupaten Manokwari",PAPUA BARAT,98312.0,Indonesia,62986211519.0,-0.8634113,134.0752839,https://maps.google.com/?cid=0x0:0x215631a03bde85f8
hotel,hotel,Fajar Roon Hotel,"Jl. Trikora Wosi, Wosi, Kec. Manokwari Bar., Kabupaten Manokwari, Papua Bar. 98312","Wosi, Kec. Manokwari Bar., Kabupaten Manokwari",PAPUA BARAT,98312.0,Indonesia,85333112338.0,-0.8680273,134.0564644,https://maps.google.com/?cid=0x0:0xec6cf3d20bba5444
hotel,hotel,Mangga Hotel,"Jl. Bhayangkara No.1, Manokwari Tim., Kec. Manokwari Bar., Kabupaten Manokwari, Papua Bar. 98312","Manokwari Tim., Kec. Manokwari Bar., Kabupaten Manokwari",PAPUA BARAT,98312.0,Indonesia,62986211693.0,-0.870176,134.0778405,https://maps.google.com/?cid=0x0:0x3d2ada72a869c631
hotel,hotel,Steenkool Hotel  Resto,"WG53+P73, Wesiri, Distrik Bintuni, Kabupaten Teluk Bintuni, Papua Bar. 98364","Wesiri, Distrik Bintuni, Kabupaten Teluk Bintuni",PAPUA BARAT,98364.0,Indonesia,9553236660.0,-2.0907496,133.5031777,https://maps.google.com/?cid=0x0:0x69386e6d9549e17b
hotel,Otoritas Pelabuhan,Bintuni,"Bintuni Bar., Distrik Bintuni, Kabupaten Teluk Bintuni, Papua Bar.","Kabupaten Teluk Bintuni, Papua Bar.",PAPUA BARAT,,Indonesia,,-2.11287,133.52649,https://maps.google.com/?cid=0x0:0x6831237378f07fbd
hotel,hotel,Distrik Moskona Selatan,"Kabupaten Teluk Bintuni, Papua Bar.","Kabupaten Teluk Bintuni, Papua Bar.",PAPUA BARAT,,Indonesia,,-1.6286738,132.9546549,https://maps.google.com/?cid=0x0:0xef5ad832b0358efc
hotel,hotel,Frances Homestay,"CJF8+H7, Kurkapa, Kabupaten Raja Ampat, Papua Bar.","Kabupaten Raja Ampat, Papua Bar.",PAPUA BARAT,,Indonesia,,-0.5737089,130.6207701,https://maps.google.com/?cid=0x0:0x2da7e8e00eb3b56a
hotel,hotel,JESONE Hotel  Resto,"Jl. Basuki Rahmat No.KM 7, South Remu, Sorong Manoi, Sorong City, West Papua 98412","South Remu, Sorong Manoi, Sorong City",PAPUA BARAT,98412.0,Indonesia,82198134499.0,-0.8859307,131.2879742,https://maps.google.com/?cid=0x0:0xf06b0978fb75d6f1
hotel,Otoritas Pelabuhan,Bintuni,"Bintuni Bar., Distrik Bintuni, Kabupaten Teluk Bintuni, Papua Bar.","Kabupaten Teluk Bintuni, Papua Bar.",PAPUA BARAT,,Indonesia,,-2.11287,133.52649,https://maps.google.com/?cid=0x0:0x6831237378f07fbd
hotel,hotel,Steenkool Hotel  Resto,"WG53+P73, Wesiri, Distrik Bintuni, Kabupaten Teluk Bintuni, Papua Bar. 98364","Wesiri, Distrik Bintuni, Kabupaten Teluk Bintuni",PAPUA BARAT,98364.0,Indonesia,9553236660.0,-2.0907496,133.5031777,https://maps.google.com/?cid=0x0:0x69386e6d9549e17b
hotel,Hotel,Hotel Alkahfi,"VGJP+8GJ, Bintuni Tim., Distrik Bintuni, Kabupaten Teluk Bintuni, Papua Bar. 98364","Bintuni Tim., Distrik Bintuni, Kabupaten Teluk Bintuni",PAPUA BARAT,98364.0,Indonesia,,-2.1191651,133.536272,https://maps.google.com/?cid=0x0:0x7e3dc39c16833745
hotel,Hotel,Hotel 84 Bintuni,"VGPH+7WG, Bintuni Bar., Distrik Bintuni, Kabupaten Teluk Bintuni, Papua Bar. 98364","Bintuni Bar., Distrik Bintuni, Kabupaten Teluk Bintuni",PAPUA BARAT,98364.0,Indonesia,,-2.1143211,133.5298192,https://maps.google.com/?cid=0x0:0x3004d626c67149d3
hotel,hotel,Distrik Moskona Timur,"Kabupaten Teluk Bintuni, Papua Bar.","Kabupaten Teluk Bintuni, Papua Bar.",PAPUA BARAT,,Indonesia,,-1.311813,132.9806087,https://maps.google.com/?cid=0x0:0x97750e766a777e76
hotel,hotel,Mahanaim Hotel dan Homestay Manokwari,"jln trikora kalidingin no 109, Wosi, Kec. Manokwari Bar., Kabupaten Manokwari, Papua Bar. 98312","Wosi, Kec. Manokwari Bar., Kabupaten Manokwari",PAPUA BARAT,98312.0,Indonesia,8124830147.0,-0.8699305,134.0471193,https://maps.google.com/?cid=0x0:0xeec6727952b4f3e6
hotel,hotel,Aston Niu Manokwari,"Sogun Hill, Jl. Drs Esau Sesa No.3 Blok B, Sowi, Distrik Manokwari, Kabupaten Manokwari, Papua Bar. 98315","Jl. Drs Esau Sesa No.3 Blok B, Sowi, Distrik Manokwari, Kabupaten Manokwari",PAPUA BARAT,98315.0,Indonesia,81369878787.0,-0.8978109,134.0416499,https://maps.google.com/?cid=0x0:0xe96b706fef94b3a2
hotel,hotel,Aston Sorong Hotel  Conference Center,"476V+J9X, Jl. Basuki Rahmat, Malaingkedi, Kec. Sorong Utara, Kota Sorong, Papua Bar. 98412","Jl. Basuki Rahmat, Malaingkedi, Kec. Sorong Utara, Kota Sorong",PAPUA BARAT,98412.0,Indonesia,81148500888.0,-0.8887467,131.2931592,https://maps.google.com/?cid=0x0:0x110a6a5f0a67a7f7
hotel,hotel,The ignislo sorong hotel,"Basuki Rahmat Street KM 7 Sorong, Malaingkedi, Sorong Utara, Sorong City, West Papua 98412","Malaingkedi, Sorong Utara, Sorong City",PAPUA BARAT,98412.0,Indonesia,,-0.8885403,131.2925628,https://maps.google.com/?cid=0x0:0x9992b24f2542a546
hotel,hotel,,,,PAPUA BARAT,,Indonesia,,,,https://maps.google.com/?cid=0x0:0x9b9160ef43d35fd5%7C/g/11clwlw14h%7Cid-ID
hotel,hotel,M Hotel Sorong,"Jl. Sungai Maruni, Klawuyuk, Kec. Sorong Utara, Kota Sorong, Papua Bar. 98416","Klawuyuk, Kec. Sorong Utara, Kota Sorong",PAPUA BARAT,98416.0,Indonesia,8114863111.0,-0.8858638,131.3227746,https://maps.google.com/?cid=0x0:0x9b9160ef43d35fd5
hotel,hotel,Penginapan Kofiyau,"46MX+QV7, Unnamed Road, Klasuur, Distrik Sorong, Kota Sorong, Papua Bar. 98411","Unnamed Road, Klasuur, Distrik Sorong, Kota Sorong",PAPUA BARAT,98411.0,Indonesia,82398017326.0,-0.86559,131.2496721,https://maps.google.com/?cid=0x0:0xfc32a1234a9c5c47
hotel,hotel,JESONE Hotel  Resto,"Jl. Basuki Rahmat No.KM 7, South Remu, Sorong Manoi, Sorong City, West Papua 98412","South Remu, Sorong Manoi, Sorong City",PAPUA BARAT,98412.0,Indonesia,82198134499.0,-0.8859307,131.2879742,https://maps.google.com/?cid=0x0:0xf06b0978fb75d6f1
hotel,hotel,Fajar Roon Hotel,"Jl. Trikora Wosi, Wosi, Kec. Manokwari Bar., Kabupaten Manokwari, Papua Bar. 98312","Wosi, Kec. Manokwari Bar., Kabupaten Manokwari",PAPUA BARAT,98312.0,Indonesia,85333112338.0,-0.8680273,134.0564644,https://maps.google.com/?cid=0x0:0xec6cf3d20bba5444
hotel,hotel,Hotel Batanta,"46GW+RMC, Kp. Baru, Distrik Sorong, Kota Sorong, Papua Bar. 98411","Kp. Baru, Distrik Sorong, Kota Sorong",PAPUA BARAT,98411.0,Indonesia,,-0.8729338,131.246629,https://maps.google.com/?cid=0x0:0xd18e7775760a134a
hotel,hotel,O,"Jl. Jend. A. Yani No.27, Malabutor, Kecamatan Sorong Manoi, Kota Sorong, Papua Bar. 98412","Malabutor, Kecamatan Sorong Manoi, Kota Sorong",PAPUA BARAT,98412.0,Indonesia,,-0.8827427,131.2828186,https://maps.google.com/?cid=0x0:0x9aebba5ddda67893
hotel,hotel,Royal Mamberamo Hotel,"Jl. Dr. Sam Ratulangi No.35, Kp. Baru, Distrik Sorong, Kota Sorong, Papua Bar. 98413","Kp. Baru, Distrik Sorong, Kota Sorong",PAPUA BARAT,98413.0,Indonesia,951325666.0,-0.871573,131.250864,https://maps.google.com/?cid=0x0:0xb5e32e36111d42eb
hotel,hotel,Soribo Hotel,"42HX+88F, Jl. Trikora Taman Ria, Wosi, Kec. Manokwari Bar., Kabupaten Manokwari, Papua Bar. 98312","Jl. Trikora Taman Ria, Wosi, Kec. Manokwari Bar., Kabupaten Manokwari",PAPUA BARAT,98312.0,Indonesia,82399358933.0,-0.8716912,134.0482957,https://maps.google.com/?cid=0x0:0x2fa30b65d0c34345
hotel,hotel,Moskona Utara,"Kabupaten Teluk Bintuni, Papua Bar.","Kabupaten Teluk Bintuni, Papua Bar.",PAPUA BARAT,,Indonesia,,-1.368612,132.7270105,https://maps.google.com/?cid=0x0:0x53c35f8f415bb69b
hotel,hotel,Mahanaim Hotel dan Homestay Manokwari,"jln trikora kalidingin no 109, Wosi, Kec. Manokwari Bar., Kabupaten Manokwari, Papua Bar. 98312","Wosi, Kec. Manokwari Bar., Kabupaten Manokwari",PAPUA BARAT,98312.0,Indonesia,8124830147.0,-0.8699305,134.0471193,https://maps.google.com/?cid=0x0:0xeec6727952b4f3e6
hotel,hotel,Aston Niu Manokwari,"Sogun Hill, Jl. Drs Esau Sesa No.3 Blok B, Sowi, Distrik Manokwari, Kabupaten Manokwari, Papua Bar. 98315","Jl. Drs Esau Sesa No.3 Blok B, Sowi, Distrik Manokwari, Kabupaten Manokwari",PAPUA BARAT,98315.0,Indonesia,81369878787.0,-0.8978109,134.0416499,https://maps.google.com/?cid=0x0:0xe96b706fef94b3a2
hotel,hotel,Aston Sorong Hotel  Conference Center,"476V+J9X, Jl. Basuki Rahmat, Malaingkedi, Kec. Sorong Utara, Kota Sorong, Papua Bar. 98412","Jl. Basuki Rahmat, Malaingkedi, Kec. Sorong Utara, Kota Sorong",PAPUA BARAT,98412.0,Indonesia,81148500888.0,-0.8887467,131.2931592,https://maps.google.com/?cid=0x0:0x110a6a5f0a67a7f7
hotel,hotel,Penginapan Kofiyau,"46MX+QV7, Unnamed Road, Klasuur, Distrik Sorong, Kota Sorong, Papua Bar. 98411","Unnamed Road, Klasuur, Distrik Sorong, Kota Sorong",PAPUA BARAT,98411.0,Indonesia,82398017326.0,-0.86559,131.2496721,https://maps.google.com/?cid=0x0:0xfc32a1234a9c5c47
hotel,hotel,Fajar Roon Hotel,"Jl. Trikora Wosi, Wosi, Kec. Manokwari Bar., Kabupaten Manokwari, Papua Bar. 98312","Wosi, Kec. Manokwari Bar., Kabupaten Manokwari",PAPUA BARAT,98312.0,Indonesia,85333112338.0,-0.8680273,134.0564644,https://maps.google.com/?cid=0x0:0xec6cf3d20bba5444
hotel,hotel,Hotel Batanta,"46GW+RMC, Kp. Baru, Distrik Sorong, Kota Sorong, Papua Bar. 98411","Kp. Baru, Distrik Sorong, Kota Sorong",PAPUA BARAT,98411.0,Indonesia,,-0.8729338,131.246629,https://maps.google.com/?cid=0x0:0xd18e7775760a134a
hotel,hotel,O,"Jl. Jend. A. Yani No.27, Malabutor, Kecamatan Sorong Manoi, Kota Sorong, Papua Bar. 98412","Malabutor, Kecamatan Sorong Manoi, Kota Sorong",PAPUA BARAT,98412.0,Indonesia,,-0.8827427,131.2828186,https://maps.google.com/?cid=0x0:0x9aebba5ddda67893
hotel,hotel,Steenkool Hotel  Resto,"WG53+P73, Wesiri, Distrik Bintuni, Kabupaten Teluk Bintuni, Papua Bar. 98364","Wesiri, Distrik Bintuni, Kabupaten Teluk Bintuni",PAPUA BARAT,98364.0,Indonesia,9553236660.0,-2.0907496,133.5031777,https://maps.google.com/?cid=0x0:0x69386e6d9549e17b
hotel,Otoritas Pelabuhan,Bintuni,"Bintuni Bar., Distrik Bintuni, Kabupaten Teluk Bintuni, Papua Bar.","Kabupaten Teluk Bintuni, Papua Bar.",PAPUA BARAT,,Indonesia,,-2.11287,133.52649,https://maps.google.com/?cid=0x0:0x6831237378f07fbd
hotel,Penginapan,Penginapan ABDI DALEM,"C682+G5M, Materabu Jaya, Kec. Sumuri, Kabupaten Teluk Bintuni, Papua Bar. 98363","Materabu Jaya, Kec. Sumuri, Kabupaten Teluk Bintuni",PAPUA BARAT,98363.0,Indonesia,82198006088.0,-2.5836747,133.2004218,https://maps.google.com/?cid=0x0:0xefe90440850ea4bd
hotel,hotel,Saengga,"Kec. Sumuri, Kabupaten Teluk Bintuni, Papua Bar.","Kabupaten Teluk Bintuni, Papua Bar.",PAPUA BARAT,,Indonesia,,-2.5122975,133.1165621,https://maps.google.com/?cid=0x0:0xe50ca1b18a711d41
hotel,hotel,Agoda,"Forada, Kec. Sumuri, Kabupaten Teluk Bintuni, Papua Bar.","Kabupaten Teluk Bintuni, Papua Bar.",PAPUA BARAT,,Indonesia,,-2.5666669,133.15,https://maps.google.com/?cid=0x0:0x27e49a8398d0f44f
hotel,hotel,Distrik Tembuni,"Kabupaten Teluk Bintuni, Papua Bar.","Kabupaten Teluk Bintuni, Papua Bar.",PAPUA BARAT,,Indonesia,,-1.9799814,133.4065009,https://maps.google.com/?cid=0x0:0xdf538382e229efa6
hotel,hotel,Penginapan 77 Bintuni,"VGHQ+Q4V, Jl.Raya, Bintuni Tim., Distrik Bintuni, Kabupaten Teluk Bintuni, Papua Bar. 98364","Jl.Raya, Bintuni Tim., Distrik Bintuni, Kabupaten Teluk Bintuni",PAPUA BARAT,98364.0,Indonesia,81248394605.0,-2.120519,133.5377896,https://maps.google.com/?cid=0x0:0x3eb7f613f5a810d5
hotel,hotel,Steenkool Hotel  Resto,"WG53+P73, Wesiri, Distrik Bintuni, Kabupaten Teluk Bintuni, Papua Bar. 98364","Wesiri, Distrik Bintuni, Kabupaten Teluk Bintuni",PAPUA BARAT,98364.0,Indonesia,9553236660.0,-2.0907496,133.5031777,https://maps.google.com/?cid=0x0:0x69386e6d9549e17b
hotel,hotel,Hotel Batanta,"46GW+RMC, Kp. Baru, Distrik Sorong, Kota Sorong, Papua Bar. 98411","Kp. Baru, Distrik Sorong, Kota Sorong",PAPUA BARAT,98411.0,Indonesia,,-0.8729338,131.246629,https://maps.google.com/?cid=0x0:0xd18e7775760a134a
hotel,Rumah Sakit,Tembuni Birth Center,"Jl. Kemang Timur VIII No.L 13, Bangka, Kec. Mampang Prpt., Kota Jakarta Selatan, Daerah Khusus Ibukota Jakarta 12730","Bangka, Kec. Mampang Prpt., Kota Jakarta Selatan",PAPUA BARAT,12730.0,Indonesia,2122715222.0,-6.2661168,106.8216999,https://maps.google.com/?cid=0x0:0xa477f96c073156d2
hotel,hotel,Zen Rooms Kemang Timur,"Jl. Kemang Timur No.46 A, RT.9/RW.3, Bangka, Kec. Mampang Prpt., Kota Jakarta Selatan, Daerah Khusus Ibukota Jakarta 12730","RT.9/RW.3, Bangka, Kec. Mampang Prpt., Kota Jakarta Selatan",PAPUA BARAT,12730.0,Indonesia,,-6.2657239,106.82406,https://maps.google.com/?cid=0x0:0x7b9cddd625a42b51
hotel,hotel,Royal Mamberamo Hotel,"Jl. Dr. Sam Ratulangi No.35, Kp. Baru, Distrik Sorong, Kota Sorong, Papua Bar. 98413","Kp. Baru, Distrik Sorong, Kota Sorong",PAPUA BARAT,98413.0,Indonesia,951325666.0,-0.871573,131.250864,https://maps.google.com/?cid=0x0:0xb5e32e36111d42eb
hotel,hotel,MAI Residence,"Blok F No. 8, Jl. Kemang Timur Dalam, Bangka, Jakarta, Kota Jakarta Selatan, Daerah Khusus Ibukota Jakarta 12730","Jl. Kemang Timur Dalam, Bangka, Jakarta, Kota Jakarta Selatan",PAPUA BARAT,12730.0,Indonesia,816725537.0,-6.2670838,106.8215711,https://maps.google.com/?cid=0x0:0x8112b4896935ae99
hotel,hotel,Kemang Quarter,"Jl. Kemang Dalam IIIB No.12 Blok J, RT.4/RW.3, Bangka, Kec. Mampang Prpt., Kota Jakarta Selatan, Daerah Khusus Ibukota Jakarta 12730","RT.4/RW.3, Bangka, Kec. Mampang Prpt., Kota Jakarta Selatan",PAPUA BARAT,12730.0,Indonesia,82118214132.0,-6.2708771,106.8210652,https://maps.google.com/?cid=0x0:0x862d648c1d0c04fb
hotel,hotel,2510 Urban Living,"Jl. Kemang Raya No.39, RT.9/RW.1, Bangka, Kec. Mampang Prpt., Kota Jakarta Selatan, Daerah Khusus Ibukota Jakarta 12730","RT.9/RW.1, Bangka, Kec. Mampang Prpt., Kota Jakarta Selatan",PAPUA BARAT,12730.0,Indonesia,2171791662.0,-6.262405,106.816192,https://maps.google.com/?cid=0x0:0x715288c82754b8cb
hotel,hotel,RedDoorz @ Kemang Dalam,"Jl. Kemang Dalam III, Bangka, Kec. Mampang Prpt., Kota Jakarta Selatan, Daerah Khusus Ibukota Jakarta 12730","Bangka, Kec. Mampang Prpt., Kota Jakarta Selatan",PAPUA BARAT,12730.0,Indonesia,895417300072.0,-6.2710628,106.820736,https://maps.google.com/?cid=0x0:0x340773562911985b
hotel,hotel,Cove Odilia Suite - Coliving Kemang,"Jl. Kemang Timur Raya No. 90A, Pejaten Bar., Ps. Minggu, Kota Jakarta Selatan, Daerah, Khusus Ibukota Jakarta, Kota Jakarta Selatan, Daerah Khusus Ibukota Jakarta 12730","Pejaten Bar., Ps. Minggu, Kota Jakarta Selatan, Daerah, Khusus Ibukota Jakarta, Kota Jakarta Selatan",PAPUA BARAT,12730.0,Indonesia,,-6.2712239,106.8234743,https://maps.google.com/?cid=0x0:0xda4d54f1384a94cb
hotel,hotel,RedDoorz Plus near Lippo Mall Kemang 2,"Jl. Kemang VI No.8, RT.12/RW.2, Bangka, Kec. Mampang Prpt., Kota Jakarta Selatan, Daerah Khusus Ibukota Jakarta 12730","RT.12/RW.2, Bangka, Kec. Mampang Prpt., Kota Jakarta Selatan",PAPUA BARAT,12730.0,Indonesia,895417300072.0,-6.2619158,106.8147945,https://maps.google.com/?cid=0x0:0x65308050eedacc00
hotel,hotel,,,,PAPUA BARAT,,Indonesia,,,,https://maps.google.com/?cid=0x0:0x65308050eedacc00%7C/g/11fmqc89xf%7Cid-ID
hotel,hotel,Papua Bar. 98365,"Kabupaten Teluk Bintuni, Papua Bar.","Kabupaten Teluk Bintuni, Papua Bar.",PAPUA BARAT,,Indonesia,,-1.9250686,132.7076107,https://maps.google.com/?cid=0x0:0xe2813bacbf5a0787
hotel,Motel,Penginapan AL karim,"34QG+3Q3, Kampung vascodamneem, Tomu, Kabupaten Teluk Bintuni, Papua Bar. 98364","Kampung vascodamneem, Tomu, Kabupaten Teluk Bintuni",PAPUA BARAT,98364.0,Indonesia,82399129058.0,-1.9123586,133.1269338,https://maps.google.com/?cid=0x0:0xcdfd7625bade305c
hotel,hotel,Steenkool Hotel  Resto,"WG53+P73, Wesiri, Distrik Bintuni, Kabupaten Teluk Bintuni, Papua Bar. 98364","Wesiri, Distrik Bintuni, Kabupaten Teluk Bintuni",PAPUA BARAT,98364.0,Indonesia,9553236660.0,-2.0907496,133.5031777,https://maps.google.com/?cid=0x0:0x69386e6d9549e17b
hotel,hotel,Tomu,"Kabupaten Teluk Bintuni, Papua Bar.","Kabupaten Teluk Bintuni, Papua Bar.",PAPUA BARAT,,Indonesia,,-2.0596458,133.058341,https://maps.google.com/?cid=0x0:0x3ebc0177b26474d6
hotel,hotel,Penginapan 77 Bintuni,"VGHQ+Q4V, Jl.Raya, Bintuni Tim., Distrik Bintuni, Kabupaten Teluk Bintuni, Papua Bar. 98364","Jl.Raya, Bintuni Tim., Distrik Bintuni, Kabupaten Teluk Bintuni",PAPUA BARAT,98364.0,Indonesia,81248394605.0,-2.120519,133.5377896,https://maps.google.com/?cid=0x0:0x3eb7f613f5a810d5
hotel,hotel,Penginapan Kabira,"Bintuni Tim., Distrik Bintuni, Kabupaten Teluk Bintuni, Papua Bar. 98364","Distrik Bintuni, Kabupaten Teluk Bintuni",PAPUA BARAT,98364.0,Indonesia,,-2.1181021,133.5336782,https://maps.google.com/?cid=0x0:0x6b4f5e6b8503872c
hotel,hotel,Aimas Hotel And Convention Center,"Klamasen, Distrik Mariat, Kabupaten Sorong, Papua Bar. 98416","Distrik Mariat, Kabupaten Sorong",PAPUA BARAT,98416.0,Indonesia,8114887778.0,-0.9780957,131.3535192,https://maps.google.com/?cid=0x0:0x622ceae2f7c756cf
hotel,hotel,Distrik Tuhiba,"Kabupaten Teluk Bintuni, Papua Bar.","Kabupaten Teluk Bintuni, Papua Bar.",PAPUA BARAT,,Indonesia,,-1.9874608,133.6203736,https://maps.google.com/?cid=0x0:0x19d3a0288704397d
hotel,hotel,Mahanaim Hotel dan Homestay Manokwari,"jln trikora kalidingin no 109, Wosi, Kec. Manokwari Bar., Kabupaten Manokwari, Papua Bar. 98312","Wosi, Kec. Manokwari Bar., Kabupaten Manokwari",PAPUA BARAT,98312.0,Indonesia,8124830147.0,-0.8699305,134.0471193,https://maps.google.com/?cid=0x0:0xeec6727952b4f3e6
hotel,hotel,Penginapan Kofiyau,"46MX+QV7, Unnamed Road, Klasuur, Distrik Sorong, Kota Sorong, Papua Bar. 98411","Unnamed Road, Klasuur, Distrik Sorong, Kota Sorong",PAPUA BARAT,98411.0,Indonesia,82398017326.0,-0.86559,131.2496721,https://maps.google.com/?cid=0x0:0xfc32a1234a9c5c47
hotel,hotel,Penginapan 77 Bintuni,"VGHQ+Q4V, Jl.Raya, Bintuni Tim., Distrik Bintuni, Kabupaten Teluk Bintuni, Papua Bar. 98364","Jl.Raya, Bintuni Tim., Distrik Bintuni, Kabupaten Teluk Bintuni",PAPUA BARAT,98364.0,Indonesia,81248394605.0,-2.120519,133.5377896,https://maps.google.com/?cid=0x0:0x3eb7f613f5a810d5
hotel,hotel,Hotel HI,"38C2+2X4, Fak Fak Selatan, Distrik Fakfak, Kabupaten Fakfak, Papua Bar. 98651","Fak Fak Selatan, Distrik Fakfak, Kabupaten Fakfak",PAPUA BARAT,98651.0,Indonesia,8888695878.0,-2.9299949,132.3024558,https://maps.google.com/?cid=0x0:0xa6762a3966976144
hotel,hotel,Penginapan Kabira,"Bintuni Tim., Distrik Bintuni, Kabupaten Teluk Bintuni, Papua Bar. 98364","Distrik Bintuni, Kabupaten Teluk Bintuni",PAPUA BARAT,98364.0,Indonesia,,-2.1181021,133.5336782,https://maps.google.com/?cid=0x0:0x6b4f5e6b8503872c
hotel,hotel,Hotel Fujita Papua,"Jl. Drs Esau Sesa, Wosi, Kec. Manokwari Bar., Kabupaten Manokwari, Papua Bar. 98312","Wosi, Kec. Manokwari Bar., Kabupaten Manokwari",PAPUA BARAT,98312.0,Indonesia,9862210707.0,-0.8727087,134.0465433,https://maps.google.com/?cid=0x0:0x12ad8f54a87fdc03
hotel,hotel,Hotel Batanta,"46GW+RMC, Kp. Baru, Distrik Sorong, Kota Sorong, Papua Bar. 98411","Kp. Baru, Distrik Sorong, Kota Sorong",PAPUA BARAT,98411.0,Indonesia,,-0.8729338,131.246629,https://maps.google.com/?cid=0x0:0xd18e7775760a134a
hotel,hotel,O,"Jl. Jend. A. Yani No.27, Malabutor, Kecamatan Sorong Manoi, Kota Sorong, Papua Bar. 98412","Malabutor, Kecamatan Sorong Manoi, Kota Sorong",PAPUA BARAT,98412.0,Indonesia,,-0.8827427,131.2828186,https://maps.google.com/?cid=0x0:0x9aebba5ddda67893
hotel,hotel,Wamesa,"Kabupaten Teluk Wondama, Papua Bar.","Kabupaten Teluk Wondama, Papua Bar.",PAPUA BARAT,,Indonesia,,-2.1544139,134.0770134,https://maps.google.com/?cid=0x0:0x66173cbf11eb7129
hotel,hotel,Mahanaim Hotel dan Homestay Manokwari,"jln trikora kalidingin no 109, Wosi, Kec. Manokwari Bar., Kabupaten Manokwari, Papua Bar. 98312","Wosi, Kec. Manokwari Bar., Kabupaten Manokwari",PAPUA BARAT,98312.0,Indonesia,8124830147.0,-0.8699305,134.0471193,https://maps.google.com/?cid=0x0:0xeec6727952b4f3e6
hotel,hotel,Swiss Belhotel Manokwari,"Jl. Yos Sudarso Manokwari No.8, Manokwari Bar., Kec. Manokwari Bar., Kabupaten Manokwari, Papua Bar. 98312","Manokwari Bar., Kec. Manokwari Bar., Kabupaten Manokwari",PAPUA BARAT,98312.0,Indonesia,8114854000.0,-0.8572937,134.0672125,https://maps.google.com/?cid=0x0:0x92c98d5e96ee2a8f
hotel,hotel,Aston Niu Manokwari,"Sogun Hill, Jl. Drs Esau Sesa No.3 Blok B, Sowi, Distrik Manokwari, Kabupaten Manokwari, Papua Bar. 98315","Jl. Drs Esau Sesa No.3 Blok B, Sowi, Distrik Manokwari, Kabupaten Manokwari",PAPUA BARAT,98315.0,Indonesia,81369878787.0,-0.8978109,134.0416499,https://maps.google.com/?cid=0x0:0xe96b706fef94b3a2
hotel,hotel,,,,PAPUA BARAT,,Indonesia,,,,https://maps.google.com/?cid=0x0:0xe96b706fef94b3a2%7C/g/120jr49w%7Cid-ID
hotel,hotel,Belagri Hotel and Restaurant,"Jl. Raja Ampat No.1, Kp. Baru, Distrik Sorong, Kota Sorong, Papua Bar. 98413","Kp. Baru, Distrik Sorong, Kota Sorong",PAPUA BARAT,98413.0,Indonesia,,-0.8704329,131.2517604,https://maps.google.com/?cid=0x0:0xb0064be8b2a3c2c8
hotel,hotel,Waisai Beach Hotel (WBH),"Waisai, Kec. Waigeo Sel., Kabupaten Raja Ampat, Papua Bar. 98482","Kec. Waigeo Sel., Kabupaten Raja Ampat",PAPUA BARAT,98482.0,Indonesia,81247553799.0,-0.4281731,130.8199415,https://maps.google.com/?cid=0x0:0x87348b8c39be5af1
hotel,hotel,,,,PAPUA BARAT,,Indonesia,,,,https://maps.google.com/?cid=0x0:0x9b9160ef43d35fd5%7C/g/11clwlw14h%7Cid-ID
hotel,hotel,M Hotel Sorong,"Jl. Sungai Maruni, Klawuyuk, Kec. Sorong Utara, Kota Sorong, Papua Bar. 98416","Klawuyuk, Kec. Sorong Utara, Kota Sorong",PAPUA BARAT,98416.0,Indonesia,8114863111.0,-0.8858638,131.3227746,https://maps.google.com/?cid=0x0:0x9b9160ef43d35fd5
hotel,hotel,Hotel Raja Ampat,"Jl. Fundar Sakela No.1, Waisai, City, Kabupaten Raja Ampat, Papua Bar. 98482","Waisai, City, Kabupaten Raja Ampat",PAPUA BARAT,98482.0,Indonesia,81298260747.0,-0.4224417,130.8199523,https://maps.google.com/?cid=0x0:0x3bda491b055b084
hotel,hotel,Valdos Hotel Manokwari,"43J5+F44, Jl. Trikora Wosi, Wosi, Kec. Manokwari Bar., Kabupaten Manokwari, Papua Bar. 98312","Jl. Trikora Wosi, Wosi, Kec. Manokwari Bar., Kabupaten Manokwari",PAPUA BARAT,98312.0,Indonesia,986213044.0,-0.8688721,134.0578193,https://maps.google.com/?cid=0x0:0x60b28ba9ef2d716e
hotel,hotel,Hotel Marannu,"HRG9+842, Waisai, Kec. Waigeo Sel., Kabupaten Raja Ampat, Papua Bar. 98482","Waisai, Kec. Waigeo Sel., Kabupaten Raja Ampat",PAPUA BARAT,98482.0,Indonesia,81258290891.0,-0.4242312,130.8177684,https://maps.google.com/?cid=0x0:0x4bfcf0ab6dd8ceba
hotel,hotel,Hotel HI,"38C2+2X4, Fak Fak Selatan, Distrik Fakfak, Kabupaten Fakfak, Papua Bar. 98651","Fak Fak Selatan, Distrik Fakfak, Kabupaten Fakfak",PAPUA BARAT,98651.0,Indonesia,8888695878.0,-2.9299949,132.3024558,https://maps.google.com/?cid=0x0:0xa6762a3966976144
hotel,hotel,Fajar Roon Hotel,"Jl. Trikora Wosi, Wosi, Kec. Manokwari Bar., Kabupaten Manokwari, Papua Bar. 98312","Wosi, Kec. Manokwari Bar., Kabupaten Manokwari",PAPUA BARAT,98312.0,Indonesia,85333112338.0,-0.8680273,134.0564644,https://maps.google.com/?cid=0x0:0xec6cf3d20bba5444
hotel,Penginapan,Putra putri kilaz,"sp4, jlr No.8, Banjar Ausoy (Sp IV), Manimeri, Teluk Bintuni Regency, West Papua 98364","jlr No.8, Banjar Ausoy (Sp IV), Manimeri, Teluk Bintuni Regency",PAPUA BARAT,98364.0,Indonesia,,-2.0909406,133.6659712,https://maps.google.com/?cid=0x0:0x953c102341ff7e60
hotel,hotel,Penginapan Kabira,"Bintuni Tim., Distrik Bintuni, Kabupaten Teluk Bintuni, Papua Bar. 98364","Distrik Bintuni, Kabupaten Teluk Bintuni",PAPUA BARAT,98364.0,Indonesia,,-2.1181021,133.5336782,https://maps.google.com/?cid=0x0:0x6b4f5e6b8503872c
hotel,hotel,Papua Bar. 98364,"Kabupaten Teluk Bintuni, Papua Bar.","Kabupaten Teluk Bintuni, Papua Bar.",PAPUA BARAT,,Indonesia,,-1.8959987,133.6375314,https://maps.google.com/?cid=0x0:0x5d92307b98683ecf
hotel,Hotel,Penginapan Sahabat,"VGQH+526, Bintuni Bar., Distrik Bintuni, Kabupaten Teluk Bintuni, Papua Bar. 98364","Bintuni Bar., Distrik Bintuni, Kabupaten Teluk Bintuni",PAPUA BARAT,98364.0,Indonesia,85243205131.0,-2.1120878,133.5275186,https://maps.google.com/?cid=0x0:0xfc8bcbe54f2c984f
hotel,hotel,Steenkool Hotel  Resto,"WG53+P73, Wesiri, Distrik Bintuni, Kabupaten Teluk Bintuni, Papua Bar. 98364","Wesiri, Distrik Bintuni, Kabupaten Teluk Bintuni",PAPUA BARAT,98364.0,Indonesia,9553236660.0,-2.0907496,133.5031777,https://maps.google.com/?cid=0x0:0x69386e6d9549e17b
hotel,Otoritas Pelabuhan,Bintuni,"Bintuni Bar., Distrik Bintuni, Kabupaten Teluk Bintuni, Papua Bar.","Kabupaten Teluk Bintuni, Papua Bar.",PAPUA BARAT,,Indonesia,,-2.11287,133.52649,https://maps.google.com/?cid=0x0:0x6831237378f07fbd
hotel,Hotel,Hotel Alkahfi,"VGJP+8GJ, Bintuni Tim., Distrik Bintuni, Kabupaten Teluk Bintuni, Papua Bar. 98364","Bintuni Tim., Distrik Bintuni, Kabupaten Teluk Bintuni",PAPUA BARAT,98364.0,Indonesia,,-2.1191651,133.536272,https://maps.google.com/?cid=0x0:0x7e3dc39c16833745
hotel,hotel,Distrik Weriagar,"Kabupaten Teluk Bintuni, Papua Bar.","Kabupaten Teluk Bintuni, Papua Bar.",PAPUA BARAT,,Indonesia,,-2.2729914,132.892696,https://maps.google.com/?cid=0x0:0xa59e3da385ccd401
hotel,hotel,Mahanaim Hotel dan Homestay Manokwari,"jln trikora kalidingin no 109, Wosi, Kec. Manokwari Bar., Kabupaten Manokwari, Papua Bar. 98312","Wosi, Kec. Manokwari Bar., Kabupaten Manokwari",PAPUA BARAT,98312.0,Indonesia,8124830147.0,-0.8699305,134.0471193,https://maps.google.com/?cid=0x0:0xeec6727952b4f3e6
hotel,hotel,Swiss Belhotel Manokwari,"Jl. Yos Sudarso Manokwari No.8, Manokwari Bar., Kec. Manokwari Bar., Kabupaten Manokwari, Papua Bar. 98312","Manokwari Bar., Kec. Manokwari Bar., Kabupaten Manokwari",PAPUA BARAT,98312.0,Indonesia,8114854000.0,-0.8572937,134.0672125,https://maps.google.com/?cid=0x0:0x92c98d5e96ee2a8f
hotel,hotel,Darefan Hotel Sorong,"Jl. Selat Morotai, Remu Sel., Kecamatan Sorong Manoi, Kota Sorong, Papua Bar. 98412","Remu Sel., Kecamatan Sorong Manoi, Kota Sorong",PAPUA BARAT,98412.0,Indonesia,8114868887.0,-0.8877595,131.2893739,https://maps.google.com/?cid=0x0:0x5709bb2ac9cbd24
hotel,hotel,Hotel HI,"38C2+2X4, Fak Fak Selatan, Distrik Fakfak, Kabupaten Fakfak, Papua Bar. 98651","Fak Fak Selatan, Distrik Fakfak, Kabupaten Fakfak",PAPUA BARAT,98651.0,Indonesia,8888695878.0,-2.9299949,132.3024558,https://maps.google.com/?cid=0x0:0xa6762a3966976144
hotel,hotel,Hotel Fujita Papua,"Jl. Drs Esau Sesa, Wosi, Kec. Manokwari Bar., Kabupaten Manokwari, Papua Bar. 98312","Wosi, Kec. Manokwari Bar., Kabupaten Manokwari",PAPUA BARAT,98312.0,Indonesia,9862210707.0,-0.8727087,134.0465433,https://maps.google.com/?cid=0x0:0x12ad8f54a87fdc03
hotel,hotel,Fajar Roon Hotel,"Jl. Trikora Wosi, Wosi, Kec. Manokwari Bar., Kabupaten Manokwari, Papua Bar. 98312","Wosi, Kec. Manokwari Bar., Kabupaten Manokwari",PAPUA BARAT,98312.0,Indonesia,85333112338.0,-0.8680273,134.0564644,https://maps.google.com/?cid=0x0:0xec6cf3d20bba5444
hotel,hotel,Mangga Hotel,"Jl. Bhayangkara No.1, Manokwari Tim., Kec. Manokwari Bar., Kabupaten Manokwari, Papua Bar. 98312","Manokwari Tim., Kec. Manokwari Bar., Kabupaten Manokwari",PAPUA BARAT,98312.0,Indonesia,62986211693.0,-0.870176,134.0778405,https://maps.google.com/?cid=0x0:0x3d2ada72a869c631
hotel,Hotel,Hotel 84 Bintuni,"VGPH+7WG, Bintuni Bar., Distrik Bintuni, Kabupaten Teluk Bintuni, Papua Bar. 98364","Bintuni Bar., Distrik Bintuni, Kabupaten Teluk Bintuni",PAPUA BARAT,98364.0,Indonesia,,-2.1143211,133.5298192,https://maps.google.com/?cid=0x0:0x3004d626c67149d3
hotel,Pondok,Penginapan Modan,"Jl Raya No.80, Bintuni Tim., Distrik Bintuni, Kabupaten Teluk Bintuni, Papua Bar. 98364","Bintuni Tim., Distrik Bintuni, Kabupaten Teluk Bintuni",PAPUA BARAT,98364.0,Indonesia,82264402954.0,-2.1185921,133.5344181,https://maps.google.com/?cid=0x0:0x8a0e339cdae771e9
restaurant,restaurant,Distrik Aranday,"Kabupaten Teluk Bintuni, Papua Bar.","Kabupaten Teluk Bintuni, Papua Bar.",PAPUA BARAT,,Indonesia,,-1.925379,133.229204,https://maps.google.com/?cid=0x0:0xab05e8c7d8e39b11
restaurant,Kedai Kopi,Arvastenk cafe,"34QF+J34 Vasco Damneen, Ekam, Tomu, Teluk Bintuni Regency, West Papua","Kabupaten Teluk Bintuni, Papua Bar.",PAPUA BARAT,,Indonesia,,-1.9109991,133.1226998,https://maps.google.com/?cid=0x0:0xa6ebd0aba70dc384
restaurant,Dapur Umum,Warung Risma,"3499+JH, Ekam, Tomu, Kabupaten Teluk Bintuni, Papua Bar.","Kabupaten Teluk Bintuni, Papua Bar.",PAPUA BARAT,,Indonesia,,-1.9309121,133.118944,https://maps.google.com/?cid=0x0:0x85b905e43f695115
restaurant,restaurant,WARUNG AREMA,"Stengkol 3, distrik Meyado, Ekam, Tomu, Kabupaten Teluk Bintuni, Papua Bar. 98364","distrik Meyado, Ekam, Tomu, Kabupaten Teluk Bintuni",PAPUA BARAT,98364.0,Indonesia,,-1.9122117,133.1273117,https://maps.google.com/?cid=0x0:0xfd77b77e70977991
restaurant,restaurant,Hotel Yuni,"38VH+PQG, Kp. Baru, Distrik Aranday, Kabupaten Teluk Bintuni, Papua Bar. 98364","Kp. Baru, Distrik Aranday, Kabupaten Teluk Bintuni",PAPUA BARAT,98364.0,Indonesia,,-1.9056848,133.329466,https://maps.google.com/?cid=0x0:0x86276df75e0b515f
restaurant,restaurant,"Port Ludlow, Washington 98365","Port Ludlow, Washington, Amerika Serikat","Port Ludlow, Washington, Amerika Serikat",PAPUA BARAT,,Indonesia,,47.9080025,-122.6889202,https://maps.google.com/?cid=0x0:0x80c25f50a0b90723
restaurant,restaurant,The Resort At Port Ludlow,"1 Heron Rd, Port Ludlow, WA 98365, Amerika Serikat","Port Ludlow, WA",PAPUA BARAT,98365.0,Indonesia,13604377000.0,47.9226249,-122.683202,https://maps.google.com/?cid=0x0:0xd164f073f2a493d9
restaurant,restaurant,Aroba,"Distrik Aroba, Kabupaten Teluk Bintuni, Papua Bar.","Kabupaten Teluk Bintuni, Papua Bar.",PAPUA BARAT,,Indonesia,,-2.7579448,133.5799151,https://maps.google.com/?cid=0x0:0xde88d08daed2fbc6
restaurant,Komplek perumahan,Kasira,"FF82+2QG, Nusei, Distrik Aroba, Kabupaten Teluk Bintuni, Papua Bar. 98363","Nusei, Distrik Aroba, Kabupaten Teluk Bintuni",PAPUA BARAT,98363.0,Indonesia,81344553065.0,-2.534939,133.4519651,https://maps.google.com/?cid=0x0:0x6992e2868d82a97c
restaurant,Restoran,Rumah Makan Babor,"IRARUTU III, RT.01/RW.02, Nusei, Babo, Kabupaten Teluk Bintuni, Papua Bar. 98364","RT.01/RW.02, Nusei, Babo, Kabupaten Teluk Bintuni",PAPUA BARAT,98364.0,Indonesia,81343003329.0,-2.5419199,133.4504804,https://maps.google.com/?cid=0x0:0x8899db8d0b95b7d
restaurant,restaurant,Meubel Aroba,"Aroba, Distrik Aroba, Kabupaten Teluk Bintuni, Papua Bar. 98363","Distrik Aroba, Kabupaten Teluk Bintuni",PAPUA BARAT,98363.0,Indonesia,85925385494.0,-2.7614741,133.5748287,https://maps.google.com/?cid=0x0:0x84872fc16e9dd739
restaurant,Restoran,CAYA House Aruba,"J.E. Irausquin Blvd 372, Noord, Aruba","Noord, Aruba",PAPUA BARAT,,Indonesia,2976993982.0,12.5701376,-70.0439146,https://maps.google.com/?cid=0x0:0x27b5457846d7242f
restaurant,restaurant,,,,PAPUA BARAT,,Indonesia,,,,https://maps.google.com/?cid=0x0:0x91c1979c4f73fc09u0026onu003dMashed+Potatoesu0026midu003d/g/11jzxt_11b
restaurant,Restoran,Azar Aruba,"L.G. Smith Blvd 388, Noord, Aruba","Noord, Aruba",PAPUA BARAT,,Indonesia,2975932927.0,12.5712485,-70.0428966,https://maps.google.com/?cid=0x0:0x91c1979c4f73fc09
restaurant,restaurant,,,,PAPUA BARAT,,Indonesia,,,,https://maps.google.com/?cid=0x0:0x91c1979c4f73fc09u0026onu003dChilean+Sea+Bassu0026midu003d/g/11jzxt_11b
restaurant,restaurant,,,,PAPUA BARAT,,Indonesia,,,,https://maps.google.com/?cid=0x0:0x91c1979c4f73fc09u0026onu003dSeabassu0026midu003d/g/11jzxt_11b
restaurant,restaurant,,,,PAPUA BARAT,,Indonesia,,,,https://maps.google.com/?cid=0x0:0x91c1979c4f73fc09u0026onu003dShort+Ribu0026midu003d/g/11jzxt_11b
restaurant,restaurant,,,,PAPUA BARAT,,Indonesia,,,,https://maps.google.com/?cid=0x0:0x91c1979c4f73fc09u0026onu003dFishu0026midu003d/g/11jzxt_11b
restaurant,restaurant,,,,PAPUA BARAT,,Indonesia,,,,https://maps.google.com/?cid=0x0:0x91c1979c4f73fc09u0026onu003dBaked+Fetau0026midu003d/g/11jzxt_11b
restaurant,restaurant,,,,PAPUA BARAT,,Indonesia,,,,https://maps.google.com/?cid=0x0:0x91c1979c4f73fc09u0026onu003dBranzinou0026midu003d/g/11jzxt_11b
restaurant,restaurant,,,,PAPUA BARAT,,Indonesia,,,,https://maps.google.com/?cid=0x0:0x91c1979c4f73fc09u0026onu003dCharcoal+Octopusu0026midu003d/g/11jzxt_11b
restaurant,Dapur Umum,WARUNG MAKAN SIDODADI,"Modan, Nusei, Babo, Kabupaten Teluk Bintuni, Papua Bar. 98363","Nusei, Babo, Kabupaten Teluk Bintuni",PAPUA BARAT,98363.0,Indonesia,82187274409.0,-2.5386889,133.4442631,https://maps.google.com/?cid=0x0:0xadbf13d718506158
restaurant,restaurant,Babo,"Kabupaten Teluk Bintuni, Papua Bar.","Kabupaten Teluk Bintuni, Papua Bar.",PAPUA BARAT,,Indonesia,,-2.5410944,133.4455624,https://maps.google.com/?cid=0x0:0x4d33f662184232b6
restaurant,Restoran,Warung Bakso Pak Nur Babo,"Irarutu III, Babo, Kabupaten Teluk Bintuni, Papua Bar. 98363","Babo, Kabupaten Teluk Bintuni",PAPUA BARAT,98363.0,Indonesia,82238454404.0,-2.5419245,133.4507752,https://maps.google.com/?cid=0x0:0x228c6dc43a8a738
restaurant,Kedai Kopi,Cafe Candu,"FC4W+6Q5, Nusei, Babo, Kabupaten Teluk Bintuni, Papua Bar. 98363","Nusei, Babo, Kabupaten Teluk Bintuni",PAPUA BARAT,98363.0,Indonesia,,-2.5430787,133.4472981,https://maps.google.com/?cid=0x0:0x30a3023fb4861441
restaurant,Komplek perumahan,Kasira,"FF82+2QG, Nusei, Distrik Aroba, Kabupaten Teluk Bintuni, Papua Bar. 98363","Nusei, Distrik Aroba, Kabupaten Teluk Bintuni",PAPUA BARAT,98363.0,Indonesia,81344553065.0,-2.534939,133.4519651,https://maps.google.com/?cid=0x0:0x6992e2868d82a97c
restaurant,Indonesia,Lapak Bubur Ayam Chef Bilal,"FF52+F2R, Nusei, Babo, Kabupaten Teluk Bintuni, Papua Bar. 98363","Nusei, Babo, Kabupaten Teluk Bintuni",PAPUA BARAT,98363.0,Indonesia,81347420739.0,-2.5412932,133.4500293,https://maps.google.com/?cid=0x0:0xbb1612a81e1f1ab9
restaurant,Minimarket,Warung Makan,"G924+VV5, Sido Makmur, Distrik Aroba, Kabupaten Teluk Bintuni, Papua Bar. 98363","Sido Makmur, Distrik Aroba, Kabupaten Teluk Bintuni",PAPUA BARAT,98363.0,Indonesia,,-2.4982436,133.3573854,https://maps.google.com/?cid=0x0:0x75ee501bb8d696b5
restaurant,Terminal Feri,Babo Port,98363,,PAPUA BARAT,,Indonesia,,-2.53361,133.452929,https://maps.google.com/?cid=0x0:0x97c241ff377a306
restaurant,restaurant,Bintuni,"Bintuni Tim., Distrik Bintuni, Kabupaten Teluk Bintuni, Papua Bar.","Kabupaten Teluk Bintuni, Papua Bar.",PAPUA BARAT,,Indonesia,,-2.116667,133.533333,https://maps.google.com/?cid=0x0:0xb2abe6f637dc67dd
restaurant,Padang,Rumah Makan Nusantara,"VHGC+997, Bintuni Tim., Distrik Bintuni, Kabupaten Teluk Bintuni, Papua Bar. 98364","Bintuni Tim., Distrik Bintuni, Kabupaten Teluk Bintuni",PAPUA BARAT,98364.0,Indonesia,,-2.1240848,133.5709304,https://maps.google.com/?cid=0x0:0x1be9f0e62d08f931
restaurant,,Babehque,"VGMM+88P, Bintuni Tim., Distrik Bintuni, Kabupaten Teluk Bintuni, Papua Bar.","Kabupaten Teluk Bintuni, Papua Bar.",PAPUA BARAT,,Indonesia,,-2.116667,133.533333,https://maps.google.com/?cid=0x0:0x7836238b31be1901
restaurant,Kedai Kopi,Cafe  Resto Bintuni Business Center (BBC),Jln. Raya SP 5,"Kabupaten Teluk Bintuni, Papua Bar.",PAPUA BARAT,,Indonesia,,-2.1134603,133.615269,https://maps.google.com/?cid=0x0:0xe2e5143ddff55b23
restaurant,China,Kedai Blessings,"Jl.Bintuni-manokwari, Bintuni Tim., Distrik Bintuni, Kabupaten Teluk Bintuni, Papua Bar.","Kabupaten Teluk Bintuni, Papua Bar.",PAPUA BARAT,,Indonesia,81343209178.0,-2.116667,133.533333,https://maps.google.com/?cid=0x0:0x8fd12e2f622f702b
restaurant,Nasi,Warung Anugrah,"VGMM+88P, Bintuni Tim., Distrik Bintuni, Kabupaten Teluk Bintuni, Papua Bar. 98364","Bintuni Tim., Distrik Bintuni, Kabupaten Teluk Bintuni",PAPUA BARAT,98364.0,Indonesia,82248990424.0,-2.116667,133.533333,https://maps.google.com/?cid=0x0:0xc2ab6c4fbb5607f4
restaurant,Rumah Makan,Rumah Makan Mami Tioe,"VGGW+2W7, Jl. Raya Bintuni Kalikodok, East Bintuni, Bintuni, Teluk Bintuni Regency, West Papua 98364","Jl. Raya Bintuni Kalikodok, East Bintuni, Bintuni, Teluk Bintuni Regency",PAPUA BARAT,98364.0,Indonesia,,-2.1249735,133.5473066,https://maps.google.com/?cid=0x0:0x70d04e41dc29fa88
restaurant,Kafe,Mangrove,"Jln Raya, Bintuni Tim., Distrik Bintuni, Kabupaten Teluk Bintuni, Papua Bar. 98364","Bintuni Tim., Distrik Bintuni, Kabupaten Teluk Bintuni",PAPUA BARAT,98364.0,Indonesia,81389162929.0,-2.116667,133.533333,https://maps.google.com/?cid=0x0:0xaf47491924b5dcfd
restaurant,Toko Roti,Roti Bakar Az Zahraa,"VGJM+VC7, Jalan Raya, Bintuni Tim., Distrik Bintuni, Kabupaten Teluk Bintuni, Papua Bar. 98364","Jalan Raya, Bintuni Tim., Distrik Bintuni, Kabupaten Teluk Bintuni",PAPUA BARAT,98364.0,Indonesia,82310172502.0,-2.1178494,133.533561,https://maps.google.com/?cid=0x0:0x5d8e359174ccd73e
restaurant,Es Krim,Jaslyn Ice Cream,"Jl. Raya Bintuni, RT.002/RW.002, Bintuni Tim., Distrik Bintuni, Kabupaten Teluk Bintuni, Papua Bar. 98364","RT.002/RW.002, Bintuni Tim., Distrik Bintuni, Kabupaten Teluk Bintuni",PAPUA BARAT,98364.0,Indonesia,88295130054.0,-2.116667,133.533333,https://maps.google.com/?cid=0x0:0xd17704ff25f08eaa
restaurant,Padang,Rumah Makan Soponyono,"VGPH+Q4W, Depan Pelabuhan, West Bintuni, Bintuni, Teluk Bintuni Regency, West Papua 98364","Depan Pelabuhan, West Bintuni, Bintuni, Teluk Bintuni Regency",PAPUA BARAT,98364.0,Indonesia,,-2.1130217,133.52782,https://maps.google.com/?cid=0x0:0xdbec2411b00ad92e
restaurant,Padang,Sinar Padang,"VGHP+JQR, Bintuni Tim., Distrik Bintuni, Kabupaten Teluk Bintuni, Papua Bar. 98364","Bintuni Tim., Distrik Bintuni, Kabupaten Teluk Bintuni",PAPUA BARAT,98364.0,Indonesia,,-2.1208904,133.5368758,https://maps.google.com/?cid=0x0:0x38c776b1f5347e77
restaurant,Kafe,Ayam Kampung Bintuni d'cafe  resto,"WMFM+2XF, Jl. Manokwari - Bintuni, Waraitama, Distrik Manimeri, Kabupaten Teluk Bintuni, Papua Bar. 98364","Jl. Manokwari - Bintuni, Waraitama, Distrik Manimeri, Kabupaten Teluk Bintuni",PAPUA BARAT,98364.0,Indonesia,82191584657.0,-2.0774299,133.6849179,https://maps.google.com/?cid=0x0:0x810d24da39b58501
restaurant,China,RM. Madalle 91 - Chinese Food,"RW003, Jl. Raya Bintuni, RT.001","Kabupaten Teluk Bintuni, Papua Bar.",PAPUA BARAT,,Indonesia,85341893219.0,-2.1178756,133.5336008,https://maps.google.com/?cid=0x0:0x6708497044e728b0
restaurant,restaurant,Papua Bar. 98373,"Kabupaten Teluk Bintuni, Papua Bar.","Kabupaten Teluk Bintuni, Papua Bar.",PAPUA BARAT,,Indonesia,,-1.4464953,133.329466,https://maps.google.com/?cid=0x0:0xa7a537a3a20b81b4
restaurant,restaurant,Candra Eka Risti,"M57F+HV4, jln nunsatra, Jl. Nusantara Katapop II, Majaran, Salawati, Sorong, Papua Bar. 98451","jln nunsatra, Jl. Nusantara Katapop II, Majaran, Salawati, Sorong",PAPUA BARAT,98451.0,Indonesia,82238320365.0,-1.3361154,133.1747162,https://maps.google.com/?cid=0x0:0xbf1062e385641c3f
restaurant,Restoran,Inggandi Beach Restaurant,"43GV+7Q3, Jl. Pasir Putih No.33, Pasir Putih, Kec. Manokwari Tim., Kabupaten Manokwari, Papua Bar. 98313","Jl. Pasir Putih No.33, Pasir Putih, Kec. Manokwari Tim., Kabupaten Manokwari",PAPUA BARAT,98313.0,Indonesia,81240372255.0,-0.8780927,134.0933631,https://maps.google.com/?cid=0x0:0xba66c7a3124731e6
restaurant,Kedai Kopi,Warung Bapak Zaka,"M57F+HV4, Morombuy, Merdey, Kabupaten Teluk Bintuni, Papua Bar.","Kabupaten Teluk Bintuni, Papua Bar.",PAPUA BARAT,,Indonesia,,-1.3361154,133.1747162,https://maps.google.com/?cid=0x0:0x4cf7ab3ae62f4727
restaurant,Hidangan Laut,Republik Seafood,"Sawagumu, Kec. Sorong Utara, Kota Sorong, Papua Bar. 98412","Kec. Sorong Utara, Kota Sorong",PAPUA BARAT,98412.0,Indonesia,81344615005.0,-0.8883945,131.3109228,https://maps.google.com/?cid=0x0:0xec5acb934a352d67
restaurant,Hidangan Laut,Marina Star Restaurant Seafood,"Kompleks, Jl. Bubara Jl. Pelabuhan Perikanan, Distrik Sorong, Kota Sorong, Papua Bar. 98414","Jl. Bubara Jl. Pelabuhan Perikanan, Distrik Sorong, Kota Sorong",PAPUA BARAT,98414.0,Indonesia,81240250548.0,-0.8790069,131.2552456,https://maps.google.com/?cid=0x0:0x6d780e763a272c1a
restaurant,Restoran,Kabupaten wasior,"M57F+HV4, Morombuy, Merdey, Kabupaten Teluk Bintuni, Papua Bar.","Kabupaten Teluk Bintuni, Papua Bar.",PAPUA BARAT,,Indonesia,,-1.3361154,133.1747162,https://maps.google.com/?cid=0x0:0x5c8a1dc8576d6163
restaurant,restaurant,Biscoop,"Kabupaten Teluk Bintuni, Papua Bar.","Kabupaten Teluk Bintuni, Papua Bar.",PAPUA BARAT,,Indonesia,,-1.4978011,133.5606946,https://maps.google.com/?cid=0x0:0x8de700464050f6ca
restaurant,restaurant,WARUNG MAKAN PAKDE,"Stengkol 3, Vasco Damneen, Kec. Meyado, Kabupaten Teluk Bintuni, Papua Bar. 98364","Vasco Damneen, Kec. Meyado, Kabupaten Teluk Bintuni",PAPUA BARAT,98364.0,Indonesia,81247816101.0,-1.7886687,133.3896631,https://maps.google.com/?cid=0x0:0x892b36d84e3e55a5
restaurant,Restoran Amerika,The Rose Restaurant,"122 W Main, Puyallup, WA 98371, Amerika Serikat","Puyallup, WA",PAPUA BARAT,98371.0,Indonesia,12538452874.0,47.1916746,-122.2949188,https://maps.google.com/?cid=0x0:0xd27707897c11a44b
restaurant,Restoran,Mrs. Turner's Restaurant,"701 E Main Ave, Puyallup, WA 98372, Amerika Serikat","Puyallup, WA",PAPUA BARAT,98372.0,Indonesia,12538487761.0,47.1921567,-122.2855498,https://maps.google.com/?cid=0x0:0x107cec23feffdc7
restaurant,restaurant,,,,PAPUA BARAT,,Indonesia,,,,https://maps.google.com/?cid=0x0:0xd27707897c11a44bu0026onu003dRose's+Lumberjack+Omeletu0026midu003d/g/1tfgcywd
restaurant,restaurant,,,,PAPUA BARAT,,Indonesia,,,,https://maps.google.com/?cid=0x0:0xd27707897c11a44bu0026onu003dBlueberry+Pancakesu0026midu003d/g/1tfgcywd
restaurant,restaurant,,,,PAPUA BARAT,,Indonesia,,,,https://maps.google.com/?cid=0x0:0xd27707897c11a44bu0026onu003dCoffeeu0026midu003d/g/1tfgcywd
restaurant,restaurant,Distrik Dataran Beimes,"Kabupaten Teluk Bintuni, Papua Bar.","Kabupaten Teluk Bintuni, Papua Bar.",PAPUA BARAT,,Indonesia,,-1.6164845,133.6599628,https://maps.google.com/?cid=0x0:0x8fa53e8e503789bf
restaurant,Kafe,D'meong Coffee,"VGHQ+V3G, Unnamed Road, Bintuni Tim., Distrik Bintuni, Kabupaten Teluk Bintuni, Papua Bar. 98364","Unnamed Road, Bintuni Tim., Distrik Bintuni, Kabupaten Teluk Bintuni",PAPUA BARAT,98364.0,Indonesia,81246969627.0,-2.1203214,133.5377157,https://maps.google.com/?cid=0x0:0xff6cb93e8ca143e7
restaurant,Kafe,Keday MJM,"VGGR+XGG, Unnamed Road, Bintuni Tim., Distrik Bintuni, Kabupaten Teluk Bintuni, Papua Bar. 98364","Unnamed Road, Bintuni Tim., Distrik Bintuni, Kabupaten Teluk Bintuni",PAPUA BARAT,98364.0,Indonesia,82398401221.0,-2.1225684,133.5413437,https://maps.google.com/?cid=0x0:0x66762cea44710e2b
restaurant,restaurant,Distrik Fafurwar,"Kabupaten Teluk Bintuni, Papua Bar.","Kabupaten Teluk Bintuni, Papua Bar.",PAPUA BARAT,,Indonesia,,-2.9160631,133.6759049,https://maps.google.com/?cid=0x0:0x78e970d7052f06c0
restaurant,Hidangan Laut,Marina Star Restaurant Seafood,"Kompleks, Jl. Bubara Jl. Pelabuhan Perikanan, Distrik Sorong, Kota Sorong, Papua Bar. 98414","Jl. Bubara Jl. Pelabuhan Perikanan, Distrik Sorong, Kota Sorong",PAPUA BARAT,98414.0,Indonesia,81240250548.0,-0.8790069,131.2552456,https://maps.google.com/?cid=0x0:0x6d780e763a272c1a
restaurant,restaurant,Distrik Kaitaro,"Kabupaten Teluk Bintuni, Papua Bar.","Kabupaten Teluk Bintuni, Papua Bar.",PAPUA BARAT,,Indonesia,,-2.7432339,133.7496581,https://maps.google.com/?cid=0x0:0x18a3c86c44b96f44
restaurant,restaurant,Mar Selus Yassi,"2GXP+GX9, Onimsari, Bomberay, Kabupaten Fakfak, Papua Bar. 98662","Onimsari, Bomberay, Kabupaten Fakfak",PAPUA BARAT,98662.0,Indonesia,,-2.95121,133.537491,https://maps.google.com/?cid=0x0:0x5739e2fac69806e5
restaurant,restaurant,,,,PAPUA BARAT,,Indonesia,,,,https://maps.google.com/?cid=0x0:0x6d780e763a272c1au0026onu003dChicken+Cordon+Bleuu0026midu003d/g/11h057j22x
restaurant,restaurant,,,,PAPUA BARAT,,Indonesia,,,,https://maps.google.com/?cid=0x0:0x6d780e763a272c1au0026onu003dIkan+Asam+Manisu0026midu003d/g/11h057j22x
restaurant,restaurant,,,,PAPUA BARAT,,Indonesia,,,,https://maps.google.com/?cid=0x0:0x6d780e763a272c1au0026onu003dTiger+Saus+Singaporeu0026midu003d/g/11h057j22x
restaurant,restaurant,,,,PAPUA BARAT,,Indonesia,,,,https://maps.google.com/?cid=0x0:0x6d780e763a272c1au0026onu003dAneka+Hidanganu0026midu003d/g/11h057j22x
restaurant,restaurant,,,,PAPUA BARAT,,Indonesia,,,,https://maps.google.com/?cid=0x0:0x6d780e763a272c1au0026onu003dNasi+Goreng+Seafoodu0026midu003d/g/11h057j22x
restaurant,restaurant,,,,PAPUA BARAT,,Indonesia,,,,https://maps.google.com/?cid=0x0:0x6d780e763a272c1au0026onu003dAneka+Menuu0026midu003d/g/11h057j22x
restaurant,restaurant,,,,PAPUA BARAT,,Indonesia,,,,https://maps.google.com/?cid=0x0:0x6d780e763a272c1au0026onu003dDada+Tuna+Bakaru0026midu003d/g/11h057j22x
restaurant,restaurant,,,,PAPUA BARAT,,Indonesia,,,,https://maps.google.com/?cid=0x0:0x6d780e763a272c1au0026onu003dEs+Tehu0026midu003d/g/11h057j22x
restaurant,restaurant,,,,PAPUA BARAT,,Indonesia,,,,https://maps.google.com/?cid=0x0:0x6d780e763a272c1au0026onu003dUdang+Banana+Goreng+Tepungu0026midu003d/g/11h057j22x
restaurant,restaurant,,,,PAPUA BARAT,,Indonesia,,,,https://maps.google.com/?cid=0x0:0x6d780e763a272c1au0026onu003dSingkong+Goreng+Lumpiau0026midu003d/g/11h057j22x
restaurant,restaurant,,,,PAPUA BARAT,,Indonesia,,,,https://maps.google.com/?cid=0x0:0x6d780e763a272c1au0026onu003dBuah+Sukunu0026midu003d/g/11h057j22x
restaurant,Restoran,Inggandi Beach Restaurant,"43GV+7Q3, Jl. Pasir Putih No.33, Pasir Putih, Kec. Manokwari Tim., Kabupaten Manokwari, Papua Bar. 98313","Jl. Pasir Putih No.33, Pasir Putih, Kec. Manokwari Tim., Kabupaten Manokwari",PAPUA BARAT,98313.0,Indonesia,81240372255.0,-0.8780927,134.0933631,https://maps.google.com/?cid=0x0:0xba66c7a3124731e6
restaurant,Restoran,Billy Cafe,"Jl. Merdeka No.57, Padarni, Kec. Manokwari Bar., Kabupaten Manokwari, Papua Bar. 98312","Padarni, Kec. Manokwari Bar., Kabupaten Manokwari",PAPUA BARAT,98312.0,Indonesia,81240501959.0,-0.8596376,134.0734046,https://maps.google.com/?cid=0x0:0x245b68c7c99f326f
restaurant,restaurant,,,,PAPUA BARAT,,Indonesia,,,,https://maps.google.com/?cid=0x0:0xba66c7a3124731e6u0026onu003dPapedau0026midu003d/g/11cjnncbf3
restaurant,restaurant,,,,PAPUA BARAT,,Indonesia,,,,https://maps.google.com/?cid=0x0:0xba66c7a3124731e6u0026onu003dMenu+Lengkapu0026midu003d/g/11cjnncbf3
restaurant,restaurant,,,,PAPUA BARAT,,Indonesia,,,,https://maps.google.com/?cid=0x0:0xba66c7a3124731e6u0026onu003dJeruk+Hangatu0026midu003d/g/11cjnncbf3
restaurant,restaurant,,,,PAPUA BARAT,,Indonesia,,,,https://maps.google.com/?cid=0x0:0xba66c7a3124731e6u0026onu003dKakap+Asam+Manisu0026midu003d/g/11cjnncbf3
restaurant,restaurant,,,,PAPUA BARAT,,Indonesia,,,,https://maps.google.com/?cid=0x0:0xba66c7a3124731e6u0026onu003dEs+Campuru0026midu003d/g/11cjnncbf3
restaurant,restaurant,,,,PAPUA BARAT,,Indonesia,,,,https://maps.google.com/?cid=0x0:0xba66c7a3124731e6u0026onu003dKepiting+Saus+Padangu0026midu003d/g/11cjnncbf3
restaurant,restaurant,,,,PAPUA BARAT,,Indonesia,,,,https://maps.google.com/?cid=0x0:0xba66c7a3124731e6u0026onu003dSate+Garou0026midu003d/g/11cjnncbf3
restaurant,restaurant,,,,PAPUA BARAT,,Indonesia,,,,https://maps.google.com/?cid=0x0:0xba66c7a3124731e6u0026onu003dTahu+Spesial+Inggandiu0026midu003d/g/11cjnncbf3
restaurant,restaurant,,,,PAPUA BARAT,,Indonesia,,,,https://maps.google.com/?cid=0x0:0xba66c7a3124731e6u0026onu003dUdang+Goreng+Mayonnaiseu0026midu003d/g/11cjnncbf3
restaurant,restaurant,,,,PAPUA BARAT,,Indonesia,,,,https://maps.google.com/?cid=0x0:0xba66c7a3124731e6u0026onu003dTom+Yum+Soupu0026midu003d/g/11cjnncbf3
restaurant,restaurant,,,,PAPUA BARAT,,Indonesia,,,,https://maps.google.com/?cid=0x0:0xba66c7a3124731e6u0026onu003dKwetiau+Gorengu0026midu003d/g/11cjnncbf3
restaurant,restaurant,,,,PAPUA BARAT,,Indonesia,,,,https://maps.google.com/?cid=0x0:0xba66c7a3124731e6u0026onu003dRamesu0026midu003d/g/11cjnncbf3
restaurant,Restoran,Cobek Bakar Jayapura,"Jl. Jeruk Nipis, Kota Raja, Kec. Abepura, Kota Jayapura, Papua 99225","Kota Raja, Kec. Abepura, Kota Jayapura",PAPUA BARAT,99225.0,Indonesia,82314494684.0,-2.5918465,140.6752867,https://maps.google.com/?cid=0x0:0x24939d278ae75de5
restaurant,Rumah Makan,Rumah Makan Sendok Garpu Jayapura,"Jl. Raya Abepura-Kotaraja Kota Baru, Wai Mhorock, Kec. Abepura, Kota Jayapura, Papua 99225","Wai Mhorock, Kec. Abepura, Kota Jayapura",PAPUA BARAT,99225.0,Indonesia,82310000123.0,-2.6057136,140.6694308,https://maps.google.com/?cid=0x0:0x9b347169a4f00047
restaurant,restaurant,,,,PAPUA BARAT,,Indonesia,,,,https://maps.google.com/?cid=0x0:0x9b347169a4f00047u0026onu003dNasi+Gorengu0026midu003d/g/11cmtm7z1q
restaurant,restaurant,,,,PAPUA BARAT,,Indonesia,,,,https://maps.google.com/?cid=0x0:0x9b347169a4f00047u0026onu003dPapeda+Kuah+Ikan+Kuningu0026midu003d/g/11cmtm7z1q
restaurant,restaurant,,,,PAPUA BARAT,,Indonesia,,,,https://maps.google.com/?cid=0x0:0x9b347169a4f00047u0026onu003dOtak+Otak+Bakaru0026midu003d/g/11cmtm7z1q
restaurant,restaurant,,,,PAPUA BARAT,,Indonesia,,,,https://maps.google.com/?cid=0x0:0x9b347169a4f00047u0026onu003dAneka+Sambalu0026midu003d/g/11cmtm7z1q
restaurant,restaurant,,,,PAPUA BARAT,,Indonesia,,,,https://maps.google.com/?cid=0x0:0x9b347169a4f00047u0026onu003dUdang+Saos+Telur+Asinu0026midu003d/g/11cmtm7z1q
restaurant,restaurant,,,,PAPUA BARAT,,Indonesia,,,,https://maps.google.com/?cid=0x0:0x9b347169a4f00047u0026onu003dBihun+Goreng+Seafoodu0026midu003d/g/11cmtm7z1q
restaurant,restaurant,,,,PAPUA BARAT,,Indonesia,,,,https://maps.google.com/?cid=0x0:0x9b347169a4f00047u0026onu003dUdang+Bakaru0026midu003d/g/11cmtm7z1q
restaurant,restaurant,,,,PAPUA BARAT,,Indonesia,,,,https://maps.google.com/?cid=0x0:0x9b347169a4f00047u0026onu003dIkan+Segaru0026midu003d/g/11cmtm7z1q
restaurant,restaurant,,,,PAPUA BARAT,,Indonesia,,,,https://maps.google.com/?cid=0x0:0x9b347169a4f00047u0026onu003dSop+Kepitingu0026midu003d/g/11cmtm7z1q
restaurant,restaurant,,,,PAPUA BARAT,,Indonesia,,,,https://maps.google.com/?cid=0x0:0x9b347169a4f00047u0026onu003dRahang+Tuna+Bakaru0026midu003d/g/11cmtm7z1q
restaurant,restaurant,,,,PAPUA BARAT,,Indonesia,,,,https://maps.google.com/?cid=0x0:0x9b347169a4f00047u0026onu003dUdang+Gorengu0026midu003d/g/11cmtm7z1q
restaurant,restaurant,,,,PAPUA BARAT,,Indonesia,,,,https://maps.google.com/?cid=0x0:0x9b347169a4f00047u0026onu003dSambal+Matahu0026midu003d/g/11cmtm7z1q
restaurant,restaurant,Distrik Manimeri,"Kabupaten Teluk Bintuni, Papua Bar.","Kabupaten Teluk Bintuni, Papua Bar.",PAPUA BARAT,,Indonesia,,-2.0348077,133.7298305,https://maps.google.com/?cid=0x0:0xfcc9735ace17ac7
restaurant,Kafe,Ayam Kampung Bintuni d'cafe  resto,"WMFM+2XF, Jl. Manokwari - Bintuni, Waraitama, Distrik Manimeri, Kabupaten Teluk Bintuni, Papua Bar. 98364","Jl. Manokwari - Bintuni, Waraitama, Distrik Manimeri, Kabupaten Teluk Bintuni",PAPUA BARAT,98364.0,Indonesia,82191584657.0,-2.0774299,133.6849179,https://maps.google.com/?cid=0x0:0x810d24da39b58501
restaurant,Kedai Kopi,Cafe  Resto Bintuni Business Center (BBC),Jln. Raya SP 5,"Kabupaten Teluk Bintuni, Papua Bar.",PAPUA BARAT,,Indonesia,,-2.1134603,133.615269,https://maps.google.com/?cid=0x0:0xe2e5143ddff55b23
restaurant,Makanan Siap Saji,MACE KITCHEN AND COFFEESHOP,"Jl. Raya Kali Tubi, Bintuni Tim., Distrik Bintuni, Kabupaten Teluk Bintuni, Papua Bar. 98364","Bintuni Tim., Distrik Bintuni, Kabupaten Teluk Bintuni",PAPUA BARAT,98364.0,Indonesia,,-2.1278533,133.5530143,https://maps.google.com/?cid=0x0:0x84dd65486cd7a3ec
restaurant,Rumah Makan,Warung Makan Mas Wisnu,"VJP8+H5P, Sp V. Manimery/ Argo Sigemeray, Distrik Bintuni, Kabupaten Teluk Bintuni, Papua Bar. 98364","Sp V. Manimery/ Argo Sigemeray, Distrik Bintuni, Kabupaten Teluk Bintuni",PAPUA BARAT,98364.0,Indonesia,,-2.1135468,133.6154682,https://maps.google.com/?cid=0x0:0xc260ece7cb0ee40a
restaurant,Dapur Umum,Wr. Nasi Merah Sp 3,"XP8F+2CV, Jl. Manokwari - Bintuni, Bumi Saniari, Distrik Manimeri, Kabupaten Teluk Bintuni, Papua Bar. 98364","Jl. Manokwari - Bintuni, Bumi Saniari, Distrik Manimeri, Kabupaten Teluk Bintuni",PAPUA BARAT,98364.0,Indonesia,,-2.034642,133.7236145,https://maps.google.com/?cid=0x0:0xe277faba90dbfd3a
restaurant,Brunch,Rumah makan Tibers,"Jl. Manokwari - Bintuni, Bumi Saniari, Distrik Manimeri, Kabupaten Teluk Bintuni, Papua Bar. 98364","Bumi Saniari, Distrik Manimeri, Kabupaten Teluk Bintuni",PAPUA BARAT,98364.0,Indonesia,81343190200.0,-2.0351278,133.7224246,https://maps.google.com/?cid=0x0:0x19faa27479241880
restaurant,Brunch,Ayam Goreng Abimanyu,"VJQ7+GG, Sp V. Manimery/ Argo Sigemeray, Distrik Bintuni, Kabupaten Teluk Bintuni, Papua Bar.","Kabupaten Teluk Bintuni, Papua Bar.",PAPUA BARAT,,Indonesia,82197578723.0,-2.1114085,133.6138181,https://maps.google.com/?cid=0x0:0x68e72f0331d51d68
restaurant,Indonesia,Cafe  Resto Makkareso,"VGMJ+PHJ, Bintuni Tim., Distrik Bintuni, Kabupaten Teluk Bintuni, Papua Bar. 98364","Bintuni Tim., Distrik Bintuni, Kabupaten Teluk Bintuni",PAPUA BARAT,98364.0,Indonesia,82343582016.0,-2.11567,133.5313977,https://maps.google.com/?cid=0x0:0xf12c2c81c9f633fe
restaurant,Padang,Warung Makan D'NIRA /Maharani Parfum,"VGCX+9XQ, Bintuni Tim., Distrik Bintuni, Kabupaten Teluk Bintuni, Papua Bar. 98364","Bintuni Tim., Distrik Bintuni, Kabupaten Teluk Bintuni",PAPUA BARAT,98364.0,Indonesia,,-2.1290498,133.5499736,https://maps.google.com/?cid=0x0:0x2814b20ed4aa919b
restaurant,Padang,Rumah Makan Mitra,"VGRF+CJ8, Bintuni Bar., Distrik Bintuni, Kabupaten Teluk Bintuni, Papua Bar. 98364","Bintuni Bar., Distrik Bintuni, Kabupaten Teluk Bintuni",PAPUA BARAT,98364.0,Indonesia,85244102223.0,-2.1089728,133.5240739,https://maps.google.com/?cid=0x0:0x4b4252a6a713aaa0
restaurant,Kafe,Mangrove Family Karaoke And Cafe,"Bintuni Tim., Distrik Bintuni, Kabupaten Teluk Bintuni, Papua Bar. 98364","Distrik Bintuni, Kabupaten Teluk Bintuni",PAPUA BARAT,98364.0,Indonesia,82399466658.0,-2.1277471,133.551995,https://maps.google.com/?cid=0x0:0x70b082e76b7525d1
restaurant,Nasi,Bakso Hasian,"WM9G+G27, Jl. Manokwari - Bintuni, Waraitama, Distrik Manimeri, Kabupaten Teluk Bintuni, Papua Bar. 98364","Jl. Manokwari - Bintuni, Waraitama, Distrik Manimeri, Kabupaten Teluk Bintuni",PAPUA BARAT,98364.0,Indonesia,82199276387.0,-2.0812012,133.675032,https://maps.google.com/?cid=0x0:0x3a4e8cd92ba340a7
restaurant,Restoran,Warung sabar menanti,"VJQ7+P9G, Sp V. Manimery/ Argo Sigemeray, Distrik Bintuni, Kabupaten Teluk Bintuni, Papua Bar. 98364","Sp V. Manimery/ Argo Sigemeray, Distrik Bintuni, Kabupaten Teluk Bintuni",PAPUA BARAT,98364.0,Indonesia,,-2.1103859,133.6136279,https://maps.google.com/?cid=0x0:0xbd75df910438fbf3
restaurant,Restoran,DEPOT AMORA,"WM78+79V, Banjar Ausoy (Sp IV), Distrik Manimeri, Kabupaten Teluk Bintuni, Papua Bar. 98364","Banjar Ausoy (Sp IV), Distrik Manimeri, Kabupaten Teluk Bintuni",PAPUA BARAT,98364.0,Indonesia,,-2.0867648,133.6659162,https://maps.google.com/?cid=0x0:0xb055930a0bae5985
restaurant,restaurant,Mangkuk Mas Restaurant,"Jl. Palmerah Utara I No.28E 1, RT.10/RW.16, Palmerah, Kec. Palmerah, Kota Jakarta Barat, Daerah Khusus Ibukota Jakarta 11480","RT.10/RW.16, Palmerah, Kec. Palmerah, Kota Jakarta Barat",PAPUA BARAT,11480.0,Indonesia,81290769862.0,-6.2019753,106.7982958,https://maps.google.com/?cid=0x0:0x3a8056bbeb5e0384
restaurant,Hidangan Laut,Marina Star Restaurant Seafood,"Kompleks, Jl. Bubara Jl. Pelabuhan Perikanan, Distrik Sorong, Kota Sorong, Papua Bar. 98414","Jl. Bubara Jl. Pelabuhan Perikanan, Distrik Sorong, Kota Sorong",PAPUA BARAT,98414.0,Indonesia,81240250548.0,-0.8790069,131.2552456,https://maps.google.com/?cid=0x0:0x6d780e763a272c1a
restaurant,restaurant,,,,PAPUA BARAT,,Indonesia,,,,https://maps.google.com/?cid=0x0:0x6d780e763a272c1au0026onu003dChicken+Cordon+Bleuu0026midu003d/g/11h057j22x
restaurant,restaurant,,,,PAPUA BARAT,,Indonesia,,,,https://maps.google.com/?cid=0x0:0x6d780e763a272c1au0026onu003dIkan+Asam+Manisu0026midu003d/g/11h057j22x
restaurant,restaurant,,,,PAPUA BARAT,,Indonesia,,,,https://maps.google.com/?cid=0x0:0x6d780e763a272c1au0026onu003dAneka+Hidanganu0026midu003d/g/11h057j22x
restaurant,restaurant,,,,PAPUA BARAT,,Indonesia,,,,https://maps.google.com/?cid=0x0:0x6d780e763a272c1au0026onu003dTiger+Saus+Singaporeu0026midu003d/g/11h057j22x
restaurant,restaurant,,,,PAPUA BARAT,,Indonesia,,,,https://maps.google.com/?cid=0x0:0x6d780e763a272c1au0026onu003dAneka+Menuu0026midu003d/g/11h057j22x
restaurant,restaurant,,,,PAPUA BARAT,,Indonesia,,,,https://maps.google.com/?cid=0x0:0x6d780e763a272c1au0026onu003dNasi+Goreng+Seafoodu0026midu003d/g/11h057j22x
restaurant,restaurant,,,,PAPUA BARAT,,Indonesia,,,,https://maps.google.com/?cid=0x0:0x6d780e763a272c1au0026onu003dDada+Tuna+Bakaru0026midu003d/g/11h057j22x
restaurant,restaurant,,,,PAPUA BARAT,,Indonesia,,,,https://maps.google.com/?cid=0x0:0x6d780e763a272c1au0026onu003dUdang+Banana+Goreng+Tepungu0026midu003d/g/11h057j22x
restaurant,restaurant,,,,PAPUA BARAT,,Indonesia,,,,https://maps.google.com/?cid=0x0:0x6d780e763a272c1au0026onu003dEs+Tehu0026midu003d/g/11h057j22x
restaurant,restaurant,,,,PAPUA BARAT,,Indonesia,,,,https://maps.google.com/?cid=0x0:0x6d780e763a272c1au0026onu003dBuah+Sukunu0026midu003d/g/11h057j22x
restaurant,restaurant,,,,PAPUA BARAT,,Indonesia,,,,https://maps.google.com/?cid=0x0:0x6d780e763a272c1au0026onu003dSingkong+Goreng+Lumpiau0026midu003d/g/11h057j22x
restaurant,Indonesia,meradelima,"Jl. Aditiyawarman No.47 5, RT.5/RW.2, Selong, Kec. Kby. Baru, Kota Jakarta Selatan, Daerah Khusus Ibukota Jakarta 12110","RT.5/RW.2, Selong, Kec. Kby. Baru, Kota Jakarta Selatan",PAPUA BARAT,12110.0,Indonesia,217265112.0,-6.2396464,106.804574,https://maps.google.com/?cid=0x0:0x4667bc07018ae2da
restaurant,Steak,Barapi Meat  Grill Rawa Belong (RABEL),"Jl. Rw. Belong No.3 2, RT.2/RW.3, Sukabumi Utara, Kec. Kb. Jeruk, Kota Jakarta Barat, Daerah Khusus Ibukota Jakarta 11540","RT.2/RW.3, Sukabumi Utara, Kec. Kb. Jeruk, Kota Jakarta Barat",PAPUA BARAT,11540.0,Indonesia,2153668449.0,-6.2062845,106.7830743,https://maps.google.com/?cid=0x0:0xfbadc1683aae774c
restaurant,Restoran,Barapi Meat  Grill Meruya,"Jl. Meruya Ilir Raya No.33B, RT.4/RW.8, Srengseng, Kec. Kembangan, Kota Jakarta Barat, Daerah Khusus Ibukota Jakarta 11630","RT.4/RW.8, Srengseng, Kec. Kembangan, Kota Jakarta Barat",PAPUA BARAT,11630.0,Indonesia,81388950671.0,-6.1976423,106.7517317,https://maps.google.com/?cid=0x0:0xc6a8ad4b57d01a6b
restaurant,Hidangan Laut,Republik Seafood PIK,"Republik Seafood, Kawasan Pantai Kita, Jl. Ebony 2, North Jakarta City, Jakarta 14460","Kawasan Pantai Kita, Jl. Ebony 2, North Jakarta City",PAPUA BARAT,14460.0,Indonesia,82211662100.0,-6.0880216,106.7307647,https://maps.google.com/?cid=0x0:0xa332c6ef37b3c94
restaurant,Kedai Hidangan Penutup,Maru Little Cafe,"Pasaraya Blok M, Jl. Melawai 3 Gedung A , lantai GF, Melawai, Kec. Kby. Baru, Kota Jakarta Selatan, Daerah Khusus Ibukota Jakarta 12160","Jl. Melawai 3 Gedung A , lantai GF, Melawai, Kec. Kby. Baru, Kota Jakarta Selatan",PAPUA BARAT,12160.0,Indonesia,,-6.2438469,106.8031567,https://maps.google.com/?cid=0x0:0x13ebbfab9b5663c1
restaurant,Seafood,Little bahari,"Jl. Muara Karang Raya No.70 blok z3S, Pluit, Kec. Penjaringan, Jakarta, Daerah Khusus Ibukota Jakarta 14450","Pluit, Kec. Penjaringan, Jakarta",PAPUA BARAT,14450.0,Indonesia,2122667319.0,-6.1155236,106.7756254,https://maps.google.com/?cid=0x0:0x44a03eecc8969107
restaurant,Sesuai untuk keluarga,Nicole's Garden Bistro,"Jl. Meruya Selatan No.21, RT.8/RW.1, Joglo, Kec. Kembangan, Kota Jakarta Barat, Daerah Khusus Ibukota Jakarta 11640","RT.8/RW.1, Joglo, Kec. Kembangan, Kota Jakarta Barat",PAPUA BARAT,11640.0,Indonesia,87888785777.0,-6.2164483,106.7373979,https://maps.google.com/?cid=0x0:0x6247d46f7c8fe52b
restaurant,Sarapan,Cakalang Rica,"Jl. Meruya Selatan No.21, RT.8/RW.1, Joglo, Kec. Kembangan, Kota Jakarta Barat, Daerah Khusus Ibukota Jakarta 11640","RT.8/RW.1, Joglo, Kec. Kembangan, Kota Jakarta Barat",PAPUA BARAT,11640.0,Indonesia,87888785777.0,-6.2164514,106.7374504,https://maps.google.com/?cid=0x0:0x975c6eab73de609f
restaurant,Steak,Western Meat  Steak Cabang Meruya,"RQ22+X8Q, Jl. Meruya Ilir Raya, Srengseng, Kec. Kembangan, Kota Jakarta Barat, Daerah Khusus Ibukota Jakarta","Kota Jakarta Barat, Daerah Khusus Ibukota Jakarta",PAPUA BARAT,,Indonesia,,-6.1975251,106.7508608,https://maps.google.com/?cid=0x0:0x4052f8c189e75392
restaurant,Toko Roti,Maru (Gabin Fla),"Fresh Market Emerald Bintaro, Parigi, Kec. Pd. Aren, Kota Tangerang Selatan, Banten 15227","Parigi, Kec. Pd. Aren, Kota Tangerang Selatan",PAPUA BARAT,15227.0,Indonesia,,-6.275311,106.6999543,https://maps.google.com/?cid=0x0:0xd7c8d3588f1779be
restaurant,Hidangan Laut,Grand City Restaurant (Merlynn Park Hotel),"Merlynn Park Hotel Jakarta, Jl. KH. Hasyim Ashari No.29, RT.7/RW.7, Petojo Utara, Kecamatan Gambir, Kota Jakarta Pusat, Daerah Khusus Ibukota Jakarta 10130","Jl. KH. Hasyim Ashari No.29, RT.7/RW.7, Petojo Utara, Kecamatan Gambir, Kota Jakarta Pusat",PAPUA BARAT,10130.0,Indonesia,2130026888.0,-6.1658563,106.8153896,https://maps.google.com/?cid=0x0:0x81a346ee9a12cb71
restaurant,Minimarket,Fresh Market Emerald Bintaro,"Fresh Market Emerald Bintaro, Pintu Selatan Blok PE / KA-01, RW.1, Parigi, Pondok Aren, South Tangerang City, Banten 15227","Pintu Selatan Blok PE / KA-01, RW.1, Parigi, Pondok Aren, South Tangerang City",PAPUA BARAT,15227.0,Indonesia,,-6.2753483,106.6999926,https://maps.google.com/?cid=0x0:0x767ba9acbc4a8453
restaurant,Makanan Kecil,"Little Amsterdam, Fresh Market Emerald Bintaro","Fresh Market Emerald Bintaro Blok KI-15 jalan cbd emarald Ce/D-08, Jl. Boulevard Bintaro Jaya, Parigi, Pondok Aren, South Tangerang City, Banten","Kota Tangerang Selatan, Banten",PAPUA BARAT,,Indonesia,,-6.27535,106.7003211,https://maps.google.com/?cid=0x0:0x3bce30ab936e82c8
restaurant,restaurant,Merdey,"Kabupaten Teluk Bintuni, Papua Bar.","Kabupaten Teluk Bintuni, Papua Bar.",PAPUA BARAT,,Indonesia,,-1.4189158,133.2908233,https://maps.google.com/?cid=0x0:0x7183c941829ec812
restaurant,Restoran,Billy Cafe,"Jl. Merdeka No.57, Padarni, Kec. Manokwari Bar., Kabupaten Manokwari, Papua Bar. 98312","Padarni, Kec. Manokwari Bar., Kabupaten Manokwari",PAPUA BARAT,98312.0,Indonesia,81240501959.0,-0.8596376,134.0734046,https://maps.google.com/?cid=0x0:0x245b68c7c99f326f
restaurant,Restoran,Inggandi Beach Restaurant,"43GV+7Q3, Jl. Pasir Putih No.33, Pasir Putih, Kec. Manokwari Tim., Kabupaten Manokwari, Papua Bar. 98313","Jl. Pasir Putih No.33, Pasir Putih, Kec. Manokwari Tim., Kabupaten Manokwari",PAPUA BARAT,98313.0,Indonesia,81240372255.0,-0.8780927,134.0933631,https://maps.google.com/?cid=0x0:0xba66c7a3124731e6
restaurant,restaurant,,,,PAPUA BARAT,,Indonesia,,,,https://maps.google.com/?cid=0x0:0xba66c7a3124731e6u0026onu003dPapedau0026midu003d/g/11cjnncbf3
restaurant,restaurant,,,,PAPUA BARAT,,Indonesia,,,,https://maps.google.com/?cid=0x0:0xba66c7a3124731e6u0026onu003dJeruk+Hangatu0026midu003d/g/11cjnncbf3
restaurant,restaurant,,,,PAPUA BARAT,,Indonesia,,,,https://maps.google.com/?cid=0x0:0xba66c7a3124731e6u0026onu003dMenu+Lengkapu0026midu003d/g/11cjnncbf3
restaurant,restaurant,,,,PAPUA BARAT,,Indonesia,,,,https://maps.google.com/?cid=0x0:0xba66c7a3124731e6u0026onu003dKepiting+Saus+Padangu0026midu003d/g/11cjnncbf3
restaurant,restaurant,,,,PAPUA BARAT,,Indonesia,,,,https://maps.google.com/?cid=0x0:0xba66c7a3124731e6u0026onu003dEs+Campuru0026midu003d/g/11cjnncbf3
restaurant,restaurant,,,,PAPUA BARAT,,Indonesia,,,,https://maps.google.com/?cid=0x0:0xba66c7a3124731e6u0026onu003dKakap+Asam+Manisu0026midu003d/g/11cjnncbf3
restaurant,restaurant,,,,PAPUA BARAT,,Indonesia,,,,https://maps.google.com/?cid=0x0:0xba66c7a3124731e6u0026onu003dSate+Garou0026midu003d/g/11cjnncbf3
restaurant,restaurant,,,,PAPUA BARAT,,Indonesia,,,,https://maps.google.com/?cid=0x0:0xba66c7a3124731e6u0026onu003dTahu+Spesial+Inggandiu0026midu003d/g/11cjnncbf3
restaurant,restaurant,,,,PAPUA BARAT,,Indonesia,,,,https://maps.google.com/?cid=0x0:0xba66c7a3124731e6u0026onu003dUdang+Goreng+Mayonnaiseu0026midu003d/g/11cjnncbf3
restaurant,restaurant,,,,PAPUA BARAT,,Indonesia,,,,https://maps.google.com/?cid=0x0:0xba66c7a3124731e6u0026onu003dTom+Yum+Soupu0026midu003d/g/11cjnncbf3
restaurant,restaurant,,,,PAPUA BARAT,,Indonesia,,,,https://maps.google.com/?cid=0x0:0xba66c7a3124731e6u0026onu003dKwetiau+Gorengu0026midu003d/g/11cjnncbf3
restaurant,restaurant,,,,PAPUA BARAT,,Indonesia,,,,https://maps.google.com/?cid=0x0:0xba66c7a3124731e6u0026onu003dRamesu0026midu003d/g/11cjnncbf3
restaurant,Brunch,RM.bosowa,"34QF+G82, Ekam, Tomu, Kabupaten Teluk Bintuni, Papua Bar. 98364","Ekam, Tomu, Kabupaten Teluk Bintuni",PAPUA BARAT,98364.0,Indonesia,,-1.911225,133.123254,https://maps.google.com/?cid=0x0:0xd2e17b91c3c2edb2
restaurant,Dapur Umum,Warung Risma,"3499+JH, Ekam, Tomu, Kabupaten Teluk Bintuni, Papua Bar.","Kabupaten Teluk Bintuni, Papua Bar.",PAPUA BARAT,,Indonesia,,-1.9309121,133.118944,https://maps.google.com/?cid=0x0:0x85b905e43f695115
restaurant,Restoran,Inggandi Beach Restaurant,"43GV+7Q3, Jl. Pasir Putih No.33, Pasir Putih, Kec. Manokwari Tim., Kabupaten Manokwari, Papua Bar. 98313","Jl. Pasir Putih No.33, Pasir Putih, Kec. Manokwari Tim., Kabupaten Manokwari",PAPUA BARAT,98313.0,Indonesia,81240372255.0,-0.8780927,134.0933631,https://maps.google.com/?cid=0x0:0xba66c7a3124731e6
restaurant,restaurant,Distrik Moskona Timur,"Kabupaten Teluk Bintuni, Papua Bar.","Kabupaten Teluk Bintuni, Papua Bar.",PAPUA BARAT,,Indonesia,,-1.311813,132.9806087,https://maps.google.com/?cid=0x0:0x97750e766a777e76
restaurant,Hidangan Laut,Marina Star Restaurant Seafood,"Kompleks, Jl. Bubara Jl. Pelabuhan Perikanan, Distrik Sorong, Kota Sorong, Papua Bar. 98414","Jl. Bubara Jl. Pelabuhan Perikanan, Distrik Sorong, Kota Sorong",PAPUA BARAT,98414.0,Indonesia,81240250548.0,-0.8790069,131.2552456,https://maps.google.com/?cid=0x0:0x6d780e763a272c1a
restaurant,Restoran,DJ Resto,"GR8X+39M, Jl. Cendrawasih, Karang Senang, Kec. Kuala Kencana, Kabupaten Mimika, Papua 99910","Jl. Cendrawasih, Karang Senang, Kec. Kuala Kencana, Kabupaten Mimika",PAPUA BARAT,99910.0,Indonesia,82199260026.0,-4.4847814,136.8484316,https://maps.google.com/?cid=0x0:0xb84834f33eb06c32
restaurant,China,Kuala Oriental Restaurant-Kuala Kencana,"JV38+P6J Komplek Retail Center, Jl. Kuala Kencana, Bhintuka, Kec. Kuala Kencana, Kabupaten Mimika, Papua 99910","Jl. Kuala Kencana, Bhintuka, Kec. Kuala Kencana, Kabupaten Mimika",PAPUA BARAT,99910.0,Indonesia,901302888.0,-4.3956651,136.8655246,https://maps.google.com/?cid=0x0:0x9d02b811a593749e
restaurant,Kedai Kopi,Warung Bapak Zaka,"M57F+HV4, Morombuy, Merdey, Kabupaten Teluk Bintuni, Papua Bar.","Kabupaten Teluk Bintuni, Papua Bar.",PAPUA BARAT,,Indonesia,,-1.3361154,133.1747162,https://maps.google.com/?cid=0x0:0x4cf7ab3ae62f4727
restaurant,Masakan Asia,RM Kuala Oriental,"Jl. Budi Utomo No.88A, Kwamki, Kec. Mimika Baru, Kabupaten Mimika, Papua 99971","Kwamki, Kec. Mimika Baru, Kabupaten Mimika",PAPUA BARAT,99971.0,Indonesia,81224989888.0,-4.5432787,136.8840215,https://maps.google.com/?cid=0x0:0xa200bb016a6f04d5
restaurant,restaurant,Kali semen,"M57F+HV4, Morombuy, Merdey, Kabupaten Teluk Bintuni, Papua Bar.","Kabupaten Teluk Bintuni, Papua Bar.",PAPUA BARAT,,Indonesia,,-1.3361154,133.1747162,https://maps.google.com/?cid=0x0:0xecbb982f6b18b8db
restaurant,restaurant,Candra Eka Risti,"M57F+HV4, jln nunsatra, Jl. Nusantara Katapop II, Majaran, Salawati, Sorong, Papua Bar. 98451","jln nunsatra, Jl. Nusantara Katapop II, Majaran, Salawati, Sorong",PAPUA BARAT,98451.0,Indonesia,82238320365.0,-1.3361154,133.1747162,https://maps.google.com/?cid=0x0:0xbf1062e385641c3f
restaurant,Restoran,Kabupaten wasior,"M57F+HV4, Morombuy, Merdey, Kabupaten Teluk Bintuni, Papua Bar.","Kabupaten Teluk Bintuni, Papua Bar.",PAPUA BARAT,,Indonesia,,-1.3361154,133.1747162,https://maps.google.com/?cid=0x0:0x5c8a1dc8576d6163
restaurant,restaurant,Restaurant cuan setrong,"M57F+HV4, Morombuy, Merdey, Papua, Papua Bar. 98011","Morombuy, Merdey, Papua",PAPUA BARAT,98011.0,Indonesia,,-1.3361154,133.1747162,https://maps.google.com/?cid=0x0:0xcf54f7d77b2e04b4
restaurant,Kafe,Oriestom Cafe  Restaurant,"43F2+G88, Jl. Trikora Rendani, Wosi, Kec. Manokwari Bar., Kabupaten Manokwari, Papua Bar. 98312","Jl. Trikora Rendani, Wosi, Kec. Manokwari Bar., Kabupaten Manokwari",PAPUA BARAT,98312.0,Indonesia,,-0.8762199,134.0508422,https://maps.google.com/?cid=0x0:0xe50589caa694703f
restaurant,Restoran,Oâ Snack Kafe Otoritas,"Jl. Trikora Rendani, Sowi, Distrik Manokwari, Kabupaten Manokwari, Papua Bar. 98313","Sowi, Distrik Manokwari, Kabupaten Manokwari",PAPUA BARAT,98313.0,Indonesia,,-0.8859283,134.0517921,https://maps.google.com/?cid=0x0:0x2b1b712fbfee7434
restaurant,restaurant,,,,PAPUA BARAT,,Indonesia,,,,https://maps.google.com/?cid=0x0:0xe50589caa694703fu0026onu003dNasi+Gorengu0026midu003d/g/11h51jf9xl
restaurant,restaurant,,,,PAPUA BARAT,,Indonesia,,,,https://maps.google.com/?cid=0x0:0xe50589caa694703fu0026onu003dCappucinou0026midu003d/g/11h51jf9xl
restaurant,restaurant,,,,PAPUA BARAT,,Indonesia,,,,https://maps.google.com/?cid=0x0:0xe50589caa694703fu0026onu003dWedang+Jaheu0026midu003d/g/11h51jf9xl
restaurant,restaurant,,,,PAPUA BARAT,,Indonesia,,,,https://maps.google.com/?cid=0x0:0xe50589caa694703fu0026onu003dSingkong+Gorengu0026midu003d/g/11h51jf9xl
restaurant,restaurant,,,,PAPUA BARAT,,Indonesia,,,,https://maps.google.com/?cid=0x0:0xe50589caa694703fu0026onu003dGurameh+Sambel+Ijou0026midu003d/g/11h51jf9xl
restaurant,restaurant,,,,PAPUA BARAT,,Indonesia,,,,https://maps.google.com/?cid=0x0:0xe50589caa694703fu0026onu003dBebek+Lalapanu0026midu003d/g/11h51jf9xl
restaurant,restaurant,,,,PAPUA BARAT,,Indonesia,,,,https://maps.google.com/?cid=0x0:0xe50589caa694703fu0026onu003dSoto+Hati+Dan+Otaku0026midu003d/g/11h51jf9xl
restaurant,restaurant,,,,PAPUA BARAT,,Indonesia,,,,https://maps.google.com/?cid=0x0:0xe50589caa694703fu0026onu003dJus+Kedondong+Dan+Jus+Buah+Nagau0026midu003d/g/11h51jf9xl
restaurant,restaurant,,,,PAPUA BARAT,,Indonesia,,,,https://maps.google.com/?cid=0x0:0xe50589caa694703fu0026onu003dTehu0026midu003d/g/11h51jf9xl
restaurant,restaurant,,,,PAPUA BARAT,,Indonesia,,,,https://maps.google.com/?cid=0x0:0xe50589caa694703fu0026onu003dDaging+Sapi+Lada+Hitam+Sayur+Toge+Dan+Udang+Goreng+Tepungu0026midu003d/g/11h51jf9xl
restaurant,restaurant,,,,PAPUA BARAT,,Indonesia,,,,https://maps.google.com/?cid=0x0:0xe50589caa694703fu0026onu003dIkan+Kakap+Bakaru0026midu003d/g/11h51jf9xl
restaurant,restaurant,,,,PAPUA BARAT,,Indonesia,,,,https://maps.google.com/?cid=0x0:0xe50589caa694703fu0026onu003dCah+Tauge+Ikan+Asinu0026midu003d/g/11h51jf9xl
restaurant,Perusahaan Konstruksi,PSU Townsite Office CSTS JO. - LNG Tangguh,"G5Q2+69Q, Tanah Merah, Kec. Sumuri, Kabupaten Teluk Bintuni, Papua Bar. 98363","Tanah Merah, Kec. Sumuri, Kabupaten Teluk Bintuni",PAPUA BARAT,98363.0,Indonesia,,-2.46192,133.1509857,https://maps.google.com/?cid=0x0:0xdb28b110b0779c4e
restaurant,Kantor Perusahaan,Petrosea Site Office,"Tanah Merah, Kec. Sumuri, Kabupaten Teluk Bintuni, Papua Bar. 98363","Kec. Sumuri, Kabupaten Teluk Bintuni",PAPUA BARAT,98363.0,Indonesia,,-2.4596114,133.1489113,https://maps.google.com/?cid=0x0:0xb0160d1b5e3b2faa
restaurant,restaurant,Saengga,"Kec. Sumuri, Kabupaten Teluk Bintuni, Papua Bar.","Kabupaten Teluk Bintuni, Papua Bar.",PAPUA BARAT,,Indonesia,,-2.5122975,133.1165621,https://maps.google.com/?cid=0x0:0xe50ca1b18a711d41
restaurant,restaurant,Distrik Tembuni,"Kabupaten Teluk Bintuni, Papua Bar.","Kabupaten Teluk Bintuni, Papua Bar.",PAPUA BARAT,,Indonesia,,-1.9799814,133.4065009,https://maps.google.com/?cid=0x0:0xdf538382e229efa6
restaurant,Padang,Rumah Makan Mitra,"VGRF+CJ8, Bintuni Bar., Distrik Bintuni, Kabupaten Teluk Bintuni, Papua Bar. 98364","Bintuni Bar., Distrik Bintuni, Kabupaten Teluk Bintuni",PAPUA BARAT,98364.0,Indonesia,85244102223.0,-2.1089728,133.5240739,https://maps.google.com/?cid=0x0:0x4b4252a6a713aaa0
restaurant,Padang,Rumah Makan Nusantara,"VHGC+997, Bintuni Tim., Distrik Bintuni, Kabupaten Teluk Bintuni, Papua Bar. 98364","Bintuni Tim., Distrik Bintuni, Kabupaten Teluk Bintuni",PAPUA BARAT,98364.0,Indonesia,,-2.1240848,133.5709304,https://maps.google.com/?cid=0x0:0x1be9f0e62d08f931
restaurant,Kedai Kopi,Cafe  Resto Bintuni Business Center (BBC),Jln. Raya SP 5,"Kabupaten Teluk Bintuni, Papua Bar.",PAPUA BARAT,,Indonesia,,-2.1134603,133.615269,https://maps.google.com/?cid=0x0:0xe2e5143ddff55b23
restaurant,Padang,Sinar Padang,"VGHP+JQR, Bintuni Tim., Distrik Bintuni, Kabupaten Teluk Bintuni, Papua Bar. 98364","Bintuni Tim., Distrik Bintuni, Kabupaten Teluk Bintuni",PAPUA BARAT,98364.0,Indonesia,,-2.1208904,133.5368758,https://maps.google.com/?cid=0x0:0x38c776b1f5347e77
restaurant,Makanan Siap Saji,MACE KITCHEN AND COFFEESHOP,"Jl. Raya Kali Tubi, Bintuni Tim., Distrik Bintuni, Kabupaten Teluk Bintuni, Papua Bar. 98364","Bintuni Tim., Distrik Bintuni, Kabupaten Teluk Bintuni",PAPUA BARAT,98364.0,Indonesia,,-2.1278533,133.5530143,https://maps.google.com/?cid=0x0:0x84dd65486cd7a3ec
restaurant,Indonesia,Warung Makan Binangkit,"VHC2+HC4, Jl. Raya Kali Tubi, Bintuni Tim., Distrik Bintuni, Kabupaten Teluk Bintuni, Papua Bar. 98364","Jl. Raya Kali Tubi, Bintuni Tim., Distrik Bintuni, Kabupaten Teluk Bintuni",PAPUA BARAT,98364.0,Indonesia,81340939785.0,-2.1286,133.5510661,https://maps.google.com/?cid=0x0:0xaa1dea81cda24b5f
restaurant,Restoran,WARUNG PUALAM,"VGQG+W3F Komplek masui, Bintuni Bar., Distrik Bintuni, Kabupaten Teluk Bintuni, Papua Bar. 98364","Bintuni Bar., Distrik Bintuni, Kabupaten Teluk Bintuni",PAPUA BARAT,98364.0,Indonesia,,-2.1101767,133.5251799,https://maps.google.com/?cid=0x0:0x3b972e6e71212570
restaurant,Padang,Warung Makan D'NIRA /Maharani Parfum,"VGCX+9XQ, Bintuni Tim., Distrik Bintuni, Kabupaten Teluk Bintuni, Papua Bar. 98364","Bintuni Tim., Distrik Bintuni, Kabupaten Teluk Bintuni",PAPUA BARAT,98364.0,Indonesia,,-2.1290498,133.5499736,https://maps.google.com/?cid=0x0:0x2814b20ed4aa919b
restaurant,Indonesia,Cafe  Resto Makkareso,"VGMJ+PHJ, Bintuni Tim., Distrik Bintuni, Kabupaten Teluk Bintuni, Papua Bar. 98364","Bintuni Tim., Distrik Bintuni, Kabupaten Teluk Bintuni",PAPUA BARAT,98364.0,Indonesia,82343582016.0,-2.11567,133.5313977,https://maps.google.com/?cid=0x0:0xf12c2c81c9f633fe
restaurant,Indonesia,Warung Makan Embun Malam LamongaN,"VGGW+866 Warung Embun Malam Lamongan, Bintuni Tim., Distrik Bintuni, Kabupaten Teluk Bintuni, Papua Bar. 98364","Bintuni Tim., Distrik Bintuni, Kabupaten Teluk Bintuni",PAPUA BARAT,98364.0,Indonesia,81344073255.0,-2.1242117,133.5455001,https://maps.google.com/?cid=0x0:0xc0e1ba2a35c519ca
restaurant,Rumah Makan,Warung Makan Sedap Rasa,"VGCX+X34, Bintuni Tim., Distrik Bintuni, Kabupaten Teluk Bintuni, Papua Bar. 98364","Bintuni Tim., Distrik Bintuni, Kabupaten Teluk Bintuni",PAPUA BARAT,98364.0,Indonesia,82198515469.0,-2.1276149,133.547699,https://maps.google.com/?cid=0x0:0x32074652d175627f
restaurant,Rumah Makan,Bubur Ayam Paling Enak,"VHC2+H7H, Bintuni Tim., Distrik Bintuni, Kabupaten Teluk Bintuni, Papua Bar. 98364","Bintuni Tim., Distrik Bintuni, Kabupaten Teluk Bintuni",PAPUA BARAT,98364.0,Indonesia,,-2.128565,133.5507287,https://maps.google.com/?cid=0x0:0x26656ad7aa38ba95
restaurant,Kafe,Mangrove Family Karaoke And Cafe,"Bintuni Tim., Distrik Bintuni, Kabupaten Teluk Bintuni, Papua Bar. 98364","Distrik Bintuni, Kabupaten Teluk Bintuni",PAPUA BARAT,98364.0,Indonesia,82399466658.0,-2.1277471,133.551995,https://maps.google.com/?cid=0x0:0x70b082e76b7525d1
restaurant,restaurant,Papua Bar. 98365,"Kabupaten Teluk Bintuni, Papua Bar.","Kabupaten Teluk Bintuni, Papua Bar.",PAPUA BARAT,,Indonesia,,-1.9250686,132.7076107,https://maps.google.com/?cid=0x0:0xe2813bacbf5a0787
restaurant,Restoran,RM Selera Jogorogo.,"QXMC+8P9, Unnamed Road, Sebyar Rejosari, Tomu, Kabupaten Teluk Bintuni, Papua Bar. 98365","Unnamed Road, Sebyar Rejosari, Tomu, Kabupaten Teluk Bintuni",PAPUA BARAT,98365.0,Indonesia,81247461378.0,-2.216711,132.9718596,https://maps.google.com/?cid=0x0:0xc7a04d5c3fda931d
restaurant,Dapur Umum,Warung Risma,"3499+JH, Ekam, Tomu, Kabupaten Teluk Bintuni, Papua Bar.","Kabupaten Teluk Bintuni, Papua Bar.",PAPUA BARAT,,Indonesia,,-1.9309121,133.118944,https://maps.google.com/?cid=0x0:0x85b905e43f695115
restaurant,Rumah Makan,RM Mubin Farid,"QXJC+RH9, Unnamed Road, Sebyar Rejosari, Tomu, Kabupaten Teluk Bintuni, Papua Bar. 98365","Unnamed Road, Sebyar Rejosari, Tomu, Kabupaten Teluk Bintuni",PAPUA BARAT,98365.0,Indonesia,82398177071.0,-2.217975,132.9714983,https://maps.google.com/?cid=0x0:0x737c63031376d285
restaurant,Kedai Kopi,Arvastenk cafe,"34QF+J34 Vasco Damneen, Ekam, Tomu, Teluk Bintuni Regency, West Papua","Kabupaten Teluk Bintuni, Papua Bar.",PAPUA BARAT,,Indonesia,,-1.9109991,133.1226998,https://maps.google.com/?cid=0x0:0xa6ebd0aba70dc384
restaurant,restaurant,WARUNG AREMA,"Stengkol 3, distrik Meyado, Ekam, Tomu, Kabupaten Teluk Bintuni, Papua Bar. 98364","distrik Meyado, Ekam, Tomu, Kabupaten Teluk Bintuni",PAPUA BARAT,98364.0,Indonesia,,-1.9122117,133.1273117,https://maps.google.com/?cid=0x0:0xfd77b77e70977991
restaurant,Restoran,Warung Makan Mubin Farid,"V3J5+Q8W, Sebyar Rejosari, Tomu, Kabupaten Teluk Bintuni, Papua Bar. 98365","Sebyar Rejosari, Tomu, Kabupaten Teluk Bintuni",PAPUA BARAT,98365.0,Indonesia,81343124220.0,-2.1180173,133.0583409,https://maps.google.com/?cid=0x0:0x329c7e1330a2ce5c
restaurant,restaurant,Tomu,"Kabupaten Teluk Bintuni, Papua Bar.","Kabupaten Teluk Bintuni, Papua Bar.",PAPUA BARAT,,Indonesia,,-2.0596458,133.058341,https://maps.google.com/?cid=0x0:0x3ebc0177b26474d6
restaurant,Rumah Makan,Rumah Makan Mami Tioe,"VGGW+2W7, Jl. Raya Bintuni Kalikodok, East Bintuni, Bintuni, Teluk Bintuni Regency, West Papua 98364","Jl. Raya Bintuni Kalikodok, East Bintuni, Bintuni, Teluk Bintuni Regency",PAPUA BARAT,98364.0,Indonesia,,-2.1249735,133.5473066,https://maps.google.com/?cid=0x0:0x70d04e41dc29fa88
restaurant,Makanan Siap Saji,MACE KITCHEN AND COFFEESHOP,"Jl. Raya Kali Tubi, Bintuni Tim., Distrik Bintuni, Kabupaten Teluk Bintuni, Papua Bar. 98364","Bintuni Tim., Distrik Bintuni, Kabupaten Teluk Bintuni",PAPUA BARAT,98364.0,Indonesia,,-2.1278533,133.5530143,https://maps.google.com/?cid=0x0:0x84dd65486cd7a3ec
restaurant,Thailand,TomTom Grand Indonesia,"Jl. MH Thamrin No.SB5-05 No.1, RT.1/RW.5, Menteng, Kec. Menteng, Kota Jakarta Pusat, Daerah Khusus Ibukota Jakarta 10310","RT.1/RW.5, Menteng, Kec. Menteng, Kota Jakarta Pusat",PAPUA BARAT,10310.0,Indonesia,2123580412.0,-6.1963902,106.8225851,https://maps.google.com/?cid=0x0:0x7d3a10ab3a9c437a
restaurant,restaurant,Tomu,"Tomu, Kabupaten Teluk Bintuni, Papua Bar.","Kabupaten Teluk Bintuni, Papua Bar.",PAPUA BARAT,,Indonesia,,-1.9861962,133.0777555,https://maps.google.com/?cid=0x0:0x54136bc08455068b
restaurant,Indonesia,Cafe  Resto Makkareso,"VGMJ+PHJ, Bintuni Tim., Distrik Bintuni, Kabupaten Teluk Bintuni, Papua Bar. 98364","Bintuni Tim., Distrik Bintuni, Kabupaten Teluk Bintuni",PAPUA BARAT,98364.0,Indonesia,82343582016.0,-2.11567,133.5313977,https://maps.google.com/?cid=0x0:0xf12c2c81c9f633fe
restaurant,Padang,Rumah Makan Nusantara,"VHGC+997, Bintuni Tim., Distrik Bintuni, Kabupaten Teluk Bintuni, Papua Bar. 98364","Bintuni Tim., Distrik Bintuni, Kabupaten Teluk Bintuni",PAPUA BARAT,98364.0,Indonesia,,-2.1240848,133.5709304,https://maps.google.com/?cid=0x0:0x1be9f0e62d08f931
restaurant,restaurant,Distrik Tuhiba,"Kabupaten Teluk Bintuni, Papua Bar.","Kabupaten Teluk Bintuni, Papua Bar.",PAPUA BARAT,,Indonesia,,-1.9874608,133.6203736,https://maps.google.com/?cid=0x0:0x19d3a0288704397d
restaurant,Makanan Siap Saji,MACE KITCHEN AND COFFEESHOP,"Jl. Raya Kali Tubi, Bintuni Tim., Distrik Bintuni, Kabupaten Teluk Bintuni, Papua Bar. 98364","Bintuni Tim., Distrik Bintuni, Kabupaten Teluk Bintuni",PAPUA BARAT,98364.0,Indonesia,,-2.1278533,133.5530143,https://maps.google.com/?cid=0x0:0x84dd65486cd7a3ec
restaurant,Padang,Rumah Makan Mitra,"VGRF+CJ8, Bintuni Bar., Distrik Bintuni, Kabupaten Teluk Bintuni, Papua Bar. 98364","Bintuni Bar., Distrik Bintuni, Kabupaten Teluk Bintuni",PAPUA BARAT,98364.0,Indonesia,85244102223.0,-2.1089728,133.5240739,https://maps.google.com/?cid=0x0:0x4b4252a6a713aaa0
restaurant,Kafe,Ayam Kampung Bintuni d'cafe  resto,"WMFM+2XF, Jl. Manokwari - Bintuni, Waraitama, Distrik Manimeri, Kabupaten Teluk Bintuni, Papua Bar. 98364","Jl. Manokwari - Bintuni, Waraitama, Distrik Manimeri, Kabupaten Teluk Bintuni",PAPUA BARAT,98364.0,Indonesia,82191584657.0,-2.0774299,133.6849179,https://maps.google.com/?cid=0x0:0x810d24da39b58501
restaurant,Padang,Sinar Padang,"VGHP+JQR, Bintuni Tim., Distrik Bintuni, Kabupaten Teluk Bintuni, Papua Bar. 98364","Bintuni Tim., Distrik Bintuni, Kabupaten Teluk Bintuni",PAPUA BARAT,98364.0,Indonesia,,-2.1208904,133.5368758,https://maps.google.com/?cid=0x0:0x38c776b1f5347e77
restaurant,Padang,Rumah Makan Soponyono,"VGPH+Q4W, Depan Pelabuhan, West Bintuni, Bintuni, Teluk Bintuni Regency, West Papua 98364","Depan Pelabuhan, West Bintuni, Bintuni, Teluk Bintuni Regency",PAPUA BARAT,98364.0,Indonesia,,-2.1130217,133.52782,https://maps.google.com/?cid=0x0:0xdbec2411b00ad92e
restaurant,Kedai Kopi,Cafe  Resto Bintuni Business Center (BBC),Jln. Raya SP 5,"Kabupaten Teluk Bintuni, Papua Bar.",PAPUA BARAT,,Indonesia,,-2.1134603,133.615269,https://maps.google.com/?cid=0x0:0xe2e5143ddff55b23
restaurant,Restoran,Deasy Kedai,"VGFX+CRJ, Bintuni Tim., Distrik Bintuni, Kabupaten Teluk Bintuni, Papua Bar. 98364","Bintuni Tim., Distrik Bintuni, Kabupaten Teluk Bintuni",PAPUA BARAT,98364.0,Indonesia,82239859681.0,-2.1264032,133.5495053,https://maps.google.com/?cid=0x0:0x4adf46a3a8c98ea3
restaurant,Padang,Rumah Makan Nusantara,"VHGC+997, Bintuni Tim., Distrik Bintuni, Kabupaten Teluk Bintuni, Papua Bar. 98364","Bintuni Tim., Distrik Bintuni, Kabupaten Teluk Bintuni",PAPUA BARAT,98364.0,Indonesia,,-2.1240848,133.5709304,https://maps.google.com/?cid=0x0:0x1be9f0e62d08f931
restaurant,Indonesia,Cafe  Resto Makkareso,"VGMJ+PHJ, Bintuni Tim., Distrik Bintuni, Kabupaten Teluk Bintuni, Papua Bar. 98364","Bintuni Tim., Distrik Bintuni, Kabupaten Teluk Bintuni",PAPUA BARAT,98364.0,Indonesia,82343582016.0,-2.11567,133.5313977,https://maps.google.com/?cid=0x0:0xf12c2c81c9f633fe
restaurant,Restoran,Warung Elyta,"VGGV+FMF, Unnamed Road, Bintuni Tim., Distrik Bintuni, Kabupaten Teluk Bintuni, Papua Bar. 98364","Unnamed Road, Bintuni Tim., Distrik Bintuni, Kabupaten Teluk Bintuni",PAPUA BARAT,98364.0,Indonesia,,-2.1238003,133.5441652,https://maps.google.com/?cid=0x0:0xee427b67a6d49b7e
restaurant,Rumah Makan,Warung Makan Sedap Rasa,"VGCX+X34, Bintuni Tim., Distrik Bintuni, Kabupaten Teluk Bintuni, Papua Bar. 98364","Bintuni Tim., Distrik Bintuni, Kabupaten Teluk Bintuni",PAPUA BARAT,98364.0,Indonesia,82198515469.0,-2.1276149,133.547699,https://maps.google.com/?cid=0x0:0x32074652d175627f
restaurant,Restoran,Babehque,"VGMM+88P, Bintuni Tim., Distrik Bintuni, Kabupaten Teluk Bintuni, Papua Bar.","Kabupaten Teluk Bintuni, Papua Bar.",PAPUA BARAT,,Indonesia,,-2.116667,133.533333,https://maps.google.com/?cid=0x0:0x7836238b31be1901
restaurant,Rumah Makan,Warung Makan Mas Wisnu,"VJP8+H5P, Sp V. Manimery/ Argo Sigemeray, Distrik Bintuni, Kabupaten Teluk Bintuni, Papua Bar. 98364","Sp V. Manimery/ Argo Sigemeray, Distrik Bintuni, Kabupaten Teluk Bintuni",PAPUA BARAT,98364.0,Indonesia,,-2.1135468,133.6154682,https://maps.google.com/?cid=0x0:0xc260ece7cb0ee40a
restaurant,restaurant,Wamesa,"Kabupaten Teluk Bintuni, Papua Bar.","Kabupaten Teluk Bintuni, Papua Bar.",PAPUA BARAT,,Indonesia,,-2.1434612,133.981812,https://maps.google.com/?cid=0x0:0x255b33cb1fd7a021
restaurant,restaurant,Papua Bar. 98361,"Kabupaten Teluk Wondama, Papua Bar.","Kabupaten Teluk Wondama, Papua Bar.",PAPUA BARAT,,Indonesia,,-2.4815085,134.2099791,https://maps.google.com/?cid=0x0:0xe298b41c3e32d0eb
restaurant,restaurant,Wamesa,"Kabupaten Teluk Wondama, Papua Bar.","Kabupaten Teluk Wondama, Papua Bar.",PAPUA BARAT,,Indonesia,,-2.1544139,134.0770134,https://maps.google.com/?cid=0x0:0x66173cbf11eb7129
restaurant,Restoran,DEPOT AMORA,"WM78+79V, Banjar Ausoy (Sp IV), Distrik Manimeri, Kabupaten Teluk Bintuni, Papua Bar. 98364","Banjar Ausoy (Sp IV), Distrik Manimeri, Kabupaten Teluk Bintuni",PAPUA BARAT,98364.0,Indonesia,,-2.0867648,133.6659162,https://maps.google.com/?cid=0x0:0xb055930a0bae5985
restaurant,restaurant,Wamesa,"Kabupaten Teluk Bintuni, Papua Bar.","Kabupaten Teluk Bintuni, Papua Bar.",PAPUA BARAT,,Indonesia,,-2.1434612,133.981812,https://maps.google.com/?cid=0x0:0x255b33cb1fd7a021
restaurant,Dapur Umum,WarungeZ,"Jalur A SP 3, Bumi Saniari, Distrik Manimeri, Kabupaten Teluk Bintuni, Papua Bar. 98364","Bumi Saniari, Distrik Manimeri, Kabupaten Teluk Bintuni",PAPUA BARAT,98364.0,Indonesia,,-2.0490367,133.7269103,https://maps.google.com/?cid=0x0:0xb13663c80bfe452f
restaurant,Kafe,Ayam Kampung Bintuni d'cafe  resto,"WMFM+2XF, Jl. Manokwari - Bintuni, Waraitama, Distrik Manimeri, Kabupaten Teluk Bintuni, Papua Bar. 98364","Jl. Manokwari - Bintuni, Waraitama, Distrik Manimeri, Kabupaten Teluk Bintuni",PAPUA BARAT,98364.0,Indonesia,82191584657.0,-2.0774299,133.6849179,https://maps.google.com/?cid=0x0:0x810d24da39b58501
restaurant,restaurant,Papua Bar. 98364,"Kabupaten Teluk Bintuni, Papua Bar.","Kabupaten Teluk Bintuni, Papua Bar.",PAPUA BARAT,,Indonesia,,-1.8959987,133.6375314,https://maps.google.com/?cid=0x0:0x5d92307b98683ecf
restaurant,Restoran,RM Selera Jogorogo.,"QXMC+8P9, Unnamed Road, Sebyar Rejosari, Tomu, Kabupaten Teluk Bintuni, Papua Bar. 98365","Unnamed Road, Sebyar Rejosari, Tomu, Kabupaten Teluk Bintuni",PAPUA BARAT,98365.0,Indonesia,81247461378.0,-2.216711,132.9718596,https://maps.google.com/?cid=0x0:0xc7a04d5c3fda931d
restaurant,restaurant,Distrik Weriagar,"Kabupaten Teluk Bintuni, Papua Bar.","Kabupaten Teluk Bintuni, Papua Bar.",PAPUA BARAT,,Indonesia,,-2.2729914,132.892696,https://maps.google.com/?cid=0x0:0xa59e3da385ccd401
restaurant,Rumah Makan,RM Mubin Farid,"QXJC+RH9, Unnamed Road, Sebyar Rejosari, Tomu, Kabupaten Teluk Bintuni, Papua Bar. 98365","Unnamed Road, Sebyar Rejosari, Tomu, Kabupaten Teluk Bintuni",PAPUA BARAT,98365.0,Indonesia,82398177071.0,-2.217975,132.9714983,https://maps.google.com/?cid=0x0:0x737c63031376d285
restaurant,Brunch,RM.bosowa,"34QF+G82, Ekam, Tomu, Kabupaten Teluk Bintuni, Papua Bar. 98364","Ekam, Tomu, Kabupaten Teluk Bintuni",PAPUA BARAT,98364.0,Indonesia,,-1.911225,133.123254,https://maps.google.com/?cid=0x0:0xd2e17b91c3c2edb2
