Category,Real Category,Business Name,Address,City,State,Postal Code,Country,Phone,Latitude,Longitude,Map Link
mall,mall,Distrik Aranday,"Kabupaten Teluk Bintuni, Papua Bar.","Kabupaten Teluk Bintuni, Papua Bar.",PAPUA BARAT,,Indonesia,,-1.925379,133.229204,https://maps.google.com/?cid=0x0:0xab05e8c7d8e39b11
mall,Pusat Perbelanjaan,Kios BONEX,"V3J5+Q8W, Sebyar Rejosari, Tomu, Kabupaten Teluk Bintuni, Papua Bar. 98365","Sebyar Rejosari, Tomu, Kabupaten Teluk Bintuni",PAPUA BARAT,98365.0,Indonesia,82221072204.0,-2.1180173,133.0583409,https://maps.google.com/?cid=0x0:0xe506201a665b6723
mall,Pusat Perbelanjaan,Manokwari City Mall (MCM),"Jl. Yos Sudarso Manokwari, Manokwari Bar., Kec. Manokwari Bar., Kabupaten Manokwari, Papua Bar. 98312","Manokwari Bar., Kec. Manokwari Bar., Kabupaten Manokwari",PAPUA BARAT,98312.0,Indonesia,8114918899.0,-0.85693,134.0678051,https://maps.google.com/?cid=0x0:0x7e7b90df1d787501
mall,Pusat Perbelanjaan,ASHTA District 8,"Jl. Senopati No.83, Senayan, Kec. Kby. Baru, Kota Jakarta Selatan, Daerah Khusus Ibukota Jakarta 12190","Senayan, Kec. Kby. Baru, Kota Jakarta Selatan",PAPUA BARAT,12190.0,Indonesia,2150262888.0,-6.229976,106.8070846,https://maps.google.com/?cid=0x0:0x1042cab307c13c5f
mall,Kompleks Bangunan Perusahaan,SCBD Lot 8,"QRC5+MWR, RT.5/RW.3, Senayan, Kec. Kby. Baru, Kota Jakarta Selatan, Daerah Khusus Ibukota Jakarta 12190","RT.5/RW.3, Senayan, Kec. Kby. Baru, Kota Jakarta Selatan",PAPUA BARAT,12190.0,Indonesia,,-6.2282749,106.8097563,https://maps.google.com/?cid=0x0:0x41de11218f74b87f
mall,Pusat Perbelanjaan,District 8 SCBD,"Jalan Senopati Dalam No.8B LOT 28, RT.5/RW.3, Senayan, Kec. Kby. Baru, Kota Jakarta Selatan, Daerah Khusus Ibukota Jakarta 12190","RT.5/RW.3, Senayan, Kec. Kby. Baru, Kota Jakarta Selatan",PAPUA BARAT,12190.0,Indonesia,217248800.0,-6.2302699,106.8067915,https://maps.google.com/?cid=0x0:0xb4e00e59a970abc9
mall,Mi,Seporsi miekari,"Jl. Senopati No.83, Senayan, Kec. Kby. Baru, Kota Jakarta Selatan, Daerah Khusus Ibukota Jakarta 12190","Senayan, Kec. Kby. Baru, Kota Jakarta Selatan",PAPUA BARAT,12190.0,Indonesia,,-6.2297415,106.8070988,https://maps.google.com/?cid=0x0:0x23450524bf5aba82
mall,mall,Aroba,"Distrik Aroba, Kabupaten Teluk Bintuni, Papua Bar.","Kabupaten Teluk Bintuni, Papua Bar.",PAPUA BARAT,,Indonesia,,-2.7579448,133.5799151,https://maps.google.com/?cid=0x0:0xde88d08daed2fbc6
mall,mall,Distrik Aroba,"Kabupaten Teluk Bintuni, Papua Bar.","Kabupaten Teluk Bintuni, Papua Bar.",PAPUA BARAT,,Indonesia,,-2.6623708,133.4066618,https://maps.google.com/?cid=0x0:0x34e1822373826341
mall,mall,Aldi,"VGCX+9PF, Unnamed Road, Bintuni Tim., Distrik Bintuni, Kabupaten Teluk Bintuni, Papua Bar. 98364","Unnamed Road, Bintuni Tim., Distrik Bintuni, Kabupaten Teluk Bintuni",PAPUA BARAT,98364.0,Indonesia,85255731573.0,-2.1290743,133.5492858,https://maps.google.com/?cid=0x0:0xf2687f1cf89aa7f9
mall,Pusat Perbelanjaan,Kios Bu Hajir,"G924+RRX, Kasira, Distrik Aroba, Kabupaten Teluk Bintuni, Papua Bar. 98363","Kasira, Distrik Aroba, Kabupaten Teluk Bintuni",PAPUA BARAT,98363.0,Indonesia,,-2.4983458,133.3570042,https://maps.google.com/?cid=0x0:0x33b2a453980a94b8
mall,Toko,Kios Pak Basir,"G924+VG3, Kasira, Distrik Aroba, Kabupaten Teluk Bintuni, Papua Bar. 98363","Kasira, Distrik Aroba, Kabupaten Teluk Bintuni",PAPUA BARAT,98363.0,Indonesia,,-2.4978579,133.3562895,https://maps.google.com/?cid=0x0:0xb7473ed463cb8148
mall,Pusat Bisnis,Port Angeles Wharf,"115 E Railroad Ave, Port Angeles, WA 98362, Amerika Serikat","Port Angeles, WA",PAPUA BARAT,98362.0,Indonesia,13604574407.0,48.1206542,-123.4303987,https://maps.google.com/?cid=0x0:0xb4fc30d2e419b3e7
mall,Pusat Perbelanjaan,Armory Square,"228 W 1st St, Port Angeles, WA 98362, Amerika Serikat","Port Angeles, WA",PAPUA BARAT,98362.0,Indonesia,13604529301.0,48.120238,-123.4373105,https://maps.google.com/?cid=0x0:0x1e016e020d32a2bd
mall,Kafe,Silver Lining Cafe,"115 E Railroad Ave, Port Angeles, WA 98362, Amerika Serikat","Port Angeles, WA",PAPUA BARAT,98362.0,Indonesia,13604774077.0,48.121148,-123.4302633,https://maps.google.com/?cid=0x0:0xf75b5d5127f3616a
mall,Es Krim,Welly's Real Fruit Ice Cream,"115 E Railroad Ave, Port Angeles, WA 98362, Amerika Serikat","Port Angeles, WA",PAPUA BARAT,98362.0,Indonesia,,48.1208051,-123.4305925,https://maps.google.com/?cid=0x0:0x6565c573e01898f3
mall,Penyelenggara Perjalanan,Olympic Hiking Co.,"115 E Railroad Ave Suite #110, Port Angeles, WA 98362, Amerika Serikat","Port Angeles, WA",PAPUA BARAT,98362.0,Indonesia,13604572259.0,48.1206098,-123.4305689,https://maps.google.com/?cid=0x0:0x8ea299dd2f8880e2
mall,Penyelenggara Perjalanan,Puget Sound Express,"115 E Railroad Ave, Port Angeles, WA 98362, Amerika Serikat","Port Angeles, WA",PAPUA BARAT,98362.0,Indonesia,13603855288.0,48.1208051,-123.4305925,https://maps.google.com/?cid=0x0:0x1aaf6745e27af4f8
mall,Hidangan Laut,Fish  Crab Shack,"115 E Railroad Ave STE 109, Port Angeles, WA 98362, Amerika Serikat","Port Angeles, WA",PAPUA BARAT,98362.0,Indonesia,13602884324.0,48.1210865,-123.4300024,https://maps.google.com/?cid=0x0:0x53037d1a1af193e2
mall,Arena Bowling,Legends Arcade,"115 E Railroad Ave, Port Angeles, WA 98362, Amerika Serikat","Port Angeles, WA",PAPUA BARAT,98362.0,Indonesia,13602075739.0,48.1206098,-123.4305689,https://maps.google.com/?cid=0x0:0x9dcee96ba6433d33
mall,Toko,Kios Pak Basir,"G924+VG3, Kasira, Distrik Aroba, Kabupaten Teluk Bintuni, Papua Bar. 98363","Kasira, Distrik Aroba, Kabupaten Teluk Bintuni",PAPUA BARAT,98363.0,Indonesia,,-2.4978579,133.3562895,https://maps.google.com/?cid=0x0:0xb7473ed463cb8148
mall,mall,Babo,"Kabupaten Teluk Bintuni, Papua Bar.","Kabupaten Teluk Bintuni, Papua Bar.",PAPUA BARAT,,Indonesia,,-2.5410944,133.4455624,https://maps.google.com/?cid=0x0:0x4d33f662184232b6
mall,,Kolam Bom Babo,"FCCR+5V, Irarutu III/Babo, Babo, Kabupaten Teluk Bintuni, Papua Bar. 98363","Irarutu III/Babo, Babo, Kabupaten Teluk Bintuni",PAPUA BARAT,98363.0,Indonesia,,-2.5295527,133.4422099,https://maps.google.com/?cid=0x0:0x2c66461b0b7c62d4
mall,mall,KIOS SOLO,"FF52+7GF, pelabuhan rakyat, Babo",,PAPUA BARAT,,Indonesia,81346092433.0,-2.5418068,133.4512831,https://maps.google.com/?cid=0x0:0x5ad0e376dee1635a
mall,Otoritas Pelabuhan,Dermaga Babo,"FF52+6Q, Nusei, Kabupaten Teluk Bintuni, Papua Bar. 98363","Nusei, Kabupaten Teluk Bintuni",PAPUA BARAT,98363.0,Indonesia,,-2.5419116,133.4519181,https://maps.google.com/?cid=0x0:0xf15c52d7c9066897
mall,mall,Bintuni,"Bintuni Tim., Distrik Bintuni, Kabupaten Teluk Bintuni, Papua Bar.","Kabupaten Teluk Bintuni, Papua Bar.",PAPUA BARAT,,Indonesia,,-2.116667,133.533333,https://maps.google.com/?cid=0x0:0xb2abe6f637dc67dd
mall,Toko Swalayan,Vitha Shop,"VGMJ+Q9C, Unnamed Road, Bintuni Tim., Distrik Bintuni, Kabupaten Teluk Bintuni, Papua Bar. 98364","Unnamed Road, Bintuni Tim., Distrik Bintuni, Kabupaten Teluk Bintuni",PAPUA BARAT,98364.0,Indonesia,,-2.1155727,133.5309014,https://maps.google.com/?cid=0x0:0x1636e465619911fd
mall,Kantor Perusahaan,Somel,"Bintuni Tim., Distrik Bintuni, Kabupaten Teluk Bintuni, Papua Bar. 98364","Distrik Bintuni, Kabupaten Teluk Bintuni",PAPUA BARAT,98364.0,Indonesia,,-2.1021567,133.5173212,https://maps.google.com/?cid=0x0:0x7ddca9170cf37ec2
mall,Toko bahan makanan,Bintuni Mart,"IndonesiaB, Jl.raya bintuni No.21, RT.002/RW.002, Bintuni Tim., Distrik Bintuni, Kabupaten Teluk Bintuni, Papua Bar. 98364","Jl.raya bintuni No.21, RT.002/RW.002, Bintuni Tim., Distrik Bintuni, Kabupaten Teluk Bintuni",PAPUA BARAT,98364.0,Indonesia,,-2.1262128,133.5491768,https://maps.google.com/?cid=0x0:0xf4abf7e7adb1481f
mall,Toko,Produk Nasa,"VJW3+68C, Sp V. Manimery/ Argo Sigemeray, Distrik Bintuni, Kabupaten Teluk Bintuni, Papua Bar. 98364","Sp V. Manimery/ Argo Sigemeray, Distrik Bintuni, Kabupaten Teluk Bintuni",PAPUA BARAT,98364.0,Indonesia,85244476599.0,-2.104433,133.60326,https://maps.google.com/?cid=0x0:0x265675c26f755432
mall,Terminal Feri,Pelabuhan Bintuni,"VGPG+RF5, Bintuni Tim., Distrik Bintuni, Kabupaten Teluk Bintuni, Papua Bar. 98364","Bintuni Tim., Distrik Bintuni, Kabupaten Teluk Bintuni",PAPUA BARAT,98364.0,Indonesia,,-2.1129893,133.5262378,https://maps.google.com/?cid=0x0:0xbc2e1a2b57f8b282
mall,Pasar,Pasar Sentral Bintuni,"VGHP+RWG, Bintuni Tim., Distrik Bintuni, Kabupaten Teluk Bintuni, Papua Bar. 98364","Bintuni Tim., Distrik Bintuni, Kabupaten Teluk Bintuni",PAPUA BARAT,98364.0,Indonesia,,-2.120756,133.535579,https://maps.google.com/?cid=0x0:0xd24dd97107b172bb
mall,Toko Elektronik,Bintuni,"VGJM+WFP, Bintuni Tim., Distrik Bintuni, Kabupaten Teluk Bintuni, Papua Bar. 98364","Bintuni Tim., Distrik Bintuni, Kabupaten Teluk Bintuni",PAPUA BARAT,98364.0,Indonesia,81344481738.0,-2.1176733,133.5337058,https://maps.google.com/?cid=0x0:0x5554a854c6f1189a
mall,Toko Elektronik,M-Kios Planet Cell Sp. IV,"WM24+82C, Tuasai, Distrik Bintuni, Kabupaten Teluk Bintuni, Papua Bar. 98364","Tuasai, Distrik Bintuni, Kabupaten Teluk Bintuni",PAPUA BARAT,98364.0,Indonesia,,-2.0991959,133.655021,https://maps.google.com/?cid=0x0:0xd69efa41b9c4fa48
mall,Pemakaman,Lapangan sport center Kampung Lama,"VGFX+279, Bintuni Tim., Distrik Bintuni, Kabupaten Teluk Bintuni, Papua Bar. 98364","Bintuni Tim., Distrik Bintuni, Kabupaten Teluk Bintuni",PAPUA BARAT,98364.0,Indonesia,85342147082.0,-2.1274737,133.5482192,https://maps.google.com/?cid=0x0:0x6a16db4da7530629
mall,Toko,Kios bintuni abadi,"WM5Q+CMR, Waraitama, Distrik Manimeri, Kabupaten Teluk Bintuni, Papua Bar. 98364","Waraitama, Distrik Manimeri, Kabupaten Teluk Bintuni",PAPUA BARAT,98364.0,Indonesia,81344112348.0,-2.0913996,133.6891446,https://maps.google.com/?cid=0x0:0xdd787faf073f14df
mall,Pusat Perbelanjaan,Manokwari City Mall (MCM),"Jl. Yos Sudarso Manokwari, Manokwari Bar., Kec. Manokwari Bar., Kabupaten Manokwari, Papua Bar. 98312","Manokwari Bar., Kec. Manokwari Bar., Kabupaten Manokwari",PAPUA BARAT,98312.0,Indonesia,8114918899.0,-0.85693,134.0678051,https://maps.google.com/?cid=0x0:0x7e7b90df1d787501
mall,Komplek perumahan,Fanindi Pantai,"43R9+J9P Bar, Padarni, Kec. Manokwari Bar., Kabupaten Manokwari, Papua Bar. 98312","Padarni, Kec. Manokwari Bar., Kabupaten Manokwari",PAPUA BARAT,98312.0,Indonesia,81344477231.0,-0.8584193,134.0684588,https://maps.google.com/?cid=0x0:0xfea55ca67440bcde
mall,Pusat Perbelanjaan,Belakang Manokwari city mall,"43W7+F3H, Manokwari Bar., Kec. Manokwari Bar., Kabupaten Manokwari, Papua Bar. 98312","Manokwari Bar., Kec. Manokwari Bar., Kabupaten Manokwari",PAPUA BARAT,98312.0,Indonesia,,-0.8538079,134.0627452,https://maps.google.com/?cid=0x0:0x59f633fd28048da4
mall,Pusat Perbelanjaan,Cinere Bellevue Mall,"Jl. Merawan No.23, Pangkalan Jati, Kec. Cinere, Kota Depok, Jawa Barat 16514","Pangkalan Jati, Kec. Cinere, Kota Depok",PAPUA BARAT,16514.0,Indonesia,2129403838.0,-6.3174008,106.7824389,https://maps.google.com/?cid=0x0:0x7e325b928d45b577
mall,Pusat Perbelanjaan,Cinere Bellevue XXI,"Bellevue Mall, Cinere, Jl. Cinere Raya No.1, Pangkalan Jati, Kec. Cinere, Kota Depok, Jawa Barat 16514","Cinere, Jl. Cinere Raya No.1, Pangkalan Jati, Kec. Cinere, Kota Depok",PAPUA BARAT,16514.0,Indonesia,2129403889.0,-6.317208,106.7828275,https://maps.google.com/?cid=0x0:0xfbe315a4e48adc1d
mall,Pusat Perbelanjaan,Pondok Indah Mall 1,"Jl. Metro Pondok Indah No.Kav. 4, RT.1/RW.16, Pd. Pinang, Kec. Kby. Lama, Kota Jakarta Selatan, Daerah Khusus Ibukota Jakarta 12310","RT.1/RW.16, Pd. Pinang, Kec. Kby. Lama, Kota Jakarta Selatan",PAPUA BARAT,12310.0,Indonesia,217506750.0,-6.2652166,106.7843165,https://maps.google.com/?cid=0x0:0x682837113c4ea854
mall,Pusat Perbelanjaan,One Belpark XXI,"Lantai 2 One Belpark Mall, Jl. RS. Fatmawati Raya No.1, RT.1/RW.1, Pd. Labu, Kec. Cilandak, Kota Jakarta Selatan, Daerah Khusus Ibukota Jakarta 12450","Jl. RS. Fatmawati Raya No.1, RT.1/RW.1, Pd. Labu, Kec. Cilandak, Kota Jakarta Selatan",PAPUA BARAT,12450.0,Indonesia,2127653422.0,-6.3043591,106.7954808,https://maps.google.com/?cid=0x0:0x946cc48a00e05e12
mall,Pusat Perbelanjaan,Pondok Indah Mall 2,"Jl. Metro Pondok Indah, Pd. Pinang, Kec. Kby. Lama, Kota Jakarta Selatan, Daerah Khusus Ibukota Jakarta 12310","Pd. Pinang, Kec. Kby. Lama, Kota Jakarta Selatan",PAPUA BARAT,12310.0,Indonesia,217506750.0,-6.2655241,106.7827928,https://maps.google.com/?cid=0x0:0x203a5d09556daf5f
mall,Kedai Kopi,One Belpark Mall,"Jl. RS. Fatmawati Raya No.1, RT.1/RW.1, Pd. Labu, Kec. Cilandak, Kota Jakarta Selatan, Daerah Khusus Ibukota Jakarta 12450","RT.1/RW.1, Pd. Labu, Kec. Cilandak, Kota Jakarta Selatan",PAPUA BARAT,12450.0,Indonesia,2122706888.0,-6.3040848,106.7948774,https://maps.google.com/?cid=0x0:0x50cd4b3afac2371
mall,Pusat Perbelanjaan,Plaza Indonesia,"Jl. M.H. Thamrin No.Kav.28-30, Gondangdia, Kec. Menteng, Kota Jakarta Pusat, Daerah Khusus Ibukota Jakarta 10350","Gondangdia, Kec. Menteng, Kota Jakarta Pusat",PAPUA BARAT,10350.0,Indonesia,2129920000.0,-6.1935977,106.8219468,https://maps.google.com/?cid=0x0:0x7d7fe17ad64a053f
mall,Toserba,METRO pondok Indah Mall 1,"Jalan Metro Pondok Indah Kav. IV, Jl. Metro Pondok Indah, RT.1/RW.16, Pd. Pinang, Kec. Kby. Lama, Kota Jakarta Selatan, Daerah Khusus Ibukota Jakarta 12310","Jl. Metro Pondok Indah, RT.1/RW.16, Pd. Pinang, Kec. Kby. Lama, Kota Jakarta Selatan",PAPUA BARAT,12310.0,Indonesia,2175998000.0,-6.2642881,106.7845448,https://maps.google.com/?cid=0x0:0x236f055dabee73bc
mall,Toko Koper,Waiwai Clutch,"South Skywalk Lantai 2 , Mall Pondok Indah, RT.1/RW.16, Pd. Pinang, Kec. Kby. Lama, Kota Jakarta Selatan, Daerah Khusus Ibukota Jakarta 12310","Mall Pondok Indah, RT.1/RW.16, Pd. Pinang, Kec. Kby. Lama, Kota Jakarta Selatan",PAPUA BARAT,12310.0,Indonesia,81210782081.0,-6.266284,106.7840634,https://maps.google.com/?cid=0x0:0x1f2e66a1a347d3d3
mall,Gedung Apartemen,Mall@Bassura,"Jl. Jenderal Basuki Rachmat No.1A, Cipinang Besar Sel., Kecamatan Jatinegara, Kota Jakarta Timur, Daerah Khusus Ibukota Jakarta 13410","Cipinang Besar Sel., Kecamatan Jatinegara, Kota Jakarta Timur",PAPUA BARAT,13410.0,Indonesia,2122807300.0,-6.2240597,106.8778851,https://maps.google.com/?cid=0x0:0x610648e929845480
mall,Pusat Perbelanjaan,Bella Terra Lifestyle Center,"Ruko Kirana Boutique, Jl. Boulevard Raya No.1, Klp. Gading Tim., Kec. Klp. Gading, Jkt Utara, Daerah Khusus Ibukota Jakarta 14240","Jl. Boulevard Raya No.1, Klp. Gading Tim., Kec. Klp. Gading, Jkt Utara",PAPUA BARAT,14240.0,Indonesia,2129289900.0,-6.1749376,106.8945325,https://maps.google.com/?cid=0x0:0x54d601d5b41b42f7
mall,mall,Distrik Dataran Beimes,"Kabupaten Teluk Bintuni, Papua Bar.","Kabupaten Teluk Bintuni, Papua Bar.",PAPUA BARAT,,Indonesia,,-1.6164845,133.6599628,https://maps.google.com/?cid=0x0:0x8fa53e8e503789bf
mall,Pusat Perbelanjaan,Manokwari City Mall (MCM),"Jl. Yos Sudarso Manokwari, Manokwari Bar., Kec. Manokwari Bar., Kabupaten Manokwari, Papua Bar. 98312","Manokwari Bar., Kec. Manokwari Bar., Kabupaten Manokwari",PAPUA BARAT,98312.0,Indonesia,8114918899.0,-0.85693,134.0678051,https://maps.google.com/?cid=0x0:0x7e7b90df1d787501
mall,Pusat Perbelanjaan,Belakang Manokwari city mall,"43W7+F3H, Manokwari Bar., Kec. Manokwari Bar., Kabupaten Manokwari, Papua Bar. 98312","Manokwari Bar., Kec. Manokwari Bar., Kabupaten Manokwari",PAPUA BARAT,98312.0,Indonesia,,-0.8538079,134.0627452,https://maps.google.com/?cid=0x0:0x59f633fd28048da4
mall,Komplek perumahan,Fanindi Pantai,"43R9+J9P Bar, Padarni, Kec. Manokwari Bar., Kabupaten Manokwari, Papua Bar. 98312","Padarni, Kec. Manokwari Bar., Kabupaten Manokwari",PAPUA BARAT,98312.0,Indonesia,81344477231.0,-0.8584193,134.0684588,https://maps.google.com/?cid=0x0:0xfea55ca67440bcde
mall,mall,Distrik Fafurwar,"Kabupaten Teluk Bintuni, Papua Bar.","Kabupaten Teluk Bintuni, Papua Bar.",PAPUA BARAT,,Indonesia,,-2.9160631,133.6759049,https://maps.google.com/?cid=0x0:0x78e970d7052f06c0
mall,Pusat Perbelanjaan,Belakang Manokwari city mall,"43W7+F3H, Manokwari Bar., Kec. Manokwari Bar., Kabupaten Manokwari, Papua Bar. 98312","Manokwari Bar., Kec. Manokwari Bar., Kabupaten Manokwari",PAPUA BARAT,98312.0,Indonesia,,-0.8538079,134.0627452,https://maps.google.com/?cid=0x0:0x59f633fd28048da4
mall,Pusat Perbelanjaan,Manokwari City Mall (MCM),"Jl. Yos Sudarso Manokwari, Manokwari Bar., Kec. Manokwari Bar., Kabupaten Manokwari, Papua Bar. 98312","Manokwari Bar., Kec. Manokwari Bar., Kabupaten Manokwari",PAPUA BARAT,98312.0,Indonesia,8114918899.0,-0.85693,134.0678051,https://maps.google.com/?cid=0x0:0x7e7b90df1d787501
mall,Komplek perumahan,Fanindi Pantai,"43R9+J9P Bar, Padarni, Kec. Manokwari Bar., Kabupaten Manokwari, Papua Bar. 98312","Padarni, Kec. Manokwari Bar., Kabupaten Manokwari",PAPUA BARAT,98312.0,Indonesia,81344477231.0,-0.8584193,134.0684588,https://maps.google.com/?cid=0x0:0xfea55ca67440bcde
mall,mall,Distrik Kaitaro,"Kabupaten Teluk Bintuni, Papua Bar.","Kabupaten Teluk Bintuni, Papua Bar.",PAPUA BARAT,,Indonesia,,-2.7432339,133.7496581,https://maps.google.com/?cid=0x0:0x18a3c86c44b96f44
mall,mall,KIOS DETE TOMIA,"PVGV+P6W, Weriagar, Distrik Weriagar, Kabupaten Teluk Bintuni, Papua Bar. 98365","Weriagar, Distrik Weriagar, Kabupaten Teluk Bintuni",PAPUA BARAT,98365.0,Indonesia,,-2.2731469,132.8930843,https://maps.google.com/?cid=0x0:0xe7cab26e23bdb7c0
mall,Pusat Perbelanjaan,Mall k,"Mall Kota Kasablanka, Menteng Dalam, Kec. Tebet, Kota Jakarta Selatan, Daerah Khusus Ibukota Jakarta 12960","Menteng Dalam, Kec. Tebet, Kota Jakarta Selatan",PAPUA BARAT,12960.0,Indonesia,,-6.2240353,106.8425979,https://maps.google.com/?cid=0x0:0xa3a16fc4381476fb
mall,Pusat Perbelanjaan,Mall Kota Kasablanka,"Jl. Raya Casablanca No.Kav 88, Menteng Dalam, Kec. Tebet, Kota Jakarta Selatan, Daerah Khusus Ibukota Jakarta 12870","Menteng Dalam, Kec. Tebet, Kota Jakarta Selatan",PAPUA BARAT,12870.0,Indonesia,2129465000.0,-6.2240353,106.8425979,https://maps.google.com/?cid=0x0:0xaf54cb631563acce
mall,Hot Pot,Shaburi Kota Kasablanka,"Mal Kota Kasablanka, Jl. Raya Casablanca No.Kav. 88 Lt. 1, RT.14/RW.5, Menteng Dalam, Kec. Tebet, Kota Jakarta Selatan, Daerah Khusus Ibukota Jakarta 12870","Jl. Raya Casablanca No.Kav. 88 Lt. 1, RT.14/RW.5, Menteng Dalam, Kec. Tebet, Kota Jakarta Selatan",PAPUA BARAT,12870.0,Indonesia,81294378786.0,-6.2239885,106.8431041,https://maps.google.com/?cid=0x0:0x2df3ec83a703a23f
mall,Toko Alat Kecantikan,SOGO,"Jl. Raya Casablanca No.88, RT.2/RW.14, Menteng Dalam, Kec. Tebet, Kota Jakarta Selatan, Daerah Khusus Ibukota Jakarta 12870","RT.2/RW.14, Menteng Dalam, Kec. Tebet, Kota Jakarta Selatan",PAPUA BARAT,12870.0,Indonesia,8111252807.0,-6.2229772,106.843111,https://maps.google.com/?cid=0x0:0xa96f0bcb4777740e
mall,Toko Ponsel,iBox,"Jl. Raya Casablanca No.88 # 36 - 38, RT.16/RW.5, Menteng Dalam, Kec. Tebet, Kota Jakarta Selatan, Daerah Khusus Ibukota Jakarta 12870","RT.16/RW.5, Menteng Dalam, Kec. Tebet, Kota Jakarta Selatan",PAPUA BARAT,12870.0,Indonesia,2129488545.0,-6.223889,106.8428715,https://maps.google.com/?cid=0x0:0x134101a873911f6c
mall,Pusat Perbelanjaan,The Kasablanka,"Kota Kasablanka Lt. 3, Jl. Casablanca Raya kav. 88, RT.3/RW.14, Menteng Dalam, Kec. Tebet, Kota Jakarta Selatan, Daerah Khusus Ibukota Jakarta 12870","Jl. Casablanca Raya kav. 88, RT.3/RW.14, Menteng Dalam, Kec. Tebet, Kota Jakarta Selatan",PAPUA BARAT,12870.0,Indonesia,2129488633.0,-6.2242538,106.8435205,https://maps.google.com/?cid=0x0:0x3225ec9b7b7adc0c
mall,Pusat Perbelanjaan,Belakang Manokwari city mall,"43W7+F3H, Manokwari Bar., Kec. Manokwari Bar., Kabupaten Manokwari, Papua Bar. 98312","Manokwari Bar., Kec. Manokwari Bar., Kabupaten Manokwari",PAPUA BARAT,98312.0,Indonesia,,-0.8538079,134.0627452,https://maps.google.com/?cid=0x0:0x59f633fd28048da4
mall,Pusat Perbelanjaan,Manokwari City Mall (MCM),"Jl. Yos Sudarso Manokwari, Manokwari Bar., Kec. Manokwari Bar., Kabupaten Manokwari, Papua Bar. 98312","Manokwari Bar., Kec. Manokwari Bar., Kabupaten Manokwari",PAPUA BARAT,98312.0,Indonesia,8114918899.0,-0.85693,134.0678051,https://maps.google.com/?cid=0x0:0x7e7b90df1d787501
mall,Komplek perumahan,Fanindi Pantai,"43R9+J9P Bar, Padarni, Kec. Manokwari Bar., Kabupaten Manokwari, Papua Bar. 98312","Padarni, Kec. Manokwari Bar., Kabupaten Manokwari",PAPUA BARAT,98312.0,Indonesia,81344477231.0,-0.8584193,134.0684588,https://maps.google.com/?cid=0x0:0xfea55ca67440bcde
mall,Toko Koper,Tumi Senayan City,"Jl. Asia Afrika Lot 19, Unit #G42 Senayan City Mall, RT.1/RW.3, Gelora, Kecamatan Tanah Abang, Kota Jakarta Pusat, Daerah Khusus Ibukota Jakarta 10270","Unit #G42 Senayan City Mall, RT.1/RW.3, Gelora, Kecamatan Tanah Abang, Kota Jakarta Pusat",PAPUA BARAT,10270.0,Indonesia,2172781085.0,-6.2278079,106.7970054,https://maps.google.com/?cid=0x0:0x34fc53fd292aa8a5
mall,Toko Koper,TUMI Store - Central Park,"Jl. Letjen S. Parman No.28 GF â 111, RT.12/RW.6, Tj. Duren Sel., Kec. Grogol petamburan, Kota Jakarta Barat, Daerah Khusus Ibukota Jakarta 11470","RT.12/RW.6, Tj. Duren Sel., Kec. Grogol petamburan, Kota Jakarta Barat",PAPUA BARAT,11470.0,Indonesia,2129200197.0,-6.1764791,106.7915099,https://maps.google.com/?cid=0x0:0x101272cd69459a9c
mall,Toko Tas,Tumi Grand Indonesia,"Jl. M.H. Thamrin No.1 Unit #G-03, Kebon Melati, Tanah Abang, Central Jakarta City, Jakarta 10310","Kebon Melati, Tanah Abang, Central Jakarta City",PAPUA BARAT,10310.0,Indonesia,2123580862.0,-6.1947922,106.8201665,https://maps.google.com/?cid=0x0:0x6a9472763ae9d51c
mall,mall,Papua Bar. 98363,"Kabupaten Teluk Bintuni, Papua Bar.","Kabupaten Teluk Bintuni, Papua Bar.",PAPUA BARAT,,Indonesia,,-2.6488329,133.7142484,https://maps.google.com/?cid=0x0:0x1d8cc8ce6f581e70
mall,Pusat Perbelanjaan,Manokwari City Mall (MCM),"Jl. Yos Sudarso Manokwari, Manokwari Bar., Kec. Manokwari Bar., Kabupaten Manokwari, Papua Bar. 98312","Manokwari Bar., Kec. Manokwari Bar., Kabupaten Manokwari",PAPUA BARAT,98312.0,Indonesia,8114918899.0,-0.85693,134.0678051,https://maps.google.com/?cid=0x0:0x7e7b90df1d787501
mall,Toko,KURI PASAI 3,"7G77+J76, Maniwak, Distrik Wasior, Kabupaten Teluk Wondama, Papua Bar. 98362","Maniwak, Distrik Wasior, Kabupaten Teluk Wondama",PAPUA BARAT,98362.0,Indonesia,,-2.7354997,134.5133028,https://maps.google.com/?cid=0x0:0xb2ccbfae7ecba780
mall,Pusat Perbelanjaan,Pondok Indah Mall 2,"Jl. Metro Pondok Indah, Pd. Pinang, Kec. Kby. Lama, Kota Jakarta Selatan, Daerah Khusus Ibukota Jakarta 12310","Pd. Pinang, Kec. Kby. Lama, Kota Jakarta Selatan",PAPUA BARAT,12310.0,Indonesia,217506750.0,-6.2655241,106.7827928,https://maps.google.com/?cid=0x0:0x203a5d09556daf5f
mall,Toserba,METRO pondok Indah Mall 1,"Jalan Metro Pondok Indah Kav. IV, Jl. Metro Pondok Indah, RT.1/RW.16, Pd. Pinang, Kec. Kby. Lama, Kota Jakarta Selatan, Daerah Khusus Ibukota Jakarta 12310","Jl. Metro Pondok Indah, RT.1/RW.16, Pd. Pinang, Kec. Kby. Lama, Kota Jakarta Selatan",PAPUA BARAT,12310.0,Indonesia,2175998000.0,-6.2642881,106.7845448,https://maps.google.com/?cid=0x0:0x236f055dabee73bc
mall,Restoran,Bakmi GM Pondok Indah,"Jl. Metro Pondok Indah No.1, RT.1/RW.16, Pd. Pinang, Kec. Kby. Lama, Kota Jakarta Selatan, Daerah Khusus Ibukota Jakarta 12310","RT.1/RW.16, Pd. Pinang, Kec. Kby. Lama, Kota Jakarta Selatan",PAPUA BARAT,12310.0,Indonesia,217506881.0,-6.2651233,106.7843685,https://maps.google.com/?cid=0x0:0xa3703a5a2828cf59
mall,Layanan Penukaran Mata Uang,PT. Sejahtera Valasindo,"Samping Bank Mandiri, Pondok Indah Mall 1 PIM1, lantai dasar, Pd. Pinang, Kec. Kby. Lama, Kota Jakarta Selatan, Daerah Khusus Ibukota Jakarta 12310","Pondok Indah Mall 1 PIM1, lantai dasar, Pd. Pinang, Kec. Kby. Lama, Kota Jakarta Selatan",PAPUA BARAT,12310.0,Indonesia,81775001122.0,-6.265288,106.7842184,https://maps.google.com/?cid=0x0:0xc3f0cd17ca6000d2
mall,Bioskop,Pondok Indah 1 XXI,"Pondok Indah Mall 2, Jl. Metro Pondok Indah No.1, RT.1/RW.16, Pd. Pinang, Kec. Kby. Lama, Kota Jakarta Selatan, Daerah Khusus Ibukota Jakarta 12310","Jl. Metro Pondok Indah No.1, RT.1/RW.16, Pd. Pinang, Kec. Kby. Lama, Kota Jakarta Selatan",PAPUA BARAT,12310.0,Indonesia,2175920781.0,-6.264667,106.7843784,https://maps.google.com/?cid=0x0:0x408a6681ca59df1f
mall,Pusat Perbelanjaan,Pondok Indah Water Park,"Pondok Indah Mall, Jl. Metro Pondok Indah, RT.1/RW.16, Pd. Pinang, Kec. Kby. Lama, Kota Jakarta Selatan, Daerah Khusus Ibukota Jakarta 12310","Jl. Metro Pondok Indah, RT.1/RW.16, Pd. Pinang, Kec. Kby. Lama, Kota Jakarta Selatan",PAPUA BARAT,12310.0,Indonesia,217506750.0,-6.2677295,106.7843933,https://maps.google.com/?cid=0x0:0x30e93edf55c03f10
mall,mall,Distrik Manimeri,"Kabupaten Teluk Bintuni, Papua Bar.","Kabupaten Teluk Bintuni, Papua Bar.",PAPUA BARAT,,Indonesia,,-2.0348077,133.7298305,https://maps.google.com/?cid=0x0:0xfcc9735ace17ac7
mall,Toko Pakaian,Teras Celuler,"WM67+99M, Jl. Manokwari - Bintuni, Banjar Ausoy (Sp IV), Distrik Manimeri, Kabupaten Teluk Bintuni, Papua Bar. 98364","Jl. Manokwari - Bintuni, Banjar Ausoy (Sp IV), Distrik Manimeri, Kabupaten Teluk Bintuni",PAPUA BARAT,98364.0,Indonesia,85213905880.0,-2.0890475,133.6634168,https://maps.google.com/?cid=0x0:0xfff5bc707a335e1e
mall,Pusat Perbelanjaan,Kios Bambapuang,"WM44+JW4, Jl. Raya, Banjar Ausoy (Sp IV), Distrik Manimeri, Kabupaten Teluk Bintuni, Papua Bar. 98364","Jl. Raya, Banjar Ausoy (Sp IV), Distrik Manimeri, Kabupaten Teluk Bintuni",PAPUA BARAT,98364.0,Indonesia,82238007601.0,-2.0934796,133.6573187,https://maps.google.com/?cid=0x0:0xd06ca1a9668ad65e
mall,Toko,Kios bintuni abadi,"WM5Q+CMR, Waraitama, Distrik Manimeri, Kabupaten Teluk Bintuni, Papua Bar. 98364","Waraitama, Distrik Manimeri, Kabupaten Teluk Bintuni",PAPUA BARAT,98364.0,Indonesia,81344112348.0,-2.0913996,133.6891446,https://maps.google.com/?cid=0x0:0xdd787faf073f14df
mall,Kantor Perusahaan,Somel,"Bintuni Tim., Distrik Bintuni, Kabupaten Teluk Bintuni, Papua Bar. 98364","Distrik Bintuni, Kabupaten Teluk Bintuni",PAPUA BARAT,98364.0,Indonesia,,-2.1021567,133.5173212,https://maps.google.com/?cid=0x0:0x7ddca9170cf37ec2
mall,Toko,Produk Nasa,"VJW3+68C, Sp V. Manimery/ Argo Sigemeray, Distrik Bintuni, Kabupaten Teluk Bintuni, Papua Bar. 98364","Sp V. Manimery/ Argo Sigemeray, Distrik Bintuni, Kabupaten Teluk Bintuni",PAPUA BARAT,98364.0,Indonesia,85244476599.0,-2.104433,133.60326,https://maps.google.com/?cid=0x0:0x265675c26f755432
mall,Mal outlet,Supermal Karawaci,"Jl. Boulevard Diponegoro No.105, Bencongan, Kec. Klp. Dua, Kabupaten Tangerang, Banten 15810","Bencongan, Kec. Klp. Dua, Kabupaten Tangerang",PAPUA BARAT,15810.0,Indonesia,215466666.0,-6.2268116,106.6070233,https://maps.google.com/?cid=0x0:0xc5927a7be82e23b8
mall,Pusat Perbelanjaan,Summarecon Mall Kelapa Gading,"Jl. Boulevard Raya, Klp. Gading Tim., Kec. Klp. Gading, Jkt Utara, Daerah Khusus Ibukota Jakarta 14240","Klp. Gading Tim., Kec. Klp. Gading, Jkt Utara",PAPUA BARAT,14240.0,Indonesia,214531101.0,-6.1572666,106.9084263,https://maps.google.com/?cid=0x0:0x1c1a278e20ff1c47
mall,Pusat Perbelanjaan,ITC Cempaka Mas,"Jl. Letjen Suprapto No.Kav. 1, Sumur Batu, Kec. Kemayoran, Kota Jakarta Pusat, Daerah Khusus Ibukota Jakarta 10640","Sumur Batu, Kec. Kemayoran, Kota Jakarta Pusat",PAPUA BARAT,10640.0,Indonesia,2142878833.0,-6.1646611,106.8774952,https://maps.google.com/?cid=0x0:0xca4d17c9802f752e
mall,Pusat Perbelanjaan,Plaza Indonesia,"Jl. M.H. Thamrin No.Kav.28-30, Gondangdia, Kec. Menteng, Kota Jakarta Pusat, Daerah Khusus Ibukota Jakarta 10350","Gondangdia, Kec. Menteng, Kota Jakarta Pusat",PAPUA BARAT,10350.0,Indonesia,2129920000.0,-6.1935977,106.8219468,https://maps.google.com/?cid=0x0:0x7d7fe17ad64a053f
mall,Pusat Perbelanjaan,Manokwari City Mall (MCM),"Jl. Yos Sudarso Manokwari, Manokwari Bar., Kec. Manokwari Bar., Kabupaten Manokwari, Papua Bar. 98312","Manokwari Bar., Kec. Manokwari Bar., Kabupaten Manokwari",PAPUA BARAT,98312.0,Indonesia,8114918899.0,-0.85693,134.0678051,https://maps.google.com/?cid=0x0:0x7e7b90df1d787501
mall,Komplek perumahan,Fanindi Pantai,"43R9+J9P Bar, Padarni, Kec. Manokwari Bar., Kabupaten Manokwari, Papua Bar. 98312","Padarni, Kec. Manokwari Bar., Kabupaten Manokwari",PAPUA BARAT,98312.0,Indonesia,81344477231.0,-0.8584193,134.0684588,https://maps.google.com/?cid=0x0:0xfea55ca67440bcde
mall,Pusat Perbelanjaan,Mall Kota Kasablanka,"Jl. Raya Casablanca No.Kav 88, Menteng Dalam, Kec. Tebet, Kota Jakarta Selatan, Daerah Khusus Ibukota Jakarta 12870","Menteng Dalam, Kec. Tebet, Kota Jakarta Selatan",PAPUA BARAT,12870.0,Indonesia,2129465000.0,-6.2240353,106.8425979,https://maps.google.com/?cid=0x0:0xaf54cb631563acce
mall,Pusat Perbelanjaan,Belakang Manokwari city mall,"43W7+F3H, Manokwari Bar., Kec. Manokwari Bar., Kabupaten Manokwari, Papua Bar. 98312","Manokwari Bar., Kec. Manokwari Bar., Kabupaten Manokwari",PAPUA BARAT,98312.0,Indonesia,,-0.8538079,134.0627452,https://maps.google.com/?cid=0x0:0x59f633fd28048da4
mall,Pusat Perbelanjaan,Itc Cempaka Lobyy Utama,"RVPH+338, Jl. Cemp. Mas Tim., RW.8, Sumur Batu, Kec. Kemayoran, Kota Jakarta Pusat, Daerah Khusus Ibukota Jakarta 10640","Jl. Cemp. Mas Tim., RW.8, Sumur Batu, Kec. Kemayoran, Kota Jakarta Pusat",PAPUA BARAT,10640.0,Indonesia,8568826269.0,-6.1648463,106.8777124,https://maps.google.com/?cid=0x0:0x8670e8b53825b447
mall,Jepang,Ichiban Sushi Manokwari City Mall,"Jl. Yos Sudarso, Manokwari Bar., Kec. Manokwari Bar., Kabupaten Manokwari, Papua Bar. 98312","Manokwari Bar., Kec. Manokwari Bar., Kabupaten Manokwari",PAPUA BARAT,98312.0,Indonesia,,-0.85696,134.0676162,https://maps.google.com/?cid=0x0:0x345744965a30969a
mall,Makanan Siap Saji,AW Restoran - ITC Cempaka Mas GF,"ITC Cempaka Mas, Jl. Letjen Suprapto Basement, Sumur Batu, Kec. Kemayoran, Kota Jakarta Pusat, Daerah Khusus Ibukota Jakarta 10640","Jl. Letjen Suprapto Basement, Sumur Batu, Kec. Kemayoran, Kota Jakarta Pusat",PAPUA BARAT,10640.0,Indonesia,2142886863.0,-6.1644375,106.8769375,https://maps.google.com/?cid=0x0:0x609f7d315bfe2446
mall,Toko Elektronik,Sinar Shop Cempaka Mas,"ITC Cempaka Mas Lt.4 Blok D No. 250-251, Jl. Letjen Suprapto No.Kav. 1 8, RW.8, Sumur Batu, Kec. Kemayoran, Kota Jakarta Pusat, Daerah Khusus Ibukota Jakarta 10640","Jl. Letjen Suprapto No.Kav. 1 8, RW.8, Sumur Batu, Kec. Kemayoran, Kota Jakarta Pusat",PAPUA BARAT,10640.0,Indonesia,8111282923.0,-6.165206,106.8774484,https://maps.google.com/?cid=0x0:0x471095627c396559
mall,Pusat Perbelanjaan,Citimall Cimanggis,"Jl. Raya Bogor KM 29 No. 29, Mekarsari, Kec. Cimanggis, Kota Depok, Jawa Barat 16452","Mekarsari, Kec. Cimanggis, Kota Depok",PAPUA BARAT,16452.0,Indonesia,2129378293.0,-6.357264,106.859793,https://maps.google.com/?cid=0x0:0x2336a1d160990b0f
mall,Pusat Perbelanjaan,Grand Mall Cimanggis,"Jl. Raya Bogor No.30, Tugu, Kec. Cimanggis, Kota Depok, Jawa Barat 16451","Tugu, Kec. Cimanggis, Kota Depok",PAPUA BARAT,16451.0,Indonesia,85696195691.0,-6.364831,106.859123,https://maps.google.com/?cid=0x0:0x49fb1a5e0303efea
mall,Kedai Teh,Teh Walini,"cimanggis square lantai km 29 cimanggis, Jl. Raya Bogor No.1, Mekarsari, Kec. Cimanggis, Kota Depok, Jawa Barat 16451","Jl. Raya Bogor No.1, Mekarsari, Kec. Cimanggis, Kota Depok",PAPUA BARAT,16451.0,Indonesia,81934192226.0,-6.3576,106.859737,https://maps.google.com/?cid=0x0:0x199c0c2cd0434ca6
mall,Padang,RESTORAN SEDERHANA CIMANGGIS,"Jl. Raya Bogor No.32 Km 29.3 No, RT.4/RW.001, Mekarsari, Kec. Cimanggis, Kota Depok, Jawa Barat 16452","RT.4/RW.001, Mekarsari, Kec. Cimanggis, Kota Depok",PAPUA BARAT,16452.0,Indonesia,81188856116.0,-6.3579291,106.8595105,https://maps.google.com/?cid=0x0:0x6884876b3c5942c6
mall,Restoran,Solaria - Citimall Cimanggis,"Solaria Cimanggis Square, Jl. Raya Jakarta-Bogor, Mekarsari, Kec. Cimanggis, Kota Depok, Jawa Barat 16452","Jl. Raya Jakarta-Bogor, Mekarsari, Kec. Cimanggis, Kota Depok",PAPUA BARAT,16452.0,Indonesia,14099.0,-6.3571325,106.8599669,https://maps.google.com/?cid=0x0:0x774b6a54978282e0
mall,Tujuan Wisata,Manokwari marampa,"M57F+HV4, Morombuy, Merdey, Kabupaten Teluk Bintuni, Papua Bar.","Kabupaten Teluk Bintuni, Papua Bar.",PAPUA BARAT,,Indonesia,,-1.3361154,133.1747162,https://maps.google.com/?cid=0x0:0x1a96bf6aa5ce759e
mall,Gereja,Bandar Udara Merdey,"C75X+V76, Unnamed Road, Merdey, Kabupaten Teluk Bintuni, Papua Bar. 98373","Unnamed Road, Merdey, Kabupaten Teluk Bintuni",PAPUA BARAT,98373.0,Indonesia,,-1.5903487,133.2981283,https://maps.google.com/?cid=0x0:0xb9ce20597f586ed0
mall,Bandara,SMA NEGERI MERDEY,"C75X+R8H, Bandar Udara Merdey, Unnamed Road, Merdey, Kabupaten Teluk Bintuni, Papua Bar. 98373","Bandar Udara Merdey, Unnamed Road, Merdey, Kabupaten Teluk Bintuni",PAPUA BARAT,98373.0,Indonesia,,-1.5904432,133.2983566,https://maps.google.com/?cid=0x0:0x8d201274878278c6
mall,mall,Moskona Bar.,"Kabupaten Teluk Bintuni, Papua Bar.","Kabupaten Teluk Bintuni, Papua Bar.",PAPUA BARAT,,Indonesia,,-1.7525507,132.6293446,https://maps.google.com/?cid=0x0:0x1103cd5643d830c8
mall,Kantor Pemerintah Distrik,Muskona Barat,"9XC3+7P, Inggof, Barat, Distrik Moskona Selatan, Kabupaten Teluk Bintuni, Papua Bar. 98365","Inggof, Barat, Distrik Moskona Selatan, Kabupaten Teluk Bintuni",PAPUA BARAT,98365.0,Indonesia,82141144944.0,-1.6293125,132.9543125,https://maps.google.com/?cid=0x0:0x4795219d03840efc
mall,Pusat Perbelanjaan,Manokwari City Mall (MCM),"Jl. Yos Sudarso Manokwari, Manokwari Bar., Kec. Manokwari Bar., Kabupaten Manokwari, Papua Bar. 98312","Manokwari Bar., Kec. Manokwari Bar., Kabupaten Manokwari",PAPUA BARAT,98312.0,Indonesia,8114918899.0,-0.85693,134.0678051,https://maps.google.com/?cid=0x0:0x7e7b90df1d787501
mall,mall,J,"Sp V. Manimery/ Argo Sigemeray, Distrik Bintuni, Kabupaten Teluk Bintuni, Papua Bar. 98364","Distrik Bintuni, Kabupaten Teluk Bintuni",PAPUA BARAT,98364.0,Indonesia,,-2.1080815,133.6089373,https://maps.google.com/?cid=0x0:0xaeed5ea7dbfa5414
mall,mall,Distrik Moskona Selatan,"Kabupaten Teluk Bintuni, Papua Bar.","Kabupaten Teluk Bintuni, Papua Bar.",PAPUA BARAT,,Indonesia,,-1.6286738,132.9546549,https://maps.google.com/?cid=0x0:0xef5ad832b0358efc
mall,Pusat Perbelanjaan,Manokwari City Mall (MCM),"Jl. Yos Sudarso Manokwari, Manokwari Bar., Kec. Manokwari Bar., Kabupaten Manokwari, Papua Bar. 98312","Manokwari Bar., Kec. Manokwari Bar., Kabupaten Manokwari",PAPUA BARAT,98312.0,Indonesia,8114918899.0,-0.85693,134.0678051,https://maps.google.com/?cid=0x0:0x7e7b90df1d787501
mall,mall,MOSKONA,"PASAR SENTRAL, Bintuni Tim., Distrik Bintuni, Kabupaten Teluk Bintuni, Papua Bar.","Kabupaten Teluk Bintuni, Papua Bar.",PAPUA BARAT,,Indonesia,,-2.120756,133.535579,https://maps.google.com/?cid=0x0:0x2d85422ac77572d7
mall,mall,Distrik Moskona Timur,"Kabupaten Teluk Bintuni, Papua Bar.","Kabupaten Teluk Bintuni, Papua Bar.",PAPUA BARAT,,Indonesia,,-1.311813,132.9806087,https://maps.google.com/?cid=0x0:0x97750e766a777e76
mall,Pusat Perbelanjaan,Manokwari City Mall (MCM),"Jl. Yos Sudarso Manokwari, Manokwari Bar., Kec. Manokwari Bar., Kabupaten Manokwari, Papua Bar. 98312","Manokwari Bar., Kec. Manokwari Bar., Kabupaten Manokwari",PAPUA BARAT,98312.0,Indonesia,8114918899.0,-0.85693,134.0678051,https://maps.google.com/?cid=0x0:0x7e7b90df1d787501
mall,mall,MOSKONA,"PASAR SENTRAL, Bintuni Tim., Distrik Bintuni, Kabupaten Teluk Bintuni, Papua Bar.","Kabupaten Teluk Bintuni, Papua Bar.",PAPUA BARAT,,Indonesia,,-2.120756,133.535579,https://maps.google.com/?cid=0x0:0x2d85422ac77572d7
mall,Pusat Perbelanjaan,Belakang Manokwari city mall,"43W7+F3H, Manokwari Bar., Kec. Manokwari Bar., Kabupaten Manokwari, Papua Bar. 98312","Manokwari Bar., Kec. Manokwari Bar., Kabupaten Manokwari",PAPUA BARAT,98312.0,Indonesia,,-0.8538079,134.0627452,https://maps.google.com/?cid=0x0:0x59f633fd28048da4
mall,Komplek perumahan,Fanindi Pantai,"43R9+J9P Bar, Padarni, Kec. Manokwari Bar., Kabupaten Manokwari, Papua Bar. 98312","Padarni, Kec. Manokwari Bar., Kabupaten Manokwari",PAPUA BARAT,98312.0,Indonesia,81344477231.0,-0.8584193,134.0684588,https://maps.google.com/?cid=0x0:0xfea55ca67440bcde
mall,Jepang,Ichiban Sushi Manokwari City Mall,"Jl. Yos Sudarso, Manokwari Bar., Kec. Manokwari Bar., Kabupaten Manokwari, Papua Bar. 98312","Manokwari Bar., Kec. Manokwari Bar., Kabupaten Manokwari",PAPUA BARAT,98312.0,Indonesia,,-0.85696,134.0676162,https://maps.google.com/?cid=0x0:0x345744965a30969a
mall,mall,Moskona Utara,"Kabupaten Teluk Bintuni, Papua Bar.","Kabupaten Teluk Bintuni, Papua Bar.",PAPUA BARAT,,Indonesia,,-1.368612,132.7270105,https://maps.google.com/?cid=0x0:0x53c35f8f415bb69b
mall,Pusat Perbelanjaan,Manokwari City Mall (MCM),"Jl. Yos Sudarso Manokwari, Manokwari Bar., Kec. Manokwari Bar., Kabupaten Manokwari, Papua Bar. 98312","Manokwari Bar., Kec. Manokwari Bar., Kabupaten Manokwari",PAPUA BARAT,98312.0,Indonesia,8114918899.0,-0.85693,134.0678051,https://maps.google.com/?cid=0x0:0x7e7b90df1d787501
mall,mall,MOSKONA,"PASAR SENTRAL, Bintuni Tim., Distrik Bintuni, Kabupaten Teluk Bintuni, Papua Bar.","Kabupaten Teluk Bintuni, Papua Bar.",PAPUA BARAT,,Indonesia,,-2.120756,133.535579,https://maps.google.com/?cid=0x0:0x2d85422ac77572d7
mall,Pusat Perbelanjaan,Manokwari City Mall (MCM),"Jl. Yos Sudarso Manokwari, Manokwari Bar., Kec. Manokwari Bar., Kabupaten Manokwari, Papua Bar. 98312","Manokwari Bar., Kec. Manokwari Bar., Kabupaten Manokwari",PAPUA BARAT,98312.0,Indonesia,8114918899.0,-0.85693,134.0678051,https://maps.google.com/?cid=0x0:0x7e7b90df1d787501
mall,Pusat Perbelanjaan,Belakang Manokwari city mall,"43W7+F3H, Manokwari Bar., Kec. Manokwari Bar., Kabupaten Manokwari, Papua Bar. 98312","Manokwari Bar., Kec. Manokwari Bar., Kabupaten Manokwari",PAPUA BARAT,98312.0,Indonesia,,-0.8538079,134.0627452,https://maps.google.com/?cid=0x0:0x59f633fd28048da4
mall,Komplek perumahan,Fanindi Pantai,"43R9+J9P Bar, Padarni, Kec. Manokwari Bar., Kabupaten Manokwari, Papua Bar. 98312","Padarni, Kec. Manokwari Bar., Kabupaten Manokwari",PAPUA BARAT,98312.0,Indonesia,81344477231.0,-0.8584193,134.0684588,https://maps.google.com/?cid=0x0:0xfea55ca67440bcde
mall,mall,Saengga,"Kec. Sumuri, Kabupaten Teluk Bintuni, Papua Bar.","Kabupaten Teluk Bintuni, Papua Bar.",PAPUA BARAT,,Indonesia,,-2.5122975,133.1165621,https://maps.google.com/?cid=0x0:0xe50ca1b18a711d41
mall,mall,KIOS DETE TOMIA,"PVGV+P6W, Weriagar, Distrik Weriagar, Kabupaten Teluk Bintuni, Papua Bar. 98365","Weriagar, Distrik Weriagar, Kabupaten Teluk Bintuni",PAPUA BARAT,98365.0,Indonesia,,-2.2731469,132.8930843,https://maps.google.com/?cid=0x0:0xe7cab26e23bdb7c0
mall,mall,Kec. Sumuri,"Kabupaten Teluk Bintuni, Papua Bar.","Kabupaten Teluk Bintuni, Papua Bar.",PAPUA BARAT,,Indonesia,,-2.537116,133.2587673,https://maps.google.com/?cid=0x0:0x3aaa3d515d0740c0
mall,Kantor Perusahaan,Somel,"Bintuni Tim., Distrik Bintuni, Kabupaten Teluk Bintuni, Papua Bar. 98364","Distrik Bintuni, Kabupaten Teluk Bintuni",PAPUA BARAT,98364.0,Indonesia,,-2.1021567,133.5173212,https://maps.google.com/?cid=0x0:0x7ddca9170cf37ec2
mall,Pusat Perbelanjaan,Somel BINA BERSAMA,"WM34+Q42, Tuasai, Distrik Bintuni, Kabupaten Teluk Bintuni, Papua Bar. 98364","Tuasai, Distrik Bintuni, Kabupaten Teluk Bintuni",PAPUA BARAT,98364.0,Indonesia,85244402881.0,-2.0956132,133.6552678,https://maps.google.com/?cid=0x0:0xb348da13b5ee4a4
mall,Rumah Sakit,Tembuni Birth Center,"Jl. Kemang Timur VIII No.L 13, Bangka, Kec. Mampang Prpt., Kota Jakarta Selatan, Daerah Khusus Ibukota Jakarta 12730","Bangka, Kec. Mampang Prpt., Kota Jakarta Selatan",PAPUA BARAT,12730.0,Indonesia,2122715222.0,-6.2661168,106.8216999,https://maps.google.com/?cid=0x0:0xa477f96c073156d2
mall,mall,Papua Bar. 98365,"Kabupaten Teluk Bintuni, Papua Bar.","Kabupaten Teluk Bintuni, Papua Bar.",PAPUA BARAT,,Indonesia,,-1.9250686,132.7076107,https://maps.google.com/?cid=0x0:0xe2813bacbf5a0787
mall,Pusat Perbelanjaan,Kios BONEX,"V3J5+Q8W, Sebyar Rejosari, Tomu, Kabupaten Teluk Bintuni, Papua Bar. 98365","Sebyar Rejosari, Tomu, Kabupaten Teluk Bintuni",PAPUA BARAT,98365.0,Indonesia,82221072204.0,-2.1180173,133.0583409,https://maps.google.com/?cid=0x0:0xe506201a665b6723
mall,Toko Pakaian,Kios Ardi,"Sebyar Rejosari, Tomu, Kabupaten Teluk Bintuni, Papua Bar.","Kabupaten Teluk Bintuni, Papua Bar.",PAPUA BARAT,,Indonesia,85158247725.0,-2.2166115,132.9716887,https://maps.google.com/?cid=0x0:0x8ba343060c80825c
mall,mall,CAHAYA MAROS,"QXMC+6MG, Sebyar Rejosari, Tomu, Kabupaten Teluk Bintuni, Papua Bar. 98365","Sebyar Rejosari, Tomu, Kabupaten Teluk Bintuni",PAPUA BARAT,98365.0,Indonesia,81344244811.0,-2.2169495,132.9717135,https://maps.google.com/?cid=0x0:0xe690789c94fe411a
mall,Pusat Perbelanjaan,Metropolitan Mall Bekasi,"Moeâmin, Jl. Letkol M. Moeffreni, Pekayon Jaya, Kec. Bekasi Sel., Kota Bks, Jawa Barat 17148","Jl. Letkol M. Moeffreni, Pekayon Jaya, Kec. Bekasi Sel., Kota Bks",PAPUA BARAT,17148.0,Indonesia,218855555.0,-6.248458,106.9911162,https://maps.google.com/?cid=0x0:0x601f156c56889521
mall,Pusat Perbelanjaan,Tamini Square,"Jl. Taman Mini I No.1, RT.3/RW.2, Pinang Ranti, Kec. Makasar, Kota Jakarta Timur, Daerah Khusus Ibukota Jakarta 13560","RT.3/RW.2, Pinang Ranti, Kec. Makasar, Kota Jakarta Timur",PAPUA BARAT,13560.0,Indonesia,218416789.0,-6.2911849,106.8821037,https://maps.google.com/?cid=0x0:0x284d719ef134130b
mall,Pusat Perbelanjaan,Bintaro Plaza,"Jl. Bintaro Utama 3A No.81, Pd. Karya, Kec. Pd. Aren, Kota Tangerang Selatan, Banten 15225","Pd. Karya, Kec. Pd. Aren, Kota Tangerang Selatan",PAPUA BARAT,15225.0,Indonesia,81548880003.0,-6.2728272,106.7424398,https://maps.google.com/?cid=0x0:0x7857d07e357e2606
mall,Pusat Perbelanjaan,Mall Tamini Square Pintu AW,"Jl. Raya Pd. Gede Jl. Pinang Ranti No.3, RT.3/RW.2, Pinang Ranti, Kec. Makasar, Kota Jakarta Timur, Daerah Khusus Ibukota Jakarta 13560","RT.3/RW.2, Pinang Ranti, Kec. Makasar, Kota Jakarta Timur",PAPUA BARAT,13560.0,Indonesia,,-6.2906592,106.882201,https://maps.google.com/?cid=0x0:0x138601441a72233a
mall,Gedung Apartemen,Mall@Bassura,"Jl. Jenderal Basuki Rachmat No.1A, Cipinang Besar Sel., Kecamatan Jatinegara, Kota Jakarta Timur, Daerah Khusus Ibukota Jakarta 13410","Cipinang Besar Sel., Kecamatan Jatinegara, Kota Jakarta Timur",PAPUA BARAT,13410.0,Indonesia,2122807300.0,-6.2240597,106.8778851,https://maps.google.com/?cid=0x0:0x610648e929845480
mall,mall,Distrik Tuhiba,"Kabupaten Teluk Bintuni, Papua Bar.","Kabupaten Teluk Bintuni, Papua Bar.",PAPUA BARAT,,Indonesia,,-1.9874608,133.6203736,https://maps.google.com/?cid=0x0:0x19d3a0288704397d
mall,Toko Swalayan,Vitha Shop,"VGMJ+Q9C, Unnamed Road, Bintuni Tim., Distrik Bintuni, Kabupaten Teluk Bintuni, Papua Bar. 98364","Unnamed Road, Bintuni Tim., Distrik Bintuni, Kabupaten Teluk Bintuni",PAPUA BARAT,98364.0,Indonesia,,-2.1155727,133.5309014,https://maps.google.com/?cid=0x0:0x1636e465619911fd
mall,Pusat Perbelanjaan,Kios Bambapuang,"WM44+JW4, Jl. Raya, Banjar Ausoy (Sp IV), Distrik Manimeri, Kabupaten Teluk Bintuni, Papua Bar. 98364","Jl. Raya, Banjar Ausoy (Sp IV), Distrik Manimeri, Kabupaten Teluk Bintuni",PAPUA BARAT,98364.0,Indonesia,82238007601.0,-2.0934796,133.6573187,https://maps.google.com/?cid=0x0:0xd06ca1a9668ad65e
mall,Toko Elektronik,Barang pecah belah,"VGHM+8XP, Unnamed Road, Bintuni Tim., Distrik Bintuni, Kabupaten Teluk Bintuni, Papua Bar. 98364","Unnamed Road, Bintuni Tim., Distrik Bintuni, Kabupaten Teluk Bintuni",PAPUA BARAT,98364.0,Indonesia,81248004065.0,-2.1216614,133.5349546,https://maps.google.com/?cid=0x0:0x6ae547b4998bbdc5
mall,Minimarket,Toko Sinar Sejahtera,"Pasal Sentral Blok E7, East Bintuni, Bintuni, Teluk Bintuni Regency, West Papua 98364","East Bintuni, Bintuni, Teluk Bintuni Regency",PAPUA BARAT,98364.0,Indonesia,82197970505.0,-2.1213983,133.5356892,https://maps.google.com/?cid=0x0:0xbd7919d1396b27ea
mall,Pemasok Air Minum Dalam Kemasan,Ayhu Mursalim Distributor Nu Amoorea,"VHF7+Q8Q, Jl. Raya Kali Tubi, Bintuni Tim., Distrik Bintuni, Kabupaten Teluk Bintuni, Papua Bar. 98364","Jl. Raya Kali Tubi, Bintuni Tim., Distrik Bintuni, Kabupaten Teluk Bintuni",PAPUA BARAT,98364.0,Indonesia,81293974886.0,-2.1255434,133.5633537,https://maps.google.com/?cid=0x0:0xede047f1a9520a7b
mall,Toko Pakaian,Teras Celuler,"WM67+99M, Jl. Manokwari - Bintuni, Banjar Ausoy (Sp IV), Distrik Manimeri, Kabupaten Teluk Bintuni, Papua Bar. 98364","Jl. Manokwari - Bintuni, Banjar Ausoy (Sp IV), Distrik Manimeri, Kabupaten Teluk Bintuni",PAPUA BARAT,98364.0,Indonesia,85213905880.0,-2.0890475,133.6634168,https://maps.google.com/?cid=0x0:0xfff5bc707a335e1e
mall,Pasar,Toko Aneka Sandal,"VGHP+F93, Bintuni Tim., Distrik Bintuni, Kabupaten Teluk Bintuni, Papua Bar. 98364","Bintuni Tim., Distrik Bintuni, Kabupaten Teluk Bintuni",PAPUA BARAT,98364.0,Indonesia,,-2.1213514,133.5359349,https://maps.google.com/?cid=0x0:0x8ce942c7f89cf121
mall,Toko Elektronik,M-Kios Planet Cell Sp. IV,"WM24+82C, Tuasai, Distrik Bintuni, Kabupaten Teluk Bintuni, Papua Bar. 98364","Tuasai, Distrik Bintuni, Kabupaten Teluk Bintuni",PAPUA BARAT,98364.0,Indonesia,,-2.0991959,133.655021,https://maps.google.com/?cid=0x0:0xd69efa41b9c4fa48
mall,Toko,Produk Nasa,"VJW3+68C, Sp V. Manimery/ Argo Sigemeray, Distrik Bintuni, Kabupaten Teluk Bintuni, Papua Bar. 98364","Sp V. Manimery/ Argo Sigemeray, Distrik Bintuni, Kabupaten Teluk Bintuni",PAPUA BARAT,98364.0,Indonesia,85244476599.0,-2.104433,133.60326,https://maps.google.com/?cid=0x0:0x265675c26f755432
mall,Minimarket,Galaxy Mart Bintuni,"VGJP+9CH, Bintuni Tim., Distrik Bintuni, Kabupaten Teluk Bintuni, Papua Bar. 98364","Bintuni Tim., Distrik Bintuni, Kabupaten Teluk Bintuni",PAPUA BARAT,98364.0,Indonesia,85329128241.0,-2.1190654,133.5360952,https://maps.google.com/?cid=0x0:0x45cada178a3879b6
mall,Toko Elektronik,MurahCell,"VHC3+FVH, Jl. Raya Kali Tubi, Bintuni Tim., Distrik Bintuni, Kabupaten Teluk Bintuni, Papua Bar. 98364","Jl. Raya Kali Tubi, Bintuni Tim., Distrik Bintuni, Kabupaten Teluk Bintuni",PAPUA BARAT,98364.0,Indonesia,81248553210.0,-2.128806,133.5547252,https://maps.google.com/?cid=0x0:0xd996915f4a117b21
mall,Toko bahan makanan,Bintuni Mart,"IndonesiaB, Jl.raya bintuni No.21, RT.002/RW.002, Bintuni Tim., Distrik Bintuni, Kabupaten Teluk Bintuni, Papua Bar. 98364","Jl.raya bintuni No.21, RT.002/RW.002, Bintuni Tim., Distrik Bintuni, Kabupaten Teluk Bintuni",PAPUA BARAT,98364.0,Indonesia,,-2.1262128,133.5491768,https://maps.google.com/?cid=0x0:0xf4abf7e7adb1481f
mall,Toko,Kios bintuni abadi,"WM5Q+CMR, Waraitama, Distrik Manimeri, Kabupaten Teluk Bintuni, Papua Bar. 98364","Waraitama, Distrik Manimeri, Kabupaten Teluk Bintuni",PAPUA BARAT,98364.0,Indonesia,81344112348.0,-2.0913996,133.6891446,https://maps.google.com/?cid=0x0:0xdd787faf073f14df
mall,Kios,Kios Mas Kuwat,"WPJC+983, Jl.Poros, Korano Jaya, Distrik Manimeri, Kabupaten Teluk Bintuni, Papua Bar. 98364","Jl.Poros, Korano Jaya, Distrik Manimeri, Kabupaten Teluk Bintuni",PAPUA BARAT,98364.0,Indonesia,82213231041.0,-2.0691057,133.7208052,https://maps.google.com/?cid=0x0:0x195cce6cfee42a75
mall,Toko,Kios Putra Mamisi,"M5Q5+4QH, Jln Poros, Mamisi, Nikiwar, Teluk Wondama Regency, West Papua 98361","Jln Poros, Mamisi, Nikiwar, Teluk Wondama Regency",PAPUA BARAT,98361.0,Indonesia,81248626743.0,-2.3121971,134.1594701,https://maps.google.com/?cid=0x0:0x70244aee4ee4814b
mall,mall,Papua Bar. 98361,"Kabupaten Teluk Wondama, Papua Bar.","Kabupaten Teluk Wondama, Papua Bar.",PAPUA BARAT,,Indonesia,,-2.4815085,134.2099791,https://maps.google.com/?cid=0x0:0xe298b41c3e32d0eb
mall,mall,Wamesa,"Kabupaten Teluk Bintuni, Papua Bar.","Kabupaten Teluk Bintuni, Papua Bar.",PAPUA BARAT,,Indonesia,,-2.1434612,133.981812,https://maps.google.com/?cid=0x0:0x255b33cb1fd7a021
mall,Toko Pakaian,Teras Celuler,"WM67+99M, Jl. Manokwari - Bintuni, Banjar Ausoy (Sp IV), Distrik Manimeri, Kabupaten Teluk Bintuni, Papua Bar. 98364","Jl. Manokwari - Bintuni, Banjar Ausoy (Sp IV), Distrik Manimeri, Kabupaten Teluk Bintuni",PAPUA BARAT,98364.0,Indonesia,85213905880.0,-2.0890475,133.6634168,https://maps.google.com/?cid=0x0:0xfff5bc707a335e1e
mall,Pusat Perbelanjaan,Kios Bambapuang,"WM44+JW4, Jl. Raya, Banjar Ausoy (Sp IV), Distrik Manimeri, Kabupaten Teluk Bintuni, Papua Bar. 98364","Jl. Raya, Banjar Ausoy (Sp IV), Distrik Manimeri, Kabupaten Teluk Bintuni",PAPUA BARAT,98364.0,Indonesia,82238007601.0,-2.0934796,133.6573187,https://maps.google.com/?cid=0x0:0xd06ca1a9668ad65e
mall,Toko Elektronik,M-Kios Planet Cell Sp. IV,"WM24+82C, Tuasai, Distrik Bintuni, Kabupaten Teluk Bintuni, Papua Bar. 98364","Tuasai, Distrik Bintuni, Kabupaten Teluk Bintuni",PAPUA BARAT,98364.0,Indonesia,,-2.0991959,133.655021,https://maps.google.com/?cid=0x0:0xd69efa41b9c4fa48
mall,Toko,Kios bintuni abadi,"WM5Q+CMR, Waraitama, Distrik Manimeri, Kabupaten Teluk Bintuni, Papua Bar. 98364","Waraitama, Distrik Manimeri, Kabupaten Teluk Bintuni",PAPUA BARAT,98364.0,Indonesia,81344112348.0,-2.0913996,133.6891446,https://maps.google.com/?cid=0x0:0xdd787faf073f14df
mall,Toko Pakaian Wanita,Xstore,"WM56+833, Jalan Poros sp 4, Banjar Ausoy (Sp IV), Distrik Manimeri, Kabupaten Teluk Bintuni, Papua Bar. 98364","Jalan Poros sp 4, Banjar Ausoy (Sp IV), Distrik Manimeri, Kabupaten Teluk Bintuni",PAPUA BARAT,98364.0,Indonesia,,-2.091735,133.6601729,https://maps.google.com/?cid=0x0:0x1cb8b6e408306c66
mall,Pusat Perbelanjaan,Kios Berkat A27,"Unnamed Road, Weriagar, Distrik Weriagar, Kabupaten Teluk Bintuni, Papua Bar. 98365","Weriagar, Distrik Weriagar, Kabupaten Teluk Bintuni",PAPUA BARAT,98365.0,Indonesia,821930980.0,-2.2731577,132.892796,https://maps.google.com/?cid=0x0:0x605383ca5ce211d5
mall,mall,Distrik Weriagar,"Kabupaten Teluk Bintuni, Papua Bar.","Kabupaten Teluk Bintuni, Papua Bar.",PAPUA BARAT,,Indonesia,,-2.2729914,132.892696,https://maps.google.com/?cid=0x0:0xa59e3da385ccd401
mall,Toko Pakaian,Kios Ardi,"Sebyar Rejosari, Tomu, Kabupaten Teluk Bintuni, Papua Bar.","Kabupaten Teluk Bintuni, Papua Bar.",PAPUA BARAT,,Indonesia,85158247725.0,-2.2166115,132.9716887,https://maps.google.com/?cid=0x0:0x8ba343060c80825c
mall,mall,Weriagar,"Distrik Weriagar, Kabupaten Teluk Bintuni, Papua Bar.","Kabupaten Teluk Bintuni, Papua Bar.",PAPUA BARAT,,Indonesia,,-2.1233788,132.9027576,https://maps.google.com/?cid=0x0:0x2881d73f66defa63
mall,mall,Weriagar Utara,"Distrik Weriagar, Kabupaten Teluk Bintuni, Papua Bar.","Kabupaten Teluk Bintuni, Papua Bar.",PAPUA BARAT,,Indonesia,,-1.9899685,132.9611571,https://maps.google.com/?cid=0x0:0x2b93b326539ef86b
supermarket,supermarket,Distrik Aranday,"Kabupaten Teluk Bintuni, Papua Bar.","Kabupaten Teluk Bintuni, Papua Bar.",PAPUA BARAT,,Indonesia,,-1.925379,133.229204,https://maps.google.com/?cid=0x0:0xab05e8c7d8e39b11
supermarket,Toko bahan makanan,Luluk sutriani,"38VH+PQG, Kp. Baru, Distrik Aranday, Kabupaten Teluk Bintuni, Papua Bar.","Kabupaten Teluk Bintuni, Papua Bar.",PAPUA BARAT,,Indonesia,,-1.9056848,133.329466,https://maps.google.com/?cid=0x0:0xcac564b73a2b0428
supermarket,Toko bahan makanan,Kios Abdullah Annisa,"38VH+PQG, Kp. Baru, Distrik Aranday, Kabupaten Teluk Bintuni, Papua Bar.","Kabupaten Teluk Bintuni, Papua Bar.",PAPUA BARAT,,Indonesia,,-1.9056848,133.329466,https://maps.google.com/?cid=0x0:0xc5b8aa2967e965b7
supermarket,Kios,Kios Sella (Pak haji Stengkol),"Unnamed Road, Stenkool 3, Ekam, Tomu, Kabupaten Teluk Bintuni, Papua Bar. 98364","Stenkool 3, Ekam, Tomu, Kabupaten Teluk Bintuni",PAPUA BARAT,98364.0,Indonesia,81240661009.0,-1.9113064,133.1228024,https://maps.google.com/?cid=0x0:0x6a53895b06903760
supermarket,Toko Swalayan,Ranch Market Kemang,"Jl. Kemang Raya No.66 68, RT.8/RW.2, Bangka, Mampang Prapatan, South Jakarta City, Jakarta 12730","RT.8/RW.2, Bangka, Mampang Prapatan, South Jakarta City",PAPUA BARAT,12730.0,Indonesia,81382217182.0,-6.2641983,106.8159772,https://maps.google.com/?cid=0x0:0x8a811b9772a51004
supermarket,Toko Swalayan,Ranch Market Senayan Park,"Senayan Park #LG Floor, Jl. Gerbang Pemuda No.3, RT.1/RW.3, Gelora, Kecamatan Tanah Abang, Kota Jakarta Pusat, Daerah Khusus Ibukota Jakarta 10270","Jl. Gerbang Pemuda No.3, RT.1/RW.3, Gelora, Kecamatan Tanah Abang, Kota Jakarta Pusat",PAPUA BARAT,10270.0,Indonesia,81110654003.0,-6.2126883,106.8031505,https://maps.google.com/?cid=0x0:0x907e40cfe64a156c
supermarket,Es Krim,Vilo Gelato Kemang,"Ranch Market Kemang, Jl. Kemang Raya No.8, RT.8/RW.2, Bangka, Kec. Mampang Prpt., Kota Jakarta Selatan, Daerah Khusus Ibukota Jakarta 12730","Jl. Kemang Raya No.8, RT.8/RW.2, Bangka, Kec. Mampang Prpt., Kota Jakarta Selatan",PAPUA BARAT,12730.0,Indonesia,,-6.2641418,106.8159713,https://maps.google.com/?cid=0x0:0x2509481451f3579c
supermarket,supermarket,Distrik Aroba,"Kabupaten Teluk Bintuni, Papua Bar.","Kabupaten Teluk Bintuni, Papua Bar.",PAPUA BARAT,,Indonesia,,-2.6623708,133.4066618,https://maps.google.com/?cid=0x0:0x34e1822373826341
supermarket,Toko Swalayan,Avisa Shop,"VGMJ+3H6, Bintuni Tim., Distrik Bintuni, Kabupaten Teluk Bintuni, Papua Bar. 98364","Bintuni Tim., Distrik Bintuni, Kabupaten Teluk Bintuni",PAPUA BARAT,98364.0,Indonesia,,-2.1173365,133.531399,https://maps.google.com/?cid=0x0:0x73b8c03a5abda4db
supermarket,Kios,Kios hisyam,"VGJJ+6V4, Unnamed Road, Bintuni Tim., Distrik Bintuni, Kabupaten Teluk Bintuni, Papua Bar. 98364","Unnamed Road, Bintuni Tim., Distrik Bintuni, Kabupaten Teluk Bintuni",PAPUA BARAT,98364.0,Indonesia,,-2.1194939,133.532206,https://maps.google.com/?cid=0x0:0xc07bbd41f4380dca
supermarket,Pom bensin/SPBU,Safeway,"2709 E Hwy 101, Port Angeles, WA 98362, Amerika Serikat","Port Angeles, WA",PAPUA BARAT,98362.0,Indonesia,13604571461.0,48.1059874,-123.3804903,https://maps.google.com/?cid=0x0:0x8674326fd2c109df
supermarket,supermarket,Babo,"Kabupaten Teluk Bintuni, Papua Bar.","Kabupaten Teluk Bintuni, Papua Bar.",PAPUA BARAT,,Indonesia,,-2.5410944,133.4455624,https://maps.google.com/?cid=0x0:0x4d33f662184232b6
supermarket,Toko,Kios asyifa,"Irarutu III/Babo, Babo, Kabupaten Teluk Bintuni, Papua Bar. 98363","Babo, Kabupaten Teluk Bintuni",PAPUA BARAT,98363.0,Indonesia,82397825232.0,-2.5394226,133.4398167,https://maps.google.com/?cid=0x0:0x72917475a41221ec
supermarket,Toko umum,Toko Cahaya Bugis,"Nusei, Distrik Aroba, Kabupaten Teluk Bintuni, Papua Bar. 98363","Distrik Aroba, Kabupaten Teluk Bintuni",PAPUA BARAT,98363.0,Indonesia,,-2.5373477,133.4427329,https://maps.google.com/?cid=0x0:0x47e45798f4c20f6f
supermarket,supermarket,TANGGUH MART CABANG BABO,"Modan, Nusei, Babo, Nusei, Babo, Teluk Bintuni Regency, West Papua 98363","Nusei, Babo, Nusei, Babo, Teluk Bintuni Regency",PAPUA BARAT,98363.0,Indonesia,81252889986.0,-2.5396139,133.4443062,https://maps.google.com/?cid=0x0:0xa09dfb658800ca52
supermarket,Toko umum,Warung dan Kios Sabila,"FC5X+94, Nusei, Babo, Kabupaten Teluk Bintuni, Papua Bar. 98363","Nusei, Babo, Kabupaten Teluk Bintuni",PAPUA BARAT,98363.0,Indonesia,,-2.5412139,133.4477885,https://maps.google.com/?cid=0x0:0x455150cddd461bf4
supermarket,Toko,BUGISMARK,"FC4X+MXR, irarutu III, Nusei, Babo, Kabupaten Teluk Bintuni, Papua Bar. 98363","irarutu III, Nusei, Babo, Kabupaten Teluk Bintuni",PAPUA BARAT,98363.0,Indonesia,,-2.5432951,133.449834,https://maps.google.com/?cid=0x0:0x6e67c8ff76ba07a5
supermarket,Toko Bahan Bangunan,Toko Rahayu Babo,"FF52+F2R, Unnamed Road, Nusei, Babo, Kabupaten Teluk Bintuni, Papua Bar. 98363","Unnamed Road, Nusei, Babo, Kabupaten Teluk Bintuni",PAPUA BARAT,98363.0,Indonesia,85244200777.0,-2.5412733,133.45003,https://maps.google.com/?cid=0x0:0x2d6ca9cad594f391
supermarket,Toko,DEPOT AIR ST RO BABO,"FC6V+4V4, Nusei, Babo, Kabupaten Teluk Bintuni, Papua Bar.","Kabupaten Teluk Bintuni, Papua Bar.",PAPUA BARAT,,Indonesia,,-2.5397291,133.4446986,https://maps.google.com/?cid=0x0:0x3560b1be64cb2663
supermarket,Toko,BUGISMARK,"irarutuIII, dekat, jembatan nuse, Babo, Kabupaten Teluk Bintuni, Papua Bar. 98363","dekat, jembatan nuse, Babo, Kabupaten Teluk Bintuni",PAPUA BARAT,98363.0,Indonesia,85341945529.0,-2.5432955,133.4498338,https://maps.google.com/?cid=0x0:0x52de3f84bd90b21f
supermarket,Toko bahan makanan,Toko Damai Babo,"FF52+22H, Irarutu III, Nusei, Babo, Kabupaten Teluk Bintuni, Papua Bar.","Kabupaten Teluk Bintuni, Papua Bar.",PAPUA BARAT,,Indonesia,,-2.5424341,133.4500982,https://maps.google.com/?cid=0x0:0x3451da76e7a1a8d5
supermarket,Toko,Kios Ramadhan (TorajaBabo),"FC4X+2C9, Nusei, Babo, Kabupaten Teluk Bintuni, Papua Bar.","Kabupaten Teluk Bintuni, Papua Bar.",PAPUA BARAT,,Indonesia,82397005097.0,-2.5449625,133.4486094,https://maps.google.com/?cid=0x0:0x7cb633e8d0baea5c
supermarket,Toko umum,Kios Omall,"FC4X+2C9, Nusei, Babo, Kabupaten Teluk Bintuni, Papua Bar.","Kabupaten Teluk Bintuni, Papua Bar.",PAPUA BARAT,,Indonesia,82199914986.0,-2.5446237,133.4490146,https://maps.google.com/?cid=0x0:0x4df227d25d195e28
supermarket,Pusat Perbelanjaan,Kios Bu Hajir,"G924+RRX, Kasira, Distrik Aroba, Kabupaten Teluk Bintuni, Papua Bar. 98363","Kasira, Distrik Aroba, Kabupaten Teluk Bintuni",PAPUA BARAT,98363.0,Indonesia,,-2.4983458,133.3570042,https://maps.google.com/?cid=0x0:0x33b2a453980a94b8
supermarket,Toko Bahan Bangunan,Toko Sulawesi Tekhnik,"FC5X+94, Nusei, Babo, Kabupaten Teluk Bintuni, Papua Bar. 98363","Nusei, Babo, Kabupaten Teluk Bintuni",PAPUA BARAT,98363.0,Indonesia,85254235788.0,-2.5415228,133.4478073,https://maps.google.com/?cid=0x0:0xd55ca5f310ac8df0
supermarket,supermarket,Bintuni,"Bintuni Tim., Distrik Bintuni, Kabupaten Teluk Bintuni, Papua Bar.","Kabupaten Teluk Bintuni, Papua Bar.",PAPUA BARAT,,Indonesia,,-2.116667,133.533333,https://maps.google.com/?cid=0x0:0xb2abe6f637dc67dd
supermarket,Minimarket,Galaxy Mart Bintuni,"VGJP+9CH, Bintuni Tim., Distrik Bintuni, Kabupaten Teluk Bintuni, Papua Bar. 98364","Bintuni Tim., Distrik Bintuni, Kabupaten Teluk Bintuni",PAPUA BARAT,98364.0,Indonesia,85329128241.0,-2.1190654,133.5360952,https://maps.google.com/?cid=0x0:0x45cada178a3879b6
supermarket,Toko bahan makanan,Asyifa Mart,"Wesiri, Distrik Bintuni, Kabupaten Teluk Bintuni, Papua Bar. 98364","Distrik Bintuni, Kabupaten Teluk Bintuni",PAPUA BARAT,98364.0,Indonesia,,-2.0893793,133.5012681,https://maps.google.com/?cid=0x0:0x4be440f02f3456a6
supermarket,Minimarket,Mini Market SINGGAH DULU,"VGJP+G3G, Jl. Raya, Bintuni Tim., Distrik Bintuni, Kabupaten Teluk Bintuni, Papua Bar. 98364","Jl. Raya, Bintuni Tim., Distrik Bintuni, Kabupaten Teluk Bintuni",PAPUA BARAT,98364.0,Indonesia,82397259092.0,-2.1186924,133.5351925,https://maps.google.com/?cid=0x0:0x896b2fb589570c5
supermarket,Toko bahan makanan,Bintuni Mart,"IndonesiaB, Jl.raya bintuni No.21, RT.002/RW.002, Bintuni Tim., Distrik Bintuni, Kabupaten Teluk Bintuni, Papua Bar. 98364","Jl.raya bintuni No.21, RT.002/RW.002, Bintuni Tim., Distrik Bintuni, Kabupaten Teluk Bintuni",PAPUA BARAT,98364.0,Indonesia,,-2.1262128,133.5491768,https://maps.google.com/?cid=0x0:0xf4abf7e7adb1481f
supermarket,Toko Perlengkapan Rumah,Toko Hiklal,"VGHM+GV8, Bintuni Tim., Distrik Bintuni, Kabupaten Teluk Bintuni, Papua Bar. 98364","Bintuni Tim., Distrik Bintuni, Kabupaten Teluk Bintuni",PAPUA BARAT,98364.0,Indonesia,,-2.1212081,133.5347149,https://maps.google.com/?cid=0x0:0x2a9ad2a11aca15b0
supermarket,Kios,Kios Faiza,"VGFX+V74, Bintuni Tim., Distrik Bintuni, Kabupaten Teluk Bintuni, Papua Bar. 98364","Bintuni Tim., Distrik Bintuni, Kabupaten Teluk Bintuni",PAPUA BARAT,98364.0,Indonesia,,-2.1253672,133.5481997,https://maps.google.com/?cid=0x0:0xf2f32f2bc6ec49c3
supermarket,Toko Swalayan,Kios Ramadhan,"VGMJ+MF8, Bintuni Tim., Distrik Bintuni, Kabupaten Teluk Bintuni, Papua Bar. 98364","Bintuni Tim., Distrik Bintuni, Kabupaten Teluk Bintuni",PAPUA BARAT,98364.0,Indonesia,,-2.1158395,133.5312039,https://maps.google.com/?cid=0x0:0x4a0a2996d5a91527
supermarket,Kios,Kios hisyam,"VGJJ+6V4, Unnamed Road, Bintuni Tim., Distrik Bintuni, Kabupaten Teluk Bintuni, Papua Bar. 98364","Unnamed Road, Bintuni Tim., Distrik Bintuni, Kabupaten Teluk Bintuni",PAPUA BARAT,98364.0,Indonesia,,-2.1194939,133.532206,https://maps.google.com/?cid=0x0:0xc07bbd41f4380dca
supermarket,Minimarket,Toko Gihon,"Bintuni Tim., Distrik Bintuni, Kabupaten Teluk Bintuni, Papua Bar. 98364","Distrik Bintuni, Kabupaten Teluk Bintuni",PAPUA BARAT,98364.0,Indonesia,,-2.1199249,133.5376206,https://maps.google.com/?cid=0x0:0xf540e47414e75c6b
supermarket,Minimarket,Toko Bina Bersama,"WM44+93V, Jl. Manokwari - Bintuni, Tuasai, Distrik Bintuni, Kabupaten Teluk Bintuni, Papua Bar. 98364","Jl. Manokwari - Bintuni, Tuasai, Distrik Bintuni, Kabupaten Teluk Bintuni",PAPUA BARAT,98364.0,Indonesia,,-2.09402,133.6551567,https://maps.google.com/?cid=0x0:0xb421b906428ab24c
supermarket,Toko Roti,Fresh cake,"VGJM+XCW, Unnamed Road, Bintuni Tim., Distrik Bintuni, Kabupaten Teluk Bintuni, Papua Bar. 98364","Unnamed Road, Bintuni Tim., Distrik Bintuni, Kabupaten Teluk Bintuni",PAPUA BARAT,98364.0,Indonesia,8524420999.0,-2.1175129,133.533568,https://maps.google.com/?cid=0x0:0x6260886f245be4bd
supermarket,Minimarket,IVA MART,"Jl. Raya Kali Tubi Pertokoan Kuri, RT./RW/RW.002/004, Kabupaten Teluk Bintuni, Papua Bar. 98653","RT./RW/RW.002/004, Kabupaten Teluk Bintuni",PAPUA BARAT,98653.0,Indonesia,,-2.1276818,133.5519063,https://maps.google.com/?cid=0x0:0xbbf5cad6c5e32b89
supermarket,Toko Elektronik,Bintuni,"VGJM+WFP, Bintuni Tim., Distrik Bintuni, Kabupaten Teluk Bintuni, Papua Bar. 98364","Bintuni Tim., Distrik Bintuni, Kabupaten Teluk Bintuni",PAPUA BARAT,98364.0,Indonesia,81344481738.0,-2.1176733,133.5337058,https://maps.google.com/?cid=0x0:0x5554a854c6f1189a
supermarket,supermarket,MMart Sanggeng,"M57F+HV4, Morombuy, Merdey, Kabupaten Teluk Bintuni, Papua Bar.","Kabupaten Teluk Bintuni, Papua Bar.",PAPUA BARAT,,Indonesia,,-1.3361154,133.1747162,https://maps.google.com/?cid=0x0:0xbb4a965cfe48359c
supermarket,Pusat Perbelanjaan,Papua Supermarket  Dept. Store,"4869+F77 Bar, Sawagumu, Kec. Sorong Utara, Kota Sorong, Papua Bar. 98416","Sawagumu, Kec. Sorong Utara, Kota Sorong",PAPUA BARAT,98416.0,Indonesia,9513160123.0,-0.888831,131.3181847,https://maps.google.com/?cid=0x0:0x7b5f0926a74ad213
supermarket,Minimarket,SAGA Supermarket  Dept. Store,"Jalan A. Yani, Ruko Kuda Laut, Klademak, Kecamatan Sorong Manoi, Kota Sorong, Papua Bar. 98414","Ruko Kuda Laut, Klademak, Kecamatan Sorong Manoi, Kota Sorong",PAPUA BARAT,98414.0,Indonesia,951322784.0,-0.8765248,131.2576755,https://maps.google.com/?cid=0x0:0x963043ed646a7e1e
supermarket,Mal outlet,Supermal Karawaci,"Jl. Boulevard Diponegoro No.105, Bencongan, Kec. Klp. Dua, Kabupaten Tangerang, Banten 15810","Bencongan, Kec. Klp. Dua, Kabupaten Tangerang",PAPUA BARAT,15810.0,Indonesia,215466666.0,-6.2268116,106.6070233,https://maps.google.com/?cid=0x0:0xc5927a7be82e23b8
supermarket,Pusat Perbelanjaan,Lippo karawaci FGS,"QJHF+V33, Jl. Boulevard Jend. Sudirman, RT.001/RW.009, Panunggangan Bar., Kec. Cibodas, Kota Tangerang, Banten 15138","Jl. Boulevard Jend. Sudirman, RT.001/RW.009, Panunggangan Bar., Kec. Cibodas, Kota Tangerang",PAPUA BARAT,15138.0,Indonesia,,-6.2203576,106.622674,https://maps.google.com/?cid=0x0:0x6d5a9dabbdde5c66
supermarket,Makanan Siap Saji,KFC Supermal Karawaci,"Lippo Karawaci Supermall, Lt. LG No. 18, Jl. Diponegoro Blvd No.105, Bencongan, Kec. Klp. Dua, Kota Tangerang, Banten 15810","Lt. LG No. 18, Jl. Diponegoro Blvd No.105, Bencongan, Kec. Klp. Dua, Kota Tangerang",PAPUA BARAT,15810.0,Indonesia,87881068872.0,-6.22767,106.6063432,https://maps.google.com/?cid=0x0:0xc6fece4a764f1807
supermarket,Toko Buku,Gramedia Supermal Karawaci,"Supermal Karawaci, Jl. Boulevard Diponegoro No.105, Bencongan, Kec. Curug, Kabupaten Tangerang, Banten 15811","Jl. Boulevard Diponegoro No.105, Bencongan, Kec. Curug, Kabupaten Tangerang",PAPUA BARAT,15811.0,Indonesia,215475874.0,-6.2272977,106.6080693,https://maps.google.com/?cid=0x0:0x2455452ce85185d5
supermarket,supermarket,Distrik Dataran Beimes,"Kabupaten Teluk Bintuni, Papua Bar.","Kabupaten Teluk Bintuni, Papua Bar.",PAPUA BARAT,,Indonesia,,-1.6164845,133.6599628,https://maps.google.com/?cid=0x0:0x8fa53e8e503789bf
supermarket,Toko bahan makanan,Bintuni Mart,"IndonesiaB, Jl.raya bintuni No.21, RT.002/RW.002, Bintuni Tim., Distrik Bintuni, Kabupaten Teluk Bintuni, Papua Bar. 98364","Jl.raya bintuni No.21, RT.002/RW.002, Bintuni Tim., Distrik Bintuni, Kabupaten Teluk Bintuni",PAPUA BARAT,98364.0,Indonesia,,-2.1262128,133.5491768,https://maps.google.com/?cid=0x0:0xf4abf7e7adb1481f
supermarket,Rumah Kayu,Kampung Rosib,"VJQC+7CX, Kampung Rosib, Beimes, Distrik Bintuni, Kabupaten Teluk Bintuni, Papua Bar. 98364","Kampung Rosib, Beimes, Distrik Bintuni, Kabupaten Teluk Bintuni",PAPUA BARAT,98364.0,Indonesia,,-2.1117606,133.6210981,https://maps.google.com/?cid=0x0:0xffd32e59f909bfbc
supermarket,supermarket,Kios khanaya,"6W8G+82P, Jl. Manokwari - Bintuni, Reyob, Distrik Tahota, Kabupaten Teluk Bintuni, Papua Bar. 98355","Jl. Manokwari - Bintuni, Reyob, Distrik Tahota, Kabupaten Teluk Bintuni",PAPUA BARAT,98355.0,Indonesia,,-1.7841503,133.925069,https://maps.google.com/?cid=0x0:0x9dc9b4f7827be679
supermarket,Pasar,Pasar Sentral Bintuni,"VGHP+RWG, Bintuni Tim., Distrik Bintuni, Kabupaten Teluk Bintuni, Papua Bar. 98364","Bintuni Tim., Distrik Bintuni, Kabupaten Teluk Bintuni",PAPUA BARAT,98364.0,Indonesia,,-2.120756,133.535579,https://maps.google.com/?cid=0x0:0xd24dd97107b172bb
supermarket,supermarket,Distrik Fafurwar,"Kabupaten Teluk Bintuni, Papua Bar.","Kabupaten Teluk Bintuni, Papua Bar.",PAPUA BARAT,,Indonesia,,-2.9160631,133.6759049,https://maps.google.com/?cid=0x0:0x78e970d7052f06c0
supermarket,Toko Swalayan,Hadi Supermarket  Dept. Store,"Jl. Imam Bonjol No.56, Fandoi, Kec. Biak Kota, Kabupaten Biak Numfor, Papua 98111","Fandoi, Kec. Biak Kota, Kabupaten Biak Numfor",PAPUA BARAT,98111.0,Indonesia,,-1.1800003,136.0824788,https://maps.google.com/?cid=0x0:0xdcad74b4384219ee
supermarket,supermarket,Hafira Mart,"PW6V+JFM, jln kebun kelapa, Fudima, Tlk. Arguni, Kabupaten Kaimana, Papua Bar. 98653","jln kebun kelapa, Fudima, Tlk. Arguni, Kabupaten Kaimana",PAPUA BARAT,98653.0,Indonesia,,-3.2884059,133.9436787,https://maps.google.com/?cid=0x0:0x66a721c7b6b62ff8
supermarket,Pusat Perbelanjaan,Papua Supermarket  Dept. Store,"4869+F77 Bar, Sawagumu, Kec. Sorong Utara, Kota Sorong, Papua Bar. 98416","Sawagumu, Kec. Sorong Utara, Kota Sorong",PAPUA BARAT,98416.0,Indonesia,9513160123.0,-0.888831,131.3181847,https://maps.google.com/?cid=0x0:0x7b5f0926a74ad213
supermarket,Minimarket,SAGA Supermarket  Dept. Store,"Jalan A. Yani, Ruko Kuda Laut, Klademak, Kecamatan Sorong Manoi, Kota Sorong, Papua Bar. 98414","Ruko Kuda Laut, Klademak, Kecamatan Sorong Manoi, Kota Sorong",PAPUA BARAT,98414.0,Indonesia,951322784.0,-0.8765248,131.2576755,https://maps.google.com/?cid=0x0:0x963043ed646a7e1e
supermarket,Komplek perumahan,Rumah Bpk Gustaf. L,"4859+784, Klawuyuk, Distrik Sorong Timur, Kota Sorong, Papua Bar. 98416","Klawuyuk, Distrik Sorong Timur, Kota Sorong",PAPUA BARAT,98416.0,Indonesia,,-0.8918739,131.3183248,https://maps.google.com/?cid=0x0:0x30559e7e5eb96ee4
supermarket,Minimarket,Win Mart,"Jl. Drs Esau Sesa, Wosi, Kec. Manokwari Bar., Kabupaten Manokwari, Papua Bar. 98312","Wosi, Kec. Manokwari Bar., Kabupaten Manokwari",PAPUA BARAT,98312.0,Indonesia,,-0.8713031,134.0464301,https://maps.google.com/?cid=0x0:0xf38b5c7878a43c12
supermarket,Toko Swalayan,The Gourmet by Ranch Market,"ASHTA Lantai Dasar Unit LG-01, Jl. Senopati No.Raya, RT.8/RW.3, Senayan, Kec. Kby. Baru, Kota Jakarta Selatan, Daerah Khusus Ibukota Jakarta 12190","Jl. Senopati No.Raya, RT.8/RW.3, Senayan, Kec. Kby. Baru, Kota Jakarta Selatan",PAPUA BARAT,12190.0,Indonesia,81282091909.0,-6.2292324,106.8067785,https://maps.google.com/?cid=0x0:0x32d5081bb2c4af19
supermarket,Toko Swalayan,Ranch Market Senayan Park,"Senayan Park #LG Floor, Jl. Gerbang Pemuda No.3, RT.1/RW.3, Gelora, Kecamatan Tanah Abang, Kota Jakarta Pusat, Daerah Khusus Ibukota Jakarta 10270","Jl. Gerbang Pemuda No.3, RT.1/RW.3, Gelora, Kecamatan Tanah Abang, Kota Jakarta Pusat",PAPUA BARAT,10270.0,Indonesia,81110654003.0,-6.2126883,106.8031505,https://maps.google.com/?cid=0x0:0x907e40cfe64a156c
supermarket,supermarket,Angsley Ashta,"QRC4+8PM, RT.8/RW.3, Senayan, Kec. Kby. Baru, Kota Jakarta Selatan, Daerah Khusus Ibukota Jakarta","Kota Jakarta Selatan, Daerah Khusus Ibukota Jakarta",PAPUA BARAT,,Indonesia,,-6.2291651,106.8067958,https://maps.google.com/?cid=0x0:0x2cd91d1928aa8036
supermarket,Minimarket,Toko Monica,"Jl. Raya Bintuni No.25, RT.003/RW.004, Kali Kodok, Bintuni, Teluk Bintuni Regency, West Papua 39291","RT.003/RW.004, Kali Kodok, Bintuni, Teluk Bintuni Regency",PAPUA BARAT,39291.0,Indonesia,81247784773.0,-2.1255482,133.5486135,https://maps.google.com/?cid=0x0:0xe2a9fbb550d3d1
supermarket,supermarket,Papua Bar. 98365,"Kabupaten Teluk Bintuni, Papua Bar.","Kabupaten Teluk Bintuni, Papua Bar.",PAPUA BARAT,,Indonesia,,-1.9250686,132.7076107,https://maps.google.com/?cid=0x0:0xe2813bacbf5a0787
supermarket,Toko bahan makanan,Bintuni Mart,"IndonesiaB, Jl.raya bintuni No.21, RT.002/RW.002, Bintuni Tim., Distrik Bintuni, Kabupaten Teluk Bintuni, Papua Bar. 98364","Jl.raya bintuni No.21, RT.002/RW.002, Bintuni Tim., Distrik Bintuni, Kabupaten Teluk Bintuni",PAPUA BARAT,98364.0,Indonesia,,-2.1262128,133.5491768,https://maps.google.com/?cid=0x0:0xf4abf7e7adb1481f
supermarket,Toko,Samudra Supermarket,"8PP2+F75, Kroy, Kec. Kaimana, Kabupaten Kaimana, Papua Bar. 98654","Kroy, Kec. Kaimana, Kabupaten Kaimana",PAPUA BARAT,98654.0,Indonesia,8113189579.0,-3.6631656,133.7002039,https://maps.google.com/?cid=0x0:0x97575d1c37a98621
supermarket,Supermarket Diskon,CV. Samudera,"9P4P+9J7, Jl. Sapta Taruna, Kroy, Kec. Kaimana, Kabupaten Kaimana, Papua Bar. 98654","Jl. Sapta Taruna, Kroy, Kec. Kaimana, Kabupaten Kaimana",PAPUA BARAT,98654.0,Indonesia,,-3.6440992,133.7365536,https://maps.google.com/?cid=0x0:0x64165c860713d18
supermarket,Toko bahan makanan,Kuri Mart,"2FPF+3WM, Maniwak, Distrik Wasior, Kabupaten Teluk Wondama, Papua Bar. 98362","Maniwak, Distrik Wasior, Kabupaten Teluk Wondama",PAPUA BARAT,98362.0,Indonesia,,-2.9647961,134.4748018,https://maps.google.com/?cid=0x0:0xb22f95ce19a212d
supermarket,Toko bahan makanan,Victory,"2FPF+3WM, Maniwak, Distrik Wasior, Kabupaten Teluk Wondama, Papua Bar. 98362","Maniwak, Distrik Wasior, Kabupaten Teluk Wondama",PAPUA BARAT,98362.0,Indonesia,,-2.9647961,134.4748018,https://maps.google.com/?cid=0x0:0xaa14ccf319f55d2c
supermarket,Toko bahan makanan,Grocery Outlet,"2823 E Hwy 101, Port Angeles, WA 98362, Amerika Serikat","Port Angeles, WA",PAPUA BARAT,98362.0,Indonesia,13605042094.0,48.1053914,-123.3774947,https://maps.google.com/?cid=0x0:0xf6299024eda42aa5
supermarket,supermarket,Distrik Manimeri,"Kabupaten Teluk Bintuni, Papua Bar.","Kabupaten Teluk Bintuni, Papua Bar.",PAPUA BARAT,,Indonesia,,-2.0348077,133.7298305,https://maps.google.com/?cid=0x0:0xfcc9735ace17ac7
supermarket,Minimarket,Toko zahra,"Bumi Saniari, Distrik Manimeri, Kabupaten Teluk Bintuni, Papua Bar. 98364","Distrik Manimeri, Kabupaten Teluk Bintuni",PAPUA BARAT,98364.0,Indonesia,82143334443.0,-2.0339882,133.7198351,https://maps.google.com/?cid=0x0:0xcb5fbb6bbe05c129
supermarket,Minimarket,Toko Bina Bersama,"WM44+93V, Jl. Manokwari - Bintuni, Tuasai, Distrik Bintuni, Kabupaten Teluk Bintuni, Papua Bar. 98364","Jl. Manokwari - Bintuni, Tuasai, Distrik Bintuni, Kabupaten Teluk Bintuni",PAPUA BARAT,98364.0,Indonesia,,-2.09402,133.6551567,https://maps.google.com/?cid=0x0:0xb421b906428ab24c
supermarket,Kios,Toko Mba Sus,"VJW3+2CR, Sp V. Manimery/ Argo Sigemeray, Distrik Bintuni, Kabupaten Teluk Bintuni, Papua Bar. 98364","Sp V. Manimery/ Argo Sigemeray, Distrik Bintuni, Kabupaten Teluk Bintuni",PAPUA BARAT,98364.0,Indonesia,,-2.1048945,133.6035008,https://maps.google.com/?cid=0x0:0x345134b43ef365f6
supermarket,Toko bahan makanan,Asyifa Mart,"Wesiri, Distrik Bintuni, Kabupaten Teluk Bintuni, Papua Bar. 98364","Distrik Bintuni, Kabupaten Teluk Bintuni",PAPUA BARAT,98364.0,Indonesia,,-2.0893793,133.5012681,https://maps.google.com/?cid=0x0:0x4be440f02f3456a6
supermarket,Kios,KIOS YOGA,"Jln. Poros, Tuasai, Distrik Manimeri, Kabupaten Teluk Bintuni, Papua Bar. 98364","Tuasai, Distrik Manimeri, Kabupaten Teluk Bintuni",PAPUA BARAT,98364.0,Indonesia,,-2.0912633,133.6596332,https://maps.google.com/?cid=0x0:0x12e77daf3f2b7b0
supermarket,Minimarket,Galaxy Mart Bintuni,"VGJP+9CH, Bintuni Tim., Distrik Bintuni, Kabupaten Teluk Bintuni, Papua Bar. 98364","Bintuni Tim., Distrik Bintuni, Kabupaten Teluk Bintuni",PAPUA BARAT,98364.0,Indonesia,85329128241.0,-2.1190654,133.5360952,https://maps.google.com/?cid=0x0:0x45cada178a3879b6
supermarket,Minimarket,Toserba Galilea Bintuni,"Jl. Raya Kali Tubi, Bintuni Tim., Distrik Bintuni, Kabupaten Teluk Bintuni, Papua Bar. 98364","Bintuni Tim., Distrik Bintuni, Kabupaten Teluk Bintuni",PAPUA BARAT,98364.0,Indonesia,85344998323.0,-2.128381,133.553295,https://maps.google.com/?cid=0x0:0xec25eefca4d1b108
supermarket,Apotek,Apotek Manimeri Farma,"WM55+24V, Jl. Manokwari - Bintuni, Tuasai, Distrik Bintuni, Kabupaten Teluk Bintuni, Papua Bar. 98364","Jl. Manokwari - Bintuni, Tuasai, Distrik Bintuni, Kabupaten Teluk Bintuni",PAPUA BARAT,98364.0,Indonesia,85243322006.0,-2.092765,133.658192,https://maps.google.com/?cid=0x0:0x25cc353187e16ca4
supermarket,Kios,Kios Faiza,"VGFX+V74, Bintuni Tim., Distrik Bintuni, Kabupaten Teluk Bintuni, Papua Bar. 98364","Bintuni Tim., Distrik Bintuni, Kabupaten Teluk Bintuni",PAPUA BARAT,98364.0,Indonesia,,-2.1253672,133.5481997,https://maps.google.com/?cid=0x0:0xf2f32f2bc6ec49c3
supermarket,Toko bahan makanan,Asyifa Mart,"Wesiri, Distrik Bintuni, Kabupaten Teluk Bintuni, Papua Bar. 98364","Distrik Bintuni, Kabupaten Teluk Bintuni",PAPUA BARAT,98364.0,Indonesia,,-2.0893793,133.5012681,https://maps.google.com/?cid=0x0:0x4be440f02f3456a6
supermarket,Kios,Toko Mba Sus,"VJW3+2CR, Sp V. Manimery/ Argo Sigemeray, Distrik Bintuni, Kabupaten Teluk Bintuni, Papua Bar. 98364","Sp V. Manimery/ Argo Sigemeray, Distrik Bintuni, Kabupaten Teluk Bintuni",PAPUA BARAT,98364.0,Indonesia,,-2.1048945,133.6035008,https://maps.google.com/?cid=0x0:0x345134b43ef365f6
supermarket,Toko bahan makanan,Grocery Outlet,"4423 S Meridian Suite 723, Puyallup, WA 98373, Amerika Serikat","Puyallup, WA",PAPUA BARAT,98373.0,Indonesia,12536044364.0,47.149406,-122.29182,https://maps.google.com/?cid=0x0:0x8eefae301b312a56
supermarket,supermarket,Target Grocery,"3310 S Meridian, Puyallup, WA 98373, Amerika Serikat","Puyallup, WA",PAPUA BARAT,98373.0,Indonesia,12538402900.0,47.1599835,-122.2950817,https://maps.google.com/?cid=0x0:0xb26cdb0c0e60c8f1
supermarket,Pusat Perbelanjaan,Meridian Place,"4585 S Meridian, Puyallup, WA 98374, Amerika Serikat","Puyallup, WA",PAPUA BARAT,98374.0,Indonesia,,47.1489841,-122.2924982,https://maps.google.com/?cid=0x0:0x9d2088526e092d84
supermarket,Minimarket,Fresh Market Emerald Bintaro,"Fresh Market Emerald Bintaro, Pintu Selatan Blok PE / KA-01, RW.1, Parigi, Pondok Aren, South Tangerang City, Banten 15227","Pintu Selatan Blok PE / KA-01, RW.1, Parigi, Pondok Aren, South Tangerang City",PAPUA BARAT,15227.0,Indonesia,,-6.2753483,106.6999926,https://maps.google.com/?cid=0x0:0x767ba9acbc4a8453
supermarket,supermarket,MMart Sanggeng,"M57F+HV4, Morombuy, Merdey, Kabupaten Teluk Bintuni, Papua Bar.","Kabupaten Teluk Bintuni, Papua Bar.",PAPUA BARAT,,Indonesia,,-1.3361154,133.1747162,https://maps.google.com/?cid=0x0:0xbb4a965cfe48359c
supermarket,Toko bahan makanan,Grocery Outlet,"4423 S Meridian Suite 723, Puyallup, WA 98373, Amerika Serikat","Puyallup, WA",PAPUA BARAT,98373.0,Indonesia,12536044364.0,47.149406,-122.29182,https://maps.google.com/?cid=0x0:0x8eefae301b312a56
supermarket,Pusat Perbelanjaan,Meridian Place,"4585 S Meridian, Puyallup, WA 98374, Amerika Serikat","Puyallup, WA",PAPUA BARAT,98374.0,Indonesia,,47.1489841,-122.2924982,https://maps.google.com/?cid=0x0:0x9d2088526e092d84
supermarket,Toko bahan makanan,Bintuni Mart,"IndonesiaB, Jl.raya bintuni No.21, RT.002/RW.002, Bintuni Tim., Distrik Bintuni, Kabupaten Teluk Bintuni, Papua Bar. 98364","Jl.raya bintuni No.21, RT.002/RW.002, Bintuni Tim., Distrik Bintuni, Kabupaten Teluk Bintuni",PAPUA BARAT,98364.0,Indonesia,,-2.1262128,133.5491768,https://maps.google.com/?cid=0x0:0xf4abf7e7adb1481f
supermarket,Minimarket,Toko Monica,"Jl. Raya Bintuni No.25, RT.003/RW.004, Kali Kodok, Bintuni, Teluk Bintuni Regency, West Papua 39291","RT.003/RW.004, Kali Kodok, Bintuni, Teluk Bintuni Regency",PAPUA BARAT,39291.0,Indonesia,81247784773.0,-2.1255482,133.5486135,https://maps.google.com/?cid=0x0:0xe2a9fbb550d3d1
supermarket,supermarket,Distrik Moskona Selatan,"Kabupaten Teluk Bintuni, Papua Bar.","Kabupaten Teluk Bintuni, Papua Bar.",PAPUA BARAT,,Indonesia,,-1.6286738,132.9546549,https://maps.google.com/?cid=0x0:0xef5ad832b0358efc
supermarket,Minimarket,Toko Monica,"Jl. Raya Bintuni No.25, RT.003/RW.004, Kali Kodok, Bintuni, Teluk Bintuni Regency, West Papua 39291","RT.003/RW.004, Kali Kodok, Bintuni, Teluk Bintuni Regency",PAPUA BARAT,39291.0,Indonesia,81247784773.0,-2.1255482,133.5486135,https://maps.google.com/?cid=0x0:0xe2a9fbb550d3d1
supermarket,Minimarket,Toko Bina Bersama,"WM44+93V, Jl. Manokwari - Bintuni, Tuasai, Distrik Bintuni, Kabupaten Teluk Bintuni, Papua Bar. 98364","Jl. Manokwari - Bintuni, Tuasai, Distrik Bintuni, Kabupaten Teluk Bintuni",PAPUA BARAT,98364.0,Indonesia,,-2.09402,133.6551567,https://maps.google.com/?cid=0x0:0xb421b906428ab24c
supermarket,supermarket,Toko Gilbert,"52GX+PMJ, Barma, Kec. Meyado, Kabupaten Teluk Bintuni, Papua Bar.","Kabupaten Teluk Bintuni, Papua Bar.",PAPUA BARAT,,Indonesia,,-1.8231739,133.0491501,https://maps.google.com/?cid=0x0:0x95c5d8e6979f9757
supermarket,supermarket,Distrik Moskona Timur,"Kabupaten Teluk Bintuni, Papua Bar.","Kabupaten Teluk Bintuni, Papua Bar.",PAPUA BARAT,,Indonesia,,-1.311813,132.9806087,https://maps.google.com/?cid=0x0:0x97750e766a777e76
supermarket,Minimarket,Toko Monica,"Jl. Raya Bintuni No.25, RT.003/RW.004, Kali Kodok, Bintuni, Teluk Bintuni Regency, West Papua 39291","RT.003/RW.004, Kali Kodok, Bintuni, Teluk Bintuni Regency",PAPUA BARAT,39291.0,Indonesia,81247784773.0,-2.1255482,133.5486135,https://maps.google.com/?cid=0x0:0xe2a9fbb550d3d1
supermarket,supermarket,MMart Sanggeng,"M57F+HV4, Morombuy, Merdey, Kabupaten Teluk Bintuni, Papua Bar.","Kabupaten Teluk Bintuni, Papua Bar.",PAPUA BARAT,,Indonesia,,-1.3361154,133.1747162,https://maps.google.com/?cid=0x0:0xbb4a965cfe48359c
supermarket,supermarket,Moskona Utara,"Kabupaten Teluk Bintuni, Papua Bar.","Kabupaten Teluk Bintuni, Papua Bar.",PAPUA BARAT,,Indonesia,,-1.368612,132.7270105,https://maps.google.com/?cid=0x0:0x53c35f8f415bb69b
supermarket,supermarket,"Kios SUMBER AGUNG""""","QRWH+867, Jalan Galunggung, kampung aimasi, Moskona Utara, Kabupaten Manokwari, Papua Bar.","Kabupaten Manokwari, Papua Bar.",PAPUA BARAT,,Indonesia,82261146882.0,-1.2041875,132.8280625,https://maps.google.com/?cid=0x0:0x36174babf8627723
supermarket,Minimarket,Toko Monica,"Jl. Raya Bintuni No.25, RT.003/RW.004, Kali Kodok, Bintuni, Teluk Bintuni Regency, West Papua 39291","RT.003/RW.004, Kali Kodok, Bintuni, Teluk Bintuni Regency",PAPUA BARAT,39291.0,Indonesia,81247784773.0,-2.1255482,133.5486135,https://maps.google.com/?cid=0x0:0xe2a9fbb550d3d1
supermarket,supermarket,Saengga,"Kec. Sumuri, Kabupaten Teluk Bintuni, Papua Bar.","Kabupaten Teluk Bintuni, Papua Bar.",PAPUA BARAT,,Indonesia,,-2.5122975,133.1165621,https://maps.google.com/?cid=0x0:0xe50ca1b18a711d41
supermarket,supermarket,Kec. Sumuri,"Kabupaten Teluk Bintuni, Papua Bar.","Kabupaten Teluk Bintuni, Papua Bar.",PAPUA BARAT,,Indonesia,,-2.537116,133.2587673,https://maps.google.com/?cid=0x0:0x3aaa3d515d0740c0
supermarket,Toko Perlengkapan Rumah,Toko Hiklal,"VGHM+GV8, Bintuni Tim., Distrik Bintuni, Kabupaten Teluk Bintuni, Papua Bar. 98364","Bintuni Tim., Distrik Bintuni, Kabupaten Teluk Bintuni",PAPUA BARAT,98364.0,Indonesia,,-2.1212081,133.5347149,https://maps.google.com/?cid=0x0:0x2a9ad2a11aca15b0
supermarket,supermarket,Distrik Tembuni,"Kabupaten Teluk Bintuni, Papua Bar.","Kabupaten Teluk Bintuni, Papua Bar.",PAPUA BARAT,,Indonesia,,-1.9799814,133.4065009,https://maps.google.com/?cid=0x0:0xdf538382e229efa6
supermarket,Toko bahan makanan,Asyifa Mart,"Wesiri, Distrik Bintuni, Kabupaten Teluk Bintuni, Papua Bar. 98364","Distrik Bintuni, Kabupaten Teluk Bintuni",PAPUA BARAT,98364.0,Indonesia,,-2.0893793,133.5012681,https://maps.google.com/?cid=0x0:0x4be440f02f3456a6
supermarket,Toko bahan makanan,Luluk sutriani,"38VH+PQG, Kp. Baru, Distrik Aranday, Kabupaten Teluk Bintuni, Papua Bar.","Kabupaten Teluk Bintuni, Papua Bar.",PAPUA BARAT,,Indonesia,,-1.9056848,133.329466,https://maps.google.com/?cid=0x0:0xcac564b73a2b0428
supermarket,Toko Swalayan,Toko Hilmi,"Jl. Raya Bintuni, Depan Pasar Sentral, Kelurahan, Bintuni Tim., Distrik Bintuni, Kabupaten Teluk Bintuni, Papua Bar. 98363","Depan Pasar Sentral, Kelurahan, Bintuni Tim., Distrik Bintuni, Kabupaten Teluk Bintuni",PAPUA BARAT,98363.0,Indonesia,,-2.1200156,133.5371229,https://maps.google.com/?cid=0x0:0x76313a86a83f428b
supermarket,Rumah Sakit,Tembuni Birth Center,"Jl. Kemang Timur VIII No.L 13, Bangka, Kec. Mampang Prpt., Kota Jakarta Selatan, Daerah Khusus Ibukota Jakarta 12730","Bangka, Kec. Mampang Prpt., Kota Jakarta Selatan",PAPUA BARAT,12730.0,Indonesia,2122715222.0,-6.2661168,106.8216999,https://maps.google.com/?cid=0x0:0xa477f96c073156d2
supermarket,Klinik Medis,Dr. Jacob R dan Bidan Engeline,"Jl. Kemang Tim. 18 No.35 1, RT.4/RW.3, Bangka, Kec. Mampang Prpt., Kota Jakarta Selatan, Daerah Khusus Ibukota Jakarta 12730","RT.4/RW.3, Bangka, Kec. Mampang Prpt., Kota Jakarta Selatan",PAPUA BARAT,12730.0,Indonesia,217182818.0,-6.2721521,106.8212559,https://maps.google.com/?cid=0x0:0xce9fbfad87858326
supermarket,supermarket,Papua Bar. 98365,"Kabupaten Teluk Bintuni, Papua Bar.","Kabupaten Teluk Bintuni, Papua Bar.",PAPUA BARAT,,Indonesia,,-1.9250686,132.7076107,https://maps.google.com/?cid=0x0:0xe2813bacbf5a0787
supermarket,Minimarket,Toko zahra,"Bumi Saniari, Distrik Manimeri, Kabupaten Teluk Bintuni, Papua Bar. 98364","Distrik Manimeri, Kabupaten Teluk Bintuni",PAPUA BARAT,98364.0,Indonesia,82143334443.0,-2.0339882,133.7198351,https://maps.google.com/?cid=0x0:0xcb5fbb6bbe05c129
supermarket,Kios,Kios Sella (Pak haji Stengkol),"Unnamed Road, Stenkool 3, Ekam, Tomu, Kabupaten Teluk Bintuni, Papua Bar. 98364","Stenkool 3, Ekam, Tomu, Kabupaten Teluk Bintuni",PAPUA BARAT,98364.0,Indonesia,81240661009.0,-1.9113064,133.1228024,https://maps.google.com/?cid=0x0:0x6a53895b06903760
supermarket,Pusat Perbelanjaan,Papua Supermarket  Dept. Store,"4869+F77 Bar, Sawagumu, Kec. Sorong Utara, Kota Sorong, Papua Bar. 98416","Sawagumu, Kec. Sorong Utara, Kota Sorong",PAPUA BARAT,98416.0,Indonesia,9513160123.0,-0.888831,131.3181847,https://maps.google.com/?cid=0x0:0x7b5f0926a74ad213
supermarket,supermarket,MMart Sanggeng,"M57F+HV4, Morombuy, Merdey, Kabupaten Teluk Bintuni, Papua Bar.","Kabupaten Teluk Bintuni, Papua Bar.",PAPUA BARAT,,Indonesia,,-1.3361154,133.1747162,https://maps.google.com/?cid=0x0:0xbb4a965cfe48359c
supermarket,Minimarket,Toko Monica,"Jl. Raya Bintuni No.25, RT.003/RW.004, Kali Kodok, Bintuni, Teluk Bintuni Regency, West Papua 39291","RT.003/RW.004, Kali Kodok, Bintuni, Teluk Bintuni Regency",PAPUA BARAT,39291.0,Indonesia,81247784773.0,-2.1255482,133.5486135,https://maps.google.com/?cid=0x0:0xe2a9fbb550d3d1
supermarket,Toko Swalayan,TIP TOP Ciputat,"Jl. RE Martadinata No.5, Cipayung, Kec. Ciputat, Kota Tangerang Selatan, Banten 15411","Cipayung, Kec. Ciputat, Kota Tangerang Selatan",PAPUA BARAT,15411.0,Indonesia,217491777.0,-6.3319397,106.7492171,https://maps.google.com/?cid=0x0:0x4623528f5bcdeab7
supermarket,Toko Swalayan,TIP TOP Tambun,"Jl. Mustika Jaya, RT.02/RW.05, Lambangsari, Kec. Tambun Sel., Kabupaten Bekasi, Jawa Barat 17510","RT.02/RW.05, Lambangsari, Kec. Tambun Sel., Kabupaten Bekasi",PAPUA BARAT,17510.0,Indonesia,2182620000.0,-6.2805476,107.0391787,https://maps.google.com/?cid=0x0:0x2c8cf2fbf679c304
supermarket,Toko Swalayan,Tip Top Rawamangun,"Jl. Balai Pustaka Timur No.31-35, Rawamangun, Kec. Pulo Gadung, Kota Jakarta Timur, Daerah Khusus Ibukota Jakarta 13220","Rawamangun, Kec. Pulo Gadung, Kota Jakarta Timur",PAPUA BARAT,13220.0,Indonesia,214892154.0,-6.2007585,106.8860903,https://maps.google.com/?cid=0x0:0xea41bd5add56f035
supermarket,supermarket,Distrik Tuhiba,"Kabupaten Teluk Bintuni, Papua Bar.","Kabupaten Teluk Bintuni, Papua Bar.",PAPUA BARAT,,Indonesia,,-1.9874608,133.6203736,https://maps.google.com/?cid=0x0:0x19d3a0288704397d
supermarket,Minimarket,IVA MART,"Jl. Raya Kali Tubi Pertokoan Kuri, RT./RW/RW.002/004, Kabupaten Teluk Bintuni, Papua Bar. 98653","RT./RW/RW.002/004, Kabupaten Teluk Bintuni",PAPUA BARAT,98653.0,Indonesia,,-2.1276818,133.5519063,https://maps.google.com/?cid=0x0:0xbbf5cad6c5e32b89
supermarket,Toko Perlengkapan Rumah,Toko Hiklal,"VGHM+GV8, Bintuni Tim., Distrik Bintuni, Kabupaten Teluk Bintuni, Papua Bar. 98364","Bintuni Tim., Distrik Bintuni, Kabupaten Teluk Bintuni",PAPUA BARAT,98364.0,Indonesia,,-2.1212081,133.5347149,https://maps.google.com/?cid=0x0:0x2a9ad2a11aca15b0
supermarket,Toko bahan makanan,Asyifa Mart,"Wesiri, Distrik Bintuni, Kabupaten Teluk Bintuni, Papua Bar. 98364","Distrik Bintuni, Kabupaten Teluk Bintuni",PAPUA BARAT,98364.0,Indonesia,,-2.0893793,133.5012681,https://maps.google.com/?cid=0x0:0x4be440f02f3456a6
supermarket,Minimarket,Toko Bina Bersama,"WM44+93V, Jl. Manokwari - Bintuni, Tuasai, Distrik Bintuni, Kabupaten Teluk Bintuni, Papua Bar. 98364","Jl. Manokwari - Bintuni, Tuasai, Distrik Bintuni, Kabupaten Teluk Bintuni",PAPUA BARAT,98364.0,Indonesia,,-2.09402,133.6551567,https://maps.google.com/?cid=0x0:0xb421b906428ab24c
supermarket,Minimarket,Galaxy Mart Bintuni,"VGJP+9CH, Bintuni Tim., Distrik Bintuni, Kabupaten Teluk Bintuni, Papua Bar. 98364","Bintuni Tim., Distrik Bintuni, Kabupaten Teluk Bintuni",PAPUA BARAT,98364.0,Indonesia,85329128241.0,-2.1190654,133.5360952,https://maps.google.com/?cid=0x0:0x45cada178a3879b6
supermarket,Toko Swalayan,Avisa Shop,"VGMJ+3H6, Bintuni Tim., Distrik Bintuni, Kabupaten Teluk Bintuni, Papua Bar. 98364","Bintuni Tim., Distrik Bintuni, Kabupaten Teluk Bintuni",PAPUA BARAT,98364.0,Indonesia,,-2.1173365,133.531399,https://maps.google.com/?cid=0x0:0x73b8c03a5abda4db
supermarket,Minimarket,Toserba Galilea Bintuni,"Jl. Raya Kali Tubi, Bintuni Tim., Distrik Bintuni, Kabupaten Teluk Bintuni, Papua Bar. 98364","Bintuni Tim., Distrik Bintuni, Kabupaten Teluk Bintuni",PAPUA BARAT,98364.0,Indonesia,85344998323.0,-2.128381,133.553295,https://maps.google.com/?cid=0x0:0xec25eefca4d1b108
supermarket,Kios,Kios Faiza,"VGFX+V74, Bintuni Tim., Distrik Bintuni, Kabupaten Teluk Bintuni, Papua Bar. 98364","Bintuni Tim., Distrik Bintuni, Kabupaten Teluk Bintuni",PAPUA BARAT,98364.0,Indonesia,,-2.1253672,133.5481997,https://maps.google.com/?cid=0x0:0xf2f32f2bc6ec49c3
supermarket,Kios,Toko Mba Sus,"VJW3+2CR, Sp V. Manimery/ Argo Sigemeray, Distrik Bintuni, Kabupaten Teluk Bintuni, Papua Bar. 98364","Sp V. Manimery/ Argo Sigemeray, Distrik Bintuni, Kabupaten Teluk Bintuni",PAPUA BARAT,98364.0,Indonesia,,-2.1048945,133.6035008,https://maps.google.com/?cid=0x0:0x345134b43ef365f6
supermarket,Minimarket,Mini Market SINGGAH DULU,"VGJP+G3G, Jl. Raya, Bintuni Tim., Distrik Bintuni, Kabupaten Teluk Bintuni, Papua Bar. 98364","Jl. Raya, Bintuni Tim., Distrik Bintuni, Kabupaten Teluk Bintuni",PAPUA BARAT,98364.0,Indonesia,82397259092.0,-2.1186924,133.5351925,https://maps.google.com/?cid=0x0:0x896b2fb589570c5
supermarket,Kios,Kios hisyam,"VGJJ+6V4, Unnamed Road, Bintuni Tim., Distrik Bintuni, Kabupaten Teluk Bintuni, Papua Bar. 98364","Unnamed Road, Bintuni Tim., Distrik Bintuni, Kabupaten Teluk Bintuni",PAPUA BARAT,98364.0,Indonesia,,-2.1194939,133.532206,https://maps.google.com/?cid=0x0:0xc07bbd41f4380dca
supermarket,Toko,Berkah dua putri,"WM44+GJH, RW.Sp IV, Tuasai, Distrik Bintuni, Kabupaten Teluk Bintuni, Papua Bar. 98364","RW.Sp IV, Tuasai, Distrik Bintuni, Kabupaten Teluk Bintuni",PAPUA BARAT,98364.0,Indonesia,,-2.0935428,133.6565704,https://maps.google.com/?cid=0x0:0x27ef45421ad74b1a
supermarket,Toko Elektronik,TOKO PANJI BARU,"VGQG+8QM Depan Pelabuhan, Jln. Raya, West Bintuni, Bintuni, Teluk Bintuni Regency, West Papua 98364","Jln. Raya, West Bintuni, Bintuni, Teluk Bintuni Regency",PAPUA BARAT,98364.0,Indonesia,8124000712.0,-2.1116665,133.5269231,https://maps.google.com/?cid=0x0:0x5a092b9751d6bc37
supermarket,supermarket,Wamesa,"Kabupaten Teluk Wondama, Papua Bar.","Kabupaten Teluk Wondama, Papua Bar.",PAPUA BARAT,,Indonesia,,-2.1544139,134.0770134,https://maps.google.com/?cid=0x0:0x66173cbf11eb7129
supermarket,supermarket,Papua Bar. 98361,"Kabupaten Teluk Wondama, Papua Bar.","Kabupaten Teluk Wondama, Papua Bar.",PAPUA BARAT,,Indonesia,,-2.4815085,134.2099791,https://maps.google.com/?cid=0x0:0xe298b41c3e32d0eb
supermarket,supermarket,Wamesa,"Kabupaten Teluk Bintuni, Papua Bar.","Kabupaten Teluk Bintuni, Papua Bar.",PAPUA BARAT,,Indonesia,,-2.1434612,133.981812,https://maps.google.com/?cid=0x0:0x255b33cb1fd7a021
supermarket,Minimarket,Toko zahra,"Bumi Saniari, Distrik Manimeri, Kabupaten Teluk Bintuni, Papua Bar. 98364","Distrik Manimeri, Kabupaten Teluk Bintuni",PAPUA BARAT,98364.0,Indonesia,82143334443.0,-2.0339882,133.7198351,https://maps.google.com/?cid=0x0:0xcb5fbb6bbe05c129
supermarket,Toko,Berkah dua putri,"WM44+GJH, RW.Sp IV, Tuasai, Distrik Bintuni, Kabupaten Teluk Bintuni, Papua Bar. 98364","RW.Sp IV, Tuasai, Distrik Bintuni, Kabupaten Teluk Bintuni",PAPUA BARAT,98364.0,Indonesia,,-2.0935428,133.6565704,https://maps.google.com/?cid=0x0:0x27ef45421ad74b1a
supermarket,Kios,KIOS YOGA,"Jln. Poros, Tuasai, Distrik Manimeri, Kabupaten Teluk Bintuni, Papua Bar. 98364","Tuasai, Distrik Manimeri, Kabupaten Teluk Bintuni",PAPUA BARAT,98364.0,Indonesia,,-2.0912633,133.6596332,https://maps.google.com/?cid=0x0:0x12e77daf3f2b7b0
supermarket,supermarket,Papua Bar. 98364,"Kabupaten Teluk Bintuni, Papua Bar.","Kabupaten Teluk Bintuni, Papua Bar.",PAPUA BARAT,,Indonesia,,-1.8959987,133.6375314,https://maps.google.com/?cid=0x0:0x5d92307b98683ecf
supermarket,Pusat Perbelanjaan,Toko Sinar Azarah,"Kompleks Pasar Sentral Blok A-08, Kel Distrik, East Bintuni, Bintuni, Teluk Bintuni Regency, West Papua 98364","Kel Distrik, East Bintuni, Bintuni, Teluk Bintuni Regency",PAPUA BARAT,98364.0,Indonesia,81240358847.0,-2.1202703,133.5356659,https://maps.google.com/?cid=0x0:0x53b541808966fad9
supermarket,supermarket,Distrik Weriagar,"Kabupaten Teluk Bintuni, Papua Bar.","Kabupaten Teluk Bintuni, Papua Bar.",PAPUA BARAT,,Indonesia,,-2.2729914,132.892696,https://maps.google.com/?cid=0x0:0xa59e3da385ccd401
supermarket,Toko bahan makanan,Asyifa Mart,"Wesiri, Distrik Bintuni, Kabupaten Teluk Bintuni, Papua Bar. 98364","Distrik Bintuni, Kabupaten Teluk Bintuni",PAPUA BARAT,98364.0,Indonesia,,-2.0893793,133.5012681,https://maps.google.com/?cid=0x0:0x4be440f02f3456a6
supermarket,Kios,Kios Sella (Pak haji Stengkol),"Unnamed Road, Stenkool 3, Ekam, Tomu, Kabupaten Teluk Bintuni, Papua Bar. 98364","Stenkool 3, Ekam, Tomu, Kabupaten Teluk Bintuni",PAPUA BARAT,98364.0,Indonesia,81240661009.0,-1.9113064,133.1228024,https://maps.google.com/?cid=0x0:0x6a53895b06903760
