Category,Real Category,Business Name,Address,City,State,Postal Code,Country,Phone,Latitude,Longitude,Map Link
perumahan,perumahan,Distrik Aranday,"Kabupaten Teluk Bintuni, Papua Bar.","Kabupaten Teluk Bintuni, Papua Bar.",PAPUA BARAT,,Indonesia,,-1.925379,133.229204,https://maps.google.com/?cid=0x0:0xab05e8c7d8e39b11
perumahan,Komplek perumahan,Kampung Aranday,"36FH+RMW, Kp. Baru, Distrik Aranday, Kabupaten Teluk Bintuni, Papua Bar.","Kabupaten Teluk Bintuni, Papua Bar.",PAPUA BARAT,,Indonesia,,-1.925379,133.229204,https://maps.google.com/?cid=0x0:0x3e4d6ff99b52def8
perumahan,Pembangunan Perumahan,Kab. Teluk Bintuni,"38VH+PQG, Kp. Baru, Distrik Aranday, Kabupaten Teluk Bintuni, Papua Bar.","Kabupaten Teluk Bintuni, Papua Bar.",PAPUA BARAT,,Indonesia,,-1.9056848,133.329466,https://maps.google.com/?cid=0x0:0xc07068110b86e95f
perumahan,Pembangunan Perumahan,Kampung Taroi,"R559+FJJ, Taroi, Manunggal Karya, Distrik Aranday, Kabupaten Teluk Bintuni, Papua Bar. 98365","Taroi, Manunggal Karya, Distrik Aranday, Kabupaten Teluk Bintuni",PAPUA BARAT,98365.0,Indonesia,,-2.1918873,133.1689644,https://maps.google.com/?cid=0x0:0xd6c843061f5f2f98
perumahan,Komplek perumahan,Kampung Mabryema,"38VH+PQG, Jl. Trans Papua, Kp. Baru, Distrik Aranday, Kabupaten Teluk Bintuni, Papua Bar.","Kabupaten Teluk Bintuni, Papua Bar.",PAPUA BARAT,,Indonesia,,-1.9056848,133.329466,https://maps.google.com/?cid=0x0:0xb935f673503370b8
perumahan,Kompleks Apartemen,Kos-kos om lois,"38VH+PQG Kilometer 4, Kp. Baru, Distrik Aranday, Kabupaten Teluk Bintuni, Papua Bar.","Kabupaten Teluk Bintuni, Papua Bar.",PAPUA BARAT,,Indonesia,,-1.9056848,133.329466,https://maps.google.com/?cid=0x0:0xec8acaf6605cc747
perumahan,Komplek perumahan,KPPD SQUAD,"38VH+PQG, Kp. Baru, Distrik Aranday, Kabupaten Teluk Bintuni, Papua Bar.","Kabupaten Teluk Bintuni, Papua Bar.",PAPUA BARAT,,Indonesia,,-1.9056848,133.329466,https://maps.google.com/?cid=0x0:0x68c589ce68f122db
perumahan,Komplek perumahan,Kampung Membera,"46JP+9H5, Membera, Kp. Baru, Distrik Aranday, Kabupaten Teluk Bintuni, Papua Bar. 98364","Membera, Kp. Baru, Distrik Aranday, Kabupaten Teluk Bintuni",PAPUA BARAT,98364.0,Indonesia,,-1.869113,133.236496,https://maps.google.com/?cid=0x0:0xcc065b7cf8a7cde5
perumahan,perumahan,Lokasi Persiapan Kampung Atmerij,"WCQ9+C9G, Wesiri, Distrik Bintuni, Kabupaten Teluk Bintuni, Papua Bar. 98364","Wesiri, Distrik Bintuni, Kabupaten Teluk Bintuni",PAPUA BARAT,98364.0,Indonesia,,-2.0614349,133.4184401,https://maps.google.com/?cid=0x0:0x4a8e0d571cc1fe03
perumahan,Komplek perumahan,Jemibaimo,"Kilo meter 4, Kp. Baru, Distrik Aranday, Kabupaten Teluk Bintuni, Papua Bar.","Kabupaten Teluk Bintuni, Papua Bar.",PAPUA BARAT,,Indonesia,82196578192.0,-1.9056848,133.329466,https://maps.google.com/?cid=0x0:0x7afbf7b12655dde4
perumahan,Komplek perumahan,NICK RUMAYOMI,"38VH+PQG BINA DESA SMA YPK, Jalan Raya, Kp. Baru, Distrik Aranday, Kabupaten Teluk Bintuni, Papua Bar.","Kabupaten Teluk Bintuni, Papua Bar.",PAPUA BARAT,,Indonesia,,-1.9056848,133.329466,https://maps.google.com/?cid=0x0:0xf1ba384c9822e100
perumahan,Komplek perumahan,DISTRIK MOSKONA TIUR,"38VH+PQG, Kp. Baru, Distrik Aranday, Kabupaten Teluk Bintuni, Papua Bar.","Kabupaten Teluk Bintuni, Papua Bar.",PAPUA BARAT,,Indonesia,,-1.9056848,133.329466,https://maps.google.com/?cid=0x0:0x36dfc0ebf9dc87
perumahan,Komplek perumahan,Kampung kecap,"V8G6+F32, Kecap, pusponjolo timur, Kabupaten Teluk Bintuni, Papua Bar.","Kabupaten Teluk Bintuni, Papua Bar.",PAPUA BARAT,,Indonesia,,-2.1238556,133.3101484,https://maps.google.com/?cid=0x0:0xc34a1ebfaa2f6fdc
perumahan,Komplek perumahan,Kampung Kali Hitam,"34C9+8H, Ekam, Tomu, Kabupaten Teluk Bintuni, Papua Bar.","Kabupaten Teluk Bintuni, Papua Bar.",PAPUA BARAT,,Indonesia,,-1.9292383,133.1188796,https://maps.google.com/?cid=0x0:0xfbbd2d4bc417bcdc
perumahan,perumahan,Aroba,"Distrik Aroba, Kabupaten Teluk Bintuni, Papua Bar.","Kabupaten Teluk Bintuni, Papua Bar.",PAPUA BARAT,,Indonesia,,-2.7579448,133.5799151,https://maps.google.com/?cid=0x0:0xde88d08daed2fbc6
perumahan,perumahan,SMK 2 jayapura,"6JMQ+VQ, Aroba, Distrik Aroba, Kabupaten Teluk Bintuni, Papua Bar.","Kabupaten Teluk Bintuni, Papua Bar.",PAPUA BARAT,,Indonesia,,-2.7646809,133.6389113,https://maps.google.com/?cid=0x0:0xce67829c689bff25
perumahan,Perhimpunan Pengembang Perumahan,Kampung Tugarama,"7P4X+PV3, Warganusa, Distrik Kaitaro, Kabupaten Teluk Bintuni, Papua Bar. 98363","Warganusa, Distrik Kaitaro, Kabupaten Teluk Bintuni",PAPUA BARAT,98363.0,Indonesia,,-2.7432339,133.7496581,https://maps.google.com/?cid=0x0:0x1a651d130f8c40e8
perumahan,Komplek perumahan,Perumahan Dokter,"WFFH+CPJ, Wesiri, Distrik Bintuni, Kabupaten Teluk Bintuni, Papua Bar. 98364","Wesiri, Distrik Bintuni, Kabupaten Teluk Bintuni",PAPUA BARAT,98364.0,Indonesia,,-2.0762548,133.4806101,https://maps.google.com/?cid=0x0:0x6a316bf150c3762b
perumahan,Pembangunan Perumahan,Kampung kaitaro,"7P4X+PV3, Warganusa, Distrik Kaitaro, Kabupaten Teluk Bintuni, Papua Bar.","Kabupaten Teluk Bintuni, Papua Bar.",PAPUA BARAT,,Indonesia,,-2.7432339,133.7496581,https://maps.google.com/?cid=0x0:0x9dc29092424b9ab0
perumahan,Komplek perumahan,Jalan Raya,"Jalan SMARSEN, Bintuni Tim., Distrik Bintuni, Kabupaten Teluk Bintuni, Papua Bar. 98364","Bintuni Tim., Distrik Bintuni, Kabupaten Teluk Bintuni",PAPUA BARAT,98364.0,Indonesia,,-2.116667,133.533333,https://maps.google.com/?cid=0x0:0x67748fad6034beaa
perumahan,Perhimpunan Pengembang Perumahan,Kampung Kawaf/ Suga Baru,"7Q5F+F54, Warganusa, Distrik Kaitaro, Kabupaten Teluk Bintuni, Papua Bar.","Kabupaten Teluk Bintuni, Papua Bar.",PAPUA BARAT,,Indonesia,,-2.741364,133.7729628,https://maps.google.com/?cid=0x0:0x707c0aff29b23002
perumahan,perumahan,Distrik Aroba,"Kabupaten Teluk Bintuni, Papua Bar.","Kabupaten Teluk Bintuni, Papua Bar.",PAPUA BARAT,,Indonesia,,-2.6623708,133.4066618,https://maps.google.com/?cid=0x0:0x34e1822373826341
perumahan,Komplek perumahan,Kompleks mekap,"FC3X+R82, Nusei, Distrik Aroba, Kabupaten Teluk Bintuni, Papua Bar.","Kabupaten Teluk Bintuni, Papua Bar.",PAPUA BARAT,,Indonesia,,-2.5454857,133.4483061,https://maps.google.com/?cid=0x0:0x3bf7a8e0433d9e04
perumahan,Komplek perumahan,RMH INO,"F9V7+3R, Kasira, Babo, Kabupaten Teluk Bintuni, Papua Bar.","Kabupaten Teluk Bintuni, Papua Bar.",PAPUA BARAT,,Indonesia,,-2.5072968,133.3645345,https://maps.google.com/?cid=0x0:0x9c304baff81f82ac
perumahan,Komplek perumahan,Rumah bosman ateta,"F768+PQ3, Tofoi, Kec. Sumuri, Kabupaten Teluk Bintuni, Papua Bar. 98363","Tofoi, Kec. Sumuri, Kabupaten Teluk Bintuni",PAPUA BARAT,98363.0,Indonesia,,-2.5375218,133.266262,https://maps.google.com/?cid=0x0:0x3fa94f70d28ffb89
perumahan,Masjid,Abdul sumanina,"FC3X+R82, Nusei, Distrik Aroba, Kabupaten Teluk Bintuni, Papua Bar.","Kabupaten Teluk Bintuni, Papua Bar.",PAPUA BARAT,,Indonesia,,-2.5454878,133.4482811,https://maps.google.com/?cid=0x0:0xbace7bc82c6710e
perumahan,Komplek perumahan,Rhi Home,"F763+V8H, Tofoi, Kec. Sumuri, Kabupaten Teluk Bintuni, Papua Bar. 98363","Tofoi, Kec. Sumuri, Kabupaten Teluk Bintuni",PAPUA BARAT,98363.0,Indonesia,,-2.5393925,133.2517841,https://maps.google.com/?cid=0x0:0x9f83a7dd1125048d
perumahan,Perhimpunan Pengembang Perumahan,Perumahan jalur 5,"C685+H2F, Materabu Jaya, Kec. Sumuri, Kabupaten Teluk Bintuni, Papua Bar. 98363","Materabu Jaya, Kec. Sumuri, Kabupaten Teluk Bintuni",PAPUA BARAT,98363.0,Indonesia,,-2.5835997,133.2078381,https://maps.google.com/?cid=0x0:0x272180b48b0c067
perumahan,perumahan,Babo,"Kabupaten Teluk Bintuni, Papua Bar.","Kabupaten Teluk Bintuni, Papua Bar.",PAPUA BARAT,,Indonesia,,-2.5410944,133.4455624,https://maps.google.com/?cid=0x0:0x4d33f662184232b6
perumahan,Sekolah menengah,Pojok SMP Babo,"FC5R+RXV, Unnamed Road, Nusei, Babo, Kabupaten Teluk Bintuni, Papua Bar. 98363","Unnamed Road, Nusei, Babo, Kabupaten Teluk Bintuni",PAPUA BARAT,98363.0,Indonesia,,-2.5403819,133.4424231,https://maps.google.com/?cid=0x0:0xa83d6dea2e6eb1d8
perumahan,Komplek perumahan,Kasira Gunung,"FC4W+6Q5 Kasira, Gunung, Babo, Teluk Bintuni Regency, West Papua 98363","Gunung, Babo, Teluk Bintuni Regency",PAPUA BARAT,98363.0,Indonesia,,-2.5437117,133.4472279,https://maps.google.com/?cid=0x0:0x5640bd46c2a2ac97
perumahan,perumahan,Rumah Desty,"FC5W+H67, Nusei, Babo, Kabupaten Teluk Bintuni, Papua Bar.","Kabupaten Teluk Bintuni, Papua Bar.",PAPUA BARAT,,Indonesia,,-2.5410944,133.4455624,https://maps.google.com/?cid=0x0:0x5252204ce05fa3f9
perumahan,Komplek perumahan,KANADA (KANAISIâ¢DALAM),"FC8R+GRH, Nusei, Babo, Kabupaten Teluk Bintuni, Papua Bar.","Kabupaten Teluk Bintuni, Papua Bar.",PAPUA BARAT,,Indonesia,,-2.5337557,133.4431279,https://maps.google.com/?cid=0x0:0x2bcd63ad8817f70e
perumahan,perumahan,M Wamburye,"FC4R+M7, Nusei, Babo, Kabupaten Teluk Bintuni, Papua Bar. 98363","Nusei, Babo, Kabupaten Teluk Bintuni",PAPUA BARAT,98363.0,Indonesia,,-2.5441216,133.4395863,https://maps.google.com/?cid=0x0:0xba7ddb3a9a8f7e43
perumahan,Komplek perumahan,Kompleks mekap,"FC3X+R82, Nusei, Distrik Aroba, Kabupaten Teluk Bintuni, Papua Bar.","Kabupaten Teluk Bintuni, Papua Bar.",PAPUA BARAT,,Indonesia,,-2.5454857,133.4483061,https://maps.google.com/?cid=0x0:0x3bf7a8e0433d9e04
perumahan,Komplek perumahan,Fiskara fiawe,"FC4W+6Q5, kasira, Babo, Kabupaten Teluk Bintuni, Papua Bar. 98363","kasira, Babo, Kabupaten Teluk Bintuni",PAPUA BARAT,98363.0,Indonesia,,-2.5430943,133.4477436,https://maps.google.com/?cid=0x0:0x7e525eb4b06e83dd
perumahan,Komplek perumahan,Sewah motor,"FC6V+GJ4, Jl.Semen putih, Modan, Babo, Kabupaten Teluk Bintuni, Papua Bar. 98363","Jl.Semen putih, Modan, Babo, Kabupaten Teluk Bintuni",PAPUA BARAT,98363.0,Indonesia,81240522079.0,-2.5387313,133.4440825,https://maps.google.com/?cid=0x0:0x11802d2c43e792f4
perumahan,Komplek perumahan,RMH INO,"F9V7+3R, Kasira, Babo, Kabupaten Teluk Bintuni, Papua Bar.","Kabupaten Teluk Bintuni, Papua Bar.",PAPUA BARAT,,Indonesia,,-2.5072968,133.3645345,https://maps.google.com/?cid=0x0:0x9c304baff81f82ac
perumahan,Komplek perumahan,kasira bawah,"FC4W+6Q5, Nusei, Babo, Kabupaten Teluk Bintuni, Papua Bar. 98363","Nusei, Babo, Kabupaten Teluk Bintuni",PAPUA BARAT,98363.0,Indonesia,,-2.5431168,133.4478261,https://maps.google.com/?cid=0x0:0x3782937e7f83deb
perumahan,Bandara Regional,Rumdis Babo Airport,"FC6P+FWJ, Nusei, Babo, Kabupaten Teluk Bintuni, Papua Bar.","Kabupaten Teluk Bintuni, Papua Bar.",PAPUA BARAT,,Indonesia,,-2.5387982,133.4372562,https://maps.google.com/?cid=0x0:0x6448869807776872
perumahan,Komplek perumahan,TAUFIK MANUAMA,"FC8R+9W6, Kampung kanaisi, Babo, Kabupaten Teluk Bintuni, Papua Bar.","Kabupaten Teluk Bintuni, Papua Bar.",PAPUA BARAT,,Indonesia,,-2.534093,133.4422635,https://maps.google.com/?cid=0x0:0x3bfe217fcaa53a7f
perumahan,Komplek perumahan,Kali kasira,"FC4X+GVW, Nusei, Babo, Kabupaten Teluk Bintuni, Papua Bar. 98363","Nusei, Babo, Kabupaten Teluk Bintuni",PAPUA BARAT,98363.0,Indonesia,,-2.5436366,133.4496899,https://maps.google.com/?cid=0x0:0x5dea20091a5326e1
perumahan,perumahan,Bintuni,"Bintuni Tim., Distrik Bintuni, Kabupaten Teluk Bintuni, Papua Bar.","Kabupaten Teluk Bintuni, Papua Bar.",PAPUA BARAT,,Indonesia,,-2.116667,133.533333,https://maps.google.com/?cid=0x0:0xb2abe6f637dc67dd
perumahan,Komplek perumahan,KOMPLEKS KPPD SQUAD BINTUNI,"VGJM+X4P KPPD SQUAD, Bintuni Tim., Distrik Bintuni, Kabupaten Teluk Bintuni, Papua Bar. 98364","Bintuni Tim., Distrik Bintuni, Kabupaten Teluk Bintuni",PAPUA BARAT,98364.0,Indonesia,81391394212.0,-2.1175457,133.5328249,https://maps.google.com/?cid=0x0:0xcbd288265b9cfbf9
perumahan,Organisasi Nonprofit,Bintuni Papua barat,"VGMM+88P, Bintuni Tim., Distrik Bintuni, Kabupaten Teluk Bintuni, Papua Bar. 98364","Bintuni Tim., Distrik Bintuni, Kabupaten Teluk Bintuni",PAPUA BARAT,98364.0,Indonesia,,-2.116667,133.533333,https://maps.google.com/?cid=0x0:0x4c907a361894c0eb
perumahan,Komplek perumahan,Masui.bintuni barat,"VGMM+88P, Bintuni Tim., Distrik Bintuni, Kabupaten Teluk Bintuni, Papua Bar.","Kabupaten Teluk Bintuni, Papua Bar.",PAPUA BARAT,,Indonesia,,-2.116667,133.533333,https://maps.google.com/?cid=0x0:0x58c24f84b7ab97eb
perumahan,Komplek perumahan,Perumahan Dokter,"WFFH+CPJ, Wesiri, Distrik Bintuni, Kabupaten Teluk Bintuni, Papua Bar. 98364","Wesiri, Distrik Bintuni, Kabupaten Teluk Bintuni",PAPUA BARAT,98364.0,Indonesia,,-2.0762548,133.4806101,https://maps.google.com/?cid=0x0:0x6a316bf150c3762b
perumahan,Komplek perumahan,Jalan Raya,"Jalan SMARSEN, Bintuni Tim., Distrik Bintuni, Kabupaten Teluk Bintuni, Papua Bar. 98364","Bintuni Tim., Distrik Bintuni, Kabupaten Teluk Bintuni",PAPUA BARAT,98364.0,Indonesia,,-2.116667,133.533333,https://maps.google.com/?cid=0x0:0x67748fad6034beaa
perumahan,perumahan,Rumah Kel.M Tanggarofa,"VGMM+88P, Bintuni Tim., Distrik Bintuni, Kabupaten Teluk Bintuni, Papua Bar.","Kabupaten Teluk Bintuni, Papua Bar.",PAPUA BARAT,,Indonesia,,-2.116667,133.533333,https://maps.google.com/?cid=0x0:0x34ee1792b5deb704
perumahan,perumahan,Bintuni kampung Agas,"VGMM+88P, Bintuni Tim., Distrik Bintuni, Kabupaten Teluk Bintuni, Papua Bar.","Kabupaten Teluk Bintuni, Papua Bar.",PAPUA BARAT,,Indonesia,,-2.116667,133.533333,https://maps.google.com/?cid=0x0:0xca4e6c52a9909c7f
perumahan,Komplek perumahan,RUMAH KELUARGA TADU BINTUNI,"Jalan Raya Bintuni No.RT.001, RW002, Distrik Bintuni, Kabupaten Teluk Bintuni, Papua Bar.","Kabupaten Teluk Bintuni, Papua Bar.",PAPUA BARAT,,Indonesia,,-2.116667,133.533333,https://maps.google.com/?cid=0x0:0x3778241f270d6830
perumahan,Komplek perumahan,Kos kosan PODO MORO Bintuni Timur,"VGMJ+5XJ, Unnamed Road, Bintuni Tim., Distrik Bintuni, Kabupaten Teluk Bintuni, Papua Bar. 98364","Unnamed Road, Bintuni Tim., Distrik Bintuni, Kabupaten Teluk Bintuni",PAPUA BARAT,98364.0,Indonesia,,-2.1170289,133.5323811,https://maps.google.com/?cid=0x0:0xdeb98f364a4284f4
perumahan,Komplek perumahan,RAHARUSUN FAMILY,"VGJJ+XQX, Bintuni Tim., Distrik Bintuni, Kabupaten Teluk Bintuni, Papua Bar. 98364","Bintuni Tim., Distrik Bintuni, Kabupaten Teluk Bintuni",PAPUA BARAT,98364.0,Indonesia,,-2.1175184,133.5319998,https://maps.google.com/?cid=0x0:0xa1fbbd4706928db0
perumahan,Komplek perumahan,Km 5 sibena,"VGMM+88P, Bintuni Tim., Distrik Bintuni, Kabupaten Teluk Bintuni, Papua Bar.","Kabupaten Teluk Bintuni, Papua Bar.",PAPUA BARAT,,Indonesia,,-2.116667,133.533333,https://maps.google.com/?cid=0x0:0xca3ecd9ee89f9398
perumahan,Perumahan rakyat,Rumah tisay,"VGMM+88P, Bintuni Tim., Distrik Bintuni, Kabupaten Teluk Bintuni, Papua Bar.","Kabupaten Teluk Bintuni, Papua Bar.",PAPUA BARAT,,Indonesia,,-2.116667,133.533333,https://maps.google.com/?cid=0x0:0x26dd64f766785874
perumahan,Pembangunan Perumahan,Day cin,"VGMM+88P, Bintuni Tim., Distrik Bintuni, Kabupaten Teluk Bintuni, Papua Bar.","Kabupaten Teluk Bintuni, Papua Bar.",PAPUA BARAT,,Indonesia,,-2.116667,133.533333,https://maps.google.com/?cid=0x0:0x38e1a71a6e07b678
perumahan,perumahan,Papua Bar. 98373,"Kabupaten Teluk Bintuni, Papua Bar.","Kabupaten Teluk Bintuni, Papua Bar.",PAPUA BARAT,,Indonesia,,-1.4464953,133.329466,https://maps.google.com/?cid=0x0:0xa7a537a3a20b81b4
perumahan,Komplek perumahan,Rumah pak berbadus,"2, Meyado, Kec. Meyado, Kabupaten Teluk Bintuni, Papua Bar.","Kabupaten Teluk Bintuni, Papua Bar.",PAPUA BARAT,,Indonesia,,-1.6379564,133.1165621,https://maps.google.com/?cid=0x0:0xd4c02639d43e5363
perumahan,perumahan,Kampung Sumuy,"G4F5+8J, Masyeta, Kabupaten Teluk Bintuni, Papua Bar.","Kabupaten Teluk Bintuni, Papua Bar.",PAPUA BARAT,,Indonesia,,-1.476643,133.1090128,https://maps.google.com/?cid=0x0:0xc66e01b19d3b95c6
perumahan,Komplek perumahan,Perumahan,"M57F+HV4, Morombuy, Merdey, Kabupaten Teluk Bintuni, Papua Bar.","Kabupaten Teluk Bintuni, Papua Bar.",PAPUA BARAT,,Indonesia,,-1.3361154,133.1747162,https://maps.google.com/?cid=0x0:0xd3c0d8bfb065f1aa
perumahan,perumahan,Kampung Injisini,"J59F+24, Meryeb, Merdey, Kabupaten Teluk Bintuni, Papua Bar.","Kabupaten Teluk Bintuni, Papua Bar.",PAPUA BARAT,,Indonesia,,-1.3823937,133.1728306,https://maps.google.com/?cid=0x0:0x14d9b35f9586decc
perumahan,perumahan,Meyej,"J6PJ+PW, Mekiesefep, Merdey, Kabupaten Teluk Bintuni, Papua Bar.","Kabupaten Teluk Bintuni, Papua Bar.",PAPUA BARAT,,Indonesia,,-1.3632409,133.2322546,https://maps.google.com/?cid=0x0:0xaab5d4b7ed8a8840
perumahan,perumahan,Injeif,"M538+7R, Morombuy, Merdey, Kabupaten Teluk Bintuni, Papua Bar.","Kabupaten Teluk Bintuni, Papua Bar.",PAPUA BARAT,,Indonesia,,-1.3468652,133.1670706,https://maps.google.com/?cid=0x0:0x89506f5f31da0c9
perumahan,perumahan,Kampung Isurkahmey,"J59C+MC, Meryeb, Merdey, Kabupaten Teluk Bintuni, Papua Bar.","Kabupaten Teluk Bintuni, Papua Bar.",PAPUA BARAT,,Indonesia,,-1.3808288,133.171051,https://maps.google.com/?cid=0x0:0x5026d8699b7705ef
perumahan,Komplek perumahan,Kampung mosum,"MPWG+RVV, Moyeba, Moskona Utara, Kabupaten Teluk Bintuni, Papua Bar.","Kabupaten Teluk Bintuni, Papua Bar.",PAPUA BARAT,,Indonesia,,-1.302887,132.7271587,https://maps.google.com/?cid=0x0:0xc146804a9b0bb626
perumahan,perumahan,Kampung Mesna,"J5GF+CC, Meryeb, Merdey, Kabupaten Teluk Bintuni, Papua Bar.","Kabupaten Teluk Bintuni, Papua Bar.",PAPUA BARAT,,Indonesia,,-1.3739918,133.1735665,https://maps.google.com/?cid=0x0:0xe407751feeca75f4
perumahan,Komplek perumahan,Alif home,"M57F+HV4, Morombuy, Merdey, Kabupaten Teluk Bintuni, Papua Bar. 98373","Morombuy, Merdey, Kabupaten Teluk Bintuni",PAPUA BARAT,98373.0,Indonesia,,-1.3361154,133.1747162,https://maps.google.com/?cid=0x0:0x21b7a9e8aadd8d8a
perumahan,Komplek perumahan,Rumah Rizki Aulia,"MX6M+7G4, Mesna, Distrik Moskona Timur, Kabupaten Teluk Bintuni, Papua Bar. 98373","Mesna, Distrik Moskona Timur, Kabupaten Teluk Bintuni",PAPUA BARAT,98373.0,Indonesia,,-1.3393621,132.9838143,https://maps.google.com/?cid=0x0:0xf6c360ab043784eb
perumahan,Perhimpunan Pengembang Perumahan,KAMPUNG MOSUM,"JX6V+G5M, Mestofu, Masyeta, Kabupaten Teluk Bintuni, Papua Bar.","Kabupaten Teluk Bintuni, Papua Bar.",PAPUA BARAT,,Indonesia,,-1.3886605,132.9929345,https://maps.google.com/?cid=0x0:0x603625c4c6ad80cd
perumahan,perumahan,Biscoop,"Kabupaten Teluk Bintuni, Papua Bar.","Kabupaten Teluk Bintuni, Papua Bar.",PAPUA BARAT,,Indonesia,,-1.4978011,133.5606946,https://maps.google.com/?cid=0x0:0x8de700464050f6ca
perumahan,perumahan,Distrik Dataran Beimes,"Kabupaten Teluk Bintuni, Papua Bar.","Kabupaten Teluk Bintuni, Papua Bar.",PAPUA BARAT,,Indonesia,,-1.6164845,133.6599628,https://maps.google.com/?cid=0x0:0x8fa53e8e503789bf
perumahan,Kantor Pemerintah,Dataran Isim,"9V88+36, Menci, Distrik Dataran Beimes, Kabupaten Teluk Bintuni, Papua Bar.","Kabupaten Teluk Bintuni, Papua Bar.",PAPUA BARAT,,Indonesia,,-1.634777,133.865501,https://maps.google.com/?cid=0x0:0x92d045cbf9cbba8b
perumahan,Balai masyarakat,Desa Horna,"9MM6+W68, Horna, Distrik Dataran Beimes, Kabupaten Teluk Bintuni, Papua Bar.","Kabupaten Teluk Bintuni, Papua Bar.",PAPUA BARAT,,Indonesia,,-1.6152004,133.6605719,https://maps.google.com/?cid=0x0:0x64b42d55af592552
perumahan,perumahan,Distrik Fafurwar,"Kabupaten Teluk Bintuni, Papua Bar.","Kabupaten Teluk Bintuni, Papua Bar.",PAPUA BARAT,,Indonesia,,-2.9160631,133.6759049,https://maps.google.com/?cid=0x0:0x78e970d7052f06c0
perumahan,perumahan,Distrik Kaitaro,"Kabupaten Teluk Bintuni, Papua Bar.","Kabupaten Teluk Bintuni, Papua Bar.",PAPUA BARAT,,Indonesia,,-2.7432339,133.7496581,https://maps.google.com/?cid=0x0:0x18a3c86c44b96f44
perumahan,Pembangunan Perumahan,Kampung kaitaro,"7P4X+PV3, Warganusa, Distrik Kaitaro, Kabupaten Teluk Bintuni, Papua Bar.","Kabupaten Teluk Bintuni, Papua Bar.",PAPUA BARAT,,Indonesia,,-2.7432339,133.7496581,https://maps.google.com/?cid=0x0:0x9dc29092424b9ab0
perumahan,Perhimpunan Pengembang Perumahan,Kampung Tugarama,"7P4X+PV3, Warganusa, Distrik Kaitaro, Kabupaten Teluk Bintuni, Papua Bar. 98363","Warganusa, Distrik Kaitaro, Kabupaten Teluk Bintuni",PAPUA BARAT,98363.0,Indonesia,,-2.7432339,133.7496581,https://maps.google.com/?cid=0x0:0x1a651d130f8c40e8
perumahan,Perhimpunan Pengembang Perumahan,Kampung Amutu,"9J5G+QR, Tugerama, Distrik Kaitaro, Kabupaten Teluk Bintuni, Papua Bar.","Kabupaten Teluk Bintuni, Papua Bar.",PAPUA BARAT,,Indonesia,,-2.6405887,133.6270161,https://maps.google.com/?cid=0x0:0x5f2ab5cd467969ab
perumahan,Perhimpunan Pengembang Perumahan,Kampung Kawaf/ Suga Baru,"7Q5F+F54, Warganusa, Distrik Kaitaro, Kabupaten Teluk Bintuni, Papua Bar.","Kabupaten Teluk Bintuni, Papua Bar.",PAPUA BARAT,,Indonesia,,-2.741364,133.7729628,https://maps.google.com/?cid=0x0:0x707c0aff29b23002
perumahan,perumahan,SMK 2 jayapura,"6JMQ+VQ, Aroba, Distrik Aroba, Kabupaten Teluk Bintuni, Papua Bar.","Kabupaten Teluk Bintuni, Papua Bar.",PAPUA BARAT,,Indonesia,,-2.7646809,133.6389113,https://maps.google.com/?cid=0x0:0xce67829c689bff25
perumahan,Komplek perumahan,Kampung Wagura,"9V69+W2, Wagura, Kuri, Kabupaten Teluk Bintuni, Papua Bar.","Kabupaten Teluk Bintuni, Papua Bar.",PAPUA BARAT,,Indonesia,,-2.6376875,133.8675625,https://maps.google.com/?cid=0x0:0x96181a9d337d3778
perumahan,Komplek perumahan,Wetuf,"4QHM+XG, Riendo, Teluk Arguni Atas, Kabupaten Kaimana, Papua Bar.","Kabupaten Kaimana, Papua Bar.",PAPUA BARAT,,Indonesia,,-2.8700625,133.7838125,https://maps.google.com/?cid=0x0:0x7df6f5910961ba2c
perumahan,Kantor Perusahaan,Perumahan Fulica Land,"427H+G4R, Sowi, Distrik Manokwari, Kabupaten Manokwari, Papua Bar. 98315","Sowi, Distrik Manokwari, Kabupaten Manokwari",PAPUA BARAT,98315.0,Indonesia,,-0.8861329,134.0277521,https://maps.google.com/?cid=0x0:0x9ebf7ba976ef15eb
perumahan,Kantor Perusahaan,Rumah Subsidi Manokwari Fulicaland,"Jl. Yos Sudarso, Sanggeng, Kec. Manokwari Bar., Kabupaten Manokwari, Papua Bar. 98312","Sanggeng, Kec. Manokwari Bar., Kabupaten Manokwari",PAPUA BARAT,98312.0,Indonesia,811489633.0,-0.867271,134.0650096,https://maps.google.com/?cid=0x0:0x9359f2b18f2eab80
perumahan,Kantor Pemerintah,Kampung kamundan dua,"3CXH+P79, Kamundan, Kec. Kokoda Utara, Kabupaten Sorong Selatan, Papua Bar. 98455","Kamundan, Kec. Kokoda Utara, Kabupaten Sorong Selatan",PAPUA BARAT,98455.0,Indonesia,,-1.9007247,132.4282484,https://maps.google.com/?cid=0x0:0xd2af8eae637702ed
perumahan,perumahan,Papua Bar. 98365,"Kabupaten Teluk Bintuni, Papua Bar.","Kabupaten Teluk Bintuni, Papua Bar.",PAPUA BARAT,,Indonesia,,-1.9250686,132.7076107,https://maps.google.com/?cid=0x0:0xe2813bacbf5a0787
perumahan,Pembangunan Perumahan,Kantor Distrik Kamundan,"QM3F+G59, Kalitami II, Komundan, Kabupaten Teluk Bintuni, Papua Bar. 98365","Kalitami II, Komundan, Kabupaten Teluk Bintuni",PAPUA BARAT,98365.0,Indonesia,,-2.246217,132.672974,https://maps.google.com/?cid=0x0:0xeca178e6d96806f0
perumahan,perumahan,Rumah Hasni,"KPR mahkota 1, jl. S kamundan",,PAPUA BARAT,,Indonesia,,-2.287651,132.6400606,https://maps.google.com/?cid=0x0:0x2404c2f04ca771d0
perumahan,perumahan,Papua Bar. 98363,"Kabupaten Teluk Bintuni, Papua Bar.","Kabupaten Teluk Bintuni, Papua Bar.",PAPUA BARAT,,Indonesia,,-2.6488329,133.7142484,https://maps.google.com/?cid=0x0:0x1d8cc8ce6f581e70
perumahan,Perhimpunan Pengembang Perumahan,Kampung Naramasa,"Kampung Naramasa, Kuri, Kabupaten Teluk Bintuni, Papua Bar. 98363","Kuri, Kabupaten Teluk Bintuni",PAPUA BARAT,98363.0,Indonesia,82113752287.0,-2.543435,133.9733486,https://maps.google.com/?cid=0x0:0x8abc09862746402
perumahan,Pembangunan Perumahan,Kampung Awegro,"9VH3+8W, Wagura, Kuri, Kabupaten Teluk Bintuni, Papua Bar.","Kabupaten Teluk Bintuni, Papua Bar.",PAPUA BARAT,,Indonesia,,-2.6216615,133.8547635,https://maps.google.com/?cid=0x0:0x51cd231de27d660d
perumahan,Komplek perumahan,Pigo,"462P+JC, Ambumi, Kuri, Kabupaten Teluk Wondama, Papua Bar.","Kabupaten Teluk Wondama, Papua Bar.",PAPUA BARAT,,Indonesia,,-2.7648807,134.0474656,https://maps.google.com/?cid=0x0:0x20d2362054da660d
perumahan,Pembangunan Perumahan,WAGURA,"8WXC+QR, Wagura, Kuri, Kabupaten Teluk Bintuni, Papua Bar.","Kabupaten Teluk Bintuni, Papua Bar.",PAPUA BARAT,,Indonesia,,-2.650517,133.9220054,https://maps.google.com/?cid=0x0:0x5aa0bd1cd6a22310
perumahan,Komplek perumahan,Nanimori teluk Wondama,"48VF+WFJ, Ambumi, Kuri Wamesa, Kabupaten Teluk Wondama, Papua Bar.","Kabupaten Teluk Wondama, Papua Bar.",PAPUA BARAT,,Indonesia,,-2.8551699,134.3236557,https://maps.google.com/?cid=0x0:0x1d89c481933e7a25
perumahan,Komplek perumahan,Teluk wondama,"48VF+WFJ, Radu, Kuri Wamesa, Kabupaten Teluk Wondama, Papua Bar.","Kabupaten Teluk Wondama, Papua Bar.",PAPUA BARAT,,Indonesia,,-2.8551699,134.3236557,https://maps.google.com/?cid=0x0:0xdaa67b435cbdf199
perumahan,perumahan,Distrik Manimeri,"Kabupaten Teluk Bintuni, Papua Bar.","Kabupaten Teluk Bintuni, Papua Bar.",PAPUA BARAT,,Indonesia,,-2.0348077,133.7298305,https://maps.google.com/?cid=0x0:0xfcc9735ace17ac7
perumahan,Komplek perumahan,RUMAH KOMANDO,"WPXC+5RV, Bumi Saniari, Distrik Manimeri, Kabupaten Teluk Bintuni, Papua Bar. 98364","Bumi Saniari, Distrik Manimeri, Kabupaten Teluk Bintuni",PAPUA BARAT,98364.0,Indonesia,,-2.052015,133.7220494,https://maps.google.com/?cid=0x0:0xa78276d52a364d5c
perumahan,perumahan,Kanisius Ndityomas,"XP3J+X49, Bumi Saniari, Distrik Manimeri, Kabupaten Teluk Bintuni, Papua Bar. 98364","Bumi Saniari, Distrik Manimeri, Kabupaten Teluk Bintuni",PAPUA BARAT,98364.0,Indonesia,,-2.0450916,133.7303549,https://maps.google.com/?cid=0x0:0x3b24e0babe31d24b
perumahan,perumahan,Perumahan Kampung Korano Jaya,"WPGG+W74 Sp 2, jalur 4, Korano Jaya, Distrik Manimeri, Kabupaten Teluk Bintuni, Papua Bar. 98364","jalur 4, Korano Jaya, Distrik Manimeri, Kabupaten Teluk Bintuni",PAPUA BARAT,98364.0,Indonesia,,-2.0727485,133.725713,https://maps.google.com/?cid=0x0:0x62f113a09a1066d
perumahan,Pembangunan Perumahan,Rumah Evan,"WM8J+XG, Waraitama, Distrik Manimeri, Kabupaten Teluk Bintuni, Papua Bar.","Kabupaten Teluk Bintuni, Papua Bar.",PAPUA BARAT,,Indonesia,,-2.08258,133.681327,https://maps.google.com/?cid=0x0:0x8810a7b394006d5b
perumahan,Pembangunan Perumahan,RUM SENEMI II,"XP85+278, Kampung Muturi, Distrik Manimeri, Kabupaten Teluk Bintuni, Papua Bar. 98364","Kampung Muturi, Distrik Manimeri, Kabupaten Teluk Bintuni",PAPUA BARAT,98364.0,Indonesia,,-2.0349516,133.7082019,https://maps.google.com/?cid=0x0:0xe955041a2db228d3
perumahan,Komplek perumahan,Kompleks Manado,"WJ2X+2FV, Tuasai, Distrik Bintuni, Kabupaten Teluk Bintuni, Papua Bar. 98364","Tuasai, Distrik Bintuni, Kabupaten Teluk Bintuni",PAPUA BARAT,98364.0,Indonesia,,-2.0998868,133.6486759,https://maps.google.com/?cid=0x0:0xc250420825d52a06
perumahan,Kompleks Kondominium,Kampung IMRIJ,"VJV6+5HH, Sp V. Manimery/ Argo Sigemeray, Distrik Bintuni, Kabupaten Teluk Bintuni, Papua Bar. 98364","Sp V. Manimery/ Argo Sigemeray, Distrik Bintuni, Kabupaten Teluk Bintuni",PAPUA BARAT,98364.0,Indonesia,,-2.1070589,133.611483,https://maps.google.com/?cid=0x0:0xd81d67ca988feb70
perumahan,Perumahan,Heri,"XP3G+JPG, Bumi Saniari, Distrik Manimeri, Kabupaten Teluk Bintuni, Papua Bar. 98364","Bumi Saniari, Distrik Manimeri, Kabupaten Teluk Bintuni",PAPUA BARAT,98364.0,Indonesia,82398401112.0,-2.046177,133.727114,https://maps.google.com/?cid=0x0:0x26990eca272876eb
perumahan,perumahan,Riris,"WM5R+247, Waraitama, Distrik Manimeri, Kabupaten Teluk Bintuni, Papua Bar. 98364","Waraitama, Distrik Manimeri, Kabupaten Teluk Bintuni",PAPUA BARAT,98364.0,Indonesia,,-2.0924664,133.6902872,https://maps.google.com/?cid=0x0:0xbd13cd161c0650d0
perumahan,Komplek perumahan,Bpk Kenri,"WM8H+3W, Waraitama, Distrik Manimeri, Kabupaten Teluk Bintuni, Papua Bar.","Kabupaten Teluk Bintuni, Papua Bar.",PAPUA BARAT,,Indonesia,,-2.0848396,133.6797611,https://maps.google.com/?cid=0x0:0x360ccc2b854aef30
perumahan,perumahan,Kompleks Akom demes waraitama,"WM9Q+853, Waraitama, Distrik Manimeri, Kabupaten Teluk Bintuni, Papua Bar. 98364","Waraitama, Distrik Manimeri, Kabupaten Teluk Bintuni",PAPUA BARAT,98364.0,Indonesia,,-2.0817259,133.6879307,https://maps.google.com/?cid=0x0:0x7f6ddc9935bf8c91
perumahan,Komplek perumahan,Rumahnya fajri,"XP2H+8G, Bumi Saniari, Distrik Manimeri, Kabupaten Teluk Bintuni, Papua Bar.","Kabupaten Teluk Bintuni, Papua Bar.",PAPUA BARAT,,Indonesia,,-2.0492283,133.7288465,https://maps.google.com/?cid=0x0:0xbbab795f3705f9bb
perumahan,perumahan,Rumah Nober Salissing,"WM34+FW6, Tuasai, Distrik Manimeri, Kabupaten Teluk Bintuni, Papua Bar. 98364","Tuasai, Distrik Manimeri, Kabupaten Teluk Bintuni",PAPUA BARAT,98364.0,Indonesia,,-2.0963447,133.6572711,https://maps.google.com/?cid=0x0:0xa463c5df4efcafc0
perumahan,Komplek perumahan,Perum Mammiri Cikampek Residence,"JF23+97J, Jl. Sentul No.3, Cikampek Bar., Kec. Cikampek, Karawang, Jawa Barat 41373","Jl. Sentul No.3, Cikampek Bar., Kec. Cikampek, Karawang",PAPUA BARAT,41373.0,Indonesia,,-6.3989643,107.4534705,https://maps.google.com/?cid=0x0:0xe9091448e966d6d7
perumahan,Komplek perumahan,Perum Mammiri Cikampek Residence Blok C no 7,"JF23+C99 Perum Mammiri Cikampek Residence, Jl. Abimanyu, Dawuan Barat, Cikampek Bar., Kec. Cikampek, Karawang, Jawa Barat 41373","Jl. Abimanyu, Dawuan Barat, Cikampek Bar., Kec. Cikampek, Karawang",PAPUA BARAT,41373.0,Indonesia,,-6.3989643,107.4534705,https://maps.google.com/?cid=0x0:0x69d0572995c32c6
perumahan,Toko umum,RKK,"Jl. Sentul No.3, Cikampek Bar., Kec. Cikampek, Karawang, Jawa Barat 41373","Cikampek Bar., Kec. Cikampek, Karawang",PAPUA BARAT,41373.0,Indonesia,85771645729.0,-6.3990323,107.4531458,https://maps.google.com/?cid=0x0:0x7a72a40bc0d3e7b2
perumahan,perumahan,Masyeta,"Masyeta, Kabupaten Teluk Bintuni, Papua Bar.","Kabupaten Teluk Bintuni, Papua Bar.",PAPUA BARAT,,Indonesia,,-1.479691,133.1359542,https://maps.google.com/?cid=0x0:0xd119356286bbe217
perumahan,perumahan,Papua Bar. 98373,"Kabupaten Teluk Bintuni, Papua Bar.","Kabupaten Teluk Bintuni, Papua Bar.",PAPUA BARAT,,Indonesia,,-1.4464953,133.329466,https://maps.google.com/?cid=0x0:0xa7a537a3a20b81b4
perumahan,perumahan,Kampung Sumuy,"G4F5+8J, Masyeta, Kabupaten Teluk Bintuni, Papua Bar.","Kabupaten Teluk Bintuni, Papua Bar.",PAPUA BARAT,,Indonesia,,-1.476643,133.1090128,https://maps.google.com/?cid=0x0:0xc66e01b19d3b95c6
perumahan,Komplek perumahan,Mereneva,"H466+CW, Masyeta, Kabupaten Teluk Bintuni, Papua Bar.","Kabupaten Teluk Bintuni, Papua Bar.",PAPUA BARAT,,Indonesia,,-1.438885,133.112375,https://maps.google.com/?cid=0x0:0x86464f4f398cc34b
perumahan,perumahan,Meyej,"J6PJ+PW, Mekiesefep, Merdey, Kabupaten Teluk Bintuni, Papua Bar.","Kabupaten Teluk Bintuni, Papua Bar.",PAPUA BARAT,,Indonesia,,-1.3632409,133.2322546,https://maps.google.com/?cid=0x0:0xaab5d4b7ed8a8840
perumahan,perumahan,Kampung Mesna,"J5GF+CC, Meryeb, Merdey, Kabupaten Teluk Bintuni, Papua Bar.","Kabupaten Teluk Bintuni, Papua Bar.",PAPUA BARAT,,Indonesia,,-1.3739918,133.1735665,https://maps.google.com/?cid=0x0:0xe407751feeca75f4
perumahan,Komplek perumahan,Mesrey Baru8,"H4FW+C5, Masyeta, Kabupaten Teluk Bintuni, Papua Bar.","Kabupaten Teluk Bintuni, Papua Bar.",PAPUA BARAT,,Indonesia,,-1.42648,133.145447,https://maps.google.com/?cid=0x0:0xe98cca08d85d9291
perumahan,Komplek perumahan,Perumahan,"M57F+HV4, Morombuy, Merdey, Kabupaten Teluk Bintuni, Papua Bar.","Kabupaten Teluk Bintuni, Papua Bar.",PAPUA BARAT,,Indonesia,,-1.3361154,133.1747162,https://maps.google.com/?cid=0x0:0xd3c0d8bfb065f1aa
perumahan,Perhimpunan Pengembang Perumahan,KAMPUNG MOSUM,"JX6V+G5M, Mestofu, Masyeta, Kabupaten Teluk Bintuni, Papua Bar.","Kabupaten Teluk Bintuni, Papua Bar.",PAPUA BARAT,,Indonesia,,-1.3886605,132.9929345,https://maps.google.com/?cid=0x0:0x603625c4c6ad80cd
perumahan,Komplek perumahan,Kampung Meyejga,"C98X+FP, Mowtika, Biscoop, Kabupaten Teluk Bintuni, Papua Bar.","Kabupaten Teluk Bintuni, Papua Bar.",PAPUA BARAT,,Indonesia,,-1.5839026,133.3992944,https://maps.google.com/?cid=0x0:0x46c3057d6a33aedb
perumahan,Komplek perumahan,Genemon,"H37X+WW, Masyeta, Kabupaten Teluk Bintuni, Papua Bar.","Kabupaten Teluk Bintuni, Papua Bar.",PAPUA BARAT,,Indonesia,,-1.435233,133.099854,https://maps.google.com/?cid=0x0:0x53d138744ad93702
perumahan,perumahan,Merdey,"Kabupaten Teluk Bintuni, Papua Bar.","Kabupaten Teluk Bintuni, Papua Bar.",PAPUA BARAT,,Indonesia,,-1.4189158,133.2908233,https://maps.google.com/?cid=0x0:0x7183c941829ec812
perumahan,Komplek perumahan,Perumahan,"M57F+HV4, Morombuy, Merdey, Kabupaten Teluk Bintuni, Papua Bar.","Kabupaten Teluk Bintuni, Papua Bar.",PAPUA BARAT,,Indonesia,,-1.3361154,133.1747162,https://maps.google.com/?cid=0x0:0xd3c0d8bfb065f1aa
perumahan,perumahan,Meyej,"J6PJ+PW, Mekiesefep, Merdey, Kabupaten Teluk Bintuni, Papua Bar.","Kabupaten Teluk Bintuni, Papua Bar.",PAPUA BARAT,,Indonesia,,-1.3632409,133.2322546,https://maps.google.com/?cid=0x0:0xaab5d4b7ed8a8840
perumahan,perumahan,Kampung Mesna,"J5GF+CC, Meryeb, Merdey, Kabupaten Teluk Bintuni, Papua Bar.","Kabupaten Teluk Bintuni, Papua Bar.",PAPUA BARAT,,Indonesia,,-1.3739918,133.1735665,https://maps.google.com/?cid=0x0:0xe407751feeca75f4
perumahan,Komplek perumahan,Alif home,"M57F+HV4, Morombuy, Merdey, Kabupaten Teluk Bintuni, Papua Bar. 98373","Morombuy, Merdey, Kabupaten Teluk Bintuni",PAPUA BARAT,98373.0,Indonesia,,-1.3361154,133.1747162,https://maps.google.com/?cid=0x0:0x21b7a9e8aadd8d8a
perumahan,perumahan,Kampung Isurkahmey,"J59C+MC, Meryeb, Merdey, Kabupaten Teluk Bintuni, Papua Bar.","Kabupaten Teluk Bintuni, Papua Bar.",PAPUA BARAT,,Indonesia,,-1.3808288,133.171051,https://maps.google.com/?cid=0x0:0x5026d8699b7705ef
perumahan,Komplek perumahan,Mereneva,"H466+CW, Masyeta, Kabupaten Teluk Bintuni, Papua Bar.","Kabupaten Teluk Bintuni, Papua Bar.",PAPUA BARAT,,Indonesia,,-1.438885,133.112375,https://maps.google.com/?cid=0x0:0x86464f4f398cc34b
perumahan,Komplek perumahan,Rumah dufa,"M57F+HV4, Morombuy, Merdey, Kabupaten Teluk Bintuni, Papua Bar.","Kabupaten Teluk Bintuni, Papua Bar.",PAPUA BARAT,,Indonesia,,-1.3361154,133.1747162,https://maps.google.com/?cid=0x0:0xdbf94ad3fda903b2
perumahan,Komplek perumahan,Mesrey Baru8,"H4FW+C5, Masyeta, Kabupaten Teluk Bintuni, Papua Bar.","Kabupaten Teluk Bintuni, Papua Bar.",PAPUA BARAT,,Indonesia,,-1.42648,133.145447,https://maps.google.com/?cid=0x0:0xe98cca08d85d9291
perumahan,perumahan,Injeif,"M538+7R, Morombuy, Merdey, Kabupaten Teluk Bintuni, Papua Bar.","Kabupaten Teluk Bintuni, Papua Bar.",PAPUA BARAT,,Indonesia,,-1.3468652,133.1670706,https://maps.google.com/?cid=0x0:0x89506f5f31da0c9
perumahan,Komplek perumahan,Bunga pagar puring,"M57F+HV4, Morombuy, Merdey, Kabupaten Teluk Bintuni, Papua Bar.","Kabupaten Teluk Bintuni, Papua Bar.",PAPUA BARAT,,Indonesia,,-1.3361154,133.1747162,https://maps.google.com/?cid=0x0:0xc62fe3678a55852a
perumahan,perumahan,Kampung Injisini,"J59F+24, Meryeb, Merdey, Kabupaten Teluk Bintuni, Papua Bar.","Kabupaten Teluk Bintuni, Papua Bar.",PAPUA BARAT,,Indonesia,,-1.3823937,133.1728306,https://maps.google.com/?cid=0x0:0x14d9b35f9586decc
perumahan,Komplek perumahan,Kampung Anajero,"97M7+46, Anejero, Merdey, Kabupaten Teluk Bintuni, Papua Bar.","Kabupaten Teluk Bintuni, Papua Bar.",PAPUA BARAT,,Indonesia,,-1.617213,133.263031,https://maps.google.com/?cid=0x0:0x44a1bdd56af0b512
perumahan,Komplek perumahan,Kampung Ibori,"96XV+28, Anejero, Merdey, Kabupaten Teluk Bintuni, Papua Bar.","Kabupaten Teluk Bintuni, Papua Bar.",PAPUA BARAT,,Indonesia,,-1.602425,133.243347,https://maps.google.com/?cid=0x0:0xfa4e7e41af0eeaec
perumahan,perumahan,Moskona Bar.,"Kabupaten Teluk Bintuni, Papua Bar.","Kabupaten Teluk Bintuni, Papua Bar.",PAPUA BARAT,,Indonesia,,-1.7525507,132.6293446,https://maps.google.com/?cid=0x0:0x1103cd5643d830c8
perumahan,Tempat Istirahat,DIVISI C ESTATE KASUARI,"5FXW+WF, Istikem, Moskona Bar., Kabupaten Teluk Bintuni, Papua Bar.","Kabupaten Teluk Bintuni, Papua Bar.",PAPUA BARAT,,Indonesia,,-1.8001555,132.4962675,https://maps.google.com/?cid=0x0:0xc8afefdd6006a
perumahan,Sekolah Dasar,Kantor distrik,"6JWH+XPH, Istikem, Moskona Bar., Kabupaten Teluk Bintuni, Papua Bar.","Kabupaten Teluk Bintuni, Papua Bar.",PAPUA BARAT,,Indonesia,,-1.7525507,132.6293446,https://maps.google.com/?cid=0x0:0x13fa9166ff7152c3
perumahan,perumahan,Barak Divisi A PMP,"5F8G+PW2, Mukamat, Kais, Kabupaten Sorong Selatan, Papua Bar.","Kabupaten Sorong Selatan, Papua Bar.",PAPUA BARAT,,Indonesia,,-1.8332378,132.4772698,https://maps.google.com/?cid=0x0:0xc68ce898cc14c10e
perumahan,perumahan,Distrik Moskona Selatan,"Kabupaten Teluk Bintuni, Papua Bar.","Kabupaten Teluk Bintuni, Papua Bar.",PAPUA BARAT,,Indonesia,,-1.6286738,132.9546549,https://maps.google.com/?cid=0x0:0xef5ad832b0358efc
perumahan,Komplek perumahan,DISTRIK MOSKONA TIUR,"38VH+PQG, Kp. Baru, Distrik Aranday, Kabupaten Teluk Bintuni, Papua Bar.","Kabupaten Teluk Bintuni, Papua Bar.",PAPUA BARAT,,Indonesia,,-1.9056848,133.329466,https://maps.google.com/?cid=0x0:0x36dfc0ebf9dc87
perumahan,Perhimpunan Pengembang Perumahan,Kmp KALI HITAM,"52GX+PMJ, Jln muara, kampung kali hitam, Kec. Meyado, Kabupaten Teluk Bintuni, Papua Bar. 98365","Jln muara, kampung kali hitam, Kec. Meyado, Kabupaten Teluk Bintuni",PAPUA BARAT,98365.0,Indonesia,,-1.8231739,133.0491501,https://maps.google.com/?cid=0x0:0x9dbe49744ecc058
perumahan,Komplek perumahan,rumah melki kabosu,"432H+94J, Ekam, Tomu, Kabupaten Teluk Bintuni, Papua Bar.","Kabupaten Teluk Bintuni, Papua Bar.",PAPUA BARAT,,Indonesia,,-1.8990496,133.0777555,https://maps.google.com/?cid=0x0:0x5c43f73313d2401a
perumahan,perumahan,Distrik Moskona Timur,"Kabupaten Teluk Bintuni, Papua Bar.","Kabupaten Teluk Bintuni, Papua Bar.",PAPUA BARAT,,Indonesia,,-1.311813,132.9806087,https://maps.google.com/?cid=0x0:0x97750e766a777e76
perumahan,Komplek perumahan,"Mouyeba, Moskona Utara","JX7X+73, Mestofu, Masyeta, Kabupaten Teluk Bintuni, Papua Bar.","Kabupaten Teluk Bintuni, Papua Bar.",PAPUA BARAT,,Indonesia,,-1.386864,132.997685,https://maps.google.com/?cid=0x0:0xd6490573709dc4f4
perumahan,Pembangunan Perumahan,DISTRIK MOSKONA TIMUR,"J59F+RFW, Igomu, Merdey, Kabupaten Teluk Bintuni, Papua Bar.","Kabupaten Teluk Bintuni, Papua Bar.",PAPUA BARAT,,Indonesia,,-1.3803796,133.1737144,https://maps.google.com/?cid=0x0:0x35eb12ae13175e99
perumahan,Perhimpunan Pengembang Perumahan,KAMPUNG MOSUM,"JX6V+G5M, Mestofu, Masyeta, Kabupaten Teluk Bintuni, Papua Bar.","Kabupaten Teluk Bintuni, Papua Bar.",PAPUA BARAT,,Indonesia,,-1.3886605,132.9929345,https://maps.google.com/?cid=0x0:0x603625c4c6ad80cd
perumahan,Komplek perumahan,Irian Jaya,"PV27+959, Merestim, Moskona Utara, Kabupaten Tambrauw, Papua Bar. 98373","Merestim, Moskona Utara, Kabupaten Tambrauw",PAPUA BARAT,98373.0,Indonesia,,-1.2990807,132.8629925,https://maps.google.com/?cid=0x0:0x76b771eabf288636
perumahan,Komplek perumahan,DISTRIK MOSKONA TIUR,"J57F+HJ8, MOSKONA TIMU ,ESNA, Meryeb, Kabupaten Teluk Bintuni, Papua Bar.","Kabupaten Teluk Bintuni, Papua Bar.",PAPUA BARAT,,Indonesia,,-1.3860856,133.174091,https://maps.google.com/?cid=0x0:0x22a018c1b4d816a3
perumahan,Komplek perumahan,DISTRIK MOSKONA TIUR,"38VH+PQG, Kp. Baru, Distrik Aranday, Kabupaten Teluk Bintuni, Papua Bar.","Kabupaten Teluk Bintuni, Papua Bar.",PAPUA BARAT,,Indonesia,,-1.9056848,133.329466,https://maps.google.com/?cid=0x0:0x36dfc0ebf9dc87
perumahan,Komplek perumahan,Kampung mosum,"MPWG+RVV, Moyeba, Moskona Utara, Kabupaten Teluk Bintuni, Papua Bar.","Kabupaten Teluk Bintuni, Papua Bar.",PAPUA BARAT,,Indonesia,,-1.302887,132.7271587,https://maps.google.com/?cid=0x0:0xc146804a9b0bb626
perumahan,perumahan,Moskona Utara,"Kabupaten Teluk Bintuni, Papua Bar.","Kabupaten Teluk Bintuni, Papua Bar.",PAPUA BARAT,,Indonesia,,-1.368612,132.7270105,https://maps.google.com/?cid=0x0:0x53c35f8f415bb69b
perumahan,Komplek perumahan,Kampung mosum,"MPWG+RVV, Moyeba, Moskona Utara, Kabupaten Teluk Bintuni, Papua Bar.","Kabupaten Teluk Bintuni, Papua Bar.",PAPUA BARAT,,Indonesia,,-1.302887,132.7271587,https://maps.google.com/?cid=0x0:0xc146804a9b0bb626
perumahan,Komplek perumahan,Irian Jaya,"PV27+959, Merestim, Moskona Utara, Kabupaten Tambrauw, Papua Bar. 98373","Merestim, Moskona Utara, Kabupaten Tambrauw",PAPUA BARAT,98373.0,Indonesia,,-1.2990807,132.8629925,https://maps.google.com/?cid=0x0:0x76b771eabf288636
perumahan,Komplek perumahan,"Mouyeba, Moskona Utara","JX7X+73, Mestofu, Masyeta, Kabupaten Teluk Bintuni, Papua Bar.","Kabupaten Teluk Bintuni, Papua Bar.",PAPUA BARAT,,Indonesia,,-1.386864,132.997685,https://maps.google.com/?cid=0x0:0xd6490573709dc4f4
perumahan,Pembangunan Perumahan,KAMPUNG SAMERAKATOR,"JHQV+VPP, KOMPLEX FATEM ISYORANA, TAHSIMARA, Aitrem, Distrik Aifat Timur, Kabupaten Maybrat, Papua Bar. 98463","KOMPLEX FATEM ISYORANA, TAHSIMARA, Aitrem, Distrik Aifat Timur, Kabupaten Maybrat",PAPUA BARAT,98463.0,Indonesia,,-1.3602867,132.5943283,https://maps.google.com/?cid=0x0:0xceea199ce0dab7e
perumahan,perumahan,SATGAS PUPU,"HHQM+G6P, Fuog, Distrik Aifat Selatan, Kabupaten Maybrat, Papua Bar. 98463","Fuog, Distrik Aifat Selatan, Kabupaten Maybrat",PAPUA BARAT,98463.0,Indonesia,,-1.4101624,132.5821002,https://maps.google.com/?cid=0x0:0xbf8212410d3304c0
perumahan,Komplek perumahan,Rumah Rizki Aulia,"MX6M+7G4, Mesna, Distrik Moskona Timur, Kabupaten Teluk Bintuni, Papua Bar. 98373","Mesna, Distrik Moskona Timur, Kabupaten Teluk Bintuni",PAPUA BARAT,98373.0,Indonesia,,-1.3393621,132.9838143,https://maps.google.com/?cid=0x0:0xf6c360ab043784eb
perumahan,Pembangunan Perumahan,FAN KAHRIO,"JHVW+99F, Aitrem, Distrik Aifat Timur, Kabupaten Maybrat, Papua Bar. 98463","Aitrem, Distrik Aifat Timur, Kabupaten Maybrat",PAPUA BARAT,98463.0,Indonesia,,-1.355984,132.595129,https://maps.google.com/?cid=0x0:0x9ed4e50ff7ecf47d
perumahan,Perhimpunan Pengembang Perumahan,KAMPUNG MOSUM,"JX6V+G5M, Mestofu, Masyeta, Kabupaten Teluk Bintuni, Papua Bar.","Kabupaten Teluk Bintuni, Papua Bar.",PAPUA BARAT,,Indonesia,,-1.3886605,132.9929345,https://maps.google.com/?cid=0x0:0x603625c4c6ad80cd
perumahan,Pembangunan Perumahan,Kp. Mufas,"PM36+M94, Aisa, Distrik Aifat Timur, Kabupaten Maybrat, Papua Bar. 98463","Aisa, Distrik Aifat Timur, Kabupaten Maybrat",PAPUA BARAT,98463.0,Indonesia,,-1.2958969,132.6610312,https://maps.google.com/?cid=0x0:0xa1f362045b160b1b
perumahan,Pembangunan Perumahan,Asiaf Zaman,"HHX2+2Q, Fuog, Distrik Aifat Selatan, Kabupaten Maybrat, Papua Bar.","Kabupaten Maybrat, Papua Bar.",PAPUA BARAT,,Indonesia,,-1.4024056,132.5518889,https://maps.google.com/?cid=0x0:0x4fac9d95fd14dbc8
perumahan,perumahan,Saengga,"Kec. Sumuri, Kabupaten Teluk Bintuni, Papua Bar.","Kabupaten Teluk Bintuni, Papua Bar.",PAPUA BARAT,,Indonesia,,-2.5122975,133.1165621,https://maps.google.com/?cid=0x0:0xe50ca1b18a711d41
perumahan,Komplek perumahan,Steenkool,"G4XR+8RX, Tanah Merah, Kec. Sumuri, Kabupaten Teluk Bintuni, Papua Bar. 98363","Tanah Merah, Kec. Sumuri, Kabupaten Teluk Bintuni",PAPUA BARAT,98363.0,Indonesia,,-2.4524923,133.1415084,https://maps.google.com/?cid=0x0:0x6eb3038a3cd7ed41
perumahan,Komplek perumahan,Kompleks Cilaka 12,"G4H2+R8C, Saengga, Kec. Sumuri, Kabupaten Teluk Bintuni, Papua Bar. 98363","Saengga, Kec. Sumuri, Kabupaten Teluk Bintuni",PAPUA BARAT,98363.0,Indonesia,,-2.4704334,133.1007796,https://maps.google.com/?cid=0x0:0x4afa6568cecbb0ef
perumahan,Komplek perumahan,SAENGGA SUMURI,"G4H2+WCM, Saengga, Kec. Sumuri, Kabupaten Teluk Bintuni, Papua Bar.","Kabupaten Teluk Bintuni, Papua Bar.",PAPUA BARAT,,Indonesia,,-2.4701538,133.1010342,https://maps.google.com/?cid=0x0:0x7823a304c165d9ca
perumahan,Komplek perumahan,Kampung Tanah Merah Baru,"G5XV+WJG, Tanah Merah, Kec. Sumuri, Kabupaten Teluk Bintuni, Papua Bar.","Kabupaten Teluk Bintuni, Papua Bar.",PAPUA BARAT,,Indonesia,,-2.4501903,133.194086,https://maps.google.com/?cid=0x0:0x758dea9306994f63
perumahan,Komplek perumahan,Kompex kuburan,"G4H2+R8C, Saengga, Kec. Sumuri, Kabupaten Teluk Bintuni, Papua Bar. 98363","Saengga, Kec. Sumuri, Kabupaten Teluk Bintuni",PAPUA BARAT,98363.0,Indonesia,,-2.471651,133.101104,https://maps.google.com/?cid=0x0:0x8c7e7604d2eca7a7
perumahan,perumahan,Komplex Suci Lorong Gelap,"G4H3+7VF, Saengga, Kec. Sumuri, Kabupaten Teluk Bintuni, Papua Bar.","Kabupaten Teluk Bintuni, Papua Bar.",PAPUA BARAT,,Indonesia,,-2.4718246,133.1046619,https://maps.google.com/?cid=0x0:0x77f2e4d59b84fafe
perumahan,perumahan,Dusun Obanu,"F44C+MW8, Saengga, Kec. Sumuri, Kabupaten Teluk Bintuni, Papua Bar.","Kabupaten Teluk Bintuni, Papua Bar.",PAPUA BARAT,,Indonesia,,-2.5433264,133.1223327,https://maps.google.com/?cid=0x0:0x794015651efa0835
perumahan,perumahan,Ruma Hendrik,"G4J2+6W, Saengga, Kec. Sumuri, Kabupaten Teluk Bintuni, Papua Bar.","Kabupaten Teluk Bintuni, Papua Bar.",PAPUA BARAT,,Indonesia,,-2.4693753,133.102256,https://maps.google.com/?cid=0x0:0xd18ae50b3e8d3b3e
perumahan,Komplek perumahan,Rumah Genset,"G4M3+5R, Saengga, Kec. Sumuri, Kabupaten Teluk Bintuni, Papua Bar.","Kabupaten Teluk Bintuni, Papua Bar.",PAPUA BARAT,,Indonesia,,-2.4671196,133.1044867,https://maps.google.com/?cid=0x0:0xe75d92e8eb9f11f4
perumahan,Komplek perumahan,Noverdy wayuri home,"G4R6+FVH, Tanah Merah, Kec. Sumuri, Kabupaten Teluk Bintuni, Papua Bar. 98363","Tanah Merah, Kec. Sumuri, Kabupaten Teluk Bintuni",PAPUA BARAT,98363.0,Indonesia,,-2.4590721,133.1124625,https://maps.google.com/?cid=0x0:0x3477514aca0fb3a6
perumahan,Komplek perumahan,Camp carlie,"C6Q2+RQ4, Tofoi, Kec. Sumuri, Kabupaten Teluk Bintuni, Papua Bar. 98363","Tofoi, Kec. Sumuri, Kabupaten Teluk Bintuni",PAPUA BARAT,98363.0,Indonesia,,-2.560495,133.2019667,https://maps.google.com/?cid=0x0:0x9859512184c46f5a
perumahan,Komplek perumahan,Komplex lorong kubur,"G4H2+R8C, Saengga, Kec. Sumuri, Kabupaten Teluk Bintuni, Papua Bar. 98363","Saengga, Kec. Sumuri, Kabupaten Teluk Bintuni",PAPUA BARAT,98363.0,Indonesia,,-2.4704308,133.1007829,https://maps.google.com/?cid=0x0:0x31fd768071b028e6
perumahan,Komplek perumahan,UCC Early Work,"G5Q2+C74, Tanah Merah, Kec. Sumuri, Kabupaten Teluk Bintuni, Papua Bar. 98363","Tanah Merah, Kec. Sumuri, Kabupaten Teluk Bintuni",PAPUA BARAT,98363.0,Indonesia,,-2.461476,133.1507094,https://maps.google.com/?cid=0x0:0xbd457bfcab99946a
perumahan,perumahan,Distrik Tembuni,"Kabupaten Teluk Bintuni, Papua Bar.","Kabupaten Teluk Bintuni, Papua Bar.",PAPUA BARAT,,Indonesia,,-1.9799814,133.4065009,https://maps.google.com/?cid=0x0:0xdf538382e229efa6
perumahan,Komplek perumahan,KAMPUNG TIMUR,"WFFF+W8, Wesiri, Distrik Bintuni, Kabupaten Teluk Bintuni, Papua Bar. 98364","Wesiri, Distrik Bintuni, Kabupaten Teluk Bintuni",PAPUA BARAT,98364.0,Indonesia,,-2.0752326,133.4732822,https://maps.google.com/?cid=0x0:0x811aed6d113f79b2
perumahan,Pembangunan Perumahan,Kab. Teluk Bintuni,"38VH+PQG, Kp. Baru, Distrik Aranday, Kabupaten Teluk Bintuni, Papua Bar.","Kabupaten Teluk Bintuni, Papua Bar.",PAPUA BARAT,,Indonesia,,-1.9056848,133.329466,https://maps.google.com/?cid=0x0:0xc07068110b86e95f
perumahan,perumahan,Lokasi Persiapan Kampung Atmerij,"WCQ9+C9G, Wesiri, Distrik Bintuni, Kabupaten Teluk Bintuni, Papua Bar. 98364","Wesiri, Distrik Bintuni, Kabupaten Teluk Bintuni",PAPUA BARAT,98364.0,Indonesia,,-2.0614349,133.4184401,https://maps.google.com/?cid=0x0:0x4a8e0d571cc1fe03
perumahan,Komplek perumahan,Kampung Mabryema,"38VH+PQG, Jl. Trans Papua, Kp. Baru, Distrik Aranday, Kabupaten Teluk Bintuni, Papua Bar.","Kabupaten Teluk Bintuni, Papua Bar.",PAPUA BARAT,,Indonesia,,-1.9056848,133.329466,https://maps.google.com/?cid=0x0:0xb935f673503370b8
perumahan,Komplek perumahan,Jemibaimo,"Kilo meter 4, Kp. Baru, Distrik Aranday, Kabupaten Teluk Bintuni, Papua Bar.","Kabupaten Teluk Bintuni, Papua Bar.",PAPUA BARAT,,Indonesia,82196578192.0,-1.9056848,133.329466,https://maps.google.com/?cid=0x0:0x7afbf7b12655dde4
perumahan,Perhimpunan Pengembang Perumahan,Kampung Kohoin km 7 Bintuni,"WF9F+Q47, Wesiri, Distrik Bintuni, Kabupaten Teluk Bintuni, Papua Bar. 98364","Wesiri, Distrik Bintuni, Kabupaten Teluk Bintuni",PAPUA BARAT,98364.0,Indonesia,,-2.0805997,133.4728107,https://maps.google.com/?cid=0x0:0x88458a697671c1c4
perumahan,Komplek perumahan,Rumah Pastori Zaitun,"VGW7+RFX, Bintuni Bar., Distrik Bintuni, Kabupaten Teluk Bintuni, Papua Bar. 98364","Bintuni Bar., Distrik Bintuni, Kabupaten Teluk Bintuni",PAPUA BARAT,98364.0,Indonesia,,-2.1028875,133.5137344,https://maps.google.com/?cid=0x0:0xfc2b3d93b01d632c
perumahan,Komplek perumahan,Kampung Mamuranu,"38VH+PQG, Kp. Baru, Distrik Aranday, Kabupaten Teluk Bintuni, Papua Bar.","Kabupaten Teluk Bintuni, Papua Bar.",PAPUA BARAT,,Indonesia,,-1.9056848,133.329466,https://maps.google.com/?cid=0x0:0x5eaeaa16d872ddb2
perumahan,perumahan,Ancia pongtuluran,"VHC2+RH5, Jl. Raya Jl. Raya Kali Tubi, Bintuni Tim., Distrik Bintuni, Kabupaten Teluk Bintuni, Papua Bar. 98364","Jl. Raya Jl. Raya Kali Tubi, Bintuni Tim., Distrik Bintuni, Kabupaten Teluk Bintuni",PAPUA BARAT,98364.0,Indonesia,,-2.1281645,133.5515625,https://maps.google.com/?cid=0x0:0xf0a95cdfad12d504
perumahan,Komplek perumahan,Perumahan Dokter,"WFFH+CPJ, Wesiri, Distrik Bintuni, Kabupaten Teluk Bintuni, Papua Bar. 98364","Wesiri, Distrik Bintuni, Kabupaten Teluk Bintuni",PAPUA BARAT,98364.0,Indonesia,,-2.0762548,133.4806101,https://maps.google.com/?cid=0x0:0x6a316bf150c3762b
perumahan,Pembangunan Perumahan,Bintuni timur kampung Banjar ausoi,"VHHC+643, Bintuni Tim., sp5, ARGOSIGEMERAI, Papua Bar. 98364","Bintuni Tim., sp5, ARGOSIGEMERAI",PAPUA BARAT,98364.0,Indonesia,82198586126.0,-2.1219969,133.5703058,https://maps.google.com/?cid=0x0:0x13b6157d520e50e1
perumahan,Komplek perumahan,KOMPLEX ANAK KOS,"Bintuni Tim., Distrik Bintuni, Kabupaten Teluk Bintuni, Papua Bar. 98364","Distrik Bintuni, Kabupaten Teluk Bintuni",PAPUA BARAT,98364.0,Indonesia,,-2.1203593,133.536599,https://maps.google.com/?cid=0x0:0x514516f7e389a490
perumahan,perumahan,Lokasi Kampung Atmerij,"WCQ9+WWW, Wesiri, Distrik Bintuni, Kabupaten Teluk Bintuni, Papua Bar. 98364","Wesiri, Distrik Bintuni, Kabupaten Teluk Bintuni",PAPUA BARAT,98364.0,Indonesia,,-2.0601325,133.4198131,https://maps.google.com/?cid=0x0:0x4492f6c7acfc712e
perumahan,perumahan,Papua Bar. 98365,"Kabupaten Teluk Bintuni, Papua Bar.","Kabupaten Teluk Bintuni, Papua Bar.",PAPUA BARAT,,Indonesia,,-1.9250686,132.7076107,https://maps.google.com/?cid=0x0:0xe2813bacbf5a0787
perumahan,perumahan,Tomu,"Kabupaten Teluk Bintuni, Papua Bar.","Kabupaten Teluk Bintuni, Papua Bar.",PAPUA BARAT,,Indonesia,,-2.0596458,133.058341,https://maps.google.com/?cid=0x0:0x3ebc0177b26474d6
perumahan,Komplek perumahan,Kampung wanagir,"QXPF+8WR, Sebyar Rejosari, Tomu, Kabupaten Teluk Bintuni, Papua Bar. 98365","Sebyar Rejosari, Tomu, Kabupaten Teluk Bintuni",PAPUA BARAT,98365.0,Indonesia,813433434812.0,-2.213686,132.975887,https://maps.google.com/?cid=0x0:0xd6ab175eed4ef2d
perumahan,Komplek perumahan,"Aranday, Sasari","QXJC+JPP, Sebyar Rejosari, Tomu, Kabupaten Teluk Bintuni, Papua Bar. 98365","Sebyar Rejosari, Tomu, Kabupaten Teluk Bintuni",PAPUA BARAT,98365.0,Indonesia,,-2.2184038,132.971833,https://maps.google.com/?cid=0x0:0x1343fb280262dd8d
perumahan,Komplek perumahan,Kampung Kali Hitam,"34C9+8H, Ekam, Tomu, Kabupaten Teluk Bintuni, Papua Bar.","Kabupaten Teluk Bintuni, Papua Bar.",PAPUA BARAT,,Indonesia,,-1.9292383,133.1188796,https://maps.google.com/?cid=0x0:0xfbbd2d4bc417bcdc
perumahan,Komplek perumahan,Mes Petugas PKM Meyado,"35V3+P9, Ekam, Tomu, Kabupaten Teluk Bintuni, Papua Bar.","Kabupaten Teluk Bintuni, Papua Bar.",PAPUA BARAT,,Indonesia,,-1.9056357,133.1534936,https://maps.google.com/?cid=0x0:0xe2e0f3675fa206b1
perumahan,Komplek perumahan,rumah melki kabosu,"432H+94J, Ekam, Tomu, Kabupaten Teluk Bintuni, Papua Bar.","Kabupaten Teluk Bintuni, Papua Bar.",PAPUA BARAT,,Indonesia,,-1.8990496,133.0777555,https://maps.google.com/?cid=0x0:0x5c43f73313d2401a
perumahan,Perumahan,Mm yana,"W3R5+48W, Sebyar Rejosari, Tomu, Kabupaten Teluk Bintuni, Papua Bar.","Kabupaten Teluk Bintuni, Papua Bar.",PAPUA BARAT,,Indonesia,,-2.0596458,133.058341,https://maps.google.com/?cid=0x0:0x3e810c7876f5d27f
perumahan,Perhimpunan Pengembang Perumahan,ONGEN ARANDAY,"QXMC+PP2, Sebyar Rejosari, Tomu, Kabupaten Teluk Bintuni, Papua Bar.","Kabupaten Teluk Bintuni, Papua Bar.",PAPUA BARAT,,Indonesia,,-2.2157448,132.9717653,https://maps.google.com/?cid=0x0:0xd1ef68c9b0307e85
perumahan,Komplek perumahan,KAMPUNG TIMUR,"WFFF+W8, Wesiri, Distrik Bintuni, Kabupaten Teluk Bintuni, Papua Bar. 98364","Wesiri, Distrik Bintuni, Kabupaten Teluk Bintuni",PAPUA BARAT,98364.0,Indonesia,,-2.0752326,133.4732822,https://maps.google.com/?cid=0x0:0x811aed6d113f79b2
perumahan,Perhimpunan Pengembang Perumahan,Kampung Kohoin km 7 Bintuni,"WF9F+Q47, Wesiri, Distrik Bintuni, Kabupaten Teluk Bintuni, Papua Bar. 98364","Wesiri, Distrik Bintuni, Kabupaten Teluk Bintuni",PAPUA BARAT,98364.0,Indonesia,,-2.0805997,133.4728107,https://maps.google.com/?cid=0x0:0x88458a697671c1c4
perumahan,Komplek perumahan,KOMPLEKS THO-KING,"WG34+CQ, Wesiri, Distrik Bintuni, Kabupaten Teluk Bintuni, Papua Bar.","Kabupaten Teluk Bintuni, Papua Bar.",PAPUA BARAT,,Indonesia,8553236660.0,-2.0974215,133.5071203,https://maps.google.com/?cid=0x0:0x3c2771fd8e23ccf6
perumahan,Komplek perumahan,Lukman,"VGCW+CG2, Jl. Kampung Agas, Bintuni Tim., Distrik Bintuni, Kabupaten Teluk Bintuni, Papua Bar. 98551","Jl. Kampung Agas, Bintuni Tim., Distrik Bintuni, Kabupaten Teluk Bintuni",PAPUA BARAT,98551.0,Indonesia,,-2.1289802,133.5462637,https://maps.google.com/?cid=0x0:0xd0778b82598eb80f
perumahan,Komplek perumahan,RUMAH LISA BLACKPINK,"VGJP+H49, Bintuni Tim., Distrik Bintuni, Kabupaten Teluk Bintuni, Papua Bar.","Kabupaten Teluk Bintuni, Papua Bar.",PAPUA BARAT,,Indonesia,,-2.1185946,133.535354,https://maps.google.com/?cid=0x0:0x52bb5c6e976fbb6b
perumahan,Penjara,Rumah Dinas Rutan kelas IIB Bintuni,"Jl. Raya Bintuni No.km 09, Wesiri, Distrik Bintuni, Kabupaten Teluk Bintuni, Papua Bar. 98364","Wesiri, Distrik Bintuni, Kabupaten Teluk Bintuni",PAPUA BARAT,98364.0,Indonesia,,-2.0688494,133.4607886,https://maps.google.com/?cid=0x0:0xfa3f9b2ee2319a77
perumahan,Komplek perumahan,Perumahan Dokter,"WFFH+CPJ, Wesiri, Distrik Bintuni, Kabupaten Teluk Bintuni, Papua Bar. 98364","Wesiri, Distrik Bintuni, Kabupaten Teluk Bintuni",PAPUA BARAT,98364.0,Indonesia,,-2.0762548,133.4806101,https://maps.google.com/?cid=0x0:0x6a316bf150c3762b
perumahan,perumahan,Distrik Tuhiba,"Kabupaten Teluk Bintuni, Papua Bar.","Kabupaten Teluk Bintuni, Papua Bar.",PAPUA BARAT,,Indonesia,,-1.9874608,133.6203736,https://maps.google.com/?cid=0x0:0x19d3a0288704397d
perumahan,perumahan,Ancia pongtuluran,"VHC2+RH5, Jl. Raya Jl. Raya Kali Tubi, Bintuni Tim., Distrik Bintuni, Kabupaten Teluk Bintuni, Papua Bar. 98364","Jl. Raya Jl. Raya Kali Tubi, Bintuni Tim., Distrik Bintuni, Kabupaten Teluk Bintuni",PAPUA BARAT,98364.0,Indonesia,,-2.1281645,133.5515625,https://maps.google.com/?cid=0x0:0xf0a95cdfad12d504
perumahan,Komplek perumahan,Rumah Pastori Zaitun,"VGW7+RFX, Bintuni Bar., Distrik Bintuni, Kabupaten Teluk Bintuni, Papua Bar. 98364","Bintuni Bar., Distrik Bintuni, Kabupaten Teluk Bintuni",PAPUA BARAT,98364.0,Indonesia,,-2.1028875,133.5137344,https://maps.google.com/?cid=0x0:0xfc2b3d93b01d632c
perumahan,Komplek perumahan,Haslinda Taher,"VHHC+643, Bintuni Tim., Distrik Bintuni, Kabupaten Teluk Bintuni, Papua Bar. 98364","Bintuni Tim., Distrik Bintuni, Kabupaten Teluk Bintuni",PAPUA BARAT,98364.0,Indonesia,,-2.1219969,133.5703058,https://maps.google.com/?cid=0x0:0xd337de031be89d21
perumahan,Komplek perumahan,KMD,"VGX8+6WW, Bintuni Bar., Distrik Bintuni, Kabupaten Teluk Bintuni, Papua Bar. 98364","Bintuni Bar., Distrik Bintuni, Kabupaten Teluk Bintuni",PAPUA BARAT,98364.0,Indonesia,,-2.1018896,133.5173289,https://maps.google.com/?cid=0x0:0x767a727e77068c3f
perumahan,Komplek perumahan,PCYH Teluk Bintuni,"WMCP+WRG, Atibo Manimeri, Distrik Manimeri, Kabupaten Teluk Bintuni, Papua Bar. 98364","Atibo Manimeri, Distrik Manimeri, Kabupaten Teluk Bintuni",PAPUA BARAT,98364.0,Indonesia,,-2.0776981,133.6870849,https://maps.google.com/?cid=0x0:0x4bf742dc225922f0
perumahan,Komplek perumahan,KOMPLEX ANAK KOS,"Bintuni Tim., Distrik Bintuni, Kabupaten Teluk Bintuni, Papua Bar. 98364","Distrik Bintuni, Kabupaten Teluk Bintuni",PAPUA BARAT,98364.0,Indonesia,,-2.1203593,133.536599,https://maps.google.com/?cid=0x0:0x514516f7e389a490
perumahan,Pembangunan Perumahan,Oktavia home,"VJW4+Q8, Sp V. Manimery/ Argo Sigemeray, Distrik Bintuni, Kabupaten Teluk Bintuni, Papua Bar.","Kabupaten Teluk Bintuni, Papua Bar.",PAPUA BARAT,,Indonesia,82267066028.0,-2.1030245,133.6058919,https://maps.google.com/?cid=0x0:0x16a8c2e38bbeeda2
perumahan,Komplek perumahan,Kompleks Manado,"WJ2X+2FV, Tuasai, Distrik Bintuni, Kabupaten Teluk Bintuni, Papua Bar. 98364","Tuasai, Distrik Bintuni, Kabupaten Teluk Bintuni",PAPUA BARAT,98364.0,Indonesia,,-2.0998868,133.6486759,https://maps.google.com/?cid=0x0:0xc250420825d52a06
perumahan,Komplek perumahan,Mr. Andri Tuhusula,"VJP6+HV8, Jl. Manokwari - Bintuni, Sp V. Manimery/ Argo Sigemeray, Distrik Bintuni, Kabupaten Teluk Bintuni, Papua Bar. 98364","Jl. Manokwari - Bintuni, Sp V. Manimery/ Argo Sigemeray, Distrik Bintuni, Kabupaten Teluk Bintuni",PAPUA BARAT,98364.0,Indonesia,,-2.1135991,133.6121925,https://maps.google.com/?cid=0x0:0xe0536a12dc9a812b
perumahan,Komplek perumahan,Iqram home,"WJX3+5H7 Lokasi tempat bapk iqram, Iguriji, Distrik Bintuni, Kabupaten Teluk Bintuni, Papua Bar. 98364","Iguriji, Distrik Bintuni, Kabupaten Teluk Bintuni",PAPUA BARAT,98364.0,Indonesia,,-2.0520812,133.6039301,https://maps.google.com/?cid=0x0:0x355da037c8b0ef76
perumahan,Komplek perumahan,Kompleks Malkita,"Unnamed Road, Wesiri, Distrik Bintuni, Kabupaten Teluk Bintuni, Papua Bar. 98364","Wesiri, Distrik Bintuni, Kabupaten Teluk Bintuni",PAPUA BARAT,98364.0,Indonesia,82198838421.0,-2.0764193,133.4792458,https://maps.google.com/?cid=0x0:0x69849810ca26f287
perumahan,Komplek perumahan,Yarapate,"R4R9+68, Yarpate, Wamesa, Kabupaten Teluk Wondama, Papua Bar.","Kabupaten Teluk Wondama, Papua Bar.",PAPUA BARAT,,Indonesia,,-2.1594547,134.1182972,https://maps.google.com/?cid=0x0:0xab0c1bd6d12f1b56
perumahan,perumahan,Wamesa,"Kabupaten Teluk Wondama, Papua Bar.","Kabupaten Teluk Wondama, Papua Bar.",PAPUA BARAT,,Indonesia,,-2.1544139,134.0770134,https://maps.google.com/?cid=0x0:0x66173cbf11eb7129
perumahan,Perhimpunan Pengembang Perumahan,"Kampung karuan, wondama","Q47J+GG, Karuan, Wamesa, Kabupaten Teluk Wondama, Papua Bar.","Kabupaten Teluk Wondama, Papua Bar.",PAPUA BARAT,,Indonesia,,-2.2362204,134.1313264,https://maps.google.com/?cid=0x0:0x587f409de7c9d749
perumahan,Komplek perumahan,Kampung Mamisi (Distrik Nikwar),"M5X5+W2C, Mamisi, Distrik Nikiwar, Kabupaten Teluk Wondama, Papua Bar.","Kabupaten Teluk Wondama, Papua Bar.",PAPUA BARAT,,Indonesia,,-2.3001993,134.1575071,https://maps.google.com/?cid=0x0:0x24590dd735cb8ba9
perumahan,perumahan,Wamesa,"Kabupaten Teluk Bintuni, Papua Bar.","Kabupaten Teluk Bintuni, Papua Bar.",PAPUA BARAT,,Indonesia,,-2.1434612,133.981812,https://maps.google.com/?cid=0x0:0x255b33cb1fd7a021
perumahan,perumahan,Kompleks Akom demes waraitama,"WM9Q+853, Waraitama, Distrik Manimeri, Kabupaten Teluk Bintuni, Papua Bar. 98364","Waraitama, Distrik Manimeri, Kabupaten Teluk Bintuni",PAPUA BARAT,98364.0,Indonesia,,-2.0817259,133.6879307,https://maps.google.com/?cid=0x0:0x7f6ddc9935bf8c91
perumahan,Pembangunan Perumahan,Rumah Evan,"WM8J+XG, Waraitama, Distrik Manimeri, Kabupaten Teluk Bintuni, Papua Bar.","Kabupaten Teluk Bintuni, Papua Bar.",PAPUA BARAT,,Indonesia,,-2.08258,133.681327,https://maps.google.com/?cid=0x0:0x8810a7b394006d5b
perumahan,Komplek perumahan,Kompleks Manado,"WJ2X+2FV, Tuasai, Distrik Bintuni, Kabupaten Teluk Bintuni, Papua Bar. 98364","Tuasai, Distrik Bintuni, Kabupaten Teluk Bintuni",PAPUA BARAT,98364.0,Indonesia,,-2.0998868,133.6486759,https://maps.google.com/?cid=0x0:0xc250420825d52a06
perumahan,perumahan,Perumahan Kampung Korano Jaya,"WPGG+W74 Sp 2, jalur 4, Korano Jaya, Distrik Manimeri, Kabupaten Teluk Bintuni, Papua Bar. 98364","jalur 4, Korano Jaya, Distrik Manimeri, Kabupaten Teluk Bintuni",PAPUA BARAT,98364.0,Indonesia,,-2.0727485,133.725713,https://maps.google.com/?cid=0x0:0x62f113a09a1066d
perumahan,Komplek perumahan,RUMAH KOMANDO,"WPXC+5RV, Bumi Saniari, Distrik Manimeri, Kabupaten Teluk Bintuni, Papua Bar. 98364","Bumi Saniari, Distrik Manimeri, Kabupaten Teluk Bintuni",PAPUA BARAT,98364.0,Indonesia,,-2.052015,133.7220494,https://maps.google.com/?cid=0x0:0xa78276d52a364d5c
perumahan,Komplek perumahan,Yarapate,"R4R9+68, Yarpate, Wamesa, Kabupaten Teluk Wondama, Papua Bar.","Kabupaten Teluk Wondama, Papua Bar.",PAPUA BARAT,,Indonesia,,-2.1594547,134.1182972,https://maps.google.com/?cid=0x0:0xab0c1bd6d12f1b56
perumahan,Pembangunan Perumahan,Bintuni timur kampung Banjar ausoi,"VHHC+643, Bintuni Tim., sp5, ARGOSIGEMERAI, Papua Bar. 98364","Bintuni Tim., sp5, ARGOSIGEMERAI",PAPUA BARAT,98364.0,Indonesia,82198586126.0,-2.1219969,133.5703058,https://maps.google.com/?cid=0x0:0x13b6157d520e50e1
perumahan,perumahan,Pak Kaswan,"XP2G+2CG SP 3 Jlr 5 Timur, Bumi Saniari, Distrik Manimeri, Kabupaten Teluk Bintuni, Papua Bar. 98364","Bumi Saniari, Distrik Manimeri, Kabupaten Teluk Bintuni",PAPUA BARAT,98364.0,Indonesia,,-2.0499313,133.7260674,https://maps.google.com/?cid=0x0:0x66a6dd967975d88f
perumahan,Komplek perumahan,KAMPUNG TIMUR,"WFFF+W8, Wesiri, Distrik Bintuni, Kabupaten Teluk Bintuni, Papua Bar. 98364","Wesiri, Distrik Bintuni, Kabupaten Teluk Bintuni",PAPUA BARAT,98364.0,Indonesia,,-2.0752326,133.4732822,https://maps.google.com/?cid=0x0:0x811aed6d113f79b2
perumahan,perumahan,Kanisius Ndityomas,"XP3J+X49, Bumi Saniari, Distrik Manimeri, Kabupaten Teluk Bintuni, Papua Bar. 98364","Bumi Saniari, Distrik Manimeri, Kabupaten Teluk Bintuni",PAPUA BARAT,98364.0,Indonesia,,-2.0450916,133.7303549,https://maps.google.com/?cid=0x0:0x3b24e0babe31d24b
perumahan,Komplek perumahan,Rumah Ferry D,"WM48+P8G, Dekat, Banjar Ausoy (Sp IV), Distrik Manimeri, Kabupaten Teluk Bintuni, Papua Bar. 98364","Dekat, Banjar Ausoy (Sp IV), Distrik Manimeri, Kabupaten Teluk Bintuni",PAPUA BARAT,98364.0,Indonesia,,-2.0931808,133.6658293,https://maps.google.com/?cid=0x0:0x22f8fef595eaca04
perumahan,Komplek perumahan,KOMPLEX ANAK KOS,"Bintuni Tim., Distrik Bintuni, Kabupaten Teluk Bintuni, Papua Bar. 98364","Distrik Bintuni, Kabupaten Teluk Bintuni",PAPUA BARAT,98364.0,Indonesia,,-2.1203593,133.536599,https://maps.google.com/?cid=0x0:0x514516f7e389a490
perumahan,Pembangunan Perumahan,Oktavia home,"VJW4+Q8, Sp V. Manimery/ Argo Sigemeray, Distrik Bintuni, Kabupaten Teluk Bintuni, Papua Bar.","Kabupaten Teluk Bintuni, Papua Bar.",PAPUA BARAT,,Indonesia,82267066028.0,-2.1030245,133.6058919,https://maps.google.com/?cid=0x0:0x16a8c2e38bbeeda2
perumahan,perumahan,Distrik Weriagar,"Kabupaten Teluk Bintuni, Papua Bar.","Kabupaten Teluk Bintuni, Papua Bar.",PAPUA BARAT,,Indonesia,,-2.2729914,132.892696,https://maps.google.com/?cid=0x0:0xa59e3da385ccd401
perumahan,Komplek perumahan,Kampung wanagir,"QXPF+8WR, Sebyar Rejosari, Tomu, Kabupaten Teluk Bintuni, Papua Bar. 98365","Sebyar Rejosari, Tomu, Kabupaten Teluk Bintuni",PAPUA BARAT,98365.0,Indonesia,813433434812.0,-2.213686,132.975887,https://maps.google.com/?cid=0x0:0xd6ab175eed4ef2d
perumahan,Layanan Restorasi Gedung,Perumahan Guru SD,"PVGR+W87, Weriagar, Distrik Weriagar, Kabupaten Teluk Bintuni, Papua Bar. 98365","Weriagar, Distrik Weriagar, Kabupaten Teluk Bintuni",PAPUA BARAT,98365.0,Indonesia,,-2.2727091,132.890802,https://maps.google.com/?cid=0x0:0x5ea2d24d997cf528
perumahan,perumahan,PUSKESMAS WERIAGAR,"PVGR+W87, Weriagar, Distrik Weriagar, Kabupaten Teluk Bintuni, Papua Bar. 98365","Weriagar, Distrik Weriagar, Kabupaten Teluk Bintuni",PAPUA BARAT,98365.0,Indonesia,,-2.272409,132.890192,https://maps.google.com/?cid=0x0:0x2254b6496c4d4f7b
perumahan,Komplek perumahan,Rumah BK,"QXPF+8WR, Sebyar Rejosari, Tomu, Kabupaten Teluk Bintuni, Papua Bar. 98365","Sebyar Rejosari, Tomu, Kabupaten Teluk Bintuni",PAPUA BARAT,98365.0,Indonesia,,-2.213686,132.975887,https://maps.google.com/?cid=0x0:0x2ffba47e32212623
perumahan,Komplek perumahan,"Aranday, Sasari","QXJC+JPP, Sebyar Rejosari, Tomu, Kabupaten Teluk Bintuni, Papua Bar. 98365","Sebyar Rejosari, Tomu, Kabupaten Teluk Bintuni",PAPUA BARAT,98365.0,Indonesia,,-2.2184038,132.971833,https://maps.google.com/?cid=0x0:0x1343fb280262dd8d
perumahan,Pusat Perbelanjaan,KIOS CINTA MURAH Buton Flores,"Weriagar, Distrik Weriagar, Kabupaten Teluk Bintuni, Papua Bar. 98365","Distrik Weriagar, Kabupaten Teluk Bintuni",PAPUA BARAT,98365.0,Indonesia,82236857951.0,-2.2726792,132.8949925,https://maps.google.com/?cid=0x0:0xb691b26b30dcef58
perumahan,Perhimpunan Pengembang Perumahan,ONGEN ARANDAY,"QXMC+PP2, Sebyar Rejosari, Tomu, Kabupaten Teluk Bintuni, Papua Bar.","Kabupaten Teluk Bintuni, Papua Bar.",PAPUA BARAT,,Indonesia,,-2.2157448,132.9717653,https://maps.google.com/?cid=0x0:0xd1ef68c9b0307e85
perumahan,Perhimpunan Pengembang Perumahan,Aranday city,"R2H3+7MC, Aranday, Distrik Aranday, Kabupaten Teluk Bintuni, Papua Bar.","Kabupaten Teluk Bintuni, Papua Bar.",PAPUA BARAT,,Indonesia,,-2.1718089,133.0041562,https://maps.google.com/?cid=0x0:0x6be53dd1d1da8c77
housing complex,housing complex,Distrik Aranday,"Kabupaten Teluk Bintuni, Papua Bar.","Kabupaten Teluk Bintuni, Papua Bar.",PAPUA BARAT,,Indonesia,,-1.925379,133.229204,https://maps.google.com/?cid=0x0:0xab05e8c7d8e39b11
housing complex,Komplek perumahan,Kampung Aranday,"36FH+RMW, Kp. Baru, Distrik Aranday, Kabupaten Teluk Bintuni, Papua Bar.","Kabupaten Teluk Bintuni, Papua Bar.",PAPUA BARAT,,Indonesia,,-1.925379,133.229204,https://maps.google.com/?cid=0x0:0x3e4d6ff99b52def8
housing complex,Kompleks Apartemen,Kos-kos om lois,"38VH+PQG Kilometer 4, Kp. Baru, Distrik Aranday, Kabupaten Teluk Bintuni, Papua Bar.","Kabupaten Teluk Bintuni, Papua Bar.",PAPUA BARAT,,Indonesia,,-1.9056848,133.329466,https://maps.google.com/?cid=0x0:0xec8acaf6605cc747
housing complex,Komplek perumahan,KPPD SQUAD,"38VH+PQG, Kp. Baru, Distrik Aranday, Kabupaten Teluk Bintuni, Papua Bar.","Kabupaten Teluk Bintuni, Papua Bar.",PAPUA BARAT,,Indonesia,,-1.9056848,133.329466,https://maps.google.com/?cid=0x0:0x68c589ce68f122db
housing complex,Komplek perumahan,Kampung Mabryema,"38VH+PQG, Jl. Trans Papua, Kp. Baru, Distrik Aranday, Kabupaten Teluk Bintuni, Papua Bar.","Kabupaten Teluk Bintuni, Papua Bar.",PAPUA BARAT,,Indonesia,,-1.9056848,133.329466,https://maps.google.com/?cid=0x0:0xb935f673503370b8
housing complex,Pembangunan Perumahan,Kab. Teluk Bintuni,"38VH+PQG, Kp. Baru, Distrik Aranday, Kabupaten Teluk Bintuni, Papua Bar.","Kabupaten Teluk Bintuni, Papua Bar.",PAPUA BARAT,,Indonesia,,-1.9056848,133.329466,https://maps.google.com/?cid=0x0:0xc07068110b86e95f
housing complex,Komplek perumahan,NICK RUMAYOMI,"38VH+PQG BINA DESA SMA YPK, Jalan Raya, Kp. Baru, Distrik Aranday, Kabupaten Teluk Bintuni, Papua Bar.","Kabupaten Teluk Bintuni, Papua Bar.",PAPUA BARAT,,Indonesia,,-1.9056848,133.329466,https://maps.google.com/?cid=0x0:0xf1ba384c9822e100
housing complex,Pembangunan Perumahan,Kampung Taroi,"R559+FJJ, Taroi, Manunggal Karya, Distrik Aranday, Kabupaten Teluk Bintuni, Papua Bar. 98365","Taroi, Manunggal Karya, Distrik Aranday, Kabupaten Teluk Bintuni",PAPUA BARAT,98365.0,Indonesia,,-2.1918873,133.1689644,https://maps.google.com/?cid=0x0:0xd6c843061f5f2f98
housing complex,Komplek perumahan,DISTRIK MOSKONA TIUR,"38VH+PQG, Kp. Baru, Distrik Aranday, Kabupaten Teluk Bintuni, Papua Bar.","Kabupaten Teluk Bintuni, Papua Bar.",PAPUA BARAT,,Indonesia,,-1.9056848,133.329466,https://maps.google.com/?cid=0x0:0x36dfc0ebf9dc87
housing complex,Komplek perumahan,Kampung kecap,"V8G6+F32, Kecap, pusponjolo timur, Kabupaten Teluk Bintuni, Papua Bar.","Kabupaten Teluk Bintuni, Papua Bar.",PAPUA BARAT,,Indonesia,,-2.1238556,133.3101484,https://maps.google.com/?cid=0x0:0xc34a1ebfaa2f6fdc
housing complex,Komplek perumahan,Kampung Membera,"46JP+9H5, Membera, Kp. Baru, Distrik Aranday, Kabupaten Teluk Bintuni, Papua Bar. 98364","Membera, Kp. Baru, Distrik Aranday, Kabupaten Teluk Bintuni",PAPUA BARAT,98364.0,Indonesia,,-1.869113,133.236496,https://maps.google.com/?cid=0x0:0xcc065b7cf8a7cde5
housing complex,Komplek perumahan,Kampung Kali Hitam,"34C9+8H, Ekam, Tomu, Kabupaten Teluk Bintuni, Papua Bar.","Kabupaten Teluk Bintuni, Papua Bar.",PAPUA BARAT,,Indonesia,,-1.9292383,133.1188796,https://maps.google.com/?cid=0x0:0xfbbd2d4bc417bcdc
housing complex,Komplek perumahan,Mess Meyado,"34RX+89W, Ekam, Kec. Meyado, Kabupaten Teluk Bintuni, Papua Bar.","Kabupaten Teluk Bintuni, Papua Bar.",PAPUA BARAT,,Indonesia,,-1.9091424,133.148456,https://maps.google.com/?cid=0x0:0xa6322b75ddfc0d10
housing complex,housing complex,Lokasi Persiapan Kampung Atmerij,"WCQ9+C9G, Wesiri, Distrik Bintuni, Kabupaten Teluk Bintuni, Papua Bar. 98364","Wesiri, Distrik Bintuni, Kabupaten Teluk Bintuni",PAPUA BARAT,98364.0,Indonesia,,-2.0614349,133.4184401,https://maps.google.com/?cid=0x0:0x4a8e0d571cc1fe03
housing complex,housing complex,Aroba,"Distrik Aroba, Kabupaten Teluk Bintuni, Papua Bar.","Kabupaten Teluk Bintuni, Papua Bar.",PAPUA BARAT,,Indonesia,,-2.7579448,133.5799151,https://maps.google.com/?cid=0x0:0xde88d08daed2fbc6
housing complex,housing complex,SMK 2 jayapura,"6JMQ+VQ, Aroba, Distrik Aroba, Kabupaten Teluk Bintuni, Papua Bar.","Kabupaten Teluk Bintuni, Papua Bar.",PAPUA BARAT,,Indonesia,,-2.7646809,133.6389113,https://maps.google.com/?cid=0x0:0xce67829c689bff25
housing complex,Pembangunan Perumahan,Akuba owner,"7FFM+FF, Yaru, Distrik Aroba, Kabupaten Teluk Bintuni, Papua Bar.","Kabupaten Teluk Bintuni, Papua Bar.",PAPUA BARAT,,Indonesia,,-2.7262891,133.4837141,https://maps.google.com/?cid=0x0:0x4b81ba298c739a11
housing complex,housing complex,Papua Bar. 98363,"Kabupaten Teluk Bintuni, Papua Bar.","Kabupaten Teluk Bintuni, Papua Bar.",PAPUA BARAT,,Indonesia,,-2.6488329,133.7142484,https://maps.google.com/?cid=0x0:0x1d8cc8ce6f581e70
housing complex,housing complex,Babo,"Kabupaten Teluk Bintuni, Papua Bar.","Kabupaten Teluk Bintuni, Papua Bar.",PAPUA BARAT,,Indonesia,,-2.5410944,133.4455624,https://maps.google.com/?cid=0x0:0x4d33f662184232b6
housing complex,Komplek perumahan,Kasira Gunung,"FC4W+6Q5 Kasira, Gunung, Babo, Teluk Bintuni Regency, West Papua 98363","Gunung, Babo, Teluk Bintuni Regency",PAPUA BARAT,98363.0,Indonesia,,-2.5437117,133.4472279,https://maps.google.com/?cid=0x0:0x5640bd46c2a2ac97
housing complex,Komplek perumahan,KANADA (KANAISIâ¢DALAM),"FC8R+GRH, Nusei, Babo, Kabupaten Teluk Bintuni, Papua Bar.","Kabupaten Teluk Bintuni, Papua Bar.",PAPUA BARAT,,Indonesia,,-2.5337557,133.4431279,https://maps.google.com/?cid=0x0:0x2bcd63ad8817f70e
housing complex,Komplek perumahan,Kompleks mekap,"FC3X+R82, Nusei, Distrik Aroba, Kabupaten Teluk Bintuni, Papua Bar.","Kabupaten Teluk Bintuni, Papua Bar.",PAPUA BARAT,,Indonesia,,-2.5454857,133.4483061,https://maps.google.com/?cid=0x0:0x3bf7a8e0433d9e04
housing complex,Sekolah menengah,Pojok SMP Babo,"FC5R+RXV, Unnamed Road, Nusei, Babo, Kabupaten Teluk Bintuni, Papua Bar. 98363","Unnamed Road, Nusei, Babo, Kabupaten Teluk Bintuni",PAPUA BARAT,98363.0,Indonesia,,-2.5403819,133.4424231,https://maps.google.com/?cid=0x0:0xa83d6dea2e6eb1d8
housing complex,Komplek perumahan,Sewah motor,"FC6V+GJ4, Jl.Semen putih, Modan, Babo, Kabupaten Teluk Bintuni, Papua Bar. 98363","Jl.Semen putih, Modan, Babo, Kabupaten Teluk Bintuni",PAPUA BARAT,98363.0,Indonesia,81240522079.0,-2.5387313,133.4440825,https://maps.google.com/?cid=0x0:0x11802d2c43e792f4
housing complex,housing complex,"ANGKER_Angkasa Yang Keras""""","FC4R+V6G, Irarutu III, Babo, Kabupaten Teluk Bintuni, Papua Bar.","Kabupaten Teluk Bintuni, Papua Bar.",PAPUA BARAT,,Indonesia,,-2.5428125,133.4405781,https://maps.google.com/?cid=0x0:0xe5317745edde2065
housing complex,housing complex,Rumah Desty,"FC5W+H67, Nusei, Babo, Kabupaten Teluk Bintuni, Papua Bar.","Kabupaten Teluk Bintuni, Papua Bar.",PAPUA BARAT,,Indonesia,,-2.5410944,133.4455624,https://maps.google.com/?cid=0x0:0x5252204ce05fa3f9
housing complex,housing complex,M Wamburye,"FC4R+M7, Nusei, Babo, Kabupaten Teluk Bintuni, Papua Bar. 98363","Nusei, Babo, Kabupaten Teluk Bintuni",PAPUA BARAT,98363.0,Indonesia,,-2.5441216,133.4395863,https://maps.google.com/?cid=0x0:0xba7ddb3a9a8f7e43
housing complex,Komplek perumahan,kasira bawah,"FC4W+6Q5, Nusei, Babo, Kabupaten Teluk Bintuni, Papua Bar. 98363","Nusei, Babo, Kabupaten Teluk Bintuni",PAPUA BARAT,98363.0,Indonesia,,-2.5431168,133.4478261,https://maps.google.com/?cid=0x0:0x3782937e7f83deb
housing complex,Komplek perumahan,TAUFIK MANUAMA,"FC8R+9V8, Kampung kanaisi, Babo, Kabupaten Teluk Bintuni, Papua Bar.","Kabupaten Teluk Bintuni, Papua Bar.",PAPUA BARAT,,Indonesia,,-2.5340944,133.4422081,https://maps.google.com/?cid=0x0:0x3bfe217fcaa53a7f
housing complex,Komplek perumahan,Fiskara fiawe,"FC4W+6Q5, kasira, Babo, Kabupaten Teluk Bintuni, Papua Bar. 98363","kasira, Babo, Kabupaten Teluk Bintuni",PAPUA BARAT,98363.0,Indonesia,,-2.5430943,133.4477436,https://maps.google.com/?cid=0x0:0x7e525eb4b06e83dd
housing complex,Komplek perumahan,Rumah Abu Fiawe,"FC5Q+6MH, Irarutu III, Babo, Kabupaten Teluk Bintuni, Papua Bar.","Kabupaten Teluk Bintuni, Papua Bar.",PAPUA BARAT,,Indonesia,,-2.5419484,133.4392312,https://maps.google.com/?cid=0x0:0x4fe551532dc37da5
housing complex,Komplek perumahan,Kali kasira,"FC4X+GVW, Nusei, Babo, Kabupaten Teluk Bintuni, Papua Bar. 98363","Nusei, Babo, Kabupaten Teluk Bintuni",PAPUA BARAT,98363.0,Indonesia,,-2.5436366,133.4496899,https://maps.google.com/?cid=0x0:0x5dea20091a5326e1
housing complex,housing complex,Bintuni,"Bintuni Tim., Distrik Bintuni, Kabupaten Teluk Bintuni, Papua Bar.","Kabupaten Teluk Bintuni, Papua Bar.",PAPUA BARAT,,Indonesia,,-2.116667,133.533333,https://maps.google.com/?cid=0x0:0xb2abe6f637dc67dd
housing complex,Komplek perumahan,KOMPLEKS KPPD SQUAD BINTUNI,"VGJM+X4P KPPD SQUAD, Bintuni Tim., Distrik Bintuni, Kabupaten Teluk Bintuni, Papua Bar. 98364","Bintuni Tim., Distrik Bintuni, Kabupaten Teluk Bintuni",PAPUA BARAT,98364.0,Indonesia,81391394212.0,-2.1175457,133.5328249,https://maps.google.com/?cid=0x0:0xcbd288265b9cfbf9
housing complex,Organisasi Nonprofit,Bintuni Papua barat,"VGMM+88P, Bintuni Tim., Distrik Bintuni, Kabupaten Teluk Bintuni, Papua Bar. 98364","Bintuni Tim., Distrik Bintuni, Kabupaten Teluk Bintuni",PAPUA BARAT,98364.0,Indonesia,,-2.116667,133.533333,https://maps.google.com/?cid=0x0:0x4c907a361894c0eb
housing complex,Komplek perumahan,RAHARUSUN FAMILY,"VGJJ+XQX, Bintuni Tim., Distrik Bintuni, Kabupaten Teluk Bintuni, Papua Bar. 98364","Bintuni Tim., Distrik Bintuni, Kabupaten Teluk Bintuni",PAPUA BARAT,98364.0,Indonesia,,-2.1175184,133.5319998,https://maps.google.com/?cid=0x0:0xa1fbbd4706928db0
housing complex,housing complex,Rumah Kel.M Tanggarofa,"VGMM+88P, Bintuni Tim., Distrik Bintuni, Kabupaten Teluk Bintuni, Papua Bar.","Kabupaten Teluk Bintuni, Papua Bar.",PAPUA BARAT,,Indonesia,,-2.116667,133.533333,https://maps.google.com/?cid=0x0:0x34ee1792b5deb704
housing complex,Komplek perumahan,RUMAH KELUARGA TADU BINTUNI,"Jalan Raya Bintuni No.RT.001, RW002, Distrik Bintuni, Kabupaten Teluk Bintuni, Papua Bar.","Kabupaten Teluk Bintuni, Papua Bar.",PAPUA BARAT,,Indonesia,,-2.116667,133.533333,https://maps.google.com/?cid=0x0:0x3778241f270d6830
housing complex,housing complex,Bintuni kampung Agas,"VGMM+88P, Bintuni Tim., Distrik Bintuni, Kabupaten Teluk Bintuni, Papua Bar.","Kabupaten Teluk Bintuni, Papua Bar.",PAPUA BARAT,,Indonesia,,-2.116667,133.533333,https://maps.google.com/?cid=0x0:0xca4e6c52a9909c7f
housing complex,Perumahan rakyat,Rumah tisay,"VGMM+88P, Bintuni Tim., Distrik Bintuni, Kabupaten Teluk Bintuni, Papua Bar.","Kabupaten Teluk Bintuni, Papua Bar.",PAPUA BARAT,,Indonesia,,-2.116667,133.533333,https://maps.google.com/?cid=0x0:0x26dd64f766785874
housing complex,Pembangunan Perumahan,Day cin,"VGMM+88P, Bintuni Tim., Distrik Bintuni, Kabupaten Teluk Bintuni, Papua Bar.","Kabupaten Teluk Bintuni, Papua Bar.",PAPUA BARAT,,Indonesia,,-2.116667,133.533333,https://maps.google.com/?cid=0x0:0x38e1a71a6e07b678
housing complex,Perhimpunan Pengembang Perumahan,Terpadu,"VHC9+C49, Bintuni Tim., Distrik Bintuni, Kabupaten Teluk Bintuni, Papua Bar. 98364","Bintuni Tim., Distrik Bintuni, Kabupaten Teluk Bintuni",PAPUA BARAT,98364.0,Indonesia,,-2.1289723,133.5678586,https://maps.google.com/?cid=0x0:0x8c68f0cd7982aef6
housing complex,Asosiasi perumahan,Billy Home 443,"VGMM+88P, Bintuni Tim., Distrik Bintuni, Kabupaten Teluk Bintuni, Papua Bar.","Kabupaten Teluk Bintuni, Papua Bar.",PAPUA BARAT,,Indonesia,,-2.116667,133.533333,https://maps.google.com/?cid=0x0:0x38cf6e8d611ca7fb
housing complex,Komplek perumahan,Perumahan Dokter,"WFFH+CPJ, Wesiri, Distrik Bintuni, Kabupaten Teluk Bintuni, Papua Bar. 98364","Wesiri, Distrik Bintuni, Kabupaten Teluk Bintuni",PAPUA BARAT,98364.0,Indonesia,,-2.0762548,133.4806101,https://maps.google.com/?cid=0x0:0x6a316bf150c3762b
housing complex,housing complex,Papua Bar. 98373,"Kabupaten Teluk Bintuni, Papua Bar.","Kabupaten Teluk Bintuni, Papua Bar.",PAPUA BARAT,,Indonesia,,-1.4464953,133.329466,https://maps.google.com/?cid=0x0:0xa7a537a3a20b81b4
housing complex,Komplek perumahan,Rumah pak berbadus,"2, Meyado, Kec. Meyado, Kabupaten Teluk Bintuni, Papua Bar.","Kabupaten Teluk Bintuni, Papua Bar.",PAPUA BARAT,,Indonesia,,-1.6379564,133.1165621,https://maps.google.com/?cid=0x0:0xd4c02639d43e5363
housing complex,Komplek perumahan,Kampung Meyejga,"C98X+FP, Mowtika, Biscoop, Kabupaten Teluk Bintuni, Papua Bar.","Kabupaten Teluk Bintuni, Papua Bar.",PAPUA BARAT,,Indonesia,,-1.5839026,133.3992944,https://maps.google.com/?cid=0x0:0x46c3057d6a33aedb
housing complex,housing complex,Kampung Injisini,"J59F+24, Meryeb, Merdey, Kabupaten Teluk Bintuni, Papua Bar.","Kabupaten Teluk Bintuni, Papua Bar.",PAPUA BARAT,,Indonesia,,-1.3823937,133.1728306,https://maps.google.com/?cid=0x0:0x14d9b35f9586decc
housing complex,housing complex,Kampung Sumuy,"G4F5+8J, Masyeta, Kabupaten Teluk Bintuni, Papua Bar.","Kabupaten Teluk Bintuni, Papua Bar.",PAPUA BARAT,,Indonesia,,-1.476643,133.1090128,https://maps.google.com/?cid=0x0:0xc66e01b19d3b95c6
housing complex,Komplek perumahan,Alif home,"M57F+HV4, Morombuy, Merdey, Kabupaten Teluk Bintuni, Papua Bar. 98373","Morombuy, Merdey, Kabupaten Teluk Bintuni",PAPUA BARAT,98373.0,Indonesia,,-1.3361154,133.1747162,https://maps.google.com/?cid=0x0:0x21b7a9e8aadd8d8a
housing complex,housing complex,Kampung Isurkahmey,"J59C+MC, Meryeb, Merdey, Kabupaten Teluk Bintuni, Papua Bar.","Kabupaten Teluk Bintuni, Papua Bar.",PAPUA BARAT,,Indonesia,,-1.3808288,133.171051,https://maps.google.com/?cid=0x0:0x5026d8699b7705ef
housing complex,Komplek perumahan,Boswessen,"M57F+HV4, Morombuy, Merdey, Kabupaten Teluk Bintuni, Papua Bar.","Kabupaten Teluk Bintuni, Papua Bar.",PAPUA BARAT,,Indonesia,,-1.3361154,133.1747162,https://maps.google.com/?cid=0x0:0xae3d26fb19e39de4
housing complex,housing complex,Injeif,"M538+7R, Morombuy, Merdey, Kabupaten Teluk Bintuni, Papua Bar.","Kabupaten Teluk Bintuni, Papua Bar.",PAPUA BARAT,,Indonesia,,-1.3468652,133.1670706,https://maps.google.com/?cid=0x0:0x89506f5f31da0c9
housing complex,Komplek perumahan,Perumahan,"M57F+HV4, Morombuy, Merdey, Kabupaten Teluk Bintuni, Papua Bar.","Kabupaten Teluk Bintuni, Papua Bar.",PAPUA BARAT,,Indonesia,,-1.3361154,133.1747162,https://maps.google.com/?cid=0x0:0xd3c0d8bfb065f1aa
housing complex,Area Mendaki,Camp Induk PT. TODDOPULI IRIAN JAYA,"H425+5R, Masyeta, Kabupaten Teluk Bintuni, Papua Bar.","Kabupaten Teluk Bintuni, Papua Bar.",PAPUA BARAT,,Indonesia,,-1.449528,133.1095499,https://maps.google.com/?cid=0x0:0x7d1f7d7529d20e48
housing complex,Komplek perumahan,"Mouyeba, Moskona Utara","JX7X+73, Mestofu, Masyeta, Kabupaten Teluk Bintuni, Papua Bar.","Kabupaten Teluk Bintuni, Papua Bar.",PAPUA BARAT,,Indonesia,,-1.386864,132.997685,https://maps.google.com/?cid=0x0:0xd6490573709dc4f4
housing complex,housing complex,Kampung Mesna,"J5GF+CC, Meryeb, Merdey, Kabupaten Teluk Bintuni, Papua Bar.","Kabupaten Teluk Bintuni, Papua Bar.",PAPUA BARAT,,Indonesia,,-1.3739918,133.1735665,https://maps.google.com/?cid=0x0:0xe407751feeca75f4
housing complex,Perhimpunan Pengembang Perumahan,KAMPUNG MOSUM,"JX6V+G5M, Mestofu, Masyeta, Kabupaten Teluk Bintuni, Papua Bar.","Kabupaten Teluk Bintuni, Papua Bar.",PAPUA BARAT,,Indonesia,,-1.3886605,132.9929345,https://maps.google.com/?cid=0x0:0x603625c4c6ad80cd
housing complex,Kantor Hubungan Masyarakat,Kantor Distrik Dataran Isim,"CVM9+9XV, Isim, Dataran Isim, Kabupaten Manokwari, Papua Bar. 98355","Isim, Dataran Isim, Kabupaten Manokwari",PAPUA BARAT,98355.0,Indonesia,,-1.5665186,133.8699361,https://maps.google.com/?cid=0x0:0x1d52b24bf16bfa06
housing complex,Kantor Pemerintah,Dataran Isim,"9V88+36, Menci, Distrik Dataran Beimes, Kabupaten Teluk Bintuni, Papua Bar.","Kabupaten Teluk Bintuni, Papua Bar.",PAPUA BARAT,,Indonesia,,-1.634777,133.865501,https://maps.google.com/?cid=0x0:0x92d045cbf9cbba8b
housing complex,Balai masyarakat,Desa Horna,"9MM6+W68, Horna, Distrik Dataran Beimes, Kabupaten Teluk Bintuni, Papua Bar.","Kabupaten Teluk Bintuni, Papua Bar.",PAPUA BARAT,,Indonesia,,-1.6152004,133.6605719,https://maps.google.com/?cid=0x0:0x64b42d55af592552
housing complex,housing complex,Distrik Fafurwar,"Kabupaten Teluk Bintuni, Papua Bar.","Kabupaten Teluk Bintuni, Papua Bar.",PAPUA BARAT,,Indonesia,,-2.9160631,133.6759049,https://maps.google.com/?cid=0x0:0x78e970d7052f06c0
housing complex,housing complex,Distrik Kaitaro,"Kabupaten Teluk Bintuni, Papua Bar.","Kabupaten Teluk Bintuni, Papua Bar.",PAPUA BARAT,,Indonesia,,-2.7432339,133.7496581,https://maps.google.com/?cid=0x0:0x18a3c86c44b96f44
housing complex,Pembangunan Perumahan,Kampung kaitaro,"7P4X+PV3, Warganusa, Distrik Kaitaro, Kabupaten Teluk Bintuni, Papua Bar.","Kabupaten Teluk Bintuni, Papua Bar.",PAPUA BARAT,,Indonesia,,-2.7432339,133.7496581,https://maps.google.com/?cid=0x0:0x9dc29092424b9ab0
housing complex,Komplek perumahan,Erigara,"Teluk Bintuni, Atas District, Kaimana Regency, West Papua","Kabupaten Kaimana, Papua Bar.",PAPUA BARAT,,Indonesia,,-2.9012395,133.9349008,https://maps.google.com/?cid=0x0:0x1686733590fbb64b
housing complex,Perhimpunan Pengembang Perumahan,Kampung Tugarama,"7P4X+PV3, Warganusa, Distrik Kaitaro, Kabupaten Teluk Bintuni, Papua Bar. 98363","Warganusa, Distrik Kaitaro, Kabupaten Teluk Bintuni",PAPUA BARAT,98363.0,Indonesia,,-2.7432339,133.7496581,https://maps.google.com/?cid=0x0:0x1a651d130f8c40e8
housing complex,housing complex,SMK 2 jayapura,"6JMQ+VQ, Aroba, Distrik Aroba, Kabupaten Teluk Bintuni, Papua Bar.","Kabupaten Teluk Bintuni, Papua Bar.",PAPUA BARAT,,Indonesia,,-2.7646809,133.6389113,https://maps.google.com/?cid=0x0:0xce67829c689bff25
housing complex,Komplek perumahan,Wetuf,"4QHM+XG, Riendo, Teluk Arguni Atas, Kabupaten Kaimana, Papua Bar.","Kabupaten Kaimana, Papua Bar.",PAPUA BARAT,,Indonesia,,-2.8700625,133.7838125,https://maps.google.com/?cid=0x0:0x7df6f5910961ba2c
housing complex,Perhimpunan Pengembang Perumahan,Kampung Kawaf/ Suga Baru,"7Q5F+F54, Warganusa, Distrik Kaitaro, Kabupaten Teluk Bintuni, Papua Bar.","Kabupaten Teluk Bintuni, Papua Bar.",PAPUA BARAT,,Indonesia,,-2.741364,133.7729628,https://maps.google.com/?cid=0x0:0x707c0aff29b23002
housing complex,Komplek perumahan,Kampung Wagura,"9V69+W2, Wagura, Kuri, Kabupaten Teluk Bintuni, Papua Bar.","Kabupaten Teluk Bintuni, Papua Bar.",PAPUA BARAT,,Indonesia,,-2.6376875,133.8675625,https://maps.google.com/?cid=0x0:0x96181a9d337d3778
housing complex,Pembangunan Perumahan,WAGURA,"8WXC+QR, Wagura, Kuri, Kabupaten Teluk Bintuni, Papua Bar.","Kabupaten Teluk Bintuni, Papua Bar.",PAPUA BARAT,,Indonesia,,-2.650517,133.9220054,https://maps.google.com/?cid=0x0:0x5aa0bd1cd6a22310
housing complex,Pembangunan Perumahan,Kampung Awegro,"9VH3+8W, Wagura, Kuri, Kabupaten Teluk Bintuni, Papua Bar.","Kabupaten Teluk Bintuni, Papua Bar.",PAPUA BARAT,,Indonesia,,-2.6216615,133.8547635,https://maps.google.com/?cid=0x0:0x51cd231de27d660d
housing complex,Komplek perumahan,Dignofa,"4Q6P+R6X, Dignofa, Distrik Fafurwar, Kabupaten Kaimana, Papua Bar.","Kabupaten Kaimana, Papua Bar.",PAPUA BARAT,,Indonesia,,-2.8878941,133.7856245,https://maps.google.com/?cid=0x0:0x1ef063e8ebf47f4c
housing complex,Pembangunan Perumahan,DESAH WESWASA,"2W78+P2V, Weswasa, Tlk. Arguni, Kabupaten Kaimana, Papua Bar. 98653","Weswasa, Tlk. Arguni, Kabupaten Kaimana",PAPUA BARAT,98653.0,Indonesia,,-2.9856487,133.9150592,https://maps.google.com/?cid=0x0:0x10572f309a20d3ea
housing complex,housing complex,"Port Angeles, Washington 98363","Port Angeles, Washington, Amerika Serikat","Port Angeles, Washington, Amerika Serikat",PAPUA BARAT,,Indonesia,,48.0643594,-123.8115765,https://maps.google.com/?cid=0x0:0x68ccc2daedcd404f
housing complex,housing complex,Olympic Inn  Suites,"1510 E Front St, Port Angeles, WA 98362, Amerika Serikat","Port Angeles, WA",PAPUA BARAT,98362.0,Indonesia,13604524015.0,48.1088743,-123.406862,https://maps.google.com/?cid=0x0:0x6dedd29a21b7e283
housing complex,Kantor Pemerintah,Kampung kamundan dua,"3CXH+P79, Kamundan, Kec. Kokoda Utara, Kabupaten Sorong Selatan, Papua Bar. 98455","Kamundan, Kec. Kokoda Utara, Kabupaten Sorong Selatan",PAPUA BARAT,98455.0,Indonesia,,-1.9007247,132.4282484,https://maps.google.com/?cid=0x0:0xd2af8eae637702ed
housing complex,Perhimpunan Pengembang Perumahan,Kampung Benawa Dua,"XF7F+35M, Udagaga, Kec. Kokoda Utara, Kabupaten Sorong Selatan, Papua Bar. 98455","Udagaga, Kec. Kokoda Utara, Kabupaten Sorong Selatan",PAPUA BARAT,98455.0,Indonesia,,-2.0372979,132.4729292,https://maps.google.com/?cid=0x0:0x55d6f951fb2cb9d5
housing complex,Komplek perumahan,Pigo,"462P+JC, Ambumi, Kuri, Kabupaten Teluk Wondama, Papua Bar.","Kabupaten Teluk Wondama, Papua Bar.",PAPUA BARAT,,Indonesia,,-2.7648807,134.0474656,https://maps.google.com/?cid=0x0:0x20d2362054da660d
housing complex,housing complex,Papua Bar. 98363,"Kabupaten Teluk Bintuni, Papua Bar.","Kabupaten Teluk Bintuni, Papua Bar.",PAPUA BARAT,,Indonesia,,-2.6488329,133.7142484,https://maps.google.com/?cid=0x0:0x1d8cc8ce6f581e70
housing complex,Pembangunan Perumahan,WAGURA,"8WXC+QR, Wagura, Kuri, Kabupaten Teluk Bintuni, Papua Bar.","Kabupaten Teluk Bintuni, Papua Bar.",PAPUA BARAT,,Indonesia,,-2.650517,133.9220054,https://maps.google.com/?cid=0x0:0x5aa0bd1cd6a22310
housing complex,Komplek perumahan,Kampung Wagura,"9V69+W2, Wagura, Kuri, Kabupaten Teluk Bintuni, Papua Bar.","Kabupaten Teluk Bintuni, Papua Bar.",PAPUA BARAT,,Indonesia,,-2.6376875,133.8675625,https://maps.google.com/?cid=0x0:0x96181a9d337d3778
housing complex,Pembangunan Perumahan,Kampung Awegro,"9VH3+8W, Wagura, Kuri, Kabupaten Teluk Bintuni, Papua Bar.","Kabupaten Teluk Bintuni, Papua Bar.",PAPUA BARAT,,Indonesia,,-2.6216615,133.8547635,https://maps.google.com/?cid=0x0:0x51cd231de27d660d
housing complex,Apartemen berlayanan,Apartment TreePark City,"Jl. MH. Thamrin No.7, Cikokol, Kec. Tangerang, Kota Tangerang, Banten 15117","Cikokol, Kec. Tangerang, Kota Tangerang",PAPUA BARAT,15117.0,Indonesia,2129542000.0,-6.2141515,106.6311254,https://maps.google.com/?cid=0x0:0x2b39ae47232fe847
housing complex,Kompleks Apartemen,Apartemen Sky House BSD - Tower Leonie,"Jalan BSD Raya Utama CBD 55 - Lot III, 1, RW.5, Sampora, Kec. Cisauk, Kabupaten Tangerang, Banten 15345","1, RW.5, Sampora, Kec. Cisauk, Kabupaten Tangerang",PAPUA BARAT,15345.0,Indonesia,2150209988.0,-6.3040009,106.649908,https://maps.google.com/?cid=0x0:0x3d5b8e051620897c
housing complex,Komplek perumahan,Perum 1 Karawaci,"kode pis, Jl. Tongkol III kel No.114, RT.006/RW.002, Karawaci Baru, Kec. Karawaci, Kota Tangerang, Banten 15116","Jl. Tongkol III kel No.114, RT.006/RW.002, Karawaci Baru, Kec. Karawaci, Kota Tangerang",PAPUA BARAT,15116.0,Indonesia,,-6.2040577,106.6146471,https://maps.google.com/?cid=0x0:0x7e80c04d11c4ae91
housing complex,housing complex,Distrik Manimeri,"Kabupaten Teluk Bintuni, Papua Bar.","Kabupaten Teluk Bintuni, Papua Bar.",PAPUA BARAT,,Indonesia,,-2.0348077,133.7298305,https://maps.google.com/?cid=0x0:0xfcc9735ace17ac7
housing complex,Komplek perumahan,Kompleks Manado,"WJ2X+2FV, Tuasai, Distrik Bintuni, Kabupaten Teluk Bintuni, Papua Bar. 98364","Tuasai, Distrik Bintuni, Kabupaten Teluk Bintuni",PAPUA BARAT,98364.0,Indonesia,,-2.0998868,133.6486759,https://maps.google.com/?cid=0x0:0xc250420825d52a06
housing complex,housing complex,Hematang Family,"XPC7+6W9, Bumi Saniari, Distrik Manimeri, Kabupaten Teluk Bintuni, Papua Bar. 98364","Bumi Saniari, Distrik Manimeri, Kabupaten Teluk Bintuni",PAPUA BARAT,98364.0,Indonesia,,-2.0294589,133.714844,https://maps.google.com/?cid=0x0:0xcf232ed588e9b698
housing complex,housing complex,Kompleks Akom demes waraitama,"WM9Q+853, Waraitama, Distrik Manimeri, Kabupaten Teluk Bintuni, Papua Bar. 98364","Waraitama, Distrik Manimeri, Kabupaten Teluk Bintuni",PAPUA BARAT,98364.0,Indonesia,,-2.0817259,133.6879307,https://maps.google.com/?cid=0x0:0x7f6ddc9935bf8c91
housing complex,Komplek perumahan,RUMAH KOMANDO,"WPXC+5RV, Bumi Saniari, Distrik Manimeri, Kabupaten Teluk Bintuni, Papua Bar. 98364","Bumi Saniari, Distrik Manimeri, Kabupaten Teluk Bintuni",PAPUA BARAT,98364.0,Indonesia,,-2.052015,133.7220494,https://maps.google.com/?cid=0x0:0xa78276d52a364d5c
housing complex,Kompleks Kondominium,Kampung IMRIJ,"VJV6+5HH, Sp V. Manimery/ Argo Sigemeray, Distrik Bintuni, Kabupaten Teluk Bintuni, Papua Bar. 98364","Sp V. Manimery/ Argo Sigemeray, Distrik Bintuni, Kabupaten Teluk Bintuni",PAPUA BARAT,98364.0,Indonesia,,-2.1070589,133.611483,https://maps.google.com/?cid=0x0:0xd81d67ca988feb70
housing complex,Perumahan,Heri,"XP3G+JPG, Bumi Saniari, Distrik Manimeri, Kabupaten Teluk Bintuni, Papua Bar. 98364","Bumi Saniari, Distrik Manimeri, Kabupaten Teluk Bintuni",PAPUA BARAT,98364.0,Indonesia,82398401112.0,-2.046177,133.727114,https://maps.google.com/?cid=0x0:0x26990eca272876eb
housing complex,housing complex,Pak Kaswan,"XP2G+2CG SP 3 Jlr 5 Timur, Bumi Saniari, Distrik Manimeri, Kabupaten Teluk Bintuni, Papua Bar. 98364","Bumi Saniari, Distrik Manimeri, Kabupaten Teluk Bintuni",PAPUA BARAT,98364.0,Indonesia,,-2.0499313,133.7260674,https://maps.google.com/?cid=0x0:0x66a6dd967975d88f
housing complex,Komplek perumahan,Rumahnya fajri,"XP2H+8G, Bumi Saniari, Distrik Manimeri, Kabupaten Teluk Bintuni, Papua Bar.","Kabupaten Teluk Bintuni, Papua Bar.",PAPUA BARAT,,Indonesia,,-2.0492283,133.7288465,https://maps.google.com/?cid=0x0:0xbbab795f3705f9bb
housing complex,Pembangunan Perumahan,RUM SENEMI II,"XP85+278, Kampung Muturi, Distrik Manimeri, Kabupaten Teluk Bintuni, Papua Bar. 98364","Kampung Muturi, Distrik Manimeri, Kabupaten Teluk Bintuni",PAPUA BARAT,98364.0,Indonesia,,-2.0349516,133.7082019,https://maps.google.com/?cid=0x0:0xe955041a2db228d3
housing complex,Pembangunan Perumahan,Rumah Evan,"WM8J+XG, Waraitama, Distrik Manimeri, Kabupaten Teluk Bintuni, Papua Bar.","Kabupaten Teluk Bintuni, Papua Bar.",PAPUA BARAT,,Indonesia,,-2.08258,133.681327,https://maps.google.com/?cid=0x0:0x8810a7b394006d5b
housing complex,Komplek perumahan,Komplex ugdohop horna,"WJ3X+CF, Tuasai, Distrik Bintuni, Kabupaten Teluk Bintuni, Papua Bar.","Kabupaten Teluk Bintuni, Papua Bar.",PAPUA BARAT,,Indonesia,,-2.0963852,133.648627,https://maps.google.com/?cid=0x0:0xc8ea605c90d54ebb
housing complex,Komplek perumahan,Bpk Kenri,"WM8H+3W, Waraitama, Distrik Manimeri, Kabupaten Teluk Bintuni, Papua Bar.","Kabupaten Teluk Bintuni, Papua Bar.",PAPUA BARAT,,Indonesia,,-2.0848396,133.6797611,https://maps.google.com/?cid=0x0:0x360ccc2b854aef30
housing complex,housing complex,Perumahan Kampung Korano Jaya,"WPGG+W74 Sp 2, jalur 4, Korano Jaya, Distrik Manimeri, Kabupaten Teluk Bintuni, Papua Bar. 98364","jalur 4, Korano Jaya, Distrik Manimeri, Kabupaten Teluk Bintuni",PAPUA BARAT,98364.0,Indonesia,,-2.0727485,133.725713,https://maps.google.com/?cid=0x0:0x62f113a09a1066d
housing complex,housing complex,Masyeta,"Masyeta, Kabupaten Teluk Bintuni, Papua Bar.","Kabupaten Teluk Bintuni, Papua Bar.",PAPUA BARAT,,Indonesia,,-1.479691,133.1359542,https://maps.google.com/?cid=0x0:0xd119356286bbe217
housing complex,housing complex,Masyeta,"Kabupaten Teluk Bintuni, Papua Bar.","Kabupaten Teluk Bintuni, Papua Bar.",PAPUA BARAT,,Indonesia,,-1.5130947,132.941698,https://maps.google.com/?cid=0x0:0x934a864707b4525e
housing complex,Komplek perumahan,Rumah Rizki Aulia,"MX6M+7G4, Mesna, Distrik Moskona Timur, Kabupaten Teluk Bintuni, Papua Bar. 98373","Mesna, Distrik Moskona Timur, Kabupaten Teluk Bintuni",PAPUA BARAT,98373.0,Indonesia,,-1.3393621,132.9838143,https://maps.google.com/?cid=0x0:0xf6c360ab043784eb
housing complex,housing complex,Merdey,"Merdey, Kabupaten Teluk Bintuni, Papua Bar.","Kabupaten Teluk Bintuni, Papua Bar.",PAPUA BARAT,,Indonesia,,-1.5754791,133.3101484,https://maps.google.com/?cid=0x0:0x5d88d2e6117bad19
housing complex,housing complex,Merdey,"Kabupaten Teluk Bintuni, Papua Bar.","Kabupaten Teluk Bintuni, Papua Bar.",PAPUA BARAT,,Indonesia,,-1.4189158,133.2908233,https://maps.google.com/?cid=0x0:0x7183c941829ec812
housing complex,Komplek perumahan,Alif home,"M57F+HV4, Morombuy, Merdey, Kabupaten Teluk Bintuni, Papua Bar. 98373","Morombuy, Merdey, Kabupaten Teluk Bintuni",PAPUA BARAT,98373.0,Indonesia,,-1.3361154,133.1747162,https://maps.google.com/?cid=0x0:0x21b7a9e8aadd8d8a
housing complex,housing complex,ROYAL EXCLUSIVE MARES 3,"88, Jl. Margonda No.608, Kemiri Muka, Kecamatan Beji, Kota Depok, Jawa Barat 16423","Jl. Margonda No.608, Kemiri Muka, Kecamatan Beji, Kota Depok",PAPUA BARAT,16423.0,Indonesia,87888342518.0,-6.3869805,106.8268826,https://maps.google.com/?cid=0x0:0x3487b11ed58e0ae1
housing complex,housing complex,favehotel Margonda - Depok,"Jl. Margonda, Kemiri Muka, Kecamatan Beji, Kota Depok, Jawa Barat 16423","Kemiri Muka, Kecamatan Beji, Kota Depok",PAPUA BARAT,16423.0,Indonesia,2129301400.0,-6.3880242,106.827413,https://maps.google.com/?cid=0x0:0xe9cb66f39204f122
housing complex,housing complex,Margonda Residence 3 By Queen Apartment,"Jl. Margonda No.Kav 88, Kemiri Muka, Kecamatan Beji, Kota Depok, Jawa Barat 16423","Kemiri Muka, Kecamatan Beji, Kota Depok",PAPUA BARAT,16423.0,Indonesia,82234533332.0,-6.3866552,106.8263041,https://maps.google.com/?cid=0x0:0x885d902149898ec1
housing complex,housing complex,Hotel Santika Depok,"Jl. Margonda No.88, Kemiri Muka, Kecamatan Beji, Kota Depok, Jawa Barat 16423","Kemiri Muka, Kecamatan Beji, Kota Depok",PAPUA BARAT,16423.0,Indonesia,2177219291.0,-6.386552,106.826038,https://maps.google.com/?cid=0x0:0xe3e5e5e9008001bd
housing complex,housing complex,RedLiving Apartemen Saladdin Mansion,"Jl. Margonda No.36, Depok, Kec. Pancoran Mas, Kota Depok, Jawa Barat 16431","Depok, Kec. Pancoran Mas, Kota Depok",PAPUA BARAT,16431.0,Indonesia,895417300072.0,-6.3941149,106.8257495,https://maps.google.com/?cid=0x0:0xddbe24e08a9a07bf
housing complex,housing complex,Savero Hotel Depok,"Jl. Margonda No.230a, Kemiri Muka, Kecamatan Beji, Kota Depok, Jawa Barat 16423","Kemiri Muka, Kecamatan Beji, Kota Depok",PAPUA BARAT,16423.0,Indonesia,2177802300.0,-6.3820696,106.8302596,https://maps.google.com/?cid=0x0:0xb1344253f27a9dbf
housing complex,housing complex,Sifaana Hotel,"Jl. Margonda No.246, Kemiri Muka, Kecamatan Beji, Kota Depok, Jawa Barat 16423","Kemiri Muka, Kecamatan Beji, Kota Depok",PAPUA BARAT,16423.0,Indonesia,85607728813.0,-6.3806515,106.8308426,https://maps.google.com/?cid=0x0:0x950ff72c60f85ff5
housing complex,housing complex,OYO 3194 Margonda Executive,"88, Jl. Margonda No.Kav. 88, Kemiri Muka, Kecamatan Beji, Kota Depok, Jawa Barat 16423","Jl. Margonda No.Kav. 88, Kemiri Muka, Kecamatan Beji, Kota Depok",PAPUA BARAT,16423.0,Indonesia,2129707600.0,-6.386441,106.8263665,https://maps.google.com/?cid=0x0:0x1e72d93acd88dd0
housing complex,housing complex,OYO 266 Margonda Residence 5,"Jalan Swadaya No.1, Kemiri Muka, Beji, Kemiri Muka, Beji, Jawa, Barat, Kota Depok, Jawa Barat 16423","Kemiri Muka, Beji, Kemiri Muka, Beji, Jawa, Barat, Kota Depok",PAPUA BARAT,16423.0,Indonesia,2129707601.0,-6.3857454,106.8252841,https://maps.google.com/?cid=0x0:0x382091ec13bf46c4
housing complex,Museum,Taman Mini Indonesia Indah,"Jl. Taman Mini Indonesia Indah, Ceger, Kec. Cipayung, Kota Jakarta Timur, Daerah Khusus Ibukota Jakarta 13820","Ceger, Kec. Cipayung, Kota Jakarta Timur",PAPUA BARAT,13820.0,Indonesia,8041789789.0,-6.3020386,106.8898924,https://maps.google.com/?cid=0x0:0x73127b9ecf2da0c
housing complex,Stasiun Kereta,Depok Baru,"Depok, Kec. Pancoran Mas, Kota Depok, Jawa Barat","Kota Depok, Jawa Barat",PAPUA BARAT,,Indonesia,,-6.39113,106.82169,https://maps.google.com/?cid=0x0:0x5f3db353a5488e31
housing complex,housing complex,Moskona Bar.,"Kabupaten Teluk Bintuni, Papua Bar.","Kabupaten Teluk Bintuni, Papua Bar.",PAPUA BARAT,,Indonesia,,-1.7525507,132.6293446,https://maps.google.com/?cid=0x0:0x1103cd5643d830c8
housing complex,Sekolah Dasar,Kantor distrik,"6JWH+XPH, Istikem, Moskona Bar., Kabupaten Teluk Bintuni, Papua Bar.","Kabupaten Teluk Bintuni, Papua Bar.",PAPUA BARAT,,Indonesia,,-1.7525507,132.6293446,https://maps.google.com/?cid=0x0:0x13fa9166ff7152c3
housing complex,Tempat Istirahat,DIVISI C ESTATE KASUARI,"5FXW+WF, Istikem, Moskona Bar., Kabupaten Teluk Bintuni, Papua Bar.","Kabupaten Teluk Bintuni, Papua Bar.",PAPUA BARAT,,Indonesia,,-1.8001555,132.4962675,https://maps.google.com/?cid=0x0:0xc8afefdd6006a
housing complex,housing complex,Barak Divisi A PMP,"5F8G+PW2, Mukamat, Kais, Kabupaten Sorong Selatan, Papua Bar.","Kabupaten Sorong Selatan, Papua Bar.",PAPUA BARAT,,Indonesia,,-1.8332378,132.4772698,https://maps.google.com/?cid=0x0:0xc68ce898cc14c10e
housing complex,housing complex,Distrik Moskona Selatan,"Kabupaten Teluk Bintuni, Papua Bar.","Kabupaten Teluk Bintuni, Papua Bar.",PAPUA BARAT,,Indonesia,,-1.6286738,132.9546549,https://maps.google.com/?cid=0x0:0xef5ad832b0358efc
housing complex,Perhimpunan Pengembang Perumahan,Kmp KALI HITAM,"52GX+PMJ, Jln muara, kampung kali hitam, Kec. Meyado, Kabupaten Teluk Bintuni, Papua Bar. 98365","Jln muara, kampung kali hitam, Kec. Meyado, Kabupaten Teluk Bintuni",PAPUA BARAT,98365.0,Indonesia,,-1.8231739,133.0491501,https://maps.google.com/?cid=0x0:0x9dbe49744ecc058
housing complex,Komplek perumahan,Mes Petugas PKM Meyado,"35V3+P9, Ekam, Tomu, Kabupaten Teluk Bintuni, Papua Bar.","Kabupaten Teluk Bintuni, Papua Bar.",PAPUA BARAT,,Indonesia,,-1.9056357,133.1534936,https://maps.google.com/?cid=0x0:0xe2e0f3675fa206b1
housing complex,Komplek perumahan,Keluarga moskona,"VGV8+7P, Bintuni Bar., Distrik Bintuni, Kabupaten Teluk Bintuni, Papua Bar.","Kabupaten Teluk Bintuni, Papua Bar.",PAPUA BARAT,,Indonesia,,-2.106866,133.516867,https://maps.google.com/?cid=0x0:0x6b84d32080374e39
housing complex,Komplek perumahan,Rumah pak berbadus,"2, Meyado, Kec. Meyado, Kabupaten Teluk Bintuni, Papua Bar.","Kabupaten Teluk Bintuni, Papua Bar.",PAPUA BARAT,,Indonesia,,-1.6379564,133.1165621,https://maps.google.com/?cid=0x0:0xd4c02639d43e5363
housing complex,housing complex,Kampung Sumuy,"G4F5+8J, Masyeta, Kabupaten Teluk Bintuni, Papua Bar.","Kabupaten Teluk Bintuni, Papua Bar.",PAPUA BARAT,,Indonesia,,-1.476643,133.1090128,https://maps.google.com/?cid=0x0:0xc66e01b19d3b95c6
housing complex,Komplek perumahan,Mess Meyado,"34RX+89W, Ekam, Kec. Meyado, Kabupaten Teluk Bintuni, Papua Bar.","Kabupaten Teluk Bintuni, Papua Bar.",PAPUA BARAT,,Indonesia,,-1.9091424,133.148456,https://maps.google.com/?cid=0x0:0xa6322b75ddfc0d10
housing complex,Komplek perumahan,DISTRIK MOSKONA TIUR,"38VH+PQG, Kp. Baru, Distrik Aranday, Kabupaten Teluk Bintuni, Papua Bar.","Kabupaten Teluk Bintuni, Papua Bar.",PAPUA BARAT,,Indonesia,,-1.9056848,133.329466,https://maps.google.com/?cid=0x0:0x36dfc0ebf9dc87
housing complex,housing complex,Distrik Moskona Timur,"Kabupaten Teluk Bintuni, Papua Bar.","Kabupaten Teluk Bintuni, Papua Bar.",PAPUA BARAT,,Indonesia,,-1.311813,132.9806087,https://maps.google.com/?cid=0x0:0x97750e766a777e76
housing complex,Komplek perumahan,"Mouyeba, Moskona Utara","JX7X+73, Mestofu, Masyeta, Kabupaten Teluk Bintuni, Papua Bar.","Kabupaten Teluk Bintuni, Papua Bar.",PAPUA BARAT,,Indonesia,,-1.386864,132.997685,https://maps.google.com/?cid=0x0:0xd6490573709dc4f4
housing complex,Pembangunan Perumahan,DISTRIK MOSKONA TIMUR,"J59F+RFW, Igomu, Merdey, Kabupaten Teluk Bintuni, Papua Bar.","Kabupaten Teluk Bintuni, Papua Bar.",PAPUA BARAT,,Indonesia,,-1.3803796,133.1737144,https://maps.google.com/?cid=0x0:0x35eb12ae13175e99
housing complex,Komplek perumahan,DISTRIK MOSKONA TIUR,"J57F+HJ8, MOSKONA TIMU ,ESNA, Meryeb, Kabupaten Teluk Bintuni, Papua Bar.","Kabupaten Teluk Bintuni, Papua Bar.",PAPUA BARAT,,Indonesia,,-1.3860856,133.174091,https://maps.google.com/?cid=0x0:0x22a018c1b4d816a3
housing complex,Komplek perumahan,Irian Jaya,"PV27+959, Merestim, Moskona Utara, Kabupaten Tambrauw, Papua Bar. 98373","Merestim, Moskona Utara, Kabupaten Tambrauw",PAPUA BARAT,98373.0,Indonesia,,-1.2990807,132.8629925,https://maps.google.com/?cid=0x0:0x76b771eabf288636
housing complex,Komplek perumahan,Rumah Rizki Aulia,"MX6M+7G4, Mesna, Distrik Moskona Timur, Kabupaten Teluk Bintuni, Papua Bar. 98373","Mesna, Distrik Moskona Timur, Kabupaten Teluk Bintuni",PAPUA BARAT,98373.0,Indonesia,,-1.3393621,132.9838143,https://maps.google.com/?cid=0x0:0xf6c360ab043784eb
housing complex,Komplek perumahan,DISTRIK MOSKONA TIUR,"38VH+PQG, Kp. Baru, Distrik Aranday, Kabupaten Teluk Bintuni, Papua Bar.","Kabupaten Teluk Bintuni, Papua Bar.",PAPUA BARAT,,Indonesia,,-1.9056848,133.329466,https://maps.google.com/?cid=0x0:0x36dfc0ebf9dc87
housing complex,Komplek perumahan,Keluarga moskona,"VGV8+7P, Bintuni Bar., Distrik Bintuni, Kabupaten Teluk Bintuni, Papua Bar.","Kabupaten Teluk Bintuni, Papua Bar.",PAPUA BARAT,,Indonesia,,-2.106866,133.516867,https://maps.google.com/?cid=0x0:0x6b84d32080374e39
housing complex,Komplek perumahan,Alif home,"M57F+HV4, Morombuy, Merdey, Kabupaten Teluk Bintuni, Papua Bar. 98373","Morombuy, Merdey, Kabupaten Teluk Bintuni",PAPUA BARAT,98373.0,Indonesia,,-1.3361154,133.1747162,https://maps.google.com/?cid=0x0:0x21b7a9e8aadd8d8a
housing complex,Komplek perumahan,Kampung mosum,"MPWG+RVV, Moyeba, Moskona Utara, Kabupaten Teluk Bintuni, Papua Bar.","Kabupaten Teluk Bintuni, Papua Bar.",PAPUA BARAT,,Indonesia,,-1.302887,132.7271587,https://maps.google.com/?cid=0x0:0xc146804a9b0bb626
housing complex,housing complex,Moskona Utara,"Kabupaten Teluk Bintuni, Papua Bar.","Kabupaten Teluk Bintuni, Papua Bar.",PAPUA BARAT,,Indonesia,,-1.368612,132.7270105,https://maps.google.com/?cid=0x0:0x53c35f8f415bb69b
housing complex,Komplek perumahan,Keluarga moskona,"VGV8+7P, Bintuni Bar., Distrik Bintuni, Kabupaten Teluk Bintuni, Papua Bar.","Kabupaten Teluk Bintuni, Papua Bar.",PAPUA BARAT,,Indonesia,,-2.106866,133.516867,https://maps.google.com/?cid=0x0:0x6b84d32080374e39
housing complex,Komplek perumahan,"Mouyeba, Moskona Utara","JX7X+73, Mestofu, Masyeta, Kabupaten Teluk Bintuni, Papua Bar.","Kabupaten Teluk Bintuni, Papua Bar.",PAPUA BARAT,,Indonesia,,-1.386864,132.997685,https://maps.google.com/?cid=0x0:0xd6490573709dc4f4
housing complex,Perhimpunan Pengembang Perumahan,KAMPUNG MOSUM,"JX6V+G5M, Mestofu, Masyeta, Kabupaten Teluk Bintuni, Papua Bar.","Kabupaten Teluk Bintuni, Papua Bar.",PAPUA BARAT,,Indonesia,,-1.3886605,132.9929345,https://maps.google.com/?cid=0x0:0x603625c4c6ad80cd
housing complex,Pembangunan Perumahan,Kp. Mufas,"PM36+M94, Aisa, Distrik Aifat Timur, Kabupaten Maybrat, Papua Bar. 98463","Aisa, Distrik Aifat Timur, Kabupaten Maybrat",PAPUA BARAT,98463.0,Indonesia,,-1.2958969,132.6610312,https://maps.google.com/?cid=0x0:0xa1f362045b160b1b
housing complex,Pembangunan Perumahan,Asiaf Zaman,"HHX2+2Q, Fuog, Distrik Aifat Selatan, Kabupaten Maybrat, Papua Bar.","Kabupaten Maybrat, Papua Bar.",PAPUA BARAT,,Indonesia,,-1.4024056,132.5518889,https://maps.google.com/?cid=0x0:0x4fac9d95fd14dbc8
housing complex,Pembangunan Perumahan,KAMPUNG SAMERAKATOR,"JHQV+VPP, KOMPLEX FATEM ISYORANA, TAHSIMARA, Aitrem, Distrik Aifat Timur, Kabupaten Maybrat, Papua Bar. 98463","KOMPLEX FATEM ISYORANA, TAHSIMARA, Aitrem, Distrik Aifat Timur, Kabupaten Maybrat",PAPUA BARAT,98463.0,Indonesia,,-1.3602867,132.5943283,https://maps.google.com/?cid=0x0:0xceea199ce0dab7e
housing complex,housing complex,Saengga,"Kec. Sumuri, Kabupaten Teluk Bintuni, Papua Bar.","Kabupaten Teluk Bintuni, Papua Bar.",PAPUA BARAT,,Indonesia,,-2.5122975,133.1165621,https://maps.google.com/?cid=0x0:0xe50ca1b18a711d41
housing complex,Komplek perumahan,Kompleks Cilaka 12,"G4H2+R8C, Saengga, Kec. Sumuri, Kabupaten Teluk Bintuni, Papua Bar. 98363","Saengga, Kec. Sumuri, Kabupaten Teluk Bintuni",PAPUA BARAT,98363.0,Indonesia,,-2.4704334,133.1007796,https://maps.google.com/?cid=0x0:0x4afa6568cecbb0ef
housing complex,housing complex,Ruma Hendrik,"G4J2+6W, Saengga, Kec. Sumuri, Kabupaten Teluk Bintuni, Papua Bar.","Kabupaten Teluk Bintuni, Papua Bar.",PAPUA BARAT,,Indonesia,,-2.4693753,133.102256,https://maps.google.com/?cid=0x0:0xd18ae50b3e8d3b3e
housing complex,housing complex,Komplex Suci Lorong Gelap,"G4H3+7VF, Saengga, Kec. Sumuri, Kabupaten Teluk Bintuni, Papua Bar.","Kabupaten Teluk Bintuni, Papua Bar.",PAPUA BARAT,,Indonesia,,-2.4718246,133.1046619,https://maps.google.com/?cid=0x0:0x77f2e4d59b84fafe
housing complex,Komplek perumahan,Kompex kuburan,"G4H2+R8C, Saengga, Kec. Sumuri, Kabupaten Teluk Bintuni, Papua Bar. 98363","Saengga, Kec. Sumuri, Kabupaten Teluk Bintuni",PAPUA BARAT,98363.0,Indonesia,,-2.471651,133.101104,https://maps.google.com/?cid=0x0:0x8c7e7604d2eca7a7
housing complex,Komplek perumahan,Komplex lorong kubur,"G4H2+R8C, Saengga, Kec. Sumuri, Kabupaten Teluk Bintuni, Papua Bar. 98363","Saengga, Kec. Sumuri, Kabupaten Teluk Bintuni",PAPUA BARAT,98363.0,Indonesia,,-2.4704308,133.1007829,https://maps.google.com/?cid=0x0:0x31fd768071b028e6
housing complex,Komplek perumahan,Rhi Home,"F763+V8H, Tofoi, Kec. Sumuri, Kabupaten Teluk Bintuni, Papua Bar. 98363","Tofoi, Kec. Sumuri, Kabupaten Teluk Bintuni",PAPUA BARAT,98363.0,Indonesia,,-2.5393925,133.2517841,https://maps.google.com/?cid=0x0:0x9f83a7dd1125048d
housing complex,Komplek perumahan,SAENGGA SUMURI,"G4H2+WCM, Saengga, Kec. Sumuri, Kabupaten Teluk Bintuni, Papua Bar.","Kabupaten Teluk Bintuni, Papua Bar.",PAPUA BARAT,,Indonesia,,-2.4701538,133.1010342,https://maps.google.com/?cid=0x0:0x7823a304c165d9ca
housing complex,Komplek perumahan,Rumah Genset,"G4M3+5R, Saengga, Kec. Sumuri, Kabupaten Teluk Bintuni, Papua Bar.","Kabupaten Teluk Bintuni, Papua Bar.",PAPUA BARAT,,Indonesia,,-2.4671196,133.1044867,https://maps.google.com/?cid=0x0:0xe75d92e8eb9f11f4
housing complex,Komplek perumahan,UCC Early Work,"G5Q2+C74, Tanah Merah, Kec. Sumuri, Kabupaten Teluk Bintuni, Papua Bar. 98363","Tanah Merah, Kec. Sumuri, Kabupaten Teluk Bintuni",PAPUA BARAT,98363.0,Indonesia,,-2.461476,133.1507094,https://maps.google.com/?cid=0x0:0xbd457bfcab99946a
housing complex,Komplek perumahan,UCC Early Camp - Petrosea,"G5R2+G8H, Tanah Merah, Kec. Sumuri, Kabupaten Teluk Bintuni, Papua Bar. 98363","Tanah Merah, Kec. Sumuri, Kabupaten Teluk Bintuni",PAPUA BARAT,98363.0,Indonesia,,-2.4586906,133.1508663,https://maps.google.com/?cid=0x0:0x9e26b9a9f902b071
housing complex,Komplek perumahan,Camp carlie,"C6Q2+RQ4, Tofoi, Kec. Sumuri, Kabupaten Teluk Bintuni, Papua Bar. 98363","Tofoi, Kec. Sumuri, Kabupaten Teluk Bintuni",PAPUA BARAT,98363.0,Indonesia,,-2.560495,133.2019667,https://maps.google.com/?cid=0x0:0x9859512184c46f5a
housing complex,Komplek perumahan,Kampung Tanah Merah Baru,"G5XV+WJG, Tanah Merah, Kec. Sumuri, Kabupaten Teluk Bintuni, Papua Bar.","Kabupaten Teluk Bintuni, Papua Bar.",PAPUA BARAT,,Indonesia,,-2.4501903,133.194086,https://maps.google.com/?cid=0x0:0x758dea9306994f63
housing complex,Komplek perumahan,Muhammad Jamaludin,"C672+GV, Materabu Jaya, Kec. Sumuri, Kabupaten Teluk Bintuni, Papua Bar.","Kabupaten Teluk Bintuni, Papua Bar.",PAPUA BARAT,,Indonesia,81344160108.0,-2.586188,133.2020688,https://maps.google.com/?cid=0x0:0x1205a1ee02849810
housing complex,housing complex,Distrik Tembuni,"Kabupaten Teluk Bintuni, Papua Bar.","Kabupaten Teluk Bintuni, Papua Bar.",PAPUA BARAT,,Indonesia,,-1.9799814,133.4065009,https://maps.google.com/?cid=0x0:0xdf538382e229efa6
housing complex,Perhimpunan Pengembang Perumahan,Kampung Kohoin km 7 Bintuni,"WF9F+Q47, Wesiri, Distrik Bintuni, Kabupaten Teluk Bintuni, Papua Bar. 98364","Wesiri, Distrik Bintuni, Kabupaten Teluk Bintuni",PAPUA BARAT,98364.0,Indonesia,,-2.0805997,133.4728107,https://maps.google.com/?cid=0x0:0x88458a697671c1c4
housing complex,Komplek perumahan,KOMPLEX ANAK KOS,"Bintuni Tim., Distrik Bintuni, Kabupaten Teluk Bintuni, Papua Bar. 98364","Distrik Bintuni, Kabupaten Teluk Bintuni",PAPUA BARAT,98364.0,Indonesia,,-2.1203593,133.536599,https://maps.google.com/?cid=0x0:0x514516f7e389a490
housing complex,Komplek perumahan,NICK RUMAYOMI,"38VH+PQG BINA DESA SMA YPK, Jalan Raya, Kp. Baru, Distrik Aranday, Kabupaten Teluk Bintuni, Papua Bar.","Kabupaten Teluk Bintuni, Papua Bar.",PAPUA BARAT,,Indonesia,,-1.9056848,133.329466,https://maps.google.com/?cid=0x0:0xf1ba384c9822e100
housing complex,housing complex,asmi home,"VGHQ+727, Bintuni Tim., Distrik Bintuni, Kabupaten Teluk Bintuni, Papua Bar. 98364","Bintuni Tim., Distrik Bintuni, Kabupaten Teluk Bintuni",PAPUA BARAT,98364.0,Indonesia,,-2.1225577,133.5376713,https://maps.google.com/?cid=0x0:0x9bbda22fa8f246b1
housing complex,Komplek perumahan,Kampung Mamuranu,"38VH+PQG, Kp. Baru, Distrik Aranday, Kabupaten Teluk Bintuni, Papua Bar.","Kabupaten Teluk Bintuni, Papua Bar.",PAPUA BARAT,,Indonesia,,-1.9056848,133.329466,https://maps.google.com/?cid=0x0:0x5eaeaa16d872ddb2
housing complex,Komplek perumahan,Haslinda Taher,"VHHC+643, Bintuni Tim., Distrik Bintuni, Kabupaten Teluk Bintuni, Papua Bar. 98364","Bintuni Tim., Distrik Bintuni, Kabupaten Teluk Bintuni",PAPUA BARAT,98364.0,Indonesia,,-2.1219969,133.5703058,https://maps.google.com/?cid=0x0:0xd337de031be89d21
housing complex,Komplek perumahan,GZ Gank Bascamp,"VGPH+6CQ, Bintuni Bar., Distrik Bintuni, Kabupaten Teluk Bintuni, Papua Bar. 98364","Bintuni Bar., Distrik Bintuni, Kabupaten Teluk Bintuni",PAPUA BARAT,98364.0,Indonesia,,-2.1139589,133.5286541,https://maps.google.com/?cid=0x0:0x882fb7d5760bab5f
housing complex,Pembangunan Perumahan,Bintuni timur kampung Banjar ausoi,"VHHC+643, Bintuni Tim., sp5, ARGOSIGEMERAI, Papua Bar. 98364","Bintuni Tim., sp5, ARGOSIGEMERAI",PAPUA BARAT,98364.0,Indonesia,82198586126.0,-2.1219969,133.5703058,https://maps.google.com/?cid=0x0:0x13b6157d520e50e1
housing complex,Pembangunan Perumahan,Kab. Teluk Bintuni,"38VH+PQG, Kp. Baru, Distrik Aranday, Kabupaten Teluk Bintuni, Papua Bar.","Kabupaten Teluk Bintuni, Papua Bar.",PAPUA BARAT,,Indonesia,,-1.9056848,133.329466,https://maps.google.com/?cid=0x0:0xc07068110b86e95f
housing complex,Penjara,Rumah Dinas Rutan kelas IIB Bintuni,"Jl. Raya Bintuni No.km 09, Wesiri, Distrik Bintuni, Kabupaten Teluk Bintuni, Papua Bar. 98364","Wesiri, Distrik Bintuni, Kabupaten Teluk Bintuni",PAPUA BARAT,98364.0,Indonesia,,-2.0688494,133.4607886,https://maps.google.com/?cid=0x0:0xfa3f9b2ee2319a77
housing complex,Organisasi Nonprofit,Bintuni Papua barat,"VGMM+88P, Bintuni Tim., Distrik Bintuni, Kabupaten Teluk Bintuni, Papua Bar. 98364","Bintuni Tim., Distrik Bintuni, Kabupaten Teluk Bintuni",PAPUA BARAT,98364.0,Indonesia,,-2.116667,133.533333,https://maps.google.com/?cid=0x0:0x4c907a361894c0eb
housing complex,housing complex,Tony pu rumah,"VGRC+PQH, Bintuni Bar., Distrik Bintuni, Kabupaten Teluk Bintuni, Papua Bar. 98364","Bintuni Bar., Distrik Bintuni, Kabupaten Teluk Bintuni",PAPUA BARAT,98364.0,Indonesia,,-2.1081938,133.521986,https://maps.google.com/?cid=0x0:0xa4667eb899d9ad55
housing complex,housing complex,Ancia pongtuluran,"VHC2+RH5, Jl. Raya Jl. Raya Kali Tubi, Bintuni Tim., Distrik Bintuni, Kabupaten Teluk Bintuni, Papua Bar. 98364","Jl. Raya Jl. Raya Kali Tubi, Bintuni Tim., Distrik Bintuni, Kabupaten Teluk Bintuni",PAPUA BARAT,98364.0,Indonesia,,-2.1281645,133.5515625,https://maps.google.com/?cid=0x0:0xf0a95cdfad12d504
housing complex,housing complex,Papua Bar. 98365,"Kabupaten Teluk Bintuni, Papua Bar.","Kabupaten Teluk Bintuni, Papua Bar.",PAPUA BARAT,,Indonesia,,-1.9250686,132.7076107,https://maps.google.com/?cid=0x0:0xe2813bacbf5a0787
housing complex,Komplek perumahan,rumah melki kabosu,"432H+94J, Ekam, Tomu, Kabupaten Teluk Bintuni, Papua Bar.","Kabupaten Teluk Bintuni, Papua Bar.",PAPUA BARAT,,Indonesia,,-1.8990496,133.0777555,https://maps.google.com/?cid=0x0:0x5c43f73313d2401a
housing complex,Komplek perumahan,Mes Petugas PKM Meyado,"35V3+P9, Ekam, Tomu, Kabupaten Teluk Bintuni, Papua Bar.","Kabupaten Teluk Bintuni, Papua Bar.",PAPUA BARAT,,Indonesia,,-1.9056357,133.1534936,https://maps.google.com/?cid=0x0:0xe2e0f3675fa206b1
housing complex,Komplek perumahan,Kampung wanagir,"QXPF+8WR, Sebyar Rejosari, Tomu, Kabupaten Teluk Bintuni, Papua Bar. 98365","Sebyar Rejosari, Tomu, Kabupaten Teluk Bintuni",PAPUA BARAT,98365.0,Indonesia,813433434812.0,-2.213686,132.975887,https://maps.google.com/?cid=0x0:0xd6ab175eed4ef2d
housing complex,Kantor Pemerintah,Kantor Distrik Yakora,"W3V3+JR, Sebyar Rejosari, Tomu, Kabupaten Teluk Bintuni, Papua Bar.","Kabupaten Teluk Bintuni, Papua Bar.",PAPUA BARAT,,Indonesia,,-2.0559744,133.0545194,https://maps.google.com/?cid=0x0:0x43080b887f0439e0
housing complex,Perumahan,Mm yana,"W3R5+48W, Sebyar Rejosari, Tomu, Kabupaten Teluk Bintuni, Papua Bar.","Kabupaten Teluk Bintuni, Papua Bar.",PAPUA BARAT,,Indonesia,,-2.0596458,133.058341,https://maps.google.com/?cid=0x0:0x3e810c7876f5d27f
housing complex,Komplek perumahan,Rumah BK,"QXPF+8WR, Sebyar Rejosari, Tomu, Kabupaten Teluk Bintuni, Papua Bar. 98365","Sebyar Rejosari, Tomu, Kabupaten Teluk Bintuni",PAPUA BARAT,98365.0,Indonesia,,-2.213686,132.975887,https://maps.google.com/?cid=0x0:0x2ffba47e32212623
housing complex,Perhimpunan Pengembang Perumahan,ONGEN ARANDAY,"QXMC+PP2, Sebyar Rejosari, Tomu, Kabupaten Teluk Bintuni, Papua Bar.","Kabupaten Teluk Bintuni, Papua Bar.",PAPUA BARAT,,Indonesia,,-2.2157448,132.9717653,https://maps.google.com/?cid=0x0:0xd1ef68c9b0307e85
housing complex,Komplek perumahan,"Aranday, Sasari","QXJC+JPP, Sebyar Rejosari, Tomu, Kabupaten Teluk Bintuni, Papua Bar. 98365","Sebyar Rejosari, Tomu, Kabupaten Teluk Bintuni",PAPUA BARAT,98365.0,Indonesia,,-2.2184038,132.971833,https://maps.google.com/?cid=0x0:0x1343fb280262dd8d
housing complex,housing complex,The Resort At Port Ludlow,"1 Heron Rd, Port Ludlow, WA 98365, Amerika Serikat","Port Ludlow, WA",PAPUA BARAT,98365.0,Indonesia,13604377000.0,47.9226249,-122.683202,https://maps.google.com/?cid=0x0:0xd164f073f2a493d9
housing complex,housing complex,"Port Ludlow, Washington 98365","Port Ludlow, Washington, Amerika Serikat","Port Ludlow, Washington, Amerika Serikat",PAPUA BARAT,,Indonesia,,47.9080025,-122.6889202,https://maps.google.com/?cid=0x0:0x80c25f50a0b90723
housing complex,housing complex,Distrik Tuhiba,"Kabupaten Teluk Bintuni, Papua Bar.","Kabupaten Teluk Bintuni, Papua Bar.",PAPUA BARAT,,Indonesia,,-1.9874608,133.6203736,https://maps.google.com/?cid=0x0:0x19d3a0288704397d
housing complex,Komplek perumahan,Komplex ugdohop horna,"WJ3X+CF, Tuasai, Distrik Bintuni, Kabupaten Teluk Bintuni, Papua Bar.","Kabupaten Teluk Bintuni, Papua Bar.",PAPUA BARAT,,Indonesia,,-2.0963852,133.648627,https://maps.google.com/?cid=0x0:0xc8ea605c90d54ebb
housing complex,Komplek perumahan,Kompleks Manado,"WJ2X+2FV, Tuasai, Distrik Bintuni, Kabupaten Teluk Bintuni, Papua Bar. 98364","Tuasai, Distrik Bintuni, Kabupaten Teluk Bintuni",PAPUA BARAT,98364.0,Indonesia,,-2.0998868,133.6486759,https://maps.google.com/?cid=0x0:0xc250420825d52a06
housing complex,Komplek perumahan,Kompleks Malkita,"Unnamed Road, Wesiri, Distrik Bintuni, Kabupaten Teluk Bintuni, Papua Bar. 98364","Wesiri, Distrik Bintuni, Kabupaten Teluk Bintuni",PAPUA BARAT,98364.0,Indonesia,82198838421.0,-2.0764193,133.4792458,https://maps.google.com/?cid=0x0:0x69849810ca26f287
housing complex,Komplek perumahan,KOMPLEKS KPPD SQUAD BINTUNI,"VGJM+X4P KPPD SQUAD, Bintuni Tim., Distrik Bintuni, Kabupaten Teluk Bintuni, Papua Bar. 98364","Bintuni Tim., Distrik Bintuni, Kabupaten Teluk Bintuni",PAPUA BARAT,98364.0,Indonesia,81391394212.0,-2.1175457,133.5328249,https://maps.google.com/?cid=0x0:0xcbd288265b9cfbf9
housing complex,Komplek perumahan,Aula Misi Katolik,"VGX9+79M, Bintuni Bar., Distrik Bintuni, Kabupaten Teluk Bintuni, Papua Bar. 98364","Bintuni Bar., Distrik Bintuni, Kabupaten Teluk Bintuni",PAPUA BARAT,98364.0,Indonesia,,-2.1017966,133.5184262,https://maps.google.com/?cid=0x0:0x8d4ed4705cae494b
housing complex,Pembangunan Perumahan,Oktavia home,"VJW4+Q8, Sp V. Manimery/ Argo Sigemeray, Distrik Bintuni, Kabupaten Teluk Bintuni, Papua Bar.","Kabupaten Teluk Bintuni, Papua Bar.",PAPUA BARAT,,Indonesia,82267066028.0,-2.1030245,133.6058919,https://maps.google.com/?cid=0x0:0x16a8c2e38bbeeda2
housing complex,Komplek perumahan,Haslinda Taher,"VHHC+643, Bintuni Tim., Distrik Bintuni, Kabupaten Teluk Bintuni, Papua Bar. 98364","Bintuni Tim., Distrik Bintuni, Kabupaten Teluk Bintuni",PAPUA BARAT,98364.0,Indonesia,,-2.1219969,133.5703058,https://maps.google.com/?cid=0x0:0xd337de031be89d21
housing complex,Komplek perumahan,KOMPLEKS THO-KING,"WG34+CQ, Wesiri, Distrik Bintuni, Kabupaten Teluk Bintuni, Papua Bar.","Kabupaten Teluk Bintuni, Papua Bar.",PAPUA BARAT,,Indonesia,8553236660.0,-2.0974215,133.5071203,https://maps.google.com/?cid=0x0:0x3c2771fd8e23ccf6
housing complex,Komplek perumahan,Wilson house,"WG43+36R, Lrg. 4, Wesiri, Distrik Bintuni, Kabupaten Teluk Bintuni, Papua Bar. 98364","Lrg. 4, Wesiri, Distrik Bintuni, Kabupaten Teluk Bintuni",PAPUA BARAT,98364.0,Indonesia,82293481068.0,-2.0947599,133.5030264,https://maps.google.com/?cid=0x0:0x8b2dadf103872231
housing complex,housing complex,Hematang Family,"XPC7+6W9, Bumi Saniari, Distrik Manimeri, Kabupaten Teluk Bintuni, Papua Bar. 98364","Bumi Saniari, Distrik Manimeri, Kabupaten Teluk Bintuni",PAPUA BARAT,98364.0,Indonesia,,-2.0294589,133.714844,https://maps.google.com/?cid=0x0:0xcf232ed588e9b698
housing complex,housing complex,Kanisius Ndityomas,"XP3J+X49, Bumi Saniari, Distrik Manimeri, Kabupaten Teluk Bintuni, Papua Bar. 98364","Bumi Saniari, Distrik Manimeri, Kabupaten Teluk Bintuni",PAPUA BARAT,98364.0,Indonesia,,-2.0450916,133.7303549,https://maps.google.com/?cid=0x0:0x3b24e0babe31d24b
housing complex,Komplek perumahan,KMD,"VGX8+6WW, Bintuni Bar., Distrik Bintuni, Kabupaten Teluk Bintuni, Papua Bar. 98364","Bintuni Bar., Distrik Bintuni, Kabupaten Teluk Bintuni",PAPUA BARAT,98364.0,Indonesia,,-2.1018896,133.5173289,https://maps.google.com/?cid=0x0:0x767a727e77068c3f
housing complex,Komplek perumahan,Iqram home,"WJX3+5H7 Lokasi tempat bapk iqram, Iguriji, Distrik Bintuni, Kabupaten Teluk Bintuni, Papua Bar. 98364","Iguriji, Distrik Bintuni, Kabupaten Teluk Bintuni",PAPUA BARAT,98364.0,Indonesia,,-2.0520812,133.6039301,https://maps.google.com/?cid=0x0:0x355da037c8b0ef76
housing complex,housing complex,Distrik Weriagar,"Kabupaten Teluk Bintuni, Papua Bar.","Kabupaten Teluk Bintuni, Papua Bar.",PAPUA BARAT,,Indonesia,,-2.2729914,132.892696,https://maps.google.com/?cid=0x0:0xa59e3da385ccd401
housing complex,housing complex,Wamesa,"Kabupaten Teluk Bintuni, Papua Bar.","Kabupaten Teluk Bintuni, Papua Bar.",PAPUA BARAT,,Indonesia,,-2.1434612,133.981812,https://maps.google.com/?cid=0x0:0x255b33cb1fd7a021
housing complex,Komplek perumahan,Kompleks Manado,"WJ2X+2FV, Tuasai, Distrik Bintuni, Kabupaten Teluk Bintuni, Papua Bar. 98364","Tuasai, Distrik Bintuni, Kabupaten Teluk Bintuni",PAPUA BARAT,98364.0,Indonesia,,-2.0998868,133.6486759,https://maps.google.com/?cid=0x0:0xc250420825d52a06
housing complex,housing complex,Kompleks Akom demes waraitama,"WM9Q+853, Waraitama, Distrik Manimeri, Kabupaten Teluk Bintuni, Papua Bar. 98364","Waraitama, Distrik Manimeri, Kabupaten Teluk Bintuni",PAPUA BARAT,98364.0,Indonesia,,-2.0817259,133.6879307,https://maps.google.com/?cid=0x0:0x7f6ddc9935bf8c91
housing complex,Komplek perumahan,Komplex ugdohop horna,"WJ3X+CF, Tuasai, Distrik Bintuni, Kabupaten Teluk Bintuni, Papua Bar.","Kabupaten Teluk Bintuni, Papua Bar.",PAPUA BARAT,,Indonesia,,-2.0963852,133.648627,https://maps.google.com/?cid=0x0:0xc8ea605c90d54ebb
housing complex,housing complex,Pak Kaswan,"XP2G+2CG SP 3 Jlr 5 Timur, Bumi Saniari, Distrik Manimeri, Kabupaten Teluk Bintuni, Papua Bar. 98364","Bumi Saniari, Distrik Manimeri, Kabupaten Teluk Bintuni",PAPUA BARAT,98364.0,Indonesia,,-2.0499313,133.7260674,https://maps.google.com/?cid=0x0:0x66a6dd967975d88f
housing complex,Komplek perumahan,Masui,"VGQF+PVJ, Bintuni Bar., Distrik Bintuni, Kabupaten Teluk Bintuni, Papua Bar. 98364","Bintuni Bar., Distrik Bintuni, Kabupaten Teluk Bintuni",PAPUA BARAT,98364.0,Indonesia,,-2.1111713,133.5251414,https://maps.google.com/?cid=0x0:0xf19ca5501e4064f0
housing complex,housing complex,Papua Bar. 98364,"Kabupaten Teluk Bintuni, Papua Bar.","Kabupaten Teluk Bintuni, Papua Bar.",PAPUA BARAT,,Indonesia,,-1.8959987,133.6375314,https://maps.google.com/?cid=0x0:0x5d92307b98683ecf
housing complex,Komplek perumahan,Kampung wanagir,"QXPF+8WR, Sebyar Rejosari, Tomu, Kabupaten Teluk Bintuni, Papua Bar. 98365","Sebyar Rejosari, Tomu, Kabupaten Teluk Bintuni",PAPUA BARAT,98365.0,Indonesia,813433434812.0,-2.213686,132.975887,https://maps.google.com/?cid=0x0:0xd6ab175eed4ef2d
housing complex,Komplek perumahan,Rumah BK,"QXPF+8WR, Sebyar Rejosari, Tomu, Kabupaten Teluk Bintuni, Papua Bar. 98365","Sebyar Rejosari, Tomu, Kabupaten Teluk Bintuni",PAPUA BARAT,98365.0,Indonesia,,-2.213686,132.975887,https://maps.google.com/?cid=0x0:0x2ffba47e32212623
housing complex,Komplek perumahan,rumah melki kabosu,"432H+94J, Ekam, Tomu, Kabupaten Teluk Bintuni, Papua Bar.","Kabupaten Teluk Bintuni, Papua Bar.",PAPUA BARAT,,Indonesia,,-1.8990496,133.0777555,https://maps.google.com/?cid=0x0:0x5c43f73313d2401a
housing complex,Perhimpunan Pengembang Perumahan,ONGEN ARANDAY,"QXMC+PP2, Sebyar Rejosari, Tomu, Kabupaten Teluk Bintuni, Papua Bar.","Kabupaten Teluk Bintuni, Papua Bar.",PAPUA BARAT,,Indonesia,,-2.2157448,132.9717653,https://maps.google.com/?cid=0x0:0xd1ef68c9b0307e85
housing complex,Perhimpunan Pengembang Perumahan,Kmp KALI HITAM,"52GX+PMJ, Jln muara, kampung kali hitam, Kec. Meyado, Kabupaten Teluk Bintuni, Papua Bar. 98365","Jln muara, kampung kali hitam, Kec. Meyado, Kabupaten Teluk Bintuni",PAPUA BARAT,98365.0,Indonesia,,-1.8231739,133.0491501,https://maps.google.com/?cid=0x0:0x9dbe49744ecc058
housing complex,housing complex,Weriagar,"Distrik Weriagar, Kabupaten Teluk Bintuni, Papua Bar.","Kabupaten Teluk Bintuni, Papua Bar.",PAPUA BARAT,,Indonesia,,-2.1233788,132.9027576,https://maps.google.com/?cid=0x0:0x2881d73f66defa63
housing complex,Kantor Pemerintah,Kantor Distrik Yakora,"W3V3+JR, Sebyar Rejosari, Tomu, Kabupaten Teluk Bintuni, Papua Bar.","Kabupaten Teluk Bintuni, Papua Bar.",PAPUA BARAT,,Indonesia,,-2.0559744,133.0545194,https://maps.google.com/?cid=0x0:0x43080b887f0439e0
housing complex,Perhimpunan Pengembang Perumahan,Aranday city,"R2H3+7MC, Aranday, Distrik Aranday, Kabupaten Teluk Bintuni, Papua Bar.","Kabupaten Teluk Bintuni, Papua Bar.",PAPUA BARAT,,Indonesia,,-2.1718089,133.0041562,https://maps.google.com/?cid=0x0:0x6be53dd1d1da8c77
housing complex,Perumahan,Mm yana,"W3R5+48W, Sebyar Rejosari, Tomu, Kabupaten Teluk Bintuni, Papua Bar.","Kabupaten Teluk Bintuni, Papua Bar.",PAPUA BARAT,,Indonesia,,-2.0596458,133.058341,https://maps.google.com/?cid=0x0:0x3e810c7876f5d27f
housing complex,Komplek perumahan,Kampung Kali Hitam,"34C9+8H, Ekam, Tomu, Kabupaten Teluk Bintuni, Papua Bar.","Kabupaten Teluk Bintuni, Papua Bar.",PAPUA BARAT,,Indonesia,,-1.9292383,133.1188796,https://maps.google.com/?cid=0x0:0xfbbd2d4bc417bcdc
housing complex,Komplek perumahan,Mes Petugas PKM Meyado,"35V3+P9, Ekam, Tomu, Kabupaten Teluk Bintuni, Papua Bar.","Kabupaten Teluk Bintuni, Papua Bar.",PAPUA BARAT,,Indonesia,,-1.9056357,133.1534936,https://maps.google.com/?cid=0x0:0xe2e0f3675fa206b1
housing complex,Komplek perumahan,Mess Meyado,"34RX+89W, Ekam, Kec. Meyado, Kabupaten Teluk Bintuni, Papua Bar.","Kabupaten Teluk Bintuni, Papua Bar.",PAPUA BARAT,,Indonesia,,-1.9091424,133.148456,https://maps.google.com/?cid=0x0:0xa6322b75ddfc0d10
