Category;Real Category;Business Name;Address;City;State;Postal Code;Country;Phone;Latitude;Longitude;Map Link
"perumahan";"Komplek perumahan";"Perumahan Ie Meulee Pemko Sabang";"V8RM+FCP, Ie Meulee, Kec. Sukajaya, Kota Sabang, Aceh 24411";"Ie Meulee, Kec. Sukajaya, Kota Sabang";"ACEH";"24411";"Indonesia";"";"5.8912033";"95.3335912";"https://maps.google.com/?cid=0x0:0xb75f7e31a8ebd34f"
"perumahan";"perumahan";"rumah mustafa";"V8FC+FFF, Krueng Raya, Sukakarya, Kota Sabang, Aceh 24416";"Krueng Raya, Sukakarya, Kota Sabang";"ACEH";"24416";"Indonesia";"";"5.8736389";"95.3213056";"https://maps.google.com/?cid=0x0:0xfdf06768bcc4dedb"
"perumahan";"perumahan";"Kec. Sukajaya";"Kota Sabang, Aceh";"Kota Sabang, Aceh";"ACEH";"";"Indonesia";"";"5.7982249";"95.3393038";"https://maps.google.com/?cid=0x0:0x61751f5adc7de5c6"
"perumahan";"Komplek perumahan";"Komplek Perumahan Polisi";"Jl. Bypass No.13, Cot Ba'u, Kec. Sukajaya, Kota Sabang, Aceh 23522";"Cot Ba'u, Kec. Sukajaya, Kota Sabang";"ACEH";"23522";"Indonesia";"";"5.8651482";"95.3383309";"https://maps.google.com/?cid=0x0:0xd67093001a54e617"
"perumahan";"Pembangunan Perumahan";"Isfan Dodent";"V88R+C9C, Cot Ba'u, Kec. Sukajaya, Kota Sabang, Aceh 24410";"Cot Ba'u, Kec. Sukajaya, Kota Sabang";"ACEH";"24410";"Indonesia";"";"5.8660556";"95.3409046";"https://maps.google.com/?cid=0x0:0x8d3010b7c32fd2ed"
"perumahan";"Komplek perumahan";"Perumahan BPKS II Sabang";"V8HQ+QV2, Cot Ba'u, Kec. Sukajaya, Kota Sabang, Aceh 24411";"Cot Ba'u, Kec. Sukajaya, Kota Sabang";"ACEH";"24411";"Indonesia";"";"5.8793934";"95.3396488";"https://maps.google.com/?cid=0x0:0x3c78a9a98219cd01"
"perumahan";"Pembangunan Perumahan";"Rumoh Cek Adi";"R8PR+6H2, Balohan, Kec. Sukajaya, Kota Sabang, Aceh";"Kota Sabang, Aceh";"ACEH";"";"Indonesia";"";"5.8355161";"95.3413789";"https://maps.google.com/?cid=0x0:0x2c67a0dcfbd927a5"
"perumahan";"perumahan";"Rumah Tujuan";"V8RH+8MQ, Cot Ba'u, Kec. Sukajaya, Kota Sabang, Aceh";"Kota Sabang, Aceh";"ACEH";"";"Indonesia";"";"5.8908485";"95.3292438";"https://maps.google.com/?cid=0x0:0x3a4dd3122b350cff"
"perumahan";"Komplek perumahan";"Perumahan Kemenpera";"V88R+5HJ, Cot Ba'u, Kec. Sukajaya, Kota Sabang, Aceh 24410";"Cot Ba'u, Kec. Sukajaya, Kota Sabang";"ACEH";"24410";"Indonesia";" 085260918200";"5.865472";"95.3413986";"https://maps.google.com/?cid=0x0:0xaa7547aa8f69365a"
"perumahan";"Komplek perumahan";"Rumah Pak Wagino";"V8FM+9HC, Cot Ba'u, Kec. Sukajaya, Kota Sabang, Aceh 24410";"Cot Ba'u, Kec. Sukajaya, Kota Sabang";"ACEH";"24410";"Indonesia";"";"5.8734955";"95.3338322";"https://maps.google.com/?cid=0x0:0x82dcc27dc052c3ba"
"perumahan";"Komplek perumahan";"Putroe Ijo Permai";"V8FJ+66X, Jl. Bypass, Cot Ba'u, Kec. Sukajaya, Kota Sabang, Aceh 24410";"Jl. Bypass, Cot Ba'u, Kec. Sukajaya, Kota Sabang";"ACEH";"24410";"Indonesia";" 081380870567";"5.8731103";"95.3305947";"https://maps.google.com/?cid=0x0:0xd75af30bc374a41b"
"perumahan";"Perhimpunan Pengembang Perumahan";"Rumah JH";"V829+9HV, Paya Seunara, Sukakarya, Kota Sabang, Aceh 24410";"Paya Seunara, Sukakarya, Kota Sabang";"ACEH";"24410";"Indonesia";"";"5.85036";"95.318746";"https://maps.google.com/?cid=0x0:0x335a9997c8c287d1"
"perumahan";"Gedung Apartemen";"Rumah BG ecco";"R9H2+W5W, Balohan, Kec. Sukajaya, Kota Sabang, Aceh";"Kota Sabang, Aceh";"ACEH";"";"Indonesia";"";"5.829772";"95.3505217";"https://maps.google.com/?cid=0x0:0xad1aac91e20fac6c"
"perumahan";"Bank";"Perumahan Sabang Maskapai 1909";"V8V9+J6C, Kuta Ateueh, Sukakarya, Kota Sabang, Aceh";"Kota Sabang, Aceh";"ACEH";"";"Indonesia";"";"5.8940594";"95.3180241";"https://maps.google.com/?cid=0x0:0x6a2f01f6e397ee44"
"perumahan";"perumahan";"rumah mustafa";"V8FC+FFF, Krueng Raya, Sukakarya, Kota Sabang, Aceh 24416";"Krueng Raya, Sukakarya, Kota Sabang";"ACEH";"24416";"Indonesia";"";"5.8736389";"95.3213056";"https://maps.google.com/?cid=0x0:0xfdf06768bcc4dedb"
"perumahan";"Pembangunan Perumahan";"Rumah Misman";"R8G8+FG6, Batee Shoek, Sukakarya, Kota Sabang, Aceh 24416";"Batee Shoek, Sukakarya, Kota Sabang";"ACEH";"24416";"Indonesia";"";"5.825811";"95.3163451";"https://maps.google.com/?cid=0x0:0x1efd95cc74bfbf5e"
"perumahan";"perumahan";"Kec. Sukajaya";"Kota Sabang, Aceh";"Kota Sabang, Aceh";"ACEH";"";"Indonesia";"";"5.7982249";"95.3393038";"https://maps.google.com/?cid=0x0:0x61751f5adc7de5c6"
"perumahan";"Komplek perumahan";"Komplek Perumahan Polisi";"Jl. Bypass No.13, Cot Ba'u, Kec. Sukajaya, Kota Sabang, Aceh 23522";"Cot Ba'u, Kec. Sukajaya, Kota Sabang";"ACEH";"23522";"Indonesia";"";"5.8651482";"95.3383309";"https://maps.google.com/?cid=0x0:0xd67093001a54e617"
"perumahan";"Komplek perumahan";"Perumahan BPKS II Sabang";"V8HQ+QV2, Cot Ba'u, Kec. Sukajaya, Kota Sabang, Aceh 24411";"Cot Ba'u, Kec. Sukajaya, Kota Sabang";"ACEH";"24411";"Indonesia";"";"5.8793934";"95.3396488";"https://maps.google.com/?cid=0x0:0x3c78a9a98219cd01"
"perumahan";"Komplek perumahan";"Perumahan Guru (Enzus)";"R8HX+X47, Balohan, Kec. Sukajaya, Kota Sabang, Aceh 24411";"Balohan, Kec. Sukajaya, Kota Sabang";"ACEH";"24411";"Indonesia";" 085260918200";"5.8299126";"95.3478121";"https://maps.google.com/?cid=0x0:0xb5124ee9f2c17122"
"perumahan";"Pembangunan Perumahan";"Isfan Dodent";"V88R+C9C, Cot Ba'u, Kec. Sukajaya, Kota Sabang, Aceh 24410";"Cot Ba'u, Kec. Sukajaya, Kota Sabang";"ACEH";"24410";"Indonesia";"";"5.8660556";"95.3409046";"https://maps.google.com/?cid=0x0:0x8d3010b7c32fd2ed"
"perumahan";"Komplek perumahan";"Dandim Kota Sabang";"R8G4+69Q, Unnamed Rd,Sukakarya,, Batee Shoek, Kec. Sukajaya, Kota Sabang, Aceh 24416";"Unnamed Rd,Sukakarya,, Batee Shoek, Kec. Sukajaya, Kota Sabang";"ACEH";"24416";"Indonesia";"";"5.8255919";"95.3059897";"https://maps.google.com/?cid=0x0:0xab026acd83c9b828"
"perumahan";"Komplek perumahan";"Perumahan Kemenpera";"V88R+5HJ, Cot Ba'u, Kec. Sukajaya, Kota Sabang, Aceh 24410";"Cot Ba'u, Kec. Sukajaya, Kota Sabang";"ACEH";"24410";"Indonesia";" 085260918200";"5.865472";"95.3413986";"https://maps.google.com/?cid=0x0:0xaa7547aa8f69365a"
"perumahan";"Pembangunan Perumahan";"Komplek Rumah Dinas Kejaksaan";"Jl. Teuku Nyak Arief, Keuramat, Ie Meulee, Sukajaya, Ie Meulee, Kec. Sukajaya, Kota Sabang, Aceh 23521";"Keuramat, Ie Meulee, Sukajaya, Ie Meulee, Kec. Sukajaya, Kota Sabang";"ACEH";"23521";"Indonesia";" 065221010";"5.8985555";"95.3261754";"https://maps.google.com/?cid=0x0:0xace955e99f9e1736"
"perumahan";"perumahan";"Rumah Tujuan";"V8RH+8MQ, Cot Ba'u, Kec. Sukajaya, Kota Sabang, Aceh";"Kota Sabang, Aceh";"ACEH";"";"Indonesia";"";"5.8908485";"95.3292438";"https://maps.google.com/?cid=0x0:0x3a4dd3122b350cff"
"perumahan";"Perhimpunan Pengembang Perumahan";"Rumah JH";"V829+9HV, Paya Seunara, Sukakarya, Kota Sabang, Aceh 24410";"Paya Seunara, Sukakarya, Kota Sabang";"ACEH";"24410";"Indonesia";"";"5.85036";"95.318746";"https://maps.google.com/?cid=0x0:0x335a9997c8c287d1"
"perumahan";"Komplek perumahan";"Komplek perumahan";"V8GG+4X8, Aneuk Laot, Sukakarya, Kota Sabang, Aceh 24416";"Aneuk Laot, Sukakarya, Kota Sabang";"ACEH";"24416";"Indonesia";"";"5.8753268";"95.3268517";"https://maps.google.com/?cid=0x0:0xd93e9336f0db6c37"
"perumahan";"Komplek perumahan";"Rumah Haris ayu";"V8HJ+5G7, Cot Ba'u, Kec. Sukajaya, Kota Sabang, Aceh";"Kota Sabang, Aceh";"ACEH";"";"Indonesia";"";"5.8779065";"95.3313038";"https://maps.google.com/?cid=0x0:0x972ae60b1e5f1240"
"perumahan";"perumahan";"rumah mustafa";"V8FC+FFF, Krueng Raya, Sukakarya, Kota Sabang, Aceh 24416";"Krueng Raya, Sukakarya, Kota Sabang";"ACEH";"24416";"Indonesia";"";"5.8736389";"95.3213056";"https://maps.google.com/?cid=0x0:0xfdf06768bcc4dedb"
"perumahan";"perumahan";"Kec. Sukajaya";"Kota Sabang, Aceh";"Kota Sabang, Aceh";"ACEH";"";"Indonesia";"";"5.7982249";"95.3393038";"https://maps.google.com/?cid=0x0:0x61751f5adc7de5c6"
"perumahan";"Komplek perumahan";"Komplek Perumahan Polisi";"Jl. Bypass No.13, Cot Ba'u, Kec. Sukajaya, Kota Sabang, Aceh 23522";"Cot Ba'u, Kec. Sukajaya, Kota Sabang";"ACEH";"23522";"Indonesia";"";"5.8651482";"95.3383309";"https://maps.google.com/?cid=0x0:0xd67093001a54e617"
"perumahan";"Komplek perumahan";"Perumahan Ie Meulee Pemko Sabang";"V8RM+FCP, Ie Meulee, Kec. Sukajaya, Kota Sabang, Aceh 24411";"Ie Meulee, Kec. Sukajaya, Kota Sabang";"ACEH";"24411";"Indonesia";"";"5.8912033";"95.3335912";"https://maps.google.com/?cid=0x0:0xb75f7e31a8ebd34f"
"perumahan";"Komplek perumahan";"Perumahan Guru (Enzus)";"R8HX+X47, Balohan, Kec. Sukajaya, Kota Sabang, Aceh 24411";"Balohan, Kec. Sukajaya, Kota Sabang";"ACEH";"24411";"Indonesia";" 085260918200";"5.8299126";"95.3478121";"https://maps.google.com/?cid=0x0:0xb5124ee9f2c17122"
"perumahan";"Pembangunan Perumahan";"Rumoh Cek Adi";"R8PR+6H2, Balohan, Kec. Sukajaya, Kota Sabang, Aceh";"Kota Sabang, Aceh";"ACEH";"";"Indonesia";"";"5.8355161";"95.3413789";"https://maps.google.com/?cid=0x0:0x2c67a0dcfbd927a5"
"perumahan";"Komplek perumahan";"Perumahan Kemenpera";"V88R+5HJ, Cot Ba'u, Kec. Sukajaya, Kota Sabang, Aceh 24410";"Cot Ba'u, Kec. Sukajaya, Kota Sabang";"ACEH";"24410";"Indonesia";" 085260918200";"5.865472";"95.3413986";"https://maps.google.com/?cid=0x0:0xaa7547aa8f69365a"
"perumahan";"perumahan";"Rumah Tujuan";"V8RH+8MQ, Cot Ba'u, Kec. Sukajaya, Kota Sabang, Aceh";"Kota Sabang, Aceh";"ACEH";"";"Indonesia";"";"5.8908485";"95.3292438";"https://maps.google.com/?cid=0x0:0x3a4dd3122b350cff"
"perumahan";"Pembangunan Perumahan";"Komplek BTN Ie Meulee";"V8VP+JM4, Ie Meulee, Kec. Sukajaya, Kota Sabang, Aceh 24411";"Ie Meulee, Kec. Sukajaya, Kota Sabang";"ACEH";"24411";"Indonesia";"";"5.8940048";"95.3366881";"https://maps.google.com/?cid=0x0:0xfc981b60dbea64c5"
"perumahan";"Komplek perumahan";"Putroe Ijo Permai";"V8FJ+66X, Jl. Bypass, Cot Ba'u, Kec. Sukajaya, Kota Sabang, Aceh 24410";"Jl. Bypass, Cot Ba'u, Kec. Sukajaya, Kota Sabang";"ACEH";"24410";"Indonesia";" 081380870567";"5.8731103";"95.3305947";"https://maps.google.com/?cid=0x0:0xd75af30bc374a41b"
"perumahan";"Komplek perumahan";"Heaven";"R8RQ+PP8, Balohan, Kec. Sukajaya, Kota Sabang, Aceh 24411";"Balohan, Kec. Sukajaya, Kota Sabang";"ACEH";"24411";"Indonesia";"";"5.8427968";"95.3399137";"https://maps.google.com/?cid=0x0:0xcbe339c6d3562bd8"
"perumahan";"Komplek perumahan";"Mulia rAhmat";"R83R+Q3F, Unnamed Road, Jaboi, Kec. Sukajaya, Kota Sabang, Aceh 24411";"Unnamed Road, Jaboi, Kec. Sukajaya, Kota Sabang";"ACEH";"24411";"Indonesia";"";"5.8044373";"95.3401642";"https://maps.google.com/?cid=0x0:0x8f68d369f74136e1"
"perumahan";"Komplek perumahan";"Dandim Kota Sabang";"R8G4+69Q, Unnamed Rd,Sukakarya,, Batee Shoek, Kec. Sukajaya, Kota Sabang, Aceh 24416";"Unnamed Rd,Sukakarya,, Batee Shoek, Kec. Sukajaya, Kota Sabang";"ACEH";"24416";"Indonesia";"";"5.8255919";"95.3059897";"https://maps.google.com/?cid=0x0:0xab026acd83c9b828"
"perumahan";"Pembangunan Perumahan";"Isfan Dodent";"V88R+C9C, Cot Ba'u, Kec. Sukajaya, Kota Sabang, Aceh 24410";"Cot Ba'u, Kec. Sukajaya, Kota Sabang";"ACEH";"24410";"Indonesia";"";"5.8660556";"95.3409046";"https://maps.google.com/?cid=0x0:0x8d3010b7c32fd2ed"
"perumahan";"perumahan";"Kec. Sukajaya";"Kota Sabang, Aceh";"Kota Sabang, Aceh";"ACEH";"";"Indonesia";"";"5.7982249";"95.3393038";"https://maps.google.com/?cid=0x0:0x61751f5adc7de5c6"
"perumahan";"Komplek perumahan";"Perumahan Ie Meulee Pemko Sabang";"V8RM+FCP, Ie Meulee, Kec. Sukajaya, Kota Sabang, Aceh 24411";"Ie Meulee, Kec. Sukajaya, Kota Sabang";"ACEH";"24411";"Indonesia";"";"5.8912033";"95.3335912";"https://maps.google.com/?cid=0x0:0xb75f7e31a8ebd34f"
"perumahan";"Pondok";"Komplek Perumnas 3 Cot Ba U";"V87V+X4X, Jurong By Pass RT IV, Cot Ba'u, Kec. Sukajaya, Kota Sabang, Aceh 24411";"Jurong By Pass RT IV, Cot Ba'u, Kec. Sukajaya, Kota Sabang";"ACEH";"24411";"Indonesia";"";"5.8649834";"95.3428708";"https://maps.google.com/?cid=0x0:0x76770b39ae38e750"
"perumahan";"Komplek perumahan";"Putroe Ijo Permai";"V8FJ+66X, Jl. Bypass, Cot Ba'u, Kec. Sukajaya, Kota Sabang, Aceh 24410";"Jl. Bypass, Cot Ba'u, Kec. Sukajaya, Kota Sabang";"ACEH";"24410";"Indonesia";" 081380870567";"5.8731103";"95.3305947";"https://maps.google.com/?cid=0x0:0xd75af30bc374a41b"
"perumahan";"Komplek perumahan";"Perumahan Kemenpera";"V88R+5HJ, Cot Ba'u, Kec. Sukajaya, Kota Sabang, Aceh 24410";"Cot Ba'u, Kec. Sukajaya, Kota Sabang";"ACEH";"24410";"Indonesia";" 085260918200";"5.865472";"95.3413986";"https://maps.google.com/?cid=0x0:0xaa7547aa8f69365a"
"perumahan";"Komplek perumahan";"Perumahan BPKS II Sabang";"V8HQ+QV2, Cot Ba'u, Kec. Sukajaya, Kota Sabang, Aceh 24411";"Cot Ba'u, Kec. Sukajaya, Kota Sabang";"ACEH";"24411";"Indonesia";"";"5.8793934";"95.3396488";"https://maps.google.com/?cid=0x0:0x3c78a9a98219cd01"
"perumahan";"Komplek perumahan";"Dandim Kota Sabang";"R8G4+69Q, Unnamed Rd,Sukakarya,, Batee Shoek, Kec. Sukajaya, Kota Sabang, Aceh 24416";"Unnamed Rd,Sukakarya,, Batee Shoek, Kec. Sukajaya, Kota Sabang";"ACEH";"24416";"Indonesia";"";"5.8255919";"95.3059897";"https://maps.google.com/?cid=0x0:0xab026acd83c9b828"
"perumahan";"Pembangunan Perumahan";"Komplek BTN Ie Meulee";"V8VP+JM4, Ie Meulee, Kec. Sukajaya, Kota Sabang, Aceh 24411";"Ie Meulee, Kec. Sukajaya, Kota Sabang";"ACEH";"24411";"Indonesia";"";"5.8940048";"95.3366881";"https://maps.google.com/?cid=0x0:0xfc981b60dbea64c5"
"perumahan";"Komplek perumahan";"Rumah";"V8VM+M7W, Ie Meulee, Kec. Sukajaya, Kota Sabang, Aceh 24411";"Ie Meulee, Kec. Sukajaya, Kota Sabang";"ACEH";"24411";"Indonesia";"";"5.8943518";"95.3331485";"https://maps.google.com/?cid=0x0:0xc3378dd15cf05155"
"perumahan";"perumahan";"rumah mustafa";"V8FC+FFF, Krueng Raya, Sukakarya, Kota Sabang, Aceh 24416";"Krueng Raya, Sukakarya, Kota Sabang";"ACEH";"24416";"Indonesia";"";"5.8736389";"95.3213056";"https://maps.google.com/?cid=0x0:0xfdf06768bcc4dedb"
"perumahan";"Komplek perumahan";"Komplek Perumahan Polisi";"Jl. Bypass No.13, Cot Ba'u, Kec. Sukajaya, Kota Sabang, Aceh 23522";"Cot Ba'u, Kec. Sukajaya, Kota Sabang";"ACEH";"23522";"Indonesia";"";"5.8651482";"95.3383309";"https://maps.google.com/?cid=0x0:0xd67093001a54e617"
"perumahan";"Pembangunan Perumahan";"Rumoh Cek Adi";"R8PR+6H2, Balohan, Kec. Sukajaya, Kota Sabang, Aceh";"Kota Sabang, Aceh";"ACEH";"";"Indonesia";"";"5.8355161";"95.3413789";"https://maps.google.com/?cid=0x0:0x2c67a0dcfbd927a5"
"perumahan";"Komplek perumahan";"Heaven";"R8RQ+PP8, Balohan, Kec. Sukajaya, Kota Sabang, Aceh 24411";"Balohan, Kec. Sukajaya, Kota Sabang";"ACEH";"24411";"Indonesia";"";"5.8427968";"95.3399137";"https://maps.google.com/?cid=0x0:0xcbe339c6d3562bd8"
"perumahan";"perumahan";"Rumah Tujuan";"V8RH+8MQ, Cot Ba'u, Kec. Sukajaya, Kota Sabang, Aceh";"Kota Sabang, Aceh";"ACEH";"";"Indonesia";"";"5.8908485";"95.3292438";"https://maps.google.com/?cid=0x0:0x3a4dd3122b350cff"
"perumahan";"perumahan";"Kec. Sukajaya";"Kota Sabang, Aceh";"Kota Sabang, Aceh";"ACEH";"";"Indonesia";"";"5.7982249";"95.3393038";"https://maps.google.com/?cid=0x0:0x61751f5adc7de5c6"
"perumahan";"perumahan";"rumah mustafa";"V8FC+FFF, Krueng Raya, Sukakarya, Kota Sabang, Aceh 24416";"Krueng Raya, Sukakarya, Kota Sabang";"ACEH";"24416";"Indonesia";"";"5.8736389";"95.3213056";"https://maps.google.com/?cid=0x0:0xfdf06768bcc4dedb"
"perumahan";"Komplek perumahan";"Perumahan Guru (Enzus)";"R8HX+X47, Balohan, Kec. Sukajaya, Kota Sabang, Aceh 24411";"Balohan, Kec. Sukajaya, Kota Sabang";"ACEH";"24411";"Indonesia";" 085260918200";"5.8299126";"95.3478121";"https://maps.google.com/?cid=0x0:0xb5124ee9f2c17122"
"perumahan";"Komplek perumahan";"Komplek Perumahan Polisi";"Jl. Bypass No.13, Cot Ba'u, Kec. Sukajaya, Kota Sabang, Aceh 23522";"Cot Ba'u, Kec. Sukajaya, Kota Sabang";"ACEH";"23522";"Indonesia";"";"5.8651482";"95.3383309";"https://maps.google.com/?cid=0x0:0xd67093001a54e617"
"perumahan";"Perumahan";"Komplek Perumahan Guru Cot Damar (Fahrul Razi)";"Unnamed Road,jln, Paya Seunara, Sukakarya, Kota Sabang, Aceh 24410";"Paya Seunara, Sukakarya, Kota Sabang";"ACEH";"24410";"Indonesia";"";"5.8341066";"95.3134762";"https://maps.google.com/?cid=0x0:0x413b275a5f1a88be"
"perumahan";"Komplek perumahan";"Perumahan BPKS II Sabang";"V8HQ+QV2, Cot Ba'u, Kec. Sukajaya, Kota Sabang, Aceh 24411";"Cot Ba'u, Kec. Sukajaya, Kota Sabang";"ACEH";"24411";"Indonesia";"";"5.8793934";"95.3396488";"https://maps.google.com/?cid=0x0:0x3c78a9a98219cd01"
"perumahan";"Komplek perumahan";"Dandim Kota Sabang";"R8G4+69Q, Unnamed Rd,Sukakarya,, Batee Shoek, Kec. Sukajaya, Kota Sabang, Aceh 24416";"Unnamed Rd,Sukakarya,, Batee Shoek, Kec. Sukajaya, Kota Sabang";"ACEH";"24416";"Indonesia";"";"5.8255919";"95.3059897";"https://maps.google.com/?cid=0x0:0xab026acd83c9b828"
"perumahan";"Komplek perumahan";"Perumahan Kemenpera";"V88R+5HJ, Cot Ba'u, Kec. Sukajaya, Kota Sabang, Aceh 24410";"Cot Ba'u, Kec. Sukajaya, Kota Sabang";"ACEH";"24410";"Indonesia";" 085260918200";"5.865472";"95.3413986";"https://maps.google.com/?cid=0x0:0xaa7547aa8f69365a"
"perumahan";"Pondok";"Komplek Perumnas 3 Cot Ba U";"V87V+X4X, Jurong By Pass RT IV, Cot Ba'u, Kec. Sukajaya, Kota Sabang, Aceh 24411";"Jurong By Pass RT IV, Cot Ba'u, Kec. Sukajaya, Kota Sabang";"ACEH";"24411";"Indonesia";"";"5.8649834";"95.3428708";"https://maps.google.com/?cid=0x0:0x76770b39ae38e750"
"perumahan";"Bank";"Perumahan Sabang Maskapai 1909";"V8V9+J6C, Kuta Ateueh, Sukakarya, Kota Sabang, Aceh";"Kota Sabang, Aceh";"ACEH";"";"Indonesia";"";"5.8940594";"95.3180241";"https://maps.google.com/?cid=0x0:0x6a2f01f6e397ee44"
"perumahan";"Pembangunan Perumahan";"Rumah Misman";"R8G8+FG6, Batee Shoek, Sukakarya, Kota Sabang, Aceh 24416";"Batee Shoek, Sukakarya, Kota Sabang";"ACEH";"24416";"Indonesia";"";"5.825811";"95.3163451";"https://maps.google.com/?cid=0x0:0x1efd95cc74bfbf5e"
"perumahan";"Komplek perumahan";"Komplek perumahan";"V8GG+4X8, Aneuk Laot, Sukakarya, Kota Sabang, Aceh 24416";"Aneuk Laot, Sukakarya, Kota Sabang";"ACEH";"24416";"Indonesia";"";"5.8753268";"95.3268517";"https://maps.google.com/?cid=0x0:0xd93e9336f0db6c37"
"perumahan";"Komplek perumahan";"Rumah Haris ayu";"V8HJ+5G7, Cot Ba'u, Kec. Sukajaya, Kota Sabang, Aceh";"Kota Sabang, Aceh";"ACEH";"";"Indonesia";"";"5.8779065";"95.3313038";"https://maps.google.com/?cid=0x0:0x972ae60b1e5f1240"
"perumahan";"Komplek perumahan";"Rumah abul";"V8RQ+G95, Ie Meulee, Kec. Sukajaya, Kota Sabang, Aceh 24411";"Ie Meulee, Kec. Sukajaya, Kota Sabang";"ACEH";"24411";"Indonesia";"";"5.8912504";"95.3384967";"https://maps.google.com/?cid=0x0:0xfeb71e4881058f09"
"perumahan";"perumahan";"rumah mustafa";"V8FC+FFF, Krueng Raya, Sukakarya, Kota Sabang, Aceh 24416";"Krueng Raya, Sukakarya, Kota Sabang";"ACEH";"24416";"Indonesia";"";"5.8736389";"95.3213056";"https://maps.google.com/?cid=0x0:0xfdf06768bcc4dedb"
"perumahan";"perumahan";"Kec. Sukajaya";"Kota Sabang, Aceh";"Kota Sabang, Aceh";"ACEH";"";"Indonesia";"";"5.7982249";"95.3393038";"https://maps.google.com/?cid=0x0:0x61751f5adc7de5c6"
"perumahan";"Komplek perumahan";"Perumahan Ie Meulee Pemko Sabang";"V8RM+FCP, Ie Meulee, Kec. Sukajaya, Kota Sabang, Aceh 24411";"Ie Meulee, Kec. Sukajaya, Kota Sabang";"ACEH";"24411";"Indonesia";"";"5.8912033";"95.3335912";"https://maps.google.com/?cid=0x0:0xb75f7e31a8ebd34f"
"perumahan";"Pembangunan Perumahan";"Rumoh Cek Adi";"R8PR+6H2, Balohan, Kec. Sukajaya, Kota Sabang, Aceh";"Kota Sabang, Aceh";"ACEH";"";"Indonesia";"";"5.8355161";"95.3413789";"https://maps.google.com/?cid=0x0:0x2c67a0dcfbd927a5"
"perumahan";"Komplek perumahan";"Perumahan Guru (Enzus)";"R8HX+X47, Balohan, Kec. Sukajaya, Kota Sabang, Aceh 24411";"Balohan, Kec. Sukajaya, Kota Sabang";"ACEH";"24411";"Indonesia";" 085260918200";"5.8299126";"95.3478121";"https://maps.google.com/?cid=0x0:0xb5124ee9f2c17122"
"perumahan";"Komplek perumahan";"Perumahan BPKS II Sabang";"V8HQ+QV2, Cot Ba'u, Kec. Sukajaya, Kota Sabang, Aceh 24411";"Cot Ba'u, Kec. Sukajaya, Kota Sabang";"ACEH";"24411";"Indonesia";"";"5.8793934";"95.3396488";"https://maps.google.com/?cid=0x0:0x3c78a9a98219cd01"
"perumahan";"Komplek perumahan";"Perumahan Kemenpera";"V88R+5HJ, Cot Ba'u, Kec. Sukajaya, Kota Sabang, Aceh 24410";"Cot Ba'u, Kec. Sukajaya, Kota Sabang";"ACEH";"24410";"Indonesia";" 085260918200";"5.865472";"95.3413986";"https://maps.google.com/?cid=0x0:0xaa7547aa8f69365a"
"perumahan";"Bank";"Perumahan Sabang Maskapai 1909";"V8V9+J6C, Kuta Ateueh, Sukakarya, Kota Sabang, Aceh";"Kota Sabang, Aceh";"ACEH";"";"Indonesia";"";"5.8940594";"95.3180241";"https://maps.google.com/?cid=0x0:0x6a2f01f6e397ee44"
"perumahan";"Perumahan";"Komplek Perumahan Guru Cot Damar (Fahrul Razi)";"Unnamed Road,jln, Paya Seunara, Sukakarya, Kota Sabang, Aceh 24410";"Paya Seunara, Sukakarya, Kota Sabang";"ACEH";"24410";"Indonesia";"";"5.8341066";"95.3134762";"https://maps.google.com/?cid=0x0:0x413b275a5f1a88be"
"perumahan";"Komplek perumahan";"Heaven";"R8RQ+PP8, Balohan, Kec. Sukajaya, Kota Sabang, Aceh 24411";"Balohan, Kec. Sukajaya, Kota Sabang";"ACEH";"24411";"Indonesia";"";"5.8427968";"95.3399137";"https://maps.google.com/?cid=0x0:0xcbe339c6d3562bd8"
"perumahan";"Departemen Perhubungan";"Komplek Navigasi";"Jl. Teuku Umar No.7, Kuta Ateueh, Sukakarya, Kota Sabang, Aceh";"Kota Sabang, Aceh";"ACEH";"";"Indonesia";"";"5.8951402";"95.3149192";"https://maps.google.com/?cid=0x0:0xe93bac2d3c9ee215"
"perumahan";"perumahan";"Rumah Tujuan";"V8RH+8MQ, Cot Ba'u, Kec. Sukajaya, Kota Sabang, Aceh";"Kota Sabang, Aceh";"ACEH";"";"Indonesia";"";"5.8908485";"95.3292438";"https://maps.google.com/?cid=0x0:0x3a4dd3122b350cff"
"perumahan";"Komplek perumahan";"Putroe Ijo Permai";"V8FJ+66X, Jl. Bypass, Cot Ba'u, Kec. Sukajaya, Kota Sabang, Aceh 24410";"Jl. Bypass, Cot Ba'u, Kec. Sukajaya, Kota Sabang";"ACEH";"24410";"Indonesia";" 081380870567";"5.8731103";"95.3305947";"https://maps.google.com/?cid=0x0:0xd75af30bc374a41b"
"perumahan";"Pembangunan Perumahan";"Komplek BTN Ie Meulee";"V8VP+JM4, Ie Meulee, Kec. Sukajaya, Kota Sabang, Aceh 24411";"Ie Meulee, Kec. Sukajaya, Kota Sabang";"ACEH";"24411";"Indonesia";"";"5.8940048";"95.3366881";"https://maps.google.com/?cid=0x0:0xfc981b60dbea64c5"
"perumahan";"perumahan";"Kec. Sukajaya";"Kota Sabang, Aceh";"Kota Sabang, Aceh";"ACEH";"";"Indonesia";"";"5.7982249";"95.3393038";"https://maps.google.com/?cid=0x0:0x61751f5adc7de5c6"
"perumahan";"perumahan";"rumah mustafa";"V8FC+FFF, Krueng Raya, Sukakarya, Kota Sabang, Aceh 24416";"Krueng Raya, Sukakarya, Kota Sabang";"ACEH";"24416";"Indonesia";"";"5.8736389";"95.3213056";"https://maps.google.com/?cid=0x0:0xfdf06768bcc4dedb"
"perumahan";"Pembangunan Perumahan";"Rumoh Cek Adi";"R8PR+6H2, Balohan, Kec. Sukajaya, Kota Sabang, Aceh";"Kota Sabang, Aceh";"ACEH";"";"Indonesia";"";"5.8355161";"95.3413789";"https://maps.google.com/?cid=0x0:0x2c67a0dcfbd927a5"
"perumahan";"Komplek perumahan";"Perumahan Ie Meulee Pemko Sabang";"V8RM+FCP, Ie Meulee, Kec. Sukajaya, Kota Sabang, Aceh 24411";"Ie Meulee, Kec. Sukajaya, Kota Sabang";"ACEH";"24411";"Indonesia";"";"5.8912033";"95.3335912";"https://maps.google.com/?cid=0x0:0xb75f7e31a8ebd34f"
"perumahan";"Komplek perumahan";"Perumahan BPKS II Sabang";"V8HQ+QV2, Cot Ba'u, Kec. Sukajaya, Kota Sabang, Aceh 24411";"Cot Ba'u, Kec. Sukajaya, Kota Sabang";"ACEH";"24411";"Indonesia";"";"5.8793934";"95.3396488";"https://maps.google.com/?cid=0x0:0x3c78a9a98219cd01"
"perumahan";"Komplek perumahan";"Heaven";"R8RQ+PP8, Balohan, Kec. Sukajaya, Kota Sabang, Aceh 24411";"Balohan, Kec. Sukajaya, Kota Sabang";"ACEH";"24411";"Indonesia";"";"5.8427968";"95.3399137";"https://maps.google.com/?cid=0x0:0xcbe339c6d3562bd8"
"perumahan";"Departemen Perhubungan";"Komplek Navigasi";"Jl. Teuku Umar No.7, Kuta Ateueh, Sukakarya, Kota Sabang, Aceh";"Kota Sabang, Aceh";"ACEH";"";"Indonesia";"";"5.8951402";"95.3149192";"https://maps.google.com/?cid=0x0:0xe93bac2d3c9ee215"
"perumahan";"Komplek perumahan";"Perumahan Kemenpera";"V88R+5HJ, Cot Ba'u, Kec. Sukajaya, Kota Sabang, Aceh 24410";"Cot Ba'u, Kec. Sukajaya, Kota Sabang";"ACEH";"24410";"Indonesia";" 085260918200";"5.865472";"95.3413986";"https://maps.google.com/?cid=0x0:0xaa7547aa8f69365a"
"perumahan";"perumahan";"Rumah Tujuan";"V8RH+8MQ, Cot Ba'u, Kec. Sukajaya, Kota Sabang, Aceh";"Kota Sabang, Aceh";"ACEH";"";"Indonesia";"";"5.8908485";"95.3292438";"https://maps.google.com/?cid=0x0:0x3a4dd3122b350cff"
"perumahan";"Pembangunan Perumahan";"Isfan Dodent";"V88R+C9C, Cot Ba'u, Kec. Sukajaya, Kota Sabang, Aceh 24410";"Cot Ba'u, Kec. Sukajaya, Kota Sabang";"ACEH";"24410";"Indonesia";"";"5.8660556";"95.3409046";"https://maps.google.com/?cid=0x0:0x8d3010b7c32fd2ed"
"perumahan";"Komplek perumahan";"Perumahan Guru (Enzus)";"R8HX+X47, Balohan, Kec. Sukajaya, Kota Sabang, Aceh 24411";"Balohan, Kec. Sukajaya, Kota Sabang";"ACEH";"24411";"Indonesia";" 085260918200";"5.8299126";"95.3478121";"https://maps.google.com/?cid=0x0:0xb5124ee9f2c17122"
"perumahan";"Pembangunan Perumahan";"Komplek BTN Ie Meulee";"V8VP+JM4, Ie Meulee, Kec. Sukajaya, Kota Sabang, Aceh 24411";"Ie Meulee, Kec. Sukajaya, Kota Sabang";"ACEH";"24411";"Indonesia";"";"5.8940048";"95.3366881";"https://maps.google.com/?cid=0x0:0xfc981b60dbea64c5"
"perumahan";"Komplek perumahan";"Villa Zulkhairi";"R8JV+Q96, Balohan, Kec. Sukajaya, Kota Sabang, Aceh 24411";"Balohan, Kec. Sukajaya, Kota Sabang";"ACEH";"24411";"Indonesia";" 08116833099";"5.8319046";"95.3433998";"https://maps.google.com/?cid=0x0:0x3e7307d384e31349"
"perumahan";"Perhimpunan Pengembang Perumahan";"Rumah JH";"V829+9HV, Paya Seunara, Sukakarya, Kota Sabang, Aceh 24410";"Paya Seunara, Sukakarya, Kota Sabang";"ACEH";"24410";"Indonesia";"";"5.85036";"95.318746";"https://maps.google.com/?cid=0x0:0x335a9997c8c287d1"
"perumahan";"perumahan";"rumah mustafa";"V8FC+FFF, Krueng Raya, Sukakarya, Kota Sabang, Aceh 24416";"Krueng Raya, Sukakarya, Kota Sabang";"ACEH";"24416";"Indonesia";"";"5.8736389";"95.3213056";"https://maps.google.com/?cid=0x0:0xfdf06768bcc4dedb"
"perumahan";"perumahan";"Kec. Sukajaya";"Kota Sabang, Aceh";"Kota Sabang, Aceh";"ACEH";"";"Indonesia";"";"5.7982249";"95.3393038";"https://maps.google.com/?cid=0x0:0x61751f5adc7de5c6"
"perumahan";"Komplek perumahan";"Perumahan Guru (Enzus)";"R8HX+X47, Balohan, Kec. Sukajaya, Kota Sabang, Aceh 24411";"Balohan, Kec. Sukajaya, Kota Sabang";"ACEH";"24411";"Indonesia";" 085260918200";"5.8299126";"95.3478121";"https://maps.google.com/?cid=0x0:0xb5124ee9f2c17122"
"perumahan";"Komplek perumahan";"Perumahan Kemenpera";"V88R+5HJ, Cot Ba'u, Kec. Sukajaya, Kota Sabang, Aceh 24410";"Cot Ba'u, Kec. Sukajaya, Kota Sabang";"ACEH";"24410";"Indonesia";" 085260918200";"5.865472";"95.3413986";"https://maps.google.com/?cid=0x0:0xaa7547aa8f69365a"
"perumahan";"Komplek perumahan";"Perumahan Ie Meulee Pemko Sabang";"V8RM+FCP, Ie Meulee, Kec. Sukajaya, Kota Sabang, Aceh 24411";"Ie Meulee, Kec. Sukajaya, Kota Sabang";"ACEH";"24411";"Indonesia";"";"5.8912033";"95.3335912";"https://maps.google.com/?cid=0x0:0xb75f7e31a8ebd34f"
"perumahan";"Komplek perumahan";"Perumahan BPKS II Sabang";"V8HQ+QV2, Cot Ba'u, Kec. Sukajaya, Kota Sabang, Aceh 24411";"Cot Ba'u, Kec. Sukajaya, Kota Sabang";"ACEH";"24411";"Indonesia";"";"5.8793934";"95.3396488";"https://maps.google.com/?cid=0x0:0x3c78a9a98219cd01"
"perumahan";"Pembangunan Perumahan";"Rumoh Cek Adi";"R8PR+6H2, Balohan, Kec. Sukajaya, Kota Sabang, Aceh";"Kota Sabang, Aceh";"ACEH";"";"Indonesia";"";"5.8355161";"95.3413789";"https://maps.google.com/?cid=0x0:0x2c67a0dcfbd927a5"
"perumahan";"perumahan";"Rumah Tujuan";"V8RH+8MQ, Cot Ba'u, Kec. Sukajaya, Kota Sabang, Aceh";"Kota Sabang, Aceh";"ACEH";"";"Indonesia";"";"5.8908485";"95.3292438";"https://maps.google.com/?cid=0x0:0x3a4dd3122b350cff"
"perumahan";"Pembangunan Perumahan";"Rumah Misman";"R8G8+FG6, Batee Shoek, Sukakarya, Kota Sabang, Aceh 24416";"Batee Shoek, Sukakarya, Kota Sabang";"ACEH";"24416";"Indonesia";"";"5.825811";"95.3163451";"https://maps.google.com/?cid=0x0:0x1efd95cc74bfbf5e"
"perumahan";"Komplek perumahan";"Dandim Kota Sabang";"R8G4+69Q, Unnamed Rd,Sukakarya,, Batee Shoek, Kec. Sukajaya, Kota Sabang, Aceh 24416";"Unnamed Rd,Sukakarya,, Batee Shoek, Kec. Sukajaya, Kota Sabang";"ACEH";"24416";"Indonesia";"";"5.8255919";"95.3059897";"https://maps.google.com/?cid=0x0:0xab026acd83c9b828"
"perumahan";"Pembangunan Perumahan";"Komplek Perumahan Tsunami";"Krueng Raya, Sukakarya, Kota Sabang, Aceh 24410";"Sukakarya, Kota Sabang";"ACEH";"24410";"Indonesia";"";"5.8625644";"95.3162415";"https://maps.google.com/?cid=0x0:0x61cf141ba36310fb"
"perumahan";"Bank";"Perumahan Sabang Maskapai 1909";"V8V9+J6C, Kuta Ateueh, Sukakarya, Kota Sabang, Aceh";"Kota Sabang, Aceh";"ACEH";"";"Indonesia";"";"5.8940594";"95.3180241";"https://maps.google.com/?cid=0x0:0x6a2f01f6e397ee44"
"perumahan";"Perumahan";"Komplek Perumahan Guru Cot Damar (Fahrul Razi)";"Unnamed Road,jln, Paya Seunara, Sukakarya, Kota Sabang, Aceh 24410";"Paya Seunara, Sukakarya, Kota Sabang";"ACEH";"24410";"Indonesia";"";"5.8341066";"95.3134762";"https://maps.google.com/?cid=0x0:0x413b275a5f1a88be"
"perumahan";"Komplek perumahan";"Rumah Cek Mus";"R8MV+RQJ, Balohan, Kec. Sukajaya, Kota Sabang, Aceh";"Kota Sabang, Aceh";"ACEH";"";"Indonesia";"";"5.8345875";"95.344392";"https://maps.google.com/?cid=0x0:0x2f279b6626c8c67c"
"perumahan";"perumahan";"Kec. Sukajaya";"Kota Sabang, Aceh";"Kota Sabang, Aceh";"ACEH";"";"Indonesia";"";"5.7982249";"95.3393038";"https://maps.google.com/?cid=0x0:0x61751f5adc7de5c6"
"perumahan";"Komplek perumahan";"Perumahan Ie Meulee Pemko Sabang";"V8RM+FCP, Ie Meulee, Kec. Sukajaya, Kota Sabang, Aceh 24411";"Ie Meulee, Kec. Sukajaya, Kota Sabang";"ACEH";"24411";"Indonesia";"";"5.8912033";"95.3335912";"https://maps.google.com/?cid=0x0:0xb75f7e31a8ebd34f"
"perumahan";"perumahan";"rumah mustafa";"V8FC+FFF, Krueng Raya, Sukakarya, Kota Sabang, Aceh 24416";"Krueng Raya, Sukakarya, Kota Sabang";"ACEH";"24416";"Indonesia";"";"5.8736389";"95.3213056";"https://maps.google.com/?cid=0x0:0xfdf06768bcc4dedb"
"perumahan";"Komplek perumahan";"Perumahan BPKS II Sabang";"V8HQ+QV2, Cot Ba'u, Kec. Sukajaya, Kota Sabang, Aceh 24411";"Cot Ba'u, Kec. Sukajaya, Kota Sabang";"ACEH";"24411";"Indonesia";"";"5.8793934";"95.3396488";"https://maps.google.com/?cid=0x0:0x3c78a9a98219cd01"
"perumahan";"Pembangunan Perumahan";"Rumoh Cek Adi";"R8PR+6H2, Balohan, Kec. Sukajaya, Kota Sabang, Aceh";"Kota Sabang, Aceh";"ACEH";"";"Indonesia";"";"5.8355161";"95.3413789";"https://maps.google.com/?cid=0x0:0x2c67a0dcfbd927a5"
"perumahan";"Komplek perumahan";"Komplek Perumahan Polisi";"Jl. Bypass No.13, Cot Ba'u, Kec. Sukajaya, Kota Sabang, Aceh 23522";"Cot Ba'u, Kec. Sukajaya, Kota Sabang";"ACEH";"23522";"Indonesia";"";"5.8651482";"95.3383309";"https://maps.google.com/?cid=0x0:0xd67093001a54e617"
"perumahan";"Bank";"Perumahan Sabang Maskapai 1909";"V8V9+J6C, Kuta Ateueh, Sukakarya, Kota Sabang, Aceh";"Kota Sabang, Aceh";"ACEH";"";"Indonesia";"";"5.8940594";"95.3180241";"https://maps.google.com/?cid=0x0:0x6a2f01f6e397ee44"
"perumahan";"Perhimpunan Pengembang Perumahan";"Rumah JH";"V829+9HV, Paya Seunara, Sukakarya, Kota Sabang, Aceh 24410";"Paya Seunara, Sukakarya, Kota Sabang";"ACEH";"24410";"Indonesia";"";"5.85036";"95.318746";"https://maps.google.com/?cid=0x0:0x335a9997c8c287d1"
"perumahan";"Komplek perumahan";"Perumahan Kemenpera";"V88R+5HJ, Cot Ba'u, Kec. Sukajaya, Kota Sabang, Aceh 24410";"Cot Ba'u, Kec. Sukajaya, Kota Sabang";"ACEH";"24410";"Indonesia";" 085260918200";"5.865472";"95.3413986";"https://maps.google.com/?cid=0x0:0xaa7547aa8f69365a"
"perumahan";"Pembangunan Perumahan";"Komplek BTN Ie Meulee";"V8VP+JM4, Ie Meulee, Kec. Sukajaya, Kota Sabang, Aceh 24411";"Ie Meulee, Kec. Sukajaya, Kota Sabang";"ACEH";"24411";"Indonesia";"";"5.8940048";"95.3366881";"https://maps.google.com/?cid=0x0:0xfc981b60dbea64c5"
"perumahan";"Komplek perumahan";"Heaven";"R8RQ+PP8, Balohan, Kec. Sukajaya, Kota Sabang, Aceh 24411";"Balohan, Kec. Sukajaya, Kota Sabang";"ACEH";"24411";"Indonesia";"";"5.8427968";"95.3399137";"https://maps.google.com/?cid=0x0:0xcbe339c6d3562bd8"
"perumahan";"perumahan";"Rumah Tujuan";"V8RH+8MQ, Cot Ba'u, Kec. Sukajaya, Kota Sabang, Aceh";"Kota Sabang, Aceh";"ACEH";"";"Indonesia";"";"5.8908485";"95.3292438";"https://maps.google.com/?cid=0x0:0x3a4dd3122b350cff"
"perumahan";"Departemen Perhubungan";"Komplek Navigasi";"Jl. Teuku Umar No.7, Kuta Ateueh, Sukakarya, Kota Sabang, Aceh";"Kota Sabang, Aceh";"ACEH";"";"Indonesia";"";"5.8951402";"95.3149192";"https://maps.google.com/?cid=0x0:0xe93bac2d3c9ee215"
"perumahan";"Komplek perumahan";"Dandim Kota Sabang";"R8G4+69Q, Unnamed Rd,Sukakarya,, Batee Shoek, Kec. Sukajaya, Kota Sabang, Aceh 24416";"Unnamed Rd,Sukakarya,, Batee Shoek, Kec. Sukajaya, Kota Sabang";"ACEH";"24416";"Indonesia";"";"5.8255919";"95.3059897";"https://maps.google.com/?cid=0x0:0xab026acd83c9b828"
"perumahan";"perumahan";"rumah mustafa";"V8FC+FFF, Krueng Raya, Sukakarya, Kota Sabang, Aceh 24416";"Krueng Raya, Sukakarya, Kota Sabang";"ACEH";"24416";"Indonesia";"";"5.8736389";"95.3213056";"https://maps.google.com/?cid=0x0:0xfdf06768bcc4dedb"
"perumahan";"perumahan";"Kec. Sukajaya";"Kota Sabang, Aceh";"Kota Sabang, Aceh";"ACEH";"";"Indonesia";"";"5.7982249";"95.3393038";"https://maps.google.com/?cid=0x0:0x61751f5adc7de5c6"
"perumahan";"Komplek perumahan";"Perumahan Ie Meulee Pemko Sabang";"V8RM+FCP, Ie Meulee, Kec. Sukajaya, Kota Sabang, Aceh 24411";"Ie Meulee, Kec. Sukajaya, Kota Sabang";"ACEH";"24411";"Indonesia";"";"5.8912033";"95.3335912";"https://maps.google.com/?cid=0x0:0xb75f7e31a8ebd34f"
"perumahan";"Komplek perumahan";"Perumahan Guru (Enzus)";"R8HX+X47, Balohan, Kec. Sukajaya, Kota Sabang, Aceh 24411";"Balohan, Kec. Sukajaya, Kota Sabang";"ACEH";"24411";"Indonesia";" 085260918200";"5.8299126";"95.3478121";"https://maps.google.com/?cid=0x0:0xb5124ee9f2c17122"
"perumahan";"Komplek perumahan";"Komplek Perumahan Polisi";"Jl. Bypass No.13, Cot Ba'u, Kec. Sukajaya, Kota Sabang, Aceh 23522";"Cot Ba'u, Kec. Sukajaya, Kota Sabang";"ACEH";"23522";"Indonesia";"";"5.8651482";"95.3383309";"https://maps.google.com/?cid=0x0:0xd67093001a54e617"
"perumahan";"Pembangunan Perumahan";"Komplek Tsunami 9";"R8VQ+3VX, Balohan, Kec. Sukajaya, Kota Sabang, Aceh 24411";"Balohan, Kec. Sukajaya, Kota Sabang";"ACEH";"24411";"Indonesia";"";"5.8427292";"95.3397197";"https://maps.google.com/?cid=0x0:0x14b086cd0a3f0c3"
"perumahan";"Komplek perumahan";"Heaven";"R8RQ+PP8, Balohan, Kec. Sukajaya, Kota Sabang, Aceh 24411";"Balohan, Kec. Sukajaya, Kota Sabang";"ACEH";"24411";"Indonesia";"";"5.8427968";"95.3399137";"https://maps.google.com/?cid=0x0:0xcbe339c6d3562bd8"
"perumahan";"Komplek perumahan";"Perumahan BPKS II Sabang";"V8HQ+QV2, Cot Ba'u, Kec. Sukajaya, Kota Sabang, Aceh 24411";"Cot Ba'u, Kec. Sukajaya, Kota Sabang";"ACEH";"24411";"Indonesia";"";"5.8793934";"95.3396488";"https://maps.google.com/?cid=0x0:0x3c78a9a98219cd01"
"perumahan";"perumahan";"Rumah Tujuan";"V8RH+8MQ, Cot Ba'u, Kec. Sukajaya, Kota Sabang, Aceh";"Kota Sabang, Aceh";"ACEH";"";"Indonesia";"";"5.8908485";"95.3292438";"https://maps.google.com/?cid=0x0:0x3a4dd3122b350cff"
"perumahan";"Komplek perumahan";"Mulia rAhmat";"R83R+Q3F, Unnamed Road, Jaboi, Kec. Sukajaya, Kota Sabang, Aceh 24411";"Unnamed Road, Jaboi, Kec. Sukajaya, Kota Sabang";"ACEH";"24411";"Indonesia";"";"5.8044373";"95.3401642";"https://maps.google.com/?cid=0x0:0x8f68d369f74136e1"
"perumahan";"Komplek perumahan";"Perumahan Kemenpera";"V88R+5HJ, Cot Ba'u, Kec. Sukajaya, Kota Sabang, Aceh 24410";"Cot Ba'u, Kec. Sukajaya, Kota Sabang";"ACEH";"24410";"Indonesia";" 085260918200";"5.865472";"95.3413986";"https://maps.google.com/?cid=0x0:0xaa7547aa8f69365a"
"perumahan";"Bank";"Perumahan Sabang Maskapai 1909";"V8V9+J6C, Kuta Ateueh, Sukakarya, Kota Sabang, Aceh";"Kota Sabang, Aceh";"ACEH";"";"Indonesia";"";"5.8940594";"95.3180241";"https://maps.google.com/?cid=0x0:0x6a2f01f6e397ee44"
"perumahan";"Komplek perumahan";"Dandim Kota Sabang";"R8G4+69Q, Unnamed Rd,Sukakarya,, Batee Shoek, Kec. Sukajaya, Kota Sabang, Aceh 24416";"Unnamed Rd,Sukakarya,, Batee Shoek, Kec. Sukajaya, Kota Sabang";"ACEH";"24416";"Indonesia";"";"5.8255919";"95.3059897";"https://maps.google.com/?cid=0x0:0xab026acd83c9b828"
"perumahan";"Perumahan";"Komplek Perumahan Guru Cot Damar (Fahrul Razi)";"Unnamed Road,jln, Paya Seunara, Sukakarya, Kota Sabang, Aceh 24410";"Paya Seunara, Sukakarya, Kota Sabang";"ACEH";"24410";"Indonesia";"";"5.8341066";"95.3134762";"https://maps.google.com/?cid=0x0:0x413b275a5f1a88be"
"perumahan";"perumahan";"Sukakarya";"Kota Sabang, Aceh";"Kota Sabang, Aceh";"ACEH";"";"Indonesia";"";"5.8477312";"95.2632201";"https://maps.google.com/?cid=0x0:0x3f20b360b2a1d865"
"perumahan";"perumahan";"rumah mustafa";"V8FC+FFF, Krueng Raya, Sukakarya, Kota Sabang, Aceh 24416";"Krueng Raya, Sukakarya, Kota Sabang";"ACEH";"24416";"Indonesia";"";"5.8736389";"95.3213056";"https://maps.google.com/?cid=0x0:0xfdf06768bcc4dedb"
"perumahan";"Komplek perumahan";"Komplek Perumahan Polisi";"Jl. Bypass No.13, Cot Ba'u, Kec. Sukajaya, Kota Sabang, Aceh 23522";"Cot Ba'u, Kec. Sukajaya, Kota Sabang";"ACEH";"23522";"Indonesia";"";"5.8651482";"95.3383309";"https://maps.google.com/?cid=0x0:0xd67093001a54e617"
"perumahan";"Perumahan";"Komplek Perumahan Guru Cot Damar (Fahrul Razi)";"Unnamed Road,jln, Paya Seunara, Sukakarya, Kota Sabang, Aceh 24410";"Paya Seunara, Sukakarya, Kota Sabang";"ACEH";"24410";"Indonesia";"";"5.8341066";"95.3134762";"https://maps.google.com/?cid=0x0:0x413b275a5f1a88be"
"perumahan";"Perhimpunan Pengembang Perumahan";"Rumah Rivat  Qanisha";"V8CJ+V3R, Jurong putro ijou, Aneuk Laot, Kota Sabang";"Kota Sabang, Aceh";"ACEH";"";"Indonesia";"";"5.8722315";"95.3301374";"https://maps.google.com/?cid=0x0:0x5f2e1a5736ad1eeb"
"perumahan";"Komplek perumahan";"Rumah orang ganteng";"V8V9+33F, Kuta Barat, Sukakarya, Kota Sabang, Aceh";"Kota Sabang, Aceh";"ACEH";"";"Indonesia";"";"5.8919168";"95.3171133";"https://maps.google.com/?cid=0x0:0x327762d14174fa34"
"perumahan";"Perumahan";"Perumahan Virginia";"V8R9+C65, Kuta Barat, Sukakarya, Kota Sabang, Aceh";"Kota Sabang, Aceh";"ACEH";"";"Indonesia";"";"5.8910033";"95.3181128";"https://maps.google.com/?cid=0x0:0xff757e82b2b90321"
"perumahan";"Pembangunan Perumahan";"Komplek Perumahan Tsunami Ujoung Sikundor";"V893+HGC, Krueng Raya, Sukakarya, Kota Sabang, Aceh 24410";"Krueng Raya, Sukakarya, Kota Sabang";"ACEH";"24410";"Indonesia";" 082315569512";"5.8689386";"95.303752";"https://maps.google.com/?cid=0x0:0x3431be686ef7b067"
"perumahan";"Komplek perumahan";"Elfarissa";"V8Q8+P7H, Kuta Barat, Sukakarya, Kota Sabang, Aceh";"Kota Sabang, Aceh";"ACEH";"";"Indonesia";" 0895331232620";"5.8893133";"95.3157379";"https://maps.google.com/?cid=0x0:0xf00c621ac04c8f99"
"perumahan";"Pembangunan Perumahan";"Rumah Misman";"R8G8+FG6, Batee Shoek, Sukakarya, Kota Sabang, Aceh 24416";"Batee Shoek, Sukakarya, Kota Sabang";"ACEH";"24416";"Indonesia";"";"5.825811";"95.3163451";"https://maps.google.com/?cid=0x0:0x1efd95cc74bfbf5e"
"perumahan";"Pembangunan Perumahan";"Isfan Dodent";"V88R+C9C, Cot Ba'u, Kec. Sukajaya, Kota Sabang, Aceh 24410";"Cot Ba'u, Kec. Sukajaya, Kota Sabang";"ACEH";"24410";"Indonesia";"";"5.8660556";"95.3409046";"https://maps.google.com/?cid=0x0:0x8d3010b7c32fd2ed"
"perumahan";"Komplek perumahan";"IRWAN PESAT";"V8Q8+R6H Lr. Pesat, Kuta Barat, Sukakarya, Kota Sabang, Aceh";"Kota Sabang, Aceh";"ACEH";"";"Indonesia";" 085296997553";"5.8895597";"95.3156223";"https://maps.google.com/?cid=0x0:0x8487b998d10b3030"
"perumahan";"Departemen Perhubungan";"Komplek Navigasi";"Jl. Teuku Umar No.7, Kuta Ateueh, Sukakarya, Kota Sabang, Aceh";"Kota Sabang, Aceh";"ACEH";"";"Indonesia";"";"5.8951402";"95.3149192";"https://maps.google.com/?cid=0x0:0xe93bac2d3c9ee215"
"perumahan";"Komplek perumahan";"Rumah Wak umar";"V8VC+RCW, Jl. Cut Mutia, Kuta Ateueh, Sukakarya, Kota Sabang, Aceh";"Kota Sabang, Aceh";"ACEH";"";"Indonesia";"";"5.8946014";"95.321081";"https://maps.google.com/?cid=0x0:0x6a5a5344b461894f"
"perumahan";"Komplek perumahan";"Jurong Habib Hasan";"V8VC+8MG, Kuta Ateueh, Sukakarya, Kota Sabang, Aceh";"Kota Sabang, Aceh";"ACEH";"";"Indonesia";"";"5.8931012";"95.3214782";"https://maps.google.com/?cid=0x0:0x286dd45a5567adbd"
"perumahan";"perumahan";"Keluarga Abdul Azis (Kek Azis)";"Jl. Oentoeng Surapati, Kuta Ateueh, Sukakarya, Kota Sabang, Aceh";"Kota Sabang, Aceh";"ACEH";"";"Indonesia";"";"5.8938956";"95.3220585";"https://maps.google.com/?cid=0x0:0x4d576fa03e12408b"
"perumahan";"perumahan";"Aceh 23511";"Kuta Ateueh, Sukakarya, Kota Sabang, Aceh";"Kota Sabang, Aceh";"ACEH";"";"Indonesia";"";"5.8939577";"95.3221353";"https://maps.google.com/?cid=0x0:0x8679816fe1b9d789"
"perumahan";"perumahan";"Nagoya Inn";"Jl. Cut Mutia No.34, Kuta Ateueh, Sukakarya, Kota Sabang, Aceh 23511";"Kuta Ateueh, Sukakarya, Kota Sabang";"ACEH";"23511";"Indonesia";"";"5.8942324";"95.3214479";"https://maps.google.com/?cid=0x0:0xff4276542ab4caac"
"perumahan";"perumahan";"Freddies Santai Sumurtiga";"Jl. KH Agus Salim, Ie Meulee, Kec. Sukajaya, Kota Sabang, Aceh 23521";"Ie Meulee, Kec. Sukajaya, Kota Sabang";"ACEH";"23521";"Indonesia";" 081360255001";"5.8911886";"95.3402972";"https://maps.google.com/?cid=0x0:0x9de96f125b8a0897"
"perumahan";"perumahan";"Casa Nemo";"Jl. KH Agus Salim, Ie Meulee, Kec. Sukajaya, Kota Sabang, Aceh 24411";"Ie Meulee, Kec. Sukajaya, Kota Sabang";"ACEH";"24411";"Indonesia";" 082161593132";"5.888186";"95.3429709";"https://maps.google.com/?cid=0x0:0xd4961d43fefeef31"
"perumahan";"perumahan";"The Point Sabang Resort";"Jl. KH Agus Salim No.3, Ujong Kareung, Kec. Sukajaya, Kota Sabang, Aceh 23513";"Ujong Kareung, Kec. Sukajaya, Kota Sabang";"ACEH";"23513";"Indonesia";" 0895417300072";"5.8877553";"95.344053";"https://maps.google.com/?cid=0x0:0x10721bef94522f66"
"perumahan";"perumahan";"Pondok Simpang Tiga";"Jln. K. H. Agus Salim (Sp. 3 Pante Jaya-Sumur Tiga) Kel. Ie Meulee Kec, Ie Meulee, Sukajaya, Sabang City, Aceh 23521";"Ie Meulee, Sukajaya, Sabang City";"ACEH";"23521";"Indonesia";" 08116891119";"5.8926066";"95.33647";"https://maps.google.com/?cid=0x0:0x5493c687f8efaf0d"
"perumahan";"perumahan";"Pele's Place Bungalow";"V7C6+MXJ, Iboih, Sukakarya, Kota Sabang, Aceh 24411";"Iboih, Sukakarya, Kota Sabang";"ACEH";"24411";"Indonesia";" 085253702209";"5.871708";"95.262393";"https://maps.google.com/?cid=0x0:0xaa237dd4b73721b0"
"perumahan";"perumahan";"Pasifik Hotel Sabang";"Jl. Oentoeng Surapati, Kuta Ateueh, Sukakarya, Kota Sabang, Aceh 23511";"Kuta Ateueh, Sukakarya, Kota Sabang";"ACEH";"23511";"Indonesia";" 0895417300072";"5.8941933";"95.3199742";"https://maps.google.com/?cid=0x0:0x67e8a16e0506fa4"
"perumahan";"perumahan";"Rade Inn";"V8QR+9M7, Ie Meulee, Kec. Sukajaya, Kota Sabang, Aceh 24411";"Ie Meulee, Kec. Sukajaya, Kota Sabang";"ACEH";"24411";"Indonesia";" 08116852333";"5.8884191";"95.3416662";"https://maps.google.com/?cid=0x0:0xafe9d74c9a35f87f"
"perumahan";"perumahan";"UKCC";"Jl. H. Agus Salim V8PX+929 Ie Meule, Ujong Kareung, Kec. Sukajaya, Kota Sabang, Aceh 24411";"Ujong Kareung, Kec. Sukajaya, Kota Sabang";"ACEH";"24411";"Indonesia";" 085260608800";"5.8859229";"95.347614";"https://maps.google.com/?cid=0x0:0xc493fb2eae6d817f"
"perumahan";"perumahan";"Sumur Tiga Beach Sabang";"Iem Meulee, Ie Meulee, Kec. Sukajaya, Kota Sabang, Aceh 24411";"Ie Meulee, Kec. Sukajaya, Kota Sabang";"ACEH";"24411";"Indonesia";"";"5.89276";"95.3395224";"https://maps.google.com/?cid=0x0:0x597f99979bd898f1"
"perumahan";"perumahan";"Jurong Pante Jaya";"Kuta Ateueh, Sukakarya, Kota Sabang, Aceh";"Kota Sabang, Aceh";"ACEH";"";"Indonesia";"";"5.8950006";"95.3207836";"https://maps.google.com/?cid=0x0:0xc89248a530df0cd6"
"perumahan";"Komplek perumahan";"Ridwy";"V8RC+9HG, Jl. Perdagangan, Kuta Barat, Sukakarya, Kota Sabang, Aceh";"Kota Sabang, Aceh";"ACEH";"";"Indonesia";"";"5.8909386";"95.3214511";"https://maps.google.com/?cid=0x0:0xc00a04a12d694fd1"
"perumahan";"perumahan";"Aceh 23512";"Kuta Barat, Sukakarya, Kota Sabang, Aceh";"Kota Sabang, Aceh";"ACEH";"";"Indonesia";"";"5.891259";"95.3208419";"https://maps.google.com/?cid=0x0:0x19427390d06db7af"
"perumahan";"Padang";"RM Murah Raya";"Jl. Perdagangan No.52, Kuta Barat, Sukakarya, Kota Sabang, Aceh 24411";"Kuta Barat, Sukakarya, Kota Sabang";"ACEH";"24411";"Indonesia";" 065221231";"5.8909745";"95.320877";"https://maps.google.com/?cid=0x0:0x8466b387a668356a"
"perumahan";"Komplek perumahan";"Rumah puputt";"V56M+4HJ, Sukakarya, Kec. Sukakarya, Kabupaten Bekasi, Jawa Barat";"Kabupaten Bekasi, Jawa Barat";"ACEH";"";"Indonesia";"";"-6.139963";"107.182828";"https://maps.google.com/?cid=0x0:0x4c6b6c273229af4c"
"perumahan";"Pembangunan Perumahan";"Fahmi anak baik";"V56H+W45, Jl. Raya Kec. Sukakarya, Sukakarya, Kec. Sukakarya, Kabupaten Bekasi, Jawa Barat 17630";"Jl. Raya Kec. Sukakarya, Sukakarya, Kec. Sukakarya, Kabupaten Bekasi";"ACEH";"17630";"Indonesia";"";"-6.1376455";"107.1778921";"https://maps.google.com/?cid=0x0:0xced114069e6b110f"
"perumahan";"Perusahaan Konstruksi";"Cluster Al Maidah";"V56P+8CJ, Sukakarya, Kec. Sukakarya, Kabupaten Bekasi, Jawa Barat 17630";"Sukakarya, Kec. Sukakarya, Kabupaten Bekasi";"ACEH";"17630";"Indonesia";"";"-6.139165";"107.1860135";"https://maps.google.com/?cid=0x0:0x9123247858575d16"
"perumahan";"Komplek perumahan";"Rumah Pramuja";"V56P+9GF, Jl. Yapida, Sukakarya, Kec. Sukakarya, Kabupaten Bekasi, Jawa Barat 17630";"Jl. Yapida, Sukakarya, Kec. Sukakarya, Kabupaten Bekasi";"ACEH";"17630";"Indonesia";"";"-6.1390728";"107.186291";"https://maps.google.com/?cid=0x0:0x4b6d9cb238f9917b"
"perumahan";"Komplek perumahan";"Rumah Windi";"V56M+286, Sukakarya, Kec. Sukakarya, Kabupaten Bekasi, Jawa Barat 17630";"Sukakarya, Kec. Sukakarya, Kabupaten Bekasi";"ACEH";"17630";"Indonesia";"";"-6.140264";"107.18337";"https://maps.google.com/?cid=0x0:0xfe1bb8798515814e"
"perumahan";"Komplek perumahan";"rumah Zahra";"V56M+4HJ, Sukakarya, Kec. Sukakarya, Kabupaten Bekasi, Jawa Barat";"Kabupaten Bekasi, Jawa Barat";"ACEH";"";"Indonesia";"";"-6.1400943";"107.1831167";"https://maps.google.com/?cid=0x0:0x8a180d3b2162479"
"perumahan";"Komplek perumahan";"Rumah Jauk";"V56P+9GF, Jl. Yapida, Sukakarya, Kec. Sukakarya, Kabupaten Bekasi, Jawa Barat 17630";"Jl. Yapida, Sukakarya, Kec. Sukakarya, Kabupaten Bekasi";"ACEH";"17630";"Indonesia";"";"-6.1390951";"107.1863375";"https://maps.google.com/?cid=0x0:0xaa09fe3321df507d"
"perumahan";"Kompleks Apartemen";"Rumah Saskia";"V56M+286, Sukakarya, Kec. Sukakarya, Kabupaten Bekasi, Jawa Barat 17630";"Sukakarya, Kec. Sukakarya, Kabupaten Bekasi";"ACEH";"17630";"Indonesia";"";"-6.139773";"107.183139";"https://maps.google.com/?cid=0x0:0x3830a510c46d4fa4"
"perumahan";"Kompleks Kondominium";"Rumah wawan";"V56M+286, Sukakarya, Kec. Sukakarya, Kabupaten Bekasi, Jawa Barat 17630";"Sukakarya, Kec. Sukakarya, Kabupaten Bekasi";"ACEH";"17630";"Indonesia";"";"-6.1399656";"107.1832688";"https://maps.google.com/?cid=0x0:0xba35c7cb879ee61f"
"perumahan";"Perumahan";"Rumah Emak";"V57J+79W, Kp Cinangka, Sukakarya, Kec. Sukakarya, Kabupaten Bekasi, Jawa Barat 17630";"Kp Cinangka, Sukakarya, Kec. Sukakarya, Kabupaten Bekasi";"ACEH";"17630";"Indonesia";"";"-6.1367555";"107.180948";"https://maps.google.com/?cid=0x0:0x3e2c7b6083b1ba23"
"perumahan";"Komplek perumahan";"Rumah Ahmad Husaeni.";"V56H+862 Rumah Ahmad Husaeni, Jl. Yapida, Sukakarya, Kec. Sukakarya, Kabupaten Bekasi, Jawa Barat 17630";"Jl. Yapida, Sukakarya, Kec. Sukakarya, Kabupaten Bekasi";"ACEH";"17630";"Indonesia";"";"-6.1392403";"107.1780077";"https://maps.google.com/?cid=0x0:0xe2c444e8c7e16f75"
"perumahan";"perumahan";"rumah mustafa";"V8FC+FFF, Krueng Raya, Sukakarya, Kota Sabang, Aceh 24416";"Krueng Raya, Sukakarya, Kota Sabang";"ACEH";"24416";"Indonesia";"";"5.8736389";"95.3213056";"https://maps.google.com/?cid=0x0:0xfdf06768bcc4dedb"
"perumahan";"perumahan";"Sukakarya";"Kota Sabang, Aceh";"Kota Sabang, Aceh";"ACEH";"";"Indonesia";"";"5.8477312";"95.2632201";"https://maps.google.com/?cid=0x0:0x3f20b360b2a1d865"
"perumahan";"Pembangunan Perumahan";"Komplek Perumahan Tsunami Ujoung Sikundor";"V893+HGC, Krueng Raya, Sukakarya, Kota Sabang, Aceh 24410";"Krueng Raya, Sukakarya, Kota Sabang";"ACEH";"24410";"Indonesia";" 082315569512";"5.8689386";"95.303752";"https://maps.google.com/?cid=0x0:0x3431be686ef7b067"
"perumahan";"Perumahan";"Perumahan Virginia";"V8R9+C65, Kuta Barat, Sukakarya, Kota Sabang, Aceh";"Kota Sabang, Aceh";"ACEH";"";"Indonesia";"";"5.8910033";"95.3181128";"https://maps.google.com/?cid=0x0:0xff757e82b2b90321"
"perumahan";"Perumahan";"Komplek Perumahan Guru Cot Damar (Fahrul Razi)";"Unnamed Road,jln, Paya Seunara, Sukakarya, Kota Sabang, Aceh 24410";"Paya Seunara, Sukakarya, Kota Sabang";"ACEH";"24410";"Indonesia";"";"5.8341066";"95.3134762";"https://maps.google.com/?cid=0x0:0x413b275a5f1a88be"
"perumahan";"Komplek perumahan";"Rumah orang ganteng";"V8V9+33F, Kuta Barat, Sukakarya, Kota Sabang, Aceh";"Kota Sabang, Aceh";"ACEH";"";"Indonesia";"";"5.8919168";"95.3171133";"https://maps.google.com/?cid=0x0:0x327762d14174fa34"
"perumahan";"Pembangunan Perumahan";"Rumah Misman";"R8G8+FG6, Batee Shoek, Sukakarya, Kota Sabang, Aceh 24416";"Batee Shoek, Sukakarya, Kota Sabang";"ACEH";"24416";"Indonesia";"";"5.825811";"95.3163451";"https://maps.google.com/?cid=0x0:0x1efd95cc74bfbf5e"
"perumahan";"Komplek perumahan";"Komplek perumahan";"V8GG+4X8, Aneuk Laot, Sukakarya, Kota Sabang, Aceh 24416";"Aneuk Laot, Sukakarya, Kota Sabang";"ACEH";"24416";"Indonesia";"";"5.8753268";"95.3268517";"https://maps.google.com/?cid=0x0:0xd93e9336f0db6c37"
"perumahan";"Departemen Perhubungan";"Komplek Navigasi";"Jl. Teuku Umar No.7, Kuta Ateueh, Sukakarya, Kota Sabang, Aceh";"Kota Sabang, Aceh";"ACEH";"";"Indonesia";"";"5.8951402";"95.3149192";"https://maps.google.com/?cid=0x0:0xe93bac2d3c9ee215"
"perumahan";"Komplek perumahan";"Elfarissa";"V8Q8+P7H, Kuta Barat, Sukakarya, Kota Sabang, Aceh";"Kota Sabang, Aceh";"ACEH";"";"Indonesia";" 0895331232620";"5.8893133";"95.3157379";"https://maps.google.com/?cid=0x0:0xf00c621ac04c8f99"
"perumahan";"Perhimpunan Pengembang Perumahan";"Rumah Rivat  Qanisha";"V8CJ+V3R, Jurong putro ijou, Aneuk Laot, Kota Sabang";"Kota Sabang, Aceh";"ACEH";"";"Indonesia";"";"5.8722315";"95.3301374";"https://maps.google.com/?cid=0x0:0x5f2e1a5736ad1eeb"
"perumahan";"Pembangunan Perumahan";"Komplek Perumahan Tsunami";"Krueng Raya, Sukakarya, Kota Sabang, Aceh 24410";"Sukakarya, Kota Sabang";"ACEH";"24410";"Indonesia";"";"5.8625644";"95.3162415";"https://maps.google.com/?cid=0x0:0x61cf141ba36310fb"
"perumahan";"Komplek perumahan";"Rumah bunda mila";"V8XC+552, jl.T.Nyak Arief, Kuta Ateueh, Sukakarya, Kota Sabang, Aceh 24411";"jl.T.Nyak Arief, Kuta Ateueh, Sukakarya, Kota Sabang";"ACEH";"24411";"Indonesia";"";"5.897899";"95.320377";"https://maps.google.com/?cid=0x0:0x390ac9077d0c8a5c"
"perumahan";"Komplek perumahan";"Dandim Kota Sabang";"R8G4+69Q, Unnamed Rd,Sukakarya,, Batee Shoek, Kec. Sukajaya, Kota Sabang, Aceh 24416";"Unnamed Rd,Sukakarya,, Batee Shoek, Kec. Sukajaya, Kota Sabang";"ACEH";"24416";"Indonesia";"";"5.8255919";"95.3059897";"https://maps.google.com/?cid=0x0:0xab026acd83c9b828"
"perumahan";"perumahan";"rumah mustafa";"V8FC+FFF, Krueng Raya, Sukakarya, Kota Sabang, Aceh 24416";"Krueng Raya, Sukakarya, Kota Sabang";"ACEH";"24416";"Indonesia";"";"5.8736389";"95.3213056";"https://maps.google.com/?cid=0x0:0xfdf06768bcc4dedb"
"perumahan";"perumahan";"Sukakarya";"Kota Sabang, Aceh";"Kota Sabang, Aceh";"ACEH";"";"Indonesia";"";"5.8477312";"95.2632201";"https://maps.google.com/?cid=0x0:0x3f20b360b2a1d865"
"perumahan";"Komplek perumahan";"Komplek perumahan";"V8GG+4X8, Aneuk Laot, Sukakarya, Kota Sabang, Aceh 24416";"Aneuk Laot, Sukakarya, Kota Sabang";"ACEH";"24416";"Indonesia";"";"5.8753268";"95.3268517";"https://maps.google.com/?cid=0x0:0xd93e9336f0db6c37"
"perumahan";"Perumahan";"Komplek Perumahan Guru Cot Damar (Fahrul Razi)";"Unnamed Road,jln, Paya Seunara, Sukakarya, Kota Sabang, Aceh 24410";"Paya Seunara, Sukakarya, Kota Sabang";"ACEH";"24410";"Indonesia";"";"5.8341066";"95.3134762";"https://maps.google.com/?cid=0x0:0x413b275a5f1a88be"
"perumahan";"Pembangunan Perumahan";"Komplek Perumahan Tsunami Ujoung Sikundor";"V893+HGC, Krueng Raya, Sukakarya, Kota Sabang, Aceh 24410";"Krueng Raya, Sukakarya, Kota Sabang";"ACEH";"24410";"Indonesia";" 082315569512";"5.8689386";"95.303752";"https://maps.google.com/?cid=0x0:0x3431be686ef7b067"
"perumahan";"Komplek perumahan";"Rumah orang ganteng";"V8V9+33F, Kuta Barat, Sukakarya, Kota Sabang, Aceh";"Kota Sabang, Aceh";"ACEH";"";"Indonesia";"";"5.8919168";"95.3171133";"https://maps.google.com/?cid=0x0:0x327762d14174fa34"
"perumahan";"Komplek perumahan";"Komplek Perumahan Polisi";"Jl. Bypass No.13, Cot Ba'u, Kec. Sukajaya, Kota Sabang, Aceh 23522";"Cot Ba'u, Kec. Sukajaya, Kota Sabang";"ACEH";"23522";"Indonesia";"";"5.8651482";"95.3383309";"https://maps.google.com/?cid=0x0:0xd67093001a54e617"
"perumahan";"Perhimpunan Pengembang Perumahan";"Rumah Rivat  Qanisha";"V8CJ+V3R, Jurong putro ijou, Aneuk Laot, Kota Sabang";"Kota Sabang, Aceh";"ACEH";"";"Indonesia";"";"5.8722315";"95.3301374";"https://maps.google.com/?cid=0x0:0x5f2e1a5736ad1eeb"
"perumahan";"Pembangunan Perumahan";"Rumah Misman";"R8G8+FG6, Batee Shoek, Sukakarya, Kota Sabang, Aceh 24416";"Batee Shoek, Sukakarya, Kota Sabang";"ACEH";"24416";"Indonesia";"";"5.825811";"95.3163451";"https://maps.google.com/?cid=0x0:0x1efd95cc74bfbf5e"
"perumahan";"Departemen Perhubungan";"Komplek Navigasi";"Jl. Teuku Umar No.7, Kuta Ateueh, Sukakarya, Kota Sabang, Aceh";"Kota Sabang, Aceh";"ACEH";"";"Indonesia";"";"5.8951402";"95.3149192";"https://maps.google.com/?cid=0x0:0xe93bac2d3c9ee215"
"perumahan";"Komplek perumahan";"Elfarissa";"V8Q8+P7H, Kuta Barat, Sukakarya, Kota Sabang, Aceh";"Kota Sabang, Aceh";"ACEH";"";"Indonesia";" 0895331232620";"5.8893133";"95.3157379";"https://maps.google.com/?cid=0x0:0xf00c621ac04c8f99"
"perumahan";"Komplek perumahan";"IRWAN PESAT";"V8Q8+R6H Lr. Pesat, Kuta Barat, Sukakarya, Kota Sabang, Aceh";"Kota Sabang, Aceh";"ACEH";"";"Indonesia";" 085296997553";"5.8895597";"95.3156223";"https://maps.google.com/?cid=0x0:0x8487b998d10b3030"
"perumahan";"Komplek perumahan";"Rumah Wak umar";"V8VC+RCW, Jl. Cut Mutia, Kuta Ateueh, Sukakarya, Kota Sabang, Aceh";"Kota Sabang, Aceh";"ACEH";"";"Indonesia";"";"5.8946014";"95.321081";"https://maps.google.com/?cid=0x0:0x6a5a5344b461894f"
"perumahan";"Komplek perumahan";"Rumah bunda mila";"V8XC+552, jl.T.Nyak Arief, Kuta Ateueh, Sukakarya, Kota Sabang, Aceh 24411";"jl.T.Nyak Arief, Kuta Ateueh, Sukakarya, Kota Sabang";"ACEH";"24411";"Indonesia";"";"5.897899";"95.320377";"https://maps.google.com/?cid=0x0:0x390ac9077d0c8a5c"
"perumahan";"perumahan";"Sukakarya";"Kota Sabang, Aceh";"Kota Sabang, Aceh";"ACEH";"";"Indonesia";"";"5.8477312";"95.2632201";"https://maps.google.com/?cid=0x0:0x3f20b360b2a1d865"
"perumahan";"perumahan";"rumah mustafa";"V8FC+FFF, Krueng Raya, Sukakarya, Kota Sabang, Aceh 24416";"Krueng Raya, Sukakarya, Kota Sabang";"ACEH";"24416";"Indonesia";"";"5.8736389";"95.3213056";"https://maps.google.com/?cid=0x0:0xfdf06768bcc4dedb"
"perumahan";"Perumahan";"Perumahan Virginia";"V8R9+C65, Kuta Barat, Sukakarya, Kota Sabang, Aceh";"Kota Sabang, Aceh";"ACEH";"";"Indonesia";"";"5.8910033";"95.3181128";"https://maps.google.com/?cid=0x0:0xff757e82b2b90321"
"perumahan";"Perumahan";"Komplek Perumahan Guru Cot Damar (Fahrul Razi)";"Unnamed Road,jln, Paya Seunara, Sukakarya, Kota Sabang, Aceh 24410";"Paya Seunara, Sukakarya, Kota Sabang";"ACEH";"24410";"Indonesia";"";"5.8341066";"95.3134762";"https://maps.google.com/?cid=0x0:0x413b275a5f1a88be"
"perumahan";"Departemen Perhubungan";"Komplek Navigasi";"Jl. Teuku Umar No.7, Kuta Ateueh, Sukakarya, Kota Sabang, Aceh";"Kota Sabang, Aceh";"ACEH";"";"Indonesia";"";"5.8951402";"95.3149192";"https://maps.google.com/?cid=0x0:0xe93bac2d3c9ee215"
"perumahan";"Perhimpunan Pengembang Perumahan";"Rumah Rivat  Qanisha";"V8CJ+V3R, Jurong putro ijou, Aneuk Laot, Kota Sabang";"Kota Sabang, Aceh";"ACEH";"";"Indonesia";"";"5.8722315";"95.3301374";"https://maps.google.com/?cid=0x0:0x5f2e1a5736ad1eeb"
"perumahan";"Komplek perumahan";"Komplek perumahan";"V8GG+4X8, Aneuk Laot, Sukakarya, Kota Sabang, Aceh 24416";"Aneuk Laot, Sukakarya, Kota Sabang";"ACEH";"24416";"Indonesia";"";"5.8753268";"95.3268517";"https://maps.google.com/?cid=0x0:0xd93e9336f0db6c37"
"perumahan";"Komplek perumahan";"Rumah orang ganteng";"V8V9+33F, Kuta Barat, Sukakarya, Kota Sabang, Aceh";"Kota Sabang, Aceh";"ACEH";"";"Indonesia";"";"5.8919168";"95.3171133";"https://maps.google.com/?cid=0x0:0x327762d14174fa34"
"perumahan";"Komplek perumahan";"Elfarissa";"V8Q8+P7H, Kuta Barat, Sukakarya, Kota Sabang, Aceh";"Kota Sabang, Aceh";"ACEH";"";"Indonesia";" 0895331232620";"5.8893133";"95.3157379";"https://maps.google.com/?cid=0x0:0xf00c621ac04c8f99"
"perumahan";"Pembangunan Perumahan";"Komplek Perumahan Tsunami Ujoung Sikundor";"V893+HGC, Krueng Raya, Sukakarya, Kota Sabang, Aceh 24410";"Krueng Raya, Sukakarya, Kota Sabang";"ACEH";"24410";"Indonesia";" 082315569512";"5.8689386";"95.303752";"https://maps.google.com/?cid=0x0:0x3431be686ef7b067"
"perumahan";"Pembangunan Perumahan";"Rumah Misman";"R8G8+FG6, Batee Shoek, Sukakarya, Kota Sabang, Aceh 24416";"Batee Shoek, Sukakarya, Kota Sabang";"ACEH";"24416";"Indonesia";"";"5.825811";"95.3163451";"https://maps.google.com/?cid=0x0:0x1efd95cc74bfbf5e"
"perumahan";"Komplek perumahan";"Rumah bunda mila";"V8XC+552, jl.T.Nyak Arief, Kuta Ateueh, Sukakarya, Kota Sabang, Aceh 24411";"jl.T.Nyak Arief, Kuta Ateueh, Sukakarya, Kota Sabang";"ACEH";"24411";"Indonesia";"";"5.897899";"95.320377";"https://maps.google.com/?cid=0x0:0x390ac9077d0c8a5c"
"perumahan";"Komplek perumahan";"Rumah Wak umar";"V8VC+RCW, Jl. Cut Mutia, Kuta Ateueh, Sukakarya, Kota Sabang, Aceh";"Kota Sabang, Aceh";"ACEH";"";"Indonesia";"";"5.8946014";"95.321081";"https://maps.google.com/?cid=0x0:0x6a5a5344b461894f"
"perumahan";"Perhimpunan Pengembang Perumahan";"ONEMAD PRIDE";"R8RC+Q7G Pulau We, Paya Seunara, Sukakarya, Kota Sabang, Aceh";"Kota Sabang, Aceh";"ACEH";"";"Indonesia";"";"5.8419361";"95.3207069";"https://maps.google.com/?cid=0x0:0x6f790dfa44670fdd"
"perumahan";"perumahan";"rumah mustafa";"V8FC+FFF, Krueng Raya, Sukakarya, Kota Sabang, Aceh 24416";"Krueng Raya, Sukakarya, Kota Sabang";"ACEH";"24416";"Indonesia";"";"5.8736389";"95.3213056";"https://maps.google.com/?cid=0x0:0xfdf06768bcc4dedb"
"perumahan";"Komplek perumahan";"Komplek Perumahan Polisi";"Jl. Bypass No.13, Cot Ba'u, Kec. Sukajaya, Kota Sabang, Aceh 23522";"Cot Ba'u, Kec. Sukajaya, Kota Sabang";"ACEH";"23522";"Indonesia";"";"5.8651482";"95.3383309";"https://maps.google.com/?cid=0x0:0xd67093001a54e617"
"perumahan";"perumahan";"Sukakarya";"Kota Sabang, Aceh";"Kota Sabang, Aceh";"ACEH";"";"Indonesia";"";"5.8477312";"95.2632201";"https://maps.google.com/?cid=0x0:0x3f20b360b2a1d865"
"perumahan";"Departemen Perhubungan";"Komplek Navigasi";"Jl. Teuku Umar No.7, Kuta Ateueh, Sukakarya, Kota Sabang, Aceh";"Kota Sabang, Aceh";"ACEH";"";"Indonesia";"";"5.8951402";"95.3149192";"https://maps.google.com/?cid=0x0:0xe93bac2d3c9ee215"
"perumahan";"Perumahan";"Perumahan Virginia";"V8R9+C65, Kuta Barat, Sukakarya, Kota Sabang, Aceh";"Kota Sabang, Aceh";"ACEH";"";"Indonesia";"";"5.8910033";"95.3181128";"https://maps.google.com/?cid=0x0:0xff757e82b2b90321"
"perumahan";"Komplek perumahan";"Komplek perumahan";"V8GG+4X8, Aneuk Laot, Sukakarya, Kota Sabang, Aceh 24416";"Aneuk Laot, Sukakarya, Kota Sabang";"ACEH";"24416";"Indonesia";"";"5.8753268";"95.3268517";"https://maps.google.com/?cid=0x0:0xd93e9336f0db6c37"
"perumahan";"Perumahan";"Komplek Perumahan Guru Cot Damar (Fahrul Razi)";"Unnamed Road,jln, Paya Seunara, Sukakarya, Kota Sabang, Aceh 24410";"Paya Seunara, Sukakarya, Kota Sabang";"ACEH";"24410";"Indonesia";"";"5.8341066";"95.3134762";"https://maps.google.com/?cid=0x0:0x413b275a5f1a88be"
"perumahan";"Pembangunan Perumahan";"Isfan Dodent";"V88R+C9C, Cot Ba'u, Kec. Sukajaya, Kota Sabang, Aceh 24410";"Cot Ba'u, Kec. Sukajaya, Kota Sabang";"ACEH";"24410";"Indonesia";"";"5.8660556";"95.3409046";"https://maps.google.com/?cid=0x0:0x8d3010b7c32fd2ed"
"perumahan";"Komplek perumahan";"Jurong Habib Hasan";"V8VC+8MG, Kuta Ateueh, Sukakarya, Kota Sabang, Aceh";"Kota Sabang, Aceh";"ACEH";"";"Indonesia";"";"5.8931012";"95.3214782";"https://maps.google.com/?cid=0x0:0x286dd45a5567adbd"
"perumahan";"Komplek perumahan";"Rumah orang ganteng";"V8V9+33F, Kuta Barat, Sukakarya, Kota Sabang, Aceh";"Kota Sabang, Aceh";"ACEH";"";"Indonesia";"";"5.8919168";"95.3171133";"https://maps.google.com/?cid=0x0:0x327762d14174fa34"
"perumahan";"Komplek perumahan";"Elfarissa";"V8Q8+P7H, Kuta Barat, Sukakarya, Kota Sabang, Aceh";"Kota Sabang, Aceh";"ACEH";"";"Indonesia";" 0895331232620";"5.8893133";"95.3157379";"https://maps.google.com/?cid=0x0:0xf00c621ac04c8f99"
"perumahan";"Pembangunan Perumahan";"Komplek Perumahan Tsunami";"Krueng Raya, Sukakarya, Kota Sabang, Aceh 24410";"Sukakarya, Kota Sabang";"ACEH";"24410";"Indonesia";"";"5.8625644";"95.3162415";"https://maps.google.com/?cid=0x0:0x61cf141ba36310fb"
"perumahan";"Pembangunan Perumahan";"Rumah Misman";"R8G8+FG6, Batee Shoek, Sukakarya, Kota Sabang, Aceh 24416";"Batee Shoek, Sukakarya, Kota Sabang";"ACEH";"24416";"Indonesia";"";"5.825811";"95.3163451";"https://maps.google.com/?cid=0x0:0x1efd95cc74bfbf5e"
"perumahan";"Perhimpunan Pengembang Perumahan";"Rumah Rivat  Qanisha";"V8CJ+V3R, Jurong putro ijou, Aneuk Laot, Kota Sabang";"Kota Sabang, Aceh";"ACEH";"";"Indonesia";"";"5.8722315";"95.3301374";"https://maps.google.com/?cid=0x0:0x5f2e1a5736ad1eeb"
"perumahan";"perumahan";"Sukakarya";"Kota Sabang, Aceh";"Kota Sabang, Aceh";"ACEH";"";"Indonesia";"";"5.8477312";"95.2632201";"https://maps.google.com/?cid=0x0:0x3f20b360b2a1d865"
"perumahan";"perumahan";"rumah mustafa";"V8FC+FFF, Krueng Raya, Sukakarya, Kota Sabang, Aceh 24416";"Krueng Raya, Sukakarya, Kota Sabang";"ACEH";"24416";"Indonesia";"";"5.8736389";"95.3213056";"https://maps.google.com/?cid=0x0:0xfdf06768bcc4dedb"
"perumahan";"Perumahan";"Perumahan Virginia";"V8R9+C65, Kuta Barat, Sukakarya, Kota Sabang, Aceh";"Kota Sabang, Aceh";"ACEH";"";"Indonesia";"";"5.8910033";"95.3181128";"https://maps.google.com/?cid=0x0:0xff757e82b2b90321"
"perumahan";"Pembangunan Perumahan";"Komplek Perumahan Tsunami Ujoung Sikundor";"V893+HGC, Krueng Raya, Sukakarya, Kota Sabang, Aceh 24410";"Krueng Raya, Sukakarya, Kota Sabang";"ACEH";"24410";"Indonesia";" 082315569512";"5.8689386";"95.303752";"https://maps.google.com/?cid=0x0:0x3431be686ef7b067"
"perumahan";"Komplek perumahan";"Komplek Perumahan Polisi";"Jl. Bypass No.13, Cot Ba'u, Kec. Sukajaya, Kota Sabang, Aceh 23522";"Cot Ba'u, Kec. Sukajaya, Kota Sabang";"ACEH";"23522";"Indonesia";"";"5.8651482";"95.3383309";"https://maps.google.com/?cid=0x0:0xd67093001a54e617"
"perumahan";"Pembangunan Perumahan";"Rumah Misman";"R8G8+FG6, Batee Shoek, Sukakarya, Kota Sabang, Aceh 24416";"Batee Shoek, Sukakarya, Kota Sabang";"ACEH";"24416";"Indonesia";"";"5.825811";"95.3163451";"https://maps.google.com/?cid=0x0:0x1efd95cc74bfbf5e"
"perumahan";"Komplek perumahan";"Rumah orang ganteng";"V8V9+33F, Kuta Barat, Sukakarya, Kota Sabang, Aceh";"Kota Sabang, Aceh";"ACEH";"";"Indonesia";"";"5.8919168";"95.3171133";"https://maps.google.com/?cid=0x0:0x327762d14174fa34"
"perumahan";"Perhimpunan Pengembang Perumahan";"Rumah Rivat  Qanisha";"V8CJ+V3R, Jurong putro ijou, Aneuk Laot, Kota Sabang";"Kota Sabang, Aceh";"ACEH";"";"Indonesia";"";"5.8722315";"95.3301374";"https://maps.google.com/?cid=0x0:0x5f2e1a5736ad1eeb"
"perumahan";"Perumahan";"Komplek Perumahan Guru Cot Damar (Fahrul Razi)";"Unnamed Road,jln, Paya Seunara, Sukakarya, Kota Sabang, Aceh 24410";"Paya Seunara, Sukakarya, Kota Sabang";"ACEH";"24410";"Indonesia";"";"5.8341066";"95.3134762";"https://maps.google.com/?cid=0x0:0x413b275a5f1a88be"
"perumahan";"Departemen Perhubungan";"Komplek Navigasi";"Jl. Teuku Umar No.7, Kuta Ateueh, Sukakarya, Kota Sabang, Aceh";"Kota Sabang, Aceh";"ACEH";"";"Indonesia";"";"5.8951402";"95.3149192";"https://maps.google.com/?cid=0x0:0xe93bac2d3c9ee215"
"perumahan";"Pembangunan Perumahan";"Komplek Perumahan Tsunami";"Krueng Raya, Sukakarya, Kota Sabang, Aceh 24410";"Sukakarya, Kota Sabang";"ACEH";"24410";"Indonesia";"";"5.8625644";"95.3162415";"https://maps.google.com/?cid=0x0:0x61cf141ba36310fb"
"perumahan";"Komplek perumahan";"Elfarissa";"V8Q8+P7H, Kuta Barat, Sukakarya, Kota Sabang, Aceh";"Kota Sabang, Aceh";"ACEH";"";"Indonesia";" 0895331232620";"5.8893133";"95.3157379";"https://maps.google.com/?cid=0x0:0xf00c621ac04c8f99"
"perumahan";"Komplek perumahan";"Rumah Wak umar";"V8VC+RCW, Jl. Cut Mutia, Kuta Ateueh, Sukakarya, Kota Sabang, Aceh";"Kota Sabang, Aceh";"ACEH";"";"Indonesia";"";"5.8946014";"95.321081";"https://maps.google.com/?cid=0x0:0x6a5a5344b461894f"
"perumahan";"Komplek perumahan";"IRWAN PESAT";"V8Q8+R6H Lr. Pesat, Kuta Barat, Sukakarya, Kota Sabang, Aceh";"Kota Sabang, Aceh";"ACEH";"";"Indonesia";" 085296997553";"5.8895597";"95.3156223";"https://maps.google.com/?cid=0x0:0x8487b998d10b3030"
"perumahan";"perumahan";"rumah mustafa";"V8FC+FFF, Krueng Raya, Sukakarya, Kota Sabang, Aceh 24416";"Krueng Raya, Sukakarya, Kota Sabang";"ACEH";"24416";"Indonesia";"";"5.8736389";"95.3213056";"https://maps.google.com/?cid=0x0:0xfdf06768bcc4dedb"
"perumahan";"perumahan";"Sukakarya";"Kota Sabang, Aceh";"Kota Sabang, Aceh";"ACEH";"";"Indonesia";"";"5.8477312";"95.2632201";"https://maps.google.com/?cid=0x0:0x3f20b360b2a1d865"
"perumahan";"Perumahan";"Perumahan Virginia";"V8R9+C65, Kuta Barat, Sukakarya, Kota Sabang, Aceh";"Kota Sabang, Aceh";"ACEH";"";"Indonesia";"";"5.8910033";"95.3181128";"https://maps.google.com/?cid=0x0:0xff757e82b2b90321"
"perumahan";"Komplek perumahan";"Komplek perumahan";"V8GG+4X8, Aneuk Laot, Sukakarya, Kota Sabang, Aceh 24416";"Aneuk Laot, Sukakarya, Kota Sabang";"ACEH";"24416";"Indonesia";"";"5.8753268";"95.3268517";"https://maps.google.com/?cid=0x0:0xd93e9336f0db6c37"
"perumahan";"Komplek perumahan";"Komplek Perumahan Polisi";"Jl. Bypass No.13, Cot Ba'u, Kec. Sukajaya, Kota Sabang, Aceh 23522";"Cot Ba'u, Kec. Sukajaya, Kota Sabang";"ACEH";"23522";"Indonesia";"";"5.8651482";"95.3383309";"https://maps.google.com/?cid=0x0:0xd67093001a54e617"
"perumahan";"Pembangunan Perumahan";"Rumah Misman";"R8G8+FG6, Batee Shoek, Sukakarya, Kota Sabang, Aceh 24416";"Batee Shoek, Sukakarya, Kota Sabang";"ACEH";"24416";"Indonesia";"";"5.825811";"95.3163451";"https://maps.google.com/?cid=0x0:0x1efd95cc74bfbf5e"
"perumahan";"Perumahan";"Komplek Perumahan Guru Cot Damar (Fahrul Razi)";"Unnamed Road,jln, Paya Seunara, Sukakarya, Kota Sabang, Aceh 24410";"Paya Seunara, Sukakarya, Kota Sabang";"ACEH";"24410";"Indonesia";"";"5.8341066";"95.3134762";"https://maps.google.com/?cid=0x0:0x413b275a5f1a88be"
"perumahan";"Komplek perumahan";"Rumah orang ganteng";"V8V9+33F, Kuta Barat, Sukakarya, Kota Sabang, Aceh";"Kota Sabang, Aceh";"ACEH";"";"Indonesia";"";"5.8919168";"95.3171133";"https://maps.google.com/?cid=0x0:0x327762d14174fa34"
"perumahan";"Departemen Perhubungan";"Komplek Navigasi";"Jl. Teuku Umar No.7, Kuta Ateueh, Sukakarya, Kota Sabang, Aceh";"Kota Sabang, Aceh";"ACEH";"";"Indonesia";"";"5.8951402";"95.3149192";"https://maps.google.com/?cid=0x0:0xe93bac2d3c9ee215"
"perumahan";"Perhimpunan Pengembang Perumahan";"Rumah Rivat  Qanisha";"V8CJ+V3R, Jurong putro ijou, Aneuk Laot, Kota Sabang";"Kota Sabang, Aceh";"ACEH";"";"Indonesia";"";"5.8722315";"95.3301374";"https://maps.google.com/?cid=0x0:0x5f2e1a5736ad1eeb"
"perumahan";"Pembangunan Perumahan";"Isfan Dodent";"V88R+C9C, Cot Ba'u, Kec. Sukajaya, Kota Sabang, Aceh 24410";"Cot Ba'u, Kec. Sukajaya, Kota Sabang";"ACEH";"24410";"Indonesia";"";"5.8660556";"95.3409046";"https://maps.google.com/?cid=0x0:0x8d3010b7c32fd2ed"
"perumahan";"Komplek perumahan";"Elfarissa";"V8Q8+P7H, Kuta Barat, Sukakarya, Kota Sabang, Aceh";"Kota Sabang, Aceh";"ACEH";"";"Indonesia";" 0895331232620";"5.8893133";"95.3157379";"https://maps.google.com/?cid=0x0:0xf00c621ac04c8f99"
"perumahan";"Komplek perumahan";"IRWAN PESAT";"V8Q8+R6H Lr. Pesat, Kuta Barat, Sukakarya, Kota Sabang, Aceh";"Kota Sabang, Aceh";"ACEH";"";"Indonesia";" 085296997553";"5.8895597";"95.3156223";"https://maps.google.com/?cid=0x0:0x8487b998d10b3030"
"perumahan";"Bank";"Perumahan Sabang Maskapai 1909";"V8V9+J6C, Kuta Ateueh, Sukakarya, Kota Sabang, Aceh";"Kota Sabang, Aceh";"ACEH";"";"Indonesia";"";"5.8940594";"95.3180241";"https://maps.google.com/?cid=0x0:0x6a2f01f6e397ee44"
"perumahan";"perumahan";"Sukakarya";"Kota Sabang, Aceh";"Kota Sabang, Aceh";"ACEH";"";"Indonesia";"";"5.8477312";"95.2632201";"https://maps.google.com/?cid=0x0:0x3f20b360b2a1d865"
"perumahan";"perumahan";"rumah mustafa";"V8FC+FFF, Krueng Raya, Sukakarya, Kota Sabang, Aceh 24416";"Krueng Raya, Sukakarya, Kota Sabang";"ACEH";"24416";"Indonesia";"";"5.8736389";"95.3213056";"https://maps.google.com/?cid=0x0:0xfdf06768bcc4dedb"
"perumahan";"Perumahan";"Komplek Perumahan Guru Cot Damar (Fahrul Razi)";"Unnamed Road,jln, Paya Seunara, Sukakarya, Kota Sabang, Aceh 24410";"Paya Seunara, Sukakarya, Kota Sabang";"ACEH";"24410";"Indonesia";"";"5.8341066";"95.3134762";"https://maps.google.com/?cid=0x0:0x413b275a5f1a88be"
"perumahan";"Perhimpunan Pengembang Perumahan";"Rumah Rivat  Qanisha";"V8CJ+V3R, Jurong putro ijou, Aneuk Laot, Kota Sabang";"Kota Sabang, Aceh";"ACEH";"";"Indonesia";"";"5.8722315";"95.3301374";"https://maps.google.com/?cid=0x0:0x5f2e1a5736ad1eeb"
"perumahan";"Komplek perumahan";"Rumah orang ganteng";"V8V9+33F, Kuta Barat, Sukakarya, Kota Sabang, Aceh";"Kota Sabang, Aceh";"ACEH";"";"Indonesia";"";"5.8919168";"95.3171133";"https://maps.google.com/?cid=0x0:0x327762d14174fa34"
"perumahan";"Komplek perumahan";"Komplek perumahan";"V8GG+4X8, Aneuk Laot, Sukakarya, Kota Sabang, Aceh 24416";"Aneuk Laot, Sukakarya, Kota Sabang";"ACEH";"24416";"Indonesia";"";"5.8753268";"95.3268517";"https://maps.google.com/?cid=0x0:0xd93e9336f0db6c37"
"perumahan";"Komplek perumahan";"Komplek Perumahan Polisi";"Jl. Bypass No.13, Cot Ba'u, Kec. Sukajaya, Kota Sabang, Aceh 23522";"Cot Ba'u, Kec. Sukajaya, Kota Sabang";"ACEH";"23522";"Indonesia";"";"5.8651482";"95.3383309";"https://maps.google.com/?cid=0x0:0xd67093001a54e617"
"perumahan";"Komplek perumahan";"Elfarissa";"V8Q8+P7H, Kuta Barat, Sukakarya, Kota Sabang, Aceh";"Kota Sabang, Aceh";"ACEH";"";"Indonesia";" 0895331232620";"5.8893133";"95.3157379";"https://maps.google.com/?cid=0x0:0xf00c621ac04c8f99"
"perumahan";"Departemen Perhubungan";"Komplek Navigasi";"Jl. Teuku Umar No.7, Kuta Ateueh, Sukakarya, Kota Sabang, Aceh";"Kota Sabang, Aceh";"ACEH";"";"Indonesia";"";"5.8951402";"95.3149192";"https://maps.google.com/?cid=0x0:0xe93bac2d3c9ee215"
"perumahan";"Komplek perumahan";"Rumah bunda mila";"V8XC+552, jl.T.Nyak Arief, Kuta Ateueh, Sukakarya, Kota Sabang, Aceh 24411";"jl.T.Nyak Arief, Kuta Ateueh, Sukakarya, Kota Sabang";"ACEH";"24411";"Indonesia";"";"5.897899";"95.320377";"https://maps.google.com/?cid=0x0:0x390ac9077d0c8a5c"
"perumahan";"Pembangunan Perumahan";"Rumah Misman";"R8G8+FG6, Batee Shoek, Sukakarya, Kota Sabang, Aceh 24416";"Batee Shoek, Sukakarya, Kota Sabang";"ACEH";"24416";"Indonesia";"";"5.825811";"95.3163451";"https://maps.google.com/?cid=0x0:0x1efd95cc74bfbf5e"
"perumahan";"Pembangunan Perumahan";"Komplek Perumahan Tsunami Ujoung Sikundor";"V893+HGC, Krueng Raya, Sukakarya, Kota Sabang, Aceh 24410";"Krueng Raya, Sukakarya, Kota Sabang";"ACEH";"24410";"Indonesia";" 082315569512";"5.8689386";"95.303752";"https://maps.google.com/?cid=0x0:0x3431be686ef7b067"
"perumahan";"Komplek perumahan";"Rumah Haris ayu";"V8HJ+5G7, Cot Ba'u, Kec. Sukajaya, Kota Sabang, Aceh";"Kota Sabang, Aceh";"ACEH";"";"Indonesia";"";"5.8779065";"95.3313038";"https://maps.google.com/?cid=0x0:0x972ae60b1e5f1240"
"perumahan";"Komplek perumahan";"Rumah Wak umar";"V8VC+RCW, Jl. Cut Mutia, Kuta Ateueh, Sukakarya, Kota Sabang, Aceh";"Kota Sabang, Aceh";"ACEH";"";"Indonesia";"";"5.8946014";"95.321081";"https://maps.google.com/?cid=0x0:0x6a5a5344b461894f"
"perumahan";"Pembangunan Perumahan";"Suka Makmue Residence";"Jl. Poros Utama, Alue Ie Mameh, Kec. Kuala, Kabupaten Nagan Raya, Aceh 23671";"Alue Ie Mameh, Kec. Kuala, Kabupaten Nagan Raya";"ACEH";"23671";"Indonesia";"";"4.1390335";"96.3235548";"https://maps.google.com/?cid=0x0:0xa9f304a33b3d58be"
"perumahan";"perumahan";"Kec. Suka Makmue";"Kabupaten Nagan Raya, Aceh";"Kabupaten Nagan Raya, Aceh";"ACEH";"";"Indonesia";"";"4.1754329";"96.3067203";"https://maps.google.com/?cid=0x0:0xdb078d96d292fb42"
"perumahan";"perumahan";"Rumah sy arif";"58MH+2G6, Blang Sapek, Kec. Suka Makmue, Kabupaten Nagan Raya, Aceh 23671";"Blang Sapek, Kec. Suka Makmue, Kabupaten Nagan Raya";"ACEH";"23671";"Indonesia";"";"4.1825391";"96.3287728";"https://maps.google.com/?cid=0x0:0xb4986c0e0c80ee9b"
"perumahan";"Pembangunan Perumahan";"Komplek Perumahan Residence";"48QF+F8V, Jl. Poros Utama, Ujong Fatihah, Kec. Kuala, Kabupaten Nagan Raya, Aceh 23671";"Jl. Poros Utama, Ujong Fatihah, Kec. Kuala, Kabupaten Nagan Raya";"ACEH";"23671";"Indonesia";"";"4.1387444";"96.323289";"https://maps.google.com/?cid=0x0:0x917859cfbf841328"
"perumahan";"Rumah Pondokan";"Rumah saya";"58G4+86Q, Lueng Baro, Kec. Suka Makmue, Kabupaten Nagan Raya, Aceh 23671";"Lueng Baro, Kec. Suka Makmue, Kabupaten Nagan Raya";"ACEH";"23671";"Indonesia";"";"4.1752177";"96.3053316";"https://maps.google.com/?cid=0x0:0x2b37a30e9ebbdfe8"
"perumahan";"Komplek perumahan";"PERUMAHAN GRAND MITRA58";"48H9+XXP, Ujong Fatihah, Kec. Kuala, Kabupaten Nagan Raya, Aceh 23671";"Ujong Fatihah, Kec. Kuala, Kabupaten Nagan Raya";"ACEH";"23671";"Indonesia";" 082327896791";"4.1299595";"96.3199549";"https://maps.google.com/?cid=0x0:0xdac516842e51644b"
"perumahan";"Komplek perumahan";"Alam mulia property";"48XF+C48, Jl. Poros Utama, Alue Ie Mameh, Kec. Kuala, Kabupaten Nagan Raya, Aceh 23671";"Jl. Poros Utama, Alue Ie Mameh, Kec. Kuala, Kabupaten Nagan Raya";"ACEH";"23671";"Indonesia";"";"4.1485279";"96.3228146";"https://maps.google.com/?cid=0x0:0x68f65e7b23662e00"
"perumahan";"Komplek perumahan";"KOMPLEK PERUMAHAN";"58G6+VQQ, Lueng Baro, Kec. Suka Makmue, Kabupaten Nagan Raya, Aceh 23671";"Lueng Baro, Kec. Suka Makmue, Kabupaten Nagan Raya";"ACEH";"23671";"Indonesia";"";"4.1772002";"96.3119743";"https://maps.google.com/?cid=0x0:0x356062fe4b5e25cf"
"perumahan";"Rumah Pondokan";"Perumahan Pemda Nagan Raya";"588G+PC3, Lueng Baro, Kec. Suka Makmue, Kabupaten Nagan Raya, Aceh 23671";"Lueng Baro, Kec. Suka Makmue, Kabupaten Nagan Raya";"ACEH";"23671";"Indonesia";"";"4.1667671";"96.3260592";"https://maps.google.com/?cid=0x0:0xeffa51823e3987e7"
"perumahan";"Pembangunan Perumahan";"Sri";"58J4+V7, Kabu Blang Sapek, Kec. Suka Makmue, Kabupaten Nagan Raya, Aceh";"Kabupaten Nagan Raya, Aceh";"ACEH";"";"Indonesia";"";"4.1821717";"96.3056947";"https://maps.google.com/?cid=0x0:0x2b8b9432bbd3bfe2"
"perumahan";"Kantor Perusahaan";"Dinas Perumahan Rakyat Dan kawasan Permukiman";"584F+M7J, Cot Kuta, Kec. Suka Makmue, Kabupaten Nagan Raya, Aceh 23671";"Cot Kuta, Kec. Suka Makmue, Kabupaten Nagan Raya";"ACEH";"23671";"Indonesia";" 082347320262";"4.1567177";"96.3231326";"https://maps.google.com/?cid=0x0:0xb5a2bc362a4073df"
"perumahan";"Perumahan";"Rumah";"48Q3+642, Jl. Meulaboh - Beutong Ateuh, Alue Ie Mameh, Kec. Kuala, Kabupaten Nagan Raya, Aceh 23671";"Jl. Meulaboh - Beutong Ateuh, Alue Ie Mameh, Kec. Kuala, Kabupaten Nagan Raya";"ACEH";"23671";"Indonesia";" 081236660509";"4.1380223";"96.302771";"https://maps.google.com/?cid=0x0:0x2f20cce4fef7cd38"
"perumahan";"Polisi Sipil";"Komplek Perumahan Polres Nagan Raya";"583F+WF7, Cot Kuta, Kec. Suka Makmue, Kabupaten Nagan Raya, Aceh 23671";"Cot Kuta, Kec. Suka Makmue, Kabupaten Nagan Raya";"ACEH";"23671";"Indonesia";"";"4.1547918";"96.3236632";"https://maps.google.com/?cid=0x0:0x2c21c446bc72c108"
"perumahan";"Pembangunan Perumahan";"Residence Alue Kambuek";"Alue Kambuek, Kec. Suka Makmue, Kabupaten Nagan Raya, Aceh";"Kabupaten Nagan Raya, Aceh";"ACEH";"";"Indonesia";" 081269975600";"4.147733";"96.3257697";"https://maps.google.com/?cid=0x0:0x5bf2ea1e99ef2d2f"
"housing complex";"housing complex";"Aceh";"";"Aceh";"ACEH";"";"Indonesia";"";"4.695135";"96.7493993";"https://maps.google.com/?cid=0x0:0x1039d80b220ca60"
"housing complex";"housing complex";"Kec. Sukajaya";"Kabupaten Bogor, Jawa Barat";"Kabupaten Bogor, Jawa Barat";"ACEH";"";"Indonesia";"";"-6.5895984";"106.4899491";"https://maps.google.com/?cid=0x0:0xc0c36ba8bcc8b8bc"
"housing complex";"Perumahan";"Kp gunung Menteng desa Sukajaya kabupaten Bogor";"Sukajaya, Kec. Sukajaya, Kabupaten Bogor, Jawa Barat 16660";"Kec. Sukajaya, Kabupaten Bogor";"ACEH";"16660";"Indonesia";"";"-6.5885473";"106.5044156";"https://maps.google.com/?cid=0x0:0xf595f1674e4e7265"
"housing complex";"Komplek perumahan";"Rumah iki";"CG43+3X5, Sukajaya, Kec. Sukajaya, Kabupaten Bogor, Jawa Barat 16660";"Sukajaya, Kec. Sukajaya, Kabupaten Bogor";"ACEH";"16660";"Indonesia";"";"-6.5948526";"106.5049725";"https://maps.google.com/?cid=0x0:0x540062a44be423e4"
"housing complex";"Komplek perumahan";"BangBungsu";"8FXJ+3Q9, Cisarua, Kec. Sukajaya, Kabupaten Bogor, Jawa Barat 16660";"Cisarua, Kec. Sukajaya, Kabupaten Bogor";"ACEH";"16660";"Indonesia";"";"-6.6523917";"106.48205";"https://maps.google.com/?cid=0x0:0x74bc99371aa9c79f"
"housing complex";"Pembangunan Perumahan";"My house";"CG55+MGX, Sukajaya, Kec. Sukajaya, Kabupaten Bogor, Jawa Barat 16660";"Sukajaya, Kec. Sukajaya, Kabupaten Bogor";"ACEH";"16660";"Indonesia";"";"-6.5907553";"106.508862";"https://maps.google.com/?cid=0x0:0x82a8497f10505630"
"housing complex";"Komplek perumahan";"KP. POJOK TENGAH";"8FWH+WP9, Unnamed Road, Cisarua, Kec. Sukajaya, Kabupaten Bogor, Jawa Barat 16660";"Unnamed Road, Cisarua, Kec. Sukajaya, Kabupaten Bogor";"ACEH";"16660";"Indonesia";" 081517955271";"-6.6527192";"106.479365";"https://maps.google.com/?cid=0x0:0x507f09d1a5e4ec16"
"housing complex";"Komplek perumahan";"AKANG SAEPUDIN KP POJOK HILIR";"9F2J+J8X, Cisarua, Kec. Sukajaya, Kabupaten Bogor, Jawa Barat 16660";"Cisarua, Kec. Sukajaya, Kabupaten Bogor";"ACEH";"16660";"Indonesia";"";"-6.6489518";"106.4804236";"https://maps.google.com/?cid=0x0:0x5146ad7138d562fc"
"housing complex";"Perumahan";"Kp, Pasir Eurih, Kiarapandak, Sukajaya, kab, Bogor";"9FCV+J97, Kiarapandak, Kec. Sukajaya, Kabupaten Bogor, Jawa Barat 16660";"Kiarapandak, Kec. Sukajaya, Kabupaten Bogor";"ACEH";"16660";"Indonesia";"";"-6.6275798";"106.4929363";"https://maps.google.com/?cid=0x0:0xf27a9334454410a4"
"housing complex";"Pembangunan Perumahan";"perumahan cibandung";"CC3M+HR9, Cileuksa, Kec. Sukajaya, Kabupaten Bogor, Jawa Barat 16660";"Cileuksa, Kec. Sukajaya, Kabupaten Bogor";"ACEH";"16660";"Indonesia";"";"-6.5960799";"106.4346007";"https://maps.google.com/?cid=0x0:0xa30cd1482930e41f"
"housing complex";"Komplek perumahan";"Housing complex";"8MF8+GXF, Gn. Sari, Kec. Pamijahan, Kabupaten Bogor, Jawa Barat 16810";"Gn. Sari, Kec. Pamijahan, Kabupaten Bogor";"ACEH";"16810";"Indonesia";"";"-6.67623";"106.6674698";"https://maps.google.com/?cid=0x0:0x2ae08f32015fb52f"
"housing complex";"Komplek perumahan";"Hindun house";"CGC5+3FG, Sipayung, Kec. Sukajaya, Kabupaten Bogor, Jawa Barat 16660";"Sipayung, Kec. Sukajaya, Kabupaten Bogor";"ACEH";"16660";"Indonesia";"";"-6.5798";"106.5087093";"https://maps.google.com/?cid=0x0:0x56ecac3e8fcd74e6"
"housing complex";"Grosir";"Abdhal_Agen Gas LPG";"Jl. Kp. Ciputih, RT.01/RW.02, Desa Jayaraharja, Kec. Sukajaya, Kabupaten Bogor, Jawa Barat 16660";"RT.01/RW.02, Desa Jayaraharja, Kec. Sukajaya, Kabupaten Bogor";"ACEH";"16660";"Indonesia";" 081511465046";"-6.532453";"106.7890011";"https://maps.google.com/?cid=0x0:0xaa3faee6aa33404"
"housing complex";"Pembangunan Perumahan";"Cirarak tonggoh";"8FWW+P8J, Kiarasari, Kec. Sukajaya, Kabupaten Bogor, Jawa Barat 16660";"Kiarasari, Kec. Sukajaya, Kabupaten Bogor";"ACEH";"16660";"Indonesia";"";"-6.6531323";"106.4957495";"https://maps.google.com/?cid=0x0:0xa0b18b71c36e3eda"
"housing complex";"housing complex";"Kec. Sukajaya";"Kota Sabang, Aceh";"Kota Sabang, Aceh";"ACEH";"";"Indonesia";"";"5.7982249";"95.3393038";"https://maps.google.com/?cid=0x0:0x61751f5adc7de5c6"
"housing complex";"Komplek perumahan";"iskandar House";"V8VM+W4F, Jl. H. Agus Salim, Ie Meulee, Kec. Sukajaya, Kota Sabang, Aceh 23521";"Jl. H. Agus Salim, Ie Meulee, Kec. Sukajaya, Kota Sabang";"ACEH";"23521";"Indonesia";"";"5.8946313";"95.3328555";"https://maps.google.com/?cid=0x0:0x50a5fa7e180ff492"
"housing complex";"Perumahan";"Isna house";"V8VM+W4F, Jl. H. Agus Salim, Ie Meulee, Kec. Sukajaya, Kota Sabang, Aceh 23521";"Jl. H. Agus Salim, Ie Meulee, Kec. Sukajaya, Kota Sabang";"ACEH";"23521";"Indonesia";"";"5.8948696";"95.3327382";"https://maps.google.com/?cid=0x0:0x2d22744d7b0e1a3c"
"housing complex";"housing complex";"Kec. Sukajaya";"Kabupaten Bogor, Jawa Barat";"Kabupaten Bogor, Jawa Barat";"ACEH";"";"Indonesia";"";"-6.5895984";"106.4899491";"https://maps.google.com/?cid=0x0:0xc0c36ba8bcc8b8bc"
"housing complex";"Pembangunan Perumahan";"RaShaNa Home 2";"CF6Q+4XQ, Sukajaya, Kec. Sukajaya, Kabupaten Bogor, Jawa Barat";"Kabupaten Bogor, Jawa Barat";"ACEH";"";"Indonesia";"";"-6.5896733";"106.4899861";"https://maps.google.com/?cid=0x0:0x6c91dc9fc61d2d9c"
"housing complex";"Pembangunan Perumahan";"My house";"CG55+MGX, Sukajaya, Kec. Sukajaya, Kabupaten Bogor, Jawa Barat 16660";"Sukajaya, Kec. Sukajaya, Kabupaten Bogor";"ACEH";"16660";"Indonesia";"";"-6.5907553";"106.508862";"https://maps.google.com/?cid=0x0:0x82a8497f10505630"
"housing complex";"Komplek perumahan";"HOME YUDA";"Kp.Siranggap, RT.001/Rw004/RW.no.14, Blok Tengah, Nanggung, Kec. Nanggung, Kabupaten Bogor, Jawa Barat 16650";"RT.001/Rw004/RW.no.14, Blok Tengah, Nanggung, Kec. Nanggung, Kabupaten Bogor";"ACEH";"16650";"Indonesia";"";"-6.6062377";"106.5280211";"https://maps.google.com/?cid=0x0:0x403502b6e0482e44"
"housing complex";"Perumahan";"Kp gunung Menteng desa Sukajaya kabupaten Bogor";"Sukajaya, Kec. Sukajaya, Kabupaten Bogor, Jawa Barat 16660";"Kec. Sukajaya, Kabupaten Bogor";"ACEH";"16660";"Indonesia";"";"-6.5885473";"106.5044156";"https://maps.google.com/?cid=0x0:0xf595f1674e4e7265"
"housing complex";"Komplek perumahan";"Rumah Dipra";"CG57+7P8, Sukajaya, Kec. Sukajaya, Kabupaten Bogor, Jawa Barat";"Kabupaten Bogor, Jawa Barat";"ACEH";"";"Indonesia";" 085778042138";"-6.5918257";"106.5143213";"https://maps.google.com/?cid=0x0:0xac1cf898ca652c42"
"housing complex";"Komplek perumahan";"Rumah neng khanza";"CF5G+FWW, Pasir Madang, Kec. Sukajaya, Kabupaten Bogor, Jawa Barat 16660";"Pasir Madang, Kec. Sukajaya, Kabupaten Bogor";"ACEH";"16660";"Indonesia";"";"-6.5912552";"106.477341";"https://maps.google.com/?cid=0x0:0x1f0df731932a9d2e"
"housing complex";"Pembangunan Perumahan";"House Koyah";"9CWM+6RW, Cileuksa, hilir, Kabupaten Bogor, Jawa Barat 16660";"Cileuksa, hilir, Kabupaten Bogor";"ACEH";"16660";"Indonesia";"";"-6.6043759";"106.4345806";"https://maps.google.com/?cid=0x0:0x6881edf20fef27d8"
"housing complex";"Komplek perumahan";"Legok cau";"9FFW+HMG, Kiarapandak, Kec. Sukajaya, Kabupaten Bogor, Jawa Barat 16660";"Kiarapandak, Kec. Sukajaya, Kabupaten Bogor";"ACEH";"16660";"Indonesia";"";"-6.6260547";"106.4966993";"https://maps.google.com/?cid=0x0:0x1c864567ecb312ec"
"housing complex";"Pembangunan Perumahan";"Cidumpit";"CFCH+H99, Cidumpit, Sukamulih, Kec. Sukajaya, Kabupaten Bogor, Jawa Barat 16660";"Cidumpit, Sukamulih, Kec. Sukajaya, Kabupaten Bogor";"ACEH";"16660";"Indonesia";"";"-6.5785937";"106.4784711";"https://maps.google.com/?cid=0x0:0x74966c7001089f8f"
"housing complex";"Komplek perumahan";"Dedes";"9GJ2+946, Kiarapandak, Kec. Sukajaya, Kabupaten Bogor, Jawa Barat 16660";"Kiarapandak, Kec. Sukajaya, Kabupaten Bogor";"ACEH";"16660";"Indonesia";"";"-6.6191453";"106.5002438";"https://maps.google.com/?cid=0x0:0xca0181c562aff76a"
"housing complex";"housing complex";"Kec. Sukajaya";"Kota Sabang, Aceh";"Kota Sabang, Aceh";"ACEH";"";"Indonesia";"";"5.7982249";"95.3393038";"https://maps.google.com/?cid=0x0:0x61751f5adc7de5c6"
"housing complex";"Komplek perumahan";"Komplek Perumahan Polisi";"Jl. Bypass No.13, Cot Ba'u, Kec. Sukajaya, Kota Sabang, Aceh 23522";"Cot Ba'u, Kec. Sukajaya, Kota Sabang";"ACEH";"23522";"Indonesia";"";"5.8651482";"95.3383309";"https://maps.google.com/?cid=0x0:0xd67093001a54e617"
"housing complex";"Kantor Polisi";"Aspol Polsek Sukakarya, Paya Seunara";"R8R7+WXP, Paya Seunara, Sukakarya, Kota Sabang, Aceh";"Kota Sabang, Aceh";"ACEH";"";"Indonesia";"";"5.8423457";"95.3149443";"https://maps.google.com/?cid=0x0:0xd31fe379a2d06344"
"housing complex";"Pembangunan Perumahan";"RaShaNa Home 2";"CF6Q+4XQ, Sukajaya, Kec. Sukajaya, Kabupaten Bogor, Jawa Barat";"Kabupaten Bogor, Jawa Barat";"ACEH";"";"Indonesia";"";"-6.5896733";"106.4899861";"https://maps.google.com/?cid=0x0:0x6c91dc9fc61d2d9c"
"housing complex";"Pembangunan Perumahan";"My house";"CG55+MGX, Sukajaya, Kec. Sukajaya, Kabupaten Bogor, Jawa Barat 16660";"Sukajaya, Kec. Sukajaya, Kabupaten Bogor";"ACEH";"16660";"Indonesia";"";"-6.5907553";"106.508862";"https://maps.google.com/?cid=0x0:0x82a8497f10505630"
"housing complex";"Perumahan";"Kp gunung Menteng desa Sukajaya kabupaten Bogor";"Sukajaya, Kec. Sukajaya, Kabupaten Bogor, Jawa Barat 16660";"Kec. Sukajaya, Kabupaten Bogor";"ACEH";"16660";"Indonesia";"";"-6.5885473";"106.5044156";"https://maps.google.com/?cid=0x0:0xf595f1674e4e7265"
"housing complex";"Komplek perumahan";"Hindun house";"CGC5+3FG, Sipayung, Kec. Sukajaya, Kabupaten Bogor, Jawa Barat 16660";"Sipayung, Kec. Sukajaya, Kabupaten Bogor";"ACEH";"16660";"Indonesia";"";"-6.5798";"106.5087093";"https://maps.google.com/?cid=0x0:0x56ecac3e8fcd74e6"
"housing complex";"Pembangunan Perumahan";"Cidumpit";"CFCH+H99, Cidumpit, Sukamulih, Kec. Sukajaya, Kabupaten Bogor, Jawa Barat 16660";"Cidumpit, Sukamulih, Kec. Sukajaya, Kabupaten Bogor";"ACEH";"16660";"Indonesia";"";"-6.5785937";"106.4784711";"https://maps.google.com/?cid=0x0:0x74966c7001089f8f"
"housing complex";"Pembangunan Perumahan";"House Koyah";"9CWM+6RW, Cileuksa, hilir, Kabupaten Bogor, Jawa Barat 16660";"Cileuksa, hilir, Kabupaten Bogor";"ACEH";"16660";"Indonesia";"";"-6.6043759";"106.4345806";"https://maps.google.com/?cid=0x0:0x6881edf20fef27d8"
"housing complex";"Komplek perumahan";"Harun stay";"9GCF+W3R, Jl. Kp. Pasir Peuteuy, Nanggung, Kec. Nanggung, Kabupaten Bogor, Jawa Barat 16650";"Jl. Kp. Pasir Peuteuy, Nanggung, Kec. Nanggung, Kabupaten Bogor";"ACEH";"16650";"Indonesia";"";"-6.6276453";"106.5226552";"https://maps.google.com/?cid=0x0:0x813151e010ea8162"
"housing complex";"Komplek perumahan";"Rumah Dipra";"CG57+7P8, Sukajaya, Kec. Sukajaya, Kabupaten Bogor, Jawa Barat";"Kabupaten Bogor, Jawa Barat";"ACEH";"";"Indonesia";" 085778042138";"-6.5918257";"106.5143213";"https://maps.google.com/?cid=0x0:0xac1cf898ca652c42"
"housing complex";"Komplek perumahan";"HOME YUDA";"Kp.Siranggap, RT.001/Rw004/RW.no.14, Blok Tengah, Nanggung, Kec. Nanggung, Kabupaten Bogor, Jawa Barat 16650";"RT.001/Rw004/RW.no.14, Blok Tengah, Nanggung, Kec. Nanggung, Kabupaten Bogor";"ACEH";"16650";"Indonesia";"";"-6.6062377";"106.5280211";"https://maps.google.com/?cid=0x0:0x403502b6e0482e44"
"housing complex";"Komplek perumahan";"Legok cau";"9FFW+HMG, Kiarapandak, Kec. Sukajaya, Kabupaten Bogor, Jawa Barat 16660";"Kiarapandak, Kec. Sukajaya, Kabupaten Bogor";"ACEH";"16660";"Indonesia";"";"-6.6260547";"106.4966993";"https://maps.google.com/?cid=0x0:0x1c864567ecb312ec"
"housing complex";"Pembangunan Perumahan";"perumahan cibandung";"CC3M+HR9, Cileuksa, Kec. Sukajaya, Kabupaten Bogor, Jawa Barat 16660";"Cileuksa, Kec. Sukajaya, Kabupaten Bogor";"ACEH";"16660";"Indonesia";"";"-6.5960799";"106.4346007";"https://maps.google.com/?cid=0x0:0xa30cd1482930e41f"
"housing complex";"housing complex";"Kec. Sukajaya";"Kota Sabang, Aceh";"Kota Sabang, Aceh";"ACEH";"";"Indonesia";"";"5.7982249";"95.3393038";"https://maps.google.com/?cid=0x0:0x61751f5adc7de5c6"
"housing complex";"housing complex";"Kec. Sukajaya";"Kabupaten Bogor, Jawa Barat";"Kabupaten Bogor, Jawa Barat";"ACEH";"";"Indonesia";"";"-6.5895984";"106.4899491";"https://maps.google.com/?cid=0x0:0xc0c36ba8bcc8b8bc"
"housing complex";"Pembangunan Perumahan";"RaShaNa Home 2";"CF6Q+4XQ, Sukajaya, Kec. Sukajaya, Kabupaten Bogor, Jawa Barat";"Kabupaten Bogor, Jawa Barat";"ACEH";"";"Indonesia";"";"-6.5896733";"106.4899861";"https://maps.google.com/?cid=0x0:0x6c91dc9fc61d2d9c"
"housing complex";"Perumahan";"Kp gunung Menteng desa Sukajaya kabupaten Bogor";"Sukajaya, Kec. Sukajaya, Kabupaten Bogor, Jawa Barat 16660";"Kec. Sukajaya, Kabupaten Bogor";"ACEH";"16660";"Indonesia";"";"-6.5885473";"106.5044156";"https://maps.google.com/?cid=0x0:0xf595f1674e4e7265"
"housing complex";"Komplek perumahan";"AKANG SAEPUDIN KP POJOK HILIR";"9F2J+J8X, Cisarua, Kec. Sukajaya, Kabupaten Bogor, Jawa Barat 16660";"Cisarua, Kec. Sukajaya, Kabupaten Bogor";"ACEH";"16660";"Indonesia";"";"-6.6489518";"106.4804236";"https://maps.google.com/?cid=0x0:0x5146ad7138d562fc"
"housing complex";"Komplek perumahan";"Rumah Dipra";"CG57+7P8, Sukajaya, Kec. Sukajaya, Kabupaten Bogor, Jawa Barat";"Kabupaten Bogor, Jawa Barat";"ACEH";"";"Indonesia";" 085778042138";"-6.5918257";"106.5143213";"https://maps.google.com/?cid=0x0:0xac1cf898ca652c42"
"housing complex";"Komplek perumahan";"KP. POJOK TENGAH";"8FWH+WP9, Unnamed Road, Cisarua, Kec. Sukajaya, Kabupaten Bogor, Jawa Barat 16660";"Unnamed Road, Cisarua, Kec. Sukajaya, Kabupaten Bogor";"ACEH";"16660";"Indonesia";" 081517955271";"-6.6527192";"106.479365";"https://maps.google.com/?cid=0x0:0x507f09d1a5e4ec16"
"housing complex";"Komplek perumahan";"Legok cau";"9FFW+HMG, Kiarapandak, Kec. Sukajaya, Kabupaten Bogor, Jawa Barat 16660";"Kiarapandak, Kec. Sukajaya, Kabupaten Bogor";"ACEH";"16660";"Indonesia";"";"-6.6260547";"106.4966993";"https://maps.google.com/?cid=0x0:0x1c864567ecb312ec"
"housing complex";"Pembangunan Perumahan";"Cidumpit";"CFCH+H99, Cidumpit, Sukamulih, Kec. Sukajaya, Kabupaten Bogor, Jawa Barat 16660";"Cidumpit, Sukamulih, Kec. Sukajaya, Kabupaten Bogor";"ACEH";"16660";"Indonesia";"";"-6.5785937";"106.4784711";"https://maps.google.com/?cid=0x0:0x74966c7001089f8f"
"housing complex";"Komplek perumahan";"HOME YUDA";"Kp.Siranggap, RT.001/Rw004/RW.no.14, Blok Tengah, Nanggung, Kec. Nanggung, Kabupaten Bogor, Jawa Barat 16650";"RT.001/Rw004/RW.no.14, Blok Tengah, Nanggung, Kec. Nanggung, Kabupaten Bogor";"ACEH";"16650";"Indonesia";"";"-6.6062377";"106.5280211";"https://maps.google.com/?cid=0x0:0x403502b6e0482e44"
"housing complex";"Pembangunan Perumahan";"perumahan cibandung";"CC3M+HR9, Cileuksa, Kec. Sukajaya, Kabupaten Bogor, Jawa Barat 16660";"Cileuksa, Kec. Sukajaya, Kabupaten Bogor";"ACEH";"16660";"Indonesia";"";"-6.5960799";"106.4346007";"https://maps.google.com/?cid=0x0:0xa30cd1482930e41f"
"housing complex";"Komplek perumahan";"Hindun house";"CGC5+3FG, Sipayung, Kec. Sukajaya, Kabupaten Bogor, Jawa Barat 16660";"Sipayung, Kec. Sukajaya, Kabupaten Bogor";"ACEH";"16660";"Indonesia";"";"-6.5798";"106.5087093";"https://maps.google.com/?cid=0x0:0x56ecac3e8fcd74e6"
"housing complex";"Komplek perumahan";"Rumah chrisprayoga s.h";"9GHG+V2, Nanggung, Kec. Nanggung, Kabupaten Bogor, Jawa Barat";"Kabupaten Bogor, Jawa Barat";"ACEH";"";"Indonesia";"";"-6.6202945";"106.5250418";"https://maps.google.com/?cid=0x0:0xda4450fdc2280cb5"
"housing complex";"Komplek perumahan";"Harun stay";"9GCF+W3R, Jl. Kp. Pasir Peuteuy, Nanggung, Kec. Nanggung, Kabupaten Bogor, Jawa Barat 16650";"Jl. Kp. Pasir Peuteuy, Nanggung, Kec. Nanggung, Kabupaten Bogor";"ACEH";"16650";"Indonesia";"";"-6.6276453";"106.5226552";"https://maps.google.com/?cid=0x0:0x813151e010ea8162"
"housing complex";"housing complex";"Kec. Sukajaya";"Kota Sabang, Aceh";"Kota Sabang, Aceh";"ACEH";"";"Indonesia";"";"5.7982249";"95.3393038";"https://maps.google.com/?cid=0x0:0x61751f5adc7de5c6"
"housing complex";"housing complex";"rumah khalis";"R83Q+CXF, Jaboi, Kec. Sukajaya, Kota Sabang, Aceh 24411";"Jaboi, Kec. Sukajaya, Kota Sabang";"ACEH";"24411";"Indonesia";"";"5.8036756";"95.3405002";"https://maps.google.com/?cid=0x0:0x7f937d4fb852c41d"
"housing complex";"housing complex";"Kec. Sukajaya";"Kabupaten Bogor, Jawa Barat";"Kabupaten Bogor, Jawa Barat";"ACEH";"";"Indonesia";"";"-6.5895984";"106.4899491";"https://maps.google.com/?cid=0x0:0xc0c36ba8bcc8b8bc"
"housing complex";"Perumahan";"Kp gunung Menteng desa Sukajaya kabupaten Bogor";"Sukajaya, Kec. Sukajaya, Kabupaten Bogor, Jawa Barat 16660";"Kec. Sukajaya, Kabupaten Bogor";"ACEH";"16660";"Indonesia";"";"-6.5885473";"106.5044156";"https://maps.google.com/?cid=0x0:0xf595f1674e4e7265"
"housing complex";"Pembangunan Perumahan";"RaShaNa Home 2";"CF6Q+4XQ, Sukajaya, Kec. Sukajaya, Kabupaten Bogor, Jawa Barat";"Kabupaten Bogor, Jawa Barat";"ACEH";"";"Indonesia";"";"-6.5896733";"106.4899861";"https://maps.google.com/?cid=0x0:0x6c91dc9fc61d2d9c"
"housing complex";"Pembangunan Perumahan";"Cidumpit";"CFCH+H99, Cidumpit, Sukamulih, Kec. Sukajaya, Kabupaten Bogor, Jawa Barat 16660";"Cidumpit, Sukamulih, Kec. Sukajaya, Kabupaten Bogor";"ACEH";"16660";"Indonesia";"";"-6.5785937";"106.4784711";"https://maps.google.com/?cid=0x0:0x74966c7001089f8f"
"housing complex";"Komplek perumahan";"HOME YUDA";"Kp.Siranggap, RT.001/Rw004/RW.no.14, Blok Tengah, Nanggung, Kec. Nanggung, Kabupaten Bogor, Jawa Barat 16650";"RT.001/Rw004/RW.no.14, Blok Tengah, Nanggung, Kec. Nanggung, Kabupaten Bogor";"ACEH";"16650";"Indonesia";"";"-6.6062377";"106.5280211";"https://maps.google.com/?cid=0x0:0x403502b6e0482e44"
"housing complex";"Komplek perumahan";"Rumah Dipra";"CG57+7P8, Sukajaya, Kec. Sukajaya, Kabupaten Bogor, Jawa Barat";"Kabupaten Bogor, Jawa Barat";"ACEH";"";"Indonesia";" 085778042138";"-6.5918257";"106.5143213";"https://maps.google.com/?cid=0x0:0xac1cf898ca652c42"
"housing complex";"Pembangunan Perumahan";"perumahan cibandung";"CC3M+HR9, Cileuksa, Kec. Sukajaya, Kabupaten Bogor, Jawa Barat 16660";"Cileuksa, Kec. Sukajaya, Kabupaten Bogor";"ACEH";"16660";"Indonesia";"";"-6.5960799";"106.4346007";"https://maps.google.com/?cid=0x0:0xa30cd1482930e41f"
"housing complex";"Komplek perumahan";"KP. POJOK TENGAH";"8FWH+WP9, Unnamed Road, Cisarua, Kec. Sukajaya, Kabupaten Bogor, Jawa Barat 16660";"Unnamed Road, Cisarua, Kec. Sukajaya, Kabupaten Bogor";"ACEH";"16660";"Indonesia";" 081517955271";"-6.6527192";"106.479365";"https://maps.google.com/?cid=0x0:0x507f09d1a5e4ec16"
"housing complex";"Komplek perumahan";"Rumah neng khanza";"CF5G+FWW, Pasir Madang, Kec. Sukajaya, Kabupaten Bogor, Jawa Barat 16660";"Pasir Madang, Kec. Sukajaya, Kabupaten Bogor";"ACEH";"16660";"Indonesia";"";"-6.5912552";"106.477341";"https://maps.google.com/?cid=0x0:0x1f0df731932a9d2e"
"housing complex";"Tempat Ibadah";"Rumah mertua";"9GJ5+HCJ, Kiarapandak, Kec. Sukajaya, Kabupaten Bogor, Jawa Barat 16660";"Kiarapandak, Kec. Sukajaya, Kabupaten Bogor";"ACEH";"16660";"Indonesia";" 085692334155";"-6.6188238";"106.5086394";"https://maps.google.com/?cid=0x0:0xef97fd69d48b3f98"
"housing complex";"Pembangunan Perumahan";"Rumah";"CF5Q+P78, Jl. Pasir Madang, Sukamulih, Kec. Sukajaya, Kabupaten Bogor, Jawa Barat 16660";"Jl. Pasir Madang, Sukamulih, Kec. Sukajaya, Kabupaten Bogor";"ACEH";"16660";"Indonesia";"";"-6.5907176";"106.488194";"https://maps.google.com/?cid=0x0:0x5dd10400891d35a2"
"housing complex";"Komplek perumahan";"Rumah chrisprayoga s.h";"9GHG+V2, Nanggung, Kec. Nanggung, Kabupaten Bogor, Jawa Barat";"Kabupaten Bogor, Jawa Barat";"ACEH";"";"Indonesia";"";"-6.6202945";"106.5250418";"https://maps.google.com/?cid=0x0:0xda4450fdc2280cb5"
"housing complex";"housing complex";"Kec. Sukajaya";"Kota Sabang, Aceh";"Kota Sabang, Aceh";"ACEH";"";"Indonesia";"";"5.7982249";"95.3393038";"https://maps.google.com/?cid=0x0:0x61751f5adc7de5c6"
"housing complex";"Komplek perumahan";"Housing complex";"8MF8+GXF, Gn. Sari, Kec. Pamijahan, Kabupaten Bogor, Jawa Barat 16810";"Gn. Sari, Kec. Pamijahan, Kabupaten Bogor";"ACEH";"16810";"Indonesia";"";"-6.67623";"106.6674698";"https://maps.google.com/?cid=0x0:0x2ae08f32015fb52f"
"housing complex";"Komplek perumahan";"dhira home";"8MJ6+4F2, Jl. Gn. Sari Raya, Gn. Sari, Kec. Pamijahan, Kabupaten Bogor, Jawa Barat 16810";"Jl. Gn. Sari Raya, Gn. Sari, Kec. Pamijahan, Kabupaten Bogor";"ACEH";"16810";"Indonesia";"";"-6.6697617";"106.6611311";"https://maps.google.com/?cid=0x0:0xa5afd0b30f387b96"
"housing complex";"housing complex";"Kec. Sukajaya";"Kabupaten Bogor, Jawa Barat";"Kabupaten Bogor, Jawa Barat";"ACEH";"";"Indonesia";"";"-6.5895984";"106.4899491";"https://maps.google.com/?cid=0x0:0xc0c36ba8bcc8b8bc"
"housing complex";"Pembangunan Perumahan";"RaShaNa Home 2";"CF6Q+4XQ, Sukajaya, Kec. Sukajaya, Kabupaten Bogor, Jawa Barat";"Kabupaten Bogor, Jawa Barat";"ACEH";"";"Indonesia";"";"-6.5896733";"106.4899861";"https://maps.google.com/?cid=0x0:0x6c91dc9fc61d2d9c"
"housing complex";"housing complex";"Kec. Sukajaya";"Kota Sabang, Aceh";"Kota Sabang, Aceh";"ACEH";"";"Indonesia";"";"5.7982249";"95.3393038";"https://maps.google.com/?cid=0x0:0x61751f5adc7de5c6"
"housing complex";"Komplek perumahan";"HOME YUDA";"Kp.Siranggap, RT.001/Rw004/RW.no.14, Blok Tengah, Nanggung, Kec. Nanggung, Kabupaten Bogor, Jawa Barat 16650";"RT.001/Rw004/RW.no.14, Blok Tengah, Nanggung, Kec. Nanggung, Kabupaten Bogor";"ACEH";"16650";"Indonesia";"";"-6.6062377";"106.5280211";"https://maps.google.com/?cid=0x0:0x403502b6e0482e44"
"housing complex";"Perumahan";"Kp gunung Menteng desa Sukajaya kabupaten Bogor";"Sukajaya, Kec. Sukajaya, Kabupaten Bogor, Jawa Barat 16660";"Kec. Sukajaya, Kabupaten Bogor";"ACEH";"16660";"Indonesia";"";"-6.5885473";"106.5044156";"https://maps.google.com/?cid=0x0:0xf595f1674e4e7265"
"housing complex";"Komplek perumahan";"Hindun house";"CGC5+3FG, Sipayung, Kec. Sukajaya, Kabupaten Bogor, Jawa Barat 16660";"Sipayung, Kec. Sukajaya, Kabupaten Bogor";"ACEH";"16660";"Indonesia";"";"-6.5798";"106.5087093";"https://maps.google.com/?cid=0x0:0x56ecac3e8fcd74e6"
"housing complex";"Pembangunan Perumahan";"Cidumpit";"CFCH+H99, Cidumpit, Sukamulih, Kec. Sukajaya, Kabupaten Bogor, Jawa Barat 16660";"Cidumpit, Sukamulih, Kec. Sukajaya, Kabupaten Bogor";"ACEH";"16660";"Indonesia";"";"-6.5785937";"106.4784711";"https://maps.google.com/?cid=0x0:0x74966c7001089f8f"
"housing complex";"Komplek perumahan";"Legok cau";"9FFW+HMG, Kiarapandak, Kec. Sukajaya, Kabupaten Bogor, Jawa Barat 16660";"Kiarapandak, Kec. Sukajaya, Kabupaten Bogor";"ACEH";"16660";"Indonesia";"";"-6.6260547";"106.4966993";"https://maps.google.com/?cid=0x0:0x1c864567ecb312ec"
"housing complex";"Komplek perumahan";"Rumah Dipra";"CG57+7P8, Sukajaya, Kec. Sukajaya, Kabupaten Bogor, Jawa Barat";"Kabupaten Bogor, Jawa Barat";"ACEH";"";"Indonesia";" 085778042138";"-6.5918257";"106.5143213";"https://maps.google.com/?cid=0x0:0xac1cf898ca652c42"
"housing complex";"Komplek perumahan";"KP. POJOK TENGAH";"8FWH+WP9, Unnamed Road, Cisarua, Kec. Sukajaya, Kabupaten Bogor, Jawa Barat 16660";"Unnamed Road, Cisarua, Kec. Sukajaya, Kabupaten Bogor";"ACEH";"16660";"Indonesia";" 081517955271";"-6.6527192";"106.479365";"https://maps.google.com/?cid=0x0:0x507f09d1a5e4ec16"
"housing complex";"Komplek perumahan";"Rumah chrisprayoga s.h";"9GHG+V2, Nanggung, Kec. Nanggung, Kabupaten Bogor, Jawa Barat";"Kabupaten Bogor, Jawa Barat";"ACEH";"";"Indonesia";"";"-6.6202945";"106.5250418";"https://maps.google.com/?cid=0x0:0xda4450fdc2280cb5"
"housing complex";"Komplek perumahan";"Rumah iki";"CG43+3X5, Sukajaya, Kec. Sukajaya, Kabupaten Bogor, Jawa Barat 16660";"Sukajaya, Kec. Sukajaya, Kabupaten Bogor";"ACEH";"16660";"Indonesia";"";"-6.5948526";"106.5049725";"https://maps.google.com/?cid=0x0:0x540062a44be423e4"
"housing complex";"Pembangunan Perumahan";"House Koyah";"9CWM+6RW, Cileuksa, hilir, Kabupaten Bogor, Jawa Barat 16660";"Cileuksa, hilir, Kabupaten Bogor";"ACEH";"16660";"Indonesia";"";"-6.6043759";"106.4345806";"https://maps.google.com/?cid=0x0:0x6881edf20fef27d8"
"housing complex";"Pembangunan Perumahan";"Rumah";"CF5Q+P78, Jl. Pasir Madang, Sukamulih, Kec. Sukajaya, Kabupaten Bogor, Jawa Barat 16660";"Jl. Pasir Madang, Sukamulih, Kec. Sukajaya, Kabupaten Bogor";"ACEH";"16660";"Indonesia";"";"-6.5907176";"106.488194";"https://maps.google.com/?cid=0x0:0x5dd10400891d35a2"
"housing complex";"housing complex";"Kec. Sukajaya";"Kota Sabang, Aceh";"Kota Sabang, Aceh";"ACEH";"";"Indonesia";"";"5.7982249";"95.3393038";"https://maps.google.com/?cid=0x0:0x61751f5adc7de5c6"
"housing complex";"housing complex";"Kec. Sukajaya";"Kabupaten Bogor, Jawa Barat";"Kabupaten Bogor, Jawa Barat";"ACEH";"";"Indonesia";"";"-6.5895984";"106.4899491";"https://maps.google.com/?cid=0x0:0xc0c36ba8bcc8b8bc"
"housing complex";"Pembangunan Perumahan";"RaShaNa Home 2";"CF6Q+4XQ, Sukajaya, Kec. Sukajaya, Kabupaten Bogor, Jawa Barat";"Kabupaten Bogor, Jawa Barat";"ACEH";"";"Indonesia";"";"-6.5896733";"106.4899861";"https://maps.google.com/?cid=0x0:0x6c91dc9fc61d2d9c"
"housing complex";"Perumahan";"Kp gunung Menteng desa Sukajaya kabupaten Bogor";"Sukajaya, Kec. Sukajaya, Kabupaten Bogor, Jawa Barat 16660";"Kec. Sukajaya, Kabupaten Bogor";"ACEH";"16660";"Indonesia";"";"-6.5885473";"106.5044156";"https://maps.google.com/?cid=0x0:0xf595f1674e4e7265"
"housing complex";"Komplek perumahan";"Rumah Dipra";"CG57+7P8, Sukajaya, Kec. Sukajaya, Kabupaten Bogor, Jawa Barat";"Kabupaten Bogor, Jawa Barat";"ACEH";"";"Indonesia";" 085778042138";"-6.5918257";"106.5143213";"https://maps.google.com/?cid=0x0:0xac1cf898ca652c42"
"housing complex";"Komplek perumahan";"HOME YUDA";"Kp.Siranggap, RT.001/Rw004/RW.no.14, Blok Tengah, Nanggung, Kec. Nanggung, Kabupaten Bogor, Jawa Barat 16650";"RT.001/Rw004/RW.no.14, Blok Tengah, Nanggung, Kec. Nanggung, Kabupaten Bogor";"ACEH";"16650";"Indonesia";"";"-6.6062377";"106.5280211";"https://maps.google.com/?cid=0x0:0x403502b6e0482e44"
"housing complex";"Komplek perumahan";"Rumah chrisprayoga s.h";"9GHG+V2, Nanggung, Kec. Nanggung, Kabupaten Bogor, Jawa Barat";"Kabupaten Bogor, Jawa Barat";"ACEH";"";"Indonesia";"";"-6.6202945";"106.5250418";"https://maps.google.com/?cid=0x0:0xda4450fdc2280cb5"
"housing complex";"Komplek perumahan";"Hindun house";"CGC5+3FG, Sipayung, Kec. Sukajaya, Kabupaten Bogor, Jawa Barat 16660";"Sipayung, Kec. Sukajaya, Kabupaten Bogor";"ACEH";"16660";"Indonesia";"";"-6.5798";"106.5087093";"https://maps.google.com/?cid=0x0:0x56ecac3e8fcd74e6"
"housing complex";"Komplek perumahan";"Legok cau";"9FFW+HMG, Kiarapandak, Kec. Sukajaya, Kabupaten Bogor, Jawa Barat 16660";"Kiarapandak, Kec. Sukajaya, Kabupaten Bogor";"ACEH";"16660";"Indonesia";"";"-6.6260547";"106.4966993";"https://maps.google.com/?cid=0x0:0x1c864567ecb312ec"
"housing complex";"Pembangunan Perumahan";"Cidumpit";"CFCH+H99, Cidumpit, Sukamulih, Kec. Sukajaya, Kabupaten Bogor, Jawa Barat 16660";"Cidumpit, Sukamulih, Kec. Sukajaya, Kabupaten Bogor";"ACEH";"16660";"Indonesia";"";"-6.5785937";"106.4784711";"https://maps.google.com/?cid=0x0:0x74966c7001089f8f"
"housing complex";"Komplek perumahan";"KP. POJOK TENGAH";"8FWH+WP9, Unnamed Road, Cisarua, Kec. Sukajaya, Kabupaten Bogor, Jawa Barat 16660";"Unnamed Road, Cisarua, Kec. Sukajaya, Kabupaten Bogor";"ACEH";"16660";"Indonesia";" 081517955271";"-6.6527192";"106.479365";"https://maps.google.com/?cid=0x0:0x507f09d1a5e4ec16"
"housing complex";"Komplek perumahan";"Rumah neng khanza";"CF5G+FWW, Pasir Madang, Kec. Sukajaya, Kabupaten Bogor, Jawa Barat 16660";"Pasir Madang, Kec. Sukajaya, Kabupaten Bogor";"ACEH";"16660";"Indonesia";"";"-6.5912552";"106.477341";"https://maps.google.com/?cid=0x0:0x1f0df731932a9d2e"
"housing complex";"Tempat Ibadah";"Rumah mertua";"9GJ5+HCJ, Kiarapandak, Kec. Sukajaya, Kabupaten Bogor, Jawa Barat 16660";"Kiarapandak, Kec. Sukajaya, Kabupaten Bogor";"ACEH";"16660";"Indonesia";" 085692334155";"-6.6188238";"106.5086394";"https://maps.google.com/?cid=0x0:0xef97fd69d48b3f98"
"housing complex";"Pembangunan Perumahan";"perumahan cibandung";"CC3M+HR9, Cileuksa, Kec. Sukajaya, Kabupaten Bogor, Jawa Barat 16660";"Cileuksa, Kec. Sukajaya, Kabupaten Bogor";"ACEH";"16660";"Indonesia";"";"-6.5960799";"106.4346007";"https://maps.google.com/?cid=0x0:0xa30cd1482930e41f"
"housing complex";"Komplek perumahan";"Housing complex";"8MF8+GXF, Gn. Sari, Kec. Pamijahan, Kabupaten Bogor, Jawa Barat 16810";"Gn. Sari, Kec. Pamijahan, Kabupaten Bogor";"ACEH";"16810";"Indonesia";"";"-6.67623";"106.6674698";"https://maps.google.com/?cid=0x0:0x2ae08f32015fb52f"
"housing complex";"housing complex";"Kec. Sukajaya";"Kota Sabang, Aceh";"Kota Sabang, Aceh";"ACEH";"";"Indonesia";"";"5.7982249";"95.3393038";"https://maps.google.com/?cid=0x0:0x61751f5adc7de5c6"
"housing complex";"Komplek perumahan";"dhira home";"8MJ6+4F2, Jl. Gn. Sari Raya, Gn. Sari, Kec. Pamijahan, Kabupaten Bogor, Jawa Barat 16810";"Jl. Gn. Sari Raya, Gn. Sari, Kec. Pamijahan, Kabupaten Bogor";"ACEH";"16810";"Indonesia";"";"-6.6697617";"106.6611311";"https://maps.google.com/?cid=0x0:0xa5afd0b30f387b96"
"housing complex";"housing complex";"Kec. Sukajaya";"Kabupaten Bogor, Jawa Barat";"Kabupaten Bogor, Jawa Barat";"ACEH";"";"Indonesia";"";"-6.5895984";"106.4899491";"https://maps.google.com/?cid=0x0:0xc0c36ba8bcc8b8bc"
"housing complex";"Pembangunan Perumahan";"RaShaNa Home 2";"CF6Q+4XQ, Sukajaya, Kec. Sukajaya, Kabupaten Bogor, Jawa Barat";"Kabupaten Bogor, Jawa Barat";"ACEH";"";"Indonesia";"";"-6.5896733";"106.4899861";"https://maps.google.com/?cid=0x0:0x6c91dc9fc61d2d9c"
"housing complex";"housing complex";"Kec. Sukajaya";"Kota Sabang, Aceh";"Kota Sabang, Aceh";"ACEH";"";"Indonesia";"";"5.7982249";"95.3393038";"https://maps.google.com/?cid=0x0:0x61751f5adc7de5c6"
"housing complex";"Pembangunan Perumahan";"Cidumpit";"CFCH+H99, Cidumpit, Sukamulih, Kec. Sukajaya, Kabupaten Bogor, Jawa Barat 16660";"Cidumpit, Sukamulih, Kec. Sukajaya, Kabupaten Bogor";"ACEH";"16660";"Indonesia";"";"-6.5785937";"106.4784711";"https://maps.google.com/?cid=0x0:0x74966c7001089f8f"
"housing complex";"Pembangunan Perumahan";"My house";"CG55+MGX, Sukajaya, Kec. Sukajaya, Kabupaten Bogor, Jawa Barat 16660";"Sukajaya, Kec. Sukajaya, Kabupaten Bogor";"ACEH";"16660";"Indonesia";"";"-6.5907553";"106.508862";"https://maps.google.com/?cid=0x0:0x82a8497f10505630"
"housing complex";"Komplek perumahan";"AKANG SAEPUDIN KP POJOK HILIR";"9F2J+J8X, Cisarua, Kec. Sukajaya, Kabupaten Bogor, Jawa Barat 16660";"Cisarua, Kec. Sukajaya, Kabupaten Bogor";"ACEH";"16660";"Indonesia";"";"-6.6489518";"106.4804236";"https://maps.google.com/?cid=0x0:0x5146ad7138d562fc"
"housing complex";"Pembangunan Perumahan";"perumahan cibandung";"CC3M+HR9, Cileuksa, Kec. Sukajaya, Kabupaten Bogor, Jawa Barat 16660";"Cileuksa, Kec. Sukajaya, Kabupaten Bogor";"ACEH";"16660";"Indonesia";"";"-6.5960799";"106.4346007";"https://maps.google.com/?cid=0x0:0xa30cd1482930e41f"
"housing complex";"Komplek perumahan";"Hindun house";"CGC5+3FG, Sipayung, Kec. Sukajaya, Kabupaten Bogor, Jawa Barat 16660";"Sipayung, Kec. Sukajaya, Kabupaten Bogor";"ACEH";"16660";"Indonesia";"";"-6.5798";"106.5087093";"https://maps.google.com/?cid=0x0:0x56ecac3e8fcd74e6"
"housing complex";"Komplek perumahan";"Rumah Dipra";"CG57+7P8, Sukajaya, Kec. Sukajaya, Kabupaten Bogor, Jawa Barat";"Kabupaten Bogor, Jawa Barat";"ACEH";"";"Indonesia";" 085778042138";"-6.5918257";"106.5143213";"https://maps.google.com/?cid=0x0:0xac1cf898ca652c42"
"housing complex";"Komplek perumahan";"HOME YUDA";"Kp.Siranggap, RT.001/Rw004/RW.no.14, Blok Tengah, Nanggung, Kec. Nanggung, Kabupaten Bogor, Jawa Barat 16650";"RT.001/Rw004/RW.no.14, Blok Tengah, Nanggung, Kec. Nanggung, Kabupaten Bogor";"ACEH";"16650";"Indonesia";"";"-6.6062377";"106.5280211";"https://maps.google.com/?cid=0x0:0x403502b6e0482e44"
"housing complex";"Komplek perumahan";"Legok cau";"9FFW+HMG, Kiarapandak, Kec. Sukajaya, Kabupaten Bogor, Jawa Barat 16660";"Kiarapandak, Kec. Sukajaya, Kabupaten Bogor";"ACEH";"16660";"Indonesia";"";"-6.6260547";"106.4966993";"https://maps.google.com/?cid=0x0:0x1c864567ecb312ec"
"housing complex";"Komplek perumahan";"Rumah neng khanza";"CF5G+FWW, Pasir Madang, Kec. Sukajaya, Kabupaten Bogor, Jawa Barat 16660";"Pasir Madang, Kec. Sukajaya, Kabupaten Bogor";"ACEH";"16660";"Indonesia";"";"-6.5912552";"106.477341";"https://maps.google.com/?cid=0x0:0x1f0df731932a9d2e"
"housing complex";"Komplek perumahan";"KP. POJOK TENGAH";"8FWH+WP9, Unnamed Road, Cisarua, Kec. Sukajaya, Kabupaten Bogor, Jawa Barat 16660";"Unnamed Road, Cisarua, Kec. Sukajaya, Kabupaten Bogor";"ACEH";"16660";"Indonesia";" 081517955271";"-6.6527192";"106.479365";"https://maps.google.com/?cid=0x0:0x507f09d1a5e4ec16"
"housing complex";"Pembangunan Perumahan";"Kampung cihaur";"CCCP+243, Jl. Muhara, Cileuksa, Kec. Sukajaya, Kabupaten Bogor, Jawa Barat 16660";"Jl. Muhara, Cileuksa, Kec. Sukajaya, Kabupaten Bogor";"ACEH";"16660";"Indonesia";"";"-6.5799679";"106.4352972";"https://maps.google.com/?cid=0x0:0x503bed721c801d71"
"housing complex";"housing complex";"Sukakarya";"Kota Sabang, Aceh";"Kota Sabang, Aceh";"ACEH";"";"Indonesia";"";"5.8477312";"95.2632201";"https://maps.google.com/?cid=0x0:0x3f20b360b2a1d865"
"housing complex";"housing complex";"Kec. Sukakarya";"Kabupaten Bekasi, Jawa Barat";"Kabupaten Bekasi, Jawa Barat";"ACEH";"";"Indonesia";"";"-6.1392459";"107.1791315";"https://maps.google.com/?cid=0x0:0xa116fa213e570a0a"
"housing complex";"housing complex";"Aceh";"";"Aceh";"ACEH";"";"Indonesia";"";"4.695135";"96.7493993";"https://maps.google.com/?cid=0x0:0x1039d80b220ca60"
"housing complex";"Pembangunan Perumahan";"Gardu Hospot";"V5P4+MVX, Sukaindah, Kec. Sukakarya, Kabupaten Bekasi, Jawa Barat 17630";"Sukaindah, Kec. Sukakarya, Kabupaten Bekasi";"ACEH";"17630";"Indonesia";"";"-6.1132627";"107.157235";"https://maps.google.com/?cid=0x0:0x56b63dff58b3be03"
"housing complex";"Pembangunan Perumahan";"Fahmi anak baik";"V56H+W45, Jl. Raya Kec. Sukakarya, Sukakarya, Kec. Sukakarya, Kabupaten Bekasi, Jawa Barat 17630";"Jl. Raya Kec. Sukakarya, Sukakarya, Kec. Sukakarya, Kabupaten Bekasi";"ACEH";"17630";"Indonesia";"";"-6.1376455";"107.1778921";"https://maps.google.com/?cid=0x0:0xced114069e6b110f"
"housing complex";"Komplek perumahan";"rumah ubay";"V5G7+M76, Sukaindah, Kec. Sukakarya, Kabupaten Bekasi, Jawa Barat 17630";"Sukaindah, Kec. Sukakarya, Kabupaten Bekasi";"ACEH";"17630";"Indonesia";"";"-6.1233282";"107.1631493";"https://maps.google.com/?cid=0x0:0x2f99ef4cfc21fbe0"
"housing complex";"Komplek perumahan";"JULIAN HOUSE";"Perumahan Villa Kencana Cikarang, Jl. Nuri No.21 blok cc7, Sukajadi, Kec. Sukakarya, Kabupaten Bekasi, Jawa Barat 17630";"Jl. Nuri No.21 blok cc7, Sukajadi, Kec. Sukakarya, Kabupaten Bekasi";"ACEH";"17630";"Indonesia";"";"-6.174719";"107.1883994";"https://maps.google.com/?cid=0x0:0x1630fd40d73d7612"
"housing complex";"Perhimpunan Pengembang Perumahan";"Rumah heri akhew";"Jl. Kp. Pulo Sirih No.27, Sukajadi, Kec. Sukakarya, Kabupaten Bekasi, Jawa Barat 17630";"Sukajadi, Kec. Sukakarya, Kabupaten Bekasi";"ACEH";"17630";"Indonesia";"";"-6.167241";"107.1866907";"https://maps.google.com/?cid=0x0:0xa15e5b548f395ad3"
"housing complex";"Komplek perumahan";"Trusmiland Bekasi 2 (Sukajadi)";"R5FQ+8Q8, Sukajadi, Kec. Sukakarya, Kabupaten Bekasi, Jawa Barat 17630";"Sukajadi, Kec. Sukakarya, Kabupaten Bekasi";"ACEH";"17630";"Indonesia";"";"-6.1767125";"107.1894531";"https://maps.google.com/?cid=0x0:0x48b4ba14fa1f540b"
"housing complex";"Komplek perumahan";"Bp. Marjuni";"Kp Jl. Cabang Pulo Bambu, RT.01/RW.03, Sukaindah, Kec. Sukakarya, Kabupaten Bekasi, Jawa Barat 17630";"RT.01/RW.03, Sukaindah, Kec. Sukakarya, Kabupaten Bekasi";"ACEH";"17630";"Indonesia";" 085722256198";"-6.1164132";"107.1563549";"https://maps.google.com/?cid=0x0:0xfcb42cb44665436c"
"housing complex";"Komplek perumahan";"Ben House";"R5GR+6C7, Jl. H. Bonin, Sukajadi, Kec. Sukakarya, Kabupaten Bekasi, Jawa Barat 17630";"Jl. H. Bonin, Sukajadi, Kec. Sukakarya, Kabupaten Bekasi";"ACEH";"17630";"Indonesia";"";"-6.174474";"107.1910347";"https://maps.google.com/?cid=0x0:0x35b0b9c929c72f28"
"housing complex";"Komplek perumahan";"Bpk Sutarman, S.Pd";"V5M4+3FC, Jl. Cabang Pulo Bambu, Sukaindah, Kec. Sukakarya, Kabupaten Bekasi, Jawa Barat 17630";"Jl. Cabang Pulo Bambu, Sukaindah, Kec. Sukakarya, Kabupaten Bekasi";"ACEH";"17630";"Indonesia";"";"-6.1173116";"107.1561428";"https://maps.google.com/?cid=0x0:0x19d29d13d0b858fc"
"housing complex";"Komplek perumahan";"Pesanggrahan Bpk Timan Putra Jaya";"R6M3+4HW, Sukalaksana, Kec. Sukakarya, Kabupaten Bekasi, Jawa Barat 17630";"Sukalaksana, Kec. Sukakarya, Kabupaten Bekasi";"ACEH";"17630";"Indonesia";"";"-6.167139";"107.20395";"https://maps.google.com/?cid=0x0:0x29294f2c96f6731b"
"housing complex";"Komplek perumahan";"Rumah Lurah Najun";"R6M2+PW7, kp, Kranding, Sukajadi, Kec. Sukakarya, Kabupaten Bekasi, Jawa Barat 17630";"kp, Kranding, Sukajadi, Kec. Sukakarya, Kabupaten Bekasi";"ACEH";"17630";"Indonesia";"";"-6.1658226";"107.2021333";"https://maps.google.com/?cid=0x0:0xe33d33cb32bd97b0"
"housing complex";"housing complex";"Keluarga Abdul Azis (Kek Azis)";"Jl. Oentoeng Surapati, Kuta Ateueh, Sukakarya, Kota Sabang, Aceh";"Kota Sabang, Aceh";"ACEH";"";"Indonesia";"";"5.8938956";"95.3220585";"https://maps.google.com/?cid=0x0:0x4d576fa03e12408b"
"housing complex";"housing complex";"Kec. Sukakarya";"Kabupaten Bekasi, Jawa Barat";"Kabupaten Bekasi, Jawa Barat";"ACEH";"";"Indonesia";"";"-6.1392459";"107.1791315";"https://maps.google.com/?cid=0x0:0xa116fa213e570a0a"
"housing complex";"Perhimpunan Pengembang Perumahan";"Rumah heri akhew";"Jl. Kp. Pulo Sirih No.27, Sukajadi, Kec. Sukakarya, Kabupaten Bekasi, Jawa Barat 17630";"Sukajadi, Kec. Sukakarya, Kabupaten Bekasi";"ACEH";"17630";"Indonesia";"";"-6.167241";"107.1866907";"https://maps.google.com/?cid=0x0:0xa15e5b548f395ad3"
"housing complex";"Komplek perumahan";"rumah ubay";"V5G7+M76, Sukaindah, Kec. Sukakarya, Kabupaten Bekasi, Jawa Barat 17630";"Sukaindah, Kec. Sukakarya, Kabupaten Bekasi";"ACEH";"17630";"Indonesia";"";"-6.1233282";"107.1631493";"https://maps.google.com/?cid=0x0:0x2f99ef4cfc21fbe0"
"housing complex";"Komplek perumahan";"Rumah Pramuja";"V56P+9GF, Jl. Yapida, Sukakarya, Kec. Sukakarya, Kabupaten Bekasi, Jawa Barat 17630";"Jl. Yapida, Sukakarya, Kec. Sukakarya, Kabupaten Bekasi";"ACEH";"17630";"Indonesia";"";"-6.1390728";"107.186291";"https://maps.google.com/?cid=0x0:0x4b6d9cb238f9917b"
"housing complex";"Komplek perumahan";"Rumah puputt";"V56M+4HJ, Sukakarya, Kec. Sukakarya, Kabupaten Bekasi, Jawa Barat";"Kabupaten Bekasi, Jawa Barat";"ACEH";"";"Indonesia";"";"-6.139963";"107.182828";"https://maps.google.com/?cid=0x0:0x4c6b6c273229af4c"
"housing complex";"Komplek perumahan";"Rumah Ibu Juroh";"V5F7+HG4, Sukaindah, Kec. Sukakarya, Kabupaten Bekasi, Jawa Barat 17630";"Sukaindah, Kec. Sukakarya, Kabupaten Bekasi";"ACEH";"17630";"Indonesia";"";"-6.1261067";"107.1638346";"https://maps.google.com/?cid=0x0:0x2291aa63fa6683fd"
"housing complex";"Pertanian";"Kp.bluo cipu";"R6R5+H3, Sukalaksana, Kec. Sukakarya, Kabupaten Bekasi, Jawa Barat";"Kabupaten Bekasi, Jawa Barat";"ACEH";"";"Indonesia";"";"-6.1583285";"107.2091053";"https://maps.google.com/?cid=0x0:0xe609153c8ae4f027"
"housing complex";"Komplek perumahan";"Santo House";"Kp.Kendayakan No.Rt.01/001, Sukakarsa, Kec. Sukakarya, Kabupaten Bekasi, Jawa Barat 17630";"Sukakarsa, Kec. Sukakarya, Kabupaten Bekasi";"ACEH";"17630";"Indonesia";"";"-6.137272";"107.1925714";"https://maps.google.com/?cid=0x0:0x4601e9c85c20d55d"
"housing complex";"Komplek perumahan";"Bp. Marjuni";"Kp Jl. Cabang Pulo Bambu, RT.01/RW.03, Sukaindah, Kec. Sukakarya, Kabupaten Bekasi, Jawa Barat 17630";"RT.01/RW.03, Sukaindah, Kec. Sukakarya, Kabupaten Bekasi";"ACEH";"17630";"Indonesia";" 085722256198";"-6.1164132";"107.1563549";"https://maps.google.com/?cid=0x0:0xfcb42cb44665436c"
"housing complex";"Komplek perumahan";"PIRA PUTRI PEY";"Sukamurni, Kec. Sukakarya, Kabupaten Bekasi, Jawa Barat";"Kabupaten Bekasi, Jawa Barat";"ACEH";"";"Indonesia";" 087765608611";"-6.121792";"107.1555841";"https://maps.google.com/?cid=0x0:0x61ac653841246840"
"housing complex";"Perhimpunan Pengembang Perumahan";"cihuy";"Jl. Raya Pulo Sirih.48SukajadiKec. SukakaryaKabupaten, Kabupaten Bekasi, Jawa Barat 17630";"Kabupaten Bekasi";"ACEH";"17630";"Indonesia";"";"-6.170682";"107.1910138";"https://maps.google.com/?cid=0x0:0xa58f7d537f23eac3"
"housing complex";"Komplek perumahan";"Calm Family";"R5MH+76G, Jl. Kp. Gandu, Sukamulya, Kec. Sukatani, Kabupaten Bekasi, Jawa Barat 17630";"Jl. Kp. Gandu, Sukamulya, Kec. Sukatani, Kabupaten Bekasi";"ACEH";"17630";"Indonesia";"";"-6.1668149";"107.1780922";"https://maps.google.com/?cid=0x0:0xc4a96a12f5b91fee"
"housing complex";"housing complex";"perumahan";"AE 17 galaxy, Jl. Raya Pulo Sirih, Sukajadi, Kec. Sukakarya, Kabupaten Bekasi, Jawa Barat 17630";"Jl. Raya Pulo Sirih, Sukajadi, Kec. Sukakarya, Kabupaten Bekasi";"ACEH";"17630";"Indonesia";"";"-6.1738014";"107.1890765";"https://maps.google.com/?cid=0x0:0x7b0ca42a9e2954bd"
"housing complex";"housing complex";"Freddies Santai Sumurtiga";"Jl. KH Agus Salim, Ie Meulee, Kec. Sukajaya, Kota Sabang, Aceh 23521";"Ie Meulee, Kec. Sukajaya, Kota Sabang";"ACEH";"23521";"Indonesia";" 081360255001";"5.8911886";"95.3402972";"https://maps.google.com/?cid=0x0:0x9de96f125b8a0897"
"housing complex";"housing complex";"Kec. Sukakarya";"Kabupaten Bekasi, Jawa Barat";"Kabupaten Bekasi, Jawa Barat";"ACEH";"";"Indonesia";"";"-6.1392459";"107.1791315";"https://maps.google.com/?cid=0x0:0xa116fa213e570a0a"
"housing complex";"housing complex";"Aceh 23512";"Kuta Barat, Sukakarya, Kota Sabang, Aceh";"Kota Sabang, Aceh";"ACEH";"";"Indonesia";"";"5.891259";"95.3208419";"https://maps.google.com/?cid=0x0:0x19427390d06db7af"
"housing complex";"Komplek perumahan";"Rumah Ibu Juroh";"V5F7+HG4, Sukaindah, Kec. Sukakarya, Kabupaten Bekasi, Jawa Barat 17630";"Sukaindah, Kec. Sukakarya, Kabupaten Bekasi";"ACEH";"17630";"Indonesia";"";"-6.1261067";"107.1638346";"https://maps.google.com/?cid=0x0:0x2291aa63fa6683fd"
"housing complex";"Pembangunan Perumahan";"Fahmi anak baik";"V56H+W45, Jl. Raya Kec. Sukakarya, Sukakarya, Kec. Sukakarya, Kabupaten Bekasi, Jawa Barat 17630";"Jl. Raya Kec. Sukakarya, Sukakarya, Kec. Sukakarya, Kabupaten Bekasi";"ACEH";"17630";"Indonesia";"";"-6.1376455";"107.1778921";"https://maps.google.com/?cid=0x0:0xced114069e6b110f"
"housing complex";"Komplek perumahan";"Rumah puputt";"V56M+4HJ, Sukakarya, Kec. Sukakarya, Kabupaten Bekasi, Jawa Barat";"Kabupaten Bekasi, Jawa Barat";"ACEH";"";"Indonesia";"";"-6.139963";"107.182828";"https://maps.google.com/?cid=0x0:0x4c6b6c273229af4c"
"housing complex";"Komplek perumahan";"Rio 2 2014";"V59Q+GJX, Sukakarsa, Kec. Sukakarya, Kabupaten Bekasi, Jawa Barat 17630";"Sukakarsa, Kec. Sukakarya, Kabupaten Bekasi";"ACEH";"17630";"Indonesia";"";"-6.1311284";"107.1891156";"https://maps.google.com/?cid=0x0:0x8b34f51b36e73dc4"
"housing complex";"Komplek perumahan";"Rumah Pramuja";"V56P+9GF, Jl. Yapida, Sukakarya, Kec. Sukakarya, Kabupaten Bekasi, Jawa Barat 17630";"Jl. Yapida, Sukakarya, Kec. Sukakarya, Kabupaten Bekasi";"ACEH";"17630";"Indonesia";"";"-6.1390728";"107.186291";"https://maps.google.com/?cid=0x0:0x4b6d9cb238f9917b"
"housing complex";"Komplek perumahan";"rumah ubay";"V5G7+M76, Sukaindah, Kec. Sukakarya, Kabupaten Bekasi, Jawa Barat 17630";"Sukaindah, Kec. Sukakarya, Kabupaten Bekasi";"ACEH";"17630";"Indonesia";"";"-6.1233282";"107.1631493";"https://maps.google.com/?cid=0x0:0x2f99ef4cfc21fbe0"
"housing complex";"Perhimpunan Pengembang Perumahan";"cihuy";"Jl. Raya Pulo Sirih.48SukajadiKec. SukakaryaKabupaten, Kabupaten Bekasi, Jawa Barat 17630";"Kabupaten Bekasi";"ACEH";"17630";"Indonesia";"";"-6.170682";"107.1910138";"https://maps.google.com/?cid=0x0:0xa58f7d537f23eac3"
"housing complex";"housing complex";"perumahan";"AE 17 galaxy, Jl. Raya Pulo Sirih, Sukajadi, Kec. Sukakarya, Kabupaten Bekasi, Jawa Barat 17630";"Jl. Raya Pulo Sirih, Sukajadi, Kec. Sukakarya, Kabupaten Bekasi";"ACEH";"17630";"Indonesia";"";"-6.1738014";"107.1890765";"https://maps.google.com/?cid=0x0:0x7b0ca42a9e2954bd"
"housing complex";"housing complex";"Rumah Ica Pohan";"Jl. Balika Residence No.23 Blok B6, Sukamulya, Sukatani, Bekasi Regency, West Java 17630";"Sukamulya, Sukatani, Bekasi Regency";"ACEH";"17630";"Indonesia";"";"-6.1679856";"107.173499";"https://maps.google.com/?cid=0x0:0xe4e88ec4ff996616"
"housing complex";"Pertanian";"Kp.bluo cipu";"R6R5+H3, Sukalaksana, Kec. Sukakarya, Kabupaten Bekasi, Jawa Barat";"Kabupaten Bekasi, Jawa Barat";"ACEH";"";"Indonesia";"";"-6.1583285";"107.2091053";"https://maps.google.com/?cid=0x0:0xe609153c8ae4f027"
"housing complex";"Komplek perumahan";"Santo House";"Kp.Kendayakan No.Rt.01/001, Sukakarsa, Kec. Sukakarya, Kabupaten Bekasi, Jawa Barat 17630";"Sukakarsa, Kec. Sukakarya, Kabupaten Bekasi";"ACEH";"17630";"Indonesia";"";"-6.137272";"107.1925714";"https://maps.google.com/?cid=0x0:0x4601e9c85c20d55d"
"housing complex";"housing complex";"Sukakarya";"Kota Sabang, Aceh";"Kota Sabang, Aceh";"ACEH";"";"Indonesia";"";"5.8477312";"95.2632201";"https://maps.google.com/?cid=0x0:0x3f20b360b2a1d865"
"housing complex";"housing complex";"Kec. Sukakarya";"Kabupaten Bekasi, Jawa Barat";"Kabupaten Bekasi, Jawa Barat";"ACEH";"";"Indonesia";"";"-6.1392459";"107.1791315";"https://maps.google.com/?cid=0x0:0xa116fa213e570a0a"
"housing complex";"Perhimpunan Pengembang Perumahan";"Rumah heri akhew";"Jl. Kp. Pulo Sirih No.27, Sukajadi, Kec. Sukakarya, Kabupaten Bekasi, Jawa Barat 17630";"Sukajadi, Kec. Sukakarya, Kabupaten Bekasi";"ACEH";"17630";"Indonesia";"";"-6.167241";"107.1866907";"https://maps.google.com/?cid=0x0:0xa15e5b548f395ad3"
"housing complex";"Komplek perumahan";"Rumah puputt";"V56M+4HJ, Sukakarya, Kec. Sukakarya, Kabupaten Bekasi, Jawa Barat";"Kabupaten Bekasi, Jawa Barat";"ACEH";"";"Indonesia";"";"-6.139963";"107.182828";"https://maps.google.com/?cid=0x0:0x4c6b6c273229af4c"
"housing complex";"Pembangunan Perumahan";"Fahmi anak baik";"V56H+W45, Jl. Raya Kec. Sukakarya, Sukakarya, Kec. Sukakarya, Kabupaten Bekasi, Jawa Barat 17630";"Jl. Raya Kec. Sukakarya, Sukakarya, Kec. Sukakarya, Kabupaten Bekasi";"ACEH";"17630";"Indonesia";"";"-6.1376455";"107.1778921";"https://maps.google.com/?cid=0x0:0xced114069e6b110f"
"housing complex";"Komplek perumahan";"rumah ubay";"V5G7+M76, Sukaindah, Kec. Sukakarya, Kabupaten Bekasi, Jawa Barat 17630";"Sukaindah, Kec. Sukakarya, Kabupaten Bekasi";"ACEH";"17630";"Indonesia";"";"-6.1233282";"107.1631493";"https://maps.google.com/?cid=0x0:0x2f99ef4cfc21fbe0"
"housing complex";"Komplek perumahan";"Rumah Ibu Juroh";"V5F7+HG4, Sukaindah, Kec. Sukakarya, Kabupaten Bekasi, Jawa Barat 17630";"Sukaindah, Kec. Sukakarya, Kabupaten Bekasi";"ACEH";"17630";"Indonesia";"";"-6.1261067";"107.1638346";"https://maps.google.com/?cid=0x0:0x2291aa63fa6683fd"
"housing complex";"Komplek perumahan";"Santo House";"Kp.Kendayakan No.Rt.01/001, Sukakarsa, Kec. Sukakarya, Kabupaten Bekasi, Jawa Barat 17630";"Sukakarsa, Kec. Sukakarya, Kabupaten Bekasi";"ACEH";"17630";"Indonesia";"";"-6.137272";"107.1925714";"https://maps.google.com/?cid=0x0:0x4601e9c85c20d55d"
"housing complex";"Pertanian";"Kp.bluo cipu";"R6R5+H3, Sukalaksana, Kec. Sukakarya, Kabupaten Bekasi, Jawa Barat";"Kabupaten Bekasi, Jawa Barat";"ACEH";"";"Indonesia";"";"-6.1583285";"107.2091053";"https://maps.google.com/?cid=0x0:0xe609153c8ae4f027"
"housing complex";"Komplek perumahan";"PIRA PUTRI PEY";"Sukamurni, Kec. Sukakarya, Kabupaten Bekasi, Jawa Barat";"Kabupaten Bekasi, Jawa Barat";"ACEH";"";"Indonesia";" 087765608611";"-6.121792";"107.1555841";"https://maps.google.com/?cid=0x0:0x61ac653841246840"
"housing complex";"Komplek perumahan";"Bp. Marjuni";"Kp Jl. Cabang Pulo Bambu, RT.01/RW.03, Sukaindah, Kec. Sukakarya, Kabupaten Bekasi, Jawa Barat 17630";"RT.01/RW.03, Sukaindah, Kec. Sukakarya, Kabupaten Bekasi";"ACEH";"17630";"Indonesia";" 085722256198";"-6.1164132";"107.1563549";"https://maps.google.com/?cid=0x0:0xfcb42cb44665436c"
"housing complex";"housing complex";"perumahan";"AE 17 galaxy, Jl. Raya Pulo Sirih, Sukajadi, Kec. Sukakarya, Kabupaten Bekasi, Jawa Barat 17630";"Jl. Raya Pulo Sirih, Sukajadi, Kec. Sukakarya, Kabupaten Bekasi";"ACEH";"17630";"Indonesia";"";"-6.1738014";"107.1890765";"https://maps.google.com/?cid=0x0:0x7b0ca42a9e2954bd"
"housing complex";"Komplek perumahan";"Rumah Lurah Najun";"R6M2+PW7, kp, Kranding, Sukajadi, Kec. Sukakarya, Kabupaten Bekasi, Jawa Barat 17630";"kp, Kranding, Sukajadi, Kec. Sukakarya, Kabupaten Bekasi";"ACEH";"17630";"Indonesia";"";"-6.1658226";"107.2021333";"https://maps.google.com/?cid=0x0:0xe33d33cb32bd97b0"
"housing complex";"Komplek perumahan";"Rio 2 2014";"V59Q+GJX, Sukakarsa, Kec. Sukakarya, Kabupaten Bekasi, Jawa Barat 17630";"Sukakarsa, Kec. Sukakarya, Kabupaten Bekasi";"ACEH";"17630";"Indonesia";"";"-6.1311284";"107.1891156";"https://maps.google.com/?cid=0x0:0x8b34f51b36e73dc4"
"housing complex";"housing complex";"Kec. Sukakarya";"Kabupaten Bekasi, Jawa Barat";"Kabupaten Bekasi, Jawa Barat";"ACEH";"";"Indonesia";"";"-6.1392459";"107.1791315";"https://maps.google.com/?cid=0x0:0xa116fa213e570a0a"
"housing complex";"housing complex";"Sukakarya";"Kota Sabang, Aceh";"Kota Sabang, Aceh";"ACEH";"";"Indonesia";"";"5.8477312";"95.2632201";"https://maps.google.com/?cid=0x0:0x3f20b360b2a1d865"
"housing complex";"Komplek perumahan";"Rumah Ibu Juroh";"V5F7+HG4, Sukaindah, Kec. Sukakarya, Kabupaten Bekasi, Jawa Barat 17630";"Sukaindah, Kec. Sukakarya, Kabupaten Bekasi";"ACEH";"17630";"Indonesia";"";"-6.1261067";"107.1638346";"https://maps.google.com/?cid=0x0:0x2291aa63fa6683fd"
"housing complex";"Komplek perumahan";"rumah ubay";"V5G7+M76, Sukaindah, Kec. Sukakarya, Kabupaten Bekasi, Jawa Barat 17630";"Sukaindah, Kec. Sukakarya, Kabupaten Bekasi";"ACEH";"17630";"Indonesia";"";"-6.1233282";"107.1631493";"https://maps.google.com/?cid=0x0:0x2f99ef4cfc21fbe0"
"housing complex";"Perhimpunan Pengembang Perumahan";"Rumah heri akhew";"Jl. Kp. Pulo Sirih No.27, Sukajadi, Kec. Sukakarya, Kabupaten Bekasi, Jawa Barat 17630";"Sukajadi, Kec. Sukakarya, Kabupaten Bekasi";"ACEH";"17630";"Indonesia";"";"-6.167241";"107.1866907";"https://maps.google.com/?cid=0x0:0xa15e5b548f395ad3"
"housing complex";"Komplek perumahan";"Rumah puputt";"V56M+4HJ, Sukakarya, Kec. Sukakarya, Kabupaten Bekasi, Jawa Barat";"Kabupaten Bekasi, Jawa Barat";"ACEH";"";"Indonesia";"";"-6.139963";"107.182828";"https://maps.google.com/?cid=0x0:0x4c6b6c273229af4c"
"housing complex";"Komplek perumahan";"Rumah Pramuja";"V56P+9GF, Jl. Yapida, Sukakarya, Kec. Sukakarya, Kabupaten Bekasi, Jawa Barat 17630";"Jl. Yapida, Sukakarya, Kec. Sukakarya, Kabupaten Bekasi";"ACEH";"17630";"Indonesia";"";"-6.1390728";"107.186291";"https://maps.google.com/?cid=0x0:0x4b6d9cb238f9917b"
"housing complex";"Komplek perumahan";"PIRA PUTRI PEY";"Sukamurni, Kec. Sukakarya, Kabupaten Bekasi, Jawa Barat";"Kabupaten Bekasi, Jawa Barat";"ACEH";"";"Indonesia";" 087765608611";"-6.121792";"107.1555841";"https://maps.google.com/?cid=0x0:0x61ac653841246840"
"housing complex";"Pertanian";"Kp.bluo cipu";"R6R5+H3, Sukalaksana, Kec. Sukakarya, Kabupaten Bekasi, Jawa Barat";"Kabupaten Bekasi, Jawa Barat";"ACEH";"";"Indonesia";"";"-6.1583285";"107.2091053";"https://maps.google.com/?cid=0x0:0xe609153c8ae4f027"
"housing complex";"Komplek perumahan";"Rumahnya Bilqis hanifatussoleha";"V596+GWX, Sukaindah, Kec. Sukakarya, Kabupaten Bekasi, Jawa Barat 17630";"Sukaindah, Kec. Sukakarya, Kabupaten Bekasi";"ACEH";"17630";"Indonesia";"";"-6.1311397";"107.162423";"https://maps.google.com/?cid=0x0:0xacc4139691275d15"
"housing complex";"Komplek perumahan";"Santo House";"Kp.Kendayakan No.Rt.01/001, Sukakarsa, Kec. Sukakarya, Kabupaten Bekasi, Jawa Barat 17630";"Sukakarsa, Kec. Sukakarya, Kabupaten Bekasi";"ACEH";"17630";"Indonesia";"";"-6.137272";"107.1925714";"https://maps.google.com/?cid=0x0:0x4601e9c85c20d55d"
"housing complex";"Komplek perumahan";"Bp. Marjuni";"Kp Jl. Cabang Pulo Bambu, RT.01/RW.03, Sukaindah, Kec. Sukakarya, Kabupaten Bekasi, Jawa Barat 17630";"RT.01/RW.03, Sukaindah, Kec. Sukakarya, Kabupaten Bekasi";"ACEH";"17630";"Indonesia";" 085722256198";"-6.1164132";"107.1563549";"https://maps.google.com/?cid=0x0:0xfcb42cb44665436c"
"housing complex";"Komplek perumahan";"Rio 2 2014";"V59Q+GJX, Sukakarsa, Kec. Sukakarya, Kabupaten Bekasi, Jawa Barat 17630";"Sukakarsa, Kec. Sukakarya, Kabupaten Bekasi";"ACEH";"17630";"Indonesia";"";"-6.1311284";"107.1891156";"https://maps.google.com/?cid=0x0:0x8b34f51b36e73dc4"
"housing complex";"housing complex";"perumahan";"AE 17 galaxy, Jl. Raya Pulo Sirih, Sukajadi, Kec. Sukakarya, Kabupaten Bekasi, Jawa Barat 17630";"Jl. Raya Pulo Sirih, Sukajadi, Kec. Sukakarya, Kabupaten Bekasi";"ACEH";"17630";"Indonesia";"";"-6.1738014";"107.1890765";"https://maps.google.com/?cid=0x0:0x7b0ca42a9e2954bd"
"housing complex";"housing complex";"Kec. Sukakarya";"Kabupaten Bekasi, Jawa Barat";"Kabupaten Bekasi, Jawa Barat";"ACEH";"";"Indonesia";"";"-6.1392459";"107.1791315";"https://maps.google.com/?cid=0x0:0xa116fa213e570a0a"
"housing complex";"housing complex";"Sukakarya";"Kota Sabang, Aceh";"Kota Sabang, Aceh";"ACEH";"";"Indonesia";"";"5.8477312";"95.2632201";"https://maps.google.com/?cid=0x0:0x3f20b360b2a1d865"
"housing complex";"Pembangunan Perumahan";"Fahmi anak baik";"V56H+W45, Jl. Raya Kec. Sukakarya, Sukakarya, Kec. Sukakarya, Kabupaten Bekasi, Jawa Barat 17630";"Jl. Raya Kec. Sukakarya, Sukakarya, Kec. Sukakarya, Kabupaten Bekasi";"ACEH";"17630";"Indonesia";"";"-6.1376455";"107.1778921";"https://maps.google.com/?cid=0x0:0xced114069e6b110f"
"housing complex";"Komplek perumahan";"rumah ubay";"V5G7+M76, Sukaindah, Kec. Sukakarya, Kabupaten Bekasi, Jawa Barat 17630";"Sukaindah, Kec. Sukakarya, Kabupaten Bekasi";"ACEH";"17630";"Indonesia";"";"-6.1233282";"107.1631493";"https://maps.google.com/?cid=0x0:0x2f99ef4cfc21fbe0"
"housing complex";"Komplek perumahan";"Rumah puputt";"V56M+4HJ, Sukakarya, Kec. Sukakarya, Kabupaten Bekasi, Jawa Barat";"Kabupaten Bekasi, Jawa Barat";"ACEH";"";"Indonesia";"";"-6.139963";"107.182828";"https://maps.google.com/?cid=0x0:0x4c6b6c273229af4c"
"housing complex";"Komplek perumahan";"Rumah Ibu Juroh";"V5F7+HG4, Sukaindah, Kec. Sukakarya, Kabupaten Bekasi, Jawa Barat 17630";"Sukaindah, Kec. Sukakarya, Kabupaten Bekasi";"ACEH";"17630";"Indonesia";"";"-6.1261067";"107.1638346";"https://maps.google.com/?cid=0x0:0x2291aa63fa6683fd"
"housing complex";"Pertanian";"Kp.bluo cipu";"R6R5+H3, Sukalaksana, Kec. Sukakarya, Kabupaten Bekasi, Jawa Barat";"Kabupaten Bekasi, Jawa Barat";"ACEH";"";"Indonesia";"";"-6.1583285";"107.2091053";"https://maps.google.com/?cid=0x0:0xe609153c8ae4f027"
"housing complex";"Komplek perumahan";"Rumah Pramuja";"V56P+9GF, Jl. Yapida, Sukakarya, Kec. Sukakarya, Kabupaten Bekasi, Jawa Barat 17630";"Jl. Yapida, Sukakarya, Kec. Sukakarya, Kabupaten Bekasi";"ACEH";"17630";"Indonesia";"";"-6.1390728";"107.186291";"https://maps.google.com/?cid=0x0:0x4b6d9cb238f9917b"
"housing complex";"Komplek perumahan";"Santo House";"Kp.Kendayakan No.Rt.01/001, Sukakarsa, Kec. Sukakarya, Kabupaten Bekasi, Jawa Barat 17630";"Sukakarsa, Kec. Sukakarya, Kabupaten Bekasi";"ACEH";"17630";"Indonesia";"";"-6.137272";"107.1925714";"https://maps.google.com/?cid=0x0:0x4601e9c85c20d55d"
"housing complex";"Perhimpunan Pengembang Perumahan";"cihuy";"Jl. Raya Pulo Sirih.48SukajadiKec. SukakaryaKabupaten, Kabupaten Bekasi, Jawa Barat 17630";"Kabupaten Bekasi";"ACEH";"17630";"Indonesia";"";"-6.170682";"107.1910138";"https://maps.google.com/?cid=0x0:0xa58f7d537f23eac3"
"housing complex";"Komplek perumahan";"PIRA PUTRI PEY";"Sukamurni, Kec. Sukakarya, Kabupaten Bekasi, Jawa Barat";"Kabupaten Bekasi, Jawa Barat";"ACEH";"";"Indonesia";" 087765608611";"-6.121792";"107.1555841";"https://maps.google.com/?cid=0x0:0x61ac653841246840"
"housing complex";"Komplek perumahan";"Rumahnya Bilqis hanifatussoleha";"V596+GWX, Sukaindah, Kec. Sukakarya, Kabupaten Bekasi, Jawa Barat 17630";"Sukaindah, Kec. Sukakarya, Kabupaten Bekasi";"ACEH";"17630";"Indonesia";"";"-6.1311397";"107.162423";"https://maps.google.com/?cid=0x0:0xacc4139691275d15"
"housing complex";"Komplek perumahan";"Bp. Marjuni";"Kp Jl. Cabang Pulo Bambu, RT.01/RW.03, Sukaindah, Kec. Sukakarya, Kabupaten Bekasi, Jawa Barat 17630";"RT.01/RW.03, Sukaindah, Kec. Sukakarya, Kabupaten Bekasi";"ACEH";"17630";"Indonesia";" 085722256198";"-6.1164132";"107.1563549";"https://maps.google.com/?cid=0x0:0xfcb42cb44665436c"
"housing complex";"housing complex";"perumahan";"AE 17 galaxy, Jl. Raya Pulo Sirih, Sukajadi, Kec. Sukakarya, Kabupaten Bekasi, Jawa Barat 17630";"Jl. Raya Pulo Sirih, Sukajadi, Kec. Sukakarya, Kabupaten Bekasi";"ACEH";"17630";"Indonesia";"";"-6.1738014";"107.1890765";"https://maps.google.com/?cid=0x0:0x7b0ca42a9e2954bd"
"housing complex";"housing complex";"Sukakarya";"Kota Sabang, Aceh";"Kota Sabang, Aceh";"ACEH";"";"Indonesia";"";"5.8477312";"95.2632201";"https://maps.google.com/?cid=0x0:0x3f20b360b2a1d865"
"housing complex";"housing complex";"Kec. Sukakarya";"Kabupaten Bekasi, Jawa Barat";"Kabupaten Bekasi, Jawa Barat";"ACEH";"";"Indonesia";"";"-6.1392459";"107.1791315";"https://maps.google.com/?cid=0x0:0xa116fa213e570a0a"
"housing complex";"Perhimpunan Pengembang Perumahan";"Rumah heri akhew";"Jl. Kp. Pulo Sirih No.27, Sukajadi, Kec. Sukakarya, Kabupaten Bekasi, Jawa Barat 17630";"Sukajadi, Kec. Sukakarya, Kabupaten Bekasi";"ACEH";"17630";"Indonesia";"";"-6.167241";"107.1866907";"https://maps.google.com/?cid=0x0:0xa15e5b548f395ad3"
"housing complex";"Perumahan";"Erol Blok A6 no 14";"Jl. Balika Residence No.14, Sukamulya, Kec. Sukatani, Kabupaten Bekasi, Jawa Barat 17630";"Sukamulya, Kec. Sukatani, Kabupaten Bekasi";"ACEH";"17630";"Indonesia";"";"-6.1678606";"107.1730501";"https://maps.google.com/?cid=0x0:0xfc65bd647c040231"
"housing complex";"housing complex";"perumahan";"AE 17 galaxy, Jl. Raya Pulo Sirih, Sukajadi, Kec. Sukakarya, Kabupaten Bekasi, Jawa Barat 17630";"Jl. Raya Pulo Sirih, Sukajadi, Kec. Sukakarya, Kabupaten Bekasi";"ACEH";"17630";"Indonesia";"";"-6.1738014";"107.1890765";"https://maps.google.com/?cid=0x0:0x7b0ca42a9e2954bd"
"housing complex";"Komplek perumahan";"Rumah puputt";"V56M+4HJ, Sukakarya, Kec. Sukakarya, Kabupaten Bekasi, Jawa Barat";"Kabupaten Bekasi, Jawa Barat";"ACEH";"";"Indonesia";"";"-6.139963";"107.182828";"https://maps.google.com/?cid=0x0:0x4c6b6c273229af4c"
"housing complex";"Komplek perumahan";"Rumah Pramuja";"V56P+9GF, Jl. Yapida, Sukakarya, Kec. Sukakarya, Kabupaten Bekasi, Jawa Barat 17630";"Jl. Yapida, Sukakarya, Kec. Sukakarya, Kabupaten Bekasi";"ACEH";"17630";"Indonesia";"";"-6.1390728";"107.186291";"https://maps.google.com/?cid=0x0:0x4b6d9cb238f9917b"
"housing complex";"Komplek perumahan";"rumah ubay";"V5G7+M76, Sukaindah, Kec. Sukakarya, Kabupaten Bekasi, Jawa Barat 17630";"Sukaindah, Kec. Sukakarya, Kabupaten Bekasi";"ACEH";"17630";"Indonesia";"";"-6.1233282";"107.1631493";"https://maps.google.com/?cid=0x0:0x2f99ef4cfc21fbe0"
"housing complex";"Perhimpunan Pengembang Perumahan";"cihuy";"Jl. Raya Pulo Sirih.48SukajadiKec. SukakaryaKabupaten, Kabupaten Bekasi, Jawa Barat 17630";"Kabupaten Bekasi";"ACEH";"17630";"Indonesia";"";"-6.170682";"107.1910138";"https://maps.google.com/?cid=0x0:0xa58f7d537f23eac3"
"housing complex";"housing complex";"Rumah Ica Pohan";"Jl. Balika Residence No.23 Blok B6, Sukamulya, Sukatani, Bekasi Regency, West Java 17630";"Sukamulya, Sukatani, Bekasi Regency";"ACEH";"17630";"Indonesia";"";"-6.1679856";"107.173499";"https://maps.google.com/?cid=0x0:0xe4e88ec4ff996616"
"housing complex";"Komplek perumahan";"PIRA PUTRI PEY";"Sukamurni, Kec. Sukakarya, Kabupaten Bekasi, Jawa Barat";"Kabupaten Bekasi, Jawa Barat";"ACEH";"";"Indonesia";" 087765608611";"-6.121792";"107.1555841";"https://maps.google.com/?cid=0x0:0x61ac653841246840"
"housing complex";"Komplek perumahan";"Bp. Marjuni";"Kp Jl. Cabang Pulo Bambu, RT.01/RW.03, Sukaindah, Kec. Sukakarya, Kabupaten Bekasi, Jawa Barat 17630";"RT.01/RW.03, Sukaindah, Kec. Sukakarya, Kabupaten Bekasi";"ACEH";"17630";"Indonesia";" 085722256198";"-6.1164132";"107.1563549";"https://maps.google.com/?cid=0x0:0xfcb42cb44665436c"
"housing complex";"Komplek perumahan";"Rumah Ibu Juroh";"V5F7+HG4, Sukaindah, Kec. Sukakarya, Kabupaten Bekasi, Jawa Barat 17630";"Sukaindah, Kec. Sukakarya, Kabupaten Bekasi";"ACEH";"17630";"Indonesia";"";"-6.1261067";"107.1638346";"https://maps.google.com/?cid=0x0:0x2291aa63fa6683fd"
"housing complex";"Komplek perumahan";"Calm Family";"R5MH+76G, Jl. Kp. Gandu, Sukamulya, Kec. Sukatani, Kabupaten Bekasi, Jawa Barat 17630";"Jl. Kp. Gandu, Sukamulya, Kec. Sukatani, Kabupaten Bekasi";"ACEH";"17630";"Indonesia";"";"-6.1668149";"107.1780922";"https://maps.google.com/?cid=0x0:0xc4a96a12f5b91fee"
"housing complex";"housing complex";"Sukakarya";"Kota Sabang, Aceh";"Kota Sabang, Aceh";"ACEH";"";"Indonesia";"";"5.8477312";"95.2632201";"https://maps.google.com/?cid=0x0:0x3f20b360b2a1d865"
"housing complex";"housing complex";"Kec. Sukakarya";"Kabupaten Bekasi, Jawa Barat";"Kabupaten Bekasi, Jawa Barat";"ACEH";"";"Indonesia";"";"-6.1392459";"107.1791315";"https://maps.google.com/?cid=0x0:0xa116fa213e570a0a"
"housing complex";"Pembangunan Perumahan";"Fahmi anak baik";"V56H+W45, Jl. Raya Kec. Sukakarya, Sukakarya, Kec. Sukakarya, Kabupaten Bekasi, Jawa Barat 17630";"Jl. Raya Kec. Sukakarya, Sukakarya, Kec. Sukakarya, Kabupaten Bekasi";"ACEH";"17630";"Indonesia";"";"-6.1376455";"107.1778921";"https://maps.google.com/?cid=0x0:0xced114069e6b110f"
"housing complex";"Komplek perumahan";"rumah ubay";"V5G7+M76, Sukaindah, Kec. Sukakarya, Kabupaten Bekasi, Jawa Barat 17630";"Sukaindah, Kec. Sukakarya, Kabupaten Bekasi";"ACEH";"17630";"Indonesia";"";"-6.1233282";"107.1631493";"https://maps.google.com/?cid=0x0:0x2f99ef4cfc21fbe0"
"housing complex";"Komplek perumahan";"Rumah Pramuja";"V56P+9GF, Jl. Yapida, Sukakarya, Kec. Sukakarya, Kabupaten Bekasi, Jawa Barat 17630";"Jl. Yapida, Sukakarya, Kec. Sukakarya, Kabupaten Bekasi";"ACEH";"17630";"Indonesia";"";"-6.1390728";"107.186291";"https://maps.google.com/?cid=0x0:0x4b6d9cb238f9917b"
"housing complex";"Komplek perumahan";"Rumah puputt";"V56M+4HJ, Sukakarya, Kec. Sukakarya, Kabupaten Bekasi, Jawa Barat";"Kabupaten Bekasi, Jawa Barat";"ACEH";"";"Indonesia";"";"-6.139963";"107.182828";"https://maps.google.com/?cid=0x0:0x4c6b6c273229af4c"
"housing complex";"housing complex";"perumahan";"AE 17 galaxy, Jl. Raya Pulo Sirih, Sukajadi, Kec. Sukakarya, Kabupaten Bekasi, Jawa Barat 17630";"Jl. Raya Pulo Sirih, Sukajadi, Kec. Sukakarya, Kabupaten Bekasi";"ACEH";"17630";"Indonesia";"";"-6.1738014";"107.1890765";"https://maps.google.com/?cid=0x0:0x7b0ca42a9e2954bd"
"housing complex";"Pertanian";"Kp.bluo cipu";"R6R5+H3, Sukalaksana, Kec. Sukakarya, Kabupaten Bekasi, Jawa Barat";"Kabupaten Bekasi, Jawa Barat";"ACEH";"";"Indonesia";"";"-6.1583285";"107.2091053";"https://maps.google.com/?cid=0x0:0xe609153c8ae4f027"
"housing complex";"Komplek perumahan";"Rumah Ibu Juroh";"V5F7+HG4, Sukaindah, Kec. Sukakarya, Kabupaten Bekasi, Jawa Barat 17630";"Sukaindah, Kec. Sukakarya, Kabupaten Bekasi";"ACEH";"17630";"Indonesia";"";"-6.1261067";"107.1638346";"https://maps.google.com/?cid=0x0:0x2291aa63fa6683fd"
"housing complex";"Komplek perumahan";"PIRA PUTRI PEY";"Sukamurni, Kec. Sukakarya, Kabupaten Bekasi, Jawa Barat";"Kabupaten Bekasi, Jawa Barat";"ACEH";"";"Indonesia";" 087765608611";"-6.121792";"107.1555841";"https://maps.google.com/?cid=0x0:0x61ac653841246840"
"housing complex";"Komplek perumahan";"Bp. Marjuni";"Kp Jl. Cabang Pulo Bambu, RT.01/RW.03, Sukaindah, Kec. Sukakarya, Kabupaten Bekasi, Jawa Barat 17630";"RT.01/RW.03, Sukaindah, Kec. Sukakarya, Kabupaten Bekasi";"ACEH";"17630";"Indonesia";" 085722256198";"-6.1164132";"107.1563549";"https://maps.google.com/?cid=0x0:0xfcb42cb44665436c"
"housing complex";"Perhimpunan Pengembang Perumahan";"cihuy";"Jl. Raya Pulo Sirih.48SukajadiKec. SukakaryaKabupaten, Kabupaten Bekasi, Jawa Barat 17630";"Kabupaten Bekasi";"ACEH";"17630";"Indonesia";"";"-6.170682";"107.1910138";"https://maps.google.com/?cid=0x0:0xa58f7d537f23eac3"
"housing complex";"Komplek perumahan";"Santo House";"Kp.Kendayakan No.Rt.01/001, Sukakarsa, Kec. Sukakarya, Kabupaten Bekasi, Jawa Barat 17630";"Sukakarsa, Kec. Sukakarya, Kabupaten Bekasi";"ACEH";"17630";"Indonesia";"";"-6.137272";"107.1925714";"https://maps.google.com/?cid=0x0:0x4601e9c85c20d55d"
"housing complex";"Komplek perumahan";"DENTISA";"Jl. Raya Pulo Sirih No.21, Sukajadi, Kec. Sukakarya, Kabupaten Bekasi, Jawa Barat 17630";"Sukajadi, Kec. Sukakarya, Kabupaten Bekasi";"ACEH";"17630";"Indonesia";"";"-6.17264";"107.193183";"https://maps.google.com/?cid=0x0:0x507605bc5a2b8f0a"
"housing complex";"housing complex";"Kec. Sukakarya";"Kabupaten Bekasi, Jawa Barat";"Kabupaten Bekasi, Jawa Barat";"ACEH";"";"Indonesia";"";"-6.1392459";"107.1791315";"https://maps.google.com/?cid=0x0:0xa116fa213e570a0a"
"housing complex";"housing complex";"Sukakarya";"Kota Sabang, Aceh";"Kota Sabang, Aceh";"ACEH";"";"Indonesia";"";"5.8477312";"95.2632201";"https://maps.google.com/?cid=0x0:0x3f20b360b2a1d865"
"housing complex";"Perhimpunan Pengembang Perumahan";"Rumah heri akhew";"Jl. Kp. Pulo Sirih No.27, Sukajadi, Kec. Sukakarya, Kabupaten Bekasi, Jawa Barat 17630";"Sukajadi, Kec. Sukakarya, Kabupaten Bekasi";"ACEH";"17630";"Indonesia";"";"-6.167241";"107.1866907";"https://maps.google.com/?cid=0x0:0xa15e5b548f395ad3"
"housing complex";"Komplek perumahan";"Rumah Ibu Juroh";"V5F7+HG4, Sukaindah, Kec. Sukakarya, Kabupaten Bekasi, Jawa Barat 17630";"Sukaindah, Kec. Sukakarya, Kabupaten Bekasi";"ACEH";"17630";"Indonesia";"";"-6.1261067";"107.1638346";"https://maps.google.com/?cid=0x0:0x2291aa63fa6683fd"
"housing complex";"Perhimpunan Pengembang Perumahan";"cihuy";"Jl. Raya Pulo Sirih.48SukajadiKec. SukakaryaKabupaten, Kabupaten Bekasi, Jawa Barat 17630";"Kabupaten Bekasi";"ACEH";"17630";"Indonesia";"";"-6.170682";"107.1910138";"https://maps.google.com/?cid=0x0:0xa58f7d537f23eac3"
"housing complex";"Komplek perumahan";"Yahya sintok";"V586+Q4J, Sukamurni, Kec. Sukakarya, Kabupaten Bekasi, Jawa Barat 17630";"Sukamurni, Kec. Sukakarya, Kabupaten Bekasi";"ACEH";"17630";"Indonesia";"";"-6.1330486";"107.1602781";"https://maps.google.com/?cid=0x0:0xee1b63c3ff89ed92"
"housing complex";"Pertanian";"Kp.bluo cipu";"R6R5+H3, Sukalaksana, Kec. Sukakarya, Kabupaten Bekasi, Jawa Barat";"Kabupaten Bekasi, Jawa Barat";"ACEH";"";"Indonesia";"";"-6.1583285";"107.2091053";"https://maps.google.com/?cid=0x0:0xe609153c8ae4f027"
"housing complex";"Komplek perumahan";"Elis Home";"R5PC+Q58, Kp Jl. Kali Abang, RT.04/RW.04, Sukamulya, Kec. Sukatani, Kabupaten Bekasi, Jawa Barat 17630";"Kp Jl. Kali Abang, RT.04/RW.04, Sukamulya, Kec. Sukatani, Kabupaten Bekasi";"ACEH";"17630";"Indonesia";"";"-6.1630843";"107.1704624";"https://maps.google.com/?cid=0x0:0xd8962cb1050cae67"
"housing complex";"Komplek perumahan";"Rumahnya Bilqis hanifatussoleha";"V596+GWX, Sukaindah, Kec. Sukakarya, Kabupaten Bekasi, Jawa Barat 17630";"Sukaindah, Kec. Sukakarya, Kabupaten Bekasi";"ACEH";"17630";"Indonesia";"";"-6.1311397";"107.162423";"https://maps.google.com/?cid=0x0:0xacc4139691275d15"
"housing complex";"Komplek perumahan";"Rumah puputt";"V56M+4HJ, Sukakarya, Kec. Sukakarya, Kabupaten Bekasi, Jawa Barat";"Kabupaten Bekasi, Jawa Barat";"ACEH";"";"Indonesia";"";"-6.139963";"107.182828";"https://maps.google.com/?cid=0x0:0x4c6b6c273229af4c"
"housing complex";"Komplek perumahan";"Rumah Pramuja";"V56P+9GF, Jl. Yapida, Sukakarya, Kec. Sukakarya, Kabupaten Bekasi, Jawa Barat 17630";"Jl. Yapida, Sukakarya, Kec. Sukakarya, Kabupaten Bekasi";"ACEH";"17630";"Indonesia";"";"-6.1390728";"107.186291";"https://maps.google.com/?cid=0x0:0x4b6d9cb238f9917b"
"housing complex";"Komplek perumahan";"rumah ubay";"V5G7+M76, Sukaindah, Kec. Sukakarya, Kabupaten Bekasi, Jawa Barat 17630";"Sukaindah, Kec. Sukakarya, Kabupaten Bekasi";"ACEH";"17630";"Indonesia";"";"-6.1233282";"107.1631493";"https://maps.google.com/?cid=0x0:0x2f99ef4cfc21fbe0"
"housing complex";"housing complex";"Rumah Ica Pohan";"Jl. Balika Residence No.23 Blok B6, Sukamulya, Sukatani, Bekasi Regency, West Java 17630";"Sukamulya, Sukatani, Bekasi Regency";"ACEH";"17630";"Indonesia";"";"-6.1679856";"107.173499";"https://maps.google.com/?cid=0x0:0xe4e88ec4ff996616"
"housing complex";"Komplek perumahan";"Bang Husen";"Mts Al-huda Sukakarya, Sukakarya, Kec. Sukakarya, Kabupaten Bekasi, Jawa Barat 17630";"Sukakarya, Kec. Sukakarya, Kabupaten Bekasi";"ACEH";"17630";"Indonesia";"";"-6.141024";"107.1727544";"https://maps.google.com/?cid=0x0:0xf6ce5bf47ea60b24"
