Category;Real Category;Business Name;Address;City;State;Postal Code;Country;Phone;Email;Website;Latitude;Longitude;Map Link;Details Link
building materials;building materials;Papua 98768;"Kabupaten Intan Jaya, Papua";"Kabupaten Intan Jaya, Papua";PAPUA;;Indonesia;;;;-36.382.021;1.369.028.375;https://maps.google.com/?cid=0x0:0x902010d7989d7c6c;
building materials;Grosir peralatan kantor;Facilities Management Landscaping Shop;"V35P+2R8, Unnamed Road, Tembagapura, Mimika Regency, Papua 98972";"Unnamed Road, Tembagapura, Mimika Regency";PAPUA;98972;Indonesia;0901463718;;;-41.424.528;137.087.078;https://maps.google.com/?cid=0x0:0x48557d4d082b7a34;
building materials;building materials;distrik sugapa;"725P+QV8, Bilogai, Kec. Sugapa, Kabupaten Intan Jaya, Papua";"Kabupaten Intan Jaya, Papua";PAPUA;;Indonesia;;;;-37.405.982;1.370.372.103;https://maps.google.com/?cid=0x0:0xf1f1d537a0570312;
building materials;building materials;Chute Yard;"V4W3+WGP, Tembagapura, Kec. Tembagapura, Kabupaten Mimika, Papua 98972";"Tembagapura, Kec. Tembagapura, Kabupaten Mimika";PAPUA;98972;Indonesia;;;;-41.026.633;1.371.038.151;https://maps.google.com/?cid=0x0:0xd206b2817121fe94;
building materials;Toko Bahan Bangunan;PD. Sawargi;"Jl. Nyengseret No.49, Pelindung Hewan, Kec. Astanaanyar, Kota Bandung, Jawa Barat 40234";"Pelindung Hewan, Kec. Astanaanyar, Kota Bandung";PAPUA;40234;Indonesia;0225225530;;;-69.353.496;1.075.993.364;https://maps.google.com/?cid=0x0:0xb9867dce2f6eb90f;
building materials;Toko Bahan Bangunan;PD.Sawargi;"Jl. Leuwi Panjang No.3, Situsaeur, Kec. Bojongloa Kidul, Kota Bandung, Jawa Barat 40233";"Situsaeur, Kec. Bojongloa Kidul, Kota Bandung";PAPUA;40233;Indonesia;0225207588;;;-6.938.101;1.075.971.481;https://maps.google.com/?cid=0x0:0x9735e0ed5d1f7519;
building materials;building materials;Papua 98769;Papua;Papua;PAPUA;;Indonesia;;;;-34.531.316;1.363.240.951;https://maps.google.com/?cid=0x0:0xd28ed8bf27ec9c6b;
building materials;building materials;Kec. Sugapa;"Kabupaten Intan Jaya, Papua";"Kabupaten Intan Jaya, Papua";PAPUA;;Indonesia;;;;-37.397.323;1.370.417.997;https://maps.google.com/?cid=0x0:0x484e91d781610f29;
building materials;Toko Bahan Bangunan;"Papua Bangunan, CV PAPUA ABADI";"Jl. Basuki Rahmat No.780, Klawuyuk, Distrik Sorong Timur, Kota Sorong, Papua Bar. 98416";"Klawuyuk, Distrik Sorong Timur, Kota Sorong";PAPUA;98416;Indonesia;081332017550;;;-0.8954087;1.313.186.922;https://maps.google.com/?cid=0x0:0x851804bc3aa7f033;
building materials;building materials;Shp;"726P+333, Bilogai, Kec. Sugapa, Kabupaten Intan Jaya, Papua";"Kabupaten Intan Jaya, Papua";PAPUA;;Indonesia;;;;-37.398.559;1.370.351.838;https://maps.google.com/?cid=0x0:0xffb74b23836ebad0;
building materials;building materials;Papua 98767;"Kabupaten Intan Jaya, Papua";"Kabupaten Intan Jaya, Papua";PAPUA;;Indonesia;;;;-37.788.615;1.367.091.767;https://maps.google.com/?cid=0x0:0xfc7ec60d3a7f14c;
building materials;Grosir peralatan kantor;Facilities Management Landscaping Shop;"V35P+2R8, Unnamed Road, Tembagapura, Mimika Regency, Papua 98972";"Unnamed Road, Tembagapura, Mimika Regency";PAPUA;98972;Indonesia;0901463718;;;-41.424.528;137.087.078;https://maps.google.com/?cid=0x0:0x48557d4d082b7a34;
building materials;Toko Bahan Bangunan;TOKO BAHAN BANGUNAN “TRINITY HOME”;"Jalan Baru Pasar Lama, Wahno, Kec. Abepura, Kota Jayapura, Papua 99224";"Wahno, Kec. Abepura, Kota Jayapura";PAPUA;99224;Indonesia;081232337934;;;-25.958.248;1.406.809.957;https://maps.google.com/?cid=0x0:0x41c321d86b054228;
building materials;Toko Bahan Bangunan;TOKO BAHAN BANGUNAN “TRINITY HOME”;"Jalan Baru Pasar Lama, Wahno, Kec. Abepura, Kota Jayapura, Papua 99224";"Wahno, Kec. Abepura, Kota Jayapura";PAPUA;99224;Indonesia;081232337934;;;-25.958.248;1.406.809.957;https://maps.google.com/?cid=0x0:0x41c321d86b054228;
building materials;Toko Bahan Bangunan;"Cipta Jaya Bangunan, Jayapura";"Jl. Percetakan Negara No.94, Gurabesi, Kec. Jayapura Utara, Kota Jayapura, Papua 99111";"Gurabesi, Kec. Jayapura Utara, Kota Jayapura";PAPUA;99111;Indonesia;0967531277;;;-25.420.897;1.407.021.193;https://maps.google.com/?cid=0x0:0x2de894c0927bf6ca;
building materials;Toko Bahan Bangunan;toko bangunan Yep'Mum;"4Q38+6C4, Jl. Garuda, Arso Kota, Kec. Arso, Kabupaten Keerom, Papua 99468";"Jl. Garuda, Arso Kota, Kec. Arso, Kabupaten Keerom";PAPUA;99468;Indonesia;085244664394;;;-28.970.308;1.407.661.616;https://maps.google.com/?cid=0x0:0x9649c22840d7e67e;
building materials;building materials;Wandai;"Sabisa, Distrik Wandai, Kabupaten Intan Jaya, Papua";"Kabupaten Intan Jaya, Papua";PAPUA;;Indonesia;;;;-3.703.004;136.680.496;https://maps.google.com/?cid=0x0:0x987e45212eb83434;
building materials;Toko Bahan Bangunan;Depo Bangunan Mbanyu Mili;"3VQM+2GP depan balai kampung sp 2, Prafi Mulia, Distrik Prafi, Kabupaten Manokwari, Papua Bar. 98356";"Prafi Mulia, Distrik Prafi, Kabupaten Manokwari";PAPUA;98356;Indonesia;085254126242;;;-0.9124191;1.338.838.245;https://maps.google.com/?cid=0x0:0x72bb281db456c91a;
building materials;Toko bahan makanan;DEPO MESIN N28  DEPO BANGUNAN;"Bunyom, Distrik Nimbokrang, Kabupaten Jayapura, Papua 99361";"Distrik Nimbokrang, Kabupaten Jayapura";PAPUA;99361;Indonesia;085247266989;;;-25.571.645;1.401.086.582;https://maps.google.com/?cid=0x0:0xf97268af26927065;
building materials;Toko Bahan Bangunan;TB.Wawi Mandiri;"5GRJ+2HJ, Wondiboi, Distrik Wondiboy, Kabupaten Teluk Wondama, Papua Bar. 98362";"Wondiboi, Distrik Wondiboy, Kabupaten Teluk Wondama";PAPUA;98362;Indonesia;;;;-28.102.965;1.345.316.065;https://maps.google.com/?cid=0x0:0x4863273c6e26da8d;
building materials;Toko;TB Wondama Sentosa;"Wasior - Nabire, Miei, Maniwak, Distrik Wasior, Kabupaten Teluk Wondama, Papua Bar. 98362";"Miei, Maniwak, Distrik Wasior, Kabupaten Teluk Wondama";PAPUA;98362;Indonesia;08113771366;;;-27.361.124;1.345.131.112;https://maps.google.com/?cid=0x0:0xa4797422a9cf9482;
building materials;Toko Bahan Bangunan;Arthawall Showroom;"Komplek The LINQ, Jl. Trembesi No.833, East Pademangan, Pademangan, North Jakarta City, Jakarta";"Jkt Utara, Daerah Khusus Ibukota Jakarta";PAPUA;;Indonesia;082181111005;;;-61.413.452;1.068.524.735;https://maps.google.com/?cid=0x0:0x582c594f009eacb4;
building materials;building materials;TOKO BANGUNAN NABIRE DTA;;;PAPUA;;Indonesia;082215764545;;;-33.650.533;1.355.078.165;https://maps.google.com/?cid=0x0:0x472d11153b9e7ad1;
building materials;Toko;TB. Imanuel;"V7GJ+HJM, Jl. Nusantara Katapop II, Majaran, Kec. Salawati, Kabupaten Sorong, Papua Bar. 98451";"Jl. Nusantara Katapop II, Majaran, Kec. Salawati, Kabupaten Sorong";PAPUA;98451;Indonesia;081278808072;;;-11.230.556;1.312.814.167;https://maps.google.com/?cid=0x0:0xf00e563cb4742d82;
building materials;Toko Mebel;SOUTH78 - Property Concept of VIVERE Group;"Jl. Gading Serpong Boulevard Blok O No. 7  8, Medang, Kec. Pagedangan, Kabupaten Tangerang, Banten 15334";"Medang, Kec. Pagedangan, Kabupaten Tangerang";PAPUA;15334;Indonesia;085778786565;;;-62.630.561;1.066.177.823;https://maps.google.com/?cid=0x0:0xda428c9c0e38c57c;
building materials;Pemasok aksesori mebel;S78 serpong;"Vivere - South 78, Jl. Scientia Boulevard, Curug Sangereng, Kec. Klp. Dua, Kabupaten Tangerang, Banten 15810";"Jl. Scientia Boulevard, Curug Sangereng, Kec. Klp. Dua, Kabupaten Tangerang";PAPUA;15810;Indonesia;082298256555;;;-62.631.969;106.617.544;https://maps.google.com/?cid=0x0:0x12ac99d053a38c8f;
building materials;building materials;Toko Wanda;"Jl. Unkris No.12, RT.009/RW.005, Jaticempaka, Kec. Pd. Gede, Kota Bks, Jawa Barat 17411";"RT.009/RW.005, Jaticempaka, Kec. Pd. Gede, Kota Bks";PAPUA;17411;Indonesia;;;;-62.640.778;106.909.638;https://maps.google.com/?cid=0x0:0xac8c3f96988474ce;
building materials;building materials;Papua 98784;Papua;Papua;PAPUA;;Indonesia;;;;-32.495.346;1.364.393.054;https://maps.google.com/?cid=0x0:0xd10f2faf319bd4fe;
building materials;building materials;Basecamp GS;"FPRX+W4X, Yagaito, Biandoga, Kabupaten Intan Jaya, Papua";"Kabupaten Intan Jaya, Papua";PAPUA;;Indonesia;;;;-35.076.422;1.367.478.493;https://maps.google.com/?cid=0x0:0xb95a9f9d8b45603e;
building materials;building materials;Toko Kania;"5M4C+H6F Samping Kantor Samsat, Jl. Poros SP. V, Firo, Inggerus, Waropen Regency, Papua";"Kabupaten Waropen, Papua";PAPUA;;Indonesia;;;;-28.435.717;136.670.534;https://maps.google.com/?cid=0x0:0x6fe75d0d72bc87b5;
building materials;Toko Bahan Bangunan;BB BATAKO GORONG²;"JF6R+JHQ, Jl. Perintis, Bumi Wonorejo, Distrik Nabire, Kabupaten Nabire, Papua 98818";"Jl. Perintis, Bumi Wonorejo, Distrik Nabire, Kabupaten Nabire";PAPUA;98818;Indonesia;082399753202;;;-33.884.013;1.354.914.835;https://maps.google.com/?cid=0x0:0x7a685643e4c502d5;
building materials;Kantor Perusahaan;INOAC POLYTECHNO INDONESIA CIKUPA PLANT;"Jl. Bhumimas II No.2, Talaga, Kec. Cikupa, Kabupaten Tangerang, Banten 15710";"Talaga, Kec. Cikupa, Kabupaten Tangerang";PAPUA;15710;Indonesia;;;;-62.095.546;1.065.116.653;https://maps.google.com/?cid=0x0:0xe03498cc9f74e4aa;
building materials;Toko;Jaya Bangun Utama;"6GH9+VPV, Unnamed Road, Iriati, Distrik Wasior, Kabupaten Teluk Wondama, Papua Bar. 98362";"Unnamed Road, Iriati, Distrik Wasior, Kabupaten Teluk Wondama";PAPUA;98362;Indonesia;085298357980;;;-27.702.528;1.345.193.086;https://maps.google.com/?cid=0x0:0x7b7706dc36edb6d8;
building materials;Produsen;INOAC;"Jl. Agarindo No.Km.6, Sukamantri, Kec. Ps. Kemis, Kabupaten Tangerang, Banten 15560";"Sukamantri, Kec. Ps. Kemis, Kabupaten Tangerang";PAPUA;15560;Indonesia;0215909911;;;-61.746.588;1.065.491.476;https://maps.google.com/?cid=0x0:0x7d60be12708aec09;
building materials;building materials;Distrik Agisiga;"Kabupaten Intan Jaya, Papua";"Kabupaten Intan Jaya, Papua";PAPUA;;Indonesia;;;;-37.319.536;1.370.926.922;https://maps.google.com/?cid=0x0:0xd5984dfd8c3b468d;
building materials;building materials;Papua 98768;"Kabupaten Intan Jaya, Papua";"Kabupaten Intan Jaya, Papua";PAPUA;;Indonesia;;;;-36.382.021;1.369.028.375;https://maps.google.com/?cid=0x0:0x902010d7989d7c6c;
building materials;Grosir peralatan kantor;Facilities Management Landscaping Shop;"V35P+2R8, Unnamed Road, Tembagapura, Mimika Regency, Papua 98972";"Unnamed Road, Tembagapura, Mimika Regency";PAPUA;98972;Indonesia;0901463718;;;-41.424.528;137.087.078;https://maps.google.com/?cid=0x0:0x48557d4d082b7a34;
building materials;Toko;Jaya Bangun Utama;"6GH9+VPV, Unnamed Road, Iriati, Distrik Wasior, Kabupaten Teluk Wondama, Papua Bar. 98362";"Unnamed Road, Iriati, Distrik Wasior, Kabupaten Teluk Wondama";PAPUA;98362;Indonesia;085298357980;;;-27.702.528;1.345.193.086;https://maps.google.com/?cid=0x0:0x7b7706dc36edb6d8;
building materials;Perusahaan Konstruksi;CIP Batching Plant;"V4W3+43V, Tembagapura, Kec. Tembagapura, Kabupaten Mimika, Papua 98972";"Tembagapura, Kec. Tembagapura, Kabupaten Mimika";PAPUA;98972;Indonesia;;;;-41.046.413;1.371.026.564;https://maps.google.com/?cid=0x0:0xd70672c6721eb7aa;
building materials;building materials;Shp;"726P+333, Bilogai, Kec. Sugapa, Kabupaten Intan Jaya, Papua";"Kabupaten Intan Jaya, Papua";PAPUA;;Indonesia;;;;-37.398.559;1.370.351.838;https://maps.google.com/?cid=0x0:0xffb74b23836ebad0;
building materials;building materials;Chute Yard;"V4W3+WGP, Tembagapura, Kec. Tembagapura, Kabupaten Mimika, Papua 98972";"Tembagapura, Kec. Tembagapura, Kabupaten Mimika";PAPUA;98972;Indonesia;;;;-41.026.633;1.371.038.151;https://maps.google.com/?cid=0x0:0xd206b2817121fe94;
toko bangunan;toko bangunan;Papua 98768;"Kabupaten Intan Jaya, Papua";"Kabupaten Intan Jaya, Papua";PAPUA;;Indonesia;;;;-36.382.021;1.369.028.375;https://maps.google.com/?cid=0x0:0x902010d7989d7c6c;
toko bangunan;toko bangunan;Papua 98769;Papua;Papua;PAPUA;;Indonesia;;;;-34.531.316;1.363.240.951;https://maps.google.com/?cid=0x0:0xd28ed8bf27ec9c6b;
toko bangunan;toko bangunan;Kec. Sugapa;"Kabupaten Intan Jaya, Papua";"Kabupaten Intan Jaya, Papua";PAPUA;;Indonesia;;;;-37.397.323;1.370.417.997;https://maps.google.com/?cid=0x0:0x484e91d781610f29;
toko bangunan;Toko Bahan Bangunan;TOKO BANGUNAN DIKA JAYA;"Jl. Dermaga Aikai. Enarotali Distrik Paniai Timur Kabupaten Paniai. Papua, Aikai, Paniai Tim., Enarotali, Papua 98711";"Aikai, Paniai Tim., Enarotali";PAPUA;98711;Indonesia;081935935177;;;-39.309.089;1.363.727.901;https://maps.google.com/?cid=0x0:0x814ba48a8059765f;
toko bangunan;toko bangunan;Kec. Homeyo;"Kabupaten Intan Jaya, Papua";"Kabupaten Intan Jaya, Papua";PAPUA;;Indonesia;;;;-37.386.821;1.368.570.279;https://maps.google.com/?cid=0x0:0x13d71833d8d524a9;
toko bangunan;toko bangunan;Papua 98769;Papua;Papua;PAPUA;;Indonesia;;;;-34.531.316;1.363.240.951;https://maps.google.com/?cid=0x0:0xd28ed8bf27ec9c6b;
toko bangunan;toko bangunan;Wandai;"Sabisa, Distrik Wandai, Kabupaten Intan Jaya, Papua";"Kabupaten Intan Jaya, Papua";PAPUA;;Indonesia;;;;-3.703.004;136.680.496;https://maps.google.com/?cid=0x0:0x987e45212eb83434;
toko bangunan;toko bangunan;Kec. Tebet;"Kota Jakarta Selatan, Daerah Khusus Ibukota Jakarta";"Kota Jakarta Selatan, Daerah Khusus Ibukota Jakarta";PAPUA;;Indonesia;;;;-62.251.223;1.068.549.881;https://maps.google.com/?cid=0x0:0xd575e31c807295f9;
toko bangunan;Toko Bahan Bangunan;Tb. Wandi Jaya;"Jl. KH. Mas'ud No.32, Tridaya Sakti, Kec. Tambun Sel., Kabupaten Bekasi, Jawa Barat 17510";"Tridaya Sakti, Kec. Tambun Sel., Kabupaten Bekasi";PAPUA;17510;Indonesia;085891039381;;;-62.562.991;1.070.748.821;https://maps.google.com/?cid=0x0:0x4019aef0a8859e7e;
toko bangunan;toko bangunan;Toko Wanda;"Jl. Unkris No.12, RT.009/RW.005, Jaticempaka, Kec. Pd. Gede, Kota Bks, Jawa Barat 17411";"RT.009/RW.005, Jaticempaka, Kec. Pd. Gede, Kota Bks";PAPUA;17411;Indonesia;;;;-62.640.778;106.909.638;https://maps.google.com/?cid=0x0:0xac8c3f96988474ce;
toko bangunan;toko bangunan;Papua 98784;Papua;Papua;PAPUA;;Indonesia;;;;-32.495.346;1.364.393.054;https://maps.google.com/?cid=0x0:0xd10f2faf319bd4fe;
toko bangunan;Toko bahan makanan;Toko bangunan ABADI JAYA;"Jl. Raya sarmi No.blok A, Bunyom, Distrik Nimbokrang, Kabupaten Jayapura, Papua 99361";"Bunyom, Distrik Nimbokrang, Kabupaten Jayapura";PAPUA;99361;Indonesia;085382577209;;;-2.557.175;1.401.088.301;https://maps.google.com/?cid=0x0:0x1ca51d4d8a0ae01a;
toko bangunan;Toko Bahan Bangunan;TOKO BANGUNAN DIKA JAYA;"Jl. Dermaga Aikai. Enarotali Distrik Paniai Timur Kabupaten Paniai. Papua, Aikai, Paniai Tim., Enarotali, Papua 98711";"Aikai, Paniai Tim., Enarotali";PAPUA;98711;Indonesia;081935935177;;;-39.309.089;1.363.727.901;https://maps.google.com/?cid=0x0:0x814ba48a8059765f;
toko bangunan;Toko Bahan Bangunan;Toko Bangunan Difian;"Bumi Wonorejo, Distrik Nabire, Kabupaten Nabire, Papua 98813";"Distrik Nabire, Kabupaten Nabire";PAPUA;98813;Indonesia;0812400013420;;;-34.008.216;1.354.801.451;https://maps.google.com/?cid=0x0:0x9973da42063f154;
toko bangunan;toko bangunan;Toko Kania;"5M4C+H6F Samping Kantor Samsat, Jl. Poros SP. V, Firo, Inggerus, Waropen Regency, Papua";"Kabupaten Waropen, Papua";PAPUA;;Indonesia;;;;-28.435.717;136.670.534;https://maps.google.com/?cid=0x0:0x6fe75d0d72bc87b5;
toko bangunan;Toko;Toko Abadi;"jalan trans, Persatuan, Kec. Mandobo, Kabupaten Boven Digoel, Papua 99663";"Persatuan, Kec. Mandobo, Kabupaten Boven Digoel";PAPUA;99663;Indonesia;082197348947;;;-61.021.675;1.403.183.316;https://maps.google.com/?cid=0x0:0xdee33d09caab54d2;
toko bangunan;Pasar bahan bangunan;Intan Building Center;"Jl. Budi Utomo No.90, Bataraguru, Kec. Wolio, Kota Bau-Bau, Sulawesi Tenggara 93717";"Bataraguru, Kec. Wolio, Kota Bau-Bau";PAPUA;93717;Indonesia;082292888886;;;-54.658.703;122.607.269;https://maps.google.com/?cid=0x0:0xdd0e5cfd517f12e5;
toko bangunan;toko bangunan;Distrik Agisiga;"Kabupaten Intan Jaya, Papua";"Kabupaten Intan Jaya, Papua";PAPUA;;Indonesia;;;;-37.319.536;1.370.926.922;https://maps.google.com/?cid=0x0:0xd5984dfd8c3b468d;
toko bangunan;Toko Bahan Bangunan;"TB. Timur Jaya, Kwitang";"Jl. Kramat Kwitang 1H No.1 3, RT.3/RW.5, Kwitang, Kec. Senen, Kota Jakarta Pusat, Daerah Khusus Ibukota Jakarta 10420";"RT.3/RW.5, Kwitang, Kec. Senen, Kota Jakarta Pusat";PAPUA;10420;Indonesia;0212305040;;;-61.839.852;106.840.895;https://maps.google.com/?cid=0x0:0x2b496184cabbd527;
toko bangunan;Toko Bahan Bangunan;TB. Agung Jaya;"Jl. Serua Raya No.33b, Serua, Kec. Ciputat, Kota Tangerang Selatan, Banten 15414";"Serua, Kec. Ciputat, Kota Tangerang Selatan";PAPUA;15414;Indonesia;081380912601;;;-63.169.231;1.067.119.175;https://maps.google.com/?cid=0x0:0x50c394895756e674;
toko bangunan;toko bangunan;Megah plafon pvc;"Jl. Utan Panjang Tim. No.65, RT.3/RW.7, Utan Panjang, Kec. Kemayoran, Kota Jakarta Pusat, Daerah Khusus Ibukota Jakarta 10650";"RT.3/RW.7, Utan Panjang, Kec. Kemayoran, Kota Jakarta Pusat";PAPUA;10650;Indonesia;089527057811;;;-61.689.442;1.068.525.026;https://maps.google.com/?cid=0x0:0xb72fde4d64eb354a;
toko bangunan;Toko Bahan Bangunan;TOKO ADIPATI;"X72G+VV9, Unnamed Road, Wagete I, Kec. Tigi, Kabupaten Deiyai, Papua 98764";"Unnamed Road, Wagete I, Kec. Tigi, Kabupaten Deiyai";PAPUA;98764;Indonesia;;;;-40.478.291;1.362.772.267;https://maps.google.com/?cid=0x0:0x5e5f483c1346142a;
toko bangunan;toko bangunan;Papua 98768;"Kabupaten Intan Jaya, Papua";"Kabupaten Intan Jaya, Papua";PAPUA;;Indonesia;;;;-36.382.021;1.369.028.375;https://maps.google.com/?cid=0x0:0x902010d7989d7c6c;
toko bangunan;Toko Bahan Bangunan;TOKO BANGUNAN DIKA JAYA;"Jl. Dermaga Aikai. Enarotali Distrik Paniai Timur Kabupaten Paniai. Papua, Aikai, Paniai Tim., Enarotali, Papua 98711";"Aikai, Paniai Tim., Enarotali";PAPUA;98711;Indonesia;081935935177;;;-39.309.089;1.363.727.901;https://maps.google.com/?cid=0x0:0x814ba48a8059765f;
toko bangunan;Toko Bahan Bangunan;Toko Sinar Logam;"Timika, Koperapoka, Kec. Mimika Baru, Kabupaten Mimika, Papua 99971";"Koperapoka, Kec. Mimika Baru, Kabupaten Mimika";PAPUA;99971;Indonesia;0901321436;;;-45.462.257;1.368.893.313;https://maps.google.com/?cid=0x0:0xd943c3b5e415811b;
hardware store;hardware store;Fotocopy Cartenz;"Jalan Yokatapa, Bilogai, Kec. Sugapa, Kabupaten Intan Jaya, Papua 98793";"Bilogai, Kec. Sugapa, Kabupaten Intan Jaya";PAPUA;98793;Indonesia;;;;-37.401.346;1.370.428.539;https://maps.google.com/?cid=0x0:0x13051e0362458637;
hardware store;Toko Alat Musik Bekas;JUAL BELI ALAT MUSIK BEKAS;"RT.12/RW.4, Kp. Tengah, Kec. Kramat jati, Kota Jakarta Timur, Daerah Khusus Ibukota Jakarta 13540";"Kp. Tengah, Kec. Kramat jati, Kota Jakarta Timur";PAPUA;13540;Indonesia;081380495885;;;-62.965.909;1.068.701.985;https://maps.google.com/?cid=0x0:0x4520e249611d6381;
hardware store;Toko Alat Musik Bekas;Jual beli alat musik bekas;"Jl. Taman MPU Sendok Blok Manggis No.17, RT.7/RW.4, Selong, Kec. Kby. Baru, Kota Jakarta Selatan, Daerah Khusus Ibukota Jakarta 12110";"RT.7/RW.4, Selong, Kec. Kby. Baru, Kota Jakarta Selatan";PAPUA;12110;Indonesia;085866073024;;;-62.313.096;106.811.926;https://maps.google.com/?cid=0x0:0x66ceeda151c51208;
hardware store;hardware store;Kios dua pintu;"726Q+72, Bilogai, Kec. Sugapa, Kabupaten Intan Jaya, Papua";"Kabupaten Intan Jaya, Papua";PAPUA;;Indonesia;;;;-37.393.675;1.370.376.068;https://maps.google.com/?cid=0x0:0x5ff58a18b9b81348;
hardware store;hardware store;Kec. Sugapa;"Kabupaten Intan Jaya, Papua";"Kabupaten Intan Jaya, Papua";PAPUA;;Indonesia;;;;-37.397.323;1.370.417.997;https://maps.google.com/?cid=0x0:0x484e91d781610f29;
hardware store;hardware store;Fotocopy Cartenz;"Jalan Yokatapa, Bilogai, Kec. Sugapa, Kabupaten Intan Jaya, Papua 98793";"Bilogai, Kec. Sugapa, Kabupaten Intan Jaya";PAPUA;98793;Indonesia;;;;-37.401.346;1.370.428.539;https://maps.google.com/?cid=0x0:0x13051e0362458637;
hardware store;Toko Alat Musik Bekas;Jual beli alat musik bekas;"Jl. Taman MPU Sendok Blok Manggis No.17, RT.7/RW.4, Selong, Kec. Kby. Baru, Kota Jakarta Selatan, Daerah Khusus Ibukota Jakarta 12110";"RT.7/RW.4, Selong, Kec. Kby. Baru, Kota Jakarta Selatan";PAPUA;12110;Indonesia;085866073024;;;-62.313.096;106.811.926;https://maps.google.com/?cid=0x0:0x66ceeda151c51208;
hardware store;Pasar;Pasar Induk Kramatjati;"Jl. Raya Bogor, RT.9/RW.7, Kp. Tengah, Kec. Kramat jati, Kota Jakarta Timur, Daerah Khusus Ibukota Jakarta 13540";"RT.9/RW.7, Kp. Tengah, Kec. Kramat jati, Kota Jakarta Timur";PAPUA;13540;Indonesia;;;;-62.951.192;1.068.696.884;https://maps.google.com/?cid=0x0:0x33cda3d055bd750a;
hardware store;hardware store;Papua 98767;"Kabupaten Intan Jaya, Papua";"Kabupaten Intan Jaya, Papua";PAPUA;;Indonesia;;;;-37.788.615;1.367.091.767;https://maps.google.com/?cid=0x0:0xfc7ec60d3a7f14c;
hardware store;Toko Bahan Bangunan;TOKO BANGUNAN DIKA JAYA;"Jl. Dermaga Aikai. Enarotali Distrik Paniai Timur Kabupaten Paniai. Papua, Aikai, Paniai Tim., Enarotali, Papua 98711";"Aikai, Paniai Tim., Enarotali";PAPUA;98711;Indonesia;081935935177;;;-39.309.089;1.363.727.901;https://maps.google.com/?cid=0x0:0x814ba48a8059765f;
hardware store;Toko;Toko Pegunungan Papua Tengah;"Umbutu / Uyubutu / Uwibutu, Paniai Tim., Kabupaten Paniai, Papua 98781";"Paniai Tim., Kabupaten Paniai";PAPUA;98781;Indonesia;;;;-39.452.003;1.364.302.235;https://maps.google.com/?cid=0x0:0x105eae32e4602542;
hardware store;Toko grosir;HOMWELL - The Solution Store;"Kode Pos, Jakarta Garden City (JGC) Cleon Park No 7 - 8, Jl. Orchid No.1, RT.11/RW.8, East Cakung, Cakung, East Jakarta City, Jakarta 13910";"Jakarta Garden City (JGC) Cleon Park No 7 - 8, Jl. Orchid No.1, RT.11/RW.8, East Cakung, Cakung, East Jakarta City";PAPUA;13910;Indonesia;081119179323;;;-6.174.957;1.069.555.252;https://maps.google.com/?cid=0x0:0x1f907f42c79872af;
hardware store;hardware store;Papua 98769;Papua;Papua;PAPUA;;Indonesia;;;;-34.531.316;1.363.240.951;https://maps.google.com/?cid=0x0:0xd28ed8bf27ec9c6b;
hardware store;hardware store;Kec. Homeyo;"Kabupaten Intan Jaya, Papua";"Kabupaten Intan Jaya, Papua";PAPUA;;Indonesia;;;;-37.386.821;1.368.570.279;https://maps.google.com/?cid=0x0:0x13d71833d8d524a9;
hardware store;hardware store;Wandai;"Sabisa, Distrik Wandai, Kabupaten Intan Jaya, Papua";"Kabupaten Intan Jaya, Papua";PAPUA;;Indonesia;;;;-3.703.004;136.680.496;https://maps.google.com/?cid=0x0:0x987e45212eb83434;
hardware store;hardware store;Kec. Tebet;"Kota Jakarta Selatan, Daerah Khusus Ibukota Jakarta";"Kota Jakarta Selatan, Daerah Khusus Ibukota Jakarta";PAPUA;;Indonesia;;;;-62.251.223;1.068.549.881;https://maps.google.com/?cid=0x0:0xd575e31c807295f9;
hardware store;Toko Bahan Bangunan;Wondai H Hardware;"not Hwy, 6 Bunya Ave, Wondai QLD 4606, Australia";"Wondai QLD, Australia";PAPUA;;Indonesia;61741685210;;;-263.062.238;1.518.688.044;https://maps.google.com/?cid=0x0:0x9ef04b7123a2a194;
hardware store;Toko Bahan Bangunan;IDEAL Hardware Badili;"G5CH+P4V, Port Moresby National Capital District, Papua Nugini";"Port Moresby, Papua Nugini";PAPUA;;Indonesia;67572020480;;;-94.781.441;1.471.778.033;https://maps.google.com/?cid=0x0:0xf8d36581cad3bd15;
hardware store;Toko Bahan Bangunan;IDEAL Hardware Erima;"H663+G96, Hubert Murray Hwy, Port Moresby National Capital District, Papua Nugini";"Port Moresby, Papua Nugini";PAPUA;;Indonesia;;;;-94.387.057;1.472.033.947;https://maps.google.com/?cid=0x0:0xb0747cd07f864f3;
hardware store;hardware store;Intan Hardware Trading Company;"Petra Jaya, 93050 Kuching, Serawak, Malaysia";Kuching;PAPUA;93050;Indonesia;;;;1.597.424;1.103.359.528;https://maps.google.com/?cid=0x0:0x793da97891d531cd;
hardware store;hardware store;Fotocopy Cartenz;"Jalan Yokatapa, Bilogai, Kec. Sugapa, Kabupaten Intan Jaya, Papua 98793";"Bilogai, Kec. Sugapa, Kabupaten Intan Jaya";PAPUA;98793;Indonesia;;;;-37.401.346;1.370.428.539;https://maps.google.com/?cid=0x0:0x13051e0362458637;
hardware store;hardware store;Intan Hardware Trading Company;"Petra Jaya, 93050 Kuching, Serawak, Malaysia";Kuching;PAPUA;93050;Indonesia;;;;1.597.424;1.103.359.528;https://maps.google.com/?cid=0x0:0x793da97891d531cd;
hardware store;Toko Perlengkapan Rumah;Azko Radio Dalam;"Jl. Radio Dalam Raya No.17B 10, RT.10/RW.1, Gandaria Utara, Kec. Kby. Baru, Kota Jakarta Selatan, Daerah Khusus Ibukota Jakarta 12140";"RT.10/RW.1, Gandaria Utara, Kec. Kby. Baru, Kota Jakarta Selatan";PAPUA;12140;Indonesia;081584851025;;;-6.251.579;106.791.724;https://maps.google.com/?cid=0x0:0x923642051933a42b;
hardware store;Toko Perlengkapan Rumah;Azko Panglima Polim;"PQXX+M28, Jl. Panglima Polim No.73 1, Melawai, Kec. Kby. Baru, Kota Jakarta Selatan, Daerah Khusus Ibukota Jakarta 12160";"Jl. Panglima Polim No.73 1, Melawai, Kec. Kby. Baru, Kota Jakarta Selatan";PAPUA;12160;Indonesia;085215450928;;;-62.507.589;1.067.976.592;https://maps.google.com/?cid=0x0:0x58721b3df20e0768;
hardware store;hardware store;Fotocopy Cartenz;"Jalan Yokatapa, Bilogai, Kec. Sugapa, Kabupaten Intan Jaya, Papua 98793";"Bilogai, Kec. Sugapa, Kabupaten Intan Jaya";PAPUA;98793;Indonesia;;;;-37.401.346;1.370.428.539;https://maps.google.com/?cid=0x0:0x13051e0362458637;
home improvement;home improvement;Papua 98768;"Kabupaten Intan Jaya, Papua";"Kabupaten Intan Jaya, Papua";PAPUA;;Indonesia;;;;-36.382.021;1.369.028.375;https://maps.google.com/?cid=0x0:0x902010d7989d7c6c;
home improvement;Komplek perumahan;Dinas Perumahan dan Kawasan Permukiman Kabupaten Intan Jaya;"Jln, Yokatapa, Kec. Sugapa, Kabupaten Intan Jaya, Papua 98768";"Yokatapa, Kec. Sugapa, Kabupaten Intan Jaya";PAPUA;98768;Indonesia;082323339791;;;-37.591.431;1.370.096.682;https://maps.google.com/?cid=0x0:0xa0598a0c8652cca5;
home improvement;home improvement;Shp;"726P+333, Bilogai, Kec. Sugapa, Kabupaten Intan Jaya, Papua";"Kabupaten Intan Jaya, Papua";PAPUA;;Indonesia;;;;-37.398.559;1.370.351.838;https://maps.google.com/?cid=0x0:0xffb74b23836ebad0;
home improvement;home improvement;Papua 98769;Papua;Papua;PAPUA;;Indonesia;;;;-34.531.316;1.363.240.951;https://maps.google.com/?cid=0x0:0xd28ed8bf27ec9c6b;
home improvement;home improvement;Kec. Sugapa;"Kabupaten Intan Jaya, Papua";"Kabupaten Intan Jaya, Papua";PAPUA;;Indonesia;;;;-37.397.323;1.370.417.997;https://maps.google.com/?cid=0x0:0x484e91d781610f29;
home improvement;home improvement;Kec. Homeyo;"Kabupaten Intan Jaya, Papua";"Kabupaten Intan Jaya, Papua";PAPUA;;Indonesia;;;;-37.386.821;1.368.570.279;https://maps.google.com/?cid=0x0:0x13d71833d8d524a9;
home improvement;home improvement;Papua 98769;Papua;Papua;PAPUA;;Indonesia;;;;-34.531.316;1.363.240.951;https://maps.google.com/?cid=0x0:0xd28ed8bf27ec9c6b;
home improvement;home improvement;Wandai;"Sabisa, Distrik Wandai, Kabupaten Intan Jaya, Papua";"Kabupaten Intan Jaya, Papua";PAPUA;;Indonesia;;;;-3.703.004;136.680.496;https://maps.google.com/?cid=0x0:0x987e45212eb83434;
home improvement;home improvement;Kec. Tebet;"Kota Jakarta Selatan, Daerah Khusus Ibukota Jakarta";"Kota Jakarta Selatan, Daerah Khusus Ibukota Jakarta";PAPUA;;Indonesia;;;;-62.251.223;1.068.549.881;https://maps.google.com/?cid=0x0:0xd575e31c807295f9;
home improvement;Desainer Interior;Wanda furniture;"QH5H+2MQ, Jl. Raya Cijengir Binong, Binong, Kec. Curug, Kabupaten Tangerang, Banten 15810";"Jl. Raya Cijengir Binong, Binong, Kec. Curug, Kabupaten Tangerang";PAPUA;15810;Indonesia;081382522595;;;-62.424.185;1.065.792.318;https://maps.google.com/?cid=0x0:0x4adc1d58763c04ac;
home improvement;Komplek perumahan;WandAnhar Home;"Komplek TNI AL Blok D26 No 11, RT.14/RW.21, Ciangsana, Gunung Putri, Bogor Regency";"Kabupaten Bogor, Jawa Barat";PAPUA;;Indonesia;;;;-63.657.296;1.069.469.429;https://maps.google.com/?cid=0x0:0x9b9f16196a446649;
home improvement;Inspektur Tempat Tinggal;Rumah Wanday;"Jl. Depok Indah I No.29, RT.03/RW.17, Kemiri Muka, Kecamatan Beji, Kota Depok, Jawa Barat 16423";"RT.03/RW.17, Kemiri Muka, Kecamatan Beji, Kota Depok";PAPUA;16423;Indonesia;;;;-63.880.875;1.068.310.821;https://maps.google.com/?cid=0x0:0xda36a45d389013bf;
home improvement;home improvement;Wanda home;"X86C+7F8, Samparwadi, Kec. Tirtayasa, Kabupaten Serang, Banten";"Kabupaten Serang, Banten";PAPUA;;Indonesia;;;;-60.393.479;1.063.211.923;https://maps.google.com/?cid=0x0:0x3cd1e328b2c1671e;
home improvement;Vila;Wanda kinansih;"RT002/RW006, Jl. Ps. Cisarua, Cisarua, Kec. Cisarua, Kabupaten Bogor, Jawa Barat 16750";"Jl. Ps. Cisarua, Cisarua, Kec. Cisarua, Kabupaten Bogor";PAPUA;16750;Indonesia;;;;-66.799.489;1.069.322.873;https://maps.google.com/?cid=0x0:0x3eae7dd3307e6604;
home improvement;Komplek perumahan;Wanda home;"J7GR+JHP, Way Dadi, Kec. Sukarame, Kota Bandar Lampung, Lampung 35131";"Way Dadi, Kec. Sukarame, Kota Bandar Lampung";PAPUA;35131;Indonesia;;;;-5.373.495;1.052.914.673;https://maps.google.com/?cid=0x0:0x7291109d3281949c;
home improvement;Komplek perumahan;Wanda Home;"CXJG+G2G, Sarongsong I, Kec. Airmadidi, Kabupaten Minahasa Utara, Sulawesi Utara";"Kabupaten Minahasa Utara, Sulawesi Utara";PAPUA;;Indonesia;;;;14.313.102;1.249.750.809;https://maps.google.com/?cid=0x0:0x6758058256e32c0f;
home improvement;Komplek perumahan;Wanda home;"W27Q+VCX, Duwet, Ploso, Kec. Punung, Kabupaten Pacitan, Jawa Timur";"Kabupaten Pacitan, Jawa Timur";PAPUA;;Indonesia;;;;-80.852.695;1.110.385.993;https://maps.google.com/?cid=0x0:0xae0533f7efe48abd;
home improvement;Perumahan;Wanda Home;"M99F+6Q4, Gg. Cibitung Hilir, Kertasari, Kec. Ciamis, Kabupaten Ciamis, Jawa Barat";"Kabupaten Ciamis, Jawa Barat";PAPUA;;Indonesia;;;;-73.319.865;1.083.744.477;https://maps.google.com/?cid=0x0:0x73c1a88a47bb11e1;
home improvement;home improvement;Wanda's Home;"5C86+7X9, Jl. Pleret, Ngrpik, Baturetno, Kec. Banguntapan, Kabupaten Bantul, Daerah Istimewa Yogyakarta";"Kabupaten Bantul, Daerah Istimewa Yogyakarta";PAPUA;;Indonesia;;;;-78.343.399;1.104.124.971;https://maps.google.com/?cid=0x0:0xc26a93fe89775756;
home improvement;Komplek perumahan;HOME WANDa;"PGFV+W8H, Ngablak, Kadirejo, Kec. Pabelan, Kabupaten Semarang, Jawa Tengah 50771";"Ngablak, Kadirejo, Kec. Pabelan, Kabupaten Semarang";PAPUA;50771;Indonesia;;;;-72.751.919;1.105.433.453;https://maps.google.com/?cid=0x0:0x864557e79984a623;
home improvement;Komplek perumahan;Wanda Home;"P2V6+28C, Waringinsari Tim., Kec. Adi Luwih, Kabupaten Pringsewu, Lampung 35674";"Waringinsari Tim., Kec. Adi Luwih, Kabupaten Pringsewu";PAPUA;35674;Indonesia;081919102641;;;-52.574.373;1.050.107.561;https://maps.google.com/?cid=0x0:0xd3df1d256f675741;
home improvement;;PT MONOTARO INDONESIA;"Wisma Keiai, Jl. Jenderal Sudirman No.Kav. 3 Lantai 12 A, RT.10/RW.11, Karet Tengsin, Kecamatan Tanah Abang, Kota Jakarta Pusat, Daerah Khusus Ibukota Jakarta 10250";"Jl. Jenderal Sudirman No.Kav. 3 Lantai 12 A, RT.10/RW.11, Karet Tengsin, Kecamatan Tanah Abang, Kota Jakarta Pusat";PAPUA;10250;Indonesia;02131106990;;;-62.058.856;1.068.214.639;https://maps.google.com/?cid=0x0:0x7b55aa0e5f409364;
home improvement;home improvement;Papua 98784;Papua;Papua;PAPUA;;Indonesia;;;;-32.495.346;1.364.393.054;https://maps.google.com/?cid=0x0:0xd10f2faf319bd4fe;
home improvement;Toko Bahan Bangunan;"Mega Jaya Barokah ( Jual Triplek, Mdf, Hmr, Blockmin, HPL, Lem Kuning, Hardware Interior )";"Depan RSI Aminah, Ruko No.E-01, Watutulis Utara, Watutulis, Kec. Prambon, Kabupaten Sidoarjo, Jawa Timur 61264";"Ruko No.E-01, Watutulis Utara, Watutulis, Kec. Prambon, Kabupaten Sidoarjo";PAPUA;61264;Indonesia;08566661000;;;-74.405.207;1.125.722.891;https://maps.google.com/?cid=0x0:0xac40a6d9f0abf32a;
home improvement;Produsen;Pabrik Wood Pellet Bogor;"Mekarsari, Kec. Cileungsi, Kabupaten Bogor, Jawa Barat 16820";"Kec. Cileungsi, Kabupaten Bogor";PAPUA;16820;Indonesia;087779183654;;;-63.976.891;1.070.058.238;https://maps.google.com/?cid=0x0:0xae6f01c67ed024fa;
home improvement;Perusahaan Software;PIXELR INDONESIA;"Sentra Industri Terpadu, Jl. Elang Laut Tahap 3 Blok F18, Kamal Muara, Kec. Penjaringan, PIK, Daerah Khusus Ibukota Jakarta 14470";"Jl. Elang Laut Tahap 3 Blok F18, Kamal Muara, Kec. Penjaringan, PIK";PAPUA;14470;Indonesia;082160009788;;;-61.244.486;1.067.412.087;https://maps.google.com/?cid=0x0:0xdfaa8c3332513b85;
home improvement;home improvement;Ksb Blok F;"J428+2J4, Kota (KSB Grande), Sukaragam, Serang Baru, Bekasi Regency, West Java 17330";"Kota (KSB Grande), Sukaragam, Serang Baru, Bekasi Regency";PAPUA;17330;Indonesia;;;;-63.999.863;1.071.165.802;https://maps.google.com/?cid=0x0:0x711b3c94f12d1ba5;
home improvement;Komplek perumahan;Dinas Perumahan dan Kawasan Permukiman Kabupaten Intan Jaya;"Jln, Yokatapa, Kec. Sugapa, Kabupaten Intan Jaya, Papua 98768";"Yokatapa, Kec. Sugapa, Kabupaten Intan Jaya";PAPUA;98768;Indonesia;082323339791;;;-37.591.431;1.370.096.682;https://maps.google.com/?cid=0x0:0xa0598a0c8652cca5;
home improvement;Jasa Konstruksi dan Bangunan;Barak Dinas PUPR Intan Jaya;"62QX+9CW, Bilogai, Kec. Sugapa, Kabupaten Intan Jaya, Papua";"Kabupaten Intan Jaya, Papua";PAPUA;;Indonesia;;;;-37.615.148;1.370.485.715;https://maps.google.com/?cid=0x0:0xb8debaa3d2481462;
home improvement;home improvement;Distrik Agisiga;"Kabupaten Intan Jaya, Papua";"Kabupaten Intan Jaya, Papua";PAPUA;;Indonesia;;;;-37.319.536;1.370.926.922;https://maps.google.com/?cid=0x0:0xd5984dfd8c3b468d;
home improvement;home improvement;Papua 98768;"Kabupaten Intan Jaya, Papua";"Kabupaten Intan Jaya, Papua";PAPUA;;Indonesia;;;;-36.382.021;1.369.028.375;https://maps.google.com/?cid=0x0:0x902010d7989d7c6c;
home improvement;Komplek perumahan;Dinas Perumahan dan Kawasan Permukiman Kabupaten Intan Jaya;"Jln, Yokatapa, Kec. Sugapa, Kabupaten Intan Jaya, Papua 98768";"Yokatapa, Kec. Sugapa, Kabupaten Intan Jaya";PAPUA;98768;Indonesia;082323339791;;;-37.591.431;1.370.096.682;https://maps.google.com/?cid=0x0:0xa0598a0c8652cca5;
home improvement;home improvement;Shp;"726P+333, Bilogai, Kec. Sugapa, Kabupaten Intan Jaya, Papua";"Kabupaten Intan Jaya, Papua";PAPUA;;Indonesia;;;;-37.398.559;1.370.351.838;https://maps.google.com/?cid=0x0:0xffb74b23836ebad0;
hotel;hotel;Papua 98768;"Kabupaten Intan Jaya, Papua";"Kabupaten Intan Jaya, Papua";PAPUA;;Indonesia;;;;-36.382.021;1.369.028.375;https://maps.google.com/?cid=0x0:0x902010d7989d7c6c;
hotel;hotel;Hotel Sahid Papua;"Jl. Klp. 2 No.18, Entrop, Distrik Jayapura Selatan, Kota Jayapura, Papua 99221";"Entrop, Distrik Jayapura Selatan, Kota Jayapura";PAPUA;99221;Indonesia;0811481167;;;-25.661.461;1.406.996.539;https://maps.google.com/?cid=0x0:0x9c8a2fd141b3aa33;
hotel;hotel;N/A;;;PAPUA;;Indonesia;;;;;;https://maps.google.com/?cid=0x0:0x9c8a2fd141b3aa33%7C/g/11b73kkp76%7Cen-ID;
hotel;hotel;SIP Azana Hotel Jayapura;"Jl. Ahmad Yani No.50, Gurabesi, Kec. Jayapura Utara, Kota Jayapura, Papua 99221";"Gurabesi, Kec. Jayapura Utara, Kota Jayapura";PAPUA;99221;Indonesia;082197886688;;;-25.436.754;1.407.014.241;https://maps.google.com/?cid=0x0:0xc311c59465e76f9e;
hotel;hotel;Rimba Papua Hotel;"Jl. Kwamki Narama No. 1, Kwamki, Kec. Mimika Baru, Kabupaten Mimika, Papua 99971";"Kwamki, Kec. Mimika Baru, Kabupaten Mimika";PAPUA;99971;Indonesia;0901494949;;;-45.151.124;136.884.599;https://maps.google.com/?cid=0x0:0xa65056700db32492;
hotel;hotel;SAMUMAMBO HOTEL;"jl. cenderawasih belakang manna bakerei, Kwamki, Kec. Mimika Baru, Kabupaten Mimika, Papua 99910";"Kwamki, Kec. Mimika Baru, Kabupaten Mimika";PAPUA;99910;Indonesia;081344090664;;;-45.424.836;1.368.797.497;https://maps.google.com/?cid=0x0:0xcb5241de257efb93;
hotel;hotel;HOTEL Timika Indah Papua;"Jl. Jend. Ahmad Yani, Kwamki, Kec. Mimika Baru, Kabupaten Mimika, Papua 99910";"Kwamki, Kec. Mimika Baru, Kabupaten Mimika";PAPUA;99910;Indonesia;08114900888;;;-45.450.918;1.368.950.181;https://maps.google.com/?cid=0x0:0x678db0783377d5c6;
hotel;hotel;Jaya Hotel;"CVJP+XV2, Jl. Raya Sp1, Inauga, Kec. Mimika Baru, Kabupaten Mimika, Papua 99971";"Jl. Raya Sp1, Inauga, Kec. Mimika Baru, Kabupaten Mimika";PAPUA;99971;Indonesia;087777677405;;;-45.676.146;1.368.871.472;https://maps.google.com/?cid=0x0:0x854e1f8dfba40a6c;
hotel;hotel;Penginapan Paparisa Amungsa;"Koperapoka, Kec. Mimika Baru, Kabupaten Mimika, Papua 99971";"Kec. Mimika Baru, Kabupaten Mimika";PAPUA;99971;Indonesia;081343206383;;;-45.385.795;1.368.755.667;https://maps.google.com/?cid=0x0:0xfd07a1d4446c8f23;
hotel;hotel;Hotel R6;"Jl.Cendrawasih SP2, Papua 99952";"Kabupaten Mimika, Papua";PAPUA;;Indonesia;082245112457;;;-4.538.464;1.368.691.429;https://maps.google.com/?cid=0x0:0xb392d58fbaabfb69;
hotel;hotel;Hotel Sawitto 1;"FV4V+3QV, Timika Jaya, Kec. Mimika Baru, Kabupaten Mimika, Papua 99971";"Timika Jaya, Kec. Mimika Baru, Kabupaten Mimika";PAPUA;99971;Indonesia;;;;-45.447.575;1.368.944.296;https://maps.google.com/?cid=0x0:0xa49800860bcb43de;
hotel;hotel;Papua 98769;Papua;Papua;PAPUA;;Indonesia;;;;-34.531.316;1.363.240.951;https://maps.google.com/?cid=0x0:0xd28ed8bf27ec9c6b;
hotel;hotel;Hotel Sahid Papua;"Jl. Klp. 2 No.18, Entrop, Distrik Jayapura Selatan, Kota Jayapura, Papua 99221";"Entrop, Distrik Jayapura Selatan, Kota Jayapura";PAPUA;99221;Indonesia;0811481167;;;-25.661.461;1.406.996.539;https://maps.google.com/?cid=0x0:0x9c8a2fd141b3aa33;
hotel;hotel;N/A;;;PAPUA;;Indonesia;;;;;;https://maps.google.com/?cid=0x0:0x9c8a2fd141b3aa33%7C/g/11b73kkp76%7Cen-ID;
hotel;hotel;Bisnis Hotel;"Kwamki, Kec. Mimika Baru, Kabupaten Mimika, Papua 99971";"Kec. Mimika Baru, Kabupaten Mimika";PAPUA;99971;Indonesia;09013264510;;;-45.452.777;1.368.833.867;https://maps.google.com/?cid=0x0:0x690d0340d9882c9c;
hotel;hotel;Jaya Hotel;"CVJP+XV2, Jl. Raya Sp1, Inauga, Kec. Mimika Baru, Kabupaten Mimika, Papua 99971";"Jl. Raya Sp1, Inauga, Kec. Mimika Baru, Kabupaten Mimika";PAPUA;99971;Indonesia;087777677405;;;-45.676.146;1.368.871.472;https://maps.google.com/?cid=0x0:0x854e1f8dfba40a6c;
hotel;hotel;Rimba Papua Hotel;"Jl. Kwamki Narama No. 1, Kwamki, Kec. Mimika Baru, Kabupaten Mimika, Papua 99971";"Kwamki, Kec. Mimika Baru, Kabupaten Mimika";PAPUA;99971;Indonesia;0901494949;;;-45.151.124;136.884.599;https://maps.google.com/?cid=0x0:0xa65056700db32492;
hotel;hotel;Penginapan Paparisa Amungsa;"Koperapoka, Kec. Mimika Baru, Kabupaten Mimika, Papua 99971";"Kec. Mimika Baru, Kabupaten Mimika";PAPUA;99971;Indonesia;081343206383;;;-45.385.795;1.368.755.667;https://maps.google.com/?cid=0x0:0xfd07a1d4446c8f23;
hotel;hotel;HOTEL Timika Indah Papua;"Jl. Jend. Ahmad Yani, Kwamki, Kec. Mimika Baru, Kabupaten Mimika, Papua 99910";"Kwamki, Kec. Mimika Baru, Kabupaten Mimika";PAPUA;99910;Indonesia;08114900888;;;-45.450.918;1.368.950.181;https://maps.google.com/?cid=0x0:0x678db0783377d5c6;
hotel;hotel;Ashley tanah abang;"Jl. K.H. Wahid Hasyim No.220 A-B, Kampung Bali, Tanah Abang, Central Jakarta City, Jakarta 10250";"Kampung Bali, Tanah Abang, Central Jakarta City";PAPUA;10250;Indonesia;02150848000;;;-61.866.666;1.068.173.307;https://maps.google.com/?cid=0x0:0xddf794dd0b363645;
hotel;hotel;N/A;;;PAPUA;;Indonesia;;;;;;https://maps.google.com/?cid=0x0:0xddf794dd0b363645%7C/g/11t2vjyfpv%7Cen-ID;
hotel;Museum Sejarah Lokal;Monumen Nasional;"Merdeka Square, Jalan Lapangan Monas, Gambir, Kecamatan Gambir, Kota Jakarta Pusat, Daerah Khusus Ibukota Jakarta 10110";"Jalan Lapangan Monas, Gambir, Kecamatan Gambir, Kota Jakarta Pusat";PAPUA;10110;Indonesia;0213853040;;;-61.753.924;1.068.271.528;https://maps.google.com/?cid=0x0:0x3d2ad6e1e0e9bcc8;
hotel;hotel;N/A;;;PAPUA;;Indonesia;;;;;;https://maps.google.com/?cid=0x0:0x6af3b8e40e924d17%7C/g/1vbbczq4%7Cen-ID;
hotel;hotel;Mandarin Oriental Jakarta;"Jl. M.H. Thamrin, Menteng, Kec. Menteng, Jakarta, Daerah Khusus Ibukota Jakarta 10310";"Menteng, Kec. Menteng, Jakarta";PAPUA;10310;Indonesia;02129938888;;;-61.961.573;1.068.235.537;https://maps.google.com/?cid=0x0:0x6af3b8e40e924d17;
hotel;Stasiun Kereta;Stasiun Sudirman;"10, Jl. Kendal No.24, RW.6, Menteng, 10310";"Jl. Kendal No.24, RW.6";PAPUA;10310;Indonesia;;;;-62.024.499;1.068.237.671;https://maps.google.com/?cid=0x0:0x13f90424139e1edf;
hotel;Gedung Pernikahan;Mandarin Ballroom;"Mandarin Oriental Hotel ,Jalan M.H. Thamrin, Jakarta, RT.1/RW.5, Menteng, Central Jakarta City, Jakarta 10310";"Jakarta, RT.1/RW.5, Menteng, Central Jakarta City";PAPUA;10310;Indonesia;02129938888;;;-61.962.937;1.068.236.263;https://maps.google.com/?cid=0x0:0xfe7a781bbb5f4173;
hotel;hotel;Mercure Convention Centre Ancol;"Jl. Pantai Indah, Ancol, Jakarta Baycity, Jkt Utara, Daerah Khusus Ibukota Jakarta 14430";"Ancol, Jakarta Baycity, Jkt Utara";PAPUA;14430;Indonesia;0216406000;;;-61.221.699;1.068.365.505;https://maps.google.com/?cid=0x0:0x17838cc55234c56d;
hotel;hotel;N/A;;;PAPUA;;Indonesia;;;;;;https://maps.google.com/?cid=0x0:0x17838cc55234c56d%7C/g/1vzsj8t9%7Cen-ID;
hotel;Layanan Transportasi;Kampung Bandan;"Ancol, Kec. Pademangan, Jkt Utara, Daerah Khusus Ibukota Jakarta";"Jkt Utara, Daerah Khusus Ibukota Jakarta";PAPUA;;Indonesia;;;;-61.326.019;1.068.286.018;https://maps.google.com/?cid=0x0:0x4a68646f1d98548f;
hotel;hotel;Wyndham Casablanca Jakarta;"Jl. Raya Casablanca No.18, RT.4/RW.12, Menteng Dalam, Kec. Tebet, Kota Jakarta Selatan, Daerah Khusus Ibukota Jakarta 12870";"RT.4/RW.12, Menteng Dalam, Kec. Tebet, Kota Jakarta Selatan";PAPUA;12870;Indonesia;0218282000;;;-62.248.964;1.068.400.434;https://maps.google.com/?cid=0x0:0x70e5ae0ff55cdac1;
hotel;hotel;N/A;;;PAPUA;;Indonesia;;;;;;https://maps.google.com/?cid=0x0:0x70e5ae0ff55cdac1%7C/g/11h081m9fz%7Cen-ID;
hotel;Jasa Kereta Api;Manggarai;"H7 Jl. Manggarai Utara, RW.1, Manggarai, Kec. Tebet, Kota Jakarta Selatan, Daerah Khusus Ibukota Jakarta 12850";"RW.1, Manggarai, Kec. Tebet, Kota Jakarta Selatan";PAPUA;12850;Indonesia;;;;-62.099.019;1.068.502.202;https://maps.google.com/?cid=0x0:0x47c98448b038a7d8;
hotel;hotel;@HOM Premiere Abepura by Horison;"Jl. Raya Tanah Hitam, Asano, Kec. Abepura, Kota Jayapura, Papua 99351";"Asano, Kec. Abepura, Kota Jayapura";PAPUA;99351;Indonesia;082110078800;;;-26.163.722;1.406.795.037;https://maps.google.com/?cid=0x0:0x232d3c1cc9df1530;
hotel;hotel;N/A;;;PAPUA;;Indonesia;;;;;;https://maps.google.com/?cid=0x0:0x232d3c1cc9df1530%7C/g/11c0xhccvj%7Cen-ID;
hotel;hotel;Frontone Green Boutique Hotel;"Jl. Gerilyawan Jl. Bosnik BTN Kamkey No.111, Kamkey, Kec. Abepura, Kota Jayapura, Papua 99351";"Kamkey, Kec. Abepura, Kota Jayapura";PAPUA;99351;Indonesia;0967585010;;;-26.140.146;1.406.711.964;https://maps.google.com/?cid=0x0:0x4a570626468e5935;
hotel;hotel;Hotel Gamalama;"9MP9+G56, Jl. Gerilyawan, Yobe, Kec. Abepura, Kota Jayapura, Papua 99351";"Jl. Gerilyawan, Yobe, Kec. Abepura, Kota Jayapura";PAPUA;99351;Indonesia;085337358893;;;-26.137.021;1.406.678.935;https://maps.google.com/?cid=0x0:0xf95001e3d53d211;
hotel;hotel;RedDoorz near Saga Mall Abepura;"Jl. Raya Hitam Gg. Merpati 2, Awiyo, Kec. Abepura, Kota Jayapura, Papua 99351";"Awiyo, Kec. Abepura, Kota Jayapura";PAPUA;99351;Indonesia;0895417300072;;;-26.136.849;140.674.499;https://maps.google.com/?cid=0x0:0x653c8618fa7a31c2;
hotel;hotel;AKAVI HOMESTAY JAYAPURA;"9MPF+3QM, Jl. Raya Abepura - Sentani, Awiyo, Kec. Abepura, Kota Jayapura, Papua 99351";"Jl. Raya Abepura - Sentani, Awiyo, Kec. Abepura, Kota Jayapura";PAPUA;99351;Indonesia;085240000220;;;-26.147.932;1.406.744.192;https://maps.google.com/?cid=0x0:0x3e595be894ddc04c;
hotel;hotel;Citihub Hotel;"Wai Mhorock, Abepura, Kota Jayapura, Papua 99225, Wai Mhorock, Kec. Abepura, Kota Jayapura, Papua 99552";"Abepura, Kota Jayapura, Papua";PAPUA;99225;Indonesia;09675180123;;;-26.081.763;1.406.741.417;https://maps.google.com/?cid=0x0:0x5a25068c30daecb0;
hotel;hotel;RedDoorz near Mal Abepura;"Jl. Worut, Vim, Kec. Abepura, Kota Jayapura, Papua 99225";"Vim, Kec. Abepura, Kota Jayapura";PAPUA;99225;Indonesia;0895417300072;;;-2.605.853;1.406.675.198;https://maps.google.com/?cid=0x0:0x9eab273d9acf6758;
hotel;hotel;Hotel Horison Kotaraja;"Jl. Raya Abepura No.80, Wai Mhorock, Kec. Abepura, Kota Jayapura, Papua 99221";"Wai Mhorock, Kec. Abepura, Kota Jayapura";PAPUA;99221;Indonesia;;;;-26.004.891;140.676.497;https://maps.google.com/?cid=0x0:0x928b6846e61f91de;
hotel;hotel;Hotel Grand Talent Abepura;"9MV9+2QG, Jl. Kotaraja Grand, Wai Mhorock, Kec. Abepura, Kota Jayapura, Papua 99225";"Jl. Kotaraja Grand, Wai Mhorock, Kec. Abepura, Kota Jayapura";PAPUA;99225;Indonesia;;;;-26.074.405;1.406.694.657;https://maps.google.com/?cid=0x0:0x589d02bf475f9068;
hotel;hotel;Pantai Base-G;"Tj. Ria, Kec. Jayapura Utara, Kota Jayapura, Papua";"Kota Jayapura, Papua";PAPUA;;Indonesia;;;;-25.174.272;1.407.397.204;https://maps.google.com/?cid=0x0:0x9c239c300165aea7;
hotel;hotel;N/A;;;PAPUA;;Indonesia;;;;;;https://maps.google.com/?cid=0x0:0xa7f56ca71b96b9f2%7C/g/11jfl3xp3h%7Cen-ID;
hotel;hotel;Super OYO 3354 Homia Residence;"Pertamina, Jl. Ceger Raya, Pd. Karya, Kec. Pd. Aren, Kota Tangerang Selatan, Banten 15225";"Jl. Ceger Raya, Pd. Karya, Kec. Pd. Aren, Kota Tangerang Selatan";PAPUA;15225;Indonesia;02129707601;;;-6.261.008;106.739.139;https://maps.google.com/?cid=0x0:0xa7f56ca71b96b9f2;
hotel;hotel;RedDoorz near STAN;"Jl. Ceger Raya No.51C, Pd. Karya, Kec. Pd. Aren, Kota Tangerang Selatan, Banten 15223";"Pd. Karya, Kec. Pd. Aren, Kota Tangerang Selatan";PAPUA;15223;Indonesia;0895417300072;;;-62.606.497;1.067.394.857;https://maps.google.com/?cid=0x0:0x6ee199b87cb0784b;
hotel;hotel;Mutiara Kostel@ Bintaro;"Jl. Utama I No.67, kavling deplu. Mutiara Residence V no 6. Pd. Karya Pd Aren, Pondok Karya, Larangan, Banten 15155";"kavling deplu. Mutiara Residence V no 6. Pd. Karya Pd Aren, Pondok Karya, Larangan";PAPUA;15155;Indonesia;087788153536;;;-62.543.101;106.741.282;https://maps.google.com/?cid=0x0:0xcc9fe71df0328b06;
hotel;hotel;OYO 4011 58 Guesthouse;"Pd. Karya, Kec. Pd. Aren, Kota Tangerang Selatan, Banten 15225";"Kec. Pd. Aren, Kota Tangerang Selatan";PAPUA;15225;Indonesia;02129707601;;;-62.749.299;1.067.450.924;https://maps.google.com/?cid=0x0:0xd2620891bf2c67c8;
hotel;hotel;New Waigo Hotel;"Jl. Yos. Sudarso, RT./RW/RW.007/08, Kp. Baru, Distrik Sorong, Kota Sorong, Papua Bar. 98411";"RT./RW/RW.007/08, Kp. Baru, Distrik Sorong, Kota Sorong";PAPUA;98411;Indonesia;081148800550;;;-0.8687506;1.312.466.917;https://maps.google.com/?cid=0x0:0x3ea64c8c78b822af;
hotel;Taman bermain;Pantai Tembok Berlin;"46HW+373, Kp. Baru, Distrik Sorong, Kota Sorong, Papua Bar. 98411";"Kp. Baru, Distrik Sorong, Kota Sorong";PAPUA;98411;Indonesia;;;;-0.8723739;1.312.456.856;https://maps.google.com/?cid=0x0:0x5ea7c8af20034304;
hotel;hotel;Wandai;"Sabisa, Distrik Wandai, Kabupaten Intan Jaya, Papua";"Kabupaten Intan Jaya, Papua";PAPUA;;Indonesia;;;;-3.703.004;136.680.496;https://maps.google.com/?cid=0x0:0x987e45212eb83434;
hotel;hotel;Hotel Viona;"Jalan, Argapura, Asei Kecil, Jayapura City, Papua 99351";"Argapura, Asei Kecil, Jayapura City";PAPUA;99351;Indonesia;082198557373;;;-25.590.996;1.407.120.253;https://maps.google.com/?cid=0x0:0x991b43add0b147d8;
hotel;hotel;Hotel Rannu Jaya;"WW6V+7RM, Wamena Kota, Distrik Wamena, Kabupaten Jayawijaya, Papua 99511";"Wamena Kota, Distrik Wamena, Kabupaten Jayawijaya";PAPUA;99511;Indonesia;082195455765;;;-40.892.985;1.389.445.592;https://maps.google.com/?cid=0x0:0xdd25cadd9590097a;
hotel;Hotel;Wanda;"Jl. Nangka 3 Atas, RT.002/RW.003, Jatibening Baru, Kec. Pd. Gede, Kota Bks, Jawa Barat 17412";"RT.002/RW.003, Jatibening Baru, Kec. Pd. Gede, Kota Bks";PAPUA;17412;Indonesia;;;;-62.632.991;1.069.417.052;https://maps.google.com/?cid=0x0:0x139b0c5fea6201b9;
hotel;Hotel;Handono;"Jl. Bintan B No.146, RT.005/RW.010, Jatibening, Kec. Pd. Gede, Kota Bks, Jawa Barat 17412";"RT.005/RW.010, Jatibening, Kec. Pd. Gede, Kota Bks";PAPUA;17412;Indonesia;;;;-62.648.688;1.069.488.729;https://maps.google.com/?cid=0x0:0xd99e1fb63e0a23de;
hotel;hotel;Papua 98784;Papua;Papua;PAPUA;;Indonesia;;;;-32.495.346;1.364.393.054;https://maps.google.com/?cid=0x0:0xd10f2faf319bd4fe;
hotel;hotel;Asana Biak Papua;"Jl. M Yamin No.04, Mandala, Kec. Biak Kota, Kabupaten Biak Numfor, Papua 98111";"Mandala, Kec. Biak Kota, Kabupaten Biak Numfor";PAPUA;98111;Indonesia;08114743111;;;-11.918.619;1.361.049.095;https://maps.google.com/?cid=0x0:0x94321ded15c5a4a3;
hotel;hotel;Intsia Beach Hotel;"Jl. Walter Monginsidi No.7, Fandoi, Kec. Biak Kota, Kabupaten Biak Numfor, Papua 98111";"Fandoi, Kec. Biak Kota, Kabupaten Biak Numfor";PAPUA;98111;Indonesia;098121891;;;-11.862.086;1.360.837.686;https://maps.google.com/?cid=0x0:0x564eb7930861f544;
hotel;hotel;Hotel Rannu Jaya;"WW6V+7RM, Wamena Kota, Distrik Wamena, Kabupaten Jayawijaya, Papua 99511";"Wamena Kota, Distrik Wamena, Kabupaten Jayawijaya";PAPUA;99511;Indonesia;082195455765;;;-40.892.985;1.389.445.592;https://maps.google.com/?cid=0x0:0xdd25cadd9590097a;
hotel;hotel;Hotel Karya Papua;"JGX6+2PM, Jl. R.E. Martadinata Kalinona, Nabarua, Distrik Nabire, Papua 98816";"Jl. R.E. Martadinata Kalinona, Nabarua, Distrik Nabire";PAPUA;98816;Indonesia;082164655697;;;-33.524.082;1.355.118.114;https://maps.google.com/?cid=0x0:0x8196bf4b8aafbb3f;
hotel;hotel;Rimba Papua Hotel;"Jl. Kwamki Narama No. 1, Kwamki, Kec. Mimika Baru, Kabupaten Mimika, Papua 99971";"Kwamki, Kec. Mimika Baru, Kabupaten Mimika";PAPUA;99971;Indonesia;0901494949;;;-45.151.124;136.884.599;https://maps.google.com/?cid=0x0:0xa65056700db32492;
hotel;hotel;Arumbai Hotel;"Jl. Imam Bonjol No.2, Fandoi, Kec. Biak Kota, Kabupaten Biak Numfor, Papua 98111";"Fandoi, Kec. Biak Kota, Kabupaten Biak Numfor";PAPUA;98111;Indonesia;;;;-11.831.962;1.360.817.419;https://maps.google.com/?cid=0x0:0x92f1df543a771343;
hotel;hotel;Agung Hotel;"R36V+MW8, Mandala, Kec. Biak Kota, Kabupaten Biak Numfor, Papua 98111";"Mandala, Kec. Biak Kota, Kabupaten Biak Numfor";PAPUA;98111;Indonesia;;;;-11.883.413;1.360.948.382;https://maps.google.com/?cid=0x0:0x30d4b4e3f34c7a61;
hotel;hotel;HOMESTAY KARAWATU INN;"R39H+HC6, Jl. Dahlia, Burokub, Kec. Biak Kota, Kabupaten Biak Numfor, Papua 98111";"Jl. Dahlia, Burokub, Kec. Biak Kota, Kabupaten Biak Numfor";PAPUA;98111;Indonesia;09812911069;;;-11.810.921;1.360.785.209;https://maps.google.com/?cid=0x0:0xa2c4864ec378cf15;
hotel;hotel;Nirmala Hotel;"Jl. Selat Madura No.13, Fandoi, Kec. Biak Kota, Kabupaten Biak Numfor, Papua 98111";"Fandoi, Kec. Biak Kota, Kabupaten Biak Numfor";PAPUA;98111;Indonesia;098122005;;;-11.832.068;1.360.835.725;https://maps.google.com/?cid=0x0:0x1fa7300a4c006ebd;
hotel;hotel;Hotel Basana Inn;"Jl. Imam Bonjol, Fandoi, Biak, Kabupaten Biak Numfor, Papua 98112";"Fandoi, Biak, Kabupaten Biak Numfor";PAPUA;98112;Indonesia;098122281;;;-11.811.297;1.360.825.355;https://maps.google.com/?cid=0x0:0x1b08ff238ba2abe9;
hotel;hotel;Hotel Mapia;"Jl. Jend. Ahmad Yani No.23, Mandala, Kec. Biak Kota, Kabupaten Biak Numfor, Papua 98111";"Mandala, Kec. Biak Kota, Kabupaten Biak Numfor";PAPUA;98111;Indonesia;098121383;;;-11.848.375;1.360.856.602;https://maps.google.com/?cid=0x0:0x15f6e40202cd7120;
hotel;hotel;Hotel Manna;"Jl. Imam Bonjol, Fandoi, Biak Papua, Kabupaten Biak Numfor, Papua 98112";"Fandoi, Biak Papua, Kabupaten Biak Numfor";PAPUA;98112;Indonesia;098122224;;;-11.808.075;1.360.821.667;https://maps.google.com/?cid=0x0:0x58ba27a7cb3a5bd6;
hotel;hotel;Hotel Of Hasel;"Jl. Esau No.37 Mandala Pulau Biak, Mandala, Kec. Biak Kota, Kabupaten Biak Numfor, Papua 98111";"Mandala, Kec. Biak Kota, Kabupaten Biak Numfor";PAPUA;98111;Indonesia;083119229269;;;-1.180.235;1.360.901.681;https://maps.google.com/?cid=0x0:0x65d093f8a4282080;
hotel;Museum;Objek Wisata Goa Jepang Biak Papua;"Kampung Wisata, Binsari, Jl. Goa Jepang, Kec. Samofa, Kabupaten Biak Numfor, Papua 98118";"Binsari, Jl. Goa Jepang, Kec. Samofa, Kabupaten Biak Numfor";PAPUA;98118;Indonesia;;;;-11.778.447;1.361.049.498;https://maps.google.com/?cid=0x0:0x93df93a4aad95a9b;
hotel;hotel;Distrik Agisiga;"Kabupaten Intan Jaya, Papua";"Kabupaten Intan Jaya, Papua";PAPUA;;Indonesia;;;;-37.319.536;1.370.926.922;https://maps.google.com/?cid=0x0:0xd5984dfd8c3b468d;
hotel;hotel;Hotel Grand Papua Sentani;"Jalan Sosial No.388, Hinekombe, Kec. Sentani, Kabupaten Jayapura, Papua 99352";"Hinekombe, Kec. Sentani, Kabupaten Jayapura";PAPUA;99352;Indonesia;08114827899;;;-2.557.344;1.404.958.181;https://maps.google.com/?cid=0x0:0x9afaf186d23bb377;
hotel;hotel;Hotel Sahid Papua;"Jl. Klp. 2 No.18, Entrop, Distrik Jayapura Selatan, Kota Jayapura, Papua 99221";"Entrop, Distrik Jayapura Selatan, Kota Jayapura";PAPUA;99221;Indonesia;0811481167;;;-25.661.461;1.406.996.539;https://maps.google.com/?cid=0x0:0x9c8a2fd141b3aa33;
hotel;hotel;Grand ABE Hotel Jayapura;"Jl. Raya Abepura, Kotabaru, Kota Baru, Kec. Abepura, Kota Jayapura, Papua 99351";"Kotabaru, Kota Baru, Kec. Abepura, Kota Jayapura";PAPUA;99351;Indonesia;08114825123;;;-26.106.174;1.406.659.805;https://maps.google.com/?cid=0x0:0xadc84ceab536f6a;
hotel;hotel;N/A;;;PAPUA;;Indonesia;;;;;;https://maps.google.com/?cid=0x0:0xadc84ceab536f6a%7C/g/11btn18jtk%7Cen-ID;
hotel;hotel;Asana Biak Papua;"Jl. M Yamin No.04, Mandala, Kec. Biak Kota, Kabupaten Biak Numfor, Papua 98111";"Mandala, Kec. Biak Kota, Kabupaten Biak Numfor";PAPUA;98111;Indonesia;08114743111;;;-11.918.619;1.361.049.095;https://maps.google.com/?cid=0x0:0x94321ded15c5a4a3;
hotel;hotel;Horison Inn Relat Jayapura;"Jl. Pantai Klp. No.21 - 23, Argapura, Distrik Jayapura Selatan, Kota Jayapura, Papua";"Kota Jayapura, Papua";PAPUA;;Indonesia;09675160779;;;-25.537.101;1.407.148.929;https://maps.google.com/?cid=0x0:0xb98fc1bbb5c5c494;
hotel;hotel;SIP Azana Hotel Jayapura;"Jl. Ahmad Yani No.50, Gurabesi, Kec. Jayapura Utara, Kota Jayapura, Papua 99221";"Gurabesi, Kec. Jayapura Utara, Kota Jayapura";PAPUA;99221;Indonesia;082197886688;;;-25.436.754;1.407.014.241;https://maps.google.com/?cid=0x0:0xc311c59465e76f9e;
hotel;hotel;Galaxy Hotel Abepura;"Kp. Waena, Kec. Heram, Kota Jayapura, Papua 99351";"Kec. Heram, Kota Jayapura";PAPUA;99351;Indonesia;081150500147;;;-25.944.039;1.406.254.198;https://maps.google.com/?cid=0x0:0xf9951793f247fc13;
hotel;hotel;Penginapan Paparisa Amungsa;"Koperapoka, Kec. Mimika Baru, Kabupaten Mimika, Papua 99971";"Kec. Mimika Baru, Kabupaten Mimika";PAPUA;99971;Indonesia;081343206383;;;-45.385.795;1.368.755.667;https://maps.google.com/?cid=0x0:0xfd07a1d4446c8f23;
hotel;hotel;HOTEL AINA;"CGM6+R9J, Jl. Raya Kemiri, Sentani Kota, Kec. Sentani, Kabupaten Jayapura, Papua";"Kabupaten Jayapura, Papua";PAPUA;;Indonesia;085243960057;;;-25.654.218;1.405.108.844;https://maps.google.com/?cid=0x0:0xe10f3eb6fe778f83;
hotel;hotel;Frontone Green Boutique Hotel;"Jl. Gerilyawan Jl. Bosnik BTN Kamkey No.111, Kamkey, Kec. Abepura, Kota Jayapura, Papua 99351";"Kamkey, Kec. Abepura, Kota Jayapura";PAPUA;99351;Indonesia;0967585010;;;-26.140.146;1.406.711.964;https://maps.google.com/?cid=0x0:0x4a570626468e5935;
hotel;hotel;N/A;;;PAPUA;;Indonesia;;;;;;https://maps.google.com/?cid=0x0:0x4a570626468e5935%7C/g/11qg28n36t%7Cen-ID;
hotel;hotel;Rimba Papua Hotel;"Jl. Kwamki Narama No. 1, Kwamki, Kec. Mimika Baru, Kabupaten Mimika, Papua 99971";"Kwamki, Kec. Mimika Baru, Kabupaten Mimika";PAPUA;99971;Indonesia;0901494949;;;-45.151.124;136.884.599;https://maps.google.com/?cid=0x0:0xa65056700db32492;
hotel;hotel;Hotel Greend Idaman;"Persatuan, Kec. Mandobo, Kabupaten Boven Digoel, Papua 99663";"Kec. Mandobo, Kabupaten Boven Digoel";PAPUA;99663;Indonesia;082229338883;;;-61.143.736;1.403.221.803;https://maps.google.com/?cid=0x0:0x7e63bcf9bd853452;
hotel;Hotel;Hotel Intsia;"CVQQ+499, Jl. Yos Sudarso, Inauga, Kec. Mimika Baru, Kabupaten Mimika, Papua 99971";"Jl. Yos Sudarso, Inauga, Kec. Mimika Baru, Kabupaten Mimika";PAPUA;99971;Indonesia;0901321007;;;-4.562.219;1.368.884.747;https://maps.google.com/?cid=0x0:0x654d96a7906f6c7e;
hotel;hotel;Hotel Timika;"Jl. Hasanuddin No.9, Nawaripi, Kec. Mimika Baru, Kabupaten Mimika, Papua 99971";"Nawaripi, Kec. Mimika Baru, Kabupaten Mimika";PAPUA;99971;Indonesia;;;;-4.566.916;1.368.828.964;https://maps.google.com/?cid=0x0:0x51b78f3be0c597f8;
hotel;hotel;Papua 98768;"Kabupaten Intan Jaya, Papua";"Kabupaten Intan Jaya, Papua";PAPUA;;Indonesia;;;;-36.382.021;1.369.028.375;https://maps.google.com/?cid=0x0:0x902010d7989d7c6c;
hotel;hotel;Hotel Sahid Papua;"Jl. Klp. 2 No.18, Entrop, Distrik Jayapura Selatan, Kota Jayapura, Papua 99221";"Entrop, Distrik Jayapura Selatan, Kota Jayapura";PAPUA;99221;Indonesia;0811481167;;;-25.661.461;1.406.996.539;https://maps.google.com/?cid=0x0:0x9c8a2fd141b3aa33;
hotel;hotel;N/A;;;PAPUA;;Indonesia;;;;;;https://maps.google.com/?cid=0x0:0x9c8a2fd141b3aa33%7C/g/11b73kkp76%7Cen-ID;
hotel;hotel;N/A;;;PAPUA;;Indonesia;;;;;;https://maps.google.com/?cid=0x0:0x1a1d78b4fd358a65%7C/g/1tctxpcc%7Cen-ID;
hotel;hotel;SIP Azana Hotel Jayapura;"Jl. Ahmad Yani No.50, Gurabesi, Kec. Jayapura Utara, Kota Jayapura, Papua 99221";"Gurabesi, Kec. Jayapura Utara, Kota Jayapura";PAPUA;99221;Indonesia;082197886688;;;-25.436.754;1.407.014.241;https://maps.google.com/?cid=0x0:0xc311c59465e76f9e;
hotel;hotel;Hotel Karya Papua;"JGX6+2PM, Jl. R.E. Martadinata Kalinona, Nabarua, Distrik Nabire, Papua 98816";"Jl. R.E. Martadinata Kalinona, Nabarua, Distrik Nabire";PAPUA;98816;Indonesia;082164655697;;;-33.524.082;1.355.118.114;https://maps.google.com/?cid=0x0:0x8196bf4b8aafbb3f;
hotel;hotel;Hotel R6;"Jl.Cendrawasih SP2, Papua 99952";"Kabupaten Mimika, Papua";PAPUA;;Indonesia;082245112457;;;-4.538.464;1.368.691.429;https://maps.google.com/?cid=0x0:0xb392d58fbaabfb69;
hotel;hotel;Hotel Dafonsoro;"Jl. Percetakan Negara No.20-24, Gurabesi, Kec. Jayapura Utara, Kota Jayapura, Papua 99221";"Gurabesi, Kec. Jayapura Utara, Kota Jayapura";PAPUA;99221;Indonesia;085788877739;;;-25.406.973;1.407.041.061;https://maps.google.com/?cid=0x0:0xda20a7d826a77577;
hotel;hotel;Tendy Hotel;"Jl. Trikora AA No.112, Wamena Kota, Distrik Wamena, Kabupaten Jayawijaya, Papua 99511";"Wamena Kota, Distrik Wamena, Kabupaten Jayawijaya";PAPUA;99511;Indonesia;096931092;;;-40.976.762;1.389.492.496;https://maps.google.com/?cid=0x0:0xf05ddbb5560071c5;
hotel;hotel;Tahara Hotel;"JL. Kemiri, No. 26, Sentani, Mandala, Kec. Jayapura Utara, Kota Jayapura, Papua";"Kota Jayapura, Papua";PAPUA;;Indonesia;0967591388;;;-2.533;140.717;https://maps.google.com/?cid=0x0:0xd8524eddaaa461a3;
hotel;hotel;Rimba Papua Hotel;"Jl. Kwamki Narama No. 1, Kwamki, Kec. Mimika Baru, Kabupaten Mimika, Papua 99971";"Kwamki, Kec. Mimika Baru, Kabupaten Mimika";PAPUA;99971;Indonesia;0901494949;;;-45.151.124;136.884.599;https://maps.google.com/?cid=0x0:0xa65056700db32492;
hotel;Guest house;Guest House 106;"V34R+4VQ, Tembagapura, Kec. Tembagapura, Kabupaten Mimika, Papua 99967";"Tembagapura, Kec. Tembagapura, Kabupaten Mimika";PAPUA;99967;Indonesia;0901407151;;;-41.446.632;1.370.922.209;https://maps.google.com/?cid=0x0:0xb227b6ed2546aadc;
hotel;Guest house;Guest House 103;"V33R+VWR, Tembagapura, Kec. Tembagapura, Kabupaten Mimika, Papua 99967";"Tembagapura, Kec. Tembagapura, Kabupaten Mimika";PAPUA;99967;Indonesia;085250882818;;;-41.452.702;1.370.922.504;https://maps.google.com/?cid=0x0:0x2ff90c1eaf3677f;
restaurant;restaurant;Papua 98768;"Kabupaten Intan Jaya, Papua";"Kabupaten Intan Jaya, Papua";PAPUA;;Indonesia;;;;-36.382.021;1.369.028.375;https://maps.google.com/?cid=0x0:0x902010d7989d7c6c;
restaurant;Komplek perumahan;RM ADIVA;"725V+GG7, Bilogai, Kec. Sugapa, Kabupaten Intan Jaya, Papua 98768";"Bilogai, Kec. Sugapa, Kabupaten Intan Jaya";PAPUA;98768;Indonesia;085336741888;;;-37.416.944;1.370.437.608;https://maps.google.com/?cid=0x0:0xf7b8bec5b7c12751;
restaurant;restaurant;Warung makan diva;"725V+GG7, Bilogai, Kec. Sugapa, Kabupaten Intan Jaya, Papua 98768";"Bilogai, Kec. Sugapa, Kabupaten Intan Jaya";PAPUA;98768;Indonesia;;;;-37.353.125;1.370.440.625;https://maps.google.com/?cid=0x0:0xc0aada5c761b9bfb;
restaurant;China;Su Er Kao Yu | Gading Serpong;"Ruko Maggiore Square. 1A, Cihuni, Kec. Pagedangan, Kabupaten Tangerang, Banten 15332";"Cihuni, Kec. Pagedangan, Kabupaten Tangerang";PAPUA;15332;Indonesia;081110066915;;;-62.733.573;106.635.385;https://maps.google.com/?cid=0x0:0xa83844e8cdf647e7;
restaurant;Restoran;Grand Serpong Kitchen;"Jl. Raya Serpong Kilometer 7 No.KM.8, Pakulonan, Kec. Serpong Utara, Kota Tangerang Selatan, Banten 15325";"Pakulonan, Kec. Serpong Utara, Kota Tangerang Selatan";PAPUA;15325;Indonesia;02153125595;;;-62.425.851;1.066.479.612;https://maps.google.com/?cid=0x0:0x676c22612a728569;
restaurant;China;Shu Guo Yin Xiang;"Komp THR Lokasari Blok B No, Jl. Raya Mangga Besar No.8, RT.6/RW.2, Tangki, Kec. Taman Sari, Kota Jakarta Barat, Daerah Khusus Ibukota Jakarta 35132";"Jl. Raya Mangga Besar No.8, RT.6/RW.2, Tangki, Kec. Taman Sari, Kota Jakarta Barat";PAPUA;35132;Indonesia;02162308860;;;-61.476.869;1.068.239.152;https://maps.google.com/?cid=0x0:0x16d725112b724a18;
restaurant;Restoran;Su Er Kao Yu | Hublife Jakarta;"Hublife Jakarta, Lantai 1F, Unit 1 - 9, Kota Jakarta Barat, Daerah Khusus Ibukota Jakarta 11470";"Lantai 1F, Unit 1 - 9, Kota Jakarta Barat";PAPUA;11470;Indonesia;082189852558;;;-61.808.182;1.067.913.116;https://maps.google.com/?cid=0x0:0xa5530c8206f4bd92;
restaurant;Hot Pot;Shiga BBQ Hotpot;"Jl. Senayan No.29 8, Rw. Bar., Kec. Kby. Baru, Kota Jakarta Selatan, Daerah Khusus Ibukota Jakarta 12180";"Rw. Bar., Kec. Kby. Baru, Kota Jakarta Selatan";PAPUA;12180;Indonesia;081295357491;;;-62.346.784;1.068.156.244;https://maps.google.com/?cid=0x0:0x9677e6bff4bfba6f;
restaurant;China;Su Er Kao Yu | Mall Kelapa Gading;"Summarecon Mall Kelapa Gading 5, Lt.3, Unit R.08A, Kec. Klp. Gading, Jkt Utara, Daerah Khusus Ibukota Jakarta 14240";"Lt.3, Unit R.08A, Kec. Klp. Gading, Jkt Utara";PAPUA;14240;Indonesia;082159950220;;;-61.569.771;1.069.099.437;https://maps.google.com/?cid=0x0:0x22b8170c629e4010;
restaurant;restaurant;Kec. Sugapa;"Kabupaten Intan Jaya, Papua";"Kabupaten Intan Jaya, Papua";PAPUA;;Indonesia;;;;-37.397.323;1.370.417.997;https://maps.google.com/?cid=0x0:0x484e91d781610f29;
restaurant;restaurant;Warung makan diva;"725V+GG7, Bilogai, Kec. Sugapa, Kabupaten Intan Jaya, Papua 98768";"Bilogai, Kec. Sugapa, Kabupaten Intan Jaya";PAPUA;98768;Indonesia;;;;-37.353.125;1.370.440.625;https://maps.google.com/?cid=0x0:0xc0aada5c761b9bfb;
restaurant;Komplek perumahan;RM ADIVA;"725V+GG7, Bilogai, Kec. Sugapa, Kabupaten Intan Jaya, Papua 98768";"Bilogai, Kec. Sugapa, Kabupaten Intan Jaya";PAPUA;98768;Indonesia;085336741888;;;-37.416.944;1.370.437.608;https://maps.google.com/?cid=0x0:0xf7b8bec5b7c12751;
restaurant;Thailand;Su Er Kao Yu | One Satrio;"One Satrio CBD, Kuningan, Jl. Prof. DR. Satrio No.1 Unit E10 - E11, Kecamatan Setiabudi, Jakarta, Daerah Khusus Ibukota Jakarta 12949";"Kuningan, Jl. Prof. DR. Satrio No.1 Unit E10 - E11, Kecamatan Setiabudi, Jakarta";PAPUA;12949;Indonesia;082131111299;;;-62.256.612;1.068.263.545;https://maps.google.com/?cid=0x0:0x3cd8c1d95bf5fbf1;
restaurant;Kedai Kopi;SUGA Coffee  Kitchen;"Jl. Raya Hankam No.02 Blok B11, RT.004/RW.008, Jatiranggon, Jatisampurna, Bekasi, West Java 17432";"RT.004/RW.008, Jatiranggon, Jatisampurna, Bekasi";PAPUA;17432;Indonesia;085179771184;;;-6.336.964;10.692.341;https://maps.google.com/?cid=0x0:0x67e583bd0dfe972e;
restaurant;China;Su Er Kao Yu | Gading Serpong;"Ruko Maggiore Square. 1A, Cihuni, Kec. Pagedangan, Kabupaten Tangerang, Banten 15332";"Cihuni, Kec. Pagedangan, Kabupaten Tangerang";PAPUA;15332;Indonesia;081110066915;;;-62.733.573;106.635.385;https://maps.google.com/?cid=0x0:0xa83844e8cdf647e7;
restaurant;Restoran;Grand Serpong Kitchen;"Jl. Raya Serpong Kilometer 7 No.KM.8, Pakulonan, Kec. Serpong Utara, Kota Tangerang Selatan, Banten 15325";"Pakulonan, Kec. Serpong Utara, Kota Tangerang Selatan";PAPUA;15325;Indonesia;02153125595;;;-62.425.851;1.066.479.612;https://maps.google.com/?cid=0x0:0x676c22612a728569;
restaurant;Restoran;Su Er Kao Yu | Hublife Jakarta;"Hublife Jakarta, Lantai 1F, Unit 1 - 9, Kota Jakarta Barat, Daerah Khusus Ibukota Jakarta 11470";"Lantai 1F, Unit 1 - 9, Kota Jakarta Barat";PAPUA;11470;Indonesia;082189852558;;;-61.808.182;1.067.913.116;https://maps.google.com/?cid=0x0:0xa5530c8206f4bd92;
restaurant;China;Su Er Kao Yu | Mall Kelapa Gading;"Summarecon Mall Kelapa Gading 5, Lt.3, Unit R.08A, Kec. Klp. Gading, Jkt Utara, Daerah Khusus Ibukota Jakarta 14240";"Lt.3, Unit R.08A, Kec. Klp. Gading, Jkt Utara";PAPUA;14240;Indonesia;082159950220;;;-61.569.771;1.069.099.437;https://maps.google.com/?cid=0x0:0x22b8170c629e4010;
restaurant;restaurant;Papua 98767;"Kabupaten Intan Jaya, Papua";"Kabupaten Intan Jaya, Papua";PAPUA;;Indonesia;;;;-37.788.615;1.367.091.767;https://maps.google.com/?cid=0x0:0xfc7ec60d3a7f14c;
restaurant;Restoran;Noken Cafe by Primo;"V34Q+XXH, Tembagapura, Arwandop, Tembagapura, Kec. Tembagapura, Kabupaten Mimika, Papua 99967";"Tembagapura, Arwandop, Tembagapura, Kec. Tembagapura, Kabupaten Mimika";PAPUA;99967;Indonesia;;;;-41.425.625;1.370.899.844;https://maps.google.com/?cid=0x0:0xaed48ea0d834fa7a;
restaurant;Restoran;Melati Messhall;"V35R+6PC, Arwandop, Kec. Tembagapura, Kabupaten Mimika, Papua 98972";"Arwandop, Kec. Tembagapura, Kabupaten Mimika";PAPUA;98972;Indonesia;;;;-41.419.323;1.370.917.683;https://maps.google.com/?cid=0x0:0xcec4b3671f663e0f;
restaurant;Gedung Apartemen;Coffee Shop Hidden Valley;"R3WX+49M, Arwandop, Kec. Tembagapura, Kabupaten Mimika, Papua 99967";"Arwandop, Kec. Tembagapura, Kabupaten Mimika";PAPUA;99967;Indonesia;0901466406;;;-4.154.668;1.370.984.148;https://maps.google.com/?cid=0x0:0x19897cfa42d33d8a;
restaurant;Rumah Makan;RestoCafe Rumah Laut;"Jl. Koti, Numbai, Distrik Jayapura Selatan, Kota Jayapura, Papua 99222";"Numbai, Distrik Jayapura Selatan, Kota Jayapura";PAPUA;99222;Indonesia;09675160842;;;-25.443.152;1.407.078.561;https://maps.google.com/?cid=0x0:0xa0b850e17d17f09d;
restaurant;Ayam;Warung Makan Embun Hermon;"3C2J+X23, Jl. Raya Madi, Umbutu / Uyubutu / Uwibutu, Paniai Tim., Kabupaten Paniai, Papua 98781";"Jl. Raya Madi, Umbutu / Uyubutu / Uwibutu, Paniai Tim., Kabupaten Paniai";PAPUA;98781;Indonesia;081341529899;;;-39.476.149;1.364.300.432;https://maps.google.com/?cid=0x0:0x125fb7828c04b5aa;
restaurant;Toko;Kios iche;"Kogekotu, Paniai Tim., Kabupaten Paniai, Papua 98711";"Paniai Tim., Kabupaten Paniai";PAPUA;98711;Indonesia;;;;-39.248.571;1.363.808.195;https://maps.google.com/?cid=0x0:0xc16b032b51c1ea7a;
restaurant;Bar;Lupa Lelah Club;"V35Q+3C5, Tembagapura, Arwandop, Tembagapura, Kec. Tembagapura, Kabupaten Mimika, Papua 98972";"Tembagapura, Arwandop, Tembagapura, Kec. Tembagapura, Kabupaten Mimika";PAPUA;98972;Indonesia;0901464294;;;-41.423.686;1.370.886.127;https://maps.google.com/?cid=0x0:0x34b42bf7fb4e9af2;
restaurant;China;KOPS RESTO TPRA;"V34R+QXH, Jl. Tembagapura Raya, Tembagapura, Kec. Tembagapura, Kabupaten Mimika, Papua 99967";"Jl. Tembagapura Raya, Tembagapura, Kec. Tembagapura, Kabupaten Mimika";PAPUA;99967;Indonesia;;;;-4.143.062;1.370.924.871;https://maps.google.com/?cid=0x0:0x6bb2b4db62e6d0f9;
restaurant;Brunch;Wr zhaskya 99;"Enarotali, Paniai Tim., Kabupaten Paniai, Papua";"Kabupaten Paniai, Papua";PAPUA;;Indonesia;081343456417;;;-39.294.063;1.363.783.399;https://maps.google.com/?cid=0x0:0xf81dd6fa6375c5a1;
restaurant;Restoran;New Kenanga Mess Hall;"Tembagapura, Mimika Regency, Papua 98972";Mimika Regency;PAPUA;98972;Indonesia;;;;-41.099.385;1.370.999.715;https://maps.google.com/?cid=0x0:0xc5816325edeb9bea;
restaurant;Korea;Halmeoni Restaurant;"Jl. Kyai Caringin No.26A, Cideng, Kecamatan Gambir, Kota Jakarta Pusat, Daerah Khusus Ibukota Jakarta 10150";"Cideng, Kecamatan Gambir, Kota Jakarta Pusat";PAPUA;10150;Indonesia;081905008888;;;-61.711.098;106.808.821;https://maps.google.com/?cid=0x0:0xdef7fb38672d1d4f;
restaurant;Indonesia;Homey;"Gg. 2 No.500, Kauman, Kec. Klojen, Kota Malang, Jawa Timur 65119";"Kauman, Kec. Klojen, Kota Malang";PAPUA;65119;Indonesia;082231618129;;;-79.833.056;1.126.279.277;https://maps.google.com/?cid=0x0:0xaf1471a78deeffb0;
restaurant;BBQ Korea;Magal Roxy;"Jl. Kyai Caringin No.26a, Cideng, Kecamatan Gambir, Kota Jakarta Pusat, Daerah Khusus Ibukota Jakarta 10160";"Cideng, Kecamatan Gambir, Kota Jakarta Pusat";PAPUA;10160;Indonesia;081256918899;;;-61.711.771;1.068.089.203;https://maps.google.com/?cid=0x0:0xddf7141382084b13;
restaurant;Korea;Halmeoni Restaurant;"Jl. Kyai Caringin No.26A, Cideng, Kecamatan Gambir, Kota Jakarta Pusat, Daerah Khusus Ibukota Jakarta 10150";"Cideng, Kecamatan Gambir, Kota Jakarta Pusat";PAPUA;10150;Indonesia;081905008888;;;-61.711.098;106.808.821;https://maps.google.com/?cid=0x0:0xdef7fb38672d1d4f;
restaurant;Bar;De Hooi;"Plaza II Pondok Indah Blok B4. 31, Jl. Metro Duta Niaga No.Raya, RT.3/RW.14, Pd. Pinang, Kec. Kby. Lama, Kota Jakarta Selatan, Daerah Khusus Ibukota Jakarta 12310";"Jl. Metro Duta Niaga No.Raya, RT.3/RW.14, Pd. Pinang, Kec. Kby. Lama, Kota Jakarta Selatan";PAPUA;12310;Indonesia;0217500742;;;-62.863.864;1.067.808.434;https://maps.google.com/?cid=0x0:0x34478c4cc65f0f8a;
restaurant;Jepang;Hono Yakitori;"Rukan Osaka, Jalan Boulevard Blok OTB-G05, Salembaran Jati, Tangerang, Tangerang Regency, Banten 15214";"Jalan Boulevard Blok OTB-G05, Salembaran Jati, Tangerang, Tangerang Regency";PAPUA;15214;Indonesia;081189901181;;;-60.580.413;1.066.810.404;https://maps.google.com/?cid=0x0:0x2122fd2fe51f3ee9;
restaurant;BBQ Korea;Magal Roxy;"Jl. Kyai Caringin No.26a, Cideng, Kecamatan Gambir, Kota Jakarta Pusat, Daerah Khusus Ibukota Jakarta 10160";"Cideng, Kecamatan Gambir, Kota Jakarta Pusat";PAPUA;10160;Indonesia;081256918899;;;-61.711.771;1.068.089.203;https://maps.google.com/?cid=0x0:0xddf7141382084b13;
restaurant;Dapur Umum;Hojia Kitchen;"Blok SGC, Ruko, South Jl. Goldfinch Raya No.37, Kabupaten Tangerang, Banten 15330";"Ruko, South Jl. Goldfinch Raya No.37, Kabupaten Tangerang";PAPUA;15330;Indonesia;08988606052;;;-6.273.862;1.066.381.818;https://maps.google.com/?cid=0x0:0xa4e8f166b936e433;
restaurant;Indonesia;1HomeResto by Amasa (new!);"Cluster Windsor, Blk. O10 No.11, Cibubur, Kec. Gn. Putri, Kabupaten Bogor, Jawa Barat 16968";"Blk. O10 No.11, Cibubur, Kec. Gn. Putri, Kabupaten Bogor";PAPUA;16968;Indonesia;081908200796;;;-63.631.168;1.069.627.793;https://maps.google.com/?cid=0x0:0x574c4566d6559572;
restaurant;Padang;Resto Yougwa Danau Sentani;"Jl. Batu Ceper No.73 15, RT.15/RW.1, Kb. Klp., Kecamatan Gambir, Kota Jakarta Pusat, Daerah Khusus Ibukota Jakarta 10120";"RT.15/RW.1, Kb. Klp., Kecamatan Gambir, Kota Jakarta Pusat";PAPUA;10120;Indonesia;08119622272;;;-6.162.043;1.068.243.928;https://maps.google.com/?cid=0x0:0xd6689d47fce71c89;
restaurant;Padang;Yoga Sentani Rumah Makan;"Jl. Boulevard Raya No.2 9 2, RT.5/RW.9, Penjaringan, Kec. Penjaringan, Jkt Utara, Daerah Khusus Ibukota Jakarta 14440";"RT.5/RW.9, Penjaringan, Kec. Penjaringan, Jkt Utara";PAPUA;14440;Indonesia;0214530419;;;-61.302.159;1.068.038.221;https://maps.google.com/?cid=0x0:0x157679ce2abceaae;
restaurant;Manado;WARUNG MAKAN BU RUTH (PAPUA);"Jl. Garuda I No.5-6, Gn. Sahari Sel., Kec. Kemayoran, Kota Jakarta Pusat, Daerah Khusus Ibukota Jakarta 10610";"Gn. Sahari Sel., Kec. Kemayoran, Kota Jakarta Pusat";PAPUA;10610;Indonesia;;;;-61.600.159;1.068.500.353;https://maps.google.com/?cid=0x0:0xaa797e74d74c749b;
restaurant;Pangsit;Hwamei Chinese Restaurant @Aviary Park;"Jl. Bintaro Creative District No.15, Pd. Ranji, Kec. Ciputat Tim., Kota Tangerang Selatan, Banten 15224";"Pd. Ranji, Kec. Ciputat Tim., Kota Tangerang Selatan";PAPUA;15224;Indonesia;081322555199;;;-62.767.027;1.067.405.236;https://maps.google.com/?cid=0x0:0x3b482b5798be2229;
restaurant;Indonesia;Yougwa Danau Sentani;"Senayan Park Mall Lantai LG #20-25, Jl. Gerbang Pemuda No.3, RT.1/RW.3, Gelora, Kecamatan Tanah Abang, Kota Jakarta Pusat, Daerah Khusus Ibukota Jakarta 10270";"Jl. Gerbang Pemuda No.3, RT.1/RW.3, Gelora, Kecamatan Tanah Abang, Kota Jakarta Pusat";PAPUA;10270;Indonesia;02129633388;;;-62.122.871;1.068.053.997;https://maps.google.com/?cid=0x0:0x25579f89f3dead39;
restaurant;Kafe;Satu Meja;"Jl. Tj. Duren Utara 4 No.464 11, RT.11/RW.3, Tj. Duren Utara, Kec. Grogol petamburan, Kota Jakarta Barat, Daerah Khusus Ibukota Jakarta 11470";"RT.11/RW.3, Tj. Duren Utara, Kec. Grogol petamburan, Kota Jakarta Barat";PAPUA;11470;Indonesia;081234569884;;;-61.702.274;1.067.829.131;https://maps.google.com/?cid=0x0:0xc5e199a8150ee887;
restaurant;Restoran;Kayu Menjangan;"Jl. Menjangan Raya, Pd. Ranji, Kec. Ciputat Tim., Kota Tangerang Selatan, Banten";"Kota Tangerang Selatan, Banten";PAPUA;;Indonesia;02129510666;;;-62.929.866;1.067.362.009;https://maps.google.com/?cid=0x0:0x7232c41f028682a0;
restaurant;China;Ta Wan - Central Park;"Central Park, Letjen S. Parman No.Kav.28 Lantai 3 Unit 203, Tj. Duren Sel., Kec. Grogol petamburan, Kota Jakarta Barat, Daerah Khusus Ibukota Jakarta 11470";"Letjen S. Parman No.Kav.28 Lantai 3 Unit 203, Tj. Duren Sel., Kec. Grogol petamburan, Kota Jakarta Barat";PAPUA;11470;Indonesia;02129200486;;;-61.780.423;1.067.903.093;https://maps.google.com/?cid=0x0:0x3c36cd8cef773f32;
restaurant;Steak;Wanda's Club Bekasi;"Jl. Grand Wisata No.39, Lambangsari, Kec. Tambun Sel., Kota Bks, Jawa Barat 17510";"Lambangsari, Kec. Tambun Sel., Kota Bks";PAPUA;17510;Indonesia;;;;-62.847.025;1.070.425.687;https://maps.google.com/?cid=0x0:0xa83bd918c8a2339f;
restaurant;Rumah Makan;Rumah Makan Sendok Garpu Jayapura;"Jl. Raya Abepura-Kotaraja Kota Baru, Wai Mhorock, Kec. Abepura, Kota Jayapura, Papua 99225";"Wai Mhorock, Kec. Abepura, Kota Jayapura";PAPUA;99225;Indonesia;082310000123;;;-26.057.136;1.406.694.308;https://maps.google.com/?cid=0x0:0x9b347169a4f00047;
restaurant;Restoran;Cobek Bakar Jayapura;"Jl. Jeruk Nipis, Kota Raja, Kec. Abepura, Kota Jayapura, Papua 99225";"Kota Raja, Kec. Abepura, Kota Jayapura";PAPUA;99225;Indonesia;082314494684;;;-25.918.465;1.406.752.867;https://maps.google.com/?cid=0x0:0x24939d278ae75de5;
restaurant;Restoran;Djoeragan Dapur Resto and Cafe;"Engros, Kec. Abepura, Kota Jayapura, Papua";"Kota Jayapura, Papua";PAPUA;;Indonesia;081292006323;;;-25.999.813;1.407.147.104;https://maps.google.com/?cid=0x0:0xb8853f9fee2cdbc;
restaurant;Restoran;Restaurant Yougwa;"CJ63+H23, Jl. Raya Abepura - Sentani, Asei Kecil, Kec. Sentani Tim., Kabupaten Jayapura, Papua 99351";"Jl. Raya Abepura - Sentani, Asei Kecil, Kec. Sentani Tim., Kabupaten Jayapura";PAPUA;99351;Indonesia;08114801448;;;-25.886.245;140.602.559;https://maps.google.com/?cid=0x0:0x65e60fc66014e79c;
restaurant;Restoran;Dapur Papua Resto (tag by EnCHy);"CH94+3PC, Jl. Raya Airport Sentani, Nendali, Kec. Sentani Tim., Kabupaten Jayapura, Papua 99359";"Jl. Raya Airport Sentani, Nendali, Kec. Sentani Tim., Kabupaten Jayapura";PAPUA;99359;Indonesia;;;;-25.823.105;140.556.775;https://maps.google.com/?cid=0x0:0x31316751d4c3a979;
restaurant;Indonesia;Rumah Makan Terapung;"CJ53+4G6, RW.Lake, Asei Kecil, Sentani Timur, Jayapura Regency, Papua 99351";"RW.Lake, Asei Kecil, Sentani Timur, Jayapura Regency";PAPUA;99351;Indonesia;081344792747;;;-25.922.232;1.406.037.785;https://maps.google.com/?cid=0x0:0x92aa0340bfd095e5;
restaurant;Nasi;Yuna Roma Wiyah;"CGJ7+9X2, Sentani Kota, Kec. Sentani, Kabupaten Jayapura, Papua 99359";"Sentani Kota, Kec. Sentani, Kabupaten Jayapura";PAPUA;99359;Indonesia;081247030845;;;-25.691.188;1.405.149.012;https://maps.google.com/?cid=0x0:0x2a3bfda5f025fc83;
restaurant;restaurant;N/A;;;PAPUA;;Indonesia;;;;;;https://maps.google.com/?cid=0x0:0x65e60fc66014e79cu0026onu003dMujair+Goreng+Ricau0026midu003d/g/11bywk_6w9;
restaurant;restaurant;N/A;;;PAPUA;;Indonesia;;;;;;https://maps.google.com/?cid=0x0:0x65e60fc66014e79cu0026onu003dIkan+Kuah+Kuningu0026midu003d/g/11bywk_6w9;
restaurant;restaurant;Distrik Agisiga;"Kabupaten Intan Jaya, Papua";"Kabupaten Intan Jaya, Papua";PAPUA;;Indonesia;;;;-37.319.536;1.370.926.922;https://maps.google.com/?cid=0x0:0xd5984dfd8c3b468d;
restaurant;Komplek perumahan;RM ADIVA;"725V+GG7, Bilogai, Kec. Sugapa, Kabupaten Intan Jaya, Papua 98768";"Bilogai, Kec. Sugapa, Kabupaten Intan Jaya";PAPUA;98768;Indonesia;085336741888;;;-37.416.944;1.370.437.608;https://maps.google.com/?cid=0x0:0xf7b8bec5b7c12751;
restaurant;restaurant;Warung makan diva;"725V+GG7, Bilogai, Kec. Sugapa, Kabupaten Intan Jaya, Papua 98768";"Bilogai, Kec. Sugapa, Kabupaten Intan Jaya";PAPUA;98768;Indonesia;;;;-37.353.125;1.370.440.625;https://maps.google.com/?cid=0x0:0xc0aada5c761b9bfb;
restaurant;restaurant;Papua 98768;"Kabupaten Intan Jaya, Papua";"Kabupaten Intan Jaya, Papua";PAPUA;;Indonesia;;;;-36.382.021;1.369.028.375;https://maps.google.com/?cid=0x0:0x902010d7989d7c6c;
restaurant;Komplek perumahan;RM ADIVA;"725V+GG7, Bilogai, Kec. Sugapa, Kabupaten Intan Jaya, Papua 98768";"Bilogai, Kec. Sugapa, Kabupaten Intan Jaya";PAPUA;98768;Indonesia;085336741888;;;-37.416.944;1.370.437.608;https://maps.google.com/?cid=0x0:0xf7b8bec5b7c12751;
restaurant;restaurant;Warung makan diva;"725V+GG7, Bilogai, Kec. Sugapa, Kabupaten Intan Jaya, Papua 98768";"Bilogai, Kec. Sugapa, Kabupaten Intan Jaya";PAPUA;98768;Indonesia;;;;-37.353.125;1.370.440.625;https://maps.google.com/?cid=0x0:0xc0aada5c761b9bfb;
cafe;cafe;Papua 98768;"Kabupaten Intan Jaya, Papua";"Kabupaten Intan Jaya, Papua";PAPUA;;Indonesia;;;;-36.382.021;1.369.028.375;https://maps.google.com/?cid=0x0:0x902010d7989d7c6c;
cafe;Komplek perumahan;RM ADIVA;"725V+GG7, Bilogai, Kec. Sugapa, Kabupaten Intan Jaya, Papua 98768";"Bilogai, Kec. Sugapa, Kabupaten Intan Jaya";PAPUA;98768;Indonesia;085336741888;;;-37.416.944;1.370.437.608;https://maps.google.com/?cid=0x0:0xf7b8bec5b7c12751;
cafe;cafe;Warung makan diva;"725V+GG7, Bilogai, Kec. Sugapa, Kabupaten Intan Jaya, Papua 98768";"Bilogai, Kec. Sugapa, Kabupaten Intan Jaya";PAPUA;98768;Indonesia;;;;-37.353.125;1.370.440.625;https://maps.google.com/?cid=0x0:0xc0aada5c761b9bfb;
cafe;Kafe;Suge Coffee  Eatery;"Bintaro Sector 1, Jl. Bintaro Tengah No.48, Bintaro, Kec. Pesanggrahan, Kota Jakarta Selatan, Daerah Khusus Ibukota Jakarta 12330";"Jl. Bintaro Tengah No.48, Bintaro, Kec. Pesanggrahan, Kota Jakarta Selatan";PAPUA;12330;Indonesia;;;;-62.725.159;1.067.530.394;https://maps.google.com/?cid=0x0:0x64c8e6c2420f717c;
cafe;Dapur Umum;Sugab;"Jl. Cipinang Jagal No.22 2, RT.2/RW.16, Cipinang, Kec. Pulo Gadung, Kota Jakarta Timur, Daerah Khusus Ibukota Jakarta 13240";"RT.2/RW.16, Cipinang, Kec. Pulo Gadung, Kota Jakarta Timur";PAPUA;13240;Indonesia;081327284916;;;-62.124.888;106.895.013;https://maps.google.com/?cid=0x0:0xc283897aec0bdb2f;
cafe;Kafe;Warkop Sugab;"Jl. Kp. Bali X No.26 7, RT.8/RW.9, Kp. Bali, Kecamatan Tanah Abang, Kota Jakarta Pusat, Daerah Khusus Ibukota Jakarta 10250";"RT.8/RW.9, Kp. Bali, Kecamatan Tanah Abang, Kota Jakarta Pusat";PAPUA;10250;Indonesia;081282186021;;;-61.852.789;1.068.198.893;https://maps.google.com/?cid=0x0:0x9e3cdd3fa52fbde1;
cafe;cafe;Sugapa coffe;"MPHF+HW8, Serua Indah, Kec. Ciputat, Kota Tangerang Selatan, Banten 15414";"Serua Indah, Kec. Ciputat, Kota Tangerang Selatan";PAPUA;15414;Indonesia;;;;-63.210.772;106.724.818;https://maps.google.com/?cid=0x0:0x8df1dac0ae839a9e;
cafe;cafe;Kec. Sugapa;"Kabupaten Intan Jaya, Papua";"Kabupaten Intan Jaya, Papua";PAPUA;;Indonesia;;;;-37.397.323;1.370.417.997;https://maps.google.com/?cid=0x0:0x484e91d781610f29;
cafe;Komplek perumahan;RM ADIVA;"725V+GG7, Bilogai, Kec. Sugapa, Kabupaten Intan Jaya, Papua 98768";"Bilogai, Kec. Sugapa, Kabupaten Intan Jaya";PAPUA;98768;Indonesia;085336741888;;;-37.416.944;1.370.437.608;https://maps.google.com/?cid=0x0:0xf7b8bec5b7c12751;
cafe;cafe;Warung makan diva;"725V+GG7, Bilogai, Kec. Sugapa, Kabupaten Intan Jaya, Papua 98768";"Bilogai, Kec. Sugapa, Kabupaten Intan Jaya";PAPUA;98768;Indonesia;;;;-37.353.125;1.370.440.625;https://maps.google.com/?cid=0x0:0xc0aada5c761b9bfb;
cafe;Dapur Umum;Sugab;"Jl. Cipinang Jagal No.22 2, RT.2/RW.16, Cipinang, Kec. Pulo Gadung, Kota Jakarta Timur, Daerah Khusus Ibukota Jakarta 13240";"RT.2/RW.16, Cipinang, Kec. Pulo Gadung, Kota Jakarta Timur";PAPUA;13240;Indonesia;081327284916;;;-62.124.888;106.895.013;https://maps.google.com/?cid=0x0:0xc283897aec0bdb2f;
cafe;cafe;Sugapa coffe;"MPHF+HW8, Serua Indah, Kec. Ciputat, Kota Tangerang Selatan, Banten 15414";"Serua Indah, Kec. Ciputat, Kota Tangerang Selatan";PAPUA;15414;Indonesia;;;;-63.210.772;106.724.818;https://maps.google.com/?cid=0x0:0x8df1dac0ae839a9e;
cafe;cafe;Papua 98767;"Kabupaten Intan Jaya, Papua";"Kabupaten Intan Jaya, Papua";PAPUA;;Indonesia;;;;-37.788.615;1.367.091.767;https://maps.google.com/?cid=0x0:0xfc7ec60d3a7f14c;
cafe;cafe;Houm Coffee;"Jl. Dharmawangsa VIII No.24, RT.5/RW.3, Pulo, Kec. Kby. Baru, Kota Jakarta Selatan, Daerah Khusus Ibukota Jakarta 12160";"RT.5/RW.3, Pulo, Kec. Kby. Baru, Kota Jakarta Selatan";PAPUA;12160;Indonesia;081385995503;;;-62.532.689;1.068.073.984;https://maps.google.com/?cid=0x0:0x621d4cba3f55125c;
cafe;Gedung Apartemen;Coffee Shop Hidden Valley;"R3WX+49M, Arwandop, Kec. Tembagapura, Kabupaten Mimika, Papua 99967";"Arwandop, Kec. Tembagapura, Kabupaten Mimika";PAPUA;99967;Indonesia;0901466406;;;-4.154.668;1.370.984.148;https://maps.google.com/?cid=0x0:0x19897cfa42d33d8a;
cafe;Mesin Sangrai Kopi;Highland Roastery;"Jl. Yoka Pantai, Yoka, Kec. Heram, Kota Jayapura, Papua 99351";"Yoka, Kec. Heram, Kota Jayapura";PAPUA;99351;Indonesia;082199253560;;;-26.006.245;1.406.325.081;https://maps.google.com/?cid=0x0:0x351b1a484bbe3165;
cafe;Kafe;Saanjh Cafe;"CJ2G+C7W, Jl. Gelanggang Remaja, Waena, Kec. Heram, Kota Jayapura, Papua 99351";"Jl. Gelanggang Remaja, Waena, Kec. Heram, Kota Jayapura";PAPUA;99351;Indonesia;;;;-25.988.941;1.406.256.974;https://maps.google.com/?cid=0x0:0xf472b389c2309050;
cafe;Sarapan;Koya Coffe;"39CH+68P, Enarotali, Paniai Tim., Kabupaten Paniai, Papua";"Kabupaten Paniai, Papua";PAPUA;;Indonesia;081270421195;;;-39.294.125;1.363.783.403;https://maps.google.com/?cid=0x0:0x88c352bf7637bbd;
cafe;Kedai Kopi;The Honai Coffee;"Jl. Enggros, Tobati, Titik, Temu, Hwani, Kota Jayapura, Papua 22990";"Tobati, Titik, Temu, Hwani, Kota Jayapura";PAPUA;22990;Indonesia;085248169269;;;-25.986.502;1.407.135.633;https://maps.google.com/?cid=0x0:0xfa79a8e828e6f644;
cafe;Produsen;SEMERU GROUP (wifi);"Unnamed Road, Awabutu, Paniai Tim., Kabupaten Paniai, Papua 98726";"Awabutu, Paniai Tim., Kabupaten Paniai";PAPUA;98726;Indonesia;085235399517;;;-3.928.367;1.363.785.859;https://maps.google.com/?cid=0x0:0x64a880d0958b0284;
cafe;Toko;Kios iche;"Kogekotu, Paniai Tim., Kabupaten Paniai, Papua 98711";"Paniai Tim., Kabupaten Paniai";PAPUA;98711;Indonesia;;;;-39.248.571;1.363.808.195;https://maps.google.com/?cid=0x0:0xc16b032b51c1ea7a;
cafe;Kedai Kopi;Zagena Cafe;"3C4H+FQX, Jl. Raya Madi, Umbutu / Uyubutu / Uwibutu, Paniai Tim., Kabupaten Paniai, Papua 98781";"Jl. Raya Madi, Umbutu / Uyubutu / Uwibutu, Paniai Tim., Kabupaten Paniai";PAPUA;98781;Indonesia;;;;-39.438.886;1.364.296.684;https://maps.google.com/?cid=0x0:0xfb18ee9bb02c050d;
cafe;Kedai Kopi;Maxx Coffee Tembagapura;"Tembagapura, Kec. Tembagapura, Kabupaten Mimika, Papua 98972";"Kec. Tembagapura, Kabupaten Mimika";PAPUA;98972;Indonesia;;;;-41.424.586;1.370.899.319;https://maps.google.com/?cid=0x0:0x9ef773c4f6fba9d3;
cafe;Kedai Kopi;Stev MEE OFFICIAL;"Steven kayame, Panibagata, Kebo, Kabupaten Paniai, Papua 67890";"Panibagata, Kebo, Kabupaten Paniai";PAPUA;67890;Indonesia;082297525998;;;-37.876.441;1.363.624.686;https://maps.google.com/?cid=0x0:0x9aae32ed953be1e4;
cafe;cafe;Honai Cafe;"V4R2+634, Arwandop, Tembagapura, Mimika Regency, Papua";"Kabupaten Mimika, Papua";PAPUA;;Indonesia;;;;-41.094.875;1.371.002.031;https://maps.google.com/?cid=0x0:0x5db89decef0110e2;
cafe;Kafe;Honai cafe;"CMWQ+QFP, Jl. Cenderawasih, Kota Baru, Kec. Abepura, Kota Jayapura, Papua 99351";"Jl. Cenderawasih, Kota Baru, Kec. Abepura, Kota Jayapura";PAPUA;99351;Indonesia;;;;-2.553.035;1.406.887.116;https://maps.google.com/?cid=0x0:0x3f7bfb878ede4056;
cafe;Kedai Kopi;Homey Coffee ?;"Jl. Tekun, Jl. Komp. Tni AL Jl. Kodamar No.22, Klp. Gading Bar., Jkt Utara, Daerah Khusus Ibukota Jakarta 14240";"Jl. Komp. Tni AL Jl. Kodamar No.22, Klp. Gading Bar., Jkt Utara";PAPUA;14240;Indonesia;08388833997;;;-6.165.353;106.882.206;https://maps.google.com/?cid=0x0:0x83f822e361b5bd91;
cafe;Kedai Kopi;Hime no coffee;"Jl. Peta Barat, Kalideres, Kec. Kalideres, Kota Jakarta Barat, Daerah Khusus Ibukota Jakarta 11840";"Kalideres, Kec. Kalideres, Kota Jakarta Barat";PAPUA;11840;Indonesia;081317703715;;;-61.410.694;1.066.928.587;https://maps.google.com/?cid=0x0:0xe11d6a02f66c7c95;
cafe;Studio Yoga;Houm Yoga;"Jl. Dharmawangsa VIII No.24, Pulo, Kec. Kby. Baru, Jakarta, Daerah Khusus Ibukota Jakarta 12160";"Pulo, Kec. Kby. Baru, Jakarta";PAPUA;12160;Indonesia;081315000829;;;-62.532.689;1.068.073.984;https://maps.google.com/?cid=0x0:0xb00f9b7777ce6abe;
cafe;cafe;Cafee Hom;"Komplek walikota, Jl bulbul, Sukapura, Cilincing, North Jakarta City, Jakarta";"Jkt Utara, Daerah Khusus Ibukota Jakarta";PAPUA;;Indonesia;;;;-61.531.423;1.069.219.627;https://maps.google.com/?cid=0x0:0xed6bf0b513b3dc94;
cafe;cafe;Papua 98769;Papua;Papua;PAPUA;;Indonesia;;;;-34.531.316;1.363.240.951;https://maps.google.com/?cid=0x0:0xd28ed8bf27ec9c6b;
cafe;cafe;Houm Coffee;"Jl. Dharmawangsa VIII No.24, RT.5/RW.3, Pulo, Kec. Kby. Baru, Kota Jakarta Selatan, Daerah Khusus Ibukota Jakarta 12160";"RT.5/RW.3, Pulo, Kec. Kby. Baru, Kota Jakarta Selatan";PAPUA;12160;Indonesia;081385995503;;;-62.532.689;1.068.073.984;https://maps.google.com/?cid=0x0:0x621d4cba3f55125c;
cafe;Warnet;HyperMedia;"Kilo Meter 95, Epomani, Siriwo, Kabupaten Nabire, Papua";"Kabupaten Nabire, Papua";PAPUA;;Indonesia;;;;-33.800.854;1.360.944.845;https://maps.google.com/?cid=0x0:0xc50d788989c98c18;
cafe;Kedai Kopi;The Honai Coffee;"Jl. Enggros, Tobati, Titik, Temu, Hwani, Kota Jayapura, Papua 22990";"Tobati, Titik, Temu, Hwani, Kota Jayapura";PAPUA;22990;Indonesia;085248169269;;;-25.986.502;1.407.135.633;https://maps.google.com/?cid=0x0:0xfa79a8e828e6f644;
cafe;Studio Yoga;Houm Yoga;"Jl. Dharmawangsa VIII No.24, Pulo, Kec. Kby. Baru, Jakarta, Daerah Khusus Ibukota Jakarta 12160";"Pulo, Kec. Kby. Baru, Jakarta";PAPUA;12160;Indonesia;081315000829;;;-62.532.689;1.068.073.984;https://maps.google.com/?cid=0x0:0xb00f9b7777ce6abe;
cafe;Kafe;at home cafe.;"Jl. Karet Pasar Baru Barat VII No.2, Karet Tengsin, Kecamatan Tanah Abang, Kota Jakarta Pusat, Daerah Khusus Ibukota Jakarta 10220";"Karet Tengsin, Kecamatan Tanah Abang, Kota Jakarta Pusat";PAPUA;10220;Indonesia;;;;-6.211.904;1.068.152.392;https://maps.google.com/?cid=0x0:0xda25ec4e682e6f9;
cafe;Kafe;PUA-PUA CAFE;"Jl. Budi Utomo, Nawaripi, Kec. Mimika Baru, Kabupaten Mimika, Papua 99952";"Nawaripi, Kec. Mimika Baru, Kabupaten Mimika";PAPUA;99952;Indonesia;082346750560;;;-45.620.805;1.368.806.057;https://maps.google.com/?cid=0x0:0xb7cc07f877baacb2;
cafe;Kafe;Waanal Coffee And Resto;"Jl. Cendrawasih, Karang Senang, Kec. Kuala Kencana, Kabupaten Mimika, Papua 99910";"Karang Senang, Kec. Kuala Kencana, Kabupaten Mimika";PAPUA;99910;Indonesia;081248677897;;;-44.916.566;1.368.474.106;https://maps.google.com/?cid=0x0:0xe6f6936c8a14d771;
cafe;Kafe;LAVAS'CO COFFEE  RESTO;"CVQJ+86W, Timika,, Koperapoka, Kec. Mimika Baru, Kabupaten Mimika, Papua 99971";"Timika,, Koperapoka, Kec. Mimika Baru, Kabupaten Mimika";PAPUA;99971;Indonesia;08114909486;;;-45.616.468;1.368.805.836;https://maps.google.com/?cid=0x0:0xe3ccc616238019e9;
cafe;Toko bahan makanan;Warung Wanda Foundation;"Villa Mas Indah, Perum Blk. D8 No.19, RT.005/RW.014, Perwira, Kec. Bekasi Utara, Kota Bks, Jawa Barat 17122";"Perum Blk. D8 No.19, RT.005/RW.014, Perwira, Kec. Bekasi Utara, Kota Bks";PAPUA;17122;Indonesia;;;;-62.110.254;10.701.314;https://maps.google.com/?cid=0x0:0x80febaff587acf92;
cafe;Kedai Kopi;Wanda's Family;"HQJX+HJ4, Jl. H. Tamad Firdaus, RT.03 RW02, Cipayung, Kec. Cipayung, Kota Depok, Jawa Barat 16437";"Jl. H. Tamad Firdaus, RT.03 RW02, Cipayung, Kec. Cipayung, Kota Depok";PAPUA;16437;Indonesia;;;;-6.418.607;1.067.990.752;https://maps.google.com/?cid=0x0:0xe1c8dd402247d857;
cafe;Kedai Kopi;warkoprjinta;"7A, Jl. Nipah No.III BLOK Q5, Petogogan, Kec. Kby. Baru, Kota Jakarta Selatan, Daerah Khusus Ibukota Jakarta";"Kota Jakarta Selatan, Daerah Khusus Ibukota Jakarta";PAPUA;;Indonesia;;;;-62.467.593;1.068.072.037;https://maps.google.com/?cid=0x0:0x752865860924fa00;
cafe;cafe;wanda's Cafe;"Jalan Bubulak No.15, Cadas Ngampar, Sukaraja, Bogor Regency, West Java 16710";"Cadas Ngampar, Sukaraja, Bogor Regency";PAPUA;16710;Indonesia;08986688212;;;-6.571.912;1.068.361.921;https://maps.google.com/?cid=0x0:0x1bc44954afa6d9a3;
cafe;cafe;Papua 98784;Papua;Papua;PAPUA;;Indonesia;;;;-32.495.346;1.364.393.054;https://maps.google.com/?cid=0x0:0xd10f2faf319bd4fe;
cafe;Kafe;at home cafe.;"Jl. Karet Pasar Baru Barat VII No.2, Karet Tengsin, Kecamatan Tanah Abang, Kota Jakarta Pusat, Daerah Khusus Ibukota Jakarta 10220";"Karet Tengsin, Kecamatan Tanah Abang, Kota Jakarta Pusat";PAPUA;10220;Indonesia;;;;-6.211.904;1.068.152.392;https://maps.google.com/?cid=0x0:0xda25ec4e682e6f9;
cafe;cafe;Ronggaiwa Beach Cafe;"5M4C+H6F, Kampung Ronggaiwa Blakang SPBU distrik Urei Faisei, Firo, Inggerus, Kabupaten Waropen, Papua 98261";"Kampung Ronggaiwa Blakang SPBU distrik Urei Faisei, Firo, Inggerus, Kabupaten Waropen";PAPUA;98261;Indonesia;082119536673;;;-28.435.717;136.670.534;https://maps.google.com/?cid=0x0:0xf2e0bffcaa3ca8fb;
cafe;cafe;Distrik Agisiga;"Kabupaten Intan Jaya, Papua";"Kabupaten Intan Jaya, Papua";PAPUA;;Indonesia;;;;-37.319.536;1.370.926.922;https://maps.google.com/?cid=0x0:0xd5984dfd8c3b468d;
cafe;Komplek perumahan;RM ADIVA;"725V+GG7, Bilogai, Kec. Sugapa, Kabupaten Intan Jaya, Papua 98768";"Bilogai, Kec. Sugapa, Kabupaten Intan Jaya";PAPUA;98768;Indonesia;085336741888;;;-37.416.944;1.370.437.608;https://maps.google.com/?cid=0x0:0xf7b8bec5b7c12751;
cafe;Kedai Kopi;% Arabica Jakarta Roastery;"Jl. Taman Gunawarman Timur No.4, Selong, Kec. Kby. Baru, Kota Jakarta Selatan, Daerah Khusus Ibukota Jakarta 12110";"Selong, Kec. Kby. Baru, Kota Jakarta Selatan";PAPUA;12110;Indonesia;081196202000;;;-62.345.771;1.068.072.175;https://maps.google.com/?cid=0x0:0xef503dff46709df6;
cafe;Kedai Kopi;Kopi Dibawahtangga Aguna;"Ashta at District, Jl. Jend. Sudirman kav 52-53 8, GF, RT.8/RW.3, Senayan, Kec. Kby. Baru, Kota Jakarta Selatan, Daerah Khusus Ibukota Jakarta 12190";"Jl. Jend. Sudirman kav 52-53 8, GF, RT.8/RW.3, Senayan, Kec. Kby. Baru, Kota Jakarta Selatan";PAPUA;12190;Indonesia;081282533996;;;-62.294.791;1.068.067.504;https://maps.google.com/?cid=0x0:0x656dd2ac01c54e36;
cafe;Kedai Kopi;Sinilagi - Food and Coffee;"Ruko Puri Kencana. Jalan Puri Kencana Blok K7/3U, RT.11/RW.7, Kembangan Sel., Kec. Kembangan, Kota Jakarta Barat, Daerah Khusus Ibukota Jakarta 11610";"RT.11/RW.7, Kembangan Sel., Kec. Kembangan, Kota Jakarta Barat";PAPUA;11610;Indonesia;;;;-61.907.131;1.067.477.643;https://maps.google.com/?cid=0x0:0x542750392acff889;
cafe;Kedai Kopi;Sinilagi Panglima Polim - Food  Coffee;"Jl. Panglima Polim IX No.2, RT.2/RW.6, Melawai, Kec. Kby. Baru, Kota Jakarta Selatan, Daerah Khusus Ibukota Jakarta 12160";"RT.2/RW.6, Melawai, Kec. Kby. Baru, Kota Jakarta Selatan";PAPUA;12160;Indonesia;081380370000;;;-62.499.027;1.067.982.218;https://maps.google.com/?cid=0x0:0x8f6167df471724df;
cafe;cafe;Warung makan diva;"725V+GG7, Bilogai, Kec. Sugapa, Kabupaten Intan Jaya, Papua 98768";"Bilogai, Kec. Sugapa, Kabupaten Intan Jaya";PAPUA;98768;Indonesia;;;;-37.353.125;1.370.440.625;https://maps.google.com/?cid=0x0:0xc0aada5c761b9bfb;
cafe;Makanan Kecil;Intan Cafe Cilandak;"Jl. Intan RSPP Utara No.08 Kav C, RT.7/RW.8, Cilandak Bar., Kec. Cilandak, Kota Jakarta Selatan, Daerah Khusus Ibukota Jakarta 12430";"RT.7/RW.8, Cilandak Bar., Kec. Cilandak, Kota Jakarta Selatan";PAPUA;12430;Indonesia;089514559090;;;-62.951.494;1.067.989.228;https://maps.google.com/?cid=0x0:0xbbb6c9bf43bf779f;
cafe;cafe;Intan Cafe Cinere;"Jl. Meruyung Raya No.130, Limo, Kec. Limo, Kota Depok, Jawa Barat 16514";"Limo, Kec. Limo, Kota Depok";PAPUA;16514;Indonesia;;;;-63.594.721;1.067.756.352;https://maps.google.com/?cid=0x0:0x9db0eaf68662feef;
cafe;Kedai Kopi;Dibawah Tangga;"Gandaria City Mall, Jl. Sultan Iskandar Muda No.10, RT.10/RW.6, Kby. Lama Utara, Kec. Kby. Lama, Kota Jakarta Selatan, Daerah Khusus Ibukota Jakarta 12240";"Jl. Sultan Iskandar Muda No.10, RT.10/RW.6, Kby. Lama Utara, Kec. Kby. Lama, Kota Jakarta Selatan";PAPUA;12240;Indonesia;;;;-62.430.442;1.067.835.434;https://maps.google.com/?cid=0x0:0x3a6b52079cdf4869;
cafe;cafe;Papua 98768;"Kabupaten Intan Jaya, Papua";"Kabupaten Intan Jaya, Papua";PAPUA;;Indonesia;;;;-36.382.021;1.369.028.375;https://maps.google.com/?cid=0x0:0x902010d7989d7c6c;
cafe;Komplek perumahan;RM ADIVA;"725V+GG7, Bilogai, Kec. Sugapa, Kabupaten Intan Jaya, Papua 98768";"Bilogai, Kec. Sugapa, Kabupaten Intan Jaya";PAPUA;98768;Indonesia;085336741888;;;-37.416.944;1.370.437.608;https://maps.google.com/?cid=0x0:0xf7b8bec5b7c12751;
cafe;Gedung Apartemen;Coffee Shop Hidden Valley;"R3WX+49M, Arwandop, Kec. Tembagapura, Kabupaten Mimika, Papua 99967";"Arwandop, Kec. Tembagapura, Kabupaten Mimika";PAPUA;99967;Indonesia;0901466406;;;-4.154.668;1.370.984.148;https://maps.google.com/?cid=0x0:0x19897cfa42d33d8a;
cafe;Kafe;Tana Papua Coffee and Roastery;"Jl. Raya Abepura, Vim, Kec. Abepura, Kota Jayapura, Papua 99220";"Vim, Kec. Abepura, Kota Jayapura";PAPUA;99220;Indonesia;082175416609;;;-26.047.712;1.406.727.079;https://maps.google.com/?cid=0x0:0x747c727d4b94ebf6;
cafe;cafe;Warung makan diva;"725V+GG7, Bilogai, Kec. Sugapa, Kabupaten Intan Jaya, Papua 98768";"Bilogai, Kec. Sugapa, Kabupaten Intan Jaya";PAPUA;98768;Indonesia;;;;-37.353.125;1.370.440.625;https://maps.google.com/?cid=0x0:0xc0aada5c761b9bfb;
mall;Pusat Perbelanjaan;Pondok Indah Mall 1;"Jl. Metro Pondok Indah No.Kav. 4, RT.1/RW.16, Pd. Pinang, Kec. Kby. Lama, Kota Jakarta Selatan, Daerah Khusus Ibukota Jakarta 12310";"RT.1/RW.16, Pd. Pinang, Kec. Kby. Lama, Kota Jakarta Selatan";PAPUA;12310;Indonesia;0217506750;;;-62.652.166;1.067.843.165;https://maps.google.com/?cid=0x0:0x682837113c4ea854;
mall;Pusat Perbelanjaan;Pondok Indah Mall 2;"Jl. Metro Pondok Indah, Pd. Pinang, Kec. Kby. Lama, Kota Jakarta Selatan, Daerah Khusus Ibukota Jakarta 12310";"Pd. Pinang, Kec. Kby. Lama, Kota Jakarta Selatan";PAPUA;12310;Indonesia;0217506750;;;-62.655.241;1.067.827.928;https://maps.google.com/?cid=0x0:0x203a5d09556daf5f;
mall;Pusat Perbelanjaan;Pavilion Jakarta 2;"Pd. Indah Mall 3, RT.1, RW.16, Pd. Pinang, Kec. Kby. Lama, Kota Jakarta Selatan, Daerah Khusus Ibukota Jakarta 12310";"RT.1, RW.16, Pd. Pinang, Kec. Kby. Lama, Kota Jakarta Selatan";PAPUA;12310;Indonesia;;;;-62.636.248;1.067.831.198;https://maps.google.com/?cid=0x0:0x755cc3d64ada2ce3;
mall;Toserba;METRO pondok Indah Mall 1;"Jalan Metro Pondok Indah Kav. IV, Jl. Metro Pondok Indah, RT.1/RW.16, Pd. Pinang, Kec. Kby. Lama, Kota Jakarta Selatan, Daerah Khusus Ibukota Jakarta 12310";"Jl. Metro Pondok Indah, RT.1/RW.16, Pd. Pinang, Kec. Kby. Lama, Kota Jakarta Selatan";PAPUA;12310;Indonesia;02175998000;;;-62.642.881;1.067.845.448;https://maps.google.com/?cid=0x0:0x236f055dabee73bc;
mall;Layanan Penukaran Mata Uang;PT. Sejahtera Valasindo;"Samping Bank Mandiri, Pondok Indah Mall 1 PIM1, lantai dasar, Pd. Pinang, Kec. Kby. Lama, Kota Jakarta Selatan, Daerah Khusus Ibukota Jakarta 12310";"Pondok Indah Mall 1 PIM1, lantai dasar, Pd. Pinang, Kec. Kby. Lama, Kota Jakarta Selatan";PAPUA;12310;Indonesia;081775001122;;;-6.265.288;1.067.842.184;https://maps.google.com/?cid=0x0:0xc3f0cd17ca6000d2;
mall;Restoran;Bakmi GM Pondok Indah;"Jl. Metro Pondok Indah No.1, RT.1/RW.16, Pd. Pinang, Kec. Kby. Lama, Kota Jakarta Selatan, Daerah Khusus Ibukota Jakarta 12310";"RT.1/RW.16, Pd. Pinang, Kec. Kby. Lama, Kota Jakarta Selatan";PAPUA;12310;Indonesia;0217506881;;;-62.651.233;1.067.843.685;https://maps.google.com/?cid=0x0:0xa3703a5a2828cf59;
mall;Bioskop;Pondok Indah 1 XXI;"Pondok Indah Mall 2, Jl. Metro Pondok Indah No.1, RT.1/RW.16, Pd. Pinang, Kec. Kby. Lama, Kota Jakarta Selatan, Daerah Khusus Ibukota Jakarta 12310";"Jl. Metro Pondok Indah No.1, RT.1/RW.16, Pd. Pinang, Kec. Kby. Lama, Kota Jakarta Selatan";PAPUA;12310;Indonesia;02175920781;;;-6.264.667;1.067.843.784;https://maps.google.com/?cid=0x0:0x408a6681ca59df1f;
mall;Pusat Perbelanjaan;Shopping Family Tembagapura;"V34Q+XXH, Tembagapura, Arwandop, Tembagapura, Kec. Tembagapura, Kabupaten Mimika, Papua 99967";"Tembagapura, Arwandop, Tembagapura, Kec. Tembagapura, Kabupaten Mimika";PAPUA;99967;Indonesia;;;;-41.425.625;1.370.899.844;https://maps.google.com/?cid=0x0:0x23ff3f0a601439a2;
mall;Pusat Perbelanjaan;Pondok Indah Water Park;"Pondok Indah Mall, Jl. Metro Pondok Indah, RT.1/RW.16, Pd. Pinang, Kec. Kby. Lama, Kota Jakarta Selatan, Daerah Khusus Ibukota Jakarta 12310";"Jl. Metro Pondok Indah, RT.1/RW.16, Pd. Pinang, Kec. Kby. Lama, Kota Jakarta Selatan";PAPUA;12310;Indonesia;0217506750;;;-62.677.295;1.067.843.933;https://maps.google.com/?cid=0x0:0x30e93edf55c03f10;
mall;Toko Swalayan;Primo Supermarket Tembagapura;"Tembagapura, Kec. Tembagapura, Kabupaten Mimika, Papua 98972";"Kec. Tembagapura, Kabupaten Mimika";PAPUA;98972;Indonesia;;;;-41.423.125;1.370.900.625;https://maps.google.com/?cid=0x0:0x79e7c0e104f18094;
mall;Kantor Perusahaan;Hobby Shop;"V35R+225, Arwandop, Kec. Tembagapura, Kabupaten Mimika, Papua 98972";"Arwandop, Kec. Tembagapura, Kabupaten Mimika";PAPUA;98972;Indonesia;09015463746;;;-41.424.817;137.090.094;https://maps.google.com/?cid=0x0:0xc33b91eeeeaa5db2;
mall;Pusat Perbelanjaan;Gandaria City;"Jl. Sultan Iskandar Muda, Gandaria, Kec. Kby. Lama, Kota Jakarta Selatan, Daerah Khusus Ibukota Jakarta 12240";"Gandaria, Kec. Kby. Lama, Kota Jakarta Selatan";PAPUA;12240;Indonesia;02129052888;;;-62.443.009;1.067.829.375;https://maps.google.com/?cid=0x0:0x6173704d396d5a99;
mall;Pusat Perbelanjaan;Plaza Indonesia;"Jl. M.H. Thamrin No.Kav.28-30, Gondangdia, Kec. Menteng, Kota Jakarta Pusat, Daerah Khusus Ibukota Jakarta 10350";"Gondangdia, Kec. Menteng, Kota Jakarta Pusat";PAPUA;10350;Indonesia;02129920000;;;-61.935.977;1.068.219.468;https://maps.google.com/?cid=0x0:0x7d7fe17ad64a053f;
mall;Pusat Perbelanjaan;Grand Indonesia;"Jl. MH Thamrin No.1, Menteng, Kec. Menteng, Kota Jakarta Pusat, Daerah Khusus Ibukota Jakarta 10310";"Menteng, Kec. Menteng, Kota Jakarta Pusat";PAPUA;10310;Indonesia;02123580001;;;-61.950.412;1.068.210.081;https://maps.google.com/?cid=0x0:0xb04ce66a7cb711d9;
mall;Pusat Perbelanjaan;Central Park;"Jl. Letjen S. Parman No.Kav. 28, Tj. Duren Sel., Kec. Grogol petamburan, Kota Jakarta Barat, Daerah Khusus Ibukota Jakarta 11470";"Tj. Duren Sel., Kec. Grogol petamburan, Kota Jakarta Barat";PAPUA;11470;Indonesia;02156989999;;;-61.771.373;1.067.909.788;https://maps.google.com/?cid=0x0:0xe816d65037c3207a;
mall;Pusat Perbelanjaan;Summarecon Mall Bekasi;"Sentra Summarecon Bekasi, Jl. Boulevard Ahmad Yani, Marga Mulya, Kec. Bekasi Utara, Kota Bks, Jawa Barat 17142";"Jl. Boulevard Ahmad Yani, Marga Mulya, Kec. Bekasi Utara, Kota Bks";PAPUA;17142;Indonesia;02129572888;;;-62.261.276;1.070.010.764;https://maps.google.com/?cid=0x0:0xd22a5d56809f070a;
mall;mall;Papua 98769;Papua;Papua;PAPUA;;Indonesia;;;;-34.531.316;1.363.240.951;https://maps.google.com/?cid=0x0:0xd28ed8bf27ec9c6b;
mall;Pusat Perbelanjaan;SAGA MALL;"Kota Baru, Kec. Abepura, Kota Jayapura, Papua 99351";"Kec. Abepura, Kota Jayapura";PAPUA;99351;Indonesia;;;;-26.105.845;1.406.654.189;https://maps.google.com/?cid=0x0:0xaf65e43ff84ff9e6;
mall;Toko bahan makanan;Kios Syauqy;"97HM+J2C, Uwagi, Bogobaida, Kabupaten Paniai, Papua 98854";"Uwagi, Bogobaida, Kabupaten Paniai";PAPUA;98854;Indonesia;;;;-36.209.365;1.362.825.214;https://maps.google.com/?cid=0x0:0xa5be475d84ad58bc;
mall;Pusat Perbelanjaan;Pondok Indah Mall 1;"Jl. Metro Pondok Indah No.Kav. 4, RT.1/RW.16, Pd. Pinang, Kec. Kby. Lama, Kota Jakarta Selatan, Daerah Khusus Ibukota Jakarta 12310";"RT.1/RW.16, Pd. Pinang, Kec. Kby. Lama, Kota Jakarta Selatan";PAPUA;12310;Indonesia;0217506750;;;-62.652.166;1.067.843.165;https://maps.google.com/?cid=0x0:0x682837113c4ea854;
mall;Pusat Perbelanjaan;Kios rahmi 99;"98X3+GFM, Uwagi, Bogobaida, Kabupaten Paniai, Papua";"Kabupaten Paniai, Papua";PAPUA;;Indonesia;;;;-36.011.634;1.363.036.629;https://maps.google.com/?cid=0x0:0x13ddcf628b795c90;
mall;Pusat Perbelanjaan;Plaza Indonesia;"Jl. M.H. Thamrin No.Kav.28-30, Gondangdia, Kec. Menteng, Kota Jakarta Pusat, Daerah Khusus Ibukota Jakarta 10350";"Gondangdia, Kec. Menteng, Kota Jakarta Pusat";PAPUA;10350;Indonesia;02129920000;;;-61.935.977;1.068.219.468;https://maps.google.com/?cid=0x0:0x7d7fe17ad64a053f;
mall;Pusat Perbelanjaan;Summarecon Mall Bekasi;"Sentra Summarecon Bekasi, Jl. Boulevard Ahmad Yani, Marga Mulya, Kec. Bekasi Utara, Kota Bks, Jawa Barat 17142";"Jl. Boulevard Ahmad Yani, Marga Mulya, Kec. Bekasi Utara, Kota Bks";PAPUA;17142;Indonesia;02129572888;;;-62.261.276;1.070.010.764;https://maps.google.com/?cid=0x0:0xd22a5d56809f070a;
mall;Pusat Perbelanjaan;Central Park;"Jl. Letjen S. Parman No.Kav. 28, Tj. Duren Sel., Kec. Grogol petamburan, Kota Jakarta Barat, Daerah Khusus Ibukota Jakarta 11470";"Tj. Duren Sel., Kec. Grogol petamburan, Kota Jakarta Barat";PAPUA;11470;Indonesia;02156989999;;;-61.771.373;1.067.909.788;https://maps.google.com/?cid=0x0:0xe816d65037c3207a;
mall;Pusat Perbelanjaan;Summarecon Mall Serpong;"Jl. Boulevard Raya Gading Serpong, Pakulonan Bar., Kec. Klp. Dua, Kabupaten Tangerang, Banten 15810";"Pakulonan Bar., Kec. Klp. Dua, Kabupaten Tangerang";PAPUA;15810;Indonesia;0215460888;;;-62.409.034;1.066.288.212;https://maps.google.com/?cid=0x0:0x355ee4742c69b52c;
mall;Pusat Perbelanjaan;Shopping Family Tembagapura;"V34Q+XXH, Tembagapura, Arwandop, Tembagapura, Kec. Tembagapura, Kabupaten Mimika, Papua 99967";"Tembagapura, Arwandop, Tembagapura, Kec. Tembagapura, Kabupaten Mimika";PAPUA;99967;Indonesia;;;;-41.425.625;1.370.899.844;https://maps.google.com/?cid=0x0:0x23ff3f0a601439a2;
mall;Toko Swalayan;Primo Supermarket Tembagapura;"Tembagapura, Kec. Tembagapura, Kabupaten Mimika, Papua 98972";"Kec. Tembagapura, Kabupaten Mimika";PAPUA;98972;Indonesia;;;;-41.423.125;1.370.900.625;https://maps.google.com/?cid=0x0:0x79e7c0e104f18094;
mall;Kantor Perusahaan;Hobby Shop;"V35R+225, Arwandop, Kec. Tembagapura, Kabupaten Mimika, Papua 98972";"Arwandop, Kec. Tembagapura, Kabupaten Mimika";PAPUA;98972;Indonesia;09015463746;;;-41.424.817;137.090.094;https://maps.google.com/?cid=0x0:0xc33b91eeeeaa5db2;
mall;mall;Papua 98769;Papua;Papua;PAPUA;;Indonesia;;;;-34.531.316;1.363.240.951;https://maps.google.com/?cid=0x0:0xd28ed8bf27ec9c6b;
mall;Toko bahan makanan;Kios Syauqy;"97HM+J2C, Uwagi, Bogobaida, Kabupaten Paniai, Papua 98854";"Uwagi, Bogobaida, Kabupaten Paniai";PAPUA;98854;Indonesia;;;;-36.209.365;1.362.825.214;https://maps.google.com/?cid=0x0:0xa5be475d84ad58bc;
mall;Pusat Perbelanjaan;Kios rahmi 99;"98X3+GFM, Uwagi, Bogobaida, Kabupaten Paniai, Papua";"Kabupaten Paniai, Papua";PAPUA;;Indonesia;;;;-36.011.634;1.363.036.629;https://maps.google.com/?cid=0x0:0x13ddcf628b795c90;
mall;Pusat Perbelanjaan;Mall Jayapura;"APO, Jl. Samratulangi, Bayangkara, Kec. Jayapura Utara, Kota Jayapura, Papua 99112";"Jl. Samratulangi, Bayangkara, Kec. Jayapura Utara, Kota Jayapura";PAPUA;99112;Indonesia;09675150000;;;-25.351.775;1.407.061.874;https://maps.google.com/?cid=0x0:0x54294cb27964023;
mall;Pusat Perbelanjaan;SAGA MALL;"Kota Baru, Kec. Abepura, Kota Jayapura, Papua 99351";"Kec. Abepura, Kota Jayapura";PAPUA;99351;Indonesia;;;;-26.105.845;1.406.654.189;https://maps.google.com/?cid=0x0:0xaf65e43ff84ff9e6;
mall;mall;Wandai;"Sabisa, Distrik Wandai, Kabupaten Intan Jaya, Papua";"Kabupaten Intan Jaya, Papua";PAPUA;;Indonesia;;;;-3.703.004;136.680.496;https://maps.google.com/?cid=0x0:0x987e45212eb83434;
mall;Pusat Perbelanjaan;wanda;"Jl. Raya Serang No.20, Sukadamai, Kec. Cikupa, Kabupaten Tangerang, Banten 15710";"Sukadamai, Kec. Cikupa, Kabupaten Tangerang";PAPUA;15710;Indonesia;08774540405;;;-6.221.538;106.540.829;https://maps.google.com/?cid=0x0:0xa9620993129f0d27;
mall;Pusat Perbelanjaan;Davin qua;"QFPQ+69C, Bojong, Kec. Cikupa, Kabupaten Tangerang, Banten 15710";"Bojong, Kec. Cikupa, Kabupaten Tangerang";PAPUA;15710;Indonesia;085282300196;;;-6.214.449;1.064.883.843;https://maps.google.com/?cid=0x0:0xfe0ab79b370b54a4;
mall;Pusat Perbelanjaan;Mall Jayapura;"APO, Jl. Samratulangi, Bayangkara, Kec. Jayapura Utara, Kota Jayapura, Papua 99112";"Jl. Samratulangi, Bayangkara, Kec. Jayapura Utara, Kota Jayapura";PAPUA;99112;Indonesia;09675150000;;;-25.351.775;1.407.061.874;https://maps.google.com/?cid=0x0:0x54294cb27964023;
mall;Pusat Perbelanjaan;SAGA MALL;"Kota Baru, Kec. Abepura, Kota Jayapura, Papua 99351";"Kec. Abepura, Kota Jayapura";PAPUA;99351;Indonesia;;;;-26.105.845;1.406.654.189;https://maps.google.com/?cid=0x0:0xaf65e43ff84ff9e6;
mall;Toko bahan makanan;Kios Syauqy;"97HM+J2C, Uwagi, Bogobaida, Kabupaten Paniai, Papua 98854";"Uwagi, Bogobaida, Kabupaten Paniai";PAPUA;98854;Indonesia;;;;-36.209.365;1.362.825.214;https://maps.google.com/?cid=0x0:0xa5be475d84ad58bc;
mall;Pusat Perbelanjaan;Grand Indonesia Shopping Town;"Jl. M.H. Thamrin No.1, Menteng, Kec. Menteng, Kota Jakarta Pusat, Daerah Khusus Ibukota Jakarta 10310";"Menteng, Kec. Menteng, Kota Jakarta Pusat";PAPUA;10310;Indonesia;02123580001;;;-61.965.848;1.068.224.882;https://maps.google.com/?cid=0x0:0xccfcc89b95aaf1ae;
mall;Pusat Perbelanjaan;Grand Indonesia;"Jl. MH Thamrin No.1, Menteng, Kec. Menteng, Kota Jakarta Pusat, Daerah Khusus Ibukota Jakarta 10310";"Menteng, Kec. Menteng, Kota Jakarta Pusat";PAPUA;10310;Indonesia;02123580001;;;-61.950.412;1.068.210.081;https://maps.google.com/?cid=0x0:0xb04ce66a7cb711d9;
mall;Pusat Perbelanjaan;Plaza Indonesia;"Jl. M.H. Thamrin No.Kav.28-30, Gondangdia, Kec. Menteng, Kota Jakarta Pusat, Daerah Khusus Ibukota Jakarta 10350";"Gondangdia, Kec. Menteng, Kota Jakarta Pusat";PAPUA;10350;Indonesia;02129920000;;;-61.935.977;1.068.219.468;https://maps.google.com/?cid=0x0:0x7d7fe17ad64a053f;
mall;Kafe;The Coffee Bean and Tea Leaf - Grand Indonesia;"Jl. Teluk Betung No.38, RT.4/RW.1, Kb. Melati, Kecamatan Tanah Abang, Kota Jakarta Pusat, Daerah Khusus Ibukota Jakarta 10230";"RT.4/RW.1, Kb. Melati, Kecamatan Tanah Abang, Kota Jakarta Pusat";PAPUA;10230;Indonesia;02123580512;;;-61.948.541;1.068.201.944;https://maps.google.com/?cid=0x0:0xc6d728bcb41a3324;
mall;Toko Pakaian;GLAM ON Grand Indonesia;"LG 07-WM, Jl. M.H. Thamrin No.1, RT.1/RW.5, Kebon Melati, Central Jakarta City, Jakarta 10230";"Jl. M.H. Thamrin No.1, RT.1/RW.5, Kebon Melati, Central Jakarta City";PAPUA;10230;Indonesia;081519237233;;;-61.946.937;1.068.196.057;https://maps.google.com/?cid=0x0:0xa685b35aeba07286;
mall;Pusat Perbelanjaan;Reski 77 Aksesoris;"CVXQ+3GR, Timika Jaya, Kec. Mimika Baru, Kabupaten Mimika, Papua 99971";"Timika Jaya, Kec. Mimika Baru, Kabupaten Mimika";PAPUA;99971;Indonesia;08114993334;;;-45.522.687;1.368.887.764;https://maps.google.com/?cid=0x0:0xc1c2d10aeeb2c3c4;
mall;Pusat Perbelanjaan;Reski 77 aksesoris cabang budiutomo;"CVWM+84J, Jl. Budi Utomo, Nawaripi, Kec. Mimika Baru, Kabupaten Mimika, Papua 99971";"Jl. Budi Utomo, Nawaripi, Kec. Mimika Baru, Kabupaten Mimika";PAPUA;99971;Indonesia;085333777109;;;-45.541.707;1.368.827.523;https://maps.google.com/?cid=0x0:0x500b1c6092c1f1d4;
mall;mall;Papua 98768;"Kabupaten Intan Jaya, Papua";"Kabupaten Intan Jaya, Papua";PAPUA;;Indonesia;;;;-36.382.021;1.369.028.375;https://maps.google.com/?cid=0x0:0x902010d7989d7c6c;
mall;Pusat Perbelanjaan;Mall Ambasador;"Kuningan, Karet Kuningan, Kecamatan Setiabudi, Kota Jakarta Selatan, Daerah Khusus Ibukota Jakarta";"Kota Jakarta Selatan, Daerah Khusus Ibukota Jakarta";PAPUA;;Indonesia;;;;-62.240.223;1.068.268.202;https://maps.google.com/?cid=0x0:0xffae3870f7ae2fd;
mall;Pusat Perbelanjaan;Grand Indonesia Shopping Town;"Jl. M.H. Thamrin No.1, Menteng, Kec. Menteng, Kota Jakarta Pusat, Daerah Khusus Ibukota Jakarta 10310";"Menteng, Kec. Menteng, Kota Jakarta Pusat";PAPUA;10310;Indonesia;02123580001;;;-61.965.848;1.068.224.882;https://maps.google.com/?cid=0x0:0xccfcc89b95aaf1ae;
mall;Pusat Perbelanjaan;Pondok Indah Mall 1;"Jl. Metro Pondok Indah No.Kav. 4, RT.1/RW.16, Pd. Pinang, Kec. Kby. Lama, Kota Jakarta Selatan, Daerah Khusus Ibukota Jakarta 12310";"RT.1/RW.16, Pd. Pinang, Kec. Kby. Lama, Kota Jakarta Selatan";PAPUA;12310;Indonesia;0217506750;;;-62.652.166;1.067.843.165;https://maps.google.com/?cid=0x0:0x682837113c4ea854;
mall;Pusat Perbelanjaan;Mall Kota Kasablanka;"Jl. Raya Casablanca No.Kav 88, Menteng Dalam, Kec. Tebet, Kota Jakarta Selatan, Daerah Khusus Ibukota Jakarta 12870";"Menteng Dalam, Kec. Tebet, Kota Jakarta Selatan";PAPUA;12870;Indonesia;02129465000;;;-62.240.353;1.068.425.979;https://maps.google.com/?cid=0x0:0xaf54cb631563acce;
mall;Pusat Perbelanjaan;Central Park;"Jl. Letjen S. Parman No.Kav. 28, Tj. Duren Sel., Kec. Grogol petamburan, Kota Jakarta Barat, Daerah Khusus Ibukota Jakarta 11470";"Tj. Duren Sel., Kec. Grogol petamburan, Kota Jakarta Barat";PAPUA;11470;Indonesia;02156989999;;;-61.771.373;1.067.909.788;https://maps.google.com/?cid=0x0:0xe816d65037c3207a;
mall;Pusat Perbelanjaan;Pondok Indah Mall 2;"Jl. Metro Pondok Indah, Pd. Pinang, Kec. Kby. Lama, Kota Jakarta Selatan, Daerah Khusus Ibukota Jakarta 12310";"Pd. Pinang, Kec. Kby. Lama, Kota Jakarta Selatan";PAPUA;12310;Indonesia;0217506750;;;-62.655.241;1.067.827.928;https://maps.google.com/?cid=0x0:0x203a5d09556daf5f;
mall;Pusat Perbelanjaan;Shopping Family Tembagapura;"V34Q+XXH, Tembagapura, Arwandop, Tembagapura, Kec. Tembagapura, Kabupaten Mimika, Papua 99967";"Tembagapura, Arwandop, Tembagapura, Kec. Tembagapura, Kabupaten Mimika";PAPUA;99967;Indonesia;;;;-41.425.625;1.370.899.844;https://maps.google.com/?cid=0x0:0x23ff3f0a601439a2;
mall;Toko Swalayan;Primo Supermarket Tembagapura;"Tembagapura, Kec. Tembagapura, Kabupaten Mimika, Papua 98972";"Kec. Tembagapura, Kabupaten Mimika";PAPUA;98972;Indonesia;;;;-41.423.125;1.370.900.625;https://maps.google.com/?cid=0x0:0x79e7c0e104f18094;
mall;Balai masyarakat;Plaza Agawaa Ogom;"V4R2+53Q, Tembagapura, Kec. Tembagapura, Kabupaten Mimika, Papua 98972";"Tembagapura, Kec. Tembagapura, Kabupaten Mimika";PAPUA;98972;Indonesia;;;;-41.095.287;1.371.002.252;https://maps.google.com/?cid=0x0:0x28909d5c3b81fbc0;
mall;Pusat Perbelanjaan;Mall Sentani City Square;"Jl. Raya Kemiri No.286, Hinekombe, Kec. Sentani, Kabupaten Jayapura, Papua 99352";"Hinekombe, Kec. Sentani, Kabupaten Jayapura";PAPUA;99352;Indonesia;082198389205;;;-25.632.484;1.405.006.043;https://maps.google.com/?cid=0x0:0x666e57130aca06b8;
mall;Pusat Perbelanjaan;SAGA MALL;"Kota Baru, Kec. Abepura, Kota Jayapura, Papua 99351";"Kec. Abepura, Kota Jayapura";PAPUA;99351;Indonesia;;;;-26.105.845;1.406.654.189;https://maps.google.com/?cid=0x0:0xaf65e43ff84ff9e6;
mall;Pusat Perbelanjaan;Wamena Mall;"WW4W+JH7, Wamena Kota, Distrik Wamena, Kabupaten Jayawijaya, Papua 99511";"Wamena Kota, Distrik Wamena, Kabupaten Jayawijaya";PAPUA;99511;Indonesia;081356954606;;;-40.934.521;1.389.464.176;https://maps.google.com/?cid=0x0:0x99f90a37cc207474;
mall;Kantor Perusahaan;Hobby Shop;"V35R+225, Arwandop, Kec. Tembagapura, Kabupaten Mimika, Papua 98972";"Arwandop, Kec. Tembagapura, Kabupaten Mimika";PAPUA;98972;Indonesia;09015463746;;;-41.424.817;137.090.094;https://maps.google.com/?cid=0x0:0xc33b91eeeeaa5db2;
supermarket;supermarket;Kios dua pintu;"726Q+72, Bilogai, Kec. Sugapa, Kabupaten Intan Jaya, Papua";"Kabupaten Intan Jaya, Papua";PAPUA;;Indonesia;;;;-37.393.675;1.370.376.068;https://maps.google.com/?cid=0x0:0x5ff58a18b9b81348;
supermarket;Kedai Kopi;nescafealegria540;"PRMV+33M, Gg. Ayub, RW.1, Pejaten Bar., Ps. Minggu, Kota Jakarta Selatan, Daerah Khusus Ibukota Jakarta 12510";"Gg. Ayub, RW.1, Pejaten Bar., Ps. Minggu, Kota Jakarta Selatan";PAPUA;12510;Indonesia;085179707752;;;-6.267.292;106.842.658;https://maps.google.com/?cid=0x0:0x2805907461381761;
supermarket;supermarket;SUGA;"Jl. Angsana II No.a2/12b, Rw. Buntu, Kec. Serpong, Kota Tangerang Selatan, Banten 15310";"Rw. Buntu, Kec. Serpong, Kota Tangerang Selatan";PAPUA;15310;Indonesia;;;;-63.072.163;1.066.801.484;https://maps.google.com/?cid=0x0:0xe151ebf4e2a0f4e3;
supermarket;Pusat Perbelanjaan;Kios FMB;"97JM+3PJ, Uwagi, Bogobaida, Kabupaten Paniai, Papua 98854";"Uwagi, Bogobaida, Kabupaten Paniai";PAPUA;98854;Indonesia;;;;-36.197.993;1.362.842.795;https://maps.google.com/?cid=0x0:0x95809b0f7a1426b9;
supermarket;Toko bahan makanan;Kios Syauqy;"97HM+J2C, Uwagi, Bogobaida, Kabupaten Paniai, Papua 98854";"Uwagi, Bogobaida, Kabupaten Paniai";PAPUA;98854;Indonesia;;;;-36.209.365;1.362.825.214;https://maps.google.com/?cid=0x0:0xa5be475d84ad58bc;
supermarket;Toko bahan makanan;Papaya Fresh Gallery - Citywalk Sudirman;"Citywalk Sudirman, Ground Floor 9, Jl. K.H. Mas Mansyur, RT.10/RW.11, Karet Tengsin, Kota Jakarta Pusat, Daerah Khusus Ibukota Jakarta 10250";"Ground Floor 9, Jl. K.H. Mas Mansyur, RT.10/RW.11, Karet Tengsin, Kota Jakarta Pusat";PAPUA;10250;Indonesia;02129918989;;;-62.090.406;1.068.187.668;https://maps.google.com/?cid=0x0:0xedd5d0a9e63db5f8;
supermarket;Toko Swalayan;GS The Fresh Supermarket Kemang Pratama;"Linc Square Kemang Pratama, Jl. Kemang Pratama Raya, RT.004/RW.001, Bojong Rawalumbu, Kec. Rawalumbu, Kota Bks, Jawa Barat 17116";"Jl. Kemang Pratama Raya, RT.004/RW.001, Bojong Rawalumbu, Kec. Rawalumbu, Kota Bks";PAPUA;17116;Indonesia;02182416910;;;-62.779.418;1.069.910.558;https://maps.google.com/?cid=0x0:0x4ce692f4b9ef21ee;
supermarket;Toko Swalayan;GS Supermarket Jatiasih;"GsSupermarket :, Jl. Wibawa Mukti II No.125, RT.002/ RW017/RW.017, Jatiasih, Kec. Jatiasih, Kota Bks, Jawa Barat 17423";"Jl. Wibawa Mukti II No.125, RT.002/ RW017/RW.017, Jatiasih, Kec. Jatiasih, Kota Bks";PAPUA;17423;Indonesia;02182736918;;;-63.070.579;106.955.731;https://maps.google.com/?cid=0x0:0x74efd6ce433268e6;
supermarket;Toko Swalayan;GS The Fresh Mampang;"Jl. Buncit Raya No.301, Duren Tiga, Kec. Pancoran, Kota Jakarta Selatan, Daerah Khusus Ibukota Jakarta 12760";"Duren Tiga, Kec. Pancoran, Kota Jakarta Selatan";PAPUA;12760;Indonesia;02126961986;;;-6.256.991;106.828.987;https://maps.google.com/?cid=0x0:0x47a84d3b86619147;
supermarket;supermarket;SUGA;"Jl. Angsana II No.a2/12b, Rw. Buntu, Kec. Serpong, Kota Tangerang Selatan, Banten 15310";"Rw. Buntu, Kec. Serpong, Kota Tangerang Selatan";PAPUA;15310;Indonesia;;;;-63.072.163;1.066.801.484;https://maps.google.com/?cid=0x0:0xe151ebf4e2a0f4e3;
supermarket;supermarket;Papua 98767;"Kabupaten Intan Jaya, Papua";"Kabupaten Intan Jaya, Papua";PAPUA;;Indonesia;;;;-37.788.615;1.367.091.767;https://maps.google.com/?cid=0x0:0xfc7ec60d3a7f14c;
supermarket;Pusat Perbelanjaan;Primo Supermarket Ridge Camp;"V4R2+62, Tembagapura, Kec. Tembagapura, Kabupaten Mimika, Papua 98972";"Tembagapura, Kec. Tembagapura, Kabupaten Mimika";PAPUA;98972;Indonesia;;;;-4.109.473;1.371.002.082;https://maps.google.com/?cid=0x0:0x759edca03c3b320f;
supermarket;Toko Swalayan;FMX Minimarket Hidden Valley;"FMX Minimarket Hidden Valley, Tembagapura, Mimika Regency, Papua";"Kabupaten Mimika, Papua";PAPUA;;Indonesia;0901403085;;;-41.549.152;1.370.985.816;https://maps.google.com/?cid=0x0:0x16adc688324db981;
supermarket;Pusat Perbelanjaan;Shopping Family Tembagapura;"V34Q+XXH, Tembagapura, Arwandop, Tembagapura, Kec. Tembagapura, Kabupaten Mimika, Papua 99967";"Tembagapura, Arwandop, Tembagapura, Kec. Tembagapura, Kabupaten Mimika";PAPUA;99967;Indonesia;;;;-41.425.625;1.370.899.844;https://maps.google.com/?cid=0x0:0x23ff3f0a601439a2;
supermarket;supermarket;HERO Supermarket hidden valley;"R3WX+2CP, Arwandop, Kec. Tembagapura, Kabupaten Mimika, Papua 99967";"Arwandop, Kec. Tembagapura, Kabupaten Mimika";PAPUA;99967;Indonesia;;;;-41.549.036;1.370.985.711;https://maps.google.com/?cid=0x0:0x5e80b1cd40912508;
supermarket;supermarket;Supermarket Hero;"V35R+42C, Arwandop, Kec. Tembagapura, Kabupaten Mimika, Papua 98972";"Arwandop, Kec. Tembagapura, Kabupaten Mimika";PAPUA;98972;Indonesia;;;;-414.219;1.370.900.275;https://maps.google.com/?cid=0x0:0x8e7bbe3fbf4f4447;
supermarket;Toko bahan makanan;Homi Supermarket;"478Q+W97, Jl. F Kalasuat, Remu Utara, Distrik Sorong, Kota Sorong, Papua Bar. 98412";"Jl. F Kalasuat, Remu Utara, Distrik Sorong, Kota Sorong";PAPUA;98412;Indonesia;;;;-0.8827053;1.312.884.188;https://maps.google.com/?cid=0x0:0x9eed04e7f27afbd0;
supermarket;Pusat Perbelanjaan;Superblock Agawaa Ogom Plaza;"V4R2+634, Arwandop, Kec. Tembagapura, Kabupaten Mimika, Papua 98972";"Arwandop, Kec. Tembagapura, Kabupaten Mimika";PAPUA;98972;Indonesia;;;;-41.094.796;1.371.002.072;https://maps.google.com/?cid=0x0:0x17e8f3255a557911;
supermarket;Toko bahan makanan;TOKO BERKAT ADONAY;"Jln.Papua Kompleks Ruko Block A, Massi, Kec. Dekai, Kabupaten Yahukimo, Papua 99571";"Massi, Kec. Dekai, Kabupaten Yahukimo";PAPUA;99571;Indonesia;081223355359;;;-48.624.737;1.394.857.426;https://maps.google.com/?cid=0x0:0xebc675faef4f92b5;
supermarket;Toko Swalayan;FMX Minimarket Single Man Tembagapura;"V34R+QWM, Tembagapura, Kec. Tembagapura, Kabupaten Mimika, Papua 98972";"Tembagapura, Kec. Tembagapura, Kabupaten Mimika";PAPUA;98972;Indonesia;;;;-4.143.058;1.370.923.299;https://maps.google.com/?cid=0x0:0x8787c5cbafcd4915;
supermarket;Toko bahan makanan;PC. DUPIA;"39CH+GCP, Awabutu, Paniai Tim., Kabupaten Paniai, Papua 98726";"Awabutu, Paniai Tim., Kabupaten Paniai";PAPUA;98726;Indonesia;085244950852;;;-39.286.657;1.363.785.627;https://maps.google.com/?cid=0x0:0x970e067f7ead8be9;
supermarket;Toko Ponsel;Toko D'Bilal;"Jln. Frans kaisepo, Enarotali, Paniai Tim., Kabupaten Paniai, Papua";"Kabupaten Paniai, Papua";PAPUA;;Indonesia;;;;-39.286.444;1.363.777.767;https://maps.google.com/?cid=0x0:0x816a7cdfbb6a9144;
supermarket;Toko;Toko Fathan Jaya;"39FH+865, Awabutu, Paniai Tim., Kabupaten Paniai, Papua 98726";"Awabutu, Paniai Tim., Kabupaten Paniai";PAPUA;98726;Indonesia;081240545949;;;-39.265.912;1.363.779.198;https://maps.google.com/?cid=0x0:0x85c35e537a210f0e;
supermarket;Pusat Perbelanjaan;Kios FMB;"97JM+3PJ, Uwagi, Bogobaida, Kabupaten Paniai, Papua 98854";"Uwagi, Bogobaida, Kabupaten Paniai";PAPUA;98854;Indonesia;;;;-36.197.993;1.362.842.795;https://maps.google.com/?cid=0x0:0x95809b0f7a1426b9;
supermarket;supermarket;Kios dua pintu;"726Q+72, Bilogai, Kec. Sugapa, Kabupaten Intan Jaya, Papua";"Kabupaten Intan Jaya, Papua";PAPUA;;Indonesia;;;;-37.393.675;1.370.376.068;https://maps.google.com/?cid=0x0:0x5ff58a18b9b81348;
supermarket;Toko umum;Buah -buahan segar;"Bapouda, Enarotali, Paniai Tim., Kabupaten Paniai, Papua 98726";"Enarotali, Paniai Tim., Kabupaten Paniai";PAPUA;98726;Indonesia;;;;-39.321.429;1.363.808.792;https://maps.google.com/?cid=0x0:0x87a2152504956ea3;
supermarket;Kantor Perusahaan;Hobby Shop;"V35R+225, Arwandop, Kec. Tembagapura, Kabupaten Mimika, Papua 98972";"Arwandop, Kec. Tembagapura, Kabupaten Mimika";PAPUA;98972;Indonesia;09015463746;;;-41.424.817;137.090.094;https://maps.google.com/?cid=0x0:0xc33b91eeeeaa5db2;
supermarket;Toko;Kios Doopitaka;"6966+WXW, Jl. Dewouyemabutu, Kampung Amopa, Distrik Muye, Kabupaten Paniai, Papua";"Kabupaten Paniai, Papua";PAPUA;;Indonesia;;;;-37.876.441;1.363.624.686;https://maps.google.com/?cid=0x0:0x9b873bdadf884525;
supermarket;supermarket;Hero Ss Port Site;"Kopaidagi, Paniai Tim., Kabupaten Paniai, Papua 99963";"Paniai Tim., Kabupaten Paniai";PAPUA;99963;Indonesia;08001998877;;;-3.971.711;136.439.789;https://maps.google.com/?cid=0x0:0x8f3996d49e59c05e;
supermarket;supermarket;Kec. Homeyo;"Kabupaten Intan Jaya, Papua";"Kabupaten Intan Jaya, Papua";PAPUA;;Indonesia;;;;-37.386.821;1.368.570.279;https://maps.google.com/?cid=0x0:0x13d71833d8d524a9;
supermarket;Toko bahan makanan;Kios Syauqy;"97HM+J2C, Uwagi, Bogobaida, Kabupaten Paniai, Papua 98854";"Uwagi, Bogobaida, Kabupaten Paniai";PAPUA;98854;Indonesia;;;;-36.209.365;1.362.825.214;https://maps.google.com/?cid=0x0:0xa5be475d84ad58bc;
supermarket;Pusat Perbelanjaan;Kios FMB;"97JM+3PJ, Uwagi, Bogobaida, Kabupaten Paniai, Papua 98854";"Uwagi, Bogobaida, Kabupaten Paniai";PAPUA;98854;Indonesia;;;;-36.197.993;1.362.842.795;https://maps.google.com/?cid=0x0:0x95809b0f7a1426b9;
supermarket;Toko bahan makanan;Homi Supermarket;"478Q+W97, Jl. F Kalasuat, Remu Utara, Distrik Sorong, Kota Sorong, Papua Bar. 98412";"Jl. F Kalasuat, Remu Utara, Distrik Sorong, Kota Sorong";PAPUA;98412;Indonesia;;;;-0.8827053;1.312.884.188;https://maps.google.com/?cid=0x0:0x9eed04e7f27afbd0;
supermarket;Toko bahan makanan;Toko Winda;"Q8R7+54, Yenbekaki, Distrik Waigeo Timur, Kabupaten Raja Ampat, Papua Bar.";"Kabupaten Raja Ampat, Papua Bar.";PAPUA;;Indonesia;;;;-0.2095622;1.313.128.223;https://maps.google.com/?cid=0x0:0x9c2e8737cbb9be30;
supermarket;Toko bahan makanan;Toko Dua Saudara;"HRFF+P9V, Waisai, Waigeo Selatan, Waisai, Distrik Kota Waisai, Kabupaten Raja Ampat, Papua Bar. 98482";"Waisai, Waigeo Selatan, Waisai, Distrik Kota Waisai, Kabupaten Raja Ampat";PAPUA;98482;Indonesia;081248277647;;;-0.4256342;1.308.234.194;https://maps.google.com/?cid=0x0:0xa818cfb481f861bb;
supermarket;Minimarket;Mini Market Wanda;"PX86+349, Jl. Cikunir Raya, RT.004/RW.011, Jatiasih, Kec. Jatiasih, Kota Bks, Jawa Barat 17422";"Jl. Cikunir Raya, RT.004/RW.011, Jatiasih, Kec. Jatiasih, Kota Bks";PAPUA;17422;Indonesia;087887140410;;;-6.284.829;1.069.603.531;https://maps.google.com/?cid=0x0:0x6054f70b56568f54;
supermarket;Grosir Barang Kelontong;Toko WANDA;"H386+M95, perum DITBEKANGAD blok A, Cibarusahjaya, Kec. Cibarusah, Kabupaten Bekasi, Jawa Barat 17340";"perum DITBEKANGAD blok A, Cibarusahjaya, Kec. Cibarusah, Kabupaten Bekasi";PAPUA;17340;Indonesia;089517064911;;;-64.333.593;1.070.609.849;https://maps.google.com/?cid=0x0:0xcb9e01c0ea716260;
supermarket;Toko bahan makanan;Warung Wanda;"R238+35M, Jl. Damai 2, RT.002/RW.017, Perwira, Kec. Bekasi Utara, Kota Bks, Jawa Barat 17124";"Jl. Damai 2, RT.002/RW.017, Perwira, Kec. Bekasi Utara, Kota Bks";PAPUA;17124;Indonesia;081280930337;;;-61.972.753;1.070.154.236;https://maps.google.com/?cid=0x0:0xc0042b321206b9c0;
supermarket;Toko bahan makanan;Wanda Food;"P23J+CRF, RT.002/RW.020, Mustikajaya, Kec. Mustika Jaya, Kota Bks, Jawa Barat 17158";"RT.002/RW.020, Mustikajaya, Kec. Mustika Jaya, Kota Bks";PAPUA;17158;Indonesia;083890348825;;;-62.966.847;1.070.320.722;https://maps.google.com/?cid=0x0:0x38eb734dc05e8cce;
supermarket;Toko bahan makanan;Warung wanda;"J497+424, Kp Jl. Pasir Randu, Sukasari, Kec. Serang Baru, Kabupaten Bekasi, Jawa Barat 17330";"Kp Jl. Pasir Randu, Sukasari, Kec. Serang Baru, Kabupaten Bekasi";PAPUA;17330;Indonesia;;;;-63.822.478;107.112.574;https://maps.google.com/?cid=0x0:0xdd413e1694eda58f;
supermarket;Toko bahan makanan;Toko Wanda Sayur;"Cipayung, Kec. Cipayung, Kota Depok, Jawa Barat";"Kota Depok, Jawa Barat";PAPUA;;Indonesia;;;;-64.145.265;1.067.978.936;https://maps.google.com/?cid=0x0:0x6822719f6746a393;
supermarket;Toko bahan makanan;TOKO WANDA;"Sukatani, Kec. Rajeg, Kabupaten Tangerang, Banten";"Kabupaten Tangerang, Banten";PAPUA;;Indonesia;;;;-61.279.801;1.064.948.478;https://maps.google.com/?cid=0x0:0xa4322856e55c4876;
supermarket;;TOKO WANDA;"Bantar Panjang, Kec. Tigaraksa, Kabupaten Tangerang, Banten";"Kabupaten Tangerang, Banten";PAPUA;;Indonesia;080505;;;-62.927.514;1.064.548.348;https://maps.google.com/?cid=0x0:0x970e8ee28ed77b6f;
supermarket;Pusat Perbelanjaan;Kios FMB;"97JM+3PJ, Uwagi, Bogobaida, Kabupaten Paniai, Papua 98854";"Uwagi, Bogobaida, Kabupaten Paniai";PAPUA;98854;Indonesia;;;;-36.197.993;1.362.842.795;https://maps.google.com/?cid=0x0:0x95809b0f7a1426b9;
supermarket;Toko bahan makanan;Kios Syauqy;"97HM+J2C, Uwagi, Bogobaida, Kabupaten Paniai, Papua 98854";"Uwagi, Bogobaida, Kabupaten Paniai";PAPUA;98854;Indonesia;;;;-36.209.365;1.362.825.214;https://maps.google.com/?cid=0x0:0xa5be475d84ad58bc;
supermarket;supermarket;Papua 98784;Papua;Papua;PAPUA;;Indonesia;;;;-32.495.346;1.364.393.054;https://maps.google.com/?cid=0x0:0xd10f2faf319bd4fe;
supermarket;supermarket;Kios dua pintu;"726Q+72, Bilogai, Kec. Sugapa, Kabupaten Intan Jaya, Papua";"Kabupaten Intan Jaya, Papua";PAPUA;;Indonesia;;;;-37.393.675;1.370.376.068;https://maps.google.com/?cid=0x0:0x5ff58a18b9b81348;
supermarket;supermarket;Papua 98768;"Kabupaten Intan Jaya, Papua";"Kabupaten Intan Jaya, Papua";PAPUA;;Indonesia;;;;-36.382.021;1.369.028.375;https://maps.google.com/?cid=0x0:0x902010d7989d7c6c;
supermarket;Pusat Perbelanjaan;Primo Supermarket Ridge Camp;"V4R2+62, Tembagapura, Kec. Tembagapura, Kabupaten Mimika, Papua 98972";"Tembagapura, Kec. Tembagapura, Kabupaten Mimika";PAPUA;98972;Indonesia;;;;-4.109.473;1.371.002.082;https://maps.google.com/?cid=0x0:0x759edca03c3b320f;
supermarket;Toko Swalayan;GrandLucky - SCBD;"Kawasan Niaga Terpadu Sudirman (SCBD, Jl. Jenderal Sudirman LOT-12, Senayan, Kec. Kby. Baru, Kota Jakarta Selatan, Daerah Khusus Ibukota Jakarta 12190";"Jl. Jenderal Sudirman LOT-12, Senayan, Kec. Kby. Baru, Kota Jakarta Selatan";PAPUA;12190;Indonesia;085183118632;;;-622.691;1.068.059.153;https://maps.google.com/?cid=0x0:0x4efcd0d8d64cad53;
