Category;Real Category;Business Name;Address;City;State;Postal Code;Country;Phone;Email;Website;Latitude;Longitude;Map Link;Details Link
"komplek housing";"komplek housing";"Papua 98768";"Kabupaten Intan Jaya, Papua";"Kabupaten Intan Jaya, Papua";"PAPUA";"";"Indonesia";"";"";"";"-3.6382021";"136.9028375";"https://maps.google.com/?cid=0x0:0x902010d7989d7c6c";""
"komplek housing";"Perhimpunan Pengembang Perumahan";"Rumah Cepu Malatuni-Sugapa Intan Jaya";"726R+4P3, Bilogai, Kec. Sugapa, Kabupaten Intan Jaya, Papua";"Kabupaten Intan Jaya, Papua";"PAPUA";"";"Indonesia";"";"";"";"-3.7397914";"137.040976";"https://maps.google.com/?cid=0x0:0xceeb19a27f8f9521";""
"komplek housing";"Pembangunan Perumahan";"Rujab wabup";"725R+JJ, Bilogai, Kec. Sugapa, Kabupaten Intan Jaya, Papua 98768";"Bilogai, Kec. Sugapa, Kabupaten Intan Jaya";"PAPUA";"98768";"Indonesia";"";"";"";"-3.7408325";"137.0422655";"https://maps.google.com/?cid=0x0:0xf50cd909c3d03047";""
"komplek housing";"Perhimpunan Pengembang Perumahan";"kampung Danggoa";"73JR+J4, Balamai, Distrik Agisiga, Kabupaten Intan Jaya, Papua";"Kabupaten Intan Jaya, Papua";"PAPUA";"";"Indonesia";"";"";"";"-3.7184052";"137.0902968";"https://maps.google.com/?cid=0x0:0xaf54e4132fbaaaa";""
"komplek housing";"Komplek perumahan";"Hatadipa";"74G4+2WH, Balamai, Distrik Agisiga, Kabupaten Intan Jaya, Papua 98971";"Balamai, Distrik Agisiga, Kabupaten Intan Jaya";"PAPUA";"98971";"Indonesia";"";"";"";"-3.724937";"137.1073519";"https://maps.google.com/?cid=0x0:0xaba467dd03aacb8";""
"komplek housing";"Pembangunan Perumahan";"Jaepone";"8P27+76Q, Mapa, Kec. Homeyo, Kabupaten Intan Jaya, Papua 98767";"Mapa, Kec. Homeyo, Kabupaten Intan Jaya";"PAPUA";"98767";"Indonesia";"";"";"";"-3.6992847";"136.7131061";"https://maps.google.com/?cid=0x0:0x159751a01f9ef572";""
"komplek housing";"Komplek perumahan";"Perumahan guru";"724X+VJ, Bilogai, Kec. Sugapa, Kabupaten Intan Jaya, Papua 98971";"Bilogai, Kec. Sugapa, Kabupaten Intan Jaya";"PAPUA";"98971";"Indonesia";"";"";"";"-3.7427609";"137.0491172";"https://maps.google.com/?cid=0x0:0x550b4cf3fa5a6d8c";""
"komplek housing";"komplek housing";"Komplek Housing";"Blok Bojong Nangka I, Jl. Ring Rudal Blok Bojong Nangka I No.68, RT.001/RW.007, Jatirahayu, Kec. Pd. Melati, Kota Bks, Jawa Barat 17414";"Jl. Ring Rudal Blok Bojong Nangka I No.68, RT.001/RW.007, Jatirahayu, Kec. Pd. Melati, Kota Bks";"PAPUA";"17414";"Indonesia";"";"";"";"-6.293724";"106.9165114";"https://maps.google.com/?cid=0x0:0x9c50464976dee674";""
"komplek housing";"komplek housing";"Papua 98769";"Papua";"Papua";"PAPUA";"";"Indonesia";"";"";"";"-3.4531316";"136.3240951";"https://maps.google.com/?cid=0x0:0xd28ed8bf27ec9c6b";""
"komplek housing";"komplek housing";"Kec. Sugapa";"Kabupaten Intan Jaya, Papua";"Kabupaten Intan Jaya, Papua";"PAPUA";"";"Indonesia";"";"";"";"-3.7397323";"137.0417997";"https://maps.google.com/?cid=0x0:0x484e91d781610f29";""
"komplek housing";"komplek housing";"Komplek Housing";"Blok Bojong Nangka I, Jl. Ring Rudal Blok Bojong Nangka I No.68, RT.001/RW.007, Jatirahayu, Kec. Pd. Melati, Kota Bks, Jawa Barat 17414";"Jl. Ring Rudal Blok Bojong Nangka I No.68, RT.001/RW.007, Jatirahayu, Kec. Pd. Melati, Kota Bks";"PAPUA";"17414";"Indonesia";"";"";"";"-6.293724";"106.9165114";"https://maps.google.com/?cid=0x0:0x9c50464976dee674";""
"komplek housing";"Pembangunan Perumahan";"Jaepone";"8P27+76Q, Mapa, Kec. Homeyo, Kabupaten Intan Jaya, Papua 98767";"Mapa, Kec. Homeyo, Kabupaten Intan Jaya";"PAPUA";"98767";"Indonesia";"";"";"";"-3.6992847";"136.7131061";"https://maps.google.com/?cid=0x0:0x159751a01f9ef572";""
"komplek housing";"Komplek perumahan";"Beogasigani jagani";"7PW7+G8, jae No.1, Mapa, Kec. Homeyo, Kabupaten Intan Jaya, Papua";"Kabupaten Intan Jaya, Papua";"PAPUA";"";"Indonesia";"";"";"";"-3.7036875";"136.7133125";"https://maps.google.com/?cid=0x0:0x48a45186261c6225";""
"komplek housing";"komplek housing";"Kec. Homeyo";"Kabupaten Intan Jaya, Papua";"Kabupaten Intan Jaya, Papua";"PAPUA";"";"Indonesia";"";"";"";"-3.7386821";"136.8570279";"https://maps.google.com/?cid=0x0:0x13d71833d8d524a9";""
"komplek housing";"komplek housing";"Kec. Homeyo";"Kabupaten Intan Jaya, Papua";"Kabupaten Intan Jaya, Papua";"PAPUA";"";"Indonesia";"";"";"";"-3.7386821";"136.8570279";"https://maps.google.com/?cid=0x0:0x13d71833d8d524a9";""
"komplek housing";"Komplek perumahan";"Pondok gede housing";"PW69+G7J, Jl. Teratai, RT.005/RW.003, Jatirahayu, Kec. Pd. Melati, Kota Bks, Jawa Barat 17414";"Jl. Teratai, RT.005/RW.003, Jatirahayu, Kec. Pd. Melati, Kota Bks";"PAPUA";"17414";"Indonesia";"";"";"";"-6.2886631";"106.9181392";"https://maps.google.com/?cid=0x0:0xe09247830c5049e9";""
"komplek housing";"Komplek perumahan";"KAVLING 10";"Jl. Kp. Sawah Hilir, Mekarjaya, Kec. Ciomas, Kabupaten Bogor, Jawa Barat 16610";"Mekarjaya, Kec. Ciomas, Kabupaten Bogor";"PAPUA";"16610";"Indonesia";"";"";"";"-6.6129155";"106.7783074";"https://maps.google.com/?cid=0x0:0xfdd499229f289751";""
"komplek housing";"Komplek perumahan";"Perumahan Citra Indah City Jonggol";"Jl. Raya Cileungsi - Jonggol No.Km.23, Sukamaju, Kec. Jonggol, Kabupaten Bogor, Jawa Barat 16830";"Sukamaju, Kec. Jonggol, Kabupaten Bogor";"PAPUA";"16830";"Indonesia";" 081281106515";"";"";"-6.4398138";"107.0493173";"https://maps.google.com/?cid=0x0:0xf4294b08f982b372";""
"komplek housing";"komplek housing";"Homeyy";"PWQ4+76W, Jl. Batu Tumbuh, RT.008/RW.005, Jaticempaka, Kec. Pd. Gede, Kota Bks, Jawa Barat 13620";"Jl. Batu Tumbuh, RT.008/RW.005, Jaticempaka, Kec. Pd. Gede, Kota Bks";"PAPUA";"13620";"Indonesia";"";"";"";"-6.2617657";"106.9055936";"https://maps.google.com/?cid=0x0:0xfd83f8a4979cf45d";""
"komplek housing";"Pembangunan Perumahan";"A. Wandany";"W838+MPG, Persatuan, Kec. Mandobo, Kabupaten Boven Digoel, Papua 99663";"Persatuan, Kec. Mandobo, Kabupaten Boven Digoel";"PAPUA";"99663";"Indonesia";"";"";"";"-6.0958075";"140.3168202";"https://maps.google.com/?cid=0x0:0x6a4afd3a5ccdf7d4";""
"komplek housing";"Komplek perumahan";"Perumahan Ambonggo";"W868+P9P, Unnamed Road, Persatuan, Kec. Mandobo, Kabupaten Boven Digoel, Papua 99663";"Unnamed Road, Persatuan, Kec. Mandobo, Kabupaten Boven Digoel";"PAPUA";"99663";"Indonesia";"";"";"";"-6.0881572";"140.3159401";"https://maps.google.com/?cid=0x0:0x4ae63b1f7fa71be7";""
"komplek housing";"komplek housing";"Wandai";"Sabisa, Distrik Wandai, Kabupaten Intan Jaya, Papua";"Kabupaten Intan Jaya, Papua";"PAPUA";"";"Indonesia";"";"";"";"-3.703004";"136.680496";"https://maps.google.com/?cid=0x0:0x987e45212eb83434";""
"komplek housing";"komplek housing";"Wanda";"Jl. Danau Poso 5 No.32, RT.002, Bencongan Indah, Kec. Klp. Dua, Kabupaten Tangerang, Banten 15138";"RT.002, Bencongan Indah, Kec. Klp. Dua, Kabupaten Tangerang";"PAPUA";"15138";"Indonesia";"";"";"";"-6.2148455";"106.5962483";"https://maps.google.com/?cid=0x0:0x50db1c88f1307323";""
"komplek housing";"Rumah wisata";"winda wanda winna";"Jl. Asri No.32 2, RT.2/RW.7, Halim Perdanakusuma, Kec. Makasar, Kota Jakarta Timur, Daerah Khusus Ibukota Jakarta 13610";"RT.2/RW.7, Halim Perdanakusuma, Kec. Makasar, Kota Jakarta Timur";"PAPUA";"13610";"Indonesia";"";"";"";"-6.266374";"106.880034";"https://maps.google.com/?cid=0x0:0x4a74d817e6829572";""
"komplek housing";"komplek housing";"Wanda home stay";"P2M4+FR6, Jl. Mandor Lenggu, RT.004/RW.028, Pengasinan, Kec. Rawalumbu, Kota Bks, Jawa Barat 17115";"Jl. Mandor Lenggu, RT.004/RW.028, Pengasinan, Kec. Rawalumbu, Kota Bks";"PAPUA";"17115";"Indonesia";"";"";"";"-6.2663347";"107.0070177";"https://maps.google.com/?cid=0x0:0x9667a4be013e0ca5";""
"komplek housing";"komplek housing";"Papua 98784";"Papua";"Papua";"PAPUA";"";"Indonesia";"";"";"";"-3.2495346";"136.4393054";"https://maps.google.com/?cid=0x0:0xd10f2faf319bd4fe";""
"komplek housing";"komplek housing";"Dawoa kompleks";"PH49+HM, Yanei, Mambai, Kabupaten Waropen, Papua";"Kabupaten Waropen, Papua";"PAPUA";"";"Indonesia";"";"";"";"-3.2935625";"136.5691875";"https://maps.google.com/?cid=0x0:0x19a14eff7e2d6efe";""
"komplek housing";"Pembangunan Perumahan";"BALINDA HOME";"5M4C+H6F, Firo, Inggerus, Kabupaten Waropen, Papua";"Kabupaten Waropen, Papua";"PAPUA";"";"Indonesia";"";"";"";"-2.8435717";"136.670534";"https://maps.google.com/?cid=0x0:0x7d5f84ec63c6d7b";""
"komplek housing";"Komplek perumahan";"Wapoga";"7HF2+VG8, Otodemo, Inggerus, Kabupaten Waropen, Papua 98261";"Otodemo, Inggerus, Kabupaten Waropen";"PAPUA";"98261";"Indonesia";"";"";"";"-2.7253326";"136.5513183";"https://maps.google.com/?cid=0x0:0x6bd1a0f020cbc87f";""
"komplek housing";"Komplek perumahan";"kampung Otodemo distrik Inggerus";"5C9G+JF, Syewa/Mirare, Wapoga, Kabupaten Waropen, Papua";"Kabupaten Waropen, Papua";"PAPUA";"";"Indonesia";"";"";"";"-2.8309691";"136.4262139";"https://maps.google.com/?cid=0x0:0xe09f4df316288642";""
"komplek housing";"komplek housing";"Biandoga";"Kabupaten Intan Jaya, Papua";"Kabupaten Intan Jaya, Papua";"PAPUA";"";"Indonesia";"";"";"";"-3.3780867";"136.5933382";"https://maps.google.com/?cid=0x0:0x1176a59af3ca718d";""
"komplek housing";"komplek housing";"Distrik Agisiga";"Kabupaten Intan Jaya, Papua";"Kabupaten Intan Jaya, Papua";"PAPUA";"";"Indonesia";"";"";"";"-3.7319536";"137.0926922";"https://maps.google.com/?cid=0x0:0xd5984dfd8c3b468d";""
"komplek housing";"Perhimpunan Pengembang Perumahan";"kampung Danggoa";"73JR+J4, Balamai, Distrik Agisiga, Kabupaten Intan Jaya, Papua";"Kabupaten Intan Jaya, Papua";"PAPUA";"";"Indonesia";"";"";"";"-3.7184052";"137.0902968";"https://maps.google.com/?cid=0x0:0xaf54e4132fbaaaa";""
"komplek housing";"Komplek perumahan";"Hatadipa";"74G4+2WH, Balamai, Distrik Agisiga, Kabupaten Intan Jaya, Papua 98971";"Balamai, Distrik Agisiga, Kabupaten Intan Jaya";"PAPUA";"98971";"Indonesia";"";"";"";"-3.724937";"137.1073519";"https://maps.google.com/?cid=0x0:0xaba467dd03aacb8";""
"komplek housing";"Perhimpunan Pengembang Perumahan";"Rumah Cepu Malatuni-Sugapa Intan Jaya";"726R+4P3, Bilogai, Kec. Sugapa, Kabupaten Intan Jaya, Papua";"Kabupaten Intan Jaya, Papua";"PAPUA";"";"Indonesia";"";"";"";"-3.7397914";"137.040976";"https://maps.google.com/?cid=0x0:0xceeb19a27f8f9521";""
"komplek housing";"Jasa Konstruksi dan Bangunan";"Barak Dinas PUPR Intan Jaya";"62QX+9CW, Bilogai, Kec. Sugapa, Kabupaten Intan Jaya, Papua";"Kabupaten Intan Jaya, Papua";"PAPUA";"";"Indonesia";"";"";"";"-3.7615148";"137.0485715";"https://maps.google.com/?cid=0x0:0xb8debaa3d2481462";""
"komplek housing";"Pembangunan Perumahan";"Rujab wabup";"725R+JJ, Bilogai, Kec. Sugapa, Kabupaten Intan Jaya, Papua 98768";"Bilogai, Kec. Sugapa, Kabupaten Intan Jaya";"PAPUA";"98768";"Indonesia";"";"";"";"-3.7408325";"137.0422655";"https://maps.google.com/?cid=0x0:0xf50cd909c3d03047";""
"komplek housing";"komplek housing";"Papua 98768";"Kabupaten Intan Jaya, Papua";"Kabupaten Intan Jaya, Papua";"PAPUA";"";"Indonesia";"";"";"";"-3.6382021";"136.9028375";"https://maps.google.com/?cid=0x0:0x902010d7989d7c6c";""
"komplek housing";"Perhimpunan Pengembang Perumahan";"Rumah Cepu Malatuni-Sugapa Intan Jaya";"726R+4P3, Bilogai, Kec. Sugapa, Kabupaten Intan Jaya, Papua";"Kabupaten Intan Jaya, Papua";"PAPUA";"";"Indonesia";"";"";"";"-3.7397914";"137.040976";"https://maps.google.com/?cid=0x0:0xceeb19a27f8f9521";""
"komplek housing";"Pembangunan Perumahan";"Rujab wabup";"725R+JJ, Bilogai, Kec. Sugapa, Kabupaten Intan Jaya, Papua 98768";"Bilogai, Kec. Sugapa, Kabupaten Intan Jaya";"PAPUA";"98768";"Indonesia";"";"";"";"-3.7408325";"137.0422655";"https://maps.google.com/?cid=0x0:0xf50cd909c3d03047";""
"komplek housing";"Pembangunan Perumahan";"Jaepone";"8P27+76Q, Mapa, Kec. Homeyo, Kabupaten Intan Jaya, Papua 98767";"Mapa, Kec. Homeyo, Kabupaten Intan Jaya";"PAPUA";"98767";"Indonesia";"";"";"";"-3.6992847";"136.7131061";"https://maps.google.com/?cid=0x0:0x159751a01f9ef572";""
"komplek housing";"Jasa Konstruksi dan Bangunan";"Barak Dinas PUPR Intan Jaya";"62QX+9CW, Bilogai, Kec. Sugapa, Kabupaten Intan Jaya, Papua";"Kabupaten Intan Jaya, Papua";"PAPUA";"";"Indonesia";"";"";"";"-3.7615148";"137.0485715";"https://maps.google.com/?cid=0x0:0xb8debaa3d2481462";""
"komplek housing";"Perhimpunan Pengembang Perumahan";"kampung Danggoa";"73JR+J4, Balamai, Distrik Agisiga, Kabupaten Intan Jaya, Papua";"Kabupaten Intan Jaya, Papua";"PAPUA";"";"Indonesia";"";"";"";"-3.7184052";"137.0902968";"https://maps.google.com/?cid=0x0:0xaf54e4132fbaaaa";""
"komplek housing";"Komplek perumahan";"Tege";"3WRP+M49, Dogomo, Dumadama, Kabupaten Paniai, Papua 98767";"Dogomo, Dumadama, Kabupaten Paniai";"PAPUA";"98767";"Indonesia";"";"";"";"-3.908327";"136.9353446";"https://maps.google.com/?cid=0x0:0xfd8d9b17b9ab02a";""
"komplek housing";"Komplek perumahan";"Perumahan guru";"724X+VJ, Bilogai, Kec. Sugapa, Kabupaten Intan Jaya, Papua 98971";"Bilogai, Kec. Sugapa, Kabupaten Intan Jaya";"PAPUA";"98971";"Indonesia";"";"";"";"-3.7427609";"137.0491172";"https://maps.google.com/?cid=0x0:0x550b4cf3fa5a6d8c";""
"perumahan";"perumahan";"Papua 98768";"Kabupaten Intan Jaya, Papua";"Kabupaten Intan Jaya, Papua";"PAPUA";"";"Indonesia";"";"";"";"-3.6382021";"136.9028375";"https://maps.google.com/?cid=0x0:0x902010d7989d7c6c";""
"perumahan";"Perhimpunan Pengembang Perumahan";"Rumah Cepu Malatuni-Sugapa Intan Jaya";"726R+4P3, Bilogai, Kec. Sugapa, Kabupaten Intan Jaya, Papua";"Kabupaten Intan Jaya, Papua";"PAPUA";"";"Indonesia";"";"";"";"-3.7397914";"137.040976";"https://maps.google.com/?cid=0x0:0xceeb19a27f8f9521";""
"perumahan";"Pembangunan Perumahan";"Rujab wabup";"725R+JJ, Bilogai, Kec. Sugapa, Kabupaten Intan Jaya, Papua 98768";"Bilogai, Kec. Sugapa, Kabupaten Intan Jaya";"PAPUA";"98768";"Indonesia";"";"";"";"-3.7408325";"137.0422655";"https://maps.google.com/?cid=0x0:0xf50cd909c3d03047";""
"perumahan";"Jasa Konstruksi dan Bangunan";"Barak Dinas PUPR Intan Jaya";"62QX+9CW, Bilogai, Kec. Sugapa, Kabupaten Intan Jaya, Papua";"Kabupaten Intan Jaya, Papua";"PAPUA";"";"Indonesia";"";"";"";"-3.7615148";"137.0485715";"https://maps.google.com/?cid=0x0:0xb8debaa3d2481462";""
"perumahan";"Perhimpunan Pengembang Perumahan";"kampung Danggoa";"73JR+J4, Balamai, Distrik Agisiga, Kabupaten Intan Jaya, Papua";"Kabupaten Intan Jaya, Papua";"PAPUA";"";"Indonesia";"";"";"";"-3.7184052";"137.0902968";"https://maps.google.com/?cid=0x0:0xaf54e4132fbaaaa";""
"perumahan";"Komplek perumahan";"Dinas Perumahan dan Kawasan Permukiman Kabupaten Intan Jaya";"Jln, Yokatapa, Kec. Sugapa, Kabupaten Intan Jaya, Papua 98768";"Yokatapa, Kec. Sugapa, Kabupaten Intan Jaya";"PAPUA";"98768";"Indonesia";" 082323339791";"";"";"-3.7591431";"137.0096682";"https://maps.google.com/?cid=0x0:0xa0598a0c8652cca5";""
"perumahan";"Perhimpunan Pengembang Perumahan";"Jenetapa janasiga";"74CR+RMP, Yaikimaki, Gome, Kabupaten Intan Jaya, Papua";"Kabupaten Intan Jaya, Papua";"PAPUA";"";"Indonesia";"";"";"";"-3.7279207";"137.1416929";"https://maps.google.com/?cid=0x0:0x3c558650ec9458e5";""
"perumahan";"perumahan";"Kec. Sugapa";"Kabupaten Intan Jaya, Papua";"Kabupaten Intan Jaya, Papua";"PAPUA";"";"Indonesia";"";"";"";"-3.7397323";"137.0417997";"https://maps.google.com/?cid=0x0:0x484e91d781610f29";""
"perumahan";"Komplek perumahan";"Beogasigani jagani";"7PW7+G8, jae No.1, Mapa, Kec. Homeyo, Kabupaten Intan Jaya, Papua";"Kabupaten Intan Jaya, Papua";"PAPUA";"";"Indonesia";"";"";"";"-3.7036875";"136.7133125";"https://maps.google.com/?cid=0x0:0x48a45186261c6225";""
"perumahan";"Perhimpunan Pengembang Perumahan";"Kamp.Tausiga";"Pugisiga, Distrik Agisiga, Kabupaten Intan Jaya, Papua 98971";"Distrik Agisiga, Kabupaten Intan Jaya";"PAPUA";"98971";"Indonesia";"";"";"";"-3.72149";"137.1019057";"https://maps.google.com/?cid=0x0:0xdbaf662abde1b953";""
"perumahan";"Perhimpunan Pengembang Perumahan";"Pogapa";"6VP3+2PH, Pogapa, Kec. Homeyo, Kabupaten Intan Jaya, Papua";"Kabupaten Intan Jaya, Papua";"PAPUA";"";"Indonesia";"";"";"";"-3.764927";"136.8543525";"https://maps.google.com/?cid=0x0:0x629055230eff1d8";""
"perumahan";"Pusat Asrama Siswa";"intan jaya Sugapa Papua";"5378+MRC, Amban, Kec. Manokwari Bar., Kabupaten Intan Jaya, Papua";"Kabupaten Intan Jaya, Papua";"PAPUA";"";"Indonesia";"";"";"";"-0.8358116";"134.0670084";"https://maps.google.com/?cid=0x0:0x1e247504663e4a25";""
"perumahan";"Perhimpunan Pengembang Perumahan";"Kamp.Bamogo,Agisiga";"FPRX+W4X, Yagaito, Bamogo, Kabupaten Intan Jaya, Papua";"Kabupaten Intan Jaya, Papua";"PAPUA";"";"Indonesia";"";"";"";"-3.5076422";"136.7478493";"https://maps.google.com/?cid=0x0:0xca29a6e42db02d89";""
"perumahan";"Perhimpunan Pengembang Perumahan";"Kamp.Nabia";"FPRX+W4X, Yagaito, Nabia, Kabupaten Intan Jaya, Papua";"Kabupaten Intan Jaya, Papua";"PAPUA";"";"Indonesia";"";"";"";"-3.5076422";"136.7478493";"https://maps.google.com/?cid=0x0:0xbf48fa9d05a9301a";""
"perumahan";"Perhimpunan Pengembang Perumahan";"Pogapa,Distrik Homeyo";"7R2Q+5XP, Pogapa, Kec. Homeyo, Kabupaten Intan Jaya, Papua";"Kabupaten Intan Jaya, Papua";"PAPUA";"";"Indonesia";"";"";"";"-3.7495351";"136.8399474";"https://maps.google.com/?cid=0x0:0x329807ac6faa2320";""
"perumahan";"Perhimpunan Pengembang Perumahan";"Kamp.Soali";"73MH+298, Soali, Distrik Agisiga, Kabupaten Intan Jaya, Papua";"Kabupaten Intan Jaya, Papua";"PAPUA";"";"Indonesia";"";"";"";"-3.7174678";"137.0784666";"https://maps.google.com/?cid=0x0:0x94ea8b77f2d8e6d6";""
"perumahan";"Perhimpunan Pengembang Perumahan";"Kamp.Nabia";"8636+577, Yaikimaki, Gome, Kabupaten Intan Jaya, Papua";"Kabupaten Intan Jaya, Papua";"PAPUA";"";"Indonesia";"";"";"";"-3.6970841";"137.2106666";"https://maps.google.com/?cid=0x0:0xf1cbda281fd17a67";""
"perumahan";"Pembangunan Perumahan";"Jaepone";"8P27+76Q, Mapa, Kec. Homeyo, Kabupaten Intan Jaya, Papua 98767";"Mapa, Kec. Homeyo, Kabupaten Intan Jaya";"PAPUA";"98767";"Indonesia";"";"";"";"-3.6992847";"136.7131061";"https://maps.google.com/?cid=0x0:0x159751a01f9ef572";""
"perumahan";"perumahan";"Joni House";"725R+M5V, Bilogai, Kec. Sugapa, Kabupaten Intan Jaya, Papua";"Kabupaten Intan Jaya, Papua";"PAPUA";"";"Indonesia";"";"";"";"-3.7407556";"137.0404278";"https://maps.google.com/?cid=0x0:0x62ab769a4a817223";""
"perumahan";"Perhimpunan Pengembang Perumahan";"Timitagi tapa";"7R3P+83, Pogapa, Kec. Homeyo, Kabupaten Intan Jaya, Papua";"Kabupaten Intan Jaya, Papua";"PAPUA";"";"Indonesia";"";"";"";"-3.74663";"136.835236";"https://maps.google.com/?cid=0x0:0x1e10e9be7c5a10b7";""
"perumahan";"Lapangan Bola Tangan";"Bandar Udara Bilogai Sugapa";"726J+5QG, Bilogai, Kec. Sugapa, Kabupaten Intan Jaya, Papua 98768";"Bilogai, Kec. Sugapa, Kabupaten Intan Jaya";"PAPUA";"98768";"Indonesia";"";"";"";"-3.7395623";"137.0319626";"https://maps.google.com/?cid=0x0:0x796c2505fa08db3f";""
"perumahan";"Komplek perumahan";"Hatadipa";"74G4+2WH, Balamai, Distrik Agisiga, Kabupaten Intan Jaya, Papua 98971";"Balamai, Distrik Agisiga, Kabupaten Intan Jaya";"PAPUA";"98971";"Indonesia";"";"";"";"-3.724937";"137.1073519";"https://maps.google.com/?cid=0x0:0xaba467dd03aacb8";""
"perumahan";"perumahan";"Papua 98769";"Papua";"Papua";"PAPUA";"";"Indonesia";"";"";"";"-3.4531316";"136.3240951";"https://maps.google.com/?cid=0x0:0xd28ed8bf27ec9c6b";""
"perumahan";"perumahan";"Kec. Sugapa";"Kabupaten Intan Jaya, Papua";"Kabupaten Intan Jaya, Papua";"PAPUA";"";"Indonesia";"";"";"";"-3.7397323";"137.0417997";"https://maps.google.com/?cid=0x0:0x484e91d781610f29";""
"perumahan";"Perhimpunan Pengembang Perumahan";"Rumah Cepu Malatuni-Sugapa Intan Jaya";"726R+4P3, Bilogai, Kec. Sugapa, Kabupaten Intan Jaya, Papua";"Kabupaten Intan Jaya, Papua";"PAPUA";"";"Indonesia";"";"";"";"-3.7397914";"137.040976";"https://maps.google.com/?cid=0x0:0xceeb19a27f8f9521";""
"perumahan";"Komplek perumahan";"Perumahan guru";"724X+VJ, Bilogai, Kec. Sugapa, Kabupaten Intan Jaya, Papua 98971";"Bilogai, Kec. Sugapa, Kabupaten Intan Jaya";"PAPUA";"98971";"Indonesia";"";"";"";"-3.7427609";"137.0491172";"https://maps.google.com/?cid=0x0:0x550b4cf3fa5a6d8c";""
"perumahan";"Pembangunan Perumahan";"Rujab wabup";"725R+JJ, Bilogai, Kec. Sugapa, Kabupaten Intan Jaya, Papua 98768";"Bilogai, Kec. Sugapa, Kabupaten Intan Jaya";"PAPUA";"98768";"Indonesia";"";"";"";"-3.7408325";"137.0422655";"https://maps.google.com/?cid=0x0:0xf50cd909c3d03047";""
"perumahan";"Jasa Konstruksi dan Bangunan";"Barak Dinas PUPR Intan Jaya";"62QX+9CW, Bilogai, Kec. Sugapa, Kabupaten Intan Jaya, Papua";"Kabupaten Intan Jaya, Papua";"PAPUA";"";"Indonesia";"";"";"";"-3.7615148";"137.0485715";"https://maps.google.com/?cid=0x0:0xb8debaa3d2481462";""
"perumahan";"Perhimpunan Pengembang Perumahan";"Kamp.Tausiga";"Pugisiga, Distrik Agisiga, Kabupaten Intan Jaya, Papua 98971";"Distrik Agisiga, Kabupaten Intan Jaya";"PAPUA";"98971";"Indonesia";"";"";"";"-3.72149";"137.1019057";"https://maps.google.com/?cid=0x0:0xdbaf662abde1b953";""
"perumahan";"Perhimpunan Pengembang Perumahan";"Jenetapa janasiga";"74CR+RMP, Yaikimaki, Gome, Kabupaten Intan Jaya, Papua";"Kabupaten Intan Jaya, Papua";"PAPUA";"";"Indonesia";"";"";"";"-3.7279207";"137.1416929";"https://maps.google.com/?cid=0x0:0x3c558650ec9458e5";""
"perumahan";"Lapangan Bola Tangan";"Bandar Udara Bilogai Sugapa";"726J+5QG, Bilogai, Kec. Sugapa, Kabupaten Intan Jaya, Papua 98768";"Bilogai, Kec. Sugapa, Kabupaten Intan Jaya";"PAPUA";"98768";"Indonesia";"";"";"";"-3.7395623";"137.0319626";"https://maps.google.com/?cid=0x0:0x796c2505fa08db3f";""
"perumahan";"Perhimpunan Pengembang Perumahan";"Kamp.Bamogo,Agisiga";"73CP+VQ, Balamai, Bamogo, Kabupaten Intan Jaya, Papua";"Kabupaten Intan Jaya, Papua";"PAPUA";"";"Indonesia";"";"";"";"-3.7277721";"137.0869681";"https://maps.google.com/?cid=0x0:0xa1a1bed4be62ef04";""
"perumahan";"Komplek perumahan";"Dinas Perumahan dan Kawasan Permukiman Kabupaten Intan Jaya";"Jln, Yokatapa, Kec. Sugapa, Kabupaten Intan Jaya, Papua 98768";"Yokatapa, Kec. Sugapa, Kabupaten Intan Jaya";"PAPUA";"98768";"Indonesia";" 082323339791";"";"";"-3.7591431";"137.0096682";"https://maps.google.com/?cid=0x0:0xa0598a0c8652cca5";""
"perumahan";"Perhimpunan Pengembang Perumahan";"Kamp.Soali";"73MH+298, Soali, Distrik Agisiga, Kabupaten Intan Jaya, Papua";"Kabupaten Intan Jaya, Papua";"PAPUA";"";"Indonesia";"";"";"";"-3.7174678";"137.0784666";"https://maps.google.com/?cid=0x0:0x94ea8b77f2d8e6d6";""
"perumahan";"Komplek perumahan";"Hatadipa";"74G4+2WH, Balamai, Distrik Agisiga, Kabupaten Intan Jaya, Papua 98971";"Balamai, Distrik Agisiga, Kabupaten Intan Jaya";"PAPUA";"98971";"Indonesia";"";"";"";"-3.724937";"137.1073519";"https://maps.google.com/?cid=0x0:0xaba467dd03aacb8";""
"perumahan";"perumahan";"Papua 98767";"Kabupaten Intan Jaya, Papua";"Kabupaten Intan Jaya, Papua";"PAPUA";"";"Indonesia";"";"";"";"-3.7788615";"136.7091767";"https://maps.google.com/?cid=0x0:0xfc7ec60d3a7f14c";""
"perumahan";"Pembangunan Perumahan";"Jaepone";"8P27+76Q, Mapa, Kec. Homeyo, Kabupaten Intan Jaya, Papua 98767";"Mapa, Kec. Homeyo, Kabupaten Intan Jaya";"PAPUA";"98767";"Indonesia";"";"";"";"-3.6992847";"136.7131061";"https://maps.google.com/?cid=0x0:0x159751a01f9ef572";""
"perumahan";"Perhimpunan Pengembang Perumahan";"Pogapa,Distrik Homeyo";"7R2Q+5XP, Pogapa, Kec. Homeyo, Kabupaten Intan Jaya, Papua";"Kabupaten Intan Jaya, Papua";"PAPUA";"";"Indonesia";"";"";"";"-3.7495351";"136.8399474";"https://maps.google.com/?cid=0x0:0x329807ac6faa2320";""
"perumahan";"Perhimpunan Pengembang Perumahan";"Pogapa";"6VP3+2PH, Pogapa, Kec. Homeyo, Kabupaten Intan Jaya, Papua";"Kabupaten Intan Jaya, Papua";"PAPUA";"";"Indonesia";"";"";"";"-3.764927";"136.8543525";"https://maps.google.com/?cid=0x0:0x629055230eff1d8";""
"perumahan";"perumahan";"Papua 98769";"Papua";"Papua";"PAPUA";"";"Indonesia";"";"";"";"-3.4531316";"136.3240951";"https://maps.google.com/?cid=0x0:0xd28ed8bf27ec9c6b";""
"perumahan";"Otoritas Perumahan";"PURI HARMONI 9";"Jl. Puri Harmoni 9, Cikahuripan, Kec. Klapanunggal, Kabupaten Bogor, Jawa Barat 16710";"Cikahuripan, Kec. Klapanunggal, Kabupaten Bogor";"PAPUA";"16710";"Indonesia";"";"";"";"-6.4485728";"106.9724622";"https://maps.google.com/?cid=0x0:0xe2bf9e68ff382777";""
"perumahan";"Komplek perumahan";"Perumahan Graha Cipta 5 Jejalen";"Jejalenjaya, Kec. Tambun Utara, Kabupaten Bekasi, Jawa Barat 17510";"Kec. Tambun Utara, Kabupaten Bekasi";"PAPUA";"17510";"Indonesia";" 081315755470";"";"";"-6.2098759";"107.0744829";"https://maps.google.com/?cid=0x0:0x4e428bb84a21f83f";""
"perumahan";"perumahan";"Wandai";"Sabisa, Distrik Wandai, Kabupaten Intan Jaya, Papua";"Kabupaten Intan Jaya, Papua";"PAPUA";"";"Indonesia";"";"";"";"-3.703004";"136.680496";"https://maps.google.com/?cid=0x0:0x987e45212eb83434";""
"perumahan";"perumahan";"Kec. Tebet";"Kota Jakarta Selatan, Daerah Khusus Ibukota Jakarta";"Kota Jakarta Selatan, Daerah Khusus Ibukota Jakarta";"PAPUA";"";"Indonesia";"";"";"";"-6.2251223";"106.8549881";"https://maps.google.com/?cid=0x0:0xd575e31c807295f9";""
"perumahan";"Komplek perumahan";"Wanda";"Jl. Bahagia I No.29, RT.001/RW.019, Margahayu, Kec. Bekasi Tim., Kota Bks, Jawa Barat 17113";"RT.001/RW.019, Margahayu, Kec. Bekasi Tim., Kota Bks";"PAPUA";"17113";"Indonesia";"";"";"";"-6.2578534";"107.0165821";"https://maps.google.com/?cid=0x0:0x1834cbe006ea08ce";""
"perumahan";"Pembangunan Perumahan";"rumah wanda";"Blk. F1-F2 No.26, Cilebut Bar., Kec. Sukaraja, Kabupaten Bogor, Jawa Barat 16710";"Cilebut Bar., Kec. Sukaraja, Kabupaten Bogor";"PAPUA";"16710";"Indonesia";"";"";"";"-6.5274777";"106.7965293";"https://maps.google.com/?cid=0x0:0xc3c37f7017fec40d";""
"perumahan";"Komplek perumahan";"Rumah Wanda";"Jl. Manggis 2 No.2, Telagamurni, Kec. Cikarang Bar., Kabupaten Bekasi, Jawa Barat 17530";"Telagamurni, Kec. Cikarang Bar., Kabupaten Bekasi";"PAPUA";"17530";"Indonesia";"";"";"";"-6.2594423";"107.1138565";"https://maps.google.com/?cid=0x0:0x6f98336e3f6f4ef3";""
"perumahan";"Inspektur Tempat Tinggal";"Rumah Wanday";"Jl. Depok Indah I No.29, RT.03/RW.17, Kemiri Muka, Kecamatan Beji, Kota Depok, Jawa Barat 16423";"RT.03/RW.17, Kemiri Muka, Kecamatan Beji, Kota Depok";"PAPUA";"16423";"Indonesia";"";"";"";"-6.3880875";"106.8310821";"https://maps.google.com/?cid=0x0:0xda36a45d389013bf";""
"perumahan";"Komplek perumahan";"Rumah Wanda";"Perumahan Royal, Jl. Cikeas Residence, RT.04/RW.20, Cikeas Udik, Gunung Putri, Bogor Regency, West Java";"Kabupaten Bogor, Jawa Barat";"PAPUA";"";"Indonesia";"";"";"";"-6.4236163";"106.92516";"https://maps.google.com/?cid=0x0:0x56f1161683d4836d";""
"perumahan";"perumahan";"Papua 98784";"Papua";"Papua";"PAPUA";"";"Indonesia";"";"";"";"-3.2495346";"136.4393054";"https://maps.google.com/?cid=0x0:0xd10f2faf319bd4fe";""
"perumahan";"perumahan";"Dawoa kompleks";"PH49+HM, Yanei, Mambai, Kabupaten Waropen, Papua";"Kabupaten Waropen, Papua";"PAPUA";"";"Indonesia";"";"";"";"-3.2935625";"136.5691875";"https://maps.google.com/?cid=0x0:0x19a14eff7e2d6efe";""
"perumahan";"Komplek perumahan";"PLTS Tanah merah";"R6GV+8F, Mabou, Siriwo, Kabupaten Nabire, Papua";"Kabupaten Nabire, Papua";"PAPUA";"";"Indonesia";"";"";"";"-3.1741927";"136.2436592";"https://maps.google.com/?cid=0x0:0xb605e4850ea6c64";""
"perumahan";"Pembangunan Perumahan";"Taumi";"P53Q+G2P, Tibai, Siriwo, Kabupaten Nabire, Papua 98784";"Tibai, Siriwo, Kabupaten Nabire";"PAPUA";"98784";"Indonesia";"";"";"";"-3.2964";"136.187";"https://maps.google.com/?cid=0x0:0xdcb4ede924703614";""
"perumahan";"Perhimpunan Pengembang Perumahan";"Kamp.Nabia";"FPRX+W4X, Yagaito, Nabia, Kabupaten Intan Jaya, Papua";"Kabupaten Intan Jaya, Papua";"PAPUA";"";"Indonesia";"";"";"";"-3.5076422";"136.7478493";"https://maps.google.com/?cid=0x0:0xbf48fa9d05a9301a";""
"perumahan";"Perhimpunan Pengembang Perumahan";"Kamp.Bamogo,Agisiga";"FPRX+W4X, Yagaito, Bamogo, Kabupaten Intan Jaya, Papua";"Kabupaten Intan Jaya, Papua";"PAPUA";"";"Indonesia";"";"";"";"-3.5076422";"136.7478493";"https://maps.google.com/?cid=0x0:0xca29a6e42db02d89";""
"perumahan";"perumahan";"Rumah Ujung";"QC98+57, RT.sp/RW.5, jalur 2 barat, Biandoga, Kabupaten Waropen, Papua";"Kabupaten Waropen, Papua";"PAPUA";"";"Indonesia";"";"";"";"-3.2320625";"136.4156875";"https://maps.google.com/?cid=0x0:0x2f597fcea5555a3b";""
"perumahan";"perumahan";"Distrik Agisiga";"Kabupaten Intan Jaya, Papua";"Kabupaten Intan Jaya, Papua";"PAPUA";"";"Indonesia";"";"";"";"-3.7319536";"137.0926922";"https://maps.google.com/?cid=0x0:0xd5984dfd8c3b468d";""
"perumahan";"Perhimpunan Pengembang Perumahan";"kampung Danggoa";"73JR+J4, Balamai, Distrik Agisiga, Kabupaten Intan Jaya, Papua";"Kabupaten Intan Jaya, Papua";"PAPUA";"";"Indonesia";"";"";"";"-3.7184052";"137.0902968";"https://maps.google.com/?cid=0x0:0xaf54e4132fbaaaa";""
"perumahan";"Perhimpunan Pengembang Perumahan";"Kamp.Tausiga";"Pugisiga, Distrik Agisiga, Kabupaten Intan Jaya, Papua 98971";"Distrik Agisiga, Kabupaten Intan Jaya";"PAPUA";"98971";"Indonesia";"";"";"";"-3.72149";"137.1019057";"https://maps.google.com/?cid=0x0:0xdbaf662abde1b953";""
"perumahan";"Komplek perumahan";"Hatadipa";"74G4+2WH, Balamai, Distrik Agisiga, Kabupaten Intan Jaya, Papua 98971";"Balamai, Distrik Agisiga, Kabupaten Intan Jaya";"PAPUA";"98971";"Indonesia";"";"";"";"-3.724937";"137.1073519";"https://maps.google.com/?cid=0x0:0xaba467dd03aacb8";""
"perumahan";"Perhimpunan Pengembang Perumahan";"Kamp.Bamogo,Agisiga";"73CP+VQ, Balamai, Bamogo, Kabupaten Intan Jaya, Papua";"Kabupaten Intan Jaya, Papua";"PAPUA";"";"Indonesia";"";"";"";"-3.7277721";"137.0869681";"https://maps.google.com/?cid=0x0:0xa1a1bed4be62ef04";""
"perumahan";"Komplek perumahan";"Perumahan guru";"724X+VJ, Bilogai, Kec. Sugapa, Kabupaten Intan Jaya, Papua 98971";"Bilogai, Kec. Sugapa, Kabupaten Intan Jaya";"PAPUA";"98971";"Indonesia";"";"";"";"-3.7427609";"137.0491172";"https://maps.google.com/?cid=0x0:0x550b4cf3fa5a6d8c";""
"perumahan";"Perhimpunan Pengembang Perumahan";"Rumah Cepu Malatuni-Sugapa Intan Jaya";"726R+4P3, Bilogai, Kec. Sugapa, Kabupaten Intan Jaya, Papua";"Kabupaten Intan Jaya, Papua";"PAPUA";"";"Indonesia";"";"";"";"-3.7397914";"137.040976";"https://maps.google.com/?cid=0x0:0xceeb19a27f8f9521";""
"perumahan";"Perhimpunan Pengembang Perumahan";"Kamp.Soali";"73MH+298, Soali, Distrik Agisiga, Kabupaten Intan Jaya, Papua";"Kabupaten Intan Jaya, Papua";"PAPUA";"";"Indonesia";"";"";"";"-3.7174678";"137.0784666";"https://maps.google.com/?cid=0x0:0x94ea8b77f2d8e6d6";""
"perumahan";"Pembangunan Perumahan";"Kampung Agisiga";"96X6+W6J, Agienielia, Agiyome, Gome, Kabupaten Puncak, Papua";"Kabupaten Puncak, Papua";"PAPUA";"";"Indonesia";"";"";"";"-3.6001693";"137.2105164";"https://maps.google.com/?cid=0x0:0x2c98384413df90ad";""
"perumahan";"Jasa Konstruksi dan Bangunan";"Barak Dinas PUPR Intan Jaya";"62QX+9CW, Bilogai, Kec. Sugapa, Kabupaten Intan Jaya, Papua";"Kabupaten Intan Jaya, Papua";"PAPUA";"";"Indonesia";"";"";"";"-3.7615148";"137.0485715";"https://maps.google.com/?cid=0x0:0xb8debaa3d2481462";""
"perumahan";"perumahan";"Papua 98768";"Kabupaten Intan Jaya, Papua";"Kabupaten Intan Jaya, Papua";"PAPUA";"";"Indonesia";"";"";"";"-3.6382021";"136.9028375";"https://maps.google.com/?cid=0x0:0x902010d7989d7c6c";""
"perumahan";"Perhimpunan Pengembang Perumahan";"Rumah Cepu Malatuni-Sugapa Intan Jaya";"726R+4P3, Bilogai, Kec. Sugapa, Kabupaten Intan Jaya, Papua";"Kabupaten Intan Jaya, Papua";"PAPUA";"";"Indonesia";"";"";"";"-3.7397914";"137.040976";"https://maps.google.com/?cid=0x0:0xceeb19a27f8f9521";""
"perumahan";"Jasa Konstruksi dan Bangunan";"Barak Dinas PUPR Intan Jaya";"62QX+9CW, Bilogai, Kec. Sugapa, Kabupaten Intan Jaya, Papua";"Kabupaten Intan Jaya, Papua";"PAPUA";"";"Indonesia";"";"";"";"-3.7615148";"137.0485715";"https://maps.google.com/?cid=0x0:0xb8debaa3d2481462";""
"perumahan";"Komplek perumahan";"Hatadipa";"74G4+2WH, Balamai, Distrik Agisiga, Kabupaten Intan Jaya, Papua 98971";"Balamai, Distrik Agisiga, Kabupaten Intan Jaya";"PAPUA";"98971";"Indonesia";"";"";"";"-3.724937";"137.1073519";"https://maps.google.com/?cid=0x0:0xaba467dd03aacb8";""
"perumahan";"Komplek perumahan";"Beogasigani jagani";"7PW7+G8, jae No.1, Mapa, Kec. Homeyo, Kabupaten Intan Jaya, Papua";"Kabupaten Intan Jaya, Papua";"PAPUA";"";"Indonesia";"";"";"";"-3.7036875";"136.7133125";"https://maps.google.com/?cid=0x0:0x48a45186261c6225";""
"perumahan";"Perhimpunan Pengembang Perumahan";"Jenetapa janasiga";"74CR+RMP, Yaikimaki, Gome, Kabupaten Intan Jaya, Papua";"Kabupaten Intan Jaya, Papua";"PAPUA";"";"Indonesia";"";"";"";"-3.7279207";"137.1416929";"https://maps.google.com/?cid=0x0:0x3c558650ec9458e5";""
"perumahan";"Komplek perumahan";"Perumahan guru";"724X+VJ, Bilogai, Kec. Sugapa, Kabupaten Intan Jaya, Papua 98971";"Bilogai, Kec. Sugapa, Kabupaten Intan Jaya";"PAPUA";"98971";"Indonesia";"";"";"";"-3.7427609";"137.0491172";"https://maps.google.com/?cid=0x0:0x550b4cf3fa5a6d8c";""
"perumahan";"Komplek perumahan";"Dinas Perumahan dan Kawasan Permukiman Kabupaten Intan Jaya";"Jln, Yokatapa, Kec. Sugapa, Kabupaten Intan Jaya, Papua 98768";"Yokatapa, Kec. Sugapa, Kabupaten Intan Jaya";"PAPUA";"98768";"Indonesia";" 082323339791";"";"";"-3.7591431";"137.0096682";"https://maps.google.com/?cid=0x0:0xa0598a0c8652cca5";""
"perumahan";"Perhimpunan Pengembang Perumahan";"Timitagi tapa";"7R3P+83, Pogapa, Kec. Homeyo, Kabupaten Intan Jaya, Papua";"Kabupaten Intan Jaya, Papua";"PAPUA";"";"Indonesia";"";"";"";"-3.74663";"136.835236";"https://maps.google.com/?cid=0x0:0x1e10e9be7c5a10b7";""
"perumahan";"Pembangunan Perumahan";"Jaepone";"8P27+76Q, Mapa, Kec. Homeyo, Kabupaten Intan Jaya, Papua 98767";"Mapa, Kec. Homeyo, Kabupaten Intan Jaya";"PAPUA";"98767";"Indonesia";"";"";"";"-3.6992847";"136.7131061";"https://maps.google.com/?cid=0x0:0x159751a01f9ef572";""
"perumahan";"perumahan";"Distrik Hitadipa";"Kabupaten Intan Jaya, Papua";"Kabupaten Intan Jaya, Papua";"PAPUA";"";"Indonesia";"";"";"";"-3.6054679";"136.8640458";"https://maps.google.com/?cid=0x0:0x57611dc1d848c3a3";""
"perumahan";"Perhimpunan Pengembang Perumahan";"Pogapa";"6VP3+2PH, Pogapa, Kec. Homeyo, Kabupaten Intan Jaya, Papua";"Kabupaten Intan Jaya, Papua";"PAPUA";"";"Indonesia";"";"";"";"-3.764927";"136.8543525";"https://maps.google.com/?cid=0x0:0x629055230eff1d8";""
"perumahan";"Perhimpunan Pengembang Perumahan";"Pogapa,Distrik Homeyo";"7R2Q+5XP, Pogapa, Kec. Homeyo, Kabupaten Intan Jaya, Papua";"Kabupaten Intan Jaya, Papua";"PAPUA";"";"Indonesia";"";"";"";"-3.7495351";"136.8399474";"https://maps.google.com/?cid=0x0:0x329807ac6faa2320";""
"perumahan";"Perhimpunan Pengembang Perumahan";"kampung Danggoa";"73JR+J4, Balamai, Distrik Agisiga, Kabupaten Intan Jaya, Papua";"Kabupaten Intan Jaya, Papua";"PAPUA";"";"Indonesia";"";"";"";"-3.7184052";"137.0902968";"https://maps.google.com/?cid=0x0:0xaf54e4132fbaaaa";""
"perumahan";"Perhimpunan Pengembang Perumahan";"Kamp.Nabia";"FPRX+W4X, Yagaito, Nabia, Kabupaten Intan Jaya, Papua";"Kabupaten Intan Jaya, Papua";"PAPUA";"";"Indonesia";"";"";"";"-3.5076422";"136.7478493";"https://maps.google.com/?cid=0x0:0xbf48fa9d05a9301a";""
"perumahan";"Perhimpunan Pengembang Perumahan";"Kamp.Tausiga";"Pugisiga, Distrik Agisiga, Kabupaten Intan Jaya, Papua 98971";"Distrik Agisiga, Kabupaten Intan Jaya";"PAPUA";"98971";"Indonesia";"";"";"";"-3.72149";"137.1019057";"https://maps.google.com/?cid=0x0:0xdbaf662abde1b953";""
"perumahan";"Perhimpunan Pengembang Perumahan";"Kamp.Bamogo,Agisiga";"FPRX+W4X, Yagaito, Bamogo, Kabupaten Intan Jaya, Papua";"Kabupaten Intan Jaya, Papua";"PAPUA";"";"Indonesia";"";"";"";"-3.5076422";"136.7478493";"https://maps.google.com/?cid=0x0:0xca29a6e42db02d89";""
"perumahan";"perumahan";"Joni House";"725R+M5V, Bilogai, Kec. Sugapa, Kabupaten Intan Jaya, Papua";"Kabupaten Intan Jaya, Papua";"PAPUA";"";"Indonesia";"";"";"";"-3.7407556";"137.0404278";"https://maps.google.com/?cid=0x0:0x62ab769a4a817223";""
"perumahan";"Perhimpunan Pengembang Perumahan";"Kamp.Nabia";"8636+577, Yaikimaki, Gome, Kabupaten Intan Jaya, Papua";"Kabupaten Intan Jaya, Papua";"PAPUA";"";"Indonesia";"";"";"";"-3.6970841";"137.2106666";"https://maps.google.com/?cid=0x0:0xf1cbda281fd17a67";""
"perumahan";"Perhimpunan Pengembang Perumahan";"Camp Bilai";"7RFF+P2W, Papato, Paniai Tim., Kabupaten Paniai, Papua";"Kabupaten Paniai, Papua";"PAPUA";"";"Indonesia";"";"";"";"-3.7256337";"136.8225917";"https://maps.google.com/?cid=0x0:0x3c5cd4a2ca118daf";""
"perumahan";"Gereja";"TK Iluguma Pogapa";"7R2H+CJX, Degesiga, Kec. Homeyo, Kabupaten Intan Jaya, Papua 98768";"Degesiga, Kec. Homeyo, Kabupaten Intan Jaya";"PAPUA";"98768";"Indonesia";"";"";"";"-3.7488842";"136.8291245";"https://maps.google.com/?cid=0x0:0x3a381cd1d8014a6a";""
