Category,Real Category,Business Name,Address,City,State,Postal Code,Country,Phone,Email,Website,Latitude,Longitude,Map Link,Details Link
hardware store,hardware store,Nusa Tenggara Tim.,,Nusa Tenggara Tim.,NUSA TENGGARA TIMUR,,Indonesia,,,,-8.6573819,121.0793705,https://maps.google.com/?cid=0x0:0x1030bfbcaf71ae0,
hardware store,Pemasok Bahan Bangunan,Adonara Material Supplier,"M6WP+397, Desa, Redontena, Kec. Kelubagolit, Kabupaten Flores Timur, Nusa Tenggara Tim.","Kabupaten Flores Timur, Nusa Tenggara Tim.",NUSA TENGGARA TIMUR,,Indonesia,85229042006.0,,,-8.3048385,123.2359124,https://maps.google.com/?cid=0x0:0xfe1bf0fa435085c7,
hardware store,Toko Perlengkapan Rumah,HS Aluminium,"J568+2XJ, Waiwerang Kota, Kec. Adonara Tim., Kabupaten Flores Timur, Nusa Tenggara Tim.","Kabupaten Flores Timur, Nusa Tenggara Tim.",NUSA TENGGARA TIMUR,,Indonesia,82237389033.0,,,-8.3899083,123.1673903,https://maps.google.com/?cid=0x0:0xf8367392ad08ef4d,
hardware store,Pusat Perbelanjaan,Toko Tomia,"J557+PM7, kompleks pasar lama Adonara Tim., Nusa Tenggara Tim., Waiwerang Kota, Kec. Adonara Tim., Kabupaten Flores Timur, Nusa Tenggara Tim.","Kabupaten Flores Timur, Nusa Tenggara Tim.",NUSA TENGGARA TIMUR,,Indonesia,,,,-8.390715,123.1641829,https://maps.google.com/?cid=0x0:0x49eea345b5c2a981,
hardware store,Toko Elektronik,Toko TIRTA SELAMAT,"waiwerang kota Rt 01 Rw 01 Kelurahan, Waiwerang Kota, Kec. Adonara Tim., Kabupaten Flores Timur, Nusa Tenggara Tim.","Kabupaten Flores Timur, Nusa Tenggara Tim.",NUSA TENGGARA TIMUR,,Indonesia,81335321973.0,,,-8.3900986,123.1638451,https://maps.google.com/?cid=0x0:0x4daa5845b0098f4f,
hardware store,Toko Elektronik,UD. AYUSARI,"M2J7+RX7, Sarotari, Kec. Larantuka, Kabupaten Flores Timur, Nusa Tenggara Tim.","Kabupaten Flores Timur, Nusa Tenggara Tim.",NUSA TENGGARA TIMUR,,Indonesia,81236888999.0,,,-8.3179559,123.0149169,https://maps.google.com/?cid=0x0:0x84308a2d3e4f2041,
hardware store,Toko Elektronik,Olshop_68,"MWMG+8Q9, Wailolong, Kec. Ile Mandiri, Kabupaten Flores Timur, Nusa Tenggara Tim.","Kabupaten Flores Timur, Nusa Tenggara Tim.",NUSA TENGGARA TIMUR,,Indonesia,,,,-8.316705,122.9269927,https://maps.google.com/?cid=0x0:0x55ee40f6574e16a0,
hardware store,Jasa Reparasi Komputer,EMANUEL FERNANDEZ COMPUTER,"Lrg. Mercusuar, Sarotari Tengah, Kec. Larantuka, Kabupaten Flores Timur, Nusa Tenggara Tim. 86219","Sarotari Tengah, Kec. Larantuka, Kabupaten Flores Timur",NUSA TENGGARA TIMUR,86219.0,Indonesia,82145876543.0,,,-8.3155806,123.0169193,https://maps.google.com/?cid=0x0:0x9454f5e7a46abc27,
hardware store,Toko Perlengkapan Rumah,ElvanoHHome,"M6M8+GMH, Horinara, Kec. Kelubagolit, Kabupaten Flores Timur, Nusa Tenggara Tim.","Kabupaten Flores Timur, Nusa Tenggara Tim.",NUSA TENGGARA TIMUR,,Indonesia,8123902705.0,,,-8.3161798,123.2167219,https://maps.google.com/?cid=0x0:0xc6b78303523224cb,
hardware store,hardware store,Toko tunas harapan,"Jalan raya pasar impres, Waiwerang Kota, Kec. Adonara Tim., Kabupaten Flores Timur, Nusa Tenggara Tim.","Kabupaten Flores Timur, Nusa Tenggara Tim.",NUSA TENGGARA TIMUR,,Indonesia,,,,-8.3857489,123.161861,https://maps.google.com/?cid=0x0:0xaac4f545b7f99063,
hardware store,Toko Bahan Bangunan,Lima Jaya,"Waiwerang Kota, Kec. Adonara Tim., Kabupaten Flores Timur, Nusa Tenggara Tim.","Kabupaten Flores Timur, Nusa Tenggara Tim.",NUSA TENGGARA TIMUR,,Indonesia,,,,-8.3912034,123.1659932,https://maps.google.com/?cid=0x0:0xaa8c461e64a5388a,
hardware store,Toko,Rukun Jaya,"J557+MRQ, Waiwerang Kota, Kec. Adonara Tim., Kabupaten Flores Timur, Nusa Tenggara Tim.","Kabupaten Flores Timur, Nusa Tenggara Tim.",NUSA TENGGARA TIMUR,,Indonesia,,,,-8.3907798,123.1645982,https://maps.google.com/?cid=0x0:0x4f31e83665fb3ac4,
hardware store,Toko,Toko Sumber Hidup,"J568+22F, Waiwerang Kota, Kec. Adonara Tim., Kabupaten Flores Timur, Nusa Tenggara Tim.","Kabupaten Flores Timur, Nusa Tenggara Tim.",NUSA TENGGARA TIMUR,,Indonesia,,,,-8.3899281,123.1650606,https://maps.google.com/?cid=0x0:0x8c0291459f85e051,
hardware store,hardware store,Kec. Adonara Bar.,"Kabupaten Flores Timur, Nusa Tenggara Tim.","Kabupaten Flores Timur, Nusa Tenggara Tim.",NUSA TENGGARA TIMUR,,Indonesia,,,,-8.2755201,123.0930745,https://maps.google.com/?cid=0x0:0xd4c07e89b92983b9,
hardware store,Toko,Toko Surya,"J557+RVF, Unnamed Rd,, Waiwerang Kota, Kec. Adonara Tim., Kabupaten Flores Timur, Nusa Tenggara Tim.","Kabupaten Flores Timur, Nusa Tenggara Tim.",NUSA TENGGARA TIMUR,,Indonesia,,,,-8.3904292,123.1646655,https://maps.google.com/?cid=0x0:0x88371876c574e1ec,
hardware store,Toko Elektronik,UD. AYUSARI,"M2J7+RX7, Sarotari, Kec. Larantuka, Kabupaten Flores Timur, Nusa Tenggara Tim.","Kabupaten Flores Timur, Nusa Tenggara Tim.",NUSA TENGGARA TIMUR,,Indonesia,81236888999.0,,,-8.3179559,123.0149169,https://maps.google.com/?cid=0x0:0x84308a2d3e4f2041,
hardware store,Toko Perlengkapan Rumah,HS Aluminium,"J568+2XJ, Waiwerang Kota, Kec. Adonara Tim., Kabupaten Flores Timur, Nusa Tenggara Tim.","Kabupaten Flores Timur, Nusa Tenggara Tim.",NUSA TENGGARA TIMUR,,Indonesia,82237389033.0,,,-8.3899083,123.1673903,https://maps.google.com/?cid=0x0:0xf8367392ad08ef4d,
hardware store,Toko Elektronik,Toko TIRTA SELAMAT,"waiwerang kota Rt 01 Rw 01 Kelurahan, Waiwerang Kota, Kec. Adonara Tim., Kabupaten Flores Timur, Nusa Tenggara Tim.","Kabupaten Flores Timur, Nusa Tenggara Tim.",NUSA TENGGARA TIMUR,,Indonesia,81335321973.0,,,-8.3900986,123.1638451,https://maps.google.com/?cid=0x0:0x4daa5845b0098f4f,
hardware store,Pusat Perbelanjaan,Toko Tomia,"J557+PM7, kompleks pasar lama Adonara Tim., Nusa Tenggara Tim., Waiwerang Kota, Kec. Adonara Tim., Kabupaten Flores Timur, Nusa Tenggara Tim.","Kabupaten Flores Timur, Nusa Tenggara Tim.",NUSA TENGGARA TIMUR,,Indonesia,,,,-8.390715,123.1641829,https://maps.google.com/?cid=0x0:0x49eea345b5c2a981,
hardware store,,Toko Surya Larantuka,"Jl. San Juan, Sarotari, Kec. Larantuka, Kabupaten Flores Timur, Nusa Tenggara Tim.","Kabupaten Flores Timur, Nusa Tenggara Tim.",NUSA TENGGARA TIMUR,,Indonesia,81332037727.0,,,-8.3206853,123.0099464,https://maps.google.com/?cid=0x0:0xdc0f33f39486bb5d,
hardware store,Toko,Toko METRO,"M2G4+PJQ, Sarotari, Kec. Larantuka, Kabupaten Flores Timur, Nusa Tenggara Tim.","Kabupaten Flores Timur, Nusa Tenggara Tim.",NUSA TENGGARA TIMUR,,Indonesia,,,,-8.323167,123.0066065,https://maps.google.com/?cid=0x0:0xd7c1593bab565411,
hardware store,Jasa Reparasi Komputer,EMANUEL FERNANDEZ COMPUTER,"Lrg. Mercusuar, Sarotari Tengah, Kec. Larantuka, Kabupaten Flores Timur, Nusa Tenggara Tim. 86219","Sarotari Tengah, Kec. Larantuka, Kabupaten Flores Timur",NUSA TENGGARA TIMUR,86219.0,Indonesia,82145876543.0,,,-8.3155806,123.0169193,https://maps.google.com/?cid=0x0:0x9454f5e7a46abc27,
hardware store,hardware store,Toko tunas harapan,"Jalan raya pasar impres, Waiwerang Kota, Kec. Adonara Tim., Kabupaten Flores Timur, Nusa Tenggara Tim.","Kabupaten Flores Timur, Nusa Tenggara Tim.",NUSA TENGGARA TIMUR,,Indonesia,,,,-8.3857489,123.161861,https://maps.google.com/?cid=0x0:0xaac4f545b7f99063,
hardware store,Toko Perlengkapan Rumah,toko obi tungga,"weri blok 1 a no 9, Sarotari, Kec. Larantuka, Kabupaten Flores Timur, Nusa Tenggara Tim.","Kabupaten Flores Timur, Nusa Tenggara Tim.",NUSA TENGGARA TIMUR,,Indonesia,81238936925.0,,,-8.3036844,123.0172808,https://maps.google.com/?cid=0x0:0xe82d048de62b3202,
hardware store,Pemasok Bahan Bangunan,Adonara Material Supplier,"M6WP+397, Desa, Redontena, Kec. Kelubagolit, Kabupaten Flores Timur, Nusa Tenggara Tim.","Kabupaten Flores Timur, Nusa Tenggara Tim.",NUSA TENGGARA TIMUR,,Indonesia,85229042006.0,,,-8.3048385,123.2359124,https://maps.google.com/?cid=0x0:0xfe1bf0fa435085c7,
hardware store,Toko,Toko Matahari,"MX9X+5W3, Ekasapta, Kec. Larantuka, Kabupaten Flores Timur, Nusa Tenggara Tim.","Kabupaten Flores Timur, Nusa Tenggara Tim.",NUSA TENGGARA TIMUR,,Indonesia,,,,-8.3321033,122.9998002,https://maps.google.com/?cid=0x0:0x337b31c7525dd637,
hardware store,hardware store,Kec. Adonara Tengah,"Kabupaten Flores Timur, Nusa Tenggara Tim.","Kabupaten Flores Timur, Nusa Tenggara Tim.",NUSA TENGGARA TIMUR,,Indonesia,,,,-8.3253553,123.1492141,https://maps.google.com/?cid=0x0:0x9a478d355b398390,
hardware store,Toko,Toko Surya,"J557+RVF, Unnamed Rd,, Waiwerang Kota, Kec. Adonara Tim., Kabupaten Flores Timur, Nusa Tenggara Tim.","Kabupaten Flores Timur, Nusa Tenggara Tim.",NUSA TENGGARA TIMUR,,Indonesia,,,,-8.3904292,123.1646655,https://maps.google.com/?cid=0x0:0x88371876c574e1ec,
hardware store,Toko Elektronik,Toko TIRTA SELAMAT,"waiwerang kota Rt 01 Rw 01 Kelurahan, Waiwerang Kota, Kec. Adonara Tim., Kabupaten Flores Timur, Nusa Tenggara Tim.","Kabupaten Flores Timur, Nusa Tenggara Tim.",NUSA TENGGARA TIMUR,,Indonesia,81335321973.0,,,-8.3900986,123.1638451,https://maps.google.com/?cid=0x0:0x4daa5845b0098f4f,
hardware store,Pemasok Bahan Bangunan,Adonara Material Supplier,"M6WP+397, Desa, Redontena, Kec. Kelubagolit, Kabupaten Flores Timur, Nusa Tenggara Tim.","Kabupaten Flores Timur, Nusa Tenggara Tim.",NUSA TENGGARA TIMUR,,Indonesia,85229042006.0,,,-8.3048385,123.2359124,https://maps.google.com/?cid=0x0:0xfe1bf0fa435085c7,
hardware store,Pusat Perbelanjaan,Toko Tomia,"J557+PM7, kompleks pasar lama Adonara Tim., Nusa Tenggara Tim., Waiwerang Kota, Kec. Adonara Tim., Kabupaten Flores Timur, Nusa Tenggara Tim.","Kabupaten Flores Timur, Nusa Tenggara Tim.",NUSA TENGGARA TIMUR,,Indonesia,,,,-8.390715,123.1641829,https://maps.google.com/?cid=0x0:0x49eea345b5c2a981,
hardware store,hardware store,Toko tunas harapan,"Jalan raya pasar impres, Waiwerang Kota, Kec. Adonara Tim., Kabupaten Flores Timur, Nusa Tenggara Tim.","Kabupaten Flores Timur, Nusa Tenggara Tim.",NUSA TENGGARA TIMUR,,Indonesia,,,,-8.3857489,123.161861,https://maps.google.com/?cid=0x0:0xaac4f545b7f99063,
hardware store,Toko Bahan Bangunan,Lima Jaya,"Waiwerang Kota, Kec. Adonara Tim., Kabupaten Flores Timur, Nusa Tenggara Tim.","Kabupaten Flores Timur, Nusa Tenggara Tim.",NUSA TENGGARA TIMUR,,Indonesia,,,,-8.3912034,123.1659932,https://maps.google.com/?cid=0x0:0xaa8c461e64a5388a,
hardware store,Toko Bahan Bangunan,TOKO LAMAHALA,"J568+3XV, Waiwerang Kota, Kec. Adonara Tim., Kabupaten Flores Timur, Nusa Tenggara Tim.","Kabupaten Flores Timur, Nusa Tenggara Tim.",NUSA TENGGARA TIMUR,,Indonesia,,,,-8.3897617,123.1674094,https://maps.google.com/?cid=0x0:0x83eaa05e02756d1,
hardware store,Kantor Pemerintah,PUSKESMAS Demon Pagong,"HVW4+MM9, Jl. Nasional Maumere - Larantuka, Watotika Ile, Kec. Demon Pagong, Kabupaten Flores Timur, Nusa Tenggara Tim.","Kabupaten Flores Timur, Nusa Tenggara Tim.",NUSA TENGGARA TIMUR,,Indonesia,,,,-8.4033325,122.8567389,https://maps.google.com/?cid=0x0:0xaa50ccc9bbea9232,
hardware store,Balai masyarakat,Kantor Camat Demon Pagong,"JV36+387, Jl. Nasional Maumere - Larantuka, Larantuka, Lewokluok, Kec. Demon Pagong, Kabupaten Flores Timur, Nusa Tenggara Tim.","Kabupaten Flores Timur, Nusa Tenggara Tim.",NUSA TENGGARA TIMUR,,Indonesia,,,,-8.3973386,122.8607907,https://maps.google.com/?cid=0x0:0xc38163feb0a102f6,
hardware store,hardware store,Kec. Demon Pagong,"Kabupaten Flores Timur, Nusa Tenggara Tim.","Kabupaten Flores Timur, Nusa Tenggara Tim.",NUSA TENGGARA TIMUR,,Indonesia,,,,-8.3945719,122.8529342,https://maps.google.com/?cid=0x0:0xe422697fdfed621e,
hardware store,Toko Perlengkapan Rumah,HS Aluminium,"J568+2XJ, Waiwerang Kota, Kec. Adonara Tim., Kabupaten Flores Timur, Nusa Tenggara Tim.","Kabupaten Flores Timur, Nusa Tenggara Tim.",NUSA TENGGARA TIMUR,,Indonesia,82237389033.0,,,-8.3899083,123.1673903,https://maps.google.com/?cid=0x0:0xf8367392ad08ef4d,
hardware store,Toko,Toko Sumber Hidup,"J568+22F, Waiwerang Kota, Kec. Adonara Tim., Kabupaten Flores Timur, Nusa Tenggara Tim.","Kabupaten Flores Timur, Nusa Tenggara Tim.",NUSA TENGGARA TIMUR,,Indonesia,,,,-8.3899281,123.1650606,https://maps.google.com/?cid=0x0:0x8c0291459f85e051,
hardware store,hardware store,Kec. Ile Boleng,"Kabupaten Flores Timur, Nusa Tenggara Tim.","Kabupaten Flores Timur, Nusa Tenggara Tim.",NUSA TENGGARA TIMUR,,Indonesia,,,,-8.3830321,123.2959675,https://maps.google.com/?cid=0x0:0xc446eb1a852e3c5d,
hardware store,hardware store,Kec. Ilebura,"Kabupaten Flores Timur, Nusa Tenggara Tim.","Kabupaten Flores Timur, Nusa Tenggara Tim.",NUSA TENGGARA TIMUR,,Indonesia,,,,-8.5779238,122.8337133,https://maps.google.com/?cid=0x0:0xc8be3acfb2f81c90,
hardware store,Komplek perumahan,Meubel Ramayana,"Unnamed Road, Hokeng Jaya, Kec. Wulanggitang, Kabupaten Flores Timur, Nusa Tenggara Tim.","Kabupaten Flores Timur, Nusa Tenggara Tim.",NUSA TENGGARA TIMUR,,Indonesia,81236570370.0,,,-8.5237864,122.7253227,https://maps.google.com/?cid=0x0:0xdfbf86d62fda5e9a,
hardware store,Aksesori Mebel,Anjera mebel,"FPCF+G2G, Hokeng Jaya, Kec. Wulanggitang, Kabupaten Flores Timur, Nusa Tenggara Tim.","Kabupaten Flores Timur, Nusa Tenggara Tim.",NUSA TENGGARA TIMUR,,Indonesia,,,,-8.5291473,122.7232913,https://maps.google.com/?cid=0x0:0x94e18116ff98d127,
hardware store,hardware store,Nusa Tenggara Tim.,,Nusa Tenggara Tim.,NUSA TENGGARA TIMUR,,Indonesia,,,,-8.6573819,121.0793705,https://maps.google.com/?cid=0x0:0x1030bfbcaf71ae0,
hardware store,hardware store,Ile Mandiri,"Waibalun, Kec. Larantuka, Kabupaten Flores Timur, Nusa Tenggara Tim.","Kabupaten Flores Timur, Nusa Tenggara Tim.",NUSA TENGGARA TIMUR,,Indonesia,,,,-8.3147222,122.9672222,https://maps.google.com/?cid=0x0:0x93e3061dc2811f3d,
hardware store,Toko Swalayan,MR DIY Maumere,"Jl. Gajah Mada No.17, Madawat, Kec. Alok, Kabupaten Sikka, Nusa Tenggara Tim.","Kabupaten Sikka, Nusa Tenggara Tim.",NUSA TENGGARA TIMUR,,Indonesia,2130022789.0,,,-8.62825,122.2133279,https://maps.google.com/?cid=0x0:0xd0cfa594b633a093,
hardware store,Toko Elektronik,Toko Galaxy Electric,"96H9+577, Jl. Raja Centis, Kota Baru, Kec. Alok Tim., Kabupaten Sikka, Nusa Tenggara Tim.","Kabupaten Sikka, Nusa Tenggara Tim.",NUSA TENGGARA TIMUR,,Indonesia,81239921223.0,,,-8.6220786,122.2181769,https://maps.google.com/?cid=0x0:0x61974f6285e4d2cf,
hardware store,Toko Komputer,Filosi Laptop Kefa,"Jln. KM 6 arah kupang, Maubeli, Kec. Kota Kefamenanu, Kefamenanu, Nusa Tenggara Tim. 85617","Maubeli, Kec. Kota Kefamenanu, Kefamenanu",NUSA TENGGARA TIMUR,85617.0,Indonesia,81239561969.0,,,-9.4880312,124.4903773,https://maps.google.com/?cid=0x0:0x86ec1245c07db9c0,
hardware store,Toko Elektronik,Toko Remaja,"96G9+82H, Kota Uneng, Kec. Alok, Kabupaten Sikka, Nusa Tenggara Tim.","Kabupaten Sikka, Nusa Tenggara Tim.",NUSA TENGGARA TIMUR,,Indonesia,82145889009.0,,,-8.6241957,122.217609,https://maps.google.com/?cid=0x0:0xe1c72a5b4f309171,
hardware store,Toko Komputer,FILOSI LAPTOP KUPANG,"Jl. Adi Sucipto, Oesapa Lampu Merah, Kec. Klp. Lima, Kota Kupang, Nusa Tenggara Tim. 85228","Oesapa Lampu Merah, Kec. Klp. Lima, Kota Kupang",NUSA TENGGARA TIMUR,85228.0,Indonesia,82146049489.0,,,-10.1489745,123.6505575,https://maps.google.com/?cid=0x0:0x8e38b3ac0bdd92d8,
hardware store,Servis Komputer,Duta Jaya Computer,"Madawat, Kec. Alok, Kabupaten Sikka, Nusa Tenggara Tim.","Kabupaten Sikka, Nusa Tenggara Tim.",NUSA TENGGARA TIMUR,,Indonesia,81218440667.0,,,-8.6216982,122.2108323,https://maps.google.com/?cid=0x0:0x8cc80fb14638ba72,
hardware store,hardware store,U.D. Vigo Pigfeed And General Hardware Store,"75R9+F36, Tangge, Kecamatan Lembor, Kabupaten Manggarai Barat, Nusa Tenggara Tim.","Kabupaten Manggarai Barat, Nusa Tenggara Tim.",NUSA TENGGARA TIMUR,,Indonesia,,,,-8.708828,120.1676459,https://maps.google.com/?cid=0x0:0xaa897d189a9ad00b,
hardware store,Toko Ponsel,AdlyTokan Store,"M6RH+HF3, Hinga, Kec. Kelubagolit, Kabupaten Flores Timur, Nusa Tenggara Tim.","Kabupaten Flores Timur, Nusa Tenggara Tim.",NUSA TENGGARA TIMUR,,Indonesia,,,,-8.3085379,123.2287113,https://maps.google.com/?cid=0x0:0x699b9e1d5d055a31,
hardware store,Toko Ponsel,Ax_cell,"M6RH+24W, Jl. Waiwerang Sagu, Lamapaha, Kec. Kelubagolit, Kabupaten Flores Timur, Nusa Tenggara Tim.","Kabupaten Flores Timur, Nusa Tenggara Tim.",NUSA TENGGARA TIMUR,,Indonesia,,,,-8.3100249,123.2280032,https://maps.google.com/?cid=0x0:0x8af01e73d436305b,
hardware store,Sekolah Menengah Umum,SMA Negeri Kelubagolit,"M6XF+P6F, Jl. Waiwerang Sagu, Mangaaleng, Kec. Kelubagolit, Kabupaten Flores Timur, Nusa Tenggara Tim.","Kabupaten Flores Timur, Nusa Tenggara Tim.",NUSA TENGGARA TIMUR,,Indonesia,,,,-8.3006799,123.2230419,https://maps.google.com/?cid=0x0:0x893dad10d0ee5e29,
hardware store,hardware store,Nusa Tenggara Tim.,,Nusa Tenggara Tim.,NUSA TENGGARA TIMUR,,Indonesia,,,,-8.6573819,121.0793705,https://maps.google.com/?cid=0x0:0x1030bfbcaf71ae0,
hardware store,Toko Elektronik,UD. AYUSARI,"M2J7+RX7, Sarotari, Kec. Larantuka, Kabupaten Flores Timur, Nusa Tenggara Tim.","Kabupaten Flores Timur, Nusa Tenggara Tim.",NUSA TENGGARA TIMUR,,Indonesia,81236888999.0,,,-8.3179559,123.0149169,https://maps.google.com/?cid=0x0:0x84308a2d3e4f2041,
hardware store,Bengkel Elektronik,Mutiara Cb  Elektronik Service,"MX7P+2PR, Unnamed Rd, Postoh, Kec. Larantuka, Kabupaten Flores Timur, Nusa Tenggara Tim.","Kabupaten Flores Timur, Nusa Tenggara Tim.",NUSA TENGGARA TIMUR,,Indonesia,85205575168.0,,,-8.3373905,122.9867566,https://maps.google.com/?cid=0x0:0x6ec85a7adadf1ab4,
hardware store,Jasa Reparasi Komputer,EMANUEL FERNANDEZ COMPUTER,"Lrg. Mercusuar, Sarotari Tengah, Kec. Larantuka, Kabupaten Flores Timur, Nusa Tenggara Tim. 86219","Sarotari Tengah, Kec. Larantuka, Kabupaten Flores Timur",NUSA TENGGARA TIMUR,86219.0,Indonesia,82145876543.0,,,-8.3155806,123.0169193,https://maps.google.com/?cid=0x0:0x9454f5e7a46abc27,
hardware store,Tujuan Wisata,Lamahelan,"J785+CGM, RT.018/RW.006, Helanlangowuyo, Kec. Ile Boleng, Kabupaten Flores Timur, Nusa Tenggara Tim.","Kabupaten Flores Timur, Nusa Tenggara Tim.",NUSA TENGGARA TIMUR,,Indonesia,81236734950.0,,,-8.3839193,123.2588018,https://maps.google.com/?cid=0x0:0x90502241443203b0,
hardware store,Toko Elektronik,Olshop_68,"MWMG+8Q9, Wailolong, Kec. Ile Mandiri, Kabupaten Flores Timur, Nusa Tenggara Tim.","Kabupaten Flores Timur, Nusa Tenggara Tim.",NUSA TENGGARA TIMUR,,Indonesia,,,,-8.316705,122.9269927,https://maps.google.com/?cid=0x0:0x55ee40f6574e16a0,
hardware store,Toko,Toko Surya,"J557+RVF, Unnamed Rd,, Waiwerang Kota, Kec. Adonara Tim., Kabupaten Flores Timur, Nusa Tenggara Tim.","Kabupaten Flores Timur, Nusa Tenggara Tim.",NUSA TENGGARA TIMUR,,Indonesia,,,,-8.3904292,123.1646655,https://maps.google.com/?cid=0x0:0x88371876c574e1ec,
hardware store,Toko Elektronik,Toko TIRTA SELAMAT,"waiwerang kota Rt 01 Rw 01 Kelurahan, Waiwerang Kota, Kec. Adonara Tim., Kabupaten Flores Timur, Nusa Tenggara Tim.","Kabupaten Flores Timur, Nusa Tenggara Tim.",NUSA TENGGARA TIMUR,,Indonesia,81335321973.0,,,-8.3900986,123.1638451,https://maps.google.com/?cid=0x0:0x4daa5845b0098f4f,
hardware store,Pusat Perbelanjaan,Toko Tomia,"J557+PM7, kompleks pasar lama Adonara Tim., Nusa Tenggara Tim., Waiwerang Kota, Kec. Adonara Tim., Kabupaten Flores Timur, Nusa Tenggara Tim.","Kabupaten Flores Timur, Nusa Tenggara Tim.",NUSA TENGGARA TIMUR,,Indonesia,,,,-8.390715,123.1641829,https://maps.google.com/?cid=0x0:0x49eea345b5c2a981,
hardware store,Toko Perlengkapan Rumah,ElvanoHHome,"M6M8+GMH, Horinara, Kec. Kelubagolit, Kabupaten Flores Timur, Nusa Tenggara Tim.","Kabupaten Flores Timur, Nusa Tenggara Tim.",NUSA TENGGARA TIMUR,,Indonesia,8123902705.0,,,-8.3161798,123.2167219,https://maps.google.com/?cid=0x0:0xc6b78303523224cb,
hardware store,hardware store,Larantuka,"Pohon Sirih, Kec. Larantuka, Kabupaten Flores Timur, Nusa Tenggara Tim.","Kabupaten Flores Timur, Nusa Tenggara Tim.",NUSA TENGGARA TIMUR,,Indonesia,,,,-8.3452356,122.9813914,https://maps.google.com/?cid=0x0:0x4eb6d148bb7ab09e,
hardware store,Toko Sepatu,Point Store,"Jl. Niaga Komp. Pertokoan Blok A No. 06, Postoh, Kec. Larantuka, Kabupaten Flores Timur, Nusa Tenggara Tim.","Kabupaten Flores Timur, Nusa Tenggara Tim.",NUSA TENGGARA TIMUR,,Indonesia,,,,-8.3418334,122.9890351,https://maps.google.com/?cid=0x0:0x3db92a8e2e1ae99b,
hardware store,Kantor Administrasi Kota,kantor lurah balela,"MX3J+QFV, Jl. Don Lorenzo, Balela, Kec. Larantuka, Kabupaten Flores Timur, Nusa Tenggara Tim.","Kabupaten Flores Timur, Nusa Tenggara Tim.",NUSA TENGGARA TIMUR,,Indonesia,,,,-8.345521,122.9811712,https://maps.google.com/?cid=0x0:0x7462de77b7dc53d1,
hardware store,Kantor Perusahaan,Bina Ilmu Toko,"MX3J+H57, JL. Niaga, Balela, Kec. Larantuka, Kabupaten Flores Timur, Nusa Tenggara Tim.","Kabupaten Flores Timur, Nusa Tenggara Tim.",NUSA TENGGARA TIMUR,,Indonesia,3832325363.0,,,-8.3460792,122.9804283,https://maps.google.com/?cid=0x0:0xb178c06f8e01a04d,
hardware store,hardware store,Nusa Tenggara Tim.,,Nusa Tenggara Tim.,NUSA TENGGARA TIMUR,,Indonesia,,,,-8.6573819,121.0793705,https://maps.google.com/?cid=0x0:0x1030bfbcaf71ae0,
hardware store,Toko Sepatu,Point Store,"Jl. Niaga Komp. Pertokoan Blok A No. 06, Postoh, Kec. Larantuka, Kabupaten Flores Timur, Nusa Tenggara Tim.","Kabupaten Flores Timur, Nusa Tenggara Tim.",NUSA TENGGARA TIMUR,,Indonesia,,,,-8.3418334,122.9890351,https://maps.google.com/?cid=0x0:0x3db92a8e2e1ae99b,
hardware store,Toko Elektronik,UD. AYUSARI,"M2J7+RX7, Sarotari, Kec. Larantuka, Kabupaten Flores Timur, Nusa Tenggara Tim.","Kabupaten Flores Timur, Nusa Tenggara Tim.",NUSA TENGGARA TIMUR,,Indonesia,81236888999.0,,,-8.3179559,123.0149169,https://maps.google.com/?cid=0x0:0x84308a2d3e4f2041,
hardware store,Bengkel Elektronik,Mutiara Cb  Elektronik Service,"MX7P+2PR, Unnamed Rd, Postoh, Kec. Larantuka, Kabupaten Flores Timur, Nusa Tenggara Tim.","Kabupaten Flores Timur, Nusa Tenggara Tim.",NUSA TENGGARA TIMUR,,Indonesia,85205575168.0,,,-8.3373905,122.9867566,https://maps.google.com/?cid=0x0:0x6ec85a7adadf1ab4,
hardware store,Jasa Reparasi Komputer,EMANUEL FERNANDEZ COMPUTER,"Lrg. Mercusuar, Sarotari Tengah, Kec. Larantuka, Kabupaten Flores Timur, Nusa Tenggara Tim. 86219","Sarotari Tengah, Kec. Larantuka, Kabupaten Flores Timur",NUSA TENGGARA TIMUR,86219.0,Indonesia,82145876543.0,,,-8.3155806,123.0169193,https://maps.google.com/?cid=0x0:0x9454f5e7a46abc27,
hardware store,Tujuan Wisata,Lamahelan,"J785+CGM, RT.018/RW.006, Helanlangowuyo, Kec. Ile Boleng, Kabupaten Flores Timur, Nusa Tenggara Tim.","Kabupaten Flores Timur, Nusa Tenggara Tim.",NUSA TENGGARA TIMUR,,Indonesia,81236734950.0,,,-8.3839193,123.2588018,https://maps.google.com/?cid=0x0:0x90502241443203b0,
hardware store,Toko,Toko Surya,"J557+RVF, Unnamed Rd,, Waiwerang Kota, Kec. Adonara Tim., Kabupaten Flores Timur, Nusa Tenggara Tim.","Kabupaten Flores Timur, Nusa Tenggara Tim.",NUSA TENGGARA TIMUR,,Indonesia,,,,-8.3904292,123.1646655,https://maps.google.com/?cid=0x0:0x88371876c574e1ec,
hardware store,Toko Elektronik,Olshop_68,"MWMG+8Q9, Wailolong, Kec. Ile Mandiri, Kabupaten Flores Timur, Nusa Tenggara Tim.","Kabupaten Flores Timur, Nusa Tenggara Tim.",NUSA TENGGARA TIMUR,,Indonesia,,,,-8.316705,122.9269927,https://maps.google.com/?cid=0x0:0x55ee40f6574e16a0,
hardware store,Toko Elektronik,Toko TIRTA SELAMAT,"waiwerang kota Rt 01 Rw 01 Kelurahan, Waiwerang Kota, Kec. Adonara Tim., Kabupaten Flores Timur, Nusa Tenggara Tim.","Kabupaten Flores Timur, Nusa Tenggara Tim.",NUSA TENGGARA TIMUR,,Indonesia,81335321973.0,,,-8.3900986,123.1638451,https://maps.google.com/?cid=0x0:0x4daa5845b0098f4f,
hardware store,Pusat Perbelanjaan,Toko Tomia,"J557+PM7, kompleks pasar lama Adonara Tim., Nusa Tenggara Tim., Waiwerang Kota, Kec. Adonara Tim., Kabupaten Flores Timur, Nusa Tenggara Tim.","Kabupaten Flores Timur, Nusa Tenggara Tim.",NUSA TENGGARA TIMUR,,Indonesia,,,,-8.390715,123.1641829,https://maps.google.com/?cid=0x0:0x49eea345b5c2a981,
hardware store,Toko Perlengkapan Rumah,ElvanoHHome,"M6M8+GMH, Horinara, Kec. Kelubagolit, Kabupaten Flores Timur, Nusa Tenggara Tim.","Kabupaten Flores Timur, Nusa Tenggara Tim.",NUSA TENGGARA TIMUR,,Indonesia,8123902705.0,,,-8.3161798,123.2167219,https://maps.google.com/?cid=0x0:0xc6b78303523224cb,
hardware store,hardware store,Larantuka,"Pohon Sirih, Kec. Larantuka, Kabupaten Flores Timur, Nusa Tenggara Tim.","Kabupaten Flores Timur, Nusa Tenggara Tim.",NUSA TENGGARA TIMUR,,Indonesia,,,,-8.3452356,122.9813914,https://maps.google.com/?cid=0x0:0x4eb6d148bb7ab09e,
hardware store,Kantor Perusahaan,Bina Ilmu Toko,"MX3J+H57, JL. Niaga, Balela, Kec. Larantuka, Kabupaten Flores Timur, Nusa Tenggara Tim.","Kabupaten Flores Timur, Nusa Tenggara Tim.",NUSA TENGGARA TIMUR,,Indonesia,3832325363.0,,,-8.3460792,122.9804283,https://maps.google.com/?cid=0x0:0xb178c06f8e01a04d,
hardware store,Kantor Administrasi Kota,kantor lurah balela,"MX3J+QFV, Jl. Don Lorenzo, Balela, Kec. Larantuka, Kabupaten Flores Timur, Nusa Tenggara Tim.","Kabupaten Flores Timur, Nusa Tenggara Tim.",NUSA TENGGARA TIMUR,,Indonesia,,,,-8.345521,122.9811712,https://maps.google.com/?cid=0x0:0x7462de77b7dc53d1,
hardware store,Toko,Toko Djaya Raya Larantuka,"Postoh, Kec. Larantuka, Kabupaten Flores Timur, Nusa Tenggara Tim.","Kabupaten Flores Timur, Nusa Tenggara Tim.",NUSA TENGGARA TIMUR,,Indonesia,81000000000.0,,,-8.3413578,122.9889622,https://maps.google.com/?cid=0x0:0xaae4460c5d829af0,
hardware store,Toko Elektronik,Lareska Store,"MX5Q+78G, Lokea, Kec. Larantuka, Kabupaten Flores Timur, Nusa Tenggara Tim.","Kabupaten Flores Timur, Nusa Tenggara Tim.",NUSA TENGGARA TIMUR,,Indonesia,,,,-8.3418039,122.9883149,https://maps.google.com/?cid=0x0:0xfbf7904f5ac3e792,
hardware store,Toko Swalayan,Toko Feby  Chain,"Jl. Jend. Sudirman No.123, Sarotari, Kec. Larantuka, Kabupaten Flores Timur, Nusa Tenggara Tim.","Kabupaten Flores Timur, Nusa Tenggara Tim.",NUSA TENGGARA TIMUR,,Indonesia,3832325192.0,,,-8.3151365,123.0166226,https://maps.google.com/?cid=0x0:0x9a2345a634069230,
hardware store,Toko Elektronik,Toko HERO elektronik,"Jl. Jend. Sudirman No.123, Sarotari, Kec. Larantuka, Kabupaten Flores Timur, Nusa Tenggara Tim.","Kabupaten Flores Timur, Nusa Tenggara Tim.",NUSA TENGGARA TIMUR,,Indonesia,81239816666.0,,,-8.314966,123.0169959,https://maps.google.com/?cid=0x0:0x29e37f8f0ff36430,
hardware store,Toko Elektronik,Arizona Phone Store,"MX5Q+9QM, Lokea, Kec. Larantuka, Kabupaten Flores Timur, Nusa Tenggara Tim.","Kabupaten Flores Timur, Nusa Tenggara Tim.",NUSA TENGGARA TIMUR,,Indonesia,81338608328.0,,,-8.341544,122.989419,https://maps.google.com/?cid=0x0:0xc3c36bce6dcc06de,
hardware store,Gudang,Rizky Store 28,"Pinggir Jln.3 Belakang RSUD, Toko warna tosca pink, Kec. Larantuka, Nusa Tenggara Tim. 86216","Toko warna tosca pink, Kec. Larantuka",NUSA TENGGARA TIMUR,86216.0,Indonesia,81239655404.0,,,-8.3134806,123.0099011,https://maps.google.com/?cid=0x0:0x43e41a19911c4191,
hardware store,Toko Elektronik,ASTRO PHONE,"MX5Q+46X, Lokea, Kec. Larantuka, Kabupaten Flores Timur, Nusa Tenggara Tim.","Kabupaten Flores Timur, Nusa Tenggara Tim.",NUSA TENGGARA TIMUR,,Indonesia,82144796869.0,,,-8.3421487,122.9881097,https://maps.google.com/?cid=0x0:0x616055066677f7cd,
hardware store,Toko Fotokopi,Oyen Komputer Fotocopy,"M2G4+GG3, Jl. San Juan, Puken Tobi Wangi Bao, Kec. Larantuka, Kabupaten Flores Timur, Nusa Tenggara Tim.","Kabupaten Flores Timur, Nusa Tenggara Tim.",NUSA TENGGARA TIMUR,,Indonesia,,,,-8.323732,123.0063101,https://maps.google.com/?cid=0x0:0x9f609ad86c011533,
hardware store,Toko Elektronik,Mitra Phone Servis,"MX9X+6W6, Ekasapta, Kec. Larantuka, Kabupaten Flores Timur, Nusa Tenggara Tim.","Kabupaten Flores Timur, Nusa Tenggara Tim.",NUSA TENGGARA TIMUR,,Indonesia,85776896326.0,,,-8.3319618,122.9997768,https://maps.google.com/?cid=0x0:0xf4bc7dce570ab999,
hardware store,Jasa Reparasi Komputer,SANJUAN COMPUTER,"M2G4+CGW, Puken Tobi Wangi Bao, Kec. Larantuka, Kabupaten Flores Timur, Nusa Tenggara Tim.","Kabupaten Flores Timur, Nusa Tenggara Tim.",NUSA TENGGARA TIMUR,,Indonesia,85336027765.0,,,-8.3238979,123.0063215,https://maps.google.com/?cid=0x0:0xb960f96202b6d806,
hardware store,Toko Elektronik,Terima Servis Laptop.printer.hp.infocus N Jahit Sepatu,"MX9W+HFR, Unnamed Road, Ekasapta, Kec. Larantuka, Kabupaten Flores Timur, Nusa Tenggara Tim.","Kabupaten Flores Timur, Nusa Tenggara Tim.",NUSA TENGGARA TIMUR,,Indonesia,85205678999.0,,,-8.3310119,122.9961537,https://maps.google.com/?cid=0x0:0xad6c5ffa3bc503ea,
hardware store,,Toko Surya Larantuka,"Jl. San Juan, Sarotari, Kec. Larantuka, Kabupaten Flores Timur, Nusa Tenggara Tim.","Kabupaten Flores Timur, Nusa Tenggara Tim.",NUSA TENGGARA TIMUR,,Indonesia,81332037727.0,,,-8.3206853,123.0099464,https://maps.google.com/?cid=0x0:0xdc0f33f39486bb5d,
hardware store,hardware store,Nusa Tenggara Tim.,,Nusa Tenggara Tim.,NUSA TENGGARA TIMUR,,Indonesia,,,,-8.6573819,121.0793705,https://maps.google.com/?cid=0x0:0x1030bfbcaf71ae0,
hardware store,Toko Bahan Bangunan,Toko Anugerah,"Podor, Lewolere, Kec. Larantuka, Kabupaten Flores Timur, Nusa Tenggara Tim. 86212","Lewolere, Kec. Larantuka, Kabupaten Flores Timur",NUSA TENGGARA TIMUR,86212.0,Indonesia,81338919233.0,,,-8.3515405,122.9643203,https://maps.google.com/?cid=0x0:0x460c9471ebbb83e8,
hardware store,Toko Sepatu,Point Store,"Jl. Niaga Komp. Pertokoan Blok A No. 06, Postoh, Kec. Larantuka, Kabupaten Flores Timur, Nusa Tenggara Tim.","Kabupaten Flores Timur, Nusa Tenggara Tim.",NUSA TENGGARA TIMUR,,Indonesia,,,,-8.3418334,122.9890351,https://maps.google.com/?cid=0x0:0x3db92a8e2e1ae99b,
hardware store,Toko Elektronik,DUTA ELEKTRONIK,"MX5Q+488, Lokea, Kec. Larantuka, Kabupaten Flores Timur, Nusa Tenggara Tim.","Kabupaten Flores Timur, Nusa Tenggara Tim.",NUSA TENGGARA TIMUR,,Indonesia,,,,-8.3422055,122.9883187,https://maps.google.com/?cid=0x0:0x7d7dbe4917eb66a2,
hardware store,Bengkel Elektronik,Mutiara Cb  Elektronik Service,"MX7P+2PR, Unnamed Rd, Postoh, Kec. Larantuka, Kabupaten Flores Timur, Nusa Tenggara Tim.","Kabupaten Flores Timur, Nusa Tenggara Tim.",NUSA TENGGARA TIMUR,,Indonesia,85205575168.0,,,-8.3373905,122.9867566,https://maps.google.com/?cid=0x0:0x6ec85a7adadf1ab4,
hardware store,Jasa Reparasi Komputer,EMANUEL FERNANDEZ COMPUTER,"Lrg. Mercusuar, Sarotari Tengah, Kec. Larantuka, Kabupaten Flores Timur, Nusa Tenggara Tim. 86219","Sarotari Tengah, Kec. Larantuka, Kabupaten Flores Timur",NUSA TENGGARA TIMUR,86219.0,Indonesia,82145876543.0,,,-8.3155806,123.0169193,https://maps.google.com/?cid=0x0:0x9454f5e7a46abc27,
hardware store,Tujuan Wisata,Lamahelan,"J785+CGM, RT.018/RW.006, Helanlangowuyo, Kec. Ile Boleng, Kabupaten Flores Timur, Nusa Tenggara Tim.","Kabupaten Flores Timur, Nusa Tenggara Tim.",NUSA TENGGARA TIMUR,,Indonesia,81236734950.0,,,-8.3839193,123.2588018,https://maps.google.com/?cid=0x0:0x90502241443203b0,
hardware store,Toko Elektronik,Olshop_68,"MWMG+8Q9, Wailolong, Kec. Ile Mandiri, Kabupaten Flores Timur, Nusa Tenggara Tim.","Kabupaten Flores Timur, Nusa Tenggara Tim.",NUSA TENGGARA TIMUR,,Indonesia,,,,-8.316705,122.9269927,https://maps.google.com/?cid=0x0:0x55ee40f6574e16a0,
hardware store,Toko,Toko Surya,"J557+RVF, Unnamed Rd,, Waiwerang Kota, Kec. Adonara Tim., Kabupaten Flores Timur, Nusa Tenggara Tim.","Kabupaten Flores Timur, Nusa Tenggara Tim.",NUSA TENGGARA TIMUR,,Indonesia,,,,-8.3904292,123.1646655,https://maps.google.com/?cid=0x0:0x88371876c574e1ec,
hardware store,Toko Elektronik,Toko TIRTA SELAMAT,"waiwerang kota Rt 01 Rw 01 Kelurahan, Waiwerang Kota, Kec. Adonara Tim., Kabupaten Flores Timur, Nusa Tenggara Tim.","Kabupaten Flores Timur, Nusa Tenggara Tim.",NUSA TENGGARA TIMUR,,Indonesia,81335321973.0,,,-8.3900986,123.1638451,https://maps.google.com/?cid=0x0:0x4daa5845b0098f4f,
hardware store,Pusat Perbelanjaan,Toko Tomia,"J557+PM7, kompleks pasar lama Adonara Tim., Nusa Tenggara Tim., Waiwerang Kota, Kec. Adonara Tim., Kabupaten Flores Timur, Nusa Tenggara Tim.","Kabupaten Flores Timur, Nusa Tenggara Tim.",NUSA TENGGARA TIMUR,,Indonesia,,,,-8.390715,123.1641829,https://maps.google.com/?cid=0x0:0x49eea345b5c2a981,
hardware store,Toko Perlengkapan Rumah,ElvanoHHome,"M6M8+GMH, Horinara, Kec. Kelubagolit, Kabupaten Flores Timur, Nusa Tenggara Tim.","Kabupaten Flores Timur, Nusa Tenggara Tim.",NUSA TENGGARA TIMUR,,Indonesia,8123902705.0,,,-8.3161798,123.2167219,https://maps.google.com/?cid=0x0:0xc6b78303523224cb,
hardware store,hardware store,Larantuka,"Pohon Sirih, Kec. Larantuka, Kabupaten Flores Timur, Nusa Tenggara Tim.","Kabupaten Flores Timur, Nusa Tenggara Tim.",NUSA TENGGARA TIMUR,,Indonesia,,,,-8.3452356,122.9813914,https://maps.google.com/?cid=0x0:0x4eb6d148bb7ab09e,
hardware store,Kantor Administrasi Kota,kantor lurah balela,"MX3J+QFV, Jl. Don Lorenzo, Balela, Kec. Larantuka, Kabupaten Flores Timur, Nusa Tenggara Tim.","Kabupaten Flores Timur, Nusa Tenggara Tim.",NUSA TENGGARA TIMUR,,Indonesia,,,,-8.345521,122.9811712,https://maps.google.com/?cid=0x0:0x7462de77b7dc53d1,
hardware store,Kantor Perusahaan,Bina Ilmu Toko,"MX3J+H57, JL. Niaga, Balela, Kec. Larantuka, Kabupaten Flores Timur, Nusa Tenggara Tim.","Kabupaten Flores Timur, Nusa Tenggara Tim.",NUSA TENGGARA TIMUR,,Indonesia,3832325363.0,,,-8.3460792,122.9804283,https://maps.google.com/?cid=0x0:0xb178c06f8e01a04d,
hardware store,,Toko Surya Larantuka,"Jl. San Juan, Sarotari, Kec. Larantuka, Kabupaten Flores Timur, Nusa Tenggara Tim.","Kabupaten Flores Timur, Nusa Tenggara Tim.",NUSA TENGGARA TIMUR,,Indonesia,81332037727.0,,,-8.3206853,123.0099464,https://maps.google.com/?cid=0x0:0xdc0f33f39486bb5d,
hardware store,hardware store,Nusa Tenggara Tim. 86215,"Lokea, Kec. Larantuka, Kabupaten Flores Timur, Nusa Tenggara Tim.","Kabupaten Flores Timur, Nusa Tenggara Tim.",NUSA TENGGARA TIMUR,,Indonesia,,,,-8.3411321,122.9851077,https://maps.google.com/?cid=0x0:0x982f75ac7612d26f,
hardware store,Toko Sepatu,Point Store,"Jl. Niaga Komp. Pertokoan Blok A No. 06, Postoh, Kec. Larantuka, Kabupaten Flores Timur, Nusa Tenggara Tim.","Kabupaten Flores Timur, Nusa Tenggara Tim.",NUSA TENGGARA TIMUR,,Indonesia,,,,-8.3418334,122.9890351,https://maps.google.com/?cid=0x0:0x3db92a8e2e1ae99b,
hardware store,Toko Elektronik,Lareska Store,"MX5Q+78G, Lokea, Kec. Larantuka, Kabupaten Flores Timur, Nusa Tenggara Tim.","Kabupaten Flores Timur, Nusa Tenggara Tim.",NUSA TENGGARA TIMUR,,Indonesia,,,,-8.3418039,122.9883149,https://maps.google.com/?cid=0x0:0xfbf7904f5ac3e792,
hardware store,Toko Elektronik,Toko HERO elektronik,"Jl. Jend. Sudirman No.123, Sarotari, Kec. Larantuka, Kabupaten Flores Timur, Nusa Tenggara Tim.","Kabupaten Flores Timur, Nusa Tenggara Tim.",NUSA TENGGARA TIMUR,,Indonesia,81239816666.0,,,-8.314966,123.0169959,https://maps.google.com/?cid=0x0:0x29e37f8f0ff36430,
hardware store,Toko Bahan Bangunan,Toko Anugerah,"Podor, Lewolere, Kec. Larantuka, Kabupaten Flores Timur, Nusa Tenggara Tim. 86212","Lewolere, Kec. Larantuka, Kabupaten Flores Timur",NUSA TENGGARA TIMUR,86212.0,Indonesia,81338919233.0,,,-8.3515405,122.9643203,https://maps.google.com/?cid=0x0:0x460c9471ebbb83e8,
hardware store,Toko Sepatu,Star Shoes,"MX7V+M7F, Unnamed Road, Amagarapati, Larantuka, East Flores Regency, East Nusa Tenggara","Kabupaten Flores Timur, Nusa Tenggara Tim.",NUSA TENGGARA TIMUR,,Indonesia,,,,-8.3358126,122.9931604,https://maps.google.com/?cid=0x0:0x30be044833139d5d,
hardware store,hardware store,Nusa Tenggara Tim.,,Nusa Tenggara Tim.,NUSA TENGGARA TIMUR,,Indonesia,,,,-8.6573819,121.0793705,https://maps.google.com/?cid=0x0:0x1030bfbcaf71ae0,
hardware store,Tujuan Wisata,Lamahelan,"J785+CGM, RT.018/RW.006, Helanlangowuyo, Kec. Ile Boleng, Kabupaten Flores Timur, Nusa Tenggara Tim.","Kabupaten Flores Timur, Nusa Tenggara Tim.",NUSA TENGGARA TIMUR,,Indonesia,81236734950.0,,,-8.3839193,123.2588018,https://maps.google.com/?cid=0x0:0x90502241443203b0,
hardware store,Toko Bahan Bangunan,Sinar Bangunan Building Center,"Jl. Bund. PU No.12, Tuak Daun Merah, Kec. Oebobo, Kota Kupang, Nusa Tenggara Tim. 85228","Tuak Daun Merah, Kec. Oebobo, Kota Kupang",NUSA TENGGARA TIMUR,85228.0,Indonesia,81236648694.0,,,-10.1675355,123.6289538,https://maps.google.com/?cid=0x0:0x8b34913a09e207d2,
hardware store,Toko Bahan Bangunan,Toko Anugerah,"Podor, Lewolere, Kec. Larantuka, Kabupaten Flores Timur, Nusa Tenggara Tim. 86212","Lewolere, Kec. Larantuka, Kabupaten Flores Timur",NUSA TENGGARA TIMUR,86212.0,Indonesia,81338919233.0,,,-8.3515405,122.9643203,https://maps.google.com/?cid=0x0:0x460c9471ebbb83e8,
hardware store,Toko Sepatu,Point Store,"Jl. Niaga Komp. Pertokoan Blok A No. 06, Postoh, Kec. Larantuka, Kabupaten Flores Timur, Nusa Tenggara Tim.","Kabupaten Flores Timur, Nusa Tenggara Tim.",NUSA TENGGARA TIMUR,,Indonesia,,,,-8.3418334,122.9890351,https://maps.google.com/?cid=0x0:0x3db92a8e2e1ae99b,
hardware store,Kantor Administrasi Kota,kantor lurah balela,"MX3J+QFV, Jl. Don Lorenzo, Balela, Kec. Larantuka, Kabupaten Flores Timur, Nusa Tenggara Tim.","Kabupaten Flores Timur, Nusa Tenggara Tim.",NUSA TENGGARA TIMUR,,Indonesia,,,,-8.345521,122.9811712,https://maps.google.com/?cid=0x0:0x7462de77b7dc53d1,
hardware store,Kantor Perusahaan,Bina Ilmu Toko,"MX3J+H57, JL. Niaga, Balela, Kec. Larantuka, Kabupaten Flores Timur, Nusa Tenggara Tim.","Kabupaten Flores Timur, Nusa Tenggara Tim.",NUSA TENGGARA TIMUR,,Indonesia,3832325363.0,,,-8.3460792,122.9804283,https://maps.google.com/?cid=0x0:0xb178c06f8e01a04d,
hardware store,Toko Bahan Bangunan,Toko Bangunan ACC,"Jl. Nusantara Raya No.274, Depok Jaya, Kec. Pancoran Mas, Kota Depok, Jawa Barat 16432","Depok Jaya, Kec. Pancoran Mas, Kota Depok",NUSA TENGGARA TIMUR,16432.0,Indonesia,81934873737.0,,,-6.3938587,106.8144872,https://maps.google.com/?cid=0x0:0x2709e9a276a3be1a,
hardware store,Toko Bahan Bangunan,Supermarket Acc Bangunan,"Jl. Raya Sawangan No.18, Depok I, Kec. Pancoran Mas, Kota Depok, Jawa Barat 16436","Depok I, Kec. Pancoran Mas, Kota Depok",NUSA TENGGARA TIMUR,16436.0,Indonesia,87781340350.0,,,-6.398724,106.81099,https://maps.google.com/?cid=0x0:0xa5cc5981158e131e,
hardware store,Toko Pakaian Wanita,Fashionimport14,"Jl. Nusantara Raya, Depok Jaya, Kec. Pancoran Mas, Kota Depok, Jawa Barat 16432","Depok Jaya, Kec. Pancoran Mas, Kota Depok",NUSA TENGGARA TIMUR,16432.0,Indonesia,,,,-6.3934284,106.8145065,https://maps.google.com/?cid=0x0:0x964e64aca4bb4b0,
hardware store,hardware store,Nusa Tenggara Tim.,,Nusa Tenggara Tim.,NUSA TENGGARA TIMUR,,Indonesia,,,,-8.6573819,121.0793705,https://maps.google.com/?cid=0x0:0x1030bfbcaf71ae0,
hardware store,Toko Sepatu,Point Store,"Jl. Niaga Komp. Pertokoan Blok A No. 06, Postoh, Kec. Larantuka, Kabupaten Flores Timur, Nusa Tenggara Tim.","Kabupaten Flores Timur, Nusa Tenggara Tim.",NUSA TENGGARA TIMUR,,Indonesia,,,,-8.3418334,122.9890351,https://maps.google.com/?cid=0x0:0x3db92a8e2e1ae99b,
hardware store,Tujuan Wisata,Lamahelan,"J785+CGM, RT.018/RW.006, Helanlangowuyo, Kec. Ile Boleng, Kabupaten Flores Timur, Nusa Tenggara Tim.","Kabupaten Flores Timur, Nusa Tenggara Tim.",NUSA TENGGARA TIMUR,,Indonesia,81236734950.0,,,-8.3839193,123.2588018,https://maps.google.com/?cid=0x0:0x90502241443203b0,
hardware store,Toko Bahan Bangunan,Toko Anugerah,"Podor, Lewolere, Kec. Larantuka, Kabupaten Flores Timur, Nusa Tenggara Tim. 86212","Lewolere, Kec. Larantuka, Kabupaten Flores Timur",NUSA TENGGARA TIMUR,86212.0,Indonesia,81338919233.0,,,-8.3515405,122.9643203,https://maps.google.com/?cid=0x0:0x460c9471ebbb83e8,
hardware store,Kantor Administrasi Kota,kantor lurah balela,"MX3J+QFV, Jl. Don Lorenzo, Balela, Kec. Larantuka, Kabupaten Flores Timur, Nusa Tenggara Tim.","Kabupaten Flores Timur, Nusa Tenggara Tim.",NUSA TENGGARA TIMUR,,Indonesia,,,,-8.345521,122.9811712,https://maps.google.com/?cid=0x0:0x7462de77b7dc53d1,
hardware store,Kantor Perusahaan,Bina Ilmu Toko,"MX3J+H57, JL. Niaga, Balela, Kec. Larantuka, Kabupaten Flores Timur, Nusa Tenggara Tim.","Kabupaten Flores Timur, Nusa Tenggara Tim.",NUSA TENGGARA TIMUR,,Indonesia,3832325363.0,,,-8.3460792,122.9804283,https://maps.google.com/?cid=0x0:0xb178c06f8e01a04d,
hardware store,Toko Komputer,Mandala Computer Jual Beli Komputer Bogor,"Jl. Sumur Wangi, RT.03/RW.09, Kayu Manis, Kec. Tanah Sereal, Kota Bogor, Jawa Barat 16169","RT.03/RW.09, Kayu Manis, Kec. Tanah Sereal, Kota Bogor",NUSA TENGGARA TIMUR,16169.0,Indonesia,89615873689.0,,,-6.5231374,106.773452,https://maps.google.com/?cid=0x0:0x692e0c8dd4924653,
hardware store,Toko Komputer,Home and Warehouse Mandala Computer Bogor,"Jl. Sumur Wangi No.33 Rt. 05/07, RT.05/RW.07, Kayu Manis, Kec. Tanah Sereal, Kota Bogor, Jawa Barat 16169","RT.05/RW.07, Kayu Manis, Kec. Tanah Sereal, Kota Bogor",NUSA TENGGARA TIMUR,16169.0,Indonesia,89615873689.0,,,-6.5225222,106.7693163,https://maps.google.com/?cid=0x0:0x2bafa4eb0d605782,
hardware store,hardware store,Nusa Tenggara Tim.,,Nusa Tenggara Tim.,NUSA TENGGARA TIMUR,,Indonesia,,,,-8.6573819,121.0793705,https://maps.google.com/?cid=0x0:0x1030bfbcaf71ae0,
hardware store,Toko Elektronik,UD. AYUSARI,"M2J7+RX7, Sarotari, Kec. Larantuka, Kabupaten Flores Timur, Nusa Tenggara Tim.","Kabupaten Flores Timur, Nusa Tenggara Tim.",NUSA TENGGARA TIMUR,,Indonesia,81236888999.0,,,-8.3179559,123.0149169,https://maps.google.com/?cid=0x0:0x84308a2d3e4f2041,
hardware store,Toko Elektronik,Lareska Store,"MX5Q+78G, Lokea, Kec. Larantuka, Kabupaten Flores Timur, Nusa Tenggara Tim.","Kabupaten Flores Timur, Nusa Tenggara Tim.",NUSA TENGGARA TIMUR,,Indonesia,,,,-8.3418039,122.9883149,https://maps.google.com/?cid=0x0:0xfbf7904f5ac3e792,
hardware store,Toko Elektronik,Toko HERO elektronik,"Jl. Jend. Sudirman No.123, Sarotari, Kec. Larantuka, Kabupaten Flores Timur, Nusa Tenggara Tim.","Kabupaten Flores Timur, Nusa Tenggara Tim.",NUSA TENGGARA TIMUR,,Indonesia,81239816666.0,,,-8.314966,123.0169959,https://maps.google.com/?cid=0x0:0x29e37f8f0ff36430,
hardware store,Jasa Reparasi Komputer,EMANUEL FERNANDEZ COMPUTER,"Lrg. Mercusuar, Sarotari Tengah, Kec. Larantuka, Kabupaten Flores Timur, Nusa Tenggara Tim. 86219","Sarotari Tengah, Kec. Larantuka, Kabupaten Flores Timur",NUSA TENGGARA TIMUR,86219.0,Indonesia,82145876543.0,,,-8.3155806,123.0169193,https://maps.google.com/?cid=0x0:0x9454f5e7a46abc27,
hardware store,Toko Elektronik,DUTA ELEKTRONIK,"MX5Q+488, Lokea, Kec. Larantuka, Kabupaten Flores Timur, Nusa Tenggara Tim.","Kabupaten Flores Timur, Nusa Tenggara Tim.",NUSA TENGGARA TIMUR,,Indonesia,,,,-8.3422055,122.9883187,https://maps.google.com/?cid=0x0:0x7d7dbe4917eb66a2,
hardware store,Tujuan Wisata,Lamahelan,"J785+CGM, RT.018/RW.006, Helanlangowuyo, Kec. Ile Boleng, Kabupaten Flores Timur, Nusa Tenggara Tim.","Kabupaten Flores Timur, Nusa Tenggara Tim.",NUSA TENGGARA TIMUR,,Indonesia,81236734950.0,,,-8.3839193,123.2588018,https://maps.google.com/?cid=0x0:0x90502241443203b0,
hardware store,Bengkel Elektronik,Mutiara Cb  Elektronik Service,"MX7P+2PR, Unnamed Rd, Postoh, Kec. Larantuka, Kabupaten Flores Timur, Nusa Tenggara Tim.","Kabupaten Flores Timur, Nusa Tenggara Tim.",NUSA TENGGARA TIMUR,,Indonesia,85205575168.0,,,-8.3373905,122.9867566,https://maps.google.com/?cid=0x0:0x6ec85a7adadf1ab4,
hardware store,Toko Elektronik,Olshop_68,"MWMG+8Q9, Wailolong, Kec. Ile Mandiri, Kabupaten Flores Timur, Nusa Tenggara Tim.","Kabupaten Flores Timur, Nusa Tenggara Tim.",NUSA TENGGARA TIMUR,,Indonesia,,,,-8.316705,122.9269927,https://maps.google.com/?cid=0x0:0x55ee40f6574e16a0,
hardware store,Jasa Reparasi Komputer,SANJUAN COMPUTER,"M2G4+CGW, Puken Tobi Wangi Bao, Kec. Larantuka, Kabupaten Flores Timur, Nusa Tenggara Tim.","Kabupaten Flores Timur, Nusa Tenggara Tim.",NUSA TENGGARA TIMUR,,Indonesia,85336027765.0,,,-8.3238979,123.0063215,https://maps.google.com/?cid=0x0:0xb960f96202b6d806,
hardware store,Toko,Toko Surya,"J557+RVF, Unnamed Rd,, Waiwerang Kota, Kec. Adonara Tim., Kabupaten Flores Timur, Nusa Tenggara Tim.","Kabupaten Flores Timur, Nusa Tenggara Tim.",NUSA TENGGARA TIMUR,,Indonesia,,,,-8.3904292,123.1646655,https://maps.google.com/?cid=0x0:0x88371876c574e1ec,
hardware store,Toko Elektronik,Toko TIRTA SELAMAT,"waiwerang kota Rt 01 Rw 01 Kelurahan, Waiwerang Kota, Kec. Adonara Tim., Kabupaten Flores Timur, Nusa Tenggara Tim.","Kabupaten Flores Timur, Nusa Tenggara Tim.",NUSA TENGGARA TIMUR,,Indonesia,81335321973.0,,,-8.3900986,123.1638451,https://maps.google.com/?cid=0x0:0x4daa5845b0098f4f,
hardware store,Pusat Perbelanjaan,Toko Tomia,"J557+PM7, kompleks pasar lama Adonara Tim., Nusa Tenggara Tim., Waiwerang Kota, Kec. Adonara Tim., Kabupaten Flores Timur, Nusa Tenggara Tim.","Kabupaten Flores Timur, Nusa Tenggara Tim.",NUSA TENGGARA TIMUR,,Indonesia,,,,-8.390715,123.1641829,https://maps.google.com/?cid=0x0:0x49eea345b5c2a981,
hardware store,Toko Alat Pancing,Toko Karya Dewi,"5J2V+PMP, Kel. Mbongawani, Kec. Ende Sel., Kabupaten Ende, Nusa Tenggara Tim.","Kabupaten Ende, Nusa Tenggara Tim.",NUSA TENGGARA TIMUR,,Indonesia,38121138.0,,,-8.8481551,121.6441951,https://maps.google.com/?cid=0x0:0x25184539229b56d2,
hardware store,Toko Perlengkapan Rumah,ElvanoHHome,"M6M8+GMH, Horinara, Kec. Kelubagolit, Kabupaten Flores Timur, Nusa Tenggara Tim.","Kabupaten Flores Timur, Nusa Tenggara Tim.",NUSA TENGGARA TIMUR,,Indonesia,8123902705.0,,,-8.3161798,123.2167219,https://maps.google.com/?cid=0x0:0xc6b78303523224cb,
hardware store,hardware store,Larantuka,"Pohon Sirih, Kec. Larantuka, Kabupaten Flores Timur, Nusa Tenggara Tim.","Kabupaten Flores Timur, Nusa Tenggara Tim.",NUSA TENGGARA TIMUR,,Indonesia,,,,-8.3452356,122.9813914,https://maps.google.com/?cid=0x0:0x4eb6d148bb7ab09e,
hardware store,Toko Bahan Bangunan,Toko Anugerah,"Podor, Lewolere, Kec. Larantuka, Kabupaten Flores Timur, Nusa Tenggara Tim. 86212","Lewolere, Kec. Larantuka, Kabupaten Flores Timur",NUSA TENGGARA TIMUR,86212.0,Indonesia,81338919233.0,,,-8.3515405,122.9643203,https://maps.google.com/?cid=0x0:0x460c9471ebbb83e8,
hardware store,Kantor Administrasi Kota,kantor lurah balela,"MX3J+QFV, Jl. Don Lorenzo, Balela, Kec. Larantuka, Kabupaten Flores Timur, Nusa Tenggara Tim.","Kabupaten Flores Timur, Nusa Tenggara Tim.",NUSA TENGGARA TIMUR,,Indonesia,,,,-8.345521,122.9811712,https://maps.google.com/?cid=0x0:0x7462de77b7dc53d1,
hardware store,Kantor Perusahaan,Bina Ilmu Toko,"MX3J+H57, JL. Niaga, Balela, Kec. Larantuka, Kabupaten Flores Timur, Nusa Tenggara Tim.","Kabupaten Flores Timur, Nusa Tenggara Tim.",NUSA TENGGARA TIMUR,,Indonesia,3832325363.0,,,-8.3460792,122.9804283,https://maps.google.com/?cid=0x0:0xb178c06f8e01a04d,
hardware store,,Toko Surya Larantuka,"Jl. San Juan, Sarotari, Kec. Larantuka, Kabupaten Flores Timur, Nusa Tenggara Tim.","Kabupaten Flores Timur, Nusa Tenggara Tim.",NUSA TENGGARA TIMUR,,Indonesia,81332037727.0,,,-8.3206853,123.0099464,https://maps.google.com/?cid=0x0:0xdc0f33f39486bb5d,
hardware store,hardware store,Kec. Lewolema,"Kabupaten Flores Timur, Nusa Tenggara Tim.","Kabupaten Flores Timur, Nusa Tenggara Tim.",NUSA TENGGARA TIMUR,,Indonesia,,,,-8.289988,122.9156542,https://maps.google.com/?cid=0x0:0x171191025c545591,
hardware store,Toko,Toko METRO,"M2G4+PJQ, Sarotari, Kec. Larantuka, Kabupaten Flores Timur, Nusa Tenggara Tim.","Kabupaten Flores Timur, Nusa Tenggara Tim.",NUSA TENGGARA TIMUR,,Indonesia,,,,-8.323167,123.0066065,https://maps.google.com/?cid=0x0:0xd7c1593bab565411,
hardware store,,Toko Surya Larantuka,"Jl. San Juan, Sarotari, Kec. Larantuka, Kabupaten Flores Timur, Nusa Tenggara Tim.","Kabupaten Flores Timur, Nusa Tenggara Tim.",NUSA TENGGARA TIMUR,,Indonesia,81332037727.0,,,-8.3206853,123.0099464,https://maps.google.com/?cid=0x0:0xdc0f33f39486bb5d,
hardware store,Bengkel Elektronik,Mutiara Cb  Elektronik Service,"MX7P+2PR, Unnamed Rd, Postoh, Kec. Larantuka, Kabupaten Flores Timur, Nusa Tenggara Tim.","Kabupaten Flores Timur, Nusa Tenggara Tim.",NUSA TENGGARA TIMUR,,Indonesia,85205575168.0,,,-8.3373905,122.9867566,https://maps.google.com/?cid=0x0:0x6ec85a7adadf1ab4,
hardware store,Jasa Instalasi Listrik,Service elektronik,"M2G3+V98, Puken Tobi Wangi Bao, Kec. Larantuka, Kabupaten Flores Timur, Nusa Tenggara Tim.","Kabupaten Flores Timur, Nusa Tenggara Tim.",NUSA TENGGARA TIMUR,,Indonesia,,,,-8.3226529,123.0034725,https://maps.google.com/?cid=0x0:0xbed1461f578eaa09,
hardware store,hardware store,Kec. Solor Bar.,"Kabupaten Flores Timur, Nusa Tenggara Tim.","Kabupaten Flores Timur, Nusa Tenggara Tim.",NUSA TENGGARA TIMUR,,Indonesia,,,,-8.5289776,122.8843335,https://maps.google.com/?cid=0x0:0x5e00c8168cd8d46f,
hardware store,Toko Elektronik,DUTA ELEKTRONIK,"MX5Q+488, Lokea, Kec. Larantuka, Kabupaten Flores Timur, Nusa Tenggara Tim.","Kabupaten Flores Timur, Nusa Tenggara Tim.",NUSA TENGGARA TIMUR,,Indonesia,,,,-8.3422055,122.9883187,https://maps.google.com/?cid=0x0:0x7d7dbe4917eb66a2,
hardware store,hardware store,Kec. Solor Sel.,"Kabupaten Flores Timur, Nusa Tenggara Tim.","Kabupaten Flores Timur, Nusa Tenggara Tim.",NUSA TENGGARA TIMUR,,Indonesia,,,,-8.4779937,123.0181263,https://maps.google.com/?cid=0x0:0xc1777756a42d0e72,
hardware store,hardware store,Arel shop,"GX6P+3XV, Jln utama, RT.01/RW.01, Kenere, Kec. Solor Sel., Kabupaten Flores Timur, Nusa Tenggara Tim.","Kabupaten Flores Timur, Nusa Tenggara Tim.",NUSA TENGGARA TIMUR,,Indonesia,,,,-8.4897528,122.9874239,https://maps.google.com/?cid=0x0:0xdf61c04d1eefb2eb,
hardware store,hardware store,Arel shop,"GX6P+3XV, Jln utama, RT.01/RW.01, Kenere, Kec. Solor Sel., Kabupaten Flores Timur, Nusa Tenggara Tim.","Kabupaten Flores Timur, Nusa Tenggara Tim.",NUSA TENGGARA TIMUR,,Indonesia,,,,-8.4897528,122.9874239,https://maps.google.com/?cid=0x0:0xdf61c04d1eefb2eb,
hardware store,Toko Bahan Bangunan,Hardware Clothing,"Rukan Gading Indah, Blok V9-12, RT.18/RW.8, Klp. Gading Bar., Kec. Klp. Gading, Jkt Utara, Daerah Khusus Ibukota Jakarta 12930","Blok V9-12, RT.18/RW.8, Klp. Gading Bar., Kec. Klp. Gading, Jkt Utara",NUSA TENGGARA TIMUR,12930.0,Indonesia,2125539858.0,,,-6.149231,106.896942,https://maps.google.com/?cid=0x0:0x488fdb7f986cd389,
hardware store,Toko Pakaian Wanita,Hardware,"Mal Metropolitan, Jl. KH. Noer Ali No.2, RT.008/RW.002, Pekayon Jaya, Kec. Bekasi Sel., Kota Bks, Jawa Barat 17148","Jl. KH. Noer Ali No.2, RT.008/RW.002, Pekayon Jaya, Kec. Bekasi Sel., Kota Bks",NUSA TENGGARA TIMUR,17148.0,Indonesia,2188861991.0,,,-6.2480342,106.9915778,https://maps.google.com/?cid=0x0:0x4ae65d80217112f0,
hardware store,Toko,Toko Surya,"J557+RVF, Unnamed Rd,, Waiwerang Kota, Kec. Adonara Tim., Kabupaten Flores Timur, Nusa Tenggara Tim.","Kabupaten Flores Timur, Nusa Tenggara Tim.",NUSA TENGGARA TIMUR,,Indonesia,,,,-8.3904292,123.1646655,https://maps.google.com/?cid=0x0:0x88371876c574e1ec,
hardware store,Toko,Toko Sun Makmur,"Waiwerang Kota, Kec. Adonara Tim., Kabupaten Flores Timur, Nusa Tenggara Tim.","Kabupaten Flores Timur, Nusa Tenggara Tim.",NUSA TENGGARA TIMUR,,Indonesia,81330780006.0,,,-8.3897552,123.1649086,https://maps.google.com/?cid=0x0:0xc1f8a56bfe17eb8f,
hardware store,hardware store,Kec. Solor Tim.,"Kabupaten Flores Timur, Nusa Tenggara Tim.","Kabupaten Flores Timur, Nusa Tenggara Tim.",NUSA TENGGARA TIMUR,,Indonesia,,,,-8.4650139,123.1213694,https://maps.google.com/?cid=0x0:0xa027534c79ffd422,
hardware store,Toko,Rukun Jaya,"J557+MRQ, Waiwerang Kota, Kec. Adonara Tim., Kabupaten Flores Timur, Nusa Tenggara Tim.","Kabupaten Flores Timur, Nusa Tenggara Tim.",NUSA TENGGARA TIMUR,,Indonesia,,,,-8.3907798,123.1645982,https://maps.google.com/?cid=0x0:0x4f31e83665fb3ac4,
hardware store,Toko Fotokopi,RB Photocopy,"H3XP+C8M, Jl. Trans Adonara, Klukengnuking, Kec. Wotan Ulumando, Kabupaten Flores Timur, Nusa Tenggara Tim.","Kabupaten Flores Timur, Nusa Tenggara Tim.",NUSA TENGGARA TIMUR,,Indonesia,82340283079.0,,,-8.4014009,123.0857853,https://maps.google.com/?cid=0x0:0x108c61f5fb98f698,
hardware store,Toko Elektronik,Olshop_68,"MWMG+8Q9, Wailolong, Kec. Ile Mandiri, Kabupaten Flores Timur, Nusa Tenggara Tim.","Kabupaten Flores Timur, Nusa Tenggara Tim.",NUSA TENGGARA TIMUR,,Indonesia,,,,-8.316705,122.9269927,https://maps.google.com/?cid=0x0:0x55ee40f6574e16a0,
hardware store,Toko Elektronik,Lamatokanstore,"M7RM+259, Riangduli, Kec. Witihama, Kabupaten Flores Timur, Nusa Tenggara Tim.","Kabupaten Flores Timur, Nusa Tenggara Tim.",NUSA TENGGARA TIMUR,,Indonesia,82251782448.0,,,-8.3099628,123.2829843,https://maps.google.com/?cid=0x0:0x40f2502c9cb29ffb,
hardware store,Toko,Toko METRO,"M2G4+PJQ, Sarotari, Kec. Larantuka, Kabupaten Flores Timur, Nusa Tenggara Tim.","Kabupaten Flores Timur, Nusa Tenggara Tim.",NUSA TENGGARA TIMUR,,Indonesia,,,,-8.323167,123.0066065,https://maps.google.com/?cid=0x0:0xd7c1593bab565411,
hardware store,Toko Bahan Bangunan,Tanjung Bunga Hardware Sdn. Bhd.,"599-R, Jalan Lembah Permai, Pulau Pinang, 11200 Tanjung Bungah, Malaysia",Tanjung Bungah,NUSA TENGGARA TIMUR,11200.0,Indonesia,6048907242.0,,,5.4589327,100.2815272,https://maps.google.com/?cid=0x0:0x97b2d39256de6adf,
hardware store,Toko Bahan Bangunan,Northern Hardware Sdn Bhd,"2i-G, Jln Lembah Permai, 11200 Tanjung Bungah, Penang, Malaysia",Tanjung Bungah,NUSA TENGGARA TIMUR,11200.0,Indonesia,,,,5.4649328,100.2803694,https://maps.google.com/?cid=0x0:0x763d7cac07eb4cae,
hardware store,hardware store,Kec. Titehena,"Kabupaten Flores Timur, Nusa Tenggara Tim.","Kabupaten Flores Timur, Nusa Tenggara Tim.",NUSA TENGGARA TIMUR,,Indonesia,,,,-8.3698253,122.7583467,https://maps.google.com/?cid=0x0:0x8f5ba4f86cc55d21,
hardware store,hardware store,Witihama,"Pledo, Kec. Witihama, Kabupaten Flores Timur, Nusa Tenggara Tim.","Kabupaten Flores Timur, Nusa Tenggara Tim.",NUSA TENGGARA TIMUR,,Indonesia,,,,-8.268047,123.320357,https://maps.google.com/?cid=0x0:0x62eede8c38a858e4,
hardware store,hardware store,Kec. Witihama,"Kabupaten Flores Timur, Nusa Tenggara Tim.","Kabupaten Flores Timur, Nusa Tenggara Tim.",NUSA TENGGARA TIMUR,,Indonesia,,,,-8.2994084,123.2612584,https://maps.google.com/?cid=0x0:0xb59ca4394d457921,
hardware store,hardware store,Nusa Tenggara Tim.,,Nusa Tenggara Tim.,NUSA TENGGARA TIMUR,,Indonesia,,,,-8.6573819,121.0793705,https://maps.google.com/?cid=0x0:0x1030bfbcaf71ae0,
hardware store,Pemasok Bahan Bangunan,Toko semen,"H3XW+8C7, Jl. Trans Adonara, Pandai, Kec. Wotan Ulumando, Kabupaten Flores Timur, Nusa Tenggara Tim.","Kabupaten Flores Timur, Nusa Tenggara Tim.",NUSA TENGGARA TIMUR,,Indonesia,,,,-8.4017035,123.0960553,https://maps.google.com/?cid=0x0:0x14c456eae558bb30,
hardware store,Toko Bahan Bangunan,UD. Sumber Logam,"Jl. Jenderal Sudirman No.49, Kuanino, Kec. Kota Raja, Kota Kupang, Nusa Tenggara Tim.","Kota Kupang, Nusa Tenggara Tim.",NUSA TENGGARA TIMUR,,Indonesia,81337811116.0,,,-10.1714636,123.5905003,https://maps.google.com/?cid=0x0:0x2834c9c645cae3f1,
hardware store,Toko Fotokopi,RB Photocopy,"H3XP+C8M, Jl. Trans Adonara, Klukengnuking, Kec. Wotan Ulumando, Kabupaten Flores Timur, Nusa Tenggara Tim.","Kabupaten Flores Timur, Nusa Tenggara Tim.",NUSA TENGGARA TIMUR,,Indonesia,82340283079.0,,,-8.4014009,123.0857853,https://maps.google.com/?cid=0x0:0x108c61f5fb98f698,
hardware store,,Toko Surya Larantuka,"Jl. San Juan, Sarotari, Kec. Larantuka, Kabupaten Flores Timur, Nusa Tenggara Tim.","Kabupaten Flores Timur, Nusa Tenggara Tim.",NUSA TENGGARA TIMUR,,Indonesia,81332037727.0,,,-8.3206853,123.0099464,https://maps.google.com/?cid=0x0:0xdc0f33f39486bb5d,
hardware store,Toko,Toko METRO,"M2G4+PJQ, Sarotari, Kec. Larantuka, Kabupaten Flores Timur, Nusa Tenggara Tim.","Kabupaten Flores Timur, Nusa Tenggara Tim.",NUSA TENGGARA TIMUR,,Indonesia,,,,-8.323167,123.0066065,https://maps.google.com/?cid=0x0:0xd7c1593bab565411,
hardware store,hardware store,Toko bangunan,"H3XW+5HC, Jl. Trans Adonara, Pandai, Kec. Wotan Ulumando, Kabupaten Flores Timur, Nusa Tenggara Tim.","Kabupaten Flores Timur, Nusa Tenggara Tim.",NUSA TENGGARA TIMUR,,Indonesia,,,,-8.4020537,123.0963889,https://maps.google.com/?cid=0x0:0x9ba4b77d2319ccc,
hardware store,Toko Elektronik,Rk Foto Copy  Oyen Computer,"M2C4+R6P, Puken Tobi Wangi Bao, Kec. Larantuka, Kabupaten Flores Timur, Nusa Tenggara Tim.","Kabupaten Flores Timur, Nusa Tenggara Tim.",NUSA TENGGARA TIMUR,,Indonesia,,,,-8.3279159,123.0055773,https://maps.google.com/?cid=0x0:0xd530927ac18c5c6c,
hardware store,Komplek perumahan,Meubel Ramayana,"Unnamed Road, Hokeng Jaya, Kec. Wulanggitang, Kabupaten Flores Timur, Nusa Tenggara Tim.","Kabupaten Flores Timur, Nusa Tenggara Tim.",NUSA TENGGARA TIMUR,,Indonesia,81236570370.0,,,-8.5237864,122.7253227,https://maps.google.com/?cid=0x0:0xdfbf86d62fda5e9a,
hardware store,Aksesori Mebel,Anjera mebel,"FPCF+G2G, Hokeng Jaya, Kec. Wulanggitang, Kabupaten Flores Timur, Nusa Tenggara Tim.","Kabupaten Flores Timur, Nusa Tenggara Tim.",NUSA TENGGARA TIMUR,,Indonesia,,,,-8.5291473,122.7232913,https://maps.google.com/?cid=0x0:0x94e18116ff98d127,
toko bangunan,toko bangunan,Nusa Tenggara Tim.,,Nusa Tenggara Tim.,NUSA TENGGARA TIMUR,,Indonesia,,,,-8.6573819,121.0793705,https://maps.google.com/?cid=0x0:0x1030bfbcaf71ae0,
toko bangunan,toko bangunan,Toko tunas harapan,"Jalan raya pasar impres, Waiwerang Kota, Kec. Adonara Tim., Kabupaten Flores Timur, Nusa Tenggara Tim.","Kabupaten Flores Timur, Nusa Tenggara Tim.",NUSA TENGGARA TIMUR,,Indonesia,,,,-8.3857489,123.161861,https://maps.google.com/?cid=0x0:0xaac4f545b7f99063,
toko bangunan,Toko Bahan Bangunan,TOKO LAMAHALA,"J568+3XV, Waiwerang Kota, Kec. Adonara Tim., Kabupaten Flores Timur, Nusa Tenggara Tim.","Kabupaten Flores Timur, Nusa Tenggara Tim.",NUSA TENGGARA TIMUR,,Indonesia,,,,-8.3897617,123.1674094,https://maps.google.com/?cid=0x0:0x83eaa05e02756d1,
toko bangunan,Toko Bahan Bangunan,Flores Depo Bangunan,"Jl. Trans Flores, Goron Talo, Kec. Komodo, Kabupaten Manggarai Barat, Nusa Tenggara Tim.","Kabupaten Manggarai Barat, Nusa Tenggara Tim.",NUSA TENGGARA TIMUR,,Indonesia,81239434040.0,,,-8.502223,119.8825278,https://maps.google.com/?cid=0x0:0x7ddeae9ccf378db2,
toko bangunan,Toko,Toko Surya,"J557+RVF, Unnamed Rd,, Waiwerang Kota, Kec. Adonara Tim., Kabupaten Flores Timur, Nusa Tenggara Tim.","Kabupaten Flores Timur, Nusa Tenggara Tim.",NUSA TENGGARA TIMUR,,Indonesia,,,,-8.3904292,123.1646655,https://maps.google.com/?cid=0x0:0x88371876c574e1ec,
toko bangunan,Toko Bahan Bangunan,Lima Jaya,"Waiwerang Kota, Kec. Adonara Tim., Kabupaten Flores Timur, Nusa Tenggara Tim.","Kabupaten Flores Timur, Nusa Tenggara Tim.",NUSA TENGGARA TIMUR,,Indonesia,,,,-8.3912034,123.1659932,https://maps.google.com/?cid=0x0:0xaa8c461e64a5388a,
toko bangunan,Toko Perlengkapan Rumah,Toko Indah,"J557+XWR, Waiwerang Kota, Kec. Adonara Tim., Kabupaten Flores Timur, Nusa Tenggara Tim.","Kabupaten Flores Timur, Nusa Tenggara Tim.",NUSA TENGGARA TIMUR,,Indonesia,,,,-8.3900161,123.1647803,https://maps.google.com/?cid=0x0:0xf0375ace27701ea9,
toko bangunan,Toko Bahan Bangunan,Toko Bangunan Surya Yatna,"Jl. Re. Martadinata No.34, RT.03/RW.03, Cibogor, Kecamatan Bogor Tengah, Kota Bogor, Jawa Barat 16124","RT.03/RW.03, Cibogor, Kecamatan Bogor Tengah, Kota Bogor",NUSA TENGGARA TIMUR,16124.0,Indonesia,81317705650.0,,,-6.5834159,106.7921318,https://maps.google.com/?cid=0x0:0x4e69e9138028d35,
toko bangunan,Toko Bahan Bangunan,toko Bangunan Pb.Jaya,"CRF2+2Q8, RT.01/RW.04, Bantarjati, Kec. Bogor Utara, Kota Bogor, Jawa Barat 16161","RT.01/RW.04, Bantarjati, Kec. Bogor Utara, Kota Bogor",NUSA TENGGARA TIMUR,16161.0,Indonesia,85166898822.0,,,-6.5774567,106.8019621,https://maps.google.com/?cid=0x0:0xfed952c3a581ebc9,
toko bangunan,toko bangunan,Toko Bangunan,"M4VH+XM9, Unnamed Road, Wato Baya, Kec. Adonara Bar., Kabupaten Flores Timur, Nusa Tenggara Tim.","Kabupaten Flores Timur, Nusa Tenggara Tim.",NUSA TENGGARA TIMUR,,Indonesia,,,,-8.30508,123.129221,https://maps.google.com/?cid=0x0:0xe8455770e5ef0fb5,
toko bangunan,toko bangunan,Kec. Adonara Bar.,"Kabupaten Flores Timur, Nusa Tenggara Tim.","Kabupaten Flores Timur, Nusa Tenggara Tim.",NUSA TENGGARA TIMUR,,Indonesia,,,,-8.2755201,123.0930745,https://maps.google.com/?cid=0x0:0xd4c07e89b92983b9,
toko bangunan,toko bangunan,TOKO SARANA BANGUNAN,"Sarotari, Kec. Larantuka, Kabupaten Flores Timur, Nusa Tenggara Tim.","Kabupaten Flores Timur, Nusa Tenggara Tim.",NUSA TENGGARA TIMUR,,Indonesia,,,,-8.3174036,123.015044,https://maps.google.com/?cid=0x0:0xaf0fa1e6b09259c7,
toko bangunan,Toko Bahan Bangunan,Toko Putera Bungsu,"M2Q9+P77, Sarotari, Kec. Larantuka, Kabupaten Flores Timur, Nusa Tenggara Tim.","Kabupaten Flores Timur, Nusa Tenggara Tim.",NUSA TENGGARA TIMUR,,Indonesia,38321034.0,,,-8.3107046,123.0181747,https://maps.google.com/?cid=0x0:0xeb6aa1228f7df5d0,
toko bangunan,Pemasok Bahan Bangunan,UD Mitra Mandiri,"M2C3+FRG, Puken Tobi Wangi Bao, Kec. Larantuka, Kabupaten Flores Timur, Nusa Tenggara Tim.","Kabupaten Flores Timur, Nusa Tenggara Tim.",NUSA TENGGARA TIMUR,,Indonesia,81232300777.0,,,-8.3288177,123.0045842,https://maps.google.com/?cid=0x0:0xa972a1abd2defb3a,
toko bangunan,Toko Bahan Bangunan,TOKO LAMAHALA,"J568+3XV, Waiwerang Kota, Kec. Adonara Tim., Kabupaten Flores Timur, Nusa Tenggara Tim.","Kabupaten Flores Timur, Nusa Tenggara Tim.",NUSA TENGGARA TIMUR,,Indonesia,,,,-8.3897617,123.1674094,https://maps.google.com/?cid=0x0:0x83eaa05e02756d1,
toko bangunan,Pemasok Bahan Bangunan,Toko Teratai/Tio,"Jl. Niaga No.50, Postoh, Kec. Larantuka, Kabupaten Flores Timur, Nusa Tenggara Tim.","Kabupaten Flores Timur, Nusa Tenggara Tim.",NUSA TENGGARA TIMUR,,Indonesia,38321401.0,,,-8.3415086,122.9891408,https://maps.google.com/?cid=0x0:0x67cea815f38e4754,
toko bangunan,Toko Bahan Bangunan,The Warehouse,"Jl. Soekarno - Hatta Watowiti, Tiwatobi, Kec. Ile Mandiri, Kabupaten Flores Timur, Nusa Tenggara Tim.","Kabupaten Flores Timur, Nusa Tenggara Tim.",NUSA TENGGARA TIMUR,,Indonesia,82147326746.0,,,-8.279221,123.0111616,https://maps.google.com/?cid=0x0:0xc4bcdd62d4e883cd,
toko bangunan,toko bangunan,Tunas harapan,"J558+H6H, Jalan trans, Waiwerang Kota, Kec. Adonara Tim., Kabupaten Flores Timur, Nusa Tenggara Tim.","Kabupaten Flores Timur, Nusa Tenggara Tim.",NUSA TENGGARA TIMUR,,Indonesia,,,,-8.3910742,123.16562,https://maps.google.com/?cid=0x0:0xc2872e8b5d0ed36b,
toko bangunan,Toko Bahan Bangunan,GCA Waiwerang,"J578+4RH, Waiburak, Kec. Adonara Tim., Kabupaten Flores Timur, Nusa Tenggara Tim.","Kabupaten Flores Timur, Nusa Tenggara Tim.",NUSA TENGGARA TIMUR,,Indonesia,81338593489.0,,,-8.3871825,123.1670995,https://maps.google.com/?cid=0x0:0x2615f60b75835fc3,
toko bangunan,Toko Elektronik,UD. AYUSARI,"M2J7+RX7, Sarotari, Kec. Larantuka, Kabupaten Flores Timur, Nusa Tenggara Tim.","Kabupaten Flores Timur, Nusa Tenggara Tim.",NUSA TENGGARA TIMUR,,Indonesia,81236888999.0,,,-8.3179559,123.0149169,https://maps.google.com/?cid=0x0:0x84308a2d3e4f2041,
toko bangunan,Toko Bahan Bangunan,Toko Putera Flores,"Jl. Niaga No.139, Postoh, Kec. Larantuka, Kabupaten Flores Timur, Nusa Tenggara Tim.","Kabupaten Flores Timur, Nusa Tenggara Tim.",NUSA TENGGARA TIMUR,,Indonesia,,,,-8.3402203,122.9906562,https://maps.google.com/?cid=0x0:0xff19555b5a37d44b,
toko bangunan,Toko,Toko Surya,"J557+RVF, Unnamed Rd,, Waiwerang Kota, Kec. Adonara Tim., Kabupaten Flores Timur, Nusa Tenggara Tim.","Kabupaten Flores Timur, Nusa Tenggara Tim.",NUSA TENGGARA TIMUR,,Indonesia,,,,-8.3904292,123.1646655,https://maps.google.com/?cid=0x0:0x88371876c574e1ec,
toko bangunan,Sekolah menengah,SMAN I Adonara Barat,"P482+84C, Waiwadan, Kec. Adonara Bar., Kabupaten Flores Timur, Nusa Tenggara Tim.","Kabupaten Flores Timur, Nusa Tenggara Tim.",NUSA TENGGARA TIMUR,,Indonesia,,,,-8.2841919,123.1002722,https://maps.google.com/?cid=0x0:0x29a8bff966b4c0bd,
toko bangunan,toko bangunan,Kec. Adonara Tengah,"Kabupaten Flores Timur, Nusa Tenggara Tim.","Kabupaten Flores Timur, Nusa Tenggara Tim.",NUSA TENGGARA TIMUR,,Indonesia,,,,-8.3253553,123.1492141,https://maps.google.com/?cid=0x0:0x9a478d355b398390,
toko bangunan,toko bangunan,Toko tunas harapan,"Jalan raya pasar impres, Waiwerang Kota, Kec. Adonara Tim., Kabupaten Flores Timur, Nusa Tenggara Tim.","Kabupaten Flores Timur, Nusa Tenggara Tim.",NUSA TENGGARA TIMUR,,Indonesia,,,,-8.3857489,123.161861,https://maps.google.com/?cid=0x0:0xaac4f545b7f99063,
toko bangunan,Toko Bahan Bangunan,TOKO LAMAHALA,"J568+3XV, Waiwerang Kota, Kec. Adonara Tim., Kabupaten Flores Timur, Nusa Tenggara Tim.","Kabupaten Flores Timur, Nusa Tenggara Tim.",NUSA TENGGARA TIMUR,,Indonesia,,,,-8.3897617,123.1674094,https://maps.google.com/?cid=0x0:0x83eaa05e02756d1,
toko bangunan,toko bangunan,Toko Bangunan,"M4VH+XM9, Unnamed Road, Wato Baya, Kec. Adonara Bar., Kabupaten Flores Timur, Nusa Tenggara Tim.","Kabupaten Flores Timur, Nusa Tenggara Tim.",NUSA TENGGARA TIMUR,,Indonesia,,,,-8.30508,123.129221,https://maps.google.com/?cid=0x0:0xe8455770e5ef0fb5,
toko bangunan,Toko Bahan Bangunan,GCA Waiwerang,"J578+4RH, Waiburak, Kec. Adonara Tim., Kabupaten Flores Timur, Nusa Tenggara Tim.","Kabupaten Flores Timur, Nusa Tenggara Tim.",NUSA TENGGARA TIMUR,,Indonesia,81338593489.0,,,-8.3871825,123.1670995,https://maps.google.com/?cid=0x0:0x2615f60b75835fc3,
toko bangunan,toko bangunan,Nusa Tenggara Tim.,,Nusa Tenggara Tim.,NUSA TENGGARA TIMUR,,Indonesia,,,,-8.6573819,121.0793705,https://maps.google.com/?cid=0x0:0x1030bfbcaf71ae0,
toko bangunan,toko bangunan,Toko tunas harapan,"Jalan raya pasar impres, Waiwerang Kota, Kec. Adonara Tim., Kabupaten Flores Timur, Nusa Tenggara Tim.","Kabupaten Flores Timur, Nusa Tenggara Tim.",NUSA TENGGARA TIMUR,,Indonesia,,,,-8.3857489,123.161861,https://maps.google.com/?cid=0x0:0xaac4f545b7f99063,
toko bangunan,Toko Bahan Bangunan,TOKO LAMAHALA,"J568+3XV, Waiwerang Kota, Kec. Adonara Tim., Kabupaten Flores Timur, Nusa Tenggara Tim.","Kabupaten Flores Timur, Nusa Tenggara Tim.",NUSA TENGGARA TIMUR,,Indonesia,,,,-8.3897617,123.1674094,https://maps.google.com/?cid=0x0:0x83eaa05e02756d1,
toko bangunan,Toko Bahan Bangunan,toko gloria bangunan,"Jl. Kemakmuran No.14, Kel. Mbongawani, Kec. Ende Sel., Kabupaten Ende, Nusa Tenggara Tim.","Kabupaten Ende, Nusa Tenggara Tim.",NUSA TENGGARA TIMUR,,Indonesia,81331006673.0,,,-8.8465826,121.644941,https://maps.google.com/?cid=0x0:0xe6e6044a0d0864ee,
toko bangunan,Toko Bahan Bangunan,Toko Dahlia Ende,"Jln. Tiong Hwa No.2, Kel. Mbongawani, Flores, Kabupaten Ende, Nusa Tenggara Tim. 86313","Kel. Mbongawani, Flores, Kabupaten Ende",NUSA TENGGARA TIMUR,86313.0,Indonesia,82237373775.0,,,-8.8466294,121.6446825,https://maps.google.com/?cid=0x0:0xeca3778c25002304,
toko bangunan,Toko Bahan Bangunan,Toko Cipta Bangunan,"Wolomarang, Kec. Alok Bar., Kabupaten Sikka, Nusa Tenggara Tim.","Kabupaten Sikka, Nusa Tenggara Tim.",NUSA TENGGARA TIMUR,,Indonesia,81231842348.0,,,-8.6105049,122.1996912,https://maps.google.com/?cid=0x0:0x1d786c0067a3953f,
toko bangunan,Toko,Toko Surya,"J557+RVF, Unnamed Rd,, Waiwerang Kota, Kec. Adonara Tim., Kabupaten Flores Timur, Nusa Tenggara Tim.","Kabupaten Flores Timur, Nusa Tenggara Tim.",NUSA TENGGARA TIMUR,,Indonesia,,,,-8.3904292,123.1646655,https://maps.google.com/?cid=0x0:0x88371876c574e1ec,
toko bangunan,Toko Perlengkapan Rumah,Toko Karya Bangunan,"RJQV+H9Q, Jl. Bumi I, Oesapa Sel., Kec. Klp. Lima, Kota Kupang, Nusa Tenggara Tim.","Kota Kupang, Nusa Tenggara Tim.",NUSA TENGGARA TIMUR,,Indonesia,,,,-10.1610333,123.6434727,https://maps.google.com/?cid=0x0:0x480107de15c2a6cf,
toko bangunan,Pemasok Bahan Bangunan,Adonara Material Supplier,"M6WP+397, Desa, Redontena, Kec. Kelubagolit, Kabupaten Flores Timur, Nusa Tenggara Tim.","Kabupaten Flores Timur, Nusa Tenggara Tim.",NUSA TENGGARA TIMUR,,Indonesia,85229042006.0,,,-8.3048385,123.2359124,https://maps.google.com/?cid=0x0:0xfe1bf0fa435085c7,
toko bangunan,Toko Bahan Bangunan,Toko Bravo Bangunan,"Jl. Terusan Timor Raya, Pasir Panjang, Kec. Kota Lama, Kota Kupang, Nusa Tenggara Tim. 85000","Pasir Panjang, Kec. Kota Lama, Kota Kupang",NUSA TENGGARA TIMUR,85000.0,Indonesia,81246295800.0,,,-10.1509378,123.6033391,https://maps.google.com/?cid=0x0:0xdf4da131f9948aff,
toko bangunan,Toko Bahan Bangunan,toko sinar bangunan (ende),"5J3V+MWW, Kel. Mbongawani, Kec. Ende Sel., Kabupaten Ende, Nusa Tenggara Tim.","Kabupaten Ende, Nusa Tenggara Tim.",NUSA TENGGARA TIMUR,,Indonesia,38121454.0,,,-8.8457706,121.6448129,https://maps.google.com/?cid=0x0:0x286f8de860e51520,
toko bangunan,Pusat Perbelanjaan,Toko Tomia,"J557+PM7, kompleks pasar lama Adonara Tim., Nusa Tenggara Tim., Waiwerang Kota, Kec. Adonara Tim., Kabupaten Flores Timur, Nusa Tenggara Tim.","Kabupaten Flores Timur, Nusa Tenggara Tim.",NUSA TENGGARA TIMUR,,Indonesia,,,,-8.390715,123.1641829,https://maps.google.com/?cid=0x0:0x49eea345b5c2a981,
toko bangunan,Toko Bahan Bangunan,Lima Jaya,"Waiwerang Kota, Kec. Adonara Tim., Kabupaten Flores Timur, Nusa Tenggara Tim.","Kabupaten Flores Timur, Nusa Tenggara Tim.",NUSA TENGGARA TIMUR,,Indonesia,,,,-8.3912034,123.1659932,https://maps.google.com/?cid=0x0:0xaa8c461e64a5388a,
toko bangunan,toko bangunan,Tunas harapan,"J558+H6H, Jalan trans, Waiwerang Kota, Kec. Adonara Tim., Kabupaten Flores Timur, Nusa Tenggara Tim.","Kabupaten Flores Timur, Nusa Tenggara Tim.",NUSA TENGGARA TIMUR,,Indonesia,,,,-8.3910742,123.16562,https://maps.google.com/?cid=0x0:0xc2872e8b5d0ed36b,
toko bangunan,Toko Perlengkapan Rumah,Toko Indah,"J557+XWR, Waiwerang Kota, Kec. Adonara Tim., Kabupaten Flores Timur, Nusa Tenggara Tim.","Kabupaten Flores Timur, Nusa Tenggara Tim.",NUSA TENGGARA TIMUR,,Indonesia,,,,-8.3900161,123.1647803,https://maps.google.com/?cid=0x0:0xf0375ace27701ea9,
toko bangunan,Toko Bahan Bangunan,GCA Waiwerang,"J578+4RH, Waiburak, Kec. Adonara Tim., Kabupaten Flores Timur, Nusa Tenggara Tim.","Kabupaten Flores Timur, Nusa Tenggara Tim.",NUSA TENGGARA TIMUR,,Indonesia,81338593489.0,,,-8.3871825,123.1670995,https://maps.google.com/?cid=0x0:0x2615f60b75835fc3,
toko bangunan,Pemasok Bahan Bangunan,UD Mitra Mandiri,"M2C3+FRG, Puken Tobi Wangi Bao, Kec. Larantuka, Kabupaten Flores Timur, Nusa Tenggara Tim.","Kabupaten Flores Timur, Nusa Tenggara Tim.",NUSA TENGGARA TIMUR,,Indonesia,81232300777.0,,,-8.3288177,123.0045842,https://maps.google.com/?cid=0x0:0xa972a1abd2defb3a,
toko bangunan,Pemasok Bahan Bangunan,Toko semen,"H3XW+8C7, Jl. Trans Adonara, Pandai, Kec. Wotan Ulumando, Kabupaten Flores Timur, Nusa Tenggara Tim.","Kabupaten Flores Timur, Nusa Tenggara Tim.",NUSA TENGGARA TIMUR,,Indonesia,,,,-8.4017035,123.0960553,https://maps.google.com/?cid=0x0:0x14c456eae558bb30,
toko bangunan,toko bangunan,Toko bangunan,"H3XW+5HC, Jl. Trans Adonara, Pandai, Kec. Wotan Ulumando, Kabupaten Flores Timur, Nusa Tenggara Tim.","Kabupaten Flores Timur, Nusa Tenggara Tim.",NUSA TENGGARA TIMUR,,Indonesia,,,,-8.4020537,123.0963889,https://maps.google.com/?cid=0x0:0x9ba4b77d2319ccc,
toko bangunan,Toko Bahan Bangunan,Toko Bangunan Surya Yatna,"Jl. Re. Martadinata No.34, RT.03/RW.03, Cibogor, Kecamatan Bogor Tengah, Kota Bogor, Jawa Barat 16124","RT.03/RW.03, Cibogor, Kecamatan Bogor Tengah, Kota Bogor",NUSA TENGGARA TIMUR,16124.0,Indonesia,81317705650.0,,,-6.5834159,106.7921318,https://maps.google.com/?cid=0x0:0x4e69e9138028d35,
toko bangunan,toko bangunan,Kec. Demon Pagong,"Kabupaten Flores Timur, Nusa Tenggara Tim.","Kabupaten Flores Timur, Nusa Tenggara Tim.",NUSA TENGGARA TIMUR,,Indonesia,,,,-8.3945719,122.8529342,https://maps.google.com/?cid=0x0:0xe422697fdfed621e,
toko bangunan,toko bangunan,TOKO SARANA BANGUNAN,"Sarotari, Kec. Larantuka, Kabupaten Flores Timur, Nusa Tenggara Tim.","Kabupaten Flores Timur, Nusa Tenggara Tim.",NUSA TENGGARA TIMUR,,Indonesia,,,,-8.3174036,123.015044,https://maps.google.com/?cid=0x0:0xaf0fa1e6b09259c7,
toko bangunan,Toko Bahan Bangunan,Flores Depo Bangunan,"Jl. Trans Flores, Goron Talo, Kec. Komodo, Kabupaten Manggarai Barat, Nusa Tenggara Tim.","Kabupaten Manggarai Barat, Nusa Tenggara Tim.",NUSA TENGGARA TIMUR,,Indonesia,81239434040.0,,,-8.502223,119.8825278,https://maps.google.com/?cid=0x0:0x7ddeae9ccf378db2,
toko bangunan,Balai masyarakat,Kantor Camat Demon Pagong,"JV36+387, Jl. Nasional Maumere - Larantuka, Larantuka, Lewokluok, Kec. Demon Pagong, Kabupaten Flores Timur, Nusa Tenggara Tim.","Kabupaten Flores Timur, Nusa Tenggara Tim.",NUSA TENGGARA TIMUR,,Indonesia,,,,-8.3973386,122.8607907,https://maps.google.com/?cid=0x0:0xc38163feb0a102f6,
toko bangunan,Toko Bahan Bangunan,toko gloria bangunan,"Jl. Kemakmuran No.14, Kel. Mbongawani, Kec. Ende Sel., Kabupaten Ende, Nusa Tenggara Tim.","Kabupaten Ende, Nusa Tenggara Tim.",NUSA TENGGARA TIMUR,,Indonesia,81331006673.0,,,-8.8465826,121.644941,https://maps.google.com/?cid=0x0:0xe6e6044a0d0864ee,
toko bangunan,Toko Bahan Bangunan,Toko Gloria,"Jl. Kemakmuran No.4, Kel. Rukunlima, Kec. Ende, Kabupaten Ende, Nusa Tenggara Tim.","Kabupaten Ende, Nusa Tenggara Tim.",NUSA TENGGARA TIMUR,,Indonesia,38121405.0,,,-8.853948,121.654251,https://maps.google.com/?cid=0x0:0xbf3a983e033d59a5,
toko bangunan,Toko Bahan Bangunan,Toko Dahlia Ende,"Jln. Tiong Hwa No.2, Kel. Mbongawani, Flores, Kabupaten Ende, Nusa Tenggara Tim. 86313","Kel. Mbongawani, Flores, Kabupaten Ende",NUSA TENGGARA TIMUR,86313.0,Indonesia,82237373775.0,,,-8.8466294,121.6446825,https://maps.google.com/?cid=0x0:0xeca3778c25002304,
toko bangunan,toko bangunan,Kec. Ilebura,"Kabupaten Flores Timur, Nusa Tenggara Tim.","Kabupaten Flores Timur, Nusa Tenggara Tim.",NUSA TENGGARA TIMUR,,Indonesia,,,,-8.5779238,122.8337133,https://maps.google.com/?cid=0x0:0xc8be3acfb2f81c90,
toko bangunan,Pemasok Bahan Bangunan,Toko Hero Bangunan,"Toko Hero Bangunan, Tini, Manuaman, Kec. Kota Atambua, Kabupaten Belu, Nusa Tenggara Tim. 85712","Tini, Manuaman, Kec. Kota Atambua, Kabupaten Belu",NUSA TENGGARA TIMUR,85712.0,Indonesia,82221202985.0,,,-9.1117919,124.8871833,https://maps.google.com/?cid=0x0:0xb79f7fc42724fd10,
toko bangunan,toko bangunan,Toko Bangunan,"M4VH+XM9, Unnamed Road, Wato Baya, Kec. Adonara Bar., Kabupaten Flores Timur, Nusa Tenggara Tim.","Kabupaten Flores Timur, Nusa Tenggara Tim.",NUSA TENGGARA TIMUR,,Indonesia,,,,-8.30508,123.129221,https://maps.google.com/?cid=0x0:0xe8455770e5ef0fb5,
toko bangunan,Toko Bahan Bangunan,Toko Gloria,"Jl. Kemakmuran No.4, Kel. Rukunlima, Kec. Ende, Kabupaten Ende, Nusa Tenggara Tim.","Kabupaten Ende, Nusa Tenggara Tim.",NUSA TENGGARA TIMUR,,Indonesia,38121405.0,,,-8.853948,121.654251,https://maps.google.com/?cid=0x0:0xbf3a983e033d59a5,
toko bangunan,Toko Bahan Bangunan,TB. BERKAT MAKMUR,"Jl. Masjid Abidin No.24, RT.8/RW.6, Pd. Bambu, Kec. Duren Sawit, Kota Jakarta Timur, Daerah Khusus Ibukota Jakarta 13430","RT.8/RW.6, Pd. Bambu, Kec. Duren Sawit, Kota Jakarta Timur",NUSA TENGGARA TIMUR,13430.0,Indonesia,,,,-6.2290933,106.9029323,https://maps.google.com/?cid=0x0:0xa0e6cebea53b5c2a,
toko bangunan,Toko Bahan Bangunan,Tb. Makmur,"QVFX+R56, Jl. Gotong Royong, RT.2/RW.2, Pd. Bambu, Kec. Duren Sawit, Kota Jakarta Timur, Daerah Khusus Ibukota Jakarta 13350","Jl. Gotong Royong, RT.2/RW.2, Pd. Bambu, Kec. Duren Sawit, Kota Jakarta Timur",NUSA TENGGARA TIMUR,13350.0,Indonesia,,,,-6.2254698,106.8979008,https://maps.google.com/?cid=0x0:0xed62327300f2de0d,
toko bangunan,toko bangunan,Nusa Tenggara Tim.,,Nusa Tenggara Tim.,NUSA TENGGARA TIMUR,,Indonesia,,,,-8.6573819,121.0793705,https://maps.google.com/?cid=0x0:0x1030bfbcaf71ae0,
toko bangunan,Pemasok Bahan Bangunan,UD Mitra Mandiri,"M2C3+FRG, Puken Tobi Wangi Bao, Kec. Larantuka, Kabupaten Flores Timur, Nusa Tenggara Tim.","Kabupaten Flores Timur, Nusa Tenggara Tim.",NUSA TENGGARA TIMUR,,Indonesia,81232300777.0,,,-8.3288177,123.0045842,https://maps.google.com/?cid=0x0:0xa972a1abd2defb3a,
toko bangunan,Toko Bahan Bangunan,Toko Eka Mandiri,"Kaper , Rt 010/Rw 005 , Golo Bilas, Labuan Bajo, Kec. Komodo, Kabupaten Manggarai Barat, Nusa Tenggara Tim. 86711","Rt 010/Rw 005 , Golo Bilas, Labuan Bajo, Kec. Komodo, Kabupaten Manggarai Barat",NUSA TENGGARA TIMUR,86711.0,Indonesia,85228334545.0,,,-8.5292227,119.8923195,https://maps.google.com/?cid=0x0:0xdd0705212f92debf,
toko bangunan,Toko Bahan Bangunan,TOKO BANGUNAN,"962F+FR3, Lkr. Luar Maumere, Kota Baru, Kec. Alok Tim., Kabupaten Sikka, Nusa Tenggara Tim.","Kabupaten Sikka, Nusa Tenggara Tim.",NUSA TENGGARA TIMUR,,Indonesia,81228455504.0,,,-8.648865,122.2245369,https://maps.google.com/?cid=0x0:0xfcda8409dfe7e722,
toko bangunan,toko bangunan,Kec. Ile Mandiri,"Kabupaten Flores Timur, Nusa Tenggara Tim.","Kabupaten Flores Timur, Nusa Tenggara Tim.",NUSA TENGGARA TIMUR,,Indonesia,,,,-8.2871405,122.9492139,https://maps.google.com/?cid=0x0:0x1704562f126cbd77,
toko bangunan,Toko Bahan Bangunan,The Warehouse,"Jl. Soekarno - Hatta Watowiti, Tiwatobi, Kec. Ile Mandiri, Kabupaten Flores Timur, Nusa Tenggara Tim.","Kabupaten Flores Timur, Nusa Tenggara Tim.",NUSA TENGGARA TIMUR,,Indonesia,82147326746.0,,,-8.279221,123.0111616,https://maps.google.com/?cid=0x0:0xc4bcdd62d4e883cd,
toko bangunan,Pemasok Bahan Bangunan,Toko Teratai/Tio,"Jl. Niaga No.50, Postoh, Kec. Larantuka, Kabupaten Flores Timur, Nusa Tenggara Tim.","Kabupaten Flores Timur, Nusa Tenggara Tim.",NUSA TENGGARA TIMUR,,Indonesia,38321401.0,,,-8.3415086,122.9891408,https://maps.google.com/?cid=0x0:0x67cea815f38e4754,
toko bangunan,Sekolah menengah,Mangaaleng,"M6W5+479, Mangaaleng, Kec. Kelubagolit, Kabupaten Flores Timur, Nusa Tenggara Tim.","Kabupaten Flores Timur, Nusa Tenggara Tim.",NUSA TENGGARA TIMUR,,Indonesia,,,,-8.3047145,123.2082318,https://maps.google.com/?cid=0x0:0x1fe9010b2a037b58,
toko bangunan,Sekolah Menengah Umum,SMA Negeri Kelubagolit,"M6XF+P6F, Jl. Waiwerang Sagu, Mangaaleng, Kec. Kelubagolit, Kabupaten Flores Timur, Nusa Tenggara Tim.","Kabupaten Flores Timur, Nusa Tenggara Tim.",NUSA TENGGARA TIMUR,,Indonesia,,,,-8.3006799,123.2230419,https://maps.google.com/?cid=0x0:0x893dad10d0ee5e29,
toko bangunan,toko bangunan,UD. ALFA KAYU,"P735+GC7, Lamablawa, Kec. Witihama, Kabupaten Flores Timur, Nusa Tenggara Tim.","Kabupaten Flores Timur, Nusa Tenggara Tim.",NUSA TENGGARA TIMUR,,Indonesia,,,,-8.2962169,123.2585358,https://maps.google.com/?cid=0x0:0xb88be75fe72b7fb1,
toko bangunan,toko bangunan,Nusa Tenggara Tim.,,Nusa Tenggara Tim.,NUSA TENGGARA TIMUR,,Indonesia,,,,-8.6573819,121.0793705,https://maps.google.com/?cid=0x0:0x1030bfbcaf71ae0,
toko bangunan,Toko Bahan Bangunan,Toko Anugerah,"Podor, Lewolere, Kec. Larantuka, Kabupaten Flores Timur, Nusa Tenggara Tim. 86212","Lewolere, Kec. Larantuka, Kabupaten Flores Timur",NUSA TENGGARA TIMUR,86212.0,Indonesia,81338919233.0,,,-8.3515405,122.9643203,https://maps.google.com/?cid=0x0:0x460c9471ebbb83e8,
toko bangunan,Toko Bahan Bangunan,Toko Putera Bungsu,"M2Q9+P77, Sarotari, Kec. Larantuka, Kabupaten Flores Timur, Nusa Tenggara Tim.","Kabupaten Flores Timur, Nusa Tenggara Tim.",NUSA TENGGARA TIMUR,,Indonesia,38321034.0,,,-8.3107046,123.0181747,https://maps.google.com/?cid=0x0:0xeb6aa1228f7df5d0,
toko bangunan,Toko Swalayan,Pertokoan Larantuka,"MX5Q+7J7, Postoh, Kec. Larantuka, Kabupaten Flores Timur, Nusa Tenggara Tim.","Kabupaten Flores Timur, Nusa Tenggara Tim.",NUSA TENGGARA TIMUR,,Indonesia,,,,-8.3418334,122.9890351,https://maps.google.com/?cid=0x0:0x59a1045832cc35d,
toko bangunan,toko bangunan,Larantuka,"Pohon Sirih, Kec. Larantuka, Kabupaten Flores Timur, Nusa Tenggara Tim.","Kabupaten Flores Timur, Nusa Tenggara Tim.",NUSA TENGGARA TIMUR,,Indonesia,,,,-8.3452356,122.9813914,https://maps.google.com/?cid=0x0:0x4eb6d148bb7ab09e,
toko bangunan,Pemasok Bahan Bangunan,Toko Teratai/Tio,"Jl. Niaga No.50, Postoh, Kec. Larantuka, Kabupaten Flores Timur, Nusa Tenggara Tim.","Kabupaten Flores Timur, Nusa Tenggara Tim.",NUSA TENGGARA TIMUR,,Indonesia,38321401.0,,,-8.3415086,122.9891408,https://maps.google.com/?cid=0x0:0x67cea815f38e4754,
toko bangunan,Toko Bahan Bangunan,Toko Nirmala,"Jl. Sakura Raya No.8 11, RT.11/RW.5, Cengkareng Bar., Kecamatan Cengkareng, Kota Jakarta Barat, Daerah Khusus Ibukota Jakarta 11840","RT.11/RW.5, Cengkareng Bar., Kecamatan Cengkareng, Kota Jakarta Barat",NUSA TENGGARA TIMUR,11840.0,Indonesia,81287877581.0,,,-6.147992,106.719158,https://maps.google.com/?cid=0x0:0xed1a56d36eba35eb,
toko bangunan,toko bangunan,Nusa Tenggara Tim.,,Nusa Tenggara Tim.,NUSA TENGGARA TIMUR,,Indonesia,,,,-8.6573819,121.0793705,https://maps.google.com/?cid=0x0:0x1030bfbcaf71ae0,
toko bangunan,Toko Bahan Bangunan,Toko Anugerah,"Podor, Lewolere, Kec. Larantuka, Kabupaten Flores Timur, Nusa Tenggara Tim. 86212","Lewolere, Kec. Larantuka, Kabupaten Flores Timur",NUSA TENGGARA TIMUR,86212.0,Indonesia,81338919233.0,,,-8.3515405,122.9643203,https://maps.google.com/?cid=0x0:0x460c9471ebbb83e8,
toko bangunan,Toko Bahan Bangunan,Toko Putera Bungsu,"M2Q9+P77, Sarotari, Kec. Larantuka, Kabupaten Flores Timur, Nusa Tenggara Tim.","Kabupaten Flores Timur, Nusa Tenggara Tim.",NUSA TENGGARA TIMUR,,Indonesia,38321034.0,,,-8.3107046,123.0181747,https://maps.google.com/?cid=0x0:0xeb6aa1228f7df5d0,
toko bangunan,Toko Bahan Bangunan,Toko Cipta Bangunan,"Wolomarang, Kec. Alok Bar., Kabupaten Sikka, Nusa Tenggara Tim.","Kabupaten Sikka, Nusa Tenggara Tim.",NUSA TENGGARA TIMUR,,Indonesia,81231842348.0,,,-8.6105049,122.1996912,https://maps.google.com/?cid=0x0:0x1d786c0067a3953f,
toko bangunan,Toko Bahan Bangunan,CV. Tujuh Jaya,"723W+C6P, Unnamed Rd, Mokdale, Kec. Lobalain, Kabupaten Rote Ndao, Nusa Tenggara Tim.","Kabupaten Rote Ndao, Nusa Tenggara Tim.",NUSA TENGGARA TIMUR,,Indonesia,,,,-10.7464098,123.04558,https://maps.google.com/?cid=0x0:0x575a85c650ddf9e4,
toko bangunan,Toko Perlengkapan Rumah,Toko Bangunan Champion,"QGMX+63R, Mutiara, Kec. Tlk. Mutiara, Kabupaten Alor, Nusa Tenggara Tim.","Kabupaten Alor, Nusa Tenggara Tim.",NUSA TENGGARA TIMUR,,Indonesia,81338757523.0,,,-8.2168892,124.5476484,https://maps.google.com/?cid=0x0:0x43281458e96c59c8,
toko bangunan,Toko Bahan Bangunan,TOKO BANGUNAN,"962F+FR3, Lkr. Luar Maumere, Kota Baru, Kec. Alok Tim., Kabupaten Sikka, Nusa Tenggara Tim.","Kabupaten Sikka, Nusa Tenggara Tim.",NUSA TENGGARA TIMUR,,Indonesia,81228455504.0,,,-8.648865,122.2245369,https://maps.google.com/?cid=0x0:0xfcda8409dfe7e722,
toko bangunan,Toko,Toko lancar bangunan,"QHQ6+CPH, Welai Tim., Kec. Tlk. Mutiara, Kabupaten Alor, Nusa Tenggara Tim.","Kabupaten Alor, Nusa Tenggara Tim.",NUSA TENGGARA TIMUR,,Indonesia,,,,-8.2114421,124.5618588,https://maps.google.com/?cid=0x0:0x423f09fbf0e1baf7,
toko bangunan,Toko Swalayan,Pertokoan Larantuka,"MX5Q+7J7, Postoh, Kec. Larantuka, Kabupaten Flores Timur, Nusa Tenggara Tim.","Kabupaten Flores Timur, Nusa Tenggara Tim.",NUSA TENGGARA TIMUR,,Indonesia,,,,-8.3418334,122.9890351,https://maps.google.com/?cid=0x0:0x59a1045832cc35d,
toko bangunan,toko bangunan,Larantuka,"Pohon Sirih, Kec. Larantuka, Kabupaten Flores Timur, Nusa Tenggara Tim.","Kabupaten Flores Timur, Nusa Tenggara Tim.",NUSA TENGGARA TIMUR,,Indonesia,,,,-8.3452356,122.9813914,https://maps.google.com/?cid=0x0:0x4eb6d148bb7ab09e,
toko bangunan,Toko Bahan Bangunan,TB. Fransia Jaya,"Jl. Raya Jakarta-Bogor No.21 Km. 34,5, RT.01/RW.01, Sukamaju Baru, Kec. Tapos, Kota Depok, Jawa Barat 16455","RT.01/RW.01, Sukamaju Baru, Kec. Tapos, Kota Depok",NUSA TENGGARA TIMUR,16455.0,Indonesia,818248282.0,,,-6.4011224,106.862078,https://maps.google.com/?cid=0x0:0x50e8842589fed4ee,
toko bangunan,Toko Bahan Bangunan,Toko Nirmala,"Jl. Sakura Raya No.8 11, RT.11/RW.5, Cengkareng Bar., Kecamatan Cengkareng, Kota Jakarta Barat, Daerah Khusus Ibukota Jakarta 11840","RT.11/RW.5, Cengkareng Bar., Kecamatan Cengkareng, Kota Jakarta Barat",NUSA TENGGARA TIMUR,11840.0,Indonesia,81287877581.0,,,-6.147992,106.719158,https://maps.google.com/?cid=0x0:0xed1a56d36eba35eb,
toko bangunan,toko bangunan,Nusa Tenggara Tim.,,Nusa Tenggara Tim.,NUSA TENGGARA TIMUR,,Indonesia,,,,-8.6573819,121.0793705,https://maps.google.com/?cid=0x0:0x1030bfbcaf71ae0,
toko bangunan,Pemasok Bahan Bangunan,Toko Teratai/Tio,"Jl. Niaga No.50, Postoh, Kec. Larantuka, Kabupaten Flores Timur, Nusa Tenggara Tim.","Kabupaten Flores Timur, Nusa Tenggara Tim.",NUSA TENGGARA TIMUR,,Indonesia,38321401.0,,,-8.3415086,122.9891408,https://maps.google.com/?cid=0x0:0x67cea815f38e4754,
toko bangunan,toko bangunan,TOKO SARANA BANGUNAN,"Sarotari, Kec. Larantuka, Kabupaten Flores Timur, Nusa Tenggara Tim.","Kabupaten Flores Timur, Nusa Tenggara Tim.",NUSA TENGGARA TIMUR,,Indonesia,,,,-8.3174036,123.015044,https://maps.google.com/?cid=0x0:0xaf0fa1e6b09259c7,
toko bangunan,Toko Bahan Bangunan,Toko Anugerah,"Podor, Lewolere, Kec. Larantuka, Kabupaten Flores Timur, Nusa Tenggara Tim. 86212","Lewolere, Kec. Larantuka, Kabupaten Flores Timur",NUSA TENGGARA TIMUR,86212.0,Indonesia,81338919233.0,,,-8.3515405,122.9643203,https://maps.google.com/?cid=0x0:0x460c9471ebbb83e8,
toko bangunan,Toko Bahan Bangunan,TOKO BANGUNAN,"962F+FR3, Lkr. Luar Maumere, Kota Baru, Kec. Alok Tim., Kabupaten Sikka, Nusa Tenggara Tim.","Kabupaten Sikka, Nusa Tenggara Tim.",NUSA TENGGARA TIMUR,,Indonesia,81228455504.0,,,-8.648865,122.2245369,https://maps.google.com/?cid=0x0:0xfcda8409dfe7e722,
toko bangunan,Toko Bahan Bangunan,Toko Cipta Bangunan,"Wolomarang, Kec. Alok Bar., Kabupaten Sikka, Nusa Tenggara Tim.","Kabupaten Sikka, Nusa Tenggara Tim.",NUSA TENGGARA TIMUR,,Indonesia,81231842348.0,,,-8.6105049,122.1996912,https://maps.google.com/?cid=0x0:0x1d786c0067a3953f,
toko bangunan,Toko Swalayan,Pertokoan Larantuka,"MX5Q+7J7, Postoh, Kec. Larantuka, Kabupaten Flores Timur, Nusa Tenggara Tim.","Kabupaten Flores Timur, Nusa Tenggara Tim.",NUSA TENGGARA TIMUR,,Indonesia,,,,-8.3418334,122.9890351,https://maps.google.com/?cid=0x0:0x59a1045832cc35d,
toko bangunan,Toko Bahan Bangunan,Sinar Bangunan Building Center,"Jl. Bund. PU No.12, Tuak Daun Merah, Kec. Oebobo, Kota Kupang, Nusa Tenggara Tim. 85228","Tuak Daun Merah, Kec. Oebobo, Kota Kupang",NUSA TENGGARA TIMUR,85228.0,Indonesia,81236648694.0,,,-10.1675355,123.6289538,https://maps.google.com/?cid=0x0:0x8b34913a09e207d2,
toko bangunan,Toko Bahan Bangunan,CENTRALAYS,"Beirafu, Kec. Atambua Bar., Kabupaten Belu, Nusa Tenggara Tim.","Kabupaten Belu, Nusa Tenggara Tim.",NUSA TENGGARA TIMUR,,Indonesia,81239270840.0,,,-9.1082362,124.8900296,https://maps.google.com/?cid=0x0:0xe4dd5337dac2ec23,
toko bangunan,Toko Bahan Bangunan,Toko Putera Flores,"Jl. Niaga No.139, Postoh, Kec. Larantuka, Kabupaten Flores Timur, Nusa Tenggara Tim.","Kabupaten Flores Timur, Nusa Tenggara Tim.",NUSA TENGGARA TIMUR,,Indonesia,,,,-8.3402203,122.9906562,https://maps.google.com/?cid=0x0:0xff19555b5a37d44b,
toko bangunan,toko bangunan,Larantuka,"Pohon Sirih, Kec. Larantuka, Kabupaten Flores Timur, Nusa Tenggara Tim.","Kabupaten Flores Timur, Nusa Tenggara Tim.",NUSA TENGGARA TIMUR,,Indonesia,,,,-8.3452356,122.9813914,https://maps.google.com/?cid=0x0:0x4eb6d148bb7ab09e,
toko bangunan,Pemasok Bahan Bangunan,UD Mitra Mandiri,"M2C3+FRG, Puken Tobi Wangi Bao, Kec. Larantuka, Kabupaten Flores Timur, Nusa Tenggara Tim.","Kabupaten Flores Timur, Nusa Tenggara Tim.",NUSA TENGGARA TIMUR,,Indonesia,81232300777.0,,,-8.3288177,123.0045842,https://maps.google.com/?cid=0x0:0xa972a1abd2defb3a,
toko bangunan,Toko Bahan Bangunan,TB. Fransia Jaya,"Jl. Raya Jakarta-Bogor No.21 Km. 34,5, RT.01/RW.01, Sukamaju Baru, Kec. Tapos, Kota Depok, Jawa Barat 16455","RT.01/RW.01, Sukamaju Baru, Kec. Tapos, Kota Depok",NUSA TENGGARA TIMUR,16455.0,Indonesia,818248282.0,,,-6.4011224,106.862078,https://maps.google.com/?cid=0x0:0x50e8842589fed4ee,
toko bangunan,Toko Bahan Bangunan,Toko Nirmala,"Jl. Sakura Raya No.8 11, RT.11/RW.5, Cengkareng Bar., Kecamatan Cengkareng, Kota Jakarta Barat, Daerah Khusus Ibukota Jakarta 11840","RT.11/RW.5, Cengkareng Bar., Kecamatan Cengkareng, Kota Jakarta Barat",NUSA TENGGARA TIMUR,11840.0,Indonesia,81287877581.0,,,-6.147992,106.719158,https://maps.google.com/?cid=0x0:0xed1a56d36eba35eb,
toko bangunan,Toko Bahan Bangunan,TB.Nirmala,"6, Jl. Nirmala Raya No.2, RT.6/RW.5, Cengkareng Bar., Kecamatan Cengkareng, Kota Jakarta Barat, Daerah Khusus Ibukota Jakarta 11730","Jl. Nirmala Raya No.2, RT.6/RW.5, Cengkareng Bar., Kecamatan Cengkareng, Kota Jakarta Barat",NUSA TENGGARA TIMUR,11730.0,Indonesia,81287877581.0,,,-6.1499809,106.7202874,https://maps.google.com/?cid=0x0:0xefd2d0323dc5e0b4,
toko bangunan,Toko Bahan Bangunan,The Warehouse,"Jl. Soekarno - Hatta Watowiti, Tiwatobi, Kec. Ile Mandiri, Kabupaten Flores Timur, Nusa Tenggara Tim.","Kabupaten Flores Timur, Nusa Tenggara Tim.",NUSA TENGGARA TIMUR,,Indonesia,82147326746.0,,,-8.279221,123.0111616,https://maps.google.com/?cid=0x0:0xc4bcdd62d4e883cd,
toko bangunan,Produsen,Sebra Bengkel Kayu,"MWCX+FR2, Lamawalang, Kec. Larantuka, Kabupaten Flores Timur, Nusa Tenggara Tim.","Kabupaten Flores Timur, Nusa Tenggara Tim.",NUSA TENGGARA TIMUR,,Indonesia,38321541.0,,,-8.328875,122.9495,https://maps.google.com/?cid=0x0:0x7b4ab5ee517231be,
toko bangunan,toko bangunan,Nusa Tenggara Tim. 86215,"Lokea, Kec. Larantuka, Kabupaten Flores Timur, Nusa Tenggara Tim.","Kabupaten Flores Timur, Nusa Tenggara Tim.",NUSA TENGGARA TIMUR,,Indonesia,,,,-8.3411321,122.9851077,https://maps.google.com/?cid=0x0:0x982f75ac7612d26f,
toko bangunan,Toko Bahan Bangunan,Toko Anugerah,"Podor, Lewolere, Kec. Larantuka, Kabupaten Flores Timur, Nusa Tenggara Tim. 86212","Lewolere, Kec. Larantuka, Kabupaten Flores Timur",NUSA TENGGARA TIMUR,86212.0,Indonesia,81338919233.0,,,-8.3515405,122.9643203,https://maps.google.com/?cid=0x0:0x460c9471ebbb83e8,
toko bangunan,Toko Bahan Bangunan,Toko Putera Bungsu,"M2Q9+P77, Sarotari, Kec. Larantuka, Kabupaten Flores Timur, Nusa Tenggara Tim.","Kabupaten Flores Timur, Nusa Tenggara Tim.",NUSA TENGGARA TIMUR,,Indonesia,38321034.0,,,-8.3107046,123.0181747,https://maps.google.com/?cid=0x0:0xeb6aa1228f7df5d0,
toko bangunan,Toko Swalayan,Pertokoan Larantuka,"MX5Q+7J7, Postoh, Kec. Larantuka, Kabupaten Flores Timur, Nusa Tenggara Tim.","Kabupaten Flores Timur, Nusa Tenggara Tim.",NUSA TENGGARA TIMUR,,Indonesia,,,,-8.3418334,122.9890351,https://maps.google.com/?cid=0x0:0x59a1045832cc35d,
toko bangunan,Pemasok Bahan Bangunan,Toko Teratai/Tio,"Jl. Niaga No.50, Postoh, Kec. Larantuka, Kabupaten Flores Timur, Nusa Tenggara Tim.","Kabupaten Flores Timur, Nusa Tenggara Tim.",NUSA TENGGARA TIMUR,,Indonesia,38321401.0,,,-8.3415086,122.9891408,https://maps.google.com/?cid=0x0:0x67cea815f38e4754,
toko bangunan,toko bangunan,Nusa Tenggara Tim.,,Nusa Tenggara Tim.,NUSA TENGGARA TIMUR,,Indonesia,,,,-8.6573819,121.0793705,https://maps.google.com/?cid=0x0:0x1030bfbcaf71ae0,
toko bangunan,Toko Bahan Bangunan,Toko Anugerah,"Podor, Lewolere, Kec. Larantuka, Kabupaten Flores Timur, Nusa Tenggara Tim. 86212","Lewolere, Kec. Larantuka, Kabupaten Flores Timur",NUSA TENGGARA TIMUR,86212.0,Indonesia,81338919233.0,,,-8.3515405,122.9643203,https://maps.google.com/?cid=0x0:0x460c9471ebbb83e8,
toko bangunan,Toko Bahan Bangunan,Toko Putera Bungsu,"M2Q9+P77, Sarotari, Kec. Larantuka, Kabupaten Flores Timur, Nusa Tenggara Tim.","Kabupaten Flores Timur, Nusa Tenggara Tim.",NUSA TENGGARA TIMUR,,Indonesia,38321034.0,,,-8.3107046,123.0181747,https://maps.google.com/?cid=0x0:0xeb6aa1228f7df5d0,
toko bangunan,toko bangunan,TOKO SARANA BANGUNAN,"Sarotari, Kec. Larantuka, Kabupaten Flores Timur, Nusa Tenggara Tim.","Kabupaten Flores Timur, Nusa Tenggara Tim.",NUSA TENGGARA TIMUR,,Indonesia,,,,-8.3174036,123.015044,https://maps.google.com/?cid=0x0:0xaf0fa1e6b09259c7,
toko bangunan,Toko Bahan Bangunan,TOKO BANGUNAN,"962F+FR3, Lkr. Luar Maumere, Kota Baru, Kec. Alok Tim., Kabupaten Sikka, Nusa Tenggara Tim.","Kabupaten Sikka, Nusa Tenggara Tim.",NUSA TENGGARA TIMUR,,Indonesia,81228455504.0,,,-8.648865,122.2245369,https://maps.google.com/?cid=0x0:0xfcda8409dfe7e722,
toko bangunan,Toko Bahan Bangunan,Toko Cipta Bangunan,"Wolomarang, Kec. Alok Bar., Kabupaten Sikka, Nusa Tenggara Tim.","Kabupaten Sikka, Nusa Tenggara Tim.",NUSA TENGGARA TIMUR,,Indonesia,81231842348.0,,,-8.6105049,122.1996912,https://maps.google.com/?cid=0x0:0x1d786c0067a3953f,
toko bangunan,Toko,Toko Sinar Harapan,"Jl. Niaga No.141, Postoh, Kec. Larantuka, Kabupaten Flores Timur, Nusa Tenggara Tim. 86216","Postoh, Kec. Larantuka, Kabupaten Flores Timur",NUSA TENGGARA TIMUR,86216.0,Indonesia,82145942511.0,,,-8.3396819,122.9907947,https://maps.google.com/?cid=0x0:0xa5f755f766c9e25b,
toko bangunan,toko bangunan,Larantuka,"Pohon Sirih, Kec. Larantuka, Kabupaten Flores Timur, Nusa Tenggara Tim.","Kabupaten Flores Timur, Nusa Tenggara Tim.",NUSA TENGGARA TIMUR,,Indonesia,,,,-8.3452356,122.9813914,https://maps.google.com/?cid=0x0:0x4eb6d148bb7ab09e,
toko bangunan,Pemasok Bahan Bangunan,Toko Teratai/Tio,"Jl. Niaga No.50, Postoh, Kec. Larantuka, Kabupaten Flores Timur, Nusa Tenggara Tim.","Kabupaten Flores Timur, Nusa Tenggara Tim.",NUSA TENGGARA TIMUR,,Indonesia,38321401.0,,,-8.3415086,122.9891408,https://maps.google.com/?cid=0x0:0x67cea815f38e4754,
toko bangunan,Pemasok Bahan Bangunan,UD Mitra Mandiri,"M2C3+FRG, Puken Tobi Wangi Bao, Kec. Larantuka, Kabupaten Flores Timur, Nusa Tenggara Tim.","Kabupaten Flores Timur, Nusa Tenggara Tim.",NUSA TENGGARA TIMUR,,Indonesia,81232300777.0,,,-8.3288177,123.0045842,https://maps.google.com/?cid=0x0:0xa972a1abd2defb3a,
toko bangunan,Toko Bahan Bangunan,Toko Putera Flores,"Jl. Niaga No.139, Postoh, Kec. Larantuka, Kabupaten Flores Timur, Nusa Tenggara Tim.","Kabupaten Flores Timur, Nusa Tenggara Tim.",NUSA TENGGARA TIMUR,,Indonesia,,,,-8.3402203,122.9906562,https://maps.google.com/?cid=0x0:0xff19555b5a37d44b,
toko bangunan,Toko Bahan Bangunan,The Warehouse,"Jl. Soekarno - Hatta Watowiti, Tiwatobi, Kec. Ile Mandiri, Kabupaten Flores Timur, Nusa Tenggara Tim.","Kabupaten Flores Timur, Nusa Tenggara Tim.",NUSA TENGGARA TIMUR,,Indonesia,82147326746.0,,,-8.279221,123.0111616,https://maps.google.com/?cid=0x0:0xc4bcdd62d4e883cd,
toko bangunan,Produsen,Sebra Bengkel Kayu,"MWCX+FR2, Lamawalang, Kec. Larantuka, Kabupaten Flores Timur, Nusa Tenggara Tim.","Kabupaten Flores Timur, Nusa Tenggara Tim.",NUSA TENGGARA TIMUR,,Indonesia,38321541.0,,,-8.328875,122.9495,https://maps.google.com/?cid=0x0:0x7b4ab5ee517231be,
toko bangunan,toko bangunan,Nusa Tenggara Tim.,,Nusa Tenggara Tim.,NUSA TENGGARA TIMUR,,Indonesia,,,,-8.6573819,121.0793705,https://maps.google.com/?cid=0x0:0x1030bfbcaf71ae0,
toko bangunan,Pemasok Bahan Bangunan,Toko Teratai/Tio,"Jl. Niaga No.50, Postoh, Kec. Larantuka, Kabupaten Flores Timur, Nusa Tenggara Tim.","Kabupaten Flores Timur, Nusa Tenggara Tim.",NUSA TENGGARA TIMUR,,Indonesia,38321401.0,,,-8.3415086,122.9891408,https://maps.google.com/?cid=0x0:0x67cea815f38e4754,
toko bangunan,Toko Bahan Bangunan,Toko Putera Bungsu,"M2Q9+P77, Sarotari, Kec. Larantuka, Kabupaten Flores Timur, Nusa Tenggara Tim.","Kabupaten Flores Timur, Nusa Tenggara Tim.",NUSA TENGGARA TIMUR,,Indonesia,38321034.0,,,-8.3107046,123.0181747,https://maps.google.com/?cid=0x0:0xeb6aa1228f7df5d0,
toko bangunan,toko bangunan,TOKO SARANA BANGUNAN,"Sarotari, Kec. Larantuka, Kabupaten Flores Timur, Nusa Tenggara Tim.","Kabupaten Flores Timur, Nusa Tenggara Tim.",NUSA TENGGARA TIMUR,,Indonesia,,,,-8.3174036,123.015044,https://maps.google.com/?cid=0x0:0xaf0fa1e6b09259c7,
toko bangunan,Toko Bahan Bangunan,TOKO BANGUNAN,"962F+FR3, Lkr. Luar Maumere, Kota Baru, Kec. Alok Tim., Kabupaten Sikka, Nusa Tenggara Tim.","Kabupaten Sikka, Nusa Tenggara Tim.",NUSA TENGGARA TIMUR,,Indonesia,81228455504.0,,,-8.648865,122.2245369,https://maps.google.com/?cid=0x0:0xfcda8409dfe7e722,
toko bangunan,Toko Bahan Bangunan,Toko Cipta Bangunan,"Wolomarang, Kec. Alok Bar., Kabupaten Sikka, Nusa Tenggara Tim.","Kabupaten Sikka, Nusa Tenggara Tim.",NUSA TENGGARA TIMUR,,Indonesia,81231842348.0,,,-8.6105049,122.1996912,https://maps.google.com/?cid=0x0:0x1d786c0067a3953f,
toko bangunan,Toko Bahan Bangunan,CV. Tujuh Jaya,"723W+C6P, Unnamed Rd, Mokdale, Kec. Lobalain, Kabupaten Rote Ndao, Nusa Tenggara Tim.","Kabupaten Rote Ndao, Nusa Tenggara Tim.",NUSA TENGGARA TIMUR,,Indonesia,,,,-10.7464098,123.04558,https://maps.google.com/?cid=0x0:0x575a85c650ddf9e4,
toko bangunan,Toko Bahan Bangunan,Toko Bangunan Jaya,"Jl. Terusan Timor Raya No.9u KM. 6, Oesapa Bar., Kec. Klp. Lima, Kota Kupang, Nusa Tenggara Tim.","Kota Kupang, Nusa Tenggara Tim.",NUSA TENGGARA TIMUR,,Indonesia,81338567839.0,,,-10.14441,123.6254719,https://maps.google.com/?cid=0x0:0x4a94c89160bbe62c,
toko bangunan,Toko Swalayan,Pertokoan Larantuka,"MX5Q+7J7, Postoh, Kec. Larantuka, Kabupaten Flores Timur, Nusa Tenggara Tim.","Kabupaten Flores Timur, Nusa Tenggara Tim.",NUSA TENGGARA TIMUR,,Indonesia,,,,-8.3418334,122.9890351,https://maps.google.com/?cid=0x0:0x59a1045832cc35d,
toko bangunan,Toko Perlengkapan Rumah,Toko Bangunan Champion,"QGMX+63R, Mutiara, Kec. Tlk. Mutiara, Kabupaten Alor, Nusa Tenggara Tim.","Kabupaten Alor, Nusa Tenggara Tim.",NUSA TENGGARA TIMUR,,Indonesia,81338757523.0,,,-8.2168892,124.5476484,https://maps.google.com/?cid=0x0:0x43281458e96c59c8,
toko bangunan,Toko,Toko lancar bangunan,"QHQ6+CPH, Welai Tim., Kec. Tlk. Mutiara, Kabupaten Alor, Nusa Tenggara Tim.","Kabupaten Alor, Nusa Tenggara Tim.",NUSA TENGGARA TIMUR,,Indonesia,,,,-8.2114421,124.5618588,https://maps.google.com/?cid=0x0:0x423f09fbf0e1baf7,
toko bangunan,Toko umum,Sekar Alam,"M2R9+JG5, Jl. Jendral Sudirman Kelurahan Weri, Sarotari, Kec. Larantuka, Kabupaten Flores Timur, Nusa Tenggara Tim.","Kabupaten Flores Timur, Nusa Tenggara Tim.",NUSA TENGGARA TIMUR,,Indonesia,,,,-8.3084895,123.0188469,https://maps.google.com/?cid=0x0:0x9535de35893053da,
toko bangunan,Minimarket,toko hebron,"725V+CW9, Unnamed Rd, Mokdale, Kec. Lobalain, Kabupaten Rote Ndao, Nusa Tenggara Tim.","Kabupaten Rote Ndao, Nusa Tenggara Tim.",NUSA TENGGARA TIMUR,,Indonesia,,,,-10.7414723,123.0448675,https://maps.google.com/?cid=0x0:0x699558aa9d2e663a,
toko bangunan,Toko Bahan Bangunan,Toko Graha Bangunan,"Gedung Graha Ariadi, Oesapa Bar., Kec. Klp. Lima, Kota Kupang, Nusa Tenggara Tim. 85228","Oesapa Bar., Kec. Klp. Lima, Kota Kupang",NUSA TENGGARA TIMUR,85228.0,Indonesia,81312893723.0,,,-10.1468703,123.631267,https://maps.google.com/?cid=0x0:0x4167d73ee95fc845,
toko bangunan,Toko Bahan Bangunan,UD TUJUH JAYA BANGUNAN I,"72GX+8M5, Metina, Kec. Lobalain, Kabupaten Rote Ndao, Nusa Tenggara Tim.","Kabupaten Rote Ndao, Nusa Tenggara Tim.",NUSA TENGGARA TIMUR,,Indonesia,,,,-10.7242448,123.0492313,https://maps.google.com/?cid=0x0:0xca85d779b23c1d9d,
toko bangunan,toko bangunan,Larantuka,"Pohon Sirih, Kec. Larantuka, Kabupaten Flores Timur, Nusa Tenggara Tim.","Kabupaten Flores Timur, Nusa Tenggara Tim.",NUSA TENGGARA TIMUR,,Indonesia,,,,-8.3452356,122.9813914,https://maps.google.com/?cid=0x0:0x4eb6d148bb7ab09e,
toko bangunan,Toko Bahan Bangunan,TB Bangunan Jaya,"Jl. Pisangan Baru Tengah No.1, RT.8/RW.15, Pisangan Baru, Kec. Matraman, Kota Jakarta Timur, Daerah Khusus Ibukota Jakarta 13110","RT.8/RW.15, Pisangan Baru, Kec. Matraman, Kota Jakarta Timur",NUSA TENGGARA TIMUR,13110.0,Indonesia,2185910229.0,,,-6.2112671,106.8728337,https://maps.google.com/?cid=0x0:0x3c9474e331d9a000,
toko bangunan,Toko Bahan Bangunan,TB Arjuna Jaya,"Jl. Arjuna I No.8, Utan Kayu Sel., Matraman, Kota Jakarta Timur, Daerah, Khusus I, RT.8/RW.7, Utan Kayu Sel., Kec. Matraman, Kota Jakarta Timur, Daerah Khusus Ibukota Jakarta 13110","Utan Kayu Sel., Matraman, Kota Jakarta Timur, Daerah, Khusus I, RT.8/RW.7, Utan Kayu Sel., Kec. Matraman, Kota Jakarta Timur",NUSA TENGGARA TIMUR,13110.0,Indonesia,218511882.0,,,-6.209675,106.87324,https://maps.google.com/?cid=0x0:0x90d23d741db361f9,
toko bangunan,toko bangunan,Nusa Tenggara Tim.,,Nusa Tenggara Tim.,NUSA TENGGARA TIMUR,,Indonesia,,,,-8.6573819,121.0793705,https://maps.google.com/?cid=0x0:0x1030bfbcaf71ae0,
toko bangunan,Toko Bahan Bangunan,Toko Anugerah,"Podor, Lewolere, Kec. Larantuka, Kabupaten Flores Timur, Nusa Tenggara Tim. 86212","Lewolere, Kec. Larantuka, Kabupaten Flores Timur",NUSA TENGGARA TIMUR,86212.0,Indonesia,81338919233.0,,,-8.3515405,122.9643203,https://maps.google.com/?cid=0x0:0x460c9471ebbb83e8,
toko bangunan,Toko Bahan Bangunan,Toko Putera Bungsu,"M2Q9+P77, Sarotari, Kec. Larantuka, Kabupaten Flores Timur, Nusa Tenggara Tim.","Kabupaten Flores Timur, Nusa Tenggara Tim.",NUSA TENGGARA TIMUR,,Indonesia,38321034.0,,,-8.3107046,123.0181747,https://maps.google.com/?cid=0x0:0xeb6aa1228f7df5d0,
toko bangunan,Grosir keramik,Toko Bangunan Sumber Berlian,"9FR7+R98, Pitak, Kec. Langke Rembong, Kabupaten Manggarai, Nusa Tenggara Tim.","Kabupaten Manggarai, Nusa Tenggara Tim.",NUSA TENGGARA TIMUR,,Indonesia,38521109.0,,,-8.6079539,120.4634541,https://maps.google.com/?cid=0x0:0x6998fb86419a6f08,
toko bangunan,Toko Bahan Bangunan,TOKO BANGUNAN,"962F+FR3, Lkr. Luar Maumere, Kota Baru, Kec. Alok Tim., Kabupaten Sikka, Nusa Tenggara Tim.","Kabupaten Sikka, Nusa Tenggara Tim.",NUSA TENGGARA TIMUR,,Indonesia,81228455504.0,,,-8.648865,122.2245369,https://maps.google.com/?cid=0x0:0xfcda8409dfe7e722,
toko bangunan,Toko Bahan Bangunan,Toko Cipta Bangunan,"Wolomarang, Kec. Alok Bar., Kabupaten Sikka, Nusa Tenggara Tim.","Kabupaten Sikka, Nusa Tenggara Tim.",NUSA TENGGARA TIMUR,,Indonesia,81231842348.0,,,-8.6105049,122.1996912,https://maps.google.com/?cid=0x0:0x1d786c0067a3953f,
toko bangunan,Toko Perlengkapan Rumah,toko obi tungga,"weri blok 1 a no 9, Sarotari, Kec. Larantuka, Kabupaten Flores Timur, Nusa Tenggara Tim.","Kabupaten Flores Timur, Nusa Tenggara Tim.",NUSA TENGGARA TIMUR,,Indonesia,81238936925.0,,,-8.3036844,123.0172808,https://maps.google.com/?cid=0x0:0xe82d048de62b3202,
toko bangunan,Toko,Toko Matahari,"MX9X+5W3, Ekasapta, Kec. Larantuka, Kabupaten Flores Timur, Nusa Tenggara Tim.","Kabupaten Flores Timur, Nusa Tenggara Tim.",NUSA TENGGARA TIMUR,,Indonesia,,,,-8.3321033,122.9998002,https://maps.google.com/?cid=0x0:0x337b31c7525dd637,
toko bangunan,Grosir,Toko HK,"MX5Q+FG6, Lokea, Kec. Larantuka, Kabupaten Flores Timur, Nusa Tenggara Tim.","Kabupaten Flores Timur, Nusa Tenggara Tim.",NUSA TENGGARA TIMUR,,Indonesia,,,,-8.3413252,122.9887543,https://maps.google.com/?cid=0x0:0xff6db5060aff98d6,
toko bangunan,Toko Bahan Bangunan,Toko Bangunan Jaya,"Jl. Terusan Timor Raya No.9u KM. 6, Oesapa Bar., Kec. Klp. Lima, Kota Kupang, Nusa Tenggara Tim.","Kota Kupang, Nusa Tenggara Tim.",NUSA TENGGARA TIMUR,,Indonesia,81338567839.0,,,-10.14441,123.6254719,https://maps.google.com/?cid=0x0:0x4a94c89160bbe62c,
toko bangunan,Toko Swalayan,Pertokoan Larantuka,"MX5Q+7J7, Postoh, Kec. Larantuka, Kabupaten Flores Timur, Nusa Tenggara Tim.","Kabupaten Flores Timur, Nusa Tenggara Tim.",NUSA TENGGARA TIMUR,,Indonesia,,,,-8.3418334,122.9890351,https://maps.google.com/?cid=0x0:0x59a1045832cc35d,
toko bangunan,Toko Perlengkapan Rumah,Toko Bangunan Champion,"QGMX+63R, Mutiara, Kec. Tlk. Mutiara, Kabupaten Alor, Nusa Tenggara Tim.","Kabupaten Alor, Nusa Tenggara Tim.",NUSA TENGGARA TIMUR,,Indonesia,81338757523.0,,,-8.2168892,124.5476484,https://maps.google.com/?cid=0x0:0x43281458e96c59c8,
toko bangunan,Toko,Toko lancar bangunan,"QHQ6+CPH, Welai Tim., Kec. Tlk. Mutiara, Kabupaten Alor, Nusa Tenggara Tim.","Kabupaten Alor, Nusa Tenggara Tim.",NUSA TENGGARA TIMUR,,Indonesia,,,,-8.2114421,124.5618588,https://maps.google.com/?cid=0x0:0x423f09fbf0e1baf7,
toko bangunan,Toko Perlengkapan Rumah,Paloma Larantuka,"MX6R+XFP, Postoh, Kec. Larantuka, Kabupaten Flores Timur, Nusa Tenggara Tim.","Kabupaten Flores Timur, Nusa Tenggara Tim.",NUSA TENGGARA TIMUR,,Indonesia,81239289033.0,,,-8.3375346,122.9911878,https://maps.google.com/?cid=0x0:0xbaf46b59a1b4628b,
toko bangunan,Toko Bahan Bangunan,Toko Graha Bangunan,"Gedung Graha Ariadi, Oesapa Bar., Kec. Klp. Lima, Kota Kupang, Nusa Tenggara Tim. 85228","Oesapa Bar., Kec. Klp. Lima, Kota Kupang",NUSA TENGGARA TIMUR,85228.0,Indonesia,81312893723.0,,,-10.1468703,123.631267,https://maps.google.com/?cid=0x0:0x4167d73ee95fc845,
toko bangunan,Toko,Toko Akbar Makmur,"Pasar Impress, Kampung Baru, Larantuka, Ekasapta, Kec. Larantuka, Kabupaten Flores Timur, Nusa Tenggara Tim. 86217","Kampung Baru, Larantuka, Ekasapta, Kec. Larantuka, Kabupaten Flores Timur",NUSA TENGGARA TIMUR,86217.0,Indonesia,81231477944.0,,,-8.333742,122.998507,https://maps.google.com/?cid=0x0:0x5ba54362711963df,
toko bangunan,toko bangunan,Larantuka,"Pohon Sirih, Kec. Larantuka, Kabupaten Flores Timur, Nusa Tenggara Tim.","Kabupaten Flores Timur, Nusa Tenggara Tim.",NUSA TENGGARA TIMUR,,Indonesia,,,,-8.3452356,122.9813914,https://maps.google.com/?cid=0x0:0x4eb6d148bb7ab09e,
toko bangunan,Pemasok Bahan Bangunan,Toko Teratai/Tio,"Jl. Niaga No.50, Postoh, Kec. Larantuka, Kabupaten Flores Timur, Nusa Tenggara Tim.","Kabupaten Flores Timur, Nusa Tenggara Tim.",NUSA TENGGARA TIMUR,,Indonesia,38321401.0,,,-8.3415086,122.9891408,https://maps.google.com/?cid=0x0:0x67cea815f38e4754,
toko bangunan,Toko Bahan Bangunan,Toko Nirmala,"Jl. Sakura Raya No.8 11, RT.11/RW.5, Cengkareng Bar., Kecamatan Cengkareng, Kota Jakarta Barat, Daerah Khusus Ibukota Jakarta 11840","RT.11/RW.5, Cengkareng Bar., Kecamatan Cengkareng, Kota Jakarta Barat",NUSA TENGGARA TIMUR,11840.0,Indonesia,81287877581.0,,,-6.147992,106.719158,https://maps.google.com/?cid=0x0:0xed1a56d36eba35eb,
toko bangunan,toko bangunan,Kec. Lewolema,"Kabupaten Flores Timur, Nusa Tenggara Tim.","Kabupaten Flores Timur, Nusa Tenggara Tim.",NUSA TENGGARA TIMUR,,Indonesia,,,,-8.289988,122.9156542,https://maps.google.com/?cid=0x0:0x171191025c545591,
toko bangunan,toko bangunan,TOKO SARANA BANGUNAN,"Sarotari, Kec. Larantuka, Kabupaten Flores Timur, Nusa Tenggara Tim.","Kabupaten Flores Timur, Nusa Tenggara Tim.",NUSA TENGGARA TIMUR,,Indonesia,,,,-8.3174036,123.015044,https://maps.google.com/?cid=0x0:0xaf0fa1e6b09259c7,
toko bangunan,Toko Bahan Bangunan,The Warehouse,"Jl. Soekarno - Hatta Watowiti, Tiwatobi, Kec. Ile Mandiri, Kabupaten Flores Timur, Nusa Tenggara Tim.","Kabupaten Flores Timur, Nusa Tenggara Tim.",NUSA TENGGARA TIMUR,,Indonesia,82147326746.0,,,-8.279221,123.0111616,https://maps.google.com/?cid=0x0:0xc4bcdd62d4e883cd,
toko bangunan,Toko Bahan Bangunan,Toko Putera Flores,"Jl. Niaga No.139, Postoh, Kec. Larantuka, Kabupaten Flores Timur, Nusa Tenggara Tim.","Kabupaten Flores Timur, Nusa Tenggara Tim.",NUSA TENGGARA TIMUR,,Indonesia,,,,-8.3402203,122.9906562,https://maps.google.com/?cid=0x0:0xff19555b5a37d44b,
toko bangunan,Pemasok Bahan Bangunan,Toko Teratai/Tio,"Jl. Niaga No.50, Postoh, Kec. Larantuka, Kabupaten Flores Timur, Nusa Tenggara Tim.","Kabupaten Flores Timur, Nusa Tenggara Tim.",NUSA TENGGARA TIMUR,,Indonesia,38321401.0,,,-8.3415086,122.9891408,https://maps.google.com/?cid=0x0:0x67cea815f38e4754,
toko bangunan,Toko Bahan Bangunan,TOKO LAMAHALA,"J568+3XV, Waiwerang Kota, Kec. Adonara Tim., Kabupaten Flores Timur, Nusa Tenggara Tim.","Kabupaten Flores Timur, Nusa Tenggara Tim.",NUSA TENGGARA TIMUR,,Indonesia,,,,-8.3897617,123.1674094,https://maps.google.com/?cid=0x0:0x83eaa05e02756d1,
toko bangunan,Toko Bahan Bangunan,TOKO BANGUNAN,"962F+FR3, Lkr. Luar Maumere, Kota Baru, Kec. Alok Tim., Kabupaten Sikka, Nusa Tenggara Tim.","Kabupaten Sikka, Nusa Tenggara Tim.",NUSA TENGGARA TIMUR,,Indonesia,81228455504.0,,,-8.648865,122.2245369,https://maps.google.com/?cid=0x0:0xfcda8409dfe7e722,
toko bangunan,Toko Bahan Bangunan,Toko Putera Bungsu,"M2Q9+P77, Sarotari, Kec. Larantuka, Kabupaten Flores Timur, Nusa Tenggara Tim.","Kabupaten Flores Timur, Nusa Tenggara Tim.",NUSA TENGGARA TIMUR,,Indonesia,38321034.0,,,-8.3107046,123.0181747,https://maps.google.com/?cid=0x0:0xeb6aa1228f7df5d0,
toko bangunan,Pemasok Bahan Bangunan,UD Mitra Mandiri,"M2C3+FRG, Puken Tobi Wangi Bao, Kec. Larantuka, Kabupaten Flores Timur, Nusa Tenggara Tim.","Kabupaten Flores Timur, Nusa Tenggara Tim.",NUSA TENGGARA TIMUR,,Indonesia,81232300777.0,,,-8.3288177,123.0045842,https://maps.google.com/?cid=0x0:0xa972a1abd2defb3a,
toko bangunan,Produsen,Sebra Bengkel Kayu,"MWCX+FR2, Lamawalang, Kec. Larantuka, Kabupaten Flores Timur, Nusa Tenggara Tim.","Kabupaten Flores Timur, Nusa Tenggara Tim.",NUSA TENGGARA TIMUR,,Indonesia,38321541.0,,,-8.328875,122.9495,https://maps.google.com/?cid=0x0:0x7b4ab5ee517231be,
toko bangunan,Minimarket,toko hebron,"725V+CW9, Unnamed Rd, Mokdale, Kec. Lobalain, Kabupaten Rote Ndao, Nusa Tenggara Tim.","Kabupaten Rote Ndao, Nusa Tenggara Tim.",NUSA TENGGARA TIMUR,,Indonesia,,,,-10.7414723,123.0448675,https://maps.google.com/?cid=0x0:0x699558aa9d2e663a,
toko bangunan,toko bangunan,Kec. Solor Bar.,"Kabupaten Flores Timur, Nusa Tenggara Tim.","Kabupaten Flores Timur, Nusa Tenggara Tim.",NUSA TENGGARA TIMUR,,Indonesia,,,,-8.5289776,122.8843335,https://maps.google.com/?cid=0x0:0x5e00c8168cd8d46f,
toko bangunan,Toko Bahan Bangunan,Toko Putera Bungsu,"M2Q9+P77, Sarotari, Kec. Larantuka, Kabupaten Flores Timur, Nusa Tenggara Tim.","Kabupaten Flores Timur, Nusa Tenggara Tim.",NUSA TENGGARA TIMUR,,Indonesia,38321034.0,,,-8.3107046,123.0181747,https://maps.google.com/?cid=0x0:0xeb6aa1228f7df5d0,
toko bangunan,toko bangunan,TOKO SARANA BANGUNAN,"Sarotari, Kec. Larantuka, Kabupaten Flores Timur, Nusa Tenggara Tim.","Kabupaten Flores Timur, Nusa Tenggara Tim.",NUSA TENGGARA TIMUR,,Indonesia,,,,-8.3174036,123.015044,https://maps.google.com/?cid=0x0:0xaf0fa1e6b09259c7,
toko bangunan,Toko Bahan Bangunan,Flores Depo Bangunan,"Jl. Trans Flores, Goron Talo, Kec. Komodo, Kabupaten Manggarai Barat, Nusa Tenggara Tim.","Kabupaten Manggarai Barat, Nusa Tenggara Tim.",NUSA TENGGARA TIMUR,,Indonesia,81239434040.0,,,-8.502223,119.8825278,https://maps.google.com/?cid=0x0:0x7ddeae9ccf378db2,
toko bangunan,Toko Perlengkapan Rumah,Mitrajaya Bangunan,"Jl. Batu Cermin No.88, Labuan Bajo, Kec. Komodo, Kabupaten Manggarai Barat, Nusa Tenggara Tim. 86754","Labuan Bajo, Kec. Komodo, Kabupaten Manggarai Barat",NUSA TENGGARA TIMUR,86754.0,Indonesia,3852440474.0,,,-8.4804587,119.90029,https://maps.google.com/?cid=0x0:0x86f93ffd447674b,
toko bangunan,toko bangunan,TOKO SARANA BANGUNAN,"Sarotari, Kec. Larantuka, Kabupaten Flores Timur, Nusa Tenggara Tim.","Kabupaten Flores Timur, Nusa Tenggara Tim.",NUSA TENGGARA TIMUR,,Indonesia,,,,-8.3174036,123.015044,https://maps.google.com/?cid=0x0:0xaf0fa1e6b09259c7,
toko bangunan,toko bangunan,TOKO SARANA BANGUNAN,"Sarotari, Kec. Larantuka, Kabupaten Flores Timur, Nusa Tenggara Tim.","Kabupaten Flores Timur, Nusa Tenggara Tim.",NUSA TENGGARA TIMUR,,Indonesia,,,,-8.3174036,123.015044,https://maps.google.com/?cid=0x0:0xaf0fa1e6b09259c7,
toko bangunan,Toko Alat Listrik,Toko Besi Solo Elektrik,"Jl. Mandala Raya No.18, RT.01/RW.9Ciparigi, Ciparigi, Kec. Bogor Utara, Kota Bogor, Jawa Barat 16157","RT.01/RW.9Ciparigi, Ciparigi, Kec. Bogor Utara, Kota Bogor",NUSA TENGGARA TIMUR,16157.0,Indonesia,85647539234.0,,,-6.5457806,106.822441,https://maps.google.com/?cid=0x0:0x6b8bb9444612a0e0,
toko bangunan,Toko Elektronik,Toko Cahaya Makmur,"CRVF+RGP, Jl. Pangeran Sogiri, RT.05/RW.08, Tanah Baru, Kec. Bogor Utara, Kota Bogor, Jawa Barat 16154","Jl. Pangeran Sogiri, RT.05/RW.08, Tanah Baru, Kec. Bogor Utara, Kota Bogor",NUSA TENGGARA TIMUR,16154.0,Indonesia,,,,-6.5554077,106.8238194,https://maps.google.com/?cid=0x0:0x40e14292b45e7253,
toko bangunan,toko bangunan,Kec. Solor Tim.,"Kabupaten Flores Timur, Nusa Tenggara Tim.","Kabupaten Flores Timur, Nusa Tenggara Tim.",NUSA TENGGARA TIMUR,,Indonesia,,,,-8.4650139,123.1213694,https://maps.google.com/?cid=0x0:0xa027534c79ffd422,
toko bangunan,toko bangunan,TOKO SARANA BANGUNAN,"Sarotari, Kec. Larantuka, Kabupaten Flores Timur, Nusa Tenggara Tim.","Kabupaten Flores Timur, Nusa Tenggara Tim.",NUSA TENGGARA TIMUR,,Indonesia,,,,-8.3174036,123.015044,https://maps.google.com/?cid=0x0:0xaf0fa1e6b09259c7,
toko bangunan,Toko Bahan Bangunan,Toko Putera Bungsu,"M2Q9+P77, Sarotari, Kec. Larantuka, Kabupaten Flores Timur, Nusa Tenggara Tim.","Kabupaten Flores Timur, Nusa Tenggara Tim.",NUSA TENGGARA TIMUR,,Indonesia,38321034.0,,,-8.3107046,123.0181747,https://maps.google.com/?cid=0x0:0xeb6aa1228f7df5d0,
toko bangunan,Toko Bahan Bangunan,Lima Jaya,"Waiwerang Kota, Kec. Adonara Tim., Kabupaten Flores Timur, Nusa Tenggara Tim.","Kabupaten Flores Timur, Nusa Tenggara Tim.",NUSA TENGGARA TIMUR,,Indonesia,,,,-8.3912034,123.1659932,https://maps.google.com/?cid=0x0:0xaa8c461e64a5388a,
toko bangunan,Toko Perlengkapan Rumah,Toko Indah,"J557+XWR, Waiwerang Kota, Kec. Adonara Tim., Kabupaten Flores Timur, Nusa Tenggara Tim.","Kabupaten Flores Timur, Nusa Tenggara Tim.",NUSA TENGGARA TIMUR,,Indonesia,,,,-8.3900161,123.1647803,https://maps.google.com/?cid=0x0:0xf0375ace27701ea9,
toko bangunan,Toko Bahan Bangunan,TOKO LAMAHALA,"J568+3XV, Waiwerang Kota, Kec. Adonara Tim., Kabupaten Flores Timur, Nusa Tenggara Tim.","Kabupaten Flores Timur, Nusa Tenggara Tim.",NUSA TENGGARA TIMUR,,Indonesia,,,,-8.3897617,123.1674094,https://maps.google.com/?cid=0x0:0x83eaa05e02756d1,
toko bangunan,Pasar,Pasar Baniona,"H3WJ+QPF, Kawela, Kec. Wotan Ulumando, Kabupaten Flores Timur, Nusa Tenggara Tim.","Kabupaten Flores Timur, Nusa Tenggara Tim.",NUSA TENGGARA TIMUR,,Indonesia,,,,-8.4030632,123.0817861,https://maps.google.com/?cid=0x0:0x38c77ee22d82390c,
toko bangunan,toko bangunan,Tunas harapan,"J558+H6H, Jalan trans, Waiwerang Kota, Kec. Adonara Tim., Kabupaten Flores Timur, Nusa Tenggara Tim.","Kabupaten Flores Timur, Nusa Tenggara Tim.",NUSA TENGGARA TIMUR,,Indonesia,,,,-8.3910742,123.16562,https://maps.google.com/?cid=0x0:0xc2872e8b5d0ed36b,
toko bangunan,toko bangunan,Toko bangunan,"H3XW+5HC, Jl. Trans Adonara, Pandai, Kec. Wotan Ulumando, Kabupaten Flores Timur, Nusa Tenggara Tim.","Kabupaten Flores Timur, Nusa Tenggara Tim.",NUSA TENGGARA TIMUR,,Indonesia,,,,-8.4020537,123.0963889,https://maps.google.com/?cid=0x0:0x9ba4b77d2319ccc,
toko bangunan,toko bangunan,Kec. Tj. Bunga,"Kabupaten Flores Timur, Nusa Tenggara Tim.","Kabupaten Flores Timur, Nusa Tenggara Tim.",NUSA TENGGARA TIMUR,,Indonesia,,,,-8.1598576,122.9703032,https://maps.google.com/?cid=0x0:0x4700d1d3c3ad6bc4,
toko bangunan,toko bangunan,TOKO SARANA BANGUNAN,"Sarotari, Kec. Larantuka, Kabupaten Flores Timur, Nusa Tenggara Tim.","Kabupaten Flores Timur, Nusa Tenggara Tim.",NUSA TENGGARA TIMUR,,Indonesia,,,,-8.3174036,123.015044,https://maps.google.com/?cid=0x0:0xaf0fa1e6b09259c7,
toko bangunan,Toko Bahan Bangunan,The Warehouse,"Jl. Soekarno - Hatta Watowiti, Tiwatobi, Kec. Ile Mandiri, Kabupaten Flores Timur, Nusa Tenggara Tim.","Kabupaten Flores Timur, Nusa Tenggara Tim.",NUSA TENGGARA TIMUR,,Indonesia,82147326746.0,,,-8.279221,123.0111616,https://maps.google.com/?cid=0x0:0xc4bcdd62d4e883cd,
toko bangunan,Toko,Toko Flora Bangunan,"VVRP+MM8, Jl. I. J. Kasimo, Beirafu, Kec. Atambua Bar., Kabupaten Belu, Nusa Tenggara Tim.","Kabupaten Belu, Nusa Tenggara Tim.",NUSA TENGGARA TIMUR,,Indonesia,,,,-9.1083486,124.8867162,https://maps.google.com/?cid=0x0:0xcaf00e91ed52526f,
toko bangunan,Toko Bahan Bangunan,Flores Depo Bangunan,"Jl. Trans Flores, Goron Talo, Kec. Komodo, Kabupaten Manggarai Barat, Nusa Tenggara Tim.","Kabupaten Manggarai Barat, Nusa Tenggara Tim.",NUSA TENGGARA TIMUR,,Indonesia,81239434040.0,,,-8.502223,119.8825278,https://maps.google.com/?cid=0x0:0x7ddeae9ccf378db2,
toko bangunan,Toko Bahan Bangunan,toko gloria bangunan,"Jl. Kemakmuran No.14, Kel. Mbongawani, Kec. Ende Sel., Kabupaten Ende, Nusa Tenggara Tim.","Kabupaten Ende, Nusa Tenggara Tim.",NUSA TENGGARA TIMUR,,Indonesia,81331006673.0,,,-8.8465826,121.644941,https://maps.google.com/?cid=0x0:0xe6e6044a0d0864ee,
toko bangunan,Toko Bahan Bangunan,Toko Cipta Bangunan,"Wolomarang, Kec. Alok Bar., Kabupaten Sikka, Nusa Tenggara Tim.","Kabupaten Sikka, Nusa Tenggara Tim.",NUSA TENGGARA TIMUR,,Indonesia,81231842348.0,,,-8.6105049,122.1996912,https://maps.google.com/?cid=0x0:0x1d786c0067a3953f,
toko bangunan,Toko Bahan Bangunan,Toko Dahlia Ende,"Jln. Tiong Hwa No.2, Kel. Mbongawani, Flores, Kabupaten Ende, Nusa Tenggara Tim. 86313","Kel. Mbongawani, Flores, Kabupaten Ende",NUSA TENGGARA TIMUR,86313.0,Indonesia,82237373775.0,,,-8.8466294,121.6446825,https://maps.google.com/?cid=0x0:0xeca3778c25002304,
toko bangunan,Toko Bahan Bangunan,Toko Roda Bangunan,"VVVX+333, Atambua, Kec. Kota Atambua, Kabupaten Belu, Nusa Tenggara Tim.","Kabupaten Belu, Nusa Tenggara Tim.",NUSA TENGGARA TIMUR,,Indonesia,,,,-9.1073625,124.8976836,https://maps.google.com/?cid=0x0:0xfdf308e29f21112,
toko bangunan,Toko Bahan Bangunan,Toko Belu Bangunan,"Jl. Jenderal Sudirman No.34, Atambua, Kec. Kota Atambua, Kabupaten Belu, Nusa Tenggara Tim.","Kabupaten Belu, Nusa Tenggara Tim.",NUSA TENGGARA TIMUR,,Indonesia,85137362494.0,,,-9.107011,124.8962022,https://maps.google.com/?cid=0x0:0x559d9cf31ea38cd,
toko bangunan,Toko Perlengkapan Rumah,Toko Bangunan Champion,"QGMX+63R, Mutiara, Kec. Tlk. Mutiara, Kabupaten Alor, Nusa Tenggara Tim.","Kabupaten Alor, Nusa Tenggara Tim.",NUSA TENGGARA TIMUR,,Indonesia,81338757523.0,,,-8.2168892,124.5476484,https://maps.google.com/?cid=0x0:0x43281458e96c59c8,
toko bangunan,Toko Bahan Bangunan,toko sinar bangunan (ende),"5J3V+MWW, Kel. Mbongawani, Kec. Ende Sel., Kabupaten Ende, Nusa Tenggara Tim.","Kabupaten Ende, Nusa Tenggara Tim.",NUSA TENGGARA TIMUR,,Indonesia,38121454.0,,,-8.8457706,121.6448129,https://maps.google.com/?cid=0x0:0x286f8de860e51520,
toko bangunan,Toko Bahan Bangunan,CV. Tujuh Jaya,"723W+C6P, Unnamed Rd, Mokdale, Kec. Lobalain, Kabupaten Rote Ndao, Nusa Tenggara Tim.","Kabupaten Rote Ndao, Nusa Tenggara Tim.",NUSA TENGGARA TIMUR,,Indonesia,,,,-10.7464098,123.04558,https://maps.google.com/?cid=0x0:0x575a85c650ddf9e4,
toko bangunan,Toko Bahan Bangunan,Toko Bangunan Jaya,"Jl. Terusan Timor Raya No.9u KM. 6, Oesapa Bar., Kec. Klp. Lima, Kota Kupang, Nusa Tenggara Tim.","Kota Kupang, Nusa Tenggara Tim.",NUSA TENGGARA TIMUR,,Indonesia,81338567839.0,,,-10.14441,123.6254719,https://maps.google.com/?cid=0x0:0x4a94c89160bbe62c,
toko bangunan,Minimarket,toko hebron,"725V+CW9, Unnamed Rd, Mokdale, Kec. Lobalain, Kabupaten Rote Ndao, Nusa Tenggara Tim.","Kabupaten Rote Ndao, Nusa Tenggara Tim.",NUSA TENGGARA TIMUR,,Indonesia,,,,-10.7414723,123.0448675,https://maps.google.com/?cid=0x0:0x699558aa9d2e663a,
toko bangunan,Toko Bahan Bangunan,UD. Fajar Bangunan ENDE,"Jl. Ahmad Yani, Kel. Kelimutu, Kec. Ende Tengah, Kabupaten Ende, Nusa Tenggara Tim.","Kabupaten Ende, Nusa Tenggara Tim.",NUSA TENGGARA TIMUR,,Indonesia,82155194068.0,,,-8.8481109,121.6573345,https://maps.google.com/?cid=0x0:0x8a620756dd470b99,
toko bangunan,Toko Bahan Bangunan,Toko Graha Bangunan,"Gedung Graha Ariadi, Oesapa Bar., Kec. Klp. Lima, Kota Kupang, Nusa Tenggara Tim. 85228","Oesapa Bar., Kec. Klp. Lima, Kota Kupang",NUSA TENGGARA TIMUR,85228.0,Indonesia,81312893723.0,,,-10.1468703,123.631267,https://maps.google.com/?cid=0x0:0x4167d73ee95fc845,
toko bangunan,Toko,Toko METRO,"M2G4+PJQ, Sarotari, Kec. Larantuka, Kabupaten Flores Timur, Nusa Tenggara Tim.","Kabupaten Flores Timur, Nusa Tenggara Tim.",NUSA TENGGARA TIMUR,,Indonesia,,,,-8.323167,123.0066065,https://maps.google.com/?cid=0x0:0xd7c1593bab565411,
toko bangunan,Toko,Toko lancar bangunan,"QHQ6+CPH, Welai Tim., Kec. Tlk. Mutiara, Kabupaten Alor, Nusa Tenggara Tim.","Kabupaten Alor, Nusa Tenggara Tim.",NUSA TENGGARA TIMUR,,Indonesia,,,,-8.2114421,124.5618588,https://maps.google.com/?cid=0x0:0x423f09fbf0e1baf7,
toko bangunan,Toko Bahan Bangunan,Toko Duta Bangunan,"GFMJ+896, Benpasi, Kec. Kota Kefamenanu, Kabupaten Timor Tengah Utara, Nusa Tenggara Tim.","Kabupaten Timor Tengah Utara, Nusa Tenggara Tim.",NUSA TENGGARA TIMUR,,Indonesia,8113827627.0,,,-9.4667226,124.4808961,https://maps.google.com/?cid=0x0:0x7bd4b59644a2a0bd,
toko bangunan,Toko Bahan Bangunan,TOKO BANGUNAN,"962F+FR3, Lkr. Luar Maumere, Kota Baru, Kec. Alok Tim., Kabupaten Sikka, Nusa Tenggara Tim.","Kabupaten Sikka, Nusa Tenggara Tim.",NUSA TENGGARA TIMUR,,Indonesia,81228455504.0,,,-8.648865,122.2245369,https://maps.google.com/?cid=0x0:0xfcda8409dfe7e722,
toko bangunan,Pemasok Bahan Bangunan,Toko Hero Bangunan,"Toko Hero Bangunan, Tini, Manuaman, Kec. Kota Atambua, Kabupaten Belu, Nusa Tenggara Tim. 85712","Tini, Manuaman, Kec. Kota Atambua, Kabupaten Belu",NUSA TENGGARA TIMUR,85712.0,Indonesia,82221202985.0,,,-9.1117919,124.8871833,https://maps.google.com/?cid=0x0:0xb79f7fc42724fd10,
toko bangunan,Pemasok Bahan Bangunan,Toko bangunan RODA BANGUNAN,"VVRP+PWJ, Beirafu, Kec. Atambua Bar., Kabupaten Belu, Nusa Tenggara Tim.","Kabupaten Belu, Nusa Tenggara Tim.",NUSA TENGGARA TIMUR,,Indonesia,,,,-9.1084148,124.8873126,https://maps.google.com/?cid=0x0:0x75291b2655aebbf5,
toko bangunan,Toko Bahan Bangunan,Toko Material Isto,"MVVF+C9H, Kabupaten BeluRaimanuk, Nusa Tenggara Tim., Mandeu, Kec. Rai Manuk, Kabupaten Belu, Nusa Tenggara Tim.","Kabupaten Belu, Nusa Tenggara Tim.",NUSA TENGGARA TIMUR,,Indonesia,,,,-9.3064484,124.8734845,https://maps.google.com/?cid=0x0:0x1e94426a8dd10baf,
toko bangunan,Toko Bahan Bangunan,Toko Bangunan Toha Abadi,"5MWC+QW9, Jl. Kadupugur, Makasari, Kec. Kalapanunggal, Kabupaten Sukabumi, Jawa Barat 43354","Jl. Kadupugur, Makasari, Kec. Kalapanunggal, Kabupaten Sukabumi",NUSA TENGGARA TIMUR,43354.0,Indonesia,,,,-6.8030828,106.672348,https://maps.google.com/?cid=0x0:0x155fa4978e33620a,
toko bangunan,Toko Bahan Bangunan,Toko Imperial Bangunan,"VVRQ+QF7, Beirafu, Kec. Atambua Bar., Kabupaten Belu, Nusa Tenggara Tim.","Kabupaten Belu, Nusa Tenggara Tim.",NUSA TENGGARA TIMUR,,Indonesia,,,,-9.1080975,124.8886676,https://maps.google.com/?cid=0x0:0x7d00d67e074af11,
toko bangunan,Toko Perlengkapan Rumah,Tb anugerah mandiri/solihin,"5MR8+F8P, Jl. Bojong Menteng, Palasari Girang, Kec. Kalapanunggal, Kabupaten Sukabumi, Jawa Barat 43354","Jl. Bojong Menteng, Palasari Girang, Kec. Kalapanunggal, Kabupaten Sukabumi",NUSA TENGGARA TIMUR,43354.0,Indonesia,,,,-6.809083,106.665758,https://maps.google.com/?cid=0x0:0xff5f1c7a1828f3dc,
toko bangunan,toko bangunan,Kec. Titehena,"Kabupaten Flores Timur, Nusa Tenggara Tim.","Kabupaten Flores Timur, Nusa Tenggara Tim.",NUSA TENGGARA TIMUR,,Indonesia,,,,-8.3698253,122.7583467,https://maps.google.com/?cid=0x0:0x8f5ba4f86cc55d21,
toko bangunan,Pemasok Bahan Bangunan,Toko Hero Bangunan,"Toko Hero Bangunan, Tini, Manuaman, Kec. Kota Atambua, Kabupaten Belu, Nusa Tenggara Tim. 85712","Tini, Manuaman, Kec. Kota Atambua, Kabupaten Belu",NUSA TENGGARA TIMUR,85712.0,Indonesia,82221202985.0,,,-9.1117919,124.8871833,https://maps.google.com/?cid=0x0:0xb79f7fc42724fd10,
toko bangunan,Toko,Toko Flora Bangunan,"VVRP+MM8, Jl. I. J. Kasimo, Beirafu, Kec. Atambua Bar., Kabupaten Belu, Nusa Tenggara Tim.","Kabupaten Belu, Nusa Tenggara Tim.",NUSA TENGGARA TIMUR,,Indonesia,,,,-9.1083486,124.8867162,https://maps.google.com/?cid=0x0:0xcaf00e91ed52526f,
toko bangunan,Toko Bahan Bangunan,Toko Roda Bangunan,"VVVX+333, Atambua, Kec. Kota Atambua, Kabupaten Belu, Nusa Tenggara Tim.","Kabupaten Belu, Nusa Tenggara Tim.",NUSA TENGGARA TIMUR,,Indonesia,,,,-9.1073625,124.8976836,https://maps.google.com/?cid=0x0:0xfdf308e29f21112,
toko bangunan,Pemasok Bahan Bangunan,Toko bangunan RODA BANGUNAN,"VVRP+PWJ, Beirafu, Kec. Atambua Bar., Kabupaten Belu, Nusa Tenggara Tim.","Kabupaten Belu, Nusa Tenggara Tim.",NUSA TENGGARA TIMUR,,Indonesia,,,,-9.1084148,124.8873126,https://maps.google.com/?cid=0x0:0x75291b2655aebbf5,
toko bangunan,Toko Bahan Bangunan,Toko Cipta Bangunan,"Wolomarang, Kec. Alok Bar., Kabupaten Sikka, Nusa Tenggara Tim.","Kabupaten Sikka, Nusa Tenggara Tim.",NUSA TENGGARA TIMUR,,Indonesia,81231842348.0,,,-8.6105049,122.1996912,https://maps.google.com/?cid=0x0:0x1d786c0067a3953f,
toko bangunan,Pemasok Bahan Bangunan,Toko Teratai/Tio,"Jl. Niaga No.50, Postoh, Kec. Larantuka, Kabupaten Flores Timur, Nusa Tenggara Tim.","Kabupaten Flores Timur, Nusa Tenggara Tim.",NUSA TENGGARA TIMUR,,Indonesia,38321401.0,,,-8.3415086,122.9891408,https://maps.google.com/?cid=0x0:0x67cea815f38e4754,
toko bangunan,Toko Bahan Bangunan,Toko Anugerah,"Podor, Lewolere, Kec. Larantuka, Kabupaten Flores Timur, Nusa Tenggara Tim. 86212","Lewolere, Kec. Larantuka, Kabupaten Flores Timur",NUSA TENGGARA TIMUR,86212.0,Indonesia,81338919233.0,,,-8.3515405,122.9643203,https://maps.google.com/?cid=0x0:0x460c9471ebbb83e8,
toko bangunan,toko bangunan,Witihama,"Pledo, Kec. Witihama, Kabupaten Flores Timur, Nusa Tenggara Tim.","Kabupaten Flores Timur, Nusa Tenggara Tim.",NUSA TENGGARA TIMUR,,Indonesia,,,,-8.268047,123.320357,https://maps.google.com/?cid=0x0:0x62eede8c38a858e4,
toko bangunan,toko bangunan,Kec. Witihama,"Kabupaten Flores Timur, Nusa Tenggara Tim.","Kabupaten Flores Timur, Nusa Tenggara Tim.",NUSA TENGGARA TIMUR,,Indonesia,,,,-8.2994084,123.2612584,https://maps.google.com/?cid=0x0:0xb59ca4394d457921,
toko bangunan,Toko Bahan Bangunan,TB. Batahari Jaya,"Jl. Tawes Raya No.7, RT.010/RW.012, Kayuringin Jaya, Kec. Bekasi Sel., Kota Bks, Jawa Barat 17144","RT.010/RW.012, Kayuringin Jaya, Kec. Bekasi Sel., Kota Bks",NUSA TENGGARA TIMUR,17144.0,Indonesia,81385153883.0,,,-6.2448128,106.989985,https://maps.google.com/?cid=0x0:0x345a8aca5bd7021f,
toko bangunan,toko bangunan,Nusa Tenggara Tim.,,Nusa Tenggara Tim.,NUSA TENGGARA TIMUR,,Indonesia,,,,-8.6573819,121.0793705,https://maps.google.com/?cid=0x0:0x1030bfbcaf71ae0,
toko bangunan,Pemasok Bahan Bangunan,Toko semen,"H3XW+8C7, Jl. Trans Adonara, Pandai, Kec. Wotan Ulumando, Kabupaten Flores Timur, Nusa Tenggara Tim.","Kabupaten Flores Timur, Nusa Tenggara Tim.",NUSA TENGGARA TIMUR,,Indonesia,,,,-8.4017035,123.0960553,https://maps.google.com/?cid=0x0:0x14c456eae558bb30,
toko bangunan,toko bangunan,TOKO SARANA BANGUNAN,"Sarotari, Kec. Larantuka, Kabupaten Flores Timur, Nusa Tenggara Tim.","Kabupaten Flores Timur, Nusa Tenggara Tim.",NUSA TENGGARA TIMUR,,Indonesia,,,,-8.3174036,123.015044,https://maps.google.com/?cid=0x0:0xaf0fa1e6b09259c7,
toko bangunan,toko bangunan,Toko bangunan,"H3XW+5HC, Jl. Trans Adonara, Pandai, Kec. Wotan Ulumando, Kabupaten Flores Timur, Nusa Tenggara Tim.","Kabupaten Flores Timur, Nusa Tenggara Tim.",NUSA TENGGARA TIMUR,,Indonesia,,,,-8.4020537,123.0963889,https://maps.google.com/?cid=0x0:0x9ba4b77d2319ccc,
toko bangunan,toko bangunan,Kec. Wotan Ulumando,"Kabupaten Flores Timur, Nusa Tenggara Tim.","Kabupaten Flores Timur, Nusa Tenggara Tim.",NUSA TENGGARA TIMUR,,Indonesia,,,,-8.4035658,123.0668167,https://maps.google.com/?cid=0x0:0x9f7cb429a3dd4bdd,
toko bangunan,Pemasok Bahan Bangunan,UD Mitra Mandiri,"M2C3+FRG, Puken Tobi Wangi Bao, Kec. Larantuka, Kabupaten Flores Timur, Nusa Tenggara Tim.","Kabupaten Flores Timur, Nusa Tenggara Tim.",NUSA TENGGARA TIMUR,,Indonesia,81232300777.0,,,-8.3288177,123.0045842,https://maps.google.com/?cid=0x0:0xa972a1abd2defb3a,
toko bangunan,Toko Bahan Bangunan,Toko Putera Flores,"Jl. Niaga No.139, Postoh, Kec. Larantuka, Kabupaten Flores Timur, Nusa Tenggara Tim.","Kabupaten Flores Timur, Nusa Tenggara Tim.",NUSA TENGGARA TIMUR,,Indonesia,,,,-8.3402203,122.9906562,https://maps.google.com/?cid=0x0:0xff19555b5a37d44b,
toko bangunan,Pemasok Bahan Bangunan,Toko Teratai/Tio,"Jl. Niaga No.50, Postoh, Kec. Larantuka, Kabupaten Flores Timur, Nusa Tenggara Tim.","Kabupaten Flores Timur, Nusa Tenggara Tim.",NUSA TENGGARA TIMUR,,Indonesia,38321401.0,,,-8.3415086,122.9891408,https://maps.google.com/?cid=0x0:0x67cea815f38e4754,
toko bangunan,Toko bahan makanan,ud. Perflos,"FPG4+GW, Boru, Kec. Wulanggitang, Kabupaten Flores Timur, Nusa Tenggara Tim.","Kabupaten Flores Timur, Nusa Tenggara Tim.",NUSA TENGGARA TIMUR,,Indonesia,85253122353.0,,,-8.5237779,122.7073197,https://maps.google.com/?cid=0x0:0x3ad71b8d4008a7f5,
toko bangunan,Minimarket,UD. SUMBER URIP,"FMJM+5MH, Boru, Kec. Wulanggitang, Kabupaten Flores Timur, Nusa Tenggara Tim.","Kabupaten Flores Timur, Nusa Tenggara Tim.",NUSA TENGGARA TIMUR,,Indonesia,82144247777.0,,,-8.5195559,122.6842498,https://maps.google.com/?cid=0x0:0x5fded89e4cb10a5d,
