Category,Real Category,Business Name,Address,City,State,Postal Code,Country,Phone,Email,Website,Latitude,Longitude,Map Link,Details Link
perumahan,perumahan,Pulau Adonara,"Adonara, Kec. Adonara, Kabupaten Flores Timur, Nusa Tenggara Tim.","Kabupaten Flores Timur, Nusa Tenggara Tim.",NUSA TENGGARA TIMUR,,Indonesia,,,,-8.25,123.15,https://maps.google.com/?cid=0x0:0xc832bbe35c76b11b,
perumahan,Pembangunan Perumahan,Adonara timur,"J576+PP5, Waiwerang Kota, Kec. Adonara Tim., Kabupaten Flores Timur, Nusa Tenggara Tim.","Kabupaten Flores Timur, Nusa Tenggara Tim.",NUSA TENGGARA TIMUR,,Indonesia,,,,-8.3857489,123.161861,https://maps.google.com/?cid=0x0:0xfaaf72c7dea743c9,
perumahan,Komplek perumahan,"Tobi, Lamatewelu, Adonara Timur, Flores Timur, NTT","J6QF+GWV, Lamatewelu, Kec. Adonara Tim., Kabupaten Flores Timur, Nusa Tenggara Tim.","Kabupaten Flores Timur, Nusa Tenggara Tim.",NUSA TENGGARA TIMUR,,Indonesia,82350080480.0,,,-8.3611431,123.2247863,https://maps.google.com/?cid=0x0:0xb4c96d4b9acd37a7,
perumahan,Komplek perumahan,Rumah TORESS,"J5CM+893, Jl. Waiwerang Sagu, Lewobunga, Kec. Adonara Tim., Kabupaten Flores Timur, Nusa Tenggara Tim.","Kabupaten Flores Timur, Nusa Tenggara Tim.",NUSA TENGGARA TIMUR,,Indonesia,,,,-8.3792522,123.1845897,https://maps.google.com/?cid=0x0:0x29c5e8fa5b9f268b,
perumahan,Komplek perumahan,RUMAH FAJRI,"J4MG+2X3, Lamakukung, Kec. Adonara Tim., Kabupaten Flores Timur, Nusa Tenggara Tim.","Kabupaten Flores Timur, Nusa Tenggara Tim.",NUSA TENGGARA TIMUR,,Indonesia,,,,-8.3673691,123.127502,https://maps.google.com/?cid=0x0:0x23168feebdd84247,
perumahan,Komplek perumahan,Rumah fryd,"J58H+PX9, Waiburak, Kec. Adonara Tim., Kabupaten Flores Timur, Nusa Tenggara Tim.","Kabupaten Flores Timur, Nusa Tenggara Tim.",NUSA TENGGARA TIMUR,,Indonesia,,,,-8.383221,123.1799958,https://maps.google.com/?cid=0x0:0xb3683ccd1500d27b,
perumahan,Komplek perumahan,Tulida,"M42X+HM3, Horowura, Kec. Adonara Tengah, Kabupaten Flores Timur, Nusa Tenggara Tim.","Kabupaten Flores Timur, Nusa Tenggara Tim.",NUSA TENGGARA TIMUR,,Indonesia,,,,-8.3486156,123.1491869,https://maps.google.com/?cid=0x0:0x3a78ad8c70f9b3a9,
perumahan,Komplek perumahan,Family Home,"J577+VVC, Jl. Adyaksa, Waiwerang Kota, Kec. Adonara Tim., Kabupaten Flores Timur, Nusa Tenggara Tim.","Kabupaten Flores Timur, Nusa Tenggara Tim.",NUSA TENGGARA TIMUR,,Indonesia,,,,-8.3853145,123.1646259,https://maps.google.com/?cid=0x0:0x93960387dd9a4c46,
perumahan,Pembangunan Perumahan,Perumahan sosina,"J5F7+RPC, Narasaosina, Kec. Adonara Tim., Kabupaten Flores Timur, Nusa Tenggara Tim.","Kabupaten Flores Timur, Nusa Tenggara Tim.",NUSA TENGGARA TIMUR,,Indonesia,,,,-8.375433,123.1642547,https://maps.google.com/?cid=0x0:0x8ca80e6d5c5c3fac,
perumahan,Komplek perumahan,Rumah ISMAIL,"J564+927, Lamahala Jaya, Kec. Adonara Tim., Kabupaten Flores Timur, Nusa Tenggara Tim.","Kabupaten Flores Timur, Nusa Tenggara Tim.",NUSA TENGGARA TIMUR,,Indonesia,,,,-8.3888119,123.1554552,https://maps.google.com/?cid=0x0:0xebc26411c0559155,
perumahan,Komplek perumahan,Waiwerang kota,"J567+2P5, Waiwerang Kota, Kec. Adonara Tim., Kabupaten Flores Timur, Nusa Tenggara Tim.","Kabupaten Flores Timur, Nusa Tenggara Tim.",NUSA TENGGARA TIMUR,,Indonesia,,,,-8.389985,123.1643455,https://maps.google.com/?cid=0x0:0xfa39c7ca70cb8a2,
perumahan,Komplek perumahan,Rumah Rommi,"J5M7+Q8J, Narasaosina, Kec. Adonara Tim., Kabupaten Flores Timur, Nusa Tenggara Tim.","Kabupaten Flores Timur, Nusa Tenggara Tim.",NUSA TENGGARA TIMUR,,Indonesia,,,,-8.365548,123.1632665,https://maps.google.com/?cid=0x0:0xca44a017210656ac,
perumahan,perumahan,Kec. Adonara Tim.,"Kabupaten Flores Timur, Nusa Tenggara Tim.","Kabupaten Flores Timur, Nusa Tenggara Tim.",NUSA TENGGARA TIMUR,,Indonesia,,,,-8.3898003,123.1651997,https://maps.google.com/?cid=0x0:0x37d2d369d2f09ea8,
perumahan,Pembangunan Perumahan,Dusun II Lamalimut Desa Saosina,"J5P6+8WX, Unnamed Road, Narasaosina, Kec. Adonara Tim., Kabupaten Flores Timur, Nusa Tenggara Tim.","Kabupaten Flores Timur, Nusa Tenggara Tim.",NUSA TENGGARA TIMUR,,Indonesia,,,,-8.364133,123.162366,https://maps.google.com/?cid=0x0:0x4b8972ac094e58f5,
perumahan,Pembangunan Perumahan,MUHAMMAD ADJIE DAUD,"J558+MP4, Waiwerang Kota, Kec. Adonara Tim., Kabupaten Flores Timur, Nusa Tenggara Tim.","Kabupaten Flores Timur, Nusa Tenggara Tim.",NUSA TENGGARA TIMUR,,Indonesia,,,,-8.3906362,123.1668556,https://maps.google.com/?cid=0x0:0x920a6f3b6995c306,
perumahan,Pembangunan Perumahan,"Libu, Adonara Timur","J568+33G, Waiwerang Kota, Kec. Adonara Tim., Kabupaten Flores Timur, Nusa Tenggara Tim.","Kabupaten Flores Timur, Nusa Tenggara Tim.",NUSA TENGGARA TIMUR,,Indonesia,,,,-8.3898003,123.1651997,https://maps.google.com/?cid=0x0:0xc63d99ffa8e3ea0e,
perumahan,Pembangunan Perumahan,Kompleks WARA WIRI,"J562+6V6, Jl. Trans Adonara, Lamahala Jaya, Kec. Adonara Tim., Kabupaten Flores Timur, Nusa Tenggara Tim.","Kabupaten Flores Timur, Nusa Tenggara Tim.",NUSA TENGGARA TIMUR,,Indonesia,,,,-8.3894507,123.1521296,https://maps.google.com/?cid=0x0:0xf942dd8106f8ab4f,
perumahan,Pembangunan Perumahan,Rumah Abdurahman,"J569+9W7, Waiburak, Kec. Adonara Tim., Kabupaten Flores Timur, Nusa Tenggara Tim.","Kabupaten Flores Timur, Nusa Tenggara Tim.",NUSA TENGGARA TIMUR,,Indonesia,,,,-8.3890997,123.1698204,https://maps.google.com/?cid=0x0:0x941263da90876e5a,
perumahan,perumahan,Dusun 2 kompleks ethiofals,"J46X+QM4, Lamahala Jaya, Kec. Adonara Tim., Kabupaten Flores Timur, Nusa Tenggara Tim.","Kabupaten Flores Timur, Nusa Tenggara Tim.",NUSA TENGGARA TIMUR,,Indonesia,,,,-8.3881221,123.1492106,https://maps.google.com/?cid=0x0:0x59273e541777267f,
perumahan,Perhimpunan Pengembang Perumahan,Rumah Umar Sengaji,"J4HR+779, depan masjid, Ipiebang, Kec. Adonara Tim., Kabupaten Flores Timur, Nusa Tenggara Tim.","Kabupaten Flores Timur, Nusa Tenggara Tim.",NUSA TENGGARA TIMUR,,Indonesia,,,,-8.3718326,123.1407445,https://maps.google.com/?cid=0x0:0x971be1c55324d936,
perumahan,Komplek perumahan,Rumah serfas,"Q42X+2XX Desa dery, Adonara, Kec. Adonara, Kabupaten Flores Timur, Nusa Tenggara Tim.","Kabupaten Flores Timur, Nusa Tenggara Tim.",NUSA TENGGARA TIMUR,,Indonesia,,,,-8.25,123.15,https://maps.google.com/?cid=0x0:0xc963e33c4472df2c,
perumahan,perumahan,Rumah key,"Q42X+2XX, RT.01/RW.01, Adonara, Kec. Adonara, Kabupaten Flores Timur, Nusa Tenggara Tim.","Kabupaten Flores Timur, Nusa Tenggara Tim.",NUSA TENGGARA TIMUR,,Indonesia,,,,-8.25,123.15,https://maps.google.com/?cid=0x0:0x1a3e08f2ab11875e,
perumahan,perumahan,Kec. Adonara Bar.,"Kabupaten Flores Timur, Nusa Tenggara Tim.","Kabupaten Flores Timur, Nusa Tenggara Tim.",NUSA TENGGARA TIMUR,,Indonesia,,,,-8.2755201,123.0930745,https://maps.google.com/?cid=0x0:0xd4c07e89b92983b9,
perumahan,Komplek perumahan,Residence Tabali,"M2H5+H5P, Jl. San Juan No.133, Sarotari, Kec. Larantuka, Kabupaten Flores Timur, Nusa Tenggara Tim.","Kabupaten Flores Timur, Nusa Tenggara Tim.",NUSA TENGGARA TIMUR,,Indonesia,,,,-8.3202345,123.0095165,https://maps.google.com/?cid=0x0:0xf6e2253415366e40,
perumahan,perumahan,Narasaosina,"Kec. Adonara Tim., Kabupaten Flores Timur, Nusa Tenggara Tim.","Kabupaten Flores Timur, Nusa Tenggara Tim.",NUSA TENGGARA TIMUR,,Indonesia,,,,-8.365548,123.1632665,https://maps.google.com/?cid=0x0:0x750f882028959a7a,
perumahan,Sekolah menengah,SMAN I Adonara Barat,"P482+84C, Waiwadan, Kec. Adonara Bar., Kabupaten Flores Timur, Nusa Tenggara Tim.","Kabupaten Flores Timur, Nusa Tenggara Tim.",NUSA TENGGARA TIMUR,,Indonesia,,,,-8.2841919,123.1002722,https://maps.google.com/?cid=0x0:0x29a8bff966b4c0bd,
perumahan,Komplek perumahan,Rumah Andra,"M4WM+R7R, Baya, Kec. Adonara Bar., Kabupaten Flores Timur, Nusa Tenggara Tim.","Kabupaten Flores Timur, Nusa Tenggara Tim.",NUSA TENGGARA TIMUR,,Indonesia,,,,-8.3032089,123.1333575,https://maps.google.com/?cid=0x0:0x67e1da9679206112,
perumahan,perumahan,Adonara,"Q45Q+QFQ, Adonara, Kec. Adonara, Kabupaten Flores Timur, Nusa Tenggara Tim.","Kabupaten Flores Timur, Nusa Tenggara Tim.",NUSA TENGGARA TIMUR,,Indonesia,,,,-8.2408537,123.1381778,https://maps.google.com/?cid=0x0:0x26b0a53b873c01a2,
perumahan,Komplek perumahan,Rumah Inna Waton,"M4G8+794, Bukit Seburi, Kec. Adonara Bar., Kabupaten Flores Timur, Nusa Tenggara Tim.","Kabupaten Flores Timur, Nusa Tenggara Tim.",NUSA TENGGARA TIMUR,,Indonesia,,,,-8.3248975,123.1162195,https://maps.google.com/?cid=0x0:0xa60a17645cb5ffe0,
perumahan,Pembangunan Perumahan,Rumah,"M4HR+FPW, Kokotobo, Kec. Adonara Tengah, Kabupaten Flores Timur, Nusa Tenggara Tim.","Kabupaten Flores Timur, Nusa Tenggara Tim.",NUSA TENGGARA TIMUR,,Indonesia,,,,-8.3209683,123.1414846,https://maps.google.com/?cid=0x0:0x486b88902484ea42,
perumahan,Komplek perumahan,Harry Torado,"P347+8W, Kima Kamak, Kec. Adonara Bar., Kabupaten Flores Timur, Nusa Tenggara Tim.","Kabupaten Flores Timur, Nusa Tenggara Tim.",NUSA TENGGARA TIMUR,,Indonesia,,,,-8.2941875,123.0648125,https://maps.google.com/?cid=0x0:0x574765e65e5d5914,
perumahan,Komplek perumahan,Niron HomeSweatHome,"P359+RCG, Pajinian, Kec. Adonara Bar., Kabupaten Flores Timur, Nusa Tenggara Tim.","Kabupaten Flores Timur, Nusa Tenggara Tim.",NUSA TENGGARA TIMUR,,Indonesia,,,,-8.2904299,123.0685741,https://maps.google.com/?cid=0x0:0xd5a95c1f4f6b9a0e,
perumahan,Komplek perumahan,Rumah adibu stenli henuk,"P3CW+69Q, Homa, Kec. Adonara Bar., Kabupaten Flores Timur, Nusa Tenggara Tim.","Kabupaten Flores Timur, Nusa Tenggara Tim.",NUSA TENGGARA TIMUR,,Indonesia,,,,-8.278567,123.0941521,https://maps.google.com/?cid=0x0:0xe45e32e834e3c6de,
perumahan,Kantor Pemerintah,Desa hurung,"P33P+H97, Hurung, Kec. Adonara Bar., Kabupaten Flores Timur, Nusa Tenggara Tim.","Kabupaten Flores Timur, Nusa Tenggara Tim.",NUSA TENGGARA TIMUR,,Indonesia,,,,-8.2960761,123.0859343,https://maps.google.com/?cid=0x0:0xdc8d8d2f7f314715,
perumahan,Komplek perumahan,Rumah Adepa,"P3CR+W9J, Waiwadan, Kec. Adonara Bar., Kabupaten Flores Timur, Nusa Tenggara Tim.","Kabupaten Flores Timur, Nusa Tenggara Tim.",NUSA TENGGARA TIMUR,,Indonesia,,,,-8.2776511,123.0908817,https://maps.google.com/?cid=0x0:0x212e28a0e68f9da8,
perumahan,Komplek perumahan,Rumah Abdul,"Q45Q+QFQ, Adonara, Kec. Adonara, Kabupaten Flores Timur, Nusa Tenggara Tim.","Kabupaten Flores Timur, Nusa Tenggara Tim.",NUSA TENGGARA TIMUR,,Indonesia,,,,-8.2405375,123.1387541,https://maps.google.com/?cid=0x0:0x4fdc6d3619c7ecdb,
perumahan,Pembangunan Perumahan,Lorong dusun,"M4XM+44C, Baya, Kec. Adonara Bar., Kabupaten Flores Timur, Nusa Tenggara Tim.","Kabupaten Flores Timur, Nusa Tenggara Tim.",NUSA TENGGARA TIMUR,,Indonesia,,,,-8.3020752,123.1324958,https://maps.google.com/?cid=0x0:0xf85d9a8bc8c21821,
perumahan,Pembangunan Perumahan,Lorong tengah,"M4WH+CCH, Wato Baya, Kec. Adonara Bar., Kabupaten Flores Timur, Nusa Tenggara Tim.","Kabupaten Flores Timur, Nusa Tenggara Tim.",NUSA TENGGARA TIMUR,,Indonesia,,,,-8.3039385,123.1286084,https://maps.google.com/?cid=0x0:0x152cd4e4ff8c4595,
perumahan,perumahan,Rumah Mahmud Lodan,"P4P6+WXP, Duwanur, Kec. Adonara Bar., Kabupaten Flores Timur, Nusa Tenggara Tim.","Kabupaten Flores Timur, Nusa Tenggara Tim.",NUSA TENGGARA TIMUR,,Indonesia,,,,-8.2624031,123.1121234,https://maps.google.com/?cid=0x0:0x1098da2a0a74b5df,
perumahan,Komplek perumahan,Geanzcarvallo,"P368+VP, Pajinian, Kec. Adonara Bar., Kabupaten Flores Timur, Nusa Tenggara Tim.","Kabupaten Flores Timur, Nusa Tenggara Tim.",NUSA TENGGARA TIMUR,,Indonesia,,,,-8.2877711,123.0667896,https://maps.google.com/?cid=0x0:0x648b1624bc147da1,
perumahan,perumahan,Rumah Don Leynn ( Ola Lagadoni ),"M4CC+QXH, Bukit Seburi, Kec. Adonara Bar., Kabupaten Flores Timur, Nusa Tenggara Tim.","Kabupaten Flores Timur, Nusa Tenggara Tim.",NUSA TENGGARA TIMUR,,Indonesia,,,,-8.3280648,123.1224989,https://maps.google.com/?cid=0x0:0x44a9761e88dc4ff6,
perumahan,Komplek perumahan,Rumah Doni,"M4WM+R7R, Baya, Kec. Adonara Bar., Kabupaten Flores Timur, Nusa Tenggara Tim.","Kabupaten Flores Timur, Nusa Tenggara Tim.",NUSA TENGGARA TIMUR,,Indonesia,,,,-8.3032017,123.1332543,https://maps.google.com/?cid=0x0:0x2b279d94bc75399b,
perumahan,Komplek perumahan,RiangPao,"P4C3+P82, Homa, Kec. Adonara Bar., Kabupaten Flores Timur, Nusa Tenggara Tim.","Kabupaten Flores Timur, Nusa Tenggara Tim.",NUSA TENGGARA TIMUR,,Indonesia,,,,-8.2782307,123.1032807,https://maps.google.com/?cid=0x0:0x54bfe543afd27a16,
perumahan,Komplek perumahan,Rumah damsia,"P4QC+76J, Duwanur, Kec. Adonara Bar., Kabupaten Flores Timur, Nusa Tenggara Tim.","Kabupaten Flores Timur, Nusa Tenggara Tim.",NUSA TENGGARA TIMUR,,Indonesia,,,,-8.2617869,123.1205238,https://maps.google.com/?cid=0x0:0xe78de8f4c4261359,
perumahan,Pembangunan Perumahan,Rumah givan maran,"M4GX+2R3, Kenotan, Kec. Adonara Tengah, Kabupaten Flores Timur, Nusa Tenggara Tim.","Kabupaten Flores Timur, Nusa Tenggara Tim.",NUSA TENGGARA TIMUR,,Indonesia,,,,-8.3247108,123.1502021,https://maps.google.com/?cid=0x0:0x9d01ebb7a428e996,
perumahan,Komplek perumahan,Rumah Fardy Lamro,"P3FV+Q6W, Homa, Kec. Adonara Bar., Kabupaten Flores Timur, Nusa Tenggara Tim.","Kabupaten Flores Timur, Nusa Tenggara Tim.",NUSA TENGGARA TIMUR,,Indonesia,,,,-8.2755201,123.0930745,https://maps.google.com/?cid=0x0:0xdb676eaa594470e9,
perumahan,Komplek perumahan,Perez Pati,"M36X+8W, Ilepati, Kec. Adonara Bar., Kabupaten Flores Timur, Nusa Tenggara Tim.","Kabupaten Flores Timur, Nusa Tenggara Tim.",NUSA TENGGARA TIMUR,,Indonesia,,,,-8.3391446,123.0998366,https://maps.google.com/?cid=0x0:0x4ccd5c9411052456,
perumahan,Komplek perumahan,"Rumah Adat Kewewa Wu'u, Waihelan Bukit Seburi II","M4JF+93, Bukit Seburi II, Kec. Adonara Bar., Kabupaten Flores Timur, Nusa Tenggara Tim.","Kabupaten Flores Timur, Nusa Tenggara Tim.",NUSA TENGGARA TIMUR,,Indonesia,81239475281.0,,,-8.3190313,123.1227359,https://maps.google.com/?cid=0x0:0x6793edc070d9cecf,
perumahan,Komplek perumahan,Ocep Fdz,"M2VR+P8R, Wureh, Kec. Adonara Bar., Kabupaten Flores Timur, Nusa Tenggara Tim.","Kabupaten Flores Timur, Nusa Tenggara Tim.",NUSA TENGGARA TIMUR,,Indonesia,,,,-8.3056251,123.0407562,https://maps.google.com/?cid=0x0:0x849333064e10bbab,
perumahan,Perusahaan Listrik,Tiang pln,"P4QH+VW3, Jl. Trans Adonara, Duwanur, Kec. Adonara Bar., Kabupaten Flores Timur, Nusa Tenggara Tim.","Kabupaten Flores Timur, Nusa Tenggara Tim.",NUSA TENGGARA TIMUR,,Indonesia,,,,-8.2603605,123.1297888,https://maps.google.com/?cid=0x0:0xbd0f2d483be657ae,
perumahan,Komplek perumahan,SukuMukin,"M4XM+683, Baya, Kec. Adonara Tengah, Kabupaten Flores Timur, Nusa Tenggara Tim.","Kabupaten Flores Timur, Nusa Tenggara Tim.",NUSA TENGGARA TIMUR,,Indonesia,,,,-8.3016597,123.1342497,https://maps.google.com/?cid=0x0:0xa05415d13bc032d0,
perumahan,perumahan,Kec. Adonara Tengah,"Kabupaten Flores Timur, Nusa Tenggara Tim.","Kabupaten Flores Timur, Nusa Tenggara Tim.",NUSA TENGGARA TIMUR,,Indonesia,,,,-8.3253553,123.1492141,https://maps.google.com/?cid=0x0:0x9a478d355b398390,
perumahan,Perhimpunan Pengembang Perumahan,Amaola,"M5P9+VH8, Oe Sayang, Kec. Adonara Tengah, Kabupaten Flores Timur, Nusa Tenggara Tim.","Kabupaten Flores Timur, Nusa Tenggara Tim.",NUSA TENGGARA TIMUR,,Indonesia,,,,-8.3128298,123.1689648,https://maps.google.com/?cid=0x0:0x9b53288eededc742,
perumahan,Pembangunan Perumahan,Tapobali Ongabelen Adotim NTT Indonesia,"M682+7RF, Tapobali, Kec. Adonara Tim., Kabupaten Flores Timur, Nusa Tenggara Tim.","Kabupaten Flores Timur, Nusa Tenggara Tim.",NUSA TENGGARA TIMUR,,Indonesia,85232065181.0,,,-8.3343206,123.2020332,https://maps.google.com/?cid=0x0:0xfb5205456ca02999,
perumahan,Pembangunan Perumahan,Rmh. Besar desa,"M5X4+4Q8, Wewit, Kec. Adonara Tengah, Kabupaten Flores Timur, Nusa Tenggara Tim.","Kabupaten Flores Timur, Nusa Tenggara Tim.",NUSA TENGGARA TIMUR,,Indonesia,,,,-8.301645,123.1571748,https://maps.google.com/?cid=0x0:0xbc9fcf95669e108b,
perumahan,Komplek perumahan,Rumah Andra,"M4WM+R7R, Baya, Kec. Adonara Bar., Kabupaten Flores Timur, Nusa Tenggara Tim.","Kabupaten Flores Timur, Nusa Tenggara Tim.",NUSA TENGGARA TIMUR,,Indonesia,,,,-8.3032089,123.1333575,https://maps.google.com/?cid=0x0:0x67e1da9679206112,
perumahan,Pembangunan Perumahan,Lorong tengah,"M4WH+CCH, Wato Baya, Kec. Adonara Bar., Kabupaten Flores Timur, Nusa Tenggara Tim.","Kabupaten Flores Timur, Nusa Tenggara Tim.",NUSA TENGGARA TIMUR,,Indonesia,,,,-8.3039385,123.1286084,https://maps.google.com/?cid=0x0:0x152cd4e4ff8c4595,
perumahan,Komplek perumahan,Riyanthua,"M5M6+H5, Nubalema, Kec. Adonara Tengah, Kabupaten Flores Timur, Nusa Tenggara Tim.","Kabupaten Flores Timur, Nusa Tenggara Tim.",NUSA TENGGARA TIMUR,,Indonesia,,,,-8.315238,123.1600595,https://maps.google.com/?cid=0x0:0x9ea81a6ff286bd5a,
perumahan,Pembangunan Perumahan,Rumah givan maran,"M4GX+2R3, Kenotan, Kec. Adonara Tengah, Kabupaten Flores Timur, Nusa Tenggara Tim.","Kabupaten Flores Timur, Nusa Tenggara Tim.",NUSA TENGGARA TIMUR,,Indonesia,,,,-8.3247108,123.1502021,https://maps.google.com/?cid=0x0:0x9d01ebb7a428e996,
perumahan,Pembangunan Perumahan,Rumah,"M4HR+FPW, Kokotobo, Kec. Adonara Tengah, Kabupaten Flores Timur, Nusa Tenggara Tim.","Kabupaten Flores Timur, Nusa Tenggara Tim.",NUSA TENGGARA TIMUR,,Indonesia,,,,-8.3209683,123.1414846,https://maps.google.com/?cid=0x0:0x486b88902484ea42,
perumahan,Komplek perumahan,Tulida,"M42X+HM3, Horowura, Kec. Adonara Tengah, Kabupaten Flores Timur, Nusa Tenggara Tim.","Kabupaten Flores Timur, Nusa Tenggara Tim.",NUSA TENGGARA TIMUR,,Indonesia,,,,-8.3486156,123.1491869,https://maps.google.com/?cid=0x0:0x3a78ad8c70f9b3a9,
perumahan,Pembangunan Perumahan,Riawerang,"M5R5+C79, Nubalema, Kec. Adonara Tengah, Kabupaten Flores Timur, Nusa Tenggara Tim.","Kabupaten Flores Timur, Nusa Tenggara Tim.",NUSA TENGGARA TIMUR,,Indonesia,,,,-8.3091809,123.1568466,https://maps.google.com/?cid=0x0:0x182237bbc3ae20a4,
perumahan,Komplek perumahan,RUMAH FAJRI,"J4MG+2X3, Lamakukung, Kec. Adonara Tim., Kabupaten Flores Timur, Nusa Tenggara Tim.","Kabupaten Flores Timur, Nusa Tenggara Tim.",NUSA TENGGARA TIMUR,,Indonesia,,,,-8.3673691,123.127502,https://maps.google.com/?cid=0x0:0x23168feebdd84247,
perumahan,Gedung Apartemen,KAMPUNG MULAWATO,"M4GX+2R3, Kenotan, Kec. Adonara Tengah, Kabupaten Flores Timur, Nusa Tenggara Tim.","Kabupaten Flores Timur, Nusa Tenggara Tim.",NUSA TENGGARA TIMUR,,Indonesia,,,,-8.3247741,123.1503851,https://maps.google.com/?cid=0x0:0x76b88fdc2b6a6d5f,
perumahan,Komplek perumahan,SukuMukin,"M4XM+683, Baya, Kec. Adonara Tengah, Kabupaten Flores Timur, Nusa Tenggara Tim.","Kabupaten Flores Timur, Nusa Tenggara Tim.",NUSA TENGGARA TIMUR,,Indonesia,,,,-8.3016597,123.1342497,https://maps.google.com/?cid=0x0:0xa05415d13bc032d0,
perumahan,Pembangunan Perumahan,Lorong dusun,"M4XM+44C, Baya, Kec. Adonara Bar., Kabupaten Flores Timur, Nusa Tenggara Tim.","Kabupaten Flores Timur, Nusa Tenggara Tim.",NUSA TENGGARA TIMUR,,Indonesia,,,,-8.3020752,123.1324958,https://maps.google.com/?cid=0x0:0xf85d9a8bc8c21821,
perumahan,Komplek perumahan,HORY,"M5Q9+XH9, Nubalema, Kec. Adonara Tengah, Kabupaten Flores Timur, Nusa Tenggara Tim.","Kabupaten Flores Timur, Nusa Tenggara Tim.",NUSA TENGGARA TIMUR,,Indonesia,,,,-8.3100962,123.1689959,https://maps.google.com/?cid=0x0:0x662b678501c6a293,
perumahan,Perhimpunan Pengembang Perumahan,Rumah Reno,"M4QR+CXP, Baya, Kec. Adonara Tengah, Kabupaten Flores Timur, Nusa Tenggara Tim.","Kabupaten Flores Timur, Nusa Tenggara Tim.",NUSA TENGGARA TIMUR,,Indonesia,,,,-8.3112905,123.1426091,https://maps.google.com/?cid=0x0:0xec9bbdb34da3776f,
perumahan,Perhimpunan Pengembang Perumahan,Rumah Umar Sengaji,"J4HR+779, depan masjid, Ipiebang, Kec. Adonara Tim., Kabupaten Flores Timur, Nusa Tenggara Tim.","Kabupaten Flores Timur, Nusa Tenggara Tim.",NUSA TENGGARA TIMUR,,Indonesia,,,,-8.3718326,123.1407445,https://maps.google.com/?cid=0x0:0x971be1c55324d936,
perumahan,Komplek perumahan,Rumah Rendi BT,"M4WM+VP6, Baya, Kec. Adonara Tengah, Kabupaten Flores Timur, Nusa Tenggara Tim.","Kabupaten Flores Timur, Nusa Tenggara Tim.",NUSA TENGGARA TIMUR,,Indonesia,,,,-8.302944,123.133459,https://maps.google.com/?cid=0x0:0x85b06356b9ea6bf4,
perumahan,Inspektur Tempat Tinggal,Rumah fidel,"M5F2+726 ole, Lama, Kenotan, Kec. Adonara Tengah, Kabupaten Flores Timur, Nusa Tenggara Tim.","Kabupaten Flores Timur, Nusa Tenggara Tim.",NUSA TENGGARA TIMUR,,Indonesia,,,,-8.3268356,123.1500254,https://maps.google.com/?cid=0x0:0xec074bfb5b9412fa,
perumahan,Komplek perumahan,Rumah topik,"M4RP+2QF, Baya, Kec. Adonara Tengah, Kabupaten Flores Timur, Nusa Tenggara Tim.","Kabupaten Flores Timur, Nusa Tenggara Tim.",NUSA TENGGARA TIMUR,,Indonesia,,,,-8.3099375,123.1369219,https://maps.google.com/?cid=0x0:0x5fedee507c4207cc,
perumahan,Komplek perumahan,Rumah Frans Geroda,"M5M6+9Q Simpang empat seran ghoran'z, Nubalema, Kec. Adonara Tengah, Kabupaten Flores Timur, Nusa Tenggara Tim.","Kabupaten Flores Timur, Nusa Tenggara Tim.",NUSA TENGGARA TIMUR,,Indonesia,,,,-8.316523,123.161679,https://maps.google.com/?cid=0x0:0xe34cc5bab20f2b01,
perumahan,Perhimpunan Pengembang Perumahan,Maran,"M4QR+5WR, Baya, Kec. Adonara Tengah, Kabupaten Flores Timur, Nusa Tenggara Tim.","Kabupaten Flores Timur, Nusa Tenggara Tim.",NUSA TENGGARA TIMUR,,Indonesia,,,,-8.3120268,123.1422258,https://maps.google.com/?cid=0x0:0xb0fb9cf02e64631d,
perumahan,perumahan,Rumah Renno Mawar,"M5H3+CF7, RT.014/RW.Dusun 4, Kenotan, Kec. Adonara Tengah, Kabupaten Flores Timur, Nusa Tenggara Tim.","Kabupaten Flores Timur, Nusa Tenggara Tim.",NUSA TENGGARA TIMUR,,Indonesia,,,,-8.3214553,123.1536752,https://maps.google.com/?cid=0x0:0xd7880e36046ad1ec,
perumahan,Komplek perumahan,Horowura,"M5Q9+WGX, Nubalema, Kec. Adonara Tengah, Kabupaten Flores Timur, Nusa Tenggara Tim.","Kabupaten Flores Timur, Nusa Tenggara Tim.",NUSA TENGGARA TIMUR,,Indonesia,,,,-8.3101353,123.1688606,https://maps.google.com/?cid=0x0:0x9f14573ffc1d65c0,
perumahan,perumahan,Nusa Tenggara Tim.,,Nusa Tenggara Tim.,NUSA TENGGARA TIMUR,,Indonesia,,,,-8.6573819,121.0793705,https://maps.google.com/?cid=0x0:0x1030bfbcaf71ae0,
perumahan,perumahan,Kec. Adonara Tim.,"Kabupaten Flores Timur, Nusa Tenggara Tim.","Kabupaten Flores Timur, Nusa Tenggara Tim.",NUSA TENGGARA TIMUR,,Indonesia,,,,-8.3898003,123.1651997,https://maps.google.com/?cid=0x0:0x37d2d369d2f09ea8,
perumahan,perumahan,Kec. Adonara,"Kabupaten Flores Timur, Nusa Tenggara Tim.","Kabupaten Flores Timur, Nusa Tenggara Tim.",NUSA TENGGARA TIMUR,,Indonesia,,,,-8.2868674,123.196047,https://maps.google.com/?cid=0x0:0xc883c8e537854960,
perumahan,Komplek perumahan,"Tobi, Lamatewelu, Adonara Timur, Flores Timur, NTT","J6QF+GWV, Lamatewelu, Kec. Adonara Tim., Kabupaten Flores Timur, Nusa Tenggara Tim.","Kabupaten Flores Timur, Nusa Tenggara Tim.",NUSA TENGGARA TIMUR,,Indonesia,82350080480.0,,,-8.3611431,123.2247863,https://maps.google.com/?cid=0x0:0xb4c96d4b9acd37a7,
perumahan,Pembangunan Perumahan,Service elektronik,"J569+9W7, Waiburak, Kec. Adonara Tim., Kabupaten Flores Timur, Nusa Tenggara Tim.","Kabupaten Flores Timur, Nusa Tenggara Tim.",NUSA TENGGARA TIMUR,,Indonesia,,,,-8.3890686,123.1697911,https://maps.google.com/?cid=0x0:0xe3086192609d098c,
perumahan,Komplek perumahan,Rumah Aslan,"P52W+67C, Tikatukang, Kec. Adonara, Kabupaten Flores Timur, Nusa Tenggara Tim.","Kabupaten Flores Timur, Nusa Tenggara Tim.",NUSA TENGGARA TIMUR,,Indonesia,,,,-8.2994483,123.1956417,https://maps.google.com/?cid=0x0:0x102122f97c813c7f,
perumahan,Komplek perumahan,Family Home,"J577+VVC, Jl. Adyaksa, Waiwerang Kota, Kec. Adonara Tim., Kabupaten Flores Timur, Nusa Tenggara Tim.","Kabupaten Flores Timur, Nusa Tenggara Tim.",NUSA TENGGARA TIMUR,,Indonesia,,,,-8.3853145,123.1646259,https://maps.google.com/?cid=0x0:0x93960387dd9a4c46,
perumahan,Komplek perumahan,Rumah fryd,"J58H+PX9, Waiburak, Kec. Adonara Tim., Kabupaten Flores Timur, Nusa Tenggara Tim.","Kabupaten Flores Timur, Nusa Tenggara Tim.",NUSA TENGGARA TIMUR,,Indonesia,,,,-8.383221,123.1799958,https://maps.google.com/?cid=0x0:0xb3683ccd1500d27b,
perumahan,Komplek perumahan,Rumah TORESS,"J5CM+893, Jl. Waiwerang Sagu, Lewobunga, Kec. Adonara Tim., Kabupaten Flores Timur, Nusa Tenggara Tim.","Kabupaten Flores Timur, Nusa Tenggara Tim.",NUSA TENGGARA TIMUR,,Indonesia,,,,-8.3792522,123.1845897,https://maps.google.com/?cid=0x0:0x29c5e8fa5b9f268b,
perumahan,Komplek perumahan,RUMAH FAJRI,"J4MG+2X3, Lamakukung, Kec. Adonara Tim., Kabupaten Flores Timur, Nusa Tenggara Tim.","Kabupaten Flores Timur, Nusa Tenggara Tim.",NUSA TENGGARA TIMUR,,Indonesia,,,,-8.3673691,123.127502,https://maps.google.com/?cid=0x0:0x23168feebdd84247,
perumahan,Komplek perumahan,Ermen,"P54V+CRF, Lamahoda, Kec. Adonara, Kabupaten Flores Timur, Nusa Tenggara Tim.","Kabupaten Flores Timur, Nusa Tenggara Tim.",NUSA TENGGARA TIMUR,,Indonesia,,,,-8.2939428,123.1945346,https://maps.google.com/?cid=0x0:0x80e5a3741c4b5262,
perumahan,Pembangunan Perumahan,MUHAMMAD ADJIE DAUD,"J558+MP4, Waiwerang Kota, Kec. Adonara Tim., Kabupaten Flores Timur, Nusa Tenggara Tim.","Kabupaten Flores Timur, Nusa Tenggara Tim.",NUSA TENGGARA TIMUR,,Indonesia,,,,-8.3906362,123.1668556,https://maps.google.com/?cid=0x0:0x920a6f3b6995c306,
perumahan,Komplek perumahan,Rumah ISMAIL,"J564+927, Lamahala Jaya, Kec. Adonara Tim., Kabupaten Flores Timur, Nusa Tenggara Tim.","Kabupaten Flores Timur, Nusa Tenggara Tim.",NUSA TENGGARA TIMUR,,Indonesia,,,,-8.3888119,123.1554552,https://maps.google.com/?cid=0x0:0xebc26411c0559155,
perumahan,Komplek perumahan,Rumah Rommi,"J5M7+Q8J, Narasaosina, Kec. Adonara Tim., Kabupaten Flores Timur, Nusa Tenggara Tim.","Kabupaten Flores Timur, Nusa Tenggara Tim.",NUSA TENGGARA TIMUR,,Indonesia,,,,-8.365548,123.1632665,https://maps.google.com/?cid=0x0:0xca44a017210656ac,
perumahan,Komplek perumahan,Rumah Rikard,"M5XR+94F, Dusun 3 Lamanepa, Tikatukang, Kec. Adonara, Kabupaten Flores Timur, Nusa Tenggara Tim.","Kabupaten Flores Timur, Nusa Tenggara Tim.",NUSA TENGGARA TIMUR,,Indonesia,,,,-8.3015723,123.1903051,https://maps.google.com/?cid=0x0:0xaa2ecb3cafa1fc04,
perumahan,Pembangunan Perumahan,Rumah Abdurahman,"J569+9W7, Waiburak, Kec. Adonara Tim., Kabupaten Flores Timur, Nusa Tenggara Tim.","Kabupaten Flores Timur, Nusa Tenggara Tim.",NUSA TENGGARA TIMUR,,Indonesia,,,,-8.3890997,123.1698204,https://maps.google.com/?cid=0x0:0x941263da90876e5a,
perumahan,Perhimpunan Pengembang Perumahan,Rumah Umar Sengaji,"J4HR+779, depan masjid, Ipiebang, Kec. Adonara Tim., Kabupaten Flores Timur, Nusa Tenggara Tim.","Kabupaten Flores Timur, Nusa Tenggara Tim.",NUSA TENGGARA TIMUR,,Indonesia,,,,-8.3718326,123.1407445,https://maps.google.com/?cid=0x0:0x971be1c55324d936,
perumahan,Komplek perumahan,Riang Kurman,"J566+9W2, Waiwerang Kota, Kec. Adonara Tim., Kabupaten Flores Timur, Nusa Tenggara Tim.","Kabupaten Flores Timur, Nusa Tenggara Tim.",NUSA TENGGARA TIMUR,,Indonesia,,,,-8.3891196,123.1622655,https://maps.google.com/?cid=0x0:0x5ec79cafede53d6d,
perumahan,Pembangunan Perumahan,"Libu, Adonara Timur","J568+33G, Waiwerang Kota, Kec. Adonara Tim., Kabupaten Flores Timur, Nusa Tenggara Tim.","Kabupaten Flores Timur, Nusa Tenggara Tim.",NUSA TENGGARA TIMUR,,Indonesia,,,,-8.3898003,123.1651997,https://maps.google.com/?cid=0x0:0xc63d99ffa8e3ea0e,
perumahan,Pembangunan Perumahan,Rumah Andy,"P52W+CQQ, Kolipetung, Kec. Adonara, Kabupaten Flores Timur, Nusa Tenggara Tim.","Kabupaten Flores Timur, Nusa Tenggara Tim.",NUSA TENGGARA TIMUR,,Indonesia,,,,-8.2989125,123.1969844,https://maps.google.com/?cid=0x0:0x3f51cfc1a0dad262,
perumahan,Komplek perumahan,Waiwerang kota,"J567+2P5, Waiwerang Kota, Kec. Adonara Tim., Kabupaten Flores Timur, Nusa Tenggara Tim.","Kabupaten Flores Timur, Nusa Tenggara Tim.",NUSA TENGGARA TIMUR,,Indonesia,,,,-8.389985,123.1643455,https://maps.google.com/?cid=0x0:0xfa39c7ca70cb8a2,
perumahan,Perhimpunan Pengembang Perumahan,Doo,"P5CX+87M, Koli Masang, Kec. Adonara, Kabupaten Flores Timur, Nusa Tenggara Tim.","Kabupaten Flores Timur, Nusa Tenggara Tim.",NUSA TENGGARA TIMUR,,Indonesia,,,,-8.279175,123.1981774,https://maps.google.com/?cid=0x0:0xe47c786a74572acf,
perumahan,Pembangunan Perumahan,adonara flores timur,"P833+C6J, jln simpang tiga, Waiwuring, Kec. Adonara, Kabupaten Flores Timur, Nusa Tenggara Tim.","Kabupaten Flores Timur, Nusa Tenggara Tim.",NUSA TENGGARA TIMUR,,Indonesia,,,,-8.2964245,123.3030125,https://maps.google.com/?cid=0x0:0x6204d4b03754d118,
perumahan,perumahan,RUMAH TENUN SEMAI LINO LEWOKLUOK,"JV32+QRG, Lewokluok, Kec. Demon Pagong, Kabupaten Flores Timur, Nusa Tenggara Tim.","Kabupaten Flores Timur, Nusa Tenggara Tim.",NUSA TENGGARA TIMUR,,Indonesia,,,,-8.3955669,122.8520645,https://maps.google.com/?cid=0x0:0xb8d163601e28ade1,
perumahan,perumahan,Kec. Demon Pagong,"Kabupaten Flores Timur, Nusa Tenggara Tim.","Kabupaten Flores Timur, Nusa Tenggara Tim.",NUSA TENGGARA TIMUR,,Indonesia,,,,-8.3945719,122.8529342,https://maps.google.com/?cid=0x0:0xe422697fdfed621e,
perumahan,Komplek perumahan,Delazanta,"JV42+MWP, Lewokluok, Kec. Demon Pagong, Kabupaten Flores Timur, Nusa Tenggara Tim.","Kabupaten Flores Timur, Nusa Tenggara Tim.",NUSA TENGGARA TIMUR,,Indonesia,,,,-8.3932987,122.8523304,https://maps.google.com/?cid=0x0:0xe87d00da0d86a397,
perumahan,Sekolah Dasar,Komplek sekolah,"JVM5+QM4, Blepanawa, Kec. Demon Pagong, Kabupaten Flores Timur, Nusa Tenggara Tim.","Kabupaten Flores Timur, Nusa Tenggara Tim.",NUSA TENGGARA TIMUR,,Indonesia,,,,-8.3656141,122.8592148,https://maps.google.com/?cid=0x0:0xf178bb0b1720f755,
perumahan,Pembangunan Perumahan,Andris,"HVWQ+WM2, Kawalelo, Kec. Demon Pagong, Kabupaten Flores Timur, Nusa Tenggara Tim.","Kabupaten Flores Timur, Nusa Tenggara Tim.",NUSA TENGGARA TIMUR,,Indonesia,,,,-8.4027489,122.8891559,https://maps.google.com/?cid=0x0:0xdd0bb6f490c8bf2d,
perumahan,Komplek perumahan,Rumah Adat Koke Bale,"MR6P+7MC, Lewokluok, Kec. Demon Pagong, Kabupaten Flores Timur, Nusa Tenggara Tim.","Kabupaten Flores Timur, Nusa Tenggara Tim.",NUSA TENGGARA TIMUR,,Indonesia,,,,-8.339302,122.8366556,https://maps.google.com/?cid=0x0:0xdb5bb7d97f8548d1,
perumahan,Perhimpunan Pengembang Perumahan,Desa watotika ile,"JV43+55R, Lewokluok, Kec. Demon Pagong, Kabupaten Flores Timur, Nusa Tenggara Tim.","Kabupaten Flores Timur, Nusa Tenggara Tim.",NUSA TENGGARA TIMUR,,Indonesia,,,,-8.3945194,122.8528997,https://maps.google.com/?cid=0x0:0x5e3e60cd600f5f49,
perumahan,Komplek perumahan,Theodoris Tolan Mukin,"MR6P+7MC, Lewokluok, Kec. Demon Pagong, Kabupaten Flores Timur, Nusa Tenggara Tim.","Kabupaten Flores Timur, Nusa Tenggara Tim.",NUSA TENGGARA TIMUR,,Indonesia,,,,-8.339302,122.8366556,https://maps.google.com/?cid=0x0:0x175aee116bf086d,
perumahan,Komplek perumahan,FaTynLagiMager,"MR6P+7MC, Lewokluok, Kec. Demon Pagong, Kabupaten Flores Timur, Nusa Tenggara Tim.","Kabupaten Flores Timur, Nusa Tenggara Tim.",NUSA TENGGARA TIMUR,,Indonesia,,,,-8.339302,122.8366556,https://maps.google.com/?cid=0x0:0xd2642a03367a176,
perumahan,Komplek perumahan,Rumah poll mare,"HRWW+6P, Lamika, Kec. Demon Pagong, Kabupaten Flores Timur, Nusa Tenggara Tim.","Kabupaten Flores Timur, Nusa Tenggara Tim.",NUSA TENGGARA TIMUR,,Indonesia,,,,-8.4043597,122.8467586,https://maps.google.com/?cid=0x0:0xdebe7cb66ff2893d,
perumahan,Perhimpunan Pengembang Perumahan,"Baka Epu, Riantukan","JV43+W3V, Lewokluok, Kec. Demon Pagong, Kabupaten Flores Timur, Nusa Tenggara Tim.","Kabupaten Flores Timur, Nusa Tenggara Tim.",NUSA TENGGARA TIMUR,,Indonesia,,,,-8.3926415,122.8526819,https://maps.google.com/?cid=0x0:0x472d474c1661821,
perumahan,perumahan,Halowen nong,"HV2M+J8, Kawalelo, Kec. Demon Pagong, Kabupaten Flores Timur, Nusa Tenggara Tim.","Kabupaten Flores Timur, Nusa Tenggara Tim.",NUSA TENGGARA TIMUR,,Indonesia,,,,-8.447863,122.883636,https://maps.google.com/?cid=0x0:0xf2a18765b203cd3a,
perumahan,Komplek perumahan,Yoaclina Home,"JV32+QRQ, Lewokluok, Kec. Demon Pagong, Kabupaten Flores Timur, Nusa Tenggara Tim.","Kabupaten Flores Timur, Nusa Tenggara Tim.",NUSA TENGGARA TIMUR,,Indonesia,,,,-8.3955299,122.852097,https://maps.google.com/?cid=0x0:0xd3578d9b6ecff446,
perumahan,Komplek perumahan,Lewo'okin Lewokluok,"MR6P+7MC, Lewokluok, Kec. Demon Pagong, Kabupaten Flores Timur, Nusa Tenggara Tim.","Kabupaten Flores Timur, Nusa Tenggara Tim.",NUSA TENGGARA TIMUR,,Indonesia,,,,-8.339302,122.8366556,https://maps.google.com/?cid=0x0:0xd7f9e93293b09a11,
perumahan,Komplek perumahan,"Subarian,lewokluok","MR6P+7MC, Lewokluok, Kec. Demon Pagong, Kabupaten Flores Timur, Nusa Tenggara Tim.","Kabupaten Flores Timur, Nusa Tenggara Tim.",NUSA TENGGARA TIMUR,,Indonesia,,,,-8.339302,122.8366556,https://maps.google.com/?cid=0x0:0x8d4e836ac289647f,
perumahan,Pembangunan Perumahan,KEBBEL AREA,"JVM5+QM4, Blepanawa, Kec. Demon Pagong, Kabupaten Flores Timur, Nusa Tenggara Tim.","Kabupaten Flores Timur, Nusa Tenggara Tim.",NUSA TENGGARA TIMUR,,Indonesia,,,,-8.3656141,122.8592148,https://maps.google.com/?cid=0x0:0x285458c8fe777d63,
perumahan,Komplek perumahan,"Walang, Lewokluok","MR6P+7MC, Lewokluok, Kec. Demon Pagong, Kabupaten Flores Timur, Nusa Tenggara Tim.","Kabupaten Flores Timur, Nusa Tenggara Tim.",NUSA TENGGARA TIMUR,,Indonesia,,,,-8.339302,122.8366556,https://maps.google.com/?cid=0x0:0x92e027c405558e1b,
perumahan,perumahan,Rumah Vicky kabelen,"MRX6+7WG, Dusun Koliwutun, Lewokluok, Kec. Demon Pagong, Kabupaten Flores Timur, Nusa Tenggara Tim.","Kabupaten Flores Timur, Nusa Tenggara Tim.",NUSA TENGGARA TIMUR,,Indonesia,,,,-8.3026037,122.8131121,https://maps.google.com/?cid=0x0:0x887d264c0ff81a17,
perumahan,Pembangunan Perumahan,Rustin goran,"JV53+XQ9, Lewokluok, Kec. Demon Pagong, Kabupaten Flores Timur, Nusa Tenggara Tim.","Kabupaten Flores Timur, Nusa Tenggara Tim.",NUSA TENGGARA TIMUR,,Indonesia,,,,-8.390076,122.8544892,https://maps.google.com/?cid=0x0:0xacd0eb33a56e15bd,
perumahan,Komplek perumahan,Rinny kabelen,"MRX6+7WG, Dusun Koliwutun, Lewokluok, Kec. Demon Pagong, Kabupaten Flores Timur, Nusa Tenggara Tim.","Kabupaten Flores Timur, Nusa Tenggara Tim.",NUSA TENGGARA TIMUR,,Indonesia,,,,-8.302603,122.813112,https://maps.google.com/?cid=0x0:0xc89dc62290824e32,
perumahan,Pembangunan Perumahan,Paskal,"HVW4+RFP, Jl. Nasional Maumere - Larantuka, Watotika Ile, Kec. Demon Pagong, Kabupaten Flores Timur, Nusa Tenggara Tim.","Kabupaten Flores Timur, Nusa Tenggara Tim.",NUSA TENGGARA TIMUR,,Indonesia,,,,-8.402876,122.8553472,https://maps.google.com/?cid=0x0:0x17a62219dc610fb1,
perumahan,perumahan,Kec. Ile Boleng,"Kabupaten Flores Timur, Nusa Tenggara Tim.","Kabupaten Flores Timur, Nusa Tenggara Tim.",NUSA TENGGARA TIMUR,,Indonesia,,,,-8.3830321,123.2959675,https://maps.google.com/?cid=0x0:0xc446eb1a852e3c5d,
perumahan,Komplek perumahan,"Simpang tiga Nelelamawangi, lamabayung","J7MJ+X73, Nobo, Kec. Ile Boleng, Kabupaten Flores Timur, Nusa Tenggara Tim.","Kabupaten Flores Timur, Nusa Tenggara Tim.",NUSA TENGGARA TIMUR,,Indonesia,,,,-8.3651126,123.2806694,https://maps.google.com/?cid=0x0:0xb23349a0ce817c0a,
perumahan,Komplek perumahan,KOMPLEK BORO RIAN,"J7GF+MQ8, Jalan Lewo Mure, Kampung Lamanele, RT.1/RW.1, Nelelamadike, Kec. Ile Boleng, Kabupaten Flores Timur, Nusa Tenggara Tim.","Kabupaten Flores Timur, Nusa Tenggara Tim.",NUSA TENGGARA TIMUR,,Indonesia,,,,-8.3733462,123.2744436,https://maps.google.com/?cid=0x0:0x9795e1da30d6df82,
perumahan,Perhimpunan Pengembang Perumahan,Rumah Kepala Desa,"J7G9+MCH, RT.003/RW.001, Dusun satu, Harubala, Kec. Ile Boleng, Kabupaten Flores Timur, Nusa Tenggara Tim.","Kabupaten Flores Timur, Nusa Tenggara Tim.",NUSA TENGGARA TIMUR,,Indonesia,,,,-8.3733108,123.2686213,https://maps.google.com/?cid=0x0:0x2947b63d4a0841bf,
perumahan,Pembangunan Perumahan,Lorong Tengah Area,"J788+VGJ, Lewopao, Kec. Ile Boleng, Kabupaten Flores Timur, Nusa Tenggara Tim.","Kabupaten Flores Timur, Nusa Tenggara Tim.",NUSA TENGGARA TIMUR,,Indonesia,,,,-8.3827903,123.2662801,https://maps.google.com/?cid=0x0:0x5d04d063616ba49b,
perumahan,Komplek perumahan,Rumah Iron Ola Yan,"J7JJ+PHM, Nele Lamawangi, Kec. Ile Boleng, Kabupaten Flores Timur, Nusa Tenggara Tim.","Kabupaten Flores Timur, Nusa Tenggara Tim.",NUSA TENGGARA TIMUR,,Indonesia,,,,-8.3683671,123.2817748,https://maps.google.com/?cid=0x0:0x74062562edcac274,
perumahan,Kantor Perusahaan,Kampung Boleng,"J78W+F59, Boleng, Kec. Ile Boleng, Kabupaten Flores Timur, Nusa Tenggara Tim.","Kabupaten Flores Timur, Nusa Tenggara Tim.",NUSA TENGGARA TIMUR,,Indonesia,,,,-8.3838361,123.2954734,https://maps.google.com/?cid=0x0:0x2c82707c56ce663,
perumahan,Komplek perumahan,Komplek Rumah Paskall son,"J7QJ+8J9, Jl. Lota Ledan Labi, Nele Lamawangi, Kec. Ile Boleng, Kabupaten Flores Timur, Nusa Tenggara Tim.","Kabupaten Flores Timur, Nusa Tenggara Tim.",NUSA TENGGARA TIMUR,,Indonesia,,,,-8.3617206,123.2815968,https://maps.google.com/?cid=0x0:0x59511f88974391c8,
perumahan,Komplek perumahan,RUMAH JAMES,"J7C4+VPV, RT.08, Helanlangowuyo, Kec. Ile Boleng, Kabupaten Flores Timur, Nusa Tenggara Tim.","Kabupaten Flores Timur, Nusa Tenggara Tim.",NUSA TENGGARA TIMUR,,Indonesia,,,,-8.3777616,123.2567981,https://maps.google.com/?cid=0x0:0x97fc0ae950e7ad9a,
perumahan,Komplek perumahan,PUKAONE LEWO MURE(KAMPUNG LAMA),"J7MF+8JW, Neleblolong, Kec. Ile Boleng, Kabupaten Flores Timur, Nusa Tenggara Tim.","Kabupaten Flores Timur, Nusa Tenggara Tim.",NUSA TENGGARA TIMUR,,Indonesia,,,,-8.3666496,123.2740678,https://maps.google.com/?cid=0x0:0x7dae82d0b1c580e7,
perumahan,Komplek perumahan,Goran Mangu,"J7GM+Q4, Nobo, Kec. Ile Boleng, Kabupaten Flores Timur, Nusa Tenggara Tim.","Kabupaten Flores Timur, Nusa Tenggara Tim.",NUSA TENGGARA TIMUR,,Indonesia,,,,-8.3730295,123.282833,https://maps.google.com/?cid=0x0:0x6deb329b136b250d,
perumahan,Komplek perumahan,Lewobele,"J756+8JQ, Helanlangowuyo, Kec. Ile Boleng, Kabupaten Flores Timur, Nusa Tenggara Tim.","Kabupaten Flores Timur, Nusa Tenggara Tim.",NUSA TENGGARA TIMUR,,Indonesia,,,,-8.3916672,123.2616012,https://maps.google.com/?cid=0x0:0xf0f1eaad9eca59cb,
perumahan,Komplek perumahan,Axella home,"J788+VFX, Lewopao, Kec. Ile Boleng, Kabupaten Flores Timur, Nusa Tenggara Tim.","Kabupaten Flores Timur, Nusa Tenggara Tim.",NUSA TENGGARA TIMUR,,Indonesia,,,,-8.3819001,123.2664785,https://maps.google.com/?cid=0x0:0x61867e16934c8621,
perumahan,perumahan,Rumah patyfhendy,"J8P3+F38, Nele Lamawangi, Kec. Ile Boleng, Kabupaten Flores Timur, Nusa Tenggara Tim.","Kabupaten Flores Timur, Nusa Tenggara Tim.",NUSA TENGGARA TIMUR,,Indonesia,,,,-8.3639899,123.3032449,https://maps.google.com/?cid=0x0:0x81706b2aaa65ad2b,
perumahan,Komplek perumahan,Riang lidang komplex,"J7C5+27J, Helanlangowuyo, Kec. Ile Boleng, Kabupaten Flores Timur, Nusa Tenggara Tim.","Kabupaten Flores Timur, Nusa Tenggara Tim.",NUSA TENGGARA TIMUR,,Indonesia,,,,-8.3799125,123.2581406,https://maps.google.com/?cid=0x0:0x30ea4fdcc0875b68,
perumahan,Komplek perumahan,Tyto,"J7FQ+88V, Nelerereng, Kec. Ile Boleng, Kabupaten Flores Timur, Nusa Tenggara Tim.","Kabupaten Flores Timur, Nusa Tenggara Tim.",NUSA TENGGARA TIMUR,,Indonesia,,,,-8.3766829,123.2883583,https://maps.google.com/?cid=0x0:0xd4260f0822f0fab1,
perumahan,perumahan,ATOK SIMON,"J8P3+F38, Nele Lamawangi, Kec. Ile Boleng, Kabupaten Flores Timur, Nusa Tenggara Tim.","Kabupaten Flores Timur, Nusa Tenggara Tim.",NUSA TENGGARA TIMUR,,Indonesia,,,,-8.3637792,123.3039108,https://maps.google.com/?cid=0x0:0xb7751f5c292e6430,
perumahan,Komplek perumahan,"Simpang tiga Nelelamawangi,lamabayung","J7QW+W4F, Nele Lamawangi, Kec. Ile Boleng, Kabupaten Flores Timur, Nusa Tenggara Tim.","Kabupaten Flores Timur, Nusa Tenggara Tim.",NUSA TENGGARA TIMUR,,Indonesia,,,,-8.3601793,123.2952931,https://maps.google.com/?cid=0x0:0xb91c21c62083c64c,
perumahan,Komplek perumahan,Tarwan Home,"J786+3VC, Jl. Trans Adonara, Helanlangowuyo, Kec. Ile Boleng, Kabupaten Flores Timur, Nusa Tenggara Tim.","Kabupaten Flores Timur, Nusa Tenggara Tim.",NUSA TENGGARA TIMUR,,Indonesia,,,,-8.384827,123.262097,https://maps.google.com/?cid=0x0:0xe43077368ad5528c,
perumahan,Komplek perumahan,Neleblolong,"J7MG+Q4J, Neleblolong, Kec. Ile Boleng, Kabupaten Flores Timur, Nusa Tenggara Tim.","Kabupaten Flores Timur, Nusa Tenggara Tim.",NUSA TENGGARA TIMUR,,Indonesia,,,,-8.3655406,123.2752547,https://maps.google.com/?cid=0x0:0x3cfe2a590331ba43,
perumahan,Komplek perumahan,SIMON SERAN GORAN,"J68W+23J, Bayuntaa, Kec. Ile Boleng, Kabupaten Flores Timur, Nusa Tenggara Tim.","Kabupaten Flores Timur, Nusa Tenggara Tim.",NUSA TENGGARA TIMUR,,Indonesia,,,,-8.3840759,123.2455387,https://maps.google.com/?cid=0x0:0xa2ab0c597572b984,
perumahan,Komplek perumahan,Asri Home,"J78W+R9R, Boleng, Kec. Ile Boleng, Kabupaten Flores Timur, Nusa Tenggara Tim.","Kabupaten Flores Timur, Nusa Tenggara Tim.",NUSA TENGGARA TIMUR,,Indonesia,,,,-8.3828859,123.2958836,https://maps.google.com/?cid=0x0:0x4f0c8c9ada3e39a2,
perumahan,Komplek perumahan,Rolland Chapytan,"J782+5XH, Jl. Trans Adonara, Lamawolo, Kec. Ile Boleng, Kabupaten Flores Timur, Nusa Tenggara Tim.","Kabupaten Flores Timur, Nusa Tenggara Tim.",NUSA TENGGARA TIMUR,,Indonesia,82143425725.0,,,-8.38455,123.2524787,https://maps.google.com/?cid=0x0:0xecafddfa97d70a17,
perumahan,Komplek perumahan,Moni kewa,"J68R+C9R, Riawale, Kec. Ile Boleng, Kabupaten Flores Timur, Nusa Tenggara Tim.","Kabupaten Flores Timur, Nusa Tenggara Tim.",NUSA TENGGARA TIMUR,,Indonesia,,,,-8.3846313,123.24355,https://maps.google.com/?cid=0x0:0x1a6ee8bd39728c0d,
perumahan,Komplek perumahan,Kompleks DJ Deri,"J8P2+MVP, RT.04/RW.Riang Deri, Desa Duablolong, Kec. Ile Boleng, Kabupaten Flores Timur, Nusa Tenggara Tim.","Kabupaten Flores Timur, Nusa Tenggara Tim.",NUSA TENGGARA TIMUR,,Indonesia,,,,-8.363288,123.3021978,https://maps.google.com/?cid=0x0:0x3c8fb6ccfacada0e,
perumahan,perumahan,Kec. Ilebura,"Kabupaten Flores Timur, Nusa Tenggara Tim.","Kabupaten Flores Timur, Nusa Tenggara Tim.",NUSA TENGGARA TIMUR,,Indonesia,,,,-8.5779238,122.8337133,https://maps.google.com/?cid=0x0:0xc8be3acfb2f81c90,
perumahan,Komplek perumahan,Kampung baru,"FRMF+CGR, Nurri, Kec. Ilebura, Kabupaten Flores Timur, Nusa Tenggara Tim.","Kabupaten Flores Timur, Nusa Tenggara Tim.",NUSA TENGGARA TIMUR,,Indonesia,,,,-8.5163887,122.823765,https://maps.google.com/?cid=0x0:0x3729b3f64f222f3,
perumahan,Pembangunan Perumahan,Kompleks Klore,"FRPC+8W, Nurri, Kec. Ilebura, Kabupaten Flores Timur, Nusa Tenggara Tim.","Kabupaten Flores Timur, Nusa Tenggara Tim.",NUSA TENGGARA TIMUR,,Indonesia,,,,-8.5135062,122.8226054,https://maps.google.com/?cid=0x0:0x4eff14bdc01cdcc,
perumahan,Komplek perumahan,Djs,"CRCM+VWF, Birawan, Kec. Ilebura, Kabupaten Flores Timur, Nusa Tenggara Tim.","Kabupaten Flores Timur, Nusa Tenggara Tim.",NUSA TENGGARA TIMUR,,Indonesia,82353202596.0,,,-8.5778074,122.8348092,https://maps.google.com/?cid=0x0:0x4b697233c68e6899,
perumahan,Komplek perumahan,Kompleks batako,"FPJM+6R2, Nurri, Kec. Ilebura, Kabupaten Flores Timur, Nusa Tenggara Tim.","Kabupaten Flores Timur, Nusa Tenggara Tim.",NUSA TENGGARA TIMUR,,Indonesia,,,,-8.5194832,122.7345058,https://maps.google.com/?cid=0x0:0xcb6412358f74c010,
perumahan,perumahan,Charlles witi,"CR7J+G8R, Jl. Lewoawan, Birawan, Kec. Ilebura, Kabupaten Flores Timur, Nusa Tenggara Tim.","Kabupaten Flores Timur, Nusa Tenggara Tim.",NUSA TENGGARA TIMUR,,Indonesia,,,,-8.586138,122.830777,https://maps.google.com/?cid=0x0:0x42af4fc9e2c30399,
perumahan,Komplek perumahan,Rumah LianðŸ’™,"FQW2+QJP, Nobokonga, Kec. Ilebura, Kabupaten Flores Timur, Nusa Tenggara Tim.","Kabupaten Flores Timur, Nusa Tenggara Tim.",NUSA TENGGARA TIMUR,,Indonesia,,,,-8.5030433,122.7515809,https://maps.google.com/?cid=0x0:0x267e2fd1bca2d587,
perumahan,Perhimpunan Pengembang Perumahan,Bella Muda,"CR6H+CV5, Birawan, Kec. Ilebura, Kabupaten Flores Timur, Nusa Tenggara Tim.","Kabupaten Flores Timur, Nusa Tenggara Tim.",NUSA TENGGARA TIMUR,,Indonesia,,,,-8.5889946,122.8297384,https://maps.google.com/?cid=0x0:0xce7003a798838d4,
perumahan,Perhimpunan Pengembang Perumahan,Rumah Chypam Kwure,"CR6H+83, Birawan, Kec. Ilebura, Kabupaten Flores Timur, Nusa Tenggara Tim.","Kabupaten Flores Timur, Nusa Tenggara Tim.",NUSA TENGGARA TIMUR,,Indonesia,,,,-8.589224,122.8277234,https://maps.google.com/?cid=0x0:0x3d23c7aacc99d4f8,
perumahan,Balai Pertemuan Desa,Desa Nurabelen,"FRMG+9CF, Jalan, Nurri, Ilebura, East Flores Regency, East Nusa Tenggara","Kabupaten Flores Timur, Nusa Tenggara Tim.",NUSA TENGGARA TIMUR,,Indonesia,,,,-8.5165547,122.8260341,https://maps.google.com/?cid=0x0:0xce41c2d74188a1d,
perumahan,Komplek perumahan,Lewouran Kampung Baru,"CR6H+83, Birawan, Kec. Ilebura, Kabupaten Flores Timur, Nusa Tenggara Tim.","Kabupaten Flores Timur, Nusa Tenggara Tim.",NUSA TENGGARA TIMUR,,Indonesia,,,,-8.5889704,122.8277555,https://maps.google.com/?cid=0x0:0x34f5fb574f53dd33,
perumahan,Komplek perumahan,Bambrot,"FPPR+M4F, Nurri, Kec. Ilebura, Kabupaten Flores Timur, Nusa Tenggara Tim.","Kabupaten Flores Timur, Nusa Tenggara Tim.",NUSA TENGGARA TIMUR,,Indonesia,,,,-8.5133225,122.7402874,https://maps.google.com/?cid=0x0:0xbf81c1104ea4d394,
perumahan,Komplek perumahan,Rumah agung saputra,"GQ7Q+HPW, Nobokonga, Kec. Ilebura, Kabupaten Flores Timur, Nusa Tenggara Tim.","Kabupaten Flores Timur, Nusa Tenggara Tim.",NUSA TENGGARA TIMUR,,Indonesia,,,,-8.4860227,122.7887711,https://maps.google.com/?cid=0x0:0x45d8c90fd1657dd3,
perumahan,Komplek perumahan,Dusun B,"CRFP+J8Q, Birawan, Kec. Ilebura, Kabupaten Flores Timur, Nusa Tenggara Tim.","Kabupaten Flores Timur, Nusa Tenggara Tim.",NUSA TENGGARA TIMUR,,Indonesia,,,,-8.5759177,122.8358743,https://maps.google.com/?cid=0x0:0x956652a93422196c,
perumahan,Komplek perumahan,Brayen LEJAB,"FPJM+3RR, Nurri, Kec. Ilebura, Kabupaten Flores Timur, Nusa Tenggara Tim.","Kabupaten Flores Timur, Nusa Tenggara Tim.",NUSA TENGGARA TIMUR,,Indonesia,,,,-8.5197707,122.7345109,https://maps.google.com/?cid=0x0:0xd0a6113ad0ef6998,
perumahan,Komplek perumahan,rumah yeni keban,"CVRV+HXJ, Lamaole, Kec. Solor Bar., Kabupaten Flores Timur, Nusa Tenggara Tim.","Kabupaten Flores Timur, Nusa Tenggara Tim.",NUSA TENGGARA TIMUR,,Indonesia,,,,-8.5585361,122.8948766,https://maps.google.com/?cid=0x0:0x8bf1a33dd1e204c8,
perumahan,Komplek perumahan,Rumah Bung Jack Uran,"CR63+84M, Lewoawang, Kec. Ilebura, Kabupaten Flores Timur, Nusa Tenggara Tim.","Kabupaten Flores Timur, Nusa Tenggara Tim.",NUSA TENGGARA TIMUR,,Indonesia,,,,-8.589156,122.8028074,https://maps.google.com/?cid=0x0:0xc71f075364866659,
perumahan,Komplek perumahan,Rumah tican,"CR7J+8J4 Rumah tican uran, Jl. Lewoawan, Birawan, Kec. Ilebura, Kabupaten Flores Timur, Nusa Tenggara Tim.","Kabupaten Flores Timur, Nusa Tenggara Tim.",NUSA TENGGARA TIMUR,,Indonesia,,,,-8.586725,122.8315634,https://maps.google.com/?cid=0x0:0x76737520e3064b7b,
perumahan,Komplek perumahan,Rumah pak mance muda,"CR24+XWM, Lewoawang, Kec. Ilebura, Kabupaten Flores Timur, Nusa Tenggara Tim.","Kabupaten Flores Timur, Nusa Tenggara Tim.",NUSA TENGGARA TIMUR,,Indonesia,,,,-8.5975342,122.8072876,https://maps.google.com/?cid=0x0:0x512c1f6abcaadd3f,
perumahan,Hotel,RUMAH,"FRMG+9CF, Jalan, Nurri, Kec. Ilebura, Kabupaten Flores Timur, Nusa Tenggara Tim.","Kabupaten Flores Timur, Nusa Tenggara Tim.",NUSA TENGGARA TIMUR,,Indonesia,,,,-8.516882,122.826478,https://maps.google.com/?cid=0x0:0x2813d56e5d2377df,
perumahan,Komplek perumahan,Hollim Complex,"FPRR+PPM, Jl. Nasional Maumere - Larantuka, Nobokonga, Kec. Ilebura, Kabupaten Flores Timur, Nusa Tenggara Tim.","Kabupaten Flores Timur, Nusa Tenggara Tim.",NUSA TENGGARA TIMUR,,Indonesia,82134911640.0,,,-8.50817,122.741806,https://maps.google.com/?cid=0x0:0x2af97c0985c4c492,
perumahan,Pembangunan Perumahan,Rumah Alvian Kwuta,"CR63+84M, Lewoawang, Kec. Ilebura, Kabupaten Flores Timur, Nusa Tenggara Tim.","Kabupaten Flores Timur, Nusa Tenggara Tim.",NUSA TENGGARA TIMUR,,Indonesia,,,,-8.589156,122.8028074,https://maps.google.com/?cid=0x0:0x7619219cdced278f,
perumahan,Pembangunan Perumahan,Calon Lokasi Huntap,"GPFV+WF, Pululera, Kec. Wulanggitang, Kabupaten Flores Timur, Nusa Tenggara Tim.","Kabupaten Flores Timur, Nusa Tenggara Tim.",NUSA TENGGARA TIMUR,,Indonesia,,,,-8.475145,122.743682,https://maps.google.com/?cid=0x0:0x2d76019ead8b9809,
perumahan,perumahan,Rumah Noventris,"9PVV+GH5, Waiula, Kec. Wulanggitang, Kabupaten Flores Timur, Nusa Tenggara Tim.","Kabupaten Flores Timur, Nusa Tenggara Tim.",NUSA TENGGARA TIMUR,,Indonesia,,,,-8.6058929,122.7441904,https://maps.google.com/?cid=0x0:0x507c3e5af7ce520e,
perumahan,Komplek perumahan,Riang kemie,"PX62+QFC, Riang Kemie, Kec. Ile Mandiri, Kabupaten Flores Timur, Nusa Tenggara Tim.","Kabupaten Flores Timur, Nusa Tenggara Tim.",NUSA TENGGARA TIMUR,,Indonesia,,,,-8.288053,122.9511319,https://maps.google.com/?cid=0x0:0x6dc8a05f4134f1c7,
perumahan,Komplek perumahan,RUMAH ADAT RIANGKEMIE,"PW6X+R8M, Riang Kemie, Kec. Ile Mandiri, Kabupaten Flores Timur, Nusa Tenggara Tim.","Kabupaten Flores Timur, Nusa Tenggara Tim.",NUSA TENGGARA TIMUR,,Indonesia,,,,-8.2874104,122.9482114,https://maps.google.com/?cid=0x0:0xb431f616db3faa47,
perumahan,perumahan,Kec. Ile Mandiri,"Kabupaten Flores Timur, Nusa Tenggara Tim.","Kabupaten Flores Timur, Nusa Tenggara Tim.",NUSA TENGGARA TIMUR,,Indonesia,,,,-8.2871405,122.9492139,https://maps.google.com/?cid=0x0:0x1704562f126cbd77,
perumahan,Komplek perumahan,Mr.T,"PX84+C3X, Lewohala, Kec. Ile Mandiri, Kabupaten Flores Timur, Nusa Tenggara Tim.","Kabupaten Flores Timur, Nusa Tenggara Tim.",NUSA TENGGARA TIMUR,,Indonesia,,,,-8.2838919,122.9552199,https://maps.google.com/?cid=0x0:0xbfe26d034079d8d7,
perumahan,Komplek perumahan,Gabriel House,"MWPG+P9P, Wailolong, Kec. Ile Mandiri, Kabupaten Flores Timur, Nusa Tenggara Tim.","Kabupaten Flores Timur, Nusa Tenggara Tim.",NUSA TENGGARA TIMUR,,Indonesia,,,,-8.3131676,122.9259406,https://maps.google.com/?cid=0x0:0x2019090ce3952618,
perumahan,Komplek perumahan,Patrick Home,"PX83+RV4, Lewohala, Kec. Ile Mandiri, Kabupaten Flores Timur, Nusa Tenggara Tim.","Kabupaten Flores Timur, Nusa Tenggara Tim.",NUSA TENGGARA TIMUR,,Indonesia,,,,-8.2825124,122.9547643,https://maps.google.com/?cid=0x0:0x12969438aea8dc9a,
perumahan,Komplek perumahan,Lewohala Kec. Ile Mandiri,"PX84+M3V, Unnamed Road, Lewohala, Kec. Ile Mandiri, Kabupaten Flores Timur, Nusa Tenggara Tim.","Kabupaten Flores Timur, Nusa Tenggara Tim.",NUSA TENGGARA TIMUR,,Indonesia,,,,-8.2831925,122.9551525,https://maps.google.com/?cid=0x0:0xa86a1af8fc28eb33,
perumahan,Komplek perumahan,Rumah bp Simon Sani Lewar,"PW6W+FPP, Riang Kemie, Kec. Ile Mandiri, Kabupaten Flores Timur, Nusa Tenggara Tim.","Kabupaten Flores Timur, Nusa Tenggara Tim.",NUSA TENGGARA TIMUR,,Indonesia,,,,-8.2887934,122.9468408,https://maps.google.com/?cid=0x0:0x92e988275e47d21b,
perumahan,Pembangunan Perumahan,BLOK M KOMPLEX,"PW6W+88R, Riang Kemie, Kec. Ile Mandiri, Kabupaten Flores Timur, Nusa Tenggara Tim.","Kabupaten Flores Timur, Nusa Tenggara Tim.",NUSA TENGGARA TIMUR,,Indonesia,,,,-8.2881172,122.9460531,https://maps.google.com/?cid=0x0:0x774f7be3808e0a06,
perumahan,Komplek perumahan,Rumah Mado lewar,"PW6W+VQC, Riang Kemie, Kec. Ile Mandiri, Kabupaten Flores Timur, Nusa Tenggara Tim.","Kabupaten Flores Timur, Nusa Tenggara Tim.",NUSA TENGGARA TIMUR,,Indonesia,,,,-8.2878061,122.9468786,https://maps.google.com/?cid=0x0:0x4508c1e65fc8d08c,
perumahan,Komplek perumahan,Rumah Lanang LGR,"Riang Kemie, Kec. Ile Mandiri, Kabupaten Flores Timur, Nusa Tenggara Tim.","Kabupaten Flores Timur, Nusa Tenggara Tim.",NUSA TENGGARA TIMUR,,Indonesia,,,,-8.2867125,122.9493436,https://maps.google.com/?cid=0x0:0x71c30da9cf2dba12,
perumahan,Pembangunan Perumahan,cerly home,"PW6V+6C5, Riang Kemie, Kec. Ile Mandiri, Kabupaten Flores Timur, Nusa Tenggara Tim.","Kabupaten Flores Timur, Nusa Tenggara Tim.",NUSA TENGGARA TIMUR,,Indonesia,,,,-8.2899914,122.9435581,https://maps.google.com/?cid=0x0:0xa81a020c4939fbc0,
perumahan,Komplek perumahan,Rm Bpk.Biti Molan,"PW6X+GF2, Riang Kemie, Kec. Ile Mandiri, Kabupaten Flores Timur, Nusa Tenggara Tim.","Kabupaten Flores Timur, Nusa Tenggara Tim.",NUSA TENGGARA TIMUR,,Indonesia,,,,-8.2888128,122.9486447,https://maps.google.com/?cid=0x0:0x6f7b8f62e3a3e960,
perumahan,Komplek perumahan,Manus home,"PWHX+4QR, RT.07/RW.04, Dusun 4, Lewohala, Kec. Ile Mandiri, Kabupaten Flores Timur, Nusa Tenggara Tim.","Kabupaten Flores Timur, Nusa Tenggara Tim.",NUSA TENGGARA TIMUR,,Indonesia,,,,-8.272134,122.9494009,https://maps.google.com/?cid=0x0:0x84838c1295c4a5a4,
perumahan,Komplek perumahan,Doni Balan Home,"PW6V+7RQ, RW.02, Riang Kemie, Kec. Ile Mandiri, Kabupaten Flores Timur, Nusa Tenggara Tim.","Kabupaten Flores Timur, Nusa Tenggara Tim.",NUSA TENGGARA TIMUR,,Indonesia,,,,-8.2893,122.944625,https://maps.google.com/?cid=0x0:0x3ff83f645fb7e075,
perumahan,Komplek perumahan,Rumah ka uppy,"MXP8+QG7, Riang Kemie, Kec. Ile Mandiri, Kabupaten Flores Timur, Nusa Tenggara Tim.","Kabupaten Flores Timur, Nusa Tenggara Tim.",NUSA TENGGARA TIMUR,,Indonesia,,,,-8.3130942,122.9663018,https://maps.google.com/?cid=0x0:0x221ad47b0097cdbf,
perumahan,Komplek perumahan,HOME SWEET HOME,"MWMG+853, Wailolong, Kec. Ile Mandiri, Kabupaten Flores Timur, Nusa Tenggara Tim.","Kabupaten Flores Timur, Nusa Tenggara Tim.",NUSA TENGGARA TIMUR,,Indonesia,,,,-8.3167273,122.9254373,https://maps.google.com/?cid=0x0:0xef3542803cfe2ac0,
perumahan,Komplek perumahan,Rumah P. Hery Lewar,"PX83+RX3, Lewohala, Kec. Ile Mandiri, Kabupaten Flores Timur, Nusa Tenggara Tim.","Kabupaten Flores Timur, Nusa Tenggara Tim.",NUSA TENGGARA TIMUR,,Indonesia,,,,-8.2834793,122.9548441,https://maps.google.com/?cid=0x0:0xbc740cea3080dc0e,
perumahan,perumahan,Rumah Novy,"MWXR+VJ, Riang Kemie, Kec. Ile Mandiri, Kabupaten Flores Timur, Nusa Tenggara Tim.","Kabupaten Flores Timur, Nusa Tenggara Tim.",NUSA TENGGARA TIMUR,,Indonesia,,,,-8.30037,122.941515,https://maps.google.com/?cid=0x0:0x8445a3430b4b84c8,
perumahan,Pembangunan Perumahan,Chandra Home,"MXP8+QG7, Riang Kemie, Kec. Ile Mandiri, Kabupaten Flores Timur, Nusa Tenggara Tim.","Kabupaten Flores Timur, Nusa Tenggara Tim.",NUSA TENGGARA TIMUR,,Indonesia,,,,-8.3130942,122.9663018,https://maps.google.com/?cid=0x0:0x586ca4de4eb5981b,
perumahan,Komplek perumahan,SOMBARAJA,"MWPC+H7, Wailolong, Kec. Ile Mandiri, Kabupaten Flores Timur, Nusa Tenggara Tim.","Kabupaten Flores Timur, Nusa Tenggara Tim.",NUSA TENGGARA TIMUR,,Indonesia,,,,-8.3135594,122.9206905,https://maps.google.com/?cid=0x0:0x38e11875d99ff059,
perumahan,Komplek perumahan,Kompleks Babe Beluwela,"PW6V+MFQ, Riang Kemie, Kec. Ile Mandiri, Kabupaten Flores Timur, Nusa Tenggara Tim.","Kabupaten Flores Timur, Nusa Tenggara Tim.",NUSA TENGGARA TIMUR,,Indonesia,,,,-8.2882878,122.9437447,https://maps.google.com/?cid=0x0:0xb2ff951207980d03,
perumahan,Komplek perumahan,Rumah Javier Arsya,"PXF8+X2G, Lewohala, Kec. Ile Mandiri, Kabupaten Flores Timur, Nusa Tenggara Tim.","Kabupaten Flores Timur, Nusa Tenggara Tim.",NUSA TENGGARA TIMUR,,Indonesia,,,,-8.2750526,122.965074,https://maps.google.com/?cid=0x0:0x110820118ed667c6,
perumahan,Komplek perumahan,LU'O ME'AN,"PXJW+CCV, Tiwatobi, Kec. Ile Mandiri, Kabupaten Flores Timur, Nusa Tenggara Tim.","Kabupaten Flores Timur, Nusa Tenggara Tim.",NUSA TENGGARA TIMUR,,Indonesia,,,,-8.2688822,122.9960403,https://maps.google.com/?cid=0x0:0x8595d3a632a316c2,
perumahan,perumahan,Tilan home,"PXXJ+F35, Watotutu, Kec. Ile Mandiri, Kabupaten Flores Timur, Nusa Tenggara Tim.","Kabupaten Flores Timur, Nusa Tenggara Tim.",NUSA TENGGARA TIMUR,,Indonesia,,,,-8.2513674,122.9802295,https://maps.google.com/?cid=0x0:0x50c6bb88899c9cc4,
perumahan,Komplek perumahan,Flores timur,"MXP8+QG7, Riang Kemie, Kec. Ile Mandiri, Kabupaten Flores Timur, Nusa Tenggara Tim.","Kabupaten Flores Timur, Nusa Tenggara Tim.",NUSA TENGGARA TIMUR,,Indonesia,,,,-8.3130942,122.9663018,https://maps.google.com/?cid=0x0:0x87af3e00e5df9492,
perumahan,perumahan,Kec. Kelubagolit,"Kabupaten Flores Timur, Nusa Tenggara Tim.","Kabupaten Flores Timur, Nusa Tenggara Tim.",NUSA TENGGARA TIMUR,,Indonesia,,,,-8.3083117,123.2279867,https://maps.google.com/?cid=0x0:0xb5b3ef9f3d246fd4,
perumahan,Pembangunan Perumahan,Tapobali Ongabelen Adotim NTT Indonesia,"M682+7RF, Tapobali, Kec. Adonara Tim., Kabupaten Flores Timur, Nusa Tenggara Tim.","Kabupaten Flores Timur, Nusa Tenggara Tim.",NUSA TENGGARA TIMUR,,Indonesia,85232065181.0,,,-8.3343206,123.2020332,https://maps.google.com/?cid=0x0:0xfb5205456ca02999,
perumahan,Pembangunan Perumahan,corebima,"M5R9+FRR, Nubalema, Kec. Adonara Tengah, Kabupaten Flores Timur, Nusa Tenggara Tim.","Kabupaten Flores Timur, Nusa Tenggara Tim.",NUSA TENGGARA TIMUR,,Indonesia,,,,-8.3087085,123.1695448,https://maps.google.com/?cid=0x0:0xb5a11192de4f07a7,
perumahan,Perhimpunan Pengembang Perumahan,Amaola,"M5P9+VH8, Oe Sayang, Kec. Adonara Tengah, Kabupaten Flores Timur, Nusa Tenggara Tim.","Kabupaten Flores Timur, Nusa Tenggara Tim.",NUSA TENGGARA TIMUR,,Indonesia,,,,-8.3128298,123.1689648,https://maps.google.com/?cid=0x0:0x9b53288eededc742,
perumahan,Komplek perumahan,"Horinara, Kec.Kelubagolit, Flores Timur","M6M9+WV5, Horinara, Kec. Kelubagolit, Kabupaten Flores Timur, Nusa Tenggara Tim.","Kabupaten Flores Timur, Nusa Tenggara Tim.",NUSA TENGGARA TIMUR,,Indonesia,,,,-8.3152305,123.2197314,https://maps.google.com/?cid=0x0:0x684cdcd92af50caf,
perumahan,Sekolah Menengah Umum,SMA Negeri Kelubagolit,"M6XF+P6F, Jl. Waiwerang Sagu, Mangaaleng, Kec. Kelubagolit, Kabupaten Flores Timur, Nusa Tenggara Tim.","Kabupaten Flores Timur, Nusa Tenggara Tim.",NUSA TENGGARA TIMUR,,Indonesia,,,,-8.3006799,123.2230419,https://maps.google.com/?cid=0x0:0x893dad10d0ee5e29,
perumahan,Komplek perumahan,Kloung_Sukutokan,"M6VP+7CQ, Sukutokan, Kec. Kelubagolit, Kabupaten Flores Timur, Nusa Tenggara Tim.","Kabupaten Flores Timur, Nusa Tenggara Tim.",NUSA TENGGARA TIMUR,,Indonesia,,,,-8.3067893,123.236115,https://maps.google.com/?cid=0x0:0x516f61d17fafddec,
perumahan,Komplek perumahan,Rumah Viktor KT,"P65G+GW, Keluwain, Kec. Kelubagolit, Kabupaten Flores Timur, Nusa Tenggara Tim.","Kabupaten Flores Timur, Nusa Tenggara Tim.",NUSA TENGGARA TIMUR,,Indonesia,,,,-8.2910954,123.227322,https://maps.google.com/?cid=0x0:0x834ee02baa4e5d4b,
perumahan,Komplek perumahan,Lewolelek karogulapuhu,"P63J+78G, Jl. Watodei, Keluwain, Kec. Kelubagolit, Kabupaten Flores Timur, Nusa Tenggara Tim.","Kabupaten Flores Timur, Nusa Tenggara Tim.",NUSA TENGGARA TIMUR,,Indonesia,,,,-8.2968171,123.2308321,https://maps.google.com/?cid=0x0:0x5cdaa8cd42a889c2,
perumahan,Komplek perumahan,Gatamiten,"P62H+WHR, Keluwain, Kec. Kelubagolit, Kabupaten Flores Timur, Nusa Tenggara Tim.","Kabupaten Flores Timur, Nusa Tenggara Tim.",NUSA TENGGARA TIMUR,,Indonesia,,,,-8.2979745,123.2294222,https://maps.google.com/?cid=0x0:0xfe83e15016a14256,
perumahan,Komplek perumahan,Credo75,"P65R+9X6, Pepak Kelu, Kec. Kelubagolit, Kabupaten Flores Timur, Nusa Tenggara Tim.","Kabupaten Flores Timur, Nusa Tenggara Tim.",NUSA TENGGARA TIMUR,,Indonesia,,,,-8.2915811,123.2423956,https://maps.google.com/?cid=0x0:0xa9c6d4c08f751bb0,
perumahan,Komplek perumahan,Inglan Fernando,"Mangaaleng, Kec. Kelubagolit, Kabupaten Flores Timur, Nusa Tenggara Tim.","Kabupaten Flores Timur, Nusa Tenggara Tim.",NUSA TENGGARA TIMUR,,Indonesia,,,,-8.2953228,123.2083624,https://maps.google.com/?cid=0x0:0x8b3549e233f8105b,
perumahan,Komplek perumahan,Rumah Agalozaa,"P63H+JRW, Jl. Watodei, Keluwain, Kec. Kelubagolit, Kabupaten Flores Timur, Nusa Tenggara Tim.","Kabupaten Flores Timur, Nusa Tenggara Tim.",NUSA TENGGARA TIMUR,,Indonesia,,,,-8.2959275,123.2294944,https://maps.google.com/?cid=0x0:0xb3866ad974a5ad65,
perumahan,Komplek perumahan,Rumah Farell,"P62H+WHR, Keluwain, Kec. Kelubagolit, Kabupaten Flores Timur, Nusa Tenggara Tim.","Kabupaten Flores Timur, Nusa Tenggara Tim.",NUSA TENGGARA TIMUR,,Indonesia,,,,-8.2977786,123.2296675,https://maps.google.com/?cid=0x0:0x1a6423521ce114af,
perumahan,Komplek perumahan,Abangolla home,"P62F+XV4, Jl. Lamabunga, Keluwain, Kec. Kelubagolit, Kabupaten Flores Timur, Nusa Tenggara Tim.","Kabupaten Flores Timur, Nusa Tenggara Tim.",NUSA TENGGARA TIMUR,,Indonesia,,,,-8.2979995,123.224741,https://maps.google.com/?cid=0x0:0x1f00a851c35418fd,
perumahan,Perhimpunan Pengembang Perumahan,Rumah Ikbal Kia Kabellen,"M6M9+Q7V, Horinara, Kec. Kelubagolit, Kabupaten Flores Timur, Nusa Tenggara Tim.","Kabupaten Flores Timur, Nusa Tenggara Tim.",NUSA TENGGARA TIMUR,,Indonesia,,,,-8.3155248,123.2181762,https://maps.google.com/?cid=0x0:0xaba91995f34491bf,
perumahan,Komplek perumahan,Rumah adat Bahan,"P688+4R8, RT.016/RW.008, Lamabunga, Kec. Kelubagolit, Kabupaten Flores Timur, Nusa Tenggara Tim.","Kabupaten Flores Timur, Nusa Tenggara Tim.",NUSA TENGGARA TIMUR,,Indonesia,,,,-8.2847064,123.2170887,https://maps.google.com/?cid=0x0:0x3cf1ed9b3a838735,
perumahan,Komplek perumahan,Rumah Rera Gere,"M6MC+H87, Horinara, Kec. Kelubagolit, Kabupaten Flores Timur, Nusa Tenggara Tim.","Kabupaten Flores Timur, Nusa Tenggara Tim.",NUSA TENGGARA TIMUR,,Indonesia,,,,-8.3160996,123.2207907,https://maps.google.com/?cid=0x0:0x61f2dcedda67fd15,
perumahan,Komplek perumahan,RUMAH LAMAHODA ALIF,"P679+4V5, Jl. Watodei, Lamabunga, Kec. Kelubagolit, Kabupaten Flores Timur, Nusa Tenggara Tim.","Kabupaten Flores Timur, Nusa Tenggara Tim.",NUSA TENGGARA TIMUR,,Indonesia,,,,-8.2871957,123.2199462,https://maps.google.com/?cid=0x0:0x8d5e0f7c4a4c1d59,
perumahan,Komplek perumahan,Rumah konar,"P63H+JRW, Jl. Watodei, Pepak Kelu, Kec. Kelubagolit, Kabupaten Flores Timur, Nusa Tenggara Tim.","Kabupaten Flores Timur, Nusa Tenggara Tim.",NUSA TENGGARA TIMUR,,Indonesia,,,,-8.2948952,123.2323115,https://maps.google.com/?cid=0x0:0x2d0f4bd61fb441a5,
perumahan,Pembangunan Perumahan,ALL STAR Ù­ã€‹,"M6VH+542, Jl. Waiwerang Sagu, Hinga, Kec. Kelubagolit, Kabupaten Flores Timur, Nusa Tenggara Tim.","Kabupaten Flores Timur, Nusa Tenggara Tim.",NUSA TENGGARA TIMUR,,Indonesia,,,,-8.307124,123.2277645,https://maps.google.com/?cid=0x0:0x1b80c5d72406982f,
perumahan,Komplek perumahan,Uaurara area,"P679+HXJ, Lamabunga, Kec. Kelubagolit, Kabupaten Flores Timur, Nusa Tenggara Tim.","Kabupaten Flores Timur, Nusa Tenggara Tim.",NUSA TENGGARA TIMUR,,Indonesia,,,,-8.2860269,123.2198828,https://maps.google.com/?cid=0x0:0xa301ce1f446103cb,
perumahan,perumahan,Oktavianus Sandi,"P635+Q8V, Mangaaleng, Kec. Kelubagolit, Kabupaten Flores Timur, Nusa Tenggara Tim.","Kabupaten Flores Timur, Nusa Tenggara Tim.",NUSA TENGGARA TIMUR,,Indonesia,,,,-8.2955024,123.2082988,https://maps.google.com/?cid=0x0:0x6f369e74ef7adc1c,
perumahan,perumahan,Kompleks Rianghepat,"P62G+J72, Keluwain, Kec. Kelubagolit, Kabupaten Flores Timur, Nusa Tenggara Tim.","Kabupaten Flores Timur, Nusa Tenggara Tim.",NUSA TENGGARA TIMUR,,Indonesia,,,,-8.2985034,123.2256469,https://maps.google.com/?cid=0x0:0xefc8089424f53a69,
perumahan,Perhimpunan Pengembang Perumahan,Rumah Lambertus U. Tokan,"M6PH+VC3, Lamapaha, Kec. Kelubagolit, Kabupaten Flores Timur, Nusa Tenggara Tim.","Kabupaten Flores Timur, Nusa Tenggara Tim.",NUSA TENGGARA TIMUR,,Indonesia,,,,-8.3131709,123.2286101,https://maps.google.com/?cid=0x0:0xb4085870f42fa946,
perumahan,Sekolah menengah,Mangaaleng,"M6W5+479, Mangaaleng, Kec. Kelubagolit, Kabupaten Flores Timur, Nusa Tenggara Tim.","Kabupaten Flores Timur, Nusa Tenggara Tim.",NUSA TENGGARA TIMUR,,Indonesia,,,,-8.3047145,123.2082318,https://maps.google.com/?cid=0x0:0x1fe9010b2a037b58,
perumahan,perumahan,Nusa Tenggara Tim.,,Nusa Tenggara Tim.,NUSA TENGGARA TIMUR,,Indonesia,,,,-8.6573819,121.0793705,https://maps.google.com/?cid=0x0:0x1030bfbcaf71ae0,
perumahan,Komplek perumahan,Perumahan Nagi Permai,"M2Q6+5X8, Sarotari, Kec. Larantuka, Kabupaten Flores Timur, Nusa Tenggara Tim.","Kabupaten Flores Timur, Nusa Tenggara Tim.",NUSA TENGGARA TIMUR,,Indonesia,,,,-8.3120868,123.0124555,https://maps.google.com/?cid=0x0:0xe05f5f4f1a766a3,
perumahan,Pusat Perbelanjaan,Fastpay Fatima Hurint,"Wailolong, Kec. Larantuka, Kabupaten Flores Timur, Nusa Tenggara Tim. 86212","Kec. Larantuka, Kabupaten Flores Timur",NUSA TENGGARA TIMUR,86212.0,Indonesia,,,,-8.3148901,122.9280207,https://maps.google.com/?cid=0x0:0xd12cedeb167dac42,
perumahan,perumahan,Larantuka,"Pohon Sirih, Kec. Larantuka, Kabupaten Flores Timur, Nusa Tenggara Tim.","Kabupaten Flores Timur, Nusa Tenggara Tim.",NUSA TENGGARA TIMUR,,Indonesia,,,,-8.3452356,122.9813914,https://maps.google.com/?cid=0x0:0x4eb6d148bb7ab09e,
perumahan,Komplek perumahan,"Podor, Larantuka","MX3J+WH2, Dekat SD Inpres, Pohon Sirih, Podor, Kabupaten Flores Timur, Nusa Tenggara Tim.","Kabupaten Flores Timur, Nusa Tenggara Tim.",NUSA TENGGARA TIMUR,,Indonesia,,,,-8.3452356,122.9813914,https://maps.google.com/?cid=0x0:0xd962ec272c1a64cb,
perumahan,Komplek perumahan,ALS Complex,"MX3J+8GX, Larantuka, Kec. Larantuka, Kabupaten Flores Timur, Nusa Tenggara Tim.","Kabupaten Flores Timur, Nusa Tenggara Tim.",NUSA TENGGARA TIMUR,,Indonesia,,,,-8.3466361,122.9815273,https://maps.google.com/?cid=0x0:0x46201e768b77a022,
perumahan,Komplek perumahan,Batumea,"MX3J+6H7, Batumea, Larantuka, Kec. Larantuka, Kabupaten Flores Timur, Nusa Tenggara Tim.","Kabupaten Flores Timur, Nusa Tenggara Tim.",NUSA TENGGARA TIMUR,,Indonesia,,,,-8.3469714,122.9814371,https://maps.google.com/?cid=0x0:0x4898fbcc68caf344,
perumahan,perumahan,RUMAH TITIN,"MX3J+WH2, Pohon Sirih, Kec. Larantuka, Kabupaten Flores Timur, Nusa Tenggara Tim.","Kabupaten Flores Timur, Nusa Tenggara Tim.",NUSA TENGGARA TIMUR,,Indonesia,,,,-8.3452356,122.9813914,https://maps.google.com/?cid=0x0:0x84f345fbedd2496d,
perumahan,perumahan,A C R,"MX3J+WH2, Pohon Sirih, Kec. Larantuka, Kabupaten Flores Timur, Nusa Tenggara Tim.","Kabupaten Flores Timur, Nusa Tenggara Tim.",NUSA TENGGARA TIMUR,,Indonesia,,,,-8.3452356,122.9813914,https://maps.google.com/?cid=0x0:0x712d66089ce4738e,
perumahan,Toko bahan makanan,My Home,"MX4M+276, Pohon Sirih, Kec. Larantuka, Kabupaten Flores Timur, Nusa Tenggara Tim.","Kabupaten Flores Timur, Nusa Tenggara Tim.",NUSA TENGGARA TIMUR,,Indonesia,,,,-8.3449612,122.983143,https://maps.google.com/?cid=0x0:0x9105518ec0331f13,
perumahan,Komplek perumahan,Alfons riberu,"MX3J+VFM, Balela, Kec. Larantuka, Kabupaten Flores Timur, Nusa Tenggara Tim.","Kabupaten Flores Timur, Nusa Tenggara Tim.",NUSA TENGGARA TIMUR,,Indonesia,,,,-8.3452849,122.9812013,https://maps.google.com/?cid=0x0:0xf9f1abeae8caab96,
perumahan,Komplek perumahan,Posra,"MX4M+27C, Pohon Sirih, Kec. Larantuka, Kabupaten Flores Timur, Nusa Tenggara Tim.","Kabupaten Flores Timur, Nusa Tenggara Tim.",NUSA TENGGARA TIMUR,,Indonesia,,,,-8.3449317,122.9831524,https://maps.google.com/?cid=0x0:0x3a5af0b567d8bf78,
perumahan,Komplek perumahan,Agung riberu,"MX3J+8GX, Balela, Kec. Larantuka, Kabupaten Flores Timur, Nusa Tenggara Tim.","Kabupaten Flores Timur, Nusa Tenggara Tim.",NUSA TENGGARA TIMUR,,Indonesia,,,,-8.3466301,122.9813493,https://maps.google.com/?cid=0x0:0xebacf380ae50f9c0,
perumahan,Komplek perumahan,Oncu Ajis,"MX3J+PJJ, Balela, Kec. Larantuka, Kabupaten Flores Timur, Nusa Tenggara Tim.","Kabupaten Flores Timur, Nusa Tenggara Tim.",NUSA TENGGARA TIMUR,,Indonesia,,,,-8.3456574,122.9815132,https://maps.google.com/?cid=0x0:0x20a87b6fd0067d4,
perumahan,Komplek perumahan,Istana beta,"MX3J+G6H, Jl. Niaga, Balela, Kec. Larantuka, Kabupaten Flores Timur, Nusa Tenggara Tim.","Kabupaten Flores Timur, Nusa Tenggara Tim.",NUSA TENGGARA TIMUR,,Indonesia,,,,-8.346352,122.980971,https://maps.google.com/?cid=0x0:0xdf3221c33734db6e,
perumahan,Perhimpunan Pengembang Perumahan,MATA POCY COMPLEX,"MX3J+8GX, Balela, Kec. Larantuka, Kabupaten Flores Timur, Nusa Tenggara Tim.","Kabupaten Flores Timur, Nusa Tenggara Tim.",NUSA TENGGARA TIMUR,,Indonesia,,,,-8.3467376,122.9814298,https://maps.google.com/?cid=0x0:0xaa31104d9f101ee3,
perumahan,perumahan,Nusa Tenggara Tim.,,Nusa Tenggara Tim.,NUSA TENGGARA TIMUR,,Indonesia,,,,-8.6573819,121.0793705,https://maps.google.com/?cid=0x0:0x1030bfbcaf71ae0,
perumahan,Komplek perumahan,Perumahan Nagi Permai,"M2Q6+5X8, Sarotari, Kec. Larantuka, Kabupaten Flores Timur, Nusa Tenggara Tim.","Kabupaten Flores Timur, Nusa Tenggara Tim.",NUSA TENGGARA TIMUR,,Indonesia,,,,-8.3120868,123.0124555,https://maps.google.com/?cid=0x0:0xe05f5f4f1a766a3,
perumahan,Perhimpunan Pengembang Perumahan,Griya Lorentina,"M2R8+7Q5, Weri, Kec. Larantuka, Kabupaten Flores Timur, Nusa Tenggara Tim.","Kabupaten Flores Timur, Nusa Tenggara Tim.",NUSA TENGGARA TIMUR,,Indonesia,,,,-8.3093517,123.0169909,https://maps.google.com/?cid=0x0:0x7f7845e5455cd27a,
perumahan,Toko Roti,Rumah oleh-oleh Pandawa,"Pantai Besar, Kec. Larantuka, Kabupaten Flores Timur, Nusa Tenggara Tim. 86213","Kec. Larantuka, Kabupaten Flores Timur",NUSA TENGGARA TIMUR,86213.0,Indonesia,81246869850.0,,,-8.3492813,122.9697108,https://maps.google.com/?cid=0x0:0x97c40ad451747abf,
perumahan,Tujuan Wisata,Kawasan Perlindungan Terumbu Karang Larantuka,"Larantuka, Kec. Larantuka, Kabupaten Flores Timur, Nusa Tenggara Tim. 86213","Kec. Larantuka, Kabupaten Flores Timur",NUSA TENGGARA TIMUR,86213.0,Indonesia,81382062229.0,,,-8.3480106,122.9786933,https://maps.google.com/?cid=0x0:0xfa0a31371fc54739,
perumahan,Pusat Perbelanjaan,Pasar Inpres Larantuka,"MX8X+QJG, Ekasapta, Kec. Larantuka, Kabupaten Flores Timur, Nusa Tenggara Tim.","Kabupaten Flores Timur, Nusa Tenggara Tim.",NUSA TENGGARA TIMUR,,Indonesia,,,,-8.333073,122.9990706,https://maps.google.com/?cid=0x0:0xf1d2a3548341fee6,
perumahan,Pusat Spiritis,"Rumah Retret, Pertemuan, utk sementara jadi HUNTARA SEMINARI HOKENG","Rumah Bina Saron Jl Mgr Miguel Rangel, Jl. San Juan No.1-2, Dominggo, Kec. Larantuka, Latantuka, Nusa Tenggara Tim. 86213","Jl. San Juan No.1-2, Dominggo, Kec. Larantuka, Latantuka",NUSA TENGGARA TIMUR,86213.0,Indonesia,,,,-8.3255424,123.0084688,https://maps.google.com/?cid=0x0:0xcf8e8393777abe9c,
perumahan,perumahan,Larantuka,"Pohon Sirih, Kec. Larantuka, Kabupaten Flores Timur, Nusa Tenggara Tim.","Kabupaten Flores Timur, Nusa Tenggara Tim.",NUSA TENGGARA TIMUR,,Indonesia,,,,-8.3452356,122.9813914,https://maps.google.com/?cid=0x0:0x4eb6d148bb7ab09e,
perumahan,Komplek perumahan,"Podor, Larantuka","MX3J+WH2, Dekat SD Inpres, Pohon Sirih, Podor, Kabupaten Flores Timur, Nusa Tenggara Tim.","Kabupaten Flores Timur, Nusa Tenggara Tim.",NUSA TENGGARA TIMUR,,Indonesia,,,,-8.3452356,122.9813914,https://maps.google.com/?cid=0x0:0xd962ec272c1a64cb,
perumahan,Komplek perumahan,ALS Complex,"MX3J+8GX, Larantuka, Kec. Larantuka, Kabupaten Flores Timur, Nusa Tenggara Tim.","Kabupaten Flores Timur, Nusa Tenggara Tim.",NUSA TENGGARA TIMUR,,Indonesia,,,,-8.3466361,122.9815273,https://maps.google.com/?cid=0x0:0x46201e768b77a022,
perumahan,Komplek perumahan,Batumea,"MX3J+6H7, Batumea, Larantuka, Kec. Larantuka, Kabupaten Flores Timur, Nusa Tenggara Tim.","Kabupaten Flores Timur, Nusa Tenggara Tim.",NUSA TENGGARA TIMUR,,Indonesia,,,,-8.3469714,122.9814371,https://maps.google.com/?cid=0x0:0x4898fbcc68caf344,
perumahan,perumahan,RUMAH TITIN,"MX3J+WH2, Pohon Sirih, Kec. Larantuka, Kabupaten Flores Timur, Nusa Tenggara Tim.","Kabupaten Flores Timur, Nusa Tenggara Tim.",NUSA TENGGARA TIMUR,,Indonesia,,,,-8.3452356,122.9813914,https://maps.google.com/?cid=0x0:0x84f345fbedd2496d,
perumahan,perumahan,A C R,"MX3J+WH2, Pohon Sirih, Kec. Larantuka, Kabupaten Flores Timur, Nusa Tenggara Tim.","Kabupaten Flores Timur, Nusa Tenggara Tim.",NUSA TENGGARA TIMUR,,Indonesia,,,,-8.3452356,122.9813914,https://maps.google.com/?cid=0x0:0x712d66089ce4738e,
perumahan,Komplek perumahan,Posra,"MX4M+27C, Pohon Sirih, Kec. Larantuka, Kabupaten Flores Timur, Nusa Tenggara Tim.","Kabupaten Flores Timur, Nusa Tenggara Tim.",NUSA TENGGARA TIMUR,,Indonesia,,,,-8.3449317,122.9831524,https://maps.google.com/?cid=0x0:0x3a5af0b567d8bf78,
perumahan,Komplek perumahan,Alfons riberu,"MX3J+VFM, Balela, Kec. Larantuka, Kabupaten Flores Timur, Nusa Tenggara Tim.","Kabupaten Flores Timur, Nusa Tenggara Tim.",NUSA TENGGARA TIMUR,,Indonesia,,,,-8.3452849,122.9812013,https://maps.google.com/?cid=0x0:0xf9f1abeae8caab96,
perumahan,Komplek perumahan,Oncu Ajis,"MX3J+PJJ, Balela, Kec. Larantuka, Kabupaten Flores Timur, Nusa Tenggara Tim.","Kabupaten Flores Timur, Nusa Tenggara Tim.",NUSA TENGGARA TIMUR,,Indonesia,,,,-8.3456574,122.9815132,https://maps.google.com/?cid=0x0:0x20a87b6fd0067d4,
perumahan,Toko bahan makanan,My Home,"MX4M+276, Pohon Sirih, Kec. Larantuka, Kabupaten Flores Timur, Nusa Tenggara Tim.","Kabupaten Flores Timur, Nusa Tenggara Tim.",NUSA TENGGARA TIMUR,,Indonesia,,,,-8.3449612,122.983143,https://maps.google.com/?cid=0x0:0x9105518ec0331f13,
perumahan,Komplek perumahan,Agung riberu,"MX3J+8GX, Balela, Kec. Larantuka, Kabupaten Flores Timur, Nusa Tenggara Tim.","Kabupaten Flores Timur, Nusa Tenggara Tim.",NUSA TENGGARA TIMUR,,Indonesia,,,,-8.3466301,122.9813493,https://maps.google.com/?cid=0x0:0xebacf380ae50f9c0,
perumahan,Perhimpunan Pengembang Perumahan,MATA POCY COMPLEX,"MX3J+8GX, Balela, Kec. Larantuka, Kabupaten Flores Timur, Nusa Tenggara Tim.","Kabupaten Flores Timur, Nusa Tenggara Tim.",NUSA TENGGARA TIMUR,,Indonesia,,,,-8.3467376,122.9814298,https://maps.google.com/?cid=0x0:0xaa31104d9f101ee3,
perumahan,Komplek perumahan,Istana beta,"MX3J+G6H, Jl. Niaga, Balela, Kec. Larantuka, Kabupaten Flores Timur, Nusa Tenggara Tim.","Kabupaten Flores Timur, Nusa Tenggara Tim.",NUSA TENGGARA TIMUR,,Indonesia,,,,-8.346352,122.980971,https://maps.google.com/?cid=0x0:0xdf3221c33734db6e,
perumahan,perumahan,Nusa Tenggara Tim. 86215,"Lokea, Kec. Larantuka, Kabupaten Flores Timur, Nusa Tenggara Tim.","Kabupaten Flores Timur, Nusa Tenggara Tim.",NUSA TENGGARA TIMUR,,Indonesia,,,,-8.3411321,122.9851077,https://maps.google.com/?cid=0x0:0x982f75ac7612d26f,
perumahan,Komplek perumahan,Di Rumah Andy,"MX5M+9HX, Lohayong, Kec. Larantuka, Kabupaten Flores Timur, Nusa Tenggara Tim.","Kabupaten Flores Timur, Nusa Tenggara Tim.",NUSA TENGGARA TIMUR,,Indonesia,,,,-8.3414591,122.9838682,https://maps.google.com/?cid=0x0:0x249a4bacb675f336,
perumahan,Perhimpunan Pengembang Perumahan,Khun parera,"MX5P+C2X, Lokea, Kec. Larantuka, Kabupaten Flores Timur, Nusa Tenggara Tim.","Kabupaten Flores Timur, Nusa Tenggara Tim.",NUSA TENGGARA TIMUR,,Indonesia,,,,-8.3413851,122.9851085,https://maps.google.com/?cid=0x0:0xddf2253ef23d5eec,
perumahan,Pembangunan Perumahan,Nagka 1 Komplex,"MX5M+FQC, Lohayong, Kec. Larantuka, Kabupaten Flores Timur, Nusa Tenggara Tim.","Kabupaten Flores Timur, Nusa Tenggara Tim.",NUSA TENGGARA TIMUR,,Indonesia,,,,-8.3413138,122.9844027,https://maps.google.com/?cid=0x0:0xade29ee3fd5231ee,
perumahan,Komplek perumahan,Perumahan Nagi Permai,"M2Q6+5X8, Sarotari, Kec. Larantuka, Kabupaten Flores Timur, Nusa Tenggara Tim.","Kabupaten Flores Timur, Nusa Tenggara Tim.",NUSA TENGGARA TIMUR,,Indonesia,,,,-8.3120868,123.0124555,https://maps.google.com/?cid=0x0:0xe05f5f4f1a766a3,
perumahan,Rumah Kayu,Kun matutina House,"MX5M+9HX, Lohayong, Kec. Larantuka, Kabupaten Flores Timur, Nusa Tenggara Tim.","Kabupaten Flores Timur, Nusa Tenggara Tim.",NUSA TENGGARA TIMUR,,Indonesia,,,,-8.3417627,122.9841707,https://maps.google.com/?cid=0x0:0x1a368a89b3940356,
perumahan,Komplek perumahan,Ina Reinaldis,"MX5P+R76, Lokea, Kec. Larantuka, Kabupaten Flores Timur, Nusa Tenggara Tim.","Kabupaten Flores Timur, Nusa Tenggara Tim.",NUSA TENGGARA TIMUR,,Indonesia,,,,-8.3404699,122.9856462,https://maps.google.com/?cid=0x0:0xfda390002b3a639,
perumahan,Pembangunan Perumahan,Ariel Fernandez,"MX5M+GPH, Jl. Don Lorenzo, Lohayong, Kec. Larantuka, Kabupaten Flores Timur, Nusa Tenggara Tim.","Kabupaten Flores Timur, Nusa Tenggara Tim.",NUSA TENGGARA TIMUR,,Indonesia,,,,-8.3412283,122.9845503,https://maps.google.com/?cid=0x0:0xc60b8fbcb0f480a4,
perumahan,Komplek perumahan,Markas Daz Audio,"Lokea, Kec. Larantuka, Kabupaten Flores Timur, Nusa Tenggara Tim.","Kabupaten Flores Timur, Nusa Tenggara Tim.",NUSA TENGGARA TIMUR,,Indonesia,,,,-8.3398952,122.9839164,https://maps.google.com/?cid=0x0:0xfeb7405dcf25915c,
perumahan,Kontraktor,CV SARINA JAYA LARANTUKA,"RT.002/RW.001, Lokea, Kec. Larantuka, Kabupaten Flores Timur, Nusa Tenggara Tim. 86215","Lokea, Kec. Larantuka, Kabupaten Flores Timur",NUSA TENGGARA TIMUR,86215.0,Indonesia,85137728547.0,,,-8.3410961,122.9851463,https://maps.google.com/?cid=0x0:0xd986f76b60d5e81d,
perumahan,Perhimpunan Pengembang Perumahan,Griya Lorentina,"M2R8+7Q5, Weri, Kec. Larantuka, Kabupaten Flores Timur, Nusa Tenggara Tim.","Kabupaten Flores Timur, Nusa Tenggara Tim.",NUSA TENGGARA TIMUR,,Indonesia,,,,-8.3093517,123.0169909,https://maps.google.com/?cid=0x0:0x7f7845e5455cd27a,
perumahan,Rumah berlibur,Amsy Fernandez cell,"Lohayong, Kec. Larantuka, Kabupaten Flores Timur, Nusa Tenggara Tim.","Kabupaten Flores Timur, Nusa Tenggara Tim.",NUSA TENGGARA TIMUR,,Indonesia,,,,-8.3416243,122.9842877,https://maps.google.com/?cid=0x0:0x8f13f5707fbc7974,
perumahan,perumahan,Nusa Tenggara Tim.,,Nusa Tenggara Tim.,NUSA TENGGARA TIMUR,,Indonesia,,,,-8.6573819,121.0793705,https://maps.google.com/?cid=0x0:0x1030bfbcaf71ae0,
perumahan,Komplek perumahan,Perumahan Nagi Permai,"M2Q6+5X8, Sarotari, Kec. Larantuka, Kabupaten Flores Timur, Nusa Tenggara Tim.","Kabupaten Flores Timur, Nusa Tenggara Tim.",NUSA TENGGARA TIMUR,,Indonesia,,,,-8.3120868,123.0124555,https://maps.google.com/?cid=0x0:0xe05f5f4f1a766a3,
perumahan,Komplek perumahan,Om lani,"MX8V+59W, Polres, Amagarapati, Kec. Larantuka, Kabupaten Flores Timur, Nusa Tenggara Tim.","Kabupaten Flores Timur, Nusa Tenggara Tim.",NUSA TENGGARA TIMUR,,Indonesia,,,,-8.3345013,122.9934545,https://maps.google.com/?cid=0x0:0xbadb7b69c0613c2f,
perumahan,Padang,Rumah Makan Family Raya,"Jl. Niaga Komp. pertokoan No.3, Lokea, Kec. Larantuka, Kabupaten Flores Timur, Nusa Tenggara Tim. 86216","Lokea, Kec. Larantuka, Kabupaten Flores Timur",NUSA TENGGARA TIMUR,86216.0,Indonesia,,,,-8.3420726,122.9886812,https://maps.google.com/?cid=0x0:0x84402565f007683a,
perumahan,Perhimpunan Pengembang Perumahan,Griya Lorentina,"M2R8+7Q5, Weri, Kec. Larantuka, Kabupaten Flores Timur, Nusa Tenggara Tim.","Kabupaten Flores Timur, Nusa Tenggara Tim.",NUSA TENGGARA TIMUR,,Indonesia,,,,-8.3093517,123.0169909,https://maps.google.com/?cid=0x0:0x7f7845e5455cd27a,
perumahan,Masjid,Masjid Ash-hamad Postoh,"Kelurahan Postoh 40, Ama Garapati, Postoh, Kec. Larantuka, Kabupaten Flores Timur, Nusa Tenggara Tim. 86216","Ama Garapati, Postoh, Kec. Larantuka, Kabupaten Flores Timur",NUSA TENGGARA TIMUR,86216.0,Indonesia,82247223308.0,,,-8.3389658,122.9904718,https://maps.google.com/?cid=0x0:0x2736254118597d7c,
perumahan,Komplek perumahan,Perumahan Nagi Permai,"M2Q6+5X8, Sarotari, Kec. Larantuka, Kabupaten Flores Timur, Nusa Tenggara Tim.","Kabupaten Flores Timur, Nusa Tenggara Tim.",NUSA TENGGARA TIMUR,,Indonesia,,,,-8.3120868,123.0124555,https://maps.google.com/?cid=0x0:0xe05f5f4f1a766a3,
perumahan,perumahan,Nusa Tenggara Tim.,,Nusa Tenggara Tim.,NUSA TENGGARA TIMUR,,Indonesia,,,,-8.6573819,121.0793705,https://maps.google.com/?cid=0x0:0x1030bfbcaf71ae0,
perumahan,Toko,Toko Akbar Makmur,"Pasar Impress, Kampung Baru, Larantuka, Ekasapta, Kec. Larantuka, Kabupaten Flores Timur, Nusa Tenggara Tim. 86217","Kampung Baru, Larantuka, Ekasapta, Kec. Larantuka, Kabupaten Flores Timur",NUSA TENGGARA TIMUR,86217.0,Indonesia,81231477944.0,,,-8.333742,122.998507,https://maps.google.com/?cid=0x0:0x5ba54362711963df,
perumahan,Perhimpunan Pengembang Perumahan,Griya Lorentina,"M2R8+7Q5, Weri, Kec. Larantuka, Kabupaten Flores Timur, Nusa Tenggara Tim.","Kabupaten Flores Timur, Nusa Tenggara Tim.",NUSA TENGGARA TIMUR,,Indonesia,,,,-8.3093517,123.0169909,https://maps.google.com/?cid=0x0:0x7f7845e5455cd27a,
perumahan,perumahan,Larantuka,"Pohon Sirih, Kec. Larantuka, Kabupaten Flores Timur, Nusa Tenggara Tim.","Kabupaten Flores Timur, Nusa Tenggara Tim.",NUSA TENGGARA TIMUR,,Indonesia,,,,-8.3452356,122.9813914,https://maps.google.com/?cid=0x0:0x4eb6d148bb7ab09e,
perumahan,Komplek perumahan,Batumea,"MX3J+6H7, Batumea, Larantuka, Kec. Larantuka, Kabupaten Flores Timur, Nusa Tenggara Tim.","Kabupaten Flores Timur, Nusa Tenggara Tim.",NUSA TENGGARA TIMUR,,Indonesia,,,,-8.3469714,122.9814371,https://maps.google.com/?cid=0x0:0x4898fbcc68caf344,
perumahan,Komplek perumahan,"Podor, Larantuka","MX3J+WH2, Dekat SD Inpres, Pohon Sirih, Podor, Kabupaten Flores Timur, Nusa Tenggara Tim.","Kabupaten Flores Timur, Nusa Tenggara Tim.",NUSA TENGGARA TIMUR,,Indonesia,,,,-8.3452356,122.9813914,https://maps.google.com/?cid=0x0:0xd962ec272c1a64cb,
perumahan,perumahan,RUMAH TITIN,"MX3J+WH2, Pohon Sirih, Kec. Larantuka, Kabupaten Flores Timur, Nusa Tenggara Tim.","Kabupaten Flores Timur, Nusa Tenggara Tim.",NUSA TENGGARA TIMUR,,Indonesia,,,,-8.3452356,122.9813914,https://maps.google.com/?cid=0x0:0x84f345fbedd2496d,
perumahan,Komplek perumahan,ALS Complex,"MX3J+8GX, Larantuka, Kec. Larantuka, Kabupaten Flores Timur, Nusa Tenggara Tim.","Kabupaten Flores Timur, Nusa Tenggara Tim.",NUSA TENGGARA TIMUR,,Indonesia,,,,-8.3466361,122.9815273,https://maps.google.com/?cid=0x0:0x46201e768b77a022,
perumahan,Komplek perumahan,Alfons riberu,"MX3J+VFM, Balela, Kec. Larantuka, Kabupaten Flores Timur, Nusa Tenggara Tim.","Kabupaten Flores Timur, Nusa Tenggara Tim.",NUSA TENGGARA TIMUR,,Indonesia,,,,-8.3452849,122.9812013,https://maps.google.com/?cid=0x0:0xf9f1abeae8caab96,
perumahan,Toko bahan makanan,My Home,"MX4M+276, Pohon Sirih, Kec. Larantuka, Kabupaten Flores Timur, Nusa Tenggara Tim.","Kabupaten Flores Timur, Nusa Tenggara Tim.",NUSA TENGGARA TIMUR,,Indonesia,,,,-8.3449612,122.983143,https://maps.google.com/?cid=0x0:0x9105518ec0331f13,
perumahan,perumahan,A C R,"MX3J+WH2, Pohon Sirih, Kec. Larantuka, Kabupaten Flores Timur, Nusa Tenggara Tim.","Kabupaten Flores Timur, Nusa Tenggara Tim.",NUSA TENGGARA TIMUR,,Indonesia,,,,-8.3452356,122.9813914,https://maps.google.com/?cid=0x0:0x712d66089ce4738e,
perumahan,Komplek perumahan,Posra,"MX4M+27C, Pohon Sirih, Kec. Larantuka, Kabupaten Flores Timur, Nusa Tenggara Tim.","Kabupaten Flores Timur, Nusa Tenggara Tim.",NUSA TENGGARA TIMUR,,Indonesia,,,,-8.3449317,122.9831524,https://maps.google.com/?cid=0x0:0x3a5af0b567d8bf78,
perumahan,Komplek perumahan,Istana beta,"MX3J+G6H, Jl. Niaga, Balela, Kec. Larantuka, Kabupaten Flores Timur, Nusa Tenggara Tim.","Kabupaten Flores Timur, Nusa Tenggara Tim.",NUSA TENGGARA TIMUR,,Indonesia,,,,-8.346352,122.980971,https://maps.google.com/?cid=0x0:0xdf3221c33734db6e,
perumahan,Komplek perumahan,Oncu Ajis,"MX3J+PJJ, Balela, Kec. Larantuka, Kabupaten Flores Timur, Nusa Tenggara Tim.","Kabupaten Flores Timur, Nusa Tenggara Tim.",NUSA TENGGARA TIMUR,,Indonesia,,,,-8.3456574,122.9815132,https://maps.google.com/?cid=0x0:0x20a87b6fd0067d4,
perumahan,Komplek perumahan,Agung riberu,"MX3J+8GX, Balela, Kec. Larantuka, Kabupaten Flores Timur, Nusa Tenggara Tim.","Kabupaten Flores Timur, Nusa Tenggara Tim.",NUSA TENGGARA TIMUR,,Indonesia,,,,-8.3466301,122.9813493,https://maps.google.com/?cid=0x0:0xebacf380ae50f9c0,
perumahan,Perhimpunan Pengembang Perumahan,MATA POCY COMPLEX,"MX3J+8GX, Balela, Kec. Larantuka, Kabupaten Flores Timur, Nusa Tenggara Tim.","Kabupaten Flores Timur, Nusa Tenggara Tim.",NUSA TENGGARA TIMUR,,Indonesia,,,,-8.3467376,122.9814298,https://maps.google.com/?cid=0x0:0xaa31104d9f101ee3,
perumahan,perumahan,Rumah sinta,"MX3J+WH2, Pohon Sirih, Kec. Larantuka, Kabupaten Flores Timur, Nusa Tenggara Tim.","Kabupaten Flores Timur, Nusa Tenggara Tim.",NUSA TENGGARA TIMUR,,Indonesia,,,,-8.3452356,122.9813914,https://maps.google.com/?cid=0x0:0x6cc4e51d110f5e01,
perumahan,perumahan,Nusa Tenggara Tim.,,Nusa Tenggara Tim.,NUSA TENGGARA TIMUR,,Indonesia,,,,-8.6573819,121.0793705,https://maps.google.com/?cid=0x0:0x1030bfbcaf71ae0,
perumahan,Komplek perumahan,Perumahan Nagi Permai,"M2Q6+5X8, Sarotari, Kec. Larantuka, Kabupaten Flores Timur, Nusa Tenggara Tim.","Kabupaten Flores Timur, Nusa Tenggara Tim.",NUSA TENGGARA TIMUR,,Indonesia,,,,-8.3120868,123.0124555,https://maps.google.com/?cid=0x0:0xe05f5f4f1a766a3,
perumahan,Komplek perumahan,Asrama polisi blok A no 15,"Jl. Herman Fernandez No.76, Amagarapati, Kec. Larantuka, Kabupaten Flores Timur, Nusa Tenggara Tim. 86219","Amagarapati, Kec. Larantuka, Kabupaten Flores Timur",NUSA TENGGARA TIMUR,86219.0,Indonesia,,,,-8.3348888,122.9936516,https://maps.google.com/?cid=0x0:0x7a2a892351bc22b1,
perumahan,Komplek perumahan,Rumah JR.RUING,"M2J6+8QP belakang dinas penanaman modal, Lorong sinar saron, Sarotari, Kec. Larantuka, Kabupaten Flores Timur, Nusa Tenggara Tim. 86219","Lorong sinar saron, Sarotari, Kec. Larantuka, Kabupaten Flores Timur",NUSA TENGGARA TIMUR,86219.0,Indonesia,,,,-8.319154,123.0119553,https://maps.google.com/?cid=0x0:0x9ade8e9b0c3adaae,
perumahan,Penginapan,Rumah Kost Emanuel Diaz,"Kota rowido, Kec. Larantuka, Kabupaten Flores Timur, Nusa Tenggara Tim. 86219","Kec. Larantuka, Kabupaten Flores Timur",NUSA TENGGARA TIMUR,86219.0,Indonesia,85239366999.0,,,-8.3178068,123.0145605,https://maps.google.com/?cid=0x0:0x34e425610cf81f43,
perumahan,perumahan,Larantuka Beach Homestay,"Sarotari, Kec. Larantuka, Kabupaten Flores Timur, Nusa Tenggara Tim. 86219","Kec. Larantuka, Kabupaten Flores Timur",NUSA TENGGARA TIMUR,86219.0,Indonesia,81238265501.0,,,-8.3141958,123.0203085,https://maps.google.com/?cid=0x0:0x5693c374a2f514ed,
perumahan,Gereja Katolik,Kapela Tuan Meninu,"M2H8+V86, Kota Rowido Bawah, Sarotari, Larantuka, East Flores Regency, East Nusa Tenggara","Kabupaten Flores Timur, Nusa Tenggara Tim.",NUSA TENGGARA TIMUR,,Indonesia,,,,-8.3203432,123.0157643,https://maps.google.com/?cid=0x0:0xff0823e62e14d99d,
perumahan,Restoran,Jagal Sapi Larantuka,"Lorong TKK Anfrida, Sarotari, Kec. Larantuka, Kota Rowido, Nusa Tenggara Tim. 86219","Sarotari, Kec. Larantuka, Kota Rowido",NUSA TENGGARA TIMUR,86219.0,Indonesia,81338022775.0,,,-8.3175005,123.0145886,https://maps.google.com/?cid=0x0:0x37008d188045ddc7,
perumahan,Perhimpunan Pengembang Perumahan,Griya Lorentina,"M2R8+7Q5, Weri, Kec. Larantuka, Kabupaten Flores Timur, Nusa Tenggara Tim.","Kabupaten Flores Timur, Nusa Tenggara Tim.",NUSA TENGGARA TIMUR,,Indonesia,,,,-8.3093517,123.0169909,https://maps.google.com/?cid=0x0:0x7f7845e5455cd27a,
perumahan,Toko,Agen Susu Osamilk Larantuka,"Perumahan Batuata Blok K No. 03, RT.018/RW.007, Pohon Bao, Kec. Larantuka, Kabupaten Flores Timur, Nusa Tenggara Tim. 86219","RT.018/RW.007, Pohon Bao, Kec. Larantuka, Kabupaten Flores Timur",NUSA TENGGARA TIMUR,86219.0,Indonesia,81246717174.0,,,-8.3257394,122.9997467,https://maps.google.com/?cid=0x0:0x1bbdac69e94943b2,
perumahan,perumahan,Architect,"LEWOLEMA, Bantala, Kec. Larantuka, Nusa Tenggara Tim. 86219","Bantala, Kec. Larantuka",NUSA TENGGARA TIMUR,86219.0,Indonesia,81236821801.0,,,-8.2898892,122.9178678,https://maps.google.com/?cid=0x0:0xfb9287a9b77dadc0,
perumahan,Pembangunan Perumahan,Digy Homeschooling NTT,"Perumahan Batuata, Blok K, Puken Tobi Wangi Bao, Kec. Larantuka, Kabupaten Flores Timur, Nusa Tenggara Tim. 86219","Blok K, Puken Tobi Wangi Bao, Kec. Larantuka, Kabupaten Flores Timur",NUSA TENGGARA TIMUR,86219.0,Indonesia,81246717174.0,,,-8.3256158,122.9997856,https://maps.google.com/?cid=0x0:0x77d5247aa4a0fb58,
perumahan,perumahan,Asa Hotel  Restaurant,"Jl. Soekarno - Hatta, Weri, Kec. Larantuka, Kabupaten Flores Timur, Nusa Tenggara Tim.","Kabupaten Flores Timur, Nusa Tenggara Tim.",NUSA TENGGARA TIMUR,,Indonesia,,,,-8.2992509,123.0177493,https://maps.google.com/?cid=0x0:0x279deba69fbea54e,
perumahan,Kafe,La Bianca by KaffeerÃ¶st,"M2M8+VH5, Sarotari, Kec. Larantuka, Kabupaten Flores Timur, Nusa Tenggara Tim. 86219","Sarotari, Kec. Larantuka, Kabupaten Flores Timur",NUSA TENGGARA TIMUR,86219.0,Indonesia,81285726411.0,,,-8.31531,123.0164484,https://maps.google.com/?cid=0x0:0x42e87ab0eab917e0,
perumahan,Gedung Apartemen,Rumah serba guna Tabali,"Tabali, RT.08/RW.005, Sarotari, Kec. Larantuka, Kabupaten Flores Timur, Nusa Tenggara Tim. 86219","RT.08/RW.005, Sarotari, Kec. Larantuka, Kabupaten Flores Timur",NUSA TENGGARA TIMUR,86219.0,Indonesia,82247586746.0,,,-8.3217396,123.0069168,https://maps.google.com/?cid=0x0:0x1b12525a3b110ae6,
perumahan,Kantor Perusahaan,Agen Sabun Cuci Piring Biolemon,"Perumahan Batuata Blok. K. No. 3 Kelurahan, Pohon Bao, Kec. Larantuka, Nusa Tenggara Tim. 86219","Pohon Bao, Kec. Larantuka",NUSA TENGGARA TIMUR,86219.0,Indonesia,82348215611.0,,,-8.3257046,122.9997242,https://maps.google.com/?cid=0x0:0x977332963620e31,
perumahan,Restoran,Lopo diego,"Sarotari, Kec. Larantuka, Kabupaten Flores Timur, Nusa Tenggara Tim. 86219","Kec. Larantuka, Kabupaten Flores Timur",NUSA TENGGARA TIMUR,86219.0,Indonesia,82144151568.0,,,-8.315743,123.0172478,https://maps.google.com/?cid=0x0:0x9cb03f5c35134b9e,
perumahan,Kantor Pemerintah Distrik,Program Beasiswa Kuliah Dalam dan Luar Negeri,"Perumahan Batuata, Ekasapta, Kec. Larantuka, Kabupaten Flores Timur, Nusa Tenggara Tim. 86219","Ekasapta, Kec. Larantuka, Kabupaten Flores Timur",NUSA TENGGARA TIMUR,86219.0,Indonesia,81246717174.0,,,-8.3284258,122.997771,https://maps.google.com/?cid=0x0:0xb3cb24242183995c,
perumahan,Pondok,Kost Emanuel,"M2G5+MJJ, Sarotari, Kec. Larantuka, Kabupaten Flores Timur, Nusa Tenggara Tim.","Kabupaten Flores Timur, Nusa Tenggara Tim.",NUSA TENGGARA TIMUR,,Indonesia,,,,-8.3230408,123.0089227,https://maps.google.com/?cid=0x0:0x99f7398c92e4981,
perumahan,Komplek perumahan,Lebaowenzha,"Puken Tobi Wangi Bao, Kec. Larantuka, Kabupaten Flores Timur, Nusa Tenggara Tim. 86219","Kec. Larantuka, Kabupaten Flores Timur",NUSA TENGGARA TIMUR,86219.0,Indonesia,81238950822.0,,,-8.3248402,123.0040281,https://maps.google.com/?cid=0x0:0x2cc196a625d35d05,
perumahan,Perhimpunan Pengembang Perumahan,Desa watotika ile,"JV43+55R, Lewokluok, Kec. Demon Pagong, Kabupaten Flores Timur, Nusa Tenggara Tim.","Kabupaten Flores Timur, Nusa Tenggara Tim.",NUSA TENGGARA TIMUR,,Indonesia,,,,-8.3945194,122.8528997,https://maps.google.com/?cid=0x0:0x5e3e60cd600f5f49,
perumahan,perumahan,Larantuka,"Pohon Sirih, Kec. Larantuka, Kabupaten Flores Timur, Nusa Tenggara Tim.","Kabupaten Flores Timur, Nusa Tenggara Tim.",NUSA TENGGARA TIMUR,,Indonesia,,,,-8.3452356,122.9813914,https://maps.google.com/?cid=0x0:0x4eb6d148bb7ab09e,
perumahan,Komplek perumahan,ALS Complex,"MX3J+8GX, Larantuka, Kec. Larantuka, Kabupaten Flores Timur, Nusa Tenggara Tim.","Kabupaten Flores Timur, Nusa Tenggara Tim.",NUSA TENGGARA TIMUR,,Indonesia,,,,-8.3466361,122.9815273,https://maps.google.com/?cid=0x0:0x46201e768b77a022,
perumahan,Komplek perumahan,"Podor, Larantuka","MX3J+WH2, Dekat SD Inpres, Pohon Sirih, Podor, Kabupaten Flores Timur, Nusa Tenggara Tim.","Kabupaten Flores Timur, Nusa Tenggara Tim.",NUSA TENGGARA TIMUR,,Indonesia,,,,-8.3452356,122.9813914,https://maps.google.com/?cid=0x0:0xd962ec272c1a64cb,
perumahan,Komplek perumahan,Batumea,"MX3J+6H7, Batumea, Larantuka, Kec. Larantuka, Kabupaten Flores Timur, Nusa Tenggara Tim.","Kabupaten Flores Timur, Nusa Tenggara Tim.",NUSA TENGGARA TIMUR,,Indonesia,,,,-8.3469714,122.9814371,https://maps.google.com/?cid=0x0:0x4898fbcc68caf344,
perumahan,perumahan,RUMAH TITIN,"MX3J+WH2, Pohon Sirih, Kec. Larantuka, Kabupaten Flores Timur, Nusa Tenggara Tim.","Kabupaten Flores Timur, Nusa Tenggara Tim.",NUSA TENGGARA TIMUR,,Indonesia,,,,-8.3452356,122.9813914,https://maps.google.com/?cid=0x0:0x84f345fbedd2496d,
perumahan,perumahan,A C R,"MX3J+WH2, Pohon Sirih, Kec. Larantuka, Kabupaten Flores Timur, Nusa Tenggara Tim.","Kabupaten Flores Timur, Nusa Tenggara Tim.",NUSA TENGGARA TIMUR,,Indonesia,,,,-8.3452356,122.9813914,https://maps.google.com/?cid=0x0:0x712d66089ce4738e,
perumahan,Komplek perumahan,Posra,"MX4M+27C, Pohon Sirih, Kec. Larantuka, Kabupaten Flores Timur, Nusa Tenggara Tim.","Kabupaten Flores Timur, Nusa Tenggara Tim.",NUSA TENGGARA TIMUR,,Indonesia,,,,-8.3449317,122.9831524,https://maps.google.com/?cid=0x0:0x3a5af0b567d8bf78,
perumahan,Komplek perumahan,Alfons riberu,"MX3J+VFM, Balela, Kec. Larantuka, Kabupaten Flores Timur, Nusa Tenggara Tim.","Kabupaten Flores Timur, Nusa Tenggara Tim.",NUSA TENGGARA TIMUR,,Indonesia,,,,-8.3452849,122.9812013,https://maps.google.com/?cid=0x0:0xf9f1abeae8caab96,
perumahan,Perumahan,Lewolema,"PV7V+76M dusun 01, RT.03/RW.02, Riangkotek, Kec. Lewolema, Kabupaten Flores Timur, Nusa Tenggara Tim.","Kabupaten Flores Timur, Nusa Tenggara Tim.",NUSA TENGGARA TIMUR,,Indonesia,,,,-8.2867847,122.8930441,https://maps.google.com/?cid=0x0:0xd9ee3c39aee3075e,
perumahan,Komplek perumahan,Perumahan,"PW7G+M74, Painapang, Kec. Lewolema, Kabupaten Flores Timur, Nusa Tenggara Tim.","Kabupaten Flores Timur, Nusa Tenggara Tim.",NUSA TENGGARA TIMUR,,Indonesia,,,,-8.286052,122.925741,https://maps.google.com/?cid=0x0:0x95575d126c641816,
perumahan,perumahan,Kec. Lewolema,"Kabupaten Flores Timur, Nusa Tenggara Tim.","Kabupaten Flores Timur, Nusa Tenggara Tim.",NUSA TENGGARA TIMUR,,Indonesia,,,,-8.289988,122.9156542,https://maps.google.com/?cid=0x0:0x171191025c545591,
perumahan,perumahan,Rumah,"PW6C+JCP, Bantala, Kec. Lewolema, Kabupaten Flores Timur, Nusa Tenggara Tim.","Kabupaten Flores Timur, Nusa Tenggara Tim.",NUSA TENGGARA TIMUR,,Indonesia,,,,-8.2884127,122.9210754,https://maps.google.com/?cid=0x0:0xdc5348998a1ed6a,
perumahan,Komplek perumahan,LASKAR7I Kompleks,"PW59+Q49, Bantala, Kec. Lewolema, Kabupaten Flores Timur, Nusa Tenggara Tim.","Kabupaten Flores Timur, Nusa Tenggara Tim.",NUSA TENGGARA TIMUR,,Indonesia,,,,-8.2905802,122.9178688,https://maps.google.com/?cid=0x0:0xaf9e28c4d20dbdfa,
perumahan,Pembangunan Perumahan,Kebakut Wolon,"PWF2+GQ9, Sinar Hading, Kec. Lewolema, Kabupaten Flores Timur, Nusa Tenggara Tim.","Kabupaten Flores Timur, Nusa Tenggara Tim.",NUSA TENGGARA TIMUR,,Indonesia,,,,-8.2766782,122.902529,https://maps.google.com/?cid=0x0:0xeb4661d0578a6420,
perumahan,,Rumah,"PW59+GV9, Bantala, Kec. Lewolema, Kabupaten Flores Timur, Nusa Tenggara Tim.","Kabupaten Flores Timur, Nusa Tenggara Tim.",NUSA TENGGARA TIMUR,,Indonesia,,,,-8.2912072,122.9197256,https://maps.google.com/?cid=0x0:0xe2ddddcf3219f636,
perumahan,Komplek perumahan,Pondok Kelolar,"PW69+24X, Unnamed Road, Bantala, Kec. Lewolema, Kabupaten Flores Timur, Nusa Tenggara Tim.","Kabupaten Flores Timur, Nusa Tenggara Tim.",NUSA TENGGARA TIMUR,,Indonesia,,,,-8.2898894,122.9178681,https://maps.google.com/?cid=0x0:0x2e4775197c11b624,
perumahan,Komplek perumahan,Tata F Home,"MVRC+V5Q, Ile Padung, Kec. Lewolema, Kabupaten Flores Timur, Nusa Tenggara Tim.","Kabupaten Flores Timur, Nusa Tenggara Tim.",NUSA TENGGARA TIMUR,,Indonesia,,,,-8.3077811,122.8704925,https://maps.google.com/?cid=0x0:0xb6c23675c96661c4,
perumahan,perumahan,Rumah Proff,"PW69+35C, Bantala, Kec. Lewolema, Kabupaten Flores Timur, Nusa Tenggara Tim.","Kabupaten Flores Timur, Nusa Tenggara Tim.",NUSA TENGGARA TIMUR,,Indonesia,,,,-8.2898191,122.9179053,https://maps.google.com/?cid=0x0:0xb144855062bd8f77,
perumahan,perumahan,Rumah Alzena,"PV5M+39, Ile Padung, Kec. Lewolema, Kabupaten Flores Timur, Nusa Tenggara Tim.","Kabupaten Flores Timur, Nusa Tenggara Tim.",NUSA TENGGARA TIMUR,,Indonesia,,,,-8.2923903,122.8821481,https://maps.google.com/?cid=0x0:0xf6f82828269b00be,
perumahan,Pembangunan Perumahan,Qurinus,"PVGV+4JW, Sinar Hading, Kec. Lewolema, Kabupaten Flores Timur, Nusa Tenggara Tim.","Kabupaten Flores Timur, Nusa Tenggara Tim.",NUSA TENGGARA TIMUR,,Indonesia,,,,-8.273604,122.894845,https://maps.google.com/?cid=0x0:0x454576ec9ac46dbf,
perumahan,perumahan,Enny R,"PW8G+7QW, Painapang, Kec. Lewolema, Kabupaten Flores Timur, Nusa Tenggara Tim.","Kabupaten Flores Timur, Nusa Tenggara Tim.",NUSA TENGGARA TIMUR,,Indonesia,,,,-8.2842658,122.9269491,https://maps.google.com/?cid=0x0:0xf1cd59dbdca20055,
perumahan,Komplek perumahan,Kompleks Naralima,"PW4C+R74, Unnamed Rd, Bantala, Kec. Lewolema, Kabupaten Flores Timur, Nusa Tenggara Tim.","Kabupaten Flores Timur, Nusa Tenggara Tim.",NUSA TENGGARA TIMUR,,Indonesia,,,,-8.2929874,122.9206989,https://maps.google.com/?cid=0x0:0xa8834618886dfd6a,
perumahan,Komplek perumahan,Lewotala ancibol,"PW59+PMC, Bantala, Kec. Lewolema, Kabupaten Flores Timur, Nusa Tenggara Tim.","Kabupaten Flores Timur, Nusa Tenggara Tim.",NUSA TENGGARA TIMUR,,Indonesia,,,,-8.2907064,122.9191587,https://maps.google.com/?cid=0x0:0xb3189fc535d69a2c,
perumahan,Komplek perumahan,Asis,"PVGV+4JW, Sinar Hading, Kec. Lewolema, Kabupaten Flores Timur, Nusa Tenggara Tim.","Kabupaten Flores Timur, Nusa Tenggara Tim.",NUSA TENGGARA TIMUR,,Indonesia,,,,-8.273175,122.894958,https://maps.google.com/?cid=0x0:0xeb3a9e59a0e98b32,
perumahan,Komplek perumahan,XTC COMPLEX,"PW68+3HR, Riangkotek, Kec. Lewolema, Kabupaten Flores Timur, Nusa Tenggara Tim.","Kabupaten Flores Timur, Nusa Tenggara Tim.",NUSA TENGGARA TIMUR,,Indonesia,,,,-8.2897595,122.9164058,https://maps.google.com/?cid=0x0:0xe06ff0b886f4cef9,
perumahan,Komplek perumahan,ARARURON,"PW6G+VPC, Painapang, Kec. Lewolema, Kabupaten Flores Timur, Nusa Tenggara Tim.","Kabupaten Flores Timur, Nusa Tenggara Tim.",NUSA TENGGARA TIMUR,,Indonesia,,,,-8.287708,122.9267349,https://maps.google.com/?cid=0x0:0xaeabfe431c2487ef,
perumahan,Pembangunan Perumahan,Lorong bunga lama rebo,"PVGW+X9W, Lorong bunga lama rebo, Sinar Hading, Kec. Lewolema, Kabupaten Flores Timur, Nusa Tenggara Tim.","Kabupaten Flores Timur, Nusa Tenggara Tim.",NUSA TENGGARA TIMUR,,Indonesia,,,,-8.2725205,122.8959502,https://maps.google.com/?cid=0x0:0x3872cd4863cae7cc,
perumahan,Tempat Religius,Lamatou,"PW7G+8C8, Lamatou, RT.05/RW.3, Painapang, Kec. Lewolema, Kabupaten Flores Timur, Nusa Tenggara Tim.","Kabupaten Flores Timur, Nusa Tenggara Tim.",NUSA TENGGARA TIMUR,,Indonesia,,,,-8.2867025,122.9260726,https://maps.google.com/?cid=0x0:0xd53c14f8c023a450,
perumahan,Komplek perumahan,Ancibol Kompleks Atas,"PW59+M6X, Unnamed Road, Bantala, Kec. Lewolema, Kabupaten Flores Timur, Nusa Tenggara Tim.","Kabupaten Flores Timur, Nusa Tenggara Tim.",NUSA TENGGARA TIMUR,,Indonesia,,,,-8.2907547,122.9181179,https://maps.google.com/?cid=0x0:0x5b4e11f48aa1edd8,
perumahan,Pembangunan Perumahan,Kornelis Bopo Hewen,"QW3G+MP5, Painapang, Kec. Lewolema, Kabupaten Flores Timur, Nusa Tenggara Tim.","Kabupaten Flores Timur, Nusa Tenggara Tim.",NUSA TENGGARA TIMUR,,Indonesia,,,,-8.2458704,122.926862,https://maps.google.com/?cid=0x0:0x63c2cce7e431934a,
perumahan,Komplek perumahan,Aurel santaana ruron,"PW7G+38F, Painapang, Kec. Lewolema, Kabupaten Flores Timur, Nusa Tenggara Tim.","Kabupaten Flores Timur, Nusa Tenggara Tim.",NUSA TENGGARA TIMUR,,Indonesia,,,,-8.287307,122.9257937,https://maps.google.com/?cid=0x0:0x77613fce86e6ba2e,
perumahan,perumahan,Kec. Solor Bar.,"Kabupaten Flores Timur, Nusa Tenggara Tim.","Kabupaten Flores Timur, Nusa Tenggara Tim.",NUSA TENGGARA TIMUR,,Indonesia,,,,-8.5289776,122.8843335,https://maps.google.com/?cid=0x0:0x5e00c8168cd8d46f,
perumahan,Komplek perumahan,Kost tercinta,"FV8M+CV, Ritaebang, Kec. Solor Bar., Kabupaten Flores Timur, Nusa Tenggara Tim.","Kabupaten Flores Timur, Nusa Tenggara Tim.",NUSA TENGGARA TIMUR,,Indonesia,,,,-8.533946,122.8846339,https://maps.google.com/?cid=0x0:0xf2e22114945531d7,
perumahan,Komplek perumahan,R.M,"GXM7+49X, Balaweling II, Kec. Solor Bar., Kabupaten Flores Timur, Nusa Tenggara Tim.","Kabupaten Flores Timur, Nusa Tenggara Tim.",NUSA TENGGARA TIMUR,,Indonesia,,,,-8.4671434,122.9634852,https://maps.google.com/?cid=0x0:0x73b4dd5daf8524a0,
perumahan,Komplek perumahan,Randi moron,"GX72+R79, Dani Wato, Kec. Solor Bar., Kabupaten Flores Timur, Nusa Tenggara Tim.","Kabupaten Flores Timur, Nusa Tenggara Tim.",NUSA TENGGARA TIMUR,,Indonesia,,,,-8.4854597,122.9507346,https://maps.google.com/?cid=0x0:0x1cb4db80a392f98f,
perumahan,Perhimpunan Pengembang Perumahan,Tanahlein,"CV6X+2G7, Tanah Lein, Kec. Solor Bar., Kabupaten Flores Timur, Nusa Tenggara Tim.","Kabupaten Flores Timur, Nusa Tenggara Tim.",NUSA TENGGARA TIMUR,,Indonesia,,,,-8.589963,122.8987824,https://maps.google.com/?cid=0x0:0x3060f914a5d5fb5a,
perumahan,Komplek perumahan,Lingkar luar a.u.d,"HX7H+9RC, Pamakayo, Kec. Solor Bar., Kabupaten Flores Timur, Nusa Tenggara Tim.","Kabupaten Flores Timur, Nusa Tenggara Tim.",NUSA TENGGARA TIMUR,,Indonesia,,,,-8.4364442,122.9786185,https://maps.google.com/?cid=0x0:0x3008c48bada84bb1,
perumahan,perumahan,Vega,"HX27+894, Balaweling I, Kec. Solor Bar., Kabupaten Flores Timur, Nusa Tenggara Tim.","Kabupaten Flores Timur, Nusa Tenggara Tim.",NUSA TENGGARA TIMUR,,Indonesia,,,,-8.449433,122.963411,https://maps.google.com/?cid=0x0:0xa88569f302c0d895,
perumahan,Komplek perumahan,Bronzon Home,"GX72+MFH, Dani Wato, Kec. Solor Bar., Kabupaten Flores Timur, Nusa Tenggara Tim.","Kabupaten Flores Timur, Nusa Tenggara Tim.",NUSA TENGGARA TIMUR,,Indonesia,,,,-8.4861143,122.9511238,https://maps.google.com/?cid=0x0:0x8a4d04f8dcfdb15e,
perumahan,Komplek perumahan,Gzn complex,"GX42+3JC, Nusadani, Kec. Solor Bar., Kabupaten Flores Timur, Nusa Tenggara Tim.","Kabupaten Flores Timur, Nusa Tenggara Tim.",NUSA TENGGARA TIMUR,,Indonesia,,,,-8.4948171,122.9515252,https://maps.google.com/?cid=0x0:0x5dc14c7de7d3c00e,
perumahan,Komplek perumahan,Norbert Belang,"HX7M+92F, Lewonama, Kec. Solor Bar., Kabupaten Flores Timur, Nusa Tenggara Tim.","Kabupaten Flores Timur, Nusa Tenggara Tim.",NUSA TENGGARA TIMUR,,Indonesia,,,,-8.4365803,122.9825178,https://maps.google.com/?cid=0x0:0x5afc75edb5050f31,
perumahan,Perhimpunan Pengembang Perumahan,ApisGz,"GX42+3JC, Nusadani, Kec. Solor Bar., Kabupaten Flores Timur, Nusa Tenggara Tim.","Kabupaten Flores Timur, Nusa Tenggara Tim.",NUSA TENGGARA TIMUR,,Indonesia,,,,-8.4941762,122.9513498,https://maps.google.com/?cid=0x0:0xd58177fa279d67d5,
perumahan,Komplek perumahan,MN,"G2GH+6PG, Lewograran, Kec. Solor Sel., Kabupaten Flores Timur, Nusa Tenggara Tim.","Kabupaten Flores Timur, Nusa Tenggara Tim.",NUSA TENGGARA TIMUR,,Indonesia,,,,-8.4744486,123.0293385,https://maps.google.com/?cid=0x0:0xa41486cfec172a4c,
perumahan,Komplek perumahan,Rumah Remon,"G2X9+GJM, Karawatung, Kec. Solor Bar., Kabupaten Flores Timur, Nusa Tenggara Tim.","Kabupaten Flores Timur, Nusa Tenggara Tim.",NUSA TENGGARA TIMUR,,Indonesia,,,,-8.4511685,123.0190569,https://maps.google.com/?cid=0x0:0x309efdd08962ca7f,
perumahan,Komplek perumahan,Dusun Lewolein,"CVRV+MJ, Lamaole, Kec. Solor Bar., Kabupaten Flores Timur, Nusa Tenggara Tim.","Kabupaten Flores Timur, Nusa Tenggara Tim.",NUSA TENGGARA TIMUR,,Indonesia,,,,-8.558755,122.894267,https://maps.google.com/?cid=0x0:0x4baac981d6bd26be,
perumahan,Komplek perumahan,Rumah bapa suba,"CWQ3+RP4, Lamaole, Kec. Solor Bar., Kabupaten Flores Timur, Nusa Tenggara Tim.","Kabupaten Flores Timur, Nusa Tenggara Tim.",NUSA TENGGARA TIMUR,,Indonesia,,,,-8.5604894,122.904318,https://maps.google.com/?cid=0x0:0x3322d15206394c3f,
perumahan,Komplek perumahan,Rumah Jompok,"GW2W+CF, Nusadani, Kec. Solor Bar., Kabupaten Flores Timur, Nusa Tenggara Tim.","Kabupaten Flores Timur, Nusa Tenggara Tim.",NUSA TENGGARA TIMUR,,Indonesia,,,,-8.4989906,122.9461658,https://maps.google.com/?cid=0x0:0xe1c66e911d211db5,
perumahan,perumahan,Perumahan erkalima,"GXXP+MCC, Pamakayo, Kec. Solor Bar., Kabupaten Flores Timur, Nusa Tenggara Tim.","Kabupaten Flores Timur, Nusa Tenggara Tim.",NUSA TENGGARA TIMUR,,Indonesia,,,,-8.4508069,122.9860159,https://maps.google.com/?cid=0x0:0xda8a379d7d4d3c6d,
perumahan,Perumahan,Ehanganteng,"HX49+26V, Balaweling I, Kec. Solor Bar., Kabupaten Flores Timur, Nusa Tenggara Tim.","Kabupaten Flores Timur, Nusa Tenggara Tim.",NUSA TENGGARA TIMUR,,Indonesia,,,,-8.4448454,122.9680181,https://maps.google.com/?cid=0x0:0x238f3e433eda5c83,
perumahan,Pembangunan Perumahan,Rumah EK lingkungan Santo Yoseph,"FVGP+323 lingkungan Santo Yoseph, Ritaebang, Kec. Solor Bar., Kabupaten Flores Timur, Nusa Tenggara Tim.","Kabupaten Flores Timur, Nusa Tenggara Tim.",NUSA TENGGARA TIMUR,,Indonesia,,,,-8.5259821,122.8851302,https://maps.google.com/?cid=0x0:0x492a2de0b59805e7,
perumahan,Komplek perumahan,RWC Komplex,"H245+34M, Ongalereng, Kec. Solor Bar., Kabupaten Flores Timur, Nusa Tenggara Tim.","Kabupaten Flores Timur, Nusa Tenggara Tim.",NUSA TENGGARA TIMUR,,Indonesia,,,,-8.444787,123.0078063,https://maps.google.com/?cid=0x0:0x758ac12947e2eb39,
perumahan,Komplek perumahan,Tukhanputra-official,"H228+4CP, Karawatung, Kec. Solor Bar., Kabupaten Flores Timur, Nusa Tenggara Tim.","Kabupaten Flores Timur, Nusa Tenggara Tim.",NUSA TENGGARA TIMUR,,Indonesia,,,,-8.4496578,123.0160899,https://maps.google.com/?cid=0x0:0xfa4bd0b89e0127f4,
perumahan,Pembangunan Perumahan,Melisa Ipir,"HX6P+JJG, Pamakayo, Kec. Solor Bar., Kabupaten Flores Timur, Nusa Tenggara Tim.","Kabupaten Flores Timur, Nusa Tenggara Tim.",NUSA TENGGARA TIMUR,,Indonesia,,,,-8.4380221,122.9867677,https://maps.google.com/?cid=0x0:0x8be341eaf72e7b19,
perumahan,Komplek perumahan,Yegan lewar,"HX6P+HRX, Pamakayo, Kec. Solor Bar., Kabupaten Flores Timur, Nusa Tenggara Tim.","Kabupaten Flores Timur, Nusa Tenggara Tim.",NUSA TENGGARA TIMUR,,Indonesia,,,,-8.4385233,122.9870996,https://maps.google.com/?cid=0x0:0xccf4a2ca218721c5,
perumahan,perumahan,Kec. Solor Sel.,"Kabupaten Flores Timur, Nusa Tenggara Tim.","Kabupaten Flores Timur, Nusa Tenggara Tim.",NUSA TENGGARA TIMUR,,Indonesia,,,,-8.4779937,123.0181263,https://maps.google.com/?cid=0x0:0xc1777756a42d0e72,
perumahan,Pembangunan Perumahan,Rumah JEVAN,"G242+92H, Lemanu, Kec. Solor Sel., Kabupaten Flores Timur, Nusa Tenggara Tim.","Kabupaten Flores Timur, Nusa Tenggara Tim.",NUSA TENGGARA TIMUR,,Indonesia,,,,-8.4934662,123.0001157,https://maps.google.com/?cid=0x0:0xbbb6ed15fdecd9c6,
perumahan,Komplek perumahan,Rumah Melani,"GX2V+MFX, Kenere, Kec. Solor Sel., Kabupaten Flores Timur, Nusa Tenggara Tim.","Kabupaten Flores Timur, Nusa Tenggara Tim.",NUSA TENGGARA TIMUR,,Indonesia,,,,-8.497353,122.994506,https://maps.google.com/?cid=0x0:0xab5303952c3a673,
perumahan,Komplek perumahan,á´‹á´á´á´˜ÊŸá´‡á´‹ ÊŸá´Ê€á´‡É´á´€,"FXVC+9Q3, Sulengwaseng, Kec. Solor Sel., Kabupaten Flores Timur, Nusa Tenggara Tim.","Kabupaten Flores Timur, Nusa Tenggara Tim.",NUSA TENGGARA TIMUR,,Indonesia,,,,-8.5066242,122.9719348,https://maps.google.com/?cid=0x0:0x5b77deff7a641e59,
perumahan,Pembangunan Perumahan,Lemanu,"G243+V3W, Unnamed Road, Lemanu, Kec. Solor Sel., Kabupaten Flores Timur, Nusa Tenggara Tim.","Kabupaten Flores Timur, Nusa Tenggara Tim.",NUSA TENGGARA TIMUR,,Indonesia,81808510058.0,,,-8.4927572,123.0027056,https://maps.google.com/?cid=0x0:0x6c70e69c3a992140,
perumahan,Komplek perumahan,TARSON SOGEN,"G297+GF2, Kalike, Kec. Solor Sel., Kabupaten Flores Timur, Nusa Tenggara Tim.","Kabupaten Flores Timur, Nusa Tenggara Tim.",NUSA TENGGARA TIMUR,,Indonesia,,,,-8.4811395,123.0134248,https://maps.google.com/?cid=0x0:0x62132994da441f08,
perumahan,Komplek perumahan,MN,"G2GH+6PG, Lewograran, Kec. Solor Sel., Kabupaten Flores Timur, Nusa Tenggara Tim.","Kabupaten Flores Timur, Nusa Tenggara Tim.",NUSA TENGGARA TIMUR,,Indonesia,,,,-8.4744486,123.0293385,https://maps.google.com/?cid=0x0:0xa41486cfec172a4c,
perumahan,Produsen,Bengkel Kayu Om Simon,"GX2V+MFX, Kenere, Kec. Solor Sel., Kabupaten Flores Timur, Nusa Tenggara Tim.","Kabupaten Flores Timur, Nusa Tenggara Tim.",NUSA TENGGARA TIMUR,,Indonesia,,,,-8.4983111,122.9941368,https://maps.google.com/?cid=0x0:0x43cde4fb59c629b7,
perumahan,Perhimpunan Pengembang Perumahan,ALl WG,"G2CM+J43, Bubu Atagamu, Kec. Solor Sel., Kabupaten Flores Timur, Nusa Tenggara Tim.","Kabupaten Flores Timur, Nusa Tenggara Tim.",NUSA TENGGARA TIMUR,,Indonesia,,,,-8.4788885,123.0324072,https://maps.google.com/?cid=0x0:0xae1a94817abadd69,
perumahan,Komplek perumahan,Dusun Riangsuban,"G2FJ+Q2W GDM, KOMPLEX, Lewograran, Kec. Solor Sel., Kabupaten Flores Timur, Nusa Tenggara Tim.","Kabupaten Flores Timur, Nusa Tenggara Tim.",NUSA TENGGARA TIMUR,,Indonesia,,,,-8.4745343,123.0302357,https://maps.google.com/?cid=0x0:0x7709c554d33b9cc1,
perumahan,Komplek perumahan,Baligie,"GX3W+68, Kenere, Kec. Solor Sel., Kabupaten Flores Timur, Nusa Tenggara Tim.","Kabupaten Flores Timur, Nusa Tenggara Tim.",NUSA TENGGARA TIMUR,,Indonesia,,,,-8.4969526,122.9958157,https://maps.google.com/?cid=0x0:0xb326a14bd19183dd,
perumahan,Komplek perumahan,Anis Kolin,"G297+CFH, Kalike, Kec. Solor Sel., Kabupaten Flores Timur, Nusa Tenggara Tim.","Kabupaten Flores Timur, Nusa Tenggara Tim.",NUSA TENGGARA TIMUR,,Indonesia,82153264642.0,,,-8.4813433,123.013765,https://maps.google.com/?cid=0x0:0x393f5038a5ee4eeb,
perumahan,Komplek perumahan,Bronzon Home,"GX72+MFH, Dani Wato, Kec. Solor Bar., Kabupaten Flores Timur, Nusa Tenggara Tim.","Kabupaten Flores Timur, Nusa Tenggara Tim.",NUSA TENGGARA TIMUR,,Indonesia,,,,-8.4861143,122.9511238,https://maps.google.com/?cid=0x0:0x8a4d04f8dcfdb15e,
perumahan,Komplek perumahan,Rumah Viruz Huler,"FXVG+6R, Sulengwaseng, Kec. Solor Sel., Kabupaten Flores Timur, Nusa Tenggara Tim.","Kabupaten Flores Timur, Nusa Tenggara Tim.",NUSA TENGGARA TIMUR,,Indonesia,,,,-8.5069322,122.9770306,https://maps.google.com/?cid=0x0:0xb0d66f87e4cb0e01,
perumahan,Komplek perumahan,RANO LEWOK,"G2CM+J43, Bubu Atagamu, Kec. Solor Sel., Kabupaten Flores Timur, Nusa Tenggara Tim.","Kabupaten Flores Timur, Nusa Tenggara Tim.",NUSA TENGGARA TIMUR,,Indonesia,,,,-8.4790407,123.0320463,https://maps.google.com/?cid=0x0:0x6882a111ea4e620,
perumahan,Komplek perumahan,Ruma melky,"GX2V+J8R, RT.4/RW.3, dusun 2, Kenere, Kec. Solor Sel., Kabupaten Flores Timur, Nusa Tenggara Tim.","Kabupaten Flores Timur, Nusa Tenggara Tim.",NUSA TENGGARA TIMUR,,Indonesia,,,,-8.4983971,122.993264,https://maps.google.com/?cid=0x0:0xaf9b0ad30ecbf48c,
perumahan,Komplek perumahan,Rumah Asthy Werang,"G2CM+9FW, Bubu Atagamu, Kec. Solor Sel., Kabupaten Flores Timur, Nusa Tenggara Tim.","Kabupaten Flores Timur, Nusa Tenggara Tim.",NUSA TENGGARA TIMUR,,Indonesia,,,,-8.4790149,123.0336933,https://maps.google.com/?cid=0x0:0xb6f4c63fdea3d909,
perumahan,,Gonggong audio,"G2CM+F7C, Bubu Atagamu, Kec. Solor Sel., Kabupaten Flores Timur, Nusa Tenggara Tim.","Kabupaten Flores Timur, Nusa Tenggara Tim.",NUSA TENGGARA TIMUR,,Indonesia,,,,-8.4788019,123.0331272,https://maps.google.com/?cid=0x0:0x4feb583b477cb418,
perumahan,Komplek perumahan,Rumah Remon,"G2X9+GJM, Karawatung, Kec. Solor Bar., Kabupaten Flores Timur, Nusa Tenggara Tim.","Kabupaten Flores Timur, Nusa Tenggara Tim.",NUSA TENGGARA TIMUR,,Indonesia,,,,-8.4511685,123.0190569,https://maps.google.com/?cid=0x0:0x309efdd08962ca7f,
perumahan,Komplek perumahan,rumah aty,"G2V9+5W7, Karawatung, Kec. Solor Bar., Kabupaten Flores Timur, Nusa Tenggara Tim.","Kabupaten Flores Timur, Nusa Tenggara Tim.",NUSA TENGGARA TIMUR,,Indonesia,,,,-8.4570858,123.0198024,https://maps.google.com/?cid=0x0:0x5700c9f58d1a810f,
perumahan,Perhimpunan Pengembang Perumahan,Mey herin,"G297+FVJ, Kalike, Kec. Solor Sel., Kabupaten Flores Timur, Nusa Tenggara Tim.","Kabupaten Flores Timur, Nusa Tenggara Tim.",NUSA TENGGARA TIMUR,,Indonesia,,,,-8.4812875,123.0146406,https://maps.google.com/?cid=0x0:0xcc4312b5eb9adb59,
perumahan,Komplek perumahan,Rumah Ayu,"G2V9+5W7, Jl, RT.8/RW.4, Karawatung, Kec. Solor Bar., Kabupaten Flores Timur, Nusa Tenggara Tim.","Kabupaten Flores Timur, Nusa Tenggara Tim.",NUSA TENGGARA TIMUR,,Indonesia,,,,-8.4570858,123.0198024,https://maps.google.com/?cid=0x0:0xe472910ea2e926bd,
perumahan,perumahan,Kec. Solor Sel.,"Kabupaten Flores Timur, Nusa Tenggara Tim.","Kabupaten Flores Timur, Nusa Tenggara Tim.",NUSA TENGGARA TIMUR,,Indonesia,,,,-8.4779937,123.0181263,https://maps.google.com/?cid=0x0:0xc1777756a42d0e72,
perumahan,Pembangunan Perumahan,Lemanu,"G243+V3W, Unnamed Road, Lemanu, Kec. Solor Sel., Kabupaten Flores Timur, Nusa Tenggara Tim.","Kabupaten Flores Timur, Nusa Tenggara Tim.",NUSA TENGGARA TIMUR,,Indonesia,81808510058.0,,,-8.4927572,123.0027056,https://maps.google.com/?cid=0x0:0x6c70e69c3a992140,
perumahan,Komplek perumahan,LBF,"FXVG+HM6, Sulengwaseng, Kec. Solor Sel., Kabupaten Flores Timur, Nusa Tenggara Tim.","Kabupaten Flores Timur, Nusa Tenggara Tim.",NUSA TENGGARA TIMUR,,Indonesia,,,,-8.5060859,122.9766494,https://maps.google.com/?cid=0x0:0x6677389e9bf15735,
perumahan,Komplek perumahan,MN,"G2GH+6PG, Lewograran, Kec. Solor Sel., Kabupaten Flores Timur, Nusa Tenggara Tim.","Kabupaten Flores Timur, Nusa Tenggara Tim.",NUSA TENGGARA TIMUR,,Indonesia,,,,-8.4744486,123.0293385,https://maps.google.com/?cid=0x0:0xa41486cfec172a4c,
perumahan,Pembangunan Perumahan,Rumah JEVAN,"G242+92H, Lemanu, Kec. Solor Sel., Kabupaten Flores Timur, Nusa Tenggara Tim.","Kabupaten Flores Timur, Nusa Tenggara Tim.",NUSA TENGGARA TIMUR,,Indonesia,,,,-8.4934662,123.0001157,https://maps.google.com/?cid=0x0:0xbbb6ed15fdecd9c6,
perumahan,Komplek perumahan,Anis Kolin,"G297+CFH, Kalike, Kec. Solor Sel., Kabupaten Flores Timur, Nusa Tenggara Tim.","Kabupaten Flores Timur, Nusa Tenggara Tim.",NUSA TENGGARA TIMUR,,Indonesia,82153264642.0,,,-8.4813433,123.013765,https://maps.google.com/?cid=0x0:0x393f5038a5ee4eeb,
perumahan,Komplek perumahan,Rumah Melani,"GX2V+MFX, Kenere, Kec. Solor Sel., Kabupaten Flores Timur, Nusa Tenggara Tim.","Kabupaten Flores Timur, Nusa Tenggara Tim.",NUSA TENGGARA TIMUR,,Indonesia,,,,-8.497353,122.994506,https://maps.google.com/?cid=0x0:0xab5303952c3a673,
perumahan,Komplek perumahan,TARSON SOGEN,"G297+GF2, Kalike, Kec. Solor Sel., Kabupaten Flores Timur, Nusa Tenggara Tim.","Kabupaten Flores Timur, Nusa Tenggara Tim.",NUSA TENGGARA TIMUR,,Indonesia,,,,-8.4811395,123.0134248,https://maps.google.com/?cid=0x0:0x62132994da441f08,
perumahan,Komplek perumahan,Dusun Riangsuban,"G2FJ+Q2W GDM, KOMPLEX, Lewograran, Kec. Solor Sel., Kabupaten Flores Timur, Nusa Tenggara Tim.","Kabupaten Flores Timur, Nusa Tenggara Tim.",NUSA TENGGARA TIMUR,,Indonesia,,,,-8.4745343,123.0302357,https://maps.google.com/?cid=0x0:0x7709c554d33b9cc1,
perumahan,Komplek perumahan,RANO LEWOK,"G2CM+J43, Bubu Atagamu, Kec. Solor Sel., Kabupaten Flores Timur, Nusa Tenggara Tim.","Kabupaten Flores Timur, Nusa Tenggara Tim.",NUSA TENGGARA TIMUR,,Indonesia,,,,-8.4790407,123.0320463,https://maps.google.com/?cid=0x0:0x6882a111ea4e620,
perumahan,Komplek perumahan,Gzn complex,"GX42+3JC, Nusadani, Kec. Solor Bar., Kabupaten Flores Timur, Nusa Tenggara Tim.","Kabupaten Flores Timur, Nusa Tenggara Tim.",NUSA TENGGARA TIMUR,,Indonesia,,,,-8.4948171,122.9515252,https://maps.google.com/?cid=0x0:0x5dc14c7de7d3c00e,
perumahan,Komplek perumahan,Ruma melky,"GX2V+J8R, RT.4/RW.3, dusun 2, Kenere, Kec. Solor Sel., Kabupaten Flores Timur, Nusa Tenggara Tim.","Kabupaten Flores Timur, Nusa Tenggara Tim.",NUSA TENGGARA TIMUR,,Indonesia,,,,-8.4983971,122.993264,https://maps.google.com/?cid=0x0:0xaf9b0ad30ecbf48c,
perumahan,Perhimpunan Pengembang Perumahan,ALl WG,"G2CM+J43, Bubu Atagamu, Kec. Solor Sel., Kabupaten Flores Timur, Nusa Tenggara Tim.","Kabupaten Flores Timur, Nusa Tenggara Tim.",NUSA TENGGARA TIMUR,,Indonesia,,,,-8.4788885,123.0324072,https://maps.google.com/?cid=0x0:0xae1a94817abadd69,
perumahan,Komplek perumahan,R.M,"GXM7+49X, Balaweling II, Kec. Solor Bar., Kabupaten Flores Timur, Nusa Tenggara Tim.","Kabupaten Flores Timur, Nusa Tenggara Tim.",NUSA TENGGARA TIMUR,,Indonesia,,,,-8.4671434,122.9634852,https://maps.google.com/?cid=0x0:0x73b4dd5daf8524a0,
perumahan,Komplek perumahan,Rumah Asthy Werang,"G2CM+9FW, Bubu Atagamu, Kec. Solor Sel., Kabupaten Flores Timur, Nusa Tenggara Tim.","Kabupaten Flores Timur, Nusa Tenggara Tim.",NUSA TENGGARA TIMUR,,Indonesia,,,,-8.4790149,123.0336933,https://maps.google.com/?cid=0x0:0xb6f4c63fdea3d909,
perumahan,Produsen,Bengkel Kayu Om Simon,"GX2V+MFX, Kenere, Kec. Solor Sel., Kabupaten Flores Timur, Nusa Tenggara Tim.","Kabupaten Flores Timur, Nusa Tenggara Tim.",NUSA TENGGARA TIMUR,,Indonesia,,,,-8.4983111,122.9941368,https://maps.google.com/?cid=0x0:0x43cde4fb59c629b7,
perumahan,Perhimpunan Pengembang Perumahan,Mey herin,"G297+FVJ, Kalike, Kec. Solor Sel., Kabupaten Flores Timur, Nusa Tenggara Tim.","Kabupaten Flores Timur, Nusa Tenggara Tim.",NUSA TENGGARA TIMUR,,Indonesia,,,,-8.4812875,123.0146406,https://maps.google.com/?cid=0x0:0xcc4312b5eb9adb59,
perumahan,Komplek perumahan,ARDI KOLIN,"GX6P+3XV, Kenere, Kec. Solor Sel., Kabupaten Flores Timur, Nusa Tenggara Tim.","Kabupaten Flores Timur, Nusa Tenggara Tim.",NUSA TENGGARA TIMUR,,Indonesia,,,,-8.4897528,122.9874239,https://maps.google.com/?cid=0x0:0x9fbc08bee6af2aa7,
perumahan,Komplek perumahan,Bronzon Home,"GX72+MFH, Dani Wato, Kec. Solor Bar., Kabupaten Flores Timur, Nusa Tenggara Tim.","Kabupaten Flores Timur, Nusa Tenggara Tim.",NUSA TENGGARA TIMUR,,Indonesia,,,,-8.4861143,122.9511238,https://maps.google.com/?cid=0x0:0x8a4d04f8dcfdb15e,
perumahan,Komplek perumahan,Baligie,"GX3W+68, Kenere, Kec. Solor Sel., Kabupaten Flores Timur, Nusa Tenggara Tim.","Kabupaten Flores Timur, Nusa Tenggara Tim.",NUSA TENGGARA TIMUR,,Indonesia,,,,-8.4969526,122.9958157,https://maps.google.com/?cid=0x0:0xb326a14bd19183dd,
perumahan,Komplek perumahan,Rumah Ayu,"G2V9+5W7, Jl, RT.8/RW.4, Karawatung, Kec. Solor Bar., Kabupaten Flores Timur, Nusa Tenggara Tim.","Kabupaten Flores Timur, Nusa Tenggara Tim.",NUSA TENGGARA TIMUR,,Indonesia,,,,-8.4570858,123.0198024,https://maps.google.com/?cid=0x0:0xe472910ea2e926bd,
perumahan,perumahan,Kec. Solor Tim.,"Kabupaten Flores Timur, Nusa Tenggara Tim.","Kabupaten Flores Timur, Nusa Tenggara Tim.",NUSA TENGGARA TIMUR,,Indonesia,,,,-8.4650139,123.1213694,https://maps.google.com/?cid=0x0:0xa027534c79ffd422,
perumahan,Komplek perumahan,Rumah Sokle,"H37F+W9X, Jl. Balai Desa, RT.002/RW.001, Dusun I, Lohayong, Kec. Solor Tim., Kabupaten Flores Timur, Nusa Tenggara Tim.","Kabupaten Flores Timur, Nusa Tenggara Tim.",NUSA TENGGARA TIMUR,,Indonesia,,,,-8.4351441,123.0734882,https://maps.google.com/?cid=0x0:0x108cb14f880f33f,
perumahan,Pembangunan Perumahan,"Liwo, Solor Timur, Flores Timur.","G3VW+94C, Liwo, Kec. Solor Tim., Kabupaten Flores Timur, Nusa Tenggara Tim.","Kabupaten Flores Timur, Nusa Tenggara Tim.",NUSA TENGGARA TIMUR,,Indonesia,,,,-8.4565571,123.0952701,https://maps.google.com/?cid=0x0:0x1c7494dec873eb47,
perumahan,Pembangunan Perumahan,"Liwo, Nusa Tenggara Timur, Indonesia.","G3VW+7F3, Liwo, Kec. Solor Tim., Kabupaten Flores Timur, Nusa Tenggara Tim.","Kabupaten Flores Timur, Nusa Tenggara Tim.",NUSA TENGGARA TIMUR,,Indonesia,,,,-8.4568699,123.0961663,https://maps.google.com/?cid=0x0:0xfbbbfff904407790,
perumahan,Komplek perumahan,Rumah Mustafa Tuan,"H37H+C7G, Lohayong, Kec. Solor Tim., Kabupaten Flores Timur, Nusa Tenggara Tim.","Kabupaten Flores Timur, Nusa Tenggara Tim.",NUSA TENGGARA TIMUR,,Indonesia,,,,-8.4365327,123.0781355,https://maps.google.com/?cid=0x0:0x6a4364ee14838a79,
perumahan,Komplek perumahan,Rumah DeanPuan,"Watanhura, Kec. Solor Tim., Kabupaten Flores Timur, Nusa Tenggara Tim.","Kabupaten Flores Timur, Nusa Tenggara Tim.",NUSA TENGGARA TIMUR,,Indonesia,,,,-8.488405,123.0763146,https://maps.google.com/?cid=0x0:0x213e32509375ba69,
perumahan,perumahan,Onar (Audio),"H37M+29H, Menanga, Kec. Solor Tim., Kabupaten Flores Timur, Nusa Tenggara Tim.","Kabupaten Flores Timur, Nusa Tenggara Tim.",NUSA TENGGARA TIMUR,,Indonesia,,,,-8.4372312,123.0830942,https://maps.google.com/?cid=0x0:0x435b160c3c948bbc,
perumahan,Komplek perumahan,Rumah Remon,"G2X9+GJM, Karawatung, Kec. Solor Bar., Kabupaten Flores Timur, Nusa Tenggara Tim.","Kabupaten Flores Timur, Nusa Tenggara Tim.",NUSA TENGGARA TIMUR,,Indonesia,,,,-8.4511685,123.0190569,https://maps.google.com/?cid=0x0:0x309efdd08962ca7f,
perumahan,Komplek perumahan,Rumah Didin Narek,"H37J+W94, Lohayong, Kec. Solor Tim., Kabupaten Flores Timur, Nusa Tenggara Tim.","Kabupaten Flores Timur, Nusa Tenggara Tim.",NUSA TENGGARA TIMUR,,Indonesia,85238328338.0,,,-8.4359845,123.0812237,https://maps.google.com/?cid=0x0:0xcee12f48b7343e01,
perumahan,Perhimpunan Pengembang Perumahan,Rumah Samon,"H37H+C7G, Lohayong, Kec. Solor Tim., Kabupaten Flores Timur, Nusa Tenggara Tim.","Kabupaten Flores Timur, Nusa Tenggara Tim.",NUSA TENGGARA TIMUR,,Indonesia,,,,-8.4365639,123.0778797,https://maps.google.com/?cid=0x0:0xae8ccf5b71b7603,
perumahan,Pembangunan Perumahan,Big Family Tupan Gego,"G4PG+6CM, Watohari, Kec. Solor Tim., Kabupaten Flores Timur, Nusa Tenggara Tim.","Kabupaten Flores Timur, Nusa Tenggara Tim.",NUSA TENGGARA TIMUR,,Indonesia,,,,-8.4644104,123.1260481,https://maps.google.com/?cid=0x0:0x85ae0ec4a41204b2,
perumahan,Komplek perumahan,Sidik Ulu/Sidik Ola,"G4MC+QM6, Watohari, Kec. Solor Tim., Kabupaten Flores Timur, Nusa Tenggara Tim.","Kabupaten Flores Timur, Nusa Tenggara Tim.",NUSA TENGGARA TIMUR,,Indonesia,,,,-8.4655986,123.121652,https://maps.google.com/?cid=0x0:0xe59fdd987bb47526,
perumahan,Komplek perumahan,Rumah Tenueng Rete,"H388+4MW, Lohayong II, Kec. Solor Tim., Kabupaten Flores Timur, Nusa Tenggara Tim.","Kabupaten Flores Timur, Nusa Tenggara Tim.",NUSA TENGGARA TIMUR,,Indonesia,,,,-8.4346472,123.0666992,https://maps.google.com/?cid=0x0:0x3baa6b85beb87eb2,
perumahan,Komplek perumahan,Roni Kaha Home,"H23H+67J, Lewohedo, Kec. Solor Tim., Kabupaten Flores Timur, Nusa Tenggara Tim.","Kabupaten Flores Timur, Nusa Tenggara Tim.",NUSA TENGGARA TIMUR,,Indonesia,82153246388.0,,,-8.4468913,123.0278943,https://maps.google.com/?cid=0x0:0x2e47148c72b0dd6,
perumahan,Pembangunan Perumahan,Oktafiano,"G3VW+9J4, Liwo, Kec. Solor Tim., Kabupaten Flores Timur, Nusa Tenggara Tim.","Kabupaten Flores Timur, Nusa Tenggara Tim.",NUSA TENGGARA TIMUR,,Indonesia,,,,-8.4566198,123.0965931,https://maps.google.com/?cid=0x0:0xe36625bd8507ac1f,
perumahan,Komplek perumahan,Rumah Baru,"H575+XF6, Watobuku, Kec. Solor Tim., Kabupaten Flores Timur, Nusa Tenggara Tim.","Kabupaten Flores Timur, Nusa Tenggara Tim.",NUSA TENGGARA TIMUR,,Indonesia,,,,-8.4350804,123.1586514,https://maps.google.com/?cid=0x0:0x5379d9e2700f2fa,
perumahan,Komplek perumahan,F'sHinee the Home,"H389+G9H, Lohayong II, Kec. Solor Tim., Kabupaten Flores Timur, Nusa Tenggara Tim.","Kabupaten Flores Timur, Nusa Tenggara Tim.",NUSA TENGGARA TIMUR,,Indonesia,,,,-8.4336984,123.0684699,https://maps.google.com/?cid=0x0:0x4b58370838bfd07a,
perumahan,Komplek perumahan,Rumah FARIZ,"H38F+3G6, Lohayong, Kec. Solor Tim., Kabupaten Flores Timur, Nusa Tenggara Tim.","Kabupaten Flores Timur, Nusa Tenggara Tim.",NUSA TENGGARA TIMUR,,Indonesia,,,,-8.435485,123.073776,https://maps.google.com/?cid=0x0:0x401e330696dfbf4f,
perumahan,Perhimpunan Pengembang Perumahan,Lohayong,"H387+3PQ, Lohayong II, Kec. Solor Tim., Kabupaten Flores Timur, Nusa Tenggara Tim.","Kabupaten Flores Timur, Nusa Tenggara Tim.",NUSA TENGGARA TIMUR,,Indonesia,,,,-8.4347984,123.0643535,https://maps.google.com/?cid=0x0:0xf2f543f28786fe33,
perumahan,Komplek perumahan,rumah aty,"G2V9+5W7, Karawatung, Kec. Solor Bar., Kabupaten Flores Timur, Nusa Tenggara Tim.","Kabupaten Flores Timur, Nusa Tenggara Tim.",NUSA TENGGARA TIMUR,,Indonesia,,,,-8.4570858,123.0198024,https://maps.google.com/?cid=0x0:0x5700c9f58d1a810f,
perumahan,Komplek perumahan,Rumah Bpk. Beda Lamen,"H23H+633, Lewohedo, Kec. Solor Tim., Kabupaten Flores Timur, Nusa Tenggara Tim.","Kabupaten Flores Timur, Nusa Tenggara Tim.",NUSA TENGGARA TIMUR,,Indonesia,,,,-8.4469755,123.027658,https://maps.google.com/?cid=0x0:0x3ec3c6b9f7087bdd,
perumahan,Komplek perumahan,Jufri songgee,"H532+78W, Tanah Werang, Kec. Solor Tim., Kabupaten Flores Timur, Nusa Tenggara Tim.","Kabupaten Flores Timur, Nusa Tenggara Tim.",NUSA TENGGARA TIMUR,,Indonesia,,,,-8.4467589,123.1508152,https://maps.google.com/?cid=0x0:0x7c4b5b0655fe7eb,
perumahan,Komplek perumahan,Rumah Donatus Soma Maran,"LAMAOJAN, Bahinga, Kec. Tj. Bunga, Kabupaten Flores Timur, Nusa Tenggara Tim. 86252","Bahinga, Kec. Tj. Bunga, Kabupaten Flores Timur",NUSA TENGGARA TIMUR,86252.0,Indonesia,,,,-8.1887582,122.826013,https://maps.google.com/?cid=0x0:0xc6d31c14692d3f4d,
perumahan,perumahan,Kec. Tj. Bunga,"Kabupaten Flores Timur, Nusa Tenggara Tim.","Kabupaten Flores Timur, Nusa Tenggara Tim.",NUSA TENGGARA TIMUR,,Indonesia,,,,-8.1598576,122.9703032,https://maps.google.com/?cid=0x0:0x4700d1d3c3ad6bc4,
perumahan,Komplek perumahan,F.B.T. Rumah,"VWRM+4MQ, Gekeng Deran, Kec. Tj. Bunga, Kabupaten Flores Timur, Nusa Tenggara Tim.","Kabupaten Flores Timur, Nusa Tenggara Tim.",NUSA TENGGARA TIMUR,,Indonesia,,,,-8.1095792,122.9343399,https://maps.google.com/?cid=0x0:0x6f2396d11a4bcef1,
perumahan,Komplek perumahan,Maran manuel,"RVGW+96V, Ratu Lodong, Kec. Tj. Bunga, Kabupaten Flores Timur, Nusa Tenggara Tim.","Kabupaten Flores Timur, Nusa Tenggara Tim.",NUSA TENGGARA TIMUR,,Indonesia,,,,-8.1741088,122.8956706,https://maps.google.com/?cid=0x0:0x923430037bce2fcd,
perumahan,Komplek perumahan,L@maoj@n,"RR6G+428, Bahinga, Kec. Tj. Bunga, Kabupaten Flores Timur, Nusa Tenggara Tim.","Kabupaten Flores Timur, Nusa Tenggara Tim.",NUSA TENGGARA TIMUR,,Indonesia,,,,-8.1897123,122.82509,https://maps.google.com/?cid=0x0:0x8784b4672e987a3b,
perumahan,Komplek perumahan,Kompleks Linmas,"RVFW+G9R, Ratu Lodong, Kec. Tj. Bunga, Kabupaten Flores Timur, Nusa Tenggara Tim.","Kabupaten Flores Timur, Nusa Tenggara Tim.",NUSA TENGGARA TIMUR,,Indonesia,,,,-8.1761289,122.8958883,https://maps.google.com/?cid=0x0:0xff391f826a7e7d36,
perumahan,Komplek perumahan,Rumah Bangthomzon,"WVC2+97H, Laton Liwo, Kec. Tj. Bunga, Kabupaten Flores Timur, Nusa Tenggara Tim.","Kabupaten Flores Timur, Nusa Tenggara Tim.",NUSA TENGGARA TIMUR,,Indonesia,,,,-8.0798089,122.8492126,https://maps.google.com/?cid=0x0:0xb288638825eab64e,
perumahan,Komplek perumahan,RENO home,"RVGX+8CP, Ratu Lodong, Kec. Tj. Bunga, Kabupaten Flores Timur, Nusa Tenggara Tim.","Kabupaten Flores Timur, Nusa Tenggara Tim.",NUSA TENGGARA TIMUR,,Indonesia,,,,-8.1740696,122.8985168,https://maps.google.com/?cid=0x0:0xc1a38594f588221e,
perumahan,Perhimpunan Pengembang Perumahan,Sitamata Tanjung Bunga,"Dusun 1 sitamata, Sinamalaka, Kec. Tj. Bunga, Kabupaten Flores Timur, Nusa Tenggara Tim.","Kabupaten Flores Timur, Nusa Tenggara Tim.",NUSA TENGGARA TIMUR,,Indonesia,,,,-8.1875563,122.9188359,https://maps.google.com/?cid=0x0:0xc20085b2d93da61d,
perumahan,Balai masyarakat,"Riangkoli, Desa sinamalaka","RW5Q+W5P, Sinamalaka, Kec. Tj. Bunga, Kabupaten Flores Timur, Nusa Tenggara Tim.","Kabupaten Flores Timur, Nusa Tenggara Tim.",NUSA TENGGARA TIMUR,,Indonesia,,,,-8.1901555,122.9379404,https://maps.google.com/?cid=0x0:0xa93d69fc2c9db1aa,
perumahan,Komplek perumahan,Kossan Murah,"RVFW+7JX, Ratu Lodong, Kec. Tj. Bunga, Kabupaten Flores Timur, Nusa Tenggara Tim.","Kabupaten Flores Timur, Nusa Tenggara Tim.",NUSA TENGGARA TIMUR,,Indonesia,,,,-8.1765817,122.8966512,https://maps.google.com/?cid=0x0:0x57d633cfbd80b0cf,
perumahan,Komplek perumahan,Jebroc KOTEN~Linmas Area,"RVFW+P74, Ratu Lodong, Kec. Tj. Bunga, Kabupaten Flores Timur, Nusa Tenggara Tim.","Kabupaten Flores Timur, Nusa Tenggara Tim.",NUSA TENGGARA TIMUR,,Indonesia,,,,-8.175649,122.895579,https://maps.google.com/?cid=0x0:0xb4eadaee453f7c2d,
perumahan,Komplek perumahan,Rumah Yos Tobi Maran,"RR7P+82G, Bahinga, Kec. Tj. Bunga, Kabupaten Flores Timur, Nusa Tenggara Tim.","Kabupaten Flores Timur, Nusa Tenggara Tim.",NUSA TENGGARA TIMUR,,Indonesia,,,,-8.1856442,122.835298,https://maps.google.com/?cid=0x0:0xe6f34cf36f8f10ee,
perumahan,Komplek perumahan,Rumah Chenfrays,"Dusun 1 Saoniwa, RT.002/RW.001, Ratu Lodong","Kabupaten Flores Timur, Nusa Tenggara Tim.",NUSA TENGGARA TIMUR,,Indonesia,,,,-8.176545,122.8968706,https://maps.google.com/?cid=0x0:0x8199004875ce473a,
perumahan,Perhimpunan Pengembang Perumahan,Rumah Kepala Desa Patisirawalang,"WVC2+97H, Laton Liwo, Kec. Tj. Bunga, Kabupaten Flores Timur, Nusa Tenggara Tim.","Kabupaten Flores Timur, Nusa Tenggara Tim.",NUSA TENGGARA TIMUR,,Indonesia,,,,-8.079314,122.849624,https://maps.google.com/?cid=0x0:0x62d6231320ac2580,
perumahan,Komplek perumahan,Bandona,"RVH2+W5C, Bandona, Kec. Tj. Bunga, Kabupaten Flores Timur, Nusa Tenggara Tim.","Kabupaten Flores Timur, Nusa Tenggara Tim.",NUSA TENGGARA TIMUR,,Indonesia,,,,-8.1703521,122.8517513,https://maps.google.com/?cid=0x0:0x1fcadc5daef4ed06,
perumahan,Perhimpunan Pengembang Perumahan,Kribo Motong,"RVFJ+5PP, Ratu Lodong, Kec. Tj. Bunga, Kabupaten Flores Timur, Nusa Tenggara Tim.","Kabupaten Flores Timur, Nusa Tenggara Tim.",NUSA TENGGARA TIMUR,,Indonesia,,,,-8.1770376,122.8818333,https://maps.google.com/?cid=0x0:0xefd13b3e20e7d53d,
perumahan,Komplek perumahan,Mira Maran,"RW6C+R7, Sinamalaka, Kec. Tj. Bunga, Kabupaten Flores Timur, Nusa Tenggara Tim.","Kabupaten Flores Timur, Nusa Tenggara Tim.",NUSA TENGGARA TIMUR,,Indonesia,,,,-8.1879304,122.9206982,https://maps.google.com/?cid=0x0:0x480bd424efdab81b,
perumahan,Komplek perumahan,Rumah Ocell,"RVFW+7QM, Ratu Lodong, Kec. Tj. Bunga, Kabupaten Flores Timur, Nusa Tenggara Tim.","Kabupaten Flores Timur, Nusa Tenggara Tim.",NUSA TENGGARA TIMUR,,Indonesia,,,,-8.1767919,122.8969316,https://maps.google.com/?cid=0x0:0x7d18b8b90319df03,
perumahan,perumahan,Rm DONATUS wrn,"WVH5+88P, Patisirawalang, Kec. Tj. Bunga, Kabupaten Flores Timur, Nusa Tenggara Tim.","Kabupaten Flores Timur, Nusa Tenggara Tim.",NUSA TENGGARA TIMUR,,Indonesia,,,,-8.0716342,122.8583447,https://maps.google.com/?cid=0x0:0xc8311731b01a2f1e,
perumahan,Komplek perumahan,Asis N,"RR24+Q48, Waibao, Kec. Tj. Bunga, Kabupaten Flores Timur, Nusa Tenggara Tim.","Kabupaten Flores Timur, Nusa Tenggara Tim.",NUSA TENGGARA TIMUR,,Indonesia,,,,-8.1980865,122.8053233,https://maps.google.com/?cid=0x0:0x15912dde2a381e69,
perumahan,Komplek perumahan,Lewerang kompleks,"QWQF+R47, Baluk Hering, Kec. Lewolema, Kabupaten Flores Timur, Nusa Tenggara Tim.","Kabupaten Flores Timur, Nusa Tenggara Tim.",NUSA TENGGARA TIMUR,,Indonesia,,,,-8.2104555,122.9227834,https://maps.google.com/?cid=0x0:0x9f5d865de3919414,
perumahan,Komplek perumahan,Rumah Yoseph Gele Maran,"RVGW+23W, Ratu Lodong, Kec. Tj. Bunga, Kabupaten Flores Timur, Nusa Tenggara Tim.","Kabupaten Flores Timur, Nusa Tenggara Tim.",NUSA TENGGARA TIMUR,,Indonesia,,,,-8.1751187,122.8955022,https://maps.google.com/?cid=0x0:0x3b7332587bbdf70e,
perumahan,Perumahan,"The Green, Tanjung Bunga","R97V+QFC, Tj. Merdeka, Kec. Tamalate, Kota Makassar, Sulawesi Selatan 90225","Tj. Merdeka, Kec. Tamalate, Kota Makassar",NUSA TENGGARA TIMUR,90225.0,Indonesia,,,,-5.1855639,119.3936407,https://maps.google.com/?cid=0x0:0x62a3a32d92cc751f,
perumahan,Otoritas Perumahan,"Perum Metropolitan  Green Garden, Tanjung Bunga","R98X+Q4G, Tj. Merdeka, Kec. Tamalate, Kota Makassar, Sulawesi Selatan 90113","Tj. Merdeka, Kec. Tamalate, Kota Makassar",NUSA TENGGARA TIMUR,90113.0,Indonesia,,,,-5.1830625,119.3978281,https://maps.google.com/?cid=0x0:0x8bdcc7cf92efe4e9,
perumahan,perumahan,Kec. Titehena,"Kabupaten Flores Timur, Nusa Tenggara Tim.","Kabupaten Flores Timur, Nusa Tenggara Tim.",NUSA TENGGARA TIMUR,,Indonesia,,,,-8.3698253,122.7583467,https://maps.google.com/?cid=0x0:0x8f5ba4f86cc55d21,
perumahan,Komplek perumahan,Rumah etty mukin,"HQRQ+4PF, Ile Gerong, Kec. Titehena, Kabupaten Flores Timur, Nusa Tenggara Tim.","Kabupaten Flores Timur, Nusa Tenggara Tim.",NUSA TENGGARA TIMUR,,Indonesia,,,,-8.4096972,122.7893115,https://maps.google.com/?cid=0x0:0xff613af57918c7b6,
perumahan,Perhimpunan Pengembang Perumahan,DUSUN MUKO TEWO,"JR6G+38V, Dun Tana Lewoingu, Kec. Titehena, Kabupaten Flores Timur, Nusa Tenggara Tim.","Kabupaten Flores Timur, Nusa Tenggara Tim.",NUSA TENGGARA TIMUR,,Indonesia,,,,-8.3897605,122.8258008,https://maps.google.com/?cid=0x0:0x8d1934547b2b619b,
perumahan,Taman bermain,Pertigaan Lato,"JQM5+C4P, Watowara, Kec. Titehena, Kabupaten Flores Timur, Nusa Tenggara Tim.","Kabupaten Flores Timur, Nusa Tenggara Tim.",NUSA TENGGARA TIMUR,,Indonesia,,,,-8.3670359,122.7582455,https://maps.google.com/?cid=0x0:0xc6fb791230ea9bec,
perumahan,Komplek perumahan,Rian Liwu,"JQM3+WVJ, Watowara, Kec. Titehena, Kabupaten Flores Timur, Nusa Tenggara Tim.","Kabupaten Flores Timur, Nusa Tenggara Tim.",NUSA TENGGARA TIMUR,,Indonesia,,,,-8.3651551,122.7546269,https://maps.google.com/?cid=0x0:0xe0708560cc8e1c08,
perumahan,Komplek perumahan,Rumah Riyani,"JRJ7+3JG, Leraboleng, Kec. Titehena, Kabupaten Flores Timur, Nusa Tenggara Tim.","Kabupaten Flores Timur, Nusa Tenggara Tim.",NUSA TENGGARA TIMUR,,Indonesia,,,,-8.3698068,122.8140914,https://maps.google.com/?cid=0x0:0xd924dd976013d4dc,
perumahan,Komplek perumahan,Riangbao complex,"JR7H+J64, Dun Tana Lewoingu, Kec. Titehena, Kabupaten Flores Timur, Nusa Tenggara Tim.","Kabupaten Flores Timur, Nusa Tenggara Tim.",NUSA TENGGARA TIMUR,,Indonesia,,,,-8.3860128,122.8274773,https://maps.google.com/?cid=0x0:0x7fde949ccbe60e12,
perumahan,Balai Pertemuan Desa,Dully jaya,"MQ8M+G6, Watowara, Kec. Titehena, Kabupaten Flores Timur, Nusa Tenggara Tim.","Kabupaten Flores Timur, Nusa Tenggara Tim.",NUSA TENGGARA TIMUR,,Indonesia,,,,-8.3345173,122.7834053,https://maps.google.com/?cid=0x0:0xff02cf86303f2c6f,
perumahan,Pembangunan Perumahan,LUSIA LITO MAKIN,"MQ8M+G6, Watowara, Kec. Titehena, Kabupaten Flores Timur, Nusa Tenggara Tim.","Kabupaten Flores Timur, Nusa Tenggara Tim.",NUSA TENGGARA TIMUR,,Indonesia,,,,-8.333667,122.7831133,https://maps.google.com/?cid=0x0:0xfbba2c47736586a9,
perumahan,Komplek perumahan,Rumah ocha payong,"JRJ7+3JG, Leraboleng, Kec. Titehena, Kabupaten Flores Timur, Nusa Tenggara Tim.","Kabupaten Flores Timur, Nusa Tenggara Tim.",NUSA TENGGARA TIMUR,,Indonesia,,,,-8.3698068,122.8140914,https://maps.google.com/?cid=0x0:0x8133e1a9a622af1b,
perumahan,Komplek perumahan,WL Koten,"MQHP+6W8, Serinuho, Kec. Titehena, Kabupaten Flores Timur, Nusa Tenggara Tim.","Kabupaten Flores Timur, Nusa Tenggara Tim.",NUSA TENGGARA TIMUR,,Indonesia,,,,-8.3222821,122.7875916,https://maps.google.com/?cid=0x0:0xb2ed2234c2a306d7,
perumahan,Pembangunan Perumahan,Rumah Dona Muda,"HQRP+JMV, Ile Gerong, Kec. Titehena, Kabupaten Flores Timur, Nusa Tenggara Tim.","Kabupaten Flores Timur, Nusa Tenggara Tim.",NUSA TENGGARA TIMUR,,Indonesia,,,,-8.4075596,122.7873837,https://maps.google.com/?cid=0x0:0xe36fd8c577e8169d,
perumahan,Pembangunan Perumahan,Ujung Aspal compleks,"JR46+W92, Tuakepa, Kec. Titehena, Kabupaten Flores Timur, Nusa Tenggara Tim.","Kabupaten Flores Timur, Nusa Tenggara Tim.",NUSA TENGGARA TIMUR,,Indonesia,,,,-8.3932847,122.810456,https://maps.google.com/?cid=0x0:0xd0531c0e9fa88fdb,
perumahan,Otoritas Perumahan,Oy Cn,"JR6G+38V, Leraboleng, Kec. Titehena, Kabupaten Flores Timur, Nusa Tenggara Tim.","Kabupaten Flores Timur, Nusa Tenggara Tim.",NUSA TENGGARA TIMUR,,Indonesia,,,,-8.3897625,122.8257969,https://maps.google.com/?cid=0x0:0x2d3b7a093fe8a6f2,
perumahan,Komplek perumahan,Rumah Rety Mukin,"HQRQ+4PG, Ile Gerong, Kec. Titehena, Kabupaten Flores Timur, Nusa Tenggara Tim.","Kabupaten Flores Timur, Nusa Tenggara Tim.",NUSA TENGGARA TIMUR,,Indonesia,,,,-8.4096922,122.7893129,https://maps.google.com/?cid=0x0:0xe66c51f18ddab4ca,
perumahan,Komplek perumahan,Novhy,"JRJ7+3JG, Leraboleng, Kec. Titehena, Kabupaten Flores Timur, Nusa Tenggara Tim.","Kabupaten Flores Timur, Nusa Tenggara Tim.",NUSA TENGGARA TIMUR,,Indonesia,,,,-8.3698068,122.8140914,https://maps.google.com/?cid=0x0:0xf8432546ba765d92,
perumahan,Komplek perumahan,Miltania,"Ruang Bao, Leraboleng, Kec. Titehena, Kabupaten Flores Timur, Nusa Tenggara Tim.","Kabupaten Flores Timur, Nusa Tenggara Tim.",NUSA TENGGARA TIMUR,,Indonesia,,,,-8.3861674,122.8275219,https://maps.google.com/?cid=0x0:0x6eee0dd63b14cc73,
perumahan,Komplek perumahan,Rumah Pedro Hera,"HQMQ+4FG, Lewolaga, Kec. Titehena, Kabupaten Flores Timur, Nusa Tenggara Tim.","Kabupaten Flores Timur, Nusa Tenggara Tim.",NUSA TENGGARA TIMUR,,Indonesia,,,,-8.4171937,122.7887007,https://maps.google.com/?cid=0x0:0x79f925ac84835461,
perumahan,Komplek perumahan,Rumah Roykelen,"JR7G+2W8, Leraboleng, Kec. Titehena, Kabupaten Flores Timur, Nusa Tenggara Tim.","Kabupaten Flores Timur, Nusa Tenggara Tim.",NUSA TENGGARA TIMUR,,Indonesia,,,,-8.3874645,122.8273201,https://maps.google.com/?cid=0x0:0xa0e65b0844bb83cb,
perumahan,Komplek perumahan,Eta Rahim  Suprapti Asan,"JM8R+V5, Adabang, Kec. Titehena, Kabupaten Flores Timur, Nusa Tenggara Tim.","Kabupaten Flores Timur, Nusa Tenggara Tim.",NUSA TENGGARA TIMUR,,Indonesia,81238600957.0,,,-8.382807,122.6903739,https://maps.google.com/?cid=0x0:0x2a3e3edc0c64d2ca,
perumahan,Pembangunan Perumahan,BAPAK SIMON SUBAN WATO,"HQ99+VFJ, Konga, Kec. Titehena, Kabupaten Flores Timur, Nusa Tenggara Tim.","Kabupaten Flores Timur, Nusa Tenggara Tim.",NUSA TENGGARA TIMUR,,Indonesia,,,,-8.4302974,122.7686464,https://maps.google.com/?cid=0x0:0xb5ac75a04f705d5,
perumahan,Perhimpunan Pengembang Perumahan,DUSUN LEWOROOK,"JR6G+R7H, Dun Tana Lewoingu, Kec. Titehena, Kabupaten Flores Timur, Nusa Tenggara Tim.","Kabupaten Flores Timur, Nusa Tenggara Tim.",NUSA TENGGARA TIMUR,,Indonesia,,,,-8.3879413,122.8257283,https://maps.google.com/?cid=0x0:0xd35837a2f499a6e2,
perumahan,Komplek perumahan,Larantuka,"HRWM+22, Dun Tana Lewoingu, Kec. Titehena, Kabupaten Flores Timur, Nusa Tenggara Tim.","Kabupaten Flores Timur, Nusa Tenggara Tim.",NUSA TENGGARA TIMUR,,Indonesia,,,,-8.4049403,122.8325333,https://maps.google.com/?cid=0x0:0x66e764d4e4808f96,
perumahan,perumahan,Witihama,"Pledo, Kec. Witihama, Kabupaten Flores Timur, Nusa Tenggara Tim.","Kabupaten Flores Timur, Nusa Tenggara Tim.",NUSA TENGGARA TIMUR,,Indonesia,,,,-8.268047,123.320357,https://maps.google.com/?cid=0x0:0x62eede8c38a858e4,
perumahan,perumahan,Kec. Witihama,"Kabupaten Flores Timur, Nusa Tenggara Tim.","Kabupaten Flores Timur, Nusa Tenggara Tim.",NUSA TENGGARA TIMUR,,Indonesia,,,,-8.2994084,123.2612584,https://maps.google.com/?cid=0x0:0xb59ca4394d457921,
perumahan,perumahan,Nusa Tenggara Tim.,,Nusa Tenggara Tim.,NUSA TENGGARA TIMUR,,Indonesia,,,,-8.6573819,121.0793705,https://maps.google.com/?cid=0x0:0x1030bfbcaf71ae0,
perumahan,,Wis Wuran,"Deri, Jl. Trans Adonara, RT.001/RW.001, Desa Duablolong, Kabupaten Flores Timur, Nusa Tenggara Tim. 86261","Jl. Trans Adonara, RT.001/RW.001, Desa Duablolong, Kabupaten Flores Timur",NUSA TENGGARA TIMUR,86261.0,Indonesia,,,,-8.3615298,123.3008071,https://maps.google.com/?cid=0x0:0x5074892acdd0db87,
perumahan,Perhimpunan Pengembang Perumahan,Tildis_Icha Home,"J5FJ+XGQ, Jl. Riang Bunga, Kiwang Ona, Kec. Adonara Tim., Waiwerang, Nusa Tenggara Tim. 86261","Jl. Riang Bunga, Kiwang Ona, Kec. Adonara Tim., Waiwerang",NUSA TENGGARA TIMUR,86261.0,Indonesia,,,,-8.3750433,123.1813573,https://maps.google.com/?cid=0x0:0x81b6539bea3f6345,
perumahan,Pembangunan Perumahan,Home Revano,"Sandosi, Kec. Adonara, Nusa Tenggara Tim. 86261",Kec. Adonara,NUSA TENGGARA TIMUR,86261.0,Indonesia,81337169473.0,,,-8.2840625,123.2746875,https://maps.google.com/?cid=0x0:0x7de21f34e1d48560,
perumahan,perumahan,Kec. Wotan Ulumando,"Kabupaten Flores Timur, Nusa Tenggara Tim.","Kabupaten Flores Timur, Nusa Tenggara Tim.",NUSA TENGGARA TIMUR,,Indonesia,,,,-8.4035658,123.0668167,https://maps.google.com/?cid=0x0:0x9f7cb429a3dd4bdd,
perumahan,Komplek perumahan,FOTO COPY TARNOLMA,"H3XM+G9P, Klukengnuking, Kec. Wotan Ulumando, Kabupaten Flores Timur, Nusa Tenggara Tim.","Kabupaten Flores Timur, Nusa Tenggara Tim.",NUSA TENGGARA TIMUR,,Indonesia,82144387907.0,,,-8.400538,123.0832561,https://maps.google.com/?cid=0x0:0xfabcae2ceb74a403,
perumahan,Komplek perumahan,Rumah Fardy Lamro,"J259+P26, Tanah Tukan, Kec. Wotan Ulumando, Kabupaten Flores Timur, Nusa Tenggara Tim.","Kabupaten Flores Timur, Nusa Tenggara Tim.",NUSA TENGGARA TIMUR,,Indonesia,,,,-8.3907022,123.0175112,https://maps.google.com/?cid=0x0:0x67cd489506ff7e9f,
perumahan,Komplek perumahan,Paulus Tokan,"J286+9VJ, Wotanulumado, Kec. Wotan Ulumando, Kabupaten Flores Timur, Nusa Tenggara Tim.","Kabupaten Flores Timur, Nusa Tenggara Tim.",NUSA TENGGARA TIMUR,,Indonesia,,,,-8.3838014,123.0101623,https://maps.google.com/?cid=0x0:0xa6980264aff8b83a,
perumahan,Komplek perumahan,Relokasi Oyang Barang,"J325+F5F, Oyangbarang, Kec. Wotan Ulumando, Kabupaten Flores Timur, Nusa Tenggara Tim.","Kabupaten Flores Timur, Nusa Tenggara Tim.",NUSA TENGGARA TIMUR,,Indonesia,,,,-8.3988171,123.0579178,https://maps.google.com/?cid=0x0:0xaf1b3d27d0c09136,
perumahan,Komplek perumahan,Wotanulumado,"H3W8+JP7, Oyangbarang, Kec. Wotan Ulumando, Kabupaten Flores Timur, Nusa Tenggara Tim.","Kabupaten Flores Timur, Nusa Tenggara Tim.",NUSA TENGGARA TIMUR,,Indonesia,,,,-8.4034695,123.0668021,https://maps.google.com/?cid=0x0:0xed0664f487ed2e39,
perumahan,Komplek perumahan,Rumah alika,"J325+F5F, Oyangbarang, Kec. Wotan Ulumando, Kabupaten Flores Timur, Nusa Tenggara Tim.","Kabupaten Flores Timur, Nusa Tenggara Tim.",NUSA TENGGARA TIMUR,,Indonesia,,,,-8.3985558,123.0577128,https://maps.google.com/?cid=0x0:0xa049c346a4d39d4c,
perumahan,Komplek perumahan,Rumah Simeon Saka,"J26C+98F, Tanah Tukan, Kec. Wotan Ulumando, Kabupaten Flores Timur, Nusa Tenggara Tim.","Kabupaten Flores Timur, Nusa Tenggara Tim.",NUSA TENGGARA TIMUR,,Indonesia,,,,-8.3890682,123.0208072,https://maps.google.com/?cid=0x0:0x979524ba845275af,
perumahan,Pembangunan Perumahan,Rumah Mahdi Ibrahim,"H3WF+3PF, Kawela, Kec. Wotan Ulumando, Kabupaten Flores Timur, Nusa Tenggara Tim.","Kabupaten Flores Timur, Nusa Tenggara Tim.",NUSA TENGGARA TIMUR,,Indonesia,,,,-8.404808,123.0742986,https://maps.google.com/?cid=0x0:0x2cc7e9c4c2821531,
perumahan,Komplek perumahan,Home omyRiangTobi,"J33P+FQQ, Klukengnuking, Kec. Wotan Ulumando, Kabupaten Flores Timur, Nusa Tenggara Tim.","Kabupaten Flores Timur, Nusa Tenggara Tim.",NUSA TENGGARA TIMUR,,Indonesia,,,,-8.3962938,123.0869723,https://maps.google.com/?cid=0x0:0x2a4d863ffee9e86d,
perumahan,perumahan,HOME ERYK-KAROKO,"M299+9P4, Bliko, Kec. Adonara Bar., Kabupaten Flores Timur, Nusa Tenggara Tim.","Kabupaten Flores Timur, Nusa Tenggara Tim.",NUSA TENGGARA TIMUR,,Indonesia,,,,-8.3316047,123.0193428,https://maps.google.com/?cid=0x0:0x164613228d43eedc,
perumahan,Komplek perumahan,SBK complex,"Jl. Trans Adonara, Wotanulumado, Kec. Wotan Ulumando, Kabupaten Flores Timur, Nusa Tenggara Tim.","Kabupaten Flores Timur, Nusa Tenggara Tim.",NUSA TENGGARA TIMUR,,Indonesia,82358119606.0,,,-8.3797886,123.008745,https://maps.google.com/?cid=0x0:0xb7c887e90d6f01ac,
perumahan,Pembangunan Perumahan,Perumahan Bukit Permai Jokowi,"J325+F5F, Oyangbarang, Kec. Wotan Ulumando, Kabupaten Flores Timur, Nusa Tenggara Tim.","Kabupaten Flores Timur, Nusa Tenggara Tim.",NUSA TENGGARA TIMUR,,Indonesia,,,,-8.3985738,123.0583837,https://maps.google.com/?cid=0x0:0x6fc83f142b3fef10,
perumahan,Komplek perumahan,Rumah Lukas bao,"H2PX+MW6, Jl. Trans Adonara, Nayubaya, Kec. Wotan Ulumando, Kabupaten Flores Timur, Nusa Tenggara Tim.","Kabupaten Flores Timur, Nusa Tenggara Tim.",NUSA TENGGARA TIMUR,,Indonesia,,,,-8.4133421,123.0497504,https://maps.google.com/?cid=0x0:0x4a15c2708e36ff08,
perumahan,Komplek perumahan,rumah bastian,"J268+4XP, Tanah Tukan, Kec. Wotan Ulumando, Kabupaten Flores Timur, Nusa Tenggara Tim.","Kabupaten Flores Timur, Nusa Tenggara Tim.",NUSA TENGGARA TIMUR,,Indonesia,,,,-8.3896676,123.0174416,https://maps.google.com/?cid=0x0:0x16c5324250672d9d,
perumahan,Komplek perumahan,Rumah yofantho,"J386+5RR, Oyangbarang, Kec. Wotan Ulumando, Kabupaten Flores Timur, Nusa Tenggara Tim.","Kabupaten Flores Timur, Nusa Tenggara Tim.",NUSA TENGGARA TIMUR,,Indonesia,,,,-8.3845117,123.0620193,https://maps.google.com/?cid=0x0:0xd90e37fcb6b035d4,
perumahan,Komplek perumahan,Rumah Rika,"J268+Q2C, Wotanulumado, Kec. Wotan Ulumando, Kabupaten Flores Timur, Nusa Tenggara Tim.","Kabupaten Flores Timur, Nusa Tenggara Tim.",NUSA TENGGARA TIMUR,,Indonesia,,,,-8.388055,123.0150063,https://maps.google.com/?cid=0x0:0x635463874fb1582d,
perumahan,Komplek perumahan,Perumahan baru Kewuko,"J325+9G5, Oyangbarang, Kec. Wotan Ulumando, Kabupaten Flores Timur, Nusa Tenggara Tim.","Kabupaten Flores Timur, Nusa Tenggara Tim.",NUSA TENGGARA TIMUR,,Indonesia,,,,-8.3991125,123.0588594,https://maps.google.com/?cid=0x0:0x5ca40644cb48c827,
perumahan,Pembangunan Perumahan,Pangkas Rambut Paman z,"J22P+Q99, Jl. Trans Adonara, Samasoge, Kec. Wotan Ulumando, Kabupaten Flores Timur, Nusa Tenggara Tim.","Kabupaten Flores Timur, Nusa Tenggara Tim.",NUSA TENGGARA TIMUR,,Indonesia,,,,-8.3980762,123.0359922,https://maps.google.com/?cid=0x0:0x29b4fed0130e7b4a,
perumahan,Komplek perumahan,Emon Boro,"M2FC+9FX, Jl. Trans Adonara, Bliko, Kec. Wotan Ulumando, Kabupaten Flores Timur, Nusa Tenggara Tim.","Kabupaten Flores Timur, Nusa Tenggara Tim.",NUSA TENGGARA TIMUR,,Indonesia,,,,-8.3265549,123.0212478,https://maps.google.com/?cid=0x0:0xc3d74b23e39318d0,
perumahan,Komplek perumahan,RIANG RERE,"J284+9V2, Wotanulumado, Kec. Wotan Ulumando, Kabupaten Flores Timur, Nusa Tenggara Tim.","Kabupaten Flores Timur, Nusa Tenggara Tim.",NUSA TENGGARA TIMUR,,Indonesia,,,,-8.3841188,123.0071511,https://maps.google.com/?cid=0x0:0xd15d6d5ea93e693b,
perumahan,perumahan,Rumah Ama ola Evan,"J22W+PFP, Nayubaya, Kec. Wotan Ulumando, Kabupaten Flores Timur, Nusa Tenggara Tim.","Kabupaten Flores Timur, Nusa Tenggara Tim.",NUSA TENGGARA TIMUR,,Indonesia,,,,-8.3981618,123.0462125,https://maps.google.com/?cid=0x0:0x8db88bfe61ff8fa0,
perumahan,perumahan,Kec. Wulanggitang,"Kabupaten Flores Timur, Nusa Tenggara Tim.","Kabupaten Flores Timur, Nusa Tenggara Tim.",NUSA TENGGARA TIMUR,,Indonesia,,,,-8.5255093,122.7116888,https://maps.google.com/?cid=0x0:0xb63f6e064ad96485,
perumahan,Padang,RM. Boru Indah,"FPG4+HMQ, Boru, Kec. Wulanggitang, Kabupaten Flores Timur, Nusa Tenggara Tim.","Kabupaten Flores Timur, Nusa Tenggara Tim.",NUSA TENGGARA TIMUR,,Indonesia,81339866604.0,,,-8.5235289,122.7067211,https://maps.google.com/?cid=0x0:0x6ceb8424e62b10c0,
perumahan,Padang,RM Minang Surya,"Boru, Kec. Wulanggitang, Kabupaten Flores Timur, Nusa Tenggara Tim.","Kabupaten Flores Timur, Nusa Tenggara Tim.",NUSA TENGGARA TIMUR,,Indonesia,82192425014.0,,,-8.5252898,122.7110281,https://maps.google.com/?cid=0x0:0xa31fcba5edaaf680,
perumahan,Komplek perumahan,Rumah warga,"9PGC+76, Pantai Oa, Kec. Wulanggitang, Kabupaten Flores Timur, Nusa Tenggara Tim.","Kabupaten Flores Timur, Nusa Tenggara Tim.",NUSA TENGGARA TIMUR,,Indonesia,,,,-8.6243213,122.7205243,https://maps.google.com/?cid=0x0:0x620ed51c685eb31d,
perumahan,Komplek perumahan,Rumah Sandra soge,"CP63+4C7, Hewa, Kec. Wulanggitang, Kabupaten Flores Timur, Nusa Tenggara Tim.","Kabupaten Flores Timur, Nusa Tenggara Tim.",NUSA TENGGARA TIMUR,,Indonesia,,,,-8.5902876,122.7045331,https://maps.google.com/?cid=0x0:0xc570c388ccb2d601,
perumahan,Komplek perumahan,Bakut,"FPC8+FGQ, Boru, Kec. Wulanggitang, Kabupaten Flores Timur, Nusa Tenggara Tim.","Kabupaten Flores Timur, Nusa Tenggara Tim.",NUSA TENGGARA TIMUR,,Indonesia,,,,-8.5287791,122.7163649,https://maps.google.com/?cid=0x0:0x4d2bf8920dbf031b,
perumahan,Komplek perumahan,BX COMPLEX,"FMCX+RRW, Boru, Kec. Wulanggitang, Kabupaten Flores Timur, Nusa Tenggara Tim.","Kabupaten Flores Timur, Nusa Tenggara Tim.",NUSA TENGGARA TIMUR,,Indonesia,,,,-8.5278816,122.6995732,https://maps.google.com/?cid=0x0:0xba9715f70a07e386,
perumahan,Komplek perumahan,HEWA-WULANGGITANG-FLOTIM- NTT,"CMPR+P75, Hewa, Kec. Wulanggitang, Kabupaten Flores Timur, Nusa Tenggara Tim.","Kabupaten Flores Timur, Nusa Tenggara Tim.",NUSA TENGGARA TIMUR,,Indonesia,,,,-8.5632316,122.6907188,https://maps.google.com/?cid=0x0:0x2322b4a033620182,
perumahan,Komplek perumahan,NOVITA WATU,"FPF4+MHX, Boru, Kec. Wulanggitang, Kabupaten Flores Timur, Nusa Tenggara Tim.","Kabupaten Flores Timur, Nusa Tenggara Tim.",NUSA TENGGARA TIMUR,,Indonesia,,,,-8.5264439,122.7056486,https://maps.google.com/?cid=0x0:0x91f82796ddefd2a2,
perumahan,Komplek perumahan,Wulanggitang,"FPFC+CG, Hokeng Jaya, Kec. Wulanggitang, Kabupaten Flores Timur, Nusa Tenggara Tim.","Kabupaten Flores Timur, Nusa Tenggara Tim.",NUSA TENGGARA TIMUR,,Indonesia,,,,-8.5264382,122.7213256,https://maps.google.com/?cid=0x0:0x33118865b37d91f9,
perumahan,Komplek perumahan,PSGKOMPLX,"FPG5+5G3, Jl. Nasional Maumere - Larantuka, Boru, Kec. Wulanggitang, Kabupaten Flores Timur, Nusa Tenggara Tim.","Kabupaten Flores Timur, Nusa Tenggara Tim.",NUSA TENGGARA TIMUR,,Indonesia,,,,-8.524617,122.7088054,https://maps.google.com/?cid=0x0:0x49e194235825b5d0,
perumahan,Komplek perumahan,ERenno,"FMCX+XGH, Boru, Kec. Wulanggitang, Kabupaten Flores Timur, Nusa Tenggara Tim.","Kabupaten Flores Timur, Nusa Tenggara Tim.",NUSA TENGGARA TIMUR,,Indonesia,,,,-8.52757,122.6988554,https://maps.google.com/?cid=0x0:0x9d48ef163692740e,
perumahan,Kantor Pemerintah,Desa Hewa,"CP35+F27, Hewa, Kec. Wulanggitang, Kabupaten Flores Timur, Nusa Tenggara Tim.","Kabupaten Flores Timur, Nusa Tenggara Tim.",NUSA TENGGARA TIMUR,,Indonesia,,,,-8.5963436,122.707534,https://maps.google.com/?cid=0x0:0x7c1f088e85609300,
perumahan,perumahan,"Sukutukang(pululera) kecamatan wulanggitang ,kab flores timur","dusus B,RT 6,RW 2, Jln lorong gereja, Pululera, sukutukang","Kabupaten Flores Timur, Nusa Tenggara Tim.",NUSA TENGGARA TIMUR,,Indonesia,,,,-8.4963028,122.7294309,https://maps.google.com/?cid=0x0:0x332880251a5b9d5,
perumahan,Komplek perumahan,Rumah Bentho shaputra,"CPXH+JP3, Nawokote, Kec. Wulanggitang, Kabupaten Flores Timur, Nusa Tenggara Tim.","Kabupaten Flores Timur, Nusa Tenggara Tim.",NUSA TENGGARA TIMUR,,Indonesia,,,,-8.5509964,122.7293031,https://maps.google.com/?cid=0x0:0x9ff56021492fdd7a,
perumahan,Gedung Apartemen,Rumah Guztty Gucheqyn,"FPC2+RCV, Boru, Kec. Wulanggitang, Kabupaten Flores Timur, Nusa Tenggara Tim.","Kabupaten Flores Timur, Nusa Tenggara Tim.",NUSA TENGGARA TIMUR,,Indonesia,,,,-8.5278948,122.7010369,https://maps.google.com/?cid=0x0:0xe21bb16016217d,
perumahan,perumahan,Rumah Noventris,"9PVV+GH5, Waiula, Kec. Wulanggitang, Kabupaten Flores Timur, Nusa Tenggara Tim.","Kabupaten Flores Timur, Nusa Tenggara Tim.",NUSA TENGGARA TIMUR,,Indonesia,,,,-8.6058929,122.7441904,https://maps.google.com/?cid=0x0:0x507c3e5af7ce520e,
perumahan,Perhimpunan Pengembang Perumahan,Opin tukan,"FPC2+P86, Boru, Kec. Wulanggitang, Kabupaten Flores Timur, Nusa Tenggara Tim.","Kabupaten Flores Timur, Nusa Tenggara Tim.",NUSA TENGGARA TIMUR,,Indonesia,,,,-8.5282149,122.7007567,https://maps.google.com/?cid=0x0:0x93f8d59805ead4b,
perumahan,Perhimpunan Pengembang Perumahan,HOME SWEET,"FMJM+5MH, Boru, Kec. Wulanggitang, Kabupaten Flores Timur, Nusa Tenggara Tim.","Kabupaten Flores Timur, Nusa Tenggara Tim.",NUSA TENGGARA TIMUR,,Indonesia,,,,-8.5195559,122.6842498,https://maps.google.com/?cid=0x0:0xd9758cd0161d8d22,
perumahan,Komplek perumahan,Rumah Us Uran,"FPHH+37J, Unnamed Rd, Hokeng Jaya, Kec. Wulanggitang, Kabupaten Flores Timur, Nusa Tenggara Tim.","Kabupaten Flores Timur, Nusa Tenggara Tim.",NUSA TENGGARA TIMUR,,Indonesia,,,,-8.52295,122.728073,https://maps.google.com/?cid=0x0:0x9e1df407eeb637a3,
perumahan,Komplek perumahan,M.W.G komplex,"FMJM+5MH, Boru, Kec. Wulanggitang, Kabupaten Flores Timur, Nusa Tenggara Tim.","Kabupaten Flores Timur, Nusa Tenggara Tim.",NUSA TENGGARA TIMUR,,Indonesia,,,,-8.5195559,122.6842498,https://maps.google.com/?cid=0x0:0xe121b7a00630b1d7,
perumahan,Komplek perumahan,Tana bara,"HPQC+82, Nileknoheng, Kec. Wulanggitang, Kabupaten Flores Timur, Nusa Tenggara Tim.","Kabupaten Flores Timur, Nusa Tenggara Tim.",NUSA TENGGARA TIMUR,,Indonesia,,,,-8.4116905,122.7201236,https://maps.google.com/?cid=0x0:0xf496237d90412507,
perumahan,Komplek perumahan,Rumah Melshy dan Rijal,"FP4F+C7, Nawokote, Kec. Wulanggitang, Kabupaten Flores Timur, Nusa Tenggara Tim.","Kabupaten Flores Timur, Nusa Tenggara Tim.",NUSA TENGGARA TIMUR,,Indonesia,,,,-8.543899,122.723197,https://maps.google.com/?cid=0x0:0xcb9d4238c18d7df,
perumahan,Komplek perumahan,P Yustinus Genohon,"FPPQ+CQ7, Rick leyn, Goliriang, Klatanlo, Nurri, Kec. Wulanggitang, Kabupaten Flores Timur, Nusa Tenggara Tim.","Kabupaten Flores Timur, Nusa Tenggara Tim.",NUSA TENGGARA TIMUR,,Indonesia,,,,-8.5137275,122.7397748,https://maps.google.com/?cid=0x0:0xae085ef0e01168a3,
perumahan,Komplek perumahan,IWAN CLB KOMPLEX,"FPH4+3RJ, Boru, Kec. Wulanggitang, Kabupaten Flores Timur, Nusa Tenggara Tim.","Kabupaten Flores Timur, Nusa Tenggara Tim.",NUSA TENGGARA TIMUR,,Indonesia,,,,-8.5222765,122.7070161,https://maps.google.com/?cid=0x0:0xd2fc321c9c403f8a,
