Category,Real Category,Business Name,Address,City,State,Postal Code,Country,Phone,Email,Website,Latitude,Longitude,Map Link,Details Link
hotel,hotel,Gorontalo 96525,"Kec. Anggrek, Kabupaten Gorontalo Utara, Gorontalo","Kabupaten Gorontalo Utara, Gorontalo",GORONTALO,,Indonesia,,,,0.8425794,122.695547,https://maps.google.com/?cid=0x0:0xc910c3a3b1bab734,
hotel,hotel,Hotel Eljie Syariah Gorontalo,"Jl. Jend. Sudirman No.99, Wumialo, Kec. Kota Tengah, Kabupaten Gorontalo, Gorontalo 96128","Wumialo, Kec. Kota Tengah, Kabupaten Gorontalo",GORONTALO,96128.0,Indonesia,435828279.0,,,0.5539451,123.052566,https://maps.google.com/?cid=0x0:0x35f110f0415ca414,
hotel,hotel,Hotel Varia,"Jl. Moh. Yamin II, Limba B, Kota Sel., Kota Gorontalo, Gorontalo 96136","Limba B, Kota Sel., Kota Gorontalo",GORONTALO,96136.0,Indonesia,82156740246.0,,,0.5399234,123.0544117,https://maps.google.com/?cid=0x0:0xddf41a3501b72e1a,
hotel,hotel,The Garden Hotel,"Jl. Tribrata No.117-118, Ipilo, Kec. Kota Tim., Kota Gorontalo, Gorontalo 96112","Ipilo, Kec. Kota Tim., Kota Gorontalo",GORONTALO,96112.0,Indonesia,82296236791.0,,,0.5358419,123.0637286,https://maps.google.com/?cid=0x0:0xcb66f5c829d76ab,
hotel,hotel,Grand Q Hotel Gorontalo,"Jl. Nani Wartabone No.25, Ipilo, Kec. Kota Tim., Kota Gorontalo, Gorontalo 96133","Ipilo, Kec. Kota Tim., Kota Gorontalo",GORONTALO,96133.0,Indonesia,8114312226.0,,,0.5338603,123.0603315,https://maps.google.com/?cid=0x0:0xba1d6742efeda58f,
hotel,hotel,,,,GORONTALO,,Indonesia,,,,,,https://maps.google.com/?cid=0x0:0xba1d6742efeda58f%7C/g/11bbsyv14k%7Cid-ID,
hotel,hotel,The One Hotel Gorontalo,"Jl. Tondano, Tapa, Kec. Sipatana, Kota Gorontalo, Gorontalo 96138","Tapa, Kec. Sipatana, Kota Gorontalo",GORONTALO,96138.0,Indonesia,895417300072.0,,,0.5746668,123.0593639,https://maps.google.com/?cid=0x0:0xc9d6b079b15b9a8d,
hotel,hotel,Hotel Santorini,"Jl. HOS. Cokroaminoto No.86, Limba U I, Kota Sel., Kota Gorontalo, Gorontalo 96135","Limba U I, Kota Sel., Kota Gorontalo",GORONTALO,96135.0,Indonesia,,,,0.54547,123.0627912,https://maps.google.com/?cid=0x0:0xb7922d0d9a8669dc,
hotel,hotel,Ferryzon Hotel,"Jl. Sultan Botutihe No.3, Padebuolo, Kec. Kota Tim., Kota Gorontalo, Gorontalo 96135","Padebuolo, Kec. Kota Tim., Kota Gorontalo",GORONTALO,96135.0,Indonesia,4358531935.0,,,0.5369395,123.0632043,https://maps.google.com/?cid=0x0:0xeeec77145435cf8a,
hotel,hotel,Yulia Hotel Managed by HIG,"Jl. Nani Wartabone No.26, Ipilo, Kec. Kota Tim., Kota Gorontalo, Gorontalo 96133","Ipilo, Kec. Kota Tim., Kota Gorontalo",GORONTALO,96133.0,Indonesia,4358531028.0,,,0.5341772,123.0603156,https://maps.google.com/?cid=0x0:0x61605f59789edc49,
hotel,hotel,,,,GORONTALO,,Indonesia,,,,,,https://maps.google.com/?cid=0x0:0x75e1ec66b82ecbf7%7C/g/11b6b3nhq7%7Cid-ID,
hotel,hotel,Amaris Hotel Gorontalo,"Jl. Sultan Botutihe No.37, Ipilo, Kec. Kota Tim., Kota Gorontalo, Gorontalo 96114","Ipilo, Kec. Kota Tim., Kota Gorontalo",GORONTALO,96114.0,Indonesia,435830988.0,,,0.5366179,123.0632919,https://maps.google.com/?cid=0x0:0x75e1ec66b82ecbf7,
hotel,hotel,Hotel Elisabeth Gorontalo,"Jl. Ahmad A. Wahab, Kayubulan, Kec. Limboto, Kabupaten Gorontalo, Gorontalo 96181","Kayubulan, Kec. Limboto, Kabupaten Gorontalo",GORONTALO,96181.0,Indonesia,82343265835.0,,,0.6271884,122.9849775,https://maps.google.com/?cid=0x0:0x2d634bfd01e8291c,
hotel,hotel,RedDoorz near TVRI Gorontalo,"Jl. Prof. Dr. H.B. Jassin No.248, Dulalowo, Kec. Kota Tengah, Kota Gorontalo, Gorontalo 96138","Dulalowo, Kec. Kota Tengah, Kota Gorontalo",GORONTALO,96138.0,Indonesia,895417300072.0,,,0.5573968,123.0487002,https://maps.google.com/?cid=0x0:0xb61cf44e869b067f,
hotel,hotel,,,,GORONTALO,,Indonesia,,,,,,https://maps.google.com/?cid=0x0:0xb61cf44e869b067f%7C/g/11hy_q8vwy%7Cid-ID,
hotel,hotel,,,,GORONTALO,,Indonesia,,,,,,https://maps.google.com/?cid=0x0:0x352993e559000fab%7C/g/1hm3jg_57%7Cid-ID,
hotel,hotel,Crystal Green Hotel,"Jl. Gelatik No.234, Heledulaa, Kec. Kota Tim., Kota Gorontalo, Gorontalo 96135","Heledulaa, Kec. Kota Tim., Kota Gorontalo",GORONTALO,96135.0,Indonesia,2180629666.0,,,0.5456647,123.0668113,https://maps.google.com/?cid=0x0:0x352993e559000fab,
hotel,hotel,H.V Hotel - BANDARA GORONTALO,"JRRW+WCG, Jl. Bandara Jalaluddin, Tolotio, Kec. Tibawa, Kabupaten Gorontalo, Gorontalo 96251","Jl. Bandara Jalaluddin, Tolotio, Kec. Tibawa, Kabupaten Gorontalo",GORONTALO,96251.0,Indonesia,81902311118.0,,,0.6423039,122.8460704,https://maps.google.com/?cid=0x0:0xa53277e131efeec0,
hotel,hotel,HOTEL RACHMAT,"G3X7+9FV, Heledulaa, Kec. Kota Tim., Kota Gorontalo, Gorontalo 96135","Heledulaa, Kec. Kota Tim., Kota Gorontalo",GORONTALO,96135.0,Indonesia,,,,0.5484827,123.0636741,https://maps.google.com/?cid=0x0:0x303a3e36e293f62b,
hotel,hotel,Milana Hotel,"JL. Jend A Yani, No. 237-A, Hunggaluwa, 96219, Hunggaluwa, Kec. Limboto, Kabupaten Gorontalo, Gorontalo 96214","Hunggaluwa,",GORONTALO,96219.0,Indonesia,435881092.0,,,0.6256043,122.9762262,https://maps.google.com/?cid=0x0:0x73f1694bf15a1413,
hotel,hotel,Citra Hotel,"Jl. Taki Niode No.36, Ipilo, Kec. Kota Tim., Kota Gorontalo, Gorontalo 96112","Ipilo, Kec. Kota Tim., Kota Gorontalo",GORONTALO,96112.0,Indonesia,435827157.0,,,0.534096,123.0624336,https://maps.google.com/?cid=0x0:0x966ef51233030ed4,
hotel,hotel,Saronde Island Resort,"Desa, Ponelo, Saronde island, North Gorontalo Regency, Gorontalo","Kabupaten Gorontalo Utara, Gorontalo",GORONTALO,,Indonesia,81340286000.0,,,0.9264378,122.8640454,https://maps.google.com/?cid=0x0:0x175765bac2ee97b8,
hotel,hotel,oile dive resort,"XW5Q+7MG, Tj. Karang, Kec. Kwandang, Kabupaten Gorontalo Utara, Gorontalo 96252","Tj. Karang, Kec. Kwandang, Kabupaten Gorontalo Utara",GORONTALO,96252.0,Indonesia,,,,0.9581845,122.939214,https://maps.google.com/?cid=0x0:0x38978dbeed76a53,
hotel,Hotel,Zanur Bandara Hotel by Kazeem,"JRRW+WCG, Jl. Bandara Jalaluddin, Tolotio, Kec. Tibawa, Kabupaten Gorontalo, Gorontalo 96251","Jl. Bandara Jalaluddin, Tolotio, Kec. Tibawa, Kabupaten Gorontalo",GORONTALO,96251.0,Indonesia,4358693401.0,,,0.6423039,122.8460704,https://maps.google.com/?cid=0x0:0x663072b398b0947a,
hotel,hotel,Hotel Paradise,"Jl. Pertiwi No.59, Biawao, Kota Sel., Kota Gorontalo, Gorontalo 96133","Biawao, Kota Sel., Kota Gorontalo",GORONTALO,96133.0,Indonesia,435831934.0,,,0.5362841,123.0595642,https://maps.google.com/?cid=0x0:0xa95b0df37d62c166,
hotel,hotel,Hotel Meranti,"Depan Kantor Soempurna, Jln. Jhon Ario Katili (Ex, Jl. Andalas, Kec. Kota Tengah, Kota Gorontalo, Gorontalo 96129","Jln. Jhon Ario Katili (Ex, Jl. Andalas, Kec. Kota Tengah, Kota Gorontalo",GORONTALO,96129.0,Indonesia,85298834277.0,,,0.5681781,123.0653242,https://maps.google.com/?cid=0x0:0x985903e701208657,
hotel,hotel,RoyHo Residence,"Jl. Sultan Botutihe kel No.42, Heledulaa Sel., Kec. Kota Tim., Kota Gorontalo, Gorontalo 96114","Heledulaa Sel., Kec. Kota Tim., Kota Gorontalo",GORONTALO,96114.0,Indonesia,8114345233.0,,,0.5367431,123.0643881,https://maps.google.com/?cid=0x0:0x569c3a660d1847ba,
hotel,hotel,,,,GORONTALO,,Indonesia,,,,,,https://maps.google.com/?cid=0x0:0x2e5e6a8c2f50088%7C/g/11g67c1hlb%7Cid-ID,
hotel,hotel,Mega Anggrek Hotel,"Jl. Arjuna Sel. No.4, Kemanggisan, Kec. Palmerah, Kota Jakarta Barat, Daerah Khusus Ibukota Jakarta 11480","Kemanggisan, Kec. Palmerah, Kota Jakarta Barat",GORONTALO,11480.0,Indonesia,215363044.0,,,-6.1850629,106.789864,https://maps.google.com/?cid=0x0:0x2e5e6a8c2f50088,
hotel,hotel,Gorontalo 96253,"Kabupaten Gorontalo Utara, Gorontalo","Kabupaten Gorontalo Utara, Gorontalo",GORONTALO,,Indonesia,,,,0.8707926,123.1014056,https://maps.google.com/?cid=0x0:0xfa82e81a2bd61d81,
hotel,hotel,Hotel Boroko,"W744+8MW, Kuala, Kec. Kaidipang, Kabupaten Bolaang Mongondow Utara, Sulawesi Utara","Kabupaten Bolaang Mongondow Utara, Sulawesi Utara",GORONTALO,,Indonesia,,,,0.905875,123.2567089,https://maps.google.com/?cid=0x0:0x1a80429172c468bf,
hotel,hotel,Hotel Eljie Syariah Gorontalo,"Jl. Jend. Sudirman No.99, Wumialo, Kec. Kota Tengah, Kabupaten Gorontalo, Gorontalo 96128","Wumialo, Kec. Kota Tengah, Kabupaten Gorontalo",GORONTALO,96128.0,Indonesia,435828279.0,,,0.5539451,123.052566,https://maps.google.com/?cid=0x0:0x35f110f0415ca414,
hotel,hotel,Gorontalo Inn Hotel,"Jl. Tribrata No.107, Ipilo, Kec. Kota Tim., Kota Gorontalo, Gorontalo 96112","Ipilo, Kec. Kota Tim., Kota Gorontalo",GORONTALO,96112.0,Indonesia,8114338875.0,,,0.5352918,123.063721,https://maps.google.com/?cid=0x0:0x9704b47000fef929,
hotel,hotel,The One Hotel Gorontalo,"Jl. Tondano, Tapa, Kec. Sipatana, Kota Gorontalo, Gorontalo 96138","Tapa, Kec. Sipatana, Kota Gorontalo",GORONTALO,96138.0,Indonesia,895417300072.0,,,0.5746668,123.0593639,https://maps.google.com/?cid=0x0:0xc9d6b079b15b9a8d,
hotel,hotel,Ferryzon Hotel,"Jl. Sultan Botutihe No.3, Padebuolo, Kec. Kota Tim., Kota Gorontalo, Gorontalo 96135","Padebuolo, Kec. Kota Tim., Kota Gorontalo",GORONTALO,96135.0,Indonesia,4358531935.0,,,0.5369395,123.0632043,https://maps.google.com/?cid=0x0:0xeeec77145435cf8a,
hotel,hotel,Saronde Island Resort,"Desa, Ponelo, Saronde island, North Gorontalo Regency, Gorontalo","Kabupaten Gorontalo Utara, Gorontalo",GORONTALO,,Indonesia,81340286000.0,,,0.9264378,122.8640454,https://maps.google.com/?cid=0x0:0x175765bac2ee97b8,
hotel,hotel,oile dive resort,"XW5Q+7MG, Tj. Karang, Kec. Kwandang, Kabupaten Gorontalo Utara, Gorontalo 96252","Tj. Karang, Kec. Kwandang, Kabupaten Gorontalo Utara",GORONTALO,96252.0,Indonesia,,,,0.9581845,122.939214,https://maps.google.com/?cid=0x0:0x38978dbeed76a53,
hotel,hotel,H.V Hotel - BANDARA GORONTALO,"JRRW+WCG, Jl. Bandara Jalaluddin, Tolotio, Kec. Tibawa, Kabupaten Gorontalo, Gorontalo 96251","Jl. Bandara Jalaluddin, Tolotio, Kec. Tibawa, Kabupaten Gorontalo",GORONTALO,96251.0,Indonesia,81902311118.0,,,0.6423039,122.8460704,https://maps.google.com/?cid=0x0:0xa53277e131efeec0,
hotel,Hotel,Zanur Bandara Hotel by Kazeem,"JRRW+WCG, Jl. Bandara Jalaluddin, Tolotio, Kec. Tibawa, Kabupaten Gorontalo, Gorontalo 96251","Jl. Bandara Jalaluddin, Tolotio, Kec. Tibawa, Kabupaten Gorontalo",GORONTALO,96251.0,Indonesia,4358693401.0,,,0.6423039,122.8460704,https://maps.google.com/?cid=0x0:0x663072b398b0947a,
hotel,hotel,Hotel Agung,"Pantungo, Kec. Telaga Biru, Kabupaten Gorontalo, Gorontalo 96181","Kec. Telaga Biru, Kabupaten Gorontalo",GORONTALO,96181.0,Indonesia,81314056402.0,,,0.5922255,123.0358751,https://maps.google.com/?cid=0x0:0x51750d921347adc,
hotel,hotel,New Kendy's Hotel,"Jl. Trans Sulawesi, Lalow, Kec. Lolak, Kabupaten Bolaang Mongondow, Sulawesi Utara","Kabupaten Bolaang Mongondow, Sulawesi Utara",GORONTALO,,Indonesia,4342623531.0,,,0.882084,124.0318867,https://maps.google.com/?cid=0x0:0xc533c7e47c683f5,
hotel,Hotel,Hotel Isabela Popayato,"GFFQ+5F3, Tim., Maleo, Kec. Popayato Tim., Kabupaten Pohuwato, Gorontalo 96467","Tim., Maleo, Kec. Popayato Tim., Kabupaten Pohuwato",GORONTALO,96467.0,Indonesia,81356090044.0,,,0.5228793,121.4886678,https://maps.google.com/?cid=0x0:0x510b57793c33542c,
hotel,Hotel,"Penginapan Wisma Moreza,Maleo Popayato","GF7H+XXC, Jl. Trans Sulawesi, Maleo, Kec. Popayato Tim., Kabupaten Pohuwato, Gorontalo 96467","Jl. Trans Sulawesi, Maleo, Kec. Popayato Tim., Kabupaten Pohuwato",GORONTALO,96467.0,Indonesia,85339363911.0,,,0.5149492,121.4798974,https://maps.google.com/?cid=0x0:0x643be8f5bc0bb9e7,
hotel,hotel,Blau,"Windu, Kec. Tolinggula, Kabupaten Gorontalo Utara, Gorontalo","Kabupaten Gorontalo Utara, Gorontalo",GORONTALO,,Indonesia,,,,0.986265,122.223602,https://maps.google.com/?cid=0x0:0x871bc1bc52273216,
hotel,hotel,,,,GORONTALO,,Indonesia,,,,,,https://maps.google.com/?cid=0x0:0xba1d6742efeda58f%7C/g/11bbsyv14k%7Cid-ID,
hotel,hotel,Grand Q Hotel Gorontalo,"Jl. Nani Wartabone No.25, Ipilo, Kec. Kota Tim., Kota Gorontalo, Gorontalo 96133","Ipilo, Kec. Kota Tim., Kota Gorontalo",GORONTALO,96133.0,Indonesia,8114312226.0,,,0.5338603,123.0603315,https://maps.google.com/?cid=0x0:0xba1d6742efeda58f,
hotel,hotel,Millinov Boutique Hotel Gorontalo,"Jl. Jend. Sudirman, Limba U Dua, Kota Sel., Kota Gorontalo, Gorontalo 96138","Limba U Dua, Kota Sel., Kota Gorontalo",GORONTALO,96138.0,Indonesia,82191010900.0,,,0.5527005,123.0542554,https://maps.google.com/?cid=0x0:0x1289bd70edaca21f,
hotel,hotel,Gorontalo Inn Hotel,"Jl. Tribrata No.107, Ipilo, Kec. Kota Tim., Kota Gorontalo, Gorontalo 96112","Ipilo, Kec. Kota Tim., Kota Gorontalo",GORONTALO,96112.0,Indonesia,8114338875.0,,,0.5352918,123.063721,https://maps.google.com/?cid=0x0:0x9704b47000fef929,
hotel,hotel,Biau,"Kec. Bukal, Kabupaten Buol, Sulawesi Tengah","Kabupaten Buol, Sulawesi Tengah",GORONTALO,,Indonesia,,,,1.0813143,121.4484747,https://maps.google.com/?cid=0x0:0xd4aa98bb7cffee59,
hotel,hotel,Hotel Paradise,"Jl. Pertiwi No.59, Biawao, Kota Sel., Kota Gorontalo, Gorontalo 96133","Biawao, Kota Sel., Kota Gorontalo",GORONTALO,96133.0,Indonesia,435831934.0,,,0.5362841,123.0595642,https://maps.google.com/?cid=0x0:0xa95b0df37d62c166,
hotel,hotel,Hotel Sri Utami,"5C47+953, Kulango, Kec. Biau, Kabupaten Buol, Sulawesi Tengah 94565","Kulango, Kec. Biau, Kabupaten Buol",GORONTALO,94565.0,Indonesia,,,,1.155892,121.4129255,https://maps.google.com/?cid=0x0:0x2d2d1de02d75f143,
hotel,hotel,Penginapan Citra Rezky,"leok 1 Jl. Sedap Malam No.31, Leok I, Kec. Biau, Kabupaten Buol, Sulawesi Tengah 94563","Leok I, Kec. Biau, Kabupaten Buol",GORONTALO,94563.0,Indonesia,82259288309.0,,,1.1849455,121.4164302,https://maps.google.com/?cid=0x0:0x3d4a68f17c204fe6,
hotel,Tempat Parkir,Biau,"X6J7+W88, Jl. Buol - Gorontalo, Biawu, Kec. Tolinggula, Kabupaten Gorontalo Utara, Gorontalo 96524","Jl. Buol - Gorontalo, Biawu, Kec. Tolinggula, Kabupaten Gorontalo Utara",GORONTALO,96524.0,Indonesia,,,,0.982294,122.213335,https://maps.google.com/?cid=0x0:0x52f14f990728822,
hotel,Wilayah Lintas Alam,Pusat Kecamatan Biau,"X6P8+8QG, Jl. Buol - Gorontalo, Biawu, Kec. Tolinggula, Kabupaten Gorontalo Utara, Gorontalo 96524","Jl. Buol - Gorontalo, Biawu, Kec. Tolinggula, Kabupaten Gorontalo Utara",GORONTALO,96524.0,Indonesia,,,,0.9858198,122.2169458,https://maps.google.com/?cid=0x0:0x49483cbb167b89fe,
hotel,Toko bahan makanan,Winda Home,"X6H7+W6V, Jl. Trans Sulawesi, Bualo, Kec. Biau, Kabupaten Gorontalo Utara, Gorontalo","Kabupaten Gorontalo Utara, Gorontalo",GORONTALO,,Indonesia,,,,0.9798522,122.2130453,https://maps.google.com/?cid=0x0:0x535be985841642d1,
hotel,hotel,Hotel Meranti,"Depan Kantor Soempurna, Jln. Jhon Ario Katili (Ex, Jl. Andalas, Kec. Kota Tengah, Kota Gorontalo, Gorontalo 96129","Jln. Jhon Ario Katili (Ex, Jl. Andalas, Kec. Kota Tengah, Kota Gorontalo",GORONTALO,96129.0,Indonesia,85298834277.0,,,0.5681781,123.0653242,https://maps.google.com/?cid=0x0:0x985903e701208657,
hotel,hotel,RoyHo Residence,"Jl. Sultan Botutihe kel No.42, Heledulaa Sel., Kec. Kota Tim., Kota Gorontalo, Gorontalo 96114","Heledulaa Sel., Kec. Kota Tim., Kota Gorontalo",GORONTALO,96114.0,Indonesia,8114345233.0,,,0.5367431,123.0643881,https://maps.google.com/?cid=0x0:0x569c3a660d1847ba,
hotel,hotel,Hotel Sri Utami,"5C47+953, Kulango, Kec. Biau, Kabupaten Buol, Sulawesi Tengah 94565","Kulango, Kec. Biau, Kabupaten Buol",GORONTALO,94565.0,Indonesia,,,,1.155892,121.4129255,https://maps.google.com/?cid=0x0:0x2d2d1de02d75f143,
hotel,hotel,Gunung Pogogul,"39Q6+62P, Taluan, Kec. Momunu, Kabupaten Buol, Sulawesi Tengah","Kabupaten Buol, Sulawesi Tengah",GORONTALO,,Indonesia,,,,1.0880981,121.3600767,https://maps.google.com/?cid=0x0:0x9e45ff5243cb0216,
hotel,hotel,Kec. Gentuma Raya,"Kabupaten Gorontalo Utara, Gorontalo","Kabupaten Gorontalo Utara, Gorontalo",GORONTALO,,Indonesia,,,,0.9300102,123.0377072,https://maps.google.com/?cid=0x0:0xc9d73598b0af1e0,
hotel,hotel,Gorontalo Inn Hotel,"Jl. Tribrata No.107, Ipilo, Kec. Kota Tim., Kota Gorontalo, Gorontalo 96112","Ipilo, Kec. Kota Tim., Kota Gorontalo",GORONTALO,96112.0,Indonesia,8114338875.0,,,0.5352918,123.063721,https://maps.google.com/?cid=0x0:0x9704b47000fef929,
hotel,hotel,oile dive resort,"XW5Q+7MG, Tj. Karang, Kec. Kwandang, Kabupaten Gorontalo Utara, Gorontalo 96252","Tj. Karang, Kec. Kwandang, Kabupaten Gorontalo Utara",GORONTALO,96252.0,Indonesia,,,,0.9581845,122.939214,https://maps.google.com/?cid=0x0:0x38978dbeed76a53,
hotel,hotel,Hotel Meranti,"Depan Kantor Soempurna, Jln. Jhon Ario Katili (Ex, Jl. Andalas, Kec. Kota Tengah, Kota Gorontalo, Gorontalo 96129","Jln. Jhon Ario Katili (Ex, Jl. Andalas, Kec. Kota Tengah, Kota Gorontalo",GORONTALO,96129.0,Indonesia,85298834277.0,,,0.5681781,123.0653242,https://maps.google.com/?cid=0x0:0x985903e701208657,
hotel,hotel,Citra Hotel,"Jl. Taki Niode No.36, Ipilo, Kec. Kota Tim., Kota Gorontalo, Gorontalo 96112","Ipilo, Kec. Kota Tim., Kota Gorontalo",GORONTALO,96112.0,Indonesia,435827157.0,,,0.534096,123.0624336,https://maps.google.com/?cid=0x0:0x966ef51233030ed4,
hotel,hotel,Airy Eco Kota Selatan Pertiwi 59 Gorontalo,"Jl. Pertiwi No.59, Biawao, Kota Sel., Kota Gorontalo, Gorontalo 96111","Biawao, Kota Sel., Kota Gorontalo",GORONTALO,96111.0,Indonesia,8041112479.0,,,0.5362094,123.0595629,https://maps.google.com/?cid=0x0:0x8244cec3cd275bb3,
hotel,hotel,RoyHo Residence,"Jl. Sultan Botutihe kel No.42, Heledulaa Sel., Kec. Kota Tim., Kota Gorontalo, Gorontalo 96114","Heledulaa Sel., Kec. Kota Tim., Kota Gorontalo",GORONTALO,96114.0,Indonesia,8114345233.0,,,0.5367431,123.0643881,https://maps.google.com/?cid=0x0:0x569c3a660d1847ba,
hotel,hotel,Gorontalo 96252,"Kec. Kwandang, Kabupaten Gorontalo Utara, Gorontalo","Kabupaten Gorontalo Utara, Gorontalo",GORONTALO,,Indonesia,,,,0.8083426,122.9212265,https://maps.google.com/?cid=0x0:0x8516fb933d27785f,
hotel,hotel,Grand Q Hotel Gorontalo,"Jl. Nani Wartabone No.25, Ipilo, Kec. Kota Tim., Kota Gorontalo, Gorontalo 96133","Ipilo, Kec. Kota Tim., Kota Gorontalo",GORONTALO,96133.0,Indonesia,8114312226.0,,,0.5338603,123.0603315,https://maps.google.com/?cid=0x0:0xba1d6742efeda58f,
hotel,hotel,,,,GORONTALO,,Indonesia,,,,,,https://maps.google.com/?cid=0x0:0xba1d6742efeda58f%7C/g/11bbsyv14k%7Cid-ID,
hotel,hotel,Hotel Eljie Syariah Gorontalo,"Jl. Jend. Sudirman No.99, Wumialo, Kec. Kota Tengah, Kabupaten Gorontalo, Gorontalo 96128","Wumialo, Kec. Kota Tengah, Kabupaten Gorontalo",GORONTALO,96128.0,Indonesia,435828279.0,,,0.5539451,123.052566,https://maps.google.com/?cid=0x0:0x35f110f0415ca414,
hotel,hotel,Gorontalo Inn Hotel,"Jl. Tribrata No.107, Ipilo, Kec. Kota Tim., Kota Gorontalo, Gorontalo 96112","Ipilo, Kec. Kota Tim., Kota Gorontalo",GORONTALO,96112.0,Indonesia,8114338875.0,,,0.5352918,123.063721,https://maps.google.com/?cid=0x0:0x9704b47000fef929,
hotel,hotel,Hotel Varia,"Jl. Moh. Yamin II, Limba B, Kota Sel., Kota Gorontalo, Gorontalo 96136","Limba B, Kota Sel., Kota Gorontalo",GORONTALO,96136.0,Indonesia,82156740246.0,,,0.5399234,123.0544117,https://maps.google.com/?cid=0x0:0xddf41a3501b72e1a,
hotel,hotel,Yulia Hotel Managed by HIG,"Jl. Nani Wartabone No.26, Ipilo, Kec. Kota Tim., Kota Gorontalo, Gorontalo 96133","Ipilo, Kec. Kota Tim., Kota Gorontalo",GORONTALO,96133.0,Indonesia,4358531028.0,,,0.5341772,123.0603156,https://maps.google.com/?cid=0x0:0x61605f59789edc49,
hotel,hotel,Hotel Santorini,"Jl. HOS. Cokroaminoto No.86, Limba U I, Kota Sel., Kota Gorontalo, Gorontalo 96135","Limba U I, Kota Sel., Kota Gorontalo",GORONTALO,96135.0,Indonesia,,,,0.54547,123.0627912,https://maps.google.com/?cid=0x0:0xb7922d0d9a8669dc,
hotel,hotel,Hotel Meranti,"Depan Kantor Soempurna, Jln. Jhon Ario Katili (Ex, Jl. Andalas, Kec. Kota Tengah, Kota Gorontalo, Gorontalo 96129","Jln. Jhon Ario Katili (Ex, Jl. Andalas, Kec. Kota Tengah, Kota Gorontalo",GORONTALO,96129.0,Indonesia,85298834277.0,,,0.5681781,123.0653242,https://maps.google.com/?cid=0x0:0x985903e701208657,
hotel,hotel,Ferryzon Hotel,"Jl. Sultan Botutihe No.3, Padebuolo, Kec. Kota Tim., Kota Gorontalo, Gorontalo 96135","Padebuolo, Kec. Kota Tim., Kota Gorontalo",GORONTALO,96135.0,Indonesia,4358531935.0,,,0.5369395,123.0632043,https://maps.google.com/?cid=0x0:0xeeec77145435cf8a,
hotel,hotel,,,,GORONTALO,,Indonesia,,,,,,https://maps.google.com/?cid=0x0:0xe6476dd4661b70e5%7C/g/11fk8zr09s%7Cid-ID,
hotel,hotel,RedDoorz Syariah near Universitas Negeri Gorontalo 2,"Jl. HOS. Cokroaminoto, Heledulaa, Kec. Kota Tim., Kota Gorontalo, Gorontalo 96135","Heledulaa, Kec. Kota Tim., Kota Gorontalo",GORONTALO,96135.0,Indonesia,895417300072.0,,,0.5506477,123.0638687,https://maps.google.com/?cid=0x0:0xe6476dd4661b70e5,
hotel,hotel,H.V Hotel - BANDARA GORONTALO,"JRRW+WCG, Jl. Bandara Jalaluddin, Tolotio, Kec. Tibawa, Kabupaten Gorontalo, Gorontalo 96251","Jl. Bandara Jalaluddin, Tolotio, Kec. Tibawa, Kabupaten Gorontalo",GORONTALO,96251.0,Indonesia,81902311118.0,,,0.6423039,122.8460704,https://maps.google.com/?cid=0x0:0xa53277e131efeec0,
hotel,Hotel,Zanur Bandara Hotel by Kazeem,"JRRW+WCG, Jl. Bandara Jalaluddin, Tolotio, Kec. Tibawa, Kabupaten Gorontalo, Gorontalo 96251","Jl. Bandara Jalaluddin, Tolotio, Kec. Tibawa, Kabupaten Gorontalo",GORONTALO,96251.0,Indonesia,4358693401.0,,,0.6423039,122.8460704,https://maps.google.com/?cid=0x0:0x663072b398b0947a,
hotel,hotel,oile dive resort,"XW5Q+7MG, Tj. Karang, Kec. Kwandang, Kabupaten Gorontalo Utara, Gorontalo 96252","Tj. Karang, Kec. Kwandang, Kabupaten Gorontalo Utara",GORONTALO,96252.0,Indonesia,,,,0.9581845,122.939214,https://maps.google.com/?cid=0x0:0x38978dbeed76a53,
hotel,hotel,Guest House Hotel,"H2CW+VRH, Pulubala, Kec. Kota Tengah, Kabupaten Gorontalo, Gorontalo 96138","Pulubala, Kec. Kota Tengah, Kabupaten Gorontalo",GORONTALO,96138.0,Indonesia,4358592414.0,,,0.5721757,123.0471119,https://maps.google.com/?cid=0x0:0x7a3fd50823f5557a,
hotel,hotel,Saronde Island Resort,"Desa, Ponelo, Saronde island, North Gorontalo Regency, Gorontalo","Kabupaten Gorontalo Utara, Gorontalo",GORONTALO,,Indonesia,81340286000.0,,,0.9264378,122.8640454,https://maps.google.com/?cid=0x0:0x175765bac2ee97b8,
hotel,hotel,,,,GORONTALO,,Indonesia,,,,,,https://maps.google.com/?cid=0x0:0x7a3fd50823f5557a%7C/g/11cscbw9rl%7Cid-ID,
hotel,hotel,Citra Hotel,"Jl. Taki Niode No.36, Ipilo, Kec. Kota Tim., Kota Gorontalo, Gorontalo 96112","Ipilo, Kec. Kota Tim., Kota Gorontalo",GORONTALO,96112.0,Indonesia,435827157.0,,,0.534096,123.0624336,https://maps.google.com/?cid=0x0:0x966ef51233030ed4,
hotel,hotel,Karina Hotel,"Jl. Ahmad Yani, Biawao, Kota Sel., Kota Gorontalo, Gorontalo 96133","Biawao, Kota Sel., Kota Gorontalo",GORONTALO,96133.0,Indonesia,,,,0.5356802,123.0601585,https://maps.google.com/?cid=0x0:0x7ddbecdb9d7eaabc,
hotel,hotel,Shava Beach Resort,"Jl. Trans Sulawesi, Biluango, Kec. Kabila Bone, Kabupaten Bone Bolango, Gorontalo 96583","Biluango, Kec. Kabila Bone, Kabupaten Bone Bolango",GORONTALO,96583.0,Indonesia,81355177377.0,,,0.4624014,123.1142284,https://maps.google.com/?cid=0x0:0x2b1572eddc9f300a,
hotel,hotel,Monano,"Kec. Anggrek, Kabupaten Gorontalo Utara, Gorontalo","Kabupaten Gorontalo Utara, Gorontalo",GORONTALO,,Indonesia,,,,0.8567497,122.6870742,https://maps.google.com/?cid=0x0:0xfb9832e634d0d5c8,
hotel,hotel,FOX Hotel Gorontalo,"Jl. Kasuari I No.76, Heledulaa Sel., Kec. Kota Tim., Kota Gorontalo, Gorontalo 96114","Heledulaa Sel., Kec. Kota Tim., Kota Gorontalo",GORONTALO,96114.0,Indonesia,4358592676.0,,,0.5375739,123.0627081,https://maps.google.com/?cid=0x0:0x4a03675ac81282e,
hotel,hotel,ASTON Gorontalo Hotel  Villas,"Jl. Manggis No.88, Libuo, Kec. Dungingi, Kota Gorontalo, Gorontalo 96136","Libuo, Kec. Dungingi, Kota Gorontalo",GORONTALO,96136.0,Indonesia,4358538888.0,,,0.5441452,123.0504079,https://maps.google.com/?cid=0x0:0x89476fb7b6ecd23c,
hotel,hotel,Grand Q Hotel Gorontalo,"Jl. Nani Wartabone No.25, Ipilo, Kec. Kota Tim., Kota Gorontalo, Gorontalo 96133","Ipilo, Kec. Kota Tim., Kota Gorontalo",GORONTALO,96133.0,Indonesia,8114312226.0,,,0.5338603,123.0603315,https://maps.google.com/?cid=0x0:0xba1d6742efeda58f,
hotel,hotel,,,,GORONTALO,,Indonesia,,,,,,https://maps.google.com/?cid=0x0:0xba1d6742efeda58f%7C/g/11bbsyv14k%7Cid-ID,
hotel,hotel,Hotel Varia,"Jl. Moh. Yamin II, Limba B, Kota Sel., Kota Gorontalo, Gorontalo 96136","Limba B, Kota Sel., Kota Gorontalo",GORONTALO,96136.0,Indonesia,82156740246.0,,,0.5399234,123.0544117,https://maps.google.com/?cid=0x0:0xddf41a3501b72e1a,
hotel,hotel,Hotel Citimall Gorontalo,"Botuhite Jl. Sultan Botutihe No.88, Heledulaa Selatan, Kota Timur, Bone Bolango Regency, Gorontalo 96115","Heledulaa Selatan, Kota Timur, Bone Bolango Regency",GORONTALO,96115.0,Indonesia,,,,0.5378188,123.0626416,https://maps.google.com/?cid=0x0:0x3452b811598d1e,
hotel,hotel,Hotel Eljie Syariah Gorontalo,"Jl. Jend. Sudirman No.99, Wumialo, Kec. Kota Tengah, Kabupaten Gorontalo, Gorontalo 96128","Wumialo, Kec. Kota Tengah, Kabupaten Gorontalo",GORONTALO,96128.0,Indonesia,435828279.0,,,0.5539451,123.052566,https://maps.google.com/?cid=0x0:0x35f110f0415ca414,
hotel,hotel,Yulia Hotel Managed by HIG,"Jl. Nani Wartabone No.26, Ipilo, Kec. Kota Tim., Kota Gorontalo, Gorontalo 96133","Ipilo, Kec. Kota Tim., Kota Gorontalo",GORONTALO,96133.0,Indonesia,4358531028.0,,,0.5341772,123.0603156,https://maps.google.com/?cid=0x0:0x61605f59789edc49,
hotel,hotel,Millinov Boutique Hotel Gorontalo,"Jl. Jend. Sudirman, Limba U Dua, Kota Sel., Kota Gorontalo, Gorontalo 96138","Limba U Dua, Kota Sel., Kota Gorontalo",GORONTALO,96138.0,Indonesia,82191010900.0,,,0.5527005,123.0542554,https://maps.google.com/?cid=0x0:0x1289bd70edaca21f,
hotel,hotel,Gorontalo Inn Hotel,"Jl. Tribrata No.107, Ipilo, Kec. Kota Tim., Kota Gorontalo, Gorontalo 96112","Ipilo, Kec. Kota Tim., Kota Gorontalo",GORONTALO,96112.0,Indonesia,8114338875.0,,,0.5352918,123.063721,https://maps.google.com/?cid=0x0:0x9704b47000fef929,
hotel,hotel,The One Hotel Gorontalo,"Jl. Tondano, Tapa, Kec. Sipatana, Kota Gorontalo, Gorontalo 96138","Tapa, Kec. Sipatana, Kota Gorontalo",GORONTALO,96138.0,Indonesia,895417300072.0,,,0.5746668,123.0593639,https://maps.google.com/?cid=0x0:0xc9d6b079b15b9a8d,
hotel,hotel,Amaris Hotel Gorontalo,"Jl. Sultan Botutihe No.37, Ipilo, Kec. Kota Tim., Kota Gorontalo, Gorontalo 96114","Ipilo, Kec. Kota Tim., Kota Gorontalo",GORONTALO,96114.0,Indonesia,435830988.0,,,0.5366179,123.0632919,https://maps.google.com/?cid=0x0:0x75e1ec66b82ecbf7,
hotel,hotel,,,,GORONTALO,,Indonesia,,,,,,https://maps.google.com/?cid=0x0:0x75e1ec66b82ecbf7%7C/g/11b6b3nhq7%7Cid-ID,
hotel,hotel,Hotel Meranti,"Depan Kantor Soempurna, Jln. Jhon Ario Katili (Ex, Jl. Andalas, Kec. Kota Tengah, Kota Gorontalo, Gorontalo 96129","Jln. Jhon Ario Katili (Ex, Jl. Andalas, Kec. Kota Tengah, Kota Gorontalo",GORONTALO,96129.0,Indonesia,85298834277.0,,,0.5681781,123.0653242,https://maps.google.com/?cid=0x0:0x985903e701208657,
hotel,hotel,Ferryzon Hotel,"Jl. Sultan Botutihe No.3, Padebuolo, Kec. Kota Tim., Kota Gorontalo, Gorontalo 96135","Padebuolo, Kec. Kota Tim., Kota Gorontalo",GORONTALO,96135.0,Indonesia,4358531935.0,,,0.5369395,123.0632043,https://maps.google.com/?cid=0x0:0xeeec77145435cf8a,
hotel,hotel,Hotel Santorini,"Jl. HOS. Cokroaminoto No.86, Limba U I, Kota Sel., Kota Gorontalo, Gorontalo 96135","Limba U I, Kota Sel., Kota Gorontalo",GORONTALO,96135.0,Indonesia,,,,0.54547,123.0627912,https://maps.google.com/?cid=0x0:0xb7922d0d9a8669dc,
hotel,hotel,Crystal Harmony Hotel,"Jl. Jaksa Agung Suprapto No.5, Limba U Dua, Kota Sel., Kota Gorontalo, Gorontalo 96138","Limba U Dua, Kota Sel., Kota Gorontalo",GORONTALO,96138.0,Indonesia,81344429197.0,,,0.5445267,123.0568267,https://maps.google.com/?cid=0x0:0xdfc3a7f2c91382ee,
hotel,hotel,HOTEL RACHMAT,"G3X7+9FV, Heledulaa, Kec. Kota Tim., Kota Gorontalo, Gorontalo 96135","Heledulaa, Kec. Kota Tim., Kota Gorontalo",GORONTALO,96135.0,Indonesia,,,,0.5484827,123.0636741,https://maps.google.com/?cid=0x0:0x303a3e36e293f62b,
hotel,hotel,Karina Hotel,"Jl. Ahmad Yani, Biawao, Kota Sel., Kota Gorontalo, Gorontalo 96133","Biawao, Kota Sel., Kota Gorontalo",GORONTALO,96133.0,Indonesia,,,,0.5356802,123.0601585,https://maps.google.com/?cid=0x0:0x7ddbecdb9d7eaabc,
hotel,hotel,RoyHo Residence,"Jl. Sultan Botutihe kel No.42, Heledulaa Sel., Kec. Kota Tim., Kota Gorontalo, Gorontalo 96114","Heledulaa Sel., Kec. Kota Tim., Kota Gorontalo",GORONTALO,96114.0,Indonesia,8114345233.0,,,0.5367431,123.0643881,https://maps.google.com/?cid=0x0:0x569c3a660d1847ba,
hotel,hotel,Hotel Paradise,"Jl. Pertiwi No.59, Biawao, Kota Sel., Kota Gorontalo, Gorontalo 96133","Biawao, Kota Sel., Kota Gorontalo",GORONTALO,96133.0,Indonesia,435831934.0,,,0.5362841,123.0595642,https://maps.google.com/?cid=0x0:0xa95b0df37d62c166,
hotel,hotel,,,,GORONTALO,,Indonesia,,,,,,https://maps.google.com/?cid=0x0:0x7a3fd50823f5557a%7C/g/11cscbw9rl%7Cid-ID,
hotel,hotel,Guest House Hotel,"H2CW+VRH, Pulubala, Kec. Kota Tengah, Kabupaten Gorontalo, Gorontalo 96138","Pulubala, Kec. Kota Tengah, Kabupaten Gorontalo",GORONTALO,96138.0,Indonesia,4358592414.0,,,0.5721757,123.0471119,https://maps.google.com/?cid=0x0:0x7a3fd50823f5557a,
hotel,hotel,Maharani Backpackers Homestay,"Jl. Gn. Rinjani, Siendeng, Kec. Hulonthalangi, Kota Gorontalo, Gorontalo 96111","Siendeng, Kec. Hulonthalangi, Kota Gorontalo",GORONTALO,96111.0,Indonesia,81342035519.0,,,0.5309554,123.0551919,https://maps.google.com/?cid=0x0:0x9955f5f6c7ab99c6,
hotel,Penginapan,Penginapan citra monas,"VMJQ+X4W, Jl. Buol - Gorontalo, Monas, Kec. Anggrek, Kabupaten Gorontalo Utara, Gorontalo 96525","Jl. Buol - Gorontalo, Monas, Kec. Anggrek, Kabupaten Gorontalo Utara",GORONTALO,96525.0,Indonesia,,,,0.8824891,122.6877358,https://maps.google.com/?cid=0x0:0xbc58bdfca858ad3f,
hotel,Komplek perumahan,"Monas, Monano - Gorontalo Utara","WMG9+699, Jl. Buol - Gorontalo, Dunu, Kec. Anggrek, Kabupaten Gorontalo Utara, Gorontalo 96525","Jl. Buol - Gorontalo, Dunu, Kec. Anggrek, Kabupaten Gorontalo Utara",GORONTALO,96525.0,Indonesia,,,,0.9255261,122.6684814,https://maps.google.com/?cid=0x0:0x3d575133df39e1f7,
hotel,Otoritas Pelabuhan,Ponelo Kepulauan,"VVRP+693, Jl. Kec. Ponelo, Moluo, Kec. Kwandang, Kabupaten Gorontalo Utara, Gorontalo","Kabupaten Gorontalo Utara, Gorontalo",GORONTALO,,Indonesia,,,,0.8905172,122.8859277,https://maps.google.com/?cid=0x0:0x3adda2027890f34b,
hotel,hotel,ASTON Gorontalo Hotel  Villas,"Jl. Manggis No.88, Libuo, Kec. Dungingi, Kota Gorontalo, Gorontalo 96136","Libuo, Kec. Dungingi, Kota Gorontalo",GORONTALO,96136.0,Indonesia,4358538888.0,,,0.5441452,123.0504079,https://maps.google.com/?cid=0x0:0x89476fb7b6ecd23c,
hotel,hotel,Amaris Hotel Gorontalo,"Jl. Sultan Botutihe No.37, Ipilo, Kec. Kota Tim., Kota Gorontalo, Gorontalo 96114","Ipilo, Kec. Kota Tim., Kota Gorontalo",GORONTALO,96114.0,Indonesia,435830988.0,,,0.5366179,123.0632919,https://maps.google.com/?cid=0x0:0x75e1ec66b82ecbf7,
hotel,hotel,Yulia Hotel Managed by HIG,"Jl. Nani Wartabone No.26, Ipilo, Kec. Kota Tim., Kota Gorontalo, Gorontalo 96133","Ipilo, Kec. Kota Tim., Kota Gorontalo",GORONTALO,96133.0,Indonesia,4358531028.0,,,0.5341772,123.0603156,https://maps.google.com/?cid=0x0:0x61605f59789edc49,
hotel,hotel,oile dive resort,"XW5Q+7MG, Tj. Karang, Kec. Kwandang, Kabupaten Gorontalo Utara, Gorontalo 96252","Tj. Karang, Kec. Kwandang, Kabupaten Gorontalo Utara",GORONTALO,96252.0,Indonesia,,,,0.9581845,122.939214,https://maps.google.com/?cid=0x0:0x38978dbeed76a53,
hotel,hotel,The One Hotel Gorontalo,"Jl. Tondano, Tapa, Kec. Sipatana, Kota Gorontalo, Gorontalo 96138","Tapa, Kec. Sipatana, Kota Gorontalo",GORONTALO,96138.0,Indonesia,895417300072.0,,,0.5746668,123.0593639,https://maps.google.com/?cid=0x0:0xc9d6b079b15b9a8d,
hotel,hotel,Gorontalo Inn Hotel,"Jl. Tribrata No.107, Ipilo, Kec. Kota Tim., Kota Gorontalo, Gorontalo 96112","Ipilo, Kec. Kota Tim., Kota Gorontalo",GORONTALO,96112.0,Indonesia,8114338875.0,,,0.5352918,123.063721,https://maps.google.com/?cid=0x0:0x9704b47000fef929,
hotel,hotel,Ferryzon Hotel,"Jl. Sultan Botutihe No.3, Padebuolo, Kec. Kota Tim., Kota Gorontalo, Gorontalo 96135","Padebuolo, Kec. Kota Tim., Kota Gorontalo",GORONTALO,96135.0,Indonesia,4358531935.0,,,0.5369395,123.0632043,https://maps.google.com/?cid=0x0:0xeeec77145435cf8a,
hotel,hotel,Gorontalo 96252,"Kec. Kwandang, Kabupaten Gorontalo Utara, Gorontalo","Kabupaten Gorontalo Utara, Gorontalo",GORONTALO,,Indonesia,,,,0.8083426,122.9212265,https://maps.google.com/?cid=0x0:0x8516fb933d27785f,
hotel,Hotel,Pulau Saronde Gorontalo,"WVG7+GHJ, Moluo, Kec. Kwandang, Kabupaten Gorontalo Utara, Gorontalo","Kabupaten Gorontalo Utara, Gorontalo",GORONTALO,,Indonesia,,,,0.9263376,122.863895,https://maps.google.com/?cid=0x0:0xa8beb2a832ae8176,
hotel,Hotel sehat,HOTEL BIDADARI,"Jl. Siswa No.461, Moluo, Kec. Kwandang, Kabupaten Gorontalo Utara, Gorontalo 96252","Moluo, Kec. Kwandang, Kabupaten Gorontalo Utara",GORONTALO,96252.0,Indonesia,442310227.0,,,0.8396573,122.9135704,https://maps.google.com/?cid=0x0:0x8a9376f886cb5d43,
hotel,hotel,Gorontalo 96254,"Kabupaten Gorontalo Utara, Gorontalo","Kabupaten Gorontalo Utara, Gorontalo",GORONTALO,,Indonesia,,,,0.926195,122.4014193,https://maps.google.com/?cid=0x0:0x9a29fb0ff347278,
hotel,hotel,Hotel Eljie Syariah Gorontalo,"Jl. Jend. Sudirman No.99, Wumialo, Kec. Kota Tengah, Kabupaten Gorontalo, Gorontalo 96128","Wumialo, Kec. Kota Tengah, Kabupaten Gorontalo",GORONTALO,96128.0,Indonesia,435828279.0,,,0.5539451,123.052566,https://maps.google.com/?cid=0x0:0x35f110f0415ca414,
hotel,hotel,Hotel Citimall Gorontalo,"Botuhite Jl. Sultan Botutihe No.88, Heledulaa Selatan, Kota Timur, Bone Bolango Regency, Gorontalo 96115","Heledulaa Selatan, Kota Timur, Bone Bolango Regency",GORONTALO,96115.0,Indonesia,,,,0.5378188,123.0626416,https://maps.google.com/?cid=0x0:0x3452b811598d1e,
hotel,hotel,Amaris Hotel Gorontalo,"Jl. Sultan Botutihe No.37, Ipilo, Kec. Kota Tim., Kota Gorontalo, Gorontalo 96114","Ipilo, Kec. Kota Tim., Kota Gorontalo",GORONTALO,96114.0,Indonesia,435830988.0,,,0.5366179,123.0632919,https://maps.google.com/?cid=0x0:0x75e1ec66b82ecbf7,
hotel,hotel,,,,GORONTALO,,Indonesia,,,,,,https://maps.google.com/?cid=0x0:0x75e1ec66b82ecbf7%7C/g/11b6b3nhq7%7Cid-ID,
hotel,hotel,Gorontalo Inn Hotel,"Jl. Tribrata No.107, Ipilo, Kec. Kota Tim., Kota Gorontalo, Gorontalo 96112","Ipilo, Kec. Kota Tim., Kota Gorontalo",GORONTALO,96112.0,Indonesia,8114338875.0,,,0.5352918,123.063721,https://maps.google.com/?cid=0x0:0x9704b47000fef929,
hotel,hotel,Sea Dionumo Wonderland,"Deme II, Kec. Sumalata, Kabupaten Gorontalo Utara, Gorontalo","Kabupaten Gorontalo Utara, Gorontalo",GORONTALO,,Indonesia,82191939252.0,,,0.9880094,122.5256168,https://maps.google.com/?cid=0x0:0xff09ba9d3930d881,
hotel,hotel,Hotel Meranti,"Depan Kantor Soempurna, Jln. Jhon Ario Katili (Ex, Jl. Andalas, Kec. Kota Tengah, Kota Gorontalo, Gorontalo 96129","Jln. Jhon Ario Katili (Ex, Jl. Andalas, Kec. Kota Tengah, Kota Gorontalo",GORONTALO,96129.0,Indonesia,85298834277.0,,,0.5681781,123.0653242,https://maps.google.com/?cid=0x0:0x985903e701208657,
hotel,hotel,RoyHo Residence,"Jl. Sultan Botutihe kel No.42, Heledulaa Sel., Kec. Kota Tim., Kota Gorontalo, Gorontalo 96114","Heledulaa Sel., Kec. Kota Tim., Kota Gorontalo",GORONTALO,96114.0,Indonesia,8114345233.0,,,0.5367431,123.0643881,https://maps.google.com/?cid=0x0:0x569c3a660d1847ba,
hotel,hotel,Shava Beach Resort,"Jl. Trans Sulawesi, Biluango, Kec. Kabila Bone, Kabupaten Bone Bolango, Gorontalo 96583","Biluango, Kec. Kabila Bone, Kabupaten Bone Bolango",GORONTALO,96583.0,Indonesia,81355177377.0,,,0.4624014,123.1142284,https://maps.google.com/?cid=0x0:0x2b1572eddc9f300a,
hotel,hotel,Sumalata,"Wubudu, Kec. Sumalata, Kabupaten Gorontalo Utara, Gorontalo","Kabupaten Gorontalo Utara, Gorontalo",GORONTALO,,Indonesia,,,,0.980095,122.490997,https://maps.google.com/?cid=0x0:0xe5cfc95986060eba,
hotel,hotel,Century Beach Resort,"Lorong Al. Pat 11, Leato Sel., Kec. Dumbo Raya, Kota Gorontalo, Gorontalo 96116","Leato Sel., Kec. Dumbo Raya, Kota Gorontalo",GORONTALO,96116.0,Indonesia,85100888889.0,,,0.4881937,123.0814296,https://maps.google.com/?cid=0x0:0x7f6e732ed628b592,
hotel,hotel,Millinov Boutique Hotel Gorontalo,"Jl. Jend. Sudirman, Limba U Dua, Kota Sel., Kota Gorontalo, Gorontalo 96138","Limba U Dua, Kota Sel., Kota Gorontalo",GORONTALO,96138.0,Indonesia,82191010900.0,,,0.5527005,123.0542554,https://maps.google.com/?cid=0x0:0x1289bd70edaca21f,
hotel,hotel,HOMESTAY MAHERZA GORONTALO,"Jl. HOS. Cokroaminoto No.164, Limba U I, Kota Sel., Kota Gorontalo, Gorontalo 96135","Limba U I, Kota Sel., Kota Gorontalo",GORONTALO,96135.0,Indonesia,895417300072.0,,,0.5503014,123.0636536,https://maps.google.com/?cid=0x0:0x3debcecaf8302b29,
hotel,hotel,Julista House,"Unnamed Road, Modelomo, Kec. Tilamuta, Kabupaten Boalemo, Gorontalo 96263","Modelomo, Kec. Tilamuta, Kabupaten Boalemo",GORONTALO,96263.0,Indonesia,895417300072.0,,,0.522356,122.346384,https://maps.google.com/?cid=0x0:0x4e278a7987d79279,
hotel,hotel,ASTON Gorontalo Hotel  Villas,"Jl. Manggis No.88, Libuo, Kec. Dungingi, Kota Gorontalo, Gorontalo 96136","Libuo, Kec. Dungingi, Kota Gorontalo",GORONTALO,96136.0,Indonesia,4358538888.0,,,0.5441452,123.0504079,https://maps.google.com/?cid=0x0:0x89476fb7b6ecd23c,
hotel,hotel,Oasis Hotel,"Jl. Kh. Agus Salim No.29, Limba B, Kota Sel., Kota Gorontalo, Gorontalo 96136","Limba B, Kota Sel., Kota Gorontalo",GORONTALO,96136.0,Indonesia,435823157.0,,,0.5442815,123.0547856,https://maps.google.com/?cid=0x0:0x565b97a63bed7239,
hotel,hotel,,,,GORONTALO,,Indonesia,,,,,,https://maps.google.com/?cid=0x0:0x89476fb7b6ecd23c%7C/g/11k5hr2tj2%7Cid-ID,
hotel,hotel,Grand Q Hotel Gorontalo,"Jl. Nani Wartabone No.25, Ipilo, Kec. Kota Tim., Kota Gorontalo, Gorontalo 96133","Ipilo, Kec. Kota Tim., Kota Gorontalo",GORONTALO,96133.0,Indonesia,8114312226.0,,,0.5338603,123.0603315,https://maps.google.com/?cid=0x0:0xba1d6742efeda58f,
hotel,hotel,UTC DAMHIL by BADAN PENGELOLA USAHA UNG,"Jl. Ir. H. Joesoef Dalie Komplek Universitas Negeri, Dulalowo Tim., Kec. Kota Tengah, Kota Gorontalo, Gorontalo 96128","Dulalowo Tim., Kec. Kota Tengah, Kota Gorontalo",GORONTALO,96128.0,Indonesia,435825025.0,,,0.5550209,123.0642757,https://maps.google.com/?cid=0x0:0xd7f397e6c7f59e12,
hotel,hotel,FOX Hotel Gorontalo,"Jl. Kasuari I No.76, Heledulaa Sel., Kec. Kota Tim., Kota Gorontalo, Gorontalo 96114","Heledulaa Sel., Kec. Kota Tim., Kota Gorontalo",GORONTALO,96114.0,Indonesia,4358592676.0,,,0.5375739,123.0627081,https://maps.google.com/?cid=0x0:0x4a03675ac81282e,
hotel,Tujuan Wisata,Benteng Otanaha,"Dembe I, Kec. Kota Bar., Kota Gorontalo, Gorontalo 96181","Kec. Kota Bar., Kota Gorontalo",GORONTALO,96181.0,Indonesia,,,,0.5482328,123.0084128,https://maps.google.com/?cid=0x0:0x23cc0495aa68abd0,
hotel,hotel,,,,GORONTALO,,Indonesia,,,,,,https://maps.google.com/?cid=0x0:0x89476fb7b6ecd23c!3m1!1s2@1:CAIQACodChtycF9oOnVDSDNqcWhLamRxeHUtZlZoXzR3Umc%7C0ca2d2CGnog%7C?hlu003did,
hotel,hotel,,,,GORONTALO,,Indonesia,,,,,,https://maps.google.com/?cid=0x0:0x89476fb7b6ecd23c!3m1!1s2@1:CAIQACodChtycF9oOlFoTEE1RFVkdGNsVlh1Q25DLWcwcFE%7C0cbIntXFnEr%7C?hlu003did,
hotel,hotel,,,,GORONTALO,,Indonesia,,,,,,https://maps.google.com/?cid=0x0:0x89476fb7b6ecd23c!3m1!1s2@1:CAIQACodChtycF9oOnBfcy01X3NxUldLLWRSYmlwWnlVN1E%7C0ca5e1V1CMq%7C?hlu003did,
hotel,hotel,,,,GORONTALO,,Indonesia,,,,,,https://maps.google.com/?cid=0x0:0x89476fb7b6ecd23c!3m1!1s2@1:CAIQACodChtycF9oOjF1N01HT0RwU1BpcFJIZnFoeFRVcFE%7C0ccbsuLS_j2%7C?hlu003did,
hotel,hotel,,,,GORONTALO,,Indonesia,,,,,,https://maps.google.com/?cid=0x0:0x89476fb7b6ecd23c!3m1!1s2@1:CAIQACodChtycF9oOnNqb0JpNDJGbERySmN3eDNPWC00Y2c%7C0ca5l4RLJ4Y%7C?hlu003did,
hotel,hotel,,,,GORONTALO,,Indonesia,,,,,,https://maps.google.com/?cid=0x0:0x89476fb7b6ecd23c!3m1!1s2@1:CAIQACodChtycF9oOk5KbE9JQ1VOMHRHQ1BfcUhQeEY0M1E%7C0cU6BmBU4PL%7C?hlu003did,
hotel,hotel,Gorontalo 96254,"Kabupaten Gorontalo Utara, Gorontalo","Kabupaten Gorontalo Utara, Gorontalo",GORONTALO,,Indonesia,,,,0.926195,122.4014193,https://maps.google.com/?cid=0x0:0x9a29fb0ff347278,
hotel,hotel,ASTON Gorontalo Hotel  Villas,"Jl. Manggis No.88, Libuo, Kec. Dungingi, Kota Gorontalo, Gorontalo 96136","Libuo, Kec. Dungingi, Kota Gorontalo",GORONTALO,96136.0,Indonesia,4358538888.0,,,0.5441452,123.0504079,https://maps.google.com/?cid=0x0:0x89476fb7b6ecd23c,
hotel,hotel,Amaris Hotel Gorontalo,"Jl. Sultan Botutihe No.37, Ipilo, Kec. Kota Tim., Kota Gorontalo, Gorontalo 96114","Ipilo, Kec. Kota Tim., Kota Gorontalo",GORONTALO,96114.0,Indonesia,435830988.0,,,0.5366179,123.0632919,https://maps.google.com/?cid=0x0:0x75e1ec66b82ecbf7,
hotel,hotel,Yulia Hotel Managed by HIG,"Jl. Nani Wartabone No.26, Ipilo, Kec. Kota Tim., Kota Gorontalo, Gorontalo 96133","Ipilo, Kec. Kota Tim., Kota Gorontalo",GORONTALO,96133.0,Indonesia,4358531028.0,,,0.5341772,123.0603156,https://maps.google.com/?cid=0x0:0x61605f59789edc49,
hotel,hotel,Gorontalo Inn Hotel,"Jl. Tribrata No.107, Ipilo, Kec. Kota Tim., Kota Gorontalo, Gorontalo 96112","Ipilo, Kec. Kota Tim., Kota Gorontalo",GORONTALO,96112.0,Indonesia,8114338875.0,,,0.5352918,123.063721,https://maps.google.com/?cid=0x0:0x9704b47000fef929,
hotel,hotel,Sea Dionumo Wonderland,"Deme II, Kec. Sumalata, Kabupaten Gorontalo Utara, Gorontalo","Kabupaten Gorontalo Utara, Gorontalo",GORONTALO,,Indonesia,82191939252.0,,,0.9880094,122.5256168,https://maps.google.com/?cid=0x0:0xff09ba9d3930d881,
hotel,hotel,Hotel Meranti,"Depan Kantor Soempurna, Jln. Jhon Ario Katili (Ex, Jl. Andalas, Kec. Kota Tengah, Kota Gorontalo, Gorontalo 96129","Jln. Jhon Ario Katili (Ex, Jl. Andalas, Kec. Kota Tengah, Kota Gorontalo",GORONTALO,96129.0,Indonesia,85298834277.0,,,0.5681781,123.0653242,https://maps.google.com/?cid=0x0:0x985903e701208657,
hotel,hotel,HOMESTAY MAHERZA GORONTALO,"Jl. HOS. Cokroaminoto No.164, Limba U I, Kota Sel., Kota Gorontalo, Gorontalo 96135","Limba U I, Kota Sel., Kota Gorontalo",GORONTALO,96135.0,Indonesia,895417300072.0,,,0.5503014,123.0636536,https://maps.google.com/?cid=0x0:0x3debcecaf8302b29,
hotel,hotel,Shava Beach Resort,"Jl. Trans Sulawesi, Biluango, Kec. Kabila Bone, Kabupaten Bone Bolango, Gorontalo 96583","Biluango, Kec. Kabila Bone, Kabupaten Bone Bolango",GORONTALO,96583.0,Indonesia,81355177377.0,,,0.4624014,123.1142284,https://maps.google.com/?cid=0x0:0x2b1572eddc9f300a,
hotel,Penginapan religi,Kobong sumalata,"WHVV+X38, Deme I, Kec. Sumalata, Kabupaten Gorontalo Utara, Gorontalo","Kabupaten Gorontalo Utara, Gorontalo",GORONTALO,,Indonesia,,,,0.9449014,122.592712,https://maps.google.com/?cid=0x0:0xcb714c9f0a852baf,
hotel,Hotel,Rumah kuni tuten,"X9R7+G7, Kasia, Kec. Sumalata, Kabupaten Gorontalo Utara, Gorontalo","Kabupaten Gorontalo Utara, Gorontalo",GORONTALO,,Indonesia,,,,0.9912775,122.3631751,https://maps.google.com/?cid=0x0:0x7a6c256d30b0a3d0,
hotel,Tujuan Wisata,Pantai Deme,"XGCJ+VRW, Deme II, Kec. Sumalata, Kabupaten Gorontalo Utara, Gorontalo 96254","Deme II, Kec. Sumalata, Kabupaten Gorontalo Utara",GORONTALO,96254.0,Indonesia,,,,0.9722461,122.5320655,https://maps.google.com/?cid=0x0:0xb1998b0b5919ecf1,
hotel,Pondok,Rumah Diman,"XCJC+R44, Bulontio Bar., Kec. Sumalata, Kabupaten Gorontalo Utara, Gorontalo 96254","Bulontio Bar., Kec. Sumalata, Kabupaten Gorontalo Utara",GORONTALO,96254.0,Indonesia,,,,0.9820234,122.420316,https://maps.google.com/?cid=0x0:0x2fbabf2ec2da2b39,
hotel,hotel,Gorontalo 96524,"Kec. Tolinggula, Kabupaten Gorontalo Utara, Gorontalo","Kabupaten Gorontalo Utara, Gorontalo",GORONTALO,,Indonesia,,,,0.9280512,122.2200065,https://maps.google.com/?cid=0x0:0xd3efad24a9000eb8,
hotel,hotel,Hotel Eljie Syariah Gorontalo,"Jl. Jend. Sudirman No.99, Wumialo, Kec. Kota Tengah, Kabupaten Gorontalo, Gorontalo 96128","Wumialo, Kec. Kota Tengah, Kabupaten Gorontalo",GORONTALO,96128.0,Indonesia,435828279.0,,,0.5539451,123.052566,https://maps.google.com/?cid=0x0:0x35f110f0415ca414,
hotel,hotel,RoyHo Residence,"Jl. Sultan Botutihe kel No.42, Heledulaa Sel., Kec. Kota Tim., Kota Gorontalo, Gorontalo 96114","Heledulaa Sel., Kec. Kota Tim., Kota Gorontalo",GORONTALO,96114.0,Indonesia,8114345233.0,,,0.5367431,123.0643881,https://maps.google.com/?cid=0x0:0x569c3a660d1847ba,
hotel,hotel,Yulia Hotel Managed by HIG,"Jl. Nani Wartabone No.26, Ipilo, Kec. Kota Tim., Kota Gorontalo, Gorontalo 96133","Ipilo, Kec. Kota Tim., Kota Gorontalo",GORONTALO,96133.0,Indonesia,4358531028.0,,,0.5341772,123.0603156,https://maps.google.com/?cid=0x0:0x61605f59789edc49,
hotel,hotel,Pasir Putih Homestay,"Jl. Panhus Marhum, Paleleh, Kabupaten Buol, Sulawesi Tengah 94568","Paleleh, Kabupaten Buol",GORONTALO,94568.0,Indonesia,82293702412.0,,,1.048178,121.9503329,https://maps.google.com/?cid=0x0:0xf39b20dfaa853deb,
hotel,hotel,ASTON Gorontalo Hotel  Villas,"Jl. Manggis No.88, Libuo, Kec. Dungingi, Kota Gorontalo, Gorontalo 96136","Libuo, Kec. Dungingi, Kota Gorontalo",GORONTALO,96136.0,Indonesia,4358538888.0,,,0.5441452,123.0504079,https://maps.google.com/?cid=0x0:0x89476fb7b6ecd23c,
hotel,hotel,Amaris Hotel Gorontalo,"Jl. Sultan Botutihe No.37, Ipilo, Kec. Kota Tim., Kota Gorontalo, Gorontalo 96114","Ipilo, Kec. Kota Tim., Kota Gorontalo",GORONTALO,96114.0,Indonesia,435830988.0,,,0.5366179,123.0632919,https://maps.google.com/?cid=0x0:0x75e1ec66b82ecbf7,
hotel,hotel,The One Hotel Gorontalo,"Jl. Tondano, Tapa, Kec. Sipatana, Kota Gorontalo, Gorontalo 96138","Tapa, Kec. Sipatana, Kota Gorontalo",GORONTALO,96138.0,Indonesia,895417300072.0,,,0.5746668,123.0593639,https://maps.google.com/?cid=0x0:0xc9d6b079b15b9a8d,
hotel,hotel,Julista House,"Unnamed Road, Modelomo, Kec. Tilamuta, Kabupaten Boalemo, Gorontalo 96263","Modelomo, Kec. Tilamuta, Kabupaten Boalemo",GORONTALO,96263.0,Indonesia,895417300072.0,,,0.522356,122.346384,https://maps.google.com/?cid=0x0:0x4e278a7987d79279,
hotel,Motel,Penginapan Sederhana,"2587+356, Jl. Buol - Gorontalo, Umu, Kec. Tolinggula, Kabupaten Gorontalo Utara, Gorontalo 94568","Jl. Buol - Gorontalo, Umu, Kec. Tolinggula, Kabupaten Gorontalo Utara",GORONTALO,94568.0,Indonesia,,,,1.0151713,122.1629019,https://maps.google.com/?cid=0x0:0x43a5d199d7ce1def,
hotel,hotel,Hotel Putera Tunggal,"Jalan apipa aminu, Modelomo, Kec. Tilamuta, Kabupaten Boalemo, Gorontalo 96263","Modelomo, Kec. Tilamuta, Kabupaten Boalemo",GORONTALO,96263.0,Indonesia,82136605012.0,,,0.5215279,122.3438078,https://maps.google.com/?cid=0x0:0xb27ab17e157bfb0b,
hotel,Pondok,Hotel Hadijah abad,"257C+VFJ, jln trans Sulawesi, Tolinggula Tengah, Kec. Tolinggula, Kabupaten Gorontalo Utara, Gorontalo 94568","jln trans Sulawesi, Tolinggula Tengah, Kec. Tolinggula, Kabupaten Gorontalo Utara",GORONTALO,94568.0,Indonesia,85255885764.0,,,1.0147165,122.1711347,https://maps.google.com/?cid=0x0:0x73b7368ef13be7e4,
hotel,hotel,Gorontalo 96252,"Kec. Kwandang, Kabupaten Gorontalo Utara, Gorontalo","Kabupaten Gorontalo Utara, Gorontalo",GORONTALO,,Indonesia,,,,0.8083426,122.9212265,https://maps.google.com/?cid=0x0:0x8516fb933d27785f,
hotel,hotel,,,,GORONTALO,,Indonesia,,,,,,https://maps.google.com/?cid=0x0:0xba1d6742efeda58f%7C/g/11bbsyv14k%7Cid-ID,
hotel,hotel,Grand Q Hotel Gorontalo,"Jl. Nani Wartabone No.25, Ipilo, Kec. Kota Tim., Kota Gorontalo, Gorontalo 96133","Ipilo, Kec. Kota Tim., Kota Gorontalo",GORONTALO,96133.0,Indonesia,8114312226.0,,,0.5338603,123.0603315,https://maps.google.com/?cid=0x0:0xba1d6742efeda58f,
hotel,hotel,,,,GORONTALO,,Indonesia,,,,,,https://maps.google.com/?cid=0x0:0x89476fb7b6ecd23c%7C/g/11k5hr2tj2%7Cid-ID,
hotel,hotel,Hotel Citimall Gorontalo,"Botuhite Jl. Sultan Botutihe No.88, Heledulaa Selatan, Kota Timur, Bone Bolango Regency, Gorontalo 96115","Heledulaa Selatan, Kota Timur, Bone Bolango Regency",GORONTALO,96115.0,Indonesia,,,,0.5378188,123.0626416,https://maps.google.com/?cid=0x0:0x3452b811598d1e,
hotel,hotel,Amaris Hotel Gorontalo,"Jl. Sultan Botutihe No.37, Ipilo, Kec. Kota Tim., Kota Gorontalo, Gorontalo 96114","Ipilo, Kec. Kota Tim., Kota Gorontalo",GORONTALO,96114.0,Indonesia,435830988.0,,,0.5366179,123.0632919,https://maps.google.com/?cid=0x0:0x75e1ec66b82ecbf7,
hotel,hotel,,,,GORONTALO,,Indonesia,,,,,,https://maps.google.com/?cid=0x0:0x75e1ec66b82ecbf7%7C/g/11b6b3nhq7%7Cid-ID,
hotel,hotel,Hotel Eljie Syariah Gorontalo,"Jl. Jend. Sudirman No.99, Wumialo, Kec. Kota Tengah, Kabupaten Gorontalo, Gorontalo 96128","Wumialo, Kec. Kota Tengah, Kabupaten Gorontalo",GORONTALO,96128.0,Indonesia,435828279.0,,,0.5539451,123.052566,https://maps.google.com/?cid=0x0:0x35f110f0415ca414,
hotel,hotel,Yulia Hotel Managed by HIG,"Jl. Nani Wartabone No.26, Ipilo, Kec. Kota Tim., Kota Gorontalo, Gorontalo 96133","Ipilo, Kec. Kota Tim., Kota Gorontalo",GORONTALO,96133.0,Indonesia,4358531028.0,,,0.5341772,123.0603156,https://maps.google.com/?cid=0x0:0x61605f59789edc49,
hotel,hotel,Gorontalo Inn Hotel,"Jl. Tribrata No.107, Ipilo, Kec. Kota Tim., Kota Gorontalo, Gorontalo 96112","Ipilo, Kec. Kota Tim., Kota Gorontalo",GORONTALO,96112.0,Indonesia,8114338875.0,,,0.5352918,123.063721,https://maps.google.com/?cid=0x0:0x9704b47000fef929,
hotel,hotel,Hotel Varia,"Jl. Moh. Yamin II, Limba B, Kota Sel., Kota Gorontalo, Gorontalo 96136","Limba B, Kota Sel., Kota Gorontalo",GORONTALO,96136.0,Indonesia,82156740246.0,,,0.5399234,123.0544117,https://maps.google.com/?cid=0x0:0xddf41a3501b72e1a,
hotel,hotel,The One Hotel Gorontalo,"Jl. Tondano, Tapa, Kec. Sipatana, Kota Gorontalo, Gorontalo 96138","Tapa, Kec. Sipatana, Kota Gorontalo",GORONTALO,96138.0,Indonesia,895417300072.0,,,0.5746668,123.0593639,https://maps.google.com/?cid=0x0:0xc9d6b079b15b9a8d,
hotel,hotel,Hotel Meranti,"Depan Kantor Soempurna, Jln. Jhon Ario Katili (Ex, Jl. Andalas, Kec. Kota Tengah, Kota Gorontalo, Gorontalo 96129","Jln. Jhon Ario Katili (Ex, Jl. Andalas, Kec. Kota Tengah, Kota Gorontalo",GORONTALO,96129.0,Indonesia,85298834277.0,,,0.5681781,123.0653242,https://maps.google.com/?cid=0x0:0x985903e701208657,
hotel,hotel,Hotel Santorini,"Jl. HOS. Cokroaminoto No.86, Limba U I, Kota Sel., Kota Gorontalo, Gorontalo 96135","Limba U I, Kota Sel., Kota Gorontalo",GORONTALO,96135.0,Indonesia,,,,0.54547,123.0627912,https://maps.google.com/?cid=0x0:0xb7922d0d9a8669dc,
hotel,hotel,Ferryzon Hotel,"Jl. Sultan Botutihe No.3, Padebuolo, Kec. Kota Tim., Kota Gorontalo, Gorontalo 96135","Padebuolo, Kec. Kota Tim., Kota Gorontalo",GORONTALO,96135.0,Indonesia,4358531935.0,,,0.5369395,123.0632043,https://maps.google.com/?cid=0x0:0xeeec77145435cf8a,
hotel,hotel,Saronde Island Resort,"Desa, Ponelo, Saronde island, North Gorontalo Regency, Gorontalo","Kabupaten Gorontalo Utara, Gorontalo",GORONTALO,,Indonesia,81340286000.0,,,0.9264378,122.8640454,https://maps.google.com/?cid=0x0:0x175765bac2ee97b8,
hotel,hotel,oile dive resort,"XW5Q+7MG, Tj. Karang, Kec. Kwandang, Kabupaten Gorontalo Utara, Gorontalo 96252","Tj. Karang, Kec. Kwandang, Kabupaten Gorontalo Utara",GORONTALO,96252.0,Indonesia,,,,0.9581845,122.939214,https://maps.google.com/?cid=0x0:0x38978dbeed76a53,
hotel,hotel,H.V Hotel - BANDARA GORONTALO,"JRRW+WCG, Jl. Bandara Jalaluddin, Tolotio, Kec. Tibawa, Kabupaten Gorontalo, Gorontalo 96251","Jl. Bandara Jalaluddin, Tolotio, Kec. Tibawa, Kabupaten Gorontalo",GORONTALO,96251.0,Indonesia,81902311118.0,,,0.6423039,122.8460704,https://maps.google.com/?cid=0x0:0xa53277e131efeec0,
hotel,hotel,Crystal Harmony Hotel,"Jl. Jaksa Agung Suprapto No.5, Limba U Dua, Kota Sel., Kota Gorontalo, Gorontalo 96138","Limba U Dua, Kota Sel., Kota Gorontalo",GORONTALO,96138.0,Indonesia,81344429197.0,,,0.5445267,123.0568267,https://maps.google.com/?cid=0x0:0xdfc3a7f2c91382ee,
hotel,hotel,Hotel imperial,"Jl. Teuku Umar No.9, Limba B, Kota Sel., Kota Gorontalo, Gorontalo 96134","Limba B, Kota Sel., Kota Gorontalo",GORONTALO,96134.0,Indonesia,81351354368.0,,,0.5384226,123.0587099,https://maps.google.com/?cid=0x0:0x3261004c94f6eaee,
hotel,Hotel,Zanur Bandara Hotel by Kazeem,"JRRW+WCG, Jl. Bandara Jalaluddin, Tolotio, Kec. Tibawa, Kabupaten Gorontalo, Gorontalo 96251","Jl. Bandara Jalaluddin, Tolotio, Kec. Tibawa, Kabupaten Gorontalo",GORONTALO,96251.0,Indonesia,4358693401.0,,,0.6423039,122.8460704,https://maps.google.com/?cid=0x0:0x663072b398b0947a,
hotel,hotel,HOTEL RACHMAT,"G3X7+9FV, Heledulaa, Kec. Kota Tim., Kota Gorontalo, Gorontalo 96135","Heledulaa, Kec. Kota Tim., Kota Gorontalo",GORONTALO,96135.0,Indonesia,,,,0.5484827,123.0636741,https://maps.google.com/?cid=0x0:0x303a3e36e293f62b,
hotel,hotel,Citra Hotel,"Jl. Taki Niode No.36, Ipilo, Kec. Kota Tim., Kota Gorontalo, Gorontalo 96112","Ipilo, Kec. Kota Tim., Kota Gorontalo",GORONTALO,96112.0,Indonesia,435827157.0,,,0.534096,123.0624336,https://maps.google.com/?cid=0x0:0x966ef51233030ed4,
hotel,hotel,Millinov Boutique Hotel Gorontalo,"Jl. Jend. Sudirman, Limba U Dua, Kota Sel., Kota Gorontalo, Gorontalo 96138","Limba U Dua, Kota Sel., Kota Gorontalo",GORONTALO,96138.0,Indonesia,82191010900.0,,,0.5527005,123.0542554,https://maps.google.com/?cid=0x0:0x1289bd70edaca21f,
hotel,hotel,New Melati Hotel - Meeting Point for the Travellers  Divers,"Jl. Wolter Monginsidi No.96117, Tenda, Kec. Hulonthalangi, Kota Gorontalo, Gorontalo 96133","Tenda, Kec. Hulonthalangi, Kota Gorontalo",GORONTALO,96133.0,Indonesia,81241060001.0,,,0.5300103,123.0587691,https://maps.google.com/?cid=0x0:0xcccd3f9b7cd22d96,
hotel,hotel,,,,GORONTALO,,Indonesia,,,,,,https://maps.google.com/?cid=0x0:0x7a3fd50823f5557a%7C/g/11cscbw9rl%7Cid-ID,
hotel,hotel,Guest House Hotel,"H2CW+VRH, Pulubala, Kec. Kota Tengah, Kabupaten Gorontalo, Gorontalo 96138","Pulubala, Kec. Kota Tengah, Kabupaten Gorontalo",GORONTALO,96138.0,Indonesia,4358592414.0,,,0.5721757,123.0471119,https://maps.google.com/?cid=0x0:0x7a3fd50823f5557a,
hotel,hotel,RoyHo Residence,"Jl. Sultan Botutihe kel No.42, Heledulaa Sel., Kec. Kota Tim., Kota Gorontalo, Gorontalo 96114","Heledulaa Sel., Kec. Kota Tim., Kota Gorontalo",GORONTALO,96114.0,Indonesia,8114345233.0,,,0.5367431,123.0643881,https://maps.google.com/?cid=0x0:0x569c3a660d1847ba,
hotel,hotel,UTC DAMHIL by BADAN PENGELOLA USAHA UNG,"Jl. Ir. H. Joesoef Dalie Komplek Universitas Negeri, Dulalowo Tim., Kec. Kota Tengah, Kota Gorontalo, Gorontalo 96128","Dulalowo Tim., Kec. Kota Tengah, Kota Gorontalo",GORONTALO,96128.0,Indonesia,435825025.0,,,0.5550209,123.0642757,https://maps.google.com/?cid=0x0:0xd7f397e6c7f59e12,
restaurant,restaurant,Gorontalo 96525,"Kec. Anggrek, Kabupaten Gorontalo Utara, Gorontalo","Kabupaten Gorontalo Utara, Gorontalo",GORONTALO,,Indonesia,,,,0.8425794,122.695547,https://maps.google.com/?cid=0x0:0xc910c3a3b1bab734,
restaurant,Rumah Makan,RM.DAPUR ANGGREK,"RQWG+H6Q, Jl. Buol - Gorontalo, Ilangata, Kec. Anggrek, Kabupaten Gorontalo Utara, Gorontalo 96525","Jl. Buol - Gorontalo, Ilangata, Kec. Anggrek, Kabupaten Gorontalo Utara",GORONTALO,96525.0,Indonesia,,,,0.8464709,122.7756087,https://maps.google.com/?cid=0x0:0xeafd2f79b2c67042,
restaurant,Rumah Makan,RM SURABAYA 99,"VMJQ+6FJ, kec, Monano, Kec. Anggrek, Kabupaten Gorontalo Utara, Gorontalo 96525","kec, Monano, Kec. Anggrek, Kabupaten Gorontalo Utara",GORONTALO,96525.0,Indonesia,85255091441.0,,,0.8805908,122.6886257,https://maps.google.com/?cid=0x0:0x1610b7613492b675,
restaurant,Padang,Rm.rafki  rifka,"Monas, Kec. Anggrek, Kabupaten Gorontalo Utara, Gorontalo 96525","Kec. Anggrek, Kabupaten Gorontalo Utara",GORONTALO,96525.0,Indonesia,85397570770.0,,,0.8764876,122.6859278,https://maps.google.com/?cid=0x0:0xb4a38b2b783667f0,
restaurant,Rumah Makan,Rumah Makan Mama Dode,"RQWG+M66, Jl. Buol - Gorontalo, Ilangata, Kec. Anggrek, Kabupaten Gorontalo Utara, Gorontalo 96525","Jl. Buol - Gorontalo, Ilangata, Kec. Anggrek, Kabupaten Gorontalo Utara",GORONTALO,96525.0,Indonesia,,,,0.8466743,122.7755177,https://maps.google.com/?cid=0x0:0x1d36947c24be690d,
restaurant,Rumah Makan,RM AYU,"RR2J+66Q, Tolongio, Kec. Anggrek, Kabupaten Gorontalo Utara, Gorontalo 96252","Tolongio, Kec. Anggrek, Kabupaten Gorontalo Utara",GORONTALO,96252.0,Indonesia,85298942692.0,,,0.8005868,122.8305987,https://maps.google.com/?cid=0x0:0x1ff67da04462cd40,
restaurant,Rumah Makan,Rumah Makan KEDAI MADINA,"Jl. Buol - Gorontalo, Tolongio, Kec. Anggrek, Kabupaten Gorontalo Utara, Gorontalo 96252","Tolongio, Kec. Anggrek, Kabupaten Gorontalo Utara",GORONTALO,96252.0,Indonesia,81242241565.0,,,0.8029826,122.827546,https://maps.google.com/?cid=0x0:0x517b6f2e2af4b6cb,
restaurant,Rumah Makan,Arno,"RRG3+4HP, Jl. Buol - Gorontalo, Popalo, Kec. Anggrek, Kabupaten Gorontalo Utara, Gorontalo 96525","Jl. Buol - Gorontalo, Popalo, Kec. Anggrek, Kabupaten Gorontalo Utara",GORONTALO,96525.0,Indonesia,,,,0.8253372,122.8039377,https://maps.google.com/?cid=0x0:0x64000cc21fd59123,
restaurant,Rumah Makan,Rumah makan mama adel,"Ilangata, Kec. Anggrek, Kabupaten Gorontalo Utara, Gorontalo 96574","Kec. Anggrek, Kabupaten Gorontalo Utara",GORONTALO,96574.0,Indonesia,,,,0.8460606,122.776337,https://maps.google.com/?cid=0x0:0x8e4cf503b3da5310,
restaurant,Sarapan,QAIZAR CAFE  RESTO,"Jl. Trans Sulawesi, Tolongio, Kec. Anggrek, Kabupaten Gorontalo Utara, Gorontalo 96525","Tolongio, Kec. Anggrek, Kabupaten Gorontalo Utara",GORONTALO,96525.0,Indonesia,,,,0.8065768,122.8244427,https://maps.google.com/?cid=0x0:0x7630b9a49a2488e4,
restaurant,Restoran,Keko Resto and Cafe,"QVP9+P33, Molingkapoto, Kec. Kwandang, Kabupaten Gorontalo Utara, Gorontalo 96252","Molingkapoto, Kec. Kwandang, Kabupaten Gorontalo Utara",GORONTALO,96252.0,Indonesia,82396607612.0,,,0.7867664,122.8676732,https://maps.google.com/?cid=0x0:0xeb12fa68f885c8c0,
restaurant,Rumah Makan,Warung Tinutuan Cahaya Anugerah,"Unnamed Road, Monano, Kec. Anggrek, Kabupaten Gorontalo Utara, Gorontalo 96525","Monano, Kec. Anggrek, Kabupaten Gorontalo Utara",GORONTALO,96525.0,Indonesia,85340289180.0,,,0.8886484,122.697627,https://maps.google.com/?cid=0x0:0xca37fd9a1719e9e9,
restaurant,Rumah Makan,RM. Mama Amel,"VQ29+2P3, Ilangata, Kec. Anggrek, Kabupaten Gorontalo Utara, Gorontalo 96525","Ilangata, Kec. Anggrek, Kabupaten Gorontalo Utara",GORONTALO,96525.0,Indonesia,,,,0.8499907,122.7692704,https://maps.google.com/?cid=0x0:0x201332b29efc1887,
restaurant,Toko bahan makanan,RM. Merata,"RR6C+HJ, Tolongio, Kec. Anggrek, Kabupaten Gorontalo Utara, Gorontalo","Kabupaten Gorontalo Utara, Gorontalo",GORONTALO,,Indonesia,,,,0.811391,122.82155,https://maps.google.com/?cid=0x0:0xddbcf4ce612c1445,
restaurant,Kafe,Marassa Cafe,"VMJQ+X4M, Monas, Kec. Anggrek, Kabupaten Gorontalo Utara, Gorontalo 96525","Monas, Kec. Anggrek, Kabupaten Gorontalo Utara",GORONTALO,96525.0,Indonesia,,,,0.8824602,122.6877965,https://maps.google.com/?cid=0x0:0x33880ca33da49c36,
restaurant,Restoran,RM.AF3(Depula Li Enga),"RV7W+WR8, Jl.Martin Liputo, Bulalo, Kec. Kwandang, Kabupaten Gorontalo Utara, Gorontalo 96252","Jl.Martin Liputo, Bulalo, Kec. Kwandang, Kabupaten Gorontalo Utara",GORONTALO,96252.0,Indonesia,85298288184.0,,,0.8147945,122.8970806,https://maps.google.com/?cid=0x0:0x6f5454c078a003cb,
restaurant,Hidangan Laut,Rumah Makan Ohara,"Jalan Yos Sudarso No. 51, Tenda, Kecamatan Hulonthalangi, Kota Gorontalo, Gorontalo 96133","Tenda, Kecamatan Hulonthalangi, Kota Gorontalo",GORONTALO,96133.0,Indonesia,85240206577.0,,,0.5194606,123.0617264,https://maps.google.com/?cid=0x0:0xd47f8cd209da0490,
restaurant,Rumah Makan,Wonk Java,"VQ24+RJ7, Tolango, Kec. Anggrek, Kabupaten Gorontalo Utara, Gorontalo 96525","Tolango, Kec. Anggrek, Kabupaten Gorontalo Utara",GORONTALO,96525.0,Indonesia,,,,0.8520265,122.7565361,https://maps.google.com/?cid=0x0:0x3196f102f2e6fe95,
restaurant,Restoran,Orasawa Resto,"Jl. Raya GORR, Biyonga, Kec. Limboto, Kabupaten Gorontalo, Gorontalo 96214","Biyonga, Kec. Limboto, Kabupaten Gorontalo",GORONTALO,96214.0,Indonesia,81341345793.0,,,0.6587658,122.982636,https://maps.google.com/?cid=0x0:0xf58f13c3c9e501bc,
restaurant,Otoritas Pelabuhan,KPBU Pelabuhan Anggrek,"Pelabuhan, Ilangata, Kec. Anggrek, Kabupaten Gorontalo Utara, Gorontalo 96525","Ilangata, Kec. Anggrek, Kabupaten Gorontalo Utara",GORONTALO,96525.0,Indonesia,81341812348.0,,,0.8586546,122.7942525,https://maps.google.com/?cid=0x0:0x47d029b6ad02975a,
restaurant,Restoran,Resto Kampoeng Anggrek,"Jl. Raya Viktor Bsd No.81, Buaran, Kec. Serpong, Kota Tangerang Selatan, Banten 15310","Buaran, Kec. Serpong, Kota Tangerang Selatan",GORONTALO,15310.0,Indonesia,82310948223.0,,,-6.339012,106.686714,https://maps.google.com/?cid=0x0:0x41c892e8aabf6bae,
restaurant,Rumah Makan,RM. ANGGREK,"Jl. H. Dul No.76, RT.2/RW.2, Cilandak Tim., Ps. Minggu, Kota Jakarta Selatan, Daerah Khusus Ibukota Jakarta 12560","RT.2/RW.2, Cilandak Tim., Ps. Minggu, Kota Jakarta Selatan",GORONTALO,12560.0,Indonesia,81222248733.0,,,-6.290859,106.81586,https://maps.google.com/?cid=0x0:0x43fb49f94ba8e1d7,
restaurant,Restoran,Resto Anggrek,"Sentra Bazaar Cinere - Ps. Segar, Jl. Cinere Raya, Cinere, Kec. Cinere, Kota Depok, Jawa Barat 16514","Jl. Cinere Raya, Cinere, Kec. Cinere, Kota Depok",GORONTALO,16514.0,Indonesia,81380757797.0,,,-6.3331656,106.7840794,https://maps.google.com/?cid=0x0:0xe7e7179e980aa34d,
restaurant,China,RM Anggrek '88',"Jalan Raya Bogor KM.31, Cisalak, Sukmajaya, Cisalak Ps., Kec. Cimanggis, Kota Depok, Jawa Barat 16452","Cisalak, Sukmajaya, Cisalak Ps., Kec. Cimanggis, Kota Depok",GORONTALO,16452.0,Indonesia,2187755604.0,,,-6.3779343,106.8654774,https://maps.google.com/?cid=0x0:0xaa8eac74a71d8028,
restaurant,Dapur Umum,Rumah Makan Anggrek,"QQWC+MJH, RT.10/RW.2, Klp. Dua, Kec. Kb. Jeruk, Kota Jakarta Barat, Daerah Khusus Ibukota Jakarta 11550","RT.10/RW.2, Klp. Dua, Kec. Kb. Jeruk, Kota Jakarta Barat",GORONTALO,11550.0,Indonesia,8161927325.0,,,-6.2033093,106.771621,https://maps.google.com/?cid=0x0:0xa3b2366926fc84b7,
restaurant,Perhentian bus,Resto Kampoeng Anggrek,"Buaran, Kec. Serpong, Kota Tangerang Selatan, Banten","Kota Tangerang Selatan, Banten",GORONTALO,,Indonesia,,,,-6.34011,106.68672,https://maps.google.com/?cid=0x0:0x8bb5ec303e405a1f,
restaurant,restaurant,Gorontalo 96253,"Kabupaten Gorontalo Utara, Gorontalo","Kabupaten Gorontalo Utara, Gorontalo",GORONTALO,,Indonesia,,,,0.8707926,123.1014056,https://maps.google.com/?cid=0x0:0xfa82e81a2bd61d81,
restaurant,Kedai Kopi,O'minanga Resto  Cafe,"W4G4+J3C, Pantai Minanga Utara, Kota Jin, Kec. Atinggola, Kabupaten Gorontalo Utara, Gorontalo 96253","Pantai Minanga Utara, Kota Jin, Kec. Atinggola, Kabupaten Gorontalo Utara",GORONTALO,96253.0,Indonesia,,,,0.9265663,123.1051468,https://maps.google.com/?cid=0x0:0xb23912ff04f32bfc,
restaurant,Restoran,RM. JAVA,"W4G3+P7J, Kota Jin, Kec. Atinggola, Kabupaten Gorontalo Utara, Gorontalo 96253","Kota Jin, Kec. Atinggola, Kabupaten Gorontalo Utara",GORONTALO,96253.0,Indonesia,,,,0.9268344,123.1031282,https://maps.google.com/?cid=0x0:0x41eaec451f826bcd,
restaurant,Kafe,R-Cafe,"Kota Jin, Kec. Atinggola, Kabupaten Gorontalo Utara, Gorontalo 96253","Kec. Atinggola, Kabupaten Gorontalo Utara",GORONTALO,96253.0,Indonesia,,,,0.9003475,123.118317,https://maps.google.com/?cid=0x0:0x4b32faa3cf59d9c6,
restaurant,Padang,RM. Sudut Indah,"W33P+XW9, Imana, Kec. Atinggola, Kabupaten Gorontalo Utara, Gorontalo 96253","Imana, Kec. Atinggola, Kabupaten Gorontalo Utara",GORONTALO,96253.0,Indonesia,,,,0.9049083,123.087348,https://maps.google.com/?cid=0x0:0x36e5c4f1e3b41326,
restaurant,Restoran,RM SYAWL,"W4G4+GMQ, Kota Jin, Kec. Atinggola, Kabupaten Gorontalo Utara, Gorontalo 96253","Kota Jin, Kec. Atinggola, Kabupaten Gorontalo Utara",GORONTALO,96253.0,Indonesia,,,,0.9264302,123.1071758,https://maps.google.com/?cid=0x0:0xfa282063dd74e04a,
restaurant,Kafe,BALE-BALE CAFFE,"Jl. Trans Sulawesi, Kota Jin, Kec. Atinggola, Kabupaten Gorontalo Utara, Gorontalo 96253","Kota Jin, Kec. Atinggola, Kabupaten Gorontalo Utara",GORONTALO,96253.0,Indonesia,82293630886.0,,,0.9014761,123.1190986,https://maps.google.com/?cid=0x0:0xf2cfb262d59e57f5,
restaurant,Padang,RM Dua Putri Sang Surya,"R4QW+8H6, Buata, Kec. Atinggola, Kabupaten Gorontalo Utara, Gorontalo 96253","Buata, Kec. Atinggola, Kabupaten Gorontalo Utara",GORONTALO,96253.0,Indonesia,82396614665.0,,,0.8382982,123.1463992,https://maps.google.com/?cid=0x0:0xa7436cceffc3825,
restaurant,Restoran,RM JIHAN,"W437+RVW, Kota Jin, Kec. Atinggola, Kabupaten Gorontalo Utara, Gorontalo 96253","Kota Jin, Kec. Atinggola, Kabupaten Gorontalo Utara",GORONTALO,96253.0,Indonesia,,,,0.904619,123.11469,https://maps.google.com/?cid=0x0:0xa9ecc3fa3d8e3367,
restaurant,Restoran,Warung makan badi sultan,"W429+427, Jl. Trans Sulawesi, Kota Jin, Kec. Atinggola, Kabupaten Gorontalo Utara, Gorontalo 96253","Jl. Trans Sulawesi, Kota Jin, Kec. Atinggola, Kabupaten Gorontalo Utara",GORONTALO,96253.0,Indonesia,82291701730.0,,,0.9002903,123.1175462,https://maps.google.com/?cid=0x0:0xa7bacca3856b2cd2,
restaurant,Sarapan,Rumah Makan Badi-Punti O'Atinggola,"V4X8+XPH Persawahan iloheluma, Kota Jin, Kec. Atinggola, Kabupaten Gorontalo Utara, Gorontalo","Kabupaten Gorontalo Utara, Gorontalo",GORONTALO,,Indonesia,,,,0.9000342,123.1167069,https://maps.google.com/?cid=0x0:0x9a6834a6b842e8b9,
restaurant,restaurant,Rumah Keluarga Lahilote,"V4P9+4CH, Bintana, Kec. Atinggola, Kabupaten Gorontalo Utara, Gorontalo 96253","Bintana, Kec. Atinggola, Kabupaten Gorontalo Utara",GORONTALO,96253.0,Indonesia,,,,0.8851869,123.1187817,https://maps.google.com/?cid=0x0:0x573f568a614bfc59,
restaurant,restaurant,RM. Putra Tanjung Karang,"WXVV+46M, Jl. Trans Sulawesi, Tj. Karang, Kec. Kwandang, Kabupaten Gorontalo Utara, Gorontalo 96253","Jl. Trans Sulawesi, Tj. Karang, Kec. Kwandang, Kabupaten Gorontalo Utara",GORONTALO,96253.0,Indonesia,85340130007.0,,,0.9428305,122.9930315,https://maps.google.com/?cid=0x0:0xdf81c6334f0cfbfd,
restaurant,Restoran,RM Love Sombariy,"Unnamed Road, Kota Jin, Kec. Atinggola, Kabupaten Gorontalo Utara, Gorontalo 96253","Kota Jin, Kec. Atinggola, Kabupaten Gorontalo Utara",GORONTALO,96253.0,Indonesia,82255145313.0,,,0.9264098,123.1069303,https://maps.google.com/?cid=0x0:0x76a701779aca8976,
restaurant,Restoran,Kantin Nada,"Kompleks Kantor Desa Desa Wapalo, Imana, Kec. Atinggola, Kabupaten Gorontalo Utara, Gorontalo 96253","Imana, Kec. Atinggola, Kabupaten Gorontalo Utara",GORONTALO,96253.0,Indonesia,82325271198.0,,,0.8834245,123.0530714,https://maps.google.com/?cid=0x0:0x743b3b9b4d846985,
restaurant,Padang,RM. Srikandi,"RWM9+78R, Titidu, Kec. Kwandang, Kabupaten Gorontalo Utara, Gorontalo 96252","Titidu, Kec. Kwandang, Kabupaten Gorontalo Utara",GORONTALO,96252.0,Indonesia,,,,0.8332483,122.9182647,https://maps.google.com/?cid=0x0:0x9da03427ca2227ed,
restaurant,Padang,RM HIDAYYAH,"W2M8+MGJ, Jl. Trans Sulawesi, Molonggota, Kec. Gentuma Raya, Kabupaten Gorontalo Utara, Gorontalo 96253","Jl. Trans Sulawesi, Molonggota, Kec. Gentuma Raya, Kabupaten Gorontalo Utara",GORONTALO,96253.0,Indonesia,82393255254.0,,,0.9342075,123.0162648,https://maps.google.com/?cid=0x0:0xad203e6747c14b8a,
restaurant,Restoran,RM SEHATI,"W437+RVV, Jl. Trans Sulawesi, Kota Jin, Kec. Atinggola, Kabupaten Gorontalo Utara, Gorontalo 96253","Jl. Trans Sulawesi, Kota Jin, Kec. Atinggola, Kabupaten Gorontalo Utara",GORONTALO,96253.0,Indonesia,,,,0.9046235,123.1146619,https://maps.google.com/?cid=0x0:0xbbff4d0972854b94,
restaurant,Hidangan Laut,Rumah Makan Ohara,"Jalan Yos Sudarso No. 51, Tenda, Kecamatan Hulonthalangi, Kota Gorontalo, Gorontalo 96133","Tenda, Kecamatan Hulonthalangi, Kota Gorontalo",GORONTALO,96133.0,Indonesia,85240206577.0,,,0.5194606,123.0617264,https://maps.google.com/?cid=0x0:0xd47f8cd209da0490,
restaurant,Kafe,PANORAMA (Rumah Makan Dan Penginapan),"VW5H+HGV, Dambalo, Kec. Kwandang, Kabupaten Gorontalo Utara, Gorontalo 96252","Dambalo, Kec. Kwandang, Kabupaten Gorontalo Utara",GORONTALO,96252.0,Indonesia,,,,0.8589916,122.9288043,https://maps.google.com/?cid=0x0:0x44daf461f7498c15,
restaurant,Kafe,Warung Rodiah Coffee Brotherhood,"W447+9FV, Desa Kotajin Utara, Kota Jin, Kec. Atinggola, Kabupaten Gorontalo Utara, Gorontalo 96253","Desa Kotajin Utara, Kota Jin, Kec. Atinggola, Kabupaten Gorontalo Utara",GORONTALO,96253.0,Indonesia,,,,0.905998,123.1136582,https://maps.google.com/?cid=0x0:0xc24422683e4eb526,
restaurant,Pemasok makanan penutup beku,Zulvia's Dessert,"V4X8+GWM, Unnamed Road, Kota Jin, Kec. Atinggola, Kabupaten Gorontalo Utara, Gorontalo 96253","Unnamed Road, Kota Jin, Kec. Atinggola, Kabupaten Gorontalo Utara",GORONTALO,96253.0,Indonesia,,,,0.8988263,123.1172923,https://maps.google.com/?cid=0x0:0xa96525efe8864b3e,
restaurant,Restoran,Panorama Tanjung Karang,"W2R2+66J, Jl. Trans Sulawesi, Tj. Karang, Kec. Kwandang, Kabupaten Gorontalo Utara, Gorontalo 96253","Jl. Trans Sulawesi, Tj. Karang, Kec. Kwandang, Kabupaten Gorontalo Utara",GORONTALO,96253.0,Indonesia,,,,0.9405907,123.0005043,https://maps.google.com/?cid=0x0:0x8f95944a1795b2d3,
restaurant,Kedai Kopi,Ghanim Cafe,"Kota Jin, Kec. Atinggola, Kabupaten Gorontalo Utara, Gorontalo 96253","Kec. Atinggola, Kabupaten Gorontalo Utara",GORONTALO,96253.0,Indonesia,82394730288.0,,,0.9016836,123.1155622,https://maps.google.com/?cid=0x0:0x434a1c69ef411878,
restaurant,restaurant,Gorontalo,,Gorontalo,GORONTALO,,Indonesia,,,,0.6999372,122.4467238,https://maps.google.com/?cid=0x0:0x1030bfbcaf71a20,
restaurant,Rumah Makan,Rumah Makan Ingat Gampung Abunawas,"HH72+H24, Balobalonge, Kec. Lemito, Kabupaten Pohuwato, Gorontalo 96468","Balobalonge, Kec. Lemito, Kabupaten Pohuwato",GORONTALO,96468.0,Indonesia,,,,0.5638816,121.550067,https://maps.google.com/?cid=0x0:0x342325684feb9c62,
restaurant,Tempat Parkir,Biau,"X6J7+W88, Jl. Buol - Gorontalo, Biawu, Kec. Tolinggula, Kabupaten Gorontalo Utara, Gorontalo 96524","Jl. Buol - Gorontalo, Biawu, Kec. Tolinggula, Kabupaten Gorontalo Utara",GORONTALO,96524.0,Indonesia,,,,0.982294,122.213335,https://maps.google.com/?cid=0x0:0x52f14f990728822,
restaurant,Restoran,Orasawa Resto,"Jl. Raya GORR, Biyonga, Kec. Limboto, Kabupaten Gorontalo, Gorontalo 96214","Biyonga, Kec. Limboto, Kabupaten Gorontalo",GORONTALO,96214.0,Indonesia,81341345793.0,,,0.6587658,122.982636,https://maps.google.com/?cid=0x0:0xf58f13c3c9e501bc,
restaurant,Restoran,RM arek suroboyo Popayato,"GF7H+M89, Maleo, Kec. Popayato Tim., Kabupaten Pohuwato, Gorontalo 96467","Maleo, Kec. Popayato Tim., Kabupaten Pohuwato",GORONTALO,96467.0,Indonesia,85255524387.0,,,0.5141684,121.4783448,https://maps.google.com/?cid=0x0:0xb1f4959d19fb4f00,
restaurant,Restoran,Rumah makan Anugerah ( bakso Urat),"Manunggal Karya, Kec. Randangan, Kabupaten Pohuwato, Gorontalo 96469","Kec. Randangan, Kabupaten Pohuwato",GORONTALO,96469.0,Indonesia,85342894282.0,,,0.537893,121.8095649,https://maps.google.com/?cid=0x0:0xa6beba85fab18a07,
restaurant,Restoran,KEDAI LI' TATA,"244X+G4F, Desa, ilotunggula, Kec. Tolinggula, Kabupaten Gorontalo Utara, Sulawesi Tengah","Kabupaten Gorontalo Utara, Sulawesi Tengah",GORONTALO,,Indonesia,82347482824.0,,,1.006324,122.147791,https://maps.google.com/?cid=0x0:0x63036741f151dd2e,
restaurant,Hotel,Penginapan dan Rumah Makan Klaten,"G8FW+JG7, Jl. H.m. Soeharto, Hungayonaa, Kec. Tilamuta, Kabupaten Boalemo, Gorontalo 96263","Jl. H.m. Soeharto, Hungayonaa, Kec. Tilamuta, Kabupaten Boalemo",GORONTALO,96263.0,Indonesia,85298287111.0,,,0.5240439,122.346296,https://maps.google.com/?cid=0x0:0x46a9526acbd76acd,
restaurant,Restoran,RM.COTO MAKASSAR SINAR Maros 5,"G9J4+C3C, Jl. Trans Sulawesi, Mohungo, Kec. Tilamuta, Kabupaten Boalemo, Gorontalo 96263","Jl. Trans Sulawesi, Mohungo, Kec. Tilamuta, Kabupaten Boalemo",GORONTALO,96263.0,Indonesia,,,,0.5310645,122.3551351,https://maps.google.com/?cid=0x0:0xd0463e5530b45f40,
restaurant,restaurant,Rumah Makan,"Desa, Sidomulyo, Kec. Botumoito, Kabupaten Gorontalo, Gorontalo 96264","Sidomulyo, Kec. Botumoito, Kabupaten Gorontalo",GORONTALO,96264.0,Indonesia,81340540039.0,,,0.6051365,122.2200065,https://maps.google.com/?cid=0x0:0xaeee16c8914a20e0,
restaurant,Padang,RM. OLAMITA,"G8GX+P6P, Limbato, Kec. Tilamuta, Kabupaten Boalemo, Gorontalo 96263","Limbato, Kec. Tilamuta, Kabupaten Boalemo",GORONTALO,96263.0,Indonesia,85394609094.0,,,0.5268307,122.3480815,https://maps.google.com/?cid=0x0:0x93c43c1befaf393a,
restaurant,Restoran,WARUNG MAKAN ALIFIYA,"Jl. Trans Sulawesi, Maleo, Kec. Popayato Tim., Kabupaten Pohuwato, Gorontalo 96467","Maleo, Kec. Popayato Tim., Kabupaten Pohuwato",GORONTALO,96467.0,Indonesia,83898485399.0,,,0.5216741,121.4878755,https://maps.google.com/?cid=0x0:0xbf6501fe52981e7b,
restaurant,Hidangan Laut,Rumah Makan Ohara,"Jalan Yos Sudarso No. 51, Tenda, Kecamatan Hulonthalangi, Kota Gorontalo, Gorontalo 96133","Tenda, Kecamatan Hulonthalangi, Kota Gorontalo",GORONTALO,96133.0,Indonesia,85240206577.0,,,0.5194606,123.0617264,https://maps.google.com/?cid=0x0:0xd47f8cd209da0490,
restaurant,Bakso,Warung Ilabulo Sadap,"GRQ8+FWV, Motolohu, Kec. Randangan, Kabupaten Pohuwato, Gorontalo 96469","Motolohu, Kec. Randangan, Kabupaten Pohuwato",GORONTALO,96469.0,Indonesia,81241576465.0,,,0.5387296,121.8173085,https://maps.google.com/?cid=0x0:0x8dc664b974cd6a66,
restaurant,Restoran,Rumah Makan UNGU,"X69G+M92, Jl. Buol - Gorontalo, Didingga, Kec. Tolinggula, Kabupaten Gorontalo Utara, Gorontalo 96524","Jl. Buol - Gorontalo, Didingga, Kec. Tolinggula, Kabupaten Gorontalo Utara",GORONTALO,96524.0,Indonesia,,,,0.9691403,122.2258927,https://maps.google.com/?cid=0x0:0x16c5d3b1e1b8e4c3,
restaurant,Restoran,RM. Ibu Lufna,"G3Q3+7FX, Biawao, Kota Sel., Kota Gorontalo, Gorontalo 96133","Biawao, Kota Sel., Kota Gorontalo",GORONTALO,96133.0,Indonesia,85398223789.0,,,0.5382996,123.0537681,https://maps.google.com/?cid=0x0:0x7c50be5d2d58f6c0,
restaurant,Kafe,Cafe  Resto Pondok Bambu,"Jl. Abdul Jabar Bahua, Luwoo, Telaga Jaya, Gorontalo Regency, Gorontalo 96181","Luwoo, Telaga Jaya, Gorontalo Regency",GORONTALO,96181.0,Indonesia,82129151579.0,,,0.5778635,123.0303802,https://maps.google.com/?cid=0x0:0x409aa8f4c7ccc6ef,
restaurant,Tujuan Wisata,Bohulo Camp  Eatery,"Dusun Bayade Desa Dulamayo selatan, Kec. Telaga, Gorontalo 96181",Kec. Telaga,GORONTALO,96181.0,Indonesia,81342860086.0,,,0.6946569,123.0524291,https://maps.google.com/?cid=0x0:0xb76d12777bdb63dc,
restaurant,Ayam,RM.Amhar,"G8HV+H8V, Hungayonaa, Kec. Tilamuta, Kabupaten Boalemo, Gorontalo 96263","Hungayonaa, Kec. Tilamuta, Kabupaten Boalemo",GORONTALO,96263.0,Indonesia,,,,0.5289895,122.3432956,https://maps.google.com/?cid=0x0:0xd13cf16583c2b7fc,
restaurant,Ikan Bakar,RM. LESTARI (UTI punya),"5CGF+3XR, Jl. Buol - Gorontalo, Leok II, Kec. Biau, Kabupaten Buol, Sulawesi Tengah 94563","Jl. Buol - Gorontalo, Leok II, Kec. Biau, Kabupaten Buol",GORONTALO,94563.0,Indonesia,,,,1.1752392,121.4248903,https://maps.google.com/?cid=0x0:0x8d6a378c28c4f340,
restaurant,Restoran,Bele le nizar ba'u,"Jl. Palma No.123, Libuo, Kec. Dungingi, Kabupaten Gorontalo, Gorontalo 96135","Libuo, Kec. Dungingi, Kabupaten Gorontalo",GORONTALO,96135.0,Indonesia,82190396987.0,,,0.555112,123.0443671,https://maps.google.com/?cid=0x0:0xb894c51bc33315ee,
restaurant,restaurant,RESTOE IBU,"Perum BTN, Jl. Samsu Biya Lorong 1, Hepuhulawa, Kec. Limboto, Kabupaten Gorontalo, Gorontalo 96212","Jl. Samsu Biya Lorong 1, Hepuhulawa, Kec. Limboto, Kabupaten Gorontalo",GORONTALO,96212.0,Indonesia,811437152.0,,,0.6335474,122.9843425,https://maps.google.com/?cid=0x0:0x883d676163ab6562,
restaurant,Rumah Makan,Rumah Makan Li Bibi,"Tomulabutao, Kec. Dungingi, Kabupaten Gorontalo, Gorontalo 96138","Kec. Dungingi, Kabupaten Gorontalo",GORONTALO,96138.0,Indonesia,,,,0.5738178,123.0451164,https://maps.google.com/?cid=0x0:0x7952419d079dc555,
restaurant,Rumah Makan,Milu Siram Selayar,"H392+VHJ, Jl. Selayar, Pulubala, Kec. Kota Tengah, Kota Gorontalo, Gorontalo 96138","Jl. Selayar, Pulubala, Kec. Kota Tengah, Kota Gorontalo",GORONTALO,96138.0,Indonesia,85253000000.0,,,0.5697154,123.051398,https://maps.google.com/?cid=0x0:0xfaca565b094f6f4,
restaurant,Rumah Makan,Rumah Makan Dapur Sa'Uli,"Jl. Data Tomelo No.103A, Luwoo, Kec. Telaga Jaya, Kabupaten Gorontalo, Gorontalo 96181","Luwoo, Kec. Telaga Jaya, Kabupaten Gorontalo",GORONTALO,96181.0,Indonesia,81356570570.0,,,0.5787453,123.0308601,https://maps.google.com/?cid=0x0:0x14d88bf1b4bac004,
restaurant,Jepang,GRANDE BISTRO GORONTALO,"Jalan Dr. H. Medi Botutihe, S.E, No.14, Heledulaa, Kec. Kota Tim., Kota Gorontalo, Gorontalo 96135","S.E, No.14, Heledulaa, Kec. Kota Tim., Kota Gorontalo",GORONTALO,96135.0,Indonesia,4358529988.0,,,0.5472683,123.065455,https://maps.google.com/?cid=0x0:0xf085f89db2275b60,
restaurant,Toko Swalayan,Rumah Makan Gemini,"Jln Hi Suhong No.14, Leok I, Kec. Biau, Kabupaten Buol, Sulawesi Tengah 94563","Leok I, Kec. Biau, Kabupaten Buol",GORONTALO,94563.0,Indonesia,81337733882.0,,,1.1851983,121.418733,https://maps.google.com/?cid=0x0:0x7ef214ef0afc0d10,
restaurant,Restoran,Warung Makan vita,"5C8H+MG6, Leok II, Kec. Biau, Kabupaten Buol, Sulawesi Tengah 94563","Leok II, Kec. Biau, Kabupaten Buol",GORONTALO,94563.0,Indonesia,,,,1.1666716,121.4287677,https://maps.google.com/?cid=0x0:0x63beccfb15ba088e,
restaurant,Rumah Makan,Rumah Makan Rj Food,"5C6F+2XJ, Jl. M.A Turungku, Kali, Kec. Biau, Kabupaten Buol, Sulawesi Tengah 94563","Jl. M.A Turungku, Kali, Kec. Biau, Kabupaten Buol",GORONTALO,94563.0,Indonesia,,,,1.1600947,121.4248778,https://maps.google.com/?cid=0x0:0x71c5951143511bc7,
restaurant,Tempat Parkir,Biau,"X6J7+W88, Jl. Buol - Gorontalo, Biawu, Kec. Tolinggula, Kabupaten Gorontalo Utara, Gorontalo 96524","Jl. Buol - Gorontalo, Biawu, Kec. Tolinggula, Kabupaten Gorontalo Utara",GORONTALO,96524.0,Indonesia,,,,0.982294,122.213335,https://maps.google.com/?cid=0x0:0x52f14f990728822,
restaurant,Wilayah Lintas Alam,Pusat Kecamatan Biau,"X6P8+8QG, Jl. Buol - Gorontalo, Biawu, Kec. Tolinggula, Kabupaten Gorontalo Utara, Gorontalo 96524","Jl. Buol - Gorontalo, Biawu, Kec. Tolinggula, Kabupaten Gorontalo Utara",GORONTALO,96524.0,Indonesia,,,,0.9858198,122.2169458,https://maps.google.com/?cid=0x0:0x49483cbb167b89fe,
restaurant,Toko bahan makanan,Winda Home,"X6H7+W6V, Jl. Trans Sulawesi, Bualo, Kec. Biau, Kabupaten Gorontalo Utara, Gorontalo","Kabupaten Gorontalo Utara, Gorontalo",GORONTALO,,Indonesia,,,,0.9798522,122.2130453,https://maps.google.com/?cid=0x0:0x535be985841642d1,
restaurant,Kafe,W Cafe,"5C6M+2VF, Buol, Kec. Biau, Kabupaten Buol, Sulawesi Tengah 94565","Buol, Kec. Biau, Kabupaten Buol",GORONTALO,94565.0,Indonesia,82215377770.0,,,1.1600646,121.4346649,https://maps.google.com/?cid=0x0:0x76f4221ae99967c,
restaurant,restaurant,,,,GORONTALO,,Indonesia,,,,,,https://maps.google.com/?cid=0x0:0xf402ddc5c5916cfau0026onu003dSarabau0026midu003d/g/11rcnznsh2,
restaurant,restaurant,,,,GORONTALO,,Indonesia,,,,,,https://maps.google.com/?cid=0x0:0xf402ddc5c5916cfau0026onu003dMie+Ayamu0026midu003d/g/11rcnznsh2,
restaurant,restaurant,,,,GORONTALO,,Indonesia,,,,,,https://maps.google.com/?cid=0x0:0xf402ddc5c5916cfau0026onu003dNasi+Ayam+Gorengu0026midu003d/g/11rcnznsh2,
restaurant,restaurant,,,,GORONTALO,,Indonesia,,,,,,https://maps.google.com/?cid=0x0:0xf402ddc5c5916cfau0026onu003dMochino+Icedu0026midu003d/g/11rcnznsh2,
restaurant,restaurant,,,,GORONTALO,,Indonesia,,,,,,https://maps.google.com/?cid=0x0:0xf402ddc5c5916cfau0026onu0026midu003d/g/11rcnznsh2,
restaurant,restaurant,,,,GORONTALO,,Indonesia,,,,,,https://maps.google.com/?cid=0x0:0xf402ddc5c5916cfa!3m1!1s2@1:CIHM0ogKEICAgIDhzOKoJA%7CCgsIrYSGoAYQwLzGWA%7C?hlu003did,
restaurant,restaurant,Kec. Gentuma Raya,"Kabupaten Gorontalo Utara, Gorontalo","Kabupaten Gorontalo Utara, Gorontalo",GORONTALO,,Indonesia,,,,0.9300102,123.0377072,https://maps.google.com/?cid=0x0:0xc9d73598b0af1e0,
restaurant,Padang,RM HIDAYYAH,"W2M8+MGJ, Jl. Trans Sulawesi, Molonggota, Kec. Gentuma Raya, Kabupaten Gorontalo Utara, Gorontalo 96253","Jl. Trans Sulawesi, Molonggota, Kec. Gentuma Raya, Kabupaten Gorontalo Utara",GORONTALO,96253.0,Indonesia,82393255254.0,,,0.9342075,123.0162648,https://maps.google.com/?cid=0x0:0xad203e6747c14b8a,
restaurant,restaurant,RM. Putra Tanjung Karang,"WXVV+46M, Jl. Trans Sulawesi, Tj. Karang, Kec. Kwandang, Kabupaten Gorontalo Utara, Gorontalo 96253","Jl. Trans Sulawesi, Tj. Karang, Kec. Kwandang, Kabupaten Gorontalo Utara",GORONTALO,96253.0,Indonesia,85340130007.0,,,0.9428305,122.9930315,https://maps.google.com/?cid=0x0:0xdf81c6334f0cfbfd,
restaurant,Restoran,Dapur moza,"W2FR+Q2J, Gentuma, Kec. Gentuma Raya, Kabupaten Gorontalo Utara, Gorontalo 96253","Gentuma, Kec. Gentuma Raya, Kabupaten Gorontalo Utara",GORONTALO,96253.0,Indonesia,82259317824.0,,,0.924452,123.0400237,https://maps.google.com/?cid=0x0:0x48c824a61d931e50,
restaurant,Restoran,RM. Tinutuan CiNDY,"W2FJ+RGR, Gentuma, Kec. Gentuma Raya, Kabupaten Gorontalo Utara, Gorontalo 96253","Gentuma, Kec. Gentuma Raya, Kabupaten Gorontalo Utara",GORONTALO,96253.0,Indonesia,,,,0.9246223,123.0312578,https://maps.google.com/?cid=0x0:0xaaaa5779fab523ec,
restaurant,Restoran,RM Barokah,"W2FV+WFQ, Jl. Trans Sulawesi, Dumolodo, Kec. Gentuma Raya, Kabupaten Gorontalo Utara, Gorontalo 96253","Jl. Trans Sulawesi, Dumolodo, Kec. Gentuma Raya, Kabupaten Gorontalo Utara",GORONTALO,96253.0,Indonesia,,,,0.9248355,123.0437486,https://maps.google.com/?cid=0x0:0xc93ab4aed166952a,
restaurant,Restoran,RM MAS'INTAN,"W2HQ+FPJ, Unnamed Road,, Gentuma, Kec. Gentuma Raya, Kabupaten Gorontalo Utara, Gorontalo 96253","Unnamed Road,, Gentuma, Kec. Gentuma Raya, Kabupaten Gorontalo Utara",GORONTALO,96253.0,Indonesia,82191322314.0,,,0.9287172,123.0392795,https://maps.google.com/?cid=0x0:0xa787dc6a73808dc8,
restaurant,Restoran,Orasawa Resto,"Jl. Raya GORR, Biyonga, Kec. Limboto, Kabupaten Gorontalo, Gorontalo 96214","Biyonga, Kec. Limboto, Kabupaten Gorontalo",GORONTALO,96214.0,Indonesia,81341345793.0,,,0.6587658,122.982636,https://maps.google.com/?cid=0x0:0xf58f13c3c9e501bc,
restaurant,Toko Kue,M'ZEA Bakery and Cookies (homeMade),"W2JR+88M, Jl. Pelabuhan, Gentuma, Kec. Gentuma Raya, Kabupaten Gorontalo Utara, Gorontalo 96253","Jl. Pelabuhan, Gentuma, Kec. Gentuma Raya, Kabupaten Gorontalo Utara",GORONTALO,96253.0,Indonesia,81355735423.0,,,0.9308461,123.0407866,https://maps.google.com/?cid=0x0:0xc5e3554bf69f8729,
restaurant,Hidangan Laut,Rumah Makan Ohara,"Jalan Yos Sudarso No. 51, Tenda, Kecamatan Hulonthalangi, Kota Gorontalo, Gorontalo 96133","Tenda, Kecamatan Hulonthalangi, Kota Gorontalo",GORONTALO,96133.0,Indonesia,85240206577.0,,,0.5194606,123.0617264,https://maps.google.com/?cid=0x0:0xd47f8cd209da0490,
restaurant,Restoran,Domestique,"Jl. Arif Rahman Hakim No.8, Wumialo, Kec. Kota Tengah, Kota Gorontalo, Gorontalo 96138","Wumialo, Kec. Kota Tengah, Kota Gorontalo",GORONTALO,96138.0,Indonesia,4358524078.0,,,0.5540734,123.0577334,https://maps.google.com/?cid=0x0:0x91b16851ebc64628,
restaurant,Padang,RM. Flamboyan Gentuma,"W2FJ+VFP Depan Kantor KUA, Gentuma, Kec. Gentuma Raya, Kabupaten Gorontalo Utara, Gorontalo","Kabupaten Gorontalo Utara, Gorontalo",GORONTALO,,Indonesia,,,,0.9247245,123.0312179,https://maps.google.com/?cid=0x0:0xbef92f9fc1bb0615,
restaurant,Makanan Kecil,Warung Le Nabil,"W2GJ+3GH, Jl. Trans Sulawesi, Gentuma, Kec. Gentuma Raya, Kabupaten Gorontalo Utara, Gorontalo 96253","Jl. Trans Sulawesi, Gentuma, Kec. Gentuma Raya, Kabupaten Gorontalo Utara",GORONTALO,96253.0,Indonesia,,,,0.9251469,123.0314029,https://maps.google.com/?cid=0x0:0x23c172e15f35c861,
restaurant,Kafe,Tik Top Cafe,"W2M7+WF2, Jl. Trans Sulawesi, Molonggota, Kec. Gentuma Raya, Kabupaten Gorontalo Utara, Gorontalo 96253","Jl. Trans Sulawesi, Molonggota, Kec. Gentuma Raya, Kabupaten Gorontalo Utara",GORONTALO,96253.0,Indonesia,85398299817.0,,,0.9347592,123.0136459,https://maps.google.com/?cid=0x0:0xe832b9494120158,
restaurant,Restoran,Panorama Tanjung Karang,"W2R2+66J, Jl. Trans Sulawesi, Tj. Karang, Kec. Kwandang, Kabupaten Gorontalo Utara, Gorontalo 96253","Jl. Trans Sulawesi, Tj. Karang, Kec. Kwandang, Kabupaten Gorontalo Utara",GORONTALO,96253.0,Indonesia,,,,0.9405907,123.0005043,https://maps.google.com/?cid=0x0:0x8f95944a1795b2d3,
restaurant,Ayam,RUMAH MAKAN AYAM BAKAR ILONI LE ANSAR POU,"W23G+WVC, Ipilo, Kec. Gentuma Raya, Kabupaten Gorontalo Utara, Gorontalo 96253","Ipilo, Kec. Gentuma Raya, Kabupaten Gorontalo Utara",GORONTALO,96253.0,Indonesia,82291476085.0,,,0.9048155,123.0271479,https://maps.google.com/?cid=0x0:0xac4373e092b2359c,
restaurant,Kedai Kopi,martabak mini gorut,"W2FQ+J5J, Gentuma, Kec. Gentuma Raya, Kabupaten Gorontalo Utara, Gorontalo 96253","Gentuma, Kec. Gentuma Raya, Kabupaten Gorontalo Utara",GORONTALO,96253.0,Indonesia,85394081069.0,,,0.9240933,123.0378963,https://maps.google.com/?cid=0x0:0xdc720233dbe227f8,
restaurant,Kedai Kopi,DN caffe,"W2JQ+234, Gentuma, Kec. Gentuma Raya, Kabupaten Gorontalo Utara, Gorontalo","Kabupaten Gorontalo Utara, Gorontalo",GORONTALO,,Indonesia,,,,0.9300102,123.0377072,https://maps.google.com/?cid=0x0:0x4266d06c3b6cda20,
restaurant,Jepang,GRANDE BISTRO GORONTALO,"Jalan Dr. H. Medi Botutihe, S.E, No.14, Heledulaa, Kec. Kota Tim., Kota Gorontalo, Gorontalo 96135","S.E, No.14, Heledulaa, Kec. Kota Tim., Kota Gorontalo",GORONTALO,96135.0,Indonesia,4358529988.0,,,0.5472683,123.065455,https://maps.google.com/?cid=0x0:0xf085f89db2275b60,
restaurant,Hidangan Laut,Rumah Makan Ratu,"G344+HJ3, Pohe, Kec. Hulonthalangi, Kabupaten Gorontalo, Gorontalo 96133","Pohe, Kec. Hulonthalangi, Kabupaten Gorontalo",GORONTALO,96133.0,Indonesia,81340657191.0,,,0.5063819,123.0565498,https://maps.google.com/?cid=0x0:0xe4fa44c379288a01,
restaurant,Kedai Kopi,Outlet Astin Ceel,"dusun No.3, desa pasalae, Ipilo, Gentuma Raya, North Gorontalo Regency, Gorontalo 96253","desa pasalae, Ipilo, Gentuma Raya, North Gorontalo Regency",GORONTALO,96253.0,Indonesia,85399959276.0,,,0.8635461,123.0226174,https://maps.google.com/?cid=0x0:0x6da77c381763717b,
restaurant,Restoran,Rumah Bpk Burhan abdullah,"W2JM+2HX, Gentuma, Kec. Gentuma Raya, Kabupaten Gorontalo Utara, Gorontalo 96253","Gentuma, Kec. Gentuma Raya, Kabupaten Gorontalo Utara",GORONTALO,96253.0,Indonesia,,,,0.9295022,123.0347375,https://maps.google.com/?cid=0x0:0x3e7153df129cd43c,
restaurant,Sarapan,Rumah Makan Silviana,"W2FW+G68, Jl. Trans Sulawesi, Dumolodo, Kec. Gentuma Raya, Kabupaten Gorontalo Utara, Gorontalo 96253","Jl. Trans Sulawesi, Dumolodo, Kec. Gentuma Raya, Kabupaten Gorontalo Utara",GORONTALO,96253.0,Indonesia,,,,0.9237942,123.0455674,https://maps.google.com/?cid=0x0:0x50c74357b61094c4,
restaurant,Pengiriman Makanan,Sweet Queen,"W2JQ+R94, Gentuma, Kec. Gentuma Raya, Kabupaten Gorontalo Utara, Gorontalo 96253","Gentuma, Kec. Gentuma Raya, Kabupaten Gorontalo Utara",GORONTALO,96253.0,Indonesia,82197202798.0,,,0.9321388,123.038588,https://maps.google.com/?cid=0x0:0xd803d2c1ecb67440,
restaurant,restaurant,Gorontalo 96252,"Kec. Kwandang, Kabupaten Gorontalo Utara, Gorontalo","Kabupaten Gorontalo Utara, Gorontalo",GORONTALO,,Indonesia,,,,0.8083426,122.9212265,https://maps.google.com/?cid=0x0:0x8516fb933d27785f,
restaurant,Kafe,PANORAMA (Rumah Makan Dan Penginapan),"VW5H+HGV, Dambalo, Kec. Kwandang, Kabupaten Gorontalo Utara, Gorontalo 96252","Dambalo, Kec. Kwandang, Kabupaten Gorontalo Utara",GORONTALO,96252.0,Indonesia,,,,0.8589916,122.9288043,https://maps.google.com/?cid=0x0:0x44daf461f7498c15,
restaurant,Restoran,Keko Resto and Cafe,"QVP9+P33, Molingkapoto, Kec. Kwandang, Kabupaten Gorontalo Utara, Gorontalo 96252","Molingkapoto, Kec. Kwandang, Kabupaten Gorontalo Utara",GORONTALO,96252.0,Indonesia,82396607612.0,,,0.7867664,122.8676732,https://maps.google.com/?cid=0x0:0xeb12fa68f885c8c0,
restaurant,Dapur Umum,Rumah Makan Adila,"RWX6+952, Dusun Katang Indah, Desa Katialada, Moluo, Kec. Kwandang, Kabupaten Gorontalo Utara, Gorontalo 96252","Dusun Katang Indah, Desa Katialada, Moluo, Kec. Kwandang, Kabupaten Gorontalo Utara",GORONTALO,96252.0,Indonesia,82343252590.0,,,0.8483811,122.9103756,https://maps.google.com/?cid=0x0:0x9234b1a033380f09,
restaurant,Restoran,RM BarokaH,"RWV8+V36, Jl. Trans Sulawesi, Moluo, Kec. Kwandang, Kabupaten Gorontalo Utara, Gorontalo 96252","Jl. Trans Sulawesi, Moluo, Kec. Kwandang, Kabupaten Gorontalo Utara",GORONTALO,96252.0,Indonesia,,,,0.8446707,122.9151384,https://maps.google.com/?cid=0x0:0xd91b0fe90287de91,
restaurant,Padang,RM Amelia Kwandang,"RWJ9+9H6, Titidu, Kec. Kwandang, Kabupaten Gorontalo Utara, Gorontalo 96252","Titidu, Kec. Kwandang, Kabupaten Gorontalo Utara",GORONTALO,96252.0,Indonesia,81242426363.0,,,0.8309193,122.918905,https://maps.google.com/?cid=0x0:0xe3c7fa0e2ecc84ad,
restaurant,Restoran,RM Lamongan,"RW93+W6W, Jl. Trans Sulawesi, Bulalo, Kec. Kwandang, Kabupaten Gorontalo Utara, Gorontalo 96252","Jl. Trans Sulawesi, Bulalo, Kec. Kwandang, Kabupaten Gorontalo Utara",GORONTALO,96252.0,Indonesia,82188883389.0,,,0.8198558,122.9030748,https://maps.google.com/?cid=0x0:0xd423780befbe1be0,
restaurant,Padang,Rumah Makan Aldy,"Molingkapoto, Kec. Kwandang, Kabupaten Gorontalo Utara, Gorontalo 96252","Kec. Kwandang, Kabupaten Gorontalo Utara",GORONTALO,96252.0,Indonesia,85256539708.0,,,0.7827558,122.8639611,https://maps.google.com/?cid=0x0:0x43dc19c1ec93fafd,
restaurant,Restoran,RM Rifqi,"RWV7+JP2, Jl. Trans Sulawesi, Moluo, Kec. Kwandang, Kabupaten Gorontalo Utara, Gorontalo 96252","Jl. Trans Sulawesi, Moluo, Kec. Kwandang, Kabupaten Gorontalo Utara",GORONTALO,96252.0,Indonesia,,,,0.844017,122.9142718,https://maps.google.com/?cid=0x0:0x76f8b3027919efe3,
restaurant,Restoran,RM. A2,"QVQ8+2HF, selatan, Molingkapoto, Kec. Kwandang, Kabupaten Gorontalo Utara, Gorontalo 96252","selatan, Molingkapoto, Kec. Kwandang, Kabupaten Gorontalo Utara",GORONTALO,96252.0,Indonesia,82292956016.0,,,0.7875521,122.8664373,https://maps.google.com/?cid=0x0:0xafb6911dc06f9231,
restaurant,Padang,Warung Makan Kembar,"QVM5+68R, Pontolo, Kec. Kwandang, Kabupaten Gorontalo Utara, Gorontalo 96252","Pontolo, Kec. Kwandang, Kabupaten Gorontalo Utara",GORONTALO,96252.0,Indonesia,,,,0.7831172,122.858272,https://maps.google.com/?cid=0x0:0x84e9c3608008fdc3,
restaurant,Sarapan,Rumah Makan Mbak Yuk,"QVXJ+QHQ, Jl. Trans Sulawesi, Mootinelo, Kec. Kwandang, Kabupaten Gorontalo Utara, Gorontalo 96252","Jl. Trans Sulawesi, Mootinelo, Kec. Kwandang, Kabupaten Gorontalo Utara",GORONTALO,96252.0,Indonesia,85270596268.0,,,0.7994591,122.8814768,https://maps.google.com/?cid=0x0:0xc226d868194d19ca,
restaurant,Padang,RM.SPARTA,"VW4F+7XP, Jl. Trans Sulawesi, Dambalo, Kec. Kwandang, Kabupaten Gorontalo Utara, Gorontalo 96252","Jl. Trans Sulawesi, Dambalo, Kec. Kwandang, Kabupaten Gorontalo Utara",GORONTALO,96252.0,Indonesia,82195023465.0,,,0.8557129,122.9249457,https://maps.google.com/?cid=0x0:0x366a961c13930a3d,
restaurant,Restoran,Warung Pempek Wong Kito,"RWQ8+952, Moluo, Kec. Kwandang, Kabupaten Gorontalo Utara, Gorontalo 96252","Moluo, Kec. Kwandang, Kabupaten Gorontalo Utara",GORONTALO,96252.0,Indonesia,81213147821.0,,,0.8383904,122.9153862,https://maps.google.com/?cid=0x0:0xa0483023021ee526,
restaurant,Padang,RM.WAHYU CAHAYA,"Pontolo, Kec. Kwandang, Kabupaten Gorontalo Utara, Gorontalo 96252","Kec. Kwandang, Kabupaten Gorontalo Utara",GORONTALO,96252.0,Indonesia,82290649785.0,,,0.7795271,122.8623035,https://maps.google.com/?cid=0x0:0xcf369f76f159e3a2,
restaurant,Restoran,Rumah Makan Budhe,"RWV7+5CV, Moluo, Kec. Kwandang, Kabupaten Gorontalo Utara, Gorontalo 96252","Moluo, Kec. Kwandang, Kabupaten Gorontalo Utara",GORONTALO,96252.0,Indonesia,82290041100.0,,,0.8429752,122.9135439,https://maps.google.com/?cid=0x0:0x29b92bc0fe44b3a3,
restaurant,Restoran,RM. Surabaya,"RWH9+MP6, Jl. Trans Sulawesi, Titidu, Kec. Kwandang, Kabupaten Gorontalo Utara, Gorontalo 96252","Jl. Trans Sulawesi, Titidu, Kec. Kwandang, Kabupaten Gorontalo Utara",GORONTALO,96252.0,Indonesia,,,,0.8291566,122.9192733,https://maps.google.com/?cid=0x0:0xacaf8c4ab7b57a90,
restaurant,Restoran,RM. Scorpion,"Jl. Trans Sulawesi No.74, Molingkapoto, Kec. Kwandang, Kabupaten Gorontalo Utara, Gorontalo 96252","Molingkapoto, Kec. Kwandang, Kabupaten Gorontalo Utara",GORONTALO,96252.0,Indonesia,,,,0.7881802,122.8660692,https://maps.google.com/?cid=0x0:0xf89e4974493aca05,
restaurant,restaurant,Pempek Palembang Wong Kito (by Twins Food),"Perumahan villa gorut, lorong 3, Molingkapoto, Kec. Kwandang, Kabupaten Gorontalo Utara, Gorontalo 96252","lorong 3, Molingkapoto, Kec. Kwandang, Kabupaten Gorontalo Utara",GORONTALO,96252.0,Indonesia,85366691211.0,,,0.7901902,122.8716216,https://maps.google.com/?cid=0x0:0x4065516cb3505b75,
restaurant,Padang,Rumah Makan Silva,"QVP8+693, Jl. Trans Sulawesi, Molingkapoto, Kec. Kwandang, Kabupaten Gorontalo Utara, Gorontalo 96252","Jl. Trans Sulawesi, Molingkapoto, Kec. Kwandang, Kabupaten Gorontalo Utara",GORONTALO,96252.0,Indonesia,,,,0.7855036,122.8659186,https://maps.google.com/?cid=0x0:0x9f02d698b416ee42,
restaurant,Rumah Makan,W. Makan Ayukoem,"Molingkapoto, Kec. Kwandang, Kabupaten Gorontalo Utara, Gorontalo 96252","Kec. Kwandang, Kabupaten Gorontalo Utara",GORONTALO,96252.0,Indonesia,85298851308.0,,,0.7882937,122.8679801,https://maps.google.com/?cid=0x0:0x48d014505bc62fab,
restaurant,restaurant,Monano,"Kec. Anggrek, Kabupaten Gorontalo Utara, Gorontalo","Kabupaten Gorontalo Utara, Gorontalo",GORONTALO,,Indonesia,,,,0.8567497,122.6870742,https://maps.google.com/?cid=0x0:0xfb9832e634d0d5c8,
restaurant,Rumah Makan,RM SURABAYA 99,"VMJQ+6FJ, kec, Monano, Kec. Anggrek, Kabupaten Gorontalo Utara, Gorontalo 96525","kec, Monano, Kec. Anggrek, Kabupaten Gorontalo Utara",GORONTALO,96525.0,Indonesia,85255091441.0,,,0.8805908,122.6886257,https://maps.google.com/?cid=0x0:0x1610b7613492b675,
restaurant,Rumah Makan,Warung Tinutuan Cahaya Anugerah,"Unnamed Road, Monano, Kec. Anggrek, Kabupaten Gorontalo Utara, Gorontalo 96525","Monano, Kec. Anggrek, Kabupaten Gorontalo Utara",GORONTALO,96525.0,Indonesia,85340289180.0,,,0.8886484,122.697627,https://maps.google.com/?cid=0x0:0xca37fd9a1719e9e9,
restaurant,Restoran,cafe ayah,"VM4P+MRW, tugu perbatasan, Monano, Kec. Sumalata, Kabupaten Gorontalo Utara, Gorontalo 96525","tugu perbatasan, Monano, Kec. Sumalata, Kabupaten Gorontalo Utara",GORONTALO,96525.0,Indonesia,,,,0.8567497,122.6870742,https://maps.google.com/?cid=0x0:0x50e13d63d2e233b5,
restaurant,Restoran,RM Pino's,"H332+H65, Jl. Jend. Sudirman, Limba U Dua, Kota Sel., Kota Gorontalo, Gorontalo 96138","Jl. Jend. Sudirman, Limba U Dua, Kota Sel., Kota Gorontalo",GORONTALO,96138.0,Indonesia,81245031390.0,,,0.553897,123.0505972,https://maps.google.com/?cid=0x0:0x69f3ace1974e95ab,
restaurant,Restoran,Orasawa Resto,"Jl. Raya GORR, Biyonga, Kec. Limboto, Kabupaten Gorontalo, Gorontalo 96214","Biyonga, Kec. Limboto, Kabupaten Gorontalo",GORONTALO,96214.0,Indonesia,81341345793.0,,,0.6587658,122.982636,https://maps.google.com/?cid=0x0:0xf58f13c3c9e501bc,
restaurant,Restoran,KAMIYES House,"Desa, Monano, Kec. Anggrek, Kabupaten Gorontalo Utara, Gorontalo 96525","Monano, Kec. Anggrek, Kabupaten Gorontalo Utara",GORONTALO,96525.0,Indonesia,8127433661.0,,,0.8892969,122.6979594,https://maps.google.com/?cid=0x0:0x1151a7071b89e2d7,
restaurant,Rumah Makan,Rumah Makan Tondano,"Jl. Tondano, Bulotadaa, Kec. Sipatana, Kota Gorontalo, Gorontalo 96124","Bulotadaa, Kec. Sipatana, Kota Gorontalo",GORONTALO,96124.0,Indonesia,85299945946.0,,,0.5839434,123.0631498,https://maps.google.com/?cid=0x0:0xdb3a7921a9d939dd,
restaurant,Kedai Kopi,House Olhis Bakari,"VMPV+CJ4, Monano, Kec. Anggrek, Kabupaten Gorontalo Utara, Gorontalo 96525","Monano, Kec. Anggrek, Kabupaten Gorontalo Utara",GORONTALO,96525.0,Indonesia,81343685046.0,,,0.883614,122.694082,https://maps.google.com/?cid=0x0:0x26665a81159a13dc,
restaurant,Kedai Kopi,3G Food  Drink,"VMPV+QW7, Monano, Kec. Anggrek, Kabupaten Gorontalo Utara, Gorontalo 96525","Monano, Kec. Anggrek, Kabupaten Gorontalo Utara",GORONTALO,96525.0,Indonesia,,,,0.8869044,122.694803,https://maps.google.com/?cid=0x0:0x6abe48d38fa2fbb9,
restaurant,Sate,Rumah Makan Om Deno,"G3V4+3J3, Jl. Pangeran Diponegoro, Limba B, Kota Sel., Kota Gorontalo, Gorontalo 96136","Jl. Pangeran Diponegoro, Limba B, Kota Sel., Kota Gorontalo",GORONTALO,96136.0,Indonesia,,,,0.5426416,123.0565404,https://maps.google.com/?cid=0x0:0x2887319e842a4529,
restaurant,Kafe,Marassa Cafe,"VMJQ+X4M, Monas, Kec. Anggrek, Kabupaten Gorontalo Utara, Gorontalo 96525","Monas, Kec. Anggrek, Kabupaten Gorontalo Utara",GORONTALO,96525.0,Indonesia,,,,0.8824602,122.6877965,https://maps.google.com/?cid=0x0:0x33880ca33da49c36,
restaurant,Padang,Rm.rafki  rifka,"Monas, Kec. Anggrek, Kabupaten Gorontalo Utara, Gorontalo 96525","Kec. Anggrek, Kabupaten Gorontalo Utara",GORONTALO,96525.0,Indonesia,85397570770.0,,,0.8764876,122.6859278,https://maps.google.com/?cid=0x0:0xb4a38b2b783667f0,
restaurant,restaurant,Rumah li AYU MAHFUL,"VP82+FP4, Pilohulata, Monano, Kec. Anggrek, Kabupaten Gorontalo Utara, Gorontalo 96525","Pilohulata, Monano, Kec. Anggrek, Kabupaten Gorontalo Utara",GORONTALO,96525.0,Indonesia,,,,0.8665069,122.70202,https://maps.google.com/?cid=0x0:0xa106c042ca5b92e4,
restaurant,Tujuan Wisata,Bohulo Camp  Eatery,"Dusun Bayade Desa Dulamayo selatan, Kec. Telaga, Gorontalo 96181",Kec. Telaga,GORONTALO,96181.0,Indonesia,81342860086.0,,,0.6946569,123.0524291,https://maps.google.com/?cid=0x0:0xb76d12777bdb63dc,
restaurant,Restoran,Domestique,"Jl. Arif Rahman Hakim No.8, Wumialo, Kec. Kota Tengah, Kota Gorontalo, Gorontalo 96138","Wumialo, Kec. Kota Tengah, Kota Gorontalo",GORONTALO,96138.0,Indonesia,4358524078.0,,,0.5540734,123.0577334,https://maps.google.com/?cid=0x0:0x91b16851ebc64628,
restaurant,Restoran,Rumah Makan Mawar Sharon,"Jl. Taki Niode No.37, Ipilo, Kec. Kota Tim., Kota Gorontalo, Gorontalo 96134","Ipilo, Kec. Kota Tim., Kota Gorontalo",GORONTALO,96134.0,Indonesia,435831683.0,,,0.5349055,123.0625374,https://maps.google.com/?cid=0x0:0xfab7c22798769ac3,
restaurant,Restoran,Roemah Marly,"Siendeng, Kec. Hulonthalangi, Kabupaten Gorontalo, Gorontalo 96133","Kec. Hulonthalangi, Kabupaten Gorontalo",GORONTALO,96133.0,Indonesia,82187781868.0,,,0.5324426,123.0561599,https://maps.google.com/?cid=0x0:0x319b21dafa021f7d,
restaurant,Rumah Makan,Home Family Hamid Harun,"VMMP+JQ8, Jl. Buol - Gorontalo, Monas, Kec. Anggrek, Kabupaten Gorontalo Utara, Gorontalo 96525","Jl. Buol - Gorontalo, Monas, Kec. Anggrek, Kabupaten Gorontalo Utara",GORONTALO,96525.0,Indonesia,,,,0.8840448,122.6869431,https://maps.google.com/?cid=0x0:0xb82b9aecf464f1bc,
restaurant,restaurant,Gorontalo 96525,"Kec. Anggrek, Kabupaten Gorontalo Utara, Gorontalo","Kabupaten Gorontalo Utara, Gorontalo",GORONTALO,,Indonesia,,,,0.8425794,122.695547,https://maps.google.com/?cid=0x0:0xc910c3a3b1bab734,
restaurant,restaurant,Gorontalo 96252,"Kec. Kwandang, Kabupaten Gorontalo Utara, Gorontalo","Kabupaten Gorontalo Utara, Gorontalo",GORONTALO,,Indonesia,,,,0.8083426,122.9212265,https://maps.google.com/?cid=0x0:0x8516fb933d27785f,
restaurant,Otoritas Pelabuhan,Ponelo Kepulauan,"VVRP+693, Jl. Kec. Ponelo, Moluo, Kec. Kwandang, Kabupaten Gorontalo Utara, Gorontalo","Kabupaten Gorontalo Utara, Gorontalo",GORONTALO,,Indonesia,,,,0.8905172,122.8859277,https://maps.google.com/?cid=0x0:0x3adda2027890f34b,
restaurant,Rumah Makan,RM Citra Ponelo,"VVRP+579, Desa Ponelo, Moluo, Kec. Kwandang, Kabupaten Gorontalo Utara, Gorontalo 96252","Desa Ponelo, Moluo, Kec. Kwandang, Kabupaten Gorontalo Utara",GORONTALO,96252.0,Indonesia,82197197849.0,,,0.8904125,122.8857443,https://maps.google.com/?cid=0x0:0xf4afb80100cddeae,
restaurant,Restoran,Orasawa Resto,"Jl. Raya GORR, Biyonga, Kec. Limboto, Kabupaten Gorontalo, Gorontalo 96214","Biyonga, Kec. Limboto, Kabupaten Gorontalo",GORONTALO,96214.0,Indonesia,81341345793.0,,,0.6587658,122.982636,https://maps.google.com/?cid=0x0:0xf58f13c3c9e501bc,
restaurant,Restoran,ANGELATO,"Jl. Sultan Hassanudin No.3, RT.01/RW.01, Biawao, Kota Sel., Kota Gorontalo, Gorontalo 96133","RT.01/RW.01, Biawao, Kota Sel., Kota Gorontalo",GORONTALO,96133.0,Indonesia,82257337777.0,,,0.5310769,123.058728,https://maps.google.com/?cid=0x0:0x2e3e6cb700794bfb,
restaurant,Paviliun Pantai,Pantai Lito Mohinggito,"WVGG+2P3, Unnamed Road, Moluo, Kec. Kwandang, Kabupaten Gorontalo Utara, Gorontalo","Kabupaten Gorontalo Utara, Gorontalo",GORONTALO,,Indonesia,,,,0.9250021,122.8767918,https://maps.google.com/?cid=0x0:0x9059a1c667419daf,
restaurant,Hidangan Laut,Rumah Makan Ratu,"G344+HJ3, Pohe, Kec. Hulonthalangi, Kabupaten Gorontalo, Gorontalo 96133","Pohe, Kec. Hulonthalangi, Kabupaten Gorontalo",GORONTALO,96133.0,Indonesia,81340657191.0,,,0.5063819,123.0565498,https://maps.google.com/?cid=0x0:0xe4fa44c379288a01,
restaurant,Hidangan Laut,Rumah Makan Ohara,"Jalan Yos Sudarso No. 51, Tenda, Kecamatan Hulonthalangi, Kota Gorontalo, Gorontalo 96133","Tenda, Kecamatan Hulonthalangi, Kota Gorontalo",GORONTALO,96133.0,Indonesia,85240206577.0,,,0.5194606,123.0617264,https://maps.google.com/?cid=0x0:0xd47f8cd209da0490,
restaurant,Minimarket,Kios mama kaka,"VV6P+QRR, Desa, otiola, kecamatan ponelo kepulauan, North Gorontalo Regency, Gorontalo 96252","Desa, otiola, kecamatan ponelo kepulauan, North Gorontalo Regency",GORONTALO,96252.0,Indonesia,,,,0.8619956,122.8870143,https://maps.google.com/?cid=0x0:0x6863b3d75d3b160b,
restaurant,restaurant,Gorontalo 96254,"Kabupaten Gorontalo Utara, Gorontalo","Kabupaten Gorontalo Utara, Gorontalo",GORONTALO,,Indonesia,,,,0.926195,122.4014193,https://maps.google.com/?cid=0x0:0x9a29fb0ff347278,
restaurant,Restoran,RM. Atap Biru,"XGGG+4Q3, Deme II, Kec. Sumalata, Kabupaten Gorontalo Utara, Gorontalo 96254","Deme II, Kec. Sumalata, Kabupaten Gorontalo Utara",GORONTALO,96254.0,Indonesia,,,,0.9752668,122.5269315,https://maps.google.com/?cid=0x0:0xf55378ef615dd386,
restaurant,Restoran,Rumah Makan Hikmah,"XGGG+859, Jl. Buol - Gorontalo, Deme II, Kec. Sumalata, Kabupaten Gorontalo Utara, Gorontalo 96254","Jl. Buol - Gorontalo, Deme II, Kec. Sumalata, Kabupaten Gorontalo Utara",GORONTALO,96254.0,Indonesia,85396573948.0,,,0.9757824,122.5254901,https://maps.google.com/?cid=0x0:0xe16bdcd9ea636e20,
restaurant,Rumah Makan,RM Makan Tepi Laut Sumalat,"XGCJ+HQ3, Jl. Buol - Gorontalo, Deme II, Kec. Sumalata, Kabupaten Gorontalo Utara, Gorontalo 96254","Jl. Buol - Gorontalo, Deme II, Kec. Sumalata, Kabupaten Gorontalo Utara",GORONTALO,96254.0,Indonesia,,,,0.9713909,122.5319304,https://maps.google.com/?cid=0x0:0x129ba04e0036c6d9,
restaurant,Restoran,RUMAH MAKAN HIKMA,"XCG8+869, Bulontio Tim., Kec. Sumalata, Kabupaten Gorontalo Utara, Gorontalo 96254","Bulontio Tim., Kec. Sumalata, Kabupaten Gorontalo Utara",GORONTALO,96254.0,Indonesia,82296797788.0,,,0.9755953,122.4145593,https://maps.google.com/?cid=0x0:0x1032c0b438bde0ba,
restaurant,Dapur Umum,Warung mas jawa,"XCG8+VF8, Jl. Buol - Gorontalo, Bulontio Tim., Kec. Sumalata, Kabupaten Gorontalo Utara, Gorontalo 96254","Jl. Buol - Gorontalo, Bulontio Tim., Kec. Sumalata, Kabupaten Gorontalo Utara",GORONTALO,96254.0,Indonesia,,,,0.9771672,122.4161948,https://maps.google.com/?cid=0x0:0x9586666246f1ed10,
restaurant,Kafe,Kedai Kopi Buluwatu,"XH2V+W87, Unnamed Road, Deme I, Kec. Sumalata, Kabupaten Gorontalo Utara, Gorontalo 96254","Unnamed Road, Deme I, Kec. Sumalata, Kabupaten Gorontalo Utara",GORONTALO,96254.0,Indonesia,81343633610.0,,,0.952298,122.593289,https://maps.google.com/?cid=0x0:0x1a6b0a31d6b539c8,
restaurant,restaurant,RM YHOLA,"X7WG+97F, Buloila, Kec. Sumalata, Kabupaten Gorontalo Utara, Gorontalo","Kabupaten Gorontalo Utara, Gorontalo",GORONTALO,,Indonesia,85381194474.0,,,0.9948923,122.2746992,https://maps.google.com/?cid=0x0:0xdc28e5e83507fb30,
restaurant,Kedai Kopi,Cafe Buladu,"Buladu, Kec. Sumalata, Kabupaten Gorontalo Utara, Gorontalo 96254","Kec. Sumalata, Kabupaten Gorontalo Utara",GORONTALO,96254.0,Indonesia,82291271972.0,,,0.9816995,122.5097204,https://maps.google.com/?cid=0x0:0xb9a151246f829475,
restaurant,Rumah Makan,Sumalata timur,"XCM9+9Q8 timur deme 1, Bulontio Tim., Kec. Sumalata, Kabupaten Gorontalo Utara, Gorontalo","Kabupaten Gorontalo Utara, Gorontalo",GORONTALO,,Indonesia,,,,0.9834124,122.4194572,https://maps.google.com/?cid=0x0:0xb989a83d5dfd30a,
restaurant,Makanan Siap Saji,Kantin li ayu,"XGM2+8J4, Buladu, Kec. Sumalata, Kabupaten Gorontalo Utara, Gorontalo","Kabupaten Gorontalo Utara, Gorontalo",GORONTALO,,Indonesia,82194763372.0,,,0.983251,122.5015927,https://maps.google.com/?cid=0x0:0x120e8d999cd66e89,
restaurant,Kedai Kopi,Rm mami yanti,"XCJG+MG5, Bulontio Tim., Kec. Sumalata, Kabupaten Gorontalo Utara, Gorontalo 96254","Bulontio Tim., Kec. Sumalata, Kabupaten Gorontalo Utara",GORONTALO,96254.0,Indonesia,,,,0.9816414,122.4263633,https://maps.google.com/?cid=0x0:0xcdbf627bef9cd1ca,
restaurant,Restoran,RM Dinding Biru,"XGGG+875, Jl. Buol - Gorontalo, Deme II, Kec. Sumalata, Kabupaten Gorontalo Utara, Gorontalo 96254","Jl. Buol - Gorontalo, Deme II, Kec. Sumalata, Kabupaten Gorontalo Utara",GORONTALO,96254.0,Indonesia,85396573948.0,,,0.9757586,122.5257386,https://maps.google.com/?cid=0x0:0xab8e42ca3b034ee5,
restaurant,Sarapan,Ayam Geprek Dapur Karlota,"XCJH+FHV, Bulontio Tim., Kec. Sumalata, Kabupaten Gorontalo Utara, Gorontalo 96254","Bulontio Tim., Kec. Sumalata, Kabupaten Gorontalo Utara",GORONTALO,96254.0,Indonesia,82393623570.0,,,0.9812429,122.4289142,https://maps.google.com/?cid=0x0:0x740f47195b4e7744,
restaurant,Ayam,Dapoer LJK  GAMING,"WHXJ+X7M, Jl. Buol - Gorontalo, Dulukapa, Kec. Sumalata, Kabupaten Gorontalo Utara, Gorontalo 96254","Jl. Buol - Gorontalo, Dulukapa, Kec. Sumalata, Kabupaten Gorontalo Utara",GORONTALO,96254.0,Indonesia,82292851966.0,,,0.9499606,122.5806679,https://maps.google.com/?cid=0x0:0x769b12a9ec298c7d,
restaurant,Kedai Kopi,WM Muslimah Sumalata,"WJX3+3WX, Jl. Buol - Gorontalo, Deme I, Kec. Sumalata, Kabupaten Gorontalo Utara, Gorontalo 96525","Jl. Buol - Gorontalo, Deme I, Kec. Sumalata, Kabupaten Gorontalo Utara",GORONTALO,96525.0,Indonesia,82194131199.0,,,0.9477465,122.6048694,https://maps.google.com/?cid=0x0:0xf6b8e8f1b667a760,
restaurant,Restoran,Warung~ Nasi Kuning,"XGG3+496, Desa hulawa,kec.Sumalata timur, Buladu, Kec. Sumalata, Kabupaten Gorontalo Utara, Gorontalo 96254","Desa hulawa,kec.Sumalata timur, Buladu, Kec. Sumalata, Kabupaten Gorontalo Utara",GORONTALO,96254.0,Indonesia,,,,0.9752818,122.5033764,https://maps.google.com/?cid=0x0:0x1ed2d26e9d0b6fbd,
restaurant,Restoran,Orasawa Resto,"Jl. Raya GORR, Biyonga, Kec. Limboto, Kabupaten Gorontalo, Gorontalo 96214","Biyonga, Kec. Limboto, Kabupaten Gorontalo",GORONTALO,96214.0,Indonesia,81341345793.0,,,0.6587658,122.982636,https://maps.google.com/?cid=0x0:0xf58f13c3c9e501bc,
restaurant,Kedai Kopi,Titik Baku Dapa,"XCJG+5XC, Bulontio Tim., Kec. Sumalata, Kabupaten Gorontalo Utara, Gorontalo 96254","Bulontio Tim., Kec. Sumalata, Kabupaten Gorontalo Utara",GORONTALO,96254.0,Indonesia,85298763394.0,,,0.9804049,122.4273536,https://maps.google.com/?cid=0x0:0x9286ccdf6c6b8639,
restaurant,Kedai Kopi,Warkop Tolonggalo,"XCJ9+W4H, Bulontio Tim., Kec. Sumalata, Kabupaten Gorontalo Utara, Gorontalo 96254","Bulontio Tim., Kec. Sumalata, Kabupaten Gorontalo Utara",GORONTALO,96254.0,Indonesia,,,,0.9823124,122.4178446,https://maps.google.com/?cid=0x0:0xf31f05715ca19a90,
restaurant,Rumah Makan,Rumah makan sumalata,"Jl. Prof. Dr. H.B. Jassin No.311-305, Dulalowo, Kec. Kota Tengah, Kabupaten Gorontalo, Gorontalo 96138","Dulalowo, Kec. Kota Tengah, Kabupaten Gorontalo",GORONTALO,96138.0,Indonesia,85256417094.0,,,0.5583657,123.0486258,https://maps.google.com/?cid=0x0:0xe7151b7e4ff1a5ee,
restaurant,Tujuan Wisata,Bohulo Camp  Eatery,"Dusun Bayade Desa Dulamayo selatan, Kec. Telaga, Gorontalo 96181",Kec. Telaga,GORONTALO,96181.0,Indonesia,81342860086.0,,,0.6946569,123.0524291,https://maps.google.com/?cid=0x0:0xb76d12777bdb63dc,
restaurant,restaurant,Sumalata,"Wubudu, Kec. Sumalata, Kabupaten Gorontalo Utara, Gorontalo","Kabupaten Gorontalo Utara, Gorontalo",GORONTALO,,Indonesia,,,,0.980095,122.490997,https://maps.google.com/?cid=0x0:0xe5cfc95986060eba,
restaurant,restaurant,Gorontalo 96254,"Kabupaten Gorontalo Utara, Gorontalo","Kabupaten Gorontalo Utara, Gorontalo",GORONTALO,,Indonesia,,,,0.926195,122.4014193,https://maps.google.com/?cid=0x0:0x9a29fb0ff347278,
restaurant,Restoran,RM. Atap Biru,"XGGG+4Q3, Deme II, Kec. Sumalata, Kabupaten Gorontalo Utara, Gorontalo 96254","Deme II, Kec. Sumalata, Kabupaten Gorontalo Utara",GORONTALO,96254.0,Indonesia,,,,0.9752668,122.5269315,https://maps.google.com/?cid=0x0:0xf55378ef615dd386,
restaurant,Rumah Makan,RM. Saronde,"XGH8+JWG, Deme II, Kec. Sumalata, Kabupaten Gorontalo Utara, Gorontalo 96254","Deme II, Kec. Sumalata, Kabupaten Gorontalo Utara",GORONTALO,96254.0,Indonesia,,,,0.9790689,122.5173289,https://maps.google.com/?cid=0x0:0xa68efd953f1df833,
restaurant,Rumah Makan,RM Makan Tepi Laut Sumalat,"XGCJ+HQ3, Jl. Buol - Gorontalo, Deme II, Kec. Sumalata, Kabupaten Gorontalo Utara, Gorontalo 96254","Jl. Buol - Gorontalo, Deme II, Kec. Sumalata, Kabupaten Gorontalo Utara",GORONTALO,96254.0,Indonesia,,,,0.9713909,122.5319304,https://maps.google.com/?cid=0x0:0x129ba04e0036c6d9,
restaurant,Rumah Makan,Sumalata timur,"XCM9+9Q8 timur deme 1, Bulontio Tim., Kec. Sumalata, Kabupaten Gorontalo Utara, Gorontalo","Kabupaten Gorontalo Utara, Gorontalo",GORONTALO,,Indonesia,,,,0.9834124,122.4194572,https://maps.google.com/?cid=0x0:0xb989a83d5dfd30a,
restaurant,restaurant,RM YHOLA,"X7WG+97F, Buloila, Kec. Sumalata, Kabupaten Gorontalo Utara, Gorontalo","Kabupaten Gorontalo Utara, Gorontalo",GORONTALO,,Indonesia,85381194474.0,,,0.9948923,122.2746992,https://maps.google.com/?cid=0x0:0xdc28e5e83507fb30,
restaurant,Dapur Umum,Warung mas jawa,"XCG8+VF8, Jl. Buol - Gorontalo, Bulontio Tim., Kec. Sumalata, Kabupaten Gorontalo Utara, Gorontalo 96254","Jl. Buol - Gorontalo, Bulontio Tim., Kec. Sumalata, Kabupaten Gorontalo Utara",GORONTALO,96254.0,Indonesia,,,,0.9771672,122.4161948,https://maps.google.com/?cid=0x0:0x9586666246f1ed10,
restaurant,Restoran,RUMAH MAKAN HIKMA,"XCG8+869, Bulontio Tim., Kec. Sumalata, Kabupaten Gorontalo Utara, Gorontalo 96254","Bulontio Tim., Kec. Sumalata, Kabupaten Gorontalo Utara",GORONTALO,96254.0,Indonesia,82296797788.0,,,0.9755953,122.4145593,https://maps.google.com/?cid=0x0:0x1032c0b438bde0ba,
restaurant,Kafe,Kedai Kopi Buluwatu,"XH2V+W87, Unnamed Road, Deme I, Kec. Sumalata, Kabupaten Gorontalo Utara, Gorontalo 96254","Unnamed Road, Deme I, Kec. Sumalata, Kabupaten Gorontalo Utara",GORONTALO,96254.0,Indonesia,81343633610.0,,,0.952298,122.593289,https://maps.google.com/?cid=0x0:0x1a6b0a31d6b539c8,
restaurant,Kedai Kopi,Rm mami yanti,"XCJG+MG5, Bulontio Tim., Kec. Sumalata, Kabupaten Gorontalo Utara, Gorontalo 96254","Bulontio Tim., Kec. Sumalata, Kabupaten Gorontalo Utara",GORONTALO,96254.0,Indonesia,,,,0.9816414,122.4263633,https://maps.google.com/?cid=0x0:0xcdbf627bef9cd1ca,
restaurant,Ayam,Dapoer LJK  GAMING,"WHXJ+X7M, Jl. Buol - Gorontalo, Dulukapa, Kec. Sumalata, Kabupaten Gorontalo Utara, Gorontalo 96254","Jl. Buol - Gorontalo, Dulukapa, Kec. Sumalata, Kabupaten Gorontalo Utara",GORONTALO,96254.0,Indonesia,82292851966.0,,,0.9499606,122.5806679,https://maps.google.com/?cid=0x0:0x769b12a9ec298c7d,
restaurant,Makanan Siap Saji,Kantin li ayu,"XGM2+8J4, Buladu, Kec. Sumalata, Kabupaten Gorontalo Utara, Gorontalo","Kabupaten Gorontalo Utara, Gorontalo",GORONTALO,,Indonesia,82194763372.0,,,0.983251,122.5015927,https://maps.google.com/?cid=0x0:0x120e8d999cd66e89,
restaurant,Sarapan,Ayam Geprek Dapur Karlota,"XCJH+FHV, Bulontio Tim., Kec. Sumalata, Kabupaten Gorontalo Utara, Gorontalo 96254","Bulontio Tim., Kec. Sumalata, Kabupaten Gorontalo Utara",GORONTALO,96254.0,Indonesia,82393623570.0,,,0.9812429,122.4289142,https://maps.google.com/?cid=0x0:0x740f47195b4e7744,
restaurant,Restoran,RM Dinding Biru,"XGGG+875, Jl. Buol - Gorontalo, Deme II, Kec. Sumalata, Kabupaten Gorontalo Utara, Gorontalo 96254","Jl. Buol - Gorontalo, Deme II, Kec. Sumalata, Kabupaten Gorontalo Utara",GORONTALO,96254.0,Indonesia,85396573948.0,,,0.9757586,122.5257386,https://maps.google.com/?cid=0x0:0xab8e42ca3b034ee5,
restaurant,Kedai Kopi,WM Muslimah Sumalata,"WJX3+3WX, Jl. Buol - Gorontalo, Deme I, Kec. Sumalata, Kabupaten Gorontalo Utara, Gorontalo 96525","Jl. Buol - Gorontalo, Deme I, Kec. Sumalata, Kabupaten Gorontalo Utara",GORONTALO,96525.0,Indonesia,82194131199.0,,,0.9477465,122.6048694,https://maps.google.com/?cid=0x0:0xf6b8e8f1b667a760,
restaurant,Kedai Kopi,Cafe Buladu,"Buladu, Kec. Sumalata, Kabupaten Gorontalo Utara, Gorontalo 96254","Kec. Sumalata, Kabupaten Gorontalo Utara",GORONTALO,96254.0,Indonesia,82291271972.0,,,0.9816995,122.5097204,https://maps.google.com/?cid=0x0:0xb9a151246f829475,
restaurant,Restoran,Warung~ Nasi Kuning,"XGG3+496, Desa hulawa,kec.Sumalata timur, Buladu, Kec. Sumalata, Kabupaten Gorontalo Utara, Gorontalo 96254","Desa hulawa,kec.Sumalata timur, Buladu, Kec. Sumalata, Kabupaten Gorontalo Utara",GORONTALO,96254.0,Indonesia,,,,0.9752818,122.5033764,https://maps.google.com/?cid=0x0:0x1ed2d26e9d0b6fbd,
restaurant,restaurant,Gorontalo 96524,"Kec. Tolinggula, Kabupaten Gorontalo Utara, Gorontalo","Kabupaten Gorontalo Utara, Gorontalo",GORONTALO,,Indonesia,,,,0.9280512,122.2200065,https://maps.google.com/?cid=0x0:0xd3efad24a9000eb8,
restaurant,Motel,Rumah Makan Otabi'u,"2592+8PM, Tolinggula Ulu, Kec. Tolinggula, Kabupaten Gorontalo Utara, Gorontalo 94568","Tolinggula Ulu, Kec. Tolinggula, Kabupaten Gorontalo Utara",GORONTALO,94568.0,Indonesia,85330774444.0,,,1.0183424,122.1517954,https://maps.google.com/?cid=0x0:0x58997b63b941c68d,
restaurant,Restoran,KEDAI LI' TATA,"244X+G4F, Desa, ilotunggula, Kec. Tolinggula, Kabupaten Gorontalo Utara, Sulawesi Tengah","Kabupaten Gorontalo Utara, Sulawesi Tengah",GORONTALO,,Indonesia,82347482824.0,,,1.006324,122.147791,https://maps.google.com/?cid=0x0:0x63036741f151dd2e,
restaurant,Restoran,RM Pelangi,"X6W9+WC9, Jl. Buol - Gorontalo, Windu, Kec. Tolinggula, Kabupaten Gorontalo Utara, Gorontalo 96524","Jl. Buol - Gorontalo, Windu, Kec. Tolinggula, Kabupaten Gorontalo Utara",GORONTALO,96524.0,Indonesia,,,,0.9985977,122.2188832,https://maps.google.com/?cid=0x0:0xa4a43003dd232a80,
restaurant,Restoran,Resto Double Bless,"26F3+R73, Umu, Kec. Tolinggula, Kabupaten Gorontalo Utara, Gorontalo","Kabupaten Gorontalo Utara, Gorontalo",GORONTALO,,Indonesia,,,,1.0245093,122.2031842,https://maps.google.com/?cid=0x0:0xedaf743bda5d1f3f,
restaurant,Restoran,Rumah Makan UNGU,"X69G+M92, Jl. Buol - Gorontalo, Didingga, Kec. Tolinggula, Kabupaten Gorontalo Utara, Gorontalo 96524","Jl. Buol - Gorontalo, Didingga, Kec. Tolinggula, Kabupaten Gorontalo Utara",GORONTALO,96524.0,Indonesia,,,,0.9691403,122.2258927,https://maps.google.com/?cid=0x0:0x16c5d3b1e1b8e4c3,
restaurant,Kedai Kopi,Cafe Pinggir Pantai,"26F2+XW9, Tolinggula Pantai, Paleleh, Kabupaten Gorontalo Utara, Gorontalo 96524","Tolinggula Pantai, Paleleh, Kabupaten Gorontalo Utara",GORONTALO,96524.0,Indonesia,,,,1.0249434,122.2024402,https://maps.google.com/?cid=0x0:0x6f0ca880c7a24a58,
restaurant,Komplek perumahan,Warung makan Ammar,"258G+223, Tolinggula Tengah, Kec. Tolinggula, Kabupaten Gorontalo Utara, Gorontalo 94568","Tolinggula Tengah, Kec. Tolinggula, Kabupaten Gorontalo Utara",GORONTALO,94568.0,Indonesia,81347930946.0,,,1.0150191,122.1750319,https://maps.google.com/?cid=0x0:0x799747001129cbf,
restaurant,Restoran,Cattering olamita,"2574+429, Dusun hepu utara, Tolinggula Ulu, Kec. Tolinggula, Kabupaten Gorontalo Utara, Gorontalo 94568","Dusun hepu utara, Tolinggula Ulu, Kec. Tolinggula, Kabupaten Gorontalo Utara",GORONTALO,94568.0,Indonesia,82194084644.0,,,1.0127766,122.1550963,https://maps.google.com/?cid=0x0:0x3da06db843747bc7,
restaurant,restaurant,RM YHOLA,"X7WG+97F, Buloila, Kec. Sumalata, Kabupaten Gorontalo Utara, Gorontalo","Kabupaten Gorontalo Utara, Gorontalo",GORONTALO,,Indonesia,85381194474.0,,,0.9948923,122.2746992,https://maps.google.com/?cid=0x0:0xdc28e5e83507fb30,
restaurant,Kedai Kopi,RaJawali Food Court,"Lapangan RAJAWALI, Umu, Kec. Tolinggula, Kabupaten Buol, Gorontalo 96255","Umu, Kec. Tolinggula, Kabupaten Buol",GORONTALO,96255.0,Indonesia,82393947980.0,,,1.0148663,122.1747738,https://maps.google.com/?cid=0x0:0xd40ca14a09d12fd6,
restaurant,Makanan Kecil,Warkop Anindra,"X6RJ+X8C, Desa topi Kecamatan Biau, Windu, Kec. Tolinggula, Kabupaten Gorontalo Utara, Gorontalo 96524","Desa topi Kecamatan Biau, Windu, Kec. Tolinggula, Kabupaten Gorontalo Utara",GORONTALO,96524.0,Indonesia,82272974697.0,,,0.9924286,122.2307587,https://maps.google.com/?cid=0x0:0x3b9d9c04e258ff46,
restaurant,Restoran,Waroeng ikipara,"264C+3G, Windu, Kec. Tolinggula, Kabupaten Gorontalo Utara, Gorontalo","Kabupaten Gorontalo Utara, Gorontalo",GORONTALO,,Indonesia,,,,1.0052035,122.2212813,https://maps.google.com/?cid=0x0:0xd835bd44d28853c2,
restaurant,Kios,Kios Firly,"X6R7+F8V, Windu, Kec. Tolinggula, Kabupaten Gorontalo Utara, Gorontalo 96524","Windu, Kec. Tolinggula, Kabupaten Gorontalo Utara",GORONTALO,96524.0,Indonesia,82353142478.0,,,0.9903822,122.2132052,https://maps.google.com/?cid=0x0:0xef9f49135588deb9,
restaurant,Kedai Kopi,Bilal  Bilqis cafe,"2589+2G6, DESA, Tengah, Kec. Tolinggula, Kabupaten Gorontalo Utara, Gorontalo 94568","DESA, Tengah, Kec. Tolinggula, Kabupaten Gorontalo Utara",GORONTALO,94568.0,Indonesia,,,,1.0150457,122.1687648,https://maps.google.com/?cid=0x0:0x134353919acd9c40,
restaurant,Restoran,Kedai M2,"257F+X6M, Jl. Buol - Gorontalo, Umu, Kec. Tolinggula, Kabupaten Gorontalo Utara, Gorontalo 94568","Jl. Buol - Gorontalo, Umu, Kec. Tolinggula, Kabupaten Gorontalo Utara",GORONTALO,94568.0,Indonesia,,,,1.0149676,122.1730526,https://maps.google.com/?cid=0x0:0x193d607f705fcce4,
restaurant,Restoran,A3 HOME,"258G+223, Tolinggula Tengah, Kec. Tolinggula, Kabupaten Gorontalo Utara, Gorontalo 94568","Tolinggula Tengah, Kec. Tolinggula, Kabupaten Gorontalo Utara",GORONTALO,94568.0,Indonesia,,,,1.0151278,122.1747239,https://maps.google.com/?cid=0x0:0xdf224d713daa511f,
restaurant,Kedai Kopi,Nirwana cafe,"Jln buol gorontalo patahe no 2, Tolinggula Tengah, Kabupaten Gorontalo Utara","Kabupaten Gorontalo Utara, Sulawesi Tengah",GORONTALO,,Indonesia,,,,1.0147816,122.1715296,https://maps.google.com/?cid=0x0:0x592c5c7eef669234,
restaurant,restaurant,Kantin DARUSKIF,"X6J7+Q5W, Bulontio - Tolinggula, Biawu, Kec. Tolinggula, Kabupaten Gorontalo Utara, Gorontalo 96524","Bulontio - Tolinggula, Biawu, Kec. Tolinggula, Kabupaten Gorontalo Utara",GORONTALO,96524.0,Indonesia,,,,0.9819859,122.2129451,https://maps.google.com/?cid=0x0:0x570e5e35ed4f590e,
restaurant,Toko bahan makanan,LAPAK ABG,"2563+84R, Mulangato, Kec. Tolinggula, Kabupaten Gorontalo Utara, Gorontalo 94568","Mulangato, Kec. Tolinggula, Kabupaten Gorontalo Utara",GORONTALO,94568.0,Indonesia,,,,1.0108597,122.1527508,https://maps.google.com/?cid=0x0:0x47021a6cd88a3ef8,
restaurant,restaurant,Gorontalo 96252,"Kec. Kwandang, Kabupaten Gorontalo Utara, Gorontalo","Kabupaten Gorontalo Utara, Gorontalo",GORONTALO,,Indonesia,,,,0.8083426,122.9212265,https://maps.google.com/?cid=0x0:0x8516fb933d27785f,
restaurant,Nasi,Rm.pilitode,"JMGR+CJM, Lamahu, kec.bilato, Kabupaten Gorontalo, Gorontalo 96264","Lamahu, kec.bilato, Kabupaten Gorontalo",GORONTALO,96264.0,Indonesia,82197206771.0,,,0.6260767,122.6915462,https://maps.google.com/?cid=0x0:0x4890fcd784be582,
restaurant,Restoran,ANGELATO,"Jl. Sultan Hassanudin No.3, RT.01/RW.01, Biawao, Kota Sel., Kota Gorontalo, Gorontalo 96133","RT.01/RW.01, Biawao, Kota Sel., Kota Gorontalo",GORONTALO,96133.0,Indonesia,82257337777.0,,,0.5310769,123.058728,https://maps.google.com/?cid=0x0:0x2e3e6cb700794bfb,
restaurant,Rumah Makan,RM Citra Ponelo,"VVRP+579, Desa Ponelo, Moluo, Kec. Kwandang, Kabupaten Gorontalo Utara, Gorontalo 96252","Desa Ponelo, Moluo, Kec. Kwandang, Kabupaten Gorontalo Utara",GORONTALO,96252.0,Indonesia,82197197849.0,,,0.8904125,122.8857443,https://maps.google.com/?cid=0x0:0xf4afb80100cddeae,
restaurant,Rumah Makan,WARUNG MAKAN LI MA ODET,"H29H+6G7, Jl. Raja Wadipalapa, Tenggela, Kec. Tilango, Kabupaten Gorontalo, Gorontalo 96137","Jl. Raja Wadipalapa, Tenggela, Kec. Tilango, Kabupaten Gorontalo",GORONTALO,96137.0,Indonesia,82346855986.0,,,0.5680435,123.0288051,https://maps.google.com/?cid=0x0:0xf96273bc0ca6199,
restaurant,Padang,Rumah Makan Silva,"QVP8+693, Jl. Trans Sulawesi, Molingkapoto, Kec. Kwandang, Kabupaten Gorontalo Utara, Gorontalo 96252","Jl. Trans Sulawesi, Molingkapoto, Kec. Kwandang, Kabupaten Gorontalo Utara",GORONTALO,96252.0,Indonesia,,,,0.7855036,122.8659186,https://maps.google.com/?cid=0x0:0x9f02d698b416ee42,
restaurant,Rumah Makan,Rumah Makan Li Bibi,"Tomulabutao, Kec. Dungingi, Kabupaten Gorontalo, Gorontalo 96138","Kec. Dungingi, Kabupaten Gorontalo",GORONTALO,96138.0,Indonesia,,,,0.5738178,123.0451164,https://maps.google.com/?cid=0x0:0x7952419d079dc555,
restaurant,Restoran,RM Morodewe,"H3G7+XPG, Tanggikiki, Kec. Sipatana, Kabupaten Gorontalo, Gorontalo 96139","Tanggikiki, Kec. Sipatana, Kabupaten Gorontalo",GORONTALO,96139.0,Indonesia,85226907084.0,,,0.5774456,123.0643237,https://maps.google.com/?cid=0x0:0xbe98c4f04b48ef6e,
restaurant,Restoran,Orasawa Resto,"Jl. Raya GORR, Biyonga, Kec. Limboto, Kabupaten Gorontalo, Gorontalo 96214","Biyonga, Kec. Limboto, Kabupaten Gorontalo",GORONTALO,96214.0,Indonesia,81341345793.0,,,0.6587658,122.982636,https://maps.google.com/?cid=0x0:0xf58f13c3c9e501bc,
restaurant,Rumah Makan,Rumah Makan Meranti Indah,"H4F4+26C, Tamboo, Kec. Tilongkabila, Kabupaten Bone Bolango, Gorontalo 96129","Tamboo, Kec. Tilongkabila, Kabupaten Bone Bolango",GORONTALO,96129.0,Indonesia,85103701234.0,,,0.5725664,123.1055023,https://maps.google.com/?cid=0x0:0x16d4c3694f748a85,
restaurant,Restoran,RM. LIMAMI,"G3P8+XQV, Jl. Sultan Botutihe, Ipilo, Kec. Kota Tim., Kota Gorontalo, Gorontalo 96134","Jl. Sultan Botutihe, Ipilo, Kec. Kota Tim., Kota Gorontalo",GORONTALO,96134.0,Indonesia,82194230730.0,,,0.5374894,123.0669322,https://maps.google.com/?cid=0x0:0xd889bd6ad921a8a5,
restaurant,Brunch,Warung Bu Tietie,"Jl. Sarini Abdullah II No. 04, Kel, II, Limba U Dua, Kota Sel., Kota Gorontalo, Gorontalo 96115","Kel, II, Limba U Dua, Kota Sel., Kota Gorontalo",GORONTALO,96115.0,Indonesia,82296258057.0,,,0.5502969,123.0535196,https://maps.google.com/?cid=0x0:0x4c19b6ee2a12bfad,
restaurant,Hidangan Laut,Rumah Makan Ratu,"G344+HJ3, Pohe, Kec. Hulonthalangi, Kabupaten Gorontalo, Gorontalo 96133","Pohe, Kec. Hulonthalangi, Kabupaten Gorontalo",GORONTALO,96133.0,Indonesia,81340657191.0,,,0.5063819,123.0565498,https://maps.google.com/?cid=0x0:0xe4fa44c379288a01,
restaurant,Rumah Makan,RM. TIARA,"MV83+W3W, Botumoputi, Kec. Tibawa, Kabupaten Gorontalo, Gorontalo 96216","Botumoputi, Kec. Tibawa, Kabupaten Gorontalo",GORONTALO,96216.0,Indonesia,,,,0.6673735,122.8527021,https://maps.google.com/?cid=0x0:0x9570460a41a1fa58,
restaurant,Restoran,Roemah Marly,"Siendeng, Kec. Hulonthalangi, Kabupaten Gorontalo, Gorontalo 96133","Kec. Hulonthalangi, Kabupaten Gorontalo",GORONTALO,96133.0,Indonesia,82187781868.0,,,0.5324426,123.0561599,https://maps.google.com/?cid=0x0:0x319b21dafa021f7d,
restaurant,Restoran,RM LI CI (Bacot),"H2JV+44Q, Jl. Ahmad A. Wahab, Luhu, Kec. Telaga, Kabupaten Gorontalo, Gorontalo 96138","Jl. Ahmad A. Wahab, Luhu, Kec. Telaga, Kabupaten Gorontalo",GORONTALO,96138.0,Indonesia,82290234099.0,,,0.5803269,123.0428627,https://maps.google.com/?cid=0x0:0xac456423bbe20475,
restaurant,Sate,Rumah Makan Sate Tuna Ratu 2,"Jembatan, Jl. Botu, RT.Liodu/RW.Liodu, Tj. Kramat, Kec. Hulonthalangi, Kabupaten Gorontalo, Gorontalo 96133","Jl. Botu, RT.Liodu/RW.Liodu, Tj. Kramat, Kec. Hulonthalangi, Kabupaten Gorontalo",GORONTALO,96133.0,Indonesia,,,,0.4965249,123.0420999,https://maps.google.com/?cid=0x0:0x60ec4590f894d2dd,
restaurant,Restoran,RM. SOLO,"JVX5+PFM, Tolotio, Kec. Tibawa, Kabupaten Gorontalo, Gorontalo 96216","Tolotio, Kec. Tibawa, Kabupaten Gorontalo",GORONTALO,96216.0,Indonesia,,,,0.6493429,122.8586635,https://maps.google.com/?cid=0x0:0xf3f78f6096bbe67a,
restaurant,Restoran,RM Terapung Ainun,"H332+G9M, Limba U Dua, Kota Sel., Kabupaten Gorontalo, Gorontalo 96138","Limba U Dua, Kota Sel., Kabupaten Gorontalo",GORONTALO,96138.0,Indonesia,81346041298.0,,,0.5538463,123.0509311,https://maps.google.com/?cid=0x0:0x40dba1ff3683d6fd,
restaurant,Jepang,GRANDE BISTRO GORONTALO,"Jalan Dr. H. Medi Botutihe, S.E, No.14, Heledulaa, Kec. Kota Tim., Kota Gorontalo, Gorontalo 96135","S.E, No.14, Heledulaa, Kec. Kota Tim., Kota Gorontalo",GORONTALO,96135.0,Indonesia,4358529988.0,,,0.5472683,123.065455,https://maps.google.com/?cid=0x0:0xf085f89db2275b60,
restaurant,Tujuan Wisata,Bohulo Camp  Eatery,"Dusun Bayade Desa Dulamayo selatan, Kec. Telaga, Gorontalo 96181",Kec. Telaga,GORONTALO,96181.0,Indonesia,81342860086.0,,,0.6946569,123.0524291,https://maps.google.com/?cid=0x0:0xb76d12777bdb63dc,
restaurant,Restoran,RM Paraikatte,"Jl. Ahmad A. Wahab No.8, Luhu, Kec. Telaga, Kabupaten Gorontalo, Gorontalo 96181","Luhu, Kec. Telaga, Kabupaten Gorontalo",GORONTALO,96181.0,Indonesia,,,,0.5847689,123.0388886,https://maps.google.com/?cid=0x0:0x18a0ce57ad2962fe,
restaurant,Restoran,Rumah Makan Pondok Kita,"Jl. Toto Tengah, Toto Utara, Kec. Tilongkabila, Kabupaten Bone Bolango, Gorontalo 96554","Toto Utara, Kec. Tilongkabila, Kabupaten Bone Bolango",GORONTALO,96554.0,Indonesia,85387929559.0,,,0.5653242,123.0922314,https://maps.google.com/?cid=0x0:0xed4bf5ca12f6c440,
restaurant,Restoran,Rumah makan gorontalo,"Luhu, Kec. Telaga, Kabupaten Gorontalo, Gorontalo 96181","Kec. Telaga, Kabupaten Gorontalo",GORONTALO,96181.0,Indonesia,81241470602.0,,,0.5844848,123.0391543,https://maps.google.com/?cid=0x0:0xe1d8883d61f70127,
restaurant,Indonesia,PorkVille Pacific Place,"Mall Pacific Place, Jl. Jend. Sudirman kav 52-53 No.06 Lantai 5, Senayan, Kec. Kby. Baru, Kota Jakarta Selatan, Daerah Khusus Ibukota Jakarta 12190","Jl. Jend. Sudirman kav 52-53 No.06 Lantai 5, Senayan, Kec. Kby. Baru, Kota Jakarta Selatan",GORONTALO,12190.0,Indonesia,85880512222.0,,,-6.2244469,106.8099051,https://maps.google.com/?cid=0x0:0xdbdcf9e199e6bd55,
restaurant,Indonesia,TOMA Brasserie,"Jl. Jenderal Sudirman No.Kav 22-23, Kuningan, Karet, Kecamatan Setiabudi, Kota Jakarta Selatan, Daerah Khusus Ibukota Jakarta 12920","Kuningan, Karet, Kecamatan Setiabudi, Kota Jakarta Selatan",GORONTALO,12920.0,Indonesia,82113324909.0,,,-6.2111195,106.8212255,https://maps.google.com/?cid=0x0:0x7bfdc9d2686cd36a,
restaurant,Masakan Barat,Toodz House - Cipete,"Jl. Cipete Raya No.79 7, RT.7/RW.4, Cipete Sel., Kec. Cilandak, Kota Jakarta Selatan, Daerah Khusus Ibukota Jakarta 12410","RT.7/RW.4, Cipete Sel., Kec. Cilandak, Kota Jakarta Selatan",GORONTALO,12410.0,Indonesia,2175904015.0,,,-6.2779706,106.8017874,https://maps.google.com/?cid=0x0:0x1a6e486addc68100,
restaurant,Italia,Caff Tutti Cilandak Town Square,"Jl. TB Simatupang No.17, RT.6/RW.9, Cilandak Bar., Kec. Cilandak, Kota Jakarta Selatan, Daerah Khusus Ibukota Jakarta 12430","RT.6/RW.9, Cilandak Bar., Kec. Cilandak, Kota Jakarta Selatan",GORONTALO,12430.0,Indonesia,,,,-6.2916748,106.8010276,https://maps.google.com/?cid=0x0:0x439c644dbb4869f0,
restaurant,Restoran,Criollo,"Plaza Indonesia Extension L4, Gondangdia, Menteng, Central Jakarta City, Jakarta 10350","Gondangdia, Menteng, Central Jakarta City",GORONTALO,10350.0,Indonesia,8118877039.0,,,-6.1935977,106.8219468,https://maps.google.com/?cid=0x0:0xfc737e65f70560d2,
cafe,cafe,Gorontalo 96525,"Kec. Anggrek, Kabupaten Gorontalo Utara, Gorontalo","Kabupaten Gorontalo Utara, Gorontalo",GORONTALO,,Indonesia,,,,0.8425794,122.695547,https://maps.google.com/?cid=0x0:0xc910c3a3b1bab734,
cafe,Rumah wisata,DM Coffee House,"RR5F+5J4, Jl. Buol - Gorontalo, Tolongio, Kec. Anggrek, Kabupaten Gorontalo Utara, Gorontalo 96525","Jl. Buol - Gorontalo, Tolongio, Kec. Anggrek, Kabupaten Gorontalo Utara",GORONTALO,96525.0,Indonesia,81977078998.0,,,0.8078787,122.8240693,https://maps.google.com/?cid=0x0:0xc7282a96729da915,
cafe,Kedai Kopi,3G Food  Drink,"VMPV+QW7, Monano, Kec. Anggrek, Kabupaten Gorontalo Utara, Gorontalo 96525","Monano, Kec. Anggrek, Kabupaten Gorontalo Utara",GORONTALO,96525.0,Indonesia,,,,0.8869044,122.694803,https://maps.google.com/?cid=0x0:0x6abe48d38fa2fbb9,
cafe,Rumah Makan,RM.DAPUR ANGGREK,"RQWG+H6Q, Jl. Buol - Gorontalo, Ilangata, Kec. Anggrek, Kabupaten Gorontalo Utara, Gorontalo 96525","Jl. Buol - Gorontalo, Ilangata, Kec. Anggrek, Kabupaten Gorontalo Utara",GORONTALO,96525.0,Indonesia,,,,0.8464709,122.7756087,https://maps.google.com/?cid=0x0:0xeafd2f79b2c67042,
cafe,Kedai Kopi,House Olhis Bakari,"VMPV+CJ4, Monano, Kec. Anggrek, Kabupaten Gorontalo Utara, Gorontalo 96525","Monano, Kec. Anggrek, Kabupaten Gorontalo Utara",GORONTALO,96525.0,Indonesia,81343685046.0,,,0.883614,122.694082,https://maps.google.com/?cid=0x0:0x26665a81159a13dc,
cafe,Restoran,KAMIYES House,"Desa, Monano, Kec. Anggrek, Kabupaten Gorontalo Utara, Gorontalo 96525","Monano, Kec. Anggrek, Kabupaten Gorontalo Utara",GORONTALO,96525.0,Indonesia,8127433661.0,,,0.8892969,122.6979594,https://maps.google.com/?cid=0x0:0x1151a7071b89e2d7,
cafe,Kedai Kopi,Wm. Tata Wiwin,"RRC9+CGC, Unnamed Road, Popalo, Kec. Anggrek, Kabupaten Gorontalo Utara, Gorontalo 96525","Unnamed Road, Popalo, Kec. Anggrek, Kabupaten Gorontalo Utara",GORONTALO,96525.0,Indonesia,82283373582.0,,,0.8210587,122.8187546,https://maps.google.com/?cid=0x0:0x82e59a9369f2f2e3,
cafe,Rumah Makan,RM SURABAYA 99,"VMJQ+6FJ, kec, Monano, Kec. Anggrek, Kabupaten Gorontalo Utara, Gorontalo 96525","kec, Monano, Kec. Anggrek, Kabupaten Gorontalo Utara",GORONTALO,96525.0,Indonesia,85255091441.0,,,0.8805908,122.6886257,https://maps.google.com/?cid=0x0:0x1610b7613492b675,
cafe,Kedai Kopi,HOUSE.Haikal.paramata,"VMQV+6XC, Monas, Kec. Anggrek, Kabupaten Gorontalo Utara, Gorontalo 96525","Monas, Kec. Anggrek, Kabupaten Gorontalo Utara",GORONTALO,96525.0,Indonesia,82236787326.0,,,0.8880612,122.6948967,https://maps.google.com/?cid=0x0:0x67129377cde62683,
cafe,Kafe,Marassa Cafe,"VMJQ+X4M, Monas, Kec. Anggrek, Kabupaten Gorontalo Utara, Gorontalo 96525","Monas, Kec. Anggrek, Kabupaten Gorontalo Utara",GORONTALO,96525.0,Indonesia,,,,0.8824602,122.6877965,https://maps.google.com/?cid=0x0:0x33880ca33da49c36,
cafe,Kedai Kopi,Djago Coffee  Cafe,"Leboto, Kec. Kwandang, Kabupaten Gorontalo Utara, Gorontalo 96252","Kec. Kwandang, Kabupaten Gorontalo Utara",GORONTALO,96252.0,Indonesia,,,,0.8075948,122.8932976,https://maps.google.com/?cid=0x0:0x5009f417b8f87265,
cafe,Kedai Kopi,Petak,"VM9W+9QJ, Jl. Buol - Gorontalo, Tudi, Kec. Anggrek, Kabupaten Gorontalo Utara, Gorontalo 96525","Jl. Buol - Gorontalo, Tudi, Kec. Anggrek, Kabupaten Gorontalo Utara",GORONTALO,96525.0,Indonesia,,,,0.8685142,122.696855,https://maps.google.com/?cid=0x0:0xa005c2054f7d5c27,
cafe,Padang,Rm.rafki  rifka,"Monas, Kec. Anggrek, Kabupaten Gorontalo Utara, Gorontalo 96525","Kec. Anggrek, Kabupaten Gorontalo Utara",GORONTALO,96525.0,Indonesia,85397570770.0,,,0.8764876,122.6859278,https://maps.google.com/?cid=0x0:0xb4a38b2b783667f0,
cafe,Rumah Makan,Arno,"RRG3+4HP, Jl. Buol - Gorontalo, Popalo, Kec. Anggrek, Kabupaten Gorontalo Utara, Gorontalo 96525","Jl. Buol - Gorontalo, Popalo, Kec. Anggrek, Kabupaten Gorontalo Utara",GORONTALO,96525.0,Indonesia,,,,0.8253372,122.8039377,https://maps.google.com/?cid=0x0:0x64000cc21fd59123,
cafe,Kedai Kopi,teras official,"WHWR+C77, Deme I, Kec. Sumalata, Kabupaten Gorontalo Utara, Gorontalo","Kabupaten Gorontalo Utara, Gorontalo",GORONTALO,,Indonesia,,,,0.9460349,122.5906755,https://maps.google.com/?cid=0x0:0x22f4487fbfbe99ce,
cafe,Restoran,Keko Resto and Cafe,"QVP9+P33, Molingkapoto, Kec. Kwandang, Kabupaten Gorontalo Utara, Gorontalo 96252","Molingkapoto, Kec. Kwandang, Kabupaten Gorontalo Utara",GORONTALO,96252.0,Indonesia,82396607612.0,,,0.7867664,122.8676732,https://maps.google.com/?cid=0x0:0xeb12fa68f885c8c0,
cafe,Kedai Kopi,Maestro_Staf,"VQ29+767, Jln. Trans Sulawesi, Desa Ibarat, Kec. Anggrek, Kabupaten Gorontalo Utara, Gorontalo","Kabupaten Gorontalo Utara, Gorontalo",GORONTALO,,Indonesia,85226360807.0,,,0.8506525,122.7680594,https://maps.google.com/?cid=0x0:0x786769c1a2f2788d,
cafe,Restoran,cafe ayah,"VM4P+MRW, tugu perbatasan, Monano, Kec. Sumalata, Kabupaten Gorontalo Utara, Gorontalo 96525","tugu perbatasan, Monano, Kec. Sumalata, Kabupaten Gorontalo Utara",GORONTALO,96525.0,Indonesia,,,,0.8567497,122.6870742,https://maps.google.com/?cid=0x0:0x50e13d63d2e233b5,
cafe,Rumah Makan,Rumah Makan Mama Dode,"RQWG+M66, Jl. Buol - Gorontalo, Ilangata, Kec. Anggrek, Kabupaten Gorontalo Utara, Gorontalo 96525","Jl. Buol - Gorontalo, Ilangata, Kec. Anggrek, Kabupaten Gorontalo Utara",GORONTALO,96525.0,Indonesia,,,,0.8466743,122.7755177,https://maps.google.com/?cid=0x0:0x1d36947c24be690d,
cafe,Kedai Kopi,Teras Barkah,"Deme I, Kec. Sumalata, Kabupaten Gorontalo Utara, Gorontalo","Kabupaten Gorontalo Utara, Gorontalo",GORONTALO,,Indonesia,82245287440.0,,,0.9522393,122.5929118,https://maps.google.com/?cid=0x0:0xff9c2b988e00d4f9,
cafe,Otoritas Pelabuhan,KPBU Pelabuhan Anggrek,"Pelabuhan, Ilangata, Kec. Anggrek, Kabupaten Gorontalo Utara, Gorontalo 96525","Ilangata, Kec. Anggrek, Kabupaten Gorontalo Utara",GORONTALO,96525.0,Indonesia,81341812348.0,,,0.8586546,122.7942525,https://maps.google.com/?cid=0x0:0x47d029b6ad02975a,
cafe,Kedai Kopi,Warkop Anggrek,"QQ93+GPC, Jl. Anggrek Jl. M. Saidi Raya, RT.7/RW.5, Petukangan Utara, Kec. Pesanggrahan, Kota Jakarta Selatan, Daerah Khusus Ibukota Jakarta 12260","Jl. Anggrek Jl. M. Saidi Raya, RT.7/RW.5, Petukangan Utara, Kec. Pesanggrahan, Kota Jakarta Selatan",GORONTALO,12260.0,Indonesia,,,,-6.2311835,106.7542586,https://maps.google.com/?cid=0x0:0x4af5fd071714f04e,
cafe,Kedai Kopi,Warung Encing - Anggrek IV,"Jl. Anggrek IV No.40, RT.6/RW.5, Petukangan Utara, Kec. Pesanggrahan, Kota Jakarta Selatan, Daerah Khusus Ibukota Jakarta 12260","RT.6/RW.5, Petukangan Utara, Kec. Pesanggrahan, Kota Jakarta Selatan",GORONTALO,12260.0,Indonesia,81574747669.0,,,-6.2304714,106.7541234,https://maps.google.com/?cid=0x0:0x9a17e4e431040a98,
cafe,Kedai Kopi,Anggrek Coffee Lounge,"Jl. Gatot Subroto, RT.8/RW.8, Menteng Dalam, Kec. Tebet, Kota Jakarta Selatan, Daerah Khusus Ibukota Jakarta 12870","RT.8/RW.8, Menteng Dalam, Kec. Tebet, Kota Jakarta Selatan",GORONTALO,12870.0,Indonesia,2183793555.0,,,-6.2402842,106.8421243,https://maps.google.com/?cid=0x0:0xf3a4eb5332d9e610,
cafe,,Jl. Anggrek 1V no 38 Rt.6/Rw.5 petukangan utara,"1V no, Jl. Anggrek No.38, RT.6/RW.5, Petukangan Utara, Kec. Pesanggrahan, Kota Jakarta Selatan, Daerah Khusus Ibukota Jakarta 12260","Jl. Anggrek No.38, RT.6/RW.5, Petukangan Utara, Kec. Pesanggrahan, Kota Jakarta Selatan",GORONTALO,12260.0,Indonesia,85158385448.0,,,-6.2305496,106.7545872,https://maps.google.com/?cid=0x0:0xe899d3079e1b1138,
cafe,Komplek perumahan,Anggrek 2,"HRJM+M6H, Jl. Anggrek Zamrud, Tirtajaya, Kec. Sukmajaya, Kota Depok, Jawa Barat 16412","Jl. Anggrek Zamrud, Tirtajaya, Kec. Sukmajaya, Kota Depok",GORONTALO,16412.0,Indonesia,,,,-6.4183157,106.8331181,https://maps.google.com/?cid=0x0:0x6ef2082140d23453,
cafe,Perkebunan Anggrek,Cafe Anggrek Tiga Dolok,"Jalan Lintas Siantar Jl. Parapat No.Km.20, Tiga Dolok, Kec. Dolok Panribuan, Kabupaten Simalungun, Sumatera Utara 21173","Tiga Dolok, Kec. Dolok Panribuan, Kabupaten Simalungun",GORONTALO,21173.0,Indonesia,85361919345.0,,,2.8025565,99.0266775,https://maps.google.com/?cid=0x0:0x1f6277295a668628,
cafe,Kafe,Kaffein,"Mal Taman Anggrek Kav. 21 No. L4/1, Jalan Let. Jend. S. Parman, RT.12/RW.1, Tj. Duren Sel., Kec. Grogol petamburan, Kota Jakarta Barat, Daerah Khusus Ibukota Jakarta 11470","Jalan Let. Jend. S. Parman, RT.12/RW.1, Tj. Duren Sel., Kec. Grogol petamburan, Kota Jakarta Barat",GORONTALO,11470.0,Indonesia,215639558.0,,,-6.1782416,106.7924124,https://maps.google.com/?cid=0x0:0x2fb58644574cd844,
cafe,Kedai Kopi,Kedai tepijalan Anggrek,"Jl.Anggrek raya petukangan utara Rt07/05, Jakarta, Daerah Khusus Ibukota Jakarta 12260",Jakarta,GORONTALO,12260.0,Indonesia,87884060596.0,,,-6.2311382,106.7558479,https://maps.google.com/?cid=0x0:0xb5d3b14392e91993,
cafe,cafe,Gorontalo 96253,"Kabupaten Gorontalo Utara, Gorontalo","Kabupaten Gorontalo Utara, Gorontalo",GORONTALO,,Indonesia,,,,0.8707926,123.1014056,https://maps.google.com/?cid=0x0:0xfa82e81a2bd61d81,
cafe,Kafe,R-Cafe,"Kota Jin, Kec. Atinggola, Kabupaten Gorontalo Utara, Gorontalo 96253","Kec. Atinggola, Kabupaten Gorontalo Utara",GORONTALO,96253.0,Indonesia,,,,0.9003475,123.118317,https://maps.google.com/?cid=0x0:0x4b32faa3cf59d9c6,
cafe,Kafe,Warung Rodiah Coffee Brotherhood,"W447+9FV, Desa Kotajin Utara, Kota Jin, Kec. Atinggola, Kabupaten Gorontalo Utara, Gorontalo 96253","Desa Kotajin Utara, Kota Jin, Kec. Atinggola, Kabupaten Gorontalo Utara",GORONTALO,96253.0,Indonesia,,,,0.905998,123.1136582,https://maps.google.com/?cid=0x0:0xc24422683e4eb526,
cafe,Kedai Kopi,O'minanga Resto  Cafe,"W4G4+J3C, Pantai Minanga Utara, Kota Jin, Kec. Atinggola, Kabupaten Gorontalo Utara, Gorontalo 96253","Pantai Minanga Utara, Kota Jin, Kec. Atinggola, Kabupaten Gorontalo Utara",GORONTALO,96253.0,Indonesia,,,,0.9265663,123.1051468,https://maps.google.com/?cid=0x0:0xb23912ff04f32bfc,
cafe,Kafe,Tik-Tok Cafe,"RWM9+259, Titidu, Kec. Kwandang, Kabupaten Gorontalo Utara, Gorontalo 96252","Titidu, Kec. Kwandang, Kabupaten Gorontalo Utara",GORONTALO,96252.0,Indonesia,85146464469.0,,,0.8325379,122.9179918,https://maps.google.com/?cid=0x0:0xa714b7bf647abaad,
cafe,Restoran,RM. JAVA,"W4G3+P7J, Kota Jin, Kec. Atinggola, Kabupaten Gorontalo Utara, Gorontalo 96253","Kota Jin, Kec. Atinggola, Kabupaten Gorontalo Utara",GORONTALO,96253.0,Indonesia,,,,0.9268344,123.1031282,https://maps.google.com/?cid=0x0:0x41eaec451f826bcd,
cafe,Kedai Kopi,Kedai tepi pantai,"W4G4+GMQ, Kota Jin, Kec. Atinggola, Kabupaten Gorontalo Utara, Gorontalo 96253","Kota Jin, Kec. Atinggola, Kabupaten Gorontalo Utara",GORONTALO,96253.0,Indonesia,85394372711.0,,,0.9263329,123.1067439,https://maps.google.com/?cid=0x0:0x2a17e789d8703985,
cafe,Kafe,BALE-BALE CAFFE,"Jl. Trans Sulawesi, Kota Jin, Kec. Atinggola, Kabupaten Gorontalo Utara, Gorontalo 96253","Kota Jin, Kec. Atinggola, Kabupaten Gorontalo Utara",GORONTALO,96253.0,Indonesia,82293630886.0,,,0.9014761,123.1190986,https://maps.google.com/?cid=0x0:0xf2cfb262d59e57f5,
cafe,Bar,Tempat captikus,"V4Q9+472, Bintana, Kec. Atinggola, Kabupaten Gorontalo Utara, Gorontalo","Kabupaten Gorontalo Utara, Gorontalo",GORONTALO,,Indonesia,,,,0.8874448,123.1172776,https://maps.google.com/?cid=0x0:0x5f9bceaabc37234d,
cafe,Kedai Kopi,Ghanim Cafe,"Kota Jin, Kec. Atinggola, Kabupaten Gorontalo Utara, Gorontalo 96253","Kec. Atinggola, Kabupaten Gorontalo Utara",GORONTALO,96253.0,Indonesia,82394730288.0,,,0.9016836,123.1155622,https://maps.google.com/?cid=0x0:0x434a1c69ef411878,
cafe,Kedai Kopi,Outlet Astin Ceel,"dusun No.3, desa pasalae, Ipilo, Gentuma Raya, North Gorontalo Regency, Gorontalo 96253","desa pasalae, Ipilo, Gentuma Raya, North Gorontalo Regency",GORONTALO,96253.0,Indonesia,85399959276.0,,,0.8635461,123.0226174,https://maps.google.com/?cid=0x0:0x6da77c381763717b,
cafe,Kedai Kopi,Atinggola gorontalo utara,"WXVV+4VP, Tj. Karang, Kec. Kwandang, Kabupaten Gorontalo Utara, Gorontalo","Kabupaten Gorontalo Utara, Gorontalo",GORONTALO,,Indonesia,,,,0.94283,122.9947117,https://maps.google.com/?cid=0x0:0x911ec95a579df2c2,
cafe,Warnet,Monggupo,"W427+76H, Monggupo, Kec. Atinggola, Kabupaten Gorontalo Utara, Gorontalo 96253","Monggupo, Kec. Atinggola, Kabupaten Gorontalo Utara",GORONTALO,96253.0,Indonesia,,,,0.9006903,123.1131071,https://maps.google.com/?cid=0x0:0xefd61d60bd1c8f66,
cafe,Kafe,TITIK KUMPUL,"RWJ9+CFV, Titidu, Kec. Kwandang, Kabupaten Gorontalo Utara, Gorontalo 96252","Titidu, Kec. Kwandang, Kabupaten Gorontalo Utara",GORONTALO,96252.0,Indonesia,82144444303.0,,,0.8311028,122.9186668,https://maps.google.com/?cid=0x0:0xa7b88ef63031f07d,
cafe,Kafe,AFAAHOMECOMMUNUTY,"W447+9HX, Jl. Trans Sulawesi, Kota Jin, Kec. Atinggola, Kabupaten Gorontalo Utara, Gorontalo 96253","Jl. Trans Sulawesi, Kota Jin, Kec. Atinggola, Kabupaten Gorontalo Utara",GORONTALO,96253.0,Indonesia,85399925255.0,,,0.905998,123.1139969,https://maps.google.com/?cid=0x0:0x7f15b472c0f86478,
cafe,Kedai Kopi,Pendopo Coffee - Music - Gaming,"RWV7+4H9, Jl. Trans Sulawesi, Moluo, Kec. Kwandang, Kabupaten Gorontalo Utara, Gorontalo 96252","Jl. Trans Sulawesi, Moluo, Kec. Kwandang, Kabupaten Gorontalo Utara",GORONTALO,96252.0,Indonesia,,,,0.8427831,122.9139922,https://maps.google.com/?cid=0x0:0xa1c9fcc68a8a1f4c,
cafe,Padang,RM Sudut Indah Atinggola,"W447+CW3, Jl. Trans Sulawesi, Kota Jin, Kec. Atinggola, Kabupaten Gorontalo Utara, Gorontalo 96253","Jl. Trans Sulawesi, Kota Jin, Kec. Atinggola, Kabupaten Gorontalo Utara",GORONTALO,96253.0,Indonesia,,,,0.9060223,123.1147825,https://maps.google.com/?cid=0x0:0xf0e32411e4e8e1d0,
cafe,Toko Kue,M'ZEA Bakery and Cookies (homeMade),"W2JR+88M, Jl. Pelabuhan, Gentuma, Kec. Gentuma Raya, Kabupaten Gorontalo Utara, Gorontalo 96253","Jl. Pelabuhan, Gentuma, Kec. Gentuma Raya, Kabupaten Gorontalo Utara",GORONTALO,96253.0,Indonesia,81355735423.0,,,0.9308461,123.0407866,https://maps.google.com/?cid=0x0:0xc5e3554bf69f8729,
cafe,Komplek perumahan,basecamp imana fishing,"W33P+RPJ, Imana, Kec. Atinggola, Kabupaten Gorontalo Utara, Gorontalo","Kabupaten Gorontalo Utara, Gorontalo",GORONTALO,,Indonesia,85340130364.0,,,0.9045981,123.0867501,https://maps.google.com/?cid=0x0:0x561598546b488c0a,
cafe,Kedai Kopi,DN caffe,"W2JQ+234, Gentuma, Kec. Gentuma Raya, Kabupaten Gorontalo Utara, Gorontalo","Kabupaten Gorontalo Utara, Gorontalo",GORONTALO,,Indonesia,,,,0.9300102,123.0377072,https://maps.google.com/?cid=0x0:0x4266d06c3b6cda20,
cafe,Kedai Kopi,martabak mini gorut,"W2FQ+J5J, Gentuma, Kec. Gentuma Raya, Kabupaten Gorontalo Utara, Gorontalo 96253","Gentuma, Kec. Gentuma Raya, Kabupaten Gorontalo Utara",GORONTALO,96253.0,Indonesia,85394081069.0,,,0.9240933,123.0378963,https://maps.google.com/?cid=0x0:0xdc720233dbe227f8,
cafe,cafe,Gorontalo,,Gorontalo,GORONTALO,,Indonesia,,,,0.6999372,122.4467238,https://maps.google.com/?cid=0x0:0x1030bfbcaf71a20,
cafe,Kedai Kopi,BUI'DO COFFEE SHOP  CAR WASH,"BUI'DO COFFEE SHOP, Jalan Drs. Achmad Nadjamudin Selatan, Limba U Dua, Kota, Kota Gorontalo, Gorontalo 96119","Jalan Drs. Achmad Nadjamudin Selatan, Limba U Dua, Kota, Kota Gorontalo",GORONTALO,96119.0,Indonesia,8114321211.0,,,0.5483412,123.0548428,https://maps.google.com/?cid=0x0:0x2b9d9a3bde92668a,
cafe,Tempat Parkir,Biau,"X6J7+W88, Jl. Buol - Gorontalo, Biawu, Kec. Tolinggula, Kabupaten Gorontalo Utara, Gorontalo 96524","Jl. Buol - Gorontalo, Biawu, Kec. Tolinggula, Kabupaten Gorontalo Utara",GORONTALO,96524.0,Indonesia,,,,0.982294,122.213335,https://maps.google.com/?cid=0x0:0x52f14f990728822,
cafe,Restoran,KEDAI LI' TATA,"244X+G4F, Desa, ilotunggula, Kec. Tolinggula, Kabupaten Gorontalo Utara, Sulawesi Tengah","Kabupaten Gorontalo Utara, Sulawesi Tengah",GORONTALO,,Indonesia,82347482824.0,,,1.006324,122.147791,https://maps.google.com/?cid=0x0:0x63036741f151dd2e,
cafe,Kafe,Hababa Coffee,"G3J6+4XQ, Bugis, Kec. Dumbo Raya, Kota Gorontalo, Gorontalo 96133","Bugis, Kec. Dumbo Raya, Kota Gorontalo",GORONTALO,96133.0,Indonesia,,,,0.5302763,123.0624578,https://maps.google.com/?cid=0x0:0x771a4d4de7df2714,
cafe,Kedai Kopi,Berdua Coffee Gorontalo,"Jl. Ahmad A. Wahab No.Kelurahan, Kayubulan, Kec. Limboto, Kabupaten Gorontalo, Gorontalo 96214","Kayubulan, Kec. Limboto, Kabupaten Gorontalo",GORONTALO,96214.0,Indonesia,85256123324.0,,,0.6219375,122.9966875,https://maps.google.com/?cid=0x0:0xf9544d871e9dab35,
cafe,Rumah Makan,Kedai Banthayo Le BENO ( Ayam Geprek Jumbo ),"X6M6+V5Q, Desa Omuto, Biak, Biawu, Kec. Tolinggula, Kabupaten Gorontalo Utara, Gorontalo 96524","Desa Omuto, Biak, Biawu, Kec. Tolinggula, Kabupaten Gorontalo Utara",GORONTALO,96524.0,Indonesia,82193974669.0,,,0.9847091,122.2104928,https://maps.google.com/?cid=0x0:0xa28d78321012e4ec,
cafe,Kedai Kopi,Culture Coffee and Dining,"Jl. D.I. Panjaitan No.108, Limba U I, Kota Sel., Kota Gorontalo, Gorontalo 96115","Limba U I, Kota Sel., Kota Gorontalo",GORONTALO,96115.0,Indonesia,,,,0.5451518,123.0622274,https://maps.google.com/?cid=0x0:0x87a6e9d72fdd7cf1,
cafe,Rumah Makan,RM Sama Rasa,"Pentadu Tim., Kec. Tilamuta, Kabupaten Boalemo, Gorontalo 96263","Kec. Tilamuta, Kabupaten Boalemo",GORONTALO,96263.0,Indonesia,85256439196.0,,,0.515259,122.3476402,https://maps.google.com/?cid=0x0:0xb2a3a1df633c0f9a,
cafe,Rumah Makan,Rumah Makan Ingat Gampung Abunawas,"HH72+H24, Balobalonge, Kec. Lemito, Kabupaten Pohuwato, Gorontalo 96468","Balobalonge, Kec. Lemito, Kabupaten Pohuwato",GORONTALO,96468.0,Indonesia,,,,0.5638816,121.550067,https://maps.google.com/?cid=0x0:0x342325684feb9c62,
cafe,Makanan Siap Saji,FEZA CAFE,"H352+QRV, Jl. Kenangan, Dulalowo Tim., Kec. Kota Tengah, Kota Gorontalo, Gorontalo 96138","Jl. Kenangan, Dulalowo Tim., Kec. Kota Tengah, Kota Gorontalo",GORONTALO,96138.0,Indonesia,,,,0.5594827,123.0520489,https://maps.google.com/?cid=0x0:0x2d540bd274a4df42,
cafe,Kedai Kopi,Bele Li tiaaska,"J275+39R, Jl. Said Hasan, Pentadio Bar., Kec. Telaga Biru, Kabupaten Gorontalo, Gorontalo 96181","Jl. Said Hasan, Pentadio Bar., Kec. Telaga Biru, Kabupaten Gorontalo",GORONTALO,96181.0,Indonesia,,,,0.6127299,123.0083971,https://maps.google.com/?cid=0x0:0x9a0f72bbb9fdd7b2,
cafe,Kedai Kopi,Nuansa Coffee and Culture,"Jl.Moh.yamin IV,Limba B,kota Selatan,kota gorontalo, gorontal, Gorontalo 96136",gorontal,GORONTALO,96136.0,Indonesia,82194656989.0,,,0.5442753,123.0540949,https://maps.google.com/?cid=0x0:0xd12941679aeb5809,
cafe,Kedai Kopi,Te Abay Pe Rumah,"Jl. M. T. Haryono No.231, Biawao, Kota Sel., Kota Gorontalo, Gorontalo 96111","Biawao, Kota Sel., Kota Gorontalo",GORONTALO,96111.0,Indonesia,82292694846.0,,,0.5354995,123.0568828,https://maps.google.com/?cid=0x0:0x3f239df160539efb,
cafe,Kedai Kopi,Dellacious,"Jl. Pattimura, Limba U Dua, Kota Sel., Kota Gorontalo, Gorontalo 96115","Limba U Dua, Kota Sel., Kota Gorontalo",GORONTALO,96115.0,Indonesia,85398326660.0,,,0.5453197,123.0587785,https://maps.google.com/?cid=0x0:0x8a4a75f3a006247b,
cafe,Restoran,WARUNG MAKAN ALIFIYA,"Jl. Trans Sulawesi, Maleo, Kec. Popayato Tim., Kabupaten Pohuwato, Gorontalo 96467","Maleo, Kec. Popayato Tim., Kabupaten Pohuwato",GORONTALO,96467.0,Indonesia,83898485399.0,,,0.5216741,121.4878755,https://maps.google.com/?cid=0x0:0xbf6501fe52981e7b,
cafe,Kedai Kopi,Break Time Coffee,"Jl. Jend. Sudirman No.53, Wumialo, Kec. Kota Tengah, Kota Gorontalo, Gorontalo 96138","Wumialo, Kec. Kota Tengah, Kota Gorontalo",GORONTALO,96138.0,Indonesia,85212617809.0,,,0.5535576,123.057317,https://maps.google.com/?cid=0x0:0x5a52df0cacfd8422,
cafe,Bakso,Warung Ilabulo Sadap,"GRQ8+FWV, Motolohu, Kec. Randangan, Kabupaten Pohuwato, Gorontalo 96469","Motolohu, Kec. Randangan, Kabupaten Pohuwato",GORONTALO,96469.0,Indonesia,81241576465.0,,,0.5387296,121.8173085,https://maps.google.com/?cid=0x0:0x8dc664b974cd6a66,
cafe,Restoran,RM arek suroboyo Popayato,"GF7H+M89, Maleo, Kec. Popayato Tim., Kabupaten Pohuwato, Gorontalo 96467","Maleo, Kec. Popayato Tim., Kabupaten Pohuwato",GORONTALO,96467.0,Indonesia,85255524387.0,,,0.5141684,121.4783448,https://maps.google.com/?cid=0x0:0xb1f4959d19fb4f00,
cafe,cafe,Biau,"Kec. Bukal, Kabupaten Buol, Sulawesi Tengah","Kabupaten Buol, Sulawesi Tengah",GORONTALO,,Indonesia,,,,1.0813143,121.4484747,https://maps.google.com/?cid=0x0:0xd4aa98bb7cffee59,
cafe,Kedai Kopi,Sembil_an9.coffee,"Leok I, Kec. Biau, Kabupaten Buol, Sulawesi Tengah 94563","Kec. Biau, Kabupaten Buol",GORONTALO,94563.0,Indonesia,82291130677.0,,,1.1846108,121.4200747,https://maps.google.com/?cid=0x0:0xdf0c5dc8def2b69e,
cafe,Hotel,Penginapan dan Rumah Makan Klaten,"G8FW+JG7, Jl. H.m. Soeharto, Hungayonaa, Kec. Tilamuta, Kabupaten Boalemo, Gorontalo 96263","Jl. H.m. Soeharto, Hungayonaa, Kec. Tilamuta, Kabupaten Boalemo",GORONTALO,96263.0,Indonesia,85298287111.0,,,0.5240439,122.346296,https://maps.google.com/?cid=0x0:0x46a9526acbd76acd,
cafe,Sarapan,Cafe Mini,"5C7J+9CC, Kali, Kec. Biau, Kabupaten Buol, Sulawesi Tengah 94563","Kali, Kec. Biau, Kabupaten Buol",GORONTALO,94563.0,Indonesia,81257990462.0,,,1.1634442,121.4310174,https://maps.google.com/?cid=0x0:0x84e1b8d975a050e6,
cafe,Restoran,Dibay's Cafe,"5C7F+9RM, Leok II, Kec. Biau, Kabupaten Buol, Sulawesi Tengah 94563","Leok II, Kec. Biau, Kabupaten Buol",GORONTALO,94563.0,Indonesia,,,,1.1634581,121.424535,https://maps.google.com/?cid=0x0:0xc809491029411f80,
cafe,Kafe,Cafe  Fotocopy,"5C7H+659, Kali, Kec. Biau, Kabupaten Buol, Sulawesi Tengah 94563","Kali, Kec. Biau, Kabupaten Buol",GORONTALO,94563.0,Indonesia,,,,1.1630299,121.4279981,https://maps.google.com/?cid=0x0:0xd9025d408dd1990b,
cafe,Kedai Kopi,BolreGie,"5C86+G6J, Jl. Sanzibar, Kali, Kec. Biau, Kabupaten Buol, Sulawesi Tengah 94563","Jl. Sanzibar, Kali, Kec. Biau, Kabupaten Buol",GORONTALO,94563.0,Indonesia,,,,1.1663426,121.4105191,https://maps.google.com/?cid=0x0:0x8da9909e1ae914ca,
cafe,Kafe,Double ELcafe,"Jl. Sukarno Hatta, Kanal, Kali, Biau, Buol Regency, Central Sulawesi 94653","Kanal, Kali, Biau, Buol Regency",GORONTALO,94653.0,Indonesia,,,,1.1628544,121.4247679,https://maps.google.com/?cid=0x0:0xf402ddc5c5916cfa,
cafe,Kafe,Dian cafe,"5CCG+VH6, Jln Syarif Mansyur no149 Kel, Jl. Syarif Mansur, Leok II, Kec. Biau, Kabupaten Buol, Sulawesi Tengah 94563","Jln Syarif Mansyur no149 Kel, Jl. Syarif Mansur, Leok II, Kec. Biau, Kabupaten Buol",GORONTALO,94563.0,Indonesia,81241231279.0,,,1.1722443,121.4263872,https://maps.google.com/?cid=0x0:0x960ddfa54368f04b,
cafe,Kafe,Kedai Ungu,"5C26+HR5, Jl. U. Hanggi, Kulango, Kec. Biau, Kabupaten Buol, Sulawesi Tengah 94565","Jl. U. Hanggi, Kulango, Kec. Biau, Kabupaten Buol",GORONTALO,94565.0,Indonesia,82289446604.0,,,1.1513844,121.4121149,https://maps.google.com/?cid=0x0:0xa28eeca242c404f4,
cafe,cafe,Blau,"Windu, Kec. Tolinggula, Kabupaten Gorontalo Utara, Gorontalo","Kabupaten Gorontalo Utara, Gorontalo",GORONTALO,,Indonesia,,,,0.986265,122.223602,https://maps.google.com/?cid=0x0:0x871bc1bc52273216,
cafe,Tempat Parkir,Biau,"X6J7+W88, Jl. Buol - Gorontalo, Biawu, Kec. Tolinggula, Kabupaten Gorontalo Utara, Gorontalo 96524","Jl. Buol - Gorontalo, Biawu, Kec. Tolinggula, Kabupaten Gorontalo Utara",GORONTALO,96524.0,Indonesia,,,,0.982294,122.213335,https://maps.google.com/?cid=0x0:0x52f14f990728822,
cafe,Kedai Kopi,BUI'DO COFFEE SHOP  CAR WASH,"BUI'DO COFFEE SHOP, Jalan Drs. Achmad Nadjamudin Selatan, Limba U Dua, Kota, Kota Gorontalo, Gorontalo 96119","Jalan Drs. Achmad Nadjamudin Selatan, Limba U Dua, Kota, Kota Gorontalo",GORONTALO,96119.0,Indonesia,8114321211.0,,,0.5483412,123.0548428,https://maps.google.com/?cid=0x0:0x2b9d9a3bde92668a,
cafe,Rumah Makan,Kedai Banthayo Le BENO ( Ayam Geprek Jumbo ),"X6M6+V5Q, Desa Omuto, Biak, Biawu, Kec. Tolinggula, Kabupaten Gorontalo Utara, Gorontalo 96524","Desa Omuto, Biak, Biawu, Kec. Tolinggula, Kabupaten Gorontalo Utara",GORONTALO,96524.0,Indonesia,82193974669.0,,,0.9847091,122.2104928,https://maps.google.com/?cid=0x0:0xa28d78321012e4ec,
cafe,Kedai Kopi,Kebun Kopi Gunung Bisa,"Jl. Buol - Gorontalo, Lonu, Kec. Bunobogu, Kabupaten Buol, Sulawesi Tengah 94566","Lonu, Kec. Bunobogu, Kabupaten Buol",GORONTALO,94566.0,Indonesia,,,,1.0307746,121.5821555,https://maps.google.com/?cid=0x0:0xe961263bd1fb62c9,
cafe,Kafe,Sisiutara coffee,"Jl. YA Lamaka, Leok II, Kec. Biau, Kabupaten Buol, Sulawesi Tengah 94563","Leok II, Kec. Biau, Kabupaten Buol",GORONTALO,94563.0,Indonesia,,,,1.1640797,121.4245996,https://maps.google.com/?cid=0x0:0xf9a715f8ee14f855,
cafe,Kafe,NOOGIE COFFEE  FUN,"G3X7+P87, Jl. Jamaludin Malik, Limba U I, Kota Sel., Kota Gorontalo, Gorontalo 96135","Jl. Jamaludin Malik, Limba U I, Kota Sel., Kota Gorontalo",GORONTALO,96135.0,Indonesia,,,,0.5492967,123.0632834,https://maps.google.com/?cid=0x0:0x83028beca59f2a73,
cafe,Kedai Kopi,DN caffe,"W2JQ+234, Gentuma, Kec. Gentuma Raya, Kabupaten Gorontalo Utara, Gorontalo","Kabupaten Gorontalo Utara, Gorontalo",GORONTALO,,Indonesia,,,,0.9300102,123.0377072,https://maps.google.com/?cid=0x0:0x4266d06c3b6cda20,
cafe,cafe,Kec. Gentuma Raya,"Kabupaten Gorontalo Utara, Gorontalo","Kabupaten Gorontalo Utara, Gorontalo",GORONTALO,,Indonesia,,,,0.9300102,123.0377072,https://maps.google.com/?cid=0x0:0xc9d73598b0af1e0,
cafe,Kedai Kopi,Outlet Astin Ceel,"dusun No.3, desa pasalae, Ipilo, Gentuma Raya, North Gorontalo Regency, Gorontalo 96253","desa pasalae, Ipilo, Gentuma Raya, North Gorontalo Regency",GORONTALO,96253.0,Indonesia,85399959276.0,,,0.8635461,123.0226174,https://maps.google.com/?cid=0x0:0x6da77c381763717b,
cafe,Toko Kue,M'ZEA Bakery and Cookies (homeMade),"W2JR+88M, Jl. Pelabuhan, Gentuma, Kec. Gentuma Raya, Kabupaten Gorontalo Utara, Gorontalo 96253","Jl. Pelabuhan, Gentuma, Kec. Gentuma Raya, Kabupaten Gorontalo Utara",GORONTALO,96253.0,Indonesia,81355735423.0,,,0.9308461,123.0407866,https://maps.google.com/?cid=0x0:0xc5e3554bf69f8729,
cafe,Kedai Kopi,martabak mini gorut,"W2FQ+J5J, Gentuma, Kec. Gentuma Raya, Kabupaten Gorontalo Utara, Gorontalo 96253","Gentuma, Kec. Gentuma Raya, Kabupaten Gorontalo Utara",GORONTALO,96253.0,Indonesia,85394081069.0,,,0.9240933,123.0378963,https://maps.google.com/?cid=0x0:0xdc720233dbe227f8,
cafe,Kafe,Karanji Group,"Kompas, Gentuma, Kec. Gentuma Raya, Kabupaten Gorontalo Utara, Gorontalo 96513","Gentuma, Kec. Gentuma Raya, Kabupaten Gorontalo Utara",GORONTALO,96513.0,Indonesia,85256745554.0,,,0.9288795,123.038998,https://maps.google.com/?cid=0x0:0xed93f6375db8fc01,
cafe,Kedai Kopi,MOYA DRINK,"W2JR+PFV, Gentuma, Kec. Gentuma Raya, Kabupaten Gorontalo Utara, Gorontalo 96253","Gentuma, Kec. Gentuma Raya, Kabupaten Gorontalo Utara",GORONTALO,96253.0,Indonesia,,,,0.9318556,123.0411676,https://maps.google.com/?cid=0x0:0x66c99d99fc98dabe,
cafe,Pasar,Pasar Tradisional,"W2HQ+9M9, Gentuma, Kec. Gentuma Raya, Kabupaten Gorontalo Utara, Gorontalo 96253","Gentuma, Kec. Gentuma Raya, Kabupaten Gorontalo Utara",GORONTALO,96253.0,Indonesia,82291782233.0,,,0.928402,123.0392254,https://maps.google.com/?cid=0x0:0x402c74fde188e0d,
cafe,Restoran,Hantaleya Cafe,"Hantaleya Cafe, Jl. Samsu Biya No.106, Kayubulan, Kec. Limboto, Kabupaten Gorontalo, Gorontalo 96181","Jl. Samsu Biya No.106, Kayubulan, Kec. Limboto, Kabupaten Gorontalo",GORONTALO,96181.0,Indonesia,81255566609.0,,,0.6306237,122.9831256,https://maps.google.com/?cid=0x0:0x6907cf418c0daf52,
cafe,Kedai Kopi,Lapak buble kuy 86,"W2GR+6HF, Jl. Trans Sulawesi, desa nanati jaya, Kec. Gentuma Raya, Kabupaten Gorontalo Utara, Gorontalo","Kabupaten Gorontalo Utara, Gorontalo",GORONTALO,,Indonesia,85342013515.0,,,0.9255613,123.0414192,https://maps.google.com/?cid=0x0:0xc286facbf0812d94,
cafe,Kafe,Gahwa Shop,"W2GR+574, Jl. Trans Sulawesi, Gentuma, Kec. Gentuma Raya, Kabupaten Gorontalo Utara, Gorontalo 96253","Jl. Trans Sulawesi, Gentuma, Kec. Gentuma Raya, Kabupaten Gorontalo Utara",GORONTALO,96253.0,Indonesia,82291398237.0,,,0.9253933,123.0404751,https://maps.google.com/?cid=0x0:0x357c4a50692174db,
cafe,Kedai Kopi,Atinggola gorontalo utara,"WXVV+4VP, Tj. Karang, Kec. Kwandang, Kabupaten Gorontalo Utara, Gorontalo","Kabupaten Gorontalo Utara, Gorontalo",GORONTALO,,Indonesia,,,,0.94283,122.9947117,https://maps.google.com/?cid=0x0:0x911ec95a579df2c2,
cafe,Padang,RM HIDAYYAH,"W2M8+MGJ, Jl. Trans Sulawesi, Molonggota, Kec. Gentuma Raya, Kabupaten Gorontalo Utara, Gorontalo 96253","Jl. Trans Sulawesi, Molonggota, Kec. Gentuma Raya, Kabupaten Gorontalo Utara",GORONTALO,96253.0,Indonesia,82393255254.0,,,0.9342075,123.0162648,https://maps.google.com/?cid=0x0:0xad203e6747c14b8a,
cafe,Kedai Kopi,Kopi tipu-tipu,"W2GR+F9Q, Gentuma, Kec. Gentuma Raya, Kabupaten Gorontalo Utara, Gorontalo","Kabupaten Gorontalo Utara, Gorontalo",GORONTALO,,Indonesia,,,,0.9262475,123.0410923,https://maps.google.com/?cid=0x0:0xf8f70b45ad6373c9,
cafe,Restoran,Nanda Catering Gentuma Raya,"W2JM+2HX, Gentuma, Kec. Gentuma Raya, Kabupaten Gorontalo Utara, Gorontalo 96253","Gentuma, Kec. Gentuma Raya, Kabupaten Gorontalo Utara",GORONTALO,96253.0,Indonesia,85298614513.0,,,0.9301043,123.0339791,https://maps.google.com/?cid=0x0:0xf744b35f939f95dc,
cafe,Warnet,Torang pe pante,"W394+XM8, Jl. Trans Sulawesi, Dumolodo, Kec. Gentuma Raya, Kabupaten Gorontalo Utara, Gorontalo 96253","Jl. Trans Sulawesi, Dumolodo, Kec. Gentuma Raya, Kabupaten Gorontalo Utara",GORONTALO,96253.0,Indonesia,,,,0.9204949,123.0573648,https://maps.google.com/?cid=0x0:0x8dd7dc0a60b34cfb,
cafe,Pengiriman Makanan,Sweet Queen,"W2JQ+R94, Gentuma, Kec. Gentuma Raya, Kabupaten Gorontalo Utara, Gorontalo 96253","Gentuma, Kec. Gentuma Raya, Kabupaten Gorontalo Utara",GORONTALO,96253.0,Indonesia,82197202798.0,,,0.9321388,123.038588,https://maps.google.com/?cid=0x0:0xd803d2c1ecb67440,
cafe,Taman Kanak-kanak,Tempat nongkrong,"W2HQ+FPJ, Gentuma, Kec. Gentuma Raya, Kabupaten Gorontalo Utara, Gorontalo 96253","Gentuma, Kec. Gentuma Raya, Kabupaten Gorontalo Utara",GORONTALO,96253.0,Indonesia,,,,0.9286826,123.0396247,https://maps.google.com/?cid=0x0:0xcef56408a8221676,
cafe,Restoran,Dapur moza,"W2FR+Q2J, Gentuma, Kec. Gentuma Raya, Kabupaten Gorontalo Utara, Gorontalo 96253","Gentuma, Kec. Gentuma Raya, Kabupaten Gorontalo Utara",GORONTALO,96253.0,Indonesia,82259317824.0,,,0.924452,123.0400237,https://maps.google.com/?cid=0x0:0x48c824a61d931e50,
cafe,Pusat Perbelanjaan,RumahnyaGhiridGamila,"W2JQ+925, Gentuma, Kec. Gentuma Raya, Kabupaten Gorontalo Utara, Gorontalo 96253","Gentuma, Kec. Gentuma Raya, Kabupaten Gorontalo Utara",GORONTALO,96253.0,Indonesia,81340351849.0,,,0.9308847,123.0376016,https://maps.google.com/?cid=0x0:0xe0aa68d91cb9e54b,
cafe,Toko umum,Kios DuRen (Duda Keren),"Molonggota, Kec. Gentuma Raya, Kabupaten Gorontalo Utara, Gorontalo 96253","Kec. Gentuma Raya, Kabupaten Gorontalo Utara",GORONTALO,96253.0,Indonesia,85394057661.0,,,0.9241675,123.0239236,https://maps.google.com/?cid=0x0:0xa4a772b85faf4a77,
cafe,Makanan Kecil,Warung Le Nabil,"W2GJ+3GH, Jl. Trans Sulawesi, Gentuma, Kec. Gentuma Raya, Kabupaten Gorontalo Utara, Gorontalo 96253","Jl. Trans Sulawesi, Gentuma, Kec. Gentuma Raya, Kabupaten Gorontalo Utara",GORONTALO,96253.0,Indonesia,,,,0.9251469,123.0314029,https://maps.google.com/?cid=0x0:0x23c172e15f35c861,
cafe,Restoran,RM Barokah,"W2FV+WFQ, Jl. Trans Sulawesi, Dumolodo, Kec. Gentuma Raya, Kabupaten Gorontalo Utara, Gorontalo 96253","Jl. Trans Sulawesi, Dumolodo, Kec. Gentuma Raya, Kabupaten Gorontalo Utara",GORONTALO,96253.0,Indonesia,,,,0.9248355,123.0437486,https://maps.google.com/?cid=0x0:0xc93ab4aed166952a,
cafe,Restoran,RM. Tinutuan CiNDY,"W2FJ+RGR, Gentuma, Kec. Gentuma Raya, Kabupaten Gorontalo Utara, Gorontalo 96253","Gentuma, Kec. Gentuma Raya, Kabupaten Gorontalo Utara",GORONTALO,96253.0,Indonesia,,,,0.9246223,123.0312578,https://maps.google.com/?cid=0x0:0xaaaa5779fab523ec,
cafe,Padang,RM. Flamboyan Gentuma,"W2FJ+VFP Depan Kantor KUA, Gentuma, Kec. Gentuma Raya, Kabupaten Gorontalo Utara, Gorontalo","Kabupaten Gorontalo Utara, Gorontalo",GORONTALO,,Indonesia,,,,0.9247245,123.0312179,https://maps.google.com/?cid=0x0:0xbef92f9fc1bb0615,
cafe,cafe,RM. Putra Tanjung Karang,"WXVV+46M, Jl. Trans Sulawesi, Tj. Karang, Kec. Kwandang, Kabupaten Gorontalo Utara, Gorontalo 96253","Jl. Trans Sulawesi, Tj. Karang, Kec. Kwandang, Kabupaten Gorontalo Utara",GORONTALO,96253.0,Indonesia,85340130007.0,,,0.9428305,122.9930315,https://maps.google.com/?cid=0x0:0xdf81c6334f0cfbfd,
cafe,cafe,Gorontalo 96252,"Kec. Kwandang, Kabupaten Gorontalo Utara, Gorontalo","Kabupaten Gorontalo Utara, Gorontalo",GORONTALO,,Indonesia,,,,0.8083426,122.9212265,https://maps.google.com/?cid=0x0:0x8516fb933d27785f,
cafe,Kedai Kopi,NEZ Cafe,"Moluo, Kec. Kwandang, Kabupaten Gorontalo Utara, Gorontalo 96252","Kec. Kwandang, Kabupaten Gorontalo Utara",GORONTALO,96252.0,Indonesia,85340505174.0,,,0.8392201,122.9151363,https://maps.google.com/?cid=0x0:0xc82f320155f7282a,
cafe,Kedai Kopi,Djago Coffee  Cafe,"Leboto, Kec. Kwandang, Kabupaten Gorontalo Utara, Gorontalo 96252","Kec. Kwandang, Kabupaten Gorontalo Utara",GORONTALO,96252.0,Indonesia,,,,0.8075948,122.8932976,https://maps.google.com/?cid=0x0:0x5009f417b8f87265,
cafe,Kedai Kopi,Pendopo Coffee - Music - Gaming,"RWV7+4H9, Jl. Trans Sulawesi, Moluo, Kec. Kwandang, Kabupaten Gorontalo Utara, Gorontalo 96252","Jl. Trans Sulawesi, Moluo, Kec. Kwandang, Kabupaten Gorontalo Utara",GORONTALO,96252.0,Indonesia,,,,0.8427831,122.9139922,https://maps.google.com/?cid=0x0:0xa1c9fcc68a8a1f4c,
cafe,Toko Swalayan,POJOK ABDOL,"QVM7+HXQ, Jl. Trans Sulawesi, Molingkapoto, Kec. Kwandang, Kabupaten Gorontalo Utara, Gorontalo 96252","Jl. Trans Sulawesi, Molingkapoto, Kec. Kwandang, Kabupaten Gorontalo Utara",GORONTALO,96252.0,Indonesia,,,,0.7839685,122.8649729,https://maps.google.com/?cid=0x0:0x81fa51be13780d75,
cafe,Kafe,Tik-Tok Cafe,"RWM9+259, Titidu, Kec. Kwandang, Kabupaten Gorontalo Utara, Gorontalo 96252","Titidu, Kec. Kwandang, Kabupaten Gorontalo Utara",GORONTALO,96252.0,Indonesia,85146464469.0,,,0.8325379,122.9179918,https://maps.google.com/?cid=0x0:0xa714b7bf647abaad,
cafe,Kedai Kopi,Coffee Break,"RWR7+2X7, Moluo, Kec. Kwandang, Kabupaten Gorontalo Utara, Gorontalo 96252","Moluo, Kec. Kwandang, Kabupaten Gorontalo Utara",GORONTALO,96252.0,Indonesia,85399604031.0,,,0.8400441,122.914907,https://maps.google.com/?cid=0x0:0x942d010476a580b6,
cafe,Restoran,Rest Area Panorama,"VW5H+H8V, Dambalo, Kec. Kwandang, Kabupaten Gorontalo Utara, Gorontalo 96252","Dambalo, Kec. Kwandang, Kabupaten Gorontalo Utara",GORONTALO,96252.0,Indonesia,,,,0.8589755,122.9282931,https://maps.google.com/?cid=0x0:0xd522e9e5033b264,
cafe,Kedai Kopi,Kedai Kopi Huidu Melito,"WXC7+MJC, Molantadu, Kec. Kwandang, Kabupaten Gorontalo Utara, Gorontalo 96252","Molantadu, Kec. Kwandang, Kabupaten Gorontalo Utara",GORONTALO,96252.0,Indonesia,82349090003.0,,,0.921696,122.9640222,https://maps.google.com/?cid=0x0:0xbb95947a22b80cf,
cafe,Kafe,The Kitchen,"VW24+49W, Jalan Pelabuhan, Moluo, Kwandang, North Gorontalo Regency, Gorontalo 96252","Jalan Pelabuhan, Moluo, Kwandang, North Gorontalo Regency",GORONTALO,96252.0,Indonesia,,,,0.8503717,122.9059437,https://maps.google.com/?cid=0x0:0xbd4c70381771b24,
cafe,Kedai Kopi,Rock House,"RWR7+RVP, dusun pasar lama, Moluo, Kec. Kwandang, Kabupaten Gorontalo Utara, Gorontalo 96252","dusun pasar lama, Moluo, Kec. Kwandang, Kabupaten Gorontalo Utara",GORONTALO,96252.0,Indonesia,82292710720.0,,,0.8420968,122.9147182,https://maps.google.com/?cid=0x0:0x2ecc85355ee6b849,
cafe,Kedai Kopi,LD*GUILD,"QVM4+WM8, Pontolo, Kec. Kwandang, Kabupaten Gorontalo Utara, Gorontalo 96252","Pontolo, Kec. Kwandang, Kabupaten Gorontalo Utara",GORONTALO,96252.0,Indonesia,,,,0.7847946,122.8567033,https://maps.google.com/?cid=0x0:0x857e2334e44d38ca,
cafe,Kafe,Kedai TENTANG KITA,"RWJ9+CFR, Jl. Trans Sulawesi, Titidu, Kec. Kwandang, Kabupaten Gorontalo Utara, Gorontalo 96252","Jl. Trans Sulawesi, Titidu, Kec. Kwandang, Kabupaten Gorontalo Utara",GORONTALO,96252.0,Indonesia,,,,0.8311043,122.9186483,https://maps.google.com/?cid=0x0:0xab735a37c8e4e6cf,
cafe,Restoran,RM. A2,"QVQ8+2HF, selatan, Molingkapoto, Kec. Kwandang, Kabupaten Gorontalo Utara, Gorontalo 96252","selatan, Molingkapoto, Kec. Kwandang, Kabupaten Gorontalo Utara",GORONTALO,96252.0,Indonesia,82292956016.0,,,0.7875521,122.8664373,https://maps.google.com/?cid=0x0:0xafb6911dc06f9231,
cafe,cafe,Kafe harmoni caffetaria,"Desa cisadane, Moluo, Kec. Kwandang, Kabupaten Gorontalo Utara, Gorontalo 96252","Moluo, Kec. Kwandang, Kabupaten Gorontalo Utara",GORONTALO,96252.0,Indonesia,,,,0.8355636,122.9147544,https://maps.google.com/?cid=0x0:0x35b391986a7d395a,
cafe,Kafe,PANORAMA (Rumah Makan Dan Penginapan),"VW5H+HGV, Dambalo, Kec. Kwandang, Kabupaten Gorontalo Utara, Gorontalo 96252","Dambalo, Kec. Kwandang, Kabupaten Gorontalo Utara",GORONTALO,96252.0,Indonesia,,,,0.8589916,122.9288043,https://maps.google.com/?cid=0x0:0x44daf461f7498c15,
cafe,Toko umum,warung kopi khairunisa,"RV3C+W59, Mootinelo, Kec. Kwandang, Kabupaten Gorontalo Utara, Gorontalo 96252","Mootinelo, Kec. Kwandang, Kabupaten Gorontalo Utara",GORONTALO,96252.0,Indonesia,81241532180.0,,,0.8047929,122.8704925,https://maps.google.com/?cid=0x0:0xbfd4135ee97e01d2,
cafe,Kafe,Kedai Pink Ungu,"QVXJ+WHC, Mootinelo, Kec. Kwandang, Kabupaten Gorontalo Utara, Gorontalo 96252","Mootinelo, Kec. Kwandang, Kabupaten Gorontalo Utara",GORONTALO,96252.0,Indonesia,85242613434.0,,,0.7991107,122.8810492,https://maps.google.com/?cid=0x0:0xfaccb86dc4233681,
cafe,Kedai Kopi,KEDAI KOPIKOE,"QVP8+VQW, Molingkapoto, Kec. Kwandang, Kabupaten Gorontalo Utara, Gorontalo","Kabupaten Gorontalo Utara, Gorontalo",GORONTALO,,Indonesia,,,,0.7872486,122.8669527,https://maps.google.com/?cid=0x0:0xd7f9cf0691962d47,
cafe,Kedai Kopi,Kedai GoodTime,"QVRF+HGG, Molingkapoto, Kec. Kwandang, Kabupaten Gorontalo Utara, Gorontalo 96252","Molingkapoto, Kec. Kwandang, Kabupaten Gorontalo Utara",GORONTALO,96252.0,Indonesia,85242613434.0,,,0.7914397,122.8738218,https://maps.google.com/?cid=0x0:0xd1d2d32397b804c7,
cafe,Restoran,Keko Resto and Cafe,"QVP9+P33, Molingkapoto, Kec. Kwandang, Kabupaten Gorontalo Utara, Gorontalo 96252","Molingkapoto, Kec. Kwandang, Kabupaten Gorontalo Utara",GORONTALO,96252.0,Indonesia,82396607612.0,,,0.7867664,122.8676732,https://maps.google.com/?cid=0x0:0xeb12fa68f885c8c0,
cafe,Pusat Perbelanjaan,Kedai 25,"RWH9+JHV, Jl. Trans Sulawesi, Titidu, Kec. Kwandang, Kabupaten Gorontalo Utara, Gorontalo 96252","Jl. Trans Sulawesi, Titidu, Kec. Kwandang, Kabupaten Gorontalo Utara",GORONTALO,96252.0,Indonesia,81280932989.0,,,0.8291226,122.9189314,https://maps.google.com/?cid=0x0:0x7829085d42d2ecf3,
cafe,cafe,Monano,"Kec. Anggrek, Kabupaten Gorontalo Utara, Gorontalo","Kabupaten Gorontalo Utara, Gorontalo",GORONTALO,,Indonesia,,,,0.8567497,122.6870742,https://maps.google.com/?cid=0x0:0xfb9832e634d0d5c8,
cafe,Kedai Kopi,House Olhis Bakari,"VMPV+CJ4, Monano, Kec. Anggrek, Kabupaten Gorontalo Utara, Gorontalo 96525","Monano, Kec. Anggrek, Kabupaten Gorontalo Utara",GORONTALO,96525.0,Indonesia,81343685046.0,,,0.883614,122.694082,https://maps.google.com/?cid=0x0:0x26665a81159a13dc,
cafe,Restoran,cafe ayah,"VM4P+MRW, tugu perbatasan, Monano, Kec. Sumalata, Kabupaten Gorontalo Utara, Gorontalo 96525","tugu perbatasan, Monano, Kec. Sumalata, Kabupaten Gorontalo Utara",GORONTALO,96525.0,Indonesia,,,,0.8567497,122.6870742,https://maps.google.com/?cid=0x0:0x50e13d63d2e233b5,
cafe,Pusat Perbelanjaan,Pasar monano,"VMMQ+RWR, Jl. Buol - Gorontalo, Monas, Kec. Anggrek, Kabupaten Gorontalo Utara, Gorontalo 96525","Jl. Buol - Gorontalo, Monas, Kec. Anggrek, Kabupaten Gorontalo Utara",GORONTALO,96525.0,Indonesia,,,,0.8846077,122.6897627,https://maps.google.com/?cid=0x0:0x999f8a16a8747410,
cafe,Restoran,KAMIYES House,"Desa, Monano, Kec. Anggrek, Kabupaten Gorontalo Utara, Gorontalo 96525","Monano, Kec. Anggrek, Kabupaten Gorontalo Utara",GORONTALO,96525.0,Indonesia,8127433661.0,,,0.8892969,122.6979594,https://maps.google.com/?cid=0x0:0x1151a7071b89e2d7,
cafe,Brunch,D'nan Coffee,"96115, Jl. Prof. Dr. H.B. Jassin No.63, Limba B, Kota Sel., Kota Gorontalo, Gorontalo 96136","Jl. Prof. Dr. H.B. Jassin No.63, Limba B, Kota Sel., Kota Gorontalo",GORONTALO,96136.0,Indonesia,85900297370.0,,,0.5433336,123.0578888,https://maps.google.com/?cid=0x0:0xb6f6c1a235aafe4e,
cafe,Rumah Makan,RM SURABAYA 99,"VMJQ+6FJ, kec, Monano, Kec. Anggrek, Kabupaten Gorontalo Utara, Gorontalo 96525","kec, Monano, Kec. Anggrek, Kabupaten Gorontalo Utara",GORONTALO,96525.0,Indonesia,85255091441.0,,,0.8805908,122.6886257,https://maps.google.com/?cid=0x0:0x1610b7613492b675,
cafe,Kafe,Marassa Cafe,"VMJQ+X4M, Monas, Kec. Anggrek, Kabupaten Gorontalo Utara, Gorontalo 96525","Monas, Kec. Anggrek, Kabupaten Gorontalo Utara",GORONTALO,96525.0,Indonesia,,,,0.8824602,122.6877965,https://maps.google.com/?cid=0x0:0x33880ca33da49c36,
cafe,Rumah Makan,Warung Tinutuan Cahaya Anugerah,"Unnamed Road, Monano, Kec. Anggrek, Kabupaten Gorontalo Utara, Gorontalo 96525","Monano, Kec. Anggrek, Kabupaten Gorontalo Utara",GORONTALO,96525.0,Indonesia,85340289180.0,,,0.8886484,122.697627,https://maps.google.com/?cid=0x0:0xca37fd9a1719e9e9,
cafe,Kedai Kopi,Petak,"VM9W+9QJ, Jl. Buol - Gorontalo, Tudi, Kec. Anggrek, Kabupaten Gorontalo Utara, Gorontalo 96525","Jl. Buol - Gorontalo, Tudi, Kec. Anggrek, Kabupaten Gorontalo Utara",GORONTALO,96525.0,Indonesia,,,,0.8685142,122.696855,https://maps.google.com/?cid=0x0:0xa005c2054f7d5c27,
cafe,Kedai Kopi,HOUSE.Haikal.paramata,"VMQV+6XC, Monas, Kec. Anggrek, Kabupaten Gorontalo Utara, Gorontalo 96525","Monas, Kec. Anggrek, Kabupaten Gorontalo Utara",GORONTALO,96525.0,Indonesia,82236787326.0,,,0.8880612,122.6948967,https://maps.google.com/?cid=0x0:0x67129377cde62683,
cafe,cafe,Mounlescoffee,"Jl. Sarini Abdullah, Limba U2, Kota Sel., Kota Gorontalo, Gorontalo 96138","Limba U2, Kota Sel., Kota Gorontalo",GORONTALO,96138.0,Indonesia,81234310420.0,,,0.5523349,123.05265,https://maps.google.com/?cid=0x0:0x7c18765bd5e42c2f,
cafe,cafe,Gorontalo 96252,"Kec. Kwandang, Kabupaten Gorontalo Utara, Gorontalo","Kabupaten Gorontalo Utara, Gorontalo",GORONTALO,,Indonesia,,,,0.8083426,122.9212265,https://maps.google.com/?cid=0x0:0x8516fb933d27785f,
cafe,Kafe,Tik-Tok Cafe,"RWM9+259, Titidu, Kec. Kwandang, Kabupaten Gorontalo Utara, Gorontalo 96252","Titidu, Kec. Kwandang, Kabupaten Gorontalo Utara",GORONTALO,96252.0,Indonesia,85146464469.0,,,0.8325379,122.9179918,https://maps.google.com/?cid=0x0:0xa714b7bf647abaad,
cafe,Kedai Kopi,PAONCAFE,"Jl. Palma No.154, Libuo, Kec. Dungingi, Kabupaten Gorontalo, Gorontalo 96135","Libuo, Kec. Dungingi, Kabupaten Gorontalo",GORONTALO,96135.0,Indonesia,8124410025.0,,,0.5559861,123.0425342,https://maps.google.com/?cid=0x0:0x752de3d035c848a6,
cafe,Otoritas Pelabuhan,Ponelo Kepulauan,"VVRP+693, Jl. Kec. Ponelo, Moluo, Kec. Kwandang, Kabupaten Gorontalo Utara, Gorontalo","Kabupaten Gorontalo Utara, Gorontalo",GORONTALO,,Indonesia,,,,0.8905172,122.8859277,https://maps.google.com/?cid=0x0:0x3adda2027890f34b,
cafe,Kedai Kopi,Cafe Pinggir Pantai,"26F2+XW9, Tolinggula Pantai, Paleleh, Kabupaten Gorontalo Utara, Gorontalo 96524","Tolinggula Pantai, Paleleh, Kabupaten Gorontalo Utara",GORONTALO,96524.0,Indonesia,,,,1.0249434,122.2024402,https://maps.google.com/?cid=0x0:0x6f0ca880c7a24a58,
cafe,Toko Makanan,Tropical Space,"Jalan raya, Kayubulan, Kec. Limboto, Kabupaten Gorontalo, Gorontalo 96211","Kayubulan, Kec. Limboto, Kabupaten Gorontalo",GORONTALO,96211.0,Indonesia,81356093987.0,,,0.6271042,122.982636,https://maps.google.com/?cid=0x0:0xb10548d4938eed5c,
cafe,Kedai Kopi,Kedai GoodTime,"QVRF+HGG, Molingkapoto, Kec. Kwandang, Kabupaten Gorontalo Utara, Gorontalo 96252","Molingkapoto, Kec. Kwandang, Kabupaten Gorontalo Utara",GORONTALO,96252.0,Indonesia,85242613434.0,,,0.7914397,122.8738218,https://maps.google.com/?cid=0x0:0xd1d2d32397b804c7,
cafe,Restoran,Hantaleya Cafe,"Hantaleya Cafe, Jl. Samsu Biya No.106, Kayubulan, Kec. Limboto, Kabupaten Gorontalo, Gorontalo 96181","Jl. Samsu Biya No.106, Kayubulan, Kec. Limboto, Kabupaten Gorontalo",GORONTALO,96181.0,Indonesia,81255566609.0,,,0.6306237,122.9831256,https://maps.google.com/?cid=0x0:0x6907cf418c0daf52,
cafe,Kafe,EXOTIC CafeResto,"Jl. Arif Rahman Hakim No.25, Dulalowo Tim., Kec. Kota Tengah, Kota Gorontalo, Gorontalo 96138","Dulalowo Tim., Kec. Kota Tengah, Kota Gorontalo",GORONTALO,96138.0,Indonesia,81318170257.0,,,0.5554723,123.0583945,https://maps.google.com/?cid=0x0:0xac9bb16527ab4338,
cafe,Kafe,Le KIOZ,"G3V6+2M7, Jl. Nani Wartabone, Limba U I, Kota Sel., Kota Gorontalo, Gorontalo 96135","Jl. Nani Wartabone, Limba U I, Kota Sel., Kota Gorontalo",GORONTALO,96135.0,Indonesia,,,,0.5425304,123.061673,https://maps.google.com/?cid=0x0:0x310b94a0fe0481bc,
cafe,Kedai Kopi,BUI'DO COFFEE SHOP  CAR WASH,"BUI'DO COFFEE SHOP, Jalan Drs. Achmad Nadjamudin Selatan, Limba U Dua, Kota, Kota Gorontalo, Gorontalo 96119","Jalan Drs. Achmad Nadjamudin Selatan, Limba U Dua, Kota, Kota Gorontalo",GORONTALO,96119.0,Indonesia,8114321211.0,,,0.5483412,123.0548428,https://maps.google.com/?cid=0x0:0x2b9d9a3bde92668a,
cafe,Kedai Kopi,Serenity cafe,"Hutuo, Kec. Limboto, Kabupaten Gorontalo, Gorontalo 96214","Kec. Limboto, Kabupaten Gorontalo",GORONTALO,96214.0,Indonesia,,,,0.625574,123.0012953,https://maps.google.com/?cid=0x0:0x3f1e9e34cdca379f,
cafe,Kedai Kopi,Palados coffee,"Unnamed Road, Dulalowo Tim., Kec. Kota Tengah, Kota Gorontalo, Gorontalo 96138","Dulalowo Tim., Kec. Kota Tengah, Kota Gorontalo",GORONTALO,96138.0,Indonesia,,,,0.5601579,123.0554494,https://maps.google.com/?cid=0x0:0xdac16f9d6019d6ae,
cafe,Restoran,Jln palalu desa isimu Utara kec tibawa kab Gorontalo,"MV2G+325, Isimu Utara, Kec. Tibawa, Kabupaten Gorontalo, Gorontalo 96216","Isimu Utara, Kec. Tibawa, Kabupaten Gorontalo",GORONTALO,96216.0,Indonesia,,,,0.6501302,122.8751027,https://maps.google.com/?cid=0x0:0xcf9156962d44b9b1,
cafe,Kafe,Konsep Syndrome Coffee  Eatery,"Jl. Faranconero, Heledulaa, Kec. Kota Tim., Kota Gorontalo, Gorontalo 96135","Heledulaa, Kec. Kota Tim., Kota Gorontalo",GORONTALO,96135.0,Indonesia,81244100177.0,,,0.5507221,123.0647777,https://maps.google.com/?cid=0x0:0x3a22b767576471d5,
cafe,cafe,Warung,"QV85+QPQ, Jl. Trans-Sulawesi, Pontolo, Kec. Kwandang, Kabupaten Gorontalo Utara, Gorontalo 96252","Jl. Trans-Sulawesi, Pontolo, Kec. Kwandang, Kabupaten Gorontalo Utara",GORONTALO,96252.0,Indonesia,,,,0.7669617,122.8593656,https://maps.google.com/?cid=0x0:0xc6dd983da8f24302,
cafe,Minimarket,Kios mama kaka,"VV6P+QRR, Desa, otiola, kecamatan ponelo kepulauan, North Gorontalo Regency, Gorontalo 96252","Desa, otiola, kecamatan ponelo kepulauan, North Gorontalo Regency",GORONTALO,96252.0,Indonesia,,,,0.8619956,122.8870143,https://maps.google.com/?cid=0x0:0x6863b3d75d3b160b,
cafe,cafe,Gorontalo 96254,"Kabupaten Gorontalo Utara, Gorontalo","Kabupaten Gorontalo Utara, Gorontalo",GORONTALO,,Indonesia,,,,0.926195,122.4014193,https://maps.google.com/?cid=0x0:0x9a29fb0ff347278,
cafe,cafe,Ulis coffe,"Jln trans sulawesi, Buloila, Kec. Sumalata, Kabupaten Gorontalo Utara, Gorontalo 96514","Buloila, Kec. Sumalata, Kabupaten Gorontalo Utara",GORONTALO,96514.0,Indonesia,82285190700.0,,,0.9950383,122.2742378,https://maps.google.com/?cid=0x0:0x564988638466236,
cafe,Kedai Kopi,WM Muslimah Sumalata,"WJX3+3WX, Jl. Buol - Gorontalo, Deme I, Kec. Sumalata, Kabupaten Gorontalo Utara, Gorontalo 96525","Jl. Buol - Gorontalo, Deme I, Kec. Sumalata, Kabupaten Gorontalo Utara",GORONTALO,96525.0,Indonesia,82194131199.0,,,0.9477465,122.6048694,https://maps.google.com/?cid=0x0:0xf6b8e8f1b667a760,
cafe,Kedai Kopi,Rm mami yanti,"XCJG+MG5, Bulontio Tim., Kec. Sumalata, Kabupaten Gorontalo Utara, Gorontalo 96254","Bulontio Tim., Kec. Sumalata, Kabupaten Gorontalo Utara",GORONTALO,96254.0,Indonesia,,,,0.9816414,122.4263633,https://maps.google.com/?cid=0x0:0xcdbf627bef9cd1ca,
cafe,Kafe,Kedai Kopi Buluwatu,"XH2V+W87, Unnamed Road, Deme I, Kec. Sumalata, Kabupaten Gorontalo Utara, Gorontalo 96254","Unnamed Road, Deme I, Kec. Sumalata, Kabupaten Gorontalo Utara",GORONTALO,96254.0,Indonesia,81343633610.0,,,0.952298,122.593289,https://maps.google.com/?cid=0x0:0x1a6b0a31d6b539c8,
cafe,Kedai Kopi,Cafe Buladu,"Buladu, Kec. Sumalata, Kabupaten Gorontalo Utara, Gorontalo 96254","Kec. Sumalata, Kabupaten Gorontalo Utara",GORONTALO,96254.0,Indonesia,82291271972.0,,,0.9816995,122.5097204,https://maps.google.com/?cid=0x0:0xb9a151246f829475,
cafe,Kedai Kopi,teras official,"WHWR+C77, Deme I, Kec. Sumalata, Kabupaten Gorontalo Utara, Gorontalo","Kabupaten Gorontalo Utara, Gorontalo",GORONTALO,,Indonesia,,,,0.9460349,122.5906755,https://maps.google.com/?cid=0x0:0x22f4487fbfbe99ce,
cafe,Kedai Kopi,Warkop Tolonggalo,"XCJ9+W4H, Bulontio Tim., Kec. Sumalata, Kabupaten Gorontalo Utara, Gorontalo 96254","Bulontio Tim., Kec. Sumalata, Kabupaten Gorontalo Utara",GORONTALO,96254.0,Indonesia,,,,0.9823124,122.4178446,https://maps.google.com/?cid=0x0:0xf31f05715ca19a90,
cafe,Kedai Kopi,UMKM WARKOP KATAMONGO,"XCJH+9PP, Bulontio Tim., Kec. Sumalata, Kabupaten Gorontalo Utara, Gorontalo 96254","Bulontio Tim., Kec. Sumalata, Kabupaten Gorontalo Utara",GORONTALO,96254.0,Indonesia,81259247796.0,,,0.9809697,122.4293255,https://maps.google.com/?cid=0x0:0x792dac50524026dc,
cafe,Toko umum,Cafe Loyo,"XCMH+QHX, Jl. Buol - Gorontalo, Bulontio Tim., Kec. Sumalata, Kabupaten Gorontalo Utara, Gorontalo 96254","Jl. Buol - Gorontalo, Bulontio Tim., Kec. Sumalata, Kabupaten Gorontalo Utara",GORONTALO,96254.0,Indonesia,,,,0.9844979,122.4289839,https://maps.google.com/?cid=0x0:0x8e716ae583427193,
cafe,Restoran,RM. Atap Biru,"XGGG+4Q3, Deme II, Kec. Sumalata, Kabupaten Gorontalo Utara, Gorontalo 96254","Deme II, Kec. Sumalata, Kabupaten Gorontalo Utara",GORONTALO,96254.0,Indonesia,,,,0.9752668,122.5269315,https://maps.google.com/?cid=0x0:0xf55378ef615dd386,
cafe,Restoran,Rumah Makan Hikmah,"XGGG+859, Jl. Buol - Gorontalo, Deme II, Kec. Sumalata, Kabupaten Gorontalo Utara, Gorontalo 96254","Jl. Buol - Gorontalo, Deme II, Kec. Sumalata, Kabupaten Gorontalo Utara",GORONTALO,96254.0,Indonesia,85396573948.0,,,0.9757824,122.5254901,https://maps.google.com/?cid=0x0:0xe16bdcd9ea636e20,
cafe,Tujuan Wisata,Warkop Bukit Ceria,"Buladu, Kec. Sumalata, Kabupaten Gorontalo Utara, Gorontalo 96254","Kec. Sumalata, Kabupaten Gorontalo Utara",GORONTALO,96254.0,Indonesia,81356542859.0,,,0.9804219,122.5112006,https://maps.google.com/?cid=0x0:0xa3ecbc9f825abdb3,
cafe,Kedai Kopi,Teras Barkah,"Deme I, Kec. Sumalata, Kabupaten Gorontalo Utara, Gorontalo","Kabupaten Gorontalo Utara, Gorontalo",GORONTALO,,Indonesia,82245287440.0,,,0.9522393,122.5929118,https://maps.google.com/?cid=0x0:0xff9c2b988e00d4f9,
cafe,Kedai Kopi,Titik Baku Dapa,"Desa bulontio timur kecamatan sumalata timur, Kabupaten Gorontalo Utara, Gorontalo 96524",Kabupaten Gorontalo Utara,GORONTALO,96524.0,Indonesia,,,,0.9421513,122.424074,https://maps.google.com/?cid=0x0:0x6d37caae74637cd8,
cafe,Rumah Makan,RM. Saronde,"XGH8+JWG, Deme II, Kec. Sumalata, Kabupaten Gorontalo Utara, Gorontalo 96254","Deme II, Kec. Sumalata, Kabupaten Gorontalo Utara",GORONTALO,96254.0,Indonesia,,,,0.9790689,122.5173289,https://maps.google.com/?cid=0x0:0xa68efd953f1df833,
cafe,Rumah Makan,RM Makan Tepi Laut Sumalat,"XGCJ+HQ3, Jl. Buol - Gorontalo, Deme II, Kec. Sumalata, Kabupaten Gorontalo Utara, Gorontalo 96254","Jl. Buol - Gorontalo, Deme II, Kec. Sumalata, Kabupaten Gorontalo Utara",GORONTALO,96254.0,Indonesia,,,,0.9713909,122.5319304,https://maps.google.com/?cid=0x0:0x129ba04e0036c6d9,
cafe,Dapur Umum,Warung mas jawa,"XCG8+VF8, Jl. Buol - Gorontalo, Bulontio Tim., Kec. Sumalata, Kabupaten Gorontalo Utara, Gorontalo 96254","Jl. Buol - Gorontalo, Bulontio Tim., Kec. Sumalata, Kabupaten Gorontalo Utara",GORONTALO,96254.0,Indonesia,,,,0.9771672,122.4161948,https://maps.google.com/?cid=0x0:0x9586666246f1ed10,
cafe,cafe,Utun desa bulontio,"X9MR+628, Bulontio Bar., Kec. Sumalata, Kabupaten Gorontalo Utara, Gorontalo 96254","Bulontio Bar., Kec. Sumalata, Kabupaten Gorontalo Utara",GORONTALO,96254.0,Indonesia,,,,0.9830261,122.3900901,https://maps.google.com/?cid=0x0:0x94ec0b275f30a55d,
cafe,Kafe,BALAI WARGA,"XGJ5+PVC, Buladu, Kec. Sumalata, Kabupaten Gorontalo Utara, Gorontalo 96254","Buladu, Kec. Sumalata, Kabupaten Gorontalo Utara",GORONTALO,96254.0,Indonesia,,,,0.9818019,122.5096275,https://maps.google.com/?cid=0x0:0x56b5befe951d010e,
cafe,Kafe,Warkop Kersen,"XGH7+VF6, Jl. Buol - Gorontalo, Deme II, Kec. Sumalata, Kabupaten Gorontalo Utara, Gorontalo 96254","Jl. Buol - Gorontalo, Deme II, Kec. Sumalata, Kabupaten Gorontalo Utara",GORONTALO,96254.0,Indonesia,,,,0.9796569,122.5136478,https://maps.google.com/?cid=0x0:0x3c1399f82ed52514,
cafe,cafe,Sumalata,"Wubudu, Kec. Sumalata, Kabupaten Gorontalo Utara, Gorontalo","Kabupaten Gorontalo Utara, Gorontalo",GORONTALO,,Indonesia,,,,0.980095,122.490997,https://maps.google.com/?cid=0x0:0xe5cfc95986060eba,
cafe,Kedai Kopi,DM2 KOFIE,"XGH7+VF6, Jl. Buol - Gorontalo, Deme II, Kec. Sumalata, Kabupaten Gorontalo Utara, Gorontalo 96254","Jl. Buol - Gorontalo, Deme II, Kec. Sumalata, Kabupaten Gorontalo Utara",GORONTALO,96254.0,Indonesia,,,,0.9794784,122.5133964,https://maps.google.com/?cid=0x0:0x2a1020d980716def,
cafe,Kedai Kopi,*WARKOP LAMI*,"WHC8+56M, Dulukapa, Kec. Sumalata, Kabupaten Gorontalo Utara, Gorontalo 96254","Dulukapa, Kec. Sumalata, Kabupaten Gorontalo Utara",GORONTALO,96254.0,Indonesia,81356120691.0,,,0.920468,122.5655549,https://maps.google.com/?cid=0x0:0x6c002223d37c1175,
cafe,Restoran,Hantaleya Cafe,"Hantaleya Cafe, Jl. Samsu Biya No.106, Kayubulan, Kec. Limboto, Kabupaten Gorontalo, Gorontalo 96181","Jl. Samsu Biya No.106, Kayubulan, Kec. Limboto, Kabupaten Gorontalo",GORONTALO,96181.0,Indonesia,81255566609.0,,,0.6306237,122.9831256,https://maps.google.com/?cid=0x0:0x6907cf418c0daf52,
cafe,cafe,Cafe Solid,"XCJG+5XC, Bulontio Tim., Kec. Sumalata, Kabupaten Gorontalo Utara, Gorontalo 96254","Bulontio Tim., Kec. Sumalata, Kabupaten Gorontalo Utara",GORONTALO,96254.0,Indonesia,,,,0.980428,122.4273907,https://maps.google.com/?cid=0x0:0x7a6859bf8aea2098,
cafe,cafe,Gorontalo 96254,"Kabupaten Gorontalo Utara, Gorontalo","Kabupaten Gorontalo Utara, Gorontalo",GORONTALO,,Indonesia,,,,0.926195,122.4014193,https://maps.google.com/?cid=0x0:0x9a29fb0ff347278,
cafe,Kedai Kopi,Cafe Buladu,"Buladu, Kec. Sumalata, Kabupaten Gorontalo Utara, Gorontalo 96254","Kec. Sumalata, Kabupaten Gorontalo Utara",GORONTALO,96254.0,Indonesia,82291271972.0,,,0.9816995,122.5097204,https://maps.google.com/?cid=0x0:0xb9a151246f829475,
cafe,Kafe,Kedai Kopi Buluwatu,"XH2V+W87, Unnamed Road, Deme I, Kec. Sumalata, Kabupaten Gorontalo Utara, Gorontalo 96254","Unnamed Road, Deme I, Kec. Sumalata, Kabupaten Gorontalo Utara",GORONTALO,96254.0,Indonesia,81343633610.0,,,0.952298,122.593289,https://maps.google.com/?cid=0x0:0x1a6b0a31d6b539c8,
cafe,Kedai Kopi,Rm mami yanti,"XCJG+MG5, Bulontio Tim., Kec. Sumalata, Kabupaten Gorontalo Utara, Gorontalo 96254","Bulontio Tim., Kec. Sumalata, Kabupaten Gorontalo Utara",GORONTALO,96254.0,Indonesia,,,,0.9816414,122.4263633,https://maps.google.com/?cid=0x0:0xcdbf627bef9cd1ca,
cafe,Kedai Kopi,WM Muslimah Sumalata,"WJX3+3WX, Jl. Buol - Gorontalo, Deme I, Kec. Sumalata, Kabupaten Gorontalo Utara, Gorontalo 96525","Jl. Buol - Gorontalo, Deme I, Kec. Sumalata, Kabupaten Gorontalo Utara",GORONTALO,96525.0,Indonesia,82194131199.0,,,0.9477465,122.6048694,https://maps.google.com/?cid=0x0:0xf6b8e8f1b667a760,
cafe,Kedai Kopi,Warkop Tolonggalo,"XCJ9+W4H, Bulontio Tim., Kec. Sumalata, Kabupaten Gorontalo Utara, Gorontalo 96254","Bulontio Tim., Kec. Sumalata, Kabupaten Gorontalo Utara",GORONTALO,96254.0,Indonesia,,,,0.9823124,122.4178446,https://maps.google.com/?cid=0x0:0xf31f05715ca19a90,
cafe,Kedai Kopi,Titik Baku Dapa,"XCJG+5XC, Bulontio Tim., Kec. Sumalata, Kabupaten Gorontalo Utara, Gorontalo 96254","Bulontio Tim., Kec. Sumalata, Kabupaten Gorontalo Utara",GORONTALO,96254.0,Indonesia,85298763394.0,,,0.9804049,122.4273536,https://maps.google.com/?cid=0x0:0x9286ccdf6c6b8639,
cafe,Kedai Kopi,UMKM WARKOP KATAMONGO,"XCJH+9PP, Bulontio Tim., Kec. Sumalata, Kabupaten Gorontalo Utara, Gorontalo 96254","Bulontio Tim., Kec. Sumalata, Kabupaten Gorontalo Utara",GORONTALO,96254.0,Indonesia,81259247796.0,,,0.9809697,122.4293255,https://maps.google.com/?cid=0x0:0x792dac50524026dc,
cafe,Kedai Kopi,teras official,"WHWR+C77, Deme I, Kec. Sumalata, Kabupaten Gorontalo Utara, Gorontalo","Kabupaten Gorontalo Utara, Gorontalo",GORONTALO,,Indonesia,,,,0.9460349,122.5906755,https://maps.google.com/?cid=0x0:0x22f4487fbfbe99ce,
cafe,Toko umum,Cafe Loyo,"XCMH+QHX, Jl. Buol - Gorontalo, Bulontio Tim., Kec. Sumalata, Kabupaten Gorontalo Utara, Gorontalo 96254","Jl. Buol - Gorontalo, Bulontio Tim., Kec. Sumalata, Kabupaten Gorontalo Utara",GORONTALO,96254.0,Indonesia,,,,0.9844979,122.4289839,https://maps.google.com/?cid=0x0:0x8e716ae583427193,
cafe,Kedai Kopi,Titik Baku Dapa,"Desa bulontio timur kecamatan sumalata timur, Kabupaten Gorontalo Utara, Gorontalo 96524",Kabupaten Gorontalo Utara,GORONTALO,96524.0,Indonesia,,,,0.9421513,122.424074,https://maps.google.com/?cid=0x0:0x6d37caae74637cd8,
cafe,cafe,Utun desa bulontio,"X9MR+628, Bulontio Bar., Kec. Sumalata, Kabupaten Gorontalo Utara, Gorontalo 96254","Bulontio Bar., Kec. Sumalata, Kabupaten Gorontalo Utara",GORONTALO,96254.0,Indonesia,,,,0.9830261,122.3900901,https://maps.google.com/?cid=0x0:0x94ec0b275f30a55d,
cafe,Tujuan Wisata,Warkop Bukit Ceria,"Buladu, Kec. Sumalata, Kabupaten Gorontalo Utara, Gorontalo 96254","Kec. Sumalata, Kabupaten Gorontalo Utara",GORONTALO,96254.0,Indonesia,81356542859.0,,,0.9804219,122.5112006,https://maps.google.com/?cid=0x0:0xa3ecbc9f825abdb3,
cafe,Rumah Makan,Sumalata timur,"XCM9+9Q8 timur deme 1, Bulontio Tim., Kec. Sumalata, Kabupaten Gorontalo Utara, Gorontalo","Kabupaten Gorontalo Utara, Gorontalo",GORONTALO,,Indonesia,,,,0.9834124,122.4194572,https://maps.google.com/?cid=0x0:0xb989a83d5dfd30a,
cafe,Kedai Kopi,Teras Barkah,"Deme I, Kec. Sumalata, Kabupaten Gorontalo Utara, Gorontalo","Kabupaten Gorontalo Utara, Gorontalo",GORONTALO,,Indonesia,82245287440.0,,,0.9522393,122.5929118,https://maps.google.com/?cid=0x0:0xff9c2b988e00d4f9,
cafe,Kedai Kopi,dancoffe,"XCHC+3P7, Bulontio Tim., Kec. Sumalata, Kabupaten Gorontalo Utara, Gorontalo 96254","Bulontio Tim., Kec. Sumalata, Kabupaten Gorontalo Utara",GORONTALO,96254.0,Indonesia,,,,0.9776792,122.421776,https://maps.google.com/?cid=0x0:0x84355427f212f662,
cafe,Dapur Umum,Warung mas jawa,"XCG8+VF8, Jl. Buol - Gorontalo, Bulontio Tim., Kec. Sumalata, Kabupaten Gorontalo Utara, Gorontalo 96254","Jl. Buol - Gorontalo, Bulontio Tim., Kec. Sumalata, Kabupaten Gorontalo Utara",GORONTALO,96254.0,Indonesia,,,,0.9771672,122.4161948,https://maps.google.com/?cid=0x0:0x9586666246f1ed10,
cafe,Restoran,RM. Atap Biru,"XGGG+4Q3, Deme II, Kec. Sumalata, Kabupaten Gorontalo Utara, Gorontalo 96254","Deme II, Kec. Sumalata, Kabupaten Gorontalo Utara",GORONTALO,96254.0,Indonesia,,,,0.9752668,122.5269315,https://maps.google.com/?cid=0x0:0xf55378ef615dd386,
cafe,Kafe,BALAI WARGA,"XGJ5+PVC, Buladu, Kec. Sumalata, Kabupaten Gorontalo Utara, Gorontalo 96254","Buladu, Kec. Sumalata, Kabupaten Gorontalo Utara",GORONTALO,96254.0,Indonesia,,,,0.9818019,122.5096275,https://maps.google.com/?cid=0x0:0x56b5befe951d010e,
cafe,Kafe,Warkop Kersen,"XGH7+VF6, Jl. Buol - Gorontalo, Deme II, Kec. Sumalata, Kabupaten Gorontalo Utara, Gorontalo 96254","Jl. Buol - Gorontalo, Deme II, Kec. Sumalata, Kabupaten Gorontalo Utara",GORONTALO,96254.0,Indonesia,,,,0.9796569,122.5136478,https://maps.google.com/?cid=0x0:0x3c1399f82ed52514,
cafe,cafe,Gorontalo 96524,"Kec. Tolinggula, Kabupaten Gorontalo Utara, Gorontalo","Kabupaten Gorontalo Utara, Gorontalo",GORONTALO,,Indonesia,,,,0.9280512,122.2200065,https://maps.google.com/?cid=0x0:0xd3efad24a9000eb8,
cafe,Restoran,UP CAFE,"Kec. Tolinggula, Kec. Biau, Kabupaten Gorontalo Utara, Gorontalo 96523","Kec. Biau, Kabupaten Gorontalo Utara",GORONTALO,96523.0,Indonesia,85214988602.0,,,0.9889857,122.2141455,https://maps.google.com/?cid=0x0:0x1bf3694e845ca363,
cafe,Kedai Kopi,Cafe Pinggir Pantai,"26F2+XW9, Tolinggula Pantai, Paleleh, Kabupaten Gorontalo Utara, Gorontalo 96524","Tolinggula Pantai, Paleleh, Kabupaten Gorontalo Utara",GORONTALO,96524.0,Indonesia,,,,1.0249434,122.2024402,https://maps.google.com/?cid=0x0:0x6f0ca880c7a24a58,
cafe,Kedai Kopi,Nirwana cafe,"Jln buol gorontalo patahe no 2, Tolinggula Tengah, Kabupaten Gorontalo Utara","Kabupaten Gorontalo Utara, Sulawesi Tengah",GORONTALO,,Indonesia,,,,1.0147816,122.1715296,https://maps.google.com/?cid=0x0:0x592c5c7eef669234,
cafe,Motel,Rumah Makan Otabi'u,"2592+8PM, Tolinggula Ulu, Kec. Tolinggula, Kabupaten Gorontalo Utara, Gorontalo 94568","Tolinggula Ulu, Kec. Tolinggula, Kabupaten Gorontalo Utara",GORONTALO,94568.0,Indonesia,85330774444.0,,,1.0183424,122.1517954,https://maps.google.com/?cid=0x0:0x58997b63b941c68d,
cafe,Kedai Kopi,Bilal  Bilqis cafe,"2589+2G6, DESA, Tengah, Kec. Tolinggula, Kabupaten Gorontalo Utara, Gorontalo 94568","DESA, Tengah, Kec. Tolinggula, Kabupaten Gorontalo Utara",GORONTALO,94568.0,Indonesia,,,,1.0150457,122.1687648,https://maps.google.com/?cid=0x0:0x134353919acd9c40,
cafe,Kedai Kopi,RaJawali Food Court,"Lapangan RAJAWALI, Umu, Kec. Tolinggula, Kabupaten Buol, Gorontalo 96255","Umu, Kec. Tolinggula, Kabupaten Buol",GORONTALO,96255.0,Indonesia,82393947980.0,,,1.0148663,122.1747738,https://maps.google.com/?cid=0x0:0xd40ca14a09d12fd6,
cafe,Restoran,KEDAI LI' TATA,"244X+G4F, Desa, ilotunggula, Kec. Tolinggula, Kabupaten Gorontalo Utara, Sulawesi Tengah","Kabupaten Gorontalo Utara, Sulawesi Tengah",GORONTALO,,Indonesia,82347482824.0,,,1.006324,122.147791,https://maps.google.com/?cid=0x0:0x63036741f151dd2e,
cafe,Pasar,Pasar Tolinggula Ulu,"X4JM+MWX, Tolinggula Ulu, Kec. Tolinggula, Kabupaten Gorontalo Utara, Gorontalo 96524","Tolinggula Ulu, Kec. Tolinggula, Kabupaten Gorontalo Utara",GORONTALO,96524.0,Indonesia,,,,0.9817282,122.1348629,https://maps.google.com/?cid=0x0:0xf39cce28e1c4b8ce,
cafe,cafe,Kantin DARUSKIF,"X6J7+Q5W, Bulontio - Tolinggula, Biawu, Kec. Tolinggula, Kabupaten Gorontalo Utara, Gorontalo 96524","Bulontio - Tolinggula, Biawu, Kec. Tolinggula, Kabupaten Gorontalo Utara",GORONTALO,96524.0,Indonesia,,,,0.9819859,122.2129451,https://maps.google.com/?cid=0x0:0x570e5e35ed4f590e,
cafe,Kedai Kopi,mas pirang,"X5CJ+C25, Potanga, Kec. Tolinggula, Kabupaten Gorontalo Utara, Gorontalo 96524","Potanga, Kec. Tolinggula, Kabupaten Gorontalo Utara",GORONTALO,96524.0,Indonesia,,,,0.9710219,122.1801134,https://maps.google.com/?cid=0x0:0x98c804806122f602,
cafe,Makanan Kecil,Warkop Anindra,"X6RJ+X8C, Desa topi Kecamatan Biau, Windu, Kec. Tolinggula, Kabupaten Gorontalo Utara, Gorontalo 96524","Desa topi Kecamatan Biau, Windu, Kec. Tolinggula, Kabupaten Gorontalo Utara",GORONTALO,96524.0,Indonesia,82272974697.0,,,0.9924286,122.2307587,https://maps.google.com/?cid=0x0:0x3b9d9c04e258ff46,
cafe,Kedai Kopi,Wisata pantai indah 55,"2677+9P4, Tolinggula Pantai, Kec. Tolinggula, Kabupaten Gorontalo Utara, Gorontalo 96524","Tolinggula Pantai, Kec. Tolinggula, Kabupaten Gorontalo Utara",GORONTALO,96524.0,Indonesia,,,,1.0133811,122.2143323,https://maps.google.com/?cid=0x0:0x90c5644b1469684f,
cafe,Kios,Kios Firly,"X6R7+F8V, Windu, Kec. Tolinggula, Kabupaten Gorontalo Utara, Gorontalo 96524","Windu, Kec. Tolinggula, Kabupaten Gorontalo Utara",GORONTALO,96524.0,Indonesia,82353142478.0,,,0.9903822,122.2132052,https://maps.google.com/?cid=0x0:0xef9f49135588deb9,
cafe,Rumah Makan,Kedai Banthayo Le BENO ( Ayam Geprek Jumbo ),"X6M6+V5Q, Desa Omuto, Biak, Biawu, Kec. Tolinggula, Kabupaten Gorontalo Utara, Gorontalo 96524","Desa Omuto, Biak, Biawu, Kec. Tolinggula, Kabupaten Gorontalo Utara",GORONTALO,96524.0,Indonesia,82193974669.0,,,0.9847091,122.2104928,https://maps.google.com/?cid=0x0:0xa28d78321012e4ec,
cafe,Restoran,RM Pelangi,"X6W9+WC9, Jl. Buol - Gorontalo, Windu, Kec. Tolinggula, Kabupaten Gorontalo Utara, Gorontalo 96524","Jl. Buol - Gorontalo, Windu, Kec. Tolinggula, Kabupaten Gorontalo Utara",GORONTALO,96524.0,Indonesia,,,,0.9985977,122.2188832,https://maps.google.com/?cid=0x0:0xa4a43003dd232a80,
cafe,Restoran,Rumah Makan UNGU,"X69G+M92, Jl. Buol - Gorontalo, Didingga, Kec. Tolinggula, Kabupaten Gorontalo Utara, Gorontalo 96524","Jl. Buol - Gorontalo, Didingga, Kec. Tolinggula, Kabupaten Gorontalo Utara",GORONTALO,96524.0,Indonesia,,,,0.9691403,122.2258927,https://maps.google.com/?cid=0x0:0x16c5d3b1e1b8e4c3,
cafe,Restoran,Cattering olamita,"2574+429, Dusun hepu utara, Tolinggula Ulu, Kec. Tolinggula, Kabupaten Gorontalo Utara, Gorontalo 94568","Dusun hepu utara, Tolinggula Ulu, Kec. Tolinggula, Kabupaten Gorontalo Utara",GORONTALO,94568.0,Indonesia,82194084644.0,,,1.0127766,122.1550963,https://maps.google.com/?cid=0x0:0x3da06db843747bc7,
cafe,Toko,CAHAYA LANGIT MART,"2573+WXP, Jl. Buol - Gorontalo, Tolite Jaya, Kec. Tolinggula, Kabupaten Gorontalo Utara, Gorontalo 96524","Jl. Buol - Gorontalo, Tolite Jaya, Kec. Tolinggula, Kabupaten Gorontalo Utara",GORONTALO,96524.0,Indonesia,8122226070.0,,,1.014828,122.154964,https://maps.google.com/?cid=0x0:0xe753a185267c92d5,
cafe,Komplek perumahan,Warung makan Ammar,"258G+223, Tolinggula Tengah, Kec. Tolinggula, Kabupaten Gorontalo Utara, Gorontalo 94568","Tolinggula Tengah, Kec. Tolinggula, Kabupaten Gorontalo Utara",GORONTALO,94568.0,Indonesia,81347930946.0,,,1.0150191,122.1750319,https://maps.google.com/?cid=0x0:0x799747001129cbf,
cafe,cafe,Gulis pakaya,"X5FP+59, Potanga, Kec. Tolinggula, Kabupaten Gorontalo Utara, Gorontalo","Kabupaten Gorontalo Utara, Gorontalo",GORONTALO,,Indonesia,,,,0.9729075,122.1858553,https://maps.google.com/?cid=0x0:0xc4f511bd65a65315,
cafe,Pasar,Pasar Minggu Tolinggula Ulu,"2563+RVF, Tolinggula Ulu, Kec. Tolinggula, Kabupaten Gorontalo Utara, Gorontalo 94568","Tolinggula Ulu, Kec. Tolinggula, Kabupaten Gorontalo Utara",GORONTALO,94568.0,Indonesia,,,,1.0120635,122.1546838,https://maps.google.com/?cid=0x0:0xc893e837f228b187,
cafe,Warnet,Klinik A_Ekinerja,"Tolinggula Ulu, Kec. Tolinggula, Kabupaten Gorontalo Utara, Gorontalo 96524","Kec. Tolinggula, Kabupaten Gorontalo Utara",GORONTALO,96524.0,Indonesia,,,,0.983976,122.136195,https://maps.google.com/?cid=0x0:0x35ea6a7c36eadabe,
cafe,Kafe,Tik-Tok Cafe,"RWM9+259, Titidu, Kec. Kwandang, Kabupaten Gorontalo Utara, Gorontalo 96252","Titidu, Kec. Kwandang, Kabupaten Gorontalo Utara",GORONTALO,96252.0,Indonesia,85146464469.0,,,0.8325379,122.9179918,https://maps.google.com/?cid=0x0:0xa714b7bf647abaad,
cafe,cafe,Gorontalo 96252,"Kec. Kwandang, Kabupaten Gorontalo Utara, Gorontalo","Kabupaten Gorontalo Utara, Gorontalo",GORONTALO,,Indonesia,,,,0.8083426,122.9212265,https://maps.google.com/?cid=0x0:0x8516fb933d27785f,
cafe,Toko Swalayan,POJOK ABDOL,"QVM7+HXQ, Jl. Trans Sulawesi, Molingkapoto, Kec. Kwandang, Kabupaten Gorontalo Utara, Gorontalo 96252","Jl. Trans Sulawesi, Molingkapoto, Kec. Kwandang, Kabupaten Gorontalo Utara",GORONTALO,96252.0,Indonesia,,,,0.7839685,122.8649729,https://maps.google.com/?cid=0x0:0x81fa51be13780d75,
cafe,cafe,Mounlescoffee,"Jl. Sarini Abdullah, Limba U2, Kota Sel., Kota Gorontalo, Gorontalo 96138","Limba U2, Kota Sel., Kota Gorontalo",GORONTALO,96138.0,Indonesia,81234310420.0,,,0.5523349,123.05265,https://maps.google.com/?cid=0x0:0x7c18765bd5e42c2f,
cafe,Kedai Kopi,Dellacious Coffee Vol.2,"Jl. Jend. Sudirman, Limba U I, Kota Sel., Kota Gorontalo, Gorontalo 96138","Limba U I, Kota Sel., Kota Gorontalo",GORONTALO,96138.0,Indonesia,85398326660.0,,,0.5526241,123.0612668,https://maps.google.com/?cid=0x0:0x48f9b7473df1c083,
cafe,Restoran,Hantaleya Cafe,"Hantaleya Cafe, Jl. Samsu Biya No.106, Kayubulan, Kec. Limboto, Kabupaten Gorontalo, Gorontalo 96181","Jl. Samsu Biya No.106, Kayubulan, Kec. Limboto, Kabupaten Gorontalo",GORONTALO,96181.0,Indonesia,81255566609.0,,,0.6306237,122.9831256,https://maps.google.com/?cid=0x0:0x6907cf418c0daf52,
cafe,Kafe,Tanjung Perintis Coffee and Eatery,"G4WW+QX, Huluduotamo, Kec. Suwawa, Kabupaten Bone Bolango, Gorontalo","Kabupaten Bone Bolango, Gorontalo",GORONTALO,,Indonesia,,,,0.5461382,123.146682,https://maps.google.com/?cid=0x0:0x804b2431694a915e,
cafe,Restoran,ANGELATO,"Jl. Sultan Hassanudin No.3, RT.01/RW.01, Biawao, Kota Sel., Kota Gorontalo, Gorontalo 96133","RT.01/RW.01, Biawao, Kota Sel., Kota Gorontalo",GORONTALO,96133.0,Indonesia,82257337777.0,,,0.5310769,123.058728,https://maps.google.com/?cid=0x0:0x2e3e6cb700794bfb,
cafe,Kantor Perusahaan,GOPOS CAFE,"Jl. Rusli Datau I, Dulomo Sel., Kec. Kota Utara, Kota Gorontalo, Gorontalo 96128","Dulomo Sel., Kec. Kota Utara, Kota Gorontalo",GORONTALO,96128.0,Indonesia,81943418887.0,,,0.5681563,123.072806,https://maps.google.com/?cid=0x0:0x3422657d63f1eb25,
cafe,Kedai Kopi,Bantayo Lo kopi melito huludu lipu,"J2V6+WVG, Talumelito, Kec. Telaga Biru, Kabupaten Gorontalo, Gorontalo 96137","Talumelito, Kec. Telaga Biru, Kabupaten Gorontalo",GORONTALO,96137.0,Indonesia,85240496190.0,,,0.6448155,123.0122154,https://maps.google.com/?cid=0x0:0xd8c92a8a0361548f,
cafe,Kafe,Le KIOZ,"G3V6+2M7, Jl. Nani Wartabone, Limba U I, Kota Sel., Kota Gorontalo, Gorontalo 96135","Jl. Nani Wartabone, Limba U I, Kota Sel., Kota Gorontalo",GORONTALO,96135.0,Indonesia,,,,0.5425304,123.061673,https://maps.google.com/?cid=0x0:0x310b94a0fe0481bc,
cafe,Kedai Kopi,medley cafe gorontalo,"Jl. D.I. Panjaitan No.81, Limba U I, Kota Sel., Kota Gorontalo, Gorontalo 96135","Limba U I, Kota Sel., Kota Gorontalo",GORONTALO,96135.0,Indonesia,82292499430.0,,,0.5488271,123.0624621,https://maps.google.com/?cid=0x0:0x220e4374fb0b8e79,
cafe,Kedai Kopi,Kedai GoodTime,"QVRF+HGG, Molingkapoto, Kec. Kwandang, Kabupaten Gorontalo Utara, Gorontalo 96252","Molingkapoto, Kec. Kwandang, Kabupaten Gorontalo Utara",GORONTALO,96252.0,Indonesia,85242613434.0,,,0.7914397,122.8738218,https://maps.google.com/?cid=0x0:0xd1d2d32397b804c7,
cafe,Kedai Kopi,TDT Coffee Roaster,"H336+572, Jl. Jend. Sudirman, Limba U I, Kota Sel., Kota Gorontalo, Gorontalo 96138","Jl. Jend. Sudirman, Limba U I, Kota Sel., Kota Gorontalo",GORONTALO,96138.0,Indonesia,85237751234.0,,,0.5528799,123.0606388,https://maps.google.com/?cid=0x0:0x24f41be71713c001,
cafe,Restoran,Roemah Marly,"Siendeng, Kec. Hulonthalangi, Kabupaten Gorontalo, Gorontalo 96133","Kec. Hulonthalangi, Kabupaten Gorontalo",GORONTALO,96133.0,Indonesia,82187781868.0,,,0.5324426,123.0561599,https://maps.google.com/?cid=0x0:0x319b21dafa021f7d,
cafe,Kedai Kopi,Serenity cafe,"Hutuo, Kec. Limboto, Kabupaten Gorontalo, Gorontalo 96214","Kec. Limboto, Kabupaten Gorontalo",GORONTALO,96214.0,Indonesia,,,,0.625574,123.0012953,https://maps.google.com/?cid=0x0:0x3f1e9e34cdca379f,
cafe,Kafe,Depula Li Binor,"H2JQ+PH4, Jl. Pintas, Mongolato, Kec. Telaga, Kabupaten Gorontalo, Gorontalo 96181","Jl. Pintas, Mongolato, Kec. Telaga, Kabupaten Gorontalo",GORONTALO,96181.0,Indonesia,83132617546.0,,,0.581764,123.038947,https://maps.google.com/?cid=0x0:0x32b48f1e185e533c,
cafe,cafe,52 Cafe and Eatery,"Jl. Ahmad A. Wahab, Pentadio Bar., Kec. Telaga Biru, Kabupaten Gorontalo, Gorontalo 96183","Pentadio Bar., Kec. Telaga Biru, Kabupaten Gorontalo",GORONTALO,96183.0,Indonesia,,,,0.6225617,123.008085,https://maps.google.com/?cid=0x0:0xb855fd2866fced05,
cafe,Kafe,Equil Cofee Depan Polda,"H2VJ+FCM, Jln Limboto Raya, Pantungo, Kec. Telaga Biru, Kabupaten Gorontalo, Gorontalo 96181","Jln Limboto Raya, Pantungo, Kec. Telaga Biru, Kabupaten Gorontalo",GORONTALO,96181.0,Indonesia,81340741741.0,,,0.5937066,123.031062,https://maps.google.com/?cid=0x0:0xd3a994901c850e90,
cafe,Kedai Kopi,Cafe TampaDudu,"MJGJ+77G, Unnamed Road, Sidodadi, Kec. Boliyohuto, Kabupaten Gorontalo, Gorontalo 96127","Unnamed Road, Sidodadi, Kec. Boliyohuto, Kabupaten Gorontalo",GORONTALO,96127.0,Indonesia,85240578182.0,,,0.6756927,122.6306884,https://maps.google.com/?cid=0x0:0xa1a0ad0ac6224370,
cafe,Kedai Kopi,WarkopD2Jaya,"HX65+679, Ilohungayo, Kec. Batudaa, Kabupaten Gorontalo, Gorontalo 96271","Ilohungayo, Kec. Batudaa, Kabupaten Gorontalo",GORONTALO,96271.0,Indonesia,,,,0.5605454,122.9582397,https://maps.google.com/?cid=0x0:0x6e47232fd62e4325,
cafe,Kedai Kopi,Lokita Gorontalo,"Jl. Raja Wadipalapa, Tilote, Kec. Tilango, Kabupaten Gorontalo, Gorontalo 96181","Tilote, Kec. Tilango, Kabupaten Gorontalo",GORONTALO,96181.0,Indonesia,8114314071.0,,,0.5585774,123.0233161,https://maps.google.com/?cid=0x0:0x5335faff2cf54474,
cafe,Kedai Kopi,Drink Booth 'Bistro,"Heledulaa Sel., Kec. Kota Tim., Kota Gorontalo, Gorontalo 96134","Kec. Kota Tim., Kota Gorontalo",GORONTALO,96134.0,Indonesia,81355782807.0,,,0.5368247,123.0638787,https://maps.google.com/?cid=0x0:0x859444856814ca63,
