Category,Real Category,Business Name,Address,City,State,Postal Code,Country,Phone,Email,Website,Latitude,Longitude,Map Link,Details Link
building materials,building materials,Gorontalo 96525,"Kec. Anggrek, Kabupaten Gorontalo Utara, Gorontalo","Kabupaten Gorontalo Utara, Gorontalo",GORONTALO,,Indonesia,,,,0.8425794,122.695547,https://maps.google.com/?cid=0x0:0xc910c3a3b1bab734,
building materials,Toko Swalayan,TOKO STAR NR,"Jl. Buol - Gorontalo, Tolango, Kec. Anggrek, Kabupaten Gorontalo Utara, Gorontalo 96525","Tolango, Kec. Anggrek, Kabupaten Gorontalo Utara",GORONTALO,96525.0,Indonesia,85246546788.0,,,0.8521141,122.7561998,https://maps.google.com/?cid=0x0:0x3e5185fbc3a9970,
building materials,Toko Swalayan,Toko FIRMAN BANGUNAN,"RQWH+JV7, Ilangata, Kec. Anggrek, Kabupaten Gorontalo Utara, Gorontalo 96525","Ilangata, Kec. Anggrek, Kabupaten Gorontalo Utara",GORONTALO,96525.0,Indonesia,,,,0.8465381,122.7796794,https://maps.google.com/?cid=0x0:0x86ca17fa7678d820,
building materials,Toko Bahan Bangunan,Toko bangunan setia baru,"QVJ5+M3X, Unnamed Road, Pontolo, Kec. Kwandang, Kabupaten Gorontalo Utara, Gorontalo 96252","Unnamed Road, Pontolo, Kec. Kwandang, Kabupaten Gorontalo Utara",GORONTALO,96252.0,Indonesia,,,,0.781745,122.857737,https://maps.google.com/?cid=0x0:0x6b95fe99a2fc56be,
building materials,Toko Bahan Bangunan,Eki Bangunan,"Desa Alata Karya, Kec. Kwandang, Kabupaten Gorontalo Utara, Gorontalo 00000","Kec. Kwandang, Kabupaten Gorontalo Utara",GORONTALO,0.0,Indonesia,82346758169.0,,,0.8132067,122.8967632,https://maps.google.com/?cid=0x0:0x99aadd8bcfc11201,
building materials,Toko Bahan Bangunan,UD SHAFIYAH BERKAH,"WHXM+9JH, Dulukapa, Kec. Sumalata, Kabupaten Gorontalo Utara, Gorontalo 96254","Dulukapa, Kec. Sumalata, Kabupaten Gorontalo Utara",GORONTALO,96254.0,Indonesia,,,,0.9484378,122.5841229,https://maps.google.com/?cid=0x0:0x4d412b08cb118540,
building materials,Toko Bahan Bangunan,Toko Zafran Bangunan,"Leboto, Kec. Kwandang, Kabupaten Gorontalo Utara, Gorontalo 96252","Kec. Kwandang, Kabupaten Gorontalo Utara",GORONTALO,96252.0,Indonesia,85298114647.0,,,0.8054214,122.884083,https://maps.google.com/?cid=0x0:0xd3db31c3164925dc,
building materials,building materials,King depo,"Unnamed Road, Sukamakmur, Kec. Tolangohula, Kabupaten Gorontalo, Gorontalo 96264","Sukamakmur, Kec. Tolangohula, Kabupaten Gorontalo",GORONTALO,96264.0,Indonesia,,,,0.7001209,122.5611492,https://maps.google.com/?cid=0x0:0xb790658136a6bd54,
building materials,Otoritas Pelabuhan,KPBU Pelabuhan Anggrek,"Pelabuhan, Ilangata, Kec. Anggrek, Kabupaten Gorontalo Utara, Gorontalo 96525","Ilangata, Kec. Anggrek, Kabupaten Gorontalo Utara",GORONTALO,96525.0,Indonesia,81341812348.0,,,0.8586546,122.7942525,https://maps.google.com/?cid=0x0:0x47d029b6ad02975a,
building materials,Toko Bahan Bangunan,Toko Sinar Anggrek,"Karangsatria, Kec. Tambun Utara, Kabupaten Bekasi, Jawa Barat 17510","Kec. Tambun Utara, Kabupaten Bekasi",GORONTALO,17510.0,Indonesia,81289103879.0,,,-6.2266891,107.0445096,https://maps.google.com/?cid=0x0:0xd325cbdcf5043810,
building materials,Toko Bahan Bangunan,Joss Bangunan,"QVRC+WR4, Jl. Trans Sulawesi, Molingkapoto, Kec. Kwandang, Kabupaten Gorontalo Utara, Gorontalo","Kabupaten Gorontalo Utara, Gorontalo",GORONTALO,,Indonesia,,,,0.7922681,122.8720675,https://maps.google.com/?cid=0x0:0x56d2c2bb2cae586b,
building materials,Produsen Rangka Baja Atap,Wija Truss,"Jl. Cipinang Jaya Raya No.98, Cipinang Muara, Kecamatan Jatinegara, Kota Jakarta Timur, Daerah Khusus Ibukota Jakarta 13420","Cipinang Muara, Kecamatan Jatinegara, Kota Jakarta Timur",GORONTALO,13420.0,Indonesia,81319365757.0,,,-6.224563,106.8850544,https://maps.google.com/?cid=0x0:0x5e3c4d957f213cad,
building materials,Toko Bahan Bangunan,Okabe Gallery Alam Sutera,"QM66+Q46, Jalur Sutera No.32A, Pakualam, Kec. Serpong Utara, Kota Tangerang Selatan, Banten 15320","Jalur Sutera No.32A, Pakualam, Kec. Serpong Utara, Kota Tangerang Selatan",GORONTALO,15320.0,Indonesia,82118888519.0,,,-6.2381706,106.6605396,https://maps.google.com/?cid=0x0:0x685a953a8450fdbb,
building materials,building materials,Gorontalo 96253,"Kabupaten Gorontalo Utara, Gorontalo","Kabupaten Gorontalo Utara, Gorontalo",GORONTALO,,Indonesia,,,,0.8707926,123.1014056,https://maps.google.com/?cid=0x0:0xfa82e81a2bd61d81,
building materials,Toko Bahan Bangunan,Tb Zafran bangunan,"RWJ8+GQ7, Titidu, Kec. Kwandang, Kabupaten Gorontalo Utara, Gorontalo 96252","Titidu, Kec. Kwandang, Kabupaten Gorontalo Utara",GORONTALO,96252.0,Indonesia,858114647.0,,,0.8316745,122.917207,https://maps.google.com/?cid=0x0:0x7fcde8f88e68b96,
building materials,Toko Bahan Bangunan,UD IIN BANGUNAN,"RWJ8+9Q8, Titidu, Kec. Kwandang, Kabupaten Gorontalo Utara, Gorontalo 96252","Titidu, Kec. Kwandang, Kabupaten Gorontalo Utara",GORONTALO,96252.0,Indonesia,85298114647.0,,,0.8309223,122.9169546,https://maps.google.com/?cid=0x0:0x24029f85ad67b515,
building materials,Toko Bahan Bangunan,Toko Sinar Jaya,"RWM9+56H, Titidu, Kec. Kwandang, Kabupaten Gorontalo Utara, Gorontalo 96252","Titidu, Kec. Kwandang, Kabupaten Gorontalo Utara",GORONTALO,96252.0,Indonesia,85240579502.0,,,0.8329441,122.9181154,https://maps.google.com/?cid=0x0:0xc9ba80594d558e48,
building materials,Toko Perlengkapan Rumah,TOKO CELA GENTUMA,"W2FP+W3P, Gentuma, Kec. Gentuma Raya, Kabupaten Gorontalo Utara, Gorontalo 96253","Gentuma, Kec. Gentuma Raya, Kabupaten Gorontalo Utara",GORONTALO,96253.0,Indonesia,82188589754.0,,,0.9248489,123.0352114,https://maps.google.com/?cid=0x0:0x3836de955066973c,
building materials,Toko Bahan Bangunan,Sinar Bangunan Gorontalo,"Jalan Kasuari Baru No.8, Heledulaa, Kota Timur, Heledulaa, Gorontalo, Kota Gorontalo, Gorontalo 96135","Heledulaa, Kota Timur, Heledulaa, Gorontalo, Kota Gorontalo",GORONTALO,96135.0,Indonesia,82194995146.0,,,0.5459753,123.0653457,https://maps.google.com/?cid=0x0:0xf278c2a9fcd91c78,
building materials,Toko Bahan Bangunan,Toko A TIGA BANGUNAN,"G3H6+QW4, Bugis, Kec. Kota Tim., Kota Gorontalo, Gorontalo 96133","Bugis, Kec. Kota Tim., Kota Gorontalo",GORONTALO,96133.0,Indonesia,,,,0.5293892,123.0623249,https://maps.google.com/?cid=0x0:0xb90ee6079d9ad250,
building materials,Toko Bahan Bangunan,Toko Brillian bangunan,"Jl. Andalas, Tapa, Kec. Sipatana, Kota Gorontalo, Gorontalo 96138","Tapa, Kec. Sipatana, Kota Gorontalo",GORONTALO,96138.0,Indonesia,8999777249.0,,,0.5706802,123.0588042,https://maps.google.com/?cid=0x0:0xa6b60637baaf429f,
building materials,Toko Bahan Bangunan,Toko Bangunan,"Unnamed Road No.96138, Tapa, Kec. Sipatana, Kabupaten Gorontalo, Gorontalo 96138","Tapa, Kec. Sipatana, Kabupaten Gorontalo",GORONTALO,96138.0,Indonesia,,,,0.5736978,123.0555801,https://maps.google.com/?cid=0x0:0x7fbf59038733c1f2,
building materials,Toko Bahan Bangunan,Toko Bangunan Dipta,"W55R+77X, Jl. Trans Sulawesi, Tuntung Tim., Kec. Pinogaluman, Kabupaten Bolaang Mongondow Utara, Sulawesi Utara","Kabupaten Bolaang Mongondow Utara, Sulawesi Utara",GORONTALO,,Indonesia,,,,0.9082313,123.1907257,https://maps.google.com/?cid=0x0:0x8804fc0c16f5667c,
building materials,Toko Bahan Bangunan,Toko Salsabila Ainun,"W855+CMW, I, Bolangitang, Kec. Bolang Itang Bar., Kabupaten Bolaang Mongondow Utara, Sulawesi Utara","Kabupaten Bolaang Mongondow Utara, Sulawesi Utara",GORONTALO,,Indonesia,,,,0.908624,123.3091891,https://maps.google.com/?cid=0x0:0xa811d25977c05b86,
building materials,Toko Bahan Bangunan,Toko Roffy Jaya,"W73C+H5M, Bigo, Kec. Kaidipang, Kabupaten Bolaang Mongondow Utara, Sulawesi Utara","Kabupaten Bolaang Mongondow Utara, Sulawesi Utara",GORONTALO,,Indonesia,81225533972.0,,,0.9039635,123.27042,https://maps.google.com/?cid=0x0:0xe200e5b4216a47d2,
building materials,Toko Bahan Bangunan,UD.SINAR NAJWA,"Jalan Trans Sulawesi Manado Gorontalo.36, Keakar, Dusun 1, Boroko, Kec. Kaidipang, Kabupaten Bolaang Mongondow Utara, Sulawesi Utara","Kabupaten Bolaang Mongondow Utara, Sulawesi Utara",GORONTALO,,Indonesia,82191655859.0,,,0.9052344,123.2556191,https://maps.google.com/?cid=0x0:0x1b430d379f12d434,
building materials,Toko Bahan Bangunan,Toko Bangunan Istana Bangunan,"Jl. D.I. Panjaitan, Limba U I, Kota Sel., Kota Gorontalo, Gorontalo 96135","Limba U I, Kota Sel., Kota Gorontalo",GORONTALO,96135.0,Indonesia,,,,0.5481889,123.062409,https://maps.google.com/?cid=0x0:0xb8e64cbbbe885a9a,
building materials,Toko Bahan Bangunan,Bangunan Jaya Toko,"JL. Mayjen DI Panjaitan No.3396111, Limba U Satu, South Kota, Kota Gorontalo, Gorontalo 96135","Limba U Satu, South Kota, Kota Gorontalo",GORONTALO,96135.0,Indonesia,85930982366.0,,,0.544945,123.0618261,https://maps.google.com/?cid=0x0:0x97f173e9fe54e794,
building materials,Gudang,Pergudangan TELAGA BIRU GORONTALO,"J23G+X87, Jl. Adam Poliyama, Tinelo, Kec. Telaga Biru, Kabupaten Gorontalo, Gorontalo 96181","Jl. Adam Poliyama, Tinelo, Kec. Telaga Biru, Kabupaten Gorontalo",GORONTALO,96181.0,Indonesia,,,,0.6049122,123.0258143,https://maps.google.com/?cid=0x0:0x1abb8416161304e1,
building materials,Toko Bahan Bangunan,UD.Cahaya Jaya,"W74C+MC7, Jl. Pelabuhan, Boroko Tim., Kec. Kaidipang, Kabupaten Bolaang Mongondow Utara, Sulawesi Utara","Kabupaten Bolaang Mongondow Utara, Sulawesi Utara",GORONTALO,,Indonesia,,,,0.906664,123.2710384,https://maps.google.com/?cid=0x0:0x7f313351a5353c1a,
building materials,Toko Bahan Bangunan,Toko Naulas,"W836+F7X, Bolangitang, Kec. Bolang Itang Bar., Kabupaten Bolaang Mongondow Utara, Sulawesi Utara","Kabupaten Bolaang Mongondow Utara, Sulawesi Utara",GORONTALO,,Indonesia,,,,0.9037345,123.3107313,https://maps.google.com/?cid=0x0:0x77429f25fd08e7ea,
building materials,building materials,Jual batako,"V4V9+94M, Pinontoyonga, Kec. Atinggola, Kabupaten Gorontalo Utara, Gorontalo 96253","Pinontoyonga, Kec. Atinggola, Kabupaten Gorontalo Utara",GORONTALO,96253.0,Indonesia,,,,0.893778,123.117707,https://maps.google.com/?cid=0x0:0x1175312dfbb9b0b7,
building materials,building materials,Batako Berlian Idris Biahimo,"W2JR+P7R, Jl. Pelabuhan, Gentuma, Kec. Gentuma Raya, Kabupaten Gorontalo Utara, Gorontalo 96253","Jl. Pelabuhan, Gentuma, Kec. Gentuma Raya, Kabupaten Gorontalo Utara",GORONTALO,96253.0,Indonesia,,,,0.9318663,123.0406503,https://maps.google.com/?cid=0x0:0xfb0b1265f9a2cd26,
building materials,Toko Bahan Bangunan,Mitra Home Depo,"Jl. Palma No.43, Huangobotu, Kec. Dungingi, Kota Gorontalo, Gorontalo 96136","Huangobotu, Kec. Dungingi, Kota Gorontalo",GORONTALO,96136.0,Indonesia,82194658961.0,,,0.5589725,123.0381063,https://maps.google.com/?cid=0x0:0x8c7c0dc82938b9e9,
building materials,Toko,Toko Sinar terang gorontalo agen terpal,"Pantungo, Kec. Telaga Biru, Kabupaten Gorontalo, Gorontalo 96181","Kec. Telaga Biru, Kabupaten Gorontalo",GORONTALO,96181.0,Indonesia,,,,0.5971551,123.0331881,https://maps.google.com/?cid=0x0:0xba7efc0352ca89e9,
building materials,Toko Bahan Bangunan,Toko Babul Rizky,"W74C+FHH, Kuala, Kec. Kaidipang, Kabupaten Bolaang Mongondow Utara, Sulawesi Utara","Kabupaten Bolaang Mongondow Utara, Sulawesi Utara",GORONTALO,,Indonesia,,,,0.9061913,123.2714797,https://maps.google.com/?cid=0x0:0x6b70789c19fe4d8e,
building materials,Toko Bahan Bangunan,PERSADA BANGUNAN,"Jl. Trans Jl. Buol - Gorontalo, Leok II, Kec. Biau, Kabupaten Buol, Sulawesi Tengah","Kabupaten Buol, Sulawesi Tengah",GORONTALO,,Indonesia,85256442121.0,,,1.1752547,121.4248818,https://maps.google.com/?cid=0x0:0x163c6529a29c4949,
building materials,Toko Bahan Bangunan,Toko Harapan Sejati,"Buol, Kec. Biau, Kabupaten Buol, Sulawesi Tengah 94565","Kec. Biau, Kabupaten Buol",GORONTALO,94565.0,Indonesia,,,,1.1573291,121.4381175,https://maps.google.com/?cid=0x0:0xb3f28a1fabecbb48,
building materials,Toko Bahan Bangunan,Sinar Harapan Gudang bahan bangunan,"Jl. Yusuf Hasiru, Tanggikiki, Kec. Sipatana, Kota Gorontalo, Gorontalo 96128","Tanggikiki, Kec. Sipatana, Kota Gorontalo",GORONTALO,96128.0,Indonesia,82292336178.0,,,0.5758642,123.064933,https://maps.google.com/?cid=0x0:0x25d66de5f4b7b08e,
building materials,Tempat Parkir,Biau,"X6J7+W88, Jl. Buol - Gorontalo, Biawu, Kec. Tolinggula, Kabupaten Gorontalo Utara, Gorontalo 96524","Jl. Buol - Gorontalo, Biawu, Kec. Tolinggula, Kabupaten Gorontalo Utara",GORONTALO,96524.0,Indonesia,,,,0.982294,122.213335,https://maps.google.com/?cid=0x0:0x52f14f990728822,
building materials,Toko Bahan Bangunan,Toko Sumber Bangunan,"Jl. Letjend Suprapto No.58, Biawao, Kota Sel., Kota Gorontalo, Gorontalo 96133","Biawao, Kota Sel., Kota Gorontalo",GORONTALO,96133.0,Indonesia,435822623.0,,,0.5350604,123.0577181,https://maps.google.com/?cid=0x0:0xd699a9523a9f34f7,
building materials,Toko Bahan Bangunan,Toko A TIGA BANGUNAN,"G3H6+QW4, Bugis, Kec. Kota Tim., Kota Gorontalo, Gorontalo 96133","Bugis, Kec. Kota Tim., Kota Gorontalo",GORONTALO,96133.0,Indonesia,,,,0.5293892,123.0623249,https://maps.google.com/?cid=0x0:0xb90ee6079d9ad250,
building materials,Toko Bahan Bangunan,Toko Mulia Bangunan,"Jl. Kh. Agus Salim No.29, Limba B, Kota Sel., Kota Gorontalo, Gorontalo 96136","Limba B, Kota Sel., Kota Gorontalo",GORONTALO,96136.0,Indonesia,435829617.0,,,0.545024,123.0535275,https://maps.google.com/?cid=0x0:0xfa6f48fb74c30578,
building materials,Toko Bahan Bangunan,Sinar Bangunan Gorontalo,"Jalan Kasuari Baru No.8, Heledulaa, Kota Timur, Heledulaa, Gorontalo, Kota Gorontalo, Gorontalo 96135","Heledulaa, Kota Timur, Heledulaa, Gorontalo, Kota Gorontalo",GORONTALO,96135.0,Indonesia,82194995146.0,,,0.5459753,123.0653457,https://maps.google.com/?cid=0x0:0xf278c2a9fcd91c78,
building materials,Toko Bahan Bangunan,BJP BANGUNAN GORONTALO,"bjpbangunan@gmail.com, Heledulaa Sel., Kec. Kota Tim., Kota Gorontalo, Gorontalo 96128","Heledulaa Sel., Kec. Kota Tim., Kota Gorontalo",GORONTALO,96128.0,Indonesia,81935027833.0,,,0.5384306,123.0616,https://maps.google.com/?cid=0x0:0xaa9d2db3149eb8a4,
building materials,Toko Bahan Bangunan,TB BAYPASS BANGUNAN,"H44C+GXQ, Iloheluma, Kec. Tilongkabila, Kabupaten Bone Bolango, Gorontalo","Kabupaten Bone Bolango, Gorontalo",GORONTALO,,Indonesia,,,,0.5563285,123.1224989,https://maps.google.com/?cid=0x0:0x401a4dba7c993ef3,
building materials,Toko Bahan Bangunan,TRISADA material bangunan,"H34G+P5X, Jl. KH. Adam Zakaria, Dembe Jaya, Kec. Kota Utara, Kota Gorontalo, Gorontalo 96128","Jl. KH. Adam Zakaria, Dembe Jaya, Kec. Kota Utara, Kota Gorontalo",GORONTALO,96128.0,Indonesia,,,,0.5568584,123.075497,https://maps.google.com/?cid=0x0:0x19a9689184771136,
building materials,Toko Alat-Alat,Toko. Serba Bangunan 2,"G3W2+78Q, Jl. Manggis, Limba B, Kota Sel., Kota Gorontalo, Gorontalo 96136","Jl. Manggis, Limba B, Kota Sel., Kota Gorontalo",GORONTALO,96136.0,Indonesia,,,,0.5457224,123.050872,https://maps.google.com/?cid=0x0:0xd2156b482efdf71a,
building materials,Toko Bahan Bangunan,TK BANGUNAN TIGA BERLIAN,"G3V5+XJ8, Jl. Samratulangi, Limba U I, Kota Sel., Kota Gorontalo, Gorontalo","Kota Gorontalo, Gorontalo",GORONTALO,,Indonesia,,,,0.5449034,123.0590688,https://maps.google.com/?cid=0x0:0xdaeccb39b9998fde,
building materials,Gudang,GUDANG MATRIAL BANGUNAN,"J24G+9CR, Tinelo, Kec. Telaga Biru, Kabupaten Gorontalo, Gorontalo 96181","Tinelo, Kec. Telaga Biru, Kabupaten Gorontalo",GORONTALO,96181.0,Indonesia,81217698859.0,,,0.6060117,123.0258974,https://maps.google.com/?cid=0x0:0x388d5cda697ba1ba,
building materials,Toko Bahan Bangunan,Toko Bangunan JAYA ABADI,"Jl. Selayar No.16, Paguyaman, Kec. Kota Tengah, Kota Gorontalo, Gorontalo 96138","Paguyaman, Kec. Kota Tengah, Kota Gorontalo",GORONTALO,96138.0,Indonesia,435822923.0,,,0.5718216,123.0521067,https://maps.google.com/?cid=0x0:0x19d57d4cd2902ae4,
building materials,Toko Bahan Bangunan,Toko Sumber Bangunan Jaya,"Jl. Kh. Agus Salim No.370, Dulalowo, Kec. Kota Tengah, Kota Gorontalo, Gorontalo 96138","Dulalowo, Kec. Kota Tengah, Kota Gorontalo",GORONTALO,96138.0,Indonesia,85397330090.0,,,0.55702,123.048784,https://maps.google.com/?cid=0x0:0x5b1af1a89190899a,
building materials,Toko Bahan Bangunan,Toko Bangunan Istana Bangunan,"Jl. D.I. Panjaitan, Limba U I, Kota Sel., Kota Gorontalo, Gorontalo 96135","Limba U I, Kota Sel., Kota Gorontalo",GORONTALO,96135.0,Indonesia,,,,0.5481889,123.062409,https://maps.google.com/?cid=0x0:0xb8e64cbbbe885a9a,
building materials,Toko Bahan Bangunan,Toko Bangunan,"Unnamed Road No.96138, Tapa, Kec. Sipatana, Kabupaten Gorontalo, Gorontalo 96138","Tapa, Kec. Sipatana, Kabupaten Gorontalo",GORONTALO,96138.0,Indonesia,,,,0.5736978,123.0555801,https://maps.google.com/?cid=0x0:0x7fbf59038733c1f2,
building materials,Toko Bahan Bangunan,Toko Brillian bangunan,"Jl. Andalas, Tapa, Kec. Sipatana, Kota Gorontalo, Gorontalo 96138","Tapa, Kec. Sipatana, Kota Gorontalo",GORONTALO,96138.0,Indonesia,8999777249.0,,,0.5706802,123.0588042,https://maps.google.com/?cid=0x0:0xa6b60637baaf429f,
building materials,Toko Bahan Bangunan,Bangunan Jaya Toko,"JL. Mayjen DI Panjaitan No.3396111, Limba U Satu, South Kota, Kota Gorontalo, Gorontalo 96135","Limba U Satu, South Kota, Kota Gorontalo",GORONTALO,96135.0,Indonesia,85930982366.0,,,0.544945,123.0618261,https://maps.google.com/?cid=0x0:0x97f173e9fe54e794,
building materials,Pusat Pameran dan Perdagangan,MEGABUILD INDONESIA | The Premier Building  Construction Expo in Indonesia,"Jl. Tanjung Selor No.17A, Cideng, Kecamatan Gambir, Jakarta, Daerah Khusus Ibukota Jakarta 10150","Cideng, Kecamatan Gambir, Jakarta",GORONTALO,10150.0,Indonesia,81110529524.0,,,-6.1701184,106.8042183,https://maps.google.com/?cid=0x0:0x39de69e55f21cc71,
building materials,Toko,TOKO ABADI,"5C7J+GHV, Kali, Kec. Biau, Kabupaten Buol, Sulawesi Tengah 94563","Kali, Kec. Biau, Kabupaten Buol",GORONTALO,94563.0,Indonesia,,,,1.1638534,121.4314175,https://maps.google.com/?cid=0x0:0x4683c5659fbfe060,
building materials,Butik,Kojin Spray,"Jl. Letjen M.T. Haryono No.2003, Cawang, Kec. Pancoran, Kota Jakarta Timur, Daerah Khusus Ibukota Jakarta 12810","Cawang, Kec. Pancoran, Kota Jakarta Timur",GORONTALO,12810.0,Indonesia,88806838333.0,,,-6.2438844,106.8662102,https://maps.google.com/?cid=0x0:0x64b00a8bce961311,
building materials,Tempat Parkir,Biau,"X6J7+W88, Jl. Buol - Gorontalo, Biawu, Kec. Tolinggula, Kabupaten Gorontalo Utara, Gorontalo 96524","Jl. Buol - Gorontalo, Biawu, Kec. Tolinggula, Kabupaten Gorontalo Utara",GORONTALO,96524.0,Indonesia,,,,0.982294,122.213335,https://maps.google.com/?cid=0x0:0x52f14f990728822,
building materials,Wilayah Lintas Alam,Pusat Kecamatan Biau,"X6P8+8QG, Jl. Buol - Gorontalo, Biawu, Kec. Tolinggula, Kabupaten Gorontalo Utara, Gorontalo 96524","Jl. Buol - Gorontalo, Biawu, Kec. Tolinggula, Kabupaten Gorontalo Utara",GORONTALO,96524.0,Indonesia,,,,0.9858198,122.2169458,https://maps.google.com/?cid=0x0:0x49483cbb167b89fe,
building materials,Toko bahan makanan,Winda Home,"X6H7+W6V, Jl. Trans Sulawesi, Bualo, Kec. Biau, Kabupaten Gorontalo Utara, Gorontalo","Kabupaten Gorontalo Utara, Gorontalo",GORONTALO,,Indonesia,,,,0.9798522,122.2130453,https://maps.google.com/?cid=0x0:0x535be985841642d1,
building materials,Pemasok Bahan Bangunan,Toko Bahan Bangunan Sari Agung,"Bulila, Kec. Telaga, Kabupaten Gorontalo, Gorontalo 96138","Kec. Telaga, Kabupaten Gorontalo",GORONTALO,96138.0,Indonesia,82196031500.0,,,0.5765609,123.0449069,https://maps.google.com/?cid=0x0:0x1ec016b864d215a6,
building materials,Toko Bahan Bangunan,Sinar Harapan Gudang bahan bangunan,"Jl. Yusuf Hasiru, Tanggikiki, Kec. Sipatana, Kota Gorontalo, Gorontalo 96128","Tanggikiki, Kec. Sipatana, Kota Gorontalo",GORONTALO,96128.0,Indonesia,82292336178.0,,,0.5758642,123.064933,https://maps.google.com/?cid=0x0:0x25d66de5f4b7b08e,
building materials,building materials,PT Materee Nusantara Utama,,,GORONTALO,,Indonesia,82116463976.0,,,-6.242804,106.796991,https://maps.google.com/?cid=0x0:0x9c89bfa5b47aaf70,
building materials,Pusat Pameran dan Perdagangan,MEGABUILD INDONESIA | The Premier Building  Construction Expo in Indonesia,"Jl. Tanjung Selor No.17A, Cideng, Kecamatan Gambir, Jakarta, Daerah Khusus Ibukota Jakarta 10150","Cideng, Kecamatan Gambir, Jakarta",GORONTALO,10150.0,Indonesia,81110529524.0,,,-6.1701184,106.8042183,https://maps.google.com/?cid=0x0:0x39de69e55f21cc71,
building materials,building materials,Kec. Gentuma Raya,"Kabupaten Gorontalo Utara, Gorontalo","Kabupaten Gorontalo Utara, Gorontalo",GORONTALO,,Indonesia,,,,0.9300102,123.0377072,https://maps.google.com/?cid=0x0:0xc9d73598b0af1e0,
building materials,Toko Perlengkapan Rumah,TOKO CELA GENTUMA,"W2FP+W3P, Gentuma, Kec. Gentuma Raya, Kabupaten Gorontalo Utara, Gorontalo 96253","Gentuma, Kec. Gentuma Raya, Kabupaten Gorontalo Utara",GORONTALO,96253.0,Indonesia,82188589754.0,,,0.9248489,123.0352114,https://maps.google.com/?cid=0x0:0x3836de955066973c,
building materials,building materials,Toko Novy (Pudinhani),"W2JQ+J3X, Jl. Pelabuhan, Gentuma, Kec. Gentuma Raya, Kabupaten Gorontalo Utara, Gorontalo","Kabupaten Gorontalo Utara, Gorontalo",GORONTALO,,Indonesia,,,,0.9316112,123.0377223,https://maps.google.com/?cid=0x0:0xc59705ad5b3d27d8,
building materials,building materials,CV. Berkah Maulana Jaya,"Gentuma, Kec. Gentuma Raya, Kabupaten Gorontalo Utara, Gorontalo 96253","Kec. Gentuma Raya, Kabupaten Gorontalo Utara",GORONTALO,96253.0,Indonesia,85211031686.0,,,0.9277985,123.0385876,https://maps.google.com/?cid=0x0:0x7f78f1e0ed920b5b,
building materials,building materials,Gorontalo 96252,"Kec. Kwandang, Kabupaten Gorontalo Utara, Gorontalo","Kabupaten Gorontalo Utara, Gorontalo",GORONTALO,,Indonesia,,,,0.8083426,122.9212265,https://maps.google.com/?cid=0x0:0x8516fb933d27785f,
building materials,Toko Bahan Bangunan,Toko Sinar Jaya,"RWM9+56H, Titidu, Kec. Kwandang, Kabupaten Gorontalo Utara, Gorontalo 96252","Titidu, Kec. Kwandang, Kabupaten Gorontalo Utara",GORONTALO,96252.0,Indonesia,85240579502.0,,,0.8329441,122.9181154,https://maps.google.com/?cid=0x0:0xc9ba80594d558e48,
building materials,Toko Bahan Bangunan,Toko bangunan setia baru,"QVJ5+M3X, Unnamed Road, Pontolo, Kec. Kwandang, Kabupaten Gorontalo Utara, Gorontalo 96252","Unnamed Road, Pontolo, Kec. Kwandang, Kabupaten Gorontalo Utara",GORONTALO,96252.0,Indonesia,,,,0.781745,122.857737,https://maps.google.com/?cid=0x0:0x6b95fe99a2fc56be,
building materials,Toko Bahan Bangunan,Tb Zafran bangunan,"RWJ8+GQ7, Titidu, Kec. Kwandang, Kabupaten Gorontalo Utara, Gorontalo 96252","Titidu, Kec. Kwandang, Kabupaten Gorontalo Utara",GORONTALO,96252.0,Indonesia,858114647.0,,,0.8316745,122.917207,https://maps.google.com/?cid=0x0:0x7fcde8f88e68b96,
building materials,Toko Bahan Bangunan,Toko Zafran Bangunan,"Leboto, Kec. Kwandang, Kabupaten Gorontalo Utara, Gorontalo 96252","Kec. Kwandang, Kabupaten Gorontalo Utara",GORONTALO,96252.0,Indonesia,85298114647.0,,,0.8054214,122.884083,https://maps.google.com/?cid=0x0:0xd3db31c3164925dc,
building materials,Toko Bahan Bangunan,Eki Bangunan,"Desa Alata Karya, Kec. Kwandang, Kabupaten Gorontalo Utara, Gorontalo 00000","Kec. Kwandang, Kabupaten Gorontalo Utara",GORONTALO,0.0,Indonesia,82346758169.0,,,0.8132067,122.8967632,https://maps.google.com/?cid=0x0:0x99aadd8bcfc11201,
building materials,Toko Bahan Bangunan,Toko Djaya Bangunan,"RV5V+384, Jl. Trans Sulawesi, Leboto, Kec. Kwandang, Kabupaten Gorontalo Utara, Gorontalo 96252","Jl. Trans Sulawesi, Leboto, Kec. Kwandang, Kabupaten Gorontalo Utara",GORONTALO,96252.0,Indonesia,,,,0.8076357,122.8933303,https://maps.google.com/?cid=0x0:0xa14776f647a66c17,
building materials,Toko Bahan Bangunan,Joss Bangunan,"QVRC+WR4, Jl. Trans Sulawesi, Molingkapoto, Kec. Kwandang, Kabupaten Gorontalo Utara, Gorontalo","Kabupaten Gorontalo Utara, Gorontalo",GORONTALO,,Indonesia,,,,0.7922681,122.8720675,https://maps.google.com/?cid=0x0:0x56d2c2bb2cae586b,
building materials,building materials,UD ZIAN Bangunan,"Desa cisadane, Moluo, Kec. Kwandang, Kabupaten Gorontalo Utara, Gorontalo 96252","Moluo, Kec. Kwandang, Kabupaten Gorontalo Utara",GORONTALO,96252.0,Indonesia,,,,0.8370264,122.9128499,https://maps.google.com/?cid=0x0:0xf8c55c675e906a07,
building materials,building materials,EKI BANGUNAN,"RWV7+JM8, Moluo, Kec. Kwandang, Kabupaten Gorontalo Utara, Gorontalo","Kabupaten Gorontalo Utara, Gorontalo",GORONTALO,,Indonesia,82346758169.0,,,0.8440255,122.9142011,https://maps.google.com/?cid=0x0:0xd24435c8212e359a,
building materials,building materials,Kec. Kwandang,"Kabupaten Gorontalo Utara, Gorontalo","Kabupaten Gorontalo Utara, Gorontalo",GORONTALO,,Indonesia,,,,0.8440051,122.9141113,https://maps.google.com/?cid=0x0:0xe19a2158f1ecacf2,
building materials,Toko,Tk LM Sanjaya,"VMJQ+8CQ, Jl. Buol - Gorontalo, Monas, Kec. Anggrek, Kabupaten Gorontalo Utara, Gorontalo 96525","Jl. Buol - Gorontalo, Monas, Kec. Anggrek, Kabupaten Gorontalo Utara",GORONTALO,96525.0,Indonesia,,,,0.8808402,122.6886015,https://maps.google.com/?cid=0x0:0xc5d098fd9d137a5b,
building materials,Toko Bahan Bangunan,Monas Jaya Bangunan,"VMMP+6XW, Monas, Kec. Anggrek, Kabupaten Gorontalo Utara, Gorontalo 96525","Monas, Kec. Anggrek, Kabupaten Gorontalo Utara",GORONTALO,96525.0,Indonesia,,,,0.8831054,122.6874423,https://maps.google.com/?cid=0x0:0x2cce6c94b83da99,
building materials,Toko Bahan Bangunan,Maha Bangunan,"Jl. Ciputat Raya No.144, RT.6/RW.2, Pd. Pinang, Kec. Kby. Lama, Kota Jakarta Selatan, Daerah Khusus Ibukota Jakarta 12310","RT.6/RW.2, Pd. Pinang, Kec. Kby. Lama, Kota Jakarta Selatan",GORONTALO,12310.0,Indonesia,217691271.0,,,-6.2674688,106.7751856,https://maps.google.com/?cid=0x0:0x4b281a4f8ec86a38,
building materials,Toko Bahan Bangunan,Okabe Gallery Alam Sutera,"QM66+Q46, Jalur Sutera No.32A, Pakualam, Kec. Serpong Utara, Kota Tangerang Selatan, Banten 15320","Jalur Sutera No.32A, Pakualam, Kec. Serpong Utara, Kota Tangerang Selatan",GORONTALO,15320.0,Indonesia,82118888519.0,,,-6.2381706,106.6605396,https://maps.google.com/?cid=0x0:0x685a953a8450fdbb,
building materials,Otoritas Pelabuhan,Ponelo Kepulauan,"VVRP+693, Jl. Kec. Ponelo, Moluo, Kec. Kwandang, Kabupaten Gorontalo Utara, Gorontalo","Kabupaten Gorontalo Utara, Gorontalo",GORONTALO,,Indonesia,,,,0.8905172,122.8859277,https://maps.google.com/?cid=0x0:0x3adda2027890f34b,
building materials,Toko Bahan Bangunan,UD IIN BANGUNAN,"RWJ8+9Q8, Titidu, Kec. Kwandang, Kabupaten Gorontalo Utara, Gorontalo 96252","Titidu, Kec. Kwandang, Kabupaten Gorontalo Utara",GORONTALO,96252.0,Indonesia,85298114647.0,,,0.8309223,122.9169546,https://maps.google.com/?cid=0x0:0x24029f85ad67b515,
building materials,building materials,Gorontalo,,Gorontalo,GORONTALO,,Indonesia,,,,0.6999372,122.4467238,https://maps.google.com/?cid=0x0:0x1030bfbcaf71a20,
building materials,Toko Bahan Bangunan,BJP BANGUNAN GORONTALO,"bjpbangunan@gmail.com, Heledulaa Sel., Kec. Kota Tim., Kota Gorontalo, Gorontalo 96128","Heledulaa Sel., Kec. Kota Tim., Kota Gorontalo",GORONTALO,96128.0,Indonesia,81935027833.0,,,0.5384306,123.0616,https://maps.google.com/?cid=0x0:0xaa9d2db3149eb8a4,
building materials,Toko Bahan Bangunan,Sinar Harapan Gudang bahan bangunan,"Jl. Yusuf Hasiru, Tanggikiki, Kec. Sipatana, Kota Gorontalo, Gorontalo 96128","Tanggikiki, Kec. Sipatana, Kota Gorontalo",GORONTALO,96128.0,Indonesia,82292336178.0,,,0.5758642,123.064933,https://maps.google.com/?cid=0x0:0x25d66de5f4b7b08e,
building materials,Toko Bahan Bangunan,Mitra Home Depo,"Jl. Palma No.43, Huangobotu, Kec. Dungingi, Kota Gorontalo, Gorontalo 96136","Huangobotu, Kec. Dungingi, Kota Gorontalo",GORONTALO,96136.0,Indonesia,82194658961.0,,,0.5589725,123.0381063,https://maps.google.com/?cid=0x0:0x8c7c0dc82938b9e9,
building materials,Kantor Perusahaan,GIAS Gorontalo (GNET) | Distributor Bahan Bangunan,"Jl. Adam Hoesa, Pentadio Bar., Kec. Telaga Biru, Kabupaten Gorontalo, Gorontalo 96183","Pentadio Bar., Kec. Telaga Biru, Kabupaten Gorontalo",GORONTALO,96183.0,Indonesia,81241222881.0,,,0.6266022,123.0098174,https://maps.google.com/?cid=0x0:0xfd7868e719b7c2f,
building materials,Toko Bahan Bangunan,Sinar Bangunan Gorontalo,"Jalan Kasuari Baru No.8, Heledulaa, Kota Timur, Heledulaa, Gorontalo, Kota Gorontalo, Gorontalo 96135","Heledulaa, Kota Timur, Heledulaa, Gorontalo, Kota Gorontalo",GORONTALO,96135.0,Indonesia,82194995146.0,,,0.5459753,123.0653457,https://maps.google.com/?cid=0x0:0xf278c2a9fcd91c78,
building materials,Toko Bahan Bangunan,Sumber Pelita,"H22W+PH7, Jl. Palma, Libuo, Kec. Dungingi, Kota Gorontalo, Gorontalo 96138","Jl. Palma, Libuo, Kec. Dungingi, Kota Gorontalo",GORONTALO,96138.0,Indonesia,,,,0.5517783,123.046426,https://maps.google.com/?cid=0x0:0xd1dcbfa47aba3625,
building materials,Toko Bahan Bangunan,Toko Brillian bangunan,"Jl. Andalas, Tapa, Kec. Sipatana, Kota Gorontalo, Gorontalo 96138","Tapa, Kec. Sipatana, Kota Gorontalo",GORONTALO,96138.0,Indonesia,8999777249.0,,,0.5706802,123.0588042,https://maps.google.com/?cid=0x0:0xa6b60637baaf429f,
building materials,Gedung Apartemen,Toko bangunan multya,"HVJJ+8P2, Desa botubulowe kec, Dungaliyo, Kec. Bongomeme, Kabupaten Gorontalo, Gorontalo 96271","Desa botubulowe kec, Dungaliyo, Kec. Bongomeme, Kabupaten Gorontalo",GORONTALO,96271.0,Indonesia,82296668077.0,,,0.5807579,122.8817689,https://maps.google.com/?cid=0x0:0x24e440e57517ae40,
building materials,Toko Bahan Bangunan,Toko Sumber Bangunan Jaya,"Jl. Kh. Agus Salim No.370, Dulalowo, Kec. Kota Tengah, Kota Gorontalo, Gorontalo 96138","Dulalowo, Kec. Kota Tengah, Kota Gorontalo",GORONTALO,96138.0,Indonesia,85397330090.0,,,0.55702,123.048784,https://maps.google.com/?cid=0x0:0x5b1af1a89190899a,
building materials,Gudang,GUDANG MATRIAL BANGUNAN,"J24G+9CR, Tinelo, Kec. Telaga Biru, Kabupaten Gorontalo, Gorontalo 96181","Tinelo, Kec. Telaga Biru, Kabupaten Gorontalo",GORONTALO,96181.0,Indonesia,81217698859.0,,,0.6060117,123.0258974,https://maps.google.com/?cid=0x0:0x388d5cda697ba1ba,
building materials,Toko Bahan Bangunan,TB. SENTRA BANGUNAN,"Jl. Sultan Botutihe No.283B, Padebuolo, Kec. Kota Tim., Kota Gorontalo, Gorontalo 96135","Padebuolo, Kec. Kota Tim., Kota Gorontalo",GORONTALO,96135.0,Indonesia,81243742572.0,,,0.5401664,123.075121,https://maps.google.com/?cid=0x0:0x48d5175622f567eb,
building materials,Toko Bahan Bangunan,Bangunan Jaya Toko,"JL. Mayjen DI Panjaitan No.3396111, Limba U Satu, South Kota, Kota Gorontalo, Gorontalo 96135","Limba U Satu, South Kota, Kota Gorontalo",GORONTALO,96135.0,Indonesia,85930982366.0,,,0.544945,123.0618261,https://maps.google.com/?cid=0x0:0x97f173e9fe54e794,
building materials,Toko Bahan Bangunan,Toko Bangunan,"Unnamed Road No.96138, Tapa, Kec. Sipatana, Kabupaten Gorontalo, Gorontalo 96138","Tapa, Kec. Sipatana, Kabupaten Gorontalo",GORONTALO,96138.0,Indonesia,,,,0.5736978,123.0555801,https://maps.google.com/?cid=0x0:0x7fbf59038733c1f2,
building materials,Toko Bahan Bangunan,Toko Bangunan Istana Bangunan,"Jl. D.I. Panjaitan, Limba U I, Kota Sel., Kota Gorontalo, Gorontalo 96135","Limba U I, Kota Sel., Kota Gorontalo",GORONTALO,96135.0,Indonesia,,,,0.5481889,123.062409,https://maps.google.com/?cid=0x0:0xb8e64cbbbe885a9a,
building materials,Toko Bahan Bangunan,Sinar Bangunan Toko,"JL Letjen. MT. Haryono, No. 11, Biawao, Kota Sel., Kota Gorontalo, Gorontalo 96111","No. 11, Biawao, Kota Sel., Kota Gorontalo",GORONTALO,96111.0,Indonesia,85397688695.0,,,0.5347853,123.0600576,https://maps.google.com/?cid=0x0:0xbc0d7a9cb35148d3,
building materials,Toko Bahan Bangunan,Toko A TIGA BANGUNAN,"G3H6+QW4, Bugis, Kec. Kota Tim., Kota Gorontalo, Gorontalo 96133","Bugis, Kec. Kota Tim., Kota Gorontalo",GORONTALO,96133.0,Indonesia,,,,0.5293892,123.0623249,https://maps.google.com/?cid=0x0:0xb90ee6079d9ad250,
building materials,Toko Bahan Bangunan,Toko Bangunan Bintang Harapan,"G3R5+4P6, Jl. Teuku Umar, Limba B, Kota Sel., Kota Gorontalo, Gorontalo 96134","Jl. Teuku Umar, Limba B, Kota Sel., Kota Gorontalo",GORONTALO,96134.0,Indonesia,,,,0.5402943,123.0592795,https://maps.google.com/?cid=0x0:0x474c9ae63676032b,
building materials,Toko Bahan Bangunan,Toko Bangunan Sinar Surya,"H2GW+P28, Bulila, Kec. Telaga, Kabupaten Gorontalo, Gorontalo 96138","Bulila, Kec. Telaga, Kabupaten Gorontalo",GORONTALO,96138.0,Indonesia,,,,0.5767909,123.0450809,https://maps.google.com/?cid=0x0:0x19ed8169e78064d0,
building materials,building materials,Gorontalo 96252,"Kec. Kwandang, Kabupaten Gorontalo Utara, Gorontalo","Kabupaten Gorontalo Utara, Gorontalo",GORONTALO,,Indonesia,,,,0.8083426,122.9212265,https://maps.google.com/?cid=0x0:0x8516fb933d27785f,
building materials,building materials,Gorontalo 96254,"Kabupaten Gorontalo Utara, Gorontalo","Kabupaten Gorontalo Utara, Gorontalo",GORONTALO,,Indonesia,,,,0.926195,122.4014193,https://maps.google.com/?cid=0x0:0x9a29fb0ff347278,
building materials,Toko Perlengkapan Rumah,Firman Bangunan,"XCMF+82R, Bulontio Tim., Kec. Sumalata, Kabupaten Gorontalo Utara, Gorontalo 96254","Bulontio Tim., Kec. Sumalata, Kabupaten Gorontalo Utara",GORONTALO,96254.0,Indonesia,,,,0.9833573,122.4225218,https://maps.google.com/?cid=0x0:0x7c57cbc9e1c96d6b,
building materials,Toko Perlengkapan Rumah,UD.PERSADA BANGUNAN,"Jl.Trans Sulawesi No.Desa, Bulontio Barat, Kec. Sumalata, Kabupaten Gorontalo Utara, Gorontalo 96254","Bulontio Barat, Kec. Sumalata, Kabupaten Gorontalo Utara",GORONTALO,96254.0,Indonesia,85256442121.0,,,0.9815164,122.4192615,https://maps.google.com/?cid=0x0:0x4642f5c4ad507770,
building materials,Toko Bahan Bangunan,UD SHAFIYAH BERKAH,"WHXM+9JH, Dulukapa, Kec. Sumalata, Kabupaten Gorontalo Utara, Gorontalo 96254","Dulukapa, Kec. Sumalata, Kabupaten Gorontalo Utara",GORONTALO,96254.0,Indonesia,,,,0.9484378,122.5841229,https://maps.google.com/?cid=0x0:0x4d412b08cb118540,
building materials,building materials,Sumalata,"Wubudu, Kec. Sumalata, Kabupaten Gorontalo Utara, Gorontalo","Kabupaten Gorontalo Utara, Gorontalo",GORONTALO,,Indonesia,,,,0.980095,122.490997,https://maps.google.com/?cid=0x0:0xe5cfc95986060eba,
building materials,building materials,Gorontalo 96254,"Kabupaten Gorontalo Utara, Gorontalo","Kabupaten Gorontalo Utara, Gorontalo",GORONTALO,,Indonesia,,,,0.926195,122.4014193,https://maps.google.com/?cid=0x0:0x9a29fb0ff347278,
building materials,Toko Perlengkapan Rumah,Firman Bangunan,"XCMF+82R, Bulontio Tim., Kec. Sumalata, Kabupaten Gorontalo Utara, Gorontalo 96254","Bulontio Tim., Kec. Sumalata, Kabupaten Gorontalo Utara",GORONTALO,96254.0,Indonesia,,,,0.9833573,122.4225218,https://maps.google.com/?cid=0x0:0x7c57cbc9e1c96d6b,
building materials,Toko Perlengkapan Rumah,UD.PERSADA BANGUNAN,"Jl.Trans Sulawesi No.Desa, Bulontio Barat, Kec. Sumalata, Kabupaten Gorontalo Utara, Gorontalo 96254","Bulontio Barat, Kec. Sumalata, Kabupaten Gorontalo Utara",GORONTALO,96254.0,Indonesia,85256442121.0,,,0.9815164,122.4192615,https://maps.google.com/?cid=0x0:0x4642f5c4ad507770,
building materials,Toko Bahan Bangunan,UD SHAFIYAH BERKAH,"WHXM+9JH, Dulukapa, Kec. Sumalata, Kabupaten Gorontalo Utara, Gorontalo 96254","Dulukapa, Kec. Sumalata, Kabupaten Gorontalo Utara",GORONTALO,96254.0,Indonesia,,,,0.9484378,122.5841229,https://maps.google.com/?cid=0x0:0x4d412b08cb118540,
building materials,building materials,Gorontalo 96524,"Kec. Tolinggula, Kabupaten Gorontalo Utara, Gorontalo","Kabupaten Gorontalo Utara, Gorontalo",GORONTALO,,Indonesia,,,,0.9280512,122.2200065,https://maps.google.com/?cid=0x0:0xd3efad24a9000eb8,
building materials,Toko Perlengkapan Rumah,TB. AMANAH TOLINGGULA,"2685+RMG, Tolinggula Pantai, Kec. Tolinggula, Kabupaten Gorontalo Utara, Gorontalo 96524","Tolinggula Pantai, Kec. Tolinggula, Kabupaten Gorontalo Utara",GORONTALO,96524.0,Indonesia,,,,1.017055,122.209203,https://maps.google.com/?cid=0x0:0x544039607ff7b54b,
building materials,Toko Perlengkapan Rumah,Tk Barcelona,"2585+343, Jl. Buol - Gorontalo, Umu, Kec. Tolinggula, Kabupaten Gorontalo Utara, Gorontalo 94568","Jl. Buol - Gorontalo, Umu, Kec. Tolinggula, Kabupaten Gorontalo Utara",GORONTALO,94568.0,Indonesia,,,,1.015148,122.1577965,https://maps.google.com/?cid=0x0:0xb68bd0a53035b624,
building materials,building materials,Gorontalo 96252,"Kec. Kwandang, Kabupaten Gorontalo Utara, Gorontalo","Kabupaten Gorontalo Utara, Gorontalo",GORONTALO,,Indonesia,,,,0.8083426,122.9212265,https://maps.google.com/?cid=0x0:0x8516fb933d27785f,
building materials,Toko Bahan Bangunan,UD IIN BANGUNAN,"RWJ8+9Q8, Titidu, Kec. Kwandang, Kabupaten Gorontalo Utara, Gorontalo 96252","Titidu, Kec. Kwandang, Kabupaten Gorontalo Utara",GORONTALO,96252.0,Indonesia,85298114647.0,,,0.8309223,122.9169546,https://maps.google.com/?cid=0x0:0x24029f85ad67b515,
building materials,building materials,King depo,"Unnamed Road, Sukamakmur, Kec. Tolangohula, Kabupaten Gorontalo, Gorontalo 96264","Sukamakmur, Kec. Tolangohula, Kabupaten Gorontalo",GORONTALO,96264.0,Indonesia,,,,0.7001209,122.5611492,https://maps.google.com/?cid=0x0:0xb790658136a6bd54,
building materials,Toko Bahan Bangunan,Toko Mulia Bangunan,"Jl. Kh. Agus Salim No.29, Limba B, Kota Sel., Kota Gorontalo, Gorontalo 96136","Limba B, Kota Sel., Kota Gorontalo",GORONTALO,96136.0,Indonesia,435829617.0,,,0.545024,123.0535275,https://maps.google.com/?cid=0x0:0xfa6f48fb74c30578,
building materials,Gudang,GUDANG MATRIAL BANGUNAN,"J24G+9CR, Tinelo, Kec. Telaga Biru, Kabupaten Gorontalo, Gorontalo 96181","Tinelo, Kec. Telaga Biru, Kabupaten Gorontalo",GORONTALO,96181.0,Indonesia,81217698859.0,,,0.6060117,123.0258974,https://maps.google.com/?cid=0x0:0x388d5cda697ba1ba,
building materials,Gedung Apartemen,Toko bangunan multya,"HVJJ+8P2, Desa botubulowe kec, Dungaliyo, Kec. Bongomeme, Kabupaten Gorontalo, Gorontalo 96271","Desa botubulowe kec, Dungaliyo, Kec. Bongomeme, Kabupaten Gorontalo",GORONTALO,96271.0,Indonesia,82296668077.0,,,0.5807579,122.8817689,https://maps.google.com/?cid=0x0:0x24e440e57517ae40,
building materials,building materials,Gorontalo,,Gorontalo,GORONTALO,,Indonesia,,,,0.6999372,122.4467238,https://maps.google.com/?cid=0x0:0x1030bfbcaf71a20,
building materials,Toko Bahan Bangunan,Mulia Depo Bangunan (MDB),"HH3C+QJH, Jl. Trans Sulawesi, Lemito Utara, Kec. Lemito, Kabupaten Pohuwato, Gorontalo 96468","Jl. Trans Sulawesi, Lemito Utara, Kec. Lemito, Kabupaten Pohuwato",GORONTALO,96468.0,Indonesia,82291661879.0,,,0.5541343,121.5716613,https://maps.google.com/?cid=0x0:0x2781230fc31a837e,
building materials,Toko Bahan Bangunan,BJP BANGUNAN GORONTALO,"bjpbangunan@gmail.com, Heledulaa Sel., Kec. Kota Tim., Kota Gorontalo, Gorontalo 96128","Heledulaa Sel., Kec. Kota Tim., Kota Gorontalo",GORONTALO,96128.0,Indonesia,81935027833.0,,,0.5384306,123.0616,https://maps.google.com/?cid=0x0:0xaa9d2db3149eb8a4,
building materials,Toko Bahan Bangunan,Toko Multi Bangunan,"Moutong, Kec. Tilongkabila, Kabupaten Bone Bolango, Gorontalo","Kabupaten Bone Bolango, Gorontalo",GORONTALO,,Indonesia,,,,0.5562915,123.1406896,https://maps.google.com/?cid=0x0:0x24d6a17cc2087c6,
building materials,Toko Bahan Bangunan,Sinar Bangunan Gorontalo,"Jalan Kasuari Baru No.8, Heledulaa, Kota Timur, Heledulaa, Gorontalo, Kota Gorontalo, Gorontalo 96135","Heledulaa, Kota Timur, Heledulaa, Gorontalo, Kota Gorontalo",GORONTALO,96135.0,Indonesia,82194995146.0,,,0.5459753,123.0653457,https://maps.google.com/?cid=0x0:0xf278c2a9fcd91c78,
building materials,Kantor Perusahaan,GIAS Gorontalo (GNET) | Distributor Bahan Bangunan,"Jl. Adam Hoesa, Pentadio Bar., Kec. Telaga Biru, Kabupaten Gorontalo, Gorontalo 96183","Pentadio Bar., Kec. Telaga Biru, Kabupaten Gorontalo",GORONTALO,96183.0,Indonesia,81241222881.0,,,0.6266022,123.0098174,https://maps.google.com/?cid=0x0:0xfd7868e719b7c2f,
building materials,Toko Bahan Bangunan,MEGA DEPO BANGUNAN,"FCV7+84C, Bar, Dudewulo, Kec. Popayato Bar., Kabupaten Pohuwato, Gorontalo 96467","Bar, Dudewulo, Kec. Popayato Bar., Kabupaten Pohuwato",GORONTALO,96467.0,Indonesia,,,,0.4933219,121.412767,https://maps.google.com/?cid=0x0:0xae13135ae7d1637,
building materials,Toko Bahan Bangunan,Toko Sumber Bangunan,"Jl. Letjend Suprapto No.58, Biawao, Kota Sel., Kota Gorontalo, Gorontalo 96133","Biawao, Kota Sel., Kota Gorontalo",GORONTALO,96133.0,Indonesia,435822623.0,,,0.5350604,123.0577181,https://maps.google.com/?cid=0x0:0xd699a9523a9f34f7,
building materials,Toko Bahan Bangunan,Toko Brillian bangunan,"Jl. Andalas, Tapa, Kec. Sipatana, Kota Gorontalo, Gorontalo 96138","Tapa, Kec. Sipatana, Kota Gorontalo",GORONTALO,96138.0,Indonesia,8999777249.0,,,0.5706802,123.0588042,https://maps.google.com/?cid=0x0:0xa6b60637baaf429f,
building materials,Toko Bahan Bangunan,Tb. Indomarko,"H335+9G2, Jl. Jend. Sudirman, Wumialo, Kec. Kota Tengah, Kota Gorontalo, Gorontalo 96138","Jl. Jend. Sudirman, Wumialo, Kec. Kota Tengah, Kota Gorontalo",GORONTALO,96138.0,Indonesia,,,,0.5533828,123.0587546,https://maps.google.com/?cid=0x0:0x55ebf194fa0578b7,
building materials,Toko Bahan Bangunan,Mitra Home Depo,"Jl. Palma No.43, Huangobotu, Kec. Dungingi, Kota Gorontalo, Gorontalo 96136","Huangobotu, Kec. Dungingi, Kota Gorontalo",GORONTALO,96136.0,Indonesia,82194658961.0,,,0.5589725,123.0381063,https://maps.google.com/?cid=0x0:0x8c7c0dc82938b9e9,
building materials,Toko Bahan Bangunan,Toko Bintang Bangunan II,"JJJQ+GW5, Jl. Trans Sulawesi, Parungi, Kec. Boliyohuto, Kabupaten Gorontalo, Gorontalo 96264","Jl. Trans Sulawesi, Parungi, Kec. Boliyohuto, Kabupaten Gorontalo",GORONTALO,96264.0,Indonesia,,,,0.6312564,122.6398533,https://maps.google.com/?cid=0x0:0x2cd3ec40bc4ef51f,
building materials,Toko Bahan Bangunan,TRISADA material bangunan,"H34G+P5X, Jl. KH. Adam Zakaria, Dembe Jaya, Kec. Kota Utara, Kota Gorontalo, Gorontalo 96128","Jl. KH. Adam Zakaria, Dembe Jaya, Kec. Kota Utara, Kota Gorontalo",GORONTALO,96128.0,Indonesia,,,,0.5568584,123.075497,https://maps.google.com/?cid=0x0:0x19a9689184771136,
building materials,Toko Bahan Bangunan,Al_Amin bangunan,"G44P+GQ7, Tabulo, Kec. Mananggu, Kabupaten Boalemo, Gorontalo 96264","Tabulo, Kec. Mananggu, Kabupaten Boalemo",GORONTALO,96264.0,Indonesia,,,,0.5062805,122.1369233,https://maps.google.com/?cid=0x0:0x3f903572fd93e1a7,
building materials,Toko Bahan Bangunan,Toko Bangunan,"Unnamed Road No.96138, Tapa, Kec. Sipatana, Kabupaten Gorontalo, Gorontalo 96138","Tapa, Kec. Sipatana, Kabupaten Gorontalo",GORONTALO,96138.0,Indonesia,,,,0.5736978,123.0555801,https://maps.google.com/?cid=0x0:0x7fbf59038733c1f2,
building materials,Toko Bahan Bangunan,Toko Sumber Bangunan Jaya,"Jl. Kh. Agus Salim No.370, Dulalowo, Kec. Kota Tengah, Kota Gorontalo, Gorontalo 96138","Dulalowo, Kec. Kota Tengah, Kota Gorontalo",GORONTALO,96138.0,Indonesia,85397330090.0,,,0.55702,123.048784,https://maps.google.com/?cid=0x0:0x5b1af1a89190899a,
building materials,Toko Bahan Bangunan,Okabe Gallery Alam Sutera,"QM66+Q46, Jalur Sutera No.32A, Pakualam, Kec. Serpong Utara, Kota Tangerang Selatan, Banten 15320","Jalur Sutera No.32A, Pakualam, Kec. Serpong Utara, Kota Tangerang Selatan",GORONTALO,15320.0,Indonesia,82118888519.0,,,-6.2381706,106.6605396,https://maps.google.com/?cid=0x0:0x685a953a8450fdbb,
building materials,Toko Bahan Bangunan,Idemu Okabe Gallery,"Jl. Jalur Sutera Jl. Alam No.32A, Pakualam, Sutera, Kota Tangerang Selatan, Banten 15320","Pakualam, Sutera, Kota Tangerang Selatan",GORONTALO,15320.0,Indonesia,,,,-6.2379367,106.6603784,https://maps.google.com/?cid=0x0:0x45a648d0b9e4a128,
building materials,building materials,D'Wee Fried Chicken - Okabe Gallery,"QM66+Q46, Jalur Sutera No.32A, Pakualam, Kec. Serpong Utara, Kota Tangerang Selatan, Banten 15320","Jalur Sutera No.32A, Pakualam, Kec. Serpong Utara, Kota Tangerang Selatan",GORONTALO,15320.0,Indonesia,81316131873.0,,,-6.238169,106.6601822,https://maps.google.com/?cid=0x0:0xefe64d0677f8a3d4,
building improvement,building improvement,Gorontalo 96525,"Kec. Anggrek, Kabupaten Gorontalo Utara, Gorontalo","Kabupaten Gorontalo Utara, Gorontalo",GORONTALO,,Indonesia,,,,0.8425794,122.695547,https://maps.google.com/?cid=0x0:0xc910c3a3b1bab734,
building improvement,Otoritas Pelabuhan,KPBU Pelabuhan Anggrek,"Pelabuhan, Ilangata, Kec. Anggrek, Kabupaten Gorontalo Utara, Gorontalo 96525","Ilangata, Kec. Anggrek, Kabupaten Gorontalo Utara",GORONTALO,96525.0,Indonesia,81341812348.0,,,0.8586546,122.7942525,https://maps.google.com/?cid=0x0:0x47d029b6ad02975a,
building improvement,Kantor Perusahaan,PT GPL,"Tudi, Kec. Anggrek, Kabupaten Gorontalo Utara, Gorontalo 96525","Kec. Anggrek, Kabupaten Gorontalo Utara",GORONTALO,96525.0,Indonesia,,,,0.8837482,122.7123599,https://maps.google.com/?cid=0x0:0xf1c8bf27ef202efd,
building improvement,building improvement,Gorontalo 96253,"Kabupaten Gorontalo Utara, Gorontalo","Kabupaten Gorontalo Utara, Gorontalo",GORONTALO,,Indonesia,,,,0.8707926,123.1014056,https://maps.google.com/?cid=0x0:0xfa82e81a2bd61d81,
building improvement,building improvement,Sulawesi Tengah 94563,"Kabupaten Buol, Sulawesi Tengah","Kabupaten Buol, Sulawesi Tengah",GORONTALO,,Indonesia,,,,1.2003229,121.3084088,https://maps.google.com/?cid=0x0:0x6c422b6673dca949,
building improvement,Tempat Parkir,Biau,"X6J7+W88, Jl. Buol - Gorontalo, Biawu, Kec. Tolinggula, Kabupaten Gorontalo Utara, Gorontalo 96524","Jl. Buol - Gorontalo, Biawu, Kec. Tolinggula, Kabupaten Gorontalo Utara",GORONTALO,96524.0,Indonesia,,,,0.982294,122.213335,https://maps.google.com/?cid=0x0:0x52f14f990728822,
building improvement,Tujuan Wisata,Kecamatan Biau,"X6H6+49, Didingga, Kec. Tolinggula, Kabupaten Gorontalo Utara, Gorontalo","Kabupaten Gorontalo Utara, Gorontalo",GORONTALO,,Indonesia,,,,0.9778021,122.2108784,https://maps.google.com/?cid=0x0:0xcb75dbeb5101eb17,
building improvement,building improvement,Gorontalo,,Gorontalo,GORONTALO,,Indonesia,,,,0.6999372,122.4467238,https://maps.google.com/?cid=0x0:0x1030bfbcaf71a20,
building improvement,Kelompok Bermain,Gedung Indoor David Bobihoe Akib,"J2C8+5J3, Pentadio Tim., Kec. Telaga Biru, Kabupaten Gorontalo, Gorontalo 96181","Pentadio Tim., Kec. Telaga Biru, Kabupaten Gorontalo",GORONTALO,96181.0,Indonesia,82393136668.0,,,0.6203962,123.0165392,https://maps.google.com/?cid=0x0:0x6d9877e177186370,
building improvement,building improvement,"Orinda, California 94563","Orinda, California, Amerika Serikat","Orinda, California, Amerika Serikat",GORONTALO,,Indonesia,,,,37.8912529,-122.1859572,https://maps.google.com/?cid=0x0:0x4b1085f0203b9df8,
building improvement,building improvement,Claremont Resort  Club,"41 Tunnel Rd, Berkeley, CA 94705, Amerika Serikat","Berkeley, CA",GORONTALO,94705.0,Indonesia,15108433000.0,,,37.8590352,-122.2420658,https://maps.google.com/?cid=0x0:0x9a05b7489b6618d,
building improvement,building improvement,Blau,"Windu, Kec. Tolinggula, Kabupaten Gorontalo Utara, Gorontalo","Kabupaten Gorontalo Utara, Gorontalo",GORONTALO,,Indonesia,,,,0.986265,122.223602,https://maps.google.com/?cid=0x0:0x871bc1bc52273216,
building improvement,Tempat Parkir,Biau,"X6J7+W88, Jl. Buol - Gorontalo, Biawu, Kec. Tolinggula, Kabupaten Gorontalo Utara, Gorontalo 96524","Jl. Buol - Gorontalo, Biawu, Kec. Tolinggula, Kabupaten Gorontalo Utara",GORONTALO,96524.0,Indonesia,,,,0.982294,122.213335,https://maps.google.com/?cid=0x0:0x52f14f990728822,
building improvement,Tujuan Wisata,Kecamatan Biau,"X6H6+49, Didingga, Kec. Tolinggula, Kabupaten Gorontalo Utara, Gorontalo","Kabupaten Gorontalo Utara, Gorontalo",GORONTALO,,Indonesia,,,,0.9778021,122.2108784,https://maps.google.com/?cid=0x0:0xcb75dbeb5101eb17,
building improvement,building improvement,Kec. Gentuma Raya,"Kabupaten Gorontalo Utara, Gorontalo","Kabupaten Gorontalo Utara, Gorontalo",GORONTALO,,Indonesia,,,,0.9300102,123.0377072,https://maps.google.com/?cid=0x0:0xc9d73598b0af1e0,
building improvement,Salon Rambut,GENTUMA RAYA,"W2HQ+378, Gentuma, Kec. Gentuma Raya, Kabupaten Gorontalo Utara, Gorontalo","Kabupaten Gorontalo Utara, Gorontalo",GORONTALO,,Indonesia,,,,0.9276733,123.0382094,https://maps.google.com/?cid=0x0:0x64351e675705769e,
building improvement,Kantor Perusahaan,GURUMI,"Komp. Pasar, Gentuma, Kec. Gentuma Raya, Kabupaten Gorontalo Utara, Gorontalo 96253","Gentuma, Kec. Gentuma Raya, Kabupaten Gorontalo Utara",GORONTALO,96253.0,Indonesia,85299552151.0,,,0.9288116,123.0390007,https://maps.google.com/?cid=0x0:0x3e297214a75c04ee,
building improvement,building improvement,"North Gorontalo, Gentuma Raya","W2FQ+V32, Gentuma, Kec. Gentuma Raya, Kabupaten Gorontalo Utara, Gorontalo 96253","Gentuma, Kec. Gentuma Raya, Kabupaten Gorontalo Utara",GORONTALO,96253.0,Indonesia,,,,0.9246474,123.0376428,https://maps.google.com/?cid=0x0:0x1b0887ee933b8e30,
building improvement,building improvement,Gorontalo 96252,"Kec. Kwandang, Kabupaten Gorontalo Utara, Gorontalo","Kabupaten Gorontalo Utara, Gorontalo",GORONTALO,,Indonesia,,,,0.8083426,122.9212265,https://maps.google.com/?cid=0x0:0x8516fb933d27785f,
building improvement,Toko Bahan Bangunan,UD IIN BANGUNAN,"RWJ8+9Q8, Titidu, Kec. Kwandang, Kabupaten Gorontalo Utara, Gorontalo 96252","Titidu, Kec. Kwandang, Kabupaten Gorontalo Utara",GORONTALO,96252.0,Indonesia,85298114647.0,,,0.8309223,122.9169546,https://maps.google.com/?cid=0x0:0x24029f85ad67b515,
building improvement,Perusahaan Konstruksi,GK 003,"RWR7+2C5, Moluo, Kec. Kwandang, Kabupaten Gorontalo Utara, Gorontalo 96252","Moluo, Kec. Kwandang, Kabupaten Gorontalo Utara",GORONTALO,96252.0,Indonesia,,,,0.8400801,122.9136244,https://maps.google.com/?cid=0x0:0x8be9b117251e0974,
building improvement,Toko Bahan Bangunan,Toko Zafran Bangunan,"Leboto, Kec. Kwandang, Kabupaten Gorontalo Utara, Gorontalo 96252","Kec. Kwandang, Kabupaten Gorontalo Utara",GORONTALO,96252.0,Indonesia,85298114647.0,,,0.8054214,122.884083,https://maps.google.com/?cid=0x0:0xd3db31c3164925dc,
building improvement,Komplek perumahan,Ti winda pe rumah,"RVHV+F67, Dusun hulapa, Bulalo, Kec. Kwandang, Kabupaten Gorontalo Utara, Gorontalo 96252","Dusun hulapa, Bulalo, Kec. Kwandang, Kabupaten Gorontalo Utara",GORONTALO,96252.0,Indonesia,,,,0.8286654,122.8930441,https://maps.google.com/?cid=0x0:0xfa0723f5634b9951,
building improvement,Kantor Pemda,Kantor Bupati Gorontalo Utara,"QVR9+9FG, Molingkapoto, Kec. Kwandang, Kabupaten Gorontalo Utara, Gorontalo 96252","Molingkapoto, Kec. Kwandang, Kabupaten Gorontalo Utara",GORONTALO,96252.0,Indonesia,,,,0.7909315,122.8687082,https://maps.google.com/?cid=0x0:0x1b18cf95dfa29af2,
building improvement,Tujuan Wisata,Lorong buntu depan benteng mas,"RWP8+W67, Moluo, Kec. Kwandang, Kabupaten Gorontalo Utara, Gorontalo 96252","Moluo, Kec. Kwandang, Kabupaten Gorontalo Utara",GORONTALO,96252.0,Indonesia,,,,0.837069,122.9150466,https://maps.google.com/?cid=0x0:0xac464b6836af2acf,
building improvement,Kantor Perusahaan,PT GPL,"Tudi, Kec. Anggrek, Kabupaten Gorontalo Utara, Gorontalo 96525","Kec. Anggrek, Kabupaten Gorontalo Utara",GORONTALO,96525.0,Indonesia,,,,0.8837482,122.7123599,https://maps.google.com/?cid=0x0:0xf1c8bf27ef202efd,
building improvement,Kantor Perusahaan,Mess G2 PT GPL,"VPJ3+PV, Monano, Kec. Anggrek, Kabupaten Gorontalo Utara, Gorontalo 96525","Monano, Kec. Anggrek, Kabupaten Gorontalo Utara",GORONTALO,96525.0,Indonesia,,,,0.8818125,122.7046875,https://maps.google.com/?cid=0x0:0x5dd92b060f969d87,
building improvement,Otoritas Pelabuhan,Ponelo Kepulauan,"VVRP+693, Jl. Kec. Ponelo, Moluo, Kec. Kwandang, Kabupaten Gorontalo Utara, Gorontalo","Kabupaten Gorontalo Utara, Gorontalo",GORONTALO,,Indonesia,,,,0.8905172,122.8859277,https://maps.google.com/?cid=0x0:0x3adda2027890f34b,
building improvement,Kantor Perusahaan,Balai penyuluh kb kec. Ponelo kepulauan,"VVQM+MX6, Jl. Kec. Ponelo, Limbatihu, Paguyaman Pantai, Kabupaten Gorontalo Utara, Gorontalo 96252","Jl. Kec. Ponelo, Limbatihu, Paguyaman Pantai, Kabupaten Gorontalo Utara",GORONTALO,96252.0,Indonesia,8114334010.0,,,0.889161,122.884897,https://maps.google.com/?cid=0x0:0xb646759ae7e4953f,
building improvement,building improvement,Gorontalo 96252,"Kec. Kwandang, Kabupaten Gorontalo Utara, Gorontalo","Kabupaten Gorontalo Utara, Gorontalo",GORONTALO,,Indonesia,,,,0.8083426,122.9212265,https://maps.google.com/?cid=0x0:0x8516fb933d27785f,
building improvement,Sekolah Dasar,SD Negeri 2 Ponelo Kepulauan,"VV7P+3RF, Moluo, Kec. Kwandang, Kabupaten Gorontalo Utara, Gorontalo","Kabupaten Gorontalo Utara, Gorontalo",GORONTALO,,Indonesia,,,,0.8626949,122.8870512,https://maps.google.com/?cid=0x0:0xa934de6b190964c3,
building improvement,Komplek perumahan,Ti winda pe rumah,"RVHV+F67, Dusun hulapa, Bulalo, Kec. Kwandang, Kabupaten Gorontalo Utara, Gorontalo 96252","Dusun hulapa, Bulalo, Kec. Kwandang, Kabupaten Gorontalo Utara",GORONTALO,96252.0,Indonesia,,,,0.8286654,122.8930441,https://maps.google.com/?cid=0x0:0xfa0723f5634b9951,
building improvement,building improvement,Pontolo,"QVG8+W6X, Pontolo, Kec. Kwandang, Kabupaten Gorontalo Utara, Gorontalo 96252","Pontolo, Kec. Kwandang, Kabupaten Gorontalo Utara",GORONTALO,96252.0,Indonesia,,,,0.7773682,122.865612,https://maps.google.com/?cid=0x0:0xc798ada5556c747a,
building improvement,Tujuan Wisata,Dermaga Ponelo Kepulauan,"VVWP+Q5R, Jl. Kec. Ponelo, Limbatihu, Paguyaman Pantai, Kabupaten Gorontalo Utara, Gorontalo 96252","Jl. Kec. Ponelo, Limbatihu, Paguyaman Pantai, Kabupaten Gorontalo Utara",GORONTALO,96252.0,Indonesia,,,,0.8969899,122.8853839,https://maps.google.com/?cid=0x0:0xbe0c556385bf6cc2,
building improvement,Makanan Kecil,Kios Mama Nagon,"VVRP+53J, Moluo, Kec. Kwandang, Kabupaten Gorontalo Utara, Gorontalo","Kabupaten Gorontalo Utara, Gorontalo",GORONTALO,,Indonesia,,,,0.8904978,122.8851871,https://maps.google.com/?cid=0x0:0x92211ae7e14e1120,
building improvement,building improvement,Gorontalo 96254,"Kabupaten Gorontalo Utara, Gorontalo","Kabupaten Gorontalo Utara, Gorontalo",GORONTALO,,Indonesia,,,,0.926195,122.4014193,https://maps.google.com/?cid=0x0:0x9a29fb0ff347278,
building improvement,building improvement,Gorontalo 96254,"Kabupaten Gorontalo Utara, Gorontalo","Kabupaten Gorontalo Utara, Gorontalo",GORONTALO,,Indonesia,,,,0.926195,122.4014193,https://maps.google.com/?cid=0x0:0x9a29fb0ff347278,
building improvement,Taman,Sumalata timur,"WFGR+4R2, Wubudu, Kec. Sumalata, Kabupaten Gorontalo Utara, Gorontalo","Kabupaten Gorontalo Utara, Gorontalo",GORONTALO,,Indonesia,,,,0.9252647,122.4920088,https://maps.google.com/?cid=0x0:0x84a535dd0b34cf78,
building improvement,Taman,Sumalata timur,"VFWX+Q37, Buladu, Kec. Sumalata, Kabupaten Gorontalo Utara, Gorontalo 96254","Buladu, Kec. Sumalata, Kabupaten Gorontalo Utara",GORONTALO,96254.0,Indonesia,,,,0.8969174,122.497668,https://maps.google.com/?cid=0x0:0xb1129ef27d9f61db,
building improvement,building improvement,Gorontalo 96524,"Kec. Tolinggula, Kabupaten Gorontalo Utara, Gorontalo","Kabupaten Gorontalo Utara, Gorontalo",GORONTALO,,Indonesia,,,,0.9280512,122.2200065,https://maps.google.com/?cid=0x0:0xd3efad24a9000eb8,
building improvement,building improvement,Gorontalo 96252,"Kec. Kwandang, Kabupaten Gorontalo Utara, Gorontalo","Kabupaten Gorontalo Utara, Gorontalo",GORONTALO,,Indonesia,,,,0.8083426,122.9212265,https://maps.google.com/?cid=0x0:0x8516fb933d27785f,
hardware store,hardware store,Gorontalo 96525,"Kec. Anggrek, Kabupaten Gorontalo Utara, Gorontalo","Kabupaten Gorontalo Utara, Gorontalo",GORONTALO,,Indonesia,,,,0.8425794,122.695547,https://maps.google.com/?cid=0x0:0xc910c3a3b1bab734,
hardware store,Toko Bahan Bangunan,Eki Bangunan,"Desa Alata Karya, Kec. Kwandang, Kabupaten Gorontalo Utara, Gorontalo 00000","Kec. Kwandang, Kabupaten Gorontalo Utara",GORONTALO,0.0,Indonesia,82346758169.0,,,0.8132067,122.8967632,https://maps.google.com/?cid=0x0:0x99aadd8bcfc11201,
hardware store,Toko Bahan Bangunan,Toko DR. Cahaya Rezeki,"Jl. Trans Sulawesi, Motilango, Kec. Tibawa, Kabupaten Gorontalo, Gorontalo 96252","Motilango, Kec. Tibawa, Kabupaten Gorontalo",GORONTALO,96252.0,Indonesia,,,,0.7587567,122.8586478,https://maps.google.com/?cid=0x0:0x1d84d8a6866d613b,
hardware store,hardware store,King depo,"Unnamed Road, Sukamakmur, Kec. Tolangohula, Kabupaten Gorontalo, Gorontalo 96264","Sukamakmur, Kec. Tolangohula, Kabupaten Gorontalo",GORONTALO,96264.0,Indonesia,,,,0.7001209,122.5611492,https://maps.google.com/?cid=0x0:0xb790658136a6bd54,
hardware store,hardware store,,,,GORONTALO,,Indonesia,85221230978.0,,,0.698919,122.6626601,https://maps.google.com/?cid=0x0:0x89e05c4b9b2955ae,
hardware store,Otoritas Pelabuhan,KPBU Pelabuhan Anggrek,"Pelabuhan, Ilangata, Kec. Anggrek, Kabupaten Gorontalo Utara, Gorontalo 96525","Ilangata, Kec. Anggrek, Kabupaten Gorontalo Utara",GORONTALO,96525.0,Indonesia,81341812348.0,,,0.8586546,122.7942525,https://maps.google.com/?cid=0x0:0x47d029b6ad02975a,
hardware store,Toko,Anggrek Store,"Ruko SPBU 331.3401 raya, Jl. Inspeksi Kalimalang No.2 no.42, RT.2/RW.3, Pd. Klp., Kec. Duren Sawit, DKI Jakarta, Daerah Khusus Ibukota Jakarta 13450","Jl. Inspeksi Kalimalang No.2 no.42, RT.2/RW.3, Pd. Klp., Kec. Duren Sawit, DKI Jakarta",GORONTALO,13450.0,Indonesia,2186908376.0,,,-6.2488743,106.9411781,https://maps.google.com/?cid=0x0:0xa9dcab3ad652c0bf,
hardware store,Toko Bahan Bangunan,Toko Sinar Anggrek,"Karangsatria, Kec. Tambun Utara, Kabupaten Bekasi, Jawa Barat 17510","Kec. Tambun Utara, Kabupaten Bekasi",GORONTALO,17510.0,Indonesia,81289103879.0,,,-6.2266891,107.0445096,https://maps.google.com/?cid=0x0:0xd325cbdcf5043810,
hardware store,hardware store,Gorontalo 96253,"Kabupaten Gorontalo Utara, Gorontalo","Kabupaten Gorontalo Utara, Gorontalo",GORONTALO,,Indonesia,,,,0.8707926,123.1014056,https://maps.google.com/?cid=0x0:0xfa82e81a2bd61d81,
hardware store,Toko Bahan Bangunan,UD IIN BANGUNAN,"RWJ8+9Q8, Titidu, Kec. Kwandang, Kabupaten Gorontalo Utara, Gorontalo 96252","Titidu, Kec. Kwandang, Kabupaten Gorontalo Utara",GORONTALO,96252.0,Indonesia,85298114647.0,,,0.8309223,122.9169546,https://maps.google.com/?cid=0x0:0x24029f85ad67b515,
hardware store,Toko Bahan Bangunan,Tb Zafran bangunan,"RWJ8+GQ7, Titidu, Kec. Kwandang, Kabupaten Gorontalo Utara, Gorontalo 96252","Titidu, Kec. Kwandang, Kabupaten Gorontalo Utara",GORONTALO,96252.0,Indonesia,858114647.0,,,0.8316745,122.917207,https://maps.google.com/?cid=0x0:0x7fcde8f88e68b96,
hardware store,Butik,Toko Dua Putra Nanati Jaya,"Dusun Teratai 1, Desa Nanati jaya, Kec. Gentuma Raya, Kabupaten Gorontalo Utara, Gorontalo 96513","Desa Nanati jaya, Kec. Gentuma Raya, Kabupaten Gorontalo Utara",GORONTALO,96513.0,Indonesia,82393019990.0,,,0.9251438,123.0415768,https://maps.google.com/?cid=0x0:0xe4b4ceb956e44d62,
hardware store,Toko Bahan Bangunan,Toko Roffy Jaya,"W73C+H5M, Bigo, Kec. Kaidipang, Kabupaten Bolaang Mongondow Utara, Sulawesi Utara","Kabupaten Bolaang Mongondow Utara, Sulawesi Utara",GORONTALO,,Indonesia,81225533972.0,,,0.9039635,123.27042,https://maps.google.com/?cid=0x0:0xe200e5b4216a47d2,
hardware store,Salon Kecantikan,MONA STATIONERY  Mona Seserahan,"Desa jembatan mera kecamatan tomilito, Dambalo, Kec. Kwandang, Kabupaten Gorontalo Utara, Gorontalo 96252","Dambalo, Kec. Kwandang, Kabupaten Gorontalo Utara",GORONTALO,96252.0,Indonesia,82111696992.0,,,0.8452045,122.9160888,https://maps.google.com/?cid=0x0:0xa535df9b9d75e67e,
hardware store,Toko Alat Tulis Kantor,Anugerah Shop,"Jl. Manggis No.187, Dusun 1, South Bigo, Kaidipang, North Bolaang Mongondow Regency, North Sulawesi 95765","Dusun 1, South Bigo, Kaidipang, North Bolaang Mongondow Regency",GORONTALO,95765.0,Indonesia,85240407040.0,,,0.8992166,123.2652955,https://maps.google.com/?cid=0x0:0x3c948b7b8fd362a4,
hardware store,Toko Pakaian,Toko Fitara,"H3PF+78Q, Jl. Rusli Datau, Lamahu, Kec. Bulango Sel., Kabupaten Bone Bolango, Gorontalo 96127","Jl. Rusli Datau, Lamahu, Kec. Bulango Sel., Kabupaten Bone Bolango",GORONTALO,96127.0,Indonesia,85394069672.0,,,0.5857145,123.0733654,https://maps.google.com/?cid=0x0:0x1db7a4190b416ffd,
hardware store,Toko Bahan Bangunan,Toko Babul Rizky,"W74C+FHH, Kuala, Kec. Kaidipang, Kabupaten Bolaang Mongondow Utara, Sulawesi Utara","Kabupaten Bolaang Mongondow Utara, Sulawesi Utara",GORONTALO,,Indonesia,,,,0.9061913,123.2714797,https://maps.google.com/?cid=0x0:0x6b70789c19fe4d8e,
hardware store,hardware store,Toko Indi Jaya,"Jl.cutnyakdien, Boroko, Kec. Kaidipang, Kabupaten Bolaang Mongondow Utara, Sulawesi Utara 95765","Boroko, Kec. Kaidipang, Kabupaten Bolaang Mongondow Utara",GORONTALO,95765.0,Indonesia,,,,0.9100347,123.2593723,https://maps.google.com/?cid=0x0:0xa5422228e93a22f7,
hardware store,Toko Ponsel,ERAFONE GORONTALO,"Jl. Prof. Dr. H.B. Jassin Ruko Jassin, Limba B, Kota Sel., Kota Gorontalo, Gorontalo 96134","Limba B, Kota Sel., Kota Gorontalo",GORONTALO,96134.0,Indonesia,4358534044.0,,,0.5423005,123.0609512,https://maps.google.com/?cid=0x0:0x8babe37ddaf4e3c2,
hardware store,Toko Percetakan,"FOTOCOPY  AFIAH MANDIRI 86 """"","TIMUR, Boroko, Kec. Kaidipang, Kabupaten Bolaang Mongondow Utara, Sulawesi Utara 95765","Boroko, Kec. Kaidipang, Kabupaten Bolaang Mongondow Utara",GORONTALO,95765.0,Indonesia,85823425202.0,,,0.9119491,123.2681458,https://maps.google.com/?cid=0x0:0xeffe0cb2eff32d0d,
hardware store,Toko Bahan Bangunan,Toko ARNED,"Depan masjid Al-Ikhwan, Bigo, Kec. Kaidipang, Kabupaten Bolaang Mongondow Utara, Sulawesi Utara 95765","Bigo, Kec. Kaidipang, Kabupaten Bolaang Mongondow Utara",GORONTALO,95765.0,Indonesia,81245024301.0,,,0.9024573,123.2662362,https://maps.google.com/?cid=0x0:0xe47eb7492bdb2b2b,
hardware store,hardware store,Kec. Atinggola,"Kabupaten Gorontalo Utara, Gorontalo","Kabupaten Gorontalo Utara, Gorontalo",GORONTALO,,Indonesia,,,,0.8999306,123.1168477,https://maps.google.com/?cid=0x0:0x4030bfbcaf77360,
hardware store,Pusat Perbelanjaan,MR.DIY,"Jl. L.G Korompot, East Boroko, Kaidipang, North Bolaang Mongondow Regency, North Sulawesi 95765","East Boroko, Kaidipang, North Bolaang Mongondow Regency",GORONTALO,95765.0,Indonesia,,,,0.9106199,123.2691347,https://maps.google.com/?cid=0x0:0x890dde17fbec1a2e,
hardware store,hardware store,Kec. Lakea,"Kabupaten Buol, Sulawesi Tengah","Kabupaten Buol, Sulawesi Tengah",GORONTALO,,Indonesia,,,,1.2291653,121.2491764,https://maps.google.com/?cid=0x0:0x11d795a8bf7b7409,
hardware store,hardware store,Gorontalo,,Gorontalo,GORONTALO,,Indonesia,,,,0.6999372,122.4467238,https://maps.google.com/?cid=0x0:0x1030bfbcaf71a20,
hardware store,Tempat Parkir,Biau,"X6J7+W88, Jl. Buol - Gorontalo, Biawu, Kec. Tolinggula, Kabupaten Gorontalo Utara, Gorontalo 96524","Jl. Buol - Gorontalo, Biawu, Kec. Tolinggula, Kabupaten Gorontalo Utara",GORONTALO,96524.0,Indonesia,,,,0.982294,122.213335,https://maps.google.com/?cid=0x0:0x52f14f990728822,
hardware store,Toko,MICROMEDIA,"kelurahan kali kab, Kali, Kec. Biau, Kabupaten Buol, Sulawesi Tengah 94565","Kali, Kec. Biau, Kabupaten Buol",GORONTALO,94565.0,Indonesia,8114445850.0,,,1.1604102,121.4237791,https://maps.google.com/?cid=0x0:0x1b084c808f57dd2c,
hardware store,Toko,CV.Rabitta,"5C6F+4XQ, Kali, Kec. Biau, Kabupaten Buol, Sulawesi Tengah 94565","Kali, Kec. Biau, Kabupaten Buol",GORONTALO,94565.0,Indonesia,85256360707.0,,,1.1603474,121.4249756,https://maps.google.com/?cid=0x0:0x1a3c09eb514ce7f5,
hardware store,Tempat Parkir,Biau,"X6J7+W88, Jl. Buol - Gorontalo, Biawu, Kec. Tolinggula, Kabupaten Gorontalo Utara, Gorontalo 96524","Jl. Buol - Gorontalo, Biawu, Kec. Tolinggula, Kabupaten Gorontalo Utara",GORONTALO,96524.0,Indonesia,,,,0.982294,122.213335,https://maps.google.com/?cid=0x0:0x52f14f990728822,
hardware store,Wilayah Lintas Alam,Pusat Kecamatan Biau,"X6P8+8QG, Jl. Buol - Gorontalo, Biawu, Kec. Tolinggula, Kabupaten Gorontalo Utara, Gorontalo 96524","Jl. Buol - Gorontalo, Biawu, Kec. Tolinggula, Kabupaten Gorontalo Utara",GORONTALO,96524.0,Indonesia,,,,0.9858198,122.2169458,https://maps.google.com/?cid=0x0:0x49483cbb167b89fe,
hardware store,Toko bahan makanan,Winda Home,"X6H7+W6V, Jl. Trans Sulawesi, Bualo, Kec. Biau, Kabupaten Gorontalo Utara, Gorontalo","Kabupaten Gorontalo Utara, Gorontalo",GORONTALO,,Indonesia,,,,0.9798522,122.2130453,https://maps.google.com/?cid=0x0:0x535be985841642d1,
hardware store,Toko Alat-Alat,King Hardware Yos Sudarso,"Jl. Yos Sudarso No.2A, Talise, Kec. Mantikulore, Kota Palu, Sulawesi Tengah 94118","Talise, Kec. Mantikulore, Kota Palu",GORONTALO,94118.0,Indonesia,85322228832.0,,,-0.8808331,119.8727812,https://maps.google.com/?cid=0x0:0x8ba1b291f56af4f5,
hardware store,Butik,Toko Dua Putra Nanati Jaya,"Dusun Teratai 1, Desa Nanati jaya, Kec. Gentuma Raya, Kabupaten Gorontalo Utara, Gorontalo 96513","Desa Nanati jaya, Kec. Gentuma Raya, Kabupaten Gorontalo Utara",GORONTALO,96513.0,Indonesia,82393019990.0,,,0.9251438,123.0415768,https://maps.google.com/?cid=0x0:0xe4b4ceb956e44d62,
hardware store,Butik,Nanati Jaya,"W2FV+VM2, nanati jaya, Kec. Gentuma Raya, Kabupaten Gorontalo Utara, Gorontalo 96253","nanati jaya, Kec. Gentuma Raya, Kabupaten Gorontalo Utara",GORONTALO,96253.0,Indonesia,82393255883.0,,,0.9246269,123.0441452,https://maps.google.com/?cid=0x0:0x407bf6aa9e15af35,
hardware store,hardware store,Gorontalo 96252,"Kec. Kwandang, Kabupaten Gorontalo Utara, Gorontalo","Kabupaten Gorontalo Utara, Gorontalo",GORONTALO,,Indonesia,,,,0.8083426,122.9212265,https://maps.google.com/?cid=0x0:0x8516fb933d27785f,
hardware store,Toko Bahan Bangunan,UD IIN BANGUNAN,"RWJ8+9Q8, Titidu, Kec. Kwandang, Kabupaten Gorontalo Utara, Gorontalo 96252","Titidu, Kec. Kwandang, Kabupaten Gorontalo Utara",GORONTALO,96252.0,Indonesia,85298114647.0,,,0.8309223,122.9169546,https://maps.google.com/?cid=0x0:0x24029f85ad67b515,
hardware store,Toko Bahan Bangunan,Eki Bangunan,"Desa Alata Karya, Kec. Kwandang, Kabupaten Gorontalo Utara, Gorontalo 00000","Kec. Kwandang, Kabupaten Gorontalo Utara",GORONTALO,0.0,Indonesia,82346758169.0,,,0.8132067,122.8967632,https://maps.google.com/?cid=0x0:0x99aadd8bcfc11201,
hardware store,Toko umum,TOKO SAMUDRA RAYA,"Jalan Pelabuhan, Moluo, Kwandang, North Gorontalo Regency, Gorontalo 96252","Moluo, Kwandang, North Gorontalo Regency",GORONTALO,96252.0,Indonesia,82244895670.0,,,0.8483104,122.9120365,https://maps.google.com/?cid=0x0:0xfb9cb2a693aae488,
hardware store,Toko Bahan Bangunan,Toko DR. Cahaya Rezeki,"Jl. Trans Sulawesi, Motilango, Kec. Tibawa, Kabupaten Gorontalo, Gorontalo 96252","Motilango, Kec. Tibawa, Kabupaten Gorontalo",GORONTALO,96252.0,Indonesia,,,,0.7587567,122.8586478,https://maps.google.com/?cid=0x0:0x1d84d8a6866d613b,
hardware store,Toko Bahan Bangunan,Tb Zafran bangunan,"RWJ8+GQ7, Titidu, Kec. Kwandang, Kabupaten Gorontalo Utara, Gorontalo 96252","Titidu, Kec. Kwandang, Kabupaten Gorontalo Utara",GORONTALO,96252.0,Indonesia,858114647.0,,,0.8316745,122.917207,https://maps.google.com/?cid=0x0:0x7fcde8f88e68b96,
hardware store,hardware store,Kec. Kwandang,"Kabupaten Gorontalo Utara, Gorontalo","Kabupaten Gorontalo Utara, Gorontalo",GORONTALO,,Indonesia,,,,0.8440051,122.9141113,https://maps.google.com/?cid=0x0:0xe19a2158f1ecacf2,
hardware store,Toko Elektronik,Alnizam Store,"H259+MR7, Tilote, Kec. Tilango, Kabupaten Gorontalo, Gorontalo 96181","Tilote, Kec. Tilango, Kabupaten Gorontalo",GORONTALO,96181.0,Indonesia,,,,0.5599944,123.0192301,https://maps.google.com/?cid=0x0:0xb15053ecf8a283c,
hardware store,Toko Elektronik,Allnet Elektronik,"H26G+Q66, Jl. Raja Wadipalapa, Ilotidea, Kec. Tilango, Kabupaten Gorontalo, Gorontalo","Kabupaten Gorontalo, Gorontalo",GORONTALO,,Indonesia,82290009006.0,,,0.5619137,123.0255164,https://maps.google.com/?cid=0x0:0x98a894e669b1d011,
hardware store,hardware store,Monano,"Kec. Anggrek, Kabupaten Gorontalo Utara, Gorontalo","Kabupaten Gorontalo Utara, Gorontalo",GORONTALO,,Indonesia,,,,0.8567497,122.6870742,https://maps.google.com/?cid=0x0:0xfb9832e634d0d5c8,
hardware store,hardware store,Gorontalo 96252,"Kec. Kwandang, Kabupaten Gorontalo Utara, Gorontalo","Kabupaten Gorontalo Utara, Gorontalo",GORONTALO,,Indonesia,,,,0.8083426,122.9212265,https://maps.google.com/?cid=0x0:0x8516fb933d27785f,
hardware store,Otoritas Pelabuhan,Ponelo Kepulauan,"VVRP+693, Jl. Kec. Ponelo, Moluo, Kec. Kwandang, Kabupaten Gorontalo Utara, Gorontalo","Kabupaten Gorontalo Utara, Gorontalo",GORONTALO,,Indonesia,,,,0.8905172,122.8859277,https://maps.google.com/?cid=0x0:0x3adda2027890f34b,
hardware store,Toko Elektronik,Mitra Electronic HB Jassin (Dealer Resmi AC Daikin),"TVRI, Jalan HB Jassin (ex-Agus Salim), Komplex Depan Pemancar, Dulalowo, Kec. Kota Tengah, Kota Gorontalo, Gorontalo 96138","Jalan HB Jassin (ex-Agus Salim), Komplex Depan Pemancar, Dulalowo, Kec. Kota Tengah, Kota Gorontalo",GORONTALO,96138.0,Indonesia,85399386355.0,,,0.5579034,123.0485655,https://maps.google.com/?cid=0x0:0x77ef00dde4aa519f,
hardware store,Toko umum,TOKO SAMUDRA RAYA,"Jalan Pelabuhan, Moluo, Kwandang, North Gorontalo Regency, Gorontalo 96252","Moluo, Kwandang, North Gorontalo Regency",GORONTALO,96252.0,Indonesia,82244895670.0,,,0.8483104,122.9120365,https://maps.google.com/?cid=0x0:0xfb9cb2a693aae488,
hardware store,Toko Elektronik,Mitra Electronic Superstore (Nani Wartabone),"Jl. Nani Wartabone No.56, Ipilo, Kec. Kota Tim., Kota Gorontalo, Gorontalo 96112","Ipilo, Kec. Kota Tim., Kota Gorontalo",GORONTALO,96112.0,Indonesia,82393605553.0,,,0.5356444,123.0605542,https://maps.google.com/?cid=0x0:0xb79eb9179cef0de8,
hardware store,Toko Elektronik,Home service store,"MQ3H+988, Pongongaila, Kec. Pulubala, Kabupaten Gorontalo, Gorontalo 96127","Pongongaila, Kec. Pulubala, Kabupaten Gorontalo",GORONTALO,96127.0,Indonesia,82292426786.0,,,0.6534149,122.7783208,https://maps.google.com/?cid=0x0:0xdfcd2df5a0716e8,
hardware store,Toko Komputer,Mitra IT Solution (Gorontalo),"Jl. S. Parman No.34, Biawao, Kota Sel., Kota Gorontalo, Gorontalo 96111","Biawao, Kota Sel., Kota Gorontalo",GORONTALO,96111.0,Indonesia,82346692584.0,,,0.5335114,123.0582534,https://maps.google.com/?cid=0x0:0x8819a514f26ee3ff,
hardware store,Toko Perlengkapan Rumah,Pokaka Houseware,"Jl. Raja Eyato No.39, Limba B, Kota Sel., Kota Gorontalo, Gorontalo 96133","Limba B, Kota Sel., Kota Gorontalo",GORONTALO,96133.0,Indonesia,8114368181.0,,,0.5378262,123.0580983,https://maps.google.com/?cid=0x0:0x5c88344ca7663c01,
hardware store,Toko Elektronik,Toko Mega Elektronik Store,"Dumbo Raya, Jalan Tribrata, Bugis, Kec. Kota Tim., Kota Gorontalo, Gorontalo 96133","Jalan Tribrata, Bugis, Kec. Kota Tim., Kota Gorontalo",GORONTALO,96133.0,Indonesia,81355909883.0,,,0.5302899,123.062453,https://maps.google.com/?cid=0x0:0xf670db0a4d88cb76,
hardware store,Toko Pakaian,EE Shop Gorontalo,"Jl. Pasar Minggu, Oluhuta, Kec. Kabila, Kabupaten Bone Bolango, Gorontalo 96552","Oluhuta, Kec. Kabila, Kabupaten Bone Bolango",GORONTALO,96552.0,Indonesia,85255717517.0,,,0.5408559,123.1015461,https://maps.google.com/?cid=0x0:0xf32395cca0649510,
hardware store,Toko Sepatu,Hashop gorontalo,"G3V5+HCX, Jl. Samratulangi, Limba U Dua, Kota Sel., Kota Gorontalo, Gorontalo","Kota Gorontalo, Gorontalo",GORONTALO,,Indonesia,82346308390.0,,,0.5439928,123.0586191,https://maps.google.com/?cid=0x0:0xf989e4c01d69570a,
hardware store,Toko Pakaian,Toko Fitara,"H3PF+78Q, Jl. Rusli Datau, Lamahu, Kec. Bulango Sel., Kabupaten Bone Bolango, Gorontalo 96127","Jl. Rusli Datau, Lamahu, Kec. Bulango Sel., Kabupaten Bone Bolango",GORONTALO,96127.0,Indonesia,85394069672.0,,,0.5857145,123.0733654,https://maps.google.com/?cid=0x0:0x1db7a4190b416ffd,
hardware store,Toko Elektronik,Toko elektronik sinar mutiara jaya,"Jl. 23 Januari No.36, Biawao, Kota Sel., Kota Gorontalo, Gorontalo 96133","Biawao, Kota Sel., Kota Gorontalo",GORONTALO,96133.0,Indonesia,81292777762.0,,,0.5331121,123.0582665,https://maps.google.com/?cid=0x0:0x811c58045f32f8b7,
hardware store,Toko Elektronik,Toko Elektronik,"Jl. Teuku Umar No.32, Limba B, Kota Sel., Kota Gorontalo, Gorontalo 96134","Limba B, Kota Sel., Kota Gorontalo",GORONTALO,96134.0,Indonesia,,,,0.539742,123.0593022,https://maps.google.com/?cid=0x0:0xb2dfbfd5d7706c42,
hardware store,Toko,Bintang Cell,"G2RV+979, Jl. Anoa, Tenilo, Kec. Kota Bar., Kota Gorontalo, Gorontalo 96136","Jl. Anoa, Tenilo, Kec. Kota Bar., Kota Gorontalo",GORONTALO,96136.0,Indonesia,,,,0.5409218,123.0432227,https://maps.google.com/?cid=0x0:0x9b7f38a9d04a4a87,
hardware store,Toko Ponsel,platinumcellular_gtlo,"Jl. Prof. Dr. H.B. Jassin, Limba U I, Kota Sel., Kota Gorontalo, Gorontalo 96134","Limba U I, Kota Sel., Kota Gorontalo",GORONTALO,96134.0,Indonesia,85231067888.0,,,0.5428577,123.0598301,https://maps.google.com/?cid=0x0:0x11d47a625400fa76,
hardware store,Toko Elektronik,Ardhan Comp,"Ilomata, Kec. Atinggola, Kabupaten Gorontalo Utara, Gorontalo 96253","Kec. Atinggola, Kabupaten Gorontalo Utara",GORONTALO,96253.0,Indonesia,82194388556.0,,,0.8933256,123.0791463,https://maps.google.com/?cid=0x0:0xfeb79fba6563dd5c,
hardware store,Toko Komputer,Istana Disc Computer,"Jl. Cendrawasih No.1A-B, Heledulaa Sel., Kec. Kota Tim., Kota Gorontalo, Gorontalo 96114","Heledulaa Sel., Kec. Kota Tim., Kota Gorontalo",GORONTALO,96114.0,Indonesia,82177108789.0,,,0.542287,123.0625689,https://maps.google.com/?cid=0x0:0x2b295bae36a84a72,
hardware store,Tujuan Wisata,Dermaga Ponelo Kepulauan,"VVWP+Q5R, Jl. Kec. Ponelo, Limbatihu, Paguyaman Pantai, Kabupaten Gorontalo Utara, Gorontalo 96252","Jl. Kec. Ponelo, Limbatihu, Paguyaman Pantai, Kabupaten Gorontalo Utara",GORONTALO,96252.0,Indonesia,,,,0.8969899,122.8853839,https://maps.google.com/?cid=0x0:0xbe0c556385bf6cc2,
hardware store,Makanan Kecil,Kios Mama Nagon,"VVRP+53J, Moluo, Kec. Kwandang, Kabupaten Gorontalo Utara, Gorontalo","Kabupaten Gorontalo Utara, Gorontalo",GORONTALO,,Indonesia,,,,0.8904978,122.8851871,https://maps.google.com/?cid=0x0:0x92211ae7e14e1120,
hardware store,Toko Perlengkapan Rumah,UD.PERSADA BANGUNAN,"Jl.Trans Sulawesi No.Desa, Bulontio Barat, Kec. Sumalata, Kabupaten Gorontalo Utara, Gorontalo 96254","Bulontio Barat, Kec. Sumalata, Kabupaten Gorontalo Utara",GORONTALO,96254.0,Indonesia,85256442121.0,,,0.9815164,122.4192615,https://maps.google.com/?cid=0x0:0x4642f5c4ad507770,
hardware store,Toko Buku,Fotocopy MEICALCOM,"XCMF+7G4, Bulontio Tim., Kec. Sumalata, Kabupaten Gorontalo Utara, Gorontalo 96254","Bulontio Tim., Kec. Sumalata, Kabupaten Gorontalo Utara",GORONTALO,96254.0,Indonesia,81340415811.0,,,0.9831424,122.4238254,https://maps.google.com/?cid=0x0:0x3c003f2a4d40dda0,
hardware store,hardware store,Gorontalo 96254,"Kabupaten Gorontalo Utara, Gorontalo","Kabupaten Gorontalo Utara, Gorontalo",GORONTALO,,Indonesia,,,,0.926195,122.4014193,https://maps.google.com/?cid=0x0:0x9a29fb0ff347278,
hardware store,hardware store,Toko ARDES,"XCG8+C8W, Desa, mebongo, Kec. Sumalata, Kabupaten Gorontalo Utara, Gorontalo 96254","Desa, mebongo, Kec. Sumalata, Kabupaten Gorontalo Utara",GORONTALO,96254.0,Indonesia,,,,0.9761183,122.4158334,https://maps.google.com/?cid=0x0:0x2c5d6a8faabccf5c,
hardware store,hardware store,Gorontalo 96254,"Kabupaten Gorontalo Utara, Gorontalo","Kabupaten Gorontalo Utara, Gorontalo",GORONTALO,,Indonesia,,,,0.926195,122.4014193,https://maps.google.com/?cid=0x0:0x9a29fb0ff347278,
hardware store,Toko Buku,Fotocopy MEICALCOM,"XCMF+7G4, Bulontio Tim., Kec. Sumalata, Kabupaten Gorontalo Utara, Gorontalo 96254","Bulontio Tim., Kec. Sumalata, Kabupaten Gorontalo Utara",GORONTALO,96254.0,Indonesia,81340415811.0,,,0.9831424,122.4238254,https://maps.google.com/?cid=0x0:0x3c003f2a4d40dda0,
hardware store,Toko Perlengkapan Rumah,UD.PERSADA BANGUNAN,"Jl.Trans Sulawesi No.Desa, Bulontio Barat, Kec. Sumalata, Kabupaten Gorontalo Utara, Gorontalo 96254","Bulontio Barat, Kec. Sumalata, Kabupaten Gorontalo Utara",GORONTALO,96254.0,Indonesia,85256442121.0,,,0.9815164,122.4192615,https://maps.google.com/?cid=0x0:0x4642f5c4ad507770,
hardware store,Toko,TB.PUSPITA LIMBOTO,"Jl. A.K. Duhe, Kayubulan, Kec. Limboto, Kabupaten Gorontalo, Gorontalo 96214","Kayubulan, Kec. Limboto, Kabupaten Gorontalo",GORONTALO,96214.0,Indonesia,81354702523.0,,,0.6200368,122.9792481,https://maps.google.com/?cid=0x0:0x16eb4eeb94631e96,
hardware store,Toko Perlengkapan Rumah,Toko Cahaya Popodu,"J34M+C2V, Jl. . Halabolu, Popodu, Kec. Bulango Tim., Kabupaten Bone Bolango, Gorontalo 96126","Jl. . Halabolu, Popodu, Kec. Bulango Tim., Kabupaten Bone Bolango",GORONTALO,96126.0,Indonesia,,,,0.6061176,123.0825456,https://maps.google.com/?cid=0x0:0xd7c4fab573eea2c2,
hardware store,hardware store,Toko Nusantara Bangunan Lemito,"Jl. Trans Sulawesi No.Ds, RW.Ponelo, Lemito Utara, Kec. Lemito, Kabupaten Pohuwato, Gorontalo","Kabupaten Pohuwato, Gorontalo",GORONTALO,,Indonesia,85266222296.0,,,0.5474748,121.5724118,https://maps.google.com/?cid=0x0:0x1e16e4de03ce4dc7,
hardware store,Toko Bahan Bangunan,Toko Bangunan Rahmalia,"H34W+H95, Toto Sel., Kec. Kabila, Kabupaten Bone Bolango, Gorontalo 96115","Toto Sel., Kec. Kabila, Kabupaten Bone Bolango",GORONTALO,96115.0,Indonesia,,,,0.5563844,123.0959854,https://maps.google.com/?cid=0x0:0x9cb52e7b5ca75780,
hardware store,Pusat Perbelanjaan,AZKO GORONTALO,"Jl. S. Parman No.61, Biawao, Kota Sel., Kota Gorontalo, Gorontalo 96133","Biawao, Kota Sel., Kota Gorontalo",GORONTALO,96133.0,Indonesia,82194997161.0,,,0.5343848,123.058297,https://maps.google.com/?cid=0x0:0xcb1e88bb5ae6a722,
hardware store,Toko Bahan Bangunan,Toko Brillian bangunan,"Jl. Andalas, Tapa, Kec. Sipatana, Kota Gorontalo, Gorontalo 96138","Tapa, Kec. Sipatana, Kota Gorontalo",GORONTALO,96138.0,Indonesia,8999777249.0,,,0.5706802,123.0588042,https://maps.google.com/?cid=0x0:0xa6b60637baaf429f,
hardware store,Toko,Toko Aneka Baut,"G3Q3+CFM, Jl. Raja Eyato, Limba B, Kota Sel., Kota Gorontalo, Gorontalo 96133","Jl. Raja Eyato, Limba B, Kota Sel., Kota Gorontalo",GORONTALO,96133.0,Indonesia,81399295697.0,,,0.5385887,123.053668,https://maps.google.com/?cid=0x0:0xdf55405f3a7ac348,
hardware store,Toko Perlengkapan Rumah,MR.DIY,"Ruko HB Yassin, Jl. Prof. Dr. H.B. Jassin No.450, Dulalowo, Kec. Kota Tengah, Kota Gorontalo, Gorontalo 96128","Jl. Prof. Dr. H.B. Jassin No.450, Dulalowo, Kec. Kota Tengah, Kota Gorontalo",GORONTALO,96128.0,Indonesia,2130022789.0,,,0.5603945,123.0480491,https://maps.google.com/?cid=0x0:0xb2f957ac3a13b8dd,
hardware store,Toko Bahan Bangunan,BJP BANGUNAN GORONTALO,"bjpbangunan@gmail.com, Heledulaa Sel., Kec. Kota Tim., Kota Gorontalo, Gorontalo 96128","Heledulaa Sel., Kec. Kota Tim., Kota Gorontalo",GORONTALO,96128.0,Indonesia,81935027833.0,,,0.5384306,123.0616,https://maps.google.com/?cid=0x0:0xaa9d2db3149eb8a4,
hardware store,Toko Bahan Bangunan,TOKO BANGUNAN SETIA MANDIRI,"JWQ9+C94, Jl. Trans Sulawesi, Yosonegoro, Kec. Limboto Bar., Kabupaten Gorontalo, Gorontalo 96218","Jl. Trans Sulawesi, Yosonegoro, Kec. Limboto Bar., Kabupaten Gorontalo",GORONTALO,96218.0,Indonesia,,,,0.6385094,122.9184596,https://maps.google.com/?cid=0x0:0x749368d304051a8b,
hardware store,Toko Bahan Bangunan,SUMBER JAYA,"Trans Sulawesi, Jl. Ahmad A. Wahab Depan SDN 5, Hutuo, Kec. Limboto, Kabupaten Gorontalo, Gorontalo 96213","Jl. Ahmad A. Wahab Depan SDN 5, Hutuo, Kec. Limboto, Kabupaten Gorontalo",GORONTALO,96213.0,Indonesia,85145521991.0,,,0.6243982,122.9990585,https://maps.google.com/?cid=0x0:0x30b938519a4a2963,
hardware store,Toko Bahan Bangunan,UD Kartika,"JRV7+6WP, Tridarma, Kec. Pulubala, Kabupaten Gorontalo, Gorontalo 96251","Tridarma, Kec. Pulubala, Kabupaten Gorontalo",GORONTALO,96251.0,Indonesia,81340568999.0,,,0.6430939,122.814819,https://maps.google.com/?cid=0x0:0x420ef08bf10c588,
hardware store,Toko Bahan Bangunan,Toko bangunan setia baru,"QVJ5+M3X, Unnamed Road, Pontolo, Kec. Kwandang, Kabupaten Gorontalo Utara, Gorontalo 96252","Unnamed Road, Pontolo, Kec. Kwandang, Kabupaten Gorontalo Utara",GORONTALO,96252.0,Indonesia,,,,0.781745,122.857737,https://maps.google.com/?cid=0x0:0x6b95fe99a2fc56be,
hardware store,Toko Bahan Bangunan,Toko Bangunan Bukit Emas,"Jl. Nani Hasan Desa, Huntulohulawa, Kec. Bongomeme, Kabupaten Gorontalo, Gorontalo 96271","Huntulohulawa, Kec. Bongomeme, Kabupaten Gorontalo",GORONTALO,96271.0,Indonesia,,,,0.5973966,122.8670842,https://maps.google.com/?cid=0x0:0x6ef6a21c35375b8c,
hardware store,Toko Bahan Bangunan,Eki Bangunan,"Desa Alata Karya, Kec. Kwandang, Kabupaten Gorontalo Utara, Gorontalo 00000","Kec. Kwandang, Kabupaten Gorontalo Utara",GORONTALO,0.0,Indonesia,82346758169.0,,,0.8132067,122.8967632,https://maps.google.com/?cid=0x0:0x99aadd8bcfc11201,
hardware store,Toko Bahan Bangunan,QRS JAYA,"Jl. Yusuf Hasiru No.45, Tanggikiki, Kec. Sipatana, Kota Gorontalo, Gorontalo 96128","Tanggikiki, Kec. Sipatana, Kota Gorontalo",GORONTALO,96128.0,Indonesia,82193222269.0,,,0.5744244,123.0645098,https://maps.google.com/?cid=0x0:0xe1b39f8967a16232,
hardware store,hardware store,King depo,"Unnamed Road, Sukamakmur, Kec. Tolangohula, Kabupaten Gorontalo, Gorontalo 96264","Sukamakmur, Kec. Tolangohula, Kabupaten Gorontalo",GORONTALO,96264.0,Indonesia,,,,0.7001209,122.5611492,https://maps.google.com/?cid=0x0:0xb790658136a6bd54,
hardware store,Pemasok Bahan Bangunan,Setia Budi,"JXC9+2QG, Jl. Trans Sulawesi, Bolihuangga, Kec. Limboto, Kabupaten Gorontalo, Gorontalo 96271","Jl. Trans Sulawesi, Bolihuangga, Kec. Limboto, Kabupaten Gorontalo",GORONTALO,96271.0,Indonesia,83821475758.0,,,0.6200656,122.9694535,https://maps.google.com/?cid=0x0:0xdce43e6e074efe40,
hardware store,Toko Bahan Bangunan,TB. Tiga Jaya,"Jl. Letjend Suprapto No.56, Biawao, Kota Sel., Kota Gorontalo, Gorontalo 96133","Biawao, Kota Sel., Kota Gorontalo",GORONTALO,96133.0,Indonesia,,,,0.5348684,123.0576445,https://maps.google.com/?cid=0x0:0xa99404e8615e29e6,
hardware store,hardware store,Kec. Sumalata,"Kabupaten Gorontalo Utara, Gorontalo","Kabupaten Gorontalo Utara, Gorontalo",GORONTALO,,Indonesia,,,,0.9833404,122.4195038,https://maps.google.com/?cid=0x0:0x1c79fbf3e480daa9,
hardware store,hardware store,Gorontalo 96524,"Kec. Tolinggula, Kabupaten Gorontalo Utara, Gorontalo","Kabupaten Gorontalo Utara, Gorontalo",GORONTALO,,Indonesia,,,,0.9280512,122.2200065,https://maps.google.com/?cid=0x0:0xd3efad24a9000eb8,
hardware store,hardware store,Kec. Tolinggula,"Kabupaten Gorontalo Utara, Gorontalo","Kabupaten Gorontalo Utara, Gorontalo",GORONTALO,,Indonesia,,,,0.9860354,122.2171673,https://maps.google.com/?cid=0x0:0x666bd021311367c,
hardware store,hardware store,Gorontalo 96252,"Kec. Kwandang, Kabupaten Gorontalo Utara, Gorontalo","Kabupaten Gorontalo Utara, Gorontalo",GORONTALO,,Indonesia,,,,0.8083426,122.9212265,https://maps.google.com/?cid=0x0:0x8516fb933d27785f,
hardware store,Toko Bahan Bangunan,Mitra Home Depo,"Jl. Palma No.43, Huangobotu, Kec. Dungingi, Kota Gorontalo, Gorontalo 96136","Huangobotu, Kec. Dungingi, Kota Gorontalo",GORONTALO,96136.0,Indonesia,82194658961.0,,,0.5589725,123.0381063,https://maps.google.com/?cid=0x0:0x8c7c0dc82938b9e9,
hardware store,Toko umum,TOKO SAMUDRA RAYA,"Jalan Pelabuhan, Moluo, Kwandang, North Gorontalo Regency, Gorontalo 96252","Moluo, Kwandang, North Gorontalo Regency",GORONTALO,96252.0,Indonesia,82244895670.0,,,0.8483104,122.9120365,https://maps.google.com/?cid=0x0:0xfb9cb2a693aae488,
hardware store,Toko Elektronik,Home service store,"MQ3H+988, Pongongaila, Kec. Pulubala, Kabupaten Gorontalo, Gorontalo 96127","Pongongaila, Kec. Pulubala, Kabupaten Gorontalo",GORONTALO,96127.0,Indonesia,82292426786.0,,,0.6534149,122.7783208,https://maps.google.com/?cid=0x0:0xdfcd2df5a0716e8,
hardware store,Toko Komputer,Gorontalo Computer,"Jl. Prof. Dr. H.B. Jassin, Dulalowo, Kec. Kota Tengah, Kota Gorontalo, Gorontalo 96128","Dulalowo, Kec. Kota Tengah, Kota Gorontalo",GORONTALO,96128.0,Indonesia,82349963113.0,,,0.560889,123.0479729,https://maps.google.com/?cid=0x0:0x69e5c1e0d73882d4,
hardware store,Toko Komputer,Mitra IT Solution (Gorontalo),"Jl. S. Parman No.34, Biawao, Kota Sel., Kota Gorontalo, Gorontalo 96111","Biawao, Kota Sel., Kota Gorontalo",GORONTALO,96111.0,Indonesia,82346692584.0,,,0.5335114,123.0582534,https://maps.google.com/?cid=0x0:0x8819a514f26ee3ff,
hardware store,Toko Pakaian,EE Shop Gorontalo,"Jl. Pasar Minggu, Oluhuta, Kec. Kabila, Kabupaten Bone Bolango, Gorontalo 96552","Oluhuta, Kec. Kabila, Kabupaten Bone Bolango",GORONTALO,96552.0,Indonesia,85255717517.0,,,0.5408559,123.1015461,https://maps.google.com/?cid=0x0:0xf32395cca0649510,
hardware store,Toko Bahan Bangunan,GITA'S STORE (TOKO GITA),"JCVJ+PCQ, Unnamed Road, Mekar Jaya, Kec. Wonosari, Kabupaten Boalemo, Gorontalo 96263","Unnamed Road, Mekar Jaya, Kec. Wonosari, Kabupaten Boalemo",GORONTALO,96263.0,Indonesia,,,,0.64434,122.4311228,https://maps.google.com/?cid=0x0:0x6cf614e37c5275ea,
hardware store,hardware store,Gorontalo,,Gorontalo,GORONTALO,,Indonesia,,,,0.6999372,122.4467238,https://maps.google.com/?cid=0x0:0x1030bfbcaf71a20,
hardware store,hardware store,TMA (Tomilito Motor Accessories),"VWGM+CHM, Dambalo, Kec. Kwandang, Kabupaten Gorontalo Utara, Gorontalo 96252","Dambalo, Kec. Kwandang, Kabupaten Gorontalo Utara",GORONTALO,96252.0,Indonesia,85241950065.0,,,0.8760886,122.9339087,https://maps.google.com/?cid=0x0:0xcf115c938a6ea2d4,
hardware store,Toko Elektronik,Toko Mega Elektronik Store,"Dumbo Raya, Jalan Tribrata, Bugis, Kec. Kota Tim., Kota Gorontalo, Gorontalo 96133","Jalan Tribrata, Bugis, Kec. Kota Tim., Kota Gorontalo",GORONTALO,96133.0,Indonesia,81355909883.0,,,0.5302899,123.062453,https://maps.google.com/?cid=0x0:0xf670db0a4d88cb76,
hardware store,Toko Elektronik,Mitra Electronic HB Jassin (Dealer Resmi AC Daikin),"TVRI, Jalan HB Jassin (ex-Agus Salim), Komplex Depan Pemancar, Dulalowo, Kec. Kota Tengah, Kota Gorontalo, Gorontalo 96138","Jalan HB Jassin (ex-Agus Salim), Komplex Depan Pemancar, Dulalowo, Kec. Kota Tengah, Kota Gorontalo",GORONTALO,96138.0,Indonesia,85399386355.0,,,0.5579034,123.0485655,https://maps.google.com/?cid=0x0:0x77ef00dde4aa519f,
hardware store,Toko Perlengkapan Rumah,Pokaka Houseware,"Jl. Raja Eyato No.39, Limba B, Kota Sel., Kota Gorontalo, Gorontalo 96133","Limba B, Kota Sel., Kota Gorontalo",GORONTALO,96133.0,Indonesia,8114368181.0,,,0.5378262,123.0580983,https://maps.google.com/?cid=0x0:0x5c88344ca7663c01,
hardware store,Toko Komputer,Istana Disc Computer,"Jl. Cendrawasih No.1A-B, Heledulaa Sel., Kec. Kota Tim., Kota Gorontalo, Gorontalo 96114","Heledulaa Sel., Kec. Kota Tim., Kota Gorontalo",GORONTALO,96114.0,Indonesia,82177108789.0,,,0.542287,123.0625689,https://maps.google.com/?cid=0x0:0x2b295bae36a84a72,
hardware store,Toko Ponsel,Allmie Cell,"XCJ9+3F3, Bulontio Bar., Kec. Sumalata, Kabupaten Gorontalo Utara, Gorontalo 96254","Bulontio Bar., Kec. Sumalata, Kabupaten Gorontalo Utara",GORONTALO,96254.0,Indonesia,85340041600.0,,,0.9801304,122.4186612,https://maps.google.com/?cid=0x0:0x9944ea921ed4c1ce,
hardware store,Toko Pakaian,Toko Fitara,"H3PF+78Q, Jl. Rusli Datau, Lamahu, Kec. Bulango Sel., Kabupaten Bone Bolango, Gorontalo 96127","Jl. Rusli Datau, Lamahu, Kec. Bulango Sel., Kabupaten Bone Bolango",GORONTALO,96127.0,Indonesia,85394069672.0,,,0.5857145,123.0733654,https://maps.google.com/?cid=0x0:0x1db7a4190b416ffd,
hardware store,Toko Ponsel,platinumcellular_gtlo,"Jl. Prof. Dr. H.B. Jassin, Limba U I, Kota Sel., Kota Gorontalo, Gorontalo 96134","Limba U I, Kota Sel., Kota Gorontalo",GORONTALO,96134.0,Indonesia,85231067888.0,,,0.5428577,123.0598301,https://maps.google.com/?cid=0x0:0x11d47a625400fa76,
hardware store,Toko Pakaian,Toko bin yusuf,"Jl. Letjend Suprapto No.127, Biawao, Kota Sel., Kota Gorontalo, Gorontalo 96111","Biawao, Kota Sel., Kota Gorontalo",GORONTALO,96111.0,Indonesia,,,,0.5365755,123.0575561,https://maps.google.com/?cid=0x0:0x417d546505991af5,
hardware store,Toko Komputer,GST COMPUTER GORONTALO,"Pertigaan, Jl HB.JASSIN (EX Agusalim) No 91, Samping Maxima Laboratorium Klinik, Jl. Manggis Jl. Kh. Agus Salim No.Ruko, Limba U Dua, South Kota, Kota Gorontalo, Gorontalo 96136","Jl HB.JASSIN (EX Agusalim) No 91, Samping Maxima Laboratorium Klinik, Jl. Manggis Jl. Kh. Agus Salim No.Ruko, Limba U Dua, South Kota, Kota Gorontalo",GORONTALO,96136.0,Indonesia,85146306341.0,,,0.547907,123.0514548,https://maps.google.com/?cid=0x0:0x2c04df6593d9d45c,
hardware store,Toko,Bintang Cell,"G2RV+979, Jl. Anoa, Tenilo, Kec. Kota Bar., Kota Gorontalo, Gorontalo 96136","Jl. Anoa, Tenilo, Kec. Kota Bar., Kota Gorontalo",GORONTALO,96136.0,Indonesia,,,,0.5409218,123.0432227,https://maps.google.com/?cid=0x0:0x9b7f38a9d04a4a87,
hardware store,Toko Pakaian,Toko Cahaya Krawang,"Jl. Jend. Katamso No.3, Siendeng, Kec. Hulonthalangi, Kota Gorontalo, Gorontalo 96133","Siendeng, Kec. Hulonthalangi, Kota Gorontalo",GORONTALO,96133.0,Indonesia,435824310.0,,,0.5332094,123.0567179,https://maps.google.com/?cid=0x0:0xc3f34179dd740093,
toko bangunan,Toko Swalayan,Toko FIRMAN BANGUNAN,"RQWH+JV7, Ilangata, Kec. Anggrek, Kabupaten Gorontalo Utara, Gorontalo 96525","Ilangata, Kec. Anggrek, Kabupaten Gorontalo Utara",GORONTALO,96525.0,Indonesia,,,,0.8465381,122.7796794,https://maps.google.com/?cid=0x0:0x86ca17fa7678d820,
toko bangunan,toko bangunan,Gorontalo 96525,"Kec. Anggrek, Kabupaten Gorontalo Utara, Gorontalo","Kabupaten Gorontalo Utara, Gorontalo",GORONTALO,,Indonesia,,,,0.8425794,122.695547,https://maps.google.com/?cid=0x0:0xc910c3a3b1bab734,
toko bangunan,Toko Bahan Bangunan,Toko Golden Bangunan,"Bulotadaa, Kec. Sipatana, Kabupaten Gorontalo, Gorontalo 96139","Kec. Sipatana, Kabupaten Gorontalo",GORONTALO,96139.0,Indonesia,82166906062.0,,,0.5814976,123.0574234,https://maps.google.com/?cid=0x0:0x453c5f8d09646695,
toko bangunan,Toko Bahan Bangunan,Eki Bangunan,"Desa Alata Karya, Kec. Kwandang, Kabupaten Gorontalo Utara, Gorontalo 00000","Kec. Kwandang, Kabupaten Gorontalo Utara",GORONTALO,0.0,Indonesia,82346758169.0,,,0.8132067,122.8967632,https://maps.google.com/?cid=0x0:0x99aadd8bcfc11201,
toko bangunan,Toko Swalayan,TOKO STAR NR,"Jl. Buol - Gorontalo, Tolango, Kec. Anggrek, Kabupaten Gorontalo Utara, Gorontalo 96525","Tolango, Kec. Anggrek, Kabupaten Gorontalo Utara",GORONTALO,96525.0,Indonesia,85246546788.0,,,0.8521141,122.7561998,https://maps.google.com/?cid=0x0:0x3e5185fbc3a9970,
toko bangunan,Toko Bahan Bangunan,Toko A TIGA BANGUNAN,"G3H6+QW4, Bugis, Kec. Kota Tim., Kota Gorontalo, Gorontalo 96133","Bugis, Kec. Kota Tim., Kota Gorontalo",GORONTALO,96133.0,Indonesia,,,,0.5293892,123.0623249,https://maps.google.com/?cid=0x0:0xb90ee6079d9ad250,
toko bangunan,Toko Bahan Bangunan,Sinar Bangunan Gorontalo,"Jalan Kasuari Baru No.8, Heledulaa, Kota Timur, Heledulaa, Gorontalo, Kota Gorontalo, Gorontalo 96135","Heledulaa, Kota Timur, Heledulaa, Gorontalo, Kota Gorontalo",GORONTALO,96135.0,Indonesia,82194995146.0,,,0.5459753,123.0653457,https://maps.google.com/?cid=0x0:0xf278c2a9fcd91c78,
toko bangunan,Toko Bahan Bangunan,Monas Jaya Bangunan,"VMMP+6XW, Monas, Kec. Anggrek, Kabupaten Gorontalo Utara, Gorontalo 96525","Monas, Kec. Anggrek, Kabupaten Gorontalo Utara",GORONTALO,96525.0,Indonesia,,,,0.8831054,122.6874423,https://maps.google.com/?cid=0x0:0x2cce6c94b83da99,
toko bangunan,Pemasok Bahan Bangunan,Toko Bahan Bangunan Sari Agung,"Bulila, Kec. Telaga, Kabupaten Gorontalo, Gorontalo 96138","Kec. Telaga, Kabupaten Gorontalo",GORONTALO,96138.0,Indonesia,82196031500.0,,,0.5765609,123.0449069,https://maps.google.com/?cid=0x0:0x1ec016b864d215a6,
toko bangunan,Toko,Tk LM Sanjaya,"VMJQ+8CQ, Jl. Buol - Gorontalo, Monas, Kec. Anggrek, Kabupaten Gorontalo Utara, Gorontalo 96525","Jl. Buol - Gorontalo, Monas, Kec. Anggrek, Kabupaten Gorontalo Utara",GORONTALO,96525.0,Indonesia,,,,0.8808402,122.6886015,https://maps.google.com/?cid=0x0:0xc5d098fd9d137a5b,
toko bangunan,Toko Bahan Bangunan,Toko Zafran Bangunan,"Leboto, Kec. Kwandang, Kabupaten Gorontalo Utara, Gorontalo 96252","Kec. Kwandang, Kabupaten Gorontalo Utara",GORONTALO,96252.0,Indonesia,85298114647.0,,,0.8054214,122.884083,https://maps.google.com/?cid=0x0:0xd3db31c3164925dc,
toko bangunan,Toko Bahan Bangunan,Toko Bangunan Istana Bangunan,"Jl. D.I. Panjaitan, Limba U I, Kota Sel., Kota Gorontalo, Gorontalo 96135","Limba U I, Kota Sel., Kota Gorontalo",GORONTALO,96135.0,Indonesia,,,,0.5481889,123.062409,https://maps.google.com/?cid=0x0:0xb8e64cbbbe885a9a,
toko bangunan,Toko Bahan Bangunan,Toko DR. Cahaya Rezeki,"Jl. Trans Sulawesi, Motilango, Kec. Tibawa, Kabupaten Gorontalo, Gorontalo 96252","Motilango, Kec. Tibawa, Kabupaten Gorontalo",GORONTALO,96252.0,Indonesia,,,,0.7587567,122.8586478,https://maps.google.com/?cid=0x0:0x1d84d8a6866d613b,
toko bangunan,Toko Bahan Bangunan,Toko Brillian bangunan,"Jl. Andalas, Tapa, Kec. Sipatana, Kota Gorontalo, Gorontalo 96138","Tapa, Kec. Sipatana, Kota Gorontalo",GORONTALO,96138.0,Indonesia,8999777249.0,,,0.5706802,123.0588042,https://maps.google.com/?cid=0x0:0xa6b60637baaf429f,
toko bangunan,Otoritas Pelabuhan,KPBU Pelabuhan Anggrek,"Pelabuhan, Ilangata, Kec. Anggrek, Kabupaten Gorontalo Utara, Gorontalo 96525","Ilangata, Kec. Anggrek, Kabupaten Gorontalo Utara",GORONTALO,96525.0,Indonesia,81341812348.0,,,0.8586546,122.7942525,https://maps.google.com/?cid=0x0:0x47d029b6ad02975a,
toko bangunan,Toko Bahan Bangunan,UD SHAFIYAH BERKAH,"WHXM+9JH, Dulukapa, Kec. Sumalata, Kabupaten Gorontalo Utara, Gorontalo 96254","Dulukapa, Kec. Sumalata, Kabupaten Gorontalo Utara",GORONTALO,96254.0,Indonesia,,,,0.9484378,122.5841229,https://maps.google.com/?cid=0x0:0x4d412b08cb118540,
toko bangunan,Toko Bahan Bangunan,Toko Sinar Anggrek,"Karangsatria, Kec. Tambun Utara, Kabupaten Bekasi, Jawa Barat 17510","Kec. Tambun Utara, Kabupaten Bekasi",GORONTALO,17510.0,Indonesia,81289103879.0,,,-6.2266891,107.0445096,https://maps.google.com/?cid=0x0:0xd325cbdcf5043810,
toko bangunan,Toko Bahan Bangunan,TB. Anggrek Jaya,"No. 05, Jl. Anggrek, RT.20/RW.2, Kuningan, Karet Kuningan, Kecamatan Setiabudi, Kota Jakarta Selatan, Daerah Khusus Ibukota Jakarta 12730","Jl. Anggrek, RT.20/RW.2, Kuningan, Karet Kuningan, Kecamatan Setiabudi, Kota Jakarta Selatan",GORONTALO,12730.0,Indonesia,,,,-6.2173835,106.8269115,https://maps.google.com/?cid=0x0:0x10ff63718e614f5,
toko bangunan,toko bangunan,Gorontalo 96253,"Kabupaten Gorontalo Utara, Gorontalo","Kabupaten Gorontalo Utara, Gorontalo",GORONTALO,,Indonesia,,,,0.8707926,123.1014056,https://maps.google.com/?cid=0x0:0xfa82e81a2bd61d81,
toko bangunan,Toko Bahan Bangunan,Sinar Bangunan Gorontalo,"Jalan Kasuari Baru No.8, Heledulaa, Kota Timur, Heledulaa, Gorontalo, Kota Gorontalo, Gorontalo 96135","Heledulaa, Kota Timur, Heledulaa, Gorontalo, Kota Gorontalo",GORONTALO,96135.0,Indonesia,82194995146.0,,,0.5459753,123.0653457,https://maps.google.com/?cid=0x0:0xf278c2a9fcd91c78,
toko bangunan,Toko Perlengkapan Rumah,TOKO CELA GENTUMA,"W2FP+W3P, Gentuma, Kec. Gentuma Raya, Kabupaten Gorontalo Utara, Gorontalo 96253","Gentuma, Kec. Gentuma Raya, Kabupaten Gorontalo Utara",GORONTALO,96253.0,Indonesia,82188589754.0,,,0.9248489,123.0352114,https://maps.google.com/?cid=0x0:0x3836de955066973c,
toko bangunan,Toko Bahan Bangunan,Tb Zafran bangunan,"RWJ8+GQ7, Titidu, Kec. Kwandang, Kabupaten Gorontalo Utara, Gorontalo 96252","Titidu, Kec. Kwandang, Kabupaten Gorontalo Utara",GORONTALO,96252.0,Indonesia,858114647.0,,,0.8316745,122.917207,https://maps.google.com/?cid=0x0:0x7fcde8f88e68b96,
toko bangunan,Toko Bahan Bangunan,Bangunan Jaya Toko,"JL. Mayjen DI Panjaitan No.3396111, Limba U Satu, South Kota, Kota Gorontalo, Gorontalo 96135","Limba U Satu, South Kota, Kota Gorontalo",GORONTALO,96135.0,Indonesia,85930982366.0,,,0.544945,123.0618261,https://maps.google.com/?cid=0x0:0x97f173e9fe54e794,
toko bangunan,Toko Bahan Bangunan,Toko A TIGA BANGUNAN,"G3H6+QW4, Bugis, Kec. Kota Tim., Kota Gorontalo, Gorontalo 96133","Bugis, Kec. Kota Tim., Kota Gorontalo",GORONTALO,96133.0,Indonesia,,,,0.5293892,123.0623249,https://maps.google.com/?cid=0x0:0xb90ee6079d9ad250,
toko bangunan,Pemasok Bahan Bangunan,Toko Bahan Bangunan Sari Agung,"Bulila, Kec. Telaga, Kabupaten Gorontalo, Gorontalo 96138","Kec. Telaga, Kabupaten Gorontalo",GORONTALO,96138.0,Indonesia,82196031500.0,,,0.5765609,123.0449069,https://maps.google.com/?cid=0x0:0x1ec016b864d215a6,
toko bangunan,Toko Bahan Bangunan,Toko Brillian bangunan,"Jl. Andalas, Tapa, Kec. Sipatana, Kota Gorontalo, Gorontalo 96138","Tapa, Kec. Sipatana, Kota Gorontalo",GORONTALO,96138.0,Indonesia,8999777249.0,,,0.5706802,123.0588042,https://maps.google.com/?cid=0x0:0xa6b60637baaf429f,
toko bangunan,Toko Bahan Bangunan,TOKO JAGO BANGUNAN,"Jl. Diponegoro, Pohuwato Tim., Kec. Marisa, Kabupaten Pohuwato, Gorontalo 96265","Pohuwato Tim., Kec. Marisa, Kabupaten Pohuwato",GORONTALO,96265.0,Indonesia,85397810927.0,,,0.4574067,121.936869,https://maps.google.com/?cid=0x0:0x43dd264c205c1b79,
toko bangunan,toko bangunan,TK Monas Jaya Bangunan,"Jl. Trans Sulawesi No.Desa, Monas, Kec Monan, Kabupaten Gorontalo Utara, Gorontalo 97525","Monas, Kec Monan, Kabupaten Gorontalo Utara",GORONTALO,97525.0,Indonesia,85136278212.0,,,0.902647,123.0939052,https://maps.google.com/?cid=0x0:0xc2143119259857ad,
toko bangunan,Toko Bahan Bangunan,UD IIN BANGUNAN,"RWJ8+9Q8, Titidu, Kec. Kwandang, Kabupaten Gorontalo Utara, Gorontalo 96252","Titidu, Kec. Kwandang, Kabupaten Gorontalo Utara",GORONTALO,96252.0,Indonesia,85298114647.0,,,0.8309223,122.9169546,https://maps.google.com/?cid=0x0:0x24029f85ad67b515,
toko bangunan,toko bangunan,PONOMPIA BANGUNAN,"Kota Jin, Kec. Atinggola, Kabupaten Gorontalo Utara, Gorontalo","Kabupaten Gorontalo Utara, Gorontalo",GORONTALO,,Indonesia,,,,0.9018911,123.1190281,https://maps.google.com/?cid=0x0:0xd759455cc1b0d5cf,
toko bangunan,toko bangunan,Jual batako,"V4V9+94M, Pinontoyonga, Kec. Atinggola, Kabupaten Gorontalo Utara, Gorontalo 96253","Pinontoyonga, Kec. Atinggola, Kabupaten Gorontalo Utara",GORONTALO,96253.0,Indonesia,,,,0.893778,123.117707,https://maps.google.com/?cid=0x0:0x1175312dfbb9b0b7,
toko bangunan,toko bangunan,Toko Novy (Pudinhani),"W2JQ+J3X, Jl. Pelabuhan, Gentuma, Kec. Gentuma Raya, Kabupaten Gorontalo Utara, Gorontalo","Kabupaten Gorontalo Utara, Gorontalo",GORONTALO,,Indonesia,,,,0.9316112,123.0377223,https://maps.google.com/?cid=0x0:0xc59705ad5b3d27d8,
toko bangunan,Toko Bahan Bangunan,Toko Bangunan Dipta,"W55R+77X, Jl. Trans Sulawesi, Tuntung Tim., Kec. Pinogaluman, Kabupaten Bolaang Mongondow Utara, Sulawesi Utara","Kabupaten Bolaang Mongondow Utara, Sulawesi Utara",GORONTALO,,Indonesia,,,,0.9082313,123.1907257,https://maps.google.com/?cid=0x0:0x8804fc0c16f5667c,
toko bangunan,toko bangunan,Batako Berlian Idris Biahimo,"W2JR+P7R, Jl. Pelabuhan, Gentuma, Kec. Gentuma Raya, Kabupaten Gorontalo Utara, Gorontalo 96253","Jl. Pelabuhan, Gentuma, Kec. Gentuma Raya, Kabupaten Gorontalo Utara",GORONTALO,96253.0,Indonesia,,,,0.9318663,123.0406503,https://maps.google.com/?cid=0x0:0xfb0b1265f9a2cd26,
toko bangunan,Toko Bahan Bangunan,Toko A TIGA BANGUNAN,"G3H6+QW4, Bugis, Kec. Kota Tim., Kota Gorontalo, Gorontalo 96133","Bugis, Kec. Kota Tim., Kota Gorontalo",GORONTALO,96133.0,Indonesia,,,,0.5293892,123.0623249,https://maps.google.com/?cid=0x0:0xb90ee6079d9ad250,
toko bangunan,Toko Bahan Bangunan,Toko Golden Bangunan,"Bulotadaa, Kec. Sipatana, Kabupaten Gorontalo, Gorontalo 96139","Kec. Sipatana, Kabupaten Gorontalo",GORONTALO,96139.0,Indonesia,82166906062.0,,,0.5814976,123.0574234,https://maps.google.com/?cid=0x0:0x453c5f8d09646695,
toko bangunan,toko bangunan,Gorontalo,,Gorontalo,GORONTALO,,Indonesia,,,,0.6999372,122.4467238,https://maps.google.com/?cid=0x0:0x1030bfbcaf71a20,
toko bangunan,Toko Bahan Bangunan,Sinar Bangunan Gorontalo,"Jalan Kasuari Baru No.8, Heledulaa, Kota Timur, Heledulaa, Gorontalo, Kota Gorontalo, Gorontalo 96135","Heledulaa, Kota Timur, Heledulaa, Gorontalo, Kota Gorontalo",GORONTALO,96135.0,Indonesia,82194995146.0,,,0.5459753,123.0653457,https://maps.google.com/?cid=0x0:0xf278c2a9fcd91c78,
toko bangunan,Toko Bahan Bangunan,Toko Fajria Bangunan,"H38H+XR6, Jl. Lupoyo, Dulomo Sel., Kec. Kota Utara, Kota Gorontalo, Gorontalo 96128","Jl. Lupoyo, Dulomo Sel., Kec. Kota Utara, Kota Gorontalo",GORONTALO,96128.0,Indonesia,81320995798.0,,,0.5674058,123.0795046,https://maps.google.com/?cid=0x0:0x143cdd44409ba636,
toko bangunan,Toko Bahan Bangunan,Sinar Harapan Gudang bahan bangunan,"Jl. Yusuf Hasiru, Tanggikiki, Kec. Sipatana, Kota Gorontalo, Gorontalo 96128","Tanggikiki, Kec. Sipatana, Kota Gorontalo",GORONTALO,96128.0,Indonesia,82292336178.0,,,0.5758642,123.064933,https://maps.google.com/?cid=0x0:0x25d66de5f4b7b08e,
toko bangunan,Toko Bahan Bangunan,BJP BANGUNAN GORONTALO,"bjpbangunan@gmail.com, Heledulaa Sel., Kec. Kota Tim., Kota Gorontalo, Gorontalo 96128","Heledulaa Sel., Kec. Kota Tim., Kota Gorontalo",GORONTALO,96128.0,Indonesia,81935027833.0,,,0.5384306,123.0616,https://maps.google.com/?cid=0x0:0xaa9d2db3149eb8a4,
toko bangunan,Toko Bahan Bangunan,Bangunan Jaya Toko,"JL. Mayjen DI Panjaitan No.3396111, Limba U Satu, South Kota, Kota Gorontalo, Gorontalo 96135","Limba U Satu, South Kota, Kota Gorontalo",GORONTALO,96135.0,Indonesia,85930982366.0,,,0.544945,123.0618261,https://maps.google.com/?cid=0x0:0x97f173e9fe54e794,
toko bangunan,Toko Bahan Bangunan,Toko Mulia Bangunan,"Jl. Kh. Agus Salim No.29, Limba B, Kota Sel., Kota Gorontalo, Gorontalo 96136","Limba B, Kota Sel., Kota Gorontalo",GORONTALO,96136.0,Indonesia,435829617.0,,,0.545024,123.0535275,https://maps.google.com/?cid=0x0:0xfa6f48fb74c30578,
toko bangunan,Toko Bahan Bangunan,Toko Sumber Bangunan Jaya,"Jl. Kh. Agus Salim No.370, Dulalowo, Kec. Kota Tengah, Kota Gorontalo, Gorontalo 96138","Dulalowo, Kec. Kota Tengah, Kota Gorontalo",GORONTALO,96138.0,Indonesia,85397330090.0,,,0.55702,123.048784,https://maps.google.com/?cid=0x0:0x5b1af1a89190899a,
toko bangunan,Toko Bahan Bangunan,Toko Sumber Bangunan,"Jl. Letjend Suprapto No.58, Biawao, Kota Sel., Kota Gorontalo, Gorontalo 96133","Biawao, Kota Sel., Kota Gorontalo",GORONTALO,96133.0,Indonesia,435822623.0,,,0.5350604,123.0577181,https://maps.google.com/?cid=0x0:0xd699a9523a9f34f7,
toko bangunan,Toko Bahan Bangunan,Toko bangunan SETIA MAKMUR,"JJJM+3RX, Jl. Trans Sulawesi, Parungi, Kec. Boliyohuto, Kabupaten Gorontalo, Gorontalo 96264","Jl. Trans Sulawesi, Parungi, Kec. Boliyohuto, Kabupaten Gorontalo",GORONTALO,96264.0,Indonesia,82334999595.0,,,0.630235,122.6345994,https://maps.google.com/?cid=0x0:0xc5b341c44ba489c3,
toko bangunan,Pemasok Bahan Bangunan,Toko Bahan Bangunan Sari Agung,"Bulila, Kec. Telaga, Kabupaten Gorontalo, Gorontalo 96138","Kec. Telaga, Kabupaten Gorontalo",GORONTALO,96138.0,Indonesia,82196031500.0,,,0.5765609,123.0449069,https://maps.google.com/?cid=0x0:0x1ec016b864d215a6,
toko bangunan,Pemasok Bahan Bangunan,Setia Budi,"JXC9+2QG, Jl. Trans Sulawesi, Bolihuangga, Kec. Limboto, Kabupaten Gorontalo, Gorontalo 96271","Jl. Trans Sulawesi, Bolihuangga, Kec. Limboto, Kabupaten Gorontalo",GORONTALO,96271.0,Indonesia,83821475758.0,,,0.6200656,122.9694535,https://maps.google.com/?cid=0x0:0xdce43e6e074efe40,
toko bangunan,Toko Bahan Bangunan,Toko Bangunan JAYA ABADI,"Jl. Selayar No.16, Paguyaman, Kec. Kota Tengah, Kota Gorontalo, Gorontalo 96138","Paguyaman, Kec. Kota Tengah, Kota Gorontalo",GORONTALO,96138.0,Indonesia,435822923.0,,,0.5718216,123.0521067,https://maps.google.com/?cid=0x0:0x19d57d4cd2902ae4,
toko bangunan,Toko Bahan Bangunan,Toko Bangunan Bukit Emas,"Jl. Nani Hasan Desa, Huntulohulawa, Kec. Bongomeme, Kabupaten Gorontalo, Gorontalo 96271","Huntulohulawa, Kec. Bongomeme, Kabupaten Gorontalo",GORONTALO,96271.0,Indonesia,,,,0.5973966,122.8670842,https://maps.google.com/?cid=0x0:0x6ef6a21c35375b8c,
toko bangunan,Toko Bahan Bangunan,Toko Bangunan Istana Bangunan,"Jl. D.I. Panjaitan, Limba U I, Kota Sel., Kota Gorontalo, Gorontalo 96135","Limba U I, Kota Sel., Kota Gorontalo",GORONTALO,96135.0,Indonesia,,,,0.5481889,123.062409,https://maps.google.com/?cid=0x0:0xb8e64cbbbe885a9a,
toko bangunan,Toko Bahan Bangunan,Toko Bangunan,"Unnamed Road No.96138, Tapa, Kec. Sipatana, Kabupaten Gorontalo, Gorontalo 96138","Tapa, Kec. Sipatana, Kabupaten Gorontalo",GORONTALO,96138.0,Indonesia,,,,0.5736978,123.0555801,https://maps.google.com/?cid=0x0:0x7fbf59038733c1f2,
toko bangunan,Toko Bahan Bangunan,Toko Brillian bangunan,"Jl. Andalas, Tapa, Kec. Sipatana, Kota Gorontalo, Gorontalo 96138","Tapa, Kec. Sipatana, Kota Gorontalo",GORONTALO,96138.0,Indonesia,8999777249.0,,,0.5706802,123.0588042,https://maps.google.com/?cid=0x0:0xa6b60637baaf429f,
toko bangunan,Toko Bahan Bangunan,Toko Bahan Bangunan Agung Mulia Gorontalo,"Jl. Ahmad A. Wahab, Pantungo, Kec. Telaga Biru, Kabupaten Gorontalo, Gorontalo 96181","Pantungo, Kec. Telaga Biru, Kabupaten Gorontalo",GORONTALO,96181.0,Indonesia,81340021774.0,,,0.5923488,123.035742,https://maps.google.com/?cid=0x0:0xaa0790c445417bb3,
toko bangunan,Toko Alat-Alat,Toko. Serba Bangunan 2,"G3W2+78Q, Jl. Manggis, Limba B, Kota Sel., Kota Gorontalo, Gorontalo 96136","Jl. Manggis, Limba B, Kota Sel., Kota Gorontalo",GORONTALO,96136.0,Indonesia,,,,0.5457224,123.050872,https://maps.google.com/?cid=0x0:0xd2156b482efdf71a,
toko bangunan,Toko Bahan Bangunan,Sinar Bangunan Toko,"JL Letjen. MT. Haryono, No. 11, Biawao, Kota Sel., Kota Gorontalo, Gorontalo 96111","No. 11, Biawao, Kota Sel., Kota Gorontalo",GORONTALO,96111.0,Indonesia,85397688695.0,,,0.5347853,123.0600576,https://maps.google.com/?cid=0x0:0xbc0d7a9cb35148d3,
toko bangunan,Toko Perlengkapan Rumah,Toko Bangunan Dan Alat Listrik Sentral Bangunan,"J288+R2R, Pentadio Tim., Kec. Telaga Biru, Kabupaten Gorontalo, Gorontalo 96181","Pentadio Tim., Kec. Telaga Biru, Kabupaten Gorontalo",GORONTALO,96181.0,Indonesia,,,,0.6171141,123.0150208,https://maps.google.com/?cid=0x0:0x48b938acb1015e1b,
toko bangunan,Toko Bahan Bangunan,Toko Bangunan Sinar Surya,"H2GW+P28, Bulila, Kec. Telaga, Kabupaten Gorontalo, Gorontalo 96138","Bulila, Kec. Telaga, Kabupaten Gorontalo",GORONTALO,96138.0,Indonesia,,,,0.5767909,123.0450809,https://maps.google.com/?cid=0x0:0x19ed8169e78064d0,
toko bangunan,toko bangunan,Blau,"Windu, Kec. Tolinggula, Kabupaten Gorontalo Utara, Gorontalo","Kabupaten Gorontalo Utara, Gorontalo",GORONTALO,,Indonesia,,,,0.986265,122.223602,https://maps.google.com/?cid=0x0:0x871bc1bc52273216,
toko bangunan,Toko Bahan Bangunan,Toko Golden Bangunan,"Bulotadaa, Kec. Sipatana, Kabupaten Gorontalo, Gorontalo 96139","Kec. Sipatana, Kabupaten Gorontalo",GORONTALO,96139.0,Indonesia,82166906062.0,,,0.5814976,123.0574234,https://maps.google.com/?cid=0x0:0x453c5f8d09646695,
toko bangunan,Toko Bahan Bangunan,Toko Bangunan Istana Bangunan,"Jl. D.I. Panjaitan, Limba U I, Kota Sel., Kota Gorontalo, Gorontalo 96135","Limba U I, Kota Sel., Kota Gorontalo",GORONTALO,96135.0,Indonesia,,,,0.5481889,123.062409,https://maps.google.com/?cid=0x0:0xb8e64cbbbe885a9a,
toko bangunan,Toko Bahan Bangunan,Toko Mulia Bangunan,"Jl. Kh. Agus Salim No.29, Limba B, Kota Sel., Kota Gorontalo, Gorontalo 96136","Limba B, Kota Sel., Kota Gorontalo",GORONTALO,96136.0,Indonesia,435829617.0,,,0.545024,123.0535275,https://maps.google.com/?cid=0x0:0xfa6f48fb74c30578,
toko bangunan,Toko Bahan Bangunan,Bangunan Jaya Toko,"JL. Mayjen DI Panjaitan No.3396111, Limba U Satu, South Kota, Kota Gorontalo, Gorontalo 96135","Limba U Satu, South Kota, Kota Gorontalo",GORONTALO,96135.0,Indonesia,85930982366.0,,,0.544945,123.0618261,https://maps.google.com/?cid=0x0:0x97f173e9fe54e794,
toko bangunan,Pemasok Bahan Bangunan,Toko Bahan Bangunan Sari Agung,"Bulila, Kec. Telaga, Kabupaten Gorontalo, Gorontalo 96138","Kec. Telaga, Kabupaten Gorontalo",GORONTALO,96138.0,Indonesia,82196031500.0,,,0.5765609,123.0449069,https://maps.google.com/?cid=0x0:0x1ec016b864d215a6,
toko bangunan,Toko Bahan Bangunan,Toko Sumber Bangunan,"Jl. Letjend Suprapto No.58, Biawao, Kota Sel., Kota Gorontalo, Gorontalo 96133","Biawao, Kota Sel., Kota Gorontalo",GORONTALO,96133.0,Indonesia,435822623.0,,,0.5350604,123.0577181,https://maps.google.com/?cid=0x0:0xd699a9523a9f34f7,
toko bangunan,Toko Bahan Bangunan,Toko Bangunan JAYA ABADI,"Jl. Selayar No.16, Paguyaman, Kec. Kota Tengah, Kota Gorontalo, Gorontalo 96138","Paguyaman, Kec. Kota Tengah, Kota Gorontalo",GORONTALO,96138.0,Indonesia,435822923.0,,,0.5718216,123.0521067,https://maps.google.com/?cid=0x0:0x19d57d4cd2902ae4,
toko bangunan,Toko Bahan Bangunan,BJP BANGUNAN GORONTALO,"bjpbangunan@gmail.com, Heledulaa Sel., Kec. Kota Tim., Kota Gorontalo, Gorontalo 96128","Heledulaa Sel., Kec. Kota Tim., Kota Gorontalo",GORONTALO,96128.0,Indonesia,81935027833.0,,,0.5384306,123.0616,https://maps.google.com/?cid=0x0:0xaa9d2db3149eb8a4,
toko bangunan,Toko Bahan Bangunan,Toko Sumber Bangunan Jaya,"Jl. Kh. Agus Salim No.370, Dulalowo, Kec. Kota Tengah, Kota Gorontalo, Gorontalo 96138","Dulalowo, Kec. Kota Tengah, Kota Gorontalo",GORONTALO,96138.0,Indonesia,85397330090.0,,,0.55702,123.048784,https://maps.google.com/?cid=0x0:0x5b1af1a89190899a,
toko bangunan,Pemasok Bahan Bangunan,Setia Budi,"JXC9+2QG, Jl. Trans Sulawesi, Bolihuangga, Kec. Limboto, Kabupaten Gorontalo, Gorontalo 96271","Jl. Trans Sulawesi, Bolihuangga, Kec. Limboto, Kabupaten Gorontalo",GORONTALO,96271.0,Indonesia,83821475758.0,,,0.6200656,122.9694535,https://maps.google.com/?cid=0x0:0xdce43e6e074efe40,
toko bangunan,Toko Bahan Bangunan,Toko bangunan SETIA MAKMUR,"JJJM+3RX, Jl. Trans Sulawesi, Parungi, Kec. Boliyohuto, Kabupaten Gorontalo, Gorontalo 96264","Jl. Trans Sulawesi, Parungi, Kec. Boliyohuto, Kabupaten Gorontalo",GORONTALO,96264.0,Indonesia,82334999595.0,,,0.630235,122.6345994,https://maps.google.com/?cid=0x0:0xc5b341c44ba489c3,
toko bangunan,Toko Bahan Bangunan,Toko A TIGA BANGUNAN,"G3H6+QW4, Bugis, Kec. Kota Tim., Kota Gorontalo, Gorontalo 96133","Bugis, Kec. Kota Tim., Kota Gorontalo",GORONTALO,96133.0,Indonesia,,,,0.5293892,123.0623249,https://maps.google.com/?cid=0x0:0xb90ee6079d9ad250,
toko bangunan,Toko Bahan Bangunan,Toko Bangunan Sinar Surya,"H2GW+P28, Bulila, Kec. Telaga, Kabupaten Gorontalo, Gorontalo 96138","Bulila, Kec. Telaga, Kabupaten Gorontalo",GORONTALO,96138.0,Indonesia,,,,0.5767909,123.0450809,https://maps.google.com/?cid=0x0:0x19ed8169e78064d0,
toko bangunan,Toko Bahan Bangunan,Sinar Harapan Gudang bahan bangunan,"Jl. Yusuf Hasiru, Tanggikiki, Kec. Sipatana, Kota Gorontalo, Gorontalo 96128","Tanggikiki, Kec. Sipatana, Kota Gorontalo",GORONTALO,96128.0,Indonesia,82292336178.0,,,0.5758642,123.064933,https://maps.google.com/?cid=0x0:0x25d66de5f4b7b08e,
toko bangunan,Toko Bahan Bangunan,Toko Bangunan,"Unnamed Road No.96138, Tapa, Kec. Sipatana, Kabupaten Gorontalo, Gorontalo 96138","Tapa, Kec. Sipatana, Kabupaten Gorontalo",GORONTALO,96138.0,Indonesia,,,,0.5736978,123.0555801,https://maps.google.com/?cid=0x0:0x7fbf59038733c1f2,
toko bangunan,Toko Bahan Bangunan,Toko Bangunan Bukit Emas,"Jl. Nani Hasan Desa, Huntulohulawa, Kec. Bongomeme, Kabupaten Gorontalo, Gorontalo 96271","Huntulohulawa, Kec. Bongomeme, Kabupaten Gorontalo",GORONTALO,96271.0,Indonesia,,,,0.5973966,122.8670842,https://maps.google.com/?cid=0x0:0x6ef6a21c35375b8c,
toko bangunan,Toko Bahan Bangunan,Toko Kemilau Bangunan,"H27W+PGM, Tomulabutao Sel., Kec. Dungingi, Kota Gorontalo, Gorontalo 96138","Tomulabutao Sel., Kec. Dungingi, Kota Gorontalo",GORONTALO,96138.0,Indonesia,,,,0.5643474,123.0462859,https://maps.google.com/?cid=0x0:0x9230aa798f5dec69,
toko bangunan,Toko Bahan Bangunan,TOKO JAGO BANGUNAN,"Jl. Diponegoro, Pohuwato Tim., Kec. Marisa, Kabupaten Pohuwato, Gorontalo 96265","Pohuwato Tim., Kec. Marisa, Kabupaten Pohuwato",GORONTALO,96265.0,Indonesia,85397810927.0,,,0.4574067,121.936869,https://maps.google.com/?cid=0x0:0x43dd264c205c1b79,
toko bangunan,Toko Bahan Bangunan,Sinar Bangunan Toko,"JL Letjen. MT. Haryono, No. 11, Biawao, Kota Sel., Kota Gorontalo, Gorontalo 96111","No. 11, Biawao, Kota Sel., Kota Gorontalo",GORONTALO,96111.0,Indonesia,85397688695.0,,,0.5347853,123.0600576,https://maps.google.com/?cid=0x0:0xbc0d7a9cb35148d3,
toko bangunan,Toko Bahan Bangunan,TB. SENTRA BANGUNAN,"Jl. Sultan Botutihe No.283B, Padebuolo, Kec. Kota Tim., Kota Gorontalo, Gorontalo 96135","Padebuolo, Kec. Kota Tim., Kota Gorontalo",GORONTALO,96135.0,Indonesia,81243742572.0,,,0.5401664,123.075121,https://maps.google.com/?cid=0x0:0x48d5175622f567eb,
toko bangunan,Toko,Toko Bangunan Surya,"Jl. Ahmad A. Wahab No.7, Luhu, Kec. Telaga, Kabupaten Gorontalo, Gorontalo 96181","Luhu, Kec. Telaga, Kabupaten Gorontalo",GORONTALO,96181.0,Indonesia,81241213877.0,,,0.5812474,123.0412497,https://maps.google.com/?cid=0x0:0x996bbf9a7a5bd548,
toko bangunan,Toko Bahan Bangunan,Toko Fajria Bangunan,"H38H+XR6, Jl. Lupoyo, Dulomo Sel., Kec. Kota Utara, Kota Gorontalo, Gorontalo 96128","Jl. Lupoyo, Dulomo Sel., Kec. Kota Utara, Kota Gorontalo",GORONTALO,96128.0,Indonesia,81320995798.0,,,0.5674058,123.0795046,https://maps.google.com/?cid=0x0:0x143cdd44409ba636,
toko bangunan,Toko Bahan Bangunan,Bangunan Jaya Toko,"JL. Mayjen DI Panjaitan No.3396111, Limba U Satu, South Kota, Kota Gorontalo, Gorontalo 96135","Limba U Satu, South Kota, Kota Gorontalo",GORONTALO,96135.0,Indonesia,85930982366.0,,,0.544945,123.0618261,https://maps.google.com/?cid=0x0:0x97f173e9fe54e794,
toko bangunan,toko bangunan,Kec. Gentuma Raya,"Kabupaten Gorontalo Utara, Gorontalo","Kabupaten Gorontalo Utara, Gorontalo",GORONTALO,,Indonesia,,,,0.9300102,123.0377072,https://maps.google.com/?cid=0x0:0xc9d73598b0af1e0,
toko bangunan,Toko Perlengkapan Rumah,TOKO CELA GENTUMA,"W2FP+W3P, Gentuma, Kec. Gentuma Raya, Kabupaten Gorontalo Utara, Gorontalo 96253","Gentuma, Kec. Gentuma Raya, Kabupaten Gorontalo Utara",GORONTALO,96253.0,Indonesia,82188589754.0,,,0.9248489,123.0352114,https://maps.google.com/?cid=0x0:0x3836de955066973c,
toko bangunan,Toko Bahan Bangunan,Toko Cahaya Bangunan,"Jl. Sultan Botutihe, Dembe II, Kec. Kota Utara, Kota Gorontalo, Gorontalo 96135","Dembe II, Kec. Kota Utara, Kota Gorontalo",GORONTALO,96135.0,Indonesia,,,,0.5411277,123.0777039,https://maps.google.com/?cid=0x0:0xbca0f0082c1cafe3,
toko bangunan,Toko Bahan Bangunan,BJP BANGUNAN GORONTALO,"bjpbangunan@gmail.com, Heledulaa Sel., Kec. Kota Tim., Kota Gorontalo, Gorontalo 96128","Heledulaa Sel., Kec. Kota Tim., Kota Gorontalo",GORONTALO,96128.0,Indonesia,81935027833.0,,,0.5384306,123.0616,https://maps.google.com/?cid=0x0:0xaa9d2db3149eb8a4,
toko bangunan,toko bangunan,Toko Novy (Pudinhani),"W2JQ+J3X, Jl. Pelabuhan, Gentuma, Kec. Gentuma Raya, Kabupaten Gorontalo Utara, Gorontalo","Kabupaten Gorontalo Utara, Gorontalo",GORONTALO,,Indonesia,,,,0.9316112,123.0377223,https://maps.google.com/?cid=0x0:0xc59705ad5b3d27d8,
toko bangunan,Toko Bahan Bangunan,Dian Bangunan Toko,"Jl KH Wahid Hasyim, Kayubulan, Kec. Limboto, Kabupaten Gorontalo, Gorontalo 96211","Kayubulan, Kec. Limboto, Kabupaten Gorontalo",GORONTALO,96211.0,Indonesia,82293566833.0,,,0.6257872,122.979862,https://maps.google.com/?cid=0x0:0x9ee5f34bcdac74ec,
toko bangunan,Minimarket,Toko Gembira Gentuma Raya,"Dumolodo, Kec. Gentuma Raya, Kabupaten Gorontalo Utara, Gorontalo 96253","Kec. Gentuma Raya, Kabupaten Gorontalo Utara",GORONTALO,96253.0,Indonesia,82190564747.0,,,0.9254491,123.0425774,https://maps.google.com/?cid=0x0:0xb7a0e69eac99e30,
toko bangunan,Toko Bahan Bangunan,Toko Bahan Bangunan Agung Mulia Gorontalo,"Jl. Ahmad A. Wahab, Pantungo, Kec. Telaga Biru, Kabupaten Gorontalo, Gorontalo 96181","Pantungo, Kec. Telaga Biru, Kabupaten Gorontalo",GORONTALO,96181.0,Indonesia,81340021774.0,,,0.5923488,123.035742,https://maps.google.com/?cid=0x0:0xaa0790c445417bb3,
toko bangunan,Toko,Toko Elsa,"W2GR+55P, Jl. Trans Sulawesi, Gentuma, Kec. Gentuma Raya, Kabupaten Gorontalo Utara, Gorontalo 96253","Jl. Trans Sulawesi, Gentuma, Kec. Gentuma Raya, Kabupaten Gorontalo Utara",GORONTALO,96253.0,Indonesia,,,,0.9254672,123.0404501,https://maps.google.com/?cid=0x0:0xc3bb53b30b858368,
toko bangunan,Pemasok Bahan Bangunan,Setia Budi,"JXC9+2QG, Jl. Trans Sulawesi, Bolihuangga, Kec. Limboto, Kabupaten Gorontalo, Gorontalo 96271","Jl. Trans Sulawesi, Bolihuangga, Kec. Limboto, Kabupaten Gorontalo",GORONTALO,96271.0,Indonesia,83821475758.0,,,0.6200656,122.9694535,https://maps.google.com/?cid=0x0:0xdce43e6e074efe40,
toko bangunan,toko bangunan,Gorontalo 96252,"Kec. Kwandang, Kabupaten Gorontalo Utara, Gorontalo","Kabupaten Gorontalo Utara, Gorontalo",GORONTALO,,Indonesia,,,,0.8083426,122.9212265,https://maps.google.com/?cid=0x0:0x8516fb933d27785f,
toko bangunan,Toko Bahan Bangunan,Toko Sinar Jaya,"RWM9+56H, Titidu, Kec. Kwandang, Kabupaten Gorontalo Utara, Gorontalo 96252","Titidu, Kec. Kwandang, Kabupaten Gorontalo Utara",GORONTALO,96252.0,Indonesia,85240579502.0,,,0.8329441,122.9181154,https://maps.google.com/?cid=0x0:0xc9ba80594d558e48,
toko bangunan,Toko Bahan Bangunan,Toko Zafran Bangunan,"Leboto, Kec. Kwandang, Kabupaten Gorontalo Utara, Gorontalo 96252","Kec. Kwandang, Kabupaten Gorontalo Utara",GORONTALO,96252.0,Indonesia,85298114647.0,,,0.8054214,122.884083,https://maps.google.com/?cid=0x0:0xd3db31c3164925dc,
toko bangunan,Toko Bahan Bangunan,Toko bangunan setia baru,"QVJ5+M3X, Unnamed Road, Pontolo, Kec. Kwandang, Kabupaten Gorontalo Utara, Gorontalo 96252","Unnamed Road, Pontolo, Kec. Kwandang, Kabupaten Gorontalo Utara",GORONTALO,96252.0,Indonesia,,,,0.781745,122.857737,https://maps.google.com/?cid=0x0:0x6b95fe99a2fc56be,
toko bangunan,Toko Bahan Bangunan,Eki Bangunan,"Desa Alata Karya, Kec. Kwandang, Kabupaten Gorontalo Utara, Gorontalo 00000","Kec. Kwandang, Kabupaten Gorontalo Utara",GORONTALO,0.0,Indonesia,82346758169.0,,,0.8132067,122.8967632,https://maps.google.com/?cid=0x0:0x99aadd8bcfc11201,
toko bangunan,Toko Bahan Bangunan,Tb Zafran bangunan,"RWJ8+GQ7, Titidu, Kec. Kwandang, Kabupaten Gorontalo Utara, Gorontalo 96252","Titidu, Kec. Kwandang, Kabupaten Gorontalo Utara",GORONTALO,96252.0,Indonesia,858114647.0,,,0.8316745,122.917207,https://maps.google.com/?cid=0x0:0x7fcde8f88e68b96,
toko bangunan,Toko Bahan Bangunan,Toko Djaya Bangunan,"RV5V+384, Jl. Trans Sulawesi, Leboto, Kec. Kwandang, Kabupaten Gorontalo Utara, Gorontalo 96252","Jl. Trans Sulawesi, Leboto, Kec. Kwandang, Kabupaten Gorontalo Utara",GORONTALO,96252.0,Indonesia,,,,0.8076357,122.8933303,https://maps.google.com/?cid=0x0:0xa14776f647a66c17,
toko bangunan,Toko Bahan Bangunan,Joss Bangunan,"QVRC+WR4, Jl. Trans Sulawesi, Molingkapoto, Kec. Kwandang, Kabupaten Gorontalo Utara, Gorontalo","Kabupaten Gorontalo Utara, Gorontalo",GORONTALO,,Indonesia,,,,0.7922681,122.8720675,https://maps.google.com/?cid=0x0:0x56d2c2bb2cae586b,
toko bangunan,Toko Bahan Bangunan,Toko Golden Bangunan,"Bulotadaa, Kec. Sipatana, Kabupaten Gorontalo, Gorontalo 96139","Kec. Sipatana, Kabupaten Gorontalo",GORONTALO,96139.0,Indonesia,82166906062.0,,,0.5814976,123.0574234,https://maps.google.com/?cid=0x0:0x453c5f8d09646695,
toko bangunan,Toko Bahan Bangunan,TK. Sumber Jaya,"RWQ8+R29, Jl. Trans Sulawesi, Moluo, Kec. Kwandang, Kabupaten Gorontalo Utara, Gorontalo 96252","Jl. Trans Sulawesi, Moluo, Kec. Kwandang, Kabupaten Gorontalo Utara",GORONTALO,96252.0,Indonesia,,,,0.8395312,122.9151029,https://maps.google.com/?cid=0x0:0xd07d9ce5a1e7509d,
toko bangunan,Toko Bahan Bangunan,Toko DR. Cahaya Rezeki,"Jl. Trans Sulawesi, Motilango, Kec. Tibawa, Kabupaten Gorontalo, Gorontalo 96252","Motilango, Kec. Tibawa, Kabupaten Gorontalo",GORONTALO,96252.0,Indonesia,,,,0.7587567,122.8586478,https://maps.google.com/?cid=0x0:0x1d84d8a6866d613b,
toko bangunan,toko bangunan,Monano,"Kec. Anggrek, Kabupaten Gorontalo Utara, Gorontalo","Kabupaten Gorontalo Utara, Gorontalo",GORONTALO,,Indonesia,,,,0.8567497,122.6870742,https://maps.google.com/?cid=0x0:0xfb9832e634d0d5c8,
toko bangunan,Toko Bahan Bangunan,Monas Jaya Bangunan,"VMMP+6XW, Monas, Kec. Anggrek, Kabupaten Gorontalo Utara, Gorontalo 96525","Monas, Kec. Anggrek, Kabupaten Gorontalo Utara",GORONTALO,96525.0,Indonesia,,,,0.8831054,122.6874423,https://maps.google.com/?cid=0x0:0x2cce6c94b83da99,
toko bangunan,Toko Bahan Bangunan,Toko Golden Bangunan,"Bulotadaa, Kec. Sipatana, Kabupaten Gorontalo, Gorontalo 96139","Kec. Sipatana, Kabupaten Gorontalo",GORONTALO,96139.0,Indonesia,82166906062.0,,,0.5814976,123.0574234,https://maps.google.com/?cid=0x0:0x453c5f8d09646695,
toko bangunan,toko bangunan,Gorontalo 96252,"Kec. Kwandang, Kabupaten Gorontalo Utara, Gorontalo","Kabupaten Gorontalo Utara, Gorontalo",GORONTALO,,Indonesia,,,,0.8083426,122.9212265,https://maps.google.com/?cid=0x0:0x8516fb933d27785f,
toko bangunan,Otoritas Pelabuhan,Ponelo Kepulauan,"VVRP+693, Jl. Kec. Ponelo, Moluo, Kec. Kwandang, Kabupaten Gorontalo Utara, Gorontalo","Kabupaten Gorontalo Utara, Gorontalo",GORONTALO,,Indonesia,,,,0.8905172,122.8859277,https://maps.google.com/?cid=0x0:0x3adda2027890f34b,
toko bangunan,Toko Bahan Bangunan,UD IIN BANGUNAN,"RWJ8+9Q8, Titidu, Kec. Kwandang, Kabupaten Gorontalo Utara, Gorontalo 96252","Titidu, Kec. Kwandang, Kabupaten Gorontalo Utara",GORONTALO,96252.0,Indonesia,85298114647.0,,,0.8309223,122.9169546,https://maps.google.com/?cid=0x0:0x24029f85ad67b515,
toko bangunan,Toko Bahan Bangunan,Toko Mulia Bangunan,"Jl. Kh. Agus Salim No.29, Limba B, Kota Sel., Kota Gorontalo, Gorontalo 96136","Limba B, Kota Sel., Kota Gorontalo",GORONTALO,96136.0,Indonesia,435829617.0,,,0.545024,123.0535275,https://maps.google.com/?cid=0x0:0xfa6f48fb74c30578,
toko bangunan,Toko Bahan Bangunan,BJP BANGUNAN GORONTALO,"bjpbangunan@gmail.com, Heledulaa Sel., Kec. Kota Tim., Kota Gorontalo, Gorontalo 96128","Heledulaa Sel., Kec. Kota Tim., Kota Gorontalo",GORONTALO,96128.0,Indonesia,81935027833.0,,,0.5384306,123.0616,https://maps.google.com/?cid=0x0:0xaa9d2db3149eb8a4,
toko bangunan,Toko Bahan Bangunan,Sinar Bangunan Gorontalo,"Jalan Kasuari Baru No.8, Heledulaa, Kota Timur, Heledulaa, Gorontalo, Kota Gorontalo, Gorontalo 96135","Heledulaa, Kota Timur, Heledulaa, Gorontalo, Kota Gorontalo",GORONTALO,96135.0,Indonesia,82194995146.0,,,0.5459753,123.0653457,https://maps.google.com/?cid=0x0:0xf278c2a9fcd91c78,
toko bangunan,Toko Bahan Bangunan,Dian Bangunan Toko,"Jl KH Wahid Hasyim, Kayubulan, Kec. Limboto, Kabupaten Gorontalo, Gorontalo 96211","Kayubulan, Kec. Limboto, Kabupaten Gorontalo",GORONTALO,96211.0,Indonesia,82293566833.0,,,0.6257872,122.979862,https://maps.google.com/?cid=0x0:0x9ee5f34bcdac74ec,
toko bangunan,Toko Bahan Bangunan,Toko Bangunan Istana Bangunan,"Jl. D.I. Panjaitan, Limba U I, Kota Sel., Kota Gorontalo, Gorontalo 96135","Limba U I, Kota Sel., Kota Gorontalo",GORONTALO,96135.0,Indonesia,,,,0.5481889,123.062409,https://maps.google.com/?cid=0x0:0xb8e64cbbbe885a9a,
toko bangunan,Toko Bahan Bangunan,Toko bangunan SETIA MAKMUR,"JJJM+3RX, Jl. Trans Sulawesi, Parungi, Kec. Boliyohuto, Kabupaten Gorontalo, Gorontalo 96264","Jl. Trans Sulawesi, Parungi, Kec. Boliyohuto, Kabupaten Gorontalo",GORONTALO,96264.0,Indonesia,82334999595.0,,,0.630235,122.6345994,https://maps.google.com/?cid=0x0:0xc5b341c44ba489c3,
toko bangunan,Pemasok Bahan Bangunan,Toko Bahan Bangunan Sari Agung,"Bulila, Kec. Telaga, Kabupaten Gorontalo, Gorontalo 96138","Kec. Telaga, Kabupaten Gorontalo",GORONTALO,96138.0,Indonesia,82196031500.0,,,0.5765609,123.0449069,https://maps.google.com/?cid=0x0:0x1ec016b864d215a6,
toko bangunan,Toko Bahan Bangunan,Sinar Harapan Gudang bahan bangunan,"Jl. Yusuf Hasiru, Tanggikiki, Kec. Sipatana, Kota Gorontalo, Gorontalo 96128","Tanggikiki, Kec. Sipatana, Kota Gorontalo",GORONTALO,96128.0,Indonesia,82292336178.0,,,0.5758642,123.064933,https://maps.google.com/?cid=0x0:0x25d66de5f4b7b08e,
toko bangunan,Toko Bahan Bangunan,Bangunan Jaya Toko,"JL. Mayjen DI Panjaitan No.3396111, Limba U Satu, South Kota, Kota Gorontalo, Gorontalo 96135","Limba U Satu, South Kota, Kota Gorontalo",GORONTALO,96135.0,Indonesia,85930982366.0,,,0.544945,123.0618261,https://maps.google.com/?cid=0x0:0x97f173e9fe54e794,
toko bangunan,Toko Bahan Bangunan,Toko Brillian bangunan,"Jl. Andalas, Tapa, Kec. Sipatana, Kota Gorontalo, Gorontalo 96138","Tapa, Kec. Sipatana, Kota Gorontalo",GORONTALO,96138.0,Indonesia,8999777249.0,,,0.5706802,123.0588042,https://maps.google.com/?cid=0x0:0xa6b60637baaf429f,
toko bangunan,Toko Bahan Bangunan,TB. SENTRA BANGUNAN,"Jl. Sultan Botutihe No.283B, Padebuolo, Kec. Kota Tim., Kota Gorontalo, Gorontalo 96135","Padebuolo, Kec. Kota Tim., Kota Gorontalo",GORONTALO,96135.0,Indonesia,81243742572.0,,,0.5401664,123.075121,https://maps.google.com/?cid=0x0:0x48d5175622f567eb,
toko bangunan,Toko Bahan Bangunan,Toko Sumber Bangunan,"Jl. Letjend Suprapto No.58, Biawao, Kota Sel., Kota Gorontalo, Gorontalo 96133","Biawao, Kota Sel., Kota Gorontalo",GORONTALO,96133.0,Indonesia,435822623.0,,,0.5350604,123.0577181,https://maps.google.com/?cid=0x0:0xd699a9523a9f34f7,
toko bangunan,Toko Bahan Bangunan,Joss Bangunan,"QVRC+WR4, Jl. Trans Sulawesi, Molingkapoto, Kec. Kwandang, Kabupaten Gorontalo Utara, Gorontalo","Kabupaten Gorontalo Utara, Gorontalo",GORONTALO,,Indonesia,,,,0.7922681,122.8720675,https://maps.google.com/?cid=0x0:0x56d2c2bb2cae586b,
toko bangunan,Toko Bahan Bangunan,Toko bangunan setia baru,"QVJ5+M3X, Unnamed Road, Pontolo, Kec. Kwandang, Kabupaten Gorontalo Utara, Gorontalo 96252","Unnamed Road, Pontolo, Kec. Kwandang, Kabupaten Gorontalo Utara",GORONTALO,96252.0,Indonesia,,,,0.781745,122.857737,https://maps.google.com/?cid=0x0:0x6b95fe99a2fc56be,
toko bangunan,toko bangunan,Toko Aulia Bangunan,"QVJ7+F7R, Jl. Trans Sulawesi, Molingkapoto, Kec. Kwandang, Kabupaten Gorontalo Utara, Gorontalo 96252","Jl. Trans Sulawesi, Molingkapoto, Kec. Kwandang, Kabupaten Gorontalo Utara",GORONTALO,96252.0,Indonesia,,,,0.7812483,122.8631296,https://maps.google.com/?cid=0x0:0x1cd728a9fe943308,
toko bangunan,toko bangunan,Gorontalo 96254,"Kabupaten Gorontalo Utara, Gorontalo","Kabupaten Gorontalo Utara, Gorontalo",GORONTALO,,Indonesia,,,,0.926195,122.4014193,https://maps.google.com/?cid=0x0:0x9a29fb0ff347278,
toko bangunan,Toko Perlengkapan Rumah,Firman Bangunan,"XCMF+82R, Bulontio Tim., Kec. Sumalata, Kabupaten Gorontalo Utara, Gorontalo 96254","Bulontio Tim., Kec. Sumalata, Kabupaten Gorontalo Utara",GORONTALO,96254.0,Indonesia,,,,0.9833573,122.4225218,https://maps.google.com/?cid=0x0:0x7c57cbc9e1c96d6b,
toko bangunan,Toko Bahan Bangunan,UD. INAN BANGUNAN,"X7VG+W6V, Buloila, Kec. Sumalata, Kabupaten Gorontalo Utara, Gorontalo 96254","Buloila, Kec. Sumalata, Kabupaten Gorontalo Utara",GORONTALO,96254.0,Indonesia,85204337292.0,,,0.9948697,122.275541,https://maps.google.com/?cid=0x0:0xe4333565922cc9c4,
toko bangunan,Toko Bahan Bangunan,UD SHAFIYAH BERKAH,"WHXM+9JH, Dulukapa, Kec. Sumalata, Kabupaten Gorontalo Utara, Gorontalo 96254","Dulukapa, Kec. Sumalata, Kabupaten Gorontalo Utara",GORONTALO,96254.0,Indonesia,,,,0.9484378,122.5841229,https://maps.google.com/?cid=0x0:0x4d412b08cb118540,
toko bangunan,Toko Perlengkapan Rumah,UD.PERSADA BANGUNAN,"Jl.Trans Sulawesi No.Desa, Bulontio Barat, Kec. Sumalata, Kabupaten Gorontalo Utara, Gorontalo 96254","Bulontio Barat, Kec. Sumalata, Kabupaten Gorontalo Utara",GORONTALO,96254.0,Indonesia,85256442121.0,,,0.9815164,122.4192615,https://maps.google.com/?cid=0x0:0x4642f5c4ad507770,
toko bangunan,Toko Bahan Bangunan,Toko bangunan SETIA MAKMUR,"JJJM+3RX, Jl. Trans Sulawesi, Parungi, Kec. Boliyohuto, Kabupaten Gorontalo, Gorontalo 96264","Jl. Trans Sulawesi, Parungi, Kec. Boliyohuto, Kabupaten Gorontalo",GORONTALO,96264.0,Indonesia,82334999595.0,,,0.630235,122.6345994,https://maps.google.com/?cid=0x0:0xc5b341c44ba489c3,
toko bangunan,toko bangunan,Toko Bangunan Setia Karya,"JV4M+VQX, Bongomeme, Kec. Bongomeme, Kabupaten Gorontalo, Gorontalo","Kabupaten Gorontalo, Gorontalo",GORONTALO,,Indonesia,,,,0.6072957,122.8842738,https://maps.google.com/?cid=0x0:0x535f532eee692b33,
toko bangunan,Toko Bahan Bangunan,Sinar Bangunan Gorontalo,"Jalan Kasuari Baru No.8, Heledulaa, Kota Timur, Heledulaa, Gorontalo, Kota Gorontalo, Gorontalo 96135","Heledulaa, Kota Timur, Heledulaa, Gorontalo, Kota Gorontalo",GORONTALO,96135.0,Indonesia,82194995146.0,,,0.5459753,123.0653457,https://maps.google.com/?cid=0x0:0xf278c2a9fcd91c78,
toko bangunan,Toko Bahan Bangunan,Toko Golden Bangunan,"Bulotadaa, Kec. Sipatana, Kabupaten Gorontalo, Gorontalo 96139","Kec. Sipatana, Kabupaten Gorontalo",GORONTALO,96139.0,Indonesia,82166906062.0,,,0.5814976,123.0574234,https://maps.google.com/?cid=0x0:0x453c5f8d09646695,
toko bangunan,Gedung Apartemen,Toko bangunan multya,"HVJJ+8P2, Desa botubulowe kec, Dungaliyo, Kec. Bongomeme, Kabupaten Gorontalo, Gorontalo 96271","Desa botubulowe kec, Dungaliyo, Kec. Bongomeme, Kabupaten Gorontalo",GORONTALO,96271.0,Indonesia,82296668077.0,,,0.5807579,122.8817689,https://maps.google.com/?cid=0x0:0x24e440e57517ae40,
toko bangunan,Toko Bahan Bangunan,Toko Bangunan,"Unnamed Road No.96138, Tapa, Kec. Sipatana, Kabupaten Gorontalo, Gorontalo 96138","Tapa, Kec. Sipatana, Kabupaten Gorontalo",GORONTALO,96138.0,Indonesia,,,,0.5736978,123.0555801,https://maps.google.com/?cid=0x0:0x7fbf59038733c1f2,
toko bangunan,Pemasok Bahan Bangunan,Setia Budi,"JXC9+2QG, Jl. Trans Sulawesi, Bolihuangga, Kec. Limboto, Kabupaten Gorontalo, Gorontalo 96271","Jl. Trans Sulawesi, Bolihuangga, Kec. Limboto, Kabupaten Gorontalo",GORONTALO,96271.0,Indonesia,83821475758.0,,,0.6200656,122.9694535,https://maps.google.com/?cid=0x0:0xdce43e6e074efe40,
toko bangunan,Toko Bahan Bangunan,TB. SENTRA BANGUNAN,"Jl. Sultan Botutihe No.283B, Padebuolo, Kec. Kota Tim., Kota Gorontalo, Gorontalo 96135","Padebuolo, Kec. Kota Tim., Kota Gorontalo",GORONTALO,96135.0,Indonesia,81243742572.0,,,0.5401664,123.075121,https://maps.google.com/?cid=0x0:0x48d5175622f567eb,
toko bangunan,Toko Bahan Bangunan,Toko Bangunan Sinar Surya,"H2GW+P28, Bulila, Kec. Telaga, Kabupaten Gorontalo, Gorontalo 96138","Bulila, Kec. Telaga, Kabupaten Gorontalo",GORONTALO,96138.0,Indonesia,,,,0.5767909,123.0450809,https://maps.google.com/?cid=0x0:0x19ed8169e78064d0,
toko bangunan,Toko Bahan Bangunan,Toko Sumber Bangunan Jaya,"Jl. Kh. Agus Salim No.370, Dulalowo, Kec. Kota Tengah, Kota Gorontalo, Gorontalo 96138","Dulalowo, Kec. Kota Tengah, Kota Gorontalo",GORONTALO,96138.0,Indonesia,85397330090.0,,,0.55702,123.048784,https://maps.google.com/?cid=0x0:0x5b1af1a89190899a,
toko bangunan,Toko Bahan Bangunan,Toko Sumber Bangunan,"Jl. Letjend Suprapto No.58, Biawao, Kota Sel., Kota Gorontalo, Gorontalo 96133","Biawao, Kota Sel., Kota Gorontalo",GORONTALO,96133.0,Indonesia,435822623.0,,,0.5350604,123.0577181,https://maps.google.com/?cid=0x0:0xd699a9523a9f34f7,
toko bangunan,Toko Bahan Bangunan,Toko Kemilau Bangunan,"H27W+PGM, Tomulabutao Sel., Kec. Dungingi, Kota Gorontalo, Gorontalo 96138","Tomulabutao Sel., Kec. Dungingi, Kota Gorontalo",GORONTALO,96138.0,Indonesia,,,,0.5643474,123.0462859,https://maps.google.com/?cid=0x0:0x9230aa798f5dec69,
toko bangunan,Pemasok Bahan Bangunan,Toko Bahan Bangunan Sari Agung,"Bulila, Kec. Telaga, Kabupaten Gorontalo, Gorontalo 96138","Kec. Telaga, Kabupaten Gorontalo",GORONTALO,96138.0,Indonesia,82196031500.0,,,0.5765609,123.0449069,https://maps.google.com/?cid=0x0:0x1ec016b864d215a6,
toko bangunan,Toko Bahan Bangunan,Toko Mulia Bangunan,"Jl. Kh. Agus Salim No.29, Limba B, Kota Sel., Kota Gorontalo, Gorontalo 96136","Limba B, Kota Sel., Kota Gorontalo",GORONTALO,96136.0,Indonesia,435829617.0,,,0.545024,123.0535275,https://maps.google.com/?cid=0x0:0xfa6f48fb74c30578,
toko bangunan,Toko Bahan Bangunan,BJP BANGUNAN GORONTALO,"bjpbangunan@gmail.com, Heledulaa Sel., Kec. Kota Tim., Kota Gorontalo, Gorontalo 96128","Heledulaa Sel., Kec. Kota Tim., Kota Gorontalo",GORONTALO,96128.0,Indonesia,81935027833.0,,,0.5384306,123.0616,https://maps.google.com/?cid=0x0:0xaa9d2db3149eb8a4,
toko bangunan,toko bangunan,Sumalata,"Wubudu, Kec. Sumalata, Kabupaten Gorontalo Utara, Gorontalo","Kabupaten Gorontalo Utara, Gorontalo",GORONTALO,,Indonesia,,,,0.980095,122.490997,https://maps.google.com/?cid=0x0:0xe5cfc95986060eba,
toko bangunan,toko bangunan,Gorontalo 96254,"Kabupaten Gorontalo Utara, Gorontalo","Kabupaten Gorontalo Utara, Gorontalo",GORONTALO,,Indonesia,,,,0.926195,122.4014193,https://maps.google.com/?cid=0x0:0x9a29fb0ff347278,
toko bangunan,Toko Perlengkapan Rumah,UD.PERSADA BANGUNAN,"Jl.Trans Sulawesi No.Desa, Bulontio Barat, Kec. Sumalata, Kabupaten Gorontalo Utara, Gorontalo 96254","Bulontio Barat, Kec. Sumalata, Kabupaten Gorontalo Utara",GORONTALO,96254.0,Indonesia,85256442121.0,,,0.9815164,122.4192615,https://maps.google.com/?cid=0x0:0x4642f5c4ad507770,
toko bangunan,Toko Perlengkapan Rumah,Firman Bangunan,"XCMF+82R, Bulontio Tim., Kec. Sumalata, Kabupaten Gorontalo Utara, Gorontalo 96254","Bulontio Tim., Kec. Sumalata, Kabupaten Gorontalo Utara",GORONTALO,96254.0,Indonesia,,,,0.9833573,122.4225218,https://maps.google.com/?cid=0x0:0x7c57cbc9e1c96d6b,
toko bangunan,Toko Bahan Bangunan,UD SHAFIYAH BERKAH,"WHXM+9JH, Dulukapa, Kec. Sumalata, Kabupaten Gorontalo Utara, Gorontalo 96254","Dulukapa, Kec. Sumalata, Kabupaten Gorontalo Utara",GORONTALO,96254.0,Indonesia,,,,0.9484378,122.5841229,https://maps.google.com/?cid=0x0:0x4d412b08cb118540,
toko bangunan,toko bangunan,Toko Sinar Jaya Berkah Mandiri,"X7VF+CX5, Buloila, Kec. Sumalata, Kabupaten Gorontalo Utara, Gorontalo","Kabupaten Gorontalo Utara, Gorontalo",GORONTALO,,Indonesia,85244553019.0,,,0.9919618,122.2748447,https://maps.google.com/?cid=0x0:0xcb4aede6789a4cad,
toko bangunan,toko bangunan,Gorontalo,,Gorontalo,GORONTALO,,Indonesia,,,,0.6999372,122.4467238,https://maps.google.com/?cid=0x0:0x1030bfbcaf71a20,
toko bangunan,Toko Bahan Bangunan,Toko Golden Bangunan,"Bulotadaa, Kec. Sipatana, Kabupaten Gorontalo, Gorontalo 96139","Kec. Sipatana, Kabupaten Gorontalo",GORONTALO,96139.0,Indonesia,82166906062.0,,,0.5814976,123.0574234,https://maps.google.com/?cid=0x0:0x453c5f8d09646695,
toko bangunan,Toko Bahan Bangunan,Toko bangunan setia baru,"QVJ5+M3X, Unnamed Road, Pontolo, Kec. Kwandang, Kabupaten Gorontalo Utara, Gorontalo 96252","Unnamed Road, Pontolo, Kec. Kwandang, Kabupaten Gorontalo Utara",GORONTALO,96252.0,Indonesia,,,,0.781745,122.857737,https://maps.google.com/?cid=0x0:0x6b95fe99a2fc56be,
toko bangunan,Toko Bahan Bangunan,Toko bangunan SETIA MAKMUR,"JJJM+3RX, Jl. Trans Sulawesi, Parungi, Kec. Boliyohuto, Kabupaten Gorontalo, Gorontalo 96264","Jl. Trans Sulawesi, Parungi, Kec. Boliyohuto, Kabupaten Gorontalo",GORONTALO,96264.0,Indonesia,82334999595.0,,,0.630235,122.6345994,https://maps.google.com/?cid=0x0:0xc5b341c44ba489c3,
toko bangunan,Toko Bahan Bangunan,Sinar Bangunan Gorontalo,"Jalan Kasuari Baru No.8, Heledulaa, Kota Timur, Heledulaa, Gorontalo, Kota Gorontalo, Gorontalo 96135","Heledulaa, Kota Timur, Heledulaa, Gorontalo, Kota Gorontalo",GORONTALO,96135.0,Indonesia,82194995146.0,,,0.5459753,123.0653457,https://maps.google.com/?cid=0x0:0xf278c2a9fcd91c78,
toko bangunan,Toko Bahan Bangunan,TOKO BANGUNAN SETIA MANDIRI,"JWQ9+C94, Jl. Trans Sulawesi, Yosonegoro, Kec. Limboto Bar., Kabupaten Gorontalo, Gorontalo 96218","Jl. Trans Sulawesi, Yosonegoro, Kec. Limboto Bar., Kabupaten Gorontalo",GORONTALO,96218.0,Indonesia,,,,0.6385094,122.9184596,https://maps.google.com/?cid=0x0:0x749368d304051a8b,
toko bangunan,Pemasok Bahan Bangunan,Toko Bangunan Barokah,"JXHC+33G, Bolihuangga, Kec. Limboto, Kabupaten Gorontalo, Gorontalo 96214","Bolihuangga, Kec. Limboto, Kabupaten Gorontalo",GORONTALO,96214.0,Indonesia,,,,0.6276891,122.9702014,https://maps.google.com/?cid=0x0:0x3563ae7225023892,
toko bangunan,toko bangunan,Toko Bangunan Setia Karya,"JV4M+VQX, Bongomeme, Kec. Bongomeme, Kabupaten Gorontalo, Gorontalo","Kabupaten Gorontalo, Gorontalo",GORONTALO,,Indonesia,,,,0.6072957,122.8842738,https://maps.google.com/?cid=0x0:0x535f532eee692b33,
toko bangunan,Gedung Apartemen,Toko bangunan multya,"HVJJ+8P2, Desa botubulowe kec, Dungaliyo, Kec. Bongomeme, Kabupaten Gorontalo, Gorontalo 96271","Desa botubulowe kec, Dungaliyo, Kec. Bongomeme, Kabupaten Gorontalo",GORONTALO,96271.0,Indonesia,82296668077.0,,,0.5807579,122.8817689,https://maps.google.com/?cid=0x0:0x24e440e57517ae40,
toko bangunan,Toko Bahan Bangunan,Toko Sumber Bangunan Jaya,"Jl. Kh. Agus Salim No.370, Dulalowo, Kec. Kota Tengah, Kota Gorontalo, Gorontalo 96138","Dulalowo, Kec. Kota Tengah, Kota Gorontalo",GORONTALO,96138.0,Indonesia,85397330090.0,,,0.55702,123.048784,https://maps.google.com/?cid=0x0:0x5b1af1a89190899a,
toko bangunan,Toko Bahan Bangunan,Toko Bangunan Rahmalia,"H34W+H95, Toto Sel., Kec. Kabila, Kabupaten Bone Bolango, Gorontalo 96115","Toto Sel., Kec. Kabila, Kabupaten Bone Bolango",GORONTALO,96115.0,Indonesia,,,,0.5563844,123.0959854,https://maps.google.com/?cid=0x0:0x9cb52e7b5ca75780,
toko bangunan,Toko Bahan Bangunan,Toko Mulia Bangunan,"Jl. Kh. Agus Salim No.29, Limba B, Kota Sel., Kota Gorontalo, Gorontalo 96136","Limba B, Kota Sel., Kota Gorontalo",GORONTALO,96136.0,Indonesia,435829617.0,,,0.545024,123.0535275,https://maps.google.com/?cid=0x0:0xfa6f48fb74c30578,
toko bangunan,Toko Bahan Bangunan,Toko Prasetya,"JXQV+69C, Dutulanaa, Kec. Limboto, Kabupaten Gorontalo, Gorontalo 96214","Dutulanaa, Kec. Limboto, Kabupaten Gorontalo",GORONTALO,96214.0,Indonesia,82346755556.0,,,0.6380501,122.9933951,https://maps.google.com/?cid=0x0:0xff1e85db1760839f,
toko bangunan,Pemasok Bahan Bangunan,Toko Bahan Bangunan Sari Agung,"Bulila, Kec. Telaga, Kabupaten Gorontalo, Gorontalo 96138","Kec. Telaga, Kabupaten Gorontalo",GORONTALO,96138.0,Indonesia,82196031500.0,,,0.5765609,123.0449069,https://maps.google.com/?cid=0x0:0x1ec016b864d215a6,
toko bangunan,Toko Perlengkapan Rumah,Toko Bangunan Rizky Abadi,"Jln.pg. unit, Gandasari, Kec. Tolangohula, Kabupaten Gorontalo, Gorontalo 96222","Gandasari, Kec. Tolangohula, Kabupaten Gorontalo",GORONTALO,96222.0,Indonesia,85212121212.0,,,0.6945203,122.5792775,https://maps.google.com/?cid=0x0:0xa84ac1b3b1cf1f76,
toko bangunan,Toko Bahan Bangunan,Toko Bangunan Istana Bangunan,"Jl. D.I. Panjaitan, Limba U I, Kota Sel., Kota Gorontalo, Gorontalo 96135","Limba U I, Kota Sel., Kota Gorontalo",GORONTALO,96135.0,Indonesia,,,,0.5481889,123.062409,https://maps.google.com/?cid=0x0:0xb8e64cbbbe885a9a,
toko bangunan,Toko,TB.PUSPITA LIMBOTO,"Jl. A.K. Duhe, Kayubulan, Kec. Limboto, Kabupaten Gorontalo, Gorontalo 96214","Kayubulan, Kec. Limboto, Kabupaten Gorontalo",GORONTALO,96214.0,Indonesia,81354702523.0,,,0.6200368,122.9792481,https://maps.google.com/?cid=0x0:0x16eb4eeb94631e96,
toko bangunan,Toko Bahan Bangunan,Toko Bangunan Sinar Surya,"H2GW+P28, Bulila, Kec. Telaga, Kabupaten Gorontalo, Gorontalo 96138","Bulila, Kec. Telaga, Kabupaten Gorontalo",GORONTALO,96138.0,Indonesia,,,,0.5767909,123.0450809,https://maps.google.com/?cid=0x0:0x19ed8169e78064d0,
toko bangunan,toko bangunan,Gorontalo 96524,"Kec. Tolinggula, Kabupaten Gorontalo Utara, Gorontalo","Kabupaten Gorontalo Utara, Gorontalo",GORONTALO,,Indonesia,,,,0.9280512,122.2200065,https://maps.google.com/?cid=0x0:0xd3efad24a9000eb8,
toko bangunan,toko bangunan,Toko Sinar Jaya Berkah Mandiri,"X7VF+CX5, Buloila, Kec. Sumalata, Kabupaten Gorontalo Utara, Gorontalo","Kabupaten Gorontalo Utara, Gorontalo",GORONTALO,,Indonesia,85244553019.0,,,0.9919618,122.2748447,https://maps.google.com/?cid=0x0:0xcb4aede6789a4cad,
toko bangunan,Toko Perlengkapan Rumah,TB. AMANAH TOLINGGULA,"2685+RMG, Tolinggula Pantai, Kec. Tolinggula, Kabupaten Gorontalo Utara, Gorontalo 96524","Tolinggula Pantai, Kec. Tolinggula, Kabupaten Gorontalo Utara",GORONTALO,96524.0,Indonesia,,,,1.017055,122.209203,https://maps.google.com/?cid=0x0:0x544039607ff7b54b,
toko bangunan,Toko Perlengkapan Rumah,Tk Barcelona,"2585+343, Jl. Buol - Gorontalo, Umu, Kec. Tolinggula, Kabupaten Gorontalo Utara, Gorontalo 94568","Jl. Buol - Gorontalo, Umu, Kec. Tolinggula, Kabupaten Gorontalo Utara",GORONTALO,94568.0,Indonesia,,,,1.015148,122.1577965,https://maps.google.com/?cid=0x0:0xb68bd0a53035b624,
toko bangunan,Toko Bahan Bangunan,Sinar Bangunan Gorontalo,"Jalan Kasuari Baru No.8, Heledulaa, Kota Timur, Heledulaa, Gorontalo, Kota Gorontalo, Gorontalo 96135","Heledulaa, Kota Timur, Heledulaa, Gorontalo, Kota Gorontalo",GORONTALO,96135.0,Indonesia,82194995146.0,,,0.5459753,123.0653457,https://maps.google.com/?cid=0x0:0xf278c2a9fcd91c78,
toko bangunan,Pusat Perbelanjaan,ADI JAYA SENTOSA BANGUNAN,"Jl. Buol - Gorontalo, Umu, Kec. Tolinggula, Kabupaten Gorontalo Utara, Gorontalo 94568","Umu, Kec. Tolinggula, Kabupaten Gorontalo Utara",GORONTALO,94568.0,Indonesia,81340308777.0,,,1.015063,122.175805,https://maps.google.com/?cid=0x0:0x27c96a4e459f3fec,
toko bangunan,toko bangunan,Gorontalo 96252,"Kec. Kwandang, Kabupaten Gorontalo Utara, Gorontalo","Kabupaten Gorontalo Utara, Gorontalo",GORONTALO,,Indonesia,,,,0.8083426,122.9212265,https://maps.google.com/?cid=0x0:0x8516fb933d27785f,
toko bangunan,Toko Bahan Bangunan,Toko bangunan setia baru,"QVJ5+M3X, Unnamed Road, Pontolo, Kec. Kwandang, Kabupaten Gorontalo Utara, Gorontalo 96252","Unnamed Road, Pontolo, Kec. Kwandang, Kabupaten Gorontalo Utara",GORONTALO,96252.0,Indonesia,,,,0.781745,122.857737,https://maps.google.com/?cid=0x0:0x6b95fe99a2fc56be,
toko bangunan,Toko Bahan Bangunan,UD IIN BANGUNAN,"RWJ8+9Q8, Titidu, Kec. Kwandang, Kabupaten Gorontalo Utara, Gorontalo 96252","Titidu, Kec. Kwandang, Kabupaten Gorontalo Utara",GORONTALO,96252.0,Indonesia,85298114647.0,,,0.8309223,122.9169546,https://maps.google.com/?cid=0x0:0x24029f85ad67b515,
toko bangunan,Toko Bahan Bangunan,Toko Bahan Bangunan Agung Mulia Gorontalo,"Jl. Ahmad A. Wahab, Pantungo, Kec. Telaga Biru, Kabupaten Gorontalo, Gorontalo 96181","Pantungo, Kec. Telaga Biru, Kabupaten Gorontalo",GORONTALO,96181.0,Indonesia,81340021774.0,,,0.5923488,123.035742,https://maps.google.com/?cid=0x0:0xaa0790c445417bb3,
toko bangunan,Toko Bahan Bangunan,Toko Sinar Jaya,"RWM9+56H, Titidu, Kec. Kwandang, Kabupaten Gorontalo Utara, Gorontalo 96252","Titidu, Kec. Kwandang, Kabupaten Gorontalo Utara",GORONTALO,96252.0,Indonesia,85240579502.0,,,0.8329441,122.9181154,https://maps.google.com/?cid=0x0:0xc9ba80594d558e48,
toko bangunan,Toko Bahan Bangunan,Toko Mulia Bangunan,"Jl. Kh. Agus Salim No.29, Limba B, Kota Sel., Kota Gorontalo, Gorontalo 96136","Limba B, Kota Sel., Kota Gorontalo",GORONTALO,96136.0,Indonesia,435829617.0,,,0.545024,123.0535275,https://maps.google.com/?cid=0x0:0xfa6f48fb74c30578,
toko bangunan,Toko Bahan Bangunan,Toko Golden Bangunan,"Bulotadaa, Kec. Sipatana, Kabupaten Gorontalo, Gorontalo 96139","Kec. Sipatana, Kabupaten Gorontalo",GORONTALO,96139.0,Indonesia,82166906062.0,,,0.5814976,123.0574234,https://maps.google.com/?cid=0x0:0x453c5f8d09646695,
toko bangunan,Toko Bahan Bangunan,TOKO BANGUNAN SETIA MANDIRI,"JWQ9+C94, Jl. Trans Sulawesi, Yosonegoro, Kec. Limboto Bar., Kabupaten Gorontalo, Gorontalo 96218","Jl. Trans Sulawesi, Yosonegoro, Kec. Limboto Bar., Kabupaten Gorontalo",GORONTALO,96218.0,Indonesia,,,,0.6385094,122.9184596,https://maps.google.com/?cid=0x0:0x749368d304051a8b,
toko bangunan,Toko Bahan Bangunan,Toko bangunan SETIA MAKMUR,"JJJM+3RX, Jl. Trans Sulawesi, Parungi, Kec. Boliyohuto, Kabupaten Gorontalo, Gorontalo 96264","Jl. Trans Sulawesi, Parungi, Kec. Boliyohuto, Kabupaten Gorontalo",GORONTALO,96264.0,Indonesia,82334999595.0,,,0.630235,122.6345994,https://maps.google.com/?cid=0x0:0xc5b341c44ba489c3,
toko bangunan,Toko Swalayan,TOKO PRIMA BANGUNAN,"H2CM+R4H, Jl. Raja Wadipalapa, Luwoo, Kec. Telaga Jaya, Kabupaten Gorontalo, Gorontalo 96138","Jl. Raja Wadipalapa, Luwoo, Kec. Telaga Jaya, Kabupaten Gorontalo",GORONTALO,96138.0,Indonesia,4358364101.0,,,0.5720512,123.0328505,https://maps.google.com/?cid=0x0:0x5fe3833a58996f3f,
toko bangunan,Toko Bahan Bangunan,Toko Bintang Bangunan,"H2WM+2PV, Pantungo, Kec. Telaga Biru, Kabupaten Gorontalo, Gorontalo 96181","Pantungo, Kec. Telaga Biru, Kabupaten Gorontalo",GORONTALO,96181.0,Indonesia,,,,0.5951187,123.0342844,https://maps.google.com/?cid=0x0:0x89b3a054d4575823,
toko bangunan,Toko Bahan Bangunan,TOKO RADITYA BANGUNAN,"JVWF+P4W, Jl. Trans Sulawesi, Isimu Sel., Kec. Tibawa, Kabupaten Gorontalo, Gorontalo 96216","Jl. Trans Sulawesi, Isimu Sel., Kec. Tibawa, Kabupaten Gorontalo",GORONTALO,96216.0,Indonesia,435890018.0,,,0.646853,122.872829,https://maps.google.com/?cid=0x0:0xe9430e8331fe7b00,
toko bangunan,Pemasok Bahan Bangunan,Toko Bahan Bangunan Sari Agung,"Bulila, Kec. Telaga, Kabupaten Gorontalo, Gorontalo 96138","Kec. Telaga, Kabupaten Gorontalo",GORONTALO,96138.0,Indonesia,82196031500.0,,,0.5765609,123.0449069,https://maps.google.com/?cid=0x0:0x1ec016b864d215a6,
toko bangunan,Toko Bahan Bangunan,Toko Multi Bangunan,"Moutong, Kec. Tilongkabila, Kabupaten Bone Bolango, Gorontalo","Kabupaten Bone Bolango, Gorontalo",GORONTALO,,Indonesia,,,,0.5562915,123.1406896,https://maps.google.com/?cid=0x0:0x24d6a17cc2087c6,
toko bangunan,Toko Bahan Bangunan,BJP BANGUNAN GORONTALO,"bjpbangunan@gmail.com, Heledulaa Sel., Kec. Kota Tim., Kota Gorontalo, Gorontalo 96128","Heledulaa Sel., Kec. Kota Tim., Kota Gorontalo",GORONTALO,96128.0,Indonesia,81935027833.0,,,0.5384306,123.0616,https://maps.google.com/?cid=0x0:0xaa9d2db3149eb8a4,
toko bangunan,Toko Bahan Bangunan,Toko Kemilau Bangunan,"H27W+PGM, Tomulabutao Sel., Kec. Dungingi, Kota Gorontalo, Gorontalo 96138","Tomulabutao Sel., Kec. Dungingi, Kota Gorontalo",GORONTALO,96138.0,Indonesia,,,,0.5643474,123.0462859,https://maps.google.com/?cid=0x0:0x9230aa798f5dec69,
toko bangunan,Gedung Apartemen,Toko bangunan multya,"HVJJ+8P2, Desa botubulowe kec, Dungaliyo, Kec. Bongomeme, Kabupaten Gorontalo, Gorontalo 96271","Desa botubulowe kec, Dungaliyo, Kec. Bongomeme, Kabupaten Gorontalo",GORONTALO,96271.0,Indonesia,82296668077.0,,,0.5807579,122.8817689,https://maps.google.com/?cid=0x0:0x24e440e57517ae40,
toko bangunan,Toko Perlengkapan Rumah,Toko Bangunan Dan Alat Listrik Sentral Bangunan,"J288+R2R, Pentadio Tim., Kec. Telaga Biru, Kabupaten Gorontalo, Gorontalo 96181","Pentadio Tim., Kec. Telaga Biru, Kabupaten Gorontalo",GORONTALO,96181.0,Indonesia,,,,0.6171141,123.0150208,https://maps.google.com/?cid=0x0:0x48b938acb1015e1b,
toko bangunan,Toko Perlengkapan Rumah,Toko Bangunan Rizky Abadi,"Jln.pg. unit, Gandasari, Kec. Tolangohula, Kabupaten Gorontalo, Gorontalo 96222","Gandasari, Kec. Tolangohula, Kabupaten Gorontalo",GORONTALO,96222.0,Indonesia,85212121212.0,,,0.6945203,122.5792775,https://maps.google.com/?cid=0x0:0xa84ac1b3b1cf1f76,
toko bangunan,Toko Bahan Bangunan,Sinar Bangunan Gorontalo,"Jalan Kasuari Baru No.8, Heledulaa, Kota Timur, Heledulaa, Gorontalo, Kota Gorontalo, Gorontalo 96135","Heledulaa, Kota Timur, Heledulaa, Gorontalo, Kota Gorontalo",GORONTALO,96135.0,Indonesia,82194995146.0,,,0.5459753,123.0653457,https://maps.google.com/?cid=0x0:0xf278c2a9fcd91c78,
toko bangunan,Toko Bahan Bangunan,Joss Bangunan,"QVRC+WR4, Jl. Trans Sulawesi, Molingkapoto, Kec. Kwandang, Kabupaten Gorontalo Utara, Gorontalo","Kabupaten Gorontalo Utara, Gorontalo",GORONTALO,,Indonesia,,,,0.7922681,122.8720675,https://maps.google.com/?cid=0x0:0x56d2c2bb2cae586b,
toko bangunan,Toko grosir,Tko mz,"G8GR+7PP, Hungayonaa, Kec. Tilamuta, Kabupaten Boalemo, Gorontalo 96263","Hungayonaa, Kec. Tilamuta, Kabupaten Boalemo",GORONTALO,96263.0,Indonesia,,,,0.5257173,122.3418426,https://maps.google.com/?cid=0x0:0x62b95d8d18c61cd8,
toko bangunan,toko bangunan,King depo,"Unnamed Road, Sukamakmur, Kec. Tolangohula, Kabupaten Gorontalo, Gorontalo 96264","Sukamakmur, Kec. Tolangohula, Kabupaten Gorontalo",GORONTALO,96264.0,Indonesia,,,,0.7001209,122.5611492,https://maps.google.com/?cid=0x0:0xb790658136a6bd54,
toko bangunan,Toko Bahan Bangunan,Toko Bangunan Rahmalia,"H34W+H95, Toto Sel., Kec. Kabila, Kabupaten Bone Bolango, Gorontalo 96115","Toto Sel., Kec. Kabila, Kabupaten Bone Bolango",GORONTALO,96115.0,Indonesia,,,,0.5563844,123.0959854,https://maps.google.com/?cid=0x0:0x9cb52e7b5ca75780,
toko bangunan,Toko,Toko Sinar Bangunan,"G8VW+594, Piloliyanga, Kec. Tilamuta, Kabupaten Boalemo, Gorontalo 96263","Piloliyanga, Kec. Tilamuta, Kabupaten Boalemo",GORONTALO,96263.0,Indonesia,85299866396.0,,,0.5428988,122.3459409,https://maps.google.com/?cid=0x0:0xc784f339c730cfc,
toko bangunan,Toko Bahan Bangunan,Toko Bintang Bangunan II,"JJJQ+GW5, Jl. Trans Sulawesi, Parungi, Kec. Boliyohuto, Kabupaten Gorontalo, Gorontalo 96264","Jl. Trans Sulawesi, Parungi, Kec. Boliyohuto, Kabupaten Gorontalo",GORONTALO,96264.0,Indonesia,,,,0.6312564,122.6398533,https://maps.google.com/?cid=0x0:0x2cd3ec40bc4ef51f,
toko bangunan,Toko Bahan Bangunan,TOKO R2 BANGUNAN,"Jl. Trans Sulawesi No.196, Buntulia Tengah, Kec. Buntulia, Kabupaten Pohuwato, Gorontalo 96466","Buntulia Tengah, Kec. Buntulia, Kabupaten Pohuwato",GORONTALO,96466.0,Indonesia,,,,0.486066,121.9350154,https://maps.google.com/?cid=0x0:0x6429c15481fce075,
toko bangunan,Toko Bahan Bangunan,Toko Bangunan Putra Trivenda,"PF24+8WJ, Unnamed Road, Makmur, Kec. Wonosari, Kabupaten Boalemo, Gorontalo 96262","Unnamed Road, Makmur, Kec. Wonosari, Kabupaten Boalemo",GORONTALO,96262.0,Indonesia,,,,0.7008283,122.4572687,https://maps.google.com/?cid=0x0:0xdbe347aac9462969,
toko bangunan,Toko Bahan Bangunan,Toko fatma jaya bangunan,"G5MM+6M5, Jl. Ahmad Nadjmudin Desa tolomato, Tengah, Kec. Suwawa, Kabupaten Bone Bolango, Gorontalo 96583","Jl. Ahmad Nadjmudin Desa tolomato, Tengah, Kec. Suwawa, Kabupaten Bone Bolango",GORONTALO,96583.0,Indonesia,82259529900.0,,,0.533016,123.1842372,https://maps.google.com/?cid=0x0:0xe84bbaa2ae54478e,
