Category,Real Category,Business Name,Address,City,State,Postal Code,Country,Phone,Email,Website,Latitude,Longitude,Map Link,Details Link
mall,mall,Gorontalo 96525,"Kec. Anggrek, Kabupaten Gorontalo Utara, Gorontalo","Kabupaten Gorontalo Utara, Gorontalo",GORONTALO,,Indonesia,,,,0.8425794,122.695547,https://maps.google.com/?cid=0x0:0xc910c3a3b1bab734,
mall,Otoritas Pelabuhan,KPBU Pelabuhan Anggrek,"Pelabuhan, Ilangata, Kec. Anggrek, Kabupaten Gorontalo Utara, Gorontalo 96525","Ilangata, Kec. Anggrek, Kabupaten Gorontalo Utara",GORONTALO,96525.0,Indonesia,81341812348.0,,,0.8586546,122.7942525,https://maps.google.com/?cid=0x0:0x47d029b6ad02975a,
mall,Pasar,Pasar TOLANGO,"VQ44+6MG, Tolango, Kec. Anggrek, Kabupaten Gorontalo Utara, Gorontalo 96525","Tolango, Kec. Anggrek, Kabupaten Gorontalo Utara",GORONTALO,96525.0,Indonesia,,,,0.8555658,122.7567019,https://maps.google.com/?cid=0x0:0x84b4e390ee8dc5da,
mall,Pusat Perbelanjaan,Nelfi,"QRP6+C95, Helumo, Kec. Anggrek, Kabupaten Gorontalo Utara, Gorontalo 96525","Helumo, Kec. Anggrek, Kabupaten Gorontalo Utara",GORONTALO,96525.0,Indonesia,82349170339.0,,,0.78601,122.8109807,https://maps.google.com/?cid=0x0:0x3e40326384a49139,
mall,Minimarket,alfamart monano,"Tudi, Kec. Anggrek, Kabupaten Gorontalo Utara, Gorontalo 96525","Kec. Anggrek, Kabupaten Gorontalo Utara",GORONTALO,96525.0,Indonesia,,,,0.8686715,122.6964846,https://maps.google.com/?cid=0x0:0x2a1dbca8e79026f2,
mall,Kios,Kios Ajen,"WJRQ+6V4, Dunu, Kec. Anggrek, Kabupaten Gorontalo Utara, Gorontalo 96525","Dunu, Kec. Anggrek, Kabupaten Gorontalo Utara",GORONTALO,96525.0,Indonesia,,,,0.9405196,122.6397059,https://maps.google.com/?cid=0x0:0x3c714bdf7a9edaf3,
mall,Toko,SEKON Sport,"RR7J+C93, Tolongio, Kec. Anggrek, Kabupaten Gorontalo Utara, Gorontalo 96252","Tolongio, Kec. Anggrek, Kabupaten Gorontalo Utara",GORONTALO,96252.0,Indonesia,81354898789.0,,,0.8129576,122.8310637,https://maps.google.com/?cid=0x0:0xd28b0458c0ff2ccb,
mall,Toko,TOKO IQBAL,"VQ33+6VH, Tolango, Kec. Anggrek, Kabupaten Gorontalo Utara, Gorontalo","Kabupaten Gorontalo Utara, Gorontalo",GORONTALO,,Indonesia,,,,0.8530669,122.7547249,https://maps.google.com/?cid=0x0:0x9af59761f45cac22,
mall,Bar,STAP RICA REAL,"QV85+FQ9 Atas, Pontolo, Kec. Kwandang, Kabupaten Gorontalo Utara, Gorontalo 96252","Pontolo, Kec. Kwandang, Kabupaten Gorontalo Utara",GORONTALO,96252.0,Indonesia,,,,0.7661742,122.8594962,https://maps.google.com/?cid=0x0:0x1b10312fa8a5d85f,
mall,Toko Pakaian,SALSA NATSYA SHOP,"Jl. Trans Labanu, Motilango, Kec. Anggrek, Kabupaten Gorontalo Utara, Gorontalo 96252","Motilango, Kec. Anggrek, Kabupaten Gorontalo Utara",GORONTALO,96252.0,Indonesia,,,,0.7838489,122.8219131,https://maps.google.com/?cid=0x0:0xcf90ea8a1cac8fb,
mall,Toko Pakaian,AFM Store,"QVVG+V3R, Mootinelo, Kec. Kwandang, Kabupaten Gorontalo Utara, Gorontalo 96252","Mootinelo, Kec. Kwandang, Kabupaten Gorontalo Utara",GORONTALO,96252.0,Indonesia,82336498306.0,,,0.7947495,122.8751395,https://maps.google.com/?cid=0x0:0xb03fd80e4db8477d,
mall,Pusat Perbelanjaan,Fitriyanti agulu OL shop,"QJPQ+PJ7, Dusun pilomalula, Payu, Kec. Mootilango, Kabupaten Gorontalo, Gorontalo 96264","Dusun pilomalula, Payu, Kec. Mootilango, Kabupaten Gorontalo",GORONTALO,96264.0,Indonesia,,,,0.786778,122.6390489,https://maps.google.com/?cid=0x0:0xcb1ac3d4d29b9bc8,
mall,Pusat Perbelanjaan,Kecamatan Mootilango Kab. Gorontalo,"PJGV+C4, Helumo, Kec. Mootilango, Kabupaten Gorontalo, Gorontalo","Kabupaten Gorontalo, Gorontalo",GORONTALO,,Indonesia,,,,0.7261093,122.6428145,https://maps.google.com/?cid=0x0:0x3192bcca6a9359e0,
mall,Penyedia Layanan Telekomunikasi,simPATI Cell. Desa Pontolo Kwandang Kab Gorontalo Utara,"QVJ7+JCC, Pontolo, Kec. Kwandang, Kabupaten Gorontalo Utara, Gorontalo 96252","Pontolo, Kec. Kwandang, Kabupaten Gorontalo Utara",GORONTALO,96252.0,Indonesia,813402500.0,,,0.7815741,122.8635061,https://maps.google.com/?cid=0x0:0x97e30d0ea8fd15c,
mall,mall,Aydra,"QRP6+67W, Helumo, Kec. Anggrek, Kabupaten Gorontalo Utara, Gorontalo 96525","Helumo, Kec. Anggrek, Kabupaten Gorontalo Utara",GORONTALO,96525.0,Indonesia,,,,0.7856072,122.810838,https://maps.google.com/?cid=0x0:0x2f378c2979cb7311,
mall,Otoritas Pelabuhan,AGIT ( ANGGREK INTERNASIONAL TERMINAL ),"VQ5V+VCV, Ilangata, Kec. Anggrek, Kabupaten Gorontalo Utara, Gorontalo 96525","Ilangata, Kec. Anggrek, Kabupaten Gorontalo Utara",GORONTALO,96525.0,Indonesia,,,,0.8597375,122.7935469,https://maps.google.com/?cid=0x0:0xac8277772edcf901,
mall,mall,Toko Meykelling,"RR79+2JX, Tolongio, Kec. Anggrek, Kabupaten Gorontalo Utara, Gorontalo 96525","Tolongio, Kec. Anggrek, Kabupaten Gorontalo Utara",GORONTALO,96525.0,Indonesia,,,,0.8126097,122.8190991,https://maps.google.com/?cid=0x0:0xfa96f341811df8e,
mall,Pusat Perbelanjaan,Mall Taman Anggrek,"Jl. Letjen S. Parman, RT.12/RW.1, Tj. Duren Sel., Kec. Grogol petamburan, Kota Jakarta Barat, Daerah Khusus Ibukota Jakarta 11470","RT.12/RW.1, Tj. Duren Sel., Kec. Grogol petamburan, Kota Jakarta Barat",GORONTALO,11470.0,Indonesia,215643777.0,,,-6.1782936,106.7924023,https://maps.google.com/?cid=0x0:0xb287bf108f4ef441,
mall,Perhentian bus,Taman Anggrek Mall,"Tomang, Kec. Grogol petamburan, Kota Jakarta Barat, Daerah Khusus Ibukota Jakarta","Kota Jakarta Barat, Daerah Khusus Ibukota Jakarta",GORONTALO,,Indonesia,,,,-6.17787,106.79453,https://maps.google.com/?cid=0x0:0xa33e94e347c2894d,
mall,mall,Gorontalo 96253,"Kabupaten Gorontalo Utara, Gorontalo","Kabupaten Gorontalo Utara, Gorontalo",GORONTALO,,Indonesia,,,,0.8707926,123.1014056,https://maps.google.com/?cid=0x0:0xfa82e81a2bd61d81,
mall,Pusat Perbelanjaan,Citimall Gorontalo,"Jl. Sultan Botutihe No.68, Heledulaa Sel., Kec. Kota Tim., Kota Gorontalo, Gorontalo 96134","Heledulaa Sel., Kec. Kota Tim., Kota Gorontalo",GORONTALO,96134.0,Indonesia,,,,0.5377284,123.0620043,https://maps.google.com/?cid=0x0:0x79e25905adc0f87,
mall,Toko umum,Kios Kartika,"V3M4+C5V, Imana, Kec. Atinggola, Kabupaten Gorontalo Utara, Gorontalo 96253","Imana, Kec. Atinggola, Kabupaten Gorontalo Utara",GORONTALO,96253.0,Indonesia,,,,0.8836229,123.0554228,https://maps.google.com/?cid=0x0:0xd96115a332bd5e8b,
mall,Toko Swalayan,BUMDES IMANA,"V3R6+FRR, Imana, Kec. Atinggola, Kabupaten Gorontalo Utara, Gorontalo 96253","Imana, Kec. Atinggola, Kabupaten Gorontalo Utara",GORONTALO,96253.0,Indonesia,82343275907.0,,,0.8912473,123.0620193,https://maps.google.com/?cid=0x0:0xc74f6726f4c62960,
mall,Toko,Mr asap,"W2GP+2XJ, Jl. Trans Sulawesi, Gentuma, Kec. Gentuma Raya, Kabupaten Gorontalo Utara, Gorontalo 96253","Jl. Trans Sulawesi, Gentuma, Kec. Gentuma Raya, Kabupaten Gorontalo Utara",GORONTALO,96253.0,Indonesia,82195270921.0,,,0.9250902,123.0373887,https://maps.google.com/?cid=0x0:0x936f609802c9e941,
mall,Toko Swalayan,Rumah Rasmel,"W2FR+V6P, Gentuma, Kec. Gentuma Raya, Kabupaten Gorontalo Utara, Gorontalo 96253","Gentuma, Kec. Gentuma Raya, Kabupaten Gorontalo Utara",GORONTALO,96253.0,Indonesia,85256217847.0,,,0.924719,123.040571,https://maps.google.com/?cid=0x0:0x5e978ae902d7ea27,
mall,Toko bahan makanan,SRC QILLA,"VWMV+3PW, Jl. Trans Sulawesi, Dambalo, Kec. Kwandang, Kabupaten Gorontalo Utara, Gorontalo 96252","Jl. Trans Sulawesi, Dambalo, Kec. Kwandang, Kabupaten Gorontalo Utara",GORONTALO,96252.0,Indonesia,85255763023.0,,,0.8827404,122.9443204,https://maps.google.com/?cid=0x0:0xdcd88c375e2fd0ae,
mall,Toko,Lapak Jilshop Vingki,"W2GQ+C5C, Gentuma, Kec. Gentuma Raya, Kabupaten Gorontalo Utara, Gorontalo 96253","Gentuma, Kec. Gentuma Raya, Kabupaten Gorontalo Utara",GORONTALO,96253.0,Indonesia,82296018002.0,,,0.9260679,123.0378803,https://maps.google.com/?cid=0x0:0x1c97922331c478b3,
mall,mall,BUM Desa KINORASAWA,"W35M+47V, Jl. Trans Sulawesi, Imana, Kec. Atinggola, Kabupaten Gorontalo Utara, Gorontalo","Kabupaten Gorontalo Utara, Gorontalo",GORONTALO,,Indonesia,,,,0.9078616,123.0831636,https://maps.google.com/?cid=0x0:0xe6d8a7059d5f69d,
mall,Pusat Perbelanjaan,Citimall Gorontalo,"Jl. Sultan Botutihe No.68, Heledulaa Sel., Kec. Kota Tim., Kota Gorontalo, Gorontalo 96134","Heledulaa Sel., Kec. Kota Tim., Kota Gorontalo",GORONTALO,96134.0,Indonesia,,,,0.5377284,123.0620043,https://maps.google.com/?cid=0x0:0x79e25905adc0f87,
mall,mall,Gorontalo,,Gorontalo,GORONTALO,,Indonesia,,,,0.6999372,122.4467238,https://maps.google.com/?cid=0x0:0x1030bfbcaf71a20,
mall,Minimarket,Indomaret Biau,"X6P8+PG8, Biawu, Kecamatan Biau, Gorontalo, 96253","Biawu, Kecamatan Biau",GORONTALO,96253.0,Indonesia,82195056399.0,,,0.9867935,122.2163377,https://maps.google.com/?cid=0x0:0xd662830a72ccee4f,
mall,Seafood,Market Biawu,"G3P4+75F, Biawu, Kec. Hulonthalangi, Kota Gorontalo, Gorontalo 96133","Biawu, Kec. Hulonthalangi, Kota Gorontalo",GORONTALO,96133.0,Indonesia,82195791663.0,,,0.5356755,123.0554288,https://maps.google.com/?cid=0x0:0xfb37151a5ed767f6,
mall,Toko bahan makanan,R3 Shop,"H23W+VC8, Libuo, Kec. Dungingi, Kabupaten Gorontalo, Gorontalo 96138","Libuo, Kec. Dungingi, Kabupaten Gorontalo",GORONTALO,96138.0,Indonesia,82293877611.0,,,0.5546511,123.0460848,https://maps.google.com/?cid=0x0:0x34ce71409837f37a,
mall,Pusat Perbelanjaan,Vio Label Store,"JVX5+CQF, Jl. Trans Sulawesi, Isimu Sel., Kec. Tibawa, Kabupaten Gorontalo, Gorontalo","Kabupaten Gorontalo, Gorontalo",GORONTALO,,Indonesia,85398296060.0,,,0.6485661,122.8594372,https://maps.google.com/?cid=0x0:0x54a6d8ff58db5e3a,
mall,Toko Swalayan,Kios Al  vira,"H22X+PMR, Libuo, Kec. Dungingi, Kabupaten Gorontalo, Gorontalo 96138","Libuo, Kec. Dungingi, Kabupaten Gorontalo",GORONTALO,96138.0,Indonesia,89530221719.0,,,0.551868,123.04913,https://maps.google.com/?cid=0x0:0xb7e57c3a26d4bd68,
mall,Minimarket,Kios wahyu,"5C6H+58R, Kali, Kec. Biau, Kabupaten Buol, Sulawesi Tengah 94565","Kali, Kec. Biau, Kabupaten Buol",GORONTALO,94565.0,Indonesia,82236518682.0,,,1.1604769,121.4282546,https://maps.google.com/?cid=0x0:0xeb3ac3ff800bb3b3,
mall,mall,Biau,"Kec. Bukal, Kabupaten Buol, Sulawesi Tengah","Kabupaten Buol, Sulawesi Tengah",GORONTALO,,Indonesia,,,,1.0813143,121.4484747,https://maps.google.com/?cid=0x0:0xd4aa98bb7cffee59,
mall,Toko bahan makanan,KIOS FARIDHA,"Leok I, Kec. Biau, Kabupaten Buol, Sulawesi Tengah","Kabupaten Buol, Sulawesi Tengah",GORONTALO,,Indonesia,82293819618.0,,,1.2033513,121.3941835,https://maps.google.com/?cid=0x0:0x57a15a9ee0329981,
mall,mall,Blau,"Windu, Kec. Tolinggula, Kabupaten Gorontalo Utara, Gorontalo","Kabupaten Gorontalo Utara, Gorontalo",GORONTALO,,Indonesia,,,,0.986265,122.223602,https://maps.google.com/?cid=0x0:0x871bc1bc52273216,
mall,Tempat Parkir,Biau,"X6J7+W88, Jl. Buol - Gorontalo, Biawu, Kec. Tolinggula, Kabupaten Gorontalo Utara, Gorontalo 96524","Jl. Buol - Gorontalo, Biawu, Kec. Tolinggula, Kabupaten Gorontalo Utara",GORONTALO,96524.0,Indonesia,,,,0.982294,122.213335,https://maps.google.com/?cid=0x0:0x52f14f990728822,
mall,Minimarket,Indomaret Biau,"X6P8+PG8, Biawu, Kecamatan Biau, Gorontalo, 96253","Biawu, Kecamatan Biau",GORONTALO,96253.0,Indonesia,82195056399.0,,,0.9867935,122.2163377,https://maps.google.com/?cid=0x0:0xd662830a72ccee4f,
mall,Pusat Perbelanjaan,Citimall Gorontalo,"Jl. Sultan Botutihe No.68, Heledulaa Sel., Kec. Kota Tim., Kota Gorontalo, Gorontalo 96134","Heledulaa Sel., Kec. Kota Tim., Kota Gorontalo",GORONTALO,96134.0,Indonesia,,,,0.5377284,123.0620043,https://maps.google.com/?cid=0x0:0x79e25905adc0f87,
mall,,Alfamart biau,"X6P8+CQ2, Jl. Buol - Gorontalo, Biawu, Kec. Tolinggula, Kabupaten Gorontalo Utara, Gorontalo 96524","Jl. Buol - Gorontalo, Biawu, Kec. Tolinggula, Kabupaten Gorontalo Utara",GORONTALO,96524.0,Indonesia,81250129346.0,,,0.9860003,122.2168921,https://maps.google.com/?cid=0x0:0x434c2a25f94ff1a6,
mall,mall,Kec. Gentuma Raya,"Kabupaten Gorontalo Utara, Gorontalo","Kabupaten Gorontalo Utara, Gorontalo",GORONTALO,,Indonesia,,,,0.9300102,123.0377072,https://maps.google.com/?cid=0x0:0xc9d73598b0af1e0,
mall,Toko Swalayan,Rumah Rasmel,"W2FR+V6P, Gentuma, Kec. Gentuma Raya, Kabupaten Gorontalo Utara, Gorontalo 96253","Gentuma, Kec. Gentuma Raya, Kabupaten Gorontalo Utara",GORONTALO,96253.0,Indonesia,85256217847.0,,,0.924719,123.040571,https://maps.google.com/?cid=0x0:0x5e978ae902d7ea27,
mall,Toko,Lapak Jilshop Vingki,"W2GQ+C5C, Gentuma, Kec. Gentuma Raya, Kabupaten Gorontalo Utara, Gorontalo 96253","Gentuma, Kec. Gentuma Raya, Kabupaten Gorontalo Utara",GORONTALO,96253.0,Indonesia,82296018002.0,,,0.9260679,123.0378803,https://maps.google.com/?cid=0x0:0x1c97922331c478b3,
mall,Toko,Mr asap,"W2GP+2XJ, Jl. Trans Sulawesi, Gentuma, Kec. Gentuma Raya, Kabupaten Gorontalo Utara, Gorontalo 96253","Jl. Trans Sulawesi, Gentuma, Kec. Gentuma Raya, Kabupaten Gorontalo Utara",GORONTALO,96253.0,Indonesia,82195270921.0,,,0.9250902,123.0373887,https://maps.google.com/?cid=0x0:0x936f609802c9e941,
mall,Toko bahan makanan,Alfamart Gentuma Raya,"Jl. Trans Sulawesi, Gentuma, Kec. Gentuma Raya, Kabupaten Gorontalo Utara, Gorontalo 96254","Gentuma, Kec. Gentuma Raya, Kabupaten Gorontalo Utara",GORONTALO,96254.0,Indonesia,1500959.0,,,0.9250869,123.0379532,https://maps.google.com/?cid=0x0:0x2b0e94edfa2c4e82,
mall,Toko umum,Kios Kartika,"V3M4+C5V, Imana, Kec. Atinggola, Kabupaten Gorontalo Utara, Gorontalo 96253","Imana, Kec. Atinggola, Kabupaten Gorontalo Utara",GORONTALO,96253.0,Indonesia,,,,0.8836229,123.0554228,https://maps.google.com/?cid=0x0:0xd96115a332bd5e8b,
mall,Toko Swalayan,BUMDES IMANA,"V3R6+FRR, Imana, Kec. Atinggola, Kabupaten Gorontalo Utara, Gorontalo 96253","Imana, Kec. Atinggola, Kabupaten Gorontalo Utara",GORONTALO,96253.0,Indonesia,82343275907.0,,,0.8912473,123.0620193,https://maps.google.com/?cid=0x0:0xc74f6726f4c62960,
mall,Minimarket,Toko Gembira Gentuma Raya,"Dumolodo, Kec. Gentuma Raya, Kabupaten Gorontalo Utara, Gorontalo 96253","Kec. Gentuma Raya, Kabupaten Gorontalo Utara",GORONTALO,96253.0,Indonesia,82190564747.0,,,0.9254491,123.0425774,https://maps.google.com/?cid=0x0:0xb7a0e69eac99e30,
mall,mall,Gorontalo 96252,"Kec. Kwandang, Kabupaten Gorontalo Utara, Gorontalo","Kabupaten Gorontalo Utara, Gorontalo",GORONTALO,,Indonesia,,,,0.8083426,122.9212265,https://maps.google.com/?cid=0x0:0x8516fb933d27785f,
mall,Minimarket,INDOMARET KWANDANG,"Moluo, Kec. Kwandang, Kabupaten Gorontalo Utara, Gorontalo 96252","Kec. Kwandang, Kabupaten Gorontalo Utara",GORONTALO,96252.0,Indonesia,,,,0.8437926,122.9143353,https://maps.google.com/?cid=0x0:0x31f4ce2c0617d7df,
mall,Kios,Enwi,"RWH9+WMX, Titidu, Kec. Kwandang, Kabupaten Gorontalo Utara, Gorontalo 96252","Titidu, Kec. Kwandang, Kabupaten Gorontalo Utara",GORONTALO,96252.0,Indonesia,82195130624.0,,,0.8298612,122.9192371,https://maps.google.com/?cid=0x0:0x86bf062478751e3b,
mall,Toko,MSGlow Kwandang,"RWW8+8MW, Dambalo, Kec. Kwandang, Kabupaten Gorontalo Utara, Gorontalo 96252","Dambalo, Kec. Kwandang, Kabupaten Gorontalo Utara",GORONTALO,96252.0,Indonesia,85298686343.0,,,0.8458743,122.9167061,https://maps.google.com/?cid=0x0:0x518a79017808b48c,
mall,Toko Roti,"Desa Moluo, Kec. Kwandang","Dusun pasar lama, desa, Moluo, Kabupaten Gorontalo Utara, Gorontalo 96252","desa, Moluo, Kabupaten Gorontalo Utara",GORONTALO,96252.0,Indonesia,,,,0.8668499,122.8902254,https://maps.google.com/?cid=0x0:0x676ff7deb7d5223e,
mall,Toko Ponsel,R-ceLL GORUT,"RW98+88M, Jl. Trans Sulawesi, Posso, Kec. Kwandang, Kabupaten Gorontalo Utara, Gorontalo 96252","Jl. Trans Sulawesi, Posso, Kec. Kwandang, Kabupaten Gorontalo Utara",GORONTALO,96252.0,Indonesia,85240169696.0,,,0.8183482,122.9157904,https://maps.google.com/?cid=0x0:0x75960e41ab8e65d9,
mall,Toko,R-Clouds Vape Shop,"RWF9+4CW, Jl. Trans Sulawesi, Titidu, Kec. Kwandang, Kabupaten Gorontalo Utara, Gorontalo 96252","Jl. Trans Sulawesi, Titidu, Kec. Kwandang, Kabupaten Gorontalo Utara",GORONTALO,96252.0,Indonesia,82217453234.0,,,0.822869,122.9185863,https://maps.google.com/?cid=0x0:0xd24faac45d78fc39,
mall,Pusat Perbelanjaan,Citimall Gorontalo,"Jl. Sultan Botutihe No.68, Heledulaa Sel., Kec. Kota Tim., Kota Gorontalo, Gorontalo 96134","Heledulaa Sel., Kec. Kota Tim., Kota Gorontalo",GORONTALO,96134.0,Indonesia,,,,0.5377284,123.0620043,https://maps.google.com/?cid=0x0:0x79e25905adc0f87,
mall,Toko Pakaian,AFM Store,"QVVG+V3R, Mootinelo, Kec. Kwandang, Kabupaten Gorontalo Utara, Gorontalo 96252","Mootinelo, Kec. Kwandang, Kabupaten Gorontalo Utara",GORONTALO,96252.0,Indonesia,82336498306.0,,,0.7947495,122.8751395,https://maps.google.com/?cid=0x0:0xb03fd80e4db8477d,
mall,Bar,STAP RICA REAL,"QV85+FQ9 Atas, Pontolo, Kec. Kwandang, Kabupaten Gorontalo Utara, Gorontalo 96252","Pontolo, Kec. Kwandang, Kabupaten Gorontalo Utara",GORONTALO,96252.0,Indonesia,,,,0.7661742,122.8594962,https://maps.google.com/?cid=0x0:0x1b10312fa8a5d85f,
mall,Toko bahan makanan,TOKO IFA,"RV4J+7RC, Leboto, Kec. Kwandang, Kabupaten Gorontalo Utara, Gorontalo 96252","Leboto, Kec. Kwandang, Kabupaten Gorontalo Utara",GORONTALO,96252.0,Indonesia,,,,0.8056983,122.882013,https://maps.google.com/?cid=0x0:0x93374b4bb147040,
mall,Toko Ponsel,Akim cell,"QVQC+XFP, Molingkapoto, Kec. Kwandang, Kabupaten Gorontalo Utara, Gorontalo 96252","Molingkapoto, Kec. Kwandang, Kabupaten Gorontalo Utara",GORONTALO,96252.0,Indonesia,85340217067.0,,,0.7899562,122.8711953,https://maps.google.com/?cid=0x0:0x48a40c4596579f68,
mall,Pasar,Pasar Tradisional Desa Leboto,"Jl. Trans Sulawesi, Leboto, Kec. Kwandang, Kabupaten Gorontalo Utara, Gorontalo 96252","Leboto, Kec. Kwandang, Kabupaten Gorontalo Utara",GORONTALO,96252.0,Indonesia,,,,0.8059135,122.8929135,https://maps.google.com/?cid=0x0:0x1c5b7a158f2bf05a,
mall,Pusat Perbelanjaan,Filosofi Store,"Moluo, Kec. Kwandang, Kabupaten Gorontalo Utara, Gorontalo 96252","Kec. Kwandang, Kabupaten Gorontalo Utara",GORONTALO,96252.0,Indonesia,82296737063.0,,,0.8448927,122.9140228,https://maps.google.com/?cid=0x0:0xd58bd3ce6b5d5c8,
mall,Toko bahan makanan,HSBarakati store,"RV3V+V59, Leboto, Kec. Kwandang, Kabupaten Gorontalo Utara, Gorontalo 96252","Leboto, Kec. Kwandang, Kabupaten Gorontalo Utara",GORONTALO,96252.0,Indonesia,81242431124.0,,,0.80466,122.8929842,https://maps.google.com/?cid=0x0:0x8c288d81be1cc7af,
mall,Toko Beras,Jual-Beli Beras (TENGA HADI),"RV4V+348, Depan Pasar Selasa, Leboto, Kec. Kwandang, Kabupaten Gorontalo Utara, Gorontalo 96252","Depan Pasar Selasa, Leboto, Kec. Kwandang, Kabupaten Gorontalo Utara",GORONTALO,96252.0,Indonesia,,,,0.8051609,122.8928139,https://maps.google.com/?cid=0x0:0x9cdcf6dd2ec2f43b,
mall,Toko bahan makanan,SRC QILLA,"VWMV+3PW, Jl. Trans Sulawesi, Dambalo, Kec. Kwandang, Kabupaten Gorontalo Utara, Gorontalo 96252","Jl. Trans Sulawesi, Dambalo, Kec. Kwandang, Kabupaten Gorontalo Utara",GORONTALO,96252.0,Indonesia,85255763023.0,,,0.8827404,122.9443204,https://maps.google.com/?cid=0x0:0xdcd88c375e2fd0ae,
mall,Minimarket,ALFAMART MOLINGKAPOTO KWANDANG,"Jl. Trans Sulawesi, Molingkapoto, Kec. Kwandang, Kabupaten Gorontalo Utara, Gorontalo 96252","Molingkapoto, Kec. Kwandang, Kabupaten Gorontalo Utara",GORONTALO,96252.0,Indonesia,1500959.0,,,0.7915558,122.8717422,https://maps.google.com/?cid=0x0:0xc81d9c43d4508fa1,
mall,Butik,STORE NAYOAN,"VV8R+P3Q, Moluo, Kec. Kwandang, Kabupaten Gorontalo Utara, Gorontalo 96252","Moluo, Kec. Kwandang, Kabupaten Gorontalo Utara",GORONTALO,96252.0,Indonesia,85256791582.0,,,0.8668499,122.8902254,https://maps.google.com/?cid=0x0:0x39c5805fdd77f27,
mall,Toko,SEKON Sport,"RR7J+C93, Tolongio, Kec. Anggrek, Kabupaten Gorontalo Utara, Gorontalo 96252","Tolongio, Kec. Anggrek, Kabupaten Gorontalo Utara",GORONTALO,96252.0,Indonesia,81354898789.0,,,0.8129576,122.8310637,https://maps.google.com/?cid=0x0:0xd28b0458c0ff2ccb,
mall,Kantor Pemerintah,Kantorpos Kwandang,"Titidu, Kec. Kwandang, Kabupaten Gorontalo Utara, Gorontalo 96252","Kec. Kwandang, Kabupaten Gorontalo Utara",GORONTALO,96252.0,Indonesia,,,,0.827395,122.9197695,https://maps.google.com/?cid=0x0:0xebf0d6666c2c3824,
mall,Minimarket,alfamart monano,"Tudi, Kec. Anggrek, Kabupaten Gorontalo Utara, Gorontalo 96525","Kec. Anggrek, Kabupaten Gorontalo Utara",GORONTALO,96525.0,Indonesia,,,,0.8686715,122.6964846,https://maps.google.com/?cid=0x0:0x2a1dbca8e79026f2,
mall,Kios,Alfamart,"RQX9+RQR, Ilangata, Kec. Anggrek, Kabupaten Gorontalo Utara, Gorontalo 96525","Ilangata, Kec. Anggrek, Kabupaten Gorontalo Utara",GORONTALO,96525.0,Indonesia,,,,0.8496058,122.769381,https://maps.google.com/?cid=0x0:0x4f717c323cfafeba,
mall,Mal outlet,Supermal Karawaci,"Jl. Boulevard Diponegoro No.105, Bencongan, Kec. Klp. Dua, Kabupaten Tangerang, Banten 15810","Bencongan, Kec. Klp. Dua, Kabupaten Tangerang",GORONTALO,15810.0,Indonesia,215466666.0,,,-6.2268116,106.6070233,https://maps.google.com/?cid=0x0:0xc5927a7be82e23b8,
mall,Makanan Siap Saji,KFC Supermal Karawaci,"Lippo Karawaci Supermall, Lt. LG No. 18, Jl. Diponegoro Blvd No.105, Bencongan, Kec. Klp. Dua, Kota Tangerang, Banten 15810","Lt. LG No. 18, Jl. Diponegoro Blvd No.105, Bencongan, Kec. Klp. Dua, Kota Tangerang",GORONTALO,15810.0,Indonesia,87881068872.0,,,-6.22767,106.6063432,https://maps.google.com/?cid=0x0:0xc6fece4a764f1807,
mall,Toko Buku,Gramedia Supermal Karawaci,"Supermal Karawaci, Jl. Boulevard Diponegoro No.105, Bencongan, Kec. Curug, Kabupaten Tangerang, Banten 15811","Jl. Boulevard Diponegoro No.105, Bencongan, Kec. Curug, Kabupaten Tangerang",GORONTALO,15811.0,Indonesia,215475874.0,,,-6.2272977,106.6080693,https://maps.google.com/?cid=0x0:0x2455452ce85185d5,
mall,mall,Gorontalo 96252,"Kec. Kwandang, Kabupaten Gorontalo Utara, Gorontalo","Kabupaten Gorontalo Utara, Gorontalo",GORONTALO,,Indonesia,,,,0.8083426,122.9212265,https://maps.google.com/?cid=0x0:0x8516fb933d27785f,
mall,Otoritas Pelabuhan,Ponelo Kepulauan,"VVRP+693, Jl. Kec. Ponelo, Moluo, Kec. Kwandang, Kabupaten Gorontalo Utara, Gorontalo","Kabupaten Gorontalo Utara, Gorontalo",GORONTALO,,Indonesia,,,,0.8905172,122.8859277,https://maps.google.com/?cid=0x0:0x3adda2027890f34b,
mall,mall,PASAR PONELO,"VVQM+VV6, Jl. Kec. Ponelo, kepulauan, Kec. Kwandang, Kabupaten Gorontalo Utara, Gorontalo","Kabupaten Gorontalo Utara, Gorontalo",GORONTALO,,Indonesia,,,,0.8896535,122.8846287,https://maps.google.com/?cid=0x0:0x2d2189184e3fccb6,
mall,Pusat Perbelanjaan,Citimall Gorontalo,"Jl. Sultan Botutihe No.68, Heledulaa Sel., Kec. Kota Tim., Kota Gorontalo, Gorontalo 96134","Heledulaa Sel., Kec. Kota Tim., Kota Gorontalo",GORONTALO,96134.0,Indonesia,,,,0.5377284,123.0620043,https://maps.google.com/?cid=0x0:0x79e25905adc0f87,
mall,Kios,Arif Cell,"VV7Q+599, Desa Otiola, Kec. Ponelo Kepulauan, Moluo, Kec. Kwandang, Kabupaten Gorontalo Utara, Gorontalo","Kabupaten Gorontalo Utara, Gorontalo",GORONTALO,,Indonesia,85213716033.0,,,0.8629058,122.8884859,https://maps.google.com/?cid=0x0:0x8eb5ff6ee10fae4a,
mall,mall,Gorontalo 96254,"Kabupaten Gorontalo Utara, Gorontalo","Kabupaten Gorontalo Utara, Gorontalo",GORONTALO,,Indonesia,,,,0.926195,122.4014193,https://maps.google.com/?cid=0x0:0x9a29fb0ff347278,
mall,Pusat Perbelanjaan,Citimall Gorontalo,"Jl. Sultan Botutihe No.68, Heledulaa Sel., Kec. Kota Tim., Kota Gorontalo, Gorontalo 96134","Heledulaa Sel., Kec. Kota Tim., Kota Gorontalo",GORONTALO,96134.0,Indonesia,,,,0.5377284,123.0620043,https://maps.google.com/?cid=0x0:0x79e25905adc0f87,
mall,Toko Perlengkapan Rumah,INTANA OLSHOP,"XGH4+XQ7, Buladu, Kec. Sumalata, Kabupaten Gorontalo Utara, Gorontalo 96254","Buladu, Kec. Sumalata, Kabupaten Gorontalo Utara",GORONTALO,96254.0,Indonesia,85256175411.0,,,0.9799181,122.5069192,https://maps.google.com/?cid=0x0:0x1e9b165c9193e9b1,
mall,Reparasi Mesin Jahit,Tempat jahit  Etalase Mini H²,"XCG8+869, Desa mebongo, dusun sukaria, Kec. Sumalata, Kabupaten Gorontalo Utara, Gorontalo","Kabupaten Gorontalo Utara, Gorontalo",GORONTALO,,Indonesia,,,,0.9757847,122.4156117,https://maps.google.com/?cid=0x0:0x67e0cf343ee05808,
mall,Pusat Perbelanjaan,Pusat Macora Gorontalo,"J2F2+FR4, Perumahan bumi limboto indah blok D, RT.7, Hutuo, Kec. Limboto, Kabupaten Gorontalo, Gorontalo 96214","Perumahan bumi limboto indah blok D, RT.7, Hutuo, Kec. Limboto, Kabupaten Gorontalo",GORONTALO,96214.0,Indonesia,82347186618.0,,,0.6236258,123.0020868,https://maps.google.com/?cid=0x0:0x6d6851b63348c291,
mall,Pusat Perbelanjaan,SYRIFMart,"MGXG+XHP, Unnamed Road, Diloato, Kec. Paguyaman, Kabupaten Boalemo, Gorontalo 96261","Unnamed Road, Diloato, Kec. Paguyaman, Kabupaten Boalemo",GORONTALO,96261.0,Indonesia,,,,0.6999734,122.5264685,https://maps.google.com/?cid=0x0:0xe93bde657cbab8ad,
mall,mall,Sumalata,"Wubudu, Kec. Sumalata, Kabupaten Gorontalo Utara, Gorontalo","Kabupaten Gorontalo Utara, Gorontalo",GORONTALO,,Indonesia,,,,0.980095,122.490997,https://maps.google.com/?cid=0x0:0xe5cfc95986060eba,
mall,mall,Kios ALIF,"WHXM+5RF, Dulukapa, Kec. Sumalata, Kabupaten Gorontalo Utara, Gorontalo 96254","Dulukapa, Kec. Sumalata, Kabupaten Gorontalo Utara",GORONTALO,96254.0,Indonesia,,,,0.9479295,122.5845523,https://maps.google.com/?cid=0x0:0x6fa26861515eb366,
mall,mall,Fadlia Cell,"X9MR+628, Bulontio Bar., Kec. Sumalata, Kabupaten Gorontalo Utara, Gorontalo 96254","Bulontio Bar., Kec. Sumalata, Kabupaten Gorontalo Utara",GORONTALO,96254.0,Indonesia,82195487744.0,,,0.9830261,122.3900901,https://maps.google.com/?cid=0x0:0x8be877858e34bc,
mall,mall,Gorontalo 96254,"Kabupaten Gorontalo Utara, Gorontalo","Kabupaten Gorontalo Utara, Gorontalo",GORONTALO,,Indonesia,,,,0.926195,122.4014193,https://maps.google.com/?cid=0x0:0x9a29fb0ff347278,
mall,Pusat Perbelanjaan,Citimall Gorontalo,"Jl. Sultan Botutihe No.68, Heledulaa Sel., Kec. Kota Tim., Kota Gorontalo, Gorontalo 96134","Heledulaa Sel., Kec. Kota Tim., Kota Gorontalo",GORONTALO,96134.0,Indonesia,,,,0.5377284,123.0620043,https://maps.google.com/?cid=0x0:0x79e25905adc0f87,
mall,Toko Perlengkapan Rumah,INTANA OLSHOP,"XGH4+XQ7, Buladu, Kec. Sumalata, Kabupaten Gorontalo Utara, Gorontalo 96254","Buladu, Kec. Sumalata, Kabupaten Gorontalo Utara",GORONTALO,96254.0,Indonesia,85256175411.0,,,0.9799181,122.5069192,https://maps.google.com/?cid=0x0:0x1e9b165c9193e9b1,
mall,Reparasi Mesin Jahit,Tempat jahit  Etalase Mini H²,"XCG8+869, Desa mebongo, dusun sukaria, Kec. Sumalata, Kabupaten Gorontalo Utara, Gorontalo","Kabupaten Gorontalo Utara, Gorontalo",GORONTALO,,Indonesia,,,,0.9757847,122.4156117,https://maps.google.com/?cid=0x0:0x67e0cf343ee05808,
mall,Minimarket,alfamart monano,"Tudi, Kec. Anggrek, Kabupaten Gorontalo Utara, Gorontalo 96525","Kec. Anggrek, Kabupaten Gorontalo Utara",GORONTALO,96525.0,Indonesia,,,,0.8686715,122.6964846,https://maps.google.com/?cid=0x0:0x2a1dbca8e79026f2,
mall,Pusat Perbelanjaan,Fitriyanti agulu OL shop,"QJPQ+PJ7, Dusun pilomalula, Payu, Kec. Mootilango, Kabupaten Gorontalo, Gorontalo 96264","Dusun pilomalula, Payu, Kec. Mootilango, Kabupaten Gorontalo",GORONTALO,96264.0,Indonesia,,,,0.786778,122.6390489,https://maps.google.com/?cid=0x0:0xcb1ac3d4d29b9bc8,
mall,mall,Gorontalo 96524,"Kec. Tolinggula, Kabupaten Gorontalo Utara, Gorontalo","Kabupaten Gorontalo Utara, Gorontalo",GORONTALO,,Indonesia,,,,0.9280512,122.2200065,https://maps.google.com/?cid=0x0:0xd3efad24a9000eb8,
mall,Pasar,Pasar Modern Tolinggula,"258G+2JR, Jl. Buol - Gorontalo, Windu, Paleleh, Kabupaten Gorontalo Utara, Gorontalo 96524","Jl. Buol - Gorontalo, Windu, Paleleh, Kabupaten Gorontalo Utara",GORONTALO,96524.0,Indonesia,,,,1.0151146,122.1765021,https://maps.google.com/?cid=0x0:0x658f9a626c853cdd,
mall,Pusat Perbelanjaan,Amora Shop'S,"Perbatasan Desa Tolinggula Tengah / Desa Molangga, Tengah, Kec. Tolinggula, Kabupaten Gorontalo Utara, Gorontalo 96524","Tengah, Kec. Tolinggula, Kabupaten Gorontalo Utara",GORONTALO,96524.0,Indonesia,82296669657.0,,,1.0219387,122.1651772,https://maps.google.com/?cid=0x0:0x63c48e305ad8c870,
mall,Minimarket,INDOMARET,"258G+23F, Tolinggula Tengah, Kec. Tolinggula, Kabupaten Gorontalo Utara, Gorontalo 94568","Tolinggula Tengah, Kec. Tolinggula, Kabupaten Gorontalo Utara",GORONTALO,94568.0,Indonesia,,,,1.014997,122.1751672,https://maps.google.com/?cid=0x0:0xc7341ce9ee8d0757,
mall,Tempat Parkir,POTOCOPI BAYU,"Tolinggula Tengah, Kec. Tolinggula, Kabupaten Gorontalo Utara, Gorontalo 94568","Kec. Tolinggula, Kabupaten Gorontalo Utara",GORONTALO,94568.0,Indonesia,81242346950.0,,,1.0149904,122.1751596,https://maps.google.com/?cid=0x0:0xcfe19b3aff402183,
mall,Pusat Perbelanjaan,ADI JAYA SENTOSA BIAU PASAR,"Biawu, Kec. Tolinggula, Kabupaten Gorontalo Utara, Gorontalo 96524","Kec. Tolinggula, Kabupaten Gorontalo Utara",GORONTALO,96524.0,Indonesia,85340022220.0,,,0.9865135,122.2165294,https://maps.google.com/?cid=0x0:0x6132aba62210cd8c,
mall,Pusat Perbelanjaan,Toko Abdi Jaya Molangga,"258M+347, Jl. Buol - Gorontalo, Umu, Kec. Tolinggula, Kabupaten Gorontalo Utara, Gorontalo 94568","Jl. Buol - Gorontalo, Umu, Kec. Tolinggula, Kabupaten Gorontalo Utara",GORONTALO,94568.0,Indonesia,85256685956.0,,,1.0151722,122.1827906,https://maps.google.com/?cid=0x0:0x3281e2a8210e20da,
mall,Toko Perlengkapan Rumah,Prnampung ikan batu,"2574+429, Dusun hepu utara, Tolinggula Ulu, Kec. Tolinggula, Kabupaten Gorontalo Utara, Gorontalo 94568","Dusun hepu utara, Tolinggula Ulu, Kec. Tolinggula, Kabupaten Gorontalo Utara",GORONTALO,94568.0,Indonesia,,,,1.0128112,122.1550712,https://maps.google.com/?cid=0x0:0x55c1bebe949505c9,
mall,Pusat Perbelanjaan,Citimall Gorontalo,"Jl. Sultan Botutihe No.68, Heledulaa Sel., Kec. Kota Tim., Kota Gorontalo, Gorontalo 96134","Heledulaa Sel., Kec. Kota Tim., Kota Gorontalo",GORONTALO,96134.0,Indonesia,,,,0.5377284,123.0620043,https://maps.google.com/?cid=0x0:0x79e25905adc0f87,
mall,Toko umum,Konter RIVALD CELL,"X6P8+HM7, Biau, Kec.Biau, Kab, Biawu, Kec. Tolinggula, Kabupaten Gorontalo Utara, Gorontalo 96524","Biau, Kec.Biau, Kab, Biawu, Kec. Tolinggula, Kabupaten Gorontalo Utara",GORONTALO,96524.0,Indonesia,85236341782.0,,,0.9864044,122.2166676,https://maps.google.com/?cid=0x0:0xc24f9a962c817817,
mall,Studio Fotografi,Fotocopy Amyas,"257C+WJ6, Jl. Trans Sulawesi, Tolinggula Tengah, Kec. Tolinggula, Kabupaten Gorontalo Utara, Gorontalo 94568","Jl. Trans Sulawesi, Tolinggula Tengah, Kec. Tolinggula, Kabupaten Gorontalo Utara",GORONTALO,94568.0,Indonesia,85342595579.0,,,1.014789,122.1715253,https://maps.google.com/?cid=0x0:0x18b501c279b73b8d,
mall,Pusat Perbelanjaan,ADI JAYA SENTOSA BANGUNAN,"Jl. Buol - Gorontalo, Umu, Kec. Tolinggula, Kabupaten Gorontalo Utara, Gorontalo 94568","Umu, Kec. Tolinggula, Kabupaten Gorontalo Utara",GORONTALO,94568.0,Indonesia,81340308777.0,,,1.015063,122.175805,https://maps.google.com/?cid=0x0:0x27c96a4e459f3fec,
mall,Minimarket,Alfamart Tolinggula,"Jl. Transmigrasi, Desa Tolinggula Ulu, Kecamatan Tolinggula Komp SMP N 1, Kec. Tolinggula","Kabupaten Buol, Sulawesi Tengah",GORONTALO,,Indonesia,,,,1.0088782,122.1528351,https://maps.google.com/?cid=0x0:0x213936f35d6e98bc,
mall,mall,Gorontalo 96252,"Kec. Kwandang, Kabupaten Gorontalo Utara, Gorontalo","Kabupaten Gorontalo Utara, Gorontalo",GORONTALO,,Indonesia,,,,0.8083426,122.9212265,https://maps.google.com/?cid=0x0:0x8516fb933d27785f,
mall,Pusat Perbelanjaan,Citimall Gorontalo,"Jl. Sultan Botutihe No.68, Heledulaa Sel., Kec. Kota Tim., Kota Gorontalo, Gorontalo 96134","Heledulaa Sel., Kec. Kota Tim., Kota Gorontalo",GORONTALO,96134.0,Indonesia,,,,0.5377284,123.0620043,https://maps.google.com/?cid=0x0:0x79e25905adc0f87,
mall,Pusat Perbelanjaan,Citi mall gorontalo,"Jl. Dr.Hi.Medi Botutihe SE No.36, Heledulaa Sel., Kec. Kota Tim., Kota Gorontalo, Gorontalo 96134","Heledulaa Sel., Kec. Kota Tim., Kota Gorontalo",GORONTALO,96134.0,Indonesia,,,,0.53817,123.0633236,https://maps.google.com/?cid=0x0:0xc49f99035aea8e23,
mall,Toko,"TOKO AMEL 2 DUNGALIYO, KAB.GORONTALO","Dungaliyo, Kec. Bongomeme, Kabupaten Gorontalo, Gorontalo 96141","Kec. Bongomeme, Kabupaten Gorontalo",GORONTALO,96141.0,Indonesia,85757123760.0,,,0.6017707,122.8999054,https://maps.google.com/?cid=0x0:0x6f8f3f2d2c45bbb2,
mall,Toko Pakaian,D2 STORE,"HX57+CRC, Jl. Raya Batudaa, Pilobuhuta, Kec. Batudaa, Kabupaten Gorontalo, Gorontalo 96271","Jl. Raya Batudaa, Pilobuhuta, Kec. Batudaa, Kabupaten Gorontalo",GORONTALO,96271.0,Indonesia,,,,0.5585616,122.9645271,https://maps.google.com/?cid=0x0:0x3e7b42e6b4dc277c,
mall,Kantor Perusahaan,WISHOP GTLO,"J347+JRC, Jl. Dumati, Talulobutu Sel., Kec. Tapa, Kabupaten Bone Bolango, Gorontalo 96181","Jl. Dumati, Talulobutu Sel., Kec. Tapa, Kabupaten Bone Bolango",GORONTALO,96181.0,Indonesia,82285923036.0,,,0.6065647,123.0645006,https://maps.google.com/?cid=0x0:0x248529ee374d1175,
mall,Kios,Kios Molindo,"J25H+7XV, Jl. Tahir Manyo, Tinelo, Kec. Telaga Biru, Kabupaten Gorontalo, Gorontalo 96181","Jl. Tahir Manyo, Tinelo, Kec. Telaga Biru, Kabupaten Gorontalo",GORONTALO,96181.0,Indonesia,85200278696.0,,,0.6082406,123.0299129,https://maps.google.com/?cid=0x0:0xa8b28fb2a781b1d2,
mall,Toko umum,Pitshop_gto,"H29R+F55, Jl. Sirsak A, Tomulabutao Sel., Kec. Dungingi, Kota Gorontalo, Gorontalo 96138","Jl. Sirsak A, Tomulabutao Sel., Kec. Dungingi, Kota Gorontalo",GORONTALO,96138.0,Indonesia,,,,0.5686385,123.0404827,https://maps.google.com/?cid=0x0:0x9d69e0ba012a3709,
mall,Pusat Perbelanjaan,TITA ELSHOP,"Jl. Palma No.20, Libuo, Kec. Dungingi, Kota Gorontalo, Gorontalo 96138","Libuo, Kec. Dungingi, Kota Gorontalo",GORONTALO,96138.0,Indonesia,82296237802.0,,,0.5514796,123.0491095,https://maps.google.com/?cid=0x0:0xc5cb2fc9f417d212,
mall,mall,N2 cell,"QVG6+G53, Jl. Trans Sulawesi, Pontolo, Kec. Kwandang, Kabupaten Gorontalo Utara, Gorontalo 96252","Jl. Trans Sulawesi, Pontolo, Kec. Kwandang, Kabupaten Gorontalo Utara",GORONTALO,96252.0,Indonesia,,,,0.776257,122.860431,https://maps.google.com/?cid=0x0:0x7d14ad996d709d2f,
mall,Pusat Perbelanjaan,ollshopgtlo,"H2FX+4M7, Paguyaman, Kec. Kota Tengah, Kabupaten Gorontalo, Gorontalo 96138","Paguyaman, Kec. Kota Tengah, Kabupaten Gorontalo",GORONTALO,96138.0,Indonesia,82330213695.0,,,0.5727799,123.0491748,https://maps.google.com/?cid=0x0:0xff70eba5d277f1c0,
mall,Pusat Perbelanjaan,Simplefashion_gorontalo,"J2C5+M3Q, Pentadio Bar., Kec. Telaga Biru, Kabupaten Gorontalo, Gorontalo 96181","Pentadio Bar., Kec. Telaga Biru, Kabupaten Gorontalo",GORONTALO,96181.0,Indonesia,82292585958.0,,,0.621725,123.0077274,https://maps.google.com/?cid=0x0:0xb4a4c09e244237b1,
mall,mall,Hotel Citimall Gorontalo,"Botuhite Jl. Sultan Botutihe No.88, Heledulaa Selatan, Kota Timur, Bone Bolango Regency, Gorontalo 96115","Heledulaa Selatan, Kota Timur, Bone Bolango Regency",GORONTALO,96115.0,Indonesia,,,,0.5378188,123.0626416,https://maps.google.com/?cid=0x0:0x3452b811598d1e,
mall,Toko Pakaian,Tatty Shop,"J23P+9QC, Tuladenggi, Kec. Telaga Biru, Kabupaten Gorontalo, Gorontalo 96181","Tuladenggi, Kec. Telaga Biru, Kabupaten Gorontalo",GORONTALO,96181.0,Indonesia,85144011257.0,,,0.6034286,123.0368864,https://maps.google.com/?cid=0x0:0x2488334b6ec13fb,
mall,Gedung Apartemen,Mall@Bassura,"Jl. Jenderal Basuki Rachmat No.1A, Cipinang Besar Sel., Kecamatan Jatinegara, Kota Jakarta Timur, Daerah Khusus Ibukota Jakarta 13410","Cipinang Besar Sel., Kecamatan Jatinegara, Kota Jakarta Timur",GORONTALO,13410.0,Indonesia,2122807300.0,,,-6.2244663,106.8770137,https://maps.google.com/?cid=0x0:0x610648e929845480,
mall,Pusat Perbelanjaan,Gandaria City,"Jl. Sultan Iskandar Muda, Gandaria, Kec. Kby. Lama, Kota Jakarta Selatan, Daerah Khusus Ibukota Jakarta 12240","Gandaria, Kec. Kby. Lama, Kota Jakarta Selatan",GORONTALO,12240.0,Indonesia,2129052888.0,,,-6.2443009,106.7829375,https://maps.google.com/?cid=0x0:0x6173704d396d5a99,
mall,Pusat Perbelanjaan,Mall Matropolis,"RJ3P+6W7, RT.003/RW.006, Klp. Indah, Kec. Tangerang, Kota Tangerang, Banten 15117","RT.003/RW.006, Klp. Indah, Kec. Tangerang, Kota Tangerang",GORONTALO,15117.0,Indonesia,,,,-6.1969581,106.6372866,https://maps.google.com/?cid=0x0:0xbccf4a9795103698,
mall,Pusat Perbelanjaan,Metropolis Town Square,"Jl. Hartono Raya No.3, RT.003/RW.006, Klp. Indah, Kec. Tangerang, Kota Tangerang, Banten 15118","RT.003/RW.006, Klp. Indah, Kec. Tangerang, Kota Tangerang",GORONTALO,15118.0,Indonesia,2155748384.0,,,-6.197523,106.6371081,https://maps.google.com/?cid=0x0:0x9b67eb2875ef17ea,
mall,Pusat Perbelanjaan,Plaza Indonesia,"Jl. M.H. Thamrin No.Kav.28-30, Gondangdia, Kec. Menteng, Kota Jakarta Pusat, Daerah Khusus Ibukota Jakarta 10350","Gondangdia, Kec. Menteng, Kota Jakarta Pusat",GORONTALO,10350.0,Indonesia,2129920000.0,,,-6.1935977,106.8219468,https://maps.google.com/?cid=0x0:0x7d7fe17ad64a053f,
mall,Mal outlet,Supermal Karawaci,"Jl. Boulevard Diponegoro No.105, Bencongan, Kec. Klp. Dua, Kabupaten Tangerang, Banten 15810","Bencongan, Kec. Klp. Dua, Kabupaten Tangerang",GORONTALO,15810.0,Indonesia,215466666.0,,,-6.2268116,106.6070233,https://maps.google.com/?cid=0x0:0xc5927a7be82e23b8,
supermarket,supermarket,Gorontalo 96525,"Kec. Anggrek, Kabupaten Gorontalo Utara, Gorontalo","Kabupaten Gorontalo Utara, Gorontalo",GORONTALO,,Indonesia,,,,0.8425794,122.695547,https://maps.google.com/?cid=0x0:0xc910c3a3b1bab734,
supermarket,Toko bahan makanan,Ririn Mart,"Jl. Buol - Gorontalo, Ilangata, Kec. Anggrek, Kabupaten Gorontalo Utara, Gorontalo 96525","Ilangata, Kec. Anggrek, Kabupaten Gorontalo Utara",GORONTALO,96525.0,Indonesia,812420068.0,,,0.8483166,122.7725207,https://maps.google.com/?cid=0x0:0x377c5861010a126d,
supermarket,Minimarket,ANGGREK CELL,"Ilangata, Kec. Anggrek, Kabupaten Gorontalo Utara, Gorontalo 96525","Kec. Anggrek, Kabupaten Gorontalo Utara",GORONTALO,96525.0,Indonesia,,,,0.846805,122.7749785,https://maps.google.com/?cid=0x0:0x81a2cd55968cd6b6,
supermarket,Toko Swalayan,Toko FIRMAN BANGUNAN,"RQWH+JV7, Ilangata, Kec. Anggrek, Kabupaten Gorontalo Utara, Gorontalo 96525","Ilangata, Kec. Anggrek, Kabupaten Gorontalo Utara",GORONTALO,96525.0,Indonesia,,,,0.8465381,122.7796794,https://maps.google.com/?cid=0x0:0x86ca17fa7678d820,
supermarket,supermarket,Ikycollection,"RQWG+M33, Malingkaputo - Tolango, Ilangata, Kec. Anggrek, Kabupaten Gorontalo Utara, Gorontalo 96525","Malingkaputo - Tolango, Ilangata, Kec. Anggrek, Kabupaten Gorontalo Utara",GORONTALO,96525.0,Indonesia,,,,0.8466484,122.775179,https://maps.google.com/?cid=0x0:0x95b67b7a689828a7,
supermarket,Minimarket,Alfamart Tolongio,"RR3G+8R5, Jl. Buol - Gorontalo, Tolongio, Kec. Anggrek, Kabupaten Gorontalo Utara, Gorontalo 96252","Jl. Buol - Gorontalo, Tolongio, Kec. Anggrek, Kabupaten Gorontalo Utara",GORONTALO,96252.0,Indonesia,,,,0.8032576,122.8271035,https://maps.google.com/?cid=0x0:0x957f45623dc086e9,
supermarket,Minimarket,Saiy.Mart,"Lorong pasar, lapangan, ibarat, Kec. Anggrek, Kabupaten Gorontalo Utara, Gorontalo 91717","lapangan, ibarat, Kec. Anggrek, Kabupaten Gorontalo Utara",GORONTALO,91717.0,Indonesia,81242643009.0,,,0.8461637,122.770735,https://maps.google.com/?cid=0x0:0x34ce171f6f18636,
supermarket,Toko umum,Onimart,"VMJM+8JP, Monas, Kec. Anggrek, Kabupaten Gorontalo Utara, Gorontalo 96525","Monas, Kec. Anggrek, Kabupaten Gorontalo Utara",GORONTALO,96525.0,Indonesia,,,,0.8808328,122.6840769,https://maps.google.com/?cid=0x0:0x67707433e66bd6de,
supermarket,Toko bahan makanan,YovieMart,"VMPP+7C6, Monas, Kec. Anggrek, Kabupaten Gorontalo Utara, Gorontalo 96525","Monas, Kec. Anggrek, Kabupaten Gorontalo Utara",GORONTALO,96525.0,Indonesia,,,,0.8856324,122.6860328,https://maps.google.com/?cid=0x0:0x8fe7c4a0940a85f8,
supermarket,Toko Swalayan,Kios Reski,"Unnamed Road, Monano, Kec. Anggrek, Kabupaten Gorontalo Utara, Gorontalo 96525","Monano, Kec. Anggrek, Kabupaten Gorontalo Utara",GORONTALO,96525.0,Indonesia,,,,0.878853,122.6900305,https://maps.google.com/?cid=0x0:0x598da52ea80ab2c0,
supermarket,supermarket,Faizan Store,"VQ34+M54, Pasar, Tolango, Kec. Anggrek, Kabupaten Gorontalo Utara, Gorontalo 96525","Pasar, Tolango, Kec. Anggrek, Kabupaten Gorontalo Utara",GORONTALO,96525.0,Indonesia,82349282606.0,,,0.8540602,122.7554441,https://maps.google.com/?cid=0x0:0xba3146d40c8415d3,
supermarket,Kios,Kios Lestari,"WMH3+FMV, Jl. Buol - Gorontalo, Dunu, Kec. Anggrek, Kabupaten Gorontalo Utara, Gorontalo 96525","Jl. Buol - Gorontalo, Dunu, Kec. Anggrek, Kabupaten Gorontalo Utara",GORONTALO,96525.0,Indonesia,82311120619.0,,,0.9287262,122.6541664,https://maps.google.com/?cid=0x0:0xda3a083d271d047c,
supermarket,supermarket,Toko riskycollection,"RQWF+PXH, Jl. Buol - Gorontalo, Ilangata, Kec. Anggrek, Kabupaten Gorontalo Utara, Gorontalo 96525","Jl. Buol - Gorontalo, Ilangata, Kec. Anggrek, Kabupaten Gorontalo Utara",GORONTALO,96525.0,Indonesia,,,,0.8466487,122.7751622,https://maps.google.com/?cid=0x0:0x4ac60916df3100e3,
supermarket,Toko bahan makanan,Kios Icha,"RQWG+R33, Ilangata, Kec. Anggrek, Kabupaten Gorontalo Utara, Gorontalo 96525","Ilangata, Kec. Anggrek, Kabupaten Gorontalo Utara",GORONTALO,96525.0,Indonesia,85240535455.0,,,0.8470224,122.7751587,https://maps.google.com/?cid=0x0:0x277d94de4226d866,
supermarket,Toko,Toko AWARA Desa Tolango Anggrek,"RQX2+CQ9, Jl. Susumi, Tolango, Kec. Anggrek, Kabupaten Gorontalo Utara, Gorontalo 96525","Jl. Susumi, Tolango, Kec. Anggrek, Kabupaten Gorontalo Utara",GORONTALO,96525.0,Indonesia,81340015091.0,,,0.8485364,122.7519739,https://maps.google.com/?cid=0x0:0xdf5666a98b9df559,
supermarket,Pasar,AZLAN GALERY,"VQ29+WGR, Ilangata, Kec. Anggrek, Kabupaten Gorontalo Utara, Gorontalo 96525","Ilangata, Kec. Anggrek, Kabupaten Gorontalo Utara",GORONTALO,96525.0,Indonesia,,,,0.8523683,122.7687788,https://maps.google.com/?cid=0x0:0x475ac780f6a4763b,
supermarket,Toko Perlengkapan Rumah,Lapak Ulwan,"Jl. Buol - Gorontalo, Popalo, Kec. Anggrek, Kabupaten Gorontalo Utara, Gorontalo 96525","Popalo, Kec. Anggrek, Kabupaten Gorontalo Utara",GORONTALO,96525.0,Indonesia,85244166115.0,,,0.8139251,122.8166621,https://maps.google.com/?cid=0x0:0xdbdfc8d6e06f9be6,
supermarket,Toko bahan makanan,FR - Aneka Frozen Food,"RQWF+67C, Ilangata, Kec. Anggrek, Kabupaten Gorontalo Utara, Gorontalo 96525","Ilangata, Kec. Anggrek, Kabupaten Gorontalo Utara",GORONTALO,96525.0,Indonesia,85256119800.0,,,0.8455508,122.7731385,https://maps.google.com/?cid=0x0:0xc13ef9b99f2a28f9,
supermarket,supermarket,Kios Rijal,"RQG8+2W8, Ilangata, Kec. Anggrek, Kabupaten Gorontalo Utara, Gorontalo 96525","Ilangata, Kec. Anggrek, Kabupaten Gorontalo Utara",GORONTALO,96525.0,Indonesia,,,,0.8253137,122.7677623,https://maps.google.com/?cid=0x0:0x1d1fdbdb2252e2dd,
supermarket,Toko bahan makanan,Siska Store,"VMFP+C77, Monano, Kec. Anggrek, Kabupaten Gorontalo Utara, Gorontalo 96525","Monano, Kec. Anggrek, Kabupaten Gorontalo Utara",GORONTALO,96525.0,Indonesia,,,,0.873534,122.6856695,https://maps.google.com/?cid=0x0:0x34a51fcb76af5769,
supermarket,Kios,Kios ABDIEL Wahidin,"Desa, Datahu, Kec. Anggrek, Kabupaten Gorontalo Utara, Gorontalo","Kabupaten Gorontalo Utara, Gorontalo",GORONTALO,,Indonesia,82292403492.0,,,0.8218979,122.769468,https://maps.google.com/?cid=0x0:0x6af8347399a53db8,
supermarket,Otoritas Pelabuhan,KPBU Pelabuhan Anggrek,"Pelabuhan, Ilangata, Kec. Anggrek, Kabupaten Gorontalo Utara, Gorontalo 96525","Ilangata, Kec. Anggrek, Kabupaten Gorontalo Utara",GORONTALO,96525.0,Indonesia,81341812348.0,,,0.8586546,122.7942525,https://maps.google.com/?cid=0x0:0x47d029b6ad02975a,
supermarket,supermarket,Kios Fitri,"RQWG+G8R, Ilangata, Kec. Anggrek, Kabupaten Gorontalo Utara, Gorontalo","Kabupaten Gorontalo Utara, Gorontalo",GORONTALO,,Indonesia,,,,0.8463564,122.7757737,https://maps.google.com/?cid=0x0:0x57336a8246893ffa,
supermarket,Toko bahan makanan,Jl. Anggrek bulan,"Jl. Anggrek Blok Anggrek III No.17, RT.1/RW.2, Jagakarsa, Kec. Jagakarsa, Kota Jakarta Selatan, Daerah Khusus Ibukota Jakarta 12620","RT.1/RW.2, Jagakarsa, Kec. Jagakarsa, Kota Jakarta Selatan",GORONTALO,12620.0,Indonesia,,,,-6.3353971,106.816948,https://maps.google.com/?cid=0x0:0x2969af5754854554,
supermarket,Toko bahan makanan,Warung anggrek,"Jl. Anggrek V No.1, RT.11/RW.3, Bintaro, Kec. Pesanggrahan, Kota Jakarta Selatan, Daerah Khusus Ibukota Jakarta 12330","RT.11/RW.3, Bintaro, Kec. Pesanggrahan, Kota Jakarta Selatan",GORONTALO,12330.0,Indonesia,81319331633.0,,,-6.2666696,106.7685586,https://maps.google.com/?cid=0x0:0xd1dc93662f38bcc2,
supermarket,Toko Swalayan,Ranch Market Kemang,"Jl. Kemang Raya No.66 68, RT.8/RW.2, Bangka, Mampang Prapatan, South Jakarta City, Jakarta 12730","RT.8/RW.2, Bangka, Mampang Prapatan, South Jakarta City",GORONTALO,12730.0,Indonesia,81382217182.0,,,-6.2641983,106.8159772,https://maps.google.com/?cid=0x0:0x8a811b9772a51004,
supermarket,Toko Swalayan,Ranch Market Darmawangsa,"Jl. Dharmawangsa VI Melawai Kebayoran Baru Jakarta Selatan DKI Jakarta RT.5, 5, RT.5/RW.1, Pulo, Kec. Kby. Baru, Kota Jakarta Selatan, Daerah Khusus Ibukota Jakarta 12160","5, RT.5/RW.1, Pulo, Kec. Kby. Baru, Kota Jakarta Selatan",GORONTALO,12160.0,Indonesia,2172786480.0,,,-6.252685,106.8014196,https://maps.google.com/?cid=0x0:0x227f1cf75ffc7e1e,
supermarket,Toko Swalayan,Hero Taman Anggrek,"RT.12/RW.1, Tomang, Grogol petamburan, RT.12/RW.1, Tj. Duren Sel., Jakarta Barat, Kota Jakarta Barat, Daerah Khusus Ibukota Jakarta 11470","Tomang, Grogol petamburan, RT.12/RW.1, Tj. Duren Sel., Jakarta Barat, Kota Jakarta Barat",GORONTALO,11470.0,Indonesia,2156969410.0,,,-6.1779629,106.7926823,https://maps.google.com/?cid=0x0:0xcd9e107167adf547,
supermarket,supermarket,Gorontalo 96253,"Kabupaten Gorontalo Utara, Gorontalo","Kabupaten Gorontalo Utara, Gorontalo",GORONTALO,,Indonesia,,,,0.8707926,123.1014056,https://maps.google.com/?cid=0x0:0xfa82e81a2bd61d81,
supermarket,Kios,Kios otalojin,"Kota Jin, Kec. Atinggola, Kabupaten Gorontalo Utara, Gorontalo 96253","Kec. Atinggola, Kabupaten Gorontalo Utara",GORONTALO,96253.0,Indonesia,,,,0.9117632,123.1110882,https://maps.google.com/?cid=0x0:0x5d062ce7c5111d6,
supermarket,Masjid,Lapak Asri,"Jl. Trans Sulawesi No.68, Imana, Kec. Atinggola, Kabupaten Gorontalo Utara, Gorontalo 96253","Imana, Kec. Atinggola, Kabupaten Gorontalo Utara",GORONTALO,96253.0,Indonesia,,,,0.9056941,123.0871133,https://maps.google.com/?cid=0x0:0x5939e1e4c742ed68,
supermarket,Toko umum,Kios Rafa,"V4QC+5XF, Pinontoyonga, Kec. Atinggola, Kabupaten Gorontalo Utara, Gorontalo 96253","Pinontoyonga, Kec. Atinggola, Kabupaten Gorontalo Utara",GORONTALO,96253.0,Indonesia,,,,0.8879406,123.1224324,https://maps.google.com/?cid=0x0:0xed492a0275205cc6,
supermarket,Toko Swalayan,Kios Alvarazka Farm Atinggola,"V4R9+23H, Bintana, Kec. Atinggola, Kabupaten Gorontalo Utara, Gorontalo 96253","Bintana, Kec. Atinggola, Kabupaten Gorontalo Utara",GORONTALO,96253.0,Indonesia,,,,0.8905259,123.1178124,https://maps.google.com/?cid=0x0:0x43778f0211f84ca9,
supermarket,Toko bahan makanan,Graha Ponompia,"W427+RXC, Kota Jin, Kec. Atinggola, Kabupaten Gorontalo Utara, Gorontalo 96253","Kota Jin, Kec. Atinggola, Kabupaten Gorontalo Utara",GORONTALO,96253.0,Indonesia,,,,0.9020587,123.1149002,https://maps.google.com/?cid=0x0:0x537edfd0098de824,
supermarket,Minimarket,KIOS SITI,"V4V9+26M, Pinontoyonga, Kec. Atinggola, Kabupaten Gorontalo Utara, Gorontalo 96253","Pinontoyonga, Kec. Atinggola, Kabupaten Gorontalo Utara",GORONTALO,96253.0,Indonesia,,,,0.892583,123.1180534,https://maps.google.com/?cid=0x0:0x9d2b717b569ed519,
supermarket,Toko Perlengkapan Rumah,Cahaya mart,"V3R6+FRR, Imana, Kec. Atinggola, Kabupaten Gorontalo Utara, Gorontalo","Kabupaten Gorontalo Utara, Gorontalo",GORONTALO,,Indonesia,,,,0.8912473,123.0620193,https://maps.google.com/?cid=0x0:0x5cce81995afd21d0,
supermarket,Minimarket,Warung khanza,"V3J3+GJ4, Wapalo, Kec. Atinggola, Kabupaten Gorontalo Utara, Gorontalo 96253","Wapalo, Kec. Atinggola, Kabupaten Gorontalo Utara",GORONTALO,96253.0,Indonesia,82393428278.0,,,0.8812711,123.0540861,https://maps.google.com/?cid=0x0:0x135b4aa2314ec74c,
supermarket,Toko Swalayan,Toko Olwin,"V4X8+5Q8, Kota Jin, Kec. Atinggola, Kabupaten Gorontalo Utara, Gorontalo 96253","Kota Jin, Kec. Atinggola, Kabupaten Gorontalo Utara",GORONTALO,96253.0,Indonesia,,,,0.8979208,123.1169447,https://maps.google.com/?cid=0x0:0xfbade256bfdf692f,
supermarket,supermarket,Alfa kuo,"V4W8+4XX, Pinontoyonga, Kec. Atinggola, Kabupaten Gorontalo Utara, Gorontalo 96253","Pinontoyonga, Kec. Atinggola, Kabupaten Gorontalo Utara",GORONTALO,96253.0,Indonesia,,,,0.8953546,123.1174997,https://maps.google.com/?cid=0x0:0x311e4f962d6b29ea,
supermarket,Minimarket,Alfamart pinontoyonga,"Pinontoyonga, Kec. Atinggola, Kabupaten Gorontalo Utara, Gorontalo 96253","Kec. Atinggola, Kabupaten Gorontalo Utara",GORONTALO,96253.0,Indonesia,81340253338.0,,,0.8948273,123.1176111,https://maps.google.com/?cid=0x0:0x80b0cf52bf0c46d,
supermarket,Toko,Kios Tani makmur (Kios Petrokimia),"W34Q+73V, Jl. Trans Sulawesi, Imana, Kec. Atinggola, Kabupaten Gorontalo Utara, Gorontalo 96253","Jl. Trans Sulawesi, Imana, Kec. Atinggola, Kabupaten Gorontalo Utara",GORONTALO,96253.0,Indonesia,,,,0.9057482,123.0876773,https://maps.google.com/?cid=0x0:0xdb8dcdcf3b0ca2f1,
supermarket,Toko Elektronik,Ardhan Comp,"Ilomata, Kec. Atinggola, Kabupaten Gorontalo Utara, Gorontalo 96253","Kec. Atinggola, Kabupaten Gorontalo Utara",GORONTALO,96253.0,Indonesia,82194388556.0,,,0.8933256,123.0791463,https://maps.google.com/?cid=0x0:0xfeb79fba6563dd5c,
supermarket,Restoran,Warong Pantai Minanga,"Kota Jin, Kec. Atinggola, Kabupaten Gorontalo Utara, Gorontalo 96253","Kec. Atinggola, Kabupaten Gorontalo Utara",GORONTALO,96253.0,Indonesia,82292830616.0,,,0.9264647,123.1064911,https://maps.google.com/?cid=0x0:0x65f5018d0d395b68,
supermarket,Pusat Perbelanjaan,RumahnyaGhiridGamila,"W2JQ+925, Gentuma, Kec. Gentuma Raya, Kabupaten Gorontalo Utara, Gorontalo 96253","Gentuma, Kec. Gentuma Raya, Kabupaten Gorontalo Utara",GORONTALO,96253.0,Indonesia,81340351849.0,,,0.9308847,123.0376016,https://maps.google.com/?cid=0x0:0xe0aa68d91cb9e54b,
supermarket,Minimarket,Alfamart Tontulow Bolmut,"Jl. Trans Sulawesi, Tontulow, Kec. Pinogaluman, Kabupaten Bolaang Mongondow Utara, Sulawesi Utara 96253","Tontulow, Kec. Pinogaluman, Kabupaten Bolaang Mongondow Utara",GORONTALO,96253.0,Indonesia,,,,0.9036682,123.1216057,https://maps.google.com/?cid=0x0:0xe82c93afda671def,
supermarket,Toko Pakaian,Al-Fazza Shop Atinggola,"Kota Jin, Kec. Atinggola, Kabupaten Gorontalo Utara, Gorontalo 96253","Kec. Atinggola, Kabupaten Gorontalo Utara",GORONTALO,96253.0,Indonesia,85394946364.0,,,0.9084025,123.1113133,https://maps.google.com/?cid=0x0:0x26e76e6510fbdd,
supermarket,supermarket,IKM Gula Aren Atinggola,"V4V9+F38, Pinontoyonga, Kec. Atinggola, Kabupaten Gorontalo Utara, Gorontalo 96253","Pinontoyonga, Kec. Atinggola, Kabupaten Gorontalo Utara",GORONTALO,96253.0,Indonesia,,,,0.8936566,123.1177082,https://maps.google.com/?cid=0x0:0xb9d04aa4cd7ce23a,
supermarket,Toko,Toko Nirmala Rizki/ samurai paint,"W427+RWC, Jl. Trans Sulawesi, Kota Jin, Kec. Atinggola, Kabupaten Gorontalo Utara, Gorontalo 96253","Jl. Trans Sulawesi, Kota Jin, Kec. Atinggola, Kabupaten Gorontalo Utara",GORONTALO,96253.0,Indonesia,,,,0.9020546,123.114778,https://maps.google.com/?cid=0x0:0xd3d73e1a1838a03d,
supermarket,Toko Kue,Allita_Gallery,"V4R9+MP3, Pinontoyonga, Kec. Atinggola, Kabupaten Gorontalo Utara, Gorontalo 96253","Pinontoyonga, Kec. Atinggola, Kabupaten Gorontalo Utara",GORONTALO,96253.0,Indonesia,82293728349.0,,,0.8916292,123.1192946,https://maps.google.com/?cid=0x0:0x4454e678018732f0,
supermarket,,Alfamart biau,"X6P8+CQ2, Jl. Buol - Gorontalo, Biawu, Kec. Tolinggula, Kabupaten Gorontalo Utara, Gorontalo 96524","Jl. Buol - Gorontalo, Biawu, Kec. Tolinggula, Kabupaten Gorontalo Utara",GORONTALO,96524.0,Indonesia,81250129346.0,,,0.9860003,122.2168921,https://maps.google.com/?cid=0x0:0x434c2a25f94ff1a6,
supermarket,Minimarket,Alfamart,"257G+X3R, Jl. Buol - Gorontalo, Umu, Kec. Tolinggula, Kabupaten Gorontalo Utara, Gorontalo 94568","Jl. Buol - Gorontalo, Umu, Kec. Tolinggula, Kabupaten Gorontalo Utara",GORONTALO,94568.0,Indonesia,,,,1.0149925,122.1751515,https://maps.google.com/?cid=0x0:0x8e81b502912a29b9,
supermarket,supermarket,Alafamart biawu,"X6Q8+4R6, Biawu, Kec. Tolinggula, Kabupaten Gorontalo Utara, Gorontalo 96524","Biawu, Kec. Tolinggula, Kabupaten Gorontalo Utara",GORONTALO,96524.0,Indonesia,,,,0.9877865,122.2170005,https://maps.google.com/?cid=0x0:0x835578e0236e47e3,
supermarket,Toko Swalayan,Fillia Mart,"5CHF+R69, Leok II, Kec. Biau, Kabupaten Buol, Sulawesi Tengah 94563","Leok II, Kec. Biau, Kabupaten Buol",GORONTALO,94563.0,Indonesia,,,,1.1795345,121.4231107,https://maps.google.com/?cid=0x0:0xba8b67402cfa3356,
supermarket,Toko Pakaian,Toko Lapak ALWA Olshop,"3CHV+742, Biau, Kec. Bukal, Kabupaten Buol, Sulawesi Tengah 94563","Biau, Kec. Bukal, Kabupaten Buol",GORONTALO,94563.0,Indonesia,,,,1.0781381,121.4427728,https://maps.google.com/?cid=0x0:0x5b77668fef3598be,
supermarket,Toko,Kios ismi,"3C9P+MR3, Diat, Kec. Bukal, Kabupaten Buol, Sulawesi Tengah 94563","Diat, Kec. Bukal, Kabupaten Buol",GORONTALO,94563.0,Indonesia,85399463567.0,,,1.069128,121.4370471,https://maps.google.com/?cid=0x0:0xe7c7a62579f21647,
supermarket,Kios,Kios Rahma,"5CQ9+7FP, Jl. N A Ain, Leok I, Kec. Biau, Kabupaten Buol, Sulawesi Tengah 94563","Jl. N A Ain, Leok I, Kec. Biau, Kabupaten Buol",GORONTALO,94563.0,Indonesia,81354505520.0,,,1.1882196,121.4186996,https://maps.google.com/?cid=0x0:0xd9f89ae45010bd7f,
supermarket,supermarket,Cii Store,"Diat, Kec. Bukal, Kabupaten Buol, Sulawesi Tengah 94564","Kec. Bukal, Kabupaten Buol",GORONTALO,94564.0,Indonesia,,,,1.0686019,121.4355556,https://maps.google.com/?cid=0x0:0x3b1d2b97465fe01e,
supermarket,Toko Ponsel,FATUR CELL,"3CJX+GCC, Biau, Kec. Bukal, Kabupaten Buol, Sulawesi Tengah 94563","Biau, Kec. Bukal, Kabupaten Buol",GORONTALO,94563.0,Indonesia,,,,1.0813098,121.4485243,https://maps.google.com/?cid=0x0:0xbb1fb64a36bdb313,
supermarket,supermarket,PENJAHIT2 PUTRA,"3CHX+G93, Biau, Kec. Bukal, Kabupaten Buol, Sulawesi Tengah 94563","Biau, Kec. Bukal, Kabupaten Buol",GORONTALO,94563.0,Indonesia,,,,1.078467,121.4472716,https://maps.google.com/?cid=0x0:0x42c8f2ba61936ed1,
supermarket,Toko Swalayan,Toko REMAJA,"5CV9+4RQ, Leok I, Kec. Biau, Kabupaten Buol, Sulawesi Tengah 94563","Leok I, Kec. Biau, Kabupaten Buol",GORONTALO,94563.0,Indonesia,,,,1.1928359,121.4196014,https://maps.google.com/?cid=0x0:0x61a85ab68e541e69,
supermarket,supermarket,Kios Tante Jamilah,"3CHV+852, Unnamed Road, Biau, Kec. Bukal, Kabupaten Buol, Sulawesi Tengah 94563","Unnamed Road, Biau, Kec. Bukal, Kabupaten Buol",GORONTALO,94563.0,Indonesia,,,,1.0782628,121.4428818,https://maps.google.com/?cid=0x0:0xf3ff495e94c5d435,
supermarket,supermarket,Kios Nurfa,"3CHV+54P, Unnamed Road, Biau, Kec. Bukal, Kabupaten Buol, Sulawesi Tengah 94563","Unnamed Road, Biau, Kec. Bukal, Kabupaten Buol",GORONTALO,94563.0,Indonesia,,,,1.0779704,121.4428258,https://maps.google.com/?cid=0x0:0xe84055adf82b6651,
supermarket,supermarket,Blau,"Windu, Kec. Tolinggula, Kabupaten Gorontalo Utara, Gorontalo","Kabupaten Gorontalo Utara, Gorontalo",GORONTALO,,Indonesia,,,,0.986265,122.223602,https://maps.google.com/?cid=0x0:0x871bc1bc52273216,
supermarket,,Alfamart biau,"X6P8+CQ2, Jl. Buol - Gorontalo, Biawu, Kec. Tolinggula, Kabupaten Gorontalo Utara, Gorontalo 96524","Jl. Buol - Gorontalo, Biawu, Kec. Tolinggula, Kabupaten Gorontalo Utara",GORONTALO,96524.0,Indonesia,81250129346.0,,,0.9860003,122.2168921,https://maps.google.com/?cid=0x0:0x434c2a25f94ff1a6,
supermarket,Pusat Perbelanjaan,Pasar Biau,"X6P8+RH7, Desa, luhuto, Kwandang, Kabupaten Gorontalo Utara, Gorontalo 96255","Desa, luhuto, Kwandang, Kabupaten Gorontalo Utara",GORONTALO,96255.0,Indonesia,,,,0.9876166,122.2167162,https://maps.google.com/?cid=0x0:0x4ec5a7915f6a860a,
supermarket,supermarket,Alafamart biawu,"X6Q8+4R6, Biawu, Kec. Tolinggula, Kabupaten Gorontalo Utara, Gorontalo 96524","Biawu, Kec. Tolinggula, Kabupaten Gorontalo Utara",GORONTALO,96524.0,Indonesia,,,,0.9877865,122.2170005,https://maps.google.com/?cid=0x0:0x835578e0236e47e3,
supermarket,Minimarket,Alfamart,"257G+X3R, Jl. Buol - Gorontalo, Umu, Kec. Tolinggula, Kabupaten Gorontalo Utara, Gorontalo 94568","Jl. Buol - Gorontalo, Umu, Kec. Tolinggula, Kabupaten Gorontalo Utara",GORONTALO,94568.0,Indonesia,,,,1.0149925,122.1751515,https://maps.google.com/?cid=0x0:0x8e81b502912a29b9,
supermarket,supermarket,Kec. Gentuma Raya,"Kabupaten Gorontalo Utara, Gorontalo","Kabupaten Gorontalo Utara, Gorontalo",GORONTALO,,Indonesia,,,,0.9300102,123.0377072,https://maps.google.com/?cid=0x0:0xc9d73598b0af1e0,
supermarket,Pusat Perbelanjaan,RumahnyaGhiridGamila,"W2JQ+925, Gentuma, Kec. Gentuma Raya, Kabupaten Gorontalo Utara, Gorontalo 96253","Gentuma, Kec. Gentuma Raya, Kabupaten Gorontalo Utara",GORONTALO,96253.0,Indonesia,81340351849.0,,,0.9308847,123.0376016,https://maps.google.com/?cid=0x0:0xe0aa68d91cb9e54b,
supermarket,Toko bahan makanan,Alfamart Gentuma Raya,"Jl. Trans Sulawesi, Gentuma, Kec. Gentuma Raya, Kabupaten Gorontalo Utara, Gorontalo 96254","Gentuma, Kec. Gentuma Raya, Kabupaten Gorontalo Utara",GORONTALO,96254.0,Indonesia,1500959.0,,,0.9250869,123.0379532,https://maps.google.com/?cid=0x0:0x2b0e94edfa2c4e82,
supermarket,Toko Swalayan,Toloe mart,"W2FQ+G77, Unnamed Road No.96253, Gentuma, Kec. Gentuma Raya, Kabupaten Gorontalo Utara, Gorontalo 96253","Unnamed Road No.96253, Gentuma, Kec. Gentuma Raya, Kabupaten Gorontalo Utara",GORONTALO,96253.0,Indonesia,,,,0.923953,123.038579,https://maps.google.com/?cid=0x0:0x2c87dbfbdbf118a2,
supermarket,Toko Perlengkapan Rumah,TOKO CELA GENTUMA,"W2FP+W3P, Gentuma, Kec. Gentuma Raya, Kabupaten Gorontalo Utara, Gorontalo 96253","Gentuma, Kec. Gentuma Raya, Kabupaten Gorontalo Utara",GORONTALO,96253.0,Indonesia,82188589754.0,,,0.9248489,123.0352114,https://maps.google.com/?cid=0x0:0x3836de955066973c,
supermarket,Toko,Toko Thiandra,"W2GQ+4GP, Gentuma, Kec. Gentuma Raya, Kabupaten Gorontalo Utara, Gorontalo 96253","Gentuma, Kec. Gentuma Raya, Kabupaten Gorontalo Utara",GORONTALO,96253.0,Indonesia,82293230042.0,,,0.925348,123.038825,https://maps.google.com/?cid=0x0:0x9782e2dfff01935b,
supermarket,Toko Buah dan Sayur,Monster buah,"Jl. Trans Sulawesi, Gentuma, Kec. Gentuma Raya, Kabupaten Gorontalo Utara, Gorontalo 96253","Gentuma, Kec. Gentuma Raya, Kabupaten Gorontalo Utara",GORONTALO,96253.0,Indonesia,83833071540.0,,,0.9251147,123.0297287,https://maps.google.com/?cid=0x0:0x4dc5474a6ca34034,
supermarket,Minimarket,Alfamart Nanati jaya,"W2GR+4JR, Jl. Trans Sulawesi, Dumolodo, Kec. Gentuma Raya, Kabupaten Gorontalo Utara, Gorontalo 96253","Jl. Trans Sulawesi, Dumolodo, Kec. Gentuma Raya, Kabupaten Gorontalo Utara",GORONTALO,96253.0,Indonesia,81294671061.0,,,0.9253559,123.0415098,https://maps.google.com/?cid=0x0:0x700b215082dee4c5,
supermarket,Toko umum,Masisa Mart,"W394+CXH, Jl. Trans Sulawesi, Dumolodo, Kec. Gentuma Raya, Kabupaten Gorontalo Utara, Gorontalo 96253","Jl. Trans Sulawesi, Dumolodo, Kec. Gentuma Raya, Kabupaten Gorontalo Utara",GORONTALO,96253.0,Indonesia,,,,0.9188445,123.0572226,https://maps.google.com/?cid=0x0:0xc356ab712ef4fe0b,
supermarket,Toko,Triftshaena,"Molonggota, Kec. Gentuma Raya, Kabupaten Gorontalo Utara, Gorontalo 96253","Kec. Gentuma Raya, Kabupaten Gorontalo Utara",GORONTALO,96253.0,Indonesia,85255621103.0,,,0.9171657,123.0266992,https://maps.google.com/?cid=0x0:0x89593e778bc6d95f,
supermarket,Toko Kelontong Asia,Warung sembako Berkah,"Dusun soklat, Molonggota, Kec. Gentuma Raya, Kabupaten Gorontalo Utara, Gorontalo 96253","Molonggota, Kec. Gentuma Raya, Kabupaten Gorontalo Utara",GORONTALO,96253.0,Indonesia,82280431210.0,,,0.9243272,123.0246592,https://maps.google.com/?cid=0x0:0x2312966682a1c471,
supermarket,Minimarket,Indomaret Gentuma,"Gentuma, Kec. Gentuma Raya, Kabupaten Gorontalo Utara, Gorontalo","Kabupaten Gorontalo Utara, Gorontalo",GORONTALO,,Indonesia,,,,0.9300924,123.037539,https://maps.google.com/?cid=0x0:0xbc39427d6707472b,
supermarket,Toko,Toko Elsa,"W2GR+55P, Jl. Trans Sulawesi, Gentuma, Kec. Gentuma Raya, Kabupaten Gorontalo Utara, Gorontalo 96253","Jl. Trans Sulawesi, Gentuma, Kec. Gentuma Raya, Kabupaten Gorontalo Utara",GORONTALO,96253.0,Indonesia,,,,0.9254672,123.0404501,https://maps.google.com/?cid=0x0:0xc3bb53b30b858368,
supermarket,Toko,Kios Akbar tani (Kios Petrokimia),"W2HR+52P, Gentuma, Kec. Gentuma Raya, Kabupaten Gorontalo Utara, Gorontalo 96253","Gentuma, Kec. Gentuma Raya, Kabupaten Gorontalo Utara",GORONTALO,96253.0,Indonesia,,,,0.9279603,123.0400864,https://maps.google.com/?cid=0x0:0x10ba7c03a2bf4ca8,
supermarket,Toko,Progres86,"W2MR+G89, Unnamed Road, Gentuma, Kec. Gentuma Raya, Kabupaten Gorontalo Utara, Gorontalo 96253","Unnamed Road, Gentuma, Kec. Gentuma Raya, Kabupaten Gorontalo Utara",GORONTALO,96253.0,Indonesia,81343689992.0,,,0.9337937,123.0408728,https://maps.google.com/?cid=0x0:0x602346142b090e5d,
supermarket,Toko umum,Kios DuRen (Duda Keren),"Molonggota, Kec. Gentuma Raya, Kabupaten Gorontalo Utara, Gorontalo 96253","Kec. Gentuma Raya, Kabupaten Gorontalo Utara",GORONTALO,96253.0,Indonesia,85394057661.0,,,0.9241675,123.0239236,https://maps.google.com/?cid=0x0:0xa4a772b85faf4a77,
supermarket,Toko Perlengkapan Rumah,LAPAK AYU CHACHA,"Molonggota, Kec. Gentuma Raya, Kabupaten Gorontalo Utara, Gorontalo 96253","Kec. Gentuma Raya, Kabupaten Gorontalo Utara",GORONTALO,96253.0,Indonesia,,,,0.9238361,123.0170743,https://maps.google.com/?cid=0x0:0xbf5cf7fc426160f8,
supermarket,Kios,Kios Khazanah,"W2FC+VJV, Jl. Trans Sulawesi, Molonggota, Kec. Gentuma Raya, Kabupaten Gorontalo Utara, Gorontalo 96253","Jl. Trans Sulawesi, Molonggota, Kec. Gentuma Raya, Kabupaten Gorontalo Utara",GORONTALO,96253.0,Indonesia,,,,0.9247323,123.0215526,https://maps.google.com/?cid=0x0:0x700815ea67d3f831,
supermarket,Komplek perumahan,Rumah Maya Liputo,"W2F8+GQQ, Molonggota, Kec. Gentuma Raya, Kabupaten Gorontalo Utara, Gorontalo 96253","Molonggota, Kec. Gentuma Raya, Kabupaten Gorontalo Utara",GORONTALO,96253.0,Indonesia,,,,0.9238472,123.0169873,https://maps.google.com/?cid=0x0:0x705876c7dbd919aa,
supermarket,Hipermarket,Hymart Supermarket,"Jl. Sultan Botutihe No.220, Moodu, Kec. Kota Tim., Kota Gorontalo, Gorontalo 96113","Moodu, Kec. Kota Tim., Kota Gorontalo",GORONTALO,96113.0,Indonesia,435830400.0,,,0.54034,123.074965,https://maps.google.com/?cid=0x0:0x73ba3dabd9175daa,
supermarket,Minimarket,Toko Gembira Gentuma Raya,"Dumolodo, Kec. Gentuma Raya, Kabupaten Gorontalo Utara, Gorontalo 96253","Kec. Gentuma Raya, Kabupaten Gorontalo Utara",GORONTALO,96253.0,Indonesia,82190564747.0,,,0.9254491,123.0425774,https://maps.google.com/?cid=0x0:0xb7a0e69eac99e30,
supermarket,Minimarket,Agen Mandiri Kios Ati,"W2GR+555, Jl. Trans Sulawesi, Gentuma, Kec. Gentuma Raya, Kabupaten Gorontalo Utara, Gorontalo 96253","Jl. Trans Sulawesi, Gentuma, Kec. Gentuma Raya, Kabupaten Gorontalo Utara",GORONTALO,96253.0,Indonesia,,,,0.9253819,123.0404694,https://maps.google.com/?cid=0x0:0x8716d25c5a95be8f,
supermarket,Toko bahan makanan,KIOS FITRUL ( IBU LULAN ),"Desa, motomingo, Kec. Gentuma Raya, Kabupaten Gorontalo Utara, Gorontalo 96513","motomingo, Kec. Gentuma Raya, Kabupaten Gorontalo Utara",GORONTALO,96513.0,Indonesia,82188090559.0,,,0.9059682,123.0271835,https://maps.google.com/?cid=0x0:0x6a76b816af85377c,
supermarket,supermarket,Gorontalo 96252,"Kec. Kwandang, Kabupaten Gorontalo Utara, Gorontalo","Kabupaten Gorontalo Utara, Gorontalo",GORONTALO,,Indonesia,,,,0.8083426,122.9212265,https://maps.google.com/?cid=0x0:0x8516fb933d27785f,
supermarket,Toko Swalayan,Didi Market,"QVRC+FF6, Molingkapoto, Kec. Kwandang, Kabupaten Gorontalo Utara, Gorontalo 96252","Molingkapoto, Kec. Kwandang, Kabupaten Gorontalo Utara",GORONTALO,96252.0,Indonesia,843941649119.0,,,0.7911571,122.871139,https://maps.google.com/?cid=0x0:0x4d6befe7ce5bcac8,
supermarket,Toko Swalayan,Swalayan Dhidi Mart,"RWM9+27G, Titidu, Kec. Kwandang, Kabupaten Gorontalo Utara, Gorontalo 96252","Titidu, Kec. Kwandang, Kabupaten Gorontalo Utara",GORONTALO,96252.0,Indonesia,,,,0.8325745,122.9181882,https://maps.google.com/?cid=0x0:0xdebd6c0cac984e65,
supermarket,Minimarket,alfa MART Pontolo,"Jl. Trans Sulawesi, Pontolo, Kec. Kwandang, Kabupaten Gorontalo Utara, Gorontalo 96252","Pontolo, Kec. Kwandang, Kabupaten Gorontalo Utara",GORONTALO,96252.0,Indonesia,1500959.0,,,0.7809456,122.8633125,https://maps.google.com/?cid=0x0:0xaf6ee9bbcaf06d9a,
supermarket,Minimarket,ALFAMART MOLINGKAPOTO KWANDANG,"Jl. Trans Sulawesi, Molingkapoto, Kec. Kwandang, Kabupaten Gorontalo Utara, Gorontalo 96252","Molingkapoto, Kec. Kwandang, Kabupaten Gorontalo Utara",GORONTALO,96252.0,Indonesia,1500959.0,,,0.7915558,122.8717422,https://maps.google.com/?cid=0x0:0xc81d9c43d4508fa1,
supermarket,Toko Swalayan,Dhidi Swalayan,"RWQ8+W22, Jl. Trans Sulawesi, Moluo, Kec. Kwandang, Kabupaten Gorontalo Utara, Gorontalo 96252","Jl. Trans Sulawesi, Moluo, Kec. Kwandang, Kabupaten Gorontalo Utara",GORONTALO,96252.0,Indonesia,,,,0.8397634,122.9150214,https://maps.google.com/?cid=0x0:0xf472d7fd728f8dd7,
supermarket,supermarket,Zde's Mart,"QVG6+W7F, Jl. Trans Sulawesi, Pontolo, Kec. Kwandang, Kabupaten Gorontalo Utara, Gorontalo 96252","Jl. Trans Sulawesi, Pontolo, Kec. Kwandang, Kabupaten Gorontalo Utara",GORONTALO,96252.0,Indonesia,,,,0.7773241,122.860674,https://maps.google.com/?cid=0x0:0x42500f12f3f782d7,
supermarket,Kios,Kios AL,"RWP6+CQ9, Unnamed Road, Moluo, Kec. Kwandang, Kabupaten Gorontalo Utara, Gorontalo 96252","Unnamed Road, Moluo, Kec. Kwandang, Kabupaten Gorontalo Utara",GORONTALO,96252.0,Indonesia,82348807090.0,,,0.836037,122.9119696,https://maps.google.com/?cid=0x0:0xcc297594a2cc0200,
supermarket,Minimarket,INDOMARET KWANDANG,"Moluo, Kec. Kwandang, Kabupaten Gorontalo Utara, Gorontalo 96252","Kec. Kwandang, Kabupaten Gorontalo Utara",GORONTALO,96252.0,Indonesia,,,,0.8437926,122.9143353,https://maps.google.com/?cid=0x0:0x31f4ce2c0617d7df,
supermarket,Toko,Alfamart Moluo,"Jl. Trans Sulawesi, Moluo, Kec. Kwandang, Kabupaten Gorontalo Utara, Gorontalo 96252","Moluo, Kec. Kwandang, Kabupaten Gorontalo Utara",GORONTALO,96252.0,Indonesia,1500959.0,,,0.8373598,122.9159476,https://maps.google.com/?cid=0x0:0x43dd493c0a22a18e,
supermarket,Kios,Kios Tri Jaya,"Mootinelo, Kec. Kwandang, Kabupaten Gorontalo Utara, Gorontalo 96252","Kec. Kwandang, Kabupaten Gorontalo Utara",GORONTALO,96252.0,Indonesia,81241532180.0,,,0.8040809,122.881358,https://maps.google.com/?cid=0x0:0xc1da435e3a165e03,
supermarket,Minimarket,Alfa Mart,"RW98+H8V, Jl. Trans Sulawesi, Posso, Kec. Kwandang, Kabupaten Gorontalo Utara, Gorontalo 96252","Jl. Trans Sulawesi, Posso, Kec. Kwandang, Kabupaten Gorontalo Utara",GORONTALO,96252.0,Indonesia,,,,0.8189914,122.9157907,https://maps.google.com/?cid=0x0:0xf4555e9f630426cf,
supermarket,Toko bahan makanan,Kios Gifford,"VW22+RX6, Jl. Pelabuhan Kwandang, Katialada, Kec. Kwandang, Kabupaten Gorontalo Utara, Gorontalo 96252","Jl. Pelabuhan Kwandang, Katialada, Kec. Kwandang, Kabupaten Gorontalo Utara",GORONTALO,96252.0,Indonesia,,,,0.8520311,122.9023882,https://maps.google.com/?cid=0x0:0x2724035449d06d35,
supermarket,Toko,Toko Sinar Surya,"RWQ8+G4F, Moluo, Kec. Kwandang, Kabupaten Gorontalo Utara, Gorontalo 96252","Moluo, Kec. Kwandang, Kabupaten Gorontalo Utara",GORONTALO,96252.0,Indonesia,,,,0.8388173,122.9153109,https://maps.google.com/?cid=0x0:0x63b06a1d9e678fe1,
supermarket,Minimarket,Alfamart Leboto,"RV4R+HVC, Jl. Trans Sulawesi, Leboto, Kec. Kwandang, Kabupaten Gorontalo Utara, Gorontalo 96252","Jl. Trans Sulawesi, Leboto, Kec. Kwandang, Kabupaten Gorontalo Utara",GORONTALO,96252.0,Indonesia,,,,0.8065972,122.8921558,https://maps.google.com/?cid=0x0:0xa4cb58774a8f71c0,
supermarket,Toko Bahan Bangunan,Toko Sinar Jaya,"RWM9+56H, Titidu, Kec. Kwandang, Kabupaten Gorontalo Utara, Gorontalo 96252","Titidu, Kec. Kwandang, Kabupaten Gorontalo Utara",GORONTALO,96252.0,Indonesia,85240579502.0,,,0.8329441,122.9181154,https://maps.google.com/?cid=0x0:0xc9ba80594d558e48,
supermarket,Kios,Kios Sahabat Tani,"QWVM+8X3, Bualemo, Kec. Kwandang, Kabupaten Gorontalo Utara, Gorontalo 96252","Bualemo, Kec. Kwandang, Kabupaten Gorontalo Utara",GORONTALO,96252.0,Indonesia,,,,0.7932662,122.9349335,https://maps.google.com/?cid=0x0:0x8c227e6e8934dae,
supermarket,Pusat Perbelanjaan,SRC LAILA,"RWP7+2RH, Moluo, Kec. Kwandang, Kabupaten Gorontalo Utara, Gorontalo 96252","Moluo, Kec. Kwandang, Kabupaten Gorontalo Utara",GORONTALO,96252.0,Indonesia,81342242216.0,,,0.8350511,122.9146052,https://maps.google.com/?cid=0x0:0x7e4d2dedaeaa65ff,
supermarket,Toko bahan makanan,ARRUM BERKAH STORE,"Bulalo, Kec. Kwandang, Kabupaten Gorontalo Utara, Gorontalo 96252","Kec. Kwandang, Kabupaten Gorontalo Utara",GORONTALO,96252.0,Indonesia,,,,0.8191739,122.9018545,https://maps.google.com/?cid=0x0:0x7a24283c0271c9c2,
supermarket,Toko,TOKO SAA EDA,"RW87+QHX, Posso, Kec. Kwandang, Kabupaten Gorontalo Utara, Gorontalo 96252","Posso, Kec. Kwandang, Kabupaten Gorontalo Utara",GORONTALO,96252.0,Indonesia,,,,0.8169793,122.9139934,https://maps.google.com/?cid=0x0:0x62e7cea340aea985,
supermarket,Toko bahan makanan,Rafa frozen food,"Jl. Jati Luhur, Perum Alata Karya Blok B No.8, Leboto, Kec. Kwandang, Kabupaten Gorontalo Utara, Gorontalo 96252","Perum Alata Karya Blok B No.8, Leboto, Kec. Kwandang, Kabupaten Gorontalo Utara",GORONTALO,96252.0,Indonesia,85285859060.0,,,0.8080109,122.8959975,https://maps.google.com/?cid=0x0:0x96e4b1c082a382c5,
supermarket,Toko Swalayan,Kios A Tiga Kwandang,"komp, Titidu, Jl. Trans Sulawesi jl. Masuk pasar baru, Moluo, Kec. Kwandang, Kabupaten Gorontalo Utara, Gorontalo 96252","Titidu, Jl. Trans Sulawesi jl. Masuk pasar baru, Moluo, Kec. Kwandang, Kabupaten Gorontalo Utara",GORONTALO,96252.0,Indonesia,85256065629.0,,,0.8338356,122.9181431,https://maps.google.com/?cid=0x0:0xf74e3bd9d7dfa1f9,
supermarket,supermarket,Monano,"Kec. Anggrek, Kabupaten Gorontalo Utara, Gorontalo","Kabupaten Gorontalo Utara, Gorontalo",GORONTALO,,Indonesia,,,,0.8567497,122.6870742,https://maps.google.com/?cid=0x0:0xfb9832e634d0d5c8,
supermarket,Minimarket,alfamart monano,"Tudi, Kec. Anggrek, Kabupaten Gorontalo Utara, Gorontalo 96525","Kec. Anggrek, Kabupaten Gorontalo Utara",GORONTALO,96525.0,Indonesia,,,,0.8686715,122.6964846,https://maps.google.com/?cid=0x0:0x2a1dbca8e79026f2,
supermarket,Toko umum,Onimart,"VMJM+8JP, Monas, Kec. Anggrek, Kabupaten Gorontalo Utara, Gorontalo 96525","Monas, Kec. Anggrek, Kabupaten Gorontalo Utara",GORONTALO,96525.0,Indonesia,,,,0.8808328,122.6840769,https://maps.google.com/?cid=0x0:0x67707433e66bd6de,
supermarket,Toko Swalayan,Toko Monalisa,"Dusun Kenari Desa Monano kecamatan Monano Kabupaten Gorontalo Utara, Depan Masjid Al Hidayah No.1, Kabupaten Gorontalo, Gorontalo 96252","Depan Masjid Al Hidayah No.1, Kabupaten Gorontalo",GORONTALO,96252.0,Indonesia,85256311644.0,,,0.8511184,122.6873736,https://maps.google.com/?cid=0x0:0xd7a3421e8528c455,
supermarket,Toko bahan makanan,Siska Store,"VMFP+C77, Monano, Kec. Anggrek, Kabupaten Gorontalo Utara, Gorontalo 96525","Monano, Kec. Anggrek, Kabupaten Gorontalo Utara",GORONTALO,96525.0,Indonesia,,,,0.873534,122.6856695,https://maps.google.com/?cid=0x0:0x34a51fcb76af5769,
supermarket,Toko umum,VIDY STORE,"Kompleks SD 4, Monano, Kec. Anggrek, Kabupaten Gorontalo Utara, Gorontalo 96525","Monano, Kec. Anggrek, Kabupaten Gorontalo Utara",GORONTALO,96525.0,Indonesia,85256618041.0,,,0.8819144,122.6910445,https://maps.google.com/?cid=0x0:0xbf895bcd66fdf075,
supermarket,Toko Swalayan,Kios Reski,"Unnamed Road, Monano, Kec. Anggrek, Kabupaten Gorontalo Utara, Gorontalo 96525","Monano, Kec. Anggrek, Kabupaten Gorontalo Utara",GORONTALO,96525.0,Indonesia,,,,0.878853,122.6900305,https://maps.google.com/?cid=0x0:0x598da52ea80ab2c0,
supermarket,Toko bahan makanan,YovieMart,"VMPP+7C6, Monas, Kec. Anggrek, Kabupaten Gorontalo Utara, Gorontalo 96525","Monas, Kec. Anggrek, Kabupaten Gorontalo Utara",GORONTALO,96525.0,Indonesia,,,,0.8856324,122.6860328,https://maps.google.com/?cid=0x0:0x8fe7c4a0940a85f8,
supermarket,Pusat Perbelanjaan,Muraa Supermarket Gorontalo,"Bulila, Kec. Telaga, Kabupaten Gorontalo, Gorontalo 96138","Kec. Telaga, Kabupaten Gorontalo",GORONTALO,96138.0,Indonesia,,,,0.5786076,123.0445856,https://maps.google.com/?cid=0x0:0x694a290777d48599,
supermarket,Dapur Umum,House val datau,"VMQW+4JM, Monano, Kec. Anggrek, Kabupaten Gorontalo Utara, Gorontalo 96525","Monano, Kec. Anggrek, Kabupaten Gorontalo Utara",GORONTALO,96525.0,Indonesia,,,,0.887844,122.6965616,https://maps.google.com/?cid=0x0:0x1ceadc1639ea64a1,
supermarket,,Anugerah utama pos monano,"VMMP+CRV, Monas, Kec. Anggrek, Kabupaten Gorontalo Utara, Gorontalo","Kabupaten Gorontalo Utara, Gorontalo",GORONTALO,,Indonesia,,,,0.8836314,122.6870611,https://maps.google.com/?cid=0x0:0xcb7c4052de0999b3,
supermarket,Toko Bahan Bangunan,Monas Jaya Bangunan,"VMMP+6XW, Monas, Kec. Anggrek, Kabupaten Gorontalo Utara, Gorontalo 96525","Monas, Kec. Anggrek, Kabupaten Gorontalo Utara",GORONTALO,96525.0,Indonesia,,,,0.8831054,122.6874423,https://maps.google.com/?cid=0x0:0x2cce6c94b83da99,
supermarket,Hipermarket,Hymart Supermarket,"Jl. Sultan Botutihe No.220, Moodu, Kec. Kota Tim., Kota Gorontalo, Gorontalo 96113","Moodu, Kec. Kota Tim., Kota Gorontalo",GORONTALO,96113.0,Indonesia,435830400.0,,,0.54034,123.074965,https://maps.google.com/?cid=0x0:0x73ba3dabd9175daa,
supermarket,Minimarket,Kios F2(FAREL FARZAN),"VMFJ+C5, Monas, Kec. Anggrek, Kabupaten Gorontalo Utara, Gorontalo","Kabupaten Gorontalo Utara, Gorontalo",GORONTALO,,Indonesia,,,,0.8736204,122.6804272,https://maps.google.com/?cid=0x0:0x5aaea85e6048a44e,
supermarket,Pusat Perbelanjaan,Q-Mart Super Store,"Jl. Kalimantan No.94, Dulalowo Tim., Kec. Kota Tengah, Kota Gorontalo, Gorontalo 96138","Dulalowo Tim., Kec. Kota Tengah, Kota Gorontalo",GORONTALO,96138.0,Indonesia,435834318.0,,,0.5663315,123.0421559,https://maps.google.com/?cid=0x0:0xa31fb94e230fb4cf,
supermarket,Toko Mebel,Salut furniture,"VM4P+MRW, Monano, Kec. Anggrek, Kabupaten Gorontalo Utara, Gorontalo 96525","Monano, Kec. Anggrek, Kabupaten Gorontalo Utara",GORONTALO,96525.0,Indonesia,,,,0.8567497,122.6870742,https://maps.google.com/?cid=0x0:0xddffaab7e81ecc6d,
supermarket,Toko Pakaian,Lapak mami shop,"VMJQ+6FJ, Monano, Kec. Anggrek, Kabupaten Gorontalo Utara, Gorontalo 96525","Monano, Kec. Anggrek, Kabupaten Gorontalo Utara",GORONTALO,96525.0,Indonesia,,,,0.8805681,122.6886278,https://maps.google.com/?cid=0x0:0xc6211fc22724d6d5,
supermarket,Kedai Kopi,3G Food  Drink,"VMPV+QW7, Monano, Kec. Anggrek, Kabupaten Gorontalo Utara, Gorontalo 96525","Monano, Kec. Anggrek, Kabupaten Gorontalo Utara",GORONTALO,96525.0,Indonesia,,,,0.8869044,122.694803,https://maps.google.com/?cid=0x0:0x6abe48d38fa2fbb9,
supermarket,,Dealer anugerah utama monano,"VMMP+CRV, VMJR+JFF, Jalan Monano, Monas, Kec. Anggrek, Kabupaten Gorontalo Utara, Gorontalo 96525","VMJR+JFF, Jalan Monano, Monas, Kec. Anggrek, Kabupaten Gorontalo Utara",GORONTALO,96525.0,Indonesia,,,,0.8836125,122.6870469,https://maps.google.com/?cid=0x0:0xf8fb8ec112244eab,
supermarket,Kios,Kios 3 putra,"VMMX+R4V, Monano, Kec. Anggrek, Kabupaten Gorontalo Utara, Gorontalo","Kabupaten Gorontalo Utara, Gorontalo",GORONTALO,,Indonesia,85394017452.0,,,0.884531,122.6977863,https://maps.google.com/?cid=0x0:0x7f3e5d644aa7fb6a,
supermarket,Apotek,Tokoh Obat Awan Farma4,"VM9W+9QJ, Jl. Buol - Gorontalo, Tudi, Kec. Anggrek, Kabupaten Gorontalo Utara, Gorontalo 96525","Jl. Buol - Gorontalo, Tudi, Kec. Anggrek, Kabupaten Gorontalo Utara",GORONTALO,96525.0,Indonesia,82219837063.0,,,0.8684638,122.6969027,https://maps.google.com/?cid=0x0:0x5d61f033b64191d3,
supermarket,Toko Swalayan,Hero Supermarket Pondok indah mall 1,"Pondok Indah, Mall, Jl. Metro Pondok Indah No.1, RT.1/RW.16, Pd. Pinang, Kec. Kby. Lama, Kota Jakarta Selatan, Daerah Khusus Ibukota Jakarta 12310","Mall, Jl. Metro Pondok Indah No.1, RT.1/RW.16, Pd. Pinang, Kec. Kby. Lama, Kota Jakarta Selatan",GORONTALO,12310.0,Indonesia,82122470528.0,,,-6.2656765,106.7847668,https://maps.google.com/?cid=0x0:0xd48da5dc80f15a6b,
supermarket,Pusat Perbelanjaan,Cityplaza Jatinegara,"Jl. Matraman Raya No.173-175, RT.7/RW.6, Bali Mester, Kecamatan Jatinegara, Kota Jakarta Timur, Daerah Khusus Ibukota Jakarta 13310","RT.7/RW.6, Bali Mester, Kecamatan Jatinegara, Kota Jakarta Timur",GORONTALO,13310.0,Indonesia,2185909222.0,,,-6.213879,106.864403,https://maps.google.com/?cid=0x0:0x49f3cf933559073b,
supermarket,Toko bahan makanan,Hero Emerald Bintaro,"Jl. Boulevard Bintaro Jaya Blok CE/B-01, Parigi, Kec. Pd. Aren, Kota Tangerang Selatan, Banten 15227","Parigi, Kec. Pd. Aren, Kota Tangerang Selatan",GORONTALO,15227.0,Indonesia,2129314248.0,,,-6.2734458,106.6992069,https://maps.google.com/?cid=0x0:0x6b2077663ca5f1df,
supermarket,Toko Swalayan,HERO Supermarket Kota Wisata,"Kota Wisata Cibubur, Jl. Wisata Utama Cluster Summerset.26-27, Jl. Wisata Utama No.5, Ciangsana, Gunung Putri, Bogor Regency, West Java 16968","Jl. Wisata Utama Cluster Summerset.26-27, Jl. Wisata Utama No.5, Ciangsana, Gunung Putri, Bogor Regency",GORONTALO,16968.0,Indonesia,,,,-6.3642454,106.9589951,https://maps.google.com/?cid=0x0:0x6d60ea30d8803767,
supermarket,supermarket,Gorontalo 96252,"Kec. Kwandang, Kabupaten Gorontalo Utara, Gorontalo","Kabupaten Gorontalo Utara, Gorontalo",GORONTALO,,Indonesia,,,,0.8083426,122.9212265,https://maps.google.com/?cid=0x0:0x8516fb933d27785f,
supermarket,Otoritas Pelabuhan,Ponelo Kepulauan,"VVRP+693, Jl. Kec. Ponelo, Moluo, Kec. Kwandang, Kabupaten Gorontalo Utara, Gorontalo","Kabupaten Gorontalo Utara, Gorontalo",GORONTALO,,Indonesia,,,,0.8905172,122.8859277,https://maps.google.com/?cid=0x0:0x3adda2027890f34b,
supermarket,Minimarket,alfa MART Pontolo,"Jl. Trans Sulawesi, Pontolo, Kec. Kwandang, Kabupaten Gorontalo Utara, Gorontalo 96252","Pontolo, Kec. Kwandang, Kabupaten Gorontalo Utara",GORONTALO,96252.0,Indonesia,1500959.0,,,0.7809456,122.8633125,https://maps.google.com/?cid=0x0:0xaf6ee9bbcaf06d9a,
supermarket,Minimarket,ALFAMART MOLINGKAPOTO KWANDANG,"Jl. Trans Sulawesi, Molingkapoto, Kec. Kwandang, Kabupaten Gorontalo Utara, Gorontalo 96252","Molingkapoto, Kec. Kwandang, Kabupaten Gorontalo Utara",GORONTALO,96252.0,Indonesia,1500959.0,,,0.7915558,122.8717422,https://maps.google.com/?cid=0x0:0xc81d9c43d4508fa1,
supermarket,Pusat Perbelanjaan,Muraa Supermarket Gorontalo,"Bulila, Kec. Telaga, Kabupaten Gorontalo, Gorontalo 96138","Kec. Telaga, Kabupaten Gorontalo",GORONTALO,96138.0,Indonesia,,,,0.5786076,123.0445856,https://maps.google.com/?cid=0x0:0x694a290777d48599,
supermarket,Dapur Umum,Rumah produksi minyak kampung ponelo PT.PONKEP JAYA BERKAH,"VV8H+3QG, Moluo, Kec ponelo kepulauan, Kabupaten Gorontalo Utara, Gorontalo","Kabupaten Gorontalo Utara, Gorontalo",GORONTALO,,Indonesia,,,,0.8651921,122.8794616,https://maps.google.com/?cid=0x0:0x7deadfd51f83cfd9,
supermarket,Kios,Kios AL,"RWP6+CQ9, Unnamed Road, Moluo, Kec. Kwandang, Kabupaten Gorontalo Utara, Gorontalo 96252","Unnamed Road, Moluo, Kec. Kwandang, Kabupaten Gorontalo Utara",GORONTALO,96252.0,Indonesia,82348807090.0,,,0.836037,122.9119696,https://maps.google.com/?cid=0x0:0xcc297594a2cc0200,
supermarket,Toko Swalayan,Toko Amir molingkapoto,"QVWG+458, Jl. Trans Sulawesi, Mootinelo, Kec. Kwandang, Kabupaten Gorontalo Utara, Gorontalo 96252","Jl. Trans Sulawesi, Mootinelo, Kec. Kwandang, Kabupaten Gorontalo Utara",GORONTALO,96252.0,Indonesia,,,,0.7953429,122.8754524,https://maps.google.com/?cid=0x0:0xf67c2c9ca7a4f723,
supermarket,supermarket,Gorontalo 96254,"Kabupaten Gorontalo Utara, Gorontalo","Kabupaten Gorontalo Utara, Gorontalo",GORONTALO,,Indonesia,,,,0.926195,122.4014193,https://maps.google.com/?cid=0x0:0x9a29fb0ff347278,
supermarket,Minimarket,inSOLIKH MART SUMALATA,"Jl. Trans Sulawesi, Bulontio Tim., Kec. Sumalata, Kabupaten Gorontalo Utara, Gorontalo 96254","Bulontio Tim., Kec. Sumalata, Kabupaten Gorontalo Utara",GORONTALO,96254.0,Indonesia,81343926048.0,,,0.981716,122.427295,https://maps.google.com/?cid=0x0:0x4b999b408422683,
supermarket,Toko bahan makanan,Toko Nur Lestari,"XCJG+5H6, Bulontio Tim., Kec. Sumalata, Kabupaten Gorontalo Utara, Gorontalo 96254","Bulontio Tim., Kec. Sumalata, Kabupaten Gorontalo Utara",GORONTALO,96254.0,Indonesia,82344002626.0,,,0.9804051,122.4263805,https://maps.google.com/?cid=0x0:0xf2bd246cff98d49e,
supermarket,Minimarket,Alfamart Bulontio,"XCMG+82, Bulontio Tim., Kec. Sumalata, Kabupaten Gorontalo Utara, Gorontalo 96254","Bulontio Tim., Kec. Sumalata, Kabupaten Gorontalo Utara",GORONTALO,96254.0,Indonesia,,,,0.9833025,122.4251037,https://maps.google.com/?cid=0x0:0xa7ba85af47a3bac0,
supermarket,Toko,Kios fadila,"XCQC+J5R, Bulontio Tim., Kec. Sumalata, Kabupaten Gorontalo Utara, Gorontalo 96254","Bulontio Tim., Kec. Sumalata, Kabupaten Gorontalo Utara",GORONTALO,96254.0,Indonesia,,,,0.98911,122.4203928,https://maps.google.com/?cid=0x0:0x6765d95ce5b5a201,
supermarket,Brunch,Kios RD Familly,"XCMG+49F, Jl. Buol - Gorontalo, Bulontio Tim., Kec. Sumalata, Kabupaten Gorontalo Utara, Gorontalo 96254","Jl. Buol - Gorontalo, Bulontio Tim., Kec. Sumalata, Kabupaten Gorontalo Utara",GORONTALO,96254.0,Indonesia,81248854622.0,,,0.9828105,122.4259233,https://maps.google.com/?cid=0x0:0x1f39bf895bc99893,
supermarket,Toko Swalayan,TOKO AFDHAL Z,"XCHG+WG4, Unnamed Road, Bulontio Tim., Kec. Sumalata, Kabupaten Gorontalo Utara, Gorontalo 96254","Unnamed Road, Bulontio Tim., Kec. Sumalata, Kabupaten Gorontalo Utara",GORONTALO,96254.0,Indonesia,,,,0.9797504,122.4263377,https://maps.google.com/?cid=0x0:0x63ad8a564b66f805,
supermarket,Toko bahan makanan,Alfamart Mebongo,"XCH9+WC3, Bulontio Tim., Kec. Sumalata, Kabupaten Gorontalo Utara, Gorontalo 96254","Bulontio Tim., Kec. Sumalata, Kabupaten Gorontalo Utara",GORONTALO,96254.0,Indonesia,,,,0.9797952,122.4184341,https://maps.google.com/?cid=0x0:0x1ed9985073150111,
supermarket,Toko Swalayan,Toko Afyah Limola..,"XCGC+VWM, Unnamed Road, Bulontio Tim., Kec. Sumalata, Kabupaten Gorontalo Utara, Gorontalo 96254","Unnamed Road, Bulontio Tim., Kec. Sumalata, Kabupaten Gorontalo Utara",GORONTALO,96254.0,Indonesia,82290512130.0,,,0.977215,122.422296,https://maps.google.com/?cid=0x0:0x93dadfb90b60225e,
supermarket,Kios,Anisa Store,"X7VF+FWC, Buloila, Kec. Sumalata, Kabupaten Gorontalo Utara, Gorontalo","Kabupaten Gorontalo Utara, Gorontalo",GORONTALO,,Indonesia,82349836810.0,,,0.9936771,122.2747775,https://maps.google.com/?cid=0x0:0x62953bd1ddc7c949,
supermarket,Toko,Tk Riyanti,"Jl. Buol - Gorontalo, Buloila, Kec. Sumalata, Kabupaten Gorontalo Utara, Gorontalo 96254","Buloila, Kec. Sumalata, Kabupaten Gorontalo Utara",GORONTALO,96254.0,Indonesia,,,,0.9967374,122.276289,https://maps.google.com/?cid=0x0:0x48e6b8314eda1628,
supermarket,Toko,Kios Putri Puncak Mandiri,"2922+FV, Kasia, Kec. Sumalata, Kabupaten Gorontalo Utara, Gorontalo 96254","Kasia, Kec. Sumalata, Kabupaten Gorontalo Utara",GORONTALO,96254.0,Indonesia,85299745387.0,,,1.0002226,122.3515077,https://maps.google.com/?cid=0x0:0x119391cc72759610,
supermarket,Toko,INDOMARET BULOILA,"272G+HPW, Jl. Buol - Gorontalo, Buloila, Kec. Sumalata, Kabupaten Gorontalo Utara, Gorontalo 96254","Jl. Buol - Gorontalo, Buloila, Kec. Sumalata, Kabupaten Gorontalo Utara",GORONTALO,96254.0,Indonesia,85241510717.0,,,1.0014912,122.2768217,https://maps.google.com/?cid=0x0:0xd2f8c60a320d6406,
supermarket,Kios,Kios ka acim,"XGH9+CCC, Deme II, Kec. Sumalata, Kabupaten Gorontalo Utara, Gorontalo 96254","Deme II, Kec. Sumalata, Kabupaten Gorontalo Utara",GORONTALO,96254.0,Indonesia,,,,0.9785674,122.5185217,https://maps.google.com/?cid=0x0:0x17e3760adfd3248a,
supermarket,Toko,TiaMart,"2729+2CM, Jl. Buol - Gorontalo, Buloila, Kec. Sumalata, Kabupaten Gorontalo Utara, Gorontalo 96524","Jl. Buol - Gorontalo, Buloila, Kec. Sumalata, Kabupaten Gorontalo Utara",GORONTALO,96524.0,Indonesia,,,,1.0002686,122.2689278,https://maps.google.com/?cid=0x0:0xff19f7c7d8361273,
supermarket,Toko,Aqillashop,"WFHF+38M, Wubudu, Kec. Sumalata, Kabupaten Gorontalo Utara, Gorontalo 96254","Wubudu, Kec. Sumalata, Kabupaten Gorontalo Utara",GORONTALO,96254.0,Indonesia,,,,0.9277037,122.4732987,https://maps.google.com/?cid=0x0:0x297f0babb16e329d,
supermarket,Kios,Faganza Toko,"WHWW+G8H, Jl. Buol - Gorontalo, Deme I, Kec. Sumalata, Kabupaten Gorontalo Utara, Gorontalo 96254","Jl. Buol - Gorontalo, Deme I, Kec. Sumalata, Kabupaten Gorontalo Utara",GORONTALO,96254.0,Indonesia,82292034444.0,,,0.9463202,122.5958604,https://maps.google.com/?cid=0x0:0x90d8f2cdbbfa0740,
supermarket,Toko,UD.RAI,"XCQ9+FWG, Bulontio Bar., Kec. Sumalata, Kabupaten Gorontalo Utara, Gorontalo 96254","Bulontio Bar., Kec. Sumalata, Kabupaten Gorontalo Utara",GORONTALO,96254.0,Indonesia,82188088988.0,,,0.9886846,122.4198306,https://maps.google.com/?cid=0x0:0x1db48079143334d6,
supermarket,Toko,Sumalata mantunge,"XFVH+VHQ, Jl. Buol - Gorontalo, Wubudu, Kec. Sumalata, Kabupaten Gorontalo Utara, Gorontalo 96254","Jl. Buol - Gorontalo, Wubudu, Kec. Sumalata, Kabupaten Gorontalo Utara",GORONTALO,96254.0,Indonesia,,,,0.9947063,122.4789883,https://maps.google.com/?cid=0x0:0x5d1624a354d78852,
supermarket,Toko,Rhany Azzahra Collection Store,"Desa Lelato, Kec. Sumalata, Kabupaten Gorontalo Utara, Gorontalo 96254","Kec. Sumalata, Kabupaten Gorontalo Utara",GORONTALO,96254.0,Indonesia,82250080708.0,,,1.0033435,122.2672347,https://maps.google.com/?cid=0x0:0xd00ba253a9415241,
supermarket,Toko bahan makanan,Basmalah Mart,"Jl. Bambon Raya, Beji, Kecamatan Beji, Kota Depok, Jawa Barat 16421","Beji, Kecamatan Beji, Kota Depok",GORONTALO,16421.0,Indonesia,,,,-6.3782337,106.8200748,https://maps.google.com/?cid=0x0:0x79d224e6df93381e,
supermarket,Pusat Perbelanjaan,Muraa Supermarket Gorontalo,"Bulila, Kec. Telaga, Kabupaten Gorontalo, Gorontalo 96138","Kec. Telaga, Kabupaten Gorontalo",GORONTALO,96138.0,Indonesia,,,,0.5786076,123.0445856,https://maps.google.com/?cid=0x0:0x694a290777d48599,
supermarket,Pusat Perbelanjaan,Agung Supermarket,"JXGG+FF3, Jl. Ahmad A. Wahab, Hunggaluwa, Kec. Limboto, Kabupaten Gorontalo, Gorontalo 96181","Jl. Ahmad A. Wahab, Hunggaluwa, Kec. Limboto, Kabupaten Gorontalo",GORONTALO,96181.0,Indonesia,,,,0.6261414,122.9761873,https://maps.google.com/?cid=0x0:0x6ec6155e2dcb6ce3,
supermarket,Hipermarket,Hymart Supermarket,"Jl. Sultan Botutihe No.220, Moodu, Kec. Kota Tim., Kota Gorontalo, Gorontalo 96113","Moodu, Kec. Kota Tim., Kota Gorontalo",GORONTALO,96113.0,Indonesia,435830400.0,,,0.54034,123.074965,https://maps.google.com/?cid=0x0:0x73ba3dabd9175daa,
supermarket,Toko Swalayan,Hypermart Gorontalo,"Jl. Sultan Botutihe No.8A, Heledulaa Sel., Kec. Kota Tim., Kota Gorontalo, Gorontalo","Kota Gorontalo, Gorontalo",GORONTALO,,Indonesia,435822242.0,,,0.5375812,123.0624791,https://maps.google.com/?cid=0x0:0xe1a4bf3e8b0b6f8,
supermarket,Toko,Muraa Supermarket Gorontalo 2,"Jl. Kalimantan No.94, Dulalowo Tim., Kec. Kota Tengah, Kota Gorontalo, Gorontalo 96138","Dulalowo Tim., Kec. Kota Tengah, Kota Gorontalo",GORONTALO,96138.0,Indonesia,,,,0.5600187,123.0567167,https://maps.google.com/?cid=0x0:0x3f600202ab0d158e,
supermarket,Toko Swalayan,Santika Supermarket,"Jl. JEND Jl. S. Parman No.53, Biawao, South Kota, Kota Gorontalo, Gorontalo 96111","Biawao, South Kota, Kota Gorontalo",GORONTALO,96111.0,Indonesia,81348868596.0,,,0.5348195,123.0584003,https://maps.google.com/?cid=0x0:0x7fa9b7d10bd100c8,
supermarket,Toko Perlengkapan Rumah,UD MATAHARI,"XCM9+2VR, Bulontio Tim., Kec. Sumalata, Kabupaten Gorontalo Utara, Gorontalo 96254","Bulontio Tim., Kec. Sumalata, Kabupaten Gorontalo Utara",GORONTALO,96254.0,Indonesia,,,,0.9826018,122.4196395,https://maps.google.com/?cid=0x0:0x56dfaf2c3f551016,
supermarket,supermarket,Sumalata,"Wubudu, Kec. Sumalata, Kabupaten Gorontalo Utara, Gorontalo","Kabupaten Gorontalo Utara, Gorontalo",GORONTALO,,Indonesia,,,,0.980095,122.490997,https://maps.google.com/?cid=0x0:0xe5cfc95986060eba,
supermarket,supermarket,Gorontalo 96254,"Kabupaten Gorontalo Utara, Gorontalo","Kabupaten Gorontalo Utara, Gorontalo",GORONTALO,,Indonesia,,,,0.926195,122.4014193,https://maps.google.com/?cid=0x0:0x9a29fb0ff347278,
supermarket,Minimarket,inSOLIKH MART SUMALATA,"Jl. Trans Sulawesi, Bulontio Tim., Kec. Sumalata, Kabupaten Gorontalo Utara, Gorontalo 96254","Bulontio Tim., Kec. Sumalata, Kabupaten Gorontalo Utara",GORONTALO,96254.0,Indonesia,81343926048.0,,,0.981716,122.427295,https://maps.google.com/?cid=0x0:0x4b999b408422683,
supermarket,Toko bahan makanan,Toko Nur Lestari,"XCJG+5H6, Bulontio Tim., Kec. Sumalata, Kabupaten Gorontalo Utara, Gorontalo 96254","Bulontio Tim., Kec. Sumalata, Kabupaten Gorontalo Utara",GORONTALO,96254.0,Indonesia,82344002626.0,,,0.9804051,122.4263805,https://maps.google.com/?cid=0x0:0xf2bd246cff98d49e,
supermarket,Toko,Kios fadila,"XCQC+J5R, Bulontio Tim., Kec. Sumalata, Kabupaten Gorontalo Utara, Gorontalo 96254","Bulontio Tim., Kec. Sumalata, Kabupaten Gorontalo Utara",GORONTALO,96254.0,Indonesia,,,,0.98911,122.4203928,https://maps.google.com/?cid=0x0:0x6765d95ce5b5a201,
supermarket,Komplek perumahan,Pasar Minggu,"XCQ9+95R, Wubudu, Kec. Sumalata, Kabupaten Gorontalo Utara, Gorontalo 96254","Wubudu, Kec. Sumalata, Kabupaten Gorontalo Utara",GORONTALO,96254.0,Indonesia,,,,0.9884933,122.4178799,https://maps.google.com/?cid=0x0:0xcd6183f9616bdead,
supermarket,Brunch,Kios RD Familly,"XCMG+49F, Jl. Buol - Gorontalo, Bulontio Tim., Kec. Sumalata, Kabupaten Gorontalo Utara, Gorontalo 96254","Jl. Buol - Gorontalo, Bulontio Tim., Kec. Sumalata, Kabupaten Gorontalo Utara",GORONTALO,96254.0,Indonesia,81248854622.0,,,0.9828105,122.4259233,https://maps.google.com/?cid=0x0:0x1f39bf895bc99893,
supermarket,Toko Swalayan,Toko Afyah Limola..,"XCGC+VWM, Unnamed Road, Bulontio Tim., Kec. Sumalata, Kabupaten Gorontalo Utara, Gorontalo 96254","Unnamed Road, Bulontio Tim., Kec. Sumalata, Kabupaten Gorontalo Utara",GORONTALO,96254.0,Indonesia,82290512130.0,,,0.977215,122.422296,https://maps.google.com/?cid=0x0:0x93dadfb90b60225e,
supermarket,Minimarket,Alfamart Bulontio,"XCMG+82, Bulontio Tim., Kec. Sumalata, Kabupaten Gorontalo Utara, Gorontalo 96254","Bulontio Tim., Kec. Sumalata, Kabupaten Gorontalo Utara",GORONTALO,96254.0,Indonesia,,,,0.9833025,122.4251037,https://maps.google.com/?cid=0x0:0xa7ba85af47a3bac0,
supermarket,Toko bahan makanan,Alfamart Mebongo,"XCH9+WC3, Bulontio Tim., Kec. Sumalata, Kabupaten Gorontalo Utara, Gorontalo 96254","Bulontio Tim., Kec. Sumalata, Kabupaten Gorontalo Utara",GORONTALO,96254.0,Indonesia,,,,0.9797952,122.4184341,https://maps.google.com/?cid=0x0:0x1ed9985073150111,
supermarket,Toko,TiaMart,"2729+2CM, Jl. Buol - Gorontalo, Buloila, Kec. Sumalata, Kabupaten Gorontalo Utara, Gorontalo 96524","Jl. Buol - Gorontalo, Buloila, Kec. Sumalata, Kabupaten Gorontalo Utara",GORONTALO,96524.0,Indonesia,,,,1.0002686,122.2689278,https://maps.google.com/?cid=0x0:0xff19f7c7d8361273,
supermarket,Kios,Anisa Store,"X7VF+FWC, Buloila, Kec. Sumalata, Kabupaten Gorontalo Utara, Gorontalo","Kabupaten Gorontalo Utara, Gorontalo",GORONTALO,,Indonesia,82349836810.0,,,0.9936771,122.2747775,https://maps.google.com/?cid=0x0:0x62953bd1ddc7c949,
supermarket,Toko,Tk Riyanti,"Jl. Buol - Gorontalo, Buloila, Kec. Sumalata, Kabupaten Gorontalo Utara, Gorontalo 96254","Buloila, Kec. Sumalata, Kabupaten Gorontalo Utara",GORONTALO,96254.0,Indonesia,,,,0.9967374,122.276289,https://maps.google.com/?cid=0x0:0x48e6b8314eda1628,
supermarket,Toko,Kios Putri Puncak Mandiri,"2922+FV, Kasia, Kec. Sumalata, Kabupaten Gorontalo Utara, Gorontalo 96254","Kasia, Kec. Sumalata, Kabupaten Gorontalo Utara",GORONTALO,96254.0,Indonesia,85299745387.0,,,1.0002226,122.3515077,https://maps.google.com/?cid=0x0:0x119391cc72759610,
supermarket,Kios,Faganza Toko,"WHWW+G8H, Jl. Buol - Gorontalo, Deme I, Kec. Sumalata, Kabupaten Gorontalo Utara, Gorontalo 96254","Jl. Buol - Gorontalo, Deme I, Kec. Sumalata, Kabupaten Gorontalo Utara",GORONTALO,96254.0,Indonesia,82292034444.0,,,0.9463202,122.5958604,https://maps.google.com/?cid=0x0:0x90d8f2cdbbfa0740,
supermarket,Kios,Kios ka acim,"XGH9+CCC, Deme II, Kec. Sumalata, Kabupaten Gorontalo Utara, Gorontalo 96254","Deme II, Kec. Sumalata, Kabupaten Gorontalo Utara",GORONTALO,96254.0,Indonesia,,,,0.9785674,122.5185217,https://maps.google.com/?cid=0x0:0x17e3760adfd3248a,
supermarket,Toko,Aqillashop,"WFHF+38M, Wubudu, Kec. Sumalata, Kabupaten Gorontalo Utara, Gorontalo 96254","Wubudu, Kec. Sumalata, Kabupaten Gorontalo Utara",GORONTALO,96254.0,Indonesia,,,,0.9277037,122.4732987,https://maps.google.com/?cid=0x0:0x297f0babb16e329d,
supermarket,Toko,Sumalata mantunge,"XFVH+VHQ, Jl. Buol - Gorontalo, Wubudu, Kec. Sumalata, Kabupaten Gorontalo Utara, Gorontalo 96254","Jl. Buol - Gorontalo, Wubudu, Kec. Sumalata, Kabupaten Gorontalo Utara",GORONTALO,96254.0,Indonesia,,,,0.9947063,122.4789883,https://maps.google.com/?cid=0x0:0x5d1624a354d78852,
supermarket,supermarket,Rumah,"X7RG+84P, Buloila, Kec. Sumalata, Kabupaten Gorontalo Utara, Gorontalo 96254","Buloila, Kec. Sumalata, Kabupaten Gorontalo Utara",GORONTALO,96254.0,Indonesia,,,,0.9908064,122.2754053,https://maps.google.com/?cid=0x0:0xbe61f6be2d61ce2a,
supermarket,Toko,Rhany Azzahra Collection Store,"Desa Lelato, Kec. Sumalata, Kabupaten Gorontalo Utara, Gorontalo 96254","Kec. Sumalata, Kabupaten Gorontalo Utara",GORONTALO,96254.0,Indonesia,82250080708.0,,,1.0033435,122.2672347,https://maps.google.com/?cid=0x0:0xd00ba253a9415241,
supermarket,Toko,UD.RAI,"XCQ9+FWG, Bulontio Bar., Kec. Sumalata, Kabupaten Gorontalo Utara, Gorontalo 96254","Bulontio Bar., Kec. Sumalata, Kabupaten Gorontalo Utara",GORONTALO,96254.0,Indonesia,82188088988.0,,,0.9886846,122.4198306,https://maps.google.com/?cid=0x0:0x1db48079143334d6,
supermarket,Toko,INDOMARET BULOILA,"272G+HPW, Jl. Buol - Gorontalo, Buloila, Kec. Sumalata, Kabupaten Gorontalo Utara, Gorontalo 96254","Jl. Buol - Gorontalo, Buloila, Kec. Sumalata, Kabupaten Gorontalo Utara",GORONTALO,96254.0,Indonesia,85241510717.0,,,1.0014912,122.2768217,https://maps.google.com/?cid=0x0:0xd2f8c60a320d6406,
supermarket,supermarket,Gorontalo 96524,"Kec. Tolinggula, Kabupaten Gorontalo Utara, Gorontalo","Kabupaten Gorontalo Utara, Gorontalo",GORONTALO,,Indonesia,,,,0.9280512,122.2200065,https://maps.google.com/?cid=0x0:0xd3efad24a9000eb8,
supermarket,Toko,CAHAYA LANGIT MART,"2573+WXP, Jl. Buol - Gorontalo, Tolite Jaya, Kec. Tolinggula, Kabupaten Gorontalo Utara, Gorontalo 96524","Jl. Buol - Gorontalo, Tolite Jaya, Kec. Tolinggula, Kabupaten Gorontalo Utara",GORONTALO,96524.0,Indonesia,8122226070.0,,,1.014828,122.154964,https://maps.google.com/?cid=0x0:0xe753a185267c92d5,
supermarket,Minimarket,ALFAMART TOLINGGULA PANTAI,"2682+QGX, Tolinggula Pantai, Kec. Tolinggula, Kabupaten Gorontalo Utara, Gorontalo 96524","Tolinggula Pantai, Kec. Tolinggula, Kabupaten Gorontalo Utara",GORONTALO,96524.0,Indonesia,,,,1.0169842,122.2013538,https://maps.google.com/?cid=0x0:0x133cfae43e14215e,
supermarket,,Alfamart TOLINGGULA,"2574+X4V, Jl. Buol - Gorontalo, Tolinggula Tengah, Kec. Tolinggula, Kabupaten Gorontalo Utara, Gorontalo 94568","Jl. Buol - Gorontalo, Tolinggula Tengah, Kec. Tolinggula, Kabupaten Gorontalo Utara",GORONTALO,94568.0,Indonesia,,,,1.0149855,122.1553099,https://maps.google.com/?cid=0x0:0xd6fdf623474a29ec,
supermarket,Pasar,"Lapak pak is (rempah, sayur dan buah)","2695+6C9, Tolinggula Pantai, Kec. Tolinggula, Kabupaten Gorontalo Utara, Gorontalo 96524","Tolinggula Pantai, Kec. Tolinggula, Kabupaten Gorontalo Utara",GORONTALO,96524.0,Indonesia,82188315199.0,,,1.0180352,122.2085957,https://maps.google.com/?cid=0x0:0xa84173042526fc94,
supermarket,Toko Obat Organik,Go Tani,"X6P8+QHH, Jl. Buol - Gorontalo, Biawu, Kec. Tolinggula, Kabupaten Gorontalo Utara, Gorontalo 96524","Jl. Buol - Gorontalo, Biawu, Kec. Tolinggula, Kabupaten Gorontalo Utara",GORONTALO,96524.0,Indonesia,85242660172.0,,,0.9869448,122.2164811,https://maps.google.com/?cid=0x0:0xbe025d24efd9e991,
supermarket,Toko,Mahkota Mart,"26C4+334, Umu, Kec. Tolinggula, Kabupaten Gorontalo Utara, Gorontalo 96524","Umu, Kec. Tolinggula, Kabupaten Gorontalo Utara",GORONTALO,96524.0,Indonesia,,,,1.0201293,122.2052122,https://maps.google.com/?cid=0x0:0x5bc071e06f745405,
supermarket,Minimarket,Mahkota mart,"2677+9P4, Tolinggula Pantai, Kec. Tolinggula, Kabupaten Gorontalo Utara, Gorontalo 96524","Tolinggula Pantai, Kec. Tolinggula, Kabupaten Gorontalo Utara",GORONTALO,96524.0,Indonesia,,,,1.0133811,122.2143323,https://maps.google.com/?cid=0x0:0xcd4a8012b6440a6d,
supermarket,,Alfamart biau,"X6P8+CQ2, Jl. Buol - Gorontalo, Biawu, Kec. Tolinggula, Kabupaten Gorontalo Utara, Gorontalo 96524","Jl. Buol - Gorontalo, Biawu, Kec. Tolinggula, Kabupaten Gorontalo Utara",GORONTALO,96524.0,Indonesia,81250129346.0,,,0.9860003,122.2168921,https://maps.google.com/?cid=0x0:0x434c2a25f94ff1a6,
supermarket,Toko,Kios Smart Tani,"X6H7+V77, Jl. Buol - Gorontalo, Biawu, Kec. Tolinggula, Kabupaten Gorontalo Utara, Gorontalo 96524","Jl. Buol - Gorontalo, Biawu, Kec. Tolinggula, Kabupaten Gorontalo Utara",GORONTALO,96524.0,Indonesia,,,,0.9792168,122.2130252,https://maps.google.com/?cid=0x0:0x2a1664b6c506051c,
supermarket,Toko grosir,CANTIKA RAYA GROSIR,"Jl. Buol - Gorontalo, Umu, Kec. Tolinggula, Kabupaten Gorontalo Utara, Gorontalo 96524","Umu, Kec. Tolinggula, Kabupaten Gorontalo Utara",GORONTALO,96524.0,Indonesia,,,,1.0192541,122.2074995,https://maps.google.com/?cid=0x0:0x61d23e0644dbd1b3,
supermarket,Minimarket,KIOS SRI,"Tolinggula Pantai, Paleleh, Kabupaten Gorontalo Utara, Gorontalo 96524","Paleleh, Kabupaten Gorontalo Utara",GORONTALO,96524.0,Indonesia,81342748579.0,,,1.018834,122.2044113,https://maps.google.com/?cid=0x0:0x64141e373009ff6d,
supermarket,Toko umum,TOKO SEJAHTERA ABADI,"258G+258, Jl. Buol - Gorontalo, Umu, Kec. Tolinggula, Kabupaten Gorontalo Utara, Gorontalo 94568","Jl. Buol - Gorontalo, Umu, Kec. Tolinggula, Kabupaten Gorontalo Utara",GORONTALO,94568.0,Indonesia,85342779556.0,,,1.0150289,122.1754447,https://maps.google.com/?cid=0x0:0x70719e2bbb1f35c9,
supermarket,Toko,Warung misbah tolinggula,"2588+2CQ, tolite jaya, Kec. Tolinggula, Kabupaten Gorontalo Utara, Gorontalo","Kabupaten Gorontalo Utara, Gorontalo",GORONTALO,,Indonesia,,,,1.0150953,122.1661084,https://maps.google.com/?cid=0x0:0xeb73bbbe0b3f194b,
supermarket,Kios,Kios Mumalidit (Kios Petrokimia),"X6P9+X9W, Biawu, Kec. Tolinggula, Kabupaten Gorontalo Utara, Gorontalo 96524","Biawu, Kec. Tolinggula, Kabupaten Gorontalo Utara",GORONTALO,96524.0,Indonesia,,,,0.9874828,122.21844,https://maps.google.com/?cid=0x0:0xfa55be732132870b,
supermarket,Toko Perlengkapan Rumah,TB. AMANAH TOLINGGULA,"2685+RMG, Tolinggula Pantai, Kec. Tolinggula, Kabupaten Gorontalo Utara, Gorontalo 96524","Tolinggula Pantai, Kec. Tolinggula, Kabupaten Gorontalo Utara",GORONTALO,96524.0,Indonesia,,,,1.017055,122.209203,https://maps.google.com/?cid=0x0:0x544039607ff7b54b,
supermarket,Pasar,Lapak Ikan Gilang,"X6RJ+X8C, Desa topi Kecamatan Biau, Windu, Kec. Tolinggula, Kabupaten Gorontalo Utara, Gorontalo 96524","Desa topi Kecamatan Biau, Windu, Kec. Tolinggula, Kabupaten Gorontalo Utara",GORONTALO,96524.0,Indonesia,82250843034.0,,,0.9922051,122.2311813,https://maps.google.com/?cid=0x0:0x670e1184d631a6fe,
supermarket,Toko,Karunia Tani,"2553+MF6, Tolinggula Ulu, Kec. Tolinggula, Kabupaten Gorontalo Utara, Gorontalo 96524","Tolinggula Ulu, Kec. Tolinggula, Kabupaten Gorontalo Utara",GORONTALO,96524.0,Indonesia,82290302124.0,,,1.0090081,122.1528986,https://maps.google.com/?cid=0x0:0x6e8f142e62e7db6b,
supermarket,Makanan Kecil,TOKO SEDERHANA,"257G+WH6, Jl. Trans-Sulawesi, Dusun Molamahu, Tolinggula Tengah, Kec. Tolinggula, Kabupaten Gorontalo Utara, Gorontalo","Kabupaten Gorontalo Utara, Gorontalo",GORONTALO,,Indonesia,,,,1.0147969,122.1763771,https://maps.google.com/?cid=0x0:0x742a2ec1c239b758,
supermarket,Toko Pakaian,PondoKios,"X6FC+93R, Didingga, Kec. Tolinggula, Kabupaten Gorontalo Utara, Gorontalo 96524","Didingga, Kec. Tolinggula, Kabupaten Gorontalo Utara",GORONTALO,96524.0,Indonesia,85342746373.0,,,0.9734884,122.2201525,https://maps.google.com/?cid=0x0:0xa2842a18043fb9de,
supermarket,Toko,UD.BINTANG CHAQSHA,"Unnamed Road, Mulangato, Kec. Tolinggula, Kabupaten Gorontalo Utara, Sulawesi Tengah 94568","Mulangato, Kec. Tolinggula, Kabupaten Gorontalo Utara",GORONTALO,94568.0,Indonesia,82278866196.0,,,1.0102166,122.1558907,https://maps.google.com/?cid=0x0:0x3fae6db0f1ce3f48,
supermarket,Toko Elektronik,Giya Shakira,"X6G9+FJ3, Didingga, Kec. Tolinggula, Kabupaten Gorontalo Utara, Gorontalo 96524","Didingga, Kec. Tolinggula, Kabupaten Gorontalo Utara",GORONTALO,96524.0,Indonesia,,,,0.9761293,122.2190514,https://maps.google.com/?cid=0x0:0xc1c7f2b7417667d,
supermarket,supermarket,Gorontalo 96252,"Kec. Kwandang, Kabupaten Gorontalo Utara, Gorontalo","Kabupaten Gorontalo Utara, Gorontalo",GORONTALO,,Indonesia,,,,0.8083426,122.9212265,https://maps.google.com/?cid=0x0:0x8516fb933d27785f,
supermarket,Minimarket,alfa MART Pontolo,"Jl. Trans Sulawesi, Pontolo, Kec. Kwandang, Kabupaten Gorontalo Utara, Gorontalo 96252","Pontolo, Kec. Kwandang, Kabupaten Gorontalo Utara",GORONTALO,96252.0,Indonesia,1500959.0,,,0.7809456,122.8633125,https://maps.google.com/?cid=0x0:0xaf6ee9bbcaf06d9a,
supermarket,Toko,Toko Izzul,"RWR8+429, Jl. Trans Sulawesi, Jembatan Merah, Kec. Tomilito, Kabupaten Gorontalo Utara, Gorontalo 96252","Jl. Trans Sulawesi, Jembatan Merah, Kec. Tomilito, Kabupaten Gorontalo Utara",GORONTALO,96252.0,Indonesia,85201735829.0,,,0.8402802,122.9150973,https://maps.google.com/?cid=0x0:0x5a5f40c830ea25f6,
supermarket,supermarket,Zde's Mart,"QVG6+W7F, Jl. Trans Sulawesi, Pontolo, Kec. Kwandang, Kabupaten Gorontalo Utara, Gorontalo 96252","Jl. Trans Sulawesi, Pontolo, Kec. Kwandang, Kabupaten Gorontalo Utara",GORONTALO,96252.0,Indonesia,,,,0.7773241,122.860674,https://maps.google.com/?cid=0x0:0x42500f12f3f782d7,
supermarket,Toko Swalayan,Gelael Supermarket - Indotim Gorontalo,"G3W2+HWR, JL. Kartini No.74 - Gorontalo Mega Zanur Mall, 96115, Jl. Prof. Dr. H.B. Jassin, Limba U Dua, South Kota, Kota Gorontalo, Gorontalo 96138","JL. Kartini No.74 - Gorontalo Mega Zanur Mall, 96115, Jl. Prof. Dr. H.B. Jassin, Limba U Dua, South Kota, Kota Gorontalo",GORONTALO,96138.0,Indonesia,,,,0.543992,123.0571329,https://maps.google.com/?cid=0x0:0xa3b3d61f6721f784,
supermarket,Toko Swalayan,Makro Supermarket  Department Store,"G3V5+6JR, Jl. Prof. Dr. H.B. Jassin, Limba U I, Kota Sel., Kota Gorontalo, Gorontalo 96134","Jl. Prof. Dr. H.B. Jassin, Limba U I, Kota Sel., Kota Gorontalo",GORONTALO,96134.0,Indonesia,,,,0.543104,123.059011,https://maps.google.com/?cid=0x0:0x26476c4c695c115b,
supermarket,Minimarket,ALFAMART MOLINGKAPOTO KWANDANG,"Jl. Trans Sulawesi, Molingkapoto, Kec. Kwandang, Kabupaten Gorontalo Utara, Gorontalo 96252","Molingkapoto, Kec. Kwandang, Kabupaten Gorontalo Utara",GORONTALO,96252.0,Indonesia,1500959.0,,,0.7915558,122.8717422,https://maps.google.com/?cid=0x0:0xc81d9c43d4508fa1,
supermarket,Kios,Kios AL,"RWP6+CQ9, Unnamed Road, Moluo, Kec. Kwandang, Kabupaten Gorontalo Utara, Gorontalo 96252","Unnamed Road, Moluo, Kec. Kwandang, Kabupaten Gorontalo Utara",GORONTALO,96252.0,Indonesia,82348807090.0,,,0.836037,122.9119696,https://maps.google.com/?cid=0x0:0xcc297594a2cc0200,
supermarket,Toko Swalayan,Toko Amir molingkapoto,"QVWG+458, Jl. Trans Sulawesi, Mootinelo, Kec. Kwandang, Kabupaten Gorontalo Utara, Gorontalo 96252","Jl. Trans Sulawesi, Mootinelo, Kec. Kwandang, Kabupaten Gorontalo Utara",GORONTALO,96252.0,Indonesia,,,,0.7953429,122.8754524,https://maps.google.com/?cid=0x0:0xf67c2c9ca7a4f723,
supermarket,Hipermarket,Hymart Supermarket,"Jl. Sultan Botutihe No.220, Moodu, Kec. Kota Tim., Kota Gorontalo, Gorontalo 96113","Moodu, Kec. Kota Tim., Kota Gorontalo",GORONTALO,96113.0,Indonesia,435830400.0,,,0.54034,123.074965,https://maps.google.com/?cid=0x0:0x73ba3dabd9175daa,
supermarket,Pusat Perbelanjaan,Muraa Supermarket Gorontalo,"Bulila, Kec. Telaga, Kabupaten Gorontalo, Gorontalo 96138","Kec. Telaga, Kabupaten Gorontalo",GORONTALO,96138.0,Indonesia,,,,0.5786076,123.0445856,https://maps.google.com/?cid=0x0:0x694a290777d48599,
supermarket,Pusat Perbelanjaan,Q-Mart Super Store,"Jl. Kalimantan No.94, Dulalowo Tim., Kec. Kota Tengah, Kota Gorontalo, Gorontalo 96138","Dulalowo Tim., Kec. Kota Tengah, Kota Gorontalo",GORONTALO,96138.0,Indonesia,435834318.0,,,0.5663315,123.0421559,https://maps.google.com/?cid=0x0:0xa31fb94e230fb4cf,
supermarket,Toko Swalayan,Hypermart Gorontalo,"Jl. Sultan Botutihe No.8A, Heledulaa Sel., Kec. Kota Tim., Kota Gorontalo, Gorontalo","Kota Gorontalo, Gorontalo",GORONTALO,,Indonesia,435822242.0,,,0.5375812,123.0624791,https://maps.google.com/?cid=0x0:0xe1a4bf3e8b0b6f8,
supermarket,Toko,Muraa Supermarket Gorontalo 2,"Jl. Kalimantan No.94, Dulalowo Tim., Kec. Kota Tengah, Kota Gorontalo, Gorontalo 96138","Dulalowo Tim., Kec. Kota Tengah, Kota Gorontalo",GORONTALO,96138.0,Indonesia,,,,0.5600187,123.0567167,https://maps.google.com/?cid=0x0:0x3f600202ab0d158e,
supermarket,Kantor Perusahaan,CV. Marketindo Gorontalo,"H2MQ+2CX, Mongolato, Kec. Telaga, Kabupaten Gorontalo, Gorontalo 96181","Mongolato, Kec. Telaga, Kabupaten Gorontalo",GORONTALO,96181.0,Indonesia,,,,0.5826091,123.0385949,https://maps.google.com/?cid=0x0:0xe9f53cedd1f614af,
supermarket,Kios,Kios Molindo,"J25H+7XV, Jl. Tahir Manyo, Tinelo, Kec. Telaga Biru, Kabupaten Gorontalo, Gorontalo 96181","Jl. Tahir Manyo, Tinelo, Kec. Telaga Biru, Kabupaten Gorontalo",GORONTALO,96181.0,Indonesia,85200278696.0,,,0.6082406,123.0299129,https://maps.google.com/?cid=0x0:0xa8b28fb2a781b1d2,
supermarket,Minimarket,Indomaret | Monggolito,"MJ49+H65, Monggolito, Kec. Boliyohuto, Kabupaten Gorontalo, Gorontalo 96264","Monggolito, Kec. Boliyohuto, Kabupaten Gorontalo",GORONTALO,96264.0,Indonesia,82292663480.0,,,0.6563859,122.6180994,https://maps.google.com/?cid=0x0:0xdee270b390ec615,
supermarket,Toko bahan makanan,Toko A2 Jaya,"RV4V+F3C, Leboto, Dusun Tuhiango, Kabupaten Gorontalo Utara, Gorontalo 96252","Leboto, Dusun Tuhiango, Kabupaten Gorontalo Utara",GORONTALO,96252.0,Indonesia,,,,0.8061928,122.8926282,https://maps.google.com/?cid=0x0:0x9ccfe27a36daec3f,
supermarket,Toko Swalayan,Santika Supermarket,"Jl. JEND Jl. S. Parman No.53, Biawao, South Kota, Kota Gorontalo, Gorontalo 96111","Biawao, South Kota, Kota Gorontalo",GORONTALO,96111.0,Indonesia,81348868596.0,,,0.5348195,123.0584003,https://maps.google.com/?cid=0x0:0x7fa9b7d10bd100c8,
supermarket,Toko bahan makanan,Mocca Delli Super Market BAHAN KUE  DAPUR,"Moodu, Kec. Kota Tim., Kota Gorontalo, Gorontalo 96135","Kec. Kota Tim., Kota Gorontalo",GORONTALO,96135.0,Indonesia,89560112299.0,,,0.5403059,123.0750174,https://maps.google.com/?cid=0x0:0x16e2ba97955d038a,
supermarket,Minimarket,Alfamart,"Jl. Trans, Monggolito, Kec. Boliyohuto, Kabupaten Gorontalo, Gorontalo 96264","Monggolito, Kec. Boliyohuto, Kabupaten Gorontalo",GORONTALO,96264.0,Indonesia,1500959.0,,,0.6567241,122.6183661,https://maps.google.com/?cid=0x0:0xd9528ebe6112f538,
supermarket,Toko umum,Kios 2 Putri,"P2G9+4J4, Desa Tapaluluo, Kec. Telaga Biru, Kabupaten Gorontalo, Gorontalo 96181","Desa Tapaluluo, Kec. Telaga Biru, Kabupaten Gorontalo",GORONTALO,96181.0,Indonesia,,,,0.7251568,123.0192251,https://maps.google.com/?cid=0x0:0x513cd2c49e3d2f23,
supermarket,Gudang,Alfamart,"Jl. Aa, Jl. Ahmad A. Wahab Desa, Pentadio Bar., Kec. Telaga Biru, Kabupaten Gorontalo, Gorontalo 96252","Jl. Ahmad A. Wahab Desa, Pentadio Bar., Kec. Telaga Biru, Kabupaten Gorontalo",GORONTALO,96252.0,Indonesia,1500959.0,,,0.5974713,123.0327819,https://maps.google.com/?cid=0x0:0xf44ad658738312a6,
supermarket,Toko Swalayan,Hero Supermarket Pondok indah mall 1,"Pondok Indah, Mall, Jl. Metro Pondok Indah No.1, RT.1/RW.16, Pd. Pinang, Kec. Kby. Lama, Kota Jakarta Selatan, Daerah Khusus Ibukota Jakarta 12310","Mall, Jl. Metro Pondok Indah No.1, RT.1/RW.16, Pd. Pinang, Kec. Kby. Lama, Kota Jakarta Selatan",GORONTALO,12310.0,Indonesia,82122470528.0,,,-6.2656765,106.7847668,https://maps.google.com/?cid=0x0:0xd48da5dc80f15a6b,
supermarket,Toko Swalayan,HERO Supermarket Kota Wisata,"Kota Wisata Cibubur, Jl. Wisata Utama Cluster Summerset.26-27, Jl. Wisata Utama No.5, Ciangsana, Gunung Putri, Bogor Regency, West Java 16968","Jl. Wisata Utama Cluster Summerset.26-27, Jl. Wisata Utama No.5, Ciangsana, Gunung Putri, Bogor Regency",GORONTALO,16968.0,Indonesia,,,,-6.3642454,106.9589951,https://maps.google.com/?cid=0x0:0x6d60ea30d8803767,
supermarket,Hipermarket,Hypermart - Mall Metropolis,"Mall Metropolis Town Square, Kota Modernland, Cikokol, Lobby Utama, Klp. Indah, Kota Tangerang, Banten 15117","Kota Modernland, Cikokol, Lobby Utama, Klp. Indah, Kota Tangerang",GORONTALO,15117.0,Indonesia,2155780370.0,,,-6.1970808,106.6366596,https://maps.google.com/?cid=0x0:0x510f7c8f24bb7fa,
