Category,Real Category,Business Name,Address,City,State,Postal Code,Country,Phone,Email,Website,Latitude,Longitude,Map Link,Details Link
perumahan,perumahan,Gorontalo 96525,"Kec. Anggrek, Kabupaten Gorontalo Utara, Gorontalo","Kabupaten Gorontalo Utara, Gorontalo",GORONTALO,,Indonesia,,,,0.8425794,122.695547,https://maps.google.com/?cid=0x0:0xc910c3a3b1bab734,
perumahan,Komplek perumahan,Perumahan Nelayan,"VP93+FQ2, Tudi, Kec. Anggrek, Kabupaten Gorontalo Utara, Gorontalo 96525","Tudi, Kec. Anggrek, Kabupaten Gorontalo Utara",GORONTALO,96525.0,Indonesia,85298105110.0,,,0.8686316,122.7043828,https://maps.google.com/?cid=0x0:0x6d2b9eca89d1bcda,
perumahan,perumahan,Rumah Revan,"RR55+4PG, Popalo, Kec. Anggrek, Kabupaten Gorontalo Utara, Gorontalo 96525","Popalo, Kec. Anggrek, Kabupaten Gorontalo Utara",GORONTALO,96525.0,Indonesia,,,,0.8078734,122.8079572,https://maps.google.com/?cid=0x0:0xd313790d0208f4ed,
perumahan,Komplek perumahan,Wahidin Hapulu,"RQJR+XG2, Popalo, Kec. Anggrek, Kabupaten Gorontalo Utara, Gorontalo 96525","Popalo, Kec. Anggrek, Kabupaten Gorontalo Utara",GORONTALO,96525.0,Indonesia,,,,0.8330815,122.7909265,https://maps.google.com/?cid=0x0:0x39887f1b1948debb,
perumahan,Komplek perumahan,House Vindong,"VMPV+CRF Kantor, Desa, Monano, Anggrek, North Gorontalo Regency, Gorontalo 96525","Desa, Monano, Anggrek, North Gorontalo Regency",GORONTALO,96525.0,Indonesia,,,,0.8860538,122.694557,https://maps.google.com/?cid=0x0:0x30f3ff45fe6b9f97,
perumahan,,Rumah om Eman,"RQQ5+MP9, Ilangata, Kec. Anggrek, Kabupaten Gorontalo Utara, Gorontalo","Kabupaten Gorontalo Utara, Gorontalo",GORONTALO,,Indonesia,,,,0.8391698,122.7593737,https://maps.google.com/?cid=0x0:0xe2a9d887d44b0111,
perumahan,Komplek perumahan,go,"RR3C+44G, Tolongio, Kec. Anggrek, Kabupaten Gorontalo Utara, Gorontalo 96525","Tolongio, Kec. Anggrek, Kabupaten Gorontalo Utara",GORONTALO,96525.0,Indonesia,,,,0.8028119,122.8203266,https://maps.google.com/?cid=0x0:0xaf1f9abd6faddfb,
perumahan,Komplek perumahan,Baloi Naton,"VMQV+7V9 lorong katang, Monano, Kec. Anggrek, Kabupaten Gorontalo Utara, Gorontalo 96525","Monano, Kec. Anggrek, Kabupaten Gorontalo Utara",GORONTALO,96525.0,Indonesia,85394042554.0,,,0.8881543,122.6947306,https://maps.google.com/?cid=0x0:0x2c0b45302392c97e,
perumahan,Pembangunan Perumahan,Risda Luawo,"VMPW+2WF, Monano, Kec. Anggrek, Kabupaten Gorontalo Utara, Gorontalo 96525","Monano, Kec. Anggrek, Kabupaten Gorontalo Utara",GORONTALO,96525.0,Indonesia,,,,0.884893,122.6974395,https://maps.google.com/?cid=0x0:0xc1c0ab695a546e5,
perumahan,Komplek perumahan,Rumah li Vina,"VM4P+MRW, Monano, Kec. Anggrek, Kabupaten Gorontalo Utara, Gorontalo 96525","Monano, Kec. Anggrek, Kabupaten Gorontalo Utara",GORONTALO,96525.0,Indonesia,,,,0.8567497,122.6870742,https://maps.google.com/?cid=0x0:0x74045ea007a036a3,
perumahan,Pembangunan Perumahan,Irfandatau Home Stay,"VP83+VW6, Monano, Kec. Anggrek, Kabupaten Gorontalo Utara, Gorontalo 96525","Monano, Kec. Anggrek, Kabupaten Gorontalo Utara",GORONTALO,96525.0,Indonesia,,,,0.8663176,122.7058472,https://maps.google.com/?cid=0x0:0x9e841571337f141,
perumahan,Perhimpunan Pengembang Perumahan,Gorontalo,"VQ33+6VH, Tolango, Kec. Anggrek, Kabupaten Gorontalo Utara, Gorontalo","Kabupaten Gorontalo Utara, Gorontalo",GORONTALO,,Indonesia,,,,0.8530669,122.7547249,https://maps.google.com/?cid=0x0:0x8b42ef8267fccf31,
perumahan,Komplek perumahan,Rumah Haikal,"RRF9+5C7, Popalo, Kec. Anggrek, Kabupaten Gorontalo Utara, Gorontalo 96525","Popalo, Kec. Anggrek, Kabupaten Gorontalo Utara",GORONTALO,96525.0,Indonesia,,,,0.8224284,122.8183711,https://maps.google.com/?cid=0x0:0x39807d7ed7cb39c6,
perumahan,Perhimpunan Pengembang Perumahan,Rikakarim,"RQC9+PH8, Ilangata, Kec. Anggrek, Kabupaten Gorontalo Utara, Gorontalo 96525","Ilangata, Kec. Anggrek, Kabupaten Gorontalo Utara",GORONTALO,96525.0,Indonesia,,,,0.8230602,122.7687242,https://maps.google.com/?cid=0x0:0xeb808151b9436497,
perumahan,Komplek perumahan,Rumah Yohana K,"RP9H+7Q3, Tolango, Kec. Anggrek, Kabupaten Gorontalo Utara, Gorontalo 96525","Tolango, Kec. Anggrek, Kabupaten Gorontalo Utara",GORONTALO,96525.0,Indonesia,,,,0.8181293,122.7294309,https://maps.google.com/?cid=0x0:0x735751ec9c03c73f,
perumahan,perumahan,IBRAHIM ISMAIL,"RRG5+35R, Popalo, Kec. Anggrek, Kabupaten Gorontalo Utara, Gorontalo","Kabupaten Gorontalo Utara, Gorontalo",GORONTALO,,Indonesia,,,,0.8251836,122.8079475,https://maps.google.com/?cid=0x0:0xc9d041802f8b9b4b,
perumahan,,Rumah yuyan,"RQXF+V3F, Jl. Buol - Gorontalo, Ilangata, Kec. Anggrek, Kabupaten Gorontalo Utara, Gorontalo 96525","Jl. Buol - Gorontalo, Ilangata, Kec. Anggrek, Kabupaten Gorontalo Utara",GORONTALO,96525.0,Indonesia,,,,0.8498143,122.772892,https://maps.google.com/?cid=0x0:0x8fcaef28eff88dc4,
perumahan,Pembangunan Perumahan,aMeLya,"VQ29+2P3, Ilangata, Kec. Anggrek, Kabupaten Gorontalo Utara, Gorontalo 96525","Ilangata, Kec. Anggrek, Kabupaten Gorontalo Utara",GORONTALO,96525.0,Indonesia,,,,0.8499883,122.7692704,https://maps.google.com/?cid=0x0:0xecd427fa3318388c,
perumahan,,Rumah pribadi,"VQ29+H64, ibarat, Kec. Anggrek, Kabupaten Gorontalo Utara, Gorontalo","Kabupaten Gorontalo Utara, Gorontalo",GORONTALO,,Indonesia,,,,0.8513875,122.7680781,https://maps.google.com/?cid=0x0:0x5728f8779987dcac,
perumahan,,Rumah Azqiara,"VQ2J+2C8, Ilangata, Kec. Anggrek, Kabupaten Gorontalo Utara, Gorontalo 96525","Ilangata, Kec. Anggrek, Kabupaten Gorontalo Utara",GORONTALO,96525.0,Indonesia,,,,0.8501667,122.7808532,https://maps.google.com/?cid=0x0:0xfc393b7b4eed8dc9,
perumahan,Otoritas Pelabuhan,KPBU Pelabuhan Anggrek,"Pelabuhan, Ilangata, Kec. Anggrek, Kabupaten Gorontalo Utara, Gorontalo 96525","Ilangata, Kec. Anggrek, Kabupaten Gorontalo Utara",GORONTALO,96525.0,Indonesia,81341812348.0,,,0.8586546,122.7942525,https://maps.google.com/?cid=0x0:0x47d029b6ad02975a,
perumahan,Komplek perumahan,Home Oma NÂ³,"VQ29+3HQ, Desa ibarat, Kec. Anggrek, Kabupaten Gorontalo Utara, Gorontalo","Kabupaten Gorontalo Utara, Gorontalo",GORONTALO,,Indonesia,,,,0.8502204,122.7689933,https://maps.google.com/?cid=0x0:0xcd57917d963f7928,
perumahan,Perumahan,Perumahan Gang Anggrek 1,"Gg. Anggrek I No.8/139, RT.013/RW.05, Gandul, Kec. Cinere, Kota Depok, Jawa Barat 16512","RT.013/RW.05, Gandul, Kec. Cinere, Kota Depok",GORONTALO,16512.0,Indonesia,,,,-6.3420645,106.7903862,https://maps.google.com/?cid=0x0:0xdf54bb2607dd7981,
perumahan,Komplek perumahan,Perumahan Anggrek Loka jakarta,"10, Jl. Dalang No.48 11, RT.7/RW.4, Munjul, Kec. Cipayung, Kota Jakarta Timur, Daerah Khusus Ibukota Jakarta 13850","Jl. Dalang No.48 11, RT.7/RW.4, Munjul, Kec. Cipayung, Kota Jakarta Timur",GORONTALO,13850.0,Indonesia,,,,-6.3440104,106.8991932,https://maps.google.com/?cid=0x0:0x7e053f33652d4e3a,
perumahan,Komplek perumahan,VILLA ANGGREK RESIDENCE - Pondok Indah Group,"Jl. Villa Anggrek III Blok C-17, RT.8/RW.12, Bintaro, Pesanggrahan, South Jakarta City, Jakarta 12330","RT.8/RW.12, Bintaro, Pesanggrahan, South Jakarta City",GORONTALO,12330.0,Indonesia,217350101.0,,,-6.2640085,106.7695345,https://maps.google.com/?cid=0x0:0xf64427797d7f7eee,
perumahan,Komplek perumahan,Perumahan Taman Anggrek Residence,"JVG8+XJQ, Jl. Radar Auri, Cisalak Ps., Kec. Cimanggis, Kota Depok, Jawa Barat 16452","Jl. Radar Auri, Cisalak Ps., Kec. Cimanggis, Kota Depok",GORONTALO,16452.0,Indonesia,,,,-6.3725305,106.8666118,https://maps.google.com/?cid=0x0:0xb9e9e111cbbe4e94,
perumahan,Layanan Transportasi,Perumahan Taman Anggrek,"Jl. Synthetic No.RT/RW. 01/12, Pondok Miri, Rawakalong, Kec. Gn. Sindur, Kabupaten Bogor, Jawa Barat 16340","Pondok Miri, Rawakalong, Kec. Gn. Sindur, Kabupaten Bogor",GORONTALO,16340.0,Indonesia,,,,-6.3722927,106.7161837,https://maps.google.com/?cid=0x0:0x2a88d64509d3f541,
perumahan,Komplek perumahan,Perumahan Vila Anggrek,"Q2RQ+W87, Satriajaya, Kec. Tambun Utara, Kabupaten Bekasi, Jawa Barat 17510","Satriajaya, Kec. Tambun Utara, Kabupaten Bekasi",GORONTALO,17510.0,Indonesia,85619724436.0,,,-6.207702,107.03831,https://maps.google.com/?cid=0x0:0x7135169ffe8389e4,
perumahan,Perumahan,Perumahan Anggrek,"Jl. Raya Cipayung No.40, Cipayung, Kec. Cipayung, Kota Depok, Jawa Barat 16437","Cipayung, Kec. Cipayung, Kota Depok",GORONTALO,16437.0,Indonesia,,,,-6.4255184,106.7961317,https://maps.google.com/?cid=0x0:0xee73a9056cb1cfc9,
perumahan,perumahan,Gorontalo 96253,"Kabupaten Gorontalo Utara, Gorontalo","Kabupaten Gorontalo Utara, Gorontalo",GORONTALO,,Indonesia,,,,0.8707926,123.1014056,https://maps.google.com/?cid=0x0:0xfa82e81a2bd61d81,
perumahan,Komplek perumahan,Rumah Rara P.,"W428+25, Monggupo, Kec. Atinggola, Kabupaten Gorontalo Utara, Gorontalo 96253","Monggupo, Kec. Atinggola, Kabupaten Gorontalo Utara",GORONTALO,96253.0,Indonesia,,,,0.8998684,123.1156781,https://maps.google.com/?cid=0x0:0x2760e0565f57aafd,
perumahan,Komplek perumahan,Perumahan vt,"W396+CWJ, Jl. Trans Sulawesi, Imana, Kec. Atinggola, Kabupaten Gorontalo Utara, Gorontalo 96253","Jl. Trans Sulawesi, Imana, Kec. Atinggola, Kabupaten Gorontalo Utara",GORONTALO,96253.0,Indonesia,,,,0.9185884,123.0622575,https://maps.google.com/?cid=0x0:0xc21da67d9793f366,
perumahan,Komplek perumahan,"RUMAH ARUL,BMU","V4X4+GRC, Monggupo, Kec. Atinggola, Kabupaten Gorontalo Utara, Gorontalo 96253","Monggupo, Kec. Atinggola, Kabupaten Gorontalo Utara",GORONTALO,96253.0,Indonesia,,,,0.8988164,123.1070309,https://maps.google.com/?cid=0x0:0xbeb4a6990533771f,
perumahan,Komplek perumahan,Living Facility PT Tracon/GLP,"W2GC+6HP, Molonggota, Kec. Gentuma Raya, Kabupaten Gorontalo Utara, Gorontalo 96253","Molonggota, Kec. Gentuma Raya, Kabupaten Gorontalo Utara",GORONTALO,96253.0,Indonesia,,,,0.9254898,123.0216069,https://maps.google.com/?cid=0x0:0xc1d1dd0f6f16f255,
perumahan,Komplek perumahan,Tomi home,"W32V+XXF, Jl. Trans Sulawesi, Imana, Kec. Atinggola, Kabupaten Gorontalo Utara, Gorontalo 96253","Jl. Trans Sulawesi, Imana, Kec. Atinggola, Kabupaten Gorontalo Utara",GORONTALO,96253.0,Indonesia,,,,0.9024362,123.0949276,https://maps.google.com/?cid=0x0:0x73856ae9aba9c759,
perumahan,Komplek perumahan,Spapay p rumah,"W34P+CJM, Jl. Trans Sulawesi, Imana, Kec. Atinggola, Kabupaten Gorontalo Utara, Gorontalo 96253","Jl. Trans Sulawesi, Imana, Kec. Atinggola, Kabupaten Gorontalo Utara",GORONTALO,96253.0,Indonesia,,,,0.9060192,123.0865842,https://maps.google.com/?cid=0x0:0xd4cad965f893e6a8,
perumahan,Komplek perumahan,Rumah widy,"V4W8+GXP, Jalan Bintara Desa, Pinontoyonga, Kec. Atinggola, Kabupaten Gorontalo Utara, Gorontalo 96253","Jalan Bintara Desa, Pinontoyonga, Kec. Atinggola, Kabupaten Gorontalo Utara",GORONTALO,96253.0,Indonesia,,,,0.8964013,123.1174325,https://maps.google.com/?cid=0x0:0x117a425ac6382f8d,
perumahan,Komplek perumahan,Rumah Andi,"V5C6+QX5, Buata, Kec. Atinggola, Kabupaten Gorontalo Utara, Gorontalo 96253","Buata, Kec. Atinggola, Kabupaten Gorontalo Utara",GORONTALO,96253.0,Indonesia,,,,0.8716142,123.1624162,https://maps.google.com/?cid=0x0:0xb627303b1f9c0162,
perumahan,perumahan,Repi p rumah,"V4FV+R2W, Buata, Kec. Atinggola, Kabupaten Gorontalo Utara, Gorontalo 96253","Buata, Kec. Atinggola, Kabupaten Gorontalo Utara",GORONTALO,96253.0,Indonesia,,,,0.8745352,123.1426804,https://maps.google.com/?cid=0x0:0xf395b80b9cf6f21b,
perumahan,Komplek perumahan,Wulan's home,"V5C7+V6V, Buata, Kec. Atinggola, Kabupaten Gorontalo Utara, Gorontalo","Kabupaten Gorontalo Utara, Gorontalo",GORONTALO,,Indonesia,,,,0.8722488,123.1630425,https://maps.google.com/?cid=0x0:0xd76fb6f2f202c3a3,
perumahan,Perhimpunan Pengembang Perumahan,RUMAH AJIL,"V4W6+PP3, Monggupo, Kec. Atinggola, Kabupaten Gorontalo Utara, Gorontalo 96253","Monggupo, Kec. Atinggola, Kabupaten Gorontalo Utara",GORONTALO,96253.0,Indonesia,,,,0.8967734,123.1117962,https://maps.google.com/?cid=0x0:0xaf9b50cee9aa643f,
perumahan,Komplek perumahan,Aten Baid,"V3M3+96V Kompleks Kantor Desa Desa Wapalo, Imana, Kec. Atinggola, Kabupaten Gorontalo Utara, Gorontalo 96253","Imana, Kec. Atinggola, Kabupaten Gorontalo Utara",GORONTALO,96253.0,Indonesia,,,,0.8824711,123.0530006,https://maps.google.com/?cid=0x0:0xcbf55c791c19db86,
perumahan,Komplek perumahan,Rumah puput,"W33Q+MMW, Imana, Kec. Atinggola, Kabupaten Gorontalo Utara, Gorontalo 96253","Imana, Kec. Atinggola, Kabupaten Gorontalo Utara",GORONTALO,96253.0,Indonesia,,,,0.9042357,123.0892003,https://maps.google.com/?cid=0x0:0xcc55ea68e655b12b,
perumahan,Komplek perumahan,Rumah Rinaldi,"V4FR+RV5, Buata, Kec. Atinggola, Kabupaten Gorontalo Utara, Gorontalo 96253","Buata, Kec. Atinggola, Kabupaten Gorontalo Utara",GORONTALO,96253.0,Indonesia,,,,0.8755208,123.1416814,https://maps.google.com/?cid=0x0:0x9e59bb8ecc95bb89,
perumahan,Komplek perumahan,Lokasi aqiqah Rajendra,"V4R9+545, Pinontoyonga, Kec. Atinggola, Kabupaten Gorontalo Utara, Gorontalo 96253","Pinontoyonga, Kec. Atinggola, Kabupaten Gorontalo Utara",GORONTALO,96253.0,Indonesia,,,,0.8903766,123.1178544,https://maps.google.com/?cid=0x0:0xe2ea31ca67532164,
perumahan,Komplek perumahan,rumah Egi Pratama Van Gobel,"V4R9+97C, Pinontoyonga, Kec. Atinggola, Kabupaten Gorontalo Utara, Gorontalo 96253","Pinontoyonga, Kec. Atinggola, Kabupaten Gorontalo Utara",GORONTALO,96253.0,Indonesia,,,,0.8909463,123.1181423,https://maps.google.com/?cid=0x0:0xd0ea212bcce5784c,
perumahan,Komplek perumahan,tempat Raffa dan iprat nongki,"W33Q+MMW, Imana, Kec. Atinggola, Kabupaten Gorontalo Utara, Gorontalo 96253","Imana, Kec. Atinggola, Kabupaten Gorontalo Utara",GORONTALO,96253.0,Indonesia,,,,0.904075,123.0891467,https://maps.google.com/?cid=0x0:0x9c7585508a2e2676,
perumahan,Komplek perumahan,upik pe rumah,"W456+6PH, Jl. Trans Sulawesi, Kota Jin, Kec. Atinggola, Kabupaten Gorontalo Utara, Gorontalo 96253","Jl. Trans Sulawesi, Kota Jin, Kec. Atinggola, Kabupaten Gorontalo Utara",GORONTALO,96253.0,Indonesia,,,,0.9080635,123.1120128,https://maps.google.com/?cid=0x0:0xaa44cc44b735db15,
perumahan,Komplek perumahan,Firman pe Rumah,"V5C7+XFM, Buata, Kec. Atinggola, Kabupaten Gorontalo Utara, Gorontalo 96253","Buata, Kec. Atinggola, Kabupaten Gorontalo Utara",GORONTALO,96253.0,Indonesia,,,,0.8733219,123.1634358,https://maps.google.com/?cid=0x0:0xe782d7e65da9e676,
perumahan,Komplek perumahan,Aditya laiko,"W34R+69, Imana, Kec. Atinggola, Kabupaten Gorontalo Utara, Gorontalo","Kabupaten Gorontalo Utara, Gorontalo",GORONTALO,,Indonesia,,,,0.9055609,123.0908974,https://maps.google.com/?cid=0x0:0x310dfd76b9a91f6f,
perumahan,Tempat Parkir,Biau,"X6J7+W88, Jl. Buol - Gorontalo, Biawu, Kec. Tolinggula, Kabupaten Gorontalo Utara, Gorontalo 96524","Jl. Buol - Gorontalo, Biawu, Kec. Tolinggula, Kabupaten Gorontalo Utara",GORONTALO,96524.0,Indonesia,,,,0.982294,122.213335,https://maps.google.com/?cid=0x0:0x52f14f990728822,
perumahan,Jasa Pengeditan Video,Desa Windu Kec.Biau,"X6RF+RX2, Windu, Kec. Tolinggula, Kabupaten Gorontalo Utara, Gorontalo 96524","Windu, Kec. Tolinggula, Kabupaten Gorontalo Utara",GORONTALO,96524.0,Indonesia,,,,0.992014,122.2249,https://maps.google.com/?cid=0x0:0x9114ea35742e13f8,
perumahan,perumahan,Gorontalo,,Gorontalo,GORONTALO,,Indonesia,,,,0.6999372,122.4467238,https://maps.google.com/?cid=0x0:0x1030bfbcaf71a20,
perumahan,Komplek perumahan,Alfazza Residence,"H3H9+M4P, Jl. Yusuf Hasiru, Bulotada Tim., Kec. Sipatana, Kota Gorontalo, Gorontalo","Kota Gorontalo, Gorontalo",GORONTALO,,Indonesia,,,,0.5792008,123.0678418,https://maps.google.com/?cid=0x0:0xbf6c3d006a2d08f4,
perumahan,Komplek perumahan,Bintang Amanah Residence,"H2H9+XP7, Buhu, Kec. Telaga Jaya, Kabupaten Gorontalo, Gorontalo 96181","Buhu, Kec. Telaga Jaya, Kabupaten Gorontalo",GORONTALO,96181.0,Indonesia,82291371259.0,,,0.5798186,123.0195332,https://maps.google.com/?cid=0x0:0x412254c8a80419b9,
perumahan,Kantor Pemerintah,Kementerian Pekerjaan Umum dan Perumahan Rakyat Republik Indonesia,"Jl. Pattimura No.20, RT.4/RW.1, Selong, Kec. Kby. Baru, Kota Jakarta Selatan, Daerah Khusus Ibukota Jakarta 12110","RT.4/RW.1, Selong, Kec. Kby. Baru, Kota Jakarta Selatan",GORONTALO,12110.0,Indonesia,21158.0,,,-6.2365756,106.8005285,https://maps.google.com/?cid=0x0:0x4ecd3cac9729012,
perumahan,Kantor Pemerintah,Kantor Kementerian Pekerjaan Umum Pusat Komunikasi Publik,"Jl. Pattimura No.20 2, RT.2/RW.1, Selong, Kec. Kby. Baru, Kota Jakarta Selatan, Daerah Khusus Ibukota Jakarta 12110","RT.2/RW.1, Selong, Kec. Kby. Baru, Kota Jakarta Selatan",GORONTALO,12110.0,Indonesia,217221070.0,,,-6.2365143,106.8005221,https://maps.google.com/?cid=0x0:0xf996a47f8111408c,
perumahan,,Biro PAKLN,"Komplek Kemenpupera Gedung Menteri Lantai 5, Jalan Pattimura No. 20, Selong, Kebayoran Baru, RT.2/RW.1, Selong, Kec. Kby. Baru, Kota Jakarta Selatan, Daerah Khusus Ibukota Jakarta 12110","Jalan Pattimura No. 20, Selong, Kebayoran Baru, RT.2/RW.1, Selong, Kec. Kby. Baru, Kota Jakarta Selatan",GORONTALO,12110.0,Indonesia,217392681.0,,,-6.2370457,106.8011014,https://maps.google.com/?cid=0x0:0x97806d076b51877a,
perumahan,perumahan,Sulawesi Tengah 94563,"Kabupaten Buol, Sulawesi Tengah","Kabupaten Buol, Sulawesi Tengah",GORONTALO,,Indonesia,,,,1.2003229,121.3084088,https://maps.google.com/?cid=0x0:0x6c422b6673dca949,
perumahan,perumahan,Blau,"Windu, Kec. Tolinggula, Kabupaten Gorontalo Utara, Gorontalo","Kabupaten Gorontalo Utara, Gorontalo",GORONTALO,,Indonesia,,,,0.986265,122.223602,https://maps.google.com/?cid=0x0:0x871bc1bc52273216,
perumahan,Tempat Parkir,Biau,"X6J7+W88, Jl. Buol - Gorontalo, Biawu, Kec. Tolinggula, Kabupaten Gorontalo Utara, Gorontalo 96524","Jl. Buol - Gorontalo, Biawu, Kec. Tolinggula, Kabupaten Gorontalo Utara",GORONTALO,96524.0,Indonesia,,,,0.982294,122.213335,https://maps.google.com/?cid=0x0:0x52f14f990728822,
perumahan,perumahan,Rumah Mori.com,"X6PF+GC5, Blau, luhuto, Kec. Tolinggula, Kabupaten Gorontalo Utara, Gorontalo","Kabupaten Gorontalo Utara, Gorontalo",GORONTALO,,Indonesia,,,,0.986265,122.223602,https://maps.google.com/?cid=0x0:0x999e813dad7e5d13,
perumahan,Perumahan,Perum SMP 1 GENTUMA RAYA,"Jl. Trans Sulawesi No.89, Gentuma, Kec. Gentuma Raya, Kabupaten Gorontalo Utara, Gorontalo","Kabupaten Gorontalo Utara, Gorontalo",GORONTALO,,Indonesia,,,,0.9237185,123.0376331,https://maps.google.com/?cid=0x0:0x28a821ecb6a1f0cc,
perumahan,Komplek perumahan,Fris Home,"Jl. Pelabuhan No.33, Gentuma, Kec. Gentuma Raya, Kabupaten Gorontalo Utara, Gorontalo 96253","Gentuma, Kec. Gentuma Raya, Kabupaten Gorontalo Utara",GORONTALO,96253.0,Indonesia,,,,0.9307842,123.0366055,https://maps.google.com/?cid=0x0:0x12b23f8f6be99cf8,
perumahan,perumahan,Kec. Gentuma Raya,"Kabupaten Gorontalo Utara, Gorontalo","Kabupaten Gorontalo Utara, Gorontalo",GORONTALO,,Indonesia,,,,0.9300102,123.0377072,https://maps.google.com/?cid=0x0:0xc9d73598b0af1e0,
perumahan,Komplek perumahan,Yuliana G,"W2GR+329, Jl. Trans Sulawesi, Gentuma, Kec. Gentuma Raya, Kabupaten Gorontalo Utara, Gorontalo 96253","Jl. Trans Sulawesi, Gentuma, Kec. Gentuma Raya, Kabupaten Gorontalo Utara",GORONTALO,96253.0,Indonesia,,,,0.9257966,123.0397755,https://maps.google.com/?cid=0x0:0xa7e75a5d416c78dd,
perumahan,Kios,Kios Ma Juko,"W24G+PR7, Molonggota, Kec. Gentuma Raya, Kabupaten Gorontalo Utara, Gorontalo 96253","Molonggota, Kec. Gentuma Raya, Kabupaten Gorontalo Utara",GORONTALO,96253.0,Indonesia,,,,0.907021,123.027004,https://maps.google.com/?cid=0x0:0xc9ae32cd5321cbf8,
perumahan,Komplek perumahan,LADUNGA FAMILY,"W2JR+MG9, Gentuma, Kec. Gentuma Raya, Kabupaten Gorontalo Utara, Gorontalo 96253","Gentuma, Kec. Gentuma Raya, Kabupaten Gorontalo Utara",GORONTALO,96253.0,Indonesia,,,,0.9317,123.0413131,https://maps.google.com/?cid=0x0:0xd4a2780b3177f36f,
perumahan,Komplek perumahan,Perumahan vt,"W396+CWJ, Jl. Trans Sulawesi, Imana, Kec. Atinggola, Kabupaten Gorontalo Utara, Gorontalo 96253","Jl. Trans Sulawesi, Imana, Kec. Atinggola, Kabupaten Gorontalo Utara",GORONTALO,96253.0,Indonesia,,,,0.9185884,123.0622575,https://maps.google.com/?cid=0x0:0xc21da67d9793f366,
perumahan,Pembangunan Perumahan,HOME A2,"W2FR+RC4, Gentuma, Kec. Gentuma Raya, Kabupaten Gorontalo Utara, Gorontalo 96253","Gentuma, Kec. Gentuma Raya, Kabupaten Gorontalo Utara",GORONTALO,96253.0,Indonesia,82393462029.0,,,0.924461,123.041013,https://maps.google.com/?cid=0x0:0xe1a9eb76e02a381e,
perumahan,Toko Buah dan Sayuran,Rumah Sayur Gentuma Raya,"Jl. Trans Sulawesi, Dumolodo, Kec. Gentuma Raya, Kabupaten Gorontalo Utara, Gorontalo 96253","Dumolodo, Kec. Gentuma Raya, Kabupaten Gorontalo Utara",GORONTALO,96253.0,Indonesia,82259496592.0,,,0.9250205,123.0436096,https://maps.google.com/?cid=0x0:0x5e3499b2a9aeb7d0,
perumahan,Komplek perumahan,Jery PE rumah,"W26F+R7, Molonggota, Kec. Gentuma Raya, Kabupaten Gorontalo Utara, Gorontalo 96253","Molonggota, Kec. Gentuma Raya, Kabupaten Gorontalo Utara",GORONTALO,96253.0,Indonesia,,,,0.9120625,123.0231875,https://maps.google.com/?cid=0x0:0x3e211ac5fb27527c,
perumahan,Komplek perumahan,Rumah rizal parinusa,"W2JR+QF7, Gentuma, Kec. Gentuma Raya, Kabupaten Gorontalo Utara, Gorontalo 96253","Gentuma, Kec. Gentuma Raya, Kabupaten Gorontalo Utara",GORONTALO,96253.0,Indonesia,,,,0.9319022,123.0411787,https://maps.google.com/?cid=0x0:0xf40cd5fbd1a1483d,
perumahan,Komplek perumahan,Zet Damar,"W23W+75H, Langke, Kec. Gentuma Raya, Kabupaten Gorontalo Utara, Gorontalo 96253","Langke, Kec. Gentuma Raya, Kabupaten Gorontalo Utara",GORONTALO,96253.0,Indonesia,,,,0.903069,123.04587,https://maps.google.com/?cid=0x0:0x83c55b6805cf1a5d,
perumahan,Perumahan,Rumah PRADWINAYZ,"W2JQ+923, Gentuma, Kec. Gentuma Raya, Kabupaten Gorontalo Utara, Gorontalo 96253","Gentuma, Kec. Gentuma Raya, Kabupaten Gorontalo Utara",GORONTALO,96253.0,Indonesia,,,,0.9309299,123.0374292,https://maps.google.com/?cid=0x0:0x669b6056e2d2242d,
perumahan,Komplek perumahan,Rumah andre,"W27G+FJF, Molonggota, Kec. Gentuma Raya, Kabupaten Gorontalo Utara, Gorontalo 96253","Molonggota, Kec. Gentuma Raya, Kabupaten Gorontalo Utara",GORONTALO,96253.0,Indonesia,,,,0.9136869,123.0265541,https://maps.google.com/?cid=0x0:0xb590bfe77772aea2,
perumahan,perumahan,rumah uno paramata,"W2HM+XC9, Desa, ketapang, Kec. Gentuma Raya, Kabupaten Gorontalo Utara, Gorontalo 96253","Desa, ketapang, Kec. Gentuma Raya, Kabupaten Gorontalo Utara",GORONTALO,96253.0,Indonesia,,,,0.9299602,123.0336356,https://maps.google.com/?cid=0x0:0xed55d66b9c38835d,
perumahan,Komplek perumahan,Aradus,"W2JR+56R, Gentuma, Kec. Gentuma Raya, Kabupaten Gorontalo Utara, Gorontalo 96253","Gentuma, Kec. Gentuma Raya, Kabupaten Gorontalo Utara",GORONTALO,96253.0,Indonesia,,,,0.930286,123.040432,https://maps.google.com/?cid=0x0:0x3543254d6ebce50a,
perumahan,Komplek perumahan,Enal,"W22G+8R9, Unnamed Road, Ipilo, Kec. Gentuma Raya, Kabupaten Gorontalo Utara, Gorontalo 96253","Unnamed Road, Ipilo, Kec. Gentuma Raya, Kabupaten Gorontalo Utara",GORONTALO,96253.0,Indonesia,,,,0.9007816,123.0271075,https://maps.google.com/?cid=0x0:0x3e7344b77265836b,
perumahan,Komplek perumahan,Rumah imran,"W2HM+MCH, Gentuma, Kec. Gentuma Raya, Kabupaten Gorontalo Utara, Gorontalo 96253","Gentuma, Kec. Gentuma Raya, Kabupaten Gorontalo Utara",GORONTALO,96253.0,Indonesia,,,,0.929447,123.033552,https://maps.google.com/?cid=0x0:0x2cae2abe40d9b930,
perumahan,Komplek perumahan,yoksan house,"Dumolodo, Kec. Gentuma Raya, Kabupaten Gorontalo Utara, Gorontalo 96253","Kec. Gentuma Raya, Kabupaten Gorontalo Utara",GORONTALO,96253.0,Indonesia,82349775273.0,,,0.9066903,123.0469823,https://maps.google.com/?cid=0x0:0xa408ce73a659253c,
perumahan,Komplek perumahan,Rumah Maya Liputo,"W2F8+GQQ, Molonggota, Kec. Gentuma Raya, Kabupaten Gorontalo Utara, Gorontalo 96253","Molonggota, Kec. Gentuma Raya, Kabupaten Gorontalo Utara",GORONTALO,96253.0,Indonesia,,,,0.9238472,123.0169873,https://maps.google.com/?cid=0x0:0x705876c7dbd919aa,
perumahan,Toko Swalayan,Rumah Rasmel,"W2FR+V6P, Gentuma, Kec. Gentuma Raya, Kabupaten Gorontalo Utara, Gorontalo 96253","Gentuma, Kec. Gentuma Raya, Kabupaten Gorontalo Utara",GORONTALO,96253.0,Indonesia,85256217847.0,,,0.924719,123.040571,https://maps.google.com/?cid=0x0:0x5e978ae902d7ea27,
perumahan,Komplek perumahan,Rumah Zihan Mato,"W2JM+FHG, Gentuma, Kec. Gentuma Raya, Kabupaten Gorontalo Utara, Gorontalo 96253","Gentuma, Kec. Gentuma Raya, Kabupaten Gorontalo Utara",GORONTALO,96253.0,Indonesia,,,,0.9312942,123.033149,https://maps.google.com/?cid=0x0:0x6956d284e730cf30,
perumahan,perumahan,Gorontalo 96252,"Kec. Kwandang, Kabupaten Gorontalo Utara, Gorontalo","Kabupaten Gorontalo Utara, Gorontalo",GORONTALO,,Indonesia,,,,0.8083426,122.9212265,https://maps.google.com/?cid=0x0:0x8516fb933d27785f,
perumahan,Komplek perumahan,Perumahan Kwandang Residence,"QVQ5+36W, Molingkapoto, Kec. Kwandang, Kabupaten Gorontalo Utara, Gorontalo 96252","Molingkapoto, Kec. Kwandang, Kabupaten Gorontalo Utara",GORONTALO,96252.0,Indonesia,,,,0.7877445,122.8580636,https://maps.google.com/?cid=0x0:0xf2636de2709a2b7a,
perumahan,Perumahan,"Perumahan Griya Fitrah Mandiri Kwandang, Gorontalo Utara","QVM8+XXG, Jl. Barito, Molingkapoto, Kec. Kwandang, Kabupaten Gorontalo Utara, Gorontalo 96252","Jl. Barito, Molingkapoto, Kec. Kwandang, Kabupaten Gorontalo Utara",GORONTALO,96252.0,Indonesia,,,,0.7849464,122.8674521,https://maps.google.com/?cid=0x0:0xa01f510170c1cf17,
perumahan,Komplek perumahan,"Kediaman dr. Ligius Toliu, M.Si","Perum Titidu Permai Blok D no. XI, Jl. Laguni Polamolo, Titidu, Kec. Kwandang, Kabupaten Gorontalo Utara, Gorontalo 96252","Jl. Laguni Polamolo, Titidu, Kec. Kwandang, Kabupaten Gorontalo Utara",GORONTALO,96252.0,Indonesia,,,,0.8287561,122.9214707,https://maps.google.com/?cid=0x0:0xfe3051698ee9d7a6,
perumahan,Pembangunan Perumahan,Rumah le Fadel,"RV7W+X8F, Leboto, Kec. Kwandang, Kabupaten Gorontalo Utara, Gorontalo 96252","Leboto, Kec. Kwandang, Kabupaten Gorontalo Utara",GORONTALO,96252.0,Indonesia,,,,0.8148011,122.8963494,https://maps.google.com/?cid=0x0:0x6162768482e67f25,
perumahan,Komplek perumahan,Rumah Didin,"VXJ8+5CJ, Dambalo, Kec. Kwandang, Kabupaten Gorontalo Utara, Gorontalo 96252","Dambalo, Kec. Kwandang, Kabupaten Gorontalo Utara",GORONTALO,96252.0,Indonesia,,,,0.8804603,122.9660009,https://maps.google.com/?cid=0x0:0xbabf933afdf9668d,
perumahan,Penginapan,Ahsan Muhajir,"Perum Permata Wunn No.5, Leboto, Kec. Kwandang, Kabupaten Gorontalo Utara, Gorontalo 96252","Leboto, Kec. Kwandang, Kabupaten Gorontalo Utara",GORONTALO,96252.0,Indonesia,,,,0.8088675,122.8886371,https://maps.google.com/?cid=0x0:0x64d3edbf97cc2716,
perumahan,Perhimpunan Pengembang Perumahan,ramdhan kaharu,"RW42+J7Q, Jl. Jatiluhur, Leboto, Kec. Kwandang, Kabupaten Gorontalo Utara, Gorontalo 96252","Jl. Jatiluhur, Leboto, Kec. Kwandang, Kabupaten Gorontalo Utara",GORONTALO,96252.0,Indonesia,,,,0.8066851,122.9006671,https://maps.google.com/?cid=0x0:0x5dd4e87a72092298,
perumahan,Komplek perumahan,AILLIO Family,"RWJC+P2W, Jl. Pertiwi, Titidu, Kec. Kwandang, Kabupaten Gorontalo Utara, Gorontalo 96252","Jl. Pertiwi, Titidu, Kec. Kwandang, Kabupaten Gorontalo Utara",GORONTALO,96252.0,Indonesia,,,,0.831865,122.9200633,https://maps.google.com/?cid=0x0:0xba6d07a2ad3e8a72,
perumahan,Komplek perumahan,Rumah kifli,"Jl. Bubode, Dambalo, Kec. Kwandang, Kabupaten Gorontalo Utara, Gorontalo 96252","Dambalo, Kec. Kwandang, Kabupaten Gorontalo Utara",GORONTALO,96252.0,Indonesia,,,,0.8813856,122.9494732,https://maps.google.com/?cid=0x0:0x7df8fa8f39fffeb8,
perumahan,Komplek perumahan,Rumah 2R,"RV2W+44X, Leboto, Kec. Kwandang, Kabupaten Gorontalo Utara, Gorontalo 96252","Leboto, Kec. Kwandang, Kabupaten Gorontalo Utara",GORONTALO,96252.0,Indonesia,,,,0.800513,122.894926,https://maps.google.com/?cid=0x0:0x41be393b742e0d4b,
perumahan,Komplek perumahan,RUMAH ALPOTZ,"RV2W+J2Q, Leboto, Kec. Kwandang, Kabupaten Gorontalo Utara, Gorontalo 96252","Leboto, Kec. Kwandang, Kabupaten Gorontalo Utara",GORONTALO,96252.0,Indonesia,,,,0.8015767,122.8951245,https://maps.google.com/?cid=0x0:0x2abbc044a063f6db,
perumahan,Pembangunan Perumahan,Vina,"RWJ8+HP2, Titidu, Kec. Kwandang, Kabupaten Gorontalo Utara, Gorontalo 96252","Titidu, Kec. Kwandang, Kabupaten Gorontalo Utara",GORONTALO,96252.0,Indonesia,,,,0.8313863,122.9167625,https://maps.google.com/?cid=0x0:0x79cb23273b505064,
perumahan,Komplek perumahan,Rumah Li momoy,"VW23+F3G, Jl. Pelabuhan Kwandang, Moluo, Kec. Kwandang, Kabupaten Gorontalo Utara, Gorontalo","Kabupaten Gorontalo Utara, Gorontalo",GORONTALO,,Indonesia,,,,0.8511915,122.9027142,https://maps.google.com/?cid=0x0:0x52ca815242754b47,
perumahan,Komplek perumahan,Rumah Bele,"QVVP+GHJ, Mootinelo, Kec. Kwandang, Kabupaten Gorontalo Utara, Gorontalo 96252","Mootinelo, Kec. Kwandang, Kabupaten Gorontalo Utara",GORONTALO,96252.0,Indonesia,,,,0.7944237,122.886674,https://maps.google.com/?cid=0x0:0xafe8d7d7b2159365,
perumahan,Komplek perumahan,Rumah saya,"QVG4+F5W, Pontolo, Kec. Kwandang, Kabupaten Gorontalo Utara, Gorontalo 96252","Pontolo, Kec. Kwandang, Kabupaten Gorontalo Utara",GORONTALO,96252.0,Indonesia,,,,0.7762278,122.8554483,https://maps.google.com/?cid=0x0:0x72f2c592b1de439f,
perumahan,Komplek perumahan,Lorong 2 popaya,"RWGC+M2G, Titidu, Kec. Kwandang, Kabupaten Gorontalo Utara, Gorontalo 96252","Titidu, Kec. Kwandang, Kabupaten Gorontalo Utara",GORONTALO,96252.0,Indonesia,,,,0.8265946,122.9199011,https://maps.google.com/?cid=0x0:0xff305b2545ddea76,
perumahan,Perhimpunan Pengembang Perumahan,rumah,"QVP8+C2Q, Molingkapoto, Kec. Kwandang, Kabupaten Gorontalo Utara, Gorontalo 96252","Molingkapoto, Kec. Kwandang, Kabupaten Gorontalo Utara",GORONTALO,96252.0,Indonesia,,,,0.786096,122.864907,https://maps.google.com/?cid=0x0:0x6fcc15906cd4d6a4,
perumahan,Komplek perumahan,Rumah indah fransisca,"RV3C+W59, Mootinelo, Kec. Kwandang, Kabupaten Gorontalo Utara, Gorontalo","Kabupaten Gorontalo Utara, Gorontalo",GORONTALO,,Indonesia,,,,0.8047929,122.8704925,https://maps.google.com/?cid=0x0:0x8589c871fbdf219e,
perumahan,Pembangunan Perumahan,Rumah Aliana,"QWXH+H84, Bualemo, Kec. Kwandang, Kabupaten Gorontalo Utara, Gorontalo","Kabupaten Gorontalo Utara, Gorontalo",GORONTALO,,Indonesia,,,,0.7988842,122.9283197,https://maps.google.com/?cid=0x0:0x5fd01fb4bca83402,
perumahan,Pembangunan Perumahan,Bele li Baba Siu,"VW8M+MG4, Jl. Trans Sulawesi, Dambalo, Kec. Kwandang, Kabupaten Gorontalo Utara, Gorontalo 96252","Jl. Trans Sulawesi, Dambalo, Kec. Kwandang, Kabupaten Gorontalo Utara",GORONTALO,96252.0,Indonesia,,,,0.8666554,122.9338409,https://maps.google.com/?cid=0x0:0xa566e52660fe5963,
perumahan,Komplek perumahan,Rumah Saya,"RV5W+R9F, Leboto, Kec. Kwandang, Kabupaten Gorontalo Utara, Gorontalo 96252","Leboto, Kec. Kwandang, Kabupaten Gorontalo Utara",GORONTALO,96252.0,Indonesia,,,,0.80957,122.895934,https://maps.google.com/?cid=0x0:0x58b15ff0d59cc0a2,
perumahan,perumahan,Monano,"Kec. Anggrek, Kabupaten Gorontalo Utara, Gorontalo","Kabupaten Gorontalo Utara, Gorontalo",GORONTALO,,Indonesia,,,,0.8567497,122.6870742,https://maps.google.com/?cid=0x0:0xfb9832e634d0d5c8,
perumahan,Komplek perumahan,Baloi Naton,"VMQV+7V9 lorong katang, Monano, Kec. Anggrek, Kabupaten Gorontalo Utara, Gorontalo 96525","Monano, Kec. Anggrek, Kabupaten Gorontalo Utara",GORONTALO,96525.0,Indonesia,85394042554.0,,,0.8881543,122.6947306,https://maps.google.com/?cid=0x0:0x2c0b45302392c97e,
perumahan,Penginapan,Monano,"VM4P+MRW, Monano, Kec. Anggrek, Kabupaten Gorontalo Utara, Gorontalo 96525","Monano, Kec. Anggrek, Kabupaten Gorontalo Utara",GORONTALO,96525.0,Indonesia,85389332227.0,,,0.8567497,122.6870742,https://maps.google.com/?cid=0x0:0x57c5b5b11db31e6e,
perumahan,Tujuan Wisata,Desa tudi kecamatan monano kabupaten Gorontalo Utara,"VM4P+MRW, Monano, Kec. Anggrek, Kabupaten Gorontalo Utara, Gorontalo 96525","Monano, Kec. Anggrek, Kabupaten Gorontalo Utara",GORONTALO,96525.0,Indonesia,,,,0.8567497,122.6870742,https://maps.google.com/?cid=0x0:0x4ad178f71491f98d,
perumahan,Pembangunan Perumahan,Risda Luawo,"VMPW+2WF, Monano, Kec. Anggrek, Kabupaten Gorontalo Utara, Gorontalo 96525","Monano, Kec. Anggrek, Kabupaten Gorontalo Utara",GORONTALO,96525.0,Indonesia,,,,0.884893,122.6974395,https://maps.google.com/?cid=0x0:0xc1c0ab695a546e5,
perumahan,Komplek perumahan,Perumahan Nelayan,"VP93+FQ2, Tudi, Kec. Anggrek, Kabupaten Gorontalo Utara, Gorontalo 96525","Tudi, Kec. Anggrek, Kabupaten Gorontalo Utara",GORONTALO,96525.0,Indonesia,85298105110.0,,,0.8686316,122.7043828,https://maps.google.com/?cid=0x0:0x6d2b9eca89d1bcda,
perumahan,Pembangunan Perumahan,Irfandatau Home Stay,"VP83+VW6, Monano, Kec. Anggrek, Kabupaten Gorontalo Utara, Gorontalo 96525","Monano, Kec. Anggrek, Kabupaten Gorontalo Utara",GORONTALO,96525.0,Indonesia,,,,0.8663176,122.7058472,https://maps.google.com/?cid=0x0:0x9e841571337f141,
perumahan,Komplek perumahan,Rumah li Vina,"VM4P+MRW, Monano, Kec. Anggrek, Kabupaten Gorontalo Utara, Gorontalo 96525","Monano, Kec. Anggrek, Kabupaten Gorontalo Utara",GORONTALO,96525.0,Indonesia,,,,0.8567497,122.6870742,https://maps.google.com/?cid=0x0:0x74045ea007a036a3,
perumahan,Komplek perumahan,Amna koniyo,"VM8X+QHX, Monano, Kec. Anggrek, Kabupaten Gorontalo Utara, Gorontalo 96525","Monano, Kec. Anggrek, Kabupaten Gorontalo Utara",GORONTALO,96525.0,Indonesia,,,,0.8669132,122.6994535,https://maps.google.com/?cid=0x0:0x3725bdc47381c7b9,
perumahan,Komplek perumahan,Man Bouti,"VM4P+MRW, Monano, Kec. Anggrek, Kabupaten Gorontalo Utara, Gorontalo 96525","Monano, Kec. Anggrek, Kabupaten Gorontalo Utara",GORONTALO,96525.0,Indonesia,,,,0.8567497,122.6870742,https://maps.google.com/?cid=0x0:0x1658dc77ddc6dbdf,
perumahan,Komplek perumahan,Rumah Fitri Bakari,"VMPV+CJ4, Monano, Kec. Anggrek, Kabupaten Gorontalo Utara, Gorontalo 96525","Monano, Kec. Anggrek, Kabupaten Gorontalo Utara",GORONTALO,96525.0,Indonesia,,,,0.8837036,122.6939529,https://maps.google.com/?cid=0x0:0x7ebac1633f7d8bf6,
perumahan,perumahan,Repsi Otoluwa,"VMFJ+J7P Desa ZURIATI, Monano, Kec. Anggrek, Kabupaten Gorontalo Utara, Gorontalo 96525","Monano, Kec. Anggrek, Kabupaten Gorontalo Utara",GORONTALO,96525.0,Indonesia,,,,0.8740993,122.6806948,https://maps.google.com/?cid=0x0:0x43e34b427a7f8209,
perumahan,Pembangunan Perumahan,SAFITRI HOUSE,"VMQX+P8J, Monano, Kec. Anggrek, Kabupaten Gorontalo Utara, Gorontalo 96525","Monano, Kec. Anggrek, Kabupaten Gorontalo Utara",GORONTALO,96525.0,Indonesia,,,,0.889301,122.6983484,https://maps.google.com/?cid=0x0:0x8eeaaece1277835f,
perumahan,Komplek perumahan,bele li opa kasim,"VMHR+64X, Tolango - Bulontio, Monano, Kec. Anggrek, Kabupaten Gorontalo Utara, Gorontalo 96525","Tolango - Bulontio, Monano, Kec. Anggrek, Kabupaten Gorontalo Utara",GORONTALO,96525.0,Indonesia,,,,0.8781229,122.6903746,https://maps.google.com/?cid=0x0:0x810591abc1f5664d,
perumahan,Gedung Apartemen,Bele Li Lissa,"VM8X+QHX, Monano, Kec. Anggrek, Kabupaten Gorontalo Utara, Gorontalo 96525","Monano, Kec. Anggrek, Kabupaten Gorontalo Utara",GORONTALO,96525.0,Indonesia,,,,0.8669707,122.6990487,https://maps.google.com/?cid=0x0:0xa74f34d1ca697a86,
perumahan,Komplek perumahan,Ilham,"VMJQ+79M, Monano, Kec. Anggrek, Kabupaten Gorontalo Utara, Gorontalo 96525","Monano, Kec. Anggrek, Kabupaten Gorontalo Utara",GORONTALO,96525.0,Indonesia,,,,0.8807247,122.6884133,https://maps.google.com/?cid=0x0:0x5d78535e7aad5c8e,
perumahan,Pembangunan Perumahan,"House Pandri, Lorong Katang","VMPW+X5C Kantor, Desa, Monano, Anggrek, North Gorontalo Regency, Gorontalo 96525","Desa, Monano, Anggrek, North Gorontalo Regency",GORONTALO,96525.0,Indonesia,,,,0.8874347,122.6953792,https://maps.google.com/?cid=0x0:0xd63cfe5cfba1407a,
perumahan,Komplek perumahan,Iron ujulu,"VP82+FP4, Pilohulata, Monano, Kec. Anggrek, Kabupaten Gorontalo Utara, Gorontalo 96525","Pilohulata, Monano, Kec. Anggrek, Kabupaten Gorontalo Utara",GORONTALO,96525.0,Indonesia,,,,0.8659829,122.702477,https://maps.google.com/?cid=0x0:0xea0a4d33274d4673,
perumahan,Komplek perumahan,Amrin Payu House,"VM4P+MRW, Monano, Kec. Anggrek, Kabupaten Gorontalo Utara, Gorontalo 96525","Monano, Kec. Anggrek, Kabupaten Gorontalo Utara",GORONTALO,96525.0,Indonesia,,,,0.8567375,122.6870781,https://maps.google.com/?cid=0x0:0x1f4051c272b11eca,
perumahan,Komplek perumahan,House AgstinBsra,"Monas, Kec. Anggrek, Kabupaten Gorontalo Utara, Gorontalo 96525","Kec. Anggrek, Kabupaten Gorontalo Utara",GORONTALO,96525.0,Indonesia,,,,0.8846177,122.6933632,https://maps.google.com/?cid=0x0:0x24eaa04c86b5625f,
perumahan,Otoritas Pelabuhan,Ponelo Kepulauan,"VVRP+693, Jl. Kec. Ponelo, Moluo, Kec. Kwandang, Kabupaten Gorontalo Utara, Gorontalo","Kabupaten Gorontalo Utara, Gorontalo",GORONTALO,,Indonesia,,,,0.8905172,122.8859277,https://maps.google.com/?cid=0x0:0x3adda2027890f34b,
perumahan,Tujuan Wisata,Dermaga Ponelo Kepulauan,"VVWP+Q5R, Jl. Kec. Ponelo, Limbatihu, Paguyaman Pantai, Kabupaten Gorontalo Utara, Gorontalo 96252","Jl. Kec. Ponelo, Limbatihu, Paguyaman Pantai, Kabupaten Gorontalo Utara",GORONTALO,96252.0,Indonesia,,,,0.8969899,122.8853839,https://maps.google.com/?cid=0x0:0xbe0c556385bf6cc2,
perumahan,Makanan Kecil,Kios Mama Nagon,"VVRP+53J, Moluo, Kec. Kwandang, Kabupaten Gorontalo Utara, Gorontalo","Kabupaten Gorontalo Utara, Gorontalo",GORONTALO,,Indonesia,,,,0.8904978,122.8851871,https://maps.google.com/?cid=0x0:0x92211ae7e14e1120,
perumahan,Komplek perumahan,Rumah Alinsa Lamato,"VV7J+7PX, Otiola, Kecamatan Ponelo Kepulauan, Kabupaten Gorontalo Utara, Gorontalo","Kabupaten Gorontalo Utara, Gorontalo",GORONTALO,,Indonesia,,,,0.8632349,122.8818446,https://maps.google.com/?cid=0x0:0x61332041e19e5896,
perumahan,perumahan,Olii_Usira Family,"VVQQ+QM4, Dusun Ponelo II, Desa Ponelo, Kecamatan Ponelo Kepulauan, Moluo, Kabupaten Gorontalo Utara, Gorontalo","Kabupaten Gorontalo Utara, Gorontalo",GORONTALO,,Indonesia,,,,0.8893814,122.8891997,https://maps.google.com/?cid=0x0:0x360c87f282b8d147,
perumahan,Komplek perumahan,Winda Home's,"VVRP+53J Ponelo, Jl. Kec. Ponelo, Kepulauan, Kec. Kwandang, Kabupaten Gorontalo Utara, Gorontalo","Kabupaten Gorontalo Utara, Gorontalo",GORONTALO,,Indonesia,,,,0.8904747,122.8851538,https://maps.google.com/?cid=0x0:0x91b693cee24bc379,
perumahan,Komplek perumahan,Rumah Yusra,"VVQP+VVX desa ponelo, Moluo, kecamatan ponelo kepulauan, Kabupaten Gorontalo Utara, Gorontalo","Kabupaten Gorontalo Utara, Gorontalo",GORONTALO,,Indonesia,,,,0.8897308,122.8872437,https://maps.google.com/?cid=0x0:0x3449bf9d3d19fe13,
perumahan,Dapur Umum,Rumah produksi minyak kampung ponelo PT.PONKEP JAYA BERKAH,"VV8H+3QG, Moluo, Kec ponelo kepulauan, Kabupaten Gorontalo Utara, Gorontalo","Kabupaten Gorontalo Utara, Gorontalo",GORONTALO,,Indonesia,,,,0.8651921,122.8794616,https://maps.google.com/?cid=0x0:0x7deadfd51f83cfd9,
perumahan,Rumah wisata,Rumah sofyan alm,"VVQQ+QM4, Dusun Ponelo II, Desa Ponelo, Kecamatan Ponelo Kepulauan, Moluo, Kec. Kwandang, Kabupaten Gorontalo Utara, Gorontalo","Kabupaten Gorontalo Utara, Gorontalo",GORONTALO,,Indonesia,,,,0.8904729,122.8851553,https://maps.google.com/?cid=0x0:0x70e3490a0fede8a,
perumahan,perumahan,Gorontalo 96254,"Kabupaten Gorontalo Utara, Gorontalo","Kabupaten Gorontalo Utara, Gorontalo",GORONTALO,,Indonesia,,,,0.926195,122.4014193,https://maps.google.com/?cid=0x0:0x9a29fb0ff347278,
perumahan,Perhimpunan Pengembang Perumahan,Perumahan Paramedis PKM Sumalata,"XCMC+5VV, Bulontio Tim., Kec. Sumalata, Kabupaten Gorontalo Utara, Gorontalo 96254","Bulontio Tim., Kec. Sumalata, Kabupaten Gorontalo Utara",GORONTALO,96254.0,Indonesia,,,,0.982991,122.4221766,https://maps.google.com/?cid=0x0:0x5e300cedf8c71de1,
perumahan,Pusat Kesehatan Masyarakat,Perumahan Dinas dokter PKM Sumalata,"XCJF+VW7, Jl. Buol - Gorontalo, Bulontio Tim., Kec. Sumalata, Kabupaten Gorontalo Utara, Gorontalo 96254","Jl. Buol - Gorontalo, Bulontio Tim., Kec. Sumalata, Kabupaten Gorontalo Utara",GORONTALO,96254.0,Indonesia,,,,0.9821674,122.4248114,https://maps.google.com/?cid=0x0:0xac47f9bdf533d314,
perumahan,Pembangunan Perumahan,Rumah opa,"X9MR+628, Bulontio Bar., Kec. Sumalata, Kabupaten Gorontalo Utara, Gorontalo 96254","Bulontio Bar., Kec. Sumalata, Kabupaten Gorontalo Utara",GORONTALO,96254.0,Indonesia,,,,0.9830261,122.3900901,https://maps.google.com/?cid=0x0:0xf60b198dd35763bb,
perumahan,Komplek perumahan,Rumah HAYUN L. BILALIYA,"XCVP+74P, Jl. Buol - Gorontalo, Bulontio Tim., Kec. Sumalata, Kabupaten Gorontalo Utara, Gorontalo 96254","Jl. Buol - Gorontalo, Bulontio Tim., Kec. Sumalata, Kabupaten Gorontalo Utara",GORONTALO,96254.0,Indonesia,,,,0.9934844,122.4351178,https://maps.google.com/?cid=0x0:0x151799df0c0465cd,
perumahan,Pembangunan Perumahan,Transmigrasi motihelumo,"WGWW+JFC, Jl. Buol - Gorontalo, Deme II, Kec. Sumalata, Kabupaten Gorontalo Utara, Gorontalo 96254","Jl. Buol - Gorontalo, Deme II, Kec. Sumalata, Kabupaten Gorontalo Utara",GORONTALO,96254.0,Indonesia,82291782978.0,,,0.9465617,122.5461438,https://maps.google.com/?cid=0x0:0x4223c0a73506ba3b,
perumahan,Kantor Hubungan Masyarakat,Desa Buloila,"X7XG+9H5, Bulontio - Tolinggula, Buloila, Kec. Sumalata, Kabupaten Gorontalo Utara, Gorontalo 96254","Bulontio - Tolinggula, Buloila, Kec. Sumalata, Kabupaten Gorontalo Utara",GORONTALO,96254.0,Indonesia,,,,0.9983988,122.2764956,https://maps.google.com/?cid=0x0:0xe949ef765c8834fa,
perumahan,Pembangunan Perumahan,Rumah Noldi Gesa,"XCGH+CQ, Bulontio Tim., Kec. Sumalata, Kabupaten Gorontalo Utara, Gorontalo","Kabupaten Gorontalo Utara, Gorontalo",GORONTALO,,Indonesia,,,,0.9761102,122.4294318,https://maps.google.com/?cid=0x0:0xd3501669f9d3129a,
perumahan,Komplek perumahan,Perumahan Guru,"WHC8+56M, Dulukapa, Kec. Sumalata, Kabupaten Gorontalo Utara, Gorontalo 96254","Dulukapa, Kec. Sumalata, Kabupaten Gorontalo Utara",GORONTALO,96254.0,Indonesia,,,,0.920468,122.5655549,https://maps.google.com/?cid=0x0:0x4451883e4f0f7b8a,
perumahan,Komplek perumahan,Dusun Limututu,"XCGH+CQ, Bulontio Tim., Kec. Sumalata, Kabupaten Gorontalo Utara, Gorontalo","Kabupaten Gorontalo Utara, Gorontalo",GORONTALO,,Indonesia,,,,0.9763819,122.4297383,https://maps.google.com/?cid=0x0:0x66179e21f63b0af6,
perumahan,Komplek perumahan,Balabatu,"2F42+4JR, Bulontio Tim., Kec. Sumalata, Kabupaten Gorontalo Utara, Gorontalo 96254","Bulontio Tim., Kec. Sumalata, Kabupaten Gorontalo Utara",GORONTALO,96254.0,Indonesia,,,,1.0053625,122.4515156,https://maps.google.com/?cid=0x0:0x9cd33d6b7f2c070d,
perumahan,Komplek perumahan,Yayat pe rumah,"272H+92F, Buloila, Kec. Sumalata, Kabupaten Gorontalo Utara, Gorontalo 96254","Buloila, Kec. Sumalata, Kabupaten Gorontalo Utara",GORONTALO,96254.0,Indonesia,,,,1.0010936,122.2775692,https://maps.google.com/?cid=0x0:0x36ca27508e23fef4,
perumahan,Komplek perumahan,Rumah Rezka,"XCM9+9R7, Bulontio Tim., Kec. Sumalata, Kabupaten Gorontalo Utara, Gorontalo 96254","Bulontio Tim., Kec. Sumalata, Kabupaten Gorontalo Utara",GORONTALO,96254.0,Indonesia,,,,0.9834199,122.4195325,https://maps.google.com/?cid=0x0:0x30231ab23cdaad6d,
perumahan,Perhimpunan Pengembang Perumahan,Mastin Mobilingo,"X79G+2RP, Buloila, Kec. Sumalata, Kabupaten Gorontalo Utara, Gorontalo","Kabupaten Gorontalo Utara, Gorontalo",GORONTALO,,Indonesia,,,,0.9675897,122.2770847,https://maps.google.com/?cid=0x0:0xef2f4833feccf7d6,
perumahan,perumahan,Wahyu Pratama,"XCHG+W89, Bulontio Tim., Kec. Sumalata, Kabupaten Gorontalo Utara, Gorontalo","Kabupaten Gorontalo Utara, Gorontalo",GORONTALO,,Indonesia,,,,0.9797954,122.425871,https://maps.google.com/?cid=0x0:0xa6182e40b2b6e47e,
perumahan,Pembangunan Perumahan,UPT Motihelumo,"WHX6+84, Dulukapa, Kec. Sumalata, Kabupaten Gorontalo Utara, Gorontalo","Kabupaten Gorontalo Utara, Gorontalo",GORONTALO,,Indonesia,,,,0.9472661,122.5486873,https://maps.google.com/?cid=0x0:0x1b1d50e1bb732779,
perumahan,Komplek perumahan,karinaaaaa,"XCQ9+H92, Bulontio Tim., Kec. Sumalata, Kabupaten Gorontalo Utara, Gorontalo 96254","Bulontio Tim., Kec. Sumalata, Kabupaten Gorontalo Utara",GORONTALO,96254.0,Indonesia,,,,0.988896,122.4183822,https://maps.google.com/?cid=0x0:0x1915bd6ea64cb0e3,
perumahan,perumahan,Ahmad Wasami,"XGH4+RJM, Buladu, Kec. Sumalata, Kabupaten Gorontalo Utara, Gorontalo 96254","Buladu, Kec. Sumalata, Kabupaten Gorontalo Utara",GORONTALO,96254.0,Indonesia,,,,0.9795763,122.506625,https://maps.google.com/?cid=0x0:0x46fa2088f3e8ebbe,
perumahan,Komplek perumahan,"Sigaso, Kecamatan Atinggola,Gorut","WFGR+4R2, Dusun, Tahele, Kec. Sumalata, Kabupaten Gorontalo Utara, Gorontalo","Kabupaten Gorontalo Utara, Gorontalo",GORONTALO,,Indonesia,,,,0.9252647,122.4920088,https://maps.google.com/?cid=0x0:0x46de5a54a9c67f15,
perumahan,Komplek perumahan,Rumah Li Cika,"WHWQ+PHG, Deme I, Kec. Sumalata, Kabupaten Gorontalo Utara, Gorontalo 96254","Deme I, Kec. Sumalata, Kabupaten Gorontalo Utara",GORONTALO,96254.0,Indonesia,,,,0.9463758,122.5888043,https://maps.google.com/?cid=0x0:0x110e00962a8e976c,
perumahan,Komplek perumahan,PERUMAHAN GRAHA MISFALAH,"H387+77P, Jl. Arif Rahman Hakim, Pulubala, Kec. Kota Tengah, Kota Gorontalo, Gorontalo 96128","Jl. Arif Rahman Hakim, Pulubala, Kec. Kota Tengah, Kota Gorontalo",GORONTALO,96128.0,Indonesia,,,,0.5657027,123.0631979,https://maps.google.com/?cid=0x0:0xce9eb356d19ddf56,
perumahan,Komplek perumahan,Perum Misfalah,"Jl. Perumahan Misfalah Rasaindo Blok N no 8, Pulubala, Kec. Kota Tengah, Kota Gorontalo, Gorontalo 96128","Pulubala, Kec. Kota Tengah, Kota Gorontalo",GORONTALO,96128.0,Indonesia,,,,0.5639143,123.0664263,https://maps.google.com/?cid=0x0:0xbb5ad130300d9196,
perumahan,perumahan,Gorontalo 96254,"Kabupaten Gorontalo Utara, Gorontalo","Kabupaten Gorontalo Utara, Gorontalo",GORONTALO,,Indonesia,,,,0.926195,122.4014193,https://maps.google.com/?cid=0x0:0x9a29fb0ff347278,
perumahan,Pusat Kesehatan Masyarakat,Perumahan Dinas dokter PKM Sumalata,"XCJF+VW7, Jl. Buol - Gorontalo, Bulontio Tim., Kec. Sumalata, Kabupaten Gorontalo Utara, Gorontalo 96254","Jl. Buol - Gorontalo, Bulontio Tim., Kec. Sumalata, Kabupaten Gorontalo Utara",GORONTALO,96254.0,Indonesia,,,,0.9821674,122.4248114,https://maps.google.com/?cid=0x0:0xac47f9bdf533d314,
perumahan,Komplek perumahan,Rumah HAYUN L. BILALIYA,"XCVP+74P, Jl. Buol - Gorontalo, Bulontio Tim., Kec. Sumalata, Kabupaten Gorontalo Utara, Gorontalo 96254","Jl. Buol - Gorontalo, Bulontio Tim., Kec. Sumalata, Kabupaten Gorontalo Utara",GORONTALO,96254.0,Indonesia,,,,0.9934844,122.4351178,https://maps.google.com/?cid=0x0:0x151799df0c0465cd,
perumahan,Pembangunan Perumahan,Transmigrasi motihelumo,"WGWW+JFC, Jl. Buol - Gorontalo, Deme II, Kec. Sumalata, Kabupaten Gorontalo Utara, Gorontalo 96254","Jl. Buol - Gorontalo, Deme II, Kec. Sumalata, Kabupaten Gorontalo Utara",GORONTALO,96254.0,Indonesia,82291782978.0,,,0.9465617,122.5461438,https://maps.google.com/?cid=0x0:0x4223c0a73506ba3b,
perumahan,Pembangunan Perumahan,Rumah opa,"X9MR+628, Bulontio Bar., Kec. Sumalata, Kabupaten Gorontalo Utara, Gorontalo 96254","Bulontio Bar., Kec. Sumalata, Kabupaten Gorontalo Utara",GORONTALO,96254.0,Indonesia,,,,0.9830261,122.3900901,https://maps.google.com/?cid=0x0:0xf60b198dd35763bb,
perumahan,Komplek perumahan,Dusun Limututu,"XCGH+CQ, Bulontio Tim., Kec. Sumalata, Kabupaten Gorontalo Utara, Gorontalo","Kabupaten Gorontalo Utara, Gorontalo",GORONTALO,,Indonesia,,,,0.9763819,122.4297383,https://maps.google.com/?cid=0x0:0x66179e21f63b0af6,
perumahan,Pembangunan Perumahan,Rumah Noldi Gesa,"XCGH+CQ, Bulontio Tim., Kec. Sumalata, Kabupaten Gorontalo Utara, Gorontalo","Kabupaten Gorontalo Utara, Gorontalo",GORONTALO,,Indonesia,,,,0.9761102,122.4294318,https://maps.google.com/?cid=0x0:0xd3501669f9d3129a,
perumahan,Kantor Hubungan Masyarakat,Desa Buloila,"X7XG+9H5, Bulontio - Tolinggula, Buloila, Kec. Sumalata, Kabupaten Gorontalo Utara, Gorontalo 96254","Bulontio - Tolinggula, Buloila, Kec. Sumalata, Kabupaten Gorontalo Utara",GORONTALO,96254.0,Indonesia,,,,0.9983988,122.2764956,https://maps.google.com/?cid=0x0:0xe949ef765c8834fa,
perumahan,Komplek perumahan,Balabatu,"2F42+4JR, Bulontio Tim., Kec. Sumalata, Kabupaten Gorontalo Utara, Gorontalo 96254","Bulontio Tim., Kec. Sumalata, Kabupaten Gorontalo Utara",GORONTALO,96254.0,Indonesia,,,,1.0053625,122.4515156,https://maps.google.com/?cid=0x0:0x9cd33d6b7f2c070d,
perumahan,Komplek perumahan,Rumah Rezka,"XCM9+9R7, Bulontio Tim., Kec. Sumalata, Kabupaten Gorontalo Utara, Gorontalo 96254","Bulontio Tim., Kec. Sumalata, Kabupaten Gorontalo Utara",GORONTALO,96254.0,Indonesia,,,,0.9834199,122.4195325,https://maps.google.com/?cid=0x0:0x30231ab23cdaad6d,
perumahan,Komplek perumahan,Perumahan Guru,"WHC8+56M, Dulukapa, Kec. Sumalata, Kabupaten Gorontalo Utara, Gorontalo 96254","Dulukapa, Kec. Sumalata, Kabupaten Gorontalo Utara",GORONTALO,96254.0,Indonesia,,,,0.920468,122.5655549,https://maps.google.com/?cid=0x0:0x4451883e4f0f7b8a,
perumahan,Komplek perumahan,Yayat pe rumah,"272H+92F, Buloila, Kec. Sumalata, Kabupaten Gorontalo Utara, Gorontalo 96254","Buloila, Kec. Sumalata, Kabupaten Gorontalo Utara",GORONTALO,96254.0,Indonesia,,,,1.0010936,122.2775692,https://maps.google.com/?cid=0x0:0x36ca27508e23fef4,
perumahan,Komplek perumahan,karinaaaaa,"XCQ9+H92, Bulontio Tim., Kec. Sumalata, Kabupaten Gorontalo Utara, Gorontalo 96254","Bulontio Tim., Kec. Sumalata, Kabupaten Gorontalo Utara",GORONTALO,96254.0,Indonesia,,,,0.988896,122.4183822,https://maps.google.com/?cid=0x0:0x1915bd6ea64cb0e3,
perumahan,perumahan,Wahyu Pratama,"XCHG+W89, Bulontio Tim., Kec. Sumalata, Kabupaten Gorontalo Utara, Gorontalo","Kabupaten Gorontalo Utara, Gorontalo",GORONTALO,,Indonesia,,,,0.9797954,122.425871,https://maps.google.com/?cid=0x0:0xa6182e40b2b6e47e,
perumahan,Pembangunan Perumahan,UPT Motihelumo,"WHX6+84, Dulukapa, Kec. Sumalata, Kabupaten Gorontalo Utara, Gorontalo","Kabupaten Gorontalo Utara, Gorontalo",GORONTALO,,Indonesia,,,,0.9472661,122.5486873,https://maps.google.com/?cid=0x0:0x1b1d50e1bb732779,
perumahan,perumahan,Ahmad Wasami,"XGH4+RJM, Buladu, Kec. Sumalata, Kabupaten Gorontalo Utara, Gorontalo 96254","Buladu, Kec. Sumalata, Kabupaten Gorontalo Utara",GORONTALO,96254.0,Indonesia,,,,0.9795763,122.506625,https://maps.google.com/?cid=0x0:0x46fa2088f3e8ebbe,
perumahan,Komplek perumahan,Rumah Oma Ismi,"272H+62M, Buloila, Kec. Sumalata, Kabupaten Gorontalo Utara, Gorontalo","Kabupaten Gorontalo Utara, Gorontalo",GORONTALO,,Indonesia,,,,1.000579,122.2775456,https://maps.google.com/?cid=0x0:0x56d1a0677f7b1c93,
perumahan,Komplek perumahan,Lorong popaya,"WCRF+VJ8, Bulontio Tim., Kec. Sumalata, Kabupaten Gorontalo Utara, Gorontalo","Kabupaten Gorontalo Utara, Gorontalo",GORONTALO,,Indonesia,,,,0.9421513,122.424074,https://maps.google.com/?cid=0x0:0xa558b7a334841006,
perumahan,Perhimpunan Pengembang Perumahan,Mastin Mobilingo,"X79G+2RP, Buloila, Kec. Sumalata, Kabupaten Gorontalo Utara, Gorontalo","Kabupaten Gorontalo Utara, Gorontalo",GORONTALO,,Indonesia,,,,0.9675897,122.2770847,https://maps.google.com/?cid=0x0:0xef2f4833feccf7d6,
perumahan,perumahan,Rumah Kel.Toana,"XH2P+W9, Dulukapa, Kec. Sumalata, Kabupaten Gorontalo Utara, Gorontalo","Kabupaten Gorontalo Utara, Gorontalo",GORONTALO,,Indonesia,,,,0.9517331,122.5858777,https://maps.google.com/?cid=0x0:0xca6e968f1096b98f,
perumahan,Perhimpunan Pengembang Perumahan,Perumahan Paramedis PKM Sumalata,"XCMC+5VV, Bulontio Tim., Kec. Sumalata, Kabupaten Gorontalo Utara, Gorontalo 96254","Bulontio Tim., Kec. Sumalata, Kabupaten Gorontalo Utara",GORONTALO,96254.0,Indonesia,,,,0.982991,122.4221766,https://maps.google.com/?cid=0x0:0x5e300cedf8c71de1,
perumahan,Perhimpunan Pengembang Perumahan,Griya Baharriyati,"WJV6+5XC, Desa, Koluwoka, Sumalata Timur, Kabupaten Gorontalo Utara, Gorontalo","Kabupaten Gorontalo Utara, Gorontalo",GORONTALO,,Indonesia,82398987895.0,,,0.9429342,122.6123971,https://maps.google.com/?cid=0x0:0x5c853e77881d7f57,
perumahan,Komplek perumahan,"Sigaso, Kecamatan Atinggola,Gorut","WFGR+4R2, Dusun, Tahele, Kec. Sumalata, Kabupaten Gorontalo Utara, Gorontalo","Kabupaten Gorontalo Utara, Gorontalo",GORONTALO,,Indonesia,,,,0.9252647,122.4920088,https://maps.google.com/?cid=0x0:0x46de5a54a9c67f15,
perumahan,Pembangunan Perumahan,Rumah devi,"XCJ9+599, Bulontio Tim., Kec. Sumalata, Kabupaten Gorontalo Utara, Gorontalo 96254","Bulontio Tim., Kec. Sumalata, Kabupaten Gorontalo Utara",GORONTALO,96254.0,Indonesia,,,,0.9804323,122.418519,https://maps.google.com/?cid=0x0:0xcfdb4bd7bb4ccfe8,
perumahan,Komplek perumahan,Tanah Pekarangan Fatrah Ismail,"XCH9+WC3, Bulontio Tim., Kec. Sumalata, Kabupaten Gorontalo Utara, Gorontalo 96254","Bulontio Tim., Kec. Sumalata, Kabupaten Gorontalo Utara",GORONTALO,96254.0,Indonesia,8124498437.0,,,0.9797937,122.418433,https://maps.google.com/?cid=0x0:0xcead84636435f50c,
perumahan,perumahan,Gorontalo 96524,"Kec. Tolinggula, Kabupaten Gorontalo Utara, Gorontalo","Kabupaten Gorontalo Utara, Gorontalo",GORONTALO,,Indonesia,,,,0.9280512,122.2200065,https://maps.google.com/?cid=0x0:0xd3efad24a9000eb8,
perumahan,Komplek perumahan,Complex Perumahan,"X4XR+WCQ, Ilotunggula, Kec. Tolinggula, Kabupaten Gorontalo Utara, Gorontalo 96524","Ilotunggula, Kec. Tolinggula, Kabupaten Gorontalo Utara",GORONTALO,96524.0,Indonesia,,,,0.9998386,122.1411224,https://maps.google.com/?cid=0x0:0xa825ae2f7d5a310d,
perumahan,Komplek perumahan,Rumah Li tika,"X6RC+CQF, Windu, Kec. Tolinggula, Kabupaten Gorontalo Utara, Gorontalo 96524","Windu, Kec. Tolinggula, Kabupaten Gorontalo Utara",GORONTALO,96524.0,Indonesia,,,,0.9907251,122.2226828,https://maps.google.com/?cid=0x0:0x65a558eb5a28416a,
perumahan,Komplek perumahan,Rumah eddy,"X6VG+3RX, Windu, Kec. Tolinggula, Kabupaten Gorontalo Utara, Gorontalo 96524","Windu, Kec. Tolinggula, Kabupaten Gorontalo Utara",GORONTALO,96524.0,Indonesia,,,,0.9927418,122.2271242,https://maps.google.com/?cid=0x0:0x19ded45509d92db7,
perumahan,Komplek perumahan,Rumah Keluarga Iswan Salihi,"2552+C9, Mulangato, Kec. Tolinggula, Kabupaten Gorontalo Utara, Gorontalo","Kabupaten Gorontalo Utara, Gorontalo",GORONTALO,,Indonesia,,,,1.0085625,122.1509375,https://maps.google.com/?cid=0x0:0xe9e7f3f56bb6c660,
perumahan,perumahan,Tolinggula desa limbato,"X6P8+9WJ, Biawu, Kec. Tolinggula, Kabupaten Gorontalo Utara, Gorontalo","Kabupaten Gorontalo Utara, Gorontalo",GORONTALO,,Indonesia,,,,0.9859734,122.2172794,https://maps.google.com/?cid=0x0:0xf014269aac2f60e0,
perumahan,Komplek perumahan,Rumah iton,"X5X9+2HV, Tolinggula Tengah, Kec. Tolinggula, Kabupaten Gorontalo Utara, Gorontalo","Kabupaten Gorontalo Utara, Gorontalo",GORONTALO,,Indonesia,,,,0.9976203,122.1689284,https://maps.google.com/?cid=0x0:0x94f444310e07ba1a,
perumahan,Komplek perumahan,Rumah Qukisi,"Jl. Buol - Gorontalo, Didingga, Kec. Tolinggula, Kabupaten Gorontalo Utara, Gorontalo 96524","Didingga, Kec. Tolinggula, Kabupaten Gorontalo Utara",GORONTALO,96524.0,Indonesia,,,,0.9750875,122.2177802,https://maps.google.com/?cid=0x0:0x9c54bc9ec29ff091,
perumahan,Pembangunan Perumahan,Rumah Mama Indah Djuna,"2588+6QC, Jl. Buol - Gorontalo, Umu, Kec. Tolinggula, Kabupaten Gorontalo Utara, Gorontalo 94568","Jl. Buol - Gorontalo, Umu, Kec. Tolinggula, Kabupaten Gorontalo Utara",GORONTALO,94568.0,Indonesia,,,,1.015878,122.1667289,https://maps.google.com/?cid=0x0:0x323bacc814694b67,
perumahan,Pembangunan Perumahan,KECAMATAN TOLINGGULA,"25F4+CM4, Umu, Kec. Tolinggula, Kabupaten Gorontalo Utara, Gorontalo","Kabupaten Gorontalo Utara, Gorontalo",GORONTALO,,Indonesia,,,,1.0235043,122.1566877,https://maps.google.com/?cid=0x0:0xcd048b35576e71f5,
perumahan,Komplek perumahan,Family Harun,"2564+Q9X, Mulangato, Kec. Tolinggula, Kabupaten Gorontalo Utara, Gorontalo 94568","Mulangato, Kec. Tolinggula, Kabupaten Gorontalo Utara",GORONTALO,94568.0,Indonesia,,,,1.012008,122.1560122,https://maps.google.com/?cid=0x0:0x777828009df4b4af,
perumahan,Kantor Hubungan Masyarakat,Desa Buloila,"X7XG+9H5, Bulontio - Tolinggula, Buloila, Kec. Sumalata, Kabupaten Gorontalo Utara, Gorontalo 96254","Bulontio - Tolinggula, Buloila, Kec. Sumalata, Kabupaten Gorontalo Utara",GORONTALO,96254.0,Indonesia,,,,0.9983988,122.2764956,https://maps.google.com/?cid=0x0:0xe949ef765c8834fa,
perumahan,Komplek perumahan,Srii,"2552+5QC, Tolinggula Ulu, Kec. Tolinggula, Kabupaten Gorontalo Utara, Gorontalo 94568","Tolinggula Ulu, Kec. Tolinggula, Kabupaten Gorontalo Utara",GORONTALO,94568.0,Indonesia,,,,1.0078963,122.1518858,https://maps.google.com/?cid=0x0:0x3b1ebddf32ebd373,
perumahan,Komplek perumahan,Rumah Ridwan yusup,"254R+6M2, Molangga, Kec. Tolinggula, Kabupaten Gorontalo Utara, Gorontalo 96524","Molangga, Kec. Tolinggula, Kabupaten Gorontalo Utara",GORONTALO,96524.0,Indonesia,,,,1.0055019,122.1916328,https://maps.google.com/?cid=0x0:0x733c6a2a4a479208,
perumahan,Pembangunan Perumahan,Rumah Inonk Monoarfa,"257F+3WX, Tolinggula Tengah, Paleleh, Kabupaten Gorontalo Utara, Gorontalo","Kabupaten Gorontalo Utara, Gorontalo",GORONTALO,,Indonesia,,,,1.0127343,122.1748496,https://maps.google.com/?cid=0x0:0x5a7548538a5de5a6,
perumahan,Komplek perumahan,Rumah hindun,"X6M5+7VQ, Biawu, Kec. Tolinggula, Kabupaten Gorontalo Utara, Gorontalo 96524","Biawu, Kec. Tolinggula, Kabupaten Gorontalo Utara",GORONTALO,96524.0,Indonesia,,,,0.9832016,122.2097401,https://maps.google.com/?cid=0x0:0x5119e153bf011293,
perumahan,Komplek perumahan,Dandi,"X6RJ+V6Q, Windu, Kec. Tolinggula, Kabupaten Gorontalo Utara, Gorontalo 96524","Windu, Kec. Tolinggula, Kabupaten Gorontalo Utara",GORONTALO,96524.0,Indonesia,,,,0.9922125,122.2306094,https://maps.google.com/?cid=0x0:0x79d0efe612f08b99,
perumahan,perumahan,Rumah indra,"X5GR+PFC, Potanga, Kec. Tolinggula, Kabupaten Gorontalo Utara, Gorontalo","Kabupaten Gorontalo Utara, Gorontalo",GORONTALO,,Indonesia,,,,0.9762385,122.1917971,https://maps.google.com/?cid=0x0:0xe85f3d4464408f64,
perumahan,Komplek perumahan,Rumah Mempelai Wanita,"X6P8+9WJ, Biawu, Kec. Tolinggula, Kabupaten Gorontalo Utara, Gorontalo","Kabupaten Gorontalo Utara, Gorontalo",GORONTALO,,Indonesia,,,,0.9859734,122.2172794,https://maps.google.com/?cid=0x0:0xe13b01199e15311e,
perumahan,Pembangunan Perumahan,Rumah Twins,"X6P8+CV7, Ilomangga, Kec. Tolinggula, Kabupaten Gorontalo Utara, Gorontalo","Kabupaten Gorontalo Utara, Gorontalo",GORONTALO,,Indonesia,,,,0.9860354,122.2171673,https://maps.google.com/?cid=0x0:0x9b03dea91347ac02,
perumahan,Komplek perumahan,Rumah Tandri,"X6RJ+V6Q, Windu, Kec. Tolinggula, Kabupaten Gorontalo Utara, Gorontalo 96524","Windu, Kec. Tolinggula, Kabupaten Gorontalo Utara",GORONTALO,96524.0,Indonesia,82348795992.0,,,0.9922155,122.2306003,https://maps.google.com/?cid=0x0:0x459839a26955e450,
perumahan,Komplek perumahan,Rumah Rahim - Mokodompit,"X6RJ+V6Q, Windu, Kec. Tolinggula, Kabupaten Gorontalo Utara, Gorontalo 96524","Windu, Kec. Tolinggula, Kabupaten Gorontalo Utara",GORONTALO,96524.0,Indonesia,,,,0.9915307,122.2305497,https://maps.google.com/?cid=0x0:0x319f4889e161952e,
perumahan,Komplek perumahan,Intan nur ain karim,"X4JM+MWX, Tolinggula Ulu, Kec. Tolinggula, Kabupaten Gorontalo Utara, Gorontalo 96524","Tolinggula Ulu, Kec. Tolinggula, Kabupaten Gorontalo Utara",GORONTALO,96524.0,Indonesia,,,,0.9817282,122.1348629,https://maps.google.com/?cid=0x0:0x4041f62d36ff5f5d,
perumahan,perumahan,Gorontalo 96252,"Kec. Kwandang, Kabupaten Gorontalo Utara, Gorontalo","Kabupaten Gorontalo Utara, Gorontalo",GORONTALO,,Indonesia,,,,0.8083426,122.9212265,https://maps.google.com/?cid=0x0:0x8516fb933d27785f,
perumahan,Kantor Perusahaan,Kantor Desa Molingkapoto Selatan,"QVM9+CMR, Molingkapoto, Kec. Kwandang, Kabupaten Gorontalo Utara, Gorontalo 96252","Molingkapoto, Kec. Kwandang, Kabupaten Gorontalo Utara",GORONTALO,96252.0,Indonesia,,,,0.7836178,122.8691559,https://maps.google.com/?cid=0x0:0x5df690a1cbc5db3,
perumahan,Kantor Pemda,KANTOR DESA LEYAO KECAMATAN TOMILITO,"VXC6+964, Unnamed Road, Dambalo, Kec. Kwandang, Kabupaten Gorontalo Utara, Gorontalo 96252","Unnamed Road, Dambalo, Kec. Kwandang, Kabupaten Gorontalo Utara",GORONTALO,96252.0,Indonesia,,,,0.870876,122.960577,https://maps.google.com/?cid=0x0:0xa94fc8c00e97954f,
