Category,Real Category,Business Name,Address,City,State,Postal Code,Country,Phone,Latitude,Longitude,Map Link
cafe,cafe,Papua 99352,"Kabupaten Jayapura, Papua","Kabupaten Jayapura, Papua",PAPUA,,Indonesia,,-2.5683577,140.4618316,https://maps.google.com/?cid=0x0:0xc4bf3fc2f14cfb38
cafe,Kedai Kopi,Kopi Indonesia,"Jalan Raya Kemiri No.53 Kompleks Lesehan Balaitrans Hinekombe Samping Mal Borobudur, seberang asrama YONIF 751, Hinekombe, Sentani, Jayapura Regency, Papua 99352","seberang asrama YONIF 751, Hinekombe, Sentani, Jayapura Regency",PAPUA,99352.0,Indonesia,82399007893.0,-2.5627575,140.4989291,https://maps.google.com/?cid=0x0:0xc710c59e101466d3
cafe,Kafe,Haven Cafe Sentani,"ex-Bosco Fernandez, Jl. Gereja Silo, Hinekombe, Kec. Sentani, Kabupaten Jayapura, Papua 99352","Jl. Gereja Silo, Hinekombe, Kec. Sentani, Kabupaten Jayapura",PAPUA,99352.0,Indonesia,81248584145.0,-2.562541,140.4948964,https://maps.google.com/?cid=0x0:0xc17715f548083f1c
cafe,Kafe,Kopi Dari Hati  Toast Sentani,"Jl. Raya Kemiri No.27, Hinekombe, Kec. Sentani, Kabupaten Jayapura, Papua 99359","Hinekombe, Kec. Sentani, Kabupaten Jayapura",PAPUA,99359.0,Indonesia,,-2.5656698,140.5184083,https://maps.google.com/?cid=0x0:0x7333618da222757c
cafe,Kafe,Xanorah Coffee,"Jl. Stadion Bola Bas Yauwe, depan Lapangan Karate Shorinji, Sentani Kota, Kec. Sentani, Kabupaten Jayapura, Papua 99352","depan Lapangan Karate Shorinji, Sentani Kota, Kec. Sentani, Kabupaten Jayapura",PAPUA,99352.0,Indonesia,82197790001.0,-2.5702948,140.5231233,https://maps.google.com/?cid=0x0:0x68608ffa73092001
cafe,Kafe,Trans Kopi Papua CAFFE (Coffee  Pizza),"Kompleks Ruko Rokim Square No.2, Hinekombe, Kec. Sentani, Kabupaten Jayapura, Papua 99358","Hinekombe, Kec. Sentani, Kabupaten Jayapura",PAPUA,99358.0,Indonesia,81344457444.0,-2.558836,140.4917616,https://maps.google.com/?cid=0x0:0x5e1d46f39c90ce23
cafe,Kafe,PILÃS COFFEE  TEA,"Sentani Kota, Kec. Sentani, Kabupaten Jayapura, Papua 99359","Kec. Sentani, Kabupaten Jayapura",PAPUA,99359.0,Indonesia,82198099060.0,-2.5654578,140.5110624,https://maps.google.com/?cid=0x0:0x20dd8819ef5fd6be
cafe,cafe,Cafe Appolo Sentani,"CFQV+PJV, Hinekombe, Kec. Sentani, Kabupaten Jayapura, Papua","Kabupaten Jayapura, Papua",PAPUA,,Indonesia,,-2.5606159,140.4940877,https://maps.google.com/?cid=0x0:0xc0b7f02721f9486b
cafe,Kafe,Ana Hobby Shop  Cafe,"Jl. Raya Abepura - Sentani No.545, Hinekombe, Kec. Sentani, Kabupaten Jayapura, Papua 99352","Hinekombe, Kec. Sentani, Kabupaten Jayapura",PAPUA,99352.0,Indonesia,82221286777.0,-2.5632128,140.5026364,https://maps.google.com/?cid=0x0:0xcb34fa180ef9a872
cafe,Kedai Kopi,EndWan Cafe,"CFPX+QMC, Jl. Raya Kemiri, Hinekombe, Kec. Sentani, Kabupaten Jayapura, Papua 99352","Jl. Raya Kemiri, Hinekombe, Kec. Sentani, Kabupaten Jayapura",PAPUA,99352.0,Indonesia,81310744091.0,-2.5630204,140.4991256,https://maps.google.com/?cid=0x0:0x52cd46d5841475b8
cafe,Kafe,Ruangkini Tea Bar,"Jl. Raya Abepura - Sentani, Sentani Kota, Kec. Sentani, Kabupaten Jayapura, Papua 99352","Sentani Kota, Kec. Sentani, Kabupaten Jayapura",PAPUA,99352.0,Indonesia,,-2.5652515,140.5119238,https://maps.google.com/?cid=0x0:0x13524c6c800145a3
cafe,Kafe,Angkasa Cafe,"Depan Gapura Kantor Bupati, Hinekombe, Kec. Sentani, Kabupaten Jayapura, Papua 99352","Hinekombe, Kec. Sentani, Kabupaten Jayapura",PAPUA,99352.0,Indonesia,81333121001.0,-2.5518699,140.476813,https://maps.google.com/?cid=0x0:0xbf971172b3ede4e9
cafe,Kafe,ALLEGROCAFE,"Kompleks ruko origin, Jl. Raya Doyo Baru No.9-10, Doyo Baru, Distrik Waibu, Kabupaten Jayapura, Papua 99352","Jl. Raya Doyo Baru No.9-10, Doyo Baru, Distrik Waibu, Kabupaten Jayapura",PAPUA,99352.0,Indonesia,81296930730.0,-2.5408804,140.46723,https://maps.google.com/?cid=0x0:0xbb9924c5b91a6a0a
cafe,Kedai Kopi,Meet Point Cafe,"samping polres, Jln. Yowanibi waibu, Kec. Sentani, Kabupaten Jayapura, Papua 99352","Jln. Yowanibi waibu, Kec. Sentani, Kabupaten Jayapura",PAPUA,99352.0,Indonesia,85397371157.0,-2.5444872,140.4607577,https://maps.google.com/?cid=0x0:0xa02b3d162126b15e
cafe,cafe,Papua 99359,"Kabupaten Jayapura, Papua","Kabupaten Jayapura, Papua",PAPUA,,Indonesia,,-2.5632464,140.534262,https://maps.google.com/?cid=0x0:0x15522b545274ab16
cafe,Kafe,Cafe Boss,"Sebelah bank panin, Jl. Raya Abepura - Sentani, Kec. Sentani, Papua 99359","Jl. Raya Abepura - Sentani, Kec. Sentani",PAPUA,99359.0,Indonesia,82299990051.0,-2.5667094,140.5198943,https://maps.google.com/?cid=0x0:0xc5a7127e39b8a07f
cafe,Kafe,Kopi Dari Hati  Toast Sentani,"Jl. Raya Kemiri No.27, Hinekombe, Kec. Sentani, Kabupaten Jayapura, Papua 99359","Hinekombe, Kec. Sentani, Kabupaten Jayapura",PAPUA,99359.0,Indonesia,,-2.5656698,140.5184083,https://maps.google.com/?cid=0x0:0x7333618da222757c
cafe,Kafe,PILÃS COFFEE  TEA,"Sentani Kota, Kec. Sentani, Kabupaten Jayapura, Papua 99359","Kec. Sentani, Kabupaten Jayapura",PAPUA,99359.0,Indonesia,82198099060.0,-2.5654578,140.5110624,https://maps.google.com/?cid=0x0:0x20dd8819ef5fd6be
cafe,Mesin Sangrai Kopi,Coffee Papua,"Bandar Udara Sentani Sentani, Sentani Kota, Jayapura, Kabupaten Jayapura, Papua 99359","Sentani Kota, Jayapura, Kabupaten Jayapura",PAPUA,99359.0,Indonesia,82137736227.0,-2.5705187,140.5133363,https://maps.google.com/?cid=0x0:0xe2fdf42ce08ac0ae
cafe,Kafe,Super Custom CaFe,"CGP3+FJF, Hinekombe, Kec. Sentani, Kabupaten Jayapura, Papua 99359","Hinekombe, Kec. Sentani, Kabupaten Jayapura",PAPUA,99359.0,Indonesia,82198238704.0,-2.5638097,140.5040544,https://maps.google.com/?cid=0x0:0x9ea94be6544420c6
cafe,Kafe,CafÃ© Gratia,"CGMC+574, Jl. Pasir, Sentani Kota, Kec. Sentani, Kabupaten Jayapura, Papua 99359","Jl. Pasir, Sentani Kota, Kec. Sentani, Kabupaten Jayapura",PAPUA,99359.0,Indonesia,81247514108.0,-2.567101,140.5207172,https://maps.google.com/?cid=0x0:0xc930271a1efa81d6
cafe,Kafe,Efka Cafe And Resto,"Sentani Kota, Kec. Sentani, Kabupaten Jayapura, Papua 99359","Kec. Sentani, Kabupaten Jayapura",PAPUA,99359.0,Indonesia,82238976336.0,-2.5698561,140.5273596,https://maps.google.com/?cid=0x0:0xcc07bf444f81dec3
cafe,Kedai Kopi,oreo coffee17,"Jl. Pasir, Sentani Kota, Kec. Sentani, Kabupaten Jayapura, Papua 99359","Sentani Kota, Kec. Sentani, Kabupaten Jayapura",PAPUA,99359.0,Indonesia,85342045724.0,-2.5709284,140.5219784,https://maps.google.com/?cid=0x0:0x1aa3f64877d155c6
cafe,Toko Roti,Flavouw Cafe  Buddy Burger,"CGPC+2C2, Jl. Ifar Gn., Sentani Kota, Kec. Sentani, Kabupaten Jayapura, Papua 99359","Jl. Ifar Gn., Sentani Kota, Kec. Sentani, Kabupaten Jayapura",PAPUA,99359.0,Indonesia,81240364286.0,-2.5649762,140.5210037,https://maps.google.com/?cid=0x0:0x74b52879855faad0
cafe,Kedai Kopi,Kopi Indonesia,"Jalan Raya Kemiri No.53 Kompleks Lesehan Balaitrans Hinekombe Samping Mal Borobudur, seberang asrama YONIF 751, Hinekombe, Sentani, Jayapura Regency, Papua 99352","seberang asrama YONIF 751, Hinekombe, Sentani, Jayapura Regency",PAPUA,99352.0,Indonesia,82399007893.0,-2.5627575,140.4989291,https://maps.google.com/?cid=0x0:0xc710c59e101466d3
cafe,Kafe,Xanorah Coffee,"Jl. Stadion Bola Bas Yauwe, depan Lapangan Karate Shorinji, Sentani Kota, Kec. Sentani, Kabupaten Jayapura, Papua 99352","depan Lapangan Karate Shorinji, Sentani Kota, Kec. Sentani, Kabupaten Jayapura",PAPUA,99352.0,Indonesia,82197790001.0,-2.5702948,140.5231233,https://maps.google.com/?cid=0x0:0x68608ffa73092001
cafe,Kedai Kopi,Kedai-19,"Jl. Yahim, Dobonsolo, Kec. Sentani, Kabupaten Jayapura, Papua 99359","Dobonsolo, Kec. Sentani, Kabupaten Jayapura",PAPUA,99359.0,Indonesia,81248087235.0,-2.5762052,140.5046645,https://maps.google.com/?cid=0x0:0xe0094b8ea7d56a5e
cafe,Kafe,D How-G coffee,"Jl. Raya Airport Sentani, Asei Kecil, Kec. Sentani Tim., Kabupaten Jayapura, Papua 99359","Asei Kecil, Kec. Sentani Tim., Kabupaten Jayapura",PAPUA,99359.0,Indonesia,82199591188.0,-2.5849787,140.581891,https://maps.google.com/?cid=0x0:0x1e6b182a5ed10695
cafe,Kedai Kopi,KEDAI NONGKI DEPAPRE,"G9P8+MJ, Waiya, Distrik Depapre, Kabupaten Jayapura, Papua 99353","Waiya, Distrik Depapre, Kabupaten Jayapura",PAPUA,99353.0,Indonesia,82238382670.0,-2.4633218,140.3665198,https://maps.google.com/?cid=0x0:0x90bd7dd362ca06c
cafe,Kedai Kopi,Prana kedai,"Sentani Kota, Kec. Sentani, Kabupaten Jayapura, Papua 99352","Kec. Sentani, Kabupaten Jayapura",PAPUA,99352.0,Indonesia,81243336883.0,-2.5676893,140.5224899,https://maps.google.com/?cid=0x0:0x5d6dfa87fdb0ffb9
cafe,Vila,Cafe  Resto Efata,"Unnamed Road, Doyo Lama, Distrik Waibu, Kabupaten Jayapura, Papua 99352","Doyo Lama, Distrik Waibu, Kabupaten Jayapura",PAPUA,99352.0,Indonesia,81393727460.0,-2.5656718,140.4652682,https://maps.google.com/?cid=0x0:0xdf6899334b660461
cafe,cafe,Papua 99358,"Kabupaten Jayapura, Papua","Kabupaten Jayapura, Papua",PAPUA,,Indonesia,,-2.5423787,140.3894858,https://maps.google.com/?cid=0x0:0xe811437fcb2474bb
cafe,Kafe,Trans Kopi Papua CAFFE (Coffee  Pizza),"Kompleks Ruko Rokim Square No.2, Hinekombe, Kec. Sentani, Kabupaten Jayapura, Papua 99358","Hinekombe, Kec. Sentani, Kabupaten Jayapura",PAPUA,99358.0,Indonesia,81344457444.0,-2.558836,140.4917616,https://maps.google.com/?cid=0x0:0x5e1d46f39c90ce23
cafe,Kafe,Haven Cafe Sentani,"ex-Bosco Fernandez, Jl. Gereja Silo, Hinekombe, Kec. Sentani, Kabupaten Jayapura, Papua 99352","Jl. Gereja Silo, Hinekombe, Kec. Sentani, Kabupaten Jayapura",PAPUA,99352.0,Indonesia,81248584145.0,-2.562541,140.4948964,https://maps.google.com/?cid=0x0:0xc17715f548083f1c
cafe,Mesin Sangrai Kopi,Coffee Papua,"Bandar Udara Sentani Sentani, Sentani Kota, Jayapura, Kabupaten Jayapura, Papua 99359","Sentani Kota, Jayapura, Kabupaten Jayapura",PAPUA,99359.0,Indonesia,82137736227.0,-2.5705187,140.5133363,https://maps.google.com/?cid=0x0:0xe2fdf42ce08ac0ae
cafe,Kedai Kopi,Meet Point Cafe,"samping polres, Jln. Yowanibi waibu, Kec. Sentani, Kabupaten Jayapura, Papua 99352","Jln. Yowanibi waibu, Kec. Sentani, Kabupaten Jayapura",PAPUA,99352.0,Indonesia,85397371157.0,-2.5444872,140.4607577,https://maps.google.com/?cid=0x0:0xa02b3d162126b15e
cafe,Kafe,Cafe Boss,"Sebelah bank panin, Jl. Raya Abepura - Sentani, Kec. Sentani, Papua 99359","Jl. Raya Abepura - Sentani, Kec. Sentani",PAPUA,99359.0,Indonesia,82299990051.0,-2.5667094,140.5198943,https://maps.google.com/?cid=0x0:0xc5a7127e39b8a07f
cafe,Kafe,Angkasa Cafe,"Depan Gapura Kantor Bupati, Hinekombe, Kec. Sentani, Kabupaten Jayapura, Papua 99352","Hinekombe, Kec. Sentani, Kabupaten Jayapura",PAPUA,99352.0,Indonesia,81333121001.0,-2.5518699,140.476813,https://maps.google.com/?cid=0x0:0xbf971172b3ede4e9
cafe,Kedai Kopi,Kopi Indonesia,"Jalan Raya Kemiri No.53 Kompleks Lesehan Balaitrans Hinekombe Samping Mal Borobudur, seberang asrama YONIF 751, Hinekombe, Sentani, Jayapura Regency, Papua 99352","seberang asrama YONIF 751, Hinekombe, Sentani, Jayapura Regency",PAPUA,99352.0,Indonesia,82399007893.0,-2.5627575,140.4989291,https://maps.google.com/?cid=0x0:0xc710c59e101466d3
cafe,Kafe,PILÃS COFFEE  TEA,"Sentani Kota, Kec. Sentani, Kabupaten Jayapura, Papua 99359","Kec. Sentani, Kabupaten Jayapura",PAPUA,99359.0,Indonesia,82198099060.0,-2.5654578,140.5110624,https://maps.google.com/?cid=0x0:0x20dd8819ef5fd6be
cafe,Kedai Kopi,Kopi Cerita,"Griya Marwah Indah 2, Kec. Sentani, Kabupaten Jayapura, Papua 99359","Kec. Sentani, Kabupaten Jayapura",PAPUA,99359.0,Indonesia,,-2.5781368,140.4981061,https://maps.google.com/?cid=0x0:0xb80396d6d0f0482f
cafe,Kafe,Ana Hobby Shop  Cafe,"Jl. Raya Abepura - Sentani No.545, Hinekombe, Kec. Sentani, Kabupaten Jayapura, Papua 99352","Hinekombe, Kec. Sentani, Kabupaten Jayapura",PAPUA,99352.0,Indonesia,82221286777.0,-2.5632128,140.5026364,https://maps.google.com/?cid=0x0:0xcb34fa180ef9a872
cafe,Kedai Kopi,SACoffee08,"CFGX+PCF, Dobonsolo, Kec. Sentani, Kabupaten Jayapura, Papua 99359","Dobonsolo, Kec. Sentani, Kabupaten Jayapura",PAPUA,99359.0,Indonesia,81322605637.0,-2.5731765,140.4985595,https://maps.google.com/?cid=0x0:0x215feffdcc05f3dc
cafe,Kedai Kopi,EndWan Cafe,"CFPX+QMC, Jl. Raya Kemiri, Hinekombe, Kec. Sentani, Kabupaten Jayapura, Papua 99352","Jl. Raya Kemiri, Hinekombe, Kec. Sentani, Kabupaten Jayapura",PAPUA,99352.0,Indonesia,81310744091.0,-2.5630204,140.4991256,https://maps.google.com/?cid=0x0:0x52cd46d5841475b8
cafe,cafe,Papua 99357,"Kabupaten Jayapura, Papua","Kabupaten Jayapura, Papua",PAPUA,,Indonesia,,-2.7850607,140.2244429,https://maps.google.com/?cid=0x0:0x37d7dde7ca57ffbb
cafe,Kafe,Trans Kopi Papua CAFFE (Coffee  Pizza),"Kompleks Ruko Rokim Square No.2, Hinekombe, Kec. Sentani, Kabupaten Jayapura, Papua 99358","Hinekombe, Kec. Sentani, Kabupaten Jayapura",PAPUA,99358.0,Indonesia,81344457444.0,-2.558836,140.4917616,https://maps.google.com/?cid=0x0:0x5e1d46f39c90ce23
cafe,Kedai Kopi,Kopi Kemtuk,"Kampung, Kabupaten Jayapura, Papua 99235",Kabupaten Jayapura,PAPUA,99235.0,Indonesia,82197963965.0,-2.866667,140.2,https://maps.google.com/?cid=0x0:0x1bb00a476b7aa330
cafe,Vila,Cafe  Resto Efata,"Unnamed Road, Doyo Lama, Distrik Waibu, Kabupaten Jayapura, Papua 99352","Doyo Lama, Distrik Waibu, Kabupaten Jayapura",PAPUA,99352.0,Indonesia,81393727460.0,-2.5656718,140.4652682,https://maps.google.com/?cid=0x0:0xdf6899334b660461
cafe,Kafe,Saanjh Cafe,"CJ2G+C7W, Jl. Gelanggang Remaja, Waena, Kec. Heram, Kota Jayapura, Papua 99351","Jl. Gelanggang Remaja, Waena, Kec. Heram, Kota Jayapura",PAPUA,99351.0,Indonesia,,-2.5988941,140.6256974,https://maps.google.com/?cid=0x0:0xf472b389c2309050
cafe,Kedai Kopi,Magic Cafe,"Magic Coffee, Hinekombe, Sentani, Jayapura Regency, Papua","Kabupaten Jayapura, Papua",PAPUA,,Indonesia,85325297604.0,-2.5648168,140.5056744,https://maps.google.com/?cid=0x0:0x16ae9acb6acf51e0
cafe,Minimarket,Ungkea Jungle Resto,"CF56+4G7, Unnamed Road, Kwadeware, Distrik Waibu, Kabupaten Jayapura, Papua 99352","Unnamed Road, Kwadeware, Distrik Waibu, Kabupaten Jayapura",PAPUA,99352.0,Indonesia,,-2.5922109,140.4613058,https://maps.google.com/?cid=0x0:0x9c4fd24964775d4f
cafe,Kafe,Haven Cafe Sentani,"ex-Bosco Fernandez, Jl. Gereja Silo, Hinekombe, Kec. Sentani, Kabupaten Jayapura, Papua 99352","Jl. Gereja Silo, Hinekombe, Kec. Sentani, Kabupaten Jayapura",PAPUA,99352.0,Indonesia,81248584145.0,-2.562541,140.4948964,https://maps.google.com/?cid=0x0:0xc17715f548083f1c
cafe,Kafe,Super Custom CaFe,"CGP3+FJF, Hinekombe, Kec. Sentani, Kabupaten Jayapura, Papua 99359","Hinekombe, Kec. Sentani, Kabupaten Jayapura",PAPUA,99359.0,Indonesia,82198238704.0,-2.5638097,140.5040544,https://maps.google.com/?cid=0x0:0x9ea94be6544420c6
cafe,Kafe,Ogek coffie,"FF37+PCQ, Doyo Baru, Distrik Waibu, Kabupaten Jayapura, Papua 99352","Doyo Baru, Distrik Waibu, Kabupaten Jayapura",PAPUA,99352.0,Indonesia,81222367266.0,-2.5456744,140.4636095,https://maps.google.com/?cid=0x0:0xb573ab167b6ab278
cafe,Kedai Kopi,Guten morgen Cafe,"CGJ7+23J, Sentani Kota, Kec. Sentani, Kabupaten Jayapura, Papua 99359","Sentani Kota, Kec. Sentani, Kabupaten Jayapura",PAPUA,99359.0,Indonesia,,-2.5699222,140.5126527,https://maps.google.com/?cid=0x0:0x53b477e30d79de49
cafe,Kedai Kopi,EndWan Cafe,"CFPX+QMC, Jl. Raya Kemiri, Hinekombe, Kec. Sentani, Kabupaten Jayapura, Papua 99352","Jl. Raya Kemiri, Hinekombe, Kec. Sentani, Kabupaten Jayapura",PAPUA,99352.0,Indonesia,81310744091.0,-2.5630204,140.4991256,https://maps.google.com/?cid=0x0:0x52cd46d5841475b8
cafe,Kedai Kopi,Meet Point Cafe,"samping polres, Jln. Yowanibi waibu, Kec. Sentani, Kabupaten Jayapura, Papua 99352","Jln. Yowanibi waibu, Kec. Sentani, Kabupaten Jayapura",PAPUA,99352.0,Indonesia,85397371157.0,-2.5444872,140.4607577,https://maps.google.com/?cid=0x0:0xa02b3d162126b15e
cafe,Kompleks Apartemen,YOTUKURU JAYA,"C9CW+W27, Yakonde, Distrik Waibu, Kabupaten Jayapura, Papua 99358","Yakonde, Distrik Waibu, Kabupaten Jayapura",PAPUA,99358.0,Indonesia,,-2.5777092,140.3950358,https://maps.google.com/?cid=0x0:0x198efe1b5e85a424
cafe,cafe,Papua 99357,"Kabupaten Jayapura, Papua","Kabupaten Jayapura, Papua",PAPUA,,Indonesia,,-2.7850607,140.2244429,https://maps.google.com/?cid=0x0:0x37d7dde7ca57ffbb
cafe,Kafe,Trans Kopi Papua CAFFE (Coffee  Pizza),"Kompleks Ruko Rokim Square No.2, Hinekombe, Kec. Sentani, Kabupaten Jayapura, Papua 99358","Hinekombe, Kec. Sentani, Kabupaten Jayapura",PAPUA,99358.0,Indonesia,81344457444.0,-2.558836,140.4917616,https://maps.google.com/?cid=0x0:0x5e1d46f39c90ce23
cafe,Kedai Kopi,YAKEBEU KOPI PAPUA,"Kampung yanbra, Kabupaten Jayapura, Papua 99352",Kabupaten Jayapura,PAPUA,99352.0,Indonesia,82197963965.0,-2.646943,140.2630977,https://maps.google.com/?cid=0x0:0xdb5111c105e9d778
cafe,Kedai Kopi,Magic Cafe,"Magic Coffee, Hinekombe, Sentani, Jayapura Regency, Papua","Kabupaten Jayapura, Papua",PAPUA,,Indonesia,85325297604.0,-2.5648168,140.5056744,https://maps.google.com/?cid=0x0:0x16ae9acb6acf51e0
cafe,Vila,Cafe  Resto Efata,"Unnamed Road, Doyo Lama, Distrik Waibu, Kabupaten Jayapura, Papua 99352","Doyo Lama, Distrik Waibu, Kabupaten Jayapura",PAPUA,99352.0,Indonesia,81393727460.0,-2.5656718,140.4652682,https://maps.google.com/?cid=0x0:0xdf6899334b660461
cafe,Kafe,Super Custom CaFe,"CGP3+FJF, Hinekombe, Kec. Sentani, Kabupaten Jayapura, Papua 99359","Hinekombe, Kec. Sentani, Kabupaten Jayapura",PAPUA,99359.0,Indonesia,82198238704.0,-2.5638097,140.5040544,https://maps.google.com/?cid=0x0:0x9ea94be6544420c6
cafe,Kafe,Tana Papua Coffee and Roastery,"Jl. Raya Abepura, Vim, Kec. Abepura, Kota Jayapura, Papua 99220","Vim, Kec. Abepura, Kota Jayapura",PAPUA,99220.0,Indonesia,82175416609.0,-2.6047712,140.6727079,https://maps.google.com/?cid=0x0:0x747c727d4b94ebf6
cafe,Kafe,Haven Cafe Sentani,"ex-Bosco Fernandez, Jl. Gereja Silo, Hinekombe, Kec. Sentani, Kabupaten Jayapura, Papua 99352","Jl. Gereja Silo, Hinekombe, Kec. Sentani, Kabupaten Jayapura",PAPUA,99352.0,Indonesia,81248584145.0,-2.562541,140.4948964,https://maps.google.com/?cid=0x0:0xc17715f548083f1c
cafe,Kafe,Ogek coffie,"FF37+PCQ, Doyo Baru, Distrik Waibu, Kabupaten Jayapura, Papua 99352","Doyo Baru, Distrik Waibu, Kabupaten Jayapura",PAPUA,99352.0,Indonesia,81222367266.0,-2.5456744,140.4636095,https://maps.google.com/?cid=0x0:0xb573ab167b6ab278
cafe,Kafe,PILÃS COFFEE  TEA,"Sentani Kota, Kec. Sentani, Kabupaten Jayapura, Papua 99359","Kec. Sentani, Kabupaten Jayapura",PAPUA,99359.0,Indonesia,82198099060.0,-2.5654578,140.5110624,https://maps.google.com/?cid=0x0:0x20dd8819ef5fd6be
cafe,Minimarket,Ungkea Jungle Resto,"CF56+4G7, Unnamed Road, Kwadeware, Distrik Waibu, Kabupaten Jayapura, Papua 99352","Unnamed Road, Kwadeware, Distrik Waibu, Kabupaten Jayapura",PAPUA,99352.0,Indonesia,,-2.5922109,140.4613058,https://maps.google.com/?cid=0x0:0x9c4fd24964775d4f
cafe,Mesin Sangrai Kopi,Coffee Papua,"Bandar Udara Sentani Sentani, Sentani Kota, Jayapura, Kabupaten Jayapura, Papua 99359","Sentani Kota, Jayapura, Kabupaten Jayapura",PAPUA,99359.0,Indonesia,82137736227.0,-2.5705187,140.5133363,https://maps.google.com/?cid=0x0:0xe2fdf42ce08ac0ae
cafe,Kedai Kopi,Guten morgen Cafe,"CGJ7+23J, Sentani Kota, Kec. Sentani, Kabupaten Jayapura, Papua 99359","Sentani Kota, Kec. Sentani, Kabupaten Jayapura",PAPUA,99359.0,Indonesia,,-2.5699222,140.5126527,https://maps.google.com/?cid=0x0:0x53b477e30d79de49
cafe,Kafe,CAFE MAMI SPESIAL,"FF56+73Q, Doyo Baru, Distrik Waibu, Kabupaten Jayapura, Papua 99352","Doyo Baru, Distrik Waibu, Kabupaten Jayapura",PAPUA,99352.0,Indonesia,85331567983.0,-2.5417855,140.4602307,https://maps.google.com/?cid=0x0:0xb7a6ab0d1f83671b
cafe,cafe,Distrik Nimboran,"Kabupaten Jayapura, Papua","Kabupaten Jayapura, Papua",PAPUA,,Indonesia,,-2.5963423,140.1662573,https://maps.google.com/?cid=0x0:0x1cf39af2b94e731d
cafe,Brunch,CAFE DJOKO,"Jln kenanga No.Blok C, RW.lokasi 400, Benyom Jaya I, Distrik Nimbokrang, Kabupaten Jayapura, Papua 99362","RW.lokasi 400, Benyom Jaya I, Distrik Nimbokrang, Kabupaten Jayapura",PAPUA,99362.0,Indonesia,82248269620.0,-2.5531575,140.1147848,https://maps.google.com/?cid=0x0:0x8a76231faf15270e
cafe,Brunch,Warung Makan JATENG,"C63J+FV2, besum, Karya Bumi, Nimboran Tim. / Namblong, Kabupaten Jayapura, Papua 99361","besum, Karya Bumi, Nimboran Tim. / Namblong, Kabupaten Jayapura",PAPUA,99361.0,Indonesia,,-2.5963502,140.232151,https://maps.google.com/?cid=0x0:0xc97114faab9aad68
cafe,Jawa,Rumah Makan Rini,"C4V6+672 Bank Rakyat Indonesia,.Unit, Bunyom, Nimbokrang, Jayapura Regency, Papua 99361","Bunyom, Nimbokrang, Jayapura Regency",PAPUA,99361.0,Indonesia,,-2.5569948,140.1106389,https://maps.google.com/?cid=0x0:0xced914938608b582
cafe,Restoran,Victor,"C62H+P53, Karya Bumi, Nimboran Tim. / Namblong, Kabupaten Jayapura, Papua 99361","Karya Bumi, Nimboran Tim. / Namblong, Kabupaten Jayapura",PAPUA,99361.0,Indonesia,85269221554.0,-2.5982483,140.2279208,https://maps.google.com/?cid=0x0:0xea0b10c0d49e1356
cafe,Es Krim,Xie Xie Boba Nimbokrang,"Jl. Melati No.Blok E, Benyom Jaya I, Distrik Nimbokrang, Kabupaten Jayapura, Papua 99361","Benyom Jaya I, Distrik Nimbokrang, Kabupaten Jayapura",PAPUA,99361.0,Indonesia,82197826178.0,-2.5491812,140.1073394,https://maps.google.com/?cid=0x0:0x7ddbc1724651b381
cafe,Pangkalan Truk,RM Resta,"F42M+J2V, Unnamed Road,, Nembukrang, Distrik Nimbokrang, Kabupaten Jayapura, Papua 99361","Unnamed Road,, Nembukrang, Distrik Nimbokrang, Kabupaten Jayapura",PAPUA,99361.0,Indonesia,,-2.548386,140.1325496,https://maps.google.com/?cid=0x0:0x9db922cb3c393a1b
cafe,Brunch,Rest Area Nimbokrang,"Jl. Poros Nimbokrang Sarmi, Nimbokrang, Distrik Nimbokrang, Kabupaten Jayapura, Papua 99361","Nimbokrang, Distrik Nimbokrang, Kabupaten Jayapura",PAPUA,99361.0,Indonesia,81221571234.0,-2.5576864,140.1296506,https://maps.google.com/?cid=0x0:0xad02fcbf5181a253
cafe,Makanan Kecil,ANYA COFFEE NIMBOKRANG,"F43M+XQ9, Nembukrang, Distrik Nimbokrang, Kabupaten Jayapura, Papua","Kabupaten Jayapura, Papua",PAPUA,,Indonesia,,-2.5450899,140.1344964,https://maps.google.com/?cid=0x0:0x66672633829c6bab
cafe,cafe,Nimbokrang desa bunyom,"F42M+PM6, Nembukrang, Distrik Nimbokrang, Kabupaten Jayapura, Papua","Kabupaten Jayapura, Papua",PAPUA,,Indonesia,,-2.5482152,140.1341511,https://maps.google.com/?cid=0x0:0x66568211d02a1e82
cafe,Toko bahan makanan,KIOS DYLAN,"C2FQ+MP3, Beneik, Kec. Unurum Guay, Kabupaten Jayapura, Papua 99361","Beneik, Kec. Unurum Guay, Kabupaten Jayapura",PAPUA,99361.0,Indonesia,,-2.5758749,140.0393017,https://maps.google.com/?cid=0x0:0x719ee949ec1d5496
cafe,Brunch,Kedai Kampoeng Rasa,"Jl. Jend. Sudirman No.33 Blok A, Nembukrang, Distrik Nimbokrang, Kabupaten Jayapura, Papua 99361","Nembukrang, Distrik Nimbokrang, Kabupaten Jayapura",PAPUA,99361.0,Indonesia,81223478888.0,-2.5508225,140.1331015,https://maps.google.com/?cid=0x0:0x9026ca9b3624a110
cafe,cafe,Papua 99362,"Kabupaten Jayapura, Papua","Kabupaten Jayapura, Papua",PAPUA,,Indonesia,,-2.4816716,139.998236,https://maps.google.com/?cid=0x0:0x914eb9d0bad553fd
cafe,Brunch,CAFE DJOKO,"Jln kenanga No.Blok C, RW.lokasi 400, Benyom Jaya I, Distrik Nimbokrang, Kabupaten Jayapura, Papua 99362","RW.lokasi 400, Benyom Jaya I, Distrik Nimbokrang, Kabupaten Jayapura",PAPUA,99362.0,Indonesia,82248269620.0,-2.5531575,140.1147848,https://maps.google.com/?cid=0x0:0x8a76231faf15270e
cafe,Restoran,Warung Barokah Nimbokrang,"C4V6+5M5, Bunyom, Distrik Nimbokrang, Kabupaten Jayapura, Papua 99361","Bunyom, Distrik Nimbokrang, Kabupaten Jayapura",PAPUA,99361.0,Indonesia,,-2.5571037,140.1117411,https://maps.google.com/?cid=0x0:0x7217a23e29c50d98
cafe,Brunch,Rest Area Nimbokrang,"Jl. Poros Nimbokrang Sarmi, Nimbokrang, Distrik Nimbokrang, Kabupaten Jayapura, Papua 99361","Nimbokrang, Distrik Nimbokrang, Kabupaten Jayapura",PAPUA,99361.0,Indonesia,81221571234.0,-2.5576864,140.1296506,https://maps.google.com/?cid=0x0:0xad02fcbf5181a253
cafe,Dapur Umum,@dapoerflo,"Nembukrang, Distrik Nimbokrang, Kabupaten Jayapura, Papua 99361","Distrik Nimbokrang, Kabupaten Jayapura",PAPUA,99361.0,Indonesia,,-2.5504447,140.1335651,https://maps.google.com/?cid=0x0:0xefd284367fe47998
cafe,Es Krim,Xie Xie Boba Nimbokrang,"Jl. Melati No.Blok E, Benyom Jaya I, Distrik Nimbokrang, Kabupaten Jayapura, Papua 99361","Benyom Jaya I, Distrik Nimbokrang, Kabupaten Jayapura",PAPUA,99361.0,Indonesia,82197826178.0,-2.5491812,140.1073394,https://maps.google.com/?cid=0x0:0x7ddbc1724651b381
cafe,cafe,Nimbokrang desa bunyom,"F42M+PM6, Nembukrang, Distrik Nimbokrang, Kabupaten Jayapura, Papua","Kabupaten Jayapura, Papua",PAPUA,,Indonesia,,-2.5482152,140.1341511,https://maps.google.com/?cid=0x0:0x66568211d02a1e82
cafe,Makanan Kecil,ANYA COFFEE NIMBOKRANG,"F43M+XQ9, Nembukrang, Distrik Nimbokrang, Kabupaten Jayapura, Papua","Kabupaten Jayapura, Papua",PAPUA,,Indonesia,,-2.5450899,140.1344964,https://maps.google.com/?cid=0x0:0x66672633829c6bab
cafe,Jawa,Rumah Makan Rini,"C4V6+672 Bank Rakyat Indonesia,.Unit, Bunyom, Nimbokrang, Jayapura Regency, Papua 99361","Bunyom, Nimbokrang, Jayapura Regency",PAPUA,99361.0,Indonesia,,-2.5569948,140.1106389,https://maps.google.com/?cid=0x0:0xced914938608b582
cafe,Brunch,Rumah Makan Pada Suka (RM Padang),"C4V6+2PG, Unnamed Road, Bunyom, Nimbokrang, Jayapura Regency, Papua 99361","Unnamed Road, Bunyom, Nimbokrang, Jayapura Regency",PAPUA,99361.0,Indonesia,,-2.5574334,140.1118415,https://maps.google.com/?cid=0x0:0xcc26d0bd63f91ff4
cafe,Brunch,Kedai Kampoeng Rasa,"Jl. Jend. Sudirman No.33 Blok A, Nembukrang, Distrik Nimbokrang, Kabupaten Jayapura, Papua 99361","Nembukrang, Distrik Nimbokrang, Kabupaten Jayapura",PAPUA,99361.0,Indonesia,81223478888.0,-2.5508225,140.1331015,https://maps.google.com/?cid=0x0:0x9026ca9b3624a110
cafe,Kedai Kopi,D'lord Cafe,"CM32+2W7, Hedam, Kec. Heram, Kota Jayapura, Papua 99225","Hedam, Kec. Heram, Kota Jayapura",PAPUA,99225.0,Indonesia,,-2.5974659,140.6523119,https://maps.google.com/?cid=0x0:0xf23ed4fd9fa52c82
cafe,Brunch,RM Kawanua (B2 RW),"C4V7+2CP Di Depan Pemangkas Rambut, Bunyom, Distrik Nimbokrang, Kabupaten Jayapura, Papua","Kabupaten Jayapura, Papua",PAPUA,,Indonesia,,-2.5574202,140.1135728,https://maps.google.com/?cid=0x0:0x32d51cc8e8b87de3
cafe,Rumah Kaca,Anicerepi,"FRHP+4XC, Guriyad, Kec. Unurum Guay, Kabupaten Jayapura, Papua","Kabupaten Jayapura, Papua",PAPUA,,Indonesia,,-2.5221975,139.8373988,https://maps.google.com/?cid=0x0:0x3114f2901ef3cb4c
cafe,Toko bahan makanan,KIOS DYLAN,"C2FQ+MP3, Beneik, Kec. Unurum Guay, Kabupaten Jayapura, Papua 99361","Beneik, Kec. Unurum Guay, Kabupaten Jayapura",PAPUA,99361.0,Indonesia,,-2.5758749,140.0393017,https://maps.google.com/?cid=0x0:0x719ee949ec1d5496
cafe,cafe,Papua 99356,"Kabupaten Jayapura, Papua","Kabupaten Jayapura, Papua",PAPUA,,Indonesia,,-2.7977377,139.7728757,https://maps.google.com/?cid=0x0:0x48ebe0b186aa7324
cafe,Brunch,CAFE DJOKO,"Jln kenanga No.Blok C, RW.lokasi 400, Benyom Jaya I, Distrik Nimbokrang, Kabupaten Jayapura, Papua 99362","RW.lokasi 400, Benyom Jaya I, Distrik Nimbokrang, Kabupaten Jayapura",PAPUA,99362.0,Indonesia,82248269620.0,-2.5531575,140.1147848,https://maps.google.com/?cid=0x0:0x8a76231faf15270e
cafe,Kafe,Cafe Socio Culture (Coffee and Eatery),"Jl. Raya Abepura Setani, Baru City, Abepura, Jayapura City, Papua 99351","Baru City, Abepura, Jayapura City",PAPUA,99351.0,Indonesia,81299939889.0,-2.610394,140.661513,https://maps.google.com/?cid=0x0:0xd714b57117860fbe
cafe,Ramen,Kusuka Cafe  Resto,"Seberang Astra Honda, masuk lorong sebelah jayamart, Jl. Klp. 2 No.18, Entrop, Jayapura Selatan, Jayapura City, Papua 99221","masuk lorong sebelah jayamart, Jl. Klp. 2 No.18, Entrop, Jayapura Selatan, Jayapura City",PAPUA,99221.0,Indonesia,,-2.5689574,140.7025065,https://maps.google.com/?cid=0x0:0xc48e7a8e5d46dab5
cafe,Restoran,SOCIAL HUB JAYAPURA,"Jl. Klp. 2, Entrop, Distrik Jayapura Selatan, Kota Jayapura, Papua 99224","Entrop, Distrik Jayapura Selatan, Kota Jayapura",PAPUA,99224.0,Indonesia,82349831188.0,-2.5678047,140.7017466,https://maps.google.com/?cid=0x0:0x3fd4dc6a056eeb45
cafe,Dapur Umum,Umma Eatery,"Jl. Gerilyawan, Yobe, Kec. Abepura, Kota Jayapura, Papua 99351","Yobe, Kec. Abepura, Kota Jayapura",PAPUA,99351.0,Indonesia,811484688.0,-2.6139368,140.6708121,https://maps.google.com/?cid=0x0:0x81bb34f7cf8553c2
cafe,Kafe,Yepmum Coffee,"CFXP+38V, Jl. Raya Kemiri, Hinekombe, Kec. Sentani, Kabupaten Jayapura, Papua 99352","Jl. Raya Kemiri, Hinekombe, Kec. Sentani, Kabupaten Jayapura",PAPUA,99352.0,Indonesia,81366666726.0,-2.5522554,140.485785,https://maps.google.com/?cid=0x0:0x9bb52927db2c25d5
cafe,Kedai Kopi,Teman Nongkrong Jayapura,"Hamadi, Distrik Jayapura Selatan, Kota Jayapura, Papua","Kota Jayapura, Papua",PAPUA,,Indonesia,81336667883.0,-2.5694524,140.7060403,https://maps.google.com/?cid=0x0:0x40bf8d3b2c554097
cafe,,D'lord CafÃ©,"FP75+3MH, kompleks ruko, Bayangkara, Kec. Jayapura Utara, Kota Jayapura, Papua","Kota Jayapura, Papua",PAPUA,,Indonesia,,-2.5373041,140.7092341,https://maps.google.com/?cid=0x0:0x21d1bcc4c6bb664a
cafe,Es Krim,Xie Xie Boba Nimbokrang,"Jl. Melati No.Blok E, Benyom Jaya I, Distrik Nimbokrang, Kabupaten Jayapura, Papua 99361","Benyom Jaya I, Distrik Nimbokrang, Kabupaten Jayapura",PAPUA,99361.0,Indonesia,82197826178.0,-2.5491812,140.1073394,https://maps.google.com/?cid=0x0:0x7ddbc1724651b381
cafe,Kedai Kopi,Ombrello Cafe,"9PRC+VQX, Holtekam, Kec. Muara Tami, Kota Jayapura, Papua","Kota Jayapura, Papua",PAPUA,,Indonesia,82197838161.0,-2.6077524,140.7219977,https://maps.google.com/?cid=0x0:0x48e44b7569c0bebe
cafe,Kedai Kopi,D'lord Cafe,"CM32+2W7, Hedam, Kec. Heram, Kota Jayapura, Papua 99225","Hedam, Kec. Heram, Kota Jayapura",PAPUA,99225.0,Indonesia,,-2.5974659,140.6523119,https://maps.google.com/?cid=0x0:0xf23ed4fd9fa52c82
cafe,Kedai Kopi,Kedai Kopi Maray,"M4H8+Q7C, Kamdera, Distrik Demta, Kabupaten Jayapura, Papua","Kabupaten Jayapura, Papua",PAPUA,,Indonesia,82312010007.0,-2.3205691,140.1156294,https://maps.google.com/?cid=0x0:0x9ee0ac58ef16fee6
cafe,Kedai Kopi,MAE COFFEE,"Jl. Camat Lama, Sentani Kota, Kec. Sentani, Kabupaten Jayapura, Papua 99359","Sentani Kota, Kec. Sentani, Kabupaten Jayapura",PAPUA,99359.0,Indonesia,82238997210.0,-2.5675906,140.5145778,https://maps.google.com/?cid=0x0:0xa15d394fd2e49da3
cafe,cafe,Papua 99364,"Kabupaten Jayapura, Papua","Kabupaten Jayapura, Papua",PAPUA,,Indonesia,,-3.2384616,139.8547266,https://maps.google.com/?cid=0x0:0x2e9677508a097a0f
cafe,Kafe,Xanorah Coffee,"Jl. Stadion Bola Bas Yauwe, depan Lapangan Karate Shorinji, Sentani Kota, Kec. Sentani, Kabupaten Jayapura, Papua 99352","depan Lapangan Karate Shorinji, Sentani Kota, Kec. Sentani, Kabupaten Jayapura",PAPUA,99352.0,Indonesia,82197790001.0,-2.5702948,140.5231233,https://maps.google.com/?cid=0x0:0x68608ffa73092001
cafe,Kafe,Saanjh Cafe,"CJ2G+C7W, Jl. Gelanggang Remaja, Waena, Kec. Heram, Kota Jayapura, Papua 99351","Jl. Gelanggang Remaja, Waena, Kec. Heram, Kota Jayapura",PAPUA,99351.0,Indonesia,,-2.5988941,140.6256974,https://maps.google.com/?cid=0x0:0xf472b389c2309050
cafe,Kafe,Carffein Of House,"CGM9+CQ8, Jl. Raya Abepura - Sentani, Hinekombe, Kec. Sentani, Kabupaten Jayapura, Papua","Kabupaten Jayapura, Papua",PAPUA,,Indonesia,82248155536.0,-2.5664649,140.5194407,https://maps.google.com/?cid=0x0:0x13454181ab9468f2
cafe,Kedai Kopi,D'lord Cafe,"CM32+2W7, Hedam, Kec. Heram, Kota Jayapura, Papua 99225","Hedam, Kec. Heram, Kota Jayapura",PAPUA,99225.0,Indonesia,,-2.5974659,140.6523119,https://maps.google.com/?cid=0x0:0xf23ed4fd9fa52c82
cafe,cafe,WASALMA CAFFE65,"Jl.trans Wamena -jayapura No.km 65, Lulum, Talambo, Dosumo, Papua 99085","Lulum, Talambo, Dosumo",PAPUA,99085.0,Indonesia,81340047467.0,-3.6974746,140.0015642,https://maps.google.com/?cid=0x0:0x7cb1549015dd2b58
cafe,Toko Roti,Flavouw Cafe  Buddy Burger,"CGPC+2C2, Jl. Ifar Gn., Sentani Kota, Kec. Sentani, Kabupaten Jayapura, Papua 99359","Jl. Ifar Gn., Sentani Kota, Kec. Sentani, Kabupaten Jayapura",PAPUA,99359.0,Indonesia,81240364286.0,-2.5649762,140.5210037,https://maps.google.com/?cid=0x0:0x74b52879855faad0
cafe,cafe,Warkop_Narau,"9VQH+GJG, Yetti - Senggi - Mamberamo, Gilika, Benawa, Kabupaten Yalimo, Papua 99364","Yetti - Senggi - Mamberamo, Gilika, Benawa, Kabupaten Yalimo",PAPUA,99364.0,Indonesia,,-3.6111917,139.8790904,https://maps.google.com/?cid=0x0:0xe0d1a843adcd27a
cafe,Kafe,cafe bakau holtekam kota jayapura,"9PRF+58, Nafri, Kec. Abepura, Kota Jayapura, Papua","Kota Jayapura, Papua",PAPUA,,Indonesia,8124022007.0,-2.6095335,140.7232587,https://maps.google.com/?cid=0x0:0x440c4543fd3a011e
cafe,cafe,Kios Yaung,"Mamberamu situ naira, Trikora, Benawa, Kabupaten Yalimo, Papua","Kabupaten Yalimo, Papua",PAPUA,,Indonesia,81247781323.0,-3.6081581,139.8670634,https://maps.google.com/?cid=0x0:0xedc5f6fd040b7845
cafe,cafe,KOPI DAENG,"85JQ+GM2, Dekat, Hulu Atas, Airu, Kabupaten Jayapura, Papua 99465","Dekat, Hulu Atas, Airu, Kabupaten Jayapura",PAPUA,99465.0,Indonesia,81344063691.0,-3.6687284,140.1891351,https://maps.google.com/?cid=0x0:0x31bf29ba34fbd248
cafe,Restoran,58 Hauzz Kitchen  Lounge,"Kota, Jl. Raya Abepura - Sentani, Kabupaten Jayapura, Papua","Kabupaten Jayapura, Papua",PAPUA,,Indonesia,8114858558.0,-2.6087433,140.6671875,https://maps.google.com/?cid=0x0:0xf9f022f92c8ea463
cafe,cafe,WARUNG MAKAN BAROKAH,"Dekat, Hulu Atas, Airu, Kabupaten Jayapura, Papua 99465","Hulu Atas, Airu, Kabupaten Jayapura",PAPUA,99465.0,Indonesia,85254142868.0,-3.6690478,140.1902569,https://maps.google.com/?cid=0x0:0x4ae578a3d2b2e5e1
cafe,Restoran,Sora Cafe,"Koya Tengah, Kec. Muara Tami, Kota Jayapura, Papua 99351","Kec. Muara Tami, Kota Jayapura",PAPUA,99351.0,Indonesia,82198566899.0,-2.6440425,140.806528,https://maps.google.com/?cid=0x0:0xa841f0ad6cb359a6
cafe,cafe,Papua 99352,"Kabupaten Jayapura, Papua","Kabupaten Jayapura, Papua",PAPUA,,Indonesia,,-2.5683577,140.4618316,https://maps.google.com/?cid=0x0:0xc4bf3fc2f14cfb38
cafe,Vila,Cafe  Resto Efata,"Unnamed Road, Doyo Lama, Distrik Waibu, Kabupaten Jayapura, Papua 99352","Doyo Lama, Distrik Waibu, Kabupaten Jayapura",PAPUA,99352.0,Indonesia,81393727460.0,-2.5656718,140.4652682,https://maps.google.com/?cid=0x0:0xdf6899334b660461
cafe,Kedai Kopi,EndWan Cafe,"CFPX+QMC, Jl. Raya Kemiri, Hinekombe, Kec. Sentani, Kabupaten Jayapura, Papua 99352","Jl. Raya Kemiri, Hinekombe, Kec. Sentani, Kabupaten Jayapura",PAPUA,99352.0,Indonesia,81310744091.0,-2.5630204,140.4991256,https://maps.google.com/?cid=0x0:0x52cd46d5841475b8
cafe,Kafe,Angkasa Cafe,"Depan Gapura Kantor Bupati, Hinekombe, Kec. Sentani, Kabupaten Jayapura, Papua 99352","Hinekombe, Kec. Sentani, Kabupaten Jayapura",PAPUA,99352.0,Indonesia,81333121001.0,-2.5518699,140.476813,https://maps.google.com/?cid=0x0:0xbf971172b3ede4e9
cafe,Kafe,ALLEGROCAFE,"Kompleks ruko origin, Jl. Raya Doyo Baru No.9-10, Doyo Baru, Distrik Waibu, Kabupaten Jayapura, Papua 99352","Jl. Raya Doyo Baru No.9-10, Doyo Baru, Distrik Waibu, Kabupaten Jayapura",PAPUA,99352.0,Indonesia,81296930730.0,-2.5408804,140.46723,https://maps.google.com/?cid=0x0:0xbb9924c5b91a6a0a
cafe,Kafe,Ana Hobby Shop  Cafe,"Jl. Raya Abepura - Sentani No.545, Hinekombe, Kec. Sentani, Kabupaten Jayapura, Papua 99352","Hinekombe, Kec. Sentani, Kabupaten Jayapura",PAPUA,99352.0,Indonesia,82221286777.0,-2.5632128,140.5026364,https://maps.google.com/?cid=0x0:0xcb34fa180ef9a872
cafe,Minimarket,Ungkea Jungle Resto,"CF56+4G7, Unnamed Road, Kwadeware, Distrik Waibu, Kabupaten Jayapura, Papua 99352","Unnamed Road, Kwadeware, Distrik Waibu, Kabupaten Jayapura",PAPUA,99352.0,Indonesia,,-2.5922109,140.4613058,https://maps.google.com/?cid=0x0:0x9c4fd24964775d4f
cafe,Kafe,Ogek coffie,"FF37+PCQ, Doyo Baru, Distrik Waibu, Kabupaten Jayapura, Papua 99352","Doyo Baru, Distrik Waibu, Kabupaten Jayapura",PAPUA,99352.0,Indonesia,81222367266.0,-2.5456744,140.4636095,https://maps.google.com/?cid=0x0:0xb573ab167b6ab278
cafe,Kafe,Ruangkini Tea Bar,"Jl. Raya Abepura - Sentani, Sentani Kota, Kec. Sentani, Kabupaten Jayapura, Papua 99352","Sentani Kota, Kec. Sentani, Kabupaten Jayapura",PAPUA,99352.0,Indonesia,,-2.5652515,140.5119238,https://maps.google.com/?cid=0x0:0x13524c6c800145a3
cafe,Kafe,Trans Kopi Papua CAFFE (Coffee  Pizza),"Kompleks Ruko Rokim Square No.2, Hinekombe, Kec. Sentani, Kabupaten Jayapura, Papua 99358","Hinekombe, Kec. Sentani, Kabupaten Jayapura",PAPUA,99358.0,Indonesia,81344457444.0,-2.558836,140.4917616,https://maps.google.com/?cid=0x0:0x5e1d46f39c90ce23
cafe,Kafe,CAFE MAMI SPESIAL,"FF56+73Q, Doyo Baru, Distrik Waibu, Kabupaten Jayapura, Papua 99352","Doyo Baru, Distrik Waibu, Kabupaten Jayapura",PAPUA,99352.0,Indonesia,85331567983.0,-2.5417855,140.4602307,https://maps.google.com/?cid=0x0:0xb7a6ab0d1f83671b
cafe,Kedai Kopi,Magic Cafe,"Magic Coffee, Hinekombe, Sentani, Jayapura Regency, Papua","Kabupaten Jayapura, Papua",PAPUA,,Indonesia,85325297604.0,-2.5648168,140.5056744,https://maps.google.com/?cid=0x0:0x16ae9acb6acf51e0
cafe,Toko Roti,Flavouw Cafe  Buddy Burger,"CGPC+2C2, Jl. Ifar Gn., Sentani Kota, Kec. Sentani, Kabupaten Jayapura, Papua 99359","Jl. Ifar Gn., Sentani Kota, Kec. Sentani, Kabupaten Jayapura",PAPUA,99359.0,Indonesia,81240364286.0,-2.5649762,140.5210037,https://maps.google.com/?cid=0x0:0x74b52879855faad0
cafe,Kedai Kopi,Guten morgen Cafe,"CGJ7+23J, Sentani Kota, Kec. Sentani, Kabupaten Jayapura, Papua 99359","Sentani Kota, Kec. Sentani, Kabupaten Jayapura",PAPUA,99359.0,Indonesia,,-2.5699222,140.5126527,https://maps.google.com/?cid=0x0:0x53b477e30d79de49
cafe,cafe,Papua 99358,"Kabupaten Jayapura, Papua","Kabupaten Jayapura, Papua",PAPUA,,Indonesia,,-2.5423787,140.3894858,https://maps.google.com/?cid=0x0:0xe811437fcb2474bb
cafe,Vila,Cafe  Resto Efata,"Unnamed Road, Doyo Lama, Distrik Waibu, Kabupaten Jayapura, Papua 99352","Doyo Lama, Distrik Waibu, Kabupaten Jayapura",PAPUA,99352.0,Indonesia,81393727460.0,-2.5656718,140.4652682,https://maps.google.com/?cid=0x0:0xdf6899334b660461
cafe,Indonesia,Mobile Resto Tomarokai,"CCQ8+R6W, Sosiri, Distrik Waibu, Kabupaten Jayapura, Papua 99358","Sosiri, Distrik Waibu, Kabupaten Jayapura",PAPUA,99358.0,Indonesia,,-2.5603762,140.4155651,https://maps.google.com/?cid=0x0:0xa8bfb4c85ca0b761
cafe,Kafe,ALLEGROCAFE,"Kompleks ruko origin, Jl. Raya Doyo Baru No.9-10, Doyo Baru, Distrik Waibu, Kabupaten Jayapura, Papua 99352","Jl. Raya Doyo Baru No.9-10, Doyo Baru, Distrik Waibu, Kabupaten Jayapura",PAPUA,99352.0,Indonesia,81296930730.0,-2.5408804,140.46723,https://maps.google.com/?cid=0x0:0xbb9924c5b91a6a0a
cafe,Kafe,CAFE MAMI SPESIAL,"FF56+73Q, Doyo Baru, Distrik Waibu, Kabupaten Jayapura, Papua 99352","Doyo Baru, Distrik Waibu, Kabupaten Jayapura",PAPUA,99352.0,Indonesia,85331567983.0,-2.5417855,140.4602307,https://maps.google.com/?cid=0x0:0xb7a6ab0d1f83671b
cafe,Kafe,Ogek coffie,"FF37+PCQ, Doyo Baru, Distrik Waibu, Kabupaten Jayapura, Papua 99352","Doyo Baru, Distrik Waibu, Kabupaten Jayapura",PAPUA,99352.0,Indonesia,81222367266.0,-2.5456744,140.4636095,https://maps.google.com/?cid=0x0:0xb573ab167b6ab278
cafe,Kompleks Apartemen,YOTUKURU JAYA,"C9CW+W27, Yakonde, Distrik Waibu, Kabupaten Jayapura, Papua 99358","Yakonde, Distrik Waibu, Kabupaten Jayapura",PAPUA,99358.0,Indonesia,,-2.5777092,140.3950358,https://maps.google.com/?cid=0x0:0x198efe1b5e85a424
cafe,Kedai Kopi,Meet Point Cafe,"samping polres, Jln. Yowanibi waibu, Kec. Sentani, Kabupaten Jayapura, Papua 99352","Jln. Yowanibi waibu, Kec. Sentani, Kabupaten Jayapura",PAPUA,99352.0,Indonesia,85397371157.0,-2.5444872,140.4607577,https://maps.google.com/?cid=0x0:0xa02b3d162126b15e
cafe,Kedai Kopi,Wr.D'PASmantap,"FF56+9RR, Unnamed Road, Doyo Baru, Distrik Waibu, Kabupaten Jayapura, Papua 99352","Unnamed Road, Doyo Baru, Distrik Waibu, Kabupaten Jayapura",PAPUA,99352.0,Indonesia,82398663041.0,-2.541512,140.4620303,https://maps.google.com/?cid=0x0:0x67ac703348d65fc6
cafe,Restoran,Bukit Resto,"CF63+HV5, Kwadeware, Distrik Waibu, Kabupaten Jayapura, Papua","Kabupaten Jayapura, Papua",PAPUA,,Indonesia,,-2.5886241,140.454723,https://maps.google.com/?cid=0x0:0x2ec2537653ad9db9
cafe,Restoran,BACHIL 121,"komplek perumahan doyo baru grand, Jalur 6 No.121, Sentani Kota, Kec. Sentani, Kabupaten Jayapura, Papua 99359","Jalur 6 No.121, Sentani Kota, Kec. Sentani, Kabupaten Jayapura",PAPUA,99359.0,Indonesia,81248491999.0,-2.5497765,140.4725979,https://maps.google.com/?cid=0x0:0x7a9802adf49aef1d
cafe,Kafe,Haven Cafe Sentani,"ex-Bosco Fernandez, Jl. Gereja Silo, Hinekombe, Kec. Sentani, Kabupaten Jayapura, Papua 99352","Jl. Gereja Silo, Hinekombe, Kec. Sentani, Kabupaten Jayapura",PAPUA,99352.0,Indonesia,81248584145.0,-2.562541,140.4948964,https://maps.google.com/?cid=0x0:0xc17715f548083f1c
cafe,Kedai Kopi,EndWan Cafe,"CFPX+QMC, Jl. Raya Kemiri, Hinekombe, Kec. Sentani, Kabupaten Jayapura, Papua 99352","Jl. Raya Kemiri, Hinekombe, Kec. Sentani, Kabupaten Jayapura",PAPUA,99352.0,Indonesia,81310744091.0,-2.5630204,140.4991256,https://maps.google.com/?cid=0x0:0x52cd46d5841475b8
cafe,Toko Roti,Flavouw Cafe  Buddy Burger,"CGPC+2C2, Jl. Ifar Gn., Sentani Kota, Kec. Sentani, Kabupaten Jayapura, Papua 99359","Jl. Ifar Gn., Sentani Kota, Kec. Sentani, Kabupaten Jayapura",PAPUA,99359.0,Indonesia,81240364286.0,-2.5649762,140.5210037,https://maps.google.com/?cid=0x0:0x74b52879855faad0
cafe,Kafe,Ana Hobby Shop  Cafe,"Jl. Raya Abepura - Sentani No.545, Hinekombe, Kec. Sentani, Kabupaten Jayapura, Papua 99352","Hinekombe, Kec. Sentani, Kabupaten Jayapura",PAPUA,99352.0,Indonesia,82221286777.0,-2.5632128,140.5026364,https://maps.google.com/?cid=0x0:0xcb34fa180ef9a872
cafe,cafe,Papua 99361,"Kabupaten Jayapura, Papua","Kabupaten Jayapura, Papua",PAPUA,,Indonesia,,-2.5921274,140.059845,https://maps.google.com/?cid=0x0:0xe7cd882fece4c0b1
cafe,Kedai Kopi,D'lord Cafe,"CM32+2W7, Hedam, Kec. Heram, Kota Jayapura, Papua 99225","Hedam, Kec. Heram, Kota Jayapura",PAPUA,99225.0,Indonesia,,-2.5974659,140.6523119,https://maps.google.com/?cid=0x0:0xf23ed4fd9fa52c82
cafe,,D'lord CafÃ©,"FP75+3MH, kompleks ruko, Bayangkara, Kec. Jayapura Utara, Kota Jayapura, Papua","Kota Jayapura, Papua",PAPUA,,Indonesia,,-2.5373041,140.7092341,https://maps.google.com/?cid=0x0:0x21d1bcc4c6bb664a
cafe,Kedai Kopi,Binsyo Coffee,"Jl Raya Kotaraja No.93, Wai Mhorock, Kec. Abepura, Kota Jayapura, Papua 99351","Wai Mhorock, Kec. Abepura, Kota Jayapura",PAPUA,99351.0,Indonesia,85251667890.0,-2.6054242,140.6718344,https://maps.google.com/?cid=0x0:0x4ce0f038ffa9d59e
cafe,Kafe,Carffein Of House,"CGM9+CQ8, Jl. Raya Abepura - Sentani, Hinekombe, Kec. Sentani, Kabupaten Jayapura, Papua","Kabupaten Jayapura, Papua",PAPUA,,Indonesia,82248155536.0,-2.5664649,140.5194407,https://maps.google.com/?cid=0x0:0x13454181ab9468f2
cafe,Mi,Mandala Sentani,"CGM6+RFC, Jl. Raya Kemiri, Hinekombe, Kec. Sentani, Kabupaten Jayapura, Papua 99359","Jl. Raya Kemiri, Hinekombe, Kec. Sentani, Kabupaten Jayapura",PAPUA,99359.0,Indonesia,9675191911.0,-2.5654544,140.5110728,https://maps.google.com/?cid=0x0:0x7b5dba085f85a8f9
cafe,Komplek perumahan,nongkrong,"CFGV+MVF, Jl. Youmakhe, Hinekombe, Kec. Sentani, Kabupaten Jayapura, Papua","Kabupaten Jayapura, Papua",PAPUA,,Indonesia,,-2.5733242,140.4946869,https://maps.google.com/?cid=0x0:0x334c81dfffcbfc1a
cafe,cafe,B_Class CAFE,"9JRW+W9J, (padang bulan) tikungan ale-ale, Jl. Raya Waena Sentani, Hedam, Kec. Heram, Kota Jayapura, Papua 99351","(padang bulan) tikungan ale-ale, Jl. Raya Waena Sentani, Hedam, Kec. Heram, Kota Jayapura",PAPUA,99351.0,Indonesia,,-2.6076713,140.6458788,https://maps.google.com/?cid=0x0:0x53a9e47463322a85
cafe,Mi,Bubur Mandala Jayapura,"Pusat Bisnis Jayapura Pasifik Permai Blok G No 7, Bayangkara, Kec. Jayapura Utara, Kota Jayapura, Papua 99112","Bayangkara, Kec. Jayapura Utara, Kota Jayapura",PAPUA,99112.0,Indonesia,967531058.0,-2.5384309,140.7107409,https://maps.google.com/?cid=0x0:0x2b0c2bfc207f8617
cafe,Restoran,DSANTEE JAYAPURA,"Jalan Pantai Holtekamp No.KM 9, Nafri, Abepura, Jayapura City, Papua","Kota Jayapura, Papua",PAPUA,,Indonesia,81237857414.0,-2.6169257,140.7327604,https://maps.google.com/?cid=0x0:0xb34741d326e626ba
cafe,Kafe,SundShine Cafe  Library,"Yabansai, Kec. Heram, Kota Jayapura, Papua 99225","Kec. Heram, Kota Jayapura",PAPUA,99225.0,Indonesia,8114814415.0,-2.5931544,140.6408539,https://maps.google.com/?cid=0x0:0x3cef08c39a5b2d2b
cafe,Kafe,Cafe Socio Culture (Coffee and Eatery),"Jl. Raya Abepura Setani, Baru City, Abepura, Jayapura City, Papua 99351","Baru City, Abepura, Jayapura City",PAPUA,99351.0,Indonesia,81299939889.0,-2.610394,140.661513,https://maps.google.com/?cid=0x0:0xd714b57117860fbe
cafe,Kedai Kopi,Ombrello Cafe,"9PRC+VQX, Holtekam, Kec. Muara Tami, Kota Jayapura, Papua","Kota Jayapura, Papua",PAPUA,,Indonesia,82197838161.0,-2.6077524,140.7219977,https://maps.google.com/?cid=0x0:0x48e44b7569c0bebe
cafe,cafe,Yapsi,"Kabupaten Jayapura, Papua","Kabupaten Jayapura, Papua",PAPUA,,Indonesia,,-2.811221,140.1009527,https://maps.google.com/?cid=0x0:0xaec96b36c4ad9a90
cafe,Sarapan,Rumah makan dan cafe alfathir,"64G6+WFH, Ongan Jaya, Yapsi, Kabupaten Jayapura, Papua","Kabupaten Jayapura, Papua",PAPUA,,Indonesia,,-2.7726955,140.1112339,https://maps.google.com/?cid=0x0:0xdcf3eb06725b317a
cafe,Kedai Kopi,Kopi Kemtuk,"Kampung, Kabupaten Jayapura, Papua 99235",Kabupaten Jayapura,PAPUA,99235.0,Indonesia,82197963965.0,-2.866667,140.2,https://maps.google.com/?cid=0x0:0x1bb00a476b7aa330
cafe,cafe,Airu,"Kabupaten Jayapura, Papua","Kabupaten Jayapura, Papua",PAPUA,,Indonesia,,-3.5753077,140.265662,https://maps.google.com/?cid=0x0:0x84b595ca2a102cef
cafe,cafe,WARUNG MAKAN BAROKAH,"Dekat, Hulu Atas, Airu, Kabupaten Jayapura, Papua 99465","Hulu Atas, Airu, Kabupaten Jayapura",PAPUA,99465.0,Indonesia,85254142868.0,-3.6690478,140.1902569,https://maps.google.com/?cid=0x0:0x4ae578a3d2b2e5e1
cafe,cafe,KOPI DAENG,"85JQ+GM2, Dekat, Hulu Atas, Airu, Kabupaten Jayapura, Papua 99465","Dekat, Hulu Atas, Airu, Kabupaten Jayapura",PAPUA,99465.0,Indonesia,81344063691.0,-3.6687284,140.1891351,https://maps.google.com/?cid=0x0:0x31bf29ba34fbd248
cafe,cafe,Rumah Makan Salero Bundo,"78C2+QR, Muara Nawa, Airu, Kabupaten Jayapura, Papua","Kabupaten Jayapura, Papua",PAPUA,,Indonesia,,-3.7281142,140.3021159,https://maps.google.com/?cid=0x0:0x6599c94c610c57cd
cafe,Kedai Kopi,At Here Cafe,"Jl. Klp. 2, Entrop, Distrik Jayapura Selatan, Kota Jayapura, Papua","Kota Jayapura, Papua",PAPUA,,Indonesia,81327868896.0,-2.5684255,140.7031204,https://maps.google.com/?cid=0x0:0x3deb442bf5f7cfcd
cafe,Mesin Sangrai Kopi,Coffee Papua,"Bandar Udara Sentani Sentani, Sentani Kota, Jayapura, Kabupaten Jayapura, Papua 99359","Sentani Kota, Jayapura, Kabupaten Jayapura",PAPUA,99359.0,Indonesia,82137736227.0,-2.5705187,140.5133363,https://maps.google.com/?cid=0x0:0xe2fdf42ce08ac0ae
cafe,Kafe,Aero Coffee,"Lesehan Balai Trans Depan 751, Hinekombe, Kec. Sentani, Kabupaten Jayapura, Papua 99352","Hinekombe, Kec. Sentani, Kabupaten Jayapura",PAPUA,99352.0,Indonesia,81380384746.0,-2.5628422,140.4996721,https://maps.google.com/?cid=0x0:0x95bbbd3b96339b18
cafe,cafe,Kios Yaung,"Mamberamu situ naira, Trikora, Benawa, Kabupaten Yalimo, Papua","Kabupaten Yalimo, Papua",PAPUA,,Indonesia,81247781323.0,-3.6081581,139.8670634,https://maps.google.com/?cid=0x0:0xedc5f6fd040b7845
cafe,Kedai Kopi,Cafe Isasai,"Danau Sentani, Kp. Waena, Kec. Heram, Kota Jayapura, Papua 99351","Kp. Waena, Kec. Heram, Kota Jayapura",PAPUA,99351.0,Indonesia,,-2.598538,140.6244014,https://maps.google.com/?cid=0x0:0xc37a24107e869a96
cafe,Kafe,Super Custom CaFe,"CGP3+FJF, Hinekombe, Kec. Sentani, Kabupaten Jayapura, Papua 99359","Hinekombe, Kec. Sentani, Kabupaten Jayapura",PAPUA,99359.0,Indonesia,82198238704.0,-2.5638097,140.5040544,https://maps.google.com/?cid=0x0:0x9ea94be6544420c6
cafe,Kedai Kopi,Waroeng Kopi Ak,"Jl. Kehiran No.3 Blok B1, Dobonsolo, Kec. Sentani, Kabupaten Jayapura, Papua 99352","Dobonsolo, Kec. Sentani, Kabupaten Jayapura",PAPUA,99352.0,Indonesia,82398559111.0,-2.5750553,140.4987229,https://maps.google.com/?cid=0x0:0xe8c8fa2045809974
cafe,Kafe,Tana Papua Coffee and Roastery,"Jl. Raya Abepura, Vim, Kec. Abepura, Kota Jayapura, Papua 99220","Vim, Kec. Abepura, Kota Jayapura",PAPUA,99220.0,Indonesia,82175416609.0,-2.6047712,140.6727079,https://maps.google.com/?cid=0x0:0x747c727d4b94ebf6
cafe,cafe,WASALMA CAFFE65,"Jl.trans Wamena -jayapura No.km 65, Lulum, Talambo, Dosumo, Papua 99085","Lulum, Talambo, Dosumo",PAPUA,99085.0,Indonesia,81340047467.0,-3.6974746,140.0015642,https://maps.google.com/?cid=0x0:0x7cb1549015dd2b58
cafe,Kafe,Saanjh Cafe,"CJ2G+C7W, Jl. Gelanggang Remaja, Waena, Kec. Heram, Kota Jayapura, Papua 99351","Jl. Gelanggang Remaja, Waena, Kec. Heram, Kota Jayapura",PAPUA,99351.0,Indonesia,,-2.5988941,140.6256974,https://maps.google.com/?cid=0x0:0xf472b389c2309050
cafe,Ikan Bakar,D'Jimbaran Papua,"9PX8+3VF, Engros, Kec. Abepura, Kota Jayapura, Papua","Kota Jayapura, Papua",PAPUA,,Indonesia,,-2.6020736,140.7168784,https://maps.google.com/?cid=0x0:0xb6125c5e0138c416
cafe,Sesuai untuk keluarga,Jimbaran Ikan Bakar,"FP66+H5F, Jl. Pacific Permai, Bayangkara, Kec. Jayapura Utara, Kota Jayapura, Papua","Kota Jayapura, Papua",PAPUA,,Indonesia,,-2.5385726,140.7104342,https://maps.google.com/?cid=0x0:0xcc67bb0319b56bc8
cafe,cafe,,,,PAPUA,,Indonesia,,,,https://maps.google.com/?cid=0x0:0xb6125c5e0138c416u0026onu003dCumi+Saus+Padang+Dan+Kangkungu0026midu003d/g/11vm83vzyd
cafe,cafe,,,,PAPUA,,Indonesia,,,,https://maps.google.com/?cid=0x0:0xb6125c5e0138c416u0026onu003dTahu+Cabe+Garamu0026midu003d/g/11vm83vzyd
cafe,cafe,,,,PAPUA,,Indonesia,,,,https://maps.google.com/?cid=0x0:0xb6125c5e0138c416u0026onu003dNasi+Goreng+Ayamu0026midu003d/g/11vm83vzyd
cafe,cafe,,,,PAPUA,,Indonesia,,,,https://maps.google.com/?cid=0x0:0xb6125c5e0138c416u0026onu003dCapcay+Ayamu0026midu003d/g/11vm83vzyd
cafe,cafe,,,,PAPUA,,Indonesia,,,,https://maps.google.com/?cid=0x0:0xb6125c5e0138c416u0026onu003dSeafood+Platteru0026midu003d/g/11vm83vzyd
cafe,cafe,,,,PAPUA,,Indonesia,,,,https://maps.google.com/?cid=0x0:0xb6125c5e0138c416u0026onu003dLobsteru0026midu003d/g/11vm83vzyd
cafe,cafe,,,,PAPUA,,Indonesia,,,,https://maps.google.com/?cid=0x0:0xb6125c5e0138c416u0026onu0026midu003d/g/11vm83vzyd
cafe,cafe,,,,PAPUA,,Indonesia,,,,https://maps.google.com/?cid=0x0:0xb6125c5e0138c416u0026onu003dPapedau0026midu003d/g/11vm83vzyd
cafe,cafe,Papua 99353,"Kabupaten Jayapura, Papua","Kabupaten Jayapura, Papua",PAPUA,,Indonesia,,-2.4345515,140.4101474,https://maps.google.com/?cid=0x0:0xae8b3e09ee92fb9d
cafe,Kafe,Tana Papua Coffee and Roastery,"Jl. Raya Abepura, Vim, Kec. Abepura, Kota Jayapura, Papua 99220","Vim, Kec. Abepura, Kota Jayapura",PAPUA,99220.0,Indonesia,82175416609.0,-2.6047712,140.6727079,https://maps.google.com/?cid=0x0:0x747c727d4b94ebf6
cafe,cafe,hiraqi,"Jalan Kemiri, Sentani Kota, Kec. Sentani, Kabupaten Jayapura, Papua 99352","Sentani Kota, Kec. Sentani, Kabupaten Jayapura",PAPUA,99352.0,Indonesia,82198349921.0,-2.5696105,140.5325477,https://maps.google.com/?cid=0x0:0xbc5969ae916dbff0
cafe,Vila,Cafe  Resto Efata,"Unnamed Road, Doyo Lama, Distrik Waibu, Kabupaten Jayapura, Papua 99352","Doyo Lama, Distrik Waibu, Kabupaten Jayapura",PAPUA,99352.0,Indonesia,81393727460.0,-2.5656718,140.4652682,https://maps.google.com/?cid=0x0:0xdf6899334b660461
cafe,Kedai Kopi,Cafe Brata Mangi PNG,"Jl. Soa Siu, Mandala, Kec. Jayapura Utara, Kota Jayapura, Papua","Kota Jayapura, Papua",PAPUA,,Indonesia,82396138782.0,-2.5350311,140.717898,https://maps.google.com/?cid=0x0:0xf716be1fee265f
cafe,cafe,Distrik Gresi Selatan,"Kabupaten Jayapura, Papua","Kabupaten Jayapura, Papua",PAPUA,,Indonesia,,-2.641859,140.1829593,https://maps.google.com/?cid=0x0:0x3d361b435e9393d5
cafe,Restoran,Cafe dan Resto 577,"CPJ5+H7R, Jl. Amphibi, Hamadi, Distrik Jayapura Selatan, Kota Jayapura, Papua","Kota Jayapura, Papua",PAPUA,,Indonesia,85244709001.0,-2.5685019,140.7081384,https://maps.google.com/?cid=0x0:0x5e9c00212da89536
cafe,Kafe,Tana Papua Coffee and Roastery,"Jl. Raya Abepura, Vim, Kec. Abepura, Kota Jayapura, Papua 99220","Vim, Kec. Abepura, Kota Jayapura",PAPUA,99220.0,Indonesia,82175416609.0,-2.6047712,140.6727079,https://maps.google.com/?cid=0x0:0x747c727d4b94ebf6
cafe,Kedai Kopi,YAKEBEU KOPI PAPUA,"Kampung yanbra, Kabupaten Jayapura, Papua 99352",Kabupaten Jayapura,PAPUA,99352.0,Indonesia,82197963965.0,-2.646943,140.2630977,https://maps.google.com/?cid=0x0:0xdb5111c105e9d778
cafe,Kedai Kopi,ME Coffee,"Seberang Saga, Jl. Cenderawasih Pos No. 86 Ardipura, Entrop, Distrik Jayapura Selatan, Kota Jayapura, Papua 99221","Jl. Cenderawasih Pos No. 86 Ardipura, Entrop, Distrik Jayapura Selatan, Kota Jayapura",PAPUA,99221.0,Indonesia,8114828411.0,-2.5665645,140.7020391,https://maps.google.com/?cid=0x0:0xcedc6b8445b20d5a
cafe,Restoran,Raftel Cafe Jayapura,"9MPC+84Q, Jl. Gerilyawan, Yobe, Kec. Abepura, Kota Jayapura, Papua 99351","Jl. Gerilyawan, Yobe, Kec. Abepura, Kota Jayapura",PAPUA,99351.0,Indonesia,,-2.6141741,140.6703722,https://maps.google.com/?cid=0x0:0x22b32b53b260031b
cafe,Komplek perumahan,Jawang Komplex,"87X9+93C, Damoi Kati, Distrik Kemtuk Gresi, Kabupaten Jayapura, Papua 99357","Damoi Kati, Distrik Kemtuk Gresi, Kabupaten Jayapura",PAPUA,99357.0,Indonesia,85244543554.0,-2.651574,140.2676473,https://maps.google.com/?cid=0x0:0x174151cfdf257e34
cafe,Sarapan,Rumah makan dan cafe alfathir,"64G6+WFH, Ongan Jaya, Yapsi, Kabupaten Jayapura, Papua","Kabupaten Jayapura, Papua",PAPUA,,Indonesia,,-2.7726955,140.1112339,https://maps.google.com/?cid=0x0:0xdcf3eb06725b317a
cafe,,D'lord CafÃ©,"FP75+3MH, kompleks ruko, Bayangkara, Kec. Jayapura Utara, Kota Jayapura, Papua","Kota Jayapura, Papua",PAPUA,,Indonesia,,-2.5373041,140.7092341,https://maps.google.com/?cid=0x0:0x21d1bcc4c6bb664a
cafe,Kedai Kopi,D'lord Cafe,"CM32+2W7, Hedam, Kec. Heram, Kota Jayapura, Papua 99225","Hedam, Kec. Heram, Kota Jayapura",PAPUA,99225.0,Indonesia,,-2.5974659,140.6523119,https://maps.google.com/?cid=0x0:0xf23ed4fd9fa52c82
cafe,Kedai Kopi,SORAS CafeResto,"9PX8+GC, Engros, Kec. Abepura, Kota Jayapura, Papua","Kota Jayapura, Papua",PAPUA,,Indonesia,85255233397.0,-2.6011763,140.7160462,https://maps.google.com/?cid=0x0:0x5ad3e142525c4f3
cafe,Mesin Sangrai Kopi,Alenia Papua Coffee  Kitchen,"Jl. Kemang Raya No.66 B 8, RT.8/RW.2, Bangka, Kec. Mampang Prpt., Kota Jakarta Selatan, Daerah Khusus Ibukota Jakarta 12730","RT.8/RW.2, Bangka, Kec. Mampang Prpt., Kota Jakarta Selatan",PAPUA,12730.0,Indonesia,2171790141.0,-6.2638119,106.8158777,https://maps.google.com/?cid=0x0:0xe49807fcfab68b48
cafe,Brunch,Warung Makan JATENG,"C63J+FV2, besum, Karya Bumi, Nimboran Tim. / Namblong, Kabupaten Jayapura, Papua 99361","besum, Karya Bumi, Nimboran Tim. / Namblong, Kabupaten Jayapura",PAPUA,99361.0,Indonesia,,-2.5963502,140.232151,https://maps.google.com/?cid=0x0:0xc97114faab9aad68
cafe,cafe,Papua 99354,"Kabupaten Jayapura, Papua","Kabupaten Jayapura, Papua",PAPUA,,Indonesia,,-2.425843,140.1626664,https://maps.google.com/?cid=0x0:0xed2e9d28341a8606
cafe,Brunch,CAFE DJOKO,"Jln kenanga No.Blok C, RW.lokasi 400, Benyom Jaya I, Distrik Nimbokrang, Kabupaten Jayapura, Papua 99362","RW.lokasi 400, Benyom Jaya I, Distrik Nimbokrang, Kabupaten Jayapura",PAPUA,99362.0,Indonesia,82248269620.0,-2.5531575,140.1147848,https://maps.google.com/?cid=0x0:0x8a76231faf15270e
cafe,Kedai Kopi,Kedai Kopi Maray,"M4H8+Q7C, Kamdera, Distrik Demta, Kabupaten Jayapura, Papua","Kabupaten Jayapura, Papua",PAPUA,,Indonesia,82312010007.0,-2.3205691,140.1156294,https://maps.google.com/?cid=0x0:0x9ee0ac58ef16fee6
cafe,Kedai Kopi,Katita Coffee  Space,"Jl. SMP, Koya Tengah, Kec. Muara Tami, Kota Jayapura, Papua","Kota Jayapura, Papua",PAPUA,,Indonesia,82196020834.0,-2.6450994,140.8056096,https://maps.google.com/?cid=0x0:0x5daa864d10a7522f
cafe,cafe,Kec. Yokari,"Kabupaten Jayapura, Papua","Kabupaten Jayapura, Papua",PAPUA,,Indonesia,,-2.41269,140.2260524,https://maps.google.com/?cid=0x0:0xbcf48b8a2ca1825
hotel,hotel,Papua 99352,"Kabupaten Jayapura, Papua","Kabupaten Jayapura, Papua",PAPUA,,Indonesia,,-2.5683577,140.4618316,https://maps.google.com/?cid=0x0:0xc4bf3fc2f14cfb38
hotel,hotel,Horison Sentani Papua,"Jl. Raya Kemiri No.79A, Hinekombe, Kec. Sentani, Kabupaten Jayapura, Papua 99352","Hinekombe, Kec. Sentani, Kabupaten Jayapura",PAPUA,99352.0,Indonesia,9675198888.0,-2.564948,140.5134784,https://maps.google.com/?cid=0x0:0x2481b253bbad1508
hotel,hotel,Hotel Suni Sentani - Managed by East Season,"Jalan, Sentani Kota, Sentani, Jayapura Regency, Papua 99359","Sentani Kota, Sentani, Jayapura Regency",PAPUA,99359.0,Indonesia,967591900.0,-2.5717113,140.5355341,https://maps.google.com/?cid=0x0:0x18fc7a4a1035d3f1
hotel,hotel,Horex,"Jl. Raya Kemiri No.79, Sentani Kota, Kec. Sentani, Kabupaten Jayapura, Papua 99352","Sentani Kota, Kec. Sentani, Kabupaten Jayapura",PAPUA,99352.0,Indonesia,8114896625.0,-2.565165,140.5133463,https://maps.google.com/?cid=0x0:0x15b9d3d794d85f65
hotel,hotel,GRAND ALLISON SENTANI,"Jl. Raya Kemiri No.282, Hinekombe, Kec. Sentani, Kabupaten Jayapura, Papua 99359","Hinekombe, Kec. Sentani, Kabupaten Jayapura",PAPUA,99359.0,Indonesia,967592110.0,-2.5639057,140.5014423,https://maps.google.com/?cid=0x0:0xa7477e43d92fc166
hotel,hotel,GRAND TAHARA SENTANI Hotel  Convention,"Jl. Raya Kemiri, Hinekombe, Kec. Sentani, Kabupaten Jayapura, Papua 99359","Hinekombe, Kec. Sentani, Kabupaten Jayapura",PAPUA,99359.0,Indonesia,82197796699.0,-2.5653049,140.5098925,https://maps.google.com/?cid=0x0:0xdfa507ac6ec552f1
hotel,hotel,,,,PAPUA,,Indonesia,,,,https://maps.google.com/?cid=0x0:0xa7477e43d92fc166%7C/g/11b73qj9kn%7Cid-ID
hotel,hotel,RedDoorz near Sentani Airport Jayapura,"Jl. Ps. Lama Sentani, Dobonsolo, Kec. Sentani, Kabupaten Jayapura, Papua 99359","Dobonsolo, Kec. Sentani, Kabupaten Jayapura",PAPUA,99359.0,Indonesia,895417300072.0,-2.5695891,140.5044768,https://maps.google.com/?cid=0x0:0xcd4be0c82712defa
hotel,hotel,RedDoorz Syariah near Sentani City Square,"Jl. Sosial, Hinekombe, Kec. Sentani, Kabupaten Jayapura, Papua 99359","Hinekombe, Kec. Sentani, Kabupaten Jayapura",PAPUA,99359.0,Indonesia,895417300072.0,-2.5571877,140.4960826,https://maps.google.com/?cid=0x0:0xc6927e36509af555
hotel,hotel,HOTEL AINA,"CGM6+R9J, Jl. Raya Kemiri, Sentani Kota, Kec. Sentani, Kabupaten Jayapura, Papua","Kabupaten Jayapura, Papua",PAPUA,,Indonesia,85243960057.0,-2.5654218,140.5108844,https://maps.google.com/?cid=0x0:0xe10f3eb6fe778f83
hotel,hotel,HOTEL GRAND ONE SENTANI,"Jl. Ps. Baru Sentani, Hinekombe, Kec. Sentani, Kabupaten Jayapura, Papua 99352","Hinekombe, Kec. Sentani, Kabupaten Jayapura",PAPUA,99352.0,Indonesia,8114917902.0,-2.561741,140.4923227,https://maps.google.com/?cid=0x0:0x88f9714b98487a4f
hotel,hotel,,,,PAPUA,,Indonesia,,,,https://maps.google.com/?cid=0x0:0x18fc7a4a1035d3f1%7C/g/11gl124vfj%7Cid-ID
hotel,hotel,Patmos Guest House,"Jl. Pos 7 No.53, Sentani Kota, Kec. Sentani, Kabupaten Jayapura, Papua 99352","Sentani Kota, Kec. Sentani, Kabupaten Jayapura",PAPUA,99352.0,Indonesia,81212748790.0,-2.561908,140.5084075,https://maps.google.com/?cid=0x0:0xffe8a74235ae9f69
hotel,hotel,Sataria Homestay,"Jl. Pasir No.Gang 2, Sentani Kota, Kec. Sentani, Kabupaten Jayapura, Papua 99359","Sentani Kota, Kec. Sentani, Kabupaten Jayapura",PAPUA,99359.0,Indonesia,81239001099.0,-2.5697715,140.5219881,https://maps.google.com/?cid=0x0:0xac547e8a9d5820d4
hotel,hotel,Papua 99359,"Kabupaten Jayapura, Papua","Kabupaten Jayapura, Papua",PAPUA,,Indonesia,,-2.5632464,140.534262,https://maps.google.com/?cid=0x0:0x15522b545274ab16
hotel,hotel,Horison Sentani Papua,"Jl. Raya Kemiri No.79A, Hinekombe, Kec. Sentani, Kabupaten Jayapura, Papua 99352","Hinekombe, Kec. Sentani, Kabupaten Jayapura",PAPUA,99352.0,Indonesia,9675198888.0,-2.564948,140.5134784,https://maps.google.com/?cid=0x0:0x2481b253bbad1508
hotel,hotel,Hotel Grand Papua Sentani,"Jalan Sosial No.388, Hinekombe, Kec. Sentani, Kabupaten Jayapura, Papua 99352","Hinekombe, Kec. Sentani, Kabupaten Jayapura",PAPUA,99352.0,Indonesia,8114827899.0,-2.557344,140.4958181,https://maps.google.com/?cid=0x0:0x9afaf186d23bb377
hotel,hotel,,,,PAPUA,,Indonesia,,,,https://maps.google.com/?cid=0x0:0x18fc7a4a1035d3f1%7C/g/11gl124vfj%7Cid-ID
hotel,hotel,GRAND ALLISON SENTANI,"Jl. Raya Kemiri No.282, Hinekombe, Kec. Sentani, Kabupaten Jayapura, Papua 99359","Hinekombe, Kec. Sentani, Kabupaten Jayapura",PAPUA,99359.0,Indonesia,967592110.0,-2.5639057,140.5014423,https://maps.google.com/?cid=0x0:0xa7477e43d92fc166
hotel,hotel,GRAND TAHARA SENTANI Hotel  Convention,"Jl. Raya Kemiri, Hinekombe, Kec. Sentani, Kabupaten Jayapura, Papua 99359","Hinekombe, Kec. Sentani, Kabupaten Jayapura",PAPUA,99359.0,Indonesia,82197796699.0,-2.5653049,140.5098925,https://maps.google.com/?cid=0x0:0xdfa507ac6ec552f1
hotel,hotel,Horex,"Jl. Raya Kemiri No.79, Sentani Kota, Kec. Sentani, Kabupaten Jayapura, Papua 99352","Sentani Kota, Kec. Sentani, Kabupaten Jayapura",PAPUA,99352.0,Indonesia,8114896625.0,-2.565165,140.5133463,https://maps.google.com/?cid=0x0:0x15b9d3d794d85f65
hotel,hotel,,,,PAPUA,,Indonesia,,,,https://maps.google.com/?cid=0x0:0xa7477e43d92fc166%7C/g/11b73qj9kn%7Cid-ID
hotel,hotel,RedDoorz near Sentani Airport Jayapura,"Jl. Ps. Lama Sentani, Dobonsolo, Kec. Sentani, Kabupaten Jayapura, Papua 99359","Dobonsolo, Kec. Sentani, Kabupaten Jayapura",PAPUA,99359.0,Indonesia,895417300072.0,-2.5695891,140.5044768,https://maps.google.com/?cid=0x0:0xcd4be0c82712defa
hotel,hotel,Urbanview Hotel Sabang Land Syariah Jayapura,"CGHQ+2CH, Jl. Raya Abepura - Sentani, Nendali, Kec. Sentani Tim., Kabupaten Jayapura, Papua 99359","Jl. Raya Abepura - Sentani, Nendali, Kec. Sentani Tim., Kabupaten Jayapura",PAPUA,99359.0,Indonesia,895417300072.0,-2.5723956,140.5385353,https://maps.google.com/?cid=0x0:0xceff09b55202b95d
hotel,hotel,HOTEL AINA,"CGM6+R9J, Jl. Raya Kemiri, Sentani Kota, Kec. Sentani, Kabupaten Jayapura, Papua","Kabupaten Jayapura, Papua",PAPUA,,Indonesia,85243960057.0,-2.5654218,140.5108844,https://maps.google.com/?cid=0x0:0xe10f3eb6fe778f83
hotel,hotel,Elohim Hotel Sentani,"Jl. Raya Airport Sentani, Sentani Kota, Kec. Sentani, Kabupaten Jayapura, Papua 99359","Sentani Kota, Kec. Sentani, Kabupaten Jayapura",PAPUA,99359.0,Indonesia,9675197378.0,-2.5699317,140.5305705,https://maps.google.com/?cid=0x0:0x2be744e8f3a4148f
hotel,hotel,RedDoorz Syariah near Sentani City Square,"Jl. Sosial, Hinekombe, Kec. Sentani, Kabupaten Jayapura, Papua 99359","Hinekombe, Kec. Sentani, Kabupaten Jayapura",PAPUA,99359.0,Indonesia,895417300072.0,-2.5571877,140.4960826,https://maps.google.com/?cid=0x0:0xc6927e36509af555
hotel,hotel,Sataria Homestay,"Jl. Pasir No.Gang 2, Sentani Kota, Kec. Sentani, Kabupaten Jayapura, Papua 99359","Sentani Kota, Kec. Sentani, Kabupaten Jayapura",PAPUA,99359.0,Indonesia,81239001099.0,-2.5697715,140.5219881,https://maps.google.com/?cid=0x0:0xac547e8a9d5820d4
hotel,hotel,Depapre,"Waiya, Distrik Depapre, Kabupaten Jayapura, Papua","Kabupaten Jayapura, Papua",PAPUA,,Indonesia,,-2.465224,140.365005,https://maps.google.com/?cid=0x0:0xb8f12b7316b09e1a
hotel,hotel,Hotel Sahid Papua,"Jl. Klp. 2 No.18, Entrop, Distrik Jayapura Selatan, Kota Jayapura, Papua 99221","Entrop, Distrik Jayapura Selatan, Kota Jayapura",PAPUA,99221.0,Indonesia,8114814009.0,-2.5661461,140.6996539,https://maps.google.com/?cid=0x0:0x9c8a2fd141b3aa33
hotel,hotel,,,,PAPUA,,Indonesia,,,,https://maps.google.com/?cid=0x0:0x9c8a2fd141b3aa33%7C/g/11b73kkp76%7Cid-ID
hotel,hotel,The View Village (Villa Efata),"Unnamed Road, Doyo Lama, Distrik Waibu, Kabupaten Jayapura, Papua 99352","Doyo Lama, Distrik Waibu, Kabupaten Jayapura",PAPUA,99352.0,Indonesia,,-2.5658464,140.4653663,https://maps.google.com/?cid=0x0:0x10899d41205e5344
hotel,hotel,Horison Inn Relat Jayapura,"Jl. Pantai Klp. No.21 - 23, Argapura, Distrik Jayapura Selatan, Kota Jayapura, Papua","Kota Jayapura, Papua",PAPUA,,Indonesia,9675160779.0,-2.5537101,140.7148929,https://maps.google.com/?cid=0x0:0xb98fc1bbb5c5c494
hotel,hotel,Hotel Surya Jaya,"Dobonsolo, Kec. Sentani, Kabupaten Jayapura, Papua 99352","Kec. Sentani, Kabupaten Jayapura",PAPUA,99352.0,Indonesia,82258897707.0,-2.5695916,140.5044756,https://maps.google.com/?cid=0x0:0x705c2fe69d32db2b
hotel,hotel,RedDoorz near Pelabuhan Jayapura,"Jl. Argapura, Asei Kecil, Argapura, Kota Jayapura, Papua","Kota Jayapura, Papua",PAPUA,,Indonesia,895417300072.0,-2.5590985,140.7120248,https://maps.google.com/?cid=0x0:0xefe49bafd24daece
hotel,hotel,Rimba Papua Hotel,"Jl. Kwamki Narama No. 1, Kwamki, Kec. Mimika Baru, Kabupaten Mimika, Papua 99971","Kwamki, Kec. Mimika Baru, Kabupaten Mimika",PAPUA,99971.0,Indonesia,901494949.0,-4.5151124,136.884599,https://maps.google.com/?cid=0x0:0xa65056700db32492
hotel,hotel,Numbay Hotel,"Jl. Trikora No.23, Dok V, Trikora, Kec. Jayapura Utara, Kota Jayapura, Papua 99114","Dok V, Trikora, Kec. Jayapura Utara, Kota Jayapura",PAPUA,99114.0,Indonesia,9675166939.0,-2.527363,140.7185297,https://maps.google.com/?cid=0x0:0x2a95e5b69088c98d
hotel,hotel,Galaxy Hotel Abepura,"Kp. Waena, Kec. Heram, Kota Jayapura, Papua 99351","Kec. Heram, Kota Jayapura",PAPUA,99351.0,Indonesia,81150500147.0,-2.5944039,140.6254198,https://maps.google.com/?cid=0x0:0xf9951793f247fc13
hotel,hotel,Tirta Mandala Hotel,"Jl. Samudra No.42, Mandala, Kec. Jayapura Utara, Kota Jayapura, Papua","Kota Jayapura, Papua",PAPUA,,Indonesia,967536304.0,-2.5339053,140.7251568,https://maps.google.com/?cid=0x0:0x2eda6a5a3b994213
hotel,hotel,Hotel Bunga Youtefa,"9MRJ+339, Wai Mhorock, Kec. Abepura, Kota Jayapura, Papua 99225","Wai Mhorock, Kec. Abepura, Kota Jayapura",PAPUA,99225.0,Indonesia,,-2.609849,140.68022,https://maps.google.com/?cid=0x0:0x6ed44eab0b6f0605
hotel,hotel,Hotel Karya Papua,"JGX6+2PM, Jl. R.E. Martadinata Kalinona, Nabarua, Distrik Nabire, Papua 98816","Jl. R.E. Martadinata Kalinona, Nabarua, Distrik Nabire",PAPUA,98816.0,Indonesia,82164655697.0,-3.3524082,135.5118114,https://maps.google.com/?cid=0x0:0x8196bf4b8aafbb3f
hotel,hotel,Hotel Dafonsoro,"Jl. Percetakan Negara No.20-24, Gurabesi, Kec. Jayapura Utara, Kota Jayapura, Papua 99221","Gurabesi, Kec. Jayapura Utara, Kota Jayapura",PAPUA,99221.0,Indonesia,85788877739.0,-2.5406973,140.7041061,https://maps.google.com/?cid=0x0:0xda20a7d826a77577
hotel,hotel,Hotel Grand Papua Sentani,"Jalan Sosial No.388, Hinekombe, Kec. Sentani, Kabupaten Jayapura, Papua 99352","Hinekombe, Kec. Sentani, Kabupaten Jayapura",PAPUA,99352.0,Indonesia,8114827899.0,-2.557344,140.4958181,https://maps.google.com/?cid=0x0:0x9afaf186d23bb377
hotel,hotel,Papua 99358,"Kabupaten Jayapura, Papua","Kabupaten Jayapura, Papua",PAPUA,,Indonesia,,-2.5423787,140.3894858,https://maps.google.com/?cid=0x0:0xe811437fcb2474bb
hotel,hotel,Horison Sentani Papua,"Jl. Raya Kemiri No.79A, Hinekombe, Kec. Sentani, Kabupaten Jayapura, Papua 99352","Hinekombe, Kec. Sentani, Kabupaten Jayapura",PAPUA,99352.0,Indonesia,9675198888.0,-2.564948,140.5134784,https://maps.google.com/?cid=0x0:0x2481b253bbad1508
hotel,hotel,GRAND TAHARA SENTANI Hotel  Convention,"Jl. Raya Kemiri, Hinekombe, Kec. Sentani, Kabupaten Jayapura, Papua 99359","Hinekombe, Kec. Sentani, Kabupaten Jayapura",PAPUA,99359.0,Indonesia,82197796699.0,-2.5653049,140.5098925,https://maps.google.com/?cid=0x0:0xdfa507ac6ec552f1
hotel,hotel,,,,PAPUA,,Indonesia,,,,https://maps.google.com/?cid=0x0:0xa7477e43d92fc166%7C/g/11b73qj9kn%7Cid-ID
hotel,hotel,HOTEL AINA,"CGM6+R9J, Jl. Raya Kemiri, Sentani Kota, Kec. Sentani, Kabupaten Jayapura, Papua","Kabupaten Jayapura, Papua",PAPUA,,Indonesia,85243960057.0,-2.5654218,140.5108844,https://maps.google.com/?cid=0x0:0xe10f3eb6fe778f83
hotel,hotel,GRAND ALLISON SENTANI,"Jl. Raya Kemiri No.282, Hinekombe, Kec. Sentani, Kabupaten Jayapura, Papua 99359","Hinekombe, Kec. Sentani, Kabupaten Jayapura",PAPUA,99359.0,Indonesia,967592110.0,-2.5639057,140.5014423,https://maps.google.com/?cid=0x0:0xa7477e43d92fc166
hotel,hotel,Hotel Suni Sentani - Managed by East Season,"Jalan, Sentani Kota, Sentani, Jayapura Regency, Papua 99359","Sentani Kota, Sentani, Jayapura Regency",PAPUA,99359.0,Indonesia,967591900.0,-2.5717113,140.5355341,https://maps.google.com/?cid=0x0:0x18fc7a4a1035d3f1
hotel,hotel,,,,PAPUA,,Indonesia,,,,https://maps.google.com/?cid=0x0:0x18fc7a4a1035d3f1%7C/g/11gl124vfj%7Cid-ID
hotel,hotel,The View Village (Villa Efata),"Unnamed Road, Doyo Lama, Distrik Waibu, Kabupaten Jayapura, Papua 99352","Doyo Lama, Distrik Waibu, Kabupaten Jayapura",PAPUA,99352.0,Indonesia,,-2.5658464,140.4653663,https://maps.google.com/?cid=0x0:0x10899d41205e5344
hotel,hotel,Elohim Hotel Sentani,"Jl. Raya Airport Sentani, Sentani Kota, Kec. Sentani, Kabupaten Jayapura, Papua 99359","Sentani Kota, Kec. Sentani, Kabupaten Jayapura",PAPUA,99359.0,Indonesia,9675197378.0,-2.5699317,140.5305705,https://maps.google.com/?cid=0x0:0x2be744e8f3a4148f
hotel,hotel,Hotel Rasen Jayapura,"JL. Kelurahan No. 2, Sentani, Sentani Kota, Kec. Sentani, Kabupaten Jayapura, Papua 99359","Sentani, Sentani Kota, Kec. Sentani, Kabupaten Jayapura",PAPUA,99359.0,Indonesia,967594455.0,-2.565983,140.5128773,https://maps.google.com/?cid=0x0:0x1f8b527606c00be2
hotel,hotel,Hotel Sentani Raya,"CGJ3+5WF, Dobonsolo, Kec. Sentani, Kabupaten Jayapura, Papua 99352","Dobonsolo, Kec. Sentani, Kabupaten Jayapura",PAPUA,99352.0,Indonesia,82198836361.0,-2.5695522,140.5047899,https://maps.google.com/?cid=0x0:0x43f473d1f4c2aa7f
hotel,hotel,SIP Azana Hotel Jayapura,"Jl. Ahmad Yani No.50, Gurabesi, Kec. Jayapura Utara, Kota Jayapura, Papua 99221","Gurabesi, Kec. Jayapura Utara, Kota Jayapura",PAPUA,99221.0,Indonesia,82197886688.0,-2.5436754,140.7014241,https://maps.google.com/?cid=0x0:0xc311c59465e76f9e
hotel,hotel,Papua 99357,"Kabupaten Jayapura, Papua","Kabupaten Jayapura, Papua",PAPUA,,Indonesia,,-2.7850607,140.2244429,https://maps.google.com/?cid=0x0:0x37d7dde7ca57ffbb
hotel,hotel,Hotel Grand Papua Sentani,"Jalan Sosial No.388, Hinekombe, Kec. Sentani, Kabupaten Jayapura, Papua 99352","Hinekombe, Kec. Sentani, Kabupaten Jayapura",PAPUA,99352.0,Indonesia,8114827899.0,-2.557344,140.4958181,https://maps.google.com/?cid=0x0:0x9afaf186d23bb377
hotel,hotel,Horison Sentani Papua,"Jl. Raya Kemiri No.79A, Hinekombe, Kec. Sentani, Kabupaten Jayapura, Papua 99352","Hinekombe, Kec. Sentani, Kabupaten Jayapura",PAPUA,99352.0,Indonesia,9675198888.0,-2.564948,140.5134784,https://maps.google.com/?cid=0x0:0x2481b253bbad1508
hotel,hotel,,,,PAPUA,,Indonesia,,,,https://maps.google.com/?cid=0x0:0xa7477e43d92fc166%7C/g/11b73qj9kn%7Cid-ID
hotel,hotel,GRAND ALLISON SENTANI,"Jl. Raya Kemiri No.282, Hinekombe, Kec. Sentani, Kabupaten Jayapura, Papua 99359","Hinekombe, Kec. Sentani, Kabupaten Jayapura",PAPUA,99359.0,Indonesia,967592110.0,-2.5639057,140.5014423,https://maps.google.com/?cid=0x0:0xa7477e43d92fc166
hotel,hotel,GRAND TAHARA SENTANI Hotel  Convention,"Jl. Raya Kemiri, Hinekombe, Kec. Sentani, Kabupaten Jayapura, Papua 99359","Hinekombe, Kec. Sentani, Kabupaten Jayapura",PAPUA,99359.0,Indonesia,82197796699.0,-2.5653049,140.5098925,https://maps.google.com/?cid=0x0:0xdfa507ac6ec552f1
hotel,hotel,Hotel Sahid Papua,"Jl. Klp. 2 No.18, Entrop, Distrik Jayapura Selatan, Kota Jayapura, Papua 99221","Entrop, Distrik Jayapura Selatan, Kota Jayapura",PAPUA,99221.0,Indonesia,8114814009.0,-2.5661461,140.6996539,https://maps.google.com/?cid=0x0:0x9c8a2fd141b3aa33
hotel,hotel,,,,PAPUA,,Indonesia,,,,https://maps.google.com/?cid=0x0:0x9c8a2fd141b3aa33%7C/g/11b73kkp76%7Cid-ID
hotel,hotel,Hotel Suni Sentani - Managed by East Season,"Jalan, Sentani Kota, Sentani, Jayapura Regency, Papua 99359","Sentani Kota, Sentani, Jayapura Regency",PAPUA,99359.0,Indonesia,967591900.0,-2.5717113,140.5355341,https://maps.google.com/?cid=0x0:0x18fc7a4a1035d3f1
hotel,hotel,HOTEL AINA,"CGM6+R9J, Jl. Raya Kemiri, Sentani Kota, Kec. Sentani, Kabupaten Jayapura, Papua","Kabupaten Jayapura, Papua",PAPUA,,Indonesia,85243960057.0,-2.5654218,140.5108844,https://maps.google.com/?cid=0x0:0xe10f3eb6fe778f83
hotel,hotel,,,,PAPUA,,Indonesia,,,,https://maps.google.com/?cid=0x0:0x18fc7a4a1035d3f1%7C/g/11gl124vfj%7Cid-ID
hotel,hotel,RedDoorz near Sentani Airport Jayapura,"Jl. Ps. Lama Sentani, Dobonsolo, Kec. Sentani, Kabupaten Jayapura, Papua 99359","Dobonsolo, Kec. Sentani, Kabupaten Jayapura",PAPUA,99359.0,Indonesia,895417300072.0,-2.5695891,140.5044768,https://maps.google.com/?cid=0x0:0xcd4be0c82712defa
hotel,hotel,Urbanview Hotel Sabang Land Syariah Jayapura,"CGHQ+2CH, Jl. Raya Abepura - Sentani, Nendali, Kec. Sentani Tim., Kabupaten Jayapura, Papua 99359","Jl. Raya Abepura - Sentani, Nendali, Kec. Sentani Tim., Kabupaten Jayapura",PAPUA,99359.0,Indonesia,895417300072.0,-2.5723956,140.5385353,https://maps.google.com/?cid=0x0:0xceff09b55202b95d
hotel,hotel,Patmos Guest House,"Jl. Pos 7 No.53, Sentani Kota, Kec. Sentani, Kabupaten Jayapura, Papua 99352","Sentani Kota, Kec. Sentani, Kabupaten Jayapura",PAPUA,99352.0,Indonesia,81212748790.0,-2.561908,140.5084075,https://maps.google.com/?cid=0x0:0xffe8a74235ae9f69
hotel,hotel,Papua 99357,"Kabupaten Jayapura, Papua","Kabupaten Jayapura, Papua",PAPUA,,Indonesia,,-2.7850607,140.2244429,https://maps.google.com/?cid=0x0:0x37d7dde7ca57ffbb
hotel,hotel,Hotel Grand Papua Sentani,"Jalan Sosial No.388, Hinekombe, Kec. Sentani, Kabupaten Jayapura, Papua 99352","Hinekombe, Kec. Sentani, Kabupaten Jayapura",PAPUA,99352.0,Indonesia,8114827899.0,-2.557344,140.4958181,https://maps.google.com/?cid=0x0:0x9afaf186d23bb377
hotel,hotel,Horison Sentani Papua,"Jl. Raya Kemiri No.79A, Hinekombe, Kec. Sentani, Kabupaten Jayapura, Papua 99352","Hinekombe, Kec. Sentani, Kabupaten Jayapura",PAPUA,99352.0,Indonesia,9675198888.0,-2.564948,140.5134784,https://maps.google.com/?cid=0x0:0x2481b253bbad1508
hotel,hotel,,,,PAPUA,,Indonesia,,,,https://maps.google.com/?cid=0x0:0xa7477e43d92fc166%7C/g/11b73qj9kn%7Cid-ID
hotel,hotel,GRAND TAHARA SENTANI Hotel  Convention,"Jl. Raya Kemiri, Hinekombe, Kec. Sentani, Kabupaten Jayapura, Papua 99359","Hinekombe, Kec. Sentani, Kabupaten Jayapura",PAPUA,99359.0,Indonesia,82197796699.0,-2.5653049,140.5098925,https://maps.google.com/?cid=0x0:0xdfa507ac6ec552f1
hotel,hotel,GRAND ALLISON SENTANI,"Jl. Raya Kemiri No.282, Hinekombe, Kec. Sentani, Kabupaten Jayapura, Papua 99359","Hinekombe, Kec. Sentani, Kabupaten Jayapura",PAPUA,99359.0,Indonesia,967592110.0,-2.5639057,140.5014423,https://maps.google.com/?cid=0x0:0xa7477e43d92fc166
hotel,hotel,Hotel Suni Sentani - Managed by East Season,"Jalan, Sentani Kota, Sentani, Jayapura Regency, Papua 99359","Sentani Kota, Sentani, Jayapura Regency",PAPUA,99359.0,Indonesia,967591900.0,-2.5717113,140.5355341,https://maps.google.com/?cid=0x0:0x18fc7a4a1035d3f1
hotel,hotel,HOTEL AINA,"CGM6+R9J, Jl. Raya Kemiri, Sentani Kota, Kec. Sentani, Kabupaten Jayapura, Papua","Kabupaten Jayapura, Papua",PAPUA,,Indonesia,85243960057.0,-2.5654218,140.5108844,https://maps.google.com/?cid=0x0:0xe10f3eb6fe778f83
hotel,hotel,,,,PAPUA,,Indonesia,,,,https://maps.google.com/?cid=0x0:0x18fc7a4a1035d3f1%7C/g/11gl124vfj%7Cid-ID
hotel,hotel,RedDoorz near Sentani Airport Jayapura,"Jl. Ps. Lama Sentani, Dobonsolo, Kec. Sentani, Kabupaten Jayapura, Papua 99359","Dobonsolo, Kec. Sentani, Kabupaten Jayapura",PAPUA,99359.0,Indonesia,895417300072.0,-2.5695891,140.5044768,https://maps.google.com/?cid=0x0:0xcd4be0c82712defa
hotel,hotel,Urbanview Hotel Sabang Land Syariah Jayapura,"CGHQ+2CH, Jl. Raya Abepura - Sentani, Nendali, Kec. Sentani Tim., Kabupaten Jayapura, Papua 99359","Jl. Raya Abepura - Sentani, Nendali, Kec. Sentani Tim., Kabupaten Jayapura",PAPUA,99359.0,Indonesia,895417300072.0,-2.5723956,140.5385353,https://maps.google.com/?cid=0x0:0xceff09b55202b95d
hotel,hotel,Patmos Guest House,"Jl. Pos 7 No.53, Sentani Kota, Kec. Sentani, Kabupaten Jayapura, Papua 99352","Sentani Kota, Kec. Sentani, Kabupaten Jayapura",PAPUA,99352.0,Indonesia,81212748790.0,-2.561908,140.5084075,https://maps.google.com/?cid=0x0:0xffe8a74235ae9f69
hotel,hotel,RedDoorz Syariah near Sentani City Square,"Jl. Sosial, Hinekombe, Kec. Sentani, Kabupaten Jayapura, Papua 99359","Hinekombe, Kec. Sentani, Kabupaten Jayapura",PAPUA,99359.0,Indonesia,895417300072.0,-2.5571877,140.4960826,https://maps.google.com/?cid=0x0:0xc6927e36509af555
hotel,hotel,Sataria Homestay,"Jl. Pasir No.Gang 2, Sentani Kota, Kec. Sentani, Kabupaten Jayapura, Papua 99359","Sentani Kota, Kec. Sentani, Kabupaten Jayapura",PAPUA,99359.0,Indonesia,81239001099.0,-2.5697715,140.5219881,https://maps.google.com/?cid=0x0:0xac547e8a9d5820d4
hotel,hotel,Distrik Nimboran,"Kabupaten Jayapura, Papua","Kabupaten Jayapura, Papua",PAPUA,,Indonesia,,-2.5963423,140.1662573,https://maps.google.com/?cid=0x0:0x1cf39af2b94e731d
hotel,hotel,Patmos Guest House,"Jl. Pos 7 No.53, Sentani Kota, Kec. Sentani, Kabupaten Jayapura, Papua 99352","Sentani Kota, Kec. Sentani, Kabupaten Jayapura",PAPUA,99352.0,Indonesia,81212748790.0,-2.561908,140.5084075,https://maps.google.com/?cid=0x0:0xffe8a74235ae9f69
hotel,hotel,Numbay Hotel,"Jl. Trikora No.23, Dok V, Trikora, Kec. Jayapura Utara, Kota Jayapura, Papua 99114","Dok V, Trikora, Kec. Jayapura Utara, Kota Jayapura",PAPUA,99114.0,Indonesia,9675166939.0,-2.527363,140.7185297,https://maps.google.com/?cid=0x0:0x2a95e5b69088c98d
hotel,hotel,Gerson Hotel Abepura  Cafe,"Jl. Bosnik BTN Kamkey, Awiyo, Kec. Abepura, Kota Jayapura, Papua 99351","Awiyo, Kec. Abepura, Kota Jayapura",PAPUA,99351.0,Indonesia,895417300072.0,-2.6194737,140.6739776,https://maps.google.com/?cid=0x0:0xee11e02b061cf5df
hotel,hotel,Penginapan 69,"Kp. Waena, Kec. Heram, Kota Jayapura, Papua 99225","Kec. Heram, Kota Jayapura",PAPUA,99225.0,Indonesia,81248523621.0,-2.593495,140.6310796,https://maps.google.com/?cid=0x0:0x12711ec27878fab8
hotel,hotel,Hotel Grand Papua Sentani,"Jalan Sosial No.388, Hinekombe, Kec. Sentani, Kabupaten Jayapura, Papua 99352","Hinekombe, Kec. Sentani, Kabupaten Jayapura",PAPUA,99352.0,Indonesia,8114827899.0,-2.557344,140.4958181,https://maps.google.com/?cid=0x0:0x9afaf186d23bb377
hotel,hotel,Horison Sentani Papua,"Jl. Raya Kemiri No.79A, Hinekombe, Kec. Sentani, Kabupaten Jayapura, Papua 99352","Hinekombe, Kec. Sentani, Kabupaten Jayapura",PAPUA,99352.0,Indonesia,9675198888.0,-2.564948,140.5134784,https://maps.google.com/?cid=0x0:0x2481b253bbad1508
hotel,hotel,Hotel Ratna Manunggal,"JL Penerangan No.2, Sentani Kota, Kec. Sentani, Kabupaten Jayapura, Papua 99359","Sentani Kota, Kec. Sentani, Kabupaten Jayapura",PAPUA,99359.0,Indonesia,967592277.0,-2.5664673,140.5131587,https://maps.google.com/?cid=0x0:0x48909e20fce419f9
hotel,hotel,Urbanview Hotel ME Jayapura,"Jl. Belut 13, Kp. Waena, expo, Kota Jayapura, Papua 99351","Kp. Waena, expo, Kota Jayapura",PAPUA,99351.0,Indonesia,895417300072.0,-2.5961874,140.6289663,https://maps.google.com/?cid=0x0:0x71d5532a01326fb7
hotel,hotel,Hotel Surya Jaya,"Dobonsolo, Kec. Sentani, Kabupaten Jayapura, Papua 99352","Kec. Sentani, Kabupaten Jayapura",PAPUA,99352.0,Indonesia,82258897707.0,-2.5695916,140.5044756,https://maps.google.com/?cid=0x0:0x705c2fe69d32db2b
hotel,hotel,Papua 99362,"Kabupaten Jayapura, Papua","Kabupaten Jayapura, Papua",PAPUA,,Indonesia,,-2.4816716,139.998236,https://maps.google.com/?cid=0x0:0x914eb9d0bad553fd
hotel,hotel,Hotel Suni Abepura,"Jl. Baru Ps. Lama Abepura, Wai Mhorock, Kec. Abepura, Kota Jayapura, Papua 99225","Wai Mhorock, Kec. Abepura, Kota Jayapura",PAPUA,99225.0,Indonesia,9675540888.0,-2.6085094,140.6741951,https://maps.google.com/?cid=0x0:0x53835df7d2648dc3
hotel,hotel,Pantai Base-G,"Tj. Ria, Kec. Jayapura Utara, Kota Jayapura, Papua","Kota Jayapura, Papua",PAPUA,,Indonesia,,-2.5174272,140.7397204,https://maps.google.com/?cid=0x0:0x9c239c300165aea7
hotel,hotel,,,,PAPUA,,Indonesia,,,,https://maps.google.com/?cid=0x0:0x18fc7a4a1035d3f1%7C/g/11gl124vfj%7Cid-ID
hotel,hotel,Hotel Suni Sentani - Managed by East Season,"Jalan, Sentani Kota, Sentani, Jayapura Regency, Papua 99359","Sentani Kota, Sentani, Jayapura Regency",PAPUA,99359.0,Indonesia,967591900.0,-2.5717113,140.5355341,https://maps.google.com/?cid=0x0:0x18fc7a4a1035d3f1
hotel,hotel,,,,PAPUA,,Indonesia,,,,https://maps.google.com/?cid=0x0:0x5a25068c30daecb0%7C/g/11bx0dndr2%7Cid-ID
hotel,hotel,Citihub Hotel,"Wai Mhorock, Abepura, Kota Jayapura, Papua 99225, Wai Mhorock, Kec. Abepura, Kota Jayapura, Papua 99552","Abepura, Kota Jayapura, Papua",PAPUA,99225.0,Indonesia,9675180123.0,-2.6081763,140.6741417,https://maps.google.com/?cid=0x0:0x5a25068c30daecb0
hotel,hotel,Horison Sentani Papua,"Jl. Raya Kemiri No.79A, Hinekombe, Kec. Sentani, Kabupaten Jayapura, Papua 99352","Hinekombe, Kec. Sentani, Kabupaten Jayapura",PAPUA,99352.0,Indonesia,9675198888.0,-2.564948,140.5134784,https://maps.google.com/?cid=0x0:0x2481b253bbad1508
hotel,Tujuan Wisata,Bukit Tungku Wiri,"CFC2+4PC, Unnamed Road, Kwadeware, Waibu, Jayapura Regency, Papua 99352","Unnamed Road, Kwadeware, Waibu, Jayapura Regency",PAPUA,99352.0,Indonesia,,-2.579683,140.4517638,https://maps.google.com/?cid=0x0:0x80f15023fd6742d5
hotel,hotel,Pulau Ase,"Asei Besar, Kec. Sentani Tim., Kabupaten Jayapura, Papua","Kabupaten Jayapura, Papua",PAPUA,,Indonesia,,-2.6036111,140.5794444,https://maps.google.com/?cid=0x0:0xe0ca8cbcae1894a6
hotel,hotel,The View Village (Villa Efata),"Unnamed Road, Doyo Lama, Distrik Waibu, Kabupaten Jayapura, Papua 99352","Doyo Lama, Distrik Waibu, Kabupaten Jayapura",PAPUA,99352.0,Indonesia,,-2.5658464,140.4653663,https://maps.google.com/?cid=0x0:0x10899d41205e5344
hotel,hotel,Rimba Papua Hotel,"Jl. Kwamki Narama No. 1, Kwamki, Kec. Mimika Baru, Kabupaten Mimika, Papua 99971","Kwamki, Kec. Mimika Baru, Kabupaten Mimika",PAPUA,99971.0,Indonesia,901494949.0,-4.5151124,136.884599,https://maps.google.com/?cid=0x0:0xa65056700db32492
hotel,Hotel,Enang Hotel Sentani,"CGJM+89G, Jalan Raya Jalan Hawai, Sentani Kota, Kec. Sentani, Kabupaten Jayapura, Papua 99359","Jalan Raya Jalan Hawai, Sentani Kota, Kec. Sentani, Kabupaten Jayapura",PAPUA,99359.0,Indonesia,9675192661.0,-2.5691799,140.5334505,https://maps.google.com/?cid=0x0:0xf625a6f15858bcf8
hotel,hotel,Hotel Ratna Manunggal,"JL Penerangan No.2, Sentani Kota, Kec. Sentani, Kabupaten Jayapura, Papua 99359","Sentani Kota, Kec. Sentani, Kabupaten Jayapura",PAPUA,99359.0,Indonesia,967592277.0,-2.5664673,140.5131587,https://maps.google.com/?cid=0x0:0x48909e20fce419f9
hotel,Pembangkit listrik hidroelektrik,Mess ULPLTA ORYA,"9299+4QQ, Komp ULPLTA ORYA GENYEM, JL TRANS TAJA, Sentosa, DISTRIK UNURUMGUAI, Kabupaten Jayapura, Papua 99361","Komp ULPLTA ORYA GENYEM, JL TRANS TAJA, Sentosa, DISTRIK UNURUMGUAI, Kabupaten Jayapura",PAPUA,99361.0,Indonesia,,-2.6321691,140.0195,https://maps.google.com/?cid=0x0:0xe5e90225abc2ee32
hotel,hotel,Papua 99356,"Kabupaten Jayapura, Papua","Kabupaten Jayapura, Papua",PAPUA,,Indonesia,,-2.7977377,139.7728757,https://maps.google.com/?cid=0x0:0x48ebe0b186aa7324
hotel,hotel,Hotel Grand Papua Kaimana,"Lingkar tanjung simora, Kroy, Kec. Kaimana, Kabupaten Kaimana, Papua Bar. 98654","Kroy, Kec. Kaimana, Kabupaten Kaimana",PAPUA,98654.0,Indonesia,82248850669.0,-3.6691103,133.7028408,https://maps.google.com/?cid=0x0:0x964de24b7e359ec2
hotel,Kantor Perusahaan,Mess Cenderawasih,"3X7G+VC, Yadauw, Kaureh, Kabupaten Jayapura, Papua","Kabupaten Jayapura, Papua",PAPUA,,Indonesia,,-2.9352506,139.9760167,https://maps.google.com/?cid=0x0:0xc571e9fe6716555e
hotel,hotel,Papua 99354,"Kabupaten Jayapura, Papua","Kabupaten Jayapura, Papua",PAPUA,,Indonesia,,-2.425843,140.1626664,https://maps.google.com/?cid=0x0:0xed2e9d28341a8606
hotel,hotel,Hotel Sahid Papua,"Jl. Klp. 2 No.18, Entrop, Distrik Jayapura Selatan, Kota Jayapura, Papua 99221","Entrop, Distrik Jayapura Selatan, Kota Jayapura",PAPUA,99221.0,Indonesia,8114814009.0,-2.5661461,140.6996539,https://maps.google.com/?cid=0x0:0x9c8a2fd141b3aa33
hotel,hotel,,,,PAPUA,,Indonesia,,,,https://maps.google.com/?cid=0x0:0x9c8a2fd141b3aa33%7C/g/11b73kkp76%7Cid-ID
hotel,hotel,The View Village (Villa Efata),"Unnamed Road, Doyo Lama, Distrik Waibu, Kabupaten Jayapura, Papua 99352","Doyo Lama, Distrik Waibu, Kabupaten Jayapura",PAPUA,99352.0,Indonesia,,-2.5658464,140.4653663,https://maps.google.com/?cid=0x0:0x10899d41205e5344
hotel,hotel,Tirta Mandala Hotel,"Jl. Samudra No.42, Mandala, Kec. Jayapura Utara, Kota Jayapura, Papua","Kota Jayapura, Papua",PAPUA,,Indonesia,967536304.0,-2.5339053,140.7251568,https://maps.google.com/?cid=0x0:0x2eda6a5a3b994213
hotel,hotel,Hotel Dafonsoro,"Jl. Percetakan Negara No.20-24, Gurabesi, Kec. Jayapura Utara, Kota Jayapura, Papua 99221","Gurabesi, Kec. Jayapura Utara, Kota Jayapura",PAPUA,99221.0,Indonesia,85788877739.0,-2.5406973,140.7041061,https://maps.google.com/?cid=0x0:0xda20a7d826a77577
hotel,hotel,hotel metta,"9JVX+CR5, Jl. Raya Abepura - Sentani, Hedam, Kec. Sentani Tim., Kota Jayapura, Papua 99351","Jl. Raya Abepura - Sentani, Hedam, Kec. Sentani Tim., Kota Jayapura",PAPUA,99351.0,Indonesia,,-2.6064844,140.6496102,https://maps.google.com/?cid=0x0:0x9e3cc33a06a4fc7c
hotel,hotel,Hotel Karya Papua,"JGX6+2PM, Jl. R.E. Martadinata Kalinona, Nabarua, Distrik Nabire, Papua 98816","Jl. R.E. Martadinata Kalinona, Nabarua, Distrik Nabire",PAPUA,98816.0,Indonesia,82164655697.0,-3.3524082,135.5118114,https://maps.google.com/?cid=0x0:0x8196bf4b8aafbb3f
hotel,hotel,Demta Kota,"Distrik Demta, Kabupaten Jayapura, Papua","Kabupaten Jayapura, Papua",PAPUA,,Indonesia,,-2.4056557,140.1369447,https://maps.google.com/?cid=0x0:0x39ba1270b977461a
hotel,hotel,Penginapan 69,"Kp. Waena, Kec. Heram, Kota Jayapura, Papua 99225","Kec. Heram, Kota Jayapura",PAPUA,99225.0,Indonesia,81248523621.0,-2.593495,140.6310796,https://maps.google.com/?cid=0x0:0x12711ec27878fab8
hotel,hotel,"Swiss-Belhotel Jayapura, Papua","Pusat Bisnis Jayapura, Jl. Pacific Permai, Bayangkara, Kec. Jayapura Utara, Kota Jayapura, Papua 99112","Jl. Pacific Permai, Bayangkara, Kec. Jayapura Utara, Kota Jayapura",PAPUA,99112.0,Indonesia,967551888.0,-2.539046,140.711573,https://maps.google.com/?cid=0x0:0xbd14f75af0c6e48b
hotel,hotel,,,,PAPUA,,Indonesia,,,,https://maps.google.com/?cid=0x0:0xbd14f75af0c6e48b%7C/g/120xv389%7Cid-ID
hotel,Hotel,Kadaprum Beach Hotel,"J4VV+4W8, Demta Kota, Distrik Demta, Kabupaten Jayapura, Papua","Kabupaten Jayapura, Papua",PAPUA,,Indonesia,,-2.3572087,140.144837,https://maps.google.com/?cid=0x0:0xe8b8d997a3bcb29a
hotel,Rumah Pondokan,INSOS KROBO,"J5J2+VPR, Yakore, Distrik Demta, Kabupaten Jayapura, Papua 99354","Yakore, Distrik Demta, Kabupaten Jayapura",PAPUA,99354.0,Indonesia,,-2.3677616,140.1517621,https://maps.google.com/?cid=0x0:0xa10c39d9aab3390e
hotel,hotel,Papua 99364,"Kabupaten Jayapura, Papua","Kabupaten Jayapura, Papua",PAPUA,,Indonesia,,-3.2384616,139.8547266,https://maps.google.com/?cid=0x0:0x2e9677508a097a0f
hotel,hotel,Hotel Sahid Papua,"Jl. Klp. 2 No.18, Entrop, Distrik Jayapura Selatan, Kota Jayapura, Papua 99221","Entrop, Distrik Jayapura Selatan, Kota Jayapura",PAPUA,99221.0,Indonesia,8114814009.0,-2.5661461,140.6996539,https://maps.google.com/?cid=0x0:0x9c8a2fd141b3aa33
hotel,hotel,,,,PAPUA,,Indonesia,,,,https://maps.google.com/?cid=0x0:0x9c8a2fd141b3aa33%7C/g/11b73kkp76%7Cid-ID
hotel,hotel,Hotel Serayu,"Jl. Yos Sudarso No.10, Koperapoka, Kec. Mimika Baru, Kabupaten Mimika, Papua 99971","Koperapoka, Kec. Mimika Baru, Kabupaten Mimika",PAPUA,99971.0,Indonesia,82199984085.0,-4.5492995,136.8902348,https://maps.google.com/?cid=0x0:0xe357fb3041308a6c
hotel,hotel,Hotel R6,"Jl.Cendrawasih SP2, Papua 99952","Kabupaten Mimika, Papua",PAPUA,,Indonesia,82245112457.0,-4.538464,136.8691429,https://maps.google.com/?cid=0x0:0xb392d58fbaabfb69
hotel,hotel,Galaxy Hotel Abepura,"Kp. Waena, Kec. Heram, Kota Jayapura, Papua 99351","Kec. Heram, Kota Jayapura",PAPUA,99351.0,Indonesia,81150500147.0,-2.5944039,140.6254198,https://maps.google.com/?cid=0x0:0xf9951793f247fc13
hotel,hotel,Hotel Mutiara,"CM3C+873, Jl. Perkutut, Vim, Kec. Abepura, Kota Jayapura, Papua 99225","Jl. Perkutut, Vim, Kec. Abepura, Kota Jayapura",PAPUA,99225.0,Indonesia,81348430963.0,-2.5967398,140.6706613,https://maps.google.com/?cid=0x0:0xb730b0fce1d80fe4
hotel,hotel,Hotel Surya Jaya,"Dobonsolo, Kec. Sentani, Kabupaten Jayapura, Papua 99352","Kec. Sentani, Kabupaten Jayapura",PAPUA,99352.0,Indonesia,82258897707.0,-2.5695916,140.5044756,https://maps.google.com/?cid=0x0:0x705c2fe69d32db2b
hotel,hotel,Hotel Karya Papua,"JGX6+2PM, Jl. R.E. Martadinata Kalinona, Nabarua, Distrik Nabire, Papua 98816","Jl. R.E. Martadinata Kalinona, Nabarua, Distrik Nabire",PAPUA,98816.0,Indonesia,82164655697.0,-3.3524082,135.5118114,https://maps.google.com/?cid=0x0:0x8196bf4b8aafbb3f
hotel,hotel,Gerson Hotel Abepura  Cafe,"Jl. Bosnik BTN Kamkey, Awiyo, Kec. Abepura, Kota Jayapura, Papua 99351","Awiyo, Kec. Abepura, Kota Jayapura",PAPUA,99351.0,Indonesia,895417300072.0,-2.6194737,140.6739776,https://maps.google.com/?cid=0x0:0xee11e02b061cf5df
hotel,hotel,Rimba Papua Hotel,"Jl. Kwamki Narama No. 1, Kwamki, Kec. Mimika Baru, Kabupaten Mimika, Papua 99971","Kwamki, Kec. Mimika Baru, Kabupaten Mimika",PAPUA,99971.0,Indonesia,901494949.0,-4.5151124,136.884599,https://maps.google.com/?cid=0x0:0xa65056700db32492
hotel,hotel,Tahara Hotel,"JL. Kemiri, No. 26, Sentani, Mandala, Kec. Jayapura Utara, Kota Jayapura, Papua","Kota Jayapura, Papua",PAPUA,,Indonesia,967591388.0,-2.533,140.717,https://maps.google.com/?cid=0x0:0xd8524eddaaa461a3
hotel,hotel,Kharis HomeStay,"Wahno, Kec. Abepura, Kota Jayapura, Papua 99224","Kec. Abepura, Kota Jayapura",PAPUA,99224.0,Indonesia,81343178473.0,-2.5928047,140.6715253,https://maps.google.com/?cid=0x0:0xa6fa765a74261b59
hotel,hotel,Hotel Rannu Jaya,"WW6V+7RM, Wamena Kota, Distrik Wamena, Kabupaten Jayawijaya, Papua 99511","Wamena Kota, Distrik Wamena, Kabupaten Jayawijaya",PAPUA,99511.0,Indonesia,82195455765.0,-4.0892985,138.9445592,https://maps.google.com/?cid=0x0:0xdd25cadd9590097a
hotel,hotel,Papua 99352,"Kabupaten Jayapura, Papua","Kabupaten Jayapura, Papua",PAPUA,,Indonesia,,-2.5683577,140.4618316,https://maps.google.com/?cid=0x0:0xc4bf3fc2f14cfb38
hotel,hotel,Hotel Grand Papua Sentani,"Jalan Sosial No.388, Hinekombe, Kec. Sentani, Kabupaten Jayapura, Papua 99352","Hinekombe, Kec. Sentani, Kabupaten Jayapura",PAPUA,99352.0,Indonesia,8114827899.0,-2.557344,140.4958181,https://maps.google.com/?cid=0x0:0x9afaf186d23bb377
hotel,hotel,Horison Sentani Papua,"Jl. Raya Kemiri No.79A, Hinekombe, Kec. Sentani, Kabupaten Jayapura, Papua 99352","Hinekombe, Kec. Sentani, Kabupaten Jayapura",PAPUA,99352.0,Indonesia,9675198888.0,-2.564948,140.5134784,https://maps.google.com/?cid=0x0:0x2481b253bbad1508
hotel,hotel,GRAND ALLISON SENTANI,"Jl. Raya Kemiri No.282, Hinekombe, Kec. Sentani, Kabupaten Jayapura, Papua 99359","Hinekombe, Kec. Sentani, Kabupaten Jayapura",PAPUA,99359.0,Indonesia,967592110.0,-2.5639057,140.5014423,https://maps.google.com/?cid=0x0:0xa7477e43d92fc166
hotel,hotel,GRAND TAHARA SENTANI Hotel  Convention,"Jl. Raya Kemiri, Hinekombe, Kec. Sentani, Kabupaten Jayapura, Papua 99359","Hinekombe, Kec. Sentani, Kabupaten Jayapura",PAPUA,99359.0,Indonesia,82197796699.0,-2.5653049,140.5098925,https://maps.google.com/?cid=0x0:0xdfa507ac6ec552f1
hotel,hotel,,,,PAPUA,,Indonesia,,,,https://maps.google.com/?cid=0x0:0xa7477e43d92fc166%7C/g/11b73qj9kn%7Cid-ID
hotel,hotel,RedDoorz near Sentani Airport Jayapura,"Jl. Ps. Lama Sentani, Dobonsolo, Kec. Sentani, Kabupaten Jayapura, Papua 99359","Dobonsolo, Kec. Sentani, Kabupaten Jayapura",PAPUA,99359.0,Indonesia,895417300072.0,-2.5695891,140.5044768,https://maps.google.com/?cid=0x0:0xcd4be0c82712defa
hotel,hotel,HOTEL AINA,"CGM6+R9J, Jl. Raya Kemiri, Sentani Kota, Kec. Sentani, Kabupaten Jayapura, Papua","Kabupaten Jayapura, Papua",PAPUA,,Indonesia,85243960057.0,-2.5654218,140.5108844,https://maps.google.com/?cid=0x0:0xe10f3eb6fe778f83
hotel,hotel,RedDoorz Syariah near Sentani City Square,"Jl. Sosial, Hinekombe, Kec. Sentani, Kabupaten Jayapura, Papua 99359","Hinekombe, Kec. Sentani, Kabupaten Jayapura",PAPUA,99359.0,Indonesia,895417300072.0,-2.5571877,140.4960826,https://maps.google.com/?cid=0x0:0xc6927e36509af555
hotel,hotel,Patmos Guest House,"Jl. Pos 7 No.53, Sentani Kota, Kec. Sentani, Kabupaten Jayapura, Papua 99352","Sentani Kota, Kec. Sentani, Kabupaten Jayapura",PAPUA,99352.0,Indonesia,81212748790.0,-2.561908,140.5084075,https://maps.google.com/?cid=0x0:0xffe8a74235ae9f69
hotel,hotel,HOTEL GRAND ONE SENTANI,"Jl. Ps. Baru Sentani, Hinekombe, Kec. Sentani, Kabupaten Jayapura, Papua 99352","Hinekombe, Kec. Sentani, Kabupaten Jayapura",PAPUA,99352.0,Indonesia,8114917902.0,-2.561741,140.4923227,https://maps.google.com/?cid=0x0:0x88f9714b98487a4f
hotel,hotel,The View Village (Villa Efata),"Unnamed Road, Doyo Lama, Distrik Waibu, Kabupaten Jayapura, Papua 99352","Doyo Lama, Distrik Waibu, Kabupaten Jayapura",PAPUA,99352.0,Indonesia,,-2.5658464,140.4653663,https://maps.google.com/?cid=0x0:0x10899d41205e5344
hotel,hotel,Hotel Rasen Jayapura,"JL. Kelurahan No. 2, Sentani, Sentani Kota, Kec. Sentani, Kabupaten Jayapura, Papua 99359","Sentani, Sentani Kota, Kec. Sentani, Kabupaten Jayapura",PAPUA,99359.0,Indonesia,967594455.0,-2.565983,140.5128773,https://maps.google.com/?cid=0x0:0x1f8b527606c00be2
hotel,hotel,Hotel Sentani Raya,"CGJ3+5WF, Dobonsolo, Kec. Sentani, Kabupaten Jayapura, Papua 99352","Dobonsolo, Kec. Sentani, Kabupaten Jayapura",PAPUA,99352.0,Indonesia,82198836361.0,-2.5695522,140.5047899,https://maps.google.com/?cid=0x0:0x43f473d1f4c2aa7f
hotel,hotel,Papua 99358,"Kabupaten Jayapura, Papua","Kabupaten Jayapura, Papua",PAPUA,,Indonesia,,-2.5423787,140.3894858,https://maps.google.com/?cid=0x0:0xe811437fcb2474bb
hotel,hotel,Hotel Grand Papua Sentani,"Jalan Sosial No.388, Hinekombe, Kec. Sentani, Kabupaten Jayapura, Papua 99352","Hinekombe, Kec. Sentani, Kabupaten Jayapura",PAPUA,99352.0,Indonesia,8114827899.0,-2.557344,140.4958181,https://maps.google.com/?cid=0x0:0x9afaf186d23bb377
hotel,hotel,Hotel Sahid Papua,"Jl. Klp. 2 No.18, Entrop, Distrik Jayapura Selatan, Kota Jayapura, Papua 99221","Entrop, Distrik Jayapura Selatan, Kota Jayapura",PAPUA,99221.0,Indonesia,8114814009.0,-2.5661461,140.6996539,https://maps.google.com/?cid=0x0:0x9c8a2fd141b3aa33
hotel,hotel,Horison Sentani Papua,"Jl. Raya Kemiri No.79A, Hinekombe, Kec. Sentani, Kabupaten Jayapura, Papua 99352","Hinekombe, Kec. Sentani, Kabupaten Jayapura",PAPUA,99352.0,Indonesia,9675198888.0,-2.564948,140.5134784,https://maps.google.com/?cid=0x0:0x2481b253bbad1508
hotel,hotel,ASTON Jayapura Hotel  Convention Center,"Jl. Percetakan Negara No.50 - 58, Gurabesi, Kec. Jayapura Utara, Kota Jayapura, Papua 99111","Gurabesi, Kec. Jayapura Utara, Kota Jayapura",PAPUA,99111.0,Indonesia,967537700.0,-2.5412731,140.7031631,https://maps.google.com/?cid=0x0:0x1a1d78b4fd358a65
hotel,hotel,,,,PAPUA,,Indonesia,,,,https://maps.google.com/?cid=0x0:0x9c8a2fd141b3aa33%7C/g/11b73kkp76%7Cid-ID
hotel,hotel,,,,PAPUA,,Indonesia,,,,https://maps.google.com/?cid=0x0:0x1a1d78b4fd358a65%7C/g/1tctxpcc%7Cid-ID
hotel,hotel,Urbanview Hotel ME Jayapura,"Jl. Belut 13, Kp. Waena, expo, Kota Jayapura, Papua 99351","Kp. Waena, expo, Kota Jayapura",PAPUA,99351.0,Indonesia,895417300072.0,-2.5961874,140.6289663,https://maps.google.com/?cid=0x0:0x71d5532a01326fb7
hotel,hotel,SIP Azana Hotel Jayapura,"Jl. Ahmad Yani No.50, Gurabesi, Kec. Jayapura Utara, Kota Jayapura, Papua 99221","Gurabesi, Kec. Jayapura Utara, Kota Jayapura",PAPUA,99221.0,Indonesia,82197886688.0,-2.5436754,140.7014241,https://maps.google.com/?cid=0x0:0xc311c59465e76f9e
hotel,hotel,Hotel Suni Abepura,"Jl. Baru Ps. Lama Abepura, Wai Mhorock, Kec. Abepura, Kota Jayapura, Papua 99225","Wai Mhorock, Kec. Abepura, Kota Jayapura",PAPUA,99225.0,Indonesia,9675540888.0,-2.6085094,140.6741951,https://maps.google.com/?cid=0x0:0x53835df7d2648dc3
hotel,hotel,Urbanview Hotel Sabang Land Syariah Jayapura,"CGHQ+2CH, Jl. Raya Abepura - Sentani, Nendali, Kec. Sentani Tim., Kabupaten Jayapura, Papua 99359","Jl. Raya Abepura - Sentani, Nendali, Kec. Sentani Tim., Kabupaten Jayapura",PAPUA,99359.0,Indonesia,895417300072.0,-2.5723956,140.5385353,https://maps.google.com/?cid=0x0:0xceff09b55202b95d
hotel,hotel,The View Village (Villa Efata),"Unnamed Road, Doyo Lama, Distrik Waibu, Kabupaten Jayapura, Papua 99352","Doyo Lama, Distrik Waibu, Kabupaten Jayapura",PAPUA,99352.0,Indonesia,,-2.5658464,140.4653663,https://maps.google.com/?cid=0x0:0x10899d41205e5344
hotel,hotel,Hotel Surya Jaya,"Dobonsolo, Kec. Sentani, Kabupaten Jayapura, Papua 99352","Kec. Sentani, Kabupaten Jayapura",PAPUA,99352.0,Indonesia,82258897707.0,-2.5695916,140.5044756,https://maps.google.com/?cid=0x0:0x705c2fe69d32db2b
hotel,hotel,Horison Inn Relat Jayapura,"Jl. Pantai Klp. No.21 - 23, Argapura, Distrik Jayapura Selatan, Kota Jayapura, Papua","Kota Jayapura, Papua",PAPUA,,Indonesia,9675160779.0,-2.5537101,140.7148929,https://maps.google.com/?cid=0x0:0xb98fc1bbb5c5c494
hotel,hotel,Numbay Hotel,"Jl. Trikora No.23, Dok V, Trikora, Kec. Jayapura Utara, Kota Jayapura, Papua 99114","Dok V, Trikora, Kec. Jayapura Utara, Kota Jayapura",PAPUA,99114.0,Indonesia,9675166939.0,-2.527363,140.7185297,https://maps.google.com/?cid=0x0:0x2a95e5b69088c98d
hotel,hotel,Papua 99361,"Kabupaten Jayapura, Papua","Kabupaten Jayapura, Papua",PAPUA,,Indonesia,,-2.5921274,140.059845,https://maps.google.com/?cid=0x0:0xe7cd882fece4c0b1
hotel,hotel,The View Village (Villa Efata),"Unnamed Road, Doyo Lama, Distrik Waibu, Kabupaten Jayapura, Papua 99352","Doyo Lama, Distrik Waibu, Kabupaten Jayapura",PAPUA,99352.0,Indonesia,,-2.5658464,140.4653663,https://maps.google.com/?cid=0x0:0x10899d41205e5344
hotel,hotel,Hotel Grand Papua Sentani,"Jalan Sosial No.388, Hinekombe, Kec. Sentani, Kabupaten Jayapura, Papua 99352","Hinekombe, Kec. Sentani, Kabupaten Jayapura",PAPUA,99352.0,Indonesia,8114827899.0,-2.557344,140.4958181,https://maps.google.com/?cid=0x0:0x9afaf186d23bb377
hotel,hotel,Urbanview Hotel ME Jayapura,"Jl. Belut 13, Kp. Waena, expo, Kota Jayapura, Papua 99351","Kp. Waena, expo, Kota Jayapura",PAPUA,99351.0,Indonesia,895417300072.0,-2.5961874,140.6289663,https://maps.google.com/?cid=0x0:0x71d5532a01326fb7
hotel,hotel,Urbanview Hotel Sabang Land Syariah Jayapura,"CGHQ+2CH, Jl. Raya Abepura - Sentani, Nendali, Kec. Sentani Tim., Kabupaten Jayapura, Papua 99359","Jl. Raya Abepura - Sentani, Nendali, Kec. Sentani Tim., Kabupaten Jayapura",PAPUA,99359.0,Indonesia,895417300072.0,-2.5723956,140.5385353,https://maps.google.com/?cid=0x0:0xceff09b55202b95d
hotel,hotel,RedDoorz near Mal Abepura,"Jl. Worut, Vim, Kec. Abepura, Kota Jayapura, Papua 99225","Vim, Kec. Abepura, Kota Jayapura",PAPUA,99225.0,Indonesia,895417300072.0,-2.605853,140.6675198,https://maps.google.com/?cid=0x0:0x9eab273d9acf6758
hotel,hotel,OYO 93073 Penginapan 69,"CM59+9JM, Jl. kp Waena, Vim, Heram, Jayapura City, Papua 99226","Jl. kp Waena, Vim, Heram, Jayapura City",PAPUA,99226.0,Indonesia,817788016.0,-2.5915361,140.6690328,https://maps.google.com/?cid=0x0:0x45a2e9e9e4762fe5
hotel,hotel,RedDoorz near Saga Mall Abepura,"Jl. Raya Hitam Gg. Merpati 2, Awiyo, Kec. Abepura, Kota Jayapura, Papua 99351","Awiyo, Kec. Abepura, Kota Jayapura",PAPUA,99351.0,Indonesia,895417300072.0,-2.6136849,140.674499,https://maps.google.com/?cid=0x0:0x653c8618fa7a31c2
hotel,hotel,AKAVI HOMESTAY JAYAPURA,"9MPF+3QM, Jl. Raya Abepura - Sentani, Awiyo, Kec. Abepura, Kota Jayapura, Papua 99351","Jl. Raya Abepura - Sentani, Awiyo, Kec. Abepura, Kota Jayapura",PAPUA,99351.0,Indonesia,85240000220.0,-2.6147932,140.6744192,https://maps.google.com/?cid=0x0:0x3e595be894ddc04c
hotel,hotel,Kharis HomeStay,"Wahno, Kec. Abepura, Kota Jayapura, Papua 99224","Kec. Abepura, Kota Jayapura",PAPUA,99224.0,Indonesia,81343178473.0,-2.5928047,140.6715253,https://maps.google.com/?cid=0x0:0xa6fa765a74261b59
hotel,hotel,Penginapan Tigadara,"9JVV+QR6, Jl. Raya Abepura - Sentani, Hedam, Kec. Heram, Kota Jayapura, Papua 99351","Jl. Raya Abepura - Sentani, Hedam, Kec. Heram, Kota Jayapura",PAPUA,99351.0,Indonesia,2129707601.0,-2.6054842,140.6444514,https://maps.google.com/?cid=0x0:0xfad88aa10fa4bd31
hotel,hotel,Gerson Hotel Abepura  Cafe,"Jl. Bosnik BTN Kamkey, Awiyo, Kec. Abepura, Kota Jayapura, Papua 99351","Awiyo, Kec. Abepura, Kota Jayapura",PAPUA,99351.0,Indonesia,895417300072.0,-2.6194737,140.6739776,https://maps.google.com/?cid=0x0:0xee11e02b061cf5df
hotel,hotel,HOMESTAY ABEMOCH,"Jl. Abepura 2, Awiyo, Kec. Abepura, Kota Jayapura, Papua 99351","Awiyo, Kec. Abepura, Kota Jayapura",PAPUA,99351.0,Indonesia,81221433369.0,-2.6203668,140.6743511,https://maps.google.com/?cid=0x0:0x5a27be0f5cf8a2e1
hotel,hotel,Yapsi,"Kabupaten Jayapura, Papua","Kabupaten Jayapura, Papua",PAPUA,,Indonesia,,-2.811221,140.1009527,https://maps.google.com/?cid=0x0:0xaec96b36c4ad9a90
hotel,hotel,Hotel Suni Sentani - Managed by East Season,"Jalan, Sentani Kota, Sentani, Jayapura Regency, Papua 99359","Sentani Kota, Sentani, Jayapura Regency",PAPUA,99359.0,Indonesia,967591900.0,-2.5717113,140.5355341,https://maps.google.com/?cid=0x0:0x18fc7a4a1035d3f1
hotel,hotel,Horex,"Jl. Raya Kemiri No.79, Sentani Kota, Kec. Sentani, Kabupaten Jayapura, Papua 99352","Sentani Kota, Kec. Sentani, Kabupaten Jayapura",PAPUA,99352.0,Indonesia,8114896625.0,-2.565165,140.5133463,https://maps.google.com/?cid=0x0:0x15b9d3d794d85f65
hotel,hotel,GRAND TAHARA SENTANI Hotel  Convention,"Jl. Raya Kemiri, Hinekombe, Kec. Sentani, Kabupaten Jayapura, Papua 99359","Hinekombe, Kec. Sentani, Kabupaten Jayapura",PAPUA,99359.0,Indonesia,82197796699.0,-2.5653049,140.5098925,https://maps.google.com/?cid=0x0:0xdfa507ac6ec552f1
hotel,hotel,Horison Sentani Papua,"Jl. Raya Kemiri No.79A, Hinekombe, Kec. Sentani, Kabupaten Jayapura, Papua 99352","Hinekombe, Kec. Sentani, Kabupaten Jayapura",PAPUA,99352.0,Indonesia,9675198888.0,-2.564948,140.5134784,https://maps.google.com/?cid=0x0:0x2481b253bbad1508
hotel,hotel,GRAND ALLISON SENTANI,"Jl. Raya Kemiri No.282, Hinekombe, Kec. Sentani, Kabupaten Jayapura, Papua 99359","Hinekombe, Kec. Sentani, Kabupaten Jayapura",PAPUA,99359.0,Indonesia,967592110.0,-2.5639057,140.5014423,https://maps.google.com/?cid=0x0:0xa7477e43d92fc166
hotel,hotel,,,,PAPUA,,Indonesia,,,,https://maps.google.com/?cid=0x0:0xa7477e43d92fc166%7C/g/11b73qj9kn%7Cid-ID
hotel,hotel,,,,PAPUA,,Indonesia,,,,https://maps.google.com/?cid=0x0:0x18fc7a4a1035d3f1%7C/g/11gl124vfj%7Cid-ID
hotel,hotel,HOTEL AINA,"CGM6+R9J, Jl. Raya Kemiri, Sentani Kota, Kec. Sentani, Kabupaten Jayapura, Papua","Kabupaten Jayapura, Papua",PAPUA,,Indonesia,85243960057.0,-2.5654218,140.5108844,https://maps.google.com/?cid=0x0:0xe10f3eb6fe778f83
hotel,hotel,Sataria Homestay,"Jl. Pasir No.Gang 2, Sentani Kota, Kec. Sentani, Kabupaten Jayapura, Papua 99359","Sentani Kota, Kec. Sentani, Kabupaten Jayapura",PAPUA,99359.0,Indonesia,81239001099.0,-2.5697715,140.5219881,https://maps.google.com/?cid=0x0:0xac547e8a9d5820d4
hotel,hotel,RedDoorz near Sentani Airport Jayapura,"Jl. Ps. Lama Sentani, Dobonsolo, Kec. Sentani, Kabupaten Jayapura, Papua 99359","Dobonsolo, Kec. Sentani, Kabupaten Jayapura",PAPUA,99359.0,Indonesia,895417300072.0,-2.5695891,140.5044768,https://maps.google.com/?cid=0x0:0xcd4be0c82712defa
hotel,hotel,Urbanview Hotel Sabang Land Syariah Jayapura,"CGHQ+2CH, Jl. Raya Abepura - Sentani, Nendali, Kec. Sentani Tim., Kabupaten Jayapura, Papua 99359","Jl. Raya Abepura - Sentani, Nendali, Kec. Sentani Tim., Kabupaten Jayapura",PAPUA,99359.0,Indonesia,895417300072.0,-2.5723956,140.5385353,https://maps.google.com/?cid=0x0:0xceff09b55202b95d
hotel,hotel,Patmos Guest House,"Jl. Pos 7 No.53, Sentani Kota, Kec. Sentani, Kabupaten Jayapura, Papua 99352","Sentani Kota, Kec. Sentani, Kabupaten Jayapura",PAPUA,99352.0,Indonesia,81212748790.0,-2.561908,140.5084075,https://maps.google.com/?cid=0x0:0xffe8a74235ae9f69
hotel,hotel,RedDoorz Syariah near Sentani City Square,"Jl. Sosial, Hinekombe, Kec. Sentani, Kabupaten Jayapura, Papua 99359","Hinekombe, Kec. Sentani, Kabupaten Jayapura",PAPUA,99359.0,Indonesia,895417300072.0,-2.5571877,140.4960826,https://maps.google.com/?cid=0x0:0xc6927e36509af555
hotel,hotel,Airu,"Kabupaten Jayapura, Papua","Kabupaten Jayapura, Papua",PAPUA,,Indonesia,,-3.5753077,140.265662,https://maps.google.com/?cid=0x0:0x84b595ca2a102cef
hotel,hotel,,,,PAPUA,,Indonesia,,,,https://maps.google.com/?cid=0x0:0x9c8a2fd141b3aa33%7C/g/11b73kkp76%7Cid-ID
hotel,hotel,SIP Azana Hotel Jayapura,"Jl. Ahmad Yani No.50, Gurabesi, Kec. Jayapura Utara, Kota Jayapura, Papua 99221","Gurabesi, Kec. Jayapura Utara, Kota Jayapura",PAPUA,99221.0,Indonesia,82197886688.0,-2.5436754,140.7014241,https://maps.google.com/?cid=0x0:0xc311c59465e76f9e
hotel,hotel,Hotel Sahid Papua,"Jl. Klp. 2 No.18, Entrop, Distrik Jayapura Selatan, Kota Jayapura, Papua 99221","Entrop, Distrik Jayapura Selatan, Kota Jayapura",PAPUA,99221.0,Indonesia,8114814009.0,-2.5661461,140.6996539,https://maps.google.com/?cid=0x0:0x9c8a2fd141b3aa33
hotel,hotel,Galaxy Hotel Abepura,"Kp. Waena, Kec. Heram, Kota Jayapura, Papua 99351","Kec. Heram, Kota Jayapura",PAPUA,99351.0,Indonesia,81150500147.0,-2.5944039,140.6254198,https://maps.google.com/?cid=0x0:0xf9951793f247fc13
hotel,hotel,Rimba Papua Hotel,"Jl. Kwamki Narama No. 1, Kwamki, Kec. Mimika Baru, Kabupaten Mimika, Papua 99971","Kwamki, Kec. Mimika Baru, Kabupaten Mimika",PAPUA,99971.0,Indonesia,901494949.0,-4.5151124,136.884599,https://maps.google.com/?cid=0x0:0xa65056700db32492
hotel,hotel,Horison Inn Relat Jayapura,"Jl. Pantai Klp. No.21 - 23, Argapura, Distrik Jayapura Selatan, Kota Jayapura, Papua","Kota Jayapura, Papua",PAPUA,,Indonesia,9675160779.0,-2.5537101,140.7148929,https://maps.google.com/?cid=0x0:0xb98fc1bbb5c5c494
hotel,hotel,Hotel Mutiara,"CM3C+873, Jl. Perkutut, Vim, Kec. Abepura, Kota Jayapura, Papua 99225","Jl. Perkutut, Vim, Kec. Abepura, Kota Jayapura",PAPUA,99225.0,Indonesia,81348430963.0,-2.5967398,140.6706613,https://maps.google.com/?cid=0x0:0xb730b0fce1d80fe4
hotel,hotel,Hotel Karya Papua,"JGX6+2PM, Jl. R.E. Martadinata Kalinona, Nabarua, Distrik Nabire, Papua 98816","Jl. R.E. Martadinata Kalinona, Nabarua, Distrik Nabire",PAPUA,98816.0,Indonesia,82164655697.0,-3.3524082,135.5118114,https://maps.google.com/?cid=0x0:0x8196bf4b8aafbb3f
hotel,hotel,Hotel Dafonsoro,"Jl. Percetakan Negara No.20-24, Gurabesi, Kec. Jayapura Utara, Kota Jayapura, Papua 99221","Gurabesi, Kec. Jayapura Utara, Kota Jayapura",PAPUA,99221.0,Indonesia,85788877739.0,-2.5406973,140.7041061,https://maps.google.com/?cid=0x0:0xda20a7d826a77577
hotel,hotel,Hotel Rannu Jaya,"WW6V+7RM, Wamena Kota, Distrik Wamena, Kabupaten Jayawijaya, Papua 99511","Wamena Kota, Distrik Wamena, Kabupaten Jayawijaya",PAPUA,99511.0,Indonesia,82195455765.0,-4.0892985,138.9445592,https://maps.google.com/?cid=0x0:0xdd25cadd9590097a
hotel,hotel,Hotel Surya Jaya,"Dobonsolo, Kec. Sentani, Kabupaten Jayapura, Papua 99352","Kec. Sentani, Kabupaten Jayapura",PAPUA,99352.0,Indonesia,82258897707.0,-2.5695916,140.5044756,https://maps.google.com/?cid=0x0:0x705c2fe69d32db2b
hotel,hotel,Penginapan 69,"Kp. Waena, Kec. Heram, Kota Jayapura, Papua 99225","Kec. Heram, Kota Jayapura",PAPUA,99225.0,Indonesia,81248523621.0,-2.593495,140.6310796,https://maps.google.com/?cid=0x0:0x12711ec27878fab8
hotel,hotel,Hotel Grand Papua Sentani,"Jalan Sosial No.388, Hinekombe, Kec. Sentani, Kabupaten Jayapura, Papua 99352","Hinekombe, Kec. Sentani, Kabupaten Jayapura",PAPUA,99352.0,Indonesia,8114827899.0,-2.557344,140.4958181,https://maps.google.com/?cid=0x0:0x9afaf186d23bb377
hotel,hotel,Papua 99353,"Kabupaten Jayapura, Papua","Kabupaten Jayapura, Papua",PAPUA,,Indonesia,,-2.4345515,140.4101474,https://maps.google.com/?cid=0x0:0xae8b3e09ee92fb9d
hotel,hotel,Horison Sentani Papua,"Jl. Raya Kemiri No.79A, Hinekombe, Kec. Sentani, Kabupaten Jayapura, Papua 99352","Hinekombe, Kec. Sentani, Kabupaten Jayapura",PAPUA,99352.0,Indonesia,9675198888.0,-2.564948,140.5134784,https://maps.google.com/?cid=0x0:0x2481b253bbad1508
hotel,hotel,Hotel Grand Papua Sentani,"Jalan Sosial No.388, Hinekombe, Kec. Sentani, Kabupaten Jayapura, Papua 99352","Hinekombe, Kec. Sentani, Kabupaten Jayapura",PAPUA,99352.0,Indonesia,8114827899.0,-2.557344,140.4958181,https://maps.google.com/?cid=0x0:0x9afaf186d23bb377
hotel,hotel,,,,PAPUA,,Indonesia,,,,https://maps.google.com/?cid=0x0:0x228d0b2bb9d7838c%7C/g/11fr6srn7h%7Cid-ID
hotel,hotel,GRAND ALLISON SENTANI,"Jl. Raya Kemiri No.282, Hinekombe, Kec. Sentani, Kabupaten Jayapura, Papua 99359","Hinekombe, Kec. Sentani, Kabupaten Jayapura",PAPUA,99359.0,Indonesia,967592110.0,-2.5639057,140.5014423,https://maps.google.com/?cid=0x0:0xa7477e43d92fc166
hotel,hotel,,,,PAPUA,,Indonesia,,,,https://maps.google.com/?cid=0x0:0xa7477e43d92fc166%7C/g/11b73qj9kn%7Cid-ID
hotel,hotel,Mercure Jayapura,"Jl. Ahmad Yani No.12, Gurabesi, Kec. Jayapura Utara, Kota Jayapura, Papua 99111","Gurabesi, Kec. Jayapura Utara, Kota Jayapura",PAPUA,99111.0,Indonesia,9675161888.0,-2.5425064,140.7031376,https://maps.google.com/?cid=0x0:0x228d0b2bb9d7838c
hotel,hotel,ASTON Jayapura Hotel  Convention Center,"Jl. Percetakan Negara No.50 - 58, Gurabesi, Kec. Jayapura Utara, Kota Jayapura, Papua 99111","Gurabesi, Kec. Jayapura Utara, Kota Jayapura",PAPUA,99111.0,Indonesia,967537700.0,-2.5412731,140.7031631,https://maps.google.com/?cid=0x0:0x1a1d78b4fd358a65
hotel,hotel,GRAND TAHARA SENTANI Hotel  Convention,"Jl. Raya Kemiri, Hinekombe, Kec. Sentani, Kabupaten Jayapura, Papua 99359","Hinekombe, Kec. Sentani, Kabupaten Jayapura",PAPUA,99359.0,Indonesia,82197796699.0,-2.5653049,140.5098925,https://maps.google.com/?cid=0x0:0xdfa507ac6ec552f1
hotel,hotel,,,,PAPUA,,Indonesia,,,,https://maps.google.com/?cid=0x0:0x1a1d78b4fd358a65%7C/g/1tctxpcc%7Cid-ID
hotel,hotel,Hotel Sahid Papua,"Jl. Klp. 2 No.18, Entrop, Distrik Jayapura Selatan, Kota Jayapura, Papua 99221","Entrop, Distrik Jayapura Selatan, Kota Jayapura",PAPUA,99221.0,Indonesia,8114814009.0,-2.5661461,140.6996539,https://maps.google.com/?cid=0x0:0x9c8a2fd141b3aa33
hotel,hotel,,,,PAPUA,,Indonesia,,,,https://maps.google.com/?cid=0x0:0x9c8a2fd141b3aa33%7C/g/11b73kkp76%7Cid-ID
hotel,hotel,Hotel Best Western Sagita Jayapura,"Jl. Klp. 2, Entrop, Distrik Jayapura Selatan, Kota Jayapura, Papua 99221","Entrop, Distrik Jayapura Selatan, Kota Jayapura",PAPUA,99221.0,Indonesia,9675166888.0,-2.5676407,140.7023793,https://maps.google.com/?cid=0x0:0x741f2100c3f7bc5a
hotel,hotel,Horison Ultima Entrop,"Jl. Klp. 2, Entrop, Distrik Jayapura Selatan, Kota Jayapura, Papua 99224","Entrop, Distrik Jayapura Selatan, Kota Jayapura",PAPUA,99224.0,Indonesia,82248288877.0,-2.5691415,140.7031448,https://maps.google.com/?cid=0x0:0x606edeb95bbfcc9f
hotel,hotel,HOTEL PARKSIDE WAENA,"Jl. Raya Waena, Kp. Waena, Kec. Abepura, Kota Jayapura, Papua 99532","Kp. Waena, Kec. Abepura, Kota Jayapura",PAPUA,99532.0,Indonesia,8114829200.0,-2.5965369,140.6348713,https://maps.google.com/?cid=0x0:0xeecc070595c2799f
hotel,hotel,RedDoorz @ Waena Jayapura,"Jl. Belut 1 No.11, Kp. Waena, Kec. Heram, Kota Jayapura, Papua 99351","Kp. Waena, Kec. Heram, Kota Jayapura",PAPUA,99351.0,Indonesia,895417300072.0,-2.5969613,140.6285719,https://maps.google.com/?cid=0x0:0xb7db755dfe7a037
hotel,hotel,Urbanview Hotel ME Jayapura,"Jl. Belut 13, Kp. Waena, expo, Kota Jayapura, Papua 99351","Kp. Waena, expo, Kota Jayapura",PAPUA,99351.0,Indonesia,895417300072.0,-2.5961874,140.6289663,https://maps.google.com/?cid=0x0:0x71d5532a01326fb7
hotel,hotel,Hotel Clarence,"CJ3H+G8Q, Kp. Waena, Kec. Heram, Kota Jayapura, Papua 99351","Kp. Waena, Kec. Heram, Kota Jayapura",PAPUA,99351.0,Indonesia,85354572838.0,-2.596157,140.6283658,https://maps.google.com/?cid=0x0:0x8de34d35f89fb65e
hotel,hotel,Citihub Hotel,"Wai Mhorock, Abepura, Kota Jayapura, Papua 99225, Wai Mhorock, Kec. Abepura, Kota Jayapura, Papua 99552","Abepura, Kota Jayapura, Papua",PAPUA,99225.0,Indonesia,9675180123.0,-2.6081763,140.6741417,https://maps.google.com/?cid=0x0:0x5a25068c30daecb0
hotel,hotel,RedDoorz near Mal Abepura,"Jl. Worut, Vim, Kec. Abepura, Kota Jayapura, Papua 99225","Vim, Kec. Abepura, Kota Jayapura",PAPUA,99225.0,Indonesia,895417300072.0,-2.605853,140.6675198,https://maps.google.com/?cid=0x0:0x9eab273d9acf6758
hotel,hotel,Grand ABE Hotel Jayapura,"Jl. Raya Abepura, Kotabaru, Kota Baru, Kec. Abepura, Kota Jayapura, Papua 99351","Kotabaru, Kota Baru, Kec. Abepura, Kota Jayapura",PAPUA,99351.0,Indonesia,8114825123.0,-2.6106174,140.6659805,https://maps.google.com/?cid=0x0:0xadc84ceab536f6a
hotel,hotel,Galaxy Hotel Abepura,"Kp. Waena, Kec. Heram, Kota Jayapura, Papua 99351","Kec. Heram, Kota Jayapura",PAPUA,99351.0,Indonesia,81150500147.0,-2.5944039,140.6254198,https://maps.google.com/?cid=0x0:0xf9951793f247fc13
hotel,hotel,Pantai Base-G,"Tj. Ria, Kec. Jayapura Utara, Kota Jayapura, Papua","Kota Jayapura, Papua",PAPUA,,Indonesia,,-2.5174272,140.7397204,https://maps.google.com/?cid=0x0:0x9c239c300165aea7
hotel,hotel,Patmos Guest House,"Jl. Pos 7 No.53, Sentani Kota, Kec. Sentani, Kabupaten Jayapura, Papua 99352","Sentani Kota, Kec. Sentani, Kabupaten Jayapura",PAPUA,99352.0,Indonesia,81212748790.0,-2.561908,140.5084075,https://maps.google.com/?cid=0x0:0xffe8a74235ae9f69
hotel,hotel,Distrik Gresi Selatan,"Kabupaten Jayapura, Papua","Kabupaten Jayapura, Papua",PAPUA,,Indonesia,,-2.641859,140.1829593,https://maps.google.com/?cid=0x0:0x3d361b435e9393d5
hotel,hotel,HOTEL AINA,"CGM6+R9J, Jl. Raya Kemiri, Sentani Kota, Kec. Sentani, Kabupaten Jayapura, Papua","Kabupaten Jayapura, Papua",PAPUA,,Indonesia,85243960057.0,-2.5654218,140.5108844,https://maps.google.com/?cid=0x0:0xe10f3eb6fe778f83
hotel,hotel,Penginapan 69,"Kp. Waena, Kec. Heram, Kota Jayapura, Papua 99225","Kec. Heram, Kota Jayapura",PAPUA,99225.0,Indonesia,81248523621.0,-2.593495,140.6310796,https://maps.google.com/?cid=0x0:0x12711ec27878fab8
hotel,hotel,OYO 93073 Penginapan 69,"CM59+9JM, Jl. kp Waena, Vim, Heram, Jayapura City, Papua 99226","Jl. kp Waena, Vim, Heram, Jayapura City",PAPUA,99226.0,Indonesia,817788016.0,-2.5915361,140.6690328,https://maps.google.com/?cid=0x0:0x45a2e9e9e4762fe5
hotel,hotel,The View Village (Villa Efata),"Unnamed Road, Doyo Lama, Distrik Waibu, Kabupaten Jayapura, Papua 99352","Doyo Lama, Distrik Waibu, Kabupaten Jayapura",PAPUA,99352.0,Indonesia,,-2.5658464,140.4653663,https://maps.google.com/?cid=0x0:0x10899d41205e5344
hotel,hotel,Papua 99354,"Kabupaten Jayapura, Papua","Kabupaten Jayapura, Papua",PAPUA,,Indonesia,,-2.425843,140.1626664,https://maps.google.com/?cid=0x0:0xed2e9d28341a8606
hotel,hotel,Horison Inn Relat Jayapura,"Jl. Pantai Klp. No.21 - 23, Argapura, Distrik Jayapura Selatan, Kota Jayapura, Papua","Kota Jayapura, Papua",PAPUA,,Indonesia,9675160779.0,-2.5537101,140.7148929,https://maps.google.com/?cid=0x0:0xb98fc1bbb5c5c494
hotel,hotel,Hotel Nakoro,"Jl. Ermasu No.96, Mandala, Kec. Merauke, Kabupaten Merauke, Papua 99614","Mandala, Kec. Merauke, Kabupaten Merauke",PAPUA,99614.0,Indonesia,8114811413.0,-8.4951746,140.3974732,https://maps.google.com/?cid=0x0:0xba22faf1a6890650
hotel,hotel,Kartini Hotel,"Unnamed Road, Gurabesi, Kec. Jayapura Utara, Kota Jayapura, Papua 99221","Gurabesi, Kec. Jayapura Utara, Kota Jayapura",PAPUA,99221.0,Indonesia,967531557.0,-2.5437639,140.69813,https://maps.google.com/?cid=0x0:0x67ced8468132987b
hotel,Hotel,Kadaprum Beach Hotel,"J4VV+4W8, Demta Kota, Distrik Demta, Kabupaten Jayapura, Papua","Kabupaten Jayapura, Papua",PAPUA,,Indonesia,,-2.3572087,140.144837,https://maps.google.com/?cid=0x0:0xe8b8d997a3bcb29a
hotel,Rumah Pondokan,INSOS KROBO,"J5J2+VPR, Yakore, Distrik Demta, Kabupaten Jayapura, Papua 99354","Yakore, Distrik Demta, Kabupaten Jayapura",PAPUA,99354.0,Indonesia,,-2.3677616,140.1517621,https://maps.google.com/?cid=0x0:0xa10c39d9aab3390e
hotel,Area Rekreasi Alam,Pantai Pasir Panjang (yaucukar Ipan),"M4GX+CHW, Yaugapsa, Distrik Demta, Kabupaten Jayapura, Papua","Kabupaten Jayapura, Papua",PAPUA,,Indonesia,81248922622.0,-2.323889,140.1489656,https://maps.google.com/?cid=0x0:0x92727fe06f912ccb
restaurant,restaurant,Papua 99352,"Kabupaten Jayapura, Papua","Kabupaten Jayapura, Papua",PAPUA,,Indonesia,,-2.5683577,140.4618316,https://maps.google.com/?cid=0x0:0xc4bf3fc2f14cfb38
restaurant,Mi,Mandala Sentani,"CGM6+RFC, Jl. Raya Kemiri, Hinekombe, Kec. Sentani, Kabupaten Jayapura, Papua 99359","Jl. Raya Kemiri, Hinekombe, Kec. Sentani, Kabupaten Jayapura",PAPUA,99359.0,Indonesia,9675191911.0,-2.5654544,140.5110728,https://maps.google.com/?cid=0x0:0x7b5dba085f85a8f9
restaurant,Kafe,Haven Cafe Sentani,"ex-Bosco Fernandez, Jl. Gereja Silo, Hinekombe, Kec. Sentani, Kabupaten Jayapura, Papua 99352","Jl. Gereja Silo, Hinekombe, Kec. Sentani, Kabupaten Jayapura",PAPUA,99352.0,Indonesia,81248584145.0,-2.562541,140.4948964,https://maps.google.com/?cid=0x0:0xc17715f548083f1c
restaurant,Rumah Makan,RM Peredamsentani,"Jl. Raya Kemiri No.53, Hinekombe, Kec. Sentani, Kabupaten Jayapura, Papua 99352","Hinekombe, Kec. Sentani, Kabupaten Jayapura",PAPUA,99352.0,Indonesia,82327937893.0,-2.5616442,140.4969651,https://maps.google.com/?cid=0x0:0xcbcc40a786f564de
restaurant,Restoran,Cristho Resto,"Jl. Raya Sentani - Waena, Asei Kecil, Kec. Sentani Tim., Kabupaten Jayapura, Papua 99351","Asei Kecil, Kec. Sentani Tim., Kabupaten Jayapura",PAPUA,99351.0,Indonesia,82248269002.0,-2.5885674,140.5954984,https://maps.google.com/?cid=0x0:0xe37fe4d7ad0bc892
restaurant,Makanan Siap Saji,Kedai Ohana Sentani,"CFVV+X8, Hinekombe, Kec. Sentani, Kabupaten Jayapura, Papua 99352","Hinekombe, Kec. Sentani, Kabupaten Jayapura",PAPUA,99352.0,Indonesia,,-2.5550802,140.4934211,https://maps.google.com/?cid=0x0:0x65cb59fca50fa6eb
restaurant,Kafe,Efka Cafe And Resto,"Sentani Kota, Kec. Sentani, Kabupaten Jayapura, Papua 99359","Kec. Sentani, Kabupaten Jayapura",PAPUA,99359.0,Indonesia,82238976336.0,-2.5698561,140.5273596,https://maps.google.com/?cid=0x0:0xcc07bf444f81dec3
restaurant,Restoran,RUMAH MAKAN MICKEY,"Sentani Kota, Kec. Sentani, Kabupaten Jayapura, Papua 99359","Kec. Sentani, Kabupaten Jayapura",PAPUA,99359.0,Indonesia,81344948989.0,-2.5650217,140.5120562,https://maps.google.com/?cid=0x0:0xc2a0c5d57c63ecb1
restaurant,Restoran,Lestari Abadi Sentani,"CGM9+P7W, Sentani Kota, Kec. Sentani, Kabupaten Jayapura, Papua 99359","Sentani Kota, Kec. Sentani, Kabupaten Jayapura",PAPUA,99359.0,Indonesia,82199157638.0,-2.5656436,140.5181945,https://maps.google.com/?cid=0x0:0xf2f5e51fd36226d9
restaurant,Brunch,D'penyetz  D'cendol,"Jl. Hawai Sentani, Sentani Kota, Kec. Sentani, Kabupaten Jayapura, Papua 99359","Sentani Kota, Kec. Sentani, Kabupaten Jayapura",PAPUA,99359.0,Indonesia,82199991400.0,-2.5686155,140.5243872,https://maps.google.com/?cid=0x0:0xa953c33600e1c141
restaurant,Kedai Kopi,Kopi Indonesia,"Jalan Raya Kemiri No.53 Kompleks Lesehan Balaitrans Hinekombe Samping Mal Borobudur, seberang asrama YONIF 751, Hinekombe, Sentani, Jayapura Regency, Papua 99352","seberang asrama YONIF 751, Hinekombe, Sentani, Jayapura Regency",PAPUA,99352.0,Indonesia,82399007893.0,-2.5627575,140.4989291,https://maps.google.com/?cid=0x0:0xc710c59e101466d3
restaurant,Padang,RM Serantau,"Jl. Raya Kemiri No.53, Hinekombe, Kec. Sentani, Kabupaten Jayapura, Papua 99352","Hinekombe, Kec. Sentani, Kabupaten Jayapura",PAPUA,99352.0,Indonesia,,-2.5656714,140.5183812,https://maps.google.com/?cid=0x0:0xb5dffd3120175233
restaurant,Ayam,Bebek Ijo Sentani,"Jl. Raya Sentani - Waena No.2, Nendali, Kec. Sentani Tim., Kabupaten Jayapura, Papua 99359","Nendali, Kec. Sentani Tim., Kabupaten Jayapura",PAPUA,99359.0,Indonesia,81248070389.0,-2.5699966,140.5304639,https://maps.google.com/?cid=0x0:0xd11c4b4f7c837654
restaurant,Vila,Cafe  Resto Efata,"Unnamed Road, Doyo Lama, Distrik Waibu, Kabupaten Jayapura, Papua 99352","Doyo Lama, Distrik Waibu, Kabupaten Jayapura",PAPUA,99352.0,Indonesia,81393727460.0,-2.5656718,140.4652682,https://maps.google.com/?cid=0x0:0xdf6899334b660461
restaurant,restaurant,Papua 99359,"Kabupaten Jayapura, Papua","Kabupaten Jayapura, Papua",PAPUA,,Indonesia,,-2.5632464,140.534262,https://maps.google.com/?cid=0x0:0x15522b545274ab16
restaurant,Mi,Mandala Sentani,"CGM6+RFC, Jl. Raya Kemiri, Hinekombe, Kec. Sentani, Kabupaten Jayapura, Papua 99359","Jl. Raya Kemiri, Hinekombe, Kec. Sentani, Kabupaten Jayapura",PAPUA,99359.0,Indonesia,9675191911.0,-2.5654544,140.5110728,https://maps.google.com/?cid=0x0:0x7b5dba085f85a8f9
restaurant,Restoran,Cristho Resto,"Jl. Raya Sentani - Waena, Asei Kecil, Kec. Sentani Tim., Kabupaten Jayapura, Papua 99351","Asei Kecil, Kec. Sentani Tim., Kabupaten Jayapura",PAPUA,99351.0,Indonesia,82248269002.0,-2.5885674,140.5954984,https://maps.google.com/?cid=0x0:0xe37fe4d7ad0bc892
restaurant,Kafe,Efka Cafe And Resto,"Sentani Kota, Kec. Sentani, Kabupaten Jayapura, Papua 99359","Kec. Sentani, Kabupaten Jayapura",PAPUA,99359.0,Indonesia,82238976336.0,-2.5698561,140.5273596,https://maps.google.com/?cid=0x0:0xcc07bf444f81dec3
restaurant,Rumah Makan,RM Peredam Pojok,"Jl. Raya Kemiri, Sentani Kota, Kec. Sentani, Kabupaten Jayapura, Papua 99359","Sentani Kota, Kec. Sentani, Kabupaten Jayapura",PAPUA,99359.0,Indonesia,82238519742.0,-2.5660908,140.5194333,https://maps.google.com/?cid=0x0:0x912974fe4e594894
restaurant,Sesuai untuk keluarga,Resto Rumah Gunung,"Jl. Raya Kemiri, Hinekombe, Kec. Sentani, Kabupaten Jayapura, Papua 99359","Hinekombe, Kec. Sentani, Kabupaten Jayapura",PAPUA,99359.0,Indonesia,85397988228.0,-2.562126,140.49807,https://maps.google.com/?cid=0x0:0x4152026d194842b
restaurant,China,RM. Prima Rasa,"CGJC+G48, Sentani Kota, Kec. Sentani, Kabupaten Jayapura, Papua 99359","Sentani Kota, Kec. Sentani, Kabupaten Jayapura",PAPUA,99359.0,Indonesia,,-2.5686931,140.5202505,https://maps.google.com/?cid=0x0:0x1d6084c4f85a9c6e
restaurant,Restoran,Dapur Papua Resto (tag by EnCHy),"CH94+3PC, Jl. Raya Airport Sentani, Nendali, Kec. Sentani Tim., Kabupaten Jayapura, Papua 99359","Jl. Raya Airport Sentani, Nendali, Kec. Sentani Tim., Kabupaten Jayapura",PAPUA,99359.0,Indonesia,,-2.5823105,140.556775,https://maps.google.com/?cid=0x0:0x31316751d4c3a979
restaurant,Restoran,Lestari Abadi Sentani,"CGM9+P7W, Sentani Kota, Kec. Sentani, Kabupaten Jayapura, Papua 99359","Sentani Kota, Kec. Sentani, Kabupaten Jayapura",PAPUA,99359.0,Indonesia,82199157638.0,-2.5656436,140.5181945,https://maps.google.com/?cid=0x0:0xf2f5e51fd36226d9
restaurant,Sesuai untuk keluarga,Horeg Papua Culinary,"CGJF+HPF, Jalan Hawai, Sentani Kota, Sentani, Jayapura Regency, Papua 99359","Jalan Hawai, Sentani Kota, Sentani, Jayapura Regency",PAPUA,99359.0,Indonesia,81234434445.0,-2.5685731,140.5243095,https://maps.google.com/?cid=0x0:0xeba695785680ac00
restaurant,Restoran,RUMAH MAKAN MICKEY,"Sentani Kota, Kec. Sentani, Kabupaten Jayapura, Papua 99359","Kec. Sentani, Kabupaten Jayapura",PAPUA,99359.0,Indonesia,81344948989.0,-2.5650217,140.5120562,https://maps.google.com/?cid=0x0:0xc2a0c5d57c63ecb1
restaurant,Restoran,Oregano Sentani,"Jl. Raya Kemiri, Hinekombe, Kec. Sentani, Kabupaten Jayapura, Papua 99359","Hinekombe, Kec. Sentani, Kabupaten Jayapura",PAPUA,99359.0,Indonesia,81248417707.0,-2.5636932,140.5021512,https://maps.google.com/?cid=0x0:0xa5da728e0150846a
restaurant,Toko Roti,Flavouw Cafe  Buddy Burger,"CGPC+2C2, Jl. Ifar Gn., Sentani Kota, Kec. Sentani, Kabupaten Jayapura, Papua 99359","Jl. Ifar Gn., Sentani Kota, Kec. Sentani, Kabupaten Jayapura",PAPUA,99359.0,Indonesia,81240364286.0,-2.5649762,140.5210037,https://maps.google.com/?cid=0x0:0x74b52879855faad0
restaurant,Restoran,Ramoli kitchen,"jln. Pasir gang I no 4 Flavouw, Sentani Kota, Sentani, Jayapura Regency, Papua 99359","Sentani Kota, Sentani, Jayapura Regency",PAPUA,99359.0,Indonesia,81344218202.0,-2.568148,140.519895,https://maps.google.com/?cid=0x0:0x252b097c19043d14
restaurant,Padang,Rumah makan padang purnama,"Jl. Hawai, Sentani Kota, Kec. Sentani, Kabupaten Jayapura, Papua 99359","Sentani Kota, Kec. Sentani, Kabupaten Jayapura",PAPUA,99359.0,Indonesia,81344449449.0,-2.5675816,140.5225634,https://maps.google.com/?cid=0x0:0xab92e3707b51a4d7
restaurant,Padang,Sentani Purnama Resto,"Jl Kampung No.369, Yoka, Heram, Jayapura City, Papua 99351","Yoka, Heram, Jayapura City",PAPUA,99351.0,Indonesia,,-2.6084819,140.6268916,https://maps.google.com/?cid=0x0:0x6b738f5a9394865a
restaurant,restaurant,,,,PAPUA,,Indonesia,,,,https://maps.google.com/?cid=0x0:0x6b738f5a9394865au0026onu003dSingkong+Goreng+Roti+Bakar+Pisang+Goreng+Kejuu0026midu003d/g/11f4wnrs4w
restaurant,restaurant,,,,PAPUA,,Indonesia,,,,https://maps.google.com/?cid=0x0:0x6b738f5a9394865au0026onu003dKopi+Hitamu0026midu003d/g/11f4wnrs4w
restaurant,restaurant,,,,PAPUA,,Indonesia,,,,https://maps.google.com/?cid=0x0:0x6b738f5a9394865au0026onu003dPisang+Goreng+Keju+Dan+Singkong+Gorengu0026midu003d/g/11f4wnrs4w
restaurant,restaurant,,,,PAPUA,,Indonesia,,,,https://maps.google.com/?cid=0x0:0x6b738f5a9394865au0026onu003dJuice+Dragon+Fruit+Jus+Buah+Nagau0026midu003d/g/11f4wnrs4w
restaurant,restaurant,,,,PAPUA,,Indonesia,,,,https://maps.google.com/?cid=0x0:0x6b738f5a9394865au0026onu003dSoursop+Juice+Jus+Sirsaku0026midu003d/g/11f4wnrs4w
restaurant,restaurant,,,,PAPUA,,Indonesia,,,,https://maps.google.com/?cid=0x0:0x6b738f5a9394865au0026onu0026midu003d/g/11f4wnrs4w
restaurant,Restoran,Warung Blok H,"FF54+PRV, Bambar, Distrik Waibu, Kabupaten Jayapura, Papua 99352","Bambar, Distrik Waibu, Kabupaten Jayapura",PAPUA,99352.0,Indonesia,,-2.540638,140.4570518,https://maps.google.com/?cid=0x0:0xb47a68e20bf5a723
restaurant,Rumah Makan,Warung Harda,"G9Q8+6RX, Teluk, Jl, Waiya, Distrik Depapre, Kabupaten Jayapura, Papua 99353","Teluk, Jl, Waiya, Distrik Depapre, Kabupaten Jayapura",PAPUA,99353.0,Indonesia,81248537788.0,-2.4618798,140.367112,https://maps.google.com/?cid=0x0:0x7b5f47bf537cdec
restaurant,restaurant,Depapre,"Waiya, Distrik Depapre, Kabupaten Jayapura, Papua","Kabupaten Jayapura, Papua",PAPUA,,Indonesia,,-2.465224,140.365005,https://maps.google.com/?cid=0x0:0xb8f12b7316b09e1a
restaurant,Kedai Kopi,KEDAI NONGKI DEPAPRE,"G9P8+MJ, Waiya, Distrik Depapre, Kabupaten Jayapura, Papua 99353","Waiya, Distrik Depapre, Kabupaten Jayapura",PAPUA,99353.0,Indonesia,82238382670.0,-2.4633218,140.3665198,https://maps.google.com/?cid=0x0:0x90bd7dd362ca06c
restaurant,Vila,Cafe  Resto Efata,"Unnamed Road, Doyo Lama, Distrik Waibu, Kabupaten Jayapura, Papua 99352","Doyo Lama, Distrik Waibu, Kabupaten Jayapura",PAPUA,99352.0,Indonesia,81393727460.0,-2.5656718,140.4652682,https://maps.google.com/?cid=0x0:0xdf6899334b660461
restaurant,Sesuai untuk keluarga,Resto Rumah Gunung,"Jl. Raya Kemiri, Hinekombe, Kec. Sentani, Kabupaten Jayapura, Papua 99359","Hinekombe, Kec. Sentani, Kabupaten Jayapura",PAPUA,99359.0,Indonesia,85397988228.0,-2.562126,140.49807,https://maps.google.com/?cid=0x0:0x4152026d194842b
restaurant,restaurant,Papua 99358,"Kabupaten Jayapura, Papua","Kabupaten Jayapura, Papua",PAPUA,,Indonesia,,-2.5423787,140.3894858,https://maps.google.com/?cid=0x0:0xe811437fcb2474bb
restaurant,Restoran,Cristho Resto,"Jl. Raya Sentani - Waena, Asei Kecil, Kec. Sentani Tim., Kabupaten Jayapura, Papua 99351","Asei Kecil, Kec. Sentani Tim., Kabupaten Jayapura",PAPUA,99351.0,Indonesia,82248269002.0,-2.5885674,140.5954984,https://maps.google.com/?cid=0x0:0xe37fe4d7ad0bc892
restaurant,Vila,Cafe  Resto Efata,"Unnamed Road, Doyo Lama, Distrik Waibu, Kabupaten Jayapura, Papua 99352","Doyo Lama, Distrik Waibu, Kabupaten Jayapura",PAPUA,99352.0,Indonesia,81393727460.0,-2.5656718,140.4652682,https://maps.google.com/?cid=0x0:0xdf6899334b660461
restaurant,Kedai Kopi,B - One Eleven Cafe  Resto,"Jl. Kehiran Griya marwah indah No.8, Dobonsolo, Kec. Sentani, Kabupaten Jayapura, Papua 99359","Dobonsolo, Kec. Sentani, Kabupaten Jayapura",PAPUA,99359.0,Indonesia,82299427709.0,-2.575064,140.4987152,https://maps.google.com/?cid=0x0:0xa8f31087ae4aa842
restaurant,Kafe,Efka Cafe And Resto,"Sentani Kota, Kec. Sentani, Kabupaten Jayapura, Papua 99359","Kec. Sentani, Kabupaten Jayapura",PAPUA,99359.0,Indonesia,82238976336.0,-2.5698561,140.5273596,https://maps.google.com/?cid=0x0:0xcc07bf444f81dec3
restaurant,Indonesia,Mobile Resto Tomarokai,"CCQ8+R6W, Sosiri, Distrik Waibu, Kabupaten Jayapura, Papua 99358","Sosiri, Distrik Waibu, Kabupaten Jayapura",PAPUA,99358.0,Indonesia,,-2.5603762,140.4155651,https://maps.google.com/?cid=0x0:0xa8bfb4c85ca0b761
restaurant,Ayam,Sentani Snacks,"RW.Jlr.2, Doyo Baru, Distrik Waibu, Kabupaten Jayapura, Papua 99352","Doyo Baru, Distrik Waibu, Kabupaten Jayapura",PAPUA,99352.0,Indonesia,8114885532.0,-2.5488015,140.4730512,https://maps.google.com/?cid=0x0:0xd714e52cc8b8b84f
restaurant,Kafe,Haven Cafe Sentani,"ex-Bosco Fernandez, Jl. Gereja Silo, Hinekombe, Kec. Sentani, Kabupaten Jayapura, Papua 99352","Jl. Gereja Silo, Hinekombe, Kec. Sentani, Kabupaten Jayapura",PAPUA,99352.0,Indonesia,81248584145.0,-2.562541,140.4948964,https://maps.google.com/?cid=0x0:0xc17715f548083f1c
restaurant,Restoran,Oregano Sentani,"Jl. Raya Kemiri, Hinekombe, Kec. Sentani, Kabupaten Jayapura, Papua 99359","Hinekombe, Kec. Sentani, Kabupaten Jayapura",PAPUA,99359.0,Indonesia,81248417707.0,-2.5636932,140.5021512,https://maps.google.com/?cid=0x0:0xa5da728e0150846a
restaurant,Toko Roti,Flavouw Cafe  Buddy Burger,"CGPC+2C2, Jl. Ifar Gn., Sentani Kota, Kec. Sentani, Kabupaten Jayapura, Papua 99359","Jl. Ifar Gn., Sentani Kota, Kec. Sentani, Kabupaten Jayapura",PAPUA,99359.0,Indonesia,81240364286.0,-2.5649762,140.5210037,https://maps.google.com/?cid=0x0:0x74b52879855faad0
restaurant,Restoran,Lestari Abadi Sentani,"CGM9+P7W, Sentani Kota, Kec. Sentani, Kabupaten Jayapura, Papua 99359","Sentani Kota, Kec. Sentani, Kabupaten Jayapura",PAPUA,99359.0,Indonesia,82199157638.0,-2.5656436,140.5181945,https://maps.google.com/?cid=0x0:0xf2f5e51fd36226d9
restaurant,Rumah Makan,RM Peredamsentani,"Jl. Raya Kemiri No.53, Hinekombe, Kec. Sentani, Kabupaten Jayapura, Papua 99352","Hinekombe, Kec. Sentani, Kabupaten Jayapura",PAPUA,99352.0,Indonesia,82327937893.0,-2.5616442,140.4969651,https://maps.google.com/?cid=0x0:0xcbcc40a786f564de
restaurant,Rumah Makan,Pondok Apung Tomarokai - PAT,"Doyo Lama, Distrik Waibu, Kabupaten Jayapura, Papua 99352","Distrik Waibu, Kabupaten Jayapura",PAPUA,99352.0,Indonesia,81240311499.0,-2.5662372,140.446269,https://maps.google.com/?cid=0x0:0x21c1f3b43605c3b5
restaurant,Minimarket,Ungkea Jungle Resto,"CF56+4G7, Unnamed Road, Kwadeware, Distrik Waibu, Kabupaten Jayapura, Papua 99352","Unnamed Road, Kwadeware, Distrik Waibu, Kabupaten Jayapura",PAPUA,99352.0,Indonesia,,-2.5922109,140.4613058,https://maps.google.com/?cid=0x0:0x9c4fd24964775d4f
restaurant,restaurant,Papua 99357,"Kabupaten Jayapura, Papua","Kabupaten Jayapura, Papua",PAPUA,,Indonesia,,-2.7850607,140.2244429,https://maps.google.com/?cid=0x0:0x37d7dde7ca57ffbb
restaurant,Indonesia,Mobile Resto Tomarokai,"CCQ8+R6W, Sosiri, Distrik Waibu, Kabupaten Jayapura, Papua 99358","Sosiri, Distrik Waibu, Kabupaten Jayapura",PAPUA,99358.0,Indonesia,,-2.5603762,140.4155651,https://maps.google.com/?cid=0x0:0xa8bfb4c85ca0b761
restaurant,Rumah Makan,Rumah Makan Sendok Garpu Jayapura,"Jl. Raya Abepura-Kotaraja Kota Baru, Wai Mhorock, Kec. Abepura, Kota Jayapura, Papua 99225","Wai Mhorock, Kec. Abepura, Kota Jayapura",PAPUA,99225.0,Indonesia,82310000123.0,-2.6057136,140.6694308,https://maps.google.com/?cid=0x0:0x9b347169a4f00047
restaurant,Restoran,Restaurant Yougwa,"CJ63+H23, Jl. Raya Abepura - Sentani, Asei Kecil, Kec. Sentani Tim., Kabupaten Jayapura, Papua 99351","Jl. Raya Abepura - Sentani, Asei Kecil, Kec. Sentani Tim., Kabupaten Jayapura",PAPUA,99351.0,Indonesia,8114801448.0,-2.5886245,140.602559,https://maps.google.com/?cid=0x0:0x65e60fc66014e79c
restaurant,Korea,Korean street food,"Doyo Baru, Distrik Waibu, Kabupaten Jayapura, Papua 99352","Distrik Waibu, Kabupaten Jayapura",PAPUA,99352.0,Indonesia,85366902992.0,-2.5405446,140.4627037,https://maps.google.com/?cid=0x0:0x66a341ce1e9b36f0
restaurant,Bed >>u0026 Breakfast,Hotel Merbau Restaurant,"CGP4+4Q7, Hinekombe, Kec. Sentani, Kabupaten Jayapura, Papua 99359","Hinekombe, Kec. Sentani, Kabupaten Jayapura",PAPUA,99359.0,Indonesia,,-2.5647139,140.506909,https://maps.google.com/?cid=0x0:0x95e266360ad4704f
restaurant,Kedai Kopi,Kopi Kemtuk,"Kampung, Kabupaten Jayapura, Papua 99235",Kabupaten Jayapura,PAPUA,99235.0,Indonesia,82197963965.0,-2.866667,140.2,https://maps.google.com/?cid=0x0:0x1bb00a476b7aa330
restaurant,Ramen,Kusuka Cafe  Resto,"Seberang Astra Honda, masuk lorong sebelah jayamart, Jl. Klp. 2 No.18, Entrop, Jayapura Selatan, Jayapura City, Papua 99221","masuk lorong sebelah jayamart, Jl. Klp. 2 No.18, Entrop, Jayapura Selatan, Jayapura City",PAPUA,99221.0,Indonesia,,-2.5689574,140.7025065,https://maps.google.com/?cid=0x0:0xc48e7a8e5d46dab5
restaurant,Rumah Makan,Pondok Apung Tomarokai - PAT,"Doyo Lama, Distrik Waibu, Kabupaten Jayapura, Papua 99352","Distrik Waibu, Kabupaten Jayapura",PAPUA,99352.0,Indonesia,81240311499.0,-2.5662372,140.446269,https://maps.google.com/?cid=0x0:0x21c1f3b43605c3b5
restaurant,Mi,Mandala Sentani,"CGM6+RFC, Jl. Raya Kemiri, Hinekombe, Kec. Sentani, Kabupaten Jayapura, Papua 99359","Jl. Raya Kemiri, Hinekombe, Kec. Sentani, Kabupaten Jayapura",PAPUA,99359.0,Indonesia,9675191911.0,-2.5654544,140.5110728,https://maps.google.com/?cid=0x0:0x7b5dba085f85a8f9
restaurant,Restoran,Bukit Resto,"CF63+HV5, Kwadeware, Distrik Waibu, Kabupaten Jayapura, Papua","Kabupaten Jayapura, Papua",PAPUA,,Indonesia,,-2.5886241,140.454723,https://maps.google.com/?cid=0x0:0x2ec2537653ad9db9
restaurant,Nasi,WARUNG LALAPAN RIZKITA,"Doyo Baru, Distrik Waibu, Kabupaten Jayapura, Papua 99352","Distrik Waibu, Kabupaten Jayapura",PAPUA,99352.0,Indonesia,,-2.5418622,140.4692047,https://maps.google.com/?cid=0x0:0xdaaeb0c2f777e504
restaurant,Brunch,Warung Makan JATENG,"C63J+FV2, besum, Karya Bumi, Nimboran Tim. / Namblong, Kabupaten Jayapura, Papua 99361","besum, Karya Bumi, Nimboran Tim. / Namblong, Kabupaten Jayapura",PAPUA,99361.0,Indonesia,,-2.5963502,140.232151,https://maps.google.com/?cid=0x0:0xc97114faab9aad68
restaurant,Minimarket,Ungkea Jungle Resto,"CF56+4G7, Unnamed Road, Kwadeware, Distrik Waibu, Kabupaten Jayapura, Papua 99352","Unnamed Road, Kwadeware, Distrik Waibu, Kabupaten Jayapura",PAPUA,99352.0,Indonesia,,-2.5922109,140.4613058,https://maps.google.com/?cid=0x0:0x9c4fd24964775d4f
restaurant,restaurant,Papua 99357,"Kabupaten Jayapura, Papua","Kabupaten Jayapura, Papua",PAPUA,,Indonesia,,-2.7850607,140.2244429,https://maps.google.com/?cid=0x0:0x37d7dde7ca57ffbb
restaurant,Rumah Makan,Rumah Makan Sendok Garpu Jayapura,"Jl. Raya Abepura-Kotaraja Kota Baru, Wai Mhorock, Kec. Abepura, Kota Jayapura, Papua 99225","Wai Mhorock, Kec. Abepura, Kota Jayapura",PAPUA,99225.0,Indonesia,82310000123.0,-2.6057136,140.6694308,https://maps.google.com/?cid=0x0:0x9b347169a4f00047
restaurant,Pangkalan Truk,RM Resta,"F42M+J2V, Unnamed Road,, Nembukrang, Distrik Nimbokrang, Kabupaten Jayapura, Papua 99361","Unnamed Road,, Nembukrang, Distrik Nimbokrang, Kabupaten Jayapura",PAPUA,99361.0,Indonesia,,-2.548386,140.1325496,https://maps.google.com/?cid=0x0:0x9db922cb3c393a1b
restaurant,Restoran,Restaurant Yougwa,"CJ63+H23, Jl. Raya Abepura - Sentani, Asei Kecil, Kec. Sentani Tim., Kabupaten Jayapura, Papua 99351","Jl. Raya Abepura - Sentani, Asei Kecil, Kec. Sentani Tim., Kabupaten Jayapura",PAPUA,99351.0,Indonesia,8114801448.0,-2.5886245,140.602559,https://maps.google.com/?cid=0x0:0x65e60fc66014e79c
restaurant,Korea,Korean street food,"Doyo Baru, Distrik Waibu, Kabupaten Jayapura, Papua 99352","Distrik Waibu, Kabupaten Jayapura",PAPUA,99352.0,Indonesia,85366902992.0,-2.5405446,140.4627037,https://maps.google.com/?cid=0x0:0x66a341ce1e9b36f0
restaurant,Rumah Makan,Pondok Apung Tomarokai - PAT,"Doyo Lama, Distrik Waibu, Kabupaten Jayapura, Papua 99352","Distrik Waibu, Kabupaten Jayapura",PAPUA,99352.0,Indonesia,81240311499.0,-2.5662372,140.446269,https://maps.google.com/?cid=0x0:0x21c1f3b43605c3b5
restaurant,Ramen,Kusuka Cafe  Resto,"Seberang Astra Honda, masuk lorong sebelah jayamart, Jl. Klp. 2 No.18, Entrop, Jayapura Selatan, Jayapura City, Papua 99221","masuk lorong sebelah jayamart, Jl. Klp. 2 No.18, Entrop, Jayapura Selatan, Jayapura City",PAPUA,99221.0,Indonesia,,-2.5689574,140.7025065,https://maps.google.com/?cid=0x0:0xc48e7a8e5d46dab5
restaurant,Kedai Kopi,D.Teras,"Doyo Baru, Distrik Waibu, Kabupaten Jayapura, Papua 99352","Distrik Waibu, Kabupaten Jayapura",PAPUA,99352.0,Indonesia,81327887989.0,-2.5422016,140.4617189,https://maps.google.com/?cid=0x0:0x20048a0067afecd9
restaurant,Brunch,Warung Makan JATENG,"C63J+FV2, besum, Karya Bumi, Nimboran Tim. / Namblong, Kabupaten Jayapura, Papua 99361","besum, Karya Bumi, Nimboran Tim. / Namblong, Kabupaten Jayapura",PAPUA,99361.0,Indonesia,,-2.5963502,140.232151,https://maps.google.com/?cid=0x0:0xc97114faab9aad68
restaurant,Mi,Mandala Sentani,"CGM6+RFC, Jl. Raya Kemiri, Hinekombe, Kec. Sentani, Kabupaten Jayapura, Papua 99359","Jl. Raya Kemiri, Hinekombe, Kec. Sentani, Kabupaten Jayapura",PAPUA,99359.0,Indonesia,9675191911.0,-2.5654544,140.5110728,https://maps.google.com/?cid=0x0:0x7b5dba085f85a8f9
restaurant,Nasi,WARUNG LALAPAN RIZKITA,"Doyo Baru, Distrik Waibu, Kabupaten Jayapura, Papua 99352","Distrik Waibu, Kabupaten Jayapura",PAPUA,99352.0,Indonesia,,-2.5418622,140.4692047,https://maps.google.com/?cid=0x0:0xdaaeb0c2f777e504
restaurant,Restoran,Bukit Resto,"CF63+HV5, Kwadeware, Distrik Waibu, Kabupaten Jayapura, Papua","Kabupaten Jayapura, Papua",PAPUA,,Indonesia,,-2.5886241,140.454723,https://maps.google.com/?cid=0x0:0x2ec2537653ad9db9
restaurant,Rumah Makan,RM. Anjela,"FF46+GC7, Jl. Doyo Baru, Doyo Baru, Distrik Waibu, Kabupaten Jayapura, Papua 99352","Jl. Doyo Baru, Doyo Baru, Distrik Waibu, Kabupaten Jayapura",PAPUA,99352.0,Indonesia,81247256626.0,-2.5437043,140.4610483,https://maps.google.com/?cid=0x0:0xb9a9f5be29ee7e7b
restaurant,restaurant,Distrik Nimboran,"Kabupaten Jayapura, Papua","Kabupaten Jayapura, Papua",PAPUA,,Indonesia,,-2.5963423,140.1662573,https://maps.google.com/?cid=0x0:0x1cf39af2b94e731d
restaurant,Pangkalan Truk,RM Resta,"F42M+J2V, Unnamed Road,, Nembukrang, Distrik Nimbokrang, Kabupaten Jayapura, Papua 99361","Unnamed Road,, Nembukrang, Distrik Nimbokrang, Kabupaten Jayapura",PAPUA,99361.0,Indonesia,,-2.548386,140.1325496,https://maps.google.com/?cid=0x0:0x9db922cb3c393a1b
restaurant,Brunch,Warung Makan JATENG,"C63J+FV2, besum, Karya Bumi, Nimboran Tim. / Namblong, Kabupaten Jayapura, Papua 99361","besum, Karya Bumi, Nimboran Tim. / Namblong, Kabupaten Jayapura",PAPUA,99361.0,Indonesia,,-2.5963502,140.232151,https://maps.google.com/?cid=0x0:0xc97114faab9aad68
restaurant,Restoran,Warung Barokah Nimbokrang,"C4V6+5M5, Bunyom, Distrik Nimbokrang, Kabupaten Jayapura, Papua 99361","Bunyom, Distrik Nimbokrang, Kabupaten Jayapura",PAPUA,99361.0,Indonesia,,-2.5571037,140.1117411,https://maps.google.com/?cid=0x0:0x7217a23e29c50d98
restaurant,Brunch,CAFE DJOKO,"Jln kenanga No.Blok C, RW.lokasi 400, Benyom Jaya I, Distrik Nimbokrang, Kabupaten Jayapura, Papua 99362","RW.lokasi 400, Benyom Jaya I, Distrik Nimbokrang, Kabupaten Jayapura",PAPUA,99362.0,Indonesia,82248269620.0,-2.5531575,140.1147848,https://maps.google.com/?cid=0x0:0x8a76231faf15270e
restaurant,Brunch,Rest Area Nimbokrang,"Jl. Poros Nimbokrang Sarmi, Nimbokrang, Distrik Nimbokrang, Kabupaten Jayapura, Papua 99361","Nimbokrang, Distrik Nimbokrang, Kabupaten Jayapura",PAPUA,99361.0,Indonesia,81221571234.0,-2.5576864,140.1296506,https://maps.google.com/?cid=0x0:0xad02fcbf5181a253
restaurant,Dapur Umum,@dapoerflo,"Nembukrang, Distrik Nimbokrang, Kabupaten Jayapura, Papua 99361","Distrik Nimbokrang, Kabupaten Jayapura",PAPUA,99361.0,Indonesia,,-2.5504447,140.1335651,https://maps.google.com/?cid=0x0:0xefd284367fe47998
restaurant,restaurant,Nimbokrang desa bunyom,"F42M+PM6, Nembukrang, Distrik Nimbokrang, Kabupaten Jayapura, Papua","Kabupaten Jayapura, Papua",PAPUA,,Indonesia,,-2.5482152,140.1341511,https://maps.google.com/?cid=0x0:0x66568211d02a1e82
restaurant,Brunch,Rumah Makan Pada Suka (RM Padang),"C4V6+2PG, Unnamed Road, Bunyom, Nimbokrang, Jayapura Regency, Papua 99361","Unnamed Road, Bunyom, Nimbokrang, Jayapura Regency",PAPUA,99361.0,Indonesia,,-2.5574334,140.1118415,https://maps.google.com/?cid=0x0:0xcc26d0bd63f91ff4
restaurant,Hidangan Laut,B-One Restaurant,"FP45+5CR, Numbai, Distrik Jayapura Selatan, Kota Jayapura, Papua 99222","Numbai, Distrik Jayapura Selatan, Kota Jayapura",PAPUA,99222.0,Indonesia,81344533058.0,-2.5445125,140.7085143,https://maps.google.com/?cid=0x0:0xb8053f84d614fc3e
restaurant,Restoran,Victor,"C62H+P53, Karya Bumi, Nimboran Tim. / Namblong, Kabupaten Jayapura, Papua 99361","Karya Bumi, Nimboran Tim. / Namblong, Kabupaten Jayapura",PAPUA,99361.0,Indonesia,85269221554.0,-2.5982483,140.2279208,https://maps.google.com/?cid=0x0:0xea0b10c0d49e1356
restaurant,Bakso,Mie Pangsit Pak Herman,"C4V7+5M7, Bunyom, Distrik Nimbokrang, Kabupaten Jayapura, Papua 99361","Bunyom, Distrik Nimbokrang, Kabupaten Jayapura",PAPUA,99361.0,Indonesia,,-2.5570831,140.1141692,https://maps.google.com/?cid=0x0:0x2678bc9bd1bafe5f
restaurant,Brunch,Kedai Kampoeng Rasa,"Jl. Jend. Sudirman No.33 Blok A, Nembukrang, Distrik Nimbokrang, Kabupaten Jayapura, Papua 99361","Nembukrang, Distrik Nimbokrang, Kabupaten Jayapura",PAPUA,99361.0,Indonesia,81223478888.0,-2.5508225,140.1331015,https://maps.google.com/?cid=0x0:0x9026ca9b3624a110
restaurant,Restoran,Restaurant Yougwa,"CJ63+H23, Jl. Raya Abepura - Sentani, Asei Kecil, Kec. Sentani Tim., Kabupaten Jayapura, Papua 99351","Jl. Raya Abepura - Sentani, Asei Kecil, Kec. Sentani Tim., Kabupaten Jayapura",PAPUA,99351.0,Indonesia,8114801448.0,-2.5886245,140.602559,https://maps.google.com/?cid=0x0:0x65e60fc66014e79c
restaurant,restaurant,Papua 99362,"Kabupaten Jayapura, Papua","Kabupaten Jayapura, Papua",PAPUA,,Indonesia,,-2.4816716,139.998236,https://maps.google.com/?cid=0x0:0x914eb9d0bad553fd
restaurant,Pangkalan Truk,RM Resta,"F42M+J2V, Unnamed Road,, Nembukrang, Distrik Nimbokrang, Kabupaten Jayapura, Papua 99361","Unnamed Road,, Nembukrang, Distrik Nimbokrang, Kabupaten Jayapura",PAPUA,99361.0,Indonesia,,-2.548386,140.1325496,https://maps.google.com/?cid=0x0:0x9db922cb3c393a1b
restaurant,Brunch,CAFE DJOKO,"Jln kenanga No.Blok C, RW.lokasi 400, Benyom Jaya I, Distrik Nimbokrang, Kabupaten Jayapura, Papua 99362","RW.lokasi 400, Benyom Jaya I, Distrik Nimbokrang, Kabupaten Jayapura",PAPUA,99362.0,Indonesia,82248269620.0,-2.5531575,140.1147848,https://maps.google.com/?cid=0x0:0x8a76231faf15270e
restaurant,Brunch,Rest Area Nimbokrang,"Jl. Poros Nimbokrang Sarmi, Nimbokrang, Distrik Nimbokrang, Kabupaten Jayapura, Papua 99361","Nimbokrang, Distrik Nimbokrang, Kabupaten Jayapura",PAPUA,99361.0,Indonesia,81221571234.0,-2.5576864,140.1296506,https://maps.google.com/?cid=0x0:0xad02fcbf5181a253
restaurant,restaurant,Nimbokrang desa bunyom,"F42M+PM6, Nembukrang, Distrik Nimbokrang, Kabupaten Jayapura, Papua","Kabupaten Jayapura, Papua",PAPUA,,Indonesia,,-2.5482152,140.1341511,https://maps.google.com/?cid=0x0:0x66568211d02a1e82
restaurant,Jawa,Rumah Makan Rini,"C4V6+672 Bank Rakyat Indonesia,.Unit, Bunyom, Nimbokrang, Jayapura Regency, Papua 99361","Bunyom, Nimbokrang, Jayapura Regency",PAPUA,99361.0,Indonesia,,-2.5569948,140.1106389,https://maps.google.com/?cid=0x0:0xced914938608b582
restaurant,Dapur Umum,@dapoerflo,"Nembukrang, Distrik Nimbokrang, Kabupaten Jayapura, Papua 99361","Distrik Nimbokrang, Kabupaten Jayapura",PAPUA,99361.0,Indonesia,,-2.5504447,140.1335651,https://maps.google.com/?cid=0x0:0xefd284367fe47998
restaurant,Makanan Kecil,ANYA COFFEE NIMBOKRANG,"F43M+XQ9, Nembukrang, Distrik Nimbokrang, Kabupaten Jayapura, Papua","Kabupaten Jayapura, Papua",PAPUA,,Indonesia,,-2.5450899,140.1344964,https://maps.google.com/?cid=0x0:0x66672633829c6bab
restaurant,Brunch,Rumah Makan Pada Suka (RM Padang),"C4V6+2PG, Unnamed Road, Bunyom, Nimbokrang, Jayapura Regency, Papua 99361","Unnamed Road, Bunyom, Nimbokrang, Jayapura Regency",PAPUA,99361.0,Indonesia,,-2.5574334,140.1118415,https://maps.google.com/?cid=0x0:0xcc26d0bd63f91ff4
restaurant,restaurant,Warung Nikongkrang,"C4V7+5W6, Bunyom, Distrik Nimbokrang, Kabupaten Jayapura, Papua 99361","Bunyom, Distrik Nimbokrang, Kabupaten Jayapura",PAPUA,99361.0,Indonesia,,-2.5570896,140.1147617,https://maps.google.com/?cid=0x0:0x292e66f8cc42602
restaurant,Brunch,RM Kawanua (B2 RW),"C4V7+2CP Di Depan Pemangkas Rambut, Bunyom, Distrik Nimbokrang, Kabupaten Jayapura, Papua","Kabupaten Jayapura, Papua",PAPUA,,Indonesia,,-2.5574202,140.1135728,https://maps.google.com/?cid=0x0:0x32d51cc8e8b87de3
restaurant,Brunch,Warung Makan JATENG,"C63J+FV2, besum, Karya Bumi, Nimboran Tim. / Namblong, Kabupaten Jayapura, Papua 99361","besum, Karya Bumi, Nimboran Tim. / Namblong, Kabupaten Jayapura",PAPUA,99361.0,Indonesia,,-2.5963502,140.232151,https://maps.google.com/?cid=0x0:0xc97114faab9aad68
restaurant,Bakso,Mie Pangsit Pak Herman,"C4V7+5M7, Bunyom, Distrik Nimbokrang, Kabupaten Jayapura, Papua 99361","Bunyom, Distrik Nimbokrang, Kabupaten Jayapura",PAPUA,99361.0,Indonesia,,-2.5570831,140.1141692,https://maps.google.com/?cid=0x0:0x2678bc9bd1bafe5f
restaurant,restaurant,Distrik Nimbokrang,"Kabupaten Jayapura, Papua","Kabupaten Jayapura, Papua",PAPUA,,Indonesia,,-2.5482824,140.1340831,https://maps.google.com/?cid=0x0:0xf66261a3431e7659
restaurant,Toko umum,Araari,"Jl mambruk, Blok D Timur, Lokasi 200, Benyom Jaya II, Nimbokrang II, Kabupaten Jayapura, Papua 99361","Blok D Timur, Lokasi 200, Benyom Jaya II, Nimbokrang II, Kabupaten Jayapura",PAPUA,99361.0,Indonesia,,-2.5380021,140.1058849,https://maps.google.com/?cid=0x0:0x7b89934eb1a3fcd3
restaurant,Rumah Kaca,Anicerepi,"FRHP+4XC, Guriyad, Kec. Unurum Guay, Kabupaten Jayapura, Papua","Kabupaten Jayapura, Papua",PAPUA,,Indonesia,,-2.5221975,139.8373988,https://maps.google.com/?cid=0x0:0x3114f2901ef3cb4c
restaurant,restaurant,Papua 99354,"Kabupaten Jayapura, Papua","Kabupaten Jayapura, Papua",PAPUA,,Indonesia,,-2.425843,140.1626664,https://maps.google.com/?cid=0x0:0xed2e9d28341a8606
restaurant,Kedai Kopi,D.Teras,"Doyo Baru, Distrik Waibu, Kabupaten Jayapura, Papua 99352","Distrik Waibu, Kabupaten Jayapura",PAPUA,99352.0,Indonesia,81327887989.0,-2.5422016,140.4617189,https://maps.google.com/?cid=0x0:0x20048a0067afecd9
restaurant,Pangkalan Truk,RM Resta,"F42M+J2V, Unnamed Road,, Nembukrang, Distrik Nimbokrang, Kabupaten Jayapura, Papua 99361","Unnamed Road,, Nembukrang, Distrik Nimbokrang, Kabupaten Jayapura",PAPUA,99361.0,Indonesia,,-2.548386,140.1325496,https://maps.google.com/?cid=0x0:0x9db922cb3c393a1b
restaurant,Kedai Kopi,Kedai Kopi Maray,"M4H8+Q7C, Kamdera, Distrik Demta, Kabupaten Jayapura, Papua","Kabupaten Jayapura, Papua",PAPUA,,Indonesia,82312010007.0,-2.3205691,140.1156294,https://maps.google.com/?cid=0x0:0x9ee0ac58ef16fee6
restaurant,Rumah Makan,RestoCafe Rumah Laut,"Jl. Koti, Numbai, Distrik Jayapura Selatan, Kota Jayapura, Papua 99222","Numbai, Distrik Jayapura Selatan, Kota Jayapura",PAPUA,99222.0,Indonesia,9675160842.0,-2.5443152,140.7078561,https://maps.google.com/?cid=0x0:0xa0b850e17d17f09d
restaurant,Restoran,Restaurant Yougwa,"CJ63+H23, Jl. Raya Abepura - Sentani, Asei Kecil, Kec. Sentani Tim., Kabupaten Jayapura, Papua 99351","Jl. Raya Abepura - Sentani, Asei Kecil, Kec. Sentani Tim., Kabupaten Jayapura",PAPUA,99351.0,Indonesia,8114801448.0,-2.5886245,140.602559,https://maps.google.com/?cid=0x0:0x65e60fc66014e79c
restaurant,Katering,Rumah makan Cantika Prasmanan 1 Entrop,"toko bangunan surya prima masuk 200 meter, Jalan baru kelapa 2 Entrop (kompleks PT.ABS, Lorong, Distrik Jayapura Selatan, Kota Jayapura, Papua 99221","Jalan baru kelapa 2 Entrop (kompleks PT.ABS, Lorong, Distrik Jayapura Selatan, Kota Jayapura",PAPUA,99221.0,Indonesia,8114841867.0,-2.5691257,140.7020927,https://maps.google.com/?cid=0x0:0xdd301761035cd1ff
restaurant,Rumah Makan,Rumah Makan Sendok Garpu Jayapura,"Jl. Raya Abepura-Kotaraja Kota Baru, Wai Mhorock, Kec. Abepura, Kota Jayapura, Papua 99225","Wai Mhorock, Kec. Abepura, Kota Jayapura",PAPUA,99225.0,Indonesia,82310000123.0,-2.6057136,140.6694308,https://maps.google.com/?cid=0x0:0x9b347169a4f00047
restaurant,Rumah Makan,DâSultan Seafood,"Engros, Kec. Abepura, Kota Jayapura, Papua","Kota Jayapura, Papua",PAPUA,,Indonesia,81322274748.0,-2.6009717,140.7158585,https://maps.google.com/?cid=0x0:0xa29b04eadcd97aae
restaurant,Hidangan Laut,B-One Restaurant,"FP45+5CR, Numbai, Distrik Jayapura Selatan, Kota Jayapura, Papua 99222","Numbai, Distrik Jayapura Selatan, Kota Jayapura",PAPUA,99222.0,Indonesia,81344533058.0,-2.5445125,140.7085143,https://maps.google.com/?cid=0x0:0xb8053f84d614fc3e
restaurant,Brunch,CAFE DJOKO,"Jln kenanga No.Blok C, RW.lokasi 400, Benyom Jaya I, Distrik Nimbokrang, Kabupaten Jayapura, Papua 99362","RW.lokasi 400, Benyom Jaya I, Distrik Nimbokrang, Kabupaten Jayapura",PAPUA,99362.0,Indonesia,82248269620.0,-2.5531575,140.1147848,https://maps.google.com/?cid=0x0:0x8a76231faf15270e
restaurant,Dapur Umum,@dapoerflo,"Nembukrang, Distrik Nimbokrang, Kabupaten Jayapura, Papua 99361","Distrik Nimbokrang, Kabupaten Jayapura",PAPUA,99361.0,Indonesia,,-2.5504447,140.1335651,https://maps.google.com/?cid=0x0:0xefd284367fe47998
restaurant,Brunch,Rumah Makan Pada Suka (RM Padang),"C4V6+2PG, Unnamed Road, Bunyom, Nimbokrang, Jayapura Regency, Papua 99361","Unnamed Road, Bunyom, Nimbokrang, Jayapura Regency",PAPUA,99361.0,Indonesia,,-2.5574334,140.1118415,https://maps.google.com/?cid=0x0:0xcc26d0bd63f91ff4
restaurant,Ikan Bakar,D'Jimbaran Papua,"9PX8+3VF, Engros, Kec. Abepura, Kota Jayapura, Papua","Kota Jayapura, Papua",PAPUA,,Indonesia,,-2.6020736,140.7168784,https://maps.google.com/?cid=0x0:0xb6125c5e0138c416
restaurant,restaurant,Papua 99364,"Kabupaten Jayapura, Papua","Kabupaten Jayapura, Papua",PAPUA,,Indonesia,,-3.2384616,139.8547266,https://maps.google.com/?cid=0x0:0x2e9677508a097a0f
restaurant,Restoran,Cristho Resto,"Jl. Raya Sentani - Waena, Asei Kecil, Kec. Sentani Tim., Kabupaten Jayapura, Papua 99351","Asei Kecil, Kec. Sentani Tim., Kabupaten Jayapura",PAPUA,99351.0,Indonesia,82248269002.0,-2.5885674,140.5954984,https://maps.google.com/?cid=0x0:0xe37fe4d7ad0bc892
restaurant,Restoran,Restaurant Yougwa,"CJ63+H23, Jl. Raya Abepura - Sentani, Asei Kecil, Kec. Sentani Tim., Kabupaten Jayapura, Papua 99351","Jl. Raya Abepura - Sentani, Asei Kecil, Kec. Sentani Tim., Kabupaten Jayapura",PAPUA,99351.0,Indonesia,8114801448.0,-2.5886245,140.602559,https://maps.google.com/?cid=0x0:0x65e60fc66014e79c
restaurant,restaurant,WARUNG MAKAN BAROKAH,"Dekat, Hulu Atas, Airu, Kabupaten Jayapura, Papua 99465","Hulu Atas, Airu, Kabupaten Jayapura",PAPUA,99465.0,Indonesia,85254142868.0,-3.6690478,140.1902569,https://maps.google.com/?cid=0x0:0x4ae578a3d2b2e5e1
restaurant,Rumah Makan,Rumah Makan Sendok Garpu Jayapura,"Jl. Raya Abepura-Kotaraja Kota Baru, Wai Mhorock, Kec. Abepura, Kota Jayapura, Papua 99225","Wai Mhorock, Kec. Abepura, Kota Jayapura",PAPUA,99225.0,Indonesia,82310000123.0,-2.6057136,140.6694308,https://maps.google.com/?cid=0x0:0x9b347169a4f00047
restaurant,Toko Roti,Flavouw Cafe  Buddy Burger,"CGPC+2C2, Jl. Ifar Gn., Sentani Kota, Kec. Sentani, Kabupaten Jayapura, Papua 99359","Jl. Ifar Gn., Sentani Kota, Kec. Sentani, Kabupaten Jayapura",PAPUA,99359.0,Indonesia,81240364286.0,-2.5649762,140.5210037,https://maps.google.com/?cid=0x0:0x74b52879855faad0
restaurant,Restoran,58 Hauzz Kitchen  Lounge,"Kota, Jl. Raya Abepura - Sentani, Kabupaten Jayapura, Papua","Kabupaten Jayapura, Papua",PAPUA,,Indonesia,8114858558.0,-2.6087433,140.6671875,https://maps.google.com/?cid=0x0:0xf9f022f92c8ea463
restaurant,Vila,Cafe  Resto Efata,"Unnamed Road, Doyo Lama, Distrik Waibu, Kabupaten Jayapura, Papua 99352","Doyo Lama, Distrik Waibu, Kabupaten Jayapura",PAPUA,99352.0,Indonesia,81393727460.0,-2.5656718,140.4652682,https://maps.google.com/?cid=0x0:0xdf6899334b660461
restaurant,Kedai Kopi,Cafe Isasai,"Danau Sentani, Kp. Waena, Kec. Heram, Kota Jayapura, Papua 99351","Kp. Waena, Kec. Heram, Kota Jayapura",PAPUA,99351.0,Indonesia,,-2.598538,140.6244014,https://maps.google.com/?cid=0x0:0xc37a24107e869a96
restaurant,Bubur,Rolenda Organic Restaurant,"Jl. Trans Papua,KM-130-Wamena Tengon Jl. Ohoam, Elelim, Distrik Elelim, Kabupaten Yalimo, Papua 99082","Elelim, Distrik Elelim, Kabupaten Yalimo",PAPUA,99082.0,Indonesia,81247068008.0,-3.7792593,139.381862,https://maps.google.com/?cid=0x0:0x13f13fd67511f555
restaurant,Mi,Mandala Sentani,"CGM6+RFC, Jl. Raya Kemiri, Hinekombe, Kec. Sentani, Kabupaten Jayapura, Papua 99359","Jl. Raya Kemiri, Hinekombe, Kec. Sentani, Kabupaten Jayapura",PAPUA,99359.0,Indonesia,9675191911.0,-2.5654544,140.5110728,https://maps.google.com/?cid=0x0:0x7b5dba085f85a8f9
restaurant,Ikan Bakar,Mujair Bakar Yudisyah Kotaraja,"Wai Mhorock, Kec. Abepura, Kota Jayapura, Papua 99225","Kec. Abepura, Kota Jayapura",PAPUA,99225.0,Indonesia,82399546212.0,-2.6004761,140.6763149,https://maps.google.com/?cid=0x0:0xef7eca24b91157a4
restaurant,Kafe,warung makan lumayan,"69HJ+5HV, Unnamed Road, Elelim, Distrik Elelim, Kabupaten Yalimo, Papua 99558","Unnamed Road, Elelim, Distrik Elelim, Kabupaten Yalimo",PAPUA,99558.0,Indonesia,85244955800.0,-3.772016,139.381411,https://maps.google.com/?cid=0x0:0xbc4ad3c4c7484ec
restaurant,Restoran,Yasbeer Cafe dan resto,"Engros, Kec. Abepura, Kota Jayapura, Papua","Kota Jayapura, Papua",PAPUA,,Indonesia,81248941111.0,-2.6005334,140.7153915,https://maps.google.com/?cid=0x0:0x34cbd734e60fa36b
restaurant,restaurant,Papua 99352,"Kabupaten Jayapura, Papua","Kabupaten Jayapura, Papua",PAPUA,,Indonesia,,-2.5683577,140.4618316,https://maps.google.com/?cid=0x0:0xc4bf3fc2f14cfb38
restaurant,Rumah Makan,Dabu Dabu Iris,"FF58+XJV, Jl. Raya Doyo Baru, Doyo Baru, Distrik Waibu, Kabupaten Jayapura, Papua 99352","Jl. Raya Doyo Baru, Doyo Baru, Distrik Waibu, Kabupaten Jayapura",PAPUA,99352.0,Indonesia,,-2.5400224,140.4665612,https://maps.google.com/?cid=0x0:0x5a0533b74cfab784
restaurant,Minimarket,Ungkea Jungle Resto,"CF56+4G7, Unnamed Road, Kwadeware, Distrik Waibu, Kabupaten Jayapura, Papua 99352","Unnamed Road, Kwadeware, Distrik Waibu, Kabupaten Jayapura",PAPUA,99352.0,Indonesia,,-2.5922109,140.4613058,https://maps.google.com/?cid=0x0:0x9c4fd24964775d4f
restaurant,Vila,Cafe  Resto Efata,"Unnamed Road, Doyo Lama, Distrik Waibu, Kabupaten Jayapura, Papua 99352","Doyo Lama, Distrik Waibu, Kabupaten Jayapura",PAPUA,99352.0,Indonesia,81393727460.0,-2.5656718,140.4652682,https://maps.google.com/?cid=0x0:0xdf6899334b660461
restaurant,Nasi,R.M NADHIFA,"Jl. Polres Sentani No. 4, Doyo Baru, Walibu, Doyo Baru, Distrik Waibu, Kabupaten Jayapura, Papua 99352","Doyo Baru, Walibu, Doyo Baru, Distrik Waibu, Kabupaten Jayapura",PAPUA,99352.0,Indonesia,81243355529.0,-2.5395473,140.4631765,https://maps.google.com/?cid=0x0:0x1fa059deaed0e61e
restaurant,Kedai Kopi,D.Teras,"Doyo Baru, Distrik Waibu, Kabupaten Jayapura, Papua 99352","Distrik Waibu, Kabupaten Jayapura",PAPUA,99352.0,Indonesia,81327887989.0,-2.5422016,140.4617189,https://maps.google.com/?cid=0x0:0x20048a0067afecd9
restaurant,Nasi,WARUNG LALAPAN RIZKITA,"Doyo Baru, Distrik Waibu, Kabupaten Jayapura, Papua 99352","Distrik Waibu, Kabupaten Jayapura",PAPUA,99352.0,Indonesia,,-2.5418622,140.4692047,https://maps.google.com/?cid=0x0:0xdaaeb0c2f777e504
restaurant,Sesuai untuk keluarga,Resto Rumah Gunung,"Jl. Raya Kemiri, Hinekombe, Kec. Sentani, Kabupaten Jayapura, Papua 99359","Hinekombe, Kec. Sentani, Kabupaten Jayapura",PAPUA,99359.0,Indonesia,85397988228.0,-2.562126,140.49807,https://maps.google.com/?cid=0x0:0x4152026d194842b
restaurant,Korea,Korean street food,"Doyo Baru, Distrik Waibu, Kabupaten Jayapura, Papua 99352","Distrik Waibu, Kabupaten Jayapura",PAPUA,99352.0,Indonesia,85366902992.0,-2.5405446,140.4627037,https://maps.google.com/?cid=0x0:0x66a341ce1e9b36f0
restaurant,Restoran,RUMAH MAKAN SUMBER IJO,"Jl. Doyo Baru, Doyo Baru, Distrik Waibu, Kabupaten Jayapura, Papua 99352","Doyo Baru, Distrik Waibu, Kabupaten Jayapura",PAPUA,99352.0,Indonesia,81217991415.0,-2.5424062,140.470049,https://maps.google.com/?cid=0x0:0x2e4975c89de67893
restaurant,Rumah Makan,RUMAH MAKAN BARIKLI,"Jl. Raya Doyo Baru, Doyo Baru, Distrik Waibu, Kabupaten Jayapura, Papua 99352","Doyo Baru, Distrik Waibu, Kabupaten Jayapura",PAPUA,99352.0,Indonesia,81247075005.0,-2.5419638,140.4698894,https://maps.google.com/?cid=0x0:0x7984ea4b01d56305
restaurant,Kedai Kopi,B - One Eleven Cafe  Resto,"Jl. Kehiran Griya marwah indah No.8, Dobonsolo, Kec. Sentani, Kabupaten Jayapura, Papua 99359","Dobonsolo, Kec. Sentani, Kabupaten Jayapura",PAPUA,99359.0,Indonesia,82299427709.0,-2.575064,140.4987152,https://maps.google.com/?cid=0x0:0xa8f31087ae4aa842
restaurant,Rumah Makan,Pondok Apung Tomarokai - PAT,"Doyo Lama, Distrik Waibu, Kabupaten Jayapura, Papua 99352","Distrik Waibu, Kabupaten Jayapura",PAPUA,99352.0,Indonesia,81240311499.0,-2.5662372,140.446269,https://maps.google.com/?cid=0x0:0x21c1f3b43605c3b5
restaurant,Restoran,Warung Abadi,"Depan Batlyon, Jl. Raya Kemiri No.751, Hinekombe, Sentani, Jayapura Regency, Papua 99359","Jl. Raya Kemiri No.751, Hinekombe, Sentani, Jayapura Regency",PAPUA,99359.0,Indonesia,81248465588.0,-2.5618883,140.4973882,https://maps.google.com/?cid=0x0:0xf8530700cc85537a
restaurant,restaurant,Papua 99358,"Kabupaten Jayapura, Papua","Kabupaten Jayapura, Papua",PAPUA,,Indonesia,,-2.5423787,140.3894858,https://maps.google.com/?cid=0x0:0xe811437fcb2474bb
restaurant,Indonesia,Mobile Resto Tomarokai,"CCQ8+R6W, Sosiri, Distrik Waibu, Kabupaten Jayapura, Papua 99358","Sosiri, Distrik Waibu, Kabupaten Jayapura",PAPUA,99358.0,Indonesia,,-2.5603762,140.4155651,https://maps.google.com/?cid=0x0:0xa8bfb4c85ca0b761
restaurant,Rumah Makan,RUMAH MAKAN BARIKLI,"Jl. Raya Doyo Baru, Doyo Baru, Distrik Waibu, Kabupaten Jayapura, Papua 99352","Doyo Baru, Distrik Waibu, Kabupaten Jayapura",PAPUA,99352.0,Indonesia,81247075005.0,-2.5419638,140.4698894,https://maps.google.com/?cid=0x0:0x7984ea4b01d56305
restaurant,Minimarket,Ungkea Jungle Resto,"CF56+4G7, Unnamed Road, Kwadeware, Distrik Waibu, Kabupaten Jayapura, Papua 99352","Unnamed Road, Kwadeware, Distrik Waibu, Kabupaten Jayapura",PAPUA,99352.0,Indonesia,,-2.5922109,140.4613058,https://maps.google.com/?cid=0x0:0x9c4fd24964775d4f
restaurant,Restoran,Bukit Resto,"CF63+HV5, Kwadeware, Distrik Waibu, Kabupaten Jayapura, Papua","Kabupaten Jayapura, Papua",PAPUA,,Indonesia,,-2.5886241,140.454723,https://maps.google.com/?cid=0x0:0x2ec2537653ad9db9
restaurant,Kedai Kopi,D.Teras,"Doyo Baru, Distrik Waibu, Kabupaten Jayapura, Papua 99352","Distrik Waibu, Kabupaten Jayapura",PAPUA,99352.0,Indonesia,81327887989.0,-2.5422016,140.4617189,https://maps.google.com/?cid=0x0:0x20048a0067afecd9
restaurant,Korea,Korean street food,"Doyo Baru, Distrik Waibu, Kabupaten Jayapura, Papua 99352","Distrik Waibu, Kabupaten Jayapura",PAPUA,99352.0,Indonesia,85366902992.0,-2.5405446,140.4627037,https://maps.google.com/?cid=0x0:0x66a341ce1e9b36f0
restaurant,Rumah Makan,Pondok Apung Tomarokai - PAT,"Doyo Lama, Distrik Waibu, Kabupaten Jayapura, Papua 99352","Distrik Waibu, Kabupaten Jayapura",PAPUA,99352.0,Indonesia,81240311499.0,-2.5662372,140.446269,https://maps.google.com/?cid=0x0:0x21c1f3b43605c3b5
restaurant,Restoran,RM BAROKAH RATU RASA,"FF56+C4Q, Jl. Doyo Baru, Doyo Baru, Distrik Waibu, Kabupaten Jayapura, Papua 99352","Jl. Doyo Baru, Doyo Baru, Distrik Waibu, Kabupaten Jayapura",PAPUA,99352.0,Indonesia,82248240619.0,-2.5414102,140.460363,https://maps.google.com/?cid=0x0:0x977de0822a924a84
restaurant,Rumah Makan,RM. Anjela,"FF46+GC7, Jl. Doyo Baru, Doyo Baru, Distrik Waibu, Kabupaten Jayapura, Papua 99352","Jl. Doyo Baru, Doyo Baru, Distrik Waibu, Kabupaten Jayapura",PAPUA,99352.0,Indonesia,81247256626.0,-2.5437043,140.4610483,https://maps.google.com/?cid=0x0:0xb9a9f5be29ee7e7b
restaurant,Toko Roti,Flavouw Cafe  Buddy Burger,"CGPC+2C2, Jl. Ifar Gn., Sentani Kota, Kec. Sentani, Kabupaten Jayapura, Papua 99359","Jl. Ifar Gn., Sentani Kota, Kec. Sentani, Kabupaten Jayapura",PAPUA,99359.0,Indonesia,81240364286.0,-2.5649762,140.5210037,https://maps.google.com/?cid=0x0:0x74b52879855faad0
restaurant,Ayam,Sentani Snacks,"RW.Jlr.2, Doyo Baru, Distrik Waibu, Kabupaten Jayapura, Papua 99352","Doyo Baru, Distrik Waibu, Kabupaten Jayapura",PAPUA,99352.0,Indonesia,8114885532.0,-2.5488015,140.4730512,https://maps.google.com/?cid=0x0:0xd714e52cc8b8b84f
restaurant,Restoran,RUMAH MAKAN SUMBER IJO,"Jl. Doyo Baru, Doyo Baru, Distrik Waibu, Kabupaten Jayapura, Papua 99352","Doyo Baru, Distrik Waibu, Kabupaten Jayapura",PAPUA,99352.0,Indonesia,81217991415.0,-2.5424062,140.470049,https://maps.google.com/?cid=0x0:0x2e4975c89de67893
restaurant,Nasi,Warung Makan Ajeng,"Doyo Baru, Distrik Waibu, Kec. Sentani, Kabupaten Jayapura, Papua 99352","Distrik Waibu, Kec. Sentani, Kabupaten Jayapura",PAPUA,99352.0,Indonesia,,-2.544657,140.4721151,https://maps.google.com/?cid=0x0:0xfd15ca78d29d46b
restaurant,restaurant,Papua 99361,"Kabupaten Jayapura, Papua","Kabupaten Jayapura, Papua",PAPUA,,Indonesia,,-2.5921274,140.059845,https://maps.google.com/?cid=0x0:0xe7cd882fece4c0b1
restaurant,Hidangan Laut,B-One Restaurant,"FP45+5CR, Numbai, Distrik Jayapura Selatan, Kota Jayapura, Papua 99222","Numbai, Distrik Jayapura Selatan, Kota Jayapura",PAPUA,99222.0,Indonesia,81344533058.0,-2.5445125,140.7085143,https://maps.google.com/?cid=0x0:0xb8053f84d614fc3e
restaurant,Rumah Makan,RestoCafe Rumah Laut,"Jl. Koti, Numbai, Distrik Jayapura Selatan, Kota Jayapura, Papua 99222","Numbai, Distrik Jayapura Selatan, Kota Jayapura",PAPUA,99222.0,Indonesia,9675160842.0,-2.5443152,140.7078561,https://maps.google.com/?cid=0x0:0xa0b850e17d17f09d
restaurant,Rumah Makan,Rumah Makan Sendok Garpu Jayapura,"Jl. Raya Abepura-Kotaraja Kota Baru, Wai Mhorock, Kec. Abepura, Kota Jayapura, Papua 99225","Wai Mhorock, Kec. Abepura, Kota Jayapura",PAPUA,99225.0,Indonesia,82310000123.0,-2.6057136,140.6694308,https://maps.google.com/?cid=0x0:0x9b347169a4f00047
restaurant,Kafe,Ropopang x Eskole Cafe Jayapura,"Jl. Ps. Yotefa No.33, Wai Mhorock, Kec. Abepura, Kota Jayapura, Papua 99351","Wai Mhorock, Kec. Abepura, Kota Jayapura",PAPUA,99351.0,Indonesia,81240970364.0,-2.6084375,140.6777793,https://maps.google.com/?cid=0x0:0x8aa1325684f15ea1
restaurant,Dapur Umum,Umma Eatery,"Jl. Gerilyawan, Yobe, Kec. Abepura, Kota Jayapura, Papua 99351","Yobe, Kec. Abepura, Kota Jayapura",PAPUA,99351.0,Indonesia,811484688.0,-2.6139368,140.6708121,https://maps.google.com/?cid=0x0:0x81bb34f7cf8553c2
restaurant,Restoran,Cristho Resto,"Jl. Raya Sentani - Waena, Asei Kecil, Kec. Sentani Tim., Kabupaten Jayapura, Papua 99351","Asei Kecil, Kec. Sentani Tim., Kabupaten Jayapura",PAPUA,99351.0,Indonesia,82248269002.0,-2.5885674,140.5954984,https://maps.google.com/?cid=0x0:0xe37fe4d7ad0bc892
restaurant,Mi,Mandala Sentani,"CGM6+RFC, Jl. Raya Kemiri, Hinekombe, Kec. Sentani, Kabupaten Jayapura, Papua 99359","Jl. Raya Kemiri, Hinekombe, Kec. Sentani, Kabupaten Jayapura",PAPUA,99359.0,Indonesia,9675191911.0,-2.5654544,140.5110728,https://maps.google.com/?cid=0x0:0x7b5dba085f85a8f9
restaurant,Restoran,CAN CAN RESTAURANT JAYAPURA,"Jl. Gerilyawan No.105D, Yobe, Kamkey, Kota Jayapura, Papua 99351","Yobe, Kamkey, Kota Jayapura",PAPUA,99351.0,Indonesia,8114721717.0,-2.6139033,140.6708149,https://maps.google.com/?cid=0x0:0x37fb4684ef9b542a
restaurant,Ikan Bakar,Mujair Bakar Yudisyah Kotaraja,"Wai Mhorock, Kec. Abepura, Kota Jayapura, Papua 99225","Kec. Abepura, Kota Jayapura",PAPUA,99225.0,Indonesia,82399546212.0,-2.6004761,140.6763149,https://maps.google.com/?cid=0x0:0xef7eca24b91157a4
restaurant,Rumah Makan,DâSultan Seafood,"Engros, Kec. Abepura, Kota Jayapura, Papua","Kota Jayapura, Papua",PAPUA,,Indonesia,81322274748.0,-2.6009717,140.7158585,https://maps.google.com/?cid=0x0:0xa29b04eadcd97aae
restaurant,restaurant,Yapsi,"Kabupaten Jayapura, Papua","Kabupaten Jayapura, Papua",PAPUA,,Indonesia,,-2.811221,140.1009527,https://maps.google.com/?cid=0x0:0xaec96b36c4ad9a90
restaurant,Restoran,Yasbeer Cafe dan resto,"Engros, Kec. Abepura, Kota Jayapura, Papua","Kota Jayapura, Papua",PAPUA,,Indonesia,81248941111.0,-2.6005334,140.7153915,https://maps.google.com/?cid=0x0:0x34cbd734e60fa36b
restaurant,Restoran,Restaurant Yougwa,"CJ63+H23, Jl. Raya Abepura - Sentani, Asei Kecil, Kec. Sentani Tim., Kabupaten Jayapura, Papua 99351","Jl. Raya Abepura - Sentani, Asei Kecil, Kec. Sentani Tim., Kabupaten Jayapura",PAPUA,99351.0,Indonesia,8114801448.0,-2.5886245,140.602559,https://maps.google.com/?cid=0x0:0x65e60fc66014e79c
restaurant,Restoran,CAN CAN RESTAURANT JAYAPURA,"Jl. Gerilyawan No.105D, Yobe, Kamkey, Kota Jayapura, Papua 99351","Yobe, Kamkey, Kota Jayapura",PAPUA,99351.0,Indonesia,8114721717.0,-2.6139033,140.6708149,https://maps.google.com/?cid=0x0:0x37fb4684ef9b542a
restaurant,Ikan Bakar,Restaurant HIYAKE,"Asano, Kec. Abepura, Kota Jayapura, Papua 99351","Kec. Abepura, Kota Jayapura",PAPUA,99351.0,Indonesia,,-2.6170625,140.6810625,https://maps.google.com/?cid=0x0:0xd0238f33fd19f43
restaurant,Kedai Kopi,Kopi Kemtuk,"Kampung, Kabupaten Jayapura, Papua 99235",Kabupaten Jayapura,PAPUA,99235.0,Indonesia,82197963965.0,-2.866667,140.2,https://maps.google.com/?cid=0x0:0x1bb00a476b7aa330
restaurant,Ikan Bakar,D'Jimbaran Papua,"9PX8+3VF, Engros, Kec. Abepura, Kota Jayapura, Papua","Kota Jayapura, Papua",PAPUA,,Indonesia,,-2.6020736,140.7168784,https://maps.google.com/?cid=0x0:0xb6125c5e0138c416
restaurant,Sarapan,Rumah makan dan cafe alfathir,"64G6+WFH, Ongan Jaya, Yapsi, Kabupaten Jayapura, Papua","Kabupaten Jayapura, Papua",PAPUA,,Indonesia,,-2.7726955,140.1112339,https://maps.google.com/?cid=0x0:0xdcf3eb06725b317a
restaurant,Restoran,Cristho Resto,"Jl. Raya Sentani - Waena, Asei Kecil, Kec. Sentani Tim., Kabupaten Jayapura, Papua 99351","Asei Kecil, Kec. Sentani Tim., Kabupaten Jayapura",PAPUA,99351.0,Indonesia,82248269002.0,-2.5885674,140.5954984,https://maps.google.com/?cid=0x0:0xe37fe4d7ad0bc892
restaurant,Jepang,Musouya KBP,"Jl. Jingga Niaga Kaler Jl. Parahyangan Raya No.5, Cipeundeuy, Kec. Padalarang, Kabupaten Bandung Barat, Jawa Barat 40553","Cipeundeuy, Kec. Padalarang, Kabupaten Bandung Barat",PAPUA,40553.0,Indonesia,85280888068.0,-6.874158,107.4690604,https://maps.google.com/?cid=0x0:0xe2fedf252169c121
restaurant,Jepang,Musouya,"Jl. Hegarmanah No.2, Hegarmanah, Kec. Cidadap, Kota Bandung, Jawa Barat 40141","Hegarmanah, Kec. Cidadap, Kota Bandung",PAPUA,40141.0,Indonesia,222041873.0,-6.8825713,107.6025052,https://maps.google.com/?cid=0x0:0xa4b3f48dc4dd08c0
restaurant,restaurant,Airu,"Kabupaten Jayapura, Papua","Kabupaten Jayapura, Papua",PAPUA,,Indonesia,,-3.5753077,140.265662,https://maps.google.com/?cid=0x0:0x84b595ca2a102cef
restaurant,restaurant,WARUNG MAKAN BAROKAH,"Dekat, Hulu Atas, Airu, Kabupaten Jayapura, Papua 99465","Hulu Atas, Airu, Kabupaten Jayapura",PAPUA,99465.0,Indonesia,85254142868.0,-3.6690478,140.1902569,https://maps.google.com/?cid=0x0:0x4ae578a3d2b2e5e1
restaurant,restaurant,Rumah Makan Salero Bundo,"78C2+QR, Muara Nawa, Airu, Kabupaten Jayapura, Papua","Kabupaten Jayapura, Papua",PAPUA,,Indonesia,,-3.7281142,140.3021159,https://maps.google.com/?cid=0x0:0x6599c94c610c57cd
restaurant,Sesuai untuk keluarga,Resto Rumah Gunung,"Jl. Raya Kemiri, Hinekombe, Kec. Sentani, Kabupaten Jayapura, Papua 99359","Hinekombe, Kec. Sentani, Kabupaten Jayapura",PAPUA,99359.0,Indonesia,85397988228.0,-2.562126,140.49807,https://maps.google.com/?cid=0x0:0x4152026d194842b
restaurant,Rumah Makan,RestoCafe Rumah Laut,"Jl. Koti, Numbai, Distrik Jayapura Selatan, Kota Jayapura, Papua 99222","Numbai, Distrik Jayapura Selatan, Kota Jayapura",PAPUA,99222.0,Indonesia,9675160842.0,-2.5443152,140.7078561,https://maps.google.com/?cid=0x0:0xa0b850e17d17f09d
restaurant,Restoran,Cristho Resto,"Jl. Raya Sentani - Waena, Asei Kecil, Kec. Sentani Tim., Kabupaten Jayapura, Papua 99351","Asei Kecil, Kec. Sentani Tim., Kabupaten Jayapura",PAPUA,99351.0,Indonesia,82248269002.0,-2.5885674,140.5954984,https://maps.google.com/?cid=0x0:0xe37fe4d7ad0bc892
restaurant,Restoran,RM Aura Laut,"CGMC+3WP, Sentani Kota, Kec. Sentani, Kabupaten Jayapura, Papua 99359","Sentani Kota, Kec. Sentani, Kabupaten Jayapura",PAPUA,99359.0,Indonesia,,-2.5672907,140.5223427,https://maps.google.com/?cid=0x0:0x799ccca332efffc2
restaurant,Kedai Kopi,Cafe Isasai,"Danau Sentani, Kp. Waena, Kec. Heram, Kota Jayapura, Papua 99351","Kp. Waena, Kec. Heram, Kota Jayapura",PAPUA,99351.0,Indonesia,,-2.598538,140.6244014,https://maps.google.com/?cid=0x0:0xc37a24107e869a96
restaurant,restaurant,KOPI DAENG,"85JQ+GM2, Dekat, Hulu Atas, Airu, Kabupaten Jayapura, Papua 99465","Dekat, Hulu Atas, Airu, Kabupaten Jayapura",PAPUA,99465.0,Indonesia,81344063691.0,-3.6687284,140.1891351,https://maps.google.com/?cid=0x0:0x31bf29ba34fbd248
restaurant,Kafe,warung makan lumayan,"69HJ+5HV, Unnamed Road, Elelim, Distrik Elelim, Kabupaten Yalimo, Papua 99558","Unnamed Road, Elelim, Distrik Elelim, Kabupaten Yalimo",PAPUA,99558.0,Indonesia,85244955800.0,-3.772016,139.381411,https://maps.google.com/?cid=0x0:0xbc4ad3c4c7484ec
restaurant,Rumah Makan,Rumah Makan Sendok Garpu Jayapura,"Jl. Raya Abepura-Kotaraja Kota Baru, Wai Mhorock, Kec. Abepura, Kota Jayapura, Papua 99225","Wai Mhorock, Kec. Abepura, Kota Jayapura",PAPUA,99225.0,Indonesia,82310000123.0,-2.6057136,140.6694308,https://maps.google.com/?cid=0x0:0x9b347169a4f00047
restaurant,Nasi,Warung Makan Ajeng,"Doyo Baru, Distrik Waibu, Kec. Sentani, Kabupaten Jayapura, Papua 99352","Distrik Waibu, Kec. Sentani, Kabupaten Jayapura",PAPUA,99352.0,Indonesia,,-2.544657,140.4721151,https://maps.google.com/?cid=0x0:0xfd15ca78d29d46b
restaurant,Bubur,Rolenda Organic Restaurant,"Jl. Trans Papua,KM-130-Wamena Tengon Jl. Ohoam, Elelim, Distrik Elelim, Kabupaten Yalimo, Papua 99082","Elelim, Distrik Elelim, Kabupaten Yalimo",PAPUA,99082.0,Indonesia,81247068008.0,-3.7792593,139.381862,https://maps.google.com/?cid=0x0:0x13f13fd67511f555
restaurant,Ramen,Kusuka Cafe  Resto,"Seberang Astra Honda, masuk lorong sebelah jayamart, Jl. Klp. 2 No.18, Entrop, Jayapura Selatan, Jayapura City, Papua 99221","masuk lorong sebelah jayamart, Jl. Klp. 2 No.18, Entrop, Jayapura Selatan, Jayapura City",PAPUA,99221.0,Indonesia,,-2.5689574,140.7025065,https://maps.google.com/?cid=0x0:0xc48e7a8e5d46dab5
restaurant,restaurant,Papua 99353,"Kabupaten Jayapura, Papua","Kabupaten Jayapura, Papua",PAPUA,,Indonesia,,-2.4345515,140.4101474,https://maps.google.com/?cid=0x0:0xae8b3e09ee92fb9d
restaurant,Sesuai untuk keluarga,Resto Rumah Gunung,"Jl. Raya Kemiri, Hinekombe, Kec. Sentani, Kabupaten Jayapura, Papua 99359","Hinekombe, Kec. Sentani, Kabupaten Jayapura",PAPUA,99359.0,Indonesia,85397988228.0,-2.562126,140.49807,https://maps.google.com/?cid=0x0:0x4152026d194842b
restaurant,Rumah Makan,RestoCafe Rumah Laut,"Jl. Koti, Numbai, Distrik Jayapura Selatan, Kota Jayapura, Papua 99222","Numbai, Distrik Jayapura Selatan, Kota Jayapura",PAPUA,99222.0,Indonesia,9675160842.0,-2.5443152,140.7078561,https://maps.google.com/?cid=0x0:0xa0b850e17d17f09d
restaurant,Kedai Kopi,D.Teras,"Doyo Baru, Distrik Waibu, Kabupaten Jayapura, Papua 99352","Distrik Waibu, Kabupaten Jayapura",PAPUA,99352.0,Indonesia,81327887989.0,-2.5422016,140.4617189,https://maps.google.com/?cid=0x0:0x20048a0067afecd9
restaurant,Nasi,WARUNG LALAPAN RIZKITA,"Doyo Baru, Distrik Waibu, Kabupaten Jayapura, Papua 99352","Distrik Waibu, Kabupaten Jayapura",PAPUA,99352.0,Indonesia,,-2.5418622,140.4692047,https://maps.google.com/?cid=0x0:0xdaaeb0c2f777e504
restaurant,Restoran,Restaurant Yougwa,"CJ63+H23, Jl. Raya Abepura - Sentani, Asei Kecil, Kec. Sentani Tim., Kabupaten Jayapura, Papua 99351","Jl. Raya Abepura - Sentani, Asei Kecil, Kec. Sentani Tim., Kabupaten Jayapura",PAPUA,99351.0,Indonesia,8114801448.0,-2.5886245,140.602559,https://maps.google.com/?cid=0x0:0x65e60fc66014e79c
restaurant,Nasi,R.M NADHIFA,"Jl. Polres Sentani No. 4, Doyo Baru, Walibu, Doyo Baru, Distrik Waibu, Kabupaten Jayapura, Papua 99352","Doyo Baru, Walibu, Doyo Baru, Distrik Waibu, Kabupaten Jayapura",PAPUA,99352.0,Indonesia,81243355529.0,-2.5395473,140.4631765,https://maps.google.com/?cid=0x0:0x1fa059deaed0e61e
restaurant,Padang,RM NUSANTARA,"APO, Bayangkara, Kec. Jayapura Utara, Kota Jayapura, Papua 99112","Bayangkara, Kec. Jayapura Utara, Kota Jayapura",PAPUA,99112.0,Indonesia,967522735.0,-2.5348064,140.7064074,https://maps.google.com/?cid=0x0:0x3503aa175f618ba1
restaurant,Rumah Makan,Rumah Makan Sendok Garpu Jayapura,"Jl. Raya Abepura-Kotaraja Kota Baru, Wai Mhorock, Kec. Abepura, Kota Jayapura, Papua 99225","Wai Mhorock, Kec. Abepura, Kota Jayapura",PAPUA,99225.0,Indonesia,82310000123.0,-2.6057136,140.6694308,https://maps.google.com/?cid=0x0:0x9b347169a4f00047
restaurant,Indonesia,Mobile Resto Tomarokai,"CCQ8+R6W, Sosiri, Distrik Waibu, Kabupaten Jayapura, Papua 99358","Sosiri, Distrik Waibu, Kabupaten Jayapura",PAPUA,99358.0,Indonesia,,-2.5603762,140.4155651,https://maps.google.com/?cid=0x0:0xa8bfb4c85ca0b761
restaurant,Restoran,Arabia,"CFVQ+28V, Hinekombe, Kec. Sentani, Kabupaten Jayapura, Papua 99352","Hinekombe, Kec. Sentani, Kabupaten Jayapura",PAPUA,99352.0,Indonesia,,-2.5573824,140.4882911,https://maps.google.com/?cid=0x0:0x4941528b71972f9f
restaurant,Restoran,Yasbeer Cafe dan resto,"Engros, Kec. Abepura, Kota Jayapura, Papua","Kota Jayapura, Papua",PAPUA,,Indonesia,81248941111.0,-2.6005334,140.7153915,https://maps.google.com/?cid=0x0:0x34cbd734e60fa36b
restaurant,Hidangan Laut,B-One Restaurant,"FP45+5CR, Numbai, Distrik Jayapura Selatan, Kota Jayapura, Papua 99222","Numbai, Distrik Jayapura Selatan, Kota Jayapura",PAPUA,99222.0,Indonesia,81344533058.0,-2.5445125,140.7085143,https://maps.google.com/?cid=0x0:0xb8053f84d614fc3e
restaurant,Restoran,RM BAROKAH RATU RASA,"FF56+C4Q, Jl. Doyo Baru, Doyo Baru, Distrik Waibu, Kabupaten Jayapura, Papua 99352","Jl. Doyo Baru, Doyo Baru, Distrik Waibu, Kabupaten Jayapura",PAPUA,99352.0,Indonesia,82248240619.0,-2.5414102,140.460363,https://maps.google.com/?cid=0x0:0x977de0822a924a84
restaurant,restaurant,Distrik Gresi Selatan,"Kabupaten Jayapura, Papua","Kabupaten Jayapura, Papua",PAPUA,,Indonesia,,-2.641859,140.1829593,https://maps.google.com/?cid=0x0:0x3d361b435e9393d5
restaurant,Restoran,Cristho Resto,"Jl. Raya Sentani - Waena, Asei Kecil, Kec. Sentani Tim., Kabupaten Jayapura, Papua 99351","Asei Kecil, Kec. Sentani Tim., Kabupaten Jayapura",PAPUA,99351.0,Indonesia,82248269002.0,-2.5885674,140.5954984,https://maps.google.com/?cid=0x0:0xe37fe4d7ad0bc892
restaurant,Kedai Kopi,Cafe Isasai,"Danau Sentani, Kp. Waena, Kec. Heram, Kota Jayapura, Papua 99351","Kp. Waena, Kec. Heram, Kota Jayapura",PAPUA,99351.0,Indonesia,,-2.598538,140.6244014,https://maps.google.com/?cid=0x0:0xc37a24107e869a96
restaurant,Restoran,58 Hauzz Kitchen  Lounge,"Kota, Jl. Raya Abepura - Sentani, Kabupaten Jayapura, Papua","Kabupaten Jayapura, Papua",PAPUA,,Indonesia,8114858558.0,-2.6087433,140.6671875,https://maps.google.com/?cid=0x0:0xf9f022f92c8ea463
restaurant,Restoran,Cafe dan Resto 577,"CPJ5+H7R, Jl. Amphibi, Hamadi, Distrik Jayapura Selatan, Kota Jayapura, Papua","Kota Jayapura, Papua",PAPUA,,Indonesia,85244709001.0,-2.5685019,140.7081384,https://maps.google.com/?cid=0x0:0x5e9c00212da89536
restaurant,Kedai Kopi,D.Teras,"Doyo Baru, Distrik Waibu, Kabupaten Jayapura, Papua 99352","Distrik Waibu, Kabupaten Jayapura",PAPUA,99352.0,Indonesia,81327887989.0,-2.5422016,140.4617189,https://maps.google.com/?cid=0x0:0x20048a0067afecd9
restaurant,Brunch,Warung Makan JATENG,"C63J+FV2, besum, Karya Bumi, Nimboran Tim. / Namblong, Kabupaten Jayapura, Papua 99361","besum, Karya Bumi, Nimboran Tim. / Namblong, Kabupaten Jayapura",PAPUA,99361.0,Indonesia,,-2.5963502,140.232151,https://maps.google.com/?cid=0x0:0xc97114faab9aad68
restaurant,Mi,Mandala Sentani,"CGM6+RFC, Jl. Raya Kemiri, Hinekombe, Kec. Sentani, Kabupaten Jayapura, Papua 99359","Jl. Raya Kemiri, Hinekombe, Kec. Sentani, Kabupaten Jayapura",PAPUA,99359.0,Indonesia,9675191911.0,-2.5654544,140.5110728,https://maps.google.com/?cid=0x0:0x7b5dba085f85a8f9
restaurant,Restoran,Restaurant Yougwa,"CJ63+H23, Jl. Raya Abepura - Sentani, Asei Kecil, Kec. Sentani Tim., Kabupaten Jayapura, Papua 99351","Jl. Raya Abepura - Sentani, Asei Kecil, Kec. Sentani Tim., Kabupaten Jayapura",PAPUA,99351.0,Indonesia,8114801448.0,-2.5886245,140.602559,https://maps.google.com/?cid=0x0:0x65e60fc66014e79c
restaurant,restaurant,Papua 99354,"Kabupaten Jayapura, Papua","Kabupaten Jayapura, Papua",PAPUA,,Indonesia,,-2.425843,140.1626664,https://maps.google.com/?cid=0x0:0xed2e9d28341a8606
restaurant,Rumah Makan,Rumah Makan Sendok Garpu Jayapura,"Jl. Raya Abepura-Kotaraja Kota Baru, Wai Mhorock, Kec. Abepura, Kota Jayapura, Papua 99225","Wai Mhorock, Kec. Abepura, Kota Jayapura",PAPUA,99225.0,Indonesia,82310000123.0,-2.6057136,140.6694308,https://maps.google.com/?cid=0x0:0x9b347169a4f00047
restaurant,Brunch,CAFE DJOKO,"Jln kenanga No.Blok C, RW.lokasi 400, Benyom Jaya I, Distrik Nimbokrang, Kabupaten Jayapura, Papua 99362","RW.lokasi 400, Benyom Jaya I, Distrik Nimbokrang, Kabupaten Jayapura",PAPUA,99362.0,Indonesia,82248269620.0,-2.5531575,140.1147848,https://maps.google.com/?cid=0x0:0x8a76231faf15270e
restaurant,Rumah Makan,RestoCafe Rumah Laut,"Jl. Koti, Numbai, Distrik Jayapura Selatan, Kota Jayapura, Papua 99222","Numbai, Distrik Jayapura Selatan, Kota Jayapura",PAPUA,99222.0,Indonesia,9675160842.0,-2.5443152,140.7078561,https://maps.google.com/?cid=0x0:0xa0b850e17d17f09d
restaurant,restaurant,Kec. Yokari,"Kabupaten Jayapura, Papua","Kabupaten Jayapura, Papua",PAPUA,,Indonesia,,-2.41269,140.2260524,https://maps.google.com/?cid=0x0:0xbcf48b8a2ca1825
restaurant,Jawa,Rumah Makan Rini,"C4V6+672 Bank Rakyat Indonesia,.Unit, Bunyom, Nimbokrang, Jayapura Regency, Papua 99361","Bunyom, Nimbokrang, Jayapura Regency",PAPUA,99361.0,Indonesia,,-2.5569948,140.1106389,https://maps.google.com/?cid=0x0:0xced914938608b582
restaurant,Kedai Kopi,Kedai Kopi Maray,"M4H8+Q7C, Kamdera, Distrik Demta, Kabupaten Jayapura, Papua","Kabupaten Jayapura, Papua",PAPUA,,Indonesia,82312010007.0,-2.3205691,140.1156294,https://maps.google.com/?cid=0x0:0x9ee0ac58ef16fee6
restaurant,Restoran,Dapur Papua Resto (tag by EnCHy),"CH94+3PC, Jl. Raya Airport Sentani, Nendali, Kec. Sentani Tim., Kabupaten Jayapura, Papua 99359","Jl. Raya Airport Sentani, Nendali, Kec. Sentani Tim., Kabupaten Jayapura",PAPUA,99359.0,Indonesia,,-2.5823105,140.556775,https://maps.google.com/?cid=0x0:0x31316751d4c3a979
restaurant,restaurant,,,,PAPUA,,Indonesia,,,,https://maps.google.com/?cid=0x0:0x65e60fc66014e79cu0026onu003dMujair+Goreng+Ricau0026midu003d/g/11bywk_6w9
restaurant,restaurant,,,,PAPUA,,Indonesia,,,,https://maps.google.com/?cid=0x0:0x65e60fc66014e79cu0026onu003dIkan+Kuah+Kuningu0026midu003d/g/11bywk_6w9
restaurant,restaurant,,,,PAPUA,,Indonesia,,,,https://maps.google.com/?cid=0x0:0x65e60fc66014e79cu0026onu003dEs+Jeruku0026midu003d/g/11bywk_6w9
restaurant,restaurant,,,,PAPUA,,Indonesia,,,,https://maps.google.com/?cid=0x0:0x65e60fc66014e79cu0026onu003dPapeda+Ikan+Kuah+Asamu0026midu003d/g/11bywk_6w9
restaurant,restaurant,,,,PAPUA,,Indonesia,,,,https://maps.google.com/?cid=0x0:0x65e60fc66014e79cu0026onu003dTempe+Mendoanu0026midu003d/g/11bywk_6w9
