Category,Real Category,Business Name,Address,City,State,Postal Code,Country,Phone,Latitude,Longitude,Map Link
mall,mall,Papua 99352,"Kabupaten Jayapura, Papua","Kabupaten Jayapura, Papua",PAPUA,,Indonesia,,-2.5683577,140.4618316,https://maps.google.com/?cid=0x0:0xc4bf3fc2f14cfb38
mall,Pusat Perbelanjaan,Mall Sentani City Square,"Jl. Raya Kemiri No.286, Hinekombe, Kec. Sentani, Kabupaten Jayapura, Papua 99352","Hinekombe, Kec. Sentani, Kabupaten Jayapura",PAPUA,99352.0,Indonesia,82198389205.0,-2.5632484,140.5006043,https://maps.google.com/?cid=0x0:0x666e57130aca06b8
mall,Pusat Perbelanjaan,UNALALA PUSAT ACCESSORIES SCS MALL SENTANI,"CGP2+H3P, Hinekombe, Kec. Sentani, Kabupaten Jayapura, Papua 99359","Hinekombe, Kec. Sentani, Kabupaten Jayapura",PAPUA,99359.0,Indonesia,,-2.5635289,140.5002032,https://maps.google.com/?cid=0x0:0x61f114191705fd38
mall,Toko bahan makanan,kuker sentani papua,"Jl. Durian Komba, Yobeh, Kec. Sentani, Kabupaten Jayapura, Papua 99359","Yobeh, Kec. Sentani, Kabupaten Jayapura",PAPUA,99359.0,Indonesia,,-2.5783694,140.5111874,https://maps.google.com/?cid=0x0:0x183755e835647c21
mall,Agen Sewa Mobil,Kompleks Pasar Lama,"CGJ3+FW5, Jl. Ps. Lama Sentani, Dobonsolo, Kec. Sentani, Kabupaten Jayapura, Papua 99359","Jl. Ps. Lama Sentani, Dobonsolo, Kec. Sentani, Kabupaten Jayapura",PAPUA,99359.0,Indonesia,,-2.568861,140.5048707,https://maps.google.com/?cid=0x0:0x4a68692b753a91df
mall,Minimarket,SAGA Kemiri,"CFRR+GMJ, Jl. Raya Kemiri, Hinekombe, Kec. Sentani, Kabupaten Jayapura, Papua 99352","Jl. Raya Kemiri, Hinekombe, Kec. Sentani, Kabupaten Jayapura",PAPUA,99352.0,Indonesia,,-2.558668,140.4916343,https://maps.google.com/?cid=0x0:0x60b5bd9797f4d35f
mall,Toko bahan makanan,UBM Mart,"Jl. Raya Kemiri No.505, Hinekombe, Kec. Sentani, Kabupaten Jayapura, Papua 99359","Hinekombe, Kec. Sentani, Kabupaten Jayapura",PAPUA,99359.0,Indonesia,,-2.562386,140.4998384,https://maps.google.com/?cid=0x0:0x143cbdfc5480b60d
mall,Kios,Toko Tiga Saudara,"CFPV+P6F, Jl. Youmakhe, Hinekombe, Kec. Sentani, Kabupaten Jayapura, Papua 99352","Jl. Youmakhe, Hinekombe, Kec. Sentani, Kabupaten Jayapura",PAPUA,99352.0,Indonesia,82197500973.0,-2.5631924,140.493035,https://maps.google.com/?cid=0x0:0xfbf73a4a09912f5a
mall,Toko,Toko Inang,"Jl. Ps. Baru Sentani, Hinekombe, Kec. Sentani, Kabupaten Jayapura, Papua 99352","Hinekombe, Kec. Sentani, Kabupaten Jayapura",PAPUA,99352.0,Indonesia,,-2.5616371,140.4919537,https://maps.google.com/?cid=0x0:0xd8e6e3fb824fd383
mall,Toko,IU Collcetion Jayapura,"FF2F+46C Grand, Jalan Raya Sentani, Perumahan, Doyo Baru, Distrik Waibu, Kabupaten Jayapura, Papua 99352","Jalan Raya Sentani, Perumahan, Doyo Baru, Distrik Waibu, Kabupaten Jayapura",PAPUA,99352.0,Indonesia,82248853594.0,-2.5496947,140.4730284,https://maps.google.com/?cid=0x0:0xf8c71dea906f7b6
mall,Toko,Maya Shop,"Jl. Kehiran, Dobonsolo, Kec. Sentani, Kabupaten Jayapura, Papua 99358","Dobonsolo, Kec. Sentani, Kabupaten Jayapura",PAPUA,99358.0,Indonesia,82198676731.0,-2.5857537,140.483374,https://maps.google.com/?cid=0x0:0xf75e0a5d6dfc88b6
mall,Toko bahan makanan,Toko Sinar Lembakalando,"CFPV+R67, Jl. Youmakhe, Hinekombe, Kec. Sentani, Kabupaten Jayapura, Papua 99352","Jl. Youmakhe, Hinekombe, Kec. Sentani, Kabupaten Jayapura",PAPUA,99352.0,Indonesia,81218124466.0,-2.5629567,140.49305,https://maps.google.com/?cid=0x0:0x1878d098e81dec7c
mall,Toko,Toko sentani grosir dan eceran,"Jl. Raya Kemiri, Hinekombe, Kec. Sentani, Kabupaten Jayapura, Papua 99352","Hinekombe, Kec. Sentani, Kabupaten Jayapura",PAPUA,99352.0,Indonesia,,-2.5607046,140.494912,https://maps.google.com/?cid=0x0:0x6811369b8439e21
mall,Pusat Perbelanjaan,SAIYO MART,"Jl. Ps. Lama Sentani, Dobonsolo, Kec. Sentani, Kabupaten Jayapura, Papua 99359","Dobonsolo, Kec. Sentani, Kabupaten Jayapura",PAPUA,99359.0,Indonesia,,-2.5696441,140.5047709,https://maps.google.com/?cid=0x0:0xdd361322a3ce99b9
mall,mall,Papua 99359,"Kabupaten Jayapura, Papua","Kabupaten Jayapura, Papua",PAPUA,,Indonesia,,-2.5632464,140.534262,https://maps.google.com/?cid=0x0:0x15522b545274ab16
mall,Pusat Perbelanjaan,Mall Sentani City Square,"Jl. Raya Kemiri No.286, Hinekombe, Kec. Sentani, Kabupaten Jayapura, Papua 99352","Hinekombe, Kec. Sentani, Kabupaten Jayapura",PAPUA,99352.0,Indonesia,82198389205.0,-2.5632484,140.5006043,https://maps.google.com/?cid=0x0:0x666e57130aca06b8
mall,Pusat Perbelanjaan,UNALALA PUSAT ACCESSORIES SCS MALL SENTANI,"CGP2+H3P, Hinekombe, Kec. Sentani, Kabupaten Jayapura, Papua 99359","Hinekombe, Kec. Sentani, Kabupaten Jayapura",PAPUA,99359.0,Indonesia,,-2.5635289,140.5002032,https://maps.google.com/?cid=0x0:0x61f114191705fd38
mall,Agen Sewa Mobil,Kompleks Pasar Lama,"CGJ3+FW5, Jl. Ps. Lama Sentani, Dobonsolo, Kec. Sentani, Kabupaten Jayapura, Papua 99359","Jl. Ps. Lama Sentani, Dobonsolo, Kec. Sentani, Kabupaten Jayapura",PAPUA,99359.0,Indonesia,,-2.568861,140.5048707,https://maps.google.com/?cid=0x0:0x4a68692b753a91df
mall,Pusat Perbelanjaan,Mall Jayapura,"APO, Jl. Samratulangi, Bayangkara, Kec. Jayapura Utara, Kota Jayapura, Papua 99112","Jl. Samratulangi, Bayangkara, Kec. Jayapura Utara, Kota Jayapura",PAPUA,99112.0,Indonesia,9675150000.0,-2.5351775,140.7061874,https://maps.google.com/?cid=0x0:0x54294cb27964023
mall,Toko bahan makanan,UBM Mart,"Jl. Raya Kemiri No.505, Hinekombe, Kec. Sentani, Kabupaten Jayapura, Papua 99359","Hinekombe, Kec. Sentani, Kabupaten Jayapura",PAPUA,99359.0,Indonesia,,-2.562386,140.4998384,https://maps.google.com/?cid=0x0:0x143cbdfc5480b60d
mall,Pusat Perbelanjaan,WAMENA ATK,"CGM9+CR3, Sentani Kota, Kec. Sentani, Kabupaten Jayapura, Papua 99359","Sentani Kota, Kec. Sentani, Kabupaten Jayapura",PAPUA,99359.0,Indonesia,87736313527.0,-2.566495,140.5195527,https://maps.google.com/?cid=0x0:0x9911f065a5acaadf
mall,Pusat Perbelanjaan,Kacamata Sehat Ion Nano,"CH94+8F9, Jl. Raya Airport Sentani, Nendali, Kec. Sentani Tim., Kabupaten Jayapura, Papua 99359","Jl. Raya Airport Sentani, Nendali, Kec. Sentani Tim., Kabupaten Jayapura",PAPUA,99359.0,Indonesia,,-2.5817033,140.5562245,https://maps.google.com/?cid=0x0:0x2fdacb2bb89419fe
mall,mall,INDOMARET NENDALI,"CGFR+9GW, Nendali, Kec. Sentani Tim., Kabupaten Jayapura, Papua 99359","Nendali, Kec. Sentani Tim., Kabupaten Jayapura",PAPUA,99359.0,Indonesia,,-2.5765047,140.5413385,https://maps.google.com/?cid=0x0:0xafe3a5ee0a6a572
mall,Pasar,Tempat Jajan Kemiri Sentani,"CFWJ+2RJ, Jalan Raya Kemiri Lanud Silas Papare, Hinekombe, Kec. Sentani, Kabupaten Jayapura, Papua 99352","Jalan Raya Kemiri Lanud Silas Papare, Hinekombe, Kec. Sentani, Kabupaten Jayapura",PAPUA,99352.0,Indonesia,,-2.5549225,140.4820262,https://maps.google.com/?cid=0x0:0xfb37246ec88136d8
mall,Pusat Perbelanjaan,Toko Mansapurani,"CGH8+C8Q, Jl. Bandara Sentani, Sentani Kota, Kec. Sentani, Kabupaten Jayapura, Papua 99359","Jl. Bandara Sentani, Sentani Kota, Kec. Sentani, Kabupaten Jayapura",PAPUA,99359.0,Indonesia,,-2.5714054,140.515851,https://maps.google.com/?cid=0x0:0x76dc362edd18cb05
mall,Pusat Perbelanjaan,SAIYO MART,"Jl. Ps. Lama Sentani, Dobonsolo, Kec. Sentani, Kabupaten Jayapura, Papua 99359","Dobonsolo, Kec. Sentani, Kabupaten Jayapura",PAPUA,99359.0,Indonesia,,-2.5696441,140.5047709,https://maps.google.com/?cid=0x0:0xdd361322a3ce99b9
mall,Pusat Perbelanjaan,TOKO RAYA,"CGM9+Q44, Sentani Kota, Kec. Sentani, Kabupaten Jayapura, Papua 99359","Sentani Kota, Kec. Sentani, Kabupaten Jayapura",PAPUA,99359.0,Indonesia,,-2.5656074,140.5178301,https://maps.google.com/?cid=0x0:0x3ed443464b492c3c
mall,Pusat Perbelanjaan,Toko Mitra Andalas,"CGM7+Q4W, Sentani Kota, Kec. Sentani, Kabupaten Jayapura, Papua 99359","Sentani Kota, Kec. Sentani, Kabupaten Jayapura",PAPUA,99359.0,Indonesia,81248006337.0,-2.5655024,140.5128236,https://maps.google.com/?cid=0x0:0x3d9b4595289a3e42
mall,Pusat Perbelanjaan,Mall Jayapura,"APO, Jl. Samratulangi, Bayangkara, Kec. Jayapura Utara, Kota Jayapura, Papua 99112","Jl. Samratulangi, Bayangkara, Kec. Jayapura Utara, Kota Jayapura",PAPUA,99112.0,Indonesia,9675150000.0,-2.5351775,140.7061874,https://maps.google.com/?cid=0x0:0x54294cb27964023
mall,mall,Depapre,"Waiya, Distrik Depapre, Kabupaten Jayapura, Papua","Kabupaten Jayapura, Papua",PAPUA,,Indonesia,,-2.465224,140.365005,https://maps.google.com/?cid=0x0:0xb8f12b7316b09e1a
mall,Cagar Alam,Depapre,"Waiya, Distrik Depapre, Kabupaten Jayapura, Papua 99353","Distrik Depapre, Kabupaten Jayapura",PAPUA,99353.0,Indonesia,967536161.0,-2.4634125,140.3660779,https://maps.google.com/?cid=0x0:0x50fbd732ed5f5ad9
mall,Kantor Pemerintah,Depapre Port,"G9W5+5C2, Unnamed Road, Waiya, Depapre, Jayapura Regency, Papua 99353","Unnamed Road, Waiya, Depapre, Jayapura Regency",PAPUA,99353.0,Indonesia,,-2.4546138,140.3585292,https://maps.google.com/?cid=0x0:0xe5e206f2939c1d64
mall,Pusat Perbelanjaan,SAGA MALL,"Kota Baru, Kec. Abepura, Kota Jayapura, Papua 99351","Kec. Abepura, Kota Jayapura",PAPUA,99351.0,Indonesia,,-2.6105845,140.6654189,https://maps.google.com/?cid=0x0:0xaf65e43ff84ff9e6
mall,Pusat Perbelanjaan,Deppp,"Unnamed Road Blk. B No.1, Awiyo, Kec. Abepura, Kota Jayapura, Papua 99351","Awiyo, Kec. Abepura, Kota Jayapura",PAPUA,99351.0,Indonesia,85373778318.0,-2.618795,140.671301,https://maps.google.com/?cid=0x0:0xc36d46e4b6f8a8c6
mall,mall,Papua 99358,"Kabupaten Jayapura, Papua","Kabupaten Jayapura, Papua",PAPUA,,Indonesia,,-2.5423787,140.3894858,https://maps.google.com/?cid=0x0:0xe811437fcb2474bb
mall,Pusat Perbelanjaan,UNALALA PUSAT ACCESSORIES SCS MALL SENTANI,"CGP2+H3P, Hinekombe, Kec. Sentani, Kabupaten Jayapura, Papua 99359","Hinekombe, Kec. Sentani, Kabupaten Jayapura",PAPUA,99359.0,Indonesia,,-2.5635289,140.5002032,https://maps.google.com/?cid=0x0:0x61f114191705fd38
mall,Pusat Perbelanjaan,Mall Sentani City Square,"Jl. Raya Kemiri No.286, Hinekombe, Kec. Sentani, Kabupaten Jayapura, Papua 99352","Hinekombe, Kec. Sentani, Kabupaten Jayapura",PAPUA,99352.0,Indonesia,82198389205.0,-2.5632484,140.5006043,https://maps.google.com/?cid=0x0:0x666e57130aca06b8
mall,Toko bahan makanan,kuker sentani papua,"Jl. Durian Komba, Yobeh, Kec. Sentani, Kabupaten Jayapura, Papua 99359","Yobeh, Kec. Sentani, Kabupaten Jayapura",PAPUA,99359.0,Indonesia,,-2.5783694,140.5111874,https://maps.google.com/?cid=0x0:0x183755e835647c21
mall,Komplek perumahan,Waibron City,"F9QP+86C, Jln. Sentani Depapre, Waibron, Distrik Sentani Barat, Kabupaten Jayapura, Papua 99358","Jln. Sentani Depapre, Waibron, Distrik Sentani Barat, Kabupaten Jayapura",PAPUA,99358.0,Indonesia,82397087377.0,-2.5116786,140.385502,https://maps.google.com/?cid=0x0:0xf27d95dfe603b013
mall,Toko bahan makanan,Hola Mart,"FF3C+XXH, Doyo Baru, Distrik Waibu, Kabupaten Jayapura, Papua 99352","Doyo Baru, Distrik Waibu, Kabupaten Jayapura",PAPUA,99352.0,Indonesia,82248234362.0,-2.5450708,140.4724762,https://maps.google.com/?cid=0x0:0x1d3e908ab97ba4b3
mall,Pasar,Tempat Jajan Kemiri Sentani,"CFWJ+2RJ, Jalan Raya Kemiri Lanud Silas Papare, Hinekombe, Kec. Sentani, Kabupaten Jayapura, Papua 99352","Jalan Raya Kemiri Lanud Silas Papare, Hinekombe, Kec. Sentani, Kabupaten Jayapura",PAPUA,99352.0,Indonesia,,-2.5549225,140.4820262,https://maps.google.com/?cid=0x0:0xfb37246ec88136d8
mall,Agen Sewa Mobil,Kompleks Pasar Lama,"CGJ3+FW5, Jl. Ps. Lama Sentani, Dobonsolo, Kec. Sentani, Kabupaten Jayapura, Papua 99359","Jl. Ps. Lama Sentani, Dobonsolo, Kec. Sentani, Kabupaten Jayapura",PAPUA,99359.0,Indonesia,,-2.568861,140.5048707,https://maps.google.com/?cid=0x0:0x4a68692b753a91df
mall,Pusat Perbelanjaan,Mall Jayapura,"APO, Jl. Samratulangi, Bayangkara, Kec. Jayapura Utara, Kota Jayapura, Papua 99112","Jl. Samratulangi, Bayangkara, Kec. Jayapura Utara, Kota Jayapura",PAPUA,99112.0,Indonesia,9675150000.0,-2.5351775,140.7061874,https://maps.google.com/?cid=0x0:0x54294cb27964023
mall,Toko,IU Collcetion Jayapura,"FF2F+46C Grand, Jalan Raya Sentani, Perumahan, Doyo Baru, Distrik Waibu, Kabupaten Jayapura, Papua 99352","Jalan Raya Sentani, Perumahan, Doyo Baru, Distrik Waibu, Kabupaten Jayapura",PAPUA,99352.0,Indonesia,82248853594.0,-2.5496947,140.4730284,https://maps.google.com/?cid=0x0:0xf8c71dea906f7b6
mall,Pusat Perbelanjaan,SAIYO MART,"Jl. Ps. Lama Sentani, Dobonsolo, Kec. Sentani, Kabupaten Jayapura, Papua 99359","Dobonsolo, Kec. Sentani, Kabupaten Jayapura",PAPUA,99359.0,Indonesia,,-2.5696441,140.5047709,https://maps.google.com/?cid=0x0:0xdd361322a3ce99b9
mall,Toko bahan makanan,UBM Mart,"Jl. Raya Kemiri No.505, Hinekombe, Kec. Sentani, Kabupaten Jayapura, Papua 99359","Hinekombe, Kec. Sentani, Kabupaten Jayapura",PAPUA,99359.0,Indonesia,,-2.562386,140.4998384,https://maps.google.com/?cid=0x0:0x143cbdfc5480b60d
mall,Kompleks Bangunan Perusahaan,Ruko Ceria Permain 2 lantai,"CFGV+MHF, Hinekombe, Kec. Sentani, Kabupaten Jayapura, Papua 99352","Hinekombe, Kec. Sentani, Kabupaten Jayapura",PAPUA,99352.0,Indonesia,8121818604.0,-2.5733027,140.4939169,https://maps.google.com/?cid=0x0:0xcb1d8bd827ad4b07
mall,Toko Perlengkapan Rumah,NEW SENYUM 5000 DOYOBARU,"FF3F+R3P, Doyo Baru, Distrik Waibu, Kabupaten Jayapura, Papua 99352","Doyo Baru, Distrik Waibu, Kabupaten Jayapura",PAPUA,99352.0,Indonesia,,-2.545408,140.4726986,https://maps.google.com/?cid=0x0:0x4c3a0e4b2e80dd45
mall,mall,Papua 99357,"Kabupaten Jayapura, Papua","Kabupaten Jayapura, Papua",PAPUA,,Indonesia,,-2.7850607,140.2244429,https://maps.google.com/?cid=0x0:0x37d7dde7ca57ffbb
mall,Sekolah,Grime Store,"Ibub, Distrik Kemtuk Gresi, Kabupaten Jayapura, Papua 99361","Distrik Kemtuk Gresi, Kabupaten Jayapura",PAPUA,99361.0,Indonesia,,-2.6159615,140.2166125,https://maps.google.com/?cid=0x0:0x4ce597a3aaebca04
mall,mall,Distrik Kemtuk Gresi,"Kabupaten Jayapura, Papua","Kabupaten Jayapura, Papua",PAPUA,,Indonesia,,-2.6184436,140.2188529,https://maps.google.com/?cid=0x0:0xf30167b7382c5c45
mall,Pusat Perbelanjaan,Mall Jayapura,"APO, Jl. Samratulangi, Bayangkara, Kec. Jayapura Utara, Kota Jayapura, Papua 99112","Jl. Samratulangi, Bayangkara, Kec. Jayapura Utara, Kota Jayapura",PAPUA,99112.0,Indonesia,9675150000.0,-2.5351775,140.7061874,https://maps.google.com/?cid=0x0:0x54294cb27964023
mall,Kantor Perusahaan,Taja Mandiri Hotspot,"53VG+WX4, Jl. poros taja lereh, Ongan Jaya, Yapsi, Kabupaten Jayapura, Papua 99356","Jl. poros taja lereh, Ongan Jaya, Yapsi, Kabupaten Jayapura",PAPUA,99356.0,Indonesia,,-2.805249,140.0774465,https://maps.google.com/?cid=0x0:0x28940a800368bb80
mall,Toko bahan makanan,kuker sentani papua,"Jl. Durian Komba, Yobeh, Kec. Sentani, Kabupaten Jayapura, Papua 99359","Yobeh, Kec. Sentani, Kabupaten Jayapura",PAPUA,99359.0,Indonesia,,-2.5783694,140.5111874,https://maps.google.com/?cid=0x0:0x183755e835647c21
mall,Pusat Perbelanjaan,UD IMA KARYABUMI NAMBLONG,"C63J+R6G, Karya Bumi, Nimboran Tim. / Namblong, Kabupaten Jayapura, Papua 99361","Karya Bumi, Nimboran Tim. / Namblong, Kabupaten Jayapura",PAPUA,99361.0,Indonesia,,-2.595431,140.2305804,https://maps.google.com/?cid=0x0:0x52131915bea4e5d7
mall,Toko bahan makanan,UBM Mart,"Jl. Raya Kemiri No.505, Hinekombe, Kec. Sentani, Kabupaten Jayapura, Papua 99359","Hinekombe, Kec. Sentani, Kabupaten Jayapura",PAPUA,99359.0,Indonesia,,-2.562386,140.4998384,https://maps.google.com/?cid=0x0:0x143cbdfc5480b60d
mall,Toko,Maya Shop,"Jl. Kehiran, Dobonsolo, Kec. Sentani, Kabupaten Jayapura, Papua 99358","Dobonsolo, Kec. Sentani, Kabupaten Jayapura",PAPUA,99358.0,Indonesia,82198676731.0,-2.5857537,140.483374,https://maps.google.com/?cid=0x0:0xf75e0a5d6dfc88b6
mall,Pusat Perbelanjaan,Mall Sentani City Square,"Jl. Raya Kemiri No.286, Hinekombe, Kec. Sentani, Kabupaten Jayapura, Papua 99352","Hinekombe, Kec. Sentani, Kabupaten Jayapura",PAPUA,99352.0,Indonesia,82198389205.0,-2.5632484,140.5006043,https://maps.google.com/?cid=0x0:0x666e57130aca06b8
mall,Pusat Perbelanjaan,UNALALA PUSAT ACCESSORIES SCS MALL SENTANI,"CGP2+H3P, Hinekombe, Kec. Sentani, Kabupaten Jayapura, Papua 99359","Hinekombe, Kec. Sentani, Kabupaten Jayapura",PAPUA,99359.0,Indonesia,,-2.5635289,140.5002032,https://maps.google.com/?cid=0x0:0x61f114191705fd38
mall,Pusat Perbelanjaan,Pasar Tradisional Karya Bumi,"C64P+F45, Karya Bumi, Nimboran Tim. / Namblong, Kabupaten Jayapura, Papua 99361","Karya Bumi, Nimboran Tim. / Namblong, Kabupaten Jayapura",PAPUA,99361.0,Indonesia,,-2.5938512,140.2353581,https://maps.google.com/?cid=0x0:0x89af1c0842c86c3
mall,Toko bahan makanan,Hola Mart,"FF3C+XXH, Doyo Baru, Distrik Waibu, Kabupaten Jayapura, Papua 99352","Doyo Baru, Distrik Waibu, Kabupaten Jayapura",PAPUA,99352.0,Indonesia,82248234362.0,-2.5450708,140.4724762,https://maps.google.com/?cid=0x0:0x1d3e908ab97ba4b3
mall,Toko Bahan Bangunan,Intijaya Swalayan,"C4V9+24R, Bunyom, Distrik Nimbokrang, Kabupaten Jayapura, Papua 99361","Bunyom, Distrik Nimbokrang, Kabupaten Jayapura",PAPUA,99361.0,Indonesia,,-2.557382,140.1177534,https://maps.google.com/?cid=0x0:0x619a0590a50e21e8
mall,mall,Papua 99357,"Kabupaten Jayapura, Papua","Kabupaten Jayapura, Papua",PAPUA,,Indonesia,,-2.7850607,140.2244429,https://maps.google.com/?cid=0x0:0x37d7dde7ca57ffbb
mall,Sekolah,Grime Store,"Ibub, Distrik Kemtuk Gresi, Kabupaten Jayapura, Papua 99361","Distrik Kemtuk Gresi, Kabupaten Jayapura",PAPUA,99361.0,Indonesia,,-2.6159615,140.2166125,https://maps.google.com/?cid=0x0:0x4ce597a3aaebca04
mall,mall,Distrik Kemtuk Gresi,"Kabupaten Jayapura, Papua","Kabupaten Jayapura, Papua",PAPUA,,Indonesia,,-2.6184436,140.2188529,https://maps.google.com/?cid=0x0:0xf30167b7382c5c45
mall,Kantor Perusahaan,Taja Mandiri Hotspot,"53VG+WX4, Jl. poros taja lereh, Ongan Jaya, Yapsi, Kabupaten Jayapura, Papua 99356","Jl. poros taja lereh, Ongan Jaya, Yapsi, Kabupaten Jayapura",PAPUA,99356.0,Indonesia,,-2.805249,140.0774465,https://maps.google.com/?cid=0x0:0x28940a800368bb80
mall,Pusat Perbelanjaan,Mall Sentani City Square,"Jl. Raya Kemiri No.286, Hinekombe, Kec. Sentani, Kabupaten Jayapura, Papua 99352","Hinekombe, Kec. Sentani, Kabupaten Jayapura",PAPUA,99352.0,Indonesia,82198389205.0,-2.5632484,140.5006043,https://maps.google.com/?cid=0x0:0x666e57130aca06b8
mall,Toko,Toko Eky Jaya,"C67V+H4W, jln, Kwansu, Kec. Kemtuk, Kabupaten Jayapura, Papua 99361","jln, Kwansu, Kec. Kemtuk, Kabupaten Jayapura",PAPUA,99361.0,Indonesia,81346794248.0,-2.5860216,140.2428412,https://maps.google.com/?cid=0x0:0xdd54c1daf21180de
mall,Pusat Perbelanjaan,UD IMA KARYABUMI NAMBLONG,"C63J+R6G, Karya Bumi, Nimboran Tim. / Namblong, Kabupaten Jayapura, Papua 99361","Karya Bumi, Nimboran Tim. / Namblong, Kabupaten Jayapura",PAPUA,99361.0,Indonesia,,-2.595431,140.2305804,https://maps.google.com/?cid=0x0:0x52131915bea4e5d7
mall,Toko bahan makanan,kuker sentani papua,"Jl. Durian Komba, Yobeh, Kec. Sentani, Kabupaten Jayapura, Papua 99359","Yobeh, Kec. Sentani, Kabupaten Jayapura",PAPUA,99359.0,Indonesia,,-2.5783694,140.5111874,https://maps.google.com/?cid=0x0:0x183755e835647c21
mall,mall,Distrik Nimboran,"Kabupaten Jayapura, Papua","Kabupaten Jayapura, Papua",PAPUA,,Indonesia,,-2.5963423,140.1662573,https://maps.google.com/?cid=0x0:0x1cf39af2b94e731d
mall,Toko Bahan Bangunan,Intijaya Swalayan,"C4V9+24R, Bunyom, Distrik Nimbokrang, Kabupaten Jayapura, Papua 99361","Bunyom, Distrik Nimbokrang, Kabupaten Jayapura",PAPUA,99361.0,Indonesia,,-2.557382,140.1177534,https://maps.google.com/?cid=0x0:0x619a0590a50e21e8
mall,Pembangunan Perumahan,Pasar Tradisional Nimbokrang,"Benyom Jaya II, Distrik Nimbokrang, Kabupaten Jayapura, Papua 99361","Distrik Nimbokrang, Kabupaten Jayapura",PAPUA,99361.0,Indonesia,,-2.5470394,140.1060787,https://maps.google.com/?cid=0x0:0xd0d9f41f9e89bc6c
mall,Sekolah,Grime Store,"Ibub, Distrik Kemtuk Gresi, Kabupaten Jayapura, Papua 99361","Distrik Kemtuk Gresi, Kabupaten Jayapura",PAPUA,99361.0,Indonesia,,-2.6159615,140.2166125,https://maps.google.com/?cid=0x0:0x4ce597a3aaebca04
mall,Pusat Perbelanjaan,Pasar Tradisional Karya Bumi,"C64P+F45, Karya Bumi, Nimboran Tim. / Namblong, Kabupaten Jayapura, Papua 99361","Karya Bumi, Nimboran Tim. / Namblong, Kabupaten Jayapura",PAPUA,99361.0,Indonesia,,-2.5938512,140.2353581,https://maps.google.com/?cid=0x0:0x89af1c0842c86c3
mall,Pembangunan Perumahan,NIMBO CELL,"C4V7+2PR, Bunyom, Distrik Nimbokrang, Kabupaten Jayapura, Papua 99361","Bunyom, Distrik Nimbokrang, Kabupaten Jayapura",PAPUA,99361.0,Indonesia,,-2.5573944,140.1142802,https://maps.google.com/?cid=0x0:0x1c4cbfc4eec3fd3
mall,Komplek perumahan,Mb.indah bakul ayam,"C4V8+WHM, Benyom Jaya I, Distrik Nimbokrang, Kabupaten Jayapura, Papua 99361","Benyom Jaya I, Distrik Nimbokrang, Kabupaten Jayapura",PAPUA,99361.0,Indonesia,,-2.5551714,140.1164237,https://maps.google.com/?cid=0x0:0xf1bb3f2b42ea5144
mall,Pusat Perbelanjaan,Mall Jayapura,"APO, Jl. Samratulangi, Bayangkara, Kec. Jayapura Utara, Kota Jayapura, Papua 99112","Jl. Samratulangi, Bayangkara, Kec. Jayapura Utara, Kota Jayapura",PAPUA,99112.0,Indonesia,9675150000.0,-2.5351775,140.7061874,https://maps.google.com/?cid=0x0:0x54294cb27964023
mall,mall,Kios H. Mali,"C64M+GRH, Karya Bumi, Nimboran Tim. / Namblong, Kabupaten Jayapura, Papua 99361","Karya Bumi, Nimboran Tim. / Namblong, Kabupaten Jayapura",PAPUA,99361.0,Indonesia,,-2.5936846,140.234595,https://maps.google.com/?cid=0x0:0x4cfd24b1b97269fd
mall,Toko Kesehatan dan Kecantikan,AGEN PT. NASA,"C4X6+7X8, Jl. Pendidikan, Benyom Jaya I, Distrik Nimbokrang, Kabupaten Jayapura, Papua 99361","Jl. Pendidikan, Benyom Jaya I, Distrik Nimbokrang, Kabupaten Jayapura",PAPUA,99361.0,Indonesia,81248094109.0,-2.5518491,140.1124443,https://maps.google.com/?cid=0x0:0xdcc3db77bcee8eb1
mall,mall,TOKO GEMILANG,"C64M+GRH, Karya Bumi, Nimboran Tim. / Namblong, Kabupaten Jayapura, Papua 99361","Karya Bumi, Nimboran Tim. / Namblong, Kabupaten Jayapura",PAPUA,99361.0,Indonesia,,-2.5936846,140.234595,https://maps.google.com/?cid=0x0:0x1aab1d89aa449625
mall,mall,Papua 99362,"Kabupaten Jayapura, Papua","Kabupaten Jayapura, Papua",PAPUA,,Indonesia,,-2.4816716,139.998236,https://maps.google.com/?cid=0x0:0x914eb9d0bad553fd
mall,Toko Bahan Bangunan,Intijaya Swalayan,"C4V9+24R, Bunyom, Distrik Nimbokrang, Kabupaten Jayapura, Papua 99361","Bunyom, Distrik Nimbokrang, Kabupaten Jayapura",PAPUA,99361.0,Indonesia,,-2.557382,140.1177534,https://maps.google.com/?cid=0x0:0x619a0590a50e21e8
mall,Pembangunan Perumahan,NIMBO CELL,"C4V7+2PR, Bunyom, Distrik Nimbokrang, Kabupaten Jayapura, Papua 99361","Bunyom, Distrik Nimbokrang, Kabupaten Jayapura",PAPUA,99361.0,Indonesia,,-2.5573944,140.1142802,https://maps.google.com/?cid=0x0:0x1c4cbfc4eec3fd3
mall,Pembangunan Perumahan,Pasar Tradisional Nimbokrang,"Benyom Jaya II, Distrik Nimbokrang, Kabupaten Jayapura, Papua 99361","Distrik Nimbokrang, Kabupaten Jayapura",PAPUA,99361.0,Indonesia,,-2.5470394,140.1060787,https://maps.google.com/?cid=0x0:0xd0d9f41f9e89bc6c
mall,Pusat Perbelanjaan,TOKO CALVIN,"GV2J+M23, Jlan TRans BoNggo Sarmi, Buasom, Garusa, Garusa, Kec. Unurum Guay, Kabupaten Jayapura, Papua 99362","Jlan TRans BoNggo Sarmi, Buasom, Garusa, Garusa, Kec. Unurum Guay, Kabupaten Jayapura",PAPUA,99362.0,Indonesia,85398581214.0,-2.4983682,139.8800443,https://maps.google.com/?cid=0x0:0xe902a2b8abb4b372
mall,Pusat Perbelanjaan,Mall Jayapura,"APO, Jl. Samratulangi, Bayangkara, Kec. Jayapura Utara, Kota Jayapura, Papua 99112","Jl. Samratulangi, Bayangkara, Kec. Jayapura Utara, Kota Jayapura",PAPUA,99112.0,Indonesia,9675150000.0,-2.5351775,140.7061874,https://maps.google.com/?cid=0x0:0x54294cb27964023
mall,Toko Kesehatan dan Kecantikan,AGEN PT. NASA,"C4X6+7X8, Jl. Pendidikan, Benyom Jaya I, Distrik Nimbokrang, Kabupaten Jayapura, Papua 99361","Jl. Pendidikan, Benyom Jaya I, Distrik Nimbokrang, Kabupaten Jayapura",PAPUA,99361.0,Indonesia,81248094109.0,-2.5518491,140.1124443,https://maps.google.com/?cid=0x0:0xdcc3db77bcee8eb1
mall,Komplek perumahan,Mb.indah bakul ayam,"C4V8+WHM, Benyom Jaya I, Distrik Nimbokrang, Kabupaten Jayapura, Papua 99361","Benyom Jaya I, Distrik Nimbokrang, Kabupaten Jayapura",PAPUA,99361.0,Indonesia,,-2.5551714,140.1164237,https://maps.google.com/?cid=0x0:0xf1bb3f2b42ea5144
mall,Pusat Perbelanjaan,toko adel,"GV2J+HQ, Garusa, Kec. Unurum Guay, Kabupaten Jayapura, Papua 99362","Garusa, Kec. Unurum Guay, Kabupaten Jayapura",PAPUA,99362.0,Indonesia,82199388880.0,-2.498589,139.881975,https://maps.google.com/?cid=0x0:0xf18256ae2f0c3dc8
mall,Sekolah,Grime Store,"Ibub, Distrik Kemtuk Gresi, Kabupaten Jayapura, Papua 99361","Distrik Kemtuk Gresi, Kabupaten Jayapura",PAPUA,99361.0,Indonesia,,-2.6159615,140.2166125,https://maps.google.com/?cid=0x0:0x4ce597a3aaebca04
mall,Pusat Perbelanjaan,UD IMA KARYABUMI NAMBLONG,"C63J+R6G, Karya Bumi, Nimboran Tim. / Namblong, Kabupaten Jayapura, Papua 99361","Karya Bumi, Nimboran Tim. / Namblong, Kabupaten Jayapura",PAPUA,99361.0,Indonesia,,-2.595431,140.2305804,https://maps.google.com/?cid=0x0:0x52131915bea4e5d7
mall,Toko bahan makanan,Kios Adwil  Depot Air Galon Adwil,"C4V7+V94, Benyom Jaya I, Distrik Nimbokrang, Kabupaten Jayapura, Papua 99361","Benyom Jaya I, Distrik Nimbokrang, Kabupaten Jayapura",PAPUA,99361.0,Indonesia,,-2.555357,140.113444,https://maps.google.com/?cid=0x0:0x58f4c74aaa6b7d32
mall,Toko,UD. CAHAYA MANDIRI,"C4V7+5QF, Bunyom, Distrik Nimbokrang, Kabupaten Jayapura, Papua 99361","Bunyom, Distrik Nimbokrang, Kabupaten Jayapura",PAPUA,99361.0,Indonesia,81344588601.0,-2.5570593,140.1144323,https://maps.google.com/?cid=0x0:0xcc62b29040be2bf2
mall,Pusat Perbelanjaan,Pasar Tradisional Karya Bumi,"C64P+F45, Karya Bumi, Nimboran Tim. / Namblong, Kabupaten Jayapura, Papua 99361","Karya Bumi, Nimboran Tim. / Namblong, Kabupaten Jayapura",PAPUA,99361.0,Indonesia,,-2.5938512,140.2353581,https://maps.google.com/?cid=0x0:0x89af1c0842c86c3
mall,mall,Papua 99356,"Kabupaten Jayapura, Papua","Kabupaten Jayapura, Papua",PAPUA,,Indonesia,,-2.7977377,139.7728757,https://maps.google.com/?cid=0x0:0x48ebe0b186aa7324
mall,mall,Kec. Unurum Guay,"Kabupaten Jayapura, Papua","Kabupaten Jayapura, Papua",PAPUA,,Indonesia,,-2.673867,139.7728757,https://maps.google.com/?cid=0x0:0x22bf6c8ffa85c45d
mall,Pusat Perbelanjaan,toko adel,"GV2J+HQ, Garusa, Kec. Unurum Guay, Kabupaten Jayapura, Papua 99362","Garusa, Kec. Unurum Guay, Kabupaten Jayapura",PAPUA,99362.0,Indonesia,82199388880.0,-2.498589,139.881975,https://maps.google.com/?cid=0x0:0xf18256ae2f0c3dc8
mall,Kantor Perusahaan,Taja Mandiri Hotspot,"53VG+WX4, Jl. poros taja lereh, Ongan Jaya, Yapsi, Kabupaten Jayapura, Papua 99356","Jl. poros taja lereh, Ongan Jaya, Yapsi, Kabupaten Jayapura",PAPUA,99356.0,Indonesia,,-2.805249,140.0774465,https://maps.google.com/?cid=0x0:0x28940a800368bb80
mall,Pusat Perbelanjaan,TOKO CALVIN,"GV2J+M23, Jlan TRans BoNggo Sarmi, Buasom, Garusa, Garusa, Kec. Unurum Guay, Kabupaten Jayapura, Papua 99362","Jlan TRans BoNggo Sarmi, Buasom, Garusa, Garusa, Kec. Unurum Guay, Kabupaten Jayapura",PAPUA,99362.0,Indonesia,85398581214.0,-2.4983682,139.8800443,https://maps.google.com/?cid=0x0:0xe902a2b8abb4b372
mall,Toko Bahan Bangunan,Intijaya Swalayan,"C4V9+24R, Bunyom, Distrik Nimbokrang, Kabupaten Jayapura, Papua 99361","Bunyom, Distrik Nimbokrang, Kabupaten Jayapura",PAPUA,99361.0,Indonesia,,-2.557382,140.1177534,https://maps.google.com/?cid=0x0:0x619a0590a50e21e8
mall,mall,Papua 99354,"Kabupaten Jayapura, Papua","Kabupaten Jayapura, Papua",PAPUA,,Indonesia,,-2.425843,140.1626664,https://maps.google.com/?cid=0x0:0xed2e9d28341a8606
mall,Pusat Perbelanjaan,Mall Jayapura,"APO, Jl. Samratulangi, Bayangkara, Kec. Jayapura Utara, Kota Jayapura, Papua 99112","Jl. Samratulangi, Bayangkara, Kec. Jayapura Utara, Kota Jayapura",PAPUA,99112.0,Indonesia,9675150000.0,-2.5351775,140.7061874,https://maps.google.com/?cid=0x0:0x54294cb27964023
mall,Toko Bahan Bangunan,Intijaya Swalayan,"C4V9+24R, Bunyom, Distrik Nimbokrang, Kabupaten Jayapura, Papua 99361","Bunyom, Distrik Nimbokrang, Kabupaten Jayapura",PAPUA,99361.0,Indonesia,,-2.557382,140.1177534,https://maps.google.com/?cid=0x0:0x619a0590a50e21e8
mall,Toko Swalayan,Hypermart Jayapura Mall,"Jl. Dr. Sam Ratulangi No.47, Bayangkara, Kec. Jayapura Utara, Kota Jayapura, Papua 99112","Bayangkara, Kec. Jayapura Utara, Kota Jayapura",PAPUA,99112.0,Indonesia,967522298.0,-2.5350388,140.7055769,https://maps.google.com/?cid=0x0:0xb1412384235d004a
mall,Pusat Perbelanjaan,Matahari Department Store - Mall Jayapura,"Jayapura Mall Lantai 1  2, Jl. Sam Ratulangi No. 45, Bhayangkara, Jayapura Utara, Bayangkara, Kec. Jayapura Utara, Kota Jayapura, Papua 99112","Jl. Sam Ratulangi No. 45, Bhayangkara, Jayapura Utara, Bayangkara, Kec. Jayapura Utara, Kota Jayapura",PAPUA,99112.0,Indonesia,9675150242.0,-2.5352864,140.7060379,https://maps.google.com/?cid=0x0:0x2f3594fedfb3ad93
mall,Pusat Perbelanjaan,SINGGASANA MART,"SINGGASANA MART Jalan Raya Sentani - Depapre, Doyo Baru, Distrik Waibu, Kabupaten Jayapura, Papua 99368","Doyo Baru, Distrik Waibu, Kabupaten Jayapura",PAPUA,99368.0,Indonesia,9675198929.0,-2.5431281,140.4709468,https://maps.google.com/?cid=0x0:0x27be16b54a4b4cfc
mall,Pembangunan Perumahan,Pasar Tradisional Nimbokrang,"Benyom Jaya II, Distrik Nimbokrang, Kabupaten Jayapura, Papua 99361","Distrik Nimbokrang, Kabupaten Jayapura",PAPUA,99361.0,Indonesia,,-2.5470394,140.1060787,https://maps.google.com/?cid=0x0:0xd0d9f41f9e89bc6c
mall,Taman,Danau Emfote,"8GQQ+MV4, Atabar, Distrik Ebungfa, Kabupaten Jayapura, Papua 99359","Atabar, Distrik Ebungfa, Kabupaten Jayapura",PAPUA,99359.0,Indonesia,,-2.6608739,140.5396897,https://maps.google.com/?cid=0x0:0x82f9bba1f39708a6
mall,Toko Kesehatan dan Kecantikan,AGEN PT. NASA,"C4X6+7X8, Jl. Pendidikan, Benyom Jaya I, Distrik Nimbokrang, Kabupaten Jayapura, Papua 99361","Jl. Pendidikan, Benyom Jaya I, Distrik Nimbokrang, Kabupaten Jayapura",PAPUA,99361.0,Indonesia,81248094109.0,-2.5518491,140.1124443,https://maps.google.com/?cid=0x0:0xdcc3db77bcee8eb1
mall,mall,Online Shooping,"Jl.elang 2, Benyom Jaya I, Distrik Nimbokrang, Kabupaten Jayapura, Papua 99361","Benyom Jaya I, Distrik Nimbokrang, Kabupaten Jayapura",PAPUA,99361.0,Indonesia,,-2.547177,140.1064483,https://maps.google.com/?cid=0x0:0xe8d1d65a9e8534da
mall,Komplek perumahan,Mb.indah bakul ayam,"C4V8+WHM, Benyom Jaya I, Distrik Nimbokrang, Kabupaten Jayapura, Papua 99361","Benyom Jaya I, Distrik Nimbokrang, Kabupaten Jayapura",PAPUA,99361.0,Indonesia,,-2.5551714,140.1164237,https://maps.google.com/?cid=0x0:0xf1bb3f2b42ea5144
mall,Kedai Kopi,JCO COFFEE  DONUTS MALL JAYAPURA,"Jl. Kab. No.99112, Bayangkara, Kec. Jayapura Utara, Kota Jayapura, Papua 99112","Bayangkara, Kec. Jayapura Utara, Kota Jayapura",PAPUA,99112.0,Indonesia,,-2.5353252,140.7060198,https://maps.google.com/?cid=0x0:0x8cbe835113b8c269
mall,Pusat Perbelanjaan,SAGA MALL,"Kota Baru, Kec. Abepura, Kota Jayapura, Papua 99351","Kec. Abepura, Kota Jayapura",PAPUA,99351.0,Indonesia,,-2.6105845,140.6654189,https://maps.google.com/?cid=0x0:0xaf65e43ff84ff9e6
mall,Toko Swalayan,AEON Mall Deltamas - Cikarang Bekasi,"Jl. Ganesha Boulevard, Kota Deltamas, Kec. Cikarang Pusat, Kabupaten Bekasi, Jawa Barat 17530","Kota Deltamas, Kec. Cikarang Pusat, Kabupaten Bekasi",PAPUA,17530.0,Indonesia,2138733333.0,-6.3519407,107.1954494,https://maps.google.com/?cid=0x0:0xa692ce22e7339115
mall,mall,Papua 99364,"Kabupaten Jayapura, Papua","Kabupaten Jayapura, Papua",PAPUA,,Indonesia,,-3.2384616,139.8547266,https://maps.google.com/?cid=0x0:0x2e9677508a097a0f
mall,Pusat Perbelanjaan,Mall Jayapura,"APO, Jl. Samratulangi, Bayangkara, Kec. Jayapura Utara, Kota Jayapura, Papua 99112","Jl. Samratulangi, Bayangkara, Kec. Jayapura Utara, Kota Jayapura",PAPUA,99112.0,Indonesia,9675150000.0,-2.5351775,140.7061874,https://maps.google.com/?cid=0x0:0x54294cb27964023
mall,Kantor Perusahaan,Taja Mandiri Hotspot,"53VG+WX4, Jl. poros taja lereh, Ongan Jaya, Yapsi, Kabupaten Jayapura, Papua 99356","Jl. poros taja lereh, Ongan Jaya, Yapsi, Kabupaten Jayapura",PAPUA,99356.0,Indonesia,,-2.805249,140.0774465,https://maps.google.com/?cid=0x0:0x28940a800368bb80
mall,Pusat Perbelanjaan,SAGA MALL,"Kota Baru, Kec. Abepura, Kota Jayapura, Papua 99351","Kec. Abepura, Kota Jayapura",PAPUA,99351.0,Indonesia,,-2.6105845,140.6654189,https://maps.google.com/?cid=0x0:0xaf65e43ff84ff9e6
mall,Pasar Grosir Pakaian,Ramayana Abepura,"Jl. Raya Abepura, Kel. Vin, Kec. Jayapura Selatan, Wai Mhorock, Kec. Abepura, Kota Jayapura, Papua 99351","Kel. Vin, Kec. Jayapura Selatan, Wai Mhorock, Kec. Abepura, Kota Jayapura",PAPUA,99351.0,Indonesia,967584745.0,-2.604339,140.6736756,https://maps.google.com/?cid=0x0:0x103c0acf73345917
mall,Pusat Perbelanjaan,Mall Sentani City Square,"Jl. Raya Kemiri No.286, Hinekombe, Kec. Sentani, Kabupaten Jayapura, Papua 99352","Hinekombe, Kec. Sentani, Kabupaten Jayapura",PAPUA,99352.0,Indonesia,82198389205.0,-2.5632484,140.5006043,https://maps.google.com/?cid=0x0:0x666e57130aca06b8
mall,Pusat Perbelanjaan,Mall Sentani City Square,"Jl. Raya Kemiri No.286, Hinekombe, Kec. Sentani, Kabupaten Jayapura, Papua 99352","Hinekombe, Kec. Sentani, Kabupaten Jayapura",PAPUA,99352.0,Indonesia,82198389205.0,-2.5632484,140.5006043,https://maps.google.com/?cid=0x0:0x666e57130aca06b8
mall,Toko bahan makanan,Hola Mart,"FF3C+XXH, Doyo Baru, Distrik Waibu, Kabupaten Jayapura, Papua 99352","Doyo Baru, Distrik Waibu, Kabupaten Jayapura",PAPUA,99352.0,Indonesia,82248234362.0,-2.5450708,140.4724762,https://maps.google.com/?cid=0x0:0x1d3e908ab97ba4b3
mall,Toko Perlengkapan Rumah,NEW SENYUM 5000 DOYOBARU,"FF3F+R3P, Doyo Baru, Distrik Waibu, Kabupaten Jayapura, Papua 99352","Doyo Baru, Distrik Waibu, Kabupaten Jayapura",PAPUA,99352.0,Indonesia,,-2.545408,140.4726986,https://maps.google.com/?cid=0x0:0x4c3a0e4b2e80dd45
mall,mall,Papua 99352,"Kabupaten Jayapura, Papua","Kabupaten Jayapura, Papua",PAPUA,,Indonesia,,-2.5683577,140.4618316,https://maps.google.com/?cid=0x0:0xc4bf3fc2f14cfb38
mall,Pusat Perbelanjaan,SAGA MALL,"Kota Baru, Kec. Abepura, Kota Jayapura, Papua 99351","Kec. Abepura, Kota Jayapura",PAPUA,99351.0,Indonesia,,-2.6105845,140.6654189,https://maps.google.com/?cid=0x0:0xaf65e43ff84ff9e6
mall,Minimarket,Toko E-Mart,"FF66+9G6, Doyo Baru, Distrik Waibu, Kabupaten Jayapura, Papua 99352","Doyo Baru, Distrik Waibu, Kabupaten Jayapura",PAPUA,99352.0,Indonesia,,-2.5390841,140.4612701,https://maps.google.com/?cid=0x0:0x1223d7d04b6ac673
mall,Kios,Toko Tiga Saudara,"CFPV+P6F, Jl. Youmakhe, Hinekombe, Kec. Sentani, Kabupaten Jayapura, Papua 99352","Jl. Youmakhe, Hinekombe, Kec. Sentani, Kabupaten Jayapura",PAPUA,99352.0,Indonesia,82197500973.0,-2.5631924,140.493035,https://maps.google.com/?cid=0x0:0xfbf73a4a09912f5a
mall,Toko,IU Collcetion Jayapura,"FF2F+46C Grand, Jalan Raya Sentani, Perumahan, Doyo Baru, Distrik Waibu, Kabupaten Jayapura, Papua 99352","Jalan Raya Sentani, Perumahan, Doyo Baru, Distrik Waibu, Kabupaten Jayapura",PAPUA,99352.0,Indonesia,82248853594.0,-2.5496947,140.4730284,https://maps.google.com/?cid=0x0:0xf8c71dea906f7b6
mall,Pusat Perbelanjaan,UNALALA PUSAT ACCESSORIES SCS MALL SENTANI,"CGP2+H3P, Hinekombe, Kec. Sentani, Kabupaten Jayapura, Papua 99359","Hinekombe, Kec. Sentani, Kabupaten Jayapura",PAPUA,99359.0,Indonesia,,-2.5635289,140.5002032,https://maps.google.com/?cid=0x0:0x61f114191705fd38
mall,Toko Kesehatan dan Kecantikan,Rieananda El Nasa,"Doyo Baru, Distrik Waibu, Kabupaten Jayapura, Papua 99352","Distrik Waibu, Kabupaten Jayapura",PAPUA,99352.0,Indonesia,81354168220.0,-2.5463252,140.4548816,https://maps.google.com/?cid=0x0:0x7ae771ec77dce07
mall,Pusat Perbelanjaan,Toko Adi 2,"FF58+WP2, Doyo Baru, Distrik Waibu, Kabupaten Jayapura, Papua 99352","Doyo Baru, Distrik Waibu, Kabupaten Jayapura",PAPUA,99352.0,Indonesia,8114805422.0,-2.5402347,140.4667676,https://maps.google.com/?cid=0x0:0x952c6eb337a0b9d2
mall,Minimarket,SAGA Kemiri,"CFRR+GMJ, Jl. Raya Kemiri, Hinekombe, Kec. Sentani, Kabupaten Jayapura, Papua 99352","Jl. Raya Kemiri, Hinekombe, Kec. Sentani, Kabupaten Jayapura",PAPUA,99352.0,Indonesia,,-2.558668,140.4916343,https://maps.google.com/?cid=0x0:0x60b5bd9797f4d35f
mall,Toko,Toko Inang,"Jl. Ps. Baru Sentani, Hinekombe, Kec. Sentani, Kabupaten Jayapura, Papua 99352","Hinekombe, Kec. Sentani, Kabupaten Jayapura",PAPUA,99352.0,Indonesia,,-2.5616371,140.4919537,https://maps.google.com/?cid=0x0:0xd8e6e3fb824fd383
mall,mall,Distrik Ebungfa,"Kabupaten Jayapura, Papua","Kabupaten Jayapura, Papua",PAPUA,,Indonesia,,-2.6403081,140.4988982,https://maps.google.com/?cid=0x0:0x137742c11b1ca6d6
mall,mall,Papua 99358,"Kabupaten Jayapura, Papua","Kabupaten Jayapura, Papua",PAPUA,,Indonesia,,-2.5423787,140.3894858,https://maps.google.com/?cid=0x0:0xe811437fcb2474bb
mall,Toko bahan makanan,Hola Mart,"FF3C+XXH, Doyo Baru, Distrik Waibu, Kabupaten Jayapura, Papua 99352","Doyo Baru, Distrik Waibu, Kabupaten Jayapura",PAPUA,99352.0,Indonesia,82248234362.0,-2.5450708,140.4724762,https://maps.google.com/?cid=0x0:0x1d3e908ab97ba4b3
mall,Komplek perumahan,Waibron City,"F9QP+86C, Jln. Sentani Depapre, Waibron, Distrik Sentani Barat, Kabupaten Jayapura, Papua 99358","Jln. Sentani Depapre, Waibron, Distrik Sentani Barat, Kabupaten Jayapura",PAPUA,99358.0,Indonesia,82397087377.0,-2.5116786,140.385502,https://maps.google.com/?cid=0x0:0xf27d95dfe603b013
mall,Toko,IU Collcetion Jayapura,"FF2F+46C Grand, Jalan Raya Sentani, Perumahan, Doyo Baru, Distrik Waibu, Kabupaten Jayapura, Papua 99352","Jalan Raya Sentani, Perumahan, Doyo Baru, Distrik Waibu, Kabupaten Jayapura",PAPUA,99352.0,Indonesia,82248853594.0,-2.5496947,140.4730284,https://maps.google.com/?cid=0x0:0xf8c71dea906f7b6
mall,Toko,Maya Shop,"Jl. Kehiran, Dobonsolo, Kec. Sentani, Kabupaten Jayapura, Papua 99358","Dobonsolo, Kec. Sentani, Kabupaten Jayapura",PAPUA,99358.0,Indonesia,82198676731.0,-2.5857537,140.483374,https://maps.google.com/?cid=0x0:0xf75e0a5d6dfc88b6
mall,Pusat Perbelanjaan,Toko Adi 2,"FF58+WP2, Doyo Baru, Distrik Waibu, Kabupaten Jayapura, Papua 99352","Doyo Baru, Distrik Waibu, Kabupaten Jayapura",PAPUA,99352.0,Indonesia,8114805422.0,-2.5402347,140.4667676,https://maps.google.com/?cid=0x0:0x952c6eb337a0b9d2
mall,Pusat Perbelanjaan,Mall Sentani City Square,"Jl. Raya Kemiri No.286, Hinekombe, Kec. Sentani, Kabupaten Jayapura, Papua 99352","Hinekombe, Kec. Sentani, Kabupaten Jayapura",PAPUA,99352.0,Indonesia,82198389205.0,-2.5632484,140.5006043,https://maps.google.com/?cid=0x0:0x666e57130aca06b8
mall,Toko,Toko Reski Abadi,"FF3F+H6W, Doyo Baru, Distrik Waibu, Kabupaten Jayapura, Papua 99352","Doyo Baru, Distrik Waibu, Kabupaten Jayapura",PAPUA,99352.0,Indonesia,82399407745.0,-2.5460221,140.4730636,https://maps.google.com/?cid=0x0:0x7a3bb8641b336e0a
mall,Pusat Perbelanjaan,Mall Jayapura,"APO, Jl. Samratulangi, Bayangkara, Kec. Jayapura Utara, Kota Jayapura, Papua 99112","Jl. Samratulangi, Bayangkara, Kec. Jayapura Utara, Kota Jayapura",PAPUA,99112.0,Indonesia,9675150000.0,-2.5351775,140.7061874,https://maps.google.com/?cid=0x0:0x54294cb27964023
mall,Minimarket,Toko E-Mart,"FF66+9G6, Doyo Baru, Distrik Waibu, Kabupaten Jayapura, Papua 99352","Doyo Baru, Distrik Waibu, Kabupaten Jayapura",PAPUA,99352.0,Indonesia,,-2.5390841,140.4612701,https://maps.google.com/?cid=0x0:0x1223d7d04b6ac673
mall,Pusat Perbelanjaan,SINGGASANA MART,"SINGGASANA MART Jalan Raya Sentani - Depapre, Doyo Baru, Distrik Waibu, Kabupaten Jayapura, Papua 99368","Doyo Baru, Distrik Waibu, Kabupaten Jayapura",PAPUA,99368.0,Indonesia,9675198929.0,-2.5431281,140.4709468,https://maps.google.com/?cid=0x0:0x27be16b54a4b4cfc
mall,Kios,Kios Anugrah,"FF2F+H9G, Jl. Raya Doyo Baru, Doyo Baru, Distrik Waibu, Kabupaten Jayapura, Papua 99352","Jl. Raya Doyo Baru, Doyo Baru, Distrik Waibu, Kabupaten Jayapura",PAPUA,99352.0,Indonesia,82398546677.0,-2.548565,140.4734498,https://maps.google.com/?cid=0x0:0xb9b4bd10d3c2d2b1
mall,Pusat Perbelanjaan,UNALALA PUSAT ACCESSORIES SCS MALL SENTANI,"CGP2+H3P, Hinekombe, Kec. Sentani, Kabupaten Jayapura, Papua 99359","Hinekombe, Kec. Sentani, Kabupaten Jayapura",PAPUA,99359.0,Indonesia,,-2.5635289,140.5002032,https://maps.google.com/?cid=0x0:0x61f114191705fd38
mall,Kios,Toko Nova Jaya,"FF58+QVX, Unnamed Road, Doyo Baru, Distrik Waibu, Kabupaten Jayapura, Papua 99352","Unnamed Road, Doyo Baru, Distrik Waibu, Kabupaten Jayapura",PAPUA,99352.0,Indonesia,82197842115.0,-2.5405208,140.4672467,https://maps.google.com/?cid=0x0:0xd519fa7b9066affb
mall,Pusat Perbelanjaan,Mall Jayapura,"APO, Jl. Samratulangi, Bayangkara, Kec. Jayapura Utara, Kota Jayapura, Papua 99112","Jl. Samratulangi, Bayangkara, Kec. Jayapura Utara, Kota Jayapura",PAPUA,99112.0,Indonesia,9675150000.0,-2.5351775,140.7061874,https://maps.google.com/?cid=0x0:0x54294cb27964023
mall,Kedai Kopi,JCO COFFEE  DONUTS MALL JAYAPURA,"Jl. Kab. No.99112, Bayangkara, Kec. Jayapura Utara, Kota Jayapura, Papua 99112","Bayangkara, Kec. Jayapura Utara, Kota Jayapura",PAPUA,99112.0,Indonesia,,-2.5353252,140.7060198,https://maps.google.com/?cid=0x0:0x8cbe835113b8c269
mall,Pusat Perbelanjaan,SAGA MALL,"Kota Baru, Kec. Abepura, Kota Jayapura, Papua 99351","Kec. Abepura, Kota Jayapura",PAPUA,99351.0,Indonesia,,-2.6105845,140.6654189,https://maps.google.com/?cid=0x0:0xaf65e43ff84ff9e6
mall,Pusat Perbelanjaan,Mall Sentani City Square,"Jl. Raya Kemiri No.286, Hinekombe, Kec. Sentani, Kabupaten Jayapura, Papua 99352","Hinekombe, Kec. Sentani, Kabupaten Jayapura",PAPUA,99352.0,Indonesia,82198389205.0,-2.5632484,140.5006043,https://maps.google.com/?cid=0x0:0x666e57130aca06b8
mall,mall,Papua 99361,"Kabupaten Jayapura, Papua","Kabupaten Jayapura, Papua",PAPUA,,Indonesia,,-2.5921274,140.059845,https://maps.google.com/?cid=0x0:0xe7cd882fece4c0b1
mall,mall,Yapsi,"Kabupaten Jayapura, Papua","Kabupaten Jayapura, Papua",PAPUA,,Indonesia,,-2.811221,140.1009527,https://maps.google.com/?cid=0x0:0xaec96b36c4ad9a90
mall,Pusat Perbelanjaan,Mall Jayapura,"APO, Jl. Samratulangi, Bayangkara, Kec. Jayapura Utara, Kota Jayapura, Papua 99112","Jl. Samratulangi, Bayangkara, Kec. Jayapura Utara, Kota Jayapura",PAPUA,99112.0,Indonesia,9675150000.0,-2.5351775,140.7061874,https://maps.google.com/?cid=0x0:0x54294cb27964023
mall,Pusat Perbelanjaan,SAGA MALL,"Kota Baru, Kec. Abepura, Kota Jayapura, Papua 99351","Kec. Abepura, Kota Jayapura",PAPUA,99351.0,Indonesia,,-2.6105845,140.6654189,https://maps.google.com/?cid=0x0:0xaf65e43ff84ff9e6
mall,Kantor Perusahaan,Taja Mandiri Hotspot,"53VG+WX4, Jl. poros taja lereh, Ongan Jaya, Yapsi, Kabupaten Jayapura, Papua 99356","Jl. poros taja lereh, Ongan Jaya, Yapsi, Kabupaten Jayapura",PAPUA,99356.0,Indonesia,,-2.805249,140.0774465,https://maps.google.com/?cid=0x0:0x28940a800368bb80
mall,Pusat Perbelanjaan,SAGA MALL,"Kota Baru, Kec. Abepura, Kota Jayapura, Papua 99351","Kec. Abepura, Kota Jayapura",PAPUA,99351.0,Indonesia,,-2.6105845,140.6654189,https://maps.google.com/?cid=0x0:0xaf65e43ff84ff9e6
mall,Pusat Perbelanjaan,Mall Jayapura,"APO, Jl. Samratulangi, Bayangkara, Kec. Jayapura Utara, Kota Jayapura, Papua 99112","Jl. Samratulangi, Bayangkara, Kec. Jayapura Utara, Kota Jayapura",PAPUA,99112.0,Indonesia,9675150000.0,-2.5351775,140.7061874,https://maps.google.com/?cid=0x0:0x54294cb27964023
mall,Kedai Kopi,JCO COFFEE  DONUTS MALL JAYAPURA,"Jl. Kab. No.99112, Bayangkara, Kec. Jayapura Utara, Kota Jayapura, Papua 99112","Bayangkara, Kec. Jayapura Utara, Kota Jayapura",PAPUA,99112.0,Indonesia,,-2.5353252,140.7060198,https://maps.google.com/?cid=0x0:0x8cbe835113b8c269
mall,mall,Papua 99353,"Kabupaten Jayapura, Papua","Kabupaten Jayapura, Papua",PAPUA,,Indonesia,,-2.4345515,140.4101474,https://maps.google.com/?cid=0x0:0xae8b3e09ee92fb9d
mall,Komplek perumahan,Waibron City,"F9QP+86C, Jln. Sentani Depapre, Waibron, Distrik Sentani Barat, Kabupaten Jayapura, Papua 99358","Jln. Sentani Depapre, Waibron, Distrik Sentani Barat, Kabupaten Jayapura",PAPUA,99358.0,Indonesia,82397087377.0,-2.5116786,140.385502,https://maps.google.com/?cid=0x0:0xf27d95dfe603b013
mall,Pusat Perbelanjaan,SAGA MALL,"Kota Baru, Kec. Abepura, Kota Jayapura, Papua 99351","Kec. Abepura, Kota Jayapura",PAPUA,99351.0,Indonesia,,-2.6105845,140.6654189,https://maps.google.com/?cid=0x0:0xaf65e43ff84ff9e6
mall,Pusat Perbelanjaan,Mall Jayapura,"APO, Jl. Samratulangi, Bayangkara, Kec. Jayapura Utara, Kota Jayapura, Papua 99112","Jl. Samratulangi, Bayangkara, Kec. Jayapura Utara, Kota Jayapura",PAPUA,99112.0,Indonesia,9675150000.0,-2.5351775,140.7061874,https://maps.google.com/?cid=0x0:0x54294cb27964023
mall,Pusat Perbelanjaan,UNALALA PUSAT ACCESSORIES SCS MALL SENTANI,"CGP2+H3P, Hinekombe, Kec. Sentani, Kabupaten Jayapura, Papua 99359","Hinekombe, Kec. Sentani, Kabupaten Jayapura",PAPUA,99359.0,Indonesia,,-2.5635289,140.5002032,https://maps.google.com/?cid=0x0:0x61f114191705fd38
mall,Pusat Perbelanjaan,Mall Sentani City Square,"Jl. Raya Kemiri No.286, Hinekombe, Kec. Sentani, Kabupaten Jayapura, Papua 99352","Hinekombe, Kec. Sentani, Kabupaten Jayapura",PAPUA,99352.0,Indonesia,82198389205.0,-2.5632484,140.5006043,https://maps.google.com/?cid=0x0:0x666e57130aca06b8
mall,Pasar Grosir Pakaian,Ramayana Abepura,"Jl. Raya Abepura, Kel. Vin, Kec. Jayapura Selatan, Wai Mhorock, Kec. Abepura, Kota Jayapura, Papua 99351","Kel. Vin, Kec. Jayapura Selatan, Wai Mhorock, Kec. Abepura, Kota Jayapura",PAPUA,99351.0,Indonesia,967584745.0,-2.604339,140.6736756,https://maps.google.com/?cid=0x0:0x103c0acf73345917
mall,Toko bahan makanan,Hola Mart,"FF3C+XXH, Doyo Baru, Distrik Waibu, Kabupaten Jayapura, Papua 99352","Doyo Baru, Distrik Waibu, Kabupaten Jayapura",PAPUA,99352.0,Indonesia,82248234362.0,-2.5450708,140.4724762,https://maps.google.com/?cid=0x0:0x1d3e908ab97ba4b3
mall,Toko Kesehatan dan Kecantikan,Rieananda El Nasa,"Doyo Baru, Distrik Waibu, Kabupaten Jayapura, Papua 99352","Distrik Waibu, Kabupaten Jayapura",PAPUA,99352.0,Indonesia,81354168220.0,-2.5463252,140.4548816,https://maps.google.com/?cid=0x0:0x7ae771ec77dce07
mall,Toko bahan makanan,UBM Mart,"Jl. Raya Kemiri No.505, Hinekombe, Kec. Sentani, Kabupaten Jayapura, Papua 99359","Hinekombe, Kec. Sentani, Kabupaten Jayapura",PAPUA,99359.0,Indonesia,,-2.562386,140.4998384,https://maps.google.com/?cid=0x0:0x143cbdfc5480b60d
mall,Toko Perlengkapan Rumah,NEW SENYUM 5000 DOYOBARU,"FF3F+R3P, Doyo Baru, Distrik Waibu, Kabupaten Jayapura, Papua 99352","Doyo Baru, Distrik Waibu, Kabupaten Jayapura",PAPUA,99352.0,Indonesia,,-2.545408,140.4726986,https://maps.google.com/?cid=0x0:0x4c3a0e4b2e80dd45
mall,mall,INDOMARET NENDALI,"CGFR+9GW, Nendali, Kec. Sentani Tim., Kabupaten Jayapura, Papua 99359","Nendali, Kec. Sentani Tim., Kabupaten Jayapura",PAPUA,99359.0,Indonesia,,-2.5765047,140.5413385,https://maps.google.com/?cid=0x0:0xafe3a5ee0a6a572
mall,Kios,Toko Tiga Saudara,"CFPV+P6F, Jl. Youmakhe, Hinekombe, Kec. Sentani, Kabupaten Jayapura, Papua 99352","Jl. Youmakhe, Hinekombe, Kec. Sentani, Kabupaten Jayapura",PAPUA,99352.0,Indonesia,82197500973.0,-2.5631924,140.493035,https://maps.google.com/?cid=0x0:0xfbf73a4a09912f5a
mall,Toko,Toko Reski Abadi,"FF3F+H6W, Doyo Baru, Distrik Waibu, Kabupaten Jayapura, Papua 99352","Doyo Baru, Distrik Waibu, Kabupaten Jayapura",PAPUA,99352.0,Indonesia,82399407745.0,-2.5460221,140.4730636,https://maps.google.com/?cid=0x0:0x7a3bb8641b336e0a
mall,Sekolah,Grime Store,"Ibub, Distrik Kemtuk Gresi, Kabupaten Jayapura, Papua 99361","Distrik Kemtuk Gresi, Kabupaten Jayapura",PAPUA,99361.0,Indonesia,,-2.6159615,140.2166125,https://maps.google.com/?cid=0x0:0x4ce597a3aaebca04
mall,mall,Distrik Gresi Selatan,"Kabupaten Jayapura, Papua","Kabupaten Jayapura, Papua",PAPUA,,Indonesia,,-2.641859,140.1829593,https://maps.google.com/?cid=0x0:0x3d361b435e9393d5
mall,Tujuan Wisata,Hulu Grime,"88PC+W68, Unnamed Road, Braso, Kec. Kemtuk, Kabupaten Jayapura, Papua 99357","Unnamed Road, Braso, Kec. Kemtuk, Kabupaten Jayapura",PAPUA,99357.0,Indonesia,,-2.6627156,140.3205663,https://maps.google.com/?cid=0x0:0x45be902ca43eeba4
mall,Pusat Perbelanjaan,Mall Jayapura,"APO, Jl. Samratulangi, Bayangkara, Kec. Jayapura Utara, Kota Jayapura, Papua 99112","Jl. Samratulangi, Bayangkara, Kec. Jayapura Utara, Kota Jayapura",PAPUA,99112.0,Indonesia,9675150000.0,-2.5351775,140.7061874,https://maps.google.com/?cid=0x0:0x54294cb27964023
mall,mall,Online Shooping,"Jl.elang 2, Benyom Jaya I, Distrik Nimbokrang, Kabupaten Jayapura, Papua 99361","Benyom Jaya I, Distrik Nimbokrang, Kabupaten Jayapura",PAPUA,99361.0,Indonesia,,-2.547177,140.1064483,https://maps.google.com/?cid=0x0:0xe8d1d65a9e8534da
mall,mall,Papua 99354,"Kabupaten Jayapura, Papua","Kabupaten Jayapura, Papua",PAPUA,,Indonesia,,-2.425843,140.1626664,https://maps.google.com/?cid=0x0:0xed2e9d28341a8606
mall,Toko Barang Antik,Uptown Antique Mall,"1365 George Washington Way, Richland, WA 99354, Amerika Serikat","Richland, WA",PAPUA,99354.0,Indonesia,15099436077.0,46.2884093,-119.2754534,https://maps.google.com/?cid=0x0:0xfb9081ec1075bfdf
mall,Toko Bagel,Spudnut Shop,"228 Williams Blvd #3410, Richland, WA 99354, Amerika Serikat","Richland, WA",PAPUA,99354.0,Indonesia,15099433000.0,46.286469,-119.275657,https://maps.google.com/?cid=0x0:0x1517fac307ffb5cd
mall,Toko Roti,Tina's Tasty Treats,"1325 George Washington Way, Richland, WA 99354, Amerika Serikat","Richland, WA",PAPUA,99354.0,Indonesia,15094152140.0,46.2872531,-119.2754085,https://maps.google.com/?cid=0x0:0x901e05caa5663dd
mall,China,Family Garden,"1340 Jadwin Ave, Richland, WA 99354, Amerika Serikat","Richland, WA",PAPUA,99354.0,Indonesia,15095781023.0,46.2875596,-119.2764201,https://maps.google.com/?cid=0x0:0x50d3e2b83088a47d
mall,Kedai Kopi,Kagen Coffee  Crepes,"270 Williams Blvd, Richland, WA 99354, Amerika Serikat","Richland, WA",PAPUA,99354.0,Indonesia,15098517186.0,46.2865011,-119.2765013,https://maps.google.com/?cid=0x0:0xdd2ad489f2798fde
mall,Masakan Perpaduan Asia,The Emerald of Siam Thai Restaurant and Lounge,"1314 Jadwin Ave, Richland, WA 99354, Amerika Serikat","Richland, WA",PAPUA,99354.0,Indonesia,15099469328.0,46.2870279,-119.2765293,https://maps.google.com/?cid=0x0:0xddfb7072a06c9cb1
mall,Restoran,Woo's Teriyaki,"1379 George Washington Way, Richland, WA 99354, Amerika Serikat","Richland, WA",PAPUA,99354.0,Indonesia,15099438868.0,46.2888889,-119.2755556,https://maps.google.com/?cid=0x0:0xf5c8cffe6d0d4b76
supermarket,Pusat Perbelanjaan,SAGA Fresh Sentani,"Jl. Raya Kemiri No.53, Hinekombe, Kec. Sentani, Kabupaten Jayapura, Papua 99352","Hinekombe, Kec. Sentani, Kabupaten Jayapura",PAPUA,99352.0,Indonesia,85254209294.0,-2.5656761,140.5137196,https://maps.google.com/?cid=0x0:0x9a37f48032364949
supermarket,supermarket,Papua 99352,"Kabupaten Jayapura, Papua","Kabupaten Jayapura, Papua",PAPUA,,Indonesia,,-2.5683577,140.4618316,https://maps.google.com/?cid=0x0:0xc4bf3fc2f14cfb38
supermarket,Toko Swalayan,Kascha Mart,"CGM3+7X9, Jl. Ps. Lama Sentani, Hinekombe, Kec. Sentani, Kabupaten Jayapura, Papua 99359","Jl. Ps. Lama Sentani, Hinekombe, Kec. Sentani, Kabupaten Jayapura",PAPUA,99359.0,Indonesia,85343434343.0,-2.5668307,140.5049944,https://maps.google.com/?cid=0x0:0x3c4994837b4d4778
supermarket,Pembangunan Perumahan,Hollandia Deli Freshmart,"Jl. Raya Kemiri No.53, Hinekombe, Kec. Sentani, Kabupaten Jayapura, Papua 99352","Hinekombe, Kec. Sentani, Kabupaten Jayapura",PAPUA,99352.0,Indonesia,885339228167.0,-2.5646542,140.5058666,https://maps.google.com/?cid=0x0:0xe7b60db06a79ab3d
supermarket,Toko Swalayan,Sentani Hypermarket,"CFPX+HWQ, Sentani City Square,, Jl. Raya Kemiri, Hinekombe, Kec. Sentani, Kabupaten Jayapura, Papua 99359","Sentani City Square,, Jl. Raya Kemiri, Hinekombe, Kec. Sentani, Kabupaten Jayapura",PAPUA,99359.0,Indonesia,,-2.5635335,140.4998502,https://maps.google.com/?cid=0x0:0x384592acaab55d2
supermarket,Toko,Rejeki Mart,"Jl. Youmakhe No.446, Hinekombe, Kec. Sentani, Kabupaten Jayapura, Papua 99352","Hinekombe, Kec. Sentani, Kabupaten Jayapura",PAPUA,99352.0,Indonesia,,-2.5618009,140.4937649,https://maps.google.com/?cid=0x0:0x11f61376bc98b224
supermarket,Toko bahan makanan,Toko Rivenda,"CGM5+VCX, Sentani Kota, Kec. Sentani, Kabupaten Jayapura, Papua 99359","Sentani Kota, Kec. Sentani, Kabupaten Jayapura",PAPUA,99359.0,Indonesia,81248094201.0,-2.5652689,140.5086196,https://maps.google.com/?cid=0x0:0x7b798b1b565a82fa
supermarket,Toko bahan makanan,A8 Shop,"Jl. Raya Kemiri No.53, Hinekombe, Kec. Sentani, Kabupaten Jayapura, Papua 99352","Hinekombe, Kec. Sentani, Kabupaten Jayapura",PAPUA,99352.0,Indonesia,967593712.0,-2.5653955,140.51145,https://maps.google.com/?cid=0x0:0x62eed9de28f97289
supermarket,Toko Perlengkapan Rumah,Swalayan senyum 5000 sentani,"Jl. Raya Kemiri, Sentani Kota, Kec. Sentani, Kabupaten Jayapura, Papua","Kabupaten Jayapura, Papua",PAPUA,,Indonesia,,-2.5625649,140.5000469,https://maps.google.com/?cid=0x0:0xe9da5c144d2e517
supermarket,Toko,Toko Gali Mas,"CFQV+J5P, Jl. Raya Kemiri No.161, Hinekombe, Kec. Sentani, Kabupaten Jayapura, Papua 99352","Jl. Raya Kemiri No.161, Hinekombe, Kec. Sentani, Kabupaten Jayapura",PAPUA,99352.0,Indonesia,8121608836.0,-2.5597423,140.4929529,https://maps.google.com/?cid=0x0:0x7b170bca5a4f05cb
supermarket,Pusat Perbelanjaan,Mall Sentani City Square,"Jl. Raya Kemiri No.286, Hinekombe, Kec. Sentani, Kabupaten Jayapura, Papua 99352","Hinekombe, Kec. Sentani, Kabupaten Jayapura",PAPUA,99352.0,Indonesia,82198389205.0,-2.5632484,140.5006043,https://maps.google.com/?cid=0x0:0x666e57130aca06b8
supermarket,Minimarket,SAGA Pasar Lama Sentani,"Jl. Ps. Lama Sentani, Dobonsolo, Kec. Sentani, Kabupaten Jayapura, Papua 99352","Dobonsolo, Kec. Sentani, Kabupaten Jayapura",PAPUA,99352.0,Indonesia,,-2.5692935,140.5048309,https://maps.google.com/?cid=0x0:0x87f3780a055d758
supermarket,Toko bahan makanan,Harum Sari Sentani,"ROKIM SQUARE, Jl. Raya Kemiri No.12 Blok B No.10, Hinekombe, Kec. Sentani, Kabupaten Jayapura, Papua 99352","Jl. Raya Kemiri No.12 Blok B No.10, Hinekombe, Kec. Sentani, Kabupaten Jayapura",PAPUA,99352.0,Indonesia,8114818282.0,-2.558786,140.4918407,https://maps.google.com/?cid=0x0:0x9f337e5e980a764c
supermarket,Kios,Toko Azzahra,"CFQV+RRP, Jl. Raya Kemiri, Hinekombe, Kec. Sentani, Kabupaten Jayapura, Papua 99352","Jl. Raya Kemiri, Hinekombe, Kec. Sentani, Kabupaten Jayapura",PAPUA,99352.0,Indonesia,,-2.5604035,140.4945903,https://maps.google.com/?cid=0x0:0xd1b0eab0e407bd5
supermarket,Toko Swalayan,Kascha Mart,"CGM3+7X9, Jl. Ps. Lama Sentani, Hinekombe, Kec. Sentani, Kabupaten Jayapura, Papua 99359","Jl. Ps. Lama Sentani, Hinekombe, Kec. Sentani, Kabupaten Jayapura",PAPUA,99359.0,Indonesia,85343434343.0,-2.5668307,140.5049944,https://maps.google.com/?cid=0x0:0x3c4994837b4d4778
supermarket,supermarket,Papua 99359,"Kabupaten Jayapura, Papua","Kabupaten Jayapura, Papua",PAPUA,,Indonesia,,-2.5632464,140.534262,https://maps.google.com/?cid=0x0:0x15522b545274ab16
supermarket,Minimarket,Victory Swalayan,"Jl. Raya Kemiri No.330, Hinekombe, Kec. Sentani, Kabupaten Jayapura, Papua 99359","Hinekombe, Kec. Sentani, Kabupaten Jayapura",PAPUA,99359.0,Indonesia,,-2.5650192,140.5059407,https://maps.google.com/?cid=0x0:0x9fc3fb75accf6014
supermarket,Minimarket,OXZY Mart,"CGGG+84Q, Jl. Dunlop, Sentani Kota, Kec. Sentani, Kabupaten Jayapura, Papua 99359","Jl. Dunlop, Sentani Kota, Kec. Sentani, Kabupaten Jayapura",PAPUA,99359.0,Indonesia,,-2.5741685,140.5253669,https://maps.google.com/?cid=0x0:0x870ba4f9e628733e
supermarket,Toko bahan makanan,Hypermart Sentani,"CGFR+3PW, Jalan Hawai Sentani, Sentani Kota, Kec. Sentani Tim., Kabupaten Jayapura, Papua 99359","Jalan Hawai Sentani, Sentani Kota, Kec. Sentani Tim., Kabupaten Jayapura",PAPUA,99359.0,Indonesia,,-2.5772694,140.5418277,https://maps.google.com/?cid=0x0:0x84b28346e81b0a72
supermarket,Toko bahan makanan,Toko Rivenda,"CGM5+VCX, Sentani Kota, Kec. Sentani, Kabupaten Jayapura, Papua 99359","Sentani Kota, Kec. Sentani, Kabupaten Jayapura",PAPUA,99359.0,Indonesia,81248094201.0,-2.5652689,140.5086196,https://maps.google.com/?cid=0x0:0x7b798b1b565a82fa
supermarket,Pusat Perbelanjaan,SAGA Fresh Sentani,"Jl. Raya Kemiri No.53, Hinekombe, Kec. Sentani, Kabupaten Jayapura, Papua 99352","Hinekombe, Kec. Sentani, Kabupaten Jayapura",PAPUA,99352.0,Indonesia,85254209294.0,-2.5656761,140.5137196,https://maps.google.com/?cid=0x0:0x9a37f48032364949
supermarket,Toko,Toko Sesean Raya Jln pasir,"CGMC+3CJ, Sentani Kota, Kec. Sentani, Kabupaten Jayapura, Papua 99359","Sentani Kota, Kec. Sentani, Kabupaten Jayapura",PAPUA,99359.0,Indonesia,81343331399.0,-2.5672933,140.5210091,https://maps.google.com/?cid=0x0:0x875c9b72f4916043
supermarket,Toko,HolaMart Hawai,"CGGR+842, Nendali, Kec. Sentani Tim., Kabupaten Jayapura, Papua 99359","Nendali, Kec. Sentani Tim., Kabupaten Jayapura",PAPUA,99359.0,Indonesia,81318478282.0,-2.5742372,140.5402767,https://maps.google.com/?cid=0x0:0xbb1bf276e9e5f58b
supermarket,Minimarket,Ratu Mart,"CGGG+943, Jl. Dunlop, Sentani Kota, Kec. Sentani, Kabupaten Jayapura, Papua 99359","Jl. Dunlop, Sentani Kota, Kec. Sentani, Kabupaten Jayapura",PAPUA,99359.0,Indonesia,81344778888.0,-2.5741235,140.5252981,https://maps.google.com/?cid=0x0:0x125f82972ae50e44
supermarket,Toko Perlengkapan Rumah,Swalayan senyum 5000 sentani,"Jl. Raya Kemiri, Sentani Kota, Kec. Sentani, Kabupaten Jayapura, Papua","Kabupaten Jayapura, Papua",PAPUA,,Indonesia,,-2.5625649,140.5000469,https://maps.google.com/?cid=0x0:0xe9da5c144d2e517
supermarket,Toko bahan makanan,Toko Rizquna Mart,"Jl. Raya Airport Sentani, Sentani Kota, Kec. Sentani, Kabupaten Jayapura, Papua 99359","Sentani Kota, Kec. Sentani, Kabupaten Jayapura",PAPUA,99359.0,Indonesia,81247707769.0,-2.568973,140.5252775,https://maps.google.com/?cid=0x0:0x431e22f9a6e0a618
supermarket,Toko bahan makanan,A8 Shop,"Jl. Raya Kemiri No.53, Hinekombe, Kec. Sentani, Kabupaten Jayapura, Papua 99352","Hinekombe, Kec. Sentani, Kabupaten Jayapura",PAPUA,99352.0,Indonesia,967593712.0,-2.5653955,140.51145,https://maps.google.com/?cid=0x0:0x62eed9de28f97289
supermarket,Toko Swalayan,Senyum 5000 hawai,"CGMC+6F7, Jl. Raya Airport Sentani, Sentani Kota, Kec. Sentani, Kabupaten Jayapura, Papua 99359","Jl. Raya Airport Sentani, Sentani Kota, Kec. Sentani, Kabupaten Jayapura",PAPUA,99359.0,Indonesia,,-2.5669505,140.5211819,https://maps.google.com/?cid=0x0:0x68a727f20e2a85c6
supermarket,Tujuan Wisata,Jayapura Depapre,"H92H+2X5, Tablasupa, Distrik Depapre, Kabupaten Jayapura, Papua 99353","Tablasupa, Distrik Depapre, Kabupaten Jayapura",PAPUA,99353.0,Indonesia,81248288983.0,-2.4499888,140.3799712,https://maps.google.com/?cid=0x0:0x26c84d4ef83715f4
supermarket,supermarket,Depapre,"Waiya, Distrik Depapre, Kabupaten Jayapura, Papua","Kabupaten Jayapura, Papua",PAPUA,,Indonesia,,-2.465224,140.365005,https://maps.google.com/?cid=0x0:0xb8f12b7316b09e1a
supermarket,Cagar Alam,Depapre,"Waiya, Distrik Depapre, Kabupaten Jayapura, Papua 99353","Distrik Depapre, Kabupaten Jayapura",PAPUA,99353.0,Indonesia,967536161.0,-2.4634125,140.3660779,https://maps.google.com/?cid=0x0:0x50fbd732ed5f5ad9
supermarket,supermarket,Papua 99358,"Kabupaten Jayapura, Papua","Kabupaten Jayapura, Papua",PAPUA,,Indonesia,,-2.5423787,140.3894858,https://maps.google.com/?cid=0x0:0xe811437fcb2474bb
supermarket,Toko Swalayan,Sentani Hypermarket,"CFPX+HWQ, Sentani City Square,, Jl. Raya Kemiri, Hinekombe, Kec. Sentani, Kabupaten Jayapura, Papua 99359","Sentani City Square,, Jl. Raya Kemiri, Hinekombe, Kec. Sentani, Kabupaten Jayapura",PAPUA,99359.0,Indonesia,,-2.5635335,140.4998502,https://maps.google.com/?cid=0x0:0x384592acaab55d2
supermarket,Toko Swalayan,Kascha Mart,"CGM3+7X9, Jl. Ps. Lama Sentani, Hinekombe, Kec. Sentani, Kabupaten Jayapura, Papua 99359","Jl. Ps. Lama Sentani, Hinekombe, Kec. Sentani, Kabupaten Jayapura",PAPUA,99359.0,Indonesia,85343434343.0,-2.5668307,140.5049944,https://maps.google.com/?cid=0x0:0x3c4994837b4d4778
supermarket,Minimarket,Victory Swalayan,"Jl. Raya Kemiri No.330, Hinekombe, Kec. Sentani, Kabupaten Jayapura, Papua 99359","Hinekombe, Kec. Sentani, Kabupaten Jayapura",PAPUA,99359.0,Indonesia,,-2.5650192,140.5059407,https://maps.google.com/?cid=0x0:0x9fc3fb75accf6014
supermarket,Toko bahan makanan,Hypermart Sentani,"CGFR+3PW, Jalan Hawai Sentani, Sentani Kota, Kec. Sentani Tim., Kabupaten Jayapura, Papua 99359","Jalan Hawai Sentani, Sentani Kota, Kec. Sentani Tim., Kabupaten Jayapura",PAPUA,99359.0,Indonesia,,-2.5772694,140.5418277,https://maps.google.com/?cid=0x0:0x84b28346e81b0a72
supermarket,Toko Perlengkapan Rumah,Swalayan senyum 5000 sentani,"Jl. Raya Kemiri, Sentani Kota, Kec. Sentani, Kabupaten Jayapura, Papua","Kabupaten Jayapura, Papua",PAPUA,,Indonesia,,-2.5625649,140.5000469,https://maps.google.com/?cid=0x0:0xe9da5c144d2e517
supermarket,Toko bahan makanan,Toko Rivenda,"CGM5+VCX, Sentani Kota, Kec. Sentani, Kabupaten Jayapura, Papua 99359","Sentani Kota, Kec. Sentani, Kabupaten Jayapura",PAPUA,99359.0,Indonesia,81248094201.0,-2.5652689,140.5086196,https://maps.google.com/?cid=0x0:0x7b798b1b565a82fa
supermarket,Toko bahan makanan,A8 Shop,"Jl. Raya Kemiri No.53, Hinekombe, Kec. Sentani, Kabupaten Jayapura, Papua 99352","Hinekombe, Kec. Sentani, Kabupaten Jayapura",PAPUA,99352.0,Indonesia,967593712.0,-2.5653955,140.51145,https://maps.google.com/?cid=0x0:0x62eed9de28f97289
supermarket,Pusat Perbelanjaan,Mall Sentani City Square,"Jl. Raya Kemiri No.286, Hinekombe, Kec. Sentani, Kabupaten Jayapura, Papua 99352","Hinekombe, Kec. Sentani, Kabupaten Jayapura",PAPUA,99352.0,Indonesia,82198389205.0,-2.5632484,140.5006043,https://maps.google.com/?cid=0x0:0x666e57130aca06b8
supermarket,Kios,Kios Karimah Jaya,"FCHF+QW2, Sabron Sari, Distrik Sentani Barat, Kabupaten Jayapura, Papua 99358","Sabron Sari, Distrik Sentani Barat, Kabupaten Jayapura",PAPUA,99358.0,Indonesia,,-2.5206229,140.4247731,https://maps.google.com/?cid=0x0:0x3484faadcbf0246
supermarket,Toko Swalayan,TOKO KITA SEMUA,"Dobonsolo, Kec. Sentani, Kabupaten Jayapura, Papua 99352","Kec. Sentani, Kabupaten Jayapura",PAPUA,99352.0,Indonesia,,-2.5694531,140.4922389,https://maps.google.com/?cid=0x0:0xe455644704a3a5fd
supermarket,Minimarket,SAGA Pasar Lama Sentani,"Jl. Ps. Lama Sentani, Dobonsolo, Kec. Sentani, Kabupaten Jayapura, Papua 99352","Dobonsolo, Kec. Sentani, Kabupaten Jayapura",PAPUA,99352.0,Indonesia,,-2.5692935,140.5048309,https://maps.google.com/?cid=0x0:0x87f3780a055d758
supermarket,Toko,Kios Usaha Tani,"Jl, Maribu, Distrik Sentani Barat, Kabupaten Jayapura, Papua 99358","Maribu, Distrik Sentani Barat, Kabupaten Jayapura",PAPUA,99358.0,Indonesia,81248897363.0,-2.5077244,140.3802785,https://maps.google.com/?cid=0x0:0x9c543a2de33961e1
supermarket,supermarket,KERIPIK GEMBIRA SENTANI,"Btn Puskopad kolam block C, Doyo Baru, Kec. Sentani, Kabupaten Jayapura, Papua 99352","Doyo Baru, Kec. Sentani, Kabupaten Jayapura",PAPUA,99352.0,Indonesia,81243088302.0,-2.5393508,140.4590339,https://maps.google.com/?cid=0x0:0x64ce797410f36bd8
supermarket,supermarket,Papua 99357,"Kabupaten Jayapura, Papua","Kabupaten Jayapura, Papua",PAPUA,,Indonesia,,-2.7850607,140.2244429,https://maps.google.com/?cid=0x0:0x37d7dde7ca57ffbb
supermarket,Toko Swalayan,Kascha Mart,"CGM3+7X9, Jl. Ps. Lama Sentani, Hinekombe, Kec. Sentani, Kabupaten Jayapura, Papua 99359","Jl. Ps. Lama Sentani, Hinekombe, Kec. Sentani, Kabupaten Jayapura",PAPUA,99359.0,Indonesia,85343434343.0,-2.5668307,140.5049944,https://maps.google.com/?cid=0x0:0x3c4994837b4d4778
supermarket,Minimarket,Victory Swalayan,"Jl. Raya Kemiri No.330, Hinekombe, Kec. Sentani, Kabupaten Jayapura, Papua 99359","Hinekombe, Kec. Sentani, Kabupaten Jayapura",PAPUA,99359.0,Indonesia,,-2.5650192,140.5059407,https://maps.google.com/?cid=0x0:0x9fc3fb75accf6014
supermarket,Kios,Kios Desy,"C64J+25M, Karya Bumi, Nimboran Tim. / Namblong, Kabupaten Jayapura, Papua 99361","Karya Bumi, Nimboran Tim. / Namblong, Kabupaten Jayapura",PAPUA,99361.0,Indonesia,85244112030.0,-2.5949132,140.2304065,https://maps.google.com/?cid=0x0:0x63e4e8cb2703995b
supermarket,Komplek perumahan,Jawang Komplex,"87X9+93C, Damoi Kati, Distrik Kemtuk Gresi, Kabupaten Jayapura, Papua 99357","Damoi Kati, Distrik Kemtuk Gresi, Kabupaten Jayapura",PAPUA,99357.0,Indonesia,85244543554.0,-2.651574,140.2676473,https://maps.google.com/?cid=0x0:0x174151cfdf257e34
supermarket,Kantor Pemerintah,Kampung Mamei,"97QX+WQW, Mamei, Kec. Kemtuk, Kabupaten Jayapura, Papua","Kabupaten Jayapura, Papua",PAPUA,,Indonesia,,-2.6101375,140.2994531,https://maps.google.com/?cid=0x0:0x421a1eedc60ca13c
supermarket,Toko bahan makanan,TOKO TT MART,"CGF4+638, Dobonsolo, Kec. Sentani, Kabupaten Jayapura, Papua 99359","Dobonsolo, Kec. Sentani, Kabupaten Jayapura",PAPUA,99359.0,Indonesia,,-2.5769503,140.5051899,https://maps.google.com/?cid=0x0:0x658c30c2dc99b08c
supermarket,Trading company,Toko Borobudur,"Karya Bumi, Nimboran Tim. / Namblong, Kabupaten Jayapura, Papua 99361","Nimboran Tim. / Namblong, Kabupaten Jayapura",PAPUA,99361.0,Indonesia,81248215866.0,-2.5947808,140.230146,https://maps.google.com/?cid=0x0:0x8d421effcb657a4b
supermarket,Toko bahan makanan,KERAMBA PANPER,"Unnamed Road, Doyo Lama, Distrik Waibu, Kabupaten Jayapura, Papua 99352","Doyo Lama, Distrik Waibu, Kabupaten Jayapura",PAPUA,99352.0,Indonesia,82397758140.0,-2.5723817,140.4535468,https://maps.google.com/?cid=0x0:0x99681cfd0f029c29
supermarket,Toko,MITRA JAYA,"53RG+6XC, Ongan Jaya, Yapsi, Kabupaten Jayapura, Papua 99356","Ongan Jaya, Yapsi, Kabupaten Jayapura",PAPUA,99356.0,Indonesia,,-2.8094379,140.0773832,https://maps.google.com/?cid=0x0:0x6162539844a2cb3b
supermarket,Pusat Perbelanjaan,Taja Hotspot,"53PJ+J79, Unnamed Road, Ongan Jaya, Yapsi, Kabupaten Jayapura, Papua 99356","Unnamed Road, Ongan Jaya, Yapsi, Kabupaten Jayapura",PAPUA,99356.0,Indonesia,,-2.8134742,140.0807312,https://maps.google.com/?cid=0x0:0x44a2383236de1715
supermarket,Pusat Perbelanjaan,ICE MART,"Jl yowanibi polres, Doyo Baru, Distrik Waibu, Kabupaten Jayapura, Papua 99368","Doyo Baru, Distrik Waibu, Kabupaten Jayapura",PAPUA,99368.0,Indonesia,82236765310.0,-2.5466705,140.4580376,https://maps.google.com/?cid=0x0:0xee2b858b5102c5eb
supermarket,Toko bahan makanan,Toko Rivenda,"CGM5+VCX, Sentani Kota, Kec. Sentani, Kabupaten Jayapura, Papua 99359","Sentani Kota, Kec. Sentani, Kabupaten Jayapura",PAPUA,99359.0,Indonesia,81248094201.0,-2.5652689,140.5086196,https://maps.google.com/?cid=0x0:0x7b798b1b565a82fa
supermarket,Toko bahan makanan,TOKO RENI,"53MJ+93Q, Jalan poros taja, Ongan Jaya, Yapsi, Jayapura Regency, Papua","Kabupaten Jayapura, Papua",PAPUA,,Indonesia,,-2.816545,140.080237,https://maps.google.com/?cid=0x0:0xbf0579633626db52
supermarket,supermarket,Papua 99357,"Kabupaten Jayapura, Papua","Kabupaten Jayapura, Papua",PAPUA,,Indonesia,,-2.7850607,140.2244429,https://maps.google.com/?cid=0x0:0x37d7dde7ca57ffbb
supermarket,Kios,Kios Desy,"C64J+25M, Karya Bumi, Nimboran Tim. / Namblong, Kabupaten Jayapura, Papua 99361","Karya Bumi, Nimboran Tim. / Namblong, Kabupaten Jayapura",PAPUA,99361.0,Indonesia,85244112030.0,-2.5949132,140.2304065,https://maps.google.com/?cid=0x0:0x63e4e8cb2703995b
supermarket,Toko Swalayan,Kascha Mart,"CGM3+7X9, Jl. Ps. Lama Sentani, Hinekombe, Kec. Sentani, Kabupaten Jayapura, Papua 99359","Jl. Ps. Lama Sentani, Hinekombe, Kec. Sentani, Kabupaten Jayapura",PAPUA,99359.0,Indonesia,85343434343.0,-2.5668307,140.5049944,https://maps.google.com/?cid=0x0:0x3c4994837b4d4778
supermarket,Toko,Rejeki Mart,"Jl. Youmakhe No.446, Hinekombe, Kec. Sentani, Kabupaten Jayapura, Papua 99352","Hinekombe, Kec. Sentani, Kabupaten Jayapura",PAPUA,99352.0,Indonesia,,-2.5618009,140.4937649,https://maps.google.com/?cid=0x0:0x11f61376bc98b224
supermarket,Toko,MITRA JAYA,"53RG+6XC, Ongan Jaya, Yapsi, Kabupaten Jayapura, Papua 99356","Ongan Jaya, Yapsi, Kabupaten Jayapura",PAPUA,99356.0,Indonesia,,-2.8094379,140.0773832,https://maps.google.com/?cid=0x0:0x6162539844a2cb3b
supermarket,Toko bahan makanan,Depot Hafidz,"54Q2+G98, Jalur I, kampung Taqwa Bangun, Yapsi, Kabupaten Jayapura, Papua","Kabupaten Jayapura, Papua",PAPUA,,Indonesia,,-2.811221,140.1009527,https://maps.google.com/?cid=0x0:0xc7fefc191b9008ee
supermarket,Trading company,Toko Borobudur,"Karya Bumi, Nimboran Tim. / Namblong, Kabupaten Jayapura, Papua 99361","Nimboran Tim. / Namblong, Kabupaten Jayapura",PAPUA,99361.0,Indonesia,81248215866.0,-2.5947808,140.230146,https://maps.google.com/?cid=0x0:0x8d421effcb657a4b
supermarket,supermarket,Toko/Kios Benige,"755G+W6W, Buspun, Distrik Gresi Selatan, Kabupaten Jayapura, Papua 99357","Buspun, Distrik Gresi Selatan, Kabupaten Jayapura",PAPUA,99357.0,Indonesia,,-2.7401319,140.1755892,https://maps.google.com/?cid=0x0:0x7daa3600c156ebe7
supermarket,supermarket,Pasar Suna,"9688+86C, Nembugresi, Distrik Kemtuk Gresi, Kabupaten Jayapura, Papua 99361","Nembugresi, Distrik Kemtuk Gresi, Kabupaten Jayapura",PAPUA,99361.0,Indonesia,,-2.6341901,140.2155002,https://maps.google.com/?cid=0x0:0x4ddea35999dc4cd1
supermarket,supermarket,Distrik Kemtuk Gresi,"Kabupaten Jayapura, Papua","Kabupaten Jayapura, Papua",PAPUA,,Indonesia,,-2.6184436,140.2188529,https://maps.google.com/?cid=0x0:0xf30167b7382c5c45
supermarket,supermarket,Saga supermarket,"FF58+VFQ, Jl. Raya Doyo Baru, Doyo Baru, Distrik Waibu, Kabupaten Jayapura, Papua 99352","Jl. Raya Doyo Baru, Doyo Baru, Distrik Waibu, Kabupaten Jayapura",PAPUA,99352.0,Indonesia,,-2.5403227,140.4662068,https://maps.google.com/?cid=0x0:0xbae885efbed8833b
supermarket,Pembangunan Perumahan,Hollandia Deli Freshmart,"Jl. Raya Kemiri No.53, Hinekombe, Kec. Sentani, Kabupaten Jayapura, Papua 99352","Hinekombe, Kec. Sentani, Kabupaten Jayapura",PAPUA,99352.0,Indonesia,885339228167.0,-2.5646542,140.5058666,https://maps.google.com/?cid=0x0:0xe7b60db06a79ab3d
supermarket,Toko Swalayan,Kios Hafissa,"FF56+CW7, Doyo Baru, Distrik Waibu, Kabupaten Jayapura, Papua 99352","Doyo Baru, Distrik Waibu, Kabupaten Jayapura",PAPUA,99352.0,Indonesia,81328296712.0,-2.5414713,140.4623099,https://maps.google.com/?cid=0x0:0xd8475b3012251bb3
supermarket,Toko Swalayan,Saga Supermarket,"CPW3+83X, Ardipura, Distrik Jayapura Selatan, Kota Jayapura, Papua 99222","Ardipura, Distrik Jayapura Selatan, Kota Jayapura",PAPUA,99222.0,Indonesia,,-2.5541438,140.7027385,https://maps.google.com/?cid=0x0:0x287c7b2014785d97
supermarket,supermarket,Distrik Nimboran,"Kabupaten Jayapura, Papua","Kabupaten Jayapura, Papua",PAPUA,,Indonesia,,-2.5963423,140.1662573,https://maps.google.com/?cid=0x0:0x1cf39af2b94e731d
supermarket,Kios,Kios Desy,"C64J+25M, Karya Bumi, Nimboran Tim. / Namblong, Kabupaten Jayapura, Papua 99361","Karya Bumi, Nimboran Tim. / Namblong, Kabupaten Jayapura",PAPUA,99361.0,Indonesia,85244112030.0,-2.5949132,140.2304065,https://maps.google.com/?cid=0x0:0x63e4e8cb2703995b
supermarket,Pusat Perbelanjaan,Toko Inti,"C549+8QX, jl.nusantara genteng, Tabri, Distrik Nimboran, Kabupaten Jayapura, Papua 99361","jl.nusantara genteng, Tabri, Distrik Nimboran, Kabupaten Jayapura",PAPUA,99361.0,Indonesia,81343495905.0,-2.5941381,140.1694945,https://maps.google.com/?cid=0x0:0x921410ce92a1bec8
supermarket,Trading company,Toko Borobudur,"Karya Bumi, Nimboran Tim. / Namblong, Kabupaten Jayapura, Papua 99361","Nimboran Tim. / Namblong, Kabupaten Jayapura",PAPUA,99361.0,Indonesia,81248215866.0,-2.5947808,140.230146,https://maps.google.com/?cid=0x0:0x8d421effcb657a4b
supermarket,Pembangunan Perumahan,NIMBO CELL,"C4V7+2PR, Bunyom, Distrik Nimbokrang, Kabupaten Jayapura, Papua 99361","Bunyom, Distrik Nimbokrang, Kabupaten Jayapura",PAPUA,99361.0,Indonesia,,-2.5573944,140.1142802,https://maps.google.com/?cid=0x0:0x1c4cbfc4eec3fd3
supermarket,Kios,Sukses Jaya,"C538+2CQ, Tabri, Distrik Nimboran, Kabupaten Jayapura, Papua 99361","Tabri, Distrik Nimboran, Kabupaten Jayapura",PAPUA,99361.0,Indonesia,82399767975.0,-2.5974037,140.1661092,https://maps.google.com/?cid=0x0:0x47f5f0ebaf3de11e
supermarket,Kios,Usaha baru,"C538+3FF, Jl. Hilkemeyer, Tabri, Distrik Nimboran, Kabupaten Jayapura, Papua 99361","Jl. Hilkemeyer, Tabri, Distrik Nimboran, Kabupaten Jayapura",PAPUA,99361.0,Indonesia,81344663611.0,-2.5973205,140.1661772,https://maps.google.com/?cid=0x0:0x760f26e8037274fe
supermarket,Toko Elektronik,Aneka Jaya,"C4V6+427, Unnamed Road, Bunyom, Distrik Nimbokrang, Kabupaten Jayapura, Papua 99361","Unnamed Road, Bunyom, Distrik Nimbokrang, Kabupaten Jayapura",PAPUA,99361.0,Indonesia,,-2.5572038,140.1100377,https://maps.google.com/?cid=0x0:0x856d880630a00c1f
supermarket,Toko,Kios Kembar,"Blok D, Benyom Jaya I, Distrik Nimbokrang, Kabupaten Jayapura, Papua 99361","Benyom Jaya I, Distrik Nimbokrang, Kabupaten Jayapura",PAPUA,99361.0,Indonesia,82239039858.0,-2.5434513,140.1336681,https://maps.google.com/?cid=0x0:0x887233e295ff279c
supermarket,Sekolah,Grime Store,"Ibub, Distrik Kemtuk Gresi, Kabupaten Jayapura, Papua 99361","Distrik Kemtuk Gresi, Kabupaten Jayapura",PAPUA,99361.0,Indonesia,,-2.6159615,140.2166125,https://maps.google.com/?cid=0x0:0x4ce597a3aaebca04
supermarket,Toko,Kios Friendly78,"Jl. Pendidikan No.53 Blok D, Benyom Jaya I, Distrik Nimbokrang, Kabupaten Jayapura, Papua 99361","Benyom Jaya I, Distrik Nimbokrang, Kabupaten Jayapura",PAPUA,99361.0,Indonesia,81344142001.0,-2.5511341,140.1094861,https://maps.google.com/?cid=0x0:0xfe82d5c3955e9030
supermarket,Kios,Kios Irfan,"C65M+XX, Karya Bumi, Nimboran Tim. / Namblong, Kabupaten Jayapura, Papua 99361","Karya Bumi, Nimboran Tim. / Namblong, Kabupaten Jayapura",PAPUA,99361.0,Indonesia,,-2.5902301,140.2347761,https://maps.google.com/?cid=0x0:0x9b71a016de8a687c
supermarket,Toko Swalayan,Alfamidi nimbokrang,"C4V6+6HJ, Bunyom, Distrik Nimbokrang, Kabupaten Jayapura, Papua 99361","Bunyom, Distrik Nimbokrang, Kabupaten Jayapura",PAPUA,99361.0,Indonesia,,-2.5571533,140.1096591,https://maps.google.com/?cid=0x0:0x42c148b1835642e1
supermarket,Toko Elektronik,KEZIA CELL,"C538+97R, Tabri, Distrik Nimboran, Kabupaten Jayapura, Papua 99361","Tabri, Distrik Nimboran, Kabupaten Jayapura",PAPUA,99361.0,Indonesia,82197533024.0,-2.596511,140.165641,https://maps.google.com/?cid=0x0:0xcba5f6149e5f7f85
supermarket,Toko,SUBITA DUA,"C4RJ+W8P, Nembukrang, Distrik Nimbokrang, Kabupaten Jayapura, Papua 99361","Nembukrang, Distrik Nimbokrang, Kabupaten Jayapura",PAPUA,99361.0,Indonesia,,-2.5576543,140.1308375,https://maps.google.com/?cid=0x0:0xc54486352897bd71
supermarket,supermarket,Papua 99362,"Kabupaten Jayapura, Papua","Kabupaten Jayapura, Papua",PAPUA,,Indonesia,,-2.4816716,139.998236,https://maps.google.com/?cid=0x0:0x914eb9d0bad553fd
supermarket,Toko Swalayan,Alfamidi nimbokrang,"C4V6+6HJ, Bunyom, Distrik Nimbokrang, Kabupaten Jayapura, Papua 99361","Bunyom, Distrik Nimbokrang, Kabupaten Jayapura",PAPUA,99361.0,Indonesia,,-2.5571533,140.1096591,https://maps.google.com/?cid=0x0:0x42c148b1835642e1
supermarket,Toko umum,Virta mart,"F453+VXF, Benyom Jaya II, Distrik Nimbokrang, Kabupaten Jayapura, Papua 99361","Benyom Jaya II, Distrik Nimbokrang, Kabupaten Jayapura",PAPUA,99361.0,Indonesia,,-2.5403049,140.1049142,https://maps.google.com/?cid=0x0:0xa4400cdcf00e9d85
supermarket,Toko,Toko Bangunan Lestari Jaya,"Bunyom, Distrik Nimbokrang, Kabupaten Jayapura, Papua 99361","Distrik Nimbokrang, Kabupaten Jayapura",PAPUA,99361.0,Indonesia,81248093799.0,-2.5574445,140.1144634,https://maps.google.com/?cid=0x0:0xb8c6a63e30cb594a
supermarket,Trading company,Toko Borobudur,"Karya Bumi, Nimboran Tim. / Namblong, Kabupaten Jayapura, Papua 99361","Nimboran Tim. / Namblong, Kabupaten Jayapura",PAPUA,99361.0,Indonesia,81248215866.0,-2.5947808,140.230146,https://maps.google.com/?cid=0x0:0x8d421effcb657a4b
supermarket,Toko,Kios Friendly78,"Jl. Pendidikan No.53 Blok D, Benyom Jaya I, Distrik Nimbokrang, Kabupaten Jayapura, Papua 99361","Benyom Jaya I, Distrik Nimbokrang, Kabupaten Jayapura",PAPUA,99361.0,Indonesia,81344142001.0,-2.5511341,140.1094861,https://maps.google.com/?cid=0x0:0xfe82d5c3955e9030
supermarket,Pusat Perbelanjaan,Toko Inti,"C549+8QX, jl.nusantara genteng, Tabri, Distrik Nimboran, Kabupaten Jayapura, Papua 99361","jl.nusantara genteng, Tabri, Distrik Nimboran, Kabupaten Jayapura",PAPUA,99361.0,Indonesia,81343495905.0,-2.5941381,140.1694945,https://maps.google.com/?cid=0x0:0x921410ce92a1bec8
supermarket,Kios,Kios Desy,"C64J+25M, Karya Bumi, Nimboran Tim. / Namblong, Kabupaten Jayapura, Papua 99361","Karya Bumi, Nimboran Tim. / Namblong, Kabupaten Jayapura",PAPUA,99361.0,Indonesia,85244112030.0,-2.5949132,140.2304065,https://maps.google.com/?cid=0x0:0x63e4e8cb2703995b
supermarket,supermarket,Pasar Nimbokrang,"F42M+RR9, Nembukrang, Distrik Nimbokrang, Kabupaten Jayapura, Papua 99361","Nembukrang, Distrik Nimbokrang, Kabupaten Jayapura",PAPUA,99361.0,Indonesia,,-2.5479547,140.1346044,https://maps.google.com/?cid=0x0:0x987e52ab4cb7e08e
supermarket,supermarket,Distrik Nimbokrang,"Kabupaten Jayapura, Papua","Kabupaten Jayapura, Papua",PAPUA,,Indonesia,,-2.5482824,140.1340831,https://maps.google.com/?cid=0x0:0xf66261a3431e7659
supermarket,supermarket,Papua 99356,"Kabupaten Jayapura, Papua","Kabupaten Jayapura, Papua",PAPUA,,Indonesia,,-2.7977377,139.7728757,https://maps.google.com/?cid=0x0:0x48ebe0b186aa7324
supermarket,Toko bahan makanan,Depot Hafidz,"54Q2+G98, Jalur I, kampung Taqwa Bangun, Yapsi, Kabupaten Jayapura, Papua","Kabupaten Jayapura, Papua",PAPUA,,Indonesia,,-2.811221,140.1009527,https://maps.google.com/?cid=0x0:0xc7fefc191b9008ee
supermarket,Toko,MITRA JAYA,"53RG+6XC, Ongan Jaya, Yapsi, Kabupaten Jayapura, Papua 99356","Ongan Jaya, Yapsi, Kabupaten Jayapura",PAPUA,99356.0,Indonesia,,-2.8094379,140.0773832,https://maps.google.com/?cid=0x0:0x6162539844a2cb3b
supermarket,Toko,Kios Friendly78,"Jl. Pendidikan No.53 Blok D, Benyom Jaya I, Distrik Nimbokrang, Kabupaten Jayapura, Papua 99361","Benyom Jaya I, Distrik Nimbokrang, Kabupaten Jayapura",PAPUA,99361.0,Indonesia,81344142001.0,-2.5511341,140.1094861,https://maps.google.com/?cid=0x0:0xfe82d5c3955e9030
supermarket,Kedai Kopi,KIOS DYLAN  NASI KUNING KENZIE,"93V7+XCC, Beneik, Kec. Unurum Guay, Kabupaten Jayapura, Papua","Kabupaten Jayapura, Papua",PAPUA,,Indonesia,,-2.605065,140.0635069,https://maps.google.com/?cid=0x0:0x28eba0b3314cf771
supermarket,supermarket,ATM BNI SUPERMARKET DIANA,"Beneik, Kec. Unurum Guay, Kabupaten Jayapura, Papua 99361","Kec. Unurum Guay, Kabupaten Jayapura",PAPUA,99361.0,Indonesia,2157899999.0,-2.592127,140.059845,https://maps.google.com/?cid=0x0:0x278e0e0e767f1a6d
supermarket,Toko Swalayan,Aneka Market,"Jl. Ahmad Yani No.45, Gurabesi, Kec. Jayapura Utara, Kota Jayapura, Papua 99222","Gurabesi, Kec. Jayapura Utara, Kota Jayapura",PAPUA,99222.0,Indonesia,,-2.5436412,140.7017491,https://maps.google.com/?cid=0x0:0xf68d157c81ff3974
supermarket,Toko,Kios Kembar,"Blok D, Benyom Jaya I, Distrik Nimbokrang, Kabupaten Jayapura, Papua 99361","Benyom Jaya I, Distrik Nimbokrang, Kabupaten Jayapura",PAPUA,99361.0,Indonesia,82239039858.0,-2.5434513,140.1336681,https://maps.google.com/?cid=0x0:0x887233e295ff279c
supermarket,Toko umum,Virta mart,"F453+VXF, Benyom Jaya II, Distrik Nimbokrang, Kabupaten Jayapura, Papua 99361","Benyom Jaya II, Distrik Nimbokrang, Kabupaten Jayapura",PAPUA,99361.0,Indonesia,,-2.5403049,140.1049142,https://maps.google.com/?cid=0x0:0xa4400cdcf00e9d85
supermarket,Pusat Perbelanjaan,Toko Inti,"C549+8QX, jl.nusantara genteng, Tabri, Distrik Nimboran, Kabupaten Jayapura, Papua 99361","jl.nusantara genteng, Tabri, Distrik Nimboran, Kabupaten Jayapura",PAPUA,99361.0,Indonesia,81343495905.0,-2.5941381,140.1694945,https://maps.google.com/?cid=0x0:0x921410ce92a1bec8
supermarket,supermarket,Papua 99354,"Kabupaten Jayapura, Papua","Kabupaten Jayapura, Papua",PAPUA,,Indonesia,,-2.425843,140.1626664,https://maps.google.com/?cid=0x0:0xed2e9d28341a8606
supermarket,Toko,SUBITA DUA,"C4RJ+W8P, Nembukrang, Distrik Nimbokrang, Kabupaten Jayapura, Papua 99361","Nembukrang, Distrik Nimbokrang, Kabupaten Jayapura",PAPUA,99361.0,Indonesia,,-2.5576543,140.1308375,https://maps.google.com/?cid=0x0:0xc54486352897bd71
supermarket,Pusat Perbelanjaan,EFATA MART,"FF66+9G2, Doyo Baru, Distrik Waibu, Kabupaten Jayapura, Papua 99352","Doyo Baru, Distrik Waibu, Kabupaten Jayapura",PAPUA,99352.0,Indonesia,,-2.5391147,140.4612526,https://maps.google.com/?cid=0x0:0xbd22305794a06316
supermarket,Toko bahan makanan,MW_M4rt,"Perum Darsua, Doyo Baru, Distrik Waibu, Kabupaten Jayapura, Papua 99352","Doyo Baru, Distrik Waibu, Kabupaten Jayapura",PAPUA,99352.0,Indonesia,85244557005.0,-2.5467859,140.457001,https://maps.google.com/?cid=0x0:0x868ce2e935c66436
supermarket,Toko,Kios Kembar,"Blok D, Benyom Jaya I, Distrik Nimbokrang, Kabupaten Jayapura, Papua 99361","Benyom Jaya I, Distrik Nimbokrang, Kabupaten Jayapura",PAPUA,99361.0,Indonesia,82239039858.0,-2.5434513,140.1336681,https://maps.google.com/?cid=0x0:0x887233e295ff279c
supermarket,Toko Swalayan,MAdodod Stores,"CVMR+P9V, Jl. Mente Sempan, Nawaripi, Kec. Mimika Baru, Kabupaten Mimika, Papua 99971","Jl. Mente Sempan, Nawaripi, Kec. Mimika Baru, Kabupaten Mimika",PAPUA,99971.0,Indonesia,,-4.565648,136.8909124,https://maps.google.com/?cid=0x0:0x5e17424b6c0a6395
supermarket,Toko,Kios Friendly78,"Jl. Pendidikan No.53 Blok D, Benyom Jaya I, Distrik Nimbokrang, Kabupaten Jayapura, Papua 99361","Benyom Jaya I, Distrik Nimbokrang, Kabupaten Jayapura",PAPUA,99361.0,Indonesia,81344142001.0,-2.5511341,140.1094861,https://maps.google.com/?cid=0x0:0xfe82d5c3955e9030
supermarket,Pusat Perbelanjaan,Papua Supermarket  Dept. Store,"4869+F77 Bar, Sawagumu, Kec. Sorong Utara, Kota Sorong, Papua Bar. 98416","Sawagumu, Kec. Sorong Utara, Kota Sorong",PAPUA,98416.0,Indonesia,9513160123.0,-0.888831,131.3181847,https://maps.google.com/?cid=0x0:0x7b5f0926a74ad213
supermarket,Toko umum,Virta mart,"F453+VXF, Benyom Jaya II, Distrik Nimbokrang, Kabupaten Jayapura, Papua 99361","Benyom Jaya II, Distrik Nimbokrang, Kabupaten Jayapura",PAPUA,99361.0,Indonesia,,-2.5403049,140.1049142,https://maps.google.com/?cid=0x0:0xa4400cdcf00e9d85
supermarket,supermarket,Pasar Demta,"Muris Kecil, Distrik Demta, Kabupaten Jayapura, Papua 99354","Distrik Demta, Kabupaten Jayapura",PAPUA,99354.0,Indonesia,,-2.3596458,140.1484895,https://maps.google.com/?cid=0x0:0xcb73cb080626cfad
supermarket,Toko Pakaian,Kios Pondok Ria,"J4VV+QHC, Demta Kota, Distrik Demta, Kabupaten Jayapura, Papua","Kabupaten Jayapura, Papua",PAPUA,,Indonesia,,-2.3555562,140.1439032,https://maps.google.com/?cid=0x0:0x26b3021f0f7c3683
supermarket,Toko,Toko Bangunan Lestari Jaya,"Bunyom, Distrik Nimbokrang, Kabupaten Jayapura, Papua 99361","Distrik Nimbokrang, Kabupaten Jayapura",PAPUA,99361.0,Indonesia,81248093799.0,-2.5574445,140.1144634,https://maps.google.com/?cid=0x0:0xb8c6a63e30cb594a
supermarket,Toko umum,Kios La Ode Andesmok/Muris K.,"J4RX+6HG, Muris Kecil, Distrik Demta, Kabupaten Jayapura, Papua","Kabupaten Jayapura, Papua",PAPUA,,Indonesia,,-2.3594364,140.1489669,https://maps.google.com/?cid=0x0:0x75b5c005618921fb
supermarket,Pusat Perbelanjaan,SAGA YOUTEFA,"9MVG+F3W, Jl. Garuda, Wai Mhorock, Kec. Abepura, Kota Jayapura, Papua 99225","Jl. Garuda, Wai Mhorock, Kec. Abepura, Kota Jayapura",PAPUA,99225.0,Indonesia,,-2.6062656,140.6752002,https://maps.google.com/?cid=0x0:0x3d7019ea8a81a006
supermarket,supermarket,Papua 99364,"Kabupaten Jayapura, Papua","Kabupaten Jayapura, Papua",PAPUA,,Indonesia,,-3.2384616,139.8547266,https://maps.google.com/?cid=0x0:0x2e9677508a097a0f
supermarket,Pusat Perbelanjaan,Papua Supermarket  Dept. Store,"4869+F77 Bar, Sawagumu, Kec. Sorong Utara, Kota Sorong, Papua Bar. 98416","Sawagumu, Kec. Sorong Utara, Kota Sorong",PAPUA,98416.0,Indonesia,9513160123.0,-0.888831,131.3181847,https://maps.google.com/?cid=0x0:0x7b5f0926a74ad213
supermarket,Pusat Perbelanjaan,Saga Jayapura,"Jl. Ahmad Yani, Gurabesi, Kec. Jayapura Utara, Kota Jayapura, Papua 99222","Gurabesi, Kec. Jayapura Utara, Kota Jayapura",PAPUA,99222.0,Indonesia,811480554.0,-2.5433433,140.7016688,https://maps.google.com/?cid=0x0:0x68f0411e320c4afb
supermarket,Pusat Perbelanjaan,SAGA MALL,"Kota Baru, Kec. Abepura, Kota Jayapura, Papua 99351","Kec. Abepura, Kota Jayapura",PAPUA,99351.0,Indonesia,,-2.6105845,140.6654189,https://maps.google.com/?cid=0x0:0xaf65e43ff84ff9e6
supermarket,Toko Swalayan,Saga Supermarket,"CPW3+83X, Ardipura, Distrik Jayapura Selatan, Kota Jayapura, Papua 99222","Ardipura, Distrik Jayapura Selatan, Kota Jayapura",PAPUA,99222.0,Indonesia,,-2.5541438,140.7027385,https://maps.google.com/?cid=0x0:0x287c7b2014785d97
supermarket,Toko Swalayan,SAGA Fresh Dok V,"FP8F+CG5, Mandala, Kec. Jayapura Utara, Kota Jayapura, Papua","Kota Jayapura, Papua",PAPUA,,Indonesia,811481744.0,-2.5339841,140.7238702,https://maps.google.com/?cid=0x0:0x14ea247dbf0373ea
supermarket,Pusat Perbelanjaan,Saga Mart,"9MVG+F44, Jl. Baru Ps. Lama Abepura, Wai Mhorock, Kec. Abepura, Kota Jayapura, Papua 99225","Jl. Baru Ps. Lama Abepura, Wai Mhorock, Kec. Abepura, Kota Jayapura",PAPUA,99225.0,Indonesia,,-2.6063557,140.6753333,https://maps.google.com/?cid=0x0:0x87e41d7df0d8cbcc
supermarket,supermarket,TOKO BERKAH JAYA,"69JJ+6R8, Elelim, Distrik Elelim, Kabupaten Yalimo, Papua 99558","Elelim, Distrik Elelim, Kabupaten Yalimo",PAPUA,99558.0,Indonesia,,-3.7694,139.3819,https://maps.google.com/?cid=0x0:0x34dab20f7d64d941
supermarket,Toko,MITRA JAYA,"53RG+6XC, Ongan Jaya, Yapsi, Kabupaten Jayapura, Papua 99356","Ongan Jaya, Yapsi, Kabupaten Jayapura",PAPUA,99356.0,Indonesia,,-2.8094379,140.0773832,https://maps.google.com/?cid=0x0:0x6162539844a2cb3b
supermarket,Toko Swalayan,Hadi Supermarket  Dept. Store,"Jl. Imam Bonjol No.56, Fandoi, Kec. Biak Kota, Kabupaten Biak Numfor, Papua 98111","Fandoi, Kec. Biak Kota, Kabupaten Biak Numfor",PAPUA,98111.0,Indonesia,,-1.1800003,136.0824788,https://maps.google.com/?cid=0x0:0xdcad74b4384219ee
supermarket,Toko bahan makanan,Depot Hafidz,"54Q2+G98, Jalur I, kampung Taqwa Bangun, Yapsi, Kabupaten Jayapura, Papua","Kabupaten Jayapura, Papua",PAPUA,,Indonesia,,-2.811221,140.1009527,https://maps.google.com/?cid=0x0:0xc7fefc191b9008ee
supermarket,Kios,PUTRI HARAPAN,"Kampung Harapan, Nolokla, Kec. Sentani Tim., Kabupaten Jayapura, Papua 99359","Nolokla, Kec. Sentani Tim., Kabupaten Jayapura",PAPUA,99359.0,Indonesia,81240269445.0,-2.5821407,140.5760456,https://maps.google.com/?cid=0x0:0xe01c95d2c3c67b82
supermarket,supermarket,Saga supermarket,"FF58+VFQ, Jl. Raya Doyo Baru, Doyo Baru, Distrik Waibu, Kabupaten Jayapura, Papua 99352","Jl. Raya Doyo Baru, Doyo Baru, Distrik Waibu, Kabupaten Jayapura",PAPUA,99352.0,Indonesia,,-2.5403227,140.4662068,https://maps.google.com/?cid=0x0:0xbae885efbed8833b
supermarket,supermarket,Papua 99352,"Kabupaten Jayapura, Papua","Kabupaten Jayapura, Papua",PAPUA,,Indonesia,,-2.5683577,140.4618316,https://maps.google.com/?cid=0x0:0xc4bf3fc2f14cfb38
supermarket,Toko Swalayan,Kios Hafissa,"FF56+CW7, Doyo Baru, Distrik Waibu, Kabupaten Jayapura, Papua 99352","Doyo Baru, Distrik Waibu, Kabupaten Jayapura",PAPUA,99352.0,Indonesia,81328296712.0,-2.5414713,140.4623099,https://maps.google.com/?cid=0x0:0xd8475b3012251bb3
supermarket,Toko bahan makanan,Toko Rivenda,"CGM5+VCX, Sentani Kota, Kec. Sentani, Kabupaten Jayapura, Papua 99359","Sentani Kota, Kec. Sentani, Kabupaten Jayapura",PAPUA,99359.0,Indonesia,81248094201.0,-2.5652689,140.5086196,https://maps.google.com/?cid=0x0:0x7b798b1b565a82fa
supermarket,Pusat Perbelanjaan,EFATA MART,"FF66+9G2, Doyo Baru, Distrik Waibu, Kabupaten Jayapura, Papua 99352","Doyo Baru, Distrik Waibu, Kabupaten Jayapura",PAPUA,99352.0,Indonesia,,-2.5391147,140.4612526,https://maps.google.com/?cid=0x0:0xbd22305794a06316
supermarket,Pusat Perbelanjaan,UBM MART 2,"Jl. Ps. Lama Sentani, Hinekombe, Kec. Sentani, Kabupaten Jayapura, Papua 99359","Hinekombe, Kec. Sentani, Kabupaten Jayapura",PAPUA,99359.0,Indonesia,81247020031.0,-2.5678311,140.5048592,https://maps.google.com/?cid=0x0:0xda798cda0e3bb5c0
supermarket,Toko,Rejeki Mart,"Jl. Youmakhe No.446, Hinekombe, Kec. Sentani, Kabupaten Jayapura, Papua 99352","Hinekombe, Kec. Sentani, Kabupaten Jayapura",PAPUA,99352.0,Indonesia,,-2.5618009,140.4937649,https://maps.google.com/?cid=0x0:0x11f61376bc98b224
supermarket,Minimarket,Victory Swalayan,"Jl. Raya Kemiri No.330, Hinekombe, Kec. Sentani, Kabupaten Jayapura, Papua 99359","Hinekombe, Kec. Sentani, Kabupaten Jayapura",PAPUA,99359.0,Indonesia,,-2.5650192,140.5059407,https://maps.google.com/?cid=0x0:0x9fc3fb75accf6014
supermarket,Toko bahan makanan,KERAMBA PANPER,"Unnamed Road, Doyo Lama, Distrik Waibu, Kabupaten Jayapura, Papua 99352","Doyo Lama, Distrik Waibu, Kabupaten Jayapura",PAPUA,99352.0,Indonesia,82397758140.0,-2.5723817,140.4535468,https://maps.google.com/?cid=0x0:0x99681cfd0f029c29
supermarket,Pembangunan Perumahan,Hollandia Deli Freshmart,"Jl. Raya Kemiri No.53, Hinekombe, Kec. Sentani, Kabupaten Jayapura, Papua 99352","Hinekombe, Kec. Sentani, Kabupaten Jayapura",PAPUA,99352.0,Indonesia,885339228167.0,-2.5646542,140.5058666,https://maps.google.com/?cid=0x0:0xe7b60db06a79ab3d
supermarket,Toko,Wellang Jaya 3,"FF2F+WFW, Unnamed Road, Doyo Baru, Distrik Waibu, Kabupaten Jayapura, Papua 99352","Unnamed Road, Doyo Baru, Distrik Waibu, Kabupaten Jayapura",PAPUA,99352.0,Indonesia,85222208855.0,-2.5476255,140.4736946,https://maps.google.com/?cid=0x0:0xfb3ca6c95e0d23cc
supermarket,Pusat Perbelanjaan,ICE MART,"Jl yowanibi polres, Doyo Baru, Distrik Waibu, Kabupaten Jayapura, Papua 99368","Doyo Baru, Distrik Waibu, Kabupaten Jayapura",PAPUA,99368.0,Indonesia,82236765310.0,-2.5466705,140.4580376,https://maps.google.com/?cid=0x0:0xee2b858b5102c5eb
supermarket,Toko Swalayan,TOKO ROBINSON,"FF67+9J2, Doyo Baru, Distrik Waibu, Kabupaten Jayapura, Papua 99352","Doyo Baru, Distrik Waibu, Kabupaten Jayapura",PAPUA,99352.0,Indonesia,,-2.5391249,140.464018,https://maps.google.com/?cid=0x0:0x16eedf73b93a10fb
supermarket,Minimarket,Toko Nadhya,"Doyo Baru, Distrik Waibu, Kabupaten Jayapura, Papua 99352","Distrik Waibu, Kabupaten Jayapura",PAPUA,99352.0,Indonesia,81231065550.0,-2.5421391,140.4599328,https://maps.google.com/?cid=0x0:0x8f04a1373255c3ff
supermarket,supermarket,Papua 99358,"Kabupaten Jayapura, Papua","Kabupaten Jayapura, Papua",PAPUA,,Indonesia,,-2.5423787,140.3894858,https://maps.google.com/?cid=0x0:0xe811437fcb2474bb
supermarket,supermarket,Saga supermarket,"FF58+VFQ, Jl. Raya Doyo Baru, Doyo Baru, Distrik Waibu, Kabupaten Jayapura, Papua 99352","Jl. Raya Doyo Baru, Doyo Baru, Distrik Waibu, Kabupaten Jayapura",PAPUA,99352.0,Indonesia,,-2.5403227,140.4662068,https://maps.google.com/?cid=0x0:0xbae885efbed8833b
supermarket,Toko Swalayan,Kios Hafissa,"FF56+CW7, Doyo Baru, Distrik Waibu, Kabupaten Jayapura, Papua 99352","Doyo Baru, Distrik Waibu, Kabupaten Jayapura",PAPUA,99352.0,Indonesia,81328296712.0,-2.5414713,140.4623099,https://maps.google.com/?cid=0x0:0xd8475b3012251bb3
supermarket,Toko bahan makanan,KERAMBA PANPER,"Unnamed Road, Doyo Lama, Distrik Waibu, Kabupaten Jayapura, Papua 99352","Doyo Lama, Distrik Waibu, Kabupaten Jayapura",PAPUA,99352.0,Indonesia,82397758140.0,-2.5723817,140.4535468,https://maps.google.com/?cid=0x0:0x99681cfd0f029c29
supermarket,Toko bahan makanan,KIOS HENLI,"FC8V+QWR, Jl. Raya Doyo Baru, Bambar, Distrik Waibu, Kabupaten Jayapura, Papua 99358","Jl. Raya Doyo Baru, Bambar, Distrik Waibu, Kabupaten Jayapura",PAPUA,99358.0,Indonesia,81247211655.0,-2.5330216,140.4447724,https://maps.google.com/?cid=0x0:0xc3df8db45dde2cbb
supermarket,Minimarket,Victory Swalayan,"Jl. Raya Kemiri No.330, Hinekombe, Kec. Sentani, Kabupaten Jayapura, Papua 99359","Hinekombe, Kec. Sentani, Kabupaten Jayapura",PAPUA,99359.0,Indonesia,,-2.5650192,140.5059407,https://maps.google.com/?cid=0x0:0x9fc3fb75accf6014
supermarket,Kios,Kios Karimah Jaya,"FCHF+QW2, Sabron Sari, Distrik Sentani Barat, Kabupaten Jayapura, Papua 99358","Sabron Sari, Distrik Sentani Barat, Kabupaten Jayapura",PAPUA,99358.0,Indonesia,,-2.5206229,140.4247731,https://maps.google.com/?cid=0x0:0x3484faadcbf0246
supermarket,Kios,Mandiri agen,"FF33+GWR, Doyo Baru, Distrik Waibu, Kabupaten Jayapura, Papua 99352","Doyo Baru, Distrik Waibu, Kabupaten Jayapura",PAPUA,99352.0,Indonesia,,-2.5461031,140.4550036,https://maps.google.com/?cid=0x0:0x998b439d3d7b6529
supermarket,Toko Swalayan,TOKO ROBINSON,"FF67+9J2, Doyo Baru, Distrik Waibu, Kabupaten Jayapura, Papua 99352","Doyo Baru, Distrik Waibu, Kabupaten Jayapura",PAPUA,99352.0,Indonesia,,-2.5391249,140.464018,https://maps.google.com/?cid=0x0:0x16eedf73b93a10fb
supermarket,Minimarket,Toko Nadhya,"Doyo Baru, Distrik Waibu, Kabupaten Jayapura, Papua 99352","Distrik Waibu, Kabupaten Jayapura",PAPUA,99352.0,Indonesia,81231065550.0,-2.5421391,140.4599328,https://maps.google.com/?cid=0x0:0x8f04a1373255c3ff
supermarket,Toko Swalayan,Toko Raya Abadi,"FF46+RH6, Unnamed Road, Doyo Baru, Distrik Waibu, Kabupaten Jayapura, Papua 99352","Unnamed Road, Doyo Baru, Distrik Waibu, Kabupaten Jayapura",PAPUA,99352.0,Indonesia,,-2.5429547,140.4614047,https://maps.google.com/?cid=0x0:0xa09b605ece7ff816
supermarket,Toko Swalayan,Kascha Mart,"CGM3+7X9, Jl. Ps. Lama Sentani, Hinekombe, Kec. Sentani, Kabupaten Jayapura, Papua 99359","Jl. Ps. Lama Sentani, Hinekombe, Kec. Sentani, Kabupaten Jayapura",PAPUA,99359.0,Indonesia,85343434343.0,-2.5668307,140.5049944,https://maps.google.com/?cid=0x0:0x3c4994837b4d4778
supermarket,Toko bahan makanan,Kios RR,"Doyo Baru, Distrik Waibu, Kabupaten Jayapura, Papua 99352","Distrik Waibu, Kabupaten Jayapura",PAPUA,99352.0,Indonesia,81344421966.0,-2.5466402,140.4562124,https://maps.google.com/?cid=0x0:0xd9a32a3741a0e75
supermarket,Kios,KIOS BAGUS,"Doyo Lama, Distrik Waibu, Kabupaten Jayapura, Papua","Kabupaten Jayapura, Papua",PAPUA,,Indonesia,81370717071.0,-2.5632465,140.4676026,https://maps.google.com/?cid=0x0:0x2a73722a3f522df0
supermarket,supermarket,Papua 99361,"Kabupaten Jayapura, Papua","Kabupaten Jayapura, Papua",PAPUA,,Indonesia,,-2.5921274,140.059845,https://maps.google.com/?cid=0x0:0xe7cd882fece4c0b1
supermarket,supermarket,Yapsi,"Kabupaten Jayapura, Papua","Kabupaten Jayapura, Papua",PAPUA,,Indonesia,,-2.811221,140.1009527,https://maps.google.com/?cid=0x0:0xaec96b36c4ad9a90
supermarket,Toko bahan makanan,Depot Hafidz,"54Q2+G98, Jalur I, kampung Taqwa Bangun, Yapsi, Kabupaten Jayapura, Papua","Kabupaten Jayapura, Papua",PAPUA,,Indonesia,,-2.811221,140.1009527,https://maps.google.com/?cid=0x0:0xc7fefc191b9008ee
supermarket,Toko,MITRA JAYA,"53RG+6XC, Ongan Jaya, Yapsi, Kabupaten Jayapura, Papua 99356","Ongan Jaya, Yapsi, Kabupaten Jayapura",PAPUA,99356.0,Indonesia,,-2.8094379,140.0773832,https://maps.google.com/?cid=0x0:0x6162539844a2cb3b
supermarket,Minimarket,Warung Anggi,"RMJ3+H2F, Jl. Al-Muhajirin 4, RT.001/RW.006, Tanah Tinggi, Kec. Tangerang, Kota Tangerang, Banten 15119","Jl. Al-Muhajirin 4, RT.001/RW.006, Tanah Tinggi, Kec. Tangerang, Kota Tangerang",PAPUA,15119.0,Indonesia,81314702075.0,-6.168562,106.652542,https://maps.google.com/?cid=0x0:0xf8b64736420b38fd
supermarket,supermarket,Airu,"Kabupaten Jayapura, Papua","Kabupaten Jayapura, Papua",PAPUA,,Indonesia,,-3.5753077,140.265662,https://maps.google.com/?cid=0x0:0x84b595ca2a102cef
supermarket,Pusat jajanan kaki lima,Papuanmart,"Furia polda, Jl. Perkutut Jalur 4 No.164, Wahno, Kec. Abepura, Kota Jayapura, Papua 99224","Jl. Perkutut Jalur 4 No.164, Wahno, Kec. Abepura, Kota Jayapura",PAPUA,99224.0,Indonesia,,-2.5936297,140.6745825,https://maps.google.com/?cid=0x0:0x820b246032d165c5
supermarket,Kios,Kios Karimah Jaya,"FCHF+QW2, Sabron Sari, Distrik Sentani Barat, Kabupaten Jayapura, Papua 99358","Sabron Sari, Distrik Sentani Barat, Kabupaten Jayapura",PAPUA,99358.0,Indonesia,,-2.5206229,140.4247731,https://maps.google.com/?cid=0x0:0x3484faadcbf0246
supermarket,supermarket,Asraf Kios,"FF49+2Q3, Doyo Baru, Distrik Waibu, Kabupaten Jayapura, Papua 99352","Doyo Baru, Distrik Waibu, Kabupaten Jayapura",PAPUA,99352.0,Indonesia,,-2.5449813,140.4694296,https://maps.google.com/?cid=0x0:0xe575bec370b610a5
supermarket,Toko Swalayan,kios asifa jaya,"G9P8+VQW, Waiya, Distrik Depapre, Kabupaten Jayapura, Papua 99353","Waiya, Distrik Depapre, Kabupaten Jayapura",PAPUA,99353.0,Indonesia,,-2.4627673,140.3669457,https://maps.google.com/?cid=0x0:0x4e3f1dd141cbc528
supermarket,Cagar Alam,Depapre,"Waiya, Distrik Depapre, Kabupaten Jayapura, Papua 99353","Distrik Depapre, Kabupaten Jayapura",PAPUA,99353.0,Indonesia,967536161.0,-2.4634125,140.3660779,https://maps.google.com/?cid=0x0:0x50fbd732ed5f5ad9
supermarket,supermarket,Papua 99353,"Kabupaten Jayapura, Papua","Kabupaten Jayapura, Papua",PAPUA,,Indonesia,,-2.4345515,140.4101474,https://maps.google.com/?cid=0x0:0xae8b3e09ee92fb9d
supermarket,Toko bahan makanan,Toko Rivenda,"CGM5+VCX, Sentani Kota, Kec. Sentani, Kabupaten Jayapura, Papua 99359","Sentani Kota, Kec. Sentani, Kabupaten Jayapura",PAPUA,99359.0,Indonesia,81248094201.0,-2.5652689,140.5086196,https://maps.google.com/?cid=0x0:0x7b798b1b565a82fa
supermarket,Kios,Toko Kelontong NiNoVia,"HF2W+J78, Yongsu Dosoyo, Ravenirara, Kabupaten Jayapura, Papua","Kabupaten Jayapura, Papua",PAPUA,,Indonesia,,-2.4484684,140.4956959,https://maps.google.com/?cid=0x0:0x6b81f859941177c9
supermarket,Toko Swalayan,Kascha Mart,"CGM3+7X9, Jl. Ps. Lama Sentani, Hinekombe, Kec. Sentani, Kabupaten Jayapura, Papua 99359","Jl. Ps. Lama Sentani, Hinekombe, Kec. Sentani, Kabupaten Jayapura",PAPUA,99359.0,Indonesia,85343434343.0,-2.5668307,140.5049944,https://maps.google.com/?cid=0x0:0x3c4994837b4d4778
supermarket,Pusat jajanan kaki lima,Papuanmart,"Furia polda, Jl. Perkutut Jalur 4 No.164, Wahno, Kec. Abepura, Kota Jayapura, Papua 99224","Jl. Perkutut Jalur 4 No.164, Wahno, Kec. Abepura, Kota Jayapura",PAPUA,99224.0,Indonesia,,-2.5936297,140.6745825,https://maps.google.com/?cid=0x0:0x820b246032d165c5
supermarket,Pusat Perbelanjaan,SAGA Fresh Sentani,"Jl. Raya Kemiri No.53, Hinekombe, Kec. Sentani, Kabupaten Jayapura, Papua 99352","Hinekombe, Kec. Sentani, Kabupaten Jayapura",PAPUA,99352.0,Indonesia,85254209294.0,-2.5656761,140.5137196,https://maps.google.com/?cid=0x0:0x9a37f48032364949
supermarket,Toko bahan makanan,KERAMBA PANPER,"Unnamed Road, Doyo Lama, Distrik Waibu, Kabupaten Jayapura, Papua 99352","Doyo Lama, Distrik Waibu, Kabupaten Jayapura",PAPUA,99352.0,Indonesia,82397758140.0,-2.5723817,140.4535468,https://maps.google.com/?cid=0x0:0x99681cfd0f029c29
supermarket,Kios,Kios Karimah Jaya,"FCHF+QW2, Sabron Sari, Distrik Sentani Barat, Kabupaten Jayapura, Papua 99358","Sabron Sari, Distrik Sentani Barat, Kabupaten Jayapura",PAPUA,99358.0,Indonesia,,-2.5206229,140.4247731,https://maps.google.com/?cid=0x0:0x3484faadcbf0246
supermarket,Toko Swalayan,Kios Hafissa,"FF56+CW7, Doyo Baru, Distrik Waibu, Kabupaten Jayapura, Papua 99352","Doyo Baru, Distrik Waibu, Kabupaten Jayapura",PAPUA,99352.0,Indonesia,81328296712.0,-2.5414713,140.4623099,https://maps.google.com/?cid=0x0:0xd8475b3012251bb3
supermarket,supermarket,Saga supermarket,"FF58+VFQ, Jl. Raya Doyo Baru, Doyo Baru, Distrik Waibu, Kabupaten Jayapura, Papua 99352","Jl. Raya Doyo Baru, Doyo Baru, Distrik Waibu, Kabupaten Jayapura",PAPUA,99352.0,Indonesia,,-2.5403227,140.4662068,https://maps.google.com/?cid=0x0:0xbae885efbed8833b
supermarket,Kios,Toko Azzahra,"CFQV+RRP, Jl. Raya Kemiri, Hinekombe, Kec. Sentani, Kabupaten Jayapura, Papua 99352","Jl. Raya Kemiri, Hinekombe, Kec. Sentani, Kabupaten Jayapura",PAPUA,99352.0,Indonesia,,-2.5604035,140.4945903,https://maps.google.com/?cid=0x0:0xd1b0eab0e407bd5
supermarket,Toko,Rian Cell Kertosari,"FCHF+FJR, Sabron Sari, Distrik Sentani Barat, Kabupaten Jayapura, Papua 99358","Sabron Sari, Distrik Sentani Barat, Kabupaten Jayapura",PAPUA,99358.0,Indonesia,85244586123.0,-2.5212547,140.4240058,https://maps.google.com/?cid=0x0:0x3bb5aa80c5055f3c
supermarket,Sekolah,Grime Store,"Ibub, Distrik Kemtuk Gresi, Kabupaten Jayapura, Papua 99361","Distrik Kemtuk Gresi, Kabupaten Jayapura",PAPUA,99361.0,Indonesia,,-2.6159615,140.2166125,https://maps.google.com/?cid=0x0:0x4ce597a3aaebca04
supermarket,supermarket,Distrik Gresi Selatan,"Kabupaten Jayapura, Papua","Kabupaten Jayapura, Papua",PAPUA,,Indonesia,,-2.641859,140.1829593,https://maps.google.com/?cid=0x0:0x3d361b435e9393d5
supermarket,Toko Swalayan,Saga Supermarket,"CPW3+83X, Ardipura, Distrik Jayapura Selatan, Kota Jayapura, Papua 99222","Ardipura, Distrik Jayapura Selatan, Kota Jayapura",PAPUA,99222.0,Indonesia,,-2.5541438,140.7027385,https://maps.google.com/?cid=0x0:0x287c7b2014785d97
supermarket,Pusat Perbelanjaan,SAGA YOUTEFA,"9MVG+F3W, Jl. Garuda, Wai Mhorock, Kec. Abepura, Kota Jayapura, Papua 99225","Jl. Garuda, Wai Mhorock, Kec. Abepura, Kota Jayapura",PAPUA,99225.0,Indonesia,,-2.6062656,140.6752002,https://maps.google.com/?cid=0x0:0x3d7019ea8a81a006
supermarket,Pusat Perbelanjaan,Saga Jayapura,"Jl. Ahmad Yani, Gurabesi, Kec. Jayapura Utara, Kota Jayapura, Papua 99222","Gurabesi, Kec. Jayapura Utara, Kota Jayapura",PAPUA,99222.0,Indonesia,811480554.0,-2.5433433,140.7016688,https://maps.google.com/?cid=0x0:0x68f0411e320c4afb
supermarket,Toko Swalayan,SAGA Fresh Dok V,"FP8F+CG5, Mandala, Kec. Jayapura Utara, Kota Jayapura, Papua","Kota Jayapura, Papua",PAPUA,,Indonesia,811481744.0,-2.5339841,140.7238702,https://maps.google.com/?cid=0x0:0x14ea247dbf0373ea
supermarket,Pusat Perbelanjaan,Saga Mart,"9MVG+F44, Jl. Baru Ps. Lama Abepura, Wai Mhorock, Kec. Abepura, Kota Jayapura, Papua 99225","Jl. Baru Ps. Lama Abepura, Wai Mhorock, Kec. Abepura, Kota Jayapura",PAPUA,99225.0,Indonesia,,-2.6063557,140.6753333,https://maps.google.com/?cid=0x0:0x87e41d7df0d8cbcc
supermarket,Pusat Perbelanjaan,Papua Supermarket  Dept. Store,"4869+F77 Bar, Sawagumu, Kec. Sorong Utara, Kota Sorong, Papua Bar. 98416","Sawagumu, Kec. Sorong Utara, Kota Sorong",PAPUA,98416.0,Indonesia,9513160123.0,-0.888831,131.3181847,https://maps.google.com/?cid=0x0:0x7b5f0926a74ad213
supermarket,Pusat Perbelanjaan,SAGA MALL,"Kota Baru, Kec. Abepura, Kota Jayapura, Papua 99351","Kec. Abepura, Kota Jayapura",PAPUA,99351.0,Indonesia,,-2.6105845,140.6654189,https://maps.google.com/?cid=0x0:0xaf65e43ff84ff9e6
supermarket,Toko Swalayan,SAGA WAENA,"CJ3M+HQ8, Jl. Raya Abepura - Sentani, Kp. Waena, Kec. Heram, Kota Jayapura, Papua 99225","Jl. Raya Abepura - Sentani, Kp. Waena, Kec. Heram, Kota Jayapura",PAPUA,99225.0,Indonesia,,-2.5961192,140.6345177,https://maps.google.com/?cid=0x0:0xbe5416ad4f79e596
supermarket,Toko Swalayan,Hadi Supermarket  Dept. Store,"Jl. Imam Bonjol No.56, Fandoi, Kec. Biak Kota, Kabupaten Biak Numfor, Papua 98111","Fandoi, Kec. Biak Kota, Kabupaten Biak Numfor",PAPUA,98111.0,Indonesia,,-1.1800003,136.0824788,https://maps.google.com/?cid=0x0:0xdcad74b4384219ee
supermarket,Toko Swalayan,Kios Lopesz,"87X9+93C, Damoi Kati, Distrik Kemtuk Gresi, Kabupaten Jayapura, Papua 99357","Damoi Kati, Distrik Kemtuk Gresi, Kabupaten Jayapura",PAPUA,99357.0,Indonesia,82197728700.0,-2.6514219,140.2666187,https://maps.google.com/?cid=0x0:0x9e2b9e417b458e9a
supermarket,Kios,Sukses Jaya,"C538+2CQ, Tabri, Distrik Nimboran, Kabupaten Jayapura, Papua 99361","Tabri, Distrik Nimboran, Kabupaten Jayapura",PAPUA,99361.0,Indonesia,82399767975.0,-2.5974037,140.1661092,https://maps.google.com/?cid=0x0:0x47f5f0ebaf3de11e
supermarket,Pusat Perbelanjaan,Loka Supermarket,"JF2P+JV6, Jalan Topo, wadio, Bumi Wonorejo, Distrik Nabire, Kabupaten Nabire, Papua 98813","Jalan Topo, wadio, Bumi Wonorejo, Distrik Nabire, Kabupaten Nabire",PAPUA,98813.0,Indonesia,98424688.0,-3.3984625,135.4871406,https://maps.google.com/?cid=0x0:0x79cd9d7b246fedb4
supermarket,supermarket,Papua 99354,"Kabupaten Jayapura, Papua","Kabupaten Jayapura, Papua",PAPUA,,Indonesia,,-2.425843,140.1626664,https://maps.google.com/?cid=0x0:0xed2e9d28341a8606
supermarket,Toko Pakaian,Kios Pondok Ria,"J4VV+QHC, Demta Kota, Distrik Demta, Kabupaten Jayapura, Papua","Kabupaten Jayapura, Papua",PAPUA,,Indonesia,,-2.3555562,140.1439032,https://maps.google.com/?cid=0x0:0x26b3021f0f7c3683
supermarket,Toko,Kios Kembar,"Blok D, Benyom Jaya I, Distrik Nimbokrang, Kabupaten Jayapura, Papua 99361","Benyom Jaya I, Distrik Nimbokrang, Kabupaten Jayapura",PAPUA,99361.0,Indonesia,82239039858.0,-2.5434513,140.1336681,https://maps.google.com/?cid=0x0:0x887233e295ff279c
supermarket,Toko,Kios Friendly78,"Jl. Pendidikan No.53 Blok D, Benyom Jaya I, Distrik Nimbokrang, Kabupaten Jayapura, Papua 99361","Benyom Jaya I, Distrik Nimbokrang, Kabupaten Jayapura",PAPUA,99361.0,Indonesia,81344142001.0,-2.5511341,140.1094861,https://maps.google.com/?cid=0x0:0xfe82d5c3955e9030
supermarket,Toko umum,Virta mart,"F453+VXF, Benyom Jaya II, Distrik Nimbokrang, Kabupaten Jayapura, Papua 99361","Benyom Jaya II, Distrik Nimbokrang, Kabupaten Jayapura",PAPUA,99361.0,Indonesia,,-2.5403049,140.1049142,https://maps.google.com/?cid=0x0:0xa4400cdcf00e9d85
