Category,Real Category,Business Name,Address,City,State,Postal Code,Country,Phone,Latitude,Longitude,Map Link
perumahan,Pembangunan Perumahan,PERUMAHAN SENTANI RESIDENCE,"CFPV+J8G, Jl. Youmakhe, Hinekombe, Kec. Sentani, Kabupaten Jayapura, Papua 99352","Jl. Youmakhe, Hinekombe, Kec. Sentani, Kabupaten Jayapura",PAPUA,99352.0,Indonesia,,-2.5634317,140.4933143,https://maps.google.com/?cid=0x0:0x4299ac5f715de561
perumahan,perumahan,Papua 99352,"Kabupaten Jayapura, Papua","Kabupaten Jayapura, Papua",PAPUA,,Indonesia,,-2.5683577,140.4618316,https://maps.google.com/?cid=0x0:0xc4bf3fc2f14cfb38
perumahan,Komplek perumahan,KOMPLEK PERUMAHAN JOKO INDAH SENTANI,"BTN JOKO INDAH Blk. E No.12, Yahim, Kec. Sentani, Kabupaten Jayapura, Papua 99352","Yahim, Kec. Sentani, Kabupaten Jayapura",PAPUA,99352.0,Indonesia,81344958171.0,-2.5788915,140.5015449,https://maps.google.com/?cid=0x0:0x5b0eeae30e321e4b
perumahan,Gedung Apartemen,PERUMAHAN BAHANA PERSADA SENTANI,"CFQF+2FG, Hinekombe, Kec. Sentani, Kabupaten Jayapura, Papua 99352","Hinekombe, Kec. Sentani, Kabupaten Jayapura",PAPUA,99352.0,Indonesia,81343437719.0,-2.5624466,140.4737007,https://maps.google.com/?cid=0x0:0x5648fc0a2db5deba
perumahan,Komplek perumahan,Perumahan Cinta Kasih Tzu Chi Sentani,"FF2J+5X7, Jl. Raya Kemiri, Hinekombe, Kec. Sentani, Kabupaten Jayapura, Papua 99352","Jl. Raya Kemiri, Hinekombe, Kec. Sentani, Kabupaten Jayapura",PAPUA,99352.0,Indonesia,,-2.5495976,140.4824216,https://maps.google.com/?cid=0x0:0x5c19a7b7511a45df
perumahan,Komplek perumahan,Perumahan citra buana,"Jl. Kehiran, Dobonsolo, Kec. Sentani, Kabupaten Jayapura, Papua 99359","Dobonsolo, Kec. Sentani, Kabupaten Jayapura",PAPUA,99359.0,Indonesia,81248536741.0,-2.5720334,140.5000166,https://maps.google.com/?cid=0x0:0x6dfb35842ce9b2ee
perumahan,Komplek perumahan,Perumahan residen 2,"Jl. Raya Kemiri No.161, Hinekombe, Kec. Sentani, Kabupaten Jayapura, Papua 99352","Hinekombe, Kec. Sentani, Kabupaten Jayapura",PAPUA,99352.0,Indonesia,,-2.5569205,140.4929143,https://maps.google.com/?cid=0x0:0xd1c74256a49582da
perumahan,Komplek perumahan,Perumahan Griya Cycloop Kemiri,"CFWQ+V9Q, Hinekombe, Kec. Sentani, Kabupaten Jayapura, Papua 99352","Hinekombe, Kec. Sentani, Kabupaten Jayapura",PAPUA,99352.0,Indonesia,,-2.5527853,140.4884809,https://maps.google.com/?cid=0x0:0xd41cf8ac3f74d45a
perumahan,Pembangunan Perumahan,Perumahan doyo asri,"FF47+88H, Jl.daime daime, Doyo Baru, Kec. Sentani, Kabupaten Jayapura, Papua 99352","Jl.daime daime, Doyo Baru, Kec. Sentani, Kabupaten Jayapura",PAPUA,99352.0,Indonesia,83876690412.0,-2.5441951,140.4633663,https://maps.google.com/?cid=0x0:0xb496808fff8e9a44
perumahan,Komplek perumahan,Perumahan Sentani regency II Sentani Indah,"CGHC+5FW, Sentani Kota, Kec. Sentani, Kabupaten Jayapura, Papua 99359","Sentani Kota, Kec. Sentani, Kabupaten Jayapura",PAPUA,99359.0,Indonesia,,-2.5722862,140.5215834,https://maps.google.com/?cid=0x0:0xcc34f295a2ed0231
perumahan,Komplek perumahan,RUMAH NAILA,"FF57+9F7, Doyo Baru, Kec. Sentani, Kabupaten Jayapura, Papua 99352","Doyo Baru, Kec. Sentani, Kabupaten Jayapura",PAPUA,99352.0,Indonesia,,-2.5415421,140.4641458,https://maps.google.com/?cid=0x0:0x3ef1dd396fff0b8f
perumahan,Komplek perumahan,Perumahan SKB Kemiri,"CFVQ+2R7, Jl. Raya Kemiri, Hinekombe, Kec. Sentani, Kabupaten Jayapura, Papua 99352","Jl. Raya Kemiri, Hinekombe, Kec. Sentani, Kabupaten Jayapura",PAPUA,99352.0,Indonesia,82198052405.0,-2.5574627,140.4895498,https://maps.google.com/?cid=0x0:0x8f574e38c297feab
perumahan,Komplek perumahan,Rumah Sentania,"FF48+X62, Doyo Baru, Distrik Waibu, Kabupaten Jayapura, Papua 99352","Doyo Baru, Distrik Waibu, Kabupaten Jayapura",PAPUA,99352.0,Indonesia,,-2.5423137,140.4651963,https://maps.google.com/?cid=0x0:0xe4a92ec325f0e124
perumahan,Penyelenggara Perjalanan,GRIYA RASEN,"BTN Griya Rasen, Hinekombe, Kec. Sentani, Kabupaten Jayapura, Papua 99352","Hinekombe, Kec. Sentani, Kabupaten Jayapura",PAPUA,99352.0,Indonesia,,-2.5563329,140.4888943,https://maps.google.com/?cid=0x0:0x89d7b12c955b6c8b
perumahan,perumahan,Papua 99359,"Kabupaten Jayapura, Papua","Kabupaten Jayapura, Papua",PAPUA,,Indonesia,,-2.5632464,140.534262,https://maps.google.com/?cid=0x0:0x15522b545274ab16
perumahan,Komplek perumahan,Perumahan citra buana,"Jl. Kehiran, Dobonsolo, Kec. Sentani, Kabupaten Jayapura, Papua 99359","Dobonsolo, Kec. Sentani, Kabupaten Jayapura",PAPUA,99359.0,Indonesia,81248536741.0,-2.5720334,140.5000166,https://maps.google.com/?cid=0x0:0x6dfb35842ce9b2ee
perumahan,Komplek perumahan,Perumahan Dunlop,"CGJG+J7C, Jl. Raya Airport Sentani, Sentani Kota, Kec. Sentani, Kabupaten Jayapura, Papua 99359","Jl. Raya Airport Sentani, Sentani Kota, Kec. Sentani, Kabupaten Jayapura",PAPUA,99359.0,Indonesia,,-2.5684424,140.5256263,https://maps.google.com/?cid=0x0:0x192721ba1ec52ed7
perumahan,Otoritas Perumahan,Perumahan permata hijau,"Blk. G No.11, Dobonsolo, Kec. Sentani, Kabupaten Jayapura, Papua 99359","Dobonsolo, Kec. Sentani, Kabupaten Jayapura",PAPUA,99359.0,Indonesia,8114868559.0,-2.5711183,140.4987618,https://maps.google.com/?cid=0x0:0x38660870cf1dfb17
perumahan,Perumahan,BTN Citra Buana 1 Blok B no.64,"CGG2+J7P, Jl. Kehiran, Dobonsolo, Kec. Sentani, Kabupaten Jayapura, Papua 99359","Jl. Kehiran, Dobonsolo, Kec. Sentani, Kabupaten Jayapura",PAPUA,99359.0,Indonesia,,-2.5734026,140.5006927,https://maps.google.com/?cid=0x0:0xee1a2a05359db171
perumahan,Komplek perumahan,Perumahan Anha Helem Foi,"CGGM+R5W, Sentani Kota, Kec. Sentani, Kabupaten Jayapura, Papua 99359","Sentani Kota, Kec. Sentani, Kabupaten Jayapura",PAPUA,99359.0,Indonesia,,-2.572878,140.5329538,https://maps.google.com/?cid=0x0:0xbf83025349da6fb0
perumahan,Komplek perumahan,RUMAH INNO,"Jl. Pasir, Sentani Kota, Kec. Sentani, Kabupaten Jayapura, Papua 99359","Sentani Kota, Kec. Sentani, Kabupaten Jayapura",PAPUA,99359.0,Indonesia,,-2.5697264,140.5196984,https://maps.google.com/?cid=0x0:0xd9aed1084dc77a11
perumahan,Komplek perumahan,Rumah Phulakoy,"CGHC+VH5, Sentani Kota, Kec. Sentani, Kabupaten Jayapura, Papua 99359","Sentani Kota, Kec. Sentani, Kabupaten Jayapura",PAPUA,99359.0,Indonesia,,-2.5703553,140.5214939,https://maps.google.com/?cid=0x0:0x21c7354cb9bed7d5
perumahan,Komplek perumahan,Ini rumah opan,"CGM9+FM, Sentani Kota, Kec. Sentani, Kabupaten Jayapura, Papua 99359","Sentani Kota, Kec. Sentani, Kabupaten Jayapura",PAPUA,99359.0,Indonesia,,-2.5663986,140.5190185,https://maps.google.com/?cid=0x0:0xd526acd219d9f633
perumahan,Komplek perumahan,Perumahan BTN Ariau,"CGFJ+F67, Jl. Ebabu, Sentani Kota, Kec. Sentani, Kabupaten Jayapura, Papua 99359","Jl. Ebabu, Sentani Kota, Kec. Sentani, Kabupaten Jayapura",PAPUA,99359.0,Indonesia,,-2.576332,140.5305328,https://maps.google.com/?cid=0x0:0x5435a7ac93fd4c4f
perumahan,Komplek perumahan,Perumahan Pondok Asri,"Jl.Raya Hawai Belakang SPBU Hawai Samping Suni Garden Lake Hotel and Resort yang dulunya bernama Hotel sentani Indah, Sentani Kota, Kec. Sentani, Kabupaten Jayapura, Papua 99359","Sentani Kota, Kec. Sentani, Kabupaten Jayapura",PAPUA,99359.0,Indonesia,81247689295.0,-2.5723719,140.5344513,https://maps.google.com/?cid=0x0:0x1fdde8dfd8b8e5b9
perumahan,Komplek perumahan,Perumahan Graha Nendali 2 Blok V,"CGGQ+CG5, Nendali, Kec. Sentani Tim., Kabupaten Jayapura, Papua 99359","Nendali, Kec. Sentani Tim., Kabupaten Jayapura",PAPUA,99359.0,Indonesia,,-2.5739757,140.5388502,https://maps.google.com/?cid=0x0:0x73a2e2815f968c96
perumahan,Perumahan,BTN MARWAH INDAH,"Griya Marwah Indah, Jl. Kehiran, Dobonsolo, Kec. Sentani, Kabupaten Jayapura, Papua 99359","Jl. Kehiran, Dobonsolo, Kec. Sentani, Kabupaten Jayapura",PAPUA,99359.0,Indonesia,,-2.574609,140.4980353,https://maps.google.com/?cid=0x0:0xb065207df1e72fd4
perumahan,Pembangunan Perumahan,Kompleks TVRI Sentani Hawai (Kel. Erari),"CGGQ+9JX, Kompleks TVRI Sentani Hawai, Nendali, Kec. Sentani Tim., Kabupaten Jayapura, Papua 99359","Kompleks TVRI Sentani Hawai, Nendali, Kec. Sentani Tim., Kabupaten Jayapura",PAPUA,99359.0,Indonesia,,-2.5740074,140.5391247,https://maps.google.com/?cid=0x0:0x814e9a2cf5ab3292
perumahan,perumahan,Depapre,"Waiya, Distrik Depapre, Kabupaten Jayapura, Papua","Kabupaten Jayapura, Papua",PAPUA,,Indonesia,,-2.465224,140.365005,https://maps.google.com/?cid=0x0:0xb8f12b7316b09e1a
perumahan,Komplek perumahan,Depapre,"CGH8+WP5, Sentani Kota, Kec. Sentani, Kabupaten Jayapura, Papua 99359","Sentani Kota, Kec. Sentani, Kabupaten Jayapura",PAPUA,99359.0,Indonesia,,-2.5702474,140.5168116,https://maps.google.com/?cid=0x0:0x9c5ca957380f8697
perumahan,Pembangunan Perumahan,Depapre,"CM59+9JM, Vim, Kec. Abepura, Kota Jayapura, Papua","Kota Jayapura, Papua",PAPUA,,Indonesia,,-2.5915361,140.6690326,https://maps.google.com/?cid=0x0:0xc5cb136ab8cef338
perumahan,perumahan,Papua 99358,"Kabupaten Jayapura, Papua","Kabupaten Jayapura, Papua",PAPUA,,Indonesia,,-2.5423787,140.3894858,https://maps.google.com/?cid=0x0:0xe811437fcb2474bb
perumahan,Tujuan Wisata,Kampung Tua,"FCM4+8JX, Dosai, Distrik Sentani Barat, Kabupaten Jayapura, Papua 99358","Dosai, Distrik Sentani Barat, Kabupaten Jayapura",PAPUA,99358.0,Indonesia,82199669728.0,-2.5166471,140.4066155,https://maps.google.com/?cid=0x0:0x6f05eba4a850afca
perumahan,Perumahan,GRIYA MARWAH INDAH 3,"Yoboy / Kehusa / Kehiran, Kec. Sentani, Kabupaten Jayapura, Papua 99358","Kec. Sentani, Kabupaten Jayapura",PAPUA,99358.0,Indonesia,82198011045.0,-2.5811359,140.4895203,https://maps.google.com/?cid=0x0:0x3ae7e19607087254
perumahan,Pembangunan Perumahan,Perumahan Kehiran Asri,"CF8P+Q2Q, Yoboy / Kehusa / Kehiran, Kec. Sentani, Kabupaten Jayapura, Papua 99358","Yoboy / Kehusa / Kehiran, Kec. Sentani, Kabupaten Jayapura",PAPUA,99358.0,Indonesia,,-2.5830395,140.4851035,https://maps.google.com/?cid=0x0:0xded90db9324bcbbb
perumahan,Komplek perumahan,Rumah ibu walia,"FCQG+G8V, Sabron Sari, Distrik Sentani Barat, Kabupaten Jayapura, Papua 99358","Sabron Sari, Distrik Sentani Barat, Kabupaten Jayapura",PAPUA,99358.0,Indonesia,,-2.511126,140.4258091,https://maps.google.com/?cid=0x0:0xeda478976692779f
perumahan,Perumahan,Perumahan Grand Efata,"CFP9+8CH, Doyo Lama, Distrik Waibu, Kabupaten Jayapura, Papua 99352","Doyo Lama, Distrik Waibu, Kabupaten Jayapura",PAPUA,99352.0,Indonesia,,-2.5641837,140.4685974,https://maps.google.com/?cid=0x0:0xd788e1e3f1f92510
perumahan,Pembangunan Perumahan,Perumahan doyo asri,"FF47+88H, Jl.daime daime, Doyo Baru, Kec. Sentani, Kabupaten Jayapura, Papua 99352","Jl.daime daime, Doyo Baru, Kec. Sentani, Kabupaten Jayapura",PAPUA,99352.0,Indonesia,83876690412.0,-2.5441951,140.4633663,https://maps.google.com/?cid=0x0:0xb496808fff8e9a44
perumahan,Komplek perumahan,Perumahan Grand efatha A20 Waibu Doyo Lama Sentani,"CCHW+8GP, Doyo Lama, Distrik Waibu, Kabupaten Jayapura, Papua 99352","Doyo Lama, Distrik Waibu, Kabupaten Jayapura",PAPUA,99352.0,Indonesia,,-2.571673,140.4463218,https://maps.google.com/?cid=0x0:0xa307327594f433b3
perumahan,Pembangunan Perumahan,BTN Purwodadi Sentani,"Dobonsolo, Sentani, Dobonsolo, Kec. Sentani, Kabupaten Jayapura, Papua 99359","Sentani, Dobonsolo, Kec. Sentani, Kabupaten Jayapura",PAPUA,99359.0,Indonesia,,-2.5765621,140.5033449,https://maps.google.com/?cid=0x0:0x51154d43b0f7bb7f
perumahan,Pembangunan Perumahan,Dosay,"FCM3+7Q6, Jln. Sentani, Distrik Sentani Barat, Kabupaten Jayapura, Papua","Kabupaten Jayapura, Papua",PAPUA,,Indonesia,,-2.5168283,140.4044017,https://maps.google.com/?cid=0x0:0x537a4fdf0b6f6cfb
perumahan,Pembangunan Perumahan,BTN PINBAR II Doyo baru Sentani,"FF37+M45, Unnamed Road, Doyo Baru, Distrik Waibu, Kabupaten Jayapura, Papua 99352","Unnamed Road, Doyo Baru, Distrik Waibu, Kabupaten Jayapura",PAPUA,99352.0,Indonesia,,-2.5458701,140.4628464,https://maps.google.com/?cid=0x0:0xe453d4855b4eb852
perumahan,Perumahan,BTN Citra Buana 1 Blok B no.64,"CGG2+J7P, Jl. Kehiran, Dobonsolo, Kec. Sentani, Kabupaten Jayapura, Papua 99359","Jl. Kehiran, Dobonsolo, Kec. Sentani, Kabupaten Jayapura",PAPUA,99359.0,Indonesia,,-2.5734026,140.5006927,https://maps.google.com/?cid=0x0:0xee1a2a05359db171
perumahan,Komplek perumahan,Perumahan grand konimbuto,"FF33+7XG, Doyo Baru, Distrik Waibu, Kabupaten Jayapura, Papua 99352","Doyo Baru, Distrik Waibu, Kabupaten Jayapura",PAPUA,99352.0,Indonesia,82399077276.0,-2.5468192,140.4549664,https://maps.google.com/?cid=0x0:0x9362fd8c6dcc9f94
perumahan,Pembangunan Perumahan,Perumahan Ningkei Permai,"CFRC+29G, Unnamed Road, Hinekombe, Kec. Sentani, Kabupaten Jayapura, Papua 99352","Unnamed Road, Hinekombe, Kec. Sentani, Kabupaten Jayapura",PAPUA,99352.0,Indonesia,,-2.5599492,140.4709635,https://maps.google.com/?cid=0x0:0x7af38d7efed09194
perumahan,Perhimpunan Pengembang Perumahan,"Bring kemtuk gresi , jayapura","86R7+HRM, Unnamed Road, Omon, Distrik Gresi Selatan, Kabupaten Jayapura, Papua 99357","Unnamed Road, Omon, Distrik Gresi Selatan, Kabupaten Jayapura",PAPUA,99357.0,Indonesia,,-2.6585444,140.2145592,https://maps.google.com/?cid=0x0:0x577934ac9f6f1b7d
perumahan,Pembangunan Perumahan,EDS Rumah Tinggal,"86QW+GM, Jagrang, Distrik Kemtuk Gresi, Kabupaten Jayapura, Papua","Kabupaten Jayapura, Papua",PAPUA,,Indonesia,,-2.661176,140.246654,https://maps.google.com/?cid=0x0:0x6d59001e6473066e
perumahan,perumahan,Papua 99357,"Kabupaten Jayapura, Papua","Kabupaten Jayapura, Papua",PAPUA,,Indonesia,,-2.7850607,140.2244429,https://maps.google.com/?cid=0x0:0x37d7dde7ca57ffbb
perumahan,Komplek perumahan,Kampung Bring,"86R7+FX6, Omon, Distrik Kemtuk Gresi, Kabupaten Jayapura, Papua 99357","Omon, Distrik Kemtuk Gresi, Kabupaten Jayapura",PAPUA,99357.0,Indonesia,82239581003.0,-2.6588299,140.2148775,https://maps.google.com/?cid=0x0:0x49c77a84c44a6e05
perumahan,Pembangunan Perumahan,Rumah Baca Tabswei,"86RW+35M, Hyansip, Distrik Kemtuk Gresi, Kabupaten Jayapura, Papua 99357","Hyansip, Distrik Kemtuk Gresi, Kabupaten Jayapura",PAPUA,99357.0,Indonesia,812961980780.0,-2.6597928,140.2454074,https://maps.google.com/?cid=0x0:0xc97df923385e31fa
perumahan,Komplek perumahan,Kampung Sawoy,"968W+2PQ, Hatib, Distrik Kemtuk Gresi, Kabupaten Jayapura, Papua 99357","Hatib, Distrik Kemtuk Gresi, Kabupaten Jayapura",PAPUA,99357.0,Indonesia,,-2.634917,140.2468736,https://maps.google.com/?cid=0x0:0x1fe6a83b53e0097f
perumahan,Pembangunan Perumahan,Kampung Merem Atas,"87X9+93C, Damoi Kati, Distrik Kemtuk Gresi, Kabupaten Jayapura, Papua 99357","Damoi Kati, Distrik Kemtuk Gresi, Kabupaten Jayapura",PAPUA,99357.0,Indonesia,,-2.6513757,140.2672017,https://maps.google.com/?cid=0x0:0x4a3459dd274ed0b5
perumahan,Pembangunan Perumahan,Pupehabu,"86RR+JG3, Pupehabu, Distrik Kemtuk Gresi, Kabupaten Jayapura, Papua 99357","Pupehabu, Distrik Kemtuk Gresi, Kabupaten Jayapura",PAPUA,99357.0,Indonesia,,-2.6584875,140.2412969,https://maps.google.com/?cid=0x0:0x5f709b000db198b6
perumahan,Komplek perumahan,Rumah orang klemen,"9688+PGP, Bring, Distrik Kemtuk Gresi, Kabupaten Jayapura, Papua","Kabupaten Jayapura, Papua",PAPUA,,Indonesia,,-2.6331684,140.2163288,https://maps.google.com/?cid=0x0:0x972e7bae16ae216e
perumahan,Komplek perumahan,Rumah Keluarga Anderi Yaroseray,"965X+F32, Hatib, Distrik Kemtuk Gresi, Kabupaten Jayapura, Papua 99357","Hatib, Distrik Kemtuk Gresi, Kabupaten Jayapura",PAPUA,99357.0,Indonesia,,-2.6413593,140.2476353,https://maps.google.com/?cid=0x0:0x548b1ff66cba3b79
perumahan,Perhimpunan Pengembang Perumahan,Akom pmd,"9753+683, Damoi Kati, Distrik Kemtuk Gresi, Kabupaten Jayapura, Papua 99357","Damoi Kati, Distrik Kemtuk Gresi, Kabupaten Jayapura",PAPUA,99357.0,Indonesia,,-2.6419798,140.253308,https://maps.google.com/?cid=0x0:0x45c63f6c9f6ea64c
perumahan,Komplek perumahan,Pmd city,"9762+62J, Unnamed Road, Damoi Kati, Distrik Kemtuk Gresi, Kabupaten Jayapura, Papua 99357","Unnamed Road, Damoi Kati, Distrik Kemtuk Gresi, Kabupaten Jayapura",PAPUA,99357.0,Indonesia,,-2.6394047,140.2500004,https://maps.google.com/?cid=0x0:0x8095749137218f26
perumahan,Perhimpunan Pengembang Perumahan,Pobaim,"9723+VHH, Damoi Kati, Distrik Kemtuk Gresi, Kabupaten Jayapura, Papua 99357","Damoi Kati, Distrik Kemtuk Gresi, Kabupaten Jayapura",PAPUA,99357.0,Indonesia,,-2.6478082,140.2539724,https://maps.google.com/?cid=0x0:0xd6d28b9a8bf62aea
perumahan,Komplek perumahan,SALYAB SUKU DANTRU,"89WR+XM9, Sabeab Kecil, Kec. Kemtuk, Kabupaten Jayapura, Papua","Kabupaten Jayapura, Papua",PAPUA,,Indonesia,,-2.6525944,140.3917362,https://maps.google.com/?cid=0x0:0xdd8f28e3538a94b1
perumahan,perumahan,Papua 99357,"Kabupaten Jayapura, Papua","Kabupaten Jayapura, Papua",PAPUA,,Indonesia,,-2.7850607,140.2244429,https://maps.google.com/?cid=0x0:0x37d7dde7ca57ffbb
perumahan,Perhimpunan Pengembang Perumahan,"Bring kemtuk gresi , jayapura","86R7+HRM, Unnamed Road, Omon, Distrik Gresi Selatan, Kabupaten Jayapura, Papua 99357","Unnamed Road, Omon, Distrik Gresi Selatan, Kabupaten Jayapura",PAPUA,99357.0,Indonesia,,-2.6585444,140.2145592,https://maps.google.com/?cid=0x0:0x577934ac9f6f1b7d
perumahan,Pembangunan Perumahan,EDS Rumah Tinggal,"86QW+GM, Jagrang, Distrik Kemtuk Gresi, Kabupaten Jayapura, Papua","Kabupaten Jayapura, Papua",PAPUA,,Indonesia,,-2.661176,140.246654,https://maps.google.com/?cid=0x0:0x6d59001e6473066e
perumahan,Komplek perumahan,Kampung Bring,"86R7+FX6, Omon, Distrik Kemtuk Gresi, Kabupaten Jayapura, Papua 99357","Omon, Distrik Kemtuk Gresi, Kabupaten Jayapura",PAPUA,99357.0,Indonesia,82239581003.0,-2.6588299,140.2148775,https://maps.google.com/?cid=0x0:0x49c77a84c44a6e05
perumahan,Pembangunan Perumahan,Kampung Merem Atas,"87X9+93C, Damoi Kati, Distrik Kemtuk Gresi, Kabupaten Jayapura, Papua 99357","Damoi Kati, Distrik Kemtuk Gresi, Kabupaten Jayapura",PAPUA,99357.0,Indonesia,,-2.6513757,140.2672017,https://maps.google.com/?cid=0x0:0x4a3459dd274ed0b5
perumahan,Pembangunan Perumahan,Rumah Baca Tabswei,"86RW+35M, Hyansip, Distrik Kemtuk Gresi, Kabupaten Jayapura, Papua 99357","Hyansip, Distrik Kemtuk Gresi, Kabupaten Jayapura",PAPUA,99357.0,Indonesia,812961980780.0,-2.6597928,140.2454074,https://maps.google.com/?cid=0x0:0xc97df923385e31fa
perumahan,Komplek perumahan,Rumah orang klemen,"9688+PGP, Bring, Distrik Kemtuk Gresi, Kabupaten Jayapura, Papua","Kabupaten Jayapura, Papua",PAPUA,,Indonesia,,-2.6331684,140.2163288,https://maps.google.com/?cid=0x0:0x972e7bae16ae216e
perumahan,Komplek perumahan,RMH_KPK_KWANSU,"C784+CJ, Kwansu, Kec. Kemtuk, Kabupaten Jayapura, Papua","Kabupaten Jayapura, Papua",PAPUA,,Indonesia,,-2.5839678,140.2565161,https://maps.google.com/?cid=0x0:0xc5d9189e36926ab9
perumahan,Pembangunan Perumahan,Pupehabu,"86RR+JG3, Pupehabu, Distrik Kemtuk Gresi, Kabupaten Jayapura, Papua 99357","Pupehabu, Distrik Kemtuk Gresi, Kabupaten Jayapura",PAPUA,99357.0,Indonesia,,-2.6584875,140.2412969,https://maps.google.com/?cid=0x0:0x5f709b000db198b6
perumahan,Komplek perumahan,Rumah Keluarga Anderi Yaroseray,"965X+F32, Hatib, Distrik Kemtuk Gresi, Kabupaten Jayapura, Papua 99357","Hatib, Distrik Kemtuk Gresi, Kabupaten Jayapura",PAPUA,99357.0,Indonesia,,-2.6413593,140.2476353,https://maps.google.com/?cid=0x0:0x548b1ff66cba3b79
perumahan,Tujuan Wisata,ð²ðððððð ðµðððð ððððð,"9688+PGP, Nembugresi, Distrik Kemtuk Gresi, Kabupaten Jayapura, Papua","Kabupaten Jayapura, Papua",PAPUA,,Indonesia,,-2.6331625,140.2163281,https://maps.google.com/?cid=0x0:0x41e41c5001f603cc
perumahan,Perhimpunan Pengembang Perumahan,Akom pmd,"9753+683, Damoi Kati, Distrik Kemtuk Gresi, Kabupaten Jayapura, Papua 99357","Damoi Kati, Distrik Kemtuk Gresi, Kabupaten Jayapura",PAPUA,99357.0,Indonesia,,-2.6419798,140.253308,https://maps.google.com/?cid=0x0:0x45c63f6c9f6ea64c
perumahan,Perhimpunan Pengembang Perumahan,Pobaim,"9723+VHH, Damoi Kati, Distrik Kemtuk Gresi, Kabupaten Jayapura, Papua 99357","Damoi Kati, Distrik Kemtuk Gresi, Kabupaten Jayapura",PAPUA,99357.0,Indonesia,,-2.6478082,140.2539724,https://maps.google.com/?cid=0x0:0xd6d28b9a8bf62aea
perumahan,Komplek perumahan,Pmd city,"9762+62J, Unnamed Road, Damoi Kati, Distrik Kemtuk Gresi, Kabupaten Jayapura, Papua 99357","Unnamed Road, Damoi Kati, Distrik Kemtuk Gresi, Kabupaten Jayapura",PAPUA,99357.0,Indonesia,,-2.6394047,140.2500004,https://maps.google.com/?cid=0x0:0x8095749137218f26
perumahan,Komplek perumahan,Pasar Nimboran Genyem,"C538+599, Tabri, Distrik Nimboran, Kabupaten Jayapura, Papua 99361","Tabri, Distrik Nimboran, Kabupaten Jayapura",PAPUA,99361.0,Indonesia,,-2.5970985,140.1659832,https://maps.google.com/?cid=0x0:0x7e11d94a6acd73ff
perumahan,perumahan,Distrik Nimboran,"Kabupaten Jayapura, Papua","Kabupaten Jayapura, Papua",PAPUA,,Indonesia,,-2.5963423,140.1662573,https://maps.google.com/?cid=0x0:0x1cf39af2b94e731d
perumahan,Komplek perumahan,Hana Home,"C53C+W9, Kuwase, Distrik Nimboran, Kabupaten Jayapura, Papua 99361","Kuwase, Distrik Nimboran, Kabupaten Jayapura",PAPUA,99361.0,Indonesia,,-2.5952031,140.1709885,https://maps.google.com/?cid=0x0:0xd0a70210f669cfac
perumahan,Komplek perumahan,NIMBO RESIDENCE,"C4V8+4H9, Unnamed Road, Bunyom, Distrik Nimbokrang, Kabupaten Jayapura, Papua 99361","Unnamed Road, Bunyom, Distrik Nimbokrang, Kabupaten Jayapura",PAPUA,99361.0,Indonesia,8114890908.0,-2.5572191,140.1164906,https://maps.google.com/?cid=0x0:0xd4938e5ec62ac7e4
perumahan,Komplek perumahan,Kampung imestum,"96Q4+GH3, Imestum, Nimboran Tim. / Namblong, Kabupaten Jayapura, Papua 99361","Imestum, Nimboran Tim. / Namblong, Kabupaten Jayapura",PAPUA,99361.0,Indonesia,,-2.6112429,140.2064183,https://maps.google.com/?cid=0x0:0x59d8e3eea502697c
perumahan,Komplek perumahan,Rumah Lutfi,"F43R+6FJ, Nembukrangsari No.RT 05, Nembukrang, Distrik Nimbokrang, Kabupaten Jayapura, Papua 99361","Nembukrangsari No.RT 05, Nembukrang, Distrik Nimbokrang, Kabupaten Jayapura",PAPUA,99361.0,Indonesia,,-2.5468584,140.1407496,https://maps.google.com/?cid=0x0:0x6da520612fd3045c
perumahan,Komplek perumahan,Rumah suparlan,"C65J+FQ7, Karya Bumi, Nimboran Tim. / Namblong, Kabupaten Jayapura, Papua 99361","Karya Bumi, Nimboran Tim. / Namblong, Kabupaten Jayapura",PAPUA,99361.0,Indonesia,,-2.5913345,140.2319289,https://maps.google.com/?cid=0x0:0x4a09312ad6fb324d
perumahan,Komplek perumahan,KOMBA 7CR,"C5C2+27R, Benyom, Distrik Nimboran, Kabupaten Jayapura, Papua 99361","Benyom, Distrik Nimboran, Kabupaten Jayapura",PAPUA,99361.0,Indonesia,,-2.5798943,140.1506406,https://maps.google.com/?cid=0x0:0x592446770c21adf6
perumahan,Komplek perumahan,Piter Home,"C578+F7, Tabri, Distrik Nimboran, Kabupaten Jayapura, Papua","Kabupaten Jayapura, Papua",PAPUA,,Indonesia,,-2.5854615,140.1657007,https://maps.google.com/?cid=0x0:0x70d682dbb28a7b74
perumahan,Kantor Pemerintah,Kampung Gemebs,"C547+5M, Gemebs, Distrik Nimboran, Kabupaten Jayapura, Papua 99361","Gemebs, Distrik Nimboran, Kabupaten Jayapura",PAPUA,99361.0,Indonesia,,-2.594376,140.162582,https://maps.google.com/?cid=0x0:0xce93271381a5b4b3
perumahan,Komplek perumahan,Rupon Jaya,"C66J+5JV, Karya Bumi, Nimboran Tim. / Namblong, Kabupaten Jayapura, Papua 99361","Karya Bumi, Nimboran Tim. / Namblong, Kabupaten Jayapura",PAPUA,99361.0,Indonesia,,-2.5885343,140.2308403,https://maps.google.com/?cid=0x0:0x4119f9377973a2ca
perumahan,Komplek perumahan,Singgriwai,"C424+WC4, Singgriway, Distrik Nimboran, Kabupaten Jayapura, Papua 99361","Singgriway, Distrik Nimboran, Kabupaten Jayapura",PAPUA,99361.0,Indonesia,,-2.5977497,140.1060931,https://maps.google.com/?cid=0x0:0x63090d44c947b5be
perumahan,Perhimpunan Pengembang Perumahan,Rumah genyem,"C548+RVF, Tabri, Distrik Nimboran, Kabupaten Jayapura, Papua 99361","Tabri, Distrik Nimboran, Kabupaten Jayapura",PAPUA,99361.0,Indonesia,,-2.5929485,140.167181,https://maps.google.com/?cid=0x0:0x220915485642f794
perumahan,Vila,Rumah Rian,"C52P+FF3, Kaitemung, Nimboran Tim. / Namblong, Kabupaten Jayapura, Papua 99361","Kaitemung, Nimboran Tim. / Namblong, Kabupaten Jayapura",PAPUA,99361.0,Indonesia,,-2.5988625,140.1861719,https://maps.google.com/?cid=0x0:0xd1002b1ea90d52ba
perumahan,perumahan,Papua 99362,"Kabupaten Jayapura, Papua","Kabupaten Jayapura, Papua",PAPUA,,Indonesia,,-2.4816716,139.998236,https://maps.google.com/?cid=0x0:0x914eb9d0bad553fd
perumahan,Komplek perumahan,Nimbokrang,"FCW2+XF, Maribu, Distrik Sentani Barat, Kabupaten Jayapura, Papua","Kabupaten Jayapura, Papua",PAPUA,,Indonesia,,-2.502586,140.401176,https://maps.google.com/?cid=0x0:0x54910e8e995e91fe
perumahan,Komplek perumahan,NIMBO RESIDENCE,"C4V8+4H9, Unnamed Road, Bunyom, Distrik Nimbokrang, Kabupaten Jayapura, Papua 99361","Unnamed Road, Bunyom, Distrik Nimbokrang, Kabupaten Jayapura",PAPUA,99361.0,Indonesia,8114890908.0,-2.5572191,140.1164906,https://maps.google.com/?cid=0x0:0xd4938e5ec62ac7e4
perumahan,Komplek perumahan,Isak Napo (My home),"F4QV+CH4, Berab, Distrik Nimbokrang, Kabupaten Jayapura, Papua 99362","Berab, Distrik Nimbokrang, Kabupaten Jayapura",PAPUA,99362.0,Indonesia,,-2.512365,140.1449014,https://maps.google.com/?cid=0x0:0xaf1fc80754fd1261
perumahan,Komplek perumahan,Nainggu Yano,"C6GF+52M, Desa, Hamonggrang, Nimbokrang, Jayapura Regency, Papua","Kabupaten Jayapura, Papua",PAPUA,,Indonesia,,-2.5745447,140.2225392,https://maps.google.com/?cid=0x0:0x5719859d2f65aeaa
perumahan,Komplek perumahan,Moh.Riandi,"C4V5+X9F, Benyom Jaya I, Distrik Nimbokrang, Kabupaten Jayapura, Papua 99361","Benyom Jaya I, Distrik Nimbokrang, Kabupaten Jayapura",PAPUA,99361.0,Indonesia,,-2.5550662,140.1084134,https://maps.google.com/?cid=0x0:0x4ef3d5c0e5390776
perumahan,Perumahan,Wagito home's,"F444+C5P, Benyom Jaya II, Distrik Nimbokrang, Kabupaten Jayapura, Papua","Kabupaten Jayapura, Papua",PAPUA,,Indonesia,,-2.5439216,140.1054391,https://maps.google.com/?cid=0x0:0x5894870152b5f8b0
perumahan,Komplek perumahan,Bama pu rumah,"C4XP+R24, Nembukrang, Distrik Nimbokrang, Kabupaten Jayapura, Papua 99361","Nembukrang, Distrik Nimbokrang, Kabupaten Jayapura",PAPUA,99361.0,Indonesia,,-2.5504792,140.1351323,https://maps.google.com/?cid=0x0:0xda0c452e3cb711ce
perumahan,Pembangunan Perumahan,AN Jastip,"Jl. yos Sudarso No.blok D, Nembukrang, Distrik Nimbokrang, Kabupaten Jayapura, Papua","Kabupaten Jayapura, Papua",PAPUA,,Indonesia,85255682691.0,-2.5482151,140.1341511,https://maps.google.com/?cid=0x0:0x42d9f84fceb67a15
perumahan,Komplek perumahan,Rumah nya kamal,"C4X7+8PW, Benyom Jaya I, Distrik Nimbokrang, Kabupaten Jayapura, Papua 99361","Benyom Jaya I, Distrik Nimbokrang, Kabupaten Jayapura",PAPUA,99361.0,Indonesia,,-2.551195,140.11565,https://maps.google.com/?cid=0x0:0x1d8c75f3618a078b
perumahan,Komplek perumahan,Nurkholis and Qomarul House,"Jalan Pangeran Diponegoro No.47 Blok C, RT.9/RW.3, Nembukrang, Distrik Nimbokrang, Kabupaten Jayapura, Papua 99362","RT.9/RW.3, Nembukrang, Distrik Nimbokrang, Kabupaten Jayapura",PAPUA,99362.0,Indonesia,,-2.5466981,140.1364449,https://maps.google.com/?cid=0x0:0x6860f21c76802f36
perumahan,Pembangunan Perumahan,Pak prianto,"F474+855, Benyom Jaya II, Distrik Nimbokrang, Kabupaten Jayapura, Papua 99361","Benyom Jaya II, Distrik Nimbokrang, Kabupaten Jayapura",PAPUA,99361.0,Indonesia,,-2.5361558,140.1046878,https://maps.google.com/?cid=0x0:0x8700bef598583e1c
perumahan,Komplek perumahan,Rumah wahyu,"Jalan Yossudarso No.RT,13, RW4, Nembukrang, Distrik Nimbokrang, Kabupaten Jayapura, Papua","Kabupaten Jayapura, Papua",PAPUA,,Indonesia,,-2.5448739,140.1380493,https://maps.google.com/?cid=0x0:0x12b111465772ad7e
perumahan,perumahan,Owner seris,"F464+QP9, Benyom Jaya II, Distrik Nimbokrang, Kabupaten Jayapura, Papua 99361","Benyom Jaya II, Distrik Nimbokrang, Kabupaten Jayapura",PAPUA,99361.0,Indonesia,,-2.538696,140.106486,https://maps.google.com/?cid=0x0:0xda3f2547b739700e
perumahan,perumahan,Papua 99356,"Kabupaten Jayapura, Papua","Kabupaten Jayapura, Papua",PAPUA,,Indonesia,,-2.7977377,139.7728757,https://maps.google.com/?cid=0x0:0x48ebe0b186aa7324
perumahan,Pembangunan Perumahan,Kawasan pribadi,"FP69+9XH, Guriyad, Kec. Unurum Guay, Kabupaten Jayapura, Papua","Kabupaten Jayapura, Papua",PAPUA,,Indonesia,,-2.5390565,139.7199905,https://maps.google.com/?cid=0x0:0x9abf6bcaff98f911
perumahan,Komplek perumahan,Perumahan Echo 4 NURE,"3WJW+MW6, Yadauw, Kaureh, Kabupaten Jayapura, Papua","Kabupaten Jayapura, Papua",PAPUA,,Indonesia,,-2.9183413,139.9472678,https://maps.google.com/?cid=0x0:0x16cdd2a0de1e0284
perumahan,perumahan,Zi asre,"9MQH+PQC, Guriyad, Kec. Unurum Guay, Kabupaten Jayapura, Papua","Kabupaten Jayapura, Papua",PAPUA,,Indonesia,,-2.610684,139.6793989,https://maps.google.com/?cid=0x0:0xefb357a16c93c3f4
perumahan,Komplek perumahan,"Buasum,Ninasre bambukuning","8QGF+F52, Guriyad, Kec. Unurum Guay, Kabupaten Jayapura, Papua","Kabupaten Jayapura, Papua",PAPUA,,Indonesia,,-2.673867,139.7728757,https://maps.google.com/?cid=0x0:0xdb481498507f425b
perumahan,perumahan,Kec. Unurum Guay,"Kabupaten Jayapura, Papua","Kabupaten Jayapura, Papua",PAPUA,,Indonesia,,-2.673867,139.7728757,https://maps.google.com/?cid=0x0:0x22bf6c8ffa85c45d
perumahan,Komplek perumahan,Perumahan Echo V Sinar Mas Lereh,"4X34+69Q, Yadauw, Kaureh, Kabupaten Jayapura, Papua","Kabupaten Jayapura, Papua",PAPUA,,Indonesia,81248719710.0,-2.8969176,139.955993,https://maps.google.com/?cid=0x0:0xb6df55264027c79b
perumahan,perumahan,Perumahan Staff CNDE,"3X6H+35, Yadauw, Kaureh, Kabupaten Jayapura, Papua","Kabupaten Jayapura, Papua",PAPUA,,Indonesia,,-2.939856,139.977975,https://maps.google.com/?cid=0x0:0xd43a7f02ab29db15
perumahan,Perumahan,Echo 6,"4W3G+H3, Yadauw, Kaureh, Kabupaten Jayapura, Papua","Kabupaten Jayapura, Papua",PAPUA,,Indonesia,,-2.896043,139.925241,https://maps.google.com/?cid=0x0:0x8c0dbce6c92ba187
perumahan,Pembangunan Perumahan,Tabbeyan,"83PH+JQ, Oyengsi, Distrik Nimboran, Kabupaten Jayapura, Papua","Kabupaten Jayapura, Papua",PAPUA,,Indonesia,,-2.6634919,140.0794526,https://maps.google.com/?cid=0x0:0x8d7eab8a68370fef
perumahan,Pembangunan Perumahan,Kampung rhepang muaip,"C355+4WX, Beneik, Kec. Unurum Guay, Kabupaten Jayapura, Papua 99361","Beneik, Kec. Unurum Guay, Kabupaten Jayapura",PAPUA,99361.0,Indonesia,,-2.5921274,140.059845,https://maps.google.com/?cid=0x0:0x1bd4bfbb27f7e588
perumahan,Komplek perumahan,Jumali fariq,"3RMQ+RM, Sentosa, Kaureh, Kabupaten Jayapura, Papua 99364","Sentosa, Kaureh, Kabupaten Jayapura",PAPUA,99364.0,Indonesia,,-2.9154931,139.839161,https://maps.google.com/?cid=0x0:0xee31362c57c9fb91
perumahan,perumahan,Perbatasan kabupaten,"HQJF+MC, Sawesuma, Kec. Unurum Guay, Kabupaten Jayapura, Papua","Kabupaten Jayapura, Papua",PAPUA,,Indonesia,,-2.418292,139.773514,https://maps.google.com/?cid=0x0:0xc7d6ec12e002014
perumahan,Perhimpunan Pengembang Perumahan,Pustu sp 5,"54Q2+G98 Sp 5, Ongan Jaya, Yapsi, Kabupaten Jayapura, Papua","Kabupaten Jayapura, Papua",PAPUA,,Indonesia,,-2.811221,140.1009527,https://maps.google.com/?cid=0x0:0xe97b2f182154860a
perumahan,perumahan,Papua 99354,"Kabupaten Jayapura, Papua","Kabupaten Jayapura, Papua",PAPUA,,Indonesia,,-2.425843,140.1626664,https://maps.google.com/?cid=0x0:0xed2e9d28341a8606
perumahan,Komplek perumahan,DEMTA kota,"J4WR+5JF, Demta Kota, Distrik Demta, Kabupaten Jayapura, Papua 99354","Demta Kota, Distrik Demta, Kabupaten Jayapura",PAPUA,99354.0,Indonesia,,-2.3545512,140.1415469,https://maps.google.com/?cid=0x0:0xd281b9d7fd6fad41
perumahan,perumahan,Ambora,"M42P+C64, Ambora, Distrik Demta, Kabupaten Jayapura, Papua","Kabupaten Jayapura, Papua",PAPUA,,Indonesia,,-2.347853,140.135131,https://maps.google.com/?cid=0x0:0x201d440bfd36dde2
perumahan,Rumah wisata,Mess Guru SMA Negeri Demta,"Jln No.Km 7, Demta Kota, Berap, Jayapura Regency, Papua","Kabupaten Jayapura, Papua",PAPUA,,Indonesia,,-2.4141514,140.1384454,https://maps.google.com/?cid=0x0:0xd50b9ef4634eadbd
perumahan,Komplek perumahan,Ayamsa,"J5R2+G8W, Muris Kecil, Distrik Demta, Kabupaten Jayapura, Papua 99354","Muris Kecil, Distrik Demta, Kabupaten Jayapura",PAPUA,99354.0,Indonesia,,-2.3586365,140.1508269,https://maps.google.com/?cid=0x0:0xa5ed7a79be9a7f3a
perumahan,Komplek perumahan,Watuwga pu tempat,"M42P+C64, Ambora, Distrik Demta, Kabupaten Jayapura, Papua","Kabupaten Jayapura, Papua",PAPUA,,Indonesia,,-2.348462,140.1352561,https://maps.google.com/?cid=0x0:0xe0ab3e1d3536a672
perumahan,Komplek perumahan,Arampor,"J5G2+RRQ, Yakore, Distrik Demta, Kabupaten Jayapura, Papua 99354","Yakore, Distrik Demta, Kabupaten Jayapura",PAPUA,99354.0,Indonesia,,-2.372589,140.151733,https://maps.google.com/?cid=0x0:0x8960ea741b376caa
perumahan,Komplek perumahan,Kampung Muaif,"J2PP+GQ9, Muaif, Distrik Demta, Kabupaten Jayapura, Papua","Kabupaten Jayapura, Papua",PAPUA,,Indonesia,,-2.3637216,140.0369897,https://maps.google.com/?cid=0x0:0x78fb59833e66c14f
perumahan,perumahan,Karay's fams,"J5J2+2PW, Yakore, Distrik Demta, Kabupaten Jayapura, Papua 99354","Yakore, Distrik Demta, Kabupaten Jayapura",PAPUA,99354.0,Indonesia,,-2.3698171,140.152096,https://maps.google.com/?cid=0x0:0xaa5f36406765dc60
perumahan,Pembangunan Perumahan,Kampung endokisi,"H77V+G6H, Endokisi, Kec. Yokari, Kabupaten Jayapura, Papua","Kabupaten Jayapura, Papua",PAPUA,,Indonesia,,-2.436503,140.294195,https://maps.google.com/?cid=0x0:0x91a9bdbd3d076b2e
perumahan,Pusat Kesehatan Masyarakat,UGD demta,"Unnamed Road, 99354, Demta Kota, Distrik Demta, Kabupaten Jayapura, Papua 99354","99354, Demta Kota, Distrik Demta, Kabupaten Jayapura",PAPUA,99354.0,Indonesia,,-2.3513509,140.1415119,https://maps.google.com/?cid=0x0:0x4188e13005e1bfe1
perumahan,Perhimpunan Pengembang Perumahan,SEMUEL KOPOUW,"J5H2+FVH, Yakore, Distrik Demta, Kabupaten Jayapura, Papua","Kabupaten Jayapura, Papua",PAPUA,,Indonesia,,-2.370781,140.152988,https://maps.google.com/?cid=0x0:0x9e8fef783c06ccb4
perumahan,Kantor Pemerintah,Kampung Yakore,"J5H2+FVH, Yakore, Distrik Demta, Kabupaten Jayapura, Papua","Kabupaten Jayapura, Papua",PAPUA,,Indonesia,,-2.371622,140.152522,https://maps.google.com/?cid=0x0:0x3ad3e49f1a0d986c
perumahan,Komplek perumahan,F arim,"J5H2+FVH, Yakore, Distrik Demta, Kabupaten Jayapura, Papua","Kabupaten Jayapura, Papua",PAPUA,,Indonesia,,-2.3705929,140.1523264,https://maps.google.com/?cid=0x0:0x19a79c0050a5de15
perumahan,perumahan,Papua 99364,"Kabupaten Jayapura, Papua","Kabupaten Jayapura, Papua",PAPUA,,Indonesia,,-3.2384616,139.8547266,https://maps.google.com/?cid=0x0:0x2e9677508a097a0f
perumahan,Komplek perumahan,Perumahan Echo 4 NURE,"3WJW+MW6, Yadauw, Kaureh, Kabupaten Jayapura, Papua","Kabupaten Jayapura, Papua",PAPUA,,Indonesia,,-2.9183413,139.9472678,https://maps.google.com/?cid=0x0:0x16cdd2a0de1e0284
perumahan,perumahan,BTN Doyo Permai K.25,"BTN Doyo Permai K.25, Yadauw, Kaureh, Kabupaten Jayapura, Papua 99364","Yadauw, Kaureh, Kabupaten Jayapura",PAPUA,99364.0,Indonesia,,-2.987923,139.8547266,https://maps.google.com/?cid=0x0:0x8995ae5d65e6a223
perumahan,perumahan,Perumahan Staff CNDE,"3X6H+35, Yadauw, Kaureh, Kabupaten Jayapura, Papua","Kabupaten Jayapura, Papua",PAPUA,,Indonesia,,-2.939856,139.977975,https://maps.google.com/?cid=0x0:0xd43a7f02ab29db15
perumahan,Komplek perumahan,Perumahan Staf RJWE,"233R+WVH, Lapua, Kaureh, Kabupaten Jayapura, Papua","Kabupaten Jayapura, Papua",PAPUA,,Indonesia,,-2.9951797,140.0922425,https://maps.google.com/?cid=0x0:0x2f2656920308b3d3
perumahan,Perumahan,KAMPUNG SOSKOTEK - PERUMAHAN MENADO,"RXW3+Q3, Yadauw, Kaureh, Kabupaten Jayapura, Papua","Kabupaten Jayapura, Papua",PAPUA,,Indonesia,,-3.15308,139.95271,https://maps.google.com/?cid=0x0:0x9147d322bf1183e0
perumahan,Kantor Perusahaan,Kampung Toraja Distrik Kaureh,"VWFW+22X Kampung Toraja,Sebelah Kandang Ayam Rumah Kedua Kanan, Jalan Raya, Yadauw, Kaureh, Kabupaten Jayapura, Papua","Kabupaten Jayapura, Papua",PAPUA,,Indonesia,,-3.12739,139.945099,https://maps.google.com/?cid=0x0:0x4ed8764997098774
perumahan,Perumahan,Echo 6,"4W3G+H3, Yadauw, Kaureh, Kabupaten Jayapura, Papua","Kabupaten Jayapura, Papua",PAPUA,,Indonesia,,-2.896043,139.925241,https://maps.google.com/?cid=0x0:0x8c0dbce6c92ba187
perumahan,perumahan,Kampung umbron,"PQRJ+V3M, Sebum, Kaureh, Kabupaten Jayapura, Papua 99364","Sebum, Kaureh, Kabupaten Jayapura",PAPUA,99364.0,Indonesia,,-3.2577753,139.7801779,https://maps.google.com/?cid=0x0:0xe9be350ea3ff9453
perumahan,Komplek perumahan,JHUARES,"2V63+RVQ, Yadauw, Kaureh, Kabupaten Jayapura, Papua","Kabupaten Jayapura, Papua",PAPUA,,Indonesia,,-2.987923,139.8547266,https://maps.google.com/?cid=0x0:0x10630494b757f1f6
perumahan,Kantor Perusahaan,Pondok 2 Rajawali Estate (Garuda),"X4FQ+993, Lapua, Kaureh, Kabupaten Jayapura, Papua","Kabupaten Jayapura, Papua",PAPUA,,Indonesia,,-3.0266202,140.1384309,https://maps.google.com/?cid=0x0:0xc86ba9caa44aadda
perumahan,Perumahan,PERUMAHAN ICHA CALL,"2XRV+MG6, Yadauw, Kaureh, Kabupaten Jayapura, Papua","Kabupaten Jayapura, Papua",PAPUA,,Indonesia,,-2.9571044,139.9936493,https://maps.google.com/?cid=0x0:0xf72b505041d4ca46
perumahan,Rumah Sakit,PUSTU ABUN DISTRIK KAUREH KABUPATEN JAYAPURA PROVINSI PAPUA,"XXC6+66F, Yadauw, Kaureh, Kabupaten Jayapura, Papua 99364","Yadauw, Kaureh, Kabupaten Jayapura",PAPUA,99364.0,Indonesia,81344613072.0,-3.029444,139.960555,https://maps.google.com/?cid=0x0:0xade7b4a3016a3187
perumahan,Komplek perumahan,Echo II,"3X8C+3H, Yadauw, Kaureh, Kabupaten Jayapura, Papua","Kabupaten Jayapura, Papua",PAPUA,,Indonesia,,-2.9347862,139.9714228,https://maps.google.com/?cid=0x0:0x52209de101152956
perumahan,perumahan,Papua 99352,"Kabupaten Jayapura, Papua","Kabupaten Jayapura, Papua",PAPUA,,Indonesia,,-2.5683577,140.4618316,https://maps.google.com/?cid=0x0:0xc4bf3fc2f14cfb38
perumahan,Produsen makanan,Perumahan BTN efata doyo,"FF38+97C, Doyo Baru, Distrik Waibu, Kabupaten Jayapura, Papua 99352","Doyo Baru, Distrik Waibu, Kabupaten Jayapura",PAPUA,99352.0,Indonesia,,-2.5465674,140.4656402,https://maps.google.com/?cid=0x0:0x86bd88b82ee8e95f
perumahan,Perumahan,Perumahan Grand Efata,"CFP9+8CH, Doyo Lama, Distrik Waibu, Kabupaten Jayapura, Papua 99352","Doyo Lama, Distrik Waibu, Kabupaten Jayapura",PAPUA,99352.0,Indonesia,,-2.5641837,140.4685974,https://maps.google.com/?cid=0x0:0xd788e1e3f1f92510
perumahan,Komplek perumahan,Perumahan Grand efatha A20 Waibu Doyo Lama Sentani,"CCHW+8GP, Doyo Lama, Distrik Waibu, Kabupaten Jayapura, Papua 99352","Doyo Lama, Distrik Waibu, Kabupaten Jayapura",PAPUA,99352.0,Indonesia,,-2.571673,140.4463218,https://maps.google.com/?cid=0x0:0xa307327594f433b3
perumahan,Pengembang Realestat,Perumahan Graha Mandiri,"Komplek Efata, Jl. Doyo Lama, Doyo Lama, Distrik Waibu, Kabupaten Jayapura, Papua 99352","Jl. Doyo Lama, Doyo Lama, Distrik Waibu, Kabupaten Jayapura",PAPUA,99352.0,Indonesia,811482540.0,-2.563796,140.4658299,https://maps.google.com/?cid=0x0:0xf6029f4b5d5ab407
perumahan,Komplek perumahan,Perumahan Green Villâs,"FF26+RWX, Doyo Baru, Distrik Waibu, Kabupaten Jayapura, Papua 99352","Doyo Baru, Distrik Waibu, Kabupaten Jayapura",PAPUA,99352.0,Indonesia,,-2.5480957,140.4622824,https://maps.google.com/?cid=0x0:0x4a968d6809f2d05a
perumahan,Produsen makanan,Perumahan Grand Efata Blok N,"CFP8+8JX, Unnamed Road, Doyo Lama, Distrik Waibu, Kabupaten Jayapura, Papua 99352","Unnamed Road, Doyo Lama, Distrik Waibu, Kabupaten Jayapura",PAPUA,99352.0,Indonesia,,-2.5641411,140.4666169,https://maps.google.com/?cid=0x0:0x690bee4d95ecbad4
perumahan,Perumahan,Perumahan Grand Efata Blok I No. 91,"CFP8+PQ2, Jl, Doyo Lama, Waibu, Jayapura Regency, Papua 99352","Jl, Doyo Lama, Waibu, Jayapura Regency",PAPUA,99352.0,Indonesia,,-2.5632495,140.4668959,https://maps.google.com/?cid=0x0:0x7693c2895451b9e3
perumahan,Komplek perumahan,Rumah Ghea,"BTN pemda No.10 Blok G6, Doyo Baru, Distrik Waibu, Kabupaten Jayapura, Papua","Kabupaten Jayapura, Papua",PAPUA,,Indonesia,,-2.5462568,140.4666154,https://maps.google.com/?cid=0x0:0x2a787a41cb559904
perumahan,Komplek perumahan,Mangguali Family,"Unnamed Road, Doyo Baru, Waibu, Jayapura Regency, Papua 99352","Doyo Baru, Waibu, Jayapura Regency",PAPUA,99352.0,Indonesia,,-2.543693,140.4630577,https://maps.google.com/?cid=0x0:0x41a3130836baea6a
perumahan,Produsen makanan,Rumah Elghi,"CFQ9+445 Perumahan grand efata, Doyo Lama, Distrik Waibu, Kabupaten Jayapura, Papua","Kabupaten Jayapura, Papua",PAPUA,,Indonesia,,-2.5622253,140.4678658,https://maps.google.com/?cid=0x0:0x28619f3b38911d11
perumahan,Otoritas Perumahan,Perumahan BTN Permata hijau Sentani,"Unnamed Road, Hinekombe, Kec. Sentani, Kabupaten Jayapura, Papua 99352","Hinekombe, Kec. Sentani, Kabupaten Jayapura",PAPUA,99352.0,Indonesia,,-2.5743916,140.4900438,https://maps.google.com/?cid=0x0:0x3eaea0f9d366e41d
perumahan,perumahan,Distrik Ebungfa,"Kabupaten Jayapura, Papua","Kabupaten Jayapura, Papua",PAPUA,,Indonesia,,-2.6403081,140.4988982,https://maps.google.com/?cid=0x0:0x137742c11b1ca6d6
perumahan,Produsen makanan,Kantor Pemasaran Perumahan Grand Efata,"CFP9+P25, Doyo Lama, Distrik Waibu, Kabupaten Jayapura, Papua","Kabupaten Jayapura, Papua",PAPUA,,Indonesia,81248074002.0,-2.5632677,140.4676314,https://maps.google.com/?cid=0x0:0x7c85241610ce5358
perumahan,Kantor Perusahaan,Perumahan Waibu Permai,"Doyo Lama, Distrik Waibu, Kabupaten Jayapura, Papua 99352","Distrik Waibu, Kabupaten Jayapura",PAPUA,99352.0,Indonesia,81248308516.0,-2.5628674,140.4687516,https://maps.google.com/?cid=0x0:0x1e2918e65fdc95f0
perumahan,Pembangunan Perumahan,Blok AFP Perumahan Waibu Permai,"CFP9+H52, Doyo Lama, Distrik Waibu, Kabupaten Jayapura, Papua 99352","Doyo Lama, Distrik Waibu, Kabupaten Jayapura",PAPUA,99352.0,Indonesia,,-2.5645796,140.4689159,https://maps.google.com/?cid=0x0:0xedef260a6f9bfa5c
perumahan,Pembangunan Perumahan,Kantor pemasaran Perumahan Waibu Permai,"Jl. Doyo Lama, Doyo Lama, Distrik Waibu, Kabupaten Jayapura, Papua 99352","Doyo Lama, Distrik Waibu, Kabupaten Jayapura",PAPUA,99352.0,Indonesia,85244392001.0,-2.561878,140.4655132,https://maps.google.com/?cid=0x0:0x508b00c0960c23d4
perumahan,Komplek perumahan,DISTRIK WAIBU,"EFATA 7 BLOK P.No.220, Doyo Lama","Kabupaten Jayapura, Papua",PAPUA,,Indonesia,,-2.5641204,140.4662126,https://maps.google.com/?cid=0x0:0x84c7ed6458ce8ff7
perumahan,Komplek perumahan,Perumahan Grand efatha A20 Waibu Doyo Lama Sentani,"CCHW+8GP, Doyo Lama, Distrik Waibu, Kabupaten Jayapura, Papua 99352","Doyo Lama, Distrik Waibu, Kabupaten Jayapura",PAPUA,99352.0,Indonesia,,-2.571673,140.4463218,https://maps.google.com/?cid=0x0:0xa307327594f433b3
perumahan,Komplek perumahan,Perumahan grand konimbuto,"FF33+7XG, Doyo Baru, Distrik Waibu, Kabupaten Jayapura, Papua 99352","Doyo Baru, Distrik Waibu, Kabupaten Jayapura",PAPUA,99352.0,Indonesia,82399077276.0,-2.5468192,140.4549664,https://maps.google.com/?cid=0x0:0x9362fd8c6dcc9f94
perumahan,Komplek perumahan,Perumahan Green Villâs,"FF26+RWX, Doyo Baru, Distrik Waibu, Kabupaten Jayapura, Papua 99352","Doyo Baru, Distrik Waibu, Kabupaten Jayapura",PAPUA,99352.0,Indonesia,,-2.5480957,140.4622824,https://maps.google.com/?cid=0x0:0x4a968d6809f2d05a
perumahan,Pengembang Realestat,TRANSAD DOYO BARU,"FC9H+H6X, Jl. Transad, DOYO BARU, Distrik Waibu, Kabupaten Jayapura, Papua 99358","Jl. Transad, DOYO BARU, Distrik Waibu, Kabupaten Jayapura",PAPUA,99358.0,Indonesia,,-2.5310024,140.4280997,https://maps.google.com/?cid=0x0:0x4f48737aaf3cdc0a
perumahan,Komplek perumahan,Newa,"9CQJ+XQ, Dondai, Distrik Waibu, Kabupaten Jayapura, Papua","Kabupaten Jayapura, Papua",PAPUA,,Indonesia,,-2.6098336,140.4317596,https://maps.google.com/?cid=0x0:0x94b75e30f26caba2
perumahan,Komplek perumahan,RUMAH MR CHRIS,"FC8R+FHF, Jl. Raya Doyo Baru, Bambar, Distrik Waibu, Kabupaten Jayapura, Papua 99358","Jl. Raya Doyo Baru, Bambar, Distrik Waibu, Kabupaten Jayapura",PAPUA,99358.0,Indonesia,,-2.5339031,140.441097,https://maps.google.com/?cid=0x0:0x75f797895b8ef6dd
perumahan,Pembangunan Perumahan,Btn doyo lama waibu,"FF39+XX2 Btn doyo, Doyo Baru, Distrik Waibu, Kabupaten Jayapura, Papua","Kabupaten Jayapura, Papua",PAPUA,,Indonesia,,-2.5451171,140.4698828,https://maps.google.com/?cid=0x0:0x7aa945a1a162cb3a
perumahan,Komplek perumahan,Rumah ibu walia,"FCQG+G8V, Sabron Sari, Distrik Sentani Barat, Kabupaten Jayapura, Papua 99358","Sabron Sari, Distrik Sentani Barat, Kabupaten Jayapura",PAPUA,99358.0,Indonesia,,-2.511126,140.4258091,https://maps.google.com/?cid=0x0:0xeda478976692779f
perumahan,Pembangunan Perumahan,Rumah,"FF34+JJR, Doyo Baru, Distrik Waibu, Kabupaten Jayapura, Papua 99352","Doyo Baru, Distrik Waibu, Kabupaten Jayapura",PAPUA,99352.0,Indonesia,,-2.546014,140.4564798,https://maps.google.com/?cid=0x0:0x8b4d012e434eeec4
perumahan,Perumahan,Perumahan Grand Efata,"CFP9+8CH, Doyo Lama, Distrik Waibu, Kabupaten Jayapura, Papua 99352","Doyo Lama, Distrik Waibu, Kabupaten Jayapura",PAPUA,99352.0,Indonesia,,-2.5641837,140.4685974,https://maps.google.com/?cid=0x0:0xd788e1e3f1f92510
perumahan,perumahan,Papua 99361,"Kabupaten Jayapura, Papua","Kabupaten Jayapura, Papua",PAPUA,,Indonesia,,-2.5921274,140.059845,https://maps.google.com/?cid=0x0:0xe7cd882fece4c0b1
perumahan,perumahan,Yapsi,"Kabupaten Jayapura, Papua","Kabupaten Jayapura, Papua",PAPUA,,Indonesia,,-2.811221,140.1009527,https://maps.google.com/?cid=0x0:0xaec96b36c4ad9a90
perumahan,Komplek perumahan,Perumahan Echo 4 NURE,"3WJW+MW6, Yadauw, Kaureh, Kabupaten Jayapura, Papua","Kabupaten Jayapura, Papua",PAPUA,,Indonesia,,-2.9183413,139.9472678,https://maps.google.com/?cid=0x0:0x16cdd2a0de1e0284
perumahan,Komplek perumahan,Kampung Kwarja SP 5 Taja Distrik Yapsi Kab. Jayapura,"36CR+82, Kwarja, Yapsi, Kabupaten Jayapura, Papua","Kabupaten Jayapura, Papua",PAPUA,,Indonesia,,-2.929183,140.240008,https://maps.google.com/?cid=0x0:0x1cfa0285cc822360
perumahan,Komplek perumahan,Perumahan Echo V Sinar Mas Lereh,"4X34+69Q, Yadauw, Kaureh, Kabupaten Jayapura, Papua","Kabupaten Jayapura, Papua",PAPUA,,Indonesia,81248719710.0,-2.8969176,139.955993,https://maps.google.com/?cid=0x0:0xb6df55264027c79b
perumahan,perumahan,Perumahan Staff CNDE,"3X6H+35, Yadauw, Kaureh, Kabupaten Jayapura, Papua","Kabupaten Jayapura, Papua",PAPUA,,Indonesia,,-2.939856,139.977975,https://maps.google.com/?cid=0x0:0xd43a7f02ab29db15
perumahan,perumahan,Rumah Pak Mustaqim,"542H+MM6, Nawa Mulya, Yapsi, Kabupaten Jayapura, Papua","Kabupaten Jayapura, Papua",PAPUA,,Indonesia,,-2.8483345,140.1291551,https://maps.google.com/?cid=0x0:0x8671cb2bb57a7261
perumahan,Komplek perumahan,Perumahan Staf RJWE,"233R+WVH, Lapua, Kaureh, Kabupaten Jayapura, Papua","Kabupaten Jayapura, Papua",PAPUA,,Indonesia,,-2.9951797,140.0922425,https://maps.google.com/?cid=0x0:0x2f2656920308b3d3
perumahan,Kantor Pemerintah,Purnama jati,"54Q2+G98, Ongan Jaya, Yapsi, Kabupaten Jayapura, Papua","Kabupaten Jayapura, Papua",PAPUA,,Indonesia,,-2.811221,140.1009527,https://maps.google.com/?cid=0x0:0x51bb79bc75801f97
perumahan,Komplek perumahan,Kam. Purnawajati,"53HM+87F Kamp. Purnawajati, Purnawa Jati, Yapsi, Kabupaten Jayapura, Papua","Kabupaten Jayapura, Papua",PAPUA,,Indonesia,,-2.8216963,140.083181,https://maps.google.com/?cid=0x0:0x3b2c79c70cff5045
perumahan,Pembangunan Perumahan,PAK HERY SETYO WIDODO,"65G2+7X2, Bumi Sahaja, Yapsi, Kabupaten Jayapura, Papua 99357","Bumi Sahaja, Yapsi, Kabupaten Jayapura",PAPUA,99357.0,Indonesia,,-2.7743563,140.1523764,https://maps.google.com/?cid=0x0:0xae2f38a7e4d50eff
perumahan,Masjid,Rumah,"45F7+5W9, Nawa Mukti, Yapsi, Kabupaten Jayapura, Papua 99357","Nawa Mukti, Yapsi, Kabupaten Jayapura",PAPUA,99357.0,Indonesia,82223747727.0,-2.8770777,140.1648486,https://maps.google.com/?cid=0x0:0x7bc198555c07ea99
perumahan,Komplek perumahan,WARAS SLAMET,"6397+F2, Bundru, Yapsi, Kabupaten Jayapura, Papua","Kabupaten Jayapura, Papua",PAPUA,,Indonesia,,-2.781295,140.062526,https://maps.google.com/?cid=0x0:0x307478d4f4b21e3c
perumahan,Perhimpunan Pengembang Perumahan,Pustu sp 5,"54Q2+G98 Sp 5, Ongan Jaya, Yapsi, Kabupaten Jayapura, Papua","Kabupaten Jayapura, Papua",PAPUA,,Indonesia,,-2.811221,140.1009527,https://maps.google.com/?cid=0x0:0xe97b2f182154860a
perumahan,Perumahan,PERUMAHAN ICHA CALL,"2XRV+MG6, Yadauw, Kaureh, Kabupaten Jayapura, Papua","Kabupaten Jayapura, Papua",PAPUA,,Indonesia,,-2.9571044,139.9936493,https://maps.google.com/?cid=0x0:0xf72b505041d4ca46
perumahan,perumahan,Airu,"Kabupaten Jayapura, Papua","Kabupaten Jayapura, Papua",PAPUA,,Indonesia,,-3.5753077,140.265662,https://maps.google.com/?cid=0x0:0x84b595ca2a102cef
perumahan,Pembangunan Perumahan,Kampung Naira,"9XPV+G6V, Naira, Airu, Kabupaten Jayapura, Papua 99364","Naira, Airu, Kabupaten Jayapura",PAPUA,99364.0,Indonesia,,-3.6136444,139.9930439,https://maps.google.com/?cid=0x0:0x51de71094510f119
perumahan,Komplek perumahan,Kampung aurina,"F834+QQF, Aurina, Airu, Kabupaten Jayapura, Papua","Kabupaten Jayapura, Papua",PAPUA,,Indonesia,,-3.5455677,140.3069088,https://maps.google.com/?cid=0x0:0x9fc703f84247e24b
perumahan,perumahan,Rumah Makan dan Kios Sarlen,"78C2+QQQ, Muara Nawa, Airu, Kabupaten Jayapura, Papua","Kabupaten Jayapura, Papua",PAPUA,,Indonesia,,-3.7280257,140.3019786,https://maps.google.com/?cid=0x0:0x87ebe1c2d6f78440
perumahan,perumahan,Rumah Makan Salero Bundo,"78C2+QR, Muara Nawa, Airu, Kabupaten Jayapura, Papua","Kabupaten Jayapura, Papua",PAPUA,,Indonesia,,-3.7281142,140.3021159,https://maps.google.com/?cid=0x0:0x6599c94c610c57cd
perumahan,Sekolah,Airu simbery yackshin,"F53M+GR, Aurina, Airu, Kabupaten Jayapura, Papua 99364","Aurina, Airu, Kabupaten Jayapura",PAPUA,99364.0,Indonesia,,-3.5461545,140.1845142,https://maps.google.com/?cid=0x0:0xa2aa08d79f0b1fa1
perumahan,Pembangunan Perumahan,Naira,"9VR8+3C, Trikora, Benawa, Kabupaten Yalimo, Papua 99364","Trikora, Benawa, Kabupaten Yalimo",PAPUA,99364.0,Indonesia,,-3.6097552,139.8660677,https://maps.google.com/?cid=0x0:0x33267edac8cd626c
perumahan,perumahan,PKM AIRU,"C7F8+V7F, Aurina, Airu, Kabupaten Jayapura, Papua 99465","Aurina, Airu, Kabupaten Jayapura",PAPUA,99465.0,Indonesia,,-3.5753077,140.265662,https://maps.google.com/?cid=0x0:0xee323a95f99655d1
perumahan,Perhimpunan Pengembang Perumahan,Kampung Narau,"9VQJ+G6, Gilika, Benawa, Kabupaten Yalimo, Papua","Kabupaten Yalimo, Papua",PAPUA,,Indonesia,,-3.6111957,139.8805542,https://maps.google.com/?cid=0x0:0x1ff88da38fbb23a7
perumahan,Jembatan,Kampung METEOR,"8468+2H, Paleromon, Talambo, Kabupaten Yahukimo, Papua","Kabupaten Yahukimo, Papua",PAPUA,,Indonesia,,-3.6899345,140.1164441,https://maps.google.com/?cid=0x0:0xe026528326b0d3e4
perumahan,perumahan,Kampung Malili,"8233+M8, Lulum, Talambo, Kabupaten Yahukimo, Papua","Kabupaten Yahukimo, Papua",PAPUA,,Indonesia,82196487412.0,-3.695843,140.003255,https://maps.google.com/?cid=0x0:0x9f74ac7a96058ec5
perumahan,perumahan,Papua 99353,"Kabupaten Jayapura, Papua","Kabupaten Jayapura, Papua",PAPUA,,Indonesia,,-2.4345515,140.4101474,https://maps.google.com/?cid=0x0:0xae8b3e09ee92fb9d
perumahan,perumahan,Ravenirara,"Kabupaten Jayapura, Papua","Kabupaten Jayapura, Papua",PAPUA,,Indonesia,,-2.469948,140.534262,https://maps.google.com/?cid=0x0:0x77234a41a5f9ca5
perumahan,Komplek perumahan,Keluarga Bapak Marthinus Yarisetouw,"G9Q9+6WX, Waiya, Distrik Depapre, Kabupaten Jayapura, Papua","Kabupaten Jayapura, Papua",PAPUA,,Indonesia,,-2.4618801,140.3698492,https://maps.google.com/?cid=0x0:0x8588eb0c2eff041f
perumahan,Pembangunan Perumahan,Yongsu spari,"HF85+FFW, Yongsu Sapari, Ravenirara, Kabupaten Jayapura, Papua","Kabupaten Jayapura, Papua",PAPUA,,Indonesia,,-2.4337564,140.4587082,https://maps.google.com/?cid=0x0:0x20d73229e127a635
perumahan,Komplek perumahan,Ronal pu Rumah,"G89M+43W, Kendate, Distrik Depapre, Kabupaten Jayapura, Papua 99353","Kendate, Distrik Depapre, Kabupaten Jayapura",PAPUA,99353.0,Indonesia,,-2.482149,140.3327022,https://maps.google.com/?cid=0x0:0x2fe090c5f45f672b
perumahan,Komplek perumahan,Seranamo,"HCJJ+R5, Yewena, Distrik Depapre, Kabupaten Jayapura, Papua","Kabupaten Jayapura, Papua",PAPUA,,Indonesia,,-2.4179087,140.4304329,https://maps.google.com/?cid=0x0:0xbecf2e3902f3dd5d
perumahan,Perumahan,Keluarga Rumfabe,"G9P9+RFQ, Kompleks Puskesmas, Waiya, Distrik Depapre, Kabupaten Jayapura, Papua","Kabupaten Jayapura, Papua",PAPUA,,Indonesia,,-2.4629048,140.3687434,https://maps.google.com/?cid=0x0:0x843326107f3682b8
perumahan,perumahan,Menaboru,"HCP8+7R, Doromena, Kabupaten Jayapura, Papua","Kabupaten Jayapura, Papua",PAPUA,,Indonesia,,-2.41427,140.41702,https://maps.google.com/?cid=0x0:0x1d532130a1550899
perumahan,Taman,Perumahan Skyline Residence,"9MWH+59M, Wai Mhorock, Kec. Abepura, Kota Jayapura, Papua 99225","Wai Mhorock, Kec. Abepura, Kota Jayapura",PAPUA,99225.0,Indonesia,,-2.6045343,140.6784145,https://maps.google.com/?cid=0x0:0x6cae189caba11bc0
perumahan,Kantor Pemerintah,Kampung Yongsu Desoyo,"HF4M+4CR, Yongsu Dosoyo, Ravenirara, Kabupaten Jayapura, Papua","Kabupaten Jayapura, Papua",PAPUA,,Indonesia,,-2.4446353,140.4835232,https://maps.google.com/?cid=0x0:0xa3a9d0cebe95373
perumahan,Komplek perumahan,Arakoye Tablanusu,"G8PQ+JP2, Arakoye Tablanusu, Distrik Depapre, Kabupaten Jayapura, Papua 99353","Arakoye Tablanusu, Distrik Depapre, Kabupaten Jayapura",PAPUA,99353.0,Indonesia,82198080980.0,-2.4634752,140.3392556,https://maps.google.com/?cid=0x0:0x57741360e6db4bca
perumahan,Kantor Pemerintah,Desa Waiya,"G9P8+HJJ, jalan raya, Waiya, Distrik Depapre, Kabupaten Jayapura, Papua 99353","jalan raya, Waiya, Distrik Depapre, Kabupaten Jayapura",PAPUA,99353.0,Indonesia,,-2.4634142,140.3662159,https://maps.google.com/?cid=0x0:0xc37be425aad0f1c1
perumahan,Komplek perumahan,Kunume Sabron Sari andres,"FCQG+63, Sabron Sari, Distrik Sentani Barat, Kabupaten Jayapura, Papua","Kabupaten Jayapura, Papua",PAPUA,,Indonesia,,-2.51262,140.424594,https://maps.google.com/?cid=0x0:0x77d50cc83b68c3c2
perumahan,Pembangunan Perumahan,My sweet home,"HCMM+Q6, Yewena, Distrik Depapre, Kabupaten Jayapura, Papua","Kabupaten Jayapura, Papua",PAPUA,,Indonesia,,-2.4154724,140.4331336,https://maps.google.com/?cid=0x0:0x1054e544691b449a
perumahan,Perhimpunan Pengembang Perumahan,"Bring kemtuk gresi , jayapura","86R7+HRM, Unnamed Road, Omon, Distrik Gresi Selatan, Kabupaten Jayapura, Papua 99357","Unnamed Road, Omon, Distrik Gresi Selatan, Kabupaten Jayapura",PAPUA,99357.0,Indonesia,,-2.6585444,140.2145592,https://maps.google.com/?cid=0x0:0x577934ac9f6f1b7d
perumahan,perumahan,Distrik Gresi Selatan,"Kabupaten Jayapura, Papua","Kabupaten Jayapura, Papua",PAPUA,,Indonesia,,-2.641859,140.1829593,https://maps.google.com/?cid=0x0:0x3d361b435e9393d5
perumahan,Komplek perumahan,Kampung Bring,"86R7+FX6, Omon, Distrik Kemtuk Gresi, Kabupaten Jayapura, Papua 99357","Omon, Distrik Kemtuk Gresi, Kabupaten Jayapura",PAPUA,99357.0,Indonesia,82239581003.0,-2.6588299,140.2148775,https://maps.google.com/?cid=0x0:0x49c77a84c44a6e05
perumahan,Tujuan Wisata,ð²ðððððð ðµðððð ððððð,"9688+PGP, Nembugresi, Distrik Kemtuk Gresi, Kabupaten Jayapura, Papua","Kabupaten Jayapura, Papua",PAPUA,,Indonesia,,-2.6331625,140.2163281,https://maps.google.com/?cid=0x0:0x41e41c5001f603cc
perumahan,Komplek perumahan,Rumah orang klemen,"9688+PGP, Bring, Distrik Kemtuk Gresi, Kabupaten Jayapura, Papua","Kabupaten Jayapura, Papua",PAPUA,,Indonesia,,-2.6331684,140.2163288,https://maps.google.com/?cid=0x0:0x972e7bae16ae216e
perumahan,Pembangunan Perumahan,EDS Rumah Tinggal,"86QW+GM, Jagrang, Distrik Kemtuk Gresi, Kabupaten Jayapura, Papua","Kabupaten Jayapura, Papua",PAPUA,,Indonesia,,-2.661176,140.246654,https://maps.google.com/?cid=0x0:0x6d59001e6473066e
perumahan,Perhimpunan Pengembang Perumahan,"SUKU,BGONKOY","964C+RPX, Bring, Distrik Kemtuk Gresi, Kabupaten Jayapura, Papua","Kabupaten Jayapura, Papua",PAPUA,,Indonesia,,-2.6428926,140.2218676,https://maps.google.com/?cid=0x0:0x41a76b765f839901
perumahan,Pembangunan Perumahan,Ibu Martina Danuel,"9678+QC5, Bring, Distrik Kemtuk Gresi, Kabupaten Jayapura, Papua 99357","Bring, Distrik Kemtuk Gresi, Kabupaten Jayapura",PAPUA,99357.0,Indonesia,,-2.6356124,140.2161009,https://maps.google.com/?cid=0x0:0xcfbed2918f91ac18
perumahan,Pembangunan Perumahan,Rumah Baca Tabswei,"86RW+35M, Hyansip, Distrik Kemtuk Gresi, Kabupaten Jayapura, Papua 99357","Hyansip, Distrik Kemtuk Gresi, Kabupaten Jayapura",PAPUA,99357.0,Indonesia,812961980780.0,-2.6597928,140.2454074,https://maps.google.com/?cid=0x0:0xc97df923385e31fa
perumahan,Komplek perumahan,Kampung Sawoy,"968W+2PQ, Hatib, Distrik Kemtuk Gresi, Kabupaten Jayapura, Papua 99357","Hatib, Distrik Kemtuk Gresi, Kabupaten Jayapura",PAPUA,99357.0,Indonesia,,-2.634917,140.2468736,https://maps.google.com/?cid=0x0:0x1fe6a83b53e0097f
perumahan,Komplek perumahan,Sebori home,"96J9+JGH, Belakang polsek, Distrik Kemtuk Gresi, Kabupaten Jayapura, Papua","Kabupaten Jayapura, Papua",PAPUA,,Indonesia,,-2.6184436,140.2188529,https://maps.google.com/?cid=0x0:0xa7d9a5a561af99d2
perumahan,Pembangunan Perumahan,Swentab,"96CM+R4Q, Swentab, Distrik Kemtuk Gresi, Kabupaten Jayapura, Papua","Kabupaten Jayapura, Papua",PAPUA,,Indonesia,,-2.6279156,140.2328579,https://maps.google.com/?cid=0x0:0xa812662b3897e0d9
perumahan,Komplek perumahan,Rumah Keluarga Anderi Yaroseray,"965X+F32, Hatib, Distrik Kemtuk Gresi, Kabupaten Jayapura, Papua 99357","Hatib, Distrik Kemtuk Gresi, Kabupaten Jayapura",PAPUA,99357.0,Indonesia,,-2.6413593,140.2476353,https://maps.google.com/?cid=0x0:0x548b1ff66cba3b79
perumahan,Pembangunan Perumahan,Pupehabu,"86RR+JG3, Pupehabu, Distrik Kemtuk Gresi, Kabupaten Jayapura, Papua 99357","Pupehabu, Distrik Kemtuk Gresi, Kabupaten Jayapura",PAPUA,99357.0,Indonesia,,-2.6584875,140.2412969,https://maps.google.com/?cid=0x0:0x5f709b000db198b6
perumahan,perumahan,Papua 99354,"Kabupaten Jayapura, Papua","Kabupaten Jayapura, Papua",PAPUA,,Indonesia,,-2.425843,140.1626664,https://maps.google.com/?cid=0x0:0xed2e9d28341a8606
perumahan,Sekolah,Meukisi Distrik Yokari,"H7G8+H5, Meukisi, Kec. Yokari, Kabupaten Jayapura, Papua","Kabupaten Jayapura, Papua",PAPUA,,Indonesia,,-2.4227013,140.2669691,https://maps.google.com/?cid=0x0:0x82984b02e36b67c8
perumahan,Pembangunan Perumahan,Kampung endokisi,"H77V+G6H, Endokisi, Kec. Yokari, Kabupaten Jayapura, Papua","Kabupaten Jayapura, Papua",PAPUA,,Indonesia,,-2.436503,140.294195,https://maps.google.com/?cid=0x0:0x91a9bdbd3d076b2e
perumahan,perumahan,Karay's fams,"J5J2+2PW, Yakore, Distrik Demta, Kabupaten Jayapura, Papua 99354","Yakore, Distrik Demta, Kabupaten Jayapura",PAPUA,99354.0,Indonesia,,-2.3698171,140.152096,https://maps.google.com/?cid=0x0:0xaa5f36406765dc60
perumahan,Komplek perumahan,Kampung Muris Kecil,"J5R2+GC2, Muris Kecil, Distrik Demta, Kabupaten Jayapura, Papua 99354","Muris Kecil, Distrik Demta, Kabupaten Jayapura",PAPUA,99354.0,Indonesia,,-2.3587422,140.1510134,https://maps.google.com/?cid=0x0:0xe13bc6e1cfcb637c
perumahan,Komplek perumahan,Ayamsa,"J5R2+G8W, Muris Kecil, Distrik Demta, Kabupaten Jayapura, Papua 99354","Muris Kecil, Distrik Demta, Kabupaten Jayapura",PAPUA,99354.0,Indonesia,,-2.3586365,140.1508269,https://maps.google.com/?cid=0x0:0xa5ed7a79be9a7f3a
perumahan,Komplek perumahan,Arampor,"J5G2+RRQ, Yakore, Distrik Demta, Kabupaten Jayapura, Papua 99354","Yakore, Distrik Demta, Kabupaten Jayapura",PAPUA,99354.0,Indonesia,,-2.372589,140.151733,https://maps.google.com/?cid=0x0:0x8960ea741b376caa
perumahan,Komplek perumahan,Watuwga pu tempat,"M42P+C64, Ambora, Distrik Demta, Kabupaten Jayapura, Papua","Kabupaten Jayapura, Papua",PAPUA,,Indonesia,,-2.348462,140.1352561,https://maps.google.com/?cid=0x0:0xe0ab3e1d3536a672
perumahan,Kantor Pemerintah,Kampung Yakore,"J5H2+FVH, Yakore, Distrik Demta, Kabupaten Jayapura, Papua","Kabupaten Jayapura, Papua",PAPUA,,Indonesia,,-2.371622,140.152522,https://maps.google.com/?cid=0x0:0x3ad3e49f1a0d986c
perumahan,Komplek perumahan,DEMTA kota,"J4WR+5JF, Demta Kota, Distrik Demta, Kabupaten Jayapura, Papua 99354","Demta Kota, Distrik Demta, Kabupaten Jayapura",PAPUA,99354.0,Indonesia,,-2.3545512,140.1415469,https://maps.google.com/?cid=0x0:0xd281b9d7fd6fad41
perumahan,Komplek perumahan,F arim,"J5H2+FVH, Yakore, Distrik Demta, Kabupaten Jayapura, Papua","Kabupaten Jayapura, Papua",PAPUA,,Indonesia,,-2.3705929,140.1523264,https://maps.google.com/?cid=0x0:0x19a79c0050a5de15
perumahan,Komplek perumahan,Kampung Muaif,"J2PP+GQ9, Muaif, Distrik Demta, Kabupaten Jayapura, Papua","Kabupaten Jayapura, Papua",PAPUA,,Indonesia,,-2.3637216,140.0369897,https://maps.google.com/?cid=0x0:0x78fb59833e66c14f
perumahan,Perhimpunan Pengembang Perumahan,SEMUEL KOPOUW,"J5H2+FVH, Yakore, Distrik Demta, Kabupaten Jayapura, Papua","Kabupaten Jayapura, Papua",PAPUA,,Indonesia,,-2.370781,140.152988,https://maps.google.com/?cid=0x0:0x9e8fef783c06ccb4
perumahan,Rumah wisata,Mess Guru SMA Negeri Demta,"Jln No.Km 7, Demta Kota, Berap, Jayapura Regency, Papua","Kabupaten Jayapura, Papua",PAPUA,,Indonesia,,-2.4141514,140.1384454,https://maps.google.com/?cid=0x0:0xd50b9ef4634eadbd
housing complex,Pembangunan Perumahan,PERUMAHAN SENTANI RESIDENCE,"CFPV+J8G, Jl. Youmakhe, Hinekombe, Kec. Sentani, Kabupaten Jayapura, Papua 99352","Jl. Youmakhe, Hinekombe, Kec. Sentani, Kabupaten Jayapura",PAPUA,99352.0,Indonesia,,-2.5634317,140.4933143,https://maps.google.com/?cid=0x0:0x4299ac5f715de561
housing complex,housing complex,Papua 99352,"Kabupaten Jayapura, Papua","Kabupaten Jayapura, Papua",PAPUA,,Indonesia,,-2.5683577,140.4618316,https://maps.google.com/?cid=0x0:0xc4bf3fc2f14cfb38
housing complex,Komplek perumahan,KOMPLEK PERUMAHAN JOKO INDAH SENTANI,"BTN JOKO INDAH Blk. E No.12, Yahim, Kec. Sentani, Kabupaten Jayapura, Papua 99352","Yahim, Kec. Sentani, Kabupaten Jayapura",PAPUA,99352.0,Indonesia,81344958171.0,-2.5788915,140.5015449,https://maps.google.com/?cid=0x0:0x5b0eeae30e321e4b
housing complex,Otoritas Perumahan,Perumahan BTN Permata hijau Sentani,"Unnamed Road, Hinekombe, Kec. Sentani, Kabupaten Jayapura, Papua 99352","Hinekombe, Kec. Sentani, Kabupaten Jayapura",PAPUA,99352.0,Indonesia,,-2.5743916,140.4900438,https://maps.google.com/?cid=0x0:0x3eaea0f9d366e41d
housing complex,Pembangunan Perumahan,Sentani Jayapura,"CFJX+VGW, Jl. Btn Matoa, Hinekombe, Kec. Sentani, Kabupaten Jayapura, Papua 99359","Jl. Btn Matoa, Hinekombe, Kec. Sentani, Kabupaten Jayapura",PAPUA,99359.0,Indonesia,,-2.5677653,140.4988215,https://maps.google.com/?cid=0x0:0xafb630f5469ba4a0
housing complex,Komplek perumahan,Perumahan,"CFVW+7CF, Hinekombe, Kec. Sentani, Kabupaten Jayapura, Papua 99359","Hinekombe, Kec. Sentani, Kabupaten Jayapura",PAPUA,99359.0,Indonesia,,-2.5567277,140.4960523,https://maps.google.com/?cid=0x0:0x2f00f569a3cb8e30
housing complex,Komplek perumahan,RUMAH NAILA,"FF57+9F7, Doyo Baru, Kec. Sentani, Kabupaten Jayapura, Papua 99352","Doyo Baru, Kec. Sentani, Kabupaten Jayapura",PAPUA,99352.0,Indonesia,,-2.5415421,140.4641458,https://maps.google.com/?cid=0x0:0x3ef1dd396fff0b8f
housing complex,Komplek perumahan,BTN SOSIAL SENTANI,"CGW2+6GX, Jl.BTN Sosial, Hinekombe, Kec. Sentani, Kabupaten Jayapura, Papua 99359","Jl.BTN Sosial, Hinekombe, Kec. Sentani, Kabupaten Jayapura",PAPUA,99359.0,Indonesia,82199282576.0,-2.554347,140.5013863,https://maps.google.com/?cid=0x0:0x32797fe7f2f56f38
housing complex,Asrama Pelajar,ASRAMA 2 SPH,"FF2Q+PGM, Hinekombe, Kec. Sentani, Kabupaten Jayapura, Papua 99352","Hinekombe, Kec. Sentani, Kabupaten Jayapura",PAPUA,99352.0,Indonesia,,-2.5485949,140.4884203,https://maps.google.com/?cid=0x0:0x6d9ec3b0c9b462ca
housing complex,Penyelenggara Perjalanan,GRIYA RASEN,"BTN Griya Rasen, Hinekombe, Kec. Sentani, Kabupaten Jayapura, Papua 99352","Hinekombe, Kec. Sentani, Kabupaten Jayapura",PAPUA,99352.0,Indonesia,,-2.5563329,140.4888943,https://maps.google.com/?cid=0x0:0x89d7b12c955b6c8b
housing complex,Komplek perumahan,JEFKIN PALLO_HOME,"Jl. Raya Kemiri Blok G, Jalur 3, Hinekombe, Kec. Sentani, Kabupaten Jayapura, Papua 99352","Jalur 3, Hinekombe, Kec. Sentani, Kabupaten Jayapura",PAPUA,99352.0,Indonesia,,-2.5488566,140.4832181,https://maps.google.com/?cid=0x0:0xa462e034458f652d
housing complex,Komplek perumahan,RUMAH MAFIA,"Jl. Ps. Lama Sentani No.16a, Hinekombe, Kec. Sentani, Kabupaten Jayapura, Papua 99352","Hinekombe, Kec. Sentani, Kabupaten Jayapura",PAPUA,99352.0,Indonesia,,-2.5677351,140.5045866,https://maps.google.com/?cid=0x0:0xa58b29a14b431517
housing complex,Komplek perumahan,ACOM,"CF5H+JR, Yoboy / Kehusa / Kehiran, Kec. Sentani, Kabupaten Jayapura, Papua 99352","Yoboy / Kehusa / Kehiran, Kec. Sentani, Kabupaten Jayapura",PAPUA,99352.0,Indonesia,,-2.5909579,140.4795022,https://maps.google.com/?cid=0x0:0x658ec571ce1e2a49
housing complex,Pembangunan Perumahan,Kompleks felle,"CFQR+9HF, Jl. Ps. Baru Sentani, Hinekombe, Kec. Sentani, Kabupaten Jayapura, Papua 99352","Jl. Ps. Baru Sentani, Hinekombe, Kec. Sentani, Kabupaten Jayapura",PAPUA,99352.0,Indonesia,,-2.5615677,140.4914213,https://maps.google.com/?cid=0x0:0xb389433d2b8013aa
housing complex,Perumahan,Perumahan Sentani Village,"CGFC+PQX, Jl. BTN Puskopad, Sentani Kota, Kec. Sentani, Kabupaten Jayapura, Papua 99359","Jl. BTN Puskopad, Sentani Kota, Kec. Sentani, Kabupaten Jayapura",PAPUA,99359.0,Indonesia,8114818411.0,-2.575645,140.5219982,https://maps.google.com/?cid=0x0:0xd8e3e731b971bd66
housing complex,housing complex,Papua 99359,"Kabupaten Jayapura, Papua","Kabupaten Jayapura, Papua",PAPUA,,Indonesia,,-2.5632464,140.534262,https://maps.google.com/?cid=0x0:0x15522b545274ab16
housing complex,Komplek perumahan,Perumahan Dunlop,"CGJG+J7C, Jl. Raya Airport Sentani, Sentani Kota, Kec. Sentani, Kabupaten Jayapura, Papua 99359","Jl. Raya Airport Sentani, Sentani Kota, Kec. Sentani, Kabupaten Jayapura",PAPUA,99359.0,Indonesia,,-2.5684424,140.5256263,https://maps.google.com/?cid=0x0:0x192721ba1ec52ed7
housing complex,Komplek perumahan,Perumahan Anha Helem Foi,"CGGM+R5W, Sentani Kota, Kec. Sentani, Kabupaten Jayapura, Papua 99359","Sentani Kota, Kec. Sentani, Kabupaten Jayapura",PAPUA,99359.0,Indonesia,,-2.572878,140.5329538,https://maps.google.com/?cid=0x0:0xbf83025349da6fb0
housing complex,Komplek perumahan,Messi home,"CGRF+37, Sentani Kota, Kec. Sentani, Kabupaten Jayapura, Papua 99359","Sentani Kota, Kec. Sentani, Kabupaten Jayapura",PAPUA,99359.0,Indonesia,,-2.559808,140.5232474,https://maps.google.com/?cid=0x0:0x3ea33fb36ff37092
housing complex,Komplek perumahan,Zivanka House,"CGHJ+5JX, Sentani Kota, Kec. Sentani, Kabupaten Jayapura, Papua 99359","Sentani Kota, Kec. Sentani, Kabupaten Jayapura",PAPUA,99359.0,Indonesia,,-2.5719501,140.5315748,https://maps.google.com/?cid=0x0:0xf6d965545cbd77d1
housing complex,housing complex,kel. A. Maniagasi,"CGGC+J97, Jl. BTN Puskopad, Sentani Kota, Kec. Sentani, Kabupaten Jayapura, Papua 99359","Jl. BTN Puskopad, Sentani Kota, Kec. Sentani, Kabupaten Jayapura",PAPUA,99359.0,Indonesia,,-2.5734622,140.5209065,https://maps.google.com/?cid=0x0:0x9988c5aa327f6f4a
housing complex,housing complex,Btn Graha Santika Sentani,"CGHC+QRP, Sentani Kota, Kec. Sentani, Kabupaten Jayapura, Papua 99359","Sentani Kota, Kec. Sentani, Kabupaten Jayapura",PAPUA,99359.0,Indonesia,,-2.5703864,140.5221376,https://maps.google.com/?cid=0x0:0x85b18668396332eb
housing complex,Komplek perumahan,Perumahan,"CFVW+7CF, Hinekombe, Kec. Sentani, Kabupaten Jayapura, Papua 99359","Hinekombe, Kec. Sentani, Kabupaten Jayapura",PAPUA,99359.0,Indonesia,,-2.5567277,140.4960523,https://maps.google.com/?cid=0x0:0x2f00f569a3cb8e30
housing complex,Komplek perumahan,RDO OH P3 DPPU SENTANI GROUP,"CGH8+W57, Sentani Kota, Kec. Sentani, Kabupaten Jayapura, Papua 99359","Sentani Kota, Kec. Sentani, Kabupaten Jayapura",PAPUA,99359.0,Indonesia,967591550.0,-2.5702133,140.5154069,https://maps.google.com/?cid=0x0:0xd3b3d049a9598a63
housing complex,Komplek perumahan,BTN Graha Mas Permai Jalu 3 Yahim Sentani Papua,"CG96+V6P, Btn graha mas permai, Yahim, Kec. Sentani, Kabupaten Jayapura, Papua 99359","Btn graha mas permai, Yahim, Kec. Sentani, Kabupaten Jayapura",PAPUA,99359.0,Indonesia,82278559167.0,-2.5801756,140.5105874,https://maps.google.com/?cid=0x0:0x3c0c28cc667a68a6
housing complex,housing complex,FUN,"FG2W+JF5, Sentani Kota, Kec. Sentani, Kabupaten Jayapura, Papua 99359","Sentani Kota, Kec. Sentani, Kabupaten Jayapura",PAPUA,99359.0,Indonesia,,-2.5484876,140.5462356,https://maps.google.com/?cid=0x0:0x1eb77e98ebfb8bb9
housing complex,Komplek perumahan,Perumahan citra buana,"Jl. Kehiran, Dobonsolo, Kec. Sentani, Kabupaten Jayapura, Papua 99359","Dobonsolo, Kec. Sentani, Kabupaten Jayapura",PAPUA,99359.0,Indonesia,81248536741.0,-2.5720334,140.5000166,https://maps.google.com/?cid=0x0:0x6dfb35842ce9b2ee
housing complex,Komplek perumahan,Perumahan Graha Nendali 2 Blok V,"CGGQ+CG5, Nendali, Kec. Sentani Tim., Kabupaten Jayapura, Papua 99359","Nendali, Kec. Sentani Tim., Kabupaten Jayapura",PAPUA,99359.0,Indonesia,,-2.5739757,140.5388502,https://maps.google.com/?cid=0x0:0x73a2e2815f968c96
housing complex,Gedung Apartemen,Apartemen Casa de Parco,"Sampora Kecamatan Cisauk Kawasan Taman Kota Barat, Gg. Kavling 2 No.3, Bumi, Serpong Damai, Kabupaten Tangerang, Banten 15345","Gg. Kavling 2 No.3, Bumi, Serpong Damai, Kabupaten Tangerang",PAPUA,15345.0,Indonesia,882016208379.0,-6.3061803,106.6521992,https://maps.google.com/?cid=0x0:0x80b5fdbbd16250ca
housing complex,housing complex,Papua 99353,"Kabupaten Jayapura, Papua","Kabupaten Jayapura, Papua",PAPUA,,Indonesia,,-2.4345515,140.4101474,https://maps.google.com/?cid=0x0:0xae8b3e09ee92fb9d
housing complex,Komplek perumahan,Depapre,"CGH8+WP5, Sentani Kota, Kec. Sentani, Kabupaten Jayapura, Papua 99359","Sentani Kota, Kec. Sentani, Kabupaten Jayapura",PAPUA,99359.0,Indonesia,,-2.5702474,140.5168116,https://maps.google.com/?cid=0x0:0x9c5ca957380f8697
housing complex,Pondok pedesaan,Yepase,"H9VR+WV, Yepase, Distrik Depapre, Kabupaten Jayapura, Papua","Kabupaten Jayapura, Papua",PAPUA,,Indonesia,82198566054.0,-2.4051527,140.3921708,https://maps.google.com/?cid=0x0:0x87e7b2eb26a708f1
housing complex,Pembangunan Perumahan,Doto demena,"H95C+FWH, Tablasupa, Distrik Depapre, Kabupaten Jayapura, Papua 99353","Tablasupa, Distrik Depapre, Kabupaten Jayapura",PAPUA,99353.0,Indonesia,,-2.4413125,140.3723594,https://maps.google.com/?cid=0x0:0xacf47f77974bd340
housing complex,Komplek perumahan,Kompleks Jeku,"H9G9+XR4, Tablasupa, Distrik Depapre, Kabupaten Jayapura, Papua 99353","Tablasupa, Distrik Depapre, Kabupaten Jayapura",PAPUA,99353.0,Indonesia,,-2.4226237,140.3695811,https://maps.google.com/?cid=0x0:0x19cb0404058ce503
housing complex,Komplek perumahan,"Tablasupa,Depapre","H9G9+QV3, Tablasupa, Kabupaten Jayapura, Papua","Kabupaten Jayapura, Papua",PAPUA,,Indonesia,,-2.4231125,140.3696719,https://maps.google.com/?cid=0x0:0x407ed45625565f0f
housing complex,Komplek perumahan,Alex suwae,"G8PW+R3C, Entiyebo, Distrik Depapre, Kabupaten Jayapura, Papua","Kabupaten Jayapura, Papua",PAPUA,,Indonesia,,-2.4634028,140.3444019,https://maps.google.com/?cid=0x0:0x863ab934b8cf9349
housing complex,Perumahan,Keluarga Rumfabe,"G9P9+RFQ, Kompleks Puskesmas, Waiya, Distrik Depapre, Kabupaten Jayapura, Papua","Kabupaten Jayapura, Papua",PAPUA,,Indonesia,,-2.4629048,140.3687434,https://maps.google.com/?cid=0x0:0x843326107f3682b8
housing complex,Komplek perumahan,Suwae Area,"G8MM+4X3, Kendate, Distrik Depapre, Kabupaten Jayapura, Papua","Kabupaten Jayapura, Papua",PAPUA,,Indonesia,,-2.4672466,140.3349295,https://maps.google.com/?cid=0x0:0xa0920e8c7d192b16
housing complex,housing complex,Keluarga Mesakh Demetouw,"G9P9+5R, Waiya, Distrik Depapre, Kabupaten Jayapura, Papua","Kabupaten Jayapura, Papua",PAPUA,,Indonesia,,-2.4645625,140.3695625,https://maps.google.com/?cid=0x0:0xda6723ba4c392b0d
housing complex,Komplek perumahan,Alfridha Parinding (Mama Jeni),"Jl, Waiya, Distrik Depapre, Kabupaten Jayapura, Papua 99353","Waiya, Distrik Depapre, Kabupaten Jayapura",PAPUA,99353.0,Indonesia,,-2.4638226,140.3646779,https://maps.google.com/?cid=0x0:0x8fbe801bbae29b02
housing complex,Komplek perumahan,RDP DPPU SENTANI GROUP,"CGH8+X3P, Jl. Yabaso, Sentani Kota, Kec. Sentani, Kabupaten Jayapura, Papua 99111","Jl. Yabaso, Sentani Kota, Kec. Sentani, Kabupaten Jayapura",PAPUA,99111.0,Indonesia,,-2.570038,140.5152151,https://maps.google.com/?cid=0x0:0xb3f6b401e292125c
housing complex,housing complex,Papua 99358,"Kabupaten Jayapura, Papua","Kabupaten Jayapura, Papua",PAPUA,,Indonesia,,-2.5423787,140.3894858,https://maps.google.com/?cid=0x0:0xe811437fcb2474bb
housing complex,Komplek perumahan,KOMPLEK PERUMAHAN JOKO INDAH SENTANI,"BTN JOKO INDAH Blk. E No.12, Yahim, Kec. Sentani, Kabupaten Jayapura, Papua 99352","Yahim, Kec. Sentani, Kabupaten Jayapura",PAPUA,99352.0,Indonesia,81344958171.0,-2.5788915,140.5015449,https://maps.google.com/?cid=0x0:0x5b0eeae30e321e4b
housing complex,Tujuan Wisata,Kampung Tua,"FCM4+8JX, Dosai, Distrik Sentani Barat, Kabupaten Jayapura, Papua 99358","Dosai, Distrik Sentani Barat, Kabupaten Jayapura",PAPUA,99358.0,Indonesia,82199669728.0,-2.5166471,140.4066155,https://maps.google.com/?cid=0x0:0x6f05eba4a850afca
housing complex,Pembangunan Perumahan,PERUMAHAN SENTANI RESIDENCE,"CFPV+J8G, Jl. Youmakhe, Hinekombe, Kec. Sentani, Kabupaten Jayapura, Papua 99352","Jl. Youmakhe, Hinekombe, Kec. Sentani, Kabupaten Jayapura",PAPUA,99352.0,Indonesia,,-2.5634317,140.4933143,https://maps.google.com/?cid=0x0:0x4299ac5f715de561
housing complex,Pembangunan Perumahan,home,"CFP8+5MJ, Doyo Lama, Distrik Waibu, Kabupaten Jayapura, Papua 99352","Doyo Lama, Distrik Waibu, Kabupaten Jayapura",PAPUA,99352.0,Indonesia,,-2.5650475,140.4660292,https://maps.google.com/?cid=0x0:0xe4039604c18369ef
housing complex,housing complex,SKB Family (Squad Keday Biru),"F9WG+GQR, Maribu, Distrik Sentani Barat, Kabupaten Jayapura, Papua 99358","Maribu, Distrik Sentani Barat, Kabupaten Jayapura",PAPUA,99358.0,Indonesia,,-2.5028546,140.3761353,https://maps.google.com/?cid=0x0:0x165e83e76b98b4cc
housing complex,Komplek perumahan,RUMAH NAILA,"FF57+9F7, Doyo Baru, Kec. Sentani, Kabupaten Jayapura, Papua 99352","Doyo Baru, Kec. Sentani, Kabupaten Jayapura",PAPUA,99352.0,Indonesia,,-2.5415421,140.4641458,https://maps.google.com/?cid=0x0:0x3ef1dd396fff0b8f
housing complex,Pembangunan Perumahan,BTN PINBAR II Doyo baru Sentani,"FF37+M45, Unnamed Road, Doyo Baru, Distrik Waibu, Kabupaten Jayapura, Papua 99352","Unnamed Road, Doyo Baru, Distrik Waibu, Kabupaten Jayapura",PAPUA,99352.0,Indonesia,,-2.5458701,140.4628464,https://maps.google.com/?cid=0x0:0xe453d4855b4eb852
housing complex,Komplek perumahan,Rumah ibu walia,"FCQG+G8V, Sabron Sari, Distrik Sentani Barat, Kabupaten Jayapura, Papua 99358","Sabron Sari, Distrik Sentani Barat, Kabupaten Jayapura",PAPUA,99358.0,Indonesia,,-2.511126,140.4258091,https://maps.google.com/?cid=0x0:0xeda478976692779f
housing complex,Komplek perumahan,Rumah Sentania,"FF48+X62, Doyo Baru, Distrik Waibu, Kabupaten Jayapura, Papua 99352","Doyo Baru, Distrik Waibu, Kabupaten Jayapura",PAPUA,99352.0,Indonesia,,-2.5423137,140.4651963,https://maps.google.com/?cid=0x0:0xe4a92ec325f0e124
housing complex,Komplek perumahan,Op. Gamaliel House,"FF2C+QJJ, Doyo Baru, Distrik Waibu, Kabupaten Jayapura, Papua","Kabupaten Jayapura, Papua",PAPUA,,Indonesia,,-2.5484675,140.4710788,https://maps.google.com/?cid=0x0:0xb77023ff1e83cbb0
housing complex,Komplek perumahan,Perumahan,"CFVW+7CF, Hinekombe, Kec. Sentani, Kabupaten Jayapura, Papua 99359","Hinekombe, Kec. Sentani, Kabupaten Jayapura",PAPUA,99359.0,Indonesia,,-2.5567277,140.4960523,https://maps.google.com/?cid=0x0:0x2f00f569a3cb8e30
housing complex,Komplek perumahan,Newa,"9CQJ+XQ, Dondai, Distrik Waibu, Kabupaten Jayapura, Papua","Kabupaten Jayapura, Papua",PAPUA,,Indonesia,,-2.6098336,140.4317596,https://maps.google.com/?cid=0x0:0x94b75e30f26caba2
housing complex,Komplek perumahan,Poskamling Maribu kkn uningrat Papua 2024,"Maribu, Sentani, Kabupaten Jayapura, Papua 99358","Sentani, Kabupaten Jayapura",PAPUA,99358.0,Indonesia,81361315106.0,-2.4976672,140.3744134,https://maps.google.com/?cid=0x0:0xc1b843d3b211ea63
housing complex,housing complex,Papua 99357,"Kabupaten Jayapura, Papua","Kabupaten Jayapura, Papua",PAPUA,,Indonesia,,-2.7850607,140.2244429,https://maps.google.com/?cid=0x0:0x37d7dde7ca57ffbb
housing complex,Perhimpunan Pengembang Perumahan,"Bring kemtuk gresi , jayapura","86R7+HRM, Unnamed Road, Omon, Distrik Gresi Selatan, Kabupaten Jayapura, Papua 99357","Unnamed Road, Omon, Distrik Gresi Selatan, Kabupaten Jayapura",PAPUA,99357.0,Indonesia,,-2.6585444,140.2145592,https://maps.google.com/?cid=0x0:0x577934ac9f6f1b7d
housing complex,Komplek perumahan,RMH_KPK_KWANSU,"C784+CJ, Kwansu, Kec. Kemtuk, Kabupaten Jayapura, Papua","Kabupaten Jayapura, Papua",PAPUA,,Indonesia,,-2.5839678,140.2565161,https://maps.google.com/?cid=0x0:0xc5d9189e36926ab9
housing complex,Komplek perumahan,SALYAB SUKU DANTRU,"89WR+XM9, Sabeab Kecil, Kec. Kemtuk, Kabupaten Jayapura, Papua","Kabupaten Jayapura, Papua",PAPUA,,Indonesia,,-2.6525944,140.3917362,https://maps.google.com/?cid=0x0:0xdd8f28e3538a94b1
housing complex,Pembangunan Perumahan,Kampung Merem Atas,"87X9+93C, Damoi Kati, Distrik Kemtuk Gresi, Kabupaten Jayapura, Papua 99357","Damoi Kati, Distrik Kemtuk Gresi, Kabupaten Jayapura",PAPUA,99357.0,Indonesia,,-2.6513757,140.2672017,https://maps.google.com/?cid=0x0:0x4a3459dd274ed0b5
housing complex,Perhimpunan Pengembang Perumahan,Akom pmd,"9753+683, Damoi Kati, Distrik Kemtuk Gresi, Kabupaten Jayapura, Papua 99357","Damoi Kati, Distrik Kemtuk Gresi, Kabupaten Jayapura",PAPUA,99357.0,Indonesia,,-2.6419798,140.253308,https://maps.google.com/?cid=0x0:0x45c63f6c9f6ea64c
housing complex,Komplek perumahan,Rumah orang klemen,"9688+PGP, Bring, Distrik Kemtuk Gresi, Kabupaten Jayapura, Papua","Kabupaten Jayapura, Papua",PAPUA,,Indonesia,,-2.6331684,140.2163288,https://maps.google.com/?cid=0x0:0x972e7bae16ae216e
housing complex,Komplek perumahan,Rumah siska,"97WQ+HW, Nambon, Kec. Kemtuk, Kabupaten Jayapura, Papua","Kabupaten Jayapura, Papua",PAPUA,,Indonesia,,-2.6035851,140.2898486,https://maps.google.com/?cid=0x0:0xdae0c934d509f962
housing complex,Komplek perumahan,Junitha Home,"C75J+HQQ, Nambon, Kec. Kemtuk, Kabupaten Jayapura, Papua","Kabupaten Jayapura, Papua",PAPUA,,Indonesia,,-2.5910369,140.2819847,https://maps.google.com/?cid=0x0:0xa6a5ff625b70889d
housing complex,Pembangunan Perumahan,Kampung Skori,"8FM4+24, Skoaim, Kec. Kemtuk, Kabupaten Jayapura, Papua","Kabupaten Jayapura, Papua",PAPUA,,Indonesia,,-2.667405,140.455336,https://maps.google.com/?cid=0x0:0x995a098af02b2972
housing complex,Komplek perumahan,Rumah Keluarga Singgamui,"C764+XP9, Kwansu, Kec. Kemtuk, Kabupaten Jayapura, Papua 99361","Kwansu, Kec. Kemtuk, Kabupaten Jayapura",PAPUA,99361.0,Indonesia,,-2.5875816,140.2569197,https://maps.google.com/?cid=0x0:0xf38c4ff3022dcb7e
housing complex,Komplek perumahan,Rumah Sekkam Kwansu,"C766+W8G, Kwansu, Kec. Kemtuk, Kabupaten Jayapura, Papua 99361","Kwansu, Kec. Kemtuk, Kabupaten Jayapura",PAPUA,99361.0,Indonesia,,-2.5876783,140.2608344,https://maps.google.com/?cid=0x0:0xea24135c122392fd
housing complex,Pembangunan Perumahan,Ibu Martina Danuel,"9678+QC5, Bring, Distrik Kemtuk Gresi, Kabupaten Jayapura, Papua 99357","Bring, Distrik Kemtuk Gresi, Kabupaten Jayapura",PAPUA,99357.0,Indonesia,,-2.6356124,140.2161009,https://maps.google.com/?cid=0x0:0xcfbed2918f91ac18
housing complex,Komplek perumahan,Rumah Keluarga Anderi Yaroseray,"965X+F32, Hatib, Distrik Kemtuk Gresi, Kabupaten Jayapura, Papua 99357","Hatib, Distrik Kemtuk Gresi, Kabupaten Jayapura",PAPUA,99357.0,Indonesia,,-2.6413593,140.2476353,https://maps.google.com/?cid=0x0:0x548b1ff66cba3b79
housing complex,Perhimpunan Pengembang Perumahan,"Bring kemtuk gresi , jayapura","86R7+HRM, Unnamed Road, Omon, Distrik Gresi Selatan, Kabupaten Jayapura, Papua 99357","Unnamed Road, Omon, Distrik Gresi Selatan, Kabupaten Jayapura",PAPUA,99357.0,Indonesia,,-2.6585444,140.2145592,https://maps.google.com/?cid=0x0:0x577934ac9f6f1b7d
housing complex,housing complex,Papua 99357,"Kabupaten Jayapura, Papua","Kabupaten Jayapura, Papua",PAPUA,,Indonesia,,-2.7850607,140.2244429,https://maps.google.com/?cid=0x0:0x37d7dde7ca57ffbb
housing complex,Komplek perumahan,Rumah orang klemen,"9688+PGP, Bring, Distrik Kemtuk Gresi, Kabupaten Jayapura, Papua","Kabupaten Jayapura, Papua",PAPUA,,Indonesia,,-2.6331684,140.2163288,https://maps.google.com/?cid=0x0:0x972e7bae16ae216e
housing complex,Pembangunan Perumahan,EDS Rumah Tinggal,"86QW+GM, Jagrang, Distrik Kemtuk Gresi, Kabupaten Jayapura, Papua","Kabupaten Jayapura, Papua",PAPUA,,Indonesia,,-2.661176,140.246654,https://maps.google.com/?cid=0x0:0x6d59001e6473066e
housing complex,Pembangunan Perumahan,Kampung Merem Atas,"87X9+93C, Damoi Kati, Distrik Kemtuk Gresi, Kabupaten Jayapura, Papua 99357","Damoi Kati, Distrik Kemtuk Gresi, Kabupaten Jayapura",PAPUA,99357.0,Indonesia,,-2.6513757,140.2672017,https://maps.google.com/?cid=0x0:0x4a3459dd274ed0b5
housing complex,Komplek perumahan,Rumah Keluarga Anderi Yaroseray,"965X+F32, Hatib, Distrik Kemtuk Gresi, Kabupaten Jayapura, Papua 99357","Hatib, Distrik Kemtuk Gresi, Kabupaten Jayapura",PAPUA,99357.0,Indonesia,,-2.6413593,140.2476353,https://maps.google.com/?cid=0x0:0x548b1ff66cba3b79
housing complex,Perhimpunan Pengembang Perumahan,Akom pmd,"9753+683, Damoi Kati, Distrik Kemtuk Gresi, Kabupaten Jayapura, Papua 99357","Damoi Kati, Distrik Kemtuk Gresi, Kabupaten Jayapura",PAPUA,99357.0,Indonesia,,-2.6419798,140.253308,https://maps.google.com/?cid=0x0:0x45c63f6c9f6ea64c
housing complex,Komplek perumahan,Sebori home,"96J9+JGH, Belakang polsek, Distrik Kemtuk Gresi, Kabupaten Jayapura, Papua","Kabupaten Jayapura, Papua",PAPUA,,Indonesia,,-2.6184436,140.2188529,https://maps.google.com/?cid=0x0:0xa7d9a5a561af99d2
housing complex,Komplek perumahan,Rumah Keluarga Singgamui,"C764+XP9, Kwansu, Kec. Kemtuk, Kabupaten Jayapura, Papua 99361","Kwansu, Kec. Kemtuk, Kabupaten Jayapura",PAPUA,99361.0,Indonesia,,-2.5875816,140.2569197,https://maps.google.com/?cid=0x0:0xf38c4ff3022dcb7e
housing complex,Komplek perumahan,Rumah siska,"97WQ+HW, Nambon, Kec. Kemtuk, Kabupaten Jayapura, Papua","Kabupaten Jayapura, Papua",PAPUA,,Indonesia,,-2.6035851,140.2898486,https://maps.google.com/?cid=0x0:0xdae0c934d509f962
housing complex,Komplek perumahan,SALYAB SUKU DANTRU,"89WR+XM9, Sabeab Kecil, Kec. Kemtuk, Kabupaten Jayapura, Papua","Kabupaten Jayapura, Papua",PAPUA,,Indonesia,,-2.6525944,140.3917362,https://maps.google.com/?cid=0x0:0xdd8f28e3538a94b1
housing complex,Pembangunan Perumahan,Ibu Martina Danuel,"9678+QC5, Bring, Distrik Kemtuk Gresi, Kabupaten Jayapura, Papua 99357","Bring, Distrik Kemtuk Gresi, Kabupaten Jayapura",PAPUA,99357.0,Indonesia,,-2.6356124,140.2161009,https://maps.google.com/?cid=0x0:0xcfbed2918f91ac18
housing complex,Komplek perumahan,Junitha Home,"C75J+HQQ, Nambon, Kec. Kemtuk, Kabupaten Jayapura, Papua","Kabupaten Jayapura, Papua",PAPUA,,Indonesia,,-2.5910369,140.2819847,https://maps.google.com/?cid=0x0:0xa6a5ff625b70889d
housing complex,Pembangunan Perumahan,Kampung Skori,"8FM4+24, Skoaim, Kec. Kemtuk, Kabupaten Jayapura, Papua","Kabupaten Jayapura, Papua",PAPUA,,Indonesia,,-2.667405,140.455336,https://maps.google.com/?cid=0x0:0x995a098af02b2972
housing complex,housing complex,Distrik Nimboran,"Kabupaten Jayapura, Papua","Kabupaten Jayapura, Papua",PAPUA,,Indonesia,,-2.5963423,140.1662573,https://maps.google.com/?cid=0x0:0x1cf39af2b94e731d
housing complex,Komplek perumahan,Kampung Besum,"96XC+H64, Besum, Nimboran Tim. / Namblong, Kabupaten Jayapura, Papua 99361","Besum, Nimboran Tim. / Namblong, Kabupaten Jayapura",PAPUA,99361.0,Indonesia,,-2.6011078,140.22058,https://maps.google.com/?cid=0x0:0x2b5ba7c070be5157
housing complex,Komplek perumahan,Hana Home,"C53C+W9, Kuwase, Distrik Nimboran, Kabupaten Jayapura, Papua 99361","Kuwase, Distrik Nimboran, Kabupaten Jayapura",PAPUA,99361.0,Indonesia,,-2.5952031,140.1709885,https://maps.google.com/?cid=0x0:0xd0a70210f669cfac
housing complex,Perhimpunan Pengembang Perumahan,Soleman home,"C578+F7, Gemebs, Distrik Nimboran, Kabupaten Jayapura, Papua","Kabupaten Jayapura, Papua",PAPUA,,Indonesia,,-2.5862889,140.1657249,https://maps.google.com/?cid=0x0:0x61456e41a9ddd8cc
housing complex,Komplek perumahan,Piter Home,"C578+F7, Tabri, Distrik Nimboran, Kabupaten Jayapura, Papua","Kabupaten Jayapura, Papua",PAPUA,,Indonesia,,-2.5854615,140.1657007,https://maps.google.com/?cid=0x0:0x70d682dbb28a7b74
housing complex,Komplek perumahan,Jhefry charles,"C548+3F7, Tabri, Distrik Nimboran, Kabupaten Jayapura, Papua 99361","Tabri, Distrik Nimboran, Kabupaten Jayapura",PAPUA,99361.0,Indonesia,,-2.5948302,140.1661837,https://maps.google.com/?cid=0x0:0x2eb054f0cd068152
housing complex,Komplek perumahan,Rupon Jaya,"C66J+5JV, Karya Bumi, Nimboran Tim. / Namblong, Kabupaten Jayapura, Papua 99361","Karya Bumi, Nimboran Tim. / Namblong, Kabupaten Jayapura",PAPUA,99361.0,Indonesia,,-2.5885343,140.2308403,https://maps.google.com/?cid=0x0:0x4119f9377973a2ca
housing complex,Komplek perumahan,Singgriwai,"C424+WC4, Singgriway, Distrik Nimboran, Kabupaten Jayapura, Papua 99361","Singgriway, Distrik Nimboran, Kabupaten Jayapura",PAPUA,99361.0,Indonesia,,-2.5977497,140.1060931,https://maps.google.com/?cid=0x0:0x63090d44c947b5be
housing complex,Perhimpunan Pengembang Perumahan,Rumah genyem,"C548+RVF, Tabri, Distrik Nimboran, Kabupaten Jayapura, Papua 99361","Tabri, Distrik Nimboran, Kabupaten Jayapura",PAPUA,99361.0,Indonesia,,-2.5929485,140.167181,https://maps.google.com/?cid=0x0:0x220915485642f794
housing complex,Komplek perumahan,Rumah Lutfi,"F43R+6FJ, Nembukrangsari No.RT 05, Nembukrang, Distrik Nimbokrang, Kabupaten Jayapura, Papua 99361","Nembukrangsari No.RT 05, Nembukrang, Distrik Nimbokrang, Kabupaten Jayapura",PAPUA,99361.0,Indonesia,,-2.5468584,140.1407496,https://maps.google.com/?cid=0x0:0x6da520612fd3045c
housing complex,Pembangunan Perumahan,Yenggu baru,"94H8+CHR, Yenggu Baru, Distrik Nimboran, Kabupaten Jayapura, Papua 99361","Yenggu Baru, Distrik Nimboran, Kabupaten Jayapura",PAPUA,99361.0,Indonesia,,-2.6213927,140.1163752,https://maps.google.com/?cid=0x0:0x4a886bd207754310
housing complex,housing complex,Rumah yoga,"C66J+8FF, Karya Bumi, Nimboran Tim. / Namblong, Kabupaten Jayapura, Papua 99361","Karya Bumi, Nimboran Tim. / Namblong, Kabupaten Jayapura",PAPUA,99361.0,Indonesia,,-2.5891888,140.2311804,https://maps.google.com/?cid=0x0:0x2748cd4b3fc49d65
housing complex,Komplek perumahan,Rumah suparlan,"C65J+FQ7, Karya Bumi, Nimboran Tim. / Namblong, Kabupaten Jayapura, Papua 99361","Karya Bumi, Nimboran Tim. / Namblong, Kabupaten Jayapura",PAPUA,99361.0,Indonesia,,-2.5913345,140.2319289,https://maps.google.com/?cid=0x0:0x4a09312ad6fb324d
housing complex,housing complex,Oyengsi,"94RX+24G, Yenggu Baru, Distrik Nimboran, Kabupaten Jayapura, Papua 99361","Yenggu Baru, Distrik Nimboran, Kabupaten Jayapura",PAPUA,99361.0,Indonesia,,-2.6098933,140.1475594,https://maps.google.com/?cid=0x0:0x64149817818d631
housing complex,housing complex,Papua 99362,"Kabupaten Jayapura, Papua","Kabupaten Jayapura, Papua",PAPUA,,Indonesia,,-2.4816716,139.998236,https://maps.google.com/?cid=0x0:0x914eb9d0bad553fd
housing complex,Komplek perumahan,Nimbokrang,"FCW2+XF, Maribu, Distrik Sentani Barat, Kabupaten Jayapura, Papua","Kabupaten Jayapura, Papua",PAPUA,,Indonesia,,-2.502586,140.401176,https://maps.google.com/?cid=0x0:0x54910e8e995e91fe
housing complex,Komplek perumahan,NIMBO RESIDENCE,"C4V8+4H9, Unnamed Road, Bunyom, Distrik Nimbokrang, Kabupaten Jayapura, Papua 99361","Unnamed Road, Bunyom, Distrik Nimbokrang, Kabupaten Jayapura",PAPUA,99361.0,Indonesia,8114890908.0,-2.5572191,140.1164906,https://maps.google.com/?cid=0x0:0xd4938e5ec62ac7e4
housing complex,Komplek perumahan,Isak Napo (My home),"F4QV+CH4, Berab, Distrik Nimbokrang, Kabupaten Jayapura, Papua 99362","Berab, Distrik Nimbokrang, Kabupaten Jayapura",PAPUA,99362.0,Indonesia,,-2.512365,140.1449014,https://maps.google.com/?cid=0x0:0xaf1fc80754fd1261
housing complex,Komplek perumahan,Nurkholis and Qomarul House,"Jalan Pangeran Diponegoro No.47 Blok C, RT.9/RW.3, Nembukrang, Distrik Nimbokrang, Kabupaten Jayapura, Papua 99362","RT.9/RW.3, Nembukrang, Distrik Nimbokrang, Kabupaten Jayapura",PAPUA,99362.0,Indonesia,,-2.5466981,140.1364449,https://maps.google.com/?cid=0x0:0x6860f21c76802f36
housing complex,Pembangunan Perumahan,AN Jastip,"Jl. yos Sudarso No.blok D, Nembukrang, Distrik Nimbokrang, Kabupaten Jayapura, Papua","Kabupaten Jayapura, Papua",PAPUA,,Indonesia,85255682691.0,-2.5482151,140.1341511,https://maps.google.com/?cid=0x0:0x42d9f84fceb67a15
housing complex,Perumahan,Wagito home's,"F444+C5P, Benyom Jaya II, Distrik Nimbokrang, Kabupaten Jayapura, Papua","Kabupaten Jayapura, Papua",PAPUA,,Indonesia,,-2.5439216,140.1054391,https://maps.google.com/?cid=0x0:0x5894870152b5f8b0
housing complex,Pembangunan Perumahan,Exchel,"F42M+PM6, Jln, Nembukrang, Distrik Nimbokrang, Kabupaten Jayapura, Papua","Kabupaten Jayapura, Papua",PAPUA,,Indonesia,,-2.5482152,140.1341511,https://maps.google.com/?cid=0x0:0x104b938eb5ff3e5d
housing complex,Kantor Perusahaan,Kkpa Pt.rimba matoa.Lestari,"GW8Q+H9J, Desa, Buasem, Kec. Unurum Guay, Kabupaten Jayapura, Papua 99362","Desa, Buasem, Kec. Unurum Guay, Kabupaten Jayapura",PAPUA,99362.0,Indonesia,,-2.4835396,139.9383944,https://maps.google.com/?cid=0x0:0xd3483a61b45e9d94
housing complex,Komplek perumahan,Rumah Viga,"F42J+R5, Nembukrang, Distrik Nimbokrang, Kabupaten Jayapura, Papua 99361","Nembukrang, Distrik Nimbokrang, Kabupaten Jayapura",PAPUA,99361.0,Indonesia,,-2.5479155,140.1303988,https://maps.google.com/?cid=0x0:0x39c112d5bd812f27
housing complex,Komplek perumahan,Bama pu rumah,"C4XP+R24, Nembukrang, Distrik Nimbokrang, Kabupaten Jayapura, Papua 99361","Nembukrang, Distrik Nimbokrang, Kabupaten Jayapura",PAPUA,99361.0,Indonesia,,-2.5504792,140.1351323,https://maps.google.com/?cid=0x0:0xda0c452e3cb711ce
housing complex,Komplek perumahan,Rumah Lutfi,"F43R+6FJ, Nembukrangsari No.RT 05, Nembukrang, Distrik Nimbokrang, Kabupaten Jayapura, Papua 99361","Nembukrangsari No.RT 05, Nembukrang, Distrik Nimbokrang, Kabupaten Jayapura",PAPUA,99361.0,Indonesia,,-2.5468584,140.1407496,https://maps.google.com/?cid=0x0:0x6da520612fd3045c
housing complex,Komplek perumahan,Nainggu Yano,"C6GF+52M, Desa, Hamonggrang, Nimbokrang, Jayapura Regency, Papua","Kabupaten Jayapura, Papua",PAPUA,,Indonesia,,-2.5745447,140.2225392,https://maps.google.com/?cid=0x0:0x5719859d2f65aeaa
housing complex,Komplek perumahan,Rizky Codrad,"F43G+4VG, Unnamed Road, Nembukrang, Distrik Nimbokrang, Kabupaten Jayapura, Papua 99361","Unnamed Road, Nembukrang, Distrik Nimbokrang, Kabupaten Jayapura",PAPUA,99361.0,Indonesia,,-2.5471929,140.1271975,https://maps.google.com/?cid=0x0:0x6ba772bcb131f4bf
housing complex,Komplek perumahan,Perumahan Echo 4 NURE,"3WJW+MW6, Yadauw, Kaureh, Kabupaten Jayapura, Papua","Kabupaten Jayapura, Papua",PAPUA,,Indonesia,,-2.9183413,139.9472678,https://maps.google.com/?cid=0x0:0x16cdd2a0de1e0284
housing complex,housing complex,Papua 99356,"Kabupaten Jayapura, Papua","Kabupaten Jayapura, Papua",PAPUA,,Indonesia,,-2.7977377,139.7728757,https://maps.google.com/?cid=0x0:0x48ebe0b186aa7324
housing complex,Komplek perumahan,"Buasum,Ninasre bambukuning","8QGF+F52, Guriyad, Kec. Unurum Guay, Kabupaten Jayapura, Papua","Kabupaten Jayapura, Papua",PAPUA,,Indonesia,,-2.673867,139.7728757,https://maps.google.com/?cid=0x0:0xdb481498507f425b
housing complex,Komplek perumahan,Perumahan Echo V Sinar Mas Lereh,"4X34+69Q, Yadauw, Kaureh, Kabupaten Jayapura, Papua","Kabupaten Jayapura, Papua",PAPUA,,Indonesia,81248719710.0,-2.8969176,139.955993,https://maps.google.com/?cid=0x0:0xb6df55264027c79b
housing complex,housing complex,Perumahan Staff CNDE,"3X6H+35, Yadauw, Kaureh, Kabupaten Jayapura, Papua","Kabupaten Jayapura, Papua",PAPUA,,Indonesia,,-2.939856,139.977975,https://maps.google.com/?cid=0x0:0xd43a7f02ab29db15
housing complex,Pembangunan Perumahan,Kampung rhepang muaip,"C355+4WX, Beneik, Kec. Unurum Guay, Kabupaten Jayapura, Papua 99361","Beneik, Kec. Unurum Guay, Kabupaten Jayapura",PAPUA,99361.0,Indonesia,,-2.5921274,140.059845,https://maps.google.com/?cid=0x0:0x1bd4bfbb27f7e588
housing complex,housing complex,Kec. Unurum Guay,"Kabupaten Jayapura, Papua","Kabupaten Jayapura, Papua",PAPUA,,Indonesia,,-2.673867,139.7728757,https://maps.google.com/?cid=0x0:0x22bf6c8ffa85c45d
housing complex,Perhimpunan Pengembang Perumahan,Pustu sp 5,"54Q2+G98 Sp 5, Ongan Jaya, Yapsi, Kabupaten Jayapura, Papua","Kabupaten Jayapura, Papua",PAPUA,,Indonesia,,-2.811221,140.1009527,https://maps.google.com/?cid=0x0:0xe97b2f182154860a
housing complex,Komplek perumahan,Muara Pasra,"4R6W+P72, Umbron, Kaureh, Kabupaten Jayapura, Papua","Kabupaten Jayapura, Papua",PAPUA,,Indonesia,,-2.8882301,139.8456474,https://maps.google.com/?cid=0x0:0xbb042b7fc8425f4f
housing complex,Komplek perumahan,Jumali fariq,"3RMQ+RM, Sentosa, Kaureh, Kabupaten Jayapura, Papua 99364","Sentosa, Kaureh, Kabupaten Jayapura",PAPUA,99364.0,Indonesia,,-2.9154931,139.839161,https://maps.google.com/?cid=0x0:0xee31362c57c9fb91
housing complex,housing complex,Perbatasan kabupaten,"HQJF+MC, Sawesuma, Kec. Unurum Guay, Kabupaten Jayapura, Papua","Kabupaten Jayapura, Papua",PAPUA,,Indonesia,,-2.418292,139.773514,https://maps.google.com/?cid=0x0:0xc7d6ec12e002014
housing complex,Komplek perumahan,WARAS SLAMET,"6397+F2, Bundru, Yapsi, Kabupaten Jayapura, Papua","Kabupaten Jayapura, Papua",PAPUA,,Indonesia,,-2.781295,140.062526,https://maps.google.com/?cid=0x0:0x307478d4f4b21e3c
housing complex,Perumahan,PERUMAHAN ICHA CALL,"2XRV+MG6, Yadauw, Kaureh, Kabupaten Jayapura, Papua","Kabupaten Jayapura, Papua",PAPUA,,Indonesia,,-2.9571044,139.9936493,https://maps.google.com/?cid=0x0:0xf72b505041d4ca46
housing complex,Kantor Pemerintah,Purnama jati,"54Q2+G98, Ongan Jaya, Yapsi, Kabupaten Jayapura, Papua","Kabupaten Jayapura, Papua",PAPUA,,Indonesia,,-2.811221,140.1009527,https://maps.google.com/?cid=0x0:0x51bb79bc75801f97
housing complex,Komplek perumahan,DEMTA kota,"J4WR+5JF, Demta Kota, Distrik Demta, Kabupaten Jayapura, Papua 99354","Demta Kota, Distrik Demta, Kabupaten Jayapura",PAPUA,99354.0,Indonesia,,-2.3545512,140.1415469,https://maps.google.com/?cid=0x0:0xd281b9d7fd6fad41
housing complex,housing complex,Papua 99354,"Kabupaten Jayapura, Papua","Kabupaten Jayapura, Papua",PAPUA,,Indonesia,,-2.425843,140.1626664,https://maps.google.com/?cid=0x0:0xed2e9d28341a8606
housing complex,Komplek perumahan,Ayamsa,"J5R2+G8W, Muris Kecil, Distrik Demta, Kabupaten Jayapura, Papua 99354","Muris Kecil, Distrik Demta, Kabupaten Jayapura",PAPUA,99354.0,Indonesia,,-2.3586365,140.1508269,https://maps.google.com/?cid=0x0:0xa5ed7a79be9a7f3a
housing complex,Rumah wisata,Mess Guru SMA Negeri Demta,"Jln No.Km 7, Demta Kota, Berap, Jayapura Regency, Papua","Kabupaten Jayapura, Papua",PAPUA,,Indonesia,,-2.4141514,140.1384454,https://maps.google.com/?cid=0x0:0xd50b9ef4634eadbd
housing complex,Komplek perumahan,Watuwga pu tempat,"M42P+C64, Ambora, Distrik Demta, Kabupaten Jayapura, Papua","Kabupaten Jayapura, Papua",PAPUA,,Indonesia,,-2.348462,140.1352561,https://maps.google.com/?cid=0x0:0xe0ab3e1d3536a672
housing complex,Komplek perumahan,Kampung Muris Kecil,"J5R2+GC2, Muris Kecil, Distrik Demta, Kabupaten Jayapura, Papua 99354","Muris Kecil, Distrik Demta, Kabupaten Jayapura",PAPUA,99354.0,Indonesia,,-2.3587422,140.1510134,https://maps.google.com/?cid=0x0:0xe13bc6e1cfcb637c
housing complex,Komplek perumahan,Arampor,"J5G2+RRQ, Yakore, Distrik Demta, Kabupaten Jayapura, Papua 99354","Yakore, Distrik Demta, Kabupaten Jayapura",PAPUA,99354.0,Indonesia,,-2.372589,140.151733,https://maps.google.com/?cid=0x0:0x8960ea741b376caa
housing complex,housing complex,Papua 99364,"Kabupaten Jayapura, Papua","Kabupaten Jayapura, Papua",PAPUA,,Indonesia,,-3.2384616,139.8547266,https://maps.google.com/?cid=0x0:0x2e9677508a097a0f
housing complex,housing complex,Perumahan Staff CNDE,"3X6H+35, Yadauw, Kaureh, Kabupaten Jayapura, Papua","Kabupaten Jayapura, Papua",PAPUA,,Indonesia,,-2.939856,139.977975,https://maps.google.com/?cid=0x0:0xd43a7f02ab29db15
housing complex,Komplek perumahan,Perumahan Echo 4 NURE,"3WJW+MW6, Yadauw, Kaureh, Kabupaten Jayapura, Papua","Kabupaten Jayapura, Papua",PAPUA,,Indonesia,,-2.9183413,139.9472678,https://maps.google.com/?cid=0x0:0x16cdd2a0de1e0284
housing complex,Komplek perumahan,Perumahan Echo V Sinar Mas Lereh,"4X34+69Q, Yadauw, Kaureh, Kabupaten Jayapura, Papua","Kabupaten Jayapura, Papua",PAPUA,,Indonesia,81248719710.0,-2.8969176,139.955993,https://maps.google.com/?cid=0x0:0xb6df55264027c79b
housing complex,Perumahan,KAMPUNG SOSKOTEK - PERUMAHAN MENADO,"RXW3+Q3, Yadauw, Kaureh, Kabupaten Jayapura, Papua","Kabupaten Jayapura, Papua",PAPUA,,Indonesia,,-3.15308,139.95271,https://maps.google.com/?cid=0x0:0x9147d322bf1183e0
housing complex,Komplek perumahan,Perumahan Staf RJWE,"233R+WVH, Lapua, Kaureh, Kabupaten Jayapura, Papua","Kabupaten Jayapura, Papua",PAPUA,,Indonesia,,-2.9951797,140.0922425,https://maps.google.com/?cid=0x0:0x2f2656920308b3d3
housing complex,Komplek perumahan,JHUARES,"2V63+RVQ, Yadauw, Kaureh, Kabupaten Jayapura, Papua","Kabupaten Jayapura, Papua",PAPUA,,Indonesia,,-2.987923,139.8547266,https://maps.google.com/?cid=0x0:0x10630494b757f1f6
housing complex,housing complex,BTN Doyo Permai K.25,"BTN Doyo Permai K.25, Yadauw, Kaureh, Kabupaten Jayapura, Papua 99364","Yadauw, Kaureh, Kabupaten Jayapura",PAPUA,99364.0,Indonesia,,-2.987923,139.8547266,https://maps.google.com/?cid=0x0:0x8995ae5d65e6a223
housing complex,Komplek perumahan,Istanah Karang Putih,"2V63+RVQ, Yadauw, Kaureh, Kabupaten Jayapura, Papua","Kabupaten Jayapura, Papua",PAPUA,,Indonesia,,-2.987923,139.8547266,https://maps.google.com/?cid=0x0:0x5b2739cd43e72f6a
housing complex,Kantor Perusahaan,Pondok 2 Rajawali Estate (Garuda),"X4FQ+993, Lapua, Kaureh, Kabupaten Jayapura, Papua","Kabupaten Jayapura, Papua",PAPUA,,Indonesia,,-3.0266202,140.1384309,https://maps.google.com/?cid=0x0:0xc86ba9caa44aadda
housing complex,housing complex,Kampung umbron,"PQRJ+V3M, Sebum, Kaureh, Kabupaten Jayapura, Papua 99364","Sebum, Kaureh, Kabupaten Jayapura",PAPUA,99364.0,Indonesia,,-3.2577753,139.7801779,https://maps.google.com/?cid=0x0:0xe9be350ea3ff9453
housing complex,Kantor Perusahaan,Pondok 1 cnde lereh,"VWFW+22X, Yadauw, Kaureh, Kabupaten Jayapura, Papua","Kabupaten Jayapura, Papua",PAPUA,,Indonesia,,-3.12739,139.945099,https://maps.google.com/?cid=0x0:0x3f8e4687201b3494
housing complex,Perumahan,PERUMAHAN ICHA CALL,"2XRV+MG6, Yadauw, Kaureh, Kabupaten Jayapura, Papua","Kabupaten Jayapura, Papua",PAPUA,,Indonesia,,-2.9571044,139.9936493,https://maps.google.com/?cid=0x0:0xf72b505041d4ca46
housing complex,housing complex,Selvia Alasia,"W2VQ+F4, Lapua, Kaureh, Kabupaten Jayapura, Papua","Kabupaten Jayapura, Papua",PAPUA,,Indonesia,,-3.056286,140.0378038,https://maps.google.com/?cid=0x0:0xa417d362d9d9069b
housing complex,Produsen makanan,Perumahan BTN efata doyo,"FF38+97C, Doyo Baru, Distrik Waibu, Kabupaten Jayapura, Papua 99352","Doyo Baru, Distrik Waibu, Kabupaten Jayapura",PAPUA,99352.0,Indonesia,,-2.5465674,140.4656402,https://maps.google.com/?cid=0x0:0x86bd88b82ee8e95f
housing complex,housing complex,Papua 99352,"Kabupaten Jayapura, Papua","Kabupaten Jayapura, Papua",PAPUA,,Indonesia,,-2.5683577,140.4618316,https://maps.google.com/?cid=0x0:0xc4bf3fc2f14cfb38
housing complex,Komplek perumahan,Rumah Ghea,"BTN pemda No.10 Blok G6, Doyo Baru, Distrik Waibu, Kabupaten Jayapura, Papua","Kabupaten Jayapura, Papua",PAPUA,,Indonesia,,-2.5462568,140.4666154,https://maps.google.com/?cid=0x0:0x2a787a41cb559904
housing complex,Komplek perumahan,EBUNGFAUW,"9F99+G7F, Babrongko, Distrik Ebungfa, Kabupaten Jayapura, Papua","Kabupaten Jayapura, Papua",PAPUA,,Indonesia,,-2.631196,140.468186,https://maps.google.com/?cid=0x0:0xd42b69745ad154da
housing complex,Perumahan,Perumahan Grand Efata Blok I No. 91,"CFP8+PQ2, Jl, Doyo Lama, Waibu, Jayapura Regency, Papua 99352","Jl, Doyo Lama, Waibu, Jayapura Regency",PAPUA,99352.0,Indonesia,,-2.5632495,140.4668959,https://maps.google.com/?cid=0x0:0x7693c2895451b9e3
housing complex,Komplek perumahan,GRAND IFALE - KEMIRI AURUM TOWNHOUSE,"Hinekombe, Kec. Sentani, Kabupaten Jayapura, Papua 99352","Kec. Sentani, Kabupaten Jayapura",PAPUA,99352.0,Indonesia,81344333334.0,-2.5560349,140.4879733,https://maps.google.com/?cid=0x0:0x318f8a6daeae133b
housing complex,Produsen makanan,Rumah Elghi,"CFQ9+445 Perumahan grand efata, Doyo Lama, Distrik Waibu, Kabupaten Jayapura, Papua","Kabupaten Jayapura, Papua",PAPUA,,Indonesia,,-2.5622253,140.4678658,https://maps.google.com/?cid=0x0:0x28619f3b38911d11
housing complex,Komplek perumahan,Op. Gamaliel House,"FF2C+QJJ, Doyo Baru, Distrik Waibu, Kabupaten Jayapura, Papua","Kabupaten Jayapura, Papua",PAPUA,,Indonesia,,-2.5484675,140.4710788,https://maps.google.com/?cid=0x0:0xb77023ff1e83cbb0
housing complex,Komplek perumahan,Mangguali Family,"Unnamed Road, Doyo Baru, Waibu, Jayapura Regency, Papua 99352","Doyo Baru, Waibu, Jayapura Regency",PAPUA,99352.0,Indonesia,,-2.543693,140.4630577,https://maps.google.com/?cid=0x0:0x41a3130836baea6a
housing complex,Pembangunan Perumahan,home,"CFP8+5MJ, Doyo Lama, Distrik Waibu, Kabupaten Jayapura, Papua 99352","Doyo Lama, Distrik Waibu, Kabupaten Jayapura",PAPUA,99352.0,Indonesia,,-2.5650475,140.4660292,https://maps.google.com/?cid=0x0:0xe4039604c18369ef
housing complex,Komplek perumahan,gits home,"CFP9+WG, Doyo Lama, Distrik Waibu, Kabupaten Jayapura, Papua 99352","Doyo Lama, Distrik Waibu, Kabupaten Jayapura",PAPUA,99352.0,Indonesia,,-2.5633393,140.4691939,https://maps.google.com/?cid=0x0:0x4c3b5bf6436dcad2
housing complex,Pembangunan Perumahan,Padwyf Home,"CF7H+GJM, Yoboy / Kehusa / Kehiran, Kec. Sentani, Kabupaten Jayapura, Papua","Kabupaten Jayapura, Papua",PAPUA,,Indonesia,,-2.5861519,140.47906,https://maps.google.com/?cid=0x0:0xc2d72540d32f0817
housing complex,Otoritas Perumahan,Perumahan BTN Permata hijau Sentani,"Unnamed Road, Hinekombe, Kec. Sentani, Kabupaten Jayapura, Papua 99352","Hinekombe, Kec. Sentani, Kabupaten Jayapura",PAPUA,99352.0,Indonesia,,-2.5743916,140.4900438,https://maps.google.com/?cid=0x0:0x3eaea0f9d366e41d
housing complex,Komplek perumahan,Pertigaan jln.Niho,"8FJQ+5XM, Khameyaka, Distrik Ebungfa, Kabupaten Jayapura, Papua","Kabupaten Jayapura, Papua",PAPUA,,Indonesia,,-2.6695458,140.489928,https://maps.google.com/?cid=0x0:0xb590a2819c61413f
housing complex,Kantor Perusahaan,Perumahan Waibu Permai,"Doyo Lama, Distrik Waibu, Kabupaten Jayapura, Papua 99352","Distrik Waibu, Kabupaten Jayapura",PAPUA,99352.0,Indonesia,81248308516.0,-2.5628674,140.4687516,https://maps.google.com/?cid=0x0:0x1e2918e65fdc95f0
housing complex,Pembangunan Perumahan,Kantor pemasaran Perumahan Waibu Permai,"Jl. Doyo Lama, Doyo Lama, Distrik Waibu, Kabupaten Jayapura, Papua 99352","Doyo Lama, Distrik Waibu, Kabupaten Jayapura",PAPUA,99352.0,Indonesia,85244392001.0,-2.561878,140.4655132,https://maps.google.com/?cid=0x0:0x508b00c0960c23d4
housing complex,Pembangunan Perumahan,Blok AFP Perumahan Waibu Permai,"CFP9+H52, Doyo Lama, Distrik Waibu, Kabupaten Jayapura, Papua 99352","Doyo Lama, Distrik Waibu, Kabupaten Jayapura",PAPUA,99352.0,Indonesia,,-2.5645796,140.4689159,https://maps.google.com/?cid=0x0:0xedef260a6f9bfa5c
housing complex,Komplek perumahan,DISTRIK WAIBU,"EFATA 7 BLOK P.No.220, Doyo Lama","Kabupaten Jayapura, Papua",PAPUA,,Indonesia,,-2.5641204,140.4662126,https://maps.google.com/?cid=0x0:0x84c7ed6458ce8ff7
housing complex,Pembangunan Perumahan,home,"CFP8+5MJ, Doyo Lama, Distrik Waibu, Kabupaten Jayapura, Papua 99352","Doyo Lama, Distrik Waibu, Kabupaten Jayapura",PAPUA,99352.0,Indonesia,,-2.5650475,140.4660292,https://maps.google.com/?cid=0x0:0xe4039604c18369ef
housing complex,Komplek perumahan,Newa,"9CQJ+XQ, Dondai, Distrik Waibu, Kabupaten Jayapura, Papua","Kabupaten Jayapura, Papua",PAPUA,,Indonesia,,-2.6098336,140.4317596,https://maps.google.com/?cid=0x0:0x94b75e30f26caba2
housing complex,Kafe,YOTOKURU,"C97R+M9P, Unnamed Road, Yakonde, Distrik Waibu, Kabupaten Jayapura, Papua 99358","Unnamed Road, Yakonde, Distrik Waibu, Kabupaten Jayapura",PAPUA,99358.0,Indonesia,,-2.5857885,140.3909579,https://maps.google.com/?cid=0x0:0xeb8e47baf60c4c30
housing complex,Rumah Berhantu,Jalur 5,"FF29+2RV, Jl. Raya Doyo Baru, Doyo Baru, Distrik Waibu, Kabupaten Jayapura, Papua 99352","Jl. Raya Doyo Baru, Doyo Baru, Distrik Waibu, Kabupaten Jayapura",PAPUA,99352.0,Indonesia,85225154942.0,-2.5498904,140.4695501,https://maps.google.com/?cid=0x0:0x1f0e52d6c68d5f74
housing complex,housing complex,SKB Family (Squad Keday Biru),"F9WG+GQR, Maribu, Distrik Sentani Barat, Kabupaten Jayapura, Papua 99358","Maribu, Distrik Sentani Barat, Kabupaten Jayapura",PAPUA,99358.0,Indonesia,,-2.5028546,140.3761353,https://maps.google.com/?cid=0x0:0x165e83e76b98b4cc
housing complex,Komplek perumahan,Op. Gamaliel House,"FF2C+QJJ, Doyo Baru, Distrik Waibu, Kabupaten Jayapura, Papua","Kabupaten Jayapura, Papua",PAPUA,,Indonesia,,-2.5484675,140.4710788,https://maps.google.com/?cid=0x0:0xb77023ff1e83cbb0
housing complex,Komplek perumahan,Base 378Family,"FF49+8H5, Doyo Baru, Distrik Waibu, Kabupaten Jayapura, Papua 99352","Doyo Baru, Distrik Waibu, Kabupaten Jayapura",PAPUA,99352.0,Indonesia,,-2.5440506,140.4690084,https://maps.google.com/?cid=0x0:0xcc0f3fe309a1ec22
housing complex,Komplek perumahan,Home BP Petrus Fetowin,"FF54+P3X, KOLAM, Distrik Waibu, Kabupaten Jayapura, Papua 99352","KOLAM, Distrik Waibu, Kabupaten Jayapura",PAPUA,99352.0,Indonesia,,-2.540301,140.455202,https://maps.google.com/?cid=0x0:0xc768fe470d06834f
housing complex,housing complex,Rmh Kel Wompere,"FF49+9JR, Doyo Baru, Distrik Waibu, Kabupaten Jayapura, Papua 99352","Doyo Baru, Distrik Waibu, Kabupaten Jayapura",PAPUA,99352.0,Indonesia,,-2.5440204,140.469002,https://maps.google.com/?cid=0x0:0x525563e470e22829
housing complex,Komplek perumahan,Perumahan Green Villâs,"FF26+RWX, Doyo Baru, Distrik Waibu, Kabupaten Jayapura, Papua 99352","Doyo Baru, Distrik Waibu, Kabupaten Jayapura",PAPUA,99352.0,Indonesia,,-2.5480957,140.4622824,https://maps.google.com/?cid=0x0:0x4a968d6809f2d05a
housing complex,housing complex,Papua 99361,"Kabupaten Jayapura, Papua","Kabupaten Jayapura, Papua",PAPUA,,Indonesia,,-2.5921274,140.059845,https://maps.google.com/?cid=0x0:0xe7cd882fece4c0b1
housing complex,housing complex,Yapsi,"Kabupaten Jayapura, Papua","Kabupaten Jayapura, Papua",PAPUA,,Indonesia,,-2.811221,140.1009527,https://maps.google.com/?cid=0x0:0xaec96b36c4ad9a90
housing complex,Komplek perumahan,Kampung Kwarja SP 5 Taja Distrik Yapsi Kab. Jayapura,"36CR+82, Kwarja, Yapsi, Kabupaten Jayapura, Papua","Kabupaten Jayapura, Papua",PAPUA,,Indonesia,,-2.929183,140.240008,https://maps.google.com/?cid=0x0:0x1cfa0285cc822360
housing complex,Perhimpunan Pengembang Perumahan,Rumah jalur5,"54QQ+69, Bumi Sahaja, Yapsi, Kabupaten Jayapura, Papua","Kabupaten Jayapura, Papua",PAPUA,,Indonesia,,-2.811903,140.1383936,https://maps.google.com/?cid=0x0:0x7070a1b4a61924a4
housing complex,Komplek perumahan,Perumahan Echo 4 NURE,"3WJW+MW6, Yadauw, Kaureh, Kabupaten Jayapura, Papua","Kabupaten Jayapura, Papua",PAPUA,,Indonesia,,-2.9183413,139.9472678,https://maps.google.com/?cid=0x0:0x16cdd2a0de1e0284
housing complex,Komplek perumahan,WARAS SLAMET,"6397+F2, Bundru, Yapsi, Kabupaten Jayapura, Papua","Kabupaten Jayapura, Papua",PAPUA,,Indonesia,,-2.781295,140.062526,https://maps.google.com/?cid=0x0:0x307478d4f4b21e3c
housing complex,Perhimpunan Pengembang Perumahan,Pustu sp 5,"54Q2+G98 Sp 5, Ongan Jaya, Yapsi, Kabupaten Jayapura, Papua","Kabupaten Jayapura, Papua",PAPUA,,Indonesia,,-2.811221,140.1009527,https://maps.google.com/?cid=0x0:0xe97b2f182154860a
housing complex,Kantor Pemerintah,Purnama jati,"54Q2+G98, Ongan Jaya, Yapsi, Kabupaten Jayapura, Papua","Kabupaten Jayapura, Papua",PAPUA,,Indonesia,,-2.811221,140.1009527,https://maps.google.com/?cid=0x0:0x51bb79bc75801f97
housing complex,housing complex,Rumah Pak Mustaqim,"542H+MM6, Nawa Mulya, Yapsi, Kabupaten Jayapura, Papua","Kabupaten Jayapura, Papua",PAPUA,,Indonesia,,-2.8483345,140.1291551,https://maps.google.com/?cid=0x0:0x8671cb2bb57a7261
housing complex,Komplek perumahan,Perumahan Echo V Sinar Mas Lereh,"4X34+69Q, Yadauw, Kaureh, Kabupaten Jayapura, Papua","Kabupaten Jayapura, Papua",PAPUA,,Indonesia,81248719710.0,-2.8969176,139.955993,https://maps.google.com/?cid=0x0:0xb6df55264027c79b
housing complex,Kantor Perusahaan,Pondok 2 Rajawali Estate (Garuda),"X4FQ+993, Lapua, Kaureh, Kabupaten Jayapura, Papua","Kabupaten Jayapura, Papua",PAPUA,,Indonesia,,-3.0266202,140.1384309,https://maps.google.com/?cid=0x0:0xc86ba9caa44aadda
housing complex,Komplek perumahan,Perumahan Staf RJWE,"233R+WVH, Lapua, Kaureh, Kabupaten Jayapura, Papua","Kabupaten Jayapura, Papua",PAPUA,,Indonesia,,-2.9951797,140.0922425,https://maps.google.com/?cid=0x0:0x2f2656920308b3d3
housing complex,Komplek perumahan,Kam. Purnawajati,"53HM+87F Kamp. Purnawajati, Purnawa Jati, Yapsi, Kabupaten Jayapura, Papua","Kabupaten Jayapura, Papua",PAPUA,,Indonesia,,-2.8216963,140.083181,https://maps.google.com/?cid=0x0:0x3b2c79c70cff5045
housing complex,Perumahan,PERUMAHAN ICHA CALL,"2XRV+MG6, Yadauw, Kaureh, Kabupaten Jayapura, Papua","Kabupaten Jayapura, Papua",PAPUA,,Indonesia,,-2.9571044,139.9936493,https://maps.google.com/?cid=0x0:0xf72b505041d4ca46
housing complex,Pembangunan Perumahan,PAK HERY SETYO WIDODO,"65G2+7X2, Bumi Sahaja, Yapsi, Kabupaten Jayapura, Papua 99357","Bumi Sahaja, Yapsi, Kabupaten Jayapura",PAPUA,99357.0,Indonesia,,-2.7743563,140.1523764,https://maps.google.com/?cid=0x0:0xae2f38a7e4d50eff
housing complex,housing complex,Airu,"Kabupaten Jayapura, Papua","Kabupaten Jayapura, Papua",PAPUA,,Indonesia,,-3.5753077,140.265662,https://maps.google.com/?cid=0x0:0x84b595ca2a102cef
housing complex,Pembangunan Perumahan,Kampung Naira,"9XPV+G6V, Naira, Airu, Kabupaten Jayapura, Papua 99364","Naira, Airu, Kabupaten Jayapura",PAPUA,99364.0,Indonesia,,-3.6136444,139.9930439,https://maps.google.com/?cid=0x0:0x51de71094510f119
housing complex,Komplek perumahan,Kampung aurina,"F834+QQF, Aurina, Airu, Kabupaten Jayapura, Papua","Kabupaten Jayapura, Papua",PAPUA,,Indonesia,,-3.5455677,140.3069088,https://maps.google.com/?cid=0x0:0x9fc703f84247e24b
housing complex,housing complex,Muara Nawa,"799P+W8, Muara Nawa, Airu, Kabupaten Jayapura, Papua 99465","Muara Nawa, Airu, Kabupaten Jayapura",PAPUA,99465.0,Indonesia,,-3.7302189,140.3858429,https://maps.google.com/?cid=0x0:0x2ed05301c7806798
housing complex,housing complex,Kampung umbron,"PQRJ+V3M, Sebum, Kaureh, Kabupaten Jayapura, Papua 99364","Sebum, Kaureh, Kabupaten Jayapura",PAPUA,99364.0,Indonesia,,-3.2577753,139.7801779,https://maps.google.com/?cid=0x0:0xe9be350ea3ff9453
housing complex,housing complex,Papua 99353,"Kabupaten Jayapura, Papua","Kabupaten Jayapura, Papua",PAPUA,,Indonesia,,-2.4345515,140.4101474,https://maps.google.com/?cid=0x0:0xae8b3e09ee92fb9d
housing complex,housing complex,Ondo ikari,"GGXV+MQ, Ormuwari, Ravenirara, Kabupaten Jayapura, Papua","Kabupaten Jayapura, Papua",PAPUA,,Indonesia,,-2.4510012,140.5451662,https://maps.google.com/?cid=0x0:0x9b39d8b138606cbe
housing complex,Komplek perumahan,Kompleks Jeku,"H9G9+XR4, Tablasupa, Distrik Depapre, Kabupaten Jayapura, Papua 99353","Tablasupa, Distrik Depapre, Kabupaten Jayapura",PAPUA,99353.0,Indonesia,,-2.4226237,140.3695811,https://maps.google.com/?cid=0x0:0x19cb0404058ce503
housing complex,Komplek perumahan,Rumah pak yance hirwa,"FF74+WXM, Bambar, Distrik Waibu, Kabupaten Jayapura, Papua 99352","Bambar, Distrik Waibu, Kabupaten Jayapura",PAPUA,99352.0,Indonesia,,-2.535313,140.457516,https://maps.google.com/?cid=0x0:0x3b843f8a11a6f3d0
housing complex,Perumahan,Keluarga Rumfabe,"G9P9+RFQ, Kompleks Puskesmas, Waiya, Distrik Depapre, Kabupaten Jayapura, Papua","Kabupaten Jayapura, Papua",PAPUA,,Indonesia,,-2.4629048,140.3687434,https://maps.google.com/?cid=0x0:0x843326107f3682b8
housing complex,housing complex,SKB Family (Squad Keday Biru),"F9WG+GQR, Maribu, Distrik Sentani Barat, Kabupaten Jayapura, Papua 99358","Maribu, Distrik Sentani Barat, Kabupaten Jayapura",PAPUA,99358.0,Indonesia,,-2.5028546,140.3761353,https://maps.google.com/?cid=0x0:0x165e83e76b98b4cc
housing complex,housing complex,Rmh Kel Wompere,"FF49+9JR, Doyo Baru, Distrik Waibu, Kabupaten Jayapura, Papua 99352","Doyo Baru, Distrik Waibu, Kabupaten Jayapura",PAPUA,99352.0,Indonesia,,-2.5440204,140.469002,https://maps.google.com/?cid=0x0:0x525563e470e22829
housing complex,Pembangunan Perumahan,Doto demena,"H95C+FWH, Tablasupa, Distrik Depapre, Kabupaten Jayapura, Papua 99353","Tablasupa, Distrik Depapre, Kabupaten Jayapura",PAPUA,99353.0,Indonesia,,-2.4413125,140.3723594,https://maps.google.com/?cid=0x0:0xacf47f77974bd340
housing complex,Pondok pedesaan,Yepase,"H9VR+WV, Yepase, Distrik Depapre, Kabupaten Jayapura, Papua","Kabupaten Jayapura, Papua",PAPUA,,Indonesia,82198566054.0,-2.4051527,140.3921708,https://maps.google.com/?cid=0x0:0x87e7b2eb26a708f1
housing complex,Perhimpunan Pengembang Perumahan,Istana maribu tua,"G989+3P, Maribu, Distrik Sentani Barat, Kabupaten Jayapura, Papua 99353","Maribu, Distrik Sentani Barat, Kabupaten Jayapura",PAPUA,99353.0,Indonesia,,-2.4840315,140.368716,https://maps.google.com/?cid=0x0:0x5aff8f558ac691f7
housing complex,Komplek perumahan,RagiL Reba,"FF2J+5X7, Jl. Raya Kemiri, Hinekombe, Kec. Sentani, Kabupaten Jayapura, Papua 99352","Jl. Raya Kemiri, Hinekombe, Kec. Sentani, Kabupaten Jayapura",PAPUA,99352.0,Indonesia,81247122804.0,-2.5493252,140.4821804,https://maps.google.com/?cid=0x0:0xc7c7119096a6f83d
housing complex,Komplek perumahan,Alfridha Parinding (Mama Jeni),"Jl, Waiya, Distrik Depapre, Kabupaten Jayapura, Papua 99353","Waiya, Distrik Depapre, Kabupaten Jayapura",PAPUA,99353.0,Indonesia,,-2.4638226,140.3646779,https://maps.google.com/?cid=0x0:0x8fbe801bbae29b02
housing complex,Komplek perumahan,Suwae Area,"G8MM+4X3, Kendate, Distrik Depapre, Kabupaten Jayapura, Papua","Kabupaten Jayapura, Papua",PAPUA,,Indonesia,,-2.4672466,140.3349295,https://maps.google.com/?cid=0x0:0xa0920e8c7d192b16
housing complex,housing complex,Ravenirara,"Kabupaten Jayapura, Papua","Kabupaten Jayapura, Papua",PAPUA,,Indonesia,,-2.469948,140.534262,https://maps.google.com/?cid=0x0:0x77234a41a5f9ca5
housing complex,housing complex,Distrik Gresi Selatan,"Kabupaten Jayapura, Papua","Kabupaten Jayapura, Papua",PAPUA,,Indonesia,,-2.641859,140.1829593,https://maps.google.com/?cid=0x0:0x3d361b435e9393d5
housing complex,Perhimpunan Pengembang Perumahan,"Bring kemtuk gresi , jayapura","86R7+HRM, Unnamed Road, Omon, Distrik Gresi Selatan, Kabupaten Jayapura, Papua 99357","Unnamed Road, Omon, Distrik Gresi Selatan, Kabupaten Jayapura",PAPUA,99357.0,Indonesia,,-2.6585444,140.2145592,https://maps.google.com/?cid=0x0:0x577934ac9f6f1b7d
housing complex,Pembangunan Perumahan,EDS Rumah Tinggal,"86QW+GM, Jagrang, Distrik Kemtuk Gresi, Kabupaten Jayapura, Papua","Kabupaten Jayapura, Papua",PAPUA,,Indonesia,,-2.661176,140.246654,https://maps.google.com/?cid=0x0:0x6d59001e6473066e
housing complex,Pembangunan Perumahan,Ibu Martina Danuel,"9678+QC5, Bring, Distrik Kemtuk Gresi, Kabupaten Jayapura, Papua 99357","Bring, Distrik Kemtuk Gresi, Kabupaten Jayapura",PAPUA,99357.0,Indonesia,,-2.6356124,140.2161009,https://maps.google.com/?cid=0x0:0xcfbed2918f91ac18
housing complex,Komplek perumahan,Sebori home,"96J9+JGH, Belakang polsek, Distrik Kemtuk Gresi, Kabupaten Jayapura, Papua","Kabupaten Jayapura, Papua",PAPUA,,Indonesia,,-2.6184436,140.2188529,https://maps.google.com/?cid=0x0:0xa7d9a5a561af99d2
housing complex,Komplek perumahan,Rumah Keluarga Anderi Yaroseray,"965X+F32, Hatib, Distrik Kemtuk Gresi, Kabupaten Jayapura, Papua 99357","Hatib, Distrik Kemtuk Gresi, Kabupaten Jayapura",PAPUA,99357.0,Indonesia,,-2.6413593,140.2476353,https://maps.google.com/?cid=0x0:0x548b1ff66cba3b79
housing complex,Komplek perumahan,RMH_KPK_KWANSU,"C784+CJ, Kwansu, Kec. Kemtuk, Kabupaten Jayapura, Papua","Kabupaten Jayapura, Papua",PAPUA,,Indonesia,,-2.5839678,140.2565161,https://maps.google.com/?cid=0x0:0xc5d9189e36926ab9
housing complex,housing complex,Oyengsi,"94RX+24G, Yenggu Baru, Distrik Nimboran, Kabupaten Jayapura, Papua 99361","Yenggu Baru, Distrik Nimboran, Kabupaten Jayapura",PAPUA,99361.0,Indonesia,,-2.6098933,140.1475594,https://maps.google.com/?cid=0x0:0x64149817818d631
housing complex,Komplek perumahan,Rumah Keluarga Singgamui,"C764+XP9, Kwansu, Kec. Kemtuk, Kabupaten Jayapura, Papua 99361","Kwansu, Kec. Kemtuk, Kabupaten Jayapura",PAPUA,99361.0,Indonesia,,-2.5875816,140.2569197,https://maps.google.com/?cid=0x0:0xf38c4ff3022dcb7e
housing complex,Komplek perumahan,Singgriwai,"C424+WC4, Singgriway, Distrik Nimboran, Kabupaten Jayapura, Papua 99361","Singgriway, Distrik Nimboran, Kabupaten Jayapura",PAPUA,99361.0,Indonesia,,-2.5977497,140.1060931,https://maps.google.com/?cid=0x0:0x63090d44c947b5be
housing complex,Komplek perumahan,Frice,"C626+2MM, Hanggai Hamong, Nimboran Tim. / Namblong, Kabupaten Jayapura, Papua 99361","Hanggai Hamong, Nimboran Tim. / Namblong, Kabupaten Jayapura",PAPUA,99361.0,Indonesia,,-2.5999036,140.2116642,https://maps.google.com/?cid=0x0:0xc4022d4883f3810b
housing complex,Perhimpunan Pengembang Perumahan,Rumah jalur5,"54QQ+69, Bumi Sahaja, Yapsi, Kabupaten Jayapura, Papua","Kabupaten Jayapura, Papua",PAPUA,,Indonesia,,-2.811903,140.1383936,https://maps.google.com/?cid=0x0:0x7070a1b4a61924a4
housing complex,Perhimpunan Pengembang Perumahan,Akom pmd,"9753+683, Damoi Kati, Distrik Kemtuk Gresi, Kabupaten Jayapura, Papua 99357","Damoi Kati, Distrik Kemtuk Gresi, Kabupaten Jayapura",PAPUA,99357.0,Indonesia,,-2.6419798,140.253308,https://maps.google.com/?cid=0x0:0x45c63f6c9f6ea64c
housing complex,housing complex,Papua 99354,"Kabupaten Jayapura, Papua","Kabupaten Jayapura, Papua",PAPUA,,Indonesia,,-2.425843,140.1626664,https://maps.google.com/?cid=0x0:0xed2e9d28341a8606
housing complex,housing complex,Karay's fams,"J5J2+2PW, Yakore, Distrik Demta, Kabupaten Jayapura, Papua 99354","Yakore, Distrik Demta, Kabupaten Jayapura",PAPUA,99354.0,Indonesia,,-2.3698171,140.152096,https://maps.google.com/?cid=0x0:0xaa5f36406765dc60
housing complex,Komplek perumahan,Kampung Muris Kecil,"J5R2+GC2, Muris Kecil, Distrik Demta, Kabupaten Jayapura, Papua 99354","Muris Kecil, Distrik Demta, Kabupaten Jayapura",PAPUA,99354.0,Indonesia,,-2.3587422,140.1510134,https://maps.google.com/?cid=0x0:0xe13bc6e1cfcb637c
housing complex,Komplek perumahan,Arampor,"J5G2+RRQ, Yakore, Distrik Demta, Kabupaten Jayapura, Papua 99354","Yakore, Distrik Demta, Kabupaten Jayapura",PAPUA,99354.0,Indonesia,,-2.372589,140.151733,https://maps.google.com/?cid=0x0:0x8960ea741b376caa
housing complex,Komplek perumahan,Watuwga pu tempat,"M42P+C64, Ambora, Distrik Demta, Kabupaten Jayapura, Papua","Kabupaten Jayapura, Papua",PAPUA,,Indonesia,,-2.348462,140.1352561,https://maps.google.com/?cid=0x0:0xe0ab3e1d3536a672
housing complex,Komplek perumahan,DEMTA kota,"J4WR+5JF, Demta Kota, Distrik Demta, Kabupaten Jayapura, Papua 99354","Demta Kota, Distrik Demta, Kabupaten Jayapura",PAPUA,99354.0,Indonesia,,-2.3545512,140.1415469,https://maps.google.com/?cid=0x0:0xd281b9d7fd6fad41
housing complex,Perhimpunan Pengembang Perumahan,SEMUEL KOPOUW,"J5H2+FVH, Yakore, Distrik Demta, Kabupaten Jayapura, Papua","Kabupaten Jayapura, Papua",PAPUA,,Indonesia,,-2.370781,140.152988,https://maps.google.com/?cid=0x0:0x9e8fef783c06ccb4
housing complex,Kantor Pemerintah,Kampung Yakore,"J5H2+FVH, Yakore, Distrik Demta, Kabupaten Jayapura, Papua","Kabupaten Jayapura, Papua",PAPUA,,Indonesia,,-2.371622,140.152522,https://maps.google.com/?cid=0x0:0x3ad3e49f1a0d986c
housing complex,Komplek perumahan,F arim,"J5H2+FVH, Yakore, Distrik Demta, Kabupaten Jayapura, Papua","Kabupaten Jayapura, Papua",PAPUA,,Indonesia,,-2.3705929,140.1523264,https://maps.google.com/?cid=0x0:0x19a79c0050a5de15
housing complex,Komplek perumahan,Ibu arim,"J4QX+MCJ, RT.001/RW.002, Muris Kecil, Distrik Demta, Kabupaten Jayapura, Papua","Kabupaten Jayapura, Papua",PAPUA,,Indonesia,,-2.360787,140.1485181,https://maps.google.com/?cid=0x0:0xeb78ed76393b4722
housing complex,Komplek perumahan,Suwae Area,"G8MM+4X3, Kendate, Distrik Depapre, Kabupaten Jayapura, Papua","Kabupaten Jayapura, Papua",PAPUA,,Indonesia,,-2.4672466,140.3349295,https://maps.google.com/?cid=0x0:0xa0920e8c7d192b16
housing complex,Kantor Perusahaan,Kkpa Pt.rimba matoa.Lestari,"GW8Q+H9J, Desa, Buasem, Kec. Unurum Guay, Kabupaten Jayapura, Papua 99362","Desa, Buasem, Kec. Unurum Guay, Kabupaten Jayapura",PAPUA,99362.0,Indonesia,,-2.4835396,139.9383944,https://maps.google.com/?cid=0x0:0xd3483a61b45e9d94
housing complex,Perhimpunan Pengembang Perumahan,KAMPUNG MARIBU,"F8MQ+449, RT.002/RW.002, Maribu, Distrik Sentani Barat, Kabupaten Jayapura, Papua","Kabupaten Jayapura, Papua",PAPUA,,Indonesia,85158093744.0,-2.5172131,140.3378622,https://maps.google.com/?cid=0x0:0x75aedd16427541cc
housing complex,Komplek perumahan,Alex suwae,"G8PW+R3C, Entiyebo, Distrik Depapre, Kabupaten Jayapura, Papua","Kabupaten Jayapura, Papua",PAPUA,,Indonesia,,-2.4634028,140.3444019,https://maps.google.com/?cid=0x0:0x863ab934b8cf9349
