Category,Real Category,Business Name,Address,City,State,Postal Code,Country,Phone,Email,Website,Latitude,Longitude,Map Link,Details Link
mall,Minimarket,Alfamart bukit raya,"Jl. Bukit Raya No.85a, Palangka, Kec. Jekan Raya, Kota Palangka Raya, Kalimantan Tengah 74874","Palangka, Kec. Jekan Raya, Kota Palangka Raya",KALIMANTAN TENGAH,74874.0,Indonesia,,,,-2.2053755,113.8943228,https://maps.google.com/?cid=0x0:0x208f0c39d206ce0c,
mall,mall,Kec. Bukit Batu,"Kota Palangka Raya, Kalimantan Tengah","Kota Palangka Raya, Kalimantan Tengah",KALIMANTAN TENGAH,,Indonesia,,,,-2.0004344,113.7594376,https://maps.google.com/?cid=0x0:0x1e052cd5457a3765,
mall,Tempat Religius,Wisata Bukit Batu Pertapaan Tjilik Riwut,"4F39+W6V, S Jl. Trans Kalimantan, Kasongan Lama, Katingan Hilir, Katingan Regency, Central Kalimantan 74461","S Jl. Trans Kalimantan, Kasongan Lama, Katingan Hilir, Katingan Regency",KALIMANTAN TENGAH,74461.0,Indonesia,,,,-1.8951303,113.4680533,https://maps.google.com/?cid=0x0:0xcb4e6c653c6fae85,
mall,Pusat Perbelanjaan,Fitri Fashion,"2Q25+VJ9, Jl. Trans Kalimantan, Banturung, Kec. Bukit Batu, Kota Palangka Raya, Kalimantan Tengah 73112","Jl. Trans Kalimantan, Banturung, Kec. Bukit Batu, Kota Palangka Raya",KALIMANTAN TENGAH,73112.0,Indonesia,,,,-1.9978405,113.7591062,https://maps.google.com/?cid=0x0:0x33798642d90623e,
mall,Restoran,"Warung .ahmad Refa,i","Jl. Tjilik Riwut, Sei Gohong, Kec. Bukit Batu, Kota Palangka Raya, Kalimantan Tengah 73112","Sei Gohong, Kec. Bukit Batu, Kota Palangka Raya",KALIMANTAN TENGAH,73112.0,Indonesia, 081256131221,,,-1.9454108,113.6665852,https://maps.google.com/?cid=0x0:0x4a77889215adaf06,
mall,Pusat Perbelanjaan,CVBORNEO HIJAU NUSANTARA,"Jl. Tjilik Riwut No.km 20, Tumbang Tahai, Kec. Bukit Batu, Kota Palangka Raya, Kalimantan Tengah","Kota Palangka Raya, Kalimantan Tengah",KALIMANTAN TENGAH,,Indonesia, 089528392245,,,-2.022331,113.7629469,https://maps.google.com/?cid=0x0:0x88583fc60d34fba,
mall,Toko Pakaian,Cassen kids,"Bukit Tunggal, Kec. Jekan Raya, Kota Palangka Raya, Kalimantan Tengah 74874","Kec. Jekan Raya, Kota Palangka Raya",KALIMANTAN TENGAH,74874.0,Indonesia,,,,-2.1992947,113.8749469,https://maps.google.com/?cid=0x0:0x7fe9452c56e781cc,
mall,Pusat Perbelanjaan,Hijau Royo-royo,"XQ78+89C, Jl. Trans Kalimantan, Tumbang Tahai, Kec. Bukit Batu, Kota Palangka Raya, Kalimantan Tengah 73111","Jl. Trans Kalimantan, Tumbang Tahai, Kec. Bukit Batu, Kota Palangka Raya",KALIMANTAN TENGAH,73111.0,Indonesia, 081349231387,,,-2.036699,113.7658967,https://maps.google.com/?cid=0x0:0x47052983eac5d2a5,
mall,Toko,Warung Sayur Bersemi,"Unnamed Road, Banturung, Kec. Bukit Batu, Kota Palangka Raya, Kalimantan Tengah 73112","Banturung, Kec. Bukit Batu, Kota Palangka Raya",KALIMANTAN TENGAH,73112.0,Indonesia,,,,-1.9984697,113.7620799,https://maps.google.com/?cid=0x0:0x3fd03ca0e6b3ac5,
mall,Pusat Perbelanjaan,Duta Mall Palangka Raya,"QW2F+G58, Langkai, Kec. Pahandut, Kota Palangka Raya, Kalimantan Tengah 74874","Langkai, Kec. Pahandut, Kota Palangka Raya",KALIMANTAN TENGAH,74874.0,Indonesia,,,,-2.248704,113.922958,https://maps.google.com/?cid=0x0:0xd4fe13501def807f,
mall,Toko Bahan Bangunan,Tony material,"QVQ8+X25, Jl. Tingang XXIV, Bukit Tunggal, Kec. Jekan Raya, Kota Palangka Raya, Kalimantan Tengah 74874","Jl. Tingang XXIV, Bukit Tunggal, Kec. Jekan Raya, Kota Palangka Raya",KALIMANTAN TENGAH,74874.0,Indonesia, 085247298996,,,-2.2101188,113.8650954,https://maps.google.com/?cid=0x0:0x8f74ef316cecbd74,
mall,Toko bahan makanan,Indomaret Mahir Mahar Km 8,"Jl. Rajawali No.1, Bukit Tunggal, Kec. Jekan Raya, Kota Palangka Raya, Kalimantan Tengah 74874","Bukit Tunggal, Kec. Jekan Raya, Kota Palangka Raya",KALIMANTAN TENGAH,74874.0,Indonesia,,,,-2.1729765,113.8589335,https://maps.google.com/?cid=0x0:0x179e3be1961a158f,
mall,Tujuan Wisata,Taman Wisata Alam Bukit Tangkiling,"2Q23+H94, Banturung, Kec. Bukit Batu, Kota Palangka Raya, Kalimantan Tengah 73112","Banturung, Kec. Bukit Batu, Kota Palangka Raya",KALIMANTAN TENGAH,73112.0,Indonesia,,,,-1.9986201,113.75346,https://maps.google.com/?cid=0x0:0x58827bd130bff911,
mall,Toko,Toko Simpang Tiga,"2Q95+9QJ, Jl. Pelabuhan, Tangkiling, Kec. Bukit Batu, Kota Palangka Raya, Kalimantan Tengah 73112","Jl. Pelabuhan, Tangkiling, Kec. Bukit Batu, Kota Palangka Raya",KALIMANTAN TENGAH,73112.0,Indonesia,,,,-1.9815493,113.7593927,https://maps.google.com/?cid=0x0:0xd09bdcfcd862fa2d,
mall,Pusat Perbelanjaan,Pertokoan Keminting Square,"QVWP+PP4, Jl. Bukit Kaminting, Palangka, Kec. Jekan Raya, Kota Palangka Raya, Kalimantan Tengah 74874","Jl. Bukit Kaminting, Palangka, Kec. Jekan Raya, Kota Palangka Raya",KALIMANTAN TENGAH,74874.0,Indonesia, 05363247733,,,-2.2032302,113.8868135,https://maps.google.com/?cid=0x0:0xf8c2343aa95a980c,
mall,Minimarket,Rainbow Shop,"Jl. Jend. Sudirman No.120, Sungai Pakning, Kec. Bukit Batu, Kabupaten Bengkalis, Riau 28761","Sungai Pakning, Kec. Bukit Batu, Kabupaten Bengkalis",KALIMANTAN TENGAH,28761.0,Indonesia,,,,1.3549845,102.15658,https://maps.google.com/?cid=0x0:0xcceb080eea6a72b8,
mall,Pusat Perbelanjaan,Waroeng Pelangi,"Jl. Utama, Temeran, Kec. Bengkalis, Kabupaten Bengkalis, Riau 28711","Temeran, Kec. Bengkalis, Kabupaten Bengkalis",KALIMANTAN TENGAH,28711.0,Indonesia,,,,1.4388316,102.2279437,https://maps.google.com/?cid=0x0:0xaf192f9f8e07f3f0,
mall,mall,Kalimantan Tengah 73221,"Bukit Tunggal, Kec. Rakumpit, Kota Palangka Raya, Kalimantan Tengah","Kota Palangka Raya, Kalimantan Tengah",KALIMANTAN TENGAH,,Indonesia,,,,-2.17855,113.8656799,https://maps.google.com/?cid=0x0:0x50b16048f399e248,
mall,mall,Kec. Bukit Batu,"Kota Palangka Raya, Kalimantan Tengah","Kota Palangka Raya, Kalimantan Tengah",KALIMANTAN TENGAH,,Indonesia,,,,-2.0004344,113.7594376,https://maps.google.com/?cid=0x0:0x1e052cd5457a3765,
mall,Pusat Perbelanjaan,Palangkaraya Mall (Palma),"Jl. Tjilik Riwut No.1, Palangka, Kec. Jekan Raya, Kota Palangka Raya, Kalimantan Tengah 74874","Palangka, Kec. Jekan Raya, Kota Palangka Raya",KALIMANTAN TENGAH,74874.0,Indonesia,,,,-2.2065433,113.9154004,https://maps.google.com/?cid=0x0:0xe30705d17366c7e0,
mall,Pusat Perbelanjaan,Duta Mall Palangka Raya,"QW2F+G58, Langkai, Kec. Pahandut, Kota Palangka Raya, Kalimantan Tengah 74874","Langkai, Kec. Pahandut, Kota Palangka Raya",KALIMANTAN TENGAH,74874.0,Indonesia,,,,-2.248704,113.922958,https://maps.google.com/?cid=0x0:0xd4fe13501def807f,
mall,Pusat Perbelanjaan,Blok M Plaza,"Jl. Bulungan No.76, RT.6/RW.6, Kramat Pela, Kec. Kby. Baru, Kota Jakarta Selatan, Daerah Khusus Ibukota Jakarta 12130","RT.6/RW.6, Kramat Pela, Kec. Kby. Baru, Kota Jakarta Selatan",KALIMANTAN TENGAH,12130.0,Indonesia, 0217209288,,,-6.2441189,106.7976404,https://maps.google.com/?cid=0x0:0x3e110f817acb352d,
mall,Kedai Kopi,One Belpark Mall,"Jl. RS. Fatmawati Raya No.1, RT.1/RW.1, Pd. Labu, Kec. Cilandak, Kota Jakarta Selatan, Daerah Khusus Ibukota Jakarta 12450","RT.1/RW.1, Pd. Labu, Kec. Cilandak, Kota Jakarta Selatan",KALIMANTAN TENGAH,12450.0,Indonesia, 02122706888,,,-6.3040848,106.7948774,https://maps.google.com/?cid=0x0:0x50cd4b3afac2371,
mall,Pusat Perbelanjaan,Pondok Indah Mall 1,"Jl. Metro Pondok Indah No.Kav. 4, RT.1/RW.16, Pd. Pinang, Kec. Kby. Lama, Kota Jakarta Selatan, Daerah Khusus Ibukota Jakarta 12310","RT.1/RW.16, Pd. Pinang, Kec. Kby. Lama, Kota Jakarta Selatan",KALIMANTAN TENGAH,12310.0,Indonesia, 0217506750,,,-6.2652166,106.7843165,https://maps.google.com/?cid=0x0:0x682837113c4ea854,
mall,Pusat Perbelanjaan,Blok M Square,"Jl. Melawai 5, RT.3/RW.1, Melawai, Kec. Kby. Baru, Kota Jakarta Selatan, Daerah Khusus Ibukota Jakarta 12160","RT.3/RW.1, Melawai, Kec. Kby. Baru, Kota Jakarta Selatan",KALIMANTAN TENGAH,12160.0,Indonesia, 02172802000,,,-6.244593,106.800649,https://maps.google.com/?cid=0x0:0x8f10b22d03d7c9db,
mall,Pusat Perbelanjaan,One Belpark XXI,"Lantai 2 One Belpark Mall, Jl. RS. Fatmawati Raya No.1, RT.1/RW.1, Pd. Labu, Kec. Cilandak, Kota Jakarta Selatan, Daerah Khusus Ibukota Jakarta 12450","Jl. RS. Fatmawati Raya No.1, RT.1/RW.1, Pd. Labu, Kec. Cilandak, Kota Jakarta Selatan",KALIMANTAN TENGAH,12450.0,Indonesia, 02127653422,,,-6.3043591,106.7954808,https://maps.google.com/?cid=0x0:0x946cc48a00e05e12,
mall,Pusat Perbelanjaan,Central Park,"Jl. Letjen S. Parman No.Kav. 28, Tj. Duren Sel., Kec. Grogol petamburan, Kota Jakarta Barat, Daerah Khusus Ibukota Jakarta 11470","Tj. Duren Sel., Kec. Grogol petamburan, Kota Jakarta Barat",KALIMANTAN TENGAH,11470.0,Indonesia, 02156989999,,,-6.1771373,106.7909788,https://maps.google.com/?cid=0x0:0xe816d65037c3207a,
mall,Pusat Perbelanjaan,Summarecon Mall Kelapa Gading,"Jl. Boulevard Raya, Klp. Gading Tim., Kec. Klp. Gading, Jkt Utara, Daerah Khusus Ibukota Jakarta 14240","Klp. Gading Tim., Kec. Klp. Gading, Jkt Utara",KALIMANTAN TENGAH,14240.0,Indonesia, 0214531101,,,-6.1572666,106.9084263,https://maps.google.com/?cid=0x0:0x1c1a278e20ff1c47,
mall,Pusat Perbelanjaan,Mahaka Square,"Jl. Raya Kelapa Nias No.6, RT.8/RW.6, Klp. Gading Bar., Kec. Klp. Gading, Jkt Utara, Daerah Khusus Ibukota Jakarta 14240","RT.8/RW.6, Klp. Gading Bar., Kec. Klp. Gading, Jkt Utara",KALIMANTAN TENGAH,14240.0,Indonesia, 02145878780,,,-6.1497348,106.90302,https://maps.google.com/?cid=0x0:0x6e2cea822d81ad2d,
mall,Pusat Perbelanjaan,Mal Kelapa Gading 2,"Menara Satu Sentra Klp. Gading, Kompleks Jl. Boulevard Raya, Klp. Gading Tim., Kec. Klp. Gading, Jkt Utara, Daerah Khusus Ibukota Jakarta 14240","Kompleks Jl. Boulevard Raya, Klp. Gading Tim., Kec. Klp. Gading, Jkt Utara",KALIMANTAN TENGAH,14240.0,Indonesia, 0214531101,,,-6.157809,106.9076198,https://maps.google.com/?cid=0x0:0x8ab66acdf75a2503,
mall,Pusat Perbelanjaan,Mall Kelapa Gading 5,"Jl. Boulevard Raya, RT.13/RW.18, Klp. Gading Tim., Kec. Klp. Gading, Jkt Utara, Daerah Khusus Ibukota Jakarta 14240","RT.13/RW.18, Klp. Gading Tim., Kec. Klp. Gading, Jkt Utara",KALIMANTAN TENGAH,14240.0,Indonesia, 0214531101,,,-6.1567385,106.910945,https://maps.google.com/?cid=0x0:0xf81b02e78061a7af,
mall,Pusat Perbelanjaan,Mall Kota Kasablanka,"Jl. Raya Casablanca No.Kav 88, Menteng Dalam, Kec. Tebet, Kota Jakarta Selatan, Daerah Khusus Ibukota Jakarta 12870","Menteng Dalam, Kec. Tebet, Kota Jakarta Selatan",KALIMANTAN TENGAH,12870.0,Indonesia, 02129465000,,,-6.2240353,106.8425979,https://maps.google.com/?cid=0x0:0xaf54cb631563acce,
mall,Pusat Perbelanjaan,Gandaria City,"Jl. Sultan Iskandar Muda, Gandaria, Kec. Kby. Lama, Kota Jakarta Selatan, Daerah Khusus Ibukota Jakarta 12240","Gandaria, Kec. Kby. Lama, Kota Jakarta Selatan",KALIMANTAN TENGAH,12240.0,Indonesia, 02129052888,,,-6.2443009,106.7829375,https://maps.google.com/?cid=0x0:0x6173704d396d5a99,
mall,Kedai Kopi,Salad Story Indonesia,"depan Atrium Utama One Belpark Mall, Jl. RS. Fatmawati Raya No.1 Lantai GF, RT.1/RW.1, Pd. Labu, Kec. Cilandak, Kota Jakarta Selatan, Daerah Khusus Ibukota Jakarta 12450","Jl. RS. Fatmawati Raya No.1 Lantai GF, RT.1/RW.1, Pd. Labu, Kec. Cilandak, Kota Jakarta Selatan",KALIMANTAN TENGAH,12450.0,Indonesia, 082172214012,,,-6.3044154,106.7949566,https://maps.google.com/?cid=0x0:0x348f8df780c90c26,
mall,mall,Kalimantan Tengah 73222,"Kec. Rakumpit, Kota Palangka Raya, Kalimantan Tengah","Kota Palangka Raya, Kalimantan Tengah",KALIMANTAN TENGAH,,Indonesia,,,,-1.7933344,113.7275817,https://maps.google.com/?cid=0x0:0xcd41c114b66f1cf9,
mall,Tempat Religius,Wisata Bukit Batu Pertapaan Tjilik Riwut,"4F39+W6V, S Jl. Trans Kalimantan, Kasongan Lama, Katingan Hilir, Katingan Regency, Central Kalimantan 74461","S Jl. Trans Kalimantan, Kasongan Lama, Katingan Hilir, Katingan Regency",KALIMANTAN TENGAH,74461.0,Indonesia,,,,-1.8951303,113.4680533,https://maps.google.com/?cid=0x0:0xcb4e6c653c6fae85,
mall,mall,Kec. Bukit Batu,"Kota Palangka Raya, Kalimantan Tengah","Kota Palangka Raya, Kalimantan Tengah",KALIMANTAN TENGAH,,Indonesia,,,,-2.0004344,113.7594376,https://maps.google.com/?cid=0x0:0x1e052cd5457a3765,
mall,Tujuan Wisata,Pertapaan Tjilik Riwut Bukit Batu,"Jl. Tjilik Riwut No.Km. 12, Kasongan Lama, Kec. Katingan Hilir, Kabupaten Katingan, Kalimantan Tengah 74461","Kasongan Lama, Kec. Katingan Hilir, Kabupaten Katingan",KALIMANTAN TENGAH,74461.0,Indonesia,,,,-1.8935762,113.4671557,https://maps.google.com/?cid=0x0:0xe90b54e83776820e,
mall,Restoran,"Warung .ahmad Refa,i","Jl. Tjilik Riwut, Sei Gohong, Kec. Bukit Batu, Kota Palangka Raya, Kalimantan Tengah 73112","Sei Gohong, Kec. Bukit Batu, Kota Palangka Raya",KALIMANTAN TENGAH,73112.0,Indonesia, 081256131221,,,-1.9454108,113.6665852,https://maps.google.com/?cid=0x0:0x4a77889215adaf06,
mall,Tujuan Wisata,Danum Bahandang,"3P9J+H94, Unnamed Road, Sei Gohong, Kec. Bukit Batu, Kota Palangka Raya, Kalimantan Tengah 73112","Unnamed Road, Sei Gohong, Kec. Bukit Batu, Kota Palangka Raya",KALIMANTAN TENGAH,73112.0,Indonesia,,,,-1.9311239,113.7309399,https://maps.google.com/?cid=0x0:0x1f169c22f11ce41b,
mall,Pusat Perbelanjaan,Duta Mall Palangka Raya,"QW2F+G58, Langkai, Kec. Pahandut, Kota Palangka Raya, Kalimantan Tengah 74874","Langkai, Kec. Pahandut, Kota Palangka Raya",KALIMANTAN TENGAH,74874.0,Indonesia,,,,-2.248704,113.922958,https://maps.google.com/?cid=0x0:0xd4fe13501def807f,
mall,Pusat Perbelanjaan,Toko monic,"Jl. Soekarno Hatta No.14, Kasongan Lama, Kec. Katingan Hilir, Kabupaten Katingan, Kalimantan Tengah 74413","Kasongan Lama, Kec. Katingan Hilir, Kabupaten Katingan",KALIMANTAN TENGAH,74413.0,Indonesia,,,,-1.8821182,113.4196058,https://maps.google.com/?cid=0x0:0x9f4409cca46387f7,
mall,Taman Kota,Bundaran Besar Palangkaraya,"QWV8+5R4, Jl. Yos Sudarso No.2, Palangka, Kec. Jekan Raya, Kota Palangka Raya, Kalimantan Tengah 74874","Jl. Yos Sudarso No.2, Palangka, Kec. Jekan Raya, Kota Palangka Raya",KALIMANTAN TENGAH,74874.0,Indonesia,,,,-2.2074763,113.9164126,https://maps.google.com/?cid=0x0:0xbb98948229782892,
mall,Toko Pakaian,Gaul Sport,"3HQ7+H2H, jlan tjilik Riwut, Tewang Kadamba, Kec. Katingan Hilir, Kabupaten Katingan, Kalimantan Tengah 73112","jlan tjilik Riwut, Tewang Kadamba, Kec. Katingan Hilir, Kabupaten Katingan",KALIMANTAN TENGAH,73112.0,Indonesia, 081349389308,,,-1.9110683,113.5626003,https://maps.google.com/?cid=0x0:0x3f69a0a3b8ae93f0,
mall,Bandara,Bandar Udara Tjilik Riwut (PKY),"Jl. Adonis Samad, Panarung, Kec. Pahandut, Kota Palangka Raya, Kalimantan Tengah 73111","Panarung, Kec. Pahandut, Kota Palangka Raya",KALIMANTAN TENGAH,73111.0,Indonesia,,,,-2.2314775,113.9486071,https://maps.google.com/?cid=0x0:0x14705b80aa47d6aa,
mall,Pusat Perbelanjaan,Kristomi,"Kereng Humbang, Jl. Durian No.15, Kasongan Lama, Kec. Katingan Hilir, Kabupaten Katingan, Kalimantan Tengah 74413","Jl. Durian No.15, Kasongan Lama, Kec. Katingan Hilir, Kabupaten Katingan",KALIMANTAN TENGAH,74413.0,Indonesia,,,,-1.8837715,113.4192671,https://maps.google.com/?cid=0x0:0x2a479794670e9dbf,
mall,Toko,SPO 1997 Era Septy Ceria,"4CGF+WQC, Jl. Soekarno Hatta, Kasongan Lama, Kec. Katingan Hilir, Kabupaten Katingan, Kalimantan Tengah 74413","Jl. Soekarno Hatta, Kasongan Lama, Kec. Katingan Hilir, Kabupaten Katingan",KALIMANTAN TENGAH,74413.0,Indonesia, 081349227163,,,-1.872687,113.424385,https://maps.google.com/?cid=0x0:0xb3c22356db123272,
mall,,Raya Variasi Mobil,"Jl. Tjilik Riwut km 2,5, Tewang Kadamba, Kec. Katingan Hilir, Kabupaten Katingan, Kalimantan Tengah 73112","Tewang Kadamba, Kec. Katingan Hilir, Kabupaten Katingan",KALIMANTAN TENGAH,73112.0,Indonesia, 081649316084,,,-1.9110683,113.5626003,https://maps.google.com/?cid=0x0:0xa998b130bbdb1dbb,
mall,Taman,Bukit Batu,"Tiwingan Lama, Kec. Aranio, Kabupaten Banjar, Kalimantan Selatan","Kabupaten Banjar, Kalimantan Selatan",KALIMANTAN TENGAH,,Indonesia,,,,-3.5040228,115.0714546,https://maps.google.com/?cid=0x0:0x34581bc76377c46f,
mall,Tujuan Wisata,Danau Bukit Batu,"F3MF+M5, Tiwingan Baru, Kec. Aranio, Kabupaten Banjar, Kalimantan Selatan","Kabupaten Banjar, Kalimantan Selatan",KALIMANTAN TENGAH,,Indonesia,,,,-3.5152087,115.072673,https://maps.google.com/?cid=0x0:0x127bc5c455be2281,
mall,Tempat Religius,Wisata Bukit Batu Pertapaan Tjilik Riwut,"4F39+W6V, S Jl. Trans Kalimantan, Kasongan Lama, Katingan Hilir, Katingan Regency, Central Kalimantan 74461","S Jl. Trans Kalimantan, Kasongan Lama, Katingan Hilir, Katingan Regency",KALIMANTAN TENGAH,74461.0,Indonesia,,,,-1.8951303,113.4680533,https://maps.google.com/?cid=0x0:0xcb4e6c653c6fae85,
mall,Tujuan Wisata,Pertapaan Tjilik Riwut Bukit Batu,"Jl. Tjilik Riwut No.Km. 12, Kasongan Lama, Kec. Katingan Hilir, Kabupaten Katingan, Kalimantan Tengah 74461","Kasongan Lama, Kec. Katingan Hilir, Kabupaten Katingan",KALIMANTAN TENGAH,74461.0,Indonesia,,,,-1.8935762,113.4671557,https://maps.google.com/?cid=0x0:0xe90b54e83776820e,
mall,Bengkel Mobil,Rumah,"4F39+R57, Jl. Trans Kalimantan, Kasongan Lama, Kec. Katingan Hilir, Kabupaten Katingan, Kalimantan Tengah 74461","Jl. Trans Kalimantan, Kasongan Lama, Kec. Katingan Hilir, Kabupaten Katingan",KALIMANTAN TENGAH,74461.0,Indonesia,,,,-1.8954519,113.4679264,https://maps.google.com/?cid=0x0:0x3f1a35a950e99113,
mall,Pusat Perbelanjaan,Plaza Batu,"Jl. Gajah Mada, Sisir, Kec. Batu, Kota Batu, Jawa Timur 65314","Sisir, Kec. Batu, Kota Batu",KALIMANTAN TENGAH,65314.0,Indonesia,,,,-7.8703494,112.5272113,https://maps.google.com/?cid=0x0:0xc32df820c342a9cd,
mall,mall,Kalimantan Tengah 73224,"Kec. Rakumpit, Kota Palangka Raya, Kalimantan Tengah","Kota Palangka Raya, Kalimantan Tengah",KALIMANTAN TENGAH,,Indonesia,,,,-1.6666249,113.8465758,https://maps.google.com/?cid=0x0:0xd399af94d261441b,
mall,Tempat Religius,Wisata Bukit Batu Pertapaan Tjilik Riwut,"4F39+W6V, S Jl. Trans Kalimantan, Kasongan Lama, Katingan Hilir, Katingan Regency, Central Kalimantan 74461","S Jl. Trans Kalimantan, Kasongan Lama, Katingan Hilir, Katingan Regency",KALIMANTAN TENGAH,74461.0,Indonesia,,,,-1.8951303,113.4680533,https://maps.google.com/?cid=0x0:0xcb4e6c653c6fae85,
mall,mall,Kec. Bukit Batu,"Kota Palangka Raya, Kalimantan Tengah","Kota Palangka Raya, Kalimantan Tengah",KALIMANTAN TENGAH,,Indonesia,,,,-2.0004344,113.7594376,https://maps.google.com/?cid=0x0:0x1e052cd5457a3765,
mall,Pusat Perbelanjaan,Palangkaraya Mall (Palma),"Jl. Tjilik Riwut No.1, Palangka, Kec. Jekan Raya, Kota Palangka Raya, Kalimantan Tengah 74874","Palangka, Kec. Jekan Raya, Kota Palangka Raya",KALIMANTAN TENGAH,74874.0,Indonesia,,,,-2.2065433,113.9154004,https://maps.google.com/?cid=0x0:0xe30705d17366c7e0,
mall,Toko,Toko Abah,"9WQJ+732, Jl. Palangka Raya - Kuala Kurun, Kuala Kurun, Kec. Banama Tingang, Kabupaten Pulang Pisau, Kalimantan Tengah 74863","Jl. Palangka Raya - Kuala Kurun, Kuala Kurun, Kec. Banama Tingang, Kabupaten Pulang Pisau",KALIMANTAN TENGAH,74863.0,Indonesia, 082350622530,,,-1.611869,113.930129,https://maps.google.com/?cid=0x0:0x29d9369a87e87a6d,
mall,Pusat Perbelanjaan,Duta Mall Palangka Raya,"QW2F+G58, Langkai, Kec. Pahandut, Kota Palangka Raya, Kalimantan Tengah 74874","Langkai, Kec. Pahandut, Kota Palangka Raya",KALIMANTAN TENGAH,74874.0,Indonesia,,,,-2.248704,113.922958,https://maps.google.com/?cid=0x0:0xd4fe13501def807f,
mall,mall,Kota Palangka Raya,Kalimantan Tengah,"Kota Palangka Raya, Kalimantan Tengah",KALIMANTAN TENGAH,,Indonesia,,,,-1.7493777,113.6680747,https://maps.google.com/?cid=0x0:0xc519e0820f894014,
mall,Toko bahan makanan,Warung Mama Cia,"9WHC+2RX, Jl. Darung Bawan, Bawan, Kec. Banama Tingang, Kabupaten Pulang Pisau, Kalimantan Tengah 74863","Jl. Darung Bawan, Bawan, Kec. Banama Tingang, Kabupaten Pulang Pisau",KALIMANTAN TENGAH,74863.0,Indonesia,,,,-1.6223756,113.9221148,https://maps.google.com/?cid=0x0:0x4416f9337d54bdde,
mall,mall,Toko Widiw,"Jln. Lintas Jl. Palangka Raya - Kuala Kurun, Bawan, Kec. Banama Tingang, Kabupaten Pulang Pisau, Kalimantan Tengah 74863","Bawan, Kec. Banama Tingang, Kabupaten Pulang Pisau",KALIMANTAN TENGAH,74863.0,Indonesia,,,,-1.6220915,113.9347882,https://maps.google.com/?cid=0x0:0x192b90b6fca195d0,
mall,Toko bahan makanan,Kios virna,"8WJP+C27, Jl. SAKA PERMAI, Pahawan, Kec. Banama Tingang, Kabupaten Pulang Pisau, Kalimantan Tengah 74863","Jl. SAKA PERMAI, Pahawan, Kec. Banama Tingang, Kabupaten Pulang Pisau",KALIMANTAN TENGAH,74863.0,Indonesia,,,,-1.6689589,113.9350422,https://maps.google.com/?cid=0x0:0x1692645989370b6,
mall,Bengkel Sepeda Motor,Bengkel Zulfa/ikhrom(menjual Bhan Mkanan Dan Bahan Bangunan),"9W5R+P77, Goha, Kec. Banama Tingang, Kabupaten Pulang Pisau, Kalimantan Tengah 74863","Goha, Kec. Banama Tingang, Kabupaten Pulang Pisau",KALIMANTAN TENGAH,74863.0,Indonesia, 082153387116,,,-1.6407113,113.9406832,https://maps.google.com/?cid=0x0:0x8c3214742c9a841d,
mall,Taman Kota,Bundaran Besar Palangkaraya,"QWV8+5R4, Jl. Yos Sudarso No.2, Palangka, Kec. Jekan Raya, Kota Palangka Raya, Kalimantan Tengah 74874","Jl. Yos Sudarso No.2, Palangka, Kec. Jekan Raya, Kota Palangka Raya",KALIMANTAN TENGAH,74874.0,Indonesia,,,,-2.2074763,113.9164126,https://maps.google.com/?cid=0x0:0xbb98948229782892,
mall,Pusat Perbelanjaan,Warung Mama Ufik Amuntai,"9WCP+3RH, Bawan, Kec. Banama Tingang, Kabupaten Pulang Pisau, Kalimantan Tengah 74863","Bawan, Kec. Banama Tingang, Kabupaten Pulang Pisau",KALIMANTAN TENGAH,74863.0,Indonesia, 081255006695,,,-1.6298147,113.9371148,https://maps.google.com/?cid=0x0:0xffdcaeace597ede4,
mall,Polisi Negara Bagian,Polsek Bukit Batu,"Jl. Tjilik Riwut No.km.33, Palangka, Kec. Bukit Batu, Kota Palangka Raya, Kalimantan Tengah 73224","Palangka, Kec. Bukit Batu, Kota Palangka Raya",KALIMANTAN TENGAH,73224.0,Indonesia,,,,-1.9914786,113.7598656,https://maps.google.com/?cid=0x0:0x687213e5d0d32898,
mall,Pusat Perbelanjaan,Lippo Plaza Batu,"Jl. Diponegoro No.1, Sisir, Kec. Batu, Kota Batu, Jawa Timur 65314","Sisir, Kec. Batu, Kota Batu",KALIMANTAN TENGAH,65314.0,Indonesia, 03412991299,,,-7.87861,112.534284,https://maps.google.com/?cid=0x0:0x86fc42f21cbd11c5,
mall,Pusat Perbelanjaan,Plaza Batu,"Jl. Gajah Mada, Sisir, Kec. Batu, Kota Batu, Jawa Timur 65314","Sisir, Kec. Batu, Kota Batu",KALIMANTAN TENGAH,65314.0,Indonesia,,,,-7.8703494,112.5272113,https://maps.google.com/?cid=0x0:0xc32df820c342a9cd,
mall,Tempat Religius,Wisata Bukit Batu Pertapaan Tjilik Riwut,"4F39+W6V, S Jl. Trans Kalimantan, Kasongan Lama, Katingan Hilir, Katingan Regency, Central Kalimantan 74461","S Jl. Trans Kalimantan, Kasongan Lama, Katingan Hilir, Katingan Regency",KALIMANTAN TENGAH,74461.0,Indonesia,,,,-1.8951303,113.4680533,https://maps.google.com/?cid=0x0:0xcb4e6c653c6fae85,
mall,Tujuan Wisata,Pertapaan Tjilik Riwut Bukit Batu,"Jl. Tjilik Riwut No.Km. 12, Kasongan Lama, Kec. Katingan Hilir, Kabupaten Katingan, Kalimantan Tengah 74461","Kasongan Lama, Kec. Katingan Hilir, Kabupaten Katingan",KALIMANTAN TENGAH,74461.0,Indonesia,,,,-1.8935762,113.4671557,https://maps.google.com/?cid=0x0:0xe90b54e83776820e,
mall,Bengkel Mobil,Rumah,"4F39+R57, Jl. Trans Kalimantan, Kasongan Lama, Kec. Katingan Hilir, Kabupaten Katingan, Kalimantan Tengah 74461","Jl. Trans Kalimantan, Kasongan Lama, Kec. Katingan Hilir, Kabupaten Katingan",KALIMANTAN TENGAH,74461.0,Indonesia,,,,-1.8954519,113.4679264,https://maps.google.com/?cid=0x0:0x3f1a35a950e99113,
mall,Tempat Religius,Wisata Bukit Batu Pertapaan Tjilik Riwut,"4F39+W6V, S Jl. Trans Kalimantan, Kasongan Lama, Katingan Hilir, Katingan Regency, Central Kalimantan 74461","S Jl. Trans Kalimantan, Kasongan Lama, Katingan Hilir, Katingan Regency",KALIMANTAN TENGAH,74461.0,Indonesia,,,,-1.8951303,113.4680533,https://maps.google.com/?cid=0x0:0xcb4e6c653c6fae85,
mall,Tujuan Wisata,Pertapaan Tjilik Riwut Bukit Batu,"Jl. Tjilik Riwut No.Km. 12, Kasongan Lama, Kec. Katingan Hilir, Kabupaten Katingan, Kalimantan Tengah 74461","Kasongan Lama, Kec. Katingan Hilir, Kabupaten Katingan",KALIMANTAN TENGAH,74461.0,Indonesia,,,,-1.8935762,113.4671557,https://maps.google.com/?cid=0x0:0xe90b54e83776820e,
mall,Bengkel Mobil,Rumah,"4F39+R57, Jl. Trans Kalimantan, Kasongan Lama, Kec. Katingan Hilir, Kabupaten Katingan, Kalimantan Tengah 74461","Jl. Trans Kalimantan, Kasongan Lama, Kec. Katingan Hilir, Kabupaten Katingan",KALIMANTAN TENGAH,74461.0,Indonesia,,,,-1.8954519,113.4679264,https://maps.google.com/?cid=0x0:0x3f1a35a950e99113,
mall,Pusat Perbelanjaan,Plaza Batu,"Jl. Gajah Mada, Sisir, Kec. Batu, Kota Batu, Jawa Timur 65314","Sisir, Kec. Batu, Kota Batu",KALIMANTAN TENGAH,65314.0,Indonesia,,,,-7.8703494,112.5272113,https://maps.google.com/?cid=0x0:0xc32df820c342a9cd,
mall,mall,Kalimantan Tengah 73111,"Menteng, Kec. Jekan Raya, Kota Palangka Raya, Kalimantan Tengah","Kota Palangka Raya, Kalimantan Tengah",KALIMANTAN TENGAH,,Indonesia,,,,-2.2370103,113.9075943,https://maps.google.com/?cid=0x0:0xebd5272dd2bb60bf,
mall,Pusat Perbelanjaan,Palangkaraya Mall (Palma),"Jl. Tjilik Riwut No.1, Palangka, Kec. Jekan Raya, Kota Palangka Raya, Kalimantan Tengah 74874","Palangka, Kec. Jekan Raya, Kota Palangka Raya",KALIMANTAN TENGAH,74874.0,Indonesia,,,,-2.2065433,113.9154004,https://maps.google.com/?cid=0x0:0xe30705d17366c7e0,
mall,Pusat Perbelanjaan,Lippo Plaza Palangka Raya,"Jl. Yos Sudarso No.57, Menteng, Kec. Jekan Raya, Kota Palangka Raya, Kalimantan Tengah 73111","Menteng, Kec. Jekan Raya, Kota Palangka Raya",KALIMANTAN TENGAH,73111.0,Indonesia, 08115208188,,,-2.2144549,113.905329,https://maps.google.com/?cid=0x0:0xf0ea3e1d05607362,
mall,Pusat Perbelanjaan,Matahari Department Lippo Plaza Palangkaraya,"Jl. Yos Sudarso No.57, Menteng, Kec. Jekan Raya, Kota Palangka Raya, Kalimantan Tengah 74874","Menteng, Kec. Jekan Raya, Kota Palangka Raya",KALIMANTAN TENGAH,74874.0,Indonesia,,,,-2.2141989,113.9055548,https://maps.google.com/?cid=0x0:0xb3a6d520ec175c36,
mall,Pusat Bisnis,K-LINK PALANGKA RAYA,"RW37+CPW, Unnamed Road, Palangka, Kec. Jekan Raya, Kota Palangka Raya, Kalimantan Tengah 74874","Unnamed Road, Palangka, Kec. Jekan Raya, Kota Palangka Raya",KALIMANTAN TENGAH,74874.0,Indonesia, 085346530156,,,-2.1963952,113.914328,https://maps.google.com/?cid=0x0:0x637cc81a1a9bd165,
mall,Taman Kota,Bundaran Besar Palangkaraya,"QWV8+5R4, Jl. Yos Sudarso No.2, Palangka, Kec. Jekan Raya, Kota Palangka Raya, Kalimantan Tengah 74874","Jl. Yos Sudarso No.2, Palangka, Kec. Jekan Raya, Kota Palangka Raya",KALIMANTAN TENGAH,74874.0,Indonesia,,,,-2.2074763,113.9164126,https://maps.google.com/?cid=0x0:0xbb98948229782892,
mall,mall,Kalimantan Tengah 73112,"Bukit Tunggal, Kec. Jekan Raya, Kota Palangka Raya, Kalimantan Tengah","Kota Palangka Raya, Kalimantan Tengah",KALIMANTAN TENGAH,,Indonesia,,,,-2.1933111,113.8886973,https://maps.google.com/?cid=0x0:0x57b4a29625d97d46,
mall,Pusat Perbelanjaan,Palangkaraya Mall (Palma),"Jl. Tjilik Riwut No.1, Palangka, Kec. Jekan Raya, Kota Palangka Raya, Kalimantan Tengah 74874","Palangka, Kec. Jekan Raya, Kota Palangka Raya",KALIMANTAN TENGAH,74874.0,Indonesia,,,,-2.2065433,113.9154004,https://maps.google.com/?cid=0x0:0xe30705d17366c7e0,
mall,Pusat Perbelanjaan,Lippo Plaza Palangka Raya,"Jl. Yos Sudarso No.57, Menteng, Kec. Jekan Raya, Kota Palangka Raya, Kalimantan Tengah 73111","Menteng, Kec. Jekan Raya, Kota Palangka Raya",KALIMANTAN TENGAH,73111.0,Indonesia, 08115208188,,,-2.2144549,113.905329,https://maps.google.com/?cid=0x0:0xf0ea3e1d05607362,
mall,Pusat Perbelanjaan,Duta Mall Palangka Raya,"QW2F+G58, Langkai, Kec. Pahandut, Kota Palangka Raya, Kalimantan Tengah 74874","Langkai, Kec. Pahandut, Kota Palangka Raya",KALIMANTAN TENGAH,74874.0,Indonesia,,,,-2.248704,113.922958,https://maps.google.com/?cid=0x0:0xd4fe13501def807f,
mall,Pusat Bisnis,K-LINK PALANGKA RAYA,"RW37+CPW, Unnamed Road, Palangka, Kec. Jekan Raya, Kota Palangka Raya, Kalimantan Tengah 74874","Unnamed Road, Palangka, Kec. Jekan Raya, Kota Palangka Raya",KALIMANTAN TENGAH,74874.0,Indonesia, 085346530156,,,-2.1963952,113.914328,https://maps.google.com/?cid=0x0:0x637cc81a1a9bd165,
mall,mall,Kalimantan Tengah 73118,Kalimantan Tengah,Kalimantan Tengah,KALIMANTAN TENGAH,,Indonesia,,,,-1.8372983,113.7870822,https://maps.google.com/?cid=0x0:0x11883074e3244d68,
mall,Pusat Perbelanjaan,Palangkaraya Mall (Palma),"Jl. Tjilik Riwut No.1, Palangka, Kec. Jekan Raya, Kota Palangka Raya, Kalimantan Tengah 74874","Palangka, Kec. Jekan Raya, Kota Palangka Raya",KALIMANTAN TENGAH,74874.0,Indonesia,,,,-2.2065433,113.9154004,https://maps.google.com/?cid=0x0:0xe30705d17366c7e0,
mall,Pusat Perbelanjaan,Lippo Plaza Palangka Raya,"Jl. Yos Sudarso No.57, Menteng, Kec. Jekan Raya, Kota Palangka Raya, Kalimantan Tengah 73111","Menteng, Kec. Jekan Raya, Kota Palangka Raya",KALIMANTAN TENGAH,73111.0,Indonesia, 08115208188,,,-2.2144549,113.905329,https://maps.google.com/?cid=0x0:0xf0ea3e1d05607362,
mall,Pusat Perbelanjaan,Duta Mall Palangka Raya,"QW2F+G58, Langkai, Kec. Pahandut, Kota Palangka Raya, Kalimantan Tengah 74874","Langkai, Kec. Pahandut, Kota Palangka Raya",KALIMANTAN TENGAH,74874.0,Indonesia,,,,-2.248704,113.922958,https://maps.google.com/?cid=0x0:0xd4fe13501def807f,
mall,Pusat Perbelanjaan,THE PARK MALL PALANGKARAYA,"Jl. Tjilik Riwut No.Km 2, RW.2, Bukit Tunggal, Kec. Jekan Raya, Kota Palangka Raya, Kalimantan Tengah 73113","RW.2, Bukit Tunggal, Kec. Jekan Raya, Kota Palangka Raya",KALIMANTAN TENGAH,73113.0,Indonesia, 053688982873,,,-2.1539085,113.8390794,https://maps.google.com/?cid=0x0:0xa727fc05dfe20707,
mall,mall,Kec. Jekan Raya,"Kota Palangka Raya, Kalimantan Tengah","Kota Palangka Raya, Kalimantan Tengah",KALIMANTAN TENGAH,,Indonesia,,,,-2.2135468,113.9059149,https://maps.google.com/?cid=0x0:0x8cf48f9eeb1007b3,
mall,Mal outlet,Mall PINO4D.ASIA,"Jl. Yos Sudarso No.57, Menteng, Kec. Jekan Raya, Kota Palangka Raya, Kalimantan Tengah 74874","Menteng, Kec. Jekan Raya, Kota Palangka Raya",KALIMANTAN TENGAH,74874.0,Indonesia,,,,-2.2146839,113.9055048,https://maps.google.com/?cid=0x0:0x3f3c6fb573a4cb79,
mall,Pusat Perbelanjaan,Official Acesoris Palangkaraya,"Jl. Borneo No.33, Palangka, Kec. Jekan Raya, Kota Palangka Raya, Kalimantan Tengah 74874","Palangka, Kec. Jekan Raya, Kota Palangka Raya",KALIMANTAN TENGAH,74874.0,Indonesia, 081258240494,,,-2.2104195,113.8954071,https://maps.google.com/?cid=0x0:0x5662351a32b141cd,
mall,Pusat Perbelanjaan,Pertokoan Keminting Square,"QVWP+PP4, Jl. Bukit Kaminting, Palangka, Kec. Jekan Raya, Kota Palangka Raya, Kalimantan Tengah 74874","Jl. Bukit Kaminting, Palangka, Kec. Jekan Raya, Kota Palangka Raya",KALIMANTAN TENGAH,74874.0,Indonesia, 05363247733,,,-2.2032302,113.8868135,https://maps.google.com/?cid=0x0:0xf8c2343aa95a980c,
mall,Pusat Perbelanjaan,Celcius Mississippi Mal Mega Town Square Palangkaraya,"Jl. Yos Sudarso No.57, Menteng, Kec. Jekan Raya, Kota Palangka Raya, Kalimantan Tengah 74874","Menteng, Kec. Jekan Raya, Kota Palangka Raya",KALIMANTAN TENGAH,74874.0,Indonesia,,,,-2.2142338,113.905566,https://maps.google.com/?cid=0x0:0x7707886542f7e24c,
mall,Toko Tas,Nana Bagâ€™s Gallery,"Gg. II No.115, Palangka, Kec. Jekan Raya, Kota Palangka Raya, Kalimantan Tengah 74874","Palangka, Kec. Jekan Raya, Kota Palangka Raya",KALIMANTAN TENGAH,74874.0,Indonesia, 082110000082,,,-2.202008,113.8873089,https://maps.google.com/?cid=0x0:0xde34fc76f7d359a1,
mall,Toko bahan makanan,Fotocopy Safari Indah,"Langkai, Kec. Jekan Raya, Kota Palangka Raya, Kalimantan Tengah 74874","Kec. Jekan Raya, Kota Palangka Raya",KALIMANTAN TENGAH,74874.0,Indonesia, 085345008890,,,-2.218822,113.9203008,https://maps.google.com/?cid=0x0:0x658036322342e50d,
mall,Pusat Perbelanjaan,Kaharati Center,"Jl. Tmg. Tilung XXI No.10a, Menteng, Kec. Jekan Raya, Kota Palangka Raya, Kalimantan Tengah 73112","Menteng, Kec. Jekan Raya, Kota Palangka Raya",KALIMANTAN TENGAH,73112.0,Indonesia, 085281568384,,,-2.2257841,113.9059711,https://maps.google.com/?cid=0x0:0x468d3811dccc78d3,
mall,Pusat Perbelanjaan,Merpati Mart,"Jl. Merpati No.6, Palangka, Kec. Jekan Raya, Kota Palangka Raya, Kalimantan Tengah 74874","Palangka, Kec. Jekan Raya, Kota Palangka Raya",KALIMANTAN TENGAH,74874.0,Indonesia, 08988310702,,,-2.1915594,113.8966586,https://maps.google.com/?cid=0x0:0x35c6fd7227d1a7c8,
mall,Pusat Perbelanjaan,FADARA CORP,"QVCP+WQ5, Jl. G. Obos IX, Menteng, Kec. Jekan Raya, Kota Palangka Raya, Kalimantan Tengah 74874","Jl. G. Obos IX, Menteng, Kec. Jekan Raya, Kota Palangka Raya",KALIMANTAN TENGAH,74874.0,Indonesia,,,,-2.2277383,113.8869774,https://maps.google.com/?cid=0x0:0xf7d9492e2eca4a5f,
mall,Toko Pakaian,Serba Harga Murah,"Jl. Bukit Kaminting No.2, Palangka, Kec. Jekan Raya, Kota Palangka Raya, Kalimantan Tengah 74874","Palangka, Kec. Jekan Raya, Kota Palangka Raya",KALIMANTAN TENGAH,74874.0,Indonesia, 081348216668,,,-2.2034417,113.8868963,https://maps.google.com/?cid=0x0:0xfa05aa053b298e0f,
mall,Toko Pakaian,Nabila Putri Colletion,"RV3W+QV7, Palangka, Kec. Jekan Raya, Kota Palangka Raya, Kalimantan Tengah 73112","Palangka, Kec. Jekan Raya, Kota Palangka Raya",KALIMANTAN TENGAH,73112.0,Indonesia,,,,-2.1955996,113.8971734,https://maps.google.com/?cid=0x0:0x3d20d583362c6f14,
mall,Pusat Perbelanjaan,Kyle House,"QVVX+M7V, Palangka, Kec. Jekan Raya, Kota Palangka Raya, Kalimantan Tengah 74874","Palangka, Kec. Jekan Raya, Kota Palangka Raya",KALIMANTAN TENGAH,74874.0,Indonesia, 0811520273,,,-2.2057673,113.898178,https://maps.google.com/?cid=0x0:0xd56e1e98df075945,
mall,Pusat Perbelanjaan,Sekretariat AKUMANDIRI Kota Palangka Raya,"RV5X+Q7R, Ruko Garuda Mas Jl. Garuda, Palangka, Kec. Jekan Raya, Kota Palangka Raya, Kalimantan Tengah 74874","Ruko Garuda Mas Jl. Garuda, Palangka, Kec. Jekan Raya, Kota Palangka Raya",KALIMANTAN TENGAH,74874.0,Indonesia,,,,-2.1905198,113.8981517,https://maps.google.com/?cid=0x0:0x1f5894839047f873,
mall,Taman Kota,Bundaran Besar Palangkaraya,"QWV8+5R4, Jl. Yos Sudarso No.2, Palangka, Kec. Jekan Raya, Kota Palangka Raya, Kalimantan Tengah 74874","Jl. Yos Sudarso No.2, Palangka, Kec. Jekan Raya, Kota Palangka Raya",KALIMANTAN TENGAH,74874.0,Indonesia,,,,-2.2074763,113.9164126,https://maps.google.com/?cid=0x0:0xbb98948229782892,
mall,Toko Pakaian Pria,BALINESE CORNER,"Jl. Kinibalu No.60-18, Palangka, Kec. Jekan Raya, Kota Palangka Raya, Kalimantan Tengah 74874","Palangka, Kec. Jekan Raya, Kota Palangka Raya",KALIMANTAN TENGAH,74874.0,Indonesia, 085393668883,,,-2.2062742,113.9122686,https://maps.google.com/?cid=0x0:0x50d3b8fbcc887eef,
mall,Pusat Perbelanjaan,ChristineCollection,"QWC4+Q9M, B Jl. Tamanggung Tilung XVIII, Menteng, Kec. Jekan Raya, Kota Palangka Raya, Kalimantan Tengah 74874","B Jl. Tamanggung Tilung XVIII, Menteng, Kec. Jekan Raya, Kota Palangka Raya",KALIMANTAN TENGAH,74874.0,Indonesia,,,,-2.228037,113.905928,https://maps.google.com/?cid=0x0:0xabff277f4c29f87a,
mall,mall,Kalimantan Tengah 73111,"Panarung, Kec. Pahandut, Kota Palangka Raya, Kalimantan Tengah","Kota Palangka Raya, Kalimantan Tengah",KALIMANTAN TENGAH,,Indonesia,,,,-2.2331773,113.9388982,https://maps.google.com/?cid=0x0:0x16569ec2240fc1af,
mall,Pusat Perbelanjaan,Palangkaraya Mall (Palma),"Jl. Tjilik Riwut No.1, Palangka, Kec. Jekan Raya, Kota Palangka Raya, Kalimantan Tengah 74874","Palangka, Kec. Jekan Raya, Kota Palangka Raya",KALIMANTAN TENGAH,74874.0,Indonesia,,,,-2.2065433,113.9154004,https://maps.google.com/?cid=0x0:0xe30705d17366c7e0,
mall,Pusat Perbelanjaan,Lippo Plaza Palangka Raya,"Jl. Yos Sudarso No.57, Menteng, Kec. Jekan Raya, Kota Palangka Raya, Kalimantan Tengah 73111","Menteng, Kec. Jekan Raya, Kota Palangka Raya",KALIMANTAN TENGAH,73111.0,Indonesia, 08115208188,,,-2.2144549,113.905329,https://maps.google.com/?cid=0x0:0xf0ea3e1d05607362,
mall,Pusat Perbelanjaan,Helmahhh_shopp,"rumah warna hijau, Jl. Pinus Permai III No.22, Panarung, Kec. Pahandut, Kota Palangka Raya, Kalimantan Tengah 74874","Jl. Pinus Permai III No.22, Panarung, Kec. Pahandut, Kota Palangka Raya",KALIMANTAN TENGAH,74874.0,Indonesia, 087742365627,,,-2.2333413,113.9359452,https://maps.google.com/?cid=0x0:0x4e3798eee6385327,
mall,Taman Kota,Bundaran Besar Palangkaraya,"QWV8+5R4, Jl. Yos Sudarso No.2, Palangka, Kec. Jekan Raya, Kota Palangka Raya, Kalimantan Tengah 74874","Jl. Yos Sudarso No.2, Palangka, Kec. Jekan Raya, Kota Palangka Raya",KALIMANTAN TENGAH,74874.0,Indonesia,,,,-2.2074763,113.9164126,https://maps.google.com/?cid=0x0:0xbb98948229782892,
mall,Toko,Toko Ferdiansyah,"QW8R+C58, Jl. Jati, Panarung, Kec. Pahandut, Kota Palangka Raya, Kalimantan Tengah 74874","Jl. Jati, Panarung, Kec. Pahandut, Kota Palangka Raya",KALIMANTAN TENGAH,74874.0,Indonesia, 085753477787,,,-2.2339528,113.9404638,https://maps.google.com/?cid=0x0:0xe36df9f614a0dbf9,
mall,Pusat Perbelanjaan,Kacang Batampik ACIL KACANG,"QX65+WQX, Jl. Bangaris, Panarung, Kec. Pahandut, Kota Palangka Raya, Kalimantan Tengah 74874","Jl. Bangaris, Panarung, Kec. Pahandut, Kota Palangka Raya",KALIMANTAN TENGAH,74874.0,Indonesia, 085211097637,,,-2.2376342,113.9594777,https://maps.google.com/?cid=0x0:0x7693e1cf3d177c9a,
mall,Toko Perlengkapan Rumah,Dina naizar,"Jl. Bangaris No.9, Panarung, Kec. Pahandut, Kota Palangka Raya, Kalimantan Tengah 74874","Panarung, Kec. Pahandut, Kota Palangka Raya",KALIMANTAN TENGAH,74874.0,Indonesia,,,,-2.2352915,113.9564048,https://maps.google.com/?cid=0x0:0x93ff6e673b5eabb7,
mall,Bandara,Bandar Udara Tjilik Riwut (PKY),"Jl. Adonis Samad, Panarung, Kec. Pahandut, Kota Palangka Raya, Kalimantan Tengah 73111","Panarung, Kec. Pahandut, Kota Palangka Raya",KALIMANTAN TENGAH,73111.0,Indonesia,,,,-2.2314775,113.9486071,https://maps.google.com/?cid=0x0:0x14705b80aa47d6aa,
mall,mall,Hotel Neo Palma - Palangkaraya,"Jl. Tjilik Riwut Bundaran Besar No.Km. 1 No. 1, Palangka, Jekan Raya, Palangka Raya City, Central Kalimantan 73111","Palangka, Jekan Raya, Palangka Raya City",KALIMANTAN TENGAH,73111.0,Indonesia, 08115236999,,,-2.2064978,113.9153837,https://maps.google.com/?cid=0x0:0x4cd5fa7e2eebffa6,
mall,mall,,,,KALIMANTAN TENGAH,,Indonesia,,,,,,https://maps.google.com/?cid=0x0:0x4cd5fa7e2eebffa6%7C/g/11bw3c835m%7Cen-ID,
mall,mall,Amaris Hotel Palangkaraya,"Jl. S. Parman No.60 A, Palangka, Kec. Jekan Raya, Kota Palangka Raya, Kalimantan Tengah 73112","Palangka, Kec. Jekan Raya, Kota Palangka Raya",KALIMANTAN TENGAH,73112.0,Indonesia, 05363238989,,,-2.2014452,113.9170926,https://maps.google.com/?cid=0x0:0xd6ffc32279bd4e57,
mall,mall,Hotel Grand Global,"Jl. Tjilik Riwut No.Km 12, Palangka, Kec. Jekan Raya, Kota Palangka Raya, Kalimantan Tengah 73111","Palangka, Kec. Jekan Raya, Kota Palangka Raya",KALIMANTAN TENGAH,73111.0,Indonesia, 05363222888,,,-2.2030694,113.9143853,https://maps.google.com/?cid=0x0:0x4baff33e8028df91,
mall,mall,Suja Cik Ditiro,"Jl. Cik Ditiro No.14, Menteng, Kec. Jekan Raya, Kota Palangka Raya, Kalimantan Tengah 74874","Menteng, Kec. Jekan Raya, Kota Palangka Raya",KALIMANTAN TENGAH,74874.0,Indonesia, 085247092887,,,-2.2149688,113.9098187,https://maps.google.com/?cid=0x0:0x8e622f360b21e88e,
mall,mall,Royal Global Hotel,"Jl. Tjilik Riwut No.KM. 2.5, Palangka, Kec. Jekan Raya, Kota Palangka Raya, Kalimantan Tengah 73113","Palangka, Kec. Jekan Raya, Kota Palangka Raya",KALIMANTAN TENGAH,73113.0,Indonesia, 05363238822,,,-2.1943509,113.90267,https://maps.google.com/?cid=0x0:0xb9e15042922e760f,
mall,mall,Bukit Raya Guesthouse and Tours,"Jalan Batu Suli 5 D Gg. Bersama No.2, Palangka, Kec. Jekan Raya, Kota Palangka Raya, Kalimantan Tengah 74874","Palangka, Kec. Jekan Raya, Kota Palangka Raya",KALIMANTAN TENGAH,74874.0,Indonesia, 0811528400,,,-2.207884,113.8982034,https://maps.google.com/?cid=0x0:0xc3062cf55799e0c0,
mall,mall,Hotel Global Express,"Jalan Jendral A.Yani No.51, Langkai, Kec. Pahandut, Kota Palangka Raya, Kalimantan Tengah 74874","Langkai, Kec. Pahandut, Kota Palangka Raya",KALIMANTAN TENGAH,74874.0,Indonesia, 081262393613,,,-2.2089265,113.9310949,https://maps.google.com/?cid=0x0:0xaf9f0c189241fca9,
mall,Restoran,Jembatan Kahayan,"QWXC+4PF, Jalan Kapten Piere Tendean, Palangka, Pahandut, Palangka, Kec. Jekan Raya, Kota Palangka Raya, Kalimantan Tengah 74874","Jalan Kapten Piere Tendean, Palangka, Pahandut, Palangka, Kec. Jekan Raya, Kota Palangka Raya",KALIMANTAN TENGAH,74874.0,Indonesia,,,,-2.2021949,113.9218082,https://maps.google.com/?cid=0x0:0x6c50094b628085b5,
mall,Pusat Perbelanjaan,Kacang Tepek MIRA,"QX65+XQ5, Panarung, Kec. Pahandut, Kota Palangka Raya, Kalimantan Tengah 74874","Panarung, Kec. Pahandut, Kota Palangka Raya",KALIMANTAN TENGAH,74874.0,Indonesia, 085211097637,,,-2.2376241,113.9594706,https://maps.google.com/?cid=0x0:0x2b81e243e8b96c36,
mall,Pusat Perbelanjaan,Dwie vanessa olshop,"Jl. Brokoli IV B No.07, Panarung, Kec. Pahandut, Kota Palangka Raya, Kalimantan Tengah 74874","Panarung, Kec. Pahandut, Kota Palangka Raya",KALIMANTAN TENGAH,74874.0,Indonesia,,,,-2.2403964,113.9394821,https://maps.google.com/?cid=0x0:0xe32dd47ea52fd8ea,
mall,Toko Swalayan,Toko SEKUMPUL,"QX75+P53, Jl. Bangaris, Panarung, Kec. Pahandut, Kota Palangka Raya, Kalimantan Tengah 74874","Jl. Bangaris, Panarung, Kec. Pahandut, Kota Palangka Raya",KALIMANTAN TENGAH,74874.0,Indonesia, 0895705038165,,,-2.2357457,113.9579327,https://maps.google.com/?cid=0x0:0xc3431c9135865b2,
mall,Toko,Toko Mega Bintang,"QX75+M4R, Jl. Bangaris, Panarung, Kec. Pahandut, Kota Palangka Raya, Kalimantan Tengah 74874","Jl. Bangaris, Panarung, Kec. Pahandut, Kota Palangka Raya",KALIMANTAN TENGAH,74874.0,Indonesia,,,,-2.2357685,113.9577511,https://maps.google.com/?cid=0x0:0xa8b5dc3a447c0a23,
mall,Pusat Perbelanjaan,Matahari Department Lippo Plaza Palangkaraya,"Jl. Yos Sudarso No.57, Menteng, Kec. Jekan Raya, Kota Palangka Raya, Kalimantan Tengah 74874","Menteng, Kec. Jekan Raya, Kota Palangka Raya",KALIMANTAN TENGAH,74874.0,Indonesia,,,,-2.2141989,113.9055548,https://maps.google.com/?cid=0x0:0xb3a6d520ec175c36,
mall,Lembaga Swadaya Masyarakat (LSM),Kantor Mal pelayanan publik Kota Palangkaraya,"QWR7+WJX, Palangka, Kec. Jekan Raya, Kota Palangka Raya, Kalimantan Tengah 74874","Palangka, Kec. Jekan Raya, Kota Palangka Raya",KALIMANTAN TENGAH,74874.0,Indonesia,,,,-2.2076164,113.9140403,https://maps.google.com/?cid=0x0:0x21d93257695f1fc7,
mall,Taman Kota,Taman Kota Cantik Palangkaraya,"QWQ5+8M5, Jl. Yos Sudarso, Menteng, Kec. Jekan Raya, Kota Palangka Raya, Kalimantan Tengah 73111","Jl. Yos Sudarso, Menteng, Kec. Jekan Raya, Kota Palangka Raya",KALIMANTAN TENGAH,73111.0,Indonesia,,,,-2.2117492,113.9092306,https://maps.google.com/?cid=0x0:0xf7329960ae221e6d,
mall,Toko,Toko NORMALATY,"QWRP+863, Jl. Ahmad Yani, Pahandut, Kec. Pahandut, Kota Palangka Raya, Kalimantan Tengah 74874","Jl. Ahmad Yani, Pahandut, Kec. Pahandut, Kota Palangka Raya",KALIMANTAN TENGAH,74874.0,Indonesia,,,,-2.2092344,113.9355615,https://maps.google.com/?cid=0x0:0x6457ac7c5644ea7c,
mall,Pusat Perbelanjaan,Toko permata Boss,"QWVQ+F5G, Jl. Batam, Pahandut, Kec. Pahandut, Kota Palangka Raya, Kalimantan Tengah 74874","Jl. Batam, Pahandut, Kec. Pahandut, Kota Palangka Raya",KALIMANTAN TENGAH,74874.0,Indonesia, 085828645620,,,-2.2063132,113.9379603,https://maps.google.com/?cid=0x0:0xd371f7f0f35812f2,
mall,mall,Kalimantan Tengah 73227,"Kabupaten Gunung MAS, Kalimantan Tengah","Kabupaten Gunung MAS, Kalimantan Tengah",KALIMANTAN TENGAH,,Indonesia,,,,-1.5625835,113.6085612,https://maps.google.com/?cid=0x0:0xf52044d70ef4122c,
mall,Pusat Perbelanjaan,Palangkaraya Mall (Palma),"Jl. Tjilik Riwut No.1, Palangka, Kec. Jekan Raya, Kota Palangka Raya, Kalimantan Tengah 74874","Palangka, Kec. Jekan Raya, Kota Palangka Raya",KALIMANTAN TENGAH,74874.0,Indonesia,,,,-2.2065433,113.9154004,https://maps.google.com/?cid=0x0:0xe30705d17366c7e0,
mall,Pusat Perbelanjaan,Duta Mall Palangka Raya,"QW2F+G58, Langkai, Kec. Pahandut, Kota Palangka Raya, Kalimantan Tengah 74874","Langkai, Kec. Pahandut, Kota Palangka Raya",KALIMANTAN TENGAH,74874.0,Indonesia,,,,-2.248704,113.922958,https://maps.google.com/?cid=0x0:0xd4fe13501def807f,
mall,Pusat Perbelanjaan,Palangkaraya Mall (Palma),"Jl. Tjilik Riwut No.1, Palangka, Kec. Jekan Raya, Kota Palangka Raya, Kalimantan Tengah 74874","Palangka, Kec. Jekan Raya, Kota Palangka Raya",KALIMANTAN TENGAH,74874.0,Indonesia,,,,-2.2065433,113.9154004,https://maps.google.com/?cid=0x0:0xe30705d17366c7e0,
mall,Pusat Perbelanjaan,Lippo Plaza Palangka Raya,"Jl. Yos Sudarso No.57, Menteng, Kec. Jekan Raya, Kota Palangka Raya, Kalimantan Tengah 73111","Menteng, Kec. Jekan Raya, Kota Palangka Raya",KALIMANTAN TENGAH,73111.0,Indonesia, 08115208188,,,-2.2144549,113.905329,https://maps.google.com/?cid=0x0:0xf0ea3e1d05607362,
mall,Restoran,Bread Tree,"Palangkaraya Mall (Palma), Jl. Tjilik Riwut No.km 1, Palangka, Kec. Jekan Raya, Kota Palangka Raya, Kalimantan Tengah 74874","Jl. Tjilik Riwut No.km 1, Palangka, Kec. Jekan Raya, Kota Palangka Raya",KALIMANTAN TENGAH,74874.0,Indonesia,,,,-2.2065974,113.9155635,https://maps.google.com/?cid=0x0:0xec609162937bbe77,
mall,Restoran,Richeese Factory Palangkaraya Mall,"Palangkaraya Mall Lt.Dasar No.11-13, Jl. Tjilik Riwut No.KM.1, Palangka, Kec. Jekan Raya, Kota Palangka Raya, Kalimantan Tengah 74874","Jl. Tjilik Riwut No.KM.1, Palangka, Kec. Jekan Raya, Kota Palangka Raya",KALIMANTAN TENGAH,74874.0,Indonesia,,,,-2.2068227,113.9153407,https://maps.google.com/?cid=0x0:0x8fcca6fb89f29a19,
mall,Jepang,HokBen Palma Palangkaraya,"Palangkaraya Mall (Palma), Jl. Tjilik Riwut No.Km. 1, Palangka, Kec. Jekan Raya, Kota Palangka Raya, Kalimantan Tengah 73111","Jl. Tjilik Riwut No.Km. 1, Palangka, Kec. Jekan Raya, Kota Palangka Raya",KALIMANTAN TENGAH,73111.0,Indonesia, 05363241358,,,-2.2064978,113.9153837,https://maps.google.com/?cid=0x0:0x63756253f6bec135,
mall,mall,Kec. Rakumpit,"Kota Palangka Raya, Kalimantan Tengah","Kota Palangka Raya, Kalimantan Tengah",KALIMANTAN TENGAH,,Indonesia,,,,-1.6942515,113.6380522,https://maps.google.com/?cid=0x0:0x42aedf8a5c1ec05a,
mall,Pusat Perbelanjaan,Duta Mall Palangka Raya,"QW2F+G58, Langkai, Kec. Pahandut, Kota Palangka Raya, Kalimantan Tengah 74874","Langkai, Kec. Pahandut, Kota Palangka Raya",KALIMANTAN TENGAH,74874.0,Indonesia,,,,-2.248704,113.922958,https://maps.google.com/?cid=0x0:0xd4fe13501def807f,
mall,mall,Kalimantan Tengah 73229,"Kabupaten Gunung MAS, Kalimantan Tengah","Kabupaten Gunung MAS, Kalimantan Tengah",KALIMANTAN TENGAH,,Indonesia,,,,-1.4825935,113.5966577,https://maps.google.com/?cid=0x0:0xf73b1482f3533d4a,
mall,Pusat Perbelanjaan,Palangkaraya Mall (Palma),"Jl. Tjilik Riwut No.1, Palangka, Kec. Jekan Raya, Kota Palangka Raya, Kalimantan Tengah 74874","Palangka, Kec. Jekan Raya, Kota Palangka Raya",KALIMANTAN TENGAH,74874.0,Indonesia,,,,-2.2065433,113.9154004,https://maps.google.com/?cid=0x0:0xe30705d17366c7e0,
mall,Kios,TOKO MOYRA,"area PLTU, DS, Tumbang Kajuei, Kec. Rungan, Kabupaten Gunung MAS, Kalimantan Tengah 74562","DS, Tumbang Kajuei, Kec. Rungan, Kabupaten Gunung MAS",KALIMANTAN TENGAH,74562.0,Indonesia, 081348567295,,,-1.3735001,113.5647223,https://maps.google.com/?cid=0x0:0x202ab0173e41710,
mall,Bengkel Sepeda Motor,Bengkel 99 MOTOR taringen,"CG2G+J4M, Bereng Jun, Kec. Manuhing, Kabupaten Gunung MAS, Kalimantan Tengah 73227","Bereng Jun, Kec. Manuhing, Kabupaten Gunung MAS",KALIMANTAN TENGAH,73227.0,Indonesia,,,,-1.5984186,113.5253084,https://maps.google.com/?cid=0x0:0xd64f5bdb3d2ad079,
mall,Pusat Perbelanjaan,Budi rungan,"PH7F+7W8Jl. Cilik RiwutJakatan Raya, Kec. Rungan, Kabupaten Gunung MAS, Kalimantan Tengah 74562","Kec. Rungan, Kabupaten Gunung MAS",KALIMANTAN TENGAH,74562.0,Indonesia,,,,-1.2867554,113.5748433,https://maps.google.com/?cid=0x0:0x969d38f948dba5e2,
mall,Toko,BALQIS MART,"M92J+PW4, Tumbang Talaken, Kec. Manuhing, Kabupaten Gunung MAS, Kalimantan Tengah 74562","Tumbang Talaken, Kec. Manuhing, Kabupaten Gunung MAS",KALIMANTAN TENGAH,74562.0,Indonesia,,,,-1.3483046,113.3824586,https://maps.google.com/?cid=0x0:0x8efcfd327679ccd3,
mall,Toko,Toko hikmah Rungan,"PH6F+HM9, Jl. Cilik Riwut, Jakatan Raya, Kec. Rungan, Kabupaten Gunung MAS, Kalimantan Tengah 74561","Jl. Cilik Riwut, Jakatan Raya, Kec. Rungan, Kabupaten Gunung MAS",KALIMANTAN TENGAH,74561.0,Indonesia,,,,-1.2885853,113.5742455,https://maps.google.com/?cid=0x0:0x7724ba62233447e8,
mall,Bumi perkemahan,kajui state,"Unnamed Road, Tangki Dahuyan, Kec. Manuhing, Kabupaten Gunung MAS, Kalimantan Tengah 74562","Tangki Dahuyan, Kec. Manuhing, Kabupaten Gunung MAS",KALIMANTAN TENGAH,74562.0,Indonesia,,,,-1.3765666,113.469929,https://maps.google.com/?cid=0x0:0x1fa015e3e3d3ad71,
mall,mall,Kec. Rakumpit,"Kota Palangka Raya, Kalimantan Tengah","Kota Palangka Raya, Kalimantan Tengah",KALIMANTAN TENGAH,,Indonesia,,,,-1.6942515,113.6380522,https://maps.google.com/?cid=0x0:0x42aedf8a5c1ec05a,
mall,Restoran,"Warung .ahmad Refa,i","Jl. Tjilik Riwut, Sei Gohong, Kec. Bukit Batu, Kota Palangka Raya, Kalimantan Tengah 73112","Sei Gohong, Kec. Bukit Batu, Kota Palangka Raya",KALIMANTAN TENGAH,73112.0,Indonesia, 081256131221,,,-1.9454108,113.6665852,https://maps.google.com/?cid=0x0:0x4a77889215adaf06,
mall,Toko Pakaian,Gaul Sport,"3HQ7+H2H, jlan tjilik Riwut, Tewang Kadamba, Kec. Katingan Hilir, Kabupaten Katingan, Kalimantan Tengah 73112","jlan tjilik Riwut, Tewang Kadamba, Kec. Katingan Hilir, Kabupaten Katingan",KALIMANTAN TENGAH,73112.0,Indonesia, 081349389308,,,-1.9110683,113.5626003,https://maps.google.com/?cid=0x0:0x3f69a0a3b8ae93f0,
mall,Toko,Toko Abah,"9WQJ+732, Jl. Palangka Raya - Kuala Kurun, Kuala Kurun, Kec. Banama Tingang, Kabupaten Pulang Pisau, Kalimantan Tengah 74863","Jl. Palangka Raya - Kuala Kurun, Kuala Kurun, Kec. Banama Tingang, Kabupaten Pulang Pisau",KALIMANTAN TENGAH,74863.0,Indonesia, 082350622530,,,-1.611869,113.930129,https://maps.google.com/?cid=0x0:0x29d9369a87e87a6d,
mall,,Raya Variasi Mobil,"Jl. Tjilik Riwut km 2,5, Tewang Kadamba, Kec. Katingan Hilir, Kabupaten Katingan, Kalimantan Tengah 73112","Tewang Kadamba, Kec. Katingan Hilir, Kabupaten Katingan",KALIMANTAN TENGAH,73112.0,Indonesia, 081649316084,,,-1.9110683,113.5626003,https://maps.google.com/?cid=0x0:0xa998b130bbdb1dbb,
mall,mall,Toko Widiw,"Jln. Lintas Jl. Palangka Raya - Kuala Kurun, Bawan, Kec. Banama Tingang, Kabupaten Pulang Pisau, Kalimantan Tengah 74863","Bawan, Kec. Banama Tingang, Kabupaten Pulang Pisau",KALIMANTAN TENGAH,74863.0,Indonesia,,,,-1.6220915,113.9347882,https://maps.google.com/?cid=0x0:0x192b90b6fca195d0,
mall,Toko,Toko Arziki,"FW2C+WRQ Toko Arziki tiga pintu warna biru. BRI Link, jalan Lintas Palangkaraya RT.8, Desa Tangkahen, Kec. Banama Tingang, Kabupaten Pulang Pisau, Kalimantan Tengah 74863","jalan Lintas Palangkaraya RT.8, Desa Tangkahen, Kec. Banama Tingang, Kabupaten Pulang Pisau",KALIMANTAN TENGAH,74863.0,Indonesia,,,,-1.5476646,113.9221238,https://maps.google.com/?cid=0x0:0x43d4829d746dc405,
mall,Toko bahan makanan,Warung Mama Cia,"9WHC+2RX, Jl. Darung Bawan, Bawan, Kec. Banama Tingang, Kabupaten Pulang Pisau, Kalimantan Tengah 74863","Jl. Darung Bawan, Bawan, Kec. Banama Tingang, Kabupaten Pulang Pisau",KALIMANTAN TENGAH,74863.0,Indonesia,,,,-1.6223756,113.9221148,https://maps.google.com/?cid=0x0:0x4416f9337d54bdde,
mall,mall,Kalimantan Tengah 73113,Kalimantan Tengah,Kalimantan Tengah,KALIMANTAN TENGAH,,Indonesia,,,,-2.1235276,113.8822686,https://maps.google.com/?cid=0x0:0x86a571c6f87570f4,
mall,Pusat Perbelanjaan,Palangkaraya Mall (Palma),"Jl. Tjilik Riwut No.1, Palangka, Kec. Jekan Raya, Kota Palangka Raya, Kalimantan Tengah 74874","Palangka, Kec. Jekan Raya, Kota Palangka Raya",KALIMANTAN TENGAH,74874.0,Indonesia,,,,-2.2065433,113.9154004,https://maps.google.com/?cid=0x0:0xe30705d17366c7e0,
mall,Pusat Perbelanjaan,THE PARK MALL PALANGKARAYA,"Jl. Tjilik Riwut No.Km 2, RW.2, Bukit Tunggal, Kec. Jekan Raya, Kota Palangka Raya, Kalimantan Tengah 73113","RW.2, Bukit Tunggal, Kec. Jekan Raya, Kota Palangka Raya",KALIMANTAN TENGAH,73113.0,Indonesia, 053688982873,,,-2.1539085,113.8390794,https://maps.google.com/?cid=0x0:0xa727fc05dfe20707,
mall,Pusat Perbelanjaan,Duta Mall Palangka Raya,"QW2F+G58, Langkai, Kec. Pahandut, Kota Palangka Raya, Kalimantan Tengah 74874","Langkai, Kec. Pahandut, Kota Palangka Raya",KALIMANTAN TENGAH,74874.0,Indonesia,,,,-2.248704,113.922958,https://maps.google.com/?cid=0x0:0xd4fe13501def807f,
mall,Pertanian,Someng Farm,"RRWV+QJP, Petuk Katimpun, Kec. Jekan Raya, Kota Palangka Raya, Kalimantan Tengah 73113","Petuk Katimpun, Kec. Jekan Raya, Kota Palangka Raya",KALIMANTAN TENGAH,73113.0,Indonesia, 085249666860,,,-2.1530331,113.844083,https://maps.google.com/?cid=0x0:0xa4671824b15b7661,
mall,Pusat Perbelanjaan,Celcius Mississippi Mal Mega Town Square Palangkaraya,"Jl. Yos Sudarso No.57, Menteng, Kec. Jekan Raya, Kota Palangka Raya, Kalimantan Tengah 74874","Menteng, Kec. Jekan Raya, Kota Palangka Raya",KALIMANTAN TENGAH,74874.0,Indonesia,,,,-2.2142338,113.905566,https://maps.google.com/?cid=0x0:0x7707886542f7e24c,
mall,Pusat Perbelanjaan,Toko Gallery Minimalist,"Jl. Nagasari. B20, Jl. Tjilik Riwut No.km.11, Bukit Tunggal, Kec. Jekan Raya, Kota Palangka Raya, Kalimantan Tengah 73112","Jl. Tjilik Riwut No.km.11, Bukit Tunggal, Kec. Jekan Raya, Kota Palangka Raya",KALIMANTAN TENGAH,73112.0,Indonesia, 0895612331856,,,-2.1546824,113.8334844,https://maps.google.com/?cid=0x0:0xdb37d0d0df420731,
mall,Toko Pakaian,Serba 35000,"RVFF+7WV, Bukit Tunggal, Kec. Jekan Raya, Kota Palangka Raya, Kalimantan Tengah","Kota Palangka Raya, Kalimantan Tengah",KALIMANTAN TENGAH,,Indonesia,,,,-2.1767593,113.8748091,https://maps.google.com/?cid=0x0:0xcaacf5cb7499d27a,
mall,Pusat Perbelanjaan,SUN WALET INDONESIA,"RW3P+6F6, Jl. Wisata, Pahandut Seberang, Kec. Pahandut, Kota Palangka Raya, Kalimantan Tengah 74874","Jl. Wisata, Pahandut Seberang, Kec. Pahandut, Kota Palangka Raya",KALIMANTAN TENGAH,74874.0,Indonesia, 082150991159,,,-2.1969735,113.9361491,https://maps.google.com/?cid=0x0:0x2de6c7f1f9e648ba,
mall,Pusat Perbelanjaan,Pertokoan Keminting Square,"QVWP+PP4, Jl. Bukit Kaminting, Palangka, Kec. Jekan Raya, Kota Palangka Raya, Kalimantan Tengah 74874","Jl. Bukit Kaminting, Palangka, Kec. Jekan Raya, Kota Palangka Raya",KALIMANTAN TENGAH,74874.0,Indonesia, 05363247733,,,-2.2032302,113.8868135,https://maps.google.com/?cid=0x0:0xf8c2343aa95a980c,
mall,Hutan Nasional,Taman Nasional Sebangau,"Jalan Mahir Mahar KM. 1.2, Paduran Sabangau, Sebangau Kuala, Paduran Sabangau, Kec. Sebangau Kuala, Palangka Raya, Kalimantan Tengah 74874","Paduran Sabangau, Sebangau Kuala, Paduran Sabangau, Kec. Sebangau Kuala, Palangka Raya",KALIMANTAN TENGAH,74874.0,Indonesia, 08115233525,,,-2.5973765,113.6737776,https://maps.google.com/?cid=0x0:0x40114385e9a1ba41,
mall,Komplek perumahan,Simp. Mendawai induk,"RW35+5W2, Jl. Mendawai, Palangka, Kec. Jekan Raya, Kota Palangka Raya, Kalimantan Tengah 74874","Jl. Mendawai, Palangka, Kec. Jekan Raya, Kota Palangka Raya",KALIMANTAN TENGAH,74874.0,Indonesia, 082148645792,,,-2.1971171,113.9097706,https://maps.google.com/?cid=0x0:0x907a99ebb8fa2998,
mall,Toko Pakaian,Serba Harga Murah,"Jl. Bukit Kaminting No.2, Palangka, Kec. Jekan Raya, Kota Palangka Raya, Kalimantan Tengah 74874","Palangka, Kec. Jekan Raya, Kota Palangka Raya",KALIMANTAN TENGAH,74874.0,Indonesia, 081348216668,,,-2.2034417,113.8868963,https://maps.google.com/?cid=0x0:0xfa05aa053b298e0f,
mall,Pusat Perbelanjaan,Toko Nadika,"Jl.Damang Gustaf Erang km 13, Bukit Tunggal, Kec. Jekan Raya, Kota Palangka Raya, Kalimantan Tengah 73113","Bukit Tunggal, Kec. Jekan Raya, Kota Palangka Raya",KALIMANTAN TENGAH,73113.0,Indonesia,,,,-2.1473444,113.8195476,https://maps.google.com/?cid=0x0:0x66ce59b199ea0a05,
mall,Pusat Perbelanjaan,FIRA TANI,"Jl. Tjilik Riwut No.17, Bukit Tunggal, Kec. Jekan Raya, Kota Palangka Raya, Kalimantan Tengah 74874","Bukit Tunggal, Kec. Jekan Raya, Kota Palangka Raya",KALIMANTAN TENGAH,74874.0,Indonesia,,,,-2.1695137,113.8583937,https://maps.google.com/?cid=0x0:0x794c19089692ea57,
mall,,Toko Rajawali Jaya,"RVFF+M55, Bukit Tunggal, Kec. Jekan Raya, Kota Palangka Raya, Kalimantan Tengah 74874","Bukit Tunggal, Kec. Jekan Raya, Kota Palangka Raya",KALIMANTAN TENGAH,74874.0,Indonesia, 085249188210,,,-2.1758716,113.8729921,https://maps.google.com/?cid=0x0:0x19cce6ee7f161fa3,
mall,Pusat Perbelanjaan,AsmiliantiOlshopPky,"RW44+XM4, Palangka, Kec. Jekan Raya, Kota Palangka Raya, Kalimantan Tengah 74874","Palangka, Kec. Jekan Raya, Kota Palangka Raya",KALIMANTAN TENGAH,74874.0,Indonesia, 081251950618,,,-2.1926109,113.9067118,https://maps.google.com/?cid=0x0:0xde4bfd8ceece9a82,
mall,Tujuan Wisata,Balai Taman Nasional Sebangau,"PWGH+9XM, Panarung, Kec. Pahandut, Kota Palangka Raya, Kalimantan Tengah 74874","Panarung, Kec. Pahandut, Kota Palangka Raya",KALIMANTAN TENGAH,74874.0,Indonesia, 05364263611,,,-2.2740484,113.9299235,https://maps.google.com/?cid=0x0:0x177df7e917308f74,
mall,Toko Tas,Nana Bagâ€™s Gallery,"Gg. II No.115, Palangka, Kec. Jekan Raya, Kota Palangka Raya, Kalimantan Tengah 74874","Palangka, Kec. Jekan Raya, Kota Palangka Raya",KALIMANTAN TENGAH,74874.0,Indonesia, 082110000082,,,-2.202008,113.8873089,https://maps.google.com/?cid=0x0:0xde34fc76f7d359a1,
mall,Pusat Perbelanjaan,Lost City (LC.00),"RV8H+6X9, Jl. Badak VI, Bukit Tunggal, Kec. Jekan Raya, Kota Palangka Raya, Kalimantan Tengah 74874","Jl. Badak VI, Bukit Tunggal, Kec. Jekan Raya, Kota Palangka Raya",KALIMANTAN TENGAH,74874.0,Indonesia,,,,-2.1844509,113.8799715,https://maps.google.com/?cid=0x0:0x6c6076d061e26cc8,
mall,Pusat Perbelanjaan,BULAN TRIANA (MANCOKAN YO),"RRWQ+WH5, Jl. Cilik Riwut, Petuk Katimpun, Kec. Jekan Raya, Kota Palangka Raya, Kalimantan Tengah 73113","Jl. Cilik Riwut, Petuk Katimpun, Kec. Jekan Raya, Kota Palangka Raya",KALIMANTAN TENGAH,73113.0,Indonesia, 081350394959,,,-2.1527465,113.8389887,https://maps.google.com/?cid=0x0:0xb24d7e46ba4a384f,
mall,,Kios mama kiya,"Jl.Damang Gustaf Erang km 13, Bukit Tunggal, Kec. Jekan Raya, Kota Palangka Raya, Kalimantan Tengah 73113","Bukit Tunggal, Kec. Jekan Raya, Kota Palangka Raya",KALIMANTAN TENGAH,73113.0,Indonesia, 081549593851,,,-2.1473681,113.8200837,https://maps.google.com/?cid=0x0:0x7f605e3b53083c84,
mall,mall,Rumah Mama Muna,"PW44+59X, Jl. Mangku Raya, Kereng Bangkirai, Kec. Sebangau, Kota Palangka Raya, Kalimantan Tengah 73113","Jl. Mangku Raya, Kereng Bangkirai, Kec. Sebangau, Kota Palangka Raya",KALIMANTAN TENGAH,73113.0,Indonesia,,,,-2.294525,113.9059954,https://maps.google.com/?cid=0x0:0xae3af39190a11cba,
mall,mall,Salsabila ceel,"VV24+R3W, Petuk Katimpun, Kec. Jekan Raya, Kota Palangka Raya, Kalimantan Tengah 73113","Petuk Katimpun, Kec. Jekan Raya, Kota Palangka Raya",KALIMANTAN TENGAH,73113.0,Indonesia,,,,-2.1475528,113.8555076,https://maps.google.com/?cid=0x0:0xf3982ddc2d9b6f92,
mall,mall,Kalimantan Tengah 73114,Kalimantan Tengah,Kalimantan Tengah,KALIMANTAN TENGAH,,Indonesia,,,,-2.0476577,114.1201536,https://maps.google.com/?cid=0x0:0x94c27ae4b55d0eb,
mall,Pusat Perbelanjaan,Palangkaraya Mall (Palma),"Jl. Tjilik Riwut No.1, Palangka, Kec. Jekan Raya, Kota Palangka Raya, Kalimantan Tengah 74874","Palangka, Kec. Jekan Raya, Kota Palangka Raya",KALIMANTAN TENGAH,74874.0,Indonesia,,,,-2.2065433,113.9154004,https://maps.google.com/?cid=0x0:0xe30705d17366c7e0,
mall,Pusat Perbelanjaan,Duta Mall Palangka Raya,"QW2F+G58, Langkai, Kec. Pahandut, Kota Palangka Raya, Kalimantan Tengah 74874","Langkai, Kec. Pahandut, Kota Palangka Raya",KALIMANTAN TENGAH,74874.0,Indonesia,,,,-2.248704,113.922958,https://maps.google.com/?cid=0x0:0xd4fe13501def807f,
mall,Tujuan Wisata,Balai Taman Nasional Sebangau,"PWGH+9XM, Panarung, Kec. Pahandut, Kota Palangka Raya, Kalimantan Tengah 74874","Panarung, Kec. Pahandut, Kota Palangka Raya",KALIMANTAN TENGAH,74874.0,Indonesia, 05364263611,,,-2.2740484,113.9299235,https://maps.google.com/?cid=0x0:0x177df7e917308f74,
mall,Toko Swalayan,SENTRA SWALAYAN,"QWF9+CX6, Menteng, Kec. Jekan Raya, Kota Palangka Raya, Kalimantan Tengah 74874","Menteng, Kec. Jekan Raya, Kota Palangka Raya",KALIMANTAN TENGAH,74874.0,Indonesia, 083129623921,,,-2.2265197,113.9198887,https://maps.google.com/?cid=0x0:0x27797051c89d0e84,
mall,Toko Pakaian,Ayzha Outfit,"Jl. Sisingamangaraja, Menteng, Kec. Jekan Raya, Kota Palangka Raya, Kalimantan Tengah 74874","Menteng, Kec. Jekan Raya, Kota Palangka Raya",KALIMANTAN TENGAH,74874.0,Indonesia, 082199656088,,,-2.2177907,113.9082913,https://maps.google.com/?cid=0x0:0x76c9d6d75cd870cf,
mall,Toko umum,Warung amelia aryani,"2X63+MH2, Jl. Palangka Raya - Kuala Kurun, Bukit Liti, Kec. Kahayan Tengah, Kabupaten Pulang Pisau, Kalimantan Tengah 73111","Jl. Palangka Raya - Kuala Kurun, Bukit Liti, Kec. Kahayan Tengah, Kabupaten Pulang Pisau",KALIMANTAN TENGAH,73111.0,Indonesia, 085252936089,,,-1.9883722,113.9538935,https://maps.google.com/?cid=0x0:0x246850b734bf9fe2,
mall,Pasar,Pasar Sabtu Kecamatan Sebangau Kuala,"3R8Q+2FQ, Jl. Diponegoro, Sebangau Permai, Kec. Sebangau Kuala, Kabupaten Pulang Pisau, Kalimantan Tengah 74874","Jl. Diponegoro, Sebangau Permai, Kec. Sebangau Kuala, Kabupaten Pulang Pisau",KALIMANTAN TENGAH,74874.0,Indonesia,,,,-2.9349071,113.8387445,https://maps.google.com/?cid=0x0:0x68a3dcccf96dd572,
mall,Pusat Perbelanjaan,Matahari Department Lippo Plaza Palangkaraya,"Jl. Yos Sudarso No.57, Menteng, Kec. Jekan Raya, Kota Palangka Raya, Kalimantan Tengah 74874","Menteng, Kec. Jekan Raya, Kota Palangka Raya",KALIMANTAN TENGAH,74874.0,Indonesia,,,,-2.2141989,113.9055548,https://maps.google.com/?cid=0x0:0xb3a6d520ec175c36,
mall,Perumahan,Jl panenga raya 2,"marsidi, Jalan, Gg. Panenga 2 No.26 blok a2, Kereng Bangkirai, Kec. Sebangau, Kota Palangka Raya, Kalimantan Tengah 74874","Jalan, Gg. Panenga 2 No.26 blok a2, Kereng Bangkirai, Kec. Sebangau, Kota Palangka Raya",KALIMANTAN TENGAH,74874.0,Indonesia, 081250500616,,,-2.2779704,113.9156957,https://maps.google.com/?cid=0x0:0x4e3302cde5b142ea,
mall,Toko Ponsel,Zahra Cell,"PW64+Q9V, Kereng Bangkirai, Kec. Sebangau, Kota Palangka Raya, Kalimantan Tengah 74874","Kereng Bangkirai, Kec. Sebangau, Kota Palangka Raya",KALIMANTAN TENGAH,74874.0,Indonesia,,,,-2.2880074,113.9059237,https://maps.google.com/?cid=0x0:0xca162374cefcdaa3,
mall,mall,BHK. Trader,"Jl. G. Obos XIV No.6, Menteng, Kec. Jekan Raya, Kota Palangka Raya, Kalimantan Tengah 74874","Menteng, Kec. Jekan Raya, Kota Palangka Raya",KALIMANTAN TENGAH,74874.0,Indonesia,,,,-2.2365191,113.8872214,https://maps.google.com/?cid=0x0:0xb8f86f43f63f9c06,
mall,Pusat Perbelanjaan,Zoomlion,"QW49+WVM, Jl. RTA Milono, Menteng, Pontianak, Kota Palangka Raya, Kalimantan Tengah 74874","Jl. RTA Milono, Menteng, Pontianak, Kota Palangka Raya",KALIMANTAN TENGAH,74874.0,Indonesia,,,,-2.2427401,113.9196785,https://maps.google.com/?cid=0x0:0x709e9280da8ad9c5,
mall,Kafe,AW'S kitchen,"Gg. Panenga Permai No.11, Kereng Bangkirai, Kec. Sebangau, Kota Palangka Raya, Kalimantan Tengah 74874","Kereng Bangkirai, Kec. Sebangau, Kota Palangka Raya",KALIMANTAN TENGAH,74874.0,Indonesia, 081250594777,,,-2.2764317,113.9158798,https://maps.google.com/?cid=0x0:0xf82677291f36e555,
mall,Toko Ikan,Locality Aquatic Palangkaraya,"QW2H+RH3, Jl. Komp. Damai Sejahtera, Langkai, Kec. Pahandut, Kota Palangka Raya, Kalimantan Tengah 74874","Jl. Komp. Damai Sejahtera, Langkai, Kec. Pahandut, Kota Palangka Raya",KALIMANTAN TENGAH,74874.0,Indonesia, 085390754857,,,-2.2479762,113.9289258,https://maps.google.com/?cid=0x0:0xad3daeba8ba6fc91,
mall,Toko,Toko Rezeki,"PW69+7C7, Sabaru, Kec. Sebangau, Kota Palangka Raya, Kalimantan Tengah 74874","Sabaru, Kec. Sebangau, Kota Palangka Raya",KALIMANTAN TENGAH,74874.0,Indonesia,,,,-2.2893395,113.9185602,https://maps.google.com/?cid=0x0:0xfbbf1d15a5f6da95,
mall,Pusat Perbelanjaan,TOKO RANGGA,"QW8F+7QR, Langkai, Kec. Pahandut, Kota Palangka Raya, Kalimantan Tengah 74874","Langkai, Kec. Pahandut, Kota Palangka Raya",KALIMANTAN TENGAH,74874.0,Indonesia, 0811529354,,,-2.2342518,113.9243794,https://maps.google.com/?cid=0x0:0x72eb3747802db203,
mall,Toko umum,Depot Air Minum Pak Kumis. Dan Masjid Asyifa.,"PW92+W6V, Jl. Pasir Panjang, Kereng Bangkirai, Kec. Sebangau, Kota Palangka Raya, Kalimantan Tengah 74874","Jl. Pasir Panjang, Kereng Bangkirai, Kec. Sebangau, Kota Palangka Raya",KALIMANTAN TENGAH,74874.0,Indonesia,,,,-2.2801397,113.9005551,https://maps.google.com/?cid=0x0:0x5ebcbb68baf0dbd4,
mall,Pusat Perbelanjaan,Jaya Gemilang,"Jl. Putri Junjung Buih, Panarung, Kec. Pahandut, Kota Palangka Raya, Kalimantan Tengah 73112","Panarung, Kec. Pahandut, Kota Palangka Raya",KALIMANTAN TENGAH,73112.0,Indonesia, 081251517198,,,-2.2315783,113.9318564,https://maps.google.com/?cid=0x0:0x9ef47e847104d264,
mall,Pusat Perbelanjaan,Toko Mirja,"Jl. Karet, Panarung, Kec. Pahandut, Kota Palangka Raya, Kalimantan Tengah 74874","Panarung, Kec. Pahandut, Kota Palangka Raya",KALIMANTAN TENGAH,74874.0,Indonesia,,,,-2.2273819,113.9312015,https://maps.google.com/?cid=0x0:0x5d7f319e6b2bca19,
mall,Pusat Pendidikan,Sanggar Marajaki,"Jl. G. Obos No.109, Menteng, Kec. Jekan Raya, Kota Palangka Raya, Kalimantan Tengah 73112","Menteng, Kec. Jekan Raya, Kota Palangka Raya",KALIMANTAN TENGAH,73112.0,Indonesia, 082154433065,,,-2.223924,113.9047484,https://maps.google.com/?cid=0x0:0x36d9640ca2ddad85,
mall,Mal outlet,Mall PINO4D.ASIA,"Jl. Yos Sudarso No.57, Menteng, Kec. Jekan Raya, Kota Palangka Raya, Kalimantan Tengah 74874","Menteng, Kec. Jekan Raya, Kota Palangka Raya",KALIMANTAN TENGAH,74874.0,Indonesia,,,,-2.2146839,113.9055048,https://maps.google.com/?cid=0x0:0x3f3c6fb573a4cb79,
mall,Pusat Perbelanjaan,Helmahhh_shopp,"rumah warna hijau, Jl. Pinus Permai III No.22, Panarung, Kec. Pahandut, Kota Palangka Raya, Kalimantan Tengah 74874","Jl. Pinus Permai III No.22, Panarung, Kec. Pahandut, Kota Palangka Raya",KALIMANTAN TENGAH,74874.0,Indonesia, 087742365627,,,-2.2333413,113.9359452,https://maps.google.com/?cid=0x0:0x4e3798eee6385327,
mall,Toko Jam,Smart watch,"Jl. G. Obos G-H-I-J No.68, Menteng, Kec. Jekan Raya, Kota Palangka Raya, Kalimantan Tengah 73112","Menteng, Kec. Jekan Raya, Kota Palangka Raya",KALIMANTAN TENGAH,73112.0,Indonesia,,,,-2.2229758,113.9054958,https://maps.google.com/?cid=0x0:0x624226c909973c83,
mall,,Ovie Happy,"Jl. Kayu Manis no.7, Panarung, Pahandut, Palangka Raya City, Central Kalimantan 74874","Panarung, Pahandut, Palangka Raya City",KALIMANTAN TENGAH,74874.0,Indonesia,,,,-2.2270347,113.9344199,https://maps.google.com/?cid=0x0:0xb17a581789b38710,
supermarket,supermarket,Kec. Bukit Batu,"Kota Palangka Raya, Kalimantan Tengah","Kota Palangka Raya, Kalimantan Tengah",KALIMANTAN TENGAH,,Indonesia,,,,-2.0004344,113.7594376,https://maps.google.com/?cid=0x0:0x1e052cd5457a3765,
supermarket,Minimarket,Alfamart Bukit Tangkiling,"XQX5+3XQ, Jl. Trans Kalimantan, Banturung, Kec. Bukit Batu, Kota Palangka Raya, Kalimantan Tengah 73112","Jl. Trans Kalimantan, Banturung, Kec. Bukit Batu, Kota Palangka Raya",KALIMANTAN TENGAH,73112.0,Indonesia,,,,-2.0022879,113.7599694,https://maps.google.com/?cid=0x0:0xbc725cbede7ffb9d,
supermarket,Toko bahan makanan,TOKO SAYU BATUAH,"Jl. Tjilik Riwut No.KM.33, Tangkiling, Kec. Bukit Batu, Kota Palangka Raya, Kalimantan Tengah 73112","Tangkiling, Kec. Bukit Batu, Kota Palangka Raya",KALIMANTAN TENGAH,73112.0,Indonesia,,,,-1.9852274,113.7602309,https://maps.google.com/?cid=0x0:0xb521efee8f8ec32b,
supermarket,Pusat Perbelanjaan,Toko NADINE,"2Q85+JWG, Tangkiling, Kec. Bukit Batu, Kota Palangka Raya, Kalimantan Tengah 73112","Tangkiling, Kec. Bukit Batu, Kota Palangka Raya",KALIMANTAN TENGAH,73112.0,Indonesia,,,,-1.9834421,113.7598149,https://maps.google.com/?cid=0x0:0xcca2737981d5b4f7,
supermarket,Toko Swalayan,Toko Mahmudah,"2Q25+WPC, Jl. Cilik Riwut, Banturung, Kec. Bukit Batu, Kota Palangka Raya, Kalimantan Tengah 73112","Jl. Cilik Riwut, Banturung, Kec. Bukit Batu, Kota Palangka Raya",KALIMANTAN TENGAH,73112.0,Indonesia, 082352342785,,,-1.9976987,113.7592685,https://maps.google.com/?cid=0x0:0x29d3ccaf2a6a860c,
supermarket,Minimarket,KPD Swalayan,"RVG7+7WR, Bukit Tunggal, Kec. Jekan Raya, Kota Palangka Raya, Kalimantan Tengah 74874","Bukit Tunggal, Kec. Jekan Raya, Kota Palangka Raya",KALIMANTAN TENGAH,74874.0,Indonesia,,,,-2.1742522,113.8647802,https://maps.google.com/?cid=0x0:0x559e62f52706de81,
supermarket,Produsen,Bismillah usaha tangkiling,"jl bima No.25, Habaring Hurung, Kec. Bukit Batu, Kota Palangka Raya, Kalimantan Tengah 73221","Habaring Hurung, Kec. Bukit Batu, Kota Palangka Raya",KALIMANTAN TENGAH,73221.0,Indonesia,,,,-2.0275242,113.7196255,https://maps.google.com/?cid=0x0:0xa735a04c79e4192a,
supermarket,Tempat Religius,Wisata Bukit Batu Pertapaan Tjilik Riwut,"4F39+W6V, S Jl. Trans Kalimantan, Kasongan Lama, Katingan Hilir, Katingan Regency, Central Kalimantan 74461","S Jl. Trans Kalimantan, Kasongan Lama, Katingan Hilir, Katingan Regency",KALIMANTAN TENGAH,74461.0,Indonesia,,,,-1.8951303,113.4680533,https://maps.google.com/?cid=0x0:0xcb4e6c653c6fae85,
supermarket,Minimarket,KPD Swalayan,"RV3W+9MH, Palangka, Kec. Jekan Raya, Kota Palangka Raya, Kalimantan Tengah 73112","Palangka, Kec. Jekan Raya, Kota Palangka Raya",KALIMANTAN TENGAH,73112.0,Indonesia,,,,-2.196565,113.89673,https://maps.google.com/?cid=0x0:0x3b88414904f9aaa9,
supermarket,Vegetarian cafe and deli,Telaga Biru Swalayan,"JL. Jend A Yani, Bl J, No.9-11, Langkai, Kec. Pahandut, Kota Palangka Raya, Kalimantan Tengah 73111","Bl J, No.9-11, Langkai, Kec. Pahandut, Kota Palangka Raya",KALIMANTAN TENGAH,73111.0,Indonesia,,,,-2.2087048,113.9291034,https://maps.google.com/?cid=0x0:0x322674a8568d56fd,
supermarket,Minimarket,KPD Swalayan,"QWF3+FQF, Jl. Temanggung Tilung, Menteng, Kec. Jekan Raya, Kota Palangka Raya, Kalimantan Tengah 74874","Jl. Temanggung Tilung, Menteng, Kec. Jekan Raya, Kota Palangka Raya",KALIMANTAN TENGAH,74874.0,Indonesia,,,,-2.2263205,113.9044201,https://maps.google.com/?cid=0x0:0x85898d75470f4f26,
supermarket,Supermarket Diskon,Toko Sembako Sulastri,"WQH8+3QW, Jl. Trans Kalimantan, Tumbang Tahai, Kec. Bukit Batu, Kota Palangka Raya, Kalimantan Tengah 73113","Jl. Trans Kalimantan, Tumbang Tahai, Kec. Bukit Batu, Kota Palangka Raya",KALIMANTAN TENGAH,73113.0,Indonesia,,,,-2.0722512,113.7669421,https://maps.google.com/?cid=0x0:0x80451db98dae872c,
supermarket,Toko Swalayan,Toko Salamah,"Jl. Badak No.88, Bukit Tunggal, Kec. Jekan Raya, Kota Palangka Raya, Kalimantan Tengah 74874","Bukit Tunggal, Kec. Jekan Raya, Kota Palangka Raya",KALIMANTAN TENGAH,74874.0,Indonesia, 081325090199,,,-2.1863932,113.8776789,https://maps.google.com/?cid=0x0:0xe09b37ca1612ad9f,
supermarket,Toko Perlengkapan Rumah,Swalayan Kawan Serbu,"Palangka, Kec. Jekan Raya, Kota Palangka Raya, Kalimantan Tengah 74874","Kec. Jekan Raya, Kota Palangka Raya",KALIMANTAN TENGAH,74874.0,Indonesia, 085787541213,,,-2.2080928,113.9223431,https://maps.google.com/?cid=0x0:0xc9687cc90f27fde3,
supermarket,Toko bahan makanan,Cemara Labat Pahandut Seberang,"RW2Q+RGJ, Pahandut Seberang, Kec. Pahandut, Kota Palangka Raya, Kalimantan Tengah 74874","Pahandut Seberang, Kec. Pahandut, Kota Palangka Raya",KALIMANTAN TENGAH,74874.0,Indonesia,,,,-2.1979239,113.9387561,https://maps.google.com/?cid=0x0:0xe3f4478684134349,
supermarket,Toko bahan makanan,citra sentosa,"QWV4+852, Jl. Cakra Buana, Palangka, Kec. Jekan Raya, Kota Palangka Raya, Kalimantan Tengah 74874","Jl. Cakra Buana, Palangka, Kec. Jekan Raya, Kota Palangka Raya",KALIMANTAN TENGAH,74874.0,Indonesia,,,,-2.2067292,113.9053863,https://maps.google.com/?cid=0x0:0xedbeac349b71642a,
supermarket,Toko Swalayan,Toko Fajar,"RVG8+96G, Bukit Tunggal, Kec. Jekan Raya, Kota Palangka Raya, Kalimantan Tengah 74874","Bukit Tunggal, Kec. Jekan Raya, Kota Palangka Raya",KALIMANTAN TENGAH,74874.0,Indonesia, 085787754332,,,-2.1740603,113.865592,https://maps.google.com/?cid=0x0:0x94e690898ede652d,
supermarket,Minimarket,Warung Naesya,"QVRQ+7VH, Jl. Bukit Kaminting, Palangka, Kec. Jekan Raya, Kota Palangka Raya, Kalimantan Tengah 74874","Jl. Bukit Kaminting, Palangka, Kec. Jekan Raya, Kota Palangka Raya",KALIMANTAN TENGAH,74874.0,Indonesia,,,,-2.2093193,113.8897464,https://maps.google.com/?cid=0x0:0x49cad46cc9674a4e,
supermarket,Toko bahan makanan,Mini Market Antang,"Jl. Bandeng No.4, Bukit Tunggal, Kec. Jekan Raya, Kota Palangka Raya, Kalimantan Tengah 74874","Bukit Tunggal, Kec. Jekan Raya, Kota Palangka Raya",KALIMANTAN TENGAH,74874.0,Indonesia,,,,-2.1730063,113.876577,https://maps.google.com/?cid=0x0:0x97737b88a7abde86,
supermarket,Toko Swalayan,SENDY'S SWALAYAN A.YANI,"Jl. Ahmad Yani No.90, Pahandut, Kec. Pahandut, Kota Palangka Raya, Kalimantan Tengah 73112","Pahandut, Kec. Pahandut, Kota Palangka Raya",KALIMANTAN TENGAH,73112.0,Indonesia, 085250809515,,,-2.2098021,113.9383745,https://maps.google.com/?cid=0x0:0x5c2c74b38eb5c834,
supermarket,Kafe,Kedai Itah,"Jalan Bukit Tunggal, Desa Sukamulya, Tangkiling, Kec. Bukit Batu, Kota Palangka Raya, Kalimantan Tengah 73221","Desa Sukamulya, Tangkiling, Kec. Bukit Batu, Kota Palangka Raya",KALIMANTAN TENGAH,73221.0,Indonesia, 085956003660,,,-1.9784168,113.7450757,https://maps.google.com/?cid=0x0:0x6b1cec2dfe1c1c8b,
supermarket,Toko Swalayan,GS The Fresh Mampang,"Jl. Buncit Raya No.301, Duren Tiga, Kec. Pancoran, Kota Jakarta Selatan, Daerah Khusus Ibukota Jakarta 12760","Duren Tiga, Kec. Pancoran, Kota Jakarta Selatan",KALIMANTAN TENGAH,12760.0,Indonesia, 02126961986,,,-6.256991,106.828987,https://maps.google.com/?cid=0x0:0x47a84d3b86619147,
supermarket,Toko Swalayan,GS THE FRESH JATIBENING,"Jl. Caman Raya No.7-24, RT.004/RW.003, Jatibening, Kec. Pd. Gede, Kota Bks, Jawa Barat 17412","RT.004/RW.003, Jatibening, Kec. Pd. Gede, Kota Bks",KALIMANTAN TENGAH,17412.0,Indonesia, 02184982211,,,-6.2676455,106.9436409,https://maps.google.com/?cid=0x0:0x2cdb50c3ee3206c,
supermarket,Toko,Alfamart,"Jl. Jend. Sudirman, RT.001/RW.001, Sungai Selari, Kec. Bukit Batu, Kabupaten Bengkalis, Riau 28761","RT.001/RW.001, Sungai Selari, Kec. Bukit Batu, Kabupaten Bengkalis",KALIMANTAN TENGAH,28761.0,Indonesia, 1500959,,,1.3566314,102.1564566,https://maps.google.com/?cid=0x0:0xfe6ba70aae2d80a,
supermarket,Toko Swalayan,GS Supermarket Jatiasih,"GsSupermarket :, Jl. Wibawa Mukti II No.125, RT.002/ RW017/RW.017, Jatiasih, Kec. Jatiasih, Kota Bks, Jawa Barat 17423","Jl. Wibawa Mukti II No.125, RT.002/ RW017/RW.017, Jatiasih, Kec. Jatiasih, Kota Bks",KALIMANTAN TENGAH,17423.0,Indonesia, 02182736918,,,-6.3070579,106.955731,https://maps.google.com/?cid=0x0:0x74efd6ce433268e6,
supermarket,Toko Swalayan,Toko SINAR GLOBAL,"Jl. Jenderal Sudirman No.5, Pematang Duku, Kec. Bukit Batu, Kabupaten Bengkalis, Riau 28784","Pematang Duku, Kec. Bukit Batu, Kabupaten Bengkalis",KALIMANTAN TENGAH,28784.0,Indonesia,,,,1.3753442,102.1347481,https://maps.google.com/?cid=0x0:0xdf9c24a0b2b2f89,
supermarket,Toko bahan makanan,Toko Manis,"842X+P5H, Jl. Jend. Sudirman, Dompas, Kec. Bukit Batu, Kabupaten Bengkalis, Riau 28761","Jl. Jend. Sudirman, Dompas, Kec. Bukit Batu, Kabupaten Bengkalis",KALIMANTAN TENGAH,28761.0,Indonesia,,,,1.3018098,102.1479763,https://maps.google.com/?cid=0x0:0x5b943f139d7f5de6,
supermarket,supermarket,Kalimantan Tengah 73221,"Bukit Tunggal, Kec. Rakumpit, Kota Palangka Raya, Kalimantan Tengah","Kota Palangka Raya, Kalimantan Tengah",KALIMANTAN TENGAH,,Indonesia,,,,-2.17855,113.8656799,https://maps.google.com/?cid=0x0:0x50b16048f399e248,
supermarket,Tempat Religius,Wisata Bukit Batu Pertapaan Tjilik Riwut,"4F39+W6V, S Jl. Trans Kalimantan, Kasongan Lama, Katingan Hilir, Katingan Regency, Central Kalimantan 74461","S Jl. Trans Kalimantan, Kasongan Lama, Katingan Hilir, Katingan Regency",KALIMANTAN TENGAH,74461.0,Indonesia,,,,-1.8951303,113.4680533,https://maps.google.com/?cid=0x0:0xcb4e6c653c6fae85,
supermarket,Toko bahan makanan,INDOMARET HIU PUTIH,"RVF7+5WM, Jl. Hiu Putih Raya, Bukit Tunggal, Kec. Jekan Raya, Kota Palangka Raya, Kalimantan Tengah 74874","Jl. Hiu Putih Raya, Bukit Tunggal, Kec. Jekan Raya, Kota Palangka Raya",KALIMANTAN TENGAH,74874.0,Indonesia,,,,-2.1770436,113.86481,https://maps.google.com/?cid=0x0:0x406394fa85066b60,
supermarket,Pusat Perbelanjaan,Toko Barokah Wara,"RVF7+8QQ, Jl. Hiu Putih Raya, Bukit Tunggal, Kec. Jekan Raya, Kota Palangka Raya, Kalimantan Tengah 74874","Jl. Hiu Putih Raya, Bukit Tunggal, Kec. Jekan Raya, Kota Palangka Raya",KALIMANTAN TENGAH,74874.0,Indonesia, 085249137188,,,-2.1766713,113.8644918,https://maps.google.com/?cid=0x0:0xdbfd657edce756b4,
supermarket,Toko,Ruko,"Bukit Tunggal, Kec. Jekan Raya, Kota Palangka Raya, Kalimantan Tengah 74874","Kec. Jekan Raya, Kota Palangka Raya",KALIMANTAN TENGAH,74874.0,Indonesia,,,,-2.1771169,113.8647559,https://maps.google.com/?cid=0x0:0x4fc8eb01bef55a2,
supermarket,Toko Swalayan,GS The Fresh Mampang,"Jl. Buncit Raya No.301, Duren Tiga, Kec. Pancoran, Kota Jakarta Selatan, Daerah Khusus Ibukota Jakarta 12760","Duren Tiga, Kec. Pancoran, Kota Jakarta Selatan",KALIMANTAN TENGAH,12760.0,Indonesia, 02126961986,,,-6.256991,106.828987,https://maps.google.com/?cid=0x0:0x47a84d3b86619147,
supermarket,Toko bahan makanan,6404-01 Jalan Bukit Batu 10,"lot 6404, 01, Jalan Bukit Batu 10, Bukit Batu, 81000, Johor Darul Ta'zim, Malaysia","Bukit Batu,",KALIMANTAN TENGAH,81000.0,Indonesia, +601129291002,,,1.7300629,103.4432687,https://maps.google.com/?cid=0x0:0x6b980473f5b659e0,
supermarket,Toko Swalayan,The FoodHall - Grand Indonesia,"Grand Indonesia shopping West Mall, Jl. M.H. Thamrin No.1 LG Floor, Kb. Melati, Kecamatan Tanah Abang, Kota Jakarta Pusat, Daerah Khusus Ibukota Jakarta 10350","Jl. M.H. Thamrin No.1 LG Floor, Kb. Melati, Kecamatan Tanah Abang, Kota Jakarta Pusat",KALIMANTAN TENGAH,10350.0,Indonesia, 085973703191,,,-6.1954464,106.8197669,https://maps.google.com/?cid=0x0:0x4a1351e22f783bb,
supermarket,Toko Swalayan,GS THE FRESH JATIBENING,"Jl. Caman Raya No.7-24, RT.004/RW.003, Jatibening, Kec. Pd. Gede, Kota Bks, Jawa Barat 17412","RT.004/RW.003, Jatibening, Kec. Pd. Gede, Kota Bks",KALIMANTAN TENGAH,17412.0,Indonesia, 02184982211,,,-6.2676455,106.9436409,https://maps.google.com/?cid=0x0:0x2cdb50c3ee3206c,
supermarket,Toko Swalayan,GS Supermarket Jatiasih,"GsSupermarket :, Jl. Wibawa Mukti II No.125, RT.002/ RW017/RW.017, Jatiasih, Kec. Jatiasih, Kota Bks, Jawa Barat 17423","Jl. Wibawa Mukti II No.125, RT.002/ RW017/RW.017, Jatiasih, Kec. Jatiasih, Kota Bks",KALIMANTAN TENGAH,17423.0,Indonesia, 02182736918,,,-6.3070579,106.955731,https://maps.google.com/?cid=0x0:0x74efd6ce433268e6,
supermarket,supermarket,Kalimantan Tengah 73222,"Kec. Rakumpit, Kota Palangka Raya, Kalimantan Tengah","Kota Palangka Raya, Kalimantan Tengah",KALIMANTAN TENGAH,,Indonesia,,,,-1.7933344,113.7275817,https://maps.google.com/?cid=0x0:0xcd41c114b66f1cf9,
supermarket,Tempat Religius,Wisata Bukit Batu Pertapaan Tjilik Riwut,"4F39+W6V, S Jl. Trans Kalimantan, Kasongan Lama, Katingan Hilir, Katingan Regency, Central Kalimantan 74461","S Jl. Trans Kalimantan, Kasongan Lama, Katingan Hilir, Katingan Regency",KALIMANTAN TENGAH,74461.0,Indonesia,,,,-1.8951303,113.4680533,https://maps.google.com/?cid=0x0:0xcb4e6c653c6fae85,
supermarket,Toko Beras,Rizky Mart,"JL BUNGAI RT07 RW 2 KASONGAN LAMA, Kasongan Lama, Kec. Katingan Hilir, Kabupaten Katingan, Kalimantan Tengah 74413","Kasongan Lama, Kec. Katingan Hilir, Kabupaten Katingan",KALIMANTAN TENGAH,74413.0,Indonesia, 081352748239,,,-1.9119511,113.3856255,https://maps.google.com/?cid=0x0:0x5709773761ca79d7,
supermarket,Toko Swalayan,TOKO REXI,"4C48+8XJ, Jl. Trans Kalimantan, Kasongan Lama, Kec. Katingan Hilir, Kabupaten Katingan, Kalimantan Tengah 74413","Jl. Trans Kalimantan, Kasongan Lama, Kec. Katingan Hilir, Kabupaten Katingan",KALIMANTAN TENGAH,74413.0,Indonesia,,,,-1.8941511,113.417404,https://maps.google.com/?cid=0x0:0x89543982e58ad8d5,
supermarket,Toko,toko santi 2,"Jl. Trans Kalimantan No.km.2, Kasongan Lama, Kec. Katingan Hilir, Kabupaten Katingan, Kalimantan Tengah 74413","Kasongan Lama, Kec. Katingan Hilir, Kabupaten Katingan",KALIMANTAN TENGAH,74413.0,Indonesia,,,,-1.8868289,113.3972619,https://maps.google.com/?cid=0x0:0xbd8925ee83d876d0,
supermarket,Toko bahan makanan,UD Mutiara,"Jl. Durian V No 77, Kasongan Lama, Katingan Hilir, Katingan Regency, Central Kalimantan 74413","Kasongan Lama, Katingan Hilir, Katingan Regency",KALIMANTAN TENGAH,74413.0,Indonesia,,,,-1.8855921,113.4228184,https://maps.google.com/?cid=0x0:0x8565e904373bd36c,
supermarket,Toko bahan makanan,6404-01 Jalan Bukit Batu 10,"lot 6404, 01, Jalan Bukit Batu 10, Bukit Batu, 81000, Johor Darul Ta'zim, Malaysia","Bukit Batu,",KALIMANTAN TENGAH,81000.0,Indonesia, +601129291002,,,1.7300629,103.4432687,https://maps.google.com/?cid=0x0:0x6b980473f5b659e0,
supermarket,Toko bahan makanan,Kedai Runcit Teras Ara Maju,"JOHOR BAHRU 9, Jalan Bukit Batu 2, Bukit Batu, 79100 JOHOR, Johor, Malaysia",JOHOR,KALIMANTAN TENGAH,79100.0,Indonesia,,,,1.7310134,103.4421762,https://maps.google.com/?cid=0x0:0xb528519f06fb1d69,
supermarket,Tempat Religius,Wisata Bukit Batu Pertapaan Tjilik Riwut,"4F39+W6V, S Jl. Trans Kalimantan, Kasongan Lama, Katingan Hilir, Katingan Regency, Central Kalimantan 74461","S Jl. Trans Kalimantan, Kasongan Lama, Katingan Hilir, Katingan Regency",KALIMANTAN TENGAH,74461.0,Indonesia,,,,-1.8951303,113.4680533,https://maps.google.com/?cid=0x0:0xcb4e6c653c6fae85,
supermarket,Tujuan Wisata,Pertapaan Tjilik Riwut Bukit Batu,"Jl. Tjilik Riwut No.Km. 12, Kasongan Lama, Kec. Katingan Hilir, Kabupaten Katingan, Kalimantan Tengah 74461","Kasongan Lama, Kec. Katingan Hilir, Kabupaten Katingan",KALIMANTAN TENGAH,74461.0,Indonesia,,,,-1.8935762,113.4671557,https://maps.google.com/?cid=0x0:0xe90b54e83776820e,
supermarket,Bengkel Mobil,Rumah,"4F39+R57, Jl. Trans Kalimantan, Kasongan Lama, Kec. Katingan Hilir, Kabupaten Katingan, Kalimantan Tengah 74461","Jl. Trans Kalimantan, Kasongan Lama, Kec. Katingan Hilir, Kabupaten Katingan",KALIMANTAN TENGAH,74461.0,Indonesia,,,,-1.8954519,113.4679264,https://maps.google.com/?cid=0x0:0x3f1a35a950e99113,
supermarket,Toko Swalayan,GS THE FRESH JATIBENING,"Jl. Caman Raya No.7-24, RT.004/RW.003, Jatibening, Kec. Pd. Gede, Kota Bks, Jawa Barat 17412","RT.004/RW.003, Jatibening, Kec. Pd. Gede, Kota Bks",KALIMANTAN TENGAH,17412.0,Indonesia, 02184982211,,,-6.2676455,106.9436409,https://maps.google.com/?cid=0x0:0x2cdb50c3ee3206c,
supermarket,Toko Swalayan,GS Supermarket Jatiasih,"GsSupermarket :, Jl. Wibawa Mukti II No.125, RT.002/ RW017/RW.017, Jatiasih, Kec. Jatiasih, Kota Bks, Jawa Barat 17423","Jl. Wibawa Mukti II No.125, RT.002/ RW017/RW.017, Jatiasih, Kec. Jatiasih, Kota Bks",KALIMANTAN TENGAH,17423.0,Indonesia, 02182736918,,,-6.3070579,106.955731,https://maps.google.com/?cid=0x0:0x74efd6ce433268e6,
supermarket,Toko bahan makanan,6404-01 Jalan Bukit Batu 10,"lot 6404, 01, Jalan Bukit Batu 10, Bukit Batu, 81000, Johor Darul Ta'zim, Malaysia","Bukit Batu,",KALIMANTAN TENGAH,81000.0,Indonesia, +601129291002,,,1.7300629,103.4432687,https://maps.google.com/?cid=0x0:0x6b980473f5b659e0,
supermarket,supermarket,Kalimantan Tengah 73224,"Kec. Rakumpit, Kota Palangka Raya, Kalimantan Tengah","Kota Palangka Raya, Kalimantan Tengah",KALIMANTAN TENGAH,,Indonesia,,,,-1.6666249,113.8465758,https://maps.google.com/?cid=0x0:0xd399af94d261441b,
supermarket,Tempat Religius,Wisata Bukit Batu Pertapaan Tjilik Riwut,"4F39+W6V, S Jl. Trans Kalimantan, Kasongan Lama, Katingan Hilir, Katingan Regency, Central Kalimantan 74461","S Jl. Trans Kalimantan, Kasongan Lama, Katingan Hilir, Katingan Regency",KALIMANTAN TENGAH,74461.0,Indonesia,,,,-1.8951303,113.4680533,https://maps.google.com/?cid=0x0:0xcb4e6c653c6fae85,
supermarket,,Fotocopy Ricko Lucky,"9WGC+PG5, Jl. Darung Bawan, Bawan, Kec. Banama Tingang, Kabupaten Pulang Pisau, Kalimantan Tengah 74863","Jl. Darung Bawan, Bawan, Kec. Banama Tingang, Kabupaten Pulang Pisau",KALIMANTAN TENGAH,74863.0,Indonesia,,,,-1.6232316,113.9213457,https://maps.google.com/?cid=0x0:0xe5c6a7aa10344a82,
supermarket,Toko Swalayan,GS THE FRESH JATIBENING,"Jl. Caman Raya No.7-24, RT.004/RW.003, Jatibening, Kec. Pd. Gede, Kota Bks, Jawa Barat 17412","RT.004/RW.003, Jatibening, Kec. Pd. Gede, Kota Bks",KALIMANTAN TENGAH,17412.0,Indonesia, 02184982211,,,-6.2676455,106.9436409,https://maps.google.com/?cid=0x0:0x2cdb50c3ee3206c,
supermarket,Toko Swalayan,GS Supermarket Jatiasih,"GsSupermarket :, Jl. Wibawa Mukti II No.125, RT.002/ RW017/RW.017, Jatiasih, Kec. Jatiasih, Kota Bks, Jawa Barat 17423","Jl. Wibawa Mukti II No.125, RT.002/ RW017/RW.017, Jatiasih, Kec. Jatiasih, Kota Bks",KALIMANTAN TENGAH,17423.0,Indonesia, 02182736918,,,-6.3070579,106.955731,https://maps.google.com/?cid=0x0:0x74efd6ce433268e6,
supermarket,Toko,Alfamart,"Jl. Jend. Sudirman, RT.001/RW.001, Sungai Selari, Kec. Bukit Batu, Kabupaten Bengkalis, Riau 28761","RT.001/RW.001, Sungai Selari, Kec. Bukit Batu, Kabupaten Bengkalis",KALIMANTAN TENGAH,28761.0,Indonesia, 1500959,,,1.3566314,102.1564566,https://maps.google.com/?cid=0x0:0xfe6ba70aae2d80a,
supermarket,supermarket,Kalimantan Tengah 73225,Kalimantan Tengah,Kalimantan Tengah,KALIMANTAN TENGAH,,Indonesia,,,,-1.6327534,113.7037797,https://maps.google.com/?cid=0x0:0xd84e4c939ed33dcd,
supermarket,Tempat Religius,Wisata Bukit Batu Pertapaan Tjilik Riwut,"4F39+W6V, S Jl. Trans Kalimantan, Kasongan Lama, Katingan Hilir, Katingan Regency, Central Kalimantan 74461","S Jl. Trans Kalimantan, Kasongan Lama, Katingan Hilir, Katingan Regency",KALIMANTAN TENGAH,74461.0,Indonesia,,,,-1.8951303,113.4680533,https://maps.google.com/?cid=0x0:0xcb4e6c653c6fae85,
supermarket,Toko,Toko Jo,"CG4P+V9R, RT.002, Taringen, Kec. Manuhing, Kabupaten Gunung MAS, Kalimantan Tengah 74562","RT.002, Taringen, Kec. Manuhing, Kabupaten Gunung MAS",KALIMANTAN TENGAH,74562.0,Indonesia, 082346869748,,,-1.5927677,113.5358755,https://maps.google.com/?cid=0x0:0x787c56ac867d1332,
supermarket,Toko Swalayan,GS The Fresh Mampang,"Jl. Buncit Raya No.301, Duren Tiga, Kec. Pancoran, Kota Jakarta Selatan, Daerah Khusus Ibukota Jakarta 12760","Duren Tiga, Kec. Pancoran, Kota Jakarta Selatan",KALIMANTAN TENGAH,12760.0,Indonesia, 02126961986,,,-6.256991,106.828987,https://maps.google.com/?cid=0x0:0x47a84d3b86619147,
supermarket,Toko Swalayan,GS THE FRESH JATIBENING,"Jl. Caman Raya No.7-24, RT.004/RW.003, Jatibening, Kec. Pd. Gede, Kota Bks, Jawa Barat 17412","RT.004/RW.003, Jatibening, Kec. Pd. Gede, Kota Bks",KALIMANTAN TENGAH,17412.0,Indonesia, 02184982211,,,-6.2676455,106.9436409,https://maps.google.com/?cid=0x0:0x2cdb50c3ee3206c,
supermarket,Toko Swalayan,GS Supermarket Jatiasih,"GsSupermarket :, Jl. Wibawa Mukti II No.125, RT.002/ RW017/RW.017, Jatiasih, Kec. Jatiasih, Kota Bks, Jawa Barat 17423","Jl. Wibawa Mukti II No.125, RT.002/ RW017/RW.017, Jatiasih, Kec. Jatiasih, Kota Bks",KALIMANTAN TENGAH,17423.0,Indonesia, 02182736918,,,-6.3070579,106.955731,https://maps.google.com/?cid=0x0:0x74efd6ce433268e6,
supermarket,Toko Swalayan,Toko SINAR GLOBAL,"Jl. Jenderal Sudirman No.5, Pematang Duku, Kec. Bukit Batu, Kabupaten Bengkalis, Riau 28784","Pematang Duku, Kec. Bukit Batu, Kabupaten Bengkalis",KALIMANTAN TENGAH,28784.0,Indonesia,,,,1.3753442,102.1347481,https://maps.google.com/?cid=0x0:0xdf9c24a0b2b2f89,
supermarket,Toko,Alfamart,"Jl. Jend. Sudirman, RT.001/RW.001, Sungai Selari, Kec. Bukit Batu, Kabupaten Bengkalis, Riau 28761","RT.001/RW.001, Sungai Selari, Kec. Bukit Batu, Kabupaten Bengkalis",KALIMANTAN TENGAH,28761.0,Indonesia, 1500959,,,1.3566314,102.1564566,https://maps.google.com/?cid=0x0:0xfe6ba70aae2d80a,
supermarket,supermarket,Kalimantan Tengah 73226,"Kabupaten Gunung MAS, Kalimantan Tengah","Kabupaten Gunung MAS, Kalimantan Tengah",KALIMANTAN TENGAH,,Indonesia,,,,-1.6157967,113.6323674,https://maps.google.com/?cid=0x0:0x543f124ecfdfc35d,
supermarket,Tempat Religius,Wisata Bukit Batu Pertapaan Tjilik Riwut,"4F39+W6V, S Jl. Trans Kalimantan, Kasongan Lama, Katingan Hilir, Katingan Regency, Central Kalimantan 74461","S Jl. Trans Kalimantan, Kasongan Lama, Katingan Hilir, Katingan Regency",KALIMANTAN TENGAH,74461.0,Indonesia,,,,-1.8951303,113.4680533,https://maps.google.com/?cid=0x0:0xcb4e6c653c6fae85,
supermarket,Toko,Toko Jo,"CG4P+V9R, RT.002, Taringen, Kec. Manuhing, Kabupaten Gunung MAS, Kalimantan Tengah 74562","RT.002, Taringen, Kec. Manuhing, Kabupaten Gunung MAS",KALIMANTAN TENGAH,74562.0,Indonesia, 082346869748,,,-1.5927677,113.5358755,https://maps.google.com/?cid=0x0:0x787c56ac867d1332,
supermarket,Toko Swalayan,Toko SINAR GLOBAL,"Jl. Jenderal Sudirman No.5, Pematang Duku, Kec. Bukit Batu, Kabupaten Bengkalis, Riau 28784","Pematang Duku, Kec. Bukit Batu, Kabupaten Bengkalis",KALIMANTAN TENGAH,28784.0,Indonesia,,,,1.3753442,102.1347481,https://maps.google.com/?cid=0x0:0xdf9c24a0b2b2f89,
supermarket,Toko,Alfamart,"Jl. Jend. Sudirman, RT.001/RW.001, Sungai Selari, Kec. Bukit Batu, Kabupaten Bengkalis, Riau 28761","RT.001/RW.001, Sungai Selari, Kec. Bukit Batu, Kabupaten Bengkalis",KALIMANTAN TENGAH,28761.0,Indonesia, 1500959,,,1.3566314,102.1564566,https://maps.google.com/?cid=0x0:0xfe6ba70aae2d80a,
supermarket,Toko bahan makanan,Swalayan Pepsi Jaya,"9554+3J9, Jl. Jend. Sudirman, Sungai Selari, Kec. Bukit Batu, Kabupaten Bengkalis, Riau 28761","Jl. Jend. Sudirman, Sungai Selari, Kec. Bukit Batu, Kabupaten Bengkalis",KALIMANTAN TENGAH,28761.0,Indonesia, 085265788145,,,1.3576723,102.1565995,https://maps.google.com/?cid=0x0:0x70a3a9753b7330a,
supermarket,Toko bahan makanan,Toko Manis,"842X+P5H, Jl. Jend. Sudirman, Dompas, Kec. Bukit Batu, Kabupaten Bengkalis, Riau 28761","Jl. Jend. Sudirman, Dompas, Kec. Bukit Batu, Kabupaten Bengkalis",KALIMANTAN TENGAH,28761.0,Indonesia,,,,1.3018098,102.1479763,https://maps.google.com/?cid=0x0:0x5b943f139d7f5de6,
supermarket,Minimarket,Super Mini Market Bagus,"asal, Jl. Sukajadi No.069, Sungai Pakning, Kec. Bukit Batu, Kabupaten Bengkalis, Riau 28761","Jl. Sukajadi No.069, Sungai Pakning, Kec. Bukit Batu, Kabupaten Bengkalis",KALIMANTAN TENGAH,28761.0,Indonesia, 08127627823,,,1.3376882,102.1285418,https://maps.google.com/?cid=0x0:0xe77a7e4369ccb403,
supermarket,supermarket,Kalimantan Tengah 73111,"Menteng, Kec. Jekan Raya, Kota Palangka Raya, Kalimantan Tengah","Kota Palangka Raya, Kalimantan Tengah",KALIMANTAN TENGAH,,Indonesia,,,,-2.2370103,113.9075943,https://maps.google.com/?cid=0x0:0xebd5272dd2bb60bf,
supermarket,Minimarket,KPD Swalayan,"QWF3+FQF, Jl. Temanggung Tilung, Menteng, Kec. Jekan Raya, Kota Palangka Raya, Kalimantan Tengah 74874","Jl. Temanggung Tilung, Menteng, Kec. Jekan Raya, Kota Palangka Raya",KALIMANTAN TENGAH,74874.0,Indonesia,,,,-2.2263205,113.9044201,https://maps.google.com/?cid=0x0:0x85898d75470f4f26,
supermarket,Minimarket,KPD Swalayan,"RV3W+9MH, Palangka, Kec. Jekan Raya, Kota Palangka Raya, Kalimantan Tengah 73112","Palangka, Kec. Jekan Raya, Kota Palangka Raya",KALIMANTAN TENGAH,73112.0,Indonesia,,,,-2.196565,113.89673,https://maps.google.com/?cid=0x0:0x3b88414904f9aaa9,
supermarket,Toko Swalayan,SENDY'S SWALAYAN A.YANI,"Jl. Ahmad Yani No.90, Pahandut, Kec. Pahandut, Kota Palangka Raya, Kalimantan Tengah 73112","Pahandut, Kec. Pahandut, Kota Palangka Raya",KALIMANTAN TENGAH,73112.0,Indonesia, 085250809515,,,-2.2098021,113.9383745,https://maps.google.com/?cid=0x0:0x5c2c74b38eb5c834,
supermarket,Toko Swalayan,Sandy's swalayan,"Jl. G. Obos No.62, Menteng, Kec. Jekan Raya, Kota Palangka Raya, Kalimantan Tengah 74874","Menteng, Kec. Jekan Raya, Kota Palangka Raya",KALIMANTAN TENGAH,74874.0,Indonesia, 082327771600,,,-2.222276,113.9066182,https://maps.google.com/?cid=0x0:0xddc076eb5799971e,
supermarket,Toko bahan makanan,Toko L2S,"QVMV+X65, Palangka, Kec. Jekan Raya, Kota Palangka Raya, Kalimantan Tengah 74874","Palangka, Kec. Jekan Raya, Kota Palangka Raya",KALIMANTAN TENGAH,74874.0,Indonesia, 085346856000,,,-2.2151223,113.8931246,https://maps.google.com/?cid=0x0:0x21667575e052f914,
supermarket,Minimarket,Indomaret Fresh G. Obos,"QWH5+94Q, Menteng, Kec. Jekan Raya, Kota Palangka Raya, Kalimantan Tengah 74874","Menteng, Kec. Jekan Raya, Kota Palangka Raya",KALIMANTAN TENGAH,74874.0,Indonesia,,,,-2.2215431,113.907871,https://maps.google.com/?cid=0x0:0xc2eabdc5a1215c9c,
supermarket,Toko Swalayan,Sendy's Minimarket,"QWV8+95F, Palangka, Kec. Jekan Raya, Kota Palangka Raya, Kalimantan Tengah 74874","Palangka, Kec. Jekan Raya, Kota Palangka Raya",KALIMANTAN TENGAH,74874.0,Indonesia,,,,-2.2065598,113.9154226,https://maps.google.com/?cid=0x0:0x924d8588d293b4e8,
supermarket,Toko umum,Toko Udin 1,"Jl. Sangga Buana II No.48, Palangka, Kec. Jekan Raya, Kota Palangka Raya, Kalimantan Tengah 74874","Palangka, Kec. Jekan Raya, Kota Palangka Raya",KALIMANTAN TENGAH,74874.0,Indonesia, 085386630477,,,-2.2063975,113.9035159,https://maps.google.com/?cid=0x0:0x76c30a5b2c698578,
supermarket,Pusat Perbelanjaan,Matahari Department Lippo Plaza Palangkaraya,"Jl. Yos Sudarso No.57, Menteng, Kec. Jekan Raya, Kota Palangka Raya, Kalimantan Tengah 74874","Menteng, Kec. Jekan Raya, Kota Palangka Raya",KALIMANTAN TENGAH,74874.0,Indonesia,,,,-2.2141989,113.9055548,https://maps.google.com/?cid=0x0:0xb3a6d520ec175c36,
supermarket,Pasar,Pasar Kahayan,"RW25+XH7, Palangka, Kec. Jekan Raya, Kota Palangka Raya, Kalimantan Tengah 74874","Palangka, Kec. Jekan Raya, Kota Palangka Raya",KALIMANTAN TENGAH,74874.0,Indonesia,,,,-2.197595,113.9089312,https://maps.google.com/?cid=0x0:0xd4a33d27b24c1464,
supermarket,Toko Swalayan,Rumah Sosis SB Frozen Mart,"Depan KPD, Jl. Rajawali No.Km 1, Palangka, Kec. Jekan Raya, Kota Palangka Raya, Kalimantan Tengah 73111","Jl. Rajawali No.Km 1, Palangka, Kec. Jekan Raya, Kota Palangka Raya",KALIMANTAN TENGAH,73111.0,Indonesia, 083878790552,,,-2.1967018,113.8969256,https://maps.google.com/?cid=0x0:0x39e085df1132ac1c,
supermarket,Toko Swalayan,"SENDY'S SWALAYAN TJILIK RIWUT Km. 1,5","Jl. Tjilik Riwut No.Km 1.5, Palangka, Kec. Jekan Raya, Kota Palangka Raya, Kalimantan Tengah 73112","Palangka, Kec. Jekan Raya, Kota Palangka Raya",KALIMANTAN TENGAH,73112.0,Indonesia, 085389584424,,,-2.1991296,113.9098361,https://maps.google.com/?cid=0x0:0x80888dfe6877ba10,
supermarket,Toko,SB FROZEN MART RTA MILONO,"Jl. RTA Milono, Langkai, Kec. Pahandut, Kota Palangka Raya, Kalimantan Tengah 74874","Langkai, Kec. Pahandut, Kota Palangka Raya",KALIMANTAN TENGAH,74874.0,Indonesia,,,,-2.2645709,113.9198543,https://maps.google.com/?cid=0x0:0x2871a6fb7f4e7050,
supermarket,Toko Peralatan dan Bahan Kue,Toko bahan kue dan plastik menara,"Jl. Rajawali, Bukit Tunggal, Kec. Jekan Raya, Kota Palangka Raya, Kalimantan Tengah 74874","Bukit Tunggal, Kec. Jekan Raya, Kota Palangka Raya",KALIMANTAN TENGAH,74874.0,Indonesia, 082251573815,,,-2.1810536,113.8801084,https://maps.google.com/?cid=0x0:0xcf745e12843f2bf4,
supermarket,Toko,Toko Mulia Jaya,"QW49+7W9, Jl. RTA Milono, Menteng, Kec. Jekan Raya, Kota Palangka Raya, Kalimantan Tengah 74874","Jl. RTA Milono, Menteng, Kec. Jekan Raya, Kota Palangka Raya",KALIMANTAN TENGAH,74874.0,Indonesia, 085390393579,,,-2.2443306,113.9198646,https://maps.google.com/?cid=0x0:0x971288c84caff702,
supermarket,Pasar,Pasar Martapura Palangkaraya,"Pahandut, Kec. Pahandut, Kota Palangka Raya, Kalimantan Tengah","Kota Palangka Raya, Kalimantan Tengah",KALIMANTAN TENGAH,,Indonesia,,,,-2.2079192,113.9354831,https://maps.google.com/?cid=0x0:0x1eff997ba97f4cfd,
supermarket,Toko,Toko Mulia Jaya,"QW78+Q3R, Jl. Temanggung Tilung, Menteng, Kec. Jekan Raya, Kota Palangka Raya, Kalimantan Tengah 74874","Jl. Temanggung Tilung, Menteng, Kec. Jekan Raya, Kota Palangka Raya",KALIMANTAN TENGAH,74874.0,Indonesia,,,,-2.2355243,113.9151327,https://maps.google.com/?cid=0x0:0xa56bbdcafbfc4e22,
supermarket,Pembangunan Perumahan,Alamat,"Jl. Bapuyu No.14, Bukit Tunggal, Kec. Jekan Raya, Kota Palangka Raya, Kalimantan Tengah 74874","Bukit Tunggal, Kec. Jekan Raya, Kota Palangka Raya",KALIMANTAN TENGAH,74874.0,Indonesia, 081255268384,,,-2.1813588,113.8709236,https://maps.google.com/?cid=0x0:0x3b3adbaf58fc7d0,
supermarket,Toko Pakaian,Agen RR kembar,"RW25+G8W, RW25+G83PalangkaKec, Kec. Jekan Raya, Kota Palangka Raya, Kalimantan Tengah 74874","RW25+G83PalangkaKec, Kec. Jekan Raya, Kota Palangka Raya",KALIMANTAN TENGAH,74874.0,Indonesia, 085348600343,,,-2.1986291,113.9083436,https://maps.google.com/?cid=0x0:0x1f94da59deb8d830,
supermarket,Minimarket,Alfamart,"Jl. Tjilik Riwut No.Km 2, RW.5, Palangka, Kec. Jekan Raya, Kota Palangka Raya, Kalimantan Tengah 74874","RW.5, Palangka, Kec. Jekan Raya, Kota Palangka Raya",KALIMANTAN TENGAH,74874.0,Indonesia,,,,-2.1940469,113.9023828,https://maps.google.com/?cid=0x0:0x91a159b7217705d,
supermarket,Toko bahan makanan,Toko Nahdia,"Jl. Jati (Samping, Gg. Rukun No.3, Panarung, Kec. Pahandut, Kota Palangka Raya, Kalimantan Tengah 73111","Gg. Rukun No.3, Panarung, Kec. Pahandut, Kota Palangka Raya",KALIMANTAN TENGAH,73111.0,Indonesia, 085387454289,,,-2.2451591,113.9443812,https://maps.google.com/?cid=0x0:0xd7cf02f377379b83,
supermarket,Toko Swalayan,Toko Yahya,"RVFH+JX7, Jl. Tjilik Riwut, Palangka, Kec. Jekan Raya, Kota Palangka Raya, Kalimantan Tengah 74874","Jl. Tjilik Riwut, Palangka, Kec. Jekan Raya, Kota Palangka Raya",KALIMANTAN TENGAH,74874.0,Indonesia, 085249344447,,,-2.1759713,113.8799348,https://maps.google.com/?cid=0x0:0xba96b794f68e47aa,
supermarket,Kantor Pemerintah,KPP Pratama Palangka Raya,"Jl. Yos Sudarso No.5, Menteng, Kec. Jekan Raya, Kota Palangka Raya, Kalimantan Tengah 73111","Menteng, Kec. Jekan Raya, Kota Palangka Raya",KALIMANTAN TENGAH,73111.0,Indonesia, 05363235386,,,-2.2100606,113.9138377,https://maps.google.com/?cid=0x0:0x72a17637535607a,
supermarket,Toko Bahan Bangunan,Toko Sentral Besi Palangka Raya,"Jl. Rajawali No.Km. 6, RW.6, Bukit Tunggal, Kec. Jekan Raya, Kota Palangka Raya, Kalimantan Tengah 73112","RW.6, Bukit Tunggal, Kec. Jekan Raya, Kota Palangka Raya",KALIMANTAN TENGAH,73112.0,Indonesia, 085332190600,,,-2.1773987,113.8755818,https://maps.google.com/?cid=0x0:0x5ae483b8ed6c91a,
supermarket,Toko,CV. MuliaJaya,"Palangka, Kec. Jekan Raya, Kota Palangka Raya, Kalimantan Tengah","Kota Palangka Raya, Kalimantan Tengah",KALIMANTAN TENGAH,,Indonesia, 085348015851,,,-2.1990849,113.9076378,https://maps.google.com/?cid=0x0:0x90b53fa30627e82f,
supermarket,Toko,Toko emas sumber daha,"QWRP+RMQ, Jl. Jawa, Pahandut, Kec. Pahandut, Kota Palangka Raya, Kalimantan Tengah 74874","Jl. Jawa, Pahandut, Kec. Pahandut, Kota Palangka Raya",KALIMANTAN TENGAH,74874.0,Indonesia, 081349143471,,,-2.2079228,113.9367251,https://maps.google.com/?cid=0x0:0x381e5256a88260f6,
supermarket,Toko Pakaian Wanita,Toko BUANA RAYA/mila shoppky,"Jl. Sangga Buana II Selatan No.01A, Palangka, Kec. Jekan Raya, Kota Palangka Raya, Kalimantan Tengah 74874","Palangka, Kec. Jekan Raya, Kota Palangka Raya",KALIMANTAN TENGAH,74874.0,Indonesia, 081352008080,,,-2.2096034,113.9063132,https://maps.google.com/?cid=0x0:0x7ffcb7dd77b36fbb,
supermarket,supermarket,Kalimantan Tengah 73112,"Bukit Tunggal, Kec. Jekan Raya, Kota Palangka Raya, Kalimantan Tengah","Kota Palangka Raya, Kalimantan Tengah",KALIMANTAN TENGAH,,Indonesia,,,,-2.1933111,113.8886973,https://maps.google.com/?cid=0x0:0x57b4a29625d97d46,
supermarket,Minimarket,KPD Swalayan,"RV3W+9MH, Palangka, Kec. Jekan Raya, Kota Palangka Raya, Kalimantan Tengah 73112","Palangka, Kec. Jekan Raya, Kota Palangka Raya",KALIMANTAN TENGAH,73112.0,Indonesia,,,,-2.196565,113.89673,https://maps.google.com/?cid=0x0:0x3b88414904f9aaa9,
supermarket,Toko,Hypermart Mega Town Square Palangkaraya,"Jl. Yos Sudarso No.57, Menteng, Kec. Jekan Raya, Kota Palangka Raya, Kalimantan Tengah 73112","Menteng, Kec. Jekan Raya, Kota Palangka Raya",KALIMANTAN TENGAH,73112.0,Indonesia, 05364200005,,,-2.2146127,113.9054936,https://maps.google.com/?cid=0x0:0xd0d2a7d4e965b262,
supermarket,Minimarket,KPD Swalayan,"RVG7+7WR, Bukit Tunggal, Kec. Jekan Raya, Kota Palangka Raya, Kalimantan Tengah 74874","Bukit Tunggal, Kec. Jekan Raya, Kota Palangka Raya",KALIMANTAN TENGAH,74874.0,Indonesia,,,,-2.1742522,113.8647802,https://maps.google.com/?cid=0x0:0x559e62f52706de81,
supermarket,Toko Swalayan,SENDY'S SWALAYAN A.YANI,"Jl. Ahmad Yani No.90, Pahandut, Kec. Pahandut, Kota Palangka Raya, Kalimantan Tengah 73112","Pahandut, Kec. Pahandut, Kota Palangka Raya",KALIMANTAN TENGAH,73112.0,Indonesia, 085250809515,,,-2.2098021,113.9383745,https://maps.google.com/?cid=0x0:0x5c2c74b38eb5c834,
supermarket,Toko bahan makanan,Toko L2S,"QVMV+X65, Palangka, Kec. Jekan Raya, Kota Palangka Raya, Kalimantan Tengah 74874","Palangka, Kec. Jekan Raya, Kota Palangka Raya",KALIMANTAN TENGAH,74874.0,Indonesia, 085346856000,,,-2.2151223,113.8931246,https://maps.google.com/?cid=0x0:0x21667575e052f914,
supermarket,Toko Swalayan,Sandy's swalayan,"Jl. G. Obos No.62, Menteng, Kec. Jekan Raya, Kota Palangka Raya, Kalimantan Tengah 74874","Menteng, Kec. Jekan Raya, Kota Palangka Raya",KALIMANTAN TENGAH,74874.0,Indonesia, 082327771600,,,-2.222276,113.9066182,https://maps.google.com/?cid=0x0:0xddc076eb5799971e,
supermarket,Toko umum,Toko Udin 1,"Jl. Sangga Buana II No.48, Palangka, Kec. Jekan Raya, Kota Palangka Raya, Kalimantan Tengah 74874","Palangka, Kec. Jekan Raya, Kota Palangka Raya",KALIMANTAN TENGAH,74874.0,Indonesia, 085386630477,,,-2.2063975,113.9035159,https://maps.google.com/?cid=0x0:0x76c30a5b2c698578,
supermarket,Pusat Perbelanjaan,Matahari Department Lippo Plaza Palangkaraya,"Jl. Yos Sudarso No.57, Menteng, Kec. Jekan Raya, Kota Palangka Raya, Kalimantan Tengah 74874","Menteng, Kec. Jekan Raya, Kota Palangka Raya",KALIMANTAN TENGAH,74874.0,Indonesia,,,,-2.2141989,113.9055548,https://maps.google.com/?cid=0x0:0xb3a6d520ec175c36,
supermarket,Minimarket,Indomaret Fresh G. Obos,"QWH5+94Q, Menteng, Kec. Jekan Raya, Kota Palangka Raya, Kalimantan Tengah 74874","Menteng, Kec. Jekan Raya, Kota Palangka Raya",KALIMANTAN TENGAH,74874.0,Indonesia,,,,-2.2215431,113.907871,https://maps.google.com/?cid=0x0:0xc2eabdc5a1215c9c,
supermarket,Toko Swalayan,Sendy's Minimarket,"QWV8+95F, Palangka, Kec. Jekan Raya, Kota Palangka Raya, Kalimantan Tengah 74874","Palangka, Kec. Jekan Raya, Kota Palangka Raya",KALIMANTAN TENGAH,74874.0,Indonesia,,,,-2.2065598,113.9154226,https://maps.google.com/?cid=0x0:0x924d8588d293b4e8,
supermarket,Toko Swalayan,"SENDY'S SWALAYAN TJILIK RIWUT Km. 1,5","Jl. Tjilik Riwut No.Km 1.5, Palangka, Kec. Jekan Raya, Kota Palangka Raya, Kalimantan Tengah 73112","Palangka, Kec. Jekan Raya, Kota Palangka Raya",KALIMANTAN TENGAH,73112.0,Indonesia, 085389584424,,,-2.1991296,113.9098361,https://maps.google.com/?cid=0x0:0x80888dfe6877ba10,
supermarket,Toko Peralatan dan Bahan Kue,Toko bahan kue dan plastik menara,"Jl. Rajawali, Bukit Tunggal, Kec. Jekan Raya, Kota Palangka Raya, Kalimantan Tengah 74874","Bukit Tunggal, Kec. Jekan Raya, Kota Palangka Raya",KALIMANTAN TENGAH,74874.0,Indonesia, 082251573815,,,-2.1810536,113.8801084,https://maps.google.com/?cid=0x0:0xcf745e12843f2bf4,
supermarket,Pasar,Pasar Kahayan,"RW25+XH7, Palangka, Kec. Jekan Raya, Kota Palangka Raya, Kalimantan Tengah 74874","Palangka, Kec. Jekan Raya, Kota Palangka Raya",KALIMANTAN TENGAH,74874.0,Indonesia,,,,-2.197595,113.9089312,https://maps.google.com/?cid=0x0:0xd4a33d27b24c1464,
supermarket,Pasar,Pasar Martapura Palangkaraya,"Pahandut, Kec. Pahandut, Kota Palangka Raya, Kalimantan Tengah","Kota Palangka Raya, Kalimantan Tengah",KALIMANTAN TENGAH,,Indonesia,,,,-2.2079192,113.9354831,https://maps.google.com/?cid=0x0:0x1eff997ba97f4cfd,
supermarket,Pembangunan Perumahan,Alamat,"Jl. Bapuyu No.14, Bukit Tunggal, Kec. Jekan Raya, Kota Palangka Raya, Kalimantan Tengah 74874","Bukit Tunggal, Kec. Jekan Raya, Kota Palangka Raya",KALIMANTAN TENGAH,74874.0,Indonesia, 081255268384,,,-2.1813588,113.8709236,https://maps.google.com/?cid=0x0:0x3b3adbaf58fc7d0,
supermarket,Toko Bahan Bangunan,Toko Sentral Besi Palangka Raya,"Jl. Rajawali No.Km. 6, RW.6, Bukit Tunggal, Kec. Jekan Raya, Kota Palangka Raya, Kalimantan Tengah 73112","RW.6, Bukit Tunggal, Kec. Jekan Raya, Kota Palangka Raya",KALIMANTAN TENGAH,73112.0,Indonesia, 085332190600,,,-2.1773987,113.8755818,https://maps.google.com/?cid=0x0:0x5ae483b8ed6c91a,
supermarket,Toko Makanan Alami,flavor frenzy gril,"Bukit Tunggal, Kec. Jekan Raya, sisinga, Kalimantan Tengah 73112","Kec. Jekan Raya, sisinga",KALIMANTAN TENGAH,73112.0,Indonesia, 0895415560204,,,-2.1933678,113.8886404,https://maps.google.com/?cid=0x0:0x687abc55591365bf,
supermarket,Toko Pakaian,Agen RR kembar,"RW25+G8W, RW25+G83PalangkaKec, Kec. Jekan Raya, Kota Palangka Raya, Kalimantan Tengah 74874","RW25+G83PalangkaKec, Kec. Jekan Raya, Kota Palangka Raya",KALIMANTAN TENGAH,74874.0,Indonesia, 085348600343,,,-2.1986291,113.9083436,https://maps.google.com/?cid=0x0:0x1f94da59deb8d830,
supermarket,Toko Swalayan,Rumah Sosis SB Frozen Mart,"Depan KPD, Jl. Rajawali No.Km 1, Palangka, Kec. Jekan Raya, Kota Palangka Raya, Kalimantan Tengah 73111","Jl. Rajawali No.Km 1, Palangka, Kec. Jekan Raya, Kota Palangka Raya",KALIMANTAN TENGAH,73111.0,Indonesia, 083878790552,,,-2.1967018,113.8969256,https://maps.google.com/?cid=0x0:0x39e085df1132ac1c,
supermarket,supermarket,Kalimantan Tengah 73118,Kalimantan Tengah,Kalimantan Tengah,KALIMANTAN TENGAH,,Indonesia,,,,-1.8372983,113.7870822,https://maps.google.com/?cid=0x0:0x11883074e3244d68,
supermarket,Minimarket,KPD Swalayan,"RV3W+9MH, Palangka, Kec. Jekan Raya, Kota Palangka Raya, Kalimantan Tengah 73112","Palangka, Kec. Jekan Raya, Kota Palangka Raya",KALIMANTAN TENGAH,73112.0,Indonesia,,,,-2.196565,113.89673,https://maps.google.com/?cid=0x0:0x3b88414904f9aaa9,
supermarket,Minimarket,KPD Swalayan,"QWF3+FQF, Jl. Temanggung Tilung, Menteng, Kec. Jekan Raya, Kota Palangka Raya, Kalimantan Tengah 74874","Jl. Temanggung Tilung, Menteng, Kec. Jekan Raya, Kota Palangka Raya",KALIMANTAN TENGAH,74874.0,Indonesia,,,,-2.2263205,113.9044201,https://maps.google.com/?cid=0x0:0x85898d75470f4f26,
supermarket,Minimarket,KPD Swalayan,"RVG7+7WR, Bukit Tunggal, Kec. Jekan Raya, Kota Palangka Raya, Kalimantan Tengah 74874","Bukit Tunggal, Kec. Jekan Raya, Kota Palangka Raya",KALIMANTAN TENGAH,74874.0,Indonesia,,,,-2.1742522,113.8647802,https://maps.google.com/?cid=0x0:0x559e62f52706de81,
supermarket,Toko Swalayan,SENDY'S SWALAYAN A.YANI,"Jl. Ahmad Yani No.90, Pahandut, Kec. Pahandut, Kota Palangka Raya, Kalimantan Tengah 73112","Pahandut, Kec. Pahandut, Kota Palangka Raya",KALIMANTAN TENGAH,73112.0,Indonesia, 085250809515,,,-2.2098021,113.9383745,https://maps.google.com/?cid=0x0:0x5c2c74b38eb5c834,
supermarket,Toko bahan makanan,Daun Mart,"Jl. Yos Sudarso No.81b, Menteng, Kec. Jekan Raya, Kota Palangka Raya, Kalimantan Tengah 74874","Menteng, Kec. Jekan Raya, Kota Palangka Raya",KALIMANTAN TENGAH,74874.0,Indonesia,,,,-2.2170573,113.8998383,https://maps.google.com/?cid=0x0:0x8441a081f153850b,
supermarket,Toko Perlengkapan Rumah,Swalayan Kawan Serbu,"Palangka, Kec. Jekan Raya, Kota Palangka Raya, Kalimantan Tengah 74874","Kec. Jekan Raya, Kota Palangka Raya",KALIMANTAN TENGAH,74874.0,Indonesia, 085787541213,,,-2.2080928,113.9223431,https://maps.google.com/?cid=0x0:0xc9687cc90f27fde3,
supermarket,Toko Ponsel,Dias Phoncell,"QWH5+C6V, Jl. P. Samudera, Menteng, Kec. Jekan Raya, Kota Palangka Raya, Kalimantan Tengah 74874","Jl. P. Samudera, Menteng, Kec. Jekan Raya, Kota Palangka Raya",KALIMANTAN TENGAH,74874.0,Indonesia, 081348724436,,,-2.2213792,113.9080376,https://maps.google.com/?cid=0x0:0xaddd6f76d5d76be1,
supermarket,Toko Swalayan,Tatia,"QVH6+2P3, Jl. Simpei Karuhei V, Palangka, Kec. Jekan Raya, Kota Palangka Raya, Kalimantan Tengah 74874","Jl. Simpei Karuhei V, Palangka, Kec. Jekan Raya, Kota Palangka Raya",KALIMANTAN TENGAH,74874.0,Indonesia, 085252864523,,,-2.2224966,113.861806,https://maps.google.com/?cid=0x0:0xe8ee4b51a5fecbe3,
supermarket,Toko bahan makanan,Toko L2S,"QVMV+X65, Palangka, Kec. Jekan Raya, Kota Palangka Raya, Kalimantan Tengah 74874","Palangka, Kec. Jekan Raya, Kota Palangka Raya",KALIMANTAN TENGAH,74874.0,Indonesia, 085346856000,,,-2.2151223,113.8931246,https://maps.google.com/?cid=0x0:0x21667575e052f914,
supermarket,Toko umum,Toko Udin 1,"Jl. Sangga Buana II No.48, Palangka, Kec. Jekan Raya, Kota Palangka Raya, Kalimantan Tengah 74874","Palangka, Kec. Jekan Raya, Kota Palangka Raya",KALIMANTAN TENGAH,74874.0,Indonesia, 085386630477,,,-2.2063975,113.9035159,https://maps.google.com/?cid=0x0:0x76c30a5b2c698578,
supermarket,Toko Swalayan,"SENDY'S SWALAYAN TJILIK RIWUT Km. 1,5","Jl. Tjilik Riwut No.Km 1.5, Palangka, Kec. Jekan Raya, Kota Palangka Raya, Kalimantan Tengah 73112","Palangka, Kec. Jekan Raya, Kota Palangka Raya",KALIMANTAN TENGAH,73112.0,Indonesia, 085389584424,,,-2.1991296,113.9098361,https://maps.google.com/?cid=0x0:0x80888dfe6877ba10,
supermarket,Minimarket,Indomaret Fresh G. Obos,"QWH5+94Q, Menteng, Kec. Jekan Raya, Kota Palangka Raya, Kalimantan Tengah 74874","Menteng, Kec. Jekan Raya, Kota Palangka Raya",KALIMANTAN TENGAH,74874.0,Indonesia,,,,-2.2215431,113.907871,https://maps.google.com/?cid=0x0:0xc2eabdc5a1215c9c,
supermarket,Toko bahan makanan,Kios shaqila,"4M6Q+827, Petuk Bukit, Kec. Rakumpit, Kota Palangka Raya, Kalimantan Tengah 73112","Petuk Bukit, Kec. Rakumpit, Kota Palangka Raya",KALIMANTAN TENGAH,73112.0,Indonesia, 085345528055,,,-1.8892006,113.6868669,https://maps.google.com/?cid=0x0:0xf1d505b8b49e5217,
supermarket,Toko Swalayan,Toko salsabilla,"3M49+2JQ, Jl. Trans Kalimantan, Sei Gohong, Kec. Bukit Batu, Kota Palangka Raya, Kalimantan Tengah 73112","Jl. Trans Kalimantan, Sei Gohong, Kec. Bukit Batu, Kota Palangka Raya",KALIMANTAN TENGAH,73112.0,Indonesia, 082153467779,,,-1.9449008,113.6691011,https://maps.google.com/?cid=0x0:0x4dfb44c7ccc7122a,
supermarket,Minimarket,Azumi Mart I,"Jalan Seth Adji, Panarung, Jekan Raya, Langkai, Kec. Pahandut, Kota Palangka Raya, Kalimantan Tengah 74874","Panarung, Jekan Raya, Langkai, Kec. Pahandut, Kota Palangka Raya",KALIMANTAN TENGAH,74874.0,Indonesia,,,,-2.219123,113.9310579,https://maps.google.com/?cid=0x0:0x519f668609fcc152,
supermarket,Toko Makanan,Toko Garry,"RVH8+RJ7, Jl. Trans Kalimantan, Bukit Tunggal, Kec. Jekan Raya, Kota Palangka Raya, Kalimantan Tengah 74874","Jl. Trans Kalimantan, Bukit Tunggal, Kec. Jekan Raya, Kota Palangka Raya",KALIMANTAN TENGAH,74874.0,Indonesia,,,,-2.1704567,113.8665587,https://maps.google.com/?cid=0x0:0x5d4cdb6c93f86d16,
supermarket,Toko bahan makanan,AGEN NASA PALANGKARAYA,"RV5X+C86, Palangka, Kec. Jekan Raya, Kota Palangka Raya, Kalimantan Tengah 74874","Palangka, Kec. Jekan Raya, Kota Palangka Raya",KALIMANTAN TENGAH,74874.0,Indonesia, 082158736398,,,-2.1914606,113.8982553,https://maps.google.com/?cid=0x0:0xe7b5c5a1c51a135b,
supermarket,Toko bahan makanan,TOKO RIDWAN,"QW94+VW6, Jl. Temanggung Tilung, Menteng, Kec. Jekan Raya, Kota Palangka Raya, Kalimantan Tengah 74874","Jl. Temanggung Tilung, Menteng, Kec. Jekan Raya, Kota Palangka Raya",KALIMANTAN TENGAH,74874.0,Indonesia,,,,-2.2303284,113.9072785,https://maps.google.com/?cid=0x0:0xca9f76a77f0eba9b,
supermarket,Toko Swalayan,Indomaret Tjilik Riwut,"QWV8+R9V, Palangka, Kec. Jekan Raya, Kota Palangka Raya, Kalimantan Tengah 74874","Palangka, Kec. Jekan Raya, Kota Palangka Raya",KALIMANTAN TENGAH,74874.0,Indonesia,,,,-2.2053832,113.9159268,https://maps.google.com/?cid=0x0:0x2f3ea8e4c8ae1778,
supermarket,supermarket,Kec. Jekan Raya,"Kota Palangka Raya, Kalimantan Tengah","Kota Palangka Raya, Kalimantan Tengah",KALIMANTAN TENGAH,,Indonesia,,,,-2.2135468,113.9059149,https://maps.google.com/?cid=0x0:0x8cf48f9eeb1007b3,
supermarket,Toko bahan makanan,citra sentosa,"QWV4+852, Jl. Cakra Buana, Palangka, Kec. Jekan Raya, Kota Palangka Raya, Kalimantan Tengah 74874","Jl. Cakra Buana, Palangka, Kec. Jekan Raya, Kota Palangka Raya",KALIMANTAN TENGAH,74874.0,Indonesia,,,,-2.2067292,113.9053863,https://maps.google.com/?cid=0x0:0xedbeac349b71642a,
supermarket,Minimarket,Ny. BETSIE RAJAN IJAU (Indu Wanto),"Palangka, Kec. Jekan Raya, Kota Palangka Raya, Kalimantan Tengah","Kota Palangka Raya, Kalimantan Tengah",KALIMANTAN TENGAH,,Indonesia, 085332197449,,,-2.1963755,113.8923059,https://maps.google.com/?cid=0x0:0x4bec5b92cbf6eb1,
supermarket,Toko Swalayan,Sandy's swalayan,"Jl. G. Obos No.62, Menteng, Kec. Jekan Raya, Kota Palangka Raya, Kalimantan Tengah 74874","Menteng, Kec. Jekan Raya, Kota Palangka Raya",KALIMANTAN TENGAH,74874.0,Indonesia, 082327771600,,,-2.222276,113.9066182,https://maps.google.com/?cid=0x0:0xddc076eb5799971e,
supermarket,Minimarket,Warung Naesya,"QVRQ+7VH, Jl. Bukit Kaminting, Palangka, Kec. Jekan Raya, Kota Palangka Raya, Kalimantan Tengah 74874","Jl. Bukit Kaminting, Palangka, Kec. Jekan Raya, Kota Palangka Raya",KALIMANTAN TENGAH,74874.0,Indonesia,,,,-2.2093193,113.8897464,https://maps.google.com/?cid=0x0:0x49cad46cc9674a4e,
supermarket,Hipermarket,TREND MART,"QVXM+RW4, Palangka, Kec. Jekan Raya, Kota Palangka Raya, Kalimantan Tengah 74874","Palangka, Kec. Jekan Raya, Kota Palangka Raya",KALIMANTAN TENGAH,74874.0,Indonesia,,,,-2.2004997,113.884843,https://maps.google.com/?cid=0x0:0x688168b437ce7852,
supermarket,Toko bahan makanan,Toko Wulan,"QWP6+Q2F, Jl. Patimura, Menteng, Kec. Jekan Raya, Kota Palangka Raya, Kalimantan Tengah 74874","Jl. Patimura, Menteng, Kec. Jekan Raya, Kota Palangka Raya",KALIMANTAN TENGAH,74874.0,Indonesia,,,,-2.2130644,113.9100558,https://maps.google.com/?cid=0x0:0x9b2e47733ac2b98f,
supermarket,Minimarket,ALFAMART RAYA GALAXY,"Jl.Raya Galaxy No.Ruko 1-3, RT.06/RW.12, Menteng, Kec. Jekan Raya, Kota Palangka Raya, Kalimantan Tengah 73111","RT.06/RW.12, Menteng, Kec. Jekan Raya, Kota Palangka Raya",KALIMANTAN TENGAH,73111.0,Indonesia, 1500959,,,-2.2240056,113.9022769,https://maps.google.com/?cid=0x0:0x64c477601e6ae47d,
supermarket,Toko Perlengkapan Rumah,Sentra Plastik dan Pecah Belah,"Jl. RTA Milono No.Km. 2, Menteng, Kec. Jekan Raya, Kota Palangka Raya, Kalimantan Tengah 74874","Menteng, Kec. Jekan Raya, Kota Palangka Raya",KALIMANTAN TENGAH,74874.0,Indonesia, 081254887686,,,-2.2264318,113.9196415,https://maps.google.com/?cid=0x0:0xddc29ad5718a7a66,
supermarket,supermarket,Kalimantan Tengah 73111,"Panarung, Kec. Pahandut, Kota Palangka Raya, Kalimantan Tengah","Kota Palangka Raya, Kalimantan Tengah",KALIMANTAN TENGAH,,Indonesia,,,,-2.2331773,113.9388982,https://maps.google.com/?cid=0x0:0x16569ec2240fc1af,
supermarket,Toko bahan makanan,Toko Thami,"Jl. Jati Raya 1 No.21, Panarung, Kec. Pahandut, Kota Palangka Raya, Kalimantan Tengah 73111","Panarung, Kec. Pahandut, Kota Palangka Raya",KALIMANTAN TENGAH,73111.0,Indonesia, 083196893257,,,-2.236349,113.9403694,https://maps.google.com/?cid=0x0:0x567643d346b97960,
supermarket,Toko Swalayan,TOKO HAIFA,"Jl. Karanggan, Panarung, Kec. Pahandut, Kota Palangka Raya, Kalimantan Tengah 74874","Panarung, Kec. Pahandut, Kota Palangka Raya",KALIMANTAN TENGAH,74874.0,Indonesia,,,,-2.2447189,113.9624116,https://maps.google.com/?cid=0x0:0x9cb225e2b012c765,
supermarket,Toko bahan makanan,Cemara Labat Pahandut Seberang,"RW2Q+RGJ, Pahandut Seberang, Kec. Pahandut, Kota Palangka Raya, Kalimantan Tengah 74874","Pahandut Seberang, Kec. Pahandut, Kota Palangka Raya",KALIMANTAN TENGAH,74874.0,Indonesia,,,,-2.1979239,113.9387561,https://maps.google.com/?cid=0x0:0xe3f4478684134349,
supermarket,Toko bahan makanan,Toko Nahdia,"Jl. Jati (Samping, Gg. Rukun No.3, Panarung, Kec. Pahandut, Kota Palangka Raya, Kalimantan Tengah 73111","Gg. Rukun No.3, Panarung, Kec. Pahandut, Kota Palangka Raya",KALIMANTAN TENGAH,73111.0,Indonesia, 085387454289,,,-2.2451591,113.9443812,https://maps.google.com/?cid=0x0:0xd7cf02f377379b83,
supermarket,Minimarket,Kios Imra,"Jl. Turi II No.99, Panarung, Kec. Pahandut, Kota Palangka Raya, Kalimantan Tengah 74874","Panarung, Kec. Pahandut, Kota Palangka Raya",KALIMANTAN TENGAH,74874.0,Indonesia,,,,-2.2356991,113.938928,https://maps.google.com/?cid=0x0:0x1483b2c8a7574a81,
supermarket,Toko bahan makanan,TOKO ELMA,"PWPR+P4J, Jl. Lamtoro Gung, Panarung, Kec. Pahandut, Kota Palangka Raya, Kalimantan Tengah 74874","Jl. Lamtoro Gung, Panarung, Kec. Pahandut, Kota Palangka Raya",KALIMANTAN TENGAH,74874.0,Indonesia, 085350151716,,,-2.2631746,113.9402744,https://maps.google.com/?cid=0x0:0x88992064848e6b6e,
supermarket,Toko,Toko Salsabila (Margo Rukun),"Jl. Jati Raya No.1, Panarung, Kec. Pahandut, Kota Palangka Raya, Kalimantan Tengah 74874","Panarung, Kec. Pahandut, Kota Palangka Raya",KALIMANTAN TENGAH,74874.0,Indonesia, 081351958395,,,-2.2389282,113.9421243,https://maps.google.com/?cid=0x0:0xb922dd87b48e049a,
supermarket,Toko bahan makanan,Toko HAFNI,"QWWR+84W, Pahandut, Kec. Jekan Raya, Kota Palangka Raya, Kalimantan Tengah 74874","Pahandut, Kec. Jekan Raya, Kota Palangka Raya",KALIMANTAN TENGAH,74874.0,Indonesia,,,,-2.2041355,113.9403327,https://maps.google.com/?cid=0x0:0xea5f590a49161643,
supermarket,Pemasok Air Minum Dalam Kemasan,Depot Air Minum Isi Ulang AMR,"QX44+MRV, Panarung, Kec. Pahandut, Kota Palangka Raya, Kalimantan Tengah","Kota Palangka Raya, Kalimantan Tengah",KALIMANTAN TENGAH,,Indonesia,,,,-2.2432749,113.9570423,https://maps.google.com/?cid=0x0:0xc58ff2bb78eed431,
supermarket,supermarket,AMR WATER,"Jl. Karanggan No.2 No.1, Panarung, Kec. Pahandut, Kota Palangka Raya, Kalimantan Tengah 74874","Panarung, Kec. Pahandut, Kota Palangka Raya",KALIMANTAN TENGAH,74874.0,Indonesia, 081348499283,,,-2.2430615,113.9571677,https://maps.google.com/?cid=0x0:0x7fecb3e3192a7be0,
supermarket,Toko Swalayan,"SENDY'S SWALAYAN TJILIK RIWUT Km. 1,5","Jl. Tjilik Riwut No.Km 1.5, Palangka, Kec. Jekan Raya, Kota Palangka Raya, Kalimantan Tengah 73112","Palangka, Kec. Jekan Raya, Kota Palangka Raya",KALIMANTAN TENGAH,73112.0,Indonesia, 085389584424,,,-2.1991296,113.9098361,https://maps.google.com/?cid=0x0:0x80888dfe6877ba10,
supermarket,Toko bahan makanan,Toko Berkah Ridho,"RWMV+74W, Pahandut Seberang, Kec. Pahandut, Kota Palangka Raya, Kalimantan Tengah 74874","Pahandut Seberang, Kec. Pahandut, Kota Palangka Raya",KALIMANTAN TENGAH,74874.0,Indonesia,,,,-2.1667698,113.942836,https://maps.google.com/?cid=0x0:0xfe5929aba0fc280e,
supermarket,Toko bahan makanan,Toko Wanda,"QWHM+X67, Jl. Keruing II, Panarung, Kec. Pahandut, Kota Palangka Raya, Kalimantan Tengah 74874","Jl. Keruing II, Panarung, Kec. Pahandut, Kota Palangka Raya",KALIMANTAN TENGAH,74874.0,Indonesia,,,,-2.2200764,113.9330348,https://maps.google.com/?cid=0x0:0xde99bc5798f609c3,
supermarket,Toko,Toko emas sumber daha,"QWRP+RMQ, Jl. Jawa, Pahandut, Kec. Pahandut, Kota Palangka Raya, Kalimantan Tengah 74874","Jl. Jawa, Pahandut, Kec. Pahandut, Kota Palangka Raya",KALIMANTAN TENGAH,74874.0,Indonesia, 081349143471,,,-2.2079228,113.9367251,https://maps.google.com/?cid=0x0:0x381e5256a88260f6,
supermarket,Toko Swalayan,TOKO VANIA,"PXW8+2V4, Panarung, Kec. Pahandut, Kota Palangka Raya, Kalimantan Tengah 74874","Panarung, Kec. Pahandut, Kota Palangka Raya",KALIMANTAN TENGAH,74874.0,Indonesia, 083129034270,,,-2.2549894,113.967172,https://maps.google.com/?cid=0x0:0x4e4b7541ab83696d,
supermarket,Grosir Buah,Toko Akmalkhair,"QW9Q+2H8, Jl. Pinus, Panarung, Kec. Pahandut, Kota Palangka Raya, Kalimantan Tengah 74874","Jl. Pinus, Panarung, Kec. Pahandut, Kota Palangka Raya",KALIMANTAN TENGAH,74874.0,Indonesia,,,,-2.2324502,113.9389452,https://maps.google.com/?cid=0x0:0x422bd3cf0587d681,
supermarket,Toko Swalayan,toko klara,"QX39+MGG, Jl. Bangaris, Panarung, Kec. Pahandut, Kota Palangka Raya, Kalimantan Tengah 74874","Jl. Bangaris, Panarung, Kec. Pahandut, Kota Palangka Raya",KALIMANTAN TENGAH,74874.0,Indonesia, 08774898504,,,-2.2458214,113.9688171,https://maps.google.com/?cid=0x0:0x42d7e7102d1bbd99,
supermarket,Toko bahan makanan,Alfamart Jati Raya,"QW7R+QM5, Panarung, Kec. Pahandut, Kota Palangka Raya, Kalimantan Tengah 74874","Panarung, Kec. Pahandut, Kota Palangka Raya",KALIMANTAN TENGAH,74874.0,Indonesia,,,,-2.235624,113.941732,https://maps.google.com/?cid=0x0:0x435fc2823e25e035,
supermarket,Toko,TOKO KHARISMA,"QW8R+G49, Jl. Jati Raya, Panarung, Kec. Pahandut, Kota Palangka Raya, Kalimantan Tengah 74874","Jl. Jati Raya, Panarung, Kec. Pahandut, Kota Palangka Raya",KALIMANTAN TENGAH,74874.0,Indonesia,,,,-2.2337144,113.940365,https://maps.google.com/?cid=0x0:0xb129e1f1e74962a5,
supermarket,Toko,Toko Zidni,"Jl. Jati No.85, Panarung, Kec. Pahandut, Kota Palangka Raya, Kalimantan Tengah 74874","Panarung, Kec. Pahandut, Kota Palangka Raya",KALIMANTAN TENGAH,74874.0,Indonesia, 082253317777,,,-2.2310459,113.9388592,https://maps.google.com/?cid=0x0:0xabaab2e741e79f98,
supermarket,Toko bahan makanan,TOKO KAYLA,"QX46+7GG, Jl. Karanggan, Panarung, Kec. Pahandut, Kota Palangka Raya, Kalimantan Tengah 73111","Jl. Karanggan, Panarung, Kec. Pahandut, Kota Palangka Raya",KALIMANTAN TENGAH,73111.0,Indonesia,,,,-2.2443226,113.961336,https://maps.google.com/?cid=0x0:0xf906decb1569ce20,
supermarket,Toko Swalayan,Depot air minum Arnis,"QW3X+96G, Jl. Meranti 4, Panarung, Kec. Pahandut, Kota Palangka Raya, Kalimantan Tengah 74874","Jl. Meranti 4, Panarung, Kec. Pahandut, Kota Palangka Raya",KALIMANTAN TENGAH,74874.0,Indonesia,,,,-2.2465639,113.9480633,https://maps.google.com/?cid=0x0:0xde029ae734518d9,
supermarket,Toko,Toko Afif,"QW8R+69G, Jl. Jati, Panarung, Kec. Pahandut, Kota Palangka Raya, Kalimantan Tengah 74874","Jl. Jati, Panarung, Kec. Pahandut, Kota Palangka Raya",KALIMANTAN TENGAH,74874.0,Indonesia,,,,-2.2344335,113.940959,https://maps.google.com/?cid=0x0:0xca04a34c2b2bc987,
supermarket,Toko bahan makanan,Toko Al Huda,"Jl. Sawang III, Panarung, Kec. Pahandut, Kota Palangka Raya, Kalimantan Tengah 74874","Panarung, Kec. Pahandut, Kota Palangka Raya",KALIMANTAN TENGAH,74874.0,Indonesia, 085345970097,,,-2.2499436,113.9587756,https://maps.google.com/?cid=0x0:0x7b747eff13a7982f,
supermarket,,TOKO RAGIL,"Jl. Karanggan No.14, Panarung, Kec. Pahandut, Kota Palangka Raya, Kalimantan Tengah 74874","Panarung, Kec. Pahandut, Kota Palangka Raya",KALIMANTAN TENGAH,74874.0,Indonesia,,,,-2.2434703,113.9581065,https://maps.google.com/?cid=0x0:0x883c3e22a6468c31,
supermarket,supermarket,Kalimantan Tengah 73227,"Kabupaten Gunung MAS, Kalimantan Tengah","Kabupaten Gunung MAS, Kalimantan Tengah",KALIMANTAN TENGAH,,Indonesia,,,,-1.5625835,113.6085612,https://maps.google.com/?cid=0x0:0xf52044d70ef4122c,
supermarket,Pusat Perbelanjaan,MRMP Mart,"Pertokoan Bandar Estate, Jl. Adonis Samad, Panarung, Kec. Pahandut, Kota Palangka Raya, Kalimantan Tengah 74874","Jl. Adonis Samad, Panarung, Kec. Pahandut, Kota Palangka Raya",KALIMANTAN TENGAH,74874.0,Indonesia, 081375503228,,,-2.2505763,113.9461269,https://maps.google.com/?cid=0x0:0xd13c88ca8872f6fa,
supermarket,Toko,Toko Jo,"CG4P+V9R, RT.002, Taringen, Kec. Manuhing, Kabupaten Gunung MAS, Kalimantan Tengah 74562","RT.002, Taringen, Kec. Manuhing, Kabupaten Gunung MAS",KALIMANTAN TENGAH,74562.0,Indonesia, 082346869748,,,-1.5927677,113.5358755,https://maps.google.com/?cid=0x0:0x787c56ac867d1332,
supermarket,Toko Swalayan,Toko M Arapi,"QWVP+CMV, Jl. Sumatra, Pahandut, Kec. Pahandut, Kota Palangka Raya, Kalimantan Tengah 74874","Jl. Sumatra, Pahandut, Kec. Pahandut, Kota Palangka Raya",KALIMANTAN TENGAH,74874.0,Indonesia,,,,-2.2063898,113.9366822,https://maps.google.com/?cid=0x0:0xdd3b6a18fa417438,
supermarket,Pusat Perbelanjaan,Toko sembako dan mebel MBM azzahra,"CG3H+QR, Bereng Jun, Kec. Manuhing, Kabupaten Gunung MAS, Kalimantan Tengah 73227","Bereng Jun, Kec. Manuhing, Kabupaten Gunung MAS",KALIMANTAN TENGAH,73227.0,Indonesia, 085349409595,,,-1.595554,113.529624,https://maps.google.com/?cid=0x0:0xb627c6feae6908c0,
supermarket,Pusat Perbelanjaan,MRMP Mart,"Pertokoan Bandar Estate, Jl. Adonis Samad, Panarung, Kec. Pahandut, Kota Palangka Raya, Kalimantan Tengah 74874","Jl. Adonis Samad, Panarung, Kec. Pahandut, Kota Palangka Raya",KALIMANTAN TENGAH,74874.0,Indonesia, 081375503228,,,-2.2505763,113.9461269,https://maps.google.com/?cid=0x0:0xd13c88ca8872f6fa,
supermarket,Pusat Perbelanjaan,Merpati Mart,"Jl. Merpati No.6, Palangka, Kec. Jekan Raya, Kota Palangka Raya, Kalimantan Tengah 74874","Palangka, Kec. Jekan Raya, Kota Palangka Raya",KALIMANTAN TENGAH,74874.0,Indonesia, 08988310702,,,-2.1915594,113.8966586,https://maps.google.com/?cid=0x0:0x35c6fd7227d1a7c8,
supermarket,supermarket,Kec. Rakumpit,"Kota Palangka Raya, Kalimantan Tengah","Kota Palangka Raya, Kalimantan Tengah",KALIMANTAN TENGAH,,Indonesia,,,,-1.6942515,113.6380522,https://maps.google.com/?cid=0x0:0x42aedf8a5c1ec05a,
supermarket,Toko Swalayan,Toko M Arapi,"QWVP+CMV, Jl. Sumatra, Pahandut, Kec. Pahandut, Kota Palangka Raya, Kalimantan Tengah 74874","Jl. Sumatra, Pahandut, Kec. Pahandut, Kota Palangka Raya",KALIMANTAN TENGAH,74874.0,Indonesia,,,,-2.2063898,113.9366822,https://maps.google.com/?cid=0x0:0xdd3b6a18fa417438,
supermarket,supermarket,Kalimantan Tengah 73229,"Kabupaten Gunung MAS, Kalimantan Tengah","Kabupaten Gunung MAS, Kalimantan Tengah",KALIMANTAN TENGAH,,Indonesia,,,,-1.4825935,113.5966577,https://maps.google.com/?cid=0x0:0xf73b1482f3533d4a,
supermarket,Toko,Toko Jo,"CG4P+V9R, RT.002, Taringen, Kec. Manuhing, Kabupaten Gunung MAS, Kalimantan Tengah 74562","RT.002, Taringen, Kec. Manuhing, Kabupaten Gunung MAS",KALIMANTAN TENGAH,74562.0,Indonesia, 082346869748,,,-1.5927677,113.5358755,https://maps.google.com/?cid=0x0:0x787c56ac867d1332,
supermarket,Pusat Perbelanjaan,MRMP Mart,"Pertokoan Bandar Estate, Jl. Adonis Samad, Panarung, Kec. Pahandut, Kota Palangka Raya, Kalimantan Tengah 74874","Jl. Adonis Samad, Panarung, Kec. Pahandut, Kota Palangka Raya",KALIMANTAN TENGAH,74874.0,Indonesia, 081375503228,,,-2.2505763,113.9461269,https://maps.google.com/?cid=0x0:0xd13c88ca8872f6fa,
supermarket,Kios,Kios Indu Ebit,"PH3F+F95, Jl. Cilik Riwut, Jakatan Raya, Kec. Rungan, Kabupaten Gunung MAS, Kalimantan Tengah 74562","Jl. Cilik Riwut, Jakatan Raya, Kec. Rungan, Kabupaten Gunung MAS",KALIMANTAN TENGAH,74562.0,Indonesia,,,,-1.2963663,113.5734884,https://maps.google.com/?cid=0x0:0x93f38d593c892e27,
supermarket,Toko Swalayan,Toko Rizki Talaken,"J9XP+H44, Tumbang Talaken, Kec. Manuhing, Kabupaten Gunung MAS, Kalimantan Tengah 74562","Tumbang Talaken, Kec. Manuhing, Kabupaten Gunung MAS",KALIMANTAN TENGAH,74562.0,Indonesia,,,,-1.3511157,113.3853355,https://maps.google.com/?cid=0x0:0xac5e9df1dbe61307,
supermarket,Toko Swalayan,Toko M Arapi,"QWVP+CMV, Jl. Sumatra, Pahandut, Kec. Pahandut, Kota Palangka Raya, Kalimantan Tengah 74874","Jl. Sumatra, Pahandut, Kec. Pahandut, Kota Palangka Raya",KALIMANTAN TENGAH,74874.0,Indonesia,,,,-2.2063898,113.9366822,https://maps.google.com/?cid=0x0:0xdd3b6a18fa417438,
supermarket,Pusat Perbelanjaan,Toko ANEKA INDAH,"PH6F+VP9, Jakatan Raya, Kec. Rungan, Kabupaten Gunung MAS, Kalimantan Tengah 74562","Jakatan Raya, Kec. Rungan, Kabupaten Gunung MAS",KALIMANTAN TENGAH,74562.0,Indonesia,,,,-1.287831,113.5743646,https://maps.google.com/?cid=0x0:0x4bbbac7af7416c5c,
supermarket,Toko Swalayan,Toko anugrah/areil,"J9XP+G68, Tumbang Talaken, Kec. Manuhing, Kabupaten Gunung MAS, Kalimantan Tengah 74562","Tumbang Talaken, Kec. Manuhing, Kabupaten Gunung MAS",KALIMANTAN TENGAH,74562.0,Indonesia, 082148671148,,,-1.3512001,113.3855756,https://maps.google.com/?cid=0x0:0xb5d6324caf7b7301,
supermarket,Toko Swalayan,toko klara,"QX39+MGG, Jl. Bangaris, Panarung, Kec. Pahandut, Kota Palangka Raya, Kalimantan Tengah 74874","Jl. Bangaris, Panarung, Kec. Pahandut, Kota Palangka Raya",KALIMANTAN TENGAH,74874.0,Indonesia, 08774898504,,,-2.2458214,113.9688171,https://maps.google.com/?cid=0x0:0x42d7e7102d1bbd99,
supermarket,supermarket,Hikmah Baru,"Jl. Cilik Riwut No.01, Jakatan Raya, Kec. Rungan, Kabupaten Gunung MAS, Kalimantan Tengah 74562","Jakatan Raya, Kec. Rungan, Kabupaten Gunung MAS",KALIMANTAN TENGAH,74562.0,Indonesia,,,,-1.287269,113.574682,https://maps.google.com/?cid=0x0:0x376270487a9051c2,
supermarket,Pembangunan Perumahan,Bereng Malaka,"HM5F+QJ, Talangkah, Kec. Rungan, Kabupaten Gunung MAS, Kalimantan Tengah","Kabupaten Gunung MAS, Kalimantan Tengah",KALIMANTAN TENGAH,,Indonesia,,,,-1.4404693,113.6735535,https://maps.google.com/?cid=0x0:0x1e25fd88f79c293d,
supermarket,Pusat Perbelanjaan,Toko sembako dan mebel MBM azzahra,"CG3H+QR, Bereng Jun, Kec. Manuhing, Kabupaten Gunung MAS, Kalimantan Tengah 73227","Bereng Jun, Kec. Manuhing, Kabupaten Gunung MAS",KALIMANTAN TENGAH,73227.0,Indonesia, 085349409595,,,-1.595554,113.529624,https://maps.google.com/?cid=0x0:0xb627c6feae6908c0,
supermarket,Toko Perlengkapan Rumah,Toko Mekar Sari,"CG4M+P8F, Taringen, Kec. Manuhing, Kabupaten Gunung MAS, Kalimantan Tengah","Kabupaten Gunung MAS, Kalimantan Tengah",KALIMANTAN TENGAH,,Indonesia,,,,-1.5931884,113.5332965,https://maps.google.com/?cid=0x0:0xff3da6d54169d603,
supermarket,Toko bahan makanan,Kios shaqila,"4M6Q+827, Petuk Bukit, Kec. Rakumpit, Kota Palangka Raya, Kalimantan Tengah 73112","Petuk Bukit, Kec. Rakumpit, Kota Palangka Raya",KALIMANTAN TENGAH,73112.0,Indonesia, 085345528055,,,-1.8892006,113.6868669,https://maps.google.com/?cid=0x0:0xf1d505b8b49e5217,
supermarket,Toko,Toko Keyla,"XPFG+Q6W, Habaring Hurung, Kec. Bukit Batu, Kota Palangka Raya, Kalimantan Tengah 73112","Habaring Hurung, Kec. Bukit Batu, Kota Palangka Raya",KALIMANTAN TENGAH,73112.0,Indonesia, 081349242452,,,-2.0255004,113.7255858,https://maps.google.com/?cid=0x0:0x9f97ebd0e4ca6ce9,
supermarket,supermarket,Kalimantan Tengah 73113,Kalimantan Tengah,Kalimantan Tengah,KALIMANTAN TENGAH,,Indonesia,,,,-2.1235276,113.8822686,https://maps.google.com/?cid=0x0:0x86a571c6f87570f4,
supermarket,Minimarket,KPD Swalayan,"RVG7+7WR, Bukit Tunggal, Kec. Jekan Raya, Kota Palangka Raya, Kalimantan Tengah 74874","Bukit Tunggal, Kec. Jekan Raya, Kota Palangka Raya",KALIMANTAN TENGAH,74874.0,Indonesia,,,,-2.1742522,113.8647802,https://maps.google.com/?cid=0x0:0x559e62f52706de81,
supermarket,Minimarket,KPD Swalayan,"RV3W+9MH, Palangka, Kec. Jekan Raya, Kota Palangka Raya, Kalimantan Tengah 73112","Palangka, Kec. Jekan Raya, Kota Palangka Raya",KALIMANTAN TENGAH,73112.0,Indonesia,,,,-2.196565,113.89673,https://maps.google.com/?cid=0x0:0x3b88414904f9aaa9,
supermarket,Toko Swalayan,SENDY'S SWALAYAN A.YANI,"Jl. Ahmad Yani No.90, Pahandut, Kec. Pahandut, Kota Palangka Raya, Kalimantan Tengah 73112","Pahandut, Kec. Pahandut, Kota Palangka Raya",KALIMANTAN TENGAH,73112.0,Indonesia, 085250809515,,,-2.2098021,113.9383745,https://maps.google.com/?cid=0x0:0x5c2c74b38eb5c834,
supermarket,Toko Perlengkapan Rumah,Swalayan Kawan Serbu,"Palangka, Kec. Jekan Raya, Kota Palangka Raya, Kalimantan Tengah 74874","Kec. Jekan Raya, Kota Palangka Raya",KALIMANTAN TENGAH,74874.0,Indonesia, 085787541213,,,-2.2080928,113.9223431,https://maps.google.com/?cid=0x0:0xc9687cc90f27fde3,
supermarket,Toko bahan makanan,INDOMARET HIU PUTIH,"RVF7+5WM, Jl. Hiu Putih Raya, Bukit Tunggal, Kec. Jekan Raya, Kota Palangka Raya, Kalimantan Tengah 74874","Jl. Hiu Putih Raya, Bukit Tunggal, Kec. Jekan Raya, Kota Palangka Raya",KALIMANTAN TENGAH,74874.0,Indonesia,,,,-2.1770436,113.86481,https://maps.google.com/?cid=0x0:0x406394fa85066b60,
supermarket,Toko bahan makanan,Mini Market Antang,"Jl. Bandeng No.4, Bukit Tunggal, Kec. Jekan Raya, Kota Palangka Raya, Kalimantan Tengah 74874","Bukit Tunggal, Kec. Jekan Raya, Kota Palangka Raya",KALIMANTAN TENGAH,74874.0,Indonesia,,,,-2.1730063,113.876577,https://maps.google.com/?cid=0x0:0x97737b88a7abde86,
supermarket,Vegetarian cafe and deli,Telaga Biru Swalayan,"JL. Jend A Yani, Bl J, No.9-11, Langkai, Kec. Pahandut, Kota Palangka Raya, Kalimantan Tengah 73111","Bl J, No.9-11, Langkai, Kec. Pahandut, Kota Palangka Raya",KALIMANTAN TENGAH,73111.0,Indonesia,,,,-2.2087048,113.9291034,https://maps.google.com/?cid=0x0:0x322674a8568d56fd,
supermarket,Toko Swalayan,Kios Disna,"Jl. Manyar IV No.22, Bukit Tunggal, Kec. Jekan Raya, Kota Palangka Raya, Kalimantan Tengah 74874","Bukit Tunggal, Kec. Jekan Raya, Kota Palangka Raya",KALIMANTAN TENGAH,74874.0,Indonesia,,,,-2.1695021,113.8640867,https://maps.google.com/?cid=0x0:0xba5f0ca4169e8dc3,
supermarket,Toko Swalayan,TOKO ISNA,"Jl. Tjilik Riwut No.2 km 8, Bukit Tunggal, Kec. Jekan Raya, Kota Palangka Raya, Kalimantan Tengah","Kota Palangka Raya, Kalimantan Tengah",KALIMANTAN TENGAH,,Indonesia, 085245245800,,,-2.1687875,113.8565081,https://maps.google.com/?cid=0x0:0xdb595d460405b692,
supermarket,Toko bahan makanan,Toko Bayu,"Jl. Hiu Putih IV No.85, Bukit Tunggal, Kec. Jekan Raya, Kota Palangka Raya, Kalimantan Tengah 74874","Bukit Tunggal, Kec. Jekan Raya, Kota Palangka Raya",KALIMANTAN TENGAH,74874.0,Indonesia, 085222008811,,,-2.176827,113.8641333,https://maps.google.com/?cid=0x0:0x1ddd317a2f8d881a,
supermarket,Toko Sepatu,TOKO RESTU (RE),"RV8M+CR9, Jl. Biawan, Bukit Tunggal, Kec. Jekan Raya, Kota Palangka Raya, Kalimantan Tengah 74874","Jl. Biawan, Bukit Tunggal, Kec. Jekan Raya, Kota Palangka Raya",KALIMANTAN TENGAH,74874.0,Indonesia, 082154833337,,,-2.1839605,113.8845973,https://maps.google.com/?cid=0x0:0x1476c4d832446ab8,
supermarket,Toko Swalayan,TOKO IVANA,"RVFC+WJG, Jl. Rajawali, Bukit Tunggal, Kec. Jekan Raya, Kota Palangka Raya, Kalimantan Tengah 74874","Jl. Rajawali, Bukit Tunggal, Kec. Jekan Raya, Kota Palangka Raya",KALIMANTAN TENGAH,74874.0,Indonesia,,,,-2.1751819,113.8715872,https://maps.google.com/?cid=0x0:0xee8e084fc0100f02,
supermarket,Toko bahan makanan,Cemara Labat Pahandut Seberang,"RW2Q+RGJ, Pahandut Seberang, Kec. Pahandut, Kota Palangka Raya, Kalimantan Tengah 74874","Pahandut Seberang, Kec. Pahandut, Kota Palangka Raya",KALIMANTAN TENGAH,74874.0,Indonesia,,,,-2.1979239,113.9387561,https://maps.google.com/?cid=0x0:0xe3f4478684134349,
supermarket,Pusat Perbelanjaan,Toko Barokah Wara,"RVF7+8QQ, Jl. Hiu Putih Raya, Bukit Tunggal, Kec. Jekan Raya, Kota Palangka Raya, Kalimantan Tengah 74874","Jl. Hiu Putih Raya, Bukit Tunggal, Kec. Jekan Raya, Kota Palangka Raya",KALIMANTAN TENGAH,74874.0,Indonesia, 085249137188,,,-2.1766713,113.8644918,https://maps.google.com/?cid=0x0:0xdbfd657edce756b4,
supermarket,Minimarket,KPD Swalayan,"QWF3+FQF, Jl. Temanggung Tilung, Menteng, Kec. Jekan Raya, Kota Palangka Raya, Kalimantan Tengah 74874","Jl. Temanggung Tilung, Menteng, Kec. Jekan Raya, Kota Palangka Raya",KALIMANTAN TENGAH,74874.0,Indonesia,,,,-2.2263205,113.9044201,https://maps.google.com/?cid=0x0:0x85898d75470f4f26,
supermarket,Toko bahan makanan,Toko Fauzan,"RV8Q+RVQ, Bukit Tunggal, Kec. Jekan Raya, Kota Palangka Raya, Kalimantan Tengah 74874","Bukit Tunggal, Kec. Jekan Raya, Kota Palangka Raya",KALIMANTAN TENGAH,74874.0,Indonesia,,,,-2.1829052,113.889724,https://maps.google.com/?cid=0x0:0x726bf33f6d2fb303,
supermarket,Toko Swalayan,Toko Salamah,"Jl. Badak No.88, Bukit Tunggal, Kec. Jekan Raya, Kota Palangka Raya, Kalimantan Tengah 74874","Bukit Tunggal, Kec. Jekan Raya, Kota Palangka Raya",KALIMANTAN TENGAH,74874.0,Indonesia, 081325090199,,,-2.1863932,113.8776789,https://maps.google.com/?cid=0x0:0xe09b37ca1612ad9f,
supermarket,Minimarket,Ny. BETSIE RAJAN IJAU (Indu Wanto),"Palangka, Kec. Jekan Raya, Kota Palangka Raya, Kalimantan Tengah","Kota Palangka Raya, Kalimantan Tengah",KALIMANTAN TENGAH,,Indonesia, 085332197449,,,-2.1963755,113.8923059,https://maps.google.com/?cid=0x0:0x4bec5b92cbf6eb1,
supermarket,Toko bahan makanan,citra sentosa,"QWV4+852, Jl. Cakra Buana, Palangka, Kec. Jekan Raya, Kota Palangka Raya, Kalimantan Tengah 74874","Jl. Cakra Buana, Palangka, Kec. Jekan Raya, Kota Palangka Raya",KALIMANTAN TENGAH,74874.0,Indonesia,,,,-2.2067292,113.9053863,https://maps.google.com/?cid=0x0:0xedbeac349b71642a,
supermarket,Toko bahan makanan,Toko Berkah Ridho,"RWMV+74W, Pahandut Seberang, Kec. Pahandut, Kota Palangka Raya, Kalimantan Tengah 74874","Pahandut Seberang, Kec. Pahandut, Kota Palangka Raya",KALIMANTAN TENGAH,74874.0,Indonesia,,,,-2.1667698,113.942836,https://maps.google.com/?cid=0x0:0xfe5929aba0fc280e,
supermarket,Pusat Perbelanjaan,Toko Haji Awi,"PW34+XPM, Jl. Mangku Raya, Kereng Bangkirai, Kec. Sebangau, Kota Palangka Raya, Kalimantan Tengah 73113","Jl. Mangku Raya, Kereng Bangkirai, Kec. Sebangau, Kota Palangka Raya",KALIMANTAN TENGAH,73113.0,Indonesia, 081253414762,,,-2.2950461,113.9067984,https://maps.google.com/?cid=0x0:0x8735d1a2fbf53926,
supermarket,Minimarket,TOKO HAJI AAT (SEMBAKO),"Jl. Mendawai No.15, Palangka, Kec. Jekan Raya, Kota Palangka Raya, Kalimantan Tengah 74874","Palangka, Kec. Jekan Raya, Kota Palangka Raya",KALIMANTAN TENGAH,74874.0,Indonesia, 081255128012,,,-2.1975457,113.9097603,https://maps.google.com/?cid=0x0:0x57f5846bc42f568d,
supermarket,supermarket,Kalimantan Tengah 73114,Kalimantan Tengah,Kalimantan Tengah,KALIMANTAN TENGAH,,Indonesia,,,,-2.0476577,114.1201536,https://maps.google.com/?cid=0x0:0x94c27ae4b55d0eb,
supermarket,Toko bahan makanan,Toko Fauzan,"RV8Q+RVQ, Bukit Tunggal, Kec. Jekan Raya, Kota Palangka Raya, Kalimantan Tengah 74874","Bukit Tunggal, Kec. Jekan Raya, Kota Palangka Raya",KALIMANTAN TENGAH,74874.0,Indonesia,,,,-2.1829052,113.889724,https://maps.google.com/?cid=0x0:0x726bf33f6d2fb303,
supermarket,Toko umum,Jl Palangkaraya buntok,"WX23+5P, Penda Barania, Kec. Kahayan Tengah, Kabupaten Pulang Pisau, Kalimantan Tengah","Kabupaten Pulang Pisau, Kalimantan Tengah",KALIMANTAN TENGAH,,Indonesia,,,,-2.099549,113.954366,https://maps.google.com/?cid=0x0:0xc5d24159894ed313,
supermarket,supermarket,Warung Moonton Geprek,"X6CQ+VJF, Lahei Mangkutup, Kec. Mantangai, Kabupaten Kapuas, Kalimantan Tengah","Kabupaten Kapuas, Kalimantan Tengah",KALIMANTAN TENGAH,,Indonesia,,,,-2.027801,114.2390498,https://maps.google.com/?cid=0x0:0xea915414bd7c3044,
supermarket,Dapur Umum,Warung m.luky,"34GP+VGG, Jalan Lintas Palangkaraya-Buntok, Danau Pantau, Kec. Mantangai, Kabupaten Kapuas, Kalimantan Tengah","Kabupaten Kapuas, Kalimantan Tengah",KALIMANTAN TENGAH,,Indonesia,,,,-1.922815,114.1363349,https://maps.google.com/?cid=0x0:0x7804f03d3e619b46,
supermarket,,Toko latifah,"PWC9+7JP, Jl. RTA Milono, Sabaru, Kec. Sebangau, Kota Palangka Raya, Kalimantan Tengah 74874","Jl. RTA Milono, Sabaru, Kec. Sebangau, Kota Palangka Raya",KALIMANTAN TENGAH,74874.0,Indonesia, 083143443821,,,-2.2792969,113.9190795,https://maps.google.com/?cid=0x0:0x8df5acbea42f4dbd,
supermarket,Rumah Makan,Rumah Makan Puja,"26CV+M7P, Jl. Lintas Palangkaraya-Buntok, Lahei Mangkutup, Kec. Mantangai, Kabupaten Kapuas, Kalimantan Tengah 73553","Jl. Lintas Palangkaraya-Buntok, Lahei Mangkutup, Kec. Mantangai, Kabupaten Kapuas",KALIMANTAN TENGAH,73553.0,Indonesia,,,,-1.978277,114.243188,https://maps.google.com/?cid=0x0:0xd48f5f544b34175,
supermarket,Toko,Toko Indu Riky,"26W9+9H, Lahei Mangkutup, Danau Rawah, Kabupaten Kapuas, Kalimantan Tengah","Kabupaten Kapuas, Kalimantan Tengah",KALIMANTAN TENGAH,,Indonesia, 085246104313,,,-1.9540625,114.2189375,https://maps.google.com/?cid=0x0:0xba59d417dd2a0121,
supermarket,Toko bahan makanan,Raditya_bakoel sayur,"26W9+CFV, Lahei Mangkutup, Kec. Mantangai, Kabupaten Kapuas, Kalimantan Tengah","Kabupaten Kapuas, Kalimantan Tengah",KALIMANTAN TENGAH,,Indonesia,,,,-1.9538793,114.2186704,https://maps.google.com/?cid=0x0:0xfe8905b294d48392,
supermarket,Toko,TOKO LUPI,"PW99+5M7, Jl. RTA Milono, Sabaru, Kec. Sebangau, Kota Palangka Raya, Kalimantan Tengah 74874","Jl. RTA Milono, Sabaru, Kec. Sebangau, Kota Palangka Raya",KALIMANTAN TENGAH,74874.0,Indonesia,,,,-2.2820806,113.9191726,https://maps.google.com/?cid=0x0:0xd845db2ce81e6a38,
supermarket,Toko bahan makanan,Toko Kristi Rahayu,"PV7X+6G3, Jl. Pasir Panjang, Kereng Bangkirai, Kec. Sebangau, Kota Palangka Raya, Kalimantan Tengah 74874","Jl. Pasir Panjang, Kereng Bangkirai, Kec. Sebangau, Kota Palangka Raya",KALIMANTAN TENGAH,74874.0,Indonesia,,,,-2.2869869,113.8987921,https://maps.google.com/?cid=0x0:0x2612eb716a0741ae,
supermarket,Toko Swalayan,Toko Azka,"PW48+8MM, Kereng Bangkirai, Kec. Sebangau, Kota Palangka Raya, Kalimantan Tengah 74874","Kereng Bangkirai, Kec. Sebangau, Kota Palangka Raya",KALIMANTAN TENGAH,74874.0,Indonesia,,,,-2.2941731,113.9166858,https://maps.google.com/?cid=0x0:0xb3a682d2e51a2f4c,
supermarket,Pusat Perbelanjaan,Toko Haji Awi,"PW34+XPM, Jl. Mangku Raya, Kereng Bangkirai, Kec. Sebangau, Kota Palangka Raya, Kalimantan Tengah 73113","Jl. Mangku Raya, Kereng Bangkirai, Kec. Sebangau, Kota Palangka Raya",KALIMANTAN TENGAH,73113.0,Indonesia, 081253414762,,,-2.2950461,113.9067984,https://maps.google.com/?cid=0x0:0x8735d1a2fbf53926,
supermarket,Pasar,Pasar Sebangau Jaya,"Jl. RTA Milono, Kereng Bangkirai, Kec. Sebangau, Kota Palangka Raya, Kalimantan Tengah 74874","Kereng Bangkirai, Kec. Sebangau, Kota Palangka Raya",KALIMANTAN TENGAH,74874.0,Indonesia,,,,-2.2868943,113.9185298,https://maps.google.com/?cid=0x0:0x7c66aac119b652d8,
supermarket,Toko umum,Warung Vica,"PW55+F78, Jl. Manduhara, Kereng Bangkirai, Kec. Sebangau, Kota Palangka Raya, Kalimantan Tengah 74874","Jl. Manduhara, Kereng Bangkirai, Kec. Sebangau, Kota Palangka Raya",KALIMANTAN TENGAH,74874.0,Indonesia,,,,-2.2913399,113.908203,https://maps.google.com/?cid=0x0:0xacce23f12ae51121,
supermarket,Toko bahan makanan,Uchu seluler,"PWG6+7M2, Jl. Epapras, Kereng Bangkirai, Kec. Sebangau, Kota Palangka Raya, Kalimantan Tengah 74874","Jl. Epapras, Kereng Bangkirai, Kec. Sebangau, Kota Palangka Raya",KALIMANTAN TENGAH,74874.0,Indonesia, 083150705571,,,-2.2743726,113.9116506,https://maps.google.com/?cid=0x0:0x518b748cadcc81b3,
supermarket,Toko bahan makanan,Toko Lora Jaya,"PW79+3H2, Sabaru, Kec. Sebangau, Kota Palangka Raya, Kalimantan Tengah 74874","Sabaru, Kec. Sebangau, Kota Palangka Raya",KALIMANTAN TENGAH,74874.0,Indonesia,,,,-2.2873574,113.9188992,https://maps.google.com/?cid=0x0:0x42e942945be588af,
supermarket,Toko bahan makanan,TOKO SAFIYYA,"PW69+89V, Jl. RTA Milono, RW.Km.10, Kereng Bangkirai, Kec. Sebangau, Kota Palangka Raya, Kalimantan Tengah 74874","Jl. RTA Milono, RW.Km.10, Kereng Bangkirai, Kec. Sebangau, Kota Palangka Raya",KALIMANTAN TENGAH,74874.0,Indonesia, 082152060507,,,-2.2891432,113.918419,https://maps.google.com/?cid=0x0:0xeed16143e7a82fb3,
supermarket,Toko,Warung Sumber Rejeki,"PWCG+HC5, Jl. Markus Paul, Sabaru, Kec. Sebangau, Kota Palangka Raya, Kalimantan Tengah 74874","Jl. Markus Paul, Sabaru, Kec. Sebangau, Kota Palangka Raya",KALIMANTAN TENGAH,74874.0,Indonesia, 085348426859,,,-2.2786067,113.9261166,https://maps.google.com/?cid=0x0:0x6e17681eb4036dcf,
supermarket,Toko bahan makanan,TOKO ELMA,"PWPR+P4J, Jl. Lamtoro Gung, Panarung, Kec. Pahandut, Kota Palangka Raya, Kalimantan Tengah 74874","Jl. Lamtoro Gung, Panarung, Kec. Pahandut, Kota Palangka Raya",KALIMANTAN TENGAH,74874.0,Indonesia, 085350151716,,,-2.2631746,113.9402744,https://maps.google.com/?cid=0x0:0x88992064848e6b6e,
supermarket,Toko bahan makanan,Toko IQQIEELA,"Jl. G. Obos XIV No.84, Menteng, Kec. Jekan Raya, Kota Palangka Raya, Kalimantan Tengah 73112","Menteng, Kec. Jekan Raya, Kota Palangka Raya",KALIMANTAN TENGAH,73112.0,Indonesia,,,,-2.2471298,113.8898798,https://maps.google.com/?cid=0x0:0x277a71c26dfe5b97,
supermarket,Minimarket,Kios Imra,"Jl. Turi II No.99, Panarung, Kec. Pahandut, Kota Palangka Raya, Kalimantan Tengah 74874","Panarung, Kec. Pahandut, Kota Palangka Raya",KALIMANTAN TENGAH,74874.0,Indonesia,,,,-2.2356991,113.938928,https://maps.google.com/?cid=0x0:0x1483b2c8a7574a81,
supermarket,Toko Swalayan,Toko Riska,"Jl. Langkai Permai I, Langkai, Kec. Pahandut, Kota Palangka Raya, Kalimantan Tengah 74874","Langkai, Kec. Pahandut, Kota Palangka Raya",KALIMANTAN TENGAH,74874.0,Indonesia, 089614752339,,,-2.2699425,113.9195622,https://maps.google.com/?cid=0x0:0x26af2583a6e8326d,
supermarket,Toko Perlengkapan Rumah,Warung Mama Satria,"Jl. Panenga Raya 9 No.7A, Kereng Bangkirai, Kec. Sebangau, Kota Palangka Raya, Kalimantan Tengah 74874","Kereng Bangkirai, Kec. Sebangau, Kota Palangka Raya",KALIMANTAN TENGAH,74874.0,Indonesia,,,,-2.2765551,113.912391,https://maps.google.com/?cid=0x0:0x1159ecc0fadb5b2c,
supermarket,Toko,Toko Az-zahra,"PW36+Q2M, Jl. Mangku Raya, Kereng Bangkirai, Kec. Sebangau, Kota Palangka Raya, Kalimantan Tengah 73113","Jl. Mangku Raya, Kereng Bangkirai, Kec. Sebangau, Kota Palangka Raya",KALIMANTAN TENGAH,73113.0,Indonesia,,,,-2.2955383,113.91005,https://maps.google.com/?cid=0x0:0x2b798a0ad4a02d4b,
supermarket,Toko Swalayan,Toko mama leny,"PWQQ+QX5, Jl. Bhayangkara 6, Panarung, Kec. Pahandut, Kota Palangka Raya, Kalimantan Tengah 74874","Jl. Bhayangkara 6, Panarung, Kec. Pahandut, Kota Palangka Raya",KALIMANTAN TENGAH,74874.0,Indonesia, 082252112696,,,-2.2606246,113.9399708,https://maps.google.com/?cid=0x0:0x7e5d5d409492f1f8,
supermarket,Toko bahan makanan,Prima Aura Abadi,"PV8F+8QR, Kereng Bangkirai, Kec. Sebangau, Kota Palangka Raya, Kalimantan Tengah 74874","Kereng Bangkirai, Kec. Sebangau, Kota Palangka Raya",KALIMANTAN TENGAH,74874.0,Indonesia, 082141179266,,,-2.2841292,113.8744048,https://maps.google.com/?cid=0x0:0x9de4554a5bbd6c48,
supermarket,Toko,New Megatop Sabaru,"PW69+GFM, Jl. RTA Milono, Sabaru, Kec. Sebangau, Kota Palangka Raya, Kalimantan Tengah 74874","Jl. RTA Milono, Sabaru, Kec. Sebangau, Kota Palangka Raya",KALIMANTAN TENGAH,74874.0,Indonesia, 082354574048,,,-2.2886559,113.9186636,https://maps.google.com/?cid=0x0:0x879217c642fd6078,
supermarket,Toko Swalayan,Warung ani,"Jl. Lamtoro Gung Jl. Haka 7 No.292, Panarung, Kec. Pahandut, Kota Palangka Raya, Kalimantan Tengah 73111","Panarung, Kec. Pahandut, Kota Palangka Raya",KALIMANTAN TENGAH,73111.0,Indonesia,,,,-2.2642779,113.9385882,https://maps.google.com/?cid=0x0:0x22f739acc6fb28bc,
