Category,Real Category,Business Name,Address,City,State,Postal Code,Country,Phone,Email,Website,Latitude,Longitude,Map Link,Details Link
komplek housing,komplek housing,Kec. Bukit Batu,"Kota Palangka Raya, Kalimantan Tengah","Kota Palangka Raya, Kalimantan Tengah",KALIMANTAN TENGAH,,Indonesia,,,,-2.0004344,113.7594376,https://maps.google.com/?cid=0x0:0x1e052cd5457a3765,
komplek housing,komplek housing,Kalimantan Tengah 73221,"Bukit Tunggal, Kec. Rakumpit, Kota Palangka Raya, Kalimantan Tengah","Kota Palangka Raya, Kalimantan Tengah",KALIMANTAN TENGAH,,Indonesia,,,,-2.17855,113.8656799,https://maps.google.com/?cid=0x0:0x50b16048f399e248,
komplek housing,Komplek perumahan,Rumah Bimo Santoso,"RVC6+HM3, Jl. Hiu Putih VII C, ujung, Kec. Jekan Raya, Kota Palangka Raya, Kalimantan Tengah 74874","Jl. Hiu Putih VII C, ujung, Kec. Jekan Raya, Kota Palangka Raya",KALIMANTAN TENGAH,74874.0,Indonesia,,,,-2.1786137,113.8616573,https://maps.google.com/?cid=0x0:0x229e95b801286553,
komplek housing,Komplek perumahan,Perumahan Grand Sanur Griya Tama II,"Jl. Hiu Putih Raya No.4, Bukit Tunggal, Kec. Jekan Raya, Kota Palangka Raya, Kalimantan Tengah 74874","Bukit Tunggal, Kec. Jekan Raya, Kota Palangka Raya",KALIMANTAN TENGAH,74874.0,Indonesia,,,,-2.1792887,113.863856,https://maps.google.com/?cid=0x0:0xdefec3310804b141,
komplek housing,Komplek perumahan,Arry apriyanto,"Jl. Hiu Putih Raya No.8a, Bukit Tunggal, Kec. Jekan Raya, Kota Palangka Raya, Kalimantan Tengah 74874","Bukit Tunggal, Kec. Jekan Raya, Kota Palangka Raya",KALIMANTAN TENGAH,74874.0,Indonesia,,,,-2.1790309,113.8651565,https://maps.google.com/?cid=0x0:0xf9a73e275b4680e0,
komplek housing,komplek housing,Kec. Bukit Batu,"Kota Palangka Raya, Kalimantan Tengah","Kota Palangka Raya, Kalimantan Tengah",KALIMANTAN TENGAH,,Indonesia,,,,-2.0004344,113.7594376,https://maps.google.com/?cid=0x0:0x1e052cd5457a3765,
komplek housing,Komplek perumahan,Ma'mun,"Jl. Hiu Putih VIII Gg. Lohan No.46, Bukit Tunggal, Kec. Jekan Raya, Kota Palangka Raya, Kalimantan Tengah 74874","Bukit Tunggal, Kec. Jekan Raya, Kota Palangka Raya",KALIMANTAN TENGAH,74874.0,Indonesia,,,,-2.1796733,113.8672448,https://maps.google.com/?cid=0x0:0x3b07eab00b9c6488,
komplek housing,Komplek perumahan,Yusfa,"Jl. Hiu Putih VIII No.8c, Bukit Tunggal, Kec. Jekan Raya, Kota Palangka Raya, Kalimantan Tengah 74874","Bukit Tunggal, Kec. Jekan Raya, Kota Palangka Raya",KALIMANTAN TENGAH,74874.0,Indonesia, 082151820599,,,-2.1776475,113.8661669,https://maps.google.com/?cid=0x0:0x7abd6ecdd39c06c0,
komplek housing,Komplek perumahan,Rumah Pak Obrien,"RVC6+HCH, Jl. Hiu Putih VII F ujung, Bukit Tunggal, Kec. Jekan Raya, Kota Palangka Raya, Kalimantan Tengah 74874","Jl. Hiu Putih VII F ujung, Bukit Tunggal, Kec. Jekan Raya, Kota Palangka Raya",KALIMANTAN TENGAH,74874.0,Indonesia,,,,-2.177565,113.8627428,https://maps.google.com/?cid=0x0:0x830a65ace4878fb8,
komplek housing,Komplek perumahan,Rumah amel,"RVC8+GHW, Blk. B Jl. Hiu Putih VIII No.24, Bukit Tunggal, Kec. Jekan Raya, Kota Palangka Raya, Kalimantan Tengah 74874","Blk. B Jl. Hiu Putih VIII No.24, Bukit Tunggal, Kec. Jekan Raya, Kota Palangka Raya",KALIMANTAN TENGAH,74874.0,Indonesia,,,,-2.178016,113.8654187,https://maps.google.com/?cid=0x0:0x9a686784abc6d28b,
komplek housing,Komplek perumahan,Grand Sanur No.53,"Griya Tama II, Komp. Grand Sanur, Jl. Hiu Putih Raya Induk, Bukit Tunggal, Jekan Raya, Palangka Raya City, Central Kalimantan 74874","Komp. Grand Sanur, Jl. Hiu Putih Raya Induk, Bukit Tunggal, Jekan Raya, Palangka Raya City",KALIMANTAN TENGAH,74874.0,Indonesia,,,,-2.1793857,113.8625729,https://maps.google.com/?cid=0x0:0xf4f03387e59a954b,
komplek housing,komplek housing,Mess Bio Mustika,"RVC8+CM7, Jl. Hiu Putih VIII, Bukit Tunggal, Kec. Jekan Raya, Kota Palangka Raya, Kalimantan Tengah 74874","Jl. Hiu Putih VIII, Bukit Tunggal, Kec. Jekan Raya, Kota Palangka Raya",KALIMANTAN TENGAH,74874.0,Indonesia, 081236209004,,,-2.1789742,113.86668,https://maps.google.com/?cid=0x0:0xf49f5f77a992efe1,
komplek housing,komplek housing,Bukit Batu,"Kec. Cempaga Hulu, Kabupaten Kotawaringin Timur, Kalimantan Tengah","Kabupaten Kotawaringin Timur, Kalimantan Tengah",KALIMANTAN TENGAH,,Indonesia,,,,-1.9661067,112.9654557,https://maps.google.com/?cid=0x0:0xc0ab326431d5b67f,
komplek housing,Komplek perumahan,Rumah ijum,"Jl. Hiu Putih IV No.36, Bukit Tunggal, Kec. Jekan Raya, Kota Palangka Raya, Kalimantan Tengah 74874","Bukit Tunggal, Kec. Jekan Raya, Kota Palangka Raya",KALIMANTAN TENGAH,74874.0,Indonesia,,,,-2.176846,113.8633976,https://maps.google.com/?cid=0x0:0x2fa94b28402bc2db,
komplek housing,Komplek perumahan,Rumah mas nono,"Jl. Hiu Putih VIII No.59, Bukit Tunggal, Kec. Jekan Raya, Kota Palangka Raya, Kalimantan Tengah 74874","Bukit Tunggal, Kec. Jekan Raya, Kota Palangka Raya",KALIMANTAN TENGAH,74874.0,Indonesia,,,,-2.1780609,113.867032,https://maps.google.com/?cid=0x0:0x1e2bdb472a170dc7,
komplek housing,Komplek perumahan,Gaol’s Family,"Jl. Hiu Putih VII No.27, Bukit Tunggal, Kec. Jekan Raya, Kota Palangka Raya, Kalimantan Tengah","Kota Palangka Raya, Kalimantan Tengah",KALIMANTAN TENGAH,,Indonesia,,,,-2.1774249,113.8631552,https://maps.google.com/?cid=0x0:0x109e883284664c09,
komplek housing,Perhimpunan Pengembang Perumahan,R's home,"kode pos 73221, Jl. Pesona III No.12, RT.11/RW.3, Tangkiling, Kec. Bukit Batu, Kota Palangka Raya, Kalimantan Tengah 73112","Jl. Pesona III No.12, RT.11/RW.3, Tangkiling, Kec. Bukit Batu, Kota Palangka Raya",KALIMANTAN TENGAH,73112.0,Indonesia,,,,-1.9781032,113.7470689,https://maps.google.com/?cid=0x0:0x89cc6fc4f6f5f32d,
komplek housing,Komplek perumahan,Rumah Marisa,"Jl. Pesona III Sukamulya No.Km 36, Tangkiling, Kec. Bukit Batu, Kota Palangka Raya, Kalimantan Tengah 73221","Tangkiling, Kec. Bukit Batu, Kota Palangka Raya",KALIMANTAN TENGAH,73221.0,Indonesia,,,,-1.9771069,113.743778,https://maps.google.com/?cid=0x0:0x287cc120f827739f,
komplek housing,komplek housing,Kalimantan Tengah 73222,"Kec. Rakumpit, Kota Palangka Raya, Kalimantan Tengah","Kota Palangka Raya, Kalimantan Tengah",KALIMANTAN TENGAH,,Indonesia,,,,-1.7933344,113.7275817,https://maps.google.com/?cid=0x0:0xcd41c114b66f1cf9,
komplek housing,Komplek perumahan,Rumah chantika,"2PXJ+WP3 UPT, Jl. Cendrawasih II No.KM 38, Sei Gohong, Kec. Bukit Batu, Kota Palangka Raya, Kalimantan Tengah 73112","Jl. Cendrawasih II No.KM 38, Sei Gohong, Kec. Bukit Batu, Kota Palangka Raya",KALIMANTAN TENGAH,73112.0,Indonesia,,,,-1.950419,113.732899,https://maps.google.com/?cid=0x0:0x771cdd0c1de936d,
komplek housing,komplek housing,Kec. Bukit Batu,"Kota Palangka Raya, Kalimantan Tengah","Kota Palangka Raya, Kalimantan Tengah",KALIMANTAN TENGAH,,Indonesia,,,,-2.0004344,113.7594376,https://maps.google.com/?cid=0x0:0x1e052cd5457a3765,
komplek housing,Komplek perumahan,Rumah nadya.,"Jl. Gereja No.21, Sei Gohong, Kec. Bukit Batu, Kota Palangka Raya, Kalimantan Tengah 73112","Sei Gohong, Kec. Bukit Batu, Kota Palangka Raya",KALIMANTAN TENGAH,73112.0,Indonesia,,,,-1.9604233,113.7541603,https://maps.google.com/?cid=0x0:0x870f09256824d8e7,
komplek housing,Komplek perumahan,Gaung Baru,"6PF9+HCF, Gaung Baru, Kec. Rakumpit, Kota Palangka Raya, Kalimantan Tengah 73223","Gaung Baru, Kec. Rakumpit, Kota Palangka Raya",KALIMANTAN TENGAH,73223.0,Indonesia,,,,-1.7760537,113.7185517,https://maps.google.com/?cid=0x0:0x82d966ff765e23a6,
komplek housing,Komplek perumahan,Rumah Niaraa,"2PXH+XW5, Sei Gohong, Kec. Bukit Batu, Kota Palangka Raya, Kalimantan Tengah 73112","Sei Gohong, Kec. Bukit Batu, Kota Palangka Raya",KALIMANTAN TENGAH,73112.0,Indonesia,,,,-1.9501181,113.7298688,https://maps.google.com/?cid=0x0:0x6e64d9ce70c9c219,
komplek housing,Pembangunan Perumahan,KORNELIUS PRATAMA,"2PWJ+52G, Sei Gohong, Kec. Bukit Batu, Kota Palangka Raya, Kalimantan Tengah 73112","Sei Gohong, Kec. Bukit Batu, Kota Palangka Raya",KALIMANTAN TENGAH,73112.0,Indonesia,,,,-1.9545666,113.7300892,https://maps.google.com/?cid=0x0:0xdf324ed5e4180c81,
komplek housing,komplek housing,Bukit Batu,"Kec. Cempaga Hulu, Kabupaten Kotawaringin Timur, Kalimantan Tengah","Kabupaten Kotawaringin Timur, Kalimantan Tengah",KALIMANTAN TENGAH,,Indonesia,,,,-1.9661067,112.9654557,https://maps.google.com/?cid=0x0:0xc0ab326431d5b67f,
komplek housing,Komplek perumahan,Omah areng,"4MQP+VF, Petuk Bukit, Kec. Rakumpit, Kota Palangka Raya, Kalimantan Tengah","Kota Palangka Raya, Kalimantan Tengah",KALIMANTAN TENGAH,,Indonesia,,,,-1.8602909,113.6862438,https://maps.google.com/?cid=0x0:0x4df13fb0f97d7c70,
komplek housing,Pembangunan Perumahan,Tanah hak milik a.n lampung,"2PVF+596, Jl. Garuda I, Sei Gohong, Kec. Bukit Batu, Kota Palangka Raya, Kalimantan Tengah 73112","Jl. Garuda I, Sei Gohong, Kec. Bukit Batu, Kota Palangka Raya",KALIMANTAN TENGAH,73112.0,Indonesia,,,,-1.957078,113.7234008,https://maps.google.com/?cid=0x0:0x89b633e413ff9407,
komplek housing,Komplek perumahan,Mama Jejep / bu Ratna,"Sei Gohong, Kec. Bukit Batu, Kota Palangka Raya, Kalimantan Tengah 73112","Kec. Bukit Batu, Kota Palangka Raya",KALIMANTAN TENGAH,73112.0,Indonesia, 08125158065,,,-1.9502293,113.7318001,https://maps.google.com/?cid=0x0:0x7a8776c6652676c3,
komplek housing,Area Rekreasi Alam,Sei gohong,"Jl. Gereja No.21, Sei Gohong, Kec. Bukit Batu, Kota Palangka Raya, Kalimantan Tengah 73112","Sei Gohong, Kec. Bukit Batu, Kota Palangka Raya",KALIMANTAN TENGAH,73112.0,Indonesia,,,,-1.9545026,113.7513827,https://maps.google.com/?cid=0x0:0xf3834dbd53b275e9,
komplek housing,Tempat Religius,Wisata Bukit Batu Pertapaan Tjilik Riwut,"4F39+W6V, S Jl. Trans Kalimantan, Kasongan Lama, Katingan Hilir, Katingan Regency, Central Kalimantan 74461","S Jl. Trans Kalimantan, Kasongan Lama, Katingan Hilir, Katingan Regency",KALIMANTAN TENGAH,74461.0,Indonesia,,,,-1.8951303,113.4680533,https://maps.google.com/?cid=0x0:0xcb4e6c653c6fae85,
komplek housing,komplek housing,ABAH VIO,"7JXR+46, Petuk Barunai, Kec. Rakumpit, Kota Palangka Raya, Kalimantan Tengah","Kota Palangka Raya, Kalimantan Tengah",KALIMANTAN TENGAH,,Indonesia,,,,-1.7014673,113.6407153,https://maps.google.com/?cid=0x0:0xb61036fed8534b09,
komplek housing,Komplek perumahan,Perumahan bagan lawi,"4CXJ+7GQ, Jl. Kasongan, Kasongan Lama, Kec. Katingan Hilir, Kabupaten Katingan, Kalimantan Tengah","Kabupaten Katingan, Kalimantan Tengah",KALIMANTAN TENGAH,,Indonesia,,,,-1.8517988,113.4313501,https://maps.google.com/?cid=0x0:0xb52283aaffbebd7b,
komplek housing,Pembangunan Perumahan,Perumahan haing jaya 1 jln cancer blok C no 25,"494P+H5G, Kasongan Lama, Kec. Katingan Hilir, Kabupaten Katingan, Kalimantan Tengah 74413","Kasongan Lama, Kec. Katingan Hilir, Kabupaten Katingan",KALIMANTAN TENGAH,74413.0,Indonesia,,,,-1.893574,113.3854435,https://maps.google.com/?cid=0x0:0x942a9293f8a69b2c,
komplek housing,Komplek perumahan,Rumahku,"Jl. Langsat, komplek wengga 4 Jl. Kasongan No.36 blok B, Kec. Katingan Hilir, Kalimantan Tengah","Kabupaten Katingan, Kalimantan Tengah",KALIMANTAN TENGAH,,Indonesia,,,,-1.9539431,113.3942129,https://maps.google.com/?cid=0x0:0xc13f383d3467cfb,
komplek housing,Pembangunan Perumahan,ASMIL KIZIPUR C YON 6/SD,"2MVX+8J, Sei Gohong, Kec. Bukit Batu, Kota Palangka Raya, Kalimantan Tengah","Kota Palangka Raya, Kalimantan Tengah",KALIMANTAN TENGAH,,Indonesia,,,,-1.9566872,113.6990514,https://maps.google.com/?cid=0x0:0x7e0a0ff7ee7bba4f,
komplek housing,Komplek perumahan,Lawang uru,"6W72+C25, Lawang Uru, Kec. Banama Tingang, Kabupaten Pulang Pisau, Kalimantan Tengah","Kabupaten Pulang Pisau, Kalimantan Tengah",KALIMANTAN TENGAH,,Indonesia,,,,-1.7864826,113.9001141,https://maps.google.com/?cid=0x0:0xd8f8a874a3fadc54,
komplek housing,Perhimpunan Pengembang Perumahan,Rumah Pak Misni,"5MRM+3Q, Pager, Kec. Rakumpit, Kota Palangka Raya, Kalimantan Tengah","Kota Palangka Raya, Kalimantan Tengah",KALIMANTAN TENGAH,,Indonesia,,,,-1.809861,113.6844475,https://maps.google.com/?cid=0x0:0xde2ea00611c1cac4,
komplek housing,komplek housing,Kec. Bukit Batu,"Kota Palangka Raya, Kalimantan Tengah","Kota Palangka Raya, Kalimantan Tengah",KALIMANTAN TENGAH,,Indonesia,,,,-2.0004344,113.7594376,https://maps.google.com/?cid=0x0:0x1e052cd5457a3765,
komplek housing,komplek housing,Bukit Batu,"Kec. Cempaga Hulu, Kabupaten Kotawaringin Timur, Kalimantan Tengah","Kabupaten Kotawaringin Timur, Kalimantan Tengah",KALIMANTAN TENGAH,,Indonesia,,,,-1.9661067,112.9654557,https://maps.google.com/?cid=0x0:0xc0ab326431d5b67f,
komplek housing,Komplek perumahan,Gaung Baru,"6PF9+HCF, Gaung Baru, Kec. Rakumpit, Kota Palangka Raya, Kalimantan Tengah 73223","Gaung Baru, Kec. Rakumpit, Kota Palangka Raya",KALIMANTAN TENGAH,73223.0,Indonesia,,,,-1.7760537,113.7185517,https://maps.google.com/?cid=0x0:0x82d966ff765e23a6,
komplek housing,komplek housing,Kec. Bukit Batu,"Kota Palangka Raya, Kalimantan Tengah","Kota Palangka Raya, Kalimantan Tengah",KALIMANTAN TENGAH,,Indonesia,,,,-2.0004344,113.7594376,https://maps.google.com/?cid=0x0:0x1e052cd5457a3765,
komplek housing,komplek housing,ABAH VIO,"7JXR+46, Petuk Barunai, Kec. Rakumpit, Kota Palangka Raya, Kalimantan Tengah","Kota Palangka Raya, Kalimantan Tengah",KALIMANTAN TENGAH,,Indonesia,,,,-1.7014673,113.6407153,https://maps.google.com/?cid=0x0:0xb61036fed8534b09,
komplek housing,komplek housing,Kec. Bukit Batu,"Kota Palangka Raya, Kalimantan Tengah","Kota Palangka Raya, Kalimantan Tengah",KALIMANTAN TENGAH,,Indonesia,,,,-2.0004344,113.7594376,https://maps.google.com/?cid=0x0:0x1e052cd5457a3765,
komplek housing,komplek housing,Kalimantan Tengah 73226,"Kabupaten Gunung MAS, Kalimantan Tengah","Kabupaten Gunung MAS, Kalimantan Tengah",KALIMANTAN TENGAH,,Indonesia,,,,-1.6157967,113.6323674,https://maps.google.com/?cid=0x0:0x543f124ecfdfc35d,
komplek housing,komplek housing,Kec. Bukit Batu,"Kota Palangka Raya, Kalimantan Tengah","Kota Palangka Raya, Kalimantan Tengah",KALIMANTAN TENGAH,,Indonesia,,,,-2.0004344,113.7594376,https://maps.google.com/?cid=0x0:0x1e052cd5457a3765,
komplek housing,komplek housing,Kalimantan Tengah 73111,"Menteng, Kec. Jekan Raya, Kota Palangka Raya, Kalimantan Tengah","Kota Palangka Raya, Kalimantan Tengah",KALIMANTAN TENGAH,,Indonesia,,,,-2.2370103,113.9075943,https://maps.google.com/?cid=0x0:0xebd5272dd2bb60bf,
komplek housing,Komplek perumahan,Delta Home,"QW64+XMV, Menteng, Kec. Jekan Raya, Kota Palangka Raya, Kalimantan Tengah 74874","Menteng, Kec. Jekan Raya, Kota Palangka Raya",KALIMANTAN TENGAH,74874.0,Indonesia,,,,-2.2375221,113.9066716,https://maps.google.com/?cid=0x0:0xe68db1bb514fee11,
komplek housing,komplek housing,Rumah Ainun,"QW64+XMV, Menteng, Kec. Jekan Raya, Kota Palangka Raya, Kalimantan Tengah 74874","Menteng, Kec. Jekan Raya, Kota Palangka Raya",KALIMANTAN TENGAH,74874.0,Indonesia,,,,-2.2375823,113.906648,https://maps.google.com/?cid=0x0:0x7eea19c402911d2,
komplek housing,Komplek perumahan,"Perum KALINGU I UNKRIP, Rta Milono Km 8,5 Palangka Raya","PW7C+WGX, Jl. Kalingu 1, Sabaru, Kec. Sebangau, Kota Palangka Raya, Kalimantan Tengah 74874","Jl. Kalingu 1, Sabaru, Kec. Sebangau, Kota Palangka Raya",KALIMANTAN TENGAH,74874.0,Indonesia,,,,-2.2851271,113.9213457,https://maps.google.com/?cid=0x0:0x48f5c4ddbebd3617,
komplek housing,Komplek perumahan,DE HOLLAND RESIDENCE,"PW3G+PJ6, Sabaru, Kec. Sebangau, Kota Palangka Raya, Kalimantan Tengah","Kota Palangka Raya, Kalimantan Tengah",KALIMANTAN TENGAH,,Indonesia,,,,-2.2957123,113.9265177,https://maps.google.com/?cid=0x0:0xac46fa3964db53e5,
komplek housing,Pembangunan Perumahan,Alamat,"Jl. Bapuyu No.14, Bukit Tunggal, Kec. Jekan Raya, Kota Palangka Raya, Kalimantan Tengah 74874","Bukit Tunggal, Kec. Jekan Raya, Kota Palangka Raya",KALIMANTAN TENGAH,74874.0,Indonesia, 081255268384,,,-2.1813588,113.8709236,https://maps.google.com/?cid=0x0:0x3b3adbaf58fc7d0,
komplek housing,Komplek perumahan,No.01 garuda Xa,"QVXR+9XX, Jl. Garuda X A, Palangka, Kec. Jekan Raya, Kota Palangka Raya, Kalimantan Tengah 74874","Jl. Garuda X A, Palangka, Kec. Jekan Raya, Kota Palangka Raya",KALIMANTAN TENGAH,74874.0,Indonesia,,,,-2.2015083,113.8924932,https://maps.google.com/?cid=0x0:0x3cbabfc808426856,
komplek housing,komplek housing,Kec. Tebet,"Kota Jakarta Selatan, Daerah Khusus Ibukota Jakarta","Kota Jakarta Selatan, Daerah Khusus Ibukota Jakarta",KALIMANTAN TENGAH,,Indonesia,,,,-6.2251223,106.8549881,https://maps.google.com/?cid=0x0:0xd575e31c807295f9,
komplek housing,komplek housing,Kec. Jekan Raya,"Kota Palangka Raya, Kalimantan Tengah","Kota Palangka Raya, Kalimantan Tengah",KALIMANTAN TENGAH,,Indonesia,,,,-2.2135468,113.9059149,https://maps.google.com/?cid=0x0:0x8cf48f9eeb1007b3,
komplek housing,Otoritas Perumahan,Palangkaraya,"Gg. Sari No.18, RT.04/RW.IX, Pahandut, Kec. Pahandut, Kota Palangka Raya, Kalimantan Tengah 73111","RT.04/RW.IX, Pahandut, Kec. Pahandut, Kota Palangka Raya",KALIMANTAN TENGAH,73111.0,Indonesia,,,,-2.207606,113.94326,https://maps.google.com/?cid=0x0:0x959c8b387f9d4249,
komplek housing,Komplek perumahan,Perumahan Villa Tirta Mas,"QV4G+R6P, Jl. G. Obos No.KM 5, Menteng, Kec. Jekan Raya, Kota Palangka Raya, Kalimantan Tengah 74874","Jl. G. Obos No.KM 5, Menteng, Kec. Jekan Raya, Kota Palangka Raya",KALIMANTAN TENGAH,74874.0,Indonesia,,,,-2.2415652,113.8742846,https://maps.google.com/?cid=0x0:0xf3c84ae4bd7e2b60,
komplek housing,Pembangunan Perumahan,KZ Home,"Jl. Menteng XXIII Gg. 2 No.17B, Menteng, Kec. Jekan Raya, Kota Palangka Raya, Kalimantan Tengah 73111","Menteng, Kec. Jekan Raya, Kota Palangka Raya",KALIMANTAN TENGAH,73111.0,Indonesia,,,,-2.2283099,113.9035231,https://maps.google.com/?cid=0x0:0x8db5e8edb4b19ed5,
komplek housing,Komplek perumahan,"Rumah Ika Chandra, SE","Jl. G. Obos VIII No.B7 No.05, Menteng, Kec. Jekan Raya, Kota Palangka Raya, Kalimantan Tengah 73111","Menteng, Kec. Jekan Raya, Kota Palangka Raya",KALIMANTAN TENGAH,73111.0,Indonesia,,,,-2.2386241,113.897793,https://maps.google.com/?cid=0x0:0xd431b348904d88c9,
komplek housing,Pembangunan Perumahan,Rumah Qur'an,"Jl. Tingang XXVIII No.33, Palangka, Kec. Jekan Raya, Kota Palangka Raya, Kalimantan Tengah 73111","Palangka, Kec. Jekan Raya, Kota Palangka Raya",KALIMANTAN TENGAH,73111.0,Indonesia,,,,-2.2143159,113.8627792,https://maps.google.com/?cid=0x0:0xca7eb876ce9f507d,
komplek housing,Komplek perumahan,Io house,"Jl. Kakaktua No.09, Palangka, Kec. Jekan Raya, Kota Palangka Raya, Kalimantan Tengah 73111","Palangka, Kec. Jekan Raya, Kota Palangka Raya",KALIMANTAN TENGAH,73111.0,Indonesia,,,,-2.1955597,113.8974339,https://maps.google.com/?cid=0x0:0x53c25aa5c96d0b94,
komplek housing,Komplek perumahan,Perumahan Arum blok 1,"QW6F+HMG, Jl. p. Junjung Buih III B, Langkai, Kec. Pahandut, Kota Palangka Raya, Kalimantan Tengah 73111","Jl. p. Junjung Buih III B, Langkai, Kec. Pahandut, Kota Palangka Raya",KALIMANTAN TENGAH,73111.0,Indonesia,,,,-2.2385723,113.9241925,https://maps.google.com/?cid=0x0:0x1dd5dbd04a20f09b,
komplek housing,Komplek perumahan,Ziyan's home,"Jl.Keranggan XIV Perumahan Griya Azna Permata No.33 BLOK 3, Panarung, Kec. Pahandut, Kota Palangka Raya, Kalimantan Tengah 73111","Panarung, Kec. Pahandut, Kota Palangka Raya",KALIMANTAN TENGAH,73111.0,Indonesia,,,,-2.2331995,113.9389086,https://maps.google.com/?cid=0x0:0xd8fd3996d00e3df6,
komplek housing,Komplek perumahan,Iyus (Bp Oni),"Perum Citra Mandiri Residence PT, Jl. Poncowati Agung CMDP Tahap 1 No.Kav.73, RT.08/RW.XV, Panarung, Kec. Pahandut, Kota Palangka Raya, Kalimantan Tengah 73111","Jl. Poncowati Agung CMDP Tahap 1 No.Kav.73, RT.08/RW.XV, Panarung, Kec. Pahandut, Kota Palangka Raya",KALIMANTAN TENGAH,73111.0,Indonesia,,,,-2.2695425,113.9305146,https://maps.google.com/?cid=0x0:0x1f8d14aa9478f588,
komplek housing,Taman Kota,Bundaran Tingang,"Jalan Flora Permata Induk No.1, Palangka, Kec. Pahandut, Kota Palangka Raya, Kalimantan Tengah 73111","Palangka, Kec. Pahandut, Kota Palangka Raya",KALIMANTAN TENGAH,73111.0,Indonesia,,,,-2.2636207,113.9305095,https://maps.google.com/?cid=0x0:0xca780786c9356bd8,
komplek housing,Perumahan,Rumah Azka,"Jl. Badak XXII No.Blok A, Bukit Tunggal, Kec. Jekan Raya, Kota Palangka Raya, Kalimantan Tengah 73111","Bukit Tunggal, Kec. Jekan Raya, Kota Palangka Raya",KALIMANTAN TENGAH,73111.0,Indonesia,,,,-2.1913665,113.8766008,https://maps.google.com/?cid=0x0:0x7820c1d408b9bb1f,
komplek housing,Komplek perumahan,Abdulrahman,"Gg. Nusantara No.29, Langkai, Kec. Pahandut, Kota Palangka Raya, Kalimantan Tengah 73111","Langkai, Kec. Pahandut, Kota Palangka Raya",KALIMANTAN TENGAH,73111.0,Indonesia, 083841815059,,,-2.2078403,113.9304958,https://maps.google.com/?cid=0x0:0x7dc89fd0399bda58,
komplek housing,komplek housing,Rumah deni,"JL. Sangga Buana II, 93, Palangkaraya, 73111, Palangka, Kec. Jekan Raya, Kota Palangka Raya, Kalimantan Tengah 74874","Palangkaraya,",KALIMANTAN TENGAH,73111.0,Indonesia,,,,-2.2006581,113.9043171,https://maps.google.com/?cid=0x0:0x30a31748eb723757,
komplek housing,Komplek perumahan,Mr. C,"Jl. Tamanggung Tilung VI No.17c, Menteng, Kec. Jekan Raya, Kota Palangka Raya, Kalimantan Tengah 73111","Menteng, Kec. Jekan Raya, Kota Palangka Raya",KALIMANTAN TENGAH,73111.0,Indonesia,,,,-2.2334933,113.9139416,https://maps.google.com/?cid=0x0:0xf4d4297e2ea712b7,
komplek housing,Pembangunan Perumahan,Junaidi Home Palangkaraya,"QW6V+9MC, Jl. Meranti III, Panarung, Kec. Pahandut, Kota Palangka Raya, Kalimantan Tengah 73111","Jl. Meranti III, Panarung, Kec. Pahandut, Kota Palangka Raya",KALIMANTAN TENGAH,73111.0,Indonesia,,,,-2.2390531,113.9441553,https://maps.google.com/?cid=0x0:0x6125080ef97debcd,
komplek housing,Perhimpunan Pengembang Perumahan,Rumah Temanggung Kanyapi No. 2,"Jl. Temanggung Kanyapi I No.2, Langkai, Kec. Pahandut, Kota Palangka Raya, Kalimantan Tengah 73111","Langkai, Kec. Pahandut, Kota Palangka Raya",KALIMANTAN TENGAH,73111.0,Indonesia, 085163225682,,,-2.2377958,113.9291943,https://maps.google.com/?cid=0x0:0x16f3b573ae516c64,
komplek housing,Pembangunan Perumahan,Barak Sunda,"komp Babussalam, Jl. Meranti No.66, Panarung, Kec. Pahandut, Kota Palangka Raya, Kalimantan Tengah 73111","Jl. Meranti No.66, Panarung, Kec. Pahandut, Kota Palangka Raya",KALIMANTAN TENGAH,73111.0,Indonesia,,,,-2.2252923,113.9389645,https://maps.google.com/?cid=0x0:0xc62e6e7c2f7ae6fa,
komplek housing,Komplek perumahan,Rumah Caroline,"Jl. Aries No.Kav. A/11, Menteng, Kec. Jekan Raya, Kota Palangka Raya, Kalimantan Tengah 73111","Menteng, Kec. Jekan Raya, Kota Palangka Raya",KALIMANTAN TENGAH,73111.0,Indonesia,,,,-2.2208884,113.9038997,https://maps.google.com/?cid=0x0:0x803826354a4c9cc1,
komplek housing,Komplek perumahan,Junaidi Home Palangkaraya,"Jl. Demak No.22, Panarung, Kec. Pahandut, Kota Palangka Raya, Kalimantan Tengah 73111","Panarung, Kec. Pahandut, Kota Palangka Raya",KALIMANTAN TENGAH,73111.0,Indonesia,,,,-2.2346963,113.9429045,https://maps.google.com/?cid=0x0:0x766960468516069,
komplek housing,Pembangunan Perumahan,Dekur,"Jl. Damang Leman II No.21, Menteng, Kec. Jekan Raya, Kota Palangka Raya, Kalimantan Tengah 73111","Menteng, Kec. Jekan Raya, Kota Palangka Raya",KALIMANTAN TENGAH,73111.0,Indonesia,,,,-2.2135223,113.9156767,https://maps.google.com/?cid=0x0:0xf27ee65c0208090f,
komplek housing,komplek housing,Kalimantan Tengah 73112,"Bukit Tunggal, Kec. Jekan Raya, Kota Palangka Raya, Kalimantan Tengah","Kota Palangka Raya, Kalimantan Tengah",KALIMANTAN TENGAH,,Indonesia,,,,-2.1933111,113.8886973,https://maps.google.com/?cid=0x0:0x57b4a29625d97d46,
komplek housing,Komplek perumahan,Rumah,"Jl. Tingang No.71, Palangka, Kec. Jekan Raya, Kota Palangka Raya, Kalimantan Tengah 74874","Palangka, Kec. Jekan Raya, Kota Palangka Raya",KALIMANTAN TENGAH,74874.0,Indonesia,,,,-2.192403,113.8905525,https://maps.google.com/?cid=0x0:0x92b1711581b02eff,
komplek housing,Komplek perumahan,perumahan,"Jl. Temanggung Tilung 12 No.39, Menteng, Kec. Jekan Raya, Kota Palangka Raya, Kalimantan Tengah 74874","Menteng, Kec. Jekan Raya, Kota Palangka Raya",KALIMANTAN TENGAH,74874.0,Indonesia,,,,-2.2305367,113.9127339,https://maps.google.com/?cid=0x0:0x2c8477fca6d6d12,
komplek housing,Pembangunan Perumahan,Alamat,"Jl. Bapuyu No.14, Bukit Tunggal, Kec. Jekan Raya, Kota Palangka Raya, Kalimantan Tengah 74874","Bukit Tunggal, Kec. Jekan Raya, Kota Palangka Raya",KALIMANTAN TENGAH,74874.0,Indonesia, 081255268384,,,-2.1813588,113.8709236,https://maps.google.com/?cid=0x0:0x3b3adbaf58fc7d0,
komplek housing,Jasa Konstruksi dan Bangunan,WALET PAK WAHONO,"RV4Q+V9R, Jl. Tingang IV, Palangka, Kec. Jekan Raya, Kota Palangka Raya, Kalimantan Tengah 74874","Jl. Tingang IV, Palangka, Kec. Jekan Raya, Kota Palangka Raya",KALIMANTAN TENGAH,74874.0,Indonesia,,,,-2.1927736,113.8884046,https://maps.google.com/?cid=0x0:0xcdd2328f4db4b775,
komplek housing,Komplek perumahan,SANJAYA,"Jl. Tingang No.20 F, Bukit Tunggal, Kec. Jekan Raya, Kota Palangka Raya, Kalimantan Tengah 74874","Bukit Tunggal, Kec. Jekan Raya, Kota Palangka Raya",KALIMANTAN TENGAH,74874.0,Indonesia,,,,-2.1922933,113.8906661,https://maps.google.com/?cid=0x0:0x9b9b14d450a5d6b1,
komplek housing,Komplek perumahan,Perumahan Casadova,"QV8Q+XJQ, Jl. G. Obos 16, Menteng, Kec. Jekan Raya, Kota Palangka Raya, Kalimantan Tengah 74874","Jl. G. Obos 16, Menteng, Kec. Jekan Raya, Kota Palangka Raya",KALIMANTAN TENGAH,74874.0,Indonesia,,,,-2.2325335,113.8891233,https://maps.google.com/?cid=0x0:0x3b76fe37e1b6b981,
komplek housing,Komplek perumahan,Rumah Rio,"Jl. Rajawali V No.22, Bukit Tunggal, Kec. Jekan Raya, Kota Palangka Raya, Kalimantan Tengah 74874","Bukit Tunggal, Kec. Jekan Raya, Kota Palangka Raya",KALIMANTAN TENGAH,74874.0,Indonesia,,,,-2.1912222,113.8885299,https://maps.google.com/?cid=0x0:0x4e355481dbdcb818,
komplek housing,Komplek perumahan,Rumah Om Leon,"Jl. Tingang IV A No.02, Bukit Tunggal, Kec. Jekan Raya, Kota Palangka Raya, Kalimantan Tengah 74874","Bukit Tunggal, Kec. Jekan Raya, Kota Palangka Raya",KALIMANTAN TENGAH,74874.0,Indonesia,,,,-2.1931531,113.8889477,https://maps.google.com/?cid=0x0:0xceb896a13e0d1567,
komplek housing,Pembangunan Perumahan,Perumahan Manazil 12,"VR2H+86R, Bukit Tunggal, Kec. Jekan Raya, Kota Palangka Raya, Kalimantan Tengah 73113","Bukit Tunggal, Kec. Jekan Raya, Kota Palangka Raya",KALIMANTAN TENGAH,73113.0,Indonesia, 082251745555,,,-2.1491486,113.8280239,https://maps.google.com/?cid=0x0:0x536c07b6b87ecd85,
komplek housing,Komplek perumahan,Rumah Orang Tua,"Jl. Rajawali III No.28, Bukit Tunggal, Kec. Jekan Raya, Kota Palangka Raya, Kalimantan Tengah 74874","Bukit Tunggal, Kec. Jekan Raya, Kota Palangka Raya",KALIMANTAN TENGAH,74874.0,Indonesia,,,,-2.1921494,113.8893943,https://maps.google.com/?cid=0x0:0x4d90574b88b4706e,
komplek housing,Komplek perumahan,DE HOLLAND RESIDENCE,"PW3G+PJ6, Sabaru, Kec. Sebangau, Kota Palangka Raya, Kalimantan Tengah","Kota Palangka Raya, Kalimantan Tengah",KALIMANTAN TENGAH,,Indonesia,,,,-2.2957123,113.9265177,https://maps.google.com/?cid=0x0:0xac46fa3964db53e5,
komplek housing,Komplek perumahan,Perumahan Casadova Indah Permai by CV.Kelvin Berkah Mandiri,"RRRJ+69X, Bukit Tunggal, Kec. Jekan Raya, Kota Palangka Raya, Kalimantan Tengah 74874","Bukit Tunggal, Kec. Jekan Raya, Kota Palangka Raya",KALIMANTAN TENGAH,74874.0,Indonesia, 085246677999,,,-2.1593886,113.830999,https://maps.google.com/?cid=0x0:0x721dd53f43e7bb42,
komplek housing,Pembangunan Perumahan,Gerhard gere,"Jl. Tingang IV No.4, Bukit Tunggal, Kec. Jekan Raya, Kota Palangka Raya, Kalimantan Tengah 74874","Bukit Tunggal, Kec. Jekan Raya, Kota Palangka Raya",KALIMANTAN TENGAH,74874.0,Indonesia,,,,-2.19324,113.8891234,https://maps.google.com/?cid=0x0:0xb8ed392e864fd4a2,
komplek housing,Komplek perumahan,No.01 garuda Xa,"QVXR+9XX, Jl. Garuda X A, Palangka, Kec. Jekan Raya, Kota Palangka Raya, Kalimantan Tengah 74874","Jl. Garuda X A, Palangka, Kec. Jekan Raya, Kota Palangka Raya",KALIMANTAN TENGAH,74874.0,Indonesia,,,,-2.2015083,113.8924932,https://maps.google.com/?cid=0x0:0x3cbabfc808426856,
komplek housing,komplek housing,Kec. Jekan Raya,"Kota Palangka Raya, Kalimantan Tengah","Kota Palangka Raya, Kalimantan Tengah",KALIMANTAN TENGAH,,Indonesia,,,,-2.2135468,113.9059149,https://maps.google.com/?cid=0x0:0x8cf48f9eeb1007b3,
komplek housing,Pembangunan Perumahan,YG7SUP INDIA INDIA,"Jl. Pelatuk III No.86, Palangka, Kec. Jekan Raya, Kota Palangka Raya, Kalimantan Tengah 73112","Palangka, Kec. Jekan Raya, Kota Palangka Raya",KALIMANTAN TENGAH,73112.0,Indonesia,,,,-2.193166,113.9070065,https://maps.google.com/?cid=0x0:0x335b40dd104cdb2e,
komplek housing,Perumahan,The Hosang,"JL. Semeru. 05, Palangkaraya, 73112, Palangka, Kec. Jekan Raya, Kota Palangka Raya, Kalimantan Tengah 74874","Palangkaraya,",KALIMANTAN TENGAH,73112.0,Indonesia,,,,-2.208466,113.9093939,https://maps.google.com/?cid=0x0:0xa2fcc20dd6f4b553,
komplek housing,,Rumah Pribadi,"Jl. Batu Suli I No.35 D, RT.01/RW.015, Palangka, Kec. Jekan Raya, Kota Palangka Raya, Kalimantan Tengah 73112","RT.01/RW.015, Palangka, Kec. Jekan Raya, Kota Palangka Raya",KALIMANTAN TENGAH,73112.0,Indonesia,,,,-2.2110546,113.9030513,https://maps.google.com/?cid=0x0:0x5c58d1f9ad29fc3a,
komplek housing,Pura,Komplek pura,"QWV5+RR4, Jl. Kinibalu, Palangka, Kec. Jekan Raya, Kota Palangka Raya, Kalimantan Tengah 74874","Jl. Kinibalu, Palangka, Kec. Jekan Raya, Kota Palangka Raya",KALIMANTAN TENGAH,74874.0,Indonesia,,,,-2.2054864,113.9095818,https://maps.google.com/?cid=0x0:0x4dfdd3c8f0da3d51,
komplek housing,Komplek perumahan,imade の家,"Jl. Sejati Raya No.190, Menteng, Kec. Jekan Raya, Kota Palangka Raya, Kalimantan Tengah 73112","Menteng, Kec. Jekan Raya, Kota Palangka Raya",KALIMANTAN TENGAH,73112.0,Indonesia,,,,-2.2355092,113.8987957,https://maps.google.com/?cid=0x0:0x4a632c4fb118e604,
komplek housing,Komplek perumahan,Fathan house,"Jl. G. Obos XII Jl. Nilam I No.5, Menteng, Kec. Jekan Raya, Kota Palangka Raya, Kalimantan Tengah 73112","Menteng, Kec. Jekan Raya, Kota Palangka Raya",KALIMANTAN TENGAH,73112.0,Indonesia,,,,-2.2277802,113.8861294,https://maps.google.com/?cid=0x0:0x4868b49a2a9180ca,
komplek housing,Komplek perumahan,Perumahan Bumi Palangka 3,"Jl. Sempati Raya, Bukit Tunggal, Kec. Jekan Raya, Kota Palangka Raya, Kalimantan Tengah 74874","Bukit Tunggal, Kec. Jekan Raya, Kota Palangka Raya",KALIMANTAN TENGAH,74874.0,Indonesia,,,,-2.1731459,113.8545638,https://maps.google.com/?cid=0x0:0x2ed4f9680f8739d6,
komplek housing,Pembangunan Perumahan,Perumahan Keraton Residence,"PWP3+8CX, Jl. Kalibata VIII, Menteng, Kec. Jekan Raya, Kota Palangka Raya, Kalimantan Tengah 73112","Jl. Kalibata VIII, Menteng, Kec. Jekan Raya, Kota Palangka Raya",KALIMANTAN TENGAH,73112.0,Indonesia,,,,-2.2641257,113.9036095,https://maps.google.com/?cid=0x0:0x8d6de2453a6c078a,
komplek housing,Komplek perumahan,My home,"Jl. Muda Karya No.15, Bukit Tunggal, Kec. Jekan Raya, Kota Palangka Raya, Kalimantan Tengah 73112","Bukit Tunggal, Kec. Jekan Raya, Kota Palangka Raya",KALIMANTAN TENGAH,73112.0,Indonesia,,,,-2.1793877,113.8747405,https://maps.google.com/?cid=0x0:0x13a59d581909bff,
komplek housing,Komplek perumahan,WR Home,"Jl. Jatayu Raya II No.71, Bukit Tunggal, Kec. Jekan Raya, Kota Palangka Raya, Kalimantan Tengah 73112","Bukit Tunggal, Kec. Jekan Raya, Kota Palangka Raya",KALIMANTAN TENGAH,73112.0,Indonesia, 089692402940,,,-2.1708925,113.8523356,https://maps.google.com/?cid=0x0:0x124599c6da6706a3,
komplek housing,komplek housing,Gemintang House,"Jl. Hiu Putih X No.4a, Bukit Tunggal, Kec. Jekan Raya, Kota Palangka Raya, Kalimantan Tengah 73112","Bukit Tunggal, Kec. Jekan Raya, Kota Palangka Raya",KALIMANTAN TENGAH,73112.0,Indonesia,,,,-2.1830127,113.8664658,https://maps.google.com/?cid=0x0:0x6dd751e362d94ced,
komplek housing,Komplek perumahan,Rumah Rayya,"Jl. Jatayu IV No.211, Bukit Tunggal, Kec. Jekan Raya, Kota Palangka Raya, Kalimantan Tengah 73112","Bukit Tunggal, Kec. Jekan Raya, Kota Palangka Raya",KALIMANTAN TENGAH,73112.0,Indonesia,,,,-2.1733798,113.8522084,https://maps.google.com/?cid=0x0:0x6d70105f234e5b36,
komplek housing,Pembangunan Perumahan,Rumah Bani Bi-Sri,"Jl. Bukit Keminting No.13, Bukit Tunggal, Kec. Jekan Raya, Kota Palangka Raya, Kalimantan Tengah 73112","Bukit Tunggal, Kec. Jekan Raya, Kota Palangka Raya",KALIMANTAN TENGAH,73112.0,Indonesia,,,,-2.1675176,113.8588761,https://maps.google.com/?cid=0x0:0x26471e3879693f24,
komplek housing,komplek housing,Kec. Jekan Raya,"Kota Palangka Raya, Kalimantan Tengah","Kota Palangka Raya, Kalimantan Tengah",KALIMANTAN TENGAH,,Indonesia,,,,-2.2135468,113.9059149,https://maps.google.com/?cid=0x0:0x8cf48f9eeb1007b3,
komplek housing,Pembangunan Perumahan,Komplek Perumahan Bangas Permai,"Menteng, Kec. Jekan Raya, Kota Palangka Raya, Kalimantan Tengah 73112","Kec. Jekan Raya, Kota Palangka Raya",KALIMANTAN TENGAH,73112.0,Indonesia, 081254980500,,,-2.2442326,113.9156576,https://maps.google.com/?cid=0x0:0x4258eff42569ff95,
komplek housing,Pembangunan Perumahan,Alamat,"Jl. Bapuyu No.14, Bukit Tunggal, Kec. Jekan Raya, Kota Palangka Raya, Kalimantan Tengah 74874","Bukit Tunggal, Kec. Jekan Raya, Kota Palangka Raya",KALIMANTAN TENGAH,74874.0,Indonesia, 081255268384,,,-2.1813588,113.8709236,https://maps.google.com/?cid=0x0:0x3b3adbaf58fc7d0,
komplek housing,Pembangunan Perumahan,Perumahan palem asri,"Jln palem asri No.km 11 5, Palangka, Kec. Jekan Raya, Kota Palangka Raya, Kalimantan Tengah 73113","Palangka, Kec. Jekan Raya, Kota Palangka Raya",KALIMANTAN TENGAH,73113.0,Indonesia,,,,-2.2048417,113.908344,https://maps.google.com/?cid=0x0:0xa3a0851ae0541722,
komplek housing,Komplek perumahan,No.01 garuda Xa,"QVXR+9XX, Jl. Garuda X A, Palangka, Kec. Jekan Raya, Kota Palangka Raya, Kalimantan Tengah 74874","Jl. Garuda X A, Palangka, Kec. Jekan Raya, Kota Palangka Raya",KALIMANTAN TENGAH,74874.0,Indonesia,,,,-2.2015083,113.8924932,https://maps.google.com/?cid=0x0:0x3cbabfc808426856,
komplek housing,Komplek perumahan,perumahan,"Jl. Temanggung Tilung 12 No.39, Menteng, Kec. Jekan Raya, Kota Palangka Raya, Kalimantan Tengah 74874","Menteng, Kec. Jekan Raya, Kota Palangka Raya",KALIMANTAN TENGAH,74874.0,Indonesia,,,,-2.2305367,113.9127339,https://maps.google.com/?cid=0x0:0x2c8477fca6d6d12,
komplek housing,Komplek perumahan,"Perum KALINGU I UNKRIP, Rta Milono Km 8,5 Palangka Raya","PW7C+WGX, Jl. Kalingu 1, Sabaru, Kec. Sebangau, Kota Palangka Raya, Kalimantan Tengah 74874","Jl. Kalingu 1, Sabaru, Kec. Sebangau, Kota Palangka Raya",KALIMANTAN TENGAH,74874.0,Indonesia,,,,-2.2851271,113.9213457,https://maps.google.com/?cid=0x0:0x48f5c4ddbebd3617,
komplek housing,komplek housing,Kalimantan Tengah 73111,"Panarung, Kec. Pahandut, Kota Palangka Raya, Kalimantan Tengah","Kota Palangka Raya, Kalimantan Tengah",KALIMANTAN TENGAH,,Indonesia,,,,-2.2331773,113.9388982,https://maps.google.com/?cid=0x0:0x16569ec2240fc1af,
komplek housing,Komplek perumahan,"Palangkaraya, Kalimantan Tengah ,kec:pahandut","QX37+X4J, Panarung, Kec. Pahandut, Kota Palangka Raya, Kalimantan Tengah 74874","Panarung, Kec. Pahandut, Kota Palangka Raya",KALIMANTAN TENGAH,74874.0,Indonesia,,,,-2.2450491,113.9627524,https://maps.google.com/?cid=0x0:0x59c8342ec32531ea,
komplek housing,Komplek perumahan,UCHIE HousE,"QW8R+WPX, Jl. Majapahit, Panarung, Kec. Pahandut, Kota Palangka Raya, Kalimantan Tengah 74874","Jl. Majapahit, Panarung, Kec. Pahandut, Kota Palangka Raya",KALIMANTAN TENGAH,74874.0,Indonesia, 082350436123,,,-2.2326419,113.9418449,https://maps.google.com/?cid=0x0:0xcea273576eab7a5,
komplek housing,Komplek perumahan,Ziyan's home,"Jl.Keranggan XIV Perumahan Griya Azna Permata No.33 BLOK 3, Panarung, Kec. Pahandut, Kota Palangka Raya, Kalimantan Tengah 73111","Panarung, Kec. Pahandut, Kota Palangka Raya",KALIMANTAN TENGAH,73111.0,Indonesia,,,,-2.2331995,113.9389086,https://maps.google.com/?cid=0x0:0xd8fd3996d00e3df6,
komplek housing,Pembangunan Perumahan,Rumah Okta,"QX56+95C, Panarung, Kec. Pahandut, Kota Palangka Raya, Kalimantan Tengah 74874","Panarung, Kec. Pahandut, Kota Palangka Raya",KALIMANTAN TENGAH,74874.0,Indonesia,,,,-2.2415612,113.9604025,https://maps.google.com/?cid=0x0:0xd198ec6b77e66844,
komplek housing,Pembangunan Perumahan,Mas one'to,"Jl. Karanggan, Panarung, Kec. Pahandut, Kota Palangka Raya, Kalimantan Tengah 74874","Panarung, Kec. Pahandut, Kota Palangka Raya",KALIMANTAN TENGAH,74874.0,Indonesia, 085249586896,,,-2.245835,113.9587786,https://maps.google.com/?cid=0x0:0x5c43f9f46e7603cc,
komplek housing,Komplek perumahan,Intan's Houses,"QX27+5P7, Jl. Karanggan, Panarung, Kec. Pahandut, Kota Palangka Raya, Kalimantan Tengah 74874","Jl. Karanggan, Panarung, Kec. Pahandut, Kota Palangka Raya",KALIMANTAN TENGAH,74874.0,Indonesia,,,,-2.2493504,113.9643822,https://maps.google.com/?cid=0x0:0x567cd84e36a0847c,
komplek housing,Kantor Perusahaan,PERUMAHAM KOMPLEK BANDAR ESTATE,"PWXW+G9W, jl.adornisamad, Panarung, Kec. Pahandut, Kota Palangka Raya, Kalimantan Tengah 74874","jl.adornisamad, Panarung, Kec. Pahandut, Kota Palangka Raya",KALIMANTAN TENGAH,74874.0,Indonesia,,,,-2.2511405,113.9459562,https://maps.google.com/?cid=0x0:0xc429ca6a3bfdc593,
komplek housing,Komplek perumahan,PERUMAHAN H.A.K.A,"Jl. Lamtoro Gung Jl. Haka 31 No.1375, Panarung, Kec. Pahandut, Kota Palangka Raya, Kalimantan Tengah 73111","Panarung, Kec. Pahandut, Kota Palangka Raya",KALIMANTAN TENGAH,73111.0,Indonesia, 082265595797,,,-2.2569716,113.9410239,https://maps.google.com/?cid=0x0:0x6fcb0d5351634df0,
komplek housing,Komplek perumahan,Perumahan,"PXR7+4PJ, Panarung, Kec. Pahandut, Kota Palangka Raya, Kalimantan Tengah 74874","Panarung, Kec. Pahandut, Kota Palangka Raya",KALIMANTAN TENGAH,74874.0,Indonesia,,,,-2.259654,113.9642612,https://maps.google.com/?cid=0x0:0xdb419dc7e9e7ac07,
komplek housing,Pembangunan Perumahan,Rumah Hamzah,"Jl. Pinus Permai II No.33, Panarung, Kec. Pahandut, Kota Palangka Raya, Kalimantan Tengah 74874","Panarung, Kec. Pahandut, Kota Palangka Raya",KALIMANTAN TENGAH,74874.0,Indonesia,,,,-2.2329646,113.9370513,https://maps.google.com/?cid=0x0:0x95710be75d3e0083,
komplek housing,Otoritas Perumahan,Perumahan loh jinawi,"Jl. Sawang Raya No.I B, Panarung, Kec. Pahandut, Kota Palangka Raya, Kalimantan Tengah 74874","Panarung, Kec. Pahandut, Kota Palangka Raya",KALIMANTAN TENGAH,74874.0,Indonesia,,,,-2.2502608,113.9579489,https://maps.google.com/?cid=0x0:0xa5706a7421c8dd2d,
komplek housing,Komplek perumahan,Naila dan Tara,"QX24+8H4, Jl. Sawang Raya, Panarung, Kec. Pahandut, Kota Palangka Raya, Kalimantan Tengah 74874","Jl. Sawang Raya, Panarung, Kec. Pahandut, Kota Palangka Raya",KALIMANTAN TENGAH,74874.0,Indonesia,,,,-2.2492387,113.956447,https://maps.google.com/?cid=0x0:0xa0b4c0b858bff2fc,
komplek housing,Komplek perumahan,Junaidi Home Palangkaraya,"Jl. Demak No.22, Panarung, Kec. Pahandut, Kota Palangka Raya, Kalimantan Tengah 73111","Panarung, Kec. Pahandut, Kota Palangka Raya",KALIMANTAN TENGAH,73111.0,Indonesia,,,,-2.2346963,113.9429045,https://maps.google.com/?cid=0x0:0x766960468516069,
komplek housing,Komplek perumahan,RUMAHKENZO,"QW2X+Q2V, Jl. Adonis Samad, Panarung, Kec. Pahandut, Kota Palangka Raya, Kalimantan Tengah 74874","Jl. Adonis Samad, Panarung, Kec. Pahandut, Kota Palangka Raya",KALIMANTAN TENGAH,74874.0,Indonesia,,,,-2.2481062,113.9482645,https://maps.google.com/?cid=0x0:0x865899810a6d64cc,
komplek housing,Komplek perumahan,Perumahan Cassadova Tahap 2,"PWJX+W3W, Panarung, Kec. Pahandut, Kota Palangka Raya, Kalimantan Tengah 74874","Panarung, Kec. Pahandut, Kota Palangka Raya",KALIMANTAN TENGAH,74874.0,Indonesia,,,,-2.2676473,113.9477113,https://maps.google.com/?cid=0x0:0xa15f2cbe0f47af9d,
komplek housing,Komplek perumahan,Mei's house,"Jl. Majapahit No.A09, Panarung, Kec. Pahandut, Kota Palangka Raya, Kalimantan Tengah 74874","Panarung, Kec. Pahandut, Kota Palangka Raya",KALIMANTAN TENGAH,74874.0,Indonesia,,,,-2.2338128,113.9417523,https://maps.google.com/?cid=0x0:0xadaf34f7b2a0476d,
komplek housing,Pembangunan Perumahan,Junaidi Home Palangkaraya,"QW6V+9MC, Jl. Meranti III, Panarung, Kec. Pahandut, Kota Palangka Raya, Kalimantan Tengah 73111","Jl. Meranti III, Panarung, Kec. Pahandut, Kota Palangka Raya",KALIMANTAN TENGAH,73111.0,Indonesia,,,,-2.2390531,113.9441553,https://maps.google.com/?cid=0x0:0x6125080ef97debcd,
komplek housing,Komplek perumahan,Rumah eca fonhe,"Jl. Jati Raya II No.20, Panarung, Kec. Pahandut, Kota Palangka Raya, Kalimantan Tengah 73111","Panarung, Kec. Pahandut, Kota Palangka Raya",KALIMANTAN TENGAH,73111.0,Indonesia,,,,-2.2380348,113.9406919,https://maps.google.com/?cid=0x0:0x8a4d4316438ba31b,
komplek housing,Komplek perumahan,HOMEALIZA,"QX36+HFH, Panarung, Kec. Pahandut, Kota Palangka Raya, Kalimantan Tengah 74874","Panarung, Kec. Pahandut, Kota Palangka Raya",KALIMANTAN TENGAH,74874.0,Indonesia,,,,-2.2460542,113.9612189,https://maps.google.com/?cid=0x0:0xbe9236274a874004,
komplek housing,Pembangunan Perumahan,Perumahan Griya ALTA,"QX57+MFG, Jl. Bangaris, Panarung, Kec. Pahandut, Kota Palangka Raya, Kalimantan Tengah 74874","Jl. Bangaris, Panarung, Kec. Pahandut, Kota Palangka Raya",KALIMANTAN TENGAH,74874.0,Indonesia,,,,-2.2412406,113.9647275,https://maps.google.com/?cid=0x0:0x66e06dca57e6e1da,
komplek housing,Pembangunan Perumahan,Rumah Nini Rio,"Jl. Tenggaring No.21, Panarung, Kec. Pahandut, Kota Palangka Raya, Kalimantan Tengah 74874","Panarung, Kec. Pahandut, Kota Palangka Raya",KALIMANTAN TENGAH,74874.0,Indonesia,,,,-2.2340987,113.9369328,https://maps.google.com/?cid=0x0:0xc24a4c9e6e08fbf9,
komplek housing,Komplek perumahan,Komplek Palangkasari,"QWRQ+R69, Jl. Darmosugondo, Pahandut, Kec. Pahandut, Kota Palangka Raya, Kalimantan Tengah 74874","Jl. Darmosugondo, Pahandut, Kec. Pahandut, Kota Palangka Raya",KALIMANTAN TENGAH,74874.0,Indonesia,,,,-2.207958,113.9380994,https://maps.google.com/?cid=0x0:0x9909055182efdfb3,
komplek housing,komplek housing,Kec. Pahandut,"Kota Palangka Raya, Kalimantan Tengah","Kota Palangka Raya, Kalimantan Tengah",KALIMANTAN TENGAH,,Indonesia,,,,-2.2079428,113.9380688,https://maps.google.com/?cid=0x0:0x4f92e35b109fbb6e,
komplek housing,Otoritas Perumahan,Palangkaraya,"Gg. Sari No.18, RT.04/RW.IX, Pahandut, Kec. Pahandut, Kota Palangka Raya, Kalimantan Tengah 73111","RT.04/RW.IX, Pahandut, Kec. Pahandut, Kota Palangka Raya",KALIMANTAN TENGAH,73111.0,Indonesia,,,,-2.207606,113.94326,https://maps.google.com/?cid=0x0:0x959c8b387f9d4249,
komplek housing,Komplek perumahan,Rumah Cecel,"Jl. Haka 9 No.350, Panarung, Kec. Pahandut, Kota Palangka Raya, Kalimantan Tengah 73111","Panarung, Kec. Pahandut, Kota Palangka Raya",KALIMANTAN TENGAH,73111.0,Indonesia,,,,-2.2647565,113.9375287,https://maps.google.com/?cid=0x0:0x5cd866e65795cf79,
komplek housing,Pembangunan Perumahan,NhanaAirin,"Jl. Lamtoro Gung Jl. Bhayangkara 6 No.744, Panarung, Kec. Pahandut, Kota Palangka Raya, Kalimantan Tengah 73111","Panarung, Kec. Pahandut, Kota Palangka Raya",KALIMANTAN TENGAH,73111.0,Indonesia,,,,-2.260535,113.9383909,https://maps.google.com/?cid=0x0:0xf8ad856300a7e7fb,
komplek housing,Komplek perumahan,Perumahan Arum blok 1,"QW6F+HMG, Jl. p. Junjung Buih III B, Langkai, Kec. Pahandut, Kota Palangka Raya, Kalimantan Tengah 73111","Jl. p. Junjung Buih III B, Langkai, Kec. Pahandut, Kota Palangka Raya",KALIMANTAN TENGAH,73111.0,Indonesia,,,,-2.2385723,113.9241925,https://maps.google.com/?cid=0x0:0x1dd5dbd04a20f09b,
komplek housing,Komplek perumahan,Komplek Perumahan Keluarga,"QW7C+3HF, RT.003/RW.013, Langkai, Kec. Pahandut, Kota Palangka Raya, Kalimantan Tengah 73111","RT.003/RW.013, Langkai, Kec. Pahandut, Kota Palangka Raya",KALIMANTAN TENGAH,73111.0,Indonesia,,,,-2.2373231,113.9214161,https://maps.google.com/?cid=0x0:0xd6b3284c6f34c537,
komplek housing,komplek housing,Kalimantan Tengah 73227,"Kabupaten Gunung MAS, Kalimantan Tengah","Kabupaten Gunung MAS, Kalimantan Tengah",KALIMANTAN TENGAH,,Indonesia,,,,-1.5625835,113.6085612,https://maps.google.com/?cid=0x0:0xf52044d70ef4122c,
komplek housing,komplek housing,ABAH VIO,"7JXR+46, Petuk Barunai, Kec. Rakumpit, Kota Palangka Raya, Kalimantan Tengah","Kota Palangka Raya, Kalimantan Tengah",KALIMANTAN TENGAH,,Indonesia,,,,-1.7014673,113.6407153,https://maps.google.com/?cid=0x0:0xb61036fed8534b09,
komplek housing,Kantor Perusahaan,PERUMAHAM KOMPLEK BANDAR ESTATE,"PWXW+G9W, jl.adornisamad, Panarung, Kec. Pahandut, Kota Palangka Raya, Kalimantan Tengah 74874","jl.adornisamad, Panarung, Kec. Pahandut, Kota Palangka Raya",KALIMANTAN TENGAH,74874.0,Indonesia,,,,-2.2511405,113.9459562,https://maps.google.com/?cid=0x0:0xc429ca6a3bfdc593,
komplek housing,Komplek perumahan,Afdeling 5,"FF95+FQP, Bereng Jun, Kec. Manuhing, Kabupaten Gunung MAS, Kalimantan Tengah","Kabupaten Gunung MAS, Kalimantan Tengah",KALIMANTAN TENGAH,,Indonesia,,,,-1.5312876,113.4594553,https://maps.google.com/?cid=0x0:0x7fd11312deec6183,
komplek housing,Pembangunan Perumahan,Sekadau,"9CV7+7Q, Tewang Darayu, Kec. Pulau Malan, Kabupaten Katingan, Kalimantan Tengah","Kabupaten Katingan, Kalimantan Tengah",KALIMANTAN TENGAH,,Indonesia,,,,-1.6067836,113.4144321,https://maps.google.com/?cid=0x0:0x7b98fb328e99e017,
komplek housing,Perhimpunan Pengembang Perumahan,AFdeling 2,"FCRR+2X7, Bereng Jun, Kec. Manuhing, Kabupaten Gunung MAS, Kalimantan Tengah","Kabupaten Gunung MAS, Kalimantan Tengah",KALIMANTAN TENGAH,,Indonesia,,,,-1.5099642,113.4424089,https://maps.google.com/?cid=0x0:0x9559bca625271622,
komplek housing,Komplek perumahan,Perumahan Katimpun Resident,"Jl. AMD Jl. Tjilik Riwut No.Km. 10, Petuk Katimpun, Kec. Jekan Raya, Kota Palangka Raya, Kalimantan Tengah 73111","Petuk Katimpun, Kec. Jekan Raya, Kota Palangka Raya",KALIMANTAN TENGAH,73111.0,Indonesia,,,,-1.9108166,113.5619781,https://maps.google.com/?cid=0x0:0x3123852a67b348cd,
komplek housing,Komplek perumahan,Yoga Finanda,"GR52+2H, Sepang Simin, Kec. Sepang, Kabupaten Gunung MAS, Kalimantan Tengah 73227","Sepang Simin, Kec. Sepang, Kabupaten Gunung MAS",KALIMANTAN TENGAH,73227.0,Indonesia,,,,-1.4923783,113.8013874,https://maps.google.com/?cid=0x0:0x8add747afae562a,
komplek housing,Komplek perumahan,Gus.Rohmat,"H94X+RQR, Belawan Mulya, Kec. Manuhing, Kabupaten Gunung MAS, Kalimantan Tengah 74562","Belawan Mulya, Kec. Manuhing, Kabupaten Gunung MAS",KALIMANTAN TENGAH,74562.0,Indonesia,,,,-1.4428793,113.3993799,https://maps.google.com/?cid=0x0:0xa5d29a0eac119147,
komplek housing,Perhimpunan Pengembang Perumahan,Rakumpit,"8J4Q+868, Petuk Barunai, Kec. Rakumpit, Kota Palangka Raya, Kalimantan Tengah 73221","Petuk Barunai, Kec. Rakumpit, Kota Palangka Raya",KALIMANTAN TENGAH,73221.0,Indonesia,,,,-1.6942131,113.638075,https://maps.google.com/?cid=0x0:0x934b211b7cba0025,
komplek housing,komplek housing,Kec. Rakumpit,"Kota Palangka Raya, Kalimantan Tengah","Kota Palangka Raya, Kalimantan Tengah",KALIMANTAN TENGAH,,Indonesia,,,,-1.6942515,113.6380522,https://maps.google.com/?cid=0x0:0x42aedf8a5c1ec05a,
komplek housing,Perhimpunan Pengembang Perumahan,LISTANARA,"7J27+6H, Petuk Barunai, Kec. Rakumpit, Kota Palangka Raya, Kalimantan Tengah","Kota Palangka Raya, Kalimantan Tengah",KALIMANTAN TENGAH,,Indonesia,,,,-1.749272,113.613942,https://maps.google.com/?cid=0x0:0xca8f1cee8fe0aba2,
komplek housing,Rumah Makan,KEDAI BUNDA,"8J3Q+69, Petuk Barunai, Kec. Rakumpit, Kota Palangka Raya, Kalimantan Tengah","Kota Palangka Raya, Kalimantan Tengah",KALIMANTAN TENGAH,,Indonesia,,,,-1.696938,113.638438,https://maps.google.com/?cid=0x0:0xbab2e3c2419ba1a0,
komplek housing,Perhimpunan Pengembang Perumahan,Rakumpit,"8J4Q+868, Petuk Barunai, Kec. Rakumpit, Kota Palangka Raya, Kalimantan Tengah 73221","Petuk Barunai, Kec. Rakumpit, Kota Palangka Raya",KALIMANTAN TENGAH,73221.0,Indonesia,,,,-1.6942131,113.638075,https://maps.google.com/?cid=0x0:0x934b211b7cba0025,
komplek housing,Perhimpunan Pengembang Perumahan,LISTANARA,"7J27+6H, Petuk Barunai, Kec. Rakumpit, Kota Palangka Raya, Kalimantan Tengah","Kota Palangka Raya, Kalimantan Tengah",KALIMANTAN TENGAH,,Indonesia,,,,-1.749272,113.613942,https://maps.google.com/?cid=0x0:0xca8f1cee8fe0aba2,
komplek housing,Rumah Makan,KEDAI BUNDA,"8J3Q+69, Petuk Barunai, Kec. Rakumpit, Kota Palangka Raya, Kalimantan Tengah","Kota Palangka Raya, Kalimantan Tengah",KALIMANTAN TENGAH,,Indonesia,,,,-1.696938,113.638438,https://maps.google.com/?cid=0x0:0xbab2e3c2419ba1a0,
komplek housing,komplek housing,Kec. Rakumpit,"Kota Palangka Raya, Kalimantan Tengah","Kota Palangka Raya, Kalimantan Tengah",KALIMANTAN TENGAH,,Indonesia,,,,-1.6942515,113.6380522,https://maps.google.com/?cid=0x0:0x42aedf8a5c1ec05a,
komplek housing,Komplek perumahan,Perumahan Katimpun Resident,"Jl. AMD Jl. Tjilik Riwut No.Km. 10, Petuk Katimpun, Kec. Jekan Raya, Kota Palangka Raya, Kalimantan Tengah 73111","Petuk Katimpun, Kec. Jekan Raya, Kota Palangka Raya",KALIMANTAN TENGAH,73111.0,Indonesia,,,,-1.9108166,113.5619781,https://maps.google.com/?cid=0x0:0x3123852a67b348cd,
komplek housing,Perumahan,KATIMPUN RESIDENCE,"Gang AMD, Petuk Katimpun, Kec. Jekan Raya, Kota Palangka Raya, Kalimantan Tengah","Kota Palangka Raya, Kalimantan Tengah",KALIMANTAN TENGAH,,Indonesia, 085247219727,,,-2.1453837,113.8479026,https://maps.google.com/?cid=0x0:0x54926925cca3adc0,
komplek housing,komplek housing,Kalimantan Tengah 73113,Kalimantan Tengah,Kalimantan Tengah,KALIMANTAN TENGAH,,Indonesia,,,,-2.1235276,113.8822686,https://maps.google.com/?cid=0x0:0x86a571c6f87570f4,
komplek housing,Perumahan,Perumahan haing jaya,"VR89+QW3, Jl. Oreon, kasongan lama, Kec. Jekan Raya, Kota Palangka Raya, Kalimantan Tengah 73113","Jl. Oreon, kasongan lama, Kec. Jekan Raya, Kota Palangka Raya",KALIMANTAN TENGAH,73113.0,Indonesia,,,,-2.1331173,113.8197905,https://maps.google.com/?cid=0x0:0x3c5e87b98aad7e15,
komplek housing,Komplek perumahan,Perumahan Bumi Palangka 3,"Jl. Sempati Raya, Bukit Tunggal, Kec. Jekan Raya, Kota Palangka Raya, Kalimantan Tengah 74874","Bukit Tunggal, Kec. Jekan Raya, Kota Palangka Raya",KALIMANTAN TENGAH,74874.0,Indonesia,,,,-2.1731459,113.8545638,https://maps.google.com/?cid=0x0:0x2ed4f9680f8739d6,
komplek housing,Komplek perumahan,NGANGGI's House,"RVF5+VGP, Jl. Tangkalasa V, Bukit Tunggal, Kec. Jekan Raya, Kota Palangka Raya, Kalimantan Tengah 74874","Jl. Tangkalasa V, Bukit Tunggal, Kec. Jekan Raya, Kota Palangka Raya",KALIMANTAN TENGAH,74874.0,Indonesia,,,,-2.1752903,113.858815,https://maps.google.com/?cid=0x0:0x8dd20849f4d0c819,
komplek housing,Pembangunan Perumahan,Perumahan GRAHA RAFLESIA,"Jl. Raflesia IVB No.32, Petuk Katimpun, Kec. Jekan Raya, Kota Palangka Raya, Kalimantan Tengah 73113","Petuk Katimpun, Kec. Jekan Raya, Kota Palangka Raya",KALIMANTAN TENGAH,73113.0,Indonesia,,,,-2.1457861,113.8421476,https://maps.google.com/?cid=0x0:0x63b1677e8b469e1b,
komplek housing,Komplek perumahan,Komplek Perumahan Kameloh Jaya,"Komplek Perumahan Kameloh Jaya, Jl. Tjilik Riwut No.km 8, Bukit Tunggal, Kec. Jekan Raya, Kota Palangka Raya, Kalimantan Tengah","Kota Palangka Raya, Kalimantan Tengah",KALIMANTAN TENGAH,,Indonesia,,,,-2.1691236,113.8561544,https://maps.google.com/?cid=0x0:0x7e2ed87ad934d42a,
komplek housing,Pembangunan Perumahan,Komplek Kehutanan,"Jl. Badak No.1, Bukit Tunggal, Kec. Jekan Raya, Kota Palangka Raya, Kalimantan Tengah 74874","Bukit Tunggal, Kec. Jekan Raya, Kota Palangka Raya",KALIMANTAN TENGAH,74874.0,Indonesia, 08152118978,,,-2.180692,113.8823676,https://maps.google.com/?cid=0x0:0x733b0c1283bf472b,
komplek housing,Komplek perumahan,Cilla Home,"Jl. Tjilik Riwut No.KM-7, RW.8, Bukit Tunggal, Kec. Jekan Raya, Kota Palangka Raya, Kalimantan Tengah 74874","RW.8, Bukit Tunggal, Kec. Jekan Raya, Kota Palangka Raya",KALIMANTAN TENGAH,74874.0,Indonesia, 081348445002,,,-2.173815,113.855446,https://maps.google.com/?cid=0x0:0x1d4590961b61885b,
komplek housing,Pembangunan Perumahan,Perumahan Rizky Berkah Mandiri,"RRWX+9RP, Unnamed Road, Petuk Katimpun, Jekan Raya, Palangka Raya City, Central Kalimantan 73113","Unnamed Road, Petuk Katimpun, Jekan Raya, Palangka Raya City",KALIMANTAN TENGAH,73113.0,Indonesia,,,,-2.1540467,113.849573,https://maps.google.com/?cid=0x0:0x8beb5209d90308cc,
komplek housing,Tujuan Wisata,Kampung/Lewu Petuk Katimpun,"Petuk Katimpun, Kec. Jekan Raya, Kota Palangka Raya, Kalimantan Tengah 73113","Kec. Jekan Raya, Kota Palangka Raya",KALIMANTAN TENGAH,73113.0,Indonesia,,,,-2.1277243,113.8810677,https://maps.google.com/?cid=0x0:0x8a4b3961754ae0d3,
komplek housing,Komplek perumahan,Perumahan ketimpun permai,"VR5M+JR, Petuk Katimpun, Kec. Jekan Raya, Kota Palangka Raya, Kalimantan Tengah","Kota Palangka Raya, Kalimantan Tengah",KALIMANTAN TENGAH,,Indonesia,,,,-2.1409076,113.8345706,https://maps.google.com/?cid=0x0:0xad39ab54d22ca4d2,
komplek housing,Komplek perumahan,YUDINUS HOME,"Jl. Hiu Putih I skd No.02, Bukit Tunggal, Kec. Jekan Raya, Kota Palangka Raya, Kalimantan Tengah 74874","Bukit Tunggal, Kec. Jekan Raya, Kota Palangka Raya",KALIMANTAN TENGAH,74874.0,Indonesia,,,,-2.1720879,113.8651535,https://maps.google.com/?cid=0x0:0x5480396a0a5b188c,
komplek housing,Perumahan,Perumahan Telagasari,"Jl. Telaga Sari, Petuk Katimpun, Kec. Jekan Raya, Kota Palangka Raya, Kalimantan Tengah 74874","Petuk Katimpun, Kec. Jekan Raya, Kota Palangka Raya",KALIMANTAN TENGAH,74874.0,Indonesia,,,,-2.159268,113.851474,https://maps.google.com/?cid=0x0:0xb552cf5bb8a7550c,
komplek housing,Komplek perumahan,Tobroni's House,"RVG8+H4F, Jl. Hiu Putih Raya, Bukit Tunggal, Kec. Jekan Raya, Kota Palangka Raya, Kalimantan Tengah 74874","Jl. Hiu Putih Raya, Bukit Tunggal, Kec. Jekan Raya, Kota Palangka Raya",KALIMANTAN TENGAH,74874.0,Indonesia,,,,-2.1734801,113.8652126,https://maps.google.com/?cid=0x0:0xc144a1739717a4ff,
komplek housing,Komplek perumahan,Kalui Residence II,"Jl. Kalui Residence II No.mor 8, Bukit Tunggal, Kec. Jekan Raya, Kota Palangka Raya, Kalimantan Tengah 74874","Bukit Tunggal, Kec. Jekan Raya, Kota Palangka Raya",KALIMANTAN TENGAH,74874.0,Indonesia,,,,-2.1781762,113.8792854,https://maps.google.com/?cid=0x0:0x579647af98f4b292,
komplek housing,Komplek perumahan,R3 home,"Jl. Bandeng V gang VII No.12, Bukit Tunggal, Kec. Jekan Raya, Kota Palangka Raya, Kalimantan Tengah 74874","Bukit Tunggal, Kec. Jekan Raya, Kota Palangka Raya",KALIMANTAN TENGAH,74874.0,Indonesia,,,,-2.177408,113.8766236,https://maps.google.com/?cid=0x0:0xd0a8814adc54dd18,
komplek housing,Komplek perumahan,Giska'House,"Indah Recidence, Gang IV, Perum Jl. Piranha No.01","Kota Palangka Raya, Kalimantan Tengah",KALIMANTAN TENGAH,,Indonesia,,,,-2.1816351,113.8706863,https://maps.google.com/?cid=0x0:0xf4e1db891355666f,
komplek housing,Komplek perumahan,Maswanto,"RRXR+JQM, Jl. Raflesia, Petuk Katimpun, Kec. Jekan Raya, Kota Palangka Raya, Kalimantan Tengah 73113","Jl. Raflesia, Petuk Katimpun, Kec. Jekan Raya, Kota Palangka Raya",KALIMANTAN TENGAH,73113.0,Indonesia, 082148654594,,,-2.1509185,113.8419236,https://maps.google.com/?cid=0x0:0x9a2d9241696e1181,
komplek housing,Komplek perumahan,RUMAH CLARA,"RVF5+X98, Jl. Tangkalasa V, Bukit Tunggal, Kec. Jekan Raya, Kota Palangka Raya, Kalimantan Tengah 74874","Jl. Tangkalasa V, Bukit Tunggal, Kec. Jekan Raya, Kota Palangka Raya",KALIMANTAN TENGAH,74874.0,Indonesia,,,,-2.175098,113.8584406,https://maps.google.com/?cid=0x0:0x6c23cf596d478a95,
komplek housing,Komplek perumahan,Gatot Syuhada,"rumah no 5B, Jl. Raflesia No.5B blok 2B, Petuk Katimpun, Kec. Jekan Raya, Kota Palangka Raya, Kalimantan Tengah 73113","Jl. Raflesia No.5B blok 2B, Petuk Katimpun, Kec. Jekan Raya, Kota Palangka Raya",KALIMANTAN TENGAH,73113.0,Indonesia,,,,-2.14674,113.841481,https://maps.google.com/?cid=0x0:0xd6edad6ebbe05be6,
komplek housing,komplek housing,Kec. Sebangau,"Kota Palangka Raya, Kalimantan Tengah","Kota Palangka Raya, Kalimantan Tengah",KALIMANTAN TENGAH,,Indonesia,,,,-2.2880561,113.9187503,https://maps.google.com/?cid=0x0:0x3404c00aa195c39a,
komplek housing,Komplek perumahan,Rumah Zahra,"Jl. Melati No.08, RT.04/RW.01, Kereng Bangkirai, Kec. Sebangau, Kota Palangka Raya, Kalimantan Tengah 73113","RT.04/RW.01, Kereng Bangkirai, Kec. Sebangau, Kota Palangka Raya",KALIMANTAN TENGAH,73113.0,Indonesia,,,,-2.294383,113.907414,https://maps.google.com/?cid=0x0:0x39368aa0ff53df15,
komplek housing,Pembangunan Perumahan,Mama Ivan,"Komplek Sababillah II, Jl. RTA Milono No.km 8,5, Kereng Bangkirai, Kec. Sebangau, Kota Palangka Raya, Kalimantan Tengah 73113","Jl. RTA Milono No.km 8,5, Kereng Bangkirai, Kec. Sebangau, Kota Palangka Raya",KALIMANTAN TENGAH,73113.0,Indonesia,,,,-2.2852267,113.9177419,https://maps.google.com/?cid=0x0:0x880b94c6e8f4cb7,
komplek housing,Komplek perumahan,Pak Sis,"Jl. Kambang Tampilak No.6, Kereng Bangkirai, Kec. Sebangau, Kota Palangka Raya, Kalimantan Tengah 73113","Kereng Bangkirai, Kec. Sebangau, Kota Palangka Raya",KALIMANTAN TENGAH,73113.0,Indonesia,,,,-2.2845953,113.9139736,https://maps.google.com/?cid=0x0:0x3a91a24239b5fad8,
komplek housing,Komplek perumahan,Cindy homes,"Jl. Kambang Tampilak No.6, Kereng Bangkirai, Kec. Sebangau, Kota Palangka Raya, Kalimantan Tengah 73113","Kereng Bangkirai, Kec. Sebangau, Kota Palangka Raya",KALIMANTAN TENGAH,73113.0,Indonesia,,,,-2.2847405,113.9143892,https://maps.google.com/?cid=0x0:0xffe79c65c4bc8ff6,
komplek housing,Pembangunan Perumahan,GRAND SANUR GRIYA TAMA III,"Jalan Komplek Panala No.7, Kereng Bangkirai, Kec. Sebangau, Kota Palangka Raya, Kalimantan Tengah 73113","Kereng Bangkirai, Kec. Sebangau, Kota Palangka Raya",KALIMANTAN TENGAH,73113.0,Indonesia, 081258378887,,,-2.2783985,113.9173781,https://maps.google.com/?cid=0x0:0xcc0f9c2ca1ba1d79,
komplek housing,Komplek perumahan,Rumah Mas Boy (ROHID),"Jl. Khatulistiwa No.44, Kereng Bangkirai, Kec. Sebangau, Kota Palangka Raya, Kalimantan Tengah 73113","Kereng Bangkirai, Kec. Sebangau, Kota Palangka Raya",KALIMANTAN TENGAH,73113.0,Indonesia,,,,-2.27325,113.8886733,https://maps.google.com/?cid=0x0:0x7f405fd59b322d3c,
komplek housing,Pembangunan Perumahan,Perumahan Pesona Pasir Panjang,"Jl.Pasir Panjang Induk ( Mahir Mahar Lingtas, Kota Palangka Raya, Kalimantan Tengah 73113",Kota Palangka Raya,KALIMANTAN TENGAH,73113.0,Indonesia, 085251119321,,,-2.2731658,113.9025871,https://maps.google.com/?cid=0x0:0x7f3ccaa286f3e87a,
komplek housing,Perhimpunan Pengembang Perumahan,keluarga stanis,"QWM7+HH5 rumah warna kuning muda sebelah rumah biru yg ada atap terasnya (Rmh wrna kuning muda, Jl. Sinar kahayan hampir ujung dekat belokan di akhir, jl sinar kahayan, Kec. Sebangau, Kota Palangka Raya, Kalimantan Tengah 73113","Jl. Sinar kahayan hampir ujung dekat belokan di akhir, jl sinar kahayan, Kec. Sebangau, Kota Palangka Raya",KALIMANTAN TENGAH,73113.0,Indonesia,,,,-2.2161048,113.913977,https://maps.google.com/?cid=0x0:0x8423359105b27b84,
komplek housing,komplek housing,Kalimantan Tengah 73114,Kalimantan Tengah,Kalimantan Tengah,KALIMANTAN TENGAH,,Indonesia,,,,-2.0476577,114.1201536,https://maps.google.com/?cid=0x0:0x94c27ae4b55d0eb,
komplek housing,Hutan Nasional,Taman Nasional Sebangau,"Jalan Mahir Mahar KM. 1.2, Paduran Sabangau, Sebangau Kuala, Paduran Sabangau, Kec. Sebangau Kuala, Palangka Raya, Kalimantan Tengah 74874","Paduran Sabangau, Sebangau Kuala, Paduran Sabangau, Kec. Sebangau Kuala, Palangka Raya",KALIMANTAN TENGAH,74874.0,Indonesia, 08115233525,,,-2.5973765,113.6737776,https://maps.google.com/?cid=0x0:0x40114385e9a1ba41,
komplek housing,Pembangunan Perumahan,KRS,"X6CQ+VJF, Lahei Mangkutup, Kec. Mantangai, Kabupaten Kapuas, Kalimantan Tengah","Kabupaten Kapuas, Kalimantan Tengah",KALIMANTAN TENGAH,,Indonesia,,,,-2.027801,114.2390498,https://maps.google.com/?cid=0x0:0xfd874ad41d0ea01b,
komplek housing,Pembangunan Perumahan,3Brothers Grup,"W2W4+CV7, Bukit Rawi, Kec. Kahayan Tengah, Kabupaten Pulang Pisau, Kalimantan Tengah","Kabupaten Pulang Pisau, Kalimantan Tengah",KALIMANTAN TENGAH,,Indonesia,,,,-2.0539573,114.0071731,https://maps.google.com/?cid=0x0:0xb3d778f8cb87d31c,
komplek housing,Pembangunan Perumahan,Human Babah,"3XF5+R23, Balukon, Kec. Kahayan Tengah, Kabupaten Pulang Pisau, Kalimantan Tengah 73111","Balukon, Kec. Kahayan Tengah, Kabupaten Pulang Pisau",KALIMANTAN TENGAH,73111.0,Indonesia,,,,-1.9254833,113.9575348,https://maps.google.com/?cid=0x0:0x3b16e1a9e98cedae,
komplek housing,Komplek perumahan,Rumah Indu Asha,"3XR5+RRQ, Jl. Palangka Raya - Kuala Kurun, Bukit Bamba, Kec. Kahayan Tengah, Kabupaten Pulang Pisau, Kalimantan Tengah 73111","Jl. Palangka Raya - Kuala Kurun, Bukit Bamba, Kec. Kahayan Tengah, Kabupaten Pulang Pisau",KALIMANTAN TENGAH,73111.0,Indonesia,,,,-1.9077193,113.9588179,https://maps.google.com/?cid=0x0:0xb40e6892db5780d6,
komplek housing,Pembangunan Perumahan,Rumah Ego,"3X53+PRM, Pamarunan, Kec. Kahayan Tengah, Kabupaten Pulang Pisau, Kalimantan Tengah","Kabupaten Pulang Pisau, Kalimantan Tengah",KALIMANTAN TENGAH,,Indonesia,,,,-1.9406518,113.9545498,https://maps.google.com/?cid=0x0:0x2faaf8e1415ce12d,
komplek housing,komplek housing,Kec. Sebangau,"Kota Palangka Raya, Kalimantan Tengah","Kota Palangka Raya, Kalimantan Tengah",KALIMANTAN TENGAH,,Indonesia,,,,-2.2880561,113.9187503,https://maps.google.com/?cid=0x0:0x3404c00aa195c39a,
komplek housing,Restoran,Pondok bambu pak de no,"Jl. Semar, RT.01/RW.02, Kalampangan, Kec. Sebangau, Kota Palangka Raya, Kalimantan Tengah 73114","RT.01/RW.02, Kalampangan, Kec. Sebangau, Kota Palangka Raya",KALIMANTAN TENGAH,73114.0,Indonesia, 085820934650,,,-2.2821447,114.0063953,https://maps.google.com/?cid=0x0:0x7548757125928626,
komplek housing,komplek housing,"Tanah hartamedie, dari Rustam",,,KALIMANTAN TENGAH,,Indonesia,,,,-2.2097023,113.9016651,https://maps.google.com/?cid=0x0:0xd34334ab3cc8f6d8,
perumahan,perumahan,Kec. Bukit Batu,"Kota Palangka Raya, Kalimantan Tengah","Kota Palangka Raya, Kalimantan Tengah",KALIMANTAN TENGAH,,Indonesia,,,,-2.0004344,113.7594376,https://maps.google.com/?cid=0x0:0x1e052cd5457a3765,
perumahan,Komplek perumahan,Rumah,"2QC5+HGR, Tangkiling, Kec. Bukit Batu, Kota Palangka Raya, Kalimantan Tengah 73112","Tangkiling, Kec. Bukit Batu, Kota Palangka Raya",KALIMANTAN TENGAH,73112.0,Indonesia,,,,-1.9786745,113.7591255,https://maps.google.com/?cid=0x0:0xaa84e85895c64e21,
perumahan,Komplek perumahan,Rumah Yayo,"XQFG+H33, Jalan Nelayan, RT.1/RW.1, Tumbang Tahai, Kec. Bukit Batu, Kota Palangka Raya, Kalimantan Tengah","Kota Palangka Raya, Kalimantan Tengah",KALIMANTAN TENGAH,,Indonesia,,,,-2.0261148,113.7751826,https://maps.google.com/?cid=0x0:0x1447166ea168acef,
perumahan,Komplek perumahan,Modular I,"2QH4+R26, Sei Gohong, Kec. Bukit Batu, Kota Palangka Raya, Kalimantan Tengah 73112","Sei Gohong, Kec. Bukit Batu, Kota Palangka Raya",KALIMANTAN TENGAH,73112.0,Indonesia,,,,-1.9704533,113.7550151,https://maps.google.com/?cid=0x0:0xdef716db0b2a8875,
perumahan,Komplek perumahan,Mulya Land,"Jl. Tjilik Riwut No.Km.37, Sei Gohong, Kec. Bukit Batu, Kota Palangka Raya, Kalimantan Tengah 73225","Sei Gohong, Kec. Bukit Batu, Kota Palangka Raya",KALIMANTAN TENGAH,73225.0,Indonesia,,,,-1.9689948,113.7377435,https://maps.google.com/?cid=0x0:0x1657ca613083f488,
perumahan,Komplek perumahan,Rumah Cahyono,"XPWX+68Q, Jl. Pariwisata, Banturung, Kec. Bukit Batu, Kota Palangka Raya, Kalimantan Tengah 73112","Jl. Pariwisata, Banturung, Kec. Bukit Batu, Kota Palangka Raya",KALIMANTAN TENGAH,73112.0,Indonesia,,,,-2.0044078,113.7483631,https://maps.google.com/?cid=0x0:0xb1f105fef0f08db8,
perumahan,Komplek perumahan,Rumah Yayong,"XQM7+59R, Tumbang Tahai, Kec. Bukit Batu, Kota Palangka Raya, Kalimantan Tengah 74874","Tumbang Tahai, Kec. Bukit Batu, Kota Palangka Raya",KALIMANTAN TENGAH,74874.0,Indonesia,,,,-2.0170016,113.7633809,https://maps.google.com/?cid=0x0:0x6ec980866f6f1cd6,
perumahan,Komplek perumahan,Rumah nadya.,"Jl. Gereja No.21, Sei Gohong, Kec. Bukit Batu, Kota Palangka Raya, Kalimantan Tengah 73112","Sei Gohong, Kec. Bukit Batu, Kota Palangka Raya",KALIMANTAN TENGAH,73112.0,Indonesia,,,,-1.9604233,113.7541603,https://maps.google.com/?cid=0x0:0x870f09256824d8e7,
perumahan,Komplek perumahan,KOTA BARU DARUL IMAN KALIMANTAN TENGAH,"Jl. Trans Kaalimantan No.Km 26, Tumbang Tahai, Kec. Bukit Batu, Kota Palangka Raya, Kalimantan Tengah","Kota Palangka Raya, Kalimantan Tengah",KALIMANTAN TENGAH,,Indonesia,,,,-2.0481601,113.7667872,https://maps.google.com/?cid=0x0:0xaa3c894ca7e143d9,
perumahan,Komplek perumahan,Rumah uspin,"2Q66+39H, Banturung, Kec. Bukit Batu, Kota Palangka Raya, Kalimantan Tengah 73112","Banturung, Kec. Bukit Batu, Kota Palangka Raya",KALIMANTAN TENGAH,73112.0,Indonesia,,,,-1.9903117,113.7610215,https://maps.google.com/?cid=0x0:0x7a041a5faa771720,
perumahan,Komplek perumahan,Rumah lilidaswatie,"Jl. Pariwisata No.174, Banturung, Kec. Bukit Batu, Kota Palangka Raya, Kalimantan Tengah 73112","Banturung, Kec. Bukit Batu, Kota Palangka Raya",KALIMANTAN TENGAH,73112.0,Indonesia,,,,-1.9810784,113.7588534,https://maps.google.com/?cid=0x0:0x28f3e14c88fc2b01,
perumahan,Komplek perumahan,Rumah,"XQP6+5P8, Jl. Trans Kalimantan, Tumbang Tahai, Kec. Bukit Batu, Kota Palangka Raya, Kalimantan Tengah 73112","Jl. Trans Kalimantan, Tumbang Tahai, Kec. Bukit Batu, Kota Palangka Raya",KALIMANTAN TENGAH,73112.0,Indonesia,,,,-2.0145956,113.7618289,https://maps.google.com/?cid=0x0:0x93910f4eb8788e4,
perumahan,Perhimpunan Pengembang Perumahan,Perumahan Dinas Kesehatan Pembataan,"2Q36+25H, Jl. Padat karya III, Banturung, Kec. Bukit Batu, Kota Palangka Raya, Kalimantan Tengah 73112","Jl. Padat karya III, Banturung, Kec. Bukit Batu, Kota Palangka Raya",KALIMANTAN TENGAH,73112.0,Indonesia,,,,-1.997441,113.7604697,https://maps.google.com/?cid=0x0:0xd2c563dddd5bc6ca,
perumahan,Komplek perumahan,Rumah tempat Tinggal,"Jl. Taman Alam No.2, RW.no 03, Banturung, Kec. Bukit Batu, Kota Palangka Raya, Kalimantan Tengah 73112","RW.no 03, Banturung, Kec. Bukit Batu, Kota Palangka Raya",KALIMANTAN TENGAH,73112.0,Indonesia,,,,-1.9987001,113.7573177,https://maps.google.com/?cid=0x0:0x9aacfa7716705325,
perumahan,Komplek perumahan,Angga Pranata,"2Q76+6QM, Banturung, Kec. Bukit Batu, Kota Palangka Raya, Kalimantan Tengah 73112","Banturung, Kec. Bukit Batu, Kota Palangka Raya",KALIMANTAN TENGAH,73112.0,Indonesia,,,,-1.986915,113.7619368,https://maps.google.com/?cid=0x0:0x1097eda028b3014f,
perumahan,Tujuan Wisata,Kampung/Lewu Marang,"Jl. Marang, Marang, Kec. Bukit Batu, Kota Palangka Raya, Kalimantan Tengah","Kota Palangka Raya, Kalimantan Tengah",KALIMANTAN TENGAH,,Indonesia,,,,-2.0551947,113.8104375,https://maps.google.com/?cid=0x0:0xf4886d947ef48e95,
perumahan,Pembangunan Perumahan,Ion,"WQ9C+JFQ, Jl. Trans Kalimantan, Marang, Kec. Bukit Batu, Kota Palangka Raya, Kalimantan Tengah 73113","Jl. Trans Kalimantan, Marang, Kec. Bukit Batu, Kota Palangka Raya",KALIMANTAN TENGAH,73113.0,Indonesia,,,,-2.0809833,113.7718633,https://maps.google.com/?cid=0x0:0xbe4fb031766bdcf7,
perumahan,Komplek perumahan,Perkebunan Karnedianto,"XQM5+3GM, Sidomulyo, RT.02/RW.2, Tumbang Tahai","Kota Palangka Raya, Kalimantan Tengah",KALIMANTAN TENGAH,,Indonesia,,,,-2.0172825,113.7588113,https://maps.google.com/?cid=0x0:0xd137b49e8b9d7fc5,
perumahan,Komplek perumahan,Kasbullah/AAS,"2PFW+5J8, Jl. Pesona III, Tangkiling, Kec. Bukit Batu, Kota Palangka Raya, Kalimantan Tengah 73112","Jl. Pesona III, Tangkiling, Kec. Bukit Batu, Kota Palangka Raya",KALIMANTAN TENGAH,73112.0,Indonesia,,,,-1.9770936,113.7465825,https://maps.google.com/?cid=0x0:0x71d4b78d7896e114,
perumahan,Pembangunan Perumahan,Rumah Marisa,"Jl. Bukit Tunggal Sukamulya No.Km 36, Tangkiling, Kec. Bukit Batu, Kota Palangka Raya, Kalimantan Tengah 73112","Tangkiling, Kec. Bukit Batu, Kota Palangka Raya",KALIMANTAN TENGAH,73112.0,Indonesia,,,,-1.977675,113.7468842,https://maps.google.com/?cid=0x0:0x2ea1e3c2de664b6f,
perumahan,Komplek perumahan,Rumah Pesona,"Jl. Pesona, Tangkiling, Kec. Bukit Batu, Kota Palangka Raya, Kalimantan Tengah 73112","Tangkiling, Kec. Bukit Batu, Kota Palangka Raya",KALIMANTAN TENGAH,73112.0,Indonesia,,,,-1.9819074,113.743315,https://maps.google.com/?cid=0x0:0x63469c054ae84a,
perumahan,Tujuan Wisata,Danau Bukit Batu,"F3MF+M5, Tiwingan Baru, Kec. Aranio, Kabupaten Banjar, Kalimantan Selatan","Kabupaten Banjar, Kalimantan Selatan",KALIMANTAN TENGAH,,Indonesia,,,,-3.5152087,115.072673,https://maps.google.com/?cid=0x0:0x127bc5c455be2281,
perumahan,Taman,Bukit Batu,"Tiwingan Lama, Kec. Aranio, Kabupaten Banjar, Kalimantan Selatan","Kabupaten Banjar, Kalimantan Selatan",KALIMANTAN TENGAH,,Indonesia,,,,-3.5040228,115.0714546,https://maps.google.com/?cid=0x0:0x34581bc76377c46f,
perumahan,perumahan,Kalimantan Tengah 73221,"Bukit Tunggal, Kec. Rakumpit, Kota Palangka Raya, Kalimantan Tengah","Kota Palangka Raya, Kalimantan Tengah",KALIMANTAN TENGAH,,Indonesia,,,,-2.17855,113.8656799,https://maps.google.com/?cid=0x0:0x50b16048f399e248,
perumahan,perumahan,Kec. Bukit Batu,"Kota Palangka Raya, Kalimantan Tengah","Kota Palangka Raya, Kalimantan Tengah",KALIMANTAN TENGAH,,Indonesia,,,,-2.0004344,113.7594376,https://maps.google.com/?cid=0x0:0x1e052cd5457a3765,
perumahan,Komplek perumahan,Perumahan Grand Sanur Griya Tama II,"Jl. Hiu Putih Raya No.4, Bukit Tunggal, Kec. Jekan Raya, Kota Palangka Raya, Kalimantan Tengah 74874","Bukit Tunggal, Kec. Jekan Raya, Kota Palangka Raya",KALIMANTAN TENGAH,74874.0,Indonesia,,,,-2.1792887,113.863856,https://maps.google.com/?cid=0x0:0xdefec3310804b141,
perumahan,Komplek perumahan,Kristian,"Gg. 1 No.28, Bukit Tunggal, Kec. Jekan Raya, Kota Palangka Raya, Kalimantan Tengah 74874","Bukit Tunggal, Kec. Jekan Raya, Kota Palangka Raya",KALIMANTAN TENGAH,74874.0,Indonesia,,,,-2.1785531,113.8670675,https://maps.google.com/?cid=0x0:0x3d86e0fe38ba3093,
perumahan,Komplek perumahan,Arry apriyanto,"Jl. Hiu Putih Raya No.8a, Bukit Tunggal, Kec. Jekan Raya, Kota Palangka Raya, Kalimantan Tengah 74874","Bukit Tunggal, Kec. Jekan Raya, Kota Palangka Raya",KALIMANTAN TENGAH,74874.0,Indonesia,,,,-2.1790309,113.8651565,https://maps.google.com/?cid=0x0:0xf9a73e275b4680e0,
perumahan,Tempat Religius,Wisata Bukit Batu Pertapaan Tjilik Riwut,"4F39+W6V, S Jl. Trans Kalimantan, Kasongan Lama, Katingan Hilir, Katingan Regency, Central Kalimantan 74461","S Jl. Trans Kalimantan, Kasongan Lama, Katingan Hilir, Katingan Regency",KALIMANTAN TENGAH,74461.0,Indonesia,,,,-1.8951303,113.4680533,https://maps.google.com/?cid=0x0:0xcb4e6c653c6fae85,
perumahan,Komplek perumahan,Grand Sanur No.53,"Griya Tama II, Komp. Grand Sanur, Jl. Hiu Putih Raya Induk, Bukit Tunggal, Jekan Raya, Palangka Raya City, Central Kalimantan 74874","Komp. Grand Sanur, Jl. Hiu Putih Raya Induk, Bukit Tunggal, Jekan Raya, Palangka Raya City",KALIMANTAN TENGAH,74874.0,Indonesia,,,,-2.1793857,113.8625729,https://maps.google.com/?cid=0x0:0xf4f03387e59a954b,
perumahan,Komplek perumahan,Rumah Nieshla,"Jl. Hiu Putih VIII No.005AF, Bukit Tunggal, Kec. Jekan Raya, Kota Palangka Raya, Kalimantan Tengah 73221","Bukit Tunggal, Kec. Jekan Raya, Kota Palangka Raya",KALIMANTAN TENGAH,73221.0,Indonesia,,,,-2.1785456,113.8656739,https://maps.google.com/?cid=0x0:0xcdfc6f4a7bd6fd1e,
perumahan,Komplek perumahan,Ma'mun,"Jl. Hiu Putih VIII Gg. Lohan No.46, Bukit Tunggal, Kec. Jekan Raya, Kota Palangka Raya, Kalimantan Tengah 74874","Bukit Tunggal, Kec. Jekan Raya, Kota Palangka Raya",KALIMANTAN TENGAH,74874.0,Indonesia,,,,-2.1796733,113.8672448,https://maps.google.com/?cid=0x0:0x3b07eab00b9c6488,
perumahan,Komplek perumahan,Rumah amel,"RVC8+GHW, Blk. B Jl. Hiu Putih VIII No.24, Bukit Tunggal, Kec. Jekan Raya, Kota Palangka Raya, Kalimantan Tengah 74874","Blk. B Jl. Hiu Putih VIII No.24, Bukit Tunggal, Kec. Jekan Raya, Kota Palangka Raya",KALIMANTAN TENGAH,74874.0,Indonesia,,,,-2.178016,113.8654187,https://maps.google.com/?cid=0x0:0x9a686784abc6d28b,
perumahan,Komplek perumahan,Rumah Pak Obrien,"RVC6+HCH, Jl. Hiu Putih VII F ujung, Bukit Tunggal, Kec. Jekan Raya, Kota Palangka Raya, Kalimantan Tengah 74874","Jl. Hiu Putih VII F ujung, Bukit Tunggal, Kec. Jekan Raya, Kota Palangka Raya",KALIMANTAN TENGAH,74874.0,Indonesia,,,,-2.177565,113.8627428,https://maps.google.com/?cid=0x0:0x830a65ace4878fb8,
perumahan,Komplek perumahan,Yusfa,"Jl. Hiu Putih VIII No.8c, Bukit Tunggal, Kec. Jekan Raya, Kota Palangka Raya, Kalimantan Tengah 74874","Bukit Tunggal, Kec. Jekan Raya, Kota Palangka Raya",KALIMANTAN TENGAH,74874.0,Indonesia, 082151820599,,,-2.1776475,113.8661669,https://maps.google.com/?cid=0x0:0x7abd6ecdd39c06c0,
perumahan,Komplek perumahan,Rumah ijum,"Jl. Hiu Putih IV No.36, Bukit Tunggal, Kec. Jekan Raya, Kota Palangka Raya, Kalimantan Tengah 74874","Bukit Tunggal, Kec. Jekan Raya, Kota Palangka Raya",KALIMANTAN TENGAH,74874.0,Indonesia,,,,-2.176846,113.8633976,https://maps.google.com/?cid=0x0:0x2fa94b28402bc2db,
perumahan,Komplek perumahan,Rumah mas nono,"Jl. Hiu Putih VIII No.59, Bukit Tunggal, Kec. Jekan Raya, Kota Palangka Raya, Kalimantan Tengah 74874","Bukit Tunggal, Kec. Jekan Raya, Kota Palangka Raya",KALIMANTAN TENGAH,74874.0,Indonesia,,,,-2.1780609,113.867032,https://maps.google.com/?cid=0x0:0x1e2bdb472a170dc7,
perumahan,Komplek perumahan,Rumah Riwedy,"Jl. Hiu Putih IV No.12, Bukit Tunggal, Kec. Jekan Raya, Kota Palangka Raya, Kalimantan Tengah 74874","Bukit Tunggal, Kec. Jekan Raya, Kota Palangka Raya",KALIMANTAN TENGAH,74874.0,Indonesia,,,,-2.1768628,113.8635015,https://maps.google.com/?cid=0x0:0x12a42fe1d608537b,
perumahan,Komplek perumahan,Perumahan Casadova Indah Permai by CV.Kelvin Berkah Mandiri,"RRRJ+69X, Bukit Tunggal, Kec. Jekan Raya, Kota Palangka Raya, Kalimantan Tengah 74874","Bukit Tunggal, Kec. Jekan Raya, Kota Palangka Raya",KALIMANTAN TENGAH,74874.0,Indonesia, 085246677999,,,-2.1593886,113.830999,https://maps.google.com/?cid=0x0:0x721dd53f43e7bb42,
perumahan,perumahan,Mess Bio Mustika,"RVC8+CM7, Jl. Hiu Putih VIII, Bukit Tunggal, Kec. Jekan Raya, Kota Palangka Raya, Kalimantan Tengah 74874","Jl. Hiu Putih VIII, Bukit Tunggal, Kec. Jekan Raya, Kota Palangka Raya",KALIMANTAN TENGAH,74874.0,Indonesia, 081236209004,,,-2.1789742,113.86668,https://maps.google.com/?cid=0x0:0xf49f5f77a992efe1,
perumahan,Komplek perumahan,Gaol’s Family,"Jl. Hiu Putih VII No.27, Bukit Tunggal, Kec. Jekan Raya, Kota Palangka Raya, Kalimantan Tengah","Kota Palangka Raya, Kalimantan Tengah",KALIMANTAN TENGAH,,Indonesia,,,,-2.1774249,113.8631552,https://maps.google.com/?cid=0x0:0x109e883284664c09,
perumahan,Komplek perumahan,klinik azizah,"RVF8+5FQ, Jl. Hiu Putih VI, Bukit Tunggal, Kec. Jekan Raya, Kota Palangka Raya, Kalimantan Tengah 74874","Jl. Hiu Putih VI, Bukit Tunggal, Kec. Jekan Raya, Kota Palangka Raya",KALIMANTAN TENGAH,74874.0,Indonesia,,,,-2.1770447,113.8662319,https://maps.google.com/?cid=0x0:0x8e2341b1660f2876,
perumahan,Perumahan,Perumahan Pasific Indo Raya,"RVC6+7MR, Jl. Hiu Putih XI, Bukit Tunggal, Kec. Jekan Raya, Kota Palangka Raya, Kalimantan Tengah 74874","Jl. Hiu Putih XI, Bukit Tunggal, Kec. Jekan Raya, Kota Palangka Raya",KALIMANTAN TENGAH,74874.0,Indonesia,,,,-2.1792602,113.8616372,https://maps.google.com/?cid=0x0:0xa81181d6d50f9aed,
perumahan,Perhimpunan Pengembang Perumahan,Rama agusmas,"RVF8+G73, Jl. Hiu Putih V, Bukit Tunggal, Kec. Jekan Raya, Kota Palangka Raya, Kalimantan Tengah 74874","Jl. Hiu Putih V, Bukit Tunggal, Kec. Jekan Raya, Kota Palangka Raya",KALIMANTAN TENGAH,74874.0,Indonesia,,,,-2.1762039,113.8656432,https://maps.google.com/?cid=0x0:0x175219570739cb07,
perumahan,perumahan,Kalimantan Tengah 73222,"Kec. Rakumpit, Kota Palangka Raya, Kalimantan Tengah","Kota Palangka Raya, Kalimantan Tengah",KALIMANTAN TENGAH,,Indonesia,,,,-1.7933344,113.7275817,https://maps.google.com/?cid=0x0:0xcd41c114b66f1cf9,
perumahan,perumahan,Kec. Bukit Batu,"Kota Palangka Raya, Kalimantan Tengah","Kota Palangka Raya, Kalimantan Tengah",KALIMANTAN TENGAH,,Indonesia,,,,-2.0004344,113.7594376,https://maps.google.com/?cid=0x0:0x1e052cd5457a3765,
perumahan,Komplek perumahan,Rumah chantika,"2PXJ+WP3 UPT, Jl. Cendrawasih II No.KM 38, Sei Gohong, Kec. Bukit Batu, Kota Palangka Raya, Kalimantan Tengah 73112","Jl. Cendrawasih II No.KM 38, Sei Gohong, Kec. Bukit Batu, Kota Palangka Raya",KALIMANTAN TENGAH,73112.0,Indonesia,,,,-1.950419,113.732899,https://maps.google.com/?cid=0x0:0x771cdd0c1de936d,
perumahan,Komplek perumahan,Bu Selani,"2PXH+8F2, Sei Gohong, Kec. Bukit Batu, Kota Palangka Raya, Kalimantan Tengah 73112","Sei Gohong, Kec. Bukit Batu, Kota Palangka Raya",KALIMANTAN TENGAH,73112.0,Indonesia,,,,-1.951346,113.729393,https://maps.google.com/?cid=0x0:0x4e53af9723973616,
perumahan,Komplek perumahan,BUKIT SUA NGAJU,"8M9X+JM4, Bukit Sua, Kec. Rakumpit, Kota Palangka Raya, Kalimantan Tengah","Kota Palangka Raya, Kalimantan Tengah",KALIMANTAN TENGAH,,Indonesia,,,,-1.6809798,113.699214,https://maps.google.com/?cid=0x0:0xb090ffae304b589,
perumahan,Komplek perumahan,Rumah Saltoni,"2QP4+MF, Sei Gohong, Kec. Bukit Batu, Kota Palangka Raya, Kalimantan Tengah 73112","Sei Gohong, Kec. Bukit Batu, Kota Palangka Raya",KALIMANTAN TENGAH,73112.0,Indonesia,,,,-1.9633658,113.7561651,https://maps.google.com/?cid=0x0:0x95e5f2ef699e059d,
perumahan,Komplek perumahan,Gaung Baru,"6PF9+HCF, Gaung Baru, Kec. Rakumpit, Kota Palangka Raya, Kalimantan Tengah 73223","Gaung Baru, Kec. Rakumpit, Kota Palangka Raya",KALIMANTAN TENGAH,73223.0,Indonesia,,,,-1.7760537,113.7185517,https://maps.google.com/?cid=0x0:0x82d966ff765e23a6,
perumahan,Komplek perumahan,Rumah Niaraa,"2PXH+XW5, Sei Gohong, Kec. Bukit Batu, Kota Palangka Raya, Kalimantan Tengah 73112","Sei Gohong, Kec. Bukit Batu, Kota Palangka Raya",KALIMANTAN TENGAH,73112.0,Indonesia,,,,-1.9501181,113.7298688,https://maps.google.com/?cid=0x0:0x6e64d9ce70c9c219,
perumahan,Komplek perumahan,Lok tanah,"3M6G+VV, Sei Gohong, Kec. Bukit Batu, Kota Palangka Raya, Kalimantan Tengah","Kota Palangka Raya, Kalimantan Tengah",KALIMANTAN TENGAH,,Indonesia,,,,-1.9378115,113.6771535,https://maps.google.com/?cid=0x0:0xa8aaf9977d944e96,
perumahan,Pembangunan Perumahan,"Dewiana, SP.","4J69+96M, Petuk Bukit, Kec. Rakumpit, Kota Palangka Raya, Kalimantan Tengah","Kota Palangka Raya, Kalimantan Tengah",KALIMANTAN TENGAH,,Indonesia,,,,-1.8890285,113.618057,https://maps.google.com/?cid=0x0:0xc3498c43db9839bb,
perumahan,Tempat Religius,Wisata Bukit Batu Pertapaan Tjilik Riwut,"4F39+W6V, S Jl. Trans Kalimantan, Kasongan Lama, Katingan Hilir, Katingan Regency, Central Kalimantan 74461","S Jl. Trans Kalimantan, Kasongan Lama, Katingan Hilir, Katingan Regency",KALIMANTAN TENGAH,74461.0,Indonesia,,,,-1.8951303,113.4680533,https://maps.google.com/?cid=0x0:0xcb4e6c653c6fae85,
perumahan,Perhimpunan Pengembang Perumahan,Maizar 59,"5MGP+JH, Pager, Kec. Rakumpit, Kota Palangka Raya, Kalimantan Tengah","Kota Palangka Raya, Kalimantan Tengah",KALIMANTAN TENGAH,,Indonesia,,,,-1.823444,113.686404,https://maps.google.com/?cid=0x0:0x45530465e399b1ff,
perumahan,Komplek perumahan,Tanah Dius,"2MX9+HM, Tangkiling, Kec. Bukit Batu, Kota Palangka Raya, Kalimantan Tengah","Kota Palangka Raya, Kalimantan Tengah",KALIMANTAN TENGAH,,Indonesia,,,,-1.9510928,113.6691917,https://maps.google.com/?cid=0x0:0x7598ade6cc3f5daa,
perumahan,Perhimpunan Pengembang Perumahan,Rumah pondok,"5M5P+9C, Petuk Bukit, Kec. Rakumpit, Kota Palangka Raya, Kalimantan Tengah","Kota Palangka Raya, Kalimantan Tengah",KALIMANTAN TENGAH,,Indonesia,,,,-1.841545,113.686032,https://maps.google.com/?cid=0x0:0x4ff3099521d7a478,
perumahan,Pembangunan Perumahan,KORNELIUS PRATAMA,"2PWJ+52G, Sei Gohong, Kec. Bukit Batu, Kota Palangka Raya, Kalimantan Tengah 73112","Sei Gohong, Kec. Bukit Batu, Kota Palangka Raya",KALIMANTAN TENGAH,73112.0,Indonesia,,,,-1.9545666,113.7300892,https://maps.google.com/?cid=0x0:0xdf324ed5e4180c81,
perumahan,Pembangunan Perumahan,Anton N MP,"3J9C+FMF, Jl. Ahmad Yani, Sei Gohong, Kec. Bukit Batu, Kota Palangka Raya, Kalimantan Tengah 73112","Jl. Ahmad Yani, Sei Gohong, Kec. Bukit Batu, Kota Palangka Raya",KALIMANTAN TENGAH,73112.0,Indonesia,,,,-1.931304,113.621659,https://maps.google.com/?cid=0x0:0x34e2033577611858,
perumahan,Perumahan,Perumahan ANUGERAH BALINGA,"Jl. Durian No.7 No.000, Kasongan Lama, Kec. Katingan Hilir, Kabupaten Katingan, Kalimantan Tengah 74413","Kasongan Lama, Kec. Katingan Hilir, Kabupaten Katingan",KALIMANTAN TENGAH,74413.0,Indonesia,,,,-1.8845088,113.4195736,https://maps.google.com/?cid=0x0:0xb08ab22c213903ba,
perumahan,Komplek perumahan,Mama Jejep / bu Ratna,"Sei Gohong, Kec. Bukit Batu, Kota Palangka Raya, Kalimantan Tengah 73112","Kec. Bukit Batu, Kota Palangka Raya",KALIMANTAN TENGAH,73112.0,Indonesia, 08125158065,,,-1.9502293,113.7318001,https://maps.google.com/?cid=0x0:0x7a8776c6652676c3,
perumahan,Komplek perumahan,Rumah Bapak Dian,"2MQW+2G9, Tangkiling, Kec. Bukit Batu, Kota Palangka Raya, Kalimantan Tengah 73112","Tangkiling, Kec. Bukit Batu, Kota Palangka Raya",KALIMANTAN TENGAH,73112.0,Indonesia,,,,-1.9624648,113.6963675,https://maps.google.com/?cid=0x0:0x647eadf2456765a2,
perumahan,perumahan,Palangka,"3M47+7CW, Jl. Trans Kalimantan, Palangka, Kec. Jekan Raya, Kota Palangka Raya, Kalimantan Tengah 73112","Jl. Trans Kalimantan, Palangka, Kec. Jekan Raya, Kota Palangka Raya",KALIMANTAN TENGAH,73112.0,Indonesia,,,,-1.9442731,113.6635633,https://maps.google.com/?cid=0x0:0x47a4a114c1cf5f9a,
perumahan,Komplek perumahan,Omah areng,"4MQP+VF, Petuk Bukit, Kec. Rakumpit, Kota Palangka Raya, Kalimantan Tengah","Kota Palangka Raya, Kalimantan Tengah",KALIMANTAN TENGAH,,Indonesia,,,,-1.8602909,113.6862438,https://maps.google.com/?cid=0x0:0x4df13fb0f97d7c70,
perumahan,Pembangunan Perumahan,Tanah hak milik a.n lampung,"2PVF+596, Jl. Garuda I, Sei Gohong, Kec. Bukit Batu, Kota Palangka Raya, Kalimantan Tengah 73112","Jl. Garuda I, Sei Gohong, Kec. Bukit Batu, Kota Palangka Raya",KALIMANTAN TENGAH,73112.0,Indonesia,,,,-1.957078,113.7234008,https://maps.google.com/?cid=0x0:0x89b633e413ff9407,
perumahan,Otoritas Perumahan,Perumahan Pesona Bukit Batuah 2,"RV6C+HP6, Batu Ampar, Kec. Balikpapan Utara, Kota Balikpapan, Kalimantan Timur 76127","Batu Ampar, Kec. Balikpapan Utara, Kota Balikpapan",KALIMANTAN TENGAH,76127.0,Indonesia, 05428531521,,,-1.1885931,116.8717719,https://maps.google.com/?cid=0x0:0xe232781e5a43669e,
perumahan,Pembangunan Perumahan,Perumahan Pesona Bukit Batuah,"Graha Indah, Batu Ampar, Kec. Balikpapan Utara, Kota Balikpapan, Kalimantan Timur 76127","Batu Ampar, Kec. Balikpapan Utara, Kota Balikpapan",KALIMANTAN TENGAH,76127.0,Indonesia,,,,-1.1897401,116.8707049,https://maps.google.com/?cid=0x0:0x2097ba7e79bb1cfd,
perumahan,Komplek perumahan,Pesona Bukit Batuah Blok DO,"Graha Indah, Batu Ampar, Kec. Balikpapan Utara, Kota Balikpapan, Kalimantan Timur","Kota Balikpapan, Kalimantan Timur",KALIMANTAN TENGAH,,Indonesia,,,,-1.1890004,116.8720068,https://maps.google.com/?cid=0x0:0x5005b20598180f18,
perumahan,perumahan,Kalimantan Tengah 73223,"Kec. Rakumpit, Kota Palangka Raya, Kalimantan Tengah","Kota Palangka Raya, Kalimantan Tengah",KALIMANTAN TENGAH,,Indonesia,,,,-1.7393186,113.7513827,https://maps.google.com/?cid=0x0:0xd6ba146064b1b764,
perumahan,perumahan,Kec. Bukit Batu,"Kota Palangka Raya, Kalimantan Tengah","Kota Palangka Raya, Kalimantan Tengah",KALIMANTAN TENGAH,,Indonesia,,,,-2.0004344,113.7594376,https://maps.google.com/?cid=0x0:0x1e052cd5457a3765,
perumahan,Komplek perumahan,Gaung Baru,"6PF9+HCF, Gaung Baru, Kec. Rakumpit, Kota Palangka Raya, Kalimantan Tengah 73223","Gaung Baru, Kec. Rakumpit, Kota Palangka Raya",KALIMANTAN TENGAH,73223.0,Indonesia,,,,-1.7760537,113.7185517,https://maps.google.com/?cid=0x0:0x82d966ff765e23a6,
perumahan,Tempat Religius,Wisata Bukit Batu Pertapaan Tjilik Riwut,"4F39+W6V, S Jl. Trans Kalimantan, Kasongan Lama, Katingan Hilir, Katingan Regency, Central Kalimantan 74461","S Jl. Trans Kalimantan, Kasongan Lama, Katingan Hilir, Katingan Regency",KALIMANTAN TENGAH,74461.0,Indonesia,,,,-1.8951303,113.4680533,https://maps.google.com/?cid=0x0:0xcb4e6c653c6fae85,
perumahan,Perhimpunan Pengembang Perumahan,Wahyu MB4H,"7H5V+JG, Petuk Barunai, Kec. Rakumpit, Kota Palangka Raya, Kalimantan Tengah","Kota Palangka Raya, Kalimantan Tengah",KALIMANTAN TENGAH,,Indonesia,,,,-1.7409832,113.5937919,https://maps.google.com/?cid=0x0:0xa0210758ce587d4e,
perumahan,perumahan,ABAH VIO,"7JXR+46, Petuk Barunai, Kec. Rakumpit, Kota Palangka Raya, Kalimantan Tengah","Kota Palangka Raya, Kalimantan Tengah",KALIMANTAN TENGAH,,Indonesia,,,,-1.7014673,113.6407153,https://maps.google.com/?cid=0x0:0xb61036fed8534b09,
perumahan,Perhimpunan Pengembang Perumahan,Rakumpit,"8J4Q+868, Petuk Barunai, Kec. Rakumpit, Kota Palangka Raya, Kalimantan Tengah 73221","Petuk Barunai, Kec. Rakumpit, Kota Palangka Raya",KALIMANTAN TENGAH,73221.0,Indonesia,,,,-1.6942131,113.638075,https://maps.google.com/?cid=0x0:0x934b211b7cba0025,
perumahan,Perhimpunan Pengembang Perumahan,Keken SD5H,"7H4V+GG, Petuk Barunai, Kec. Rakumpit, Kota Palangka Raya, Kalimantan Tengah","Kota Palangka Raya, Kalimantan Tengah",KALIMANTAN TENGAH,,Indonesia,,,,-1.7436926,113.5937956,https://maps.google.com/?cid=0x0:0xa81afcd5dbced350,
perumahan,Komplek perumahan,Kasali Baru,"8W5X+GG4, Jl. Palangka Raya - Kuala Kurun, Palangka, Kec. Banama Tingang, Kota Palangka Raya, Kalimantan Tengah","Kota Palangka Raya, Kalimantan Tengah",KALIMANTAN TENGAH,,Indonesia,,,,-1.69124,113.948825,https://maps.google.com/?cid=0x0:0x53acaa0f67dde228,
perumahan,Perhimpunan Pengembang Perumahan,LISTANARA,"7J27+6H, Petuk Barunai, Kec. Rakumpit, Kota Palangka Raya, Kalimantan Tengah","Kota Palangka Raya, Kalimantan Tengah",KALIMANTAN TENGAH,,Indonesia,,,,-1.749272,113.613942,https://maps.google.com/?cid=0x0:0xca8f1cee8fe0aba2,
perumahan,Pembangunan Perumahan,Perumahan Bumi Rahayu,"4C38+G2, Kasongan Lama, Kec. Katingan Hilir, Kabupaten Katingan, Kalimantan Tengah 74413","Kasongan Lama, Kec. Katingan Hilir, Kabupaten Katingan",KALIMANTAN TENGAH,74413.0,Indonesia,,,,-1.8961283,113.4150933,https://maps.google.com/?cid=0x0:0xfd27856b199140a6,
perumahan,Perhimpunan Pengembang Perumahan,Keken SD15H,"6HXM+JH, Pager, Kec. Rakumpit, Kota Palangka Raya, Kalimantan Tengah","Kota Palangka Raya, Kalimantan Tengah",KALIMANTAN TENGAH,,Indonesia,,,,-1.7509342,113.5839257,https://maps.google.com/?cid=0x0:0x2e8539edd63e08ca,
perumahan,Perhimpunan Pengembang Perumahan,Neni Lambung,"7J27+6H, Petuk Barunai, Kec. Rakumpit, Kota Palangka Raya, Kalimantan Tengah","Kota Palangka Raya, Kalimantan Tengah",KALIMANTAN TENGAH,,Indonesia,,,,-1.749397,113.613975,https://maps.google.com/?cid=0x0:0x6473c9f1b01d86e,
perumahan,Komplek perumahan,Rumah Nola,"6XG2+9R4, Jl. Palangka Raya - Kuala Kurun, Lawang Uru, Kec. Banama Tingang, Kabupaten Pulang Pisau, Kalimantan Tengah 74862","Jl. Palangka Raya - Kuala Kurun, Lawang Uru, Kec. Banama Tingang, Kabupaten Pulang Pisau",KALIMANTAN TENGAH,74862.0,Indonesia,,,,-1.773861,113.952027,https://maps.google.com/?cid=0x0:0x28417865c8500e15,
perumahan,Perumahan,Rumah budi,"6PF9+Q9G, Gaung Baru, Kec. Rakumpit, Kota Palangka Raya, Kalimantan Tengah","Kota Palangka Raya, Kalimantan Tengah",KALIMANTAN TENGAH,,Indonesia,,,,-1.7755614,113.7184628,https://maps.google.com/?cid=0x0:0x1e26d9e8c38b0886,
perumahan,Perhimpunan Pengembang Perumahan,Yogo P2H,"7H2F+97, Petuk Barunai, Kec. Rakumpit, Kota Palangka Raya, Kalimantan Tengah","Kota Palangka Raya, Kalimantan Tengah",KALIMANTAN TENGAH,,Indonesia,,,,-1.7490625,113.5731875,https://maps.google.com/?cid=0x0:0xdd1f69cd1075a5b3,
perumahan,Komplek perumahan,Ramang,"7W9C+QV8, Ramang, Kec. Banama Tingang, Kabupaten Pulang Pisau, Kalimantan Tengah","Kabupaten Pulang Pisau, Kalimantan Tengah",KALIMANTAN TENGAH,,Indonesia,,,,-1.730576,113.922203,https://maps.google.com/?cid=0x0:0x3842fc0c3ab1cf49,
perumahan,Pembangunan Perumahan,Rumah Bp Eman,"7W5C+VR9, Jl. Desa Hurung, Hanua, Kec. Banama Tingang, Kabupaten Pulang Pisau, Kalimantan Tengah 74862","Jl. Desa Hurung, Hanua, Kec. Banama Tingang, Kabupaten Pulang Pisau",KALIMANTAN TENGAH,74862.0,Indonesia,,,,-1.7403448,113.9221226,https://maps.google.com/?cid=0x0:0xd4a85f803a36545a,
perumahan,Perhimpunan Pengembang Perumahan,ELI,"7J56+W4, Petuk Barunai, Kec. Rakumpit, Kota Palangka Raya, Kalimantan Tengah","Kota Palangka Raya, Kalimantan Tengah",KALIMANTAN TENGAH,,Indonesia,,,,-1.740239,113.610337,https://maps.google.com/?cid=0x0:0x72286fec1c4737fa,
perumahan,Perhimpunan Pengembang Perumahan,Khuri,"5MJP+HF, Pager, Kec. Rakumpit, Kota Palangka Raya, Kalimantan Tengah","Kota Palangka Raya, Kalimantan Tengah",KALIMANTAN TENGAH,,Indonesia,,,,-1.818589,113.686171,https://maps.google.com/?cid=0x0:0x5b967d0f69d47aae,
perumahan,Perhimpunan Pengembang Perumahan,SIGIT WIDO,"7J58+W7, Petuk Barunai, Kec. Rakumpit, Kota Palangka Raya, Kalimantan Tengah","Kota Palangka Raya, Kalimantan Tengah",KALIMANTAN TENGAH,,Indonesia,,,,-1.740232,113.615726,https://maps.google.com/?cid=0x0:0xa454e889cfd066cf,
perumahan,Perhimpunan Pengembang Perumahan,Rumah Pak Misni,"5MRM+3Q, Pager, Kec. Rakumpit, Kota Palangka Raya, Kalimantan Tengah","Kota Palangka Raya, Kalimantan Tengah",KALIMANTAN TENGAH,,Indonesia,,,,-1.809861,113.6844475,https://maps.google.com/?cid=0x0:0xde2ea00611c1cac4,
perumahan,Taman,Bukit Batu,"Tiwingan Lama, Kec. Aranio, Kabupaten Banjar, Kalimantan Selatan","Kabupaten Banjar, Kalimantan Selatan",KALIMANTAN TENGAH,,Indonesia,,,,-3.5040228,115.0714546,https://maps.google.com/?cid=0x0:0x34581bc76377c46f,
perumahan,Tujuan Wisata,Danau Bukit Batu,"F3MF+M5, Tiwingan Baru, Kec. Aranio, Kabupaten Banjar, Kalimantan Selatan","Kabupaten Banjar, Kalimantan Selatan",KALIMANTAN TENGAH,,Indonesia,,,,-3.5152087,115.072673,https://maps.google.com/?cid=0x0:0x127bc5c455be2281,
perumahan,perumahan,Kalimantan Tengah 73224,"Kec. Rakumpit, Kota Palangka Raya, Kalimantan Tengah","Kota Palangka Raya, Kalimantan Tengah",KALIMANTAN TENGAH,,Indonesia,,,,-1.6666249,113.8465758,https://maps.google.com/?cid=0x0:0xd399af94d261441b,
perumahan,perumahan,Kec. Bukit Batu,"Kota Palangka Raya, Kalimantan Tengah","Kota Palangka Raya, Kalimantan Tengah",KALIMANTAN TENGAH,,Indonesia,,,,-2.0004344,113.7594376,https://maps.google.com/?cid=0x0:0x1e052cd5457a3765,
perumahan,Perhimpunan Pengembang Perumahan,Wahyu MB4H,"7H5V+JG, Petuk Barunai, Kec. Rakumpit, Kota Palangka Raya, Kalimantan Tengah","Kota Palangka Raya, Kalimantan Tengah",KALIMANTAN TENGAH,,Indonesia,,,,-1.7409832,113.5937919,https://maps.google.com/?cid=0x0:0xa0210758ce587d4e,
perumahan,Tempat Religius,Wisata Bukit Batu Pertapaan Tjilik Riwut,"4F39+W6V, S Jl. Trans Kalimantan, Kasongan Lama, Katingan Hilir, Katingan Regency, Central Kalimantan 74461","S Jl. Trans Kalimantan, Kasongan Lama, Katingan Hilir, Katingan Regency",KALIMANTAN TENGAH,74461.0,Indonesia,,,,-1.8951303,113.4680533,https://maps.google.com/?cid=0x0:0xcb4e6c653c6fae85,
perumahan,Perhimpunan Pengembang Perumahan,Keken SD5H,"7H4V+GG, Petuk Barunai, Kec. Rakumpit, Kota Palangka Raya, Kalimantan Tengah","Kota Palangka Raya, Kalimantan Tengah",KALIMANTAN TENGAH,,Indonesia,,,,-1.7436926,113.5937956,https://maps.google.com/?cid=0x0:0xa81afcd5dbced350,
perumahan,Perhimpunan Pengembang Perumahan,Keken SD15H,"6HXM+JH, Pager, Kec. Rakumpit, Kota Palangka Raya, Kalimantan Tengah","Kota Palangka Raya, Kalimantan Tengah",KALIMANTAN TENGAH,,Indonesia,,,,-1.7509342,113.5839257,https://maps.google.com/?cid=0x0:0x2e8539edd63e08ca,
perumahan,Perhimpunan Pengembang Perumahan,SIGIT WIDO,"7J58+W7, Petuk Barunai, Kec. Rakumpit, Kota Palangka Raya, Kalimantan Tengah","Kota Palangka Raya, Kalimantan Tengah",KALIMANTAN TENGAH,,Indonesia,,,,-1.740232,113.615726,https://maps.google.com/?cid=0x0:0xa454e889cfd066cf,
perumahan,Perhimpunan Pengembang Perumahan,LISTANARA,"7J27+6H, Petuk Barunai, Kec. Rakumpit, Kota Palangka Raya, Kalimantan Tengah","Kota Palangka Raya, Kalimantan Tengah",KALIMANTAN TENGAH,,Indonesia,,,,-1.749272,113.613942,https://maps.google.com/?cid=0x0:0xca8f1cee8fe0aba2,
perumahan,Perhimpunan Pengembang Perumahan,Yogo P2H,"7H2F+97, Petuk Barunai, Kec. Rakumpit, Kota Palangka Raya, Kalimantan Tengah","Kota Palangka Raya, Kalimantan Tengah",KALIMANTAN TENGAH,,Indonesia,,,,-1.7490625,113.5731875,https://maps.google.com/?cid=0x0:0xdd1f69cd1075a5b3,
perumahan,perumahan,ABAH VIO,"7JXR+46, Petuk Barunai, Kec. Rakumpit, Kota Palangka Raya, Kalimantan Tengah","Kota Palangka Raya, Kalimantan Tengah",KALIMANTAN TENGAH,,Indonesia,,,,-1.7014673,113.6407153,https://maps.google.com/?cid=0x0:0xb61036fed8534b09,
perumahan,Perhimpunan Pengembang Perumahan,Neni Lambung,"7J27+6H, Petuk Barunai, Kec. Rakumpit, Kota Palangka Raya, Kalimantan Tengah","Kota Palangka Raya, Kalimantan Tengah",KALIMANTAN TENGAH,,Indonesia,,,,-1.749397,113.613975,https://maps.google.com/?cid=0x0:0x6473c9f1b01d86e,
perumahan,Pembangunan Perumahan,Desa Bawan,"9V9V+VM3, Bawan, Kec. Banama Tingang, Kabupaten Pulang Pisau, Kalimantan Tengah","Kabupaten Pulang Pisau, Kalimantan Tengah",KALIMANTAN TENGAH,,Indonesia,,,,-1.6303636,113.8941657,https://maps.google.com/?cid=0x0:0xc05f506349762ac7,
perumahan,Perhimpunan Pengembang Perumahan,Suwarno 2H,"6JXF+HMG, Pager, Kec. Rakumpit, Kota Palangka Raya, Kalimantan Tengah","Kota Palangka Raya, Kalimantan Tengah",KALIMANTAN TENGAH,,Indonesia,,,,-1.7510737,113.6241921,https://maps.google.com/?cid=0x0:0xc6b7e7e43744900d,
perumahan,Perhimpunan Pengembang Perumahan,Rakumpit,"8J4Q+868, Petuk Barunai, Kec. Rakumpit, Kota Palangka Raya, Kalimantan Tengah 73221","Petuk Barunai, Kec. Rakumpit, Kota Palangka Raya",KALIMANTAN TENGAH,73221.0,Indonesia,,,,-1.6942131,113.638075,https://maps.google.com/?cid=0x0:0x934b211b7cba0025,
perumahan,Perhimpunan Pengembang Perumahan,ELI,"7J56+W4, Petuk Barunai, Kec. Rakumpit, Kota Palangka Raya, Kalimantan Tengah","Kota Palangka Raya, Kalimantan Tengah",KALIMANTAN TENGAH,,Indonesia,,,,-1.740239,113.610337,https://maps.google.com/?cid=0x0:0x72286fec1c4737fa,
perumahan,Perhimpunan Pengembang Perumahan,Hanyi Ether Binti,"7J27+6H, Petuk Barunai, Kec. Rakumpit, Kota Palangka Raya, Kalimantan Tengah","Kota Palangka Raya, Kalimantan Tengah",KALIMANTAN TENGAH,,Indonesia,,,,-1.749271,113.61484,https://maps.google.com/?cid=0x0:0x9954dfedbb650ed0,
perumahan,Komplek perumahan,Gaung Baru,"6PF9+HCF, Gaung Baru, Kec. Rakumpit, Kota Palangka Raya, Kalimantan Tengah 73223","Gaung Baru, Kec. Rakumpit, Kota Palangka Raya",KALIMANTAN TENGAH,73223.0,Indonesia,,,,-1.7760537,113.7185517,https://maps.google.com/?cid=0x0:0x82d966ff765e23a6,
perumahan,Pembangunan Perumahan,Maulana MYE15H,"6HXW+J6, Pager, Kec. Rakumpit, Kota Palangka Raya, Kalimantan Tengah","Kota Palangka Raya, Kalimantan Tengah",KALIMANTAN TENGAH,,Indonesia,,,,-1.7509179,113.5956018,https://maps.google.com/?cid=0x0:0x9b9b2f371e54eb14,
perumahan,Perhimpunan Pengembang Perumahan,LENDRA,"7J26+74, Petuk Barunai, Kec. Rakumpit, Kota Palangka Raya, Kalimantan Tengah","Kota Palangka Raya, Kalimantan Tengah",KALIMANTAN TENGAH,,Indonesia,,,,-1.749277,113.610349,https://maps.google.com/?cid=0x0:0x6163c2062bd230cb,
perumahan,Perhimpunan Pengembang Perumahan,Sapta puja15H,"6HXR+JR, Pager, Kec. Rakumpit, Kota Palangka Raya, Kalimantan Tengah","Kota Palangka Raya, Kalimantan Tengah",KALIMANTAN TENGAH,,Indonesia,,,,-1.7509229,113.5920092,https://maps.google.com/?cid=0x0:0xe52827d6a2746534,
perumahan,perumahan,Kalimantan Tengah 73225,Kalimantan Tengah,Kalimantan Tengah,KALIMANTAN TENGAH,,Indonesia,,,,-1.6327534,113.7037797,https://maps.google.com/?cid=0x0:0xd84e4c939ed33dcd,
perumahan,perumahan,Kec. Bukit Batu,"Kota Palangka Raya, Kalimantan Tengah","Kota Palangka Raya, Kalimantan Tengah",KALIMANTAN TENGAH,,Indonesia,,,,-2.0004344,113.7594376,https://maps.google.com/?cid=0x0:0x1e052cd5457a3765,
perumahan,Komplek perumahan,BUKIT SUA NGAJU,"8M9X+JM4, Bukit Sua, Kec. Rakumpit, Kota Palangka Raya, Kalimantan Tengah","Kota Palangka Raya, Kalimantan Tengah",KALIMANTAN TENGAH,,Indonesia,,,,-1.6809798,113.699214,https://maps.google.com/?cid=0x0:0xb090ffae304b589,
perumahan,Perhimpunan Pengembang Perumahan,Keken SD5H,"7H4V+GG, Petuk Barunai, Kec. Rakumpit, Kota Palangka Raya, Kalimantan Tengah","Kota Palangka Raya, Kalimantan Tengah",KALIMANTAN TENGAH,,Indonesia,,,,-1.7436926,113.5937956,https://maps.google.com/?cid=0x0:0xa81afcd5dbced350,
perumahan,perumahan,ABAH VIO,"7JXR+46, Petuk Barunai, Kec. Rakumpit, Kota Palangka Raya, Kalimantan Tengah","Kota Palangka Raya, Kalimantan Tengah",KALIMANTAN TENGAH,,Indonesia,,,,-1.7014673,113.6407153,https://maps.google.com/?cid=0x0:0xb61036fed8534b09,
perumahan,Perhimpunan Pengembang Perumahan,Rakumpit,"8J4Q+868, Petuk Barunai, Kec. Rakumpit, Kota Palangka Raya, Kalimantan Tengah 73221","Petuk Barunai, Kec. Rakumpit, Kota Palangka Raya",KALIMANTAN TENGAH,73221.0,Indonesia,,,,-1.6942131,113.638075,https://maps.google.com/?cid=0x0:0x934b211b7cba0025,
perumahan,Perhimpunan Pengembang Perumahan,Wahyu MB4H,"7H5V+JG, Petuk Barunai, Kec. Rakumpit, Kota Palangka Raya, Kalimantan Tengah","Kota Palangka Raya, Kalimantan Tengah",KALIMANTAN TENGAH,,Indonesia,,,,-1.7409832,113.5937919,https://maps.google.com/?cid=0x0:0xa0210758ce587d4e,
perumahan,Pembangunan Perumahan,Desa bereng malaka,"CPH8+W77, Bereng Malaka, Kec. Rungan, Kabupaten Gunung MAS, Kalimantan Tengah","Kabupaten Gunung MAS, Kalimantan Tengah",KALIMANTAN TENGAH,,Indonesia,,,,-1.57021,113.7156809,https://maps.google.com/?cid=0x0:0x909b663d388da165,
perumahan,Perhimpunan Pengembang Perumahan,LISTANARA,"7J27+6H, Petuk Barunai, Kec. Rakumpit, Kota Palangka Raya, Kalimantan Tengah","Kota Palangka Raya, Kalimantan Tengah",KALIMANTAN TENGAH,,Indonesia,,,,-1.749272,113.613942,https://maps.google.com/?cid=0x0:0xca8f1cee8fe0aba2,
perumahan,Komplek perumahan,Perumahan AFD 15 SEBRANG,"CH5F+PG, Takaras, Kec. Manuhing, Kabupaten Gunung MAS, Kalimantan Tengah","Kabupaten Gunung MAS, Kalimantan Tengah",KALIMANTAN TENGAH,,Indonesia,,,,-1.5906733,113.5737681,https://maps.google.com/?cid=0x0:0x98cf020711456e4a,
perumahan,Perhimpunan Pengembang Perumahan,Yogo P2H,"7H2F+97, Petuk Barunai, Kec. Rakumpit, Kota Palangka Raya, Kalimantan Tengah","Kota Palangka Raya, Kalimantan Tengah",KALIMANTAN TENGAH,,Indonesia,,,,-1.7490625,113.5731875,https://maps.google.com/?cid=0x0:0xdd1f69cd1075a5b3,
perumahan,Perhimpunan Pengembang Perumahan,ELI,"7J56+W4, Petuk Barunai, Kec. Rakumpit, Kota Palangka Raya, Kalimantan Tengah","Kota Palangka Raya, Kalimantan Tengah",KALIMANTAN TENGAH,,Indonesia,,,,-1.740239,113.610337,https://maps.google.com/?cid=0x0:0x72286fec1c4737fa,
perumahan,Perhimpunan Pengembang Perumahan,Neni Lambung,"7J27+6H, Petuk Barunai, Kec. Rakumpit, Kota Palangka Raya, Kalimantan Tengah","Kota Palangka Raya, Kalimantan Tengah",KALIMANTAN TENGAH,,Indonesia,,,,-1.749397,113.613975,https://maps.google.com/?cid=0x0:0x6473c9f1b01d86e,
perumahan,Komplek perumahan,Desa Bereng Malaka,"HM49+63, Talangkah, Kec. Rungan, Kabupaten Gunung MAS, Kalimantan Tengah 73229","Talangkah, Kec. Rungan, Kabupaten Gunung MAS",KALIMANTAN TENGAH,73229.0,Indonesia,,,,-1.444497,113.667654,https://maps.google.com/?cid=0x0:0x7119d7b0ac42326f,
perumahan,Komplek perumahan,Muara takaras kampung,"CJ35+W7V, Takaras, Kec. Manuhing, Kabupaten Gunung MAS, Kalimantan Tengah 73226","Takaras, Kec. Manuhing, Kabupaten Gunung MAS",KALIMANTAN TENGAH,73226.0,Indonesia,,,,-1.594483,113.607322,https://maps.google.com/?cid=0x0:0x400622a9fc0e0a2e,
perumahan,Perhimpunan Pengembang Perumahan,SIGIT WIDO,"7J58+W7, Petuk Barunai, Kec. Rakumpit, Kota Palangka Raya, Kalimantan Tengah","Kota Palangka Raya, Kalimantan Tengah",KALIMANTAN TENGAH,,Indonesia,,,,-1.740232,113.615726,https://maps.google.com/?cid=0x0:0xa454e889cfd066cf,
perumahan,Pembangunan Perumahan,Desa bereng malaka,"FMQ9+MG, Parempei, Kec. Rungan, Kabupaten Gunung MAS, Kalimantan Tengah 73229","Parempei, Kec. Rungan, Kabupaten Gunung MAS",KALIMANTAN TENGAH,73229.0,Indonesia,,,,-1.5108411,113.6687804,https://maps.google.com/?cid=0x0:0xd4e33bffbd57ad0c,
perumahan,Pembangunan Perumahan,DESA TAKARAS MANUHING KAB. GUNUNG MAS,"CJ35+W7V, Takaras, Kec. Manuhing, Kabupaten Gunung MAS, Kalimantan Tengah 73226","Takaras, Kec. Manuhing, Kabupaten Gunung MAS",KALIMANTAN TENGAH,73226.0,Indonesia,,,,-1.594483,113.607322,https://maps.google.com/?cid=0x0:0x66c301b4fe758a97,
perumahan,Perhimpunan Pengembang Perumahan,DAVIDSON LAMBUNG,"7J27+6H, Petuk Barunai, Kec. Rakumpit, Kota Palangka Raya, Kalimantan Tengah","Kota Palangka Raya, Kalimantan Tengah",KALIMANTAN TENGAH,,Indonesia,,,,-1.749269,113.616187,https://maps.google.com/?cid=0x0:0x89f65538d3c65d4c,
perumahan,perumahan,Rumah Aldolin,"HJ2W+PV, Talangkah, Kec. Rungan, Kabupaten Gunung MAS, Kalimantan Tengah","Kabupaten Gunung MAS, Kalimantan Tengah",KALIMANTAN TENGAH,,Indonesia,,,,-1.448245,113.6471272,https://maps.google.com/?cid=0x0:0x57b2f07ea29ee203,
perumahan,Developer Rumah Hunian Khusus,rumah kavling BUKIT BATU ASRI,"Jl. Langon Sari, RT.06/RW.09, Langonsari, Kec. Pameungpeuk, Kabupaten Bandung, Jawa Barat 40376","RT.06/RW.09, Langonsari, Kec. Pameungpeuk, Kabupaten Bandung",KALIMANTAN TENGAH,40376.0,Indonesia, 083190138331,,,-7.0219256,107.6063988,https://maps.google.com/?cid=0x0:0x5e6a019d06e6b10c,
perumahan,Komplek perumahan,Perumahan Pesona Bukit Batuah,"Blk. R1 No.12, Jatimulya, Kec. Cilodong, Kota Depok, Jawa Barat","Kota Depok, Jawa Barat",KALIMANTAN TENGAH,,Indonesia,,,,-6.4502174,106.8373286,https://maps.google.com/?cid=0x0:0x96f4f4b9e70cfb24,
perumahan,perumahan,Kalimantan Tengah 73226,"Kabupaten Gunung MAS, Kalimantan Tengah","Kabupaten Gunung MAS, Kalimantan Tengah",KALIMANTAN TENGAH,,Indonesia,,,,-1.6157967,113.6323674,https://maps.google.com/?cid=0x0:0x543f124ecfdfc35d,
perumahan,perumahan,Kec. Bukit Batu,"Kota Palangka Raya, Kalimantan Tengah","Kota Palangka Raya, Kalimantan Tengah",KALIMANTAN TENGAH,,Indonesia,,,,-2.0004344,113.7594376,https://maps.google.com/?cid=0x0:0x1e052cd5457a3765,
perumahan,Tempat Religius,Wisata Bukit Batu Pertapaan Tjilik Riwut,"4F39+W6V, S Jl. Trans Kalimantan, Kasongan Lama, Katingan Hilir, Katingan Regency, Central Kalimantan 74461","S Jl. Trans Kalimantan, Kasongan Lama, Katingan Hilir, Katingan Regency",KALIMANTAN TENGAH,74461.0,Indonesia,,,,-1.8951303,113.4680533,https://maps.google.com/?cid=0x0:0xcb4e6c653c6fae85,
perumahan,Komplek perumahan,Perumahan AFD 15 SEBRANG,"CH5F+PG, Takaras, Kec. Manuhing, Kabupaten Gunung MAS, Kalimantan Tengah","Kabupaten Gunung MAS, Kalimantan Tengah",KALIMANTAN TENGAH,,Indonesia,,,,-1.5906733,113.5737681,https://maps.google.com/?cid=0x0:0x98cf020711456e4a,
perumahan,perumahan,ABAH VIO,"7JXR+46, Petuk Barunai, Kec. Rakumpit, Kota Palangka Raya, Kalimantan Tengah","Kota Palangka Raya, Kalimantan Tengah",KALIMANTAN TENGAH,,Indonesia,,,,-1.7014673,113.6407153,https://maps.google.com/?cid=0x0:0xb61036fed8534b09,
perumahan,Perhimpunan Pengembang Perumahan,Rakumpit,"8J4Q+868, Petuk Barunai, Kec. Rakumpit, Kota Palangka Raya, Kalimantan Tengah 73221","Petuk Barunai, Kec. Rakumpit, Kota Palangka Raya",KALIMANTAN TENGAH,73221.0,Indonesia,,,,-1.6942131,113.638075,https://maps.google.com/?cid=0x0:0x934b211b7cba0025,
perumahan,Komplek perumahan,Muara takaras kampung,"CJ35+W7V, Takaras, Kec. Manuhing, Kabupaten Gunung MAS, Kalimantan Tengah 73226","Takaras, Kec. Manuhing, Kabupaten Gunung MAS",KALIMANTAN TENGAH,73226.0,Indonesia,,,,-1.594483,113.607322,https://maps.google.com/?cid=0x0:0x400622a9fc0e0a2e,
perumahan,Pembangunan Perumahan,Desa bereng malaka,"CPH8+W77, Bereng Malaka, Kec. Rungan, Kabupaten Gunung MAS, Kalimantan Tengah","Kabupaten Gunung MAS, Kalimantan Tengah",KALIMANTAN TENGAH,,Indonesia,,,,-1.57021,113.7156809,https://maps.google.com/?cid=0x0:0x909b663d388da165,
perumahan,Perhimpunan Pengembang Perumahan,Keken SD5H,"7H4V+GG, Petuk Barunai, Kec. Rakumpit, Kota Palangka Raya, Kalimantan Tengah","Kota Palangka Raya, Kalimantan Tengah",KALIMANTAN TENGAH,,Indonesia,,,,-1.7436926,113.5937956,https://maps.google.com/?cid=0x0:0xa81afcd5dbced350,
perumahan,Kantor Pemerintah,Kantor Desa Bukit Batu,"2XM8+H53, Bukit Batu, Kec. Cempaga Hulu, Kabupaten Kotawaringin Timur, Kalimantan Tengah 74354","Bukit Batu, Kec. Cempaga Hulu, Kabupaten Kotawaringin Timur",KALIMANTAN TENGAH,74354.0,Indonesia,,,,-1.9661007,112.965432,https://maps.google.com/?cid=0x0:0xc8cf108a37da7fce,
perumahan,Pembangunan Perumahan,Perumahan Bumi Rahayu,"4C38+G2, Kasongan Lama, Kec. Katingan Hilir, Kabupaten Katingan, Kalimantan Tengah 74413","Kasongan Lama, Kec. Katingan Hilir, Kabupaten Katingan",KALIMANTAN TENGAH,74413.0,Indonesia,,,,-1.8961283,113.4150933,https://maps.google.com/?cid=0x0:0xfd27856b199140a6,
perumahan,Taman,Rumah mah2 obhet,"CJ35+W7V, Takaras, Kec. Manuhing, Kabupaten Gunung MAS, Kalimantan Tengah 73226","Takaras, Kec. Manuhing, Kabupaten Gunung MAS",KALIMANTAN TENGAH,73226.0,Indonesia, 081351300423,,,-1.5944013,113.6073678,https://maps.google.com/?cid=0x0:0xb6c984f61ff1d0a5,
perumahan,Pembangunan Perumahan,DESA TAKARAS MANUHING KAB. GUNUNG MAS,"CJ35+W7V, Takaras, Kec. Manuhing, Kabupaten Gunung MAS, Kalimantan Tengah 73226","Takaras, Kec. Manuhing, Kabupaten Gunung MAS",KALIMANTAN TENGAH,73226.0,Indonesia,,,,-1.594483,113.607322,https://maps.google.com/?cid=0x0:0x66c301b4fe758a97,
perumahan,Perhimpunan Pengembang Perumahan,Wahyu MB4H,"7H5V+JG, Petuk Barunai, Kec. Rakumpit, Kota Palangka Raya, Kalimantan Tengah","Kota Palangka Raya, Kalimantan Tengah",KALIMANTAN TENGAH,,Indonesia,,,,-1.7409832,113.5937919,https://maps.google.com/?cid=0x0:0xa0210758ce587d4e,
perumahan,perumahan,Sipet,"FGJ8+3HX, Bereng Jun, Kec. Manuhing, Kabupaten Gunung MAS, Kalimantan Tengah","Kabupaten Gunung MAS, Kalimantan Tengah",KALIMANTAN TENGAH,,Indonesia,,,,-1.5197717,113.5164851,https://maps.google.com/?cid=0x0:0x35360f1d03df72fd,
perumahan,Kantor Perusahaan,Jember Selatan Camp,"CG5Q+75, Bereng Jun, Kec. Manuhing, Kabupaten Gunung MAS, Kalimantan Tengah 73227","Bereng Jun, Kec. Manuhing, Kabupaten Gunung MAS",KALIMANTAN TENGAH,73227.0,Indonesia, 082337560096,,,-1.591772,113.537955,https://maps.google.com/?cid=0x0:0x1a66a4c72d8a1c16,
perumahan,Perhimpunan Pengembang Perumahan,SIGIT WIDO,"7J58+W7, Petuk Barunai, Kec. Rakumpit, Kota Palangka Raya, Kalimantan Tengah","Kota Palangka Raya, Kalimantan Tengah",KALIMANTAN TENGAH,,Indonesia,,,,-1.740232,113.615726,https://maps.google.com/?cid=0x0:0xa454e889cfd066cf,
perumahan,Komplek perumahan,Desa Bereng Malaka,"HM49+63, Talangkah, Kec. Rungan, Kabupaten Gunung MAS, Kalimantan Tengah 73229","Talangkah, Kec. Rungan, Kabupaten Gunung MAS",KALIMANTAN TENGAH,73229.0,Indonesia,,,,-1.444497,113.667654,https://maps.google.com/?cid=0x0:0x7119d7b0ac42326f,
perumahan,perumahan,Rumah Aldolin,"HJ2W+PV, Talangkah, Kec. Rungan, Kabupaten Gunung MAS, Kalimantan Tengah","Kabupaten Gunung MAS, Kalimantan Tengah",KALIMANTAN TENGAH,,Indonesia,,,,-1.448245,113.6471272,https://maps.google.com/?cid=0x0:0x57b2f07ea29ee203,
perumahan,Perhimpunan Pengembang Perumahan,Yogo P2H,"7H2F+97, Petuk Barunai, Kec. Rakumpit, Kota Palangka Raya, Kalimantan Tengah","Kota Palangka Raya, Kalimantan Tengah",KALIMANTAN TENGAH,,Indonesia,,,,-1.7490625,113.5731875,https://maps.google.com/?cid=0x0:0xdd1f69cd1075a5b3,
perumahan,Pembangunan Perumahan,Desa bereng malaka,"FMQ9+MG, Parempei, Kec. Rungan, Kabupaten Gunung MAS, Kalimantan Tengah 73229","Parempei, Kec. Rungan, Kabupaten Gunung MAS",KALIMANTAN TENGAH,73229.0,Indonesia,,,,-1.5108411,113.6687804,https://maps.google.com/?cid=0x0:0xd4e33bffbd57ad0c,
perumahan,Pembangunan Perumahan,Bukit Asri Residence,"Jl. Batu No.13, RT.13/RW.9, Srengseng Sawah, Kec. Jagakarsa, Kota Jakarta Selatan, Daerah Khusus Ibukota Jakarta 12640","RT.13/RW.9, Srengseng Sawah, Kec. Jagakarsa, Kota Jakarta Selatan",KALIMANTAN TENGAH,12640.0,Indonesia,,,,-6.3518835,106.8149694,https://maps.google.com/?cid=0x0:0x7aa6602e5a346837,
perumahan,Developer Rumah Hunian Khusus,rumah kavling BUKIT BATU ASRI,"Jl. Langon Sari, RT.06/RW.09, Langonsari, Kec. Pameungpeuk, Kabupaten Bandung, Jawa Barat 40376","RT.06/RW.09, Langonsari, Kec. Pameungpeuk, Kabupaten Bandung",KALIMANTAN TENGAH,40376.0,Indonesia, 083190138331,,,-7.0219256,107.6063988,https://maps.google.com/?cid=0x0:0x5e6a019d06e6b10c,
perumahan,Komplek perumahan,Perumahan Pesona Bukit Batuah,"Blk. R1 No.12, Jatimulya, Kec. Cilodong, Kota Depok, Jawa Barat","Kota Depok, Jawa Barat",KALIMANTAN TENGAH,,Indonesia,,,,-6.4502174,106.8373286,https://maps.google.com/?cid=0x0:0x96f4f4b9e70cfb24,
perumahan,perumahan,Kalimantan Tengah 73111,"Menteng, Kec. Jekan Raya, Kota Palangka Raya, Kalimantan Tengah","Kota Palangka Raya, Kalimantan Tengah",KALIMANTAN TENGAH,,Indonesia,,,,-2.2370103,113.9075943,https://maps.google.com/?cid=0x0:0xebd5272dd2bb60bf,
perumahan,Perumahan,Perumahan Trimitra,"QV8M+G9F, Jl. G. Obos XVII, Menteng, Kec. Jekan Raya, Kota Palangka Raya, Kalimantan Tengah 74874","Jl. G. Obos XVII, Menteng, Kec. Jekan Raya, Kota Palangka Raya",KALIMANTAN TENGAH,74874.0,Indonesia, 081282786361,,,-2.2336842,113.8834146,https://maps.google.com/?cid=0x0:0x8a876d25e1ec2004,
perumahan,Komplek perumahan,Rumah,"QW64+RHP, Jl. Menteng XII Jl. Embang III, Menteng, Kec. Jekan Raya, Kota Palangka Raya, Kalimantan Tengah 74874","Jl. Menteng XII Jl. Embang III, Menteng, Kec. Jekan Raya, Kota Palangka Raya",KALIMANTAN TENGAH,74874.0,Indonesia,,,,-2.2379112,113.9064535,https://maps.google.com/?cid=0x0:0xda848cae38449166,
perumahan,perumahan,Rumah Ainun,"QW64+XMV, Menteng, Kec. Jekan Raya, Kota Palangka Raya, Kalimantan Tengah 74874","Menteng, Kec. Jekan Raya, Kota Palangka Raya",KALIMANTAN TENGAH,74874.0,Indonesia,,,,-2.2375823,113.906648,https://maps.google.com/?cid=0x0:0x7eea19c402911d2,
perumahan,Komplek perumahan,Delta Home,"QW64+XMV, Menteng, Kec. Jekan Raya, Kota Palangka Raya, Kalimantan Tengah 74874","Menteng, Kec. Jekan Raya, Kota Palangka Raya",KALIMANTAN TENGAH,74874.0,Indonesia,,,,-2.2375221,113.9066716,https://maps.google.com/?cid=0x0:0xe68db1bb514fee11,
perumahan,Pembangunan Perumahan,Alamat,"Jl. Bapuyu No.14, Bukit Tunggal, Kec. Jekan Raya, Kota Palangka Raya, Kalimantan Tengah 74874","Bukit Tunggal, Kec. Jekan Raya, Kota Palangka Raya",KALIMANTAN TENGAH,74874.0,Indonesia, 081255268384,,,-2.1813588,113.8709236,https://maps.google.com/?cid=0x0:0x3b3adbaf58fc7d0,
perumahan,Perusahaan investasi properti,Rumah dijual,"QVWW+XQM, Jl. Beliang, Palangka, Kec. Jekan Raya, Kota Palangka Raya, Kalimantan Tengah 74874","Jl. Beliang, Palangka, Kec. Jekan Raya, Kota Palangka Raya",KALIMANTAN TENGAH,74874.0,Indonesia,,,,-2.2025411,113.8969327,https://maps.google.com/?cid=0x0:0x1cdb173904f70a3,
perumahan,Pembangunan Perumahan,Perumahan Kalibata,"Jl. Kalibata Gg. Hijrah 4 No.A18 Blk. E1, Menteng, Kec. Jekan Raya, Kota Palangka Raya, Kalimantan Tengah 74874","Menteng, Kec. Jekan Raya, Kota Palangka Raya",KALIMANTAN TENGAH,74874.0,Indonesia,,,,-2.2619845,113.9138785,https://maps.google.com/?cid=0x0:0x4e89f09bd3d866ff,
perumahan,Penginapan,Kalibata Residence,"PWJ5+RJ3, Jl. Kalibata V, Menteng, Kec. Jekan Raya, Kota Palangka Raya, Kalimantan Tengah 74874","Jl. Kalibata V, Menteng, Kec. Jekan Raya, Kota Palangka Raya",KALIMANTAN TENGAH,74874.0,Indonesia, 085252944844,,,-2.2679958,113.9090581,https://maps.google.com/?cid=0x0:0xedf563b5a85e9640,
perumahan,Pembangunan Perumahan,Perumahan,"Perumahan KPR, Jl. Tmg. Tilung XII No.29b, Menteng, Kec. Jekan Raya, Kota Palangka Raya, Kalimantan Tengah 73111","Jl. Tmg. Tilung XII No.29b, Menteng, Kec. Jekan Raya, Kota Palangka Raya",KALIMANTAN TENGAH,73111.0,Indonesia,,,,-2.2309982,113.9111515,https://maps.google.com/?cid=0x0:0xc4ed42e76fae932b,
perumahan,Pembangunan Perumahan,Kpr baru,"Jl. Banteng No.23, Bukit Tunggal, Kec. Jekan Raya, Kota Palangka Raya, Kalimantan Tengah 74874","Bukit Tunggal, Kec. Jekan Raya, Kota Palangka Raya",KALIMANTAN TENGAH,74874.0,Indonesia,,,,-2.1957969,113.8638299,https://maps.google.com/?cid=0x0:0x2bc71f4b018e02cb,
perumahan,perumahan,Kalimantan Tengah 73112,"Bukit Tunggal, Kec. Jekan Raya, Kota Palangka Raya, Kalimantan Tengah","Kota Palangka Raya, Kalimantan Tengah",KALIMANTAN TENGAH,,Indonesia,,,,-2.1933111,113.8886973,https://maps.google.com/?cid=0x0:0x57b4a29625d97d46,
perumahan,Komplek perumahan,Rumah,"Jl. Tingang No.71, Palangka, Kec. Jekan Raya, Kota Palangka Raya, Kalimantan Tengah 74874","Palangka, Kec. Jekan Raya, Kota Palangka Raya",KALIMANTAN TENGAH,74874.0,Indonesia,,,,-2.192403,113.8905525,https://maps.google.com/?cid=0x0:0x92b1711581b02eff,
perumahan,Kantor Perusahaan,PT. KMP,"Jl. Garuda Raya Ruko Garuda Mas No.3, Palangka, Kec. Jekan Raya, Kota Palangka Raya, Kalimantan Tengah 73112","Palangka, Kec. Jekan Raya, Kota Palangka Raya",KALIMANTAN TENGAH,73112.0,Indonesia, 08115205788,,,-2.1933111,113.8886973,https://maps.google.com/?cid=0x0:0xaf2f96a265004195,
perumahan,Komplek perumahan,RUMAH,"RV5Q+2M2, Jl. Rajawali III, Bukit Tunggal, Kec. Jekan Raya, Kota Palangka Raya, Kalimantan Tengah 74874","Jl. Rajawali III, Bukit Tunggal, Kec. Jekan Raya, Kota Palangka Raya",KALIMANTAN TENGAH,74874.0,Indonesia,,,,-2.192776,113.8885495,https://maps.google.com/?cid=0x0:0x128117c3750877ef,
perumahan,Perumahan,Perumahan Trimitra,"QV8M+G9F, Jl. G. Obos XVII, Menteng, Kec. Jekan Raya, Kota Palangka Raya, Kalimantan Tengah 74874","Jl. G. Obos XVII, Menteng, Kec. Jekan Raya, Kota Palangka Raya",KALIMANTAN TENGAH,74874.0,Indonesia, 081282786361,,,-2.2336842,113.8834146,https://maps.google.com/?cid=0x0:0x8a876d25e1ec2004,
perumahan,Komplek perumahan,perumahan,"Jl. Temanggung Tilung 12 No.39, Menteng, Kec. Jekan Raya, Kota Palangka Raya, Kalimantan Tengah 74874","Menteng, Kec. Jekan Raya, Kota Palangka Raya",KALIMANTAN TENGAH,74874.0,Indonesia,,,,-2.2305367,113.9127339,https://maps.google.com/?cid=0x0:0x2c8477fca6d6d12,
perumahan,Pembangunan Perumahan,Perumahan Manazil 12,"VR2H+86R, Bukit Tunggal, Kec. Jekan Raya, Kota Palangka Raya, Kalimantan Tengah 73113","Bukit Tunggal, Kec. Jekan Raya, Kota Palangka Raya",KALIMANTAN TENGAH,73113.0,Indonesia, 082251745555,,,-2.1491486,113.8280239,https://maps.google.com/?cid=0x0:0x536c07b6b87ecd85,
perumahan,Kantor Perusahaan,Perumahan ALHAITAMI,"QW26+VQP, Menteng, Kec. Jekan Raya, Kota Palangka Raya, Kalimantan Tengah 74874","Menteng, Kec. Jekan Raya, Kota Palangka Raya",KALIMANTAN TENGAH,74874.0,Indonesia,,,,-2.2477986,113.9119547,https://maps.google.com/?cid=0x0:0x389f483cf0ab11d0,
perumahan,Komplek perumahan,Rumah Orang Tua,"Jl. Rajawali III No.28, Bukit Tunggal, Kec. Jekan Raya, Kota Palangka Raya, Kalimantan Tengah 74874","Bukit Tunggal, Kec. Jekan Raya, Kota Palangka Raya",KALIMANTAN TENGAH,74874.0,Indonesia,,,,-2.1921494,113.8893943,https://maps.google.com/?cid=0x0:0x4d90574b88b4706e,
perumahan,Komplek perumahan,SANJAYA,"Jl. Tingang No.20 F, Bukit Tunggal, Kec. Jekan Raya, Kota Palangka Raya, Kalimantan Tengah 74874","Bukit Tunggal, Kec. Jekan Raya, Kota Palangka Raya",KALIMANTAN TENGAH,74874.0,Indonesia,,,,-2.1922933,113.8906661,https://maps.google.com/?cid=0x0:0x9b9b14d450a5d6b1,
perumahan,Komplek perumahan,Rumah Rio,"Jl. Rajawali V No.22, Bukit Tunggal, Kec. Jekan Raya, Kota Palangka Raya, Kalimantan Tengah 74874","Bukit Tunggal, Kec. Jekan Raya, Kota Palangka Raya",KALIMANTAN TENGAH,74874.0,Indonesia,,,,-2.1912222,113.8885299,https://maps.google.com/?cid=0x0:0x4e355481dbdcb818,
perumahan,Pembangunan Perumahan,Alamat,"Jl. Bapuyu No.14, Bukit Tunggal, Kec. Jekan Raya, Kota Palangka Raya, Kalimantan Tengah 74874","Bukit Tunggal, Kec. Jekan Raya, Kota Palangka Raya",KALIMANTAN TENGAH,74874.0,Indonesia, 081255268384,,,-2.1813588,113.8709236,https://maps.google.com/?cid=0x0:0x3b3adbaf58fc7d0,
perumahan,Komplek perumahan,Lokasi,"RV4X+39W, Jl. Tiung II, Palangka, Kec. Jekan Raya, Kota Palangka Raya, Kalimantan Tengah 74874","Jl. Tiung II, Palangka, Kec. Jekan Raya, Kota Palangka Raya",KALIMANTAN TENGAH,74874.0,Indonesia,,,,-2.1947624,113.8984604,https://maps.google.com/?cid=0x0:0x6c978cab308feb2a,
perumahan,Komplek perumahan,Perumahan Casadova Indah Permai by CV.Kelvin Berkah Mandiri,"RRRJ+69X, Bukit Tunggal, Kec. Jekan Raya, Kota Palangka Raya, Kalimantan Tengah 74874","Bukit Tunggal, Kec. Jekan Raya, Kota Palangka Raya",KALIMANTAN TENGAH,74874.0,Indonesia, 085246677999,,,-2.1593886,113.830999,https://maps.google.com/?cid=0x0:0x721dd53f43e7bb42,
perumahan,Komplek perumahan,Rumah Om Leon,"Jl. Tingang IV A No.02, Bukit Tunggal, Kec. Jekan Raya, Kota Palangka Raya, Kalimantan Tengah 74874","Bukit Tunggal, Kec. Jekan Raya, Kota Palangka Raya",KALIMANTAN TENGAH,74874.0,Indonesia,,,,-2.1931531,113.8889477,https://maps.google.com/?cid=0x0:0xceb896a13e0d1567,
perumahan,Pembangunan Perumahan,Perumahan,"Perumahan KPR, Jl. Tmg. Tilung XII No.29b, Menteng, Kec. Jekan Raya, Kota Palangka Raya, Kalimantan Tengah 73111","Jl. Tmg. Tilung XII No.29b, Menteng, Kec. Jekan Raya, Kota Palangka Raya",KALIMANTAN TENGAH,73111.0,Indonesia,,,,-2.2309982,113.9111515,https://maps.google.com/?cid=0x0:0xc4ed42e76fae932b,
perumahan,Komplek perumahan,Perum BKKBN Prov,"Jl. Tingang No.16, Palangka, Kec. Jekan Raya, Kota Palangka Raya, Kalimantan Tengah 74874","Palangka, Kec. Jekan Raya, Kota Palangka Raya",KALIMANTAN TENGAH,74874.0,Indonesia,,,,-2.1923272,113.8906331,https://maps.google.com/?cid=0x0:0x7f7e2242827b278f,
perumahan,Jasa Konstruksi dan Bangunan,WALET PAK WAHONO,"RV4Q+V9R, Jl. Tingang IV, Palangka, Kec. Jekan Raya, Kota Palangka Raya, Kalimantan Tengah 74874","Jl. Tingang IV, Palangka, Kec. Jekan Raya, Kota Palangka Raya",KALIMANTAN TENGAH,74874.0,Indonesia,,,,-2.1927736,113.8884046,https://maps.google.com/?cid=0x0:0xcdd2328f4db4b775,
perumahan,Komplek perumahan,DE HOLLAND RESIDENCE,"PW3G+PJ6, Sabaru, Kec. Sebangau, Kota Palangka Raya, Kalimantan Tengah","Kota Palangka Raya, Kalimantan Tengah",KALIMANTAN TENGAH,,Indonesia,,,,-2.2957123,113.9265177,https://maps.google.com/?cid=0x0:0xac46fa3964db53e5,
perumahan,Komplek perumahan,Perumahan Casadova,"QV8Q+XJQ, Jl. G. Obos 16, Menteng, Kec. Jekan Raya, Kota Palangka Raya, Kalimantan Tengah 74874","Jl. G. Obos 16, Menteng, Kec. Jekan Raya, Kota Palangka Raya",KALIMANTAN TENGAH,74874.0,Indonesia,,,,-2.2325335,113.8891233,https://maps.google.com/?cid=0x0:0x3b76fe37e1b6b981,
perumahan,Perumahan,perumahan BTN,"QV9P+5F7, Jl. G. Obos XV, Menteng, Kec. Jekan Raya, Kota Palangka Raya, Kalimantan Tengah 74874","Jl. G. Obos XV, Menteng, Kec. Jekan Raya, Kota Palangka Raya",KALIMANTAN TENGAH,74874.0,Indonesia, 081228617673,,,-2.2320826,113.8861639,https://maps.google.com/?cid=0x0:0x914d51aeaf886ee2,
perumahan,Apotek,Rumah di jual,"RV4X+W5W, Palangka, Kec. Jekan Raya, Kota Palangka Raya, Kalimantan Tengah 74874","Palangka, Kec. Jekan Raya, Kota Palangka Raya",KALIMANTAN TENGAH,74874.0,Indonesia,,,,-2.1926461,113.897948,https://maps.google.com/?cid=0x0:0x8c0bad6e923fb599,
perumahan,Pembangunan Perumahan,Kpr baru,"Jl. Banteng No.23, Bukit Tunggal, Kec. Jekan Raya, Kota Palangka Raya, Kalimantan Tengah 74874","Bukit Tunggal, Kec. Jekan Raya, Kota Palangka Raya",KALIMANTAN TENGAH,74874.0,Indonesia,,,,-2.1957969,113.8638299,https://maps.google.com/?cid=0x0:0x2bc71f4b018e02cb,
perumahan,perumahan,Kalimantan Tengah 73118,Kalimantan Tengah,Kalimantan Tengah,KALIMANTAN TENGAH,,Indonesia,,,,-1.8372983,113.7870822,https://maps.google.com/?cid=0x0:0x11883074e3244d68,
perumahan,perumahan,Palangka,"3M47+7CW, Jl. Trans Kalimantan, Palangka, Kec. Jekan Raya, Kota Palangka Raya, Kalimantan Tengah 73112","Jl. Trans Kalimantan, Palangka, Kec. Jekan Raya, Kota Palangka Raya",KALIMANTAN TENGAH,73112.0,Indonesia,,,,-1.9442731,113.6635633,https://maps.google.com/?cid=0x0:0x47a4a114c1cf5f9a,
perumahan,Komplek perumahan,Gaung Baru,"6PF9+HCF, Gaung Baru, Kec. Rakumpit, Kota Palangka Raya, Kalimantan Tengah 73223","Gaung Baru, Kec. Rakumpit, Kota Palangka Raya",KALIMANTAN TENGAH,73223.0,Indonesia,,,,-1.7760537,113.7185517,https://maps.google.com/?cid=0x0:0x82d966ff765e23a6,
perumahan,Perhimpunan Pengembang Perumahan,Rumah pondok,"5M5P+9C, Petuk Bukit, Kec. Rakumpit, Kota Palangka Raya, Kalimantan Tengah","Kota Palangka Raya, Kalimantan Tengah",KALIMANTAN TENGAH,,Indonesia,,,,-1.841545,113.686032,https://maps.google.com/?cid=0x0:0x4ff3099521d7a478,
perumahan,Perhimpunan Pengembang Perumahan,Maizar 59,"5MGP+JH, Pager, Kec. Rakumpit, Kota Palangka Raya, Kalimantan Tengah","Kota Palangka Raya, Kalimantan Tengah",KALIMANTAN TENGAH,,Indonesia,,,,-1.823444,113.686404,https://maps.google.com/?cid=0x0:0x45530465e399b1ff,
perumahan,Komplek perumahan,perumahan,"Jl. Temanggung Tilung 12 No.39, Menteng, Kec. Jekan Raya, Kota Palangka Raya, Kalimantan Tengah 74874","Menteng, Kec. Jekan Raya, Kota Palangka Raya",KALIMANTAN TENGAH,74874.0,Indonesia,,,,-2.2305367,113.9127339,https://maps.google.com/?cid=0x0:0x2c8477fca6d6d12,
perumahan,Perhimpunan Pengembang Perumahan,Khuri,"5MJP+HF, Pager, Kec. Rakumpit, Kota Palangka Raya, Kalimantan Tengah","Kota Palangka Raya, Kalimantan Tengah",KALIMANTAN TENGAH,,Indonesia,,,,-1.818589,113.686171,https://maps.google.com/?cid=0x0:0x5b967d0f69d47aae,
perumahan,Pembangunan Perumahan,"Dewiana, SP.","4J69+96M, Petuk Bukit, Kec. Rakumpit, Kota Palangka Raya, Kalimantan Tengah","Kota Palangka Raya, Kalimantan Tengah",KALIMANTAN TENGAH,,Indonesia,,,,-1.8890285,113.618057,https://maps.google.com/?cid=0x0:0xc3498c43db9839bb,
perumahan,Komplek perumahan,Rumah nadya.,"Jl. Gereja No.21, Sei Gohong, Kec. Bukit Batu, Kota Palangka Raya, Kalimantan Tengah 73112","Sei Gohong, Kec. Bukit Batu, Kota Palangka Raya",KALIMANTAN TENGAH,73112.0,Indonesia,,,,-1.9604233,113.7541603,https://maps.google.com/?cid=0x0:0x870f09256824d8e7,
perumahan,Perhimpunan Pengembang Perumahan,Abdul Pandi,"5MHP+59, Pager, Kec. Rakumpit, Kota Palangka Raya, Kalimantan Tengah","Kota Palangka Raya, Kalimantan Tengah",KALIMANTAN TENGAH,,Indonesia,,,,-1.822046,113.685876,https://maps.google.com/?cid=0x0:0x9d51b277e3eb7808,
perumahan,Pembangunan Perumahan,Alamat,"Jl. Bapuyu No.14, Bukit Tunggal, Kec. Jekan Raya, Kota Palangka Raya, Kalimantan Tengah 74874","Bukit Tunggal, Kec. Jekan Raya, Kota Palangka Raya",KALIMANTAN TENGAH,74874.0,Indonesia, 081255268384,,,-2.1813588,113.8709236,https://maps.google.com/?cid=0x0:0x3b3adbaf58fc7d0,
perumahan,Pembangunan Perumahan,Perumahan Griya Subur Asri,"RRPH+V49, Jl. Nagasari, Bukit Tunggal, Kec. Jekan Raya, Kota Palangka Raya, Kalimantan Tengah 74874","Jl. Nagasari, Bukit Tunggal, Kec. Jekan Raya, Kota Palangka Raya",KALIMANTAN TENGAH,74874.0,Indonesia,,,,-2.1628408,113.8278477,https://maps.google.com/?cid=0x0:0x7d58859e000eb4ac,
perumahan,Komplek perumahan,Tanah Dius,"2MX9+HM, Tangkiling, Kec. Bukit Batu, Kota Palangka Raya, Kalimantan Tengah","Kota Palangka Raya, Kalimantan Tengah",KALIMANTAN TENGAH,,Indonesia,,,,-1.9510928,113.6691917,https://maps.google.com/?cid=0x0:0x7598ade6cc3f5daa,
perumahan,Komplek perumahan,Omah areng,"4MQP+VF, Petuk Bukit, Kec. Rakumpit, Kota Palangka Raya, Kalimantan Tengah","Kota Palangka Raya, Kalimantan Tengah",KALIMANTAN TENGAH,,Indonesia,,,,-1.8602909,113.6862438,https://maps.google.com/?cid=0x0:0x4df13fb0f97d7c70,
perumahan,Komplek perumahan,Rumah Saltoni,"2QP4+MF, Sei Gohong, Kec. Bukit Batu, Kota Palangka Raya, Kalimantan Tengah 73112","Sei Gohong, Kec. Bukit Batu, Kota Palangka Raya",KALIMANTAN TENGAH,73112.0,Indonesia,,,,-1.9633658,113.7561651,https://maps.google.com/?cid=0x0:0x95e5f2ef699e059d,
perumahan,Komplek perumahan,Rumah Nola,"6XG2+9R4, Jl. Palangka Raya - Kuala Kurun, Lawang Uru, Kec. Banama Tingang, Kabupaten Pulang Pisau, Kalimantan Tengah 74862","Jl. Palangka Raya - Kuala Kurun, Lawang Uru, Kec. Banama Tingang, Kabupaten Pulang Pisau",KALIMANTAN TENGAH,74862.0,Indonesia,,,,-1.773861,113.952027,https://maps.google.com/?cid=0x0:0x28417865c8500e15,
perumahan,Komplek perumahan,Rumah Bapak Dian,"2MQW+2G9, Tangkiling, Kec. Bukit Batu, Kota Palangka Raya, Kalimantan Tengah 73112","Tangkiling, Kec. Bukit Batu, Kota Palangka Raya",KALIMANTAN TENGAH,73112.0,Indonesia,,,,-1.9624648,113.6963675,https://maps.google.com/?cid=0x0:0x647eadf2456765a2,
perumahan,Pembangunan Perumahan,Perumahan,"Perumahan KPR, Jl. Tmg. Tilung XII No.29b, Menteng, Kec. Jekan Raya, Kota Palangka Raya, Kalimantan Tengah 73111","Jl. Tmg. Tilung XII No.29b, Menteng, Kec. Jekan Raya, Kota Palangka Raya",KALIMANTAN TENGAH,73111.0,Indonesia,,,,-2.2309982,113.9111515,https://maps.google.com/?cid=0x0:0xc4ed42e76fae932b,
perumahan,Komplek perumahan,Rumah chantika,"2PXJ+WP3 UPT, Jl. Cendrawasih II No.KM 38, Sei Gohong, Kec. Bukit Batu, Kota Palangka Raya, Kalimantan Tengah 73112","Jl. Cendrawasih II No.KM 38, Sei Gohong, Kec. Bukit Batu, Kota Palangka Raya",KALIMANTAN TENGAH,73112.0,Indonesia,,,,-1.950419,113.732899,https://maps.google.com/?cid=0x0:0x771cdd0c1de936d,
perumahan,Komplek perumahan,Kasali Baru,"8W5X+GG4, Jl. Palangka Raya - Kuala Kurun, Palangka, Kec. Banama Tingang, Kota Palangka Raya, Kalimantan Tengah","Kota Palangka Raya, Kalimantan Tengah",KALIMANTAN TENGAH,,Indonesia,,,,-1.69124,113.948825,https://maps.google.com/?cid=0x0:0x53acaa0f67dde228,
perumahan,Komplek perumahan,Perumahan,"Jl. Beliang IA Blk. A No.7, Palangka, Kec. Jekan Raya, Kota Palangka Raya, Kalimantan Tengah 74874","Palangka, Kec. Jekan Raya, Kota Palangka Raya",KALIMANTAN TENGAH,74874.0,Indonesia,,,,-2.2006339,113.9034805,https://maps.google.com/?cid=0x0:0x632e77649b05ead2,
perumahan,Komplek perumahan,No.01 garuda Xa,"QVXR+9XX, Jl. Garuda X A, Palangka, Kec. Jekan Raya, Kota Palangka Raya, Kalimantan Tengah 74874","Jl. Garuda X A, Palangka, Kec. Jekan Raya, Kota Palangka Raya",KALIMANTAN TENGAH,74874.0,Indonesia,,,,-2.2015083,113.8924932,https://maps.google.com/?cid=0x0:0x3cbabfc808426856,
perumahan,perumahan,Kec. Jekan Raya,"Kota Palangka Raya, Kalimantan Tengah","Kota Palangka Raya, Kalimantan Tengah",KALIMANTAN TENGAH,,Indonesia,,,,-2.2135468,113.9059149,https://maps.google.com/?cid=0x0:0x8cf48f9eeb1007b3,
perumahan,perumahan,Rumah Amel,"Perumahan Kampoeng Rahayu Woro, Jl. Mahir Mahar Blok 2b No.7, Bukit Tunggal, Kec. Jekan Raya, Kota Palangka Raya, Kalimantan Tengah 73118","Jl. Mahir Mahar Blok 2b No.7, Bukit Tunggal, Kec. Jekan Raya, Kota Palangka Raya",KALIMANTAN TENGAH,73118.0,Indonesia,,,,-2.1769882,113.8514927,https://maps.google.com/?cid=0x0:0x5698ced6ff9569fc,
perumahan,Hotel jangka panjang,Wisma/Kost Borneo,"QVPX+W72, Jl. Borneo I, Palangka, Kec. Jekan Raya, Kota Palangka Raya, Kalimantan Tengah 73118","Jl. Borneo I, Palangka, Kec. Jekan Raya, Kota Palangka Raya",KALIMANTAN TENGAH,73118.0,Indonesia,,,,-2.2127318,113.8981437,https://maps.google.com/?cid=0x0:0xfcd52519308cc739,
perumahan,perumahan,Rumah Hijau,"Jl. Menteng XII Gang Kampung Rahayu 3 No.1, Menteng, Kec. Jekan Raya, Kota Palangka Raya, Kalimantan Tengah 73118","Menteng, Kec. Jekan Raya, Kota Palangka Raya",KALIMANTAN TENGAH,73118.0,Indonesia,,,,-2.2369184,113.9014372,https://maps.google.com/?cid=0x0:0xfa609f2f368258a3,
perumahan,Pembangunan Perumahan,Perumahan palem asri,"Jln palem asri No.km 11 5, Palangka, Kec. Jekan Raya, Kota Palangka Raya, Kalimantan Tengah 73113","Palangka, Kec. Jekan Raya, Kota Palangka Raya",KALIMANTAN TENGAH,73113.0,Indonesia,,,,-2.2048417,113.908344,https://maps.google.com/?cid=0x0:0xa3a0851ae0541722,
perumahan,Toko bahan makanan,WR Tampung Parei,"Jl. Sangga Buana II No.067, Palangka, Kec. Jekan Raya, Kota Palangka Raya, Kalimantan Tengah 73118","Palangka, Kec. Jekan Raya, Kota Palangka Raya",KALIMANTAN TENGAH,73118.0,Indonesia, 081352801570,,,-2.2044835,113.9031021,https://maps.google.com/?cid=0x0:0x696e2c51b85d9112,
perumahan,perumahan,Kalimantan Tengah 73111,"Panarung, Kec. Pahandut, Kota Palangka Raya, Kalimantan Tengah","Kota Palangka Raya, Kalimantan Tengah",KALIMANTAN TENGAH,,Indonesia,,,,-2.2331773,113.9388982,https://maps.google.com/?cid=0x0:0x16569ec2240fc1af,
perumahan,Komplek perumahan,"Palangkaraya, Kalimantan Tengah ,kec:pahandut","QX37+X4J, Panarung, Kec. Pahandut, Kota Palangka Raya, Kalimantan Tengah 74874","Panarung, Kec. Pahandut, Kota Palangka Raya",KALIMANTAN TENGAH,74874.0,Indonesia,,,,-2.2450491,113.9627524,https://maps.google.com/?cid=0x0:0x59c8342ec32531ea,
perumahan,Komplek perumahan,Perumahan Pama Tirta Jaya,"Jl. Karanggan Gang XVI No.No, Panarung, Kec. Pahandut, Kota Palangka Raya, Kalimantan Tengah 73112","Panarung, Kec. Pahandut, Kota Palangka Raya",KALIMANTAN TENGAH,73112.0,Indonesia,,,,-2.2492459,113.9649062,https://maps.google.com/?cid=0x0:0xc337582ac9d03b6c,
perumahan,Pembangunan Perumahan,Rumah Okta,"QX56+95C, Panarung, Kec. Pahandut, Kota Palangka Raya, Kalimantan Tengah 74874","Panarung, Kec. Pahandut, Kota Palangka Raya",KALIMANTAN TENGAH,74874.0,Indonesia,,,,-2.2415612,113.9604025,https://maps.google.com/?cid=0x0:0xd198ec6b77e66844,
perumahan,Komplek perumahan,Sugiyono,"Jl. Pinus No.36, Panarung, Kec. Pahandut, Kota Palangka Raya, Kalimantan Tengah 74874","Panarung, Kec. Pahandut, Kota Palangka Raya",KALIMANTAN TENGAH,74874.0,Indonesia,,,,-2.23284,113.9369373,https://maps.google.com/?cid=0x0:0xd2e96d7543716220,
perumahan,Komplek perumahan,Perumahan PT MCA,"QX36+VJ2, Jl. Karanggan, Panarung, Kec. Pahandut, Kota Palangka Raya, Kalimantan Tengah 74874","Jl. Karanggan, Panarung, Kec. Pahandut, Kota Palangka Raya",KALIMANTAN TENGAH,74874.0,Indonesia,,,,-2.2453686,113.9615232,https://maps.google.com/?cid=0x0:0xf3237950b347f2a3,
perumahan,Komplek perumahan,Kost Campursari,"QW8Q+HW7, Jl. Turi II, Panarung, Kec. Pahandut, Kota Palangka Raya, Kalimantan Tengah 74874","Jl. Turi II, Panarung, Kec. Pahandut, Kota Palangka Raya",KALIMANTAN TENGAH,74874.0,Indonesia,,,,-2.2335831,113.9398064,https://maps.google.com/?cid=0x0:0x446113e12d3be1f4,
perumahan,Pembangunan Perumahan,Mas one'to,"Jl. Karanggan, Panarung, Kec. Pahandut, Kota Palangka Raya, Kalimantan Tengah 74874","Panarung, Kec. Pahandut, Kota Palangka Raya",KALIMANTAN TENGAH,74874.0,Indonesia, 085249586896,,,-2.245835,113.9587786,https://maps.google.com/?cid=0x0:0x5c43f9f46e7603cc,
perumahan,Komplek perumahan,Perumahan GHANI AZNA PERMATA,"Jl. Sawang Raya Induk, Panarung, Kec. Pahandut, Kota Palangka Raya, Kalimantan Tengah 74874","Panarung, Kec. Pahandut, Kota Palangka Raya",KALIMANTAN TENGAH,74874.0,Indonesia, 081349097203,,,-2.2500279,113.9621833,https://maps.google.com/?cid=0x0:0x29d5c684cf0b6169,
perumahan,Komplek perumahan,Ziyan's home,"Jl.Keranggan XIV Perumahan Griya Azna Permata No.33 BLOK 3, Panarung, Kec. Pahandut, Kota Palangka Raya, Kalimantan Tengah 73111","Panarung, Kec. Pahandut, Kota Palangka Raya",KALIMANTAN TENGAH,73111.0,Indonesia,,,,-2.2331995,113.9389086,https://maps.google.com/?cid=0x0:0xd8fd3996d00e3df6,
perumahan,Komplek perumahan,PERUMAHAN H.A.K.A,"Jl. Lamtoro Gung Jl. Haka 31 No.1375, Panarung, Kec. Pahandut, Kota Palangka Raya, Kalimantan Tengah 73111","Panarung, Kec. Pahandut, Kota Palangka Raya",KALIMANTAN TENGAH,73111.0,Indonesia, 082265595797,,,-2.2569716,113.9410239,https://maps.google.com/?cid=0x0:0x6fcb0d5351634df0,
perumahan,Pembangunan Perumahan,Rumah Hamzah,"Jl. Pinus Permai II No.33, Panarung, Kec. Pahandut, Kota Palangka Raya, Kalimantan Tengah 74874","Panarung, Kec. Pahandut, Kota Palangka Raya",KALIMANTAN TENGAH,74874.0,Indonesia,,,,-2.2329646,113.9370513,https://maps.google.com/?cid=0x0:0x95710be75d3e0083,
perumahan,Komplek perumahan,Perumahan Cassadova Tahap 2,"PWJX+W3W, Panarung, Kec. Pahandut, Kota Palangka Raya, Kalimantan Tengah 74874","Panarung, Kec. Pahandut, Kota Palangka Raya",KALIMANTAN TENGAH,74874.0,Indonesia,,,,-2.2676473,113.9477113,https://maps.google.com/?cid=0x0:0xa15f2cbe0f47af9d,
perumahan,Komplek perumahan,Perumahan,"PXR7+4PJ, Panarung, Kec. Pahandut, Kota Palangka Raya, Kalimantan Tengah 74874","Panarung, Kec. Pahandut, Kota Palangka Raya",KALIMANTAN TENGAH,74874.0,Indonesia,,,,-2.259654,113.9642612,https://maps.google.com/?cid=0x0:0xdb419dc7e9e7ac07,
perumahan,Komplek perumahan,GRIYA SAWINDAR,"QW4P+HJ8, Jl. Brokoli IV Jl. Wortel IV Blk. F, Panarung, Kec. Pahandut, Kota Palangka Raya, Kalimantan Tengah 73111","Jl. Brokoli IV Jl. Wortel IV Blk. F, Panarung, Kec. Pahandut, Kota Palangka Raya",KALIMANTAN TENGAH,73111.0,Indonesia,,,,-2.2435774,113.9365787,https://maps.google.com/?cid=0x0:0xbc8bf09e7345dc93,
perumahan,Komplek perumahan,RUMAHKENZO,"QW2X+Q2V, Jl. Adonis Samad, Panarung, Kec. Pahandut, Kota Palangka Raya, Kalimantan Tengah 74874","Jl. Adonis Samad, Panarung, Kec. Pahandut, Kota Palangka Raya",KALIMANTAN TENGAH,74874.0,Indonesia,,,,-2.2481062,113.9482645,https://maps.google.com/?cid=0x0:0x865899810a6d64cc,
perumahan,Komplek perumahan,RUMAH PAK RAGIL,"QW6V+7MV, Panarung, Kec. Pahandut, Kota Palangka Raya, Kalimantan Tengah 74874","Panarung, Kec. Pahandut, Kota Palangka Raya",KALIMANTAN TENGAH,74874.0,Indonesia,,,,-2.2391484,113.9446951,https://maps.google.com/?cid=0x0:0xa34ae1bab7605803,
perumahan,Komplek perumahan,Nawawi,"Jl. Karanggan No.2 No 05, Panarung, Kec. Pahandut, Kota Palangka Raya, Kalimantan Tengah 74874","Panarung, Kec. Pahandut, Kota Palangka Raya",KALIMANTAN TENGAH,74874.0,Indonesia,,,,-2.24598,113.9587567,https://maps.google.com/?cid=0x0:0x665dbfcc057a7ea4,
perumahan,Pembangunan Perumahan,Strawberry GG DUA,"QW5Q+8WR, Jl. Strawberry Raya, Panarung, Kec. Pahandut, Kota Palangka Raya, Kalimantan Tengah 74874","Jl. Strawberry Raya, Panarung, Kec. Pahandut, Kota Palangka Raya",KALIMANTAN TENGAH,74874.0,Indonesia,,,,-2.2416416,113.9397638,https://maps.google.com/?cid=0x0:0x18ffd0434cb11f4f,
perumahan,Perhimpunan Pengembang Perumahan,Muhamad davi,"QX24+7HV, Jl. Sawang Raya, Panarung, Kec. Pahandut, Kota Palangka Raya, Kalimantan Tengah 74874","Jl. Sawang Raya, Panarung, Kec. Pahandut, Kota Palangka Raya",KALIMANTAN TENGAH,74874.0,Indonesia,,,,-2.2492561,113.9564275,https://maps.google.com/?cid=0x0:0x6e49a70e3a9cdc9,
perumahan,Komplek perumahan,Perumahan Venus Raya Palangka Raya,"QX24+3WH, Jl. Sawang Raya, Panarung, Kec. Pahandut, Kota Palangka Raya, Kalimantan Tengah 73111","Jl. Sawang Raya, Panarung, Kec. Pahandut, Kota Palangka Raya",KALIMANTAN TENGAH,73111.0,Indonesia,,,,-2.2498029,113.9573478,https://maps.google.com/?cid=0x0:0x44f346e7cc61191d,
perumahan,Komplek perumahan,Arifin Ambon Rumah Mertua,"Jl. Putri Junjung Buih No.20, Panarung, Kec. Pahandut, Kota Palangka Raya, Kalimantan Tengah 74874","Panarung, Kec. Pahandut, Kota Palangka Raya",KALIMANTAN TENGAH,74874.0,Indonesia,,,,-2.232087,113.9358976,https://maps.google.com/?cid=0x0:0x853c567e4000b169,
perumahan,Komplek perumahan,Intan's Houses,"QX27+5P7, Jl. Karanggan, Panarung, Kec. Pahandut, Kota Palangka Raya, Kalimantan Tengah 74874","Jl. Karanggan, Panarung, Kec. Pahandut, Kota Palangka Raya",KALIMANTAN TENGAH,74874.0,Indonesia,,,,-2.2493504,113.9643822,https://maps.google.com/?cid=0x0:0x567cd84e36a0847c,
perumahan,perumahan,Kalimantan Tengah 73227,"Kabupaten Gunung MAS, Kalimantan Tengah","Kabupaten Gunung MAS, Kalimantan Tengah",KALIMANTAN TENGAH,,Indonesia,,,,-1.5625835,113.6085612,https://maps.google.com/?cid=0x0:0xf52044d70ef4122c,
perumahan,Perhimpunan Pengembang Perumahan,Rakumpit,"8J4Q+868, Petuk Barunai, Kec. Rakumpit, Kota Palangka Raya, Kalimantan Tengah 73221","Petuk Barunai, Kec. Rakumpit, Kota Palangka Raya",KALIMANTAN TENGAH,73221.0,Indonesia,,,,-1.6942131,113.638075,https://maps.google.com/?cid=0x0:0x934b211b7cba0025,
perumahan,Perhimpunan Pengembang Perumahan,LISTANARA,"7J27+6H, Petuk Barunai, Kec. Rakumpit, Kota Palangka Raya, Kalimantan Tengah","Kota Palangka Raya, Kalimantan Tengah",KALIMANTAN TENGAH,,Indonesia,,,,-1.749272,113.613942,https://maps.google.com/?cid=0x0:0xca8f1cee8fe0aba2,
perumahan,Perhimpunan Pengembang Perumahan,Keken SD5H,"7H4V+GG, Petuk Barunai, Kec. Rakumpit, Kota Palangka Raya, Kalimantan Tengah","Kota Palangka Raya, Kalimantan Tengah",KALIMANTAN TENGAH,,Indonesia,,,,-1.7436926,113.5937956,https://maps.google.com/?cid=0x0:0xa81afcd5dbced350,
perumahan,Komplek perumahan,Perumahan Katimpun Resident,"Jl. AMD Jl. Tjilik Riwut No.Km. 10, Petuk Katimpun, Kec. Jekan Raya, Kota Palangka Raya, Kalimantan Tengah 73111","Petuk Katimpun, Kec. Jekan Raya, Kota Palangka Raya",KALIMANTAN TENGAH,73111.0,Indonesia,,,,-1.9108166,113.5619781,https://maps.google.com/?cid=0x0:0x3123852a67b348cd,
perumahan,Perhimpunan Pengembang Perumahan,Neni Lambung,"7J27+6H, Petuk Barunai, Kec. Rakumpit, Kota Palangka Raya, Kalimantan Tengah","Kota Palangka Raya, Kalimantan Tengah",KALIMANTAN TENGAH,,Indonesia,,,,-1.749397,113.613975,https://maps.google.com/?cid=0x0:0x6473c9f1b01d86e,
perumahan,Kantor Perusahaan,Jember Selatan Camp,"CG5Q+75, Bereng Jun, Kec. Manuhing, Kabupaten Gunung MAS, Kalimantan Tengah 73227","Bereng Jun, Kec. Manuhing, Kabupaten Gunung MAS",KALIMANTAN TENGAH,73227.0,Indonesia, 082337560096,,,-1.591772,113.537955,https://maps.google.com/?cid=0x0:0x1a66a4c72d8a1c16,
perumahan,Perhimpunan Pengembang Perumahan,Yogo P2H,"7H2F+97, Petuk Barunai, Kec. Rakumpit, Kota Palangka Raya, Kalimantan Tengah","Kota Palangka Raya, Kalimantan Tengah",KALIMANTAN TENGAH,,Indonesia,,,,-1.7490625,113.5731875,https://maps.google.com/?cid=0x0:0xdd1f69cd1075a5b3,
perumahan,Perhimpunan Pengembang Perumahan,LENDRA,"7J26+74, Petuk Barunai, Kec. Rakumpit, Kota Palangka Raya, Kalimantan Tengah","Kota Palangka Raya, Kalimantan Tengah",KALIMANTAN TENGAH,,Indonesia,,,,-1.749277,113.610349,https://maps.google.com/?cid=0x0:0x6163c2062bd230cb,
perumahan,perumahan,ABAH VIO,"7JXR+46, Petuk Barunai, Kec. Rakumpit, Kota Palangka Raya, Kalimantan Tengah","Kota Palangka Raya, Kalimantan Tengah",KALIMANTAN TENGAH,,Indonesia,,,,-1.7014673,113.6407153,https://maps.google.com/?cid=0x0:0xb61036fed8534b09,
perumahan,perumahan,Kec. Rakumpit,"Kota Palangka Raya, Kalimantan Tengah","Kota Palangka Raya, Kalimantan Tengah",KALIMANTAN TENGAH,,Indonesia,,,,-1.6942515,113.6380522,https://maps.google.com/?cid=0x0:0x42aedf8a5c1ec05a,
perumahan,Komplek perumahan,BUKIT SUA NGAJU,"8M9X+JM4, Bukit Sua, Kec. Rakumpit, Kota Palangka Raya, Kalimantan Tengah","Kota Palangka Raya, Kalimantan Tengah",KALIMANTAN TENGAH,,Indonesia,,,,-1.6809798,113.699214,https://maps.google.com/?cid=0x0:0xb090ffae304b589,
perumahan,Komplek perumahan,Perumahan AFD 15 SEBRANG,"CH5F+PG, Takaras, Kec. Manuhing, Kabupaten Gunung MAS, Kalimantan Tengah","Kabupaten Gunung MAS, Kalimantan Tengah",KALIMANTAN TENGAH,,Indonesia,,,,-1.5906733,113.5737681,https://maps.google.com/?cid=0x0:0x98cf020711456e4a,
perumahan,Perhimpunan Pengembang Perumahan,ELI,"7J56+W4, Petuk Barunai, Kec. Rakumpit, Kota Palangka Raya, Kalimantan Tengah","Kota Palangka Raya, Kalimantan Tengah",KALIMANTAN TENGAH,,Indonesia,,,,-1.740239,113.610337,https://maps.google.com/?cid=0x0:0x72286fec1c4737fa,
perumahan,Komplek perumahan,Muara takaras kampung,"CJ35+W7V, Takaras, Kec. Manuhing, Kabupaten Gunung MAS, Kalimantan Tengah 73226","Takaras, Kec. Manuhing, Kabupaten Gunung MAS",KALIMANTAN TENGAH,73226.0,Indonesia,,,,-1.594483,113.607322,https://maps.google.com/?cid=0x0:0x400622a9fc0e0a2e,
perumahan,Pembangunan Perumahan,DESA TAKARAS MANUHING KAB. GUNUNG MAS,"CJ35+W7V, Takaras, Kec. Manuhing, Kabupaten Gunung MAS, Kalimantan Tengah 73226","Takaras, Kec. Manuhing, Kabupaten Gunung MAS",KALIMANTAN TENGAH,73226.0,Indonesia,,,,-1.594483,113.607322,https://maps.google.com/?cid=0x0:0x66c301b4fe758a97,
perumahan,Komplek perumahan,PRANTIKON,"FGJ8+5VP, Bereng Jun, Kec. Manuhing, Kabupaten Gunung MAS, Kalimantan Tengah 73229","Bereng Jun, Kec. Manuhing, Kabupaten Gunung MAS",KALIMANTAN TENGAH,73229.0,Indonesia,,,,-1.5206068,113.5166816,https://maps.google.com/?cid=0x0:0x74ab5c24f961fec4,
perumahan,Perhimpunan Pengembang Perumahan,Hanyi Ether Binti,"7J27+6H, Petuk Barunai, Kec. Rakumpit, Kota Palangka Raya, Kalimantan Tengah","Kota Palangka Raya, Kalimantan Tengah",KALIMANTAN TENGAH,,Indonesia,,,,-1.749271,113.61484,https://maps.google.com/?cid=0x0:0x9954dfedbb650ed0,
perumahan,Perusahaan Konstruksi,Pencetakan batako,"CG2G+WP, Bereng Jun, Kec. Manuhing, Kabupaten Gunung MAS, Kalimantan Tengah","Kabupaten Gunung MAS, Kalimantan Tengah",KALIMANTAN TENGAH,,Indonesia,,,,-1.596503,113.5273065,https://maps.google.com/?cid=0x0:0x6787b3e60d048b0c,
perumahan,Pembangunan Perumahan,Sekadau,"9CV7+7Q, Tewang Darayu, Kec. Pulau Malan, Kabupaten Katingan, Kalimantan Tengah","Kabupaten Katingan, Kalimantan Tengah",KALIMANTAN TENGAH,,Indonesia,,,,-1.6067836,113.4144321,https://maps.google.com/?cid=0x0:0x7b98fb328e99e017,
perumahan,Komplek perumahan,LOKASI PERUMAHAN CLASTER IBRAHIM,"PWWP+994, Jl. Kecipir, Panarung, Kec. Pahandut, Kota Palangka Raya, Kalimantan Tengah 74874","Jl. Kecipir, Panarung, Kec. Pahandut, Kota Palangka Raya",KALIMANTAN TENGAH,74874.0,Indonesia, 081250915553,,,-2.2541182,113.9359491,https://maps.google.com/?cid=0x0:0xe6369c5bbd7072ba,
perumahan,perumahan,Kalimantan Tengah 73228,"Kec. Rungan, Kabupaten Gunung MAS, Kalimantan Tengah","Kabupaten Gunung MAS, Kalimantan Tengah",KALIMANTAN TENGAH,,Indonesia,,,,-1.47687,113.7097303,https://maps.google.com/?cid=0x0:0xeff86f75d80d6013,
perumahan,perumahan,Rumah Aldolin,"HJ2W+PV, Talangkah, Kec. Rungan, Kabupaten Gunung MAS, Kalimantan Tengah","Kabupaten Gunung MAS, Kalimantan Tengah",KALIMANTAN TENGAH,,Indonesia,,,,-1.448245,113.6471272,https://maps.google.com/?cid=0x0:0x57b2f07ea29ee203,
perumahan,Pembangunan Perumahan,Desa bereng malaka,"FMQ9+MG, Parempei, Kec. Rungan, Kabupaten Gunung MAS, Kalimantan Tengah 73229","Parempei, Kec. Rungan, Kabupaten Gunung MAS",KALIMANTAN TENGAH,73229.0,Indonesia,,,,-1.5108411,113.6687804,https://maps.google.com/?cid=0x0:0xd4e33bffbd57ad0c,
perumahan,perumahan,"Rumah Alfy,Alby","HJ2W+PV, Talangkah, Kec. Rungan, Kabupaten Gunung MAS, Kalimantan Tengah","Kabupaten Gunung MAS, Kalimantan Tengah",KALIMANTAN TENGAH,,Indonesia,,,,-1.4485443,113.64733,https://maps.google.com/?cid=0x0:0xdc376950c437b020,
perumahan,Komplek perumahan,Perumahan Casadova,"QV8Q+XJQ, Jl. G. Obos 16, Menteng, Kec. Jekan Raya, Kota Palangka Raya, Kalimantan Tengah 74874","Jl. G. Obos 16, Menteng, Kec. Jekan Raya, Kota Palangka Raya",KALIMANTAN TENGAH,74874.0,Indonesia,,,,-2.2325335,113.8891233,https://maps.google.com/?cid=0x0:0x3b76fe37e1b6b981,
perumahan,Komplek perumahan,Desa Bereng Malaka,"HM49+63, Talangkah, Kec. Rungan, Kabupaten Gunung MAS, Kalimantan Tengah 73229","Talangkah, Kec. Rungan, Kabupaten Gunung MAS",KALIMANTAN TENGAH,73229.0,Indonesia,,,,-1.444497,113.667654,https://maps.google.com/?cid=0x0:0x7119d7b0ac42326f,
perumahan,Komplek perumahan,surya bethel lunce,"HQ7X+JHQ, Rabauh, Kec. Sepang, Kabupaten Gunung MAS, Kalimantan Tengah","Kabupaten Gunung MAS, Kalimantan Tengah",KALIMANTAN TENGAH,,Indonesia,,,,-1.43592,113.7989815,https://maps.google.com/?cid=0x0:0xd8d4e913f85546c4,
perumahan,Komplek perumahan,Perum Keluarga Mandiri Borneo,"PWC3+WQF, Jl. Batu Ampar, Kereng Bangkirai, Kec. Sebangau, Kota Palangka Raya, Kalimantan Tengah 74874","Jl. Batu Ampar, Kereng Bangkirai, Kec. Sebangau, Kota Palangka Raya",KALIMANTAN TENGAH,74874.0,Indonesia, 081322999978,,,-2.2776855,113.9044226,https://maps.google.com/?cid=0x0:0x9fbe716fa8468894,
perumahan,Perusahaan investasi properti,Rumah dijual,"QVWW+XQM, Jl. Beliang, Palangka, Kec. Jekan Raya, Kota Palangka Raya, Kalimantan Tengah 74874","Jl. Beliang, Palangka, Kec. Jekan Raya, Kota Palangka Raya",KALIMANTAN TENGAH,74874.0,Indonesia,,,,-2.2025411,113.8969327,https://maps.google.com/?cid=0x0:0x1cdb173904f70a3,
perumahan,Komplek perumahan,Yoga Finanda,"GR52+2H, Sepang Simin, Kec. Sepang, Kabupaten Gunung MAS, Kalimantan Tengah 73227","Sepang Simin, Kec. Sepang, Kabupaten Gunung MAS",KALIMANTAN TENGAH,73227.0,Indonesia,,,,-1.4923783,113.8013874,https://maps.google.com/?cid=0x0:0x8add747afae562a,
perumahan,perumahan,Kalimantan Tengah 73229,"Kabupaten Gunung MAS, Kalimantan Tengah","Kabupaten Gunung MAS, Kalimantan Tengah",KALIMANTAN TENGAH,,Indonesia,,,,-1.4825935,113.5966577,https://maps.google.com/?cid=0x0:0xf73b1482f3533d4a,
perumahan,Komplek perumahan,PRANTIKON,"FGJ8+5VP, Bereng Jun, Kec. Manuhing, Kabupaten Gunung MAS, Kalimantan Tengah 73229","Bereng Jun, Kec. Manuhing, Kabupaten Gunung MAS",KALIMANTAN TENGAH,73229.0,Indonesia,,,,-1.5206068,113.5166816,https://maps.google.com/?cid=0x0:0x74ab5c24f961fec4,
perumahan,Komplek perumahan,Afdeling 5,"FF95+FQP, Bereng Jun, Kec. Manuhing, Kabupaten Gunung MAS, Kalimantan Tengah","Kabupaten Gunung MAS, Kalimantan Tengah",KALIMANTAN TENGAH,,Indonesia,,,,-1.5312876,113.4594553,https://maps.google.com/?cid=0x0:0x7fd11312deec6183,
perumahan,Kantor Perusahaan,PT TPA,"GGVP+9V6, Bereng Belawan, Kec. Manuhing, Kabupaten Gunung MAS, Kalimantan Tengah","Kabupaten Gunung MAS, Kalimantan Tengah",KALIMANTAN TENGAH,,Indonesia,,,,-1.4565788,113.5371368,https://maps.google.com/?cid=0x0:0x11942f0e3e727375,
perumahan,Perumahan,perumahan BTN,"QV9P+5F7, Jl. G. Obos XV, Menteng, Kec. Jekan Raya, Kota Palangka Raya, Kalimantan Tengah 74874","Jl. G. Obos XV, Menteng, Kec. Jekan Raya, Kota Palangka Raya",KALIMANTAN TENGAH,74874.0,Indonesia, 081228617673,,,-2.2320826,113.8861639,https://maps.google.com/?cid=0x0:0x914d51aeaf886ee2,
perumahan,perumahan,Sipet,"FGJ8+3HX, Bereng Jun, Kec. Manuhing, Kabupaten Gunung MAS, Kalimantan Tengah","Kabupaten Gunung MAS, Kalimantan Tengah",KALIMANTAN TENGAH,,Indonesia,,,,-1.5197717,113.5164851,https://maps.google.com/?cid=0x0:0x35360f1d03df72fd,
perumahan,Komplek perumahan,Perumahan Katimpun Resident,"Jl. AMD Jl. Tjilik Riwut No.Km. 10, Petuk Katimpun, Kec. Jekan Raya, Kota Palangka Raya, Kalimantan Tengah 73111","Petuk Katimpun, Kec. Jekan Raya, Kota Palangka Raya",KALIMANTAN TENGAH,73111.0,Indonesia,,,,-1.9108166,113.5619781,https://maps.google.com/?cid=0x0:0x3123852a67b348cd,
perumahan,Perhimpunan Pengembang Perumahan,AFdeling 2,"FCRR+2X7, Bereng Jun, Kec. Manuhing, Kabupaten Gunung MAS, Kalimantan Tengah","Kabupaten Gunung MAS, Kalimantan Tengah",KALIMANTAN TENGAH,,Indonesia,,,,-1.5099642,113.4424089,https://maps.google.com/?cid=0x0:0x9559bca625271622,
perumahan,Pembangunan Perumahan,RBW cqah,"GJF3+3M, Parempei, Kec. Rungan, Kabupaten Gunung MAS, Kalimantan Tengah","Kabupaten Gunung MAS, Kalimantan Tengah",KALIMANTAN TENGAH,,Indonesia,,,,-1.4773586,113.6042061,https://maps.google.com/?cid=0x0:0x8d981acb38f2d714,
perumahan,Pembangunan Perumahan,Useth / Komo,"HJXJ+4W5, kampung Granit di, Luwuk Langkuas, Kec. Rungan, Kabupaten Gunung MAS, Kalimantan Tengah","Kabupaten Gunung MAS, Kalimantan Tengah",KALIMANTAN TENGAH,,Indonesia,,,,-1.402243,113.6323674,https://maps.google.com/?cid=0x0:0x771ebe9b51c4e153,
perumahan,Perusahaan Media,PT.MSAL AFD 1,"GC8P+V4, Bereng Jun, Kec. Manuhing, Kabupaten Gunung MAS, Kalimantan Tengah","Kabupaten Gunung MAS, Kalimantan Tengah",KALIMANTAN TENGAH,,Indonesia,,,,-1.4828125,113.4353125,https://maps.google.com/?cid=0x0:0x3f66d2459e9df78d,
perumahan,Komplek perumahan,AFD 99 PT MSAL,"CFXW+32, Bereng Jun, Kec. Manuhing, Kabupaten Gunung MAS, Kalimantan Tengah","Kabupaten Gunung MAS, Kalimantan Tengah",KALIMANTAN TENGAH,,Indonesia,,,,-1.5522834,113.4950342,https://maps.google.com/?cid=0x0:0xcb55ad56d24fe074,
perumahan,Komplek perumahan,Desa Bereng Malaka,"HM49+63, Talangkah, Kec. Rungan, Kabupaten Gunung MAS, Kalimantan Tengah 73229","Talangkah, Kec. Rungan, Kabupaten Gunung MAS",KALIMANTAN TENGAH,73229.0,Indonesia,,,,-1.444497,113.667654,https://maps.google.com/?cid=0x0:0x7119d7b0ac42326f,
perumahan,Kantor Perusahaan,Jember Selatan Camp,"CG5Q+75, Bereng Jun, Kec. Manuhing, Kabupaten Gunung MAS, Kalimantan Tengah 73227","Bereng Jun, Kec. Manuhing, Kabupaten Gunung MAS",KALIMANTAN TENGAH,73227.0,Indonesia, 082337560096,,,-1.591772,113.537955,https://maps.google.com/?cid=0x0:0x1a66a4c72d8a1c16,
perumahan,Pembangunan Perumahan,Desa bereng malaka,"FMQ9+MG, Parempei, Kec. Rungan, Kabupaten Gunung MAS, Kalimantan Tengah 73229","Parempei, Kec. Rungan, Kabupaten Gunung MAS",KALIMANTAN TENGAH,73229.0,Indonesia,,,,-1.5108411,113.6687804,https://maps.google.com/?cid=0x0:0xd4e33bffbd57ad0c,
perumahan,Pembangunan Perumahan,Useth / Khomo,"PJCJ+PW9, Jalan Trans Tumbang Jutuh Palangka Raya, Desa Luwuk Langkuas, Kabupaten Gunung MAS, Kalimantan Tengah","Kabupaten Gunung MAS, Kalimantan Tengah",KALIMANTAN TENGAH,,Indonesia,,,,-1.2782061,113.6323674,https://maps.google.com/?cid=0x0:0xd3c0d4aac2081d05,
perumahan,perumahan,"Rumah Alfy,Alby","HJ2W+PV, Talangkah, Kec. Rungan, Kabupaten Gunung MAS, Kalimantan Tengah","Kabupaten Gunung MAS, Kalimantan Tengah",KALIMANTAN TENGAH,,Indonesia,,,,-1.4485443,113.64733,https://maps.google.com/?cid=0x0:0xdc376950c437b020,
perumahan,Komplek perumahan,Perumahan AFD 15 SEBRANG,"CH5F+PG, Takaras, Kec. Manuhing, Kabupaten Gunung MAS, Kalimantan Tengah","Kabupaten Gunung MAS, Kalimantan Tengah",KALIMANTAN TENGAH,,Indonesia,,,,-1.5906733,113.5737681,https://maps.google.com/?cid=0x0:0x98cf020711456e4a,
perumahan,Komplek perumahan,Gus.Rohmat,"H94X+RQR, Belawan Mulya, Kec. Manuhing, Kabupaten Gunung MAS, Kalimantan Tengah 74562","Belawan Mulya, Kec. Manuhing, Kabupaten Gunung MAS",KALIMANTAN TENGAH,74562.0,Indonesia,,,,-1.4428793,113.3993799,https://maps.google.com/?cid=0x0:0xa5d29a0eac119147,
perumahan,Perumahan,Vina,"FGJ2+7HM, Bereng Jun, Kec. Manuhing, Kabupaten Gunung MAS, Kalimantan Tengah","Kabupaten Gunung MAS, Kalimantan Tengah",KALIMANTAN TENGAH,,Indonesia,,,,-1.5192872,113.5014213,https://maps.google.com/?cid=0x0:0xb15c2179c149c78f,
perumahan,Perhimpunan Pengembang Perumahan,Rakumpit,"8J4Q+868, Petuk Barunai, Kec. Rakumpit, Kota Palangka Raya, Kalimantan Tengah 73221","Petuk Barunai, Kec. Rakumpit, Kota Palangka Raya",KALIMANTAN TENGAH,73221.0,Indonesia,,,,-1.6942131,113.638075,https://maps.google.com/?cid=0x0:0x934b211b7cba0025,
perumahan,Komplek perumahan,PT msal,"FGJ2+7HM, Bereng Jun, Kec. Manuhing, Kabupaten Gunung MAS, Kalimantan Tengah","Kabupaten Gunung MAS, Kalimantan Tengah",KALIMANTAN TENGAH,,Indonesia,,,,-1.5192872,113.5014213,https://maps.google.com/?cid=0x0:0xa11f4d11d80046fb,
perumahan,Penginapan,Pondok 2 Jalemo Estate,"HJCC+95W, Talangkah, Kec. Rungan, Kabupaten Gunung MAS, Kalimantan Tengah","Kabupaten Gunung MAS, Kalimantan Tengah",KALIMANTAN TENGAH,,Indonesia,,,,-1.4290036,113.6204644,https://maps.google.com/?cid=0x0:0xbc8caec8abdac6f4,
perumahan,Perumahan,Rumah Elizabeth,"GJ66+CXG, Parempei, Kec. Rungan, Kabupaten Gunung MAS, Kalimantan Tengah","Kabupaten Gunung MAS, Kalimantan Tengah",KALIMANTAN TENGAH,,Indonesia,,,,-1.4889449,113.6124687,https://maps.google.com/?cid=0x0:0x5849829d1c8244e6,
perumahan,Perumahan,Mulyanto dicki,"H94X+2WH, Belawan Mulya, Kec. Manuhing, Kabupaten Gunung MAS, Kalimantan Tengah 74562","Belawan Mulya, Kec. Manuhing, Kabupaten Gunung MAS",KALIMANTAN TENGAH,74562.0,Indonesia,,,,-1.4449459,113.3998496,https://maps.google.com/?cid=0x0:0x6c3775589c4c46e3,
perumahan,perumahan,Kalimantan Tengah 73113,Kalimantan Tengah,Kalimantan Tengah,KALIMANTAN TENGAH,,Indonesia,,,,-2.1235276,113.8822686,https://maps.google.com/?cid=0x0:0x86a571c6f87570f4,
perumahan,Komplek perumahan,Perumahan Danau Ilung Ujung,"RVQ3+RX4, Bukit Tunggal, Kec. Jekan Raya, Kota Palangka Raya, Kalimantan Tengah 74874","Bukit Tunggal, Kec. Jekan Raya, Kota Palangka Raya",KALIMANTAN TENGAH,74874.0,Indonesia,,,,-2.1604978,113.8549661,https://maps.google.com/?cid=0x0:0xbf0ed18fb0882828,
perumahan,Komplek perumahan,Perumahan Bumi Palangka 3,"Jl. Sempati Raya, Bukit Tunggal, Kec. Jekan Raya, Kota Palangka Raya, Kalimantan Tengah 74874","Bukit Tunggal, Kec. Jekan Raya, Kota Palangka Raya",KALIMANTAN TENGAH,74874.0,Indonesia,,,,-2.1731459,113.8545638,https://maps.google.com/?cid=0x0:0x2ed4f9680f8739d6,
perumahan,Tujuan Wisata,Kampung/Lewu Petuk Katimpun,"Petuk Katimpun, Kec. Jekan Raya, Kota Palangka Raya, Kalimantan Tengah 73113","Kec. Jekan Raya, Kota Palangka Raya",KALIMANTAN TENGAH,73113.0,Indonesia,,,,-2.1277243,113.8810677,https://maps.google.com/?cid=0x0:0x8a4b3961754ae0d3,
perumahan,Komplek perumahan,Perumahan Wisma Setia,"Jl. Kalui No.11, Bukit Tunggal, Kec. Jekan Raya, Kota Palangka Raya, Kalimantan Tengah 74874","Bukit Tunggal, Kec. Jekan Raya, Kota Palangka Raya",KALIMANTAN TENGAH,74874.0,Indonesia, 085391101634,,,-2.1784842,113.8792897,https://maps.google.com/?cid=0x0:0x3f6c4c72ce3bdd52,
perumahan,Komplek perumahan,Perumahan tegal sari,"Jl. Tjilik Riwut No.km 10, RT.07/RW.5, Bukit Tunggal, Kec. Jekan Raya, Kota Palangka Raya, Kalimantan Tengah 74874","RT.07/RW.5, Bukit Tunggal, Kec. Jekan Raya, Kota Palangka Raya",KALIMANTAN TENGAH,74874.0,Indonesia,,,,-2.1569704,113.8410569,https://maps.google.com/?cid=0x0:0x1677026a5f2bba01,
perumahan,Komplek perumahan,Rumah Mano,"Jl. bukit Sepan Permai No.12 c, Bukit Tunggal, Kec. Jekan Raya, Kota Palangka Raya, Kalimantan Tengah 74874","Bukit Tunggal, Kec. Jekan Raya, Kota Palangka Raya",KALIMANTAN TENGAH,74874.0,Indonesia,,,,-2.1678616,113.8595407,https://maps.google.com/?cid=0x0:0x300cb0bfab695af4,
perumahan,Perumahan,Komplek Griya Mamangun Indah,"VV43+29Q, Komplek Griya Mamangun Indah, Kel, Petuk Katimpun, Kec. Jekan Raya, Kota Palangka Raya, Kalimantan Tengah 73113","Komplek Griya Mamangun Indah, Kel, Petuk Katimpun, Kec. Jekan Raya, Kota Palangka Raya",KALIMANTAN TENGAH,73113.0,Indonesia,,,,-2.1449021,113.8534727,https://maps.google.com/?cid=0x0:0xa513c504e10b16b0,
perumahan,Komplek perumahan,Komplek Perumahan Kameloh Jaya,"Komplek Perumahan Kameloh Jaya, Jl. Tjilik Riwut No.km 8, Bukit Tunggal, Kec. Jekan Raya, Kota Palangka Raya, Kalimantan Tengah","Kota Palangka Raya, Kalimantan Tengah",KALIMANTAN TENGAH,,Indonesia,,,,-2.1691236,113.8561544,https://maps.google.com/?cid=0x0:0x7e2ed87ad934d42a,
perumahan,Komplek perumahan,RUMAH AYTLN,"Jl. Danau Sari No.2, Bukit Tunggal, Kec. Jekan Raya, Kota Palangka Raya, Kalimantan Tengah 74874","Bukit Tunggal, Kec. Jekan Raya, Kota Palangka Raya",KALIMANTAN TENGAH,74874.0,Indonesia,,,,-2.1636132,113.8647636,https://maps.google.com/?cid=0x0:0x94a347a970bb8ee5,
perumahan,Perumahan,Perumahan GRAND KATIMPUN CITY,"RVW2+G48, Petuk Katimpun, Kec. Jekan Raya, Kota Palangka Raya, Kalimantan Tengah 74874","Petuk Katimpun, Kec. Jekan Raya, Kota Palangka Raya",KALIMANTAN TENGAH,74874.0,Indonesia, 082350875457,,,-2.1537009,113.8503336,https://maps.google.com/?cid=0x0:0xbc97abf5b88e8c16,
perumahan,Komplek perumahan,Perumahan Griya Mumtaza Raflesia Mandiri,"Jl. Raflesia No.III A, Petuk Katimpun, Kec. Jekan Raya, Kota Palangka Raya, Kalimantan Tengah 73113","Petuk Katimpun, Kec. Jekan Raya, Kota Palangka Raya",KALIMANTAN TENGAH,73113.0,Indonesia, 081255605513,,,-2.1505216,113.8420999,https://maps.google.com/?cid=0x0:0x76cecd09b6c9c453,
perumahan,Pembangunan Perumahan,Perumahan Griya Katimpun Indah,"Jl. AMD Jl. Tjilik Riwut No.Km.10, Petuk Katimpun, Kec. Jekan Raya, Kota Palangka Raya, Kalimantan Tengah 73113","Petuk Katimpun, Kec. Jekan Raya, Kota Palangka Raya",KALIMANTAN TENGAH,73113.0,Indonesia,,,,-2.1478905,113.8505462,https://maps.google.com/?cid=0x0:0x888e7dcb57872683,
perumahan,Komplek perumahan,RUMAH RANDY,"RRWQ+XH3, Jl. Cilik Riwut Gg. Ketimpun 1, Petuk Katimpun, Kec. Jekan Raya, Kota Palangka Raya, Kalimantan Tengah 73113","Jl. Cilik Riwut Gg. Ketimpun 1, Petuk Katimpun, Kec. Jekan Raya, Kota Palangka Raya",KALIMANTAN TENGAH,73113.0,Indonesia,,,,-2.15261,113.8389185,https://maps.google.com/?cid=0x0:0xf5aa7096c9acd662,
perumahan,Pembangunan Perumahan,Rumah Bani Bi-Sri,"Jl. Bukit Keminting No.13, Bukit Tunggal, Kec. Jekan Raya, Kota Palangka Raya, Kalimantan Tengah 73112","Bukit Tunggal, Kec. Jekan Raya, Kota Palangka Raya",KALIMANTAN TENGAH,73112.0,Indonesia,,,,-2.1675176,113.8588761,https://maps.google.com/?cid=0x0:0x26471e3879693f24,
perumahan,Perumahan,Perumahan Telagasari,"Jl. Telaga Sari, Petuk Katimpun, Kec. Jekan Raya, Kota Palangka Raya, Kalimantan Tengah 74874","Petuk Katimpun, Kec. Jekan Raya, Kota Palangka Raya",KALIMANTAN TENGAH,74874.0,Indonesia,,,,-2.159268,113.851474,https://maps.google.com/?cid=0x0:0xb552cf5bb8a7550c,
perumahan,Komplek perumahan,Perumahan ketimpun permai,"VR5M+JR, Petuk Katimpun, Kec. Jekan Raya, Kota Palangka Raya, Kalimantan Tengah","Kota Palangka Raya, Kalimantan Tengah",KALIMANTAN TENGAH,,Indonesia,,,,-2.1409076,113.8345706,https://maps.google.com/?cid=0x0:0xad39ab54d22ca4d2,
perumahan,Perumahan,Rumah pribadi,"VR3M+WQM, Petuk Katimpun, Kec. Jekan Raya, Kota Palangka Raya, Kalimantan Tengah 73113","Petuk Katimpun, Kec. Jekan Raya, Kota Palangka Raya",KALIMANTAN TENGAH,73113.0,Indonesia,,,,-2.1451634,113.8344277,https://maps.google.com/?cid=0x0:0x201e7aa90aca4e8c,
perumahan,Penginapan,Perum Kampoeng Rahayu Woro 4,"Petuk Katimpun, Kec. Jekan Raya, Kota Palangka Raya, Kalimantan Tengah 73113","Kec. Jekan Raya, Kota Palangka Raya",KALIMANTAN TENGAH,73113.0,Indonesia,,,,-2.1534915,113.8448386,https://maps.google.com/?cid=0x0:0x9a835bad5f0fd67a,
perumahan,Komplek perumahan,Isna,"RVQ2+MW, Bukit Tunggal, Kec. Jekan Raya, Kota Palangka Raya, Kalimantan Tengah","Kota Palangka Raya, Kalimantan Tengah",KALIMANTAN TENGAH,,Indonesia,,,,-2.1608309,113.8523399,https://maps.google.com/?cid=0x0:0x339b9cae6daf835b,
perumahan,Penginapan,Komplek Perumahan Intan Kurung,"Jl. Danau Mare I Komplek Perumahan Intan Kurung No.22, Bukit Tunggal, Kec. Jekan Raya, Kota Palangka Raya, Kalimantan Tengah 74874","Bukit Tunggal, Kec. Jekan Raya, Kota Palangka Raya",KALIMANTAN TENGAH,74874.0,Indonesia,,,,-2.1696156,113.8696329,https://maps.google.com/?cid=0x0:0x83d8203cf2dc3d8c,
perumahan,Komplek perumahan,Rumah Drs. H. Sri Widodo/ Dra. Sri Herlina,"No. 8 Km. 8, Jalan Bukit Keminting Jl. Tjilik Riwut, Bukit Tunggal, Jekan Raya, Palangka Raya City, Central Kalimantan 74874","Jalan Bukit Keminting Jl. Tjilik Riwut, Bukit Tunggal, Jekan Raya, Palangka Raya City",KALIMANTAN TENGAH,74874.0,Indonesia,,,,-2.1680322,113.858644,https://maps.google.com/?cid=0x0:0xff07fea0f89ca06e,
perumahan,Komplek perumahan,Gatot Syuhada,"rumah no 5B, Jl. Raflesia No.5B blok 2B, Petuk Katimpun, Kec. Jekan Raya, Kota Palangka Raya, Kalimantan Tengah 73113","Jl. Raflesia No.5B blok 2B, Petuk Katimpun, Kec. Jekan Raya, Kota Palangka Raya",KALIMANTAN TENGAH,73113.0,Indonesia,,,,-2.14674,113.841481,https://maps.google.com/?cid=0x0:0xd6edad6ebbe05be6,
perumahan,Pembangunan Perumahan,Perumahan Rizky Berkah Mandiri,"RRWX+9RP, Unnamed Road, Petuk Katimpun, Jekan Raya, Palangka Raya City, Central Kalimantan 73113","Unnamed Road, Petuk Katimpun, Jekan Raya, Palangka Raya City",KALIMANTAN TENGAH,73113.0,Indonesia,,,,-2.1540467,113.849573,https://maps.google.com/?cid=0x0:0x8beb5209d90308cc,
perumahan,Komplek perumahan,Maswanto,"RRXR+JQM, Jl. Raflesia, Petuk Katimpun, Kec. Jekan Raya, Kota Palangka Raya, Kalimantan Tengah 73113","Jl. Raflesia, Petuk Katimpun, Kec. Jekan Raya, Kota Palangka Raya",KALIMANTAN TENGAH,73113.0,Indonesia, 082148654594,,,-2.1509185,113.8419236,https://maps.google.com/?cid=0x0:0x9a2d9241696e1181,
perumahan,Pembangunan Perumahan,tanah pk arnol,"Jl. Cilik Riwut No.Km 11, RW.8, Petuk Katimpun, Kec. Jekan Raya, Kota Palangka Raya, Kalimantan Tengah 73113","RW.8, Petuk Katimpun, Kec. Jekan Raya, Kota Palangka Raya",KALIMANTAN TENGAH,73113.0,Indonesia,,,,-2.149149,113.832927,https://maps.google.com/?cid=0x0:0xf3a1c83790094ece,
perumahan,Komplek perumahan,Dekris,"5B No.14, Jl. Raflesia, Petuk Katimpun, Kec. Jekan Raya, Kota Palangka Raya, Kalimantan Tengah 73113","Jl. Raflesia, Petuk Katimpun, Kec. Jekan Raya, Kota Palangka Raya",KALIMANTAN TENGAH,73113.0,Indonesia,,,,-2.1473898,113.8414591,https://maps.google.com/?cid=0x0:0xe1300649a34b51e0,
perumahan,perumahan,Kalimantan Tengah 73114,Kalimantan Tengah,Kalimantan Tengah,KALIMANTAN TENGAH,,Indonesia,,,,-2.0476577,114.1201536,https://maps.google.com/?cid=0x0:0x94c27ae4b55d0eb,
perumahan,Komplek perumahan,Rumah bahasa Spanyol,"326J+P4P, Jl. Bukit Titi, Petuk Liti, Kec. Kahayan Tengah, Kabupaten Pulang Pisau, Kalimantan Tengah","Kabupaten Pulang Pisau, Kalimantan Tengah",KALIMANTAN TENGAH,,Indonesia,,,,-1.9381625,114.0303281,https://maps.google.com/?cid=0x0:0x95f5d5ed3e65cc64,
perumahan,Hutan Nasional,Taman Nasional Sebangau,"Jalan Mahir Mahar KM. 1.2, Paduran Sabangau, Sebangau Kuala, Paduran Sabangau, Kec. Sebangau Kuala, Palangka Raya, Kalimantan Tengah 74874","Paduran Sabangau, Sebangau Kuala, Paduran Sabangau, Kec. Sebangau Kuala, Palangka Raya",KALIMANTAN TENGAH,74874.0,Indonesia, 08115233525,,,-2.5973765,113.6737776,https://maps.google.com/?cid=0x0:0x40114385e9a1ba41,
perumahan,Pembangunan Perumahan,Human Babah,"3XF5+R23, Balukon, Kec. Kahayan Tengah, Kabupaten Pulang Pisau, Kalimantan Tengah 73111","Balukon, Kec. Kahayan Tengah, Kabupaten Pulang Pisau",KALIMANTAN TENGAH,73111.0,Indonesia,,,,-1.9254833,113.9575348,https://maps.google.com/?cid=0x0:0x3b16e1a9e98cedae,
perumahan,Pembangunan Perumahan,Yus vita,"X6CQ+VJF, Lahei Mangkutup, Kec. Mantangai, Kabupaten Kapuas, Kalimantan Tengah","Kabupaten Kapuas, Kalimantan Tengah",KALIMANTAN TENGAH,,Indonesia,,,,-2.027801,114.2390498,https://maps.google.com/?cid=0x0:0xbe6334f234d9d598,
perumahan,Komplek perumahan,Mantangai kab kapuas,"X6CQ+VJF, Lahei Mangkutup, Kec. Mantangai, Kabupaten Kapuas, Kalimantan Tengah","Kabupaten Kapuas, Kalimantan Tengah",KALIMANTAN TENGAH,,Indonesia,,,,-2.027801,114.2390498,https://maps.google.com/?cid=0x0:0x9a2c79bc1b3cdea0,
perumahan,perumahan,Kucing salsabilla,"X6CQ+VJF, Lahei Mangkutup, Kec. Mantangai, Kabupaten Kapuas, Kalimantan Tengah","Kabupaten Kapuas, Kalimantan Tengah",KALIMANTAN TENGAH,,Indonesia,,,,-2.0278023,114.2390568,https://maps.google.com/?cid=0x0:0x125a4afbb3cb704d,
perumahan,Pembangunan Perumahan,3Brothers Grup,"W2W4+CV7, Bukit Rawi, Kec. Kahayan Tengah, Kabupaten Pulang Pisau, Kalimantan Tengah","Kabupaten Pulang Pisau, Kalimantan Tengah",KALIMANTAN TENGAH,,Indonesia,,,,-2.0539573,114.0071731,https://maps.google.com/?cid=0x0:0xb3d778f8cb87d31c,
perumahan,Perhimpunan Pengembang Perumahan,pondok SARTI,"366V+95Q, Jl. Lintas Palangkaraya-Buntok, Lahei Mangkutup, Kec. Mantangai, Kabupaten Kapuas, Kalimantan Tengah 73553","Jl. Lintas Palangkaraya-Buntok, Lahei Mangkutup, Kec. Mantangai, Kabupaten Kapuas",KALIMANTAN TENGAH,73553.0,Indonesia,,,,-1.939034,114.242976,https://maps.google.com/?cid=0x0:0xf5474bd994e0e045,
perumahan,Kantor Perusahaan,Kandang Ayam Akes,"2X25+387, Petuk Liti, Kec. Kahayan Tengah, Kabupaten Pulang Pisau, Kalimantan Tengah","Kabupaten Pulang Pisau, Kalimantan Tengah",KALIMANTAN TENGAH,,Indonesia,,,,-1.9998284,113.9582993,https://maps.google.com/?cid=0x0:0xff320adbf6acc2bd,
perumahan,Komplek perumahan,Rumah Indu Asha,"3XR5+RRQ, Jl. Palangka Raya - Kuala Kurun, Bukit Bamba, Kec. Kahayan Tengah, Kabupaten Pulang Pisau, Kalimantan Tengah 73111","Jl. Palangka Raya - Kuala Kurun, Bukit Bamba, Kec. Kahayan Tengah, Kabupaten Pulang Pisau",KALIMANTAN TENGAH,73111.0,Indonesia,,,,-1.9077193,113.9588179,https://maps.google.com/?cid=0x0:0xb40e6892db5780d6,
perumahan,Pembangunan Perumahan,H.HARDIONO,"X6CQ+VJF, hilir, Mantangai, Kapuas Regency, Central Kalimantan","Kabupaten Kapuas, Kalimantan Tengah",KALIMANTAN TENGAH,,Indonesia,,,,-2.027801,114.2390498,https://maps.google.com/?cid=0x0:0x97f956fb0186708c,
perumahan,Komplek perumahan,Rumah Pribadi,"WX54+F3X, Jl. Palangkaraya-Buntok, Bukit Rawi, Kec. Kahayan Tengah, Kabupaten Pulang Pisau, Kalimantan Tengah 73113","Jl. Palangkaraya-Buntok, Bukit Rawi, Kec. Kahayan Tengah, Kabupaten Pulang Pisau",KALIMANTAN TENGAH,73113.0,Indonesia,,,,-2.0912643,113.9552473,https://maps.google.com/?cid=0x0:0x74af3b7713c873d,
perumahan,Pembangunan Perumahan,Lawinjalan taheta,"4X5G+WF, Bukit Bamba, Kec. Kahayan Tengah, Kabupaten Pulang Pisau, Kalimantan Tengah 74862","Bukit Bamba, Kec. Kahayan Tengah, Kabupaten Pulang Pisau",KALIMANTAN TENGAH,74862.0,Indonesia,,,,-1.8902241,113.9762194,https://maps.google.com/?cid=0x0:0x3cee40adb786896f,
perumahan,Pembangunan Perumahan,Kandang yulie,"3XM7+92, Bukit Bamba, Kec. Kahayan Tengah, Kabupaten Pulang Pisau, Kalimantan Tengah","Kabupaten Pulang Pisau, Kalimantan Tengah",KALIMANTAN TENGAH,,Indonesia,,,,-1.916163,113.96234,https://maps.google.com/?cid=0x0:0x3f991c3227193f5f,
perumahan,Pembangunan Perumahan,Rumah Ego,"3X53+PRM, Pamarunan, Kec. Kahayan Tengah, Kabupaten Pulang Pisau, Kalimantan Tengah","Kabupaten Pulang Pisau, Kalimantan Tengah",KALIMANTAN TENGAH,,Indonesia,,,,-1.9406518,113.9545498,https://maps.google.com/?cid=0x0:0x2faaf8e1415ce12d,
perumahan,Pembangunan Perumahan,Batas tanah baruh,"4X37+9G, Bukit Bamba, Kec. Kahayan Tengah, Kabupaten Pulang Pisau, Kalimantan Tengah","Kabupaten Pulang Pisau, Kalimantan Tengah",KALIMANTAN TENGAH,,Indonesia,,,,-1.8965319,113.9637928,https://maps.google.com/?cid=0x0:0xa6075e642860b25d,
perumahan,Komplek perumahan,Bukit liti buntok,"2X74+9M5, Bukit Liti, Kec. Kahayan Tengah, Kabupaten Pulang Pisau, Kalimantan Tengah","Kabupaten Pulang Pisau, Kalimantan Tengah",KALIMANTAN TENGAH,,Indonesia,,,,-1.9866081,113.9567486,https://maps.google.com/?cid=0x0:0x54d441afcc8f870b,
perumahan,Pembangunan Perumahan,Tnah,"4X37+9G, Bukit Bamba, Kec. Kahayan Tengah, Kabupaten Pulang Pisau, Kalimantan Tengah","Kabupaten Pulang Pisau, Kalimantan Tengah",KALIMANTAN TENGAH,,Indonesia,,,,-1.8978545,113.9629824,https://maps.google.com/?cid=0x0:0x9683abb04fc66220,
perumahan,Komplek perumahan,Rumah Oyi,"3XC5+X5, Balukon, Kec. Kahayan Tengah, Kabupaten Pulang Pisau, Kalimantan Tengah","Kabupaten Pulang Pisau, Kalimantan Tengah",KALIMANTAN TENGAH,,Indonesia,,,,-1.9276054,113.9579928,https://maps.google.com/?cid=0x0:0x2b9b456bb404ae2d,
