Category,Real Category,Business Name,Address,City,State,Postal Code,Country,Phone,Email,Website,Latitude,Longitude,Map Link,Details Link
mall,mall,Kec. Biau,"Kabupaten Buol, Sulawesi Tengah","Kabupaten Buol, Sulawesi Tengah",SULAWESI TENGAH,,Indonesia,,,,1.1708694,121.4215795,https://maps.google.com/?cid=0x0:0xaaa5fc4d0bdde54c,
mall,Pusat Perbelanjaan,MARKET AREA BUOL,"5C5P+CM2, Jl. Buol - Gorontalo, Buol, Kec. Biau, Kabupaten Buol, Sulawesi Tengah 94565","Jl. Buol - Gorontalo, Buol, Kec. Biau, Kabupaten Buol",SULAWESI TENGAH,94565.0,Indonesia,,,,1.1585119,121.4366356,https://maps.google.com/?cid=0x0:0xf32e4ea7999f478d,
mall,Pusat Perbelanjaan,TERITORI MARKET BUOL,"5C6M+3W4, Buol - Lakuan, Buol, Kec. Biau, Kabupaten Buol, Sulawesi Tengah 94565","Buol - Lakuan, Buol, Kec. Biau, Kabupaten Buol",SULAWESI TENGAH,94565.0,Indonesia,,,,1.1601286,121.434832,https://maps.google.com/?cid=0x0:0x1b33aa1c6f7a67da,
mall,mall,Kec. Biau,"Kabupaten Buol, Sulawesi Tengah","Kabupaten Buol, Sulawesi Tengah",SULAWESI TENGAH,,Indonesia,,,,1.1708694,121.4215795,https://maps.google.com/?cid=0x0:0xaaa5fc4d0bdde54c,
mall,Minimarket,Kios wahyu,"5C6H+58R, Kali, Kec. Biau, Kabupaten Buol, Sulawesi Tengah 94565","Kali, Kec. Biau, Kabupaten Buol",SULAWESI TENGAH,94565.0,Indonesia,82236518682.0,,,1.1604769,121.4282546,https://maps.google.com/?cid=0x0:0xeb3ac3ff800bb3b3,
mall,Pusat Perbelanjaan,Kios Hanan,"5C9G+4PP, Jl. B Rauf, Leok II, Kec. Biau, Kabupaten Buol, Sulawesi Tengah 94563","Jl. B Rauf, Leok II, Kec. Biau, Kabupaten Buol",SULAWESI TENGAH,94563.0,Indonesia,,,,1.1678354,121.4268368,https://maps.google.com/?cid=0x0:0x44b91c1364f4eea9,
mall,Pusat Perbelanjaan,UMNA WOLIO PLAZA,"GJV3+VQ4, umna wolio plaza, Sulawesi Tenggara 93711",umna wolio plaza,SULAWESI TENGAH,93711.0,Indonesia,,,,-5.4553515,122.6044539,https://maps.google.com/?cid=0x0:0xf416e74b3da1f66b,
mall,mall,Sulawesi Tengah 94564,"Kec. Bukal, Kabupaten Buol, Sulawesi Tengah","Kabupaten Buol, Sulawesi Tengah",SULAWESI TENGAH,,Indonesia,,,,0.9524639,121.422761,https://maps.google.com/?cid=0x0:0x4fb25c099e08028b,
mall,Toko umum,Kios Nurul,"XFQ4+WG6, Mooyong, Kec. Bukal, Kabupaten Buol, Sulawesi Tengah 94564","Mooyong, Kec. Bukal, Kabupaten Buol",SULAWESI TENGAH,94564.0,Indonesia,,,,0.9897955,121.4562563,https://maps.google.com/?cid=0x0:0x299f19a789ba8c89,
mall,Pemasok filter udara,Depot Air Minum Berkah,"3FVX+FC7, Bokat, Kec. Bokat, Kabupaten Buol, Sulawesi Tengah 94564","Bokat, Kec. Bokat, Kabupaten Buol",SULAWESI TENGAH,94564.0,Indonesia,,,,1.0936675,121.4985441,https://maps.google.com/?cid=0x0:0x317c5d88d8f6f329,
mall,Area Mendaki,KEBUN SAWIT,"2CP8+VMP, Unnamed Road, Yugut, Kec. Bukal, Kabupaten Buol, Sulawesi Tengah 94564","Unnamed Road, Yugut, Kec. Bukal, Kabupaten Buol",SULAWESI TENGAH,94564.0,Indonesia,,,,1.0372069,121.4167159,https://maps.google.com/?cid=0x0:0xb9a8756b0f2a2e77,
mall,Toko,Kios ABAS (ARIF),"Winangun, Kec. Bukal, Kabupaten Buol, Sulawesi Tengah 94564","Kec. Bukal, Kabupaten Buol",SULAWESI TENGAH,94564.0,Indonesia,82258725479.0,,,0.973176,121.4214701,https://maps.google.com/?cid=0x0:0x4d2094ec9ee155d5,
mall,Pusat Perbelanjaan,Pasar gajian,"XCFC+FCX, Unnamed Road, Winangun, Kec. Bukal, Kabupaten Buol, Sulawesi Tengah 94564","Unnamed Road, Winangun, Kec. Bukal, Kabupaten Buol",SULAWESI TENGAH,94564.0,Indonesia,,,,0.9737403,121.4211044,https://maps.google.com/?cid=0x0:0x4af88fcc923db12c,
mall,Pasar,Pasar Sentral Buol,"5C4Q+C67, Buol, Kec. Biau, Kabupaten Buol, Sulawesi Tengah 94565","Buol, Kec. Biau, Kabupaten Buol",SULAWESI TENGAH,94565.0,Indonesia,82189278921.0,,,1.1560302,121.4380608,https://maps.google.com/?cid=0x0:0x83e6e906eed51213,
mall,Toko bahan makanan,Toko RAFIF Buol,"5C4Q+C6G, Buol, Kec. Biau, Kabupaten Buol, Sulawesi Tengah 94565","Buol, Kec. Biau, Kabupaten Buol",SULAWESI TENGAH,94565.0,Indonesia,82344497788.0,,,1.1560695,121.43809,https://maps.google.com/?cid=0x0:0x90b02a34b04c14ba,
mall,Pusat Perbelanjaan,Lapak Agaseru,"XCCC+XRJ, Winangun, Kec. Bukal, Kabupaten Buol, Sulawesi Tengah 94564","Winangun, Kec. Bukal, Kabupaten Buol",SULAWESI TENGAH,94564.0,Indonesia,,,,0.9724325,121.4220123,https://maps.google.com/?cid=0x0:0x7dcfffffb862c606,
mall,Pusat Perbelanjaan,TDS Suharty Syukur Buol,"5C4P+MHQ Provinsi: Sul-Teng, Jl. T Mangkona dan Pasar Raya Buol, Kelurahan: Buol, Kecamatan: Biau, Kabupaten:, Buol, Kec. Biau, Kabupaten Buol, Sulawesi Tengah 94565","Jl. T Mangkona dan Pasar Raya Buol, Kelurahan: Buol, Kecamatan: Biau, Kabupaten:, Buol, Kec. Biau, Kabupaten Buol",SULAWESI TENGAH,94565.0,Indonesia,82346066666.0,,,1.1567101,121.4364872,https://maps.google.com/?cid=0x0:0xe4aac785364151d,
mall,Pusat Perbelanjaan,MARKET AREA BUOL,"5C5P+CM2, Jl. Buol - Gorontalo, Buol, Kec. Biau, Kabupaten Buol, Sulawesi Tengah 94565","Jl. Buol - Gorontalo, Buol, Kec. Biau, Kabupaten Buol",SULAWESI TENGAH,94565.0,Indonesia,,,,1.1585119,121.4366356,https://maps.google.com/?cid=0x0:0xf32e4ea7999f478d,
mall,Pusat Perbelanjaan,TERITORI MARKET BUOL,"5C6M+3W4, Buol - Lakuan, Buol, Kec. Biau, Kabupaten Buol, Sulawesi Tengah 94565","Buol - Lakuan, Buol, Kec. Biau, Kabupaten Buol",SULAWESI TENGAH,94565.0,Indonesia,,,,1.1601286,121.434832,https://maps.google.com/?cid=0x0:0x1b33aa1c6f7a67da,
mall,Toko,Toko cahaya Baru,"5C4Q+C42, Jl. Buol - Gorontalo, Buol, Kec. Biau, Kabupaten Buol, Sulawesi Tengah 94565","Jl. Buol - Gorontalo, Buol, Kec. Biau, Kabupaten Buol",SULAWESI TENGAH,94565.0,Indonesia,,,,1.1560136,121.4377688,https://maps.google.com/?cid=0x0:0x250123f81714b1b9,
mall,Toko Makanan,UMKM NURHIDAYAH,"5C78+6X5, Kali, Kec. Biau, Kabupaten Buol, Sulawesi Tengah 94563","Kali, Kec. Biau, Kabupaten Buol",SULAWESI TENGAH,94563.0,Indonesia,85241142267.0,,,1.1630249,121.4174916,https://maps.google.com/?cid=0x0:0x50143713f3ad6c62,
mall,Pusat Perbelanjaan,Toko TOLI MUJUR BUOL,"5C4Q+C4G, Buol, Kec. Biau, Kabupaten Buol, Sulawesi Tengah 94565","Buol, Kec. Biau, Kabupaten Buol",SULAWESI TENGAH,94565.0,Indonesia,,,,1.156051,121.4378252,https://maps.google.com/?cid=0x0:0x26f4204edf005a40,
mall,Kompleks Kondominium,Pasar Desa Lamadong 2,"4C88+JVJ, Lamadong 2, Kec. Momunu, Kabupaten Buol, Sulawesi Tengah 94565","Lamadong 2, Kec. Momunu, Kabupaten Buol",SULAWESI TENGAH,94565.0,Indonesia,,,,1.1165805,121.4171388,https://maps.google.com/?cid=0x0:0x2289990b70fe556d,
mall,Toko,Toko ALAT WALET BUOL,"4CXP+XP3, Buol, Kec. Biau, Kabupaten Buol, Sulawesi Tengah 94565","Buol, Kec. Biau, Kabupaten Buol",SULAWESI TENGAH,94565.0,Indonesia,81354288532.0,,,1.1501058,121.4378898,https://maps.google.com/?cid=0x0:0x38d097a272cd1f0a,
mall,Pembangunan Perumahan,Desa doulan,"3GQ2+PV3, Bokat, Kec. Bokat, Kabupaten Buol, Sulawesi Tengah 94564","Bokat, Kec. Bokat, Kabupaten Buol",SULAWESI TENGAH,94564.0,Indonesia,,,,1.0892139,121.5021344,https://maps.google.com/?cid=0x0:0x7df7564aa237da67,
mall,Kios,Kios Isnawati,"39XJ+3C2, Pujimulyo, Kec. Momunu, Kabupaten Buol, Sulawesi Tengah 94565","Pujimulyo, Kec. Momunu, Kabupaten Buol",SULAWESI TENGAH,94565.0,Indonesia,82286581836.0,,,1.0975628,121.3811523,https://maps.google.com/?cid=0x0:0xa39a56a092064bd0,
mall,Toko Pakaian,Metro fashion,"5C5P+59C, Jl. T Mangkona, Buol, Kec. Biau, Kabupaten Buol, Sulawesi Tengah 94565","Jl. T Mangkona, Buol, Kec. Biau, Kabupaten Buol",SULAWESI TENGAH,94565.0,Indonesia,85241347901.0,,,1.1579274,121.4358933,https://maps.google.com/?cid=0x0:0xd0e54385221024d5,
mall,mall,Rumah azul,"2GM5+M9, Bokat IV, Kec. Bokat, Kabupaten Buol, Sulawesi Tengah 94566","Bokat IV, Kec. Bokat, Kabupaten Buol",SULAWESI TENGAH,94566.0,Indonesia,,,,1.0341875,121.5084375,https://maps.google.com/?cid=0x0:0x27b73cac441cb4e1,
mall,mall,"Pinole, California 94564","Pinole, California, Amerika Serikat","Pinole, California, Amerika Serikat",SULAWESI TENGAH,,Indonesia,,,,37.9963136,-122.2937428,https://maps.google.com/?cid=0x0:0xf30a0507dcbf635,
mall,Pusat Perbelanjaan,Pinole Vista Shopping Center,"1440 Fitzgerald Dr, Pinole, CA 94564, Amerika Serikat","Pinole, CA",SULAWESI TENGAH,94564.0,Indonesia,,,,37.9906274,-122.3025695,https://maps.google.com/?cid=0x0:0xac1cdf002143bdf9,
mall,Pusat Perbelanjaan,Pinole Valley Shopping Center,"2720 Pinole Valley Rd, Pinole, CA 94564, Amerika Serikat","Pinole, CA",SULAWESI TENGAH,94564.0,Indonesia,,,,37.9952377,-122.2862505,https://maps.google.com/?cid=0x0:0x94b99966d82510be,
mall,Pusat Perbelanjaan,Pinole Vista Crossing,"1409 Fitzgerald Dr, Pinole, CA 94564, Amerika Serikat","Pinole, CA",SULAWESI TENGAH,94564.0,Indonesia,,,,37.9867459,-122.3114045,https://maps.google.com/?cid=0x0:0xd2c4ec3b9674112c,
mall,Pusat Perbelanjaan,Appian 80 Shopping Center,"1401 Tara Hills Dr, Pinole, CA 94564, Amerika Serikat","Pinole, CA",SULAWESI TENGAH,94564.0,Indonesia,,,,37.9944304,-122.304728,https://maps.google.com/?cid=0x0:0xc76049105758e949,
mall,mall,Sulawesi Tengah 94566,"Kabupaten Buol, Sulawesi Tengah","Kabupaten Buol, Sulawesi Tengah",SULAWESI TENGAH,,Indonesia,,,,1.0492803,121.5598345,https://maps.google.com/?cid=0x0:0x8a0608e9353e57de,
mall,Pemasok filter udara,Depot Air Minum Berkah,"3FVX+FC7, Bokat, Kec. Bokat, Kabupaten Buol, Sulawesi Tengah 94564","Bokat, Kec. Bokat, Kabupaten Buol",SULAWESI TENGAH,94564.0,Indonesia,,,,1.0936675,121.4985441,https://maps.google.com/?cid=0x0:0x317c5d88d8f6f329,
mall,Toko umum,Kios Nurul,"XFQ4+WG6, Mooyong, Kec. Bukal, Kabupaten Buol, Sulawesi Tengah 94564","Mooyong, Kec. Bukal, Kabupaten Buol",SULAWESI TENGAH,94564.0,Indonesia,,,,0.9897955,121.4562563,https://maps.google.com/?cid=0x0:0x299f19a789ba8c89,
mall,mall,Rumah azul,"2GM5+M9, Bokat IV, Kec. Bokat, Kabupaten Buol, Sulawesi Tengah 94566","Bokat IV, Kec. Bokat, Kabupaten Buol",SULAWESI TENGAH,94566.0,Indonesia,,,,1.0341875,121.5084375,https://maps.google.com/?cid=0x0:0x27b73cac441cb4e1,
mall,mall,"Pleasanton, California 94566","Pleasanton, California, Amerika Serikat","Pleasanton, California, Amerika Serikat",SULAWESI TENGAH,,Indonesia,,,,37.6436199,-121.8676464,https://maps.google.com/?cid=0x0:0x6260ac3da483f984,
mall,Pusat Perbelanjaan,Pleasanton Gateway Shopping Center,"6750-6790 Bernal Ave, Pleasanton, CA 94566, Amerika Serikat","Pleasanton, CA",SULAWESI TENGAH,94566.0,Indonesia,18007621641.0,,,37.6568119,-121.8985715,https://maps.google.com/?cid=0x0:0x5680ff7ac04f1577,
mall,Pusat Perbelanjaan,Pleasanton Square Shopping Center,"5755 Johnson Dr, Pleasanton, CA 94588, Amerika Serikat","Pleasanton, CA",SULAWESI TENGAH,94588.0,Indonesia,,,,37.6991377,-121.9070191,https://maps.google.com/?cid=0x0:0x342daa6623548de1,
mall,Pusat Perbelanjaan,Gateway Square,"Signature Center, 4801 - 4889 Hopyard Rd, Pleasanton, CA 94588, Amerika Serikat","Pleasanton, CA",SULAWESI TENGAH,94588.0,Indonesia,,,,37.6925378,-121.9024115,https://maps.google.com/?cid=0x0:0x8db6c55edfd41484,
mall,mall,Sulawesi Tengah 94563,"Kabupaten Buol, Sulawesi Tengah","Kabupaten Buol, Sulawesi Tengah",SULAWESI TENGAH,,Indonesia,,,,1.2003229,121.3084088,https://maps.google.com/?cid=0x0:0x6c422b6673dca949,
mall,Toko umum,Kios Nurul,"XFQ4+WG6, Mooyong, Kec. Bukal, Kabupaten Buol, Sulawesi Tengah 94564","Mooyong, Kec. Bukal, Kabupaten Buol",SULAWESI TENGAH,94564.0,Indonesia,,,,0.9897955,121.4562563,https://maps.google.com/?cid=0x0:0x299f19a789ba8c89,
mall,mall,Kec. Bukal,"Kabupaten Buol, Sulawesi Tengah","Kabupaten Buol, Sulawesi Tengah",SULAWESI TENGAH,,Indonesia,,,,1.014712,121.4551619,https://maps.google.com/?cid=0x0:0xb2a18e5043ab3705,
mall,Pusat Perbelanjaan,Sulis ATK Celluler,"XFR4+3C2, Mooyong, Kec. Bukal, Kabupaten Buol, Sulawesi Tengah 94564","Mooyong, Kec. Bukal, Kabupaten Buol",SULAWESI TENGAH,94564.0,Indonesia,,,,0.9901438,121.4560112,https://maps.google.com/?cid=0x0:0x6bda6d4b086d0560,
mall,Pasar,Pasar Sentral Buol,"5C4Q+C67, Buol, Kec. Biau, Kabupaten Buol, Sulawesi Tengah 94565","Buol, Kec. Biau, Kabupaten Buol",SULAWESI TENGAH,94565.0,Indonesia,82189278921.0,,,1.1560302,121.4380608,https://maps.google.com/?cid=0x0:0x83e6e906eed51213,
mall,Toko bahan makanan,Toko RAFIF Buol,"5C4Q+C6G, Buol, Kec. Biau, Kabupaten Buol, Sulawesi Tengah 94565","Buol, Kec. Biau, Kabupaten Buol",SULAWESI TENGAH,94565.0,Indonesia,82344497788.0,,,1.1560695,121.43809,https://maps.google.com/?cid=0x0:0x90b02a34b04c14ba,
mall,Toko Makanan,UMKM NURHIDAYAH,"5C78+6X5, Kali, Kec. Biau, Kabupaten Buol, Sulawesi Tengah 94563","Kali, Kec. Biau, Kabupaten Buol",SULAWESI TENGAH,94563.0,Indonesia,85241142267.0,,,1.1630249,121.4174916,https://maps.google.com/?cid=0x0:0x50143713f3ad6c62,
mall,Toko,Toko cahaya Baru,"5C4Q+C42, Jl. Buol - Gorontalo, Buol, Kec. Biau, Kabupaten Buol, Sulawesi Tengah 94565","Jl. Buol - Gorontalo, Buol, Kec. Biau, Kabupaten Buol",SULAWESI TENGAH,94565.0,Indonesia,,,,1.1560136,121.4377688,https://maps.google.com/?cid=0x0:0x250123f81714b1b9,
mall,Pusat Perbelanjaan,MARKET AREA BUOL,"5C5P+CM2, Jl. Buol - Gorontalo, Buol, Kec. Biau, Kabupaten Buol, Sulawesi Tengah 94565","Jl. Buol - Gorontalo, Buol, Kec. Biau, Kabupaten Buol",SULAWESI TENGAH,94565.0,Indonesia,,,,1.1585119,121.4366356,https://maps.google.com/?cid=0x0:0xf32e4ea7999f478d,
mall,Area Mendaki,KEBUN SAWIT,"2CP8+VMP, Unnamed Road, Yugut, Kec. Bukal, Kabupaten Buol, Sulawesi Tengah 94564","Unnamed Road, Yugut, Kec. Bukal, Kabupaten Buol",SULAWESI TENGAH,94564.0,Indonesia,,,,1.0372069,121.4167159,https://maps.google.com/?cid=0x0:0xb9a8756b0f2a2e77,
mall,Toko Ponsel,AFIFAH CELL,"Lakea II, Kec. Lakea, Kabupaten Buol, Sulawesi Tengah 94563","Kec. Lakea, Kabupaten Buol",SULAWESI TENGAH,94563.0,Indonesia,81341110666.0,,,1.2279125,121.2483439,https://maps.google.com/?cid=0x0:0x414bff53962d89d4,
mall,Toko,Kios ABAS (ARIF),"Winangun, Kec. Bukal, Kabupaten Buol, Sulawesi Tengah 94564","Kec. Bukal, Kabupaten Buol",SULAWESI TENGAH,94564.0,Indonesia,82258725479.0,,,0.973176,121.4214701,https://maps.google.com/?cid=0x0:0x4d2094ec9ee155d5,
mall,Toko,Tiga Dua Motor,"5C6H+769, Kali, Kec. Biau, Kabupaten Buol, Sulawesi Tengah 94565","Kali, Kec. Biau, Kabupaten Buol",SULAWESI TENGAH,94565.0,Indonesia,85241478600.0,,,1.1606552,121.4280955,https://maps.google.com/?cid=0x0:0xc7f41a06c6356a3b,
mall,Pusat Perbelanjaan,TERITORI MARKET BUOL,"5C6M+3W4, Buol - Lakuan, Buol, Kec. Biau, Kabupaten Buol, Sulawesi Tengah 94565","Buol - Lakuan, Buol, Kec. Biau, Kabupaten Buol",SULAWESI TENGAH,94565.0,Indonesia,,,,1.1601286,121.434832,https://maps.google.com/?cid=0x0:0x1b33aa1c6f7a67da,
mall,Pusat Perbelanjaan,Toko TOLI MUJUR BUOL,"5C4Q+C4G, Buol, Kec. Biau, Kabupaten Buol, Sulawesi Tengah 94565","Buol, Kec. Biau, Kabupaten Buol",SULAWESI TENGAH,94565.0,Indonesia,,,,1.156051,121.4378252,https://maps.google.com/?cid=0x0:0x26f4204edf005a40,
mall,Toko Parfum,Al-Fazza parfum  RHGlow,"5C4P+MH4, Buol, Kec. Biau, Kabupaten Buol, Sulawesi Tengah 94565","Buol, Kec. Biau, Kabupaten Buol",SULAWESI TENGAH,94565.0,Indonesia,85240448855.0,,,1.1566387,121.4364419,https://maps.google.com/?cid=0x0:0xd52055400ced3de,
mall,Toko bahan makanan,KIOS FARIDHA,"Leok I, Kec. Biau, Kabupaten Buol, Sulawesi Tengah","Kabupaten Buol, Sulawesi Tengah",SULAWESI TENGAH,,Indonesia,82293819618.0,,,1.2033513,121.3941835,https://maps.google.com/?cid=0x0:0x57a15a9ee0329981,
mall,Toko,Anjas colection,"5C6J+CCQ, Jl. Buol - Gorontalo, Buol, Kec. Biau, Kabupaten Buol, Sulawesi Tengah 94565","Jl. Buol - Gorontalo, Buol, Kec. Biau, Kabupaten Buol",SULAWESI TENGAH,94565.0,Indonesia,,,,1.1610791,121.4311095,https://maps.google.com/?cid=0x0:0x89d83a33565348d9,
mall,Toko,Toko ALAT WALET BUOL,"4CXP+XP3, Buol, Kec. Biau, Kabupaten Buol, Sulawesi Tengah 94565","Buol, Kec. Biau, Kabupaten Buol",SULAWESI TENGAH,94565.0,Indonesia,81354288532.0,,,1.1501058,121.4378898,https://maps.google.com/?cid=0x0:0x38d097a272cd1f0a,
mall,Pusat Perbelanjaan,XEIGHT Palu Grand Mall,"Grand Mall, Jl. Cumi-Cumi No.77 LT. GF UNIT G - 0150, BUMI BAHARI, Kec. Palu Bar., Kota Palu, Sulawesi Tengah 94221","Jl. Cumi-Cumi No.77 LT. GF UNIT G - 0150, BUMI BAHARI, Kec. Palu Bar., Kota Palu",SULAWESI TENGAH,94221.0,Indonesia,4514134547.0,,,-0.8828723,119.8427211,https://maps.google.com/?cid=0x0:0xd7e6e97d68971afd,
mall,Pusat Perbelanjaan,Kios azkha,"5C8G+7X4, Jl. Daud Lapau, Leok II, Kec. Biau, Kabupaten Buol, Sulawesi Tengah 94563","Jl. Daud Lapau, Leok II, Kec. Biau, Kabupaten Buol",SULAWESI TENGAH,94563.0,Indonesia,,,,1.1656557,121.4274547,https://maps.google.com/?cid=0x0:0x523956b6f54a8737,
mall,Toko,Toko Nam Utama,"5C4Q+3MH, Unnamed Road, Buol, Kec. Biau, Kabupaten Buol, Sulawesi Tengah 94565","Unnamed Road, Buol, Kec. Biau, Kabupaten Buol",SULAWESI TENGAH,94565.0,Indonesia,81354302585.0,,,1.155176,121.4392211,https://maps.google.com/?cid=0x0:0x15c57b7ae96c6917,
mall,Pusat Perbelanjaan,Kuningan Citymall,"Jl. Prof. DR. Satrio No.Kav. 18, Kuningan, Karet Kuningan, Kecamatan Setiabudi, Kota Jakarta Selatan, Daerah Khusus Ibukota Jakarta 12940","Kuningan, Karet Kuningan, Kecamatan Setiabudi, Kota Jakarta Selatan",SULAWESI TENGAH,12940.0,Indonesia,2157905555.0,,,-6.2250136,106.829553,https://maps.google.com/?cid=0x0:0x420d8f1dfd4d9452,
mall,Pusat Perbelanjaan,Mall Kota Kasablanka,"Jl. Raya Casablanca No.Kav 88, Menteng Dalam, Kec. Tebet, Kota Jakarta Selatan, Daerah Khusus Ibukota Jakarta 12870","Menteng Dalam, Kec. Tebet, Kota Jakarta Selatan",SULAWESI TENGAH,12870.0,Indonesia,2129465000.0,,,-6.2240353,106.8425979,https://maps.google.com/?cid=0x0:0xaf54cb631563acce,
mall,Pusat Perbelanjaan,ITC Kuningan,"Jl. Prof. DR. Satrio No.18, RT.11/RW.4, Kuningan, Kecamatan Setiabudi, Kota Jakarta Selatan, Daerah Khusus Ibukota Jakarta 12940","RT.11/RW.4, Kuningan, Kecamatan Setiabudi, Kota Jakarta Selatan",SULAWESI TENGAH,12940.0,Indonesia,2157933888.0,,,-6.2237137,106.8258572,https://maps.google.com/?cid=0x0:0x1c82784a92dd79ba,
mall,Pusat Perbelanjaan,Lotte Shopping Avenue Mall,"Jl. Prof. DR. Satrio No.Kav.3, RW.5, Kuningan, Karet Kuningan, Kecamatan Setiabudi, Kota Jakarta Selatan, Daerah Khusus Ibukota Jakarta 12940","RW.5, Kuningan, Karet Kuningan, Kecamatan Setiabudi, Kota Jakarta Selatan",SULAWESI TENGAH,12940.0,Indonesia,2129889292.0,,,-6.2233644,106.8232981,https://maps.google.com/?cid=0x0:0xe8323175da8b9770,
mall,Toko Roti,Breadlife Kuningan City,"Kuningan City Lantai LG 122, Jalan Prof. DR. Satrio Kav. 18, Kuningan, Setiabudi, RT.14/RW.4, Kuningan, Karet Kuningan, Kecamatan Setiabudi, Kota Jakarta Selatan, Daerah Khusus Ibukota Jakarta 12940","Jalan Prof. DR. Satrio Kav. 18, Kuningan, Setiabudi, RT.14/RW.4, Kuningan, Karet Kuningan, Kecamatan Setiabudi, Kota Jakarta Selatan",SULAWESI TENGAH,12940.0,Indonesia,2130480737.0,,,-6.2245082,106.8293899,https://maps.google.com/?cid=0x0:0x8ab4ab287c189270,
mall,Indonesia,PorkVille Kuningan City,"Jl. Prof. DR. Satrio No.Kav. 18, Kuningan, Karet Kuningan, Kecamatan Setiabudi, Kota Jakarta Selatan, Daerah Khusus Ibukota Jakarta 12940","Kuningan, Karet Kuningan, Kecamatan Setiabudi, Kota Jakarta Selatan",SULAWESI TENGAH,12940.0,Indonesia,8161181111.0,,,-6.2246343,106.8297437,https://maps.google.com/?cid=0x0:0x38edf7dd14ab8007,
mall,mall,Sulawesi Tengah 94564,"Kec. Bukal, Kabupaten Buol, Sulawesi Tengah","Kabupaten Buol, Sulawesi Tengah",SULAWESI TENGAH,,Indonesia,,,,0.9524639,121.422761,https://maps.google.com/?cid=0x0:0x4fb25c099e08028b,
mall,Toko umum,Kios Nurul,"XFQ4+WG6, Mooyong, Kec. Bukal, Kabupaten Buol, Sulawesi Tengah 94564","Mooyong, Kec. Bukal, Kabupaten Buol",SULAWESI TENGAH,94564.0,Indonesia,,,,0.9897955,121.4562563,https://maps.google.com/?cid=0x0:0x299f19a789ba8c89,
mall,Pusat Perbelanjaan,Sulis ATK Celluler,"XFR4+3C2, Mooyong, Kec. Bukal, Kabupaten Buol, Sulawesi Tengah 94564","Mooyong, Kec. Bukal, Kabupaten Buol",SULAWESI TENGAH,94564.0,Indonesia,,,,0.9901438,121.4560112,https://maps.google.com/?cid=0x0:0x6bda6d4b086d0560,
mall,Toko,Kios ABAS (ARIF),"Winangun, Kec. Bukal, Kabupaten Buol, Sulawesi Tengah 94564","Kec. Bukal, Kabupaten Buol",SULAWESI TENGAH,94564.0,Indonesia,82258725479.0,,,0.973176,121.4214701,https://maps.google.com/?cid=0x0:0x4d2094ec9ee155d5,
mall,Area Mendaki,KEBUN SAWIT,"2CP8+VMP, Unnamed Road, Yugut, Kec. Bukal, Kabupaten Buol, Sulawesi Tengah 94564","Unnamed Road, Yugut, Kec. Bukal, Kabupaten Buol",SULAWESI TENGAH,94564.0,Indonesia,,,,1.0372069,121.4167159,https://maps.google.com/?cid=0x0:0xb9a8756b0f2a2e77,
mall,Pusat Perbelanjaan,Pasar gajian,"XCFC+FCX, Unnamed Road, Winangun, Kec. Bukal, Kabupaten Buol, Sulawesi Tengah 94564","Unnamed Road, Winangun, Kec. Bukal, Kabupaten Buol",SULAWESI TENGAH,94564.0,Indonesia,,,,0.9737403,121.4211044,https://maps.google.com/?cid=0x0:0x4af88fcc923db12c,
mall,Pusat Perbelanjaan,Lapak Agaseru,"XCCC+XRJ, Winangun, Kec. Bukal, Kabupaten Buol, Sulawesi Tengah 94564","Winangun, Kec. Bukal, Kabupaten Buol",SULAWESI TENGAH,94564.0,Indonesia,,,,0.9724325,121.4220123,https://maps.google.com/?cid=0x0:0x7dcfffffb862c606,
mall,Pasar,Pasar Sentral Buol,"5C4Q+C67, Buol, Kec. Biau, Kabupaten Buol, Sulawesi Tengah 94565","Buol, Kec. Biau, Kabupaten Buol",SULAWESI TENGAH,94565.0,Indonesia,82189278921.0,,,1.1560302,121.4380608,https://maps.google.com/?cid=0x0:0x83e6e906eed51213,
mall,Pemasok filter udara,Depot Air Minum Berkah,"3FVX+FC7, Bokat, Kec. Bokat, Kabupaten Buol, Sulawesi Tengah 94564","Bokat, Kec. Bokat, Kabupaten Buol",SULAWESI TENGAH,94564.0,Indonesia,,,,1.0936675,121.4985441,https://maps.google.com/?cid=0x0:0x317c5d88d8f6f329,
mall,Pusat Perbelanjaan,Pinole Valley Shopping Center,"2720 Pinole Valley Rd, Pinole, CA 94564, Amerika Serikat","Pinole, CA",SULAWESI TENGAH,94564.0,Indonesia,,,,37.9952377,-122.2862505,https://maps.google.com/?cid=0x0:0x94b99966d82510be,
mall,Pusat Perbelanjaan,Pinole Vista Shopping Center,"1440 Fitzgerald Dr, Pinole, CA 94564, Amerika Serikat","Pinole, CA",SULAWESI TENGAH,94564.0,Indonesia,,,,37.9906274,-122.3025695,https://maps.google.com/?cid=0x0:0xac1cdf002143bdf9,
mall,mall,Sulawesi Tengah 94567,"Kabupaten Buol, Sulawesi Tengah","Kabupaten Buol, Sulawesi Tengah",SULAWESI TENGAH,,Indonesia,,,,0.982812,121.6511258,https://maps.google.com/?cid=0x0:0x7248d1de2d14beff,
mall,Toko umum,Kios Nurul,"XFQ4+WG6, Mooyong, Kec. Bukal, Kabupaten Buol, Sulawesi Tengah 94564","Mooyong, Kec. Bukal, Kabupaten Buol",SULAWESI TENGAH,94564.0,Indonesia,,,,0.9897955,121.4562563,https://maps.google.com/?cid=0x0:0x299f19a789ba8c89,
mall,Pasar,PASAR LOKODIDI,"3M46+C4X, Lokodidi, Kec. Gadung, Kabupaten Buol, Sulawesi Tengah 94567","Lokodidi, Kec. Gadung, Kabupaten Buol",SULAWESI TENGAH,94567.0,Indonesia,,,,1.0561177,121.6603701,https://maps.google.com/?cid=0x0:0xbdde40e67b82c69,
mall,mall,Haura shop,"2JV6+CV2, Bunobogu, Kec. Bunobogu, Kabupaten Buol, Sulawesi Tengah 94566","Bunobogu, Kec. Bunobogu, Kabupaten Buol",SULAWESI TENGAH,94566.0,Indonesia,,,,1.0435141,121.6121527,https://maps.google.com/?cid=0x0:0xb695dacd8f5382ef,
mall,Pasar,Pasar Barabatu,"68XW+HX9, Busak II, Kec. Karamat, Kabupaten Buol, Sulawesi Tengah 94563","Busak II, Kec. Karamat, Kabupaten Buol",SULAWESI TENGAH,94563.0,Indonesia,85256344412.0,,,1.248916,121.3474704,https://maps.google.com/?cid=0x0:0xad54b07f6f3a4c4c,
mall,mall,Kec. Gadung,"Kabupaten Buol, Sulawesi Tengah","Kabupaten Buol, Sulawesi Tengah",SULAWESI TENGAH,,Indonesia,,,,1.0609393,121.6812519,https://maps.google.com/?cid=0x0:0xdbf62320131c7b7d,
mall,Pusat Perbelanjaan,XEIGHT Palu Grand Mall,"Grand Mall, Jl. Cumi-Cumi No.77 LT. GF UNIT G - 0150, BUMI BAHARI, Kec. Palu Bar., Kota Palu, Sulawesi Tengah 94221","Jl. Cumi-Cumi No.77 LT. GF UNIT G - 0150, BUMI BAHARI, Kec. Palu Bar., Kota Palu",SULAWESI TENGAH,94221.0,Indonesia,4514134547.0,,,-0.8828723,119.8427211,https://maps.google.com/?cid=0x0:0xd7e6e97d68971afd,
mall,Pusat Perbelanjaan,Luwuk Shopping Mall,"2QXR+683, Jl. Ahmad Yani, Luwuk, Soho, Luwuk, Kabupaten Banggai, Sulawesi Tengah","Kabupaten Banggai, Sulawesi Tengah",SULAWESI TENGAH,,Indonesia,46122180.0,,,-0.9519768,122.7907924,https://maps.google.com/?cid=0x0:0xe08ddfb39b3daea0,
mall,Toko Pakaian,Metro fashion,"5C5P+59C, Jl. T Mangkona, Buol, Kec. Biau, Kabupaten Buol, Sulawesi Tengah 94565","Jl. T Mangkona, Buol, Kec. Biau, Kabupaten Buol",SULAWESI TENGAH,94565.0,Indonesia,85241347901.0,,,1.1579274,121.4358933,https://maps.google.com/?cid=0x0:0xd0e54385221024d5,
mall,Pusat Perbelanjaan,Poso City Mall,"Jl. Pulau Sabang No.72, Kayamanya, Kec. Poso Kota, Kabupaten Poso, Sulawesi Tengah 94611","Kayamanya, Kec. Poso Kota, Kabupaten Poso",SULAWESI TENGAH,94611.0,Indonesia,,,,-1.3871945,120.7405742,https://maps.google.com/?cid=0x0:0x5566dc5bacc8cb0c,
mall,Toko,Toko Nam Utama,"5C4Q+3MH, Unnamed Road, Buol, Kec. Biau, Kabupaten Buol, Sulawesi Tengah 94565","Unnamed Road, Buol, Kec. Biau, Kabupaten Buol",SULAWESI TENGAH,94565.0,Indonesia,81354302585.0,,,1.155176,121.4392211,https://maps.google.com/?cid=0x0:0x15c57b7ae96c6917,
mall,Pusat Perbelanjaan,Hypermart Palu Grand Mall,"Jl. Diponegoro No.8A, Lere, Kec. Palu Bar., Kota Palu, Sulawesi Tengah 94221","Lere, Kec. Palu Bar., Kota Palu",SULAWESI TENGAH,94221.0,Indonesia,81312097422.0,,,-0.8837991,119.8423758,https://maps.google.com/?cid=0x0:0x9567cc1a06bb61e4,
mall,Pasar,PASAR LOKODIDI,"3M46+C4X, Lokodidi, Kec. Gadung, Kabupaten Buol, Sulawesi Tengah 94567","Lokodidi, Kec. Gadung, Kabupaten Buol",SULAWESI TENGAH,94567.0,Indonesia,,,,1.0561177,121.6603701,https://maps.google.com/?cid=0x0:0xbdde40e67b82c69,
mall,Pasar,Pasar Tradisional Kodolagon,"3FPH+293, Unnamed Road, Kodolagon, Kec. Bokat, Kabupaten Buol, Sulawesi Tengah 94563","Unnamed Road, Kodolagon, Kec. Bokat, Kabupaten Buol",SULAWESI TENGAH,94563.0,Indonesia,,,,1.0850151,121.4784348,https://maps.google.com/?cid=0x0:0x2dca518d587c14ea,
mall,Pusat Perbelanjaan,Grand Indonesia Shopping Town,"Jl. M.H. Thamrin No.1, Menteng, Kec. Menteng, Kota Jakarta Pusat, Daerah Khusus Ibukota Jakarta 10310","Menteng, Kec. Menteng, Kota Jakarta Pusat",SULAWESI TENGAH,10310.0,Indonesia,2123580001.0,,,-6.1965848,106.8224882,https://maps.google.com/?cid=0x0:0xccfcc89b95aaf1ae,
mall,Pusat Perbelanjaan,Mega Glodok Kemayoran,"Jl. Mall MGK Blk. D7 No.3, RW.10, Gn. Sahari Sel., Kec. Kemayoran, Kota Jakarta Pusat, Daerah Khusus Ibukota Jakarta 10610","RW.10, Gn. Sahari Sel., Kec. Kemayoran, Kota Jakarta Pusat",SULAWESI TENGAH,10610.0,Indonesia,,,,-6.1546306,106.848937,https://maps.google.com/?cid=0x0:0xfe688bbd554362bb,
mall,Pusat Perbelanjaan,Mall Kota Kasablanka,"Jl. Raya Casablanca No.Kav 88, Menteng Dalam, Kec. Tebet, Kota Jakarta Selatan, Daerah Khusus Ibukota Jakarta 12870","Menteng Dalam, Kec. Tebet, Kota Jakarta Selatan",SULAWESI TENGAH,12870.0,Indonesia,2129465000.0,,,-6.2240353,106.8425979,https://maps.google.com/?cid=0x0:0xaf54cb631563acce,
mall,Pusat Perbelanjaan,Pusat Mode Tanah Abang (PMTA),"Jl. H. Fachrudin No.51, RT.10/RW.7, Kp. Bali, Kecamatan Tanah Abang, Kota Jakarta Pusat, Daerah Khusus Ibukota Jakarta 10250","RT.10/RW.7, Kp. Bali, Kecamatan Tanah Abang, Kota Jakarta Pusat",SULAWESI TENGAH,10250.0,Indonesia,2139845111.0,,,-6.1869714,106.8159083,https://maps.google.com/?cid=0x0:0x6a31ee7643bd1ccd,
mall,Pusat Perbelanjaan,Pusat Grosir Metro tanah abang,"Jl. H. Fachrudin, RT.14/RW.6, Karet Tengsin, Kecamatan Tanah Abang, Kota Jakarta Pusat, Daerah Khusus Ibukota Jakarta 10240","RT.14/RW.6, Karet Tengsin, Kecamatan Tanah Abang, Kota Jakarta Pusat",SULAWESI TENGAH,10240.0,Indonesia,,,,-6.1876243,106.8156726,https://maps.google.com/?cid=0x0:0x39d0ae97f402e6a,
mall,Pusat Perbelanjaan,PGMTA - Toko Alstro Lantai 5 BLOK A No.12,"PGMTA, Jalan KH Wahid Hasyim No.187-189, Blk. A No.18-21 LT.5, RT.14/RW.6, Kb. Kacang, Kecamatan Tanah Abang, Kota Jakarta Pusat, Daerah Khusus Ibukota Jakarta 10240","Jalan KH Wahid Hasyim No.187-189, Blk. A No.18-21 LT.5, RT.14/RW.6, Kb. Kacang, Kecamatan Tanah Abang, Kota Jakarta Pusat",SULAWESI TENGAH,10240.0,Indonesia,,,,-6.187443,106.816451,https://maps.google.com/?cid=0x0:0x36b48ac48318877f,
mall,Toko Pakaian,Pusat Grosir Central Tanah Abang (CTA),"Jl. Kb. Jati No.5a, RT.1/RW.9, Kb. Kacang, Kecamatan Tanah Abang, Kota Jakarta Pusat, Daerah Khusus Ibukota Jakarta 10240","RT.1/RW.9, Kb. Kacang, Kecamatan Tanah Abang, Kota Jakarta Pusat",SULAWESI TENGAH,10240.0,Indonesia,,,,-6.1889002,106.8124168,https://maps.google.com/?cid=0x0:0x61399ffa03d6196f,
mall,mall,Kec. Karamat,"Kabupaten Buol, Sulawesi Tengah","Kabupaten Buol, Sulawesi Tengah",SULAWESI TENGAH,,Indonesia,,,,1.2531523,121.4084928,https://maps.google.com/?cid=0x0:0x53d7a701bb80e29f,
mall,Pasar,Pasar Barabatu,"68XW+HX9, Busak II, Kec. Karamat, Kabupaten Buol, Sulawesi Tengah 94563","Busak II, Kec. Karamat, Kabupaten Buol",SULAWESI TENGAH,94563.0,Indonesia,85256344412.0,,,1.248916,121.3474704,https://maps.google.com/?cid=0x0:0xad54b07f6f3a4c4c,
mall,Pusat Perbelanjaan,XEIGHT Palu Grand Mall,"Grand Mall, Jl. Cumi-Cumi No.77 LT. GF UNIT G - 0150, BUMI BAHARI, Kec. Palu Bar., Kota Palu, Sulawesi Tengah 94221","Jl. Cumi-Cumi No.77 LT. GF UNIT G - 0150, BUMI BAHARI, Kec. Palu Bar., Kota Palu",SULAWESI TENGAH,94221.0,Indonesia,4514134547.0,,,-0.8828723,119.8427211,https://maps.google.com/?cid=0x0:0xd7e6e97d68971afd,
mall,Toko bahan makanan,Swalayan Al-Khairaat,"3VR4+J5P, Bar, Boyaoge, Kec. Palu Bar., Kota Palu, Sulawesi Tengah 94111","Bar, Boyaoge, Kec. Palu Bar., Kota Palu",SULAWESI TENGAH,94111.0,Indonesia,,,,-0.9084131,119.8554457,https://maps.google.com/?cid=0x0:0x731c8d2f3dff9bba,
mall,Pusat Perbelanjaan,New Tatura Mall,"3VRG+PFQ, Jl. Emmy Saelan, Lolu Sel., Kec. Palu Sel., Kota Palu, Sulawesi Tengah 94111","Jl. Emmy Saelan, Lolu Sel., Kec. Palu Sel., Kota Palu",SULAWESI TENGAH,94111.0,Indonesia,,,,-0.9081841,119.876252,https://maps.google.com/?cid=0x0:0x49eb3482593ae789,
mall,China,Ramayana Mall,"4V39+9QJ, Jl. Sudirman, Besusu Bar., Kec. Palu Sel., Kota Palu, Sulawesi Tengah 94111","Jl. Sudirman, Besusu Bar., Kec. Palu Sel., Kota Palu",SULAWESI TENGAH,94111.0,Indonesia,,,,-0.8965364,119.8693777,https://maps.google.com/?cid=0x0:0x5d679ad85882cd3d,
mall,Pusat Perbelanjaan,Mall Khalila Palu,"4V37+6JW, Jl. Sungai Bongka, Ujuna, Kec. Palu Bar., Kota Palu, Sulawesi Tengah 94111","Jl. Sungai Bongka, Ujuna, Kec. Palu Bar., Kota Palu",SULAWESI TENGAH,94111.0,Indonesia,,,,-0.8968978,119.8640907,https://maps.google.com/?cid=0x0:0x66c928754b3db0c,
mall,Pusat Perbelanjaan,Plaza Palu,"Komplek Palu Plaza, Jl. Sis AlJufri, Blok IV, Siranindi, Kec. Ulujadi, Kota Palu, Sulawesi Tengah 94111","Jl. Sis AlJufri, Blok IV, Siranindi, Kec. Ulujadi, Kota Palu",SULAWESI TENGAH,94111.0,Indonesia,,,,-0.8993996,119.8607805,https://maps.google.com/?cid=0x0:0xc5f25dc5c9bc56bd,
mall,Pusat Perbelanjaan,Hypermart Palu Grand Mall,"Jl. Diponegoro No.8A, Lere, Kec. Palu Bar., Kota Palu, Sulawesi Tengah 94221","Lere, Kec. Palu Bar., Kota Palu",SULAWESI TENGAH,94221.0,Indonesia,81312097422.0,,,-0.8837991,119.8423758,https://maps.google.com/?cid=0x0:0x9567cc1a06bb61e4,
mall,Pempek,Pempek 10 Palu Grand Mall,"Jl. Diponegoro, Lere, Kec. Palu Bar., Kota Palu, Sulawesi Tengah 94221","Lere, Kec. Palu Bar., Kota Palu",SULAWESI TENGAH,94221.0,Indonesia,81214411010.0,,,-0.8834848,119.8428685,https://maps.google.com/?cid=0x0:0x6db446eea4501165,
mall,Pembangunan Perumahan,Kota palu,"3VQ2+P5X, Jl. Sungai Manonda Lorong Tagari, Duyu, Kec. Tatanga, Kota Palu, Sulawesi Tengah 94222","Jl. Sungai Manonda Lorong Tagari, Duyu, Kec. Tatanga, Kota Palu",SULAWESI TENGAH,94222.0,Indonesia,,,,-0.9106463,119.8504779,https://maps.google.com/?cid=0x0:0xf249bdf7992a6872,
mall,Pusat Perbelanjaan,KhayiraShop_Plw,"3VJQ+29H, Birobuli Utara, Kec. Palu Sel., Kota Palu, Sulawesi Tengah 94111","Birobuli Utara, Kec. Palu Sel., Kota Palu",SULAWESI TENGAH,94111.0,Indonesia,85757181568.0,,,-0.9199407,119.8884808,https://maps.google.com/?cid=0x0:0xd9c50dadfd4b93d,
mall,Pusat Perbelanjaan,MSI Palu,"BTN MADANI No.5, Mamboro, Kec. Palu Utara, Kota Palu, Sulawesi Tengah 94145","Mamboro, Kec. Palu Utara, Kota Palu",SULAWESI TENGAH,94145.0,Indonesia,85241140037.0,,,-0.7883458,119.8689763,https://maps.google.com/?cid=0x0:0x33fdb60dd23c9d7,
mall,Pantai Umum,Baywalk Citraland Palu,"5V9J+64W, Kompleks Citraland, Tondo, Kec. Mantikulore, Kota Palu, Sulawesi Tengah","Kota Palu, Sulawesi Tengah",SULAWESI TENGAH,,Indonesia,,,,-0.8318931,119.8803137,https://maps.google.com/?cid=0x0:0xc3306c8cbd78f7ce,
mall,Pusat Perbelanjaan,Pasar Rakyat Desa Ilambe,"67QV+V4J, Ilambe, Kec. Lakea, Kabupaten Buol, Sulawesi Tengah 94563","Ilambe, Kec. Lakea, Kabupaten Buol",SULAWESI TENGAH,94563.0,Indonesia,,,,1.2397121,121.292781,https://maps.google.com/?cid=0x0:0x7571ee01274dfd53,
mall,Toko Pakaian,SIKAMALI OLSHOP PALU,"3W85+97C, Petobo, Kec. Palu Sel., Kota Palu, Sulawesi Tengah 94235","Petobo, Kec. Palu Sel., Kota Palu",SULAWESI TENGAH,94235.0,Indonesia,82347311158.0,,,-0.9340624,119.9081497,https://maps.google.com/?cid=0x0:0xa90fe59d263f04ea,
mall,Toko,AllShop,"BTN, Jl. Graha Mutiara No.19 Blok D1, Tinggede Sel., Kec. Marawola, Kabupaten Sigi, Sulawesi Tengah 94222","Jl. Graha Mutiara No.19 Blok D1, Tinggede Sel., Kec. Marawola, Kabupaten Sigi",SULAWESI TENGAH,94222.0,Indonesia,82229300084.0,,,-0.944949,119.8644137,https://maps.google.com/?cid=0x0:0x7ad21c1500b640d8,
mall,Pusat Perbelanjaan,Cinema XXI - Palu Grand Mall,"Grand Mall, lt 3, Jl. Diponegoro No.77, Lere, Palu Barat, Palu City, Central Sulawesi 94111","lt 3, Jl. Diponegoro No.77, Lere, Palu Barat, Palu City",SULAWESI TENGAH,94111.0,Indonesia,4514131021.0,,,-0.8837456,119.8432083,https://maps.google.com/?cid=0x0:0xcd283a995bf07939,
mall,Pasar,Pasar Sentral Buol,"5C4Q+C67, Buol, Kec. Biau, Kabupaten Buol, Sulawesi Tengah 94565","Buol, Kec. Biau, Kabupaten Buol",SULAWESI TENGAH,94565.0,Indonesia,82189278921.0,,,1.1560302,121.4380608,https://maps.google.com/?cid=0x0:0x83e6e906eed51213,
mall,Toko bahan makanan,KIOS FARIDHA,"Leok I, Kec. Biau, Kabupaten Buol, Sulawesi Tengah","Kabupaten Buol, Sulawesi Tengah",SULAWESI TENGAH,,Indonesia,82293819618.0,,,1.2033513,121.3941835,https://maps.google.com/?cid=0x0:0x57a15a9ee0329981,
mall,Pusat Bisnis,Orinda Theatre Square,"30100 Town Center Dr # X, Laguna Niguel, CA 92677, Amerika Serikat",Town Center Dr # X,SULAWESI TENGAH,30100.0,Indonesia,19499695960.0,,,33.5251457,-117.7139528,https://maps.google.com/?cid=0x0:0x905baea6103742c6,
mall,Pusat Perbelanjaan,Rheem Valley Shopping Center,"580 Moraga Rd, Moraga, CA 94556, Amerika Serikat","Moraga, CA",SULAWESI TENGAH,94556.0,Indonesia,19165802527.0,,,37.85741,-122.1249411,https://maps.google.com/?cid=0x0:0xec90c5b09b5f85d5,
mall,Pusat Bisnis,Danville Square,"1 Railroad Ave, Danville, CA 94526, Amerika Serikat","Danville, CA",SULAWESI TENGAH,94526.0,Indonesia,19255534173.0,,,37.823946,-122.0038217,https://maps.google.com/?cid=0x0:0x16ccfc54aa3857a8,
mall,Pusat Perbelanjaan,Orinda Village Square,"250 Village Square, Orinda, CA 94563, Amerika Serikat","Orinda, CA",SULAWESI TENGAH,94563.0,Indonesia,19252844382.0,,,37.8834549,-122.1904573,https://maps.google.com/?cid=0x0:0xb7afb8295610e3ed,
mall,mall,Kec. Biau,"Kabupaten Buol, Sulawesi Tengah","Kabupaten Buol, Sulawesi Tengah",SULAWESI TENGAH,,Indonesia,,,,1.1708694,121.4215795,https://maps.google.com/?cid=0x0:0xaaa5fc4d0bdde54c,
mall,Toko bahan makanan,Toko RAFIF Buol,"5C4Q+C6G, Buol, Kec. Biau, Kabupaten Buol, Sulawesi Tengah 94565","Buol, Kec. Biau, Kabupaten Buol",SULAWESI TENGAH,94565.0,Indonesia,82344497788.0,,,1.1560695,121.43809,https://maps.google.com/?cid=0x0:0x90b02a34b04c14ba,
mall,Toko Makanan,UMKM NURHIDAYAH,"5C78+6X5, Kali, Kec. Biau, Kabupaten Buol, Sulawesi Tengah 94563","Kali, Kec. Biau, Kabupaten Buol",SULAWESI TENGAH,94563.0,Indonesia,85241142267.0,,,1.1630249,121.4174916,https://maps.google.com/?cid=0x0:0x50143713f3ad6c62,
mall,Pasar,Pasar Sentral Buol,"5C4Q+C67, Buol, Kec. Biau, Kabupaten Buol, Sulawesi Tengah 94565","Buol, Kec. Biau, Kabupaten Buol",SULAWESI TENGAH,94565.0,Indonesia,82189278921.0,,,1.1560302,121.4380608,https://maps.google.com/?cid=0x0:0x83e6e906eed51213,
mall,Toko,Tiga Dua Motor,"5C6H+769, Kali, Kec. Biau, Kabupaten Buol, Sulawesi Tengah 94565","Kali, Kec. Biau, Kabupaten Buol",SULAWESI TENGAH,94565.0,Indonesia,85241478600.0,,,1.1606552,121.4280955,https://maps.google.com/?cid=0x0:0xc7f41a06c6356a3b,
mall,Pusat Perbelanjaan,MARKET AREA BUOL,"5C5P+CM2, Jl. Buol - Gorontalo, Buol, Kec. Biau, Kabupaten Buol, Sulawesi Tengah 94565","Jl. Buol - Gorontalo, Buol, Kec. Biau, Kabupaten Buol",SULAWESI TENGAH,94565.0,Indonesia,,,,1.1585119,121.4366356,https://maps.google.com/?cid=0x0:0xf32e4ea7999f478d,
mall,Toko Parfum,Al-Fazza parfum  RHGlow,"5C4P+MH4, Buol, Kec. Biau, Kabupaten Buol, Sulawesi Tengah 94565","Buol, Kec. Biau, Kabupaten Buol",SULAWESI TENGAH,94565.0,Indonesia,85240448855.0,,,1.1566387,121.4364419,https://maps.google.com/?cid=0x0:0xd52055400ced3de,
mall,Toko,Toko Nam Utama,"5C4Q+3MH, Unnamed Road, Buol, Kec. Biau, Kabupaten Buol, Sulawesi Tengah 94565","Unnamed Road, Buol, Kec. Biau, Kabupaten Buol",SULAWESI TENGAH,94565.0,Indonesia,81354302585.0,,,1.155176,121.4392211,https://maps.google.com/?cid=0x0:0x15c57b7ae96c6917,
mall,Toko Pakaian,Metro fashion,"5C5P+59C, Jl. T Mangkona, Buol, Kec. Biau, Kabupaten Buol, Sulawesi Tengah 94565","Jl. T Mangkona, Buol, Kec. Biau, Kabupaten Buol",SULAWESI TENGAH,94565.0,Indonesia,85241347901.0,,,1.1579274,121.4358933,https://maps.google.com/?cid=0x0:0xd0e54385221024d5,
mall,Toko,Toko cahaya Baru,"5C4Q+C42, Jl. Buol - Gorontalo, Buol, Kec. Biau, Kabupaten Buol, Sulawesi Tengah 94565","Jl. Buol - Gorontalo, Buol, Kec. Biau, Kabupaten Buol",SULAWESI TENGAH,94565.0,Indonesia,,,,1.1560136,121.4377688,https://maps.google.com/?cid=0x0:0x250123f81714b1b9,
mall,Pusat Perbelanjaan,TDS Suharty Syukur Buol,"5C4P+MHQ Provinsi: Sul-Teng, Jl. T Mangkona dan Pasar Raya Buol, Kelurahan: Buol, Kecamatan: Biau, Kabupaten:, Buol, Kec. Biau, Kabupaten Buol, Sulawesi Tengah 94565","Jl. T Mangkona dan Pasar Raya Buol, Kelurahan: Buol, Kecamatan: Biau, Kabupaten:, Buol, Kec. Biau, Kabupaten Buol",SULAWESI TENGAH,94565.0,Indonesia,82346066666.0,,,1.1567101,121.4364872,https://maps.google.com/?cid=0x0:0xe4aac785364151d,
mall,Pusat Perbelanjaan,Kios azkha,"5C8G+7X4, Jl. Daud Lapau, Leok II, Kec. Biau, Kabupaten Buol, Sulawesi Tengah 94563","Jl. Daud Lapau, Leok II, Kec. Biau, Kabupaten Buol",SULAWESI TENGAH,94563.0,Indonesia,,,,1.1656557,121.4274547,https://maps.google.com/?cid=0x0:0x523956b6f54a8737,
mall,Pusat Perbelanjaan,Toko TOLI MUJUR BUOL,"5C4Q+C4G, Buol, Kec. Biau, Kabupaten Buol, Sulawesi Tengah 94565","Buol, Kec. Biau, Kabupaten Buol",SULAWESI TENGAH,94565.0,Indonesia,,,,1.156051,121.4378252,https://maps.google.com/?cid=0x0:0x26f4204edf005a40,
mall,Toko,Anjas colection,"5C6J+CCQ, Jl. Buol - Gorontalo, Buol, Kec. Biau, Kabupaten Buol, Sulawesi Tengah 94565","Jl. Buol - Gorontalo, Buol, Kec. Biau, Kabupaten Buol",SULAWESI TENGAH,94565.0,Indonesia,,,,1.1610791,121.4311095,https://maps.google.com/?cid=0x0:0x89d83a33565348d9,
mall,Layanan Pemasaran Internet,Warung Milenial,"5C47+PH5, Unnamed Road, Kulango, Kec. Biau, Kabupaten Buol, Sulawesi Tengah 94565","Unnamed Road, Kulango, Kec. Biau, Kabupaten Buol",SULAWESI TENGAH,94565.0,Indonesia,82292255854.0,,,1.1567676,121.4139745,https://maps.google.com/?cid=0x0:0xdd3fab1e18f8d8ab,
mall,Pasar,Pasar Barabatu,"68XW+HX9, Busak II, Kec. Karamat, Kabupaten Buol, Sulawesi Tengah 94563","Busak II, Kec. Karamat, Kabupaten Buol",SULAWESI TENGAH,94563.0,Indonesia,85256344412.0,,,1.248916,121.3474704,https://maps.google.com/?cid=0x0:0xad54b07f6f3a4c4c,
mall,Minimarket,Kios wahyu,"5C6H+58R, Kali, Kec. Biau, Kabupaten Buol, Sulawesi Tengah 94565","Kali, Kec. Biau, Kabupaten Buol",SULAWESI TENGAH,94565.0,Indonesia,82236518682.0,,,1.1604769,121.4282546,https://maps.google.com/?cid=0x0:0xeb3ac3ff800bb3b3,
mall,Toko bahan makanan,KIOS FARIDHA,"Leok I, Kec. Biau, Kabupaten Buol, Sulawesi Tengah","Kabupaten Buol, Sulawesi Tengah",SULAWESI TENGAH,,Indonesia,82293819618.0,,,1.2033513,121.3941835,https://maps.google.com/?cid=0x0:0x57a15a9ee0329981,
mall,Kompleks Kondominium,Pasar Desa Lamadong 2,"4C88+JVJ, Lamadong 2, Kec. Momunu, Kabupaten Buol, Sulawesi Tengah 94565","Lamadong 2, Kec. Momunu, Kabupaten Buol",SULAWESI TENGAH,94565.0,Indonesia,,,,1.1165805,121.4171388,https://maps.google.com/?cid=0x0:0x2289990b70fe556d,
mall,Toko,Toko ALAT WALET BUOL,"4CXP+XP3, Buol, Kec. Biau, Kabupaten Buol, Sulawesi Tengah 94565","Buol, Kec. Biau, Kabupaten Buol",SULAWESI TENGAH,94565.0,Indonesia,81354288532.0,,,1.1501058,121.4378898,https://maps.google.com/?cid=0x0:0x38d097a272cd1f0a,
mall,Kios,Kios Isnawati,"39XJ+3C2, Pujimulyo, Kec. Momunu, Kabupaten Buol, Sulawesi Tengah 94565","Pujimulyo, Kec. Momunu, Kabupaten Buol",SULAWESI TENGAH,94565.0,Indonesia,82286581836.0,,,1.0975628,121.3811523,https://maps.google.com/?cid=0x0:0xa39a56a092064bd0,
mall,mall,Kec. Momunu,"Kabupaten Buol, Sulawesi Tengah","Kabupaten Buol, Sulawesi Tengah",SULAWESI TENGAH,,Indonesia,,,,1.1162521,121.4125109,https://maps.google.com/?cid=0x0:0x2986ed5591cc6e42,
mall,Kompleks Kondominium,Pasar Desa Lamadong 2,"4C88+JVJ, Lamadong 2, Kec. Momunu, Kabupaten Buol, Sulawesi Tengah 94565","Lamadong 2, Kec. Momunu, Kabupaten Buol",SULAWESI TENGAH,94565.0,Indonesia,,,,1.1165805,121.4171388,https://maps.google.com/?cid=0x0:0x2289990b70fe556d,
mall,Pusat Perbelanjaan,Toko TOLI MUJUR BUOL,"5C4Q+C4G, Buol, Kec. Biau, Kabupaten Buol, Sulawesi Tengah 94565","Buol, Kec. Biau, Kabupaten Buol",SULAWESI TENGAH,94565.0,Indonesia,,,,1.156051,121.4378252,https://maps.google.com/?cid=0x0:0x26f4204edf005a40,
mall,Toko bahan makanan,Toko RAFIF Buol,"5C4Q+C6G, Buol, Kec. Biau, Kabupaten Buol, Sulawesi Tengah 94565","Buol, Kec. Biau, Kabupaten Buol",SULAWESI TENGAH,94565.0,Indonesia,82344497788.0,,,1.1560695,121.43809,https://maps.google.com/?cid=0x0:0x90b02a34b04c14ba,
mall,Pusat Perbelanjaan,MARKET AREA BUOL,"5C5P+CM2, Jl. Buol - Gorontalo, Buol, Kec. Biau, Kabupaten Buol, Sulawesi Tengah 94565","Jl. Buol - Gorontalo, Buol, Kec. Biau, Kabupaten Buol",SULAWESI TENGAH,94565.0,Indonesia,,,,1.1585119,121.4366356,https://maps.google.com/?cid=0x0:0xf32e4ea7999f478d,
mall,Toko,Toko Nam Utama,"5C4Q+3MH, Unnamed Road, Buol, Kec. Biau, Kabupaten Buol, Sulawesi Tengah 94565","Unnamed Road, Buol, Kec. Biau, Kabupaten Buol",SULAWESI TENGAH,94565.0,Indonesia,81354302585.0,,,1.155176,121.4392211,https://maps.google.com/?cid=0x0:0x15c57b7ae96c6917,
mall,Pusat Perbelanjaan,TERITORI MARKET BUOL,"5C6M+3W4, Buol - Lakuan, Buol, Kec. Biau, Kabupaten Buol, Sulawesi Tengah 94565","Buol - Lakuan, Buol, Kec. Biau, Kabupaten Buol",SULAWESI TENGAH,94565.0,Indonesia,,,,1.1601286,121.434832,https://maps.google.com/?cid=0x0:0x1b33aa1c6f7a67da,
mall,Toko,Tiga Dua Motor,"5C6H+769, Kali, Kec. Biau, Kabupaten Buol, Sulawesi Tengah 94565","Kali, Kec. Biau, Kabupaten Buol",SULAWESI TENGAH,94565.0,Indonesia,85241478600.0,,,1.1606552,121.4280955,https://maps.google.com/?cid=0x0:0xc7f41a06c6356a3b,
mall,Toko,Toko cahaya Baru,"5C4Q+C42, Jl. Buol - Gorontalo, Buol, Kec. Biau, Kabupaten Buol, Sulawesi Tengah 94565","Jl. Buol - Gorontalo, Buol, Kec. Biau, Kabupaten Buol",SULAWESI TENGAH,94565.0,Indonesia,,,,1.1560136,121.4377688,https://maps.google.com/?cid=0x0:0x250123f81714b1b9,
mall,Toko Makanan,UMKM NURHIDAYAH,"5C78+6X5, Kali, Kec. Biau, Kabupaten Buol, Sulawesi Tengah 94563","Kali, Kec. Biau, Kabupaten Buol",SULAWESI TENGAH,94563.0,Indonesia,85241142267.0,,,1.1630249,121.4174916,https://maps.google.com/?cid=0x0:0x50143713f3ad6c62,
mall,Pusat Perbelanjaan,TDS Suharty Syukur Buol,"5C4P+MHQ Provinsi: Sul-Teng, Jl. T Mangkona dan Pasar Raya Buol, Kelurahan: Buol, Kecamatan: Biau, Kabupaten:, Buol, Kec. Biau, Kabupaten Buol, Sulawesi Tengah 94565","Jl. T Mangkona dan Pasar Raya Buol, Kelurahan: Buol, Kecamatan: Biau, Kabupaten:, Buol, Kec. Biau, Kabupaten Buol",SULAWESI TENGAH,94565.0,Indonesia,82346066666.0,,,1.1567101,121.4364872,https://maps.google.com/?cid=0x0:0xe4aac785364151d,
mall,Toko Pakaian,Metro fashion,"5C5P+59C, Jl. T Mangkona, Buol, Kec. Biau, Kabupaten Buol, Sulawesi Tengah 94565","Jl. T Mangkona, Buol, Kec. Biau, Kabupaten Buol",SULAWESI TENGAH,94565.0,Indonesia,85241347901.0,,,1.1579274,121.4358933,https://maps.google.com/?cid=0x0:0xd0e54385221024d5,
mall,Minimarket,Kios wahyu,"5C6H+58R, Kali, Kec. Biau, Kabupaten Buol, Sulawesi Tengah 94565","Kali, Kec. Biau, Kabupaten Buol",SULAWESI TENGAH,94565.0,Indonesia,82236518682.0,,,1.1604769,121.4282546,https://maps.google.com/?cid=0x0:0xeb3ac3ff800bb3b3,
mall,Layanan Pemasaran Internet,Warung Milenial,"5C47+PH5, Unnamed Road, Kulango, Kec. Biau, Kabupaten Buol, Sulawesi Tengah 94565","Unnamed Road, Kulango, Kec. Biau, Kabupaten Buol",SULAWESI TENGAH,94565.0,Indonesia,82292255854.0,,,1.1567676,121.4139745,https://maps.google.com/?cid=0x0:0xdd3fab1e18f8d8ab,
mall,Area Mendaki,KEBUN SAWIT,"2CP8+VMP, Unnamed Road, Yugut, Kec. Bukal, Kabupaten Buol, Sulawesi Tengah 94564","Unnamed Road, Yugut, Kec. Bukal, Kabupaten Buol",SULAWESI TENGAH,94564.0,Indonesia,,,,1.0372069,121.4167159,https://maps.google.com/?cid=0x0:0xb9a8756b0f2a2e77,
mall,Toko Parfum,Al-Fazza parfum  RHGlow,"5C4P+MH4, Buol, Kec. Biau, Kabupaten Buol, Sulawesi Tengah 94565","Buol, Kec. Biau, Kabupaten Buol",SULAWESI TENGAH,94565.0,Indonesia,85240448855.0,,,1.1566387,121.4364419,https://maps.google.com/?cid=0x0:0xd52055400ced3de,
mall,Toko,Anjas colection,"5C6J+CCQ, Jl. Buol - Gorontalo, Buol, Kec. Biau, Kabupaten Buol, Sulawesi Tengah 94565","Jl. Buol - Gorontalo, Buol, Kec. Biau, Kabupaten Buol",SULAWESI TENGAH,94565.0,Indonesia,,,,1.1610791,121.4311095,https://maps.google.com/?cid=0x0:0x89d83a33565348d9,
mall,Toko,Toko ALAT WALET BUOL,"4CXP+XP3, Buol, Kec. Biau, Kabupaten Buol, Sulawesi Tengah 94565","Buol, Kec. Biau, Kabupaten Buol",SULAWESI TENGAH,94565.0,Indonesia,81354288532.0,,,1.1501058,121.4378898,https://maps.google.com/?cid=0x0:0x38d097a272cd1f0a,
mall,mall,Rizky narti gorden,"5C4Q+7GW, Jl. M.A Turungku No.depan, asra1 kali, Buol, Kec. Biau, Kabupaten Buol, Sulawesi Tengah 94565","Jl. M.A Turungku No.depan, asra1 kali, Buol, Kec. Biau, Kabupaten Buol",SULAWESI TENGAH,94565.0,Indonesia,82312223331.0,,,1.1612799,121.4311842,https://maps.google.com/?cid=0x0:0x9e2ee2e33fb5a2cc,
mall,Gedung Apartemen,Mall@Bassura,"Jl. Jenderal Basuki Rachmat No.1A, Cipinang Besar Sel., Kecamatan Jatinegara, Kota Jakarta Timur, Daerah Khusus Ibukota Jakarta 13410","Cipinang Besar Sel., Kecamatan Jatinegara, Kota Jakarta Timur",SULAWESI TENGAH,13410.0,Indonesia,2122807300.0,,,-6.2240597,106.8778851,https://maps.google.com/?cid=0x0:0x610648e929845480,
mall,Pusat Perbelanjaan,Bigbird Mall Bassura,"QVGH+639, RT.6/RW.10, Cipinang Besar Sel., Kecamatan Jatinegara, Kota Jakarta Timur, Daerah Khusus Ibukota Jakarta 13410","RT.6/RW.10, Cipinang Besar Sel., Kecamatan Jatinegara, Kota Jakarta Timur",SULAWESI TENGAH,13410.0,Indonesia,,,,-6.2244502,106.8777485,https://maps.google.com/?cid=0x0:0x6fb9c2850e00ccb6,
mall,Toko,ZUMA BASSURA MALL,"NEXT XXI, BASURA MALL CITY, 2ND FLOOR, Jl. Jenderal Basuki Rachmat No.1, RT.8/RW.10, Cipinang, Kecamatan Jatinegara, Kota Jakarta Timur, Daerah Khusus Ibukota Jakarta 13410","BASURA MALL CITY, 2ND FLOOR, Jl. Jenderal Basuki Rachmat No.1, RT.8/RW.10, Cipinang, Kecamatan Jatinegara, Kota Jakarta Timur",SULAWESI TENGAH,13410.0,Indonesia,,,,-6.2243891,106.8777153,https://maps.google.com/?cid=0x0:0x9e8793cfc9308b9d,
mall,Hotel bintang 3,Jual Sewa Apartemen Bassura City - ICAL,"Apartemen Bassura City Kios Tower Flamboyan No AL10, Daerah Khusus Ibukota Jakarta 13410","Kota Jakarta Timur, Daerah Khusus Ibukota Jakarta",SULAWESI TENGAH,,Indonesia,81299939192.0,,,-6.2227662,106.8804363,https://maps.google.com/?cid=0x0:0xcdd434cd1cb2a1f4,
mall,Korea,Myoungdong Tokpoki Bassura,"Mall@Bassura, lantai 1, Cipinang Besar Sel., Kecamatan Jatinegara, Kota Jakarta Timur, Daerah Khusus Ibukota Jakarta 13410","lantai 1, Cipinang Besar Sel., Kecamatan Jatinegara, Kota Jakarta Timur",SULAWESI TENGAH,13410.0,Indonesia,,,,-6.2233766,106.8809473,https://maps.google.com/?cid=0x0:0x6f64e25144c64bd0,
mall,Tempat Cukur Rambut,Kaizen Haircut Bassura,"Mall Basuura City lantai LG, Jalan Basuki Rahmat No. 1A Kel, RT.8/RW.10, Cipinang Besar Sel., Kec.Jatinegara, Kota Jakarta Timur, Daerah Khusus Ibukota Jakarta 13410","Jalan Basuki Rahmat No. 1A Kel, RT.8/RW.10, Cipinang Besar Sel., Kec.Jatinegara, Kota Jakarta Timur",SULAWESI TENGAH,13410.0,Indonesia,,,,-6.2232703,106.8787614,https://maps.google.com/?cid=0x0:0xb9bb9eaef7072382,
mall,Toko Swalayan,Super Indo Bassura City,"Mall@Bassura, Jl. Jenderal Basuki Rachmat No.1 Lantai LG, RT.8/RW.10, Cipinang Besar Sel., Kecamatan Jatinegara, Kota Jakarta Timur, Daerah Khusus Ibukota Jakarta 13410","Jl. Jenderal Basuki Rachmat No.1 Lantai LG, RT.8/RW.10, Cipinang Besar Sel., Kecamatan Jatinegara, Kota Jakarta Timur",SULAWESI TENGAH,13410.0,Indonesia,2122807290.0,,,-6.2243891,106.8777153,https://maps.google.com/?cid=0x0:0xf713ab5cea940312,
mall,mall,Sulawesi Tengah 94568,"Kabupaten Buol, Sulawesi Tengah","Kabupaten Buol, Sulawesi Tengah",SULAWESI TENGAH,,Indonesia,,,,1.0612253,121.947311,https://maps.google.com/?cid=0x0:0x9f3388a9eb052b12,
mall,Toko,Toko Setia Budi,"2XW3+C2F, Paleleh, Kabupaten Buol, Sulawesi Tengah 94568","Paleleh, Kabupaten Buol",SULAWESI TENGAH,94568.0,Indonesia,,,,1.0460636,121.9525363,https://maps.google.com/?cid=0x0:0x44e31661cd0de7ef,
mall,Toko bahan makanan,Toko SINAR JAYA,"2WRX+9JV, Paleleh, Kabupaten Buol, Sulawesi Tengah 94568","Paleleh, Kabupaten Buol",SULAWESI TENGAH,94568.0,Indonesia,82189208383.0,,,1.0409902,121.9490418,https://maps.google.com/?cid=0x0:0xbc08c174a3a05d16,
mall,Toko bahan makanan,TOKO MAKMUR PALELEH,"2XW3+M42, Paleleh, Kabupaten Buol, Sulawesi Tengah 94568","Paleleh, Kabupaten Buol",SULAWESI TENGAH,94568.0,Indonesia,82192585988.0,,,1.0466311,121.9527614,https://maps.google.com/?cid=0x0:0x2391977021991940,
mall,Toko umum,TOKO MEDIO II,"2XW3+W64, Paleleh, Kabupaten Buol, Sulawesi Tengah 94568","Paleleh, Kabupaten Buol",SULAWESI TENGAH,94568.0,Indonesia,81244203344.0,,,1.0472709,121.9530745,https://maps.google.com/?cid=0x0:0x5c4f19428857f45b,
mall,Toko bahan makanan,Indomaret Paleleh,"2XW2+G79, Paleleh, Kabupaten Buol, Sulawesi Tengah 94568","Paleleh, Kabupaten Buol",SULAWESI TENGAH,94568.0,Indonesia,,,,1.0463538,121.9506808,https://maps.google.com/?cid=0x0:0x36ff02c8eeb1bf37,
mall,mall,P.D CANTIK PALELEH,"3X23+P2C, Jl. Buol - Gorontalo, Paleleh, Kabupaten Buol, Sulawesi Tengah 94568","Jl. Buol - Gorontalo, Paleleh, Kabupaten Buol",SULAWESI TENGAH,94568.0,Indonesia,82214690944.0,,,1.0518109,121.9525052,https://maps.google.com/?cid=0x0:0xa041fb0e2d64fa13,
mall,Toko bahan makanan,Pasar PALELEH,"2XX2+8VX, Unnamed Road, Paleleh, Kabupaten Buol, Sulawesi Tengah 94568","Unnamed Road, Paleleh, Kabupaten Buol",SULAWESI TENGAH,94568.0,Indonesia,,,,1.04837,121.9522206,https://maps.google.com/?cid=0x0:0xaae49a3798f8b02b,
mall,mall,Paleleh,"Kabupaten Buol, Sulawesi Tengah","Kabupaten Buol, Sulawesi Tengah",SULAWESI TENGAH,,Indonesia,,,,0.9789396,122.0155491,https://maps.google.com/?cid=0x0:0xdf7ac1d178d0f1e,
mall,Pusat Perbelanjaan,ADI JAYA SENTOSA ELEKTRONIK  MEUBEL,"Jl. Buol - Gorontalo, Umu, Paleleh, Kabupaten Gorontalo Utara, Gorontalo 94568","Umu, Paleleh, Kabupaten Gorontalo Utara",SULAWESI TENGAH,94568.0,Indonesia,82240022220.0,,,1.0148799,122.1783921,https://maps.google.com/?cid=0x0:0xfd1bf1564fc53db8,
mall,Pasar,Pasar Modern Tolinggula,"258G+2JR, Jl. Buol - Gorontalo, Windu, Paleleh, Kabupaten Gorontalo Utara, Gorontalo 96524","Jl. Buol - Gorontalo, Windu, Paleleh, Kabupaten Gorontalo Utara",SULAWESI TENGAH,96524.0,Indonesia,,,,1.0151146,122.1765021,https://maps.google.com/?cid=0x0:0x658f9a626c853cdd,
mall,mall,Kec. Paleleh Bar.,"Kabupaten Buol, Sulawesi Tengah","Kabupaten Buol, Sulawesi Tengah",SULAWESI TENGAH,,Indonesia,,,,1.0461908,121.8334868,https://maps.google.com/?cid=0x0:0x4caaeaca358ff12f,
mall,Toko bahan makanan,Pasar PALELEH,"2XX2+8VX, Unnamed Road, Paleleh, Kabupaten Buol, Sulawesi Tengah 94568","Unnamed Road, Paleleh, Kabupaten Buol",SULAWESI TENGAH,94568.0,Indonesia,,,,1.04837,121.9522206,https://maps.google.com/?cid=0x0:0xaae49a3798f8b02b,
mall,Toko,Toko Setia Budi,"2XW3+C2F, Paleleh, Kabupaten Buol, Sulawesi Tengah 94568","Paleleh, Kabupaten Buol",SULAWESI TENGAH,94568.0,Indonesia,,,,1.0460636,121.9525363,https://maps.google.com/?cid=0x0:0x44e31661cd0de7ef,
mall,Pusat Perbelanjaan,XEIGHT Palu Grand Mall,"Grand Mall, Jl. Cumi-Cumi No.77 LT. GF UNIT G - 0150, BUMI BAHARI, Kec. Palu Bar., Kota Palu, Sulawesi Tengah 94221","Jl. Cumi-Cumi No.77 LT. GF UNIT G - 0150, BUMI BAHARI, Kec. Palu Bar., Kota Palu",SULAWESI TENGAH,94221.0,Indonesia,4514134547.0,,,-0.8828723,119.8427211,https://maps.google.com/?cid=0x0:0xd7e6e97d68971afd,
mall,Toko umum,TOKO MEDIO II,"2XW3+W64, Paleleh, Kabupaten Buol, Sulawesi Tengah 94568","Paleleh, Kabupaten Buol",SULAWESI TENGAH,94568.0,Indonesia,81244203344.0,,,1.0472709,121.9530745,https://maps.google.com/?cid=0x0:0x5c4f19428857f45b,
mall,Toko bahan makanan,TOKO MAKMUR PALELEH,"2XW3+M42, Paleleh, Kabupaten Buol, Sulawesi Tengah 94568","Paleleh, Kabupaten Buol",SULAWESI TENGAH,94568.0,Indonesia,82192585988.0,,,1.0466311,121.9527614,https://maps.google.com/?cid=0x0:0x2391977021991940,
mall,Toko bahan makanan,Indomaret Paleleh,"2XW2+G79, Paleleh, Kabupaten Buol, Sulawesi Tengah 94568","Paleleh, Kabupaten Buol",SULAWESI TENGAH,94568.0,Indonesia,,,,1.0463538,121.9506808,https://maps.google.com/?cid=0x0:0x36ff02c8eeb1bf37,
mall,Pusat Perbelanjaan,THE PARK MALL PALU,"4RCP+6RC, Jl. Cumi-Cumi, Silae, Kec. Palu Bar., Kota Palu, Sulawesi Tengah 94227","Jl. Cumi-Cumi, Silae, Kec. Palu Bar., Kota Palu",SULAWESI TENGAH,94227.0,Indonesia,4317554446.0,,,-0.8793749,119.8370341,https://maps.google.com/?cid=0x0:0x32487cdfd5e5d75f,
mall,mall,P.D CANTIK PALELEH,"3X23+P2C, Jl. Buol - Gorontalo, Paleleh, Kabupaten Buol, Sulawesi Tengah 94568","Jl. Buol - Gorontalo, Paleleh, Kabupaten Buol",SULAWESI TENGAH,94568.0,Indonesia,82214690944.0,,,1.0518109,121.9525052,https://maps.google.com/?cid=0x0:0xa041fb0e2d64fa13,
mall,mall,Sulawesi Tengah 94565,"Kabupaten Buol, Sulawesi Tengah","Kabupaten Buol, Sulawesi Tengah",SULAWESI TENGAH,,Indonesia,,,,0.971428,121.1710389,https://maps.google.com/?cid=0x0:0x5a2a36bc7e43bf3d,
mall,Pusat Perbelanjaan,TERITORI MARKET BUOL,"5C6M+3W4, Buol - Lakuan, Buol, Kec. Biau, Kabupaten Buol, Sulawesi Tengah 94565","Buol - Lakuan, Buol, Kec. Biau, Kabupaten Buol",SULAWESI TENGAH,94565.0,Indonesia,,,,1.1601286,121.434832,https://maps.google.com/?cid=0x0:0x1b33aa1c6f7a67da,
mall,Toko bahan makanan,Toko RAFIF Buol,"5C4Q+C6G, Buol, Kec. Biau, Kabupaten Buol, Sulawesi Tengah 94565","Buol, Kec. Biau, Kabupaten Buol",SULAWESI TENGAH,94565.0,Indonesia,82344497788.0,,,1.1560695,121.43809,https://maps.google.com/?cid=0x0:0x90b02a34b04c14ba,
mall,mall,Kec. Tiloan,"Kabupaten Buol, Sulawesi Tengah","Kabupaten Buol, Sulawesi Tengah",SULAWESI TENGAH,,Indonesia,,,,0.971428,121.1710389,https://maps.google.com/?cid=0x0:0x6770062a0f1e0c7c,
mall,Pusat Perbelanjaan,Toko TOLI MUJUR BUOL,"5C4Q+C4G, Buol, Kec. Biau, Kabupaten Buol, Sulawesi Tengah 94565","Buol, Kec. Biau, Kabupaten Buol",SULAWESI TENGAH,94565.0,Indonesia,,,,1.156051,121.4378252,https://maps.google.com/?cid=0x0:0x26f4204edf005a40,
mall,Pusat Perbelanjaan,MARKET AREA BUOL,"5C5P+CM2, Jl. Buol - Gorontalo, Buol, Kec. Biau, Kabupaten Buol, Sulawesi Tengah 94565","Jl. Buol - Gorontalo, Buol, Kec. Biau, Kabupaten Buol",SULAWESI TENGAH,94565.0,Indonesia,,,,1.1585119,121.4366356,https://maps.google.com/?cid=0x0:0xf32e4ea7999f478d,
mall,Pusat Perbelanjaan,TDS Suharty Syukur Buol,"5C4P+MHQ Provinsi: Sul-Teng, Jl. T Mangkona dan Pasar Raya Buol, Kelurahan: Buol, Kecamatan: Biau, Kabupaten:, Buol, Kec. Biau, Kabupaten Buol, Sulawesi Tengah 94565","Jl. T Mangkona dan Pasar Raya Buol, Kelurahan: Buol, Kecamatan: Biau, Kabupaten:, Buol, Kec. Biau, Kabupaten Buol",SULAWESI TENGAH,94565.0,Indonesia,82346066666.0,,,1.1567101,121.4364872,https://maps.google.com/?cid=0x0:0xe4aac785364151d,
mall,Toko,Toko cahaya Baru,"5C4Q+C42, Jl. Buol - Gorontalo, Buol, Kec. Biau, Kabupaten Buol, Sulawesi Tengah 94565","Jl. Buol - Gorontalo, Buol, Kec. Biau, Kabupaten Buol",SULAWESI TENGAH,94565.0,Indonesia,,,,1.1560136,121.4377688,https://maps.google.com/?cid=0x0:0x250123f81714b1b9,
mall,Toko,Toko Nam Utama,"5C4Q+3MH, Unnamed Road, Buol, Kec. Biau, Kabupaten Buol, Sulawesi Tengah 94565","Unnamed Road, Buol, Kec. Biau, Kabupaten Buol",SULAWESI TENGAH,94565.0,Indonesia,81354302585.0,,,1.155176,121.4392211,https://maps.google.com/?cid=0x0:0x15c57b7ae96c6917,
mall,Kios,Kios Isnawati,"39XJ+3C2, Pujimulyo, Kec. Momunu, Kabupaten Buol, Sulawesi Tengah 94565","Pujimulyo, Kec. Momunu, Kabupaten Buol",SULAWESI TENGAH,94565.0,Indonesia,82286581836.0,,,1.0975628,121.3811523,https://maps.google.com/?cid=0x0:0xa39a56a092064bd0,
mall,Toko Pakaian,Metro fashion,"5C5P+59C, Jl. T Mangkona, Buol, Kec. Biau, Kabupaten Buol, Sulawesi Tengah 94565","Jl. T Mangkona, Buol, Kec. Biau, Kabupaten Buol",SULAWESI TENGAH,94565.0,Indonesia,85241347901.0,,,1.1579274,121.4358933,https://maps.google.com/?cid=0x0:0xd0e54385221024d5,
mall,Toko,Tiga Dua Motor,"5C6H+769, Kali, Kec. Biau, Kabupaten Buol, Sulawesi Tengah 94565","Kali, Kec. Biau, Kabupaten Buol",SULAWESI TENGAH,94565.0,Indonesia,85241478600.0,,,1.1606552,121.4280955,https://maps.google.com/?cid=0x0:0xc7f41a06c6356a3b,
mall,Kompleks Kondominium,Pasar Desa Lamadong 2,"4C88+JVJ, Lamadong 2, Kec. Momunu, Kabupaten Buol, Sulawesi Tengah 94565","Lamadong 2, Kec. Momunu, Kabupaten Buol",SULAWESI TENGAH,94565.0,Indonesia,,,,1.1165805,121.4171388,https://maps.google.com/?cid=0x0:0x2289990b70fe556d,
mall,Toko Makanan,UMKM NURHIDAYAH,"5C78+6X5, Kali, Kec. Biau, Kabupaten Buol, Sulawesi Tengah 94563","Kali, Kec. Biau, Kabupaten Buol",SULAWESI TENGAH,94563.0,Indonesia,85241142267.0,,,1.1630249,121.4174916,https://maps.google.com/?cid=0x0:0x50143713f3ad6c62,
mall,Pusat Perbelanjaan,Pasar gajian,"XCFC+FCX, Unnamed Road, Winangun, Kec. Bukal, Kabupaten Buol, Sulawesi Tengah 94564","Unnamed Road, Winangun, Kec. Bukal, Kabupaten Buol",SULAWESI TENGAH,94564.0,Indonesia,,,,0.9737403,121.4211044,https://maps.google.com/?cid=0x0:0x4af88fcc923db12c,
mall,Area Mendaki,KEBUN SAWIT,"2CP8+VMP, Unnamed Road, Yugut, Kec. Bukal, Kabupaten Buol, Sulawesi Tengah 94564","Unnamed Road, Yugut, Kec. Bukal, Kabupaten Buol",SULAWESI TENGAH,94564.0,Indonesia,,,,1.0372069,121.4167159,https://maps.google.com/?cid=0x0:0xb9a8756b0f2a2e77,
mall,Pusat Perbelanjaan,Sulis ATK Celluler,"XFR4+3C2, Mooyong, Kec. Bukal, Kabupaten Buol, Sulawesi Tengah 94564","Mooyong, Kec. Bukal, Kabupaten Buol",SULAWESI TENGAH,94564.0,Indonesia,,,,0.9901438,121.4560112,https://maps.google.com/?cid=0x0:0x6bda6d4b086d0560,
mall,Toko,Anjas colection,"5C6J+CCQ, Jl. Buol - Gorontalo, Buol, Kec. Biau, Kabupaten Buol, Sulawesi Tengah 94565","Jl. Buol - Gorontalo, Buol, Kec. Biau, Kabupaten Buol",SULAWESI TENGAH,94565.0,Indonesia,,,,1.1610791,121.4311095,https://maps.google.com/?cid=0x0:0x89d83a33565348d9,
mall,Toko,Kios ABAS (ARIF),"Winangun, Kec. Bukal, Kabupaten Buol, Sulawesi Tengah 94564","Kec. Bukal, Kabupaten Buol",SULAWESI TENGAH,94564.0,Indonesia,82258725479.0,,,0.973176,121.4214701,https://maps.google.com/?cid=0x0:0x4d2094ec9ee155d5,
mall,Toko Parfum,Al-Fazza parfum  RHGlow,"5C4P+MH4, Buol, Kec. Biau, Kabupaten Buol, Sulawesi Tengah 94565","Buol, Kec. Biau, Kabupaten Buol",SULAWESI TENGAH,94565.0,Indonesia,85240448855.0,,,1.1566387,121.4364419,https://maps.google.com/?cid=0x0:0xd52055400ced3de,
mall,Layanan Pemasaran Internet,Warung Milenial,"5C47+PH5, Unnamed Road, Kulango, Kec. Biau, Kabupaten Buol, Sulawesi Tengah 94565","Unnamed Road, Kulango, Kec. Biau, Kabupaten Buol",SULAWESI TENGAH,94565.0,Indonesia,82292255854.0,,,1.1567676,121.4139745,https://maps.google.com/?cid=0x0:0xdd3fab1e18f8d8ab,
mall,Minimarket,Kios wahyu,"5C6H+58R, Kali, Kec. Biau, Kabupaten Buol, Sulawesi Tengah 94565","Kali, Kec. Biau, Kabupaten Buol",SULAWESI TENGAH,94565.0,Indonesia,82236518682.0,,,1.1604769,121.4282546,https://maps.google.com/?cid=0x0:0xeb3ac3ff800bb3b3,
mall,Toko,Toko ALAT WALET BUOL,"4CXP+XP3, Buol, Kec. Biau, Kabupaten Buol, Sulawesi Tengah 94565","Buol, Kec. Biau, Kabupaten Buol",SULAWESI TENGAH,94565.0,Indonesia,81354288532.0,,,1.1501058,121.4378898,https://maps.google.com/?cid=0x0:0x38d097a272cd1f0a,
mall,Pusat Perbelanjaan,Thamrin City,"Jl. Thamrin Boulevard, Kb. Melati, Kecamatan Tanah Abang, Kota Jakarta Pusat, Daerah Khusus Ibukota Jakarta 10230","Kb. Melati, Kecamatan Tanah Abang, Kota Jakarta Pusat",SULAWESI TENGAH,10230.0,Indonesia,2131990988.0,,,-6.1939374,106.8161005,https://maps.google.com/?cid=0x0:0x1b60abd2e0b3d6d1,
mall,Pusat Perbelanjaan,Somersville Towne Center,"2550 Somersville Rd, Antioch, CA 94509, Amerika Serikat","Antioch, CA",SULAWESI TENGAH,94509.0,Indonesia,19257545230.0,,,38.0020593,-121.8429519,https://maps.google.com/?cid=0x0:0xd31e1dfd7b0bc648,
mall,Pusat Perbelanjaan,Slatten Ranch Shopping Center,"5749 Lone Tree Wy, Antioch, CA 94531, Amerika Serikat","Antioch, CA",SULAWESI TENGAH,94531.0,Indonesia,,,,37.9633468,-121.7374304,https://maps.google.com/?cid=0x0:0x7481359aeb55d102,
mall,Toko Koper,Tumi Senayan City,"Jl. Asia Afrika Lot 19, Unit #G42 Senayan City Mall, RT.1/RW.3, Gelora, Kecamatan Tanah Abang, Kota Jakarta Pusat, Daerah Khusus Ibukota Jakarta 10270","Unit #G42 Senayan City Mall, RT.1/RW.3, Gelora, Kecamatan Tanah Abang, Kota Jakarta Pusat",SULAWESI TENGAH,10270.0,Indonesia,2172781085.0,,,-6.2278079,106.7970054,https://maps.google.com/?cid=0x0:0x34fc53fd292aa8a5,
supermarket,Brunch,Ukm Putri,"Belakang Kantor Polpp, Leok II, Kec. Biau, Kabupaten Buol, Sulawesi Tengah 94563","Leok II, Kec. Biau, Kabupaten Buol",SULAWESI TENGAH,94563.0,Indonesia,85143787970.0,,,1.1707385,121.4162302,https://maps.google.com/?cid=0x0:0xa1fa0be73cc39d3f,
supermarket,Toko Makanan,UMKM NURHIDAYAH,"5C78+6X5, Kali, Kec. Biau, Kabupaten Buol, Sulawesi Tengah 94563","Kali, Kec. Biau, Kabupaten Buol",SULAWESI TENGAH,94563.0,Indonesia,85241142267.0,,,1.1630249,121.4174916,https://maps.google.com/?cid=0x0:0x50143713f3ad6c62,
supermarket,supermarket,Biau,"Kec. Bukal, Kabupaten Buol, Sulawesi Tengah","Kabupaten Buol, Sulawesi Tengah",SULAWESI TENGAH,,Indonesia,,,,1.0813143,121.4484747,https://maps.google.com/?cid=0x0:0xd4aa98bb7cffee59,
supermarket,Toko bahan makanan,Toko Manggala Jaya,"5C68+CG4, Kali, Kec. Biau, Kabupaten Buol, Sulawesi Tengah 94565","Kali, Kec. Biau, Kabupaten Buol",SULAWESI TENGAH,94565.0,Indonesia,,,,1.161,121.4163387,https://maps.google.com/?cid=0x0:0xfa81dee4f9a3bbbb,
supermarket,supermarket,MN. Swalayan,"5C6J+FQF, Jl. M.A Turungku, Kali, Kec. Biau, Kabupaten Buol, Sulawesi Tengah 94563","Jl. M.A Turungku, Kali, Kec. Biau, Kabupaten Buol",SULAWESI TENGAH,94563.0,Indonesia,,,,1.161198,121.4319356,https://maps.google.com/?cid=0x0:0x6348936988645d12,
supermarket,supermarket,Blau,"Windu, Kec. Tolinggula, Kabupaten Gorontalo Utara, Gorontalo","Kabupaten Gorontalo Utara, Gorontalo",SULAWESI TENGAH,,Indonesia,,,,0.986265,122.223602,https://maps.google.com/?cid=0x0:0x871bc1bc52273216,
supermarket,Pusat Perbelanjaan,Pasar Cisoka,"Jl. Ps. Cisoka No.44, Cisoka, Kec. Cisoka, Kabupaten Tangerang, Banten 15730","Cisoka, Kec. Cisoka, Kabupaten Tangerang",SULAWESI TENGAH,15730.0,Indonesia,,,,-6.2646663,106.4261972,https://maps.google.com/?cid=0x0:0x41f1d2735ec6eea,
supermarket,supermarket,Sulawesi Tengah 94564,"Kec. Bukal, Kabupaten Buol, Sulawesi Tengah","Kabupaten Buol, Sulawesi Tengah",SULAWESI TENGAH,,Indonesia,,,,0.9524639,121.422761,https://maps.google.com/?cid=0x0:0x4fb25c099e08028b,
supermarket,Toko bahan makanan,Kios Didi,"XC9C+9V3, Unnamed Road, Winangun, Kec. Bukal, Kabupaten Buol, Sulawesi Tengah 94564","Unnamed Road, Winangun, Kec. Bukal, Kabupaten Buol",SULAWESI TENGAH,94564.0,Indonesia,82346259345.0,,,0.9683752,121.4221631,https://maps.google.com/?cid=0x0:0xaf8effbeff3fec8,
supermarket,Kios,Kios Bapak Eva,"2F92+GRP, Modo, Kec. Bukal, Kabupaten Buol, Sulawesi Tengah 94564","Modo, Kec. Bukal, Kabupaten Buol",SULAWESI TENGAH,94564.0,Indonesia,,,,1.0188449,121.4520762,https://maps.google.com/?cid=0x0:0x40175b0cd0824392,
supermarket,Toko bahan makanan,Toko Lilian,"5C5P+CPG, Buol, Kec. Biau, Kabupaten Buol, Sulawesi Tengah 94565","Buol, Kec. Biau, Kabupaten Buol",SULAWESI TENGAH,94565.0,Indonesia,,,,1.1585574,121.4368342,https://maps.google.com/?cid=0x0:0xc00bb0fd193f4e0a,
supermarket,Toko,Toko Gemini,"5C5P+FMQ, Buol, Kec. Biau, Kabupaten Buol, Sulawesi Tengah 94565","Buol, Kec. Biau, Kabupaten Buol",SULAWESI TENGAH,94565.0,Indonesia,,,,1.1587114,121.4367389,https://maps.google.com/?cid=0x0:0xa3f65d1f5e949a1c,
supermarket,Pusat Perbelanjaan,TOKO OM BOBY,"5C6G+6R2, Kali, Kec. Biau, Kabupaten Buol, Sulawesi Tengah 94565","Kali, Kec. Biau, Kabupaten Buol",SULAWESI TENGAH,94565.0,Indonesia,82291153346.0,,,1.1605115,121.4270085,https://maps.google.com/?cid=0x0:0x9fcad7e209f834f0,
supermarket,Toko Pakaian Wanita,Lapak PINK BUOL,"4CR7+V7G, Jl. Trans Sulawesi kompleks lapangan, Pajeko, Kec. Momunu, Kabupaten Buol, Sulawesi Tengah 94565","Jl. Trans Sulawesi kompleks lapangan, Pajeko, Kec. Momunu, Kabupaten Buol",SULAWESI TENGAH,94565.0,Indonesia,82217140355.0,,,1.1421841,121.4132149,https://maps.google.com/?cid=0x0:0x62bc8222a522796d,
supermarket,Toko bahan makanan,Fio Mart,"5C5G+XVH, Jl. Pramuka, Kali, Kec. Biau, Kabupaten Buol, Sulawesi Tengah 94565","Jl. Pramuka, Kali, Kec. Biau, Kabupaten Buol",SULAWESI TENGAH,94565.0,Indonesia,,,,1.1602158,121.4270692,https://maps.google.com/?cid=0x0:0xb9b9a260e35c55aa,
supermarket,Toko bahan makanan,Toko Manggala Jaya,"5C68+CG4, Kali, Kec. Biau, Kabupaten Buol, Sulawesi Tengah 94565","Kali, Kec. Biau, Kabupaten Buol",SULAWESI TENGAH,94565.0,Indonesia,,,,1.161,121.4163387,https://maps.google.com/?cid=0x0:0xfa81dee4f9a3bbbb,
supermarket,Toko,Tk.Sinar Wajo,"5C4P+4VG, Jl. Buol - Gorontalo, Buol, Kec. Biau, Kabupaten Buol, Sulawesi Tengah 94565","Jl. Buol - Gorontalo, Buol, Kec. Biau, Kabupaten Buol",SULAWESI TENGAH,94565.0,Indonesia,,,,1.155315,121.4372007,https://maps.google.com/?cid=0x0:0xb82e96fba645a6a5,
supermarket,Toko bahan makanan,Kios mba siti,"XCCC+JP6, Unnamed Road, Winangun, Kec. Bukal, Kabupaten Buol, Sulawesi Tengah 94564","Unnamed Road, Winangun, Kec. Bukal, Kabupaten Buol",SULAWESI TENGAH,94564.0,Indonesia,,,,0.971534,121.4217735,https://maps.google.com/?cid=0x0:0x75232d3612679de0,
supermarket,Pembangunan Perumahan,Desa doulan,"3GQ2+PV3, Bokat, Kec. Bokat, Kabupaten Buol, Sulawesi Tengah 94564","Bokat, Kec. Bokat, Kabupaten Buol",SULAWESI TENGAH,94564.0,Indonesia,,,,1.0892139,121.5021344,https://maps.google.com/?cid=0x0:0x7df7564aa237da67,
supermarket,Kios,KIOS ANDI POMAYAGON,"4C4G+3F4, Pomayagon, Kec. Momunu, Kabupaten Buol, Sulawesi Tengah 94565","Pomayagon, Kec. Momunu, Kabupaten Buol",SULAWESI TENGAH,94565.0,Indonesia,,,,1.1051387,121.4262049,https://maps.google.com/?cid=0x0:0xa6a95d738ffb7f79,
supermarket,supermarket,Kios ibu boy,"XC9C+69M, Unnamed Road, Winangun, Kec. Bukal, Kabupaten Buol, Sulawesi Tengah 94564","Unnamed Road, Winangun, Kec. Bukal, Kabupaten Buol",SULAWESI TENGAH,94564.0,Indonesia,,,,0.9680778,121.4209222,https://maps.google.com/?cid=0x0:0x7ac8ec790cf5f88d,
supermarket,supermarket,Kios nurul,"3C4Q+8MX, Jalan Trans sulawasi, Unone, Kec. Bukal, Kabupaten Buol, Sulawesi Tengah 94563","Jalan Trans sulawasi, Unone, Kec. Bukal, Kabupaten Buol",SULAWESI TENGAH,94563.0,Indonesia,,,,1.0558582,121.4392327,https://maps.google.com/?cid=0x0:0xe3af6443145321ff,
supermarket,Toko bahan makanan,Cemara mart,"5C99+MG5, Jl. WR Supratman, Leok II, Kec. Biau, Kabupaten Buol, Sulawesi Tengah 94563","Jl. WR Supratman, Leok II, Kec. Biau, Kabupaten Buol",SULAWESI TENGAH,94563.0,Indonesia,82262423025.0,,,1.1691477,121.4188528,https://maps.google.com/?cid=0x0:0xefd831ecbdb3394a,
supermarket,supermarket,"Pinole, California 94564","Pinole, California, Amerika Serikat","Pinole, California, Amerika Serikat",SULAWESI TENGAH,,Indonesia,,,,37.9963136,-122.2937428,https://maps.google.com/?cid=0x0:0xf30a0507dcbf635,
supermarket,Toko bahan makanan,Grocery Outlet,"1460 Fitzgerald Dr, Pinole, CA 94564, Amerika Serikat","Pinole, CA",SULAWESI TENGAH,94564.0,Indonesia,15102233404.0,,,37.9899958,-122.3079653,https://maps.google.com/?cid=0x0:0x5dad91accbdf92b,
supermarket,Pasar Petani,Sprouts Farmers Market,"1300 Pinole Valley Rd, Pinole, CA 94564, Amerika Serikat","Pinole, CA",SULAWESI TENGAH,94564.0,Indonesia,15106408111.0,,,37.9997453,-122.2872259,https://maps.google.com/?cid=0x0:0x975f9f40994d8535,
supermarket,Toko bahan makanan,Foodmaxx,"1370 Fitzgerald Dr, Pinole, CA 94564, Amerika Serikat","Pinole, CA",SULAWESI TENGAH,94564.0,Indonesia,15102438771.0,,,37.986572,-122.31043,https://maps.google.com/?cid=0x0:0xc11f4672d1c2778c,
supermarket,Toko bahan makanan,Trader Joe's,"2742 Pinole Valley Rd, Pinole, CA 94564, Amerika Serikat","Pinole, CA",SULAWESI TENGAH,94564.0,Indonesia,15102223501.0,,,37.9952651,-122.2867436,https://maps.google.com/?cid=0x0:0xcd591cef9dd3837a,
supermarket,Toko,Quick Mart,"1477 Fitzgerald Dr Suite 107, Pinole, CA 94564, Amerika Serikat","Pinole, CA",SULAWESI TENGAH,94564.0,Indonesia,15104172024.0,,,37.9917364,-122.3063668,https://maps.google.com/?cid=0x0:0xa08b90909f21c74c,
supermarket,Toko bahan makanan,San Pablo Supermarket,"2368 El Portal Dr, San Pablo, CA 94806, Amerika Serikat","San Pablo, CA",SULAWESI TENGAH,94806.0,Indonesia,15102150888.0,,,37.9652308,-122.3428453,https://maps.google.com/?cid=0x0:0xf853abbcedf0d555,
supermarket,Pom bensin/SPBU,Smart Stop Food  Gas,"1007 San Pablo Ave, Pinole, CA 94564, Amerika Serikat","Pinole, CA",SULAWESI TENGAH,94564.0,Indonesia,15107248527.0,,,38.0040964,-122.3044463,https://maps.google.com/?cid=0x0:0x1debfdc11a49cc2a,
supermarket,Minimarket,Bonfare Market 13,"14701 San Pablo Ave, San Pablo, CA 94806, Amerika Serikat",San Pablo Ave,SULAWESI TENGAH,14701.0,Indonesia,15102157094.0,,,37.9705255,-122.3440084,https://maps.google.com/?cid=0x0:0x5edf3d236762b30e,
supermarket,Kios,Kios Bapak Eva,"2F92+GRP, Modo, Kec. Bukal, Kabupaten Buol, Sulawesi Tengah 94564","Modo, Kec. Bukal, Kabupaten Buol",SULAWESI TENGAH,94564.0,Indonesia,,,,1.0188449,121.4520762,https://maps.google.com/?cid=0x0:0x40175b0cd0824392,
supermarket,supermarket,Sulawesi Tengah 94566,"Kabupaten Buol, Sulawesi Tengah","Kabupaten Buol, Sulawesi Tengah",SULAWESI TENGAH,,Indonesia,,,,1.0492803,121.5598345,https://maps.google.com/?cid=0x0:0x8a0608e9353e57de,
supermarket,Kios,Kios Kay Modo,"Modo, Kec. Bukal, Kabupaten Buol, Sulawesi Tengah 94566","Kec. Bukal, Kabupaten Buol",SULAWESI TENGAH,94566.0,Indonesia,85182356242.0,,,1.0162351,121.4556841,https://maps.google.com/?cid=0x0:0xc25ca9094a31611,
supermarket,supermarket,"Pleasanton, California 94566","Pleasanton, California, Amerika Serikat","Pleasanton, California, Amerika Serikat",SULAWESI TENGAH,,Indonesia,,,,37.6436199,-121.8676464,https://maps.google.com/?cid=0x0:0x6260ac3da483f984,
supermarket,Toko bahan makanan,Cole's Market,"4277 First St, Pleasanton, CA 94566, Amerika Serikat","Pleasanton, CA",SULAWESI TENGAH,94566.0,Indonesia,19258462121.0,,,37.6623597,-121.871296,https://maps.google.com/?cid=0x0:0x13983ae69115ba09,
supermarket,Toko Daging Premium,The Olive Market,"6455 Owens Dr, Pleasanton, CA 94588, Amerika Serikat","Pleasanton, CA",SULAWESI TENGAH,94588.0,Indonesia,19253996761.0,,,37.6986122,-121.9056628,https://maps.google.com/?cid=0x0:0xcdbf3819fc9123ed,
supermarket,Toko Kelontong India,Turmeric Indian Supermarket,"3992 Summit Rd, Dublin, CA 94568, Amerika Serikat","Dublin, CA",SULAWESI TENGAH,94568.0,Indonesia,19259890526.0,,,37.7045588,-121.8650193,https://maps.google.com/?cid=0x0:0x21762e897f8e01f5,
supermarket,supermarket,Sulawesi Tengah 94563,"Kabupaten Buol, Sulawesi Tengah","Kabupaten Buol, Sulawesi Tengah",SULAWESI TENGAH,,Indonesia,,,,1.2003229,121.3084088,https://maps.google.com/?cid=0x0:0x6c422b6673dca949,
supermarket,Toko Swalayan,SWALAYAN AS SYIFA,"2F92+6MQ, Modo, Kec. Bukal, Kabupaten Buol, Sulawesi Tengah 94564","Modo, Kec. Bukal, Kabupaten Buol",SULAWESI TENGAH,94564.0,Indonesia,,,,1.0182186,121.4516094,https://maps.google.com/?cid=0x0:0x8e250c75bb35d3b,
supermarket,Toko bahan makanan,Cemara mart,"5C99+MG5, Jl. WR Supratman, Leok II, Kec. Biau, Kabupaten Buol, Sulawesi Tengah 94563","Jl. WR Supratman, Leok II, Kec. Biau, Kabupaten Buol",SULAWESI TENGAH,94563.0,Indonesia,82262423025.0,,,1.1691477,121.4188528,https://maps.google.com/?cid=0x0:0xefd831ecbdb3394a,
supermarket,Toko Swalayan,CNC MART,"4CXQ+4QH, Bugis, Kec. Biau, Kabupaten Buol, Sulawesi Tengah 94565","Bugis, Kec. Biau, Kabupaten Buol",SULAWESI TENGAH,94565.0,Indonesia,,,,1.1478072,121.439481,https://maps.google.com/?cid=0x0:0xe779680c49952544,
supermarket,Toko,Toko Gemini,"5C5P+FMQ, Buol, Kec. Biau, Kabupaten Buol, Sulawesi Tengah 94565","Buol, Kec. Biau, Kabupaten Buol",SULAWESI TENGAH,94565.0,Indonesia,,,,1.1587114,121.4367389,https://maps.google.com/?cid=0x0:0xa3f65d1f5e949a1c,
supermarket,Toko,Buana Mart Buol,"Leok II, Kec. Biau, Kabupaten Buol, Sulawesi Tengah 94563","Kec. Biau, Kabupaten Buol",SULAWESI TENGAH,94563.0,Indonesia,,,,1.1719375,121.4214375,https://maps.google.com/?cid=0x0:0xcf4bbac304379a12,
supermarket,Toko bahan makanan,Toko Lilian,"5C5P+CPG, Buol, Kec. Biau, Kabupaten Buol, Sulawesi Tengah 94565","Buol, Kec. Biau, Kabupaten Buol",SULAWESI TENGAH,94565.0,Indonesia,,,,1.1585574,121.4368342,https://maps.google.com/?cid=0x0:0xc00bb0fd193f4e0a,
supermarket,Toko Kelontong Asia,SRC putri,"Leok I, Kec. Biau, Kabupaten Buol, Sulawesi Tengah 94563","Kec. Biau, Kabupaten Buol",SULAWESI TENGAH,94563.0,Indonesia,82293410489.0,,,1.1845045,121.4177019,https://maps.google.com/?cid=0x0:0xadf7681c39f2de6f,
supermarket,Kios,Kios Bapak Eva,"2F92+GRP, Modo, Kec. Bukal, Kabupaten Buol, Sulawesi Tengah 94564","Modo, Kec. Bukal, Kabupaten Buol",SULAWESI TENGAH,94564.0,Indonesia,,,,1.0188449,121.4520762,https://maps.google.com/?cid=0x0:0x40175b0cd0824392,
supermarket,Toko bahan makanan,Fio Mart,"5C5G+XVH, Jl. Pramuka, Kali, Kec. Biau, Kabupaten Buol, Sulawesi Tengah 94565","Jl. Pramuka, Kali, Kec. Biau, Kabupaten Buol",SULAWESI TENGAH,94565.0,Indonesia,,,,1.1602158,121.4270692,https://maps.google.com/?cid=0x0:0xb9b9a260e35c55aa,
supermarket,Toko bahan makanan,Kios Didi,"XC9C+9V3, Unnamed Road, Winangun, Kec. Bukal, Kabupaten Buol, Sulawesi Tengah 94564","Unnamed Road, Winangun, Kec. Bukal, Kabupaten Buol",SULAWESI TENGAH,94564.0,Indonesia,82346259345.0,,,0.9683752,121.4221631,https://maps.google.com/?cid=0x0:0xaf8effbeff3fec8,
supermarket,Toko bahan makanan,Toko Manggala Jaya,"5C68+CG4, Kali, Kec. Biau, Kabupaten Buol, Sulawesi Tengah 94565","Kali, Kec. Biau, Kabupaten Buol",SULAWESI TENGAH,94565.0,Indonesia,,,,1.161,121.4163387,https://maps.google.com/?cid=0x0:0xfa81dee4f9a3bbbb,
supermarket,Pusat Perbelanjaan,TOKO OM BOBY,"5C6G+6R2, Kali, Kec. Biau, Kabupaten Buol, Sulawesi Tengah 94565","Kali, Kec. Biau, Kabupaten Buol",SULAWESI TENGAH,94565.0,Indonesia,82291153346.0,,,1.1605115,121.4270085,https://maps.google.com/?cid=0x0:0x9fcad7e209f834f0,
supermarket,Kios,Kios Rahma,"5CQ9+7FP, Jl. N A Ain, Leok I, Kec. Biau, Kabupaten Buol, Sulawesi Tengah 94563","Jl. N A Ain, Leok I, Kec. Biau, Kabupaten Buol",SULAWESI TENGAH,94563.0,Indonesia,81354505520.0,,,1.1882196,121.4186996,https://maps.google.com/?cid=0x0:0xd9f89ae45010bd7f,
supermarket,Toko Pakaian Wanita,Lapak PINK BUOL,"4CR7+V7G, Jl. Trans Sulawesi kompleks lapangan, Pajeko, Kec. Momunu, Kabupaten Buol, Sulawesi Tengah 94565","Jl. Trans Sulawesi kompleks lapangan, Pajeko, Kec. Momunu, Kabupaten Buol",SULAWESI TENGAH,94565.0,Indonesia,82217140355.0,,,1.1421841,121.4132149,https://maps.google.com/?cid=0x0:0x62bc8222a522796d,
supermarket,Toko,Tk.Sinar Wajo,"5C4P+4VG, Jl. Buol - Gorontalo, Buol, Kec. Biau, Kabupaten Buol, Sulawesi Tengah 94565","Jl. Buol - Gorontalo, Buol, Kec. Biau, Kabupaten Buol",SULAWESI TENGAH,94565.0,Indonesia,,,,1.155315,121.4372007,https://maps.google.com/?cid=0x0:0xb82e96fba645a6a5,
supermarket,supermarket,Alfamidi MA Turungku,"5C68+FPR, Jl. M.A Turungku, Kali, Kec. Biau, Kabupaten Buol, Sulawesi Tengah 94565","Jl. M.A Turungku, Kali, Kec. Biau, Kabupaten Buol",SULAWESI TENGAH,94565.0,Indonesia,,,,1.1613042,121.4169063,https://maps.google.com/?cid=0x0:0xad543b8aa45ddc36,
supermarket,supermarket,Adiedo ( toko Sembako),"5C4P+PXJ, Buol, Kec. Biau, Kabupaten Buol, Sulawesi Tengah 94565","Buol, Kec. Biau, Kabupaten Buol",SULAWESI TENGAH,94565.0,Indonesia,,,,1.1569274,121.4372753,https://maps.google.com/?cid=0x0:0x378b0e26a3c19270,
supermarket,supermarket,Kios Nurfa,"3CHV+54P, Unnamed Road, Biau, Kec. Bukal, Kabupaten Buol, Sulawesi Tengah 94563","Unnamed Road, Biau, Kec. Bukal, Kabupaten Buol",SULAWESI TENGAH,94563.0,Indonesia,,,,1.0779704,121.4428258,https://maps.google.com/?cid=0x0:0xe84055adf82b6651,
supermarket,Toko,Ghalya Shop,"kompleks masjid agung, Leok II, Kec. Biau, Kabupaten Buol, Sulawesi Tengah 94563","Leok II, Kec. Biau, Kabupaten Buol",SULAWESI TENGAH,94563.0,Indonesia,,,,1.1697799,121.4255744,https://maps.google.com/?cid=0x0:0xe1e3aa4e03b107ec,
supermarket,Toko Swalayan,GrandLucky - Radio Dalam,"Jl. Radio Dalam Raya No.9, RT.4/RW.4, Gandaria Utara, Kec. Kby. Baru, Kota Jakarta Selatan, Daerah Khusus Ibukota Jakarta 12140","RT.4/RW.4, Gandaria Utara, Kec. Kby. Baru, Kota Jakarta Selatan",SULAWESI TENGAH,12140.0,Indonesia,217398368.0,,,-6.2538402,106.7907062,https://maps.google.com/?cid=0x0:0x3a6b61772e479f77,
supermarket,Toko Swalayan,GrandLucky - SCBD,"Kawasan Niaga Terpadu Sudirman (SCBD, Jl. Jenderal Sudirman LOT-12, Senayan, Kec. Kby. Baru, Kota Jakarta Selatan, Daerah Khusus Ibukota Jakarta 12190","Jl. Jenderal Sudirman LOT-12, Senayan, Kec. Kby. Baru, Kota Jakarta Selatan",SULAWESI TENGAH,12190.0,Indonesia,215153832.0,,,-6.22691,106.8059153,https://maps.google.com/?cid=0x0:0x4efcd0d8d64cad53,
supermarket,Restoran,Bagoja,"GrandLucky - SCBD, Senayan, Kec. Kby. Baru, Kota Jakarta Selatan, Daerah Khusus Ibukota Jakarta","Kota Jakarta Selatan, Daerah Khusus Ibukota Jakarta",SULAWESI TENGAH,,Indonesia,,,,-6.2267991,106.8059056,https://maps.google.com/?cid=0x0:0xe6bf64788dc00bbc,
supermarket,supermarket,Sulawesi Tengah 94564,"Kec. Bukal, Kabupaten Buol, Sulawesi Tengah","Kabupaten Buol, Sulawesi Tengah",SULAWESI TENGAH,,Indonesia,,,,0.9524639,121.422761,https://maps.google.com/?cid=0x0:0x4fb25c099e08028b,
supermarket,Toko Swalayan,SWALAYAN AS SYIFA,"2F92+6MQ, Modo, Kec. Bukal, Kabupaten Buol, Sulawesi Tengah 94564","Modo, Kec. Bukal, Kabupaten Buol",SULAWESI TENGAH,94564.0,Indonesia,,,,1.0182186,121.4516094,https://maps.google.com/?cid=0x0:0x8e250c75bb35d3b,
supermarket,Toko bahan makanan,Kios Didi,"XC9C+9V3, Unnamed Road, Winangun, Kec. Bukal, Kabupaten Buol, Sulawesi Tengah 94564","Unnamed Road, Winangun, Kec. Bukal, Kabupaten Buol",SULAWESI TENGAH,94564.0,Indonesia,82346259345.0,,,0.9683752,121.4221631,https://maps.google.com/?cid=0x0:0xaf8effbeff3fec8,
supermarket,Toko Swalayan,CNC MART,"4CXQ+4QH, Bugis, Kec. Biau, Kabupaten Buol, Sulawesi Tengah 94565","Bugis, Kec. Biau, Kabupaten Buol",SULAWESI TENGAH,94565.0,Indonesia,,,,1.1478072,121.439481,https://maps.google.com/?cid=0x0:0xe779680c49952544,
supermarket,supermarket,Kios nurul,"3C4Q+8MX, Jalan Trans sulawasi, Unone, Kec. Bukal, Kabupaten Buol, Sulawesi Tengah 94563","Jalan Trans sulawasi, Unone, Kec. Bukal, Kabupaten Buol",SULAWESI TENGAH,94563.0,Indonesia,,,,1.0558582,121.4392327,https://maps.google.com/?cid=0x0:0xe3af6443145321ff,
supermarket,supermarket,Kios ibu boy,"XC9C+69M, Unnamed Road, Winangun, Kec. Bukal, Kabupaten Buol, Sulawesi Tengah 94564","Unnamed Road, Winangun, Kec. Bukal, Kabupaten Buol",SULAWESI TENGAH,94564.0,Indonesia,,,,0.9680778,121.4209222,https://maps.google.com/?cid=0x0:0x7ac8ec790cf5f88d,
supermarket,Toko Swalayan,GrandLucky - SCBD,"Kawasan Niaga Terpadu Sudirman (SCBD, Jl. Jenderal Sudirman LOT-12, Senayan, Kec. Kby. Baru, Kota Jakarta Selatan, Daerah Khusus Ibukota Jakarta 12190","Jl. Jenderal Sudirman LOT-12, Senayan, Kec. Kby. Baru, Kota Jakarta Selatan",SULAWESI TENGAH,12190.0,Indonesia,215153832.0,,,-6.22691,106.8059153,https://maps.google.com/?cid=0x0:0x4efcd0d8d64cad53,
supermarket,Toko bahan makanan,Kios mba siti,"XCCC+JP6, Unnamed Road, Winangun, Kec. Bukal, Kabupaten Buol, Sulawesi Tengah 94564","Unnamed Road, Winangun, Kec. Bukal, Kabupaten Buol",SULAWESI TENGAH,94564.0,Indonesia,,,,0.971534,121.4217735,https://maps.google.com/?cid=0x0:0x75232d3612679de0,
supermarket,Toko Swalayan,GrandLucky - Radio Dalam,"Jl. Radio Dalam Raya No.9, RT.4/RW.4, Gandaria Utara, Kec. Kby. Baru, Kota Jakarta Selatan, Daerah Khusus Ibukota Jakarta 12140","RT.4/RW.4, Gandaria Utara, Kec. Kby. Baru, Kota Jakarta Selatan",SULAWESI TENGAH,12140.0,Indonesia,217398368.0,,,-6.2538402,106.7907062,https://maps.google.com/?cid=0x0:0x3a6b61772e479f77,
supermarket,Restoran,Bagoja,"GrandLucky - SCBD, Senayan, Kec. Kby. Baru, Kota Jakarta Selatan, Daerah Khusus Ibukota Jakarta","Kota Jakarta Selatan, Daerah Khusus Ibukota Jakarta",SULAWESI TENGAH,,Indonesia,,,,-6.2267991,106.8059056,https://maps.google.com/?cid=0x0:0xe6bf64788dc00bbc,
supermarket,supermarket,Sulawesi Tengah 94567,"Kabupaten Buol, Sulawesi Tengah","Kabupaten Buol, Sulawesi Tengah",SULAWESI TENGAH,,Indonesia,,,,0.982812,121.6511258,https://maps.google.com/?cid=0x0:0x7248d1de2d14beff,
supermarket,supermarket,Desa Bunobogu,"2JQ8+7W, Bunobogu, Kec. Bunobogu, Kabupaten Buol, Sulawesi Tengah","Kabupaten Buol, Sulawesi Tengah",SULAWESI TENGAH,,Indonesia,,,,1.038238,121.617285,https://maps.google.com/?cid=0x0:0xef06f91158d26b9,
supermarket,Komplek perumahan,Pasar kecamatan bunobogu,"2JP3+R7F, Domag Mekar, Kec. Bunobogu, Kabupaten Buol, Sulawesi Tengah 94566","Domag Mekar, Kec. Bunobogu, Kabupaten Buol",SULAWESI TENGAH,94566.0,Indonesia,,,,1.0370507,121.6031683,https://maps.google.com/?cid=0x0:0x380f473e5a757fd5,
supermarket,Kios,Kios Bapak Eva,"2F92+GRP, Modo, Kec. Bukal, Kabupaten Buol, Sulawesi Tengah 94564","Modo, Kec. Bukal, Kabupaten Buol",SULAWESI TENGAH,94564.0,Indonesia,,,,1.0188449,121.4520762,https://maps.google.com/?cid=0x0:0x40175b0cd0824392,
supermarket,Perhimpunan Pengembang Perumahan,Desa lonu,"Bunobogu, Kec. Bunobogu, Kabupaten Buol, Sulawesi Tengah","Kabupaten Buol, Sulawesi Tengah",SULAWESI TENGAH,,Indonesia,,,,1.0398186,121.6120464,https://maps.google.com/?cid=0x0:0x9a86c457f9677ee4,
supermarket,Sekolah Dasar,SD NEGERI 1 BUNOBOGU,"2JHX+9HJ, Inalatan, Kec. Bunobogu, Kabupaten Buol, Sulawesi Tengah","Kabupaten Buol, Sulawesi Tengah",SULAWESI TENGAH,,Indonesia,,,,1.0284539,121.6488953,https://maps.google.com/?cid=0x0:0xe1f31c32f774e331,
supermarket,supermarket,Lokodidi Square,"3M45+4G8, Lokodidi, Kec. Gadung, Kabupaten Buol, Sulawesi Tengah 94567","Lokodidi, Kec. Gadung, Kabupaten Buol",SULAWESI TENGAH,94567.0,Indonesia,,,,1.0552896,121.6588358,https://maps.google.com/?cid=0x0:0xa9e05c07b9c83291,
supermarket,supermarket,Penjual Ayam Potong Barokah Desa Konamukan,"3J39+VWR, Konamukan, Kec. Bunobogu, Kabupaten Buol, Sulawesi Tengah","Kabupaten Buol, Sulawesi Tengah",SULAWESI TENGAH,,Indonesia,,,,1.0544468,121.6195138,https://maps.google.com/?cid=0x0:0xb998f4b128b46d3c,
supermarket,supermarket,Indomaret,"Domag Mekar, Kec. Bunobogu, Kabupaten Buol, Sulawesi Tengah","Kabupaten Buol, Sulawesi Tengah",SULAWESI TENGAH,,Indonesia,,,,1.0381165,121.6119751,https://maps.google.com/?cid=0x0:0x4695c74c1bd638f8,
supermarket,Toko Swalayan,SWALAYAN AS SYIFA,"2F92+6MQ, Modo, Kec. Bukal, Kabupaten Buol, Sulawesi Tengah 94564","Modo, Kec. Bukal, Kabupaten Buol",SULAWESI TENGAH,94564.0,Indonesia,,,,1.0182186,121.4516094,https://maps.google.com/?cid=0x0:0x8e250c75bb35d3b,
supermarket,Kios,KIOS Rizkia,"2HW7+V3G, Tayadun, Kec. Bokat, Kabupaten Buol, Sulawesi Tengah 94566","Tayadun, Kec. Bokat, Kabupaten Buol",SULAWESI TENGAH,94566.0,Indonesia,,,,1.0471994,121.5626885,https://maps.google.com/?cid=0x0:0x2ab9dad449fe21d9,
supermarket,supermarket,KIOS ADIBA,"Matinan, Kec. Gadung, Kabupaten Buol, Sulawesi Tengah","Kabupaten Buol, Sulawesi Tengah",SULAWESI TENGAH,,Indonesia,,,,1.0576885,121.6817877,https://maps.google.com/?cid=0x0:0xd2bc7b1c914f4559,
supermarket,Kios,Kios A2,"3H38+J3G, Tayadun, Kec. Bokat, Kabupaten Buol, Sulawesi Tengah 94566","Tayadun, Kec. Bokat, Kabupaten Buol",SULAWESI TENGAH,94566.0,Indonesia,,,,1.0540544,121.5651976,https://maps.google.com/?cid=0x0:0x33307f2f8ae41362,
supermarket,Toko bahan makanan,TOKO INDRAWAN,"3H72+FWC, Jl. Buol - Gorontalo, Bukamog, Kec. Bokat, Kabupaten Buol, Sulawesi Tengah 94566","Jl. Buol - Gorontalo, Bukamog, Kec. Bokat, Kabupaten Buol",SULAWESI TENGAH,94566.0,Indonesia,,,,1.0636889,121.5522757,https://maps.google.com/?cid=0x0:0x52df6e5041ecb5d6,
supermarket,Toko bahan makanan,Kios nazri,"2GG4+Q7, Langudon, Kec. Bokat, Kabupaten Buol, Sulawesi Tengah","Kabupaten Buol, Sulawesi Tengah",SULAWESI TENGAH,,Indonesia,,,,1.0269809,121.5056489,https://maps.google.com/?cid=0x0:0x59f53ab0f4c336fd,
supermarket,supermarket,TOKO LISDAWATI,"Lokodidi, Kec. Gadung, Kabupaten Buol, Sulawesi Tengah","Kabupaten Buol, Sulawesi Tengah",SULAWESI TENGAH,,Indonesia,,,,1.0568993,121.6628055,https://maps.google.com/?cid=0x0:0x299e28019d959b16,
supermarket,supermarket,Kios Fatmisya,"Bunobogu, Kec. Bunobogu, Kabupaten Buol, Sulawesi Tengah","Kabupaten Buol, Sulawesi Tengah",SULAWESI TENGAH,,Indonesia,,,,1.0365537,121.6115536,https://maps.google.com/?cid=0x0:0xde53ee091ae7eb6d,
supermarket,Kios,Kios pak dane,"2F7V+PJP, Duwamayo, Kec. Bokat, Kabupaten Buol, Sulawesi Tengah","Kabupaten Buol, Sulawesi Tengah",SULAWESI TENGAH,,Indonesia,,,,1.014334,121.4940899,https://maps.google.com/?cid=0x0:0xc2eb82ab3b0f6643,
supermarket,Toko bahan makanan,Kios mama Reno,"2F74+HC5, Jl. Poros, Modo, Kec. Bukal, Kabupaten Buol, Sulawesi Tengah 94564","Jl. Poros, Modo, Kec. Bukal, Kabupaten Buol",SULAWESI TENGAH,94564.0,Indonesia,,,,1.0138932,121.4560947,https://maps.google.com/?cid=0x0:0x170e6bb4137f7f8f,
supermarket,supermarket,Lokodidi Square,"3M45+4G8, Lokodidi, Kec. Gadung, Kabupaten Buol, Sulawesi Tengah 94567","Lokodidi, Kec. Gadung, Kabupaten Buol",SULAWESI TENGAH,94567.0,Indonesia,,,,1.0552896,121.6588358,https://maps.google.com/?cid=0x0:0xa9e05c07b9c83291,
supermarket,supermarket,Kec. Gadung,"Kabupaten Buol, Sulawesi Tengah","Kabupaten Buol, Sulawesi Tengah",SULAWESI TENGAH,,Indonesia,,,,1.0609393,121.6812519,https://maps.google.com/?cid=0x0:0xdbf62320131c7b7d,
supermarket,supermarket,MN. Swalayan,"5C6J+FQF, Jl. M.A Turungku, Kali, Kec. Biau, Kabupaten Buol, Sulawesi Tengah 94563","Jl. M.A Turungku, Kali, Kec. Biau, Kabupaten Buol",SULAWESI TENGAH,94563.0,Indonesia,,,,1.161198,121.4319356,https://maps.google.com/?cid=0x0:0x6348936988645d12,
supermarket,Toko Swalayan,SWALAYAN AS SYIFA,"2F92+6MQ, Modo, Kec. Bukal, Kabupaten Buol, Sulawesi Tengah 94564","Modo, Kec. Bukal, Kabupaten Buol",SULAWESI TENGAH,94564.0,Indonesia,,,,1.0182186,121.4516094,https://maps.google.com/?cid=0x0:0x8e250c75bb35d3b,
supermarket,Toko bahan makanan,Toko Dani,"Gg. Pori V No.6, RT.8/RW.12, Pisangan Tim., Kec. Pulo Gadung, Kota Jakarta Timur, Daerah Khusus Ibukota Jakarta 13230","RT.8/RW.12, Pisangan Tim., Kec. Pulo Gadung, Kota Jakarta Timur",SULAWESI TENGAH,13230.0,Indonesia,,,,-6.2097218,106.8811863,https://maps.google.com/?cid=0x0:0x9a83b489248d86aa,
supermarket,Pasar tradisional,Pasar Pulogadung,"Jl. Raya Bekasi No.Km.19, RT.1/RW.6, Jatinegara Kaum, Kec. Pulo Gadung, Kota Jakarta Timur, Daerah Khusus Ibukota Jakarta 13250","RT.1/RW.6, Jatinegara Kaum, Kec. Pulo Gadung, Kota Jakarta Timur",SULAWESI TENGAH,13250.0,Indonesia,214711975.0,,,-6.1868548,106.9054914,https://maps.google.com/?cid=0x0:0x323aa53e5df27311,
supermarket,Toko bahan makanan,Toko Maimun,"QVWC+C89, Jl. Kramat Asem, RT.7/RW.5, Utan Kayu Sel., Kec. Matraman, Kota Jakarta Timur, Daerah Khusus Ibukota Jakarta 13120","Jl. Kramat Asem, RT.7/RW.5, Utan Kayu Sel., Kec. Matraman, Kota Jakarta Timur",SULAWESI TENGAH,13120.0,Indonesia,,,,-6.2039625,106.8708464,https://maps.google.com/?cid=0x0:0xe147de5d97863e71,
supermarket,supermarket,Kec. Karamat,"Kabupaten Buol, Sulawesi Tengah","Kabupaten Buol, Sulawesi Tengah",SULAWESI TENGAH,,Indonesia,,,,1.2531523,121.4084928,https://maps.google.com/?cid=0x0:0x53d7a701bb80e29f,
supermarket,Pusat Perbelanjaan,Swalayan Amar Kabonena,"4R4P+6CH, Jl. Munif Rahman, Kabonena, Kec. Palu Bar., Kota Palu, Sulawesi Tengah 94111","Jl. Munif Rahman, Kabonena, Kec. Palu Bar., Kota Palu",SULAWESI TENGAH,94111.0,Indonesia,,,,-0.8944487,119.8360948,https://maps.google.com/?cid=0x0:0xda93496757ced3c,
supermarket,Toko umum,TOKO FADEL,"7C35+5FW, Jl. Buol - Tolitoli, Mokupo, Kec. Karamat, Kabupaten Buol, Sulawesi Tengah 94563","Jl. Buol - Tolitoli, Mokupo, Kec. Karamat, Kabupaten Buol",SULAWESI TENGAH,94563.0,Indonesia,82292825726.0,,,1.2529792,121.4087048,https://maps.google.com/?cid=0x0:0x510262d886e39f45,
supermarket,Toko Pakaian,A' Three Mart,"4V6Q+4MV, Jl. Lagarutu, Talise, Kec. Mantikulore, Kota Palu, Sulawesi Tengah 94118","Jl. Lagarutu, Talise, Kec. Mantikulore, Kota Palu",SULAWESI TENGAH,94118.0,Indonesia,,,,-0.8896435,119.8891619,https://maps.google.com/?cid=0x0:0x23eee71a5126a463,
supermarket,Toko bahan makanan,Cemara mart,"5C99+MG5, Jl. WR Supratman, Leok II, Kec. Biau, Kabupaten Buol, Sulawesi Tengah 94563","Jl. WR Supratman, Leok II, Kec. Biau, Kabupaten Buol",SULAWESI TENGAH,94563.0,Indonesia,82262423025.0,,,1.1691477,121.4188528,https://maps.google.com/?cid=0x0:0xefd831ecbdb3394a,
supermarket,Toko Swalayan,Swalayan Fitrah,"3VCW+JGM, Jl. Dewi Sartika, Birobuli Sel., Kec. Palu Sel., Kota Palu, Sulawesi Tengah 94235","Jl. Dewi Sartika, Birobuli Sel., Kec. Palu Sel., Kota Palu",SULAWESI TENGAH,94235.0,Indonesia,88896885977.0,,,-0.9284144,119.896285,https://maps.google.com/?cid=0x0:0x58b75f29b110197f,
supermarket,Pusat Perbelanjaan,Hypermart Palu Grand Mall,"Jl. Diponegoro No.8A, Lere, Kec. Palu Bar., Kota Palu, Sulawesi Tengah 94221","Lere, Kec. Palu Bar., Kota Palu",SULAWESI TENGAH,94221.0,Indonesia,81312097422.0,,,-0.8837991,119.8423758,https://maps.google.com/?cid=0x0:0x9567cc1a06bb61e4,
supermarket,Toko Swalayan,Grand Hero Swalayan,"Jl. Jenderal Basuki Rahmat No.31, Tatura Sel., Kec. Palu Sel., Kota Palu, Sulawesi Tengah 94111","Tatura Sel., Kec. Palu Sel., Kota Palu",SULAWESI TENGAH,94111.0,Indonesia,451481451.0,,,-0.9187004,119.8796472,https://maps.google.com/?cid=0x0:0xb9406a15fa1dd6dc,
supermarket,Toko bahan makanan,Swalayan Al-Khairaat,"3VR4+J5P, Bar, Boyaoge, Kec. Palu Bar., Kota Palu, Sulawesi Tengah 94111","Bar, Boyaoge, Kec. Palu Bar., Kota Palu",SULAWESI TENGAH,94111.0,Indonesia,,,,-0.9084131,119.8554457,https://maps.google.com/?cid=0x0:0x731c8d2f3dff9bba,
supermarket,Restoran,MOUZA SUPERMART,"5V2J+8XX, Tondo, Kec. Mantikulore, Kota Palu, Sulawesi Tengah 94115","Tondo, Kec. Mantikulore, Kota Palu",SULAWESI TENGAH,94115.0,Indonesia,,,,-0.8491459,119.8824698,https://maps.google.com/?cid=0x0:0xf998cdfd03a27695,
supermarket,Kios,Toko Kita,"Tondo, Kec. Palu Tim., Kota Palu, Sulawesi Tengah","Kota Palu, Sulawesi Tengah",SULAWESI TENGAH,,Indonesia,81354666803.0,,,-0.833055,119.8861405,https://maps.google.com/?cid=0x0:0x6ee4d07a5263148b,
supermarket,Toko Swalayan,Fatima,"3VW4+937, Jl. Sukun, Kamonji, Kec. Palu Bar., Kota Palu, Sulawesi Tengah 94111","Jl. Sukun, Kamonji, Kec. Palu Bar., Kota Palu",SULAWESI TENGAH,94111.0,Indonesia,,,,-0.904081,119.8551776,https://maps.google.com/?cid=0x0:0x1ad303a877ab9148,
supermarket,Minimarket,AnsaLapak,"Busak I, Kec. Karamat, Kabupaten Buol, Sulawesi Tengah","Kabupaten Buol, Sulawesi Tengah",SULAWESI TENGAH,,Indonesia,,,,1.2452389,121.3586494,https://maps.google.com/?cid=0x0:0xe64b0968a77c5b93,
supermarket,Toko Swalayan,All swalayan,"3VH6+235, Jl. I Gusti Ngurah Rai, Palupi, Kec. Palu Sel., Kota Palu, Sulawesi Tengah 94222","Jl. I Gusti Ngurah Rai, Palupi, Kec. Palu Sel., Kota Palu",SULAWESI TENGAH,94222.0,Indonesia,,,,-0.9224784,119.8602189,https://maps.google.com/?cid=0x0:0xd5b5f4f7e4c15d65,
supermarket,Kios,Kios Rahma,"5CQ9+7FP, Jl. N A Ain, Leok I, Kec. Biau, Kabupaten Buol, Sulawesi Tengah 94563","Jl. N A Ain, Leok I, Kec. Biau, Kabupaten Buol",SULAWESI TENGAH,94563.0,Indonesia,81354505520.0,,,1.1882196,121.4186996,https://maps.google.com/?cid=0x0:0xd9f89ae45010bd7f,
supermarket,Toko,Buana Mart Buol,"Leok II, Kec. Biau, Kabupaten Buol, Sulawesi Tengah 94563","Kec. Biau, Kabupaten Buol",SULAWESI TENGAH,94563.0,Indonesia,,,,1.1719375,121.4214375,https://maps.google.com/?cid=0x0:0xcf4bbac304379a12,
supermarket,Toko bahan makanan,Diamond,"Jl. Permata Artha Gading No.18, RT.18/RW.8, Klp. Gading Bar., Kec. Klp. Gading, Jkt Utara, Daerah Khusus Ibukota Jakarta 14240","RT.18/RW.8, Klp. Gading Bar., Kec. Klp. Gading, Jkt Utara",SULAWESI TENGAH,14240.0,Indonesia,2145863828.0,,,-6.1464444,106.8922506,https://maps.google.com/?cid=0x0:0x1b41fb935cae0e30,
supermarket,Toko Swalayan,Diamond Fair Jakarta (Ancol),"Jl. Pasir Putih Raya No.Kav.1, RW.10, Ancol, Kec. Pademangan, Jkt Utara, Daerah Khusus Ibukota Jakarta 14430","RW.10, Ancol, Kec. Pademangan, Jkt Utara",SULAWESI TENGAH,14430.0,Indonesia,,,,-6.124504,106.8545029,https://maps.google.com/?cid=0x0:0xef5e96be9245402d,
supermarket,supermarket,Kec. Biau,"Kabupaten Buol, Sulawesi Tengah","Kabupaten Buol, Sulawesi Tengah",SULAWESI TENGAH,,Indonesia,,,,1.1708694,121.4215795,https://maps.google.com/?cid=0x0:0xaaa5fc4d0bdde54c,
supermarket,Toko bahan makanan,Cemara mart,"5C99+MG5, Jl. WR Supratman, Leok II, Kec. Biau, Kabupaten Buol, Sulawesi Tengah 94563","Jl. WR Supratman, Leok II, Kec. Biau, Kabupaten Buol",SULAWESI TENGAH,94563.0,Indonesia,82262423025.0,,,1.1691477,121.4188528,https://maps.google.com/?cid=0x0:0xefd831ecbdb3394a,
supermarket,Toko Swalayan,Fillia Mart,"5CHF+R69, Leok II, Kec. Biau, Kabupaten Buol, Sulawesi Tengah 94563","Leok II, Kec. Biau, Kabupaten Buol",SULAWESI TENGAH,94563.0,Indonesia,,,,1.1795345,121.4231107,https://maps.google.com/?cid=0x0:0xba8b67402cfa3356,
supermarket,Toko bahan makanan,Toko Lilian,"5C5P+CPG, Buol, Kec. Biau, Kabupaten Buol, Sulawesi Tengah 94565","Buol, Kec. Biau, Kabupaten Buol",SULAWESI TENGAH,94565.0,Indonesia,,,,1.1585574,121.4368342,https://maps.google.com/?cid=0x0:0xc00bb0fd193f4e0a,
supermarket,Toko bahan makanan,Rumah walet Rafisqi Lamase,"5CG9+4C7, Jl. Diponegoro, Leok II, Kec. Biau, Kabupaten Buol, Sulawesi Tengah 94563","Jl. Diponegoro, Leok II, Kec. Biau, Kabupaten Buol",SULAWESI TENGAH,94563.0,Indonesia,81243512365.0,,,1.175284,121.4185418,https://maps.google.com/?cid=0x0:0xb4a71f09928cd9,
supermarket,Toko Swalayan,CNC MART,"4CXQ+4QH, Bugis, Kec. Biau, Kabupaten Buol, Sulawesi Tengah 94565","Bugis, Kec. Biau, Kabupaten Buol",SULAWESI TENGAH,94565.0,Indonesia,,,,1.1478072,121.439481,https://maps.google.com/?cid=0x0:0xe779680c49952544,
supermarket,Toko Kelontong Asia,SRC putri,"Leok I, Kec. Biau, Kabupaten Buol, Sulawesi Tengah 94563","Kec. Biau, Kabupaten Buol",SULAWESI TENGAH,94563.0,Indonesia,82293410489.0,,,1.1845045,121.4177019,https://maps.google.com/?cid=0x0:0xadf7681c39f2de6f,
supermarket,Minimarket,Kios Rahfi,"5C9G+WC4, Leok II, Kec. Biau, Kabupaten Buol, Sulawesi Tengah 94563","Leok II, Kec. Biau, Kabupaten Buol",SULAWESI TENGAH,94563.0,Indonesia,,,,1.1697664,121.4260781,https://maps.google.com/?cid=0x0:0x10767dd4657d0640,
supermarket,Toko Elektronik,Toko 87,"5C5P+FGW, Buol, Kec. Biau, Kabupaten Buol, Sulawesi Tengah 94565","Buol, Kec. Biau, Kabupaten Buol",SULAWESI TENGAH,94565.0,Indonesia,,,,1.158725,121.4363128,https://maps.google.com/?cid=0x0:0xa7d5071b40cec3be,
supermarket,Toko,Buana Mart Buol,"Leok II, Kec. Biau, Kabupaten Buol, Sulawesi Tengah 94563","Kec. Biau, Kabupaten Buol",SULAWESI TENGAH,94563.0,Indonesia,,,,1.1719375,121.4214375,https://maps.google.com/?cid=0x0:0xcf4bbac304379a12,
supermarket,Toko,Toko Gemini,"5C5P+FMQ, Buol, Kec. Biau, Kabupaten Buol, Sulawesi Tengah 94565","Buol, Kec. Biau, Kabupaten Buol",SULAWESI TENGAH,94565.0,Indonesia,,,,1.1587114,121.4367389,https://maps.google.com/?cid=0x0:0xa3f65d1f5e949a1c,
supermarket,Pasar,Pasar Lakea 1,"66MM+XPV, Lakea 1, Kec. Lakea, Kabupaten Buol, Sulawesi Tengah 94563","Lakea 1, Kec. Lakea, Kabupaten Buol",SULAWESI TENGAH,94563.0,Indonesia,,,,1.2349964,121.2342908,https://maps.google.com/?cid=0x0:0x295e3df26e6079d1,
supermarket,Pusat Perbelanjaan,TOKO OM BOBY,"5C6G+6R2, Kali, Kec. Biau, Kabupaten Buol, Sulawesi Tengah 94565","Kali, Kec. Biau, Kabupaten Buol",SULAWESI TENGAH,94565.0,Indonesia,82291153346.0,,,1.1605115,121.4270085,https://maps.google.com/?cid=0x0:0x9fcad7e209f834f0,
supermarket,Kios,Kios Rahma,"5CQ9+7FP, Jl. N A Ain, Leok I, Kec. Biau, Kabupaten Buol, Sulawesi Tengah 94563","Jl. N A Ain, Leok I, Kec. Biau, Kabupaten Buol",SULAWESI TENGAH,94563.0,Indonesia,81354505520.0,,,1.1882196,121.4186996,https://maps.google.com/?cid=0x0:0xd9f89ae45010bd7f,
supermarket,Toko,Tk.Sinar Wajo,"5C4P+4VG, Jl. Buol - Gorontalo, Buol, Kec. Biau, Kabupaten Buol, Sulawesi Tengah 94565","Jl. Buol - Gorontalo, Buol, Kec. Biau, Kabupaten Buol",SULAWESI TENGAH,94565.0,Indonesia,,,,1.155315,121.4372007,https://maps.google.com/?cid=0x0:0xb82e96fba645a6a5,
supermarket,Toko bahan makanan,Toko Manggala Jaya,"5C68+CG4, Kali, Kec. Biau, Kabupaten Buol, Sulawesi Tengah 94565","Kali, Kec. Biau, Kabupaten Buol",SULAWESI TENGAH,94565.0,Indonesia,,,,1.161,121.4163387,https://maps.google.com/?cid=0x0:0xfa81dee4f9a3bbbb,
supermarket,Toko umum,TOKO FADEL,"7C35+5FW, Jl. Buol - Tolitoli, Mokupo, Kec. Karamat, Kabupaten Buol, Sulawesi Tengah 94563","Jl. Buol - Tolitoli, Mokupo, Kec. Karamat, Kabupaten Buol",SULAWESI TENGAH,94563.0,Indonesia,82292825726.0,,,1.2529792,121.4087048,https://maps.google.com/?cid=0x0:0x510262d886e39f45,
supermarket,Otoritas Pelabuhan,PPI Kumaligon,"6CP7+JF8, Kumaligon, Kec. Biau, Kabupaten Buol, Sulawesi Tengah 94563","Kumaligon, Kec. Biau, Kabupaten Buol",SULAWESI TENGAH,94563.0,Indonesia,,,,1.2365402,121.413714,https://maps.google.com/?cid=0x0:0x72d9e3db018e0478,
supermarket,Toko Pakaian Wanita,Lapak PINK BUOL,"4CR7+V7G, Jl. Trans Sulawesi kompleks lapangan, Pajeko, Kec. Momunu, Kabupaten Buol, Sulawesi Tengah 94565","Jl. Trans Sulawesi kompleks lapangan, Pajeko, Kec. Momunu, Kabupaten Buol",SULAWESI TENGAH,94565.0,Indonesia,82217140355.0,,,1.1421841,121.4132149,https://maps.google.com/?cid=0x0:0x62bc8222a522796d,
supermarket,supermarket,Adiedo ( toko Sembako),"5C4P+PXJ, Buol, Kec. Biau, Kabupaten Buol, Sulawesi Tengah 94565","Buol, Kec. Biau, Kabupaten Buol",SULAWESI TENGAH,94565.0,Indonesia,,,,1.1569274,121.4372753,https://maps.google.com/?cid=0x0:0x378b0e26a3c19270,
supermarket,Toko,Ghalya Shop,"kompleks masjid agung, Leok II, Kec. Biau, Kabupaten Buol, Sulawesi Tengah 94563","Leok II, Kec. Biau, Kabupaten Buol",SULAWESI TENGAH,94563.0,Indonesia,,,,1.1697799,121.4255744,https://maps.google.com/?cid=0x0:0xe1e3aa4e03b107ec,
supermarket,Toko umum,Kios Putri Tunggal,"5C5P+W6C, Buol, Kec. Biau, Kabupaten Buol, Sulawesi Tengah 94565","Buol, Kec. Biau, Kabupaten Buol",SULAWESI TENGAH,94565.0,Indonesia,,,,1.1598119,121.4355293,https://maps.google.com/?cid=0x0:0x6cbc647b12a32e2c,
supermarket,supermarket,Kec. Momunu,"Kabupaten Buol, Sulawesi Tengah","Kabupaten Buol, Sulawesi Tengah",SULAWESI TENGAH,,Indonesia,,,,1.1162521,121.4125109,https://maps.google.com/?cid=0x0:0x2986ed5591cc6e42,
supermarket,Toko,Toko Gemini,"5C5P+FMQ, Buol, Kec. Biau, Kabupaten Buol, Sulawesi Tengah 94565","Buol, Kec. Biau, Kabupaten Buol",SULAWESI TENGAH,94565.0,Indonesia,,,,1.1587114,121.4367389,https://maps.google.com/?cid=0x0:0xa3f65d1f5e949a1c,
supermarket,Toko bahan makanan,Cemara mart,"5C99+MG5, Jl. WR Supratman, Leok II, Kec. Biau, Kabupaten Buol, Sulawesi Tengah 94563","Jl. WR Supratman, Leok II, Kec. Biau, Kabupaten Buol",SULAWESI TENGAH,94563.0,Indonesia,82262423025.0,,,1.1691477,121.4188528,https://maps.google.com/?cid=0x0:0xefd831ecbdb3394a,
supermarket,Kios,KIOS ANDI POMAYAGON,"4C4G+3F4, Pomayagon, Kec. Momunu, Kabupaten Buol, Sulawesi Tengah 94565","Pomayagon, Kec. Momunu, Kabupaten Buol",SULAWESI TENGAH,94565.0,Indonesia,,,,1.1051387,121.4262049,https://maps.google.com/?cid=0x0:0xa6a95d738ffb7f79,
supermarket,Toko bahan makanan,Fio Mart,"5C5G+XVH, Jl. Pramuka, Kali, Kec. Biau, Kabupaten Buol, Sulawesi Tengah 94565","Jl. Pramuka, Kali, Kec. Biau, Kabupaten Buol",SULAWESI TENGAH,94565.0,Indonesia,,,,1.1602158,121.4270692,https://maps.google.com/?cid=0x0:0xb9b9a260e35c55aa,
supermarket,Toko bahan makanan,Toko Lilian,"5C5P+CPG, Buol, Kec. Biau, Kabupaten Buol, Sulawesi Tengah 94565","Buol, Kec. Biau, Kabupaten Buol",SULAWESI TENGAH,94565.0,Indonesia,,,,1.1585574,121.4368342,https://maps.google.com/?cid=0x0:0xc00bb0fd193f4e0a,
supermarket,Toko Pakaian Wanita,Lapak PINK BUOL,"4CR7+V7G, Jl. Trans Sulawesi kompleks lapangan, Pajeko, Kec. Momunu, Kabupaten Buol, Sulawesi Tengah 94565","Jl. Trans Sulawesi kompleks lapangan, Pajeko, Kec. Momunu, Kabupaten Buol",SULAWESI TENGAH,94565.0,Indonesia,82217140355.0,,,1.1421841,121.4132149,https://maps.google.com/?cid=0x0:0x62bc8222a522796d,
supermarket,supermarket,Alfamidi MA Turungku,"5C68+FPR, Jl. M.A Turungku, Kali, Kec. Biau, Kabupaten Buol, Sulawesi Tengah 94565","Jl. M.A Turungku, Kali, Kec. Biau, Kabupaten Buol",SULAWESI TENGAH,94565.0,Indonesia,,,,1.1613042,121.4169063,https://maps.google.com/?cid=0x0:0xad543b8aa45ddc36,
supermarket,Pusat Perbelanjaan,TOKO OM BOBY,"5C6G+6R2, Kali, Kec. Biau, Kabupaten Buol, Sulawesi Tengah 94565","Kali, Kec. Biau, Kabupaten Buol",SULAWESI TENGAH,94565.0,Indonesia,82291153346.0,,,1.1605115,121.4270085,https://maps.google.com/?cid=0x0:0x9fcad7e209f834f0,
supermarket,Minimarket,Indomaret Poros Kali Momunu,"Pertigaan Polsek, Kompleks, Lamadong 2, Momunu, Buol Regency, Central Sulawesi","Kabupaten Buol, Sulawesi Tengah",SULAWESI TENGAH,,Indonesia,,,,1.1162508,121.4123929,https://maps.google.com/?cid=0x0:0xfc84b6f18f99a23c,
supermarket,Toko bahan makanan,Toko Manggala Jaya,"5C68+CG4, Kali, Kec. Biau, Kabupaten Buol, Sulawesi Tengah 94565","Kali, Kec. Biau, Kabupaten Buol",SULAWESI TENGAH,94565.0,Indonesia,,,,1.161,121.4163387,https://maps.google.com/?cid=0x0:0xfa81dee4f9a3bbbb,
supermarket,Pasar,Pasar desa tongon,"4C23+2W8, Tongon, Kec. Momunu, Kabupaten Buol, Sulawesi Tengah 94565","Tongon, Kec. Momunu, Kabupaten Buol",SULAWESI TENGAH,94565.0,Indonesia,,,,1.1000354,121.4048404,https://maps.google.com/?cid=0x0:0xecb2511ccec9fdb6,
supermarket,Toko,Tk.Sinar Wajo,"5C4P+4VG, Jl. Buol - Gorontalo, Buol, Kec. Biau, Kabupaten Buol, Sulawesi Tengah 94565","Jl. Buol - Gorontalo, Buol, Kec. Biau, Kabupaten Buol",SULAWESI TENGAH,94565.0,Indonesia,,,,1.155315,121.4372007,https://maps.google.com/?cid=0x0:0xb82e96fba645a6a5,
supermarket,Toko,Buana Mart Buol,"Leok II, Kec. Biau, Kabupaten Buol, Sulawesi Tengah 94563","Kec. Biau, Kabupaten Buol",SULAWESI TENGAH,94563.0,Indonesia,,,,1.1719375,121.4214375,https://maps.google.com/?cid=0x0:0xcf4bbac304379a12,
supermarket,Kantor Perusahaan,Desa pinamula,"48JH+PWG, Taluan, Kec. Momunu, Kabupaten Buol, Sulawesi Tengah","Kabupaten Buol, Sulawesi Tengah",SULAWESI TENGAH,,Indonesia,85166574020.0,,,1.1318199,121.3298133,https://maps.google.com/?cid=0x0:0xb9edfda42fd25cd2,
supermarket,supermarket,Adiedo ( toko Sembako),"5C4P+PXJ, Buol, Kec. Biau, Kabupaten Buol, Sulawesi Tengah 94565","Buol, Kec. Biau, Kabupaten Buol",SULAWESI TENGAH,94565.0,Indonesia,,,,1.1569274,121.4372753,https://maps.google.com/?cid=0x0:0x378b0e26a3c19270,
supermarket,Toko Kelontong Asia,SRC putri,"Leok I, Kec. Biau, Kabupaten Buol, Sulawesi Tengah 94563","Kec. Biau, Kabupaten Buol",SULAWESI TENGAH,94563.0,Indonesia,82293410489.0,,,1.1845045,121.4177019,https://maps.google.com/?cid=0x0:0xadf7681c39f2de6f,
supermarket,Kios,Kios Rahma,"5CQ9+7FP, Jl. N A Ain, Leok I, Kec. Biau, Kabupaten Buol, Sulawesi Tengah 94563","Jl. N A Ain, Leok I, Kec. Biau, Kabupaten Buol",SULAWESI TENGAH,94563.0,Indonesia,81354505520.0,,,1.1882196,121.4186996,https://maps.google.com/?cid=0x0:0xd9f89ae45010bd7f,
supermarket,Kios,Kios Bapak Eva,"2F92+GRP, Modo, Kec. Bukal, Kabupaten Buol, Sulawesi Tengah 94564","Modo, Kec. Bukal, Kabupaten Buol",SULAWESI TENGAH,94564.0,Indonesia,,,,1.0188449,121.4520762,https://maps.google.com/?cid=0x0:0x40175b0cd0824392,
supermarket,Toko Swalayan,SWALAYAN AS SYIFA,"2F92+6MQ, Modo, Kec. Bukal, Kabupaten Buol, Sulawesi Tengah 94564","Modo, Kec. Bukal, Kabupaten Buol",SULAWESI TENGAH,94564.0,Indonesia,,,,1.0182186,121.4516094,https://maps.google.com/?cid=0x0:0x8e250c75bb35d3b,
supermarket,Toko bahan makanan,Kios mba siti,"XCCC+JP6, Unnamed Road, Winangun, Kec. Bukal, Kabupaten Buol, Sulawesi Tengah 94564","Unnamed Road, Winangun, Kec. Bukal, Kabupaten Buol",SULAWESI TENGAH,94564.0,Indonesia,,,,0.971534,121.4217735,https://maps.google.com/?cid=0x0:0x75232d3612679de0,
supermarket,Toko,Tokoh sembako elis77,"38RJ+QJ, Momunu, Kec. Momunu, Kabupaten Buol, Sulawesi Tengah","Kabupaten Buol, Sulawesi Tengah",SULAWESI TENGAH,,Indonesia,,,,1.0919356,121.3315038,https://maps.google.com/?cid=0x0:0xc10901219261e37c,
supermarket,supermarket,Indomaret,"Domag Mekar, Kec. Bunobogu, Kabupaten Buol, Sulawesi Tengah","Kabupaten Buol, Sulawesi Tengah",SULAWESI TENGAH,,Indonesia,,,,1.0381165,121.6119751,https://maps.google.com/?cid=0x0:0x4695c74c1bd638f8,
supermarket,Toko bahan makanan,TOKO INDRAWAN,"3H72+FWC, Jl. Buol - Gorontalo, Bukamog, Kec. Bokat, Kabupaten Buol, Sulawesi Tengah 94566","Jl. Buol - Gorontalo, Bukamog, Kec. Bokat, Kabupaten Buol",SULAWESI TENGAH,94566.0,Indonesia,,,,1.0636889,121.5522757,https://maps.google.com/?cid=0x0:0x52df6e5041ecb5d6,
supermarket,Toko Fotokopi,Fotocopy Geoart,"4CC7+376, Lamadong 1, Kec. Momunu, Kabupaten Buol, Sulawesi Tengah 94565","Lamadong 1, Kec. Momunu, Kabupaten Buol",SULAWESI TENGAH,94565.0,Indonesia,,,,1.1201566,121.4131262,https://maps.google.com/?cid=0x0:0x25fe209193d93aab,
supermarket,supermarket,MN. Swalayan,"5C6J+FQF, Jl. M.A Turungku, Kali, Kec. Biau, Kabupaten Buol, Sulawesi Tengah 94563","Jl. M.A Turungku, Kali, Kec. Biau, Kabupaten Buol",SULAWESI TENGAH,94563.0,Indonesia,,,,1.161198,121.4319356,https://maps.google.com/?cid=0x0:0x6348936988645d12,
supermarket,Kios,Kios Mama Rino,"Jl. M.A Turungku No.174, Kali, Kec. Biau, Kabupaten Buol, Sulawesi Tengah 94563","Kali, Kec. Biau, Kabupaten Buol",SULAWESI TENGAH,94563.0,Indonesia,85395004455.0,,,1.1616555,121.4167437,https://maps.google.com/?cid=0x0:0x1e96799cdab95ab3,
supermarket,supermarket,Sulawesi Tengah 94568,"Kabupaten Buol, Sulawesi Tengah","Kabupaten Buol, Sulawesi Tengah",SULAWESI TENGAH,,Indonesia,,,,1.0612253,121.947311,https://maps.google.com/?cid=0x0:0x9f3388a9eb052b12,
supermarket,Toko bahan makanan,TOKO MAKMUR PALELEH,"2XW3+M42, Paleleh, Kabupaten Buol, Sulawesi Tengah 94568","Paleleh, Kabupaten Buol",SULAWESI TENGAH,94568.0,Indonesia,82192585988.0,,,1.0466311,121.9527614,https://maps.google.com/?cid=0x0:0x2391977021991940,
supermarket,Toko bahan makanan,Pasar PALELEH,"2XX2+8VX, Unnamed Road, Paleleh, Kabupaten Buol, Sulawesi Tengah 94568","Unnamed Road, Paleleh, Kabupaten Buol",SULAWESI TENGAH,94568.0,Indonesia,,,,1.04837,121.9522206,https://maps.google.com/?cid=0x0:0xaae49a3798f8b02b,
supermarket,Minimarket,Kios mursalaat,"3WJM+G87, Lintidu, Paleleh, Kabupaten Buol, Sulawesi Tengah 94568","Lintidu, Paleleh, Kabupaten Buol",SULAWESI TENGAH,94568.0,Indonesia,,,,1.0812915,121.9333015,https://maps.google.com/?cid=0x0:0xd5fd96da5c7f8482,
supermarket,Toko,Toko 42 Paleleh,"Jl. Pasar, Paleleh, Kabupaten Buol, Sulawesi Tengah 94568","Paleleh, Kabupaten Buol",SULAWESI TENGAH,94568.0,Indonesia,,,,1.0473233,121.9530675,https://maps.google.com/?cid=0x0:0xd02056bc1f807fd,
supermarket,Toko,Toko Novi-LILI,"258J+26P, Jl. Buol - Gorontalo, Umu, Paleleh, Kabupaten Buol, Sulawesi Tengah 94568","Jl. Buol - Gorontalo, Umu, Paleleh, Kabupaten Buol",SULAWESI TENGAH,94568.0,Indonesia,85342132093.0,,,1.0150812,122.1805878,https://maps.google.com/?cid=0x0:0x30dd1613de22c0aa,
supermarket,supermarket,Paleleh,"Kabupaten Buol, Sulawesi Tengah","Kabupaten Buol, Sulawesi Tengah",SULAWESI TENGAH,,Indonesia,,,,0.9789396,122.0155491,https://maps.google.com/?cid=0x0:0xdf7ac1d178d0f1e,
supermarket,Kios,Kios dadank,"2XV2+Q3X, Jl. Buol - Gorontalo, Paleleh, Kabupaten Buol, Sulawesi Tengah 94568","Jl. Buol - Gorontalo, Paleleh, Kabupaten Buol",SULAWESI TENGAH,94568.0,Indonesia,81253239395.0,,,1.0444922,121.9502237,https://maps.google.com/?cid=0x0:0x5e9c3f8d01b5fc47,
supermarket,Toko Swalayan,MiniTu,"Jl. Sayed Abd Kadir, Paleleh, Kabupaten Buol, Sulawesi Tengah 94568","Paleleh, Kabupaten Buol",SULAWESI TENGAH,94568.0,Indonesia,82293221949.0,,,1.0467825,121.9529521,https://maps.google.com/?cid=0x0:0x489b3612fa1e43ce,
supermarket,supermarket,Kec. Paleleh Bar.,"Kabupaten Buol, Sulawesi Tengah","Kabupaten Buol, Sulawesi Tengah",SULAWESI TENGAH,,Indonesia,,,,1.0461908,121.8334868,https://maps.google.com/?cid=0x0:0x4caaeaca358ff12f,
supermarket,Toko bahan makanan,TOKO MAKMUR PALELEH,"2XW3+M42, Paleleh, Kabupaten Buol, Sulawesi Tengah 94568","Paleleh, Kabupaten Buol",SULAWESI TENGAH,94568.0,Indonesia,82192585988.0,,,1.0466311,121.9527614,https://maps.google.com/?cid=0x0:0x2391977021991940,
supermarket,Toko,Toko 42 Paleleh,"Jl. Pasar, Paleleh, Kabupaten Buol, Sulawesi Tengah 94568","Paleleh, Kabupaten Buol",SULAWESI TENGAH,94568.0,Indonesia,,,,1.0473233,121.9530675,https://maps.google.com/?cid=0x0:0xd02056bc1f807fd,
supermarket,Minimarket,Kios mursalaat,"3WJM+G87, Lintidu, Paleleh, Kabupaten Buol, Sulawesi Tengah 94568","Lintidu, Paleleh, Kabupaten Buol",SULAWESI TENGAH,94568.0,Indonesia,,,,1.0812915,121.9333015,https://maps.google.com/?cid=0x0:0xd5fd96da5c7f8482,
supermarket,Kios,Kios dadank,"2XV2+Q3X, Jl. Buol - Gorontalo, Paleleh, Kabupaten Buol, Sulawesi Tengah 94568","Jl. Buol - Gorontalo, Paleleh, Kabupaten Buol",SULAWESI TENGAH,94568.0,Indonesia,81253239395.0,,,1.0444922,121.9502237,https://maps.google.com/?cid=0x0:0x5e9c3f8d01b5fc47,
supermarket,Toko bahan makanan,Indomaret Paleleh,"2XW2+G79, Paleleh, Kabupaten Buol, Sulawesi Tengah 94568","Paleleh, Kabupaten Buol",SULAWESI TENGAH,94568.0,Indonesia,,,,1.0463538,121.9506808,https://maps.google.com/?cid=0x0:0x36ff02c8eeb1bf37,
supermarket,Toko Swalayan,MiniTu,"Jl. Sayed Abd Kadir, Paleleh, Kabupaten Buol, Sulawesi Tengah 94568","Paleleh, Kabupaten Buol",SULAWESI TENGAH,94568.0,Indonesia,82293221949.0,,,1.0467825,121.9529521,https://maps.google.com/?cid=0x0:0x489b3612fa1e43ce,
supermarket,Toko bahan makanan,TOKO PRIMA PALELEH,"2XX3+27F, Paleleh, Kabupaten Buol, Sulawesi Tengah 94568","Paleleh, Kabupaten Buol",SULAWESI TENGAH,94568.0,Indonesia,,,,1.0475627,121.9531633,https://maps.google.com/?cid=0x0:0xcc6efe7de00606ac,
supermarket,supermarket,Sulawesi Tengah 94565,"Kabupaten Buol, Sulawesi Tengah","Kabupaten Buol, Sulawesi Tengah",SULAWESI TENGAH,,Indonesia,,,,0.971428,121.1710389,https://maps.google.com/?cid=0x0:0x5a2a36bc7e43bf3d,
supermarket,Toko bahan makanan,Toko Lilian,"5C5P+CPG, Buol, Kec. Biau, Kabupaten Buol, Sulawesi Tengah 94565","Buol, Kec. Biau, Kabupaten Buol",SULAWESI TENGAH,94565.0,Indonesia,,,,1.1585574,121.4368342,https://maps.google.com/?cid=0x0:0xc00bb0fd193f4e0a,
supermarket,Toko bahan makanan,Cemara mart,"5C99+MG5, Jl. WR Supratman, Leok II, Kec. Biau, Kabupaten Buol, Sulawesi Tengah 94563","Jl. WR Supratman, Leok II, Kec. Biau, Kabupaten Buol",SULAWESI TENGAH,94563.0,Indonesia,82262423025.0,,,1.1691477,121.4188528,https://maps.google.com/?cid=0x0:0xefd831ecbdb3394a,
supermarket,Toko bahan makanan,Fio Mart,"5C5G+XVH, Jl. Pramuka, Kali, Kec. Biau, Kabupaten Buol, Sulawesi Tengah 94565","Jl. Pramuka, Kali, Kec. Biau, Kabupaten Buol",SULAWESI TENGAH,94565.0,Indonesia,,,,1.1602158,121.4270692,https://maps.google.com/?cid=0x0:0xb9b9a260e35c55aa,
supermarket,Pusat Perbelanjaan,TOKO OM BOBY,"5C6G+6R2, Kali, Kec. Biau, Kabupaten Buol, Sulawesi Tengah 94565","Kali, Kec. Biau, Kabupaten Buol",SULAWESI TENGAH,94565.0,Indonesia,82291153346.0,,,1.1605115,121.4270085,https://maps.google.com/?cid=0x0:0x9fcad7e209f834f0,
supermarket,Toko Swalayan,CNC MART,"4CXQ+4QH, Bugis, Kec. Biau, Kabupaten Buol, Sulawesi Tengah 94565","Bugis, Kec. Biau, Kabupaten Buol",SULAWESI TENGAH,94565.0,Indonesia,,,,1.1478072,121.439481,https://maps.google.com/?cid=0x0:0xe779680c49952544,
supermarket,Toko Elektronik,Toko 87,"5C5P+FGW, Buol, Kec. Biau, Kabupaten Buol, Sulawesi Tengah 94565","Buol, Kec. Biau, Kabupaten Buol",SULAWESI TENGAH,94565.0,Indonesia,,,,1.158725,121.4363128,https://maps.google.com/?cid=0x0:0xa7d5071b40cec3be,
supermarket,Toko bahan makanan,Kios Didi,"XC9C+9V3, Unnamed Road, Winangun, Kec. Bukal, Kabupaten Buol, Sulawesi Tengah 94564","Unnamed Road, Winangun, Kec. Bukal, Kabupaten Buol",SULAWESI TENGAH,94564.0,Indonesia,82346259345.0,,,0.9683752,121.4221631,https://maps.google.com/?cid=0x0:0xaf8effbeff3fec8,
supermarket,Toko Swalayan,Medan Mart,"2RRC+GFF, Tuweley, Kec. Baolan, Kabupaten Toli-Toli, Sulawesi Tengah 94512","Tuweley, Kec. Baolan, Kabupaten Toli-Toli",SULAWESI TENGAH,94512.0,Indonesia,,,,1.0413189,120.8211736,https://maps.google.com/?cid=0x0:0xb80856cb24584dd0,
supermarket,Toko,Tk.Sinar Wajo,"5C4P+4VG, Jl. Buol - Gorontalo, Buol, Kec. Biau, Kabupaten Buol, Sulawesi Tengah 94565","Jl. Buol - Gorontalo, Buol, Kec. Biau, Kabupaten Buol",SULAWESI TENGAH,94565.0,Indonesia,,,,1.155315,121.4372007,https://maps.google.com/?cid=0x0:0xb82e96fba645a6a5,
supermarket,Toko bahan makanan,Toko Manggala Jaya,"5C68+CG4, Kali, Kec. Biau, Kabupaten Buol, Sulawesi Tengah 94565","Kali, Kec. Biau, Kabupaten Buol",SULAWESI TENGAH,94565.0,Indonesia,,,,1.161,121.4163387,https://maps.google.com/?cid=0x0:0xfa81dee4f9a3bbbb,
supermarket,Toko Pakaian Wanita,Lapak PINK BUOL,"4CR7+V7G, Jl. Trans Sulawesi kompleks lapangan, Pajeko, Kec. Momunu, Kabupaten Buol, Sulawesi Tengah 94565","Jl. Trans Sulawesi kompleks lapangan, Pajeko, Kec. Momunu, Kabupaten Buol",SULAWESI TENGAH,94565.0,Indonesia,82217140355.0,,,1.1421841,121.4132149,https://maps.google.com/?cid=0x0:0x62bc8222a522796d,
supermarket,Toko Swalayan,MARIO Swalayan,"2RM6+FQF, Baru, Kec. Baolan, Kabupaten Toli-Toli, Sulawesi Tengah 94514","Baru, Kec. Baolan, Kabupaten Toli-Toli",SULAWESI TENGAH,94514.0,Indonesia,,,,1.03369,120.8119368,https://maps.google.com/?cid=0x0:0x53abcb9f76ed666b,
supermarket,Toko,Buana Mart Buol,"Leok II, Kec. Biau, Kabupaten Buol, Sulawesi Tengah 94563","Kec. Biau, Kabupaten Buol",SULAWESI TENGAH,94563.0,Indonesia,,,,1.1719375,121.4214375,https://maps.google.com/?cid=0x0:0xcf4bbac304379a12,
supermarket,Kios,KIOS ANDI POMAYAGON,"4C4G+3F4, Pomayagon, Kec. Momunu, Kabupaten Buol, Sulawesi Tengah 94565","Pomayagon, Kec. Momunu, Kabupaten Buol",SULAWESI TENGAH,94565.0,Indonesia,,,,1.1051387,121.4262049,https://maps.google.com/?cid=0x0:0xa6a95d738ffb7f79,
supermarket,Toko Kelontong Asia,SRC putri,"Leok I, Kec. Biau, Kabupaten Buol, Sulawesi Tengah 94563","Kec. Biau, Kabupaten Buol",SULAWESI TENGAH,94563.0,Indonesia,82293410489.0,,,1.1845045,121.4177019,https://maps.google.com/?cid=0x0:0xadf7681c39f2de6f,
supermarket,supermarket,Adiedo ( toko Sembako),"5C4P+PXJ, Buol, Kec. Biau, Kabupaten Buol, Sulawesi Tengah 94565","Buol, Kec. Biau, Kabupaten Buol",SULAWESI TENGAH,94565.0,Indonesia,,,,1.1569274,121.4372753,https://maps.google.com/?cid=0x0:0x378b0e26a3c19270,
supermarket,Toko Swalayan,Swalayan,"3RJ3+F76, Sandana, Kec. Galang, Kabupaten Toli-Toli, Sulawesi Tengah 94561","Sandana, Kec. Galang, Kabupaten Toli-Toli",SULAWESI TENGAH,94561.0,Indonesia,,,,1.0811547,120.8031478,https://maps.google.com/?cid=0x0:0xaef84e027b3077f8,
supermarket,Toko umum,TOKO FADEL,"7C35+5FW, Jl. Buol - Tolitoli, Mokupo, Kec. Karamat, Kabupaten Buol, Sulawesi Tengah 94563","Jl. Buol - Tolitoli, Mokupo, Kec. Karamat, Kabupaten Buol",SULAWESI TENGAH,94563.0,Indonesia,82292825726.0,,,1.2529792,121.4087048,https://maps.google.com/?cid=0x0:0x510262d886e39f45,
supermarket,Toko bahan makanan,Toko Dinopi Jaya,"2Q8W+F6G, Nalu, Kec. Baolan, Kabupaten Toli-Toli, Sulawesi Tengah 94517","Nalu, Kec. Baolan, Kabupaten Toli-Toli",SULAWESI TENGAH,94517.0,Indonesia,,,,1.0161938,120.7955651,https://maps.google.com/?cid=0x0:0xe05b741dd09fa6da,
supermarket,Toko Swalayan,TOKO HARAPAN BARU/52,"Jl. Ismail Bantilan No.17, Panasakan, Kec. Baolan, Kabupaten Toli-Toli, Sulawesi Tengah 94511","Panasakan, Kec. Baolan, Kabupaten Toli-Toli",SULAWESI TENGAH,94511.0,Indonesia,,,,1.04671,120.816764,https://maps.google.com/?cid=0x0:0xd2ac3cd76b6bb19b,
supermarket,Toko bahan makanan,Hypermart,"2Q6P+G52, Jl. Poros Timbalani - Tolitoli, Tambun, Kec. Baolan, Kabupaten Toli-Toli, Sulawesi Tengah 94517","Jl. Poros Timbalani - Tolitoli, Tambun, Kec. Baolan, Kabupaten Toli-Toli",SULAWESI TENGAH,94517.0,Indonesia,,,,1.0112595,120.7853843,https://maps.google.com/?cid=0x0:0xc9eae161f8b8db36,
supermarket,Toko Swalayan,SIFA MART,"Jl. Ahmad Yani No.4, Panasakan, Kec. Baolan, Kabupaten Toli-Toli, Sulawesi Tengah 94512","Panasakan, Kec. Baolan, Kabupaten Toli-Toli",SULAWESI TENGAH,94512.0,Indonesia,,,,1.045756,120.8167108,https://maps.google.com/?cid=0x0:0x83336e1d00acbefc,
supermarket,Toko,Alfamidi Ahmad Yani,"2RW8+28H, Panasakan, Kec. Baolan, Kabupaten Toli-Toli, Sulawesi Tengah 94512","Panasakan, Kec. Baolan, Kabupaten Toli-Toli",SULAWESI TENGAH,94512.0,Indonesia,,,,1.0450707,120.8158492,https://maps.google.com/?cid=0x0:0xdd9a5e90230d77e6,
supermarket,Minimarket,Kios Ancu,"2RXG+WH6, Tuweley, Kec. Baolan, Kabupaten Toli-Toli, Sulawesi Tengah 94512","Tuweley, Kec. Baolan, Kabupaten Toli-Toli",SULAWESI TENGAH,94512.0,Indonesia,,,,1.0497813,120.8263795,https://maps.google.com/?cid=0x0:0xde314bf8f6ba5df,
supermarket,Toko Perlengkapan Rumah,Kios Farez Serba Ada,"38G3+QGP, Boilan, Kec. Tiloan, Kabupaten Buol, Sulawesi Tengah 94565","Boilan, Kec. Tiloan, Kabupaten Buol",SULAWESI TENGAH,94565.0,Indonesia,,,,1.0769742,121.3038367,https://maps.google.com/?cid=0x0:0x8ebf6e82105a13f1,
supermarket,Toko Swalayan Makanan China,Super Mario Mart,"Jl. Abdul Muis No.9, Baru, Kec. Baolan, Kabupaten Toli-Toli, Sulawesi Tengah 94514","Baru, Kec. Baolan, Kabupaten Toli-Toli",SULAWESI TENGAH,94514.0,Indonesia,82283436209.0,,,1.0351629,120.8122442,https://maps.google.com/?cid=0x0:0xf30bde87c4710ab9,
supermarket,Toko bahan makanan,KIOS KIRANA,"2RG2+5PV, Jl. Abdul Muis, Baru, Kec. Baolan, Kabupaten Toli-Toli, Sulawesi Tengah 94514","Jl. Abdul Muis, Baru, Kec. Baolan, Kabupaten Toli-Toli",SULAWESI TENGAH,94514.0,Indonesia,82194062990.0,,,1.025481,120.8018087,https://maps.google.com/?cid=0x0:0x2ada4578e9d154e3,
supermarket,Toko Perlengkapan Rumah,Toko Mitra Baru,"2RQ8+822, Baru, Kec. Baolan, Kabupaten Toli-Toli, Sulawesi Tengah 94514","Baru, Kec. Baolan, Kabupaten Toli-Toli",SULAWESI TENGAH,94514.0,Indonesia,,,,1.0382728,120.8150059,https://maps.google.com/?cid=0x0:0x1394738cbc35bd8e,
