Category,Real Category,Business Name,Address,City,State,Postal Code,Country,Phone,Email,Website,Latitude,Longitude,Map Link,Details Link
komplek housing,komplek housing,Biau,"Kec. Bukal, Kabupaten Buol, Sulawesi Tengah","Kabupaten Buol, Sulawesi Tengah",SULAWESI TENGAH,,Indonesia,,,,1.0813143,121.4484747,https://maps.google.com/?cid=0x0:0xd4aa98bb7cffee59,
komplek housing,Komplek perumahan,Rusli MKTP/TURIS Indonesia,"3CHV+88W, Biau, Kec. Bukal, Kabupaten Buol, Sulawesi Tengah 94563","Biau, Kec. Bukal, Kabupaten Buol",SULAWESI TENGAH,94563.0,Indonesia,,,,1.0783613,121.4433069,https://maps.google.com/?cid=0x0:0x5106357222ecbfb9,
komplek housing,Komplek perumahan,Asmini husen,"3C9P+MR3, Diat, Kec. Bukal, Kabupaten Buol, Sulawesi Tengah 94563","Diat, Kec. Bukal, Kabupaten Buol",SULAWESI TENGAH,94563.0,Indonesia,,,,1.069128,121.4370471,https://maps.google.com/?cid=0x0:0x7673128f17e7d793,
komplek housing,Pembangunan Perumahan,Anwar //diat,"3C9P+MR3, Diat, Kec. Bukal, Kabupaten Buol, Sulawesi Tengah 94563","Diat, Kec. Bukal, Kabupaten Buol",SULAWESI TENGAH,94563.0,Indonesia,,,,1.069128,121.4370471,https://maps.google.com/?cid=0x0:0x9e7dc6d88d35fe61,
komplek housing,komplek housing,Rumah Uminyarofiq,"3CJX+GCC, Biau, Kec. Bukal, Kabupaten Buol, Sulawesi Tengah 94563","Biau, Kec. Bukal, Kabupaten Buol",SULAWESI TENGAH,94563.0,Indonesia,,,,1.0813096,121.4485243,https://maps.google.com/?cid=0x0:0x48f893dfa8d01af4,
komplek housing,komplek housing,Rumah Deni,"3CHR+4P6, Unnamed Road, Biau, Kec. Bukal, Kabupaten Buol, Sulawesi Tengah 94563","Unnamed Road, Biau, Kec. Bukal, Kabupaten Buol",SULAWESI TENGAH,94563.0,Indonesia,,,,1.0777939,121.4417596,https://maps.google.com/?cid=0x0:0x47795ec015b608d2,
komplek housing,Komplek perumahan,Rumah Izzat,"4CX6+3VG, Jl. Zebra, Kulango, Kec. Biau, Kabupaten Buol, Sulawesi Tengah 94565","Jl. Zebra, Kulango, Kec. Biau, Kabupaten Buol",SULAWESI TENGAH,94565.0,Indonesia,,,,1.1477089,121.4121806,https://maps.google.com/?cid=0x0:0xd193b1ef916e79e0,
komplek housing,komplek housing,Komplek Housing,"Blok Bojong Nangka I, Jl. Ring Rudal Blok Bojong Nangka I No.68, RT.001/RW.007, Jatirahayu, Kec. Pd. Melati, Kota Bks, Jawa Barat 17414","Jl. Ring Rudal Blok Bojong Nangka I No.68, RT.001/RW.007, Jatirahayu, Kec. Pd. Melati, Kota Bks",SULAWESI TENGAH,17414.0,Indonesia,,,,-6.293724,106.9165114,https://maps.google.com/?cid=0x0:0x9c50464976dee674,
komplek housing,komplek housing,Rumah Mori.com,"X6PF+GC5, Blau, luhuto, Kec. Tolinggula, Kabupaten Gorontalo Utara, Gorontalo","Kabupaten Gorontalo Utara, Gorontalo",SULAWESI TENGAH,,Indonesia,,,,0.986265,122.223602,https://maps.google.com/?cid=0x0:0x999e813dad7e5d13,
komplek housing,komplek housing,Komplek Housing,"Blok Bojong Nangka I, Jl. Ring Rudal Blok Bojong Nangka I No.68, RT.001/RW.007, Jatirahayu, Kec. Pd. Melati, Kota Bks, Jawa Barat 17414","Jl. Ring Rudal Blok Bojong Nangka I No.68, RT.001/RW.007, Jatirahayu, Kec. Pd. Melati, Kota Bks",SULAWESI TENGAH,17414.0,Indonesia,,,,-6.293724,106.9165114,https://maps.google.com/?cid=0x0:0x9c50464976dee674,
komplek housing,komplek housing,Sulawesi Tengah 94564,"Kec. Bukal, Kabupaten Buol, Sulawesi Tengah","Kabupaten Buol, Sulawesi Tengah",SULAWESI TENGAH,,Indonesia,,,,0.9524639,121.422761,https://maps.google.com/?cid=0x0:0x4fb25c099e08028b,
komplek housing,Pembangunan Perumahan,Hartati Home,"3H72+CQ7, Jl. Buol - Gorontalo, Bukamog, Kec. Bokat, Kabupaten Buol, Sulawesi Tengah 94566","Jl. Buol - Gorontalo, Bukamog, Kec. Bokat, Kabupaten Buol",SULAWESI TENGAH,94566.0,Indonesia,82271561745.0,,,1.063533,121.5519324,https://maps.google.com/?cid=0x0:0x311f4ecf4790ef62,
komplek housing,Pembangunan Perumahan,Perumahan Nelayan Doulan no.29,"3GGP+82R, Doulan, Kec. Bokat, Kabupaten Buol, Sulawesi Tengah 94566","Doulan, Kec. Bokat, Kabupaten Buol",SULAWESI TENGAH,94566.0,Indonesia,,,,1.0758728,121.5350284,https://maps.google.com/?cid=0x0:0xe216a8c86b71d9fc,
komplek housing,Komplek perumahan,Bokat Sulawesi tengah,"3GP2+VQ4, Bokat, Kec. Bokat, Kabupaten Buol, Sulawesi Tengah","Kabupaten Buol, Sulawesi Tengah",SULAWESI TENGAH,,Indonesia,,,,1.0871285,121.5019526,https://maps.google.com/?cid=0x0:0x10b59fafe7c85043,
komplek housing,Komplek perumahan,Azzahra,"3GJ9+R2, Tang, Kec. Bokat, Kabupaten Buol, Sulawesi Tengah","Kabupaten Buol, Sulawesi Tengah",SULAWESI TENGAH,,Indonesia,,,,1.0822134,121.517346,https://maps.google.com/?cid=0x0:0x11abbab818d3fe0e,
komplek housing,Toko,Wawan,"3FQJ+V3H, Kodolagon, Kec. Bokat, Kabupaten Buol, Sulawesi Tengah 94564","Kodolagon, Kec. Bokat, Kabupaten Buol",SULAWESI TENGAH,94564.0,Indonesia,,,,1.0896702,121.48061,https://maps.google.com/?cid=0x0:0xe167f72fae80f1de,
komplek housing,Komplek perumahan,Rumah mangge poy,"4FG8+3MH, Jl. Buol - Gorontalo, Negeri Lama, Kec. Bokat, Kabupaten Buol, Sulawesi Tengah 94564","Jl. Buol - Gorontalo, Negeri Lama, Kec. Bokat, Kabupaten Buol",SULAWESI TENGAH,94564.0,Indonesia,,,,1.1253183,121.4667045,https://maps.google.com/?cid=0x0:0x8015d75d3468a564,
komplek housing,Komplek perumahan,Rumah hidaya pamentar,"3GP2+VQ4, Bokat, Kec. Bokat, Kabupaten Buol, Sulawesi Tengah","Kabupaten Buol, Sulawesi Tengah",SULAWESI TENGAH,,Indonesia,,,,1.0871285,121.5019526,https://maps.google.com/?cid=0x0:0x5015aae38b860b3a,
komplek housing,Komplek perumahan,Rumah Rendi maulana,"2GMH+RRC, Tikopo, Kec. Bokat, Kabupaten Buol, Sulawesi Tengah 94566","Tikopo, Kec. Bokat, Kabupaten Buol",SULAWESI TENGAH,94566.0,Indonesia,,,,1.0345667,121.5295467,https://maps.google.com/?cid=0x0:0x281f246c8a03985d,
komplek housing,Komplek perumahan,Laundry karpet Bokat,"Bokat, Kec. Bokat, Kabupaten Buol, Sulawesi Tengah","Kabupaten Buol, Sulawesi Tengah",SULAWESI TENGAH,,Indonesia,,,,1.0866429,121.5081909,https://maps.google.com/?cid=0x0:0xa8937df5a27ed68d,
komplek housing,Komplek perumahan,Knp buol,"2GM5+V6W, Bokat IV, Kec. Bokat, Kabupaten Buol, Sulawesi Tengah","Kabupaten Buol, Sulawesi Tengah",SULAWESI TENGAH,,Indonesia,,,,1.0347407,121.5080675,https://maps.google.com/?cid=0x0:0x2c2c33ee55651596,
komplek housing,Komplek perumahan,Rumah surya purnama,"2GJJ+HW, Tikopo, Kec. Bokat, Kabupaten Buol, Sulawesi Tengah","Kabupaten Buol, Sulawesi Tengah",SULAWESI TENGAH,,Indonesia,,,,1.0313838,121.5323314,https://maps.google.com/?cid=0x0:0xfe12c7393b4e31c1,
komplek housing,Komplek perumahan,LORONG KODOK,"XC89+8W2, Winangun, Kec. Bukal, Kabupaten Buol, Sulawesi Tengah 94564","Winangun, Kec. Bukal, Kabupaten Buol",SULAWESI TENGAH,94564.0,Indonesia,,,,0.965758,121.4197683,https://maps.google.com/?cid=0x0:0x2ce2c959828e4e31,
komplek housing,Komplek perumahan,Kisman,"3FMH+8RX, Kodolagon, Kec. Bokat, Kabupaten Buol, Sulawesi Tengah","Kabupaten Buol, Sulawesi Tengah",SULAWESI TENGAH,,Indonesia,,,,1.0833662,121.4796026,https://maps.google.com/?cid=0x0:0xd3a80c45ee880044,
komplek housing,Komplek perumahan,Suko Hans Siga,"2F8X+66H, Duwamayo, Kec. Bokat, Kabupaten Buol, Sulawesi Tengah","Kabupaten Buol, Sulawesi Tengah",SULAWESI TENGAH,,Indonesia,,,,1.0153695,121.4973079,https://maps.google.com/?cid=0x0:0xc59ca91eb8315f3d,
komplek housing,Komplek perumahan,Rumah Ameldianti,"3FMH+RHJ, Kodolagon, Kec. Bokat, Kabupaten Buol, Sulawesi Tengah","Kabupaten Buol, Sulawesi Tengah",SULAWESI TENGAH,,Indonesia,,,,1.0845981,121.4788781,https://maps.google.com/?cid=0x0:0xb2e765a5d2523bb8,
komplek housing,Perhimpunan Pengembang Perumahan,Home FS,"XC74+RP, Winangun, Kec. Bukal, Kabupaten Buol, Sulawesi Tengah 94564","Winangun, Kec. Bukal, Kabupaten Buol",SULAWESI TENGAH,94564.0,Indonesia,,,,0.9645449,121.4068041,https://maps.google.com/?cid=0x0:0x2c9e9561fc896be5,
komplek housing,Komplek perumahan,Ari M,"3G8X+M34, Jl. Buol - Gorontalo, Bukamog, Kec. Bokat, Kabupaten Buol, Sulawesi Tengah 94566","Jl. Buol - Gorontalo, Bukamog, Kec. Bokat, Kabupaten Buol",SULAWESI TENGAH,94566.0,Indonesia,82291865104.0,,,1.0666266,121.5476939,https://maps.google.com/?cid=0x0:0x92c49215417f2a,
komplek housing,Komplek perumahan,Rumah putu sri,"2GP2+RF3, Bokat IV, Kec. Bokat, Kabupaten Buol, Sulawesi Tengah","Kabupaten Buol, Sulawesi Tengah",SULAWESI TENGAH,,Indonesia,,,,1.0370135,121.5011656,https://maps.google.com/?cid=0x0:0x460a7bfaf49e2264,
komplek housing,komplek housing,Central,"XCHF+HR6, Winangun, Kec. Bukal, Kabupaten Buol, Sulawesi Tengah 94564","Winangun, Kec. Bukal, Kabupaten Buol",SULAWESI TENGAH,94564.0,Indonesia,,,,0.9789111,121.4245221,https://maps.google.com/?cid=0x0:0xee227f1bf54e09d8,
komplek housing,Komplek perumahan,Sinar Jaya,"4F3Q+2X8, Kantanan, Kec. Bokat, Kabupaten Buol, Sulawesi Tengah 94564","Kantanan, Kec. Bokat, Kabupaten Buol",SULAWESI TENGAH,94564.0,Indonesia,,,,1.1011661,121.4914513,https://maps.google.com/?cid=0x0:0x9a8bc05ccbbafaa7,
komplek housing,komplek housing,Sulawesi Tengah 94566,"Kabupaten Buol, Sulawesi Tengah","Kabupaten Buol, Sulawesi Tengah",SULAWESI TENGAH,,Indonesia,,,,1.0492803,121.5598345,https://maps.google.com/?cid=0x0:0x8a0608e9353e57de,
komplek housing,Pembangunan Perumahan,Hartati Home,"3H72+CQ7, Jl. Buol - Gorontalo, Bukamog, Kec. Bokat, Kabupaten Buol, Sulawesi Tengah 94566","Jl. Buol - Gorontalo, Bukamog, Kec. Bokat, Kabupaten Buol",SULAWESI TENGAH,94566.0,Indonesia,82271561745.0,,,1.063533,121.5519324,https://maps.google.com/?cid=0x0:0x311f4ecf4790ef62,
komplek housing,Pembangunan Perumahan,Perumahan Nelayan Doulan no.29,"3GGP+82R, Doulan, Kec. Bokat, Kabupaten Buol, Sulawesi Tengah 94566","Doulan, Kec. Bokat, Kabupaten Buol",SULAWESI TENGAH,94566.0,Indonesia,,,,1.0758728,121.5350284,https://maps.google.com/?cid=0x0:0xe216a8c86b71d9fc,
komplek housing,Komplek perumahan,Bokat Sulawesi tengah,"3GP2+VQ4, Bokat, Kec. Bokat, Kabupaten Buol, Sulawesi Tengah","Kabupaten Buol, Sulawesi Tengah",SULAWESI TENGAH,,Indonesia,,,,1.0871285,121.5019526,https://maps.google.com/?cid=0x0:0x10b59fafe7c85043,
komplek housing,Komplek perumahan,Ari M,"3G8X+M34, Jl. Buol - Gorontalo, Bukamog, Kec. Bokat, Kabupaten Buol, Sulawesi Tengah 94566","Jl. Buol - Gorontalo, Bukamog, Kec. Bokat, Kabupaten Buol",SULAWESI TENGAH,94566.0,Indonesia,82291865104.0,,,1.0666266,121.5476939,https://maps.google.com/?cid=0x0:0x92c49215417f2a,
komplek housing,komplek housing,Family batalipu,"3H38+V2H, Tayadun, Kec. Bokat, Kabupaten Buol, Sulawesi Tengah 94566","Tayadun, Kec. Bokat, Kabupaten Buol",SULAWESI TENGAH,94566.0,Indonesia,,,,1.0546879,121.5651061,https://maps.google.com/?cid=0x0:0xe1da01b66282ce2,
komplek housing,Komplek perumahan,Azzahra,"3GJ9+R2, Tang, Kec. Bokat, Kabupaten Buol, Sulawesi Tengah","Kabupaten Buol, Sulawesi Tengah",SULAWESI TENGAH,,Indonesia,,,,1.0822134,121.517346,https://maps.google.com/?cid=0x0:0x11abbab818d3fe0e,
komplek housing,komplek housing,Sulistiani Ajun,"3GGM+85H, Doulan, Kec. Bokat, Kabupaten Buol, Sulawesi Tengah 94566","Doulan, Kec. Bokat, Kabupaten Buol",SULAWESI TENGAH,94566.0,Indonesia,,,,1.074668,121.533691,https://maps.google.com/?cid=0x0:0x757489fa9b0446f6,
komplek housing,Komplek perumahan,Rumah Rendi maulana,"2GMH+RRC, Tikopo, Kec. Bokat, Kabupaten Buol, Sulawesi Tengah 94566","Tikopo, Kec. Bokat, Kabupaten Buol",SULAWESI TENGAH,94566.0,Indonesia,,,,1.0345667,121.5295467,https://maps.google.com/?cid=0x0:0x281f246c8a03985d,
komplek housing,Komplek perumahan,Rumah Li ta rita,"4, Bongo","Kabupaten Buol, Sulawesi Tengah",SULAWESI TENGAH,,Indonesia,,,,1.0516829,121.5284363,https://maps.google.com/?cid=0x0:0x6e233b0ebc73fac4,
komplek housing,Komplek perumahan,Laundry karpet Bokat,"Bokat, Kec. Bokat, Kabupaten Buol, Sulawesi Tengah","Kabupaten Buol, Sulawesi Tengah",SULAWESI TENGAH,,Indonesia,,,,1.0866429,121.5081909,https://maps.google.com/?cid=0x0:0xa8937df5a27ed68d,
komplek housing,Komplek perumahan,Gauri Adellyna Putri,"2GM7+9PF, Bokat IV, Kec. Bokat, Kabupaten Buol, Sulawesi Tengah 94566","Bokat IV, Kec. Bokat, Kabupaten Buol",SULAWESI TENGAH,94566.0,Indonesia,,,,1.03367,121.5134645,https://maps.google.com/?cid=0x0:0x2d753f03e262bfc8,
komplek housing,Komplek perumahan,Rumah Aldi Pratama,"2F8V+PRX, Duwamayo, Kec. Bokat, Kabupaten Buol, Sulawesi Tengah","Kabupaten Buol, Sulawesi Tengah",SULAWESI TENGAH,,Indonesia,,,,1.0168696,121.4946133,https://maps.google.com/?cid=0x0:0x8e8779e9b703d1fe,
komplek housing,Gereja,Pastori Jemaat Maranatha,"3GR2+6P2, Bokat, Kec. Bokat, Kabupaten Buol, Sulawesi Tengah","Kabupaten Buol, Sulawesi Tengah",SULAWESI TENGAH,,Indonesia,,,,1.0905089,121.5017761,https://maps.google.com/?cid=0x0:0x9b156369cfb665b1,
komplek housing,Komplek perumahan,Knp buol,"2GM5+V6W, Bokat IV, Kec. Bokat, Kabupaten Buol, Sulawesi Tengah","Kabupaten Buol, Sulawesi Tengah",SULAWESI TENGAH,,Indonesia,,,,1.0347407,121.5080675,https://maps.google.com/?cid=0x0:0x2c2c33ee55651596,
komplek housing,Komplek perumahan,Rumah putu sri,"2GP2+RF3, Bokat IV, Kec. Bokat, Kabupaten Buol, Sulawesi Tengah","Kabupaten Buol, Sulawesi Tengah",SULAWESI TENGAH,,Indonesia,,,,1.0370135,121.5011656,https://maps.google.com/?cid=0x0:0x460a7bfaf49e2264,
komplek housing,komplek housing,Rumah 7R,"3H37+QX4, Tayadun, Kec. Bokat, Kabupaten Buol, Sulawesi Tengah 94566","Tayadun, Kec. Bokat, Kabupaten Buol",SULAWESI TENGAH,94566.0,Indonesia,,,,1.0543893,121.5649528,https://maps.google.com/?cid=0x0:0x41432cb2f0f59073,
komplek housing,Komplek perumahan,Rumah surya purnama,"2GJJ+HW, Tikopo, Kec. Bokat, Kabupaten Buol, Sulawesi Tengah","Kabupaten Buol, Sulawesi Tengah",SULAWESI TENGAH,,Indonesia,,,,1.0313838,121.5323314,https://maps.google.com/?cid=0x0:0xfe12c7393b4e31c1,
komplek housing,Komplek perumahan,Rumah Ameldianti,"3FMH+RHJ, Kodolagon, Kec. Bokat, Kabupaten Buol, Sulawesi Tengah","Kabupaten Buol, Sulawesi Tengah",SULAWESI TENGAH,,Indonesia,,,,1.0845981,121.4788781,https://maps.google.com/?cid=0x0:0xb2e765a5d2523bb8,
komplek housing,Komplek perumahan,Acho opo,"3GM8+PFH, Tang, Kec. Bokat, Kabupaten Buol, Sulawesi Tengah 94566","Tang, Kec. Bokat, Kabupaten Buol",SULAWESI TENGAH,94566.0,Indonesia,,,,1.08481,121.5155894,https://maps.google.com/?cid=0x0:0x15a6fc0049f29648,
komplek housing,komplek housing,Kec. Bokat,"Kabupaten Buol, Sulawesi Tengah","Kabupaten Buol, Sulawesi Tengah",SULAWESI TENGAH,,Indonesia,,,,1.0870392,121.501985,https://maps.google.com/?cid=0x0:0x2e348210dbf38802,
komplek housing,Komplek perumahan,Home Ingkiriwang-Kainde,"2HM7+V2G, Lonu, Kec. Bunobogu, Kabupaten Buol, Sulawesi Tengah 94566","Lonu, Kec. Bunobogu, Kabupaten Buol",SULAWESI TENGAH,94566.0,Indonesia,,,,1.0346857,121.5625865,https://maps.google.com/?cid=0x0:0xcb14929b3850e2a8,
komplek housing,Toko umum,Ayam petelur desa tayadun,"3H47+6X6, Tayadun, Kec. Bokat, Kabupaten Buol, Sulawesi Tengah 94566","Tayadun, Kec. Bokat, Kabupaten Buol",SULAWESI TENGAH,94566.0,Indonesia,,,,1.0555334,121.5648814,https://maps.google.com/?cid=0x0:0xeb3dbba78bce42cb,
komplek housing,Kantor Perusahaan,desa bongo,"3GFP+3G9, Bongo, Kec. Bokat, Kabupaten Buol, Sulawesi Tengah 94566","Bongo, Kec. Bokat, Kabupaten Buol",SULAWESI TENGAH,94566.0,Indonesia,,,,1.0726787,121.5363507,https://maps.google.com/?cid=0x0:0x74ad48847130af,
komplek housing,Bengkel Sepeda Motor,Reparasi jok motor,"3H38+X22, Tayadun, Kec. Bokat, Kabupaten Buol, Sulawesi Tengah 94566","Tayadun, Kec. Bokat, Kabupaten Buol",SULAWESI TENGAH,94566.0,Indonesia,,,,1.0548447,121.5650167,https://maps.google.com/?cid=0x0:0x9c15b68fc56af829,
komplek housing,Pembangunan Perumahan,Rumah Delvi w jamal,"3H65+92X, Bukamog, Kec. Bokat, Kabupaten Buol, Sulawesi Tengah 94566","Bukamog, Kec. Bokat, Kabupaten Buol",SULAWESI TENGAH,94566.0,Indonesia,,,,1.0609875,121.5576094,https://maps.google.com/?cid=0x0:0xb553f2d130bacd4b,
komplek housing,Komplek perumahan,Nanu Family,"3H38+X2M, Tayadun, Kec. Bokat, Kabupaten Buol, Sulawesi Tengah 94566","Tayadun, Kec. Bokat, Kabupaten Buol",SULAWESI TENGAH,94566.0,Indonesia,,,,1.0549677,121.5650558,https://maps.google.com/?cid=0x0:0xf5757fcedf52a393,
komplek housing,Pembangunan Perumahan,Ramli tauang,"3H64+QPQ, Bukamog, Kec. Bokat, Kabupaten Buol, Sulawesi Tengah 94566","Bukamog, Kec. Bokat, Kabupaten Buol",SULAWESI TENGAH,94566.0,Indonesia,,,,1.061967,121.556866,https://maps.google.com/?cid=0x0:0xe50e7831b4b2921a,
komplek housing,Komplek perumahan,Nofi Rauf,"3GCR+8PC, Jl. Buol - Gorontalo, Bongo, Kec. Bokat, Kabupaten Buol, Sulawesi Tengah 94566","Jl. Buol - Gorontalo, Bongo, Kec. Bokat, Kabupaten Buol",SULAWESI TENGAH,94566.0,Indonesia,,,,1.0703872,121.5423318,https://maps.google.com/?cid=0x0:0xba8524340b1b3023,
komplek housing,Pembangunan Perumahan,Desa diat,"3C5G+7V8, Diat, Kec. Bukal, Kabupaten Buol, Sulawesi Tengah 94563","Diat, Kec. Bukal, Kabupaten Buol",SULAWESI TENGAH,94563.0,Indonesia,,,,1.0581665,121.4271963,https://maps.google.com/?cid=0x0:0xd9385562a3351e34,
komplek housing,komplek housing,Sulawesi Tengah 94563,"Kabupaten Buol, Sulawesi Tengah","Kabupaten Buol, Sulawesi Tengah",SULAWESI TENGAH,,Indonesia,,,,1.2003229,121.3084088,https://maps.google.com/?cid=0x0:0x6c422b6673dca949,
komplek housing,Komplek perumahan,Hairil Home,"5C88+PXH, Leok II, Kec. Biau, Kabupaten Buol, Sulawesi Tengah 94563","Leok II, Kec. Biau, Kabupaten Buol",SULAWESI TENGAH,94563.0,Indonesia,85240077387.0,,,1.1664339,121.4168874,https://maps.google.com/?cid=0x0:0x4e40a2bae59394f7,
komplek housing,Komplek perumahan,Perumahan Pengadilan Negeri Buol,"5C6H+V9G, Kali, Kec. Biau, Kabupaten Buol, Sulawesi Tengah 94563","Kali, Kec. Biau, Kabupaten Buol",SULAWESI TENGAH,94563.0,Indonesia,,,,1.1621957,121.4284663,https://maps.google.com/?cid=0x0:0x895cc49f370d8cba,
komplek housing,komplek housing,Katha homeâs,"5C8F+RJH, Jl. Diponegoro, Leok II, Kec. Biau, Kabupaten Buol, Sulawesi Tengah 94563","Jl. Diponegoro, Leok II, Kec. Biau, Kabupaten Buol",SULAWESI TENGAH,94563.0,Indonesia,,,,1.1670698,121.4241228,https://maps.google.com/?cid=0x0:0xbe390de18d3b4f77,
komplek housing,Pembangunan Perumahan,Lorong Maut,"5C89+XPW, Leok II, Kec. Biau, Kabupaten Buol, Sulawesi Tengah 94563","Leok II, Kec. Biau, Kabupaten Buol",SULAWESI TENGAH,94563.0,Indonesia,,,,1.1674912,121.4193366,https://maps.google.com/?cid=0x0:0xb2553955eaa23058,
komplek housing,Kantor Pemerintah,DESA UNONE KECAMATAN BUKAL,"3C5P+RG4, Unone, Kec. Bukal, Kabupaten Buol, Sulawesi Tengah 94563","Unone, Kec. Bukal, Kabupaten Buol",SULAWESI TENGAH,94563.0,Indonesia,,,,1.0607024,121.4352382,https://maps.google.com/?cid=0x0:0x2a4124e385b677f6,
komplek housing,Komplek perumahan,Rumah Buol,"5CP8+5C7, Leok I, Kec. Biau, Kabupaten Buol, Sulawesi Tengah 94563","Leok I, Kec. Biau, Kabupaten Buol",SULAWESI TENGAH,94563.0,Indonesia,,,,1.1853442,121.4162123,https://maps.google.com/?cid=0x0:0xac445a825b802150,
komplek housing,Komplek perumahan,Akbar buka'an.,"67JF+V64, Bukaan, Kec. Lakea, Kabupaten Buol, Sulawesi Tengah 94563","Bukaan, Kec. Lakea, Kabupaten Buol",SULAWESI TENGAH,94563.0,Indonesia,,,,1.2320508,121.2729555,https://maps.google.com/?cid=0x0:0xd5265bc58d382f88,
komplek housing,Komplek perumahan,Rumah Gam Zam Zwar,"5C89+XRQ, Leok II, Kec. Biau, Kabupaten Buol, Sulawesi Tengah 94563","Leok II, Kec. Biau, Kabupaten Buol",SULAWESI TENGAH,94563.0,Indonesia,,,,1.167456,121.4198205,https://maps.google.com/?cid=0x0:0x3d59887f3bb3aa74,
komplek housing,Komplek perumahan,House Moh.Sarikat,"Jl. Buol - Tolitoli No.41, Lakea II, Kec. Lakea, Kabupaten Buol, Sulawesi Tengah 94563","Lakea II, Kec. Lakea, Kabupaten Buol",SULAWESI TENGAH,94563.0,Indonesia,,,,1.2301559,121.2441621,https://maps.google.com/?cid=0x0:0xabb26aca6cef07e1,
komplek housing,Toko Pakaian,UR Store,"5C78+5QH, Kali, Kec. Biau, Kabupaten Buol, Sulawesi Tengah 94563","Kali, Kec. Biau, Kabupaten Buol",SULAWESI TENGAH,94563.0,Indonesia,,,,1.1634558,121.4165674,https://maps.google.com/?cid=0x0:0x21f768e00f9a14d9,
komplek housing,Komplek perumahan,Hanan_Asyifa,"67PP+MF3, Jl. Buol - Tolitoli, Tuinan, Kec. Lakea, Kabupaten Buol, Sulawesi Tengah 94563","Jl. Buol - Tolitoli, Tuinan, Kec. Lakea, Kabupaten Buol",SULAWESI TENGAH,94563.0,Indonesia,,,,1.236589,121.2847158,https://maps.google.com/?cid=0x0:0xc901397bb45d6fe1,
komplek housing,Perumahan,Yuhgiafardila,"4CX7+224, Pajeko, Kec. Momunu, Kabupaten Buol, Sulawesi Tengah 94565","Pajeko, Kec. Momunu, Kabupaten Buol",SULAWESI TENGAH,94565.0,Indonesia,,,,1.1475085,121.4125888,https://maps.google.com/?cid=0x0:0xbd1379e2ef18daf9,
komplek housing,komplek housing,Kedai Baden Powell,"Komplek mts biau, Kali, Kec. Biau, Kabupaten Buol, Sulawesi Tengah","Kabupaten Buol, Sulawesi Tengah",SULAWESI TENGAH,,Indonesia,,,,1.1590764,121.425297,https://maps.google.com/?cid=0x0:0xb03b6f386c750996,
komplek housing,Kantor Pemerintah,DESA BUKAAN,"67JC+Q8X, Bukaan, Kec. Lakea, Kabupaten Buol, Sulawesi Tengah 94563","Bukaan, Kec. Lakea, Kabupaten Buol",SULAWESI TENGAH,94563.0,Indonesia,,,,1.2319925,121.27085,https://maps.google.com/?cid=0x0:0xc75c69f6d6ceaecb,
komplek housing,Kantor Pemerintah,DESA TUINAN,"67HR+W9W, Tuinan, Kec. Lakea, Kabupaten Buol, Sulawesi Tengah 94563","Tuinan, Kec. Lakea, Kabupaten Buol",SULAWESI TENGAH,94563.0,Indonesia,,,,1.2298622,121.2909609,https://maps.google.com/?cid=0x0:0xf3ed1b55f0217fde,
komplek housing,Pembangunan Perumahan,Ruma Munawir Lamadang,"7C35+W7, Mokupo, Kec. Karamat, Kabupaten Buol, Sulawesi Tengah 94563","Mokupo, Kec. Karamat, Kabupaten Buol",SULAWESI TENGAH,94563.0,Indonesia,,,,1.2548406,121.4082206,https://maps.google.com/?cid=0x0:0x6e7d03cebd6a599a,
komplek housing,Rumah wisata,Mess Adhyaksa III KN Buol,"5C7H+294, Kali, Kec. Biau, Kabupaten Buol, Sulawesi Tengah 94563","Kali, Kec. Biau, Kabupaten Buol",SULAWESI TENGAH,94563.0,Indonesia,,,,1.1625156,121.428455,https://maps.google.com/?cid=0x0:0xaa927f3609a29bfc,
komplek housing,Komplek perumahan,Rusli MKTP/TURIS Indonesia,"3CHV+88W, Biau, Kec. Bukal, Kabupaten Buol, Sulawesi Tengah 94563","Biau, Kec. Bukal, Kabupaten Buol",SULAWESI TENGAH,94563.0,Indonesia,,,,1.0783613,121.4433069,https://maps.google.com/?cid=0x0:0x5106357222ecbfb9,
komplek housing,komplek housing,Kec. Bukal,"Kabupaten Buol, Sulawesi Tengah","Kabupaten Buol, Sulawesi Tengah",SULAWESI TENGAH,,Indonesia,,,,1.014712,121.4551619,https://maps.google.com/?cid=0x0:0xb2a18e5043ab3705,
komplek housing,Komplek perumahan,Rumah Rendi,"3F45+8WW, Potangoan, Kec. Bukal, Kabupaten Buol, Sulawesi Tengah 94563","Potangoan, Kec. Bukal, Kabupaten Buol",SULAWESI TENGAH,94563.0,Indonesia,,,,1.0558441,121.4598265,https://maps.google.com/?cid=0x0:0x583c0dea4b5d7f26,
komplek housing,Komplek perumahan,Rumah serli wahyuni m.ali,"3C9P+F63, Diat, Kec. Bukal, Kabupaten Buol, Sulawesi Tengah 94563","Diat, Kec. Bukal, Kabupaten Buol",SULAWESI TENGAH,94563.0,Indonesia,,,,1.0686324,121.4355346,https://maps.google.com/?cid=0x0:0xaa2a836396cbb663,
komplek housing,Pembangunan Perumahan,Anwar //diat,"3C9P+MR3, Diat, Kec. Bukal, Kabupaten Buol, Sulawesi Tengah 94563","Diat, Kec. Bukal, Kabupaten Buol",SULAWESI TENGAH,94563.0,Indonesia,,,,1.069128,121.4370471,https://maps.google.com/?cid=0x0:0x9e7dc6d88d35fe61,
komplek housing,Komplek perumahan,Mess Asrin Samsu.,"Mess Asrin samsu Div 1,central CCM, Winangun, Kec. Bukal, Kabupaten Buol, Sulawesi Tengah 94564","Winangun, Kec. Bukal, Kabupaten Buol",SULAWESI TENGAH,94564.0,Indonesia,,,,0.9851605,121.4253057,https://maps.google.com/?cid=0x0:0xfc85235427688266,
komplek housing,Komplek perumahan,Pondok Gede Housing 1,"Jl. Cipta Raya No.45-3, RT.001/RW.003, Jatirahayu, Kec. Pd. Melati, Kota Bks, Jawa Barat 17414","RT.001/RW.003, Jatirahayu, Kec. Pd. Melati, Kota Bks",SULAWESI TENGAH,17414.0,Indonesia,,,,-6.2852504,106.9163397,https://maps.google.com/?cid=0x0:0x3132afedbf38cd61,
komplek housing,Komplek perumahan,Asmini husen,"3C9P+MR3, Diat, Kec. Bukal, Kabupaten Buol, Sulawesi Tengah 94563","Diat, Kec. Bukal, Kabupaten Buol",SULAWESI TENGAH,94563.0,Indonesia,,,,1.069128,121.4370471,https://maps.google.com/?cid=0x0:0x7673128f17e7d793,
komplek housing,Rumah Makan,Warung nasi MPO endah,"Jl. Teratai No.22, RT.005/RW.003, Jatirahayu, Kec. Pd. Melati, Kota Bks, Jawa Barat 17414","RT.005/RW.003, Jatirahayu, Kec. Pd. Melati, Kota Bks",SULAWESI TENGAH,17414.0,Indonesia,8978659011.0,,,-6.2871852,106.9177055,https://maps.google.com/?cid=0x0:0x24a530c8f839acea,
komplek housing,Komplek perumahan,Pondok Gede Housing II,"Housing II, Jl. Raya Hankam, RT.001/RW.004, Jatirahayu, Pondok Gede, Bekasi, West Java","Kota Bks, Jawa Barat",SULAWESI TENGAH,,Indonesia,,,,-6.2876701,106.9147674,https://maps.google.com/?cid=0x0:0x2a52e601c20d18f2,
komplek housing,komplek housing,Sulawesi Tengah 94564,"Kec. Bukal, Kabupaten Buol, Sulawesi Tengah","Kabupaten Buol, Sulawesi Tengah",SULAWESI TENGAH,,Indonesia,,,,0.9524639,121.422761,https://maps.google.com/?cid=0x0:0x4fb25c099e08028b,
komplek housing,komplek housing,Central,"XCHF+HR6, Winangun, Kec. Bukal, Kabupaten Buol, Sulawesi Tengah 94564","Winangun, Kec. Bukal, Kabupaten Buol",SULAWESI TENGAH,94564.0,Indonesia,,,,0.9789111,121.4245221,https://maps.google.com/?cid=0x0:0xee227f1bf54e09d8,
komplek housing,Kantor Pemda,transmigrasi,"WCHH+H2V, Upt Bukal I, Kec. Bukal, Kabupaten Buol, Sulawesi Tengah 94564","Upt Bukal I, Kec. Bukal, Kabupaten Buol",SULAWESI TENGAH,94564.0,Indonesia,,,,0.9290088,121.427554,https://maps.google.com/?cid=0x0:0x6be117afa5e9fc06,
komplek housing,Komplek perumahan,LORONG KODOK,"XC89+8W2, Winangun, Kec. Bukal, Kabupaten Buol, Sulawesi Tengah 94564","Winangun, Kec. Bukal, Kabupaten Buol",SULAWESI TENGAH,94564.0,Indonesia,,,,0.965758,121.4197683,https://maps.google.com/?cid=0x0:0x2ce2c959828e4e31,
komplek housing,Perhimpunan Pengembang Perumahan,Home FS,"XC74+RP, Winangun, Kec. Bukal, Kabupaten Buol, Sulawesi Tengah 94564","Winangun, Kec. Bukal, Kabupaten Buol",SULAWESI TENGAH,94564.0,Indonesia,,,,0.9645449,121.4068041,https://maps.google.com/?cid=0x0:0x2c9e9561fc896be5,
komplek housing,Komplek perumahan,Depot Rafania,"Jl. Muktitama 2 No.2, Winangun, Kec. Bukal, Kabupaten Buol, Sulawesi Tengah 94564","Winangun, Kec. Bukal, Kabupaten Buol",SULAWESI TENGAH,94564.0,Indonesia,82189021057.0,,,0.9699903,121.4222563,https://maps.google.com/?cid=0x0:0x72acb0878a82d2bb,
komplek housing,Pembangunan Perumahan,Perumahan haryani,"2F92+7MC, Modo, Kec. Bukal, Kabupaten Buol, Sulawesi Tengah 94564","Modo, Kec. Bukal, Kabupaten Buol",SULAWESI TENGAH,94564.0,Indonesia,,,,1.0184204,121.4513358,https://maps.google.com/?cid=0x0:0x53a5f53b4417fb3b,
komplek housing,Komplek perumahan,Rumah firman hidayat,"2F73+XH9, Modo, Kec. Bukal, Kabupaten Buol, Sulawesi Tengah 94564","Modo, Kec. Bukal, Kabupaten Buol",SULAWESI TENGAH,94564.0,Indonesia,,,,1.0149144,121.4539876,https://maps.google.com/?cid=0x0:0x20545c5ea7884db2,
komplek housing,Komplek perumahan,Mess Asrin Samsu.,"Mess Asrin samsu Div 1,central CCM, Winangun, Kec. Bukal, Kabupaten Buol, Sulawesi Tengah 94564","Winangun, Kec. Bukal, Kabupaten Buol",SULAWESI TENGAH,94564.0,Indonesia,,,,0.9851605,121.4253057,https://maps.google.com/?cid=0x0:0xfc85235427688266,
komplek housing,Komplek perumahan,Rumah Bapa niko,"2F83+QRM, Modo, Kec. Bukal, Kabupaten Buol, Sulawesi Tengah 94564","Modo, Kec. Bukal, Kabupaten Buol",SULAWESI TENGAH,94564.0,Indonesia,,,,1.016967,121.4545616,https://maps.google.com/?cid=0x0:0x66b77f7f64b26ee0,
komplek housing,Kantor Perusahaan,Modo 1,"2F84+H89, Lorong 4 No.1, Modo, Kec. Bukal, Kabupaten Buol, Sulawesi Tengah 94564","Lorong 4 No.1, Modo, Kec. Bukal, Kabupaten Buol",SULAWESI TENGAH,94564.0,Indonesia,,,,1.017276,121.4549732,https://maps.google.com/?cid=0x0:0xa1aae7300bd13a0f,
komplek housing,Pembangunan Perumahan,Ang gede family,"WCXV+MVX, Rantemaranu, Kec. Bukal, Kabupaten Buol, Sulawesi Tengah 94564","Rantemaranu, Kec. Bukal, Kabupaten Buol",SULAWESI TENGAH,94564.0,Indonesia,,,,0.949189,121.444275,https://maps.google.com/?cid=0x0:0x637952471b96f8b8,
komplek housing,Komplek perumahan,Rmh ZIDDAN,"2CFX+8HP, Mopu, Kec. Bukal, Kabupaten Buol, Sulawesi Tengah 94564","Mopu, Kec. Bukal, Kabupaten Buol",SULAWESI TENGAH,94564.0,Indonesia,,,,1.0233424,121.4489681,https://maps.google.com/?cid=0x0:0xb51c5ec6d555fd10,
komplek housing,,Lorong 4 desa modo,"2F83+WX9, Modo, Kec. Bukal, Kabupaten Buol, Sulawesi Tengah 94564","Modo, Kec. Bukal, Kabupaten Buol",SULAWESI TENGAH,94564.0,Indonesia,,,,1.017276,121.4549732,https://maps.google.com/?cid=0x0:0xb32473cd84b2f6df,
komplek housing,Komplek perumahan,modo 3,"XC3X+R2J, Rantemaranu, Kec. Bukal, Kabupaten Buol, Sulawesi Tengah 94564","Rantemaranu, Kec. Bukal, Kabupaten Buol",SULAWESI TENGAH,94564.0,Indonesia,,,,0.9545884,121.447502,https://maps.google.com/?cid=0x0:0xe7bace69e15f1943,
komplek housing,Komplek perumahan,Rumah Hengky,"XFR4+889, Mooyong, Kec. Bukal, Kabupaten Buol, Sulawesi Tengah 94564","Mooyong, Kec. Bukal, Kabupaten Buol",SULAWESI TENGAH,94564.0,Indonesia,,,,0.990796,121.4558629,https://maps.google.com/?cid=0x0:0xd11d50e305a3a22a,
komplek housing,Komplek perumahan,Rumah Aulia Rahmawati,"WFX2+6GP, Rantemaranu, Kec. Bukal, Kabupaten Buol, Sulawesi Tengah 94564","Rantemaranu, Kec. Bukal, Kabupaten Buol",SULAWESI TENGAH,94564.0,Indonesia,,,,0.9480827,121.4513314,https://maps.google.com/?cid=0x0:0xf7070a80c906e940,
komplek housing,Komplek perumahan,Rumah Hakim,"XC9F+F2X, Winangun, Kec. Bukal, Kabupaten Buol, Sulawesi Tengah 94564","Winangun, Kec. Bukal, Kabupaten Buol",SULAWESI TENGAH,94564.0,Indonesia,,,,0.9691871,121.4224219,https://maps.google.com/?cid=0x0:0xb5292c9590641fb3,
komplek housing,Komplek perumahan,Rumah w. Jaya,"XC3W+JJC, Unnamed Road, Rantemaranu, Kec. Bukal, Kabupaten Buol, Sulawesi Tengah 94564","Unnamed Road, Rantemaranu, Kec. Bukal, Kabupaten Buol",SULAWESI TENGAH,94564.0,Indonesia,,,,0.9540586,121.4465111,https://maps.google.com/?cid=0x0:0xac3141311a3f4590,
komplek housing,Toko,Wawan,"3FQJ+V3H, Kodolagon, Kec. Bokat, Kabupaten Buol, Sulawesi Tengah 94564","Kodolagon, Kec. Bokat, Kabupaten Buol",SULAWESI TENGAH,94564.0,Indonesia,,,,1.0896702,121.48061,https://maps.google.com/?cid=0x0:0xe167f72fae80f1de,
komplek housing,komplek housing,Kec. Bukal,"Kabupaten Buol, Sulawesi Tengah","Kabupaten Buol, Sulawesi Tengah",SULAWESI TENGAH,,Indonesia,,,,1.014712,121.4551619,https://maps.google.com/?cid=0x0:0xb2a18e5043ab3705,
komplek housing,Komplek perumahan,Kasmir,"2CFX+G22, Desa Mulat, Kec. Bukal, Kabupaten Buol, Sulawesi Tengah 94564","Desa Mulat, Kec. Bukal, Kabupaten Buol",SULAWESI TENGAH,94564.0,Indonesia,,,,1.023764,121.447531,https://maps.google.com/?cid=0x0:0x6069b833854dace3,
komplek housing,Komplek perumahan,Rmh AL FITRA,"2CFX+79, Mopu, Kec. Bukal, Kabupaten Buol, Sulawesi Tengah 94564","Mopu, Kec. Bukal, Kabupaten Buol",SULAWESI TENGAH,94564.0,Indonesia,,,,1.0231577,121.4484647,https://maps.google.com/?cid=0x0:0x7d0a2321b0d1ca0,
komplek housing,Komplek perumahan,Rumah Moh Rusli,"WCW7+F7Q, Upt Bukal I, Kec. Bukal, Kabupaten Buol, Sulawesi Tengah 94564","Upt Bukal I, Kec. Bukal, Kabupaten Buol",SULAWESI TENGAH,94564.0,Indonesia,,,,0.9468726,121.4126835,https://maps.google.com/?cid=0x0:0xb4954e7314bdb85e,
komplek housing,komplek housing,Sulawesi Tengah 94567,"Kabupaten Buol, Sulawesi Tengah","Kabupaten Buol, Sulawesi Tengah",SULAWESI TENGAH,,Indonesia,,,,0.982812,121.6511258,https://maps.google.com/?cid=0x0:0x7248d1de2d14beff,
komplek housing,Perhimpunan Pengembang Perumahan,Bunobogu,"2JQ6+WRF, Bunobogu, Kec. Bunobogu, Kabupaten Buol, Sulawesi Tengah","Kabupaten Buol, Sulawesi Tengah",SULAWESI TENGAH,,Indonesia,,,,1.0398187,121.6120464,https://maps.google.com/?cid=0x0:0x77f0cee05092f86d,
komplek housing,Lapangan Voli,Lapangan desa bunobogu,"2JV7+F49, Bunobogu, Kec. Bunobogu, Kabupaten Buol, Sulawesi Tengah 94566","Bunobogu, Kec. Bunobogu, Kabupaten Buol",SULAWESI TENGAH,94566.0,Indonesia,,,,1.0435328,121.6125685,https://maps.google.com/?cid=0x0:0x839319cad54f5e84,
komplek housing,komplek housing,Desa Bunobogu,"2JQ8+7W, Bunobogu, Kec. Bunobogu, Kabupaten Buol, Sulawesi Tengah","Kabupaten Buol, Sulawesi Tengah",SULAWESI TENGAH,,Indonesia,,,,1.038238,121.617285,https://maps.google.com/?cid=0x0:0xef06f91158d26b9,
komplek housing,Komplek perumahan,Muhammad Fadrul,"2JHX+99R, Inalatan, Kec. Bunobogu, Kabupaten Buol, Sulawesi Tengah 94567","Inalatan, Kec. Bunobogu, Kabupaten Buol",SULAWESI TENGAH,94567.0,Indonesia,,,,1.0286113,121.6483126,https://maps.google.com/?cid=0x0:0x178e910360dca3b,
komplek housing,komplek housing,Rumah Mama AS,"2JP6+8XV, Bunobogu, Kec. Bunobogu, Kabupaten Buol, Sulawesi Tengah","Kabupaten Buol, Sulawesi Tengah",SULAWESI TENGAH,,Indonesia,,,,1.0358502,121.6124306,https://maps.google.com/?cid=0x0:0x3dabe998fcb6f797,
komplek housing,komplek housing,Dusun Liang,"2JXQ+F9, Ponipingan, Kec. Bunobogu, Kabupaten Buol, Sulawesi Tengah","Kabupaten Buol, Sulawesi Tengah",SULAWESI TENGAH,,Indonesia,,,,1.0492349,121.63931,https://maps.google.com/?cid=0x0:0x13d6e7d6019d6825,
komplek housing,komplek housing,Lokodoka Binuang,"XPPP+9MR, Lokodoka, Kec. Gadung, Kabupaten Buol, Sulawesi Tengah","Kabupaten Buol, Sulawesi Tengah",SULAWESI TENGAH,,Indonesia,,,,0.9859896,121.7366444,https://maps.google.com/?cid=0x0:0xc269012bcd201d03,
komplek housing,Tempat Pencucian Mobil,Pencucian pondok sahabat,"2JQ6+WRF, Bunobogu, Kec. Bunobogu, Kabupaten Buol, Sulawesi Tengah","Kabupaten Buol, Sulawesi Tengah",SULAWESI TENGAH,,Indonesia,,,,1.0398187,121.6120464,https://maps.google.com/?cid=0x0:0xaace4499cb7d63c3,
komplek housing,Komplek perumahan,Rumah Sulis,"WHVV+2JG, Domag Mekar, Kec. Bunobogu, Kabupaten Buol, Sulawesi Tengah","Kabupaten Buol, Sulawesi Tengah",SULAWESI TENGAH,,Indonesia,,,,0.9425511,121.5940773,https://maps.google.com/?cid=0x0:0x13b444585423bd8d,
komplek housing,Komplek perumahan,Home Ingkiriwang-Kainde,"2HM7+V2G, Lonu, Kec. Bunobogu, Kabupaten Buol, Sulawesi Tengah 94566","Lonu, Kec. Bunobogu, Kabupaten Buol",SULAWESI TENGAH,94566.0,Indonesia,,,,1.0346857,121.5625865,https://maps.google.com/?cid=0x0:0xcb14929b3850e2a8,
komplek housing,komplek housing,Dedi apila,"3J39+VWR, Konamukan, Kec. Bunobogu, Kabupaten Buol, Sulawesi Tengah","Kabupaten Buol, Sulawesi Tengah",SULAWESI TENGAH,,Indonesia,,,,1.0547492,121.6197527,https://maps.google.com/?cid=0x0:0xf125556dcbfc8465,
komplek housing,Perumahan,Rumah PP AM,"2JXQ+J7M, Ponipingan, Kec. Bunobogu, Kabupaten Buol, Sulawesi Tengah 94567","Ponipingan, Kec. Bunobogu, Kabupaten Buol",SULAWESI TENGAH,94567.0,Indonesia,,,,1.0490771,121.6381572,https://maps.google.com/?cid=0x0:0xa001ea0dffeae8c8,
komplek housing,komplek housing,Rumah 7R,"3H37+QX4, Tayadun, Kec. Bokat, Kabupaten Buol, Sulawesi Tengah 94566","Tayadun, Kec. Bokat, Kabupaten Buol",SULAWESI TENGAH,94566.0,Indonesia,,,,1.0543893,121.5649528,https://maps.google.com/?cid=0x0:0x41432cb2f0f59073,
komplek housing,Komplek perumahan,Rumah erlin,"WHVV+2JG, Domag Mekar, Kec. Bunobogu, Kabupaten Buol, Sulawesi Tengah","Kabupaten Buol, Sulawesi Tengah",SULAWESI TENGAH,,Indonesia,,,,0.9425511,121.5940773,https://maps.google.com/?cid=0x0:0xdbadfc061ea73607,
komplek housing,Komplek perumahan,Dimas Jayadi's house,"3M6H+FW5, Matinan, Kec. Gadung, Kabupaten Buol, Sulawesi Tengah 94567","Matinan, Kec. Gadung, Kabupaten Buol",SULAWESI TENGAH,94567.0,Indonesia,,,,1.0617939,121.6787509,https://maps.google.com/?cid=0x0:0x7f913b9d0c8d1188,
komplek housing,Komplek perumahan,Desa domag,"WHVV+2JG, Domag Mekar, Kec. Bunobogu, Kabupaten Buol, Sulawesi Tengah","Kabupaten Buol, Sulawesi Tengah",SULAWESI TENGAH,,Indonesia,,,,0.9425511,121.5940773,https://maps.google.com/?cid=0x0:0xa976fa9c90700088,
komplek housing,komplek housing,Rumah ibu kartini timumun,"2HJ6+WCQ, Lonu, Kec. Bunobogu, Kabupaten Buol, Sulawesi Tengah 94566","Lonu, Kec. Bunobogu, Kabupaten Buol",SULAWESI TENGAH,94566.0,Indonesia,,,,1.0323415,121.5611018,https://maps.google.com/?cid=0x0:0x3a5d329b9777abd7,
komplek housing,Komplek perumahan,Kabupaten buol Sulawesi tengah,"3M6J+75X, Matinan, Kec. Gadung, Kabupaten Buol, Sulawesi Tengah","Kabupaten Buol, Sulawesi Tengah",SULAWESI TENGAH,,Indonesia,,,,1.0607484,121.6804759,https://maps.google.com/?cid=0x0:0x367fe558e838c2ac,
komplek housing,Komplek perumahan,Rumah Gino Praytno,"3M56+6MP, Lokodidi, Kec. Gadung, Kabupaten Buol, Sulawesi Tengah 94567","Lokodidi, Kec. Gadung, Kabupaten Buol",SULAWESI TENGAH,94567.0,Indonesia,,,,1.0580875,121.6617031,https://maps.google.com/?cid=0x0:0x9cac1fb6d72592b8,
komplek housing,komplek housing,Kec. Bunobogu,"Kabupaten Buol, Sulawesi Tengah","Kabupaten Buol, Sulawesi Tengah",SULAWESI TENGAH,,Indonesia,,,,1.0398844,121.6120202,https://maps.google.com/?cid=0x0:0x8ae6149d111b7353,
komplek housing,komplek housing,Kec. Gadung,"Kabupaten Buol, Sulawesi Tengah","Kabupaten Buol, Sulawesi Tengah",SULAWESI TENGAH,,Indonesia,,,,1.0609393,121.6812519,https://maps.google.com/?cid=0x0:0xdbf62320131c7b7d,
komplek housing,Komplek perumahan,Shelter Gadung,"3M6J+7VF, Matinan, Kec. Gadung, Kabupaten Buol, Sulawesi Tengah","Kabupaten Buol, Sulawesi Tengah",SULAWESI TENGAH,,Indonesia,,,,1.0606753,121.6821573,https://maps.google.com/?cid=0x0:0x20eb56246444df38,
komplek housing,Komplek perumahan,Rumah purnama,"3PCC+5R7, Bulagidun Tj., Kec. Gadung, Kabupaten Buol, Sulawesi Tengah 94568","Bulagidun Tj., Kec. Gadung, Kabupaten Buol",SULAWESI TENGAH,94568.0,Indonesia,,,,1.0711056,121.7220052,https://maps.google.com/?cid=0x0:0x7322ec705d6d94c,
komplek housing,Komplek perumahan,Kabupaten buol Sulawesi tengah,"3M6J+75X, Matinan, Kec. Gadung, Kabupaten Buol, Sulawesi Tengah","Kabupaten Buol, Sulawesi Tengah",SULAWESI TENGAH,,Indonesia,,,,1.0607484,121.6804759,https://maps.google.com/?cid=0x0:0x367fe558e838c2ac,
komplek housing,Komplek perumahan,Dimas Jayadi's house,"3M6H+FW5, Matinan, Kec. Gadung, Kabupaten Buol, Sulawesi Tengah 94567","Matinan, Kec. Gadung, Kabupaten Buol",SULAWESI TENGAH,94567.0,Indonesia,,,,1.0617939,121.6787509,https://maps.google.com/?cid=0x0:0x7f913b9d0c8d1188,
komplek housing,komplek housing,Jadad DJ moha,"3M6R+8GC, Taat, Kec. Gadung, Kabupaten Buol, Sulawesi Tengah","Kabupaten Buol, Sulawesi Tengah",SULAWESI TENGAH,,Indonesia,,,,1.061133,121.690938,https://maps.google.com/?cid=0x0:0x9c7b22dede530b28,
komplek housing,Komplek perumahan,Langgo dj,"3PG8+FW2, Bulagidun Tj., Kec. Gadung, Kabupaten Buol, Sulawesi Tengah 94568","Bulagidun Tj., Kec. Gadung, Kabupaten Buol",SULAWESI TENGAH,94568.0,Indonesia,,,,1.0763578,121.7181375,https://maps.google.com/?cid=0x0:0x1fb19c73b9a6b892,
komplek housing,Komplek perumahan,Rumah herman,"3M5J+88M, Matinan, Kec. Gadung, Kabupaten Buol, Sulawesi Tengah","Kabupaten Buol, Sulawesi Tengah",SULAWESI TENGAH,,Indonesia,,,,1.0583482,121.6808095,https://maps.google.com/?cid=0x0:0x14e2795860fe843e,
komplek housing,komplek housing,RUMAH ULING SANUA,"3PG8+3F, Bulagidun Tj., Kec. Gadung, Kabupaten Buol, Sulawesi Tengah","Kabupaten Buol, Sulawesi Tengah",SULAWESI TENGAH,,Indonesia,,,,1.0751875,121.7161875,https://maps.google.com/?cid=0x0:0x8ff439317765223f,
komplek housing,Kompleks Kondominium,Pohon mangga,"2PXQ+983, Diapatih, Kec. Gadung, Kabupaten Buol, Sulawesi Tengah","Kabupaten Buol, Sulawesi Tengah",SULAWESI TENGAH,,Indonesia,,,,1.048394,121.738297,https://maps.google.com/?cid=0x0:0x65cfc74a0cae21e,
komplek housing,Komplek perumahan,Fajry Saleh,"3M6H+FW5, Matinan, Kec. Gadung, Kabupaten Buol, Sulawesi Tengah 94567","Matinan, Kec. Gadung, Kabupaten Buol",SULAWESI TENGAH,94567.0,Indonesia,,,,1.0616092,121.679341,https://maps.google.com/?cid=0x0:0xc5e039c45d0d20ea,
komplek housing,Komplek perumahan,Rumah enal,"3M6J+446, Matinan, Kec. Gadung, Kabupaten Buol, Sulawesi Tengah 94567","Matinan, Kec. Gadung, Kabupaten Buol",SULAWESI TENGAH,94567.0,Indonesia,,,,1.0602108,121.680219,https://maps.google.com/?cid=0x0:0x9e43b7812c9baf8a,
komplek housing,Komplek perumahan,Rumah om abal,"3M5J+2MH, Matinan, Kec. Gadung, Kabupaten Buol, Sulawesi Tengah","Kabupaten Buol, Sulawesi Tengah",SULAWESI TENGAH,,Indonesia,,,,1.0575713,121.6817272,https://maps.google.com/?cid=0x0:0x9c3c01f447c236c4,
komplek housing,Komplek perumahan,Ramli s Hasyim,"3P97+6G5, Bulagidun Tj., Kec. Gadung, Kabupaten Buol, Sulawesi Tengah 94568","Bulagidun Tj., Kec. Gadung, Kabupaten Buol",SULAWESI TENGAH,94568.0,Indonesia,,,,1.0680056,121.7138458,https://maps.google.com/?cid=0x0:0x245ed10d3d1795e7,
komplek housing,komplek housing,Lokodoka Binuang,"XPPP+9MR, Lokodoka, Kec. Gadung, Kabupaten Buol, Sulawesi Tengah","Kabupaten Buol, Sulawesi Tengah",SULAWESI TENGAH,,Indonesia,,,,0.9859896,121.7366444,https://maps.google.com/?cid=0x0:0xc269012bcd201d03,
komplek housing,Pembangunan Perumahan,Hamid pomalingo,"2P6X+46V, Labuton, Kec. Gadung, Kabupaten Buol, Sulawesi Tengah","Kabupaten Buol, Sulawesi Tengah",SULAWESI TENGAH,,Indonesia,,,,1.0103714,121.748042,https://maps.google.com/?cid=0x0:0xc26a518229f5de1,
komplek housing,Komplek perumahan,Ds. Bulagidun,"3P6G+W5G, Jl. Buol - Gorontalo, Bulagidun, Kec. Gadung, Kabupaten Buol, Sulawesi Tengah 94568","Jl. Buol - Gorontalo, Bulagidun, Kec. Gadung, Kabupaten Buol",SULAWESI TENGAH,94568.0,Indonesia,,,,1.0623073,121.7254411,https://maps.google.com/?cid=0x0:0x5afb997e662e0b70,
komplek housing,Komplek perumahan,Rumah rian,"3P2C+Q3P, Bulagidun, Kec. Gadung, Kabupaten Buol, Sulawesi Tengah","Kabupaten Buol, Sulawesi Tengah",SULAWESI TENGAH,,Indonesia,,,,1.0519517,121.7202033,https://maps.google.com/?cid=0x0:0x3c9cd64c102c7463,
komplek housing,Komplek perumahan,DIDIN MALIK,"3P9F+7R7, Jl. Buol - Gorontalo, Bulagidun, Kec. Gadung, Kabupaten Buol, Sulawesi Tengah 94568","Jl. Buol - Gorontalo, Bulagidun, Kec. Gadung, Kabupaten Buol",SULAWESI TENGAH,94568.0,Indonesia,,,,1.0681778,121.724552,https://maps.google.com/?cid=0x0:0x5ff2d92cab26f77,
komplek housing,Pembangunan Perumahan,Papa kipli,"3P8F+67W, Bulagidun, Kec. Gadung, Kabupaten Buol, Sulawesi Tengah 94568","Bulagidun, Kec. Gadung, Kabupaten Buol",SULAWESI TENGAH,94568.0,Indonesia,,,,1.0656161,121.7232132,https://maps.google.com/?cid=0x0:0xd6f4a6dded6d17f4,
komplek housing,Komplek perumahan,Rumah Fatmawati,"3P7G+VMW, Jl. Buol - Gorontalo, Diapatih, Kec. Gadung, Kabupaten Buol, Sulawesi Tengah 94568","Jl. Buol - Gorontalo, Diapatih, Kec. Gadung, Kabupaten Buol",SULAWESI TENGAH,94568.0,Indonesia,,,,1.064355,121.726257,https://maps.google.com/?cid=0x0:0xc229c98ad2eb9263,
komplek housing,Komplek perumahan,Pondok Gede Housing 1,"Jl. Cipta Raya No.45-3, RT.001/RW.003, Jatirahayu, Kec. Pd. Melati, Kota Bks, Jawa Barat 17414","RT.001/RW.003, Jatirahayu, Kec. Pd. Melati, Kota Bks",SULAWESI TENGAH,17414.0,Indonesia,,,,-6.2852504,106.9163397,https://maps.google.com/?cid=0x0:0x3132afedbf38cd61,
komplek housing,Konsultan Realestat,Komplek Raya Housing C-9,"Komplek Raya Jl. Raya Housing No.9 BLOK C, RT.003/RW.001, Jatiwaringin, Kec. Pd. Gede, Kota Bks, Jawa Barat 17411","RT.003/RW.001, Jatiwaringin, Kec. Pd. Gede, Kota Bks",SULAWESI TENGAH,17411.0,Indonesia,,,,-6.2809842,106.9097473,https://maps.google.com/?cid=0x0:0x5332830131150540,
komplek housing,Kantor Perusahaan,Komplek raya housing blok G 10C,"Jl. Raya Housing No.10.C Blok G, Jatiwaringin, Pondok Gede, Bekasi, West Java 17411","Jatiwaringin, Pondok Gede, Bekasi",SULAWESI TENGAH,17411.0,Indonesia,,,,-6.2795575,106.9095851,https://maps.google.com/?cid=0x0:0x3047af3244b1bc18,
komplek housing,Komplek perumahan,Pondok gede housing,"PW69+G7J, Jl. Teratai, RT.005/RW.003, Jatirahayu, Kec. Pd. Melati, Kota Bks, Jawa Barat 17414","Jl. Teratai, RT.005/RW.003, Jatirahayu, Kec. Pd. Melati, Kota Bks",SULAWESI TENGAH,17414.0,Indonesia,,,,-6.2886631,106.9181392,https://maps.google.com/?cid=0x0:0xe09247830c5049e9,
komplek housing,Komplek perumahan,Komplek Raya Housing Blok C No.6,"Jl. Bhineka, RT.006/RW.011, Jatiwaringin, Kec. Pd. Gede, Kota Bks, Jawa Barat 17411","RT.006/RW.011, Jatiwaringin, Kec. Pd. Gede, Kota Bks",SULAWESI TENGAH,17411.0,Indonesia,,,,-6.2813572,106.9097108,https://maps.google.com/?cid=0x0:0x8658ae7bd2f9a7a2,
komplek housing,Kantor Perusahaan,Komplek raya housing blok E,"Komplek raya hosing blok E.6 RT.003/001, Jatiwaringin, Kec. Pd. Gede","Kota Bks, Jawa Barat",SULAWESI TENGAH,,Indonesia,,,,-6.2811216,106.9102168,https://maps.google.com/?cid=0x0:0x8256ca23a46e5e57,
komplek housing,Komplek perumahan,Komplek Raya Housing/Molek Blok B No. 4,"PW95+CQ7, Jl. Raya Housing, RT.006/RW.011, Jatiwaringin, Kec. Pd. Gede, Kota Bks, Jawa Barat 17411","Jl. Raya Housing, RT.006/RW.011, Jatiwaringin, Kec. Pd. Gede, Kota Bks",SULAWESI TENGAH,17411.0,Indonesia,,,,-6.2814591,106.909408,https://maps.google.com/?cid=0x0:0x47a4e28e626334ff,
komplek housing,Komplek perumahan,Komplek DDN B.23 Jatiwaringin pondok gede,"PW89+4F3, Jl. Cendrawasih, RT.001/RW.010, Jatimakmur, Kec. Pd. Gede, Kota Bks, Jawa Barat 17413","Jl. Cendrawasih, RT.001/RW.010, Jatimakmur, Kec. Pd. Gede, Kota Bks",SULAWESI TENGAH,17413.0,Indonesia,,,,-6.2847437,106.918686,https://maps.google.com/?cid=0x0:0x7d3cc1ed6198c39d,
komplek housing,komplek housing,Kec. Karamat,"Kabupaten Buol, Sulawesi Tengah","Kabupaten Buol, Sulawesi Tengah",SULAWESI TENGAH,,Indonesia,,,,1.2531523,121.4084928,https://maps.google.com/?cid=0x0:0x53d7a701bb80e29f,
komplek housing,Komplek perumahan,RUMAH IDAMAN,"68QR+G9, Busak II, Kec. Karamat, Kabupaten Buol, Sulawesi Tengah","Kabupaten Buol, Sulawesi Tengah",SULAWESI TENGAH,,Indonesia,,,,1.2388711,121.3408821,https://maps.google.com/?cid=0x0:0x416015abd643265d,
komplek housing,Pembangunan Perumahan,Ruma Munawir Lamadang,"7C35+W7, Mokupo, Kec. Karamat, Kabupaten Buol, Sulawesi Tengah 94563","Mokupo, Kec. Karamat, Kabupaten Buol",SULAWESI TENGAH,94563.0,Indonesia,,,,1.2548406,121.4082206,https://maps.google.com/?cid=0x0:0x6e7d03cebd6a599a,
komplek housing,Kantor Pemerintah,Desa Lamakan,"68GF+Q3P, Lamakan, Kec. Karamat, Kabupaten Buol, Sulawesi Tengah 94563","Lamakan, Kec. Karamat, Kabupaten Buol",SULAWESI TENGAH,94563.0,Indonesia,,,,1.226965,121.322709,https://maps.google.com/?cid=0x0:0xd82f19ed5484ad7d,
komplek housing,Komplek perumahan,Rumah Tercinta,"68CP+6RJ, Busak II, Kec. Karamat, Kabupaten Buol, Sulawesi Tengah 94563","Busak II, Kec. Karamat, Kabupaten Buol",SULAWESI TENGAH,94563.0,Indonesia,,,,1.2205876,121.3370074,https://maps.google.com/?cid=0x0:0xf4275dbb6a3f2e24,
komplek housing,,Atii,"793G+CMW, Monano, Kec. Karamat, Kabupaten Buol, Sulawesi Tengah 94563","Monano, Kec. Karamat, Kabupaten Buol",SULAWESI TENGAH,94563.0,Indonesia,,,,1.2536204,121.3766893,https://maps.google.com/?cid=0x0:0x1e49a3ca15822e74,
komplek housing,Komplek perumahan,Lorong kanada,"7C25+7CC, Mokupo, Kec. Karamat, Kabupaten Buol, Sulawesi Tengah 94563","Mokupo, Kec. Karamat, Kabupaten Buol",SULAWESI TENGAH,94563.0,Indonesia,,,,1.2506838,121.408517,https://maps.google.com/?cid=0x0:0xb0e60da53e542b8,
komplek housing,Komplek perumahan,Lorong arab,"7C35+2VV, Mokupo, Kec. Karamat, Kabupaten Buol, Sulawesi Tengah 94563","Mokupo, Kec. Karamat, Kabupaten Buol",SULAWESI TENGAH,94563.0,Indonesia,,,,1.2526015,121.4096781,https://maps.google.com/?cid=0x0:0x809bfa1340673a48,
komplek housing,Komplek perumahan,Rumah AR,"68XR+C4, Busak II, Kec. Karamat, Kabupaten Buol, Sulawesi Tengah","Kabupaten Buol, Sulawesi Tengah",SULAWESI TENGAH,,Indonesia,,,,1.248537,121.340356,https://maps.google.com/?cid=0x0:0x4f6c236ad61d922b,
komplek housing,Kantor Pemerintah,Desa Mokupo,"7C35+7CC, Mokupo, Kec. Karamat, Kabupaten Buol, Sulawesi Tengah 94563","Mokupo, Kec. Karamat, Kabupaten Buol",SULAWESI TENGAH,94563.0,Indonesia,,,,1.2531783,121.4085093,https://maps.google.com/?cid=0x0:0x2dbe07d25a639c20,
komplek housing,komplek housing,R.Bunaiya H. Basara,"68RV+HH, Busak II, Kec. Karamat, Kabupaten Buol, Sulawesi Tengah","Kabupaten Buol, Sulawesi Tengah",SULAWESI TENGAH,,Indonesia,,,,1.240868,121.343217,https://maps.google.com/?cid=0x0:0x9f2d5ed0dc22dea1,
komplek housing,Komplek perumahan,Rumah Romy,"7C86+RG, Mendaan, Kec. Karamat, Kabupaten Buol, Sulawesi Tengah","Kabupaten Buol, Sulawesi Tengah",SULAWESI TENGAH,,Indonesia,,,,1.2671175,121.4112487,https://maps.google.com/?cid=0x0:0x948d9752b2e2e519,
komplek housing,Komplek perumahan,Rumah Rahmat Al alif,"69J2+7GM, Lorong Tower, Busak I, Kec. Karamat, Kabupaten Buol, Sulawesi Tengah","Kabupaten Buol, Sulawesi Tengah",SULAWESI TENGAH,,Indonesia,,,,1.2307196,121.351304,https://maps.google.com/?cid=0x0:0x72008e41a7e8a9d6,
komplek housing,Komplek perumahan,Desa monano,"69M9+R9W, Monano, Kec. Karamat, Kabupaten Buol, Sulawesi Tengah 94563","Monano, Kec. Karamat, Kabupaten Buol",SULAWESI TENGAH,94563.0,Indonesia,,,,1.2346222,121.3684577,https://maps.google.com/?cid=0x0:0x3785ae1c9c22cf21,
komplek housing,Komplek perumahan,Rumah one,"793V+4MV, Baruga, Kec. Karamat, Kabupaten Buol, Sulawesi Tengah 94563","Baruga, Kec. Karamat, Kabupaten Buol",SULAWESI TENGAH,94563.0,Indonesia,,,,1.2528568,121.3941835,https://maps.google.com/?cid=0x0:0x355848887d0a586f,
komplek housing,Pusat Perbelanjaan,Toko wahyu,"69V4+CVH, Busak I, Kec. Karamat, Kabupaten Buol, Sulawesi Tengah 94563","Busak I, Kec. Karamat, Kabupaten Buol",SULAWESI TENGAH,94563.0,Indonesia,,,,1.2435515,121.3572489,https://maps.google.com/?cid=0x0:0x6e26cb99a045aa7d,
komplek housing,Komplek perumahan,Dusun 3,"69J2+7GM, Busak I, Kec. Karamat, Kabupaten Buol, Sulawesi Tengah","Kabupaten Buol, Sulawesi Tengah",SULAWESI TENGAH,,Indonesia,,,,1.2307196,121.351304,https://maps.google.com/?cid=0x0:0xe169cca0b268dff4,
komplek housing,Komplek perumahan,Rumah keluarga Suardi Yusup,"793F+V8V, Monano, Kec. Karamat, Kabupaten Buol, Sulawesi Tengah 94563","Monano, Kec. Karamat, Kabupaten Buol",SULAWESI TENGAH,94563.0,Indonesia,,,,1.2547253,121.373307,https://maps.google.com/?cid=0x0:0xb960106c6286a6b2,
komplek housing,komplek housing,Katha homeâs,"5C8F+RJH, Jl. Diponegoro, Leok II, Kec. Biau, Kabupaten Buol, Sulawesi Tengah 94563","Jl. Diponegoro, Leok II, Kec. Biau, Kabupaten Buol",SULAWESI TENGAH,94563.0,Indonesia,,,,1.1670698,121.4241228,https://maps.google.com/?cid=0x0:0xbe390de18d3b4f77,
komplek housing,Komplek perumahan,Hanan_Asyifa,"67PP+MF3, Jl. Buol - Tolitoli, Tuinan, Kec. Lakea, Kabupaten Buol, Sulawesi Tengah 94563","Jl. Buol - Tolitoli, Tuinan, Kec. Lakea, Kabupaten Buol",SULAWESI TENGAH,94563.0,Indonesia,,,,1.236589,121.2847158,https://maps.google.com/?cid=0x0:0xc901397bb45d6fe1,
komplek housing,Komplek perumahan,katha-supit home,"5CR8+XW3, Jl. M K Razak, Leok I, Kec. Biau, Kabupaten Buol, Sulawesi Tengah 94563","Jl. M K Razak, Leok I, Kec. Biau, Kabupaten Buol",SULAWESI TENGAH,94563.0,Indonesia,,,,1.1923963,121.4173083,https://maps.google.com/?cid=0x0:0xb665d743302cf69f,
komplek housing,Pembangunan Perumahan,Lorong Maut,"5C89+XPW, Leok II, Kec. Biau, Kabupaten Buol, Sulawesi Tengah 94563","Leok II, Kec. Biau, Kabupaten Buol",SULAWESI TENGAH,94563.0,Indonesia,,,,1.1674912,121.4193366,https://maps.google.com/?cid=0x0:0xb2553955eaa23058,
komplek housing,Kantor Pemerintah,DESA TUINAN,"67HR+W9W, Tuinan, Kec. Lakea, Kabupaten Buol, Sulawesi Tengah 94563","Tuinan, Kec. Lakea, Kabupaten Buol",SULAWESI TENGAH,94563.0,Indonesia,,,,1.2298622,121.2909609,https://maps.google.com/?cid=0x0:0xf3ed1b55f0217fde,
komplek housing,Komplek perumahan,Rumah Buol,"5CP8+5C7, Leok I, Kec. Biau, Kabupaten Buol, Sulawesi Tengah 94563","Leok I, Kec. Biau, Kabupaten Buol",SULAWESI TENGAH,94563.0,Indonesia,,,,1.1853442,121.4162123,https://maps.google.com/?cid=0x0:0xac445a825b802150,
komplek housing,Komplek perumahan,Hairil Home,"5C88+PXH, Leok II, Kec. Biau, Kabupaten Buol, Sulawesi Tengah 94563","Leok II, Kec. Biau, Kabupaten Buol",SULAWESI TENGAH,94563.0,Indonesia,85240077387.0,,,1.1664339,121.4168874,https://maps.google.com/?cid=0x0:0x4e40a2bae59394f7,
komplek housing,Komplek perumahan,Rumah Gam Zam Zwar,"5C89+XRQ, Leok II, Kec. Biau, Kabupaten Buol, Sulawesi Tengah 94563","Leok II, Kec. Biau, Kabupaten Buol",SULAWESI TENGAH,94563.0,Indonesia,,,,1.167456,121.4198205,https://maps.google.com/?cid=0x0:0x3d59887f3bb3aa74,
komplek housing,Komplek perumahan,Lorong desa tuinan,"67QP+2PR, Tuinan, Kec. Lakea, Kabupaten Buol, Sulawesi Tengah 94563","Tuinan, Kec. Lakea, Kabupaten Buol",SULAWESI TENGAH,94563.0,Indonesia,,,,1.238163,121.2873005,https://maps.google.com/?cid=0x0:0xf8e8fe92ba6e4e57,
komplek housing,Perumahan,"Jl. Mangga RT 003/RW 019 Jatimakmur, Pondok Gede Bekasi","Jalan Mangga, Cluster Jatimakmur , rt 03, rw 019, Kelurahan Jatim, RT.003/RW.019, Jatimakmur, Kec. Pd. Gede, Kota Bks, Jawa Barat 17412","Cluster Jatimakmur , rt 03, rw 019, Kelurahan Jatim, RT.003/RW.019, Jatimakmur, Kec. Pd. Gede, Kota Bks",SULAWESI TENGAH,17412.0,Indonesia,,,,-6.2743315,106.9321602,https://maps.google.com/?cid=0x0:0x4cf0e871b7cc6e73,
komplek housing,Komplek perumahan,Cluster mahakam B3 no 126,"RXR8+FQJ, RW.7, Cakung Tim., Kec. Cakung, Kota Jakarta Timur, Daerah Khusus Ibukota Jakarta 13910","RW.7, Cakung Tim., Kec. Cakung, Kota Jakarta Timur",SULAWESI TENGAH,13910.0,Indonesia,,,,-6.1587779,106.9668962,https://maps.google.com/?cid=0x0:0x879b6c54fc4b92ab,
komplek housing,komplek housing,Kec. Biau,"Kabupaten Buol, Sulawesi Tengah","Kabupaten Buol, Sulawesi Tengah",SULAWESI TENGAH,,Indonesia,,,,1.1708694,121.4215795,https://maps.google.com/?cid=0x0:0xaaa5fc4d0bdde54c,
komplek housing,komplek housing,Katha homeâs,"5C8F+RJH, Jl. Diponegoro, Leok II, Kec. Biau, Kabupaten Buol, Sulawesi Tengah 94563","Jl. Diponegoro, Leok II, Kec. Biau, Kabupaten Buol",SULAWESI TENGAH,94563.0,Indonesia,,,,1.1670698,121.4241228,https://maps.google.com/?cid=0x0:0xbe390de18d3b4f77,
komplek housing,Komplek perumahan,katha-supit home,"5CR8+XW3, Jl. M K Razak, Leok I, Kec. Biau, Kabupaten Buol, Sulawesi Tengah 94563","Jl. M K Razak, Leok I, Kec. Biau, Kabupaten Buol",SULAWESI TENGAH,94563.0,Indonesia,,,,1.1923963,121.4173083,https://maps.google.com/?cid=0x0:0xb665d743302cf69f,
komplek housing,Komplek perumahan,Rumah Buol,"5CP8+5C7, Leok I, Kec. Biau, Kabupaten Buol, Sulawesi Tengah 94563","Leok I, Kec. Biau, Kabupaten Buol",SULAWESI TENGAH,94563.0,Indonesia,,,,1.1853442,121.4162123,https://maps.google.com/?cid=0x0:0xac445a825b802150,
komplek housing,komplek housing,rumahku,"4CX5+F98, Jl. Anoa, Kulango, Kec. Biau, Kabupaten Buol, Sulawesi Tengah 94565","Jl. Anoa, Kulango, Kec. Biau, Kabupaten Buol",SULAWESI TENGAH,94565.0,Indonesia,,,,1.1486674,121.4084614,https://maps.google.com/?cid=0x0:0xa3e802983ff2201d,
komplek housing,Pembangunan Perumahan,Lorong Maut,"5C89+XPW, Leok II, Kec. Biau, Kabupaten Buol, Sulawesi Tengah 94563","Leok II, Kec. Biau, Kabupaten Buol",SULAWESI TENGAH,94563.0,Indonesia,,,,1.1674912,121.4193366,https://maps.google.com/?cid=0x0:0xb2553955eaa23058,
komplek housing,Toko Pakaian,UR Store,"5C78+5QH, Kali, Kec. Biau, Kabupaten Buol, Sulawesi Tengah 94563","Kali, Kec. Biau, Kabupaten Buol",SULAWESI TENGAH,94563.0,Indonesia,,,,1.1634558,121.4165674,https://maps.google.com/?cid=0x0:0x21f768e00f9a14d9,
komplek housing,Komplek perumahan,Rumah Izzat,"4CX6+3VG, Jl. Zebra, Kulango, Kec. Biau, Kabupaten Buol, Sulawesi Tengah 94565","Jl. Zebra, Kulango, Kec. Biau, Kabupaten Buol",SULAWESI TENGAH,94565.0,Indonesia,,,,1.1477089,121.4121806,https://maps.google.com/?cid=0x0:0xd193b1ef916e79e0,
komplek housing,Komplek perumahan,buol,"4CMX+V9X, Bugis, Kec. Biau, Kabupaten Buol, Sulawesi Tengah","Kabupaten Buol, Sulawesi Tengah",SULAWESI TENGAH,,Indonesia,,,,1.1347357,121.4484747,https://maps.google.com/?cid=0x0:0xc2df26196f8625a1,
komplek housing,komplek housing,FYT_777,"5C2Q+9J8, Jl. Buol - Gorontalo, Bugis, Kec. Biau, Kabupaten Buol, Sulawesi Tengah 94565","Jl. Buol - Gorontalo, Bugis, Kec. Biau, Kabupaten Buol",SULAWESI TENGAH,94565.0,Indonesia,,,,1.1510553,121.4390737,https://maps.google.com/?cid=0x0:0xc6c0c40543366b24,
komplek housing,Otoritas Perumahan,Bele li Nada,"Perum Kulango Indah No.29, Kulango, Biau, Buol Regency, Central Sulawesi","Kabupaten Buol, Sulawesi Tengah",SULAWESI TENGAH,,Indonesia,,,,1.1560535,121.409147,https://maps.google.com/?cid=0x0:0x62a6512b44f73404,
komplek housing,Komplek perumahan,Starhome,"5C66+VHV, Tabodok, Kulango, Kec. Biau, Kabupaten Buol, Sulawesi Tengah 94565","Tabodok, Kulango, Kec. Biau, Kabupaten Buol",SULAWESI TENGAH,94565.0,Indonesia,,,,1.1622366,121.41142,https://maps.google.com/?cid=0x0:0xe65e9add42eb9dce,
komplek housing,Komplek perumahan,Kulango,"5C35+8MG, Jl. Macan, Kulango, Kec. Biau, Kabupaten Buol, Sulawesi Tengah 94565","Jl. Macan, Kulango, Kec. Biau, Kabupaten Buol",SULAWESI TENGAH,94565.0,Indonesia,,,,1.1533203,121.4092143,https://maps.google.com/?cid=0x0:0x47ba1e5db95f9264,
komplek housing,Komplek perumahan,Rumah Gam Zam Zwar,"5C89+XRQ, Leok II, Kec. Biau, Kabupaten Buol, Sulawesi Tengah 94563","Leok II, Kec. Biau, Kabupaten Buol",SULAWESI TENGAH,94563.0,Indonesia,,,,1.167456,121.4198205,https://maps.google.com/?cid=0x0:0x3d59887f3bb3aa74,
komplek housing,Komplek perumahan,Rumah dasima lamaka,"5CP9+599, Unnamed Road, Leok I, Kec. Biau, Kabupaten Buol, Sulawesi Tengah 94563","Unnamed Road, Leok I, Kec. Biau, Kabupaten Buol",SULAWESI TENGAH,94563.0,Indonesia,,,,1.1854099,121.4184771,https://maps.google.com/?cid=0x0:0x2035363d792e822,
komplek housing,Komplek perumahan,Yuzha home,"5CHC+G2V, Leok II, Kec. Biau, Kabupaten Buol, Sulawesi Tengah 94563","Leok II, Kec. Biau, Kabupaten Buol",SULAWESI TENGAH,94563.0,Indonesia,,,,1.1788637,121.4200468,https://maps.google.com/?cid=0x0:0x6037190835959215,
komplek housing,Komplek perumahan,Rumah Aryan,"5C5H+QJ5, Buol, Kec. Biau, Kabupaten Buol, Sulawesi Tengah 94565","Buol, Kec. Biau, Kabupaten Buol",SULAWESI TENGAH,94565.0,Indonesia,,,,1.1593812,121.4291228,https://maps.google.com/?cid=0x0:0xba27188d3829feda,
komplek housing,Komplek perumahan,Home Nene Indah,"Jl. WR Supratman, Kali, Kec. Biau, Kabupaten Buol, Sulawesi Tengah","Kabupaten Buol, Sulawesi Tengah",SULAWESI TENGAH,,Indonesia,,,,1.1653058,121.4177137,https://maps.google.com/?cid=0x0:0xacf9493dbc01808d,
komplek housing,Komplek perumahan,Mamika,"5CV9+2FG, Leok I, Kec. Biau, Kabupaten Buol, Sulawesi Tengah 94563","Leok I, Kec. Biau, Kabupaten Buol",SULAWESI TENGAH,94563.0,Indonesia,,,,1.1928072,121.4182632,https://maps.google.com/?cid=0x0:0x6277a935e1faab37,
komplek housing,Komplek perumahan,Rinto tarakal home,"5C9F+764, Leok II, Kec. Biau, Kabupaten Buol, Sulawesi Tengah 94563","Leok II, Kec. Biau, Kabupaten Buol",SULAWESI TENGAH,94563.0,Indonesia,,,,1.168096,121.4230928,https://maps.google.com/?cid=0x0:0xb04e9aa70e4e9d31,
komplek housing,Kantor Pemerintah,DESA TUINAN,"67HR+W9W, Tuinan, Kec. Lakea, Kabupaten Buol, Sulawesi Tengah 94563","Tuinan, Kec. Lakea, Kabupaten Buol",SULAWESI TENGAH,94563.0,Indonesia,,,,1.2298622,121.2909609,https://maps.google.com/?cid=0x0:0xf3ed1b55f0217fde,
komplek housing,Komplek perumahan,rumah achopajri,"Lakea II, Kec. Lakea, Kabupaten Buol, Sulawesi Tengah 94563","Kec. Lakea, Kabupaten Buol",SULAWESI TENGAH,94563.0,Indonesia,,,,1.2281934,121.2444554,https://maps.google.com/?cid=0x0:0x925a5c5d970e6354,
komplek housing,Pembangunan Perumahan,Rumah tinggal,"Jl. Buol - Tolitoli No.11, Lakea 1, Kec. Lakea, Kabupaten Buol, Sulawesi Tengah 94563","Lakea 1, Kec. Lakea, Kabupaten Buol",SULAWESI TENGAH,94563.0,Indonesia,,,,1.2321627,121.2382983,https://maps.google.com/?cid=0x0:0x841cde3189e3d0fe,
komplek housing,Komplek perumahan,Rumah Hatta Baropo,"Jl. Buol - Tolitoli No.11, Lakea II, Kec. Lakea, Kabupaten Buol, Sulawesi Tengah 94563","Lakea II, Kec. Lakea, Kabupaten Buol",SULAWESI TENGAH,94563.0,Indonesia,,,,1.2298694,121.248831,https://maps.google.com/?cid=0x0:0xf6dc1d7fccc3520a,
komplek housing,Komplek perumahan,Lorong desa tuinan,"67QP+2PR, Tuinan, Kec. Lakea, Kabupaten Buol, Sulawesi Tengah 94563","Tuinan, Kec. Lakea, Kabupaten Buol",SULAWESI TENGAH,94563.0,Indonesia,,,,1.238163,121.2873005,https://maps.google.com/?cid=0x0:0xf8e8fe92ba6e4e57,
komplek housing,Pembangunan Perumahan,Fatun olshop,"66HX+G99, Lakea II, Kec. Lakea, Kabupaten Buol, Sulawesi Tengah 94563","Lakea II, Kec. Lakea, Kabupaten Buol",SULAWESI TENGAH,94563.0,Indonesia,,,,1.22879,121.2484747,https://maps.google.com/?cid=0x0:0x8c6be4c82847801e,
komplek housing,Komplek perumahan,House Moh.Sarikat,"Jl. Buol - Tolitoli No.41, Lakea II, Kec. Lakea, Kabupaten Buol, Sulawesi Tengah 94563","Lakea II, Kec. Lakea, Kabupaten Buol",SULAWESI TENGAH,94563.0,Indonesia,,,,1.2301559,121.2441621,https://maps.google.com/?cid=0x0:0xabb26aca6cef07e1,
komplek housing,Komplek perumahan,Rumah kipong,"66MM+GR4, Buol - Lakuan, Lakea 1, Kec. Lakea, Kabupaten Buol, Sulawesi Tengah 94563","Buol - Lakuan, Lakea 1, Kec. Lakea, Kabupaten Buol",SULAWESI TENGAH,94563.0,Indonesia,,,,1.2337821,121.2341834,https://maps.google.com/?cid=0x0:0xef716d967510af98,
komplek housing,Komplek perumahan,Hanan_Asyifa,"67PP+MF3, Jl. Buol - Tolitoli, Tuinan, Kec. Lakea, Kabupaten Buol, Sulawesi Tengah 94563","Jl. Buol - Tolitoli, Tuinan, Kec. Lakea, Kabupaten Buol",SULAWESI TENGAH,94563.0,Indonesia,,,,1.236589,121.2847158,https://maps.google.com/?cid=0x0:0xc901397bb45d6fe1,
komplek housing,komplek housing,Kec. Momunu,"Kabupaten Buol, Sulawesi Tengah","Kabupaten Buol, Sulawesi Tengah",SULAWESI TENGAH,,Indonesia,,,,1.1162521,121.4125109,https://maps.google.com/?cid=0x0:0x2986ed5591cc6e42,
komplek housing,Kantor Perusahaan,Desa momunu,"48C7+QMC, Momunu, Kec. Momunu, Kabupaten Buol, Sulawesi Tengah","Kabupaten Buol, Sulawesi Tengah",SULAWESI TENGAH,,Indonesia,,,,1.1219482,121.3141291,https://maps.google.com/?cid=0x0:0x78c053185840762d,
komplek housing,Kantor Perusahaan,Desa momunu,"38RP+G7, Suraya, Kec. Momunu, Kabupaten Buol, Sulawesi Tengah","Kabupaten Buol, Sulawesi Tengah",SULAWESI TENGAH,,Indonesia,81251485516.0,,,1.0930975,121.335978,https://maps.google.com/?cid=0x0:0xcc3bb5c73cb1402,
komplek housing,Perumahan,Yuhgiafardila,"4CX7+224, Pajeko, Kec. Momunu, Kabupaten Buol, Sulawesi Tengah 94565","Pajeko, Kec. Momunu, Kabupaten Buol",SULAWESI TENGAH,94565.0,Indonesia,,,,1.1475085,121.4125888,https://maps.google.com/?cid=0x0:0xbd1379e2ef18daf9,
komplek housing,Komplek perumahan,Muksin Mujari,"39WJ+Q98, Pujimulyo, Kec. Momunu, Kabupaten Buol, Sulawesi Tengah 94565","Pujimulyo, Kec. Momunu, Kabupaten Buol",SULAWESI TENGAH,94565.0,Indonesia,82312205174.0,,,1.0969154,121.3809568,https://maps.google.com/?cid=0x0:0xd54f06cf957ae089,
komplek housing,Komplek perumahan,Kios ungu,"4CV7+J22, Pajeko, Kec. Momunu, Kabupaten Buol, Sulawesi Tengah 94565","Pajeko, Kec. Momunu, Kabupaten Buol",SULAWESI TENGAH,94565.0,Indonesia,,,,1.1440098,121.4125286,https://maps.google.com/?cid=0x0:0x60ec8afd270d2184,
komplek housing,Komplek perumahan,Rumah sri pomayagon,"4C4G+7VV, Pomayagon, Kec. Momunu, Kabupaten Buol, Sulawesi Tengah 94565","Pomayagon, Kec. Momunu, Kabupaten Buol",SULAWESI TENGAH,94565.0,Indonesia,,,,1.1057311,121.4271601,https://maps.google.com/?cid=0x0:0x15395dd7d3bc93c6,
komplek housing,Pembangunan Perumahan,IHMAWAN SARY,"4CV6+RVQ, Lapangan, Pajeko, Kec. Momunu, Kabupaten Buol, Sulawesi Tengah","Kabupaten Buol, Sulawesi Tengah",SULAWESI TENGAH,,Indonesia,,,,1.1445833,121.4122466,https://maps.google.com/?cid=0x0:0xa408d1268ab0c17b,
komplek housing,Perumahan,Rumah nur,"39XR+GHV, Potugu, Kec. Momunu, Kabupaten Buol, Sulawesi Tengah 94565","Potugu, Kec. Momunu, Kabupaten Buol",SULAWESI TENGAH,94565.0,Indonesia,,,,1.0988502,121.391436,https://maps.google.com/?cid=0x0:0xd1c8ab266c8fef81,
komplek housing,Komplek perumahan,Kios samarudin,"Pinamula, Kec. Momunu, Kabupaten Buol, Sulawesi Tengah 94565","Kec. Momunu, Kabupaten Buol",SULAWESI TENGAH,94565.0,Indonesia,,,,1.0997679,121.3773937,https://maps.google.com/?cid=0x0:0xfbeaede8dae25373,
komplek housing,komplek housing,My Home NindiNisa,"4CP6+5GJ, Pajeko, Kec. Momunu, Kabupaten Buol, Sulawesi Tengah","Kabupaten Buol, Sulawesi Tengah",SULAWESI TENGAH,,Indonesia,,,,1.1354725,121.4112624,https://maps.google.com/?cid=0x0:0x8c3bcdaaaa5ffa72,
komplek housing,Komplek perumahan,salam house,"4CG7+68R, Lamadong 1, Kec. Momunu, Kabupaten Buol, Sulawesi Tengah 94565","Lamadong 1, Kec. Momunu, Kabupaten Buol",SULAWESI TENGAH,94565.0,Indonesia,,,,1.1258079,121.4130335,https://maps.google.com/?cid=0x0:0xe2d4068c88000855,
komplek housing,Komplek perumahan,MUSTAFA MAKUR,"497H+XXR, Mangubi, Kec. Momunu, Kabupaten Buol, Sulawesi Tengah 94565","Mangubi, Kec. Momunu, Kabupaten Buol",SULAWESI TENGAH,94565.0,Indonesia,,,,1.1149942,121.3798921,https://maps.google.com/?cid=0x0:0x956904fef9bf3039,
komplek housing,Komplek perumahan,Rumah Nussyam Lakuntu,"4CW7+C54, Pajeko, Kec. Momunu, Kabupaten Buol, Sulawesi Tengah 94565","Pajeko, Kec. Momunu, Kabupaten Buol",SULAWESI TENGAH,94565.0,Indonesia,,,,1.1460321,121.4129516,https://maps.google.com/?cid=0x0:0x5c35397b5d2329c2,
komplek housing,Komplek perumahan,HOME MOH. ARJAN A. TIMUMUN,"4C34+54F, Mangubi, Kec. Momunu, Kabupaten Buol, Sulawesi Tengah","Kabupaten Buol, Sulawesi Tengah",SULAWESI TENGAH,,Indonesia,,,,1.1028844,121.4051871,https://maps.google.com/?cid=0x0:0x7623996180a68d87,
komplek housing,Komplek perumahan,Rosalina supratno,"39PH+FXJ, Pujimulyo, Kec. Momunu, Kabupaten Buol, Sulawesi Tengah 94565","Pujimulyo, Kec. Momunu, Kabupaten Buol",SULAWESI TENGAH,94565.0,Indonesia,,,,1.0862144,121.3798921,https://maps.google.com/?cid=0x0:0x39fc58ba0a505087,
komplek housing,Komplek perumahan,Rumah Putri Diana a.h. timumun,"4CC7+65J, Lamadong 1, Kec. Momunu, Kabupaten Buol, Sulawesi Tengah 94565","Lamadong 1, Kec. Momunu, Kabupaten Buol",SULAWESI TENGAH,94565.0,Indonesia,,,,1.120596,121.412893,https://maps.google.com/?cid=0x0:0x32042d101c997664,
komplek housing,Komplek perumahan,Perumahan Pengadilan Negeri Buol,"5C6H+V9G, Kali, Kec. Biau, Kabupaten Buol, Sulawesi Tengah 94563","Kali, Kec. Biau, Kabupaten Buol",SULAWESI TENGAH,94563.0,Indonesia,,,,1.1621957,121.4284663,https://maps.google.com/?cid=0x0:0x895cc49f370d8cba,
komplek housing,Komplek perumahan,Rumah fadila,"4C34+HF4, Mangubi, Kec. Momunu, Kabupaten Buol, Sulawesi Tengah 94565","Mangubi, Kec. Momunu, Kabupaten Buol",SULAWESI TENGAH,94565.0,Indonesia,,,,1.103878,121.406217,https://maps.google.com/?cid=0x0:0xa96c0106671ec5ee,
komplek housing,Komplek perumahan,Dusun Kineni,"4CH4+J6Q, Lamadong 1, Kec. Momunu, Kabupaten Buol, Sulawesi Tengah 94565","Lamadong 1, Kec. Momunu, Kabupaten Buol",SULAWESI TENGAH,94565.0,Indonesia,,,,1.1290835,121.4056153,https://maps.google.com/?cid=0x0:0x275f008833389004,
komplek housing,komplek housing,Rumah Ismail,"4C93+G4J, Lamadong 2, Kec. Momunu, Kabupaten Buol, Sulawesi Tengah 94565","Lamadong 2, Kec. Momunu, Kabupaten Buol",SULAWESI TENGAH,94565.0,Indonesia,,,,1.1188351,121.4027574,https://maps.google.com/?cid=0x0:0x223dd59c674bc8f7,
komplek housing,Komplek perumahan,Rumah sarman,"4CR6+3QH, Jl. Trans Sulawesi, Pajeko, Kec. Momunu, Kabupaten Buol, Sulawesi Tengah 94565","Jl. Trans Sulawesi, Pajeko, Kec. Momunu, Kabupaten Buol",SULAWESI TENGAH,94565.0,Indonesia,,,,1.1408706,121.4113979,https://maps.google.com/?cid=0x0:0xc48cbf021b595e7,
komplek housing,Komplek perumahan,rumah devi,"4C76+MPM, Lamadong 2, Kec. Momunu, Kabupaten Buol, Sulawesi Tengah 94565","Lamadong 2, Kec. Momunu, Kabupaten Buol",SULAWESI TENGAH,94565.0,Indonesia,,,,1.114888,121.4121665,https://maps.google.com/?cid=0x0:0x7592ef8127946697,
komplek housing,Komplek perumahan,Rumah Moh Rizky A Sambaly,"4CC7+X63, Desa, Lamadong 1, Kec. Momunu, Kabupaten Buol, Sulawesi Tengah 94565","Desa, Lamadong 1, Kec. Momunu, Kabupaten Buol",SULAWESI TENGAH,94565.0,Indonesia,,,,1.1227106,121.4126577,https://maps.google.com/?cid=0x0:0x432bab884e89a6ce,
komplek housing,Komplek perumahan,Istikandi,"4C4G+8GW, Pomayagon, Kec. Momunu, Kabupaten Buol, Sulawesi Tengah 94565","Pomayagon, Kec. Momunu, Kabupaten Buol",SULAWESI TENGAH,94565.0,Indonesia,,,,1.107058,121.4259182,https://maps.google.com/?cid=0x0:0x9cced3b05dbedb6e,
komplek housing,Komplek perumahan,Rumah Yanto,"4C93+G4J, Lamadong 2, Kec. Momunu, Kabupaten Buol, Sulawesi Tengah 94565","Lamadong 2, Kec. Momunu, Kabupaten Buol",SULAWESI TENGAH,94565.0,Indonesia,,,,1.1188351,121.4027574,https://maps.google.com/?cid=0x0:0xe3dba47d717cf4ef,
komplek housing,Komplek perumahan,Rumah aksa,"4CM7+H47, Lamadong 1, Kec. Momunu, Kabupaten Buol, Sulawesi Tengah 94565","Lamadong 1, Kec. Momunu, Kabupaten Buol",SULAWESI TENGAH,94565.0,Indonesia,,,,1.1339125,121.4127969,https://maps.google.com/?cid=0x0:0x7b0ac6b4af41bcd,
komplek housing,Pembangunan Perumahan,Rumah Ica Yalia J.Mahadali,"4CC8+M6X, Lamadong 1, Kec. Momunu, Kabupaten Buol, Sulawesi Tengah 94565","Lamadong 1, Kec. Momunu, Kabupaten Buol",SULAWESI TENGAH,94565.0,Indonesia,,,,1.1217348,121.4156209,https://maps.google.com/?cid=0x0:0x459629f3e285746f,
komplek housing,Masjid,Lamadong 1,"4CC7+X63, Desa, Lamadong 1, Kec. Momunu, Kabupaten Buol, Sulawesi Tengah 94565","Desa, Lamadong 1, Kec. Momunu, Kabupaten Buol",SULAWESI TENGAH,94565.0,Indonesia,,,,1.122918,121.412627,https://maps.google.com/?cid=0x0:0x5215f58775cfb7bc,
komplek housing,komplek housing,Sulawesi Tengah 94568,"Kabupaten Buol, Sulawesi Tengah","Kabupaten Buol, Sulawesi Tengah",SULAWESI TENGAH,,Indonesia,,,,1.0612253,121.947311,https://maps.google.com/?cid=0x0:0x9f3388a9eb052b12,
komplek housing,komplek housing,Lokasi Rumah,"2XW2+CGM, Jl. Gunung Intan, Paleleh, Kabupaten Buol, Sulawesi Tengah 94568","Jl. Gunung Intan, Paleleh, Kabupaten Buol",SULAWESI TENGAH,94568.0,Indonesia,,,,1.0463892,121.9513468,https://maps.google.com/?cid=0x0:0xd4a53d0805fdc6a,
komplek housing,Komplek perumahan,Makasambe Lihondatu,"3RH9+M6G, Harmoni, Kec. Paleleh Bar., Kabupaten Buol, Sulawesi Tengah","Kabupaten Buol, Sulawesi Tengah",SULAWESI TENGAH,,Indonesia,,,,1.07918,121.8180716,https://maps.google.com/?cid=0x0:0xd7b6309e47ede1b6,
komplek housing,Perhimpunan Pengembang Perumahan,KAMPUNG KATANG,"2WVX+JXM, Paleleh, Kabupaten Buol, Sulawesi Tengah","Kabupaten Buol, Sulawesi Tengah",SULAWESI TENGAH,,Indonesia,,,,1.0440799,121.9499295,https://maps.google.com/?cid=0x0:0x24e5e07b13899a66,
komplek housing,Komplek perumahan,Rumah Nani S muka,"2573+QV9, Mulangato, Paleleh, Kabupaten Buol, Sulawesi Tengah 94568","Mulangato, Paleleh, Kabupaten Buol",SULAWESI TENGAH,94568.0,Indonesia,,,,1.0146954,122.1535425,https://maps.google.com/?cid=0x0:0x8c563695d4c34581,
komplek housing,Komplek perumahan,Saddia k hilaiya,"2XJ4+HW5, Kuala Besar, Paleleh, Kabupaten Buol, Sulawesi Tengah 94568","Kuala Besar, Paleleh, Kabupaten Buol",SULAWESI TENGAH,94568.0,Indonesia,,,,1.0313221,121.9578844,https://maps.google.com/?cid=0x0:0xb33fa7be0d5e31e4,
komplek housing,Komplek perumahan,NOVEL,"2WWV+7FC, Paleleh, Kabupaten Buol, Sulawesi Tengah","Kabupaten Buol, Sulawesi Tengah",SULAWESI TENGAH,,Indonesia,,,,1.0456856,121.9436268,https://maps.google.com/?cid=0x0:0x2d370b7426cbc024,
komplek housing,komplek housing,Sira pakaya,"2XP5+59C, Paleleh, Kabupaten Buol, Sulawesi Tengah","Kabupaten Buol, Sulawesi Tengah",SULAWESI TENGAH,,Indonesia,,,,1.0354488,121.9583894,https://maps.google.com/?cid=0x0:0x9956ba1c5567c54c,
komplek housing,Komplek perumahan,BUNGAYON,"3WR3+PP8, Oyak, Kec. Paleleh Bar., Kabupaten Buol, Sulawesi Tengah 94568","Oyak, Kec. Paleleh Bar., Kabupaten Buol",SULAWESI TENGAH,94568.0,Indonesia,,,,1.0917531,121.9046924,https://maps.google.com/?cid=0x0:0xf15799ba7a412a68,
komplek housing,Komplek perumahan,TANGALAN,"3WW7+8Q, Oyak, Kec. Paleleh Bar., Kabupaten Buol, Sulawesi Tengah","Kabupaten Buol, Sulawesi Tengah",SULAWESI TENGAH,,Indonesia,,,,1.0958009,121.9144845,https://maps.google.com/?cid=0x0:0x773e5663d7244ec5,
komplek housing,Komplek perumahan,Rumah AYDIL,"3WR3+PP8, Oyak, Kec. Paleleh Bar., Kabupaten Buol, Sulawesi Tengah 94568","Oyak, Kec. Paleleh Bar., Kabupaten Buol",SULAWESI TENGAH,94568.0,Indonesia,,,,1.0917777,121.9043398,https://maps.google.com/?cid=0x0:0x4ba0da2eab67fcd7,
komplek housing,Komplek perumahan,rumah TONI ABAS,"2576+W88, Umu, Paleleh, Kabupaten Buol, Sulawesi Tengah 94568","Umu, Paleleh, Kabupaten Buol",SULAWESI TENGAH,94568.0,Indonesia,,,,1.0148397,122.1607846,https://maps.google.com/?cid=0x0:0xf7c56b7dae57ff21,
komplek housing,Komplek perumahan,Home Anto,"3WR4+P95, Oyak, Kec. Paleleh Bar., Kabupaten Buol, Sulawesi Tengah 94568","Oyak, Kec. Paleleh Bar., Kabupaten Buol",SULAWESI TENGAH,94568.0,Indonesia,,,,1.0918619,121.9063384,https://maps.google.com/?cid=0x0:0x8732373981f8c92b,
komplek housing,Komplek perumahan,TANG,"2XW3+Q49, Paleleh, Kabupaten Buol, Sulawesi Tengah 94568","Paleleh, Kabupaten Buol",SULAWESI TENGAH,94568.0,Indonesia,,,,1.0469016,121.9528473,https://maps.google.com/?cid=0x0:0x62a859941860f1a0,
komplek housing,Komplek perumahan,Mitta,"2XJ4+X8, Kuala Besar, Paleleh, Kabupaten Buol, Sulawesi Tengah 94568","Kuala Besar, Paleleh, Kabupaten Buol",SULAWESI TENGAH,94568.0,Indonesia,,,,1.0327756,121.9558033,https://maps.google.com/?cid=0x0:0x4760d19899789d55,
komplek housing,Komplek perumahan,Fattika,"2WVX+8VM, Paleleh, Kabupaten Buol, Sulawesi Tengah 94568","Paleleh, Kabupaten Buol",SULAWESI TENGAH,94568.0,Indonesia,,,,1.0434224,121.949638,https://maps.google.com/?cid=0x0:0xeadebe468b2529d,
komplek housing,Komplek perumahan,Hardin K. Hidu,"3RQF+532, Jl. Buol - Gorontalo, Lunguto, Kec. Paleleh Bar., Kabupaten Buol, Sulawesi Tengah 94568","Jl. Buol - Gorontalo, Lunguto, Kec. Paleleh Bar., Kabupaten Buol",SULAWESI TENGAH,94568.0,Indonesia,,,,1.0874323,121.8226947,https://maps.google.com/?cid=0x0:0x8fd06d149c888953,
komplek housing,Komplek perumahan,Rumah Keluarga Ridwan Yusup,"258H+3G8, Umu, Paleleh, Kabupaten Buol, Sulawesi Tengah","Kabupaten Buol, Sulawesi Tengah",SULAWESI TENGAH,,Indonesia,,,,1.0151516,122.1788354,https://maps.google.com/?cid=0x0:0x1e5cdaeb632780e9,
komplek housing,komplek housing,Ridel Home,"2WXV+3V9, Tolau, Paleleh, Kabupaten Buol, Sulawesi Tengah","Kabupaten Buol, Sulawesi Tengah",SULAWESI TENGAH,,Indonesia,,,,1.0476393,121.9445025,https://maps.google.com/?cid=0x0:0xa028aa78f6fb0726,
komplek housing,Komplek perumahan,"Kilat Home, Desa Timbulon","3VHG+PHQ, Timbulon, Kec. Paleleh Bar., Kabupaten Buol, Sulawesi Tengah","Kabupaten Buol, Sulawesi Tengah",SULAWESI TENGAH,,Indonesia,,,,1.0793302,121.8764778,https://maps.google.com/?cid=0x0:0x8b16dc8c3ea75c65,
komplek housing,Komplek perumahan,Rumah Nadine,"3W4X+4MG, Jalan TK. Mandiri, Dopalak, Paleleh, Kabupaten Buol, Sulawesi Tengah 94568","Jalan TK. Mandiri, Dopalak, Paleleh, Kabupaten Buol",SULAWESI TENGAH,94568.0,Indonesia,,,,1.055316,121.9491882,https://maps.google.com/?cid=0x0:0xe9ae0c45ed40f3a1,
komplek housing,Komplek perumahan,Rumah isall,"2XQ2+89P, Dutuno, Paleleh, Kabupaten Buol, Sulawesi Tengah 94568","Dutuno, Paleleh, Kabupaten Buol",SULAWESI TENGAH,94568.0,Indonesia,,,,1.03833,121.9509398,https://maps.google.com/?cid=0x0:0xfdd30fdf1543e43c,
komplek housing,Komplek perumahan,Sulawesi Tengahengah,"3XPJ+4HM, Paleleh, Kabupaten Buol, Sulawesi Tengah 94568","Paleleh, Kabupaten Buol",SULAWESI TENGAH,94568.0,Indonesia,,,,1.0853261,121.9814354,https://maps.google.com/?cid=0x0:0xc562798596aff842,
komplek housing,Komplek perumahan,Rumah Elin Juni,"3WGP+V6C, Lintidu, Paleleh, Kabupaten Buol, Sulawesi Tengah 94568","Lintidu, Paleleh, Kabupaten Buol",SULAWESI TENGAH,94568.0,Indonesia,,,,1.0773896,121.9358484,https://maps.google.com/?cid=0x0:0x41e11302b2b69964,
komplek housing,Komplek perumahan,Ilham N Yunus,"2589+345, Umu, Paleleh, Kabupaten Buol, Sulawesi Tengah 94568","Umu, Paleleh, Kabupaten Buol",SULAWESI TENGAH,94568.0,Indonesia,,,,1.0151349,122.1678739,https://maps.google.com/?cid=0x0:0x5d44f14cff40d4ad,
komplek housing,Komplek perumahan,RUMAH NYA EPAN,"2WRR+X29, Tolau, Paleleh, Kabupaten Buol, Sulawesi Tengah","Kabupaten Buol, Sulawesi Tengah",SULAWESI TENGAH,,Indonesia,,,,1.042415,121.940102,https://maps.google.com/?cid=0x0:0xeb285023809f481e,
komplek housing,Tempat Ibadah,RUMAH JAHIT UMI KHUMAIRO/IIN,"2XW3+H6R, Paleleh, Kabupaten Buol, Sulawesi Tengah 94568","Paleleh, Kabupaten Buol",SULAWESI TENGAH,94568.0,Indonesia,,,,1.0464986,121.9530369,https://maps.google.com/?cid=0x0:0xb44dd1136293a99,
komplek housing,komplek housing,Paleleh,"Kabupaten Buol, Sulawesi Tengah","Kabupaten Buol, Sulawesi Tengah",SULAWESI TENGAH,,Indonesia,,,,0.9789396,122.0155491,https://maps.google.com/?cid=0x0:0xdf7ac1d178d0f1e,
komplek housing,Komplek perumahan,LIANG,"3VRW+526, Oyak, Kec. Paleleh Bar., Kabupaten Buol, Sulawesi Tengah 94568","Oyak, Kec. Paleleh Bar., Kabupaten Buol",SULAWESI TENGAH,94568.0,Indonesia,,,,1.0904578,121.8949256,https://maps.google.com/?cid=0x0:0x82e83d00ef30a915,
komplek housing,komplek housing,Kec. Paleleh Bar.,"Kabupaten Buol, Sulawesi Tengah","Kabupaten Buol, Sulawesi Tengah",SULAWESI TENGAH,,Indonesia,,,,1.0461908,121.8334868,https://maps.google.com/?cid=0x0:0x4caaeaca358ff12f,
komplek housing,Komplek perumahan,Makasambe Lihondatu,"3RH9+M6G, Harmoni, Kec. Paleleh Bar., Kabupaten Buol, Sulawesi Tengah","Kabupaten Buol, Sulawesi Tengah",SULAWESI TENGAH,,Indonesia,,,,1.07918,121.8180716,https://maps.google.com/?cid=0x0:0xd7b6309e47ede1b6,
komplek housing,Komplek perumahan,TANGALAN,"3WW7+8Q, Oyak, Kec. Paleleh Bar., Kabupaten Buol, Sulawesi Tengah","Kabupaten Buol, Sulawesi Tengah",SULAWESI TENGAH,,Indonesia,,,,1.0958009,121.9144845,https://maps.google.com/?cid=0x0:0x773e5663d7244ec5,
komplek housing,Komplek perumahan,BUNGAYON,"3WR3+PP8, Oyak, Kec. Paleleh Bar., Kabupaten Buol, Sulawesi Tengah 94568","Oyak, Kec. Paleleh Bar., Kabupaten Buol",SULAWESI TENGAH,94568.0,Indonesia,,,,1.0917531,121.9046924,https://maps.google.com/?cid=0x0:0xf15799ba7a412a68,
komplek housing,Komplek perumahan,Rumah AYDIL,"3WR3+PP8, Oyak, Kec. Paleleh Bar., Kabupaten Buol, Sulawesi Tengah 94568","Oyak, Kec. Paleleh Bar., Kabupaten Buol",SULAWESI TENGAH,94568.0,Indonesia,,,,1.0917777,121.9043398,https://maps.google.com/?cid=0x0:0x4ba0da2eab67fcd7,
komplek housing,Komplek perumahan,TAYOKAN,"3QGJ+2MP, Tayokan, Kec. Paleleh Bar., Kabupaten Buol, Sulawesi Tengah","Kabupaten Buol, Sulawesi Tengah",SULAWESI TENGAH,,Indonesia,,,,1.075078,121.7817033,https://maps.google.com/?cid=0x0:0x34f376271224bb82,
komplek housing,Komplek perumahan,"Kilat Home, Desa Timbulon","3VHG+PHQ, Timbulon, Kec. Paleleh Bar., Kabupaten Buol, Sulawesi Tengah","Kabupaten Buol, Sulawesi Tengah",SULAWESI TENGAH,,Indonesia,,,,1.0793302,121.8764778,https://maps.google.com/?cid=0x0:0x8b16dc8c3ea75c65,
komplek housing,Komplek perumahan,Hardin K. Hidu,"3RQF+532, Jl. Buol - Gorontalo, Lunguto, Kec. Paleleh Bar., Kabupaten Buol, Sulawesi Tengah 94568","Jl. Buol - Gorontalo, Lunguto, Kec. Paleleh Bar., Kabupaten Buol",SULAWESI TENGAH,94568.0,Indonesia,,,,1.0874323,121.8226947,https://maps.google.com/?cid=0x0:0x8fd06d149c888953,
komplek housing,Komplek perumahan,LIANG,"3VRW+526, Oyak, Kec. Paleleh Bar., Kabupaten Buol, Sulawesi Tengah 94568","Oyak, Kec. Paleleh Bar., Kabupaten Buol",SULAWESI TENGAH,94568.0,Indonesia,,,,1.0904578,121.8949256,https://maps.google.com/?cid=0x0:0x82e83d00ef30a915,
komplek housing,Komplek perumahan,Kel. Lihondatu-Budiman,"3RH9+C85, Harmoni, Kec. Paleleh Bar., Kabupaten Buol, Sulawesi Tengah","Kabupaten Buol, Sulawesi Tengah",SULAWESI TENGAH,,Indonesia,,,,1.0784412,121.8181775,https://maps.google.com/?cid=0x0:0x7ff4d86c0cd07317,
komplek housing,komplek housing,Nizam Faizan Home,"3VHJ+H3H, Timbulon, Kec. Paleleh Bar., Kabupaten Buol, Sulawesi Tengah 94568","Timbulon, Kec. Paleleh Bar., Kabupaten Buol",SULAWESI TENGAH,94568.0,Indonesia,,,,1.078746,121.881027,https://maps.google.com/?cid=0x0:0x5e333ac617c6c71a,
komplek housing,Komplek perumahan,Harmoni,"2RMH+H4V, Harmoni, Kec. Paleleh Bar., Kabupaten Buol, Sulawesi Tengah","Kabupaten Buol, Sulawesi Tengah",SULAWESI TENGAH,,Indonesia,,,,1.0339994,121.8277925,https://maps.google.com/?cid=0x0:0x7b980f41e40ea897,
komplek housing,komplek housing,Dusun Kema,"3WGP+V6C, Lintidu, Paleleh, Kabupaten Buol, Sulawesi Tengah 94568","Lintidu, Paleleh, Kabupaten Buol",SULAWESI TENGAH,94568.0,Indonesia,,,,1.0773023,121.9354285,https://maps.google.com/?cid=0x0:0x690371c27a0612ef,
komplek housing,Komplek perumahan,Rumahnya Ryla,"3VHG+MQ8, Jl. Buol - Gorontalo, Timbulon, Kec. Paleleh Bar., Kabupaten Buol, Sulawesi Tengah 94568","Jl. Buol - Gorontalo, Timbulon, Kec. Paleleh Bar., Kabupaten Buol",SULAWESI TENGAH,94568.0,Indonesia,,,,1.0794673,121.8771818,https://maps.google.com/?cid=0x0:0xb51cf45bd57d080e,
komplek housing,Komplek perumahan,Hafiz Kilat Home,"3VHG+HJQ, Timbulon, Kec. Paleleh Bar., Kabupaten Buol, Sulawesi Tengah","Kabupaten Buol, Sulawesi Tengah",SULAWESI TENGAH,,Indonesia,,,,1.0789731,121.8766193,https://maps.google.com/?cid=0x0:0x9788bd58104f19e4,
komplek housing,Komplek perumahan,"Rumah Jaenab Tambing, S.Pd","3WGP+V6C, Lintidu, Paleleh, Kabupaten Buol, Sulawesi Tengah 94568","Lintidu, Paleleh, Kabupaten Buol",SULAWESI TENGAH,94568.0,Indonesia,,,,1.0775113,121.935435,https://maps.google.com/?cid=0x0:0x387307927e34babb,
komplek housing,Komplek perumahan,Rumah Hanin,"3V39+H3J, Timbulon, Kec. Paleleh Bar., Kabupaten Buol, Sulawesi Tengah","Kabupaten Buol, Sulawesi Tengah",SULAWESI TENGAH,,Indonesia,,,,1.0539729,121.8676464,https://maps.google.com/?cid=0x0:0xf6191b9f75029a1,
komplek housing,Komplek perumahan,Rumah ku,"3V39+H3J, Timbulon, Kec. Paleleh Bar., Kabupaten Buol, Sulawesi Tengah","Kabupaten Buol, Sulawesi Tengah",SULAWESI TENGAH,,Indonesia,,,,1.0539729,121.8676464,https://maps.google.com/?cid=0x0:0x3fffbc1cae7ea7ce,
komplek housing,Komplek perumahan,Dusun Pangapulan,"3Q59+M3Q, Bodi, Kec. Paleleh Bar., Kabupaten Buol, Sulawesi Tengah 94568","Bodi, Kec. Paleleh Bar., Kabupaten Buol",SULAWESI TENGAH,94568.0,Indonesia,,,,1.0591231,121.7677352,https://maps.google.com/?cid=0x0:0xc16df33ac1e1375,
komplek housing,Komplek perumahan,Rumah Elin Juni,"3WGP+V6C, Lintidu, Paleleh, Kabupaten Buol, Sulawesi Tengah 94568","Lintidu, Paleleh, Kabupaten Buol",SULAWESI TENGAH,94568.0,Indonesia,,,,1.0773896,121.9358484,https://maps.google.com/?cid=0x0:0x41e11302b2b69964,
komplek housing,Komplek perumahan,TANGDOKA,"3WGR+569, Lintidu, Paleleh, Kabupaten Buol, Sulawesi Tengah 94568","Lintidu, Paleleh, Kabupaten Buol",SULAWESI TENGAH,94568.0,Indonesia,,,,1.0754085,121.9406006,https://maps.google.com/?cid=0x0:0x5b895c50b33c8ff5,
komplek housing,komplek housing,Lokasi Rumah,"2XW2+CGM, Jl. Gunung Intan, Paleleh, Kabupaten Buol, Sulawesi Tengah 94568","Jl. Gunung Intan, Paleleh, Kabupaten Buol",SULAWESI TENGAH,94568.0,Indonesia,,,,1.0463892,121.9513468,https://maps.google.com/?cid=0x0:0xd4a53d0805fdc6a,
komplek housing,komplek housing,Housing komplek,,,SULAWESI TENGAH,,Indonesia,,,,-6.8040914,107.1994,https://maps.google.com/?cid=0x0:0x569b9ae5fed1ecd5,
komplek housing,Komplek perumahan,Saddia k hilaiya,"2XJ4+HW5, Kuala Besar, Paleleh, Kabupaten Buol, Sulawesi Tengah 94568","Kuala Besar, Paleleh, Kabupaten Buol",SULAWESI TENGAH,94568.0,Indonesia,,,,1.0313221,121.9578844,https://maps.google.com/?cid=0x0:0xb33fa7be0d5e31e4,
komplek housing,Taman,MASYARAKAT TIDOLOM,"3VP2+67X, Jl. Buol - Gorontalo, Timbulon, Kec. Paleleh Bar., Kabupaten Buol, Sulawesi Tengah 94568","Jl. Buol - Gorontalo, Timbulon, Kec. Paleleh Bar., Kabupaten Buol",SULAWESI TENGAH,94568.0,Indonesia,,,,1.0856074,121.8507368,https://maps.google.com/?cid=0x0:0x4dbd23e941ab5f2d,
komplek housing,Pembangunan Perumahan,Lorong Persahabatan,"3RH9+MC3, Jl. Buol - Gorontalo, Harmoni, Kec. Paleleh Bar., Kabupaten Buol, Sulawesi Tengah 94568","Jl. Buol - Gorontalo, Harmoni, Kec. Paleleh Bar., Kabupaten Buol",SULAWESI TENGAH,94568.0,Indonesia,,,,1.0791486,121.818551,https://maps.google.com/?cid=0x0:0x88fb18b0d6edb6a3,
komplek housing,Komplek perumahan,DESA LUNGUTO,"3RPC+MXW, Lunguto, Kec. Paleleh Bar., Kabupaten Buol, Sulawesi Tengah 94568","Lunguto, Kec. Paleleh Bar., Kabupaten Buol",SULAWESI TENGAH,94568.0,Indonesia,,,,1.0862122,121.8221398,https://maps.google.com/?cid=0x0:0x424dd46285632d78,
komplek housing,Komplek perumahan,Tangbulon,"3RPC+MXW, Lunguto, Kec. Paleleh Bar., Kabupaten Buol, Sulawesi Tengah 94568","Lunguto, Kec. Paleleh Bar., Kabupaten Buol",SULAWESI TENGAH,94568.0,Indonesia,,,,1.0866965,121.8224677,https://maps.google.com/?cid=0x0:0xf67ec0a716182daa,
komplek housing,Komplek perumahan,TANG,"2XW3+Q49, Paleleh, Kabupaten Buol, Sulawesi Tengah 94568","Paleleh, Kabupaten Buol",SULAWESI TENGAH,94568.0,Indonesia,,,,1.0469016,121.9528473,https://maps.google.com/?cid=0x0:0x62a859941860f1a0,
komplek housing,komplek housing,Sulawesi Tengah 94565,"Kabupaten Buol, Sulawesi Tengah","Kabupaten Buol, Sulawesi Tengah",SULAWESI TENGAH,,Indonesia,,,,0.971428,121.1710389,https://maps.google.com/?cid=0x0:0x5a2a36bc7e43bf3d,
komplek housing,Kantor Pemerintah,Desa maniala kecamatan tiloan kabupaten buol,"38F6+W29, Maniala, Kec. Tiloan, Kabupaten Buol, Sulawesi Tengah 94565","Maniala, Kec. Tiloan, Kabupaten Buol",SULAWESI TENGAH,94565.0,Indonesia,,,,1.0749028,121.31073,https://maps.google.com/?cid=0x0:0xb6ba0247e723bb03,
komplek housing,Komplek perumahan,Simpang Empat MBA Tiloan,"377R+RFX, Simpang empat Monggonit Balau Air Terang, Desa, Monggonit, Kec. Tiloan, Kabupaten Buol, Sulawesi Tengah","Kabupaten Buol, Sulawesi Tengah",SULAWESI TENGAH,,Indonesia,,,,1.0646202,121.2912463,https://maps.google.com/?cid=0x0:0x91642ac1203f213f,
komplek housing,Komplek perumahan,Perumahan,"27HP+6G, Panilan Jaya, Kec. Tiloan, Kabupaten Buol, Sulawesi Tengah","Kabupaten Buol, Sulawesi Tengah",SULAWESI TENGAH,,Indonesia,,,,1.028101,121.286253,https://maps.google.com/?cid=0x0:0xaa3011b6103b9dcb,
komplek housing,Komplek perumahan,Rumah Idaman Mas Mulyono,"38H2+4RF, Boilan, Kec. Tiloan, Kabupaten Buol, Sulawesi Tengah 94565","Boilan, Kec. Tiloan, Kabupaten Buol",SULAWESI TENGAH,94565.0,Indonesia,,,,1.0778992,121.3029674,https://maps.google.com/?cid=0x0:0x400b386778d09e89,
komplek housing,Komplek perumahan,Ayub,"28HR+X56, Jatimulyo, Kec. Tiloan, Kabupaten Buol, Sulawesi Tengah 94565","Jatimulyo, Kec. Tiloan, Kabupaten Buol",SULAWESI TENGAH,94565.0,Indonesia,,,,1.0299004,121.3403758,https://maps.google.com/?cid=0x0:0xd488f621521410da,
komplek housing,komplek housing,Gilingan lumbung utuh,"37CF+RC5, Airterang, Kec. Tiloan, Kabupaten Buol, Sulawesi Tengah 94565","Airterang, Kec. Tiloan, Kabupaten Buol",SULAWESI TENGAH,94565.0,Indonesia,,,,1.0720062,121.2736134,https://maps.google.com/?cid=0x0:0x6c7ab01a36c7788c,
komplek housing,komplek housing,Dusun sumber sari,"37JR+CFH, Boilan, Kec. Tiloan, Kabupaten Buol, Sulawesi Tengah 94565","Boilan, Kec. Tiloan, Kabupaten Buol",SULAWESI TENGAH,94565.0,Indonesia,,,,1.081068,121.2912463,https://maps.google.com/?cid=0x0:0x3ea6ebb8cfdc74cf,
komplek housing,Perhimpunan Pengembang Perumahan,Rumah Papa Bima,"37CH+Q66, Airterang, Kec. Tiloan, Kabupaten Buol, Sulawesi Tengah 94565","Airterang, Kec. Tiloan, Kabupaten Buol",SULAWESI TENGAH,94565.0,Indonesia,,,,1.0728709,121.2786629,https://maps.google.com/?cid=0x0:0xd7fe4e74f6ffff36,
komplek housing,Komplek perumahan,Melly,"28HR+VRX, Jatimulyo, Kec. Tiloan, Kabupaten Buol, Sulawesi Tengah 94565","Jatimulyo, Kec. Tiloan, Kabupaten Buol",SULAWESI TENGAH,94565.0,Indonesia,,,,1.029744,121.3421,https://maps.google.com/?cid=0x0:0xfd92b7fb7d94744f,
komplek housing,Kantor Pemerintahan Wilayah,dpn rmh dinas camat tiloan,"37CH+Q66, Airterang, Kec. Tiloan, Kabupaten Buol, Sulawesi Tengah 94565","Airterang, Kec. Tiloan, Kabupaten Buol",SULAWESI TENGAH,94565.0,Indonesia,,,,1.0719125,121.2780156,https://maps.google.com/?cid=0x0:0x6c1b8031cb9aad2,
komplek housing,Komplek perumahan,rumah ku,"3754+R6W, Airterang, Kec. Tiloan, Kabupaten Buol, Sulawesi Tengah 94565","Airterang, Kec. Tiloan, Kabupaten Buol",SULAWESI TENGAH,94565.0,Indonesia,,,,1.059268,121.256217,https://maps.google.com/?cid=0x0:0xccfc0c5d8609a6e0,
komplek housing,Pembangunan Perumahan,Rumah Sukron dan Huda,"X7J3+GF, Kokobuka, Kec. Tiloan, Kabupaten Buol, Sulawesi Tengah","Kabupaten Buol, Sulawesi Tengah",SULAWESI TENGAH,,Indonesia,,,,0.9810937,121.2533177,https://maps.google.com/?cid=0x0:0xdb22305dfcf32e8,
komplek housing,komplek housing,RISKAL BATALIPU,"36VH+M83, Airterang, Kec. Tiloan, Kabupaten Buol, Sulawesi Tengah","Kabupaten Buol, Sulawesi Tengah",SULAWESI TENGAH,,Indonesia,,,,1.0941381,121.2282958,https://maps.google.com/?cid=0x0:0x44e05f79cabb000,
komplek housing,komplek housing,Central,"XCHF+HR6, Winangun, Kec. Bukal, Kabupaten Buol, Sulawesi Tengah 94564","Winangun, Kec. Bukal, Kabupaten Buol",SULAWESI TENGAH,94564.0,Indonesia,,,,0.9789111,121.4245221,https://maps.google.com/?cid=0x0:0xee227f1bf54e09d8,
komplek housing,Komplek perumahan,Rumah Aryan,"5C5H+QJ5, Buol, Kec. Biau, Kabupaten Buol, Sulawesi Tengah 94565","Buol, Kec. Biau, Kabupaten Buol",SULAWESI TENGAH,94565.0,Indonesia,,,,1.1593812,121.4291228,https://maps.google.com/?cid=0x0:0xba27188d3829feda,
komplek housing,Pembangunan Perumahan,Perumahan Staf PT HIP DIVISI 2,"29GQ+J9P, Yugut, Kec. Bukal, Kabupaten Buol, Sulawesi Tengah","Kabupaten Buol, Sulawesi Tengah",SULAWESI TENGAH,,Indonesia,,,,1.0265795,121.3884671,https://maps.google.com/?cid=0x0:0xc0e52a362714e65a,
komplek housing,komplek housing,rumahku,"4CX5+F98, Jl. Anoa, Kulango, Kec. Biau, Kabupaten Buol, Sulawesi Tengah 94565","Jl. Anoa, Kulango, Kec. Biau, Kabupaten Buol",SULAWESI TENGAH,94565.0,Indonesia,,,,1.1486674,121.4084614,https://maps.google.com/?cid=0x0:0xa3e802983ff2201d,
komplek housing,Komplek perumahan,Rumah mendiang rizki,"X7J5+C54, Kokobuka, Kec. Tiloan, Kabupaten Buol, Sulawesi Tengah","Kabupaten Buol, Sulawesi Tengah",SULAWESI TENGAH,,Indonesia,,,,0.9810099,121.2579405,https://maps.google.com/?cid=0x0:0xed27a25a5054c43f,
komplek housing,Komplek perumahan,Pembibitan gharu,"3763+MQQ, Airterang, Kec. Tiloan, Kabupaten Buol, Sulawesi Tengah 94565","Airterang, Kec. Tiloan, Kabupaten Buol",SULAWESI TENGAH,94565.0,Indonesia,,,,1.0606992,121.2541121,https://maps.google.com/?cid=0x0:0x4a0e6ac39ba3f593,
komplek housing,komplek housing,Kec. Tiloan,"Kabupaten Buol, Sulawesi Tengah","Kabupaten Buol, Sulawesi Tengah",SULAWESI TENGAH,,Indonesia,,,,0.971428,121.1710389,https://maps.google.com/?cid=0x0:0x6770062a0f1e0c7c,
komplek housing,Komplek perumahan,Rumah Sri rahayu,"3765+4WP, Airterang, Kec. Tiloan, Kabupaten Buol, Sulawesi Tengah 94565","Airterang, Kec. Tiloan, Kabupaten Buol",SULAWESI TENGAH,94565.0,Indonesia,,,,1.0603554,121.259876,https://maps.google.com/?cid=0x0:0xb9ba028ac85ced,
komplek housing,Komplek perumahan,Rumah pak Ripa'al,"27FR+CF9, Panilan Jaya, Kec. Tiloan, Kabupaten Buol, Sulawesi Tengah 94565","Panilan Jaya, Kec. Tiloan, Kabupaten Buol",SULAWESI TENGAH,94565.0,Indonesia,,,,1.0235341,121.2912463,https://maps.google.com/?cid=0x0:0x3976f426d52835c7,
komplek housing,Komplek perumahan,Rumah mbak ety,"38G2+PMX, Rawa Makmur, Boilan, Kec. Tiloan, Kabupaten Buol, Sulawesi Tengah 94565","Rawa Makmur, Boilan, Kec. Tiloan, Kabupaten Buol",SULAWESI TENGAH,94565.0,Indonesia,,,,1.0769382,121.3017415,https://maps.google.com/?cid=0x0:0xc14f5dd4a5912ae5,
komplek housing,Komplek perumahan,Ikadek Agus tama,"37JR+CFH, Boilan, Kec. Tiloan, Kabupaten Buol, Sulawesi Tengah 94565","Boilan, Kec. Tiloan, Kabupaten Buol",SULAWESI TENGAH,94565.0,Indonesia,,,,1.081068,121.2912463,https://maps.google.com/?cid=0x0:0xcb8d638752eb89b4,
komplek housing,Komplek perumahan,Lokasi Pak Alm. Pak Syamsuri,"27HM+Q28, Panilan Jaya, Kec. Tiloan, Kabupaten Buol, Sulawesi Tengah 94565","Panilan Jaya, Kec. Tiloan, Kabupaten Buol",SULAWESI TENGAH,94565.0,Indonesia,,,,1.0294152,121.2825863,https://maps.google.com/?cid=0x0:0x770a2d71fb06f273,
komplek housing,Komplek perumahan,ð¾ððð¼ðð ðð¼ððð¼ð,"3754+R6W, Airterang, Kec. Tiloan, Kabupaten Buol, Sulawesi Tengah 94565","Airterang, Kec. Tiloan, Kabupaten Buol",SULAWESI TENGAH,94565.0,Indonesia,,,,1.0592597,121.2549813,https://maps.google.com/?cid=0x0:0x38945918ab1ef3b0,
komplek housing,Komplek perumahan,Tanjakan Afnan,"27H2+6FP, Lomuli, Kec. Tiloan, Kabupaten Buol, Sulawesi Tengah 94565","Lomuli, Kec. Tiloan, Kabupaten Buol",SULAWESI TENGAH,94565.0,Indonesia,,,,1.0280769,121.2511908,https://maps.google.com/?cid=0x0:0xb87036b62813c734,
komplek housing,Komplek perumahan,Mamiq sena,"Blok E, Panilan Jaya, Kec. Tiloan, Kabupaten Buol, Sulawesi Tengah 94565","Panilan Jaya, Kec. Tiloan, Kabupaten Buol",SULAWESI TENGAH,94565.0,Indonesia,,,,1.0235341,121.2912463,https://maps.google.com/?cid=0x0:0xaa43312830af9dd4,
perumahan,perumahan,Biau,"Kec. Bukal, Kabupaten Buol, Sulawesi Tengah","Kabupaten Buol, Sulawesi Tengah",SULAWESI TENGAH,,Indonesia,,,,1.0813143,121.4484747,https://maps.google.com/?cid=0x0:0xd4aa98bb7cffee59,
perumahan,Komplek perumahan,Rusli MKTP/TURIS Indonesia,"3CHV+88W, Biau, Kec. Bukal, Kabupaten Buol, Sulawesi Tengah 94563","Biau, Kec. Bukal, Kabupaten Buol",SULAWESI TENGAH,94563.0,Indonesia,,,,1.0783613,121.4433069,https://maps.google.com/?cid=0x0:0x5106357222ecbfb9,
perumahan,Komplek perumahan,Asmini husen,"3C9P+MR3, Diat, Kec. Bukal, Kabupaten Buol, Sulawesi Tengah 94563","Diat, Kec. Bukal, Kabupaten Buol",SULAWESI TENGAH,94563.0,Indonesia,,,,1.069128,121.4370471,https://maps.google.com/?cid=0x0:0x7673128f17e7d793,
perumahan,Komplek perumahan,Rumah serli wahyuni m.ali,"3C9P+F63, Diat, Kec. Bukal, Kabupaten Buol, Sulawesi Tengah 94563","Diat, Kec. Bukal, Kabupaten Buol",SULAWESI TENGAH,94563.0,Indonesia,,,,1.0686324,121.4355346,https://maps.google.com/?cid=0x0:0xaa2a836396cbb663,
perumahan,perumahan,Rumah Uminyarofiq,"3CJX+GCC, Biau, Kec. Bukal, Kabupaten Buol, Sulawesi Tengah 94563","Biau, Kec. Bukal, Kabupaten Buol",SULAWESI TENGAH,94563.0,Indonesia,,,,1.0813096,121.4485243,https://maps.google.com/?cid=0x0:0x48f893dfa8d01af4,
perumahan,perumahan,Rumah Deni,"3CHR+4P6, Unnamed Road, Biau, Kec. Bukal, Kabupaten Buol, Sulawesi Tengah 94563","Unnamed Road, Biau, Kec. Bukal, Kabupaten Buol",SULAWESI TENGAH,94563.0,Indonesia,,,,1.0777939,121.4417596,https://maps.google.com/?cid=0x0:0x47795ec015b608d2,
perumahan,perumahan,Lapak Olshop Ghifari,"3CJX+G9H, Biau, Kec. Bukal, Kabupaten Buol, Sulawesi Tengah 94563","Biau, Kec. Bukal, Kabupaten Buol",SULAWESI TENGAH,94563.0,Indonesia,,,,1.0813143,121.4484747,https://maps.google.com/?cid=0x0:0x9668a211fabcd697,
perumahan,perumahan,"Orinda, California 94563","Orinda, California, Amerika Serikat","Orinda, California, Amerika Serikat",SULAWESI TENGAH,,Indonesia,,,,37.8912529,-122.1859572,https://maps.google.com/?cid=0x0:0x4b1085f0203b9df8,
perumahan,Toko Swalayan,Didi,"3C9P+MR3, Diat, Kec. Bukal, Kabupaten Buol, Sulawesi Tengah 94563","Diat, Kec. Bukal, Kabupaten Buol",SULAWESI TENGAH,94563.0,Indonesia,82282972858.0,,,1.069128,121.4370471,https://maps.google.com/?cid=0x0:0x28390a475a2d3037,
perumahan,perumahan,Claremont Resort  Club,"41 Tunnel Rd, Berkeley, CA 94705, Amerika Serikat","Berkeley, CA",SULAWESI TENGAH,94705.0,Indonesia,15108433000.0,,,37.8590352,-122.2420658,https://maps.google.com/?cid=0x0:0x9a05b7489b6618d,
perumahan,perumahan,Rumah Mori.com,"X6PF+GC5, Blau, luhuto, Kec. Tolinggula, Kabupaten Gorontalo Utara, Gorontalo","Kabupaten Gorontalo Utara, Gorontalo",SULAWESI TENGAH,,Indonesia,,,,0.986265,122.223602,https://maps.google.com/?cid=0x0:0x999e813dad7e5d13,
perumahan,perumahan,96524 FÃ¶ritztal,"FÃ¶ritztal, Jerman","FÃ¶ritztal, Jerman",SULAWESI TENGAH,,Indonesia,,,,50.3154831,11.2014867,https://maps.google.com/?cid=0x0:0x1c208ec4c8c7f090,
perumahan,perumahan,Aparthotel Rotheul - Butz  Butz GbR,"Ob. DorfstraÃe 5, 96524 FÃ¶ritztal, Jerman",FÃ¶ritztal,SULAWESI TENGAH,96524.0,Indonesia,4936764818880.0,,,50.2871252,11.2414409,https://maps.google.com/?cid=0x0:0x96139ecfff50275c,
perumahan,Komplek perumahan,Bokat Sulawesi tengah,"3GP2+VQ4, Bokat, Kec. Bokat, Kabupaten Buol, Sulawesi Tengah","Kabupaten Buol, Sulawesi Tengah",SULAWESI TENGAH,,Indonesia,,,,1.0871285,121.5019526,https://maps.google.com/?cid=0x0:0x10b59fafe7c85043,
perumahan,Komplek perumahan,Rumah Rendi maulana,"2GMH+RRC, Tikopo, Kec. Bokat, Kabupaten Buol, Sulawesi Tengah 94566","Tikopo, Kec. Bokat, Kabupaten Buol",SULAWESI TENGAH,94566.0,Indonesia,,,,1.0345667,121.5295467,https://maps.google.com/?cid=0x0:0x281f246c8a03985d,
perumahan,perumahan,Sulawesi Tengah 94564,"Kec. Bukal, Kabupaten Buol, Sulawesi Tengah","Kabupaten Buol, Sulawesi Tengah",SULAWESI TENGAH,,Indonesia,,,,0.9524639,121.422761,https://maps.google.com/?cid=0x0:0x4fb25c099e08028b,
perumahan,Komplek perumahan,Azzahra,"3GJ9+R2, Tang, Kec. Bokat, Kabupaten Buol, Sulawesi Tengah","Kabupaten Buol, Sulawesi Tengah",SULAWESI TENGAH,,Indonesia,,,,1.0822134,121.517346,https://maps.google.com/?cid=0x0:0x11abbab818d3fe0e,
perumahan,Komplek perumahan,Rumah Ameldianti,"3FMH+RHJ, Kodolagon, Kec. Bokat, Kabupaten Buol, Sulawesi Tengah","Kabupaten Buol, Sulawesi Tengah",SULAWESI TENGAH,,Indonesia,,,,1.0845981,121.4788781,https://maps.google.com/?cid=0x0:0xb2e765a5d2523bb8,
perumahan,Komplek perumahan,Sinar Jaya,"4F3Q+2X8, Kantanan, Kec. Bokat, Kabupaten Buol, Sulawesi Tengah 94564","Kantanan, Kec. Bokat, Kabupaten Buol",SULAWESI TENGAH,94564.0,Indonesia,,,,1.1011661,121.4914513,https://maps.google.com/?cid=0x0:0x9a8bc05ccbbafaa7,
perumahan,Komplek perumahan,Rumah mangge poy,"4FG8+3MH, Jl. Buol - Gorontalo, Negeri Lama, Kec. Bokat, Kabupaten Buol, Sulawesi Tengah 94564","Jl. Buol - Gorontalo, Negeri Lama, Kec. Bokat, Kabupaten Buol",SULAWESI TENGAH,94564.0,Indonesia,,,,1.1253183,121.4667045,https://maps.google.com/?cid=0x0:0x8015d75d3468a564,
perumahan,Komplek perumahan,kecamatan bokat,"3GM9+9W9, Tang, Kec. Bokat, Kabupaten Buol, Sulawesi Tengah 94566","Tang, Kec. Bokat, Kabupaten Buol",SULAWESI TENGAH,94566.0,Indonesia,,,,1.0833748,121.519804,https://maps.google.com/?cid=0x0:0x367ce405b835d053,
perumahan,Komplek perumahan,Gauri Adellyna Putri,"2GM7+9PF, Bokat IV, Kec. Bokat, Kabupaten Buol, Sulawesi Tengah 94566","Bokat IV, Kec. Bokat, Kabupaten Buol",SULAWESI TENGAH,94566.0,Indonesia,,,,1.03367,121.5134645,https://maps.google.com/?cid=0x0:0x2d753f03e262bfc8,
perumahan,Komplek perumahan,Rumah surya purnama,"2GJJ+HW, Tikopo, Kec. Bokat, Kabupaten Buol, Sulawesi Tengah","Kabupaten Buol, Sulawesi Tengah",SULAWESI TENGAH,,Indonesia,,,,1.0313838,121.5323314,https://maps.google.com/?cid=0x0:0xfe12c7393b4e31c1,
perumahan,Komplek perumahan,LORONG KODOK,"XC89+8W2, Winangun, Kec. Bukal, Kabupaten Buol, Sulawesi Tengah 94564","Winangun, Kec. Bukal, Kabupaten Buol",SULAWESI TENGAH,94564.0,Indonesia,,,,0.965758,121.4197683,https://maps.google.com/?cid=0x0:0x2ce2c959828e4e31,
perumahan,Komplek perumahan,Knp buol,"2GM5+V6W, Bokat IV, Kec. Bokat, Kabupaten Buol, Sulawesi Tengah","Kabupaten Buol, Sulawesi Tengah",SULAWESI TENGAH,,Indonesia,,,,1.0347407,121.5080675,https://maps.google.com/?cid=0x0:0x2c2c33ee55651596,
perumahan,Komplek perumahan,Rumah Aldi Pratama,"2F8V+PRX, Duwamayo, Kec. Bokat, Kabupaten Buol, Sulawesi Tengah","Kabupaten Buol, Sulawesi Tengah",SULAWESI TENGAH,,Indonesia,,,,1.0168696,121.4946133,https://maps.google.com/?cid=0x0:0x8e8779e9b703d1fe,
perumahan,Komplek perumahan,Laundry karpet Bokat,"Bokat, Kec. Bokat, Kabupaten Buol, Sulawesi Tengah","Kabupaten Buol, Sulawesi Tengah",SULAWESI TENGAH,,Indonesia,,,,1.0866429,121.5081909,https://maps.google.com/?cid=0x0:0xa8937df5a27ed68d,
perumahan,Pembangunan Perumahan,Rumah Maryam Iladata,"2GM7+7QQ, Unnamed Road, Langudon, Kec. Bokat, Kabupaten Buol, Sulawesi Tengah 94566","Unnamed Road, Langudon, Kec. Bokat, Kabupaten Buol",SULAWESI TENGAH,94566.0,Indonesia,,,,1.033222,121.514473,https://maps.google.com/?cid=0x0:0x4bf00c885c62b124,
perumahan,Komplek perumahan,Rumah hidaya pamentar,"3GP2+VQ4, Bokat, Kec. Bokat, Kabupaten Buol, Sulawesi Tengah","Kabupaten Buol, Sulawesi Tengah",SULAWESI TENGAH,,Indonesia,,,,1.0871285,121.5019526,https://maps.google.com/?cid=0x0:0x5015aae38b860b3a,
perumahan,Perhimpunan Pengembang Perumahan,Rumah fazri,"2GQ2+C3, Bokat IV, Kec. Bokat, Kabupaten Buol, Sulawesi Tengah","Kabupaten Buol, Sulawesi Tengah",SULAWESI TENGAH,,Indonesia,,,,1.0385773,121.5001802,https://maps.google.com/?cid=0x0:0x792d07256a84a7b6,
perumahan,,Lorong 4 desa modo,"2F83+WX9, Modo, Kec. Bukal, Kabupaten Buol, Sulawesi Tengah 94564","Modo, Kec. Bukal, Kabupaten Buol",SULAWESI TENGAH,94564.0,Indonesia,,,,1.017276,121.4549732,https://maps.google.com/?cid=0x0:0xb32473cd84b2f6df,
perumahan,Komplek perumahan,Perum Type G Lorong Sirsak,"XCJH+4C6, Winangun, Kec. Bukal, Kabupaten Buol, Sulawesi Tengah 94564","Winangun, Kec. Bukal, Kabupaten Buol",SULAWESI TENGAH,94564.0,Indonesia,81245148108.0,,,0.9802771,121.4285015,https://maps.google.com/?cid=0x0:0xef4251bfc7724939,
perumahan,Komplek perumahan,Desa Bongo Kecamatan Bokat Kabupaten Buol,"3G2H+M9F, Bongo, Kec. Bokat, Kabupaten Buol, Sulawesi Tengah 94566","Bongo, Kec. Bokat, Kabupaten Buol",SULAWESI TENGAH,94566.0,Indonesia,82296070448.0,,,1.0516829,121.5284363,https://maps.google.com/?cid=0x0:0x71a00b98f8745eb8,
perumahan,Pembangunan Perumahan,Rumah Yunan,"4F3Q+GQC, Kantanan, Kec. Bokat, Kabupaten Buol, Sulawesi Tengah 94564","Kantanan, Kec. Bokat, Kabupaten Buol",SULAWESI TENGAH,94564.0,Indonesia,,,,1.1041636,121.4887912,https://maps.google.com/?cid=0x0:0x231f999de70e6e90,
perumahan,Toko,Wawan,"3FQJ+V3H, Kodolagon, Kec. Bokat, Kabupaten Buol, Sulawesi Tengah 94564","Kodolagon, Kec. Bokat, Kabupaten Buol",SULAWESI TENGAH,94564.0,Indonesia,,,,1.0896702,121.48061,https://maps.google.com/?cid=0x0:0xe167f72fae80f1de,
perumahan,Komplek perumahan,Kisman,"3FMH+8RX, Kodolagon, Kec. Bokat, Kabupaten Buol, Sulawesi Tengah","Kabupaten Buol, Sulawesi Tengah",SULAWESI TENGAH,,Indonesia,,,,1.0833662,121.4796026,https://maps.google.com/?cid=0x0:0xd3a80c45ee880044,
perumahan,perumahan,LAUNDRY KARPET BIKAT,"3FFX+2X2, Lorong pantai Dusun 3, RT.005/RW.003, Bokat, Kec. Bokat, Kabupaten Buol, Sulawesi Tengah","Kabupaten Buol, Sulawesi Tengah",SULAWESI TENGAH,,Indonesia,,,,1.0725136,121.499885,https://maps.google.com/?cid=0x0:0x5720a881751f1376,
perumahan,Komplek perumahan,Rumah Li ta rita,"4, Bongo","Kabupaten Buol, Sulawesi Tengah",SULAWESI TENGAH,,Indonesia,,,,1.0516829,121.5284363,https://maps.google.com/?cid=0x0:0x6e233b0ebc73fac4,
perumahan,perumahan,"Pinole, California 94564","Pinole, California, Amerika Serikat","Pinole, California, Amerika Serikat",SULAWESI TENGAH,,Indonesia,,,,37.9963136,-122.2937428,https://maps.google.com/?cid=0x0:0xf30a0507dcbf635,
perumahan,perumahan,Days Inn by Wyndham Pinole Berkeley,"2600 Appian Way, Pinole, CA 94564, Amerika Serikat","Pinole, CA",SULAWESI TENGAH,94564.0,Indonesia,15103744540.0,,,37.9893831,-122.2995678,https://maps.google.com/?cid=0x0:0xfa183f379e7dd88a,
perumahan,perumahan,Sulawesi Tengah 94566,"Kabupaten Buol, Sulawesi Tengah","Kabupaten Buol, Sulawesi Tengah",SULAWESI TENGAH,,Indonesia,,,,1.0492803,121.5598345,https://maps.google.com/?cid=0x0:0x8a0608e9353e57de,
perumahan,Pembangunan Perumahan,Perumahan Nelayan Doulan no.29,"3GGP+82R, Doulan, Kec. Bokat, Kabupaten Buol, Sulawesi Tengah 94566","Doulan, Kec. Bokat, Kabupaten Buol",SULAWESI TENGAH,94566.0,Indonesia,,,,1.0758728,121.5350284,https://maps.google.com/?cid=0x0:0xe216a8c86b71d9fc,
perumahan,Komplek perumahan,kecamatan bokat,"3GM9+9W9, Tang, Kec. Bokat, Kabupaten Buol, Sulawesi Tengah 94566","Tang, Kec. Bokat, Kabupaten Buol",SULAWESI TENGAH,94566.0,Indonesia,,,,1.0833748,121.519804,https://maps.google.com/?cid=0x0:0x367ce405b835d053,
perumahan,Pembangunan Perumahan,Hartati Home,"3H72+CQ7, Jl. Buol - Gorontalo, Bukamog, Kec. Bokat, Kabupaten Buol, Sulawesi Tengah 94566","Jl. Buol - Gorontalo, Bukamog, Kec. Bokat, Kabupaten Buol",SULAWESI TENGAH,94566.0,Indonesia,82271561745.0,,,1.063533,121.5519324,https://maps.google.com/?cid=0x0:0x311f4ecf4790ef62,
perumahan,Komplek perumahan,Desa Bongo Kecamatan Bokat Kabupaten Buol,"3G2H+M9F, Bongo, Kec. Bokat, Kabupaten Buol, Sulawesi Tengah 94566","Bongo, Kec. Bokat, Kabupaten Buol",SULAWESI TENGAH,94566.0,Indonesia,82296070448.0,,,1.0516829,121.5284363,https://maps.google.com/?cid=0x0:0x71a00b98f8745eb8,
perumahan,perumahan,Rumah 7R,"3H37+QX4, Tayadun, Kec. Bokat, Kabupaten Buol, Sulawesi Tengah 94566","Tayadun, Kec. Bokat, Kabupaten Buol",SULAWESI TENGAH,94566.0,Indonesia,,,,1.0543893,121.5649528,https://maps.google.com/?cid=0x0:0x41432cb2f0f59073,
perumahan,Komplek perumahan,Rumah putu sri,"2GP2+RF3, Bokat IV, Kec. Bokat, Kabupaten Buol, Sulawesi Tengah","Kabupaten Buol, Sulawesi Tengah",SULAWESI TENGAH,,Indonesia,,,,1.0370135,121.5011656,https://maps.google.com/?cid=0x0:0x460a7bfaf49e2264,
perumahan,Pembangunan Perumahan,Rumah Maryam Iladata,"2GM7+7QQ, Unnamed Road, Langudon, Kec. Bokat, Kabupaten Buol, Sulawesi Tengah 94566","Unnamed Road, Langudon, Kec. Bokat, Kabupaten Buol",SULAWESI TENGAH,94566.0,Indonesia,,,,1.033222,121.514473,https://maps.google.com/?cid=0x0:0x4bf00c885c62b124,
perumahan,Komplek perumahan,Ari M,"3G8X+M34, Jl. Buol - Gorontalo, Bukamog, Kec. Bokat, Kabupaten Buol, Sulawesi Tengah 94566","Jl. Buol - Gorontalo, Bukamog, Kec. Bokat, Kabupaten Buol",SULAWESI TENGAH,94566.0,Indonesia,82291865104.0,,,1.0666266,121.5476939,https://maps.google.com/?cid=0x0:0x92c49215417f2a,
perumahan,Komplek perumahan,Rumah surya purnama,"2GJJ+HW, Tikopo, Kec. Bokat, Kabupaten Buol, Sulawesi Tengah","Kabupaten Buol, Sulawesi Tengah",SULAWESI TENGAH,,Indonesia,,,,1.0313838,121.5323314,https://maps.google.com/?cid=0x0:0xfe12c7393b4e31c1,
perumahan,perumahan,Family batalipu,"3H38+V2H, Tayadun, Kec. Bokat, Kabupaten Buol, Sulawesi Tengah 94566","Tayadun, Kec. Bokat, Kabupaten Buol",SULAWESI TENGAH,94566.0,Indonesia,,,,1.0546879,121.5651061,https://maps.google.com/?cid=0x0:0xe1da01b66282ce2,
perumahan,Komplek perumahan,Rumah Rendi maulana,"2GMH+RRC, Tikopo, Kec. Bokat, Kabupaten Buol, Sulawesi Tengah 94566","Tikopo, Kec. Bokat, Kabupaten Buol",SULAWESI TENGAH,94566.0,Indonesia,,,,1.0345667,121.5295467,https://maps.google.com/?cid=0x0:0x281f246c8a03985d,
perumahan,Komplek perumahan,Salsa?,"3H67+7HG, Tayadun, Kec. Bokat, Kabupaten Buol, Sulawesi Tengah 94566","Tayadun, Kec. Bokat, Kabupaten Buol",SULAWESI TENGAH,94566.0,Indonesia,,,,1.060676,121.5639684,https://maps.google.com/?cid=0x0:0x1607564e9142b368,
perumahan,Komplek perumahan,Rumah Ameldianti,"3FMH+RHJ, Kodolagon, Kec. Bokat, Kabupaten Buol, Sulawesi Tengah","Kabupaten Buol, Sulawesi Tengah",SULAWESI TENGAH,,Indonesia,,,,1.0845981,121.4788781,https://maps.google.com/?cid=0x0:0xb2e765a5d2523bb8,
perumahan,Komplek perumahan,Laundry karpet Bokat,"Bokat, Kec. Bokat, Kabupaten Buol, Sulawesi Tengah","Kabupaten Buol, Sulawesi Tengah",SULAWESI TENGAH,,Indonesia,,,,1.0866429,121.5081909,https://maps.google.com/?cid=0x0:0xa8937df5a27ed68d,
perumahan,Komplek perumahan,Azzahra,"3GJ9+R2, Tang, Kec. Bokat, Kabupaten Buol, Sulawesi Tengah","Kabupaten Buol, Sulawesi Tengah",SULAWESI TENGAH,,Indonesia,,,,1.0822134,121.517346,https://maps.google.com/?cid=0x0:0x11abbab818d3fe0e,
perumahan,perumahan,Sulistiani Ajun,"3GGM+85H, Doulan, Kec. Bokat, Kabupaten Buol, Sulawesi Tengah 94566","Doulan, Kec. Bokat, Kabupaten Buol",SULAWESI TENGAH,94566.0,Indonesia,,,,1.074668,121.533691,https://maps.google.com/?cid=0x0:0x757489fa9b0446f6,
perumahan,perumahan,LAUNDRY KARPET BIKAT,"3FFX+2X2, Lorong pantai Dusun 3, RT.005/RW.003, Bokat, Kec. Bokat, Kabupaten Buol, Sulawesi Tengah","Kabupaten Buol, Sulawesi Tengah",SULAWESI TENGAH,,Indonesia,,,,1.0725136,121.499885,https://maps.google.com/?cid=0x0:0x5720a881751f1376,
perumahan,Komplek perumahan,Rumah Li ta rita,"4, Bongo","Kabupaten Buol, Sulawesi Tengah",SULAWESI TENGAH,,Indonesia,,,,1.0516829,121.5284363,https://maps.google.com/?cid=0x0:0x6e233b0ebc73fac4,
perumahan,Kedai Kopi,Rumah Elvano ( Ganes ),"2GM5+M9, Bokat IV, Kec. Bokat, Kabupaten Buol, Sulawesi Tengah 94566","Bokat IV, Kec. Bokat, Kabupaten Buol",SULAWESI TENGAH,94566.0,Indonesia,82297752028.0,,,1.034105,121.5086283,https://maps.google.com/?cid=0x0:0x66e8224a9d500169,
perumahan,Gereja,Pastori Jemaat Maranatha,"3GR2+6P2, Bokat, Kec. Bokat, Kabupaten Buol, Sulawesi Tengah","Kabupaten Buol, Sulawesi Tengah",SULAWESI TENGAH,,Indonesia,,,,1.0905089,121.5017761,https://maps.google.com/?cid=0x0:0x9b156369cfb665b1,
perumahan,Pembangunan Perumahan,Rumah Delvi w jamal,"3H65+92X, Bukamog, Kec. Bokat, Kabupaten Buol, Sulawesi Tengah 94566","Bukamog, Kec. Bokat, Kabupaten Buol",SULAWESI TENGAH,94566.0,Indonesia,,,,1.0609875,121.5576094,https://maps.google.com/?cid=0x0:0xb553f2d130bacd4b,
perumahan,Komplek perumahan,RIDWAN P.,"3GMC+8J9, Tang, Kec. Bokat, Kabupaten Buol, Sulawesi Tengah 94566","Tang, Kec. Bokat, Kabupaten Buol",SULAWESI TENGAH,94566.0,Indonesia,,,,1.0832991,121.5216942,https://maps.google.com/?cid=0x0:0x7e3a6c5dd98a898e,
perumahan,perumahan,Sulawesi Tengah 94563,"Kabupaten Buol, Sulawesi Tengah","Kabupaten Buol, Sulawesi Tengah",SULAWESI TENGAH,,Indonesia,,,,1.2003229,121.3084088,https://maps.google.com/?cid=0x0:0x6c422b6673dca949,
perumahan,Komplek perumahan,Rumah Buol,"5CP8+5C7, Leok I, Kec. Biau, Kabupaten Buol, Sulawesi Tengah 94563","Leok I, Kec. Biau, Kabupaten Buol",SULAWESI TENGAH,94563.0,Indonesia,,,,1.1853442,121.4162123,https://maps.google.com/?cid=0x0:0xac445a825b802150,
perumahan,Otoritas Perumahan,Bele li Nada,"Perum Kulango Indah No.29, Kulango, Biau, Buol Regency, Central Sulawesi","Kabupaten Buol, Sulawesi Tengah",SULAWESI TENGAH,,Indonesia,,,,1.1560535,121.409147,https://maps.google.com/?cid=0x0:0x62a6512b44f73404,
perumahan,Komplek perumahan,Perumahan Pengadilan Negeri Buol,"5C6H+V9G, Kali, Kec. Biau, Kabupaten Buol, Sulawesi Tengah 94563","Kali, Kec. Biau, Kabupaten Buol",SULAWESI TENGAH,94563.0,Indonesia,,,,1.1621957,121.4284663,https://maps.google.com/?cid=0x0:0x895cc49f370d8cba,
perumahan,Komplek perumahan,Ngune,"Jl. Buol - Tolitoli No.11, Lakea 1, Kec. Lakea, Kabupaten Buol, Sulawesi Tengah 94563","Lakea 1, Kec. Lakea, Kabupaten Buol",SULAWESI TENGAH,94563.0,Indonesia,,,,1.2318561,121.2387137,https://maps.google.com/?cid=0x0:0x8a08b4ddbfb23479,
perumahan,Komplek perumahan,Rumah padanya sule,"68RV+HH, Busak II, Kec. Karamat, Kabupaten Buol, Sulawesi Tengah","Kabupaten Buol, Sulawesi Tengah",SULAWESI TENGAH,,Indonesia,,,,1.2414552,121.3439653,https://maps.google.com/?cid=0x0:0xf4335fd5a4a6eef8,
perumahan,Kantor Pemerintah,DESA UNONE KECAMATAN BUKAL,"3C5P+RG4, Unone, Kec. Bukal, Kabupaten Buol, Sulawesi Tengah 94563","Unone, Kec. Bukal, Kabupaten Buol",SULAWESI TENGAH,94563.0,Indonesia,,,,1.0607024,121.4352382,https://maps.google.com/?cid=0x0:0x2a4124e385b677f6,
perumahan,Pembangunan Perumahan,Morombue,"Jl. Buol - Tolitoli No.69, Lakea II, Kec. Lakea, Kabupaten Buol, Sulawesi Tengah 94563","Lakea II, Kec. Lakea, Kabupaten Buol",SULAWESI TENGAH,94563.0,Indonesia,,,,1.2296688,121.2575621,https://maps.google.com/?cid=0x0:0x5bc3f33209104606,
perumahan,Komplek perumahan,Rumah Gam Zam Zwar,"5C89+XRQ, Leok II, Kec. Biau, Kabupaten Buol, Sulawesi Tengah 94563","Leok II, Kec. Biau, Kabupaten Buol",SULAWESI TENGAH,94563.0,Indonesia,,,,1.167456,121.4198205,https://maps.google.com/?cid=0x0:0x3d59887f3bb3aa74,
perumahan,Pembangunan Perumahan,M.Sabri,"Kali, Kec. Biau, Kabupaten Buol, Sulawesi Tengah","Kabupaten Buol, Sulawesi Tengah",SULAWESI TENGAH,,Indonesia,,,,1.1724989,121.3977571,https://maps.google.com/?cid=0x0:0x1b7591b0c503421,
perumahan,Komplek perumahan,BTN Kulango Indah,"5C45+PJV, Kulango, Kec. Biau, Kabupaten Buol, Sulawesi Tengah 94565","Kulango, Kec. Biau, Kabupaten Buol",SULAWESI TENGAH,94565.0,Indonesia,,,,1.1568698,121.4090482,https://maps.google.com/?cid=0x0:0x7fb441dc96decf28,
perumahan,Komplek perumahan,Rumah serli wahyuni m.ali,"3C9P+F63, Diat, Kec. Bukal, Kabupaten Buol, Sulawesi Tengah 94563","Diat, Kec. Bukal, Kabupaten Buol",SULAWESI TENGAH,94563.0,Indonesia,,,,1.0686324,121.4355346,https://maps.google.com/?cid=0x0:0xaa2a836396cbb663,
perumahan,Komplek perumahan,Perumahan Sanzibar kali,"59CW+35V, Unnamed Road, Kali, Kec. Biau, Kabupaten Buol, Sulawesi Tengah 94563","Unnamed Road, Kali, Kec. Biau, Kabupaten Buol",SULAWESI TENGAH,94563.0,Indonesia,85240848468.0,,,1.170244,121.395413,https://maps.google.com/?cid=0x0:0xe78c26cecf893ad4,
perumahan,Komplek perumahan,Rumah mulyadi dan ningsih,"5C25+QPR, Jl. Macan, Kulango, Kec. Biau, Kabupaten Buol, Sulawesi Tengah 94565","Jl. Macan, Kulango, Kec. Biau, Kabupaten Buol",SULAWESI TENGAH,94565.0,Indonesia,,,,1.1519828,121.4092667,https://maps.google.com/?cid=0x0:0x3fc4e297201babe6,
perumahan,Toko Pakaian,UR Store,"5C78+5QH, Kali, Kec. Biau, Kabupaten Buol, Sulawesi Tengah 94563","Kali, Kec. Biau, Kabupaten Buol",SULAWESI TENGAH,94563.0,Indonesia,,,,1.1634558,121.4165674,https://maps.google.com/?cid=0x0:0x21f768e00f9a14d9,
perumahan,Komplek perumahan,Rusli MKTP/TURIS Indonesia,"3CHV+88W, Biau, Kec. Bukal, Kabupaten Buol, Sulawesi Tengah 94563","Biau, Kec. Bukal, Kabupaten Buol",SULAWESI TENGAH,94563.0,Indonesia,,,,1.0783613,121.4433069,https://maps.google.com/?cid=0x0:0x5106357222ecbfb9,
perumahan,Perumahan,Yuhgiafardila,"4CX7+224, Pajeko, Kec. Momunu, Kabupaten Buol, Sulawesi Tengah 94565","Pajeko, Kec. Momunu, Kabupaten Buol",SULAWESI TENGAH,94565.0,Indonesia,,,,1.1475085,121.4125888,https://maps.google.com/?cid=0x0:0xbd1379e2ef18daf9,
perumahan,Kantor Pemerintah,DESA TUINAN,"67HR+W9W, Tuinan, Kec. Lakea, Kabupaten Buol, Sulawesi Tengah 94563","Tuinan, Kec. Lakea, Kabupaten Buol",SULAWESI TENGAH,94563.0,Indonesia,,,,1.2298622,121.2909609,https://maps.google.com/?cid=0x0:0xf3ed1b55f0217fde,
perumahan,Komplek perumahan,Rumah Rendi,"3F45+8WW, Potangoan, Kec. Bukal, Kabupaten Buol, Sulawesi Tengah 94563","Potangoan, Kec. Bukal, Kabupaten Buol",SULAWESI TENGAH,94563.0,Indonesia,,,,1.0558441,121.4598265,https://maps.google.com/?cid=0x0:0x583c0dea4b5d7f26,
perumahan,perumahan,Katha homeâs,"5C8F+RJH, Jl. Diponegoro, Leok II, Kec. Biau, Kabupaten Buol, Sulawesi Tengah 94563","Jl. Diponegoro, Leok II, Kec. Biau, Kabupaten Buol",SULAWESI TENGAH,94563.0,Indonesia,,,,1.1670698,121.4241228,https://maps.google.com/?cid=0x0:0xbe390de18d3b4f77,
perumahan,Komplek perumahan,rumah achopajri,"Lakea II, Kec. Lakea, Kabupaten Buol, Sulawesi Tengah 94563","Kec. Lakea, Kabupaten Buol",SULAWESI TENGAH,94563.0,Indonesia,,,,1.2281934,121.2444554,https://maps.google.com/?cid=0x0:0x925a5c5d970e6354,
perumahan,Komplek perumahan,Hanan_Asyifa,"67PP+MF3, Jl. Buol - Tolitoli, Tuinan, Kec. Lakea, Kabupaten Buol, Sulawesi Tengah 94563","Jl. Buol - Tolitoli, Tuinan, Kec. Lakea, Kabupaten Buol",SULAWESI TENGAH,94563.0,Indonesia,,,,1.236589,121.2847158,https://maps.google.com/?cid=0x0:0xc901397bb45d6fe1,
perumahan,Komplek perumahan,Hairil Home,"5C88+PXH, Leok II, Kec. Biau, Kabupaten Buol, Sulawesi Tengah 94563","Leok II, Kec. Biau, Kabupaten Buol",SULAWESI TENGAH,94563.0,Indonesia,85240077387.0,,,1.1664339,121.4168874,https://maps.google.com/?cid=0x0:0x4e40a2bae59394f7,
perumahan,perumahan,Kedai Baden Powell,"Komplek mts biau, Kali, Kec. Biau, Kabupaten Buol, Sulawesi Tengah","Kabupaten Buol, Sulawesi Tengah",SULAWESI TENGAH,,Indonesia,,,,1.1590764,121.425297,https://maps.google.com/?cid=0x0:0xb03b6f386c750996,
perumahan,Pembangunan Perumahan,Lorong Maut,"5C89+XPW, Leok II, Kec. Biau, Kabupaten Buol, Sulawesi Tengah 94563","Leok II, Kec. Biau, Kabupaten Buol",SULAWESI TENGAH,94563.0,Indonesia,,,,1.1674912,121.4193366,https://maps.google.com/?cid=0x0:0xb2553955eaa23058,
perumahan,perumahan,Central,"XCHF+HR6, Winangun, Kec. Bukal, Kabupaten Buol, Sulawesi Tengah 94564","Winangun, Kec. Bukal, Kabupaten Buol",SULAWESI TENGAH,94564.0,Indonesia,,,,0.9789111,121.4245221,https://maps.google.com/?cid=0x0:0xee227f1bf54e09d8,
perumahan,perumahan,Sulawesi Tengah 94564,"Kec. Bukal, Kabupaten Buol, Sulawesi Tengah","Kabupaten Buol, Sulawesi Tengah",SULAWESI TENGAH,,Indonesia,,,,0.9524639,121.422761,https://maps.google.com/?cid=0x0:0x4fb25c099e08028b,
perumahan,Komplek perumahan,LORONG KODOK,"XC89+8W2, Winangun, Kec. Bukal, Kabupaten Buol, Sulawesi Tengah 94564","Winangun, Kec. Bukal, Kabupaten Buol",SULAWESI TENGAH,94564.0,Indonesia,,,,0.965758,121.4197683,https://maps.google.com/?cid=0x0:0x2ce2c959828e4e31,
perumahan,Komplek perumahan,ASR,"2F92+7MC, Modo, Kec. Bukal, Kabupaten Buol, Sulawesi Tengah 94564","Modo, Kec. Bukal, Kabupaten Buol",SULAWESI TENGAH,94564.0,Indonesia,,,,1.0181991,121.4516512,https://maps.google.com/?cid=0x0:0x17688170e4b60fd1,
perumahan,Kantor Pemda,transmigrasi,"WCHH+H2V, Upt Bukal I, Kec. Bukal, Kabupaten Buol, Sulawesi Tengah 94564","Upt Bukal I, Kec. Bukal, Kabupaten Buol",SULAWESI TENGAH,94564.0,Indonesia,,,,0.9290088,121.427554,https://maps.google.com/?cid=0x0:0x6be117afa5e9fc06,
perumahan,Komplek perumahan,Rawa Bugel,"XC3R+6H, Rantemaranu, Kec. Bukal, Kabupaten Buol, Sulawesi Tengah","Kabupaten Buol, Sulawesi Tengah",SULAWESI TENGAH,,Indonesia,,,,0.9529783,121.4414611,https://maps.google.com/?cid=0x0:0x9b82da31a53dba45,
perumahan,Komplek perumahan,Rumah Bapa niko,"2F83+QRM, Modo, Kec. Bukal, Kabupaten Buol, Sulawesi Tengah 94564","Modo, Kec. Bukal, Kabupaten Buol",SULAWESI TENGAH,94564.0,Indonesia,,,,1.016967,121.4545616,https://maps.google.com/?cid=0x0:0x66b77f7f64b26ee0,
perumahan,Pembangunan Perumahan,Perumahan haryani,"2F92+7MC, Modo, Kec. Bukal, Kabupaten Buol, Sulawesi Tengah 94564","Modo, Kec. Bukal, Kabupaten Buol",SULAWESI TENGAH,94564.0,Indonesia,,,,1.0184204,121.4513358,https://maps.google.com/?cid=0x0:0x53a5f53b4417fb3b,
perumahan,Perhimpunan Pengembang Perumahan,Home FS,"XC74+RP, Winangun, Kec. Bukal, Kabupaten Buol, Sulawesi Tengah 94564","Winangun, Kec. Bukal, Kabupaten Buol",SULAWESI TENGAH,94564.0,Indonesia,,,,0.9645449,121.4068041,https://maps.google.com/?cid=0x0:0x2c9e9561fc896be5,
perumahan,perumahan,Juliati,"3C7M+9F, Diat, Kec. Bukal, Kabupaten Buol, Sulawesi Tengah","Kabupaten Buol, Sulawesi Tengah",SULAWESI TENGAH,,Indonesia,,,,1.06321,121.433938,https://maps.google.com/?cid=0x0:0xcada95c331533f6d,
perumahan,Komplek perumahan,TheHouse,"3C5P+8V, Unone, Kec. Bukal, Kabupaten Buol, Sulawesi Tengah 94563","Unone, Kec. Bukal, Kabupaten Buol",SULAWESI TENGAH,94563.0,Indonesia,,,,1.0581273,121.4367655,https://maps.google.com/?cid=0x0:0x21edd1afc275588a,
perumahan,Komplek perumahan,Depot Rafania,"Jl. Muktitama 2 No.2, Winangun, Kec. Bukal, Kabupaten Buol, Sulawesi Tengah 94564","Winangun, Kec. Bukal, Kabupaten Buol",SULAWESI TENGAH,94564.0,Indonesia,82189021057.0,,,0.9699903,121.4222563,https://maps.google.com/?cid=0x0:0x72acb0878a82d2bb,
perumahan,Badan Perencanaan dan Pembangunan Kota,mopu,"2CGW+4G, Mopu, Kec. Bukal, Kabupaten Buol, Sulawesi Tengah 94564","Mopu, Kec. Bukal, Kabupaten Buol",SULAWESI TENGAH,94564.0,Indonesia,,,,1.0253501,121.4462671,https://maps.google.com/?cid=0x0:0x8a787340fcf16e6d,
perumahan,Komplek perumahan,modo 3,"XC3X+R2J, Rantemaranu, Kec. Bukal, Kabupaten Buol, Sulawesi Tengah 94564","Rantemaranu, Kec. Bukal, Kabupaten Buol",SULAWESI TENGAH,94564.0,Indonesia,,,,0.9545884,121.447502,https://maps.google.com/?cid=0x0:0xe7bace69e15f1943,
perumahan,Pembangunan Perumahan,Rumah Maryam Iladata,"2GM7+7QQ, Unnamed Road, Langudon, Kec. Bokat, Kabupaten Buol, Sulawesi Tengah 94566","Unnamed Road, Langudon, Kec. Bokat, Kabupaten Buol",SULAWESI TENGAH,94566.0,Indonesia,,,,1.033222,121.514473,https://maps.google.com/?cid=0x0:0x4bf00c885c62b124,
perumahan,,Lorong 4 desa modo,"2F83+WX9, Modo, Kec. Bukal, Kabupaten Buol, Sulawesi Tengah 94564","Modo, Kec. Bukal, Kabupaten Buol",SULAWESI TENGAH,94564.0,Indonesia,,,,1.017276,121.4549732,https://maps.google.com/?cid=0x0:0xb32473cd84b2f6df,
perumahan,Komplek perumahan,Rumah_Tatlim Bacolangi,"2F65+V2J, Unnamed Road, Modo, Kec. Bukal, Kabupaten Buol, Sulawesi Tengah 94564","Unnamed Road, Modo, Kec. Bukal, Kabupaten Buol",SULAWESI TENGAH,94564.0,Indonesia,,,,1.0122067,121.4575116,https://maps.google.com/?cid=0x0:0x66083802f860e9d1,
perumahan,Komplek perumahan,Bpk. syahril,"2F64+WP9, Modo, Kec. Bukal, Kabupaten Buol, Sulawesi Tengah","Kabupaten Buol, Sulawesi Tengah",SULAWESI TENGAH,,Indonesia,,,,1.0122811,121.4568521,https://maps.google.com/?cid=0x0:0xb320c671a581bcee,
perumahan,Komplek perumahan,Rumah firman hidayat,"2F73+XH9, Modo, Kec. Bukal, Kabupaten Buol, Sulawesi Tengah 94564","Modo, Kec. Bukal, Kabupaten Buol",SULAWESI TENGAH,94564.0,Indonesia,,,,1.0149144,121.4539876,https://maps.google.com/?cid=0x0:0x20545c5ea7884db2,
perumahan,Kantor Perusahaan,Penampungan puncak,"293M+3F, Yugut, Kec. Bukal, Kabupaten Buol, Sulawesi Tengah","Kabupaten Buol, Sulawesi Tengah",SULAWESI TENGAH,,Indonesia,,,,1.0026631,121.3836655,https://maps.google.com/?cid=0x0:0xf3feb0930c281045,
perumahan,Area Mendaki,Puncak Cakar Kangit,"X9XJ+76J Puncak Cakar Langit, Yugut, Kec. Bukal, Kabupaten Buol, Sulawesi Tengah 94565","Yugut, Kec. Bukal, Kabupaten Buol",SULAWESI TENGAH,94565.0,Indonesia,,,,0.997735,121.381284,https://maps.google.com/?cid=0x0:0xb97115c6e29fe09a,
perumahan,Pembangunan Perumahan,LR Puncai,"293M+3F, Yugut, Kec. Bukal, Kabupaten Buol, Sulawesi Tengah","Kabupaten Buol, Sulawesi Tengah",SULAWESI TENGAH,,Indonesia,,,,1.0026351,121.3837011,https://maps.google.com/?cid=0x0:0xb7041c507e4ce9d9,
perumahan,Komplek perumahan,Rumah Ameldianti,"3FMH+RHJ, Kodolagon, Kec. Bokat, Kabupaten Buol, Sulawesi Tengah","Kabupaten Buol, Sulawesi Tengah",SULAWESI TENGAH,,Indonesia,,,,1.0845981,121.4788781,https://maps.google.com/?cid=0x0:0xb2e765a5d2523bb8,
perumahan,Komplek perumahan,Rumah Reza,"XC95+MM2, Winangun, Kec. Bukal, Kabupaten Buol, Sulawesi Tengah 94564","Winangun, Kec. Bukal, Kabupaten Buol",SULAWESI TENGAH,94564.0,Indonesia,,,,0.9691442,121.4091356,https://maps.google.com/?cid=0x0:0x6c21a1b15ce4f851,
perumahan,Komplek perumahan,Rumah serli wahyuni m.ali,"3C9P+F63, Diat, Kec. Bukal, Kabupaten Buol, Sulawesi Tengah 94563","Diat, Kec. Bukal, Kabupaten Buol",SULAWESI TENGAH,94563.0,Indonesia,,,,1.0686324,121.4355346,https://maps.google.com/?cid=0x0:0xaa2a836396cbb663,
perumahan,Komplek perumahan,Rumah Aulia Rahmawati,"WFX2+6GP, Rantemaranu, Kec. Bukal, Kabupaten Buol, Sulawesi Tengah 94564","Rantemaranu, Kec. Bukal, Kabupaten Buol",SULAWESI TENGAH,94564.0,Indonesia,,,,0.9480827,121.4513314,https://maps.google.com/?cid=0x0:0xf7070a80c906e940,
perumahan,Komplek perumahan,Rumah Rendi maulana,"2GMH+RRC, Tikopo, Kec. Bokat, Kabupaten Buol, Sulawesi Tengah 94566","Tikopo, Kec. Bokat, Kabupaten Buol",SULAWESI TENGAH,94566.0,Indonesia,,,,1.0345667,121.5295467,https://maps.google.com/?cid=0x0:0x281f246c8a03985d,
perumahan,Komplek perumahan,Rumah mangge poy,"4FG8+3MH, Jl. Buol - Gorontalo, Negeri Lama, Kec. Bokat, Kabupaten Buol, Sulawesi Tengah 94564","Jl. Buol - Gorontalo, Negeri Lama, Kec. Bokat, Kabupaten Buol",SULAWESI TENGAH,94564.0,Indonesia,,,,1.1253183,121.4667045,https://maps.google.com/?cid=0x0:0x8015d75d3468a564,
perumahan,perumahan,Sulawesi Tengah 94567,"Kabupaten Buol, Sulawesi Tengah","Kabupaten Buol, Sulawesi Tengah",SULAWESI TENGAH,,Indonesia,,,,0.982812,121.6511258,https://maps.google.com/?cid=0x0:0x7248d1de2d14beff,
perumahan,Komplek perumahan,Bunobogu Selatan,"2JP6+5HH, Bunobogu, Kec. Bunobogu, Kabupaten Buol, Sulawesi Tengah 94567","Bunobogu, Kec. Bunobogu, Kabupaten Buol",SULAWESI TENGAH,94567.0,Indonesia,,,,1.0354466,121.6114751,https://maps.google.com/?cid=0x0:0xda22c4ab981632f6,
perumahan,Perhimpunan Pengembang Perumahan,Bunobogu,"2JQ6+WRF, Bunobogu, Kec. Bunobogu, Kabupaten Buol, Sulawesi Tengah","Kabupaten Buol, Sulawesi Tengah",SULAWESI TENGAH,,Indonesia,,,,1.0398187,121.6120464,https://maps.google.com/?cid=0x0:0x77f0cee05092f86d,
perumahan,Komplek perumahan,Gdg.Rbw Pak Yan,"2JM6+JRW, Bunobogu, Kec. Bunobogu, Kabupaten Buol, Sulawesi Tengah 94567","Bunobogu, Kec. Bunobogu, Kabupaten Buol",SULAWESI TENGAH,94567.0,Indonesia,,,,1.0346488,121.6125515,https://maps.google.com/?cid=0x0:0x4166f7fbb5799e72,
perumahan,perumahan,Rumah 7R,"3H37+QX4, Tayadun, Kec. Bokat, Kabupaten Buol, Sulawesi Tengah 94566","Tayadun, Kec. Bokat, Kabupaten Buol",SULAWESI TENGAH,94566.0,Indonesia,,,,1.0543893,121.5649528,https://maps.google.com/?cid=0x0:0x41432cb2f0f59073,
perumahan,perumahan,Desa Bunobogu,"2JQ8+7W, Bunobogu, Kec. Bunobogu, Kabupaten Buol, Sulawesi Tengah","Kabupaten Buol, Sulawesi Tengah",SULAWESI TENGAH,,Indonesia,,,,1.038238,121.617285,https://maps.google.com/?cid=0x0:0xef06f91158d26b9,
perumahan,Perhimpunan Pengembang Perumahan,Desa lonu,"Bunobogu, Kec. Bunobogu, Kabupaten Buol, Sulawesi Tengah","Kabupaten Buol, Sulawesi Tengah",SULAWESI TENGAH,,Indonesia,,,,1.0398186,121.6120464,https://maps.google.com/?cid=0x0:0x9a86c457f9677ee4,
perumahan,Perumahan,Rumah PP AM,"2JXQ+J7M, Ponipingan, Kec. Bunobogu, Kabupaten Buol, Sulawesi Tengah 94567","Ponipingan, Kec. Bunobogu, Kabupaten Buol",SULAWESI TENGAH,94567.0,Indonesia,,,,1.0490771,121.6381572,https://maps.google.com/?cid=0x0:0xa001ea0dffeae8c8,
perumahan,perumahan,Rumah Mama AS,"2JP6+8XV, Bunobogu, Kec. Bunobogu, Kabupaten Buol, Sulawesi Tengah","Kabupaten Buol, Sulawesi Tengah",SULAWESI TENGAH,,Indonesia,,,,1.0358502,121.6124306,https://maps.google.com/?cid=0x0:0x3dabe998fcb6f797,
perumahan,Lapangan Voli,Lapangan desa bunobogu,"2JV7+F49, Bunobogu, Kec. Bunobogu, Kabupaten Buol, Sulawesi Tengah 94566","Bunobogu, Kec. Bunobogu, Kabupaten Buol",SULAWESI TENGAH,94566.0,Indonesia,,,,1.0435328,121.6125685,https://maps.google.com/?cid=0x0:0x839319cad54f5e84,
perumahan,Perumahan,Apri home,"2JQ7+PPP, Bunobogu, Kec. Bunobogu, Kabupaten Buol, Sulawesi Tengah","Kabupaten Buol, Sulawesi Tengah",SULAWESI TENGAH,,Indonesia,,,,1.0389126,121.6144174,https://maps.google.com/?cid=0x0:0xcc7a4471e9ce7b5,
perumahan,Komplek perumahan,Rumah Sulis,"WHVV+2JG, Domag Mekar, Kec. Bunobogu, Kabupaten Buol, Sulawesi Tengah","Kabupaten Buol, Sulawesi Tengah",SULAWESI TENGAH,,Indonesia,,,,0.9425511,121.5940773,https://maps.google.com/?cid=0x0:0x13b444585423bd8d,
perumahan,perumahan,Dusun Liang,"2JXQ+F9, Ponipingan, Kec. Bunobogu, Kabupaten Buol, Sulawesi Tengah","Kabupaten Buol, Sulawesi Tengah",SULAWESI TENGAH,,Indonesia,,,,1.0492349,121.63931,https://maps.google.com/?cid=0x0:0x13d6e7d6019d6825,
perumahan,Komplek perumahan,Rumah erlin,"WHVV+2JG, Domag Mekar, Kec. Bunobogu, Kabupaten Buol, Sulawesi Tengah","Kabupaten Buol, Sulawesi Tengah",SULAWESI TENGAH,,Indonesia,,,,0.9425511,121.5940773,https://maps.google.com/?cid=0x0:0xdbadfc061ea73607,
perumahan,perumahan,Lokodoka Binuang,"XPPP+9MR, Lokodoka, Kec. Gadung, Kabupaten Buol, Sulawesi Tengah","Kabupaten Buol, Sulawesi Tengah",SULAWESI TENGAH,,Indonesia,,,,0.9859896,121.7366444,https://maps.google.com/?cid=0x0:0xc269012bcd201d03,
perumahan,perumahan,Rumah ibu kartini timumun,"2HJ6+WCQ, Lonu, Kec. Bunobogu, Kabupaten Buol, Sulawesi Tengah 94566","Lonu, Kec. Bunobogu, Kabupaten Buol",SULAWESI TENGAH,94566.0,Indonesia,,,,1.0323415,121.5611018,https://maps.google.com/?cid=0x0:0x3a5d329b9777abd7,
perumahan,Komplek perumahan,Labuton,"2P6W+7P7, Labuton, Kec. Gadung, Kabupaten Buol, Sulawesi Tengah","Kabupaten Buol, Sulawesi Tengah",SULAWESI TENGAH,,Indonesia,,,,1.0106552,121.7468123,https://maps.google.com/?cid=0x0:0x8fdcd50059d29300,
perumahan,Komplek perumahan,Rumah Pulet,"2HQ7+VRH, Lonu, Kec. Bunobogu, Kabupaten Buol, Sulawesi Tengah","Kabupaten Buol, Sulawesi Tengah",SULAWESI TENGAH,,Indonesia,,,,1.0396846,121.5645976,https://maps.google.com/?cid=0x0:0x8b16b8c45fcc7452,
perumahan,Komplek perumahan,Muhammad Fadrul,"2JHX+99R, Inalatan, Kec. Bunobogu, Kabupaten Buol, Sulawesi Tengah 94567","Inalatan, Kec. Bunobogu, Kabupaten Buol",SULAWESI TENGAH,94567.0,Indonesia,,,,1.0286113,121.6483126,https://maps.google.com/?cid=0x0:0x178e910360dca3b,
perumahan,Komplek perumahan,Konamukan,"3J39+VWR, Konamukan, Kec. Bunobogu, Kabupaten Buol, Sulawesi Tengah","Kabupaten Buol, Sulawesi Tengah",SULAWESI TENGAH,,Indonesia,,,,1.0547492,121.6197527,https://maps.google.com/?cid=0x0:0x498467656dedfd51,
perumahan,Tempat Pencucian Mobil,Pencucian pondok sahabat,"2JQ6+WRF, Bunobogu, Kec. Bunobogu, Kabupaten Buol, Sulawesi Tengah","Kabupaten Buol, Sulawesi Tengah",SULAWESI TENGAH,,Indonesia,,,,1.0398187,121.6120464,https://maps.google.com/?cid=0x0:0xaace4499cb7d63c3,
perumahan,Komplek perumahan,Home Ingkiriwang-Kainde,"2HM7+V2G, Lonu, Kec. Bunobogu, Kabupaten Buol, Sulawesi Tengah 94566","Lonu, Kec. Bunobogu, Kabupaten Buol",SULAWESI TENGAH,94566.0,Indonesia,,,,1.0346857,121.5625865,https://maps.google.com/?cid=0x0:0xcb14929b3850e2a8,
perumahan,Komplek perumahan,Rumah purnama,"3PCC+5R7, Bulagidun Tj., Kec. Gadung, Kabupaten Buol, Sulawesi Tengah 94568","Bulagidun Tj., Kec. Gadung, Kabupaten Buol",SULAWESI TENGAH,94568.0,Indonesia,,,,1.0711056,121.7220052,https://maps.google.com/?cid=0x0:0x7322ec705d6d94c,
perumahan,Komplek perumahan,Labuton,"2P6W+7P7, Labuton, Kec. Gadung, Kabupaten Buol, Sulawesi Tengah","Kabupaten Buol, Sulawesi Tengah",SULAWESI TENGAH,,Indonesia,,,,1.0106552,121.7468123,https://maps.google.com/?cid=0x0:0x8fdcd50059d29300,
perumahan,perumahan,Kec. Gadung,"Kabupaten Buol, Sulawesi Tengah","Kabupaten Buol, Sulawesi Tengah",SULAWESI TENGAH,,Indonesia,,,,1.0609393,121.6812519,https://maps.google.com/?cid=0x0:0xdbf62320131c7b7d,
perumahan,perumahan,RUMAH ULING SANUA,"3PG8+3F, Bulagidun Tj., Kec. Gadung, Kabupaten Buol, Sulawesi Tengah","Kabupaten Buol, Sulawesi Tengah",SULAWESI TENGAH,,Indonesia,,,,1.0751875,121.7161875,https://maps.google.com/?cid=0x0:0x8ff439317765223f,
perumahan,Komplek perumahan,Kabupaten buol Sulawesi tengah,"3M6J+75X, Matinan, Kec. Gadung, Kabupaten Buol, Sulawesi Tengah","Kabupaten Buol, Sulawesi Tengah",SULAWESI TENGAH,,Indonesia,,,,1.0607484,121.6804759,https://maps.google.com/?cid=0x0:0x367fe558e838c2ac,
perumahan,Komplek perumahan,Shelter Gadung,"3M6J+7VF, Matinan, Kec. Gadung, Kabupaten Buol, Sulawesi Tengah","Kabupaten Buol, Sulawesi Tengah",SULAWESI TENGAH,,Indonesia,,,,1.0606753,121.6821573,https://maps.google.com/?cid=0x0:0x20eb56246444df38,
perumahan,Komplek perumahan,Rumah enal,"3M6J+446, Matinan, Kec. Gadung, Kabupaten Buol, Sulawesi Tengah 94567","Matinan, Kec. Gadung, Kabupaten Buol",SULAWESI TENGAH,94567.0,Indonesia,,,,1.0602108,121.680219,https://maps.google.com/?cid=0x0:0x9e43b7812c9baf8a,
perumahan,Komplek perumahan,Rumah rian,"3P2C+Q3P, Bulagidun, Kec. Gadung, Kabupaten Buol, Sulawesi Tengah","Kabupaten Buol, Sulawesi Tengah",SULAWESI TENGAH,,Indonesia,,,,1.0519517,121.7202033,https://maps.google.com/?cid=0x0:0x3c9cd64c102c7463,
perumahan,Komplek perumahan,Keluarga papa awi,"3P8P+68X, Diapatih, Kec. Gadung, Kabupaten Buol, Sulawesi Tengah","Kabupaten Buol, Sulawesi Tengah",SULAWESI TENGAH,,Indonesia,,,,1.0651183,121.7360422,https://maps.google.com/?cid=0x0:0x8a9dbec81f8bd840,
perumahan,Komplek perumahan,Rumah Fatmawati,"3P7G+VMW, Jl. Buol - Gorontalo, Diapatih, Kec. Gadung, Kabupaten Buol, Sulawesi Tengah 94568","Jl. Buol - Gorontalo, Diapatih, Kec. Gadung, Kabupaten Buol",SULAWESI TENGAH,94568.0,Indonesia,,,,1.064355,121.726257,https://maps.google.com/?cid=0x0:0xc229c98ad2eb9263,
perumahan,Komplek perumahan,Rumah herman,"3M5J+88M, Matinan, Kec. Gadung, Kabupaten Buol, Sulawesi Tengah","Kabupaten Buol, Sulawesi Tengah",SULAWESI TENGAH,,Indonesia,,,,1.0583482,121.6808095,https://maps.google.com/?cid=0x0:0x14e2795860fe843e,
perumahan,Komplek perumahan,Rumah om abal,"3M5J+2MH, Matinan, Kec. Gadung, Kabupaten Buol, Sulawesi Tengah","Kabupaten Buol, Sulawesi Tengah",SULAWESI TENGAH,,Indonesia,,,,1.0575713,121.6817272,https://maps.google.com/?cid=0x0:0x9c3c01f447c236c4,
perumahan,Pembangunan Perumahan,Gita home,"3P2F+395, Labuton, Kec. Gadung, Kabupaten Buol, Sulawesi Tengah 94568","Labuton, Kec. Gadung, Kabupaten Buol",SULAWESI TENGAH,94568.0,Indonesia,,,,1.0504018,121.7234184,https://maps.google.com/?cid=0x0:0x4dca66e27931ffcc,
perumahan,Komplek perumahan,Fajry Saleh,"3M6H+FW5, Matinan, Kec. Gadung, Kabupaten Buol, Sulawesi Tengah 94567","Matinan, Kec. Gadung, Kabupaten Buol",SULAWESI TENGAH,94567.0,Indonesia,,,,1.0616092,121.679341,https://maps.google.com/?cid=0x0:0xc5e039c45d0d20ea,
perumahan,Komplek perumahan,Rumah Gino Praytno,"3M56+6MP, Lokodidi, Kec. Gadung, Kabupaten Buol, Sulawesi Tengah 94567","Lokodidi, Kec. Gadung, Kabupaten Buol",SULAWESI TENGAH,94567.0,Indonesia,,,,1.0580875,121.6617031,https://maps.google.com/?cid=0x0:0x9cac1fb6d72592b8,
perumahan,Komplek perumahan,Yusran Lukas,"3P9F+HG8, Bulagidun, Kec. Gadung, Kabupaten Buol, Sulawesi Tengah 94568","Bulagidun, Kec. Gadung, Kabupaten Buol",SULAWESI TENGAH,94568.0,Indonesia,,,,1.068914,121.7238208,https://maps.google.com/?cid=0x0:0xa5f7552caf8463cc,
perumahan,Kompleks Kondominium,Pohon mangga,"2PXQ+983, Diapatih, Kec. Gadung, Kabupaten Buol, Sulawesi Tengah","Kabupaten Buol, Sulawesi Tengah",SULAWESI TENGAH,,Indonesia,,,,1.048394,121.738297,https://maps.google.com/?cid=0x0:0x65cfc74a0cae21e,
perumahan,Komplek perumahan,Ramli s Hasyim,"3P97+6G5, Bulagidun Tj., Kec. Gadung, Kabupaten Buol, Sulawesi Tengah 94568","Bulagidun Tj., Kec. Gadung, Kabupaten Buol",SULAWESI TENGAH,94568.0,Indonesia,,,,1.0680056,121.7138458,https://maps.google.com/?cid=0x0:0x245ed10d3d1795e7,
perumahan,Komplek perumahan,Goroyalo,"3M73+PR3, Lokodidi, Kec. Gadung, Kabupaten Buol, Sulawesi Tengah","Kabupaten Buol, Sulawesi Tengah",SULAWESI TENGAH,,Indonesia,,,,1.0642668,121.654542,https://maps.google.com/?cid=0x0:0xb0c99b19ef2a1ba9,
perumahan,Komplek perumahan,DIDIN MALIK,"3P9F+7R7, Jl. Buol - Gorontalo, Bulagidun, Kec. Gadung, Kabupaten Buol, Sulawesi Tengah 94568","Jl. Buol - Gorontalo, Bulagidun, Kec. Gadung, Kabupaten Buol",SULAWESI TENGAH,94568.0,Indonesia,,,,1.0681778,121.724552,https://maps.google.com/?cid=0x0:0x5ff2d92cab26f77,
perumahan,Rumah Kayu,Pelabuhan lokodidi,"3M29+V79, Lokodidi, Kec. Gadung, Kabupaten Buol, Sulawesi Tengah","Kabupaten Buol, Sulawesi Tengah",SULAWESI TENGAH,,Indonesia,,,,1.0521526,121.6682347,https://maps.google.com/?cid=0x0:0x8abbd76754e852c7,
perumahan,Perumahan,Perumahan Gading Viera1,"Kota TimurPulogadung, Jl. Pori Raya No.10, RT.11/RW.10, East Pisangan, Pulo Gadung, East Jakarta City, Jakarta 13230","Jl. Pori Raya No.10, RT.11/RW.10, East Pisangan, Pulo Gadung, East Jakarta City",SULAWESI TENGAH,13230.0,Indonesia,,,,-6.2091095,106.8826528,https://maps.google.com/?cid=0x0:0xc896372cb34e46c5,
perumahan,Komplek perumahan,Gading Viera 3,"No, Jl. Cipinang Kebembem I No.6, RT.14/RW.13, Pisangan Tim., Kec. Pulo Gadung, Kota Jakarta Timur, Daerah Khusus Ibukota Jakarta 13230","Jl. Cipinang Kebembem I No.6, RT.14/RW.13, Pisangan Tim., Kec. Pulo Gadung, Kota Jakarta Timur",SULAWESI TENGAH,13230.0,Indonesia,,,,-6.2106131,106.884498,https://maps.google.com/?cid=0x0:0xb317a1ea52d25b15,
perumahan,Komplek perumahan,Rumah bintang,"Kp rawaTerate rt. 009/RW.001, KEL Jl. Pulogadung No.28, RT.9/RW.1, Kec. Cakung, Kota Jakarta Timur, Daerah Khusus Ibukota Jakarta 13920","KEL Jl. Pulogadung No.28, RT.9/RW.1, Kec. Cakung, Kota Jakarta Timur",SULAWESI TENGAH,13920.0,Indonesia,85779090797.0,,,-6.1872833,106.9076401,https://maps.google.com/?cid=0x0:0x656e91c86fffb0c1,
perumahan,Komplek perumahan,K Townhouse,"QVQG+9WX, RT.7/RW.3, Pisangan Tim., Kec. Pulo Gadung, Kota Jakarta Timur, Daerah Khusus Ibukota Jakarta 13230","RT.7/RW.3, Pisangan Tim., Kec. Pulo Gadung, Kota Jakarta Timur",SULAWESI TENGAH,13230.0,Indonesia,,,,-6.2115011,106.8773567,https://maps.google.com/?cid=0x0:0x3afb26ee43d8cd06,
perumahan,Komplek perumahan,Gg.nanas,"Jakarta Timur, RT.07/RW.010, NO 9, RT.5/RW.10, Utan Kayu Utara, Kec. Matraman, Kota Jakarta Timur, Daerah Khusus Ibukota Jakarta 13120","RT.07/RW.010, NO 9, RT.5/RW.10, Utan Kayu Utara, Kec. Matraman, Kota Jakarta Timur",SULAWESI TENGAH,13120.0,Indonesia,,,,-6.1970784,106.870919,https://maps.google.com/?cid=0x0:0xccc79550c8ef28f3,
perumahan,Komplek perumahan,Komplek perumahan,"Jl. Jelita Utara I No.8 Blok E, RT.4/RW.11, Rawamangun, Kec. Pulo Gadung, Kota Jakarta Timur, Daerah Khusus Ibukota Jakarta 13220","RT.4/RW.11, Rawamangun, Kec. Pulo Gadung, Kota Jakarta Timur",SULAWESI TENGAH,13220.0,Indonesia,,,,-6.1984624,106.8845927,https://maps.google.com/?cid=0x0:0xedc4333892ccedb3,
perumahan,Pembangunan Perumahan,Kayu Putih Indah,"Jl. Kayu Mas Raya, Pulo Gadung, Kec. Pulo Gadung, Kota Jakarta Timur, Daerah Khusus Ibukota Jakarta 13260","Pulo Gadung, Kec. Pulo Gadung, Kota Jakarta Timur",SULAWESI TENGAH,13260.0,Indonesia,,,,-6.1841845,106.8987037,https://maps.google.com/?cid=0x0:0x9e4e9aea147cddf8,
perumahan,Perhimpunan Pengembang Perumahan,Rumah Ayuu Pulogadung,"8, Jl. Taruna Dalam Raya No.43a, RT.9/RW.10, Pulo Gadung, Kec. Pulo Gadung, Kota Jakarta Timur, Daerah Khusus Ibukota Jakarta 13260","Jl. Taruna Dalam Raya No.43a, RT.9/RW.10, Pulo Gadung, Kec. Pulo Gadung, Kota Jakarta Timur",SULAWESI TENGAH,13260.0,Indonesia,,,,-6.1852301,106.8998031,https://maps.google.com/?cid=0x0:0x9c910851aa1e21f5,
perumahan,perumahan,Kec. Karamat,"Kabupaten Buol, Sulawesi Tengah","Kabupaten Buol, Sulawesi Tengah",SULAWESI TENGAH,,Indonesia,,,,1.2531523,121.4084928,https://maps.google.com/?cid=0x0:0x53d7a701bb80e29f,
perumahan,Pembangunan Perumahan,Ruma Munawir Lamadang,"7C35+W7, Mokupo, Kec. Karamat, Kabupaten Buol, Sulawesi Tengah 94563","Mokupo, Kec. Karamat, Kabupaten Buol",SULAWESI TENGAH,94563.0,Indonesia,,,,1.2548406,121.4082206,https://maps.google.com/?cid=0x0:0x6e7d03cebd6a599a,
perumahan,Komplek perumahan,RUMAH IDAMAN,"68QR+G9, Busak II, Kec. Karamat, Kabupaten Buol, Sulawesi Tengah","Kabupaten Buol, Sulawesi Tengah",SULAWESI TENGAH,,Indonesia,,,,1.2388711,121.3408821,https://maps.google.com/?cid=0x0:0x416015abd643265d,
perumahan,Komplek perumahan,Rumah Tercinta,"68CP+6RJ, Busak II, Kec. Karamat, Kabupaten Buol, Sulawesi Tengah 94563","Busak II, Kec. Karamat, Kabupaten Buol",SULAWESI TENGAH,94563.0,Indonesia,,,,1.2205876,121.3370074,https://maps.google.com/?cid=0x0:0xf4275dbb6a3f2e24,
perumahan,Kantor Pemerintah,Desa Lamakan,"68GF+Q3P, Lamakan, Kec. Karamat, Kabupaten Buol, Sulawesi Tengah 94563","Lamakan, Kec. Karamat, Kabupaten Buol",SULAWESI TENGAH,94563.0,Indonesia,,,,1.226965,121.322709,https://maps.google.com/?cid=0x0:0xd82f19ed5484ad7d,
perumahan,,Atii,"793G+CMW, Monano, Kec. Karamat, Kabupaten Buol, Sulawesi Tengah 94563","Monano, Kec. Karamat, Kabupaten Buol",SULAWESI TENGAH,94563.0,Indonesia,,,,1.2536204,121.3766893,https://maps.google.com/?cid=0x0:0x1e49a3ca15822e74,
perumahan,Komplek perumahan,Rumah Romy,"7C86+RG, Mendaan, Kec. Karamat, Kabupaten Buol, Sulawesi Tengah","Kabupaten Buol, Sulawesi Tengah",SULAWESI TENGAH,,Indonesia,,,,1.2671175,121.4112487,https://maps.google.com/?cid=0x0:0x948d9752b2e2e519,
perumahan,Komplek perumahan,Rumah AR,"68XR+C4, Busak II, Kec. Karamat, Kabupaten Buol, Sulawesi Tengah","Kabupaten Buol, Sulawesi Tengah",SULAWESI TENGAH,,Indonesia,,,,1.248537,121.340356,https://maps.google.com/?cid=0x0:0x4f6c236ad61d922b,
perumahan,Komplek perumahan,Lorong arab,"7C35+2VV, Mokupo, Kec. Karamat, Kabupaten Buol, Sulawesi Tengah 94563","Mokupo, Kec. Karamat, Kabupaten Buol",SULAWESI TENGAH,94563.0,Indonesia,,,,1.2526015,121.4096781,https://maps.google.com/?cid=0x0:0x809bfa1340673a48,
perumahan,Komplek perumahan,Rumah one,"793V+4MV, Baruga, Kec. Karamat, Kabupaten Buol, Sulawesi Tengah 94563","Baruga, Kec. Karamat, Kabupaten Buol",SULAWESI TENGAH,94563.0,Indonesia,,,,1.2528568,121.3941835,https://maps.google.com/?cid=0x0:0x355848887d0a586f,
perumahan,Komplek perumahan,Lorong kanada,"7C25+7CC, Mokupo, Kec. Karamat, Kabupaten Buol, Sulawesi Tengah 94563","Mokupo, Kec. Karamat, Kabupaten Buol",SULAWESI TENGAH,94563.0,Indonesia,,,,1.2506838,121.408517,https://maps.google.com/?cid=0x0:0xb0e60da53e542b8,
perumahan,Kantor Pemerintah,Desa Mokupo,"7C35+7CC, Mokupo, Kec. Karamat, Kabupaten Buol, Sulawesi Tengah 94563","Mokupo, Kec. Karamat, Kabupaten Buol",SULAWESI TENGAH,94563.0,Indonesia,,,,1.2531783,121.4085093,https://maps.google.com/?cid=0x0:0x2dbe07d25a639c20,
perumahan,Komplek perumahan,Desa monano,"69M9+R9W, Monano, Kec. Karamat, Kabupaten Buol, Sulawesi Tengah 94563","Monano, Kec. Karamat, Kabupaten Buol",SULAWESI TENGAH,94563.0,Indonesia,,,,1.2346222,121.3684577,https://maps.google.com/?cid=0x0:0x3785ae1c9c22cf21,
perumahan,Komplek perumahan,Rumah Rahmat Al alif,"69J2+7GM, Lorong Tower, Busak I, Kec. Karamat, Kabupaten Buol, Sulawesi Tengah","Kabupaten Buol, Sulawesi Tengah",SULAWESI TENGAH,,Indonesia,,,,1.2307196,121.351304,https://maps.google.com/?cid=0x0:0x72008e41a7e8a9d6,
perumahan,Pembangunan Perumahan,Supandi A. Djaafar,"7C25+69X, Mokupo, Kec. Karamat, Kabupaten Buol, Sulawesi Tengah 94563","Mokupo, Kec. Karamat, Kabupaten Buol",SULAWESI TENGAH,94563.0,Indonesia,,,,1.2506023,121.4084731,https://maps.google.com/?cid=0x0:0xda8c67df54d997f7,
perumahan,Komplek perumahan,Andi home stay,"7C35+4F6, Jl. Buol - Tolitoli, Mokupo, Kec. Karamat, Kabupaten Buol, Sulawesi Tengah 94563","Jl. Buol - Tolitoli, Mokupo, Kec. Karamat, Kabupaten Buol",SULAWESI TENGAH,94563.0,Indonesia,,,,1.2527999,121.4086361,https://maps.google.com/?cid=0x0:0xa43b2f9f3ec23224,
perumahan,Kantor Akuntan Publik,"Kac, Karamat","Busak I, Kec. Karamat, Kabupaten Buol, Sulawesi Tengah","Kabupaten Buol, Sulawesi Tengah",SULAWESI TENGAH,,Indonesia,81347258076.0,,,1.2304971,121.3513359,https://maps.google.com/?cid=0x0:0x26d7ef78d210545e,
perumahan,Pusat Perbelanjaan,Toko wahyu,"69V4+CVH, Busak I, Kec. Karamat, Kabupaten Buol, Sulawesi Tengah 94563","Busak I, Kec. Karamat, Kabupaten Buol",SULAWESI TENGAH,94563.0,Indonesia,,,,1.2435515,121.3572489,https://maps.google.com/?cid=0x0:0x6e26cb99a045aa7d,
perumahan,Komplek perumahan,Rumah keluarga Suardi Yusup,"793F+V8V, Monano, Kec. Karamat, Kabupaten Buol, Sulawesi Tengah 94563","Monano, Kec. Karamat, Kabupaten Buol",SULAWESI TENGAH,94563.0,Indonesia,,,,1.2547253,121.373307,https://maps.google.com/?cid=0x0:0xb960106c6286a6b2,
perumahan,perumahan,R.Bunaiya H. Basara,"68RV+HH, Busak II, Kec. Karamat, Kabupaten Buol, Sulawesi Tengah","Kabupaten Buol, Sulawesi Tengah",SULAWESI TENGAH,,Indonesia,,,,1.240868,121.343217,https://maps.google.com/?cid=0x0:0x9f2d5ed0dc22dea1,
perumahan,Area Mendaki,desa mendaan,"7CFM+5MP, Mendaan, Kec. Karamat, Kabupaten Buol, Sulawesi Tengah","Kabupaten Buol, Sulawesi Tengah",SULAWESI TENGAH,,Indonesia,,,,1.2729613,121.43419,https://maps.google.com/?cid=0x0:0x50f9be8e8c34fb53,
perumahan,perumahan,Karamat,"Kec. Gunungpuyuh, Kota Sukabumi, Jawa Barat","Kota Sukabumi, Jawa Barat",SULAWESI TENGAH,,Indonesia,,,,-6.9060533,106.9225798,https://maps.google.com/?cid=0x0:0x24dbda5f0409cd57,
perumahan,Pembangunan Perumahan,Karamat Permata Residence,"Jl. Karamat No.38-69, Karamat, Kec. Gunungpuyuh, Kota Sukabumi, Jawa Barat 43122","Karamat, Kec. Gunungpuyuh, Kota Sukabumi",SULAWESI TENGAH,43122.0,Indonesia,81906062606.0,,,-6.9079218,106.9173753,https://maps.google.com/?cid=0x0:0x33eb7d1089b7caea,
perumahan,Pembangunan Perumahan,Green Terrace Karamat,"Jl. Karamat Anyar, Karamat, Kec. Gunungpuyuh, Kota Sukabumi, Jawa Barat 43122","Karamat, Kec. Gunungpuyuh, Kota Sukabumi",SULAWESI TENGAH,43122.0,Indonesia,,,,-6.9087766,106.9203593,https://maps.google.com/?cid=0x0:0x74bcaca75eff2cd3,
perumahan,Perumahan,Tanah karamat,"4W48+24C, Jl. Pasir Pogor, Karang Tengah, Kec. Gunungpuyuh, Kota Sukabumi, Jawa Barat 43152","Jl. Pasir Pogor, Karang Tengah, Kec. Gunungpuyuh, Kota Sukabumi",SULAWESI TENGAH,43152.0,Indonesia,,,,-6.8949272,106.9152623,https://maps.google.com/?cid=0x0:0x9417ca6412590d3d,
perumahan,Komplek perumahan,Rumah Dea Sunara,"Jl. Karamat No.40, Karamat, Kec. Gunungpuyuh, Kota Sukabumi, Jawa Barat 43122","Karamat, Kec. Gunungpuyuh, Kota Sukabumi",SULAWESI TENGAH,43122.0,Indonesia,85778739819.0,,,-6.9063883,106.9185751,https://maps.google.com/?cid=0x0:0xe2744e3282ec49d7,
perumahan,Komplek perumahan,Perumahan,"3WWC+39J, Jl. Kp. Quran, Karamat, Kec. Gunungpuyuh, Kota Sukabumi, Jawa Barat 43122","Jl. Kp. Quran, Karamat, Kec. Gunungpuyuh, Kota Sukabumi",SULAWESI TENGAH,43122.0,Indonesia,,,,-6.9047781,106.9208765,https://maps.google.com/?cid=0x0:0x843373423f8a97b9,
perumahan,Perumahan,Royal Kabandungan,"3WRJ+77J, Jl. Kabandungan, Selabatu, Kec. Cikole, Kota Sukabumi, Jawa Barat 43122","Jl. Kabandungan, Selabatu, Kec. Cikole, Kota Sukabumi",SULAWESI TENGAH,43122.0,Indonesia,2666251899.0,,,-6.9092905,106.93063,https://maps.google.com/?cid=0x0:0xf404e174d4005c6d,
perumahan,Perhimpunan Pengembang Perumahan,Kostan Bu haji Esih,"belakang mesjid Baiturrahman at tartil, Jl. Karamat Jl. Bhayangkara, RT.1 rw3, Karamat, Kec. Gunungpuyuh, Kota Sukabumi, Jawa Barat 43122","Jl. Karamat Jl. Bhayangkara, RT.1 rw3, Karamat, Kec. Gunungpuyuh, Kota Sukabumi",SULAWESI TENGAH,43122.0,Indonesia,,,,-6.9093377,106.9204022,https://maps.google.com/?cid=0x0:0x31973d957ef505c6,
perumahan,perumahan,Kec. Biau,"Kabupaten Buol, Sulawesi Tengah","Kabupaten Buol, Sulawesi Tengah",SULAWESI TENGAH,,Indonesia,,,,1.1708694,121.4215795,https://maps.google.com/?cid=0x0:0xaaa5fc4d0bdde54c,
perumahan,Komplek perumahan,Rumah Buol,"5CP8+5C7, Leok I, Kec. Biau, Kabupaten Buol, Sulawesi Tengah 94563","Leok I, Kec. Biau, Kabupaten Buol",SULAWESI TENGAH,94563.0,Indonesia,,,,1.1853442,121.4162123,https://maps.google.com/?cid=0x0:0xac445a825b802150,
perumahan,perumahan,Katha homeâs,"5C8F+RJH, Jl. Diponegoro, Leok II, Kec. Biau, Kabupaten Buol, Sulawesi Tengah 94563","Jl. Diponegoro, Leok II, Kec. Biau, Kabupaten Buol",SULAWESI TENGAH,94563.0,Indonesia,,,,1.1670698,121.4241228,https://maps.google.com/?cid=0x0:0xbe390de18d3b4f77,
perumahan,Otoritas Perumahan,Bele li Nada,"Perum Kulango Indah No.29, Kulango, Biau, Buol Regency, Central Sulawesi","Kabupaten Buol, Sulawesi Tengah",SULAWESI TENGAH,,Indonesia,,,,1.1560535,121.409147,https://maps.google.com/?cid=0x0:0x62a6512b44f73404,
perumahan,Komplek perumahan,BTN Kulango Indah,"5C45+PJV, Kulango, Kec. Biau, Kabupaten Buol, Sulawesi Tengah 94565","Kulango, Kec. Biau, Kabupaten Buol",SULAWESI TENGAH,94565.0,Indonesia,,,,1.1568698,121.4090482,https://maps.google.com/?cid=0x0:0x7fb441dc96decf28,
perumahan,Komplek perumahan,Rumah Aryan,"5C5H+QJ5, Buol, Kec. Biau, Kabupaten Buol, Sulawesi Tengah 94565","Buol, Kec. Biau, Kabupaten Buol",SULAWESI TENGAH,94565.0,Indonesia,,,,1.1593812,121.4291228,https://maps.google.com/?cid=0x0:0xba27188d3829feda,
perumahan,perumahan,rumahku,"4CX5+F98, Jl. Anoa, Kulango, Kec. Biau, Kabupaten Buol, Sulawesi Tengah 94565","Jl. Anoa, Kulango, Kec. Biau, Kabupaten Buol",SULAWESI TENGAH,94565.0,Indonesia,,,,1.1486674,121.4084614,https://maps.google.com/?cid=0x0:0xa3e802983ff2201d,
perumahan,Toko Pakaian,UR Store,"5C78+5QH, Kali, Kec. Biau, Kabupaten Buol, Sulawesi Tengah 94563","Kali, Kec. Biau, Kabupaten Buol",SULAWESI TENGAH,94563.0,Indonesia,,,,1.1634558,121.4165674,https://maps.google.com/?cid=0x0:0x21f768e00f9a14d9,
perumahan,Komplek perumahan,Rumah Izzat,"4CX6+3VG, Jl. Zebra, Kulango, Kec. Biau, Kabupaten Buol, Sulawesi Tengah 94565","Jl. Zebra, Kulango, Kec. Biau, Kabupaten Buol",SULAWESI TENGAH,94565.0,Indonesia,,,,1.1477089,121.4121806,https://maps.google.com/?cid=0x0:0xd193b1ef916e79e0,
perumahan,perumahan,FYT_777,"5C2Q+9J8, Jl. Buol - Gorontalo, Bugis, Kec. Biau, Kabupaten Buol, Sulawesi Tengah 94565","Jl. Buol - Gorontalo, Bugis, Kec. Biau, Kabupaten Buol",SULAWESI TENGAH,94565.0,Indonesia,,,,1.1510553,121.4390737,https://maps.google.com/?cid=0x0:0xc6c0c40543366b24,
perumahan,Komplek perumahan,Kulango,"5C35+8MG, Jl. Macan, Kulango, Kec. Biau, Kabupaten Buol, Sulawesi Tengah 94565","Jl. Macan, Kulango, Kec. Biau, Kabupaten Buol",SULAWESI TENGAH,94565.0,Indonesia,,,,1.1533203,121.4092143,https://maps.google.com/?cid=0x0:0x47ba1e5db95f9264,
perumahan,Komplek perumahan,Rumah dasima lamaka,"5CP9+599, Unnamed Road, Leok I, Kec. Biau, Kabupaten Buol, Sulawesi Tengah 94563","Unnamed Road, Leok I, Kec. Biau, Kabupaten Buol",SULAWESI TENGAH,94563.0,Indonesia,,,,1.1854099,121.4184771,https://maps.google.com/?cid=0x0:0x2035363d792e822,
perumahan,Komplek perumahan,Rumah Gam Zam Zwar,"5C89+XRQ, Leok II, Kec. Biau, Kabupaten Buol, Sulawesi Tengah 94563","Leok II, Kec. Biau, Kabupaten Buol",SULAWESI TENGAH,94563.0,Indonesia,,,,1.167456,121.4198205,https://maps.google.com/?cid=0x0:0x3d59887f3bb3aa74,
perumahan,Komplek perumahan,Hairil Home,"5C88+PXH, Leok II, Kec. Biau, Kabupaten Buol, Sulawesi Tengah 94563","Leok II, Kec. Biau, Kabupaten Buol",SULAWESI TENGAH,94563.0,Indonesia,85240077387.0,,,1.1664339,121.4168874,https://maps.google.com/?cid=0x0:0x4e40a2bae59394f7,
perumahan,Komplek perumahan,Mamika,"5CV9+2FG, Leok I, Kec. Biau, Kabupaten Buol, Sulawesi Tengah 94563","Leok I, Kec. Biau, Kabupaten Buol",SULAWESI TENGAH,94563.0,Indonesia,,,,1.1928072,121.4182632,https://maps.google.com/?cid=0x0:0x6277a935e1faab37,
perumahan,Pembangunan Perumahan,Lokasi Safri,"5C28+86R, Kulango, Kec. Biau, Kabupaten Buol, Sulawesi Tengah 94565","Kulango, Kec. Biau, Kabupaten Buol",SULAWESI TENGAH,94565.0,Indonesia,,,,1.1508625,121.4155011,https://maps.google.com/?cid=0x0:0xd778056211349f30,
perumahan,Komplek perumahan,Perumahan Sanzibar kali,"59CW+35V, Unnamed Road, Kali, Kec. Biau, Kabupaten Buol, Sulawesi Tengah 94563","Unnamed Road, Kali, Kec. Biau, Kabupaten Buol",SULAWESI TENGAH,94563.0,Indonesia,85240848468.0,,,1.170244,121.395413,https://maps.google.com/?cid=0x0:0xe78c26cecf893ad4,
perumahan,Pembangunan Perumahan,Ilham pe rumah,"5C78+5QH, Kali, Kec. Biau, Kabupaten Buol, Sulawesi Tengah 94563","Kali, Kec. Biau, Kabupaten Buol",SULAWESI TENGAH,94563.0,Indonesia,,,,1.1635304,121.4169884,https://maps.google.com/?cid=0x0:0x62f8399b33df3d1d,
perumahan,Komplek perumahan,Perumahan 100 Buoyong,"4CRQ+5P3, Buol, Kec. Biau, Kabupaten Buol, Sulawesi Tengah 94565","Buol, Kec. Biau, Kabupaten Buol",SULAWESI TENGAH,94565.0,Indonesia,,,,1.1403989,121.4393019,https://maps.google.com/?cid=0x0:0xcf1036d40a74e11c,
perumahan,Komplek perumahan,Rumah Ia,"59PM+R42, Leok II, Kec. Biau, Kabupaten Buol, Sulawesi Tengah 94563","Leok II, Kec. Biau, Kabupaten Buol",SULAWESI TENGAH,94563.0,Indonesia,,,,1.1870091,121.3827505,https://maps.google.com/?cid=0x0:0xcc290f2364dfe0ac,
perumahan,Komplek perumahan,Rumah Zea,"4CX7+H57, Jl.kulango strans dekat, Jl. Zebra, Kulango, Kec. Biau, Kabupaten Buol, Sulawesi Tengah 94565","Jl.kulango strans dekat, Jl. Zebra, Kulango, Kec. Biau, Kabupaten Buol",SULAWESI TENGAH,94565.0,Indonesia,,,,1.148945,121.4139117,https://maps.google.com/?cid=0x0:0xc9120df7cbddfc1a,
perumahan,Komplek perumahan,Rimah,"5C25+QPR, Jl. Macan, Kulango, Kec. Biau, Kabupaten Buol, Sulawesi Tengah 94565","Jl. Macan, Kulango, Kec. Biau, Kabupaten Buol",SULAWESI TENGAH,94565.0,Indonesia,,,,1.152513,121.409363,https://maps.google.com/?cid=0x0:0xa5d94cac851ea8d4,
perumahan,Gedung Apartemen,Mess Lapas Leok,"Leok I, Kec. Biau, Kabupaten Buol, Sulawesi Tengah 94563","Kec. Biau, Kabupaten Buol",SULAWESI TENGAH,94563.0,Indonesia,,,,1.1928095,121.4180038,https://maps.google.com/?cid=0x0:0x2a4f8b4247628843,
perumahan,Kantor Pemerintah,Dinas PERUMAHAN RAKYAT DAN KAWASAN PERMUKIMAN,"5CCC+6V, Leok II, Kec. Biau, Kabupaten Buol, Sulawesi Tengah 94563","Leok II, Kec. Biau, Kabupaten Buol",SULAWESI TENGAH,94563.0,Indonesia,,,,1.1705229,121.4222395,https://maps.google.com/?cid=0x0:0x19f3a229c6a332d5,
perumahan,Komplek perumahan,rumah ateteng,"4FM4+4PF, Jl. Maleo, Bugis, Kec. Biau, Kabupaten Buol, Sulawesi Tengah 94565","Jl. Maleo, Bugis, Kec. Biau, Kabupaten Buol",SULAWESI TENGAH,94565.0,Indonesia,,,,1.1328061,121.4567881,https://maps.google.com/?cid=0x0:0x24a6decdb828ed71,
perumahan,Pembangunan Perumahan,Kediaman Safri Sandora,"5C25+FJR, Kulango, Kec. Biau, Kabupaten Buol, Sulawesi Tengah 94565","Kulango, Kec. Biau, Kabupaten Buol",SULAWESI TENGAH,94565.0,Indonesia,81356709625.0,,,1.1512426,121.4090129,https://maps.google.com/?cid=0x0:0x161302b6fccbe4f8,
perumahan,perumahan,Kec. Momunu,"Kabupaten Buol, Sulawesi Tengah","Kabupaten Buol, Sulawesi Tengah",SULAWESI TENGAH,,Indonesia,,,,1.1162521,121.4125109,https://maps.google.com/?cid=0x0:0x2986ed5591cc6e42,
perumahan,Komplek perumahan,Buol,"4CQ6+QQX, Pajeko, Kec. Momunu, Kabupaten Buol, Sulawesi Tengah 94565","Pajeko, Kec. Momunu, Kabupaten Buol",SULAWESI TENGAH,94565.0,Indonesia,,,,1.1386313,121.4125548,https://maps.google.com/?cid=0x0:0x7c6a4c8c66d00ee5,
perumahan,Komplek perumahan,Rumah sri pomayagon,"4C4G+7VV, Pomayagon, Kec. Momunu, Kabupaten Buol, Sulawesi Tengah 94565","Pomayagon, Kec. Momunu, Kabupaten Buol",SULAWESI TENGAH,94565.0,Indonesia,,,,1.1057311,121.4271601,https://maps.google.com/?cid=0x0:0x15395dd7d3bc93c6,
perumahan,Perumahan,Yuhgiafardila,"4CX7+224, Pajeko, Kec. Momunu, Kabupaten Buol, Sulawesi Tengah 94565","Pajeko, Kec. Momunu, Kabupaten Buol",SULAWESI TENGAH,94565.0,Indonesia,,,,1.1475085,121.4125888,https://maps.google.com/?cid=0x0:0xbd1379e2ef18daf9,
perumahan,Komplek perumahan,Kios ungu,"4CV7+J22, Pajeko, Kec. Momunu, Kabupaten Buol, Sulawesi Tengah 94565","Pajeko, Kec. Momunu, Kabupaten Buol",SULAWESI TENGAH,94565.0,Indonesia,,,,1.1440098,121.4125286,https://maps.google.com/?cid=0x0:0x60ec8afd270d2184,
perumahan,Balai masyarakat,Rumah yuli,"39RR+3GG bagian mengahadap keutara, Potugu, Kec. Momunu, Kabupaten Buol, Sulawesi Tengah 94565","Potugu, Kec. Momunu, Kabupaten Buol",SULAWESI TENGAH,94565.0,Indonesia,,,,1.0901917,121.3913253,https://maps.google.com/?cid=0x0:0xd6fbca68fe346453,
perumahan,Komplek perumahan,Kios samarudin,"Pinamula, Kec. Momunu, Kabupaten Buol, Sulawesi Tengah 94565","Kec. Momunu, Kabupaten Buol",SULAWESI TENGAH,94565.0,Indonesia,,,,1.0997679,121.3773937,https://maps.google.com/?cid=0x0:0xfbeaede8dae25373,
perumahan,Perumahan,Rumah nur,"39XR+GHV, Potugu, Kec. Momunu, Kabupaten Buol, Sulawesi Tengah 94565","Potugu, Kec. Momunu, Kabupaten Buol",SULAWESI TENGAH,94565.0,Indonesia,,,,1.0988502,121.391436,https://maps.google.com/?cid=0x0:0xd1c8ab266c8fef81,
perumahan,Komplek perumahan,Rosalina supratno,"39PH+FXJ, Pujimulyo, Kec. Momunu, Kabupaten Buol, Sulawesi Tengah 94565","Pujimulyo, Kec. Momunu, Kabupaten Buol",SULAWESI TENGAH,94565.0,Indonesia,,,,1.0862144,121.3798921,https://maps.google.com/?cid=0x0:0x39fc58ba0a505087,
perumahan,Komplek perumahan,Rumah fadila,"4C34+HF4, Mangubi, Kec. Momunu, Kabupaten Buol, Sulawesi Tengah 94565","Mangubi, Kec. Momunu, Kabupaten Buol",SULAWESI TENGAH,94565.0,Indonesia,,,,1.103878,121.406217,https://maps.google.com/?cid=0x0:0xa96c0106671ec5ee,
perumahan,Komplek perumahan,Rumah Moh Rizky A Sambaly,"4CC7+X63, Desa, Lamadong 1, Kec. Momunu, Kabupaten Buol, Sulawesi Tengah 94565","Desa, Lamadong 1, Kec. Momunu, Kabupaten Buol",SULAWESI TENGAH,94565.0,Indonesia,,,,1.1227106,121.4126577,https://maps.google.com/?cid=0x0:0x432bab884e89a6ce,
perumahan,Komplek perumahan,Rumah Nussyam Lakuntu,"4CW7+C54, Pajeko, Kec. Momunu, Kabupaten Buol, Sulawesi Tengah 94565","Pajeko, Kec. Momunu, Kabupaten Buol",SULAWESI TENGAH,94565.0,Indonesia,,,,1.1460321,121.4129516,https://maps.google.com/?cid=0x0:0x5c35397b5d2329c2,
perumahan,Pembangunan Perumahan,IHMAWAN SARY,"4CV6+RVQ, Lapangan, Pajeko, Kec. Momunu, Kabupaten Buol, Sulawesi Tengah","Kabupaten Buol, Sulawesi Tengah",SULAWESI TENGAH,,Indonesia,,,,1.1445833,121.4122466,https://maps.google.com/?cid=0x0:0xa408d1268ab0c17b,
perumahan,Komplek perumahan,Rumah Sefti Nirmayanti,"4CC7+26X, Lamadong 1, Kec. Momunu, Kabupaten Buol, Sulawesi Tengah 94565","Lamadong 1, Kec. Momunu, Kabupaten Buol",SULAWESI TENGAH,94565.0,Indonesia,,,,1.1203829,121.4128283,https://maps.google.com/?cid=0x0:0x37ba6b26a0b48872,
perumahan,Komplek perumahan,Rumah sarman,"4CR6+3QH, Jl. Trans Sulawesi, Pajeko, Kec. Momunu, Kabupaten Buol, Sulawesi Tengah 94565","Jl. Trans Sulawesi, Pajeko, Kec. Momunu, Kabupaten Buol",SULAWESI TENGAH,94565.0,Indonesia,,,,1.1408706,121.4113979,https://maps.google.com/?cid=0x0:0xc48cbf021b595e7,
perumahan,Komplek perumahan,MUSTAFA MAKUR,"497H+XXR, Mangubi, Kec. Momunu, Kabupaten Buol, Sulawesi Tengah 94565","Mangubi, Kec. Momunu, Kabupaten Buol",SULAWESI TENGAH,94565.0,Indonesia,,,,1.1149942,121.3798921,https://maps.google.com/?cid=0x0:0x956904fef9bf3039,
perumahan,Pasar,Sekitaran pasar,"3CP3+94C, Tongon, Kec. Momunu, Kabupaten Buol, Sulawesi Tengah 94565","Tongon, Kec. Momunu, Kabupaten Buol",SULAWESI TENGAH,94565.0,Indonesia,,,,1.08595,121.4027574,https://maps.google.com/?cid=0x0:0x263ed6b414b03917,
perumahan,Komplek perumahan,BTN Kulango Indah,"5C45+PJV, Kulango, Kec. Biau, Kabupaten Buol, Sulawesi Tengah 94565","Kulango, Kec. Biau, Kabupaten Buol",SULAWESI TENGAH,94565.0,Indonesia,,,,1.1568698,121.4090482,https://maps.google.com/?cid=0x0:0x7fb441dc96decf28,
perumahan,Komplek perumahan,Kulango,"5C35+8MG, Jl. Macan, Kulango, Kec. Biau, Kabupaten Buol, Sulawesi Tengah 94565","Jl. Macan, Kulango, Kec. Biau, Kabupaten Buol",SULAWESI TENGAH,94565.0,Indonesia,,,,1.1533203,121.4092143,https://maps.google.com/?cid=0x0:0x47ba1e5db95f9264,
perumahan,Komplek perumahan,Rumah mulyadi dan ningsih,"5C25+QPR, Jl. Macan, Kulango, Kec. Biau, Kabupaten Buol, Sulawesi Tengah 94565","Jl. Macan, Kulango, Kec. Biau, Kabupaten Buol",SULAWESI TENGAH,94565.0,Indonesia,,,,1.1519828,121.4092667,https://maps.google.com/?cid=0x0:0x3fc4e297201babe6,
perumahan,Kantor Perusahaan,Desa momunu,"38RP+G7, Suraya, Kec. Momunu, Kabupaten Buol, Sulawesi Tengah","Kabupaten Buol, Sulawesi Tengah",SULAWESI TENGAH,,Indonesia,81251485516.0,,,1.0930975,121.335978,https://maps.google.com/?cid=0x0:0xcc3bb5c73cb1402,
perumahan,Masjid,Lamadong 1,"4CC7+X63, Desa, Lamadong 1, Kec. Momunu, Kabupaten Buol, Sulawesi Tengah 94565","Desa, Lamadong 1, Kec. Momunu, Kabupaten Buol",SULAWESI TENGAH,94565.0,Indonesia,,,,1.122918,121.412627,https://maps.google.com/?cid=0x0:0x5215f58775cfb7bc,
perumahan,Komplek perumahan,Rumah Putri Diana a.h. timumun,"4CC7+65J, Lamadong 1, Kec. Momunu, Kabupaten Buol, Sulawesi Tengah 94565","Lamadong 1, Kec. Momunu, Kabupaten Buol",SULAWESI TENGAH,94565.0,Indonesia,,,,1.120596,121.412893,https://maps.google.com/?cid=0x0:0x32042d101c997664,
perumahan,perumahan,Lokasi Rumah,"2XW2+CGM, Jl. Gunung Intan, Paleleh, Kabupaten Buol, Sulawesi Tengah 94568","Jl. Gunung Intan, Paleleh, Kabupaten Buol",SULAWESI TENGAH,94568.0,Indonesia,,,,1.0463892,121.9513468,https://maps.google.com/?cid=0x0:0xd4a53d0805fdc6a,
perumahan,Komplek perumahan,Rumah Sarlan Hamid,"257J+G5P, Umu, Paleleh, Kabupaten Buol, Sulawesi Tengah 94568","Umu, Paleleh, Kabupaten Buol",SULAWESI TENGAH,94568.0,Indonesia,,,,1.0144582,122.1802583,https://maps.google.com/?cid=0x0:0xe41a87ac3a65c23b,
perumahan,perumahan,Sulawesi Tengah 94568,"Kabupaten Buol, Sulawesi Tengah","Kabupaten Buol, Sulawesi Tengah",SULAWESI TENGAH,,Indonesia,,,,1.0612253,121.947311,https://maps.google.com/?cid=0x0:0x9f3388a9eb052b12,
perumahan,Komplek perumahan,Rumah Nani S muka,"2573+QV9, Mulangato, Paleleh, Kabupaten Buol, Sulawesi Tengah 94568","Mulangato, Paleleh, Kabupaten Buol",SULAWESI TENGAH,94568.0,Indonesia,,,,1.0146954,122.1535425,https://maps.google.com/?cid=0x0:0x8c563695d4c34581,
perumahan,Komplek perumahan,TANGALAN,"3WW7+8Q, Oyak, Kec. Paleleh Bar., Kabupaten Buol, Sulawesi Tengah","Kabupaten Buol, Sulawesi Tengah",SULAWESI TENGAH,,Indonesia,,,,1.0958009,121.9144845,https://maps.google.com/?cid=0x0:0x773e5663d7244ec5,
perumahan,Komplek perumahan,BUNGAYON,"3WR3+PP8, Oyak, Kec. Paleleh Bar., Kabupaten Buol, Sulawesi Tengah 94568","Oyak, Kec. Paleleh Bar., Kabupaten Buol",SULAWESI TENGAH,94568.0,Indonesia,,,,1.0917531,121.9046924,https://maps.google.com/?cid=0x0:0xf15799ba7a412a68,
perumahan,Komplek perumahan,Rumah AYDIL,"3WR3+PP8, Oyak, Kec. Paleleh Bar., Kabupaten Buol, Sulawesi Tengah 94568","Oyak, Kec. Paleleh Bar., Kabupaten Buol",SULAWESI TENGAH,94568.0,Indonesia,,,,1.0917777,121.9043398,https://maps.google.com/?cid=0x0:0x4ba0da2eab67fcd7,
perumahan,perumahan,Desa tolau,"2WRR+X29, Tolau, Paleleh, Kabupaten Buol, Sulawesi Tengah","Kabupaten Buol, Sulawesi Tengah",SULAWESI TENGAH,,Indonesia,,,,1.042415,121.940102,https://maps.google.com/?cid=0x0:0x475e7775a7fd2f0c,
perumahan,Komplek perumahan,Home Basri Lahiya,"3VHG+PHQ, Timbulon, Kec. Paleleh Bar., Kabupaten Buol, Sulawesi Tengah","Kabupaten Buol, Sulawesi Tengah",SULAWESI TENGAH,,Indonesia,,,,1.079177,121.8752532,https://maps.google.com/?cid=0x0:0x58378302106c9682,
perumahan,Bed >>u0026 Breakfast,Penginapan 42 Paleleh,"Paleleh, Kabupaten Buol, Sulawesi Tengah 94568",Kabupaten Buol,SULAWESI TENGAH,94568.0,Indonesia,81370483525.0,,,1.0440133,121.9495701,https://maps.google.com/?cid=0x0:0x932430cf7c85a1ec,
perumahan,Komplek perumahan,rumah TONI ABAS,"2576+W88, Umu, Paleleh, Kabupaten Buol, Sulawesi Tengah 94568","Umu, Paleleh, Kabupaten Buol",SULAWESI TENGAH,94568.0,Indonesia,,,,1.0148397,122.1607846,https://maps.google.com/?cid=0x0:0xf7c56b7dae57ff21,
perumahan,Komplek perumahan,Makasambe Lihondatu,"3RH9+M6G, Harmoni, Kec. Paleleh Bar., Kabupaten Buol, Sulawesi Tengah","Kabupaten Buol, Sulawesi Tengah",SULAWESI TENGAH,,Indonesia,,,,1.07918,121.8180716,https://maps.google.com/?cid=0x0:0xd7b6309e47ede1b6,
perumahan,Komplek perumahan,Saddia k hilaiya,"2XJ4+HW5, Kuala Besar, Paleleh, Kabupaten Buol, Sulawesi Tengah 94568","Kuala Besar, Paleleh, Kabupaten Buol",SULAWESI TENGAH,94568.0,Indonesia,,,,1.0313221,121.9578844,https://maps.google.com/?cid=0x0:0xb33fa7be0d5e31e4,
perumahan,perumahan,Sira pakaya,"2XP5+59C, Paleleh, Kabupaten Buol, Sulawesi Tengah","Kabupaten Buol, Sulawesi Tengah",SULAWESI TENGAH,,Indonesia,,,,1.0354488,121.9583894,https://maps.google.com/?cid=0x0:0x9956ba1c5567c54c,
perumahan,Komplek perumahan,Rumah Elin Juni,"3WGP+V6C, Lintidu, Paleleh, Kabupaten Buol, Sulawesi Tengah 94568","Lintidu, Paleleh, Kabupaten Buol",SULAWESI TENGAH,94568.0,Indonesia,,,,1.0773896,121.9358484,https://maps.google.com/?cid=0x0:0x41e11302b2b69964,
perumahan,Komplek perumahan,Rumah Nadine,"3W4X+4MG, Jalan TK. Mandiri, Dopalak, Paleleh, Kabupaten Buol, Sulawesi Tengah 94568","Jalan TK. Mandiri, Dopalak, Paleleh, Kabupaten Buol",SULAWESI TENGAH,94568.0,Indonesia,,,,1.055316,121.9491882,https://maps.google.com/?cid=0x0:0xe9ae0c45ed40f3a1,
perumahan,Komplek perumahan,Mitta,"2XJ4+X8, Kuala Besar, Paleleh, Kabupaten Buol, Sulawesi Tengah 94568","Kuala Besar, Paleleh, Kabupaten Buol",SULAWESI TENGAH,94568.0,Indonesia,,,,1.0327756,121.9558033,https://maps.google.com/?cid=0x0:0x4760d19899789d55,
perumahan,perumahan,Rumah rafif shava,"2XJ4+VHH, Kuala Besar, Paleleh, Kabupaten Buol, Sulawesi Tengah","Kabupaten Buol, Sulawesi Tengah",SULAWESI TENGAH,,Indonesia,,,,1.0321812,121.9564769,https://maps.google.com/?cid=0x0:0x9187a8f015c89fbc,
perumahan,Komplek perumahan,Fattika,"2WVX+8VM, Paleleh, Kabupaten Buol, Sulawesi Tengah 94568","Paleleh, Kabupaten Buol",SULAWESI TENGAH,94568.0,Indonesia,,,,1.0434224,121.949638,https://maps.google.com/?cid=0x0:0xeadebe468b2529d,
perumahan,Komplek perumahan,TANG,"2XW3+Q49, Paleleh, Kabupaten Buol, Sulawesi Tengah 94568","Paleleh, Kabupaten Buol",SULAWESI TENGAH,94568.0,Indonesia,,,,1.0469016,121.9528473,https://maps.google.com/?cid=0x0:0x62a859941860f1a0,
perumahan,Tempat Ibadah,RUMAH JAHIT UMI KHUMAIRO/IIN,"2XW3+H6R, Paleleh, Kabupaten Buol, Sulawesi Tengah 94568","Paleleh, Kabupaten Buol",SULAWESI TENGAH,94568.0,Indonesia,,,,1.0464986,121.9530369,https://maps.google.com/?cid=0x0:0xb44dd1136293a99,
perumahan,Pembangunan Perumahan,Alfajhri M daud,"3WR4+P95, Oyak, Kec. Paleleh Bar., Kabupaten Buol, Sulawesi Tengah 94568","Oyak, Kec. Paleleh Bar., Kabupaten Buol",SULAWESI TENGAH,94568.0,Indonesia,,,,1.0918896,121.9068955,https://maps.google.com/?cid=0x0:0x8e4b1279cda0de1d,
perumahan,Komplek perumahan,Trevel paleleh buol,"2XX3+VFF, Paleleh, Kabupaten Buol, Sulawesi Tengah","Kabupaten Buol, Sulawesi Tengah",SULAWESI TENGAH,,Indonesia,,,,1.0496899,121.9536589,https://maps.google.com/?cid=0x0:0x4e8c0310147fd291,
perumahan,Komplek perumahan,Hardin K. Hidu,"3RQF+532, Jl. Buol - Gorontalo, Lunguto, Kec. Paleleh Bar., Kabupaten Buol, Sulawesi Tengah 94568","Jl. Buol - Gorontalo, Lunguto, Kec. Paleleh Bar., Kabupaten Buol",SULAWESI TENGAH,94568.0,Indonesia,,,,1.0874323,121.8226947,https://maps.google.com/?cid=0x0:0x8fd06d149c888953,
perumahan,perumahan,Kec. Paleleh Bar.,"Kabupaten Buol, Sulawesi Tengah","Kabupaten Buol, Sulawesi Tengah",SULAWESI TENGAH,,Indonesia,,,,1.0461908,121.8334868,https://maps.google.com/?cid=0x0:0x4caaeaca358ff12f,
perumahan,Komplek perumahan,Rumah AYDIL,"3WR3+PP8, Oyak, Kec. Paleleh Bar., Kabupaten Buol, Sulawesi Tengah 94568","Oyak, Kec. Paleleh Bar., Kabupaten Buol",SULAWESI TENGAH,94568.0,Indonesia,,,,1.0917777,121.9043398,https://maps.google.com/?cid=0x0:0x4ba0da2eab67fcd7,
perumahan,Komplek perumahan,TANGALAN,"3WW7+8Q, Oyak, Kec. Paleleh Bar., Kabupaten Buol, Sulawesi Tengah","Kabupaten Buol, Sulawesi Tengah",SULAWESI TENGAH,,Indonesia,,,,1.0958009,121.9144845,https://maps.google.com/?cid=0x0:0x773e5663d7244ec5,
perumahan,perumahan,Lokasi Rumah,"2XW2+CGM, Jl. Gunung Intan, Paleleh, Kabupaten Buol, Sulawesi Tengah 94568","Jl. Gunung Intan, Paleleh, Kabupaten Buol",SULAWESI TENGAH,94568.0,Indonesia,,,,1.0463892,121.9513468,https://maps.google.com/?cid=0x0:0xd4a53d0805fdc6a,
perumahan,perumahan,Home Ma'ruf Dg Malondeng,"3VM9+738, Jl. Buol - Gorontalo, Timbulon, Kec. Paleleh Bar., Kabupaten Buol, Sulawesi Tengah 94568","Jl. Buol - Gorontalo, Timbulon, Kec. Paleleh Bar., Kabupaten Buol",SULAWESI TENGAH,94568.0,Indonesia,,,,1.0831749,121.8677174,https://maps.google.com/?cid=0x0:0x19a4c1c2f6fa74ad,
perumahan,Komplek perumahan,Home Basri Lahiya,"3VHG+PHQ, Timbulon, Kec. Paleleh Bar., Kabupaten Buol, Sulawesi Tengah","Kabupaten Buol, Sulawesi Tengah",SULAWESI TENGAH,,Indonesia,,,,1.079177,121.8752532,https://maps.google.com/?cid=0x0:0x58378302106c9682,
perumahan,Komplek perumahan,Makasambe Lihondatu,"3RH9+M6G, Harmoni, Kec. Paleleh Bar., Kabupaten Buol, Sulawesi Tengah","Kabupaten Buol, Sulawesi Tengah",SULAWESI TENGAH,,Indonesia,,,,1.07918,121.8180716,https://maps.google.com/?cid=0x0:0xd7b6309e47ede1b6,
perumahan,Komplek perumahan,LIANG,"3VRW+526, Oyak, Kec. Paleleh Bar., Kabupaten Buol, Sulawesi Tengah 94568","Oyak, Kec. Paleleh Bar., Kabupaten Buol",SULAWESI TENGAH,94568.0,Indonesia,,,,1.0904578,121.8949256,https://maps.google.com/?cid=0x0:0x82e83d00ef30a915,
perumahan,Pembangunan Perumahan,Alfajhri M daud,"3WR4+P95, Oyak, Kec. Paleleh Bar., Kabupaten Buol, Sulawesi Tengah 94568","Oyak, Kec. Paleleh Bar., Kabupaten Buol",SULAWESI TENGAH,94568.0,Indonesia,,,,1.0918896,121.9068955,https://maps.google.com/?cid=0x0:0x8e4b1279cda0de1d,
perumahan,Komplek perumahan,Rumahnya Ryla,"3VHG+MQ8, Jl. Buol - Gorontalo, Timbulon, Kec. Paleleh Bar., Kabupaten Buol, Sulawesi Tengah 94568","Jl. Buol - Gorontalo, Timbulon, Kec. Paleleh Bar., Kabupaten Buol",SULAWESI TENGAH,94568.0,Indonesia,,,,1.0794673,121.8771818,https://maps.google.com/?cid=0x0:0xb51cf45bd57d080e,
perumahan,Komplek perumahan,TAYOKAN,"3QGJ+2MP, Tayokan, Kec. Paleleh Bar., Kabupaten Buol, Sulawesi Tengah","Kabupaten Buol, Sulawesi Tengah",SULAWESI TENGAH,,Indonesia,,,,1.075078,121.7817033,https://maps.google.com/?cid=0x0:0x34f376271224bb82,
perumahan,Pembangunan Perumahan,Lorong Pelita,"3RH9+P42, Jl. Buol - Gorontalo, Harmoni, Kec. Paleleh Bar., Kabupaten Buol, Sulawesi Tengah 94568","Jl. Buol - Gorontalo, Harmoni, Kec. Paleleh Bar., Kabupaten Buol",SULAWESI TENGAH,94568.0,Indonesia,,,,1.0792539,121.817759,https://maps.google.com/?cid=0x0:0x3bc65f4524066b56,
perumahan,Komplek perumahan,Rumah Elin Juni,"3WGP+V6C, Lintidu, Paleleh, Kabupaten Buol, Sulawesi Tengah 94568","Lintidu, Paleleh, Kabupaten Buol",SULAWESI TENGAH,94568.0,Indonesia,,,,1.0773896,121.9358484,https://maps.google.com/?cid=0x0:0x41e11302b2b69964,
perumahan,Komplek perumahan,Home Anto,"3WR4+P95, Oyak, Kec. Paleleh Bar., Kabupaten Buol, Sulawesi Tengah 94568","Oyak, Kec. Paleleh Bar., Kabupaten Buol",SULAWESI TENGAH,94568.0,Indonesia,,,,1.0918619,121.9063384,https://maps.google.com/?cid=0x0:0x8732373981f8c92b,
perumahan,Pembangunan Perumahan,Area Pasar Berjaya Harmoni,"3RHC+F6J, Jl. Buol - Gorontalo, Lunguto, Kec. Paleleh Bar., Kabupaten Buol, Sulawesi Tengah 94568","Jl. Buol - Gorontalo, Lunguto, Kec. Paleleh Bar., Kabupaten Buol",SULAWESI TENGAH,94568.0,Indonesia,,,,1.07871,121.8205152,https://maps.google.com/?cid=0x0:0x8c5ba70bbfa9e301,
perumahan,Pembangunan Perumahan,Lorong Berjaya,"3RHC+G3G, Jl. Buol - Gorontalo, Harmoni, Kec. Paleleh Bar., Kabupaten Buol, Sulawesi Tengah 94568","Jl. Buol - Gorontalo, Harmoni, Kec. Paleleh Bar., Kabupaten Buol",SULAWESI TENGAH,94568.0,Indonesia,,,,1.0788101,121.8202088,https://maps.google.com/?cid=0x0:0x28895f61b9b0e407,
perumahan,Komplek perumahan,"Rumah Jaenab Tambing, S.Pd","3WGP+V6C, Lintidu, Paleleh, Kabupaten Buol, Sulawesi Tengah 94568","Lintidu, Paleleh, Kabupaten Buol",SULAWESI TENGAH,94568.0,Indonesia,,,,1.0775113,121.935435,https://maps.google.com/?cid=0x0:0x387307927e34babb,
perumahan,Pembangunan Perumahan,Lorong Tepi,"3RH9+7VW, Harmoni, Kec. Paleleh Bar., Kabupaten Buol, Sulawesi Tengah","Kabupaten Buol, Sulawesi Tengah",SULAWESI TENGAH,,Indonesia,,,,1.0782442,121.8197133,https://maps.google.com/?cid=0x0:0x36e20df5e6c53401,
perumahan,Komplek perumahan,Hardin K. Hidu,"3RQF+532, Jl. Buol - Gorontalo, Lunguto, Kec. Paleleh Bar., Kabupaten Buol, Sulawesi Tengah 94568","Jl. Buol - Gorontalo, Lunguto, Kec. Paleleh Bar., Kabupaten Buol",SULAWESI TENGAH,94568.0,Indonesia,,,,1.0874323,121.8226947,https://maps.google.com/?cid=0x0:0x8fd06d149c888953,
perumahan,Komplek perumahan,Dusun Pangapulan,"3Q59+M3Q, Bodi, Kec. Paleleh Bar., Kabupaten Buol, Sulawesi Tengah 94568","Bodi, Kec. Paleleh Bar., Kabupaten Buol",SULAWESI TENGAH,94568.0,Indonesia,,,,1.0591231,121.7677352,https://maps.google.com/?cid=0x0:0xc16df33ac1e1375,
perumahan,Komplek perumahan,LOKASI PDT MAKASAMBE,"3QC9+G8C, Bodi, Kec. Paleleh Bar., Kabupaten Buol, Sulawesi Tengah","Kabupaten Buol, Sulawesi Tengah",SULAWESI TENGAH,,Indonesia,,,,1.0713188,121.7682586,https://maps.google.com/?cid=0x0:0xa268ebf91e1815db,
perumahan,Komplek perumahan,Rumah Papa Mia,"3RG5+WFR, BILA BARAT LAUT, Harmoni, Kec. Paleleh Bar., Kabupaten Buol, Sulawesi Tengah","Kabupaten Buol, Sulawesi Tengah",SULAWESI TENGAH,,Indonesia,,,,1.076862,121.80901,https://maps.google.com/?cid=0x0:0x96e988f3670ce0fd,
perumahan,Komplek perumahan,"Kilat Home, Desa Timbulon","3VHG+PHQ, Timbulon, Kec. Paleleh Bar., Kabupaten Buol, Sulawesi Tengah","Kabupaten Buol, Sulawesi Tengah",SULAWESI TENGAH,,Indonesia,,,,1.0793302,121.8764778,https://maps.google.com/?cid=0x0:0x8b16dc8c3ea75c65,
perumahan,perumahan,Sulawesi Tengah 94565,"Kabupaten Buol, Sulawesi Tengah","Kabupaten Buol, Sulawesi Tengah",SULAWESI TENGAH,,Indonesia,,,,0.971428,121.1710389,https://maps.google.com/?cid=0x0:0x5a2a36bc7e43bf3d,
perumahan,Komplek perumahan,Simpang Empat MBA Tiloan,"377R+RFX, Simpang empat Monggonit Balau Air Terang, Desa, Monggonit, Kec. Tiloan, Kabupaten Buol, Sulawesi Tengah","Kabupaten Buol, Sulawesi Tengah",SULAWESI TENGAH,,Indonesia,,,,1.0646202,121.2912463,https://maps.google.com/?cid=0x0:0x91642ac1203f213f,
perumahan,Komplek perumahan,Rumah Idaman Mas Mulyono,"38H2+4RF, Boilan, Kec. Tiloan, Kabupaten Buol, Sulawesi Tengah 94565","Boilan, Kec. Tiloan, Kabupaten Buol",SULAWESI TENGAH,94565.0,Indonesia,,,,1.0778992,121.3029674,https://maps.google.com/?cid=0x0:0x400b386778d09e89,
perumahan,Kantor Pemerintah,Desa maniala kecamatan tiloan kabupaten buol,"38F6+W29, Maniala, Kec. Tiloan, Kabupaten Buol, Sulawesi Tengah 94565","Maniala, Kec. Tiloan, Kabupaten Buol",SULAWESI TENGAH,94565.0,Indonesia,,,,1.0749028,121.31073,https://maps.google.com/?cid=0x0:0xb6ba0247e723bb03,
perumahan,Perhimpunan Pengembang Perumahan,Rumah Papa Bima,"37CH+Q66, Airterang, Kec. Tiloan, Kabupaten Buol, Sulawesi Tengah 94565","Airterang, Kec. Tiloan, Kabupaten Buol",SULAWESI TENGAH,94565.0,Indonesia,,,,1.0728709,121.2786629,https://maps.google.com/?cid=0x0:0xd7fe4e74f6ffff36,
perumahan,Komplek perumahan,Rumah mendiang rizki,"X7J5+C54, Kokobuka, Kec. Tiloan, Kabupaten Buol, Sulawesi Tengah","Kabupaten Buol, Sulawesi Tengah",SULAWESI TENGAH,,Indonesia,,,,0.9810099,121.2579405,https://maps.google.com/?cid=0x0:0xed27a25a5054c43f,
perumahan,Komplek perumahan,Melly,"28HR+VRX, Jatimulyo, Kec. Tiloan, Kabupaten Buol, Sulawesi Tengah 94565","Jatimulyo, Kec. Tiloan, Kabupaten Buol",SULAWESI TENGAH,94565.0,Indonesia,,,,1.029744,121.3421,https://maps.google.com/?cid=0x0:0xfd92b7fb7d94744f,
perumahan,Komplek perumahan,Ayub,"28HR+X56, Jatimulyo, Kec. Tiloan, Kabupaten Buol, Sulawesi Tengah 94565","Jatimulyo, Kec. Tiloan, Kabupaten Buol",SULAWESI TENGAH,94565.0,Indonesia,,,,1.0299004,121.3403758,https://maps.google.com/?cid=0x0:0xd488f621521410da,
perumahan,perumahan,Gilingan lumbung utuh,"37CF+RC5, Airterang, Kec. Tiloan, Kabupaten Buol, Sulawesi Tengah 94565","Airterang, Kec. Tiloan, Kabupaten Buol",SULAWESI TENGAH,94565.0,Indonesia,,,,1.0720062,121.2736134,https://maps.google.com/?cid=0x0:0x6c7ab01a36c7788c,
perumahan,Area Mendaki,Butakion koyadi,"276H+MV3 Sungai, Panilan Jaya, Tiloan, Buol Regency, Central Sulawesi 94565","Panilan Jaya, Tiloan, Buol Regency",SULAWESI TENGAH,94565.0,Indonesia,,,,1.0116389,121.2796694,https://maps.google.com/?cid=0x0:0x3d19fcf66c847b85,
perumahan,Komplek perumahan,rumah ku,"3754+R6W, Airterang, Kec. Tiloan, Kabupaten Buol, Sulawesi Tengah 94565","Airterang, Kec. Tiloan, Kabupaten Buol",SULAWESI TENGAH,94565.0,Indonesia,,,,1.059268,121.256217,https://maps.google.com/?cid=0x0:0xccfc0c5d8609a6e0,
perumahan,Komplek perumahan,Nur Ain Home,"27HP+XCV, Panilan Jaya, Kec. Tiloan, Kabupaten Buol, Sulawesi Tengah 94565","Panilan Jaya, Kec. Tiloan, Kabupaten Buol",SULAWESI TENGAH,94565.0,Indonesia,,,,1.0299828,121.2860576,https://maps.google.com/?cid=0x0:0xeab32ae0928c3e04,
perumahan,Kantor Pemerintahan Wilayah,dpn rmh dinas camat tiloan,"37CH+Q66, Airterang, Kec. Tiloan, Kabupaten Buol, Sulawesi Tengah 94565","Airterang, Kec. Tiloan, Kabupaten Buol",SULAWESI TENGAH,94565.0,Indonesia,,,,1.0719125,121.2780156,https://maps.google.com/?cid=0x0:0x6c1b8031cb9aad2,
perumahan,perumahan,Dusun sumber sari,"37JR+CFH, Boilan, Kec. Tiloan, Kabupaten Buol, Sulawesi Tengah 94565","Boilan, Kec. Tiloan, Kabupaten Buol",SULAWESI TENGAH,94565.0,Indonesia,,,,1.081068,121.2912463,https://maps.google.com/?cid=0x0:0x3ea6ebb8cfdc74cf,
perumahan,Komplek perumahan,Rumah Sri rahayu,"3765+4WP, Airterang, Kec. Tiloan, Kabupaten Buol, Sulawesi Tengah 94565","Airterang, Kec. Tiloan, Kabupaten Buol",SULAWESI TENGAH,94565.0,Indonesia,,,,1.0603554,121.259876,https://maps.google.com/?cid=0x0:0xb9ba028ac85ced,
perumahan,perumahan,RISKAL BATALIPU,"36VH+M83, Airterang, Kec. Tiloan, Kabupaten Buol, Sulawesi Tengah","Kabupaten Buol, Sulawesi Tengah",SULAWESI TENGAH,,Indonesia,,,,1.0941381,121.2282958,https://maps.google.com/?cid=0x0:0x44e05f79cabb000,
perumahan,Komplek perumahan,Rumah Sefti Nirmayanti,"4CC7+26X, Lamadong 1, Kec. Momunu, Kabupaten Buol, Sulawesi Tengah 94565","Lamadong 1, Kec. Momunu, Kabupaten Buol",SULAWESI TENGAH,94565.0,Indonesia,,,,1.1203829,121.4128283,https://maps.google.com/?cid=0x0:0x37ba6b26a0b48872,
perumahan,perumahan,MAS BIM,"X647+GF2, Kokobuka, Kec. Tiloan, Kabupaten Buol, Sulawesi Tengah","Kabupaten Buol, Sulawesi Tengah",SULAWESI TENGAH,,Indonesia,,,,0.9562617,121.2136307,https://maps.google.com/?cid=0x0:0x3d6c12b4924d94a7,
perumahan,Pembangunan Perumahan,Rumah Sukron dan Huda,"X7J3+GF, Kokobuka, Kec. Tiloan, Kabupaten Buol, Sulawesi Tengah","Kabupaten Buol, Sulawesi Tengah",SULAWESI TENGAH,,Indonesia,,,,0.9810937,121.2533177,https://maps.google.com/?cid=0x0:0xdb22305dfcf32e8,
perumahan,Komplek perumahan,Rumah pak Ripa'al,"27FR+CF9, Panilan Jaya, Kec. Tiloan, Kabupaten Buol, Sulawesi Tengah 94565","Panilan Jaya, Kec. Tiloan, Kabupaten Buol",SULAWESI TENGAH,94565.0,Indonesia,,,,1.0235341,121.2912463,https://maps.google.com/?cid=0x0:0x3976f426d52835c7,
perumahan,Komplek perumahan,Rumah Aryan,"5C5H+QJ5, Buol, Kec. Biau, Kabupaten Buol, Sulawesi Tengah 94565","Buol, Kec. Biau, Kabupaten Buol",SULAWESI TENGAH,94565.0,Indonesia,,,,1.1593812,121.4291228,https://maps.google.com/?cid=0x0:0xba27188d3829feda,
perumahan,Komplek perumahan,Rumah mulyadi dan ningsih,"5C25+QPR, Jl. Macan, Kulango, Kec. Biau, Kabupaten Buol, Sulawesi Tengah 94565","Jl. Macan, Kulango, Kec. Biau, Kabupaten Buol",SULAWESI TENGAH,94565.0,Indonesia,,,,1.1519828,121.4092667,https://maps.google.com/?cid=0x0:0x3fc4e297201babe6,
perumahan,Komplek perumahan,Rumah mbak ety,"38G2+PMX, Rawa Makmur, Boilan, Kec. Tiloan, Kabupaten Buol, Sulawesi Tengah 94565","Rawa Makmur, Boilan, Kec. Tiloan, Kabupaten Buol",SULAWESI TENGAH,94565.0,Indonesia,,,,1.0769382,121.3017415,https://maps.google.com/?cid=0x0:0xc14f5dd4a5912ae5,
perumahan,Kantor Perusahaan,Divisi 3 CCM,"2956+MRF, Jatimulyo, Kec. Tiloan, Kabupaten Buol, Sulawesi Tengah 94565","Jatimulyo, Kec. Tiloan, Kabupaten Buol",SULAWESI TENGAH,94565.0,Indonesia,,,,1.0091961,121.3620426,https://maps.google.com/?cid=0x0:0xbfaf84c0f3a23ede,
perumahan,Komplek perumahan,Rumah sri pomayagon,"4C4G+7VV, Pomayagon, Kec. Momunu, Kabupaten Buol, Sulawesi Tengah 94565","Pomayagon, Kec. Momunu, Kabupaten Buol",SULAWESI TENGAH,94565.0,Indonesia,,,,1.1057311,121.4271601,https://maps.google.com/?cid=0x0:0x15395dd7d3bc93c6,
perumahan,Komplek perumahan,Rosalina supratno,"39PH+FXJ, Pujimulyo, Kec. Momunu, Kabupaten Buol, Sulawesi Tengah 94565","Pujimulyo, Kec. Momunu, Kabupaten Buol",SULAWESI TENGAH,94565.0,Indonesia,,,,1.0862144,121.3798921,https://maps.google.com/?cid=0x0:0x39fc58ba0a505087,
perumahan,Komplek perumahan,ð¾ððð¼ðð ðð¼ððð¼ð,"3754+R6W, Airterang, Kec. Tiloan, Kabupaten Buol, Sulawesi Tengah 94565","Airterang, Kec. Tiloan, Kabupaten Buol",SULAWESI TENGAH,94565.0,Indonesia,,,,1.0592597,121.2549813,https://maps.google.com/?cid=0x0:0x38945918ab1ef3b0,
