Category,Real Category,Business Name,Address,City,State,Postal Code,Country,Phone,Email,Website,Latitude,Longitude,Map Link,Details Link
mall,mall,Kalimantan Utara 77111,"Karang Anyar Pantai, Kec. Tarakan Bar., Kota Tarakan, Kalimantan Utara","Kota Tarakan, Kalimantan Utara",KALIMANTAN UTARA,,Indonesia,,,,3.3095521,117.5827496,https://maps.google.com/?cid=0x0:0xf55536e5ab2854e9,
mall,Pusat Perbelanjaan,Tarakan Mall,"8H5M+G73, Jl. Yos Sudarso No.1 Lantai 4, Karang Rejo, Kec. Tarakan Bar., Kota Tarakan, Kalimantan Utara","Kota Tarakan, Kalimantan Utara",KALIMANTAN UTARA,,Indonesia,,,,3.308837,117.5831623,https://maps.google.com/?cid=0x0:0x1eeb4f8ef877ebd6,
mall,Pusat Perbelanjaan,GRAND TARAKAN MALL XXI,"8H5M+G73 Tarakan Mall, Jl. Yos Sudarso No.1 Lantai 4, Karang Rejo, Kec. Tarakan Bar., Kota Tarakan, Kalimantan Utara","Kota Tarakan, Kalimantan Utara",KALIMANTAN UTARA,,Indonesia,5513830621.0,,,3.3086958,117.5833983,https://maps.google.com/?cid=0x0:0x7b62246e30eb3d2a,
mall,Pusat Perbelanjaan,Delta Town Centre Tarakan,"Jl. Imam Bonjol, Pamusian, Kec. Tarakan Tengah, Kota Tarakan, Kalimantan Utara 77113","Pamusian, Kec. Tarakan Tengah, Kota Tarakan",KALIMANTAN UTARA,77113.0,Indonesia,8115339567.0,,,3.303456,117.6053476,https://maps.google.com/?cid=0x0:0x877989d6775a6cf9,
mall,Makanan Siap Saji,KFC THM Plaza Tarakan,"THM Plaza, Jl. Yos Sudarso, Karang Balik, Tarakan Barat, Jl. Yos Sudarso, Karang Balik, Kec. Tarakan Bar., Kota Tarakan, Kalimantan Utara 70114","Jl. Yos Sudarso, Karang Balik, Tarakan Barat, Jl. Yos Sudarso, Karang Balik, Kec. Tarakan Bar., Kota Tarakan",KALIMANTAN UTARA,70114.0,Indonesia,55130063.0,,,3.3091674,117.5837899,https://maps.google.com/?cid=0x0:0x1e7f98ba634e8050,
mall,Pusat Perbelanjaan,Tarakan Shop,"8J4F+F3G, RT.13/RW.No 51, Kp. Empat, Kec. Tarakan Tim., Kota Tarakan, Kalimantan Utara","Kota Tarakan, Kalimantan Utara",KALIMANTAN UTARA,,Indonesia,82253052770.0,,,3.3061924,117.6227018,https://maps.google.com/?cid=0x0:0xb04eb08021ae6ea2,
mall,Pusat Perbelanjaan,tarakan,"8HGM+3M5, Jl. Slamet Riady, RT.26/RW.No.119, Karang Anyar, Kec. Tarakan Bar., Kota Tarakan, Kalimantan Utara 77111","Jl. Slamet Riady, RT.26/RW.No.119, Karang Anyar, Kec. Tarakan Bar., Kota Tarakan",KALIMANTAN UTARA,77111.0,Indonesia,,,,3.3251359,117.5842439,https://maps.google.com/?cid=0x0:0x68089c1d2066a8da,
mall,Pusat Perbelanjaan,Robinson Tarakan,"8H4H+CVR, Karang Rejo, Kec. Tarakan Bar., Kota Tarakan, Kalimantan Utara","Kota Tarakan, Kalimantan Utara",KALIMANTAN UTARA,,Indonesia,,,,3.3060538,117.5794816,https://maps.google.com/?cid=0x0:0xd76e1013fc99984b,
mall,Toko bahan makanan,Nu Store,"8HGF+MM3, Bar., Karang Anyar, Kec. Tarakan Bar., Kota Tarakan, Kalimantan Utara","Kota Tarakan, Kalimantan Utara",KALIMANTAN UTARA,,Indonesia,,,,3.3266284,117.5741714,https://maps.google.com/?cid=0x0:0xddd8d630c496db6e,
mall,mall,JCO DONUTS  COFFEE - GRAND TARAKAN MALL,"Grand Tarakan Mall, Jl. Yos Sudarso No.88 Lt. 3, Karang Rejo, Kec. Tarakan Bar., Kota Tarakan, Kalimantan Utara","Kota Tarakan, Kalimantan Utara",KALIMANTAN UTARA,,Indonesia,,,,3.3089197,117.5833638,https://maps.google.com/?cid=0x0:0xb3acabbd82cf4b48,
mall,Bar,ICON Indonesia,"Grand Tarakan Mall, Jl. Yos Sudarso No.88 Lt. 3, Karang Rejo, Kec. Tarakan Bar., Kota Tarakan, Kalimantan Utara","Kota Tarakan, Kalimantan Utara",KALIMANTAN UTARA,,Indonesia,8115916699.0,,,3.3087802,117.582883,https://maps.google.com/?cid=0x0:0xeca47087a13508b,
mall,Toko Ponsel,Varia Cell,"jl gajah mada rt 5 no 23, seberang GTM, Karang Anyar Pantai, Kec. Tarakan Bar., Kota Tarakan, Kalimantan Utara","Kota Tarakan, Kalimantan Utara",KALIMANTAN UTARA,,Indonesia,81253313133.0,,,3.309062,117.5828654,https://maps.google.com/?cid=0x0:0x2288fd3af60c3522,
mall,Toko Perlengkapan Rumah,Informa Tarakan,"Jl. Yos Sudarso No.8, Karang Rejo, Kec. Tarakan Bar., Kota Tarakan, Kalimantan Utara 77112","Karang Rejo, Kec. Tarakan Bar., Kota Tarakan",KALIMANTAN UTARA,77112.0,Indonesia,81511002000.0,,,3.3078891,117.5836601,https://maps.google.com/?cid=0x0:0x99814732e7ddebe5,
mall,Seniman,Tindik Telinga Tarakan,"Grand Tarakan Mall, Jl. Yos Sudarso, Karang Rejo, Kec. Tarakan Bar., Kota Tarakan, Kalimantan Utara","Kota Tarakan, Kalimantan Utara",KALIMANTAN UTARA,,Indonesia,81347033843.0,,,3.3086982,117.5831989,https://maps.google.com/?cid=0x0:0x241546a095c5b92c,
mall,Pusat Perbelanjaan,Toko Hamas,"8H5M+CVV, Karang Balik, Kec. Tarakan Bar., Kota Tarakan, Kalimantan Utara","Kota Tarakan, Kalimantan Utara",KALIMANTAN UTARA,,Indonesia,81347522911.0,,,3.3086063,117.5846612,https://maps.google.com/?cid=0x0:0xb588b9aa16468933,
mall,mall,Borneo Mart,"Jl. Gajah Mada, Karang Anyar Pantai, Kec. Tarakan Bar., Kota Tarakan, Kalimantan Utara","Kota Tarakan, Kalimantan Utara",KALIMANTAN UTARA,,Indonesia,895417300072.0,,,3.3067506,117.5786277,https://maps.google.com/?cid=0x0:0xbe70007d39eaa00d,
mall,mall,RedDoorz Syariah near Taman Berlabuh Tarakan,"Jl. Yos Sudarso No.7, Jemb. Besi, Kec. Tarakan Tim., Kota Tarakan, Kalimantan Utara 77126","Jemb. Besi, Kec. Tarakan Tim., Kota Tarakan",KALIMANTAN UTARA,77126.0,Indonesia,895417300072.0,,,3.289963,117.5908108,https://maps.google.com/?cid=0x0:0x62e291428e33f58b,
mall,mall,RedDoorz near Grand Tarakan Mall,"Jl. Niaga II No.46, Karang Balik, Kec. Tarakan Bar., Kota Tarakan, Kalimantan Utara 77111","Karang Balik, Kec. Tarakan Bar., Kota Tarakan",KALIMANTAN UTARA,77111.0,Indonesia,895417300072.0,,,3.3080169,117.5850298,https://maps.google.com/?cid=0x0:0x8e99317fb37d3f91,
mall,mall,Bumi Palapa Hotel,"JL. Jend Sudirman, No. 145, Kp. Empat, Kec. Tarakan Tim., Kota Tarakan, Kalimantan Utara","Kota Tarakan, Kalimantan Utara",KALIMANTAN UTARA,,Indonesia,55134333.0,,,3.3103174,117.5869195,https://maps.google.com/?cid=0x0:0xf47e6de65d623ad9,
mall,mall,Kaisar by CaLia Tarakan,"Jl. DR. Sutomo No.26, RT.11, Karang Balik, Kec. Tarakan Bar., Kota Tarakan, Kalimantan Utara 77111","RT.11, Karang Balik, Kec. Tarakan Bar., Kota Tarakan",KALIMANTAN UTARA,77111.0,Indonesia,82154931720.0,,,3.3051779,117.5857355,https://maps.google.com/?cid=0x0:0x4b7ab33ae12a0c0,
mall,mall,Hotel Grand Taufiq Tarakan,"Jl. Yos Sudarso No.7, Lingkas Ujung, Kec. Tarakan Tim., Kota Tarakan, Kalimantan Utara 77126","Lingkas Ujung, Kec. Tarakan Tim., Kota Tarakan",KALIMANTAN UTARA,77126.0,Indonesia,83843123457.0,,,3.289963,117.5908105,https://maps.google.com/?cid=0x0:0x90f026a77e8dfdd4,
mall,mall,Hotel Tranzit,"No.11 RT.11, Tim.,, Jl. Yos Sudarso, Lingkas Ujung, Kec. Tarakan Tim., Kota Tarakan, Kalimantan Utara","Kota Tarakan, Kalimantan Utara",KALIMANTAN UTARA,,Indonesia,81255660899.0,,,3.2908842,117.5897286,https://maps.google.com/?cid=0x0:0x99750dfc1966d55c,
mall,mall,Homestay Cempaka,"Jl. Imam Bonjol No.49B, Pamusian, Kec. Tarakan Tengah, Kota Tarakan, Kalimantan Utara","Kota Tarakan, Kalimantan Utara",KALIMANTAN UTARA,,Indonesia,82336728881.0,,,3.3027907,117.606301,https://maps.google.com/?cid=0x0:0xb60d5b1304ac0c87,
mall,Taman Ekologi,Kawasan Konservasi Mangrove Dan Bekantan,"Karang Rejo, Tarakan Barat, Karang Rejo, Kec. Tarakan Bar., Kota Tarakan, Kalimantan Utara","Kota Tarakan, Kalimantan Utara",KALIMANTAN UTARA,,Indonesia,,,,3.305523,117.5771055,https://maps.google.com/?cid=0x0:0xbaf2f265d3abbe0,
mall,mall,Kalimantan Utara 77112,"Karang Balik, Kec. Tarakan Bar., Kota Tarakan, Kalimantan Utara","Kota Tarakan, Kalimantan Utara",KALIMANTAN UTARA,,Indonesia,,,,3.306797,117.590528,https://maps.google.com/?cid=0x0:0x1470b76b4da93f75,
mall,Pusat Perbelanjaan,Tarakan Mall,"8H5M+G73, Jl. Yos Sudarso No.1 Lantai 4, Karang Rejo, Kec. Tarakan Bar., Kota Tarakan, Kalimantan Utara","Kota Tarakan, Kalimantan Utara",KALIMANTAN UTARA,,Indonesia,,,,3.308837,117.5831623,https://maps.google.com/?cid=0x0:0x1eeb4f8ef877ebd6,
mall,Pusat Perbelanjaan,Delta Town Centre Tarakan,"Jl. Imam Bonjol, Pamusian, Kec. Tarakan Tengah, Kota Tarakan, Kalimantan Utara 77113","Pamusian, Kec. Tarakan Tengah, Kota Tarakan",KALIMANTAN UTARA,77113.0,Indonesia,8115339567.0,,,3.303456,117.6053476,https://maps.google.com/?cid=0x0:0x877989d6775a6cf9,
mall,Toko bahan makanan,Nu Store,"8HGF+MM3, Bar., Karang Anyar, Kec. Tarakan Bar., Kota Tarakan, Kalimantan Utara","Kota Tarakan, Kalimantan Utara",KALIMANTAN UTARA,,Indonesia,,,,3.3266284,117.5741714,https://maps.google.com/?cid=0x0:0xddd8d630c496db6e,
mall,Pusat Perbelanjaan,tarakan,"8HGM+3M5, Jl. Slamet Riady, RT.26/RW.No.119, Karang Anyar, Kec. Tarakan Bar., Kota Tarakan, Kalimantan Utara 77111","Jl. Slamet Riady, RT.26/RW.No.119, Karang Anyar, Kec. Tarakan Bar., Kota Tarakan",KALIMANTAN UTARA,77111.0,Indonesia,,,,3.3251359,117.5842439,https://maps.google.com/?cid=0x0:0x68089c1d2066a8da,
mall,Pusat Perbelanjaan,Robinson Tarakan,"8H4H+CVR, Karang Rejo, Kec. Tarakan Bar., Kota Tarakan, Kalimantan Utara","Kota Tarakan, Kalimantan Utara",KALIMANTAN UTARA,,Indonesia,,,,3.3060538,117.5794816,https://maps.google.com/?cid=0x0:0xd76e1013fc99984b,
mall,Establishment,Karang balik,"Jl. Kh. Dewantara, Karang Balik, Kec. Tarakan Bar., Kota Tarakan, Kalimantan Utara 77112","Karang Balik, Kec. Tarakan Bar., Kota Tarakan",KALIMANTAN UTARA,77112.0,Indonesia,,,,3.3072958,117.5885011,https://maps.google.com/?cid=0x0:0x3e472b1e0a98293c,
mall,mall,Borneo Mart,"Jl. Gajah Mada, Karang Anyar Pantai, Kec. Tarakan Bar., Kota Tarakan, Kalimantan Utara","Kota Tarakan, Kalimantan Utara",KALIMANTAN UTARA,,Indonesia,895417300072.0,,,3.3067506,117.5786277,https://maps.google.com/?cid=0x0:0xbe70007d39eaa00d,
mall,mall,RedDoorz Syariah near Taman Berlabuh Tarakan,"Jl. Yos Sudarso No.7, Jemb. Besi, Kec. Tarakan Tim., Kota Tarakan, Kalimantan Utara 77126","Jemb. Besi, Kec. Tarakan Tim., Kota Tarakan",KALIMANTAN UTARA,77126.0,Indonesia,895417300072.0,,,3.289963,117.5908108,https://maps.google.com/?cid=0x0:0x62e291428e33f58b,
mall,mall,RedDoorz near Grand Tarakan Mall,"Jl. Niaga II No.46, Karang Balik, Kec. Tarakan Bar., Kota Tarakan, Kalimantan Utara 77111","Karang Balik, Kec. Tarakan Bar., Kota Tarakan",KALIMANTAN UTARA,77111.0,Indonesia,895417300072.0,,,3.3080169,117.5850298,https://maps.google.com/?cid=0x0:0x8e99317fb37d3f91,
mall,mall,Bumi Palapa Hotel,"JL. Jend Sudirman, No. 145, Kp. Empat, Kec. Tarakan Tim., Kota Tarakan, Kalimantan Utara","Kota Tarakan, Kalimantan Utara",KALIMANTAN UTARA,,Indonesia,55134333.0,,,3.3103174,117.5869195,https://maps.google.com/?cid=0x0:0xf47e6de65d623ad9,
mall,mall,Kaisar by CaLia Tarakan,"Jl. DR. Sutomo No.26, RT.11, Karang Balik, Kec. Tarakan Bar., Kota Tarakan, Kalimantan Utara 77111","RT.11, Karang Balik, Kec. Tarakan Bar., Kota Tarakan",KALIMANTAN UTARA,77111.0,Indonesia,82154931720.0,,,3.3051779,117.5857355,https://maps.google.com/?cid=0x0:0x4b7ab33ae12a0c0,
mall,mall,Hotel Grand Taufiq Tarakan,"Jl. Yos Sudarso No.7, Lingkas Ujung, Kec. Tarakan Tim., Kota Tarakan, Kalimantan Utara 77126","Lingkas Ujung, Kec. Tarakan Tim., Kota Tarakan",KALIMANTAN UTARA,77126.0,Indonesia,83843123457.0,,,3.289963,117.5908105,https://maps.google.com/?cid=0x0:0x90f026a77e8dfdd4,
mall,mall,Hotel Tranzit,"No.11 RT.11, Tim.,, Jl. Yos Sudarso, Lingkas Ujung, Kec. Tarakan Tim., Kota Tarakan, Kalimantan Utara","Kota Tarakan, Kalimantan Utara",KALIMANTAN UTARA,,Indonesia,81255660899.0,,,3.2908842,117.5897286,https://maps.google.com/?cid=0x0:0x99750dfc1966d55c,
mall,mall,Homestay Cempaka,"Jl. Imam Bonjol No.49B, Pamusian, Kec. Tarakan Tengah, Kota Tarakan, Kalimantan Utara","Kota Tarakan, Kalimantan Utara",KALIMANTAN UTARA,,Indonesia,82336728881.0,,,3.3027907,117.606301,https://maps.google.com/?cid=0x0:0xb60d5b1304ac0c87,
mall,Taman Ekologi,Kawasan Konservasi Mangrove Dan Bekantan,"Karang Rejo, Tarakan Barat, Karang Rejo, Kec. Tarakan Bar., Kota Tarakan, Kalimantan Utara","Kota Tarakan, Kalimantan Utara",KALIMANTAN UTARA,,Indonesia,,,,3.305523,117.5771055,https://maps.google.com/?cid=0x0:0xbaf2f265d3abbe0,
mall,Pasar,"Pasar Gusher, Tarakan","Komplek Pasar Guser, Jl. Gajah Mada, Karang Rejo, Kec. Tarakan Bar., Kota Tarakan, Kalimantan Utara","Kota Tarakan, Kalimantan Utara",KALIMANTAN UTARA,,Indonesia,,,,3.3051735,117.5798756,https://maps.google.com/?cid=0x0:0xca1082bc61dfe0a,
mall,mall,JCO DONUTS  COFFEE - GRAND TARAKAN MALL,"Grand Tarakan Mall, Jl. Yos Sudarso No.88 Lt. 3, Karang Rejo, Kec. Tarakan Bar., Kota Tarakan, Kalimantan Utara","Kota Tarakan, Kalimantan Utara",KALIMANTAN UTARA,,Indonesia,,,,3.3089197,117.5833638,https://maps.google.com/?cid=0x0:0xb3acabbd82cf4b48,
mall,Toko,KIOS ANDINQUA,"Jl. Lili 2, Karang Anyar, Kec. Tarakan Bar., Kota Tarakan, Kalimantan Utara","Kota Tarakan, Kalimantan Utara",KALIMANTAN UTARA,,Indonesia,,,,3.3315167,117.5813817,https://maps.google.com/?cid=0x0:0xb12706a6b0db67c8,
mall,Pusat Perbelanjaan,SR BARU,"8H6Q+PQX, Karang Anyar, Kec. Tarakan Bar., Kota Tarakan, Kalimantan Utara","Kota Tarakan, Kalimantan Utara",KALIMANTAN UTARA,,Indonesia,,,,3.3118579,117.5894935,https://maps.google.com/?cid=0x0:0x1930352048ea8d61,
mall,Pusat Perbelanjaan,GRAND TARAKAN MALL XXI,"8H5M+G73 Tarakan Mall, Jl. Yos Sudarso No.1 Lantai 4, Karang Rejo, Kec. Tarakan Bar., Kota Tarakan, Kalimantan Utara","Kota Tarakan, Kalimantan Utara",KALIMANTAN UTARA,,Indonesia,5513830621.0,,,3.3086958,117.5833983,https://maps.google.com/?cid=0x0:0x7b62246e30eb3d2a,
mall,Pusat Perbelanjaan,TARAKAN CELL,"Jl. Seroja No.KEL, Karang Anyar, Kec. Tarakan Bar., Kota Tarakan, Kalimantan Utara 77100","Karang Anyar, Kec. Tarakan Bar., Kota Tarakan",KALIMANTAN UTARA,77100.0,Indonesia,85387888777.0,,,3.3100204,117.5857582,https://maps.google.com/?cid=0x0:0x5cda4fb67e4cf15a,
mall,Pusat Perbelanjaan,ELWAFISTORE,"Jl. Gajah Mada No.31, Karang Anyar Pantai, Kec. Tarakan Bar., Kota Tarakan, Kalimantan Utara","Kota Tarakan, Kalimantan Utara",KALIMANTAN UTARA,,Indonesia,81352655565.0,,,3.3058645,117.578164,https://maps.google.com/?cid=0x0:0x816dc337fdc0f3b8,
mall,Toserba,Ramayana Gusher Plaza,"8H4H+7RP, Karang Rejo, Kec. Tarakan Bar., Kota Tarakan, Kalimantan Utara","Kota Tarakan, Kalimantan Utara",KALIMANTAN UTARA,,Indonesia,,,,3.305723,117.5795852,https://maps.google.com/?cid=0x0:0x1e46136bbdb237bc,
mall,mall,Coffee Zone,"Karang Rejo, Kec. Tarakan Bar., Kota Tarakan, Kalimantan Utara","Kota Tarakan, Kalimantan Utara",KALIMANTAN UTARA,,Indonesia,,,,3.3089548,117.5832988,https://maps.google.com/?cid=0x0:0xff17a5448d6db71,
mall,mall,Kec. Tarakan Tengah,"Kota Tarakan, Kalimantan Utara","Kota Tarakan, Kalimantan Utara",KALIMANTAN UTARA,,Indonesia,,,,3.308624,117.6011279,https://maps.google.com/?cid=0x0:0x52939c57e2b14b75,
mall,Pusat Perbelanjaan,Tarakan Mall,"8H5M+G73, Jl. Yos Sudarso No.1 Lantai 4, Karang Rejo, Kec. Tarakan Bar., Kota Tarakan, Kalimantan Utara","Kota Tarakan, Kalimantan Utara",KALIMANTAN UTARA,,Indonesia,,,,3.308837,117.5831623,https://maps.google.com/?cid=0x0:0x1eeb4f8ef877ebd6,
mall,Pusat Perbelanjaan,Delta Town Centre Tarakan,"Jl. Imam Bonjol, Pamusian, Kec. Tarakan Tengah, Kota Tarakan, Kalimantan Utara 77113","Pamusian, Kec. Tarakan Tengah, Kota Tarakan",KALIMANTAN UTARA,77113.0,Indonesia,8115339567.0,,,3.303456,117.6053476,https://maps.google.com/?cid=0x0:0x877989d6775a6cf9,
mall,Toko Swalayan,Toko Kalimantan Souvenir (Oleh - Oleh Tarakan),"Jl. Teuku Umar No.RT.12, Pamusian, Kec. Tarakan Tengah, Kota Tarakan, Kalimantan Utara","Kota Tarakan, Kalimantan Utara",KALIMANTAN UTARA,,Indonesia,,,,3.3051689,117.6026295,https://maps.google.com/?cid=0x0:0x5f8f2de7c41a44ce,
mall,Pusat Perbelanjaan,SR BARU,"8H6Q+PQX, Karang Anyar, Kec. Tarakan Bar., Kota Tarakan, Kalimantan Utara","Kota Tarakan, Kalimantan Utara",KALIMANTAN UTARA,,Indonesia,,,,3.3118579,117.5894935,https://maps.google.com/?cid=0x0:0x1930352048ea8d61,
mall,Toserba,Ramayana Gusher Plaza,"8H4H+7RP, Karang Rejo, Kec. Tarakan Bar., Kota Tarakan, Kalimantan Utara","Kota Tarakan, Kalimantan Utara",KALIMANTAN UTARA,,Indonesia,,,,3.305723,117.5795852,https://maps.google.com/?cid=0x0:0x1e46136bbdb237bc,
mall,Toko Bunga,The Next Project Tarakan,"Jl. Imam Bonjol, Pamusian, Kec. Tarakan Tengah, Kota Tarakan, Kalimantan Utara","Kota Tarakan, Kalimantan Utara",KALIMANTAN UTARA,,Indonesia,8115817473.0,,,3.3033398,117.6057431,https://maps.google.com/?cid=0x0:0x5faf61f22c429810,
mall,Pusat Perbelanjaan,Swalayan Senyum 5000,"8H8H+4Q9, Karang Anyar, Kec. Tarakan Bar., Kota Tarakan, Kalimantan Utara","Kota Tarakan, Kalimantan Utara",KALIMANTAN UTARA,,Indonesia,82198182249.0,,,3.3152987,117.5794771,https://maps.google.com/?cid=0x0:0xb0a5795d751ca361,
mall,Toko bahan makanan,Nu Store,"8HGF+MM3, Bar., Karang Anyar, Kec. Tarakan Bar., Kota Tarakan, Kalimantan Utara","Kota Tarakan, Kalimantan Utara",KALIMANTAN UTARA,,Indonesia,,,,3.3266284,117.5741714,https://maps.google.com/?cid=0x0:0xddd8d630c496db6e,
mall,Kios,Toko Kalibre Tarakan,"Jl. RE Martadinata No.Rt.13 C38, Pamusian, Kec. Tarakan Tengah, Kota Tarakan, Kalimantan Utara","Kota Tarakan, Kalimantan Utara",KALIMANTAN UTARA,,Indonesia,,,,3.3084872,117.5985548,https://maps.google.com/?cid=0x0:0x7f6f7f7112f42120,
mall,Pusat Perbelanjaan,Swalayan Senyum 5000 Kusuma Bangsa Tarakan,"Jl. Kusuma Bangsa, Pamusian, Kec. Tarakan Tengah, Kota Tarakan, Kalimantan Utara 77115","Pamusian, Kec. Tarakan Tengah, Kota Tarakan",KALIMANTAN UTARA,77115.0,Indonesia,,,,3.3054536,117.6096464,https://maps.google.com/?cid=0x0:0x2c077bd4b598eb08,
mall,Pusat Perbelanjaan,GRAND TARAKAN MALL XXI,"8H5M+G73 Tarakan Mall, Jl. Yos Sudarso No.1 Lantai 4, Karang Rejo, Kec. Tarakan Bar., Kota Tarakan, Kalimantan Utara","Kota Tarakan, Kalimantan Utara",KALIMANTAN UTARA,,Indonesia,5513830621.0,,,3.3086958,117.5833983,https://maps.google.com/?cid=0x0:0x7b62246e30eb3d2a,
mall,Pusat Perbelanjaan,tarakan,"8HGM+3M5, Jl. Slamet Riady, RT.26/RW.No.119, Karang Anyar, Kec. Tarakan Bar., Kota Tarakan, Kalimantan Utara 77111","Jl. Slamet Riady, RT.26/RW.No.119, Karang Anyar, Kec. Tarakan Bar., Kota Tarakan",KALIMANTAN UTARA,77111.0,Indonesia,,,,3.3251359,117.5842439,https://maps.google.com/?cid=0x0:0x68089c1d2066a8da,
mall,Pusat Perbelanjaan,"Araya Shop, Oleh Oleh Khas Kalimantan","8H6W+64F, Jl. Jend. Sudirman, Karang Anyar, Kec. Tarakan Tengah, Kota Tarakan, Kalimantan Utara","Kota Tarakan, Kalimantan Utara",KALIMANTAN UTARA,,Indonesia,,,,3.3105745,117.5952942,https://maps.google.com/?cid=0x0:0x3db1679b2f2bcf41,
mall,Toko Kosmetik,Naytacare,"7JW3+CQJ, Jl. Kuburan Cina, Gn. Lingkas, Kec. Tarakan Tim., Kota Tarakan, Kalimantan Utara","Kota Tarakan, Kalimantan Utara",KALIMANTAN UTARA,,Indonesia,85389895905.0,,,3.2960805,117.6044,https://maps.google.com/?cid=0x0:0xb62303673f4e2084,
mall,Toko Pakaian,Myranti Gallery Boutique,"8H5X+99V, Pamusian, Kec. Tarakan Tengah, Kota Tarakan, Kalimantan Utara","Kota Tarakan, Kalimantan Utara",KALIMANTAN UTARA,,Indonesia,,,,3.3084751,117.598426,https://maps.google.com/?cid=0x0:0x943a9c546d3f9b59,
mall,Pusat Perbelanjaan,dollyolshopofficial,"Jl. Ppabri, Kampung 1, Kec. Tarakan Tengah, Kota Tarakan, Kalimantan Utara","Kota Tarakan, Kalimantan Utara",KALIMANTAN UTARA,,Indonesia,82235501126.0,,,3.3252726,117.6049279,https://maps.google.com/?cid=0x0:0x3cfd485c2d2a2a25,
mall,Toko Pakaian,Toko SaMaSe Clothes Tarakan,"8H5J+FJ8, Karang Anyar Pantai, Kec. Tarakan Bar., Kota Tarakan, Kalimantan Utara","Kota Tarakan, Kalimantan Utara",KALIMANTAN UTARA,,Indonesia,,,,3.3086584,117.5815707,https://maps.google.com/?cid=0x0:0x24e04c0be6885d2e,
mall,Pusat Perbelanjaan,Robinson Tarakan,"8H4H+CVR, Karang Rejo, Kec. Tarakan Bar., Kota Tarakan, Kalimantan Utara","Kota Tarakan, Kalimantan Utara",KALIMANTAN UTARA,,Indonesia,,,,3.3060538,117.5794816,https://maps.google.com/?cid=0x0:0xd76e1013fc99984b,
mall,Toko Sepatu,Toko Ara Shop,"Jl. Seroja I No.21, RT.29, Karang Anyar, Kec. Tarakan Bar., Kota Tarakan, Kalimantan Utara","Kota Tarakan, Kalimantan Utara",KALIMANTAN UTARA,,Indonesia,,,,3.3119757,117.5837505,https://maps.google.com/?cid=0x0:0xbee4ba2e895d3ac5,
mall,Toko bahan makanan,Pasar Buah Segar,"Jl. KH Dewantara RT 08 Gg.THM, Karang Balik, Kec. Tarakan Bar., Kota Tarakan, Kalimantan Utara","Kota Tarakan, Kalimantan Utara",KALIMANTAN UTARA,,Indonesia,,,,3.3093535,117.585539,https://maps.google.com/?cid=0x0:0x2fbda4802214d458,
mall,Pusat Perbelanjaan,Tarakan Shop,"8J4F+F3G, RT.13/RW.No 51, Kp. Empat, Kec. Tarakan Tim., Kota Tarakan, Kalimantan Utara","Kota Tarakan, Kalimantan Utara",KALIMANTAN UTARA,,Indonesia,82253052770.0,,,3.3061924,117.6227018,https://maps.google.com/?cid=0x0:0xb04eb08021ae6ea2,
mall,Kantor Pemerintah,Mall Pelayanan Publik,"Jl. Mulawarman No.7, Karang Anyar Pantai, Kec. Tarakan Bar., Kota Tarakan, Kalimantan Utara","Kota Tarakan, Kalimantan Utara",KALIMANTAN UTARA,,Indonesia,,,,3.3204553,117.5758928,https://maps.google.com/?cid=0x0:0x9cc8e43b1076d60e,
mall,Tempat acara,AnggiS House Tarakan,"Jl. Danau Jempang, Pamusian, Kec. Tarakan Tengah, Kota Tarakan, Kalimantan Utara","Kota Tarakan, Kalimantan Utara",KALIMANTAN UTARA,,Indonesia,895336688833.0,,,3.3150906,117.5969528,https://maps.google.com/?cid=0x0:0x1ba3c5f30d776497,
mall,Bengkel Mobil,Indra Motor,"7HXP+8FR, Jl. Yos Sudarso, Selumit Pantai, Kec. Tarakan Tengah, Kota Tarakan, Kalimantan Utara","Kota Tarakan, Kalimantan Utara",KALIMANTAN UTARA,,Indonesia,,,,3.2983573,117.5861282,https://maps.google.com/?cid=0x0:0xb6792ef492d88c89,
mall,mall,Kec. Tarakan Tengah,"Kota Tarakan, Kalimantan Utara","Kota Tarakan, Kalimantan Utara",KALIMANTAN UTARA,,Indonesia,,,,3.308624,117.6011279,https://maps.google.com/?cid=0x0:0x52939c57e2b14b75,
mall,Pusat Perbelanjaan,Tarakan Mall,"8H5M+G73, Jl. Yos Sudarso No.1 Lantai 4, Karang Rejo, Kec. Tarakan Bar., Kota Tarakan, Kalimantan Utara","Kota Tarakan, Kalimantan Utara",KALIMANTAN UTARA,,Indonesia,,,,3.308837,117.5831623,https://maps.google.com/?cid=0x0:0x1eeb4f8ef877ebd6,
mall,Pusat Perbelanjaan,Delta Town Centre Tarakan,"Jl. Imam Bonjol, Pamusian, Kec. Tarakan Tengah, Kota Tarakan, Kalimantan Utara 77113","Pamusian, Kec. Tarakan Tengah, Kota Tarakan",KALIMANTAN UTARA,77113.0,Indonesia,8115339567.0,,,3.303456,117.6053476,https://maps.google.com/?cid=0x0:0x877989d6775a6cf9,
mall,Pusat Perbelanjaan,SR BARU,"8H6Q+PQX, Karang Anyar, Kec. Tarakan Bar., Kota Tarakan, Kalimantan Utara","Kota Tarakan, Kalimantan Utara",KALIMANTAN UTARA,,Indonesia,,,,3.3118579,117.5894935,https://maps.google.com/?cid=0x0:0x1930352048ea8d61,
mall,Toserba,Ramayana Gusher Plaza,"8H4H+7RP, Karang Rejo, Kec. Tarakan Bar., Kota Tarakan, Kalimantan Utara","Kota Tarakan, Kalimantan Utara",KALIMANTAN UTARA,,Indonesia,,,,3.305723,117.5795852,https://maps.google.com/?cid=0x0:0x1e46136bbdb237bc,
mall,Pusat Perbelanjaan,Miniso,"Jl. Mulawarman, Karang Anyar, Kec. Tarakan Bar., Kota Tarakan, Kalimantan Utara","Kota Tarakan, Kalimantan Utara",KALIMANTAN UTARA,,Indonesia,82256699688.0,,,3.3181257,117.5775655,https://maps.google.com/?cid=0x0:0x92043068ddc47e5b,
mall,Pusat Perbelanjaan,Tarakan Shop,"8J4F+F3G, RT.13/RW.No 51, Kp. Empat, Kec. Tarakan Tim., Kota Tarakan, Kalimantan Utara","Kota Tarakan, Kalimantan Utara",KALIMANTAN UTARA,,Indonesia,82253052770.0,,,3.3061924,117.6227018,https://maps.google.com/?cid=0x0:0xb04eb08021ae6ea2,
mall,Toko Bunga,The Next Project Tarakan,"Jl. Imam Bonjol, Pamusian, Kec. Tarakan Tengah, Kota Tarakan, Kalimantan Utara","Kota Tarakan, Kalimantan Utara",KALIMANTAN UTARA,,Indonesia,8115817473.0,,,3.3033398,117.6057431,https://maps.google.com/?cid=0x0:0x5faf61f22c429810,
mall,Pusat Perbelanjaan,Swalayan Senyum 5000,"8H8H+4Q9, Karang Anyar, Kec. Tarakan Bar., Kota Tarakan, Kalimantan Utara","Kota Tarakan, Kalimantan Utara",KALIMANTAN UTARA,,Indonesia,82198182249.0,,,3.3152987,117.5794771,https://maps.google.com/?cid=0x0:0xb0a5795d751ca361,
mall,Kios,Toko Kalibre Tarakan,"Jl. RE Martadinata No.Rt.13 C38, Pamusian, Kec. Tarakan Tengah, Kota Tarakan, Kalimantan Utara","Kota Tarakan, Kalimantan Utara",KALIMANTAN UTARA,,Indonesia,,,,3.3084872,117.5985548,https://maps.google.com/?cid=0x0:0x7f6f7f7112f42120,
mall,Pusat Perbelanjaan,Swalayan Senyum 5000 Kusuma Bangsa Tarakan,"Jl. Kusuma Bangsa, Pamusian, Kec. Tarakan Tengah, Kota Tarakan, Kalimantan Utara 77115","Pamusian, Kec. Tarakan Tengah, Kota Tarakan",KALIMANTAN UTARA,77115.0,Indonesia,,,,3.3054536,117.6096464,https://maps.google.com/?cid=0x0:0x2c077bd4b598eb08,
mall,Pusat Perbelanjaan,GRAND TARAKAN MALL XXI,"8H5M+G73 Tarakan Mall, Jl. Yos Sudarso No.1 Lantai 4, Karang Rejo, Kec. Tarakan Bar., Kota Tarakan, Kalimantan Utara","Kota Tarakan, Kalimantan Utara",KALIMANTAN UTARA,,Indonesia,5513830621.0,,,3.3086958,117.5833983,https://maps.google.com/?cid=0x0:0x7b62246e30eb3d2a,
mall,Toko bahan makanan,Nu Store,"8HGF+MM3, Bar., Karang Anyar, Kec. Tarakan Bar., Kota Tarakan, Kalimantan Utara","Kota Tarakan, Kalimantan Utara",KALIMANTAN UTARA,,Indonesia,,,,3.3266284,117.5741714,https://maps.google.com/?cid=0x0:0xddd8d630c496db6e,
mall,Pusat Perbelanjaan,tarakan,"8HGM+3M5, Jl. Slamet Riady, RT.26/RW.No.119, Karang Anyar, Kec. Tarakan Bar., Kota Tarakan, Kalimantan Utara 77111","Jl. Slamet Riady, RT.26/RW.No.119, Karang Anyar, Kec. Tarakan Bar., Kota Tarakan",KALIMANTAN UTARA,77111.0,Indonesia,,,,3.3251359,117.5842439,https://maps.google.com/?cid=0x0:0x68089c1d2066a8da,
mall,Toko Kosmetik,Naytacare,"7JW3+CQJ, Jl. Kuburan Cina, Gn. Lingkas, Kec. Tarakan Tim., Kota Tarakan, Kalimantan Utara","Kota Tarakan, Kalimantan Utara",KALIMANTAN UTARA,,Indonesia,85389895905.0,,,3.2960805,117.6044,https://maps.google.com/?cid=0x0:0xb62303673f4e2084,
mall,Pusat Perbelanjaan,"Araya Shop, Oleh Oleh Khas Kalimantan","8H6W+64F, Jl. Jend. Sudirman, Karang Anyar, Kec. Tarakan Tengah, Kota Tarakan, Kalimantan Utara","Kota Tarakan, Kalimantan Utara",KALIMANTAN UTARA,,Indonesia,,,,3.3105745,117.5952942,https://maps.google.com/?cid=0x0:0x3db1679b2f2bcf41,
mall,Pusat Perbelanjaan,dollyolshopofficial,"Jl. Ppabri, Kampung 1, Kec. Tarakan Tengah, Kota Tarakan, Kalimantan Utara","Kota Tarakan, Kalimantan Utara",KALIMANTAN UTARA,,Indonesia,82235501126.0,,,3.3252726,117.6049279,https://maps.google.com/?cid=0x0:0x3cfd485c2d2a2a25,
mall,Toko Pakaian,Myranti Gallery Boutique,"8H5X+99V, Pamusian, Kec. Tarakan Tengah, Kota Tarakan, Kalimantan Utara","Kota Tarakan, Kalimantan Utara",KALIMANTAN UTARA,,Indonesia,,,,3.3084751,117.598426,https://maps.google.com/?cid=0x0:0x943a9c546d3f9b59,
mall,Toko Pakaian,@mwmpstocktrk_,"8J7G+5C8, Kp. Enam, Kec. Tarakan Tim., Kota Tarakan, Kalimantan Utara","Kota Tarakan, Kalimantan Utara",KALIMANTAN UTARA,,Indonesia,85348834384.0,,,3.3129152,117.6260887,https://maps.google.com/?cid=0x0:0x3172bce2783056a,
mall,Toko bahan makanan,Pasar Buah Segar,"Jl. KH Dewantara RT 08 Gg.THM, Karang Balik, Kec. Tarakan Bar., Kota Tarakan, Kalimantan Utara","Kota Tarakan, Kalimantan Utara",KALIMANTAN UTARA,,Indonesia,,,,3.3093535,117.585539,https://maps.google.com/?cid=0x0:0x2fbda4802214d458,
mall,Bengkel Mobil,Indra Motor,"7HXP+8FR, Jl. Yos Sudarso, Selumit Pantai, Kec. Tarakan Tengah, Kota Tarakan, Kalimantan Utara","Kota Tarakan, Kalimantan Utara",KALIMANTAN UTARA,,Indonesia,,,,3.2983573,117.5861282,https://maps.google.com/?cid=0x0:0xb6792ef492d88c89,
mall,Kantor Pemerintah,Mall Pelayanan Publik,"Jl. Mulawarman No.7, Karang Anyar Pantai, Kec. Tarakan Bar., Kota Tarakan, Kalimantan Utara","Kota Tarakan, Kalimantan Utara",KALIMANTAN UTARA,,Indonesia,,,,3.3204553,117.5758928,https://maps.google.com/?cid=0x0:0x9cc8e43b1076d60e,
mall,Pusat Perbelanjaan,Y Beelshop,"8J67+G7H, Jl. Gn. Keramat, Kp. Enam, Kec. Tarakan Tim., Kota Tarakan, Kalimantan Utara","Kota Tarakan, Kalimantan Utara",KALIMANTAN UTARA,,Indonesia,,,,3.3113114,117.6132344,https://maps.google.com/?cid=0x0:0x99d5df4f1c983026,
mall,Kantor Perusahaan,Post Pembelian Ikan Dan Kepiting Tarakan Ujung,"8H3C+V8C, Bar., Karang Anyar Pantai, Kec. Tarakan Bar., Kota Tarakan, Kalimantan Utara","Kota Tarakan, Kalimantan Utara",KALIMANTAN UTARA,,Indonesia,85388204344.0,,,3.3046971,117.5707707,https://maps.google.com/?cid=0x0:0x734573adcb82bd7f,
mall,mall,Kec. Tarakan Tim.,"Kota Tarakan, Kalimantan Utara","Kota Tarakan, Kalimantan Utara",KALIMANTAN UTARA,,Indonesia,,,,3.3018342,117.62185,https://maps.google.com/?cid=0x0:0x57d2af2857b49049,
mall,Pusat Perbelanjaan,Tarakan Mall,"8H5M+G73, Jl. Yos Sudarso No.1 Lantai 4, Karang Rejo, Kec. Tarakan Bar., Kota Tarakan, Kalimantan Utara","Kota Tarakan, Kalimantan Utara",KALIMANTAN UTARA,,Indonesia,,,,3.308837,117.5831623,https://maps.google.com/?cid=0x0:0x1eeb4f8ef877ebd6,
mall,Pusat Perbelanjaan,Tarakan Shop,"8J4F+F3G, RT.13/RW.No 51, Kp. Empat, Kec. Tarakan Tim., Kota Tarakan, Kalimantan Utara","Kota Tarakan, Kalimantan Utara",KALIMANTAN UTARA,,Indonesia,82253052770.0,,,3.3061924,117.6227018,https://maps.google.com/?cid=0x0:0xb04eb08021ae6ea2,
mall,Toserba,Ramayana Gusher Plaza,"8H4H+7RP, Karang Rejo, Kec. Tarakan Bar., Kota Tarakan, Kalimantan Utara","Kota Tarakan, Kalimantan Utara",KALIMANTAN UTARA,,Indonesia,,,,3.305723,117.5795852,https://maps.google.com/?cid=0x0:0x1e46136bbdb237bc,
mall,Pusat Perbelanjaan,Delta Town Centre Tarakan,"Jl. Imam Bonjol, Pamusian, Kec. Tarakan Tengah, Kota Tarakan, Kalimantan Utara 77113","Pamusian, Kec. Tarakan Tengah, Kota Tarakan",KALIMANTAN UTARA,77113.0,Indonesia,8115339567.0,,,3.303456,117.6053476,https://maps.google.com/?cid=0x0:0x877989d6775a6cf9,
mall,Toko Swalayan,Toko Kalimantan Souvenir (Oleh - Oleh Tarakan),"Jl. Teuku Umar No.RT.12, Pamusian, Kec. Tarakan Tengah, Kota Tarakan, Kalimantan Utara","Kota Tarakan, Kalimantan Utara",KALIMANTAN UTARA,,Indonesia,,,,3.3051689,117.6026295,https://maps.google.com/?cid=0x0:0x5f8f2de7c41a44ce,
mall,Pusat Perbelanjaan,Swalayan Senyum 5000 Kusuma Bangsa Tarakan,"Jl. Kusuma Bangsa, Pamusian, Kec. Tarakan Tengah, Kota Tarakan, Kalimantan Utara 77115","Pamusian, Kec. Tarakan Tengah, Kota Tarakan",KALIMANTAN UTARA,77115.0,Indonesia,,,,3.3054536,117.6096464,https://maps.google.com/?cid=0x0:0x2c077bd4b598eb08,
mall,Pusat Perbelanjaan,Miniso,"Jl. Mulawarman, Karang Anyar, Kec. Tarakan Bar., Kota Tarakan, Kalimantan Utara","Kota Tarakan, Kalimantan Utara",KALIMANTAN UTARA,,Indonesia,82256699688.0,,,3.3181257,117.5775655,https://maps.google.com/?cid=0x0:0x92043068ddc47e5b,
mall,Pusat Perbelanjaan,SR BARU,"8H6Q+PQX, Karang Anyar, Kec. Tarakan Bar., Kota Tarakan, Kalimantan Utara","Kota Tarakan, Kalimantan Utara",KALIMANTAN UTARA,,Indonesia,,,,3.3118579,117.5894935,https://maps.google.com/?cid=0x0:0x1930352048ea8d61,
mall,Kios,Toko Kalibre Tarakan,"Jl. RE Martadinata No.Rt.13 C38, Pamusian, Kec. Tarakan Tengah, Kota Tarakan, Kalimantan Utara","Kota Tarakan, Kalimantan Utara",KALIMANTAN UTARA,,Indonesia,,,,3.3084872,117.5985548,https://maps.google.com/?cid=0x0:0x7f6f7f7112f42120,
mall,Toko Kosmetik,Naytacare,"7JW3+CQJ, Jl. Kuburan Cina, Gn. Lingkas, Kec. Tarakan Tim., Kota Tarakan, Kalimantan Utara","Kota Tarakan, Kalimantan Utara",KALIMANTAN UTARA,,Indonesia,85389895905.0,,,3.2960805,117.6044,https://maps.google.com/?cid=0x0:0xb62303673f4e2084,
mall,Toko Bunga,The Next Project Tarakan,"Jl. Imam Bonjol, Pamusian, Kec. Tarakan Tengah, Kota Tarakan, Kalimantan Utara","Kota Tarakan, Kalimantan Utara",KALIMANTAN UTARA,,Indonesia,8115817473.0,,,3.3033398,117.6057431,https://maps.google.com/?cid=0x0:0x5faf61f22c429810,
mall,Pusat Perbelanjaan,Y Beelshop,"8J67+G7H, Jl. Gn. Keramat, Kp. Enam, Kec. Tarakan Tim., Kota Tarakan, Kalimantan Utara","Kota Tarakan, Kalimantan Utara",KALIMANTAN UTARA,,Indonesia,,,,3.3113114,117.6132344,https://maps.google.com/?cid=0x0:0x99d5df4f1c983026,
mall,Toko bahan makanan,Toko Buah 88,"Selumit, Kec. Tarakan Tengah, Kota Tarakan, Kalimantan Utara","Kota Tarakan, Kalimantan Utara",KALIMANTAN UTARA,,Indonesia,,,,3.2979639,117.5865301,https://maps.google.com/?cid=0x0:0xe0f299908237e5a9,
mall,Toko Pakaian,SS DISTRO,"8J5F+QW2, Kp. Enam, Kec. Tarakan Tim., Kota Tarakan, Kalimantan Utara","Kota Tarakan, Kalimantan Utara",KALIMANTAN UTARA,,Indonesia,85389480313.0,,,3.3093953,117.624768,https://maps.google.com/?cid=0x0:0x8f4b454cbd73adc2,
mall,Dekorator interior,Toko MTH wallpaper sticker tarakan,"Beringin 1 No.RT.9, Selumit Pantai, Kec. Tarakan Tengah, Kota Tarakan, Kalimantan Utara","Kota Tarakan, Kalimantan Utara",KALIMANTAN UTARA,,Indonesia,81266833636.0,,,3.2971573,117.5848401,https://maps.google.com/?cid=0x0:0x15a2251d94e76f07,
mall,Komplek perumahan,Baloy Varash,"Unnamed Road, Mamburungan Tim., Kec. Tarakan Tim., Kota Tarakan, Kalimantan Utara","Kota Tarakan, Kalimantan Utara",KALIMANTAN UTARA,,Indonesia,81210467482.0,,,3.2837761,117.6211454,https://maps.google.com/?cid=0x0:0x63c3640a59f710e2,
mall,Pusat Perbelanjaan,Swalayan Senyum 5000,"8H8H+4Q9, Karang Anyar, Kec. Tarakan Bar., Kota Tarakan, Kalimantan Utara","Kota Tarakan, Kalimantan Utara",KALIMANTAN UTARA,,Indonesia,82198182249.0,,,3.3152987,117.5794771,https://maps.google.com/?cid=0x0:0xb0a5795d751ca361,
mall,Toko Pakaian,"Tupperware,penyewaan Baju Adat","8J33+P95, Jl. Imam Bonjol, Pamusian, Kec. Tarakan Tengah, Kota Tarakan, Kalimantan Utara","Kota Tarakan, Kalimantan Utara",KALIMANTAN UTARA,,Indonesia,81253929294.0,,,3.3042567,117.6034807,https://maps.google.com/?cid=0x0:0xf77f8b045743e711,
mall,Ahli Perhiasan,Intan shop,"8J4H+646, Jl. Nangka 1, Kp. Empat, Kec. Tarakan Tim., Kota Tarakan, Kalimantan Utara","Kota Tarakan, Kalimantan Utara",KALIMANTAN UTARA,,Indonesia,,,,3.305547,117.627755,https://maps.google.com/?cid=0x0:0x62d32c41b0387d01,
mall,Kantor Pemerintah,Mall Pelayanan Publik,"Jl. Mulawarman No.7, Karang Anyar Pantai, Kec. Tarakan Bar., Kota Tarakan, Kalimantan Utara","Kota Tarakan, Kalimantan Utara",KALIMANTAN UTARA,,Indonesia,,,,3.3204553,117.5758928,https://maps.google.com/?cid=0x0:0x9cc8e43b1076d60e,
mall,Kantor Perusahaan,Post Pembelian Ikan Dan Kepiting Tarakan Ujung,"8H3C+V8C, Bar., Karang Anyar Pantai, Kec. Tarakan Bar., Kota Tarakan, Kalimantan Utara","Kota Tarakan, Kalimantan Utara",KALIMANTAN UTARA,,Indonesia,85388204344.0,,,3.3046971,117.5707707,https://maps.google.com/?cid=0x0:0x734573adcb82bd7f,
mall,Pusat Perbelanjaan,Nenekku pahlawanku,"8M95+23V, Pantai Amal, Kec. Tarakan Tim., Kota Tarakan, Kalimantan Utara","Kota Tarakan, Kalimantan Utara",KALIMANTAN UTARA,,Indonesia,,,,3.317616,117.657457,https://maps.google.com/?cid=0x0:0x52990399a73e4edf,
mall,mall,Kec. Tarakan Tim.,"Kota Tarakan, Kalimantan Utara","Kota Tarakan, Kalimantan Utara",KALIMANTAN UTARA,,Indonesia,,,,3.3018342,117.62185,https://maps.google.com/?cid=0x0:0x57d2af2857b49049,
mall,Pusat Perbelanjaan,Tarakan Mall,"8H5M+G73, Jl. Yos Sudarso No.1 Lantai 4, Karang Rejo, Kec. Tarakan Bar., Kota Tarakan, Kalimantan Utara","Kota Tarakan, Kalimantan Utara",KALIMANTAN UTARA,,Indonesia,,,,3.308837,117.5831623,https://maps.google.com/?cid=0x0:0x1eeb4f8ef877ebd6,
mall,Pusat Perbelanjaan,Tarakan Shop,"8J4F+F3G, RT.13/RW.No 51, Kp. Empat, Kec. Tarakan Tim., Kota Tarakan, Kalimantan Utara","Kota Tarakan, Kalimantan Utara",KALIMANTAN UTARA,,Indonesia,82253052770.0,,,3.3061924,117.6227018,https://maps.google.com/?cid=0x0:0xb04eb08021ae6ea2,
mall,Toko Swalayan,Toko Kalimantan Souvenir (Oleh - Oleh Tarakan),"Jl. Teuku Umar No.RT.12, Pamusian, Kec. Tarakan Tengah, Kota Tarakan, Kalimantan Utara","Kota Tarakan, Kalimantan Utara",KALIMANTAN UTARA,,Indonesia,,,,3.3051689,117.6026295,https://maps.google.com/?cid=0x0:0x5f8f2de7c41a44ce,
mall,Toko Pakaian,@mwmpstocktrk_,"8J7G+5C8, Kp. Enam, Kec. Tarakan Tim., Kota Tarakan, Kalimantan Utara","Kota Tarakan, Kalimantan Utara",KALIMANTAN UTARA,,Indonesia,85348834384.0,,,3.3129152,117.6260887,https://maps.google.com/?cid=0x0:0x3172bce2783056a,
mall,Toserba,Ramayana Gusher Plaza,"8H4H+7RP, Karang Rejo, Kec. Tarakan Bar., Kota Tarakan, Kalimantan Utara","Kota Tarakan, Kalimantan Utara",KALIMANTAN UTARA,,Indonesia,,,,3.305723,117.5795852,https://maps.google.com/?cid=0x0:0x1e46136bbdb237bc,
mall,Pusat Perbelanjaan,Swalayan Senyum 5000 Kusuma Bangsa Tarakan,"Jl. Kusuma Bangsa, Pamusian, Kec. Tarakan Tengah, Kota Tarakan, Kalimantan Utara 77115","Pamusian, Kec. Tarakan Tengah, Kota Tarakan",KALIMANTAN UTARA,77115.0,Indonesia,,,,3.3054536,117.6096464,https://maps.google.com/?cid=0x0:0x2c077bd4b598eb08,
mall,Toko Kosmetik,Naytacare,"7JW3+CQJ, Jl. Kuburan Cina, Gn. Lingkas, Kec. Tarakan Tim., Kota Tarakan, Kalimantan Utara","Kota Tarakan, Kalimantan Utara",KALIMANTAN UTARA,,Indonesia,85389895905.0,,,3.2960805,117.6044,https://maps.google.com/?cid=0x0:0xb62303673f4e2084,
mall,Pusat Perbelanjaan,Y Beelshop,"8J67+G7H, Jl. Gn. Keramat, Kp. Enam, Kec. Tarakan Tim., Kota Tarakan, Kalimantan Utara","Kota Tarakan, Kalimantan Utara",KALIMANTAN UTARA,,Indonesia,,,,3.3113114,117.6132344,https://maps.google.com/?cid=0x0:0x99d5df4f1c983026,
mall,Pusat Perbelanjaan,SR BARU,"8H6Q+PQX, Karang Anyar, Kec. Tarakan Bar., Kota Tarakan, Kalimantan Utara","Kota Tarakan, Kalimantan Utara",KALIMANTAN UTARA,,Indonesia,,,,3.3118579,117.5894935,https://maps.google.com/?cid=0x0:0x1930352048ea8d61,
mall,Kantor Pemerintah,Mall Pelayanan Publik,"Jl. Mulawarman No.7, Karang Anyar Pantai, Kec. Tarakan Bar., Kota Tarakan, Kalimantan Utara","Kota Tarakan, Kalimantan Utara",KALIMANTAN UTARA,,Indonesia,,,,3.3204553,117.5758928,https://maps.google.com/?cid=0x0:0x9cc8e43b1076d60e,
mall,Kios,Toko Kalibre Tarakan,"Jl. RE Martadinata No.Rt.13 C38, Pamusian, Kec. Tarakan Tengah, Kota Tarakan, Kalimantan Utara","Kota Tarakan, Kalimantan Utara",KALIMANTAN UTARA,,Indonesia,,,,3.3084872,117.5985548,https://maps.google.com/?cid=0x0:0x7f6f7f7112f42120,
mall,Toko Bunga,The Next Project Tarakan,"Jl. Imam Bonjol, Pamusian, Kec. Tarakan Tengah, Kota Tarakan, Kalimantan Utara","Kota Tarakan, Kalimantan Utara",KALIMANTAN UTARA,,Indonesia,8115817473.0,,,3.3033398,117.6057431,https://maps.google.com/?cid=0x0:0x5faf61f22c429810,
mall,Pusat Perbelanjaan,Swalayan Senyum 5000,"8H8H+4Q9, Karang Anyar, Kec. Tarakan Bar., Kota Tarakan, Kalimantan Utara","Kota Tarakan, Kalimantan Utara",KALIMANTAN UTARA,,Indonesia,82198182249.0,,,3.3152987,117.5794771,https://maps.google.com/?cid=0x0:0xb0a5795d751ca361,
mall,Pusat Perbelanjaan,Miniso,"Jl. Mulawarman, Karang Anyar, Kec. Tarakan Bar., Kota Tarakan, Kalimantan Utara","Kota Tarakan, Kalimantan Utara",KALIMANTAN UTARA,,Indonesia,82256699688.0,,,3.3181257,117.5775655,https://maps.google.com/?cid=0x0:0x92043068ddc47e5b,
mall,Komplek perumahan,Baloy Varash,"Unnamed Road, Mamburungan Tim., Kec. Tarakan Tim., Kota Tarakan, Kalimantan Utara","Kota Tarakan, Kalimantan Utara",KALIMANTAN UTARA,,Indonesia,81210467482.0,,,3.2837761,117.6211454,https://maps.google.com/?cid=0x0:0x63c3640a59f710e2,
mall,Pusat Perbelanjaan,"Araya Shop, Oleh Oleh Khas Kalimantan","8H6W+64F, Jl. Jend. Sudirman, Karang Anyar, Kec. Tarakan Tengah, Kota Tarakan, Kalimantan Utara","Kota Tarakan, Kalimantan Utara",KALIMANTAN UTARA,,Indonesia,,,,3.3105745,117.5952942,https://maps.google.com/?cid=0x0:0x3db1679b2f2bcf41,
mall,Pusat Perbelanjaan,Nenekku pahlawanku,"8M95+23V, Pantai Amal, Kec. Tarakan Tim., Kota Tarakan, Kalimantan Utara","Kota Tarakan, Kalimantan Utara",KALIMANTAN UTARA,,Indonesia,,,,3.317616,117.657457,https://maps.google.com/?cid=0x0:0x52990399a73e4edf,
mall,Pusat Perbelanjaan,dnashop,"7JM2+366, Lingkas Ujung, Kec. Tarakan Tim., Kota Tarakan, Kalimantan Utara 71126","Lingkas Ujung, Kec. Tarakan Tim., Kota Tarakan",KALIMANTAN UTARA,71126.0,Indonesia,,,,3.2826661,117.6005113,https://maps.google.com/?cid=0x0:0xf4333a9c5d3dad5a,
mall,Toko Pakaian,SS DISTRO,"8J5F+QW2, Kp. Enam, Kec. Tarakan Tim., Kota Tarakan, Kalimantan Utara","Kota Tarakan, Kalimantan Utara",KALIMANTAN UTARA,,Indonesia,85389480313.0,,,3.3093953,117.624768,https://maps.google.com/?cid=0x0:0x8f4b454cbd73adc2,
mall,Kantor Perusahaan,Post Pembelian Ikan Dan Kepiting Tarakan Ujung,"8H3C+V8C, Bar., Karang Anyar Pantai, Kec. Tarakan Bar., Kota Tarakan, Kalimantan Utara","Kota Tarakan, Kalimantan Utara",KALIMANTAN UTARA,,Indonesia,85388204344.0,,,3.3046971,117.5707707,https://maps.google.com/?cid=0x0:0x734573adcb82bd7f,
mall,Toko,N.A.Y Tarakan Modifikasi  Shop,"Kp. Empat, Kec. Tarakan Tim., Kota Tarakan, Kalimantan Utara","Kota Tarakan, Kalimantan Utara",KALIMANTAN UTARA,,Indonesia,81388164664.0,,,3.2995838,117.624159,https://maps.google.com/?cid=0x0:0xe5ad1253c336f289,
mall,Pusat Perbelanjaan,Amerrashop,"rt 08 no14, Jl. Palem, Gn. Lingkas, Kec. Tarakan Tim., Kota Tarakan, Kalimantan Utara","Kota Tarakan, Kalimantan Utara",KALIMANTAN UTARA,,Indonesia,81261316477.0,,,3.2826805,117.5980428,https://maps.google.com/?cid=0x0:0xa86a1bb7ce90c3e6,
mall,mall,Kalimantan Utara 77124,"Kp. Enam, Kec. Tarakan Tim., Kota Tarakan, Kalimantan Utara","Kota Tarakan, Kalimantan Utara",KALIMANTAN UTARA,,Indonesia,,,,3.3058117,117.6186481,https://maps.google.com/?cid=0x0:0xa3ef30a527393643,
mall,Pusat Perbelanjaan,Tarakan Mall,"8H5M+G73, Jl. Yos Sudarso No.1 Lantai 4, Karang Rejo, Kec. Tarakan Bar., Kota Tarakan, Kalimantan Utara","Kota Tarakan, Kalimantan Utara",KALIMANTAN UTARA,,Indonesia,,,,3.308837,117.5831623,https://maps.google.com/?cid=0x0:0x1eeb4f8ef877ebd6,
mall,Pusat Perbelanjaan,Tarakan Shop,"8J4F+F3G, RT.13/RW.No 51, Kp. Empat, Kec. Tarakan Tim., Kota Tarakan, Kalimantan Utara","Kota Tarakan, Kalimantan Utara",KALIMANTAN UTARA,,Indonesia,82253052770.0,,,3.3061924,117.6227018,https://maps.google.com/?cid=0x0:0xb04eb08021ae6ea2,
mall,Pusat Perbelanjaan,GRAND TARAKAN MALL XXI,"8H5M+G73 Tarakan Mall, Jl. Yos Sudarso No.1 Lantai 4, Karang Rejo, Kec. Tarakan Bar., Kota Tarakan, Kalimantan Utara","Kota Tarakan, Kalimantan Utara",KALIMANTAN UTARA,,Indonesia,5513830621.0,,,3.3086958,117.5833983,https://maps.google.com/?cid=0x0:0x7b62246e30eb3d2a,
mall,Pusat Perbelanjaan,Robinson Tarakan,"8H4H+CVR, Karang Rejo, Kec. Tarakan Bar., Kota Tarakan, Kalimantan Utara","Kota Tarakan, Kalimantan Utara",KALIMANTAN UTARA,,Indonesia,,,,3.3060538,117.5794816,https://maps.google.com/?cid=0x0:0xd76e1013fc99984b,
mall,mall,Tarakan,"Kota Tarakan, Kalimantan Utara","Kota Tarakan, Kalimantan Utara",KALIMANTAN UTARA,,Indonesia,,,,3.3273599,117.5785049,https://maps.google.com/?cid=0x0:0xe8d9849640f31b7e,
mall,Pusat Perbelanjaan,Tarakan Mall,"8H5M+G73, Jl. Yos Sudarso No.1 Lantai 4, Karang Rejo, Kec. Tarakan Bar., Kota Tarakan, Kalimantan Utara","Kota Tarakan, Kalimantan Utara",KALIMANTAN UTARA,,Indonesia,,,,3.308837,117.5831623,https://maps.google.com/?cid=0x0:0x1eeb4f8ef877ebd6,
mall,Pusat Perbelanjaan,Tarakan Shop,"8J4F+F3G, RT.13/RW.No 51, Kp. Empat, Kec. Tarakan Tim., Kota Tarakan, Kalimantan Utara","Kota Tarakan, Kalimantan Utara",KALIMANTAN UTARA,,Indonesia,82253052770.0,,,3.3061924,117.6227018,https://maps.google.com/?cid=0x0:0xb04eb08021ae6ea2,
mall,Pusat Perbelanjaan,Delta Town Centre Tarakan,"Jl. Imam Bonjol, Pamusian, Kec. Tarakan Tengah, Kota Tarakan, Kalimantan Utara 77113","Pamusian, Kec. Tarakan Tengah, Kota Tarakan",KALIMANTAN UTARA,77113.0,Indonesia,8115339567.0,,,3.303456,117.6053476,https://maps.google.com/?cid=0x0:0x877989d6775a6cf9,
mall,Toserba,Ramayana Gusher Plaza,"8H4H+7RP, Karang Rejo, Kec. Tarakan Bar., Kota Tarakan, Kalimantan Utara","Kota Tarakan, Kalimantan Utara",KALIMANTAN UTARA,,Indonesia,,,,3.305723,117.5795852,https://maps.google.com/?cid=0x0:0x1e46136bbdb237bc,
mall,Pusat Perbelanjaan,Swalayan Senyum 5000,"8H8H+4Q9, Karang Anyar, Kec. Tarakan Bar., Kota Tarakan, Kalimantan Utara","Kota Tarakan, Kalimantan Utara",KALIMANTAN UTARA,,Indonesia,82198182249.0,,,3.3152987,117.5794771,https://maps.google.com/?cid=0x0:0xb0a5795d751ca361,
mall,Pusat Perbelanjaan,SR BARU,"8H6Q+PQX, Karang Anyar, Kec. Tarakan Bar., Kota Tarakan, Kalimantan Utara","Kota Tarakan, Kalimantan Utara",KALIMANTAN UTARA,,Indonesia,,,,3.3118579,117.5894935,https://maps.google.com/?cid=0x0:0x1930352048ea8d61,
mall,Toko Swalayan,Toko Kalimantan Souvenir (Oleh - Oleh Tarakan),"Jl. Teuku Umar No.RT.12, Pamusian, Kec. Tarakan Tengah, Kota Tarakan, Kalimantan Utara","Kota Tarakan, Kalimantan Utara",KALIMANTAN UTARA,,Indonesia,,,,3.3051689,117.6026295,https://maps.google.com/?cid=0x0:0x5f8f2de7c41a44ce,
mall,Pusat Perbelanjaan,Miniso,"Jl. Mulawarman, Karang Anyar, Kec. Tarakan Bar., Kota Tarakan, Kalimantan Utara","Kota Tarakan, Kalimantan Utara",KALIMANTAN UTARA,,Indonesia,82256699688.0,,,3.3181257,117.5775655,https://maps.google.com/?cid=0x0:0x92043068ddc47e5b,
mall,Toko Pakaian,@mwmpstocktrk_,"8J7G+5C8, Kp. Enam, Kec. Tarakan Tim., Kota Tarakan, Kalimantan Utara","Kota Tarakan, Kalimantan Utara",KALIMANTAN UTARA,,Indonesia,85348834384.0,,,3.3129152,117.6260887,https://maps.google.com/?cid=0x0:0x3172bce2783056a,
mall,Pusat Perbelanjaan,Swalayan Senyum 5000 Kusuma Bangsa Tarakan,"Jl. Kusuma Bangsa, Pamusian, Kec. Tarakan Tengah, Kota Tarakan, Kalimantan Utara 77115","Pamusian, Kec. Tarakan Tengah, Kota Tarakan",KALIMANTAN UTARA,77115.0,Indonesia,,,,3.3054536,117.6096464,https://maps.google.com/?cid=0x0:0x2c077bd4b598eb08,
mall,Kios,Toko Kalibre Tarakan,"Jl. RE Martadinata No.Rt.13 C38, Pamusian, Kec. Tarakan Tengah, Kota Tarakan, Kalimantan Utara","Kota Tarakan, Kalimantan Utara",KALIMANTAN UTARA,,Indonesia,,,,3.3084872,117.5985548,https://maps.google.com/?cid=0x0:0x7f6f7f7112f42120,
mall,Pusat Perbelanjaan,Y Beelshop,"8J67+G7H, Jl. Gn. Keramat, Kp. Enam, Kec. Tarakan Tim., Kota Tarakan, Kalimantan Utara","Kota Tarakan, Kalimantan Utara",KALIMANTAN UTARA,,Indonesia,,,,3.3113114,117.6132344,https://maps.google.com/?cid=0x0:0x99d5df4f1c983026,
mall,Toko Kosmetik,Naytacare,"7JW3+CQJ, Jl. Kuburan Cina, Gn. Lingkas, Kec. Tarakan Tim., Kota Tarakan, Kalimantan Utara","Kota Tarakan, Kalimantan Utara",KALIMANTAN UTARA,,Indonesia,85389895905.0,,,3.2960805,117.6044,https://maps.google.com/?cid=0x0:0xb62303673f4e2084,
mall,Toko bahan makanan,Nu Store,"8HGF+MM3, Bar., Karang Anyar, Kec. Tarakan Bar., Kota Tarakan, Kalimantan Utara","Kota Tarakan, Kalimantan Utara",KALIMANTAN UTARA,,Indonesia,,,,3.3266284,117.5741714,https://maps.google.com/?cid=0x0:0xddd8d630c496db6e,
mall,Pusat Perbelanjaan,tarakan,"8HGM+3M5, Jl. Slamet Riady, RT.26/RW.No.119, Karang Anyar, Kec. Tarakan Bar., Kota Tarakan, Kalimantan Utara 77111","Jl. Slamet Riady, RT.26/RW.No.119, Karang Anyar, Kec. Tarakan Bar., Kota Tarakan",KALIMANTAN UTARA,77111.0,Indonesia,,,,3.3251359,117.5842439,https://maps.google.com/?cid=0x0:0x68089c1d2066a8da,
mall,Pusat Perbelanjaan,GRAND TARAKAN MALL XXI,"8H5M+G73 Tarakan Mall, Jl. Yos Sudarso No.1 Lantai 4, Karang Rejo, Kec. Tarakan Bar., Kota Tarakan, Kalimantan Utara","Kota Tarakan, Kalimantan Utara",KALIMANTAN UTARA,,Indonesia,5513830621.0,,,3.3086958,117.5833983,https://maps.google.com/?cid=0x0:0x7b62246e30eb3d2a,
mall,Toko Bunga,The Next Project Tarakan,"Jl. Imam Bonjol, Pamusian, Kec. Tarakan Tengah, Kota Tarakan, Kalimantan Utara","Kota Tarakan, Kalimantan Utara",KALIMANTAN UTARA,,Indonesia,8115817473.0,,,3.3033398,117.6057431,https://maps.google.com/?cid=0x0:0x5faf61f22c429810,
mall,Pusat Perbelanjaan,"Araya Shop, Oleh Oleh Khas Kalimantan","8H6W+64F, Jl. Jend. Sudirman, Karang Anyar, Kec. Tarakan Tengah, Kota Tarakan, Kalimantan Utara","Kota Tarakan, Kalimantan Utara",KALIMANTAN UTARA,,Indonesia,,,,3.3105745,117.5952942,https://maps.google.com/?cid=0x0:0x3db1679b2f2bcf41,
mall,Pusat Perbelanjaan,Toko Sungai Baru,"8H5J+34C, Jl. Gajah Mada, RT.23/RW.no.1, Karang Anyar Pantai, Kec. Tarakan Bar., Kota Tarakan, Kalimantan Utara","Kota Tarakan, Kalimantan Utara",KALIMANTAN UTARA,,Indonesia,8125817457.0,,,3.307677,117.5802734,https://maps.google.com/?cid=0x0:0xe7424188b00e055c,
mall,mall,Kec. Tarakan Tim.,"Kota Tarakan, Kalimantan Utara","Kota Tarakan, Kalimantan Utara",KALIMANTAN UTARA,,Indonesia,,,,3.3018342,117.62185,https://maps.google.com/?cid=0x0:0x57d2af2857b49049,
mall,Komplek perumahan,Baloy Varash,"Unnamed Road, Mamburungan Tim., Kec. Tarakan Tim., Kota Tarakan, Kalimantan Utara","Kota Tarakan, Kalimantan Utara",KALIMANTAN UTARA,,Indonesia,81210467482.0,,,3.2837761,117.6211454,https://maps.google.com/?cid=0x0:0x63c3640a59f710e2,
mall,Kantor Perusahaan,Post Pembelian Ikan Dan Kepiting Tarakan Ujung,"8H3C+V8C, Bar., Karang Anyar Pantai, Kec. Tarakan Bar., Kota Tarakan, Kalimantan Utara","Kota Tarakan, Kalimantan Utara",KALIMANTAN UTARA,,Indonesia,85388204344.0,,,3.3046971,117.5707707,https://maps.google.com/?cid=0x0:0x734573adcb82bd7f,
mall,Pusat Perbelanjaan,dnashop,"7JM2+366, Lingkas Ujung, Kec. Tarakan Tim., Kota Tarakan, Kalimantan Utara 71126","Lingkas Ujung, Kec. Tarakan Tim., Kota Tarakan",KALIMANTAN UTARA,71126.0,Indonesia,,,,3.2826661,117.6005113,https://maps.google.com/?cid=0x0:0xf4333a9c5d3dad5a,
mall,Pusat Perbelanjaan,Nenekku pahlawanku,"8M95+23V, Pantai Amal, Kec. Tarakan Tim., Kota Tarakan, Kalimantan Utara","Kota Tarakan, Kalimantan Utara",KALIMANTAN UTARA,,Indonesia,,,,3.317616,117.657457,https://maps.google.com/?cid=0x0:0x52990399a73e4edf,
mall,Pusat Perbelanjaan,Amerrashop,"rt 08 no14, Jl. Palem, Gn. Lingkas, Kec. Tarakan Tim., Kota Tarakan, Kalimantan Utara","Kota Tarakan, Kalimantan Utara",KALIMANTAN UTARA,,Indonesia,81261316477.0,,,3.2826805,117.5980428,https://maps.google.com/?cid=0x0:0xa86a1bb7ce90c3e6,
mall,Toko Elektronik,Fotokopi Fadilah Jaya,"8J6F+PJ4, Kp. Enam, Kec. Tarakan Tim., Kota Tarakan, Kalimantan Utara","Kota Tarakan, Kalimantan Utara",KALIMANTAN UTARA,,Indonesia,,,,3.3117521,117.6240851,https://maps.google.com/?cid=0x0:0x84984ca40284c006,
mall,Toko,Kama sticker,"7JVG+MMC, Tim, Mamburungan Tim., Kec. Tarakan Tim., Kota Tarakan, Kalimantan Utara","Kota Tarakan, Kalimantan Utara",KALIMANTAN UTARA,,Indonesia,82153275428.0,,,3.2941907,117.6266414,https://maps.google.com/?cid=0x0:0x4036c054f9020ab4,
mall,Pusat Perbelanjaan,Tarakan Mall,"8H5M+G73, Jl. Yos Sudarso No.1 Lantai 4, Karang Rejo, Kec. Tarakan Bar., Kota Tarakan, Kalimantan Utara","Kota Tarakan, Kalimantan Utara",KALIMANTAN UTARA,,Indonesia,,,,3.308837,117.5831623,https://maps.google.com/?cid=0x0:0x1eeb4f8ef877ebd6,
mall,Toserba,Ramayana Gusher Plaza,"8H4H+7RP, Karang Rejo, Kec. Tarakan Bar., Kota Tarakan, Kalimantan Utara","Kota Tarakan, Kalimantan Utara",KALIMANTAN UTARA,,Indonesia,,,,3.305723,117.5795852,https://maps.google.com/?cid=0x0:0x1e46136bbdb237bc,
mall,mall,Coffee Zone,"Karang Rejo, Kec. Tarakan Bar., Kota Tarakan, Kalimantan Utara","Kota Tarakan, Kalimantan Utara",KALIMANTAN UTARA,,Indonesia,,,,3.3089548,117.5832988,https://maps.google.com/?cid=0x0:0xff17a5448d6db71,
mall,mall,Kec. Tarakan Utara,"Kota Tarakan, Kalimantan Utara","Kota Tarakan, Kalimantan Utara",KALIMANTAN UTARA,,Indonesia,,,,3.3796258,117.5496105,https://maps.google.com/?cid=0x0:0xb014dac18351b1,
mall,Pusat Perbelanjaan,Tarakan Mall,"8H5M+G73, Jl. Yos Sudarso No.1 Lantai 4, Karang Rejo, Kec. Tarakan Bar., Kota Tarakan, Kalimantan Utara","Kota Tarakan, Kalimantan Utara",KALIMANTAN UTARA,,Indonesia,,,,3.308837,117.5831623,https://maps.google.com/?cid=0x0:0x1eeb4f8ef877ebd6,
mall,Toko bahan makanan,Sumber Laut,"CGMR+6J8, Jl. Kurau, Juata Laut, Kota Tarakan, Kalimantan Utara","Kota Tarakan, Kalimantan Utara",KALIMANTAN UTARA,,Indonesia,82254164678.0,,,3.4330315,117.5415899,https://maps.google.com/?cid=0x0:0x41131fafcd7dce07,
mall,Pusat Perbelanjaan,Tarakan Shop,"8J4F+F3G, RT.13/RW.No 51, Kp. Empat, Kec. Tarakan Tim., Kota Tarakan, Kalimantan Utara","Kota Tarakan, Kalimantan Utara",KALIMANTAN UTARA,,Indonesia,82253052770.0,,,3.3061924,117.6227018,https://maps.google.com/?cid=0x0:0xb04eb08021ae6ea2,
mall,Pusat Perbelanjaan,Miniso,"Jl. Mulawarman, Karang Anyar, Kec. Tarakan Bar., Kota Tarakan, Kalimantan Utara","Kota Tarakan, Kalimantan Utara",KALIMANTAN UTARA,,Indonesia,82256699688.0,,,3.3181257,117.5775655,https://maps.google.com/?cid=0x0:0x92043068ddc47e5b,
mall,Toko Swalayan,Toko Kalimantan Souvenir (Oleh - Oleh Tarakan),"Jl. Teuku Umar No.RT.12, Pamusian, Kec. Tarakan Tengah, Kota Tarakan, Kalimantan Utara","Kota Tarakan, Kalimantan Utara",KALIMANTAN UTARA,,Indonesia,,,,3.3051689,117.6026295,https://maps.google.com/?cid=0x0:0x5f8f2de7c41a44ce,
mall,Toserba,Ramayana Gusher Plaza,"8H4H+7RP, Karang Rejo, Kec. Tarakan Bar., Kota Tarakan, Kalimantan Utara","Kota Tarakan, Kalimantan Utara",KALIMANTAN UTARA,,Indonesia,,,,3.305723,117.5795852,https://maps.google.com/?cid=0x0:0x1e46136bbdb237bc,
mall,Pusat Perbelanjaan,Swalayan Senyum 5000,"8H8H+4Q9, Karang Anyar, Kec. Tarakan Bar., Kota Tarakan, Kalimantan Utara","Kota Tarakan, Kalimantan Utara",KALIMANTAN UTARA,,Indonesia,82198182249.0,,,3.3152987,117.5794771,https://maps.google.com/?cid=0x0:0xb0a5795d751ca361,
mall,Toko bahan makanan,Nu Store,"8HGF+MM3, Bar., Karang Anyar, Kec. Tarakan Bar., Kota Tarakan, Kalimantan Utara","Kota Tarakan, Kalimantan Utara",KALIMANTAN UTARA,,Indonesia,,,,3.3266284,117.5741714,https://maps.google.com/?cid=0x0:0xddd8d630c496db6e,
mall,Toko Pakaian,Toko DMT,"Karang Rejo, Kec. Tarakan Bar., Kota Tarakan, Kalimantan Utara","Kota Tarakan, Kalimantan Utara",KALIMANTAN UTARA,,Indonesia,,,,3.3072253,117.5799594,https://maps.google.com/?cid=0x0:0xe737344dabc9cfd9,
mall,Toko Bunga,The Next Project Tarakan,"Jl. Imam Bonjol, Pamusian, Kec. Tarakan Tengah, Kota Tarakan, Kalimantan Utara","Kota Tarakan, Kalimantan Utara",KALIMANTAN UTARA,,Indonesia,8115817473.0,,,3.3033398,117.6057431,https://maps.google.com/?cid=0x0:0x5faf61f22c429810,
mall,Pusat Perbelanjaan,tarakan,"8HGM+3M5, Jl. Slamet Riady, RT.26/RW.No.119, Karang Anyar, Kec. Tarakan Bar., Kota Tarakan, Kalimantan Utara 77111","Jl. Slamet Riady, RT.26/RW.No.119, Karang Anyar, Kec. Tarakan Bar., Kota Tarakan",KALIMANTAN UTARA,77111.0,Indonesia,,,,3.3251359,117.5842439,https://maps.google.com/?cid=0x0:0x68089c1d2066a8da,
mall,Pusat Perbelanjaan,Toko Sungai Baru,"8H5J+34C, Jl. Gajah Mada, RT.23/RW.no.1, Karang Anyar Pantai, Kec. Tarakan Bar., Kota Tarakan, Kalimantan Utara","Kota Tarakan, Kalimantan Utara",KALIMANTAN UTARA,,Indonesia,8125817457.0,,,3.307677,117.5802734,https://maps.google.com/?cid=0x0:0xe7424188b00e055c,
mall,Toko Pakaian,@mwmpstocktrk_,"8J7G+5C8, Kp. Enam, Kec. Tarakan Tim., Kota Tarakan, Kalimantan Utara","Kota Tarakan, Kalimantan Utara",KALIMANTAN UTARA,,Indonesia,85348834384.0,,,3.3129152,117.6260887,https://maps.google.com/?cid=0x0:0x3172bce2783056a,
mall,Pusat Perbelanjaan,dollyolshopofficial,"Jl. Ppabri, Kampung 1, Kec. Tarakan Tengah, Kota Tarakan, Kalimantan Utara","Kota Tarakan, Kalimantan Utara",KALIMANTAN UTARA,,Indonesia,82235501126.0,,,3.3252726,117.6049279,https://maps.google.com/?cid=0x0:0x3cfd485c2d2a2a25,
mall,Pusat Perbelanjaan,Toko Sha Sha,"8HVF+F93, Jl. Aki Balak, Karang Harapan, Kec. Tarakan Bar., Kota Tarakan, Kalimantan Utara","Kota Tarakan, Kalimantan Utara",KALIMANTAN UTARA,,Indonesia,,,,3.3436359,117.573412,https://maps.google.com/?cid=0x0:0x3d50a81c3c653983,
mall,Pusat Perbelanjaan,GRAND TARAKAN MALL XXI,"8H5M+G73 Tarakan Mall, Jl. Yos Sudarso No.1 Lantai 4, Karang Rejo, Kec. Tarakan Bar., Kota Tarakan, Kalimantan Utara","Kota Tarakan, Kalimantan Utara",KALIMANTAN UTARA,,Indonesia,5513830621.0,,,3.3086958,117.5833983,https://maps.google.com/?cid=0x0:0x7b62246e30eb3d2a,
mall,Kios,Toko Kalibre Tarakan,"Jl. RE Martadinata No.Rt.13 C38, Pamusian, Kec. Tarakan Tengah, Kota Tarakan, Kalimantan Utara","Kota Tarakan, Kalimantan Utara",KALIMANTAN UTARA,,Indonesia,,,,3.3084872,117.5985548,https://maps.google.com/?cid=0x0:0x7f6f7f7112f42120,
mall,Pusat Perbelanjaan,Swalayan Senyum 5000 Kusuma Bangsa Tarakan,"Jl. Kusuma Bangsa, Pamusian, Kec. Tarakan Tengah, Kota Tarakan, Kalimantan Utara 77115","Pamusian, Kec. Tarakan Tengah, Kota Tarakan",KALIMANTAN UTARA,77115.0,Indonesia,,,,3.3054536,117.6096464,https://maps.google.com/?cid=0x0:0x2c077bd4b598eb08,
mall,mall,TOKOH Al-MART,"9GCM+X3H, Jl. Sei Bengawan, Juata Permai, Kec. Tarakan Utara, Kota Tarakan, Kalimantan Utara","Kota Tarakan, Kalimantan Utara",KALIMANTAN UTARA,,Indonesia,85823729579.0,,,3.3724252,117.532721,https://maps.google.com/?cid=0x0:0x6e376b8911590548,
mall,Pusat Perbelanjaan,Delta Town Centre Tarakan,"Jl. Imam Bonjol, Pamusian, Kec. Tarakan Tengah, Kota Tarakan, Kalimantan Utara 77113","Pamusian, Kec. Tarakan Tengah, Kota Tarakan",KALIMANTAN UTARA,77113.0,Indonesia,8115339567.0,,,3.303456,117.6053476,https://maps.google.com/?cid=0x0:0x877989d6775a6cf9,
mall,Toko Makanan,Dapoer Sufa Al Fary,"Pasir Putih Jl.Bhayangkara Gg.Lili 9 Rt.57 No, Karang Anyar, Kec. Tarakan Bar., Kota Tarakan, Kalimantan Utara","Kota Tarakan, Kalimantan Utara",KALIMANTAN UTARA,,Indonesia,81346640879.0,,,3.3341455,117.5821365,https://maps.google.com/?cid=0x0:0xadeaf503ef9717fb,
mall,Pasar,Toko sakinahgrosirtarakan,"Pasar gusher No.136B 242b, Karang Anyar, Kec. Tarakan Bar., Kota Tarakan, Kalimantan Utara","Kota Tarakan, Kalimantan Utara",KALIMANTAN UTARA,,Indonesia,82296196035.0,,,3.3273599,117.5785049,https://maps.google.com/?cid=0x0:0x5195c53c7689bf9b,
mall,Kantor Pemerintah,Mall Pelayanan Publik,"Jl. Mulawarman No.7, Karang Anyar Pantai, Kec. Tarakan Bar., Kota Tarakan, Kalimantan Utara","Kota Tarakan, Kalimantan Utara",KALIMANTAN UTARA,,Indonesia,,,,3.3204553,117.5758928,https://maps.google.com/?cid=0x0:0x9cc8e43b1076d60e,
mall,Toko Pakaian,QUEEN COLLECTION,"Jl.seranai ll rt20 Blok B/117, Juata Permai, Kec. Tarakan Utara, Kota Tarakan, Kalimantan Utara","Kota Tarakan, Kalimantan Utara",KALIMANTAN UTARA,,Indonesia,,,,3.3773158,117.5483147,https://maps.google.com/?cid=0x0:0x627b450c2d1e50bd,
supermarket,supermarket,Kalimantan Utara 77111,"Karang Anyar Pantai, Kec. Tarakan Bar., Kota Tarakan, Kalimantan Utara","Kota Tarakan, Kalimantan Utara",KALIMANTAN UTARA,,Indonesia,,,,3.3095521,117.5827496,https://maps.google.com/?cid=0x0:0xf55536e5ab2854e9,
supermarket,Toko bahan makanan,S-Mart,"Jl. Mulawarman, Karang Anyar, Kec. Tarakan Bar., Kota Tarakan, Kalimantan Utara","Kota Tarakan, Kalimantan Utara",KALIMANTAN UTARA,,Indonesia,55124035.0,,,3.3148166,117.5798587,https://maps.google.com/?cid=0x0:0x16d38d85c7cff48c,
supermarket,Pasar,Setia Budi Karang Rejo,"Yos Sudarso rt 01 no 03, Tarakan Barat, Karang Rejo, Kec. Tarakan Bar., Kota Tarakan, Kalimantan Utara 77112","Tarakan Barat, Karang Rejo, Kec. Tarakan Bar., Kota Tarakan",KALIMANTAN UTARA,77112.0,Indonesia,55121644.0,,,3.3082141,117.5836263,https://maps.google.com/?cid=0x0:0x8b882337264e938e,
supermarket,Toko bahan makanan,STB,"Jl. Kusuma Bangsa, Pamusian, Kec. Tarakan Tengah, Kota Tarakan, Kalimantan Utara","Kota Tarakan, Kalimantan Utara",KALIMANTAN UTARA,,Indonesia,82350882108.0,,,3.304932,117.608725,https://maps.google.com/?cid=0x0:0x2c67ba69c43b5659,
supermarket,Toko,Toko Dian,"8H6M+XXM, Karang Anyar, Kec. Tarakan Bar., Kota Tarakan, Kalimantan Utara","Kota Tarakan, Kalimantan Utara",KALIMANTAN UTARA,,Indonesia,,,,3.3124521,117.5849124,https://maps.google.com/?cid=0x0:0x4592e7a4e669d195,
supermarket,Minimarket,HG Mart,"Jl. Yos Sudarso No.1, Karang Rejo, Kec. Tarakan Bar., Kota Tarakan, Kalimantan Utara","Kota Tarakan, Kalimantan Utara",KALIMANTAN UTARA,,Indonesia,,,,3.3027728,117.5850254,https://maps.google.com/?cid=0x0:0x2015f5b7c1ed923c,
supermarket,Toko Swalayan,STB Supermarket Mulawarman,"8H9G+PMQ, Jl. Mulawarman, Karang Anyar Pantai, Kec. Tarakan Bar., Kota Tarakan, Kalimantan Utara","Kota Tarakan, Kalimantan Utara",KALIMANTAN UTARA,,Indonesia,,,,3.3193321,117.5767281,https://maps.google.com/?cid=0x0:0x1411802f10274071,
supermarket,Toko Swalayan,TW Mart,"8H2Q+RM4, Jl. Agus Salim No.27, Selumit, Kec. Tarakan Tengah, Kota Tarakan, Kalimantan Utara","Kota Tarakan, Kalimantan Utara",KALIMANTAN UTARA,,Indonesia,8115981908.0,,,3.3021459,117.5895597,https://maps.google.com/?cid=0x0:0x57b82f49421d04b,
supermarket,Toko Swalayan,STB Mart Markoni,"RT 21 Markoni, Kalimantan Timur, Jl. Imam Bonjol, Pamusian, Kec. Tarakan Tengah, Kota Tarakan, Kalimantan Utara","Kota Tarakan, Kalimantan Utara",KALIMANTAN UTARA,,Indonesia,81299039555.0,,,3.3048312,117.6031583,https://maps.google.com/?cid=0x0:0xa054ad2c6f7992d7,
supermarket,Toko bahan makanan,Public Mart Point,"Jl. P. Diponegoro No.8, Sebengkok, Kec. Tarakan Tengah, Kota Tarakan, Kalimantan Utara","Kota Tarakan, Kalimantan Utara",KALIMANTAN UTARA,,Indonesia,,,,3.2996867,117.593535,https://maps.google.com/?cid=0x0:0xd10fcef6c326e15,
supermarket,Toko Swalayan,HG mart(karang anyar),"Jl. Flamboyan No.66, Karang Anyar, Kec. Tarakan Bar., Kota Tarakan, Kalimantan Utara 77111","Karang Anyar, Kec. Tarakan Bar., Kota Tarakan",KALIMANTAN UTARA,77111.0,Indonesia,,,,3.3168016,117.5850542,https://maps.google.com/?cid=0x0:0x7570ad3d3efbd46e,
supermarket,Pusat Perbelanjaan,NU Store,"8H6R+74J, Karang Balik, Kec. Tarakan Bar., Kota Tarakan, Kalimantan Utara","Kota Tarakan, Kalimantan Utara",KALIMANTAN UTARA,,Indonesia,,,,3.3107136,117.5902664,https://maps.google.com/?cid=0x0:0x80bd42b180541cf1,
supermarket,Toko bahan makanan,D'frozz frozen food Tarakan,"Jl. P. Sumatera No.RT 15 No 10, Pamusian, Kec. Tarakan Tengah, Kota Tarakan, Kalimantan Utara","Kota Tarakan, Kalimantan Utara",KALIMANTAN UTARA,,Indonesia,81351888558.0,,,3.3079443,117.6026829,https://maps.google.com/?cid=0x0:0xeb95fb120d23a5d7,
supermarket,Toko Swalayan,JB MART,"Jl. Jemb. Bongkok, Karang Anyar Pantai, Kec. Tarakan Bar., Kota Tarakan, Kalimantan Utara","Kota Tarakan, Kalimantan Utara",KALIMANTAN UTARA,,Indonesia,,,,3.3061863,117.5757131,https://maps.google.com/?cid=0x0:0x568c880901502dd,
supermarket,Pemasok Produk Makanan,LaDaRa Tarakan,"Jl. Kusuma Bangsa No.RT.31, Pamusian, Kec. Tarakan Tengah, Kota Tarakan, Kalimantan Utara","Kota Tarakan, Kalimantan Utara",KALIMANTAN UTARA,,Indonesia,81346500264.0,,,3.299648,117.6036605,https://maps.google.com/?cid=0x0:0x91418dec42238de7,
supermarket,Toko Perlengkapan Rumah,PERABOTAN MART,"Samping Bank BRI, Jl.Jendral Sudirman RT.13 Karang Balik, Simpang Tiga, Kota Tarakan, Kalimantan Utara 77112","Jl.Jendral Sudirman RT.13 Karang Balik, Simpang Tiga, Kota Tarakan",KALIMANTAN UTARA,77112.0,Indonesia,82281040470.0,,,3.3095622,117.5846536,https://maps.google.com/?cid=0x0:0xa6ab24fe19eeb899,
supermarket,Minimarket,SUPER SAYUR 1,"Jl. Kh Jl. Agus Salim, Selumit, Kec. Tarakan Tengah, Kota Tarakan, Kalimantan Utara 77111","Selumit, Kec. Tarakan Tengah, Kota Tarakan",KALIMANTAN UTARA,77111.0,Indonesia,85247557774.0,,,3.3022881,117.5887295,https://maps.google.com/?cid=0x0:0x6ffb3b67805b6f37,
supermarket,Toko bahan makanan,Bigmart,"9HG2+56J, Jl. Pangeran Aji Iskandar, Juata Permai, Kec. Tarakan Utara, Kota Tarakan, Kalimantan Utara","Kota Tarakan, Kalimantan Utara",KALIMANTAN UTARA,,Indonesia,,,,3.3754628,117.5505249,https://maps.google.com/?cid=0x0:0x3afe597bf7f3c1e0,
supermarket,Pasar,Pasar Tenguyun Bom Panjang,"Pasar tenguyun, Pamusian, Kec. Tarakan Tengah, Kota Tarakan, Kalimantan Utara 77122","Pamusian, Kec. Tarakan Tengah, Kota Tarakan",KALIMANTAN UTARA,77122.0,Indonesia,,,,3.2996237,117.605947,https://maps.google.com/?cid=0x0:0xc278897bd504a419,
supermarket,Toko Mebel,Toko Wii Jaya THM,"blok F10 Pasar THM, Jl. Niaga III, Karang Balik, Kec. Tarakan Bar., Kota Tarakan, Kalimantan Utara","Kota Tarakan, Kalimantan Utara",KALIMANTAN UTARA,,Indonesia,81213041893.0,,,3.3088698,117.5843381,https://maps.google.com/?cid=0x0:0x56e1d686eb19cfa9,
supermarket,Pusat Perbelanjaan,Swalayan Senyum 5000,"8H8H+4Q9, Karang Anyar, Kec. Tarakan Bar., Kota Tarakan, Kalimantan Utara","Kota Tarakan, Kalimantan Utara",KALIMANTAN UTARA,,Indonesia,82198182249.0,,,3.3152987,117.5794771,https://maps.google.com/?cid=0x0:0xb0a5795d751ca361,
supermarket,Toko Swalayan,Toko Acing,"No.68 RT 62 East Kalimantan, Jl. Matahari, Karang Anyar, Kec. Tarakan Bar., Kota Tarakan, Kalimantan Utara","Kota Tarakan, Kalimantan Utara",KALIMANTAN UTARA,,Indonesia,,,,3.3227305,117.5894963,https://maps.google.com/?cid=0x0:0xa6d23b4854592c50,
supermarket,Toko Peralatan dan Bahan Kue,KA MART | tokokemasan  toko Bahan kue,"Karang Anyar, Kec. Tarakan Bar., Kota Tarakan, Kalimantan Utara","Kota Tarakan, Kalimantan Utara",KALIMANTAN UTARA,,Indonesia,8115319988.0,,,3.3107566,117.5882949,https://maps.google.com/?cid=0x0:0x1248699f48f3726,
supermarket,Pusat Perbelanjaan,Swalayan Senyum 5000 Kusuma Bangsa Tarakan,"Jl. Kusuma Bangsa, Pamusian, Kec. Tarakan Tengah, Kota Tarakan, Kalimantan Utara 77115","Pamusian, Kec. Tarakan Tengah, Kota Tarakan",KALIMANTAN UTARA,77115.0,Indonesia,,,,3.3054536,117.6096464,https://maps.google.com/?cid=0x0:0x2c077bd4b598eb08,
supermarket,Toko Swalayan,jv mart,"Kp. Empat, Kec. Tarakan Tim., Kota Tarakan, Kalimantan Utara","Kota Tarakan, Kalimantan Utara",KALIMANTAN UTARA,,Indonesia,,,,3.3003968,117.6231411,https://maps.google.com/?cid=0x0:0xb3c4887bb4957e6,
supermarket,Pusat Perbelanjaan,SR BARU,"8H6Q+PQX, Karang Anyar, Kec. Tarakan Bar., Kota Tarakan, Kalimantan Utara","Kota Tarakan, Kalimantan Utara",KALIMANTAN UTARA,,Indonesia,,,,3.3118579,117.5894935,https://maps.google.com/?cid=0x0:0x1930352048ea8d61,
supermarket,Toko,Halal Mart Simpang Empat Tarakan,"Jl. Mulawarman No.15, Karang Anyar, Kec. Tarakan Bar., Kota Tarakan, Kalimantan Utara","Kota Tarakan, Kalimantan Utara",KALIMANTAN UTARA,,Indonesia,82254149991.0,,,3.3098495,117.5831804,https://maps.google.com/?cid=0x0:0x35f316d343f6044,
supermarket,Toko Kosmetik,Tarakan beauty,"Jl. Jend. Sudirman No.7-10, Karang Balik, Kec. Tarakan Bar., Kota Tarakan, Kalimantan Utara","Kota Tarakan, Kalimantan Utara",KALIMANTAN UTARA,,Indonesia,82250894955.0,,,3.3098696,117.584726,https://maps.google.com/?cid=0x0:0x70e89f05fb9decab,
supermarket,Toko Swalayan,Toko Mutiara,"8H5M+P7R, Jl. Mulawarman, Karang Anyar Pantai, Kec. Tarakan Bar., Kota Tarakan, Kalimantan Utara","Kota Tarakan, Kalimantan Utara",KALIMANTAN UTARA,,Indonesia,,,,3.3093663,117.5831464,https://maps.google.com/?cid=0x0:0xacfd731fa76cc361,
supermarket,supermarket,Kalimantan Utara 77112,"Karang Balik, Kec. Tarakan Bar., Kota Tarakan, Kalimantan Utara","Kota Tarakan, Kalimantan Utara",KALIMANTAN UTARA,,Indonesia,,,,3.306797,117.590528,https://maps.google.com/?cid=0x0:0x1470b76b4da93f75,
supermarket,Pusat Perbelanjaan,Swalayan Senyum 5000,"8H8H+4Q9, Karang Anyar, Kec. Tarakan Bar., Kota Tarakan, Kalimantan Utara","Kota Tarakan, Kalimantan Utara",KALIMANTAN UTARA,,Indonesia,82198182249.0,,,3.3152987,117.5794771,https://maps.google.com/?cid=0x0:0xb0a5795d751ca361,
supermarket,Toko bahan makanan,S-Mart,"Jl. Mulawarman, Karang Anyar, Kec. Tarakan Bar., Kota Tarakan, Kalimantan Utara","Kota Tarakan, Kalimantan Utara",KALIMANTAN UTARA,,Indonesia,55124035.0,,,3.3148166,117.5798587,https://maps.google.com/?cid=0x0:0x16d38d85c7cff48c,
supermarket,Toko bahan makanan,STB,"Jl. Kusuma Bangsa, Pamusian, Kec. Tarakan Tengah, Kota Tarakan, Kalimantan Utara","Kota Tarakan, Kalimantan Utara",KALIMANTAN UTARA,,Indonesia,82350882108.0,,,3.304932,117.608725,https://maps.google.com/?cid=0x0:0x2c67ba69c43b5659,
supermarket,Toko Swalayan,Xpress Mart,"Jl. Slamet Riady No.71, RT.10, Karang Anyar, Kec. Tarakan Bar., Kota Tarakan, Kalimantan Utara 77111","RT.10, Karang Anyar, Kec. Tarakan Bar., Kota Tarakan",KALIMANTAN UTARA,77111.0,Indonesia,82149822678.0,,,3.3143773,117.5887689,https://maps.google.com/?cid=0x0:0xdd5321822982b381,
supermarket,Toko,Toko Dian,"8H6M+XXM, Karang Anyar, Kec. Tarakan Bar., Kota Tarakan, Kalimantan Utara","Kota Tarakan, Kalimantan Utara",KALIMANTAN UTARA,,Indonesia,,,,3.3124521,117.5849124,https://maps.google.com/?cid=0x0:0x4592e7a4e669d195,
supermarket,Toko Swalayan,STB Supermarket Mulawarman,"8H9G+PMQ, Jl. Mulawarman, Karang Anyar Pantai, Kec. Tarakan Bar., Kota Tarakan, Kalimantan Utara","Kota Tarakan, Kalimantan Utara",KALIMANTAN UTARA,,Indonesia,,,,3.3193321,117.5767281,https://maps.google.com/?cid=0x0:0x1411802f10274071,
supermarket,Toko Swalayan,TW Mart,"8H2Q+RM4, Jl. Agus Salim No.27, Selumit, Kec. Tarakan Tengah, Kota Tarakan, Kalimantan Utara","Kota Tarakan, Kalimantan Utara",KALIMANTAN UTARA,,Indonesia,8115981908.0,,,3.3021459,117.5895597,https://maps.google.com/?cid=0x0:0x57b82f49421d04b,
supermarket,Toko Swalayan,Toko Acing,"No.68 RT 62 East Kalimantan, Jl. Matahari, Karang Anyar, Kec. Tarakan Bar., Kota Tarakan, Kalimantan Utara","Kota Tarakan, Kalimantan Utara",KALIMANTAN UTARA,,Indonesia,,,,3.3227305,117.5894963,https://maps.google.com/?cid=0x0:0xa6d23b4854592c50,
supermarket,Toko Swalayan,STB Mart Markoni,"RT 21 Markoni, Kalimantan Timur, Jl. Imam Bonjol, Pamusian, Kec. Tarakan Tengah, Kota Tarakan, Kalimantan Utara","Kota Tarakan, Kalimantan Utara",KALIMANTAN UTARA,,Indonesia,81299039555.0,,,3.3048312,117.6031583,https://maps.google.com/?cid=0x0:0xa054ad2c6f7992d7,
supermarket,Toko Swalayan,Toko OSHIN,"Jl. Dr. Sutomo No.2, Karang Balik, Kec. Tarakan Bar., Kota Tarakan, Kalimantan Utara","Kota Tarakan, Kalimantan Utara",KALIMANTAN UTARA,,Indonesia,82221121261.0,,,3.3064642,117.5879868,https://maps.google.com/?cid=0x0:0x5845064d293f284,
supermarket,Pusat Perbelanjaan,NU Store,"8H6R+74J, Karang Balik, Kec. Tarakan Bar., Kota Tarakan, Kalimantan Utara","Kota Tarakan, Kalimantan Utara",KALIMANTAN UTARA,,Indonesia,,,,3.3107136,117.5902664,https://maps.google.com/?cid=0x0:0x80bd42b180541cf1,
supermarket,Toko bahan makanan,Public Mart Point,"Jl. P. Diponegoro No.8, Sebengkok, Kec. Tarakan Tengah, Kota Tarakan, Kalimantan Utara","Kota Tarakan, Kalimantan Utara",KALIMANTAN UTARA,,Indonesia,,,,3.2996867,117.593535,https://maps.google.com/?cid=0x0:0xd10fcef6c326e15,
supermarket,Toko Swalayan,HG mart(karang anyar),"Jl. Flamboyan No.66, Karang Anyar, Kec. Tarakan Bar., Kota Tarakan, Kalimantan Utara 77111","Karang Anyar, Kec. Tarakan Bar., Kota Tarakan",KALIMANTAN UTARA,77111.0,Indonesia,,,,3.3168016,117.5850542,https://maps.google.com/?cid=0x0:0x7570ad3d3efbd46e,
supermarket,Toko bahan makanan,D'frozz frozen food Tarakan,"Jl. P. Sumatera No.RT 15 No 10, Pamusian, Kec. Tarakan Tengah, Kota Tarakan, Kalimantan Utara","Kota Tarakan, Kalimantan Utara",KALIMANTAN UTARA,,Indonesia,81351888558.0,,,3.3079443,117.6026829,https://maps.google.com/?cid=0x0:0xeb95fb120d23a5d7,
supermarket,Minimarket,SUPER SAYUR 2,"Jl. Yos Sudarso, Karang Balik, Kec. Tarakan Bar., Kota Tarakan, Kalimantan Utara 77111","Karang Balik, Kec. Tarakan Bar., Kota Tarakan",KALIMANTAN UTARA,77111.0,Indonesia,85147466246.0,,,3.3073961,117.5842369,https://maps.google.com/?cid=0x0:0xaaf15d0f6d9d5581,
supermarket,Toko Swalayan,JB MART,"Jl. Jemb. Bongkok, Karang Anyar Pantai, Kec. Tarakan Bar., Kota Tarakan, Kalimantan Utara","Kota Tarakan, Kalimantan Utara",KALIMANTAN UTARA,,Indonesia,,,,3.3061863,117.5757131,https://maps.google.com/?cid=0x0:0x568c880901502dd,
supermarket,Minimarket,HG Mart,"Jl. P. Diponegoro Jl. Sebengkok Tiram No.2, Sebengkok, Kec. Tarakan Tengah, Kota Tarakan, Kalimantan Utara","Kota Tarakan, Kalimantan Utara",KALIMANTAN UTARA,,Indonesia,,,,3.2949304,117.5896995,https://maps.google.com/?cid=0x0:0x7bae8c7ded8bb6eb,
supermarket,Pemasok Produk Makanan,LaDaRa Tarakan,"Jl. Kusuma Bangsa No.RT.31, Pamusian, Kec. Tarakan Tengah, Kota Tarakan, Kalimantan Utara","Kota Tarakan, Kalimantan Utara",KALIMANTAN UTARA,,Indonesia,81346500264.0,,,3.299648,117.6036605,https://maps.google.com/?cid=0x0:0x91418dec42238de7,
supermarket,Toko Swalayan,Toko Renata,"Jl. Mulawarman No.Rt. 44, Karang Anyar, Kec. Tarakan Bar., Kota Tarakan, Kalimantan Utara 77111","Karang Anyar, Kec. Tarakan Bar., Kota Tarakan",KALIMANTAN UTARA,77111.0,Indonesia,85347970000.0,,,3.3159115,117.5789936,https://maps.google.com/?cid=0x0:0x9df6bd37ba9e6995,
supermarket,Toko Peralatan dan Bahan Kue,KA MART | tokokemasan  toko Bahan kue,"Karang Anyar, Kec. Tarakan Bar., Kota Tarakan, Kalimantan Utara","Kota Tarakan, Kalimantan Utara",KALIMANTAN UTARA,,Indonesia,8115319988.0,,,3.3107566,117.5882949,https://maps.google.com/?cid=0x0:0x1248699f48f3726,
supermarket,Grosir,Toko Berkat Mulia,"Jl. Yos Sudarso No.02, RT.13, Bar., Karang Rejo, Kec. Tarakan Bar., Kota Tarakan, Kalimantan Utara","Kota Tarakan, Kalimantan Utara",KALIMANTAN UTARA,,Indonesia,,,,3.3039986,117.5847123,https://maps.google.com/?cid=0x0:0xca8054fa3b865e3f,
supermarket,Toko Swalayan,jv mart,"Kp. Empat, Kec. Tarakan Tim., Kota Tarakan, Kalimantan Utara","Kota Tarakan, Kalimantan Utara",KALIMANTAN UTARA,,Indonesia,,,,3.3003968,117.6231411,https://maps.google.com/?cid=0x0:0xb3c4887bb4957e6,
supermarket,Pasar,"Pasar Gusher, Tarakan","Komplek Pasar Guser, Jl. Gajah Mada, Karang Rejo, Kec. Tarakan Bar., Kota Tarakan, Kalimantan Utara","Kota Tarakan, Kalimantan Utara",KALIMANTAN UTARA,,Indonesia,,,,3.3051735,117.5798756,https://maps.google.com/?cid=0x0:0xca1082bc61dfe0a,
supermarket,Toko umum,Warung ibu silaban,"8H4Q+R6G, Karang Balik, Kec. Tarakan Bar., Kota Tarakan, Kalimantan Utara","Kota Tarakan, Kalimantan Utara",KALIMANTAN UTARA,,Indonesia,82253075514.0,,,3.3070593,117.5880631,https://maps.google.com/?cid=0x0:0x83036d6de29e4480,
supermarket,Pusat Perbelanjaan,Nirwana Toko Oleh-Oleh,"Jl. Yos Sudarso No.1, Sebengkok, Kec. Tarakan Tengah, Kota Tarakan, Kalimantan Utara","Kota Tarakan, Kalimantan Utara",KALIMANTAN UTARA,,Indonesia,,,,3.2934239,117.588246,https://maps.google.com/?cid=0x0:0xfd42d97aac4d8aa,
supermarket,Pasar,Pasar Tenguyun Bom Panjang,"Pasar tenguyun, Pamusian, Kec. Tarakan Tengah, Kota Tarakan, Kalimantan Utara 77122","Pamusian, Kec. Tarakan Tengah, Kota Tarakan",KALIMANTAN UTARA,77122.0,Indonesia,,,,3.2996237,117.605947,https://maps.google.com/?cid=0x0:0xc278897bd504a419,
supermarket,Toserba,Toko Harapan Baru 2,"7HWP+QQH, Jl. Yos Sudarso, Selumit, Kec. Tarakan Tengah, Kota Tarakan, Kalimantan Utara","Kota Tarakan, Kalimantan Utara",KALIMANTAN UTARA,,Indonesia,81351897183.0,,,3.2969412,117.5869855,https://maps.google.com/?cid=0x0:0x20beaab05506c908,
supermarket,Toko bahan makanan,Nu Store,"8HGF+MM3, Bar., Karang Anyar, Kec. Tarakan Bar., Kota Tarakan, Kalimantan Utara","Kota Tarakan, Kalimantan Utara",KALIMANTAN UTARA,,Indonesia,,,,3.3266284,117.5741714,https://maps.google.com/?cid=0x0:0xddd8d630c496db6e,
supermarket,supermarket,Kec. Tarakan Tengah,"Kota Tarakan, Kalimantan Utara","Kota Tarakan, Kalimantan Utara",KALIMANTAN UTARA,,Indonesia,,,,3.308624,117.6011279,https://maps.google.com/?cid=0x0:0x52939c57e2b14b75,
supermarket,Toko bahan makanan,STB,"Jl. Kusuma Bangsa, Pamusian, Kec. Tarakan Tengah, Kota Tarakan, Kalimantan Utara","Kota Tarakan, Kalimantan Utara",KALIMANTAN UTARA,,Indonesia,82350882108.0,,,3.304932,117.608725,https://maps.google.com/?cid=0x0:0x2c67ba69c43b5659,
supermarket,Toko bahan makanan,S-Mart,"Jl. Mulawarman, Karang Anyar, Kec. Tarakan Bar., Kota Tarakan, Kalimantan Utara","Kota Tarakan, Kalimantan Utara",KALIMANTAN UTARA,,Indonesia,55124035.0,,,3.3148166,117.5798587,https://maps.google.com/?cid=0x0:0x16d38d85c7cff48c,
supermarket,Toko Swalayan,Xpress Mart,"Jl. Slamet Riady No.71, RT.10, Karang Anyar, Kec. Tarakan Bar., Kota Tarakan, Kalimantan Utara 77111","RT.10, Karang Anyar, Kec. Tarakan Bar., Kota Tarakan",KALIMANTAN UTARA,77111.0,Indonesia,82149822678.0,,,3.3143773,117.5887689,https://maps.google.com/?cid=0x0:0xdd5321822982b381,
supermarket,Pusat Perbelanjaan,Swalayan Senyum 5000 Kusuma Bangsa Tarakan,"Jl. Kusuma Bangsa, Pamusian, Kec. Tarakan Tengah, Kota Tarakan, Kalimantan Utara 77115","Pamusian, Kec. Tarakan Tengah, Kota Tarakan",KALIMANTAN UTARA,77115.0,Indonesia,,,,3.3054536,117.6096464,https://maps.google.com/?cid=0x0:0x2c077bd4b598eb08,
supermarket,Minimarket,HG Mart,"Jl. Yos Sudarso No.1, Karang Rejo, Kec. Tarakan Bar., Kota Tarakan, Kalimantan Utara","Kota Tarakan, Kalimantan Utara",KALIMANTAN UTARA,,Indonesia,,,,3.3027728,117.5850254,https://maps.google.com/?cid=0x0:0x2015f5b7c1ed923c,
supermarket,Toko bahan makanan,Public Mart Point,"Jl. P. Diponegoro No.8, Sebengkok, Kec. Tarakan Tengah, Kota Tarakan, Kalimantan Utara","Kota Tarakan, Kalimantan Utara",KALIMANTAN UTARA,,Indonesia,,,,3.2996867,117.593535,https://maps.google.com/?cid=0x0:0xd10fcef6c326e15,
supermarket,Toko Swalayan,STB Supermarket Mulawarman,"8H9G+PMQ, Jl. Mulawarman, Karang Anyar Pantai, Kec. Tarakan Bar., Kota Tarakan, Kalimantan Utara","Kota Tarakan, Kalimantan Utara",KALIMANTAN UTARA,,Indonesia,,,,3.3193321,117.5767281,https://maps.google.com/?cid=0x0:0x1411802f10274071,
supermarket,Pusat Perbelanjaan,Pusat Oleh Oleh UMKM Centre Kota Tarakan,"jl.pattimura Rt.17, Pamusian, Kec. Tarakan Tengah, Kota Tarakan, Kalimantan Utara","Kota Tarakan, Kalimantan Utara",KALIMANTAN UTARA,,Indonesia,,,,3.3055641,117.603359,https://maps.google.com/?cid=0x0:0xd1b93d6ec41c5c40,
supermarket,Toko Swalayan,TW Mart,"8H2Q+RM4, Jl. Agus Salim No.27, Selumit, Kec. Tarakan Tengah, Kota Tarakan, Kalimantan Utara","Kota Tarakan, Kalimantan Utara",KALIMANTAN UTARA,,Indonesia,8115981908.0,,,3.3021459,117.5895597,https://maps.google.com/?cid=0x0:0x57b82f49421d04b,
supermarket,Toko bahan makanan,D'frozz frozen food Tarakan,"Jl. P. Sumatera No.RT 15 No 10, Pamusian, Kec. Tarakan Tengah, Kota Tarakan, Kalimantan Utara","Kota Tarakan, Kalimantan Utara",KALIMANTAN UTARA,,Indonesia,81351888558.0,,,3.3079443,117.6026829,https://maps.google.com/?cid=0x0:0xeb95fb120d23a5d7,
supermarket,Pasar,Setia Budi Karang Rejo,"Yos Sudarso rt 01 no 03, Tarakan Barat, Karang Rejo, Kec. Tarakan Bar., Kota Tarakan, Kalimantan Utara 77112","Tarakan Barat, Karang Rejo, Kec. Tarakan Bar., Kota Tarakan",KALIMANTAN UTARA,77112.0,Indonesia,55121644.0,,,3.3082141,117.5836263,https://maps.google.com/?cid=0x0:0x8b882337264e938e,
supermarket,Toko Swalayan,Toko Atung,"Rt 44 no 85, Jl. Mulawarman, Karang Anyar, Kec. Tarakan Bar., Kota Tarakan, Kalimantan Utara","Kota Tarakan, Kalimantan Utara",KALIMANTAN UTARA,,Indonesia,,,,3.3154235,117.5787237,https://maps.google.com/?cid=0x0:0xbe33c90e48c627b1,
supermarket,Toko Swalayan,STB Mart Markoni,"RT 21 Markoni, Kalimantan Timur, Jl. Imam Bonjol, Pamusian, Kec. Tarakan Tengah, Kota Tarakan, Kalimantan Utara","Kota Tarakan, Kalimantan Utara",KALIMANTAN UTARA,,Indonesia,81299039555.0,,,3.3048312,117.6031583,https://maps.google.com/?cid=0x0:0xa054ad2c6f7992d7,
supermarket,Toko Swalayan,Setia Budi,"Gajahmada Blok B-9 B-10 Karang Rejo, Tarakan Barat, Karang Rejo, Kec. Tarakan Bar., Kota Tarakan, Kalimantan Utara","Kota Tarakan, Kalimantan Utara",KALIMANTAN UTARA,,Indonesia,55136135.0,,,3.3064148,117.5792999,https://maps.google.com/?cid=0x0:0x8d5cb52326d27aea,
supermarket,Grosir,Jaya Murni,"Selumit Pantai, Kec. Tarakan Tengah, Kota Tarakan, Kalimantan Utara","Kota Tarakan, Kalimantan Utara",KALIMANTAN UTARA,,Indonesia,81254305229.0,,,3.2965193,117.5864788,https://maps.google.com/?cid=0x0:0x7e41fd44d394d6e1,
supermarket,Toko Swalayan,jv mart,"Kp. Empat, Kec. Tarakan Tim., Kota Tarakan, Kalimantan Utara","Kota Tarakan, Kalimantan Utara",KALIMANTAN UTARA,,Indonesia,,,,3.3003968,117.6231411,https://maps.google.com/?cid=0x0:0xb3c4887bb4957e6,
supermarket,Toko Swalayan,Wamasepeda official,"7HWJ+5W3, Jl. Ps. Beringin II, Selumit Pantai, Kec. Tarakan Tengah, Kota Tarakan, Kalimantan Utara","Kota Tarakan, Kalimantan Utara",KALIMANTAN UTARA,,Indonesia,85245844477.0,,,3.2953796,117.5822945,https://maps.google.com/?cid=0x0:0x9324e54622065909,
supermarket,Toko Swalayan,Toko Tunas Indah,"8H5P+C8M, Gg. Melati, Karang Balik, Kec. Tarakan Bar., Kota Tarakan, Kalimantan Utara","Kota Tarakan, Kalimantan Utara",KALIMANTAN UTARA,,Indonesia,,,,3.3085763,117.5857928,https://maps.google.com/?cid=0x0:0x9a29fecfab6b838f,
supermarket,Grosir,Toko Berkat Mulia,"Jl. Yos Sudarso No.02, RT.13, Bar., Karang Rejo, Kec. Tarakan Bar., Kota Tarakan, Kalimantan Utara","Kota Tarakan, Kalimantan Utara",KALIMANTAN UTARA,,Indonesia,,,,3.3039986,117.5847123,https://maps.google.com/?cid=0x0:0xca8054fa3b865e3f,
supermarket,Toko,Toko Dian,"8H6M+XXM, Karang Anyar, Kec. Tarakan Bar., Kota Tarakan, Kalimantan Utara","Kota Tarakan, Kalimantan Utara",KALIMANTAN UTARA,,Indonesia,,,,3.3124521,117.5849124,https://maps.google.com/?cid=0x0:0x4592e7a4e669d195,
supermarket,Pasar,Setia Budi Persemaian,"Jl. Aki Balak No.RT.03, Juata Kerikil, Kec. Tarakan Utara, Kota Tarakan, Kalimantan Utara 77116","Juata Kerikil, Kec. Tarakan Utara, Kota Tarakan",KALIMANTAN UTARA,77116.0,Indonesia,8115424784.0,,,3.3539026,117.5719778,https://maps.google.com/?cid=0x0:0x6a19834c04186199,
supermarket,Toko umum,Toko Salim Sutanto,"8J34+F4J, Pamusian, Kec. Tarakan Tengah, Kota Tarakan, Kalimantan Utara","Kota Tarakan, Kalimantan Utara",KALIMANTAN UTARA,,Indonesia,55123123.0,,,3.3037108,117.6052734,https://maps.google.com/?cid=0x0:0xd03fffd65f7c268,
supermarket,supermarket,Kec. Tarakan Tengah,"Kota Tarakan, Kalimantan Utara","Kota Tarakan, Kalimantan Utara",KALIMANTAN UTARA,,Indonesia,,,,3.308624,117.6011279,https://maps.google.com/?cid=0x0:0x52939c57e2b14b75,
supermarket,Toko bahan makanan,STB,"Jl. Kusuma Bangsa, Pamusian, Kec. Tarakan Tengah, Kota Tarakan, Kalimantan Utara","Kota Tarakan, Kalimantan Utara",KALIMANTAN UTARA,,Indonesia,82350882108.0,,,3.304932,117.608725,https://maps.google.com/?cid=0x0:0x2c67ba69c43b5659,
supermarket,Toko bahan makanan,S-Mart,"Jl. Mulawarman, Karang Anyar, Kec. Tarakan Bar., Kota Tarakan, Kalimantan Utara","Kota Tarakan, Kalimantan Utara",KALIMANTAN UTARA,,Indonesia,55124035.0,,,3.3148166,117.5798587,https://maps.google.com/?cid=0x0:0x16d38d85c7cff48c,
supermarket,Minimarket,HG Mart,"Jl. Yos Sudarso No.1, Karang Rejo, Kec. Tarakan Bar., Kota Tarakan, Kalimantan Utara","Kota Tarakan, Kalimantan Utara",KALIMANTAN UTARA,,Indonesia,,,,3.3027728,117.5850254,https://maps.google.com/?cid=0x0:0x2015f5b7c1ed923c,
supermarket,Toko Swalayan,STB Supermarket Mulawarman,"8H9G+PMQ, Jl. Mulawarman, Karang Anyar Pantai, Kec. Tarakan Bar., Kota Tarakan, Kalimantan Utara","Kota Tarakan, Kalimantan Utara",KALIMANTAN UTARA,,Indonesia,,,,3.3193321,117.5767281,https://maps.google.com/?cid=0x0:0x1411802f10274071,
supermarket,Pusat Perbelanjaan,Swalayan Senyum 5000,"8H8H+4Q9, Karang Anyar, Kec. Tarakan Bar., Kota Tarakan, Kalimantan Utara","Kota Tarakan, Kalimantan Utara",KALIMANTAN UTARA,,Indonesia,82198182249.0,,,3.3152987,117.5794771,https://maps.google.com/?cid=0x0:0xb0a5795d751ca361,
supermarket,Pasar,Setia Budi Karang Rejo,"Yos Sudarso rt 01 no 03, Tarakan Barat, Karang Rejo, Kec. Tarakan Bar., Kota Tarakan, Kalimantan Utara 77112","Tarakan Barat, Karang Rejo, Kec. Tarakan Bar., Kota Tarakan",KALIMANTAN UTARA,77112.0,Indonesia,55121644.0,,,3.3082141,117.5836263,https://maps.google.com/?cid=0x0:0x8b882337264e938e,
supermarket,Toko Swalayan,TW Mart,"8H2Q+RM4, Jl. Agus Salim No.27, Selumit, Kec. Tarakan Tengah, Kota Tarakan, Kalimantan Utara","Kota Tarakan, Kalimantan Utara",KALIMANTAN UTARA,,Indonesia,8115981908.0,,,3.3021459,117.5895597,https://maps.google.com/?cid=0x0:0x57b82f49421d04b,
supermarket,Toko Swalayan,STB Mart Markoni,"RT 21 Markoni, Kalimantan Timur, Jl. Imam Bonjol, Pamusian, Kec. Tarakan Tengah, Kota Tarakan, Kalimantan Utara","Kota Tarakan, Kalimantan Utara",KALIMANTAN UTARA,,Indonesia,81299039555.0,,,3.3048312,117.6031583,https://maps.google.com/?cid=0x0:0xa054ad2c6f7992d7,
supermarket,Toko bahan makanan,Public Mart Point,"Jl. P. Diponegoro No.8, Sebengkok, Kec. Tarakan Tengah, Kota Tarakan, Kalimantan Utara","Kota Tarakan, Kalimantan Utara",KALIMANTAN UTARA,,Indonesia,,,,3.2996867,117.593535,https://maps.google.com/?cid=0x0:0xd10fcef6c326e15,
supermarket,Pusat Perbelanjaan,Pusat Oleh Oleh UMKM Centre Kota Tarakan,"jl.pattimura Rt.17, Pamusian, Kec. Tarakan Tengah, Kota Tarakan, Kalimantan Utara","Kota Tarakan, Kalimantan Utara",KALIMANTAN UTARA,,Indonesia,,,,3.3055641,117.603359,https://maps.google.com/?cid=0x0:0xd1b93d6ec41c5c40,
supermarket,Toko Swalayan,Toko Atung,"Rt 44 no 85, Jl. Mulawarman, Karang Anyar, Kec. Tarakan Bar., Kota Tarakan, Kalimantan Utara","Kota Tarakan, Kalimantan Utara",KALIMANTAN UTARA,,Indonesia,,,,3.3154235,117.5787237,https://maps.google.com/?cid=0x0:0xbe33c90e48c627b1,
supermarket,Toko bahan makanan,D'frozz frozen food Tarakan,"Jl. P. Sumatera No.RT 15 No 10, Pamusian, Kec. Tarakan Tengah, Kota Tarakan, Kalimantan Utara","Kota Tarakan, Kalimantan Utara",KALIMANTAN UTARA,,Indonesia,81351888558.0,,,3.3079443,117.6026829,https://maps.google.com/?cid=0x0:0xeb95fb120d23a5d7,
supermarket,Pusat Perbelanjaan,Swalayan Senyum 5000 Kusuma Bangsa Tarakan,"Jl. Kusuma Bangsa, Pamusian, Kec. Tarakan Tengah, Kota Tarakan, Kalimantan Utara 77115","Pamusian, Kec. Tarakan Tengah, Kota Tarakan",KALIMANTAN UTARA,77115.0,Indonesia,,,,3.3054536,117.6096464,https://maps.google.com/?cid=0x0:0x2c077bd4b598eb08,
supermarket,Toko Swalayan,Setia Budi,"Gajahmada Blok B-9 B-10 Karang Rejo, Tarakan Barat, Karang Rejo, Kec. Tarakan Bar., Kota Tarakan, Kalimantan Utara","Kota Tarakan, Kalimantan Utara",KALIMANTAN UTARA,,Indonesia,55136135.0,,,3.3064148,117.5792999,https://maps.google.com/?cid=0x0:0x8d5cb52326d27aea,
supermarket,Toko Swalayan,jv mart,"Kp. Empat, Kec. Tarakan Tim., Kota Tarakan, Kalimantan Utara","Kota Tarakan, Kalimantan Utara",KALIMANTAN UTARA,,Indonesia,,,,3.3003968,117.6231411,https://maps.google.com/?cid=0x0:0xb3c4887bb4957e6,
supermarket,Toko,Toko Dian,"8H6M+XXM, Karang Anyar, Kec. Tarakan Bar., Kota Tarakan, Kalimantan Utara","Kota Tarakan, Kalimantan Utara",KALIMANTAN UTARA,,Indonesia,,,,3.3124521,117.5849124,https://maps.google.com/?cid=0x0:0x4592e7a4e669d195,
supermarket,Grosir,Toko Berkat Mulia,"Jl. Yos Sudarso No.02, RT.13, Bar., Karang Rejo, Kec. Tarakan Bar., Kota Tarakan, Kalimantan Utara","Kota Tarakan, Kalimantan Utara",KALIMANTAN UTARA,,Indonesia,,,,3.3039986,117.5847123,https://maps.google.com/?cid=0x0:0xca8054fa3b865e3f,
supermarket,Grosir,Jaya Murni,"Selumit Pantai, Kec. Tarakan Tengah, Kota Tarakan, Kalimantan Utara","Kota Tarakan, Kalimantan Utara",KALIMANTAN UTARA,,Indonesia,81254305229.0,,,3.2965193,117.5864788,https://maps.google.com/?cid=0x0:0x7e41fd44d394d6e1,
supermarket,Toko Swalayan,Wamasepeda official,"7HWJ+5W3, Jl. Ps. Beringin II, Selumit Pantai, Kec. Tarakan Tengah, Kota Tarakan, Kalimantan Utara","Kota Tarakan, Kalimantan Utara",KALIMANTAN UTARA,,Indonesia,85245844477.0,,,3.2953796,117.5822945,https://maps.google.com/?cid=0x0:0x9324e54622065909,
supermarket,Toko Swalayan,Toko Tunas Indah,"8H5P+C8M, Gg. Melati, Karang Balik, Kec. Tarakan Bar., Kota Tarakan, Kalimantan Utara","Kota Tarakan, Kalimantan Utara",KALIMANTAN UTARA,,Indonesia,,,,3.3085763,117.5857928,https://maps.google.com/?cid=0x0:0x9a29fecfab6b838f,
supermarket,Minimarket,HG Mart,"Jl. P. Diponegoro Jl. Sebengkok Tiram No.2, Sebengkok, Kec. Tarakan Tengah, Kota Tarakan, Kalimantan Utara","Kota Tarakan, Kalimantan Utara",KALIMANTAN UTARA,,Indonesia,,,,3.2949304,117.5896995,https://maps.google.com/?cid=0x0:0x7bae8c7ded8bb6eb,
supermarket,supermarket,Kec. Tarakan Tim.,"Kota Tarakan, Kalimantan Utara","Kota Tarakan, Kalimantan Utara",KALIMANTAN UTARA,,Indonesia,,,,3.3018342,117.62185,https://maps.google.com/?cid=0x0:0x57d2af2857b49049,
supermarket,Toko bahan makanan,STB,"Jl. Kusuma Bangsa, Pamusian, Kec. Tarakan Tengah, Kota Tarakan, Kalimantan Utara","Kota Tarakan, Kalimantan Utara",KALIMANTAN UTARA,,Indonesia,82350882108.0,,,3.304932,117.608725,https://maps.google.com/?cid=0x0:0x2c67ba69c43b5659,
supermarket,Toko Swalayan,jv mart,"Kp. Empat, Kec. Tarakan Tim., Kota Tarakan, Kalimantan Utara","Kota Tarakan, Kalimantan Utara",KALIMANTAN UTARA,,Indonesia,,,,3.3003968,117.6231411,https://maps.google.com/?cid=0x0:0xb3c4887bb4957e6,
supermarket,Pusat Perbelanjaan,Swalayan Senyum 5000 Kusuma Bangsa Tarakan,"Jl. Kusuma Bangsa, Pamusian, Kec. Tarakan Tengah, Kota Tarakan, Kalimantan Utara 77115","Pamusian, Kec. Tarakan Tengah, Kota Tarakan",KALIMANTAN UTARA,77115.0,Indonesia,,,,3.3054536,117.6096464,https://maps.google.com/?cid=0x0:0x2c077bd4b598eb08,
supermarket,Minimarket,HG Mart,"Jl. Yos Sudarso No.1, Karang Rejo, Kec. Tarakan Bar., Kota Tarakan, Kalimantan Utara","Kota Tarakan, Kalimantan Utara",KALIMANTAN UTARA,,Indonesia,,,,3.3027728,117.5850254,https://maps.google.com/?cid=0x0:0x2015f5b7c1ed923c,
supermarket,Toko Swalayan,TW Mart,"8H2Q+RM4, Jl. Agus Salim No.27, Selumit, Kec. Tarakan Tengah, Kota Tarakan, Kalimantan Utara","Kota Tarakan, Kalimantan Utara",KALIMANTAN UTARA,,Indonesia,8115981908.0,,,3.3021459,117.5895597,https://maps.google.com/?cid=0x0:0x57b82f49421d04b,
supermarket,Toko bahan makanan,S-Mart,"Jl. Mulawarman, Karang Anyar, Kec. Tarakan Bar., Kota Tarakan, Kalimantan Utara","Kota Tarakan, Kalimantan Utara",KALIMANTAN UTARA,,Indonesia,55124035.0,,,3.3148166,117.5798587,https://maps.google.com/?cid=0x0:0x16d38d85c7cff48c,
supermarket,Pusat Perbelanjaan,Swalayan Senyum 5000,"8H8H+4Q9, Karang Anyar, Kec. Tarakan Bar., Kota Tarakan, Kalimantan Utara","Kota Tarakan, Kalimantan Utara",KALIMANTAN UTARA,,Indonesia,82198182249.0,,,3.3152987,117.5794771,https://maps.google.com/?cid=0x0:0xb0a5795d751ca361,
supermarket,Toko bahan makanan,Public Mart Point,"Jl. P. Diponegoro No.8, Sebengkok, Kec. Tarakan Tengah, Kota Tarakan, Kalimantan Utara","Kota Tarakan, Kalimantan Utara",KALIMANTAN UTARA,,Indonesia,,,,3.2996867,117.593535,https://maps.google.com/?cid=0x0:0xd10fcef6c326e15,
supermarket,Toko Swalayan,STB Supermarket Mulawarman,"8H9G+PMQ, Jl. Mulawarman, Karang Anyar Pantai, Kec. Tarakan Bar., Kota Tarakan, Kalimantan Utara","Kota Tarakan, Kalimantan Utara",KALIMANTAN UTARA,,Indonesia,,,,3.3193321,117.5767281,https://maps.google.com/?cid=0x0:0x1411802f10274071,
supermarket,Toko bahan makanan,D'frozz frozen food Tarakan,"Jl. P. Sumatera No.RT 15 No 10, Pamusian, Kec. Tarakan Tengah, Kota Tarakan, Kalimantan Utara","Kota Tarakan, Kalimantan Utara",KALIMANTAN UTARA,,Indonesia,81351888558.0,,,3.3079443,117.6026829,https://maps.google.com/?cid=0x0:0xeb95fb120d23a5d7,
supermarket,Minimarket,Sayyid 5177,"Tim., Tim, Mamburungan Tim., Kec. Tarakan Tim., Kota Tarakan, Kalimantan Utara","Kota Tarakan, Kalimantan Utara",KALIMANTAN UTARA,,Indonesia,82218552229.0,,,3.2704901,117.6302865,https://maps.google.com/?cid=0x0:0x1bee32a198e7be7c,
supermarket,Toko Swalayan,Warung Tyo,"7HXW+3MW, Jl. Sebengkok Waru, Sebengkok, Kec. Tarakan Tengah, Kota Tarakan, Kalimantan Utara","Kota Tarakan, Kalimantan Utara",KALIMANTAN UTARA,,Indonesia,,,,3.2977268,117.5967091,https://maps.google.com/?cid=0x0:0x11a52b51d6efd2d1,
supermarket,Toko Perlengkapan Rumah,Kios RIZKY,"Gn. Lingkas, Kec. Tarakan Tim., Kota Tarakan, Kalimantan Utara","Kota Tarakan, Kalimantan Utara",KALIMANTAN UTARA,,Indonesia,,,,3.2930965,117.5964097,https://maps.google.com/?cid=0x0:0x7e8792de4b0d03ab,
supermarket,Pasar,Setia Budi Karang Rejo,"Yos Sudarso rt 01 no 03, Tarakan Barat, Karang Rejo, Kec. Tarakan Bar., Kota Tarakan, Kalimantan Utara 77112","Tarakan Barat, Karang Rejo, Kec. Tarakan Bar., Kota Tarakan",KALIMANTAN UTARA,77112.0,Indonesia,55121644.0,,,3.3082141,117.5836263,https://maps.google.com/?cid=0x0:0x8b882337264e938e,
supermarket,Pasar,Pasar Tenguyun Bom Panjang,"Pasar tenguyun, Pamusian, Kec. Tarakan Tengah, Kota Tarakan, Kalimantan Utara 77122","Pamusian, Kec. Tarakan Tengah, Kota Tarakan",KALIMANTAN UTARA,77122.0,Indonesia,,,,3.2996237,117.605947,https://maps.google.com/?cid=0x0:0xc278897bd504a419,
supermarket,Toko bahan makanan,HATIB MART,"Jl. Tj. Pasir, Mamburungan Tim., Kec. Tarakan Tim., Kota Tarakan, Kalimantan Utara","Kota Tarakan, Kalimantan Utara",KALIMANTAN UTARA,,Indonesia,85394442910.0,,,3.2671003,117.6344441,https://maps.google.com/?cid=0x0:0x84e6176424ceb950,
supermarket,Pusat Perbelanjaan,Pusat Oleh Oleh UMKM Centre Kota Tarakan,"jl.pattimura Rt.17, Pamusian, Kec. Tarakan Tengah, Kota Tarakan, Kalimantan Utara","Kota Tarakan, Kalimantan Utara",KALIMANTAN UTARA,,Indonesia,,,,3.3055641,117.603359,https://maps.google.com/?cid=0x0:0xd1b93d6ec41c5c40,
supermarket,Toko umum,Toko Salim Sutanto,"8J34+F4J, Pamusian, Kec. Tarakan Tengah, Kota Tarakan, Kalimantan Utara","Kota Tarakan, Kalimantan Utara",KALIMANTAN UTARA,,Indonesia,55123123.0,,,3.3037108,117.6052734,https://maps.google.com/?cid=0x0:0xd03fffd65f7c268,
supermarket,Toko Swalayan,Setia Budi,"Gajahmada Blok B-9 B-10 Karang Rejo, Tarakan Barat, Karang Rejo, Kec. Tarakan Bar., Kota Tarakan, Kalimantan Utara","Kota Tarakan, Kalimantan Utara",KALIMANTAN UTARA,,Indonesia,55136135.0,,,3.3064148,117.5792999,https://maps.google.com/?cid=0x0:0x8d5cb52326d27aea,
supermarket,Grosir,Jaya Murni,"Selumit Pantai, Kec. Tarakan Tengah, Kota Tarakan, Kalimantan Utara","Kota Tarakan, Kalimantan Utara",KALIMANTAN UTARA,,Indonesia,81254305229.0,,,3.2965193,117.5864788,https://maps.google.com/?cid=0x0:0x7e41fd44d394d6e1,
supermarket,Toko Ponsel,Minimarket Sinarmas,"Jalan Kampung Empat No.53, Kp. Empat, Kec. Tarakan Tim., Kota Tarakan, Kalimantan Utara","Kota Tarakan, Kalimantan Utara",KALIMANTAN UTARA,,Indonesia,55122230.0,,,3.3026606,117.6228057,https://maps.google.com/?cid=0x0:0x7f4dc7d4cc43f109,
supermarket,Grosir,Ud Jaya Raya,"Jl. Sei Sesayap, Kp. Empat, Kec. Tarakan Tim., Kota Tarakan, Kalimantan Utara","Kota Tarakan, Kalimantan Utara",KALIMANTAN UTARA,,Indonesia,,,,3.3038604,117.6241763,https://maps.google.com/?cid=0x0:0x1ab3b41d150c6cf,
supermarket,supermarket,Kec. Tarakan Tim.,"Kota Tarakan, Kalimantan Utara","Kota Tarakan, Kalimantan Utara",KALIMANTAN UTARA,,Indonesia,,,,3.3018342,117.62185,https://maps.google.com/?cid=0x0:0x57d2af2857b49049,
supermarket,Toko bahan makanan,STB,"Jl. Kusuma Bangsa, Pamusian, Kec. Tarakan Tengah, Kota Tarakan, Kalimantan Utara","Kota Tarakan, Kalimantan Utara",KALIMANTAN UTARA,,Indonesia,82350882108.0,,,3.304932,117.608725,https://maps.google.com/?cid=0x0:0x2c67ba69c43b5659,
supermarket,Pusat Perbelanjaan,Swalayan Senyum 5000 Kusuma Bangsa Tarakan,"Jl. Kusuma Bangsa, Pamusian, Kec. Tarakan Tengah, Kota Tarakan, Kalimantan Utara 77115","Pamusian, Kec. Tarakan Tengah, Kota Tarakan",KALIMANTAN UTARA,77115.0,Indonesia,,,,3.3054536,117.6096464,https://maps.google.com/?cid=0x0:0x2c077bd4b598eb08,
supermarket,Toko Swalayan,jv mart,"Kp. Empat, Kec. Tarakan Tim., Kota Tarakan, Kalimantan Utara","Kota Tarakan, Kalimantan Utara",KALIMANTAN UTARA,,Indonesia,,,,3.3003968,117.6231411,https://maps.google.com/?cid=0x0:0xb3c4887bb4957e6,
supermarket,Toko Swalayan,STB Mart Markoni,"RT 21 Markoni, Kalimantan Timur, Jl. Imam Bonjol, Pamusian, Kec. Tarakan Tengah, Kota Tarakan, Kalimantan Utara","Kota Tarakan, Kalimantan Utara",KALIMANTAN UTARA,,Indonesia,81299039555.0,,,3.3048312,117.6031583,https://maps.google.com/?cid=0x0:0xa054ad2c6f7992d7,
supermarket,Toko bahan makanan,Public Mart Point,"Jl. P. Diponegoro No.8, Sebengkok, Kec. Tarakan Tengah, Kota Tarakan, Kalimantan Utara","Kota Tarakan, Kalimantan Utara",KALIMANTAN UTARA,,Indonesia,,,,3.2996867,117.593535,https://maps.google.com/?cid=0x0:0xd10fcef6c326e15,
supermarket,Toko Swalayan,TW Mart,"8H2Q+RM4, Jl. Agus Salim No.27, Selumit, Kec. Tarakan Tengah, Kota Tarakan, Kalimantan Utara","Kota Tarakan, Kalimantan Utara",KALIMANTAN UTARA,,Indonesia,8115981908.0,,,3.3021459,117.5895597,https://maps.google.com/?cid=0x0:0x57b82f49421d04b,
supermarket,Minimarket,HG Mart,"Jl. Yos Sudarso No.1, Karang Rejo, Kec. Tarakan Bar., Kota Tarakan, Kalimantan Utara","Kota Tarakan, Kalimantan Utara",KALIMANTAN UTARA,,Indonesia,,,,3.3027728,117.5850254,https://maps.google.com/?cid=0x0:0x2015f5b7c1ed923c,
supermarket,Toko bahan makanan,S-Mart,"Jl. Mulawarman, Karang Anyar, Kec. Tarakan Bar., Kota Tarakan, Kalimantan Utara","Kota Tarakan, Kalimantan Utara",KALIMANTAN UTARA,,Indonesia,55124035.0,,,3.3148166,117.5798587,https://maps.google.com/?cid=0x0:0x16d38d85c7cff48c,
supermarket,Minimarket,Sayyid 5177,"Tim., Tim, Mamburungan Tim., Kec. Tarakan Tim., Kota Tarakan, Kalimantan Utara","Kota Tarakan, Kalimantan Utara",KALIMANTAN UTARA,,Indonesia,82218552229.0,,,3.2704901,117.6302865,https://maps.google.com/?cid=0x0:0x1bee32a198e7be7c,
supermarket,Toko Ponsel,Minimarket Sinarmas,"Jalan Kampung Empat No.53, Kp. Empat, Kec. Tarakan Tim., Kota Tarakan, Kalimantan Utara","Kota Tarakan, Kalimantan Utara",KALIMANTAN UTARA,,Indonesia,55122230.0,,,3.3026606,117.6228057,https://maps.google.com/?cid=0x0:0x7f4dc7d4cc43f109,
supermarket,Grosir,Jaya Murni,"Selumit Pantai, Kec. Tarakan Tengah, Kota Tarakan, Kalimantan Utara","Kota Tarakan, Kalimantan Utara",KALIMANTAN UTARA,,Indonesia,81254305229.0,,,3.2965193,117.5864788,https://maps.google.com/?cid=0x0:0x7e41fd44d394d6e1,
supermarket,Toko bahan makanan,D'frozz frozen food Tarakan,"Jl. P. Sumatera No.RT 15 No 10, Pamusian, Kec. Tarakan Tengah, Kota Tarakan, Kalimantan Utara","Kota Tarakan, Kalimantan Utara",KALIMANTAN UTARA,,Indonesia,81351888558.0,,,3.3079443,117.6026829,https://maps.google.com/?cid=0x0:0xeb95fb120d23a5d7,
supermarket,Pusat Perbelanjaan,Pusat Oleh Oleh UMKM Centre Kota Tarakan,"jl.pattimura Rt.17, Pamusian, Kec. Tarakan Tengah, Kota Tarakan, Kalimantan Utara","Kota Tarakan, Kalimantan Utara",KALIMANTAN UTARA,,Indonesia,,,,3.3055641,117.603359,https://maps.google.com/?cid=0x0:0xd1b93d6ec41c5c40,
supermarket,Toko Perlengkapan Rumah,Kios RIZKY,"Gn. Lingkas, Kec. Tarakan Tim., Kota Tarakan, Kalimantan Utara","Kota Tarakan, Kalimantan Utara",KALIMANTAN UTARA,,Indonesia,,,,3.2930965,117.5964097,https://maps.google.com/?cid=0x0:0x7e8792de4b0d03ab,
supermarket,Toko Swalayan,Xpress Mart,"Jl. Slamet Riady No.71, RT.10, Karang Anyar, Kec. Tarakan Bar., Kota Tarakan, Kalimantan Utara 77111","RT.10, Karang Anyar, Kec. Tarakan Bar., Kota Tarakan",KALIMANTAN UTARA,77111.0,Indonesia,82149822678.0,,,3.3143773,117.5887689,https://maps.google.com/?cid=0x0:0xdd5321822982b381,
supermarket,Toko Swalayan,Wamasepeda official,"7HWJ+5W3, Jl. Ps. Beringin II, Selumit Pantai, Kec. Tarakan Tengah, Kota Tarakan, Kalimantan Utara","Kota Tarakan, Kalimantan Utara",KALIMANTAN UTARA,,Indonesia,85245844477.0,,,3.2953796,117.5822945,https://maps.google.com/?cid=0x0:0x9324e54622065909,
supermarket,Pasar,Pasar Tenguyun Bom Panjang,"Pasar tenguyun, Pamusian, Kec. Tarakan Tengah, Kota Tarakan, Kalimantan Utara 77122","Pamusian, Kec. Tarakan Tengah, Kota Tarakan",KALIMANTAN UTARA,77122.0,Indonesia,,,,3.2996237,117.605947,https://maps.google.com/?cid=0x0:0xc278897bd504a419,
supermarket,Toko Swalayan,STB Supermarket Mulawarman,"8H9G+PMQ, Jl. Mulawarman, Karang Anyar Pantai, Kec. Tarakan Bar., Kota Tarakan, Kalimantan Utara","Kota Tarakan, Kalimantan Utara",KALIMANTAN UTARA,,Indonesia,,,,3.3193321,117.5767281,https://maps.google.com/?cid=0x0:0x1411802f10274071,
supermarket,Toko umum,Toko Salim Sutanto,"8J34+F4J, Pamusian, Kec. Tarakan Tengah, Kota Tarakan, Kalimantan Utara","Kota Tarakan, Kalimantan Utara",KALIMANTAN UTARA,,Indonesia,55123123.0,,,3.3037108,117.6052734,https://maps.google.com/?cid=0x0:0xd03fffd65f7c268,
supermarket,Toko Swalayan,TOKO SABINDO JAYA,"7HWP+992, Selumit Pantai, Kec. Tarakan Tengah, Kota Tarakan, Kalimantan Utara","Kota Tarakan, Kalimantan Utara",KALIMANTAN UTARA,,Indonesia,8125347640.0,,,3.2958904,117.5858902,https://maps.google.com/?cid=0x0:0xbbeebd147b40777,
supermarket,Toko Swalayan,Toko kencono mulyo,"7HWP+Q95, Selumit Pantai, Kec. Tarakan Tengah, Kota Tarakan, Kalimantan Utara","Kota Tarakan, Kalimantan Utara",KALIMANTAN UTARA,,Indonesia,85246171698.0,,,3.2968768,117.5859923,https://maps.google.com/?cid=0x0:0x21bf7279898995dd,
supermarket,Toko Swalayan,Toko Atung,"Rt 44 no 85, Jl. Mulawarman, Karang Anyar, Kec. Tarakan Bar., Kota Tarakan, Kalimantan Utara","Kota Tarakan, Kalimantan Utara",KALIMANTAN UTARA,,Indonesia,,,,3.3154235,117.5787237,https://maps.google.com/?cid=0x0:0xbe33c90e48c627b1,
supermarket,Grosir,Ud Jaya Raya,"Jl. Sei Sesayap, Kp. Empat, Kec. Tarakan Tim., Kota Tarakan, Kalimantan Utara","Kota Tarakan, Kalimantan Utara",KALIMANTAN UTARA,,Indonesia,,,,3.3038604,117.6241763,https://maps.google.com/?cid=0x0:0x1ab3b41d150c6cf,
supermarket,Pasar,Setia Budi Karang Rejo,"Yos Sudarso rt 01 no 03, Tarakan Barat, Karang Rejo, Kec. Tarakan Bar., Kota Tarakan, Kalimantan Utara 77112","Tarakan Barat, Karang Rejo, Kec. Tarakan Bar., Kota Tarakan",KALIMANTAN UTARA,77112.0,Indonesia,55121644.0,,,3.3082141,117.5836263,https://maps.google.com/?cid=0x0:0x8b882337264e938e,
supermarket,Toko bahan makanan,Toko Sri Baru Tarakan,"8HCR+49G, tarakan, Bugis, Samarinda Kota, Kota Samarinda, Kalimantan Timur","Kota Samarinda, Kalimantan Timur",KALIMANTAN UTARA,,Indonesia,85332256794.0,,,3.3203093,117.5909669,https://maps.google.com/?cid=0x0:0xbae2eda2e826cb2d,
supermarket,Grosir,Harapan. UD,"8J2M+94G, Kp. Empat, Kec. Tarakan Tim., Kota Tarakan, Kalimantan Utara","Kota Tarakan, Kalimantan Utara",KALIMANTAN UTARA,,Indonesia,55124401.0,,,3.3009378,117.6328323,https://maps.google.com/?cid=0x0:0x445128612bf90de9,
supermarket,supermarket,Kalimantan Utara 77124,"Kp. Enam, Kec. Tarakan Tim., Kota Tarakan, Kalimantan Utara","Kota Tarakan, Kalimantan Utara",KALIMANTAN UTARA,,Indonesia,,,,3.3058117,117.6186481,https://maps.google.com/?cid=0x0:0xa3ef30a527393643,
supermarket,Toko bahan makanan,STB,"Jl. Kusuma Bangsa, Pamusian, Kec. Tarakan Tengah, Kota Tarakan, Kalimantan Utara","Kota Tarakan, Kalimantan Utara",KALIMANTAN UTARA,,Indonesia,82350882108.0,,,3.304932,117.608725,https://maps.google.com/?cid=0x0:0x2c67ba69c43b5659,
supermarket,Toko bahan makanan,S-Mart,"Jl. Mulawarman, Karang Anyar, Kec. Tarakan Bar., Kota Tarakan, Kalimantan Utara","Kota Tarakan, Kalimantan Utara",KALIMANTAN UTARA,,Indonesia,55124035.0,,,3.3148166,117.5798587,https://maps.google.com/?cid=0x0:0x16d38d85c7cff48c,
supermarket,Minimarket,HG Mart,"Jl. Yos Sudarso No.1, Karang Rejo, Kec. Tarakan Bar., Kota Tarakan, Kalimantan Utara","Kota Tarakan, Kalimantan Utara",KALIMANTAN UTARA,,Indonesia,,,,3.3027728,117.5850254,https://maps.google.com/?cid=0x0:0x2015f5b7c1ed923c,
supermarket,Toko Swalayan,STB Supermarket Mulawarman,"8H9G+PMQ, Jl. Mulawarman, Karang Anyar Pantai, Kec. Tarakan Bar., Kota Tarakan, Kalimantan Utara","Kota Tarakan, Kalimantan Utara",KALIMANTAN UTARA,,Indonesia,,,,3.3193321,117.5767281,https://maps.google.com/?cid=0x0:0x1411802f10274071,
supermarket,Pasar,Setia Budi Karang Rejo,"Yos Sudarso rt 01 no 03, Tarakan Barat, Karang Rejo, Kec. Tarakan Bar., Kota Tarakan, Kalimantan Utara 77112","Tarakan Barat, Karang Rejo, Kec. Tarakan Bar., Kota Tarakan",KALIMANTAN UTARA,77112.0,Indonesia,55121644.0,,,3.3082141,117.5836263,https://maps.google.com/?cid=0x0:0x8b882337264e938e,
supermarket,Toko bahan makanan,D'frozz frozen food Tarakan,"Jl. P. Sumatera No.RT 15 No 10, Pamusian, Kec. Tarakan Tengah, Kota Tarakan, Kalimantan Utara","Kota Tarakan, Kalimantan Utara",KALIMANTAN UTARA,,Indonesia,81351888558.0,,,3.3079443,117.6026829,https://maps.google.com/?cid=0x0:0xeb95fb120d23a5d7,
supermarket,Toko Swalayan,Setia Budi,"Gajahmada Blok B-9 B-10 Karang Rejo, Tarakan Barat, Karang Rejo, Kec. Tarakan Bar., Kota Tarakan, Kalimantan Utara","Kota Tarakan, Kalimantan Utara",KALIMANTAN UTARA,,Indonesia,55136135.0,,,3.3064148,117.5792999,https://maps.google.com/?cid=0x0:0x8d5cb52326d27aea,
supermarket,Pasar,Pasar Tenguyun Bom Panjang,"Pasar tenguyun, Pamusian, Kec. Tarakan Tengah, Kota Tarakan, Kalimantan Utara 77122","Pamusian, Kec. Tarakan Tengah, Kota Tarakan",KALIMANTAN UTARA,77122.0,Indonesia,,,,3.2996237,117.605947,https://maps.google.com/?cid=0x0:0xc278897bd504a419,
supermarket,Toko Peralatan dan Bahan Kue,KA MART | tokokemasan  toko Bahan kue,"Karang Anyar, Kec. Tarakan Bar., Kota Tarakan, Kalimantan Utara","Kota Tarakan, Kalimantan Utara",KALIMANTAN UTARA,,Indonesia,8115319988.0,,,3.3107566,117.5882949,https://maps.google.com/?cid=0x0:0x1248699f48f3726,
supermarket,Pasar,Setia Budi Persemaian,"Jl. Aki Balak No.RT.03, Juata Kerikil, Kec. Tarakan Utara, Kota Tarakan, Kalimantan Utara 77116","Juata Kerikil, Kec. Tarakan Utara, Kota Tarakan",KALIMANTAN UTARA,77116.0,Indonesia,8115424784.0,,,3.3539026,117.5719778,https://maps.google.com/?cid=0x0:0x6a19834c04186199,
supermarket,Toko Swalayan,Toko DnD,"9GHX+5VX, Juata Permai, Kec. Tarakan Utara, Kota Tarakan, Kalimantan Utara","Kota Tarakan, Kalimantan Utara",KALIMANTAN UTARA,,Indonesia,82251112219.0,,,3.377985,117.5497497,https://maps.google.com/?cid=0x0:0x427812bcabf1693a,
supermarket,Pusat Perbelanjaan,NU Store,"8H6R+74J, Karang Balik, Kec. Tarakan Bar., Kota Tarakan, Kalimantan Utara","Kota Tarakan, Kalimantan Utara",KALIMANTAN UTARA,,Indonesia,,,,3.3107136,117.5902664,https://maps.google.com/?cid=0x0:0x80bd42b180541cf1,
supermarket,Pusat Perbelanjaan,Swalayan Senyum 5000,"8H8H+4Q9, Karang Anyar, Kec. Tarakan Bar., Kota Tarakan, Kalimantan Utara","Kota Tarakan, Kalimantan Utara",KALIMANTAN UTARA,,Indonesia,82198182249.0,,,3.3152987,117.5794771,https://maps.google.com/?cid=0x0:0xb0a5795d751ca361,
supermarket,Toko Swalayan,Xpress Mart,"Jl. Slamet Riady No.71, RT.10, Karang Anyar, Kec. Tarakan Bar., Kota Tarakan, Kalimantan Utara 77111","RT.10, Karang Anyar, Kec. Tarakan Bar., Kota Tarakan",KALIMANTAN UTARA,77111.0,Indonesia,82149822678.0,,,3.3143773,117.5887689,https://maps.google.com/?cid=0x0:0xdd5321822982b381,
supermarket,Toko Swalayan,Pia Frozen Food,"Jl. Rukun No.09, RT.029, Karang Anyar Pantai, Kec. Tarakan Bar., Kota Tarakan, Kalimantan Utara 77117","RT.029, Karang Anyar Pantai, Kec. Tarakan Bar., Kota Tarakan",KALIMANTAN UTARA,77117.0,Indonesia,,,,3.3210838,117.5744346,https://maps.google.com/?cid=0x0:0xc2f8b84a7d2a7784,
supermarket,Toko bahan makanan,Nu Store,"8HGF+MM3, Bar., Karang Anyar, Kec. Tarakan Bar., Kota Tarakan, Kalimantan Utara","Kota Tarakan, Kalimantan Utara",KALIMANTAN UTARA,,Indonesia,,,,3.3266284,117.5741714,https://maps.google.com/?cid=0x0:0xddd8d630c496db6e,
supermarket,Toko bahan makanan,NuStore Yos Sudarso,"7HVQ+F74, Sebengkok, Kec. Tarakan Tengah, Kota Tarakan, Kalimantan Utara","Kota Tarakan, Kalimantan Utara",KALIMANTAN UTARA,,Indonesia,,,,3.2936358,117.5881976,https://maps.google.com/?cid=0x0:0x309209324c138cab,
supermarket,supermarket,Kec. Tarakan Tim.,"Kota Tarakan, Kalimantan Utara","Kota Tarakan, Kalimantan Utara",KALIMANTAN UTARA,,Indonesia,,,,3.3018342,117.62185,https://maps.google.com/?cid=0x0:0x57d2af2857b49049,
supermarket,Toko bahan makanan,STB,"Jl. Kusuma Bangsa, Pamusian, Kec. Tarakan Tengah, Kota Tarakan, Kalimantan Utara","Kota Tarakan, Kalimantan Utara",KALIMANTAN UTARA,,Indonesia,82350882108.0,,,3.304932,117.608725,https://maps.google.com/?cid=0x0:0x2c67ba69c43b5659,
supermarket,Pusat Perbelanjaan,Swalayan Senyum 5000 Kusuma Bangsa Tarakan,"Jl. Kusuma Bangsa, Pamusian, Kec. Tarakan Tengah, Kota Tarakan, Kalimantan Utara 77115","Pamusian, Kec. Tarakan Tengah, Kota Tarakan",KALIMANTAN UTARA,77115.0,Indonesia,,,,3.3054536,117.6096464,https://maps.google.com/?cid=0x0:0x2c077bd4b598eb08,
supermarket,Toko Swalayan,jv mart,"Kp. Empat, Kec. Tarakan Tim., Kota Tarakan, Kalimantan Utara","Kota Tarakan, Kalimantan Utara",KALIMANTAN UTARA,,Indonesia,,,,3.3003968,117.6231411,https://maps.google.com/?cid=0x0:0xb3c4887bb4957e6,
supermarket,Toko Swalayan,STB Mart Markoni,"RT 21 Markoni, Kalimantan Timur, Jl. Imam Bonjol, Pamusian, Kec. Tarakan Tengah, Kota Tarakan, Kalimantan Utara","Kota Tarakan, Kalimantan Utara",KALIMANTAN UTARA,,Indonesia,81299039555.0,,,3.3048312,117.6031583,https://maps.google.com/?cid=0x0:0xa054ad2c6f7992d7,
supermarket,Minimarket,Sayyid 5177,"Tim., Tim, Mamburungan Tim., Kec. Tarakan Tim., Kota Tarakan, Kalimantan Utara","Kota Tarakan, Kalimantan Utara",KALIMANTAN UTARA,,Indonesia,82218552229.0,,,3.2704901,117.6302865,https://maps.google.com/?cid=0x0:0x1bee32a198e7be7c,
supermarket,Toko bahan makanan,Public Mart Point,"Jl. P. Diponegoro No.8, Sebengkok, Kec. Tarakan Tengah, Kota Tarakan, Kalimantan Utara","Kota Tarakan, Kalimantan Utara",KALIMANTAN UTARA,,Indonesia,,,,3.2996867,117.593535,https://maps.google.com/?cid=0x0:0xd10fcef6c326e15,
supermarket,Toko Swalayan,TW Mart,"8H2Q+RM4, Jl. Agus Salim No.27, Selumit, Kec. Tarakan Tengah, Kota Tarakan, Kalimantan Utara","Kota Tarakan, Kalimantan Utara",KALIMANTAN UTARA,,Indonesia,8115981908.0,,,3.3021459,117.5895597,https://maps.google.com/?cid=0x0:0x57b82f49421d04b,
supermarket,Minimarket,HG Mart,"Jl. Yos Sudarso No.1, Karang Rejo, Kec. Tarakan Bar., Kota Tarakan, Kalimantan Utara","Kota Tarakan, Kalimantan Utara",KALIMANTAN UTARA,,Indonesia,,,,3.3027728,117.5850254,https://maps.google.com/?cid=0x0:0x2015f5b7c1ed923c,
supermarket,Toko bahan makanan,S-Mart,"Jl. Mulawarman, Karang Anyar, Kec. Tarakan Bar., Kota Tarakan, Kalimantan Utara","Kota Tarakan, Kalimantan Utara",KALIMANTAN UTARA,,Indonesia,55124035.0,,,3.3148166,117.5798587,https://maps.google.com/?cid=0x0:0x16d38d85c7cff48c,
supermarket,Toko Ponsel,Minimarket Sinarmas,"Jalan Kampung Empat No.53, Kp. Empat, Kec. Tarakan Tim., Kota Tarakan, Kalimantan Utara","Kota Tarakan, Kalimantan Utara",KALIMANTAN UTARA,,Indonesia,55122230.0,,,3.3026606,117.6228057,https://maps.google.com/?cid=0x0:0x7f4dc7d4cc43f109,
supermarket,Toko Perlengkapan Rumah,Kios RIZKY,"Gn. Lingkas, Kec. Tarakan Tim., Kota Tarakan, Kalimantan Utara","Kota Tarakan, Kalimantan Utara",KALIMANTAN UTARA,,Indonesia,,,,3.2930965,117.5964097,https://maps.google.com/?cid=0x0:0x7e8792de4b0d03ab,
supermarket,Pusat Perbelanjaan,Pusat Oleh Oleh UMKM Centre Kota Tarakan,"jl.pattimura Rt.17, Pamusian, Kec. Tarakan Tengah, Kota Tarakan, Kalimantan Utara","Kota Tarakan, Kalimantan Utara",KALIMANTAN UTARA,,Indonesia,,,,3.3055641,117.603359,https://maps.google.com/?cid=0x0:0xd1b93d6ec41c5c40,
supermarket,Toko Swalayan,Wamasepeda official,"7HWJ+5W3, Jl. Ps. Beringin II, Selumit Pantai, Kec. Tarakan Tengah, Kota Tarakan, Kalimantan Utara","Kota Tarakan, Kalimantan Utara",KALIMANTAN UTARA,,Indonesia,85245844477.0,,,3.2953796,117.5822945,https://maps.google.com/?cid=0x0:0x9324e54622065909,
supermarket,Toko Swalayan,Xpress Mart,"Jl. Slamet Riady No.71, RT.10, Karang Anyar, Kec. Tarakan Bar., Kota Tarakan, Kalimantan Utara 77111","RT.10, Karang Anyar, Kec. Tarakan Bar., Kota Tarakan",KALIMANTAN UTARA,77111.0,Indonesia,82149822678.0,,,3.3143773,117.5887689,https://maps.google.com/?cid=0x0:0xdd5321822982b381,
supermarket,Grosir,Jaya Murni,"Selumit Pantai, Kec. Tarakan Tengah, Kota Tarakan, Kalimantan Utara","Kota Tarakan, Kalimantan Utara",KALIMANTAN UTARA,,Indonesia,81254305229.0,,,3.2965193,117.5864788,https://maps.google.com/?cid=0x0:0x7e41fd44d394d6e1,
supermarket,Toko bahan makanan,D'frozz frozen food Tarakan,"Jl. P. Sumatera No.RT 15 No 10, Pamusian, Kec. Tarakan Tengah, Kota Tarakan, Kalimantan Utara","Kota Tarakan, Kalimantan Utara",KALIMANTAN UTARA,,Indonesia,81351888558.0,,,3.3079443,117.6026829,https://maps.google.com/?cid=0x0:0xeb95fb120d23a5d7,
supermarket,Toko Swalayan,STB Supermarket Mulawarman,"8H9G+PMQ, Jl. Mulawarman, Karang Anyar Pantai, Kec. Tarakan Bar., Kota Tarakan, Kalimantan Utara","Kota Tarakan, Kalimantan Utara",KALIMANTAN UTARA,,Indonesia,,,,3.3193321,117.5767281,https://maps.google.com/?cid=0x0:0x1411802f10274071,
supermarket,Toko umum,Toko Salim Sutanto,"8J34+F4J, Pamusian, Kec. Tarakan Tengah, Kota Tarakan, Kalimantan Utara","Kota Tarakan, Kalimantan Utara",KALIMANTAN UTARA,,Indonesia,55123123.0,,,3.3037108,117.6052734,https://maps.google.com/?cid=0x0:0xd03fffd65f7c268,
supermarket,Toko Swalayan,Toko Atung,"Rt 44 no 85, Jl. Mulawarman, Karang Anyar, Kec. Tarakan Bar., Kota Tarakan, Kalimantan Utara","Kota Tarakan, Kalimantan Utara",KALIMANTAN UTARA,,Indonesia,,,,3.3154235,117.5787237,https://maps.google.com/?cid=0x0:0xbe33c90e48c627b1,
supermarket,Toko Swalayan,TOKO SABINDO JAYA,"7HWP+992, Selumit Pantai, Kec. Tarakan Tengah, Kota Tarakan, Kalimantan Utara","Kota Tarakan, Kalimantan Utara",KALIMANTAN UTARA,,Indonesia,8125347640.0,,,3.2958904,117.5858902,https://maps.google.com/?cid=0x0:0xbbeebd147b40777,
supermarket,Toko Swalayan,Warung Tyo,"7HXW+3MW, Jl. Sebengkok Waru, Sebengkok, Kec. Tarakan Tengah, Kota Tarakan, Kalimantan Utara","Kota Tarakan, Kalimantan Utara",KALIMANTAN UTARA,,Indonesia,,,,3.2977268,117.5967091,https://maps.google.com/?cid=0x0:0x11a52b51d6efd2d1,
supermarket,Grosir,Ud Jaya Raya,"Jl. Sei Sesayap, Kp. Empat, Kec. Tarakan Tim., Kota Tarakan, Kalimantan Utara","Kota Tarakan, Kalimantan Utara",KALIMANTAN UTARA,,Indonesia,,,,3.3038604,117.6241763,https://maps.google.com/?cid=0x0:0x1ab3b41d150c6cf,
supermarket,Pasar,Pasar Tenguyun Bom Panjang,"Pasar tenguyun, Pamusian, Kec. Tarakan Tengah, Kota Tarakan, Kalimantan Utara 77122","Pamusian, Kec. Tarakan Tengah, Kota Tarakan",KALIMANTAN UTARA,77122.0,Indonesia,,,,3.2996237,117.605947,https://maps.google.com/?cid=0x0:0xc278897bd504a419,
supermarket,Toko bahan makanan,HATIB MART,"Jl. Tj. Pasir, Mamburungan Tim., Kec. Tarakan Tim., Kota Tarakan, Kalimantan Utara","Kota Tarakan, Kalimantan Utara",KALIMANTAN UTARA,,Indonesia,85394442910.0,,,3.2671003,117.6344441,https://maps.google.com/?cid=0x0:0x84e6176424ceb950,
supermarket,Grosir,Harapan. UD,"8J2M+94G, Kp. Empat, Kec. Tarakan Tim., Kota Tarakan, Kalimantan Utara","Kota Tarakan, Kalimantan Utara",KALIMANTAN UTARA,,Indonesia,55124401.0,,,3.3009378,117.6328323,https://maps.google.com/?cid=0x0:0x445128612bf90de9,
supermarket,Toko bahan makanan,UD. Rahmah,"8J3F+8FR, Unnamed Road, Kp. Empat, Kec. Tarakan Tim., Kota Tarakan, Kalimantan Utara","Kota Tarakan, Kalimantan Utara",KALIMANTAN UTARA,,Indonesia,,,,3.3033619,117.6236552,https://maps.google.com/?cid=0x0:0xbd6c9d90d77be439,
supermarket,Pasar,Setia Budi Karang Rejo,"Yos Sudarso rt 01 no 03, Tarakan Barat, Karang Rejo, Kec. Tarakan Bar., Kota Tarakan, Kalimantan Utara 77112","Tarakan Barat, Karang Rejo, Kec. Tarakan Bar., Kota Tarakan",KALIMANTAN UTARA,77112.0,Indonesia,55121644.0,,,3.3082141,117.5836263,https://maps.google.com/?cid=0x0:0x8b882337264e938e,
supermarket,supermarket,Kalimantan Utara 77126,"Lingkas Ujung, Kec. Tarakan Tim., Kota Tarakan, Kalimantan Utara","Kota Tarakan, Kalimantan Utara",KALIMANTAN UTARA,,Indonesia,,,,3.2900403,117.5910732,https://maps.google.com/?cid=0x0:0xf43b1ed1f9612680,
supermarket,Toko bahan makanan,STB,"Jl. Kusuma Bangsa, Pamusian, Kec. Tarakan Tengah, Kota Tarakan, Kalimantan Utara","Kota Tarakan, Kalimantan Utara",KALIMANTAN UTARA,,Indonesia,82350882108.0,,,3.304932,117.608725,https://maps.google.com/?cid=0x0:0x2c67ba69c43b5659,
supermarket,Pusat Perbelanjaan,Swalayan Senyum 5000,"8H8H+4Q9, Karang Anyar, Kec. Tarakan Bar., Kota Tarakan, Kalimantan Utara","Kota Tarakan, Kalimantan Utara",KALIMANTAN UTARA,,Indonesia,82198182249.0,,,3.3152987,117.5794771,https://maps.google.com/?cid=0x0:0xb0a5795d751ca361,
supermarket,Minimarket,HG Mart,"Jl. Yos Sudarso No.1, Karang Rejo, Kec. Tarakan Bar., Kota Tarakan, Kalimantan Utara","Kota Tarakan, Kalimantan Utara",KALIMANTAN UTARA,,Indonesia,,,,3.3027728,117.5850254,https://maps.google.com/?cid=0x0:0x2015f5b7c1ed923c,
supermarket,Toko Swalayan,jv mart,"Kp. Empat, Kec. Tarakan Tim., Kota Tarakan, Kalimantan Utara","Kota Tarakan, Kalimantan Utara",KALIMANTAN UTARA,,Indonesia,,,,3.3003968,117.6231411,https://maps.google.com/?cid=0x0:0xb3c4887bb4957e6,
supermarket,Toko Swalayan,Xpress Mart,"Jl. Slamet Riady No.71, RT.10, Karang Anyar, Kec. Tarakan Bar., Kota Tarakan, Kalimantan Utara 77111","RT.10, Karang Anyar, Kec. Tarakan Bar., Kota Tarakan",KALIMANTAN UTARA,77111.0,Indonesia,82149822678.0,,,3.3143773,117.5887689,https://maps.google.com/?cid=0x0:0xdd5321822982b381,
supermarket,Toko Swalayan,TW Mart,"8H2Q+RM4, Jl. Agus Salim No.27, Selumit, Kec. Tarakan Tengah, Kota Tarakan, Kalimantan Utara","Kota Tarakan, Kalimantan Utara",KALIMANTAN UTARA,,Indonesia,8115981908.0,,,3.3021459,117.5895597,https://maps.google.com/?cid=0x0:0x57b82f49421d04b,
supermarket,Toko Perlengkapan Rumah,Kios RIZKY,"Gn. Lingkas, Kec. Tarakan Tim., Kota Tarakan, Kalimantan Utara","Kota Tarakan, Kalimantan Utara",KALIMANTAN UTARA,,Indonesia,,,,3.2930965,117.5964097,https://maps.google.com/?cid=0x0:0x7e8792de4b0d03ab,
supermarket,Toko bahan makanan,Public Mart Point,"Jl. P. Diponegoro No.8, Sebengkok, Kec. Tarakan Tengah, Kota Tarakan, Kalimantan Utara","Kota Tarakan, Kalimantan Utara",KALIMANTAN UTARA,,Indonesia,,,,3.2996867,117.593535,https://maps.google.com/?cid=0x0:0xd10fcef6c326e15,
supermarket,Toko Swalayan,STB Mart Markoni,"RT 21 Markoni, Kalimantan Timur, Jl. Imam Bonjol, Pamusian, Kec. Tarakan Tengah, Kota Tarakan, Kalimantan Utara","Kota Tarakan, Kalimantan Utara",KALIMANTAN UTARA,,Indonesia,81299039555.0,,,3.3048312,117.6031583,https://maps.google.com/?cid=0x0:0xa054ad2c6f7992d7,
supermarket,Toko Swalayan,STB Supermarket Mulawarman,"8H9G+PMQ, Jl. Mulawarman, Karang Anyar Pantai, Kec. Tarakan Bar., Kota Tarakan, Kalimantan Utara","Kota Tarakan, Kalimantan Utara",KALIMANTAN UTARA,,Indonesia,,,,3.3193321,117.5767281,https://maps.google.com/?cid=0x0:0x1411802f10274071,
supermarket,Pasar,Setia Budi Karang Rejo,"Yos Sudarso rt 01 no 03, Tarakan Barat, Karang Rejo, Kec. Tarakan Bar., Kota Tarakan, Kalimantan Utara 77112","Tarakan Barat, Karang Rejo, Kec. Tarakan Bar., Kota Tarakan",KALIMANTAN UTARA,77112.0,Indonesia,55121644.0,,,3.3082141,117.5836263,https://maps.google.com/?cid=0x0:0x8b882337264e938e,
supermarket,Toko bahan makanan,D'frozz frozen food Tarakan,"Jl. P. Sumatera No.RT 15 No 10, Pamusian, Kec. Tarakan Tengah, Kota Tarakan, Kalimantan Utara","Kota Tarakan, Kalimantan Utara",KALIMANTAN UTARA,,Indonesia,81351888558.0,,,3.3079443,117.6026829,https://maps.google.com/?cid=0x0:0xeb95fb120d23a5d7,
supermarket,Toko Swalayan,Plusmart Minimarket,"Jl. Bhayangkara, Karang Anyar, Kec. Tarakan Bar., Kota Tarakan, Kalimantan Utara","Kota Tarakan, Kalimantan Utara",KALIMANTAN UTARA,,Indonesia,,,,3.3243958,117.5797147,https://maps.google.com/?cid=0x0:0x91500002ccf8d3d8,
supermarket,Toko Peralatan dan Bahan Kue,KA MART | tokokemasan  toko Bahan kue,"Karang Anyar, Kec. Tarakan Bar., Kota Tarakan, Kalimantan Utara","Kota Tarakan, Kalimantan Utara",KALIMANTAN UTARA,,Indonesia,8115319988.0,,,3.3107566,117.5882949,https://maps.google.com/?cid=0x0:0x1248699f48f3726,
supermarket,Toko Swalayan,Setia Budi,"Gajahmada Blok B-9 B-10 Karang Rejo, Tarakan Barat, Karang Rejo, Kec. Tarakan Bar., Kota Tarakan, Kalimantan Utara","Kota Tarakan, Kalimantan Utara",KALIMANTAN UTARA,,Indonesia,55136135.0,,,3.3064148,117.5792999,https://maps.google.com/?cid=0x0:0x8d5cb52326d27aea,
supermarket,Toko bahan makanan,Toko Gemilang Juata,"Jl. Pangeran Aji Iskandar No.RT.19, Juata Permai, Kec. Tarakan Utara, Kota Tarakan, Kalimantan Utara 77146","Juata Permai, Kec. Tarakan Utara, Kota Tarakan",KALIMANTAN UTARA,77146.0,Indonesia,85215831973.0,,,3.3742637,117.5505167,https://maps.google.com/?cid=0x0:0x3f5efd563e5811f9,
supermarket,Toko Swalayan,Toko Acing,"No.68 RT 62 East Kalimantan, Jl. Matahari, Karang Anyar, Kec. Tarakan Bar., Kota Tarakan, Kalimantan Utara","Kota Tarakan, Kalimantan Utara",KALIMANTAN UTARA,,Indonesia,,,,3.3227305,117.5894963,https://maps.google.com/?cid=0x0:0xa6d23b4854592c50,
supermarket,Minimarket,HG Mart,"Jl. P. Diponegoro Jl. Sebengkok Tiram No.2, Sebengkok, Kec. Tarakan Tengah, Kota Tarakan, Kalimantan Utara","Kota Tarakan, Kalimantan Utara",KALIMANTAN UTARA,,Indonesia,,,,3.2949304,117.5896995,https://maps.google.com/?cid=0x0:0x7bae8c7ded8bb6eb,
supermarket,Pasar,Pasar Tenguyun Bom Panjang,"Pasar tenguyun, Pamusian, Kec. Tarakan Tengah, Kota Tarakan, Kalimantan Utara 77122","Pamusian, Kec. Tarakan Tengah, Kota Tarakan",KALIMANTAN UTARA,77122.0,Indonesia,,,,3.2996237,117.605947,https://maps.google.com/?cid=0x0:0xc278897bd504a419,
supermarket,Pemasok Produk Makanan,LaDaRa Tarakan,"Jl. Kusuma Bangsa No.RT.31, Pamusian, Kec. Tarakan Tengah, Kota Tarakan, Kalimantan Utara","Kota Tarakan, Kalimantan Utara",KALIMANTAN UTARA,,Indonesia,81346500264.0,,,3.299648,117.6036605,https://maps.google.com/?cid=0x0:0x91418dec42238de7,
supermarket,Grosir,Toko Berkat Mulia,"Jl. Yos Sudarso No.02, RT.13, Bar., Karang Rejo, Kec. Tarakan Bar., Kota Tarakan, Kalimantan Utara","Kota Tarakan, Kalimantan Utara",KALIMANTAN UTARA,,Indonesia,,,,3.3039986,117.5847123,https://maps.google.com/?cid=0x0:0xca8054fa3b865e3f,
supermarket,Toko bahan makanan,NuStore Yos Sudarso,"7HVQ+F74, Sebengkok, Kec. Tarakan Tengah, Kota Tarakan, Kalimantan Utara","Kota Tarakan, Kalimantan Utara",KALIMANTAN UTARA,,Indonesia,,,,3.2936358,117.5881976,https://maps.google.com/?cid=0x0:0x309209324c138cab,
supermarket,supermarket,Kec. Tarakan Utara,"Kota Tarakan, Kalimantan Utara","Kota Tarakan, Kalimantan Utara",KALIMANTAN UTARA,,Indonesia,,,,3.3796258,117.5496105,https://maps.google.com/?cid=0x0:0xb014dac18351b1,
supermarket,Pusat Perbelanjaan,Swalayan Senyum 5000,"8H8H+4Q9, Karang Anyar, Kec. Tarakan Bar., Kota Tarakan, Kalimantan Utara","Kota Tarakan, Kalimantan Utara",KALIMANTAN UTARA,,Indonesia,82198182249.0,,,3.3152987,117.5794771,https://maps.google.com/?cid=0x0:0xb0a5795d751ca361,
supermarket,Toko bahan makanan,S-Mart,"Jl. Mulawarman, Karang Anyar, Kec. Tarakan Bar., Kota Tarakan, Kalimantan Utara","Kota Tarakan, Kalimantan Utara",KALIMANTAN UTARA,,Indonesia,55124035.0,,,3.3148166,117.5798587,https://maps.google.com/?cid=0x0:0x16d38d85c7cff48c,
supermarket,Pasar,Setia Budi Persemaian,"Jl. Aki Balak No.RT.03, Juata Kerikil, Kec. Tarakan Utara, Kota Tarakan, Kalimantan Utara 77116","Juata Kerikil, Kec. Tarakan Utara, Kota Tarakan",KALIMANTAN UTARA,77116.0,Indonesia,8115424784.0,,,3.3539026,117.5719778,https://maps.google.com/?cid=0x0:0x6a19834c04186199,
supermarket,Toko bahan makanan,RYSTA MART,"Jl. Pangeran Aji Iskandar No.RT.20, Juata Permai, Kec. Tarakan Utara, Kota Tarakan, Kalimantan Utara 77116","Juata Permai, Kec. Tarakan Utara, Kota Tarakan",KALIMANTAN UTARA,77116.0,Indonesia,81953508925.0,,,3.3785486,117.5495754,https://maps.google.com/?cid=0x0:0x3e8413329397f509,
supermarket,Toko bahan makanan,STB,"Jl. Kusuma Bangsa, Pamusian, Kec. Tarakan Tengah, Kota Tarakan, Kalimantan Utara","Kota Tarakan, Kalimantan Utara",KALIMANTAN UTARA,,Indonesia,82350882108.0,,,3.304932,117.608725,https://maps.google.com/?cid=0x0:0x2c67ba69c43b5659,
supermarket,Toko Swalayan,Xpress Mart,"Jl. Slamet Riady No.71, RT.10, Karang Anyar, Kec. Tarakan Bar., Kota Tarakan, Kalimantan Utara 77111","RT.10, Karang Anyar, Kec. Tarakan Bar., Kota Tarakan",KALIMANTAN UTARA,77111.0,Indonesia,82149822678.0,,,3.3143773,117.5887689,https://maps.google.com/?cid=0x0:0xdd5321822982b381,
supermarket,Minimarket,HG Mart,"Jl. Yos Sudarso No.1, Karang Rejo, Kec. Tarakan Bar., Kota Tarakan, Kalimantan Utara","Kota Tarakan, Kalimantan Utara",KALIMANTAN UTARA,,Indonesia,,,,3.3027728,117.5850254,https://maps.google.com/?cid=0x0:0x2015f5b7c1ed923c,
supermarket,Toko,Toko Padaidi,"20, jln p aji iskandar rt, Juata Permai, Kec. Tarakan Utara, Kota Tarakan, Kalimantan Utara","Kota Tarakan, Kalimantan Utara",KALIMANTAN UTARA,,Indonesia,,,,3.3800512,117.5492959,https://maps.google.com/?cid=0x0:0x1235e92c9153d157,
supermarket,Toko,Toko Dewi,"9H59+RGX, Karang Harapan, Kec. Tarakan Bar., Kota Tarakan, Kalimantan Utara","Kota Tarakan, Kalimantan Utara",KALIMANTAN UTARA,,Indonesia,,,,3.3596153,117.568861,https://maps.google.com/?cid=0x0:0xdf354acdb599bb22,
supermarket,Pusat Perbelanjaan,Swalayan Senyum 5000 Kusuma Bangsa Tarakan,"Jl. Kusuma Bangsa, Pamusian, Kec. Tarakan Tengah, Kota Tarakan, Kalimantan Utara 77115","Pamusian, Kec. Tarakan Tengah, Kota Tarakan",KALIMANTAN UTARA,77115.0,Indonesia,,,,3.3054536,117.6096464,https://maps.google.com/?cid=0x0:0x2c077bd4b598eb08,
supermarket,Toko Fotokopi,V_fh@ Mart,"8HW6+9CJ, Karang Harapan, Kec. Tarakan Bar., Kota Tarakan, Kalimantan Utara","Kota Tarakan, Kalimantan Utara",KALIMANTAN UTARA,,Indonesia,81350000243.0,,,3.3459548,117.5610032,https://maps.google.com/?cid=0x0:0x9c06d69b4b9f1f13,
supermarket,Toko,Kios Utami,"CG9W+7FQ, Utara, Juata Laut, Tarakan Utara, Tarakan City, North Kalimantan","Kota Tarakan, Kalimantan Utara",KALIMANTAN UTARA,,Indonesia,,,,3.4182076,117.5462359,https://maps.google.com/?cid=0x0:0xcbbe7498f06c657e,
supermarket,Toko Swalayan,Toko Atung,"Rt 44 no 85, Jl. Mulawarman, Karang Anyar, Kec. Tarakan Bar., Kota Tarakan, Kalimantan Utara","Kota Tarakan, Kalimantan Utara",KALIMANTAN UTARA,,Indonesia,,,,3.3154235,117.5787237,https://maps.google.com/?cid=0x0:0xbe33c90e48c627b1,
supermarket,Toko Swalayan,jv mart,"Kp. Empat, Kec. Tarakan Tim., Kota Tarakan, Kalimantan Utara","Kota Tarakan, Kalimantan Utara",KALIMANTAN UTARA,,Indonesia,,,,3.3003968,117.6231411,https://maps.google.com/?cid=0x0:0xb3c4887bb4957e6,
supermarket,Minimarket,Alfamidi juwata,"9HH2+F3F, Jl. Pangeran Aji Iskandar, Juata Permai, Kec. Tarakan Utara, Kota Tarakan, Kalimantan Utara","Kota Tarakan, Kalimantan Utara",KALIMANTAN UTARA,,Indonesia,,,,3.3786821,117.5501591,https://maps.google.com/?cid=0x0:0xf44a497d4919add3,
supermarket,Toko Swalayan,Toko DnD,"9GHX+5VX, Juata Permai, Kec. Tarakan Utara, Kota Tarakan, Kalimantan Utara","Kota Tarakan, Kalimantan Utara",KALIMANTAN UTARA,,Indonesia,82251112219.0,,,3.377985,117.5497497,https://maps.google.com/?cid=0x0:0x427812bcabf1693a,
supermarket,Toko Swalayan,Toko,"Jl. Meranti I No.19a, Juata Permai, Kec. Tarakan Utara, Kota Tarakan, Kalimantan Utara","Kota Tarakan, Kalimantan Utara",KALIMANTAN UTARA,,Indonesia,85348925986.0,,,3.3755192,117.549628,https://maps.google.com/?cid=0x0:0x6b6c3be4995168da,
supermarket,Toko Swalayan,Toko Diana,"9G7V+2RR, Jl. Cendrawasih, RT.16/RW.No.VII, Juata Permai, Kec. Tarakan Utara, Kota Tarakan, Kalimantan Utara","Kota Tarakan, Kalimantan Utara",KALIMANTAN UTARA,,Indonesia,85250763473.0,,,3.3626184,117.5445281,https://maps.google.com/?cid=0x0:0x5a9bdb1dc554938e,
supermarket,Toko bahan makanan,Toko Rachel,"CGMR+7GR, Juata Laut, Kec. Tarakan Utara, Kota Tarakan, Kalimantan Utara","Kota Tarakan, Kalimantan Utara",KALIMANTAN UTARA,,Indonesia,,,,3.4332418,117.5412755,https://maps.google.com/?cid=0x0:0xefe76ea533ae4c8a,
supermarket,Toko Swalayan,STB Supermarket Mulawarman,"8H9G+PMQ, Jl. Mulawarman, Karang Anyar Pantai, Kec. Tarakan Bar., Kota Tarakan, Kalimantan Utara","Kota Tarakan, Kalimantan Utara",KALIMANTAN UTARA,,Indonesia,,,,3.3193321,117.5767281,https://maps.google.com/?cid=0x0:0x1411802f10274071,
supermarket,Pasar,Setia Budi Karang Rejo,"Yos Sudarso rt 01 no 03, Tarakan Barat, Karang Rejo, Kec. Tarakan Bar., Kota Tarakan, Kalimantan Utara 77112","Tarakan Barat, Karang Rejo, Kec. Tarakan Bar., Kota Tarakan",KALIMANTAN UTARA,77112.0,Indonesia,55121644.0,,,3.3082141,117.5836263,https://maps.google.com/?cid=0x0:0x8b882337264e938e,
supermarket,,MAKMUR JAYA,"CGMR+2RW, Jl. Kurau, Juata Laut, Kec. Tarakan Utara, Kalimantan Utara",Kalimantan Utara,KALIMANTAN UTARA,,Indonesia,81350060827.0,,,3.4326022,117.5420809,https://maps.google.com/?cid=0x0:0x542b88d108768c11,
supermarket,Toko Swalayan,TOKO WULAN *A.C.K*,"Perumahan Intraca Block B Jl.Betet No.55 RT.09, Juata Permai, Kec. Tarakan Utara, Kota Tarakan, Kalimantan Utara 77116","Juata Permai, Kec. Tarakan Utara, Kota Tarakan",KALIMANTAN UTARA,77116.0,Indonesia,82332572721.0,,,3.3613309,117.5474679,https://maps.google.com/?cid=0x0:0xb0778a5ca47a6cbe,
supermarket,Toserba,TOKO BERKAH,"9H92+QVX, Juata Kerikil, Kec. Tarakan Utara, Kota Tarakan, Kalimantan Utara","Kota Tarakan, Kalimantan Utara",KALIMANTAN UTARA,,Indonesia,81298683720.0,,,3.3694762,117.5522461,https://maps.google.com/?cid=0x0:0x59d257d1de68899d,
supermarket,Toko bahan makanan,Juwata Tarakan,"CH9M+7WM, Juata Laut, Kec. Tarakan Utara, Kota Tarakan, Kalimantan Utara","Kota Tarakan, Kalimantan Utara",KALIMANTAN UTARA,,Indonesia,82148854791.0,,,3.4182047,117.5848025,https://maps.google.com/?cid=0x0:0x4281f7d42c132397,
