Category,Real Category,Business Name,Address,City,State,Postal Code,Country,Phone,Email,Website,Latitude,Longitude,Map Link,Details Link
komplek housing,Komplek perumahan,Erytarina Sukmawanti,"Jl. Wijaya Kusuma IIIA No.54, Karang Anyar, Kec. Tarakan Bar., Kota Tarakan, Kalimantan Utara 77111","Karang Anyar, Kec. Tarakan Bar., Kota Tarakan",KALIMANTAN UTARA,77111.0,Indonesia,,,,3.3213091,117.5789401,https://maps.google.com/?cid=0x0:0xfc39f75587ecdbd2,
komplek housing,komplek housing,Kalimantan Utara 77111,"Karang Anyar Pantai, Kec. Tarakan Bar., Kota Tarakan, Kalimantan Utara","Kota Tarakan, Kalimantan Utara",KALIMANTAN UTARA,,Indonesia,,,,3.3095521,117.5827496,https://maps.google.com/?cid=0x0:0xf55536e5ab2854e9,
komplek housing,Komplek perumahan,myOmah,"8H5M+P94, Karang Anyar Pantai, Kec. Tarakan Bar., Kota Tarakan, Kalimantan Utara","Kota Tarakan, Kalimantan Utara",KALIMANTAN UTARA,,Indonesia,,,,3.3092542,117.5834641,https://maps.google.com/?cid=0x0:0x2438f37ffd907322,
komplek housing,Perumahan,Rumah H Sani,"Jl. Gajah Mada No.20, Karang Anyar Pantai, Kec. Tarakan Bar., Kota Tarakan, Kalimantan Utara 77111","Karang Anyar Pantai, Kec. Tarakan Bar., Kota Tarakan",KALIMANTAN UTARA,77111.0,Indonesia,,,,3.3088065,117.5823539,https://maps.google.com/?cid=0x0:0x29dd744e66311847,
komplek housing,Komplek perumahan,Ega home,"Jl. Swasembada Gg. Kelapa No.117, Karang Anyar, Kec. Tarakan Bar., Kota Tarakan, Kalimantan Utara 77111","Karang Anyar, Kec. Tarakan Bar., Kota Tarakan",KALIMANTAN UTARA,77111.0,Indonesia,,,,3.3353269,117.5764719,https://maps.google.com/?cid=0x0:0xbaf53b91431167d7,
komplek housing,Komplek perumahan,MC house,"8H8M+CC7, Jl. Nusa Indah No.82, RT.44, Karang Anyar, Kec. Tarakan Bar., Kota Tarakan, Kalimantan Utara 77111","Jl. Nusa Indah No.82, RT.44, Karang Anyar, Kec. Tarakan Bar., Kota Tarakan",KALIMANTAN UTARA,77111.0,Indonesia,,,,3.3164204,117.579884,https://maps.google.com/?cid=0x0:0x7561c518177a5b6d,
komplek housing,Komplek perumahan,Home,"8HWC+4G4, Jl. Lestari RW.DEPAN 613, Karang Harapan, Kec. Tarakan Bar., Kota Tarakan, Kalimantan Utara 77111","Jl. Lestari RW.DEPAN 613, Karang Harapan, Kec. Tarakan Bar., Kota Tarakan",KALIMANTAN UTARA,77111.0,Indonesia,,,,3.3451204,117.5712952,https://maps.google.com/?cid=0x0:0x665ee55ee435f34c,
komplek housing,Komplek perumahan,Perumahan teratai indah,"Jl. Mulawarman Gg. Celebes No.66, Karang Anyar, Kec. Tarakan Bar., Kota Tarakan, Kalimantan Utara 77111","Karang Anyar, Kec. Tarakan Bar., Kota Tarakan",KALIMANTAN UTARA,77111.0,Indonesia,,,,3.3251456,117.578752,https://maps.google.com/?cid=0x0:0x62f1e9232c308ad2,
komplek housing,Komplek perumahan,Sebengkok,"Jl. P. Diponegoro No.66, Sebengkok, Kec. Tarakan Tengah, Kota Tarakan, Kalimantan Utara 77111","Sebengkok, Kec. Tarakan Tengah, Kota Tarakan",KALIMANTAN UTARA,77111.0,Indonesia,,,,3.3015116,117.5937006,https://maps.google.com/?cid=0x0:0x7f44bf693af3fb8f,
komplek housing,Perhimpunan Pengembang Perumahan,Kampung Bugis dalam,"8HGH+WCR, Karang Anyar, Kec. Tarakan Bar., Kota Tarakan, Kalimantan Utara","Kota Tarakan, Kalimantan Utara",KALIMANTAN UTARA,,Indonesia,,,,3.3273599,117.5785049,https://maps.google.com/?cid=0x0:0xafa1aac937bcaf69,
komplek housing,komplek housing,Rumah sukarji,"Jl. Flamboyan No.rt 30, Karang Anyar, Kec. Tarakan Bar., Kota Tarakan, Kalimantan Utara 77111","Karang Anyar, Kec. Tarakan Bar., Kota Tarakan",KALIMANTAN UTARA,77111.0,Indonesia,,,,3.3187359,117.5843658,https://maps.google.com/?cid=0x0:0x54555ba7c63a9572,
komplek housing,Rumah Kayu,Sinar,"Jembatan bongkok rt21 no89, Kec. Tarakan Bar., Kalimantan Utara 77111",Kec. Tarakan Bar.,KALIMANTAN UTARA,77111.0,Indonesia,,,,3.3042632,117.5727263,https://maps.google.com/?cid=0x0:0xb698271bf7672e36,
komplek housing,komplek housing,Rumah Zsaqira,"Jl. Kamboja No.44, Karang Anyar, Kec. Tarakan Bar., Kota Tarakan, Kalimantan Utara 77111","Karang Anyar, Kec. Tarakan Bar., Kota Tarakan",KALIMANTAN UTARA,77111.0,Indonesia,,,,3.3149185,117.5838529,https://maps.google.com/?cid=0x0:0x1ae8f404efa8df5d,
komplek housing,Komplek perumahan,Rumah pak romy kipu,"Jl. Kamboja No.50, Karang Anyar, Kec. Tarakan Bar., Kota Tarakan, Kalimantan Utara 77111","Karang Anyar, Kec. Tarakan Bar., Kota Tarakan",KALIMANTAN UTARA,77111.0,Indonesia,,,,3.3144369,117.5810342,https://maps.google.com/?cid=0x0:0x9fc001fcfa7070ef,
komplek housing,komplek housing,Kalimantan Utara 77112,"Karang Balik, Kec. Tarakan Bar., Kota Tarakan, Kalimantan Utara","Kota Tarakan, Kalimantan Utara",KALIMANTAN UTARA,,Indonesia,,,,3.306797,117.590528,https://maps.google.com/?cid=0x0:0x1470b76b4da93f75,
komplek housing,Komplek perumahan,Kompleks Perumahan Griya Persemaian,"Karang Harapan, Kec. Tarakan Bar., Kota Tarakan, Kalimantan Utara","Kota Tarakan, Kalimantan Utara",KALIMANTAN UTARA,,Indonesia,,,,3.3521454,117.5709213,https://maps.google.com/?cid=0x0:0x74d8bb145dbc5133,
komplek housing,Masjid,Kompleks Perumahan Korpri Juata Permai,"Perumahan PNS Tarakan/kalimantan utara, Kalimantan Utara","Kota Tarakan, Kalimantan Utara",KALIMANTAN UTARA,,Indonesia,82253581038.0,,,3.3792089,117.5319733,https://maps.google.com/?cid=0x0:0x57ba00aab8b97e6c,
komplek housing,Komplek perumahan,A1,"8H4Q+5C6, Karang Balik, Kec. Tarakan Bar., Kota Tarakan, Kalimantan Utara","Kota Tarakan, Kalimantan Utara",KALIMANTAN UTARA,,Indonesia,,,,3.3054194,117.5885009,https://maps.google.com/?cid=0x0:0xf222e897fc92e6a5,
komplek housing,Komplek perumahan,Perumahan AAHIl KOMERING,"8HV4+Q94, Karang Harapan, Kec. Tarakan Bar., Kota Tarakan, Kalimantan Utara","Kota Tarakan, Kalimantan Utara",KALIMANTAN UTARA,,Indonesia,,,,3.344393,117.5559419,https://maps.google.com/?cid=0x0:0x739cac77123387f6,
komplek housing,Pembangunan Perumahan,Borneo Tirto Umbara,"8H4Q+58G, Unnamed Road, Karang Balik, Tarakan Barat, Tarakan City, North Kalimantan","Kota Tarakan, Kalimantan Utara",KALIMANTAN UTARA,,Indonesia,,,,3.3054454,117.5883272,https://maps.google.com/?cid=0x0:0xc67addfa04864c3b,
komplek housing,Pembangunan Perumahan,Rumah Ayira  Arya,"Jl. Swarga No.107, Karang Balik, Kec. Tarakan Bar., Kota Tarakan, Kalimantan Utara 77112","Karang Balik, Kec. Tarakan Bar., Kota Tarakan",KALIMANTAN UTARA,77112.0,Indonesia,,,,3.3060438,117.5906294,https://maps.google.com/?cid=0x0:0xd6dc962c18a2b958,
komplek housing,Komplek perumahan,Alam Ageng Residence 1,"9GCR+P9P, Juata Permai, Kec. Tarakan Utara, Kota Tarakan, Kalimantan Utara","Kota Tarakan, Kalimantan Utara",KALIMANTAN UTARA,,Indonesia,85326426667.0,,,3.3718353,117.5409502,https://maps.google.com/?cid=0x0:0x9949bb59a44e90ae,
komplek housing,Otoritas Perumahan,Perumahan bukit indah pasir putih,"8HJJ+7PP, Jl. Lili 2, Karang Anyar, Kec. Tarakan Bar., Kota Tarakan, Kalimantan Utara","Kota Tarakan, Kalimantan Utara",KALIMANTAN UTARA,,Indonesia,,,,3.3307045,117.581825,https://maps.google.com/?cid=0x0:0xbd1dead326d5f318,
komplek housing,Komplek perumahan,Rumah mas otok,"8H5Q+253, Jl. Dr. Sutomo, Karang Balik, Kec. Tarakan Bar., Kota Tarakan, Kalimantan Utara","Kota Tarakan, Kalimantan Utara",KALIMANTAN UTARA,,Indonesia,,,,3.3074267,117.5879754,https://maps.google.com/?cid=0x0:0xb68f95b79972ddb5,
komplek housing,Komplek perumahan,Perumahan,"8GXQ+VM, Karang Harapan, Kec. Tarakan Bar., Kota Tarakan, Kalimantan Utara","Kota Tarakan, Kalimantan Utara",KALIMANTAN UTARA,,Indonesia,,,,3.3496604,117.5392101,https://maps.google.com/?cid=0x0:0x52d7e8096941ad78,
komplek housing,Masjid,Bundaran perum pns,"9GMQ+Q98, Perum Perumnas, Juata Permai, Tarakan Utara, Tarakan City, North Kalimantan","Kota Tarakan, Kalimantan Utara",KALIMANTAN UTARA,,Indonesia,,,,3.3844223,117.5384488,https://maps.google.com/?cid=0x0:0xb23839a6009e8a99,
komplek housing,Perusahaan Konstruksi,Bumix,"9H3F+687, Juata Kerikil, Kec. Tarakan Utara, Kota Tarakan, Kalimantan Utara","Kota Tarakan, Kalimantan Utara",KALIMANTAN UTARA,,Indonesia,,,,3.3530383,117.5732977,https://maps.google.com/?cid=0x0:0x73c3927013ba0475,
komplek housing,Kompleks Bangunan Perusahaan,Juata kopri,"9HG2+585, Jl. Pangeran Aji Iskandar, Juata Permai, Kec. Tarakan Utara, Kota Tarakan, Kalimantan Utara","Kota Tarakan, Kalimantan Utara",KALIMANTAN UTARA,,Indonesia,,,,3.3753959,117.5508534,https://maps.google.com/?cid=0x0:0xe8579b08b3267f6d,
komplek housing,komplek housing,Kec. Tarakan Bar.,"Kota Tarakan, Kalimantan Utara","Kota Tarakan, Kalimantan Utara",KALIMANTAN UTARA,,Indonesia,,,,3.3092542,117.5834641,https://maps.google.com/?cid=0x0:0xfe1cd687e298ddfb,
komplek housing,Komplek perumahan,Rumah Panji Setiawan,"Jl. Matahari No.63, Karang Anyar, Kec. Tarakan Bar., Kota Tarakan, Kalimantan Utara 77112","Karang Anyar, Kec. Tarakan Bar., Kota Tarakan",KALIMANTAN UTARA,77112.0,Indonesia,,,,3.3252458,117.5908239,https://maps.google.com/?cid=0x0:0x372f70e428bb839b,
komplek housing,Komplek perumahan,Rumah aspirasi berkah Barokah,"8H4H+VWH, Jl. Gajah Mada, Karang Anyar Pantai, Kec. Tarakan Bar., Kota Tarakan, Kalimantan Utara 77112","Jl. Gajah Mada, Karang Anyar Pantai, Kec. Tarakan Bar., Kota Tarakan",KALIMANTAN UTARA,77112.0,Indonesia,,,,3.3070178,117.5800207,https://maps.google.com/?cid=0x0:0xeb29d2767ed56633,
komplek housing,Komplek perumahan,Rumah gaga,"Jl. Swarga No.128, Karang Balik, Kec. Tarakan Bar., Kota Tarakan, Kalimantan Utara 77112","Karang Balik, Kec. Tarakan Bar., Kota Tarakan",KALIMANTAN UTARA,77112.0,Indonesia,,,,3.3064244,117.590704,https://maps.google.com/?cid=0x0:0x4c23cc9a17ab968c,
komplek housing,Komplek perumahan,Rumah Rizky,"Jl. Cendrawasih No.43, RT.07, Juata Permai, Kec. Tarakan Utara, Kota Tarakan, Kalimantan Utara 77112","RT.07, Juata Permai, Kec. Tarakan Utara, Kota Tarakan",KALIMANTAN UTARA,77112.0,Indonesia,,,,3.3634187,117.5446493,https://maps.google.com/?cid=0x0:0x69b79bb06225581c,
komplek housing,komplek housing,Kec. Tarakan Tengah,"Kota Tarakan, Kalimantan Utara","Kota Tarakan, Kalimantan Utara",KALIMANTAN UTARA,,Indonesia,,,,3.308624,117.6011279,https://maps.google.com/?cid=0x0:0x52939c57e2b14b75,
komplek housing,Komplek perumahan,SELUMIT RT 11,"8H2P+6RQ, Jl. Hang Tuah No.49, Selumit, Kec. Tarakan Tengah, Kota Tarakan, Kalimantan Utara 77113","Jl. Hang Tuah No.49, Selumit, Kec. Tarakan Tengah, Kota Tarakan",KALIMANTAN UTARA,77113.0,Indonesia,,,,3.3003397,117.587695,https://maps.google.com/?cid=0x0:0xd4821ec8a7743ffc,
komplek housing,Komplek perumahan,a,"Jl. Hang Tuah No.19, Selumit, Kec. Tarakan Tengah, Kota Tarakan, Kalimantan Utara 77113","Selumit, Kec. Tarakan Tengah, Kota Tarakan",KALIMANTAN UTARA,77113.0,Indonesia,,,,3.3000576,117.5869075,https://maps.google.com/?cid=0x0:0x4b855924454c92cb,
komplek housing,Pembangunan Perumahan,Puput,"8H2P+5V4, Jl. Hang Tuah, RT.11/RW.No. 43, Selumit, Kec. Tarakan Tengah, Kota Tarakan, Kalimantan Utara 77113","Jl. Hang Tuah, RT.11/RW.No. 43, Selumit, Kec. Tarakan Tengah, Kota Tarakan",KALIMANTAN UTARA,77113.0,Indonesia,,,,3.3003763,117.5871896,https://maps.google.com/?cid=0x0:0x3bdb8a94fbe19eea,
komplek housing,Komplek perumahan,Alam Ageng Residence 1,"9GCR+P9P, Juata Permai, Kec. Tarakan Utara, Kota Tarakan, Kalimantan Utara","Kota Tarakan, Kalimantan Utara",KALIMANTAN UTARA,,Indonesia,85326426667.0,,,3.3718353,117.5409502,https://maps.google.com/?cid=0x0:0x9949bb59a44e90ae,
komplek housing,Perhimpunan Pengembang Perumahan,Ketahananpangan,"Jl. Beringin 4 No.53, RT.03/RW.01, Selumit Pantai, Kec. Tarakan Tengah, Kota Tarakan, Kalimantan Utara 77113","RT.03/RW.01, Selumit Pantai, Kec. Tarakan Tengah, Kota Tarakan",KALIMANTAN UTARA,77113.0,Indonesia,,,,3.294756,117.58591,https://maps.google.com/?cid=0x0:0xb04c2435252d77d5,
komplek housing,Komplek perumahan,My Home AECLASS,"Jl. Gn. Kerinci RT.8 No.39kel, RW.RW, Kp. Enam, Kec. Tarakan Tim., Kota Tarakan, Kalimantan Utara 77113","RW.RW, Kp. Enam, Kec. Tarakan Tim., Kota Tarakan",KALIMANTAN UTARA,77113.0,Indonesia,,,,3.308909,117.624812,https://maps.google.com/?cid=0x0:0x1eec831ecd5689eb,
komplek housing,Pembangunan Perumahan,Kontrakan Borneo,"Jl. Ppabri No.34, RT.XIX, Kp. Satu Skip, Kec. Tarakan Tengah, Kota Tarakan, Kalimantan Utara 77113","RT.XIX, Kp. Satu Skip, Kec. Tarakan Tengah, Kota Tarakan",KALIMANTAN UTARA,77113.0,Indonesia,,,,3.3252701,117.6071006,https://maps.google.com/?cid=0x0:0xb15b851bd18cf,
komplek housing,Komplek perumahan,Rumah Pak Edi Lubis,"Jl. Ppabri No.34, RT.XIX, Kp. Satu Skip, Kec. Tarakan Tengah, Kota Tarakan, Kalimantan Utara 77113","RT.XIX, Kp. Satu Skip, Kec. Tarakan Tengah, Kota Tarakan",KALIMANTAN UTARA,77113.0,Indonesia,,,,3.3250536,117.6071566,https://maps.google.com/?cid=0x0:0x71b172908aeb1f54,
komplek housing,Komplek perumahan,Alamat Rumdis,"Jl. Teuku Umar No.21, Pamusian, Kec. Tarakan Tengah, Kota Tarakan, Kalimantan Utara 77113","Pamusian, Kec. Tarakan Tengah, Kota Tarakan",KALIMANTAN UTARA,77113.0,Indonesia,,,,3.3078539,117.6013683,https://maps.google.com/?cid=0x0:0xa639618c42a35a5b,
komplek housing,Komplek perumahan,Selumit pantai,"Unnamed Road, Selumit Pantai, Kec. Tarakan Tengah, Kota Tarakan, Kalimantan Utara","Kota Tarakan, Kalimantan Utara",KALIMANTAN UTARA,,Indonesia,,,,3.2992736,117.5804979,https://maps.google.com/?cid=0x0:0x750039395d12db70,
komplek housing,Komplek perumahan,Little Rainbow41,"Pepabri, Gang Asoka No.RT 12, Kampung Satu Skip, Tarakan Tengah, Tarakan City, North Kalimantan 77113","Gang Asoka No.RT 12, Kampung Satu Skip, Tarakan Tengah, Tarakan City",KALIMANTAN UTARA,77113.0,Indonesia,82187076969.0,,,3.3235806,117.6072246,https://maps.google.com/?cid=0x0:0x1b58fea0a336f4f,
komplek housing,Komplek perumahan,Bola to salubarani,"Jl. Tanah Merah No.27, RT.015/RW.002, Kp. Satu Skip, Kec. Tarakan Tengah, Kota Tarakan, Kalimantan Utara 77113","RT.015/RW.002, Kp. Satu Skip, Kec. Tarakan Tengah, Kota Tarakan",KALIMANTAN UTARA,77113.0,Indonesia,,,,3.318698,117.612142,https://maps.google.com/?cid=0x0:0x2fdade6a6c94430f,
komplek housing,Kompleks Apartemen,Beringin,"7HWP+29R, Jl. Beringin 4, Selumit Pantai, Kec. Tarakan Tengah, Kota Tarakan, Kalimantan Utara","Kota Tarakan, Kalimantan Utara",KALIMANTAN UTARA,,Indonesia,,,,3.295101,117.5858836,https://maps.google.com/?cid=0x0:0xb24c4aaf543cc3b7,
komplek housing,Komplek perumahan,Rumah Rio,"Jl. Ladang Dalam No.97a, Karang Anyar, Kec. Tarakan Bar., Kota Tarakan, Kalimantan Utara 77113","Karang Anyar, Kec. Tarakan Bar., Kota Tarakan",KALIMANTAN UTARA,77113.0,Indonesia,,,,3.3184306,117.5987432,https://maps.google.com/?cid=0x0:0x2de5859df0d19c8c,
komplek housing,Perusahaan Konstruksi,Bumix,"9H3F+687, Juata Kerikil, Kec. Tarakan Utara, Kota Tarakan, Kalimantan Utara","Kota Tarakan, Kalimantan Utara",KALIMANTAN UTARA,,Indonesia,,,,3.3530383,117.5732977,https://maps.google.com/?cid=0x0:0x73c3927013ba0475,
komplek housing,Komplek perumahan,Rumah Kaca JB,"jl. kh. ahmad dahlan No.42, RT.28/RW.09, Sebengkok, Kec. Tarakan Tengah, Kota Tarakan, Kalimantan Utara 77113","RT.28/RW.09, Sebengkok, Kec. Tarakan Tengah, Kota Tarakan",KALIMANTAN UTARA,77113.0,Indonesia,,,,3.3006517,117.5979468,https://maps.google.com/?cid=0x0:0xf9d509cb7d2edf1f,
komplek housing,Komplek perumahan,Rumah Dinas Kepala Kantor Imigrasi Tarakan,"8J54+9QR, Pamusian, Kec. Tarakan Tengah, Kota Tarakan, Kalimantan Utara 77113","Pamusian, Kec. Tarakan Tengah, Kota Tarakan",KALIMANTAN UTARA,77113.0,Indonesia,,,,3.3085137,117.606781,https://maps.google.com/?cid=0x0:0x54efc5a132180bc8,
komplek housing,Otoritas Perumahan,Perumahan bukit indah pasir putih,"8HJJ+7PP, Jl. Lili 2, Karang Anyar, Kec. Tarakan Bar., Kota Tarakan, Kalimantan Utara","Kota Tarakan, Kalimantan Utara",KALIMANTAN UTARA,,Indonesia,,,,3.3307045,117.581825,https://maps.google.com/?cid=0x0:0xbd1dead326d5f318,
komplek housing,Komplek perumahan,kost zainuri,"Jl. Ladang Dalam No.97a, Karang Anyar, Kec. Tarakan Bar., Kota Tarakan, Kalimantan Utara 77113","Karang Anyar, Kec. Tarakan Bar., Kota Tarakan",KALIMANTAN UTARA,77113.0,Indonesia,,,,3.3184651,117.5987955,https://maps.google.com/?cid=0x0:0xff7b848882055653,
komplek housing,komplek housing,Kec. Tarakan Tengah,"Kota Tarakan, Kalimantan Utara","Kota Tarakan, Kalimantan Utara",KALIMANTAN UTARA,,Indonesia,,,,3.308624,117.6011279,https://maps.google.com/?cid=0x0:0x52939c57e2b14b75,
komplek housing,Asosiasi/organisasi,Seketariat Laung Kuning Banjar Dpc Tarakan,"Jl.Ppbri, Gg. Syukur kp No.2, RT.18/RW.kel, 1 skip, Kec. Tarakan Tengah, Kota Tarakan, Kalimantan Utara 77114","Gg. Syukur kp No.2, RT.18/RW.kel, 1 skip, Kec. Tarakan Tengah, Kota Tarakan",KALIMANTAN UTARA,77114.0,Indonesia,,,,3.3151928,117.5849154,https://maps.google.com/?cid=0x0:0x4c6f99c53190e70d,
komplek housing,Komplek perumahan,MUNIRAH,"Perumahan H. Amir Jl Gang Jl. Nipah Indah RT.17, RW No.177, Karang Anyar Pantai, Kec. Tarakan Bar., Kota Tarakan, Kalimantan Utara 77114","RW No.177, Karang Anyar Pantai, Kec. Tarakan Bar., Kota Tarakan",KALIMANTAN UTARA,77114.0,Indonesia,,,,3.3188554,117.573562,https://maps.google.com/?cid=0x0:0x3098d1e1e0678233,
komplek housing,komplek housing,Kec. Tarakan Tim.,"Kota Tarakan, Kalimantan Utara","Kota Tarakan, Kalimantan Utara",KALIMANTAN UTARA,,Indonesia,,,,3.3018342,117.62185,https://maps.google.com/?cid=0x0:0x57d2af2857b49049,
komplek housing,Otoritas Perumahan,Perumahan bukit indah pasir putih,"8HJJ+7PP, Jl. Lili 2, Karang Anyar, Kec. Tarakan Bar., Kota Tarakan, Kalimantan Utara","Kota Tarakan, Kalimantan Utara",KALIMANTAN UTARA,,Indonesia,,,,3.3307045,117.581825,https://maps.google.com/?cid=0x0:0xbd1dead326d5f318,
komplek housing,Rumah wisata,Homestay 77 Tarakan,"Jl. Pulau Banda No.45, Kp. Satu Skip, Kec. Tarakan Tengah, Kota Tarakan, Kalimantan Utara 77113","Kp. Satu Skip, Kec. Tarakan Tengah, Kota Tarakan",KALIMANTAN UTARA,77113.0,Indonesia,82352445812.0,,,3.3160746,117.6108726,https://maps.google.com/?cid=0x0:0x2f004d01e200b8de,
komplek housing,Agen Properti,GRIYA ALAM JUATA,"9HQ2+5P5, Juata Kerikil, Kec. Tarakan Utara, Kota Tarakan, Kalimantan Utara","Kota Tarakan, Kalimantan Utara",KALIMANTAN UTARA,,Indonesia,,,,3.3878987,117.5518551,https://maps.google.com/?cid=0x0:0x89a228438b8f4238,
komplek housing,Kompleks Bangunan Perusahaan,Juata kopri,"9HG2+585, Jl. Pangeran Aji Iskandar, Juata Permai, Kec. Tarakan Utara, Kota Tarakan, Kalimantan Utara","Kota Tarakan, Kalimantan Utara",KALIMANTAN UTARA,,Indonesia,,,,3.3753959,117.5508534,https://maps.google.com/?cid=0x0:0xe8579b08b3267f6d,
komplek housing,Komplek perumahan,Perumahan TKBM SEI Bengawan,"9GCQ+QJ6, Jl. Sei Bengawan, Juata Permai, Kec. Tarakan Utara, Kota Tarakan, Kalimantan Utara","Kota Tarakan, Kalimantan Utara",KALIMANTAN UTARA,,Indonesia,,,,3.3719095,117.5390066,https://maps.google.com/?cid=0x0:0x18002722575bf6cf,
komplek housing,komplek housing,Tarakan,"Kota Tarakan, Kalimantan Utara","Kota Tarakan, Kalimantan Utara",KALIMANTAN UTARA,,Indonesia,,,,3.3273599,117.5785049,https://maps.google.com/?cid=0x0:0xe8d9849640f31b7e,
komplek housing,komplek housing,Kec. Tarakan Tim.,"Kota Tarakan, Kalimantan Utara","Kota Tarakan, Kalimantan Utara",KALIMANTAN UTARA,,Indonesia,,,,3.3018342,117.62185,https://maps.google.com/?cid=0x0:0x57d2af2857b49049,
komplek housing,Komplek perumahan,Rumah Mul√®,"Jl. Gn. Sepuluh Gg. Semenisasi No.RT. IV, Kp. Enam, Kec. Tarakan Tim., Kota Tarakan, Kalimantan Utara 77123","Kp. Enam, Kec. Tarakan Tim., Kota Tarakan",KALIMANTAN UTARA,77123.0,Indonesia,,,,3.3107833,117.6225555,https://maps.google.com/?cid=0x0:0x402092b9df501a46,
komplek housing,Komplek perumahan,Bangkit Bersatu Bersama,"Kode Pos 77123, Jl. Gn. Amal Gang Sapto Amal No.RT.15, Kp. Enam, Kec. Tarakan Tim., Kota Tarakan, Kalimantan Utara","Kota Tarakan, Kalimantan Utara",KALIMANTAN UTARA,,Indonesia,,,,3.3120874,117.6353896,https://maps.google.com/?cid=0x0:0x60b80ed09ada1799,
komplek housing,Komplek perumahan,Perumahan TKBM SEI Bengawan,"9GCQ+QJ6, Jl. Sei Bengawan, Juata Permai, Kec. Tarakan Utara, Kota Tarakan, Kalimantan Utara","Kota Tarakan, Kalimantan Utara",KALIMANTAN UTARA,,Indonesia,,,,3.3719095,117.5390066,https://maps.google.com/?cid=0x0:0x18002722575bf6cf,
komplek housing,Pembangunan Perumahan,Perumahan Bengawan Indah,"9GCJ+HJ5, Jl. Bengawan, Juata Permai, Kec. Tarakan Utara, Kota Tarakan, Kalimantan Utara","Kota Tarakan, Kalimantan Utara",KALIMANTAN UTARA,,Indonesia,82213780006.0,,,3.3713924,117.5316054,https://maps.google.com/?cid=0x0:0x6bd30f458f83528b,
komplek housing,Toko bahan makanan,Halal Mart,"9GCQ+XCM, Juata Permai, Kec. Tarakan Utara, Kota Tarakan, Kalimantan Utara","Kota Tarakan, Kalimantan Utara",KALIMANTAN UTARA,,Indonesia,82352799922.0,,,3.3725795,117.5383419,https://maps.google.com/?cid=0x0:0x314ae8eaf588ee4f,
komplek housing,Pembangunan Perumahan,RUMAH,"Jl. Pepaya No.48, Kp. Empat, Kec. Tarakan Tim., Kota Tarakan, Kalimantan Utara","Kota Tarakan, Kalimantan Utara",KALIMANTAN UTARA,,Indonesia,,,,3.301096,117.6275367,https://maps.google.com/?cid=0x0:0x1e1c84e56e644c80,
komplek housing,komplek housing,Kec. Tarakan Tim.,"Kota Tarakan, Kalimantan Utara","Kota Tarakan, Kalimantan Utara",KALIMANTAN UTARA,,Indonesia,,,,3.3018342,117.62185,https://maps.google.com/?cid=0x0:0x57d2af2857b49049,
komplek housing,Komplek perumahan,Kompleks Perumahan Griya Persemaian,"Karang Harapan, Kec. Tarakan Bar., Kota Tarakan, Kalimantan Utara","Kota Tarakan, Kalimantan Utara",KALIMANTAN UTARA,,Indonesia,,,,3.3521454,117.5709213,https://maps.google.com/?cid=0x0:0x74d8bb145dbc5133,
komplek housing,Komplek perumahan,Perumahan TKBM SEI Bengawan,"9GCQ+QJ6, Jl. Sei Bengawan, Juata Permai, Kec. Tarakan Utara, Kota Tarakan, Kalimantan Utara","Kota Tarakan, Kalimantan Utara",KALIMANTAN UTARA,,Indonesia,,,,3.3719095,117.5390066,https://maps.google.com/?cid=0x0:0x18002722575bf6cf,
komplek housing,Perumahan,An- Nur 2,"9H35+FWW, Jl. Reformasi, Karang Harapan, Kec. Tarakan Bar., Kota Tarakan, Kalimantan Utara","Kota Tarakan, Kalimantan Utara",KALIMANTAN UTARA,,Indonesia,,,,3.3537444,117.5598151,https://maps.google.com/?cid=0x0:0xdd3666391761306a,
komplek housing,komplek housing,Kalimantan Utara 77126,"Lingkas Ujung, Kec. Tarakan Tim., Kota Tarakan, Kalimantan Utara","Kota Tarakan, Kalimantan Utara",KALIMANTAN UTARA,,Indonesia,,,,3.2900403,117.5910732,https://maps.google.com/?cid=0x0:0xf43b1ed1f9612680,
komplek housing,Komplek perumahan,Rumah shafa,"7HRR+3WH, Lingkas Ujung, Kec. Tarakan Tim., Kota Tarakan, Kalimantan Utara","Kota Tarakan, Kalimantan Utara",KALIMANTAN UTARA,,Indonesia,,,,3.2900109,117.5925656,https://maps.google.com/?cid=0x0:0xafa3feff6a71d751,
komplek housing,Komplek perumahan,Perumahan TKBM SEI Bengawan,"9GCQ+QJ6, Jl. Sei Bengawan, Juata Permai, Kec. Tarakan Utara, Kota Tarakan, Kalimantan Utara","Kota Tarakan, Kalimantan Utara",KALIMANTAN UTARA,,Indonesia,,,,3.3719095,117.5390066,https://maps.google.com/?cid=0x0:0x18002722575bf6cf,
komplek housing,Komplek perumahan,home singke,"Lingkas ujung RT.10, RT.No.62/RW.003, 77126","Kota Tarakan, Kalimantan Utara",KALIMANTAN UTARA,,Indonesia,,,,3.2864151,117.5986806,https://maps.google.com/?cid=0x0:0x1144cb29256eaaf1,
komplek housing,Komplek perumahan,rumah zara,"Jl. Tengkawang No.120, Gn. Lingkas, Kec. Tarakan Tim., Kota Tarakan, Kalimantan Utara 77126","Gn. Lingkas, Kec. Tarakan Tim., Kota Tarakan",KALIMANTAN UTARA,77126.0,Indonesia,,,,3.2917295,117.5937681,https://maps.google.com/?cid=0x0:0x6b9df098e1ace717,
komplek housing,Komplek perumahan,Perumahan,"Jl. Kusuma Bangsa Gg. Jaksa Thamrin No.B7, Pamusian, Kec. Tarakan Tengah, Kota Tarakan, Kalimantan Utara 77126","Pamusian, Kec. Tarakan Tengah, Kota Tarakan",KALIMANTAN UTARA,77126.0,Indonesia,,,,3.2982699,117.6058615,https://maps.google.com/?cid=0x0:0xe4f87568e2ec7b62,
komplek housing,Pembangunan Perumahan,Kuffa,"Jl. Tengkawang No.120, Gn. Lingkas, Kec. Tarakan Tim., Kota Tarakan, Kalimantan Utara 77126","Gn. Lingkas, Kec. Tarakan Tim., Kota Tarakan",KALIMANTAN UTARA,77126.0,Indonesia,,,,3.2918162,117.5933265,https://maps.google.com/?cid=0x0:0x2ade8ea3cd23da9e,
komplek housing,Komplek perumahan,Rumah,"Jl. Cendana No.60, Gn. Lingkas, Kec. Tarakan Tim., Kota Tarakan, Kalimantan Utara 77126","Gn. Lingkas, Kec. Tarakan Tim., Kota Tarakan",KALIMANTAN UTARA,77126.0,Indonesia,,,,3.2856187,117.598017,https://maps.google.com/?cid=0x0:0x64f082daf179fc08,
komplek housing,Pembangunan Perumahan,Suryatno,"Jl. Kusuma Bangsa Jl. Agatis No.133, RT.01/RW.01, Gn. Lingkas, Kec. Tarakan Tim., Kota Tarakan, Kalimantan Utara 77126","RT.01/RW.01, Gn. Lingkas, Kec. Tarakan Tim., Kota Tarakan",KALIMANTAN UTARA,77126.0,Indonesia,,,,3.2904491,117.5942924,https://maps.google.com/?cid=0x0:0x1ae9c105a393464a,
komplek housing,Komplek perumahan,Sampara (Muhammad Ghazali),"Jl. Cendana No.49, Lingkas Ujung, Kec. Tarakan Tim., Kota Tarakan, Kalimantan Utara 77126","Lingkas Ujung, Kec. Tarakan Tim., Kota Tarakan",KALIMANTAN UTARA,77126.0,Indonesia,,,,3.28634,117.598108,https://maps.google.com/?cid=0x0:0xf3241f3f9304866,
komplek housing,Komplek perumahan,Dreambox_studiokaltara,"Jl. Kusuma Bangsa Gg. Jaksa Thamrin No.B7, Pamusian, Kec. Tarakan Tengah, Kota Tarakan, Kalimantan Utara 77126","Pamusian, Kec. Tarakan Tengah, Kota Tarakan",KALIMANTAN UTARA,77126.0,Indonesia,,,,3.29827,117.605861,https://maps.google.com/?cid=0x0:0xa238fe5ab65b1bca,
komplek housing,komplek housing,Rumah dinas babinsa,"Jl. Kusuma Bangsa No.42, RT.4, Gn. Lingkas, Kec. Tarakan Tengah, Kota Tarakan, Kalimantan Utara 77126","RT.4, Gn. Lingkas, Kec. Tarakan Tengah, Kota Tarakan",KALIMANTAN UTARA,77126.0,Indonesia,,,,3.295405,117.5901031,https://maps.google.com/?cid=0x0:0xf8b0481d088ff3d1,
komplek housing,komplek housing,Kec. Tarakan Utara,"Kota Tarakan, Kalimantan Utara","Kota Tarakan, Kalimantan Utara",KALIMANTAN UTARA,,Indonesia,,,,3.3796258,117.5496105,https://maps.google.com/?cid=0x0:0xb014dac18351b1,
komplek housing,Komplek perumahan,Jln angsa rawa rt14 intraca juata permai tarakan utara,"Jl. Angsa Rawa No.80, RT.14/RW/RW.No.80, Juata Permai, Kec. Tarakan Utara, Kota Tarakan, Kalimantan Utara 77116","RT.14/RW/RW.No.80, Juata Permai, Kec. Tarakan Utara, Kota Tarakan",KALIMANTAN UTARA,77116.0,Indonesia,,,,3.3615845,117.5410883,https://maps.google.com/?cid=0x0:0xff22092306589cd9,
komplek housing,Masjid,Kompleks Perumahan Korpri Juata Permai,"Perumahan PNS Tarakan/kalimantan utara, Kalimantan Utara","Kota Tarakan, Kalimantan Utara",KALIMANTAN UTARA,,Indonesia,82253581038.0,,,3.3792089,117.5319733,https://maps.google.com/?cid=0x0:0x57ba00aab8b97e6c,
komplek housing,Masjid,Rumah ipa,"Perumahan PNS Blok D No 548, Juata Permai, Kec. Tarakan Utara, Kota Tarakan, Kalimantan Utara 77116","Juata Permai, Kec. Tarakan Utara, Kota Tarakan",KALIMANTAN UTARA,77116.0,Indonesia,,,,3.3837449,117.5313396,https://maps.google.com/?cid=0x0:0x72a41211306fa2ea,
komplek housing,Masjid,Bundaran perum pns,"9GMQ+Q98, Perum Perumnas, Juata Permai, Tarakan Utara, Tarakan City, North Kalimantan","Kota Tarakan, Kalimantan Utara",KALIMANTAN UTARA,,Indonesia,,,,3.3844223,117.5384488,https://maps.google.com/?cid=0x0:0xb23839a6009e8a99,
komplek housing,Pembangunan Perumahan,RUMAH NIEL,"KODE POS 77116, Jl. Pangeran Aji Iskandar No.26, RT.19, Juata Laut, Kec. Tarakan Utara, Kota Tarakan, Kalimantan Utara","Kota Tarakan, Kalimantan Utara",KALIMANTAN UTARA,,Indonesia,,,,3.397364,117.5485504,https://maps.google.com/?cid=0x0:0x2c49971fefe625f2,
komplek housing,Komplek perumahan,Perumahan Griya Agatis Residence,"Perumahan Griya Agatis blok B1, Karang Harapan, Tarakan Barat, Tarakan City, North Kalimantan","Kota Tarakan, Kalimantan Utara",KALIMANTAN UTARA,,Indonesia,,,,3.3450497,117.5581389,https://maps.google.com/?cid=0x0:0xbee0d5a13656cb5b,
komplek housing,Komplek perumahan,Alam Ageng Residence 1,"9GCR+P9P, Juata Permai, Kec. Tarakan Utara, Kota Tarakan, Kalimantan Utara","Kota Tarakan, Kalimantan Utara",KALIMANTAN UTARA,,Indonesia,85326426667.0,,,3.3718353,117.5409502,https://maps.google.com/?cid=0x0:0x9949bb59a44e90ae,
komplek housing,komplek housing,Kampung 6,"8J6G+565, Jl. Gn. Kerinci, RT.9/RW.nomor 39, Kp. Enam, Kec. Tarakan Tim., Kota Tarakan, Kalimantan Utara","Kota Tarakan, Kalimantan Utara",KALIMANTAN UTARA,,Indonesia,,,,3.310383,117.6256135,https://maps.google.com/?cid=0x0:0x3fac7b03c7a5166e,
komplek housing,Pembangunan Perumahan,Perumahan Bukit Indah Tarakan,"8HW6+5FX, Karang Harapan, Kec. Tarakan Bar., Kota Tarakan, Kalimantan Utara","Kota Tarakan, Kalimantan Utara",KALIMANTAN UTARA,,Indonesia,,,,3.3454913,117.5612332,https://maps.google.com/?cid=0x0:0xaa4e021a55d6bd6a,
komplek housing,Komplek perumahan,PERUMAHAN VIOLA GRIYA ASRI 2,"Karang Harapan, Kec. Tarakan Bar., Kota Tarakan, Kalimantan Utara","Kota Tarakan, Kalimantan Utara",KALIMANTAN UTARA,,Indonesia,82296666364.0,,,3.3480386,117.5531272,https://maps.google.com/?cid=0x0:0x47e4e51afa587d60,
komplek housing,Perusahaan Konstruksi,Bumix,"9H3F+687, Juata Kerikil, Kec. Tarakan Utara, Kota Tarakan, Kalimantan Utara","Kota Tarakan, Kalimantan Utara",KALIMANTAN UTARA,,Indonesia,,,,3.3530383,117.5732977,https://maps.google.com/?cid=0x0:0x73c3927013ba0475,
komplek housing,Komplek perumahan,Hendrik Parinding,"8HV3+FWH, Karang Harapan, Kec. Tarakan Bar., Kota Tarakan, Kalimantan Utara","Kota Tarakan, Kalimantan Utara",KALIMANTAN UTARA,,Indonesia,,,,3.34594,117.5548542,https://maps.google.com/?cid=0x0:0xb19c3697a77cb35d,
perumahan,Pembangunan Perumahan,Perumahan,"9H69+H65, Karang Harapan, Kec. Tarakan Bar., Kota Tarakan, Kalimantan Utara 29783","Karang Harapan, Kec. Tarakan Bar., Kota Tarakan",KALIMANTAN UTARA,29783.0,Indonesia,,,,3.3613983,117.5681088,https://maps.google.com/?cid=0x0:0xba4a52e989c2fed6,
perumahan,Pembangunan Perumahan,Perumahan Pesona Karang Harapan,"9H28+M92, Jl. Reformasi, Karang Harapan, Kec. Tarakan Bar., Kota Tarakan, Kalimantan Utara","Kota Tarakan, Kalimantan Utara",KALIMANTAN UTARA,,Indonesia,,,,3.3516334,117.5658949,https://maps.google.com/?cid=0x0:0xf5adcaed5e70a05e,
perumahan,perumahan,Perumahan Pesona Citra Cemerlang II,"9H69+H65, Perumahan Pesona Citra Cemerlang II Blok F, No 9, Karang Harapan, Kec. Tarakan Bar., Kota Tarakan, Kalimantan Utara 29783","Perumahan Pesona Citra Cemerlang II Blok F, No 9, Karang Harapan, Kec. Tarakan Bar., Kota Tarakan",KALIMANTAN UTARA,29783.0,Indonesia,,,,3.3614326,117.56801,https://maps.google.com/?cid=0x0:0x55ba99a83a1936bd,
perumahan,Perumahan,Rumah H Sani,"Jl. Gajah Mada No.20, Karang Anyar Pantai, Kec. Tarakan Bar., Kota Tarakan, Kalimantan Utara 77111","Karang Anyar Pantai, Kec. Tarakan Bar., Kota Tarakan",KALIMANTAN UTARA,77111.0,Indonesia,,,,3.3088065,117.5823539,https://maps.google.com/?cid=0x0:0x29dd744e66311847,
perumahan,Komplek perumahan,myOmah,"8H5M+P94, Karang Anyar Pantai, Kec. Tarakan Bar., Kota Tarakan, Kalimantan Utara","Kota Tarakan, Kalimantan Utara",KALIMANTAN UTARA,,Indonesia,,,,3.3092542,117.5834641,https://maps.google.com/?cid=0x0:0x2438f37ffd907322,
perumahan,perumahan,Graha nawacita 1,"8H5M+P94, Q9H22+QP7Karang HarapanKec, Kec. Tarakan Bar., Kota Tarakan, Kalimantan Utara","Kota Tarakan, Kalimantan Utara",KALIMANTAN UTARA,,Indonesia,,,,3.3092542,117.5834641,https://maps.google.com/?cid=0x0:0x78d6f86baca1ff57,
perumahan,Komplek perumahan,Rumah Tarakan,"8H7V+35R Bar, Karang Anyar, Kec. Tarakan Bar., Kota Tarakan, Kalimantan Utara","Kota Tarakan, Kalimantan Utara",KALIMANTAN UTARA,,Indonesia,,,,3.3127326,117.5928939,https://maps.google.com/?cid=0x0:0xdf44ad4af56deb4a,
perumahan,Pembangunan Perumahan,Rumah kembar,"Karang Rejo, Kec. Tarakan Bar., Kota Tarakan, Kalimantan Utara","Kota Tarakan, Kalimantan Utara",KALIMANTAN UTARA,,Indonesia,,,,3.3078854,117.5827536,https://maps.google.com/?cid=0x0:0x5e0bcc7458149d3e,
perumahan,Otoritas Perumahan,Perumahan bukit indah pasir putih,"8HJJ+7PP, Jl. Lili 2, Karang Anyar, Kec. Tarakan Bar., Kota Tarakan, Kalimantan Utara","Kota Tarakan, Kalimantan Utara",KALIMANTAN UTARA,,Indonesia,,,,3.3307045,117.581825,https://maps.google.com/?cid=0x0:0xbd1dead326d5f318,
perumahan,Komplek perumahan,Alam Ageng Residence 1,"9GCR+P9P, Juata Permai, Kec. Tarakan Utara, Kota Tarakan, Kalimantan Utara","Kota Tarakan, Kalimantan Utara",KALIMANTAN UTARA,,Indonesia,85326426667.0,,,3.3718353,117.5409502,https://maps.google.com/?cid=0x0:0x9949bb59a44e90ae,
perumahan,Pembangunan Perumahan,Tirtama Regancy,"8H5M+P94, RT.66, Gang Rengas, Kec. Tarakan Bar., Kota Tarakan, Kalimantan Utara","Kota Tarakan, Kalimantan Utara",KALIMANTAN UTARA,,Indonesia,,,,3.3092542,117.5834641,https://maps.google.com/?cid=0x0:0x95b7f650f2cd395e,
perumahan,perumahan,Kalimantan Utara 77112,"Karang Balik, Kec. Tarakan Bar., Kota Tarakan, Kalimantan Utara","Kota Tarakan, Kalimantan Utara",KALIMANTAN UTARA,,Indonesia,,,,3.306797,117.590528,https://maps.google.com/?cid=0x0:0x1470b76b4da93f75,
perumahan,Komplek perumahan,Kompleks Perumahan Griya Persemaian,"Karang Harapan, Kec. Tarakan Bar., Kota Tarakan, Kalimantan Utara","Kota Tarakan, Kalimantan Utara",KALIMANTAN UTARA,,Indonesia,,,,3.3521454,117.5709213,https://maps.google.com/?cid=0x0:0x74d8bb145dbc5133,
perumahan,Pembangunan Perumahan,Perumahan baiti jannati 1,"8H96+HHR, Karang Anyar Pantai, Kec. Tarakan Bar., Kota Tarakan, Kalimantan Utara","Kota Tarakan, Kalimantan Utara",KALIMANTAN UTARA,,Indonesia,,,,3.3189848,117.5613756,https://maps.google.com/?cid=0x0:0x9bc00704268b322,
perumahan,Perumahan,Perumahan Cahaya Nawacita,"8HW6+JGV, Karang Harapan, Kec. Tarakan Bar., Kota Tarakan, Kalimantan Utara","Kota Tarakan, Kalimantan Utara",KALIMANTAN UTARA,,Indonesia,,,,3.3476717,117.5603943,https://maps.google.com/?cid=0x0:0xba80640ca1ccb20d,
perumahan,Pembangunan Perumahan,Rumah Ayira  Arya,"Jl. Swarga No.107, Karang Balik, Kec. Tarakan Bar., Kota Tarakan, Kalimantan Utara 77112","Karang Balik, Kec. Tarakan Bar., Kota Tarakan",KALIMANTAN UTARA,77112.0,Indonesia,,,,3.3060438,117.5906294,https://maps.google.com/?cid=0x0:0xd6dc962c18a2b958,
perumahan,Komplek perumahan,Perumahan AAHIl KOMERING,"8HV4+Q94, Karang Harapan, Kec. Tarakan Bar., Kota Tarakan, Kalimantan Utara","Kota Tarakan, Kalimantan Utara",KALIMANTAN UTARA,,Indonesia,,,,3.344393,117.5559419,https://maps.google.com/?cid=0x0:0x739cac77123387f6,
perumahan,Komplek perumahan,A1,"8H4Q+5C6, Karang Balik, Kec. Tarakan Bar., Kota Tarakan, Kalimantan Utara","Kota Tarakan, Kalimantan Utara",KALIMANTAN UTARA,,Indonesia,,,,3.3054194,117.5885009,https://maps.google.com/?cid=0x0:0xf222e897fc92e6a5,
perumahan,Pembangunan Perumahan,Borneo Tirto Umbara,"8H4Q+58G, Unnamed Road, Karang Balik, Tarakan Barat, Tarakan City, North Kalimantan","Kota Tarakan, Kalimantan Utara",KALIMANTAN UTARA,,Indonesia,,,,3.3054454,117.5883272,https://maps.google.com/?cid=0x0:0xc67addfa04864c3b,
perumahan,Masjid,Kompleks Perumahan Korpri Juata Permai,"Perumahan PNS Tarakan/kalimantan utara, Kalimantan Utara","Kota Tarakan, Kalimantan Utara",KALIMANTAN UTARA,,Indonesia,82253581038.0,,,3.3792089,117.5319733,https://maps.google.com/?cid=0x0:0x57ba00aab8b97e6c,
perumahan,Komplek perumahan,Rumah Tarakan,"8H7V+35R Bar, Karang Anyar, Kec. Tarakan Bar., Kota Tarakan, Kalimantan Utara","Kota Tarakan, Kalimantan Utara",KALIMANTAN UTARA,,Indonesia,,,,3.3127326,117.5928939,https://maps.google.com/?cid=0x0:0xdf44ad4af56deb4a,
perumahan,Komplek perumahan,Rumah mas otok,"8H5Q+253, Jl. Dr. Sutomo, Karang Balik, Kec. Tarakan Bar., Kota Tarakan, Kalimantan Utara","Kota Tarakan, Kalimantan Utara",KALIMANTAN UTARA,,Indonesia,,,,3.3074267,117.5879754,https://maps.google.com/?cid=0x0:0xb68f95b79972ddb5,
perumahan,,Tri yuliati,"Jl. Lembaga No.14, RT.04, Karang Balik, Kec. Tarakan Bar., Kota Tarakan, Kalimantan Utara","Kota Tarakan, Kalimantan Utara",KALIMANTAN UTARA,,Indonesia,85247308308.0,,,3.3072186,117.5894192,https://maps.google.com/?cid=0x0:0xd270310a3794841d,
perumahan,Komplek perumahan,Alam Ageng Residence 1,"9GCR+P9P, Juata Permai, Kec. Tarakan Utara, Kota Tarakan, Kalimantan Utara","Kota Tarakan, Kalimantan Utara",KALIMANTAN UTARA,,Indonesia,85326426667.0,,,3.3718353,117.5409502,https://maps.google.com/?cid=0x0:0x9949bb59a44e90ae,
perumahan,Komplek perumahan,Perumahan,"8GXQ+VM, Karang Harapan, Kec. Tarakan Bar., Kota Tarakan, Kalimantan Utara","Kota Tarakan, Kalimantan Utara",KALIMANTAN UTARA,,Indonesia,,,,3.3496604,117.5392101,https://maps.google.com/?cid=0x0:0x52d7e8096941ad78,
perumahan,Pembangunan Perumahan,PT.ASMAUL HUSNAH TARAKAN,"9G9W+2GF, Juata Permai, Kec. Tarakan Utara, Kota Tarakan, Kalimantan Utara","Kota Tarakan, Kalimantan Utara",KALIMANTAN UTARA,,Indonesia,82251335842.0,,,3.367566,117.5463015,https://maps.google.com/?cid=0x0:0xc91bb78754104b1e,
perumahan,Rumah Kayu,Kos Ibu  Om Galon,"Jl. Dr. Sutomo No.RT 02, Karang Balik, Kec. Tarakan Bar., Kota Tarakan, Kalimantan Utara","Kota Tarakan, Kalimantan Utara",KALIMANTAN UTARA,,Indonesia,85709019114.0,,,3.3063468,117.5879072,https://maps.google.com/?cid=0x0:0x3f9bc602914d5408,
perumahan,Rumah wisata,rumah,"Jl. DR. Sutomo No.59, Karang Balik, Kec. Tarakan Bar., Kota Tarakan, Kalimantan Utara","Kota Tarakan, Kalimantan Utara",KALIMANTAN UTARA,,Indonesia,,,,3.306323,117.5877401,https://maps.google.com/?cid=0x0:0x1ea6ba1d8a470d1a,
perumahan,perumahan,Karang Balik,"Kec. Tarakan Bar., Kota Tarakan, Kalimantan Utara","Kota Tarakan, Kalimantan Utara",KALIMANTAN UTARA,,Indonesia,,,,3.3064636,117.5892042,https://maps.google.com/?cid=0x0:0x5ec487a6050501e2,
perumahan,Rumah wisata,@lilacbeauty15,"Somel kampung nelayan/steleng, RT.16/RW.no 29, Karang Rejo, Kec. Tarakan Bar., Kota Tarakan, Kalimantan Utara 77112","RT.16/RW.no 29, Karang Rejo, Kec. Tarakan Bar., Kota Tarakan",KALIMANTAN UTARA,77112.0,Indonesia,82154222067.0,,,3.3067871,117.5905594,https://maps.google.com/?cid=0x0:0x820da7eebd6f650f,
perumahan,Pembangunan Perumahan,Perumahan Baiti Jannati 2,"8H97+GM8, Jl. Hasanuddin I, Karang Anyar Pantai, Kec. Tarakan Bar., Kota Tarakan, Kalimantan Utara","Kota Tarakan, Kalimantan Utara",KALIMANTAN UTARA,,Indonesia,82350337770.0,,,3.3187941,117.5642125,https://maps.google.com/?cid=0x0:0x927357b15b8da011,
perumahan,Komplek perumahan,Selumit pantai,"Unnamed Road, Selumit Pantai, Kec. Tarakan Tengah, Kota Tarakan, Kalimantan Utara","Kota Tarakan, Kalimantan Utara",KALIMANTAN UTARA,,Indonesia,,,,3.2992736,117.5804979,https://maps.google.com/?cid=0x0:0x750039395d12db70,
perumahan,perumahan,Kec. Tarakan Tengah,"Kota Tarakan, Kalimantan Utara","Kota Tarakan, Kalimantan Utara",KALIMANTAN UTARA,,Indonesia,,,,3.308624,117.6011279,https://maps.google.com/?cid=0x0:0x52939c57e2b14b75,
perumahan,Komplek perumahan,Kompleks Perumahan Darussalam,"8HQJ+5Q3, Jl. Pasir putih, pertigaan GG. Selatan, Karang Anyar, Kec. Tarakan Bar., Kota Tarakan, Kalimantan Utara","Kota Tarakan, Kalimantan Utara",KALIMANTAN UTARA,,Indonesia,,,,3.3378767,117.5819169,https://maps.google.com/?cid=0x0:0xb9a4834d5277f08,
perumahan,Komplek perumahan,SELUMIT RT 11,"8H2P+6RQ, Jl. Hang Tuah No.49, Selumit, Kec. Tarakan Tengah, Kota Tarakan, Kalimantan Utara 77113","Jl. Hang Tuah No.49, Selumit, Kec. Tarakan Tengah, Kota Tarakan",KALIMANTAN UTARA,77113.0,Indonesia,,,,3.3003397,117.587695,https://maps.google.com/?cid=0x0:0xd4821ec8a7743ffc,
perumahan,Perumahan,Rumah novie,"8J65+V6X, Jl gunung slipi, Kp. Satu Skip, Kec. Tarakan Tengah, Kota Tarakan, Kalimantan Utara rt8","Kota Tarakan, Kalimantan Utara",KALIMANTAN UTARA,,Indonesia,81319206122.0,,,3.3122277,117.6080947,https://maps.google.com/?cid=0x0:0x3389b1f20a08173a,
perumahan,Komplek perumahan,Rumah,"7HXW+MXJ nur hidaya, RT.002, Juata Permai, Kec. Tarakan Tengah, Kota Tarakan, Kalimantan Utara","Kota Tarakan, Kalimantan Utara",KALIMANTAN UTARA,,Indonesia,,,,3.299207,117.5973765,https://maps.google.com/?cid=0x0:0x9d0d4f0fbb1e144b,
perumahan,Kampus Asrama,TARAKAN CITY SQUARE,"Jl. Kusuma Bangsa No.31, Pamusian, Kec. Tarakan Tengah, Kota Tarakan, Kalimantan Utara","Kota Tarakan, Kalimantan Utara",KALIMANTAN UTARA,,Indonesia,82352251293.0,,,3.3046035,117.6087297,https://maps.google.com/?cid=0x0:0x5e100f1f76676927,
perumahan,Perumahan,PERUMAHAN TIRTAMALA REGENCY,"8HFJ+HJV, Karang Anyar, Kec. Tarakan Bar., Kota Tarakan, Kalimantan Utara","Kota Tarakan, Kalimantan Utara",KALIMANTAN UTARA,,Indonesia,,,,3.3239932,117.581551,https://maps.google.com/?cid=0x0:0x61880974abb5cdb7,
perumahan,Komplek perumahan,Perumahan Mutiara Regency,"8J96+FMC, Jl. Tanah Merah 2, RT.15/RW.02, Kp. Satu Skip, Kec. Tarakan Tengah, Kota Tarakan, Kalimantan Utara","Kota Tarakan, Kalimantan Utara",KALIMANTAN UTARA,,Indonesia,,,,3.318691,117.6116332,https://maps.google.com/?cid=0x0:0xbcef496013f64050,
perumahan,Gedung Apartemen,Komplek TNI AL - kampung baru,"8H5X+XFF, Pamusian, Kec. Tarakan Tengah, Kota Tarakan, Kalimantan Utara","Kota Tarakan, Kalimantan Utara",KALIMANTAN UTARA,,Indonesia,,,,3.3099477,117.5986812,https://maps.google.com/?cid=0x0:0x820f8e4a8279403e,
perumahan,Pengembang Realestat,Natura Tarakan,"Graha Natura B6, Gg. Rengas Dua, Karang Anyar, Tarakan Barat, Tarakan City, North Kalimantan","Kota Tarakan, Kalimantan Utara",KALIMANTAN UTARA,,Indonesia,81315555887.0,,,3.3240723,117.582007,https://maps.google.com/?cid=0x0:0xdc22ee682d28f9f5,
perumahan,Gedung Pertemuan,Paguntaka Residence,"8J53+833, Pamusian, Kec. Tarakan Tengah, Kota Tarakan, Kalimantan Utara","Kota Tarakan, Kalimantan Utara",KALIMANTAN UTARA,,Indonesia,,,,3.3084074,117.6028936,https://maps.google.com/?cid=0x0:0x9d5a894ff7f4e4b3,
perumahan,Komplek perumahan,Shahaba Residence Tarakan,"8HGG+9RW, Jl. Mulawarman, Karang Anyar, Kec. Tarakan Bar., Kota Tarakan, Kalimantan Utara","Kota Tarakan, Kalimantan Utara",KALIMANTAN UTARA,,Indonesia,81586167759.0,,,3.3259954,117.5770932,https://maps.google.com/?cid=0x0:0x2d380af2381d3424,
perumahan,Komplek perumahan,Alam Ageng Residence 1,"9GCR+P9P, Juata Permai, Kec. Tarakan Utara, Kota Tarakan, Kalimantan Utara","Kota Tarakan, Kalimantan Utara",KALIMANTAN UTARA,,Indonesia,85326426667.0,,,3.3718353,117.5409502,https://maps.google.com/?cid=0x0:0x9949bb59a44e90ae,
perumahan,Kantor Pemerintah,Rumah Dinas 1 KPKNL Tarakan,"8J54+525, Jl. P. Sumatera, Pamusian, Kec. Tarakan Tengah, Kota Tarakan, Kalimantan Utara","Kota Tarakan, Kalimantan Utara",KALIMANTAN UTARA,,Indonesia,,,,3.3078874,117.6051207,https://maps.google.com/?cid=0x0:0x9f4b22e2bc9502a1,
perumahan,Perhimpunan Pengembang Perumahan,Rumah Kembar 3,"Jl. Danau Jempang No.28, Pamusian, Kec. Tarakan Tengah, Kota Tarakan, Kalimantan Utara","Kota Tarakan, Kalimantan Utara",KALIMANTAN UTARA,,Indonesia,,,,3.3117691,117.5960573,https://maps.google.com/?cid=0x0:0x87b31ee8c630c0f9,
perumahan,Komplek perumahan,Selumit pantai,"Unnamed Road, Selumit Pantai, Kec. Tarakan Tengah, Kota Tarakan, Kalimantan Utara","Kota Tarakan, Kalimantan Utara",KALIMANTAN UTARA,,Indonesia,,,,3.2992736,117.5804979,https://maps.google.com/?cid=0x0:0x750039395d12db70,
perumahan,Komplek perumahan,Rumah Rifky,"8J23+8F3, Pamusian, Kec. Tarakan Tengah, Kota Tarakan, Kalimantan Utara","Kota Tarakan, Kalimantan Utara",KALIMANTAN UTARA,,Indonesia,,,,3.3007663,117.6036728,https://maps.google.com/?cid=0x0:0xd6b9b2ea14147ba1,
perumahan,Komplek perumahan,Pondok Cendana,"Jl. Cendana, Sebengkok, Kec. Tarakan Tengah, Kota Tarakan, Kalimantan Utara","Kota Tarakan, Kalimantan Utara",KALIMANTAN UTARA,,Indonesia,,,,3.3046617,117.5929993,https://maps.google.com/?cid=0x0:0x2a1feb80546518b3,
perumahan,Komplek perumahan,rumah Haura,"8H6V+CC3, Pamusian, Kec. Tarakan Tengah, Kota Tarakan, Kalimantan Utara","Kota Tarakan, Kalimantan Utara",KALIMANTAN UTARA,,Indonesia,,,,3.3114317,117.5935243,https://maps.google.com/?cid=0x0:0x61b4981bc67b532d,
perumahan,Komplek perumahan,Palma Park Residence,"8HHJ+35F, Jl. Cemp., Karang Anyar, Kec. Tarakan Bar., Kota Tarakan, Kalimantan Utara 77111","Jl. Cemp., Karang Anyar, Kec. Tarakan Bar., Kota Tarakan",KALIMANTAN UTARA,77111.0,Indonesia,82125444028.0,,,3.3277704,117.5805355,https://maps.google.com/?cid=0x0:0x5232b3e0c4e423e0,
perumahan,Pembangunan Perumahan,Perumahan Syukur,"8JF2+XQ8, Jl. Ppabri, Kp. Satu Skip, Kec. Tarakan Tengah, Kota Tarakan, Kalimantan Utara","Kota Tarakan, Kalimantan Utara",KALIMANTAN UTARA,,Indonesia,,,,3.3248239,117.6018898,https://maps.google.com/?cid=0x0:0x53d6779b62b38a5f,
perumahan,Perumahan,Perumahan Jemmy,"8JF3+P36, Kp. Satu Skip, Kec. Tarakan Tengah, Kota Tarakan, Kalimantan Utara","Kota Tarakan, Kalimantan Utara",KALIMANTAN UTARA,,Indonesia,,,,3.3239587,117.6020668,https://maps.google.com/?cid=0x0:0xcee0cf0711fc1ae5,
perumahan,Komplek perumahan,Rumah Oby,"8JG2+2HM, Jl. Ppabri Gang Syukur II, Kp. Satu Skip, Kec. Tarakan Tengah, Kota Tarakan, Kalimantan Utara","Kota Tarakan, Kalimantan Utara",KALIMANTAN UTARA,,Indonesia,,,,3.32508,117.6014117,https://maps.google.com/?cid=0x0:0xb7a81837909d05a,
perumahan,Komplek perumahan,Rumah Hazrah,"7HWW+XVW, Sebengkok, Kec. Tarakan Tengah, Kota Tarakan, Kalimantan Utara","Kota Tarakan, Kalimantan Utara",KALIMANTAN UTARA,,Indonesia,,,,3.2974934,117.5972134,https://maps.google.com/?cid=0x0:0x9b2163d44293804d,
perumahan,perumahan,TOKO YUAN JAYA,"Jl. Cendawan rt4 No.2, Selumit Pantai, Kec. Tarakan Tengah, Kota Tarakan, Kalimantan Utara 77113","Selumit Pantai, Kec. Tarakan Tengah, Kota Tarakan",KALIMANTAN UTARA,77113.0,Indonesia,,,,3.2972989,117.585361,https://maps.google.com/?cid=0x0:0x3363a1ce9bb0cf8d,
perumahan,Komplek perumahan,a,"Jl. Hang Tuah No.19, Selumit, Kec. Tarakan Tengah, Kota Tarakan, Kalimantan Utara 77113","Selumit, Kec. Tarakan Tengah, Kota Tarakan",KALIMANTAN UTARA,77113.0,Indonesia,,,,3.3000576,117.5869075,https://maps.google.com/?cid=0x0:0x4b855924454c92cb,
perumahan,Pembangunan Perumahan,Kontrakan Borneo,"Jl. Ppabri No.34, RT.XIX, Kp. Satu Skip, Kec. Tarakan Tengah, Kota Tarakan, Kalimantan Utara 77113","RT.XIX, Kp. Satu Skip, Kec. Tarakan Tengah, Kota Tarakan",KALIMANTAN UTARA,77113.0,Indonesia,,,,3.3252701,117.6071006,https://maps.google.com/?cid=0x0:0xb15b851bd18cf,
perumahan,Pembangunan Perumahan,Puput,"8H2P+5V4, Jl. Hang Tuah, RT.11/RW.No. 43, Selumit, Kec. Tarakan Tengah, Kota Tarakan, Kalimantan Utara 77113","Jl. Hang Tuah, RT.11/RW.No. 43, Selumit, Kec. Tarakan Tengah, Kota Tarakan",KALIMANTAN UTARA,77113.0,Indonesia,,,,3.3003763,117.5871896,https://maps.google.com/?cid=0x0:0x3bdb8a94fbe19eea,
perumahan,Komplek perumahan,Rascal Resident,"Jl. Pepabri Gg. Bintang, RT.12/RW.No.23, Kp. Satu Skip, Kec. Tarakan Tengah, Kota Tarakan, Kalimantan Utara 77113","RT.12/RW.No.23, Kp. Satu Skip, Kec. Tarakan Tengah, Kota Tarakan",KALIMANTAN UTARA,77113.0,Indonesia,,,,3.3242185,117.6076505,https://maps.google.com/?cid=0x0:0x5432926757d416e8,
perumahan,perumahan,Tarakan,"Kota Tarakan, Kalimantan Utara","Kota Tarakan, Kalimantan Utara",KALIMANTAN UTARA,,Indonesia,,,,3.3273599,117.5785049,https://maps.google.com/?cid=0x0:0xe8d9849640f31b7e,
perumahan,Perumahan,Perumahan Griya Tenguyun Permai,"8J23+FFC, Pamusian, Kec. Tarakan Tengah, Kota Tarakan, Kalimantan Utara","Kota Tarakan, Kalimantan Utara",KALIMANTAN UTARA,,Indonesia,,,,3.301179,117.6036469,https://maps.google.com/?cid=0x0:0xd4e154434f449719,
perumahan,Komplek perumahan,Kompleks Perumahan Darussalam,"8HQJ+5Q3, Jl. Pasir putih, pertigaan GG. Selatan, Karang Anyar, Kec. Tarakan Bar., Kota Tarakan, Kalimantan Utara","Kota Tarakan, Kalimantan Utara",KALIMANTAN UTARA,,Indonesia,,,,3.3378767,117.5819169,https://maps.google.com/?cid=0x0:0xb9a4834d5277f08,
perumahan,Komplek perumahan,Shahaba Residence Tarakan,"8HGG+9RW, Jl. Mulawarman, Karang Anyar, Kec. Tarakan Bar., Kota Tarakan, Kalimantan Utara","Kota Tarakan, Kalimantan Utara",KALIMANTAN UTARA,,Indonesia,81586167759.0,,,3.3259954,117.5770932,https://maps.google.com/?cid=0x0:0x2d380af2381d3424,
perumahan,Gedung Pertemuan,Paguntaka Residence,"8J53+833, Pamusian, Kec. Tarakan Tengah, Kota Tarakan, Kalimantan Utara","Kota Tarakan, Kalimantan Utara",KALIMANTAN UTARA,,Indonesia,,,,3.3084074,117.6028936,https://maps.google.com/?cid=0x0:0x9d5a894ff7f4e4b3,
perumahan,Kampus Asrama,TARAKAN CITY SQUARE,"Jl. Kusuma Bangsa No.31, Pamusian, Kec. Tarakan Tengah, Kota Tarakan, Kalimantan Utara","Kota Tarakan, Kalimantan Utara",KALIMANTAN UTARA,,Indonesia,82352251293.0,,,3.3046035,117.6087297,https://maps.google.com/?cid=0x0:0x5e100f1f76676927,
perumahan,Perumahan,Rumah novie,"8J65+V6X, Jl gunung slipi, Kp. Satu Skip, Kec. Tarakan Tengah, Kota Tarakan, Kalimantan Utara rt8","Kota Tarakan, Kalimantan Utara",KALIMANTAN UTARA,,Indonesia,81319206122.0,,,3.3122277,117.6080947,https://maps.google.com/?cid=0x0:0x3389b1f20a08173a,
perumahan,Komplek perumahan,Sebengkok,"Jl. P. Diponegoro No.66, Sebengkok, Kec. Tarakan Tengah, Kota Tarakan, Kalimantan Utara 77111","Sebengkok, Kec. Tarakan Tengah, Kota Tarakan",KALIMANTAN UTARA,77111.0,Indonesia,,,,3.3015116,117.5937006,https://maps.google.com/?cid=0x0:0x7f44bf693af3fb8f,
perumahan,Komplek perumahan,Alam Ageng Residence 1,"9GCR+P9P, Juata Permai, Kec. Tarakan Utara, Kota Tarakan, Kalimantan Utara","Kota Tarakan, Kalimantan Utara",KALIMANTAN UTARA,,Indonesia,85326426667.0,,,3.3718353,117.5409502,https://maps.google.com/?cid=0x0:0x9949bb59a44e90ae,
perumahan,Kantor Pemerintah,Rumah Dinas 1 KPKNL Tarakan,"8J54+525, Jl. P. Sumatera, Pamusian, Kec. Tarakan Tengah, Kota Tarakan, Kalimantan Utara","Kota Tarakan, Kalimantan Utara",KALIMANTAN UTARA,,Indonesia,,,,3.3078874,117.6051207,https://maps.google.com/?cid=0x0:0x9f4b22e2bc9502a1,
perumahan,perumahan,Mess Ceria,"8H5W+WXJ, Pamusian, Kec. Tarakan Tengah, Kota Tarakan, Kalimantan Utara","Kota Tarakan, Kalimantan Utara",KALIMANTAN UTARA,,Indonesia,,,,3.3098482,117.5974037,https://maps.google.com/?cid=0x0:0x58a8e870c7766c61,
perumahan,Perumahan,PERUMAHAN TIRTAMALA REGENCY,"8HFJ+HJV, Karang Anyar, Kec. Tarakan Bar., Kota Tarakan, Kalimantan Utara","Kota Tarakan, Kalimantan Utara",KALIMANTAN UTARA,,Indonesia,,,,3.3239932,117.581551,https://maps.google.com/?cid=0x0:0x61880974abb5cdb7,
perumahan,Pengembang Realestat,Natura Tarakan,"Graha Natura B6, Gg. Rengas Dua, Karang Anyar, Tarakan Barat, Tarakan City, North Kalimantan","Kota Tarakan, Kalimantan Utara",KALIMANTAN UTARA,,Indonesia,81315555887.0,,,3.3240723,117.582007,https://maps.google.com/?cid=0x0:0xdc22ee682d28f9f5,
perumahan,Komplek perumahan,Pondok Cendana,"Jl. Cendana, Sebengkok, Kec. Tarakan Tengah, Kota Tarakan, Kalimantan Utara","Kota Tarakan, Kalimantan Utara",KALIMANTAN UTARA,,Indonesia,,,,3.3046617,117.5929993,https://maps.google.com/?cid=0x0:0x2a1feb80546518b3,
perumahan,Rumah Berhantu,Roemah Boendar Kota Tarakan,"Pamusian, Kec. Tarakan Tengah, Kota Tarakan, Kalimantan Utara","Kota Tarakan, Kalimantan Utara",KALIMANTAN UTARA,,Indonesia,,,,3.3113889,117.5947383,https://maps.google.com/?cid=0x0:0x74d045ea0744ba72,
perumahan,Kompleks Kondominium,Umum,"8HHH+MCJ, Karang Anyar, Kec. Tarakan Bar., Kota Tarakan, Kalimantan Utara","Kota Tarakan, Kalimantan Utara",KALIMANTAN UTARA,,Indonesia,,,,3.3292207,117.578523,https://maps.google.com/?cid=0x0:0x9647bca8c1e705a8,
perumahan,Komplek perumahan,Chriss_nda,"8J44+HH7, Pamusian, Kec. Tarakan Tengah, Kota Tarakan, Kalimantan Utara","Kota Tarakan, Kalimantan Utara",KALIMANTAN UTARA,,Indonesia,,,,3.3064102,117.606423,https://maps.google.com/?cid=0x0:0x26b2794bdc3b28e0,
perumahan,Komplek perumahan,Perumahan Pemkot 1,"8J64+GM5, Pamusian, Kec. Tarakan Tengah, Kota Tarakan, Kalimantan Utara","Kota Tarakan, Kalimantan Utara",KALIMANTAN UTARA,,Indonesia,,,,3.3112631,117.6067364,https://maps.google.com/?cid=0x0:0x8dc33d3dbb12c638,
perumahan,Komplek perumahan,Rumah Dinas Walikota Tarakan,"8J73+MP3, Jl. Pulau Kalimantan, Kp. Satu Skip, Kec. Tarakan Tengah, Kota Tarakan, Kalimantan Utara","Kota Tarakan, Kalimantan Utara",KALIMANTAN UTARA,,Indonesia,,,,3.3141304,117.6043074,https://maps.google.com/?cid=0x0:0x203b689653c2f8bd,
perumahan,Komplek perumahan,Rumah Rifky,"8J23+8F3, Pamusian, Kec. Tarakan Tengah, Kota Tarakan, Kalimantan Utara","Kota Tarakan, Kalimantan Utara",KALIMANTAN UTARA,,Indonesia,,,,3.3007663,117.6036728,https://maps.google.com/?cid=0x0:0xd6b9b2ea14147ba1,
perumahan,Pembangunan Perumahan,Perumahan Syukur,"8JF2+XQ8, Jl. Ppabri, Kp. Satu Skip, Kec. Tarakan Tengah, Kota Tarakan, Kalimantan Utara","Kota Tarakan, Kalimantan Utara",KALIMANTAN UTARA,,Indonesia,,,,3.3248239,117.6018898,https://maps.google.com/?cid=0x0:0x53d6779b62b38a5f,
perumahan,Perumahan,Perumahan Jemmy,"8JF3+P36, Kp. Satu Skip, Kec. Tarakan Tengah, Kota Tarakan, Kalimantan Utara","Kota Tarakan, Kalimantan Utara",KALIMANTAN UTARA,,Indonesia,,,,3.3239587,117.6020668,https://maps.google.com/?cid=0x0:0xcee0cf0711fc1ae5,
perumahan,Komplek perumahan,Perumahan Mutiara Regency,"8J96+FMC, Jl. Tanah Merah 2, RT.15/RW.02, Kp. Satu Skip, Kec. Tarakan Tengah, Kota Tarakan, Kalimantan Utara","Kota Tarakan, Kalimantan Utara",KALIMANTAN UTARA,,Indonesia,,,,3.318691,117.6116332,https://maps.google.com/?cid=0x0:0xbcef496013f64050,
perumahan,Komplek perumahan,Rumah eka,"Jl. Ppabri Gg. Syukur No.2, RT.18/RW.no. 251, Kp. Satu Skip, Kec. Tarakan Tengah, Kota Tarakan, Kalimantan Utara","Kota Tarakan, Kalimantan Utara",KALIMANTAN UTARA,,Indonesia,,,,3.3249649,117.6019974,https://maps.google.com/?cid=0x0:0x9cf7a8c79c9122b7,
perumahan,Komplek perumahan,rumah Haura,"8H6V+CC3, Pamusian, Kec. Tarakan Tengah, Kota Tarakan, Kalimantan Utara","Kota Tarakan, Kalimantan Utara",KALIMANTAN UTARA,,Indonesia,,,,3.3114317,117.5935243,https://maps.google.com/?cid=0x0:0x61b4981bc67b532d,
perumahan,Komplek perumahan,Rumah Hazrah,"7HWW+XVW, Sebengkok, Kec. Tarakan Tengah, Kota Tarakan, Kalimantan Utara","Kota Tarakan, Kalimantan Utara",KALIMANTAN UTARA,,Indonesia,,,,3.2974934,117.5972134,https://maps.google.com/?cid=0x0:0x9b2163d44293804d,
perumahan,perumahan,Kec. Tarakan Tengah,"Kota Tarakan, Kalimantan Utara","Kota Tarakan, Kalimantan Utara",KALIMANTAN UTARA,,Indonesia,,,,3.308624,117.6011279,https://maps.google.com/?cid=0x0:0x52939c57e2b14b75,
perumahan,Otoritas Perumahan,Kompleks Perumahan Dinas Pemerintah Kota Tarakan,"8J64+9JH, Jl. Pulau Nunukan, Pamusian, Kec. Tarakan Tengah, Kota Tarakan, Kalimantan Utara","Kota Tarakan, Kalimantan Utara",KALIMANTAN UTARA,,Indonesia,,,,3.3109323,117.6066239,https://maps.google.com/?cid=0x0:0x142bcbddc644b9ed,
perumahan,perumahan,Kec. Tarakan Tim.,"Kota Tarakan, Kalimantan Utara","Kota Tarakan, Kalimantan Utara",KALIMANTAN UTARA,,Indonesia,,,,3.3018342,117.62185,https://maps.google.com/?cid=0x0:0x57d2af2857b49049,
perumahan,Pembangunan Perumahan,Perumahan kedondong,"8J3C+6RV, Kp. Empat, Kec. Tarakan Tim., Kota Tarakan, Kalimantan Utara","Kota Tarakan, Kalimantan Utara",KALIMANTAN UTARA,,Indonesia,,,,3.3031217,117.6220486,https://maps.google.com/?cid=0x0:0xde2619386cf21301,
perumahan,Perhimpunan Pengembang Perumahan,Perumahan Ahmad Kartadi,"7JVJ+F4R, Mamburungan Tim., Kec. Tarakan Tim., Kota Tarakan, Kalimantan Utara","Kota Tarakan, Kalimantan Utara",KALIMANTAN UTARA,,Indonesia,,,,3.293728,117.6302552,https://maps.google.com/?cid=0x0:0x79bf700c2ac6edb4,
perumahan,Komplek perumahan,Rumah,"7JWH+H5J, Mamburungan Tim., Kec. Tarakan Tim., Kota Tarakan, Kalimantan Utara","Kota Tarakan, Kalimantan Utara",KALIMANTAN UTARA,,Indonesia,,,,3.2964624,117.627904,https://maps.google.com/?cid=0x0:0xd75d036a365e8452,
perumahan,Perumahan,PERUMAHAN TIRTAMALA REGENCY,"8HFJ+HJV, Karang Anyar, Kec. Tarakan Bar., Kota Tarakan, Kalimantan Utara","Kota Tarakan, Kalimantan Utara",KALIMANTAN UTARA,,Indonesia,,,,3.3239932,117.581551,https://maps.google.com/?cid=0x0:0x61880974abb5cdb7,
perumahan,Pembangunan Perumahan,Graha Dipta Regency Blok E7,"7JVG+QCV, Mamburungan Tim., Kec. Tarakan Tim., Kota Tarakan, Kalimantan Utara","Kota Tarakan, Kalimantan Utara",KALIMANTAN UTARA,,Indonesia,,,,3.293857,117.625715,https://maps.google.com/?cid=0x0:0x24eb50ba987a5f76,
perumahan,Komplek perumahan,Rumah,"7JVJ+P6V, Mamburungan, Kec. Tarakan Tim., Kota Tarakan, Kalimantan Utara","Kota Tarakan, Kalimantan Utara",KALIMANTAN UTARA,,Indonesia,,,,3.294367,117.6305582,https://maps.google.com/?cid=0x0:0x94f2a3dcb4f5bb7c,
perumahan,Komplek perumahan,Rumah Ipin,"8J4C+X8W, Kp. Enam, Kec. Tarakan Tim., Kota Tarakan, Kalimantan Utara","Kota Tarakan, Kalimantan Utara",KALIMANTAN UTARA,,Indonesia,,,,3.3074885,117.6208328,https://maps.google.com/?cid=0x0:0xab484f00e48243b1,
perumahan,Komplek perumahan,Rumah ST.SUYUDI,"7JXF+XW6, Kp. Empat, Kec. Tarakan Tim., Kota Tarakan, Kalimantan Utara","Kota Tarakan, Kalimantan Utara",KALIMANTAN UTARA,,Indonesia,,,,3.2999024,117.6247714,https://maps.google.com/?cid=0x0:0xd57d9e416b04711e,
perumahan,Komplek perumahan,RINA HOUSE,"Jl. Sei Sesayap No.81, Kp. Enam, Kec. Tarakan Tim., Kota Tarakan, Kalimantan Utara","Kota Tarakan, Kalimantan Utara",KALIMANTAN UTARA,,Indonesia,82135089565.0,,,3.3084578,117.6219209,https://maps.google.com/?cid=0x0:0x610fb1b919419e90,
perumahan,Komplek perumahan,Perumahan,"7JWF+QP3, Kp. Empat, Kec. Tarakan Tim., Kota Tarakan, Kalimantan Utara","Kota Tarakan, Kalimantan Utara",KALIMANTAN UTARA,,Indonesia,,,,3.2968935,117.6242875,https://maps.google.com/?cid=0x0:0x894dafff7206dc82,
perumahan,Komplek perumahan,Mess PJ Tarakan,"Jl. Sungai Kapuas Gang.2 No.Rt 5, Kp. Enam, Kec. Tarakan Tim., Kota Tarakan, Kalimantan Utara","Kota Tarakan, Kalimantan Utara",KALIMANTAN UTARA,,Indonesia,,,,3.3092579,117.6208631,https://maps.google.com/?cid=0x0:0x34f341477a98761,
perumahan,Pembangunan Perumahan,Kampung 6,"8J39+JHG, Jl. Padat Karya, Kp. Enam, Kec. Tarakan Tim., Kota Tarakan, Kalimantan Utara","Kota Tarakan, Kalimantan Utara",KALIMANTAN UTARA,,Indonesia,,,,3.3040668,117.6189548,https://maps.google.com/?cid=0x0:0x9063aa48fb4a15f1,
perumahan,Pengembang Realestat,Natura Tarakan,"Graha Natura B6, Gg. Rengas Dua, Karang Anyar, Tarakan Barat, Tarakan City, North Kalimantan","Kota Tarakan, Kalimantan Utara",KALIMANTAN UTARA,,Indonesia,81315555887.0,,,3.3240723,117.582007,https://maps.google.com/?cid=0x0:0xdc22ee682d28f9f5,
perumahan,Komplek perumahan,Rumah Lilis / Mugito,"Jl. Sungai Kapuas No.18, Kp. Enam, Kec. Tarakan Tim., Kota Tarakan, Kalimantan Utara","Kota Tarakan, Kalimantan Utara",KALIMANTAN UTARA,,Indonesia,,,,3.3116061,117.621483,https://maps.google.com/?cid=0x0:0x89503e55794e68af,
perumahan,Komplek perumahan,Rumah Istri Jesi Maripadang,"8HJG+3XP, Karang Anyar, Kec. Tarakan Bar., Kota Tarakan, Kalimantan Utara","Kota Tarakan, Kalimantan Utara",KALIMANTAN UTARA,,Indonesia,,,,3.3303015,117.5774298,https://maps.google.com/?cid=0x0:0x687c5e3d9c8ebe8f,
perumahan,Perhimpunan Pengembang Perumahan,Sekretariat Bersama Relawan Bencana Kota Tarakan,"Jl. Sei Sesayap, Kp. Empat, Kec. Tarakan Tim., Kota Tarakan, Kalimantan Utara","Kota Tarakan, Kalimantan Utara",KALIMANTAN UTARA,,Indonesia,82221900444.0,,,3.3014411,117.6215115,https://maps.google.com/?cid=0x0:0xc3ac0895bb31defb,
perumahan,Komplek perumahan,Bagus hanggara,"8J2H+C33, Kp. Empat, Kec. Tarakan Tim., Kota Tarakan, Kalimantan Utara","Kota Tarakan, Kalimantan Utara",KALIMANTAN UTARA,,Indonesia,,,,3.3010237,117.6276607,https://maps.google.com/?cid=0x0:0xc7bb5876807b0e84,
perumahan,Komplek perumahan,Mitha home,"8J38+3VJ, Jl. Sei Sesayap, Kp. Empat, Kec. Tarakan Tim., Kota Tarakan, Kalimantan Utara","Kota Tarakan, Kalimantan Utara",KALIMANTAN UTARA,,Indonesia,,,,3.3027083,117.6171375,https://maps.google.com/?cid=0x0:0x53c79b65bd24fffc,
perumahan,Komplek perumahan,Rumah kost/kontrak Ozy,"Gg. Semangka No.40, Kp. Empat, Kec. Tarakan Tim., Kota Tarakan, Kalimantan Utara","Kota Tarakan, Kalimantan Utara",KALIMANTAN UTARA,,Indonesia,,,,3.3015565,117.6266994,https://maps.google.com/?cid=0x0:0x6bbcd2495f2bfe5d,
perumahan,Komplek perumahan,Rumah Cha-cha,"8J7G+F32, JL. Latimojong, RT.12/RW.no.39, Kp. Enam, Kec. Tarakan Tim., Kota Tarakan, Kalimantan Utara","Kota Tarakan, Kalimantan Utara",KALIMANTAN UTARA,,Indonesia,,,,3.313649,117.6251488,https://maps.google.com/?cid=0x0:0xaa46f42fa43bc395,
perumahan,perumahan,Rumah puput,"7JQF+8QV, Jl. Sei Mahakam, RT.09/RW.13, Mamburungan, Kec. Tarakan Tim., Kota Tarakan, Kalimantan Utara","Kota Tarakan, Kalimantan Utara",KALIMANTAN UTARA,,Indonesia,,,,3.2883595,117.6244187,https://maps.google.com/?cid=0x0:0x1803f99d20b3bee8,
perumahan,Pembangunan Perumahan,Rumah Tumbuh,"8J6F+2RQ, Kp. Enam, Kec. Tarakan Tim., Kota Tarakan, Kalimantan Utara","Kota Tarakan, Kalimantan Utara",KALIMANTAN UTARA,,Indonesia,,,,3.3100852,117.6246054,https://maps.google.com/?cid=0x0:0x27451f07e550bdbb,
perumahan,Komplek perumahan,Kompleks Perumahan Darussalam,"8HQJ+5Q3, Jl. Pasir putih, pertigaan GG. Selatan, Karang Anyar, Kec. Tarakan Bar., Kota Tarakan, Kalimantan Utara","Kota Tarakan, Kalimantan Utara",KALIMANTAN UTARA,,Indonesia,,,,3.3378767,117.5819169,https://maps.google.com/?cid=0x0:0xb9a4834d5277f08,
perumahan,Komplek perumahan,KosPakSuroso,"8J3C+PXR, Jl. Delima II, Kp. Empat, Kec. Tarakan Tim., Kota Tarakan, Kalimantan Utara","Kota Tarakan, Kalimantan Utara",KALIMANTAN UTARA,,Indonesia,,,,3.304371,117.622388,https://maps.google.com/?cid=0x0:0x126c0a7d69484bf9,
perumahan,Pembangunan Perumahan,Dewi,"7JWG+797, Jl. Sei Mahakam, Mamburungan, Kec. Tarakan Tim., Kota Tarakan, Kalimantan Utara","Kota Tarakan, Kalimantan Utara",KALIMANTAN UTARA,,Indonesia,,,,3.2956585,117.6259199,https://maps.google.com/?cid=0x0:0xf202152f0b2cced5,
perumahan,Komplek perumahan,Rumah gisel,"8J5C+W7Q, Kp. Enam, Kec. Tarakan Tim., Kota Tarakan, Kalimantan Utara","Kota Tarakan, Kalimantan Utara",KALIMANTAN UTARA,,Indonesia,,,,3.3098731,117.620792,https://maps.google.com/?cid=0x0:0x4745731f8c8f87df,
perumahan,Perumahan,Rumah,"Jl. Sei. Batu mapan No.RT. 3, Mamburungan, Kec. Tarakan Tim., Kota Tarakan, Kalimantan Utara","Kota Tarakan, Kalimantan Utara",KALIMANTAN UTARA,,Indonesia,,,,3.2960243,117.6295984,https://maps.google.com/?cid=0x0:0xf3e30144acc42e11,
perumahan,perumahan,Kec. Tarakan Tim.,"Kota Tarakan, Kalimantan Utara","Kota Tarakan, Kalimantan Utara",KALIMANTAN UTARA,,Indonesia,,,,3.3018342,117.62185,https://maps.google.com/?cid=0x0:0x57d2af2857b49049,
perumahan,Perhimpunan Pengembang Perumahan,Perumahan Ahmad Kartadi,"7JVJ+F4R, Mamburungan Tim., Kec. Tarakan Tim., Kota Tarakan, Kalimantan Utara","Kota Tarakan, Kalimantan Utara",KALIMANTAN UTARA,,Indonesia,,,,3.293728,117.6302552,https://maps.google.com/?cid=0x0:0x79bf700c2ac6edb4,
perumahan,Kantor Perusahaan,Perumnas,"8HCH+8XG, Jl. Wijaya Kusuma III, Karang Anyar, Kec. Tarakan Bar., Kota Tarakan, Kalimantan Utara","Kota Tarakan, Kalimantan Utara",KALIMANTAN UTARA,,Indonesia,,,,3.3208052,117.5799375,https://maps.google.com/?cid=0x0:0x6c6fc33aa942c732,
perumahan,Pembangunan Perumahan,Perumahan kedondong,"8J3C+6RV, Kp. Empat, Kec. Tarakan Tim., Kota Tarakan, Kalimantan Utara","Kota Tarakan, Kalimantan Utara",KALIMANTAN UTARA,,Indonesia,,,,3.3031217,117.6220486,https://maps.google.com/?cid=0x0:0xde2619386cf21301,
perumahan,Komplek perumahan,RINA HOUSE,"Jl. Sei Sesayap No.81, Kp. Enam, Kec. Tarakan Tim., Kota Tarakan, Kalimantan Utara","Kota Tarakan, Kalimantan Utara",KALIMANTAN UTARA,,Indonesia,82135089565.0,,,3.3084578,117.6219209,https://maps.google.com/?cid=0x0:0x610fb1b919419e90,
perumahan,Komplek perumahan,Rumah Ipin,"8J4C+X8W, Kp. Enam, Kec. Tarakan Tim., Kota Tarakan, Kalimantan Utara","Kota Tarakan, Kalimantan Utara",KALIMANTAN UTARA,,Indonesia,,,,3.3074885,117.6208328,https://maps.google.com/?cid=0x0:0xab484f00e48243b1,
perumahan,Komplek perumahan,Fiko,"8J4C+2P9, Kp. Empat, Kec. Tarakan Tim., Kota Tarakan, Kalimantan Utara","Kota Tarakan, Kalimantan Utara",KALIMANTAN UTARA,,Indonesia,,,,3.3050372,117.6218563,https://maps.google.com/?cid=0x0:0x1287abb7b0da50d2,
perumahan,Komplek perumahan,Perumahan,"7JWF+QP3, Kp. Empat, Kec. Tarakan Tim., Kota Tarakan, Kalimantan Utara","Kota Tarakan, Kalimantan Utara",KALIMANTAN UTARA,,Indonesia,,,,3.2968935,117.6242875,https://maps.google.com/?cid=0x0:0x894dafff7206dc82,
perumahan,Komplek perumahan,Rumah,"7JVJ+P6V, Mamburungan, Kec. Tarakan Tim., Kota Tarakan, Kalimantan Utara","Kota Tarakan, Kalimantan Utara",KALIMANTAN UTARA,,Indonesia,,,,3.294367,117.6305582,https://maps.google.com/?cid=0x0:0x94f2a3dcb4f5bb7c,
perumahan,Komplek perumahan,Rumah,"7JWH+H5J, Mamburungan Tim., Kec. Tarakan Tim., Kota Tarakan, Kalimantan Utara","Kota Tarakan, Kalimantan Utara",KALIMANTAN UTARA,,Indonesia,,,,3.2964624,117.627904,https://maps.google.com/?cid=0x0:0xd75d036a365e8452,
perumahan,Komplek perumahan,Mess PJ Tarakan,"Jl. Sungai Kapuas Gang.2 No.Rt 5, Kp. Enam, Kec. Tarakan Tim., Kota Tarakan, Kalimantan Utara","Kota Tarakan, Kalimantan Utara",KALIMANTAN UTARA,,Indonesia,,,,3.3092579,117.6208631,https://maps.google.com/?cid=0x0:0x34f341477a98761,
perumahan,Perhimpunan Pengembang Perumahan,Sekretariat Bersama Relawan Bencana Kota Tarakan,"Jl. Sei Sesayap, Kp. Empat, Kec. Tarakan Tim., Kota Tarakan, Kalimantan Utara","Kota Tarakan, Kalimantan Utara",KALIMANTAN UTARA,,Indonesia,82221900444.0,,,3.3014411,117.6215115,https://maps.google.com/?cid=0x0:0xc3ac0895bb31defb,
perumahan,Pembangunan Perumahan,Graha Dipta Regency Blok E7,"7JVG+QCV, Mamburungan Tim., Kec. Tarakan Tim., Kota Tarakan, Kalimantan Utara","Kota Tarakan, Kalimantan Utara",KALIMANTAN UTARA,,Indonesia,,,,3.293857,117.625715,https://maps.google.com/?cid=0x0:0x24eb50ba987a5f76,
perumahan,Perumahan,Rumah,"Jl. Sei. Batu mapan No.RT. 3, Mamburungan, Kec. Tarakan Tim., Kota Tarakan, Kalimantan Utara","Kota Tarakan, Kalimantan Utara",KALIMANTAN UTARA,,Indonesia,,,,3.2960243,117.6295984,https://maps.google.com/?cid=0x0:0xf3e30144acc42e11,
perumahan,Kantor Perusahaan,Base CB KUMAT,"8J5F+6G4, Jl. Gn. Sepuluh, Kp. Enam, Kec. Tarakan Tim., Kota Tarakan, Kalimantan Utara","Kota Tarakan, Kalimantan Utara",KALIMANTAN UTARA,,Indonesia,,,,3.3080043,117.6238404,https://maps.google.com/?cid=0x0:0x51372c067cf99d40,
perumahan,Perumahan,PERUMAHAN TIRTAMALA REGENCY,"8HFJ+HJV, Karang Anyar, Kec. Tarakan Bar., Kota Tarakan, Kalimantan Utara","Kota Tarakan, Kalimantan Utara",KALIMANTAN UTARA,,Indonesia,,,,3.3239932,117.581551,https://maps.google.com/?cid=0x0:0x61880974abb5cdb7,
perumahan,Komplek perumahan,Rumah Mul√®,"Jl. Gn. Sepuluh Gg. Semenisasi No.RT. IV, Kp. Enam, Kec. Tarakan Tim., Kota Tarakan, Kalimantan Utara 77123","Kp. Enam, Kec. Tarakan Tim., Kota Tarakan",KALIMANTAN UTARA,77123.0,Indonesia,,,,3.3107833,117.6225555,https://maps.google.com/?cid=0x0:0x402092b9df501a46,
perumahan,Pengembang Realestat,Natura Tarakan,"Graha Natura B6, Gg. Rengas Dua, Karang Anyar, Tarakan Barat, Tarakan City, North Kalimantan","Kota Tarakan, Kalimantan Utara",KALIMANTAN UTARA,,Indonesia,81315555887.0,,,3.3240723,117.582007,https://maps.google.com/?cid=0x0:0xdc22ee682d28f9f5,
perumahan,perumahan,Rumah AR Fadlyansyah,"8J5C+H5J, Jl. Sungai Kapuas, Kp. Enam, Kec. Tarakan Tim., Kota Tarakan, Kalimantan Utara","Kota Tarakan, Kalimantan Utara",KALIMANTAN UTARA,,Indonesia,,,,3.3089548,117.6203977,https://maps.google.com/?cid=0x0:0x2bc36bf95608ed66,
perumahan,Komplek perumahan,Rumah,"Gg. Melon 3 No.83, Kp. Empat, Kec. Tarakan Tim., Kota Tarakan, Kalimantan Utara 77124","Kp. Empat, Kec. Tarakan Tim., Kota Tarakan",KALIMANTAN UTARA,77124.0,Indonesia,,,,3.3000724,117.6249963,https://maps.google.com/?cid=0x0:0x9e47842237664685,
perumahan,Komplek perumahan,Rumah Cha-cha,"8J7G+F32, JL. Latimojong, RT.12/RW.no.39, Kp. Enam, Kec. Tarakan Tim., Kota Tarakan, Kalimantan Utara","Kota Tarakan, Kalimantan Utara",KALIMANTAN UTARA,,Indonesia,,,,3.313649,117.6251488,https://maps.google.com/?cid=0x0:0xaa46f42fa43bc395,
perumahan,Komplek perumahan,Kompleks Perumahan Darussalam,"8HQJ+5Q3, Jl. Pasir putih, pertigaan GG. Selatan, Karang Anyar, Kec. Tarakan Bar., Kota Tarakan, Kalimantan Utara","Kota Tarakan, Kalimantan Utara",KALIMANTAN UTARA,,Indonesia,,,,3.3378767,117.5819169,https://maps.google.com/?cid=0x0:0xb9a4834d5277f08,
perumahan,perumahan,Rumah puput,"7JQF+8QV, Jl. Sei Mahakam, RT.09/RW.13, Mamburungan, Kec. Tarakan Tim., Kota Tarakan, Kalimantan Utara","Kota Tarakan, Kalimantan Utara",KALIMANTAN UTARA,,Indonesia,,,,3.2883595,117.6244187,https://maps.google.com/?cid=0x0:0x1803f99d20b3bee8,
perumahan,Perhimpunan Pengembang Perumahan,Rumah ana/Ani si kembar,"8J69+F7P, Kp. Enam, Kec. Tarakan Tim., Kota Tarakan, Kalimantan Utara","Kota Tarakan, Kalimantan Utara",KALIMANTAN UTARA,,Indonesia,,,,3.3112568,117.6182162,https://maps.google.com/?cid=0x0:0x875ceb6c8ae1f7f1,
perumahan,Pembangunan Perumahan,Dewi,"7JWG+797, Jl. Sei Mahakam, Mamburungan, Kec. Tarakan Tim., Kota Tarakan, Kalimantan Utara","Kota Tarakan, Kalimantan Utara",KALIMANTAN UTARA,,Indonesia,,,,3.2956585,117.6259199,https://maps.google.com/?cid=0x0:0xf202152f0b2cced5,
perumahan,Komplek perumahan,Tempatku,"8J49+WPF, Kp. Enam, Kec. Tarakan Tim., Kota Tarakan, Kalimantan Utara","Kota Tarakan, Kalimantan Utara",KALIMANTAN UTARA,,Indonesia,,,,3.306859,117.618945,https://maps.google.com/?cid=0x0:0x58756ac950fea8f4,
perumahan,perumahan,Kalimantan Utara 77124,"Kp. Enam, Kec. Tarakan Tim., Kota Tarakan, Kalimantan Utara","Kota Tarakan, Kalimantan Utara",KALIMANTAN UTARA,,Indonesia,,,,3.3058117,117.6186481,https://maps.google.com/?cid=0x0:0xa3ef30a527393643,
perumahan,Komplek perumahan,Perumahan,"7JWF+QP3, Kp. Empat, Kec. Tarakan Tim., Kota Tarakan, Kalimantan Utara","Kota Tarakan, Kalimantan Utara",KALIMANTAN UTARA,,Indonesia,,,,3.2968935,117.6242875,https://maps.google.com/?cid=0x0:0x894dafff7206dc82,
perumahan,Kampus Asrama,TARAKAN CITY SQUARE,"Jl. Kusuma Bangsa No.31, Pamusian, Kec. Tarakan Tengah, Kota Tarakan, Kalimantan Utara","Kota Tarakan, Kalimantan Utara",KALIMANTAN UTARA,,Indonesia,82352251293.0,,,3.3046035,117.6087297,https://maps.google.com/?cid=0x0:0x5e100f1f76676927,
perumahan,Komplek perumahan,Perum Perumnas Tarakan,"8HGH+WCR, Karang Balik, Kec. Tarakan Bar., Kota Tarakan, Kalimantan Utara","Kota Tarakan, Kalimantan Utara",KALIMANTAN UTARA,,Indonesia,,,,3.3273599,117.5785049,https://maps.google.com/?cid=0x0:0x71d43b977b323879,
perumahan,Perhimpunan Pengembang Perumahan,Perumahan Tarakan City Square,"Pamusian, Kec. Tarakan Tengah, Kota Tarakan, Kalimantan Utara","Kota Tarakan, Kalimantan Utara",KALIMANTAN UTARA,,Indonesia,,,,3.3006367,117.6101948,https://maps.google.com/?cid=0x0:0x7f49114c2da2e96f,
perumahan,Komplek perumahan,Perumahan AAHIl KOMERING,"8HV4+Q94, Karang Harapan, Kec. Tarakan Bar., Kota Tarakan, Kalimantan Utara","Kota Tarakan, Kalimantan Utara",KALIMANTAN UTARA,,Indonesia,,,,3.344393,117.5559419,https://maps.google.com/?cid=0x0:0x739cac77123387f6,
perumahan,Perumahan,Kontrakan,"8J49+CM8, Jl. Padat Karya, Kp. Enam, Kec. Tarakan Tim., Kota Tarakan, Kalimantan Utara","Kota Tarakan, Kalimantan Utara",KALIMANTAN UTARA,,Indonesia,,,,3.3060927,117.619239,https://maps.google.com/?cid=0x0:0x8be5ad5c36c7cfa9,
perumahan,Komplek perumahan,Perumahan TKBM SEI Bengawan,"9GCQ+QJ6, Jl. Sei Bengawan, Juata Permai, Kec. Tarakan Utara, Kota Tarakan, Kalimantan Utara","Kota Tarakan, Kalimantan Utara",KALIMANTAN UTARA,,Indonesia,,,,3.3719095,117.5390066,https://maps.google.com/?cid=0x0:0x18002722575bf6cf,
perumahan,Otoritas Perumahan,Perumahan bukit indah pasir putih,"8HJJ+7PP, Jl. Lili 2, Karang Anyar, Kec. Tarakan Bar., Kota Tarakan, Kalimantan Utara","Kota Tarakan, Kalimantan Utara",KALIMANTAN UTARA,,Indonesia,,,,3.3307045,117.581825,https://maps.google.com/?cid=0x0:0xbd1dead326d5f318,
perumahan,Perhimpunan Pengembang Perumahan,Kontrakan S,"8J5C+P4G, Kp. Enam, Kec. Tarakan Tim., Kota Tarakan, Kalimantan Utara","Kota Tarakan, Kalimantan Utara",KALIMANTAN UTARA,,Indonesia,,,,3.3093177,117.6203199,https://maps.google.com/?cid=0x0:0x85190306d8627176,
perumahan,Perumahan,Perumahan Cahaya Nawacita,"8HW6+JGV, Karang Harapan, Kec. Tarakan Bar., Kota Tarakan, Kalimantan Utara","Kota Tarakan, Kalimantan Utara",KALIMANTAN UTARA,,Indonesia,,,,3.3476717,117.5603943,https://maps.google.com/?cid=0x0:0xba80640ca1ccb20d,
perumahan,Pembangunan Perumahan,Gang.Doery,"Mamburungan, Kec. Tarakan Tim., Kota Tarakan, Kalimantan Utara 77125","Kec. Tarakan Tim., Kota Tarakan",KALIMANTAN UTARA,77125.0,Indonesia,,,,3.2755384,117.6167635,https://maps.google.com/?cid=0x0:0x12cffd6f8c90b8c9,
perumahan,Perhimpunan Pengembang Perumahan,mambrungan,"7JC8+CRG, Mamburungan Tim., Kec. Tarakan Tim., Kota Tarakan, Kalimantan Utara","Kota Tarakan, Kalimantan Utara",KALIMANTAN UTARA,,Indonesia,,,,3.2710571,117.6170865,https://maps.google.com/?cid=0x0:0x66636e02fc47242a,
perumahan,perumahan,Kec. Tarakan Tim.,"Kota Tarakan, Kalimantan Utara","Kota Tarakan, Kalimantan Utara",KALIMANTAN UTARA,,Indonesia,,,,3.3018342,117.62185,https://maps.google.com/?cid=0x0:0x57d2af2857b49049,
perumahan,Komplek perumahan,Rumah Ipin,"8J4C+X8W, Kp. Enam, Kec. Tarakan Tim., Kota Tarakan, Kalimantan Utara","Kota Tarakan, Kalimantan Utara",KALIMANTAN UTARA,,Indonesia,,,,3.3074885,117.6208328,https://maps.google.com/?cid=0x0:0xab484f00e48243b1,
perumahan,Pembangunan Perumahan,Kampung 6,"8J39+JHG, Jl. Padat Karya, Kp. Enam, Kec. Tarakan Tim., Kota Tarakan, Kalimantan Utara","Kota Tarakan, Kalimantan Utara",KALIMANTAN UTARA,,Indonesia,,,,3.3040668,117.6189548,https://maps.google.com/?cid=0x0:0x9063aa48fb4a15f1,
perumahan,Pembangunan Perumahan,Perumahan kedondong,"8J3C+6RV, Kp. Empat, Kec. Tarakan Tim., Kota Tarakan, Kalimantan Utara","Kota Tarakan, Kalimantan Utara",KALIMANTAN UTARA,,Indonesia,,,,3.3031217,117.6220486,https://maps.google.com/?cid=0x0:0xde2619386cf21301,
perumahan,Komplek perumahan,RINA HOUSE,"Jl. Sei Sesayap No.81, Kp. Enam, Kec. Tarakan Tim., Kota Tarakan, Kalimantan Utara","Kota Tarakan, Kalimantan Utara",KALIMANTAN UTARA,,Indonesia,82135089565.0,,,3.3084578,117.6219209,https://maps.google.com/?cid=0x0:0x610fb1b919419e90,
perumahan,Komplek perumahan,Fiko,"8J4C+2P9, Kp. Empat, Kec. Tarakan Tim., Kota Tarakan, Kalimantan Utara","Kota Tarakan, Kalimantan Utara",KALIMANTAN UTARA,,Indonesia,,,,3.3050372,117.6218563,https://maps.google.com/?cid=0x0:0x1287abb7b0da50d2,
perumahan,Komplek perumahan,Rumah,"7JWH+H5J, Mamburungan Tim., Kec. Tarakan Tim., Kota Tarakan, Kalimantan Utara","Kota Tarakan, Kalimantan Utara",KALIMANTAN UTARA,,Indonesia,,,,3.2964624,117.627904,https://maps.google.com/?cid=0x0:0xd75d036a365e8452,
perumahan,Komplek perumahan,Perumahan,"7JWF+QP3, Kp. Empat, Kec. Tarakan Tim., Kota Tarakan, Kalimantan Utara","Kota Tarakan, Kalimantan Utara",KALIMANTAN UTARA,,Indonesia,,,,3.2968935,117.6242875,https://maps.google.com/?cid=0x0:0x894dafff7206dc82,
perumahan,Komplek perumahan,Rumah,"7JVJ+P6V, Mamburungan, Kec. Tarakan Tim., Kota Tarakan, Kalimantan Utara","Kota Tarakan, Kalimantan Utara",KALIMANTAN UTARA,,Indonesia,,,,3.294367,117.6305582,https://maps.google.com/?cid=0x0:0x94f2a3dcb4f5bb7c,
perumahan,Komplek perumahan,Rumah Cha-cha,"8J7G+F32, JL. Latimojong, RT.12/RW.no.39, Kp. Enam, Kec. Tarakan Tim., Kota Tarakan, Kalimantan Utara","Kota Tarakan, Kalimantan Utara",KALIMANTAN UTARA,,Indonesia,,,,3.313649,117.6251488,https://maps.google.com/?cid=0x0:0xaa46f42fa43bc395,
perumahan,Pembangunan Perumahan,Graha Dipta Regency Blok E7,"7JVG+QCV, Mamburungan Tim., Kec. Tarakan Tim., Kota Tarakan, Kalimantan Utara","Kota Tarakan, Kalimantan Utara",KALIMANTAN UTARA,,Indonesia,,,,3.293857,117.625715,https://maps.google.com/?cid=0x0:0x24eb50ba987a5f76,
perumahan,Perhimpunan Pengembang Perumahan,Sekretariat Bersama Relawan Bencana Kota Tarakan,"Jl. Sei Sesayap, Kp. Empat, Kec. Tarakan Tim., Kota Tarakan, Kalimantan Utara","Kota Tarakan, Kalimantan Utara",KALIMANTAN UTARA,,Indonesia,82221900444.0,,,3.3014411,117.6215115,https://maps.google.com/?cid=0x0:0xc3ac0895bb31defb,
perumahan,Komplek perumahan,Mess PJ Tarakan,"Jl. Sungai Kapuas Gang.2 No.Rt 5, Kp. Enam, Kec. Tarakan Tim., Kota Tarakan, Kalimantan Utara","Kota Tarakan, Kalimantan Utara",KALIMANTAN UTARA,,Indonesia,,,,3.3092579,117.6208631,https://maps.google.com/?cid=0x0:0x34f341477a98761,
perumahan,Pembangunan Perumahan,Apin,"8J5C+J2C, Kp. Enam, Kec. Tarakan Tim., Kota Tarakan, Kalimantan Utara","Kota Tarakan, Kalimantan Utara",KALIMANTAN UTARA,,Indonesia,,,,3.3090635,117.620009,https://maps.google.com/?cid=0x0:0xb063be597fc5cc45,
perumahan,Perhimpunan Pengembang Perumahan,Rumah ana/Ani si kembar,"8J69+F7P, Kp. Enam, Kec. Tarakan Tim., Kota Tarakan, Kalimantan Utara","Kota Tarakan, Kalimantan Utara",KALIMANTAN UTARA,,Indonesia,,,,3.3112568,117.6182162,https://maps.google.com/?cid=0x0:0x875ceb6c8ae1f7f1,
perumahan,Komplek perumahan,Kompleks Perumahan Griya Persemaian,"Karang Harapan, Kec. Tarakan Bar., Kota Tarakan, Kalimantan Utara","Kota Tarakan, Kalimantan Utara",KALIMANTAN UTARA,,Indonesia,,,,3.3521454,117.5709213,https://maps.google.com/?cid=0x0:0x74d8bb145dbc5133,
perumahan,Pembangunan Perumahan,Rumah Tumbuh,"8J6F+2RQ, Kp. Enam, Kec. Tarakan Tim., Kota Tarakan, Kalimantan Utara","Kota Tarakan, Kalimantan Utara",KALIMANTAN UTARA,,Indonesia,,,,3.3100852,117.6246054,https://maps.google.com/?cid=0x0:0x27451f07e550bdbb,
perumahan,Kantor Perusahaan,Base CB KUMAT,"8J5F+6G4, Jl. Gn. Sepuluh, Kp. Enam, Kec. Tarakan Tim., Kota Tarakan, Kalimantan Utara","Kota Tarakan, Kalimantan Utara",KALIMANTAN UTARA,,Indonesia,,,,3.3080043,117.6238404,https://maps.google.com/?cid=0x0:0x51372c067cf99d40,
perumahan,Komplek perumahan,Kompleks Perumahan Darussalam,"8HQJ+5Q3, Jl. Pasir putih, pertigaan GG. Selatan, Karang Anyar, Kec. Tarakan Bar., Kota Tarakan, Kalimantan Utara","Kota Tarakan, Kalimantan Utara",KALIMANTAN UTARA,,Indonesia,,,,3.3378767,117.5819169,https://maps.google.com/?cid=0x0:0xb9a4834d5277f08,
perumahan,Komplek perumahan,family rumah fahri,"8J6C+79M, Kp. Enam, Kec. Tarakan Tim., Kota Tarakan, Kalimantan Utara","Kota Tarakan, Kalimantan Utara",KALIMANTAN UTARA,,Indonesia,,,,3.3106928,117.6209029,https://maps.google.com/?cid=0x0:0x3cc02ec2c32a8599,
perumahan,Pembangunan Perumahan,Dewi,"7JWG+797, Jl. Sei Mahakam, Mamburungan, Kec. Tarakan Tim., Kota Tarakan, Kalimantan Utara","Kota Tarakan, Kalimantan Utara",KALIMANTAN UTARA,,Indonesia,,,,3.2956585,117.6259199,https://maps.google.com/?cid=0x0:0xf202152f0b2cced5,
perumahan,Komplek perumahan,Rumah rifqie,"8J69+F7X, Kp. Enam, Kec. Tarakan Tim., Kota Tarakan, Kalimantan Utara","Kota Tarakan, Kalimantan Utara",KALIMANTAN UTARA,,Indonesia,,,,3.3112444,117.6182319,https://maps.google.com/?cid=0x0:0x9b400cc4a47fe5f5,
perumahan,Komplek perumahan,Tempatku,"8J49+WPF, Kp. Enam, Kec. Tarakan Tim., Kota Tarakan, Kalimantan Utara","Kota Tarakan, Kalimantan Utara",KALIMANTAN UTARA,,Indonesia,,,,3.306859,117.618945,https://maps.google.com/?cid=0x0:0x58756ac950fea8f4,
perumahan,Komplek perumahan,Rumah gisel,"8J5C+W7Q, Kp. Enam, Kec. Tarakan Tim., Kota Tarakan, Kalimantan Utara","Kota Tarakan, Kalimantan Utara",KALIMANTAN UTARA,,Indonesia,,,,3.3098731,117.620792,https://maps.google.com/?cid=0x0:0x4745731f8c8f87df,
perumahan,Komplek perumahan,Rumah ST.SUYUDI,"7JXF+XW6, Kp. Empat, Kec. Tarakan Tim., Kota Tarakan, Kalimantan Utara","Kota Tarakan, Kalimantan Utara",KALIMANTAN UTARA,,Indonesia,,,,3.2999024,117.6247714,https://maps.google.com/?cid=0x0:0xd57d9e416b04711e,
perumahan,perumahan,Kalimantan Utara 77126,"Lingkas Ujung, Kec. Tarakan Tim., Kota Tarakan, Kalimantan Utara","Kota Tarakan, Kalimantan Utara",KALIMANTAN UTARA,,Indonesia,,,,3.2900403,117.5910732,https://maps.google.com/?cid=0x0:0xf43b1ed1f9612680,
perumahan,Komplek perumahan,Lingkas ujung,"7HRQ+3X4, Lingkas Ujung, Kec. Tarakan Tim., Kota Tarakan, Kalimantan Utara","Kota Tarakan, Kalimantan Utara",KALIMANTAN UTARA,,Indonesia,,,,3.2901372,117.5899623,https://maps.google.com/?cid=0x0:0xa01dd7df25dd6f,
perumahan,Komplek perumahan,Rumah shafa,"7HRR+3WH, Lingkas Ujung, Kec. Tarakan Tim., Kota Tarakan, Kalimantan Utara","Kota Tarakan, Kalimantan Utara",KALIMANTAN UTARA,,Indonesia,,,,3.2900109,117.5925656,https://maps.google.com/?cid=0x0:0xafa3feff6a71d751,
perumahan,Masjid,Kompleks Perumahan Korpri Juata Permai,"Perumahan PNS Tarakan/kalimantan utara, Kalimantan Utara","Kota Tarakan, Kalimantan Utara",KALIMANTAN UTARA,,Indonesia,82253581038.0,,,3.3792089,117.5319733,https://maps.google.com/?cid=0x0:0x57ba00aab8b97e6c,
perumahan,Komplek perumahan,Perumahan,"Jl. Kusuma Bangsa Gg. Jaksa Thamrin No.B7, Pamusian, Kec. Tarakan Tengah, Kota Tarakan, Kalimantan Utara 77126","Pamusian, Kec. Tarakan Tengah, Kota Tarakan",KALIMANTAN UTARA,77126.0,Indonesia,,,,3.2982699,117.6058615,https://maps.google.com/?cid=0x0:0xe4f87568e2ec7b62,
perumahan,Kampus Asrama,TARAKAN CITY SQUARE,"Jl. Kusuma Bangsa No.31, Pamusian, Kec. Tarakan Tengah, Kota Tarakan, Kalimantan Utara","Kota Tarakan, Kalimantan Utara",KALIMANTAN UTARA,,Indonesia,82352251293.0,,,3.3046035,117.6087297,https://maps.google.com/?cid=0x0:0x5e100f1f76676927,
perumahan,Pembangunan Perumahan,Hantriyan's Family,"7HRR+2JF, Jl. Batu Mapan, RT.01/RW.No.73, Jemb. Besi, Kec. Tarakan Tim., Kota Tarakan, Kalimantan Utara","Kota Tarakan, Kalimantan Utara",KALIMANTAN UTARA,,Indonesia,8115944699.0,,,3.290055,117.5915323,https://maps.google.com/?cid=0x0:0xfc49991fdb68509a,
perumahan,Komplek perumahan,Perumahan AAHIl KOMERING,"8HV4+Q94, Karang Harapan, Kec. Tarakan Bar., Kota Tarakan, Kalimantan Utara","Kota Tarakan, Kalimantan Utara",KALIMANTAN UTARA,,Indonesia,,,,3.344393,117.5559419,https://maps.google.com/?cid=0x0:0x739cac77123387f6,
perumahan,Perhimpunan Pengembang Perumahan,Perumahan Tarakan City Square,"Pamusian, Kec. Tarakan Tengah, Kota Tarakan, Kalimantan Utara","Kota Tarakan, Kalimantan Utara",KALIMANTAN UTARA,,Indonesia,,,,3.3006367,117.6101948,https://maps.google.com/?cid=0x0:0x7f49114c2da2e96f,
perumahan,Komplek perumahan,Mama agung,"7HRR+785, Lingkas Ujung, Kec. Tarakan Tim., Kota Tarakan, Kalimantan Utara","Kota Tarakan, Kalimantan Utara",KALIMANTAN UTARA,,Indonesia,,,,3.2906319,117.5908548,https://maps.google.com/?cid=0x0:0xc8617b829486b283,
perumahan,perumahan,Kampung 6,"8J6G+565, Jl. Gn. Kerinci, RT.9/RW.nomor 39, Kp. Enam, Kec. Tarakan Tim., Kota Tarakan, Kalimantan Utara","Kota Tarakan, Kalimantan Utara",KALIMANTAN UTARA,,Indonesia,,,,3.310383,117.6256135,https://maps.google.com/?cid=0x0:0x3fac7b03c7a5166e,
perumahan,Otoritas Perumahan,Perumahan bukit indah pasir putih,"8HJJ+7PP, Jl. Lili 2, Karang Anyar, Kec. Tarakan Bar., Kota Tarakan, Kalimantan Utara","Kota Tarakan, Kalimantan Utara",KALIMANTAN UTARA,,Indonesia,,,,3.3307045,117.581825,https://maps.google.com/?cid=0x0:0xbd1dead326d5f318,
perumahan,Penjahit,rumah jahit najwa,"7HRR+P74, Gg. Nuri, Lingkas Ujung, Kec. Tarakan Tim., Kota Tarakan, Kalimantan Utara","Kota Tarakan, Kalimantan Utara",KALIMANTAN UTARA,,Indonesia,,,,3.2917687,117.5907106,https://maps.google.com/?cid=0x0:0x50b87f65e5dcdec8,
perumahan,Kantor Perusahaan,PT.SINAR TERANG PROPERTY,"Jl. Kusuma Bangsa No.RT 29, Pamusian, Kec. Tarakan Tengah, Kota Tarakan, Kalimantan Utara","Kota Tarakan, Kalimantan Utara",KALIMANTAN UTARA,,Indonesia,82352251293.0,,,3.3048221,117.6084944,https://maps.google.com/?cid=0x0:0x476e759136ce344d,
perumahan,Hotel,Homestay Cempaka,"Jl. Yos Sudarso No.07, Gn. Lingkas, Kec. Tarakan Tim., Kota Tarakan, Kalimantan Utara 77126","Gn. Lingkas, Kec. Tarakan Tim., Kota Tarakan",KALIMANTAN UTARA,77126.0,Indonesia,,,,3.2898582,117.5907826,https://maps.google.com/?cid=0x0:0x1cd4f5ae1d7fb7ed,
perumahan,perumahan,Kec. Tarakan Utara,"Kota Tarakan, Kalimantan Utara","Kota Tarakan, Kalimantan Utara",KALIMANTAN UTARA,,Indonesia,,,,3.3796258,117.5496105,https://maps.google.com/?cid=0x0:0xb014dac18351b1,
perumahan,Komplek perumahan,Perumahan Griya Oke Permai,"Jl. Aki Pingka, Juata Permai, Kec. Tarakan Utara, Kota Tarakan, Kalimantan Utara","Kota Tarakan, Kalimantan Utara",KALIMANTAN UTARA,,Indonesia,,,,3.3637716,117.5495549,https://maps.google.com/?cid=0x0:0xd2d7a892e2febca1,
perumahan,Komplek perumahan,Kompleks Perumahan Darussalam,"8HQJ+5Q3, Jl. Pasir putih, pertigaan GG. Selatan, Karang Anyar, Kec. Tarakan Bar., Kota Tarakan, Kalimantan Utara","Kota Tarakan, Kalimantan Utara",KALIMANTAN UTARA,,Indonesia,,,,3.3378767,117.5819169,https://maps.google.com/?cid=0x0:0xb9a4834d5277f08,
perumahan,Komplek perumahan,Alam Ageng Residence 1,"9GCR+P9P, Juata Permai, Kec. Tarakan Utara, Kota Tarakan, Kalimantan Utara","Kota Tarakan, Kalimantan Utara",KALIMANTAN UTARA,,Indonesia,85326426667.0,,,3.3718353,117.5409502,https://maps.google.com/?cid=0x0:0x9949bb59a44e90ae,
perumahan,Komplek perumahan,Tarakan,"Juata Permai, Kec. Tarakan Utara, Kota Tarakan, Kalimantan Utara","Kota Tarakan, Kalimantan Utara",KALIMANTAN UTARA,,Indonesia,,,,3.3796258,117.5496105,https://maps.google.com/?cid=0x0:0xfeb026eee5b86d22,
perumahan,Pembangunan Perumahan,Perumahan Cemara Permai,"9G9W+5G7, Juata Permai, Kec. Tarakan Utara, Kota Tarakan, Kalimantan Utara","Kota Tarakan, Kalimantan Utara",KALIMANTAN UTARA,,Indonesia,8115401958.0,,,3.3680808,117.5477732,https://maps.google.com/?cid=0x0:0xee638d41ee2538a9,
perumahan,Komplek perumahan,Perumahan TKBM SEI Bengawan,"9GCQ+QJ6, Jl. Sei Bengawan, Juata Permai, Kec. Tarakan Utara, Kota Tarakan, Kalimantan Utara","Kota Tarakan, Kalimantan Utara",KALIMANTAN UTARA,,Indonesia,,,,3.3719095,117.5390066,https://maps.google.com/?cid=0x0:0x18002722575bf6cf,
perumahan,Perumahan,PERUMAHAN TIRTAMALA REGENCY,"8HFJ+HJV, Karang Anyar, Kec. Tarakan Bar., Kota Tarakan, Kalimantan Utara","Kota Tarakan, Kalimantan Utara",KALIMANTAN UTARA,,Indonesia,,,,3.3239932,117.581551,https://maps.google.com/?cid=0x0:0x61880974abb5cdb7,
perumahan,Pembangunan Perumahan,Perum Pesona Juata Permai,"Jl. Nur Hidayah Perum Pesona No.Rt. 02 Blok B 16, Juata Permai, Kec. Tarakan Utara, Kota Tarakan, Kalimantan Utara","Kota Tarakan, Kalimantan Utara",KALIMANTAN UTARA,,Indonesia,,,,3.371849,117.5467852,https://maps.google.com/?cid=0x0:0x3c948529084cbef1,
perumahan,Komplek perumahan,Jln angsa rawa rt14 intraca juata permai tarakan utara,"Jl. Angsa Rawa No.80, RT.14/RW/RW.No.80, Juata Permai, Kec. Tarakan Utara, Kota Tarakan, Kalimantan Utara 77116","RT.14/RW/RW.No.80, Juata Permai, Kec. Tarakan Utara, Kota Tarakan",KALIMANTAN UTARA,77116.0,Indonesia,,,,3.3615845,117.5410883,https://maps.google.com/?cid=0x0:0xff22092306589cd9,
perumahan,Pembangunan Perumahan,Rumah Brojomusti,"9HG3+P3V, Juata Kerikil, Kec. Tarakan Utara, Kota Tarakan, Kalimantan Utara","Kota Tarakan, Kalimantan Utara",KALIMANTAN UTARA,,Indonesia,,,,3.3780015,117.5541569,https://maps.google.com/?cid=0x0:0x9e3fea034e2c260e,
perumahan,Pembangunan Perumahan,PERUMAHAN GRAHA BHAKTI INDAH,"9GPX+M9P, Unnamed Road, Juata Kerikil, Kec. Tarakan Utara, Kota Tarakan, Kalimantan Utara","Kota Tarakan, Kalimantan Utara",KALIMANTAN UTARA,,Indonesia,,,,3.386705,117.5484453,https://maps.google.com/?cid=0x0:0x7036c950e5675f84,
perumahan,Kolam Renang,Pasir putih,"8HMP+G88, Karang Anyar, Kec. Tarakan Bar., Kota Tarakan, Kalimantan Utara","Kota Tarakan, Kalimantan Utara",KALIMANTAN UTARA,,Indonesia,,,,3.3337862,117.5858227,https://maps.google.com/?cid=0x0:0xf3426f700d44a5e,
perumahan,Komplek perumahan,Satria Home,"9HM2+FGV, Jl. Pangeran Aji Iskandar, Juata Permai, Kec. Tarakan Utara, Kota Tarakan, Kalimantan Utara","Kota Tarakan, Kalimantan Utara",KALIMANTAN UTARA,,Indonesia,,,,3.3832947,117.5513224,https://maps.google.com/?cid=0x0:0x98a8fcbc218a4b16,
perumahan,Kantor Perusahaan,Perumnas,"8HCH+8XG, Jl. Wijaya Kusuma III, Karang Anyar, Kec. Tarakan Bar., Kota Tarakan, Kalimantan Utara","Kota Tarakan, Kalimantan Utara",KALIMANTAN UTARA,,Indonesia,,,,3.3208052,117.5799375,https://maps.google.com/?cid=0x0:0x6c6fc33aa942c732,
perumahan,Pembangunan Perumahan,Perumahan PNS,"9GPX+X2Q, Jl. Pangeran Aji Iskandar, Juata Permai, Kec. Tarakan Utara, Kota Tarakan, Kalimantan Utara","Kota Tarakan, Kalimantan Utara",KALIMANTAN UTARA,,Indonesia,,,,3.3874693,117.5476022,https://maps.google.com/?cid=0x0:0x24033b85630cd3be,
perumahan,Komplek perumahan,Tarakan,"9GPR+9C5, Unnamed Road, Juata Permai, Kec. Tarakan Utara, Kota Tarakan, Kalimantan Utara","Kota Tarakan, Kalimantan Utara",KALIMANTAN UTARA,,Indonesia,,,,3.3858878,117.5411101,https://maps.google.com/?cid=0x0:0xc53883d2521d757f,
perumahan,Pembangunan Perumahan,Perumahan Bukit Indah Tarakan,"8HW6+5FX, Karang Harapan, Kec. Tarakan Bar., Kota Tarakan, Kalimantan Utara","Kota Tarakan, Kalimantan Utara",KALIMANTAN UTARA,,Indonesia,,,,3.3454913,117.5612332,https://maps.google.com/?cid=0x0:0xaa4e021a55d6bd6a,
perumahan,Komplek perumahan,ASRINET,"9GMW+JXW, Juata Permai, Kec. Tarakan Utara, Kota Tarakan, Kalimantan Utara","Kota Tarakan, Kalimantan Utara",KALIMANTAN UTARA,,Indonesia,81285139284.0,,,3.3841128,117.5474605,https://maps.google.com/?cid=0x0:0x6d888839d5b49dfa,
perumahan,Pengembang Realestat,Natura Tarakan,"Graha Natura B6, Gg. Rengas Dua, Karang Anyar, Tarakan Barat, Tarakan City, North Kalimantan","Kota Tarakan, Kalimantan Utara",KALIMANTAN UTARA,,Indonesia,81315555887.0,,,3.3240723,117.582007,https://maps.google.com/?cid=0x0:0xdc22ee682d28f9f5,
perumahan,Komplek perumahan,Kompleks Perumahan Griya Persemaian,"Karang Harapan, Kec. Tarakan Bar., Kota Tarakan, Kalimantan Utara","Kota Tarakan, Kalimantan Utara",KALIMANTAN UTARA,,Indonesia,,,,3.3521454,117.5709213,https://maps.google.com/?cid=0x0:0x74d8bb145dbc5133,
perumahan,Komplek perumahan,Perumahan Queen Kaltara,"8HV8+W8J, Karang Harapan, Kec. Tarakan Bar., Kota Tarakan, Kalimantan Utara","Kota Tarakan, Kalimantan Utara",KALIMANTAN UTARA,,Indonesia,,,,3.3448267,117.5657788,https://maps.google.com/?cid=0x0:0xefab53b214f8fbd7,
perumahan,Masjid,Kompleks Perumahan Korpri Juata Permai,"Perumahan PNS Tarakan/kalimantan utara, Kalimantan Utara","Kota Tarakan, Kalimantan Utara",KALIMANTAN UTARA,,Indonesia,82253581038.0,,,3.3792089,117.5319733,https://maps.google.com/?cid=0x0:0x57ba00aab8b97e6c,
perumahan,Asosiasi Penduduk,Nuha Syakir Store,"Jl. Aki Balak Perum pesona, Juata Kerikil, Kec. Tarakan Utara, Kota Tarakan, Kalimantan Utara","Kota Tarakan, Kalimantan Utara",KALIMANTAN UTARA,,Indonesia,,,,3.3708494,117.5676028,https://maps.google.com/?cid=0x0:0xd7add8ca28507501,
perumahan,Pembangunan Perumahan,PT.ASMAUL HUSNAH TARAKAN,"9G9W+2GF, Juata Permai, Kec. Tarakan Utara, Kota Tarakan, Kalimantan Utara","Kota Tarakan, Kalimantan Utara",KALIMANTAN UTARA,,Indonesia,82251335842.0,,,3.367566,117.5463015,https://maps.google.com/?cid=0x0:0xc91bb78754104b1e,
perumahan,Pembangunan Perumahan,Perumahan Putra Residence,"Juata Permai, Kec. Tarakan Utara, Kota Tarakan, Kalimantan Utara","Kota Tarakan, Kalimantan Utara",KALIMANTAN UTARA,,Indonesia,82394230228.0,,,3.3648935,117.5503122,https://maps.google.com/?cid=0x0:0xa236f154fb6a735c,
perumahan,Pembangunan Perumahan,Perumahan Bengawan Indah,"9GCJ+HJ5, Jl. Bengawan, Juata Permai, Kec. Tarakan Utara, Kota Tarakan, Kalimantan Utara","Kota Tarakan, Kalimantan Utara",KALIMANTAN UTARA,,Indonesia,82213780006.0,,,3.3713924,117.5316054,https://maps.google.com/?cid=0x0:0x6bd30f458f83528b,
perumahan,Komplek perumahan,Rumah Maria,"Jl. Pangeran Aji Iskandar No.19, Juata Permai, Kec. Tarakan Utara, Kota Tarakan, Kalimantan Utara","Kota Tarakan, Kalimantan Utara",KALIMANTAN UTARA,,Indonesia,,,,3.3763228,117.5505906,https://maps.google.com/?cid=0x0:0xe766f663834fbe2e,
perumahan,Agen Properti,GRIYA ALAM JUATA,"9HQ2+5P5, Juata Kerikil, Kec. Tarakan Utara, Kota Tarakan, Kalimantan Utara","Kota Tarakan, Kalimantan Utara",KALIMANTAN UTARA,,Indonesia,,,,3.3878987,117.5518551,https://maps.google.com/?cid=0x0:0x89a228438b8f4238,
