Category,Real Category,Business Name,Address,City,State,Postal Code,Country,Phone,Email,Website,Latitude,Longitude,Map Link,Details Link
hotel,hotel,Chendrick Homestay,"JCGP+R78, Lewoleba Tengah, Kec. Nubatukan, Kabupaten Lembata, Nusa Tenggara Tim.","Kabupaten Lembata, Nusa Tenggara Tim.",NUSA TENGGARA TIMUR,,Indonesia,85238533010.0,,,-8.3729709,123.435693,https://maps.google.com/?cid=0x0:0xa85e3bffb5ef977f,
hotel,hotel,Kec. Atadei,"Kabupaten Lembata, Nusa Tenggara Tim.","Kabupaten Lembata, Nusa Tenggara Tim.",NUSA TENGGARA TIMUR,,Indonesia,,,,-8.4349536,123.4678297,https://maps.google.com/?cid=0x0:0xfbbff0f263a15426,
hotel,hotel,Hotel Palm Indah,"J98W+HX6, Pasar Pada (Pasar Barat),, Lewoleba Utara, Kec. Nubatukan, Kabupaten Lembata, Nusa Tenggara Tim.","Kabupaten Lembata, Nusa Tenggara Tim.",NUSA TENGGARA TIMUR,,Indonesia,82145948990.0,,,-8.3835888,123.3973962,https://maps.google.com/?cid=0x0:0xa6c9678692f440b5,
hotel,hotel,Mehara Hotel,"Jl. Mutiara Gg Tuna, RT.04/RW.02, Labuan Bajo, Kec. Komodo, Kabupaten Manggarai Barat, Nusa Tenggara Tim.","Kabupaten Manggarai Barat, Nusa Tenggara Tim.",NUSA TENGGARA TIMUR,,Indonesia,82147725594.0,,,-8.4898415,119.8776784,https://maps.google.com/?cid=0x0:0x35b1989fa2092ceb,
hotel,hotel,Hotel Lembata Iñdah,"JCF8+J9C, Jl. Berdikari, Lewoleba Utara, Kec. Nubatukan, Kabupaten Lembata, Nusa Tenggara Tim.","Kabupaten Lembata, Nusa Tenggara Tim.",NUSA TENGGARA TIMUR,,Indonesia,3832580160.0,,,-8.3759253,123.4159057,https://maps.google.com/?cid=0x0:0x8aaca31ea014990f,
hotel,hotel,Hotel Olympic Lewoleba,"Jl. Trans Lembata Jl. Rayuan Klp., Lewoleba Tengah, Kec. Nubatukan, Kabupaten Lembata, Nusa Tenggara Tim.","Kabupaten Lembata, Nusa Tenggara Tim.",NUSA TENGGARA TIMUR,,Indonesia,,,,-8.3720531,123.4133993,https://maps.google.com/?cid=0x0:0x80a12eaa3e9f122c,
hotel,hotel,Hotel Rejeki RedPartner,"Jl. Rayuan Klp., Lewoleba Utara, Kec. Nubatukan, Kabupaten Lembata, Nusa Tenggara Tim. 86612","Lewoleba Utara, Kec. Nubatukan, Kabupaten Lembata",NUSA TENGGARA TIMUR,86612.0,Indonesia,2180629666.0,,,-8.3718283,123.4149352,https://maps.google.com/?cid=0x0:0x118b6f9e653a0a99,
hotel,hotel,Puri Mutiara,"Jl. Trans Lembata, Lewoleba Tengah, Kec. Nubatukan, Kabupaten Lembata, Nusa Tenggara Tim. 86615","Lewoleba Tengah, Kec. Nubatukan, Kabupaten Lembata",NUSA TENGGARA TIMUR,86615.0,Indonesia,2180629666.0,,,-8.3716759,123.4253339,https://maps.google.com/?cid=0x0:0x2795880c9154adc8,
hotel,hotel,(nn) nuha nera Lodge - wena beach,"Lamatokan, Kec. Ile Ape Tim., Kabupaten Lembata, Nusa Tenggara Tim.","Kabupaten Lembata, Nusa Tenggara Tim.",NUSA TENGGARA TIMUR,,Indonesia,81337100089.0,,,-8.2680359,123.5495837,https://maps.google.com/?cid=0x0:0xbd93792d37549aa8,
hotel,hotel,Abel Beding Homestay  Felmina Wisata Kote Kelema,"CCF8+MXH, Lamalera A, Kec. Wulandoni, Kabupaten Lembata, Nusa Tenggara Tim.","Kabupaten Lembata, Nusa Tenggara Tim.",NUSA TENGGARA TIMUR,,Indonesia,82236311250.0,,,-8.5758123,123.4174969,https://maps.google.com/?cid=0x0:0x7f84f11cba05d2c5,
hotel,hotel,MENTARI Hotel  Restaurant,"Jl. Pahlawan No.19, Kel. Kotaraja, Kec. Ende Utara, Kabupaten Ende, Nusa Tenggara Tim. 86311","Kel. Kotaraja, Kec. Ende Utara, Kabupaten Ende",NUSA TENGGARA TIMUR,86311.0,Indonesia,81339419800.0,,,-8.841696,121.6472943,https://maps.google.com/?cid=0x0:0xf8f1dba9a5d8fbec,
hotel,hotel,Lokaria Indah Beach Hotel,"9782+J9V, Habi, Kec. Kangae, Kabupaten Sikka, Nusa Tenggara Tim.","Kabupaten Sikka, Nusa Tenggara Tim.",NUSA TENGGARA TIMUR,,Indonesia,85333766700.0,,,-8.63338,122.2509294,https://maps.google.com/?cid=0x0:0x7f6b6941e0fba0bb,
hotel,hotel,Hotel Sea World Club,"JL. Kampung Larantuka, Waiara, Kec. Nita, Kabupaten Sikka, Nusa Tenggara Tim.","Kabupaten Sikka, Nusa Tenggara Tim.",NUSA TENGGARA TIMUR,,Indonesia,38321570.0,,,-8.651626,122.132034,https://maps.google.com/?cid=0x0:0x46d3aaa57bbe6ed0,
hotel,Hotel,Putra pure dolu,"RR85+PC, Buriwutung, Kec. Buyasari, Kabupaten Lembata, Nusa Tenggara Tim.","Kabupaten Lembata, Nusa Tenggara Tim.",NUSA TENGGARA TIMUR,,Indonesia,82144979787.0,,,-8.183145,123.808601,https://maps.google.com/?cid=0x0:0x20118c24d8371734,
hotel,hotel,Kec. Buyasari,"Kabupaten Lembata, Nusa Tenggara Tim.","Kabupaten Lembata, Nusa Tenggara Tim.",NUSA TENGGARA TIMUR,,Indonesia,,,,-8.2341393,123.7965376,https://maps.google.com/?cid=0x0:0x634360f4156fb87d,
hotel,Hotel,Rumah sultan,"QQ8W+6G8, Benihading, Kec. Buyasari, Kabupaten Lembata, Nusa Tenggara Tim.","Kabupaten Lembata, Nusa Tenggara Tim.",NUSA TENGGARA TIMUR,,Indonesia,,,,-8.2350412,123.7963278,https://maps.google.com/?cid=0x0:0x9a4e32adb5d0e532,
hotel,Hotel,Rumah Muhammad shamir,"RQCJ+RX5, Leuwohung, Kec. Buyasari, Kabupaten Lembata, Nusa Tenggara Tim.","Kabupaten Lembata, Nusa Tenggara Tim.",NUSA TENGGARA TIMUR,,Indonesia,,,,-8.1779988,123.7824983,https://maps.google.com/?cid=0x0:0xcfcffc1b755cd548,
hotel,Pusat Informasi Pariwisata,Pantai Wisata Bean,"PRG5+PJM, Bean, Kec. Buyasari, Kabupaten Lembata, Nusa Tenggara Tim.","Kabupaten Lembata, Nusa Tenggara Tim.",NUSA TENGGARA TIMUR,,Indonesia,,,,-8.2731508,123.8090559,https://maps.google.com/?cid=0x0:0xe850363981aecf91,
hotel,Bed >>u0026 Breakfast,rumah RANDY,"QQ7Q+2W, Benihading II, Kec. Buyasari, Kabupaten Lembata, Nusa Tenggara Tim.","Kabupaten Lembata, Nusa Tenggara Tim.",NUSA TENGGARA TIMUR,,Indonesia,,,,-8.2374399,123.789813,https://maps.google.com/?cid=0x0:0xfd5b266013c9c14,
hotel,Pondok,New Annisa Beach Hotel,"Lewoleba Utara, Kec. Nubatukan, Kabupaten Lembata, Nusa Tenggara Tim.","Kabupaten Lembata, Nusa Tenggara Tim.",NUSA TENGGARA TIMUR,,Indonesia,38341502.0,,,-8.3698561,123.3991376,https://maps.google.com/?cid=0x0:0xba3468c59be53161,
hotel,Hotel,Uran's Inn,"JCG4+R34, Lewoleba Utara, Kec. Nubatukan, Kabupaten Lembata, Nusa Tenggara Tim.","Kabupaten Lembata, Nusa Tenggara Tim.",NUSA TENGGARA TIMUR,,Indonesia,85253493534.0,,,-8.3729998,123.405199,https://maps.google.com/?cid=0x0:0x3de46e7fb2aeafa4,
hotel,hotel,Kec. Ile Ape,"Kabupaten Lembata, Nusa Tenggara Tim.","Kabupaten Lembata, Nusa Tenggara Tim.",NUSA TENGGARA TIMUR,,Indonesia,,,,-8.2710158,123.4600712,https://maps.google.com/?cid=0x0:0x326d060bf93304cb,
hotel,hotel,Chendrick Homestay,"JCGP+R78, Lewoleba Tengah, Kec. Nubatukan, Kabupaten Lembata, Nusa Tenggara Tim.","Kabupaten Lembata, Nusa Tenggara Tim.",NUSA TENGGARA TIMUR,,Indonesia,85238533010.0,,,-8.3729709,123.435693,https://maps.google.com/?cid=0x0:0xa85e3bffb5ef977f,
hotel,hotel,(nn) nuha nera Lodge - wena beach,"Lamatokan, Kec. Ile Ape Tim., Kabupaten Lembata, Nusa Tenggara Tim.","Kabupaten Lembata, Nusa Tenggara Tim.",NUSA TENGGARA TIMUR,,Indonesia,81337100089.0,,,-8.2680359,123.5495837,https://maps.google.com/?cid=0x0:0xbd93792d37549aa8,
hotel,hotel,Hotel Lembata Iñdah,"JCF8+J9C, Jl. Berdikari, Lewoleba Utara, Kec. Nubatukan, Kabupaten Lembata, Nusa Tenggara Tim.","Kabupaten Lembata, Nusa Tenggara Tim.",NUSA TENGGARA TIMUR,,Indonesia,3832580160.0,,,-8.3759253,123.4159057,https://maps.google.com/?cid=0x0:0x8aaca31ea014990f,
hotel,hotel,Hotel Olympic Lewoleba,"Jl. Trans Lembata Jl. Rayuan Klp., Lewoleba Tengah, Kec. Nubatukan, Kabupaten Lembata, Nusa Tenggara Tim.","Kabupaten Lembata, Nusa Tenggara Tim.",NUSA TENGGARA TIMUR,,Indonesia,,,,-8.3720531,123.4133993,https://maps.google.com/?cid=0x0:0x80a12eaa3e9f122c,
hotel,hotel,Hotel Rejeki RedPartner,"Jl. Rayuan Klp., Lewoleba Utara, Kec. Nubatukan, Kabupaten Lembata, Nusa Tenggara Tim. 86612","Lewoleba Utara, Kec. Nubatukan, Kabupaten Lembata",NUSA TENGGARA TIMUR,86612.0,Indonesia,2180629666.0,,,-8.3718283,123.4149352,https://maps.google.com/?cid=0x0:0x118b6f9e653a0a99,
hotel,hotel,Puri Mutiara,"Jl. Trans Lembata, Lewoleba Tengah, Kec. Nubatukan, Kabupaten Lembata, Nusa Tenggara Tim. 86615","Lewoleba Tengah, Kec. Nubatukan, Kabupaten Lembata",NUSA TENGGARA TIMUR,86615.0,Indonesia,2180629666.0,,,-8.3716759,123.4253339,https://maps.google.com/?cid=0x0:0x2795880c9154adc8,
hotel,hotel,(nn) nuha nera Lodge - wena beach,"Lamatokan, Kec. Ile Ape Tim., Kabupaten Lembata, Nusa Tenggara Tim.","Kabupaten Lembata, Nusa Tenggara Tim.",NUSA TENGGARA TIMUR,,Indonesia,81337100089.0,,,-8.2680359,123.5495837,https://maps.google.com/?cid=0x0:0xbd93792d37549aa8,
hotel,hotel,Chendrick Homestay,"JCGP+R78, Lewoleba Tengah, Kec. Nubatukan, Kabupaten Lembata, Nusa Tenggara Tim.","Kabupaten Lembata, Nusa Tenggara Tim.",NUSA TENGGARA TIMUR,,Indonesia,85238533010.0,,,-8.3729709,123.435693,https://maps.google.com/?cid=0x0:0xa85e3bffb5ef977f,
hotel,hotel,Kec. Ile Ape Tim.,"Kabupaten Lembata, Nusa Tenggara Tim.","Kabupaten Lembata, Nusa Tenggara Tim.",NUSA TENGGARA TIMUR,,Indonesia,,,,-8.258433,123.5466807,https://maps.google.com/?cid=0x0:0x77a0f208453323a,
hotel,hotel,Hotel Lembata Iñdah,"JCF8+J9C, Jl. Berdikari, Lewoleba Utara, Kec. Nubatukan, Kabupaten Lembata, Nusa Tenggara Tim.","Kabupaten Lembata, Nusa Tenggara Tim.",NUSA TENGGARA TIMUR,,Indonesia,3832580160.0,,,-8.3759253,123.4159057,https://maps.google.com/?cid=0x0:0x8aaca31ea014990f,
hotel,hotel,Hotel Rejeki RedPartner,"Jl. Rayuan Klp., Lewoleba Utara, Kec. Nubatukan, Kabupaten Lembata, Nusa Tenggara Tim. 86612","Lewoleba Utara, Kec. Nubatukan, Kabupaten Lembata",NUSA TENGGARA TIMUR,86612.0,Indonesia,2180629666.0,,,-8.3718283,123.4149352,https://maps.google.com/?cid=0x0:0x118b6f9e653a0a99,
hotel,hotel,Hotel Olympic Lewoleba,"Jl. Trans Lembata Jl. Rayuan Klp., Lewoleba Tengah, Kec. Nubatukan, Kabupaten Lembata, Nusa Tenggara Tim.","Kabupaten Lembata, Nusa Tenggara Tim.",NUSA TENGGARA TIMUR,,Indonesia,,,,-8.3720531,123.4133993,https://maps.google.com/?cid=0x0:0x80a12eaa3e9f122c,
hotel,hotel,Puri Mutiara,"Jl. Trans Lembata, Lewoleba Tengah, Kec. Nubatukan, Kabupaten Lembata, Nusa Tenggara Tim. 86615","Lewoleba Tengah, Kec. Nubatukan, Kabupaten Lembata",NUSA TENGGARA TIMUR,86615.0,Indonesia,2180629666.0,,,-8.3716759,123.4253339,https://maps.google.com/?cid=0x0:0x2795880c9154adc8,
hotel,hotel,Kec. Lebatukan,"Kabupaten Lembata, Nusa Tenggara Tim.","Kabupaten Lembata, Nusa Tenggara Tim.",NUSA TENGGARA TIMUR,,Indonesia,,,,-8.3697073,123.54609,https://maps.google.com/?cid=0x0:0xa62ae0579a3a3f13,
hotel,hotel,Hotel Palm Indah,"J98W+HX6, Pasar Pada (Pasar Barat),, Lewoleba Utara, Kec. Nubatukan, Kabupaten Lembata, Nusa Tenggara Tim.","Kabupaten Lembata, Nusa Tenggara Tim.",NUSA TENGGARA TIMUR,,Indonesia,82145948990.0,,,-8.3835888,123.3973962,https://maps.google.com/?cid=0x0:0xa6c9678692f440b5,
hotel,hotel,Chendrick Homestay,"JCGP+R78, Lewoleba Tengah, Kec. Nubatukan, Kabupaten Lembata, Nusa Tenggara Tim.","Kabupaten Lembata, Nusa Tenggara Tim.",NUSA TENGGARA TIMUR,,Indonesia,85238533010.0,,,-8.3729709,123.435693,https://maps.google.com/?cid=0x0:0xa85e3bffb5ef977f,
hotel,hotel,Hotel Olympic Lewoleba,"Jl. Trans Lembata Jl. Rayuan Klp., Lewoleba Tengah, Kec. Nubatukan, Kabupaten Lembata, Nusa Tenggara Tim.","Kabupaten Lembata, Nusa Tenggara Tim.",NUSA TENGGARA TIMUR,,Indonesia,,,,-8.3720531,123.4133993,https://maps.google.com/?cid=0x0:0x80a12eaa3e9f122c,
hotel,hotel,(nn) nuha nera Lodge - wena beach,"Lamatokan, Kec. Ile Ape Tim., Kabupaten Lembata, Nusa Tenggara Tim.","Kabupaten Lembata, Nusa Tenggara Tim.",NUSA TENGGARA TIMUR,,Indonesia,81337100089.0,,,-8.2680359,123.5495837,https://maps.google.com/?cid=0x0:0xbd93792d37549aa8,
hotel,hotel,Hotel Rejeki RedPartner,"Jl. Rayuan Klp., Lewoleba Utara, Kec. Nubatukan, Kabupaten Lembata, Nusa Tenggara Tim. 86612","Lewoleba Utara, Kec. Nubatukan, Kabupaten Lembata",NUSA TENGGARA TIMUR,86612.0,Indonesia,2180629666.0,,,-8.3718283,123.4149352,https://maps.google.com/?cid=0x0:0x118b6f9e653a0a99,
hotel,hotel,Puri Mutiara,"Jl. Trans Lembata, Lewoleba Tengah, Kec. Nubatukan, Kabupaten Lembata, Nusa Tenggara Tim. 86615","Lewoleba Tengah, Kec. Nubatukan, Kabupaten Lembata",NUSA TENGGARA TIMUR,86615.0,Indonesia,2180629666.0,,,-8.3716759,123.4253339,https://maps.google.com/?cid=0x0:0x2795880c9154adc8,
hotel,hotel,Abel Beding Homestay  Felmina Wisata Kote Kelema,"CCF8+MXH, Lamalera A, Kec. Wulandoni, Kabupaten Lembata, Nusa Tenggara Tim.","Kabupaten Lembata, Nusa Tenggara Tim.",NUSA TENGGARA TIMUR,,Indonesia,82236311250.0,,,-8.5758123,123.4174969,https://maps.google.com/?cid=0x0:0x7f84f11cba05d2c5,
hotel,hotel,Chendrick Homestay,"JCGP+R78, Lewoleba Tengah, Kec. Nubatukan, Kabupaten Lembata, Nusa Tenggara Tim.","Kabupaten Lembata, Nusa Tenggara Tim.",NUSA TENGGARA TIMUR,,Indonesia,85238533010.0,,,-8.3729709,123.435693,https://maps.google.com/?cid=0x0:0xa85e3bffb5ef977f,
hotel,hotel,Kec. Naga Wutung,"Kabupaten Lembata, Nusa Tenggara Tim.","Kabupaten Lembata, Nusa Tenggara Tim.",NUSA TENGGARA TIMUR,,Indonesia,,,,-8.4696349,123.2820337,https://maps.google.com/?cid=0x0:0x3bb0d340f794ad8b,
hotel,hotel,Hotel Palm Indah,"J98W+HX6, Pasar Pada (Pasar Barat),, Lewoleba Utara, Kec. Nubatukan, Kabupaten Lembata, Nusa Tenggara Tim.","Kabupaten Lembata, Nusa Tenggara Tim.",NUSA TENGGARA TIMUR,,Indonesia,82145948990.0,,,-8.3835888,123.3973962,https://maps.google.com/?cid=0x0:0xa6c9678692f440b5,
hotel,hotel,Hotel Lembata Iñdah,"JCF8+J9C, Jl. Berdikari, Lewoleba Utara, Kec. Nubatukan, Kabupaten Lembata, Nusa Tenggara Tim.","Kabupaten Lembata, Nusa Tenggara Tim.",NUSA TENGGARA TIMUR,,Indonesia,3832580160.0,,,-8.3759253,123.4159057,https://maps.google.com/?cid=0x0:0x8aaca31ea014990f,
hotel,hotel,Hotel Olympic Lewoleba,"Jl. Trans Lembata Jl. Rayuan Klp., Lewoleba Tengah, Kec. Nubatukan, Kabupaten Lembata, Nusa Tenggara Tim.","Kabupaten Lembata, Nusa Tenggara Tim.",NUSA TENGGARA TIMUR,,Indonesia,,,,-8.3720531,123.4133993,https://maps.google.com/?cid=0x0:0x80a12eaa3e9f122c,
hotel,hotel,Hotel Rejeki RedPartner,"Jl. Rayuan Klp., Lewoleba Utara, Kec. Nubatukan, Kabupaten Lembata, Nusa Tenggara Tim. 86612","Lewoleba Utara, Kec. Nubatukan, Kabupaten Lembata",NUSA TENGGARA TIMUR,86612.0,Indonesia,2180629666.0,,,-8.3718283,123.4149352,https://maps.google.com/?cid=0x0:0x118b6f9e653a0a99,
hotel,hotel,Puri Mutiara,"Jl. Trans Lembata, Lewoleba Tengah, Kec. Nubatukan, Kabupaten Lembata, Nusa Tenggara Tim. 86615","Lewoleba Tengah, Kec. Nubatukan, Kabupaten Lembata",NUSA TENGGARA TIMUR,86615.0,Indonesia,2180629666.0,,,-8.3716759,123.4253339,https://maps.google.com/?cid=0x0:0x2795880c9154adc8,
hotel,hotel,Abel Beding Homestay  Felmina Wisata Kote Kelema,"CCF8+MXH, Lamalera A, Kec. Wulandoni, Kabupaten Lembata, Nusa Tenggara Tim.","Kabupaten Lembata, Nusa Tenggara Tim.",NUSA TENGGARA TIMUR,,Indonesia,82236311250.0,,,-8.5758123,123.4174969,https://maps.google.com/?cid=0x0:0x7f84f11cba05d2c5,
hotel,hotel,Hotel Binongko Jaya,"96HC+8XR, Jl. Sultan Hasanudin, Beru, Kec. Alok Tim., Kabupaten Sikka, Nusa Tenggara Tim.","Kabupaten Sikka, Nusa Tenggara Tim.",NUSA TENGGARA TIMUR,,Indonesia,85259161871.0,,,-8.6216417,122.2223772,https://maps.google.com/?cid=0x0:0xa3a3c2c464e3c80e,
hotel,hotel,"Hotel Nusra : Hotel , Resto And Café","9667+WM5, Kota Baru, Kec. Alok Tim., Kabupaten Sikka, Nusa Tenggara Tim.","Kabupaten Sikka, Nusa Tenggara Tim.",NUSA TENGGARA TIMUR,,Indonesia,2180629666.0,,,-8.6377433,122.2142309,https://maps.google.com/?cid=0x0:0x2b772e67ea573f67,
hotel,hotel,Kec. Nubatukan,"Kabupaten Lembata, Nusa Tenggara Tim.","Kabupaten Lembata, Nusa Tenggara Tim.",NUSA TENGGARA TIMUR,,Indonesia,,,,-8.3731739,123.4288459,https://maps.google.com/?cid=0x0:0x5937ac1360822cb3,
hotel,hotel,Chendrick Homestay,"JCGP+R78, Lewoleba Tengah, Kec. Nubatukan, Kabupaten Lembata, Nusa Tenggara Tim.","Kabupaten Lembata, Nusa Tenggara Tim.",NUSA TENGGARA TIMUR,,Indonesia,85238533010.0,,,-8.3729709,123.435693,https://maps.google.com/?cid=0x0:0xa85e3bffb5ef977f,
hotel,hotel,Hotel Palm Indah,"J98W+HX6, Pasar Pada (Pasar Barat),, Lewoleba Utara, Kec. Nubatukan, Kabupaten Lembata, Nusa Tenggara Tim.","Kabupaten Lembata, Nusa Tenggara Tim.",NUSA TENGGARA TIMUR,,Indonesia,82145948990.0,,,-8.3835888,123.3973962,https://maps.google.com/?cid=0x0:0xa6c9678692f440b5,
hotel,hotel,Hotel Lembata Iñdah,"JCF8+J9C, Jl. Berdikari, Lewoleba Utara, Kec. Nubatukan, Kabupaten Lembata, Nusa Tenggara Tim.","Kabupaten Lembata, Nusa Tenggara Tim.",NUSA TENGGARA TIMUR,,Indonesia,3832580160.0,,,-8.3759253,123.4159057,https://maps.google.com/?cid=0x0:0x8aaca31ea014990f,
hotel,hotel,Hotel Rejeki RedPartner,"Jl. Rayuan Klp., Lewoleba Utara, Kec. Nubatukan, Kabupaten Lembata, Nusa Tenggara Tim. 86612","Lewoleba Utara, Kec. Nubatukan, Kabupaten Lembata",NUSA TENGGARA TIMUR,86612.0,Indonesia,2180629666.0,,,-8.3718283,123.4149352,https://maps.google.com/?cid=0x0:0x118b6f9e653a0a99,
hotel,hotel,Puri Mutiara,"Jl. Trans Lembata, Lewoleba Tengah, Kec. Nubatukan, Kabupaten Lembata, Nusa Tenggara Tim. 86615","Lewoleba Tengah, Kec. Nubatukan, Kabupaten Lembata",NUSA TENGGARA TIMUR,86615.0,Indonesia,2180629666.0,,,-8.3716759,123.4253339,https://maps.google.com/?cid=0x0:0x2795880c9154adc8,
hotel,hotel,new bintang hotel,"6X3G+HJ6, bokua,bajawa,kabupaten ngada, Bajawa, bajawa, Nusa Tenggara Tim. 86431","bokua,bajawa,kabupaten ngada, Bajawa, bajawa",NUSA TENGGARA TIMUR,86431.0,Indonesia,81237504359.0,,,-8.7960915,120.976501,https://maps.google.com/?cid=0x0:0x7659dc5a443aab1b,
hotel,hotel,"Hotel Nusra : Hotel , Resto And Café","9667+WM5, Kota Baru, Kec. Alok Tim., Kabupaten Sikka, Nusa Tenggara Tim.","Kabupaten Sikka, Nusa Tenggara Tim.",NUSA TENGGARA TIMUR,,Indonesia,2180629666.0,,,-8.6377433,122.2142309,https://maps.google.com/?cid=0x0:0x2b772e67ea573f67,
hotel,hotel,Hotel Lareska Larantuka,"Jl. Sugyopranata, No. 4, Larantuka, Sikka, Lokea, Kec. Larantuka, Kabupaten Flores Timur, Nusa Tenggara Tim.","Kabupaten Flores Timur, Nusa Tenggara Tim.",NUSA TENGGARA TIMUR,,Indonesia,,,,-8.3420002,122.9881484,https://maps.google.com/?cid=0x0:0x724168e8724ca5a,
hotel,hotel,Kec. Nubatukan,"Kabupaten Lembata, Nusa Tenggara Tim.","Kabupaten Lembata, Nusa Tenggara Tim.",NUSA TENGGARA TIMUR,,Indonesia,,,,-8.3731739,123.4288459,https://maps.google.com/?cid=0x0:0x5937ac1360822cb3,
hotel,hotel,Chendrick Homestay,"JCGP+R78, Lewoleba Tengah, Kec. Nubatukan, Kabupaten Lembata, Nusa Tenggara Tim.","Kabupaten Lembata, Nusa Tenggara Tim.",NUSA TENGGARA TIMUR,,Indonesia,85238533010.0,,,-8.3729709,123.435693,https://maps.google.com/?cid=0x0:0xa85e3bffb5ef977f,
hotel,hotel,Hotel Palm Indah,"J98W+HX6, Pasar Pada (Pasar Barat),, Lewoleba Utara, Kec. Nubatukan, Kabupaten Lembata, Nusa Tenggara Tim.","Kabupaten Lembata, Nusa Tenggara Tim.",NUSA TENGGARA TIMUR,,Indonesia,82145948990.0,,,-8.3835888,123.3973962,https://maps.google.com/?cid=0x0:0xa6c9678692f440b5,
hotel,hotel,Hotel Lembata Iñdah,"JCF8+J9C, Jl. Berdikari, Lewoleba Utara, Kec. Nubatukan, Kabupaten Lembata, Nusa Tenggara Tim.","Kabupaten Lembata, Nusa Tenggara Tim.",NUSA TENGGARA TIMUR,,Indonesia,3832580160.0,,,-8.3759253,123.4159057,https://maps.google.com/?cid=0x0:0x8aaca31ea014990f,
hotel,hotel,Hotel Rejeki RedPartner,"Jl. Rayuan Klp., Lewoleba Utara, Kec. Nubatukan, Kabupaten Lembata, Nusa Tenggara Tim. 86612","Lewoleba Utara, Kec. Nubatukan, Kabupaten Lembata",NUSA TENGGARA TIMUR,86612.0,Indonesia,2180629666.0,,,-8.3718283,123.4149352,https://maps.google.com/?cid=0x0:0x118b6f9e653a0a99,
hotel,hotel,Puri Mutiara,"Jl. Trans Lembata, Lewoleba Tengah, Kec. Nubatukan, Kabupaten Lembata, Nusa Tenggara Tim. 86615","Lewoleba Tengah, Kec. Nubatukan, Kabupaten Lembata",NUSA TENGGARA TIMUR,86615.0,Indonesia,2180629666.0,,,-8.3716759,123.4253339,https://maps.google.com/?cid=0x0:0x2795880c9154adc8,
hotel,hotel,new bintang hotel,"6X3G+HJ6, bokua,bajawa,kabupaten ngada, Bajawa, bajawa, Nusa Tenggara Tim. 86431","bokua,bajawa,kabupaten ngada, Bajawa, bajawa",NUSA TENGGARA TIMUR,86431.0,Indonesia,81237504359.0,,,-8.7960915,120.976501,https://maps.google.com/?cid=0x0:0x7659dc5a443aab1b,
hotel,hotel,"Hotel Nusra : Hotel , Resto And Café","9667+WM5, Kota Baru, Kec. Alok Tim., Kabupaten Sikka, Nusa Tenggara Tim.","Kabupaten Sikka, Nusa Tenggara Tim.",NUSA TENGGARA TIMUR,,Indonesia,2180629666.0,,,-8.6377433,122.2142309,https://maps.google.com/?cid=0x0:0x2b772e67ea573f67,
hotel,hotel,Kec. Nubatukan,"Kabupaten Lembata, Nusa Tenggara Tim.","Kabupaten Lembata, Nusa Tenggara Tim.",NUSA TENGGARA TIMUR,,Indonesia,,,,-8.3731739,123.4288459,https://maps.google.com/?cid=0x0:0x5937ac1360822cb3,
hotel,hotel,Chendrick Homestay,"JCGP+R78, Lewoleba Tengah, Kec. Nubatukan, Kabupaten Lembata, Nusa Tenggara Tim.","Kabupaten Lembata, Nusa Tenggara Tim.",NUSA TENGGARA TIMUR,,Indonesia,85238533010.0,,,-8.3729709,123.435693,https://maps.google.com/?cid=0x0:0xa85e3bffb5ef977f,
hotel,hotel,Hotel Palm Indah,"J98W+HX6, Pasar Pada (Pasar Barat),, Lewoleba Utara, Kec. Nubatukan, Kabupaten Lembata, Nusa Tenggara Tim.","Kabupaten Lembata, Nusa Tenggara Tim.",NUSA TENGGARA TIMUR,,Indonesia,82145948990.0,,,-8.3835888,123.3973962,https://maps.google.com/?cid=0x0:0xa6c9678692f440b5,
hotel,hotel,Hotel Rejeki RedPartner,"Jl. Rayuan Klp., Lewoleba Utara, Kec. Nubatukan, Kabupaten Lembata, Nusa Tenggara Tim. 86612","Lewoleba Utara, Kec. Nubatukan, Kabupaten Lembata",NUSA TENGGARA TIMUR,86612.0,Indonesia,2180629666.0,,,-8.3718283,123.4149352,https://maps.google.com/?cid=0x0:0x118b6f9e653a0a99,
hotel,hotel,Hotel Lembata Iñdah,"JCF8+J9C, Jl. Berdikari, Lewoleba Utara, Kec. Nubatukan, Kabupaten Lembata, Nusa Tenggara Tim.","Kabupaten Lembata, Nusa Tenggara Tim.",NUSA TENGGARA TIMUR,,Indonesia,3832580160.0,,,-8.3759253,123.4159057,https://maps.google.com/?cid=0x0:0x8aaca31ea014990f,
hotel,hotel,Puri Mutiara,"Jl. Trans Lembata, Lewoleba Tengah, Kec. Nubatukan, Kabupaten Lembata, Nusa Tenggara Tim. 86615","Lewoleba Tengah, Kec. Nubatukan, Kabupaten Lembata",NUSA TENGGARA TIMUR,86615.0,Indonesia,2180629666.0,,,-8.3716759,123.4253339,https://maps.google.com/?cid=0x0:0x2795880c9154adc8,
hotel,hotel,Kec. Nubatukan,"Kabupaten Lembata, Nusa Tenggara Tim.","Kabupaten Lembata, Nusa Tenggara Tim.",NUSA TENGGARA TIMUR,,Indonesia,,,,-8.3731739,123.4288459,https://maps.google.com/?cid=0x0:0x5937ac1360822cb3,
hotel,hotel,Chendrick Homestay,"JCGP+R78, Lewoleba Tengah, Kec. Nubatukan, Kabupaten Lembata, Nusa Tenggara Tim.","Kabupaten Lembata, Nusa Tenggara Tim.",NUSA TENGGARA TIMUR,,Indonesia,85238533010.0,,,-8.3729709,123.435693,https://maps.google.com/?cid=0x0:0xa85e3bffb5ef977f,
hotel,hotel,Hotel Palm Indah,"J98W+HX6, Pasar Pada (Pasar Barat),, Lewoleba Utara, Kec. Nubatukan, Kabupaten Lembata, Nusa Tenggara Tim.","Kabupaten Lembata, Nusa Tenggara Tim.",NUSA TENGGARA TIMUR,,Indonesia,82145948990.0,,,-8.3835888,123.3973962,https://maps.google.com/?cid=0x0:0xa6c9678692f440b5,
hotel,hotel,Hotel Lembata Iñdah,"JCF8+J9C, Jl. Berdikari, Lewoleba Utara, Kec. Nubatukan, Kabupaten Lembata, Nusa Tenggara Tim.","Kabupaten Lembata, Nusa Tenggara Tim.",NUSA TENGGARA TIMUR,,Indonesia,3832580160.0,,,-8.3759253,123.4159057,https://maps.google.com/?cid=0x0:0x8aaca31ea014990f,
hotel,hotel,Hotel Rejeki RedPartner,"Jl. Rayuan Klp., Lewoleba Utara, Kec. Nubatukan, Kabupaten Lembata, Nusa Tenggara Tim. 86612","Lewoleba Utara, Kec. Nubatukan, Kabupaten Lembata",NUSA TENGGARA TIMUR,86612.0,Indonesia,2180629666.0,,,-8.3718283,123.4149352,https://maps.google.com/?cid=0x0:0x118b6f9e653a0a99,
hotel,hotel,Puri Mutiara,"Jl. Trans Lembata, Lewoleba Tengah, Kec. Nubatukan, Kabupaten Lembata, Nusa Tenggara Tim. 86615","Lewoleba Tengah, Kec. Nubatukan, Kabupaten Lembata",NUSA TENGGARA TIMUR,86615.0,Indonesia,2180629666.0,,,-8.3716759,123.4253339,https://maps.google.com/?cid=0x0:0x2795880c9154adc8,
hotel,hotel,Kec. Nubatukan,"Kabupaten Lembata, Nusa Tenggara Tim.","Kabupaten Lembata, Nusa Tenggara Tim.",NUSA TENGGARA TIMUR,,Indonesia,,,,-8.3731739,123.4288459,https://maps.google.com/?cid=0x0:0x5937ac1360822cb3,
hotel,hotel,Chendrick Homestay,"JCGP+R78, Lewoleba Tengah, Kec. Nubatukan, Kabupaten Lembata, Nusa Tenggara Tim.","Kabupaten Lembata, Nusa Tenggara Tim.",NUSA TENGGARA TIMUR,,Indonesia,85238533010.0,,,-8.3729709,123.435693,https://maps.google.com/?cid=0x0:0xa85e3bffb5ef977f,
hotel,hotel,Hotel Palm Indah,"J98W+HX6, Pasar Pada (Pasar Barat),, Lewoleba Utara, Kec. Nubatukan, Kabupaten Lembata, Nusa Tenggara Tim.","Kabupaten Lembata, Nusa Tenggara Tim.",NUSA TENGGARA TIMUR,,Indonesia,82145948990.0,,,-8.3835888,123.3973962,https://maps.google.com/?cid=0x0:0xa6c9678692f440b5,
hotel,hotel,Hotel Olympic Lewoleba,"Jl. Trans Lembata Jl. Rayuan Klp., Lewoleba Tengah, Kec. Nubatukan, Kabupaten Lembata, Nusa Tenggara Tim.","Kabupaten Lembata, Nusa Tenggara Tim.",NUSA TENGGARA TIMUR,,Indonesia,,,,-8.3720531,123.4133993,https://maps.google.com/?cid=0x0:0x80a12eaa3e9f122c,
hotel,hotel,Hotel Rejeki RedPartner,"Jl. Rayuan Klp., Lewoleba Utara, Kec. Nubatukan, Kabupaten Lembata, Nusa Tenggara Tim. 86612","Lewoleba Utara, Kec. Nubatukan, Kabupaten Lembata",NUSA TENGGARA TIMUR,86612.0,Indonesia,2180629666.0,,,-8.3718283,123.4149352,https://maps.google.com/?cid=0x0:0x118b6f9e653a0a99,
hotel,hotel,Puri Mutiara,"Jl. Trans Lembata, Lewoleba Tengah, Kec. Nubatukan, Kabupaten Lembata, Nusa Tenggara Tim. 86615","Lewoleba Tengah, Kec. Nubatukan, Kabupaten Lembata",NUSA TENGGARA TIMUR,86615.0,Indonesia,2180629666.0,,,-8.3716759,123.4253339,https://maps.google.com/?cid=0x0:0x2795880c9154adc8,
hotel,hotel,new bintang hotel,"6X3G+HJ6, bokua,bajawa,kabupaten ngada, Bajawa, bajawa, Nusa Tenggara Tim. 86431","bokua,bajawa,kabupaten ngada, Bajawa, bajawa",NUSA TENGGARA TIMUR,86431.0,Indonesia,81237504359.0,,,-8.7960915,120.976501,https://maps.google.com/?cid=0x0:0x7659dc5a443aab1b,
hotel,hotel,"Hotel Nusra : Hotel , Resto And Café","9667+WM5, Kota Baru, Kec. Alok Tim., Kabupaten Sikka, Nusa Tenggara Tim.","Kabupaten Sikka, Nusa Tenggara Tim.",NUSA TENGGARA TIMUR,,Indonesia,2180629666.0,,,-8.6377433,122.2142309,https://maps.google.com/?cid=0x0:0x2b772e67ea573f67,
hotel,hotel,Kec. Nubatukan,"Kabupaten Lembata, Nusa Tenggara Tim.","Kabupaten Lembata, Nusa Tenggara Tim.",NUSA TENGGARA TIMUR,,Indonesia,,,,-8.3731739,123.4288459,https://maps.google.com/?cid=0x0:0x5937ac1360822cb3,
hotel,hotel,Chendrick Homestay,"JCGP+R78, Lewoleba Tengah, Kec. Nubatukan, Kabupaten Lembata, Nusa Tenggara Tim.","Kabupaten Lembata, Nusa Tenggara Tim.",NUSA TENGGARA TIMUR,,Indonesia,85238533010.0,,,-8.3729709,123.435693,https://maps.google.com/?cid=0x0:0xa85e3bffb5ef977f,
hotel,hotel,Hotel Palm Indah,"J98W+HX6, Pasar Pada (Pasar Barat),, Lewoleba Utara, Kec. Nubatukan, Kabupaten Lembata, Nusa Tenggara Tim.","Kabupaten Lembata, Nusa Tenggara Tim.",NUSA TENGGARA TIMUR,,Indonesia,82145948990.0,,,-8.3835888,123.3973962,https://maps.google.com/?cid=0x0:0xa6c9678692f440b5,
hotel,hotel,Hotel Lembata Iñdah,"JCF8+J9C, Jl. Berdikari, Lewoleba Utara, Kec. Nubatukan, Kabupaten Lembata, Nusa Tenggara Tim.","Kabupaten Lembata, Nusa Tenggara Tim.",NUSA TENGGARA TIMUR,,Indonesia,3832580160.0,,,-8.3759253,123.4159057,https://maps.google.com/?cid=0x0:0x8aaca31ea014990f,
hotel,hotel,Hotel Rejeki RedPartner,"Jl. Rayuan Klp., Lewoleba Utara, Kec. Nubatukan, Kabupaten Lembata, Nusa Tenggara Tim. 86612","Lewoleba Utara, Kec. Nubatukan, Kabupaten Lembata",NUSA TENGGARA TIMUR,86612.0,Indonesia,2180629666.0,,,-8.3718283,123.4149352,https://maps.google.com/?cid=0x0:0x118b6f9e653a0a99,
hotel,hotel,Puri Mutiara,"Jl. Trans Lembata, Lewoleba Tengah, Kec. Nubatukan, Kabupaten Lembata, Nusa Tenggara Tim. 86615","Lewoleba Tengah, Kec. Nubatukan, Kabupaten Lembata",NUSA TENGGARA TIMUR,86615.0,Indonesia,2180629666.0,,,-8.3716759,123.4253339,https://maps.google.com/?cid=0x0:0x2795880c9154adc8,
hotel,hotel,"Hotel Nusra : Hotel , Resto And Café","9667+WM5, Kota Baru, Kec. Alok Tim., Kabupaten Sikka, Nusa Tenggara Tim.","Kabupaten Sikka, Nusa Tenggara Tim.",NUSA TENGGARA TIMUR,,Indonesia,2180629666.0,,,-8.6377433,122.2142309,https://maps.google.com/?cid=0x0:0x2b772e67ea573f67,
hotel,hotel,Kec. Omesuri,"Kabupaten Lembata, Nusa Tenggara Tim.","Kabupaten Lembata, Nusa Tenggara Tim.",NUSA TENGGARA TIMUR,,Indonesia,,,,-8.2457063,123.7524523,https://maps.google.com/?cid=0x0:0x63a024d49fdb39f4,
hotel,hotel,El Ora Hotel  Eatery Labuan Bajo,"Jl. Yohanis Sahadun No.8, Labuan Bajo, Kec. Komodo, Kabupaten Manggarai Barat, Nusa Tenggara Tim.","Kabupaten Manggarai Barat, Nusa Tenggara Tim.",NUSA TENGGARA TIMUR,,Indonesia,85106077731.0,,,-8.4956322,119.8857116,https://maps.google.com/?cid=0x0:0xe53b28681242ee9c,
hotel,hotel,(nn) nuha nera Lodge - wena beach,"Lamatokan, Kec. Ile Ape Tim., Kabupaten Lembata, Nusa Tenggara Tim.","Kabupaten Lembata, Nusa Tenggara Tim.",NUSA TENGGARA TIMUR,,Indonesia,81337100089.0,,,-8.2680359,123.5495837,https://maps.google.com/?cid=0x0:0xbd93792d37549aa8,
hotel,hotel,Hotel Sahid T-More Kupang,"Jl. Piet A. Tallo, Oesapa Sel., Kec. Klp. Lima, Kota Kupang, Nusa Tenggara Tim. 85228","Oesapa Sel., Kec. Klp. Lima, Kota Kupang",NUSA TENGGARA TIMUR,85228.0,Indonesia,81138299993.0,,,-10.1563835,123.6559289,https://maps.google.com/?cid=0x0:0xcf98638dc2e897df,
hotel,hotel,,,,NUSA TENGGARA TIMUR,,Indonesia,,,,,,https://maps.google.com/?cid=0x0:0xcf98638dc2e897df%7C/g/11x9g9qqy%7Cid-ID,
hotel,hotel,Wulandoni,"Kec. Wulandoni, Kabupaten Lembata, Nusa Tenggara Tim.","Kabupaten Lembata, Nusa Tenggara Tim.",NUSA TENGGARA TIMUR,,Indonesia,,,,-8.5502005,123.4299436,https://maps.google.com/?cid=0x0:0x190edee7019a3217,
hotel,hotel,Abel Beding Homestay  Felmina Wisata Kote Kelema,"CCF8+MXH, Lamalera A, Kec. Wulandoni, Kabupaten Lembata, Nusa Tenggara Tim.","Kabupaten Lembata, Nusa Tenggara Tim.",NUSA TENGGARA TIMUR,,Indonesia,82236311250.0,,,-8.5758123,123.4174969,https://maps.google.com/?cid=0x0:0x7f84f11cba05d2c5,
hotel,hotel,Hotel Lembata Iñdah,"JCF8+J9C, Jl. Berdikari, Lewoleba Utara, Kec. Nubatukan, Kabupaten Lembata, Nusa Tenggara Tim.","Kabupaten Lembata, Nusa Tenggara Tim.",NUSA TENGGARA TIMUR,,Indonesia,3832580160.0,,,-8.3759253,123.4159057,https://maps.google.com/?cid=0x0:0x8aaca31ea014990f,
hotel,hotel,Chendrick Homestay,"JCGP+R78, Lewoleba Tengah, Kec. Nubatukan, Kabupaten Lembata, Nusa Tenggara Tim.","Kabupaten Lembata, Nusa Tenggara Tim.",NUSA TENGGARA TIMUR,,Indonesia,85238533010.0,,,-8.3729709,123.435693,https://maps.google.com/?cid=0x0:0xa85e3bffb5ef977f,
hotel,hotel,Hotel Palm Indah,"J98W+HX6, Pasar Pada (Pasar Barat),, Lewoleba Utara, Kec. Nubatukan, Kabupaten Lembata, Nusa Tenggara Tim.","Kabupaten Lembata, Nusa Tenggara Tim.",NUSA TENGGARA TIMUR,,Indonesia,82145948990.0,,,-8.3835888,123.3973962,https://maps.google.com/?cid=0x0:0xa6c9678692f440b5,
hotel,hotel,Hotel Olympic Lewoleba,"Jl. Trans Lembata Jl. Rayuan Klp., Lewoleba Tengah, Kec. Nubatukan, Kabupaten Lembata, Nusa Tenggara Tim.","Kabupaten Lembata, Nusa Tenggara Tim.",NUSA TENGGARA TIMUR,,Indonesia,,,,-8.3720531,123.4133993,https://maps.google.com/?cid=0x0:0x80a12eaa3e9f122c,
hotel,hotel,Hotel Rejeki RedPartner,"Jl. Rayuan Klp., Lewoleba Utara, Kec. Nubatukan, Kabupaten Lembata, Nusa Tenggara Tim. 86612","Lewoleba Utara, Kec. Nubatukan, Kabupaten Lembata",NUSA TENGGARA TIMUR,86612.0,Indonesia,2180629666.0,,,-8.3718283,123.4149352,https://maps.google.com/?cid=0x0:0x118b6f9e653a0a99,
hotel,hotel,Puri Mutiara,"Jl. Trans Lembata, Lewoleba Tengah, Kec. Nubatukan, Kabupaten Lembata, Nusa Tenggara Tim. 86615","Lewoleba Tengah, Kec. Nubatukan, Kabupaten Lembata",NUSA TENGGARA TIMUR,86615.0,Indonesia,2180629666.0,,,-8.3716759,123.4253339,https://maps.google.com/?cid=0x0:0x2795880c9154adc8,
restaurant,Brunch,Warung Makan Mas Rozak,"Unnamed Road, Lewoleba Tengah, Kec. Nubatukan, Kabupaten Lembata, Nusa Tenggara Tim.","Kabupaten Lembata, Nusa Tenggara Tim.",NUSA TENGGARA TIMUR,,Indonesia,,,,-8.3730365,123.429806,https://maps.google.com/?cid=0x0:0xce1727f9db9d2f63,
restaurant,restaurant,Kec. Atadei,"Kabupaten Lembata, Nusa Tenggara Tim.","Kabupaten Lembata, Nusa Tenggara Tim.",NUSA TENGGARA TIMUR,,Indonesia,,,,-8.4349536,123.4678297,https://maps.google.com/?cid=0x0:0xfbbff0f263a15426,
restaurant,Indonesia,RM. ANDAHMU,"JCG3+XP5, Jl. Trans Lembata, Lewoleba Utara, Kec. Nubatukan, Kabupaten Lembata, Nusa Tenggara Tim.","Kabupaten Lembata, Nusa Tenggara Tim.",NUSA TENGGARA TIMUR,,Indonesia,81339428161.0,,,-8.3726132,123.4043605,https://maps.google.com/?cid=0x0:0xba3aab2aab083b58,
restaurant,Indonesia,Rumah makan Sate Jogja Lembata,"Lewoleba Utara, Kec. Nubatukan, Kabupaten Lembata, Nusa Tenggara Tim.","Kabupaten Lembata, Nusa Tenggara Tim.",NUSA TENGGARA TIMUR,,Indonesia,82136844933.0,,,-8.3729269,123.4146639,https://maps.google.com/?cid=0x0:0xbb3551c922e1dc1,
restaurant,Restoran,Rumah Makan Barokah,"JCH9+HVG, Jl. Trans Lembata, Lewoleba Tengah, Kec. Nubatukan, Kabupaten Lembata, Nusa Tenggara Tim.","Kabupaten Lembata, Nusa Tenggara Tim.",NUSA TENGGARA TIMUR,,Indonesia,,,,-8.3710689,123.419705,https://maps.google.com/?cid=0x0:0x300a9bc0b9f5410c,
restaurant,Indonesia,RM Berkat Lomlen,"JCJQ+HJ5, Lewoleba Tim., Kec. Nubatukan, Kabupaten Lembata, Nusa Tenggara Tim.","Kabupaten Lembata, Nusa Tenggara Tim.",NUSA TENGGARA TIMUR,,Indonesia,,,,-8.3686139,123.4391229,https://maps.google.com/?cid=0x0:0x2cd06a7a4277f182,
restaurant,Bakso,Warung Bakso SATRIA,"Jl. Trans Lembata, Lewoleba Tengah, Kec. Nubatukan, Kabupaten Lembata, Nusa Tenggara Tim.","Kabupaten Lembata, Nusa Tenggara Tim.",NUSA TENGGARA TIMUR,,Indonesia,81237498828.0,,,-8.3728994,123.4278036,https://maps.google.com/?cid=0x0:0xda9a8d6ee45cab6a,
restaurant,Bakso,BAKSO MBAK MEGA Asli wong solo,"Lewoleba Tengah, Kec. Nubatukan, Kabupaten Lembata, Nusa Tenggara Tim.","Kabupaten Lembata, Nusa Tenggara Tim.",NUSA TENGGARA TIMUR,,Indonesia,,,,-8.373811,123.4147166,https://maps.google.com/?cid=0x0:0xae247858747b74cf,
restaurant,Rumah Makan,RM.JAKARTA ( Soto Daging  Bubur Ayam ),"JCHG+77J, Jl. Trans Lembata, Lewoleba Tengah, Kec. Nubatukan, Kabupaten Lembata, Nusa Tenggara Tim.","Kabupaten Lembata, Nusa Tenggara Tim.",NUSA TENGGARA TIMUR,,Indonesia,81282815800.0,,,-8.371787,123.4256356,https://maps.google.com/?cid=0x0:0x3f3174a6e573c581,
restaurant,Padang,RM.Lembata masakan padang,"JCG7+MR5, Lewoleba Tengah, Kec. Nubatukan, Kabupaten Lembata, Nusa Tenggara Tim.","Kabupaten Lembata, Nusa Tenggara Tim.",NUSA TENGGARA TIMUR,,Indonesia,82144904711.0,,,-8.3733667,123.4146246,https://maps.google.com/?cid=0x0:0xcd2a9460508cc363,
restaurant,Kafe,Omah Bu'e Lembata,"Kandang Rusa - Lamahora, Jl. Trans Lembata, Lewoleba, Kec. Nubatukan, Kabupaten Lembata, Nusa Tenggara Tim. 86616","Jl. Trans Lembata, Lewoleba, Kec. Nubatukan, Kabupaten Lembata",NUSA TENGGARA TIMUR,86616.0,Indonesia,81338965654.0,,,-8.367236,123.4423162,https://maps.google.com/?cid=0x0:0x9e3075c4cd0b6cac,
restaurant,Bakso,Es Campu  Bakso,"JC64+V8W, Lewoleba, Kec. Nubatukan, Kabupaten Lembata, Nusa Tenggara Tim.","Kabupaten Lembata, Nusa Tenggara Tim.",NUSA TENGGARA TIMUR,,Indonesia,,,,-8.3877628,123.4058401,https://maps.google.com/?cid=0x0:0xd414ae1607ed16d7,
restaurant,Bakso,Mie Ayam  Bakso Mbak Mega,"JCHJ+2GR, Jl. Trans Lembata, Selandoro, Kec. Nubatukan, Kabupaten Lembata, Nusa Tenggara Tim.","Kabupaten Lembata, Nusa Tenggara Tim.",NUSA TENGGARA TIMUR,,Indonesia,,,,-8.3723812,123.4312671,https://maps.google.com/?cid=0x0:0xedda604d3ba03e85,
restaurant,Bakso,Bakso Malang Lembata,"JCF8+R8M, Lewoleba Tengah, Kec. Nubatukan, Kabupaten Lembata, Nusa Tenggara Tim.","Kabupaten Lembata, Nusa Tenggara Tim.",NUSA TENGGARA TIMUR,,Indonesia,,,,-8.3753744,123.4157972,https://maps.google.com/?cid=0x0:0x6957c1a27a2a82cf,
restaurant,Bakso,bakso  mie ayam ANUGERAH,"JCGH+QRC, Lewoleba Tengah, Kec. Nubatukan, Kabupaten Lembata, Nusa Tenggara Tim.","Kabupaten Lembata, Nusa Tenggara Tim.",NUSA TENGGARA TIMUR,,Indonesia,,,,-8.3730561,123.429523,https://maps.google.com/?cid=0x0:0xd595e9e2ce32f25e,
restaurant,restaurant,Pondok Sate Khas Madura,"JCGJ+WFR, Jl. Trans Lembata, Lewoleba Tengah, Kec. Nubatukan, Kabupaten Lembata, Nusa Tenggara Tim.","Kabupaten Lembata, Nusa Tenggara Tim.",NUSA TENGGARA TIMUR,,Indonesia,,,,-8.3726375,123.4311363,https://maps.google.com/?cid=0x0:0x544dd05d3cca8713,
restaurant,Hidangan Laut,Warung Makan Jahe Bu Murni,"JCHH+228, Jl. Trans Lembata, Lewoleba Tengah, Kec. Nubatukan, Kabupaten Lembata, Nusa Tenggara Tim.","Kabupaten Lembata, Nusa Tenggara Tim.",NUSA TENGGARA TIMUR,,Indonesia,,,,-8.3725267,123.4277742,https://maps.google.com/?cid=0x0:0xd4500661e611c776,
restaurant,Toko bahan makanan,Olympic Ballroom  Resto,"SGB Bungsu, Jalan, North Lewoleba, Nubatukan, Lembata Regency, East Nusa Tenggara","Kabupaten Lembata, Nusa Tenggara Tim.",NUSA TENGGARA TIMUR,,Indonesia,,,,-8.3725771,123.4084656,https://maps.google.com/?cid=0x0:0xfae73f061d039a8d,
restaurant,Jawa,Rumah Makan Wulandari,"JCHC+C4R, Jl. Trans Lembata, Lewoleba Tengah, Kec. Nubatukan, Kabupaten Lembata, Nusa Tenggara Tim.","Kabupaten Lembata, Nusa Tenggara Tim.",NUSA TENGGARA TIMUR,,Indonesia,,,,-8.3713866,123.4202563,https://maps.google.com/?cid=0x0:0xc1cc6a67fb6347e3,
restaurant,Kedai Kopi,Gorengan Nona Wutun,"Dusun 1 Watena depan SMP No.N 1, Katakeja, Kec. Atadei, Kabupaten Lembata, Nusa Tenggara Tim.","Kabupaten Lembata, Nusa Tenggara Tim.",NUSA TENGGARA TIMUR,,Indonesia,82217992126.0,,,-8.4362337,123.4657638,https://maps.google.com/?cid=0x0:0x1f314d114749503b,
restaurant,Tempat Cukur Rambut,3G Cafe  Barbershop,"Jl. Trans Lembata No.Kel, Lewoleba Timur, Kec. Nubatukan, Kabupaten Lembata, Nusa Tenggara Tim. 86682","Lewoleba Timur, Kec. Nubatukan, Kabupaten Lembata",NUSA TENGGARA TIMUR,86682.0,Indonesia,81339677068.0,,,-8.3692046,123.4389565,https://maps.google.com/?cid=0x0:0xf6223ac17edbdb9b,
restaurant,Rumah Makan,SAUNG ABIY THALAH,"Jl. Trans Lembata No.92, Lewoleba Timur, Kec. Nubatukan, Kabupaten Lembata, Nusa Tenggara Tim. 86616","Lewoleba Timur, Kec. Nubatukan, Kabupaten Lembata",NUSA TENGGARA TIMUR,86616.0,Indonesia,81337929497.0,,,-8.3681362,123.4396538,https://maps.google.com/?cid=0x0:0x18e99f2848d7dd9b,
restaurant,Padang,Wr Makan Mekar Sari Bumiayu,"JCH9+FV5, Lewoleba Tengah, Kec. Nubatukan, Kabupaten Lembata, Nusa Tenggara Tim.","Kabupaten Lembata, Nusa Tenggara Tim.",NUSA TENGGARA TIMUR,,Indonesia,82145465101.0,,,-8.3713633,123.4197428,https://maps.google.com/?cid=0x0:0x40d098a924815c5b,
restaurant,Komplek perumahan,Lapaz Squad KOLILEREK,"HF3C+C8X, Unnamed Road, Tubuk Rajan, Kec. Atadei, Kabupaten Lembata, Nusa Tenggara Tim.","Kabupaten Lembata, Nusa Tenggara Tim.",NUSA TENGGARA TIMUR,,Indonesia,,,,-8.4463907,123.4708692,https://maps.google.com/?cid=0x0:0x248efc224f5055a8,
restaurant,Jawa,Warung Makan Persik Indah,"JCHJ+3MF, Lewoleba Tengah, Kec. Nubatukan, Kabupaten Lembata, Nusa Tenggara Tim.","Kabupaten Lembata, Nusa Tenggara Tim.",NUSA TENGGARA TIMUR,,Indonesia,,,,-8.3723017,123.4316607,https://maps.google.com/?cid=0x0:0xd695d8b609196d1a,
restaurant,Hotel,ELMANY HOMESTAY AND RESTO,"Jl. Trans Lembata RT. 016 RW.03 Lamahora Tengah, Kel, Lewoleba Timur Kec, Kec. Nubatukan, Kabupaten Lembata, Nusa Tenggara Tim.","Kabupaten Lembata, Nusa Tenggara Tim.",NUSA TENGGARA TIMUR,,Indonesia,82247948729.0,,,-8.3652856,123.4444909,https://maps.google.com/?cid=0x0:0x4bc38807035dbfb4,
restaurant,Kafe,Agrowisata Ema Pia,"JCG6+G7C, Lewoleba Utara, Kec. Nubatukan, Kabupaten Lembata, Nusa Tenggara Tim.","Kabupaten Lembata, Nusa Tenggara Tim.",NUSA TENGGARA TIMUR,,Indonesia,,,,-8.3736849,123.410651,https://maps.google.com/?cid=0x0:0xb392103c25e45bf6,
restaurant,Restoran,Mie Ayam Pangsit Mas Trisno,"JCH8+G7Q, Lewoleba Tengah, Kec. Nubatukan, Kabupaten Lembata, Nusa Tenggara Tim.","Kabupaten Lembata, Nusa Tenggara Tim.",NUSA TENGGARA TIMUR,,Indonesia,,,,-8.3711661,123.4157462,https://maps.google.com/?cid=0x0:0x494da57562380119,
restaurant,restaurant,Kec. Buyasari,"Kabupaten Lembata, Nusa Tenggara Tim.","Kabupaten Lembata, Nusa Tenggara Tim.",NUSA TENGGARA TIMUR,,Indonesia,,,,-8.2341393,123.7965376,https://maps.google.com/?cid=0x0:0x634360f4156fb87d,
restaurant,Pembangunan Perumahan,moke home stay lolonrian,"RR85+PC, Buriwutung, Kec. Buyasari, Kabupaten Lembata, Nusa Tenggara Tim.","Kabupaten Lembata, Nusa Tenggara Tim.",NUSA TENGGARA TIMUR,,Indonesia,,,,-8.1830892,123.8086357,https://maps.google.com/?cid=0x0:0xc61ebf42e5155b32,
restaurant,restaurant,Bukit Gurita,"RR3C+VGV, Umaleu, Kec. Buyasari, Kabupaten Lembata, Nusa Tenggara Tim.","Kabupaten Lembata, Nusa Tenggara Tim.",NUSA TENGGARA TIMUR,,Indonesia,82145300306.0,,,-8.1952538,123.8212831,https://maps.google.com/?cid=0x0:0x346db42ba4107d19,
restaurant,restaurant,Warung Makan Aldi,"RR49+CRQ, Umaleu, Kec. Buyasari, Kabupaten Lembata, Nusa Tenggara Tim.","Kabupaten Lembata, Nusa Tenggara Tim.",NUSA TENGGARA TIMUR,,Indonesia,,,,-8.1939048,123.8195984,https://maps.google.com/?cid=0x0:0x5d997dbd48cc91a1,
restaurant,restaurant,Rumah bang ahmad,"RQGQ+XHJ, Mampir, Kec. Buyasari, Kabupaten Lembata, Nusa Tenggara Tim.","Kabupaten Lembata, Nusa Tenggara Tim.",NUSA TENGGARA TIMUR,,Indonesia,,,,-8.1730831,123.7881994,https://maps.google.com/?cid=0x0:0xdf653ae5a3b1f867,
restaurant,Sekolah,Kalikur,"RQGC+M7P Ventas kompleks, Kalikur,peuwutuq, Bareng, Kec. Buyasari, Kabupaten Lembata, Nusa Tenggara Tim.","Kabupaten Lembata, Nusa Tenggara Tim.",NUSA TENGGARA TIMUR,,Indonesia,,,,-8.1732768,123.7707698,https://maps.google.com/?cid=0x0:0x6e18f4f5f5089464,
restaurant,restaurant,Wifi vocer alan.net,"BAim AB, Bareng, Kec. Buyasari, Kabupaten Lembata, Nusa Tenggara Tim.","Kabupaten Lembata, Nusa Tenggara Tim.",NUSA TENGGARA TIMUR,,Indonesia,,,,-8.1728382,123.7727156,https://maps.google.com/?cid=0x0:0xc4cd8e554b8fb3fc,
restaurant,restaurant,Kec. Ile Ape,"Kabupaten Lembata, Nusa Tenggara Tim.","Kabupaten Lembata, Nusa Tenggara Tim.",NUSA TENGGARA TIMUR,,Indonesia,,,,-8.2710158,123.4600712,https://maps.google.com/?cid=0x0:0x326d060bf93304cb,
restaurant,Brunch,Warung Makan Lumayan,"JFR5+76G, Lewoleba Tim., Kec. Nubatukan, Kabupaten Lembata, Nusa Tenggara Tim.","Kabupaten Lembata, Nusa Tenggara Tim.",NUSA TENGGARA TIMUR,,Indonesia,,,,-8.3593131,123.4580922,https://maps.google.com/?cid=0x0:0xc9d71c36f9f31f,
restaurant,Kafe,linhome,"PFJ6+2RW, Waowala, Kec. Ile Ape, Kabupaten Lembata, Nusa Tenggara Tim.","Kabupaten Lembata, Nusa Tenggara Tim.",NUSA TENGGARA TIMUR,,Indonesia,82144664882.0,,,-8.2698991,123.4620893,https://maps.google.com/?cid=0x0:0x309c534b8cd1cc8c,
restaurant,Tempat Cukur Rambut,3G Cafe  Barbershop,"Jl. Trans Lembata No.Kel, Lewoleba Timur, Kec. Nubatukan, Kabupaten Lembata, Nusa Tenggara Tim. 86682","Lewoleba Timur, Kec. Nubatukan, Kabupaten Lembata",NUSA TENGGARA TIMUR,86682.0,Indonesia,81339677068.0,,,-8.3692046,123.4389565,https://maps.google.com/?cid=0x0:0xf6223ac17edbdb9b,
restaurant,Komplek perumahan,ADP (ANAKDEPANGEREJAWAOWALA),"PFH6+HGJ, Waowala, Kec. Ile Ape, Kabupaten Lembata, Nusa Tenggara Tim.","Kabupaten Lembata, Nusa Tenggara Tim.",NUSA TENGGARA TIMUR,,Indonesia,,,,-8.2710365,123.4612538,https://maps.google.com/?cid=0x0:0x34ba7959b823ffbc,
restaurant,Komplek perumahan,Abang burger,"Perumahan Waesesa, Waowala, Kec. Ile Ape, Kabupaten Lembata, Nusa Tenggara Tim. 86683","Waowala, Kec. Ile Ape, Kabupaten Lembata",NUSA TENGGARA TIMUR,86683.0,Indonesia,85133724068.0,,,-8.2894423,123.4376846,https://maps.google.com/?cid=0x0:0x58762e82f66e1201,
restaurant,Hotel,ELMANY HOMESTAY AND RESTO,"Jl. Trans Lembata RT. 016 RW.03 Lamahora Tengah, Kel, Lewoleba Timur Kec, Kec. Nubatukan, Kabupaten Lembata, Nusa Tenggara Tim.","Kabupaten Lembata, Nusa Tenggara Tim.",NUSA TENGGARA TIMUR,,Indonesia,82247948729.0,,,-8.3652856,123.4444909,https://maps.google.com/?cid=0x0:0x4bc38807035dbfb4,
restaurant,Jawa Timur,Rumah Makan Atun. Terminal Timur Lewoleba,"JFR6+W6Q, Lewoleba Tim., Kec. Nubatukan, Kabupaten Lembata, Nusa Tenggara Tim.","Kabupaten Lembata, Nusa Tenggara Tim.",NUSA TENGGARA TIMUR,,Indonesia,,,,-8.3576618,123.4606168,https://maps.google.com/?cid=0x0:0xe3adfc675a8a7aff,
restaurant,Hidangan Laut,Pondok Sei Lembata,"JCJV+R96, Lewoleba Tim., Kec. Nubatukan, Kabupaten Lembata, Nusa Tenggara Tim.","Kabupaten Lembata, Nusa Tenggara Tim.",NUSA TENGGARA TIMUR,,Indonesia,81339787167.0,,,-8.3679534,123.443398,https://maps.google.com/?cid=0x0:0xda127ac0fb015bba,
restaurant,Rumah Makan,SAUNG ABIY THALAH,"Jl. Trans Lembata No.92, Lewoleba Timur, Kec. Nubatukan, Kabupaten Lembata, Nusa Tenggara Tim. 86616","Lewoleba Timur, Kec. Nubatukan, Kabupaten Lembata",NUSA TENGGARA TIMUR,86616.0,Indonesia,81337929497.0,,,-8.3681362,123.4396538,https://maps.google.com/?cid=0x0:0x18e99f2848d7dd9b,
restaurant,Kedai Kopi,Mario Cafe,"Jl. Trans Lembata No.3, Lewoleba Tim, Kec. Nubatukan, Kabupaten Lembata, Nusa Tenggara Tim. 86616","Lewoleba Tim, Kec. Nubatukan, Kabupaten Lembata",NUSA TENGGARA TIMUR,86616.0,Indonesia,,,,-8.3668356,123.4416382,https://maps.google.com/?cid=0x0:0x68109e1dd40be666,
restaurant,Indonesia,RM Berkat Lomlen,"JCJQ+HJ5, Lewoleba Tim., Kec. Nubatukan, Kabupaten Lembata, Nusa Tenggara Tim.","Kabupaten Lembata, Nusa Tenggara Tim.",NUSA TENGGARA TIMUR,,Indonesia,,,,-8.3686139,123.4391229,https://maps.google.com/?cid=0x0:0x2cd06a7a4277f182,
restaurant,Tempat Istirahat,Asam 1 Komplex (Kolibaran Watodiri),"MF6M+FW5, Muruona, Kec. Ile Ape, Kabupaten Lembata, Nusa Tenggara Tim.","Kabupaten Lembata, Nusa Tenggara Tim.",NUSA TENGGARA TIMUR,,Indonesia,85333011205.0,,,-8.3388524,123.4848559,https://maps.google.com/?cid=0x0:0xad87771cc8ba816c,
restaurant,Indonesia,Rm Mustika,"JCJQ+CV6, Selandoro, Kec. Nubatukan, Kabupaten Lembata, Nusa Tenggara Tim.","Kabupaten Lembata, Nusa Tenggara Tim.",NUSA TENGGARA TIMUR,,Indonesia,,,,-8.3689633,123.4396502,https://maps.google.com/?cid=0x0:0x1bb5985463625c4e,
restaurant,Kafe,Omah Bu'e Lembata,"Kandang Rusa - Lamahora, Jl. Trans Lembata, Lewoleba, Kec. Nubatukan, Kabupaten Lembata, Nusa Tenggara Tim. 86616","Jl. Trans Lembata, Lewoleba, Kec. Nubatukan, Kabupaten Lembata",NUSA TENGGARA TIMUR,86616.0,Indonesia,81338965654.0,,,-8.367236,123.4423162,https://maps.google.com/?cid=0x0:0x9e3075c4cd0b6cac,
restaurant,Padang,Rumah Makan Merkuri,"JFQ3+PRP, Lewoleba Tim., Kec. Nubatukan, Kabupaten Lembata, Nusa Tenggara Tim.","Kabupaten Lembata, Nusa Tenggara Tim.",NUSA TENGGARA TIMUR,,Indonesia,81339862931.0,,,-8.3606622,123.4545935,https://maps.google.com/?cid=0x0:0x16c48db578d56203,
restaurant,Rumah Makan,ARAK AL SMEES PETUNTAWA,"PF22+5MW, Jl. Ring Ileape, Petuntawa, Kec. Ile Ape, Kabupaten Lembata, Nusa Tenggara Tim.","Kabupaten Lembata, Nusa Tenggara Tim.",NUSA TENGGARA TIMUR,,Indonesia,,,,-8.298701,123.451774,https://maps.google.com/?cid=0x0:0x52469f3668464ce3,
restaurant,Kafetaria,RnB center,"MFV3+MJW, Petuntawa, Kec. Ile Ape, Kabupaten Lembata, Nusa Tenggara Tim.","Kabupaten Lembata, Nusa Tenggara Tim.",NUSA TENGGARA TIMUR,,Indonesia,82247022239.0,,,-8.3057711,123.454092,https://maps.google.com/?cid=0x0:0x5be1b5ec041577ac,
restaurant,Kedai Kopi,Depot air Holoriang,"P9JX+269, Tagawiti, Kec. Ile Ape, Kabupaten Lembata, Nusa Tenggara Tim.","Kabupaten Lembata, Nusa Tenggara Tim.",NUSA TENGGARA TIMUR,,Indonesia,85240689262.0,,,-8.2699676,123.3981136,https://maps.google.com/?cid=0x0:0x2aa89bea2d7bec4f,
restaurant,Jawa Timur,WARUNG LUMAYAN 2,"Jl. Trans Lembata No.3, Lewoleba Tim., Kec. Nubatukan, Kabupaten Lembata, Nusa Tenggara Tim. 86616","Lewoleba Tim., Kec. Nubatukan, Kabupaten Lembata",NUSA TENGGARA TIMUR,86616.0,Indonesia,82140209224.0,,,-8.3679267,123.4411249,https://maps.google.com/?cid=0x0:0xe3e5899bb634115b,
restaurant,Makanan Siap Saji,BIG CHICKEN LEMBATA,"JCJQ+29F, Selandoro, Kec. Nubatukan, Kabupaten Lembata, Nusa Tenggara Tim.","Kabupaten Lembata, Nusa Tenggara Tim.",NUSA TENGGARA TIMUR,,Indonesia,,,,-8.3699437,123.438432,https://maps.google.com/?cid=0x0:0x51574bc520897df2,
restaurant,restaurant,Kec. Ile Ape Tim.,"Kabupaten Lembata, Nusa Tenggara Tim.","Kabupaten Lembata, Nusa Tenggara Tim.",NUSA TENGGARA TIMUR,,Indonesia,,,,-8.258433,123.5466807,https://maps.google.com/?cid=0x0:0x77a0f208453323a,
restaurant,Komplek perumahan,ADP (ANAKDEPANGEREJAWAOWALA),"PFH6+HGJ, Waowala, Kec. Ile Ape, Kabupaten Lembata, Nusa Tenggara Tim.","Kabupaten Lembata, Nusa Tenggara Tim.",NUSA TENGGARA TIMUR,,Indonesia,,,,-8.2710365,123.4612538,https://maps.google.com/?cid=0x0:0x34ba7959b823ffbc,
restaurant,Kedai Kopi,R. Linus Boli Lemau,"PGWP+WH3, Lamaau, Kec. Ile Ape Tim., Kabupaten Lembata, Nusa Tenggara Tim.","Kabupaten Lembata, Nusa Tenggara Tim.",NUSA TENGGARA TIMUR,,Indonesia,,,,-8.2527393,123.536408,https://maps.google.com/?cid=0x0:0x35d4dd24d0c20168,
restaurant,Kafe,linhome,"PFJ6+2RW, Waowala, Kec. Ile Ape, Kabupaten Lembata, Nusa Tenggara Tim.","Kabupaten Lembata, Nusa Tenggara Tim.",NUSA TENGGARA TIMUR,,Indonesia,82144664882.0,,,-8.2698991,123.4620893,https://maps.google.com/?cid=0x0:0x309c534b8cd1cc8c,
restaurant,Kafetaria,RnB center,"MFV3+MJW, Petuntawa, Kec. Ile Ape, Kabupaten Lembata, Nusa Tenggara Tim.","Kabupaten Lembata, Nusa Tenggara Tim.",NUSA TENGGARA TIMUR,,Indonesia,82247022239.0,,,-8.3057711,123.454092,https://maps.google.com/?cid=0x0:0x5be1b5ec041577ac,
restaurant,Rumah Makan,ARAK AL SMEES PETUNTAWA,"PF22+5MW, Jl. Ring Ileape, Petuntawa, Kec. Ile Ape, Kabupaten Lembata, Nusa Tenggara Tim.","Kabupaten Lembata, Nusa Tenggara Tim.",NUSA TENGGARA TIMUR,,Indonesia,,,,-8.298701,123.451774,https://maps.google.com/?cid=0x0:0x52469f3668464ce3,
restaurant,Bar,Ruko Family,"GANG Denger, Petuntawa, Nusa Tenggara Tim.","Kabupaten Lembata, Nusa Tenggara Tim.",NUSA TENGGARA TIMUR,,Indonesia,,,,-8.3014568,123.4522896,https://maps.google.com/?cid=0x0:0xfeaa11eb70e2f4fd,
restaurant,Dapur Umum,Fais lamaau,"PGWP+WH3, Lamaau, Kec. Ile Ape Tim., Kabupaten Lembata, Nusa Tenggara Tim.","Kabupaten Lembata, Nusa Tenggara Tim.",NUSA TENGGARA TIMUR,,Indonesia,,,,-8.2527393,123.536408,https://maps.google.com/?cid=0x0:0xf21dddeef56ba691,
restaurant,restaurant,Gn. Lewotolo,"Lamagute, Kec. Ile Ape Tim., Kabupaten Lembata, Nusa Tenggara Tim.","Kabupaten Lembata, Nusa Tenggara Tim.",NUSA TENGGARA TIMUR,,Indonesia,,,,-8.272,123.505,https://maps.google.com/?cid=0x0:0xaef1f71656e37f3f,
restaurant,Ahli tembakau,Zippo Purab,"Amakaka, Kabupaten Lembata, Nusa Tenggara Tim. 86683",Kabupaten Lembata,NUSA TENGGARA TIMUR,86683.0,Indonesia,81351779785.0,,,-8.2609159,123.4707013,https://maps.google.com/?cid=0x0:0x6ca9c622b154238f,
restaurant,restaurant,Kopi Air Hujan,"QG5R+4MV Bao Lali Duli, Lamatokan, Kec. Ile Ape Tim., Kabupaten Lembata, Nusa Tenggara Tim.","Kabupaten Lembata, Nusa Tenggara Tim.",NUSA TENGGARA TIMUR,,Indonesia,,,,-8.2421484,123.5416621,https://maps.google.com/?cid=0x0:0xe5f0414efe274136,
restaurant,Pembangunan Perumahan,Bungamuda capitall B,"PFWH+C3V, Jalan Ring, Ile Ape, Lembata Regency, East Nusa Tenggara","Kabupaten Lembata, Nusa Tenggara Tim.",NUSA TENGGARA TIMUR,,Indonesia,,,,-8.2538934,123.4776629,https://maps.google.com/?cid=0x0:0x7c4981aee48a0cba,
restaurant,restaurant,"Watantuan, Tokojaeng,IleapeTimur,Lembata","PGQW+QW5, Lamatokan, Kec. Ile Ape Tim., Kabupaten Lembata, Nusa Tenggara Tim.","Kabupaten Lembata, Nusa Tenggara Tim.",NUSA TENGGARA TIMUR,,Indonesia,,,,-8.260607,123.5473564,https://maps.google.com/?cid=0x0:0x87471650f7ce05b4,
restaurant,Kedai Kopi,Aloma komplex,"PFXG+3H5, Jalan, Ring, Kec. Ile Ape, Kabupaten Lembata, Nusa Tenggara Tim.","Kabupaten Lembata, Nusa Tenggara Tim.",NUSA TENGGARA TIMUR,,Indonesia,,,,-8.2528596,123.4763728,https://maps.google.com/?cid=0x0:0xca5f325edc29705a,
restaurant,restaurant,Kec. Lebatukan,"Kabupaten Lembata, Nusa Tenggara Tim.","Kabupaten Lembata, Nusa Tenggara Tim.",NUSA TENGGARA TIMUR,,Indonesia,,,,-8.3697073,123.54609,https://maps.google.com/?cid=0x0:0xa62ae0579a3a3f13,
restaurant,Brunch,Warung Makan Lumayan,"JFR5+76G, Lewoleba Tim., Kec. Nubatukan, Kabupaten Lembata, Nusa Tenggara Tim.","Kabupaten Lembata, Nusa Tenggara Tim.",NUSA TENGGARA TIMUR,,Indonesia,,,,-8.3593131,123.4580922,https://maps.google.com/?cid=0x0:0xc9d71c36f9f31f,
restaurant,Indonesia,RM Berkat Lomlen,"JCJQ+HJ5, Lewoleba Tim., Kec. Nubatukan, Kabupaten Lembata, Nusa Tenggara Tim.","Kabupaten Lembata, Nusa Tenggara Tim.",NUSA TENGGARA TIMUR,,Indonesia,,,,-8.3686139,123.4391229,https://maps.google.com/?cid=0x0:0x2cd06a7a4277f182,
restaurant,Padang,Rumah Makan Merkuri,"JFQ3+PRP, Lewoleba Tim., Kec. Nubatukan, Kabupaten Lembata, Nusa Tenggara Tim.","Kabupaten Lembata, Nusa Tenggara Tim.",NUSA TENGGARA TIMUR,,Indonesia,81339862931.0,,,-8.3606622,123.4545935,https://maps.google.com/?cid=0x0:0x16c48db578d56203,
restaurant,Jawa Timur,RM. Ayu Nisa,"JFQ4+R2H, Lewoleba Tim., Kec. Nubatukan, Kabupaten Lembata, Nusa Tenggara Tim.","Kabupaten Lembata, Nusa Tenggara Tim.",NUSA TENGGARA TIMUR,,Indonesia,,,,-8.3604304,123.4551211,https://maps.google.com/?cid=0x0:0x529b6f8254235aaf,
restaurant,Rumah Makan,Warung Makan Mbak Erna,"JCHG+3XX, Lewoleba Tengah, Kec. Nubatukan, Kabupaten Lembata, Nusa Tenggara Tim.","Kabupaten Lembata, Nusa Tenggara Tim.",NUSA TENGGARA TIMUR,,Indonesia,82131073247.0,,,-8.3722645,123.4274821,https://maps.google.com/?cid=0x0:0xed73bd17d2afdce2,
restaurant,Jawa Timur,Rumah Makan Atun. Terminal Timur Lewoleba,"JFR6+W6Q, Lewoleba Tim., Kec. Nubatukan, Kabupaten Lembata, Nusa Tenggara Tim.","Kabupaten Lembata, Nusa Tenggara Tim.",NUSA TENGGARA TIMUR,,Indonesia,,,,-8.3576618,123.4606168,https://maps.google.com/?cid=0x0:0xe3adfc675a8a7aff,
restaurant,Tempat Cukur Rambut,3G Cafe  Barbershop,"Jl. Trans Lembata No.Kel, Lewoleba Timur, Kec. Nubatukan, Kabupaten Lembata, Nusa Tenggara Tim. 86682","Lewoleba Timur, Kec. Nubatukan, Kabupaten Lembata",NUSA TENGGARA TIMUR,86682.0,Indonesia,81339677068.0,,,-8.3692046,123.4389565,https://maps.google.com/?cid=0x0:0xf6223ac17edbdb9b,
restaurant,Rumah Makan,SAUNG ABIY THALAH,"Jl. Trans Lembata No.92, Lewoleba Timur, Kec. Nubatukan, Kabupaten Lembata, Nusa Tenggara Tim. 86616","Lewoleba Timur, Kec. Nubatukan, Kabupaten Lembata",NUSA TENGGARA TIMUR,86616.0,Indonesia,81337929497.0,,,-8.3681362,123.4396538,https://maps.google.com/?cid=0x0:0x18e99f2848d7dd9b,
restaurant,Restoran,Rest area lewolein,"PJ2H+QJ3, Jl. Trans Lembata, Dikesare, Kec. Lebatukan, Kabupaten Lembata, Nusa Tenggara Tim.","Kabupaten Lembata, Nusa Tenggara Tim.",NUSA TENGGARA TIMUR,,Indonesia,,,,-8.2981084,123.6290481,https://maps.google.com/?cid=0x0:0xa8cd15031ab30542,
restaurant,Indonesia,Rm Mustika,"JCJQ+CV6, Selandoro, Kec. Nubatukan, Kabupaten Lembata, Nusa Tenggara Tim.","Kabupaten Lembata, Nusa Tenggara Tim.",NUSA TENGGARA TIMUR,,Indonesia,,,,-8.3689633,123.4396502,https://maps.google.com/?cid=0x0:0x1bb5985463625c4e,
restaurant,Taman,Cafe Pantai Hadakewa,"JGJV+C9G, Jl. Trans Lembata, Merdeka, Kec. Lebatukan, Kabupaten Lembata, Nusa Tenggara Tim.","Kabupaten Lembata, Nusa Tenggara Tim.",NUSA TENGGARA TIMUR,,Indonesia,,,,-8.3686865,123.5431303,https://maps.google.com/?cid=0x0:0x6936f901feeb7847,
restaurant,Hidangan Laut,Pondok Sei Lembata,"JCJV+R96, Lewoleba Tim., Kec. Nubatukan, Kabupaten Lembata, Nusa Tenggara Tim.","Kabupaten Lembata, Nusa Tenggara Tim.",NUSA TENGGARA TIMUR,,Indonesia,81339787167.0,,,-8.3679534,123.443398,https://maps.google.com/?cid=0x0:0xda127ac0fb015bba,
restaurant,Jawa Timur,WARUNG LUMAYAN 2,"Jl. Trans Lembata No.3, Lewoleba Tim., Kec. Nubatukan, Kabupaten Lembata, Nusa Tenggara Tim. 86616","Lewoleba Tim., Kec. Nubatukan, Kabupaten Lembata",NUSA TENGGARA TIMUR,86616.0,Indonesia,82140209224.0,,,-8.3679267,123.4411249,https://maps.google.com/?cid=0x0:0xe3e5899bb634115b,
restaurant,Kedai Kopi,Mario Cafe,"Jl. Trans Lembata No.3, Lewoleba Tim, Kec. Nubatukan, Kabupaten Lembata, Nusa Tenggara Tim. 86616","Lewoleba Tim, Kec. Nubatukan, Kabupaten Lembata",NUSA TENGGARA TIMUR,86616.0,Indonesia,,,,-8.3668356,123.4416382,https://maps.google.com/?cid=0x0:0x68109e1dd40be666,
restaurant,Hotel,ELMANY HOMESTAY AND RESTO,"Jl. Trans Lembata RT. 016 RW.03 Lamahora Tengah, Kel, Lewoleba Timur Kec, Kec. Nubatukan, Kabupaten Lembata, Nusa Tenggara Tim.","Kabupaten Lembata, Nusa Tenggara Tim.",NUSA TENGGARA TIMUR,,Indonesia,82247948729.0,,,-8.3652856,123.4444909,https://maps.google.com/?cid=0x0:0x4bc38807035dbfb4,
restaurant,Makanan Siap Saji,BIG CHICKEN LEMBATA,"JCJQ+29F, Selandoro, Kec. Nubatukan, Kabupaten Lembata, Nusa Tenggara Tim.","Kabupaten Lembata, Nusa Tenggara Tim.",NUSA TENGGARA TIMUR,,Indonesia,,,,-8.3699437,123.438432,https://maps.google.com/?cid=0x0:0x51574bc520897df2,
restaurant,Es Krim,FUNN Ice Cream  Cafe Lembata,"Jl. Trans Lembata, Lewoleba Tim, Kec. Nubatukan, Kabupaten Lembata, Nusa Tenggara Tim. 86615","Lewoleba Tim, Kec. Nubatukan, Kabupaten Lembata",NUSA TENGGARA TIMUR,86615.0,Indonesia,,,,-8.3673087,123.4420934,https://maps.google.com/?cid=0x0:0xb165773430c178a5,
restaurant,Sesuai untuk keluarga,Domi Lewerang,"JJJM+RPH, Atakowa, Kec. Lebatukan, Kabupaten Lembata, Nusa Tenggara Tim.","Kabupaten Lembata, Nusa Tenggara Tim.",NUSA TENGGARA TIMUR,,Indonesia,,,,-8.3679386,123.6343619,https://maps.google.com/?cid=0x0:0xca30bca6f75c1617,
restaurant,Bar,Rumah Kemel,"MJ3M+GPC, Atakowa, Kec. Lebatukan, Kabupaten Lembata, Nusa Tenggara Tim.","Kabupaten Lembata, Nusa Tenggara Tim.",NUSA TENGGARA TIMUR,,Indonesia,,,,-8.346379,123.6344897,https://maps.google.com/?cid=0x0:0x3f47c95deb424215,
restaurant,Rumah Makan,Warung Makan Bandung,"JCH7+4RV, Lewoleba Tengah, Kec. Nubatukan, Kabupaten Lembata, Nusa Tenggara Tim.","Kabupaten Lembata, Nusa Tenggara Tim.",NUSA TENGGARA TIMUR,,Indonesia,82237533963.0,,,-8.3721446,123.4145516,https://maps.google.com/?cid=0x0:0xf230ff2fd9f8fc78,
restaurant,Jawa Timur,RUMAH MAKAN,"AKELOHE, LAMAHORA, Jl. Trans Lembata, Nusa Tenggara Tim.","Kabupaten Lembata, Nusa Tenggara Tim.",NUSA TENGGARA TIMUR,,Indonesia,,,,-8.3615466,123.4568127,https://maps.google.com/?cid=0x0:0xcdd9a7184a00bf3d,
restaurant,Kafe,linhome,"PFJ6+2RW, Waowala, Kec. Ile Ape, Kabupaten Lembata, Nusa Tenggara Tim.","Kabupaten Lembata, Nusa Tenggara Tim.",NUSA TENGGARA TIMUR,,Indonesia,82144664882.0,,,-8.2698991,123.4620893,https://maps.google.com/?cid=0x0:0x309c534b8cd1cc8c,
restaurant,Kafe,Cafe Baoviga,"Pasir Putih, Kec. Naga Wutung, Kabupaten Lembata, Nusa Tenggara Tim.","Kabupaten Lembata, Nusa Tenggara Tim.",NUSA TENGGARA TIMUR,,Indonesia,82214401540.0,,,-8.5444866,123.2686535,https://maps.google.com/?cid=0x0:0x222d926bfdf67267,
restaurant,Komplek perumahan,Rumah Duanzha putra,"F9P4+4JR, Atawai, Kec. Naga Wutung, Kabupaten Lembata, Nusa Tenggara Tim.","Kabupaten Lembata, Nusa Tenggara Tim.",NUSA TENGGARA TIMUR,,Indonesia,82197401614.0,,,-8.5147709,123.3564096,https://maps.google.com/?cid=0x0:0x6437ee390ab04836,
restaurant,restaurant,Kec. Naga Wutung,"Kabupaten Lembata, Nusa Tenggara Tim.","Kabupaten Lembata, Nusa Tenggara Tim.",NUSA TENGGARA TIMUR,,Indonesia,,,,-8.4696349,123.2820337,https://maps.google.com/?cid=0x0:0x3bb0d340f794ad8b,
restaurant,restaurant,Warung Loang,"G7JP+F28, Duawutun, Kec. Naga Wutung, Kabupaten Lembata, Nusa Tenggara Tim.","Kabupaten Lembata, Nusa Tenggara Tim.",NUSA TENGGARA TIMUR,,Indonesia,,,,-8.4687857,123.2851706,https://maps.google.com/?cid=0x0:0xd540eeea172f2e18,
restaurant,restaurant,Mbak KRISTIN,"F746+PF8, Pasir Putih, Kec. Naga Wutung, Kabupaten Lembata, Nusa Tenggara Tim.","Kabupaten Lembata, Nusa Tenggara Tim.",NUSA TENGGARA TIMUR,,Indonesia,,,,-8.5432038,123.2612152,https://maps.google.com/?cid=0x0:0xa30d11887a5bf661,
restaurant,Restoran,La Nuna Cafe  Resto,"Jl. Duren II no.52 RT 006 / RW 002, Karang Tengah, Pedurenan, Kec. Tangerang, Kota Tangerang, Banten 15157","Karang Tengah, Pedurenan, Kec. Tangerang, Kota Tangerang",NUSA TENGGARA TIMUR,15157.0,Indonesia,81315009970.0,,,-6.22383,106.7007949,https://maps.google.com/?cid=0x0:0x1f529b32d18de52e,
restaurant,restaurant,Bakmi Naga Resto PGC Cililitan,"Pusat Grosir Cililitan, Jalan Dewi Sartika RT 001 RW 013, Kelurahan Cililitan, Jati, Kecamatan Keramat, Kota Jakarta Timur, Daerah Khusus Ibukota Jakarta 13640","Jalan Dewi Sartika RT 001 RW 013, Kelurahan Cililitan, Jati, Kecamatan Keramat, Kota Jakarta Timur",NUSA TENGGARA TIMUR,13640.0,Indonesia,81311808259.0,,,-6.2621259,106.8647248,https://maps.google.com/?cid=0x0:0xa677f66bc5be8d40,
restaurant,restaurant,Kec. Nubatukan,"Kabupaten Lembata, Nusa Tenggara Tim.","Kabupaten Lembata, Nusa Tenggara Tim.",NUSA TENGGARA TIMUR,,Indonesia,,,,-8.3731739,123.4288459,https://maps.google.com/?cid=0x0:0x5937ac1360822cb3,
restaurant,Toko bahan makanan,Olympic Ballroom  Resto,"SGB Bungsu, Jalan, North Lewoleba, Nubatukan, Lembata Regency, East Nusa Tenggara","Kabupaten Lembata, Nusa Tenggara Tim.",NUSA TENGGARA TIMUR,,Indonesia,,,,-8.3725771,123.4084656,https://maps.google.com/?cid=0x0:0xfae73f061d039a8d,
restaurant,Brunch,Warung Makan Lumayan,"JFR5+76G, Lewoleba Tim., Kec. Nubatukan, Kabupaten Lembata, Nusa Tenggara Tim.","Kabupaten Lembata, Nusa Tenggara Tim.",NUSA TENGGARA TIMUR,,Indonesia,,,,-8.3593131,123.4580922,https://maps.google.com/?cid=0x0:0xc9d71c36f9f31f,
restaurant,Jawa Timur,RM. Ayu Nisa,"JFQ4+R2H, Lewoleba Tim., Kec. Nubatukan, Kabupaten Lembata, Nusa Tenggara Tim.","Kabupaten Lembata, Nusa Tenggara Tim.",NUSA TENGGARA TIMUR,,Indonesia,,,,-8.3604304,123.4551211,https://maps.google.com/?cid=0x0:0x529b6f8254235aaf,
restaurant,Rumah Makan,Warung Makan Bandung,"JCH7+4RV, Lewoleba Tengah, Kec. Nubatukan, Kabupaten Lembata, Nusa Tenggara Tim.","Kabupaten Lembata, Nusa Tenggara Tim.",NUSA TENGGARA TIMUR,,Indonesia,82237533963.0,,,-8.3721446,123.4145516,https://maps.google.com/?cid=0x0:0xf230ff2fd9f8fc78,
restaurant,Brunch,Warung Makan Mas Rozak,"Unnamed Road, Lewoleba Tengah, Kec. Nubatukan, Kabupaten Lembata, Nusa Tenggara Tim.","Kabupaten Lembata, Nusa Tenggara Tim.",NUSA TENGGARA TIMUR,,Indonesia,,,,-8.3730365,123.429806,https://maps.google.com/?cid=0x0:0xce1727f9db9d2f63,
restaurant,Rumah Makan,Warung Makan Mbak Erna,"JCHG+3XX, Lewoleba Tengah, Kec. Nubatukan, Kabupaten Lembata, Nusa Tenggara Tim.","Kabupaten Lembata, Nusa Tenggara Tim.",NUSA TENGGARA TIMUR,,Indonesia,82131073247.0,,,-8.3722645,123.4274821,https://maps.google.com/?cid=0x0:0xed73bd17d2afdce2,
restaurant,Jawa,Warung Makan Persik Indah,"JCHJ+3MF, Lewoleba Tengah, Kec. Nubatukan, Kabupaten Lembata, Nusa Tenggara Tim.","Kabupaten Lembata, Nusa Tenggara Tim.",NUSA TENGGARA TIMUR,,Indonesia,,,,-8.3723017,123.4316607,https://maps.google.com/?cid=0x0:0xd695d8b609196d1a,
restaurant,Tempat Cukur Rambut,3G Cafe  Barbershop,"Jl. Trans Lembata No.Kel, Lewoleba Timur, Kec. Nubatukan, Kabupaten Lembata, Nusa Tenggara Tim. 86682","Lewoleba Timur, Kec. Nubatukan, Kabupaten Lembata",NUSA TENGGARA TIMUR,86682.0,Indonesia,81339677068.0,,,-8.3692046,123.4389565,https://maps.google.com/?cid=0x0:0xf6223ac17edbdb9b,
restaurant,Jawa Timur,Rumah Makan Atun. Terminal Timur Lewoleba,"JFR6+W6Q, Lewoleba Tim., Kec. Nubatukan, Kabupaten Lembata, Nusa Tenggara Tim.","Kabupaten Lembata, Nusa Tenggara Tim.",NUSA TENGGARA TIMUR,,Indonesia,,,,-8.3576618,123.4606168,https://maps.google.com/?cid=0x0:0xe3adfc675a8a7aff,
restaurant,Indonesia,RM. ANDAHMU,"JCG3+XP5, Jl. Trans Lembata, Lewoleba Utara, Kec. Nubatukan, Kabupaten Lembata, Nusa Tenggara Tim.","Kabupaten Lembata, Nusa Tenggara Tim.",NUSA TENGGARA TIMUR,,Indonesia,81339428161.0,,,-8.3726132,123.4043605,https://maps.google.com/?cid=0x0:0xba3aab2aab083b58,
restaurant,Kedai Kopi,Gubuk Kopi,"Wangatoa, Selandoro, Lewoleba Tengah, Kec. Nubatukan, Kabupaten Lembata, Nusa Tenggara Tim.","Kabupaten Lembata, Nusa Tenggara Tim.",NUSA TENGGARA TIMUR,,Indonesia,,,,-8.3711083,123.4286046,https://maps.google.com/?cid=0x0:0xa44f0b2d01dcbee5,
restaurant,Hotel,ELMANY HOMESTAY AND RESTO,"Jl. Trans Lembata RT. 016 RW.03 Lamahora Tengah, Kel, Lewoleba Timur Kec, Kec. Nubatukan, Kabupaten Lembata, Nusa Tenggara Tim.","Kabupaten Lembata, Nusa Tenggara Tim.",NUSA TENGGARA TIMUR,,Indonesia,82247948729.0,,,-8.3652856,123.4444909,https://maps.google.com/?cid=0x0:0x4bc38807035dbfb4,
restaurant,Restoran,Rumah Makan Barokah,"JCH9+HVG, Jl. Trans Lembata, Lewoleba Tengah, Kec. Nubatukan, Kabupaten Lembata, Nusa Tenggara Tim.","Kabupaten Lembata, Nusa Tenggara Tim.",NUSA TENGGARA TIMUR,,Indonesia,,,,-8.3710689,123.419705,https://maps.google.com/?cid=0x0:0x300a9bc0b9f5410c,
restaurant,Rumah Makan,SAUNG ABIY THALAH,"Jl. Trans Lembata No.92, Lewoleba Timur, Kec. Nubatukan, Kabupaten Lembata, Nusa Tenggara Tim. 86616","Lewoleba Timur, Kec. Nubatukan, Kabupaten Lembata",NUSA TENGGARA TIMUR,86616.0,Indonesia,81337929497.0,,,-8.3681362,123.4396538,https://maps.google.com/?cid=0x0:0x18e99f2848d7dd9b,
restaurant,Kafe,Omah Bu'e Lembata,"Kandang Rusa - Lamahora, Jl. Trans Lembata, Lewoleba, Kec. Nubatukan, Kabupaten Lembata, Nusa Tenggara Tim. 86616","Jl. Trans Lembata, Lewoleba, Kec. Nubatukan, Kabupaten Lembata",NUSA TENGGARA TIMUR,86616.0,Indonesia,81338965654.0,,,-8.367236,123.4423162,https://maps.google.com/?cid=0x0:0x9e3075c4cd0b6cac,
restaurant,Restoran,Warung Lamongan Indah,"JCG7+2X5, Lewoleba Tengah, Kec. Nubatukan, Kabupaten Lembata, Nusa Tenggara Tim.","Kabupaten Lembata, Nusa Tenggara Tim.",NUSA TENGGARA TIMUR,,Indonesia,,,,-8.3749757,123.4149765,https://maps.google.com/?cid=0x0:0x10f316696400305a,
restaurant,Restoran,Mie Ayam Pangsit Mas Trisno,"JCH8+G7Q, Lewoleba Tengah, Kec. Nubatukan, Kabupaten Lembata, Nusa Tenggara Tim.","Kabupaten Lembata, Nusa Tenggara Tim.",NUSA TENGGARA TIMUR,,Indonesia,,,,-8.3711661,123.4157462,https://maps.google.com/?cid=0x0:0x494da57562380119,
restaurant,Indonesia,RM Berkat Lomlen,"JCJQ+HJ5, Lewoleba Tim., Kec. Nubatukan, Kabupaten Lembata, Nusa Tenggara Tim.","Kabupaten Lembata, Nusa Tenggara Tim.",NUSA TENGGARA TIMUR,,Indonesia,,,,-8.3686139,123.4391229,https://maps.google.com/?cid=0x0:0x2cd06a7a4277f182,
restaurant,Jawa,WARUNG KATARINA REZKI,"Lewoleba Tengah, Kec. Nubatukan, Kabupaten Lembata, Nusa Tenggara Tim.","Kabupaten Lembata, Nusa Tenggara Tim.",NUSA TENGGARA TIMUR,,Indonesia,82235285974.0,,,-8.3744447,123.4179179,https://maps.google.com/?cid=0x0:0x8e40a31d26d2803,
restaurant,Padang,Duta minang,"Jl. Tujuh Maret, Lewoleba, Kec. Nubatukan, Kabupaten Lembata, Nusa Tenggara Tim.","Kabupaten Lembata, Nusa Tenggara Tim.",NUSA TENGGARA TIMUR,,Indonesia,81339625987.0,,,-8.3726205,123.4161195,https://maps.google.com/?cid=0x0:0xd0767feb785759d1,
restaurant,Kafe,Agrowisata Ema Pia,"JCG6+G7C, Lewoleba Utara, Kec. Nubatukan, Kabupaten Lembata, Nusa Tenggara Tim.","Kabupaten Lembata, Nusa Tenggara Tim.",NUSA TENGGARA TIMUR,,Indonesia,,,,-8.3736849,123.410651,https://maps.google.com/?cid=0x0:0xb392103c25e45bf6,
restaurant,Indonesia,Rm Mustika,"JCJQ+CV6, Selandoro, Kec. Nubatukan, Kabupaten Lembata, Nusa Tenggara Tim.","Kabupaten Lembata, Nusa Tenggara Tim.",NUSA TENGGARA TIMUR,,Indonesia,,,,-8.3689633,123.4396502,https://maps.google.com/?cid=0x0:0x1bb5985463625c4e,
restaurant,restaurant,Kec. Nubatukan,"Kabupaten Lembata, Nusa Tenggara Tim.","Kabupaten Lembata, Nusa Tenggara Tim.",NUSA TENGGARA TIMUR,,Indonesia,,,,-8.3731739,123.4288459,https://maps.google.com/?cid=0x0:0x5937ac1360822cb3,
restaurant,Toko bahan makanan,Olympic Ballroom  Resto,"SGB Bungsu, Jalan, North Lewoleba, Nubatukan, Lembata Regency, East Nusa Tenggara","Kabupaten Lembata, Nusa Tenggara Tim.",NUSA TENGGARA TIMUR,,Indonesia,,,,-8.3725771,123.4084656,https://maps.google.com/?cid=0x0:0xfae73f061d039a8d,
restaurant,Jawa Timur,RM. Ayu Nisa,"JFQ4+R2H, Lewoleba Tim., Kec. Nubatukan, Kabupaten Lembata, Nusa Tenggara Tim.","Kabupaten Lembata, Nusa Tenggara Tim.",NUSA TENGGARA TIMUR,,Indonesia,,,,-8.3604304,123.4551211,https://maps.google.com/?cid=0x0:0x529b6f8254235aaf,
restaurant,Jawa,Rumah Makan Wulandari,"JCHC+C4R, Jl. Trans Lembata, Lewoleba Tengah, Kec. Nubatukan, Kabupaten Lembata, Nusa Tenggara Tim.","Kabupaten Lembata, Nusa Tenggara Tim.",NUSA TENGGARA TIMUR,,Indonesia,,,,-8.3713866,123.4202563,https://maps.google.com/?cid=0x0:0xc1cc6a67fb6347e3,
restaurant,Rumah Makan,Warung Makan Mbak Erna,"JCHG+3XX, Lewoleba Tengah, Kec. Nubatukan, Kabupaten Lembata, Nusa Tenggara Tim.","Kabupaten Lembata, Nusa Tenggara Tim.",NUSA TENGGARA TIMUR,,Indonesia,82131073247.0,,,-8.3722645,123.4274821,https://maps.google.com/?cid=0x0:0xed73bd17d2afdce2,
restaurant,Brunch,Warung Makan Mas Rozak,"Unnamed Road, Lewoleba Tengah, Kec. Nubatukan, Kabupaten Lembata, Nusa Tenggara Tim.","Kabupaten Lembata, Nusa Tenggara Tim.",NUSA TENGGARA TIMUR,,Indonesia,,,,-8.3730365,123.429806,https://maps.google.com/?cid=0x0:0xce1727f9db9d2f63,
restaurant,Rumah Makan,Warung Makan Bandung,"JCH7+4RV, Lewoleba Tengah, Kec. Nubatukan, Kabupaten Lembata, Nusa Tenggara Tim.","Kabupaten Lembata, Nusa Tenggara Tim.",NUSA TENGGARA TIMUR,,Indonesia,82237533963.0,,,-8.3721446,123.4145516,https://maps.google.com/?cid=0x0:0xf230ff2fd9f8fc78,
restaurant,Restoran,Rumah Makan Barokah,"JCH9+HVG, Jl. Trans Lembata, Lewoleba Tengah, Kec. Nubatukan, Kabupaten Lembata, Nusa Tenggara Tim.","Kabupaten Lembata, Nusa Tenggara Tim.",NUSA TENGGARA TIMUR,,Indonesia,,,,-8.3710689,123.419705,https://maps.google.com/?cid=0x0:0x300a9bc0b9f5410c,
restaurant,Indonesia,RM. ANDAHMU,"JCG3+XP5, Jl. Trans Lembata, Lewoleba Utara, Kec. Nubatukan, Kabupaten Lembata, Nusa Tenggara Tim.","Kabupaten Lembata, Nusa Tenggara Tim.",NUSA TENGGARA TIMUR,,Indonesia,81339428161.0,,,-8.3726132,123.4043605,https://maps.google.com/?cid=0x0:0xba3aab2aab083b58,
restaurant,Padang,Duta minang,"Jl. Tujuh Maret, Lewoleba, Kec. Nubatukan, Kabupaten Lembata, Nusa Tenggara Tim.","Kabupaten Lembata, Nusa Tenggara Tim.",NUSA TENGGARA TIMUR,,Indonesia,81339625987.0,,,-8.3726205,123.4161195,https://maps.google.com/?cid=0x0:0xd0767feb785759d1,
restaurant,Tempat Cukur Rambut,3G Cafe  Barbershop,"Jl. Trans Lembata No.Kel, Lewoleba Timur, Kec. Nubatukan, Kabupaten Lembata, Nusa Tenggara Tim. 86682","Lewoleba Timur, Kec. Nubatukan, Kabupaten Lembata",NUSA TENGGARA TIMUR,86682.0,Indonesia,81339677068.0,,,-8.3692046,123.4389565,https://maps.google.com/?cid=0x0:0xf6223ac17edbdb9b,
restaurant,Indonesia,Rm Mustika,"JCJQ+CV6, Selandoro, Kec. Nubatukan, Kabupaten Lembata, Nusa Tenggara Tim.","Kabupaten Lembata, Nusa Tenggara Tim.",NUSA TENGGARA TIMUR,,Indonesia,,,,-8.3689633,123.4396502,https://maps.google.com/?cid=0x0:0x1bb5985463625c4e,
restaurant,Jawa,Warung Makan Persik Indah,"JCHJ+3MF, Lewoleba Tengah, Kec. Nubatukan, Kabupaten Lembata, Nusa Tenggara Tim.","Kabupaten Lembata, Nusa Tenggara Tim.",NUSA TENGGARA TIMUR,,Indonesia,,,,-8.3723017,123.4316607,https://maps.google.com/?cid=0x0:0xd695d8b609196d1a,
restaurant,Restoran,Mie Ayam Pangsit Mas Trisno,"JCH8+G7Q, Lewoleba Tengah, Kec. Nubatukan, Kabupaten Lembata, Nusa Tenggara Tim.","Kabupaten Lembata, Nusa Tenggara Tim.",NUSA TENGGARA TIMUR,,Indonesia,,,,-8.3711661,123.4157462,https://maps.google.com/?cid=0x0:0x494da57562380119,
restaurant,Jawa Timur,WARUNG LUMAYAN 2,"Jl. Trans Lembata No.3, Lewoleba Tim., Kec. Nubatukan, Kabupaten Lembata, Nusa Tenggara Tim. 86616","Lewoleba Tim., Kec. Nubatukan, Kabupaten Lembata",NUSA TENGGARA TIMUR,86616.0,Indonesia,82140209224.0,,,-8.3679267,123.4411249,https://maps.google.com/?cid=0x0:0xe3e5899bb634115b,
restaurant,Kafe,Agrowisata Ema Pia,"JCG6+G7C, Lewoleba Utara, Kec. Nubatukan, Kabupaten Lembata, Nusa Tenggara Tim.","Kabupaten Lembata, Nusa Tenggara Tim.",NUSA TENGGARA TIMUR,,Indonesia,,,,-8.3736849,123.410651,https://maps.google.com/?cid=0x0:0xb392103c25e45bf6,
restaurant,Restoran,Warung Lamongan Indah,"JCG7+2X5, Lewoleba Tengah, Kec. Nubatukan, Kabupaten Lembata, Nusa Tenggara Tim.","Kabupaten Lembata, Nusa Tenggara Tim.",NUSA TENGGARA TIMUR,,Indonesia,,,,-8.3749757,123.4149765,https://maps.google.com/?cid=0x0:0x10f316696400305a,
restaurant,Jawa Timur,Rumah Makan Atun. Terminal Timur Lewoleba,"JFR6+W6Q, Lewoleba Tim., Kec. Nubatukan, Kabupaten Lembata, Nusa Tenggara Tim.","Kabupaten Lembata, Nusa Tenggara Tim.",NUSA TENGGARA TIMUR,,Indonesia,,,,-8.3576618,123.4606168,https://maps.google.com/?cid=0x0:0xe3adfc675a8a7aff,
restaurant,Rumah Makan,SAUNG ABIY THALAH,"Jl. Trans Lembata No.92, Lewoleba Timur, Kec. Nubatukan, Kabupaten Lembata, Nusa Tenggara Tim. 86616","Lewoleba Timur, Kec. Nubatukan, Kabupaten Lembata",NUSA TENGGARA TIMUR,86616.0,Indonesia,81337929497.0,,,-8.3681362,123.4396538,https://maps.google.com/?cid=0x0:0x18e99f2848d7dd9b,
restaurant,Jawa,WARUNG KATARINA REZKI,"Lewoleba Tengah, Kec. Nubatukan, Kabupaten Lembata, Nusa Tenggara Tim.","Kabupaten Lembata, Nusa Tenggara Tim.",NUSA TENGGARA TIMUR,,Indonesia,82235285974.0,,,-8.3744447,123.4179179,https://maps.google.com/?cid=0x0:0x8e40a31d26d2803,
restaurant,Kedai Kopi,Gubuk Kopi,"Wangatoa, Selandoro, Lewoleba Tengah, Kec. Nubatukan, Kabupaten Lembata, Nusa Tenggara Tim.","Kabupaten Lembata, Nusa Tenggara Tim.",NUSA TENGGARA TIMUR,,Indonesia,,,,-8.3711083,123.4286046,https://maps.google.com/?cid=0x0:0xa44f0b2d01dcbee5,
restaurant,Hidangan Laut,Pondok Sei Lembata,"JCJV+R96, Lewoleba Tim., Kec. Nubatukan, Kabupaten Lembata, Nusa Tenggara Tim.","Kabupaten Lembata, Nusa Tenggara Tim.",NUSA TENGGARA TIMUR,,Indonesia,81339787167.0,,,-8.3679534,123.443398,https://maps.google.com/?cid=0x0:0xda127ac0fb015bba,
restaurant,restaurant,Kec. Nubatukan,"Kabupaten Lembata, Nusa Tenggara Tim.","Kabupaten Lembata, Nusa Tenggara Tim.",NUSA TENGGARA TIMUR,,Indonesia,,,,-8.3731739,123.4288459,https://maps.google.com/?cid=0x0:0x5937ac1360822cb3,
restaurant,Brunch,Warung Makan Lumayan,"JFR5+76G, Lewoleba Tim., Kec. Nubatukan, Kabupaten Lembata, Nusa Tenggara Tim.","Kabupaten Lembata, Nusa Tenggara Tim.",NUSA TENGGARA TIMUR,,Indonesia,,,,-8.3593131,123.4580922,https://maps.google.com/?cid=0x0:0xc9d71c36f9f31f,
restaurant,Brunch,Warung Makan Mas Rozak,"Unnamed Road, Lewoleba Tengah, Kec. Nubatukan, Kabupaten Lembata, Nusa Tenggara Tim.","Kabupaten Lembata, Nusa Tenggara Tim.",NUSA TENGGARA TIMUR,,Indonesia,,,,-8.3730365,123.429806,https://maps.google.com/?cid=0x0:0xce1727f9db9d2f63,
restaurant,Indonesia,RM. ANDAHMU,"JCG3+XP5, Jl. Trans Lembata, Lewoleba Utara, Kec. Nubatukan, Kabupaten Lembata, Nusa Tenggara Tim.","Kabupaten Lembata, Nusa Tenggara Tim.",NUSA TENGGARA TIMUR,,Indonesia,81339428161.0,,,-8.3726132,123.4043605,https://maps.google.com/?cid=0x0:0xba3aab2aab083b58,
restaurant,Restoran,Rumah Makan Barokah,"JCH9+HVG, Jl. Trans Lembata, Lewoleba Tengah, Kec. Nubatukan, Kabupaten Lembata, Nusa Tenggara Tim.","Kabupaten Lembata, Nusa Tenggara Tim.",NUSA TENGGARA TIMUR,,Indonesia,,,,-8.3710689,123.419705,https://maps.google.com/?cid=0x0:0x300a9bc0b9f5410c,
restaurant,Indonesia,RM Berkat Lomlen,"JCJQ+HJ5, Lewoleba Tim., Kec. Nubatukan, Kabupaten Lembata, Nusa Tenggara Tim.","Kabupaten Lembata, Nusa Tenggara Tim.",NUSA TENGGARA TIMUR,,Indonesia,,,,-8.3686139,123.4391229,https://maps.google.com/?cid=0x0:0x2cd06a7a4277f182,
restaurant,Kafe,Omah Bu'e Lembata,"Kandang Rusa - Lamahora, Jl. Trans Lembata, Lewoleba, Kec. Nubatukan, Kabupaten Lembata, Nusa Tenggara Tim. 86616","Jl. Trans Lembata, Lewoleba, Kec. Nubatukan, Kabupaten Lembata",NUSA TENGGARA TIMUR,86616.0,Indonesia,81338965654.0,,,-8.367236,123.4423162,https://maps.google.com/?cid=0x0:0x9e3075c4cd0b6cac,
restaurant,Restoran,Warung Makan Mas Nano,"JCHG+77R, Jl. Trans Lembata, Lewoleba Tengah, Kec. Nubatukan, Kabupaten Lembata, Nusa Tenggara Tim.","Kabupaten Lembata, Nusa Tenggara Tim.",NUSA TENGGARA TIMUR,,Indonesia,81353406016.0,,,-8.3717699,123.425643,https://maps.google.com/?cid=0x0:0x155837874cc3e7f8,
restaurant,Padang,RM.Lembata masakan padang,"JCG7+MR5, Lewoleba Tengah, Kec. Nubatukan, Kabupaten Lembata, Nusa Tenggara Tim.","Kabupaten Lembata, Nusa Tenggara Tim.",NUSA TENGGARA TIMUR,,Indonesia,82144904711.0,,,-8.3733667,123.4146246,https://maps.google.com/?cid=0x0:0xcd2a9460508cc363,
restaurant,Jawa Timur,Rumah Makan Atun. Terminal Timur Lewoleba,"JFR6+W6Q, Lewoleba Tim., Kec. Nubatukan, Kabupaten Lembata, Nusa Tenggara Tim.","Kabupaten Lembata, Nusa Tenggara Tim.",NUSA TENGGARA TIMUR,,Indonesia,,,,-8.3576618,123.4606168,https://maps.google.com/?cid=0x0:0xe3adfc675a8a7aff,
restaurant,Padang,Rumah Makan Merkuri,"JFQ3+PRP, Lewoleba Tim., Kec. Nubatukan, Kabupaten Lembata, Nusa Tenggara Tim.","Kabupaten Lembata, Nusa Tenggara Tim.",NUSA TENGGARA TIMUR,,Indonesia,81339862931.0,,,-8.3606622,123.4545935,https://maps.google.com/?cid=0x0:0x16c48db578d56203,
restaurant,Bakso,Es Campu  Bakso,"JC64+V8W, Lewoleba, Kec. Nubatukan, Kabupaten Lembata, Nusa Tenggara Tim.","Kabupaten Lembata, Nusa Tenggara Tim.",NUSA TENGGARA TIMUR,,Indonesia,,,,-8.3877628,123.4058401,https://maps.google.com/?cid=0x0:0xd414ae1607ed16d7,
restaurant,Bakso,bakso  mie ayam ANUGERAH,"JCGH+QRC, Lewoleba Tengah, Kec. Nubatukan, Kabupaten Lembata, Nusa Tenggara Tim.","Kabupaten Lembata, Nusa Tenggara Tim.",NUSA TENGGARA TIMUR,,Indonesia,,,,-8.3730561,123.429523,https://maps.google.com/?cid=0x0:0xd595e9e2ce32f25e,
restaurant,Bakso,BAKSO MBAK MEGA Asli wong solo,"Lewoleba Tengah, Kec. Nubatukan, Kabupaten Lembata, Nusa Tenggara Tim.","Kabupaten Lembata, Nusa Tenggara Tim.",NUSA TENGGARA TIMUR,,Indonesia,,,,-8.373811,123.4147166,https://maps.google.com/?cid=0x0:0xae247858747b74cf,
restaurant,Bakso,Warung Bakso SATRIA,"Jl. Trans Lembata, Lewoleba Tengah, Kec. Nubatukan, Kabupaten Lembata, Nusa Tenggara Tim.","Kabupaten Lembata, Nusa Tenggara Tim.",NUSA TENGGARA TIMUR,,Indonesia,81237498828.0,,,-8.3728994,123.4278036,https://maps.google.com/?cid=0x0:0xda9a8d6ee45cab6a,
restaurant,Restoran,Warung Makan Solo,"JCG7+3XW, Jl. Berdikari, Lewoleba Tengah, Kec. Nubatukan, Kabupaten Lembata, Nusa Tenggara Tim.","Kabupaten Lembata, Nusa Tenggara Tim.",NUSA TENGGARA TIMUR,,Indonesia,81363815127.0,,,-8.3747559,123.4149407,https://maps.google.com/?cid=0x0:0xc0d3f74d007d631f,
restaurant,Indonesia,Rumah makan Sate Jogja Lembata,"Lewoleba Utara, Kec. Nubatukan, Kabupaten Lembata, Nusa Tenggara Tim.","Kabupaten Lembata, Nusa Tenggara Tim.",NUSA TENGGARA TIMUR,,Indonesia,82136844933.0,,,-8.3729269,123.4146639,https://maps.google.com/?cid=0x0:0xbb3551c922e1dc1,
restaurant,Makanan Kecil,Warung Mica,"Lamahora Timur, Lewoleba Tim., Kec. Nubatukan, Kabupaten Lembata, Nusa Tenggara Tim. 86616","Lewoleba Tim., Kec. Nubatukan, Kabupaten Lembata",NUSA TENGGARA TIMUR,86616.0,Indonesia,81392523629.0,,,-8.3607913,123.4523729,https://maps.google.com/?cid=0x0:0x7fd9e4e0761c2c77,
restaurant,Jawa Timur,RUMAH MAKAN,"AKELOHE, LAMAHORA, Jl. Trans Lembata, Nusa Tenggara Tim.","Kabupaten Lembata, Nusa Tenggara Tim.",NUSA TENGGARA TIMUR,,Indonesia,,,,-8.3615466,123.4568127,https://maps.google.com/?cid=0x0:0xcdd9a7184a00bf3d,
restaurant,Jawa Timur,RM. Ayu Nisa,"JFQ4+R2H, Lewoleba Tim., Kec. Nubatukan, Kabupaten Lembata, Nusa Tenggara Tim.","Kabupaten Lembata, Nusa Tenggara Tim.",NUSA TENGGARA TIMUR,,Indonesia,,,,-8.3604304,123.4551211,https://maps.google.com/?cid=0x0:0x529b6f8254235aaf,
restaurant,Rumah Makan,RM.JAKARTA ( Soto Daging  Bubur Ayam ),"JCHG+77J, Jl. Trans Lembata, Lewoleba Tengah, Kec. Nubatukan, Kabupaten Lembata, Nusa Tenggara Tim.","Kabupaten Lembata, Nusa Tenggara Tim.",NUSA TENGGARA TIMUR,,Indonesia,81282815800.0,,,-8.371787,123.4256356,https://maps.google.com/?cid=0x0:0x3f3174a6e573c581,
restaurant,Toko bahan makanan,Olympic Ballroom  Resto,"SGB Bungsu, Jalan, North Lewoleba, Nubatukan, Lembata Regency, East Nusa Tenggara","Kabupaten Lembata, Nusa Tenggara Tim.",NUSA TENGGARA TIMUR,,Indonesia,,,,-8.3725771,123.4084656,https://maps.google.com/?cid=0x0:0xfae73f061d039a8d,
restaurant,Jawa,Rumah Makan Wulandari,"JCHC+C4R, Jl. Trans Lembata, Lewoleba Tengah, Kec. Nubatukan, Kabupaten Lembata, Nusa Tenggara Tim.","Kabupaten Lembata, Nusa Tenggara Tim.",NUSA TENGGARA TIMUR,,Indonesia,,,,-8.3713866,123.4202563,https://maps.google.com/?cid=0x0:0xc1cc6a67fb6347e3,
restaurant,Tempat Cukur Rambut,3G Cafe  Barbershop,"Jl. Trans Lembata No.Kel, Lewoleba Timur, Kec. Nubatukan, Kabupaten Lembata, Nusa Tenggara Tim. 86682","Lewoleba Timur, Kec. Nubatukan, Kabupaten Lembata",NUSA TENGGARA TIMUR,86682.0,Indonesia,81339677068.0,,,-8.3692046,123.4389565,https://maps.google.com/?cid=0x0:0xf6223ac17edbdb9b,
restaurant,Rumah Makan,Warung Makan Bandung,"JCH7+4RV, Lewoleba Tengah, Kec. Nubatukan, Kabupaten Lembata, Nusa Tenggara Tim.","Kabupaten Lembata, Nusa Tenggara Tim.",NUSA TENGGARA TIMUR,,Indonesia,82237533963.0,,,-8.3721446,123.4145516,https://maps.google.com/?cid=0x0:0xf230ff2fd9f8fc78,
restaurant,Restoran,Mie Ayam Pangsit Mas Trisno,"JCH8+G7Q, Lewoleba Tengah, Kec. Nubatukan, Kabupaten Lembata, Nusa Tenggara Tim.","Kabupaten Lembata, Nusa Tenggara Tim.",NUSA TENGGARA TIMUR,,Indonesia,,,,-8.3711661,123.4157462,https://maps.google.com/?cid=0x0:0x494da57562380119,
restaurant,Indonesia,Rm Mustika,"JCJQ+CV6, Selandoro, Kec. Nubatukan, Kabupaten Lembata, Nusa Tenggara Tim.","Kabupaten Lembata, Nusa Tenggara Tim.",NUSA TENGGARA TIMUR,,Indonesia,,,,-8.3689633,123.4396502,https://maps.google.com/?cid=0x0:0x1bb5985463625c4e,
restaurant,Jawa,Warung Makan Persik Indah,"JCHJ+3MF, Lewoleba Tengah, Kec. Nubatukan, Kabupaten Lembata, Nusa Tenggara Tim.","Kabupaten Lembata, Nusa Tenggara Tim.",NUSA TENGGARA TIMUR,,Indonesia,,,,-8.3723017,123.4316607,https://maps.google.com/?cid=0x0:0xd695d8b609196d1a,
restaurant,restaurant,Kec. Nubatukan,"Kabupaten Lembata, Nusa Tenggara Tim.","Kabupaten Lembata, Nusa Tenggara Tim.",NUSA TENGGARA TIMUR,,Indonesia,,,,-8.3731739,123.4288459,https://maps.google.com/?cid=0x0:0x5937ac1360822cb3,
restaurant,Toko bahan makanan,Olympic Ballroom  Resto,"SGB Bungsu, Jalan, North Lewoleba, Nubatukan, Lembata Regency, East Nusa Tenggara","Kabupaten Lembata, Nusa Tenggara Tim.",NUSA TENGGARA TIMUR,,Indonesia,,,,-8.3725771,123.4084656,https://maps.google.com/?cid=0x0:0xfae73f061d039a8d,
restaurant,Jawa Timur,RM. Ayu Nisa,"JFQ4+R2H, Lewoleba Tim., Kec. Nubatukan, Kabupaten Lembata, Nusa Tenggara Tim.","Kabupaten Lembata, Nusa Tenggara Tim.",NUSA TENGGARA TIMUR,,Indonesia,,,,-8.3604304,123.4551211,https://maps.google.com/?cid=0x0:0x529b6f8254235aaf,
restaurant,Jawa,Rumah Makan Wulandari,"JCHC+C4R, Jl. Trans Lembata, Lewoleba Tengah, Kec. Nubatukan, Kabupaten Lembata, Nusa Tenggara Tim.","Kabupaten Lembata, Nusa Tenggara Tim.",NUSA TENGGARA TIMUR,,Indonesia,,,,-8.3713866,123.4202563,https://maps.google.com/?cid=0x0:0xc1cc6a67fb6347e3,
restaurant,Rumah Makan,Warung Makan Mbak Erna,"JCHG+3XX, Lewoleba Tengah, Kec. Nubatukan, Kabupaten Lembata, Nusa Tenggara Tim.","Kabupaten Lembata, Nusa Tenggara Tim.",NUSA TENGGARA TIMUR,,Indonesia,82131073247.0,,,-8.3722645,123.4274821,https://maps.google.com/?cid=0x0:0xed73bd17d2afdce2,
restaurant,Brunch,Warung Makan Mas Rozak,"Unnamed Road, Lewoleba Tengah, Kec. Nubatukan, Kabupaten Lembata, Nusa Tenggara Tim.","Kabupaten Lembata, Nusa Tenggara Tim.",NUSA TENGGARA TIMUR,,Indonesia,,,,-8.3730365,123.429806,https://maps.google.com/?cid=0x0:0xce1727f9db9d2f63,
restaurant,Rumah Makan,Warung Makan Bandung,"JCH7+4RV, Lewoleba Tengah, Kec. Nubatukan, Kabupaten Lembata, Nusa Tenggara Tim.","Kabupaten Lembata, Nusa Tenggara Tim.",NUSA TENGGARA TIMUR,,Indonesia,82237533963.0,,,-8.3721446,123.4145516,https://maps.google.com/?cid=0x0:0xf230ff2fd9f8fc78,
restaurant,Jawa,Warung Makan Persik Indah,"JCHJ+3MF, Lewoleba Tengah, Kec. Nubatukan, Kabupaten Lembata, Nusa Tenggara Tim.","Kabupaten Lembata, Nusa Tenggara Tim.",NUSA TENGGARA TIMUR,,Indonesia,,,,-8.3723017,123.4316607,https://maps.google.com/?cid=0x0:0xd695d8b609196d1a,
restaurant,Indonesia,Rm Mustika,"JCJQ+CV6, Selandoro, Kec. Nubatukan, Kabupaten Lembata, Nusa Tenggara Tim.","Kabupaten Lembata, Nusa Tenggara Tim.",NUSA TENGGARA TIMUR,,Indonesia,,,,-8.3689633,123.4396502,https://maps.google.com/?cid=0x0:0x1bb5985463625c4e,
restaurant,Restoran,Warung Lamongan Indah,"JCG7+2X5, Lewoleba Tengah, Kec. Nubatukan, Kabupaten Lembata, Nusa Tenggara Tim.","Kabupaten Lembata, Nusa Tenggara Tim.",NUSA TENGGARA TIMUR,,Indonesia,,,,-8.3749757,123.4149765,https://maps.google.com/?cid=0x0:0x10f316696400305a,
restaurant,Tempat Cukur Rambut,3G Cafe  Barbershop,"Jl. Trans Lembata No.Kel, Lewoleba Timur, Kec. Nubatukan, Kabupaten Lembata, Nusa Tenggara Tim. 86682","Lewoleba Timur, Kec. Nubatukan, Kabupaten Lembata",NUSA TENGGARA TIMUR,86682.0,Indonesia,81339677068.0,,,-8.3692046,123.4389565,https://maps.google.com/?cid=0x0:0xf6223ac17edbdb9b,
restaurant,Indonesia,RM. ANDAHMU,"JCG3+XP5, Jl. Trans Lembata, Lewoleba Utara, Kec. Nubatukan, Kabupaten Lembata, Nusa Tenggara Tim.","Kabupaten Lembata, Nusa Tenggara Tim.",NUSA TENGGARA TIMUR,,Indonesia,81339428161.0,,,-8.3726132,123.4043605,https://maps.google.com/?cid=0x0:0xba3aab2aab083b58,
restaurant,Kafe,Agrowisata Ema Pia,"JCG6+G7C, Lewoleba Utara, Kec. Nubatukan, Kabupaten Lembata, Nusa Tenggara Tim.","Kabupaten Lembata, Nusa Tenggara Tim.",NUSA TENGGARA TIMUR,,Indonesia,,,,-8.3736849,123.410651,https://maps.google.com/?cid=0x0:0xb392103c25e45bf6,
restaurant,Restoran,Rumah Makan Barokah,"JCH9+HVG, Jl. Trans Lembata, Lewoleba Tengah, Kec. Nubatukan, Kabupaten Lembata, Nusa Tenggara Tim.","Kabupaten Lembata, Nusa Tenggara Tim.",NUSA TENGGARA TIMUR,,Indonesia,,,,-8.3710689,123.419705,https://maps.google.com/?cid=0x0:0x300a9bc0b9f5410c,
restaurant,Restoran,Mie Ayam Pangsit Mas Trisno,"JCH8+G7Q, Lewoleba Tengah, Kec. Nubatukan, Kabupaten Lembata, Nusa Tenggara Tim.","Kabupaten Lembata, Nusa Tenggara Tim.",NUSA TENGGARA TIMUR,,Indonesia,,,,-8.3711661,123.4157462,https://maps.google.com/?cid=0x0:0x494da57562380119,
restaurant,Rumah Makan,SAUNG ABIY THALAH,"Jl. Trans Lembata No.92, Lewoleba Timur, Kec. Nubatukan, Kabupaten Lembata, Nusa Tenggara Tim. 86616","Lewoleba Timur, Kec. Nubatukan, Kabupaten Lembata",NUSA TENGGARA TIMUR,86616.0,Indonesia,81337929497.0,,,-8.3681362,123.4396538,https://maps.google.com/?cid=0x0:0x18e99f2848d7dd9b,
restaurant,Kedai Kopi,Gubuk Kopi,"Wangatoa, Selandoro, Lewoleba Tengah, Kec. Nubatukan, Kabupaten Lembata, Nusa Tenggara Tim.","Kabupaten Lembata, Nusa Tenggara Tim.",NUSA TENGGARA TIMUR,,Indonesia,,,,-8.3711083,123.4286046,https://maps.google.com/?cid=0x0:0xa44f0b2d01dcbee5,
restaurant,Jawa Timur,Rumah Makan Atun. Terminal Timur Lewoleba,"JFR6+W6Q, Lewoleba Tim., Kec. Nubatukan, Kabupaten Lembata, Nusa Tenggara Tim.","Kabupaten Lembata, Nusa Tenggara Tim.",NUSA TENGGARA TIMUR,,Indonesia,,,,-8.3576618,123.4606168,https://maps.google.com/?cid=0x0:0xe3adfc675a8a7aff,
restaurant,Hotel,ELMANY HOMESTAY AND RESTO,"Jl. Trans Lembata RT. 016 RW.03 Lamahora Tengah, Kel, Lewoleba Timur Kec, Kec. Nubatukan, Kabupaten Lembata, Nusa Tenggara Tim.","Kabupaten Lembata, Nusa Tenggara Tim.",NUSA TENGGARA TIMUR,,Indonesia,82247948729.0,,,-8.3652856,123.4444909,https://maps.google.com/?cid=0x0:0x4bc38807035dbfb4,
restaurant,Padang,Duta minang,"Jl. Tujuh Maret, Lewoleba, Kec. Nubatukan, Kabupaten Lembata, Nusa Tenggara Tim.","Kabupaten Lembata, Nusa Tenggara Tim.",NUSA TENGGARA TIMUR,,Indonesia,81339625987.0,,,-8.3726205,123.4161195,https://maps.google.com/?cid=0x0:0xd0767feb785759d1,
restaurant,Jawa,WARUNG KATARINA REZKI,"Lewoleba Tengah, Kec. Nubatukan, Kabupaten Lembata, Nusa Tenggara Tim.","Kabupaten Lembata, Nusa Tenggara Tim.",NUSA TENGGARA TIMUR,,Indonesia,82235285974.0,,,-8.3744447,123.4179179,https://maps.google.com/?cid=0x0:0x8e40a31d26d2803,
restaurant,Jawa Timur,WARUNG LUMAYAN 2,"Jl. Trans Lembata No.3, Lewoleba Tim., Kec. Nubatukan, Kabupaten Lembata, Nusa Tenggara Tim. 86616","Lewoleba Tim., Kec. Nubatukan, Kabupaten Lembata",NUSA TENGGARA TIMUR,86616.0,Indonesia,82140209224.0,,,-8.3679267,123.4411249,https://maps.google.com/?cid=0x0:0xe3e5899bb634115b,
restaurant,restaurant,Kec. Nubatukan,"Kabupaten Lembata, Nusa Tenggara Tim.","Kabupaten Lembata, Nusa Tenggara Tim.",NUSA TENGGARA TIMUR,,Indonesia,,,,-8.3731739,123.4288459,https://maps.google.com/?cid=0x0:0x5937ac1360822cb3,
restaurant,Toko bahan makanan,Olympic Ballroom  Resto,"SGB Bungsu, Jalan, North Lewoleba, Nubatukan, Lembata Regency, East Nusa Tenggara","Kabupaten Lembata, Nusa Tenggara Tim.",NUSA TENGGARA TIMUR,,Indonesia,,,,-8.3725771,123.4084656,https://maps.google.com/?cid=0x0:0xfae73f061d039a8d,
restaurant,Brunch,Warung Makan Lumayan,"JFR5+76G, Lewoleba Tim., Kec. Nubatukan, Kabupaten Lembata, Nusa Tenggara Tim.","Kabupaten Lembata, Nusa Tenggara Tim.",NUSA TENGGARA TIMUR,,Indonesia,,,,-8.3593131,123.4580922,https://maps.google.com/?cid=0x0:0xc9d71c36f9f31f,
restaurant,Brunch,Warung Makan Mas Rozak,"Unnamed Road, Lewoleba Tengah, Kec. Nubatukan, Kabupaten Lembata, Nusa Tenggara Tim.","Kabupaten Lembata, Nusa Tenggara Tim.",NUSA TENGGARA TIMUR,,Indonesia,,,,-8.3730365,123.429806,https://maps.google.com/?cid=0x0:0xce1727f9db9d2f63,
restaurant,Jawa,Rumah Makan Wulandari,"JCHC+C4R, Jl. Trans Lembata, Lewoleba Tengah, Kec. Nubatukan, Kabupaten Lembata, Nusa Tenggara Tim.","Kabupaten Lembata, Nusa Tenggara Tim.",NUSA TENGGARA TIMUR,,Indonesia,,,,-8.3713866,123.4202563,https://maps.google.com/?cid=0x0:0xc1cc6a67fb6347e3,
restaurant,Rumah Makan,Warung Makan Bandung,"JCH7+4RV, Lewoleba Tengah, Kec. Nubatukan, Kabupaten Lembata, Nusa Tenggara Tim.","Kabupaten Lembata, Nusa Tenggara Tim.",NUSA TENGGARA TIMUR,,Indonesia,82237533963.0,,,-8.3721446,123.4145516,https://maps.google.com/?cid=0x0:0xf230ff2fd9f8fc78,
restaurant,Rumah Makan,Warung Makan Mbak Erna,"JCHG+3XX, Lewoleba Tengah, Kec. Nubatukan, Kabupaten Lembata, Nusa Tenggara Tim.","Kabupaten Lembata, Nusa Tenggara Tim.",NUSA TENGGARA TIMUR,,Indonesia,82131073247.0,,,-8.3722645,123.4274821,https://maps.google.com/?cid=0x0:0xed73bd17d2afdce2,
restaurant,Rumah Makan,SAUNG ABIY THALAH,"Jl. Trans Lembata No.92, Lewoleba Timur, Kec. Nubatukan, Kabupaten Lembata, Nusa Tenggara Tim. 86616","Lewoleba Timur, Kec. Nubatukan, Kabupaten Lembata",NUSA TENGGARA TIMUR,86616.0,Indonesia,81337929497.0,,,-8.3681362,123.4396538,https://maps.google.com/?cid=0x0:0x18e99f2848d7dd9b,
restaurant,Tempat Cukur Rambut,3G Cafe  Barbershop,"Jl. Trans Lembata No.Kel, Lewoleba Timur, Kec. Nubatukan, Kabupaten Lembata, Nusa Tenggara Tim. 86682","Lewoleba Timur, Kec. Nubatukan, Kabupaten Lembata",NUSA TENGGARA TIMUR,86682.0,Indonesia,81339677068.0,,,-8.3692046,123.4389565,https://maps.google.com/?cid=0x0:0xf6223ac17edbdb9b,
restaurant,Indonesia,Rm Mustika,"JCJQ+CV6, Selandoro, Kec. Nubatukan, Kabupaten Lembata, Nusa Tenggara Tim.","Kabupaten Lembata, Nusa Tenggara Tim.",NUSA TENGGARA TIMUR,,Indonesia,,,,-8.3689633,123.4396502,https://maps.google.com/?cid=0x0:0x1bb5985463625c4e,
restaurant,Kafe,Omah Bu'e Lembata,"Kandang Rusa - Lamahora, Jl. Trans Lembata, Lewoleba, Kec. Nubatukan, Kabupaten Lembata, Nusa Tenggara Tim. 86616","Jl. Trans Lembata, Lewoleba, Kec. Nubatukan, Kabupaten Lembata",NUSA TENGGARA TIMUR,86616.0,Indonesia,81338965654.0,,,-8.367236,123.4423162,https://maps.google.com/?cid=0x0:0x9e3075c4cd0b6cac,
restaurant,Restoran,Rumah Makan Barokah,"JCH9+HVG, Jl. Trans Lembata, Lewoleba Tengah, Kec. Nubatukan, Kabupaten Lembata, Nusa Tenggara Tim.","Kabupaten Lembata, Nusa Tenggara Tim.",NUSA TENGGARA TIMUR,,Indonesia,,,,-8.3710689,123.419705,https://maps.google.com/?cid=0x0:0x300a9bc0b9f5410c,
restaurant,Jawa,Warung Makan Persik Indah,"JCHJ+3MF, Lewoleba Tengah, Kec. Nubatukan, Kabupaten Lembata, Nusa Tenggara Tim.","Kabupaten Lembata, Nusa Tenggara Tim.",NUSA TENGGARA TIMUR,,Indonesia,,,,-8.3723017,123.4316607,https://maps.google.com/?cid=0x0:0xd695d8b609196d1a,
restaurant,Kedai Kopi,Mario Cafe,"Jl. Trans Lembata No.3, Lewoleba Tim, Kec. Nubatukan, Kabupaten Lembata, Nusa Tenggara Tim. 86616","Lewoleba Tim, Kec. Nubatukan, Kabupaten Lembata",NUSA TENGGARA TIMUR,86616.0,Indonesia,,,,-8.3668356,123.4416382,https://maps.google.com/?cid=0x0:0x68109e1dd40be666,
restaurant,Jawa Timur,Rumah Makan Atun. Terminal Timur Lewoleba,"JFR6+W6Q, Lewoleba Tim., Kec. Nubatukan, Kabupaten Lembata, Nusa Tenggara Tim.","Kabupaten Lembata, Nusa Tenggara Tim.",NUSA TENGGARA TIMUR,,Indonesia,,,,-8.3576618,123.4606168,https://maps.google.com/?cid=0x0:0xe3adfc675a8a7aff,
restaurant,Indonesia,RM. ANDAHMU,"JCG3+XP5, Jl. Trans Lembata, Lewoleba Utara, Kec. Nubatukan, Kabupaten Lembata, Nusa Tenggara Tim.","Kabupaten Lembata, Nusa Tenggara Tim.",NUSA TENGGARA TIMUR,,Indonesia,81339428161.0,,,-8.3726132,123.4043605,https://maps.google.com/?cid=0x0:0xba3aab2aab083b58,
restaurant,Jawa Timur,WARUNG LUMAYAN 2,"Jl. Trans Lembata No.3, Lewoleba Tim., Kec. Nubatukan, Kabupaten Lembata, Nusa Tenggara Tim. 86616","Lewoleba Tim., Kec. Nubatukan, Kabupaten Lembata",NUSA TENGGARA TIMUR,86616.0,Indonesia,82140209224.0,,,-8.3679267,123.4411249,https://maps.google.com/?cid=0x0:0xe3e5899bb634115b,
restaurant,Jawa,WARUNG KATARINA REZKI,"Lewoleba Tengah, Kec. Nubatukan, Kabupaten Lembata, Nusa Tenggara Tim.","Kabupaten Lembata, Nusa Tenggara Tim.",NUSA TENGGARA TIMUR,,Indonesia,82235285974.0,,,-8.3744447,123.4179179,https://maps.google.com/?cid=0x0:0x8e40a31d26d2803,
restaurant,Kedai Kopi,Gubuk Kopi,"Wangatoa, Selandoro, Lewoleba Tengah, Kec. Nubatukan, Kabupaten Lembata, Nusa Tenggara Tim.","Kabupaten Lembata, Nusa Tenggara Tim.",NUSA TENGGARA TIMUR,,Indonesia,,,,-8.3711083,123.4286046,https://maps.google.com/?cid=0x0:0xa44f0b2d01dcbee5,
restaurant,Indonesia,Le Nusa Jakarta,"Jl. Wijaya IX No.11, Melawai, Kec. Kby. Baru, Kota Jakarta Selatan, Daerah Khusus Ibukota Jakarta 04315","Melawai, Kec. Kby. Baru, Kota Jakarta Selatan",NUSA TENGGARA TIMUR,4315.0,Indonesia,2138250336.0,,,-6.2473868,106.8023289,https://maps.google.com/?cid=0x0:0x1a7bd5a49fa3bf38,
restaurant,Jawa Timur,RUMAH MAKAN,"AKELOHE, LAMAHORA, Jl. Trans Lembata, Nusa Tenggara Tim.","Kabupaten Lembata, Nusa Tenggara Tim.",NUSA TENGGARA TIMUR,,Indonesia,,,,-8.3615466,123.4568127,https://maps.google.com/?cid=0x0:0xcdd9a7184a00bf3d,
restaurant,Restoran,La Nuna Cafe  Resto,"Jl. Duren II no.52 RT 006 / RW 002, Karang Tengah, Pedurenan, Kec. Tangerang, Kota Tangerang, Banten 15157","Karang Tengah, Pedurenan, Kec. Tangerang, Kota Tangerang",NUSA TENGGARA TIMUR,15157.0,Indonesia,81315009970.0,,,-6.22383,106.7007949,https://maps.google.com/?cid=0x0:0x1f529b32d18de52e,
restaurant,Restoran,Warung Makan Mas Nano,"JCHG+77R, Jl. Trans Lembata, Lewoleba Tengah, Kec. Nubatukan, Kabupaten Lembata, Nusa Tenggara Tim.","Kabupaten Lembata, Nusa Tenggara Tim.",NUSA TENGGARA TIMUR,,Indonesia,81353406016.0,,,-8.3717699,123.425643,https://maps.google.com/?cid=0x0:0x155837874cc3e7f8,
restaurant,restaurant,Rumah Nabila,"J97P+9M3, Lewoleba Utara, Kec. Nubatukan, Kabupaten Lembata, Nusa Tenggara Tim.","Kabupaten Lembata, Nusa Tenggara Tim.",NUSA TENGGARA TIMUR,,Indonesia,,,,-8.3873382,123.3866297,https://maps.google.com/?cid=0x0:0x21b1c389c635568a,
restaurant,Restoran,Warung Makan Solo,"JCG7+3XW, Jl. Berdikari, Lewoleba Tengah, Kec. Nubatukan, Kabupaten Lembata, Nusa Tenggara Tim.","Kabupaten Lembata, Nusa Tenggara Tim.",NUSA TENGGARA TIMUR,,Indonesia,81363815127.0,,,-8.3747559,123.4149407,https://maps.google.com/?cid=0x0:0xc0d3f74d007d631f,
restaurant,restaurant,Kec. Nubatukan,"Kabupaten Lembata, Nusa Tenggara Tim.","Kabupaten Lembata, Nusa Tenggara Tim.",NUSA TENGGARA TIMUR,,Indonesia,,,,-8.3731739,123.4288459,https://maps.google.com/?cid=0x0:0x5937ac1360822cb3,
restaurant,Toko bahan makanan,Olympic Ballroom  Resto,"SGB Bungsu, Jalan, North Lewoleba, Nubatukan, Lembata Regency, East Nusa Tenggara","Kabupaten Lembata, Nusa Tenggara Tim.",NUSA TENGGARA TIMUR,,Indonesia,,,,-8.3725771,123.4084656,https://maps.google.com/?cid=0x0:0xfae73f061d039a8d,
restaurant,Brunch,Warung Makan Lumayan,"JFR5+76G, Lewoleba Tim., Kec. Nubatukan, Kabupaten Lembata, Nusa Tenggara Tim.","Kabupaten Lembata, Nusa Tenggara Tim.",NUSA TENGGARA TIMUR,,Indonesia,,,,-8.3593131,123.4580922,https://maps.google.com/?cid=0x0:0xc9d71c36f9f31f,
restaurant,Jawa,Rumah Makan Wulandari,"JCHC+C4R, Jl. Trans Lembata, Lewoleba Tengah, Kec. Nubatukan, Kabupaten Lembata, Nusa Tenggara Tim.","Kabupaten Lembata, Nusa Tenggara Tim.",NUSA TENGGARA TIMUR,,Indonesia,,,,-8.3713866,123.4202563,https://maps.google.com/?cid=0x0:0xc1cc6a67fb6347e3,
restaurant,Rumah Makan,Warung Makan Mbak Erna,"JCHG+3XX, Lewoleba Tengah, Kec. Nubatukan, Kabupaten Lembata, Nusa Tenggara Tim.","Kabupaten Lembata, Nusa Tenggara Tim.",NUSA TENGGARA TIMUR,,Indonesia,82131073247.0,,,-8.3722645,123.4274821,https://maps.google.com/?cid=0x0:0xed73bd17d2afdce2,
restaurant,Brunch,Warung Makan Mas Rozak,"Unnamed Road, Lewoleba Tengah, Kec. Nubatukan, Kabupaten Lembata, Nusa Tenggara Tim.","Kabupaten Lembata, Nusa Tenggara Tim.",NUSA TENGGARA TIMUR,,Indonesia,,,,-8.3730365,123.429806,https://maps.google.com/?cid=0x0:0xce1727f9db9d2f63,
restaurant,Tempat Cukur Rambut,3G Cafe  Barbershop,"Jl. Trans Lembata No.Kel, Lewoleba Timur, Kec. Nubatukan, Kabupaten Lembata, Nusa Tenggara Tim. 86682","Lewoleba Timur, Kec. Nubatukan, Kabupaten Lembata",NUSA TENGGARA TIMUR,86682.0,Indonesia,81339677068.0,,,-8.3692046,123.4389565,https://maps.google.com/?cid=0x0:0xf6223ac17edbdb9b,
restaurant,Rumah Makan,Warung Makan Bandung,"JCH7+4RV, Lewoleba Tengah, Kec. Nubatukan, Kabupaten Lembata, Nusa Tenggara Tim.","Kabupaten Lembata, Nusa Tenggara Tim.",NUSA TENGGARA TIMUR,,Indonesia,82237533963.0,,,-8.3721446,123.4145516,https://maps.google.com/?cid=0x0:0xf230ff2fd9f8fc78,
restaurant,Indonesia,Rm Mustika,"JCJQ+CV6, Selandoro, Kec. Nubatukan, Kabupaten Lembata, Nusa Tenggara Tim.","Kabupaten Lembata, Nusa Tenggara Tim.",NUSA TENGGARA TIMUR,,Indonesia,,,,-8.3689633,123.4396502,https://maps.google.com/?cid=0x0:0x1bb5985463625c4e,
restaurant,Restoran,Rumah Makan Barokah,"JCH9+HVG, Jl. Trans Lembata, Lewoleba Tengah, Kec. Nubatukan, Kabupaten Lembata, Nusa Tenggara Tim.","Kabupaten Lembata, Nusa Tenggara Tim.",NUSA TENGGARA TIMUR,,Indonesia,,,,-8.3710689,123.419705,https://maps.google.com/?cid=0x0:0x300a9bc0b9f5410c,
restaurant,Jawa,Warung Makan Persik Indah,"JCHJ+3MF, Lewoleba Tengah, Kec. Nubatukan, Kabupaten Lembata, Nusa Tenggara Tim.","Kabupaten Lembata, Nusa Tenggara Tim.",NUSA TENGGARA TIMUR,,Indonesia,,,,-8.3723017,123.4316607,https://maps.google.com/?cid=0x0:0xd695d8b609196d1a,
restaurant,Indonesia,RM. ANDAHMU,"JCG3+XP5, Jl. Trans Lembata, Lewoleba Utara, Kec. Nubatukan, Kabupaten Lembata, Nusa Tenggara Tim.","Kabupaten Lembata, Nusa Tenggara Tim.",NUSA TENGGARA TIMUR,,Indonesia,81339428161.0,,,-8.3726132,123.4043605,https://maps.google.com/?cid=0x0:0xba3aab2aab083b58,
restaurant,Jawa Timur,Rumah Makan Atun. Terminal Timur Lewoleba,"JFR6+W6Q, Lewoleba Tim., Kec. Nubatukan, Kabupaten Lembata, Nusa Tenggara Tim.","Kabupaten Lembata, Nusa Tenggara Tim.",NUSA TENGGARA TIMUR,,Indonesia,,,,-8.3576618,123.4606168,https://maps.google.com/?cid=0x0:0xe3adfc675a8a7aff,
restaurant,Padang,Wr Makan Mekar Sari Bumiayu,"JCH9+FV5, Lewoleba Tengah, Kec. Nubatukan, Kabupaten Lembata, Nusa Tenggara Tim.","Kabupaten Lembata, Nusa Tenggara Tim.",NUSA TENGGARA TIMUR,,Indonesia,82145465101.0,,,-8.3713633,123.4197428,https://maps.google.com/?cid=0x0:0x40d098a924815c5b,
restaurant,Padang,Duta minang,"Jl. Tujuh Maret, Lewoleba, Kec. Nubatukan, Kabupaten Lembata, Nusa Tenggara Tim.","Kabupaten Lembata, Nusa Tenggara Tim.",NUSA TENGGARA TIMUR,,Indonesia,81339625987.0,,,-8.3726205,123.4161195,https://maps.google.com/?cid=0x0:0xd0767feb785759d1,
restaurant,Jawa Timur,WARUNG LUMAYAN 2,"Jl. Trans Lembata No.3, Lewoleba Tim., Kec. Nubatukan, Kabupaten Lembata, Nusa Tenggara Tim. 86616","Lewoleba Tim., Kec. Nubatukan, Kabupaten Lembata",NUSA TENGGARA TIMUR,86616.0,Indonesia,82140209224.0,,,-8.3679267,123.4411249,https://maps.google.com/?cid=0x0:0xe3e5899bb634115b,
restaurant,Restoran,Mie Ayam Pangsit Mas Trisno,"JCH8+G7Q, Lewoleba Tengah, Kec. Nubatukan, Kabupaten Lembata, Nusa Tenggara Tim.","Kabupaten Lembata, Nusa Tenggara Tim.",NUSA TENGGARA TIMUR,,Indonesia,,,,-8.3711661,123.4157462,https://maps.google.com/?cid=0x0:0x494da57562380119,
restaurant,Rumah Makan,SAUNG ABIY THALAH,"Jl. Trans Lembata No.92, Lewoleba Timur, Kec. Nubatukan, Kabupaten Lembata, Nusa Tenggara Tim. 86616","Lewoleba Timur, Kec. Nubatukan, Kabupaten Lembata",NUSA TENGGARA TIMUR,86616.0,Indonesia,81337929497.0,,,-8.3681362,123.4396538,https://maps.google.com/?cid=0x0:0x18e99f2848d7dd9b,
restaurant,Kafe,Agrowisata Ema Pia,"JCG6+G7C, Lewoleba Utara, Kec. Nubatukan, Kabupaten Lembata, Nusa Tenggara Tim.","Kabupaten Lembata, Nusa Tenggara Tim.",NUSA TENGGARA TIMUR,,Indonesia,,,,-8.3736849,123.410651,https://maps.google.com/?cid=0x0:0xb392103c25e45bf6,
restaurant,Kedai Kopi,Gubuk Kopi,"Wangatoa, Selandoro, Lewoleba Tengah, Kec. Nubatukan, Kabupaten Lembata, Nusa Tenggara Tim.","Kabupaten Lembata, Nusa Tenggara Tim.",NUSA TENGGARA TIMUR,,Indonesia,,,,-8.3711083,123.4286046,https://maps.google.com/?cid=0x0:0xa44f0b2d01dcbee5,
restaurant,restaurant,Kec. Omesuri,"Kabupaten Lembata, Nusa Tenggara Tim.","Kabupaten Lembata, Nusa Tenggara Tim.",NUSA TENGGARA TIMUR,,Indonesia,,,,-8.2457063,123.7524523,https://maps.google.com/?cid=0x0:0x63a024d49fdb39f4,
restaurant,restaurant,Warung Qian,"PPPG+RMJ, Hingalamamengi, Kec. Omesuri, Kabupaten Lembata, Nusa Tenggara Tim.","Kabupaten Lembata, Nusa Tenggara Tim.",NUSA TENGGARA TIMUR,,Indonesia,,,,-8.2629073,123.7266253,https://maps.google.com/?cid=0x0:0x830d4e27cc82772f,
restaurant,Restoran,Nasi Goreng Afiyah,"Hoelea II, Kec. Omesuri, Kabupaten Lembata, Nusa Tenggara Tim.","Kabupaten Lembata, Nusa Tenggara Tim.",NUSA TENGGARA TIMUR,,Indonesia,81233987574.0,,,-8.2333714,123.7048209,https://maps.google.com/?cid=0x0:0x91de800e40ad68a9,
restaurant,Bakso,Bakso suramadu,"QP84+85G, Hoelea II, Kec. Omesuri, Kabupaten Lembata, Nusa Tenggara Tim.","Kabupaten Lembata, Nusa Tenggara Tim.",NUSA TENGGARA TIMUR,,Indonesia,82330525556.0,,,-8.2341954,123.7054606,https://maps.google.com/?cid=0x0:0xa0ef1233109a808,
restaurant,Nasi,Warung Fajar Rasa,"Unnamed Road, Hoelea II, Kec. Omesuri, Kabupaten Lembata, Nusa Tenggara Tim.","Kabupaten Lembata, Nusa Tenggara Tim.",NUSA TENGGARA TIMUR,,Indonesia,76783264.0,,,-8.2351196,123.706447,https://maps.google.com/?cid=0x0:0xc968d83e7ba30b01,
restaurant,Kedai Kopi,Cafe RHAMA AINI  ZAINAB,"Jalan Pantura, Desa Hingalamamengi, Kec. Omesuri, Kabupaten Lembata, Nusa Tenggara Tim.","Kabupaten Lembata, Nusa Tenggara Tim.",NUSA TENGGARA TIMUR,,Indonesia,82145777717.0,,,-8.2230982,123.7432569,https://maps.google.com/?cid=0x0:0x9caf6b47806db6f8,
restaurant,Restoran,Rest area lewolein,"PJ2H+QJ3, Jl. Trans Lembata, Dikesare, Kec. Lebatukan, Kabupaten Lembata, Nusa Tenggara Tim.","Kabupaten Lembata, Nusa Tenggara Tim.",NUSA TENGGARA TIMUR,,Indonesia,,,,-8.2981084,123.6290481,https://maps.google.com/?cid=0x0:0xa8cd15031ab30542,
restaurant,Seafood,ikan Kering Wailolong,"PMW3+69C, Wailolong, Kec. Omesuri, Kabupaten Lembata, Nusa Tenggara Tim.","Kabupaten Lembata, Nusa Tenggara Tim.",NUSA TENGGARA TIMUR,,Indonesia,8123912156.0,,,-8.2544264,123.6533758,https://maps.google.com/?cid=0x0:0x464b4b4fa4b9cfb5,
restaurant,Sekolah pendidikan umum,SD INPRES PEUUMA,"QP9R+4GF, Leuwayang, Kec. Omesuri, Kabupaten Lembata, Nusa Tenggara Tim.","Kabupaten Lembata, Nusa Tenggara Tim.",NUSA TENGGARA TIMUR,,Indonesia,,,,-8.2321847,123.7412825,https://maps.google.com/?cid=0x0:0x2e36c1ea6e21923f,
restaurant,restaurant,Warung Qian,"QPCQ+6HX, Leuwayang, Kec. Omesuri, Kabupaten Lembata, Nusa Tenggara Tim.","Kabupaten Lembata, Nusa Tenggara Tim.",NUSA TENGGARA TIMUR,,Indonesia,,,,-8.2293881,123.7389934,https://maps.google.com/?cid=0x0:0x67a5073fe916b121,
restaurant,Tempat Cukur Rambut,3G Cafe  Barbershop,"Jl. Trans Lembata No.Kel, Lewoleba Timur, Kec. Nubatukan, Kabupaten Lembata, Nusa Tenggara Tim. 86682","Lewoleba Timur, Kec. Nubatukan, Kabupaten Lembata",NUSA TENGGARA TIMUR,86682.0,Indonesia,81339677068.0,,,-8.3692046,123.4389565,https://maps.google.com/?cid=0x0:0xf6223ac17edbdb9b,
restaurant,Jawa Timur,RM. Ayu Nisa,"JFQ4+R2H, Lewoleba Tim., Kec. Nubatukan, Kabupaten Lembata, Nusa Tenggara Tim.","Kabupaten Lembata, Nusa Tenggara Tim.",NUSA TENGGARA TIMUR,,Indonesia,,,,-8.3604304,123.4551211,https://maps.google.com/?cid=0x0:0x529b6f8254235aaf,
restaurant,Kafe,Omah Bu'e Lembata,"Kandang Rusa - Lamahora, Jl. Trans Lembata, Lewoleba, Kec. Nubatukan, Kabupaten Lembata, Nusa Tenggara Tim. 86616","Jl. Trans Lembata, Lewoleba, Kec. Nubatukan, Kabupaten Lembata",NUSA TENGGARA TIMUR,86616.0,Indonesia,81338965654.0,,,-8.367236,123.4423162,https://maps.google.com/?cid=0x0:0x9e3075c4cd0b6cac,
restaurant,Kedai Kopi,Warkop A.G kelen,"PMQQ+CMQ, Jl. Trans Lembata, Balauring, Kec. Omesuri, Kabupaten Lembata, Nusa Tenggara Tim.","Kabupaten Lembata, Nusa Tenggara Tim.",NUSA TENGGARA TIMUR,,Indonesia,82283796377.0,,,-8.2614191,123.6892192,https://maps.google.com/?cid=0x0:0xcb497cd2e6f04871,
restaurant,Pembangunan Perumahan,moke home stay lolonrian,"RR85+PC, Buriwutung, Kec. Buyasari, Kabupaten Lembata, Nusa Tenggara Tim.","Kabupaten Lembata, Nusa Tenggara Tim.",NUSA TENGGARA TIMUR,,Indonesia,,,,-8.1830892,123.8086357,https://maps.google.com/?cid=0x0:0xc61ebf42e5155b32,
restaurant,Warnet,Rumah valents,"MPFG+37, Leubatang, Kec. Omesuri, Kabupaten Lembata, Nusa Tenggara Tim.","Kabupaten Lembata, Nusa Tenggara Tim.",NUSA TENGGARA TIMUR,,Indonesia,,,,-8.3266471,123.723766,https://maps.google.com/?cid=0x0:0x81f982352ebd80b9,
restaurant,Jawa Timur,Rumah Makan Atun. Terminal Timur Lewoleba,"JFR6+W6Q, Lewoleba Tim., Kec. Nubatukan, Kabupaten Lembata, Nusa Tenggara Tim.","Kabupaten Lembata, Nusa Tenggara Tim.",NUSA TENGGARA TIMUR,,Indonesia,,,,-8.3576618,123.4606168,https://maps.google.com/?cid=0x0:0xe3adfc675a8a7aff,
restaurant,Toko,Aneka Kios Wulandoni,"Belobao, Kec. Wulandoni, Kabupaten Lembata, Nusa Tenggara Tim.","Kabupaten Lembata, Nusa Tenggara Tim.",NUSA TENGGARA TIMUR,,Indonesia,,,,-8.5385742,123.4086266,https://maps.google.com/?cid=0x0:0x2520393f59a8db97,
restaurant,Toko umum,Kios Litani,"FFP9+MG3, Ataili, Kec. Wulandoni, Kabupaten Lembata, Nusa Tenggara Tim.","Kabupaten Lembata, Nusa Tenggara Tim.",NUSA TENGGARA TIMUR,,Indonesia,,,,-8.513355,123.4688113,https://maps.google.com/?cid=0x0:0x6a46f186ed93f6eb,
restaurant,Manado,Levon manadonese cuisine,"Ruko South, Jl. Goldfinch Raya Jl. Springs Boulevard No.35, Cihuni, Kec. Pagedangan, Kabupaten Tangerang, Banten 15332","Jl. Goldfinch Raya Jl. Springs Boulevard No.35, Cihuni, Kec. Pagedangan, Kabupaten Tangerang",NUSA TENGGARA TIMUR,15332.0,Indonesia,85201013333.0,,,-6.2738826,106.6383479,https://maps.google.com/?cid=0x0:0xb1edd33cc9f10957,
cafe,cafe,Kec. Atadei,"Kabupaten Lembata, Nusa Tenggara Tim.","Kabupaten Lembata, Nusa Tenggara Tim.",NUSA TENGGARA TIMUR,,Indonesia,,,,-8.4349536,123.4678297,https://maps.google.com/?cid=0x0:0xfbbff0f263a15426,
cafe,Kedai Kopi,Gorengan Nona Wutun,"Dusun 1 Watena depan SMP No.N 1, Katakeja, Kec. Atadei, Kabupaten Lembata, Nusa Tenggara Tim.","Kabupaten Lembata, Nusa Tenggara Tim.",NUSA TENGGARA TIMUR,,Indonesia,82217992126.0,,,-8.4362337,123.4657638,https://maps.google.com/?cid=0x0:0x1f314d114749503b,
cafe,Tempat Cukur Rambut,3G Cafe  Barbershop,"Jl. Trans Lembata No.Kel, Lewoleba Timur, Kec. Nubatukan, Kabupaten Lembata, Nusa Tenggara Tim. 86682","Lewoleba Timur, Kec. Nubatukan, Kabupaten Lembata",NUSA TENGGARA TIMUR,86682.0,Indonesia,81339677068.0,,,-8.3692046,123.4389565,https://maps.google.com/?cid=0x0:0xf6223ac17edbdb9b,
cafe,Kedai Kopi,Backmaran Coffee,"HF87+4R6, Katakeja, Kec. Atadei, Kabupaten Lembata, Nusa Tenggara Tim.","Kabupaten Lembata, Nusa Tenggara Tim.",NUSA TENGGARA TIMUR,,Indonesia,82235517806.0,,,-8.4347015,123.4645215,https://maps.google.com/?cid=0x0:0x33d2c9a69181a451,
cafe,Kedai Kopi,Caffe Like Coffee,"J9HX+Q3W, Unnamed Road Jl. SGB Bungsu, Lewoleba Utara, Kec. Nubatukan, Kabupaten Lembata, Nusa Tenggara Tim.","Kabupaten Lembata, Nusa Tenggara Tim.",NUSA TENGGARA TIMUR,,Indonesia,,,,-8.3702223,123.3974475,https://maps.google.com/?cid=0x0:0x3faddb48de76262a,
cafe,Kedai Kopi,Mario Cafe,"Jl. Trans Lembata No.3, Lewoleba Tim, Kec. Nubatukan, Kabupaten Lembata, Nusa Tenggara Tim. 86616","Lewoleba Tim, Kec. Nubatukan, Kabupaten Lembata",NUSA TENGGARA TIMUR,86616.0,Indonesia,,,,-8.3668356,123.4416382,https://maps.google.com/?cid=0x0:0x68109e1dd40be666,
cafe,Kafe,Popi's Cafe Bar,"JCG5+XMF, Jl. Trans Lembata, Lewoleba Utara, Kabupaten Lembata, Nusa Tenggara Tim.","Kabupaten Lembata, Nusa Tenggara Tim.",NUSA TENGGARA TIMUR,,Indonesia,82134566117.0,,,-8.3725645,123.4091704,https://maps.google.com/?cid=0x0:0x12c5cdb7b35e5681,
cafe,Kafe,Omah Bu'e Lembata,"Kandang Rusa - Lamahora, Jl. Trans Lembata, Lewoleba, Kec. Nubatukan, Kabupaten Lembata, Nusa Tenggara Tim. 86616","Jl. Trans Lembata, Lewoleba, Kec. Nubatukan, Kabupaten Lembata",NUSA TENGGARA TIMUR,86616.0,Indonesia,81338965654.0,,,-8.367236,123.4423162,https://maps.google.com/?cid=0x0:0x9e3075c4cd0b6cac,
cafe,Kedai Kopi,Yoma Caffee,"JCHM+58X, Jl. Trans Lembata, Lewoleba Tengah, Kec. Nubatukan, Kabupaten Lembata, Nusa Tenggara Tim.","Kabupaten Lembata, Nusa Tenggara Tim.",NUSA TENGGARA TIMUR,,Indonesia,,,,-8.3720144,123.4333441,https://maps.google.com/?cid=0x0:0x66912ab9cd9f921,
cafe,Kedai Kopi,Wadan Caffe,"JCH4+7GQ, Jl. Trans Lembata, Lewoleba Tengah, Kec. Nubatukan, Kabupaten Lembata, Nusa Tenggara Tim.","Kabupaten Lembata, Nusa Tenggara Tim.",NUSA TENGGARA TIMUR,,Indonesia,81244925518.0,,,-8.3717956,123.4063618,https://maps.google.com/?cid=0x0:0x1faf31791969f91c,
cafe,Komplek perumahan,Lapaz Squad KOLILEREK,"HF3C+C8X, Unnamed Road, Tubuk Rajan, Kec. Atadei, Kabupaten Lembata, Nusa Tenggara Tim.","Kabupaten Lembata, Nusa Tenggara Tim.",NUSA TENGGARA TIMUR,,Indonesia,,,,-8.4463907,123.4708692,https://maps.google.com/?cid=0x0:0x248efc224f5055a8,
cafe,Kedai Kopi,Teman duduk,"FFC4+JG4, Pantai Harapan, Kec. Wulandoni, Kabupaten Lembata, Nusa Tenggara Tim.","Kabupaten Lembata, Nusa Tenggara Tim.",NUSA TENGGARA TIMUR,,Indonesia,82252612539.0,,,-8.529014,123.4567206,https://maps.google.com/?cid=0x0:0xc2aec3e312bc6d85,
cafe,Kedai Kopi,Gubuk Kopi,"Wangatoa, Selandoro, Lewoleba Tengah, Kec. Nubatukan, Kabupaten Lembata, Nusa Tenggara Tim.","Kabupaten Lembata, Nusa Tenggara Tim.",NUSA TENGGARA TIMUR,,Indonesia,,,,-8.3711083,123.4286046,https://maps.google.com/?cid=0x0:0xa44f0b2d01dcbee5,
cafe,Toko,Aneka Kios Wulandoni,"Belobao, Kec. Wulandoni, Kabupaten Lembata, Nusa Tenggara Tim.","Kabupaten Lembata, Nusa Tenggara Tim.",NUSA TENGGARA TIMUR,,Indonesia,,,,-8.5385742,123.4086266,https://maps.google.com/?cid=0x0:0x2520393f59a8db97,
cafe,Kedai Kopi,Start-Up Cafe  Bistro,"JCGH+V7W, Lewoleba Tengah, Kec. Nubatukan, Kabupaten Lembata, Nusa Tenggara Tim.","Kabupaten Lembata, Nusa Tenggara Tim.",NUSA TENGGARA TIMUR,,Indonesia,,,,-8.3727586,123.4281911,https://maps.google.com/?cid=0x0:0xb793467c1dff74e5,
cafe,Komplek perumahan,DuniAice Wangatoa Lewoleba,"Jl. Trans Lembata, Lewoleba Tengah, Kec. Nubatukan, Kabupaten Lembata, Nusa Tenggara Tim.","Kabupaten Lembata, Nusa Tenggara Tim.",NUSA TENGGARA TIMUR,,Indonesia,,,,-8.3726647,123.4304048,https://maps.google.com/?cid=0x0:0x45c499c3e3ec0d99,
cafe,Jawa,Rumah Makan Wulandari,"JCHC+C4R, Jl. Trans Lembata, Lewoleba Tengah, Kec. Nubatukan, Kabupaten Lembata, Nusa Tenggara Tim.","Kabupaten Lembata, Nusa Tenggara Tim.",NUSA TENGGARA TIMUR,,Indonesia,,,,-8.3713866,123.4202563,https://maps.google.com/?cid=0x0:0xc1cc6a67fb6347e3,
cafe,Kedai Kopi,Bukan Kafe Le (Warkop Ankobar),"JCFC+JX8, Lewoleba Tengah, Kec. Nubatukan, Kabupaten Lembata, Nusa Tenggara Tim.","Kabupaten Lembata, Nusa Tenggara Tim.",NUSA TENGGARA TIMUR,,Indonesia,,,,-8.3759608,123.4224518,https://maps.google.com/?cid=0x0:0x126b3dbbe5424d65,
cafe,cafe,Kenere Tuwe lenge,"FG74+2RQ, Lusilame, Kec. Atadei, Kabupaten Lembata, Nusa Tenggara Tim.","Kabupaten Lembata, Nusa Tenggara Tim.",NUSA TENGGARA TIMUR,,Indonesia,,,,-8.5374112,123.5071176,https://maps.google.com/?cid=0x0:0xc8c52e76fba69287,
cafe,Kedai Kopi,Coffe Isntanbul_Lewoleba,"JCJJ+9HC, Unnamed Road, Central Lewoleba, Nubatukan, Lembata Regency, East Nusa Tenggara","Kabupaten Lembata, Nusa Tenggara Tim.",NUSA TENGGARA TIMUR,,Indonesia,82144873607.0,,,-8.3690532,123.4313984,https://maps.google.com/?cid=0x0:0xe28759503034e6a1,
cafe,Kedai Kopi,Lestari Coffee Tebet Eco Park,"5, Jl. Tebet Timur Raya No.5, RW.7, Tebet Tim., Kec. Tebet, Kota Jakarta Selatan, Daerah Khusus Ibukota Jakarta 12820","Jl. Tebet Timur Raya No.5, RW.7, Tebet Tim., Kec. Tebet, Kota Jakarta Selatan",NUSA TENGGARA TIMUR,12820.0,Indonesia,8119529777.0,,,-6.2365105,106.8536977,https://maps.google.com/?cid=0x0:0x1af67837b3f72507,
cafe,Kafe,"Kafe Aketode,Starbackan","Jl. Gua Maria, Lewoleba Tengah, Kec. Nubatukan, Kabupaten Lembata, Nusa Tenggara Tim.","Kabupaten Lembata, Nusa Tenggara Tim.",NUSA TENGGARA TIMUR,,Indonesia,82342161010.0,,,-8.3849214,123.4167329,https://maps.google.com/?cid=0x0:0x100dab82d3ed1b3d,
cafe,Kafe,Agrowisata Ema Pia,"JCG6+G7C, Lewoleba Utara, Kec. Nubatukan, Kabupaten Lembata, Nusa Tenggara Tim.","Kabupaten Lembata, Nusa Tenggara Tim.",NUSA TENGGARA TIMUR,,Indonesia,,,,-8.3736849,123.410651,https://maps.google.com/?cid=0x0:0xb392103c25e45bf6,
cafe,Rumah Makan,SAUNG ABIY THALAH,"Jl. Trans Lembata No.92, Lewoleba Timur, Kec. Nubatukan, Kabupaten Lembata, Nusa Tenggara Tim. 86616","Lewoleba Timur, Kec. Nubatukan, Kabupaten Lembata",NUSA TENGGARA TIMUR,86616.0,Indonesia,81337929497.0,,,-8.3681362,123.4396538,https://maps.google.com/?cid=0x0:0x18e99f2848d7dd9b,
cafe,Komplek perumahan,Rumah Duanzha putra,"F9P4+4JR, Atawai, Kec. Naga Wutung, Kabupaten Lembata, Nusa Tenggara Tim.","Kabupaten Lembata, Nusa Tenggara Tim.",NUSA TENGGARA TIMUR,,Indonesia,82197401614.0,,,-8.5147709,123.3564096,https://maps.google.com/?cid=0x0:0x6437ee390ab04836,
cafe,cafe,Kec. Buyasari,"Kabupaten Lembata, Nusa Tenggara Tim.","Kabupaten Lembata, Nusa Tenggara Tim.",NUSA TENGGARA TIMUR,,Indonesia,,,,-8.2341393,123.7965376,https://maps.google.com/?cid=0x0:0x634360f4156fb87d,
cafe,Pembangunan Perumahan,moke home stay lolonrian,"RR85+PC, Buriwutung, Kec. Buyasari, Kabupaten Lembata, Nusa Tenggara Tim.","Kabupaten Lembata, Nusa Tenggara Tim.",NUSA TENGGARA TIMUR,,Indonesia,,,,-8.1830892,123.8086357,https://maps.google.com/?cid=0x0:0xc61ebf42e5155b32,
cafe,Sekolah,Kalikur,"RQGC+M7P Ventas kompleks, Kalikur,peuwutuq, Bareng, Kec. Buyasari, Kabupaten Lembata, Nusa Tenggara Tim.","Kabupaten Lembata, Nusa Tenggara Tim.",NUSA TENGGARA TIMUR,,Indonesia,,,,-8.1732768,123.7707698,https://maps.google.com/?cid=0x0:0x6e18f4f5f5089464,
cafe,cafe,Wifi vocer alan.net,"BAim AB, Bareng, Kec. Buyasari, Kabupaten Lembata, Nusa Tenggara Tim.","Kabupaten Lembata, Nusa Tenggara Tim.",NUSA TENGGARA TIMUR,,Indonesia,,,,-8.1728382,123.7727156,https://maps.google.com/?cid=0x0:0xc4cd8e554b8fb3fc,
cafe,cafe,Bukit Gurita,"RR3C+VGV, Umaleu, Kec. Buyasari, Kabupaten Lembata, Nusa Tenggara Tim.","Kabupaten Lembata, Nusa Tenggara Tim.",NUSA TENGGARA TIMUR,,Indonesia,82145300306.0,,,-8.1952538,123.8212831,https://maps.google.com/?cid=0x0:0x346db42ba4107d19,
cafe,Kios,Kios Asri utama,"RR58+6V3, Umaleu, Kec. Buyasari, Kabupaten Lembata, Nusa Tenggara Tim.","Kabupaten Lembata, Nusa Tenggara Tim.",NUSA TENGGARA TIMUR,,Indonesia,82194730746.0,,,-8.1919945,123.8171707,https://maps.google.com/?cid=0x0:0x8353035b81dcb8b2,
cafe,Toko,Kios 3 putri Lelanguneq,"QRF6+79M, Unnamed Road, Tubungwalang, Kec. Buyasari, Kabupaten Lembata, Nusa Tenggara Tim.","Kabupaten Lembata, Nusa Tenggara Tim.",NUSA TENGGARA TIMUR,,Indonesia,,,,-8.2267772,123.8109112,https://maps.google.com/?cid=0x0:0x650e33dcf7b15ef0,
cafe,Minimarket,Kios udin,"QRC4+6CG, Atu Walupang, Kec. Buyasari, Kabupaten Lembata, Nusa Tenggara Tim.","Kabupaten Lembata, Nusa Tenggara Tim.",NUSA TENGGARA TIMUR,,Indonesia,,,,-8.2294287,123.8060687,https://maps.google.com/?cid=0x0:0xf103f4b14893845c,
cafe,cafe,Keuwohun,"RQCJ+RX5, Leuwohung, Kec. Buyasari, Kabupaten Lembata, Nusa Tenggara Tim.","Kabupaten Lembata, Nusa Tenggara Tim.",NUSA TENGGARA TIMUR,,Indonesia,,,,-8.1779988,123.7824983,https://maps.google.com/?cid=0x0:0xc2761370b0766c20,
cafe,Kedai Kopi,Mario Cafe,"Jl. Trans Lembata No.3, Lewoleba Tim, Kec. Nubatukan, Kabupaten Lembata, Nusa Tenggara Tim. 86616","Lewoleba Tim, Kec. Nubatukan, Kabupaten Lembata",NUSA TENGGARA TIMUR,86616.0,Indonesia,,,,-8.3668356,123.4416382,https://maps.google.com/?cid=0x0:0x68109e1dd40be666,
cafe,cafe,Kec. Ile Ape,"Kabupaten Lembata, Nusa Tenggara Tim.","Kabupaten Lembata, Nusa Tenggara Tim.",NUSA TENGGARA TIMUR,,Indonesia,,,,-8.2710158,123.4600712,https://maps.google.com/?cid=0x0:0x326d060bf93304cb,
cafe,Kafe,Omah Bu'e Lembata,"Kandang Rusa - Lamahora, Jl. Trans Lembata, Lewoleba, Kec. Nubatukan, Kabupaten Lembata, Nusa Tenggara Tim. 86616","Jl. Trans Lembata, Lewoleba, Kec. Nubatukan, Kabupaten Lembata",NUSA TENGGARA TIMUR,86616.0,Indonesia,81338965654.0,,,-8.367236,123.4423162,https://maps.google.com/?cid=0x0:0x9e3075c4cd0b6cac,
cafe,Tempat Cukur Rambut,3G Cafe  Barbershop,"Jl. Trans Lembata No.Kel, Lewoleba Timur, Kec. Nubatukan, Kabupaten Lembata, Nusa Tenggara Tim. 86682","Lewoleba Timur, Kec. Nubatukan, Kabupaten Lembata",NUSA TENGGARA TIMUR,86682.0,Indonesia,81339677068.0,,,-8.3692046,123.4389565,https://maps.google.com/?cid=0x0:0xf6223ac17edbdb9b,
cafe,Kedai Kopi,Kopi Senja,"P9GC+352, Kolipadan, Palilolon, Kabupaten Lembata, Nusa Tenggara Tim.","Kabupaten Lembata, Nusa Tenggara Tim.",NUSA TENGGARA TIMUR,,Indonesia,82236389707.0,,,-8.2748688,123.3704032,https://maps.google.com/?cid=0x0:0xe133eff2dff64344,
cafe,Kafetaria,RnB center,"MFV3+MJW, Petuntawa, Kec. Ile Ape, Kabupaten Lembata, Nusa Tenggara Tim.","Kabupaten Lembata, Nusa Tenggara Tim.",NUSA TENGGARA TIMUR,,Indonesia,82247022239.0,,,-8.3057711,123.454092,https://maps.google.com/?cid=0x0:0x5be1b5ec041577ac,
cafe,Kedai Kopi,Depot air Holoriang,"P9JX+269, Tagawiti, Kec. Ile Ape, Kabupaten Lembata, Nusa Tenggara Tim.","Kabupaten Lembata, Nusa Tenggara Tim.",NUSA TENGGARA TIMUR,,Indonesia,85240689262.0,,,-8.2699676,123.3981136,https://maps.google.com/?cid=0x0:0x2aa89bea2d7bec4f,
cafe,Kedai Kopi,Aloma komplex,"PFXG+3H5, Jalan, Ring, Kec. Ile Ape, Kabupaten Lembata, Nusa Tenggara Tim.","Kabupaten Lembata, Nusa Tenggara Tim.",NUSA TENGGARA TIMUR,,Indonesia,,,,-8.2528596,123.4763728,https://maps.google.com/?cid=0x0:0xca5f325edc29705a,
cafe,Kafe,linhome,"PFJ6+2RW, Waowala, Kec. Ile Ape, Kabupaten Lembata, Nusa Tenggara Tim.","Kabupaten Lembata, Nusa Tenggara Tim.",NUSA TENGGARA TIMUR,,Indonesia,82144664882.0,,,-8.2698991,123.4620893,https://maps.google.com/?cid=0x0:0x309c534b8cd1cc8c,
cafe,Brunch,Warung Makan Lumayan,"JFR5+76G, Lewoleba Tim., Kec. Nubatukan, Kabupaten Lembata, Nusa Tenggara Tim.","Kabupaten Lembata, Nusa Tenggara Tim.",NUSA TENGGARA TIMUR,,Indonesia,,,,-8.3593131,123.4580922,https://maps.google.com/?cid=0x0:0xc9d71c36f9f31f,
cafe,Es Krim,FUNN Ice Cream  Cafe Lembata,"Jl. Trans Lembata, Lewoleba Tim, Kec. Nubatukan, Kabupaten Lembata, Nusa Tenggara Tim. 86615","Lewoleba Tim, Kec. Nubatukan, Kabupaten Lembata",NUSA TENGGARA TIMUR,86615.0,Indonesia,,,,-8.3673087,123.4420934,https://maps.google.com/?cid=0x0:0xb165773430c178a5,
cafe,Perhimpunan Pengembang Perumahan,Florianus Arkian,"JCPW+26P, Jl. Trans Lembata, Selandoro, Kec. Nubatukan, Kabupaten Lembata, Nusa Tenggara Tim.","Kabupaten Lembata, Nusa Tenggara Tim.",NUSA TENGGARA TIMUR,,Indonesia,81382268113.0,,,-8.3649225,123.4455882,https://maps.google.com/?cid=0x0:0x7fe37767117b7ba2,
cafe,Tempat Istirahat,Asam 1 Komplex (Kolibaran Watodiri),"MF6M+FW5, Muruona, Kec. Ile Ape, Kabupaten Lembata, Nusa Tenggara Tim.","Kabupaten Lembata, Nusa Tenggara Tim.",NUSA TENGGARA TIMUR,,Indonesia,85333011205.0,,,-8.3388524,123.4848559,https://maps.google.com/?cid=0x0:0xad87771cc8ba816c,
cafe,Kedai Kopi,Depot Aquamor,"MFX2+7J8, Jl. Ring Ileape, Petuntawa, Kec. Ile Ape, Kabupaten Lembata, Nusa Tenggara Tim.","Kabupaten Lembata, Nusa Tenggara Tim.",NUSA TENGGARA TIMUR,,Indonesia,85240689262.0,,,-8.3018297,123.4515871,https://maps.google.com/?cid=0x0:0x4ba1a5e4202773,
cafe,Kedai Kopi,Anto Atte,"QF2J+G76, Pulau Lembata, Kabupaten Lembata, Nusa Tenggara Tim.","Kabupaten Lembata, Nusa Tenggara Tim.",NUSA TENGGARA TIMUR,,Indonesia,,,,-8.2487063,123.4806341,https://maps.google.com/?cid=0x0:0xd0d2deddda5f325,
cafe,Kedai Kopi,MOTING EGA TEKAN TAKE AMET,"Jl. Ring Ileape, Kabupaten Lembata, Nusa Tenggara Tim.","Kabupaten Lembata, Nusa Tenggara Tim.",NUSA TENGGARA TIMUR,,Indonesia,,,,-8.2561716,123.4741284,https://maps.google.com/?cid=0x0:0x7dd83a046d8e1994,
cafe,Komplek perumahan,Abang burger,"Perumahan Waesesa, Waowala, Kec. Ile Ape, Kabupaten Lembata, Nusa Tenggara Tim. 86683","Waowala, Kec. Ile Ape, Kabupaten Lembata",NUSA TENGGARA TIMUR,86683.0,Indonesia,85133724068.0,,,-8.2894423,123.4376846,https://maps.google.com/?cid=0x0:0x58762e82f66e1201,
cafe,Kedai Kopi,Titik Kumpul PMC,"JCPX+M7W, Jl. Trans Lembata, Lewoleba Tim., Kec. Nubatukan, Kabupaten Lembata, Nusa Tenggara Tim.","Kabupaten Lembata, Nusa Tenggara Tim.",NUSA TENGGARA TIMUR,,Indonesia,,,,-8.3632604,123.4481968,https://maps.google.com/?cid=0x0:0x2a5670702d2e25c7,
cafe,Rumah Makan,ARAK AL SMEES PETUNTAWA,"PF22+5MW, Jl. Ring Ileape, Petuntawa, Kec. Ile Ape, Kabupaten Lembata, Nusa Tenggara Tim.","Kabupaten Lembata, Nusa Tenggara Tim.",NUSA TENGGARA TIMUR,,Indonesia,,,,-8.298701,123.451774,https://maps.google.com/?cid=0x0:0x52469f3668464ce3,
cafe,cafe,Kaki Lima,"JFR5+V8P, Jl. Trans Lembata, Lewoleba Tim., Kec. Nubatukan, Kabupaten Lembata, Nusa Tenggara Tim.","Kabupaten Lembata, Nusa Tenggara Tim.",NUSA TENGGARA TIMUR,,Indonesia,,,,-8.3577826,123.4583247,https://maps.google.com/?cid=0x0:0x3f4c4eb53b4d125,
cafe,Pembangunan Perumahan,Bungamuda capitall B,"PFWH+C3V, Jalan Ring, Ile Ape, Lembata Regency, East Nusa Tenggara","Kabupaten Lembata, Nusa Tenggara Tim.",NUSA TENGGARA TIMUR,,Indonesia,,,,-8.2538934,123.4776629,https://maps.google.com/?cid=0x0:0x7c4981aee48a0cba,
cafe,cafe,Kec. Ile Ape Tim.,"Kabupaten Lembata, Nusa Tenggara Tim.","Kabupaten Lembata, Nusa Tenggara Tim.",NUSA TENGGARA TIMUR,,Indonesia,,,,-8.258433,123.5466807,https://maps.google.com/?cid=0x0:0x77a0f208453323a,
cafe,Komplek perumahan,ADP (ANAKDEPANGEREJAWAOWALA),"PFH6+HGJ, Waowala, Kec. Ile Ape, Kabupaten Lembata, Nusa Tenggara Tim.","Kabupaten Lembata, Nusa Tenggara Tim.",NUSA TENGGARA TIMUR,,Indonesia,,,,-8.2710365,123.4612538,https://maps.google.com/?cid=0x0:0x34ba7959b823ffbc,
cafe,Tempat Cukur Rambut,3G Cafe  Barbershop,"Jl. Trans Lembata No.Kel, Lewoleba Timur, Kec. Nubatukan, Kabupaten Lembata, Nusa Tenggara Tim. 86682","Lewoleba Timur, Kec. Nubatukan, Kabupaten Lembata",NUSA TENGGARA TIMUR,86682.0,Indonesia,81339677068.0,,,-8.3692046,123.4389565,https://maps.google.com/?cid=0x0:0xf6223ac17edbdb9b,
cafe,Kedai Kopi,Aloma komplex,"PFXG+3H5, Jalan, Ring, Kec. Ile Ape, Kabupaten Lembata, Nusa Tenggara Tim.","Kabupaten Lembata, Nusa Tenggara Tim.",NUSA TENGGARA TIMUR,,Indonesia,,,,-8.2528596,123.4763728,https://maps.google.com/?cid=0x0:0xca5f325edc29705a,
cafe,Kedai Kopi,R. Linus Boli Lemau,"PGWP+WH3, Lamaau, Kec. Ile Ape Tim., Kabupaten Lembata, Nusa Tenggara Tim.","Kabupaten Lembata, Nusa Tenggara Tim.",NUSA TENGGARA TIMUR,,Indonesia,,,,-8.2527393,123.536408,https://maps.google.com/?cid=0x0:0x35d4dd24d0c20168,
cafe,Kafetaria,RnB center,"MFV3+MJW, Petuntawa, Kec. Ile Ape, Kabupaten Lembata, Nusa Tenggara Tim.","Kabupaten Lembata, Nusa Tenggara Tim.",NUSA TENGGARA TIMUR,,Indonesia,82247022239.0,,,-8.3057711,123.454092,https://maps.google.com/?cid=0x0:0x5be1b5ec041577ac,
cafe,Kedai Kopi,Depot air Holoriang,"P9JX+269, Tagawiti, Kec. Ile Ape, Kabupaten Lembata, Nusa Tenggara Tim.","Kabupaten Lembata, Nusa Tenggara Tim.",NUSA TENGGARA TIMUR,,Indonesia,85240689262.0,,,-8.2699676,123.3981136,https://maps.google.com/?cid=0x0:0x2aa89bea2d7bec4f,
cafe,Kafe,linhome,"PFJ6+2RW, Waowala, Kec. Ile Ape, Kabupaten Lembata, Nusa Tenggara Tim.","Kabupaten Lembata, Nusa Tenggara Tim.",NUSA TENGGARA TIMUR,,Indonesia,82144664882.0,,,-8.2698991,123.4620893,https://maps.google.com/?cid=0x0:0x309c534b8cd1cc8c,
cafe,Tempat Istirahat,Asam 1 Komplex (Kolibaran Watodiri),"MF6M+FW5, Muruona, Kec. Ile Ape, Kabupaten Lembata, Nusa Tenggara Tim.","Kabupaten Lembata, Nusa Tenggara Tim.",NUSA TENGGARA TIMUR,,Indonesia,85333011205.0,,,-8.3388524,123.4848559,https://maps.google.com/?cid=0x0:0xad87771cc8ba816c,
cafe,Kedai Kopi,Depot Aquamor,"MFX2+7J8, Jl. Ring Ileape, Petuntawa, Kec. Ile Ape, Kabupaten Lembata, Nusa Tenggara Tim.","Kabupaten Lembata, Nusa Tenggara Tim.",NUSA TENGGARA TIMUR,,Indonesia,85240689262.0,,,-8.3018297,123.4515871,https://maps.google.com/?cid=0x0:0x4ba1a5e4202773,
cafe,Kedai Kopi,MOTING EGA TEKAN TAKE AMET,"Jl. Ring Ileape, Kabupaten Lembata, Nusa Tenggara Tim.","Kabupaten Lembata, Nusa Tenggara Tim.",NUSA TENGGARA TIMUR,,Indonesia,,,,-8.2561716,123.4741284,https://maps.google.com/?cid=0x0:0x7dd83a046d8e1994,
cafe,Kedai Kopi,Anto Atte,"QF2J+G76, Pulau Lembata, Kabupaten Lembata, Nusa Tenggara Tim.","Kabupaten Lembata, Nusa Tenggara Tim.",NUSA TENGGARA TIMUR,,Indonesia,,,,-8.2487063,123.4806341,https://maps.google.com/?cid=0x0:0xd0d2deddda5f325,
cafe,Komplek perumahan,Rumah Ari purek,"QG6P+324, Lamaau, Kec. Ile Ape Tim., Kabupaten Lembata, Nusa Tenggara Tim.","Kabupaten Lembata, Nusa Tenggara Tim.",NUSA TENGGARA TIMUR,,Indonesia,,,,-8.2398773,123.5350947,https://maps.google.com/?cid=0x0:0x2e101dba106964e7,
cafe,cafe,Kopi Air Hujan,"QG5R+4MV Bao Lali Duli, Lamatokan, Kec. Ile Ape Tim., Kabupaten Lembata, Nusa Tenggara Tim.","Kabupaten Lembata, Nusa Tenggara Tim.",NUSA TENGGARA TIMUR,,Indonesia,,,,-8.2421484,123.5416621,https://maps.google.com/?cid=0x0:0xe5f0414efe274136,
cafe,Pembangunan Perumahan,Bungamuda capitall B,"PFWH+C3V, Jalan Ring, Ile Ape, Lembata Regency, East Nusa Tenggara","Kabupaten Lembata, Nusa Tenggara Tim.",NUSA TENGGARA TIMUR,,Indonesia,,,,-8.2538934,123.4776629,https://maps.google.com/?cid=0x0:0x7c4981aee48a0cba,
cafe,cafe,Kec. Lebatukan,"Kabupaten Lembata, Nusa Tenggara Tim.","Kabupaten Lembata, Nusa Tenggara Tim.",NUSA TENGGARA TIMUR,,Indonesia,,,,-8.3697073,123.54609,https://maps.google.com/?cid=0x0:0xa62ae0579a3a3f13,
cafe,Kafe,Omah Bu'e Lembata,"Kandang Rusa - Lamahora, Jl. Trans Lembata, Lewoleba, Kec. Nubatukan, Kabupaten Lembata, Nusa Tenggara Tim. 86616","Jl. Trans Lembata, Lewoleba, Kec. Nubatukan, Kabupaten Lembata",NUSA TENGGARA TIMUR,86616.0,Indonesia,81338965654.0,,,-8.367236,123.4423162,https://maps.google.com/?cid=0x0:0x9e3075c4cd0b6cac,
cafe,Brunch,Warung Makan Lumayan,"JFR5+76G, Lewoleba Tim., Kec. Nubatukan, Kabupaten Lembata, Nusa Tenggara Tim.","Kabupaten Lembata, Nusa Tenggara Tim.",NUSA TENGGARA TIMUR,,Indonesia,,,,-8.3593131,123.4580922,https://maps.google.com/?cid=0x0:0xc9d71c36f9f31f,
cafe,Tempat Cukur Rambut,3G Cafe  Barbershop,"Jl. Trans Lembata No.Kel, Lewoleba Timur, Kec. Nubatukan, Kabupaten Lembata, Nusa Tenggara Tim. 86682","Lewoleba Timur, Kec. Nubatukan, Kabupaten Lembata",NUSA TENGGARA TIMUR,86682.0,Indonesia,81339677068.0,,,-8.3692046,123.4389565,https://maps.google.com/?cid=0x0:0xf6223ac17edbdb9b,
cafe,Es Krim,FUNN Ice Cream  Cafe Lembata,"Jl. Trans Lembata, Lewoleba Tim, Kec. Nubatukan, Kabupaten Lembata, Nusa Tenggara Tim. 86615","Lewoleba Tim, Kec. Nubatukan, Kabupaten Lembata",NUSA TENGGARA TIMUR,86615.0,Indonesia,,,,-8.3673087,123.4420934,https://maps.google.com/?cid=0x0:0xb165773430c178a5,
cafe,Kedai Kopi,Mario Cafe,"Jl. Trans Lembata No.3, Lewoleba Tim, Kec. Nubatukan, Kabupaten Lembata, Nusa Tenggara Tim. 86616","Lewoleba Tim, Kec. Nubatukan, Kabupaten Lembata",NUSA TENGGARA TIMUR,86616.0,Indonesia,,,,-8.3668356,123.4416382,https://maps.google.com/?cid=0x0:0x68109e1dd40be666,
cafe,Kedai Kopi,Sierra cafe,"rumah sakit umum, Jl. Trans Lembata, Tapobaran, Kec. Lebatukan, Kabupaten Lembata, Nusa Tenggara Tim.","Kabupaten Lembata, Nusa Tenggara Tim.",NUSA TENGGARA TIMUR,,Indonesia,,,,-8.3225692,123.6014054,https://maps.google.com/?cid=0x0:0x5b695b953eb18878,
cafe,Perhimpunan Pengembang Perumahan,Florianus Arkian,"JCPW+26P, Jl. Trans Lembata, Selandoro, Kec. Nubatukan, Kabupaten Lembata, Nusa Tenggara Tim.","Kabupaten Lembata, Nusa Tenggara Tim.",NUSA TENGGARA TIMUR,,Indonesia,81382268113.0,,,-8.3649225,123.4455882,https://maps.google.com/?cid=0x0:0x7fe37767117b7ba2,
cafe,Kedai Kopi,Caffe Like Coffee,"J9HX+Q3W, Unnamed Road Jl. SGB Bungsu, Lewoleba Utara, Kec. Nubatukan, Kabupaten Lembata, Nusa Tenggara Tim.","Kabupaten Lembata, Nusa Tenggara Tim.",NUSA TENGGARA TIMUR,,Indonesia,,,,-8.3702223,123.3974475,https://maps.google.com/?cid=0x0:0x3faddb48de76262a,
cafe,Rumah Makan,SAUNG ABIY THALAH,"Jl. Trans Lembata No.92, Lewoleba Timur, Kec. Nubatukan, Kabupaten Lembata, Nusa Tenggara Tim. 86616","Lewoleba Timur, Kec. Nubatukan, Kabupaten Lembata",NUSA TENGGARA TIMUR,86616.0,Indonesia,81337929497.0,,,-8.3681362,123.4396538,https://maps.google.com/?cid=0x0:0x18e99f2848d7dd9b,
cafe,Tempat Istirahat,Asam 1 Komplex (Kolibaran Watodiri),"MF6M+FW5, Muruona, Kec. Ile Ape, Kabupaten Lembata, Nusa Tenggara Tim.","Kabupaten Lembata, Nusa Tenggara Tim.",NUSA TENGGARA TIMUR,,Indonesia,85333011205.0,,,-8.3388524,123.4848559,https://maps.google.com/?cid=0x0:0xad87771cc8ba816c,
cafe,Restoran,Rest area lewolein,"PJ2H+QJ3, Jl. Trans Lembata, Dikesare, Kec. Lebatukan, Kabupaten Lembata, Nusa Tenggara Tim.","Kabupaten Lembata, Nusa Tenggara Tim.",NUSA TENGGARA TIMUR,,Indonesia,,,,-8.2981084,123.6290481,https://maps.google.com/?cid=0x0:0xa8cd15031ab30542,
cafe,Kedai Kopi,Yoma Caffee,"JCHM+58X, Jl. Trans Lembata, Lewoleba Tengah, Kec. Nubatukan, Kabupaten Lembata, Nusa Tenggara Tim.","Kabupaten Lembata, Nusa Tenggara Tim.",NUSA TENGGARA TIMUR,,Indonesia,,,,-8.3720144,123.4333441,https://maps.google.com/?cid=0x0:0x66912ab9cd9f921,
cafe,Kedai Kopi,Cafe RHAMA AINI  ZAINAB,"Jalan Pantura, Desa Hingalamamengi, Kec. Omesuri, Kabupaten Lembata, Nusa Tenggara Tim.","Kabupaten Lembata, Nusa Tenggara Tim.",NUSA TENGGARA TIMUR,,Indonesia,82145777717.0,,,-8.2230982,123.7432569,https://maps.google.com/?cid=0x0:0x9caf6b47806db6f8,
cafe,Jawa Timur,Rumah Makan Atun. Terminal Timur Lewoleba,"JFR6+W6Q, Lewoleba Tim., Kec. Nubatukan, Kabupaten Lembata, Nusa Tenggara Tim.","Kabupaten Lembata, Nusa Tenggara Tim.",NUSA TENGGARA TIMUR,,Indonesia,,,,-8.3576618,123.4606168,https://maps.google.com/?cid=0x0:0xe3adfc675a8a7aff,
cafe,Kedai Kopi,Bukan Kafe Le (Warkop Ankobar),"JCFC+JX8, Lewoleba Tengah, Kec. Nubatukan, Kabupaten Lembata, Nusa Tenggara Tim.","Kabupaten Lembata, Nusa Tenggara Tim.",NUSA TENGGARA TIMUR,,Indonesia,,,,-8.3759608,123.4224518,https://maps.google.com/?cid=0x0:0x126b3dbbe5424d65,
cafe,Kedai Kopi,Titik Kumpul PMC,"JCPX+M7W, Jl. Trans Lembata, Lewoleba Tim., Kec. Nubatukan, Kabupaten Lembata, Nusa Tenggara Tim.","Kabupaten Lembata, Nusa Tenggara Tim.",NUSA TENGGARA TIMUR,,Indonesia,,,,-8.3632604,123.4481968,https://maps.google.com/?cid=0x0:0x2a5670702d2e25c7,
cafe,Kedai Kopi,Gorengan Nona Wutun,"Dusun 1 Watena depan SMP No.N 1, Katakeja, Kec. Atadei, Kabupaten Lembata, Nusa Tenggara Tim.","Kabupaten Lembata, Nusa Tenggara Tim.",NUSA TENGGARA TIMUR,,Indonesia,82217992126.0,,,-8.4362337,123.4657638,https://maps.google.com/?cid=0x0:0x1f314d114749503b,
cafe,Kafetaria,RnB center,"MFV3+MJW, Petuntawa, Kec. Ile Ape, Kabupaten Lembata, Nusa Tenggara Tim.","Kabupaten Lembata, Nusa Tenggara Tim.",NUSA TENGGARA TIMUR,,Indonesia,82247022239.0,,,-8.3057711,123.454092,https://maps.google.com/?cid=0x0:0x5be1b5ec041577ac,
cafe,Sesuai untuk keluarga,Domi Lewerang,"JJJM+RPH, Atakowa, Kec. Lebatukan, Kabupaten Lembata, Nusa Tenggara Tim.","Kabupaten Lembata, Nusa Tenggara Tim.",NUSA TENGGARA TIMUR,,Indonesia,,,,-8.3679386,123.6343619,https://maps.google.com/?cid=0x0:0xca30bca6f75c1617,
cafe,Kedai Kopi,Wadan Caffe,"JCH4+7GQ, Jl. Trans Lembata, Lewoleba Tengah, Kec. Nubatukan, Kabupaten Lembata, Nusa Tenggara Tim.","Kabupaten Lembata, Nusa Tenggara Tim.",NUSA TENGGARA TIMUR,,Indonesia,81244925518.0,,,-8.3717956,123.4063618,https://maps.google.com/?cid=0x0:0x1faf31791969f91c,
cafe,cafe,Kec. Naga Wutung,"Kabupaten Lembata, Nusa Tenggara Tim.","Kabupaten Lembata, Nusa Tenggara Tim.",NUSA TENGGARA TIMUR,,Indonesia,,,,-8.4696349,123.2820337,https://maps.google.com/?cid=0x0:0x3bb0d340f794ad8b,
cafe,Kafe,Cafe Baoviga,"Pasir Putih, Kec. Naga Wutung, Kabupaten Lembata, Nusa Tenggara Tim.","Kabupaten Lembata, Nusa Tenggara Tim.",NUSA TENGGARA TIMUR,,Indonesia,82214401540.0,,,-8.5444866,123.2686535,https://maps.google.com/?cid=0x0:0x222d926bfdf67267,
cafe,cafe,Warung Loang,"G7JP+F28, Duawutun, Kec. Naga Wutung, Kabupaten Lembata, Nusa Tenggara Tim.","Kabupaten Lembata, Nusa Tenggara Tim.",NUSA TENGGARA TIMUR,,Indonesia,,,,-8.4687857,123.2851706,https://maps.google.com/?cid=0x0:0xd540eeea172f2e18,
cafe,Kedai Kopi,Bakso dan Gorengan,"G7JM+HJQ, Duawutun, Kec. Naga Wutung, Kabupaten Lembata, Nusa Tenggara Tim.","Kabupaten Lembata, Nusa Tenggara Tim.",NUSA TENGGARA TIMUR,,Indonesia,,,,-8.4685497,123.2840986,https://maps.google.com/?cid=0x0:0xd9cf76d3d942b769,
cafe,Komplek perumahan,Melkhy Riangbaka Home,"F747+HVQ, Pasir Putih, Kec. Naga Wutung, Kabupaten Lembata, Nusa Tenggara Tim.","Kabupaten Lembata, Nusa Tenggara Tim.",NUSA TENGGARA TIMUR,,Indonesia,,,,-8.543857,123.2647036,https://maps.google.com/?cid=0x0:0xfedd0386925c1e,
cafe,Warnet,ZKLK,"G743+RC5, Baobolak, Kec. Naga Wutung, Kabupaten Lembata, Nusa Tenggara Tim.","Kabupaten Lembata, Nusa Tenggara Tim.",NUSA TENGGARA TIMUR,,Indonesia,,,,-8.4929778,123.2536057,https://maps.google.com/?cid=0x0:0x8d60c4c0eb3f36a0,
cafe,Toko umum,Kios Destinasi,"G743+WFQ, Babokerong, Kec. Naga Wutung, Kabupaten Lembata, Nusa Tenggara Tim.","Kabupaten Lembata, Nusa Tenggara Tim.",NUSA TENGGARA TIMUR,,Indonesia,,,,-8.4926654,123.2537458,https://maps.google.com/?cid=0x0:0xd9a80ebc2423f5db,
cafe,cafe,Warkop ceu ijah,"F6GX+R2M, Pasir Putih, Kec. Naga Wutung, Kabupaten Lembata, Nusa Tenggara Tim.","Kabupaten Lembata, Nusa Tenggara Tim.",NUSA TENGGARA TIMUR,,Indonesia,,,,-8.5229157,123.2475594,https://maps.google.com/?cid=0x0:0xa997f4fe5cf85437,
cafe,Komplek perumahan,DuniAice Wangatoa Lewoleba,"Jl. Trans Lembata, Lewoleba Tengah, Kec. Nubatukan, Kabupaten Lembata, Nusa Tenggara Tim.","Kabupaten Lembata, Nusa Tenggara Tim.",NUSA TENGGARA TIMUR,,Indonesia,,,,-8.3726647,123.4304048,https://maps.google.com/?cid=0x0:0x45c499c3e3ec0d99,
cafe,Kedai Kopi,Gorengan Nona Wutun,"Dusun 1 Watena depan SMP No.N 1, Katakeja, Kec. Atadei, Kabupaten Lembata, Nusa Tenggara Tim.","Kabupaten Lembata, Nusa Tenggara Tim.",NUSA TENGGARA TIMUR,,Indonesia,82217992126.0,,,-8.4362337,123.4657638,https://maps.google.com/?cid=0x0:0x1f314d114749503b,
cafe,Toko,Aneka Kios Wulandoni,"Belobao, Kec. Wulandoni, Kabupaten Lembata, Nusa Tenggara Tim.","Kabupaten Lembata, Nusa Tenggara Tim.",NUSA TENGGARA TIMUR,,Indonesia,,,,-8.5385742,123.4086266,https://maps.google.com/?cid=0x0:0x2520393f59a8db97,
cafe,Kedai Kopi,Wadan Caffe,"JCH4+7GQ, Jl. Trans Lembata, Lewoleba Tengah, Kec. Nubatukan, Kabupaten Lembata, Nusa Tenggara Tim.","Kabupaten Lembata, Nusa Tenggara Tim.",NUSA TENGGARA TIMUR,,Indonesia,81244925518.0,,,-8.3717956,123.4063618,https://maps.google.com/?cid=0x0:0x1faf31791969f91c,
cafe,Kedai Kopi,Caffe Like Coffee,"J9HX+Q3W, Unnamed Road Jl. SGB Bungsu, Lewoleba Utara, Kec. Nubatukan, Kabupaten Lembata, Nusa Tenggara Tim.","Kabupaten Lembata, Nusa Tenggara Tim.",NUSA TENGGARA TIMUR,,Indonesia,,,,-8.3702223,123.3974475,https://maps.google.com/?cid=0x0:0x3faddb48de76262a,
cafe,Kafe,Omah Bu'e Lembata,"Kandang Rusa - Lamahora, Jl. Trans Lembata, Lewoleba, Kec. Nubatukan, Kabupaten Lembata, Nusa Tenggara Tim. 86616","Jl. Trans Lembata, Lewoleba, Kec. Nubatukan, Kabupaten Lembata",NUSA TENGGARA TIMUR,86616.0,Indonesia,81338965654.0,,,-8.367236,123.4423162,https://maps.google.com/?cid=0x0:0x9e3075c4cd0b6cac,
cafe,cafe,Kec. Nubatukan,"Kabupaten Lembata, Nusa Tenggara Tim.","Kabupaten Lembata, Nusa Tenggara Tim.",NUSA TENGGARA TIMUR,,Indonesia,,,,-8.3731739,123.4288459,https://maps.google.com/?cid=0x0:0x5937ac1360822cb3,
cafe,Kedai Kopi,Gubuk Kopi,"Wangatoa, Selandoro, Lewoleba Tengah, Kec. Nubatukan, Kabupaten Lembata, Nusa Tenggara Tim.","Kabupaten Lembata, Nusa Tenggara Tim.",NUSA TENGGARA TIMUR,,Indonesia,,,,-8.3711083,123.4286046,https://maps.google.com/?cid=0x0:0xa44f0b2d01dcbee5,
cafe,Kedai Kopi,Mario Cafe,"Jl. Trans Lembata No.3, Lewoleba Tim, Kec. Nubatukan, Kabupaten Lembata, Nusa Tenggara Tim. 86616","Lewoleba Tim, Kec. Nubatukan, Kabupaten Lembata",NUSA TENGGARA TIMUR,86616.0,Indonesia,,,,-8.3668356,123.4416382,https://maps.google.com/?cid=0x0:0x68109e1dd40be666,
cafe,Tempat Cukur Rambut,3G Cafe  Barbershop,"Jl. Trans Lembata No.Kel, Lewoleba Timur, Kec. Nubatukan, Kabupaten Lembata, Nusa Tenggara Tim. 86682","Lewoleba Timur, Kec. Nubatukan, Kabupaten Lembata",NUSA TENGGARA TIMUR,86682.0,Indonesia,81339677068.0,,,-8.3692046,123.4389565,https://maps.google.com/?cid=0x0:0xf6223ac17edbdb9b,
cafe,Kedai Kopi,Bukan Kafe Le (Warkop Ankobar),"JCFC+JX8, Lewoleba Tengah, Kec. Nubatukan, Kabupaten Lembata, Nusa Tenggara Tim.","Kabupaten Lembata, Nusa Tenggara Tim.",NUSA TENGGARA TIMUR,,Indonesia,,,,-8.3759608,123.4224518,https://maps.google.com/?cid=0x0:0x126b3dbbe5424d65,
cafe,Es Krim,FUNN Ice Cream  Cafe Lembata,"Jl. Trans Lembata, Lewoleba Tim, Kec. Nubatukan, Kabupaten Lembata, Nusa Tenggara Tim. 86615","Lewoleba Tim, Kec. Nubatukan, Kabupaten Lembata",NUSA TENGGARA TIMUR,86615.0,Indonesia,,,,-8.3673087,123.4420934,https://maps.google.com/?cid=0x0:0xb165773430c178a5,
cafe,Komplek perumahan,DuniAice Wangatoa Lewoleba,"Jl. Trans Lembata, Lewoleba Tengah, Kec. Nubatukan, Kabupaten Lembata, Nusa Tenggara Tim.","Kabupaten Lembata, Nusa Tenggara Tim.",NUSA TENGGARA TIMUR,,Indonesia,,,,-8.3726647,123.4304048,https://maps.google.com/?cid=0x0:0x45c499c3e3ec0d99,
cafe,Kedai Kopi,Start-Up Cafe  Bistro,"JCGH+V7W, Lewoleba Tengah, Kec. Nubatukan, Kabupaten Lembata, Nusa Tenggara Tim.","Kabupaten Lembata, Nusa Tenggara Tim.",NUSA TENGGARA TIMUR,,Indonesia,,,,-8.3727586,123.4281911,https://maps.google.com/?cid=0x0:0xb793467c1dff74e5,
cafe,Brunch,Warung Makan Lumayan,"JFR5+76G, Lewoleba Tim., Kec. Nubatukan, Kabupaten Lembata, Nusa Tenggara Tim.","Kabupaten Lembata, Nusa Tenggara Tim.",NUSA TENGGARA TIMUR,,Indonesia,,,,-8.3593131,123.4580922,https://maps.google.com/?cid=0x0:0xc9d71c36f9f31f,
cafe,Kedai Kopi,Coffe Isntanbul_Lewoleba,"JCJJ+9HC, Unnamed Road, Central Lewoleba, Nubatukan, Lembata Regency, East Nusa Tenggara","Kabupaten Lembata, Nusa Tenggara Tim.",NUSA TENGGARA TIMUR,,Indonesia,82144873607.0,,,-8.3690532,123.4313984,https://maps.google.com/?cid=0x0:0xe28759503034e6a1,
cafe,Kedai Kopi,Dapur INCHES,"Wulen Luo, Lewoleba, Kec. Nubatukan, Kabupaten Lembata, Nusa Tenggara Tim. 86682","Lewoleba, Kec. Nubatukan, Kabupaten Lembata",NUSA TENGGARA TIMUR,86682.0,Indonesia,81237000529.0,,,-8.3707826,123.4033275,https://maps.google.com/?cid=0x0:0x5b820512bb345d5d,
cafe,Kedai Kopi,Wadan Caffe,"JCH4+7GQ, Jl. Trans Lembata, Lewoleba Tengah, Kec. Nubatukan, Kabupaten Lembata, Nusa Tenggara Tim.","Kabupaten Lembata, Nusa Tenggara Tim.",NUSA TENGGARA TIMUR,,Indonesia,81244925518.0,,,-8.3717956,123.4063618,https://maps.google.com/?cid=0x0:0x1faf31791969f91c,
cafe,Kedai Kopi,Cafe 26,"J9FV+2MH, Lewoleba Utara, Kec. Nubatukan, Kabupaten Lembata, Nusa Tenggara Tim.","Kabupaten Lembata, Nusa Tenggara Tim.",NUSA TENGGARA TIMUR,,Indonesia,,,,-8.3774282,123.3942244,https://maps.google.com/?cid=0x0:0xca1c6a03fb0ea520,
cafe,Toko bahan makanan,Olympic Ballroom  Resto,"SGB Bungsu, Jalan, North Lewoleba, Nubatukan, Lembata Regency, East Nusa Tenggara","Kabupaten Lembata, Nusa Tenggara Tim.",NUSA TENGGARA TIMUR,,Indonesia,,,,-8.3725771,123.4084656,https://maps.google.com/?cid=0x0:0xfae73f061d039a8d,
cafe,Kafe,Popi's Cafe Bar,"JCG5+XMF, Jl. Trans Lembata, Lewoleba Utara, Kabupaten Lembata, Nusa Tenggara Tim.","Kabupaten Lembata, Nusa Tenggara Tim.",NUSA TENGGARA TIMUR,,Indonesia,82134566117.0,,,-8.3725645,123.4091704,https://maps.google.com/?cid=0x0:0x12c5cdb7b35e5681,
cafe,Jawa,Rumah Makan Wulandari,"JCHC+C4R, Jl. Trans Lembata, Lewoleba Tengah, Kec. Nubatukan, Kabupaten Lembata, Nusa Tenggara Tim.","Kabupaten Lembata, Nusa Tenggara Tim.",NUSA TENGGARA TIMUR,,Indonesia,,,,-8.3713866,123.4202563,https://maps.google.com/?cid=0x0:0xc1cc6a67fb6347e3,
cafe,Bar,Coffe Bar Waijarang,"H8VV+W6J, Waijarang, Kec. Nubatukan, Kabupaten Lembata, Nusa Tenggara Tim.","Kabupaten Lembata, Nusa Tenggara Tim.",NUSA TENGGARA TIMUR,,Indonesia,,,,-8.4051691,123.3430033,https://maps.google.com/?cid=0x0:0xb9b092d519734997,
cafe,Kedai Kopi,Jali Merah,"H8RW+56J, Waijarang, Kec. Nubatukan, Kabupaten Lembata, Nusa Tenggara Tim.","Kabupaten Lembata, Nusa Tenggara Tim.",NUSA TENGGARA TIMUR,,Indonesia,81237769778.0,,,-8.409525,123.345529,https://maps.google.com/?cid=0x0:0xde5e361baaba22d5,
cafe,Area Rekreasi Alam,Pantai SGB Bungsu Lewoleba,"J9HR+CM8, Lewoleba Utara, Kec. Nubatukan, Kabupaten Lembata, Nusa Tenggara Tim.","Kabupaten Lembata, Nusa Tenggara Tim.",NUSA TENGGARA TIMUR,,Indonesia,,,,-8.3714695,123.3917172,https://maps.google.com/?cid=0x0:0x51db78c1de39ad68,
cafe,Kafe,Tiara cafe,"Lokasi Harnus, Lewoleba, Kec. Nubatukan, Kabupaten Lembata, Nusa Tenggara Tim. 86615","Lewoleba, Kec. Nubatukan, Kabupaten Lembata",NUSA TENGGARA TIMUR,86615.0,Indonesia,8243210928.0,,,-8.3904019,123.3991028,https://maps.google.com/?cid=0x0:0x4f73b15da6b9bfbf,
cafe,Kedai Kopi,Pangkalan Om Bondan,"Jl. Trans Lembata, Lewoleba Tengah, Kec. Nubatukan, Kabupaten Lembata, Nusa Tenggara Tim.","Kabupaten Lembata, Nusa Tenggara Tim.",NUSA TENGGARA TIMUR,,Indonesia,,,,-8.3712331,123.4233828,https://maps.google.com/?cid=0x0:0x5dd9e0f2c1968efc,
cafe,Kafe,Agrowisata Ema Pia,"JCG6+G7C, Lewoleba Utara, Kec. Nubatukan, Kabupaten Lembata, Nusa Tenggara Tim.","Kabupaten Lembata, Nusa Tenggara Tim.",NUSA TENGGARA TIMUR,,Indonesia,,,,-8.3736849,123.410651,https://maps.google.com/?cid=0x0:0xb392103c25e45bf6,
cafe,cafe,Kec. Nubatukan,"Kabupaten Lembata, Nusa Tenggara Tim.","Kabupaten Lembata, Nusa Tenggara Tim.",NUSA TENGGARA TIMUR,,Indonesia,,,,-8.3731739,123.4288459,https://maps.google.com/?cid=0x0:0x5937ac1360822cb3,
cafe,Kedai Kopi,Caffe Like Coffee,"J9HX+Q3W, Unnamed Road Jl. SGB Bungsu, Lewoleba Utara, Kec. Nubatukan, Kabupaten Lembata, Nusa Tenggara Tim.","Kabupaten Lembata, Nusa Tenggara Tim.",NUSA TENGGARA TIMUR,,Indonesia,,,,-8.3702223,123.3974475,https://maps.google.com/?cid=0x0:0x3faddb48de76262a,
cafe,Kedai Kopi,Bukan Kafe Le (Warkop Ankobar),"JCFC+JX8, Lewoleba Tengah, Kec. Nubatukan, Kabupaten Lembata, Nusa Tenggara Tim.","Kabupaten Lembata, Nusa Tenggara Tim.",NUSA TENGGARA TIMUR,,Indonesia,,,,-8.3759608,123.4224518,https://maps.google.com/?cid=0x0:0x126b3dbbe5424d65,
cafe,Kedai Kopi,Gubuk Kopi,"Wangatoa, Selandoro, Lewoleba Tengah, Kec. Nubatukan, Kabupaten Lembata, Nusa Tenggara Tim.","Kabupaten Lembata, Nusa Tenggara Tim.",NUSA TENGGARA TIMUR,,Indonesia,,,,-8.3711083,123.4286046,https://maps.google.com/?cid=0x0:0xa44f0b2d01dcbee5,
cafe,Kedai Kopi,Mario Cafe,"Jl. Trans Lembata No.3, Lewoleba Tim, Kec. Nubatukan, Kabupaten Lembata, Nusa Tenggara Tim. 86616","Lewoleba Tim, Kec. Nubatukan, Kabupaten Lembata",NUSA TENGGARA TIMUR,86616.0,Indonesia,,,,-8.3668356,123.4416382,https://maps.google.com/?cid=0x0:0x68109e1dd40be666,
cafe,Tempat Cukur Rambut,3G Cafe  Barbershop,"Jl. Trans Lembata No.Kel, Lewoleba Timur, Kec. Nubatukan, Kabupaten Lembata, Nusa Tenggara Tim. 86682","Lewoleba Timur, Kec. Nubatukan, Kabupaten Lembata",NUSA TENGGARA TIMUR,86682.0,Indonesia,81339677068.0,,,-8.3692046,123.4389565,https://maps.google.com/?cid=0x0:0xf6223ac17edbdb9b,
cafe,Komplek perumahan,DuniAice Wangatoa Lewoleba,"Jl. Trans Lembata, Lewoleba Tengah, Kec. Nubatukan, Kabupaten Lembata, Nusa Tenggara Tim.","Kabupaten Lembata, Nusa Tenggara Tim.",NUSA TENGGARA TIMUR,,Indonesia,,,,-8.3726647,123.4304048,https://maps.google.com/?cid=0x0:0x45c499c3e3ec0d99,
cafe,Kedai Kopi,Yoma Caffee,"JCHM+58X, Jl. Trans Lembata, Lewoleba Tengah, Kec. Nubatukan, Kabupaten Lembata, Nusa Tenggara Tim.","Kabupaten Lembata, Nusa Tenggara Tim.",NUSA TENGGARA TIMUR,,Indonesia,,,,-8.3720144,123.4333441,https://maps.google.com/?cid=0x0:0x66912ab9cd9f921,
cafe,Kedai Kopi,Start-Up Cafe  Bistro,"JCGH+V7W, Lewoleba Tengah, Kec. Nubatukan, Kabupaten Lembata, Nusa Tenggara Tim.","Kabupaten Lembata, Nusa Tenggara Tim.",NUSA TENGGARA TIMUR,,Indonesia,,,,-8.3727586,123.4281911,https://maps.google.com/?cid=0x0:0xb793467c1dff74e5,
cafe,Kedai Kopi,Wadan Caffe,"JCH4+7GQ, Jl. Trans Lembata, Lewoleba Tengah, Kec. Nubatukan, Kabupaten Lembata, Nusa Tenggara Tim.","Kabupaten Lembata, Nusa Tenggara Tim.",NUSA TENGGARA TIMUR,,Indonesia,81244925518.0,,,-8.3717956,123.4063618,https://maps.google.com/?cid=0x0:0x1faf31791969f91c,
cafe,Kedai Kopi,Dapur INCHES,"Wulen Luo, Lewoleba, Kec. Nubatukan, Kabupaten Lembata, Nusa Tenggara Tim. 86682","Lewoleba, Kec. Nubatukan, Kabupaten Lembata",NUSA TENGGARA TIMUR,86682.0,Indonesia,81237000529.0,,,-8.3707826,123.4033275,https://maps.google.com/?cid=0x0:0x5b820512bb345d5d,
cafe,Brunch,Warung Makan Lumayan,"JFR5+76G, Lewoleba Tim., Kec. Nubatukan, Kabupaten Lembata, Nusa Tenggara Tim.","Kabupaten Lembata, Nusa Tenggara Tim.",NUSA TENGGARA TIMUR,,Indonesia,,,,-8.3593131,123.4580922,https://maps.google.com/?cid=0x0:0xc9d71c36f9f31f,
cafe,Es Krim,FUNN Ice Cream  Cafe Lembata,"Jl. Trans Lembata, Lewoleba Tim, Kec. Nubatukan, Kabupaten Lembata, Nusa Tenggara Tim. 86615","Lewoleba Tim, Kec. Nubatukan, Kabupaten Lembata",NUSA TENGGARA TIMUR,86615.0,Indonesia,,,,-8.3673087,123.4420934,https://maps.google.com/?cid=0x0:0xb165773430c178a5,
cafe,Toko Makanan,ROYAL CAFFE,"J9GW+758, Lewoleba Utara, Kec. Nubatukan, Kabupaten Lembata, Nusa Tenggara Tim.","Kabupaten Lembata, Nusa Tenggara Tim.",NUSA TENGGARA TIMUR,,Indonesia,,,,-8.3743392,123.3954398,https://maps.google.com/?cid=0x0:0x8b31d1611e71d2c6,
cafe,Kedai Kopi,Coffe Isntanbul_Lewoleba,"JCJJ+9HC, Unnamed Road, Central Lewoleba, Nubatukan, Lembata Regency, East Nusa Tenggara","Kabupaten Lembata, Nusa Tenggara Tim.",NUSA TENGGARA TIMUR,,Indonesia,82144873607.0,,,-8.3690532,123.4313984,https://maps.google.com/?cid=0x0:0xe28759503034e6a1,
cafe,Kedai Kopi,Cafe Stella Waijarang,"Jl.Pada, Waijarang, Kec. Nubatukan, Kabupaten Lembata, Nusa Tenggara Tim. 86684","Waijarang, Kec. Nubatukan, Kabupaten Lembata",NUSA TENGGARA TIMUR,86684.0,Indonesia,,,,-8.396419,123.3582469,https://maps.google.com/?cid=0x0:0xc2ecc81ce26a7df8,
cafe,Kedai Kopi,Jali Merah,"H8RW+56J, Waijarang, Kec. Nubatukan, Kabupaten Lembata, Nusa Tenggara Tim.","Kabupaten Lembata, Nusa Tenggara Tim.",NUSA TENGGARA TIMUR,,Indonesia,81237769778.0,,,-8.409525,123.345529,https://maps.google.com/?cid=0x0:0xde5e361baaba22d5,
cafe,Kafe,"Kafe Aketode,Starbackan","Jl. Gua Maria, Lewoleba Tengah, Kec. Nubatukan, Kabupaten Lembata, Nusa Tenggara Tim.","Kabupaten Lembata, Nusa Tenggara Tim.",NUSA TENGGARA TIMUR,,Indonesia,82342161010.0,,,-8.3849214,123.4167329,https://maps.google.com/?cid=0x0:0x100dab82d3ed1b3d,
cafe,Kafe,Agrowisata Ema Pia,"JCG6+G7C, Lewoleba Utara, Kec. Nubatukan, Kabupaten Lembata, Nusa Tenggara Tim.","Kabupaten Lembata, Nusa Tenggara Tim.",NUSA TENGGARA TIMUR,,Indonesia,,,,-8.3736849,123.410651,https://maps.google.com/?cid=0x0:0xb392103c25e45bf6,
cafe,Kedai Kopi,Cafe 26,"J9FV+2MH, Lewoleba Utara, Kec. Nubatukan, Kabupaten Lembata, Nusa Tenggara Tim.","Kabupaten Lembata, Nusa Tenggara Tim.",NUSA TENGGARA TIMUR,,Indonesia,,,,-8.3774282,123.3942244,https://maps.google.com/?cid=0x0:0xca1c6a03fb0ea520,
cafe,Kafe,Tiara cafe,"Lokasi Harnus, Lewoleba, Kec. Nubatukan, Kabupaten Lembata, Nusa Tenggara Tim. 86615","Lewoleba, Kec. Nubatukan, Kabupaten Lembata",NUSA TENGGARA TIMUR,86615.0,Indonesia,8243210928.0,,,-8.3904019,123.3991028,https://maps.google.com/?cid=0x0:0x4f73b15da6b9bfbf,
cafe,Kafe,Popi's Cafe Bar,"JCG5+XMF, Jl. Trans Lembata, Lewoleba Utara, Kabupaten Lembata, Nusa Tenggara Tim.","Kabupaten Lembata, Nusa Tenggara Tim.",NUSA TENGGARA TIMUR,,Indonesia,82134566117.0,,,-8.3725645,123.4091704,https://maps.google.com/?cid=0x0:0x12c5cdb7b35e5681,
cafe,Toko bahan makanan,Olympic Ballroom  Resto,"SGB Bungsu, Jalan, North Lewoleba, Nubatukan, Lembata Regency, East Nusa Tenggara","Kabupaten Lembata, Nusa Tenggara Tim.",NUSA TENGGARA TIMUR,,Indonesia,,,,-8.3725771,123.4084656,https://maps.google.com/?cid=0x0:0xfae73f061d039a8d,
cafe,Jawa Timur,WARUNG LUMAYAN 2,"Jl. Trans Lembata No.3, Lewoleba Tim., Kec. Nubatukan, Kabupaten Lembata, Nusa Tenggara Tim. 86616","Lewoleba Tim., Kec. Nubatukan, Kabupaten Lembata",NUSA TENGGARA TIMUR,86616.0,Indonesia,82140209224.0,,,-8.3679267,123.4411249,https://maps.google.com/?cid=0x0:0xe3e5899bb634115b,
cafe,cafe,Kec. Nubatukan,"Kabupaten Lembata, Nusa Tenggara Tim.","Kabupaten Lembata, Nusa Tenggara Tim.",NUSA TENGGARA TIMUR,,Indonesia,,,,-8.3731739,123.4288459,https://maps.google.com/?cid=0x0:0x5937ac1360822cb3,
cafe,Tempat Cukur Rambut,3G Cafe  Barbershop,"Jl. Trans Lembata No.Kel, Lewoleba Timur, Kec. Nubatukan, Kabupaten Lembata, Nusa Tenggara Tim. 86682","Lewoleba Timur, Kec. Nubatukan, Kabupaten Lembata",NUSA TENGGARA TIMUR,86682.0,Indonesia,81339677068.0,,,-8.3692046,123.4389565,https://maps.google.com/?cid=0x0:0xf6223ac17edbdb9b,
cafe,Kafe,Omah Bu'e Lembata,"Kandang Rusa - Lamahora, Jl. Trans Lembata, Lewoleba, Kec. Nubatukan, Kabupaten Lembata, Nusa Tenggara Tim. 86616","Jl. Trans Lembata, Lewoleba, Kec. Nubatukan, Kabupaten Lembata",NUSA TENGGARA TIMUR,86616.0,Indonesia,81338965654.0,,,-8.367236,123.4423162,https://maps.google.com/?cid=0x0:0x9e3075c4cd0b6cac,
cafe,Kedai Kopi,Caffe Like Coffee,"J9HX+Q3W, Unnamed Road Jl. SGB Bungsu, Lewoleba Utara, Kec. Nubatukan, Kabupaten Lembata, Nusa Tenggara Tim.","Kabupaten Lembata, Nusa Tenggara Tim.",NUSA TENGGARA TIMUR,,Indonesia,,,,-8.3702223,123.3974475,https://maps.google.com/?cid=0x0:0x3faddb48de76262a,
cafe,Kedai Kopi,Yoma Caffee,"JCHM+58X, Jl. Trans Lembata, Lewoleba Tengah, Kec. Nubatukan, Kabupaten Lembata, Nusa Tenggara Tim.","Kabupaten Lembata, Nusa Tenggara Tim.",NUSA TENGGARA TIMUR,,Indonesia,,,,-8.3720144,123.4333441,https://maps.google.com/?cid=0x0:0x66912ab9cd9f921,
cafe,Kedai Kopi,Gubuk Kopi,"Wangatoa, Selandoro, Lewoleba Tengah, Kec. Nubatukan, Kabupaten Lembata, Nusa Tenggara Tim.","Kabupaten Lembata, Nusa Tenggara Tim.",NUSA TENGGARA TIMUR,,Indonesia,,,,-8.3711083,123.4286046,https://maps.google.com/?cid=0x0:0xa44f0b2d01dcbee5,
cafe,Kedai Kopi,Bukan Kafe Le (Warkop Ankobar),"JCFC+JX8, Lewoleba Tengah, Kec. Nubatukan, Kabupaten Lembata, Nusa Tenggara Tim.","Kabupaten Lembata, Nusa Tenggara Tim.",NUSA TENGGARA TIMUR,,Indonesia,,,,-8.3759608,123.4224518,https://maps.google.com/?cid=0x0:0x126b3dbbe5424d65,
cafe,Kedai Kopi,Cafe 26,"J9FV+2MH, Lewoleba Utara, Kec. Nubatukan, Kabupaten Lembata, Nusa Tenggara Tim.","Kabupaten Lembata, Nusa Tenggara Tim.",NUSA TENGGARA TIMUR,,Indonesia,,,,-8.3774282,123.3942244,https://maps.google.com/?cid=0x0:0xca1c6a03fb0ea520,
cafe,Es Krim,FUNN Ice Cream  Cafe Lembata,"Jl. Trans Lembata, Lewoleba Tim, Kec. Nubatukan, Kabupaten Lembata, Nusa Tenggara Tim. 86615","Lewoleba Tim, Kec. Nubatukan, Kabupaten Lembata",NUSA TENGGARA TIMUR,86615.0,Indonesia,,,,-8.3673087,123.4420934,https://maps.google.com/?cid=0x0:0xb165773430c178a5,
cafe,Komplek perumahan,DuniAice Wangatoa Lewoleba,"Jl. Trans Lembata, Lewoleba Tengah, Kec. Nubatukan, Kabupaten Lembata, Nusa Tenggara Tim.","Kabupaten Lembata, Nusa Tenggara Tim.",NUSA TENGGARA TIMUR,,Indonesia,,,,-8.3726647,123.4304048,https://maps.google.com/?cid=0x0:0x45c499c3e3ec0d99,
cafe,Kedai Kopi,Jali Merah,"H8RW+56J, Waijarang, Kec. Nubatukan, Kabupaten Lembata, Nusa Tenggara Tim.","Kabupaten Lembata, Nusa Tenggara Tim.",NUSA TENGGARA TIMUR,,Indonesia,81237769778.0,,,-8.409525,123.345529,https://maps.google.com/?cid=0x0:0xde5e361baaba22d5,
cafe,Kedai Kopi,Dapur INCHES,"Wulen Luo, Lewoleba, Kec. Nubatukan, Kabupaten Lembata, Nusa Tenggara Tim. 86682","Lewoleba, Kec. Nubatukan, Kabupaten Lembata",NUSA TENGGARA TIMUR,86682.0,Indonesia,81237000529.0,,,-8.3707826,123.4033275,https://maps.google.com/?cid=0x0:0x5b820512bb345d5d,
cafe,Brunch,Warung Makan Lumayan,"JFR5+76G, Lewoleba Tim., Kec. Nubatukan, Kabupaten Lembata, Nusa Tenggara Tim.","Kabupaten Lembata, Nusa Tenggara Tim.",NUSA TENGGARA TIMUR,,Indonesia,,,,-8.3593131,123.4580922,https://maps.google.com/?cid=0x0:0xc9d71c36f9f31f,
cafe,Kedai Kopi,Start-Up Cafe  Bistro,"JCGH+V7W, Lewoleba Tengah, Kec. Nubatukan, Kabupaten Lembata, Nusa Tenggara Tim.","Kabupaten Lembata, Nusa Tenggara Tim.",NUSA TENGGARA TIMUR,,Indonesia,,,,-8.3727586,123.4281911,https://maps.google.com/?cid=0x0:0xb793467c1dff74e5,
cafe,Kedai Kopi,Wadan Caffe,"JCH4+7GQ, Jl. Trans Lembata, Lewoleba Tengah, Kec. Nubatukan, Kabupaten Lembata, Nusa Tenggara Tim.","Kabupaten Lembata, Nusa Tenggara Tim.",NUSA TENGGARA TIMUR,,Indonesia,81244925518.0,,,-8.3717956,123.4063618,https://maps.google.com/?cid=0x0:0x1faf31791969f91c,
cafe,Kafe,Fr. Juice,"JCF9+WRG, Lewoleba Tengah, Kec. Nubatukan, Kabupaten Lembata, Nusa Tenggara Tim.","Kabupaten Lembata, Nusa Tenggara Tim.",NUSA TENGGARA TIMUR,,Indonesia,82333778146.0,,,-8.3751839,123.4195841,https://maps.google.com/?cid=0x0:0xc1868a1480274a2a,
cafe,Kafe,Popi's Cafe Bar,"JCG5+XMF, Jl. Trans Lembata, Lewoleba Utara, Kabupaten Lembata, Nusa Tenggara Tim.","Kabupaten Lembata, Nusa Tenggara Tim.",NUSA TENGGARA TIMUR,,Indonesia,82134566117.0,,,-8.3725645,123.4091704,https://maps.google.com/?cid=0x0:0x12c5cdb7b35e5681,
cafe,Brunch,Warung Makan Mas Rozak,"Unnamed Road, Lewoleba Tengah, Kec. Nubatukan, Kabupaten Lembata, Nusa Tenggara Tim.","Kabupaten Lembata, Nusa Tenggara Tim.",NUSA TENGGARA TIMUR,,Indonesia,,,,-8.3730365,123.429806,https://maps.google.com/?cid=0x0:0xce1727f9db9d2f63,
cafe,Toko Makanan,ROYAL CAFFE,"J9GW+758, Lewoleba Utara, Kec. Nubatukan, Kabupaten Lembata, Nusa Tenggara Tim.","Kabupaten Lembata, Nusa Tenggara Tim.",NUSA TENGGARA TIMUR,,Indonesia,,,,-8.3743392,123.3954398,https://maps.google.com/?cid=0x0:0x8b31d1611e71d2c6,
cafe,Jawa Timur,RM. Ayu Nisa,"JFQ4+R2H, Lewoleba Tim., Kec. Nubatukan, Kabupaten Lembata, Nusa Tenggara Tim.","Kabupaten Lembata, Nusa Tenggara Tim.",NUSA TENGGARA TIMUR,,Indonesia,,,,-8.3604304,123.4551211,https://maps.google.com/?cid=0x0:0x529b6f8254235aaf,
cafe,Toko bahan makanan,Olympic Ballroom  Resto,"SGB Bungsu, Jalan, North Lewoleba, Nubatukan, Lembata Regency, East Nusa Tenggara","Kabupaten Lembata, Nusa Tenggara Tim.",NUSA TENGGARA TIMUR,,Indonesia,,,,-8.3725771,123.4084656,https://maps.google.com/?cid=0x0:0xfae73f061d039a8d,
cafe,Kafe,"Kafe Aketode,Starbackan","Jl. Gua Maria, Lewoleba Tengah, Kec. Nubatukan, Kabupaten Lembata, Nusa Tenggara Tim.","Kabupaten Lembata, Nusa Tenggara Tim.",NUSA TENGGARA TIMUR,,Indonesia,82342161010.0,,,-8.3849214,123.4167329,https://maps.google.com/?cid=0x0:0x100dab82d3ed1b3d,
cafe,cafe,Kec. Nubatukan,"Kabupaten Lembata, Nusa Tenggara Tim.","Kabupaten Lembata, Nusa Tenggara Tim.",NUSA TENGGARA TIMUR,,Indonesia,,,,-8.3731739,123.4288459,https://maps.google.com/?cid=0x0:0x5937ac1360822cb3,
cafe,Kafe,Omah Bu'e Lembata,"Kandang Rusa - Lamahora, Jl. Trans Lembata, Lewoleba, Kec. Nubatukan, Kabupaten Lembata, Nusa Tenggara Tim. 86616","Jl. Trans Lembata, Lewoleba, Kec. Nubatukan, Kabupaten Lembata",NUSA TENGGARA TIMUR,86616.0,Indonesia,81338965654.0,,,-8.367236,123.4423162,https://maps.google.com/?cid=0x0:0x9e3075c4cd0b6cac,
cafe,Kedai Kopi,Caffe Like Coffee,"J9HX+Q3W, Unnamed Road Jl. SGB Bungsu, Lewoleba Utara, Kec. Nubatukan, Kabupaten Lembata, Nusa Tenggara Tim.","Kabupaten Lembata, Nusa Tenggara Tim.",NUSA TENGGARA TIMUR,,Indonesia,,,,-8.3702223,123.3974475,https://maps.google.com/?cid=0x0:0x3faddb48de76262a,
cafe,Brunch,Warung Makan Lumayan,"JFR5+76G, Lewoleba Tim., Kec. Nubatukan, Kabupaten Lembata, Nusa Tenggara Tim.","Kabupaten Lembata, Nusa Tenggara Tim.",NUSA TENGGARA TIMUR,,Indonesia,,,,-8.3593131,123.4580922,https://maps.google.com/?cid=0x0:0xc9d71c36f9f31f,
cafe,Rumah Makan,Warung Makan Mbak Erna,"JCHG+3XX, Lewoleba Tengah, Kec. Nubatukan, Kabupaten Lembata, Nusa Tenggara Tim.","Kabupaten Lembata, Nusa Tenggara Tim.",NUSA TENGGARA TIMUR,,Indonesia,82131073247.0,,,-8.3722645,123.4274821,https://maps.google.com/?cid=0x0:0xed73bd17d2afdce2,
cafe,Kedai Kopi,Wadan Caffe,"JCH4+7GQ, Jl. Trans Lembata, Lewoleba Tengah, Kec. Nubatukan, Kabupaten Lembata, Nusa Tenggara Tim.","Kabupaten Lembata, Nusa Tenggara Tim.",NUSA TENGGARA TIMUR,,Indonesia,81244925518.0,,,-8.3717956,123.4063618,https://maps.google.com/?cid=0x0:0x1faf31791969f91c,
cafe,Brunch,Warung Makan Mas Rozak,"Unnamed Road, Lewoleba Tengah, Kec. Nubatukan, Kabupaten Lembata, Nusa Tenggara Tim.","Kabupaten Lembata, Nusa Tenggara Tim.",NUSA TENGGARA TIMUR,,Indonesia,,,,-8.3730365,123.429806,https://maps.google.com/?cid=0x0:0xce1727f9db9d2f63,
cafe,Kedai Kopi,Cafe 26,"J9FV+2MH, Lewoleba Utara, Kec. Nubatukan, Kabupaten Lembata, Nusa Tenggara Tim.","Kabupaten Lembata, Nusa Tenggara Tim.",NUSA TENGGARA TIMUR,,Indonesia,,,,-8.3774282,123.3942244,https://maps.google.com/?cid=0x0:0xca1c6a03fb0ea520,
cafe,Kedai Kopi,Namaweka nubamado,"HCJ6+X44, Nuba Mado, Kec. Nubatukan, Kabupaten Lembata, Nusa Tenggara Tim.","Kabupaten Lembata, Nusa Tenggara Tim.",NUSA TENGGARA TIMUR,,Indonesia,,,,-8.4176122,123.4103188,https://maps.google.com/?cid=0x0:0x35571f482ab7a46,
cafe,Indonesia,RM. ANDAHMU,"JCG3+XP5, Jl. Trans Lembata, Lewoleba Utara, Kec. Nubatukan, Kabupaten Lembata, Nusa Tenggara Tim.","Kabupaten Lembata, Nusa Tenggara Tim.",NUSA TENGGARA TIMUR,,Indonesia,81339428161.0,,,-8.3726132,123.4043605,https://maps.google.com/?cid=0x0:0xba3aab2aab083b58,
cafe,Kedai Kopi,Pangkalan Om Bondan,"Jl. Trans Lembata, Lewoleba Tengah, Kec. Nubatukan, Kabupaten Lembata, Nusa Tenggara Tim.","Kabupaten Lembata, Nusa Tenggara Tim.",NUSA TENGGARA TIMUR,,Indonesia,,,,-8.3712331,123.4233828,https://maps.google.com/?cid=0x0:0x5dd9e0f2c1968efc,
cafe,Kedai Kopi,Jln mari mampir,"JCC9+V5P, Jl. Tujuh Maret, Lewoleba Tengah, Kec. Nubatukan, Kabupaten Lembata, Nusa Tenggara Tim.","Kabupaten Lembata, Nusa Tenggara Tim.",NUSA TENGGARA TIMUR,,Indonesia,,,,-8.3777927,123.4179549,https://maps.google.com/?cid=0x0:0x83df954da1a38a15,
cafe,Kafe,KopiKita Kopi Lite,"Komak wangatoa, Desa, Selandoro, Kec. Nubatukan, Kabupaten Lembata, Nusa Tenggara Tim. 86616","Desa, Selandoro, Kec. Nubatukan, Kabupaten Lembata",NUSA TENGGARA TIMUR,86616.0,Indonesia,81238402322.0,,,-8.38209,123.4280614,https://maps.google.com/?cid=0x0:0xb4f7fdf3a9266481,
cafe,Pasar tradisional,PASAR PADA,"J99W+C3W, Pasar pada, Lewoleba, Nusa Tenggara Tim.","Kabupaten Lembata, Nusa Tenggara Tim.",NUSA TENGGARA TIMUR,,Indonesia,82235366914.0,,,-8.381382,123.3952034,https://maps.google.com/?cid=0x0:0xfbaef16a98d7c308,
cafe,Komplek perumahan,Lewoleba lembata,"JC63+68X, Lewoleba, Kec. Nubatukan, Kabupaten Lembata, Nusa Tenggara Tim.","Kabupaten Lembata, Nusa Tenggara Tim.",NUSA TENGGARA TIMUR,,Indonesia,,,,-8.3893831,123.4033533,https://maps.google.com/?cid=0x0:0x3f204640c827edd9,
cafe,Restoran,Rumah Makan Barokah,"JCH9+HVG, Jl. Trans Lembata, Lewoleba Tengah, Kec. Nubatukan, Kabupaten Lembata, Nusa Tenggara Tim.","Kabupaten Lembata, Nusa Tenggara Tim.",NUSA TENGGARA TIMUR,,Indonesia,,,,-8.3710689,123.419705,https://maps.google.com/?cid=0x0:0x300a9bc0b9f5410c,
cafe,Kafe,Pojok Ngopi Depan Telkom,"JCHC+HRM, Lewoleba Tengah, Kec. Nubatukan, Kabupaten Lembata, Nusa Tenggara Tim.","Kabupaten Lembata, Nusa Tenggara Tim.",NUSA TENGGARA TIMUR,,Indonesia,,,,-8.3710718,123.4219766,https://maps.google.com/?cid=0x0:0x62f4e170f3f4d528,
cafe,Bakso,Es Campu  Bakso,"JC64+V8W, Lewoleba, Kec. Nubatukan, Kabupaten Lembata, Nusa Tenggara Tim.","Kabupaten Lembata, Nusa Tenggara Tim.",NUSA TENGGARA TIMUR,,Indonesia,,,,-8.3877628,123.4058401,https://maps.google.com/?cid=0x0:0xd414ae1607ed16d7,
cafe,Padang,Rumah Makan Merkuri,"JFQ3+PRP, Lewoleba Tim., Kec. Nubatukan, Kabupaten Lembata, Nusa Tenggara Tim.","Kabupaten Lembata, Nusa Tenggara Tim.",NUSA TENGGARA TIMUR,,Indonesia,81339862931.0,,,-8.3606622,123.4545935,https://maps.google.com/?cid=0x0:0x16c48db578d56203,
cafe,Kedai Kopi,Warung Kopi Ama Sabu,"JFR6+J3G, Lewoleba Tim., Kec. Nubatukan, Kabupaten Lembata, Nusa Tenggara Tim.","Kabupaten Lembata, Nusa Tenggara Tim.",NUSA TENGGARA TIMUR,,Indonesia,,,,-8.3582217,123.4601565,https://maps.google.com/?cid=0x0:0xeabce5bbccade664,
cafe,Kedai Kopi,Gubuk Kopi,"Wangatoa, Selandoro, Lewoleba Tengah, Kec. Nubatukan, Kabupaten Lembata, Nusa Tenggara Tim.","Kabupaten Lembata, Nusa Tenggara Tim.",NUSA TENGGARA TIMUR,,Indonesia,,,,-8.3711083,123.4286046,https://maps.google.com/?cid=0x0:0xa44f0b2d01dcbee5,
cafe,Kedai Kopi,Yoma Caffee,"JCHM+58X, Jl. Trans Lembata, Lewoleba Tengah, Kec. Nubatukan, Kabupaten Lembata, Nusa Tenggara Tim.","Kabupaten Lembata, Nusa Tenggara Tim.",NUSA TENGGARA TIMUR,,Indonesia,,,,-8.3720144,123.4333441,https://maps.google.com/?cid=0x0:0x66912ab9cd9f921,
cafe,Kedai Kopi,Mario Cafe,"Jl. Trans Lembata No.3, Lewoleba Tim, Kec. Nubatukan, Kabupaten Lembata, Nusa Tenggara Tim. 86616","Lewoleba Tim, Kec. Nubatukan, Kabupaten Lembata",NUSA TENGGARA TIMUR,86616.0,Indonesia,,,,-8.3668356,123.4416382,https://maps.google.com/?cid=0x0:0x68109e1dd40be666,
cafe,Tempat Cukur Rambut,3G Cafe  Barbershop,"Jl. Trans Lembata No.Kel, Lewoleba Timur, Kec. Nubatukan, Kabupaten Lembata, Nusa Tenggara Tim. 86682","Lewoleba Timur, Kec. Nubatukan, Kabupaten Lembata",NUSA TENGGARA TIMUR,86682.0,Indonesia,81339677068.0,,,-8.3692046,123.4389565,https://maps.google.com/?cid=0x0:0xf6223ac17edbdb9b,
cafe,Kafe,Tiara cafe,"Lokasi Harnus, Lewoleba, Kec. Nubatukan, Kabupaten Lembata, Nusa Tenggara Tim. 86615","Lewoleba, Kec. Nubatukan, Kabupaten Lembata",NUSA TENGGARA TIMUR,86615.0,Indonesia,8243210928.0,,,-8.3904019,123.3991028,https://maps.google.com/?cid=0x0:0x4f73b15da6b9bfbf,
cafe,Kedai Kopi,Start-Up Cafe  Bistro,"JCGH+V7W, Lewoleba Tengah, Kec. Nubatukan, Kabupaten Lembata, Nusa Tenggara Tim.","Kabupaten Lembata, Nusa Tenggara Tim.",NUSA TENGGARA TIMUR,,Indonesia,,,,-8.3727586,123.4281911,https://maps.google.com/?cid=0x0:0xb793467c1dff74e5,
cafe,Kedai Kopi,Dapur INCHES,"Wulen Luo, Lewoleba, Kec. Nubatukan, Kabupaten Lembata, Nusa Tenggara Tim. 86682","Lewoleba, Kec. Nubatukan, Kabupaten Lembata",NUSA TENGGARA TIMUR,86682.0,Indonesia,81237000529.0,,,-8.3707826,123.4033275,https://maps.google.com/?cid=0x0:0x5b820512bb345d5d,
cafe,Toko bahan makanan,Olympic Ballroom  Resto,"SGB Bungsu, Jalan, North Lewoleba, Nubatukan, Lembata Regency, East Nusa Tenggara","Kabupaten Lembata, Nusa Tenggara Tim.",NUSA TENGGARA TIMUR,,Indonesia,,,,-8.3725771,123.4084656,https://maps.google.com/?cid=0x0:0xfae73f061d039a8d,
cafe,Jawa,Rumah Makan Wulandari,"JCHC+C4R, Jl. Trans Lembata, Lewoleba Tengah, Kec. Nubatukan, Kabupaten Lembata, Nusa Tenggara Tim.","Kabupaten Lembata, Nusa Tenggara Tim.",NUSA TENGGARA TIMUR,,Indonesia,,,,-8.3713866,123.4202563,https://maps.google.com/?cid=0x0:0xc1cc6a67fb6347e3,
cafe,cafe,Kec. Nubatukan,"Kabupaten Lembata, Nusa Tenggara Tim.","Kabupaten Lembata, Nusa Tenggara Tim.",NUSA TENGGARA TIMUR,,Indonesia,,,,-8.3731739,123.4288459,https://maps.google.com/?cid=0x0:0x5937ac1360822cb3,
cafe,Kedai Kopi,Caffe Like Coffee,"J9HX+Q3W, Unnamed Road Jl. SGB Bungsu, Lewoleba Utara, Kec. Nubatukan, Kabupaten Lembata, Nusa Tenggara Tim.","Kabupaten Lembata, Nusa Tenggara Tim.",NUSA TENGGARA TIMUR,,Indonesia,,,,-8.3702223,123.3974475,https://maps.google.com/?cid=0x0:0x3faddb48de76262a,
cafe,Kafe,Omah Bu'e Lembata,"Kandang Rusa - Lamahora, Jl. Trans Lembata, Lewoleba, Kec. Nubatukan, Kabupaten Lembata, Nusa Tenggara Tim. 86616","Jl. Trans Lembata, Lewoleba, Kec. Nubatukan, Kabupaten Lembata",NUSA TENGGARA TIMUR,86616.0,Indonesia,81338965654.0,,,-8.367236,123.4423162,https://maps.google.com/?cid=0x0:0x9e3075c4cd0b6cac,
cafe,Kedai Kopi,Gubuk Kopi,"Wangatoa, Selandoro, Lewoleba Tengah, Kec. Nubatukan, Kabupaten Lembata, Nusa Tenggara Tim.","Kabupaten Lembata, Nusa Tenggara Tim.",NUSA TENGGARA TIMUR,,Indonesia,,,,-8.3711083,123.4286046,https://maps.google.com/?cid=0x0:0xa44f0b2d01dcbee5,
cafe,Tempat Cukur Rambut,3G Cafe  Barbershop,"Jl. Trans Lembata No.Kel, Lewoleba Timur, Kec. Nubatukan, Kabupaten Lembata, Nusa Tenggara Tim. 86682","Lewoleba Timur, Kec. Nubatukan, Kabupaten Lembata",NUSA TENGGARA TIMUR,86682.0,Indonesia,81339677068.0,,,-8.3692046,123.4389565,https://maps.google.com/?cid=0x0:0xf6223ac17edbdb9b,
cafe,Kedai Kopi,Bukan Kafe Le (Warkop Ankobar),"JCFC+JX8, Lewoleba Tengah, Kec. Nubatukan, Kabupaten Lembata, Nusa Tenggara Tim.","Kabupaten Lembata, Nusa Tenggara Tim.",NUSA TENGGARA TIMUR,,Indonesia,,,,-8.3759608,123.4224518,https://maps.google.com/?cid=0x0:0x126b3dbbe5424d65,
cafe,Kedai Kopi,Cafe 26,"J9FV+2MH, Lewoleba Utara, Kec. Nubatukan, Kabupaten Lembata, Nusa Tenggara Tim.","Kabupaten Lembata, Nusa Tenggara Tim.",NUSA TENGGARA TIMUR,,Indonesia,,,,-8.3774282,123.3942244,https://maps.google.com/?cid=0x0:0xca1c6a03fb0ea520,
cafe,Kedai Kopi,Start-Up Cafe  Bistro,"JCGH+V7W, Lewoleba Tengah, Kec. Nubatukan, Kabupaten Lembata, Nusa Tenggara Tim.","Kabupaten Lembata, Nusa Tenggara Tim.",NUSA TENGGARA TIMUR,,Indonesia,,,,-8.3727586,123.4281911,https://maps.google.com/?cid=0x0:0xb793467c1dff74e5,
cafe,Kedai Kopi,Yoma Caffee,"JCHM+58X, Jl. Trans Lembata, Lewoleba Tengah, Kec. Nubatukan, Kabupaten Lembata, Nusa Tenggara Tim.","Kabupaten Lembata, Nusa Tenggara Tim.",NUSA TENGGARA TIMUR,,Indonesia,,,,-8.3720144,123.4333441,https://maps.google.com/?cid=0x0:0x66912ab9cd9f921,
cafe,Komplek perumahan,DuniAice Wangatoa Lewoleba,"Jl. Trans Lembata, Lewoleba Tengah, Kec. Nubatukan, Kabupaten Lembata, Nusa Tenggara Tim.","Kabupaten Lembata, Nusa Tenggara Tim.",NUSA TENGGARA TIMUR,,Indonesia,,,,-8.3726647,123.4304048,https://maps.google.com/?cid=0x0:0x45c499c3e3ec0d99,
cafe,Kedai Kopi,Wadan Caffe,"JCH4+7GQ, Jl. Trans Lembata, Lewoleba Tengah, Kec. Nubatukan, Kabupaten Lembata, Nusa Tenggara Tim.","Kabupaten Lembata, Nusa Tenggara Tim.",NUSA TENGGARA TIMUR,,Indonesia,81244925518.0,,,-8.3717956,123.4063618,https://maps.google.com/?cid=0x0:0x1faf31791969f91c,
cafe,Toko bahan makanan,Olympic Ballroom  Resto,"SGB Bungsu, Jalan, North Lewoleba, Nubatukan, Lembata Regency, East Nusa Tenggara","Kabupaten Lembata, Nusa Tenggara Tim.",NUSA TENGGARA TIMUR,,Indonesia,,,,-8.3725771,123.4084656,https://maps.google.com/?cid=0x0:0xfae73f061d039a8d,
cafe,Kedai Kopi,Jali Merah,"H8RW+56J, Waijarang, Kec. Nubatukan, Kabupaten Lembata, Nusa Tenggara Tim.","Kabupaten Lembata, Nusa Tenggara Tim.",NUSA TENGGARA TIMUR,,Indonesia,81237769778.0,,,-8.409525,123.345529,https://maps.google.com/?cid=0x0:0xde5e361baaba22d5,
cafe,Kedai Kopi,Dapur INCHES,"Wulen Luo, Lewoleba, Kec. Nubatukan, Kabupaten Lembata, Nusa Tenggara Tim. 86682","Lewoleba, Kec. Nubatukan, Kabupaten Lembata",NUSA TENGGARA TIMUR,86682.0,Indonesia,81237000529.0,,,-8.3707826,123.4033275,https://maps.google.com/?cid=0x0:0x5b820512bb345d5d,
cafe,Kafe,Popi's Cafe Bar,"JCG5+XMF, Jl. Trans Lembata, Lewoleba Utara, Kabupaten Lembata, Nusa Tenggara Tim.","Kabupaten Lembata, Nusa Tenggara Tim.",NUSA TENGGARA TIMUR,,Indonesia,82134566117.0,,,-8.3725645,123.4091704,https://maps.google.com/?cid=0x0:0x12c5cdb7b35e5681,
cafe,Brunch,Warung Makan Lumayan,"JFR5+76G, Lewoleba Tim., Kec. Nubatukan, Kabupaten Lembata, Nusa Tenggara Tim.","Kabupaten Lembata, Nusa Tenggara Tim.",NUSA TENGGARA TIMUR,,Indonesia,,,,-8.3593131,123.4580922,https://maps.google.com/?cid=0x0:0xc9d71c36f9f31f,
cafe,Kafe,KopiKita Kopi Lite,"Komak wangatoa, Desa, Selandoro, Kec. Nubatukan, Kabupaten Lembata, Nusa Tenggara Tim. 86616","Desa, Selandoro, Kec. Nubatukan, Kabupaten Lembata",NUSA TENGGARA TIMUR,86616.0,Indonesia,81238402322.0,,,-8.38209,123.4280614,https://maps.google.com/?cid=0x0:0xb4f7fdf3a9266481,
cafe,Kafe,Tiara cafe,"Lokasi Harnus, Lewoleba, Kec. Nubatukan, Kabupaten Lembata, Nusa Tenggara Tim. 86615","Lewoleba, Kec. Nubatukan, Kabupaten Lembata",NUSA TENGGARA TIMUR,86615.0,Indonesia,8243210928.0,,,-8.3904019,123.3991028,https://maps.google.com/?cid=0x0:0x4f73b15da6b9bfbf,
cafe,Kedai Kopi,Coffe Isntanbul_Lewoleba,"JCJJ+9HC, Unnamed Road, Central Lewoleba, Nubatukan, Lembata Regency, East Nusa Tenggara","Kabupaten Lembata, Nusa Tenggara Tim.",NUSA TENGGARA TIMUR,,Indonesia,82144873607.0,,,-8.3690532,123.4313984,https://maps.google.com/?cid=0x0:0xe28759503034e6a1,
cafe,Rumah Makan,SAUNG ABIY THALAH,"Jl. Trans Lembata No.92, Lewoleba Timur, Kec. Nubatukan, Kabupaten Lembata, Nusa Tenggara Tim. 86616","Lewoleba Timur, Kec. Nubatukan, Kabupaten Lembata",NUSA TENGGARA TIMUR,86616.0,Indonesia,81337929497.0,,,-8.3681362,123.4396538,https://maps.google.com/?cid=0x0:0x18e99f2848d7dd9b,
cafe,Jawa Timur,WARUNG LUMAYAN 2,"Jl. Trans Lembata No.3, Lewoleba Tim., Kec. Nubatukan, Kabupaten Lembata, Nusa Tenggara Tim. 86616","Lewoleba Tim., Kec. Nubatukan, Kabupaten Lembata",NUSA TENGGARA TIMUR,86616.0,Indonesia,82140209224.0,,,-8.3679267,123.4411249,https://maps.google.com/?cid=0x0:0xe3e5899bb634115b,
cafe,cafe,Kec. Nubatukan,"Kabupaten Lembata, Nusa Tenggara Tim.","Kabupaten Lembata, Nusa Tenggara Tim.",NUSA TENGGARA TIMUR,,Indonesia,,,,-8.3731739,123.4288459,https://maps.google.com/?cid=0x0:0x5937ac1360822cb3,
cafe,Kedai Kopi,Caffe Like Coffee,"J9HX+Q3W, Unnamed Road Jl. SGB Bungsu, Lewoleba Utara, Kec. Nubatukan, Kabupaten Lembata, Nusa Tenggara Tim.","Kabupaten Lembata, Nusa Tenggara Tim.",NUSA TENGGARA TIMUR,,Indonesia,,,,-8.3702223,123.3974475,https://maps.google.com/?cid=0x0:0x3faddb48de76262a,
cafe,Kedai Kopi,Gubuk Kopi,"Wangatoa, Selandoro, Lewoleba Tengah, Kec. Nubatukan, Kabupaten Lembata, Nusa Tenggara Tim.","Kabupaten Lembata, Nusa Tenggara Tim.",NUSA TENGGARA TIMUR,,Indonesia,,,,-8.3711083,123.4286046,https://maps.google.com/?cid=0x0:0xa44f0b2d01dcbee5,
cafe,Kedai Kopi,Bukan Kafe Le (Warkop Ankobar),"JCFC+JX8, Lewoleba Tengah, Kec. Nubatukan, Kabupaten Lembata, Nusa Tenggara Tim.","Kabupaten Lembata, Nusa Tenggara Tim.",NUSA TENGGARA TIMUR,,Indonesia,,,,-8.3759608,123.4224518,https://maps.google.com/?cid=0x0:0x126b3dbbe5424d65,
cafe,Tempat Cukur Rambut,3G Cafe  Barbershop,"Jl. Trans Lembata No.Kel, Lewoleba Timur, Kec. Nubatukan, Kabupaten Lembata, Nusa Tenggara Tim. 86682","Lewoleba Timur, Kec. Nubatukan, Kabupaten Lembata",NUSA TENGGARA TIMUR,86682.0,Indonesia,81339677068.0,,,-8.3692046,123.4389565,https://maps.google.com/?cid=0x0:0xf6223ac17edbdb9b,
cafe,Kedai Kopi,Yoma Caffee,"JCHM+58X, Jl. Trans Lembata, Lewoleba Tengah, Kec. Nubatukan, Kabupaten Lembata, Nusa Tenggara Tim.","Kabupaten Lembata, Nusa Tenggara Tim.",NUSA TENGGARA TIMUR,,Indonesia,,,,-8.3720144,123.4333441,https://maps.google.com/?cid=0x0:0x66912ab9cd9f921,
cafe,Kedai Kopi,Mario Cafe,"Jl. Trans Lembata No.3, Lewoleba Tim, Kec. Nubatukan, Kabupaten Lembata, Nusa Tenggara Tim. 86616","Lewoleba Tim, Kec. Nubatukan, Kabupaten Lembata",NUSA TENGGARA TIMUR,86616.0,Indonesia,,,,-8.3668356,123.4416382,https://maps.google.com/?cid=0x0:0x68109e1dd40be666,
cafe,Kedai Kopi,Start-Up Cafe  Bistro,"JCGH+V7W, Lewoleba Tengah, Kec. Nubatukan, Kabupaten Lembata, Nusa Tenggara Tim.","Kabupaten Lembata, Nusa Tenggara Tim.",NUSA TENGGARA TIMUR,,Indonesia,,,,-8.3727586,123.4281911,https://maps.google.com/?cid=0x0:0xb793467c1dff74e5,
cafe,Komplek perumahan,DuniAice Wangatoa Lewoleba,"Jl. Trans Lembata, Lewoleba Tengah, Kec. Nubatukan, Kabupaten Lembata, Nusa Tenggara Tim.","Kabupaten Lembata, Nusa Tenggara Tim.",NUSA TENGGARA TIMUR,,Indonesia,,,,-8.3726647,123.4304048,https://maps.google.com/?cid=0x0:0x45c499c3e3ec0d99,
cafe,Brunch,Warung Makan Lumayan,"JFR5+76G, Lewoleba Tim., Kec. Nubatukan, Kabupaten Lembata, Nusa Tenggara Tim.","Kabupaten Lembata, Nusa Tenggara Tim.",NUSA TENGGARA TIMUR,,Indonesia,,,,-8.3593131,123.4580922,https://maps.google.com/?cid=0x0:0xc9d71c36f9f31f,
cafe,Kedai Kopi,Dapur INCHES,"Wulen Luo, Lewoleba, Kec. Nubatukan, Kabupaten Lembata, Nusa Tenggara Tim. 86682","Lewoleba, Kec. Nubatukan, Kabupaten Lembata",NUSA TENGGARA TIMUR,86682.0,Indonesia,81237000529.0,,,-8.3707826,123.4033275,https://maps.google.com/?cid=0x0:0x5b820512bb345d5d,
cafe,Kedai Kopi,Wadan Caffe,"JCH4+7GQ, Jl. Trans Lembata, Lewoleba Tengah, Kec. Nubatukan, Kabupaten Lembata, Nusa Tenggara Tim.","Kabupaten Lembata, Nusa Tenggara Tim.",NUSA TENGGARA TIMUR,,Indonesia,81244925518.0,,,-8.3717956,123.4063618,https://maps.google.com/?cid=0x0:0x1faf31791969f91c,
cafe,Toko Makanan,ROYAL CAFFE,"J9GW+758, Lewoleba Utara, Kec. Nubatukan, Kabupaten Lembata, Nusa Tenggara Tim.","Kabupaten Lembata, Nusa Tenggara Tim.",NUSA TENGGARA TIMUR,,Indonesia,,,,-8.3743392,123.3954398,https://maps.google.com/?cid=0x0:0x8b31d1611e71d2c6,
cafe,Es Krim,FUNN Ice Cream  Cafe Lembata,"Jl. Trans Lembata, Lewoleba Tim, Kec. Nubatukan, Kabupaten Lembata, Nusa Tenggara Tim. 86615","Lewoleba Tim, Kec. Nubatukan, Kabupaten Lembata",NUSA TENGGARA TIMUR,86615.0,Indonesia,,,,-8.3673087,123.4420934,https://maps.google.com/?cid=0x0:0xb165773430c178a5,
cafe,Kedai Kopi,Cafe Stella Waijarang,"Jl.Pada, Waijarang, Kec. Nubatukan, Kabupaten Lembata, Nusa Tenggara Tim. 86684","Waijarang, Kec. Nubatukan, Kabupaten Lembata",NUSA TENGGARA TIMUR,86684.0,Indonesia,,,,-8.396419,123.3582469,https://maps.google.com/?cid=0x0:0xc2ecc81ce26a7df8,
cafe,Rumah Makan,Warung Makan Mbak Erna,"JCHG+3XX, Lewoleba Tengah, Kec. Nubatukan, Kabupaten Lembata, Nusa Tenggara Tim.","Kabupaten Lembata, Nusa Tenggara Tim.",NUSA TENGGARA TIMUR,,Indonesia,82131073247.0,,,-8.3722645,123.4274821,https://maps.google.com/?cid=0x0:0xed73bd17d2afdce2,
cafe,Toko bahan makanan,Olympic Ballroom  Resto,"SGB Bungsu, Jalan, North Lewoleba, Nubatukan, Lembata Regency, East Nusa Tenggara","Kabupaten Lembata, Nusa Tenggara Tim.",NUSA TENGGARA TIMUR,,Indonesia,,,,-8.3725771,123.4084656,https://maps.google.com/?cid=0x0:0xfae73f061d039a8d,
cafe,Kedai Kopi,Coffe Isntanbul_Lewoleba,"JCJJ+9HC, Unnamed Road, Central Lewoleba, Nubatukan, Lembata Regency, East Nusa Tenggara","Kabupaten Lembata, Nusa Tenggara Tim.",NUSA TENGGARA TIMUR,,Indonesia,82144873607.0,,,-8.3690532,123.4313984,https://maps.google.com/?cid=0x0:0xe28759503034e6a1,
cafe,Jawa Timur,WARUNG LUMAYAN 2,"Jl. Trans Lembata No.3, Lewoleba Tim., Kec. Nubatukan, Kabupaten Lembata, Nusa Tenggara Tim. 86616","Lewoleba Tim., Kec. Nubatukan, Kabupaten Lembata",NUSA TENGGARA TIMUR,86616.0,Indonesia,82140209224.0,,,-8.3679267,123.4411249,https://maps.google.com/?cid=0x0:0xe3e5899bb634115b,
cafe,Kafe,Popi's Cafe Bar,"JCG5+XMF, Jl. Trans Lembata, Lewoleba Utara, Kabupaten Lembata, Nusa Tenggara Tim.","Kabupaten Lembata, Nusa Tenggara Tim.",NUSA TENGGARA TIMUR,,Indonesia,82134566117.0,,,-8.3725645,123.4091704,https://maps.google.com/?cid=0x0:0x12c5cdb7b35e5681,
cafe,Kafe,Tiara cafe,"Lokasi Harnus, Lewoleba, Kec. Nubatukan, Kabupaten Lembata, Nusa Tenggara Tim. 86615","Lewoleba, Kec. Nubatukan, Kabupaten Lembata",NUSA TENGGARA TIMUR,86615.0,Indonesia,8243210928.0,,,-8.3904019,123.3991028,https://maps.google.com/?cid=0x0:0x4f73b15da6b9bfbf,
cafe,Jawa Timur,RM. Ayu Nisa,"JFQ4+R2H, Lewoleba Tim., Kec. Nubatukan, Kabupaten Lembata, Nusa Tenggara Tim.","Kabupaten Lembata, Nusa Tenggara Tim.",NUSA TENGGARA TIMUR,,Indonesia,,,,-8.3604304,123.4551211,https://maps.google.com/?cid=0x0:0x529b6f8254235aaf,
cafe,Kafe,Agrowisata Ema Pia,"JCG6+G7C, Lewoleba Utara, Kec. Nubatukan, Kabupaten Lembata, Nusa Tenggara Tim.","Kabupaten Lembata, Nusa Tenggara Tim.",NUSA TENGGARA TIMUR,,Indonesia,,,,-8.3736849,123.410651,https://maps.google.com/?cid=0x0:0xb392103c25e45bf6,
cafe,cafe,Kec. Omesuri,"Kabupaten Lembata, Nusa Tenggara Tim.","Kabupaten Lembata, Nusa Tenggara Tim.",NUSA TENGGARA TIMUR,,Indonesia,,,,-8.2457063,123.7524523,https://maps.google.com/?cid=0x0:0x63a024d49fdb39f4,
cafe,Kedai Kopi,Cafe RHAMA AINI  ZAINAB,"Jalan Pantura, Desa Hingalamamengi, Kec. Omesuri, Kabupaten Lembata, Nusa Tenggara Tim.","Kabupaten Lembata, Nusa Tenggara Tim.",NUSA TENGGARA TIMUR,,Indonesia,82145777717.0,,,-8.2230982,123.7432569,https://maps.google.com/?cid=0x0:0x9caf6b47806db6f8,
cafe,Sekolah pendidikan umum,SD INPRES PEUUMA,"QP9R+4GF, Leuwayang, Kec. Omesuri, Kabupaten Lembata, Nusa Tenggara Tim.","Kabupaten Lembata, Nusa Tenggara Tim.",NUSA TENGGARA TIMUR,,Indonesia,,,,-8.2321847,123.7412825,https://maps.google.com/?cid=0x0:0x2e36c1ea6e21923f,
cafe,Kedai Kopi,Warkop A.G kelen,"PMQQ+CMQ, Jl. Trans Lembata, Balauring, Kec. Omesuri, Kabupaten Lembata, Nusa Tenggara Tim.","Kabupaten Lembata, Nusa Tenggara Tim.",NUSA TENGGARA TIMUR,,Indonesia,82283796377.0,,,-8.2614191,123.6892192,https://maps.google.com/?cid=0x0:0xcb497cd2e6f04871,
cafe,Nasi,Warung Fajar Rasa,"Unnamed Road, Hoelea II, Kec. Omesuri, Kabupaten Lembata, Nusa Tenggara Tim.","Kabupaten Lembata, Nusa Tenggara Tim.",NUSA TENGGARA TIMUR,,Indonesia,76783264.0,,,-8.2351196,123.706447,https://maps.google.com/?cid=0x0:0xc968d83e7ba30b01,
cafe,Kedai Kopi,Mario Cafe,"Jl. Trans Lembata No.3, Lewoleba Tim, Kec. Nubatukan, Kabupaten Lembata, Nusa Tenggara Tim. 86616","Lewoleba Tim, Kec. Nubatukan, Kabupaten Lembata",NUSA TENGGARA TIMUR,86616.0,Indonesia,,,,-8.3668356,123.4416382,https://maps.google.com/?cid=0x0:0x68109e1dd40be666,
cafe,Tempat Cukur Rambut,3G Cafe  Barbershop,"Jl. Trans Lembata No.Kel, Lewoleba Timur, Kec. Nubatukan, Kabupaten Lembata, Nusa Tenggara Tim. 86682","Lewoleba Timur, Kec. Nubatukan, Kabupaten Lembata",NUSA TENGGARA TIMUR,86682.0,Indonesia,81339677068.0,,,-8.3692046,123.4389565,https://maps.google.com/?cid=0x0:0xf6223ac17edbdb9b,
cafe,Kedai Kopi,Sierra cafe,"rumah sakit umum, Jl. Trans Lembata, Tapobaran, Kec. Lebatukan, Kabupaten Lembata, Nusa Tenggara Tim.","Kabupaten Lembata, Nusa Tenggara Tim.",NUSA TENGGARA TIMUR,,Indonesia,,,,-8.3225692,123.6014054,https://maps.google.com/?cid=0x0:0x5b695b953eb18878,
cafe,Pembangunan Perumahan,moke home stay lolonrian,"RR85+PC, Buriwutung, Kec. Buyasari, Kabupaten Lembata, Nusa Tenggara Tim.","Kabupaten Lembata, Nusa Tenggara Tim.",NUSA TENGGARA TIMUR,,Indonesia,,,,-8.1830892,123.8086357,https://maps.google.com/?cid=0x0:0xc61ebf42e5155b32,
cafe,Warnet,Rumah valents,"MPFG+37, Leubatang, Kec. Omesuri, Kabupaten Lembata, Nusa Tenggara Tim.","Kabupaten Lembata, Nusa Tenggara Tim.",NUSA TENGGARA TIMUR,,Indonesia,,,,-8.3266471,123.723766,https://maps.google.com/?cid=0x0:0x81f982352ebd80b9,
cafe,Seafood,ikan Kering Wailolong,"PMW3+69C, Wailolong, Kec. Omesuri, Kabupaten Lembata, Nusa Tenggara Tim.","Kabupaten Lembata, Nusa Tenggara Tim.",NUSA TENGGARA TIMUR,,Indonesia,8123912156.0,,,-8.2544264,123.6533758,https://maps.google.com/?cid=0x0:0x464b4b4fa4b9cfb5,
cafe,Taman,Cafe Pantai Hadakewa,"JGJV+C9G, Jl. Trans Lembata, Merdeka, Kec. Lebatukan, Kabupaten Lembata, Nusa Tenggara Tim.","Kabupaten Lembata, Nusa Tenggara Tim.",NUSA TENGGARA TIMUR,,Indonesia,,,,-8.3686865,123.5431303,https://maps.google.com/?cid=0x0:0x6936f901feeb7847,
cafe,cafe,Warung Qian,"QPCQ+6HX, Leuwayang, Kec. Omesuri, Kabupaten Lembata, Nusa Tenggara Tim.","Kabupaten Lembata, Nusa Tenggara Tim.",NUSA TENGGARA TIMUR,,Indonesia,,,,-8.2293881,123.7389934,https://maps.google.com/?cid=0x0:0x67a5073fe916b121,
cafe,Restoran,Rest area lewolein,"PJ2H+QJ3, Jl. Trans Lembata, Dikesare, Kec. Lebatukan, Kabupaten Lembata, Nusa Tenggara Tim.","Kabupaten Lembata, Nusa Tenggara Tim.",NUSA TENGGARA TIMUR,,Indonesia,,,,-8.2981084,123.6290481,https://maps.google.com/?cid=0x0:0xa8cd15031ab30542,
cafe,cafe,Warung Qian,"PPPG+RMJ, Hingalamamengi, Kec. Omesuri, Kabupaten Lembata, Nusa Tenggara Tim.","Kabupaten Lembata, Nusa Tenggara Tim.",NUSA TENGGARA TIMUR,,Indonesia,,,,-8.2629073,123.7266253,https://maps.google.com/?cid=0x0:0x830d4e27cc82772f,
cafe,Pasar,Pasar Walangsawa,"QQ48+9F6, Walangsawah, Kec. Omesuri, Kabupaten Lembata, Nusa Tenggara Tim.","Kabupaten Lembata, Nusa Tenggara Tim.",NUSA TENGGARA TIMUR,,Indonesia,81239216868.0,,,-8.2440755,123.7661332,https://maps.google.com/?cid=0x0:0x5e1570c745254b86,
cafe,Restoran,Nasi Goreng Afiyah,"Hoelea II, Kec. Omesuri, Kabupaten Lembata, Nusa Tenggara Tim.","Kabupaten Lembata, Nusa Tenggara Tim.",NUSA TENGGARA TIMUR,,Indonesia,81233987574.0,,,-8.2333714,123.7048209,https://maps.google.com/?cid=0x0:0x91de800e40ad68a9,
cafe,cafe,Wifi vocer alan.net,"BAim AB, Bareng, Kec. Buyasari, Kabupaten Lembata, Nusa Tenggara Tim.","Kabupaten Lembata, Nusa Tenggara Tim.",NUSA TENGGARA TIMUR,,Indonesia,,,,-8.1728382,123.7727156,https://maps.google.com/?cid=0x0:0xc4cd8e554b8fb3fc,
cafe,Tempat Istirahat,Asam 1 Komplex (Kolibaran Watodiri),"MF6M+FW5, Muruona, Kec. Ile Ape, Kabupaten Lembata, Nusa Tenggara Tim.","Kabupaten Lembata, Nusa Tenggara Tim.",NUSA TENGGARA TIMUR,,Indonesia,85333011205.0,,,-8.3388524,123.4848559,https://maps.google.com/?cid=0x0:0xad87771cc8ba816c,
cafe,Es Krim,FUNN Ice Cream  Cafe Lembata,"Jl. Trans Lembata, Lewoleba Tim, Kec. Nubatukan, Kabupaten Lembata, Nusa Tenggara Tim. 86615","Lewoleba Tim, Kec. Nubatukan, Kabupaten Lembata",NUSA TENGGARA TIMUR,86615.0,Indonesia,,,,-8.3673087,123.4420934,https://maps.google.com/?cid=0x0:0xb165773430c178a5,
cafe,Kafetaria,RnB center,"MFV3+MJW, Petuntawa, Kec. Ile Ape, Kabupaten Lembata, Nusa Tenggara Tim.","Kabupaten Lembata, Nusa Tenggara Tim.",NUSA TENGGARA TIMUR,,Indonesia,82247022239.0,,,-8.3057711,123.454092,https://maps.google.com/?cid=0x0:0x5be1b5ec041577ac,
cafe,cafe,Nusa Tenggara Tim.,,Nusa Tenggara Tim.,NUSA TENGGARA TIMUR,,Indonesia,,,,-8.6573819,121.0793705,https://maps.google.com/?cid=0x0:0x1030bfbcaf71ae0,
cafe,Toko,Aneka Kios Wulandoni,"Belobao, Kec. Wulandoni, Kabupaten Lembata, Nusa Tenggara Tim.","Kabupaten Lembata, Nusa Tenggara Tim.",NUSA TENGGARA TIMUR,,Indonesia,,,,-8.5385742,123.4086266,https://maps.google.com/?cid=0x0:0x2520393f59a8db97,
cafe,Kedai Kopi,Gorengan Nona Wutun,"Dusun 1 Watena depan SMP No.N 1, Katakeja, Kec. Atadei, Kabupaten Lembata, Nusa Tenggara Tim.","Kabupaten Lembata, Nusa Tenggara Tim.",NUSA TENGGARA TIMUR,,Indonesia,82217992126.0,,,-8.4362337,123.4657638,https://maps.google.com/?cid=0x0:0x1f314d114749503b,
cafe,cafe,Wulandoni,"Kec. Wulandoni, Kabupaten Lembata, Nusa Tenggara Tim.","Kabupaten Lembata, Nusa Tenggara Tim.",NUSA TENGGARA TIMUR,,Indonesia,,,,-8.5502005,123.4299436,https://maps.google.com/?cid=0x0:0x190edee7019a3217,
cafe,Kedai Kopi,Teman duduk,"FFC4+JG4, Pantai Harapan, Kec. Wulandoni, Kabupaten Lembata, Nusa Tenggara Tim.","Kabupaten Lembata, Nusa Tenggara Tim.",NUSA TENGGARA TIMUR,,Indonesia,82252612539.0,,,-8.529014,123.4567206,https://maps.google.com/?cid=0x0:0xc2aec3e312bc6d85,
cafe,Toko umum,Kios Litani,"FFP9+MG3, Ataili, Kec. Wulandoni, Kabupaten Lembata, Nusa Tenggara Tim.","Kabupaten Lembata, Nusa Tenggara Tim.",NUSA TENGGARA TIMUR,,Indonesia,,,,-8.513355,123.4688113,https://maps.google.com/?cid=0x0:0x6a46f186ed93f6eb,
