Category,Real Category,Business Name,Address,City,State,Postal Code,Country,Phone,Email,Website,Latitude,Longitude,Map Link,Details Link
perumahan,perumahan,Kabupaten Lembata,Nusa Tenggara Tim.,"Kabupaten Lembata, Nusa Tenggara Tim.",NUSA TENGGARA TIMUR,,Indonesia,,,,-8.4719075,123.4831906,https://maps.google.com/?cid=0x0:0xbd928ed7ddfa3168,
perumahan,perumahan,Kec. Atadei,"Kabupaten Lembata, Nusa Tenggara Tim.","Kabupaten Lembata, Nusa Tenggara Tim.",NUSA TENGGARA TIMUR,,Indonesia,,,,-8.4349536,123.4678297,https://maps.google.com/?cid=0x0:0xfbbff0f263a15426,
perumahan,perumahan,Keluarga Atawolo,"GC2X+RJG, Nogo Doni, Kec. Atadei, Kabupaten Lembata, Nusa Tenggara Tim.","Kabupaten Lembata, Nusa Tenggara Tim.",NUSA TENGGARA TIMUR,,Indonesia,,,,-8.4973834,123.4485472,https://maps.google.com/?cid=0x0:0x1278c33732272e82,
perumahan,Perhimpunan Pengembang Perumahan,"Rumah Gege, Atakore, Atadei Kabupaten Lembata","FGRV+PC2, Atakore, Kec. Atadei, Kabupaten Lembata, Nusa Tenggara Tim.","Kabupaten Lembata, Nusa Tenggara Tim.",NUSA TENGGARA TIMUR,,Indonesia,,,,-8.508189,123.543846,https://maps.google.com/?cid=0x0:0xbd634848ade56170,
perumahan,Perhimpunan Pengembang Perumahan,Aldino House,"HG24+WW6, Ile Kimok, Kec. Atadei, Kabupaten Lembata, Nusa Tenggara Tim.","Kabupaten Lembata, Nusa Tenggara Tim.",NUSA TENGGARA TIMUR,,Indonesia,,,,-8.4477085,123.5072517,https://maps.google.com/?cid=0x0:0x65be7bc69de00248,
perumahan,Perhimpunan Pengembang Perumahan,Alap Atadei Village,"Alap Atadei, Kec. Wulandoni, Kabupaten Lembata, Nusa Tenggara Tim.","Kabupaten Lembata, Nusa Tenggara Tim.",NUSA TENGGARA TIMUR,,Indonesia,,,,-8.5394887,123.5107929,https://maps.google.com/?cid=0x0:0x69a537d74b37d1d4,
perumahan,Perhimpunan Pengembang Perumahan,Lewokurang,"GG68+2JG, Lerek, Kec. Atadei, Kabupaten Lembata, Nusa Tenggara Tim.","Kabupaten Lembata, Nusa Tenggara Tim.",NUSA TENGGARA TIMUR,,Indonesia,,,,-8.4899275,123.5165707,https://maps.google.com/?cid=0x0:0x184e88892e1cc264,
perumahan,Komplek perumahan,Atawolo,"GFHM+67P, Dori Pewut, Kec. Atadei, Kabupaten Lembata, Nusa Tenggara Tim.","Kabupaten Lembata, Nusa Tenggara Tim.",NUSA TENGGARA TIMUR,,Indonesia,,,,-8.4719075,123.4831906,https://maps.google.com/?cid=0x0:0x49ddd207d72f63cb,
perumahan,Pembangunan Perumahan,KARANGORA,"HG24+X9V, Ile Kimok, Kec. Atadei, Kabupaten Lembata, Nusa Tenggara Tim.","Kabupaten Lembata, Nusa Tenggara Tim.",NUSA TENGGARA TIMUR,,Indonesia,,,,-8.4475125,123.5059219,https://maps.google.com/?cid=0x0:0xce8cab6b950c6909,
perumahan,Komplek perumahan,Kampung Baru,"HF58+QHJ, Katakeja, Kec. Atadei, Kabupaten Lembata, Nusa Tenggara Tim.","Kabupaten Lembata, Nusa Tenggara Tim.",NUSA TENGGARA TIMUR,,Indonesia,,,,-8.4405263,123.466379,https://maps.google.com/?cid=0x0:0x296592a004fbbb13,
perumahan,Komplek perumahan,VERTHO,"HG24+RWH, Tubuk Rajan, Kec. Atadei, Kabupaten Lembata, Nusa Tenggara Tim.","Kabupaten Lembata, Nusa Tenggara Tim.",NUSA TENGGARA TIMUR,,Indonesia,,,,-8.4469969,123.5070304,https://maps.google.com/?cid=0x0:0x18ac6a5b51b14879,
perumahan,Pembangunan Perumahan,Ecin L,"HF3C+4VJ, Tubuk Rajan, Kec. Atadei, Kabupaten Lembata, Nusa Tenggara Tim.","Kabupaten Lembata, Nusa Tenggara Tim.",NUSA TENGGARA TIMUR,,Indonesia,,,,-8.447151,123.4721376,https://maps.google.com/?cid=0x0:0x2603f4cb67cd9e43,
perumahan,Komplek perumahan,Rebong family,"GG68+3HJ, Nubahaeraka, Kec. Atadei, Kabupaten Lembata, Nusa Tenggara Tim.","Kabupaten Lembata, Nusa Tenggara Tim.",NUSA TENGGARA TIMUR,,Indonesia,,,,-8.4899509,123.5163826,https://maps.google.com/?cid=0x0:0xb55de3f72f61798c,
perumahan,Komplek perumahan,Rumah Adat Nuban,"GFHM+67P, Desa, Atawolo, Atadei, Lembata Regency, East Nusa Tenggara","Kabupaten Lembata, Nusa Tenggara Tim.",NUSA TENGGARA TIMUR,,Indonesia,,,,-8.4719075,123.4831906,https://maps.google.com/?cid=0x0:0xf8e8202b1fa83800,
perumahan,Komplek perumahan,Eman elaman,"HF4J+85Q, Tubuk Rajan, Kec. Atadei, Kabupaten Lembata, Nusa Tenggara Tim.","Kabupaten Lembata, Nusa Tenggara Tim.",NUSA TENGGARA TIMUR,,Indonesia,,,,-8.4441636,123.4804859,https://maps.google.com/?cid=0x0:0xfa8bb5d4db54c031,
perumahan,Komplek perumahan,Arsenal Duan,"GC2X+RJG, Nogo Doni, Kec. Atadei, Kabupaten Lembata, Nusa Tenggara Tim.","Kabupaten Lembata, Nusa Tenggara Tim.",NUSA TENGGARA TIMUR,,Indonesia,,,,-8.4980419,123.4490632,https://maps.google.com/?cid=0x0:0xb30f88aa85be3e4d,
perumahan,Komplek perumahan,Paradiso complex,"HF89+J3G, Katakeja, Kec. Atadei, Kabupaten Lembata, Nusa Tenggara Tim.","Kabupaten Lembata, Nusa Tenggara Tim.",NUSA TENGGARA TIMUR,,Indonesia,82251699482.0,,,-8.4334258,123.4677072,https://maps.google.com/?cid=0x0:0x79ba18ea7e7cf18d,
perumahan,Kompleks Apartemen,NTT,"GFHM+67P Kedang, Dori Pewut, Kec. Atadei, Kabupaten Lembata, Nusa Tenggara Tim.","Kabupaten Lembata, Nusa Tenggara Tim.",NUSA TENGGARA TIMUR,,Indonesia,,,,-8.4719075,123.4831906,https://maps.google.com/?cid=0x0:0x9be189a0edce5df5,
perumahan,Pembangunan Perumahan,Huk Tukan,"GG68+3HJ, Nubahaeraka, Kec. Atadei, Kabupaten Lembata, Nusa Tenggara Tim.","Kabupaten Lembata, Nusa Tenggara Tim.",NUSA TENGGARA TIMUR,,Indonesia,,,,-8.4894698,123.5164047,https://maps.google.com/?cid=0x0:0x95aff8e8e4329f5c,
perumahan,Komplek perumahan,boki wuwur,"HF3C+M29, Tubuk Rajan, Kec. Atadei, Kabupaten Lembata, Nusa Tenggara Tim.","Kabupaten Lembata, Nusa Tenggara Tim.",NUSA TENGGARA TIMUR,,Indonesia,,,,-8.4458375,123.4701094,https://maps.google.com/?cid=0x0:0xad6dab5bfab55f89,
perumahan,Pembangunan Perumahan,CU Sinar Saron,"HF7C+3V4, Katakeja, Kec. Atadei, Kabupaten Lembata, Nusa Tenggara Tim.","Kabupaten Lembata, Nusa Tenggara Tim.",NUSA TENGGARA TIMUR,,Indonesia,,,,-8.4373607,123.4722104,https://maps.google.com/?cid=0x0:0xcaa9787fddab1d0e,
perumahan,Gedung Apartemen,Rumah awie,"HF6F+WHG, Tubukrajan, Kec. Atadei, Kabupaten Lembata, Nusa Tenggara Tim.","Kabupaten Lembata, Nusa Tenggara Tim.",NUSA TENGGARA TIMUR,,Indonesia,,,,-8.4376832,123.4739447,https://maps.google.com/?cid=0x0:0x328ac11db749b3c0,
perumahan,Pembangunan Perumahan,Housing Area watugolok park,"HF6F+7F9, Katakeja, Kec. Atadei, Kabupaten Lembata, Nusa Tenggara Tim.","Kabupaten Lembata, Nusa Tenggara Tim.",NUSA TENGGARA TIMUR,,Indonesia,,,,-8.4393263,123.4737868,https://maps.google.com/?cid=0x0:0x45a55542a21259cc,
perumahan,Komplek perumahan,Yohanroning@home,"HG34+8PR, Tubuk Rajan, Kec. Atadei, Kabupaten Lembata, Nusa Tenggara Tim.","Kabupaten Lembata, Nusa Tenggara Tim.",NUSA TENGGARA TIMUR,,Indonesia,,,,-8.4466349,123.5067511,https://maps.google.com/?cid=0x0:0xbcd8697fface38ef,
perumahan,Pusat Kesehatan Masyarakat,Perumahan Dinas Puskesmas Waiknuit,"HF2R+2JX, Tubuk Rajan, Kec. Atadei, Kabupaten Lembata, Nusa Tenggara Tim.","Kabupaten Lembata, Nusa Tenggara Tim.",NUSA TENGGARA TIMUR,,Indonesia,,,,-8.4498862,123.4915954,https://maps.google.com/?cid=0x0:0xb5ffe8755117f411,
perumahan,perumahan,Kec. Buyasari,"Kabupaten Lembata, Nusa Tenggara Tim.","Kabupaten Lembata, Nusa Tenggara Tim.",NUSA TENGGARA TIMUR,,Indonesia,,,,-8.2341393,123.7965376,https://maps.google.com/?cid=0x0:0x634360f4156fb87d,
perumahan,Komplek perumahan,Mampir buyasuri Lembata,"RRC2+W35, Mampir, Kec. Buyasari, Kabupaten Lembata, Nusa Tenggara Tim.","Kabupaten Lembata, Nusa Tenggara Tim.",NUSA TENGGARA TIMUR,,Indonesia,,,,-8.1777359,123.8002405,https://maps.google.com/?cid=0x0:0xc7d81f3067fd36be,
perumahan,Komplek perumahan,Rumah Suwardi Hurints,"QQ6P+JGM, Panama, Kec. Buyasari, Kabupaten Lembata, Nusa Tenggara Tim.","Kabupaten Lembata, Nusa Tenggara Tim.",NUSA TENGGARA TIMUR,,Indonesia,,,,-8.2382051,123.7866075,https://maps.google.com/?cid=0x0:0x12e230c2a7e544e3,
perumahan,Komplek perumahan,Lembata buyasuri rumangsamu,"QRJQ+WG3, Kalikur Wl, Kec. Buyasari, Kabupaten Lembata, Nusa Tenggara Tim.","Kabupaten Lembata, Nusa Tenggara Tim.",NUSA TENGGARA TIMUR,,Indonesia,,,,-8.2177351,123.8388009,https://maps.google.com/?cid=0x0:0x5c4d4773193c7ce8,
perumahan,Perumahan,Uyaraiq Kampung Baru,"QRX8+WQ, Umaleu, Kec. Buyasari, Kabupaten Lembata, Nusa Tenggara Tim.","Kabupaten Lembata, Nusa Tenggara Tim.",NUSA TENGGARA TIMUR,,Indonesia,,,,-8.2002673,123.8169282,https://maps.google.com/?cid=0x0:0x3a8ba1e9e2d6f124,
perumahan,Pertanian,Loyobohor,"QRJ7+8X7, Leuburi, Kec. Buyasari, Kabupaten Lembata, Nusa Tenggara Tim.","Kabupaten Lembata, Nusa Tenggara Tim.",NUSA TENGGARA TIMUR,,Indonesia,,,,-8.2192221,123.8149366,https://maps.google.com/?cid=0x0:0xefef752cb270094f,
perumahan,Komplek perumahan,Rumah. Phyo Bala.,"RQFW+73, Mampir, Kec. Buyasari, Kabupaten Lembata, Nusa Tenggara Tim.","Kabupaten Lembata, Nusa Tenggara Tim.",NUSA TENGGARA TIMUR,,Indonesia,,,,-8.1767991,123.7952304,https://maps.google.com/?cid=0x0:0xef014f48e23dd498,
perumahan,Perhimpunan Pengembang Perumahan,Rumah Phyus Lokang,"QQ7P+782, Panama, Kec. Buyasari, Kabupaten Lembata, Nusa Tenggara Tim.","Kabupaten Lembata, Nusa Tenggara Tim.",NUSA TENGGARA TIMUR,,Indonesia,,,,-8.2368662,123.7857777,https://maps.google.com/?cid=0x0:0xd9a083973dca8b5b,
perumahan,Komplek perumahan,Muis Usman,"RR76+6V2, Buriwutung, Kec. Buyasari, Kabupaten Lembata, Nusa Tenggara Tim.","Kabupaten Lembata, Nusa Tenggara Tim.",NUSA TENGGARA TIMUR,,Indonesia,,,,-8.1869826,123.8121279,https://maps.google.com/?cid=0x0:0x8e62636308f082c5,
perumahan,Komplek perumahan,rumah ching pasker,"RQCX+R59, Unnamed Road, Buriwutung, Kec. Buyasari, Kabupaten Lembata, Nusa Tenggara Tim.","Kabupaten Lembata, Nusa Tenggara Tim.",NUSA TENGGARA TIMUR,,Indonesia,,,,-8.1779584,123.7979952,https://maps.google.com/?cid=0x0:0x7a8dc8309c6e9d08,
perumahan,Komplek perumahan,Rmh. Yota Liarian,"RR76+3JF, Buriwutung, Kec. Buyasari, Kabupaten Lembata, Nusa Tenggara Tim.","Kabupaten Lembata, Nusa Tenggara Tim.",NUSA TENGGARA TIMUR,,Indonesia,,,,-8.1877145,123.8116425,https://maps.google.com/?cid=0x0:0x8a405d8cb0855a38,
perumahan,Komplek perumahan,Rumah,"RR85+7WJ, Buriwutung, Kec. Buyasari, Kabupaten Lembata, Nusa Tenggara Tim.","Kabupaten Lembata, Nusa Tenggara Tim.",NUSA TENGGARA TIMUR,,Indonesia,,,,-8.1842886,123.8097603,https://maps.google.com/?cid=0x0:0x75f8404c17d9c27a,
perumahan,Komplek perumahan,Leuobi Hendro Home,"QRF6+JVG Lorong Pustu, Roho, Kec. Buyasari, Kabupaten Lembata, Nusa Tenggara Tim.","Kabupaten Lembata, Nusa Tenggara Tim.",NUSA TENGGARA TIMUR,,Indonesia,,,,-8.225949,123.8121916,https://maps.google.com/?cid=0x0:0x8033e33ab81ecbca,
perumahan,Komplek perumahan,Rumah ayu lay,"QQ6R+9V8, Benihading II, Kec. Buyasari, Kabupaten Lembata, Nusa Tenggara Tim.","Kabupaten Lembata, Nusa Tenggara Tim.",NUSA TENGGARA TIMUR,,Indonesia,,,,-8.2390811,123.7921925,https://maps.google.com/?cid=0x0:0xbf5bea62ecc073d1,
perumahan,Komplek perumahan,Rumah Pablo,"QQ6R+PFH, Benihading II, Kec. Buyasari, Kabupaten Lembata, Nusa Tenggara Tim.","Kabupaten Lembata, Nusa Tenggara Tim.",NUSA TENGGARA TIMUR,,Indonesia,,,,-8.2381811,123.7912192,https://maps.google.com/?cid=0x0:0x3f85ebf811c60b,
perumahan,Komplek perumahan,Rino,"RR75+WQW, Buriwutung, Kec. Buyasari, Kabupaten Lembata, Nusa Tenggara Tim.","Kabupaten Lembata, Nusa Tenggara Tim.",NUSA TENGGARA TIMUR,,Indonesia,,,,-8.1851096,123.809491,https://maps.google.com/?cid=0x0:0x4f8d42f25e3a0a59,
perumahan,perumahan,Leuwutung,"RR58+8QP, Umaleu, Kec. Buyasari, Kabupaten Lembata, Nusa Tenggara Tim.","Kabupaten Lembata, Nusa Tenggara Tim.",NUSA TENGGARA TIMUR,,Indonesia,,,,-8.1913143,123.8174083,https://maps.google.com/?cid=0x0:0xea952d2150cd51fc,
perumahan,Gedung Apartemen,HARIS HASAN HOUSE,"RR2H+2M4, Kalikur Wl, Kec. Buyasari, Kabupaten Lembata, Nusa Tenggara Tim.","Kabupaten Lembata, Nusa Tenggara Tim.",NUSA TENGGARA TIMUR,,Indonesia,,,,-8.2000507,123.829788,https://maps.google.com/?cid=0x0:0xddbef0915258abbe,
perumahan,Komplek perumahan,LRaudio_Home,"RR76+9G5, Umaleu, Kec. Buyasari, Kabupaten Lembata, Nusa Tenggara Tim.","Kabupaten Lembata, Nusa Tenggara Tim.",NUSA TENGGARA TIMUR,,Indonesia,,,,-8.186618,123.8113534,https://maps.google.com/?cid=0x0:0x3c810d36b43b18b9,
perumahan,Komplek perumahan,Rumah Glen wayan,"QQ6R+3CP, Benihading II, Kec. Buyasari, Kabupaten Lembata, Nusa Tenggara Tim.","Kabupaten Lembata, Nusa Tenggara Tim.",NUSA TENGGARA TIMUR,,Indonesia,,,,-8.2397981,123.7910683,https://maps.google.com/?cid=0x0:0x2fb02c6c762ceb9b,
perumahan,Komplek perumahan,peumole,"QQ6R+9V8, Benihading II, Kec. Buyasari, Kabupaten Lembata, Nusa Tenggara Tim.","Kabupaten Lembata, Nusa Tenggara Tim.",NUSA TENGGARA TIMUR,,Indonesia,,,,-8.2390811,123.7921926,https://maps.google.com/?cid=0x0:0xd4614ca34d1b36d,
perumahan,Komplek perumahan,"Umawala, Desa Umaleu","Unnamed Road, Umaleu, Kec. Buyasari, Kabupaten Lembata, Nusa Tenggara Tim.","Kabupaten Lembata, Nusa Tenggara Tim.",NUSA TENGGARA TIMUR,,Indonesia,,,,-8.1892233,123.8126058,https://maps.google.com/?cid=0x0:0x835e16f2ddd37dab,
perumahan,Komplek perumahan,Onis Khoraryanz,"RQCW+XX2, Mampir, Kec. Buyasari, Kabupaten Lembata, Nusa Tenggara Tim.","Kabupaten Lembata, Nusa Tenggara Tim.",NUSA TENGGARA TIMUR,,Indonesia,,,,-8.1786032,123.7967446,https://maps.google.com/?cid=0x0:0xa2f26dc655b38a10,
perumahan,Komplek perumahan,Rumah Sopir Jeni,"RQGC+H4C, Kalikur, Kec. Buyasari, Kabupaten Lembata, Nusa Tenggara Tim.","Kabupaten Lembata, Nusa Tenggara Tim.",NUSA TENGGARA TIMUR,,Indonesia,,,,-8.1735617,123.7702564,https://maps.google.com/?cid=0x0:0x8884b5ba195446fc,
perumahan,Ahli Gizi,Balai Posiyandu,"RQG9+9WP, Bareng, Kec. Buyasari, Kabupaten Lembata, Nusa Tenggara Tim.","Kabupaten Lembata, Nusa Tenggara Tim.",NUSA TENGGARA TIMUR,,Indonesia,,,,-8.1740497,123.7698249,https://maps.google.com/?cid=0x0:0x5ac476e5f6bf6092,
perumahan,Komplek perumahan,Bos Presiden Buriwutung,"RR76+6WR, Buriwutung, Kec. Buyasari, Kabupaten Lembata, Nusa Tenggara Tim.","Kabupaten Lembata, Nusa Tenggara Tim.",NUSA TENGGARA TIMUR,,Indonesia,,,,-8.1872292,123.81247,https://maps.google.com/?cid=0x0:0xf538105edec87c99,
perumahan,Komplek perumahan,Kios abu dula,"QR93+6MJ, Atulaleng, Kec. Buyasari, Kabupaten Lembata, Nusa Tenggara Tim.","Kabupaten Lembata, Nusa Tenggara Tim.",NUSA TENGGARA TIMUR,,Indonesia,,,,-8.2319071,123.8041343,https://maps.google.com/?cid=0x0:0x80ac2124648ec892,
perumahan,perumahan,Kec. Ile Ape,"Kabupaten Lembata, Nusa Tenggara Tim.","Kabupaten Lembata, Nusa Tenggara Tim.",NUSA TENGGARA TIMUR,,Indonesia,,,,-8.2710158,123.4600712,https://maps.google.com/?cid=0x0:0x326d060bf93304cb,
perumahan,Pembangunan Perumahan,PODU (KOMPLEKS PERUMAHAN BARU) ILEAPE,"PF82+JHW, Waowala, Kec. Ile Ape, Kabupaten Lembata, Nusa Tenggara Tim.","Kabupaten Lembata, Nusa Tenggara Tim.",NUSA TENGGARA TIMUR,,Indonesia,,,,-8.2833962,123.4514463,https://maps.google.com/?cid=0x0:0xbb150bdfb9cc0cc9,
perumahan,Komplek perumahan,Relokasi perumahan podu,"JFX8+H48 nomor rumah 3, Relokasi perumahan podu, Muruona, Kec. Ile Ape, Kabupaten Lembata, Nusa Tenggara Tim.","Kabupaten Lembata, Nusa Tenggara Tim.",NUSA TENGGARA TIMUR,,Indonesia,,,,-8.3510838,123.4653155,https://maps.google.com/?cid=0x0:0xabfbc5510d66f0fc,
perumahan,Komplek perumahan,Lamawara Ileape,"PFVF+8PC, Lamawara, Kec. Ile Ape, Kabupaten Lembata, Nusa Tenggara Tim.","Kabupaten Lembata, Nusa Tenggara Tim.",NUSA TENGGARA TIMUR,,Indonesia,,,,-8.2566805,123.4742589,https://maps.google.com/?cid=0x0:0x67343f8cc5e26ff8,
perumahan,Pembangunan Perumahan,Nama Waimatan,"QF5X+9R4, Napasabok, Kec. Ile Ape, Kabupaten Lembata, Nusa Tenggara Tim.","Kabupaten Lembata, Nusa Tenggara Tim.",NUSA TENGGARA TIMUR,,Indonesia,,,,-8.2416128,123.4995906,https://maps.google.com/?cid=0x0:0x932bcd3d195c218f,
perumahan,perumahan,Hafidz Al-Floresi HOME,"Kampung Al-Muhajirun No.2, RT./RW:/RW.01/01, :Waowala, Kec. Ile Ape, Kabupaten Lembata, Nusa Tenggara Tim.","Kabupaten Lembata, Nusa Tenggara Tim.",NUSA TENGGARA TIMUR,,Indonesia,,,,-8.277466,123.4464238,https://maps.google.com/?cid=0x0:0x77fd4cb729467a8f,
perumahan,perumahan,NANGKA-HOME,"MFX2+GG8, Petuntawa, Kec. Ile Ape, Kabupaten Lembata, Nusa Tenggara Tim.","Kabupaten Lembata, Nusa Tenggara Tim.",NUSA TENGGARA TIMUR,,Indonesia,,,,-8.3012156,123.4516931,https://maps.google.com/?cid=0x0:0xad0183e6cfdedc81,
perumahan,Kantor Pemerintah,Desa laranwutun,"MFG9+98X, Laranwuntun, Kec. Ile Ape, Kabupaten Lembata, Nusa Tenggara Tim.","Kabupaten Lembata, Nusa Tenggara Tim.",NUSA TENGGARA TIMUR,,Indonesia,,,,-8.3247017,123.4685898,https://maps.google.com/?cid=0x0:0x3de0ab6e0a39275d,
perumahan,Rumah Mahyong,Rumah Sole Matarau,"MG82+H72, Watodiri, Kec. Ile Ape, Kabupaten Lembata, Nusa Tenggara Tim.","Kabupaten Lembata, Nusa Tenggara Tim.",NUSA TENGGARA TIMUR,,Indonesia,82284410692.0,,,-8.3331964,123.5023962,https://maps.google.com/?cid=0x0:0x53d24a9b5b15e5d,
perumahan,perumahan,RUMAH MS PURAP (AHO LAMAKEM),"PFH6+836, Waowala, Kec. Ile Ape, Kabupaten Lembata, Nusa Tenggara Tim.","Kabupaten Lembata, Nusa Tenggara Tim.",NUSA TENGGARA TIMUR,,Indonesia,,,,-8.2718367,123.4600083,https://maps.google.com/?cid=0x0:0x1254c521c8db32be,
perumahan,Pembangunan Perumahan,RH-TANAH MERAH 294,"MF2F+Q5P, Jl. Ring Ileape, Muruona, Kec. Ile Ape, Kabupaten Lembata, Nusa Tenggara Tim.","Kabupaten Lembata, Nusa Tenggara Tim.",NUSA TENGGARA TIMUR,,Indonesia,,,,-8.3480293,123.4729664,https://maps.google.com/?cid=0x0:0xc470d1274db9a2be,
perumahan,Pembangunan Perumahan,Nara Karnolius,"MFX2+XP4, Petuntawa, Kec. Ile Ape, Kabupaten Lembata, Nusa Tenggara Tim.","Kabupaten Lembata, Nusa Tenggara Tim.",NUSA TENGGARA TIMUR,,Indonesia,,,,-8.3001146,123.4518358,https://maps.google.com/?cid=0x0:0x4413a4120dfdfb3c,
perumahan,Komplek perumahan,Nurhayati The Penthouse,"P9GV+W6G, Dulitukan, Kec. Ile Ape, Kabupaten Lembata, Nusa Tenggara Tim.","Kabupaten Lembata, Nusa Tenggara Tim.",NUSA TENGGARA TIMUR,,Indonesia,,,,-8.2726884,123.3930873,https://maps.google.com/?cid=0x0:0xb446092fefe7a25e,
perumahan,Komplek perumahan,waowala,"PF62+623, Waowala, Kec. Ile Ape, Kabupaten Lembata, Nusa Tenggara Tim.","Kabupaten Lembata, Nusa Tenggara Tim.",NUSA TENGGARA TIMUR,,Indonesia,,,,-8.2894814,123.4500476,https://maps.google.com/?cid=0x0:0x31ac66cb88370694,
perumahan,Gedung Apartemen,Rumah Amy Uak,"JFWC+82P, Jalan, Ring, Ile Ape, Lembata Regency, East Nusa Tenggara","Kabupaten Lembata, Nusa Tenggara Tim.",NUSA TENGGARA TIMUR,,Indonesia,,,,-8.3541623,123.4700897,https://maps.google.com/?cid=0x0:0x5e5f2a2b0beee872,
perumahan,Pembangunan Perumahan,Tanah Merah,"MF3F+X47, Muruona, Kec. Ile Ape, Kabupaten Lembata, Nusa Tenggara Tim.","Kabupaten Lembata, Nusa Tenggara Tim.",NUSA TENGGARA TIMUR,,Indonesia,,,,-8.3450938,123.4727879,https://maps.google.com/?cid=0x0:0x8326e5dd3713817b,
perumahan,Komplek perumahan,ORANG DULITUKAN,"P9GR+JF8, Dulitukan, Kec. Ile Ape, Kabupaten Lembata, Nusa Tenggara Tim.","Kabupaten Lembata, Nusa Tenggara Tim.",NUSA TENGGARA TIMUR,,Indonesia,,,,-8.2734641,123.3912106,https://maps.google.com/?cid=0x0:0x775a8f515a0c229f,
perumahan,Komplek perumahan,Rumah,"MFP5+C64, Jl. Ring Ileape, Kolontobo, Kec. Ile Ape, Kabupaten Lembata, Nusa Tenggara Tim.","Kabupaten Lembata, Nusa Tenggara Tim.",NUSA TENGGARA TIMUR,,Indonesia,,,,-8.3140348,123.4581088,https://maps.google.com/?cid=0x0:0x5147c07a63e8711e,
perumahan,Pembangunan Perumahan,RH -PODU 262,"PF82+JVQ, Jl. Ring Ileape, Waowala, Kec. Ile Ape, Kabupaten Lembata, Nusa Tenggara Tim.","Kabupaten Lembata, Nusa Tenggara Tim.",NUSA TENGGARA TIMUR,,Indonesia,,,,-8.2834235,123.4522246,https://maps.google.com/?cid=0x0:0x489fc411ff7ab4c2,
perumahan,Komplek perumahan,Adipati Home,"MFCG+6JG, Laranwuntun, Kec. Ile Ape, Kabupaten Lembata, Nusa Tenggara Tim.","Kabupaten Lembata, Nusa Tenggara Tim.",NUSA TENGGARA TIMUR,,Indonesia,82236398434.0,,,-8.3288614,123.4767649,https://maps.google.com/?cid=0x0:0x2f693b7977770e41,
perumahan,Pembangunan Perumahan,RH-WAESESA,"PC5Q+R92, Unnamed Road, Waowala, Kec. Ile Ape, Kabupaten Lembata, Nusa Tenggara Tim.","Kabupaten Lembata, Nusa Tenggara Tim.",NUSA TENGGARA TIMUR,,Indonesia,,,,-8.290488,123.43838,https://maps.google.com/?cid=0x0:0x4d490ca2b1006866,
perumahan,Komplek perumahan,Ano Domaking,"MF6M+FW, Muruona, Kec. Ile Ape, Kabupaten Lembata, Nusa Tenggara Tim.","Kabupaten Lembata, Nusa Tenggara Tim.",NUSA TENGGARA TIMUR,,Indonesia,,,,-8.3388703,123.4848331,https://maps.google.com/?cid=0x0:0x31ce0b5195611963,
perumahan,Komplek perumahan,Rumah Al mirsa daud,"P9GC+7J6, Palilolon, Kec. Ile Ape, Kabupaten Lembata, Nusa Tenggara Tim.","Kabupaten Lembata, Nusa Tenggara Tim.",NUSA TENGGARA TIMUR,,Indonesia,,,,-8.2743368,123.3715085,https://maps.google.com/?cid=0x0:0xbf8a6b4bc769d6f7,
perumahan,Pembangunan Perumahan,Anggur Merah Complex,"MFP4+2VX, Kolontobo, Kec. Ile Ape, Kabupaten Lembata, Nusa Tenggara Tim.","Kabupaten Lembata, Nusa Tenggara Tim.",NUSA TENGGARA TIMUR,,Indonesia,,,,-8.3148809,123.4572483,https://maps.google.com/?cid=0x0:0x79172330fe3cea5f,
perumahan,Komplek perumahan,Irto matarau,"MF9F+RW5, Laranwuntun, Kec. Ile Ape, Kabupaten Lembata, Nusa Tenggara Tim.","Kabupaten Lembata, Nusa Tenggara Tim.",NUSA TENGGARA TIMUR,,Indonesia,,,,-8.3304817,123.4748707,https://maps.google.com/?cid=0x0:0x43ad6cec69aa25ff,
perumahan,Komplek perumahan,Gusty Wtw,"PFJ8+8G2, Jl. Ring Ileape, Tj. Batu, Kec. Ile Ape, Kabupaten Lembata, Nusa Tenggara Tim.","Kabupaten Lembata, Nusa Tenggara Tim.",NUSA TENGGARA TIMUR,,Indonesia,,,,-8.2692467,123.4663139,https://maps.google.com/?cid=0x0:0x14ef6ed725e4cc5b,
perumahan,Komplek perumahan,Rumah Fransiskus Soba,"MG82+H72, Watodiri, Kec. Ile Ape, Kabupaten Lembata, Nusa Tenggara Tim.","Kabupaten Lembata, Nusa Tenggara Tim.",NUSA TENGGARA TIMUR,,Indonesia,,,,-8.332299,123.502017,https://maps.google.com/?cid=0x0:0x92cf8ad91ca18e4,
perumahan,Komplek perumahan,Relokasi Waesesa,"PC5P+QQ9, Waowala, Kec. Ile Ape, Kabupaten Lembata, Nusa Tenggara Tim.","Kabupaten Lembata, Nusa Tenggara Tim.",NUSA TENGGARA TIMUR,,Indonesia,,,,-8.2905752,123.4369724,https://maps.google.com/?cid=0x0:0xed407dd1757c0761,
perumahan,perumahan,Kec. Ile Ape Tim.,"Kabupaten Lembata, Nusa Tenggara Tim.","Kabupaten Lembata, Nusa Tenggara Tim.",NUSA TENGGARA TIMUR,,Indonesia,,,,-8.258433,123.5466807,https://maps.google.com/?cid=0x0:0x77a0f208453323a,
perumahan,Pembangunan Perumahan,PODU (KOMPLEKS PERUMAHAN BARU) ILEAPE,"PF82+JHW, Waowala, Kec. Ile Ape, Kabupaten Lembata, Nusa Tenggara Tim.","Kabupaten Lembata, Nusa Tenggara Tim.",NUSA TENGGARA TIMUR,,Indonesia,,,,-8.2833962,123.4514463,https://maps.google.com/?cid=0x0:0xbb150bdfb9cc0cc9,
perumahan,perumahan,Mateus Dua Kokomaking,"PGXX+82H, Lamatokan, Kec. Ile Ape Tim., Kabupaten Lembata, Nusa Tenggara Tim.","Kabupaten Lembata, Nusa Tenggara Tim.",NUSA TENGGARA TIMUR,,Indonesia,,,,-8.2516846,123.5476079,https://maps.google.com/?cid=0x0:0x590bf35b8b7c2d8a,
perumahan,Pembangunan Perumahan,Nama Waimatan,"QF5X+9R4, Napasabok, Kec. Ile Ape, Kabupaten Lembata, Nusa Tenggara Tim.","Kabupaten Lembata, Nusa Tenggara Tim.",NUSA TENGGARA TIMUR,,Indonesia,,,,-8.2416128,123.4995906,https://maps.google.com/?cid=0x0:0x932bcd3d195c218f,
perumahan,Pembangunan Perumahan,Suku Witak,"QG69+J3F, Lamagute, Kec. Ile Ape Tim., Kabupaten Lembata, Nusa Tenggara Tim.","Kabupaten Lembata, Nusa Tenggara Tim.",NUSA TENGGARA TIMUR,,Indonesia,,,,-8.238356,123.518238,https://maps.google.com/?cid=0x0:0x4b6f60bbc1bd5b68,
perumahan,Komplek perumahan,Lamawara Ileape,"PFVF+8PC, Lamawara, Kec. Ile Ape, Kabupaten Lembata, Nusa Tenggara Tim.","Kabupaten Lembata, Nusa Tenggara Tim.",NUSA TENGGARA TIMUR,,Indonesia,,,,-8.2566805,123.4742589,https://maps.google.com/?cid=0x0:0x67343f8cc5e26ff8,
perumahan,Pembangunan Perumahan,Nara Karnolius,"MFX2+XP4, Petuntawa, Kec. Ile Ape, Kabupaten Lembata, Nusa Tenggara Tim.","Kabupaten Lembata, Nusa Tenggara Tim.",NUSA TENGGARA TIMUR,,Indonesia,,,,-8.3001146,123.4518358,https://maps.google.com/?cid=0x0:0x4413a4120dfdfb3c,
perumahan,Pembangunan Perumahan,Perumahan podu,"PC5V+6H4 Rumah Aci Pitumaking, Waowala, Kec. Ile Ape, Kabupaten Lembata, Nusa Tenggara Tim.","Kabupaten Lembata, Nusa Tenggara Tim.",NUSA TENGGARA TIMUR,,Indonesia,,,,-8.291996,123.4439588,https://maps.google.com/?cid=0x0:0x410289c8828178f,
perumahan,Sekolah,Desa lamatokan,"PGXX+82H, Lamatokan, Kec. Ile Ape Tim., Kabupaten Lembata, Nusa Tenggara Tim.","Kabupaten Lembata, Nusa Tenggara Tim.",NUSA TENGGARA TIMUR,,Indonesia,,,,-8.2516846,123.5476079,https://maps.google.com/?cid=0x0:0xe2a4f81024597f3e,
perumahan,Komplek perumahan,Rm.Marselinus P. Lewotobi,"PGQW+GM8, Jl. Ring Ileape, Lamatokan, Kec. Ile Ape Tim., Kabupaten Lembata, Nusa Tenggara Tim.","Kabupaten Lembata, Nusa Tenggara Tim.",NUSA TENGGARA TIMUR,,Indonesia,82147225329.0,,,-8.2612195,123.5464773,https://maps.google.com/?cid=0x0:0x13e0dfd67ac3165c,
perumahan,Komplek perumahan,Rumah Ari purek,"QG6P+324, Lamaau, Kec. Ile Ape Tim., Kabupaten Lembata, Nusa Tenggara Tim.","Kabupaten Lembata, Nusa Tenggara Tim.",NUSA TENGGARA TIMUR,,Indonesia,,,,-8.2398773,123.5350947,https://maps.google.com/?cid=0x0:0x2e101dba106964e7,
perumahan,Komplek perumahan,Rumah Fransiskus Soba,"MG82+H72, Watodiri, Kec. Ile Ape, Kabupaten Lembata, Nusa Tenggara Tim.","Kabupaten Lembata, Nusa Tenggara Tim.",NUSA TENGGARA TIMUR,,Indonesia,,,,-8.332299,123.502017,https://maps.google.com/?cid=0x0:0x92cf8ad91ca18e4,
perumahan,Komplek perumahan,rumah sili petrus,"MFH9+2XC, Laranwuntun, Kec. Ile Ape, Kabupaten Lembata, Nusa Tenggara Tim.","Kabupaten Lembata, Nusa Tenggara Tim.",NUSA TENGGARA TIMUR,,Indonesia,,,,-8.3216955,123.4708343,https://maps.google.com/?cid=0x0:0x927eab63dce58f81,
perumahan,Komplek perumahan,Adipati Home,"MFCG+6JG, Laranwuntun, Kec. Ile Ape, Kabupaten Lembata, Nusa Tenggara Tim.","Kabupaten Lembata, Nusa Tenggara Tim.",NUSA TENGGARA TIMUR,,Indonesia,82236398434.0,,,-8.3288614,123.4767649,https://maps.google.com/?cid=0x0:0x2f693b7977770e41,
perumahan,Komplek perumahan,Irto matarau,"MF9F+RW5, Laranwuntun, Kec. Ile Ape, Kabupaten Lembata, Nusa Tenggara Tim.","Kabupaten Lembata, Nusa Tenggara Tim.",NUSA TENGGARA TIMUR,,Indonesia,,,,-8.3304817,123.4748707,https://maps.google.com/?cid=0x0:0x43ad6cec69aa25ff,
perumahan,Komplek perumahan,Rumah,"MFP5+C64, Jl. Ring Ileape, Kolontobo, Kec. Ile Ape, Kabupaten Lembata, Nusa Tenggara Tim.","Kabupaten Lembata, Nusa Tenggara Tim.",NUSA TENGGARA TIMUR,,Indonesia,,,,-8.3140348,123.4581088,https://maps.google.com/?cid=0x0:0x5147c07a63e8711e,
perumahan,Perhimpunan Pengembang Perumahan,Kompleks gega sili,"MGR9+86W, Jontona, Kec. Ile Ape Tim., Kabupaten Lembata, Nusa Tenggara Tim.","Kabupaten Lembata, Nusa Tenggara Tim.",NUSA TENGGARA TIMUR,,Indonesia,,,,-8.3093879,123.5180881,https://maps.google.com/?cid=0x0:0x5e5ebdc85a8e48e5,
perumahan,Perhimpunan Pengembang Perumahan,kasminUran,"QG6J+9HF timur ape ile, Lamaau, Kec. Ile Ape Tim., Kabupaten Lembata, Nusa Tenggara Tim. 86683","Lamaau, Kec. Ile Ape Tim., Kabupaten Lembata",NUSA TENGGARA TIMUR,86683.0,Indonesia,,,,-8.2390582,123.5314185,https://maps.google.com/?cid=0x0:0xfa21fe2e59d9685f,
perumahan,perumahan,MAHAPATY ANISA ü¶ã,"PGH3+5XX Perumahan LEWOTOLOK, Lamagute, Kec. Ile Ape, Kabupaten Lembata, Nusa Tenggara Tim.","Kabupaten Lembata, Nusa Tenggara Tim.",NUSA TENGGARA TIMUR,,Indonesia,,,,-8.272,123.505,https://maps.google.com/?cid=0x0:0x5314498a6dcddfbd,
perumahan,Komplek perumahan,Rumah Mas IrengK,"MGR9+G73, Jontona, Kec. Ile Ape Tim., Kabupaten Lembata, Nusa Tenggara Tim.","Kabupaten Lembata, Nusa Tenggara Tim.",NUSA TENGGARA TIMUR,,Indonesia,,,,-8.3087284,123.5181716,https://maps.google.com/?cid=0x0:0xe3ed596a050328b3,
perumahan,perumahan,RUMAH MS PURAP (AHO LAMAKEM),"PFH6+836, Waowala, Kec. Ile Ape, Kabupaten Lembata, Nusa Tenggara Tim.","Kabupaten Lembata, Nusa Tenggara Tim.",NUSA TENGGARA TIMUR,,Indonesia,,,,-8.2718367,123.4600083,https://maps.google.com/?cid=0x0:0x1254c521c8db32be,
perumahan,perumahan,Hafidz Al-Floresi HOME,"Kampung Al-Muhajirun No.2, RT./RW:/RW.01/01, :Waowala, Kec. Ile Ape, Kabupaten Lembata, Nusa Tenggara Tim.","Kabupaten Lembata, Nusa Tenggara Tim.",NUSA TENGGARA TIMUR,,Indonesia,,,,-8.277466,123.4464238,https://maps.google.com/?cid=0x0:0x77fd4cb729467a8f,
perumahan,perumahan,NANGKA-HOME,"MFX2+GG8, Petuntawa, Kec. Ile Ape, Kabupaten Lembata, Nusa Tenggara Tim.","Kabupaten Lembata, Nusa Tenggara Tim.",NUSA TENGGARA TIMUR,,Indonesia,,,,-8.3012156,123.4516931,https://maps.google.com/?cid=0x0:0xad0183e6cfdedc81,
perumahan,Pembangunan Perumahan,Rumah jhonta wtn,"PGQW+GM8, Jl. Ring Ileape, Lamatokan, Kec. Ile Ape Tim., Kabupaten Lembata, Nusa Tenggara Tim.","Kabupaten Lembata, Nusa Tenggara Tim.",NUSA TENGGARA TIMUR,,Indonesia,,,,-8.2619392,123.5449693,https://maps.google.com/?cid=0x0:0x8be00e80df1e088d,
perumahan,Komplek perumahan,Crathon Making,"QG5R+HHV, Lamaau, Kec. Ile Ape Tim., Kabupaten Lembata, Nusa Tenggara Tim.","Kabupaten Lembata, Nusa Tenggara Tim.",NUSA TENGGARA TIMUR,,Indonesia,,,,-8.2410012,123.5414326,https://maps.google.com/?cid=0x0:0x2d0ffdabf24f3c82,
perumahan,Perhimpunan Pengembang Perumahan,Rumah Beda Balawangak,"MGV9+HP, Jontona, Kec. Ile Ape Tim., Kabupaten Lembata, Nusa Tenggara Tim.","Kabupaten Lembata, Nusa Tenggara Tim.",NUSA TENGGARA TIMUR,,Indonesia,,,,-8.3060985,123.5192663,https://maps.google.com/?cid=0x0:0x97c8129cec4ed8ef,
perumahan,perumahan,Kec. Lebatukan,"Kabupaten Lembata, Nusa Tenggara Tim.","Kabupaten Lembata, Nusa Tenggara Tim.",NUSA TENGGARA TIMUR,,Indonesia,,,,-8.3697073,123.54609,https://maps.google.com/?cid=0x0:0xa62ae0579a3a3f13,
perumahan,Komplek perumahan,Lamahora Timur,"RW No.08 RT37, Lewoleba Tim., Kec. Nubatukan, Kabupaten Lembata, Nusa Tenggara Tim.","Kabupaten Lembata, Nusa Tenggara Tim.",NUSA TENGGARA TIMUR,,Indonesia,,,,-8.3664768,123.4499699,https://maps.google.com/?cid=0x0:0xbf0fcdab20e17a15,
perumahan,Komplek perumahan,Griya Lamahora,"JFP6+X32, Lamahora Timur, Lewoleba Tim., Kec. Nubatukan, Kabupaten Lembata, Nusa Tenggara Tim.","Kabupaten Lembata, Nusa Tenggara Tim.",NUSA TENGGARA TIMUR,,Indonesia,81353140969.0,,,-8.3626083,123.4601377,https://maps.google.com/?cid=0x0:0x12a911f02be50ad,
perumahan,perumahan,Narda Home,"JHF3+W3X, Hadakewa, Kec. Lebatukan, Kabupaten Lembata, Nusa Tenggara Tim.","Kabupaten Lembata, Nusa Tenggara Tim.",NUSA TENGGARA TIMUR,,Indonesia,,,,-8.375143,123.552728,https://maps.google.com/?cid=0x0:0x4d9485d21b7a1e5a,
perumahan,perumahan,Rakka,"JGQ3+M56, Baopana, Kec. Lebatukan, Kabupaten Lembata, Nusa Tenggara Tim.","Kabupaten Lembata, Nusa Tenggara Tim.",NUSA TENGGARA TIMUR,,Indonesia,,,,-8.3602757,123.5020405,https://maps.google.com/?cid=0x0:0xc9f4134e110a3752,
perumahan,Pembangunan Perumahan,Rumah EBYT,"Jl No.1, RT./RW/RW.001, 001, Atakowa, Kec. Lebatukan, Kabupaten Lembata, Nusa Tenggara Tim. 86681","RT./RW/RW.001, 001, Atakowa, Kec. Lebatukan, Kabupaten Lembata",NUSA TENGGARA TIMUR,86681.0,Indonesia,,,,-8.3380407,123.6390275,https://maps.google.com/?cid=0x0:0xe089421422fcc26b,
perumahan,Komplek perumahan,Yanto Ruing,"JFPW+2JH, Lamatuka, Kec. Lebatukan, Kabupaten Lembata, Nusa Tenggara Tim.","Kabupaten Lembata, Nusa Tenggara Tim.",NUSA TENGGARA TIMUR,,Indonesia,,,,-8.364952,123.496579,https://maps.google.com/?cid=0x0:0xb6e6ef53e8c27438,
perumahan,Komplek perumahan,RUMAH JUNIOR PANDILA,"Jl No.1, RT./RW/RW.001, 001, Atakowa, Kec. Lebatukan, Kabupaten Lembata, Nusa Tenggara Tim. 86681","RT./RW/RW.001, 001, Atakowa, Kec. Lebatukan, Kabupaten Lembata",NUSA TENGGARA TIMUR,86681.0,Indonesia,,,,-8.3379647,123.6393207,https://maps.google.com/?cid=0x0:0xc940ecc543f879be,
perumahan,perumahan,üè° Yohana Nelci Podok Wahon,"JGPG+738, Merdeka, Kec. Lebatukan, Kabupaten Lembata, Nusa Tenggara Tim.","Kabupaten Lembata, Nusa Tenggara Tim.",NUSA TENGGARA TIMUR,,Indonesia,,,,-8.3643906,123.5255068,https://maps.google.com/?cid=0x0:0x3a596f1304490e68,
perumahan,Komplek perumahan,Thomas Ruing,"JHJ5+C36, Hadakewa, Kec. Lebatukan, Kabupaten Lembata, Nusa Tenggara Tim.","Kabupaten Lembata, Nusa Tenggara Tim.",NUSA TENGGARA TIMUR,,Indonesia,,,,-8.3689727,123.557675,https://maps.google.com/?cid=0x0:0x7f5880aa8a8b230,
perumahan,Komplek perumahan,Rumah Guru Randus Kaona,"JFPX+RFC, Baopana, Kec. Lebatukan, Kabupaten Lembata, Nusa Tenggara Tim.","Kabupaten Lembata, Nusa Tenggara Tim.",NUSA TENGGARA TIMUR,,Indonesia,,,,-8.3629911,123.4986206,https://maps.google.com/?cid=0x0:0x222fc0929f50f2ca,
perumahan,perumahan,Rumah Lulu Tukan,"JHJ4+QG8, Jl. Trans Lembata, Hadakewa, Kec. Lebatukan, Kabupaten Lembata, Nusa Tenggara Tim. 86681","Jl. Trans Lembata, Hadakewa, Kec. Lebatukan, Kabupaten Lembata",NUSA TENGGARA TIMUR,86681.0,Indonesia,,,,-8.3680854,123.5563144,https://maps.google.com/?cid=0x0:0xf90f2369493a5f38,
perumahan,perumahan,Rumah Bunga Boleng,"JFM8+WHJ, Lewoleba Tim., Kec. Nubatukan, Kabupaten Lembata, Nusa Tenggara Tim.","Kabupaten Lembata, Nusa Tenggara Tim.",NUSA TENGGARA TIMUR,,Indonesia,,,,-8.3651593,123.466379,https://maps.google.com/?cid=0x0:0x876dd0e0f024264a,
perumahan,Komplek perumahan,Rumah,"JH5X+H2R, Lerahinga, Kec. Lebatukan, Kabupaten Lembata, Nusa Tenggara Tim.","Kabupaten Lembata, Nusa Tenggara Tim.",NUSA TENGGARA TIMUR,,Indonesia,,,,-8.391713,123.5958419,https://maps.google.com/?cid=0x0:0x247d3fa57eac6108,
perumahan,Komplek perumahan,Rafael kupang,"JH5W+C4M, Lamalela, Kec. Lebatukan, Kabupaten Lembata, Nusa Tenggara Tim.","Kabupaten Lembata, Nusa Tenggara Tim.",NUSA TENGGARA TIMUR,,Indonesia,,,,-8.3914162,123.5953046,https://maps.google.com/?cid=0x0:0x21967af823a5a4be,
perumahan,Perhimpunan Pengembang Perumahan,Rumah bapa gute Lengari,"JFPX+9HG Lorong Tua Ta, Lamatuka, Kec. Lebatukan, Kabupaten Lembata, Nusa Tenggara Tim.","Kabupaten Lembata, Nusa Tenggara Tim.",NUSA TENGGARA TIMUR,,Indonesia,,,,-8.3640567,123.4989502,https://maps.google.com/?cid=0x0:0xd269e5fd50f1e399,
perumahan,perumahan,Waienga,"JHMC+Q54, Lerahinga, Kec. Lebatukan, Kabupaten Lembata, Nusa Tenggara Tim.","Kabupaten Lembata, Nusa Tenggara Tim.",NUSA TENGGARA TIMUR,,Indonesia,,,,-8.3656058,123.5704387,https://maps.google.com/?cid=0x0:0x73bcefbb32bdd2b,
perumahan,Pembangunan Perumahan,Perumahan Tanah Putih,"JFM8+WHJ, Lewoleba Tim., Kec. Nubatukan, Kabupaten Lembata, Nusa Tenggara Tim.","Kabupaten Lembata, Nusa Tenggara Tim.",NUSA TENGGARA TIMUR,,Indonesia,,,,-8.3651593,123.466379,https://maps.google.com/?cid=0x0:0x71d76aaa67a06ada,
perumahan,Komplek perumahan,RIAN PUNYA RUMAH,"JHMC+84W, Lerahinga, Kec. Lebatukan, Kabupaten Lembata, Nusa Tenggara Tim.","Kabupaten Lembata, Nusa Tenggara Tim.",NUSA TENGGARA TIMUR,,Indonesia,,,,-8.3666359,123.5703332,https://maps.google.com/?cid=0x0:0x697a39b9a33692ee,
perumahan,Pembangunan Perumahan,GENERASI BANITOBO,"HHRH+MC7, Banitobo, Kec. Lebatukan, Kabupaten Lembata, Nusa Tenggara Tim.","Kabupaten Lembata, Nusa Tenggara Tim.",NUSA TENGGARA TIMUR,,Indonesia,8133849231.0,,,-8.4083322,123.5785616,https://maps.google.com/?cid=0x0:0xefb14915321fb6ec,
perumahan,Komplek perumahan,Lewoeleng,"JFFJ+WWV, Lamatuka, Kec. Lebatukan, Kabupaten Lembata, Nusa Tenggara Tim.","Kabupaten Lembata, Nusa Tenggara Tim.",NUSA TENGGARA TIMUR,,Indonesia,,,,-8.3751312,123.4823082,https://maps.google.com/?cid=0x0:0x578f9b3c20c7035,
perumahan,Komplek perumahan,Takdir Lasar,"JFMV+XX8, Lamatuka, Kec. Lebatukan, Kabupaten Lembata, Nusa Tenggara Tim.","Kabupaten Lembata, Nusa Tenggara Tim.",NUSA TENGGARA TIMUR,,Indonesia,,,,-8.3650594,123.4949696,https://maps.google.com/?cid=0x0:0xbe0caeef2e422222,
perumahan,Komplek perumahan,Whiskey Aquino chuwegkk,"JGHX+RPG, Jl. Trans Lembata, Hadakewa, Kec. Lebatukan, Kabupaten Lembata, Nusa Tenggara Tim.","Kabupaten Lembata, Nusa Tenggara Tim.",NUSA TENGGARA TIMUR,,Indonesia,8127557823.0,,,-8.3704348,123.5493262,https://maps.google.com/?cid=0x0:0xb5c20f29e8f4c091,
perumahan,perumahan,Kec. Naga Wutung,"Kabupaten Lembata, Nusa Tenggara Tim.","Kabupaten Lembata, Nusa Tenggara Tim.",NUSA TENGGARA TIMUR,,Indonesia,,,,-8.4696349,123.2820337,https://maps.google.com/?cid=0x0:0x3bb0d340f794ad8b,
perumahan,perumahan,Nagawutung kabupaten Lembata,"G7JJ+4RX, Duawutun, Kec. Naga Wutung, Kabupaten Lembata, Nusa Tenggara Tim.","Kabupaten Lembata, Nusa Tenggara Tim.",NUSA TENGGARA TIMUR,,Indonesia,,,,-8.4696294,123.2821197,https://maps.google.com/?cid=0x0:0xa7da2c8d3ec81cf6,
perumahan,Komplek perumahan,Lewopenutung,"C9Q3+2HR, Lusiduawutun, Kec. Naga Wutung, Kabupaten Lembata, Nusa Tenggara Tim.","Kabupaten Lembata, Nusa Tenggara Tim.",NUSA TENGGARA TIMUR,,Indonesia,,,,-8.5623792,123.353903,https://maps.google.com/?cid=0x0:0x6235d21211141ad9,
perumahan,Komplek perumahan,Loang nagawutung,"G7HP+87, Duawutun, Kec. Naga Wutung, Kabupaten Lembata, Nusa Tenggara Tim.","Kabupaten Lembata, Nusa Tenggara Tim.",NUSA TENGGARA TIMUR,,Indonesia,,,,-8.4716533,123.2856691,https://maps.google.com/?cid=0x0:0xd254f70678af0bc9,
perumahan,Komplek perumahan,Rumah Kian,"C9Q3+2HR, Lusiduawutun, Kec. Naga Wutung, Kabupaten Lembata, Nusa Tenggara Tim.","Kabupaten Lembata, Nusa Tenggara Tim.",NUSA TENGGARA TIMUR,,Indonesia,,,,-8.5616266,123.3548576,https://maps.google.com/?cid=0x0:0x7fc8592555b3459a,
perumahan,Kantor Pemerintah,"Desa Liwulagang, Kec. Nagawutung, Kabupaten Lembata, NTT","DESA LIWULAGANG, Kec. Naga Wutung, Kabupaten Lembata, Nusa Tenggara Tim.","Kabupaten Lembata, Nusa Tenggara Tim.",NUSA TENGGARA TIMUR,,Indonesia,,,,-8.50031,123.3856813,https://maps.google.com/?cid=0x0:0xfc2e5d2ad1265477,
perumahan,Komplek perumahan,Pesanan Kue Ultah Rynna Punang,"F74F+853, Pasir Putih, Kec. Naga Wutung, Kabupaten Lembata, Nusa Tenggara Tim.","Kabupaten Lembata, Nusa Tenggara Tim.",NUSA TENGGARA TIMUR,,Indonesia,,,,-8.5442393,123.2729138,https://maps.google.com/?cid=0x0:0xc98196a5de5d4113,
perumahan,Komplek perumahan,Chazy Chromen,"F872+8QR, Tewaowutung, Kec. Naga Wutung, Kabupaten Lembata, Nusa Tenggara Tim.","Kabupaten Lembata, Nusa Tenggara Tim.",NUSA TENGGARA TIMUR,,Indonesia,,,,-8.5366297,123.3019014,https://maps.google.com/?cid=0x0:0xa26586414f925651,
perumahan,Komplek perumahan,Rumah andi,"G7JJ+4RX, Duawutun, Kec. Naga Wutung, Kabupaten Lembata, Nusa Tenggara Tim.","Kabupaten Lembata, Nusa Tenggara Tim.",NUSA TENGGARA TIMUR,,Indonesia,,,,-8.4696294,123.2821197,https://maps.google.com/?cid=0x0:0xfc04705ac55361d6,
perumahan,Komplek perumahan,Rumah Eligius L Sura,"F6GX+R2M, Pasir Putih, Kec. Naga Wutung, Kabupaten Lembata, Nusa Tenggara Tim.","Kabupaten Lembata, Nusa Tenggara Tim.",NUSA TENGGARA TIMUR,,Indonesia,,,,-8.5229157,123.2475594,https://maps.google.com/?cid=0x0:0x121432dd34fb1fc5,
perumahan,Komplek perumahan,KELIWON KOMPLEKS,"G7HM+C66, Unnamed Road, Duawutun, Kec. Naga Wutung, Kabupaten Lembata, Nusa Tenggara Tim.","Kabupaten Lembata, Nusa Tenggara Tim.",NUSA TENGGARA TIMUR,,Indonesia,,,,-8.4714513,123.283023,https://maps.google.com/?cid=0x0:0x5e60a3118365bcd1,
perumahan,Komplek perumahan,Pertigaan lorong tengah,"C9Q3+2HR, Lusiduawutun, Kec. Naga Wutung, Kabupaten Lembata, Nusa Tenggara Tim.","Kabupaten Lembata, Nusa Tenggara Tim.",NUSA TENGGARA TIMUR,,Indonesia,,,,-8.5623766,123.3539021,https://maps.google.com/?cid=0x0:0x5d983d376a541532,
perumahan,perumahan,LOANGKAMITA,"G7HM+R32, Duawutun, Kec. Naga Wutung, Kabupaten Lembata, Nusa Tenggara Tim.","Kabupaten Lembata, Nusa Tenggara Tim.",NUSA TENGGARA TIMUR,,Indonesia,,,,-8.470587,123.283628,https://maps.google.com/?cid=0x0:0x794a58c070ef3ffe,
perumahan,Pembangunan Perumahan,Rumah Kel. Keraf,"G7GP+C9C, Duawutun, Kec. Naga Wutung, Kabupaten Lembata, Nusa Tenggara Tim.","Kabupaten Lembata, Nusa Tenggara Tim.",NUSA TENGGARA TIMUR,,Indonesia,,,,-8.4739451,123.2858806,https://maps.google.com/?cid=0x0:0x6756a8dea7fd10b5,
perumahan,Komplek perumahan,Yomminem punang,"F75C+345, Pasir Putih, Kec. Naga Wutung, Kabupaten Lembata, Nusa Tenggara Tim.","Kabupaten Lembata, Nusa Tenggara Tim.",NUSA TENGGARA TIMUR,,Indonesia,,,,-8.5423235,123.2704307,https://maps.google.com/?cid=0x0:0xba992fcec9c45177,
perumahan,Komplek perumahan,Rumah Nano,"F9VF+4VP, Labalimut, Kec. Naga Wutung, Kabupaten Lembata, Nusa Tenggara Tim.","Kabupaten Lembata, Nusa Tenggara Tim.",NUSA TENGGARA TIMUR,,Indonesia,,,,-8.5071625,123.3747031,https://maps.google.com/?cid=0x0:0x6b3c015fbfbfe831,
perumahan,perumahan,ensose-mnk,"C9Q3+2HR, Lusiduawutun, Kec. Naga Wutung, Kabupaten Lembata, Nusa Tenggara Tim.","Kabupaten Lembata, Nusa Tenggara Tim.",NUSA TENGGARA TIMUR,,Indonesia,,,,-8.5620898,123.3550467,https://maps.google.com/?cid=0x0:0x14615e516b55f7c4,
perumahan,perumahan,Awy home,"G7JP+C69, Duawutun, Kec. Naga Wutung, Kabupaten Lembata, Nusa Tenggara Tim.","Kabupaten Lembata, Nusa Tenggara Tim.",NUSA TENGGARA TIMUR,,Indonesia,,,,-8.4705148,123.2851026,https://maps.google.com/?cid=0x0:0x7d8cabf0f43a93e4,
perumahan,Komplek perumahan,Anchyz KreeweelL,"G7HM+XRH, Duawutun, Kec. Naga Wutung, Kabupaten Lembata, Nusa Tenggara Tim.","Kabupaten Lembata, Nusa Tenggara Tim.",NUSA TENGGARA TIMUR,,Indonesia,,,,-8.4700732,123.2846047,https://maps.google.com/?cid=0x0:0xf1de956a97863a82,
perumahan,Komplek perumahan,Rumah Obet Duan,"G86M+5PG, Atawai, Kec. Naga Wutung, Kabupaten Lembata, Nusa Tenggara Tim.","Kabupaten Lembata, Nusa Tenggara Tim.",NUSA TENGGARA TIMUR,,Indonesia,,,,-8.489559,123.3343165,https://maps.google.com/?cid=0x0:0xbe9ad0fc3a30cac3,
perumahan,Pembangunan Perumahan,Yuvenalis Ado,"F9VF+CRG, Puor, Kec. Naga Wutung, Kabupaten Lembata, Nusa Tenggara Tim.","Kabupaten Lembata, Nusa Tenggara Tim.",NUSA TENGGARA TIMUR,,Indonesia,,,,-8.5061942,123.3740792,https://maps.google.com/?cid=0x0:0x1ca2fd78a70f592d,
perumahan,perumahan,Kec. Nubatukan,"Kabupaten Lembata, Nusa Tenggara Tim.","Kabupaten Lembata, Nusa Tenggara Tim.",NUSA TENGGARA TIMUR,,Indonesia,,,,-8.3731739,123.4288459,https://maps.google.com/?cid=0x0:0x5937ac1360822cb3,
perumahan,Komplek perumahan,Rumah Jhevan,"Jl. Trans Lembata No.3, Lewoleba Tim., Kec. Nubatukan, Kabupaten Lembata, Nusa Tenggara Tim. 86616","Lewoleba Tim., Kec. Nubatukan, Kabupaten Lembata",NUSA TENGGARA TIMUR,86616.0,Indonesia,,,,-8.3665019,123.4418075,https://maps.google.com/?cid=0x0:0xb70340eab731e3ff,
perumahan,Komplek perumahan,Rumah Lety,"JCGP+454, Lewoleba Tengah, Kec. Nubatukan, Kabupaten Lembata, Nusa Tenggara Tim.","Kabupaten Lembata, Nusa Tenggara Tim.",NUSA TENGGARA TIMUR,,Indonesia,,,,-8.3747452,123.4354376,https://maps.google.com/?cid=0x0:0xc93d32169ced6a4f,
perumahan,Komplek perumahan,Ilamm home,"JCJG+2RH, Lewoleba Tengah, Kec. Nubatukan, Kabupaten Lembata, Nusa Tenggara Tim.","Kabupaten Lembata, Nusa Tenggara Tim.",NUSA TENGGARA TIMUR,,Indonesia,,,,-8.3699304,123.427106,https://maps.google.com/?cid=0x0:0x6926fbc048f53cf9,
perumahan,Komplek perumahan,Lamahora Timur,"RW No.08 RT37, Lewoleba Tim., Kec. Nubatukan, Kabupaten Lembata, Nusa Tenggara Tim.","Kabupaten Lembata, Nusa Tenggara Tim.",NUSA TENGGARA TIMUR,,Indonesia,,,,-8.3664768,123.4499699,https://maps.google.com/?cid=0x0:0xbf0fcdab20e17a15,
perumahan,Komplek perumahan,Rumah Jeepo,"JCG8+QPR, Lewoleba Utara, Kec. Nubatukan, Kabupaten Lembata, Nusa Tenggara Tim.","Kabupaten Lembata, Nusa Tenggara Tim.",NUSA TENGGARA TIMUR,,Indonesia,,,,-8.3730514,123.4167218,https://maps.google.com/?cid=0x0:0xeb6c47eb986d5b94,
perumahan,perumahan,KATARINA L,"JCJ9+4VP, Lewoleba Tengah, Kec. Nubatukan, Kabupaten Lembata, Nusa Tenggara Tim.","Kabupaten Lembata, Nusa Tenggara Tim.",NUSA TENGGARA TIMUR,,Indonesia,,,,-8.3696696,123.419708,https://maps.google.com/?cid=0x0:0x21cb8b8f7f489ae5,
perumahan,Komplek perumahan,Rumah Bpk Alex Wukak,"Lewoleba Tengah, Kec. Nubatukan, Kabupaten Lembata, Nusa Tenggara Tim.","Kabupaten Lembata, Nusa Tenggara Tim.",NUSA TENGGARA TIMUR,,Indonesia,,,,-8.3708533,123.4155981,https://maps.google.com/?cid=0x0:0xc08958caf6f99eb1,
perumahan,,Kost Fikri-Ulfa Lewoleba,"JCHP+2PQ, Selandoro, Kec. Nubatukan, Kabupaten Lembata, Nusa Tenggara Tim.","Kabupaten Lembata, Nusa Tenggara Tim.",NUSA TENGGARA TIMUR,,Indonesia,,,,-8.3724029,123.4368531,https://maps.google.com/?cid=0x0:0x7988a631e7d65465,
perumahan,perumahan,KATARINA Lr,"JCJ9+4W7, Lewoleba Tengah, Kec. Nubatukan, Kabupaten Lembata, Nusa Tenggara Tim.","Kabupaten Lembata, Nusa Tenggara Tim.",NUSA TENGGARA TIMUR,,Indonesia,,,,-8.3697195,123.4197854,https://maps.google.com/?cid=0x0:0x4a193a18c5a9b327,
perumahan,Komplek perumahan,TACUNGKILL,"JC9C+X5J, Lewoleba Sel., Kec. Nubatukan, Kabupaten Lembata, Nusa Tenggara Tim.","Kabupaten Lembata, Nusa Tenggara Tim.",NUSA TENGGARA TIMUR,,Indonesia,,,,-8.3799897,123.4205302,https://maps.google.com/?cid=0x0:0x14346606e1c4f7a4,
perumahan,Perhimpunan Pengembang Perumahan,BEGINI CERITANYA,"JCG9+M3Q, Lewoleba Tengah, Kec. Nubatukan, Kabupaten Lembata, Nusa Tenggara Tim.","Kabupaten Lembata, Nusa Tenggara Tim.",NUSA TENGGARA TIMUR,,Indonesia,,,,-8.3732763,123.4177524,https://maps.google.com/?cid=0x0:0x9142dfc7a5cf77b2,
perumahan,Pembangunan Perumahan,Wangatoa Atas,"JCHG+MJ2, Kampung Nyamuk, Lewoleba Tengah, Kec. Nubatukan, Kabupaten Lembata, Nusa Tenggara Tim.","Kabupaten Lembata, Nusa Tenggara Tim.",NUSA TENGGARA TIMUR,,Indonesia,,,,-8.3708872,123.4264984,https://maps.google.com/?cid=0x0:0x73eb012bb88fed2e,
perumahan,Komplek perumahan,Rumah Petu Ega Koban,"JCCF+755, Komak, Lewoleba Sel., Kec. Nubatukan, Kabupaten Lembata, Nusa Tenggara Tim.","Kabupaten Lembata, Nusa Tenggara Tim.",NUSA TENGGARA TIMUR,,Indonesia,,,,-8.3793603,123.4229851,https://maps.google.com/?cid=0x0:0x7c39eb3f84001351,
perumahan,Kantor Perusahaan,Selandoro,"JCGJ+5X6, Lewoleba Tengah, Kec. Nubatukan, Kabupaten Lembata, Nusa Tenggara Tim.","Kabupaten Lembata, Nusa Tenggara Tim.",NUSA TENGGARA TIMUR,,Indonesia,,,,-8.3753393,123.4323131,https://maps.google.com/?cid=0x0:0x5191711477076ec9,
perumahan,Komplek perumahan,RUMAH DEDE SINUOR,"JC9G+W28, Lewoleba Tengah, Kec. Nubatukan, Kabupaten Lembata, Nusa Tenggara Tim.","Kabupaten Lembata, Nusa Tenggara Tim.",NUSA TENGGARA TIMUR,,Indonesia,,,,-8.3802078,123.4250725,https://maps.google.com/?cid=0x0:0xc0d4e404716654dc,
perumahan,Komplek perumahan,Rumah Onell Hayon,"JCGF+P73, Jl. Soekarno Hatta, Lewoleba Tengah, Kec. Nubatukan, Kabupaten Lembata, Nusa Tenggara Tim.","Kabupaten Lembata, Nusa Tenggara Tim.",NUSA TENGGARA TIMUR,,Indonesia,,,,-8.373226,123.4231608,https://maps.google.com/?cid=0x0:0x543014d411f1b9ea,
perumahan,Komplek perumahan,WANTED KOMPLEX,"JCGH+CWJ, Lewoleba Tengah, Kec. Nubatukan, Kabupaten Lembata, Nusa Tenggara Tim.","Kabupaten Lembata, Nusa Tenggara Tim.",NUSA TENGGARA TIMUR,,Indonesia,,,,-8.3739049,123.429759,https://maps.google.com/?cid=0x0:0x8f2d4f58a5f52e6a,
perumahan,Gedung Apartemen,ùôºùö¢ ùô∑ùöòùöñùöé ùöÇùöíùöñùöôùöäùöóùöê 5 ùöÜùöäùöóùöêùöäùöùùöòùöä,"JCGH+R4V, Jl. Trans Lembata, Lewoleba Tengah, Kec. Nubatukan, Kabupaten Lembata, Nusa Tenggara Tim.","Kabupaten Lembata, Nusa Tenggara Tim.",NUSA TENGGARA TIMUR,,Indonesia,,,,-8.3728933,123.4278067,https://maps.google.com/?cid=0x0:0xc68a37cfed1b7be7,
perumahan,Pembangun Rumah Moduler,Komak dalam,"JC8F+GF, Lewoleba Sel., Kec. Nubatukan, Kabupaten Lembata, Nusa Tenggara Tim.","Kabupaten Lembata, Nusa Tenggara Tim.",NUSA TENGGARA TIMUR,,Indonesia,,,,-8.383698,123.4236609,https://maps.google.com/?cid=0x0:0x32ab302051129b89,
perumahan,Komplek perumahan,Tempat main LPC,"JCGJ+MP5, Lewoleba Tengah, Kec. Nubatukan, Kabupaten Lembata, Nusa Tenggara Tim.","Kabupaten Lembata, Nusa Tenggara Tim.",NUSA TENGGARA TIMUR,,Indonesia,,,,-8.3733712,123.4318736,https://maps.google.com/?cid=0x0:0x860cf1981d846db,
perumahan,Komplek perumahan,Rumah Don Wayan,"JCGH+MCJ, Jl. Trans Lembata, Lewoleba Tengah, Kec. Nubatukan, Kabupaten Lembata, Nusa Tenggara Tim.","Kabupaten Lembata, Nusa Tenggara Tim.",NUSA TENGGARA TIMUR,,Indonesia,,,,-8.3732959,123.4285178,https://maps.google.com/?cid=0x0:0x77b382db0f3b6ce2,
perumahan,Komplek perumahan,Enzo pukan home,"JC98+C5W, Lewoleba Tengah, Kec. Nubatukan, Kabupaten Lembata, Nusa Tenggara Tim.","Kabupaten Lembata, Nusa Tenggara Tim.",NUSA TENGGARA TIMUR,,Indonesia,,,,-8.381452,123.4150863,https://maps.google.com/?cid=0x0:0x5276561bec76b46a,
perumahan,Pembangunan Perumahan,ZainuddinRc,"JCJ8+8PJ, Jl. Rayuan Klp., Lewoleba Tengah, Kec. Nubatukan, Kabupaten Lembata, Nusa Tenggara Tim.","Kabupaten Lembata, Nusa Tenggara Tim.",NUSA TENGGARA TIMUR,,Indonesia,,,,-8.3691548,123.4167787,https://maps.google.com/?cid=0x0:0xe9fed48715d4c154,
perumahan,Komplek perumahan,ASKOR. LEWOLEBA-LEMBATA,"JCJC+C46, Askor, Kec. Nubatukan, Kabupaten Lembata, Nusa Tenggara Tim.","Kabupaten Lembata, Nusa Tenggara Tim.",NUSA TENGGARA TIMUR,,Indonesia,,,,-8.3689625,123.4202656,https://maps.google.com/?cid=0x0:0x5bd4806853c63ec5,
perumahan,Komplek perumahan,Iponk Ldik home,"JCGC+83V, Lewoleba Tengah, Kec. Nubatukan, Kabupaten Lembata, Nusa Tenggara Tim.","Kabupaten Lembata, Nusa Tenggara Tim.",NUSA TENGGARA TIMUR,,Indonesia,,,,-8.3741411,123.4202449,https://maps.google.com/?cid=0x0:0x56846a62bd4e705d,
perumahan,perumahan,Rumah Jackie Namang,"JCFM+334, Lewoleba Tengah, Kec. Nubatukan, Kabupaten Lembata, Nusa Tenggara Tim.","Kabupaten Lembata, Nusa Tenggara Tim.",NUSA TENGGARA TIMUR,,Indonesia,,,,-8.3773559,123.4327004,https://maps.google.com/?cid=0x0:0xf9c26f4f286bed65,
perumahan,perumahan,Kec. Nubatukan,"Kabupaten Lembata, Nusa Tenggara Tim.","Kabupaten Lembata, Nusa Tenggara Tim.",NUSA TENGGARA TIMUR,,Indonesia,,,,-8.3731739,123.4288459,https://maps.google.com/?cid=0x0:0x5937ac1360822cb3,
perumahan,perumahan,KATARINA Lr,"JCJ9+4W7, Lewoleba Tengah, Kec. Nubatukan, Kabupaten Lembata, Nusa Tenggara Tim.","Kabupaten Lembata, Nusa Tenggara Tim.",NUSA TENGGARA TIMUR,,Indonesia,,,,-8.3697195,123.4197854,https://maps.google.com/?cid=0x0:0x4a193a18c5a9b327,
perumahan,Perhimpunan Pengembang Perumahan,BEGINI CERITANYA,"JCG9+M3Q, Lewoleba Tengah, Kec. Nubatukan, Kabupaten Lembata, Nusa Tenggara Tim.","Kabupaten Lembata, Nusa Tenggara Tim.",NUSA TENGGARA TIMUR,,Indonesia,,,,-8.3732763,123.4177524,https://maps.google.com/?cid=0x0:0x9142dfc7a5cf77b2,
perumahan,Komplek perumahan,Rumah Jhevan,"Jl. Trans Lembata No.3, Lewoleba Tim., Kec. Nubatukan, Kabupaten Lembata, Nusa Tenggara Tim. 86616","Lewoleba Tim., Kec. Nubatukan, Kabupaten Lembata",NUSA TENGGARA TIMUR,86616.0,Indonesia,,,,-8.3665019,123.4418075,https://maps.google.com/?cid=0x0:0xb70340eab731e3ff,
perumahan,Komplek perumahan,Rumah Gasing (suku Bajo),"Jl. Rayuan Klp., Barat, Lewoleba, Kec. Nubatukan, Kabupaten Lembata, Nusa Tenggara Tim. 86612","Barat, Lewoleba, Kec. Nubatukan, Kabupaten Lembata",NUSA TENGGARA TIMUR,86612.0,Indonesia,8119961097.0,,,-8.3705271,123.4144104,https://maps.google.com/?cid=0x0:0x9d324ecb6041cd0f,
perumahan,Pembangunan Perumahan,Wangatoa Atas,"JCHG+MJ2, Kampung Nyamuk, Lewoleba Tengah, Kec. Nubatukan, Kabupaten Lembata, Nusa Tenggara Tim.","Kabupaten Lembata, Nusa Tenggara Tim.",NUSA TENGGARA TIMUR,,Indonesia,,,,-8.3708872,123.4264984,https://maps.google.com/?cid=0x0:0x73eb012bb88fed2e,
perumahan,perumahan,KATARINA L,"JCJ9+4VP, Lewoleba Tengah, Kec. Nubatukan, Kabupaten Lembata, Nusa Tenggara Tim.","Kabupaten Lembata, Nusa Tenggara Tim.",NUSA TENGGARA TIMUR,,Indonesia,,,,-8.3696696,123.419708,https://maps.google.com/?cid=0x0:0x21cb8b8f7f489ae5,
perumahan,Komplek perumahan,WANTED KOMPLEX,"JCGH+CWJ, Lewoleba Tengah, Kec. Nubatukan, Kabupaten Lembata, Nusa Tenggara Tim.","Kabupaten Lembata, Nusa Tenggara Tim.",NUSA TENGGARA TIMUR,,Indonesia,,,,-8.3739049,123.429759,https://maps.google.com/?cid=0x0:0x8f2d4f58a5f52e6a,
perumahan,Komplek perumahan,TACUNGKILL,"JC9C+X5J, Lewoleba Sel., Kec. Nubatukan, Kabupaten Lembata, Nusa Tenggara Tim.","Kabupaten Lembata, Nusa Tenggara Tim.",NUSA TENGGARA TIMUR,,Indonesia,,,,-8.3799897,123.4205302,https://maps.google.com/?cid=0x0:0x14346606e1c4f7a4,
perumahan,Komplek perumahan,Rumah Don Wayan,"JCGH+MCJ, Jl. Trans Lembata, Lewoleba Tengah, Kec. Nubatukan, Kabupaten Lembata, Nusa Tenggara Tim.","Kabupaten Lembata, Nusa Tenggara Tim.",NUSA TENGGARA TIMUR,,Indonesia,,,,-8.3732959,123.4285178,https://maps.google.com/?cid=0x0:0x77b382db0f3b6ce2,
perumahan,Komplek perumahan,Rumah Jeepo,"JCG8+QPR, Lewoleba Utara, Kec. Nubatukan, Kabupaten Lembata, Nusa Tenggara Tim.","Kabupaten Lembata, Nusa Tenggara Tim.",NUSA TENGGARA TIMUR,,Indonesia,,,,-8.3730514,123.4167218,https://maps.google.com/?cid=0x0:0xeb6c47eb986d5b94,
perumahan,Komplek perumahan,Rumah Petu Ega Koban,"JCCF+755, Komak, Lewoleba Sel., Kec. Nubatukan, Kabupaten Lembata, Nusa Tenggara Tim.","Kabupaten Lembata, Nusa Tenggara Tim.",NUSA TENGGARA TIMUR,,Indonesia,,,,-8.3793603,123.4229851,https://maps.google.com/?cid=0x0:0x7c39eb3f84001351,
perumahan,Kantor Perusahaan,Selandoro,"JCGJ+5X6, Lewoleba Tengah, Kec. Nubatukan, Kabupaten Lembata, Nusa Tenggara Tim.","Kabupaten Lembata, Nusa Tenggara Tim.",NUSA TENGGARA TIMUR,,Indonesia,,,,-8.3753393,123.4323131,https://maps.google.com/?cid=0x0:0x5191711477076ec9,
perumahan,Komplek perumahan,Ebby Lebangu Home:),"JCFF+RG8, Lewoleba Tengah, Kec. Nubatukan, Kabupaten Lembata, Nusa Tenggara Tim.","Kabupaten Lembata, Nusa Tenggara Tim.",NUSA TENGGARA TIMUR,,Indonesia,82235494574.0,,,-8.3752959,123.4237927,https://maps.google.com/?cid=0x0:0x13cffb1557347ad2,
perumahan,Komplek perumahan,Ilamm home,"JCJG+2RH, Lewoleba Tengah, Kec. Nubatukan, Kabupaten Lembata, Nusa Tenggara Tim.","Kabupaten Lembata, Nusa Tenggara Tim.",NUSA TENGGARA TIMUR,,Indonesia,,,,-8.3699304,123.427106,https://maps.google.com/?cid=0x0:0x6926fbc048f53cf9,
perumahan,Komplek perumahan,Lamahora Timur,"RW No.08 RT37, Lewoleba Tim., Kec. Nubatukan, Kabupaten Lembata, Nusa Tenggara Tim.","Kabupaten Lembata, Nusa Tenggara Tim.",NUSA TENGGARA TIMUR,,Indonesia,,,,-8.3664768,123.4499699,https://maps.google.com/?cid=0x0:0xbf0fcdab20e17a15,
perumahan,Komplek perumahan,Simi atu,"JCGJ+5XJ, Lewoleba Tengah, Kec. Nubatukan, Kabupaten Lembata, Nusa Tenggara Tim.","Kabupaten Lembata, Nusa Tenggara Tim.",NUSA TENGGARA TIMUR,,Indonesia,85231545765.0,,,-8.3746203,123.4335494,https://maps.google.com/?cid=0x0:0x84be17c091c50216,
perumahan,Komplek perumahan,Tempat main LPC,"JCGJ+MP5, Lewoleba Tengah, Kec. Nubatukan, Kabupaten Lembata, Nusa Tenggara Tim.","Kabupaten Lembata, Nusa Tenggara Tim.",NUSA TENGGARA TIMUR,,Indonesia,,,,-8.3733712,123.4318736,https://maps.google.com/?cid=0x0:0x860cf1981d846db,
perumahan,Komplek perumahan,ASKOR. LEWOLEBA-LEMBATA,"JCJC+C46, Askor, Kec. Nubatukan, Kabupaten Lembata, Nusa Tenggara Tim.","Kabupaten Lembata, Nusa Tenggara Tim.",NUSA TENGGARA TIMUR,,Indonesia,,,,-8.3689625,123.4202656,https://maps.google.com/?cid=0x0:0x5bd4806853c63ec5,
perumahan,Komplek perumahan,Enzo pukan home,"JC98+C5W, Lewoleba Tengah, Kec. Nubatukan, Kabupaten Lembata, Nusa Tenggara Tim.","Kabupaten Lembata, Nusa Tenggara Tim.",NUSA TENGGARA TIMUR,,Indonesia,,,,-8.381452,123.4150863,https://maps.google.com/?cid=0x0:0x5276561bec76b46a,
perumahan,Komplek perumahan,kecamatan nubatukan,"J95X+RJQ, Lewoleba, Kec. Nubatukan, Kabupaten Lembata, Nusa Tenggara Tim.","Kabupaten Lembata, Nusa Tenggara Tim.",NUSA TENGGARA TIMUR,,Indonesia,,,,-8.3904019,123.3991028,https://maps.google.com/?cid=0x0:0x171ac499515afaf,
perumahan,Komplek perumahan,Rumah Romy OdeL,"JCJV+7P2, Lamahora Tengah, Lewoleba Tim, Kec. Nubatukan, Kabupaten Lembata, Nusa Tenggara Tim.","Kabupaten Lembata, Nusa Tenggara Tim.",NUSA TENGGARA TIMUR,,Indonesia,,,,-8.3693691,123.4442633,https://maps.google.com/?cid=0x0:0x447765f385114ecd,
perumahan,Komplek perumahan,Iponk Ldik home,"JCGC+83V, Lewoleba Tengah, Kec. Nubatukan, Kabupaten Lembata, Nusa Tenggara Tim.","Kabupaten Lembata, Nusa Tenggara Tim.",NUSA TENGGARA TIMUR,,Indonesia,,,,-8.3741411,123.4202449,https://maps.google.com/?cid=0x0:0x56846a62bd4e705d,
perumahan,Pembangunan Perumahan,ZainuddinRc,"JCJ8+8PJ, Jl. Rayuan Klp., Lewoleba Tengah, Kec. Nubatukan, Kabupaten Lembata, Nusa Tenggara Tim.","Kabupaten Lembata, Nusa Tenggara Tim.",NUSA TENGGARA TIMUR,,Indonesia,,,,-8.3691548,123.4167787,https://maps.google.com/?cid=0x0:0xe9fed48715d4c154,
perumahan,Pembangun Rumah Moduler,Komak dalam,"JC8F+GF, Lewoleba Sel., Kec. Nubatukan, Kabupaten Lembata, Nusa Tenggara Tim.","Kabupaten Lembata, Nusa Tenggara Tim.",NUSA TENGGARA TIMUR,,Indonesia,,,,-8.383698,123.4236609,https://maps.google.com/?cid=0x0:0x32ab302051129b89,
perumahan,perumahan,Kec. Nubatukan,"Kabupaten Lembata, Nusa Tenggara Tim.","Kabupaten Lembata, Nusa Tenggara Tim.",NUSA TENGGARA TIMUR,,Indonesia,,,,-8.3731739,123.4288459,https://maps.google.com/?cid=0x0:0x5937ac1360822cb3,
perumahan,perumahan,Rumah Jackie Namang,"JCFM+334, Lewoleba Tengah, Kec. Nubatukan, Kabupaten Lembata, Nusa Tenggara Tim.","Kabupaten Lembata, Nusa Tenggara Tim.",NUSA TENGGARA TIMUR,,Indonesia,,,,-8.3773559,123.4327004,https://maps.google.com/?cid=0x0:0xf9c26f4f286bed65,
perumahan,Komplek perumahan,Rumah Jhevan,"Jl. Trans Lembata No.3, Lewoleba Tim., Kec. Nubatukan, Kabupaten Lembata, Nusa Tenggara Tim. 86616","Lewoleba Tim., Kec. Nubatukan, Kabupaten Lembata",NUSA TENGGARA TIMUR,86616.0,Indonesia,,,,-8.3665019,123.4418075,https://maps.google.com/?cid=0x0:0xb70340eab731e3ff,
perumahan,Komplek perumahan,Rumah Lety,"JCGP+454, Lewoleba Tengah, Kec. Nubatukan, Kabupaten Lembata, Nusa Tenggara Tim.","Kabupaten Lembata, Nusa Tenggara Tim.",NUSA TENGGARA TIMUR,,Indonesia,,,,-8.3747452,123.4354376,https://maps.google.com/?cid=0x0:0xc93d32169ced6a4f,
perumahan,Komplek perumahan,TACUNGKILL,"JC9C+X5J, Lewoleba Sel., Kec. Nubatukan, Kabupaten Lembata, Nusa Tenggara Tim.","Kabupaten Lembata, Nusa Tenggara Tim.",NUSA TENGGARA TIMUR,,Indonesia,,,,-8.3799897,123.4205302,https://maps.google.com/?cid=0x0:0x14346606e1c4f7a4,
perumahan,Komplek perumahan,Rumah Petu Ega Koban,"JCCF+755, Komak, Lewoleba Sel., Kec. Nubatukan, Kabupaten Lembata, Nusa Tenggara Tim.","Kabupaten Lembata, Nusa Tenggara Tim.",NUSA TENGGARA TIMUR,,Indonesia,,,,-8.3793603,123.4229851,https://maps.google.com/?cid=0x0:0x7c39eb3f84001351,
perumahan,Komplek perumahan,WANTED KOMPLEX,"JCGH+CWJ, Lewoleba Tengah, Kec. Nubatukan, Kabupaten Lembata, Nusa Tenggara Tim.","Kabupaten Lembata, Nusa Tenggara Tim.",NUSA TENGGARA TIMUR,,Indonesia,,,,-8.3739049,123.429759,https://maps.google.com/?cid=0x0:0x8f2d4f58a5f52e6a,
perumahan,Komplek perumahan,Tempat main LPC,"JCGJ+MP5, Lewoleba Tengah, Kec. Nubatukan, Kabupaten Lembata, Nusa Tenggara Tim.","Kabupaten Lembata, Nusa Tenggara Tim.",NUSA TENGGARA TIMUR,,Indonesia,,,,-8.3733712,123.4318736,https://maps.google.com/?cid=0x0:0x860cf1981d846db,
perumahan,Komplek perumahan,ASKOR. LEWOLEBA-LEMBATA,"JCJC+C46, Askor, Kec. Nubatukan, Kabupaten Lembata, Nusa Tenggara Tim.","Kabupaten Lembata, Nusa Tenggara Tim.",NUSA TENGGARA TIMUR,,Indonesia,,,,-8.3689625,123.4202656,https://maps.google.com/?cid=0x0:0x5bd4806853c63ec5,
perumahan,Pembangunan Perumahan,Wangatoa Atas,"JCHG+MJ2, Kampung Nyamuk, Lewoleba Tengah, Kec. Nubatukan, Kabupaten Lembata, Nusa Tenggara Tim.","Kabupaten Lembata, Nusa Tenggara Tim.",NUSA TENGGARA TIMUR,,Indonesia,,,,-8.3708872,123.4264984,https://maps.google.com/?cid=0x0:0x73eb012bb88fed2e,
perumahan,Komplek perumahan,Rumah Bpk Alex Wukak,"Lewoleba Tengah, Kec. Nubatukan, Kabupaten Lembata, Nusa Tenggara Tim.","Kabupaten Lembata, Nusa Tenggara Tim.",NUSA TENGGARA TIMUR,,Indonesia,,,,-8.3708533,123.4155981,https://maps.google.com/?cid=0x0:0xc08958caf6f99eb1,
perumahan,Komplek perumahan,Rumah Eppo,"JCJR+66G, Lamahora, Kec. Nubatukan, Kabupaten Lembata, Nusa Tenggara Tim.","Kabupaten Lembata, Nusa Tenggara Tim.",NUSA TENGGARA TIMUR,,Indonesia,,,,-8.3694299,123.4405687,https://maps.google.com/?cid=0x0:0x94958157f2a05a7,
perumahan,Komplek perumahan,Rumah Jeepo,"JCG8+QPR, Lewoleba Utara, Kec. Nubatukan, Kabupaten Lembata, Nusa Tenggara Tim.","Kabupaten Lembata, Nusa Tenggara Tim.",NUSA TENGGARA TIMUR,,Indonesia,,,,-8.3730514,123.4167218,https://maps.google.com/?cid=0x0:0xeb6c47eb986d5b94,
perumahan,Perhimpunan Pengembang Perumahan,BEGINI CERITANYA,"JCG9+M3Q, Lewoleba Tengah, Kec. Nubatukan, Kabupaten Lembata, Nusa Tenggara Tim.","Kabupaten Lembata, Nusa Tenggara Tim.",NUSA TENGGARA TIMUR,,Indonesia,,,,-8.3732763,123.4177524,https://maps.google.com/?cid=0x0:0x9142dfc7a5cf77b2,
perumahan,Pembangunan Perumahan,Berdikari,"JCF8+2WQ, Jl. Berdikari, Lewoleba Tengah, Kec. Nubatukan, Kabupaten Lembata, Nusa Tenggara Tim.","Kabupaten Lembata, Nusa Tenggara Tim.",NUSA TENGGARA TIMUR,,Indonesia,,,,-8.3774025,123.4173657,https://maps.google.com/?cid=0x0:0x783ab70ccbab609c,
perumahan,Komplek perumahan,Lamahora Timur,"RW No.08 RT37, Lewoleba Tim., Kec. Nubatukan, Kabupaten Lembata, Nusa Tenggara Tim.","Kabupaten Lembata, Nusa Tenggara Tim.",NUSA TENGGARA TIMUR,,Indonesia,,,,-8.3664768,123.4499699,https://maps.google.com/?cid=0x0:0xbf0fcdab20e17a15,
perumahan,Komplek perumahan,Simi atu,"JCGJ+5XJ, Lewoleba Tengah, Kec. Nubatukan, Kabupaten Lembata, Nusa Tenggara Tim.","Kabupaten Lembata, Nusa Tenggara Tim.",NUSA TENGGARA TIMUR,,Indonesia,85231545765.0,,,-8.3746203,123.4335494,https://maps.google.com/?cid=0x0:0x84be17c091c50216,
perumahan,Komplek perumahan,Rumah Gasing (suku Bajo),"Jl. Rayuan Klp., Barat, Lewoleba, Kec. Nubatukan, Kabupaten Lembata, Nusa Tenggara Tim. 86612","Barat, Lewoleba, Kec. Nubatukan, Kabupaten Lembata",NUSA TENGGARA TIMUR,86612.0,Indonesia,8119961097.0,,,-8.3705271,123.4144104,https://maps.google.com/?cid=0x0:0x9d324ecb6041cd0f,
perumahan,,Kost Fikri-Ulfa Lewoleba,"JCHP+2PQ, Selandoro, Kec. Nubatukan, Kabupaten Lembata, Nusa Tenggara Tim.","Kabupaten Lembata, Nusa Tenggara Tim.",NUSA TENGGARA TIMUR,,Indonesia,,,,-8.3724029,123.4368531,https://maps.google.com/?cid=0x0:0x7988a631e7d65465,
perumahan,Komplek perumahan,kecamatan nubatukan,"J95X+RJQ, Lewoleba, Kec. Nubatukan, Kabupaten Lembata, Nusa Tenggara Tim.","Kabupaten Lembata, Nusa Tenggara Tim.",NUSA TENGGARA TIMUR,,Indonesia,,,,-8.3904019,123.3991028,https://maps.google.com/?cid=0x0:0x171ac499515afaf,
perumahan,Kantor Perusahaan,Selandoro,"JCGJ+5X6, Lewoleba Tengah, Kec. Nubatukan, Kabupaten Lembata, Nusa Tenggara Tim.","Kabupaten Lembata, Nusa Tenggara Tim.",NUSA TENGGARA TIMUR,,Indonesia,,,,-8.3753393,123.4323131,https://maps.google.com/?cid=0x0:0x5191711477076ec9,
perumahan,Komplek perumahan,Rumah Don Wayan,"JCGH+MCJ, Jl. Trans Lembata, Lewoleba Tengah, Kec. Nubatukan, Kabupaten Lembata, Nusa Tenggara Tim.","Kabupaten Lembata, Nusa Tenggara Tim.",NUSA TENGGARA TIMUR,,Indonesia,,,,-8.3732959,123.4285178,https://maps.google.com/?cid=0x0:0x77b382db0f3b6ce2,
perumahan,Komplek perumahan,Ebby Lebangu Home:),"JCFF+RG8, Lewoleba Tengah, Kec. Nubatukan, Kabupaten Lembata, Nusa Tenggara Tim.","Kabupaten Lembata, Nusa Tenggara Tim.",NUSA TENGGARA TIMUR,,Indonesia,82235494574.0,,,-8.3752959,123.4237927,https://maps.google.com/?cid=0x0:0x13cffb1557347ad2,
perumahan,perumahan,KATARINA L,"JCJ9+4VP, Lewoleba Tengah, Kec. Nubatukan, Kabupaten Lembata, Nusa Tenggara Tim.","Kabupaten Lembata, Nusa Tenggara Tim.",NUSA TENGGARA TIMUR,,Indonesia,,,,-8.3696696,123.419708,https://maps.google.com/?cid=0x0:0x21cb8b8f7f489ae5,
perumahan,Komplek perumahan,Ilamm home,"JCJG+2RH, Lewoleba Tengah, Kec. Nubatukan, Kabupaten Lembata, Nusa Tenggara Tim.","Kabupaten Lembata, Nusa Tenggara Tim.",NUSA TENGGARA TIMUR,,Indonesia,,,,-8.3699304,123.427106,https://maps.google.com/?cid=0x0:0x6926fbc048f53cf9,
perumahan,Pembangunan Perumahan,ZainuddinRc,"JCJ8+8PJ, Jl. Rayuan Klp., Lewoleba Tengah, Kec. Nubatukan, Kabupaten Lembata, Nusa Tenggara Tim.","Kabupaten Lembata, Nusa Tenggara Tim.",NUSA TENGGARA TIMUR,,Indonesia,,,,-8.3691548,123.4167787,https://maps.google.com/?cid=0x0:0xe9fed48715d4c154,
perumahan,Komplek perumahan,Callvary,"JCG9+27F, Lewoleba Tengah, Kec. Nubatukan, Kabupaten Lembata, Nusa Tenggara Tim.","Kabupaten Lembata, Nusa Tenggara Tim.",NUSA TENGGARA TIMUR,,Indonesia,,,,-8.3749449,123.4181833,https://maps.google.com/?cid=0x0:0xa5ea6ef2e6b1790e,
perumahan,Pembangun Rumah Moduler,Komak dalam,"JC8F+GF, Lewoleba Sel., Kec. Nubatukan, Kabupaten Lembata, Nusa Tenggara Tim.","Kabupaten Lembata, Nusa Tenggara Tim.",NUSA TENGGARA TIMUR,,Indonesia,,,,-8.383698,123.4236609,https://maps.google.com/?cid=0x0:0x32ab302051129b89,
perumahan,Komplek perumahan,Rumah Mus Elaman,"JC95+7FX, Lewoleba, Kec. Nubatukan, Kabupaten Lembata, Nusa Tenggara Tim.","Kabupaten Lembata, Nusa Tenggara Tim.",NUSA TENGGARA TIMUR,,Indonesia,,,,-8.3817628,123.4087428,https://maps.google.com/?cid=0x0:0xa9a625f039341744,
perumahan,perumahan,Kec. Nubatukan,"Kabupaten Lembata, Nusa Tenggara Tim.","Kabupaten Lembata, Nusa Tenggara Tim.",NUSA TENGGARA TIMUR,,Indonesia,,,,-8.3731739,123.4288459,https://maps.google.com/?cid=0x0:0x5937ac1360822cb3,
perumahan,perumahan,KATARINA L,"JCJ9+4VP, Lewoleba Tengah, Kec. Nubatukan, Kabupaten Lembata, Nusa Tenggara Tim.","Kabupaten Lembata, Nusa Tenggara Tim.",NUSA TENGGARA TIMUR,,Indonesia,,,,-8.3696696,123.419708,https://maps.google.com/?cid=0x0:0x21cb8b8f7f489ae5,
perumahan,perumahan,Rumah Jackie Namang,"JCFM+334, Lewoleba Tengah, Kec. Nubatukan, Kabupaten Lembata, Nusa Tenggara Tim.","Kabupaten Lembata, Nusa Tenggara Tim.",NUSA TENGGARA TIMUR,,Indonesia,,,,-8.3773559,123.4327004,https://maps.google.com/?cid=0x0:0xf9c26f4f286bed65,
perumahan,,Kost Fikri-Ulfa Lewoleba,"JCHP+2PQ, Selandoro, Kec. Nubatukan, Kabupaten Lembata, Nusa Tenggara Tim.","Kabupaten Lembata, Nusa Tenggara Tim.",NUSA TENGGARA TIMUR,,Indonesia,,,,-8.3724029,123.4368531,https://maps.google.com/?cid=0x0:0x7988a631e7d65465,
perumahan,Komplek perumahan,Rumah Petu Ega Koban,"JCCF+755, Komak, Lewoleba Sel., Kec. Nubatukan, Kabupaten Lembata, Nusa Tenggara Tim.","Kabupaten Lembata, Nusa Tenggara Tim.",NUSA TENGGARA TIMUR,,Indonesia,,,,-8.3793603,123.4229851,https://maps.google.com/?cid=0x0:0x7c39eb3f84001351,
perumahan,Komplek perumahan,TACUNGKILL,"JC9C+X5J, Lewoleba Sel., Kec. Nubatukan, Kabupaten Lembata, Nusa Tenggara Tim.","Kabupaten Lembata, Nusa Tenggara Tim.",NUSA TENGGARA TIMUR,,Indonesia,,,,-8.3799897,123.4205302,https://maps.google.com/?cid=0x0:0x14346606e1c4f7a4,
perumahan,Komplek perumahan,Rumah Bpk Alex Wukak,"Lewoleba Tengah, Kec. Nubatukan, Kabupaten Lembata, Nusa Tenggara Tim.","Kabupaten Lembata, Nusa Tenggara Tim.",NUSA TENGGARA TIMUR,,Indonesia,,,,-8.3708533,123.4155981,https://maps.google.com/?cid=0x0:0xc08958caf6f99eb1,
perumahan,Komplek perumahan,Rumah Jhevan,"Jl. Trans Lembata No.3, Lewoleba Tim., Kec. Nubatukan, Kabupaten Lembata, Nusa Tenggara Tim. 86616","Lewoleba Tim., Kec. Nubatukan, Kabupaten Lembata",NUSA TENGGARA TIMUR,86616.0,Indonesia,,,,-8.3665019,123.4418075,https://maps.google.com/?cid=0x0:0xb70340eab731e3ff,
perumahan,Komplek perumahan,Ilamm home,"JCJG+2RH, Lewoleba Tengah, Kec. Nubatukan, Kabupaten Lembata, Nusa Tenggara Tim.","Kabupaten Lembata, Nusa Tenggara Tim.",NUSA TENGGARA TIMUR,,Indonesia,,,,-8.3699304,123.427106,https://maps.google.com/?cid=0x0:0x6926fbc048f53cf9,
perumahan,Komplek perumahan,Rumah Lety,"JCGP+454, Lewoleba Tengah, Kec. Nubatukan, Kabupaten Lembata, Nusa Tenggara Tim.","Kabupaten Lembata, Nusa Tenggara Tim.",NUSA TENGGARA TIMUR,,Indonesia,,,,-8.3747452,123.4354376,https://maps.google.com/?cid=0x0:0xc93d32169ced6a4f,
perumahan,Gedung Apartemen,ùôºùö¢ ùô∑ùöòùöñùöé ùöÇùöíùöñùöôùöäùöóùöê 5 ùöÜùöäùöóùöêùöäùöùùöòùöä,"JCGH+R4V, Jl. Trans Lembata, Lewoleba Tengah, Kec. Nubatukan, Kabupaten Lembata, Nusa Tenggara Tim.","Kabupaten Lembata, Nusa Tenggara Tim.",NUSA TENGGARA TIMUR,,Indonesia,,,,-8.3728933,123.4278067,https://maps.google.com/?cid=0x0:0xc68a37cfed1b7be7,
perumahan,Komplek perumahan,ASKOR. LEWOLEBA-LEMBATA,"JCJC+C46, Askor, Kec. Nubatukan, Kabupaten Lembata, Nusa Tenggara Tim.","Kabupaten Lembata, Nusa Tenggara Tim.",NUSA TENGGARA TIMUR,,Indonesia,,,,-8.3689625,123.4202656,https://maps.google.com/?cid=0x0:0x5bd4806853c63ec5,
perumahan,Perhimpunan Pengembang Perumahan,BEGINI CERITANYA,"JCG9+M3Q, Lewoleba Tengah, Kec. Nubatukan, Kabupaten Lembata, Nusa Tenggara Tim.","Kabupaten Lembata, Nusa Tenggara Tim.",NUSA TENGGARA TIMUR,,Indonesia,,,,-8.3732763,123.4177524,https://maps.google.com/?cid=0x0:0x9142dfc7a5cf77b2,
perumahan,Komplek perumahan,Rumah Eppo,"JCJR+66G, Lamahora, Kec. Nubatukan, Kabupaten Lembata, Nusa Tenggara Tim.","Kabupaten Lembata, Nusa Tenggara Tim.",NUSA TENGGARA TIMUR,,Indonesia,,,,-8.3694299,123.4405687,https://maps.google.com/?cid=0x0:0x94958157f2a05a7,
perumahan,Pembangunan Perumahan,Berdikari,"JCF8+2WQ, Jl. Berdikari, Lewoleba Tengah, Kec. Nubatukan, Kabupaten Lembata, Nusa Tenggara Tim.","Kabupaten Lembata, Nusa Tenggara Tim.",NUSA TENGGARA TIMUR,,Indonesia,,,,-8.3774025,123.4173657,https://maps.google.com/?cid=0x0:0x783ab70ccbab609c,
perumahan,Pembangunan Perumahan,Wangatoa Atas,"JCHG+MJ2, Kampung Nyamuk, Lewoleba Tengah, Kec. Nubatukan, Kabupaten Lembata, Nusa Tenggara Tim.","Kabupaten Lembata, Nusa Tenggara Tim.",NUSA TENGGARA TIMUR,,Indonesia,,,,-8.3708872,123.4264984,https://maps.google.com/?cid=0x0:0x73eb012bb88fed2e,
perumahan,Komplek perumahan,RUMAH DEDE SINUOR,"JC9G+W28, Lewoleba Tengah, Kec. Nubatukan, Kabupaten Lembata, Nusa Tenggara Tim.","Kabupaten Lembata, Nusa Tenggara Tim.",NUSA TENGGARA TIMUR,,Indonesia,,,,-8.3802078,123.4250725,https://maps.google.com/?cid=0x0:0xc0d4e404716654dc,
perumahan,Komplek perumahan,Tempat main LPC,"JCGJ+MP5, Lewoleba Tengah, Kec. Nubatukan, Kabupaten Lembata, Nusa Tenggara Tim.","Kabupaten Lembata, Nusa Tenggara Tim.",NUSA TENGGARA TIMUR,,Indonesia,,,,-8.3733712,123.4318736,https://maps.google.com/?cid=0x0:0x860cf1981d846db,
perumahan,Kantor Perusahaan,Selandoro,"JCGJ+5X6, Lewoleba Tengah, Kec. Nubatukan, Kabupaten Lembata, Nusa Tenggara Tim.","Kabupaten Lembata, Nusa Tenggara Tim.",NUSA TENGGARA TIMUR,,Indonesia,,,,-8.3753393,123.4323131,https://maps.google.com/?cid=0x0:0x5191711477076ec9,
perumahan,Komplek perumahan,WANTED KOMPLEX,"JCGH+CWJ, Lewoleba Tengah, Kec. Nubatukan, Kabupaten Lembata, Nusa Tenggara Tim.","Kabupaten Lembata, Nusa Tenggara Tim.",NUSA TENGGARA TIMUR,,Indonesia,,,,-8.3739049,123.429759,https://maps.google.com/?cid=0x0:0x8f2d4f58a5f52e6a,
perumahan,Komplek perumahan,Berdikari Atas,"JC99+25M, Lewoleba, Kec. Nubatukan, Kabupaten Lembata, Nusa Tenggara Tim.","Kabupaten Lembata, Nusa Tenggara Tim.",NUSA TENGGARA TIMUR,,Indonesia,,,,-8.382407,123.4179207,https://maps.google.com/?cid=0x0:0x66f3693910d1c8d4,
perumahan,Komplek perumahan,kecamatan nubatukan,"J95X+RJQ, Lewoleba, Kec. Nubatukan, Kabupaten Lembata, Nusa Tenggara Tim.","Kabupaten Lembata, Nusa Tenggara Tim.",NUSA TENGGARA TIMUR,,Indonesia,,,,-8.3904019,123.3991028,https://maps.google.com/?cid=0x0:0x171ac499515afaf,
perumahan,Komplek perumahan,Rumah Jeepo,"JCG8+QPR, Lewoleba Utara, Kec. Nubatukan, Kabupaten Lembata, Nusa Tenggara Tim.","Kabupaten Lembata, Nusa Tenggara Tim.",NUSA TENGGARA TIMUR,,Indonesia,,,,-8.3730514,123.4167218,https://maps.google.com/?cid=0x0:0xeb6c47eb986d5b94,
perumahan,Pembangun Rumah Moduler,Komak dalam,"JC8F+GF, Lewoleba Sel., Kec. Nubatukan, Kabupaten Lembata, Nusa Tenggara Tim.","Kabupaten Lembata, Nusa Tenggara Tim.",NUSA TENGGARA TIMUR,,Indonesia,,,,-8.383698,123.4236609,https://maps.google.com/?cid=0x0:0x32ab302051129b89,
perumahan,Komplek perumahan,Ambros Wadan,"Lewoleba Tengah, Kec. Nubatukan, Kabupaten Lembata, Nusa Tenggara Tim.","Kabupaten Lembata, Nusa Tenggara Tim.",NUSA TENGGARA TIMUR,,Indonesia,,,,-8.3793345,123.4172254,https://maps.google.com/?cid=0x0:0x61d94671b09871ea,
perumahan,Komplek perumahan,Rumah Don Wayan,"JCGH+MCJ, Jl. Trans Lembata, Lewoleba Tengah, Kec. Nubatukan, Kabupaten Lembata, Nusa Tenggara Tim.","Kabupaten Lembata, Nusa Tenggara Tim.",NUSA TENGGARA TIMUR,,Indonesia,,,,-8.3732959,123.4285178,https://maps.google.com/?cid=0x0:0x77b382db0f3b6ce2,
perumahan,Pembangunan Perumahan,ZainuddinRc,"JCJ8+8PJ, Jl. Rayuan Klp., Lewoleba Tengah, Kec. Nubatukan, Kabupaten Lembata, Nusa Tenggara Tim.","Kabupaten Lembata, Nusa Tenggara Tim.",NUSA TENGGARA TIMUR,,Indonesia,,,,-8.3691548,123.4167787,https://maps.google.com/?cid=0x0:0xe9fed48715d4c154,
perumahan,perumahan,Kec. Nubatukan,"Kabupaten Lembata, Nusa Tenggara Tim.","Kabupaten Lembata, Nusa Tenggara Tim.",NUSA TENGGARA TIMUR,,Indonesia,,,,-8.3731739,123.4288459,https://maps.google.com/?cid=0x0:0x5937ac1360822cb3,
perumahan,Komplek perumahan,Lamahora Timur,"RW No.08 RT37, Lewoleba Tim., Kec. Nubatukan, Kabupaten Lembata, Nusa Tenggara Tim.","Kabupaten Lembata, Nusa Tenggara Tim.",NUSA TENGGARA TIMUR,,Indonesia,,,,-8.3664768,123.4499699,https://maps.google.com/?cid=0x0:0xbf0fcdab20e17a15,
perumahan,Komplek perumahan,"Lamahora, Lewoleba Timur","JFG5+8QQ, Lamahora, Lewoleba Tim., Kec. Nubatukan, Kabupaten Lembata, Nusa Tenggara Tim.","Kabupaten Lembata, Nusa Tenggara Tim.",NUSA TENGGARA TIMUR,,Indonesia,,,,-8.3741729,123.459492,https://maps.google.com/?cid=0x0:0x2aa4b8c5fc604daa,
perumahan,Komplek perumahan,Kota baru,"JCCC+F54, Kota baru timur, Lewoleba Sel., Kec. Nubatukan, Kabupaten Lembata, Nusa Tenggara Tim.","Kabupaten Lembata, Nusa Tenggara Tim.",NUSA TENGGARA TIMUR,,Indonesia,82290828776.0,,,-8.3788542,123.420448,https://maps.google.com/?cid=0x0:0x1cc3b31fa379bd30,
perumahan,Komplek perumahan,Wangatoa kelurahan selandoro,"J95X+RJQ, Lewoleba, Kec. Nubatukan, Kabupaten Lembata, Nusa Tenggara Tim.","Kabupaten Lembata, Nusa Tenggara Tim.",NUSA TENGGARA TIMUR,,Indonesia,,,,-8.3904019,123.3991028,https://maps.google.com/?cid=0x0:0x965832451252271c,
perumahan,Komplek perumahan,Griya Lamahora,"JFP6+X32, Lamahora Timur, Lewoleba Tim., Kec. Nubatukan, Kabupaten Lembata, Nusa Tenggara Tim.","Kabupaten Lembata, Nusa Tenggara Tim.",NUSA TENGGARA TIMUR,,Indonesia,81353140969.0,,,-8.3626083,123.4601377,https://maps.google.com/?cid=0x0:0x12a911f02be50ad,
perumahan,Komplek perumahan,Kelurahan lamahora,"JCMX+4V7, Kelurahan lamahora, Kec. Nubatukan, Kabupaten Lembata, Nusa Tenggara Tim.","Kabupaten Lembata, Nusa Tenggara Tim.",NUSA TENGGARA TIMUR,,Indonesia,,,,-8.367214,123.4496726,https://maps.google.com/?cid=0x0:0xa4d241008003acc4,
perumahan,Toko Pakaian,RUMAH KAOS KAKI LEMBATA,"JCJR+3WG, Selandoro, Kec. Nubatukan, Kabupaten Lembata, Nusa Tenggara Tim.","Kabupaten Lembata, Nusa Tenggara Tim.",NUSA TENGGARA TIMUR,,Indonesia,82145396740.0,,,-8.3701623,123.4420388,https://maps.google.com/?cid=0x0:0xdeeee3d8743cdb2b,
perumahan,perumahan,Lewoleba Tengah,"Kec. Nubatukan, Kabupaten Lembata, Nusa Tenggara Tim.","Kabupaten Lembata, Nusa Tenggara Tim.",NUSA TENGGARA TIMUR,,Indonesia,,,,-8.3788442,123.4215334,https://maps.google.com/?cid=0x0:0xacdfc728e03f16ef,
perumahan,Komplek perumahan,Rumah lamahora,"JFR4+274, Jl. Trans Lembata, Lewoleba Tim., Kec. Nubatukan, Kabupaten Lembata, Nusa Tenggara Tim.","Kabupaten Lembata, Nusa Tenggara Tim.",NUSA TENGGARA TIMUR,,Indonesia,,,,-8.359443,123.455707,https://maps.google.com/?cid=0x0:0x82044dd19fc02812,
perumahan,perumahan,Lewoleba Tim.,"Kec. Nubatukan, Kabupaten Lembata, Nusa Tenggara Tim.","Kabupaten Lembata, Nusa Tenggara Tim.",NUSA TENGGARA TIMUR,,Indonesia,,,,-8.3651593,123.466379,https://maps.google.com/?cid=0x0:0xc6b48980ae608ad,
perumahan,Restoran,Rumah Makan Barokah,"JCH9+HVG, Jl. Trans Lembata, Lewoleba Tengah, Kec. Nubatukan, Kabupaten Lembata, Nusa Tenggara Tim.","Kabupaten Lembata, Nusa Tenggara Tim.",NUSA TENGGARA TIMUR,,Indonesia,,,,-8.3710689,123.419705,https://maps.google.com/?cid=0x0:0x300a9bc0b9f5410c,
perumahan,Rumah Sakit,RSUD LEWOLEBA,"JFR6+CGV, Lewoleba Tim., Kec. Nubatukan, Kabupaten Lembata, Nusa Tenggara Tim.","Kabupaten Lembata, Nusa Tenggara Tim.",NUSA TENGGARA TIMUR,,Indonesia,3832343442.0,,,-8.3588968,123.4613085,https://maps.google.com/?cid=0x0:0x1f60e42750a246ea,
perumahan,perumahan,Chendrick Homestay,"JCGP+R78, Lewoleba Tengah, Kec. Nubatukan, Kabupaten Lembata, Nusa Tenggara Tim.","Kabupaten Lembata, Nusa Tenggara Tim.",NUSA TENGGARA TIMUR,,Indonesia,85238533010.0,,,-8.3729709,123.435693,https://maps.google.com/?cid=0x0:0xa85e3bffb5ef977f,
perumahan,perumahan,Solor Archipelago,"Baolangu, Kec. Nubatukan, Kabupaten Lembata, Nusa Tenggara Tim.","Kabupaten Lembata, Nusa Tenggara Tim.",NUSA TENGGARA TIMUR,,Indonesia,,,,-8.41667,123.45,https://maps.google.com/?cid=0x0:0xffa217e6f3591d02,
perumahan,Rumah Sakit,Damian Farming,"Belakang Rs. St Damian, Lewoleba, Kec. Nubatukan, Kabupaten Lembata, Nusa Tenggara Tim. 44880","Lewoleba, Kec. Nubatukan, Kabupaten Lembata",NUSA TENGGARA TIMUR,44880.0,Indonesia,,,,-8.3787457,123.412049,https://maps.google.com/?cid=0x0:0xb5cd033cc96cb06e,
perumahan,perumahan,Lewoleba,"Kec. Nubatukan, Kabupaten Lembata, Nusa Tenggara Tim.","Kabupaten Lembata, Nusa Tenggara Tim.",NUSA TENGGARA TIMUR,,Indonesia,,,,-8.3904019,123.3991028,https://maps.google.com/?cid=0x0:0xedec9e2a6c5ff942,
perumahan,Sekolah,Taman Daun,"Lewoleba Bar., Kec. Nubatukan, Kabupaten Lembata, Nusa Tenggara Tim.","Kabupaten Lembata, Nusa Tenggara Tim.",NUSA TENGGARA TIMUR,,Indonesia,82145822327.0,,,-8.3809226,123.4083876,https://maps.google.com/?cid=0x0:0xc36bffe2642ccf56,
perumahan,perumahan,Lewoleba,"Lewoleba Utara, Kec. Nubatukan, Kabupaten Lembata, Nusa Tenggara Tim.","Kabupaten Lembata, Nusa Tenggara Tim.",NUSA TENGGARA TIMUR,,Indonesia,,,,-8.373693,123.400025,https://maps.google.com/?cid=0x0:0xd97fc85ee746d426,
perumahan,Komplek perumahan,Pasar Lamahora,"JCGV+M7J, Lamahora, Lewoleba Tim., Kec. Nubatukan, Kabupaten Lembata, Nusa Tenggara Tim.","Kabupaten Lembata, Nusa Tenggara Tim.",NUSA TENGGARA TIMUR,,Indonesia,,,,-8.3732801,123.443127,https://maps.google.com/?cid=0x0:0xdf5fae1cec0aa9b4,
perumahan,Komplek perumahan,Rumah Jhevan,"Jl. Trans Lembata No.3, Lewoleba Tim., Kec. Nubatukan, Kabupaten Lembata, Nusa Tenggara Tim. 86616","Lewoleba Tim., Kec. Nubatukan, Kabupaten Lembata",NUSA TENGGARA TIMUR,86616.0,Indonesia,,,,-8.3665019,123.4418075,https://maps.google.com/?cid=0x0:0xb70340eab731e3ff,
perumahan,perumahan,Rumah Jackie Namang,"JCFM+334, Lewoleba Tengah, Kec. Nubatukan, Kabupaten Lembata, Nusa Tenggara Tim.","Kabupaten Lembata, Nusa Tenggara Tim.",NUSA TENGGARA TIMUR,,Indonesia,,,,-8.3773559,123.4327004,https://maps.google.com/?cid=0x0:0xf9c26f4f286bed65,
perumahan,perumahan,KATARINA L,"JCJ9+4VP, Lewoleba Tengah, Kec. Nubatukan, Kabupaten Lembata, Nusa Tenggara Tim.","Kabupaten Lembata, Nusa Tenggara Tim.",NUSA TENGGARA TIMUR,,Indonesia,,,,-8.3696696,123.419708,https://maps.google.com/?cid=0x0:0x21cb8b8f7f489ae5,
perumahan,Komplek perumahan,Rumah Lety,"JCGP+454, Lewoleba Tengah, Kec. Nubatukan, Kabupaten Lembata, Nusa Tenggara Tim.","Kabupaten Lembata, Nusa Tenggara Tim.",NUSA TENGGARA TIMUR,,Indonesia,,,,-8.3747452,123.4354376,https://maps.google.com/?cid=0x0:0xc93d32169ced6a4f,
perumahan,perumahan,KATARINA Lr,"JCJ9+4W7, Lewoleba Tengah, Kec. Nubatukan, Kabupaten Lembata, Nusa Tenggara Tim.","Kabupaten Lembata, Nusa Tenggara Tim.",NUSA TENGGARA TIMUR,,Indonesia,,,,-8.3697195,123.4197854,https://maps.google.com/?cid=0x0:0x4a193a18c5a9b327,
perumahan,Komplek perumahan,Berdikari Atas,"JC99+25M, Lewoleba, Kec. Nubatukan, Kabupaten Lembata, Nusa Tenggara Tim.","Kabupaten Lembata, Nusa Tenggara Tim.",NUSA TENGGARA TIMUR,,Indonesia,,,,-8.382407,123.4179207,https://maps.google.com/?cid=0x0:0x66f3693910d1c8d4,
perumahan,Pembangunan Perumahan,Wangatoa Atas,"JCHG+MJ2, Kampung Nyamuk, Lewoleba Tengah, Kec. Nubatukan, Kabupaten Lembata, Nusa Tenggara Tim.","Kabupaten Lembata, Nusa Tenggara Tim.",NUSA TENGGARA TIMUR,,Indonesia,,,,-8.3708872,123.4264984,https://maps.google.com/?cid=0x0:0x73eb012bb88fed2e,
perumahan,Komplek perumahan,WANTED KOMPLEX,"JCGH+CWJ, Lewoleba Tengah, Kec. Nubatukan, Kabupaten Lembata, Nusa Tenggara Tim.","Kabupaten Lembata, Nusa Tenggara Tim.",NUSA TENGGARA TIMUR,,Indonesia,,,,-8.3739049,123.429759,https://maps.google.com/?cid=0x0:0x8f2d4f58a5f52e6a,
perumahan,Pembangun Rumah Moduler,Komak dalam,"JC8F+GF, Lewoleba Sel., Kec. Nubatukan, Kabupaten Lembata, Nusa Tenggara Tim.","Kabupaten Lembata, Nusa Tenggara Tim.",NUSA TENGGARA TIMUR,,Indonesia,,,,-8.383698,123.4236609,https://maps.google.com/?cid=0x0:0x32ab302051129b89,
perumahan,perumahan,Kec. Nubatukan,"Kabupaten Lembata, Nusa Tenggara Tim.","Kabupaten Lembata, Nusa Tenggara Tim.",NUSA TENGGARA TIMUR,,Indonesia,,,,-8.3731739,123.4288459,https://maps.google.com/?cid=0x0:0x5937ac1360822cb3,
perumahan,Komplek perumahan,Lamahora Timur,"RW No.08 RT37, Lewoleba Tim., Kec. Nubatukan, Kabupaten Lembata, Nusa Tenggara Tim.","Kabupaten Lembata, Nusa Tenggara Tim.",NUSA TENGGARA TIMUR,,Indonesia,,,,-8.3664768,123.4499699,https://maps.google.com/?cid=0x0:0xbf0fcdab20e17a15,
perumahan,Komplek perumahan,Posko Kemanusiaan JPIC OFM Indonesia di Lembata,"JC96+9G3, Jl. Trans Nagawutung, Lewoleba Tengah, Kec. Nubatukan, Kabupaten Lembata, Nusa Tenggara Tim.","Kabupaten Lembata, Nusa Tenggara Tim.",NUSA TENGGARA TIMUR,,Indonesia,,,,-8.3816223,123.4112882,https://maps.google.com/?cid=0x0:0xdff7a647c9398b0e,
perumahan,Komplek perumahan,Kota baru,"JCCC+F54, Kota baru timur, Lewoleba Sel., Kec. Nubatukan, Kabupaten Lembata, Nusa Tenggara Tim.","Kabupaten Lembata, Nusa Tenggara Tim.",NUSA TENGGARA TIMUR,,Indonesia,82290828776.0,,,-8.3788542,123.420448,https://maps.google.com/?cid=0x0:0x1cc3b31fa379bd30,
perumahan,Komplek perumahan,"Lamahora, Lewoleba Timur","JFG5+8QQ, Lamahora, Lewoleba Tim., Kec. Nubatukan, Kabupaten Lembata, Nusa Tenggara Tim.","Kabupaten Lembata, Nusa Tenggara Tim.",NUSA TENGGARA TIMUR,,Indonesia,,,,-8.3741729,123.459492,https://maps.google.com/?cid=0x0:0x2aa4b8c5fc604daa,
perumahan,Komplek perumahan,Griya Lamahora,"JFP6+X32, Lamahora Timur, Lewoleba Tim., Kec. Nubatukan, Kabupaten Lembata, Nusa Tenggara Tim.","Kabupaten Lembata, Nusa Tenggara Tim.",NUSA TENGGARA TIMUR,,Indonesia,81353140969.0,,,-8.3626083,123.4601377,https://maps.google.com/?cid=0x0:0x12a911f02be50ad,
perumahan,Toko Pakaian,RUMAH KAOS KAKI LEMBATA,"JCJR+3WG, Selandoro, Kec. Nubatukan, Kabupaten Lembata, Nusa Tenggara Tim.","Kabupaten Lembata, Nusa Tenggara Tim.",NUSA TENGGARA TIMUR,,Indonesia,82145396740.0,,,-8.3701623,123.4420388,https://maps.google.com/?cid=0x0:0xdeeee3d8743cdb2b,
perumahan,Komplek perumahan,Kelurahan lamahora,"JCMX+4V7, Kelurahan lamahora, Kec. Nubatukan, Kabupaten Lembata, Nusa Tenggara Tim.","Kabupaten Lembata, Nusa Tenggara Tim.",NUSA TENGGARA TIMUR,,Indonesia,,,,-8.367214,123.4496726,https://maps.google.com/?cid=0x0:0xa4d241008003acc4,
perumahan,perumahan,Lewoleba Tengah,"Kec. Nubatukan, Kabupaten Lembata, Nusa Tenggara Tim.","Kabupaten Lembata, Nusa Tenggara Tim.",NUSA TENGGARA TIMUR,,Indonesia,,,,-8.3788442,123.4215334,https://maps.google.com/?cid=0x0:0xacdfc728e03f16ef,
perumahan,Komplek perumahan,Rumah lamahora,"JFR4+274, Jl. Trans Lembata, Lewoleba Tim., Kec. Nubatukan, Kabupaten Lembata, Nusa Tenggara Tim.","Kabupaten Lembata, Nusa Tenggara Tim.",NUSA TENGGARA TIMUR,,Indonesia,,,,-8.359443,123.455707,https://maps.google.com/?cid=0x0:0x82044dd19fc02812,
perumahan,Restoran,Rumah Makan Barokah,"JCH9+HVG, Jl. Trans Lembata, Lewoleba Tengah, Kec. Nubatukan, Kabupaten Lembata, Nusa Tenggara Tim.","Kabupaten Lembata, Nusa Tenggara Tim.",NUSA TENGGARA TIMUR,,Indonesia,,,,-8.3710689,123.419705,https://maps.google.com/?cid=0x0:0x300a9bc0b9f5410c,
perumahan,perumahan,Chendrick Homestay,"JCGP+R78, Lewoleba Tengah, Kec. Nubatukan, Kabupaten Lembata, Nusa Tenggara Tim.","Kabupaten Lembata, Nusa Tenggara Tim.",NUSA TENGGARA TIMUR,,Indonesia,85238533010.0,,,-8.3729709,123.435693,https://maps.google.com/?cid=0x0:0xa85e3bffb5ef977f,
perumahan,perumahan,Solor Archipelago,"Baolangu, Kec. Nubatukan, Kabupaten Lembata, Nusa Tenggara Tim.","Kabupaten Lembata, Nusa Tenggara Tim.",NUSA TENGGARA TIMUR,,Indonesia,,,,-8.41667,123.45,https://maps.google.com/?cid=0x0:0xffa217e6f3591d02,
perumahan,perumahan,Lewoleba Tim.,"Kec. Nubatukan, Kabupaten Lembata, Nusa Tenggara Tim.","Kabupaten Lembata, Nusa Tenggara Tim.",NUSA TENGGARA TIMUR,,Indonesia,,,,-8.3651593,123.466379,https://maps.google.com/?cid=0x0:0xc6b48980ae608ad,
perumahan,Pasar tradisional,PASAR PADA,"J99W+C3W, Pasar pada, Lewoleba, Nusa Tenggara Tim.","Kabupaten Lembata, Nusa Tenggara Tim.",NUSA TENGGARA TIMUR,,Indonesia,82235366914.0,,,-8.381382,123.3952034,https://maps.google.com/?cid=0x0:0xfbaef16a98d7c308,
perumahan,Rumah Sakit,RSUD LEWOLEBA,"JFR6+CGV, Lewoleba Tim., Kec. Nubatukan, Kabupaten Lembata, Nusa Tenggara Tim.","Kabupaten Lembata, Nusa Tenggara Tim.",NUSA TENGGARA TIMUR,,Indonesia,3832343442.0,,,-8.3588968,123.4613085,https://maps.google.com/?cid=0x0:0x1f60e42750a246ea,
perumahan,Padang,Rumah Makan Merkuri,"JFQ3+PRP, Lewoleba Tim., Kec. Nubatukan, Kabupaten Lembata, Nusa Tenggara Tim.","Kabupaten Lembata, Nusa Tenggara Tim.",NUSA TENGGARA TIMUR,,Indonesia,81339862931.0,,,-8.3606622,123.4545935,https://maps.google.com/?cid=0x0:0x16c48db578d56203,
perumahan,Brunch,Warung Makan Lumayan,"JFR5+76G, Lewoleba Tim., Kec. Nubatukan, Kabupaten Lembata, Nusa Tenggara Tim.","Kabupaten Lembata, Nusa Tenggara Tim.",NUSA TENGGARA TIMUR,,Indonesia,,,,-8.3593131,123.4580922,https://maps.google.com/?cid=0x0:0xc9d71c36f9f31f,
perumahan,Komplek perumahan,Rumah Lety,"JCGP+454, Lewoleba Tengah, Kec. Nubatukan, Kabupaten Lembata, Nusa Tenggara Tim.","Kabupaten Lembata, Nusa Tenggara Tim.",NUSA TENGGARA TIMUR,,Indonesia,,,,-8.3747452,123.4354376,https://maps.google.com/?cid=0x0:0xc93d32169ced6a4f,
perumahan,perumahan,Rumah Jackie Namang,"JCFM+334, Lewoleba Tengah, Kec. Nubatukan, Kabupaten Lembata, Nusa Tenggara Tim.","Kabupaten Lembata, Nusa Tenggara Tim.",NUSA TENGGARA TIMUR,,Indonesia,,,,-8.3773559,123.4327004,https://maps.google.com/?cid=0x0:0xf9c26f4f286bed65,
perumahan,Perhimpunan Pengembang Perumahan,BEGINI CERITANYA,"JCG9+M3Q, Lewoleba Tengah, Kec. Nubatukan, Kabupaten Lembata, Nusa Tenggara Tim.","Kabupaten Lembata, Nusa Tenggara Tim.",NUSA TENGGARA TIMUR,,Indonesia,,,,-8.3732763,123.4177524,https://maps.google.com/?cid=0x0:0x9142dfc7a5cf77b2,
perumahan,Komplek perumahan,TACUNGKILL,"JC9C+X5J, Lewoleba Sel., Kec. Nubatukan, Kabupaten Lembata, Nusa Tenggara Tim.","Kabupaten Lembata, Nusa Tenggara Tim.",NUSA TENGGARA TIMUR,,Indonesia,,,,-8.3799897,123.4205302,https://maps.google.com/?cid=0x0:0x14346606e1c4f7a4,
perumahan,Komplek perumahan,Rumah Jhevan,"Jl. Trans Lembata No.3, Lewoleba Tim., Kec. Nubatukan, Kabupaten Lembata, Nusa Tenggara Tim. 86616","Lewoleba Tim., Kec. Nubatukan, Kabupaten Lembata",NUSA TENGGARA TIMUR,86616.0,Indonesia,,,,-8.3665019,123.4418075,https://maps.google.com/?cid=0x0:0xb70340eab731e3ff,
perumahan,Komplek perumahan,Rumah Don Wayan,"JCGH+MCJ, Jl. Trans Lembata, Lewoleba Tengah, Kec. Nubatukan, Kabupaten Lembata, Nusa Tenggara Tim.","Kabupaten Lembata, Nusa Tenggara Tim.",NUSA TENGGARA TIMUR,,Indonesia,,,,-8.3732959,123.4285178,https://maps.google.com/?cid=0x0:0x77b382db0f3b6ce2,
perumahan,Komplek perumahan,Rumah Petu Ega Koban,"JCCF+755, Komak, Lewoleba Sel., Kec. Nubatukan, Kabupaten Lembata, Nusa Tenggara Tim.","Kabupaten Lembata, Nusa Tenggara Tim.",NUSA TENGGARA TIMUR,,Indonesia,,,,-8.3793603,123.4229851,https://maps.google.com/?cid=0x0:0x7c39eb3f84001351,
perumahan,perumahan,KATARINA Lr,"JCJ9+4W7, Lewoleba Tengah, Kec. Nubatukan, Kabupaten Lembata, Nusa Tenggara Tim.","Kabupaten Lembata, Nusa Tenggara Tim.",NUSA TENGGARA TIMUR,,Indonesia,,,,-8.3697195,123.4197854,https://maps.google.com/?cid=0x0:0x4a193a18c5a9b327,
perumahan,Komplek perumahan,kecamatan nubatukan,"J95X+RJQ, Lewoleba, Kec. Nubatukan, Kabupaten Lembata, Nusa Tenggara Tim.","Kabupaten Lembata, Nusa Tenggara Tim.",NUSA TENGGARA TIMUR,,Indonesia,,,,-8.3904019,123.3991028,https://maps.google.com/?cid=0x0:0x171ac499515afaf,
perumahan,Pembangunan Perumahan,Wangatoa Atas,"JCHG+MJ2, Kampung Nyamuk, Lewoleba Tengah, Kec. Nubatukan, Kabupaten Lembata, Nusa Tenggara Tim.","Kabupaten Lembata, Nusa Tenggara Tim.",NUSA TENGGARA TIMUR,,Indonesia,,,,-8.3708872,123.4264984,https://maps.google.com/?cid=0x0:0x73eb012bb88fed2e,
perumahan,Komplek perumahan,WANTED KOMPLEX,"JCGH+CWJ, Lewoleba Tengah, Kec. Nubatukan, Kabupaten Lembata, Nusa Tenggara Tim.","Kabupaten Lembata, Nusa Tenggara Tim.",NUSA TENGGARA TIMUR,,Indonesia,,,,-8.3739049,123.429759,https://maps.google.com/?cid=0x0:0x8f2d4f58a5f52e6a,
perumahan,perumahan,Kec. Omesuri,"Kabupaten Lembata, Nusa Tenggara Tim.","Kabupaten Lembata, Nusa Tenggara Tim.",NUSA TENGGARA TIMUR,,Indonesia,,,,-8.2457063,123.7524523,https://maps.google.com/?cid=0x0:0x63a024d49fdb39f4,
perumahan,Pembangunan Perumahan,Kecamatan omesuri,"JCJV+M72, Selandoro, Kec. Nubatukan, Kabupaten Lembata, Nusa Tenggara Tim.","Kabupaten Lembata, Nusa Tenggara Tim.",NUSA TENGGARA TIMUR,,Indonesia,,,,-8.3683511,123.4431274,https://maps.google.com/?cid=0x0:0x470b17d0814a95,
perumahan,Komplek perumahan,Lamahora Timur,"RW No.08 RT37, Lewoleba Tim., Kec. Nubatukan, Kabupaten Lembata, Nusa Tenggara Tim.","Kabupaten Lembata, Nusa Tenggara Tim.",NUSA TENGGARA TIMUR,,Indonesia,,,,-8.3664768,123.4499699,https://maps.google.com/?cid=0x0:0xbf0fcdab20e17a15,
perumahan,Komplek perumahan,Rumah Arifin,"PQC8+66V, Mahal, Kec. Omesuri, Kabupaten Lembata, Nusa Tenggara Tim.","Kabupaten Lembata, Nusa Tenggara Tim.",NUSA TENGGARA TIMUR,,Indonesia,,,,-8.279397,123.76555,https://maps.google.com/?cid=0x0:0xf647f83f38e0bb99,
perumahan,Pembangunan Perumahan,Kampung Bajo,"QP75+FGV, Hoelea II, Kec. Omesuri, Kabupaten Lembata, Nusa Tenggara Tim.","Kabupaten Lembata, Nusa Tenggara Tim.",NUSA TENGGARA TIMUR,,Indonesia,,,,-8.2362512,123.7087816,https://maps.google.com/?cid=0x0:0x37228e46e3e7b8e6,
perumahan,Komplek perumahan,Rumah Raditya,"QP93+3X5, Hoelea II, Kec. Omesuri, Kabupaten Lembata, Nusa Tenggara Tim.","Kabupaten Lembata, Nusa Tenggara Tim.",NUSA TENGGARA TIMUR,,Indonesia,,,,-8.2323684,123.7049795,https://maps.google.com/?cid=0x0:0xade2f3d028f9cf38,
perumahan,Komplek perumahan,Rumah RT 01,"PMVF+X4Q, Jl. Trans Lembata, Liang Bonoq Wailolong, Kec. Omesuri, Kabupaten Lembata, Nusa Tenggara Tim.","Kabupaten Lembata, Nusa Tenggara Tim.",NUSA TENGGARA TIMUR,,Indonesia,81372137911.0,,,-8.2550439,123.6728504,https://maps.google.com/?cid=0x0:0x8275f38f59db1320,
perumahan,Pembangunan Perumahan,Leuwalang kompleks,"QQ37+3F7, Leuwayang, Kec. Omesuri, Kabupaten Lembata, Nusa Tenggara Tim.","Kabupaten Lembata, Nusa Tenggara Tim.",NUSA TENGGARA TIMUR,,Indonesia,,,,-8.2473386,123.7636797,https://maps.google.com/?cid=0x0:0x7120247fa5db0eb2,
perumahan,Perumahan,Irfan home,"QQ4H+75X, Mahal, Kec. Omesuri, Kabupaten Lembata, Nusa Tenggara Tim.","Kabupaten Lembata, Nusa Tenggara Tim.",NUSA TENGGARA TIMUR,,Indonesia,,,,-8.2442564,123.7779848,https://maps.google.com/?cid=0x0:0x82b13e84ff07684e,
perumahan,Komplek perumahan,Hoelea,"PPWG+HMJ, Hoelea, Kec. Omesuri, Kabupaten Lembata, Nusa Tenggara Tim.","Kabupaten Lembata, Nusa Tenggara Tim.",NUSA TENGGARA TIMUR,,Indonesia,,,,-8.2535315,123.7266253,https://maps.google.com/?cid=0x0:0xe5e62150b0f1d155,
perumahan,Komplek perumahan,GabyHome,"QQ3P+85, Walangsawah, Kec. Omesuri, Kabupaten Lembata, Nusa Tenggara Tim.","Kabupaten Lembata, Nusa Tenggara Tim.",NUSA TENGGARA TIMUR,,Indonesia,,,,-8.2466711,123.7854123,https://maps.google.com/?cid=0x0:0x77e02bbabc9c680a,
perumahan,Komplek perumahan,Rumah alex amo,"QPPV+F6M, Hoelea II, Kec. Omesuri, Kabupaten Lembata, Nusa Tenggara Tim.","Kabupaten Lembata, Nusa Tenggara Tim.",NUSA TENGGARA TIMUR,,Indonesia,,,,-8.2129504,123.7430796,https://maps.google.com/?cid=0x0:0x3551258d69e52504,
perumahan,Komplek perumahan,KESYAA HOME,"QQ2F+FXV, Mahal, Kec. Omesuri, Kabupaten Lembata, Nusa Tenggara Tim.","Kabupaten Lembata, Nusa Tenggara Tim.",NUSA TENGGARA TIMUR,,Indonesia,,,,-8.2484604,123.7746029,https://maps.google.com/?cid=0x0:0x24069ea59410396f,
perumahan,Perumahan,Hingalamamengi,"QPCR+MGW, Hingalamamengi, Kec. Omesuri, Kabupaten Lembata, Nusa Tenggara Tim.","Kabupaten Lembata, Nusa Tenggara Tim.",NUSA TENGGARA TIMUR,,Indonesia,,,,-8.2282596,123.7413273,https://maps.google.com/?cid=0x0:0xeb3b1d16966b1c9e,
perumahan,Komplek perumahan,RomaOmesuriLembataNTT,"QPXV+P6, Roma, Kec. Omesuri, Kabupaten Lembata, Nusa Tenggara Tim.","Kabupaten Lembata, Nusa Tenggara Tim.",NUSA TENGGARA TIMUR,,Indonesia,,,,-8.2006952,123.7431018,https://maps.google.com/?cid=0x0:0x4f834f96e10d672e,
perumahan,Komplek perumahan,Rumah Aba Raja Leutuan,"QQ37+JQ6, Walangsawah, Kec. Omesuri, Kabupaten Lembata, Nusa Tenggara Tim.","Kabupaten Lembata, Nusa Tenggara Tim.",NUSA TENGGARA TIMUR,,Indonesia,,,,-8.2459566,123.7643772,https://maps.google.com/?cid=0x0:0x763cb055e5385dd7,
perumahan,Komplek perumahan,Rumah Shukryan sangadji,"RT.004/RW.001, Lewoleba, Kec. Omesuri, Kabupaten Lembata, Nusa Tenggara Tim.","Kabupaten Lembata, Nusa Tenggara Tim.",NUSA TENGGARA TIMUR,,Indonesia,81339616668.0,,,-8.2226505,123.7378204,https://maps.google.com/?cid=0x0:0xbd86bb8e5aaa32b,
perumahan,Komplek perumahan,Rumah mataram,"PP72+CHQ, Jl setapak, Balauring, Kec. Omesuri, Kabupaten Lembata, Nusa Tenggara Tim.","Kabupaten Lembata, Nusa Tenggara Tim.",NUSA TENGGARA TIMUR,,Indonesia,,,,-8.2864014,123.7014716,https://maps.google.com/?cid=0x0:0xd4c2b7735d562baf,
perumahan,Pembangunan Perumahan,Rumah,"QPMV+JCJ, Leudanung, Kec. Omesuri, Kabupaten Lembata, Nusa Tenggara Tim.","Kabupaten Lembata, Nusa Tenggara Tim.",NUSA TENGGARA TIMUR,,Indonesia,,,,-8.2159223,123.7427228,https://maps.google.com/?cid=0x0:0xd1c5aee4323d1e69,
perumahan,perumahan,Rumah Syilva,"QQ33+X5W, Desa Aramengi, Kec. Omesuri, Kabupaten Lembata, Nusa Tenggara Tim.","Kabupaten Lembata, Nusa Tenggara Tim.",NUSA TENGGARA TIMUR,,Indonesia,,,,-8.2450116,123.7529531,https://maps.google.com/?cid=0x0:0x5f43c2602b0542cf,
perumahan,Perumahan,Rumah shukryan sangadji,"QP84+JWM, Hoelea II, Kec. Omesuri, Kabupaten Lembata, Nusa Tenggara Tim.","Kabupaten Lembata, Nusa Tenggara Tim.",NUSA TENGGARA TIMUR,,Indonesia,,,,-8.233705,123.7066501,https://maps.google.com/?cid=0x0:0x23e469f87e68e541,
perumahan,Komplek perumahan,Kompleks Gembel,"PPPG+RMJ, RT.16/RW.004, Hingalamamengi, Kec. Omesuri, Kabupaten Lembata, Nusa Tenggara Tim.","Kabupaten Lembata, Nusa Tenggara Tim.",NUSA TENGGARA TIMUR,,Indonesia,,,,-8.2629073,123.7266253,https://maps.google.com/?cid=0x0:0x7cb741872fa6b7d6,
perumahan,perumahan,Rumah Budy Wulakada,"QR52+P7R, Benihading, Kec. Buyasari, Kabupaten Lembata, Nusa Tenggara Tim.","Kabupaten Lembata, Nusa Tenggara Tim.",NUSA TENGGARA TIMUR,,Indonesia,,,,-8.2406496,123.8006498,https://maps.google.com/?cid=0x0:0xb64333d58e03d443,
perumahan,Komplek perumahan,Rumah Balauring,"PP72+CHQ, Balauring, Kec. Omesuri, Kabupaten Lembata, Nusa Tenggara Tim.","Kabupaten Lembata, Nusa Tenggara Tim.",NUSA TENGGARA TIMUR,,Indonesia,,,,-8.2864014,123.7014716,https://maps.google.com/?cid=0x0:0x45a37b47da01ecc4,
perumahan,perumahan,Nusa Tenggara Tim.,,Nusa Tenggara Tim.,NUSA TENGGARA TIMUR,,Indonesia,,,,-8.6573819,121.0793705,https://maps.google.com/?cid=0x0:0x1030bfbcaf71ae0,
perumahan,perumahan,Kec. Wulandoni,"Kabupaten Lembata, Nusa Tenggara Tim.","Kabupaten Lembata, Nusa Tenggara Tim.",NUSA TENGGARA TIMUR,,Indonesia,,,,-8.5385769,123.40855,https://maps.google.com/?cid=0x0:0x4add02297fb33d4d,
perumahan,Komplek perumahan,Radhit Zed,"JCJF+49P, Jl. Trans Lewoleba, Lewoleba Tengah, Kec. Nubatukan, Kabupaten Lembata, Nusa Tenggara Tim. 86685","Jl. Trans Lewoleba, Lewoleba Tengah, Kec. Nubatukan, Kabupaten Lembata",NUSA TENGGARA TIMUR,86685.0,Indonesia,,,,-8.3696534,123.4234474,https://maps.google.com/?cid=0x0:0x5a0b0d82ff23c5b6,
perumahan,Komplek perumahan,Tower Wulandoni,"FFC7+GPM, Unnamed Road, Pantai Harapan, Kec. Wulandoni, Kabupaten Lembata, Nusa Tenggara Tim.","Kabupaten Lembata, Nusa Tenggara Tim.",NUSA TENGGARA TIMUR,,Indonesia,,,,-8.5286628,123.4642813,https://maps.google.com/?cid=0x0:0xa33328169075fc45,
perumahan,Komplek perumahan,Wulandoni,"FC8X+G8C, Pantai Harapan, Kec. Wulandoni, Kabupaten Lembata, Nusa Tenggara Tim.","Kabupaten Lembata, Nusa Tenggara Tim.",NUSA TENGGARA TIMUR,,Indonesia,,,,-8.5336963,123.4482763,https://maps.google.com/?cid=0x0:0x5f7dcd43ff96886f,
perumahan,Pembangunan Perumahan,"TAPOBALI, Wulandoni,Lembata","C99Q+M89, Tapobali, Kec. Wulandoni, Kabupaten Lembata, Nusa Tenggara Tim.","Kabupaten Lembata, Nusa Tenggara Tim.",NUSA TENGGARA TIMUR,,Indonesia,,,,-8.5798056,123.3890278,https://maps.google.com/?cid=0x0:0x318320d6b120bd05,
perumahan,perumahan,Kuburan komplek,"FC5F+2JQ, Wulandoni, Kec. Wulandoni, Kabupaten Lembata, Nusa Tenggara Tim.","Kabupaten Lembata, Nusa Tenggara Tim.",NUSA TENGGARA TIMUR,,Indonesia,,,,-8.5424141,123.4241176,https://maps.google.com/?cid=0x0:0xb9714673ccc3bc32,
perumahan,Komplek perumahan,Ranon Lolon Complex,"FFC2+G6, Pantai Harapan, Kec. Wulandoni, Kabupaten Lembata, Nusa Tenggara Tim.","Kabupaten Lembata, Nusa Tenggara Tim.",NUSA TENGGARA TIMUR,,Indonesia,,,,-8.5287059,123.4505589,https://maps.google.com/?cid=0x0:0x33d28913123f683b,
perumahan,Pembangunan Perumahan,Rumah Andi Lolorua,"FFMM+PV6, Atakera, Kec. Wulandoni, Kabupaten Lembata, Nusa Tenggara Tim.","Kabupaten Lembata, Nusa Tenggara Tim.",NUSA TENGGARA TIMUR,,Indonesia,,,,-8.5158418,123.4846836,https://maps.google.com/?cid=0x0:0x86da325117845d3e,
perumahan,Komplek perumahan,IMULOLONG,"FC45+J6V, Lamalera B, Kec. Wulandoni, Kabupaten Lembata, Nusa Tenggara Tim.","Kabupaten Lembata, Nusa Tenggara Tim.",NUSA TENGGARA TIMUR,,Indonesia,,,,-8.5433988,123.4080392,https://maps.google.com/?cid=0x0:0x2e418d6a1f6362e6,
perumahan,Komplek perumahan,Aida_Usman,"FFMP+FG8, Leworaja, Kec. Wulandoni, Kabupaten Lembata, Nusa Tenggara Tim.","Kabupaten Lembata, Nusa Tenggara Tim.",NUSA TENGGARA TIMUR,,Indonesia,,,,-8.5163313,123.4863298,https://maps.google.com/?cid=0x0:0xe987ce7007b01515,
perumahan,Komplek perumahan,Lolon family complex,"FFMM+MQX, Atakera, Kec. Wulandoni, Kabupaten Lembata, Nusa Tenggara Tim.","Kabupaten Lembata, Nusa Tenggara Tim.",NUSA TENGGARA TIMUR,,Indonesia,,,,-8.5157584,123.4844814,https://maps.google.com/?cid=0x0:0x6203171a915d2ad9,
perumahan,Komplek perumahan,Khevin wuwur,"FC5C+8R7, Wulandoni, Kec. Wulandoni, Kabupaten Lembata, Nusa Tenggara Tim.","Kabupaten Lembata, Nusa Tenggara Tim.",NUSA TENGGARA TIMUR,,Indonesia,,,,-8.5417002,123.4220557,https://maps.google.com/?cid=0x0:0x8923ab638edd8ad1,
perumahan,Perhimpunan Pengembang Perumahan,Desa puor,"G93G+FMF, Puor, Kec. Wulandoni, Kabupaten Lembata, Nusa Tenggara Tim.","Kabupaten Lembata, Nusa Tenggara Tim.",NUSA TENGGARA TIMUR,,Indonesia,,,,-8.4963229,123.3766669,https://maps.google.com/?cid=0x0:0xab9ece775e9c337c,
perumahan,Komplek perumahan,Rmh Adat Suku Gawen,"FC35+W77, Lamalera B, Kec. Wulandoni, Kabupaten Lembata, Nusa Tenggara Tim.","Kabupaten Lembata, Nusa Tenggara Tim.",NUSA TENGGARA TIMUR,,Indonesia,,,,-8.5452223,123.4081773,https://maps.google.com/?cid=0x0:0x93f83ca629a28c5b,
perumahan,Pembangunan Perumahan,PEDE ONO HOME,"GF29+8MF, Atakera, Kec. Wulandoni, Kabupaten Lembata, Nusa Tenggara Tim.","Kabupaten Lembata, Nusa Tenggara Tim.",NUSA TENGGARA TIMUR,,Indonesia,,,,-8.4991983,123.4691811,https://maps.google.com/?cid=0x0:0x293276b393c081b7,
perumahan,Komplek perumahan,WATUWARA COMPLEX,"FC59+PV3, Wulandoni, Kec. Wulandoni, Kabupaten Lembata, Nusa Tenggara Tim.","Kabupaten Lembata, Nusa Tenggara Tim.",NUSA TENGGARA TIMUR,,Indonesia,,,,-8.5407375,123.4196719,https://maps.google.com/?cid=0x0:0x300b4082abf25330,
perumahan,Guest house,Penginapan Epis Letto,"FC75+HPW, Jalan Trans Wulandoni,Desa Puor B, Belobao, Kec. Wulandoni, Kabupaten Lembata, Nusa Tenggara Tim.","Kabupaten Lembata, Nusa Tenggara Tim.",NUSA TENGGARA TIMUR,,Indonesia,,,,-8.5362945,123.4110234,https://maps.google.com/?cid=0x0:0x1ce9e15708c41c63,
perumahan,Pembangunan Perumahan,Rumah adat suku wuwur,"FC65+F6R, Belobao, Kec. Wulandoni, Kabupaten Lembata, Nusa Tenggara Tim.","Kabupaten Lembata, Nusa Tenggara Tim.",NUSA TENGGARA TIMUR,,Indonesia,,,,-8.5387599,123.4080203,https://maps.google.com/?cid=0x0:0x919f01603bbaa1cf,
perumahan,perumahan,Hingand papaLoma Home,"FC65+HFC, Wulandoni, Kec. Wulandoni, Kabupaten Lembata, Nusa Tenggara Tim.","Kabupaten Lembata, Nusa Tenggara Tim.",NUSA TENGGARA TIMUR,,Indonesia,,,,-8.5385742,123.4086266,https://maps.google.com/?cid=0x0:0xafd029230a83c303,
perumahan,Pembangunan Perumahan,Ellen Unarajan,"FCXX+2CR, Ataili, Kec. Wulandoni, Kabupaten Lembata, Nusa Tenggara Tim.","Kabupaten Lembata, Nusa Tenggara Tim.",NUSA TENGGARA TIMUR,,Indonesia,,,,-8.5023764,123.4485105,https://maps.google.com/?cid=0x0:0x7bb600879a40b430,
perumahan,Pembangunan Perumahan,BAFALOVE KOMPLEX,"Wulandoni, Kec. Wulandoni, Kabupaten Lembata, Nusa Tenggara Tim.","Kabupaten Lembata, Nusa Tenggara Tim.",NUSA TENGGARA TIMUR,,Indonesia,82137459882.0,,,-8.565889,123.4280014,https://maps.google.com/?cid=0x0:0x1429351c163e3bff,
perumahan,Komplek perumahan,Rumah Rahmat elsiraji,"FF92+CVG Luki, Pantai Harapan, Kec. Wulandoni, Kabupaten Lembata, Nusa Tenggara Tim.","Kabupaten Lembata, Nusa Tenggara Tim.",NUSA TENGGARA TIMUR,,Indonesia,,,,-8.5314374,123.452199,https://maps.google.com/?cid=0x0:0xea52494d35f9e6b7,
perumahan,Komplek perumahan,Rumah BONA,"FG3R+V87, Alap Atadei, Kec. Wulandoni, Kabupaten Lembata, Nusa Tenggara Tim.","Kabupaten Lembata, Nusa Tenggara Tim.",NUSA TENGGARA TIMUR,,Indonesia,,,,-8.5453283,123.5407957,https://maps.google.com/?cid=0x0:0x93aa76f156ce9ef2,
perumahan,Komplek perumahan,Rumah itto,"Jl. Trans Wulandoni No.30, Atakera, Kec. Wulandoni, Kabupaten Lembata, Nusa Tenggara Tim. 86686","Atakera, Kec. Wulandoni, Kabupaten Lembata",NUSA TENGGARA TIMUR,86686.0,Indonesia,,,,-8.5169271,123.4848335,https://maps.google.com/?cid=0x0:0x28ca86c0e6cf8418,
