Category,Real Category,Business Name,Address,City,State,Postal Code,Country,Phone,Email,Website,Latitude,Longitude,Map Link,Details Link
hotel,Rumah wisata,Penginapan RM Kelabo,"2JGP+XXP, Pingel, Ilaga, Kabupaten Puncak, Papua 98972","Pingel, Ilaga, Kabupaten Puncak",PAPUA,98972.0,Indonesia,082351825781,,,-39.726.877,1.376.387.703,https://maps.google.com/?cid=0x0:0x20282eb8b30b3c63,
hotel,Komplek perumahan,Kost Panjang Kago,"2JFR+5GH, Kimak, Ilaga, Kabupaten Puncak, Papua 98972","Kimak, Ilaga, Kabupaten Puncak",PAPUA,98972.0,Indonesia,,,,-39.770.629,1.376.413.533,https://maps.google.com/?cid=0x0:0xbe8a70037f321aec,
hotel,hotel,Wangbe,"Distrik Wangbe, Kabupaten Puncak, Papua","Kabupaten Puncak, Papua",PAPUA,,Indonesia,,,,-39.572.768,1.373.510.778,https://maps.google.com/?cid=0x0:0xec97f18b447d29d3,
hotel,hotel,Rimba Papua Hotel,"Jl. Kwamki Narama No. 1, Kwamki, Kec. Mimika Baru, Kabupaten Mimika, Papua 99971","Kwamki, Kec. Mimika Baru, Kabupaten Mimika",PAPUA,99971.0,Indonesia,0901494949,,,-45.151.124,136.884.599,https://maps.google.com/?cid=0x0:0xa65056700db32492,
hotel,hotel,Hotel Karya Papua,"JGX6+2PM, Jl. R.E. Martadinata Kalinona, Nabarua, Distrik Nabire, Papua 98816","Jl. R.E. Martadinata Kalinona, Nabarua, Distrik Nabire",PAPUA,98816.0,Indonesia,082164655697,,,-33.524.082,1.355.118.114,https://maps.google.com/?cid=0x0:0x8196bf4b8aafbb3f,
hotel,hotel,Hotel Golden Mimika,"Jl. Klp. Dua No.25, Kwamki, Kec. Mimika Baru, Kabupaten Mimika, Papua 99971","Kwamki, Kec. Mimika Baru, Kabupaten Mimika",PAPUA,99971.0,Indonesia,0901323111,,,-4.544.451,1.368.879.651,https://maps.google.com/?cid=0x0:0xc7ff62d17b20c3d1,
hotel,hotel,Jaya Hotel,"CVJP+XV2, Jl. Raya Sp1, Inauga, Kec. Mimika Baru, Kabupaten Mimika, Papua 99971","Jl. Raya Sp1, Inauga, Kec. Mimika Baru, Kabupaten Mimika",PAPUA,99971.0,Indonesia,087777677405,,,-45.676.146,1.368.871.472,https://maps.google.com/?cid=0x0:0x854e1f8dfba40a6c,
hotel,hotel,Hotel Rainbow,"Jl. Irian No.26, Wamena Kota, Distrik Wamena, Kabupaten Jayawijaya, Papua 99511","Wamena Kota, Distrik Wamena, Kabupaten Jayawijaya",PAPUA,99511.0,Indonesia,081248000685,,,-40.943.536,1.389.419.192,https://maps.google.com/?cid=0x0:0x8a8c32fe134fd547,
hotel,hotel,Hotel Mahavira I,"Karang Mulia, Distrik Nabire, Kabupaten Nabire, Papua 98811","Distrik Nabire, Kabupaten Nabire",PAPUA,98811.0,Indonesia,,,,-33.731.863,1.355.098.879,https://maps.google.com/?cid=0x0:0xeffead9206fb0816,
hotel,hotel,Hotel Anggrek,"Jl. Ambon No.1, Wamena Kota, Distrik Wamena, Kabupaten Jayawijaya, Papua 99511","Wamena Kota, Distrik Wamena, Kabupaten Jayawijaya",PAPUA,99511.0,Indonesia,,,,-40.951.401,1.389.486.951,https://maps.google.com/?cid=0x0:0x8c14510cd7032458,
hotel,hotel,Penginapan Paparisa Amungsa,"Koperapoka, Kec. Mimika Baru, Kabupaten Mimika, Papua 99971","Kec. Mimika Baru, Kabupaten Mimika",PAPUA,99971.0,Indonesia,081343206383,,,-45.385.795,1.368.755.667,https://maps.google.com/?cid=0x0:0xfd07a1d4446c8f23,
hotel,hotel,Hotel Manna,"Jl. Imam Bonjol, Fandoi, Biak Papua, Kabupaten Biak Numfor, Papua 98112","Fandoi, Biak Papua, Kabupaten Biak Numfor",PAPUA,98112.0,Indonesia,098122224,,,-11.808.075,1.360.821.667,https://maps.google.com/?cid=0x0:0x58ba27a7cb3a5bd6,
hotel,hotel,Hotel Grand Papua Nabire,"Jln christina martha tiahahu No.gang, Kalibobo, Klp. Dua, Kabupaten Nabire, Papua 98818","Kalibobo, Klp. Dua, Kabupaten Nabire",PAPUA,98818.0,Indonesia,0811485907,,,-33.671.756,1.354.846.675,https://maps.google.com/?cid=0x0:0x3f34c171d042cba3,
hotel,Tujuan Wisata,Pantai Nabire,"JFQV+GJQ, Distrik Nabire, Kabupaten Nabire, Papua","Kabupaten Nabire, Papua",PAPUA,,Indonesia,081286063601,,,-33.611.683,1.354.941.189,https://maps.google.com/?cid=0x0:0x7fa0779bf407a013,
hotel,hotel,Beoga,"Kabupaten Puncak, Papua","Kabupaten Puncak, Papua",PAPUA,,Indonesia,,,,-38.205.622,137.426.146,https://maps.google.com/?cid=0x0:0x5a6bbe39a2fafb09,
hotel,hotel,RAFA HOTEL,"9MXC+PQ7, Vim, Kec. Abepura, Kota Jayapura, Papua","Kota Jayapura, Papua",PAPUA,,Indonesia,,,,-26.011.488,1.406.717.368,https://maps.google.com/?cid=0x0:0x18c6cc75351cda98,
hotel,hotel,Rimba Papua Hotel,"Jl. Kwamki Narama No. 1, Kwamki, Kec. Mimika Baru, Kabupaten Mimika, Papua 99971","Kwamki, Kec. Mimika Baru, Kabupaten Mimika",PAPUA,99971.0,Indonesia,0901494949,,,-45.151.124,136.884.599,https://maps.google.com/?cid=0x0:0xa65056700db32492,
hotel,hotel,Hotel Golden Mimika,"Jl. Klp. Dua No.25, Kwamki, Kec. Mimika Baru, Kabupaten Mimika, Papua 99971","Kwamki, Kec. Mimika Baru, Kabupaten Mimika",PAPUA,99971.0,Indonesia,0901323111,,,-4.544.451,1.368.879.651,https://maps.google.com/?cid=0x0:0xc7ff62d17b20c3d1,
hotel,hotel,Hotel Rainbow,"Jl. Irian No.26, Wamena Kota, Distrik Wamena, Kabupaten Jayawijaya, Papua 99511","Wamena Kota, Distrik Wamena, Kabupaten Jayawijaya",PAPUA,99511.0,Indonesia,081248000685,,,-40.943.536,1.389.419.192,https://maps.google.com/?cid=0x0:0x8a8c32fe134fd547,
hotel,hotel,Hotel Anggrek,"Jl. Ambon No.1, Wamena Kota, Distrik Wamena, Kabupaten Jayawijaya, Papua 99511","Wamena Kota, Distrik Wamena, Kabupaten Jayawijaya",PAPUA,99511.0,Indonesia,,,,-40.951.401,1.389.486.951,https://maps.google.com/?cid=0x0:0x8c14510cd7032458,
hotel,hotel,Penginapan Paparisa Amungsa,"Koperapoka, Kec. Mimika Baru, Kabupaten Mimika, Papua 99971","Kec. Mimika Baru, Kabupaten Mimika",PAPUA,99971.0,Indonesia,081343206383,,,-45.385.795,1.368.755.667,https://maps.google.com/?cid=0x0:0xfd07a1d4446c8f23,
hotel,hotel,Hotel Ratna Manunggal,"JL Penerangan No.2, Sentani Kota, Kec. Sentani, Kabupaten Jayapura, Papua 99359","Sentani Kota, Kec. Sentani, Kabupaten Jayapura",PAPUA,99359.0,Indonesia,0967592277,,,-25.664.673,1.405.131.587,https://maps.google.com/?cid=0x0:0x48909e20fce419f9,
hotel,hotel,Penginapan Tigadara,"9JVV+QR6, Jl. Raya Abepura - Sentani, Hedam, Kec. Heram, Kota Jayapura, Papua 99351","Jl. Raya Abepura - Sentani, Hedam, Kec. Heram, Kota Jayapura",PAPUA,99351.0,Indonesia,02129707601,,,-26.054.842,1.406.444.514,https://maps.google.com/?cid=0x0:0xfad88aa10fa4bd31,
hotel,hotel,Hotel Manna,"Jl. Imam Bonjol, Fandoi, Biak Papua, Kabupaten Biak Numfor, Papua 98112","Fandoi, Biak Papua, Kabupaten Biak Numfor",PAPUA,98112.0,Indonesia,098122224,,,-11.808.075,1.360.821.667,https://maps.google.com/?cid=0x0:0x58ba27a7cb3a5bd6,
hotel,hotel,Hotel Viona,"Jalan, Argapura, Asei Kecil, Jayapura City, Papua 99351","Argapura, Asei Kecil, Jayapura City",PAPUA,99351.0,Indonesia,082198557373,,,-25.590.996,1.407.120.253,https://maps.google.com/?cid=0x0:0x991b43add0b147d8,
hotel,hotel,Penginapan 69,"Kp. Waena, Kec. Heram, Kota Jayapura, Papua 99225","Kec. Heram, Kota Jayapura",PAPUA,99225.0,Indonesia,081248523621,,,-2.593.495,1.406.310.796,https://maps.google.com/?cid=0x0:0x12711ec27878fab8,
hotel,hotel,Hotel Rannu Jaya,"WW6V+7RM, Wamena Kota, Distrik Wamena, Kabupaten Jayawijaya, Papua 99511","Wamena Kota, Distrik Wamena, Kabupaten Jayawijaya",PAPUA,99511.0,Indonesia,082195455765,,,-40.892.985,1.389.445.592,https://maps.google.com/?cid=0x0:0xdd25cadd9590097a,
hotel,hotel,Hotel Gamalama,"9MP9+G56, Jl. Gerilyawan, Yobe, Kec. Abepura, Kota Jayapura, Papua 99351","Jl. Gerilyawan, Yobe, Kec. Abepura, Kota Jayapura",PAPUA,99351.0,Indonesia,085337358893,,,-26.137.021,1.406.678.935,https://maps.google.com/?cid=0x0:0xf95001e3d53d211,
hotel,hotel,Frontone Green Boutique Hotel,"Jl. Gerilyawan Jl. Bosnik BTN Kamkey No.111, Kamkey, Kec. Abepura, Kota Jayapura, Papua 99351","Kamkey, Kec. Abepura, Kota Jayapura",PAPUA,99351.0,Indonesia,0967585010,,,-26.140.146,1.406.711.964,https://maps.google.com/?cid=0x0:0x4a570626468e5935,
hotel,hotel,,,,PAPUA,,Indonesia,,,,,,https://maps.google.com/?cid=0x0:0x4a570626468e5935%7C/g/11qg28n36t%7Cen-ID,
hotel,hotel,Hotel Greend Idaman,"Persatuan, Kec. Mandobo, Kabupaten Boven Digoel, Papua 99663","Kec. Mandobo, Kabupaten Boven Digoel",PAPUA,99663.0,Indonesia,082229338883,,,-61.143.736,1.403.221.803,https://maps.google.com/?cid=0x0:0x7e63bcf9bd853452,
hotel,hotel,Amaris Hotel Dr. Satrio Kuningan - Jakarta,"7, Jl. Prof. DR. Satrio No.23, RW.2, Kuningan Tim., Kecamatan Setiabudi, Kota Jakarta Selatan, Daerah Khusus Ibukota Jakarta 12950","Jl. Prof. DR. Satrio No.23, RW.2, Kuningan Tim., Kecamatan Setiabudi, Kota Jakarta Selatan",PAPUA,12950.0,Indonesia,02129023336,,,-62.256.071,1.068.296.596,https://maps.google.com/?cid=0x0:0x9703a3bf392e02d5,
hotel,hotel,,,,PAPUA,,Indonesia,,,,,,https://maps.google.com/?cid=0x0:0x9703a3bf392e02d5%7C/g/11clzk9zfc%7Cen-ID,
hotel,hotel,Manhattan Hotel Jakarta,"Jl. Prof. DR. Satrio No.Kav.19-24, RT.7/RW.4, Kuningan, Karet Kuningan, Kecamatan Setiabudi, Kota Jakarta Selatan, Daerah Khusus Ibukota Jakarta 12940","RT.7/RW.4, Kuningan, Karet Kuningan, Kecamatan Setiabudi, Kota Jakarta Selatan",PAPUA,12940.0,Indonesia,02130040888,,,-62.252.344,1.068.313.176,https://maps.google.com/?cid=0x0:0x54fd31f2806946cb,
hotel,hotel,,,,PAPUA,,Indonesia,,,,,,https://maps.google.com/?cid=0x0:0x54fd31f2806946cb%7C/g/1tj5hl1s%7Cen-ID,
hotel,Prasmanan,Central Park Restaurant,"Manhattan Hotel 3rd Floor, JL Prof. Dr. Satrio, No. 1, Casablanca Kuningan, RT.7/RW.4, Kuningan, Karet Kuningan, Jakarta Selatan, Kota Jakarta Selatan, Daerah Khusus Ibukota Jakarta 12950","JL Prof. Dr. Satrio, No. 1, Casablanca Kuningan, RT.7/RW.4, Kuningan, Karet Kuningan, Jakarta Selatan, Kota Jakarta Selatan",PAPUA,12950.0,Indonesia,02130040888,,,-62.254.615,1.068.312.765,https://maps.google.com/?cid=0x0:0x47e83ff4b2d01406,
hotel,hotel,Hotel D' Prima,"Jl. Mega Kuningan Timur II No.1, Kuningan, Kuningan Tim., Kecamatan Setiabudi, Kota Jakarta Selatan, Daerah Khusus Ibukota Jakarta 12950","Kuningan, Kuningan Tim., Kecamatan Setiabudi, Kota Jakarta Selatan",PAPUA,12950.0,Indonesia,02129201234,,,-62.285.905,1.068.282.792,https://maps.google.com/?cid=0x0:0xb5a37f1e4d342823,
hotel,hotel,,,,PAPUA,,Indonesia,,,,,,https://maps.google.com/?cid=0x0:0xb5a37f1e4d342823%7C/g/1ptydqp1p%7Cen-ID,
hotel,hotel,ARTOTEL Casa Kuningan,"Jl. Denpasar Raya, RT.8/RW.3, Kuningan, Kuningan Tim., Kecamatan Setiabudi, Kota Jakarta Selatan, Daerah Khusus Ibukota Jakarta 12950","RT.8/RW.3, Kuningan, Kuningan Tim., Kecamatan Setiabudi, Kota Jakarta Selatan",PAPUA,12950.0,Indonesia,08111539539,,,-62.347.461,1.068.268.999,https://maps.google.com/?cid=0x0:0xb27da9c90bfeec74,
hotel,hotel,,,,PAPUA,,Indonesia,,,,,,https://maps.google.com/?cid=0x0:0xb27da9c90bfeec74%7C/g/11t77mm2hq%7Cen-ID,
hotel,hotel,Hotel Rasuna Icon,"Jl. Karet Pedurenan No.3, RT.6/RW.7, Kuningan, Karet Kuningan, Kecamatan Setiabudi, Kota Jakarta Selatan, Daerah Khusus Ibukota Jakarta 12940","RT.6/RW.7, Kuningan, Karet Kuningan, Kecamatan Setiabudi, Kota Jakarta Selatan",PAPUA,12940.0,Indonesia,0215201642,,,-62.207.481,1.068.291.792,https://maps.google.com/?cid=0x0:0x96ed03281906a8bb,
hotel,hotel,,,,PAPUA,,Indonesia,,,,,,https://maps.google.com/?cid=0x0:0x96ed03281906a8bb%7C/g/1w3sx3cl%7Cen-ID,
hotel,hotel,Hotel JS Luwansa,"Jl. H. R. Rasuna Said No.22 Kav. C, RT.2/RW.5, Karet Kuningan, Kecamatan Setiabudi, Kota Jakarta Selatan, Daerah Khusus Ibukota Jakarta 12940","RT.2/RW.5, Karet Kuningan, Kecamatan Setiabudi, Kota Jakarta Selatan",PAPUA,12940.0,Indonesia,02129543030,,,-62.228.755,1.068.330.025,https://maps.google.com/?cid=0x0:0x29a39276bac061d4,
hotel,hotel,Papua 98976,Papua,Papua,PAPUA,,Indonesia,,,,-31.858.094,1.375.275.422,https://maps.google.com/?cid=0x0:0x93d2390dfd2f699,
hotel,hotel,Hotel Sahid Papua,"Jl. Klp. 2 No.18, Entrop, Distrik Jayapura Selatan, Kota Jayapura, Papua 99221","Entrop, Distrik Jayapura Selatan, Kota Jayapura",PAPUA,99221.0,Indonesia,0811481167,,,-25.661.461,1.406.996.539,https://maps.google.com/?cid=0x0:0x9c8a2fd141b3aa33,
hotel,hotel,Hotel Grand Papua Sentani,"Jalan Sosial No.388, Hinekombe, Kec. Sentani, Kabupaten Jayapura, Papua 99352","Hinekombe, Kec. Sentani, Kabupaten Jayapura",PAPUA,99352.0,Indonesia,08114827899,,,-2.557.344,1.404.958.181,https://maps.google.com/?cid=0x0:0x9afaf186d23bb377,
hotel,hotel,Rimba Papua Hotel,"Jl. Kwamki Narama No. 1, Kwamki, Kec. Mimika Baru, Kabupaten Mimika, Papua 99971","Kwamki, Kec. Mimika Baru, Kabupaten Mimika",PAPUA,99971.0,Indonesia,0901494949,,,-45.151.124,136.884.599,https://maps.google.com/?cid=0x0:0xa65056700db32492,
hotel,hotel,Hotel Surya Jaya,"Dobonsolo, Kec. Sentani, Kabupaten Jayapura, Papua 99352","Kec. Sentani, Kabupaten Jayapura",PAPUA,99352.0,Indonesia,081258898707,,,-25.695.916,1.405.044.756,https://maps.google.com/?cid=0x0:0x705c2fe69d32db2b,
hotel,hotel,Hotel Dafonsoro,"Jl. Percetakan Negara No.20-24, Gurabesi, Kec. Jayapura Utara, Kota Jayapura, Papua 99221","Gurabesi, Kec. Jayapura Utara, Kota Jayapura",PAPUA,99221.0,Indonesia,085788877739,,,-25.406.973,1.407.041.061,https://maps.google.com/?cid=0x0:0xda20a7d826a77577,
hotel,hotel,Hotel Grand Papua Fakfak,"38C3+WJ8, Fak Fak Utara, Distrik Fakfak, Kabupaten Fakfak, Papua Bar. 98651","Fak Fak Utara, Distrik Fakfak, Kabupaten Fakfak",PAPUA,98651.0,Indonesia,08114852349,,,-29.273.756,1.323.046.214,https://maps.google.com/?cid=0x0:0x9ff2b85d6b66a2ca,
hotel,hotel,,,,PAPUA,,Indonesia,,,,,,https://maps.google.com/?cid=0x0:0x9ff2b85d6b66a2ca%7C/g/11b6c__t4_%7Cen-ID,
hotel,Hutan Nasional,PULAU TUBIR SERAM,"28XF+477, Dana Weria, Distrik Fakfak Tengah, Kabupaten Fakfak, Papua Bar.","Kabupaten Fakfak, Papua Bar.",PAPUA,,Indonesia,,,,-29.522.091,1.323.231.871,https://maps.google.com/?cid=0x0:0x716e873f0c48008f,
hotel,hotel,Batado Coffe,"38C3+WJ8, Fak Fak Utara, Distrik Fakfak, Kabupaten Fakfak, Papua Bar. 98651","Fak Fak Utara, Distrik Fakfak, Kabupaten Fakfak",PAPUA,98651.0,Indonesia,,,,-292.771,1.323.040.668,https://maps.google.com/?cid=0x0:0xfcff366601c2a587,
hotel,hotel,DELUA HOTEL,"Jl. Raya Mangga Besar No.82 13, RT.13/RW.1, Taman Sari, Kec. Taman Sari, Kota Jakarta Barat, Daerah Khusus Ibukota Jakarta 11150","RT.13/RW.1, Taman Sari, Kec. Taman Sari, Kota Jakarta Barat",PAPUA,11150.0,Indonesia,02122683308,,,-61.490.243,1.068.258.797,https://maps.google.com/?cid=0x0:0xd03a9fa65f4ee0c9,
hotel,hotel,,,,PAPUA,,Indonesia,,,,,,https://maps.google.com/?cid=0x0:0xd03a9fa65f4ee0c9%7C/g/11fzf8xt0r%7Cen-ID,
hotel,Museum Sejarah Lokal,Monumen Nasional,"Merdeka Square, Jalan Lapangan Monas, Gambir, Kecamatan Gambir, Kota Jakarta Pusat, Daerah Khusus Ibukota Jakarta 10110","Jalan Lapangan Monas, Gambir, Kecamatan Gambir, Kota Jakarta Pusat",PAPUA,10110.0,Indonesia,0213853040,,,-61.753.924,1.068.271.528,https://maps.google.com/?cid=0x0:0x3d2ad6e1e0e9bcc8,
hotel,Depot kereta api,Mangga Besar,"Jl. Karang Anyar, Karang Anyar, Kecamatan Sawah Besar, Kota Jakarta Pusat, Daerah Khusus Ibukota Jakarta","Kota Jakarta Pusat, Daerah Khusus Ibukota Jakarta",PAPUA,,Indonesia,,,,-61.498,10.682.698,https://maps.google.com/?cid=0x0:0x88f81dc9cad772bc,
hotel,hotel,"YUAN GARDEN HOTEL, Pasar Baru - Jakarta Pusat","Jl. Pintu Air V No.53, RT.5/RW.8, Ps. Baru, Kecamatan Sawah Besar, Kota Jakarta Pusat, Daerah Khusus Ibukota Jakarta 10710","RT.5/RW.8, Ps. Baru, Kecamatan Sawah Besar, Kota Jakarta Pusat",PAPUA,10710.0,Indonesia,02150881000,,,-61.630.706,1.068.323,https://maps.google.com/?cid=0x0:0xf998bdd3135459f4,
hotel,hotel,,,,PAPUA,,Indonesia,,,,,,https://maps.google.com/?cid=0x0:0xf998bdd3135459f4%7C/g/11f1595vv5%7Cen-ID,
hotel,Stasiun Kereta,Juanda,"Ps. Baru, Kecamatan Sawah Besar, Kota Jakarta Pusat, Daerah Khusus Ibukota Jakarta","Kota Jakarta Pusat, Daerah Khusus Ibukota Jakarta",PAPUA,,Indonesia,,,,-616.345,10.683.046,https://maps.google.com/?cid=0x0:0x8030c75a44c40b47,
hotel,hotel,Hotel 88 Mangga Besar 62,"Jl. Raya Mangga Besar No.62, RT.6/RW.1, Taman Sari, Kec. Taman Sari, Kota Jakarta Barat, Daerah Khusus Ibukota Jakarta 11150","RT.6/RW.1, Taman Sari, Kec. Taman Sari, Kota Jakarta Barat",PAPUA,11150.0,Indonesia,02162311122,,,-61.493.495,1.068.237.107,https://maps.google.com/?cid=0x0:0xd953dc6404ca3ea2,
hotel,hotel,,,,PAPUA,,Indonesia,,,,,,https://maps.google.com/?cid=0x0:0xd953dc6404ca3ea2%7C/g/11b73qrr7k%7Cen-ID,
hotel,hotel,Hotel 88 Mangga Besar VIII,"Jl. Mangga Besar VIII No.10D, Taman Sari, Kec. Taman Sari, Kota Jakarta Barat, Daerah Khusus Ibukota Jakarta 11180","Taman Sari, Kec. Taman Sari, Kota Jakarta Barat",PAPUA,11180.0,Indonesia,02162302525,,,-61.508.129,1.068.254.365,https://maps.google.com/?cid=0x0:0xebaf32d1db58b48d,
hotel,hotel,,,,PAPUA,,Indonesia,,,,,,https://maps.google.com/?cid=0x0:0xebaf32d1db58b48d%7C/g/11x9m6x14%7Cen-ID,
hotel,hotel,Amaris Hotel Mangga Besar,"Jl. Raya Mangga Besar No.7, RT.6/RW.5, Mangga Besar, Kec. Taman Sari, Kota Jakarta Barat, Daerah Khusus Ibukota Jakarta 11180","RT.6/RW.5, Mangga Besar, Kec. Taman Sari, Kota Jakarta Barat",PAPUA,11180.0,Indonesia,0216262908,,,-61.493.475,1.068.188.245,https://maps.google.com/?cid=0x0:0x59f1114a5bfa1fe0,
hotel,hotel,,,,PAPUA,,Indonesia,,,,,,https://maps.google.com/?cid=0x0:0x59f1114a5bfa1fe0%7C/g/1hc458pdk%7Cen-ID,
hotel,hotel,Papua 98973,"Kabupaten Puncak, Papua","Kabupaten Puncak, Papua",PAPUA,,Indonesia,,,,-38.173.024,1.378.427.298,https://maps.google.com/?cid=0x0:0x306367a3dc8a22ab,
hotel,hotel,SIP Azana Hotel Jayapura,"Jl. Ahmad Yani No.50, Gurabesi, Kec. Jayapura Utara, Kota Jayapura, Papua 99221","Gurabesi, Kec. Jayapura Utara, Kota Jayapura",PAPUA,99221.0,Indonesia,082197886688,,,-25.436.754,1.407.014.241,https://maps.google.com/?cid=0x0:0xc311c59465e76f9e,
hotel,hotel,SAMUMAMBO HOTEL,"jl. cenderawasih belakang manna bakerei, Kwamki, Kec. Mimika Baru, Kabupaten Mimika, Papua 99910","Kwamki, Kec. Mimika Baru, Kabupaten Mimika",PAPUA,99910.0,Indonesia,081344090664,,,-45.424.836,1.368.797.497,https://maps.google.com/?cid=0x0:0xcb5241de257efb93,
hotel,hotel,Penginapan Paparisa Amungsa,"Koperapoka, Kec. Mimika Baru, Kabupaten Mimika, Papua 99971","Kec. Mimika Baru, Kabupaten Mimika",PAPUA,99971.0,Indonesia,081343206383,,,-45.385.795,1.368.755.667,https://maps.google.com/?cid=0x0:0xfd07a1d4446c8f23,
hotel,Hotel,Red Wam Hotel,"7XX7+9F6, Wuyukwi, Distrik Mulia, Kabupaten Puncak Jaya, Papua 98973","Wuyukwi, Distrik Mulia, Kabupaten Puncak Jaya",PAPUA,98973.0,Indonesia,,,,-37.007.924,1.379.638.568,https://maps.google.com/?cid=0x0:0x3941752a3906fe3b,
hotel,Rumah wisata,Penginapan RM Kelabo,"2JGP+XXP, Pingel, Ilaga, Kabupaten Puncak, Papua 98972","Pingel, Ilaga, Kabupaten Puncak",PAPUA,98972.0,Indonesia,082351825781,,,-39.726.877,1.376.387.703,https://maps.google.com/?cid=0x0:0x20282eb8b30b3c63,
hotel,Hotel,Hotel Muliain,"7XMM+9VG, Pruleme, Distrik Mulia, Kabupaten Puncak Jaya, Papua 98973","Pruleme, Distrik Mulia, Kabupaten Puncak Jaya",PAPUA,98973.0,Indonesia,,,,-37.179.134,1.379.849.194,https://maps.google.com/?cid=0x0:0x27b549b9e5e5bb3,
hotel,Hotel,MULIA,"7WFX+VJX, Berelema, Distrik Mulia, Kabupaten Puncak Jaya, Papua 98973","Berelema, Distrik Mulia, Kabupaten Puncak Jaya",PAPUA,98973.0,Indonesia,,,,-37.252.683,1.379.491.211,https://maps.google.com/?cid=0x0:0x634251ba449f6712,
hotel,Departemen Pertahanan dan Keamanan,Pos KopeRangers,"2J5W+F9H, Gilini, Distrik Gome, Kabupaten Puncak, Papua","Kabupaten Puncak, Papua",PAPUA,,Indonesia,,,,-39.913.088,1.376.459.898,https://maps.google.com/?cid=0x0:0x89d05c39f571516a,
hotel,hotel,Kec. Sinak,"Kabupaten Puncak, Papua","Kabupaten Puncak, Papua",PAPUA,,Indonesia,,,,-38.109.317,1.378.469.825,https://maps.google.com/?cid=0x0:0x715d84336ea935dd,
hotel,hotel,Horison Sentani Papua,"Jl. Raya Kemiri No.79A, Hinekombe, Kec. Sentani, Kabupaten Jayapura, Papua 99352","Hinekombe, Kec. Sentani, Kabupaten Jayapura",PAPUA,99352.0,Indonesia,09675198888,,,-2.564.948,1.405.134.784,https://maps.google.com/?cid=0x0:0x2481b253bbad1508,
hotel,hotel,"Swiss-Belhotel Jayapura, Papua","Pusat Bisnis Jayapura, Jl. Pacific Permai, Bayangkara, Kec. Jayapura Utara, Kota Jayapura, Papua 99112","Jl. Pacific Permai, Bayangkara, Kec. Jayapura Utara, Kota Jayapura",PAPUA,99112.0,Indonesia,0967551888,,,-2.539.046,140.711.573,https://maps.google.com/?cid=0x0:0xbd14f75af0c6e48b,
hotel,hotel,SIP Azana Hotel Jayapura,"Jl. Ahmad Yani No.50, Gurabesi, Kec. Jayapura Utara, Kota Jayapura, Papua 99221","Gurabesi, Kec. Jayapura Utara, Kota Jayapura",PAPUA,99221.0,Indonesia,082197886688,,,-25.436.754,1.407.014.241,https://maps.google.com/?cid=0x0:0xc311c59465e76f9e,
hotel,hotel,Numbay Hotel,"Jl. Trikora No.23, Dok V, Trikora, Kec. Jayapura Utara, Kota Jayapura, Papua 99114","Dok V, Trikora, Kec. Jayapura Utara, Kota Jayapura",PAPUA,99114.0,Indonesia,09675166939,,,-2.527.363,1.407.185.297,https://maps.google.com/?cid=0x0:0x2a95e5b69088c98d,
hotel,hotel,Hotel Maureen,"46GR+P4R, Jl. Sudirman, Serui Kota, Kec. Yapen Sel., Kabupaten Kepulauan Yapen, Papua 98213","Jl. Sudirman, Serui Kota, Kec. Yapen Sel., Kabupaten Kepulauan Yapen",PAPUA,98213.0,Indonesia,081354165909,,,-18.731.433,1.362.401.965,https://maps.google.com/?cid=0x0:0xb028b61c6c000d80,
hotel,hotel,Hotel Dafonsoro,"Jl. Percetakan Negara No.20-24, Gurabesi, Kec. Jayapura Utara, Kota Jayapura, Papua 99221","Gurabesi, Kec. Jayapura Utara, Kota Jayapura",PAPUA,99221.0,Indonesia,085788877739,,,-25.406.973,1.407.041.061,https://maps.google.com/?cid=0x0:0xda20a7d826a77577,
hotel,hotel,HOTEL AINA,"CGM6+R9J, Jl. Raya Kemiri, Sentani Kota, Kec. Sentani, Kabupaten Jayapura, Papua","Kabupaten Jayapura, Papua",PAPUA,,Indonesia,085243960057,,,-25.654.218,1.405.108.844,https://maps.google.com/?cid=0x0:0xe10f3eb6fe778f83,
hotel,hotel,Rimba Papua Hotel,"Jl. Kwamki Narama No. 1, Kwamki, Kec. Mimika Baru, Kabupaten Mimika, Papua 99971","Kwamki, Kec. Mimika Baru, Kabupaten Mimika",PAPUA,99971.0,Indonesia,0901494949,,,-45.151.124,136.884.599,https://maps.google.com/?cid=0x0:0xa65056700db32492,
hotel,hotel,Papua 98973,"Kabupaten Puncak, Papua","Kabupaten Puncak, Papua",PAPUA,,Indonesia,,,,-38.173.024,1.378.427.298,https://maps.google.com/?cid=0x0:0x306367a3dc8a22ab,
hotel,hotel,Distrik Agandugume,"Kabupaten Puncak, Papua","Kabupaten Puncak, Papua",PAPUA,,Indonesia,,,,-39.025.963,1.379.185.611,https://maps.google.com/?cid=0x0:0x3409f12ce1149fb1,
hotel,hotel,SIP Azana Hotel Jayapura,"Jl. Ahmad Yani No.50, Gurabesi, Kec. Jayapura Utara, Kota Jayapura, Papua 99221","Gurabesi, Kec. Jayapura Utara, Kota Jayapura",PAPUA,99221.0,Indonesia,082197886688,,,-25.436.754,1.407.014.241,https://maps.google.com/?cid=0x0:0xc311c59465e76f9e,
hotel,hotel,Penginapan Paparisa Amungsa,"Koperapoka, Kec. Mimika Baru, Kabupaten Mimika, Papua 99971","Kec. Mimika Baru, Kabupaten Mimika",PAPUA,99971.0,Indonesia,081343206383,,,-45.385.795,1.368.755.667,https://maps.google.com/?cid=0x0:0xfd07a1d4446c8f23,
hotel,Tujuan Wisata,Pantai Nabire,"JFQV+GJQ, Distrik Nabire, Kabupaten Nabire, Papua","Kabupaten Nabire, Papua",PAPUA,,Indonesia,081286063601,,,-33.611.683,1.354.941.189,https://maps.google.com/?cid=0x0:0x7fa0779bf407a013,
hotel,hotel,D'Agape Meeting  Conference,"Jl. Cikopo Sel. No.KM 2, RW.5, Gadog, Kec. Megamendung, Kabupaten Bogor, Jawa Barat 16770","RW.5, Gadog, Kec. Megamendung, Kabupaten Bogor",PAPUA,16770.0,Indonesia,08152121598,,,-66.685.564,1.068.763.126,https://maps.google.com/?cid=0x0:0x8b4c05b6214883d1,
hotel,hotel,,,,PAPUA,,Indonesia,,,,,,https://maps.google.com/?cid=0x0:0x8b4c05b6214883d1%7C/g/11bc7rypfr%7Cen-ID,
hotel,hotel,MDC GADOG,"Jl. Cikopo Sel. No.316, Sukamaju, Kec. Megamendung, Kabupaten Bogor, Jawa Barat 16770","Sukamaju, Kec. Megamendung, Kabupaten Bogor",PAPUA,16770.0,Indonesia,02518246734,,,-66.741.023,1.068.862.516,https://maps.google.com/?cid=0x0:0x18a7282be1263864,
hotel,hotel,Belva Hotel 171,"Jl. Raya Cibogo Puncak No.99, Cipayung Datar, Kec. Megamendung, Kabupaten Bogor, Jawa Barat 16770","Cipayung Datar, Kec. Megamendung, Kabupaten Bogor",PAPUA,16770.0,Indonesia,085175399171,,,-66.536.545,1.068.805.182,https://maps.google.com/?cid=0x0:0xac3103306ce5021c,
hotel,Kebun Binatang,Taman Safari Indonesia Bogor,"Jalan Kapten Harun Kabir No.724, Cibeureum, Kec. Cisarua, Kabupaten Bogor, Jawa Barat 16750","Cibeureum, Kec. Cisarua, Kabupaten Bogor",PAPUA,16750.0,Indonesia,02518250000,,,-67.206.492,1.069.508.355,https://maps.google.com/?cid=0x0:0x6586bb20b8f11d9,
hotel,Perhentian bus,Seberang D Agape,"Sukamahi, Kec. Megamendung, Kabupaten Bogor, Jawa Barat","Kabupaten Bogor, Jawa Barat",PAPUA,,Indonesia,,,,-666.936,10.687.655,https://maps.google.com/?cid=0x0:0x6887670ebb612fad,
hotel,hotel,Papua 98972,Papua,Papua,PAPUA,,Indonesia,,,,-3.921.968,1.375.275.422,https://maps.google.com/?cid=0x0:0x765d582b762840f7,
hotel,hotel,Hotel Grand Papua Sentani,"Jalan Sosial No.388, Hinekombe, Kec. Sentani, Kabupaten Jayapura, Papua 99352","Hinekombe, Kec. Sentani, Kabupaten Jayapura",PAPUA,99352.0,Indonesia,08114827899,,,-2.557.344,1.404.958.181,https://maps.google.com/?cid=0x0:0x9afaf186d23bb377,
hotel,hotel,Bisnis Hotel,"Kwamki, Kec. Mimika Baru, Kabupaten Mimika, Papua 99971","Kec. Mimika Baru, Kabupaten Mimika",PAPUA,99971.0,Indonesia,09013264510,,,-45.452.777,1.368.833.867,https://maps.google.com/?cid=0x0:0x690d0340d9882c9c,
hotel,hotel,Hotel R6,"Jl.Cendrawasih SP2, Papua 99952","Kabupaten Mimika, Papua",PAPUA,,Indonesia,082245112457,,,-4.538.464,1.368.691.429,https://maps.google.com/?cid=0x0:0xb392d58fbaabfb69,
hotel,hotel,Rimba Papua Hotel,"Jl. Kwamki Narama No. 1, Kwamki, Kec. Mimika Baru, Kabupaten Mimika, Papua 99971","Kwamki, Kec. Mimika Baru, Kabupaten Mimika",PAPUA,99971.0,Indonesia,0901494949,,,-45.151.124,136.884.599,https://maps.google.com/?cid=0x0:0xa65056700db32492,
hotel,hotel,Horison Inn Relat Jayapura,"Jl. Pantai Klp. No.21 - 23, Argapura, Distrik Jayapura Selatan, Kota Jayapura, Papua","Kota Jayapura, Papua",PAPUA,,Indonesia,09675160779,,,-25.537.101,1.407.148.929,https://maps.google.com/?cid=0x0:0xb98fc1bbb5c5c494,
hotel,hotel,SAMUMAMBO HOTEL,"jl. cenderawasih belakang manna bakerei, Kwamki, Kec. Mimika Baru, Kabupaten Mimika, Papua 99910","Kwamki, Kec. Mimika Baru, Kabupaten Mimika",PAPUA,99910.0,Indonesia,081344090664,,,-45.424.836,1.368.797.497,https://maps.google.com/?cid=0x0:0xcb5241de257efb93,
hotel,hotel,Hotel Timika,"Jl. Hasanuddin No.9, Nawaripi, Kec. Mimika Baru, Kabupaten Mimika, Papua 99971","Nawaripi, Kec. Mimika Baru, Kabupaten Mimika",PAPUA,99971.0,Indonesia,,,,-4.566.916,1.368.828.964,https://maps.google.com/?cid=0x0:0x51b78f3be0c597f8,
hotel,hotel,Jaya Hotel,"CVJP+XV2, Jl. Raya Sp1, Inauga, Kec. Mimika Baru, Kabupaten Mimika, Papua 99971","Jl. Raya Sp1, Inauga, Kec. Mimika Baru, Kabupaten Mimika",PAPUA,99971.0,Indonesia,087777677405,,,-45.676.146,1.368.871.472,https://maps.google.com/?cid=0x0:0x854e1f8dfba40a6c,
hotel,hotel,Penginapan Paparisa Amungsa,"Koperapoka, Kec. Mimika Baru, Kabupaten Mimika, Papua 99971","Kec. Mimika Baru, Kabupaten Mimika",PAPUA,99971.0,Indonesia,081343206383,,,-45.385.795,1.368.755.667,https://maps.google.com/?cid=0x0:0xfd07a1d4446c8f23,
hotel,hotel,Hotel Sawitto 1,"FV4V+3QV, Timika Jaya, Kec. Mimika Baru, Kabupaten Mimika, Papua 99971","Timika Jaya, Kec. Mimika Baru, Kabupaten Mimika",PAPUA,99971.0,Indonesia,,,,-45.447.575,1.368.944.296,https://maps.google.com/?cid=0x0:0xa49800860bcb43de,
hotel,hotel,Hotel Golden Mimika,"Jl. Klp. Dua No.25, Kwamki, Kec. Mimika Baru, Kabupaten Mimika, Papua 99971","Kwamki, Kec. Mimika Baru, Kabupaten Mimika",PAPUA,99971.0,Indonesia,0901323111,,,-4.544.451,1.368.879.651,https://maps.google.com/?cid=0x0:0xc7ff62d17b20c3d1,
hotel,hotel,Penginapan 69,"Kp. Waena, Kec. Heram, Kota Jayapura, Papua 99225","Kec. Heram, Kota Jayapura",PAPUA,99225.0,Indonesia,081248523621,,,-2.593.495,1.406.310.796,https://maps.google.com/?cid=0x0:0x12711ec27878fab8,
hotel,hotel,HOTEL Timika Indah Papua,"Jl. Jend. Ahmad Yani, Kwamki, Kec. Mimika Baru, Kabupaten Mimika, Papua 99910","Kwamki, Kec. Mimika Baru, Kabupaten Mimika",PAPUA,99910.0,Indonesia,08114900888,,,-45.450.918,1.368.950.181,https://maps.google.com/?cid=0x0:0x678db0783377d5c6,
hotel,hotel,Hotel Greend Idaman,"Persatuan, Kec. Mandobo, Kabupaten Boven Digoel, Papua 99663","Kec. Mandobo, Kabupaten Boven Digoel",PAPUA,99663.0,Indonesia,082229338883,,,-61.143.736,1.403.221.803,https://maps.google.com/?cid=0x0:0x7e63bcf9bd853452,
hotel,hotel,Home Inn Executive Residence,"Jl. Guru Mughni No.12, Kuningan, Kuningan Tim., Kecamatan Setiabudi, Kota Jakarta Selatan, Daerah Khusus Ibukota Jakarta 12950","Kuningan, Kuningan Tim., Kecamatan Setiabudi, Kota Jakarta Selatan",PAPUA,12950.0,Indonesia,087877336535,,,-62.300.691,1.068.216.472,https://maps.google.com/?cid=0x0:0x3f0bbbd8b8484b,
hotel,Museum Sejarah Lokal,Monumen Nasional,"Merdeka Square, Jalan Lapangan Monas, Gambir, Kecamatan Gambir, Kota Jakarta Pusat, Daerah Khusus Ibukota Jakarta 10110","Jalan Lapangan Monas, Gambir, Kecamatan Gambir, Kota Jakarta Pusat",PAPUA,10110.0,Indonesia,0213853040,,,-61.753.924,1.068.271.528,https://maps.google.com/?cid=0x0:0x3d2ad6e1e0e9bcc8,
hotel,Stasiun Kereta,Stasiun Sudirman,"10, Jl. Kendal No.24, RW.6, Menteng, 10310","Jl. Kendal No.24, RW.6",PAPUA,10310.0,Indonesia,,,,-62.024.499,1.068.237.671,https://maps.google.com/?cid=0x0:0x13f90424139e1edf,
hotel,hotel,The Home,"Jl. Srengseng Raya No.16, RT.4/RW.1, Srengseng, Kec. Kembangan, Kota Jakarta Barat, Daerah Khusus Ibukota Jakarta 11630","RT.4/RW.1, Srengseng, Kec. Kembangan, Kota Jakarta Barat",PAPUA,11630.0,Indonesia,081938028816,,,-61.989.089,106.756.422,https://maps.google.com/?cid=0x0:0xb71a0fe6e498a179,
hotel,Kantor Perusahaan,Palmerah,"Gelora, Kecamatan Tanah Abang, Kota Jakarta Pusat, Daerah Khusus Ibukota Jakarta","Kota Jakarta Pusat, Daerah Khusus Ibukota Jakarta",PAPUA,,Indonesia,,,,-62.075.944,106.797.382,https://maps.google.com/?cid=0x0:0x116987b9272f716d,
hotel,hotel,W Home Benhil,"Jl. Bend. Jatiluhur No.60 2, RT.2/RW.1, Bend. Hilir, Kecamatan Tanah Abang, Kota Jakarta Pusat, Daerah Khusus Ibukota Jakarta 10210","RT.2/RW.1, Bend. Hilir, Kecamatan Tanah Abang, Kota Jakarta Pusat",PAPUA,10210.0,Indonesia,02150101690,,,-62.136.004,1.068.113.997,https://maps.google.com/?cid=0x0:0xf58fcbf482e2ff59,
hotel,Perhentian bus,Stadiun Karet,"Kb. Melati, Kecamatan Tanah Abang, Kota Jakarta Pusat, Daerah Khusus Ibukota Jakarta","Kota Jakarta Pusat, Daerah Khusus Ibukota Jakarta",PAPUA,,Indonesia,,,,-62.008.419,1.068.159.048,https://maps.google.com/?cid=0x0:0x6b67090796653b2b,
hotel,Hotel bintang 2,HOME INN,"Jl. Sawo No.31 16, RT.16/RW.7, Kuningan, Karet Kuningan, Kecamatan Setiabudi, Kota Jakarta Selatan, Daerah Khusus Ibukota Jakarta 12940","RT.16/RW.7, Kuningan, Karet Kuningan, Kecamatan Setiabudi, Kota Jakarta Selatan",PAPUA,12940.0,Indonesia,081311391999,,,-62.181.916,1.068.267.994,https://maps.google.com/?cid=0x0:0xa47190859960dc50,
hotel,hotel,I Home Residence,"Jl. Kb. Kacang 1 No.57, Kb. Kacang, Kecamatan Tanah Abang, Kota Jakarta Pusat, Daerah Khusus Ibukota Jakarta 10240","Kb. Kacang, Kecamatan Tanah Abang, Kota Jakarta Pusat",PAPUA,10240.0,Indonesia,081908081899,,,-61.879.901,1.068.182.126,https://maps.google.com/?cid=0x0:0xf112ce2810cb4280,
hotel,hotel,M HOME,"M HOME, Jl. Senopati No.32 7, RT.6/RW.2, Selong, Kec. Kby. Baru, Kota Jakarta Selatan, Daerah Khusus Ibukota Jakarta 12110","Jl. Senopati No.32 7, RT.6/RW.2, Selong, Kec. Kby. Baru, Kota Jakarta Selatan",PAPUA,12110.0,Indonesia,081382166189,,,-62.305.706,1.068.069.221,https://maps.google.com/?cid=0x0:0xf66462075a00f45b,
hotel,Layanan Transportasi,Stasiun Tanahabang,"Jalan Jati Baru Raya, Jl. Cideng Timur, Kecamatan Tanah Abang, 10250",Jl. Cideng Timur,PAPUA,10250.0,Indonesia,,,,-61.856.886,1.068.108.579,https://maps.google.com/?cid=0x0:0x790a6a4bfd2f5502,
hotel,Guest house,HOME STAY Try_disono,"Jl. Gg. Gading 6 No.19 8, RT.8/RW.2, Kp. Rw., Kec. Johar Baru, Kota Jakarta Pusat, Daerah Khusus Ibukota Jakarta 10550","RT.8/RW.2, Kp. Rw., Kec. Johar Baru, Kota Jakarta Pusat",PAPUA,10550.0,Indonesia,,,,-6.179.764,1.068.530.983,https://maps.google.com/?cid=0x0:0xdf5d4e48d2ec1911,
hotel,Rumah wisata,Home stay krisnandi,"Jl. Merah Delima II No.11 4, RT.4/RW.11, Cipinang Cempedak, Kecamatan Jatinegara, Kota Jakarta Timur, Daerah Khusus Ibukota Jakarta 13340","RT.4/RW.11, Cipinang Cempedak, Kecamatan Jatinegara, Kota Jakarta Timur",PAPUA,13340.0,Indonesia,,,,-62.418.416,1.068.750.162,https://maps.google.com/?cid=0x0:0x570c152682a6b17a,
hotel,hotel,"OYO 3755 Sweet Home Near Masjid Agung Istiqlal, Pasar baru, Ancol","02, RW.2, Kec. Taman Sari, Kota Jakarta Barat, Daerah Khusus Ibukota Jakarta 11150","RW.2, Kec. Taman Sari, Kota Jakarta Barat",PAPUA,11150.0,Indonesia,02129707601,,,-61.509.657,1.068.208.161,https://maps.google.com/?cid=0x0:0xd45e8fa6473f0470,
restaurant,restaurant,Papua 98972,Papua,Papua,PAPUA,,Indonesia,,,,-3.921.968,1.375.275.422,https://maps.google.com/?cid=0x0:0x765d582b762840f7,
restaurant,Padang,RM SUMBER HARAPAN,"2JGV+G2W, Kimak, Ilaga, Kabupaten Puncak, Papua 98972","Kimak, Ilaga, Kabupaten Puncak",PAPUA,98972.0,Indonesia,081233446661,,,-39.736.329,1.376.425.868,https://maps.google.com/?cid=0x0:0xb3aaf5e8234f9b88,
restaurant,Restoran,Melati Messhall,"V35R+6PC, Arwandop, Kec. Tembagapura, Kabupaten Mimika, Papua 98972","Arwandop, Kec. Tembagapura, Kabupaten Mimika",PAPUA,98972.0,Indonesia,,,,-41.419.323,1.370.917.683,https://maps.google.com/?cid=0x0:0xcec4b3671f663e0f,
restaurant,Restoran,Kokarfi Resto,"V34V+P2C, Arwandop, Tembagapura, Kec. Tembagapura, Kabupaten Mimika, Papua 99967","Arwandop, Tembagapura, Kec. Tembagapura, Kabupaten Mimika",PAPUA,99967.0,Indonesia,0901466544,,,-41.431.882,137.092.517,https://maps.google.com/?cid=0x0:0xa4ef3aefd5f71d5,
restaurant,Restoran,New Kenanga Mess Hall,"Tembagapura, Mimika Regency, Papua 98972",Mimika Regency,PAPUA,98972.0,Indonesia,,,,-41.099.385,1.370.999.715,https://maps.google.com/?cid=0x0:0xc5816325edeb9bea,
restaurant,Restoran,Noken Cafe by Primo,"V34Q+XXH, Tembagapura, Arwandop, Tembagapura, Kec. Tembagapura, Kabupaten Mimika, Papua 99967","Tembagapura, Arwandop, Tembagapura, Kec. Tembagapura, Kabupaten Mimika",PAPUA,99967.0,Indonesia,,,,-41.425.625,1.370.899.844,https://maps.google.com/?cid=0x0:0xaed48ea0d834fa7a,
restaurant,Restoran,Mawar Mess Hall Tembagapura,"V35V+9H5, Arwandop, Tembagapura, Kec. Tembagapura, Kabupaten Mimika, Papua 98972","Arwandop, Tembagapura, Kec. Tembagapura, Kabupaten Mimika",PAPUA,98972.0,Indonesia,082111651875,,,-41.416.131,1.370.939.934,https://maps.google.com/?cid=0x0:0xd853c8435a0e135e,
restaurant,China,KOPS RESTO TPRA,"V34R+QXH, Jl. Tembagapura Raya, Tembagapura, Kec. Tembagapura, Kabupaten Mimika, Papua 99967","Jl. Tembagapura Raya, Tembagapura, Kec. Tembagapura, Kabupaten Mimika",PAPUA,99967.0,Indonesia,,,,-4.143.062,1.370.924.871,https://maps.google.com/?cid=0x0:0x6bb2b4db62e6d0f9,
restaurant,restaurant,Warung Makan Rabi Puan,"2JHV+8M, Kimak, Ilaga, Kabupaten Puncak, Papua","Kabupaten Puncak, Papua",PAPUA,,Indonesia,,,,-39.716.314,137.644.182,https://maps.google.com/?cid=0x0:0xa3e36c1fa42c61cd,
restaurant,restaurant,Warung Sederhana,"2JGV+G2W, Kimak, Ilaga, Kabupaten Puncak, Papua 98972","Kimak, Ilaga, Kabupaten Puncak",PAPUA,98972.0,Indonesia,,,,-39.730.017,1.376.427.705,https://maps.google.com/?cid=0x0:0x96052f20dcdc4eb2,
restaurant,Kedai Kopi,Maxx Coffee Tembagapura,"Tembagapura, Kec. Tembagapura, Kabupaten Mimika, Papua 98972","Kec. Tembagapura, Kabupaten Mimika",PAPUA,98972.0,Indonesia,,,,-41.424.586,1.370.899.319,https://maps.google.com/?cid=0x0:0x9ef773c4f6fba9d3,
restaurant,restaurant,Papua 98971,"Kabupaten Puncak, Papua","Kabupaten Puncak, Papua",PAPUA,,Indonesia,,,,-37.792.737,1.372.142.417,https://maps.google.com/?cid=0x0:0xd0d09ee74d182011,
restaurant,Hidangan Laut,B-One Restaurant,"FP45+5CR, Numbai, Distrik Jayapura Selatan, Kota Jayapura, Papua 99222","Numbai, Distrik Jayapura Selatan, Kota Jayapura",PAPUA,99222.0,Indonesia,081344533058,,,-25.445.125,1.407.085.143,https://maps.google.com/?cid=0x0:0xb8053f84d614fc3e,
restaurant,Restoran,Restaurant Yougwa,"CJ63+H23, Jl. Raya Abepura - Sentani, Asei Kecil, Kec. Sentani Tim., Kabupaten Jayapura, Papua 99351","Jl. Raya Abepura - Sentani, Asei Kecil, Kec. Sentani Tim., Kabupaten Jayapura",PAPUA,99351.0,Indonesia,08114801448,,,-25.886.245,140.602.559,https://maps.google.com/?cid=0x0:0x65e60fc66014e79c,
restaurant,Dapur Umum,RM BRAYEN 88,"HQ4G+678, Senggi, Kabupaten Keerom, Papua","Kabupaten Keerom, Papua",PAPUA,,Indonesia,,,,-3.444.463,140.775.696,https://maps.google.com/?cid=0x0:0xe5904f3f3f0e5b26,
restaurant,Rumah Makan,Rumah Makan Sendok Garpu Jayapura,"Jl. Raya Abepura-Kotaraja Kota Baru, Wai Mhorock, Kec. Abepura, Kota Jayapura, Papua 99225","Wai Mhorock, Kec. Abepura, Kota Jayapura",PAPUA,99225.0,Indonesia,082310000123,,,-26.057.136,1.406.694.308,https://maps.google.com/?cid=0x0:0x9b347169a4f00047,
restaurant,Kafe,Ropopang x Trinity Jayapura,"Jl. Ps. Yotefa No.33, Wai Mhorock, Kec. Abepura, Kota Jayapura, Papua 99351","Wai Mhorock, Kec. Abepura, Kota Jayapura",PAPUA,99351.0,Indonesia,081240970364,,,-26.084.375,1.406.777.793,https://maps.google.com/?cid=0x0:0x8aa1325684f15ea1,
restaurant,Restoran,So Yummy Resto,"FV3Q+QR9, Kwamki, Kec. Mimika Baru, Kabupaten Mimika, Papua 99971","Kwamki, Kec. Mimika Baru, Kabupaten Mimika",PAPUA,99971.0,Indonesia,081240005760,,,-45.455.973,1.368.896.159,https://maps.google.com/?cid=0x0:0xad18f6a2fb6ee6f8,
restaurant,Restoran,Dapur Papua Resto (tag by EnCHy),"CH94+3PC, Jl. Raya Airport Sentani, Nendali, Kec. Sentani Tim., Kabupaten Jayapura, Papua 99359","Jl. Raya Airport Sentani, Nendali, Kec. Sentani Tim., Kabupaten Jayapura",PAPUA,99359.0,Indonesia,,,,-25.823.105,140.556.775,https://maps.google.com/?cid=0x0:0x31316751d4c3a979,
restaurant,Restoran,Restoran Pinang Sirih,"F9WW+QV2, Jl. Sesate, Bambu Pemali, Kec. Merauke, Kabupaten Merauke, Papua 99614","Jl. Sesate, Bambu Pemali, Kec. Merauke, Kabupaten Merauke",PAPUA,99614.0,Indonesia,082132128881,,,-85.030.737,1.403.966.377,https://maps.google.com/?cid=0x0:0x7c98c0bee5496ce9,
restaurant,Hidangan Laut,Ratu Bandeng,"GC42+2MR, Mandala, Kec. Merauke, Kabupaten Merauke, Papua 99614","Mandala, Kec. Merauke, Kabupaten Merauke",PAPUA,99614.0,Indonesia,081248278488,,,-8.494.875,1.404.016.274,https://maps.google.com/?cid=0x0:0x9b9d3370fd69b841,
restaurant,Rumah Makan,RestoCafe Rumah Laut,"Jl. Koti, Numbai, Distrik Jayapura Selatan, Kota Jayapura, Papua 99222","Numbai, Distrik Jayapura Selatan, Kota Jayapura",PAPUA,99222.0,Indonesia,09675160842,,,-25.443.152,1.407.078.561,https://maps.google.com/?cid=0x0:0xa0b850e17d17f09d,
restaurant,Sesuai untuk keluarga,B2 panggang,"CGJJ+239, Jl. Raya Airport Sentani, Sentani Kota, Kec. Sentani, Kabupaten Jayapura, Papua 99359","Jl. Raya Airport Sentani, Sentani Kota, Kec. Sentani, Kabupaten Jayapura",PAPUA,99359.0,Indonesia,081344663941,,,-2.569.953,1.405.302.443,https://maps.google.com/?cid=0x0:0xd5a45127ea48210f,
restaurant,Dapur Umum,Waroeng Pa'EnTe,"9MPF+3QJ, SATE VULKANIK, JL. grilyawan kamkey Ruko Orange, Awiyo, Kec. Abepura, Kota Jayapura, Papua 99351","SATE VULKANIK, JL. grilyawan kamkey Ruko Orange, Awiyo, Kec. Abepura, Kota Jayapura",PAPUA,99351.0,Indonesia,081315892532,,,-2.614.785,1.406.743.855,https://maps.google.com/?cid=0x0:0xe55253abc55d1ee2,
restaurant,Ikan Bakar,Resto Jangkar,"Jl. Yos Sudarso, Nawaripi, Kec. Mimika Baru, Kabupaten Mimika, Papua 99971","Nawaripi, Kec. Mimika Baru, Kabupaten Mimika",PAPUA,99971.0,Indonesia,082238302339,,,-45.681.968,1.368.865.993,https://maps.google.com/?cid=0x0:0x73ed65e33721012a,
restaurant,Masakan Asia,RM Kuala Oriental,"Jl. Budi Utomo No.88A, Kwamki, Kec. Mimika Baru, Kabupaten Mimika, Papua 99971","Kwamki, Kec. Mimika Baru, Kabupaten Mimika",PAPUA,99971.0,Indonesia,081224989888,,,-45.432.787,1.368.840.215,https://maps.google.com/?cid=0x0:0xa200bb016a6f04d5,
restaurant,restaurant,Wangbe,"Distrik Wangbe, Kabupaten Puncak, Papua","Kabupaten Puncak, Papua",PAPUA,,Indonesia,,,,-39.572.768,1.373.510.778,https://maps.google.com/?cid=0x0:0xec97f18b447d29d3,
restaurant,Sulawesi Selatan,Coto Mangkasara Galaxy,"FV4M+XVR, Kwamki, Kec. Mimika Baru, Kabupaten Mimika, Papua 99971","Kwamki, Kec. Mimika Baru, Kabupaten Mimika",PAPUA,99971.0,Indonesia,,,,-45.425.091,1.368.846.267,https://maps.google.com/?cid=0x0:0x5fb4274cfb32211d,
restaurant,Restoran,Wangja Korean Bbq All You Can Eat Restaurant,"Jl. Tebet Raya No.53a, RT.3/RW.2, Tebet Tim., Kec. Tebet, Kota Jakarta Selatan, Daerah Khusus Ibukota Jakarta 12820","RT.3/RW.2, Tebet Tim., Kec. Tebet, Kota Jakarta Selatan",PAPUA,12820.0,Indonesia,02122903418,,,-62.283.677,1.068.549.553,https://maps.google.com/?cid=0x0:0xf91e61e0d839fcef,
restaurant,restaurant,Warung makan diva,"725V+GG7, Bilogai, Kec. Sugapa, Kabupaten Intan Jaya, Papua 98768","Bilogai, Kec. Sugapa, Kabupaten Intan Jaya",PAPUA,98768.0,Indonesia,,,,-37.353.125,1.370.440.625,https://maps.google.com/?cid=0x0:0xc0aada5c761b9bfb,
restaurant,Jepang,Wangja  Kitasuka All You Can Eat,"Jl. Cempaka Putih Raya No.112, RT.16/RW.3, Cemp. Putih Tim., Kec. Cemp. Putih, Kota Jakarta Pusat, Daerah Khusus Ibukota Jakarta 10510","RT.16/RW.3, Cemp. Putih Tim., Kec. Cemp. Putih, Kota Jakarta Pusat",PAPUA,10510.0,Indonesia,02124502345,,,-61.767.208,1.068.739.764,https://maps.google.com/?cid=0x0:0xa17130c797b8f613,
restaurant,Jepang,Kitasuka Tebet,"Jl. Tebet Raya No.53A 3, RT.3/RW.2, Tebet Tim., Kec. Tebet, Kota Jakarta Selatan, Daerah Khusus Ibukota Jakarta 12820","RT.3/RW.2, Tebet Tim., Kec. Tebet, Kota Jakarta Selatan",PAPUA,12820.0,Indonesia,02122901675,,,-6.228.582,106.855.056,https://maps.google.com/?cid=0x0:0x70b0af75e94a5d7d,
restaurant,Komplek perumahan,RM ADIVA,"725V+GG7, Bilogai, Kec. Sugapa, Kabupaten Intan Jaya, Papua 98768","Bilogai, Kec. Sugapa, Kabupaten Intan Jaya",PAPUA,98768.0,Indonesia,085336741888,,,-37.416.944,1.370.437.608,https://maps.google.com/?cid=0x0:0xf7b8bec5b7c12751,
restaurant,Kedai Kopi,Linear 2.0 Coffee and Kitchen,"Jl. Patimura Jl. Pendidikan Jalur 1, Nawaripi, Beoga, Kabupaten Mimika, Papua 99971","Nawaripi, Beoga, Kabupaten Mimika",PAPUA,99971.0,Indonesia,,,,-39.239.749,1.372.412.673,https://maps.google.com/?cid=0x0:0xf25ae76a4da65092,
restaurant,restaurant,Papua 98976,Papua,Papua,PAPUA,,Indonesia,,,,-31.858.094,1.375.275.422,https://maps.google.com/?cid=0x0:0x93d2390dfd2f699,
restaurant,restaurant,Rumah makan Dia Urfas,"QCVV+4F9, Jalan. Kamp. Uri Faisei, Urei Faisei Dua, Urei Faisei, Waropen Regency, Papua 98261","Jalan. Kamp. Uri Faisei, Urei Faisei Dua, Urei Faisei, Waropen Regency",PAPUA,98261.0,Indonesia,,,,-22.072.104,136.443.739,https://maps.google.com/?cid=0x0:0xddcc1ceabb7c3c04,
restaurant,Manado,WARUNG MAKAN BU RUTH (PAPUA),"Jl. Garuda I No.5-6, Gn. Sahari Sel., Kec. Kemayoran, Kota Jakarta Pusat, Daerah Khusus Ibukota Jakarta 10610","Gn. Sahari Sel., Kec. Kemayoran, Kota Jakarta Pusat",PAPUA,10610.0,Indonesia,,,,-61.600.159,1.068.500.353,https://maps.google.com/?cid=0x0:0xaa797e74d74c749b,
restaurant,Dapur Umum,Dapur Babah Elite,"4, Jl. Veteran I No.18-19, RT.4/RW.2, Gambir, Kecamatan Gambir, Kota Jakarta Pusat, Daerah Khusus Ibukota Jakarta 10110","Jl. Veteran I No.18-19, RT.4/RW.2, Gambir, Kecamatan Gambir, Kota Jakarta Pusat",PAPUA,10110.0,Indonesia,085100602256,,,-61.700.234,1.068.298.797,https://maps.google.com/?cid=0x0:0xbb8109f0025675bc,
restaurant,Restoran,Restaurant Yougwa,"CJ63+H23, Jl. Raya Abepura - Sentani, Asei Kecil, Kec. Sentani Tim., Kabupaten Jayapura, Papua 99351","Jl. Raya Abepura - Sentani, Asei Kecil, Kec. Sentani Tim., Kabupaten Jayapura",PAPUA,99351.0,Indonesia,08114801448,,,-25.886.245,140.602.559,https://maps.google.com/?cid=0x0:0x65e60fc66014e79c,
restaurant,restaurant,,,,PAPUA,,Indonesia,,,,,,https://maps.google.com/?cid=0x0:0xd6689d47fce71c89u0026onu003dIkan+Kuah+Kuningu0026midu003d/g/11h1p4vbfh,
restaurant,Padang,Yoga Sentani Rumah Makan,"Jl. Boulevard Raya No.2 9 2, RT.5/RW.9, Penjaringan, Kec. Penjaringan, Jkt Utara, Daerah Khusus Ibukota Jakarta 14440","RT.5/RW.9, Penjaringan, Kec. Penjaringan, Jkt Utara",PAPUA,14440.0,Indonesia,0214530419,,,-61.302.159,1.068.038.221,https://maps.google.com/?cid=0x0:0x157679ce2abceaae,
restaurant,Indonesia,Foo Foo Modern Thai Restaurant  Cocktail Bar,"Retail Building, Jalan H R Rasuna Said Kav C22, Trinity Tower, Block IIB 2nd Floor, Kota Jakarta Selatan, Daerah Khusus Ibukota Jakarta 12940","Jalan H R Rasuna Said Kav C22, Trinity Tower, Block IIB 2nd Floor, Kota Jakarta Selatan",PAPUA,12940.0,Indonesia,08121366366,,,-62.251.326,1.068.334.996,https://maps.google.com/?cid=0x0:0xed3bee13deb76777,
restaurant,Korea,??? Woodaum+62,"Jl. Senopati No.61 9, RT.8/RW.9, Selong, Kec. Kby. Baru, Kota Jakarta Selatan, Daerah Khusus Ibukota Jakarta 12110","RT.8/RW.9, Selong, Kec. Kby. Baru, Kota Jakarta Selatan",PAPUA,12110.0,Indonesia,081110013571,,,-62.322.761,10.681.119,https://maps.google.com/?cid=0x0:0x2f4471522014827c,
restaurant,restaurant,Papua 98973,"Kabupaten Puncak, Papua","Kabupaten Puncak, Papua",PAPUA,,Indonesia,,,,-38.173.024,1.378.427.298,https://maps.google.com/?cid=0x0:0x306367a3dc8a22ab,
restaurant,Padang,Resto Yougwa Danau Sentani,"Jl. Batu Ceper No.73 15, RT.15/RW.1, Kb. Klp., Kecamatan Gambir, Kota Jakarta Pusat, Daerah Khusus Ibukota Jakarta 10120","RT.15/RW.1, Kb. Klp., Kecamatan Gambir, Kota Jakarta Pusat",PAPUA,10120.0,Indonesia,08119622272,,,-6.162.043,1.068.243.928,https://maps.google.com/?cid=0x0:0xd6689d47fce71c89,
restaurant,Padang,RM Puja Selera,"7XPJ+MC5, Unnamed Road, Pruleme, Distrik Mulia, Kabupaten Puncak Jaya, Papua 98973","Unnamed Road, Pruleme, Distrik Mulia, Kabupaten Puncak Jaya",PAPUA,98973.0,Indonesia,,,,-37.133.572,1.379.811.015,https://maps.google.com/?cid=0x0:0x5c5a8ec894f8337c,
restaurant,Restoran,RM Anugerah,"7XMQ+7HH, Pagaleme, Distrik Mulia, Kabupaten Puncak Jaya, Papua 98975","Pagaleme, Distrik Mulia, Kabupaten Puncak Jaya",PAPUA,98975.0,Indonesia,,,,-37.168.224,137.988.993,https://maps.google.com/?cid=0x0:0x1b630c37e9b38dcc,
restaurant,Dapur Umum,Warung Segman,"7XX7+2Q7, Wuyukwi, Distrik Mulia, Kabupaten Puncak Jaya, Papua 98973","Wuyukwi, Distrik Mulia, Kabupaten Puncak Jaya",PAPUA,98973.0,Indonesia,085244167861,,,-37.025.417,1.379.644.578,https://maps.google.com/?cid=0x0:0xb70d2a8b2b6767b,
restaurant,Mi,RM Barokah,"8X28+42H, Wuyukwi, Distrik Mulia, Kabupaten Puncak Jaya, Papua 98973","Wuyukwi, Distrik Mulia, Kabupaten Puncak Jaya",PAPUA,98973.0,Indonesia,,,,-36.996.957,1.379.651.121,https://maps.google.com/?cid=0x0:0xc0f5e27433afe182,
restaurant,Mi,Rumah Makan Pakde,"7XX8+243, Wuyukwi, Distrik Mulia, Kabupaten Puncak Jaya, Papua 98973","Wuyukwi, Distrik Mulia, Kabupaten Puncak Jaya",PAPUA,98973.0,Indonesia,,,,-37.024.754,1.379.653.046,https://maps.google.com/?cid=0x0:0x717d5035d0b44952,
restaurant,Restoran,Warung Sate Bude Linda,"7XQH+G3F, Pruleme, Distrik Mulia, Kabupaten Puncak Jaya, Papua 98973","Pruleme, Distrik Mulia, Kabupaten Puncak Jaya",PAPUA,98973.0,Indonesia,,,,-37.111.967,1.379.776.632,https://maps.google.com/?cid=0x0:0x9954cf172f984c56,
restaurant,restaurant,Warung Makan Rabi Puan,"2JHV+8M, Kimak, Ilaga, Kabupaten Puncak, Papua","Kabupaten Puncak, Papua",PAPUA,,Indonesia,,,,-39.716.314,137.644.182,https://maps.google.com/?cid=0x0:0xa3e36c1fa42c61cd,
restaurant,Padang,Warung Sari Minang,"7XW8+W4P, Unnamed Road, Wuyukwi, Distrik Mulia, Kabupaten Puncak Jaya, Papua 98973","Unnamed Road, Wuyukwi, Distrik Mulia, Kabupaten Puncak Jaya",PAPUA,98973.0,Indonesia,081340958395,,,-3.702.675,137.965.338,https://maps.google.com/?cid=0x0:0x76df75196d523d86,
restaurant,Restoran,Restaurant Yougwa,"CJ63+H23, Jl. Raya Abepura - Sentani, Asei Kecil, Kec. Sentani Tim., Kabupaten Jayapura, Papua 99351","Jl. Raya Abepura - Sentani, Asei Kecil, Kec. Sentani Tim., Kabupaten Jayapura",PAPUA,99351.0,Indonesia,08114801448,,,-25.886.245,140.602.559,https://maps.google.com/?cid=0x0:0x65e60fc66014e79c,
restaurant,Restoran,RM Mie Ayam,"7XX8+PF6, Wuyukwi, Distrik Mulia, Kabupaten Puncak Jaya, Papua 98973","Wuyukwi, Distrik Mulia, Kabupaten Puncak Jaya",PAPUA,98973.0,Indonesia,,,,-37.007.117,1.379.661.327,https://maps.google.com/?cid=0x0:0xd9ccbd54282ff27e,
restaurant,Sate,Warung Biru,"7XPQ+4H8, Pagaleme, Distrik Mulia, Kabupaten Puncak Jaya, Papua 98975","Pagaleme, Distrik Mulia, Kabupaten Puncak Jaya",PAPUA,98975.0,Indonesia,,,,-37.147.206,1.379.889.552,https://maps.google.com/?cid=0x0:0x2941effa0c8b28f7,
restaurant,Padang,R.M MINANG JAYA,"Jl. Mulia gambut, kota lama, Distrik Mulia, Kabupaten Puncak Jaya, Papua 98915","kota lama, Distrik Mulia, Kabupaten Puncak Jaya",PAPUA,98915.0,Indonesia,081346313708,,,-37.000.817,1.379.667.389,https://maps.google.com/?cid=0x0:0x545829f3706e16c6,
restaurant,Mi,Warung mie ayam solo,"7XRJ+729, Pruleme, Distrik Mulia, Kabupaten Puncak Jaya, Papua 98973","Pruleme, Distrik Mulia, Kabupaten Puncak Jaya",PAPUA,98973.0,Indonesia,,,,-3.709.207,1.379.801.073,https://maps.google.com/?cid=0x0:0xf42c04d8f7191ccb,
restaurant,Kafe,Ropopang x Trinity Jayapura,"Jl. Ps. Yotefa No.33, Wai Mhorock, Kec. Abepura, Kota Jayapura, Papua 99351","Wai Mhorock, Kec. Abepura, Kota Jayapura",PAPUA,99351.0,Indonesia,081240970364,,,-26.084.375,1.406.777.793,https://maps.google.com/?cid=0x0:0x8aa1325684f15ea1,
restaurant,Rumah Makan,Rumah Makan Sendok Garpu Jayapura,"Jl. Raya Abepura-Kotaraja Kota Baru, Wai Mhorock, Kec. Abepura, Kota Jayapura, Papua 99225","Wai Mhorock, Kec. Abepura, Kota Jayapura",PAPUA,99225.0,Indonesia,082310000123,,,-26.057.136,1.406.694.308,https://maps.google.com/?cid=0x0:0x9b347169a4f00047,
restaurant,Restoran,So Yummy Resto,"FV3Q+QR9, Kwamki, Kec. Mimika Baru, Kabupaten Mimika, Papua 99971","Kwamki, Kec. Mimika Baru, Kabupaten Mimika",PAPUA,99971.0,Indonesia,081240005760,,,-45.455.973,1.368.896.159,https://maps.google.com/?cid=0x0:0xad18f6a2fb6ee6f8,
restaurant,Restoran,Djoeragan Dapur Resto and Cafe,"Engros, Kec. Abepura, Kota Jayapura, Papua","Kota Jayapura, Papua",PAPUA,,Indonesia,081292006323,,,-25.999.813,1.407.147.104,https://maps.google.com/?cid=0x0:0xb8853f9fee2cdbc,
restaurant,Rumah Makan,RestoCafe Rumah Laut,"Jl. Koti, Numbai, Distrik Jayapura Selatan, Kota Jayapura, Papua 99222","Numbai, Distrik Jayapura Selatan, Kota Jayapura",PAPUA,99222.0,Indonesia,09675160842,,,-25.443.152,1.407.078.561,https://maps.google.com/?cid=0x0:0xa0b850e17d17f09d,
restaurant,Restoran,Paiton,"7XCM+8CH, Pagaleme, Distrik Mulia, Kabupaten Puncak Jaya, Papua","Kabupaten Puncak Jaya, Papua",PAPUA,,Indonesia,,,,-3.729.199,137.983.597,https://maps.google.com/?cid=0x0:0xa0579b24dc531450,
restaurant,Perkebunan Pohon,Rumah Kopi Dokome,"8X98+73, Wuyukwi, Distrik Mulia, Kabupaten Puncak Jaya, Papua","Kabupaten Puncak Jaya, Papua",PAPUA,,Indonesia,,,,-36.817.546,1.379.651.888,https://maps.google.com/?cid=0x0:0xfa716672ca2f70da,
restaurant,Rumah Makan,Warung Pecel Bude Suryani,"8X28+243, Jalan, kandep, Distrik Mulia, Kabupaten Puncak Jaya, Papua 98973","Jalan, kandep, Distrik Mulia, Kabupaten Puncak Jaya",PAPUA,98973.0,Indonesia,085259034394,,,-37.003.995,1.379.655.851,https://maps.google.com/?cid=0x0:0xfa5acbc4b86540c2,
restaurant,China,"POM Restaurant , Port Moresby","Section 61, Allotment 06, Munahu St, Port Moresby 112, Papua Nugini","Port Moresby, Papua Nugini",PAPUA,,Indonesia,67578805060,,,-94.542.449,1.471.926.672,https://maps.google.com/?cid=0x0:0x5415eda7f0594984,
restaurant,Restoran,Pidari Lounge,"Jl. Jenderal Sudirman No.Kav. 54-55, RT.1/RW.3, Gelora, Kecamatan Tanah Abang, Kota Jakarta Pusat, Daerah Khusus Ibukota Jakarta 10270","RT.1/RW.3, Gelora, Kecamatan Tanah Abang, Kota Jakarta Pusat",PAPUA,10270.0,Indonesia,081294409007,,,-62.223.578,1.068.067.137,https://maps.google.com/?cid=0x0:0x9294ebce29983321,
restaurant,Restoran,Pigcasso Puri Kembangan,"Jl. Puri Kembangan No.10B, RT.1/RW.8, Kembangan Sel., Kec. Kembangan, Kota Jakarta Barat, Daerah Khusus Ibukota Jakarta 11610","RT.1/RW.8, Kembangan Sel., Kec. Kembangan, Kota Jakarta Barat",PAPUA,11610.0,Indonesia,087776598450,,,-61.841.158,1.067.531.828,https://maps.google.com/?cid=0x0:0xb8f894963731fde7,
restaurant,Lounge,Catappa Restaurant,"Jl. H Benyamin Sueb No.Kav B6, Superblok Mega, Kec. Kemayoran, JAKARTA, Daerah Khusus Ibukota Jakarta 10610","Superblok Mega, Kec. Kemayoran, JAKARTA",PAPUA,10610.0,Indonesia,087804141988,,,-61.291.301,1.068.460.894,https://maps.google.com/?cid=0x0:0x292f88cb2e65e254,
restaurant,China,POTLUCK By GrandMa Suki,"Wang Plaza Lt.1 Unit 3, Jl. Panjang No.Kav. 17, RT.5/RW.11, Kedoya Utara, Kec. Kb. Jeruk, Kota Jakarta Barat, Daerah Khusus Ibukota Jakarta 11520","Jl. Panjang No.Kav. 17, RT.5/RW.11, Kedoya Utara, Kec. Kb. Jeruk, Kota Jakarta Barat",PAPUA,11520.0,Indonesia,081380271000,,,-61.728.141,106.765.955,https://maps.google.com/?cid=0x0:0x52f985613d070940,
restaurant,Hot Pot,Lao Lao Huo Guo - Pesanggrahan,"4, Jl. Pesanggrahan No.168, RT.2/RW.6, Kembangan Sel., Kec. Kembangan, Kota Jakarta Barat, Daerah Khusus Ibukota Jakarta 11610","Jl. Pesanggrahan No.168, RT.2/RW.6, Kembangan Sel., Kec. Kembangan, Kota Jakarta Barat",PAPUA,11610.0,Indonesia,085888880132,,,-61.871.134,1.067.550.652,https://maps.google.com/?cid=0x0:0xc4fc28ca2b6248e,
restaurant,Indonesia,Yougwa Danau Sentani,"Senayan Park Mall Lantai LG #20-25, Jl. Gerbang Pemuda No.3, RT.1/RW.3, Gelora, Kecamatan Tanah Abang, Kota Jakarta Pusat, Daerah Khusus Ibukota Jakarta 10270","Jl. Gerbang Pemuda No.3, RT.1/RW.3, Gelora, Kecamatan Tanah Abang, Kota Jakarta Pusat",PAPUA,10270.0,Indonesia,02129633388,,,-62.122.871,1.068.053.997,https://maps.google.com/?cid=0x0:0x25579f89f3dead39,
restaurant,restaurant,Kec. Sinak,"Kabupaten Puncak, Papua","Kabupaten Puncak, Papua",PAPUA,,Indonesia,,,,-38.109.317,1.378.469.825,https://maps.google.com/?cid=0x0:0x715d84336ea935dd,
restaurant,restaurant,TOWER B6,"6J3G+JW, Aifalim, Distrik Wangbe, Kabupaten Puncak, Papua","Kabupaten Puncak, Papua",PAPUA,,Indonesia,,,,-37.959.702,1.376.272.776,https://maps.google.com/?cid=0x0:0xd042a8459401fe1d,
restaurant,restaurant,Warung Makan Nasi Kuning Prasmanan Aisyah,"5RQX+WFJ, Jalan Kompleks Pasar, Gigobak / Gogobak, Kec. Sinak, Kabupaten Puncak, Papua 98973","Jalan Kompleks Pasar, Gigobak / Gogobak, Kec. Sinak, Kabupaten Puncak",PAPUA,98973.0,Indonesia,,,,-38.101.596,1.378.486.279,https://maps.google.com/?cid=0x0:0xb6ca6d84c2ea7dd7,
restaurant,restaurant,Distrik Agandugume,"Kabupaten Puncak, Papua","Kabupaten Puncak, Papua",PAPUA,,Indonesia,,,,-39.025.963,1.379.185.611,https://maps.google.com/?cid=0x0:0x3409f12ce1149fb1,
restaurant,Restoran,Restaurant Yougwa,"CJ63+H23, Jl. Raya Abepura - Sentani, Asei Kecil, Kec. Sentani Tim., Kabupaten Jayapura, Papua 99351","Jl. Raya Abepura - Sentani, Asei Kecil, Kec. Sentani Tim., Kabupaten Jayapura",PAPUA,99351.0,Indonesia,08114801448,,,-25.886.245,140.602.559,https://maps.google.com/?cid=0x0:0x65e60fc66014e79c,
restaurant,restaurant,Warung Makan Nasi Kuning Prasmanan Aisyah,"5RQX+WFJ, Jalan Kompleks Pasar, Gigobak / Gogobak, Kec. Sinak, Kabupaten Puncak, Papua 98973","Jalan Kompleks Pasar, Gigobak / Gogobak, Kec. Sinak, Kabupaten Puncak",PAPUA,98973.0,Indonesia,,,,-38.101.596,1.378.486.279,https://maps.google.com/?cid=0x0:0xb6ca6d84c2ea7dd7,
restaurant,restaurant,Warnet Media Cyber,"5RQX+P22, Jl. Kp. Gigobak, Gigobak / Gogobak, Kec. Sinak, Kabupaten Puncak, Papua 98973","Jl. Kp. Gigobak, Gigobak / Gogobak, Kec. Sinak, Kabupaten Puncak",PAPUA,98973.0,Indonesia,,,,-38.107.474,1.378.475.236,https://maps.google.com/?cid=0x0:0x8f76281fe851f6d2,
restaurant,restaurant,Papua 98972,Papua,Papua,PAPUA,,Indonesia,,,,-3.921.968,1.375.275.422,https://maps.google.com/?cid=0x0:0x765d582b762840f7,
restaurant,Restoran,Melati Messhall,"V35R+6PC, Arwandop, Kec. Tembagapura, Kabupaten Mimika, Papua 98972","Arwandop, Kec. Tembagapura, Kabupaten Mimika",PAPUA,98972.0,Indonesia,,,,-41.419.323,1.370.917.683,https://maps.google.com/?cid=0x0:0xcec4b3671f663e0f,
restaurant,Restoran,Noken Cafe by Primo,"V34Q+XXH, Tembagapura, Arwandop, Tembagapura, Kec. Tembagapura, Kabupaten Mimika, Papua 99967","Tembagapura, Arwandop, Tembagapura, Kec. Tembagapura, Kabupaten Mimika",PAPUA,99967.0,Indonesia,,,,-41.425.625,1.370.899.844,https://maps.google.com/?cid=0x0:0xaed48ea0d834fa7a,
restaurant,Padang,RM SUMBER HARAPAN,"2JGV+G2W, Kimak, Ilaga, Kabupaten Puncak, Papua 98972","Kimak, Ilaga, Kabupaten Puncak",PAPUA,98972.0,Indonesia,081233446661,,,-39.736.329,1.376.425.868,https://maps.google.com/?cid=0x0:0xb3aaf5e8234f9b88,
restaurant,Bar,Lupa Lelah Club,"V35Q+3C5, Tembagapura, Arwandop, Tembagapura, Kec. Tembagapura, Kabupaten Mimika, Papua 98972","Tembagapura, Arwandop, Tembagapura, Kec. Tembagapura, Kabupaten Mimika",PAPUA,98972.0,Indonesia,0901464294,,,-41.423.686,1.370.886.127,https://maps.google.com/?cid=0x0:0x34b42bf7fb4e9af2,
restaurant,Restoran,Mawar Mess Hall Tembagapura,"V35V+9H5, Arwandop, Tembagapura, Kec. Tembagapura, Kabupaten Mimika, Papua 98972","Arwandop, Tembagapura, Kec. Tembagapura, Kabupaten Mimika",PAPUA,98972.0,Indonesia,082111651875,,,-41.416.131,1.370.939.934,https://maps.google.com/?cid=0x0:0xd853c8435a0e135e,
restaurant,China,KOPS RESTO TPRA,"V34R+QXH, Jl. Tembagapura Raya, Tembagapura, Kec. Tembagapura, Kabupaten Mimika, Papua 99967","Jl. Tembagapura Raya, Tembagapura, Kec. Tembagapura, Kabupaten Mimika",PAPUA,99967.0,Indonesia,,,,-4.143.062,1.370.924.871,https://maps.google.com/?cid=0x0:0x6bb2b4db62e6d0f9,
restaurant,Restoran,New Kenanga Mess Hall,"Tembagapura, Mimika Regency, Papua 98972",Mimika Regency,PAPUA,98972.0,Indonesia,,,,-41.099.385,1.370.999.715,https://maps.google.com/?cid=0x0:0xc5816325edeb9bea,
restaurant,Gedung Apartemen,Coffee Shop Hidden Valley,"R3WX+49M, Arwandop, Kec. Tembagapura, Kabupaten Mimika, Papua 99967","Arwandop, Kec. Tembagapura, Kabupaten Mimika",PAPUA,99967.0,Indonesia,0901466406,,,-4.154.668,1.370.984.148,https://maps.google.com/?cid=0x0:0x19897cfa42d33d8a,
restaurant,Restoran,So Yummy Resto,"FV3Q+QR9, Kwamki, Kec. Mimika Baru, Kabupaten Mimika, Papua 99971","Kwamki, Kec. Mimika Baru, Kabupaten Mimika",PAPUA,99971.0,Indonesia,081240005760,,,-45.455.973,1.368.896.159,https://maps.google.com/?cid=0x0:0xad18f6a2fb6ee6f8,
restaurant,Kedai Kopi,Maxx Coffee Tembagapura,"Tembagapura, Kec. Tembagapura, Kabupaten Mimika, Papua 98972","Kec. Tembagapura, Kabupaten Mimika",PAPUA,98972.0,Indonesia,,,,-41.424.586,1.370.899.319,https://maps.google.com/?cid=0x0:0x9ef773c4f6fba9d3,
restaurant,Dapur Umum,Warung Segman,"7XX7+2Q7, Wuyukwi, Distrik Mulia, Kabupaten Puncak Jaya, Papua 98973","Wuyukwi, Distrik Mulia, Kabupaten Puncak Jaya",PAPUA,98973.0,Indonesia,085244167861,,,-37.025.417,1.379.644.578,https://maps.google.com/?cid=0x0:0xb70d2a8b2b6767b,
restaurant,Gedung Apartemen,BQ Garden,"V34R+WWC, Tembagapura, Kec. Tembagapura, Kabupaten Mimika, Papua 98972","Tembagapura, Kec. Tembagapura, Kabupaten Mimika",PAPUA,98972.0,Indonesia,,,,-41.426.947,1.370.922.812,https://maps.google.com/?cid=0x0:0xb263d7123a3738cc,
restaurant,Pusat Perbelanjaan,Shopping Family Tembagapura,"V34Q+XXH, Tembagapura, Arwandop, Tembagapura, Kec. Tembagapura, Kabupaten Mimika, Papua 99967","Tembagapura, Arwandop, Tembagapura, Kec. Tembagapura, Kabupaten Mimika",PAPUA,99967.0,Indonesia,,,,-41.425.625,1.370.899.844,https://maps.google.com/?cid=0x0:0x23ff3f0a601439a2,
restaurant,Pusat Perbelanjaan,Superblock Agawaa Ogom Plaza,"V4R2+634, Arwandop, Kec. Tembagapura, Kabupaten Mimika, Papua 98972","Arwandop, Kec. Tembagapura, Kabupaten Mimika",PAPUA,98972.0,Indonesia,,,,-41.094.796,1.371.002.072,https://maps.google.com/?cid=0x0:0x17e8f3255a557911,
restaurant,restaurant,Warung Makan Rabi Puan,"2JHV+8M, Kimak, Ilaga, Kabupaten Puncak, Papua","Kabupaten Puncak, Papua",PAPUA,,Indonesia,,,,-39.716.314,137.644.182,https://maps.google.com/?cid=0x0:0xa3e36c1fa42c61cd,
restaurant,restaurant,Warung Sederhana,"2JGV+G2W, Kimak, Ilaga, Kabupaten Puncak, Papua 98972","Kimak, Ilaga, Kabupaten Puncak",PAPUA,98972.0,Indonesia,,,,-39.730.017,1.376.427.705,https://maps.google.com/?cid=0x0:0x96052f20dcdc4eb2,
restaurant,Komplek perumahan,Hidden Valley Playground,"R3WX+487, Arwandop, Kec. Tembagapura, Kabupaten Mimika, Papua 99967","Arwandop, Kec. Tembagapura, Kabupaten Mimika",PAPUA,99967.0,Indonesia,,,,-41.547.035,1.370.982.867,https://maps.google.com/?cid=0x0:0x188e55ffe36e1a60,
restaurant,Guest house,Guest House 103,"V33R+VWR, Tembagapura, Kec. Tembagapura, Kabupaten Mimika, Papua 99967","Tembagapura, Kec. Tembagapura, Kabupaten Mimika",PAPUA,99967.0,Indonesia,085250882818,,,-41.452.702,1.370.922.504,https://maps.google.com/?cid=0x0:0x2ff90c1eaf3677f,
restaurant,Kedai Kopi,Linear 2.0 Coffee and Kitchen,"Jl. Patimura Jl. Pendidikan Jalur 1, Nawaripi, Beoga, Kabupaten Mimika, Papua 99971","Nawaripi, Beoga, Kabupaten Mimika",PAPUA,99971.0,Indonesia,,,,-39.239.749,1.372.412.673,https://maps.google.com/?cid=0x0:0xf25ae76a4da65092,
restaurant,Mi,Rumah Makan Pakde,"7XX8+243, Wuyukwi, Distrik Mulia, Kabupaten Puncak Jaya, Papua 98973","Wuyukwi, Distrik Mulia, Kabupaten Puncak Jaya",PAPUA,98973.0,Indonesia,,,,-37.024.754,1.379.653.046,https://maps.google.com/?cid=0x0:0x717d5035d0b44952,
restaurant,Toko Swalayan,Primo Supermarket Tembagapura,"Tembagapura, Kec. Tembagapura, Kabupaten Mimika, Papua 98972","Kec. Tembagapura, Kabupaten Mimika",PAPUA,98972.0,Indonesia,,,,-41.423.125,1.370.900.625,https://maps.google.com/?cid=0x0:0x79e7c0e104f18094,
restaurant,Dapur Umum,Kitchen Home,"Jl. Batu Ampar V, RT/RW 07/05.31, Dibelakang No.5, Kec. Kramat jati, Kota Jakarta Timur, Daerah Khusus Ibukota Jakarta 13520","RT/RW 07/05.31, Dibelakang No.5, Kec. Kramat jati, Kota Jakarta Timur",PAPUA,13520.0,Indonesia,081807436603,,,-6.279.477,106.864.074,https://maps.google.com/?cid=0x0:0xef03eaac570da2bd,
restaurant,,home,"Jl. Kesatrian X No.5 14, RT.14/RW.3, Kb. Manggis, Kec. Matraman, Kota Jakarta Timur, Daerah Khusus Ibukota Jakarta 13150","RT.14/RW.3, Kb. Manggis, Kec. Matraman, Kota Jakarta Timur",PAPUA,13150.0,Indonesia,,,,-62.065.924,1.068.503.164,https://maps.google.com/?cid=0x0:0x26363c56cdcb0ae6,
restaurant,Dapur Umum,Home Kitchen,"Gg. H. Leman No.9-96, RT.9/RW.9, Kby. Lama Sel., Kec. Kby. Lama, Kota Jakarta Selatan, Daerah Khusus Ibukota Jakarta 12240","RT.9/RW.9, Kby. Lama Sel., Kec. Kby. Lama, Kota Jakarta Selatan",PAPUA,12240.0,Indonesia,087833630614,,,-62.578.513,1.067.823.864,https://maps.google.com/?cid=0x0:0x71f0c842c3b73a0f,
restaurant,Dapur Umum,Restu home,"Jl.petogogan 1 RT003/RW012, RT.3/RW.no 39, Gandaria Utara, Kec. Kby. Baru, Kota Jakarta Selatan, Daerah Khusus Ibukota Jakarta 12140","RT.3/RW.no 39, Gandaria Utara, Kec. Kby. Baru, Kota Jakarta Selatan",PAPUA,12140.0,Indonesia,08994228538,,,-62.539.516,1.067.936.618,https://maps.google.com/?cid=0x0:0xc3da5dccbdaf70b9,
restaurant,Restoran,House 89 Restaurant  Cafe,"Jl. Tanjung Duren Barat IV No.1, RT.1/RW.5, Tj. Duren Utara, Kec. Grogol petamburan, Kota Jakarta Barat, Daerah Khusus Ibukota Jakarta 11470","RT.1/RW.5, Tj. Duren Utara, Kec. Grogol petamburan, Kota Jakarta Barat",PAPUA,11470.0,Indonesia,08111953989,,,-61.780.382,1.067.802.745,https://maps.google.com/?cid=0x0:0x7911f08ce36ac3e5,
restaurant,Kafe,at home cafe.,"Jl. Karet Pasar Baru Barat VII No.2, Karet Tengsin, Kecamatan Tanah Abang, Kota Jakarta Pusat, Daerah Khusus Ibukota Jakarta 10220","Karet Tengsin, Kecamatan Tanah Abang, Kota Jakarta Pusat",PAPUA,10220.0,Indonesia,,,,-6.211.904,1.068.152.392,https://maps.google.com/?cid=0x0:0xda25ec4e682e6f9,
restaurant,Restoran,Home Resto Akbar Barokah,"Gg. Muharam No.13, RT.13/RW.4, No:39, Kec. Cilandak, Kota Jakarta Selatan, Daerah Khusus Ibukota Jakarta 12430","RT.13/RW.4, No:39, Kec. Cilandak, Kota Jakarta Selatan",PAPUA,12430.0,Indonesia,081293741689,,,-62.995.066,1.067.897.587,https://maps.google.com/?cid=0x0:0x2658e952c65b6707,
cafe,cafe,Papua 98972,Papua,Papua,PAPUA,,Indonesia,,,,-3.921.968,1.375.275.422,https://maps.google.com/?cid=0x0:0x765d582b762840f7,
cafe,Bar,Lupa Lelah Club,"V35Q+3C5, Tembagapura, Arwandop, Tembagapura, Kec. Tembagapura, Kabupaten Mimika, Papua 98972","Tembagapura, Arwandop, Tembagapura, Kec. Tembagapura, Kabupaten Mimika",PAPUA,98972.0,Indonesia,0901464294,,,-41.423.686,1.370.886.127,https://maps.google.com/?cid=0x0:0x34b42bf7fb4e9af2,
cafe,Padang,RM SUMBER HARAPAN,"2JGV+G2W, Kimak, Ilaga, Kabupaten Puncak, Papua 98972","Kimak, Ilaga, Kabupaten Puncak",PAPUA,98972.0,Indonesia,081233446661,,,-39.736.329,1.376.425.868,https://maps.google.com/?cid=0x0:0xb3aaf5e8234f9b88,
cafe,Restoran,Noken Cafe by Primo,"V34Q+XXH, Tembagapura, Arwandop, Tembagapura, Kec. Tembagapura, Kabupaten Mimika, Papua 99967","Tembagapura, Arwandop, Tembagapura, Kec. Tembagapura, Kabupaten Mimika",PAPUA,99967.0,Indonesia,,,,-41.425.625,1.370.899.844,https://maps.google.com/?cid=0x0:0xaed48ea0d834fa7a,
cafe,Gedung Apartemen,Coffee Shop Hidden Valley,"R3WX+49M, Arwandop, Kec. Tembagapura, Kabupaten Mimika, Papua 99967","Arwandop, Kec. Tembagapura, Kabupaten Mimika",PAPUA,99967.0,Indonesia,0901466406,,,-4.154.668,1.370.984.148,https://maps.google.com/?cid=0x0:0x19897cfa42d33d8a,
cafe,Restoran,New Kenanga Mess Hall,"Tembagapura, Mimika Regency, Papua 98972",Mimika Regency,PAPUA,98972.0,Indonesia,,,,-41.099.385,1.370.999.715,https://maps.google.com/?cid=0x0:0xc5816325edeb9bea,
cafe,Kedai Kopi,Maxx Coffee Tembagapura,"Tembagapura, Kec. Tembagapura, Kabupaten Mimika, Papua 98972","Kec. Tembagapura, Kabupaten Mimika",PAPUA,98972.0,Indonesia,,,,-41.424.586,1.370.899.319,https://maps.google.com/?cid=0x0:0x9ef773c4f6fba9d3,
cafe,Kedai Kopi,Linear 2.0 Coffee and Kitchen,"Jl. Patimura Jl. Pendidikan Jalur 1, Nawaripi, Beoga, Kabupaten Mimika, Papua 99971","Nawaripi, Beoga, Kabupaten Mimika",PAPUA,99971.0,Indonesia,,,,-39.239.749,1.372.412.673,https://maps.google.com/?cid=0x0:0xf25ae76a4da65092,
cafe,Restoran,Kokarfi Resto,"V34V+P2C, Arwandop, Tembagapura, Kec. Tembagapura, Kabupaten Mimika, Papua 99967","Arwandop, Tembagapura, Kec. Tembagapura, Kabupaten Mimika",PAPUA,99967.0,Indonesia,0901466544,,,-41.431.882,137.092.517,https://maps.google.com/?cid=0x0:0xa4ef3aefd5f71d5,
cafe,Minimarket,Korwa wonda,"Jl David wonda, Kago, Ilaga, Kabupaten Puncak, Papua 98965","Kago, Ilaga, Kabupaten Puncak",PAPUA,98965.0,Indonesia,,,,-39.753.581,1.376.400.752,https://maps.google.com/?cid=0x0:0xba31ad59dc2103fe,
cafe,China,KOPS RESTO TPRA,"V34R+QXH, Jl. Tembagapura Raya, Tembagapura, Kec. Tembagapura, Kabupaten Mimika, Papua 99967","Jl. Tembagapura Raya, Tembagapura, Kec. Tembagapura, Kabupaten Mimika",PAPUA,99967.0,Indonesia,,,,-4.143.062,1.370.924.871,https://maps.google.com/?cid=0x0:0x6bb2b4db62e6d0f9,
cafe,Restoran,Mawar Mess Hall Tembagapura,"V35V+9H5, Arwandop, Tembagapura, Kec. Tembagapura, Kabupaten Mimika, Papua 98972","Arwandop, Tembagapura, Kec. Tembagapura, Kabupaten Mimika",PAPUA,98972.0,Indonesia,082111651875,,,-41.416.131,1.370.939.934,https://maps.google.com/?cid=0x0:0xd853c8435a0e135e,
cafe,Mesin Sangrai Kopi,Alenia Papua Coffee  Kitchen,"Jl. Kemang Raya No.66 B 8, RT.8/RW.2, Bangka, Kec. Mampang Prpt., Kota Jakarta Selatan, Daerah Khusus Ibukota Jakarta 12730","RT.8/RW.2, Bangka, Kec. Mampang Prpt., Kota Jakarta Selatan",PAPUA,12730.0,Indonesia,02171790141,,,-62.638.119,1.068.158.777,https://maps.google.com/?cid=0x0:0xe49807fcfab68b48,
cafe,Pusat Perbelanjaan,Shopping Family Tembagapura,"V34Q+XXH, Tembagapura, Arwandop, Tembagapura, Kec. Tembagapura, Kabupaten Mimika, Papua 99967","Tembagapura, Arwandop, Tembagapura, Kec. Tembagapura, Kabupaten Mimika",PAPUA,99967.0,Indonesia,,,,-41.425.625,1.370.899.844,https://maps.google.com/?cid=0x0:0x23ff3f0a601439a2,
cafe,Pusat Perbelanjaan,Superblock Agawaa Ogom Plaza,"V4R2+634, Arwandop, Kec. Tembagapura, Kabupaten Mimika, Papua 98972","Arwandop, Kec. Tembagapura, Kabupaten Mimika",PAPUA,98972.0,Indonesia,,,,-41.094.796,1.371.002.072,https://maps.google.com/?cid=0x0:0x17e8f3255a557911,
cafe,cafe,Warung Makan Rabi Puan,"2JHV+8M, Kimak, Ilaga, Kabupaten Puncak, Papua","Kabupaten Puncak, Papua",PAPUA,,Indonesia,,,,-39.716.314,137.644.182,https://maps.google.com/?cid=0x0:0xa3e36c1fa42c61cd,
cafe,Warnet,"Gabuts, User Hylos","V3QX+V6G, Tembagapura, Kec. Tembagapura, Kabupaten Mimika, Papua","Kabupaten Mimika, Papua",PAPUA,,Indonesia,,,,-4.110.184,137.097.972,https://maps.google.com/?cid=0x0:0x5d80e0bddebf7c35,
cafe,cafe,Warung Sederhana,"2JGV+G2W, Kimak, Ilaga, Kabupaten Puncak, Papua 98972","Kimak, Ilaga, Kabupaten Puncak",PAPUA,98972.0,Indonesia,,,,-39.730.017,1.376.427.705,https://maps.google.com/?cid=0x0:0x96052f20dcdc4eb2,
cafe,Komplek perumahan,RM ADIVA,"725V+GG7, Bilogai, Kec. Sugapa, Kabupaten Intan Jaya, Papua 98768","Bilogai, Kec. Sugapa, Kabupaten Intan Jaya",PAPUA,98768.0,Indonesia,085336741888,,,-37.416.944,1.370.437.608,https://maps.google.com/?cid=0x0:0xf7b8bec5b7c12751,
cafe,cafe,Papua 98971,"Kabupaten Puncak, Papua","Kabupaten Puncak, Papua",PAPUA,,Indonesia,,,,-37.792.737,1.372.142.417,https://maps.google.com/?cid=0x0:0xd0d09ee74d182011,
cafe,Kedai Kopi,Linear 2.0 Coffee and Kitchen,"Jl. Patimura Jl. Pendidikan Jalur 1, Nawaripi, Beoga, Kabupaten Mimika, Papua 99971","Nawaripi, Beoga, Kabupaten Mimika",PAPUA,99971.0,Indonesia,,,,-39.239.749,1.372.412.673,https://maps.google.com/?cid=0x0:0xf25ae76a4da65092,
cafe,Kafe,Saanjh Cafe,"CJ2G+C7W, Jl. Gelanggang Remaja, Waena, Kec. Heram, Kota Jayapura, Papua 99351","Jl. Gelanggang Remaja, Waena, Kec. Heram, Kota Jayapura",PAPUA,99351.0,Indonesia,,,,-25.988.941,1.406.256.974,https://maps.google.com/?cid=0x0:0xf472b389c2309050,
cafe,Kafe,Tana Papua Coffee and Roastery,"Jl. Raya Abepura, Vim, Kec. Abepura, Kota Jayapura, Papua 99220","Vim, Kec. Abepura, Kota Jayapura",PAPUA,99220.0,Indonesia,082175416609,,,-26.047.712,1.406.727.079,https://maps.google.com/?cid=0x0:0x747c727d4b94ebf6,
cafe,Kafe,Waanal Coffee And Resto,"Jl. Cendrawasih, Karang Senang, Kec. Kuala Kencana, Kabupaten Mimika, Papua 99910","Karang Senang, Kec. Kuala Kencana, Kabupaten Mimika",PAPUA,99910.0,Indonesia,081248677897,,,-44.916.566,1.368.474.106,https://maps.google.com/?cid=0x0:0xe6f6936c8a14d771,
cafe,Kedai Kopi,Kafe Phondabee,"Jl. Raya Sentani, Kp. Waena, Kec. Heram, Kota Jayapura, Papua 99351","Kp. Waena, Kec. Heram, Kota Jayapura",PAPUA,99351.0,Indonesia,081344479210,,,-25.946.227,1.406.289.201,https://maps.google.com/?cid=0x0:0x90b00c77a14ee94b,
cafe,Kafe,LABEWA Cafe  Restaurant,"Sinapuk (samping hotel maharani, Jl. Gatot Subroto, Kama, Distrik Wamena, Kabupaten Jayawijaya, Papua 99511","Jl. Gatot Subroto, Kama, Distrik Wamena, Kabupaten Jayawijaya",PAPUA,99511.0,Indonesia,081248122357,,,-40.842.456,1.389.436.261,https://maps.google.com/?cid=0x0:0x68127e9d5fa10519,
cafe,Kafe,Cafe 86,"Jl. Trans Papua, Titik Nol, Kec. Mandobo, Kabupaten Boven Digoel, Papua 99674","Titik Nol, Kec. Mandobo, Kabupaten Boven Digoel",PAPUA,99674.0,Indonesia,082399197389,,,-60.799.025,1.402.757.948,https://maps.google.com/?cid=0x0:0xb73aeacabd5bf86c,
cafe,cafe,Warung makan diva,"725V+GG7, Bilogai, Kec. Sugapa, Kabupaten Intan Jaya, Papua 98768","Bilogai, Kec. Sugapa, Kabupaten Intan Jaya",PAPUA,98768.0,Indonesia,,,,-37.353.125,1.370.440.625,https://maps.google.com/?cid=0x0:0xc0aada5c761b9bfb,
cafe,cafe,Ronggaiwa Beach Cafe,"5M4C+H6F, Kampung Ronggaiwa Blakang SPBU distrik Urei Faisei, Firo, Inggerus, Kabupaten Waropen, Papua 98261","Kampung Ronggaiwa Blakang SPBU distrik Urei Faisei, Firo, Inggerus, Kabupaten Waropen",PAPUA,98261.0,Indonesia,082119536673,,,-28.435.717,136.670.534,https://maps.google.com/?cid=0x0:0xf2e0bffcaa3ca8fb,
cafe,Kedai Kopi,Kuwa Kuwi Cafe,"Jl. Pahlawan No.27, Rempoa, Kec. Ciputat Tim., Kota Tangerang Selatan, Banten 15412","Rempoa, Kec. Ciputat Tim., Kota Tangerang Selatan",PAPUA,15412.0,Indonesia,082114048484,,,-62.866.673,1.067.601.417,https://maps.google.com/?cid=0x0:0x6636ae210118623f,
cafe,Kedai Kopi,Bi Coffee,"Jl. Sukabakti 1 No.5 Blok A1, Sawah Baru, Kec. Ciputat, Kota Tangerang Selatan, Banten 15414","Sawah Baru, Kec. Ciputat, Kota Tangerang Selatan",PAPUA,15414.0,Indonesia,,,,-63.052.732,1.067.228.419,https://maps.google.com/?cid=0x0:0x297ae4becffe98c2,
cafe,Kedai Kopi,Weside Coffee and Space,"Stikes Kesosi, Rw. Buaya, Kecamatan Cengkareng, Kota Jakarta Barat, Daerah Khusus Ibukota Jakarta","Kota Jakarta Barat, Daerah Khusus Ibukota Jakarta",PAPUA,,Indonesia,,,,-61.698.887,1.067.339.614,https://maps.google.com/?cid=0x0:0x73a53033eaaab324,
cafe,Kedai Kopi,Kopi Wangsa,"The View Building, Jl. Pahlawan Revolusi No.5 Lantai 3, RT.8/RW.9, Pd. Bambu, Kec. Duren Sawit, Kota Jakarta Timur, Daerah Khusus Ibukota Jakarta 13430","Jl. Pahlawan Revolusi No.5 Lantai 3, RT.8/RW.9, Pd. Bambu, Kec. Duren Sawit, Kota Jakarta Timur",PAPUA,13430.0,Indonesia,085211246301,,,-62.324.793,1.068.972.208,https://maps.google.com/?cid=0x0:0x9b4b0221758142ae,
cafe,Kedai Kopi,"Kopi Wangsa, Bogor","Jl. Pajajaran Indah V No.48, Baranangsiang, Kec. Bogor Tim., Kota Bogor, Jawa Barat 16143","Baranangsiang, Kec. Bogor Tim., Kota Bogor",PAPUA,16143.0,Indonesia,087717781888,,,-66.103.346,106.813.513,https://maps.google.com/?cid=0x0:0xc42ccb63a8c0eef6,
cafe,Kedai Kopi,Wang Wa Cafe',"1031 1 Bang Khun Thian-Chai Thalae Rd, Tha Kham, Bang Khun Thian, Bangkok 10150, Thailand","Tha Kham, Bang Khun Thian, Bangkok",PAPUA,10150.0,Indonesia,66991188899,,,135.886.529,1.004.316.034,https://maps.google.com/?cid=0x0:0xb5ea99a0f2a918e4,
cafe,Kedai Kopi,Linear 2.0 Coffee and Kitchen,"Jl. Patimura Jl. Pendidikan Jalur 1, Nawaripi, Beoga, Kabupaten Mimika, Papua 99971","Nawaripi, Beoga, Kabupaten Mimika",PAPUA,99971.0,Indonesia,,,,-39.239.749,1.372.412.673,https://maps.google.com/?cid=0x0:0xf25ae76a4da65092,
cafe,Kafe,Rilex Cafe Roaster,"CVWM+H6P, Jl. Budi Utomo, Kwamki, Kec. Mimika Baru, Kabupaten Mimika, Papua 99971","Jl. Budi Utomo, Kwamki, Kec. Mimika Baru, Kabupaten Mimika",PAPUA,99971.0,Indonesia,08114917775,,,-45.535.441,1.368.830.881,https://maps.google.com/?cid=0x0:0x60b33a852b0ec98a,
cafe,Kedai Kopi,Njoy Kedai BOEDOET 806,"Jl. Barkah III No.36 14, RT.14/RW.2, Manggarai Sel., Kec. Tebet, Kota Jakarta Selatan, Daerah Khusus Ibukota Jakarta 12860","RT.14/RW.2, Manggarai Sel., Kec. Tebet, Kota Jakarta Selatan",PAPUA,12860.0,Indonesia,081387672681,,,-62.208.865,1.068.514.047,https://maps.google.com/?cid=0x0:0x9ccb41a53c82e3a1,
cafe,cafe,Borahae Cafe,"No. 25 Tipe Aloha, Jl. Puri Beta Utara, RT.004/RW.012, Larangan Utara, Kec. Larangan, Kota Tangerang, Banten 15154","Jl. Puri Beta Utara, RT.004/RW.012, Larangan Utara, Kec. Larangan, Kota Tangerang",PAPUA,15154.0,Indonesia,,,,-62.280.723,1.067.253.357,https://maps.google.com/?cid=0x0:0xb909887930c0aa68,
cafe,cafe,Papua 98976,Papua,Papua,PAPUA,,Indonesia,,,,-31.858.094,1.375.275.422,https://maps.google.com/?cid=0x0:0x93d2390dfd2f699,
cafe,Kedai Kopi,De.u Coffee Mekarwangi,"Jl. Mekar Laksana No.8B, Mekarwangi, Kec. Bojongloa Kidul, Kota Bandung, Jawa Barat","Kota Bandung, Jawa Barat",PAPUA,,Indonesia,,,,-6.953.182,1.076.034.055,https://maps.google.com/?cid=0x0:0x5aa6dae327b3b076,
cafe,Kedai Kopi,De.u Coffee Dago,"Jl. Rancakendal No.7, Ciburial, Kec. Cibeunying Kaler, Kabupaten Bandung, Jawa Barat","Kabupaten Bandung, Jawa Barat",PAPUA,,Indonesia,087733571635,,,-68.713.688,1.076.276.701,https://maps.google.com/?cid=0x0:0xc87f78ca612f89f7,
cafe,cafe,Papua 98973,"Kabupaten Puncak, Papua","Kabupaten Puncak, Papua",PAPUA,,Indonesia,,,,-38.173.024,1.378.427.298,https://maps.google.com/?cid=0x0:0x306367a3dc8a22ab,
cafe,Perkebunan Pohon,Rumah Kopi Dokome,"8X98+73, Wuyukwi, Distrik Mulia, Kabupaten Puncak Jaya, Papua","Kabupaten Puncak Jaya, Papua",PAPUA,,Indonesia,,,,-36.817.546,1.379.651.888,https://maps.google.com/?cid=0x0:0xfa716672ca2f70da,
cafe,Dapur Umum,Warung Segman,"7XX7+2Q7, Wuyukwi, Distrik Mulia, Kabupaten Puncak Jaya, Papua 98973","Wuyukwi, Distrik Mulia, Kabupaten Puncak Jaya",PAPUA,98973.0,Indonesia,085244167861,,,-37.025.417,1.379.644.578,https://maps.google.com/?cid=0x0:0xb70d2a8b2b6767b,
cafe,Mesin Sangrai Kopi,Alenia Papua Coffee  Kitchen,"Jl. Kemang Raya No.66 B 8, RT.8/RW.2, Bangka, Kec. Mampang Prpt., Kota Jakarta Selatan, Daerah Khusus Ibukota Jakarta 12730","RT.8/RW.2, Bangka, Kec. Mampang Prpt., Kota Jakarta Selatan",PAPUA,12730.0,Indonesia,02171790141,,,-62.638.119,1.068.158.777,https://maps.google.com/?cid=0x0:0xe49807fcfab68b48,
cafe,Kedai Kopi,Kalome Kab Puncak Jaya Papua Tengah,"7XPQ+XP4, Pagaleme, Distrik Mulia, Kabupaten Puncak Jaya, Papua 98975","Pagaleme, Distrik Mulia, Kabupaten Puncak Jaya",PAPUA,98975.0,Indonesia,,,,-3.711.764,13.798.822,https://maps.google.com/?cid=0x0:0x567ba8629826eb17,
cafe,Kafe,Tana Papua Coffee and Roastery,"Jl. Raya Abepura, Vim, Kec. Abepura, Kota Jayapura, Papua 99220","Vim, Kec. Abepura, Kota Jayapura",PAPUA,99220.0,Indonesia,082175416609,,,-26.047.712,1.406.727.079,https://maps.google.com/?cid=0x0:0x747c727d4b94ebf6,
cafe,Kafe,cafe bakau holtekam kota jayapura,"9PRF+58, Nafri, Kec. Abepura, Kota Jayapura, Papua","Kota Jayapura, Papua",PAPUA,,Indonesia,08124022007,,,-26.095.335,1.407.232.587,https://maps.google.com/?cid=0x0:0x440c4543fd3a011e,
cafe,Restoran,Pit's Corner ( Papua Specialty Coffee ),"Jalan kasuari no.2 Dok V Atas, Mandala, Jayapura Utara, Jayapura City, Papua 99114","Mandala, Jayapura Utara, Jayapura City",PAPUA,99114.0,Indonesia,09675160443,,,-25.310.642,14.071.875,https://maps.google.com/?cid=0x0:0xf39f3950a3bf5ed2,
cafe,Kafe,CAFE MAMI SPESIAL,"FF56+73Q, Doyo Baru, Distrik Waibu, Kabupaten Jayapura, Papua 99352","Doyo Baru, Distrik Waibu, Kabupaten Jayapura",PAPUA,99352.0,Indonesia,085331567983,,,-25.417.855,1.404.602.307,https://maps.google.com/?cid=0x0:0xb7a6ab0d1f83671b,
cafe,Minimarket,Korwa wonda,"Jl David wonda, Kago, Ilaga, Kabupaten Puncak, Papua 98965","Kago, Ilaga, Kabupaten Puncak",PAPUA,98965.0,Indonesia,,,,-39.753.581,1.376.400.752,https://maps.google.com/?cid=0x0:0xba31ad59dc2103fe,
cafe,Kedai Kopi,gaba gaba mopolo,"Jl. Raya Abepura, Wahno, Kec. Abepura, Kota Jayapura, Papua","Kota Jayapura, Papua",PAPUA,,Indonesia,082248081142,,,-25.951.877,1.406.819.205,https://maps.google.com/?cid=0x0:0x8e97434563eafaeb,
cafe,Mi,RM Barokah,"8X28+42H, Wuyukwi, Distrik Mulia, Kabupaten Puncak Jaya, Papua 98973","Wuyukwi, Distrik Mulia, Kabupaten Puncak Jaya",PAPUA,98973.0,Indonesia,,,,-36.996.957,1.379.651.121,https://maps.google.com/?cid=0x0:0xc0f5e27433afe182,
cafe,Padang,RM SUMBER HARAPAN,"2JGV+G2W, Kimak, Ilaga, Kabupaten Puncak, Papua 98972","Kimak, Ilaga, Kabupaten Puncak",PAPUA,98972.0,Indonesia,081233446661,,,-39.736.329,1.376.425.868,https://maps.google.com/?cid=0x0:0xb3aaf5e8234f9b88,
cafe,Restoran,RM Anugerah,"7XMQ+7HH, Pagaleme, Distrik Mulia, Kabupaten Puncak Jaya, Papua 98975","Pagaleme, Distrik Mulia, Kabupaten Puncak Jaya",PAPUA,98975.0,Indonesia,,,,-37.168.224,137.988.993,https://maps.google.com/?cid=0x0:0x1b630c37e9b38dcc,
cafe,Padang,RM Puja Selera,"7XPJ+MC5, Unnamed Road, Pruleme, Distrik Mulia, Kabupaten Puncak Jaya, Papua 98973","Unnamed Road, Pruleme, Distrik Mulia, Kabupaten Puncak Jaya",PAPUA,98973.0,Indonesia,,,,-37.133.572,1.379.811.015,https://maps.google.com/?cid=0x0:0x5c5a8ec894f8337c,
cafe,Kafe,Kakao Kita Papua Cafe,"Jl. Jeruk Nipis No.118, Wahno, Kec. Abepura, Kota Jayapura, Papua 99224","Wahno, Kec. Abepura, Kota Jayapura",PAPUA,99224.0,Indonesia,,,,-25.946.884,1.406.772.031,https://maps.google.com/?cid=0x0:0x96446b194f142716,
cafe,Kedai Kopi,Maja Coffee Spot,"Jl. Ardipura Raya No.7, Polimak, Genjer, Kota Jayapura, Papua 99223","Polimak, Genjer, Kota Jayapura",PAPUA,99223.0,Indonesia,,,,-25.512.799,1.407.021.103,https://maps.google.com/?cid=0x0:0x9fbbf1e08715a5d3,
cafe,Kedai Kopi,Kafe Phondabee,"Jl. Raya Sentani, Kp. Waena, Kec. Heram, Kota Jayapura, Papua 99351","Kp. Waena, Kec. Heram, Kota Jayapura",PAPUA,99351.0,Indonesia,081344479210,,,-25.946.227,1.406.289.201,https://maps.google.com/?cid=0x0:0x90b00c77a14ee94b,
cafe,Mi,Rumah Makan Pakde,"7XX8+243, Wuyukwi, Distrik Mulia, Kabupaten Puncak Jaya, Papua 98973","Wuyukwi, Distrik Mulia, Kabupaten Puncak Jaya",PAPUA,98973.0,Indonesia,,,,-37.024.754,1.379.653.046,https://maps.google.com/?cid=0x0:0x717d5035d0b44952,
cafe,Kedai Kopi,kota,"R3RP+7FX, Jalan belakanh SD Inpres, Mandouw, Kec. Samofa, Kabupaten Biak Numfor, Papua","Kabupaten Biak Numfor, Papua",PAPUA,,Indonesia,,,,-11.586.575,1.360.860.111,https://maps.google.com/?cid=0x0:0x1f486532b25b4c77,
cafe,Kafe,PUA-PUA CAFE,"Jl. Budi Utomo, Nawaripi, Kec. Mimika Baru, Kabupaten Mimika, Papua 99952","Nawaripi, Kec. Mimika Baru, Kabupaten Mimika",PAPUA,99952.0,Indonesia,082346750560,,,-45.620.805,1.368.806.057,https://maps.google.com/?cid=0x0:0xb7cc07f877baacb2,
cafe,Sate,Warung Biru,"7XPQ+4H8, Pagaleme, Distrik Mulia, Kabupaten Puncak Jaya, Papua 98975","Pagaleme, Distrik Mulia, Kabupaten Puncak Jaya",PAPUA,98975.0,Indonesia,,,,-37.147.206,1.379.889.552,https://maps.google.com/?cid=0x0:0x2941effa0c8b28f7,
cafe,Warnet,SEJAHTERA NET 11,"7XMJ+FH5, Pruleme, Distrik Mulia, Kabupaten Puncak Jaya, Papua 98973","Pruleme, Distrik Mulia, Kabupaten Puncak Jaya",PAPUA,98973.0,Indonesia,,,,-37.163.539,1.379.814.949,https://maps.google.com/?cid=0x0:0x2ac713c811acd32a,
cafe,Restoran,RM Mie Ayam,"7XX8+PF6, Wuyukwi, Distrik Mulia, Kabupaten Puncak Jaya, Papua 98973","Wuyukwi, Distrik Mulia, Kabupaten Puncak Jaya",PAPUA,98973.0,Indonesia,,,,-37.007.117,1.379.661.327,https://maps.google.com/?cid=0x0:0xd9ccbd54282ff27e,
cafe,Mi,Warung mie ayam solo,"7XRJ+729, Pruleme, Distrik Mulia, Kabupaten Puncak Jaya, Papua 98973","Pruleme, Distrik Mulia, Kabupaten Puncak Jaya",PAPUA,98973.0,Indonesia,,,,-3.709.207,1.379.801.073,https://maps.google.com/?cid=0x0:0xf42c04d8f7191ccb,
cafe,Restoran,Papua Cafe,"JV38+MF6, Kuala Kencana, Kec. Kuala Kencana, Kabupaten Mimika, Papua 99910","Kuala Kencana, Kec. Kuala Kencana, Kabupaten Mimika",PAPUA,99910.0,Indonesia,0811490804,,,-4.395.844,1.368.661.365,https://maps.google.com/?cid=0x0:0x314a0b94209cdb62,
cafe,Restoran,Warung Sate Bude Linda,"7XQH+G3F, Pruleme, Distrik Mulia, Kabupaten Puncak Jaya, Papua 98973","Pruleme, Distrik Mulia, Kabupaten Puncak Jaya",PAPUA,98973.0,Indonesia,,,,-37.111.967,1.379.776.632,https://maps.google.com/?cid=0x0:0x9954cf172f984c56,
cafe,Padang,Warung Sari Minang,"7XW8+W4P, Unnamed Road, Wuyukwi, Distrik Mulia, Kabupaten Puncak Jaya, Papua 98973","Unnamed Road, Wuyukwi, Distrik Mulia, Kabupaten Puncak Jaya",PAPUA,98973.0,Indonesia,081340958395,,,-3.702.675,137.965.338,https://maps.google.com/?cid=0x0:0x76df75196d523d86,
cafe,Kedai Kopi,Cafe Poskopie,"8, Jl. Guntur No.10, RT.8/RW.1, Guntur, Kecamatan Setiabudi, Kota Jakarta Selatan, Daerah Khusus Ibukota Jakarta 12980","Jl. Guntur No.10, RT.8/RW.1, Guntur, Kecamatan Setiabudi, Kota Jakarta Selatan",PAPUA,12980.0,Indonesia,085810600715,,,-620.677,106.838.135,https://maps.google.com/?cid=0x0:0x6d0f9708a0083df4,
cafe,cafe,Kec. Sinak,"Kabupaten Puncak, Papua","Kabupaten Puncak, Papua",PAPUA,,Indonesia,,,,-38.109.317,1.378.469.825,https://maps.google.com/?cid=0x0:0x715d84336ea935dd,
cafe,Kedai Kopi,Sinau Energy Cafe  LK Law Firm,"Jl. KH. Ahmad Dahlan, RT.007/RW.001, Petir, Kec. Cipondoh, Kota Tangerang, Banten 15147","RT.007/RW.001, Petir, Kec. Cipondoh, Kota Tangerang",PAPUA,15147.0,Indonesia,081120041972,,,-6.194.708,1.067.021.197,https://maps.google.com/?cid=0x0:0x235456ddc74b74d9,
cafe,cafe,Warnet Media Cyber,"5RQX+P22, Jl. Kp. Gigobak, Gigobak / Gogobak, Kec. Sinak, Kabupaten Puncak, Papua 98973","Jl. Kp. Gigobak, Gigobak / Gogobak, Kec. Sinak, Kabupaten Puncak",PAPUA,98973.0,Indonesia,,,,-38.107.474,1.378.475.236,https://maps.google.com/?cid=0x0:0x8f76281fe851f6d2,
cafe,cafe,TOWER B6,"6J3G+JW, Aifalim, Distrik Wangbe, Kabupaten Puncak, Papua","Kabupaten Puncak, Papua",PAPUA,,Indonesia,,,,-37.959.702,1.376.272.776,https://maps.google.com/?cid=0x0:0xd042a8459401fe1d,
cafe,Stan Kopi,Tujuhsatukopi,"Jl. Kihajar Dewantoro No.119, Gondrong, Kec. Cipondoh, Kota Tangerang, Banten 15146","Gondrong, Kec. Cipondoh, Kota Tangerang",PAPUA,15146.0,Indonesia,0895376904401,,,-61.861.951,1.067.007.211,https://maps.google.com/?cid=0x0:0x5ca95cbe049c6a04,
cafe,Kedai Kopi,Sini Coffee And Bake,"Jl. Maulana Hasanudin No.35, RT.5/RW.003, Cipondoh Makmur, Kec. Cipondoh, Kota Tangerang, Banten 15122","RT.5/RW.003, Cipondoh Makmur, Kec. Cipondoh, Kota Tangerang",PAPUA,15122.0,Indonesia,,,,-61.756.327,106.678.574,https://maps.google.com/?cid=0x0:0xf6fac83a4be31ba0,
cafe,Kedai Kopi,Celcius Coffee Indonesia,"Jl. Tugu Karya I No.012, RT.001/RW.003, Cipondoh, Kec. Cipondoh, Kota Tangerang, Banten 15148","RT.001/RW.003, Cipondoh, Kec. Cipondoh, Kota Tangerang",PAPUA,15148.0,Indonesia,,,,-61.887.425,1.066.696.479,https://maps.google.com/?cid=0x0:0x880b0650ede7effc,
cafe,cafe,Distrik Agandugume,"Kabupaten Puncak, Papua","Kabupaten Puncak, Papua",PAPUA,,Indonesia,,,,-39.025.963,1.379.185.611,https://maps.google.com/?cid=0x0:0x3409f12ce1149fb1,
cafe,Kedai Kopi,Getz Cafe  Eatery,"Jl. Merdeka No.16I, Oyehe, Distrik Nabire, Kabupaten Nabire, Papua 98811","Oyehe, Distrik Nabire, Kabupaten Nabire",PAPUA,98811.0,Indonesia,,,,-33.601.669,1.355.007.178,https://maps.google.com/?cid=0x0:0x29566c506613090b,
cafe,cafe,Warung Makan Nasi Kuning Prasmanan Aisyah,"5RQX+WFJ, Jalan Kompleks Pasar, Gigobak / Gogobak, Kec. Sinak, Kabupaten Puncak, Papua 98973","Jalan Kompleks Pasar, Gigobak / Gogobak, Kec. Sinak, Kabupaten Puncak",PAPUA,98973.0,Indonesia,,,,-38.101.596,1.378.486.279,https://maps.google.com/?cid=0x0:0xb6ca6d84c2ea7dd7,
cafe,Kedai Kopi,The Coffee Academics - ASHTA District 8,"ASHTA District 8, Gedung The Energy, Jl. Jend. Sudirman kav 52-53 No.28, RT.8/RW.3, Senayan, Kec. Kby. Baru, Kota Jakarta Selatan, Daerah Khusus Ibukota Jakarta 12190","Gedung The Energy, Jl. Jend. Sudirman kav 52-53 No.28, RT.8/RW.3, Senayan, Kec. Kby. Baru, Kota Jakarta Selatan",PAPUA,12190.0,Indonesia,08119199968,,,-62.298.311,1.068.068.322,https://maps.google.com/?cid=0x0:0x3417271166305706,
cafe,Kafe,cafe bakau holtekam kota jayapura,"9PRF+58, Nafri, Kec. Abepura, Kota Jayapura, Papua","Kota Jayapura, Papua",PAPUA,,Indonesia,08124022007,,,-26.095.335,1.407.232.587,https://maps.google.com/?cid=0x0:0x440c4543fd3a011e,
cafe,cafe,Papua 98972,Papua,Papua,PAPUA,,Indonesia,,,,-3.921.968,1.375.275.422,https://maps.google.com/?cid=0x0:0x765d582b762840f7,
cafe,Gedung Apartemen,BQ Garden,"V34R+WWC, Tembagapura, Kec. Tembagapura, Kabupaten Mimika, Papua 98972","Tembagapura, Kec. Tembagapura, Kabupaten Mimika",PAPUA,98972.0,Indonesia,,,,-41.426.947,1.370.922.812,https://maps.google.com/?cid=0x0:0xb263d7123a3738cc,
cafe,cafe,TOWER B6,"6J3G+JW, Aifalim, Distrik Wangbe, Kabupaten Puncak, Papua","Kabupaten Puncak, Papua",PAPUA,,Indonesia,,,,-37.959.702,1.376.272.776,https://maps.google.com/?cid=0x0:0xd042a8459401fe1d,
cafe,Sesuai untuk keluarga,Home Garden Cafe,"Jl. Bangka II C No.34 1, RT.1/RW.3, Pela Mampang, Kec. Mampang Prpt., Jakarta, Daerah Khusus Ibukota Jakarta 12720","RT.1/RW.3, Pela Mampang, Kec. Mampang Prpt., Jakarta",PAPUA,12720.0,Indonesia,089646312702,,,-62.459.085,106.819.233,https://maps.google.com/?cid=0x0:0x7343e44c8546a914,
cafe,Kedai Kopi,Homepage Coffee,"Jl. Karet Pedurenan No.41 - 43, RT.5/RW.6, Kuningan, Karet Kuningan, Kecamatan Setiabudi, Jakarta, Daerah Khusus Ibukota Jakarta 12940","RT.5/RW.6, Kuningan, Karet Kuningan, Kecamatan Setiabudi, Jakarta",PAPUA,12940.0,Indonesia,02152960383,,,-622.118,106.823.754,https://maps.google.com/?cid=0x0:0x9f88d67395d054d5,
cafe,Kedai Kopi,Koffie Home,"Jl. Moch. Kahfi II No.3, Ciganjur, Kec. Jagakarsa, Jakarta, Daerah Khusus Ibukota Jakarta 12630","Ciganjur, Kec. Jagakarsa, Jakarta",PAPUA,12630.0,Indonesia,082122353576,,,-63.431.089,1.068.173.478,https://maps.google.com/?cid=0x0:0x2abd9e730ad01957,
cafe,Kedai Kopi,Homey Coffee ?,"Jl. Tekun, Jl. Komp. Tni AL Jl. Kodamar No.22, Klp. Gading Bar., Jkt Utara, Daerah Khusus Ibukota Jakarta 14240","Jl. Komp. Tni AL Jl. Kodamar No.22, Klp. Gading Bar., Jkt Utara",PAPUA,14240.0,Indonesia,08388833997,,,-6.165.353,106.882.206,https://maps.google.com/?cid=0x0:0x83f822e361b5bd91,
cafe,Kafe,36 Home Garage,"Jl. Hang Lekiu No.40, RT.8/RW.4, Gunung, Kec. Kby. Baru, Kota Jakarta Selatan, Daerah Khusus Ibukota Jakarta 12120","RT.8/RW.4, Gunung, Kec. Kby. Baru, Kota Jakarta Selatan",PAPUA,12120.0,Indonesia,085183136003,,,-62.357.316,1.067.929.277,https://maps.google.com/?cid=0x0:0xdb7a24d7e07b0d69,
cafe,Restoran,HoMee Cafe,"Jl. RS. Fatmawati Raya No.15a, RT.3/RW.4, Cilandak Bar., Kec. Cilandak, Kota Jakarta Selatan, Daerah Khusus Ibukota Jakarta 12410","RT.3/RW.4, Cilandak Bar., Kec. Cilandak, Kota Jakarta Selatan",PAPUA,12410.0,Indonesia,,,,-62.712.005,1.067.973.628,https://maps.google.com/?cid=0x0:0x2c45ba5b16a548a9,
cafe,Kedai Kopi,Holmes cafe,"QRHC+CJ2, Jl. Karet Pedurenan, RT.9/RW.4, Kuningan, Karet Kuningan, Kecamatan Setiabudi, Kota Jakarta Selatan, Daerah Khusus Ibukota Jakarta 12940","Jl. Karet Pedurenan, RT.9/RW.4, Kuningan, Karet Kuningan, Kecamatan Setiabudi, Kota Jakarta Selatan",PAPUA,12940.0,Indonesia,,,,-62.214.764,1.068.215.105,https://maps.google.com/?cid=0x0:0x5245daceb8d9d2dd,
cafe,Kedai Kopi,318 Coffee House,"Jl. Damai Raya No.18, RT.5/RW.5, Petukangan Sel., Kec. Pesanggrahan, Kota Jakarta Selatan, Daerah Khusus Ibukota Jakarta 12320","RT.5/RW.5, Petukangan Sel., Kec. Pesanggrahan, Kota Jakarta Selatan",PAPUA,12320.0,Indonesia,087897682396,,,-62.486.676,1.067.551.666,https://maps.google.com/?cid=0x0:0x826cd8d0626d0d,
cafe,Kafe,Cafe Thr33,"Seyeon Building, Jl. Adiaksa Raya No.33, RT.7/RW.7, Lb. Bulus, Kec. Cilandak, Kota Jakarta Selatan, Daerah Khusus Ibukota Jakarta 12440","Jl. Adiaksa Raya No.33, RT.7/RW.7, Lb. Bulus, Kec. Cilandak, Kota Jakarta Selatan",PAPUA,12440.0,Indonesia,081388887414,,,-62.913.007,1.067.800.926,https://maps.google.com/?cid=0x0:0xd20aac6a1865652c,
cafe,,home,"Jl. Kesatrian X No.5 14, RT.14/RW.3, Kb. Manggis, Kec. Matraman, Kota Jakarta Timur, Daerah Khusus Ibukota Jakarta 13150","RT.14/RW.3, Kb. Manggis, Kec. Matraman, Kota Jakarta Timur",PAPUA,13150.0,Indonesia,,,,-62.065.924,1.068.503.164,https://maps.google.com/?cid=0x0:0x26363c56cdcb0ae6,
cafe,Kedai Kopi,Home Cafe Tea  Coffee,"Jl. Perumahan Puri Gardena No.6 Blok E1, RT.4/RW.14, Pegadungan, Kalideres, West Jakarta City, Jakarta 11830","RT.4/RW.14, Pegadungan, Kalideres, West Jakarta City",PAPUA,11830.0,Indonesia,0818846235,,,-61.377.179,1.066.975.133,https://maps.google.com/?cid=0x0:0x9e3874adb90a4aea,
cafe,Kedai Kopi,HOMECAFE,"Jl. Puri Mansion No.20, RT.2/RW.1, Kembangan Sel., Kec. Kembangan, Kota Jakarta Barat, Daerah Khusus Ibukota Jakarta 11610","RT.2/RW.1, Kembangan Sel., Kec. Kembangan, Kota Jakarta Barat",PAPUA,11610.0,Indonesia,087889925860,,,-61.814.846,1.067.275.403,https://maps.google.com/?cid=0x0:0x8b704bc554f7d404,
cafe,Kafe,Home Coffee,"Jl. H. Mairin Blok, Jl. H. Mairin No.60, RT.8/RW.3, Ulujami, Kec. Pesanggrahan, Kota Jakarta Selatan, Daerah Khusus Ibukota Jakarta 12250","Jl. H. Mairin No.60, RT.8/RW.3, Ulujami, Kec. Pesanggrahan, Kota Jakarta Selatan",PAPUA,12250.0,Indonesia,082112731657,,,-62.335.371,1.067.621.616,https://maps.google.com/?cid=0x0:0x480415c201c8681,
cafe,Kedai Kopi,Kitchen House (Coffee and Store),"Jl. Mandor Demong. Gg. Waru RT.002, Kel No.187 05, RT.002/RW.005, Mustikasari, Mustika Jaya, Bekasi, West Java 17167","Kel No.187 05, RT.002/RW.005, Mustikasari, Mustika Jaya, Bekasi",PAPUA,17167.0,Indonesia,087787933702,,,-63.028.302,1.070.115.097,https://maps.google.com/?cid=0x0:0xb409dd40d46dbd4b,
cafe,Kompleks Apartemen,Rumah Sigit (Coffee at Home),"Jl. Pancoran No.40.rt 07/01, RT.6, Pesanggrahan, Kec. Pesanggrahan, Kota Jakarta Selatan, Daerah Khusus Ibukota Jakarta 12320","RT.6, Pesanggrahan, Kec. Pesanggrahan, Kota Jakarta Selatan",PAPUA,12320.0,Indonesia,,,,-62.526.851,1.067.647.915,https://maps.google.com/?cid=0x0:0xa3c632e7e862de82,
cafe,Kedai Kopi,Hime no coffee,"Jl. Peta Barat, Kalideres, Kec. Kalideres, Kota Jakarta Barat, Daerah Khusus Ibukota Jakarta 11840","Kalideres, Kec. Kalideres, Kota Jakarta Barat",PAPUA,11840.0,Indonesia,081317703715,,,-61.410.694,1.066.928.587,https://maps.google.com/?cid=0x0:0xe11d6a02f66c7c95,
cafe,Kafe,Homey coffeekitchen,"Jl. Keranggan 2, Kranggan, Kec. Setu, Kota Tangerang Selatan, Banten 15312","Kranggan, Kec. Setu, Kota Tangerang Selatan",PAPUA,15312.0,Indonesia,081929110766,,,-63.489.677,1.066.582.997,https://maps.google.com/?cid=0x0:0xcf13f63fd9898add,
cafe,Pembangunan Perumahan,Home Stay Redym,"MVV8+RPF, Jl. Madrasah, RT.4/RW.5, Rambutan, Kec. Ciracas, Kota Jakarta Timur, Daerah Khusus Ibukota Jakarta 13830","Jl. Madrasah, RT.4/RW.5, Rambutan, Kec. Ciracas, Kota Jakarta Timur",PAPUA,13830.0,Indonesia,081519643104,,,-63.054.411,1.068.667.815,https://maps.google.com/?cid=0x0:0x39ff5f2dd6a69619,
cafe,Kafe,Home,"3Jl. Cipinang Baru Bunder 7.38RW, RT.1/RW.1, Cipinang, Kec. Pulo Gadung, Kota Jakarta Timur, Daerah Khusus Ibukota Jakarta 13240","RT.1/RW.1, Cipinang, Kec. Pulo Gadung, Kota Jakarta Timur",PAPUA,13240.0,Indonesia,,,,-6.205.839,106.889.271,https://maps.google.com/?cid=0x0:0xe7231baa19dd6f39,
