Category,Real Category,Business Name,Address,City,State,Postal Code,Country,Phone,Email,Website,Latitude,Longitude,Map Link,Details Link
building materials,building materials,Papua 98972,Papua,Papua,PAPUA,,Indonesia,,,,-3.921.968,1.375.275.422,https://maps.google.com/?cid=0x0:0x765d582b762840f7,
building materials,Grosir peralatan kantor,Facilities Management Landscaping Shop,"V35P+2R8, Unnamed Road, Tembagapura, Mimika Regency, Papua 98972","Unnamed Road, Tembagapura, Mimika Regency",PAPUA,98972.0,Indonesia,0901463718,,,-41.424.528,137.087.078,https://maps.google.com/?cid=0x0:0x48557d4d082b7a34,
building materials,building materials,Chute Yard,"V4W3+WGP, Tembagapura, Kec. Tembagapura, Kabupaten Mimika, Papua 98972","Tembagapura, Kec. Tembagapura, Kabupaten Mimika",PAPUA,98972.0,Indonesia,,,,-41.026.633,1.371.038.151,https://maps.google.com/?cid=0x0:0xd206b2817121fe94,
building materials,building materials,Papua 98971,"Kabupaten Puncak, Papua","Kabupaten Puncak, Papua",PAPUA,,Indonesia,,,,-37.792.737,1.372.142.417,https://maps.google.com/?cid=0x0:0xd0d09ee74d182011,
building materials,Toko Bahan Bangunan,CV. XA TRIO JAYA,"Jl. Cendrawasih Sp2, Simpang Lima, Kec. Mimika Baru, Kabupaten Mimika, Papua","Kabupaten Mimika, Papua",PAPUA,,Indonesia,085244282610,,,-45.154.756,1.368.496.527,https://maps.google.com/?cid=0x0:0x49e9d0a78fcf7509,
building materials,Toko Bahan Bangunan,"Papua Bangunan, CV PAPUA ABADI","Jl. Basuki Rahmat No.780, Klawuyuk, Distrik Sorong Timur, Kota Sorong, Papua Bar. 98416","Klawuyuk, Distrik Sorong Timur, Kota Sorong",PAPUA,98416.0,Indonesia,081332017550,,,-0.8954087,1.313.186.922,https://maps.google.com/?cid=0x0:0x851804bc3aa7f033,
building materials,Toko bahan makanan,DEPO MESIN N28  DEPO BANGUNAN,"Bunyom, Distrik Nimbokrang, Kabupaten Jayapura, Papua 99361","Distrik Nimbokrang, Kabupaten Jayapura",PAPUA,99361.0,Indonesia,085247266989,,,-25.571.645,1.401.086.582,https://maps.google.com/?cid=0x0:0xf97268af26927065,
building materials,Toko Bahan Bangunan,Depo Bangunan Mbanyu Mili,"3VQM+2GP depan balai kampung sp 2, Prafi Mulia, Distrik Prafi, Kabupaten Manokwari, Papua Bar. 98356","Prafi Mulia, Distrik Prafi, Kabupaten Manokwari",PAPUA,98356.0,Indonesia,085254126242,,,-0.9124191,1.338.838.245,https://maps.google.com/?cid=0x0:0x72bb281db456c91a,
building materials,Toko Bahan Bangunan,PAPUA BANGUNAN,"42GX+945, Wosi, Kec. Manokwari Bar., Kabupaten Manokwari, Papua Bar. 98312","Wosi, Kec. Manokwari Bar., Kabupaten Manokwari",PAPUA,98312.0,Indonesia,082198055550,,,-0.874101,1.340.478.473,https://maps.google.com/?cid=0x0:0x2c3683b193d9430f,
building materials,building materials,Waropen,"QC54+M74, Nonomi, Kec. Waropen Bawah, Kabupaten Waropen, Papua 98261","Nonomi, Kec. Waropen Bawah, Kabupaten Waropen",PAPUA,98261.0,Indonesia,,,,-22.408.669,1.364.057.026,https://maps.google.com/?cid=0x0:0x939ec7ca3f88c5d2,
building materials,Toko Bahan Bangunan,Royal Bangunan (PT. Papua Jaya Bangunan),"43P8+87R, Jl. Percetakan Negara, Sanggeng, Kec. Manokwari Bar., Kabupaten Manokwari, Papua Bar. 98312","Jl. Percetakan Negara, Sanggeng, Kec. Manokwari Bar., Kabupaten Manokwari",PAPUA,98312.0,Indonesia,087784554955,,,-0.8641385,1.340.656.252,https://maps.google.com/?cid=0x0:0x99b3b4ac0bad58a,
building materials,building materials,TOKO BANGUNAN NABIRE DTA,,,PAPUA,,Indonesia,082215764545,,,-33.650.533,1.355.078.165,https://maps.google.com/?cid=0x0:0x472d11153b9e7ad1,
building materials,Toko Bahan Bangunan,Toko bangunan abadi 2,"HRGF+HG5, Waisai, Kec. Waigeo Sel., Kabupaten Raja Ampat, Papua Bar. 98482","Waisai, Kec. Waigeo Sel., Kabupaten Raja Ampat",PAPUA,98482.0,Indonesia,082175242539,,,-0.4236212,1.308.238.502,https://maps.google.com/?cid=0x0:0xb39b3321d3629975,
building materials,Toko Perlengkapan Rumah,Toko Bangunan URI,"Q93M+R2X, Uri, Kec. Waropen Bawah, Kabupaten Waropen, Papua 98261","Uri, Kec. Waropen Bawah, Kabupaten Waropen",PAPUA,98261.0,Indonesia,,,,-224.502,136.382.778,https://maps.google.com/?cid=0x0:0xedc722ce6d2e6662,
building materials,Pemasok Bahan Bangunan,Wang Wang Building Material  Engineering,"47B, Jalan Pendekar 9, Taman Ungku Tun Aminah, 81300 Skudai, Johor Darul Ta'zim, Malaysia",Skudai,PAPUA,81300.0,Indonesia,60162078558,,,1.514.269,103.653.167,https://maps.google.com/?cid=0x0:0x70351c04e5635cf4,
building materials,Toko Bahan Bangunan,Tk builder material wholesale  trading (m) sdn bhd,"5A jalan penderka 17 taman ungku tun aminah Skudai, 81300 Johor Bahru, Johor Darul Ta'zim, Malaysia",Johor Bahru,PAPUA,81300.0,Indonesia,6073587654,,,15.131.834,1.036.562.365,https://maps.google.com/?cid=0x0:0xb4ff4c8f165b4329,
building materials,building materials,Papua 98971,"Kabupaten Puncak, Papua","Kabupaten Puncak, Papua",PAPUA,,Indonesia,,,,-37.792.737,1.372.142.417,https://maps.google.com/?cid=0x0:0xd0d09ee74d182011,
building materials,Toko Bahan Bangunan,Depo Bangunan Mbanyu Mili,"3VQM+2GP depan balai kampung sp 2, Prafi Mulia, Distrik Prafi, Kabupaten Manokwari, Papua Bar. 98356","Prafi Mulia, Distrik Prafi, Kabupaten Manokwari",PAPUA,98356.0,Indonesia,085254126242,,,-0.9124191,1.338.838.245,https://maps.google.com/?cid=0x0:0x72bb281db456c91a,
building materials,Toserba,TOKO MAJU MAKMUR,"4R8F+95V, Udapi Hilir, Distrik Prafi, Kabupaten Manokwari, Papua Bar. 98356","Udapi Hilir, Distrik Prafi, Kabupaten Manokwari",PAPUA,98356.0,Indonesia,,,,-0.884108,1.338.229.369,https://maps.google.com/?cid=0x0:0x5dd0e3c69ab93bdc,
building materials,building materials,Papua 98976,Papua,Papua,PAPUA,,Indonesia,,,,-31.858.094,1.375.275.422,https://maps.google.com/?cid=0x0:0x93d2390dfd2f699,
building materials,building materials,Papua 98973,"Kabupaten Puncak, Papua","Kabupaten Puncak, Papua",PAPUA,,Indonesia,,,,-38.173.024,1.378.427.298,https://maps.google.com/?cid=0x0:0x306367a3dc8a22ab,
building materials,Tukang Kayu,PT. Wapoga Mutiara Industries,"JL Sorido Yendidori Raya, Km. 12, 98116, Sorido, Kec. Biak Kota, Kabupaten Biak Numfor, Papua 98113","Km. 12, 98116, Sorido, Kec. Biak Kota, Kabupaten Biak Numfor",PAPUA,98113.0,Indonesia,098122017,,,-1.145.826,1.360.379.864,https://maps.google.com/?cid=0x0:0xa55bd00b75e18e59,
building materials,Toko Bahan Bangunan,Supermarket Multi Bangunan,"Jl Baru No.98, Wai Mhorock, Abepura, Jayapura City, Papua 99225","Wai Mhorock, Abepura, Jayapura City",PAPUA,99225.0,Indonesia,0967588677,,,-26.077.336,1.406.742.812,https://maps.google.com/?cid=0x0:0x3b19f301c68f1d6f,
building materials,Toko Bahan Bangunan,"Papua Bangunan, CV PAPUA ABADI","Jl. Basuki Rahmat No.780, Klawuyuk, Distrik Sorong Timur, Kota Sorong, Papua Bar. 98416","Klawuyuk, Distrik Sorong Timur, Kota Sorong",PAPUA,98416.0,Indonesia,081332017550,,,-0.8954087,1.313.186.922,https://maps.google.com/?cid=0x0:0x851804bc3aa7f033,
building materials,Toko Bahan Bangunan,Tiptore Building Material,"Jl. Poros Kuda Mati, Klp. Lima, Kec. Merauke, Kabupaten Merauke, Papua 99616","Klp. Lima, Kec. Merauke, Kabupaten Merauke",PAPUA,99616.0,Indonesia,082293657714,,,-85.061.763,1.404.257.632,https://maps.google.com/?cid=0x0:0xbf132c61e5517b30,
building materials,building materials,Waropen,"QC54+M74, Nonomi, Kec. Waropen Bawah, Kabupaten Waropen, Papua 98261","Nonomi, Kec. Waropen Bawah, Kabupaten Waropen",PAPUA,98261.0,Indonesia,,,,-22.408.669,1.364.057.026,https://maps.google.com/?cid=0x0:0x939ec7ca3f88c5d2,
building materials,Toko Bahan Bangunan,PT. LUMOS BUILDING MATERIALS (OFFICE),"Soho orchard Boulevard, Jl. M.H. Thamrin No.5 blok A, Salembaran, Kec. Kosambi, Kabupaten Tangerang, Banten 15214","Jl. M.H. Thamrin No.5 blok A, Salembaran, Kec. Kosambi, Kabupaten Tangerang",PAPUA,15214.0,Indonesia,087879341875,,,-60.516.699,1.066.902.996,https://maps.google.com/?cid=0x0:0x213244a16a0cde72,
building materials,Pasar bahan bangunan,PT. LUMOS BUILDING MATERIALS,"MM2100 Industrial Town, Jl. Sulawesi II Blok F5, Gandamekar, Kec. Cikarang Bar., Kabupaten Bekasi, Cikarang, Jawa Barat 17520","Jl. Sulawesi II Blok F5, Gandamekar, Kec. Cikarang Bar., Kabupaten Bekasi, Cikarang",PAPUA,17520.0,Indonesia,02138728888,,,-62.983.961,1.070.944.625,https://maps.google.com/?cid=0x0:0x146d9d952d16484c,
building materials,Pemotongan Kayu,Kantor kaca PT.SWPI,"Tim, Awunawai, Distrik Yapen Timur, Kabupaten Kepulauan Yapen, Papua 98252","Awunawai, Distrik Yapen Timur, Kabupaten Kepulauan Yapen",PAPUA,98252.0,Indonesia,,,,-18.226.475,1.367.595.672,https://maps.google.com/?cid=0x0:0xce8e51c2e764af51,
building materials,Pemasok kayu lapis,PPIC PT SWPI,"5QH7+642, Awunawai, Distrik Yapen Timur, Kabupaten Kepulauan Yapen, Papua 98252","Awunawai, Distrik Yapen Timur, Kabupaten Kepulauan Yapen",PAPUA,98252.0,Indonesia,,,,-18.219.843,1.367.627.575,https://maps.google.com/?cid=0x0:0x21d070a7214c7ec0,
building materials,Bengkel Mobil,BENGKEL M.AB.AR,"5QG4+XH7, Awunawai, Distrik Yapen Timur, Kabupaten Kepulauan Yapen, Papua 98252","Awunawai, Distrik Yapen Timur, Kabupaten Kepulauan Yapen",PAPUA,98252.0,Indonesia,,,,-18.224.504,1.367.576.891,https://maps.google.com/?cid=0x0:0xc6ca782424f0ea4b,
building materials,building materials,Distrik Agandugume,"Kabupaten Puncak, Papua","Kabupaten Puncak, Papua",PAPUA,,Indonesia,,,,-39.025.963,1.379.185.611,https://maps.google.com/?cid=0x0:0x3409f12ce1149fb1,
building materials,Toko Bahan Bangunan,Depo Bangunan Mbanyu Mili,"3VQM+2GP depan balai kampung sp 2, Prafi Mulia, Distrik Prafi, Kabupaten Manokwari, Papua Bar. 98356","Prafi Mulia, Distrik Prafi, Kabupaten Manokwari",PAPUA,98356.0,Indonesia,085254126242,,,-0.9124191,1.338.838.245,https://maps.google.com/?cid=0x0:0x72bb281db456c91a,
building materials,building materials,Arema gipsumornamen,"W88Q+C6G, Persatuan, Kec. Mandobo, Kabupaten Boven Digoel, Papua 99663","Persatuan, Kec. Mandobo, Kabupaten Boven Digoel",PAPUA,99663.0,Indonesia,,,,-60.839.458,1.403.380.895,https://maps.google.com/?cid=0x0:0x13cc05d77f2042a2,
building materials,Toko Bahan Bangunan,Toko bangunan abadi 2,"HRGF+HG5, Waisai, Kec. Waigeo Sel., Kabupaten Raja Ampat, Papua Bar. 98482","Waisai, Kec. Waigeo Sel., Kabupaten Raja Ampat",PAPUA,98482.0,Indonesia,082175242539,,,-0.4236212,1.308.238.502,https://maps.google.com/?cid=0x0:0xb39b3321d3629975,
building materials,building materials,Papua 98972,Papua,Papua,PAPUA,,Indonesia,,,,-3.921.968,1.375.275.422,https://maps.google.com/?cid=0x0:0x765d582b762840f7,
building materials,Grosir peralatan kantor,Facilities Management Landscaping Shop,"V35P+2R8, Unnamed Road, Tembagapura, Mimika Regency, Papua 98972","Unnamed Road, Tembagapura, Mimika Regency",PAPUA,98972.0,Indonesia,0901463718,,,-41.424.528,137.087.078,https://maps.google.com/?cid=0x0:0x48557d4d082b7a34,
building materials,Pemasok batu pecah,Papua Crusher,"V4W3+G6F, Tembagapura, Kec. Tembagapura, Kabupaten Mimika, Papua 98972","Tembagapura, Kec. Tembagapura, Kabupaten Mimika",PAPUA,98972.0,Indonesia,,,,-41.036.832,1.371.030.359,https://maps.google.com/?cid=0x0:0x970aa409c38ce36d,
building materials,Toko Bahan Bangunan,TB. Grace,"Blok M Square Lantai Basement Blok C # 095, Jalan Melawai Raya, RT.3/RW.1, Melawai, Kebayoran Baru, RT.3/RW.1, Melawai, Kec. Kby. Baru, Kota Jakarta Selatan, Daerah Khusus Ibukota Jakarta 12160","Jalan Melawai Raya, RT.3/RW.1, Melawai, Kebayoran Baru, RT.3/RW.1, Melawai, Kec. Kby. Baru, Kota Jakarta Selatan",PAPUA,12160.0,Indonesia,081286015742,,,-6.244.713,106.800.695,https://maps.google.com/?cid=0x0:0xf0922029d5c83052,
building materials,Toko Bahan Bangunan,Tb jago,"Jl. Ophir I No.4 4, RT.4/RW.5, Gunung, Kec. Kby. Baru, Kota Jakarta Selatan, Daerah Khusus Ibukota Jakarta 12120","RT.4/RW.5, Gunung, Kec. Kby. Baru, Kota Jakarta Selatan",PAPUA,12120.0,Indonesia,,,,-62.353.591,1.067.886.752,https://maps.google.com/?cid=0x0:0x43efa8ae7e4dbbfe,
building materials,Toko,Mandiri Jaya. CV,"Jl. Taman Sari IV No.37 13, RT.13/RW.8, Maphar, Kec. Taman Sari, Kota Jakarta Barat, Daerah Khusus Ibukota Jakarta 11150","RT.13/RW.8, Maphar, Kec. Taman Sari, Kota Jakarta Barat",PAPUA,11150.0,Indonesia,0216291523,,,-61.590.764,1.068.255.239,https://maps.google.com/?cid=0x0:0x3e6bc5b1af950db6,
building materials,Pengembangan Bisnis Perdagangan,SPARE PART CATERPILLAR | HITACHI | KOBELCO | KOMATSU -PT. Blessindo Prima Sarana,"No Z9, Jl. Mangga Besar IV I, Taman Sari, Kec. Taman Sari, jakarta, Daerah Khusus Ibukota Jakarta 11150","Jl. Mangga Besar IV I, Taman Sari, Kec. Taman Sari, jakarta",PAPUA,11150.0,Indonesia,02162202518,,,-61.521.017,1.068.253.391,https://maps.google.com/?cid=0x0:0x9bb231e1e1cffa07,
toko bangunan,toko bangunan,Papua 98972,Papua,Papua,PAPUA,,Indonesia,,,,-3.921.968,1.375.275.422,https://maps.google.com/?cid=0x0:0x765d582b762840f7,
toko bangunan,Pemasok batu pecah,Super Shop,"W4MC+76J, Tembagapura, Kec. Tembagapura, Kabupaten Mimika, Papua 98972","Tembagapura, Kec. Tembagapura, Kabupaten Mimika",PAPUA,98972.0,Indonesia,,,,-40.667.949,1.371.205.102,https://maps.google.com/?cid=0x0:0x203c79bd294a597e,
toko bangunan,Grosir peralatan kantor,Facilities Management Landscaping Shop,"V35P+2R8, Unnamed Road, Tembagapura, Mimika Regency, Papua 98972","Unnamed Road, Tembagapura, Mimika Regency",PAPUA,98972.0,Indonesia,0901463718,,,-41.424.528,137.087.078,https://maps.google.com/?cid=0x0:0x48557d4d082b7a34,
toko bangunan,toko bangunan,Chute Yard,"V4W3+WGP, Tembagapura, Kec. Tembagapura, Kabupaten Mimika, Papua 98972","Tembagapura, Kec. Tembagapura, Kabupaten Mimika",PAPUA,98972.0,Indonesia,,,,-41.026.633,1.371.038.151,https://maps.google.com/?cid=0x0:0xd206b2817121fe94,
toko bangunan,toko bangunan,Wangbe,"Distrik Wangbe, Kabupaten Puncak, Papua","Kabupaten Puncak, Papua",PAPUA,,Indonesia,,,,-39.572.768,1.373.510.778,https://maps.google.com/?cid=0x0:0xec97f18b447d29d3,
toko bangunan,toko bangunan,Papua 98971,"Kabupaten Puncak, Papua","Kabupaten Puncak, Papua",PAPUA,,Indonesia,,,,-37.792.737,1.372.142.417,https://maps.google.com/?cid=0x0:0xd0d09ee74d182011,
toko bangunan,Toko Bahan Bangunan,Toko Bangunan SUMBER JAYA,"Jl. Hasanuddin, Kamoro Jaya, Kec. Mimika Baru, Kabupaten Mimika, Papua 99971","Kamoro Jaya, Kec. Mimika Baru, Kabupaten Mimika",PAPUA,99971.0,Indonesia,08114988263,,,-45.643.753,1.368.653.513,https://maps.google.com/?cid=0x0:0xf69f14940b9de223,
toko bangunan,toko bangunan,Papua 98971,"Kabupaten Puncak, Papua","Kabupaten Puncak, Papua",PAPUA,,Indonesia,,,,-37.792.737,1.372.142.417,https://maps.google.com/?cid=0x0:0xd0d09ee74d182011,
toko bangunan,Toko Bahan Bangunan,Toko Bangunan SUMBER JAYA,"Jl. Hasanuddin, Kamoro Jaya, Kec. Mimika Baru, Kabupaten Mimika, Papua 99971","Kamoro Jaya, Kec. Mimika Baru, Kabupaten Mimika",PAPUA,99971.0,Indonesia,08114988263,,,-45.643.753,1.368.653.513,https://maps.google.com/?cid=0x0:0xf69f14940b9de223,
toko bangunan,Toko Bahan Bangunan,TOKO SUMBER NIAGA BANGUNAN,"Timika Jaya, Kec. Mimika Baru, Kabupaten Mimika, Papua 99971","Kec. Mimika Baru, Kabupaten Mimika",PAPUA,99971.0,Indonesia,0856095797670,,,-4.569.129,136.878.701,https://maps.google.com/?cid=0x0:0xcd18f7af7f50af74,
toko bangunan,toko bangunan,Papua 98976,Papua,Papua,PAPUA,,Indonesia,,,,-31.858.094,1.375.275.422,https://maps.google.com/?cid=0x0:0x93d2390dfd2f699,
toko bangunan,Toko Bahan Bangunan,Toko Bahan Bangunan Doa - Ibu,"5865+WW2, Curwangi, Sukatani, Kec. Haurwangi, Kabupaten Cianjur, Jawa Barat 43283","Curwangi, Sukatani, Kec. Haurwangi, Kabupaten Cianjur",PAPUA,43283.0,Indonesia,,,,-683.774,1.073.097.713,https://maps.google.com/?cid=0x0:0x3aad36549a580f2,
toko bangunan,Toko Bahan Bangunan,Toko Bangunan Dede,"62XW+8QR, Jalan Raya, Cipendawa, Pacet, Cianjur Regency, West Java 43253","Jalan Raya, Cipendawa, Pacet, Cianjur Regency",PAPUA,43253.0,Indonesia,,,,-675.165,1.070.468.769,https://maps.google.com/?cid=0x0:0xd98702c316b78c88,
toko bangunan,Toko bahan makanan,Toko Bahan Bangunan H.Deden,"848X+JPF, Kp. Cikendi, Mekarjaya, Kec. Cikalongkulon, Kabupaten Cianjur, Jawa Barat 43291","Kp. Cikendi, Mekarjaya, Kec. Cikalongkulon, Kabupaten Cianjur",PAPUA,43291.0,Indonesia,,,,-66.834.421,1.071.492.996,https://maps.google.com/?cid=0x0:0x6577d58bb2764baf,
toko bangunan,Toko Bahan Bangunan,TOKO BANGUNAN DEUIS,"257C+V72, Kp. Cipatengteung, Margaluyu, Kec. Campaka, Kabupaten Cianjur, Jawa Barat 43263","Kp. Cipatengteung, Margaluyu, Kec. Campaka, Kabupaten Cianjur",PAPUA,43263.0,Indonesia,081322068228,,,-69.851.472,1.071.707.199,https://maps.google.com/?cid=0x0:0x88953c2838b376c0,
toko bangunan,toko bangunan,Papua 98973,"Kabupaten Puncak, Papua","Kabupaten Puncak, Papua",PAPUA,,Indonesia,,,,-38.173.024,1.378.427.298,https://maps.google.com/?cid=0x0:0x306367a3dc8a22ab,
toko bangunan,Toko grosir,Toko Alfa-2,"7XRH+77M, Pruleme, Distrik Mulia, Kabupaten Puncak Jaya, Papua 98973","Pruleme, Distrik Mulia, Kabupaten Puncak Jaya",PAPUA,98973.0,Indonesia,,,,-37.092.764,1.379.781.586,https://maps.google.com/?cid=0x0:0x4072cbdba81be118,
toko bangunan,Toko,Toko H2 Jaya,"7XQJ+9W4, Pruleme, Distrik Mulia, Kabupaten Puncak Jaya, Papua 98973","Pruleme, Distrik Mulia, Kabupaten Puncak Jaya",PAPUA,98973.0,Indonesia,,,,-37.123.726,1.379.824.079,https://maps.google.com/?cid=0x0:0x7a9f9cadfa86bd6e,
toko bangunan,toko bangunan,Kec. Sinak,"Kabupaten Puncak, Papua","Kabupaten Puncak, Papua",PAPUA,,Indonesia,,,,-38.109.317,1.378.469.825,https://maps.google.com/?cid=0x0:0x715d84336ea935dd,
toko bangunan,toko bangunan,Toko Mitra Bangunan,"8F8G+WJ5, Karubaga, Kec. Karubaga, Kabupaten Tolikara, Papua 99567","Karubaga, Kec. Karubaga, Kabupaten Tolikara",PAPUA,99567.0,Indonesia,081317225643,,,-3.682.733,1.384.766.089,https://maps.google.com/?cid=0x0:0x94f019f9132886e9,
toko bangunan,toko bangunan,Distrik Agandugume,"Kabupaten Puncak, Papua","Kabupaten Puncak, Papua",PAPUA,,Indonesia,,,,-39.025.963,1.379.185.611,https://maps.google.com/?cid=0x0:0x3409f12ce1149fb1,
toko bangunan,Toko,TOKO BANGUNAN SUMBER ANUGERAH,"Persatuan, Kec. Mandobo, Kabupaten Boven Digoel, Papua 99663","Kec. Mandobo, Kabupaten Boven Digoel",PAPUA,99663.0,Indonesia,,,,-60.903.965,1.403.331.897,https://maps.google.com/?cid=0x0:0x9b0d3e5a6263752a,
toko bangunan,Toko Bahan Bangunan,UD. Anugerah Abadi,"V8W8+526, Persatuan, Kec. Mandobo, Kabupaten Boven Digoel, Papua","Kabupaten Boven Digoel, Papua",PAPUA,,Indonesia,,,,-61.045.815,1.403.150.258,https://maps.google.com/?cid=0x0:0xeeca0aee368caf42,
toko bangunan,Pemasok batu pecah,Super Shop,"W4MC+76J, Tembagapura, Kec. Tembagapura, Kabupaten Mimika, Papua 98972","Tembagapura, Kec. Tembagapura, Kabupaten Mimika",PAPUA,98972.0,Indonesia,,,,-40.667.949,1.371.205.102,https://maps.google.com/?cid=0x0:0x203c79bd294a597e,
toko bangunan,toko bangunan,Papua 98972,Papua,Papua,PAPUA,,Indonesia,,,,-3.921.968,1.375.275.422,https://maps.google.com/?cid=0x0:0x765d582b762840f7,
toko bangunan,Pemasok batu pecah,Papua Crusher,"V4W3+G6F, Tembagapura, Kec. Tembagapura, Kabupaten Mimika, Papua 98972","Tembagapura, Kec. Tembagapura, Kabupaten Mimika",PAPUA,98972.0,Indonesia,,,,-41.036.832,1.371.030.359,https://maps.google.com/?cid=0x0:0x970aa409c38ce36d,
toko bangunan,toko bangunan,Chute Yard,"V4W3+WGP, Tembagapura, Kec. Tembagapura, Kabupaten Mimika, Papua 98972","Tembagapura, Kec. Tembagapura, Kabupaten Mimika",PAPUA,98972.0,Indonesia,,,,-41.026.633,1.371.038.151,https://maps.google.com/?cid=0x0:0xd206b2817121fe94,
toko bangunan,Toko Bahan Bangunan,Guna Karya. TB,"1, Jl. Muria Tanjakan No.20, RT.2/RW.2, Menteng Atas, Kecamatan Setiabudi, Kota Jakarta Selatan, Daerah Khusus Ibukota Jakarta 12960","Jl. Muria Tanjakan No.20, RT.2/RW.2, Menteng Atas, Kecamatan Setiabudi, Kota Jakarta Selatan",PAPUA,12960.0,Indonesia,081513523232,,,-62.108.588,1.068.379.406,https://maps.google.com/?cid=0x0:0x4547815bf964f6cb,
toko bangunan,Toko Bahan Bangunan,TB. Grace,"Blok M Square Lantai Basement Blok C # 095, Jalan Melawai Raya, RT.3/RW.1, Melawai, Kebayoran Baru, RT.3/RW.1, Melawai, Kec. Kby. Baru, Kota Jakarta Selatan, Daerah Khusus Ibukota Jakarta 12160","Jalan Melawai Raya, RT.3/RW.1, Melawai, Kebayoran Baru, RT.3/RW.1, Melawai, Kec. Kby. Baru, Kota Jakarta Selatan",PAPUA,12160.0,Indonesia,081286015742,,,-6.244.713,106.800.695,https://maps.google.com/?cid=0x0:0xf0922029d5c83052,
toko bangunan,Toko Bahan Bangunan,TB DD BANGUNAN 3,"Jl. Q No.40, Kuningan, Karet, Kecamatan Setiabudi, Kota Jakarta Selatan, Daerah Khusus Ibukota Jakarta 12920","Kuningan, Karet, Kecamatan Setiabudi, Kota Jakarta Selatan",PAPUA,12920.0,Indonesia,082177741795,,,-62.118.961,1.068.239.515,https://maps.google.com/?cid=0x0:0xb487333b31d2d2ca,
toko bangunan,Toko Bahan Bangunan,Toko Bangunan,"Jl. R No.15 9, RT.9/RW.6, Pademangan Bar., Kec. Pademangan, Jkt Utara, Daerah Khusus Ibukota Jakarta 14420","RT.9/RW.6, Pademangan Bar., Kec. Pademangan, Jkt Utara",PAPUA,14420.0,Indonesia,,,,-61.379.508,1.068.371.045,https://maps.google.com/?cid=0x0:0xb758390f0d603d4a,
toko bangunan,Toko Bahan Bangunan,Toko Bahan Bangunan / Material Gembira,"Jl. Kepu Sel. No.1 14, RT.14/RW.2, Kemayoran, Kec. Kemayoran, Kota Jakarta Pusat, Daerah Khusus Ibukota Jakarta 10620","RT.14/RW.2, Kemayoran, Kec. Kemayoran, Kota Jakarta Pusat",PAPUA,10620.0,Indonesia,0214253703,,,-61.685.104,1.068.432.998,https://maps.google.com/?cid=0x0:0xf4cae865851aea12,
toko bangunan,Pasar bahan bangunan,Toko Bangunan,"Jl. H. Kelik No.32-120 4, RT.4/RW.8, Klp. Dua, Kec. Kb. Jeruk, Kota Jakarta Barat, Daerah Khusus Ibukota Jakarta 11550","RT.4/RW.8, Klp. Dua, Kec. Kb. Jeruk, Kota Jakarta Barat",PAPUA,11550.0,Indonesia,081264671628,,,-62.086.789,1.067.661.675,https://maps.google.com/?cid=0x0:0x8877745fd53a8f99,
toko bangunan,Toko Bahan Bangunan,Toko Bangunan,"Jl. Martimbang Raya No.1, RT.1/RW.5, Gunung, Kec. Kby. Baru, Kota Jakarta Selatan, Daerah Khusus Ibukota Jakarta 12220","RT.1/RW.5, Gunung, Kec. Kby. Baru, Kota Jakarta Selatan",PAPUA,12220.0,Indonesia,085102121495,,,-62.321.591,1.067.909.595,https://maps.google.com/?cid=0x0:0x94aa8af43244773f,
toko bangunan,Toko Bahan Bangunan,TB. Wigo Bangunan,"Jl. Raya Munjul No.20, RT.9/RW.1, Munjul, Kec. Cipayung, Kota Jakarta Timur, Daerah Khusus Ibukota Jakarta 13850","RT.9/RW.1, Munjul, Kec. Cipayung, Kota Jakarta Timur",PAPUA,13850.0,Indonesia,081310091851,,,-6.350.443,1.068.966.109,https://maps.google.com/?cid=0x0:0x60b36b11211a81e2,
toko bangunan,Toko Bahan Bangunan,Toko Rodamas,"13, Jl. Ujung Unggaran No.1, RT.13/RW.5, Ps. Manggis, Kecamatan Setiabudi, Kota Jakarta Selatan, Daerah Khusus Ibukota Jakarta 12970","Jl. Ujung Unggaran No.1, RT.13/RW.5, Ps. Manggis, Kecamatan Setiabudi, Kota Jakarta Selatan",PAPUA,12970.0,Indonesia,081271594560,,,-62.085.261,1.068.379.257,https://maps.google.com/?cid=0x0:0x59aad0aaf7c22edf,
toko bangunan,Toko Bahan Bangunan,Tb jago,"Jl. Ophir I No.4 4, RT.4/RW.5, Gunung, Kec. Kby. Baru, Kota Jakarta Selatan, Daerah Khusus Ibukota Jakarta 12120","RT.4/RW.5, Gunung, Kec. Kby. Baru, Kota Jakarta Selatan",PAPUA,12120.0,Indonesia,,,,-62.353.591,1.067.886.752,https://maps.google.com/?cid=0x0:0x43efa8ae7e4dbbfe,
toko bangunan,Pemasok Bahan Bangunan,Depo Bangunan Tangerang Selatan,"Jl. Raya Serpong No.KM.2, Pakulonan, Kec. Serpong Utara, Kota Tangerang Selatan, Banten 15325","Pakulonan, Kec. Serpong Utara, Kota Tangerang Selatan",PAPUA,15325.0,Indonesia,02153120808,,,-62.407.101,1.066.492.227,https://maps.google.com/?cid=0x0:0x9a4b22c9292d3f53,
toko bangunan,toko bangunan,,,,PAPUA,,Indonesia,081222807697,,,-62.297.465,106.829.518,https://maps.google.com/?cid=0x0:0x81a984a574ecc674,
toko bangunan,Toko Bahan Bangunan,Aneka Sarana Bangunan,"Jl. Meruya Ilir Raya No.5, RT.5/RW.8, Srengseng, Kec. Kembangan, Kota Jakarta Barat, Daerah Khusus Ibukota Jakarta 11630","RT.5/RW.8, Srengseng, Kec. Kembangan, Kota Jakarta Barat",PAPUA,11630.0,Indonesia,0215846937,,,-61.973.627,1.067.489.981,https://maps.google.com/?cid=0x0:0x72a7b7b86ad90b84,
toko bangunan,Toko Bahan Bangunan,TB. KARYA BANGUNAN,"JWCV+V32, jl. KH Rafei no, RT.4/RW.4, Nagrak, Kec. Gn. Putri, Kabupaten Bogor, Jawa Barat 16967","jl. KH Rafei no, RT.4/RW.4, Nagrak, Kec. Gn. Putri, Kabupaten Bogor",PAPUA,16967.0,Indonesia,082111970407,,,-63.778.695,1.069.426.417,https://maps.google.com/?cid=0x0:0x517b337f1b02425b,
toko bangunan,Toko,Toko Bangunan,"FJHW+XWX, Gobang, Kec. Rumpin, Kabupaten Bogor, Jawa Barat 16350","Gobang, Kec. Rumpin, Kabupaten Bogor",PAPUA,16350.0,Indonesia,,,,-65.200.128,1.066.473.694,https://maps.google.com/?cid=0x0:0x553d25e686dcd80b,
toko bangunan,Toko Bahan Bangunan,TB Karya Bersama,"Jl. Meruyung Raya, Rangkapan Jaya Baru, Kec. Pancoran Mas, Kota Depok, Jawa Barat 16515","Rangkapan Jaya Baru, Kec. Pancoran Mas, Kota Depok",PAPUA,16515.0,Indonesia,02177883786,,,-63.942.972,1.067.722.296,https://maps.google.com/?cid=0x0:0xbe7fdc362aa37ed3,
toko bangunan,Toko Bahan Bangunan,BUN BANGUNAN | PUSAT BAHAN BANGUNAN,"151711, Jalan Raya Ranca Serdang Jl. Raya Rancaiyuh No.156, Ranca Iyuh, Kec. Panongan, Kabupaten Tangerang, Banten 15711","Jalan Raya Ranca Serdang Jl. Raya Rancaiyuh No.156, Ranca Iyuh, Kec. Panongan, Kabupaten Tangerang",PAPUA,15711.0,Indonesia,,,,-63.102.942,1.065.344.627,https://maps.google.com/?cid=0x0:0x3ffc6e95ffec98d1,
toko bangunan,Toko Bahan Bangunan,Toko Bangunan Gemilang Jaya Tangerang,"Jl. Sutopo No.1/55, RT.003/RW.003, Sukarasa, Kec. Tangerang, Kota Tangerang, Banten 15111","RT.003/RW.003, Sukarasa, Kec. Tangerang, Kota Tangerang",PAPUA,15111.0,Indonesia,087778386237,,,-61.755.868,1.066.311.155,https://maps.google.com/?cid=0x0:0xd40daa2ae2162e63,
toko bangunan,Toko Bahan Bangunan,Toko Tiga Bintang,"Jalan Prabu Siliwangi Raya #113 Perum 4 Cibodas, RT.003/RW.001, Cibodas Baru, Kec. Cibodas, Kota Tangerang, Banten 15138","RT.003/RW.001, Cibodas Baru, Kec. Cibodas, Kota Tangerang",PAPUA,15138.0,Indonesia,,,,-61.988.897,106.602.371,https://maps.google.com/?cid=0x0:0xf32034d3d9934e8,
toko bangunan,Toko Cat,Toko Sinar Cemerlang,"Jl. Margonda No.189 2, RW.15, Kemiri Muka, Kecamatan Beji, Kota Depok, Jawa Barat 16423","RW.15, Kemiri Muka, Kecamatan Beji, Kota Depok",PAPUA,16423.0,Indonesia,087887773218,,,-63.854.508,1.068.284.992,https://maps.google.com/?cid=0x0:0x7cdf7b515cb9c1e0,
hardware store,hardware store,Papua 98972,Papua,Papua,PAPUA,,Indonesia,,,,-3.921.968,1.375.275.422,https://maps.google.com/?cid=0x0:0x765d582b762840f7,
hardware store,hardware store,Fotocopy Cartenz,"Jalan Yokatapa, Bilogai, Kec. Sugapa, Kabupaten Intan Jaya, Papua 98793","Bilogai, Kec. Sugapa, Kabupaten Intan Jaya",PAPUA,98793.0,Indonesia,,,,-37.401.346,1.370.428.539,https://maps.google.com/?cid=0x0:0x13051e0362458637,
hardware store,hardware store,Wangbe,"Distrik Wangbe, Kabupaten Puncak, Papua","Kabupaten Puncak, Papua",PAPUA,,Indonesia,,,,-39.572.768,1.373.510.778,https://maps.google.com/?cid=0x0:0xec97f18b447d29d3,
hardware store,hardware store,Papua 98971,"Kabupaten Puncak, Papua","Kabupaten Puncak, Papua",PAPUA,,Indonesia,,,,-37.792.737,1.372.142.417,https://maps.google.com/?cid=0x0:0xd0d09ee74d182011,
hardware store,hardware store,Papua 98971,"Kabupaten Puncak, Papua","Kabupaten Puncak, Papua",PAPUA,,Indonesia,,,,-37.792.737,1.372.142.417,https://maps.google.com/?cid=0x0:0xd0d09ee74d182011,
hardware store,hardware store,Papua 98976,Papua,Papua,PAPUA,,Indonesia,,,,-31.858.094,1.375.275.422,https://maps.google.com/?cid=0x0:0x93d2390dfd2f699,
hardware store,Pemasok Sistem Keamanan,DIAMOND CCTV,"Mall mangga dua square Lt ug blok c no156, RT.11/RW.6, Ancol, Kec. Pademangan, Jkt Utara, Daerah Khusus Ibukota Jakarta 10730","RT.11/RW.6, Ancol, Kec. Pademangan, Jkt Utara",PAPUA,10730.0,Indonesia,082299899868,,,-61.355.843,1.068.310.277,https://maps.google.com/?cid=0x0:0x1d67a8b1f9c72405,
hardware store,Toko Elektronik,i1 CCTV,"Mangga Dua Mall, lt 1 15A, Jl. Arteri Klp. Gading Jl. Mangga Dua Raya No.1, Daerah Khusus Ibukota Jakarta 10730","lt 1 15A, Jl. Arteri Klp. Gading Jl. Mangga Dua Raya No.1",PAPUA,10730.0,Indonesia,085776289880,,,-61.368.658,10.682.362,https://maps.google.com/?cid=0x0:0x8a271b2bd648c4f7,
hardware store,hardware store,Papua 98973,"Kabupaten Puncak, Papua","Kabupaten Puncak, Papua",PAPUA,,Indonesia,,,,-38.173.024,1.378.427.298,https://maps.google.com/?cid=0x0:0x306367a3dc8a22ab,
hardware store,Toko Bahan Bangunan,STORE PALOMA HARDWARE,"Jl. H. R. Rasuna Said, Karet Kuningan, Kecamatan Setiabudi, Kota Jakarta Selatan, Daerah Khusus Ibukota Jakarta 12940","Karet Kuningan, Kecamatan Setiabudi, Kota Jakarta Selatan",PAPUA,12940.0,Indonesia,081382664634,,,-62.197.742,1.068.316.981,https://maps.google.com/?cid=0x0:0x2355bcb8fefef909,
hardware store,Toko Bahan Bangunan,Paloma hardware,"Jl. KH. Hasyim Ashari No.59, RT.004/RW.001, Pinang, Kec. Pinang, Kota Tangerang, Banten 15145","RT.004/RW.001, Pinang, Kec. Pinang, Kota Tangerang",PAPUA,15145.0,Indonesia,085158872309,,,-62.185.585,1.066.876.058,https://maps.google.com/?cid=0x0:0x98aafb850663e530,
hardware store,hardware store,Kec. Sinak,"Kabupaten Puncak, Papua","Kabupaten Puncak, Papua",PAPUA,,Indonesia,,,,-38.109.317,1.378.469.825,https://maps.google.com/?cid=0x0:0x715d84336ea935dd,
hardware store,Toko Bahan Bangunan,Casa Hardware,"575Q+7GR, Mount Hagen Western Highlands Province, Papua Nugini","Mount Hagen, Papua Nugini",PAPUA,,Indonesia,,,,-58.417.722,144.288.756,https://maps.google.com/?cid=0x0:0x5572b0cd99723bb6,
hardware store,Toko Perlengkapan Rumah,Hardware Haus,"46PG+8P9, Highlands Hwy, Mount Hagen Western Highlands Province, Papua Nugini","Mount Hagen, Papua Nugini",PAPUA,,Indonesia,67573880325,,,-58.642.066,1.442.268.657,https://maps.google.com/?cid=0x0:0x76e2d5c7034f0bfa,
hardware store,hardware store,Papua 98972,Papua,Papua,PAPUA,,Indonesia,,,,-3.921.968,1.375.275.422,https://maps.google.com/?cid=0x0:0x765d582b762840f7,
hardware store,Toko Bahan Bangunan,AZKO - Grand Paragon,"No. 126, GF, Jl. Gajah Mada 12, RT.12/RW.8, Keagungan, Kec. Taman Sari, Kota Jakarta Barat, Daerah Khusus Ibukota Jakarta 11130","GF, Jl. Gajah Mada 12, RT.12/RW.8, Keagungan, Kec. Taman Sari, Kota Jakarta Barat",PAPUA,11130.0,Indonesia,085161114376,,,-6.151.833,1.068.161.392,https://maps.google.com/?cid=0x0:0xfffca05e02b2a0a6,
hardware store,Toko,Mandiri Jaya. CV,"Jl. Taman Sari IV No.37 13, RT.13/RW.8, Maphar, Kec. Taman Sari, Kota Jakarta Barat, Daerah Khusus Ibukota Jakarta 11150","RT.13/RW.8, Maphar, Kec. Taman Sari, Kota Jakarta Barat",PAPUA,11150.0,Indonesia,0216291523,,,-61.590.764,1.068.255.239,https://maps.google.com/?cid=0x0:0x3e6bc5b1af950db6,
home improvement,home improvement,Papua 98972,Papua,Papua,PAPUA,,Indonesia,,,,-3.921.968,1.375.275.422,https://maps.google.com/?cid=0x0:0x765d582b762840f7,
home improvement,home improvement,Wangbe,"Distrik Wangbe, Kabupaten Puncak, Papua","Kabupaten Puncak, Papua",PAPUA,,Indonesia,,,,-39.572.768,1.373.510.778,https://maps.google.com/?cid=0x0:0xec97f18b447d29d3,
home improvement,home improvement,Papua 98971,"Kabupaten Puncak, Papua","Kabupaten Puncak, Papua",PAPUA,,Indonesia,,,,-37.792.737,1.372.142.417,https://maps.google.com/?cid=0x0:0xd0d09ee74d182011,
home improvement,home improvement,Papua 98971,"Kabupaten Puncak, Papua","Kabupaten Puncak, Papua",PAPUA,,Indonesia,,,,-37.792.737,1.372.142.417,https://maps.google.com/?cid=0x0:0xd0d09ee74d182011,
home improvement,home improvement,Papua 98976,Papua,Papua,PAPUA,,Indonesia,,,,-31.858.094,1.375.275.422,https://maps.google.com/?cid=0x0:0x93d2390dfd2f699,
home improvement,,FOI Living,"Jl. Panglima Polim No.36 9, RT.9/RW.7, Pulo, Kec. Kby. Baru, Kota Jakarta Selatan, Daerah Khusus Ibukota Jakarta 12160","RT.9/RW.7, Pulo, Kec. Kby. Baru, Kota Jakarta Selatan",PAPUA,12160.0,Indonesia,0217231215,,,-6.250.669,106.797.243,https://maps.google.com/?cid=0x0:0x410953094b468456,
home improvement,Pusat Perbelanjaan,Pondok Indah Mall 1,"Jl. Metro Pondok Indah No.Kav. 4, RT.1/RW.16, Pd. Pinang, Kec. Kby. Lama, Kota Jakarta Selatan, Daerah Khusus Ibukota Jakarta 12310","RT.1/RW.16, Pd. Pinang, Kec. Kby. Lama, Kota Jakarta Selatan",PAPUA,12310.0,Indonesia,0217506750,,,-62.652.166,1.067.843.165,https://maps.google.com/?cid=0x0:0x682837113c4ea854,
home improvement,Toko Bahan Bangunan,Zhuoyang Building Materials,"Tiongkok, Guangdong Province, Foshan, Chancheng District, Jihuasi Rd, ???????2?3? ????: 528042","Guangdong Province, Foshan, Chancheng District, Jihuasi Rd",PAPUA,528042.0,Indonesia,"8,67578E+12",,,23.011.303,11.309.051,https://maps.google.com/?cid=0x0:0x100a029c02c5e678,
home improvement,Pusat Pendidikan,Yayasan Rumah Energi,"Tanjung Barat Indah Jl. Teratai VIII No.2 Blok L, RT.4/RW.2, West Tanjung, Jagakarsa, South Jakarta City, Jakarta 12530","RT.4/RW.2, West Tanjung, Jagakarsa, South Jakarta City",PAPUA,12530.0,Indonesia,0217821086,,,-63.079.122,1.068.490.663,https://maps.google.com/?cid=0x0:0xc1ce94ddd3e72d03,
home improvement,home improvement,Papua 98973,"Kabupaten Puncak, Papua","Kabupaten Puncak, Papua",PAPUA,,Indonesia,,,,-38.173.024,1.378.427.298,https://maps.google.com/?cid=0x0:0x306367a3dc8a22ab,
home improvement,Pasar,Pasar Kota Baru Mulia,"7XPJ+9GJ, Unnamed Road, Pruleme, Distrik Mulia, Kabupaten Puncak Jaya, Papua 98973","Unnamed Road, Pruleme, Distrik Mulia, Kabupaten Puncak Jaya",PAPUA,98973.0,Indonesia,,,,-37.140.354,1.379.812.554,https://maps.google.com/?cid=0x0:0x77ddec4f9d4258f4,
home improvement,Pasar,Pasar Kota Lama,"7XX8+QGF, Wuyukwi, Distrik Mulia, Kabupaten Puncak Jaya, Papua 98973","Wuyukwi, Distrik Mulia, Kabupaten Puncak Jaya",PAPUA,98973.0,Indonesia,082259414404,,,-37.005.544,1.379.663.057,https://maps.google.com/?cid=0x0:0x20cb15b6e00524b0,
home improvement,home improvement,Kec. Sinak,"Kabupaten Puncak, Papua","Kabupaten Puncak, Papua",PAPUA,,Indonesia,,,,-38.109.317,1.378.469.825,https://maps.google.com/?cid=0x0:0x715d84336ea935dd,
home improvement,home improvement,Distrik Agandugume,"Kabupaten Puncak, Papua","Kabupaten Puncak, Papua",PAPUA,,Indonesia,,,,-39.025.963,1.379.185.611,https://maps.google.com/?cid=0x0:0x3409f12ce1149fb1,
home improvement,Kantor Perusahaan,UD. HIKMAH MULTIPLEK - Jual Triplek  Jati Belanda -,"Selomanen, Purwokerto, Kec. Ngadiluwih, Kabupaten Kediri, Jawa Timur 64171","Purwokerto, Kec. Ngadiluwih, Kabupaten Kediri",PAPUA,64171.0,Indonesia,085856057745,,,-79.012.223,1.120.015.526,https://maps.google.com/?cid=0x0:0x87263b40d7a3ce2c,
home improvement,home improvement,Aidil home,"279W+WX5, Malawele, Kec. Aimas, Kabupaten Sorong, Papua Bar.","Kabupaten Sorong, Papua Bar.",PAPUA,,Indonesia,,,,-0.9802425,1.312.974.953,https://maps.google.com/?cid=0x0:0x790991a96def79e9,
home improvement,home improvement,Papua 98972,Papua,Papua,PAPUA,,Indonesia,,,,-3.921.968,1.375.275.422,https://maps.google.com/?cid=0x0:0x765d582b762840f7,
