Category;Real Category;Business Name;Address;City;State;Postal Code;Country;Phone;Email;Website;Latitude;Longitude;Map Link;Details Link
"building materials";"building materials";"Mandobo";"Distrik Kouh, Kabupaten Boven Digoel, Papua";"Kabupaten Boven Digoel, Papua";"PAPUA";"";"Indonesia";"";"";"";"-5.8523321";"140.2862819";"https://maps.google.com/?cid=0x0:0x30ea9430854e3568";""
"building materials";"Toko";"TOKO BANGUNAN SUMBER ANUGERAH";"Persatuan, Kec. Mandobo, Kabupaten Boven Digoel, Papua 99663";"Kec. Mandobo, Kabupaten Boven Digoel";"PAPUA";"99663";"Indonesia";"";"";"";"-6.0903965";"140.3331897";"https://maps.google.com/?cid=0x0:0x9b0d3e5a6263752a";""
"building materials";"Toko";"Toko Abadi";"jalan trans, Persatuan, Kec. Mandobo, Kabupaten Boven Digoel, Papua 99663";"Persatuan, Kec. Mandobo, Kabupaten Boven Digoel";"PAPUA";"99663";"Indonesia";" 082197348947";"";"";"-6.1021675";"140.3183316";"https://maps.google.com/?cid=0x0:0xdee33d09caab54d2";""
"building materials";"Pemasok Bahan Bangunan";"UD Simpel";"W828+C4W, Jl. Arimop, Persatuan, Kec. Mandobo, Kabupaten Boven Digoel, Papua 99663";"Jl. Arimop, Persatuan, Kec. Mandobo, Kabupaten Boven Digoel";"PAPUA";"99663";"Indonesia";" 081357498001";"";"";"-6.098877";"140.3153312";"https://maps.google.com/?cid=0x0:0xd945cc71fee0731f";""
"building materials";"Pom bensin/SPBU";"spbu";"4MG6+X8R, Mindiptana - Tanah Merah, Tinggam, Kec. Mindiptana, Kabupaten Boven Digoel, Papua 99662";"Mindiptana - Tanah Merah, Tinggam, Kec. Mindiptana, Kabupaten Boven Digoel";"PAPUA";"99662";"Indonesia";"";"";"";"-5.8725249";"140.6607572";"https://maps.google.com/?cid=0x0:0x2e5c913f5ff5106";""
"building materials";"building materials";"Sanjaya Abadi";"4MVV+5XG, Osso, Kec. Mindiptana, Kabupaten Boven Digoel, Papua";"Kabupaten Boven Digoel, Papua";"PAPUA";"";"Indonesia";"";"";"";"-5.857056";"140.6949438";"https://maps.google.com/?cid=0x0:0x32f10331b3a61a9d";""
"building materials";"building materials";"Kec. Mindiptana";"Kabupaten Boven Digoel, Papua";"Kabupaten Boven Digoel, Papua";"PAPUA";"";"Indonesia";"";"";"";"-5.8729212";"140.7006239";"https://maps.google.com/?cid=0x0:0x63d3989597ea91fc";""
"building materials";"building materials";"Waropen";"QC54+M74, Nonomi, Kec. Waropen Bawah, Kabupaten Waropen, Papua 98261";"Nonomi, Kec. Waropen Bawah, Kabupaten Waropen";"PAPUA";"98261";"Indonesia";"";"";"";"-2.2408669";"136.4057026";"https://maps.google.com/?cid=0x0:0x939ec7ca3f88c5d2";""
"building materials";"Toko";"TOKO BANGUNAN SUMBER ANUGERAH";"Persatuan, Kec. Mandobo, Kabupaten Boven Digoel, Papua 99663";"Kec. Mandobo, Kabupaten Boven Digoel";"PAPUA";"99663";"Indonesia";"";"";"";"-6.0903965";"140.3331897";"https://maps.google.com/?cid=0x0:0x9b0d3e5a6263752a";""
"building materials";"Toko Bahan Bangunan";"PT. Golden Roof Polymer";"Jl. Raya Serang No.KM. 27, Sentul Jaya, Kec. Balaraja, Kabupaten Tangerang, Banten 15610";"Sentul Jaya, Kec. Balaraja, Kabupaten Tangerang";"PAPUA";"15610";"Indonesia";" 02159574777";"";"";"-6.2174573";"106.4415014";"https://maps.google.com/?cid=0x0:0xe6d4cb8b4b6c1e19";""
"building materials";"Toko";"Toko Abadi";"jalan trans, Persatuan, Kec. Mandobo, Kabupaten Boven Digoel, Papua 99663";"Persatuan, Kec. Mandobo, Kabupaten Boven Digoel";"PAPUA";"99663";"Indonesia";" 082197348947";"";"";"-6.1021675";"140.3183316";"https://maps.google.com/?cid=0x0:0xdee33d09caab54d2";""
"building materials";"Toko Bahan Bangunan";"Toko Resky";"jalan poros, Kemon Jaya Sp V, Kec. Waropen Bawah, Kabupaten Waropen, Papua 98261";"Kemon Jaya Sp V, Kec. Waropen Bawah, Kabupaten Waropen";"PAPUA";"98261";"Indonesia";" 085394955553";"";"";"-2.2185432";"136.4200064";"https://maps.google.com/?cid=0x0:0x356450f535852163";""
"building materials";"Toko Bahan Bangunan";"Papua Bangunan, CV PAPUA ABADI";"Jl. Basuki Rahmat No.780, Klawuyuk, Distrik Sorong Timur, Kota Sorong, Papua Bar. 98416";"Klawuyuk, Distrik Sorong Timur, Kota Sorong";"PAPUA";"98416";"Indonesia";" 081332017550";"";"";"-0.8954087";"131.3186922";"https://maps.google.com/?cid=0x0:0x851804bc3aa7f033";""
"building materials";"";"Kios Arto morro";"QC88+85J, Nonomi, Kec. Waropen Bawah, Kabupaten Waropen, Papua 98261";"Nonomi, Kec. Waropen Bawah, Kabupaten Waropen";"PAPUA";"98261";"Indonesia";"";"";"";"-2.235162";"136.414555";"https://maps.google.com/?cid=0x0:0xdd4f3031149c4404";""
"building materials";"building materials";"Waropko";"Kabupaten Boven Digoel, Papua";"Kabupaten Boven Digoel, Papua";"PAPUA";"";"Indonesia";"";"";"";"-5.4810101";"140.8872648";"https://maps.google.com/?cid=0x0:0xae26c3d96468ea8c";""
"building materials";"building materials";"Sanjaya Abadi";"4MVV+5XG, Osso, Kec. Mindiptana, Kabupaten Boven Digoel, Papua";"Kabupaten Boven Digoel, Papua";"PAPUA";"";"Indonesia";"";"";"";"-5.857056";"140.6949438";"https://maps.google.com/?cid=0x0:0x32f10331b3a61a9d";""
"building materials";"Toko";"TOKO BANGUNAN SUMBER ANUGERAH";"Persatuan, Kec. Mandobo, Kabupaten Boven Digoel, Papua 99663";"Kec. Mandobo, Kabupaten Boven Digoel";"PAPUA";"99663";"Indonesia";"";"";"";"-6.0903965";"140.3331897";"https://maps.google.com/?cid=0x0:0x9b0d3e5a6263752a";""
"building materials";"Toko Bahan Bangunan";"UD. Anugerah Abadi";"V8W8+526, Persatuan, Kec. Mandobo, Kabupaten Boven Digoel, Papua";"Kabupaten Boven Digoel, Papua";"PAPUA";"";"Indonesia";"";"";"";"-6.1045815";"140.3150258";"https://maps.google.com/?cid=0x0:0xeeca0aee368caf42";""
"building materials";"Toko Bahan Bangunan";"Papua Bangunan, CV PAPUA ABADI";"Jl. Basuki Rahmat No.780, Klawuyuk, Distrik Sorong Timur, Kota Sorong, Papua Bar. 98416";"Klawuyuk, Distrik Sorong Timur, Kota Sorong";"PAPUA";"98416";"Indonesia";" 081332017550";"";"";"-0.8954087";"131.3186922";"https://maps.google.com/?cid=0x0:0x851804bc3aa7f033";""
"building materials";"Toko";"TOKO BANGUNAN SUMBER ANUGERAH";"Persatuan, Kec. Mandobo, Kabupaten Boven Digoel, Papua 99663";"Kec. Mandobo, Kabupaten Boven Digoel";"PAPUA";"99663";"Indonesia";"";"";"";"-6.0903965";"140.3331897";"https://maps.google.com/?cid=0x0:0x9b0d3e5a6263752a";""
"building materials";"Toko";"Toko Dua Sahabat/Jotun";"Jln. Trans Papua kilo 2, Kabupaten Boven Digoel";"Kabupaten Boven Digoel, Papua";"PAPUA";"";"Indonesia";"";"";"";"-6.0959217";"140.3245587";"https://maps.google.com/?cid=0x0:0xe788284fb59d6345";""
"building materials";"Produsen";"INOAC";"Jl. Agarindo No.Km.6, Sukamantri, Kec. Ps. Kemis, Kabupaten Tangerang, Banten 15560";"Sukamantri, Kec. Ps. Kemis, Kabupaten Tangerang";"PAPUA";"15560";"Indonesia";" 0215909911";"";"";"-6.1746588";"106.5491476";"https://maps.google.com/?cid=0x0:0x7d60be12708aec09";""
"building materials";"Toko Bahan Bangunan";"Papua Bangunan, CV PAPUA ABADI";"Jl. Basuki Rahmat No.780, Klawuyuk, Distrik Sorong Timur, Kota Sorong, Papua Bar. 98416";"Klawuyuk, Distrik Sorong Timur, Kota Sorong";"PAPUA";"98416";"Indonesia";" 081332017550";"";"";"-0.8954087";"131.3186922";"https://maps.google.com/?cid=0x0:0x851804bc3aa7f033";""
"building materials";"Toko Bahan Bangunan";"UD. Anugerah Abadi";"V8W8+526, Persatuan, Kec. Mandobo, Kabupaten Boven Digoel, Papua";"Kabupaten Boven Digoel, Papua";"PAPUA";"";"Indonesia";"";"";"";"-6.1045815";"140.3150258";"https://maps.google.com/?cid=0x0:0xeeca0aee368caf42";""
"building materials";"building materials";"Papua 99665";"Kabupaten Boven Digoel, Papua";"Kabupaten Boven Digoel, Papua";"PAPUA";"";"Indonesia";"";"";"";"-5.3993592";"140.265662";"https://maps.google.com/?cid=0x0:0x130a65ebf9121fb9";""
"building materials";"Toko";"TOKO BANGUNAN SUMBER ANUGERAH";"Persatuan, Kec. Mandobo, Kabupaten Boven Digoel, Papua 99663";"Kec. Mandobo, Kabupaten Boven Digoel";"PAPUA";"99663";"Indonesia";"";"";"";"-6.0903965";"140.3331897";"https://maps.google.com/?cid=0x0:0x9b0d3e5a6263752a";""
"building materials";"Toko";"Toko Dua Sahabat/Jotun";"Jln. Trans Papua kilo 2, Kabupaten Boven Digoel";"Kabupaten Boven Digoel, Papua";"PAPUA";"";"Indonesia";"";"";"";"-6.0959217";"140.3245587";"https://maps.google.com/?cid=0x0:0xe788284fb59d6345";""
"building materials";"Pemasok Bahan Bangunan";"UD Simpel";"W828+C4W, Jl. Arimop, Persatuan, Kec. Mandobo, Kabupaten Boven Digoel, Papua 99663";"Jl. Arimop, Persatuan, Kec. Mandobo, Kabupaten Boven Digoel";"PAPUA";"99663";"Indonesia";" 081357498001";"";"";"-6.098877";"140.3153312";"https://maps.google.com/?cid=0x0:0xd945cc71fee0731f";""
"building materials";"building materials";"UD CENDARAWASIH";"8CQ6+5G4, Asiki, Kec. Jair, Kabupaten Boven Digoel, Papua 99661";"Asiki, Kec. Jair, Kabupaten Boven Digoel";"PAPUA";"99661";"Indonesia";"";"";"";"-6.662109";"140.4113198";"https://maps.google.com/?cid=0x0:0x320c3a2af8ff84af";""
"building materials";"Toko Bahan Bangunan";"Papua Bangunan, CV PAPUA ABADI";"Jl. Basuki Rahmat No.780, Klawuyuk, Distrik Sorong Timur, Kota Sorong, Papua Bar. 98416";"Klawuyuk, Distrik Sorong Timur, Kota Sorong";"PAPUA";"98416";"Indonesia";" 081332017550";"";"";"-0.8954087";"131.3186922";"https://maps.google.com/?cid=0x0:0x851804bc3aa7f033";""
"building materials";"Toko Bahan Bangunan";"Toko Bangunan Abadi";"4862+H2G, Malaingkedi, Kec. Sorong Utara, Kota Sorong, Papua Bar. 98412";"Malaingkedi, Kec. Sorong Utara, Kota Sorong";"PAPUA";"98412";"Indonesia";" 081248762864";"";"";"-0.8885625";"131.3000781";"https://maps.google.com/?cid=0x0:0xa4c5e3d6e0f0bf2b";""
"building materials";"Pasar bahan bangunan";"Agen Batu kumbung";"Bogor, RT.03/RW.10, Bogor, Bektiharjo, Kec. Semanding, Kabupaten Tuban, Jawa Timur 62381";"RT.03/RW.10, Bogor, Bektiharjo, Kec. Semanding, Kabupaten Tuban";"PAPUA";"62381";"Indonesia";" 081231779276";"";"";"-6.9709082";"112.0347745";"https://maps.google.com/?cid=0x0:0x886dfc56d712a36d";""
"building materials";"Sekolah pendidikan umum";"SD YPPK Kombut";"5W2J+W8, Kombut, Kabupaten Boven Digoel, Papua";"Kabupaten Boven Digoel, Papua";"PAPUA";"";"Indonesia";"";"";"";"-5.8476701";"140.9307953";"https://maps.google.com/?cid=0x0:0xc42284c0221beb37";""
"building materials";"Sekolah Dasar";"SD YPPK St Yohanes Kombut";"5RQ3+GJ2, Amuan, Kombut, Kabupaten Boven Digoel, Papua 99664";"Amuan, Kombut, Kabupaten Boven Digoel";"PAPUA";"99664";"Indonesia";"";"";"";"-5.8112312";"140.8040274";"https://maps.google.com/?cid=0x0:0x578b95dfa76de1dd";""
"building materials";"building materials";"Kantor Distrik Kombut";"5W2J+3M9, Kombut, Kabupaten Boven Digoel, Papua 99662";"Kombut, Kabupaten Boven Digoel";"PAPUA";"99662";"Indonesia";"";"";"";"-5.8498347";"140.9317485";"https://maps.google.com/?cid=0x0:0x69bd8b4d5d4b6492";""
"building materials";"building materials";"Sanjaya Abadi";"4MVV+5XG, Osso, Kec. Mindiptana, Kabupaten Boven Digoel, Papua";"Kabupaten Boven Digoel, Papua";"PAPUA";"";"Indonesia";"";"";"";"-5.857056";"140.6949438";"https://maps.google.com/?cid=0x0:0x32f10331b3a61a9d";""
"building materials";"Pemasok Peralatan Industri";"COMODA IND. HARDWARE";"9P7V+V96, COMODA BLDG. TBOLI, ROAD, Surallah, South Cotabato, Filipina";"Surallah, South Cotabato, Filipina";"PAPUA";"";"Indonesia";" +639219194598";"";"";"6.365042";"124.7437937";"https://maps.google.com/?cid=0x0:0x6260709783d094b2";""
"building materials";"building materials";"UD CENDARAWASIH";"8CQ6+5G4, Asiki, Kec. Jair, Kabupaten Boven Digoel, Papua 99661";"Asiki, Kec. Jair, Kabupaten Boven Digoel";"PAPUA";"99661";"Indonesia";"";"";"";"-6.662109";"140.4113198";"https://maps.google.com/?cid=0x0:0x320c3a2af8ff84af";""
"building materials";"building materials";"Arimop";"Kabupaten Boven Digoel, Papua";"Kabupaten Boven Digoel, Papua";"PAPUA";"";"Indonesia";"";"";"";"-5.8140209";"140.4308159";"https://maps.google.com/?cid=0x0:0xf6e05b87dda2034d";""
"building materials";"Pemasok Bahan Bangunan";"UD Simpel";"W828+C4W, Jl. Arimop, Persatuan, Kec. Mandobo, Kabupaten Boven Digoel, Papua 99663";"Jl. Arimop, Persatuan, Kec. Mandobo, Kabupaten Boven Digoel";"PAPUA";"99663";"Indonesia";" 081357498001";"";"";"-6.098877";"140.3153312";"https://maps.google.com/?cid=0x0:0xd945cc71fee0731f";""
"building materials";"Toko";"Toko Abadi";"jalan trans, Persatuan, Kec. Mandobo, Kabupaten Boven Digoel, Papua 99663";"Persatuan, Kec. Mandobo, Kabupaten Boven Digoel";"PAPUA";"99663";"Indonesia";" 082197348947";"";"";"-6.1021675";"140.3183316";"https://maps.google.com/?cid=0x0:0xdee33d09caab54d2";""
"building materials";"building materials";"Gipsum arema";"W88V+R5Q, Persatuan, Kec. Mandobo, Kabupaten Boven Digoel, Papua 99663";"Persatuan, Kec. Mandobo, Kabupaten Boven Digoel";"PAPUA";"99663";"Indonesia";"";"";"";"-6.0829207";"140.3429989";"https://maps.google.com/?cid=0x0:0xa586fa4a10e5e034";""
"building materials";"building materials";"Arema gipsumornamen";"W88Q+C6G, Persatuan, Kec. Mandobo, Kabupaten Boven Digoel, Papua 99663";"Persatuan, Kec. Mandobo, Kabupaten Boven Digoel";"PAPUA";"99663";"Indonesia";"";"";"";"-6.0839458";"140.3380895";"https://maps.google.com/?cid=0x0:0x13cc05d77f2042a2";""
"building materials";"building materials";"Distrik Fofi";"Kabupaten Boven Digoel, Papua";"Kabupaten Boven Digoel, Papua";"PAPUA";"";"Indonesia";"";"";"";"-6.2111813";"139.855567";"https://maps.google.com/?cid=0x0:0xed105c6777af2f3e";""
"building materials";"Toko Bahan Bangunan";"Depo Bangunan Mbanyu Mili";"3VQM+2GP depan balai kampung sp 2, Prafi Mulia, Distrik Prafi, Kabupaten Manokwari, Papua Bar. 98356";"Prafi Mulia, Distrik Prafi, Kabupaten Manokwari";"PAPUA";"98356";"Indonesia";" 085254126242";"";"";"-0.9124191";"133.8838245";"https://maps.google.com/?cid=0x0:0x72bb281db456c91a";""
"building materials";"Toko Bahan Bangunan";"Tiptore Building Material";"Jl. Poros Kuda Mati, Klp. Lima, Kec. Merauke, Kabupaten Merauke, Papua 99616";"Klp. Lima, Kec. Merauke, Kabupaten Merauke";"PAPUA";"99616";"Indonesia";" 082293657714";"";"";"-8.5061763";"140.4257632";"https://maps.google.com/?cid=0x0:0xbf132c61e5517b30";""
"building materials";"Toko Bahan Bangunan";"Horukie Toko Bangunan";"R38J+883 Wa Toko ΘႨႨ-89Θ3-Θ541 kami, Fandoi, Kec. Biak Kota, Kabupaten Biak Numfor, Papua 98111";"Fandoi, Kec. Biak Kota, Kabupaten Biak Numfor";"PAPUA";"98111";"Indonesia";" 081344944374";"";"";"-1.1842375";"136.0807969";"https://maps.google.com/?cid=0x0:0x9ef95c0249a63970";""
"building materials";"Toko Bahan Bangunan";"toko bangunan Yep'Mum";"4Q38+6C4, Jl. Garuda, Arso Kota, Kec. Arso, Kabupaten Keerom, Papua 99468";"Jl. Garuda, Arso Kota, Kec. Arso, Kabupaten Keerom";"PAPUA";"99468";"Indonesia";" 085244664394";"";"";"-2.8970308";"140.7661616";"https://maps.google.com/?cid=0x0:0x9649c22840d7e67e";""
"building materials";"Toko Perlengkapan Rumah";"kios mitra(bangunan, dll)";"4PHV+QV9, Asiaman, Kec. Arso, Kabupaten Keerom, Papua 99468";"Asiaman, Kec. Arso, Kabupaten Keerom";"PAPUA";"99468";"Indonesia";"";"";"";"-2.8705527";"140.7453638";"https://maps.google.com/?cid=0x0:0x9d79fbc97104de15";""
"building materials";"Perusahaan Konstruksi";"GRAHA AXIA/PT AXIA TEKINDO SEMESTA (Distributor  Aplikator Kimia Konstruksi SIKA, BASF, MBS, FOSROC)";"Ruko Niaga Kalimas 2, Jl. Inspeksi Kalimalang No.11 Blok A, Setiadarma, Kec. Tambun Sel., Kabupaten Bekasi, Jawa Barat 17510";"Jl. Inspeksi Kalimalang No.11 Blok A, Setiadarma, Kec. Tambun Sel., Kabupaten Bekasi";"PAPUA";"17510";"Indonesia";" 085172129936";"";"";"-6.273558";"107.053273";"https://maps.google.com/?cid=0x0:0xca329c3c9f58fc04";""
"building materials";"Toko Bahan Bangunan";"PT. Kirana Purnama";"Tambun City, Jl. Sultan Hasanudin No.1 Blok E no, Tambun, Tambun Selatan, West Java 17510";"Jl. Sultan Hasanudin No.1 Blok E no, Tambun, Tambun Selatan";"PAPUA";"17510";"Indonesia";" 02189510031";"";"";"-6.2643466";"107.0725891";"https://maps.google.com/?cid=0x0:0xc6f6822b3dbe95b";""
"building materials";"building materials";"Papua 99664";"Kabupaten Boven Digoel, Papua";"Kabupaten Boven Digoel, Papua";"PAPUA";"";"Indonesia";"";"";"";"-5.5720214";"140.7624493";"https://maps.google.com/?cid=0x0:0x4763b936197cab93";""
"building materials";"Toko";"Jaya Bangun Utama";"6GH9+VPV, Unnamed Road, Iriati, Distrik Wasior, Kabupaten Teluk Wondama, Papua Bar. 98362";"Unnamed Road, Iriati, Distrik Wasior, Kabupaten Teluk Wondama";"PAPUA";"98362";"Indonesia";" 085298357980";"";"";"-2.7702528";"134.5193086";"https://maps.google.com/?cid=0x0:0x7b7706dc36edb6d8";""
"building materials";"Toko Bahan Bangunan";"Papua Bangunan, CV PAPUA ABADI";"Jl. Basuki Rahmat No.780, Klawuyuk, Distrik Sorong Timur, Kota Sorong, Papua Bar. 98416";"Klawuyuk, Distrik Sorong Timur, Kota Sorong";"PAPUA";"98416";"Indonesia";" 081332017550";"";"";"-0.8954087";"131.3186922";"https://maps.google.com/?cid=0x0:0x851804bc3aa7f033";""
"building materials";"Kontraktor Penebangan Kayu";"TOKO CAHAYA BONE AGATS";"Jl. Dermaga Baru, Bis Agats, Distrik Agats, Kabupaten Asmat, Papua 99777";"Bis Agats, Distrik Agats, Kabupaten Asmat";"PAPUA";"99777";"Indonesia";"";"";"";"-5.5261749";"138.139991";"https://maps.google.com/?cid=0x0:0xdcf195d2090d9d79";""
"building materials";"Toko Perlengkapan Rumah";"ACP SEVEN  MARKS JAYAPURA";"Jl. Argapura No.88 F - G, Argapura, Distrik Jayapura Selatan, Kota Jayapura, Papua";"Kota Jayapura, Papua";"PAPUA";"";"Indonesia";" 081233620177";"";"";"-2.5508521";"140.7136131";"https://maps.google.com/?cid=0x0:0xe8d92f3148489944";""
"building materials";"Kantor Perusahaan";"PT. BUMI PAPUA SEVENINDO";"Jl. Mesjid Raya, Remu Utara, HBM, Kota Sorong, Papua Bar. 98416";"Remu Utara, HBM, Kota Sorong";"PAPUA";"98416";"Indonesia";" 082198126653";"";"";"-0.8807928";"131.2828486";"https://maps.google.com/?cid=0x0:0xbe773b0ac3ca8612";""
"building materials";"building materials";"ICA MERBAU";"Nembukrang, Distrik Nimbokrang, Kabupaten Jayapura, Papua 99352";"Distrik Nimbokrang, Kabupaten Jayapura";"PAPUA";"99352";"Indonesia";" 082197995447";"";"";"-2.558343";"140.1301628";"https://maps.google.com/?cid=0x0:0x76b2890b18d08a9d";""
"building materials";"Toko Bahan Bangunan";"Toko AKBAR bangunan";"2W63+2XM, Dawaikunu, Distrik Mapia, Kabupaten Dogiyai, Papua";"Kabupaten Dogiyai, Papua";"PAPUA";"";"Indonesia";" 08161999912";"";"";"-3.989908";"135.904907";"https://maps.google.com/?cid=0x0:0x54762d941a6ba240";""
"building materials";"Kelompok Bermain";"TK ,Bintang utama";"F46Q+8XH, Jl. Swamenas, Bis Agats, Distrik Agats, Kabupaten Asmat, Papua 99777";"Jl. Swamenas, Bis Agats, Distrik Agats, Kabupaten Asmat";"PAPUA";"99777";"Indonesia";"";"";"";"-5.5391783";"138.1399947";"https://maps.google.com/?cid=0x0:0x24b430743693ceab";""
"building materials";"building materials";"Ambatkwi";"Kabupaten Boven Digoel, Papua";"Kabupaten Boven Digoel, Papua";"PAPUA";"";"Indonesia";"";"";"";"-5.3948021";"140.6378804";"https://maps.google.com/?cid=0x0:0x3a215afc7936b662";""
"building materials";"Toko Bahan Bangunan";"Toko Bangunan Abadi";"4862+H2G, Malaingkedi, Kec. Sorong Utara, Kota Sorong, Papua Bar. 98412";"Malaingkedi, Kec. Sorong Utara, Kota Sorong";"PAPUA";"98412";"Indonesia";" 081248762864";"";"";"-0.8885625";"131.3000781";"https://maps.google.com/?cid=0x0:0xa4c5e3d6e0f0bf2b";""
"building materials";"building materials";"Manggelum";"Distrik Manggelum, Kabupaten Boven Digoel, Papua";"Kabupaten Boven Digoel, Papua";"PAPUA";"";"Indonesia";"";"";"";"-5.3697435";"140.4204808";"https://maps.google.com/?cid=0x0:0xa227866e6b216e";""
"building materials";"Toko";"TOKO BANGUNAN SUMBER ANUGERAH";"Persatuan, Kec. Mandobo, Kabupaten Boven Digoel, Papua 99663";"Kec. Mandobo, Kabupaten Boven Digoel";"PAPUA";"99663";"Indonesia";"";"";"";"-6.0903965";"140.3331897";"https://maps.google.com/?cid=0x0:0x9b0d3e5a6263752a";""
"building materials";"Pemasok Bahan Bangunan";"UD Simpel";"W828+C4W, Jl. Arimop, Persatuan, Kec. Mandobo, Kabupaten Boven Digoel, Papua 99663";"Jl. Arimop, Persatuan, Kec. Mandobo, Kabupaten Boven Digoel";"PAPUA";"99663";"Indonesia";" 081357498001";"";"";"-6.098877";"140.3153312";"https://maps.google.com/?cid=0x0:0xd945cc71fee0731f";""
"building materials";"building materials";"Firiwage";"Firiwage, Kabupaten Boven Digoel, Papua";"Kabupaten Boven Digoel, Papua";"PAPUA";"";"Indonesia";"";"";"";"-5.520689";"140.115204";"https://maps.google.com/?cid=0x0:0x19410c614180567f";""
"building materials";"Toko";"Toko Abadi";"jalan trans, Persatuan, Kec. Mandobo, Kabupaten Boven Digoel, Papua 99663";"Persatuan, Kec. Mandobo, Kabupaten Boven Digoel";"PAPUA";"99663";"Indonesia";" 082197348947";"";"";"-6.1021675";"140.3183316";"https://maps.google.com/?cid=0x0:0xdee33d09caab54d2";""
"building materials";"building materials";"UD CENDARAWASIH";"8CQ6+5G4, Asiki, Kec. Jair, Kabupaten Boven Digoel, Papua 99661";"Asiki, Kec. Jair, Kabupaten Boven Digoel";"PAPUA";"99661";"Indonesia";"";"";"";"-6.662109";"140.4113198";"https://maps.google.com/?cid=0x0:0x320c3a2af8ff84af";""
"building materials";"building materials";"Papua 99664";"Kabupaten Boven Digoel, Papua";"Kabupaten Boven Digoel, Papua";"PAPUA";"";"Indonesia";"";"";"";"-5.5720214";"140.7624493";"https://maps.google.com/?cid=0x0:0x4763b936197cab93";""
"building materials";"Toko";"Jaya Bangun Utama";"6GH9+VPV, Unnamed Road, Iriati, Distrik Wasior, Kabupaten Teluk Wondama, Papua Bar. 98362";"Unnamed Road, Iriati, Distrik Wasior, Kabupaten Teluk Wondama";"PAPUA";"98362";"Indonesia";" 085298357980";"";"";"-2.7702528";"134.5193086";"https://maps.google.com/?cid=0x0:0x7b7706dc36edb6d8";""
"building materials";"Toko Bahan Bangunan";"Papua Bangunan, CV PAPUA ABADI";"Jl. Basuki Rahmat No.780, Klawuyuk, Distrik Sorong Timur, Kota Sorong, Papua Bar. 98416";"Klawuyuk, Distrik Sorong Timur, Kota Sorong";"PAPUA";"98416";"Indonesia";" 081332017550";"";"";"-0.8954087";"131.3186922";"https://maps.google.com/?cid=0x0:0x851804bc3aa7f033";""
"building materials";"Toko Bahan Bangunan";"toko bangunan Yep'Mum";"4Q38+6C4, Jl. Garuda, Arso Kota, Kec. Arso, Kabupaten Keerom, Papua 99468";"Jl. Garuda, Arso Kota, Kec. Arso, Kabupaten Keerom";"PAPUA";"99468";"Indonesia";" 085244664394";"";"";"-2.8970308";"140.7661616";"https://maps.google.com/?cid=0x0:0x9649c22840d7e67e";""
"building materials";"Toko";"PT. UNGGUL JAYA TIMBER";"PERUMAHAN ARAFAH RESIDENCE Blok B No.21, RT.001/RW.009, Srimahi, Kec. Tambun Utara, Kabupaten Bekasi, Jawa Barat 17510";"RT.001/RW.009, Srimahi, Kec. Tambun Utara, Kabupaten Bekasi";"PAPUA";"17510";"Indonesia";" 085780000302";"";"";"-6.1754973";"107.0886316";"https://maps.google.com/?cid=0x0:0x48c9a73a2cfed63f";""
"building materials";"Jendela Aluminium";"Unggul Jaya Aluminium";"Wanajaya, Kec. Cibitung, Kabupaten Bekasi, Jawa Barat 17520";"Kec. Cibitung, Kabupaten Bekasi";"PAPUA";"17520";"Indonesia";" 085810298885";"";"";"-6.2523535";"107.1010711";"https://maps.google.com/?cid=0x0:0xf91dc57120a202ef";""
"building materials";"building materials";"Papua 99661";"Kabupaten Boven Digoel, Papua";"Kabupaten Boven Digoel, Papua";"PAPUA";"";"Indonesia";"";"";"";"-6.6725506";"140.1832516";"https://maps.google.com/?cid=0x0:0x6942b94e71194057";""
"building materials";"Toko Bahan Bangunan";"Papua Bangunan, CV PAPUA ABADI";"Jl. Basuki Rahmat No.780, Klawuyuk, Distrik Sorong Timur, Kota Sorong, Papua Bar. 98416";"Klawuyuk, Distrik Sorong Timur, Kota Sorong";"PAPUA";"98416";"Indonesia";" 081332017550";"";"";"-0.8954087";"131.3186922";"https://maps.google.com/?cid=0x0:0x851804bc3aa7f033";""
"building materials";"Toko Bahan Bangunan";"TOKO BERKARYA SUBANDI";"GR8X+G53, Karang Senang, Kec. Kuala Kencana, Kabupaten Mimika, Papua 99910";"Karang Senang, Kec. Kuala Kencana, Kabupaten Mimika";"PAPUA";"99910";"Indonesia";"";"";"";"-4.483544";"136.8479149";"https://maps.google.com/?cid=0x0:0x3da889efaf7de0f3";""
"building materials";"Toko Bahan Bangunan";"Toko Sentra Bangunan";"Jl. Garuda No.7, Yuwanain, Arso II, Kabupaten Keerom, Papua 99468";"Yuwanain, Arso II, Kabupaten Keerom";"PAPUA";"99468";"Indonesia";" 081240505719";"";"";"-2.9027275";"140.7524692";"https://maps.google.com/?cid=0x0:0x5a7a0ae632131e91";""
"building materials";"Toko Bahan Bangunan";"CV. XA TRIO JAYA";"Jl. Cendrawasih Sp2, Simpang Lima, Kec. Mimika Baru, Kabupaten Mimika, Papua";"Kabupaten Mimika, Papua";"PAPUA";"";"Indonesia";" 085244282610";"";"";"-4.5154756";"136.8496527";"https://maps.google.com/?cid=0x0:0x49e9d0a78fcf7509";""
"building materials";"Toko Bahan Bangunan";"Tiptore Building Material";"Jl. Poros Kuda Mati, Klp. Lima, Kec. Merauke, Kabupaten Merauke, Papua 99616";"Klp. Lima, Kec. Merauke, Kabupaten Merauke";"PAPUA";"99616";"Indonesia";" 082293657714";"";"";"-8.5061763";"140.4257632";"https://maps.google.com/?cid=0x0:0xbf132c61e5517b30";""
"building materials";"Toko Bahan Bangunan";"Toko sumb";"CPJ2+VJC, Jl. Klp. 2, Entrop, Distrik Jayapura Selatan, Kota Jayapura, Papua 99221";"Jl. Klp. 2, Entrop, Distrik Jayapura Selatan, Kota Jayapura";"PAPUA";"99221";"Indonesia";"";"";"";"-2.567811";"140.70152";"https://maps.google.com/?cid=0x0:0x463895ac1b4018f4";""
"building materials";"building materials";"Subur";"Subur, Kabupaten Boven Digoel, Papua";"Kabupaten Boven Digoel, Papua";"PAPUA";"";"Indonesia";"";"";"";"-6.9242223";"140.3069088";"https://maps.google.com/?cid=0x0:0x85aa77b9f73f429b";""
"building materials";"Toko Bahan Bangunan";"TB. Subur";"Jl. Kemandoran I No.72, RT.1/RW.4, Grogol Utara, Kec. Kby. Lama, Kota Jakarta Selatan, Daerah Khusus Ibukota Jakarta 12210";"RT.1/RW.4, Grogol Utara, Kec. Kby. Lama, Kota Jakarta Selatan";"PAPUA";"12210";"Indonesia";" 0215482939";"";"";"-6.2106586";"106.7897946";"https://maps.google.com/?cid=0x0:0x73a7aff908983637";""
"building materials";"Toko Bahan Bangunan";"Tb. Subur Tomang";"Jl. Mandala Utara No.23, RT.16/RW.4, Tomang, Kec. Grogol petamburan, Kota Jakarta Barat, Daerah Khusus Ibukota Jakarta 11440";"RT.16/RW.4, Tomang, Kec. Grogol petamburan, Kota Jakarta Barat";"PAPUA";"11440";"Indonesia";" 0215684001";"";"";"-6.1722424";"106.7983104";"https://maps.google.com/?cid=0x0:0xfc308b94f14ed04d";""
"building materials";"Toko Bahan Bangunan";"TB SUBUR";"Jl. Raya Klp. Dua No.28 D, Klp. Dua, Kec. Kb. Jeruk, Kota Jakarta Barat, Daerah Khusus Ibukota Jakarta 11550";"Klp. Dua, Kec. Kb. Jeruk, Kota Jakarta Barat";"PAPUA";"11550";"Indonesia";"";"";"";"-6.212656";"106.769155";"https://maps.google.com/?cid=0x0:0xc058ee52496e9427";""
"building materials";"Toko Bahan Bangunan";"Toko Subur Jaya";"Jl. Danau Sunter Utara No.10-11 Blok G3, Sunter Agung, Tanjung Priok, North Jakarta City, Jakarta 14350";"Sunter Agung, Tanjung Priok, North Jakarta City";"PAPUA";"14350";"Indonesia";" 081808090335";"";"";"-6.1382031";"106.8689354";"https://maps.google.com/?cid=0x0:0x4631f8f9504b7608";""
"building materials";"Toko Bahan Bangunan";"Subur Jaya Toko Material";"Gg. Semad Jl. Meruya Selatan No.36 9, RT.9/RW.4, Meruya Sel., Kec. Kembangan, Kota Jakarta Barat, Daerah Khusus Ibukota Jakarta 11610";"RT.9/RW.4, Meruya Sel., Kec. Kembangan, Kota Jakarta Barat";"PAPUA";"11610";"Indonesia";"";"";"";"-6.2070629";"106.7380222";"https://maps.google.com/?cid=0x0:0xad69a3a80218eada";""
"building materials";"Toko Bahan Bangunan";"TB. Subur Makmur";"Jl. Raya Ciapus No.54, Kota Batu, Kec. Ciomas, Kota Bogor, Jawa Barat 16610";"Kota Batu, Kec. Ciomas, Kota Bogor";"PAPUA";"16610";"Indonesia";" 085901741135";"";"";"-6.6225371";"106.7816194";"https://maps.google.com/?cid=0x0:0xd07de6f53895c75a";""
"building materials";"Toko Bahan Bangunan";"PB. Subur";"Jl. Raya Ciherang No.11, RT.04/RW.04, Loceng, Margajaya, Kec. Bogor Bar., Kota Bogor, Jawa Barat 16680";"RT.04/RW.04, Loceng, Margajaya, Kec. Bogor Bar., Kota Bogor";"PAPUA";"16680";"Indonesia";" 087874855215";"";"";"-6.5755518";"106.7426921";"https://maps.google.com/?cid=0x0:0xa6af77ddb023b772";""
"building materials";"Toko";"Subur";"Gg. Panca Warga 20 No.8 14, RT.14/RW.3, Cipinang Besar Sel., Kecamatan Jatinegara, Kota Jakarta Timur, Daerah Khusus Ibukota Jakarta 13410";"RT.14/RW.3, Cipinang Besar Sel., Kecamatan Jatinegara, Kota Jakarta Timur";"PAPUA";"13410";"Indonesia";" 0218572102";"";"";"-6.2368429";"106.8811511";"https://maps.google.com/?cid=0x0:0xf5d098ee94706191";""
"building materials";"Toko Bahan Bangunan";"TB Subur Puncak";"Jl. Raya Puncak No.645, Cisarua, Kec. Cisarua, Kabupaten Bogor, Jawa Barat 16750";"Cisarua, Kec. Cisarua, Kabupaten Bogor";"PAPUA";"16750";"Indonesia";" 081311508070";"";"";"-6.6871168";"106.9390599";"https://maps.google.com/?cid=0x0:0xb084e9f50a8b93e2";""
"building materials";"Toko Bahan Bangunan";"TB. Subur Makmur";"Tanah Baru, Kecamatan Beji, Kota Depok, Jawa Barat 16426";"Kecamatan Beji, Kota Depok";"PAPUA";"16426";"Indonesia";" 0217759989";"";"";"-6.3682545";"106.8061572";"https://maps.google.com/?cid=0x0:0x417f9d4ca8feec42";""
"building materials";"Toko bahan makanan";"Toko SUBUR";"Jl. Kalimantan No.90, Panunggangan Bar., Kec. Cibodas, Kota Tangerang, Banten 15138";"Panunggangan Bar., Kec. Cibodas, Kota Tangerang";"PAPUA";"15138";"Indonesia";" 087773777298";"";"";"-6.2190472";"106.6193068";"https://maps.google.com/?cid=0x0:0xc9f835befc788b06";""
"building materials";"Toko Bahan Bangunan";"Pd. Sabar Subur";"JP37+V94, Jl. Pemuda, Padurenan, Kec. Gn. Sindur, Kabupaten Bogor, Jawa Barat 16340";"Jl. Pemuda, Padurenan, Kec. Gn. Sindur, Kabupaten Bogor";"PAPUA";"16340";"Indonesia";"";"";"";"-6.3953541";"106.7134407";"https://maps.google.com/?cid=0x0:0x94d4f22c14ffcf95";""
"building materials";"Toko Bahan Bangunan";"Toko Subur";"Jl. Angkur No.9, Kayu Putih, Kec. Pulo Gadung, Kota Jakarta Timur, Daerah Khusus Ibukota Jakarta 13210";"Kayu Putih, Kec. Pulo Gadung, Kota Jakarta Timur";"PAPUA";"13210";"Indonesia";" 0214891259";"";"";"-6.1864773";"106.8855249";"https://maps.google.com/?cid=0x0:0xda973cee8cf25092";""
"building materials";"Toko Bahan Bangunan";"Toko Bangunan Subur";"Jalan Moh Toha Km 3,8 Nomor 45, Banten, RT.009/RW.011, Periuk Jaya, Kec. Tangerang, Kota Tangerang, Banten 15114";"Banten, RT.009/RW.011, Periuk Jaya, Kec. Tangerang, Kota Tangerang";"PAPUA";"15114";"Indonesia";" 0816901764";"";"";"-6.16734";"106.5998416";"https://maps.google.com/?cid=0x0:0x4077ba9607d14e94";""
"building materials";"Toko Bahan Bangunan";"UD. Subur Makmur";"Gg. Langgar I No.28, RT.6/RW.11, Pisangan Tim., Kec. Pulo Gadung, Kota Jakarta Timur, Daerah Khusus Ibukota Jakarta 13230";"RT.6/RW.11, Pisangan Tim., Kec. Pulo Gadung, Kota Jakarta Timur";"PAPUA";"13230";"Indonesia";" 0214759650";"";"";"-6.2105891";"106.8790619";"https://maps.google.com/?cid=0x0:0x2619bb061b08a205";""
"building materials";"Toko Bahan Bangunan";"SUBUR GYIPSUM JAYA";"Jl. Raya Bojong Nangka No.29, RT.16/RW.08, Bojong Nangka, Kec. Gn. Putri, Kabupaten Bogor, Jawa Barat";"Kabupaten Bogor, Jawa Barat";"PAPUA";"";"Indonesia";" 085212543518";"";"";"-6.4288374";"106.9116292";"https://maps.google.com/?cid=0x0:0x51f05ae63e8a4ed8";""
"building materials";"Toko Bahan Bangunan";"TB.SUBUR JAYA BANGUNAN";"Jl. Diklat Pemda No.97, Suka Bakti, Kec. Curug, Kabupaten Tangerang, Banten 15810";"Suka Bakti, Kec. Curug, Kabupaten Tangerang";"PAPUA";"15810";"Indonesia";" 081318308756";"";"";"-6.2575994";"106.574269";"https://maps.google.com/?cid=0x0:0x8b99dc331bb97cb6";""
"building materials";"Toko Bahan Bangunan";"TB.sabar subur";"FWJ4+9MP, Jl. Tajur Hambalang, Tajur, Kec. Citeureup, Kabupaten Bogor, Jawa Barat 16810";"Jl. Tajur Hambalang, Tajur, Kec. Citeureup, Kabupaten Bogor";"PAPUA";"16810";"Indonesia";"";"";"";"-6.5190343";"106.9067059";"https://maps.google.com/?cid=0x0:0x18224e3eadeb0871";""
"building materials";"Toko Bahan Bangunan";"TB. Subur";"Jl. Raya Cijeruk No.28, Wr. Menteng, Kec. Cijeruk, Kabupaten Bogor, Jawa Barat 16740";"Wr. Menteng, Kec. Cijeruk, Kabupaten Bogor";"PAPUA";"16740";"Indonesia";" 02518221146";"";"";"-6.706669";"106.7963316";"https://maps.google.com/?cid=0x0:0xd059b6591a2eec5a";""
"building materials";"Toko Bahan Bangunan";"Tb. Sabar Subur";"Sukawana, Kec. Curug, Kota Serang, Banten";"Kota Serang, Banten";"PAPUA";"";"Indonesia";"";"";"";"-6.1798986";"106.1683251";"https://maps.google.com/?cid=0x0:0x3eaf6286bd15a957";""
"building materials";"building materials";"Papua 99664";"Kabupaten Boven Digoel, Papua";"Kabupaten Boven Digoel, Papua";"PAPUA";"";"Indonesia";"";"";"";"-5.5720214";"140.7624493";"https://maps.google.com/?cid=0x0:0x4763b936197cab93";""
"building materials";"Toko Bahan Bangunan";"Papua Bangunan, CV PAPUA ABADI";"Jl. Basuki Rahmat No.780, Klawuyuk, Distrik Sorong Timur, Kota Sorong, Papua Bar. 98416";"Klawuyuk, Distrik Sorong Timur, Kota Sorong";"PAPUA";"98416";"Indonesia";" 081332017550";"";"";"-0.8954087";"131.3186922";"https://maps.google.com/?cid=0x0:0x851804bc3aa7f033";""
"building materials";"Toko bahan makanan";"DEPO MESIN N28  DEPO BANGUNAN";"Bunyom, Distrik Nimbokrang, Kabupaten Jayapura, Papua 99361";"Distrik Nimbokrang, Kabupaten Jayapura";"PAPUA";"99361";"Indonesia";" 085247266989";"";"";"-2.5571645";"140.1086582";"https://maps.google.com/?cid=0x0:0xf97268af26927065";""
"building materials";"Toko Bahan Bangunan";"Bahan Bangunan  Sparepart DIPAJAYA";"Jl. Perintis, Bumi Wonorejo, Distrik Nabire, Kabupaten Nabire, Papua 98813";"Bumi Wonorejo, Distrik Nabire, Kabupaten Nabire";"PAPUA";"98813";"Indonesia";" 085242353535";"";"";"-3.3901568";"135.4882999";"https://maps.google.com/?cid=0x0:0x2e1f4e55f23f8c6f";""
"building materials";"building materials";"Toko Artajaya Bangunan (AJB)";"Jl Protokol, Koya Bar., Kec. Muara Tami, Kota Jayapura, Papua";"Kota Jayapura, Papua";"PAPUA";"";"Indonesia";"";"";"";"-2.6598126";"140.8048505";"https://maps.google.com/?cid=0x0:0xbfefccb7ae22a578";""
"building materials";"Toko Bahan Bangunan";"Supermarket Multi Bangunan";"Jl Baru No.98, Wai Mhorock, Abepura, Jayapura City, Papua 99225";"Wai Mhorock, Abepura, Jayapura City";"PAPUA";"99225";"Indonesia";" 0967588677";"";"";"-2.6077336";"140.6742812";"https://maps.google.com/?cid=0x0:0x3b19f301c68f1d6f";""
"building materials";"Toko Bahan Bangunan";"Toko Central Bangunan / AMK";"Jl. Perikanan No.08, Hamadi, Distrik Jayapura Selatan, Kota Jayapura, Papua 99222";"Hamadi, Distrik Jayapura Selatan, Kota Jayapura";"PAPUA";"99222";"Indonesia";" 082261057928";"";"";"-2.5584767";"140.7173289";"https://maps.google.com/?cid=0x0:0xcfdf592c00fbd20d";""
"building materials";"Toko bahan makanan";"Toko bangunan ABADI JAYA";"Jl. Raya sarmi No.blok A, Bunyom, Distrik Nimbokrang, Kabupaten Jayapura, Papua 99361";"Bunyom, Distrik Nimbokrang, Kabupaten Jayapura";"PAPUA";"99361";"Indonesia";" 085382577209";"";"";"-2.557175";"140.1088301";"https://maps.google.com/?cid=0x0:0x1ca51d4d8a0ae01a";""
"building materials";"Toko Bahan Bangunan";"CV. XA TRIO JAYA";"Jl. Cendrawasih Sp2, Simpang Lima, Kec. Mimika Baru, Kabupaten Mimika, Papua";"Kabupaten Mimika, Papua";"PAPUA";"";"Indonesia";" 085244282610";"";"";"-4.5154756";"136.8496527";"https://maps.google.com/?cid=0x0:0x49e9d0a78fcf7509";""
"building materials";"Toko Bahan Bangunan";"Padma Bangunan";"Wai Mhorock, Kec. Abepura, Kota Jayapura, Papua 99225";"Kec. Abepura, Kota Jayapura";"PAPUA";"99225";"Indonesia";" 09675180108";"";"";"-2.6096427";"140.6725314";"https://maps.google.com/?cid=0x0:0x908e38e219cfc28";""
"building materials";"Toko Bahan Bangunan";"TOKO BAHAN BANGUNAN “TRINITY HOME”";"Jalan Baru Pasar Lama, Wahno, Kec. Abepura, Kota Jayapura, Papua 99224";"Wahno, Kec. Abepura, Kota Jayapura";"PAPUA";"99224";"Indonesia";" 081232337934";"";"";"-2.5958248";"140.6809957";"https://maps.google.com/?cid=0x0:0x41c321d86b054228";""
"building materials";"building materials";"Distrik Kombay";"Kabupaten Boven Digoel, Papua";"Kabupaten Boven Digoel, Papua";"PAPUA";"";"Indonesia";"";"";"";"-5.2411588";"140.002598";"https://maps.google.com/?cid=0x0:0xc9517f2d74b67994";""
"building materials";"building materials";"Depo Nimbokrang";"C4V5+4FM, Bunyom, Distrik Nimbokrang, Kabupaten Jayapura, Papua 99361";"Bunyom, Distrik Nimbokrang, Kabupaten Jayapura";"PAPUA";"99361";"Indonesia";"";"";"";"-2.5571645";"140.1086582";"https://maps.google.com/?cid=0x0:0x4bf10f83fa057fb1";""
"building materials";"building materials";"Ninati";"Kec. Ninati, Kabupaten Boven Digoel, Papua";"Kabupaten Boven Digoel, Papua";"PAPUA";"";"Indonesia";"";"";"";"-5.6921917";"140.8976772";"https://maps.google.com/?cid=0x0:0x13da9fadbf1b0435";""
"building materials";"Toko bahan makanan";"DEPO MESIN N28  DEPO BANGUNAN";"Bunyom, Distrik Nimbokrang, Kabupaten Jayapura, Papua 99361";"Distrik Nimbokrang, Kabupaten Jayapura";"PAPUA";"99361";"Indonesia";" 085247266989";"";"";"-2.5571645";"140.1086582";"https://maps.google.com/?cid=0x0:0xf97268af26927065";""
"building materials";"Toko Bahan Bangunan";"Papua Bangunan, CV PAPUA ABADI";"Jl. Basuki Rahmat No.780, Klawuyuk, Distrik Sorong Timur, Kota Sorong, Papua Bar. 98416";"Klawuyuk, Distrik Sorong Timur, Kota Sorong";"PAPUA";"98416";"Indonesia";" 081332017550";"";"";"-0.8954087";"131.3186922";"https://maps.google.com/?cid=0x0:0x851804bc3aa7f033";""
"building materials";"Toko Bahan Bangunan";"Bahan Bangunan  Sparepart DIPAJAYA";"Jl. Perintis, Bumi Wonorejo, Distrik Nabire, Kabupaten Nabire, Papua 98813";"Bumi Wonorejo, Distrik Nabire, Kabupaten Nabire";"PAPUA";"98813";"Indonesia";" 085242353535";"";"";"-3.3901568";"135.4882999";"https://maps.google.com/?cid=0x0:0x2e1f4e55f23f8c6f";""
"building materials";"Toko Bahan Bangunan";"Depo Bangunan Mbanyu Mili";"3VQM+2GP depan balai kampung sp 2, Prafi Mulia, Distrik Prafi, Kabupaten Manokwari, Papua Bar. 98356";"Prafi Mulia, Distrik Prafi, Kabupaten Manokwari";"PAPUA";"98356";"Indonesia";" 085254126242";"";"";"-0.9124191";"133.8838245";"https://maps.google.com/?cid=0x0:0x72bb281db456c91a";""
"building materials";"Toko Bahan Bangunan";"TOKO BANGUN NUSANTARA JAYA 2";"JL Yos Sudarso, Sempan, Timika (200 meter setelah SMAN 1, Papua 99971";"Sempan, Timika (200 meter setelah SMAN 1";"PAPUA";"99971";"Indonesia";" 081334703021";"";"";"-4.5705016";"136.8853477";"https://maps.google.com/?cid=0x0:0x439ec6c0e9985b9b";""
"building materials";"Toko Bahan Bangunan";"PAPUA BANGUNAN";"42GX+945, Wosi, Kec. Manokwari Bar., Kabupaten Manokwari, Papua Bar. 98312";"Wosi, Kec. Manokwari Bar., Kabupaten Manokwari";"PAPUA";"98312";"Indonesia";" 082198055550";"";"";"-0.874101";"134.0478473";"https://maps.google.com/?cid=0x0:0x2c3683b193d9430f";""
"building materials";"Toko Bahan Bangunan";"kios enny nur cemenes";"Jl. Dermaga Baru, Bis Agats, Distrik Agats, Kabupaten Asmat, Papua 99777";"Bis Agats, Distrik Agats, Kabupaten Asmat";"PAPUA";"99777";"Indonesia";" 081343209941";"";"";"-5.5305575";"138.1406968";"https://maps.google.com/?cid=0x0:0xf058fc25a2aab75";""
"building materials";"Toko Bahan Bangunan";"Toko Bangunan " Trio NUGRAHA" kertosari";"FCHF+H72, Unnamed Road, Sabron Sari, Distrik Sentani Barat, Kabupaten Jayapura, Papua 99358";"Unnamed Road, Sabron Sari, Distrik Sentani Barat, Kabupaten Jayapura";"PAPUA";"99358";"Indonesia";" 085254232431";"";"";"-2.5211009";"140.423142";"https://maps.google.com/?cid=0x0:0x62fb937eb764d3e";""
"building materials";"Toko Bahan Bangunan";"TOKO BANGUNAN DIKA JAYA";"Jl. Dermaga Aikai. Enarotali Distrik Paniai Timur Kabupaten Paniai. Papua, Aikai, Paniai Tim., Enarotali, Papua 98711";"Aikai, Paniai Tim., Enarotali";"PAPUA";"98711";"Indonesia";" 081935935177";"";"";"-3.9309089";"136.3727901";"https://maps.google.com/?cid=0x0:0x814ba48a8059765f";""
"building materials";"Toko Bahan Bangunan";"MITRA JITU TOKO BANGUNAN";"Mandala, Kec. Jayapura Utara, Kota Jayapura, Papua";"Kota Jayapura, Papua";"PAPUA";"";"Indonesia";" 081389993951";"";"";"-2.5312097";"140.7206979";"https://maps.google.com/?cid=0x0:0x105c310ef543f2a3";""
"building materials";"Toko Bahan Bangunan";"Tiptore Building Material";"Jl. Poros Kuda Mati, Klp. Lima, Kec. Merauke, Kabupaten Merauke, Papua 99616";"Klp. Lima, Kec. Merauke, Kabupaten Merauke";"PAPUA";"99616";"Indonesia";" 082293657714";"";"";"-8.5061763";"140.4257632";"https://maps.google.com/?cid=0x0:0xbf132c61e5517b30";""
"building materials";"Toko Bahan Bangunan";"Toko Bangunan Tetus Papua";"CVFF+528, Jl. Budi Utomo, Nawaripi, Kec. Mimika Baru, Kabupaten Mimika, Papua";"Kabupaten Mimika, Papua";"PAPUA";"";"Indonesia";" 081344834492";"";"";"-4.577093";"136.8725648";"https://maps.google.com/?cid=0x0:0x70179859b1a22306";""
"building materials";"Toko Bahan Bangunan";"Multi Bangunan Sentani";"Jl. Raya Abepura - Sentani No.19, Sentani Kota, Kec. Sentani, Kabupaten Jayapura, Papua";"Kabupaten Jayapura, Papua";"PAPUA";"";"Indonesia";" 08114853030";"";"";"-2.566744";"140.5208317";"https://maps.google.com/?cid=0x0:0x6cac4890073c8297";""
"building materials";"Toko Bahan Bangunan";"Supermarket Multi Bangunan";"Jl Baru No.98, Wai Mhorock, Abepura, Jayapura City, Papua 99225";"Wai Mhorock, Abepura, Jayapura City";"PAPUA";"99225";"Indonesia";" 0967588677";"";"";"-2.6077336";"140.6742812";"https://maps.google.com/?cid=0x0:0x3b19f301c68f1d6f";""
"building materials";"building materials";"Toko Artajaya Bangunan (AJB)";"Jl Protokol, Koya Bar., Kec. Muara Tami, Kota Jayapura, Papua";"Kota Jayapura, Papua";"PAPUA";"";"Indonesia";"";"";"";"-2.6598126";"140.8048505";"https://maps.google.com/?cid=0x0:0xbfefccb7ae22a578";""
"building materials";"building materials";"Tempat pengambilan material batu  timbunan";"Samping bengkel ruko warna ijo, Expo depan mata, Jl. Belut 4, Kota Jayapura, Papua 99332";"Expo depan mata, Jl. Belut 4, Kota Jayapura";"PAPUA";"99332";"Indonesia";"";"";"";"-2.5974995";"140.6264918";"https://maps.google.com/?cid=0x0:0xb3f354393ac28aaf";""
"building materials";"Toko Bahan Bangunan";"Pridia Toko Bangunan";"Jl. Raya Kemiri, Hinekombe, Kec. Sentani, Kabupaten Jayapura, Papua 99352";"Hinekombe, Kec. Sentani, Kabupaten Jayapura";"PAPUA";"99352";"Indonesia";" 0967593251";"";"";"-2.5652582";"140.506106";"https://maps.google.com/?cid=0x0:0xb1cbda9c54716314";""
"building materials";"Pemotongan Kayu";"Kantor kaca PT.SWPI";"Tim, Awunawai, Distrik Yapen Timur, Kabupaten Kepulauan Yapen, Papua 98252";"Awunawai, Distrik Yapen Timur, Kabupaten Kepulauan Yapen";"PAPUA";"98252";"Indonesia";"";"";"";"-1.8226475";"136.7595672";"https://maps.google.com/?cid=0x0:0xce8e51c2e764af51";""
"building materials";"Toko";"TB. Imanuel";"V7GJ+HJM, Jl. Nusantara Katapop II, Majaran, Kec. Salawati, Kabupaten Sorong, Papua Bar. 98451";"Jl. Nusantara Katapop II, Majaran, Kec. Salawati, Kabupaten Sorong";"PAPUA";"98451";"Indonesia";" 081278808072";"";"";"-1.1230556";"131.2814167";"https://maps.google.com/?cid=0x0:0xf00e563cb4742d82";""
"building materials";"Toko Bahan Bangunan";"Dua sahabat (jotun)";"W83F+HQG, Persatuan, Kec. Mandobo, Kabupaten Boven Digoel, Papua 99663";"Persatuan, Kec. Mandobo, Kabupaten Boven Digoel";"PAPUA";"99663";"Indonesia";"";"";"";"-6.096053";"140.3244447";"https://maps.google.com/?cid=0x0:0xea5ccb20ae3f46f6";""
"building materials";"Toko";"Toko Dua Sahabat/Jotun";"Jln. Trans Papua kilo 2, Kabupaten Boven Digoel";"Kabupaten Boven Digoel, Papua";"PAPUA";"";"Indonesia";"";"";"";"-6.0959217";"140.3245587";"https://maps.google.com/?cid=0x0:0xe788284fb59d6345";""
"building materials";"Grosir bahan konstruksi";"UD. UNGGUL JAYA SEJAHTERA (HANDOKO)";"Massi, Kec. Dekai, Kabupaten Yahukimo, Papua 99571";"Kec. Dekai, Kabupaten Yahukimo";"PAPUA";"99571";"Indonesia";" 082198805354";"";"";"-4.8651736";"139.4852562";"https://maps.google.com/?cid=0x0:0x5dec7d0c36ca1db3";""
"building materials";"building materials";"Somilbatu tela vandy.ok";"Jl.1 timur, Bebon Jaya, Kec. Bonggo, Kabupaten Sarmi, Papua 99381";"Bebon Jaya, Kec. Bonggo, Kabupaten Sarmi";"PAPUA";"99381";"Indonesia";" 081247263895";"";"";"-2.2736502";"139.5464527";"https://maps.google.com/?cid=0x0:0x603d08da04103670";""
"building materials";"building materials";"Sanjaya Abadi";"4MVV+5XG, Osso, Kec. Mindiptana, Kabupaten Boven Digoel, Papua";"Kabupaten Boven Digoel, Papua";"PAPUA";"";"Indonesia";"";"";"";"-5.857056";"140.6949438";"https://maps.google.com/?cid=0x0:0x32f10331b3a61a9d";""
"building materials";"building materials";"Kec. Sesnuk";"Kabupaten Boven Digoel, Papua";"Kabupaten Boven Digoel, Papua";"PAPUA";"";"Indonesia";"";"";"";"-6.2109657";"140.7208989";"https://maps.google.com/?cid=0x0:0xd906902f3bfc1485";""
"building materials";"building materials";"Sesnuk";"Kec. Sesnuk, Kabupaten Boven Digoel, Papua";"Kabupaten Boven Digoel, Papua";"PAPUA";"";"Indonesia";"";"";"";"-6.1921334";"140.700134";"https://maps.google.com/?cid=0x0:0x5a676998cc2d21aa";""
"building materials";"building materials";"Papua 99661";"Kabupaten Boven Digoel, Papua";"Kabupaten Boven Digoel, Papua";"PAPUA";"";"Indonesia";"";"";"";"-6.6725506";"140.1832516";"https://maps.google.com/?cid=0x0:0x6942b94e71194057";""
"building materials";"Toko bahan makanan";"DEPO MESIN N28  DEPO BANGUNAN";"Bunyom, Distrik Nimbokrang, Kabupaten Jayapura, Papua 99361";"Distrik Nimbokrang, Kabupaten Jayapura";"PAPUA";"99361";"Indonesia";" 085247266989";"";"";"-2.5571645";"140.1086582";"https://maps.google.com/?cid=0x0:0xf97268af26927065";""
"building materials";"Toko Bahan Bangunan";"Multi Bangunan Sentani";"Jl. Raya Abepura - Sentani No.19, Sentani Kota, Kec. Sentani, Kabupaten Jayapura, Papua";"Kabupaten Jayapura, Papua";"PAPUA";"";"Indonesia";" 08114853030";"";"";"-2.566744";"140.5208317";"https://maps.google.com/?cid=0x0:0x6cac4890073c8297";""
"building materials";"Toko Bahan Bangunan";"Supermarket Multi Bangunan";"Jl Baru No.98, Wai Mhorock, Abepura, Jayapura City, Papua 99225";"Wai Mhorock, Abepura, Jayapura City";"PAPUA";"99225";"Indonesia";" 0967588677";"";"";"-2.6077336";"140.6742812";"https://maps.google.com/?cid=0x0:0x3b19f301c68f1d6f";""
"building materials";"Toko Bahan Bangunan";"Toko Tekun Jaya Bintaro";"Ruko Regia Boulevard 1 No 1, Jalan Graha Bintaro , Perigi Baru, Pd. Kacang Bar., Kec. Pd. Aren, Kota Tangerang Selatan, Banten 15228";"Jalan Graha Bintaro , Perigi Baru, Pd. Kacang Bar., Kec. Pd. Aren, Kota Tangerang Selatan";"PAPUA";"15228";"Indonesia";" 0217306786";"";"";"-6.2603441";"106.686267";"https://maps.google.com/?cid=0x0:0xc061bff900bffc81";""
"building materials";"Toko Perlengkapan Rumah";"TB. Akur Jaya";"Jl. Waru Raya Jl. Cengkareng Indah No.11a, RT.13/RW.9, Kapuk, Kecamatan Cengkareng, Kota Jakarta Barat, Daerah Khusus Ibukota Jakarta 11720";"RT.13/RW.9, Kapuk, Kecamatan Cengkareng, Kota Jakarta Barat";"PAPUA";"11720";"Indonesia";" 02154315147";"";"";"-6.1483836";"106.7475066";"https://maps.google.com/?cid=0x0:0x621236d57cc1ce7a";""
"building materials";"Toko Bahan Bangunan";"Okabe Gallery Alam Sutera";"QM66+Q46, Jalur Sutera No.32A, Pakualam, Kec. Serpong Utara, Kota Tangerang Selatan, Banten 15320";"Jalur Sutera No.32A, Pakualam, Kec. Serpong Utara, Kota Tangerang Selatan";"PAPUA";"15320";"Indonesia";" 082118888519";"";"";"-6.2381706";"106.6605396";"https://maps.google.com/?cid=0x0:0x685a953a8450fdbb";""
"building materials";"Toko Cat";"Cat Kayu  Besi";"VRF6+FVM, Jl. Lodan Raya, RT.2/RW.4, Ancol, Kec. Pademangan, Jkt Utara, Daerah Khusus Ibukota Jakarta 14430";"Jl. Lodan Raya, RT.2/RW.4, Ancol, Kec. Pademangan, Jkt Utara";"PAPUA";"14430";"Indonesia";"";"";"";"-6.1262778";"106.8121637";"https://maps.google.com/?cid=0x0:0xad09657c5a30d0c5";""
"building materials";"building materials";"Papua 99665";"Kabupaten Boven Digoel, Papua";"Kabupaten Boven Digoel, Papua";"PAPUA";"";"Indonesia";"";"";"";"-5.3993592";"140.265662";"https://maps.google.com/?cid=0x0:0x130a65ebf9121fb9";""
"building materials";"Toko";"Toko Dua Sahabat/Jotun";"Jln. Trans Papua kilo 2, Kabupaten Boven Digoel";"Kabupaten Boven Digoel, Papua";"PAPUA";"";"Indonesia";"";"";"";"-6.0959217";"140.3245587";"https://maps.google.com/?cid=0x0:0xe788284fb59d6345";""
"building materials";"Toko Bahan Bangunan";"Papua Bangunan, CV PAPUA ABADI";"Jl. Basuki Rahmat No.780, Klawuyuk, Distrik Sorong Timur, Kota Sorong, Papua Bar. 98416";"Klawuyuk, Distrik Sorong Timur, Kota Sorong";"PAPUA";"98416";"Indonesia";" 081332017550";"";"";"-0.8954087";"131.3186922";"https://maps.google.com/?cid=0x0:0x851804bc3aa7f033";""
"building materials";"Toko bahan makanan";"DEPO MESIN N28  DEPO BANGUNAN";"Bunyom, Distrik Nimbokrang, Kabupaten Jayapura, Papua 99361";"Distrik Nimbokrang, Kabupaten Jayapura";"PAPUA";"99361";"Indonesia";" 085247266989";"";"";"-2.5571645";"140.1086582";"https://maps.google.com/?cid=0x0:0xf97268af26927065";""
"building materials";"Toko Bahan Bangunan";"Depo Bangunan Mbanyu Mili";"3VQM+2GP depan balai kampung sp 2, Prafi Mulia, Distrik Prafi, Kabupaten Manokwari, Papua Bar. 98356";"Prafi Mulia, Distrik Prafi, Kabupaten Manokwari";"PAPUA";"98356";"Indonesia";" 085254126242";"";"";"-0.9124191";"133.8838245";"https://maps.google.com/?cid=0x0:0x72bb281db456c91a";""
"building materials";"Toko Bahan Bangunan";"Tiptore Building Material";"Jl. Poros Kuda Mati, Klp. Lima, Kec. Merauke, Kabupaten Merauke, Papua 99616";"Klp. Lima, Kec. Merauke, Kabupaten Merauke";"PAPUA";"99616";"Indonesia";" 082293657714";"";"";"-8.5061763";"140.4257632";"https://maps.google.com/?cid=0x0:0xbf132c61e5517b30";""
"building materials";"Toko Bahan Bangunan";"Mj jaya";"Jl. Polres Sentani No. 4, Doyo Baru, Walibu, Doyo Baru, Distrik Waibu, Kabupaten Jayapura, Papua 99352";"Doyo Baru, Walibu, Doyo Baru, Distrik Waibu, Kabupaten Jayapura";"PAPUA";"99352";"Indonesia";" 082225559371";"";"";"-2.5395027";"140.4631717";"https://maps.google.com/?cid=0x0:0x5375d617a30d59eb";""
"building materials";"Toko Bahan Bangunan";"Wapoga Mutiara Timber. PT";"43MJ+WXW, Manokwari Tim., Kec. Manokwari Bar., Kabupaten Manokwari, Papua Bar. 98312";"Manokwari Tim., Kec. Manokwari Bar., Kabupaten Manokwari";"PAPUA";"98312";"Indonesia";" 0962211770";"";"";"-0.86514";"134.082441";"https://maps.google.com/?cid=0x0:0x23cc3c5246cb2c52";""
"building materials";"Toko Cat";"Toko Bangunan Abid Sejahtera - Waisai";"Jl. Jend. Sudirman No.30, Waisai, Distrik Kota Waisai, Kabupaten Raja Ampat, Papua Bar. 98482";"Waisai, Distrik Kota Waisai, Kabupaten Raja Ampat";"PAPUA";"98482";"Indonesia";" 082248014806";"";"";"-0.4206038";"130.8216501";"https://maps.google.com/?cid=0x0:0x635cf5cb88ebe389";""
"building materials";"Toko Bahan Bangunan";"Toko Bangunan " Trio NUGRAHA" kertosari";"FCHF+H72, Unnamed Road, Sabron Sari, Distrik Sentani Barat, Kabupaten Jayapura, Papua 99358";"Unnamed Road, Sabron Sari, Distrik Sentani Barat, Kabupaten Jayapura";"PAPUA";"99358";"Indonesia";" 085254232431";"";"";"-2.5211009";"140.423142";"https://maps.google.com/?cid=0x0:0x62fb937eb764d3e";""
"building materials";"Toko Bahan Bangunan";"Supermarket Multi Bangunan";"Jl Baru No.98, Wai Mhorock, Abepura, Jayapura City, Papua 99225";"Wai Mhorock, Abepura, Jayapura City";"PAPUA";"99225";"Indonesia";" 0967588677";"";"";"-2.6077336";"140.6742812";"https://maps.google.com/?cid=0x0:0x3b19f301c68f1d6f";""
"building materials";"Organisasi Nonprofit";"Quary digoel";"785X+X7V, Ujung, Arimop, Kabupaten Boven Digoel, Papua";"Kabupaten Boven Digoel, Papua";"PAPUA";"";"Indonesia";" 08114906765";"";"";"-5.7400018";"140.3481835";"https://maps.google.com/?cid=0x0:0x5d253e06ad6a667c";""
"building materials";"building materials";"ICA MERBAU";"Nembukrang, Distrik Nimbokrang, Kabupaten Jayapura, Papua 99352";"Distrik Nimbokrang, Kabupaten Jayapura";"PAPUA";"99352";"Indonesia";" 082197995447";"";"";"-2.558343";"140.1301628";"https://maps.google.com/?cid=0x0:0x76b2890b18d08a9d";""
"building materials";"building materials";"Tempat pengambilan material batu  timbunan";"Samping bengkel ruko warna ijo, Expo depan mata, Jl. Belut 4, Kota Jayapura, Papua 99332";"Expo depan mata, Jl. Belut 4, Kota Jayapura";"PAPUA";"99332";"Indonesia";"";"";"";"-2.5974995";"140.6264918";"https://maps.google.com/?cid=0x0:0xb3f354393ac28aaf";""
"building materials";"Organisasi Nonprofit";"Quary digoel";"W78X+7CP, Persatuan, Kec. Mandobo, Kabupaten Boven Digoel, Papua";"Kabupaten Boven Digoel, Papua";"PAPUA";"";"Indonesia";"";"";"";"-6.0842799";"140.2985721";"https://maps.google.com/?cid=0x0:0x569ea7cde888aa33";""
"building materials";"building materials";"UD CENDARAWASIH";"8CQ6+5G4, Asiki, Kec. Jair, Kabupaten Boven Digoel, Papua 99661";"Asiki, Kec. Jair, Kabupaten Boven Digoel";"PAPUA";"99661";"Indonesia";"";"";"";"-6.662109";"140.4113198";"https://maps.google.com/?cid=0x0:0x320c3a2af8ff84af";""
"toko bangunan";"toko bangunan";"Mandobo";"Distrik Kouh, Kabupaten Boven Digoel, Papua";"Kabupaten Boven Digoel, Papua";"PAPUA";"";"Indonesia";"";"";"";"-5.8523321";"140.2862819";"https://maps.google.com/?cid=0x0:0x30ea9430854e3568";""
"toko bangunan";"Toko";"TOKO BANGUNAN SUMBER ANUGERAH";"Persatuan, Kec. Mandobo, Kabupaten Boven Digoel, Papua 99663";"Kec. Mandobo, Kabupaten Boven Digoel";"PAPUA";"99663";"Indonesia";"";"";"";"-6.0903965";"140.3331897";"https://maps.google.com/?cid=0x0:0x9b0d3e5a6263752a";""
"toko bangunan";"Toko";"Toko Abadi";"jalan trans, Persatuan, Kec. Mandobo, Kabupaten Boven Digoel, Papua 99663";"Persatuan, Kec. Mandobo, Kabupaten Boven Digoel";"PAPUA";"99663";"Indonesia";" 082197348947";"";"";"-6.1021675";"140.3183316";"https://maps.google.com/?cid=0x0:0xdee33d09caab54d2";""
"toko bangunan";"Pemasok Bahan Bangunan";"UD Simpel";"W828+C4W, Jl. Arimop, Persatuan, Kec. Mandobo, Kabupaten Boven Digoel, Papua 99663";"Jl. Arimop, Persatuan, Kec. Mandobo, Kabupaten Boven Digoel";"PAPUA";"99663";"Indonesia";" 081357498001";"";"";"-6.098877";"140.3153312";"https://maps.google.com/?cid=0x0:0xd945cc71fee0731f";""
"toko bangunan";"toko bangunan";"Papua 99663";"Kabupaten Boven Digoel, Papua";"Kabupaten Boven Digoel, Papua";"PAPUA";"";"Indonesia";"";"";"";"-5.9346326";"140.265662";"https://maps.google.com/?cid=0x0:0x24b271a5b6f62e76";""
"toko bangunan";"Percetakan Komersial";"Fotocopy Trans Papua (iqbal)";"Jl. Trans Papua No.km, RW.3, Persatuan, Kec. Mandobo, Kabupaten Boven Digoel, Papua 99663";"RW.3, Persatuan, Kec. Mandobo, Kabupaten Boven Digoel";"PAPUA";"99663";"Indonesia";" 08128579789";"";"";"-6.0892077";"140.3352165";"https://maps.google.com/?cid=0x0:0x4c9417424feaf891";""
"toko bangunan";"Toko Bahan Bangunan";"Dua sahabat (jotun)";"W83F+HQG, Persatuan, Kec. Mandobo, Kabupaten Boven Digoel, Papua 99663";"Persatuan, Kec. Mandobo, Kabupaten Boven Digoel";"PAPUA";"99663";"Indonesia";"";"";"";"-6.096053";"140.3244447";"https://maps.google.com/?cid=0x0:0xea5ccb20ae3f46f6";""
"toko bangunan";"toko bangunan";"Kec. Mindiptana";"Kabupaten Boven Digoel, Papua";"Kabupaten Boven Digoel, Papua";"PAPUA";"";"Indonesia";"";"";"";"-5.8729212";"140.7006239";"https://maps.google.com/?cid=0x0:0x63d3989597ea91fc";""
"toko bangunan";"toko bangunan";"Mindiptana";"Kec. Mindiptana, Kabupaten Boven Digoel, Papua";"Kabupaten Boven Digoel, Papua";"PAPUA";"";"Indonesia";"";"";"";"-5.8984168";"140.6845648";"https://maps.google.com/?cid=0x0:0xcf32ad244732c122";""
"toko bangunan";"Toko";"TOKO BANGUNAN SUMBER ANUGERAH";"Persatuan, Kec. Mandobo, Kabupaten Boven Digoel, Papua 99663";"Kec. Mandobo, Kabupaten Boven Digoel";"PAPUA";"99663";"Indonesia";"";"";"";"-6.0903965";"140.3331897";"https://maps.google.com/?cid=0x0:0x9b0d3e5a6263752a";""
"toko bangunan";"Toko Bahan Bangunan";"Toko Bangunan Agung Papua";"CJ2P+W8F, Jl. Raya Waena, Kp. Waena, Kec. Heram, Kota Jayapura, Papua 99351";"Jl. Raya Waena, Kp. Waena, Kec. Heram, Kota Jayapura";"PAPUA";"99351";"Indonesia";"";"";"";"-2.5976776";"140.6357935";"https://maps.google.com/?cid=0x0:0xe204736893cd26aa";""
"toko bangunan";"Toko Bahan Bangunan";"Toko Multi Bangunan";"Q97H+9V2, Sarafambai, Kec. Waropen Bawah, Kabupaten Waropen, Papua 98261";"Sarafambai, Kec. Waropen Bawah, Kabupaten Waropen";"PAPUA";"98261";"Indonesia";"";"";"";"-2.2366153";"136.3796343";"https://maps.google.com/?cid=0x0:0x8fe10ca526096f47";""
"toko bangunan";"toko bangunan";"Megah plafon pvc";"Jl. Utan Panjang Tim. No.65, RT.3/RW.7, Utan Panjang, Kec. Kemayoran, Kota Jakarta Pusat, Daerah Khusus Ibukota Jakarta 10650";"RT.3/RW.7, Utan Panjang, Kec. Kemayoran, Kota Jakarta Pusat";"PAPUA";"10650";"Indonesia";" 089527057811";"";"";"-6.1689442";"106.8525026";"https://maps.google.com/?cid=0x0:0xb72fde4d64eb354a";""
"toko bangunan";"Toko";"TOKO BANGUNAN SUMBER ANUGERAH";"Persatuan, Kec. Mandobo, Kabupaten Boven Digoel, Papua 99663";"Kec. Mandobo, Kabupaten Boven Digoel";"PAPUA";"99663";"Indonesia";"";"";"";"-6.0903965";"140.3331897";"https://maps.google.com/?cid=0x0:0x9b0d3e5a6263752a";""
"toko bangunan";"Toko Bahan Bangunan";"Toko Resky";"jalan poros, Kemon Jaya Sp V, Kec. Waropen Bawah, Kabupaten Waropen, Papua 98261";"Kemon Jaya Sp V, Kec. Waropen Bawah, Kabupaten Waropen";"PAPUA";"98261";"Indonesia";" 085394955553";"";"";"-2.2185432";"136.4200064";"https://maps.google.com/?cid=0x0:0x356450f535852163";""
"toko bangunan";"Toko Bahan Bangunan";"ANEKA BANGUNAN";"Wosi, Kec. Manokwari Bar., Kabupaten Manokwari, Papua Bar. 98312";"Kec. Manokwari Bar., Kabupaten Manokwari";"PAPUA";"98312";"Indonesia";" 081344843001";"";"";"-0.8631883";"134.0498559";"https://maps.google.com/?cid=0x0:0x3598159af16f30ea";""
"toko bangunan";"Toko Bahan Bangunan";"Papua Bangunan, CV PAPUA ABADI";"Jl. Basuki Rahmat No.780, Klawuyuk, Distrik Sorong Timur, Kota Sorong, Papua Bar. 98416";"Klawuyuk, Distrik Sorong Timur, Kota Sorong";"PAPUA";"98416";"Indonesia";" 081332017550";"";"";"-0.8954087";"131.3186922";"https://maps.google.com/?cid=0x0:0x851804bc3aa7f033";""
"toko bangunan";"Toko Perlengkapan Rumah";"Toko Jarwal Bangunan";"Kamoro Jaya, Kec. Mimika Baru, Kabupaten Mimika, Papua 99971";"Kec. Mimika Baru, Kabupaten Mimika";"PAPUA";"99971";"Indonesia";"";"";"";"-4.5656564";"136.8718615";"https://maps.google.com/?cid=0x0:0x6cdc385accf4a8b";""
"toko bangunan";"Toko";"Toko Abadi";"jalan trans, Persatuan, Kec. Mandobo, Kabupaten Boven Digoel, Papua 99663";"Persatuan, Kec. Mandobo, Kabupaten Boven Digoel";"PAPUA";"99663";"Indonesia";" 082197348947";"";"";"-6.1021675";"140.3183316";"https://maps.google.com/?cid=0x0:0xdee33d09caab54d2";""
"toko bangunan";"Toko";"Toko Dua Sahabat/Jotun";"Jln. Trans Papua kilo 2, Kabupaten Boven Digoel";"Kabupaten Boven Digoel, Papua";"PAPUA";"";"Indonesia";"";"";"";"-6.0959217";"140.3245587";"https://maps.google.com/?cid=0x0:0xe788284fb59d6345";""
"toko bangunan";"toko bangunan";"Papua 99661";"Kabupaten Boven Digoel, Papua";"Kabupaten Boven Digoel, Papua";"PAPUA";"";"Indonesia";"";"";"";"-6.6725506";"140.1832516";"https://maps.google.com/?cid=0x0:0x6942b94e71194057";""
"toko bangunan";"Toko";"TOKO BANGUNAN SUMBER ANUGERAH";"Persatuan, Kec. Mandobo, Kabupaten Boven Digoel, Papua 99663";"Kec. Mandobo, Kabupaten Boven Digoel";"PAPUA";"99663";"Indonesia";"";"";"";"-6.0903965";"140.3331897";"https://maps.google.com/?cid=0x0:0x9b0d3e5a6263752a";""
"toko bangunan";"Toko";"Toko Dua Sahabat/Jotun";"Jln. Trans Papua kilo 2, Kabupaten Boven Digoel";"Kabupaten Boven Digoel, Papua";"PAPUA";"";"Indonesia";"";"";"";"-6.0959217";"140.3245587";"https://maps.google.com/?cid=0x0:0xe788284fb59d6345";""
"toko bangunan";"Toko Bahan Bangunan";"UD. Anugerah Abadi";"V8W8+526, Persatuan, Kec. Mandobo, Kabupaten Boven Digoel, Papua";"Kabupaten Boven Digoel, Papua";"PAPUA";"";"Indonesia";"";"";"";"-6.1045815";"140.3150258";"https://maps.google.com/?cid=0x0:0xeeca0aee368caf42";""
"toko bangunan";"Pemasok Bahan Bangunan";"Kujaya Material no 89";"Jalan buaran timur No.89, Jl. Buaran Timur No.89, Jelupang, Kec. Serpong Utara, Kota Tangerang Selatan, Banten 15226";"Jl. Buaran Timur No.89, Jelupang, Kec. Serpong Utara, Kota Tangerang Selatan";"PAPUA";"15226";"Indonesia";" 081288925599";"";"";"-6.2668735";"106.6733943";"https://maps.google.com/?cid=0x0:0x26adcbb007fb340e";""
"toko bangunan";"Toko Bahan Bangunan";"Toko bangunan Karya Makmur";"blok a8, Jl. Pd. Kelapa Raya No.4, RT.2/RW.4, Pd. Klp., Kec. Duren Sawit, Kota Jakarta Timur, Daerah Khusus Ibukota Jakarta 13450";"Jl. Pd. Kelapa Raya No.4, RT.2/RW.4, Pd. Klp., Kec. Duren Sawit, Kota Jakarta Timur";"PAPUA";"13450";"Indonesia";" 0218640676";"";"";"-6.2464234";"106.9349386";"https://maps.google.com/?cid=0x0:0xbf6513d7165638eb";""
"toko bangunan";"Toko Bahan Bangunan";"Toko Bahan Bangunan Aneka Maju";"Blok i14 8, Jl. Pd. Kelapa Raya No.8, RT.7/RW.9, Pd. Klp., Kec. Duren Sawit, Kota Jakarta Timur, Daerah Khusus Ibukota Jakarta 13450";"Jl. Pd. Kelapa Raya No.8, RT.7/RW.9, Pd. Klp., Kec. Duren Sawit, Kota Jakarta Timur";"PAPUA";"13450";"Indonesia";" 0218651606";"";"";"-6.2366944";"106.9342234";"https://maps.google.com/?cid=0x0:0xc1d06a35075c2497";""
"toko bangunan";"Toko";"TOKO BANGUNAN SUMBER ANUGERAH";"Persatuan, Kec. Mandobo, Kabupaten Boven Digoel, Papua 99663";"Kec. Mandobo, Kabupaten Boven Digoel";"PAPUA";"99663";"Indonesia";"";"";"";"-6.0903965";"140.3331897";"https://maps.google.com/?cid=0x0:0x9b0d3e5a6263752a";""
"toko bangunan";"Toko";"TOKO BANGUNAN ANDIKA JAYA";"Jalan KH. Mohamad Hasan No.15510, Teluknaga, Kec. Teluknaga, Kota Tangerang, Banten 15510";"Teluknaga, Kec. Teluknaga, Kota Tangerang";"PAPUA";"15510";"Indonesia";" 081319112736";"";"";"-6.0981035";"106.6418536";"https://maps.google.com/?cid=0x0:0x64ce05c42262da7f";""
"toko bangunan";"toko bangunan";"Distrik Kouh";"Kabupaten Boven Digoel, Papua";"Kabupaten Boven Digoel, Papua";"PAPUA";"";"Indonesia";"";"";"";"-5.8051734";"140.2132761";"https://maps.google.com/?cid=0x0:0x7a9ca82cdcdd2eb6";""
"toko bangunan";"Toko";"Toko Dua Sahabat/Jotun";"Jln. Trans Papua kilo 2, Kabupaten Boven Digoel";"Kabupaten Boven Digoel, Papua";"PAPUA";"";"Indonesia";"";"";"";"-6.0959217";"140.3245587";"https://maps.google.com/?cid=0x0:0xe788284fb59d6345";""
"toko bangunan";"toko bangunan";"Papua 99665";"Kabupaten Boven Digoel, Papua";"Kabupaten Boven Digoel, Papua";"PAPUA";"";"Indonesia";"";"";"";"-5.3993592";"140.265662";"https://maps.google.com/?cid=0x0:0x130a65ebf9121fb9";""
"toko bangunan";"Toko";"TOKO BANGUNAN SUMBER ANUGERAH";"Persatuan, Kec. Mandobo, Kabupaten Boven Digoel, Papua 99663";"Kec. Mandobo, Kabupaten Boven Digoel";"PAPUA";"99663";"Indonesia";"";"";"";"-6.0903965";"140.3331897";"https://maps.google.com/?cid=0x0:0x9b0d3e5a6263752a";""
"toko bangunan";"Toko";"Toko Dua Sahabat/Jotun";"Jln. Trans Papua kilo 2, Kabupaten Boven Digoel";"Kabupaten Boven Digoel, Papua";"PAPUA";"";"Indonesia";"";"";"";"-6.0959217";"140.3245587";"https://maps.google.com/?cid=0x0:0xe788284fb59d6345";""
"toko bangunan";"Toko";"Toko Abadi";"jalan trans, Persatuan, Kec. Mandobo, Kabupaten Boven Digoel, Papua 99663";"Persatuan, Kec. Mandobo, Kabupaten Boven Digoel";"PAPUA";"99663";"Indonesia";" 082197348947";"";"";"-6.1021675";"140.3183316";"https://maps.google.com/?cid=0x0:0xdee33d09caab54d2";""
"toko bangunan";"toko bangunan";"Distrik Kouh";"Kabupaten Boven Digoel, Papua";"Kabupaten Boven Digoel, Papua";"PAPUA";"";"Indonesia";"";"";"";"-5.8051734";"140.2132761";"https://maps.google.com/?cid=0x0:0x7a9ca82cdcdd2eb6";""
"toko bangunan";"toko bangunan";"Kouh";"Distrik Kouh, Kabupaten Boven Digoel, Papua";"Kabupaten Boven Digoel, Papua";"PAPUA";"";"Indonesia";"";"";"";"-5.8249191";"140.197408";"https://maps.google.com/?cid=0x0:0xa00e72d4fc202818";""
"toko bangunan";"Toko Bahan Bangunan";"UD. Anugerah Abadi";"V8W8+526, Persatuan, Kec. Mandobo, Kabupaten Boven Digoel, Papua";"Kabupaten Boven Digoel, Papua";"PAPUA";"";"Indonesia";"";"";"";"-6.1045815";"140.3150258";"https://maps.google.com/?cid=0x0:0xeeca0aee368caf42";""
"toko bangunan";"toko bangunan";"UD CENDARAWASIH";"8CQ6+5G4, Asiki, Kec. Jair, Kabupaten Boven Digoel, Papua 99661";"Asiki, Kec. Jair, Kabupaten Boven Digoel";"PAPUA";"99661";"Indonesia";"";"";"";"-6.662109";"140.4113198";"https://maps.google.com/?cid=0x0:0x320c3a2af8ff84af";""
"toko bangunan";"toko bangunan";"Papua 99661";"Kabupaten Boven Digoel, Papua";"Kabupaten Boven Digoel, Papua";"PAPUA";"";"Indonesia";"";"";"";"-6.6725506";"140.1832516";"https://maps.google.com/?cid=0x0:0x6942b94e71194057";""
"toko bangunan";"Toko";"Toko Dua Sahabat/Jotun";"Jln. Trans Papua kilo 2, Kabupaten Boven Digoel";"Kabupaten Boven Digoel, Papua";"PAPUA";"";"Indonesia";"";"";"";"-6.0959217";"140.3245587";"https://maps.google.com/?cid=0x0:0xe788284fb59d6345";""
"toko bangunan";"Toko Perlengkapan Rumah";"Toko Jarwal Bangunan";"Kamoro Jaya, Kec. Mimika Baru, Kabupaten Mimika, Papua 99971";"Kec. Mimika Baru, Kabupaten Mimika";"PAPUA";"99971";"Indonesia";"";"";"";"-4.5656564";"136.8718615";"https://maps.google.com/?cid=0x0:0x6cdc385accf4a8b";""
"toko bangunan";"Kerajinan";"Toko CAHAYA BONE";"8CQ6+2GW, Asiki, Kec. Jair, Kabupaten Boven Digoel, Papua 99661";"Asiki, Kec. Jair, Kabupaten Boven Digoel";"PAPUA";"99661";"Indonesia";"";"";"";"-6.6623894";"140.4113325";"https://maps.google.com/?cid=0x0:0x467b84076ddb4d15";""
"toko bangunan";"Toko";"Toko Abadi";"jalan trans, Persatuan, Kec. Mandobo, Kabupaten Boven Digoel, Papua 99663";"Persatuan, Kec. Mandobo, Kabupaten Boven Digoel";"PAPUA";"99663";"Indonesia";" 082197348947";"";"";"-6.1021675";"140.3183316";"https://maps.google.com/?cid=0x0:0xdee33d09caab54d2";""
"toko bangunan";"toko bangunan";"Sand Point, Alaska 99661";"Sand Point, Alaska, Amerika Serikat";"Sand Point, Alaska, Amerika Serikat";"PAPUA";"";"Indonesia";"";"";"";"55.2693058";"-160.6748964";"https://maps.google.com/?cid=0x0:0x7563da9a6a55a5d0";""
"toko bangunan";"Toko";"Toko Abadi";"jalan trans, Persatuan, Kec. Mandobo, Kabupaten Boven Digoel, Papua 99663";"Persatuan, Kec. Mandobo, Kabupaten Boven Digoel";"PAPUA";"99663";"Indonesia";" 082197348947";"";"";"-6.1021675";"140.3183316";"https://maps.google.com/?cid=0x0:0xdee33d09caab54d2";""
"toko bangunan";"Toko Bahan Bangunan";"UD. Anugerah Abadi";"V8W8+526, Persatuan, Kec. Mandobo, Kabupaten Boven Digoel, Papua";"Kabupaten Boven Digoel, Papua";"PAPUA";"";"Indonesia";"";"";"";"-6.1045815";"140.3150258";"https://maps.google.com/?cid=0x0:0xeeca0aee368caf42";""
"toko bangunan";"Toko";"Toko Dua Sahabat/Jotun";"Jln. Trans Papua kilo 2, Kabupaten Boven Digoel";"Kabupaten Boven Digoel, Papua";"PAPUA";"";"Indonesia";"";"";"";"-6.0959217";"140.3245587";"https://maps.google.com/?cid=0x0:0xe788284fb59d6345";""
"toko bangunan";"Toko Bahan Bangunan";"Dua sahabat (jotun)";"W83F+HQG, Persatuan, Kec. Mandobo, Kabupaten Boven Digoel, Papua 99663";"Persatuan, Kec. Mandobo, Kabupaten Boven Digoel";"PAPUA";"99663";"Indonesia";"";"";"";"-6.096053";"140.3244447";"https://maps.google.com/?cid=0x0:0xea5ccb20ae3f46f6";""
"toko bangunan";"toko bangunan";"Kombut";"Kabupaten Boven Digoel, Papua";"Kabupaten Boven Digoel, Papua";"PAPUA";"";"Indonesia";"";"";"";"-5.8111842";"140.8040271";"https://maps.google.com/?cid=0x0:0xd4979b856c10d48e";""
"toko bangunan";"Toko Bahan Bangunan";"Supermarket Multi Bangunan";"Jl Baru No.98, Wai Mhorock, Abepura, Jayapura City, Papua 99225";"Wai Mhorock, Abepura, Jayapura City";"PAPUA";"99225";"Indonesia";" 0967588677";"";"";"-2.6077336";"140.6742812";"https://maps.google.com/?cid=0x0:0x3b19f301c68f1d6f";""
"toko bangunan";"Toko Bahan Bangunan";"Padma Bangunan";"Wai Mhorock, Kec. Abepura, Kota Jayapura, Papua 99225";"Kec. Abepura, Kota Jayapura";"PAPUA";"99225";"Indonesia";" 09675180108";"";"";"-2.6096427";"140.6725314";"https://maps.google.com/?cid=0x0:0x908e38e219cfc28";""
"toko bangunan";"toko bangunan";"Distrik Iniyandit";"Kabupaten Boven Digoel, Papua";"Kabupaten Boven Digoel, Papua";"PAPUA";"";"Indonesia";"";"";"";"-5.7470313";"140.6432017";"https://maps.google.com/?cid=0x0:0xefab246d2462f016";""
"toko bangunan";"Toko";"Toko Abadi";"jalan trans, Persatuan, Kec. Mandobo, Kabupaten Boven Digoel, Papua 99663";"Persatuan, Kec. Mandobo, Kabupaten Boven Digoel";"PAPUA";"99663";"Indonesia";" 082197348947";"";"";"-6.1021675";"140.3183316";"https://maps.google.com/?cid=0x0:0xdee33d09caab54d2";""
"toko bangunan";"toko bangunan";"Sanjaya Abadi";"4MVV+5XG, Osso, Kec. Mindiptana, Kabupaten Boven Digoel, Papua";"Kabupaten Boven Digoel, Papua";"PAPUA";"";"Indonesia";"";"";"";"-5.857056";"140.6949438";"https://maps.google.com/?cid=0x0:0x32f10331b3a61a9d";""
"toko bangunan";"Toko Bahan Bangunan";"UD. Anugerah Abadi";"V8W8+526, Persatuan, Kec. Mandobo, Kabupaten Boven Digoel, Papua";"Kabupaten Boven Digoel, Papua";"PAPUA";"";"Indonesia";"";"";"";"-6.1045815";"140.3150258";"https://maps.google.com/?cid=0x0:0xeeca0aee368caf42";""
"toko bangunan";"toko bangunan";"Arimop";"Kabupaten Boven Digoel, Papua";"Kabupaten Boven Digoel, Papua";"PAPUA";"";"Indonesia";"";"";"";"-5.8140209";"140.4308159";"https://maps.google.com/?cid=0x0:0xf6e05b87dda2034d";""
"toko bangunan";"Toko";"Toko Abadi";"jalan trans, Persatuan, Kec. Mandobo, Kabupaten Boven Digoel, Papua 99663";"Persatuan, Kec. Mandobo, Kabupaten Boven Digoel";"PAPUA";"99663";"Indonesia";" 082197348947";"";"";"-6.1021675";"140.3183316";"https://maps.google.com/?cid=0x0:0xdee33d09caab54d2";""
"toko bangunan";"Toko";"TOKO BANGUNAN SUMBER ANUGERAH";"Persatuan, Kec. Mandobo, Kabupaten Boven Digoel, Papua 99663";"Kec. Mandobo, Kabupaten Boven Digoel";"PAPUA";"99663";"Indonesia";"";"";"";"-6.0903965";"140.3331897";"https://maps.google.com/?cid=0x0:0x9b0d3e5a6263752a";""
"toko bangunan";"Toko";"Toko Dua Sahabat/Jotun";"Jln. Trans Papua kilo 2, Kabupaten Boven Digoel";"Kabupaten Boven Digoel, Papua";"PAPUA";"";"Indonesia";"";"";"";"-6.0959217";"140.3245587";"https://maps.google.com/?cid=0x0:0xe788284fb59d6345";""
"toko bangunan";"Toko";"Toko Abadi";"jalan trans, Persatuan, Kec. Mandobo, Kabupaten Boven Digoel, Papua 99663";"Persatuan, Kec. Mandobo, Kabupaten Boven Digoel";"PAPUA";"99663";"Indonesia";" 082197348947";"";"";"-6.1021675";"140.3183316";"https://maps.google.com/?cid=0x0:0xdee33d09caab54d2";""
"toko bangunan";"Toko Bahan Bangunan";"UD. Anugerah Abadi";"V8W8+526, Persatuan, Kec. Mandobo, Kabupaten Boven Digoel, Papua";"Kabupaten Boven Digoel, Papua";"PAPUA";"";"Indonesia";"";"";"";"-6.1045815";"140.3150258";"https://maps.google.com/?cid=0x0:0xeeca0aee368caf42";""
"toko bangunan";"toko bangunan";"Papua 99664";"Kabupaten Boven Digoel, Papua";"Kabupaten Boven Digoel, Papua";"PAPUA";"";"Indonesia";"";"";"";"-5.5720214";"140.7624493";"https://maps.google.com/?cid=0x0:0x4763b936197cab93";""
"toko bangunan";"Toko";"Jaya Bangun Utama";"6GH9+VPV, Unnamed Road, Iriati, Distrik Wasior, Kabupaten Teluk Wondama, Papua Bar. 98362";"Unnamed Road, Iriati, Distrik Wasior, Kabupaten Teluk Wondama";"PAPUA";"98362";"Indonesia";" 085298357980";"";"";"-2.7702528";"134.5193086";"https://maps.google.com/?cid=0x0:0x7b7706dc36edb6d8";""
"toko bangunan";"Toko";"Toko Dua Sahabat/Jotun";"Jln. Trans Papua kilo 2, Kabupaten Boven Digoel";"Kabupaten Boven Digoel, Papua";"PAPUA";"";"Indonesia";"";"";"";"-6.0959217";"140.3245587";"https://maps.google.com/?cid=0x0:0xe788284fb59d6345";""
"toko bangunan";"Toko Bahan Bangunan";"TOKO BINTANG BANGUNAN";"Wai Mhorock, Kec. Abepura, Kota Jayapura, Papua 99225";"Kec. Abepura, Kota Jayapura";"PAPUA";"99225";"Indonesia";" 081211357969";"";"";"-2.6065155";"140.6747591";"https://maps.google.com/?cid=0x0:0xedd7cb0b345a46c4";""
"toko bangunan";"Toko Bahan Bangunan";"Toko Central Bangunan / AMK";"Jl. Perikanan No.08, Hamadi, Distrik Jayapura Selatan, Kota Jayapura, Papua 99222";"Hamadi, Distrik Jayapura Selatan, Kota Jayapura";"PAPUA";"99222";"Indonesia";" 082261057928";"";"";"-2.5584767";"140.7173289";"https://maps.google.com/?cid=0x0:0xcfdf592c00fbd20d";""
"toko bangunan";"Toko Bahan Bangunan";"Pt. Anugerah Maha Karya AMK hamadi";"Jl. Perikanan No.8, Hamadi, Distrik Jayapura Selatan, Kota Jayapura, Papua 99222";"Hamadi, Distrik Jayapura Selatan, Kota Jayapura";"PAPUA";"99222";"Indonesia";" 081343391039";"";"";"-2.5584856";"140.7173589";"https://maps.google.com/?cid=0x0:0x83c61e3475dd6b15";""
"toko bangunan";"Toko Bahan Bangunan";"Toko AKBAR bangunan";"2W63+2XM, Dawaikunu, Distrik Mapia, Kabupaten Dogiyai, Papua";"Kabupaten Dogiyai, Papua";"PAPUA";"";"Indonesia";" 08161999912";"";"";"-3.989908";"135.904907";"https://maps.google.com/?cid=0x0:0x54762d941a6ba240";""
"toko bangunan";"Toko";"Toko Abadi";"jalan trans, Persatuan, Kec. Mandobo, Kabupaten Boven Digoel, Papua 99663";"Persatuan, Kec. Mandobo, Kabupaten Boven Digoel";"PAPUA";"99663";"Indonesia";" 082197348947";"";"";"-6.1021675";"140.3183316";"https://maps.google.com/?cid=0x0:0xdee33d09caab54d2";""
"toko bangunan";"toko bangunan";"Ambatkwi";"Kabupaten Boven Digoel, Papua";"Kabupaten Boven Digoel, Papua";"PAPUA";"";"Indonesia";"";"";"";"-5.3948021";"140.6378804";"https://maps.google.com/?cid=0x0:0x3a215afc7936b662";""
"toko bangunan";"Toko Bahan Bangunan";"ANEKA BANGUNAN";"Wosi, Kec. Manokwari Bar., Kabupaten Manokwari, Papua Bar. 98312";"Kec. Manokwari Bar., Kabupaten Manokwari";"PAPUA";"98312";"Indonesia";" 081344843001";"";"";"-0.8631883";"134.0498559";"https://maps.google.com/?cid=0x0:0x3598159af16f30ea";""
"toko bangunan";"Toko";"TOKO BANGUNAN SUMBER ANUGERAH";"Persatuan, Kec. Mandobo, Kabupaten Boven Digoel, Papua 99663";"Kec. Mandobo, Kabupaten Boven Digoel";"PAPUA";"99663";"Indonesia";"";"";"";"-6.0903965";"140.3331897";"https://maps.google.com/?cid=0x0:0x9b0d3e5a6263752a";""
"toko bangunan";"toko bangunan";"Manggelum";"Distrik Manggelum, Kabupaten Boven Digoel, Papua";"Kabupaten Boven Digoel, Papua";"PAPUA";"";"Indonesia";"";"";"";"-5.3697435";"140.4204808";"https://maps.google.com/?cid=0x0:0xa227866e6b216e";""
"toko bangunan";"toko bangunan";"Distrik Manggelum";"Kabupaten Boven Digoel, Papua";"Kabupaten Boven Digoel, Papua";"PAPUA";"";"Indonesia";"";"";"";"-5.3141695";"140.3212401";"https://maps.google.com/?cid=0x0:0xda512ae0ae71c8e3";""
"toko bangunan";"Toko";"TOKO BANGUNAN SUMBER ANUGERAH";"Persatuan, Kec. Mandobo, Kabupaten Boven Digoel, Papua 99663";"Kec. Mandobo, Kabupaten Boven Digoel";"PAPUA";"99663";"Indonesia";"";"";"";"-6.0903965";"140.3331897";"https://maps.google.com/?cid=0x0:0x9b0d3e5a6263752a";""
"toko bangunan";"toko bangunan";"Firiwage";"Kabupaten Boven Digoel, Papua";"Kabupaten Boven Digoel, Papua";"PAPUA";"";"Indonesia";"";"";"";"-5.386511";"140.1009527";"https://maps.google.com/?cid=0x0:0x46c5d4072a44c619";""
"toko bangunan";"toko bangunan";"Firiwage";"Firiwage, Kabupaten Boven Digoel, Papua";"Kabupaten Boven Digoel, Papua";"PAPUA";"";"Indonesia";"";"";"";"-5.520689";"140.115204";"https://maps.google.com/?cid=0x0:0x19410c614180567f";""
"toko bangunan";"Toko";"TOKO BANGUNAN SUMBER ANUGERAH";"Persatuan, Kec. Mandobo, Kabupaten Boven Digoel, Papua 99663";"Kec. Mandobo, Kabupaten Boven Digoel";"PAPUA";"99663";"Indonesia";"";"";"";"-6.0903965";"140.3331897";"https://maps.google.com/?cid=0x0:0x9b0d3e5a6263752a";""
"toko bangunan";"toko bangunan";"UD CENDARAWASIH";"8CQ6+5G4, Asiki, Kec. Jair, Kabupaten Boven Digoel, Papua 99661";"Asiki, Kec. Jair, Kabupaten Boven Digoel";"PAPUA";"99661";"Indonesia";"";"";"";"-6.662109";"140.4113198";"https://maps.google.com/?cid=0x0:0x320c3a2af8ff84af";""
"toko bangunan";"Toko Bahan Bangunan";"Toko Bangunan Agung Jaya";"JL KH. Sholeh Iskandar (Jalan Baru), No. 168 Depan Rumah Makan Ampera,, Sesudah Bukit Cimanggu City, Kedung Jaya, Kedung Waringin, RT.05/RW.09, Kedung Jaya, Kec. Tanah Sereal, Kota Bogor, Jawa Barat 16163";"No. 168 Depan Rumah Makan Ampera,, Sesudah Bukit Cimanggu City, Kedung Jaya, Kedung Waringin, RT.05/RW.09, Kedung Jaya, Kec. Tanah Sereal, Kota Bogor";"PAPUA";"16163";"Indonesia";" 08179170666";"";"";"-6.5583245";"106.7841321";"https://maps.google.com/?cid=0x0:0xf9b3de623d8a987d";""
"toko bangunan";"toko bangunan";"Papua 99664";"Kabupaten Boven Digoel, Papua";"Kabupaten Boven Digoel, Papua";"PAPUA";"";"Indonesia";"";"";"";"-5.5720214";"140.7624493";"https://maps.google.com/?cid=0x0:0x4763b936197cab93";""
"toko bangunan";"Toko";"Jaya Bangun Utama";"6GH9+VPV, Unnamed Road, Iriati, Distrik Wasior, Kabupaten Teluk Wondama, Papua Bar. 98362";"Unnamed Road, Iriati, Distrik Wasior, Kabupaten Teluk Wondama";"PAPUA";"98362";"Indonesia";" 085298357980";"";"";"-2.7702528";"134.5193086";"https://maps.google.com/?cid=0x0:0x7b7706dc36edb6d8";""
"toko bangunan";"Toko Bahan Bangunan";"Supermarket Multi Bangunan";"Jl Baru No.98, Wai Mhorock, Abepura, Jayapura City, Papua 99225";"Wai Mhorock, Abepura, Jayapura City";"PAPUA";"99225";"Indonesia";" 0967588677";"";"";"-2.6077336";"140.6742812";"https://maps.google.com/?cid=0x0:0x3b19f301c68f1d6f";""
"toko bangunan";"Toko Bahan Bangunan";"TOKO BANGUNAN RYSTER MULIA";"9MXG+G7R, Wai Mhorock, Kec. Abepura, Kota Jayapura, Papua 99225";"Wai Mhorock, Kec. Abepura, Kota Jayapura";"PAPUA";"99225";"Indonesia";" 085100115858";"";"";"-2.6011446";"140.6756371";"https://maps.google.com/?cid=0x0:0x4886e2a9293c5411";""
"toko bangunan";"Toko Bahan Bangunan";"Toko Bangunan Mutiara timur";"CJ3R+33F, Unnamed Road, Kp. Waena, Kec. Heram, Kota Jayapura, Papua 99225";"Unnamed Road, Kp. Waena, Kec. Heram, Kota Jayapura";"PAPUA";"99225";"Indonesia";"";"";"";"-2.5973134";"140.6401625";"https://maps.google.com/?cid=0x0:0x392e56b1342d758c";""
"toko bangunan";"Toko Bahan Bangunan";"Toko Bangunan naira";"Wanagon, Jl. Poros SP V - SP II, Kec. Mimika Baru, Kabupaten Mimika, Papua 99952";"Jl. Poros SP V - SP II, Kec. Mimika Baru, Kabupaten Mimika";"PAPUA";"99952";"Indonesia";" 085145118770";"";"";"-4.5180236";"136.8426916";"https://maps.google.com/?cid=0x0:0x41539a335a8db899";""
"toko bangunan";"Toko Bahan Bangunan";"Toko bangunan Arini Djaya";"Upt Arso IX / Intaimilyan, Kec. Skanto, Kabupaten Keerom, Papua 99468";"Kec. Skanto, Kabupaten Keerom";"PAPUA";"99468";"Indonesia";"";"";"";"-2.7845315";"140.660086";"https://maps.google.com/?cid=0x0:0x21397f5597e72b11";""
"toko bangunan";"Toko Bahan Bangunan";"Royal Bangunan (PT. Papua Jaya Bangunan)";"43P8+87R, Jl. Percetakan Negara, Sanggeng, Kec. Manokwari Bar., Kabupaten Manokwari, Papua Bar. 98312";"Jl. Percetakan Negara, Sanggeng, Kec. Manokwari Bar., Kabupaten Manokwari";"PAPUA";"98312";"Indonesia";" 087784554955";"";"";"-0.8641385";"134.0656252";"https://maps.google.com/?cid=0x0:0x99b3b4ac0bad58a";""
"toko bangunan";"Toko Bahan Bangunan";"Toko Bangunan " Trio NUGRAHA" kertosari";"FCHF+H72, Unnamed Road, Sabron Sari, Distrik Sentani Barat, Kabupaten Jayapura, Papua 99358";"Unnamed Road, Sabron Sari, Distrik Sentani Barat, Kabupaten Jayapura";"PAPUA";"99358";"Indonesia";" 085254232431";"";"";"-2.5211009";"140.423142";"https://maps.google.com/?cid=0x0:0x62fb937eb764d3e";""
"toko bangunan";"Toko Bahan Bangunan";"Toko Sentra Bangunan";"Jl. Garuda No.7, Yuwanain, Arso II, Kabupaten Keerom, Papua 99468";"Yuwanain, Arso II, Kabupaten Keerom";"PAPUA";"99468";"Indonesia";" 081240505719";"";"";"-2.9027275";"140.7524692";"https://maps.google.com/?cid=0x0:0x5a7a0ae632131e91";""
"toko bangunan";"Toko Bahan Bangunan";"Mulia Jaya Toko Bangunan";"WW9Q+9M5, Jl. Hom-Hom, Hetuma, Distrik Wamena, Kabupaten Jayawijaya, Papua 99511";"Jl. Hom-Hom, Hetuma, Distrik Wamena, Kabupaten Jayawijaya";"PAPUA";"99511";"Indonesia";" 082121654001";"";"";"-4.0816058";"138.9392432";"https://maps.google.com/?cid=0x0:0xe35085cf901d3afb";""
"toko bangunan";"Toko Bahan Bangunan";"Toko Bangunan Agung Papua";"CJ2P+W8F, Jl. Raya Waena, Kp. Waena, Kec. Heram, Kota Jayapura, Papua 99351";"Jl. Raya Waena, Kp. Waena, Kec. Heram, Kota Jayapura";"PAPUA";"99351";"Indonesia";"";"";"";"-2.5976776";"140.6357935";"https://maps.google.com/?cid=0x0:0xe204736893cd26aa";""
"toko bangunan";"Toko bahan makanan";"Toko bangunan ABADI JAYA";"Jl. Raya sarmi No.blok A, Bunyom, Distrik Nimbokrang, Kabupaten Jayapura, Papua 99361";"Bunyom, Distrik Nimbokrang, Kabupaten Jayapura";"PAPUA";"99361";"Indonesia";" 085382577209";"";"";"-2.557175";"140.1088301";"https://maps.google.com/?cid=0x0:0x1ca51d4d8a0ae01a";""
"toko bangunan";"Toko Bahan Bangunan";"Toko Rumba Raya";"G524+8HJ, Sabri, Distrik Ransiki, Kabupaten Manokwari, Papua Bar. 98355";"Sabri, Distrik Ransiki, Kabupaten Manokwari";"PAPUA";"98355";"Indonesia";"";"";"";"-1.4991633";"134.1563785";"https://maps.google.com/?cid=0x0:0xa9c01ef767a67dcb";""
"toko bangunan";"Toko Bahan Bangunan";"TOKO BANGUNAN DIKA JAYA";"Jl. Dermaga Aikai. Enarotali Distrik Paniai Timur Kabupaten Paniai. Papua, Aikai, Paniai Tim., Enarotali, Papua 98711";"Aikai, Paniai Tim., Enarotali";"PAPUA";"98711";"Indonesia";" 081935935177";"";"";"-3.9309089";"136.3727901";"https://maps.google.com/?cid=0x0:0x814ba48a8059765f";""
"toko bangunan";"Toko Bahan Bangunan";"Toko Bangunan Karunia Jaya Abadi";"4PCV+PQW, Asiaman, Kec. Arso, Kabupaten Keerom, Papua 99468";"Asiaman, Kec. Arso, Kabupaten Keerom";"PAPUA";"99468";"Indonesia";" 082238365051";"";"";"-2.8781414";"140.7444425";"https://maps.google.com/?cid=0x0:0xe5cd3a535bf4a26b";""
"toko bangunan";"Toko Bahan Bangunan";"Toko Bangunan Arso Jaya";"6Q35+6HV, Jl. Wijaya Kusuma, Arso I. / Sanggaria, Kec. Arso, Kabupaten Keerom, Papua 99468";"Jl. Wijaya Kusuma, Arso I. / Sanggaria, Kec. Arso, Kabupaten Keerom";"PAPUA";"99468";"Indonesia";" 085244068633";"";"";"-2.7968972";"140.7589213";"https://maps.google.com/?cid=0x0:0x1bf911e0dc6cab7";""
"toko bangunan";"Toko bahan makanan";"Toko Irian";"Jl. Manokwari - Bintuni, Ransiki Kota, Distrik Ransiki, Kab. Manokwari Selatan, Papua Bar. 98355";"Ransiki Kota, Distrik Ransiki, Kab. Manokwari Selatan";"PAPUA";"98355";"Indonesia";"";"";"";"-1.5078497";"134.1712887";"https://maps.google.com/?cid=0x0:0xf38ba09157a6ee94";""
"toko bangunan";"Toko Bahan Bangunan";"MITRA JITU TOKO BANGUNAN";"Mandala, Kec. Jayapura Utara, Kota Jayapura, Papua";"Kota Jayapura, Papua";"PAPUA";"";"Indonesia";" 081389993951";"";"";"-2.5312097";"140.7206979";"https://maps.google.com/?cid=0x0:0x105c310ef543f2a3";""
"toko bangunan";"Toko";"Toko Rani Jaya";"QH9V+R4W, Tlk, Samabusa, Distrik Tlk. Kimi, Kabupaten Nabire, Papua 98818";"Tlk, Samabusa, Distrik Tlk. Kimi, Kabupaten Nabire";"PAPUA";"98818";"Indonesia";"";"";"";"-3.2303914";"135.5928205";"https://maps.google.com/?cid=0x0:0xf69706fa32650118";""
"toko bangunan";"toko bangunan";"Yaniruma";"Kabupaten Boven Digoel, Papua";"Kabupaten Boven Digoel, Papua";"PAPUA";"";"Indonesia";"";"";"";"-5.3309677";"139.8137871";"https://maps.google.com/?cid=0x0:0x9130b38cdf369076";""
"toko bangunan";"toko bangunan";"Yaniruma";"Yaniruma, Kabupaten Boven Digoel, Papua";"Kabupaten Boven Digoel, Papua";"PAPUA";"";"Indonesia";"";"";"";"-5.133259";"139.8137871";"https://maps.google.com/?cid=0x0:0x7438a5bbd533ec60";""
"toko bangunan";"Toko";"Toko Dua Sahabat/Jotun";"Jln. Trans Papua kilo 2, Kabupaten Boven Digoel";"Kabupaten Boven Digoel, Papua";"PAPUA";"";"Indonesia";"";"";"";"-6.0959217";"140.3245587";"https://maps.google.com/?cid=0x0:0xe788284fb59d6345";""
"toko bangunan";"Pusat Perbelanjaan";"TB. Jaya Murni";"Jl. Raya Pangulah No.12, Pangulah Sel., Kec. Kota Baru, Karawang, Jawa Barat 41374";"Pangulah Sel., Kec. Kota Baru, Karawang";"PAPUA";"41374";"Indonesia";" 0264317777";"";"";"-6.4065984";"107.4889565";"https://maps.google.com/?cid=0x0:0x446e6150b7d2a3a3";""
"toko bangunan";"toko bangunan";"Papua 99661";"Kabupaten Boven Digoel, Papua";"Kabupaten Boven Digoel, Papua";"PAPUA";"";"Indonesia";"";"";"";"-6.6725506";"140.1832516";"https://maps.google.com/?cid=0x0:0x6942b94e71194057";""
"toko bangunan";"Toko";"TOKO BANGUNAN SUMBER ANUGERAH";"Persatuan, Kec. Mandobo, Kabupaten Boven Digoel, Papua 99663";"Kec. Mandobo, Kabupaten Boven Digoel";"PAPUA";"99663";"Indonesia";"";"";"";"-6.0903965";"140.3331897";"https://maps.google.com/?cid=0x0:0x9b0d3e5a6263752a";""
"toko bangunan";"Toko";"Toko Dua Sahabat/Jotun";"Jln. Trans Papua kilo 2, Kabupaten Boven Digoel";"Kabupaten Boven Digoel, Papua";"PAPUA";"";"Indonesia";"";"";"";"-6.0959217";"140.3245587";"https://maps.google.com/?cid=0x0:0xe788284fb59d6345";""
"toko bangunan";"Toko Bahan Bangunan";"TB. Subur";"Jl. Kemandoran I No.72, RT.1/RW.4, Grogol Utara, Kec. Kby. Lama, Kota Jakarta Selatan, Daerah Khusus Ibukota Jakarta 12210";"RT.1/RW.4, Grogol Utara, Kec. Kby. Lama, Kota Jakarta Selatan";"PAPUA";"12210";"Indonesia";" 0215482939";"";"";"-6.2106586";"106.7897946";"https://maps.google.com/?cid=0x0:0x73a7aff908983637";""
"toko bangunan";"Toko Bahan Bangunan";"TB SUBUR JAYA AKASIA";"Jl.Akasia Rt.001/018 No.40, Pamulang Tim., Kec. Pamulang, Kota Tangerang Selatan, Banten 15417";"Pamulang Tim., Kec. Pamulang, Kota Tangerang Selatan";"PAPUA";"15417";"Indonesia";" 082124434334";"";"";"-6.3413334";"106.7447851";"https://maps.google.com/?cid=0x0:0xce95929c751d8ead";""
"toko bangunan";"Toko Bahan Bangunan";"Toko Subur";"Jl. Angkur No.9, Kayu Putih, Kec. Pulo Gadung, Kota Jakarta Timur, Daerah Khusus Ibukota Jakarta 13210";"Kayu Putih, Kec. Pulo Gadung, Kota Jakarta Timur";"PAPUA";"13210";"Indonesia";" 0214891259";"";"";"-6.1864773";"106.8855249";"https://maps.google.com/?cid=0x0:0xda973cee8cf25092";""
"toko bangunan";"Toko Bahan Bangunan";"Toko Subur Jaya";"Jl. Danau Sunter Utara No.10-11 Blok G3, Sunter Agung, Tanjung Priok, North Jakarta City, Jakarta 14350";"Sunter Agung, Tanjung Priok, North Jakarta City";"PAPUA";"14350";"Indonesia";" 081808090335";"";"";"-6.1382031";"106.8689354";"https://maps.google.com/?cid=0x0:0x4631f8f9504b7608";""
"toko bangunan";"Toko Bahan Bangunan";"Tb. Subur Tomang";"Jl. Mandala Utara No.23, RT.16/RW.4, Tomang, Kec. Grogol petamburan, Kota Jakarta Barat, Daerah Khusus Ibukota Jakarta 11440";"RT.16/RW.4, Tomang, Kec. Grogol petamburan, Kota Jakarta Barat";"PAPUA";"11440";"Indonesia";" 0215684001";"";"";"-6.1722424";"106.7983104";"https://maps.google.com/?cid=0x0:0xfc308b94f14ed04d";""
"toko bangunan";"Toko Bahan Bangunan";"TB. PUTRA SUBUR";"Jl. Kihajar Dewantara, RT.4/RW.3, Ciputat, Kec. Ciputat, Kota Tangerang Selatan, Banten 15411";"RT.4/RW.3, Ciputat, Kec. Ciputat, Kota Tangerang Selatan";"PAPUA";"15411";"Indonesia";" 081292308689";"";"";"-6.3043216";"106.7454508";"https://maps.google.com/?cid=0x0:0x9a722e04a823fb61";""
"toko bangunan";"Toko Bahan Bangunan";"Toko BAhan Bangunan SUBUR BARU";"PPP6+WQG, Jl. Pd. Aren/Ceger Raya, Pd. Aren, Kec. Pd. Aren, Kota Tangerang Selatan, Banten 15224";"Jl. Pd. Aren/Ceger Raya, Pd. Aren, Kec. Pd. Aren, Kota Tangerang Selatan";"PAPUA";"15224";"Indonesia";"";"";"";"-6.2626908";"106.7119569";"https://maps.google.com/?cid=0x0:0x91c7c52dec03eff2";""
"toko bangunan";"Toko";"Subur";"Gg. Panca Warga 20 No.8 14, RT.14/RW.3, Cipinang Besar Sel., Kecamatan Jatinegara, Kota Jakarta Timur, Daerah Khusus Ibukota Jakarta 13410";"RT.14/RW.3, Cipinang Besar Sel., Kecamatan Jatinegara, Kota Jakarta Timur";"PAPUA";"13410";"Indonesia";" 0218572102";"";"";"-6.2368429";"106.8811511";"https://maps.google.com/?cid=0x0:0xf5d098ee94706191";""
"toko bangunan";"Toko Bahan Bangunan";"TB. Subur Jaya";"Jl. H. Mugheni I No.20 3, RT.3/RW.4, Pisangan Tim., Kec. Pulo Gadung, Kota Jakarta Timur, Daerah Khusus Ibukota Jakarta 13230";"RT.3/RW.4, Pisangan Tim., Kec. Pulo Gadung, Kota Jakarta Timur";"PAPUA";"13230";"Indonesia";" 0214718388";"";"";"-6.2107521";"106.8759483";"https://maps.google.com/?cid=0x0:0xe35cefa6e6b7c8c3";""
"toko bangunan";"Toko Bahan Bangunan";"Tb. Subur Jaya";"Jl. Kota Bambu Utara II No.21kel 15, RT.15/RW.3, Kota Bambu Utara, Kec. Palmerah, Kota Jakarta Barat, Daerah Khusus Ibukota Jakarta 11420";"RT.15/RW.3, Kota Bambu Utara, Kec. Palmerah, Kota Jakarta Barat";"PAPUA";"11420";"Indonesia";"";"";"";"-6.1835622";"106.8071917";"https://maps.google.com/?cid=0x0:0xa281c6b0a9defd1e";""
"toko bangunan";"Toko Bahan Bangunan";"Toko Bangunan Subur";"Jalan Moh Toha Km 3,8 Nomor 45, Banten, RT.009/RW.011, Periuk Jaya, Kec. Tangerang, Kota Tangerang, Banten 15114";"Banten, RT.009/RW.011, Periuk Jaya, Kec. Tangerang, Kota Tangerang";"PAPUA";"15114";"Indonesia";" 0816901764";"";"";"-6.16734";"106.5998416";"https://maps.google.com/?cid=0x0:0x4077ba9607d14e94";""
"toko bangunan";"Toko Bahan Bangunan";"UD. Subur Makmur";"Gg. Langgar I No.28, RT.6/RW.11, Pisangan Tim., Kec. Pulo Gadung, Kota Jakarta Timur, Daerah Khusus Ibukota Jakarta 13230";"RT.6/RW.11, Pisangan Tim., Kec. Pulo Gadung, Kota Jakarta Timur";"PAPUA";"13230";"Indonesia";" 0214759650";"";"";"-6.2105891";"106.8790619";"https://maps.google.com/?cid=0x0:0x2619bb061b08a205";""
"toko bangunan";"Toko Bahan Bangunan";"Subur Abadi Makmur cibereum";"16610, Jl. Raya Cibeuruem No.5, RT.05/RW.05, Mulyaharja, Kec. Bogor Sel., Kota Bogor, Jawa Barat 16135";"Jl. Raya Cibeuruem No.5, RT.05/RW.05, Mulyaharja, Kec. Bogor Sel., Kota Bogor";"PAPUA";"16135";"Indonesia";" 082110921500";"";"";"-6.634457";"106.7864085";"https://maps.google.com/?cid=0x0:0x33d3120b778a9f50";""
"toko bangunan";"Toko bahan makanan";"Toko SUBUR";"Jl. Kalimantan No.90, Panunggangan Bar., Kec. Cibodas, Kota Tangerang, Banten 15138";"Panunggangan Bar., Kec. Cibodas, Kota Tangerang";"PAPUA";"15138";"Indonesia";" 087773777298";"";"";"-6.2190472";"106.6193068";"https://maps.google.com/?cid=0x0:0xc9f835befc788b06";""
"toko bangunan";"Toko Bahan Bangunan";"Toko Alam Subur";"Jl. Kenari 2 No.1B 4, RT.4/RW.3, Kenari, Kec. Senen, Kota Jakarta Pusat, Daerah Khusus Ibukota Jakarta 10430";"RT.4/RW.3, Kenari, Kec. Senen, Kota Jakarta Pusat";"PAPUA";"10430";"Indonesia";"";"";"";"-6.1926327";"106.84741";"https://maps.google.com/?cid=0x0:0x58755a52bc7de8f8";""
"toko bangunan";"Toko Bahan Bangunan";"TB CAHAYA SUBUR";"Jl. Taruna No.42B 2, RT.2/RW.3, Jati, Kec. Pulo Gadung, Kota Jakarta Timur, Daerah Khusus Ibukota Jakarta 13220";"RT.2/RW.3, Jati, Kec. Pulo Gadung, Kota Jakarta Timur";"PAPUA";"13220";"Indonesia";"";"";"";"-6.1872266";"106.9006954";"https://maps.google.com/?cid=0x0:0xfbbadbf7c819dfa3";""
"toko bangunan";"Toko Bahan Bangunan";"UD Karya Subur";"Jl. Bekasi Timur Raya No.6, RT.1/RW.1, Jatinegara Kaum, Kec. Pulo Gadung, Kota Jakarta Timur, Daerah Khusus Ibukota Jakarta 13250";"RT.1/RW.1, Jatinegara Kaum, Kec. Pulo Gadung, Kota Jakarta Timur";"PAPUA";"13250";"Indonesia";" 0214704208";"";"";"-6.2120197";"106.8971768";"https://maps.google.com/?cid=0x0:0xc810cb972b00144c";""
"toko bangunan";"Toko Bahan Bangunan";"Subur Baru";"PP35+XW7, Jl. Jombang Raya, Jombang, Kec. Ciputat, Kota Tangerang Selatan, Banten 15414";"Jl. Jombang Raya, Jombang, Kec. Ciputat, Kota Tangerang Selatan";"PAPUA";"15414";"Indonesia";"";"";"";"-6.2950934";"106.7097901";"https://maps.google.com/?cid=0x0:0x3d5332a07bacb2a";""
"toko bangunan";"Toko Bahan Bangunan";"TB. Subur Makmur";"Tanah Baru, Kecamatan Beji, Kota Depok, Jawa Barat 16426";"Kecamatan Beji, Kota Depok";"PAPUA";"16426";"Indonesia";" 0217759989";"";"";"-6.3682545";"106.8061572";"https://maps.google.com/?cid=0x0:0x417f9d4ca8feec42";""
"toko bangunan";"Toko Bahan Bangunan";"Toko subur makmur";"Jl. Raya Pasir Putih No.4, RT.05/RW.01, Pasir Putih, Kec. Sawangan, Kota Depok, Jawa Barat 16519";"RT.05/RW.01, Pasir Putih, Kec. Sawangan, Kota Depok";"PAPUA";"16519";"Indonesia";" 081298621508";"";"";"-6.4130995";"106.7802349";"https://maps.google.com/?cid=0x0:0x11b886180006fa7";""
"toko bangunan";"toko bangunan";"Papua 99664";"Kabupaten Boven Digoel, Papua";"Kabupaten Boven Digoel, Papua";"PAPUA";"";"Indonesia";"";"";"";"-5.5720214";"140.7624493";"https://maps.google.com/?cid=0x0:0x4763b936197cab93";""
"toko bangunan";"Toko Bahan Bangunan";"Toko Sinar Abadi";"Jl Yahim - Pertigaan Komba, Pasar lama, Dobonsolo, Sentani, Jayapura Regency, Papua 99359";"Pasar lama, Dobonsolo, Sentani, Jayapura Regency";"PAPUA";"99359";"Indonesia";" 083169724040";"";"";"-2.571373";"140.504457";"https://maps.google.com/?cid=0x0:0x269ccc3b2d9a6fd7";""
"toko bangunan";"Toko Bahan Bangunan";"Toko Bangunan Murah";"Jln. Paniai, Koya Bar., Kec. Muara Tami, Kota Jayapura, Papua 99351";"Koya Bar., Kec. Muara Tami, Kota Jayapura";"PAPUA";"99351";"Indonesia";" 081240619776";"";"";"-2.6723927";"140.8048351";"https://maps.google.com/?cid=0x0:0xe1e0b7ba8ced921";""
"toko bangunan";"Toko Bahan Bangunan";"Supermarket Multi Bangunan";"Jl Baru No.98, Wai Mhorock, Abepura, Jayapura City, Papua 99225";"Wai Mhorock, Abepura, Jayapura City";"PAPUA";"99225";"Indonesia";" 0967588677";"";"";"-2.6077336";"140.6742812";"https://maps.google.com/?cid=0x0:0x3b19f301c68f1d6f";""
"toko bangunan";"Toko Bahan Bangunan";"Toko Central Bangunan / AMK";"Jl. Perikanan No.08, Hamadi, Distrik Jayapura Selatan, Kota Jayapura, Papua 99222";"Hamadi, Distrik Jayapura Selatan, Kota Jayapura";"PAPUA";"99222";"Indonesia";" 082261057928";"";"";"-2.5584767";"140.7173289";"https://maps.google.com/?cid=0x0:0xcfdf592c00fbd20d";""
"toko bangunan";"toko bangunan";"Distrik Kombay";"Kabupaten Boven Digoel, Papua";"Kabupaten Boven Digoel, Papua";"PAPUA";"";"Indonesia";"";"";"";"-5.2411588";"140.002598";"https://maps.google.com/?cid=0x0:0xc9517f2d74b67994";""
"toko bangunan";"toko bangunan";"Toko Setia Jaya";"Jalur 1 Pemukiman, Massi, Dekai, Yahukimo regency, Papua 99571";"Massi, Dekai, Yahukimo regency";"PAPUA";"99571";"Indonesia";"";"";"";"-4.868089";"139.4804649";"https://maps.google.com/?cid=0x0:0x51d179f2b2120307";""
"toko bangunan";"Toko Bahan Bangunan";"Toko Bangunan Mitra Kita (kapuk)";"13, Jl. Kapuk Kayu Besar No.35 A, RT.13/RW.11, Cengkareng Tim., Kecamatan Cengkareng, Kota Jakarta Barat, Daerah Khusus Ibukota Jakarta 11730";"Jl. Kapuk Kayu Besar No.35 A, RT.13/RW.11, Cengkareng Tim., Kecamatan Cengkareng, Kota Jakarta Barat";"PAPUA";"11730";"Indonesia";" 081803878788";"";"";"-6.1229512";"106.7329576";"https://maps.google.com/?cid=0x0:0x6dd4da837c3adf4d";""
"toko bangunan";"toko bangunan";"Toko Cahaya Bangunan Komba";"Komba, Kec. Larompong, Kabupaten Luwu, Sulawesi Selatan";"Kabupaten Luwu, Sulawesi Selatan";"PAPUA";"";"Indonesia";"";"";"";"-3.5277568";"120.3684708";"https://maps.google.com/?cid=0x0:0x9db63cc40e97e065";""
"toko bangunan";"toko bangunan";"Ninati";"Kec. Ninati, Kabupaten Boven Digoel, Papua";"Kabupaten Boven Digoel, Papua";"PAPUA";"";"Indonesia";"";"";"";"-5.6921917";"140.8976772";"https://maps.google.com/?cid=0x0:0x13da9fadbf1b0435";""
"toko bangunan";"toko bangunan";"Kec. Ninati";"Kabupaten Boven Digoel, Papua";"Kabupaten Boven Digoel, Papua";"PAPUA";"";"Indonesia";"";"";"";"-5.7014629";"140.9080913";"https://maps.google.com/?cid=0x0:0xda09b58114f50eda";""
"toko bangunan";"Pemasok Bahan Bangunan";"Toko Bangunan Duta Tunggal Anugerah (DTA)";"JGQ2+XR7, Jl. Dr. Sam Ratulangi, Oyehe, Distrik Nabire, Kabupaten Nabire, Papua 98811";"Jl. Dr. Sam Ratulangi, Oyehe, Distrik Nabire, Kabupaten Nabire";"PAPUA";"98811";"Indonesia";" 098425750";"";"";"-3.3600946";"135.5020576";"https://maps.google.com/?cid=0x0:0x7c6c633951692b44";""
"toko bangunan";"toko bangunan";"Sesnuk";"Kec. Sesnuk, Kabupaten Boven Digoel, Papua";"Kabupaten Boven Digoel, Papua";"PAPUA";"";"Indonesia";"";"";"";"-6.1921334";"140.700134";"https://maps.google.com/?cid=0x0:0x5a676998cc2d21aa";""
"toko bangunan";"Toko";"TOKO BANGUNAN SUMBER ANUGERAH";"Persatuan, Kec. Mandobo, Kabupaten Boven Digoel, Papua 99663";"Kec. Mandobo, Kabupaten Boven Digoel";"PAPUA";"99663";"Indonesia";"";"";"";"-6.0903965";"140.3331897";"https://maps.google.com/?cid=0x0:0x9b0d3e5a6263752a";""
"toko bangunan";"Toko";"Toko Dua Sahabat/Jotun";"Jln. Trans Papua kilo 2, Kabupaten Boven Digoel";"Kabupaten Boven Digoel, Papua";"PAPUA";"";"Indonesia";"";"";"";"-6.0959217";"140.3245587";"https://maps.google.com/?cid=0x0:0xe788284fb59d6345";""
"toko bangunan";"Toko bahan makanan";"Toko Bangunan Zahra";"GQ4W+JGQ, Unnamed Road, Tlk. Gelam,, Penyandingan, Kec. Tlk. Gelam, Kabupaten Ogan Komering Ilir, Sumatera Selatan 30673";"Unnamed Road, Tlk. Gelam,, Penyandingan, Kec. Tlk. Gelam, Kabupaten Ogan Komering Ilir";"PAPUA";"30673";"Indonesia";" 081317555366";"";"";"-3.4934134";"104.7963453";"https://maps.google.com/?cid=0x0:0x98ec6b42c493df8b";""
"toko bangunan";"toko bangunan";"Papua 99661";"Kabupaten Boven Digoel, Papua";"Kabupaten Boven Digoel, Papua";"PAPUA";"";"Indonesia";"";"";"";"-6.6725506";"140.1832516";"https://maps.google.com/?cid=0x0:0x6942b94e71194057";""
"toko bangunan";"Toko Bahan Bangunan";"Supermarket Multi Bangunan";"Jl Baru No.98, Wai Mhorock, Abepura, Jayapura City, Papua 99225";"Wai Mhorock, Abepura, Jayapura City";"PAPUA";"99225";"Indonesia";" 0967588677";"";"";"-2.6077336";"140.6742812";"https://maps.google.com/?cid=0x0:0x3b19f301c68f1d6f";""
"toko bangunan";"Toko";"Toko Dua Sahabat/Jotun";"Jln. Trans Papua kilo 2, Kabupaten Boven Digoel";"Kabupaten Boven Digoel, Papua";"PAPUA";"";"Indonesia";"";"";"";"-6.0959217";"140.3245587";"https://maps.google.com/?cid=0x0:0xe788284fb59d6345";""
"toko bangunan";"Toko Bahan Bangunan";"Guna Karya. TB";"1, Jl. Muria Tanjakan No.20, RT.2/RW.2, Menteng Atas, Kecamatan Setiabudi, Kota Jakarta Selatan, Daerah Khusus Ibukota Jakarta 12960";"Jl. Muria Tanjakan No.20, RT.2/RW.2, Menteng Atas, Kecamatan Setiabudi, Kota Jakarta Selatan";"PAPUA";"12960";"Indonesia";" 081513523232";"";"";"-6.2108588";"106.8379406";"https://maps.google.com/?cid=0x0:0x4547815bf964f6cb";""
"toko bangunan";"Toko Bahan Bangunan";"TB. GUNA KARYA II";"Jl. Mentas Selatan I No.RT06 5, RT.5/RW.12, Menteng Atas, Kecamatan Setiabudi, Kota Jakarta Selatan, Daerah Khusus Ibukota Jakarta 12960";"RT.5/RW.12, Menteng Atas, Kecamatan Setiabudi, Kota Jakarta Selatan";"PAPUA";"12960";"Indonesia";" 0811181895";"";"";"-6.2146775";"106.838011";"https://maps.google.com/?cid=0x0:0xf8ec30ea129b7776";""
"toko bangunan";"Toko Bahan Bangunan";"TB.Dd Bangunan Karet";"Jl. Anggrek I No.22, RT.10/RW.1, Kuningan, Karet Kuningan, Kecamatan Setiabudi, Kota Jakarta Selatan, Daerah Khusus Ibukota Jakarta 12940";"RT.10/RW.1, Kuningan, Karet Kuningan, Kecamatan Setiabudi, Kota Jakarta Selatan";"PAPUA";"12940";"Indonesia";" 082299001171";"";"";"-6.2171933";"106.8236779";"https://maps.google.com/?cid=0x0:0x86a0f50a61b9149b";""
"toko bangunan";"Toko Bahan Bangunan";"TB.Sinar Indah";"Jl. Tebet Timur Raya No.2 9, RT.9/RW.4, Tebet Tim., Kec. Tebet, Kota Jakarta Selatan, Daerah Khusus Ibukota Jakarta 12820";"RT.9/RW.4, Tebet Tim., Kec. Tebet, Kota Jakarta Selatan";"PAPUA";"12820";"Indonesia";"";"";"";"-6.2305191";"106.8526705";"https://maps.google.com/?cid=0x0:0xb448641b57d6b927";""
"toko bangunan";"Toko Bahan Bangunan";"Toko Makmur";"Jl. Kapten Tendean No.12, RT.1/RW.3, Kuningan Bar., Kec. Mampang Prpt., Kota Jakarta Selatan, Daerah Khusus Ibukota Jakarta 12710";"RT.1/RW.3, Kuningan Bar., Kec. Mampang Prpt., Kota Jakarta Selatan";"PAPUA";"12710";"Indonesia";" 08159333385";"";"";"-6.2398459";"106.8250111";"https://maps.google.com/?cid=0x0:0x6cb829b63fde1abb";""
"toko bangunan";"Toko Bahan Bangunan";"TB. Kapuas Raya";"Jl. Pancoran Barat VII No.1, RT.12/RW.6, Pancoran, Kec. Pancoran, DKI Jakarta, Daerah Khusus Ibukota Jakarta 12780";"RT.12/RW.6, Pancoran, Kec. Pancoran, DKI Jakarta";"PAPUA";"12780";"Indonesia";" 085219486909";"";"";"-6.2492423";"106.8362487";"https://maps.google.com/?cid=0x0:0x3aff5ad97aa5b66";""
"toko bangunan";"Toko Bahan Bangunan";"TB. Kian Jaya";"Jl. Siak Raya No.5, RT. 08 No.19 Blok I, RT.2/RW.7, Sukapura, Kec. Cilincing, Jkt Utara, Daerah Khusus Ibukota Jakarta 14140";"RT. 08 No.19 Blok I, RT.2/RW.7, Sukapura, Kec. Cilincing, Jkt Utara";"PAPUA";"14140";"Indonesia";" 081388743399";"";"";"-6.1552308";"106.9231699";"https://maps.google.com/?cid=0x0:0x357ba45da8f5db17";""
"toko bangunan";"Toko Bahan Bangunan";"Toko Terang Jaya";"Jl. Kapten Tendean No.1, RT.1/RW.3, Kuningan Bar., Kec. Mampang Prpt., Kota Jakarta Selatan, Daerah Khusus Ibukota Jakarta 12790";"RT.1/RW.3, Kuningan Bar., Kec. Mampang Prpt., Kota Jakarta Selatan";"PAPUA";"12790";"Indonesia";" 0215251000";"";"";"-6.2397081";"106.8252906";"https://maps.google.com/?cid=0x0:0x1d1c97a315798bd7";""
"toko bangunan";"Toko Bahan Bangunan";"Tb. Sinar Timur";"Jl. Tanah Kusir 2 no.59f Rt. 010/009, RT.10/RW.9, Kby. Lama Sel., Kec. Kby. Lama, Kota Jakarta Selatan, Daerah Khusus Ibukota Jakarta 12240";"RT.10/RW.9, Kby. Lama Sel., Kec. Kby. Lama, Kota Jakarta Selatan";"PAPUA";"12240";"Indonesia";" 081295169990";"";"";"-6.257884";"106.783218";"https://maps.google.com/?cid=0x0:0x199746c8ff917259";""
"toko bangunan";"Toko Bahan Bangunan";"TB. Anggrek Jaya";"No. 05, Jl. Anggrek, RT.20/RW.2, Kuningan, Karet Kuningan, Kecamatan Setiabudi, Kota Jakarta Selatan, Daerah Khusus Ibukota Jakarta 12730";"Jl. Anggrek, RT.20/RW.2, Kuningan, Karet Kuningan, Kecamatan Setiabudi, Kota Jakarta Selatan";"PAPUA";"12730";"Indonesia";"";"";"";"-6.2173835";"106.8269115";"https://maps.google.com/?cid=0x0:0x10ff63718e614f5";""
"toko bangunan";"Toko Bahan Bangunan";"TB. KARYA INDAH";"Jl. Tanah Merdeka No.1A, RT.7/RW.6, Rambutan, Kec. Ciracas, Kota Jakarta Timur, Daerah Khusus Ibukota Jakarta 13830";"RT.7/RW.6, Rambutan, Kec. Ciracas, Kota Jakarta Timur";"PAPUA";"13830";"Indonesia";" 0218403617";"";"";"-6.314416";"106.879659";"https://maps.google.com/?cid=0x0:0xb44adbb28ea30b65";""
"toko bangunan";"Toko Bahan Bangunan";"Toko 21";"JL. Karet Kuningan 21 RT 011/03, Jakarta, 12940, RT.6/RW.3, West Kuningan, Mampang Prapatan, South Jakarta City, Jakarta 12710";"Jakarta,";"PAPUA";"12940";"Indonesia";" 0215255465";"";"";"-6.2373978";"106.8238281";"https://maps.google.com/?cid=0x0:0x9597d558f6044eea";""
"toko bangunan";"Toko Bahan Bangunan";"Matrial Toko Karya Selatan";"Jl. Duren Tiga Selatan No.53 8, RT.8/RW.3, Duren Tiga, Kec. Pancoran, Kota Jakarta Selatan, Daerah Khusus Ibukota Jakarta 12760";"RT.8/RW.3, Duren Tiga, Kec. Pancoran, Kota Jakarta Selatan";"PAPUA";"12760";"Indonesia";" 082156236162";"";"";"-6.2587579";"106.8366425";"https://maps.google.com/?cid=0x0:0xf94fef3a93a10324";""
"toko bangunan";"Toko Perlengkapan Rumah";"TB Karya Maju";"Jl. Moch. Kahfi II No.31 5, RT.5/RW.4, Ciganjur, Kec. Jagakarsa, Kota Jakarta Selatan, Daerah Khusus Ibukota Jakarta 12630";"RT.5/RW.4, Ciganjur, Kec. Jagakarsa, Kota Jakarta Selatan";"PAPUA";"12630";"Indonesia";" 087789539531";"";"";"-6.3447729";"106.8159027";"https://maps.google.com/?cid=0x0:0x1bebfb9c2b3b6433";""
"toko bangunan";"Toko Bahan Bangunan";"Toko Bahan Bangunan Dan Alat-Alat Listrik H.Sukrie";"Jl. Kebon Pala 9 No.6, RT.6/RW.16, Kb. Melati, Kecamatan Tanah Abang, Kota Jakarta Pusat, Daerah Khusus Ibukota Jakarta 10230";"RT.6/RW.16, Kb. Melati, Kecamatan Tanah Abang, Kota Jakarta Pusat";"PAPUA";"10230";"Indonesia";" 0852199901294";"";"";"-6.1961735";"106.8111201";"https://maps.google.com/?cid=0x0:0x9b775873910e6249";""
"toko bangunan";"Toko Bahan Bangunan";"PD. Sinar Agung Material";"Jl. Bendungan Hilir No.72A, RT.5/RW.1, Bend. Hilir, Kecamatan Tanah Abang, Kota Jakarta Pusat, Daerah Khusus Ibukota Jakarta 10210";"RT.5/RW.1, Bend. Hilir, Kecamatan Tanah Abang, Kota Jakarta Pusat";"PAPUA";"10210";"Indonesia";" 0811275570";"";"";"-6.2125064";"106.8125625";"https://maps.google.com/?cid=0x0:0xe82fda928cbb33b3";""
"toko bangunan";"Toko Bahan Bangunan";"TB. Kurnia Jaya II";"Jl. Karet Belakang Barat No.05, RT.20/RW.2, Kuningan, Karet Kuningan, Kecamatan Setiabudi, Kota Jakarta Selatan, Daerah Khusus Ibukota Jakarta 12730";"RT.20/RW.2, Kuningan, Karet Kuningan, Kecamatan Setiabudi, Kota Jakarta Selatan";"PAPUA";"12730";"Indonesia";"";"";"";"-6.2151741";"106.8256951";"https://maps.google.com/?cid=0x0:0x871c9e37ce7b3261";""
"toko bangunan";"Toko Bahan Bangunan";"Tb. Sinar";"Jl. K.S. Tubun No.95 1, RT.1/RW.4, Petamburan, Kecamatan Tanah Abang, Kota Jakarta Pusat, Daerah Khusus Ibukota Jakarta 11410";"RT.1/RW.4, Petamburan, Kecamatan Tanah Abang, Kota Jakarta Pusat";"PAPUA";"11410";"Indonesia";" 0215482179";"";"";"-6.1959607";"106.8051109";"https://maps.google.com/?cid=0x0:0x7e638a663b050339";""
"toko bangunan";"Toko Bahan Bangunan";"TB Alkatiri";"Jl. Salemba Tengah No.65 5, RT.9/RW.8, Paseban, Kec. Senen, Kota Jakarta Pusat, Daerah Khusus Ibukota Jakarta 10440";"RT.9/RW.8, Paseban, Kec. Senen, Kota Jakarta Pusat";"PAPUA";"10440";"Indonesia";" 081807173257";"";"";"-6.1932932";"106.8559083";"https://maps.google.com/?cid=0x0:0x8a14fb61b2e19744";""
"toko bangunan";"toko bangunan";"Papua 99665";"Kabupaten Boven Digoel, Papua";"Kabupaten Boven Digoel, Papua";"PAPUA";"";"Indonesia";"";"";"";"-5.3993592";"140.265662";"https://maps.google.com/?cid=0x0:0x130a65ebf9121fb9";""
"toko bangunan";"Toko";"Toko Dua Sahabat/Jotun";"Jln. Trans Papua kilo 2, Kabupaten Boven Digoel";"Kabupaten Boven Digoel, Papua";"PAPUA";"";"Indonesia";"";"";"";"-6.0959217";"140.3245587";"https://maps.google.com/?cid=0x0:0xe788284fb59d6345";""
"toko bangunan";"Toko";"TOKO BANGUNAN SUMBER ANUGERAH";"Persatuan, Kec. Mandobo, Kabupaten Boven Digoel, Papua 99663";"Kec. Mandobo, Kabupaten Boven Digoel";"PAPUA";"99663";"Indonesia";"";"";"";"-6.0903965";"140.3331897";"https://maps.google.com/?cid=0x0:0x9b0d3e5a6263752a";""
"toko bangunan";"Toko Bahan Bangunan";"Supermarket Multi Bangunan";"Jl Baru No.98, Wai Mhorock, Abepura, Jayapura City, Papua 99225";"Wai Mhorock, Abepura, Jayapura City";"PAPUA";"99225";"Indonesia";" 0967588677";"";"";"-2.6077336";"140.6742812";"https://maps.google.com/?cid=0x0:0x3b19f301c68f1d6f";""
"toko bangunan";"Toko";"Toko Abadi";"jalan trans, Persatuan, Kec. Mandobo, Kabupaten Boven Digoel, Papua 99663";"Persatuan, Kec. Mandobo, Kabupaten Boven Digoel";"PAPUA";"99663";"Indonesia";" 082197348947";"";"";"-6.1021675";"140.3183316";"https://maps.google.com/?cid=0x0:0xdee33d09caab54d2";""
"toko bangunan";"toko bangunan";"Kawagit";"Kabupaten Boven Digoel, Papua";"Kabupaten Boven Digoel, Papua";"PAPUA";"";"Indonesia";"";"";"";"-5.6294411";"140.2244429";"https://maps.google.com/?cid=0x0:0x69ff4aae3e3b8ad2";""
"toko bangunan";"toko bangunan";"Kawagit";"Kawagit, Kabupaten Boven Digoel, Papua";"Kabupaten Boven Digoel, Papua";"PAPUA";"";"Indonesia";"";"";"";"-5.6361368";"140.3069088";"https://maps.google.com/?cid=0x0:0x41ac9de9f0403258";""
"toko bangunan";"Toko Bahan Bangunan";"UD. Anugerah Abadi";"V8W8+526, Persatuan, Kec. Mandobo, Kabupaten Boven Digoel, Papua";"Kabupaten Boven Digoel, Papua";"PAPUA";"";"Indonesia";"";"";"";"-6.1045815";"140.3150258";"https://maps.google.com/?cid=0x0:0xeeca0aee368caf42";""
"hardware store";"hardware store";"Mandobo";"Distrik Kouh, Kabupaten Boven Digoel, Papua";"Kabupaten Boven Digoel, Papua";"PAPUA";"";"Indonesia";"";"";"";"-5.8523321";"140.2862819";"https://maps.google.com/?cid=0x0:0x30ea9430854e3568";""
"hardware store";"Toko";"TOKO BANGUNAN SUMBER ANUGERAH";"Persatuan, Kec. Mandobo, Kabupaten Boven Digoel, Papua 99663";"Kec. Mandobo, Kabupaten Boven Digoel";"PAPUA";"99663";"Indonesia";"";"";"";"-6.0903965";"140.3331897";"https://maps.google.com/?cid=0x0:0x9b0d3e5a6263752a";""
"hardware store";"Toko";"Toko Dua Sahabat/Jotun";"Jln. Trans Papua kilo 2, Kabupaten Boven Digoel";"Kabupaten Boven Digoel, Papua";"PAPUA";"";"Indonesia";"";"";"";"-6.0959217";"140.3245587";"https://maps.google.com/?cid=0x0:0xe788284fb59d6345";""
"hardware store";"Toko Swalayan";"Peleedrink harapan";"Unnamed Road, Persatuan, Kec. Mandobo, Kabupaten Boven Digoel, Papua 99663";"Persatuan, Kec. Mandobo, Kabupaten Boven Digoel";"PAPUA";"99663";"Indonesia";" 081248781111";"";"";"-6.0975987";"140.3222679";"https://maps.google.com/?cid=0x0:0xcf43a77a1333032f";""
"hardware store";"Toko Swalayan";"Swalayan new harapan";"Jl. Trans Papua No.km. 2, Persatuan, Mandobo, Boven Digoel Regency, Papua 99663";"Persatuan, Mandobo, Boven Digoel Regency";"PAPUA";"99663";"Indonesia";" 081248781111";"";"";"-6.1254842";"140.3275427";"https://maps.google.com/?cid=0x0:0xdcc4bfc1d76c22dd";""
"hardware store";"Toko Bahan Bangunan";"Dua sahabat (jotun)";"W83F+HQG, Persatuan, Kec. Mandobo, Kabupaten Boven Digoel, Papua 99663";"Persatuan, Kec. Mandobo, Kabupaten Boven Digoel";"PAPUA";"99663";"Indonesia";"";"";"";"-6.096053";"140.3244447";"https://maps.google.com/?cid=0x0:0xea5ccb20ae3f46f6";""
"hardware store";"Toko Bahan Bangunan";"UD. Anugerah Abadi";"V8W8+526, Persatuan, Kec. Mandobo, Kabupaten Boven Digoel, Papua";"Kabupaten Boven Digoel, Papua";"PAPUA";"";"Indonesia";"";"";"";"-6.1045815";"140.3150258";"https://maps.google.com/?cid=0x0:0xeeca0aee368caf42";""
"hardware store";"Bandara";"Bandar Udara Mindiptana";"4PC5+9J9, Niyimbang, Kec. Mindiptana, Kabupaten Boven Digoel, Papua 99662";"Niyimbang, Kec. Mindiptana, Kabupaten Boven Digoel";"PAPUA";"99662";"Indonesia";"";"";"";"-5.8790945";"140.7091104";"https://maps.google.com/?cid=0x0:0xe63be6e570c913cf";""
"hardware store";"hardware store";"Simpan osso mindip tanah";"4MVV+5XG, Osso, Kec. Mindiptana, Kabupaten Boven Digoel, Papua";"Kabupaten Boven Digoel, Papua";"PAPUA";"";"Indonesia";"";"";"";"-5.857056";"140.6949438";"https://maps.google.com/?cid=0x0:0xadee24a142f7f0f6";""
"hardware store";"Bandara";"Mindiptana Airport";"69X5+PJM, Ujung, Arimop, Kabupaten Boven Digoel, Papua 99663";"Ujung, Arimop, Kabupaten Boven Digoel";"PAPUA";"99663";"Indonesia";"";"";"";"-5.7506632";"140.359033";"https://maps.google.com/?cid=0x0:0x8a1f7c7fe496eb2f";""
"hardware store";"Toko";"PT. UNGGUL JAYA TIMBER";"PERUMAHAN ARAFAH RESIDENCE Blok B No.21, RT.001/RW.009, Srimahi, Kec. Tambun Utara, Kabupaten Bekasi, Jawa Barat 17510";"RT.001/RW.009, Srimahi, Kec. Tambun Utara, Kabupaten Bekasi";"PAPUA";"17510";"Indonesia";" 085780000302";"";"";"-6.1754973";"107.0886316";"https://maps.google.com/?cid=0x0:0x48c9a73a2cfed63f";""
"hardware store";"Jendela Aluminium";"Unggul Jaya Aluminium";"Wanajaya, Kec. Cibitung, Kabupaten Bekasi, Jawa Barat 17520";"Kec. Cibitung, Kabupaten Bekasi";"PAPUA";"17520";"Indonesia";" 085810298885";"";"";"-6.2523535";"107.1010711";"https://maps.google.com/?cid=0x0:0xf91dc57120a202ef";""
"hardware store";"Toko Bahan Bangunan";"Goroka Didiman Hardware";"Edward Street Goroka EHP, 441, Papua Nugini";"Goroka, Papua Nugini";"PAPUA";"";"Indonesia";" +6755322883";"";"";"-6.0844641";"145.3896487";"https://maps.google.com/?cid=0x0:0x5ea480c16c35db7b";""
"hardware store";"hardware store";"Waropko";"Kabupaten Boven Digoel, Papua";"Kabupaten Boven Digoel, Papua";"PAPUA";"";"Indonesia";"";"";"";"-5.4810101";"140.8872648";"https://maps.google.com/?cid=0x0:0xae26c3d96468ea8c";""
"hardware store";"hardware store";"Papua 99661";"Kabupaten Boven Digoel, Papua";"Kabupaten Boven Digoel, Papua";"PAPUA";"";"Indonesia";"";"";"";"-6.6725506";"140.1832516";"https://maps.google.com/?cid=0x0:0x6942b94e71194057";""
"hardware store";"Toko";"Kios 2 R";"8CP6+MCQ, Asiki, Kec. Jair, Kabupaten Boven Digoel, Papua 99661";"Asiki, Kec. Jair, Kabupaten Boven Digoel";"PAPUA";"99661";"Indonesia";"";"";"";"-6.6632759";"140.4111077";"https://maps.google.com/?cid=0x0:0x1652eae805ef6485";""
"hardware store";"Toko Swalayan";"Swalayan new harapan";"Jl. Trans Papua No.km. 2, Persatuan, Mandobo, Boven Digoel Regency, Papua 99663";"Persatuan, Mandobo, Boven Digoel Regency";"PAPUA";"99663";"Indonesia";" 081248781111";"";"";"-6.1254842";"140.3275427";"https://maps.google.com/?cid=0x0:0xdcc4bfc1d76c22dd";""
"hardware store";"Toko Bahan Bangunan";"Lee Hing Hardware S/B";"118, Jln Abang Galau, Taman Sinong, 97000 Bintulu, Sarawak, Malaysia";"Bintulu";"PAPUA";"97000";"Indonesia";" +6086331516";"";"";"3.1695915";"113.0428744";"https://maps.google.com/?cid=0x0:0x98e3029dce33f0ea";""
"hardware store";"Toko Suku Cadang Motor";"Helmin";"Jl. Arjuna IV No.16 Blok D. E4, RT.6/RW.19, Pondok Benda, Pamulang, South Tangerang City, Banten 15416";"RT.6/RW.19, Pondok Benda, Pamulang, South Tangerang City";"PAPUA";"15416";"Indonesia";" 088212178036";"";"";"-6.3606262";"106.7209803";"https://maps.google.com/?cid=0x0:0xdbc23eb6e4642e3";""
"hardware store";"Toko";"All Helmets";"JPWM+MPP, Jl. Suryakencana, RT.5/RW.5, Pamulang Bar., Kec. Pamulang, Kota Tangerang Selatan, Banten 15417";"Jl. Suryakencana, RT.5/RW.5, Pamulang Bar., Kec. Pamulang, Kota Tangerang Selatan";"PAPUA";"15417";"Indonesia";" 081315165243";"";"";"-6.3532879";"106.7343422";"https://maps.google.com/?cid=0x0:0x6062d59ea7a0d92d";""
"hardware store";"Toko";"Kios 2 R";"8CP6+MCQ, Asiki, Kec. Jair, Kabupaten Boven Digoel, Papua 99661";"Asiki, Kec. Jair, Kabupaten Boven Digoel";"PAPUA";"99661";"Indonesia";"";"";"";"-6.6632759";"140.4111077";"https://maps.google.com/?cid=0x0:0x1652eae805ef6485";""
"hardware store";"Grosir alat";"Total Tools Jakarta Indonesia";"Jl. Lkr. Luar Barat No.1A, Cengkareng Bar., Kecamatan Cengkareng, Kota Jakarta Barat, Daerah Khusus Ibukota Jakarta 11730";"Cengkareng Bar., Kecamatan Cengkareng, Kota Jakarta Barat";"PAPUA";"11730";"Indonesia";" 0811410400";"";"";"-6.1511938";"106.72697";"https://maps.google.com/?cid=0x0:0xe7ea93794124654f";""
"hardware store";"Toko Bahan Bangunan";"Total Tools Indonesia";"Jl. Pool PPD No.5, Kedaung Kali Angke, Kecamatan Cengkareng, Kota Jakarta Barat, Daerah Khusus Ibukota Jakarta 11710";"Kedaung Kali Angke, Kecamatan Cengkareng, Kota Jakarta Barat";"PAPUA";"11710";"Indonesia";" 06215452222";"";"";"-6.1526881";"106.7656627";"https://maps.google.com/?cid=0x0:0xd9a46d4bfb34afca";""
"hardware store";"Toko Bahan Bangunan";"Goroka Didiman Hardware";"Edward Street Goroka EHP, 441, Papua Nugini";"Goroka, Papua Nugini";"PAPUA";"";"Indonesia";" +6755322883";"";"";"-6.0844641";"145.3896487";"https://maps.google.com/?cid=0x0:0x5ea480c16c35db7b";""
"hardware store";"Toko Bahan Bangunan";"Hardware Haus - Goroka";"W97Q+VVW, Goroka Eastern Highlands Province, Papua Nugini";"Goroka, Papua Nugini";"PAPUA";"";"Indonesia";"";"";"";"-6.0852733";"145.3897024";"https://maps.google.com/?cid=0x0:0x3dd98a779945a511";""
"hardware store";"hardware store";"Distrik Kouh";"Kabupaten Boven Digoel, Papua";"Kabupaten Boven Digoel, Papua";"PAPUA";"";"Indonesia";"";"";"";"-5.8051734";"140.2132761";"https://maps.google.com/?cid=0x0:0x7a9ca82cdcdd2eb6";""
"hardware store";"Bazar";"HK hardware And Sanitary";"Jl. Hutama Karya Gg. Sutet, Kademangan, Kec. Setu, Kota Tangerang Selatan, Banten 15314";"Kademangan, Kec. Setu, Kota Tangerang Selatan";"PAPUA";"15314";"Indonesia";" 085893499021";"";"";"-6.3423671";"106.6695584";"https://maps.google.com/?cid=0x0:0x7c704d27fb7a2bd";""
"hardware store";"Toko";"HK Raya";"MM59+27X, JL Hutama Karya, Kademangan, Muncul, Tangerang Selatan, Kademangan, Kec. Setu, Kota Tangerang Selatan, Banten 15314";"JL Hutama Karya, Kademangan, Muncul, Tangerang Selatan, Kademangan, Kec. Setu, Kota Tangerang Selatan";"PAPUA";"15314";"Indonesia";" 081380823658";"";"";"-6.3423889";"106.6682222";"https://maps.google.com/?cid=0x0:0xa5f448f29740f7de";""
"hardware store";"hardware store";"Papua 99661";"Kabupaten Boven Digoel, Papua";"Kabupaten Boven Digoel, Papua";"PAPUA";"";"Indonesia";"";"";"";"-6.6725506";"140.1832516";"https://maps.google.com/?cid=0x0:0x6942b94e71194057";""
"hardware store";"Kerajinan";"Toko CAHAYA BONE";"8CQ6+2GW, Asiki, Kec. Jair, Kabupaten Boven Digoel, Papua 99661";"Asiki, Kec. Jair, Kabupaten Boven Digoel";"PAPUA";"99661";"Indonesia";"";"";"";"-6.6623894";"140.4113325";"https://maps.google.com/?cid=0x0:0x467b84076ddb4d15";""
"hardware store";"Toko";"Kios 2 R";"8CP6+MCQ, Asiki, Kec. Jair, Kabupaten Boven Digoel, Papua 99661";"Asiki, Kec. Jair, Kabupaten Boven Digoel";"PAPUA";"99661";"Indonesia";"";"";"";"-6.6632759";"140.4111077";"https://maps.google.com/?cid=0x0:0x1652eae805ef6485";""
"hardware store";"hardware store";"Sand Point, Alaska 99661";"Sand Point, Alaska, Amerika Serikat";"Sand Point, Alaska, Amerika Serikat";"PAPUA";"";"Indonesia";"";"";"";"55.2693058";"-160.6748964";"https://maps.google.com/?cid=0x0:0x7563da9a6a55a5d0";""
"hardware store";"Toko Bahan Bangunan";"Badili Hardware - Lae";"Sect 29, Lot 7 Macdhui St, Lae, Papua Nugini";"Lae, Papua Nugini";"PAPUA";"";"Indonesia";" +6754731900";"";"";"-6.7371068";"146.9927215";"https://maps.google.com/?cid=0x0:0x135d2e27bdc2fbcb";""
"hardware store";"Toko Bahan Bangunan";"Hardware Haus";"7XCQ+H9G, Mula St, Lae Morobe Province, Papua Nugini";"Lae, Papua Nugini";"PAPUA";"";"Indonesia";" +6754724100";"";"";"-6.7285537";"146.9884375";"https://maps.google.com/?cid=0x0:0x5128e5540d909546";""
"hardware store";"hardware store";"Distrik Bomakia";"Kabupaten Boven Digoel, Papua";"Kabupaten Boven Digoel, Papua";"PAPUA";"";"Indonesia";"";"";"";"-5.8066231";"139.8741906";"https://maps.google.com/?cid=0x0:0xd021b728f29c6a0f";""
"hardware store";"hardware store";"Kombut";"Kabupaten Boven Digoel, Papua";"Kabupaten Boven Digoel, Papua";"PAPUA";"";"Indonesia";"";"";"";"-5.8111842";"140.8040271";"https://maps.google.com/?cid=0x0:0xd4979b856c10d48e";""
"hardware store";"Toko Bahan Bangunan";"Goroka Didiman Hardware";"Edward Street Goroka EHP, 441, Papua Nugini";"Goroka, Papua Nugini";"PAPUA";"";"Indonesia";" +6755322883";"";"";"-6.0844641";"145.3896487";"https://maps.google.com/?cid=0x0:0x5ea480c16c35db7b";""
"hardware store";"Toko Bahan Bangunan";"Hardware Haus - Goroka";"W97Q+VVW, Goroka Eastern Highlands Province, Papua Nugini";"Goroka, Papua Nugini";"PAPUA";"";"Indonesia";"";"";"";"-6.0852733";"145.3897024";"https://maps.google.com/?cid=0x0:0x3dd98a779945a511";""
"hardware store";"Toko Komputer";"Central PC";"Harco Mangga Dua Plaza, Jl. Mangga Dua Raya No.49D 3 Blok B, Mangga Dua Sel., Kecamatan Sawah Besar, Kota Jakarta Pusat, Daerah Khusus Ibukota Jakarta 10730";"Jl. Mangga Dua Raya No.49D 3 Blok B, Mangga Dua Sel., Kecamatan Sawah Besar, Kota Jakarta Pusat";"PAPUA";"10730";"Indonesia";" 0216121193";"";"";"-6.138814";"106.828211";"https://maps.google.com/?cid=0x0:0xd59e1a14aecce647";""
"hardware store";"Toko Elektronik";"Harco Mangga Dua";"Jl. Mangga Dua Raya, RW.11, Mangga Dua Sel., Kecamatan Sawah Besar, Kota Jakarta Pusat, Daerah Khusus Ibukota Jakarta 10730";"RW.11, Mangga Dua Sel., Kecamatan Sawah Besar, Kota Jakarta Pusat";"PAPUA";"10730";"Indonesia";" 0216129329";"";"";"-6.1390038";"106.8284066";"https://maps.google.com/?cid=0x0:0x964c8d2f2bdf3b08";""
"hardware store";"Toko Bahan Bangunan";"IDEAL Hardware Badili";"G5CH+P4V, Port Moresby National Capital District, Papua Nugini";"Port Moresby, Papua Nugini";"PAPUA";"";"Indonesia";" +67572020480";"";"";"-9.4781441";"147.1778033";"https://maps.google.com/?cid=0x0:0xf8d36581cad3bd15";""
"hardware store";"Toko Bahan Bangunan";"IDEAL Hardware Erima";"H663+G96, Hubert Murray Hwy, Port Moresby National Capital District, Papua Nugini";"Port Moresby, Papua Nugini";"PAPUA";"";"Indonesia";"";"";"";"-9.4387057";"147.2033947";"https://maps.google.com/?cid=0x0:0xb0747cd07f864f3";""
"hardware store";"hardware store";"Distrik Iniyandit";"Kabupaten Boven Digoel, Papua";"Kabupaten Boven Digoel, Papua";"PAPUA";"";"Indonesia";"";"";"";"-5.7470313";"140.6432017";"https://maps.google.com/?cid=0x0:0xefab246d2462f016";""
"hardware store";"Toko";"Toko ajb";"Jln inpres urfas, Kemon Jaya Sp V, Kec. Urei Faisei, Kabupaten Waropen, Papua 98663";"Kemon Jaya Sp V, Kec. Urei Faisei, Kabupaten Waropen";"PAPUA";"98663";"Indonesia";" 082399530919";"";"";"-2.209432";"136.415572";"https://maps.google.com/?cid=0x0:0x9d727fa236c3e1d6";""
"hardware store";"Toko";"TOKO AB";"QCVQ+FXM, Ureifasei Tiga/Paradoi, Kec. Urei Faisei, Kabupaten Waropen, Papua 98261";"Ureifasei Tiga/Paradoi, Kec. Urei Faisei, Kabupaten Waropen";"PAPUA";"98261";"Indonesia";"";"";"";"-2.2063483";"136.4399667";"https://maps.google.com/?cid=0x0:0x7fdce44636edda7c";""
"hardware store";"hardware store";"Arimop";"Kabupaten Boven Digoel, Papua";"Kabupaten Boven Digoel, Papua";"PAPUA";"";"Indonesia";"";"";"";"-5.8140209";"140.4308159";"https://maps.google.com/?cid=0x0:0xf6e05b87dda2034d";""
"hardware store";"Toko";"Toko Mahrufi";"9P3P+363, Jl. Utarum - Pasir Lombo Kaimana, Kroy, Kec. Kaimana, Kabupaten Kaimana, Papua Bar. 98654";"Jl. Utarum - Pasir Lombo Kaimana, Kroy, Kec. Kaimana, Kabupaten Kaimana";"PAPUA";"98654";"Indonesia";" 081240669633";"";"";"-3.6473555";"133.7355572";"https://maps.google.com/?cid=0x0:0x4c4f7f690161b264";""
"hardware store";"Toko Perlengkapan Rumah";"Mr. D.I.Y";"Jl. Utarom, Kroy, Kec. Kaimana, Kabupaten Kaimana, Papua Bar. 98654";"Kroy, Kec. Kaimana, Kabupaten Kaimana";"PAPUA";"98654";"Indonesia";"";"";"";"-3.6473891";"133.7383025";"https://maps.google.com/?cid=0x0:0x2c16aacfd65b5619";""
"hardware store";"hardware store";"Distrik Fofi";"Kabupaten Boven Digoel, Papua";"Kabupaten Boven Digoel, Papua";"PAPUA";"";"Indonesia";"";"";"";"-6.2111813";"139.855567";"https://maps.google.com/?cid=0x0:0xed105c6777af2f3e";""
"hardware store";"Pemasok aksesori mebel";"Plywood.id Bekasi";"Sebrang pom bensin Jatisari, Jl. Wibawa Mukti II, Jatiluhur, Kec. Jatiasih, Kota Bks, Jawa Barat 17425";"Jl. Wibawa Mukti II, Jatiluhur, Kec. Jatiasih, Kota Bks";"PAPUA";"17425";"Indonesia";" 08111363676";"";"";"-6.3288434";"106.9459273";"https://maps.google.com/?cid=0x0:0x191d137d6c88c00c";""
"hardware store";"hardware store";"Papua 99664";"Kabupaten Boven Digoel, Papua";"Kabupaten Boven Digoel, Papua";"PAPUA";"";"Indonesia";"";"";"";"-5.5720214";"140.7624493";"https://maps.google.com/?cid=0x0:0x4763b936197cab93";""
"hardware store";"hardware store";"Ambatkwi";"Kabupaten Boven Digoel, Papua";"Kabupaten Boven Digoel, Papua";"PAPUA";"";"Indonesia";"";"";"";"-5.3948021";"140.6378804";"https://maps.google.com/?cid=0x0:0x3a215afc7936b662";""
"hardware store";"hardware store";"Manggelum";"Distrik Manggelum, Kabupaten Boven Digoel, Papua";"Kabupaten Boven Digoel, Papua";"PAPUA";"";"Indonesia";"";"";"";"-5.3697435";"140.4204808";"https://maps.google.com/?cid=0x0:0xa227866e6b216e";""
"hardware store";"Toko Bahan Bangunan";"Goroka Didiman Hardware";"Edward Street Goroka EHP, 441, Papua Nugini";"Goroka, Papua Nugini";"PAPUA";"";"Indonesia";" +6755322883";"";"";"-6.0844641";"145.3896487";"https://maps.google.com/?cid=0x0:0x5ea480c16c35db7b";""
"hardware store";"hardware store";"Toko TRIPLE M";"8CP6+2FX, Asiki, Kec. Jair, Kabupaten Boven Digoel, Papua 99661";"Asiki, Kec. Jair, Kabupaten Boven Digoel";"PAPUA";"99661";"Indonesia";"";"";"";"-6.6648753";"140.4112333";"https://maps.google.com/?cid=0x0:0x9e5bbb918f2021f5";""
"hardware store";"Toko Bahan Bangunan";"Goroka Didiman Hardware";"Edward Street Goroka EHP, 441, Papua Nugini";"Goroka, Papua Nugini";"PAPUA";"";"Indonesia";" +6755322883";"";"";"-6.0844641";"145.3896487";"https://maps.google.com/?cid=0x0:0x5ea480c16c35db7b";""
"hardware store";"Toko Bahan Bangunan";"Hardware Haus - Goroka";"W97Q+VVW, Goroka Eastern Highlands Province, Papua Nugini";"Goroka, Papua Nugini";"PAPUA";"";"Indonesia";"";"";"";"-6.0852733";"145.3897024";"https://maps.google.com/?cid=0x0:0x3dd98a779945a511";""
"hardware store";"hardware store";"Firiwage";"Firiwage, Kabupaten Boven Digoel, Papua";"Kabupaten Boven Digoel, Papua";"PAPUA";"";"Indonesia";"";"";"";"-5.520689";"140.115204";"https://maps.google.com/?cid=0x0:0x19410c614180567f";""
"hardware store";"Toko Bahan Bangunan";"Ken Hardware";"467R+FJ7, Jl. Diponegoro, Serui Kota, Kec. Yapen Sel., Kabupaten Kepulauan Yapen, Papua 98215";"Jl. Diponegoro, Serui Kota, Kec. Yapen Sel., Kabupaten Kepulauan Yapen";"PAPUA";"98215";"Indonesia";"";"";"";"-1.8863257";"136.2415418";"https://maps.google.com/?cid=0x0:0x236952e7e235b610";""
"hardware store";"Toko Bahan Bangunan";"TOKO KEYMART";"467R+FJ7, Jl. Diponegoro, Serui Kota, Kec. Yapen Sel., Kabupaten Kepulauan Yapen, Papua 98215";"Jl. Diponegoro, Serui Kota, Kec. Yapen Sel., Kabupaten Kepulauan Yapen";"PAPUA";"98215";"Indonesia";"";"";"";"-1.8862936";"136.2415923";"https://maps.google.com/?cid=0x0:0x114d109271fad46";""
"hardware store";"Toko";"Toko ajb";"Jln inpres urfas, Kemon Jaya Sp V, Kec. Urei Faisei, Kabupaten Waropen, Papua 98663";"Kemon Jaya Sp V, Kec. Urei Faisei, Kabupaten Waropen";"PAPUA";"98663";"Indonesia";" 082399530919";"";"";"-2.209432";"136.415572";"https://maps.google.com/?cid=0x0:0x9d727fa236c3e1d6";""
"hardware store";"Toko Bahan Bangunan";"YONGYAN HARDWARE  CONSTRUCTION SUPPLY";"234M+GWF, Datu Piang St, Kidapawan City, Cotabato, Filipina";"Kidapawan City, Cotabato, Filipina";"PAPUA";"";"Indonesia";"";"";"";"7.0063085";"125.0847901";"https://maps.google.com/?cid=0x0:0x39c8439e8b99747a";""
"hardware store";"Toko Bahan Bangunan";"JHOJING HARDWARE  CONSTRUCTION SUPPLIES TRADING";"Purok 6, Kidapawan City, Cotabato, Filipina";"Kidapawan City, Cotabato, Filipina";"PAPUA";"";"Indonesia";" +639709887788";"";"";"7.0081054";"125.0796847";"https://maps.google.com/?cid=0x0:0x4be6b8476c9b2e6a";""
"hardware store";"Toko";"Toko Salwa";"FM4X+F8V, jl. printis II Kloofkamp, Gurabesi, Kec. Jayapura Utara, Kota Jayapura, Papua 99221";"jl. printis II Kloofkamp, Gurabesi, Kec. Jayapura Utara, Kota Jayapura";"PAPUA";"99221";"Indonesia";" 081248010001";"";"";"-2.5437657";"140.6982938";"https://maps.google.com/?cid=0x0:0xedaff045f1d834b9";""
"hardware store";"Toko Mebel";"Dibeli Home Living";"Jalur 2 No.94, Wahno, Kec. Abepura, Kota Jayapura, Papua 99224";"Wahno, Kec. Abepura, Kota Jayapura";"PAPUA";"99224";"Indonesia";" 082310452840";"";"";"-2.5938489";"140.6720004";"https://maps.google.com/?cid=0x0:0x60aa528a8541a01b";""
"hardware store";"Toko Suvenir";"Toko citraco";"CMHV+G74, Entrop, Distrik Jayapura Selatan, Kota Jayapura, Papua 99221";"Entrop, Distrik Jayapura Selatan, Kota Jayapura";"PAPUA";"99221";"Indonesia";" 085211111778";"";"";"-2.5712449";"140.6931889";"https://maps.google.com/?cid=0x0:0x6f308bda1639226d";""
"hardware store";"Toko Bahan Bangunan";"TB. Subur";"Jl. Kemandoran I No.72, RT.1/RW.4, Grogol Utara, Kec. Kby. Lama, Kota Jakarta Selatan, Daerah Khusus Ibukota Jakarta 12210";"RT.1/RW.4, Grogol Utara, Kec. Kby. Lama, Kota Jakarta Selatan";"PAPUA";"12210";"Indonesia";" 0215482939";"";"";"-6.2106586";"106.7897946";"https://maps.google.com/?cid=0x0:0x73a7aff908983637";""
"hardware store";"Toko Bahan Bangunan";"Toko Subur";"Jl. Angkur No.9, Kayu Putih, Kec. Pulo Gadung, Kota Jakarta Timur, Daerah Khusus Ibukota Jakarta 13210";"Kayu Putih, Kec. Pulo Gadung, Kota Jakarta Timur";"PAPUA";"13210";"Indonesia";" 0214891259";"";"";"-6.1864773";"106.8855249";"https://maps.google.com/?cid=0x0:0xda973cee8cf25092";""
"hardware store";"Toko Bahan Bangunan";"Toko Alam Subur";"Jl. Kenari 2 No.1B 4, RT.4/RW.3, Kenari, Kec. Senen, Kota Jakarta Pusat, Daerah Khusus Ibukota Jakarta 10430";"RT.4/RW.3, Kenari, Kec. Senen, Kota Jakarta Pusat";"PAPUA";"10430";"Indonesia";"";"";"";"-6.1926327";"106.84741";"https://maps.google.com/?cid=0x0:0x58755a52bc7de8f8";""
"hardware store";"Toko Bahan Bangunan";"Toko Bangunan Subur";"Jalan Moh Toha Km 3,8 Nomor 45, Banten, RT.009/RW.011, Periuk Jaya, Kec. Tangerang, Kota Tangerang, Banten 15114";"Banten, RT.009/RW.011, Periuk Jaya, Kec. Tangerang, Kota Tangerang";"PAPUA";"15114";"Indonesia";" 0816901764";"";"";"-6.16734";"106.5998416";"https://maps.google.com/?cid=0x0:0x4077ba9607d14e94";""
"hardware store";"Toko bahan makanan";"Toko SUBUR";"Jl. Kalimantan No.90, Panunggangan Bar., Kec. Cibodas, Kota Tangerang, Banten 15138";"Panunggangan Bar., Kec. Cibodas, Kota Tangerang";"PAPUA";"15138";"Indonesia";" 087773777298";"";"";"-6.2190472";"106.6193068";"https://maps.google.com/?cid=0x0:0xc9f835befc788b06";""
"hardware store";"hardware store";"Toko Subur";"Jl. Pangeran Jayakarta No.117, RT.7/RW.7, Mangga Dua Sel., Kecamatan Sawah Besar, Kota Jakarta Pusat, Daerah Khusus Ibukota Jakarta 10730";"RT.7/RW.7, Mangga Dua Sel., Kecamatan Sawah Besar, Kota Jakarta Pusat";"PAPUA";"10730";"Indonesia";"";"";"";"-6.1407281";"106.8285183";"https://maps.google.com/?cid=0x0:0xdd82352de35ddcf2";""
"hardware store";"Toko Bahan Bangunan";"Toko Perkakas Krisbow";"CMJW+76J, JL.Raya Entrop, Blok C, Komplek Papua Trade Center, Entrop, Distrik Jayapura Selatan, Kota Jayapura, Papua 99221";"JL.Raya Entrop, Blok C, Komplek Papua Trade Center, Entrop, Distrik Jayapura Selatan, Kota Jayapura";"PAPUA";"99221";"Indonesia";" 0967551887";"";"";"-2.5692954";"140.6955186";"https://maps.google.com/?cid=0x0:0x6937d40a9bfee6f7";""
"hardware store";"Dealer Mesin Diesel";"TOKO DEPO MESIN ENTROP";"Jl. Klp. 2, Entrop, Distrik Jayapura Selatan, Kota Jayapura, Papua";"Kota Jayapura, Papua";"PAPUA";"";"Indonesia";" 081342785958";"";"";"-2.5679868";"140.7017403";"https://maps.google.com/?cid=0x0:0xe6d63977527036ab";""
"hardware store";"Kolam Renang";"PTC Entrop";"Entrop, Distrik Jayapura Selatan, Kota Jayapura, Papua 99221";"Distrik Jayapura Selatan, Kota Jayapura";"PAPUA";"99221";"Indonesia";"";"";"";"-2.5690544";"140.6960323";"https://maps.google.com/?cid=0x0:0xf85bd4594f0f13bc";""
"hardware store";"Toko Bahan Bangunan";"KBSA";"F43V+GFQ, Kimbe West New Britain Province, Papua Nugini";"Kimbe, Papua Nugini";"PAPUA";"";"Indonesia";" +6759835154";"";"";"-5.5461564";"150.1437192";"https://maps.google.com/?cid=0x0:0x29049260925e2df9";""
"hardware store";"Toko Makanan Sehat";"Bay Traders True Value";"1303 4th Ave, Seward, AK 99664, Amerika Serikat";"Seward, AK";"PAPUA";"99664";"Indonesia";" +19072248286";"";"";"60.117388";"-149.4404408";"https://maps.google.com/?cid=0x0:0x6f4c6015db1be2cb";""
"hardware store";"Toko bahan makanan";"Frontier Trading Post";"233 4th Ave, Seward, AK 99664, Amerika Serikat";"Seward, AK";"PAPUA";"99664";"Indonesia";" +19074911416";"";"";"60.102463";"-149.4407248";"https://maps.google.com/?cid=0x0:0xb98390b8a6391c7c";""
"hardware store";"Toko Bahan Bangunan";"IDEAL Hardware Badili";"G5CH+P4V, Port Moresby National Capital District, Papua Nugini";"Port Moresby, Papua Nugini";"PAPUA";"";"Indonesia";" +67572020480";"";"";"-9.4781441";"147.1778033";"https://maps.google.com/?cid=0x0:0xf8d36581cad3bd15";""
"hardware store";"Toko Bahan Bangunan";"IDEAL Hardware Erima";"H663+G96, Hubert Murray Hwy, Port Moresby National Capital District, Papua Nugini";"Port Moresby, Papua Nugini";"PAPUA";"";"Indonesia";"";"";"";"-9.4387057";"147.2033947";"https://maps.google.com/?cid=0x0:0xb0747cd07f864f3";""
"hardware store";"Toko Bahan Bangunan";"Milne Bay Hardware";"MFM5+M7C, Biwa Ward Maramathana LLG, Alotau, Papua Nugini";"Alotau, Papua Nugini";"PAPUA";"";"Indonesia";"";"";"";"-10.3158125";"150.4581422";"https://maps.google.com/?cid=0x0:0x170b4381d02326a3";""
"hardware store";"Toko Makanan Sehat";"Bay Traders True Value";"1303 4th Ave, Seward, AK 99664, Amerika Serikat";"Seward, AK";"PAPUA";"99664";"Indonesia";" +19072248286";"";"";"60.117388";"-149.4404408";"https://maps.google.com/?cid=0x0:0x6f4c6015db1be2cb";""
"hardware store";"Toko bahan makanan";"Frontier Trading Post";"233 4th Ave, Seward, AK 99664, Amerika Serikat";"Seward, AK";"PAPUA";"99664";"Indonesia";" +19074911416";"";"";"60.102463";"-149.4407248";"https://maps.google.com/?cid=0x0:0xb98390b8a6391c7c";""
"hardware store";"hardware store";"Sesnuk";"Kec. Sesnuk, Kabupaten Boven Digoel, Papua";"Kabupaten Boven Digoel, Papua";"PAPUA";"";"Indonesia";"";"";"";"-6.1921334";"140.700134";"https://maps.google.com/?cid=0x0:0x5a676998cc2d21aa";""
"hardware store";"hardware store";"Papua 99662";"Kabupaten Boven Digoel, Papua";"Kabupaten Boven Digoel, Papua";"PAPUA";"";"Indonesia";"";"";"";"-6.2486769";"140.7624493";"https://maps.google.com/?cid=0x0:0xd7a3af105311064b";""
"hardware store";"hardware store";"Kec. Sesnuk";"Kabupaten Boven Digoel, Papua";"Kabupaten Boven Digoel, Papua";"PAPUA";"";"Indonesia";"";"";"";"-6.2109657";"140.7208989";"https://maps.google.com/?cid=0x0:0xd906902f3bfc1485";""
"hardware store";"hardware store";"Papua 99661";"Kabupaten Boven Digoel, Papua";"Kabupaten Boven Digoel, Papua";"PAPUA";"";"Indonesia";"";"";"";"-6.6725506";"140.1832516";"https://maps.google.com/?cid=0x0:0x6942b94e71194057";""
"hardware store";"Toko Bahan Bangunan";"Badili Hardware";"Klinki Street, Off Waigani Drive, Port Moresby, Papua Nugini";"Port Moresby, Papua Nugini";"PAPUA";"";"Indonesia";" +6753037200";"";"";"-9.448217";"147.182907";"https://maps.google.com/?cid=0x0:0x575627342c3422aa";""
"hardware store";"Toko Bahan Bangunan";"Goroka Didiman Hardware";"Edward Street Goroka EHP, 441, Papua Nugini";"Goroka, Papua Nugini";"PAPUA";"";"Indonesia";" +6755322883";"";"";"-6.0844641";"145.3896487";"https://maps.google.com/?cid=0x0:0x5ea480c16c35db7b";""
"hardware store";"Toko Bahan Bangunan";"IDEAL Hardware Badili";"G5CH+P4V, Port Moresby National Capital District, Papua Nugini";"Port Moresby, Papua Nugini";"PAPUA";"";"Indonesia";" +67572020480";"";"";"-9.4781441";"147.1778033";"https://maps.google.com/?cid=0x0:0xf8d36581cad3bd15";""
"hardware store";"Toko Perlengkapan Rumah";"Leon Enterprise LTD";"Port Moresby National Capital District, Papua Nugini";"Port Moresby, Papua Nugini";"PAPUA";"";"Indonesia";" +6753281777";"";"";"-9.4383795";"147.2038864";"https://maps.google.com/?cid=0x0:0x78cc8c42537d1db5";""
"hardware store";"Toko Bahan Bangunan";"WP HARDWARE";"Unnamed Road, Kiunga Western Province, Papua Nugini";"Kiunga, Papua Nugini";"PAPUA";"";"Indonesia";"";"";"";"-6.1190368";"141.3027412";"https://maps.google.com/?cid=0x0:0xe84ee143e9363609";""
"hardware store";"Toko Alat Listrik";"EDMA ELECTRONICS - PLAZA KENARI MAS";"Plaza kenari mas, Jl. Kramat Raya No.101 lantai 1 blok E5, Paseban, Kec. Senen, Kota Jakarta Pusat, Daerah Khusus Ibukota Jakarta 10440";"Jl. Kramat Raya No.101 lantai 1 blok E5, Paseban, Kec. Senen, Kota Jakarta Pusat";"PAPUA";"10440";"Indonesia";" 081808458900";"";"";"-6.1913106";"106.8485233";"https://maps.google.com/?cid=0x0:0xda525be3b54f0d15";""
"hardware store";"Toko Bahan Bangunan";"Central Kunci";"Jl. Panglima Polim No.72 2, RT.2/RW.5, Pulo, Kec. Kby. Baru, Kota Jakarta Selatan, Daerah Khusus Ibukota Jakarta 12160";"RT.2/RW.5, Pulo, Kec. Kby. Baru, Kota Jakarta Selatan";"PAPUA";"12160";"Indonesia";" 0217237219";"";"";"-6.2539596";"106.7971315";"https://maps.google.com/?cid=0x0:0x2be2636084938e9a";""
"hardware store";"Toko Bahan Bangunan";"PD. Wijaya Sakti";"Jl. Muara Karang Selatan Blok CC-5 No. 32-A Pejagalan Penjaringan Jakarta Utara DKI Jakarta, RT.23/RW.8, Penjaringan, Kec. Penjaringan, Jkt Utara, Daerah Khusus Ibukota Jakarta 14450";"RT.23/RW.8, Penjaringan, Kec. Penjaringan, Jkt Utara";"PAPUA";"14450";"Indonesia";" 0216679826";"";"";"-6.1300661";"106.7854335";"https://maps.google.com/?cid=0x0:0xc1d582be37ae4c95";""
"hardware store";"Toko Bahan Bangunan";"Wira Komersil";"Jl Bandengan Selatan 84A%2F10 Pejagalan Penjaringan Jakarta Utara DKI Jakarta, RT.3/RW.16, Penjaringan, Kec. Penjaringan, Jkt Utara, Daerah Khusus Ibukota Jakarta 14450";"RT.3/RW.16, Penjaringan, Kec. Penjaringan, Jkt Utara";"PAPUA";"14450";"Indonesia";" 0216690363";"";"";"-6.1370277";"106.7942696";"https://maps.google.com/?cid=0x0:0x5dcf66836e71a5a9";""
"hardware store";"Toko Bahan Bangunan";"Witek PD";"Jl Gedong Panjang 70-C Pejagalan Penjaringan Jakarta Utara DKI Jakarta, RT.23/RW.8, Penjaringan, Kec. Penjaringan, Jkt Utara, Daerah Khusus Ibukota Jakarta 14440";"RT.23/RW.8, Penjaringan, Kec. Penjaringan, Jkt Utara";"PAPUA";"14440";"Indonesia";" 0216612121";"";"";"-6.1314286";"106.7865494";"https://maps.google.com/?cid=0x0:0x562d1fe0e10dc0b9";""
"hardware store";"Toko Elektronik";"ABC Toko";"Jl. Gedong Panjang 70-D Pejagalan Penjaringan Jakarta Utara DKI Jakarta, RT.23/RW.8, Penjaringan, Kec. Penjaringan, Jkt Utara, Daerah Khusus Ibukota Jakarta 14440";"RT.23/RW.8, Penjaringan, Kec. Penjaringan, Jkt Utara";"PAPUA";"14440";"Indonesia";" 0216125841";"";"";"-6.1314286";"106.7865494";"https://maps.google.com/?cid=0x0:0x8e6198b5514113a7";""
"hardware store";"Toko";"Toko Dua Sahabat/Jotun";"Jln. Trans Papua kilo 2, Kabupaten Boven Digoel";"Kabupaten Boven Digoel, Papua";"PAPUA";"";"Indonesia";"";"";"";"-6.0959217";"140.3245587";"https://maps.google.com/?cid=0x0:0xe788284fb59d6345";""
"hardware store";"Toko Bahan Bangunan";"Dua sahabat (jotun)";"W83F+HQG, Persatuan, Kec. Mandobo, Kabupaten Boven Digoel, Papua 99663";"Persatuan, Kec. Mandobo, Kabupaten Boven Digoel";"PAPUA";"99663";"Indonesia";"";"";"";"-6.096053";"140.3244447";"https://maps.google.com/?cid=0x0:0xea5ccb20ae3f46f6";""
"hardware store";"Toko";"Kios 2 R";"8CP6+MCQ, Asiki, Kec. Jair, Kabupaten Boven Digoel, Papua 99661";"Asiki, Kec. Jair, Kabupaten Boven Digoel";"PAPUA";"99661";"Indonesia";"";"";"";"-6.6632759";"140.4111077";"https://maps.google.com/?cid=0x0:0x1652eae805ef6485";""
"hardware store";"hardware store";"Kawagit";"Kabupaten Boven Digoel, Papua";"Kabupaten Boven Digoel, Papua";"PAPUA";"";"Indonesia";"";"";"";"-5.6294411";"140.2244429";"https://maps.google.com/?cid=0x0:0x69ff4aae3e3b8ad2";""
"hardware store";"hardware store";"Kawagit";"Kawagit, Kabupaten Boven Digoel, Papua";"Kabupaten Boven Digoel, Papua";"PAPUA";"";"Indonesia";"";"";"";"-5.6361368";"140.3069088";"https://maps.google.com/?cid=0x0:0x41ac9de9f0403258";""
"home improvement";"home improvement";"Mandobo";"Distrik Kouh, Kabupaten Boven Digoel, Papua";"Kabupaten Boven Digoel, Papua";"PAPUA";"";"Indonesia";"";"";"";"-5.8523321";"140.2862819";"https://maps.google.com/?cid=0x0:0x30ea9430854e3568";""
"home improvement";"Toko";"TOKO BANGUNAN SUMBER ANUGERAH";"Persatuan, Kec. Mandobo, Kabupaten Boven Digoel, Papua 99663";"Kec. Mandobo, Kabupaten Boven Digoel";"PAPUA";"99663";"Indonesia";"";"";"";"-6.0903965";"140.3331897";"https://maps.google.com/?cid=0x0:0x9b0d3e5a6263752a";""
"home improvement";"home improvement";"Home Meranti K2";"W836+3CR, Jl. Arimop, Persatuan, Kec. Mandobo, Kabupaten Boven Digoel, Papua 99663";"Jl. Arimop, Persatuan, Kec. Mandobo, Kabupaten Boven Digoel";"PAPUA";"99663";"Indonesia";"";"";"";"-6.0972659";"140.31103";"https://maps.google.com/?cid=0x0:0x4787c36ca7bfcdfe";""
"home improvement";"Toko";"Toko Dua Sahabat/Jotun";"Jln. Trans Papua kilo 2, Kabupaten Boven Digoel";"Kabupaten Boven Digoel, Papua";"PAPUA";"";"Indonesia";"";"";"";"-6.0959217";"140.3245587";"https://maps.google.com/?cid=0x0:0xe788284fb59d6345";""
"home improvement";"Pembangunan Perumahan";"Angeline Home's";"Jl. Karning 2, Persatuan, Kec. Mandobo, Kabupaten Boven Digoel, Papua 99663";"Persatuan, Kec. Mandobo, Kabupaten Boven Digoel";"PAPUA";"99663";"Indonesia";"";"";"";"-6.1038531";"140.3137005";"https://maps.google.com/?cid=0x0:0x88c56833389fb894";""
"home improvement";"Toko Kursi";"KURSI ROTAN";"Kilo Meter 2, Jl. Trans Papua, Ujung, Arimop, Kabupaten Boven Digoel, Papua 99663";"Jl. Trans Papua, Ujung, Arimop, Kabupaten Boven Digoel";"PAPUA";"99663";"Indonesia";"";"";"";"-5.7400018";"140.3481835";"https://maps.google.com/?cid=0x0:0xb082e89bac65816e";""
"home improvement";"home improvement";"Kec. Mandobo";"Kabupaten Boven Digoel, Papua";"Kabupaten Boven Digoel, Papua";"PAPUA";"";"Indonesia";"";"";"";"-6.0694004";"140.265662";"https://maps.google.com/?cid=0x0:0x618ed68911d02fb6";""
"home improvement";"home improvement";"Dekoruma";"Kampung wet, Persatuan, Kec. Mandobo, Kabupaten Boven Digoel, Sulawesi Selatan 99663";"Persatuan, Kec. Mandobo, Kabupaten Boven Digoel";"PAPUA";"99663";"Indonesia";" 082110001789";"";"";"-6.0899544";"140.3047808";"https://maps.google.com/?cid=0x0:0xa61bb6fad617f537";""
"home improvement";"Toko Kursi";"KURSI ROTAN KILO 2";"W83F+54J, Persatuan, Kec. Mandobo, Kabupaten Boven Digoel, Papua";"Kabupaten Boven Digoel, Papua";"PAPUA";"";"Indonesia";"";"";"";"-6.0972439";"140.3233112";"https://maps.google.com/?cid=0x0:0xaa232f334dd23f";""
"home improvement";"home improvement";"9LZkaLPYKLid4-EPsIKA8Qg"-,null,null,1,null,"https://www.google.com/maps/preview/place/Perseroan+Komanditer/@-6.1535839,140.3222164,3967a,13.1y/datau003d!4m2!3m1!1s0x4acaf4688c077fcb:0xc5e9033945c4c184";"";"";"PAPUA";"";"Indonesia";" 082217613109";"";"";"-6.1535839";"140.3222164";"https://maps.google.com/?cid=0x0:0xc5e9033945c4c184";""
"home improvement";"home improvement";"CV YASIMANDIRI";"Jl. Ampera, Persatuan, Kec. Mandobo, Kabupaten Boven Digoel, Papua 99663";"Persatuan, Kec. Mandobo, Kabupaten Boven Digoel";"PAPUA";"99663";"Indonesia";" 081247668913";"";"";"-6.1088974";"140.31277";"https://maps.google.com/?cid=0x0:0x64676e631836af2a";""
"home improvement";"home improvement";"Meublle Karunia";"V8W7+JG6, Jl. Karning 2, Persatuan, Kec. Mandobo, Kabupaten Boven Digoel, Papua 99663";"Jl. Karning 2, Persatuan, Kec. Mandobo, Kabupaten Boven Digoel";"PAPUA";"99663";"Indonesia";"";"";"";"-6.1034731";"140.3137533";"https://maps.google.com/?cid=0x0:0xd2a0d65e01af0a7";""
"home improvement";"home improvement";"Kec. Mindiptana";"Kabupaten Boven Digoel, Papua";"Kabupaten Boven Digoel, Papua";"PAPUA";"";"Indonesia";"";"";"";"-5.8729212";"140.7006239";"https://maps.google.com/?cid=0x0:0x63d3989597ea91fc";""
"home improvement";"home improvement";"Mindiptana";"Kec. Mindiptana, Kabupaten Boven Digoel, Papua";"Kabupaten Boven Digoel, Papua";"PAPUA";"";"Indonesia";"";"";"";"-5.8984168";"140.6845648";"https://maps.google.com/?cid=0x0:0xcf32ad244732c122";""
"home improvement";"home improvement";"SH Mindiptana";"4MHW+XQV, Mindiptana, Kec. Mindiptana, Kabupaten Boven Digoel, Papua 99662";"Mindiptana, Kec. Mindiptana, Kabupaten Boven Digoel";"PAPUA";"99662";"Indonesia";"";"";"";"-5.870964";"140.697402";"https://maps.google.com/?cid=0x0:0x5136861d3db7c784";""
"home improvement";"home improvement";"Waropko";"Waropko, Kabupaten Boven Digoel, Papua";"Kabupaten Boven Digoel, Papua";"PAPUA";"";"Indonesia";"";"";"";"-5.6198146";"140.8352284";"https://maps.google.com/?cid=0x0:0x8464e4f41ea4415c";""
"home improvement";"home improvement";"Papua 99664";"Kabupaten Boven Digoel, Papua";"Kabupaten Boven Digoel, Papua";"PAPUA";"";"Indonesia";"";"";"";"-5.5720214";"140.7624493";"https://maps.google.com/?cid=0x0:0x4763b936197cab93";""
"home improvement";"home improvement";"Waropko";"Kabupaten Boven Digoel, Papua";"Kabupaten Boven Digoel, Papua";"PAPUA";"";"Indonesia";"";"";"";"-5.4810101";"140.8872648";"https://maps.google.com/?cid=0x0:0xae26c3d96468ea8c";""
"home improvement";"Kantor Perusahaan";"Devan Interior";"Ronowijayan, Kec. Siman, Kabupaten Ponorogo, Jawa Timur";"Kabupaten Ponorogo, Jawa Timur";"PAPUA";"";"Indonesia";"";"";"";"-7.8563221";"111.4909162";"https://maps.google.com/?cid=0x0:0x93094ce57455f5bc";""
"home improvement";"home improvement";"Distrik Kouh";"Kabupaten Boven Digoel, Papua";"Kabupaten Boven Digoel, Papua";"PAPUA";"";"Indonesia";"";"";"";"-5.8051734";"140.2132761";"https://maps.google.com/?cid=0x0:0x7a9ca82cdcdd2eb6";""
"home improvement";"home improvement";"Kouh";"Distrik Kouh, Kabupaten Boven Digoel, Papua";"Kabupaten Boven Digoel, Papua";"PAPUA";"";"Indonesia";"";"";"";"-5.8249191";"140.197408";"https://maps.google.com/?cid=0x0:0xa00e72d4fc202818";""
"home improvement";"home improvement";"Distrik Kouh";"Kabupaten Boven Digoel, Papua";"Kabupaten Boven Digoel, Papua";"PAPUA";"";"Indonesia";"";"";"";"-5.8051734";"140.2132761";"https://maps.google.com/?cid=0x0:0x7a9ca82cdcdd2eb6";""
"home improvement";"home improvement";"Kouh";"Distrik Kouh, Kabupaten Boven Digoel, Papua";"Kabupaten Boven Digoel, Papua";"PAPUA";"";"Indonesia";"";"";"";"-5.8249191";"140.197408";"https://maps.google.com/?cid=0x0:0xa00e72d4fc202818";""
"home improvement";"home improvement";"Peninsula Home Improvement";"";"";"PAPUA";"";"Indonesia";" +19072999411";"";"";"60.1011845";"-151.4336317";"https://maps.google.com/?cid=0x0:0xe66aa60afd696a82";""
"home improvement";"home improvement";"Distrik Kouh";"Kabupaten Boven Digoel, Papua";"Kabupaten Boven Digoel, Papua";"PAPUA";"";"Indonesia";"";"";"";"-5.8051734";"140.2132761";"https://maps.google.com/?cid=0x0:0x7a9ca82cdcdd2eb6";""
"home improvement";"home improvement";"Kouh";"Distrik Kouh, Kabupaten Boven Digoel, Papua";"Kabupaten Boven Digoel, Papua";"PAPUA";"";"Indonesia";"";"";"";"-5.8249191";"140.197408";"https://maps.google.com/?cid=0x0:0xa00e72d4fc202818";""
"home improvement";"home improvement";"Papua 99661";"Kabupaten Boven Digoel, Papua";"Kabupaten Boven Digoel, Papua";"PAPUA";"";"Indonesia";"";"";"";"-6.6725506";"140.1832516";"https://maps.google.com/?cid=0x0:0x6942b94e71194057";""
"home improvement";"Kerajinan";"Toko CAHAYA BONE";"8CQ6+2GW, Asiki, Kec. Jair, Kabupaten Boven Digoel, Papua 99661";"Asiki, Kec. Jair, Kabupaten Boven Digoel";"PAPUA";"99661";"Indonesia";"";"";"";"-6.6623894";"140.4113325";"https://maps.google.com/?cid=0x0:0x467b84076ddb4d15";""
"home improvement";"Kantor Perusahaan";"PT. Korindo Abadi";"9C49+P56, Asiki, Kec. Jair, Kabupaten Boven Digoel, Papua 99661";"Asiki, Kec. Jair, Kabupaten Boven Digoel";"PAPUA";"99661";"Indonesia";" 085254777733";"";"";"-6.6432012";"140.4178765";"https://maps.google.com/?cid=0x0:0x7478ca108ff0c3c8";""
"home improvement";"home improvement";"YbhkaLqLOe-f4-EP1duHiQc"-,null,null,1,null,"https://www.google.com/maps/preview/place/Perseroan+Komanditer/@-6.1535839,140.3222164,3967a,13.1y/datau003d!4m2!3m1!1s0x4acaf4688c077fcb:0xc5e9033945c4c184";"";"";"PAPUA";"";"Indonesia";" 082217613109";"";"";"-6.1535839";"140.3222164";"https://maps.google.com/?cid=0x0:0xc5e9033945c4c184";""
"home improvement";"home improvement";"UD BUDI LUHUR";"8CQ6+6JF, Asiki, Kec. Jair, Kabupaten Boven Digoel, Papua 99661";"Asiki, Kec. Jair, Kabupaten Boven Digoel";"PAPUA";"99661";"Indonesia";"";"";"";"-6.6619315";"140.4115496";"https://maps.google.com/?cid=0x0:0x47bbbe9eac21c140";""
"home improvement";"home improvement";"Sand Point, Alaska 99661";"Sand Point, Alaska, Amerika Serikat";"Sand Point, Alaska, Amerika Serikat";"PAPUA";"";"Indonesia";"";"";"";"55.2693058";"-160.6748964";"https://maps.google.com/?cid=0x0:0x7563da9a6a55a5d0";""
"home improvement";"home improvement";"Distrik Bomakia";"Kabupaten Boven Digoel, Papua";"Kabupaten Boven Digoel, Papua";"PAPUA";"";"Indonesia";"";"";"";"-5.8066231";"139.8741906";"https://maps.google.com/?cid=0x0:0xd021b728f29c6a0f";""
"home improvement";"Perusahaan Konstruksi";"Budi jaya";"C8QG+CVJ, Slombok, RT.01/RW.02, Selombok, Plemahan, Kec. Sumobito, Kabupaten Jombang, Jawa Timur 61482";"Slombok, RT.01/RW.02, Selombok, Plemahan, Kec. Sumobito, Kabupaten Jombang";"PAPUA";"61482";"Indonesia";" 085746051629";"";"";"-7.5614136";"112.3271363";"https://maps.google.com/?cid=0x0:0xbd1c4e02bd2fda1c";""
"home improvement";"Produsen";"Pabrik Wood Pellet Bogor";"Mekarsari, Kec. Cileungsi, Kabupaten Bogor, Jawa Barat 16820";"Kec. Cileungsi, Kabupaten Bogor";"PAPUA";"16820";"Indonesia";" 087779183654";"";"";"-6.3976891";"107.0058238";"https://maps.google.com/?cid=0x0:0xae6f01c67ed024fa";""
"home improvement";"home improvement";"Kombut";"Kabupaten Boven Digoel, Papua";"Kabupaten Boven Digoel, Papua";"PAPUA";"";"Indonesia";"";"";"";"-5.8111842";"140.8040271";"https://maps.google.com/?cid=0x0:0xd4979b856c10d48e";""
"home improvement";"home improvement";"Distrik Iniyandit";"Kabupaten Boven Digoel, Papua";"Kabupaten Boven Digoel, Papua";"PAPUA";"";"Indonesia";"";"";"";"-5.7470313";"140.6432017";"https://maps.google.com/?cid=0x0:0xefab246d2462f016";""
"home improvement";"home improvement";"Home Meranti K2";"W836+3CR, Jl. Arimop, Persatuan, Kec. Mandobo, Kabupaten Boven Digoel, Papua 99663";"Jl. Arimop, Persatuan, Kec. Mandobo, Kabupaten Boven Digoel";"PAPUA";"99663";"Indonesia";"";"";"";"-6.0972659";"140.31103";"https://maps.google.com/?cid=0x0:0x4787c36ca7bfcdfe";""
"home improvement";"Toko Kursi";"KURSI ROTAN";"Kilo Meter 2, Jl. Trans Papua, Ujung, Arimop, Kabupaten Boven Digoel, Papua 99663";"Jl. Trans Papua, Ujung, Arimop, Kabupaten Boven Digoel";"PAPUA";"99663";"Indonesia";"";"";"";"-5.7400018";"140.3481835";"https://maps.google.com/?cid=0x0:0xb082e89bac65816e";""
"home improvement";"Toko Kursi";"KURSI ROTAN KILO 2";"W83F+54J, Persatuan, Kec. Mandobo, Kabupaten Boven Digoel, Papua";"Kabupaten Boven Digoel, Papua";"PAPUA";"";"Indonesia";"";"";"";"-6.0972439";"140.3233112";"https://maps.google.com/?cid=0x0:0xaa232f334dd23f";""
"home improvement";"Toko Kursi";"KURSI ROTAN";"Kilo Meter 2, Jl. Trans Papua, Ujung, Arimop, Kabupaten Boven Digoel, Papua 99663";"Jl. Trans Papua, Ujung, Arimop, Kabupaten Boven Digoel";"PAPUA";"99663";"Indonesia";"";"";"";"-5.7400018";"140.3481835";"https://maps.google.com/?cid=0x0:0xb082e89bac65816e";""
"home improvement";"home improvement";"Arimop";"Kabupaten Boven Digoel, Papua";"Kabupaten Boven Digoel, Papua";"PAPUA";"";"Indonesia";"";"";"";"-5.8140209";"140.4308159";"https://maps.google.com/?cid=0x0:0xf6e05b87dda2034d";""
"home improvement";"home improvement";"KblkaJXOEO6-juMPu63KsAU"-,null,null,1,null,"https://www.google.com/maps/preview/place/Perseroan+Komanditer/@-6.1535839,140.3222164,3967a,13.1y/datau003d!4m2!3m1!1s0x4acaf4688c077fcb:0xc5e9033945c4c184";"";"";"PAPUA";"";"Indonesia";" 082217613109";"";"";"-6.1535839";"140.3222164";"https://maps.google.com/?cid=0x0:0xc5e9033945c4c184";""
"home improvement";"home improvement";"Papua 99664";"Kabupaten Boven Digoel, Papua";"Kabupaten Boven Digoel, Papua";"PAPUA";"";"Indonesia";"";"";"";"-5.5720214";"140.7624493";"https://maps.google.com/?cid=0x0:0x4763b936197cab93";""
"home improvement";"Toko Bahan Bangunan";"Toko AKBAR bangunan";"2W63+2XM, Dawaikunu, Distrik Mapia, Kabupaten Dogiyai, Papua";"Kabupaten Dogiyai, Papua";"PAPUA";"";"Indonesia";" 08161999912";"";"";"-3.989908";"135.904907";"https://maps.google.com/?cid=0x0:0x54762d941a6ba240";""
"home improvement";"home improvement";"USO BTS BAKTI";"FJ48+FVJ, Bukit, Arimop, Kabupaten Boven Digoel, Papua 99664";"Bukit, Arimop, Kabupaten Boven Digoel";"PAPUA";"99664";"Indonesia";"";"";"";"-5.5437758";"140.6171429";"https://maps.google.com/?cid=0x0:0x32294422edeb7509";""
"home improvement";"home improvement";"Manggelum";"Distrik Manggelum, Kabupaten Boven Digoel, Papua";"Kabupaten Boven Digoel, Papua";"PAPUA";"";"Indonesia";"";"";"";"-5.3697435";"140.4204808";"https://maps.google.com/?cid=0x0:0xa227866e6b216e";""
"home improvement";"home improvement";"Distrik Manggelum";"Kabupaten Boven Digoel, Papua";"Kabupaten Boven Digoel, Papua";"PAPUA";"";"Indonesia";"";"";"";"-5.3141695";"140.3212401";"https://maps.google.com/?cid=0x0:0xda512ae0ae71c8e3";""
"home improvement";"home improvement";"Firiwage";"Kabupaten Boven Digoel, Papua";"Kabupaten Boven Digoel, Papua";"PAPUA";"";"Indonesia";"";"";"";"-5.386511";"140.1009527";"https://maps.google.com/?cid=0x0:0x46c5d4072a44c619";""
"home improvement";"home improvement";"Firiwage";"Firiwage, Kabupaten Boven Digoel, Papua";"Kabupaten Boven Digoel, Papua";"PAPUA";"";"Indonesia";"";"";"";"-5.520689";"140.115204";"https://maps.google.com/?cid=0x0:0x19410c614180567f";""
"home improvement";"home improvement";"Kec. Tebet";"Kota Jakarta Selatan, Daerah Khusus Ibukota Jakarta";"Kota Jakarta Selatan, Daerah Khusus Ibukota Jakarta";"PAPUA";"";"Indonesia";"";"";"";"-6.2251223";"106.8549881";"https://maps.google.com/?cid=0x0:0xd575e31c807295f9";""
"home improvement";"home improvement";"Papua 99664";"Kabupaten Boven Digoel, Papua";"Kabupaten Boven Digoel, Papua";"PAPUA";"";"Indonesia";"";"";"";"-5.5720214";"140.7624493";"https://maps.google.com/?cid=0x0:0x4763b936197cab93";""
"home improvement";"home improvement";"Yaniruma";"Kabupaten Boven Digoel, Papua";"Kabupaten Boven Digoel, Papua";"PAPUA";"";"Indonesia";"";"";"";"-5.3309677";"139.8137871";"https://maps.google.com/?cid=0x0:0x9130b38cdf369076";""
"home improvement";"home improvement";"Yaniruma";"Yaniruma, Kabupaten Boven Digoel, Papua";"Kabupaten Boven Digoel, Papua";"PAPUA";"";"Indonesia";"";"";"";"-5.133259";"139.8137871";"https://maps.google.com/?cid=0x0:0x7438a5bbd533ec60";""
"home improvement";"home improvement";"Vamen Home";"47G3+454, Jl. Frans Kaisepo, Warari, Kaisepo, Kabupaten Kepulauan Yapen, Papua 98213";"Jl. Frans Kaisepo, Warari, Kaisepo, Kabupaten Kepulauan Yapen";"PAPUA";"98213";"Indonesia";"";"";"";"-1.8747437";"136.252953";"https://maps.google.com/?cid=0x0:0xe9d94691d167f669";""
"home improvement";"home improvement";"Papua 99661";"Kabupaten Boven Digoel, Papua";"Kabupaten Boven Digoel, Papua";"PAPUA";"";"Indonesia";"";"";"";"-6.6725506";"140.1832516";"https://maps.google.com/?cid=0x0:0x6942b94e71194057";""
"home improvement";"home improvement";"Papua 99664";"Kabupaten Boven Digoel, Papua";"Kabupaten Boven Digoel, Papua";"PAPUA";"";"Indonesia";"";"";"";"-5.5720214";"140.7624493";"https://maps.google.com/?cid=0x0:0x4763b936197cab93";""
"home improvement";"home improvement";"Distrik Kombay";"Kabupaten Boven Digoel, Papua";"Kabupaten Boven Digoel, Papua";"PAPUA";"";"Indonesia";"";"";"";"-5.2411588";"140.002598";"https://maps.google.com/?cid=0x0:0xc9517f2d74b67994";""
"home improvement";"home improvement";"Seward, Alaska 99664";"Seward, Alaska, Amerika Serikat";"Seward, Alaska, Amerika Serikat";"PAPUA";"";"Indonesia";"";"";"";"60.2849779";"-149.2848938";"https://maps.google.com/?cid=0x0:0x1f91754111e04893";""
"home improvement";"home improvement";"Ninati";"Kec. Ninati, Kabupaten Boven Digoel, Papua";"Kabupaten Boven Digoel, Papua";"PAPUA";"";"Indonesia";"";"";"";"-5.6921917";"140.8976772";"https://maps.google.com/?cid=0x0:0x13da9fadbf1b0435";""
"home improvement";"home improvement";"PT Irian Karya Prima";"Jl. Raya Kby. Lama No.16c, Grogol Utara, Kec. Kby. Lama, Kota Jakarta Selatan, Daerah Khusus Ibukota Jakarta 12210";"Grogol Utara, Kec. Kby. Lama, Kota Jakarta Selatan";"PAPUA";"12210";"Indonesia";" 081335495615";"";"";"-6.2157513";"106.777543";"https://maps.google.com/?cid=0x0:0x8cc73b127da1bc0a";""
"home improvement";"home improvement";"Kec. Ninati";"Kabupaten Boven Digoel, Papua";"Kabupaten Boven Digoel, Papua";"PAPUA";"";"Indonesia";"";"";"";"-5.7014629";"140.9080913";"https://maps.google.com/?cid=0x0:0xda09b58114f50eda";""
"home improvement";"home improvement";"Papua 99662";"Kabupaten Boven Digoel, Papua";"Kabupaten Boven Digoel, Papua";"PAPUA";"";"Indonesia";"";"";"";"-6.2486769";"140.7624493";"https://maps.google.com/?cid=0x0:0xd7a3af105311064b";""
"home improvement";"home improvement";"Sesnuk";"Kec. Sesnuk, Kabupaten Boven Digoel, Papua";"Kabupaten Boven Digoel, Papua";"PAPUA";"";"Indonesia";"";"";"";"-6.1921334";"140.700134";"https://maps.google.com/?cid=0x0:0x5a676998cc2d21aa";""
"home improvement";"home improvement";"Kec. Sesnuk";"Kabupaten Boven Digoel, Papua";"Kabupaten Boven Digoel, Papua";"PAPUA";"";"Indonesia";"";"";"";"-6.2109657";"140.7208989";"https://maps.google.com/?cid=0x0:0xd906902f3bfc1485";""
"home improvement";"home improvement";"Papua 99661";"Kabupaten Boven Digoel, Papua";"Kabupaten Boven Digoel, Papua";"PAPUA";"";"Indonesia";"";"";"";"-6.6725506";"140.1832516";"https://maps.google.com/?cid=0x0:0x6942b94e71194057";""
"home improvement";"home improvement";"p7pkaITxDZ3B4-EPwIq98Aw"-,null,null,1,null,"https://www.google.com/maps/preview/place/Perseroan+Komanditer/@-6.1535839,140.3222164,3967a,13.1y/datau003d!4m2!3m1!1s0x4acaf4688c077fcb:0xc5e9033945c4c184";"";"";"PAPUA";"";"Indonesia";" 082217613109";"";"";"-6.1535839";"140.3222164";"https://maps.google.com/?cid=0x0:0xc5e9033945c4c184";""
"home improvement";"home improvement";"Peninsula Home Improvement";"";"";"PAPUA";"";"Indonesia";" +19072999411";"";"";"60.1011845";"-151.4336317";"https://maps.google.com/?cid=0x0:0xe66aa60afd696a82";""
"home improvement";"home improvement";"Kawagit";"Kawagit, Kabupaten Boven Digoel, Papua";"Kabupaten Boven Digoel, Papua";"PAPUA";"";"Indonesia";"";"";"";"-5.6361368";"140.3069088";"https://maps.google.com/?cid=0x0:0x41ac9de9f0403258";""
"home improvement";"home improvement";"Kawagit";"Kabupaten Boven Digoel, Papua";"Kabupaten Boven Digoel, Papua";"PAPUA";"";"Indonesia";"";"";"";"-5.6294411";"140.2244429";"https://maps.google.com/?cid=0x0:0x69ff4aae3e3b8ad2";""
"home improvement";"home improvement";"Home Meranti K2";"W836+3CR, Jl. Arimop, Persatuan, Kec. Mandobo, Kabupaten Boven Digoel, Papua 99663";"Jl. Arimop, Persatuan, Kec. Mandobo, Kabupaten Boven Digoel";"PAPUA";"99663";"Indonesia";"";"";"";"-6.0972659";"140.31103";"https://maps.google.com/?cid=0x0:0x4787c36ca7bfcdfe";""
