Category;Real Category;Business Name;Address;City;State;Postal Code;Country;Phone;Email;Website;Latitude;Longitude;Map Link;Details Link
mall;Pusat Perbelanjaan;Matabuka Copier;"Unnamed Road, Persatuan, Kec. Mandobo, Kabupaten Boven Digoel, Papua 99663";"Persatuan, Kec. Mandobo, Kabupaten Boven Digoel";PAPUA;99663;Indonesia;085255155050;;;-60.888.096;1.403.357.366;https://maps.google.com/?cid=0x0:0xe75d6ab332364fad;
mall;mall;Mandobo;"Distrik Kouh, Kabupaten Boven Digoel, Papua";"Kabupaten Boven Digoel, Papua";PAPUA;;Indonesia;;;;-58.523.321;1.402.862.819;https://maps.google.com/?cid=0x0:0x30ea9430854e3568;
mall;Pusat Perbelanjaan;FX Sudirman;"Jl. Jenderal Sudirman, Gelora, Kecamatan Tanah Abang, Kota Jakarta Pusat, Daerah Khusus Ibukota Jakarta 10270";"Gelora, Kecamatan Tanah Abang, Kota Jakarta Pusat";PAPUA;10270;Indonesia;02125554600;;;-62.246.691;1.068.039.106;https://maps.google.com/?cid=0x0:0xd635e33c7c001b3d;
mall;Pembangunan Perumahan;Kiyos Arsyilah;"785X+X7V, Ujung, Arimop, Kabupaten Boven Digoel, Papua";"Kabupaten Boven Digoel, Papua";PAPUA;;Indonesia;;;;-57.400.018;1.403.481.835;https://maps.google.com/?cid=0x0:0x27799a1915982981;
mall;Minimarket;Lapak Tiga Dara;"W838+QM6, Jalan Ambonggo, Kel Sukanggo, Persatuan, Kec. Mandobo, Kabupaten Boven Digoel, Papua 99663";"Jalan Ambonggo, Kel Sukanggo, Persatuan, Kec. Mandobo, Kabupaten Boven Digoel";PAPUA;99663;Indonesia;085243525243;;;-60.955.926;1.403.166.546;https://maps.google.com/?cid=0x0:0x32a40a48e563b9fe;
mall;Pusat Perbelanjaan;BTV COPIER;"V8PC+J9C, Persatuan, Kec. Mandobo, Kabupaten Boven Digoel, Papua";"Kabupaten Boven Digoel, Papua";PAPUA;;Indonesia;085251768159;;;-61.134.382;1.403.209.019;https://maps.google.com/?cid=0x0:0xd6c68ef54e726988;
mall;Pusat Perbelanjaan;Grand Indonesia Shopping Town;"Jl. M.H. Thamrin No.1, Menteng, Kec. Menteng, Kota Jakarta Pusat, Daerah Khusus Ibukota Jakarta 10310";"Menteng, Kec. Menteng, Kota Jakarta Pusat";PAPUA;10310;Indonesia;02123580001;;;-61.965.848;1.068.224.882;https://maps.google.com/?cid=0x0:0xccfcc89b95aaf1ae;
mall;Pusat Perbelanjaan;Plaza Indonesia;"Jl. M.H. Thamrin No.Kav.28-30, Gondangdia, Kec. Menteng, Kota Jakarta Pusat, Daerah Khusus Ibukota Jakarta 10350";"Gondangdia, Kec. Menteng, Kota Jakarta Pusat";PAPUA;10350;Indonesia;02129920000;;;-61.935.977;1.068.219.468;https://maps.google.com/?cid=0x0:0x7d7fe17ad64a053f;
mall;Bandara;Bandar Udara Mindiptana;"4PC5+9J9, Niyimbang, Kec. Mindiptana, Kabupaten Boven Digoel, Papua 99662";"Niyimbang, Kec. Mindiptana, Kabupaten Boven Digoel";PAPUA;99662;Indonesia;;;;-58.790.945;1.407.091.104;https://maps.google.com/?cid=0x0:0xe63be6e570c913cf;
mall;mall;Kec. Mindiptana;"Kabupaten Boven Digoel, Papua";"Kabupaten Boven Digoel, Papua";PAPUA;;Indonesia;;;;-58.729.212;1.407.006.239;https://maps.google.com/?cid=0x0:0x63d3989597ea91fc;
mall;mall;Pammana Jaya;"W827+G3M, Unnamed Road, Persatuan, Kec. Mandobo, Kabupaten Boven Digoel, Papua 99663";"Unnamed Road, Persatuan, Kec. Mandobo, Kabupaten Boven Digoel";PAPUA;99663;Indonesia;;;;-60.986.641;1.403.126.859;https://maps.google.com/?cid=0x0:0xfdabd2dd8df39b14;
mall;Pusat Perbelanjaan;Kios Cahaya Baru;"4MHW+XQV, Mindiptana, Kec. Mindiptana, Kabupaten Boven Digoel, Papua 99662";"Mindiptana, Kec. Mindiptana, Kabupaten Boven Digoel";PAPUA;99662;Indonesia;;;;-58.700.142;1.406.969.358;https://maps.google.com/?cid=0x0:0x53182ec028b0e645;
mall;Pusat Perbelanjaan;Mall Senayan City;"Jl. Asia Afrika No.Lot 19, Gelora, Kecamatan Tanah Abang, Kota Jakarta Pusat, Daerah Khusus Ibukota Jakarta 10270";"Gelora, Kecamatan Tanah Abang, Kota Jakarta Pusat";PAPUA;10270;Indonesia;02172781000;;;-62.271.953;1.067.970.117;https://maps.google.com/?cid=0x0:0x300c043104acc004;
mall;Pusat Perbelanjaan;Pondok Indah Mall 1;"Jl. Metro Pondok Indah No.Kav. 4, RT.1/RW.16, Pd. Pinang, Kec. Kby. Lama, Kota Jakarta Selatan, Daerah Khusus Ibukota Jakarta 12310";"RT.1/RW.16, Pd. Pinang, Kec. Kby. Lama, Kota Jakarta Selatan";PAPUA;12310;Indonesia;0217506750;;;-62.652.166;1.067.843.165;https://maps.google.com/?cid=0x0:0x682837113c4ea854;
mall;mall;Waropko;"Kabupaten Boven Digoel, Papua";"Kabupaten Boven Digoel, Papua";PAPUA;;Indonesia;;;;-54.810.101;1.408.872.648;https://maps.google.com/?cid=0x0:0xae26c3d96468ea8c;
mall;Pusat Perbelanjaan;Mall Jayapura;"APO, Jl. Samratulangi, Bayangkara, Kec. Jayapura Utara, Kota Jayapura, Papua 99112";"Jl. Samratulangi, Bayangkara, Kec. Jayapura Utara, Kota Jayapura";PAPUA;99112;Indonesia;09675150000;;;-25.351.775;1.407.061.874;https://maps.google.com/?cid=0x0:0x54294cb27964023;
mall;Pusat Perbelanjaan;Manokwari City Mall (MCM);"Jl. Yos Sudarso Manokwari, Manokwari Bar., Kec. Manokwari Bar., Kabupaten Manokwari, Papua Bar. 98312";"Manokwari Bar., Kec. Manokwari Bar., Kabupaten Manokwari";PAPUA;98312;Indonesia;08114918899;;;-0.85693;1.340.678.051;https://maps.google.com/?cid=0x0:0x7e7b90df1d787501;
mall;Pusat Perbelanjaan;Vision City Mega Mall;"Lot 7, 8  9, Section 429, 131 National Capital District, Waigani Dr, Port Moresby, Papua Nugini";"Port Moresby, Papua Nugini";PAPUA;;Indonesia;6753028555;;;-94.384.023;1.471.810.598;https://maps.google.com/?cid=0x0:0x6b6056559e073ba7;
mall;Kios;Kios SAHIRAH;"4MJW+5P8, Mindiptana, Kec. Mindiptana, Kabupaten Boven Digoel, Papua 99662";"Mindiptana, Kec. Mindiptana, Kabupaten Boven Digoel";PAPUA;99662;Indonesia;082239369073;;;-58.695.863;1.406.968.259;https://maps.google.com/?cid=0x0:0xa56cb8095ba41777;
mall;Kios;Kios Al-Roazak Waropen;"QCVR+7C3, Unnamed Road, Ureifaisei Satu/Sanggei, Kec. Urei Faisei, Kabupaten Waropen, Papua 98261";"Unnamed Road, Ureifaisei Satu/Sanggei, Kec. Urei Faisei, Kabupaten Waropen";PAPUA;98261;Indonesia;082199102844;;;-22.068.653;136.441.053;https://maps.google.com/?cid=0x0:0xdc36717acd68feb6;
mall;Kios;Kios waropen indah;"QCVV+3FG, Urei Faisei Dua, Kec. Urei Faisei, Kabupaten Waropen, Papua 98261";"Urei Faisei Dua, Kec. Urei Faisei, Kabupaten Waropen";PAPUA;98261;Indonesia;;;;-22.073.202;1.364.436.876;https://maps.google.com/?cid=0x0:0x6ef702b2375caf4c;
mall;mall;Kios Prabu;"9C59+326, Unnamed Road, Asiki, Kec. Jair, Kabupaten Boven Digoel, Papua 99661";"Unnamed Road, Asiki, Kec. Jair, Kabupaten Boven Digoel";PAPUA;99661;Indonesia;;;;-66.423.379;1.404.175.046;https://maps.google.com/?cid=0x0:0x112699514cec3b7c;
mall;Pusat Perbelanjaan;Kourosh Sohrevardi Commercial Complex;"Tehran Province, Tehran, Kourosh St, PCMR+33P, Iran";"Tehran Province, Tehran, Iran";PAPUA;;Indonesia;;;;357.327.181;514.402.187;https://maps.google.com/?cid=0x0:0xe2c02e82dc67f837;
mall;Pusat Perbelanjaan;Kourosh Mall;"????? ????? ?????. 57, Sattari Expy, Opposite Ave, Payambar, Iran";"Teheran, Iran";PAPUA;;Indonesia;;;;35.738.318;513.138.235;https://maps.google.com/?cid=0x0:0x99ce0e281ed8def;
mall;Toko Ponsel;Kourosh Mobile Centre;"Tehran Province, Tehran, District 5, Sattari Expy, P8Q7+PJ5 Kourosh shoping center, Iran";"Tehran Province, Tehran, Iran";PAPUA;;Indonesia;"9,82145E+11";;;357.392.656;513.141.235;https://maps.google.com/?cid=0x0:0xfe2d3943a7f8d7bc;
mall;Makanan Siap Saji;??? ???? ????? ???;"Tehran Province, Tehran, Central Payambar St, P8Q7+8GG ????? ?????? ???? ???, Iran";"Tehran Province, Tehran, Iran";PAPUA;;Indonesia;;;;35.738.318;513.138.235;https://maps.google.com/?cid=0x0:0x2fd356e7fe78b892;
mall;Pusat Hiburan;Jupiter Amusement Center;"P8Q7+9JJ, Tehran, Tehran Province, Iran";"Tehran, Tehran Province, Iran";PAPUA;;Indonesia;"9,82145E+11";;;357.384.727;513.140.132;https://maps.google.com/?cid=0x0:0x7551d08fb30f6581;
mall;Pusat Perbelanjaan;Mall Senayan City;"Jl. Asia Afrika No.Lot 19, Gelora, Kecamatan Tanah Abang, Kota Jakarta Pusat, Daerah Khusus Ibukota Jakarta 10270";"Gelora, Kecamatan Tanah Abang, Kota Jakarta Pusat";PAPUA;10270;Indonesia;02172781000;;;-62.271.953;1.067.970.117;https://maps.google.com/?cid=0x0:0x300c043104acc004;
mall;Pusat Perbelanjaan;Mall Plaza Senayan;"Jl. Asia Afrika No.8, RT.1/RW.3, Gelora, Kecamatan Tanah Abang, Kota Jakarta Pusat, Daerah Khusus Ibukota Jakarta 10270";"RT.1/RW.3, Gelora, Kecamatan Tanah Abang, Kota Jakarta Pusat";PAPUA;10270;Indonesia;0215725555;;;-62.254.775;1.067.992.649;https://maps.google.com/?cid=0x0:0x788e3a1eef75ac94;
mall;Toko Pakaian;Sogo Plaza Senayan;"Jl. Asia Afrika Plaza No.8, RT.1/RW.3, Senayan, Kecamatan Tanah Abang, Kota Jakarta Pusat, Daerah Khusus Ibukota Jakarta 10270";"RT.1/RW.3, Senayan, Kecamatan Tanah Abang, Kota Jakarta Pusat";PAPUA;10270;Indonesia;02157900055;;;-62.255.782;1.067.990.351;https://maps.google.com/?cid=0x0:0xa9954a894bf479ef;
mall;Pusat Perbelanjaan;Central Park;"Jl. Letjen S. Parman No.Kav. 28, Tj. Duren Sel., Kec. Grogol petamburan, Kota Jakarta Barat, Daerah Khusus Ibukota Jakarta 11470";"Tj. Duren Sel., Kec. Grogol petamburan, Kota Jakarta Barat";PAPUA;11470;Indonesia;02156989999;;;-61.771.373;1.067.909.788;https://maps.google.com/?cid=0x0:0xe816d65037c3207a;
mall;Pusat Perbelanjaan;Arion Mall;"Jl. Pemuda No.Kavling 3-4, RT.2/RW.7, Rawamangun, Kec. Pulo Gadung, Kota Jakarta Timur, Daerah Khusus Ibukota Jakarta 13220";"RT.2/RW.7, Rawamangun, Kec. Pulo Gadung, Kota Jakarta Timur";PAPUA;13220;Indonesia;0214711652;;;-61.938.923;106.890.485;https://maps.google.com/?cid=0x0:0x2c3ea95ddd6b2533;
mall;Restoran;Mall Cijantung;"MVP6+XRC, Jl. Pendidikan, RT.1/RW.4, Cijantung, Kec. Ps. Rebo, Kota Jakarta Timur, Daerah Khusus Ibukota Jakarta 13770";"Jl. Pendidikan, RT.1/RW.4, Cijantung, Kec. Ps. Rebo, Kota Jakarta Timur";PAPUA;13770;Indonesia;085891111850;;;-6.312.566;1.068.620.154;https://maps.google.com/?cid=0x0:0x8ad235b0fa732cad;
mall;mall;Kios Prabu;"9C59+326, Unnamed Road, Asiki, Kec. Jair, Kabupaten Boven Digoel, Papua 99661";"Unnamed Road, Asiki, Kec. Jair, Kabupaten Boven Digoel";PAPUA;99661;Indonesia;;;;-66.423.379;1.404.175.046;https://maps.google.com/?cid=0x0:0x112699514cec3b7c;
mall;Pusat Perbelanjaan;Mall Jayapura;"APO, Jl. Samratulangi, Bayangkara, Kec. Jayapura Utara, Kota Jayapura, Papua 99112";"Jl. Samratulangi, Bayangkara, Kec. Jayapura Utara, Kota Jayapura";PAPUA;99112;Indonesia;09675150000;;;-25.351.775;1.407.061.874;https://maps.google.com/?cid=0x0:0x54294cb27964023;
mall;Pusat Perbelanjaan;Mall Of Indonesia;"Jl. Boulevard Bar. Raya No.12, RT.18/RW.19, Klp. Gading Bar., Kec. Klp. Gading, Jkt Utara, Daerah Khusus Ibukota Jakarta 14240";"RT.18/RW.19, Klp. Gading Bar., Kec. Klp. Gading, Jkt Utara";PAPUA;14240;Indonesia;02145867888;;;-61.514.549;1.068.918.949;https://maps.google.com/?cid=0x0:0x3431c7aaadd1f1b6;
mall;Pusat Perbelanjaan;Koja Trade Mall;"Jl. Kramat Jaya Raya No.30, Tugu Utara, Kec. Koja, Jkt Utara, Daerah Khusus Ibukota Jakarta 14260";"Tugu Utara, Kec. Koja, Jkt Utara";PAPUA;14260;Indonesia;02143800888;;;-61.225.948;1.069.161.213;https://maps.google.com/?cid=0x0:0xd8cf1740a22e66ee;
mall;Pusat Perbelanjaan;ITC Cempaka Mas;"Jl. Letjen Suprapto No.Kav. 1, Sumur Batu, Kec. Kemayoran, Kota Jakarta Pusat, Daerah Khusus Ibukota Jakarta 10640";"Sumur Batu, Kec. Kemayoran, Kota Jakarta Pusat";PAPUA;10640;Indonesia;02142878833;;;-61.646.611;1.068.774.952;https://maps.google.com/?cid=0x0:0xca4d17c9802f752e;
mall;Pusat Perbelanjaan;Mall Artha Gading Jakarta;"Jl. Artha Gading Sel. No.1, Klp. Gading Bar., Kec. Klp. Gading, Jkt Utara, Daerah Khusus Ibukota Jakarta 14240";"Klp. Gading Bar., Kec. Klp. Gading, Jkt Utara";PAPUA;14240;Indonesia;02145864000;;;-61.457.739;1.068.919.187;https://maps.google.com/?cid=0x0:0x176166b3d087c724;
mall;Pusat Perbelanjaan;Sunter Mall;"Jl. Danau Sunter Utara Kav. II Blok G7, RT.1/RW.13, Sunter Agung, Kec. Tj. Priok, Jakarta, Daerah Khusus Ibukota Jakarta 14350";"RT.1/RW.13, Sunter Agung, Kec. Tj. Priok, Jakarta";PAPUA;14350;Indonesia;02165832000;;;-6.137.975;1.068.708.677;https://maps.google.com/?cid=0x0:0x2eb4db22853e1cac;
mall;Pusat Perbelanjaan;Summarecon Mall Kelapa Gading;"Jl. Boulevard Raya, Klp. Gading Tim., Kec. Klp. Gading, Jkt Utara, Daerah Khusus Ibukota Jakarta 14240";"Klp. Gading Tim., Kec. Klp. Gading, Jkt Utara";PAPUA;14240;Indonesia;0214531101;;;-61.572.666;1.069.084.263;https://maps.google.com/?cid=0x0:0x1c1a278e20ff1c47;
mall;Pusat Perbelanjaan;Wang Plaza;"Wang Plaza, Jl. Panjang No.kav 17, RT.14/RW.7, Kedoya Utara, Kec. Kb. Jeruk, jakarta, Daerah Khusus Ibukota Jakarta 11520";"Jl. Panjang No.kav 17, RT.14/RW.7, Kedoya Utara, Kec. Kb. Jeruk, jakarta";PAPUA;11520;Indonesia;085210640248;;;-61.729.507;1.067.659.789;https://maps.google.com/?cid=0x0:0x295d8c7fcdf93f7f;
mall;Pusat Perbelanjaan;Jogja City Mall;"Jl. Magelang No.6 No.18, Kutu Patran, Sinduadi, Kec. Mlati, Kabupaten Sleman, Daerah Istimewa Yogyakarta 55284";"Kutu Patran, Sinduadi, Kec. Mlati, Kabupaten Sleman";PAPUA;55284;Indonesia;02745305855;;;-77.532.424;1.103.609.091;https://maps.google.com/?cid=0x0:0x39d891d2e8da95a9;
mall;Kedai Kopi;Koultoura Coffee;"Jl. Ciniru I No.1, Rw. Bar., Kec. Kby. Baru, Jakarta, Daerah Khusus Ibukota Jakarta 12180";"Rw. Bar., Kec. Kby. Baru, Jakarta";PAPUA;12180;Indonesia;081286869082;;;-62.355.801;1.068.110.022;https://maps.google.com/?cid=0x0:0x4599600ab8419ed2;
mall;Pusat Perbelanjaan;Mall Jayapura;"APO, Jl. Samratulangi, Bayangkara, Kec. Jayapura Utara, Kota Jayapura, Papua 99112";"Jl. Samratulangi, Bayangkara, Kec. Jayapura Utara, Kota Jayapura";PAPUA;99112;Indonesia;09675150000;;;-25.351.775;1.407.061.874;https://maps.google.com/?cid=0x0:0x54294cb27964023;
mall;Pusat Perbelanjaan;SAGA MALL;"Kota Baru, Kec. Abepura, Kota Jayapura, Papua 99351";"Kec. Abepura, Kota Jayapura";PAPUA;99351;Indonesia;;;;-26.105.845;1.406.654.189;https://maps.google.com/?cid=0x0:0xaf65e43ff84ff9e6;
mall;Kedai Kopi;JCO COFFEE  DONUTS MALL JAYAPURA;"Jl. Kab. No.99112, Bayangkara, Kec. Jayapura Utara, Kota Jayapura, Papua 99112";"Bayangkara, Kec. Jayapura Utara, Kota Jayapura";PAPUA;99112;Indonesia;;;;-25.353.252;1.407.060.198;https://maps.google.com/?cid=0x0:0x8cbe835113b8c269;
mall;mall;Papua 99665;"Kabupaten Boven Digoel, Papua";"Kabupaten Boven Digoel, Papua";PAPUA;;Indonesia;;;;-53.993.592;140.265.662;https://maps.google.com/?cid=0x0:0x130a65ebf9121fb9;
mall;mall;Kios Prabu;"9C59+326, Unnamed Road, Asiki, Kec. Jair, Kabupaten Boven Digoel, Papua 99661";"Unnamed Road, Asiki, Kec. Jair, Kabupaten Boven Digoel";PAPUA;99661;Indonesia;;;;-66.423.379;1.404.175.046;https://maps.google.com/?cid=0x0:0x112699514cec3b7c;
mall;Pusat Perbelanjaan;Mall Kota Kasablanka;"Jl. Raya Casablanca No.Kav 88, Menteng Dalam, Kec. Tebet, Kota Jakarta Selatan, Daerah Khusus Ibukota Jakarta 12870";"Menteng Dalam, Kec. Tebet, Kota Jakarta Selatan";PAPUA;12870;Indonesia;02129465000;;;-62.240.353;1.068.425.979;https://maps.google.com/?cid=0x0:0xaf54cb631563acce;
mall;Pusat Perbelanjaan;Koja Trade Mall;"Jl. Kramat Jaya Raya No.30, Tugu Utara, Kec. Koja, Jkt Utara, Daerah Khusus Ibukota Jakarta 14260";"Tugu Utara, Kec. Koja, Jkt Utara";PAPUA;14260;Indonesia;02143800888;;;-61.225.948;1.069.161.213;https://maps.google.com/?cid=0x0:0xd8cf1740a22e66ee;
mall;Pusat Perbelanjaan;Mall Of Indonesia;"Jl. Boulevard Bar. Raya No.12, RT.18/RW.19, Klp. Gading Bar., Kec. Klp. Gading, Jkt Utara, Daerah Khusus Ibukota Jakarta 14240";"RT.18/RW.19, Klp. Gading Bar., Kec. Klp. Gading, Jkt Utara";PAPUA;14240;Indonesia;02145867888;;;-61.514.549;1.068.918.949;https://maps.google.com/?cid=0x0:0x3431c7aaadd1f1b6;
mall;Pusat Perbelanjaan;Moi;"Klp. Gading Trade Centre, Jl. Pulau Putri No.2 2, RT.2/RW.9, Klp. Gading Bar., Kec. Klp. Gading, Jkt Utara, Daerah Khusus Ibukota Jakarta 14240";"Jl. Pulau Putri No.2 2, RT.2/RW.9, Klp. Gading Bar., Kec. Klp. Gading, Jkt Utara";PAPUA;14240;Indonesia;;;;-61.508.529;1.068.921.366;https://maps.google.com/?cid=0x0:0xbfa0759132a66681;
mall;Pusat Perbelanjaan;ITC Cempaka Mas;"Jl. Letjen Suprapto No.Kav. 1, Sumur Batu, Kec. Kemayoran, Kota Jakarta Pusat, Daerah Khusus Ibukota Jakarta 10640";"Sumur Batu, Kec. Kemayoran, Kota Jakarta Pusat";PAPUA;10640;Indonesia;02142878833;;;-61.646.611;1.068.774.952;https://maps.google.com/?cid=0x0:0xca4d17c9802f752e;
mall;Taman;Senayan Park;"Jl. Gerbang Pemuda No.3, RT.1/RW.3, Gelora, Kecamatan Tanah Abang, Kota Jakarta Pusat, Daerah Khusus Ibukota Jakarta 10270";"RT.1/RW.3, Gelora, Kecamatan Tanah Abang, Kota Jakarta Pusat";PAPUA;10270;Indonesia;0212512030;;;-62.128.077;1.068.036.757;https://maps.google.com/?cid=0x0:0xc0ea4d9a9d1b2936;
mall;Pusat Perbelanjaan;Millennium Mall;"Jl. Senen Raya No.135, Senen, Kec. Senen, Kota Jakarta Pusat, Daerah Khusus Ibukota Jakarta 10410";"Senen, Kec. Senen, Kota Jakarta Pusat";PAPUA;10410;Indonesia;0213867862;;;-6.177.522;1.068.415.448;https://maps.google.com/?cid=0x0:0xfacaba2cca993e41;
mall;Pusat Perbelanjaan;Sunter Mall;"Jl. Danau Sunter Utara Kav. II Blok G7, RT.1/RW.13, Sunter Agung, Kec. Tj. Priok, Jakarta, Daerah Khusus Ibukota Jakarta 14350";"RT.1/RW.13, Sunter Agung, Kec. Tj. Priok, Jakarta";PAPUA;14350;Indonesia;02165832000;;;-6.137.975;1.068.708.677;https://maps.google.com/?cid=0x0:0x2eb4db22853e1cac;
mall;Pusat Perbelanjaan;Summarecon Mall Kelapa Gading;"Jl. Boulevard Raya, Klp. Gading Tim., Kec. Klp. Gading, Jkt Utara, Daerah Khusus Ibukota Jakarta 14240";"Klp. Gading Tim., Kec. Klp. Gading, Jkt Utara";PAPUA;14240;Indonesia;0214531101;;;-61.572.666;1.069.084.263;https://maps.google.com/?cid=0x0:0x1c1a278e20ff1c47;
mall;Pusat Perbelanjaan;Wang Plaza;"Wang Plaza, Jl. Panjang No.kav 17, RT.14/RW.7, Kedoya Utara, Kec. Kb. Jeruk, jakarta, Daerah Khusus Ibukota Jakarta 11520";"Jl. Panjang No.kav 17, RT.14/RW.7, Kedoya Utara, Kec. Kb. Jeruk, jakarta";PAPUA;11520;Indonesia;085210640248;;;-61.729.507;1.067.659.789;https://maps.google.com/?cid=0x0:0x295d8c7fcdf93f7f;
mall;Pusat Perbelanjaan;Mall Artha Gading Jakarta;"Jl. Artha Gading Sel. No.1, Klp. Gading Bar., Kec. Klp. Gading, Jkt Utara, Daerah Khusus Ibukota Jakarta 14240";"Klp. Gading Bar., Kec. Klp. Gading, Jkt Utara";PAPUA;14240;Indonesia;02145864000;;;-61.457.739;1.068.919.187;https://maps.google.com/?cid=0x0:0x176166b3d087c724;
mall;Kedai Kopi;Koultoura Coffee;"Jl. Ciniru I No.1, Rw. Bar., Kec. Kby. Baru, Jakarta, Daerah Khusus Ibukota Jakarta 12180";"Rw. Bar., Kec. Kby. Baru, Jakarta";PAPUA;12180;Indonesia;081286869082;;;-62.355.801;1.068.110.022;https://maps.google.com/?cid=0x0:0x4599600ab8419ed2;
mall;mall;Papua 99661;"Kabupaten Boven Digoel, Papua";"Kabupaten Boven Digoel, Papua";PAPUA;;Indonesia;;;;-66.725.506;1.401.832.516;https://maps.google.com/?cid=0x0:0x6942b94e71194057;
mall;Pusat Perbelanjaan;Mall Jayapura;"APO, Jl. Samratulangi, Bayangkara, Kec. Jayapura Utara, Kota Jayapura, Papua 99112";"Jl. Samratulangi, Bayangkara, Kec. Jayapura Utara, Kota Jayapura";PAPUA;99112;Indonesia;09675150000;;;-25.351.775;1.407.061.874;https://maps.google.com/?cid=0x0:0x54294cb27964023;
mall;mall;Kios Prabu;"9C59+326, Unnamed Road, Asiki, Kec. Jair, Kabupaten Boven Digoel, Papua 99661";"Unnamed Road, Asiki, Kec. Jair, Kabupaten Boven Digoel";PAPUA;99661;Indonesia;;;;-66.423.379;1.404.175.046;https://maps.google.com/?cid=0x0:0x112699514cec3b7c;
mall;mall;Toko rokok;"8CP6+HHV, Jl. Prabu Siliwangi, Asiki, Kec. Jair, Kabupaten Boven Digoel, Papua 99661";"Jl. Prabu Siliwangi, Asiki, Kec. Jair, Kabupaten Boven Digoel";PAPUA;99661;Indonesia;;;;-66.635.058;1.404.114.277;https://maps.google.com/?cid=0x0:0xa282844ac446bbf4;
mall;mall;"Sand Point, Alaska 99661";"Sand Point, Alaska, Amerika Serikat";"Sand Point, Alaska, Amerika Serikat";PAPUA;;Indonesia;;;;552.693.058;-1.606.748.964;https://maps.google.com/?cid=0x0:0x7563da9a6a55a5d0;
mall;Toko umum;kompleks pasar bomakia;"5VQC+WQH, Bomakia I, Distrik Bomakia, Kabupaten Boven Digoel, Papua 99663";"Bomakia I, Distrik Bomakia, Kabupaten Boven Digoel";PAPUA;99663;Indonesia;081248083853;;;-58.101.972;1.398.719.849;https://maps.google.com/?cid=0x0:0x3bed8e2158e5118d;
mall;Pusat Perbelanjaan;Kios sinar maros;"5VQC+XJX, Bomakia I, Distrik Bomakia, Kabupaten Boven Digoel, Papua 99663";"Bomakia I, Distrik Bomakia, Kabupaten Boven Digoel";PAPUA;99663;Indonesia;081247047104;;;-58.100.154;1.398.716.218;https://maps.google.com/?cid=0x0:0x8d3395e0840adcbb;
mall;Gedung Apartemen;Mall@Bassura;"Jl. Jenderal Basuki Rachmat No.1A, Cipinang Besar Sel., Kecamatan Jatinegara, Kota Jakarta Timur, Daerah Khusus Ibukota Jakarta 13410";"Cipinang Besar Sel., Kecamatan Jatinegara, Kota Jakarta Timur";PAPUA;13410;Indonesia;02122807300;;;-62.240.597;1.068.778.851;https://maps.google.com/?cid=0x0:0x610648e929845480;
mall;mall;Kombut;"Kabupaten Boven Digoel, Papua";"Kabupaten Boven Digoel, Papua";PAPUA;;Indonesia;;;;-58.111.842;1.408.040.271;https://maps.google.com/?cid=0x0:0xd4979b856c10d48e;
mall;Kios;Kios SAHIRAH;"4MJW+5P8, Mindiptana, Kec. Mindiptana, Kabupaten Boven Digoel, Papua 99662";"Mindiptana, Kec. Mindiptana, Kabupaten Boven Digoel";PAPUA;99662;Indonesia;082239369073;;;-58.695.863;1.406.968.259;https://maps.google.com/?cid=0x0:0xa56cb8095ba41777;
mall;Pusat Perbelanjaan;Kios Cahaya Baru;"4MHW+XQV, Mindiptana, Kec. Mindiptana, Kabupaten Boven Digoel, Papua 99662";"Mindiptana, Kec. Mindiptana, Kabupaten Boven Digoel";PAPUA;99662;Indonesia;;;;-58.700.142;1.406.969.358;https://maps.google.com/?cid=0x0:0x53182ec028b0e645;
mall;Pusat Perbelanjaan;SAGA MALL;"Kota Baru, Kec. Abepura, Kota Jayapura, Papua 99351";"Kec. Abepura, Kota Jayapura";PAPUA;99351;Indonesia;;;;-26.105.845;1.406.654.189;https://maps.google.com/?cid=0x0:0xaf65e43ff84ff9e6;
mall;Toko Swalayan;Hypermart Jayapura Mall;"Jl. Dr. Sam Ratulangi No.47, Bayangkara, Kec. Jayapura Utara, Kota Jayapura, Papua 99112";"Bayangkara, Kec. Jayapura Utara, Kota Jayapura";PAPUA;99112;Indonesia;0967522298;;;-25.350.388;1.407.055.769;https://maps.google.com/?cid=0x0:0xb1412384235d004a;
mall;Kedai Kopi;JCO COFFEE  DONUTS MALL JAYAPURA;"Jl. Kab. No.99112, Bayangkara, Kec. Jayapura Utara, Kota Jayapura, Papua 99112";"Bayangkara, Kec. Jayapura Utara, Kota Jayapura";PAPUA;99112;Indonesia;;;;-25.353.252;1.407.060.198;https://maps.google.com/?cid=0x0:0x8cbe835113b8c269;
mall;mall;Distrik Iniyandit;"Kabupaten Boven Digoel, Papua";"Kabupaten Boven Digoel, Papua";PAPUA;;Indonesia;;;;-57.470.313;1.406.432.017;https://maps.google.com/?cid=0x0:0xefab246d2462f016;
mall;Kios;Kios SAHIRAH;"4MJW+5P8, Mindiptana, Kec. Mindiptana, Kabupaten Boven Digoel, Papua 99662";"Mindiptana, Kec. Mindiptana, Kabupaten Boven Digoel";PAPUA;99662;Indonesia;082239369073;;;-58.695.863;1.406.968.259;https://maps.google.com/?cid=0x0:0xa56cb8095ba41777;
mall;Pusat Perbelanjaan;Mall Senayan City;"Jl. Asia Afrika No.Lot 19, Gelora, Kecamatan Tanah Abang, Kota Jakarta Pusat, Daerah Khusus Ibukota Jakarta 10270";"Gelora, Kecamatan Tanah Abang, Kota Jakarta Pusat";PAPUA;10270;Indonesia;02172781000;;;-62.271.953;1.067.970.117;https://maps.google.com/?cid=0x0:0x300c043104acc004;
mall;Pembangunan Perumahan;Kiyos Arsyilah;"785X+X7V, Ujung, Arimop, Kabupaten Boven Digoel, Papua";"Kabupaten Boven Digoel, Papua";PAPUA;;Indonesia;;;;-57.400.018;1.403.481.835;https://maps.google.com/?cid=0x0:0x27799a1915982981;
mall;Pembangunan Perumahan;Kios Arumi;"785X+X7V, Jl SMA abonggo, Ujung, Arimop, Kabupaten Boven Digoel, Papua";"Kabupaten Boven Digoel, Papua";PAPUA;;Indonesia;;;;-57.400.018;1.403.481.835;https://maps.google.com/?cid=0x0:0xf53f91790c52f974;
mall;Pembangunan Perumahan;Distrik Arimop;"V8XC+HQC, Persatuan, Kec. Mandobo, Kabupaten Boven Digoel, Papua 99663";"Persatuan, Kec. Mandobo, Kabupaten Boven Digoel";PAPUA;99663;Indonesia;;;;-61.019.025;1.403.212.482;https://maps.google.com/?cid=0x0:0xa9fea1ed0f7e5cec;
mall;mall;Distrik Fofi;"Kabupaten Boven Digoel, Papua";"Kabupaten Boven Digoel, Papua";PAPUA;;Indonesia;;;;-62.111.813;139.855.567;https://maps.google.com/?cid=0x0:0xed105c6777af2f3e;
mall;Pusat Perbelanjaan;Timika Mall;"57522, Jl. Hasanuddin No.9, Nawaripi, Mimika Baru, Mimika Regency, Papua 99971";"Jl. Hasanuddin No.9, Nawaripi, Mimika Baru, Mimika Regency";PAPUA;99971;Indonesia;;;;-45.673.682;1.368.869.612;https://maps.google.com/?cid=0x0:0x146edd1a60cab3dd;
mall;mall;Kios difta;"XJV7+R8, Kobeta, Distrik Syahcame, Kabupaten Mappi, Papua 99853";"Kobeta, Distrik Syahcame, Kabupaten Mappi";PAPUA;99853;Indonesia;082398151611;;;-7.005.415;1.396.133.423;https://maps.google.com/?cid=0x0:0x14f156e96f063bc2;
mall;Pusat Perbelanjaan;Mall Jayapura;"APO, Jl. Samratulangi, Bayangkara, Kec. Jayapura Utara, Kota Jayapura, Papua 99112";"Jl. Samratulangi, Bayangkara, Kec. Jayapura Utara, Kota Jayapura";PAPUA;99112;Indonesia;09675150000;;;-25.351.775;1.407.061.874;https://maps.google.com/?cid=0x0:0x54294cb27964023;
mall;Pusat Perbelanjaan;SAGA MALL;"Kota Baru, Kec. Abepura, Kota Jayapura, Papua 99351";"Kec. Abepura, Kota Jayapura";PAPUA;99351;Indonesia;;;;-26.105.845;1.406.654.189;https://maps.google.com/?cid=0x0:0xaf65e43ff84ff9e6;
mall;Kedai Kopi;JCO COFFEE  DONUTS MALL JAYAPURA;"Jl. Kab. No.99112, Bayangkara, Kec. Jayapura Utara, Kota Jayapura, Papua 99112";"Bayangkara, Kec. Jayapura Utara, Kota Jayapura";PAPUA;99112;Indonesia;;;;-25.353.252;1.407.060.198;https://maps.google.com/?cid=0x0:0x8cbe835113b8c269;
mall;Pusat Perbelanjaan;Belakang Manokwari city mall;"43W7+F3H, Manokwari Bar., Kec. Manokwari Bar., Kabupaten Manokwari, Papua Bar. 98312";"Manokwari Bar., Kec. Manokwari Bar., Kabupaten Manokwari";PAPUA;98312;Indonesia;;;;-0.8538079;1.340.627.452;https://maps.google.com/?cid=0x0:0x59f633fd28048da4;
mall;Pusat Perbelanjaan;Manokwari City Mall (MCM);"Jl. Yos Sudarso Manokwari, Manokwari Bar., Kec. Manokwari Bar., Kabupaten Manokwari, Papua Bar. 98312";"Manokwari Bar., Kec. Manokwari Bar., Kabupaten Manokwari";PAPUA;98312;Indonesia;08114918899;;;-0.85693;1.340.678.051;https://maps.google.com/?cid=0x0:0x7e7b90df1d787501;
mall;Komplek perumahan;Fanindi Pantai;"43R9+J9P Bar, Padarni, Kec. Manokwari Bar., Kabupaten Manokwari, Papua Bar. 98312";"Padarni, Kec. Manokwari Bar., Kabupaten Manokwari";PAPUA;98312;Indonesia;081344477231;;;-0.8584193;1.340.684.588;https://maps.google.com/?cid=0x0:0xfea55ca67440bcde;
mall;Jepang;Ichiban Sushi Manokwari City Mall;"Jl. Yos Sudarso, Manokwari Bar., Kec. Manokwari Bar., Kabupaten Manokwari, Papua Bar. 98312";"Manokwari Bar., Kec. Manokwari Bar., Kabupaten Manokwari";PAPUA;98312;Indonesia;;;;-0.85696;1.340.676.162;https://maps.google.com/?cid=0x0:0x345744965a30969a;
mall;mall;Ambatkwi;"Kabupaten Boven Digoel, Papua";"Kabupaten Boven Digoel, Papua";PAPUA;;Indonesia;;;;-53.948.021;1.406.378.804;https://maps.google.com/?cid=0x0:0x3a215afc7936b662;
mall;mall;Distrik Manggelum;"Kabupaten Boven Digoel, Papua";"Kabupaten Boven Digoel, Papua";PAPUA;;Indonesia;;;;-53.141.695;1.403.212.401;https://maps.google.com/?cid=0x0:0xda512ae0ae71c8e3;
mall;Pusat Perbelanjaan;Mall Jayapura;"APO, Jl. Samratulangi, Bayangkara, Kec. Jayapura Utara, Kota Jayapura, Papua 99112";"Jl. Samratulangi, Bayangkara, Kec. Jayapura Utara, Kota Jayapura";PAPUA;99112;Indonesia;09675150000;;;-25.351.775;1.407.061.874;https://maps.google.com/?cid=0x0:0x54294cb27964023;
mall;Pusat Perbelanjaan;SAGA MALL;"Kota Baru, Kec. Abepura, Kota Jayapura, Papua 99351";"Kec. Abepura, Kota Jayapura";PAPUA;99351;Indonesia;;;;-26.105.845;1.406.654.189;https://maps.google.com/?cid=0x0:0xaf65e43ff84ff9e6;
mall;Toko Swalayan;Hypermart Jayapura Mall;"Jl. Dr. Sam Ratulangi No.47, Bayangkara, Kec. Jayapura Utara, Kota Jayapura, Papua 99112";"Bayangkara, Kec. Jayapura Utara, Kota Jayapura";PAPUA;99112;Indonesia;0967522298;;;-25.350.388;1.407.055.769;https://maps.google.com/?cid=0x0:0xb1412384235d004a;
mall;mall;Manggelum;"Distrik Manggelum, Kabupaten Boven Digoel, Papua";"Kabupaten Boven Digoel, Papua";PAPUA;;Indonesia;;;;-53.697.435;1.404.204.808;https://maps.google.com/?cid=0x0:0xa227866e6b216e;
mall;Pusat Perbelanjaan;SAGA MALL;"Kota Baru, Kec. Abepura, Kota Jayapura, Papua 99351";"Kec. Abepura, Kota Jayapura";PAPUA;99351;Indonesia;;;;-26.105.845;1.406.654.189;https://maps.google.com/?cid=0x0:0xaf65e43ff84ff9e6;
mall;Pusat Perbelanjaan;Mall Jayapura;"APO, Jl. Samratulangi, Bayangkara, Kec. Jayapura Utara, Kota Jayapura, Papua 99112";"Jl. Samratulangi, Bayangkara, Kec. Jayapura Utara, Kota Jayapura";PAPUA;99112;Indonesia;09675150000;;;-25.351.775;1.407.061.874;https://maps.google.com/?cid=0x0:0x54294cb27964023;
mall;Kedai Kopi;JCO COFFEE  DONUTS MALL JAYAPURA;"Jl. Kab. No.99112, Bayangkara, Kec. Jayapura Utara, Kota Jayapura, Papua 99112";"Bayangkara, Kec. Jayapura Utara, Kota Jayapura";PAPUA;99112;Indonesia;;;;-25.353.252;1.407.060.198;https://maps.google.com/?cid=0x0:0x8cbe835113b8c269;
mall;mall;Firiwage;"Firiwage, Kabupaten Boven Digoel, Papua";"Kabupaten Boven Digoel, Papua";PAPUA;;Indonesia;;;;-5.520.689;140.115.204;https://maps.google.com/?cid=0x0:0x19410c614180567f;
mall;mall;Kec. Tebet;"Kota Jakarta Selatan, Daerah Khusus Ibukota Jakarta";"Kota Jakarta Selatan, Daerah Khusus Ibukota Jakarta";PAPUA;;Indonesia;;;;-62.251.223;1.068.549.881;https://maps.google.com/?cid=0x0:0xd575e31c807295f9;
mall;mall;Papua 99664;"Kabupaten Boven Digoel, Papua";"Kabupaten Boven Digoel, Papua";PAPUA;;Indonesia;;;;-55.720.214;1.407.624.493;https://maps.google.com/?cid=0x0:0x4763b936197cab93;
mall;Pusat Perbelanjaan;Mall Jayapura;"APO, Jl. Samratulangi, Bayangkara, Kec. Jayapura Utara, Kota Jayapura, Papua 99112";"Jl. Samratulangi, Bayangkara, Kec. Jayapura Utara, Kota Jayapura";PAPUA;99112;Indonesia;09675150000;;;-25.351.775;1.407.061.874;https://maps.google.com/?cid=0x0:0x54294cb27964023;
mall;Pusat Perbelanjaan;Mall Senayan City;"Jl. Asia Afrika No.Lot 19, Gelora, Kecamatan Tanah Abang, Kota Jakarta Pusat, Daerah Khusus Ibukota Jakarta 10270";"Gelora, Kecamatan Tanah Abang, Kota Jakarta Pusat";PAPUA;10270;Indonesia;02172781000;;;-62.271.953;1.067.970.117;https://maps.google.com/?cid=0x0:0x300c043104acc004;
mall;Pasar Grosir Pakaian;Ramayana Abepura;"Jl. Raya Abepura, Kel. Vin, Kec. Jayapura Selatan, Wai Mhorock, Kec. Abepura, Kota Jayapura, Papua 99351";"Kel. Vin, Kec. Jayapura Selatan, Wai Mhorock, Kec. Abepura, Kota Jayapura";PAPUA;99351;Indonesia;0967584745;;;-2.604.339;1.406.736.756;https://maps.google.com/?cid=0x0:0x103c0acf73345917;
mall;Minimarket;Jayapura;"RJHR+X47, Sukaasih, Kec. Tangerang, Kota Tangerang, Banten";"Kota Tangerang, Banten";PAPUA;;Indonesia;;;;-61.700.957;1.066.403.119;https://maps.google.com/?cid=0x0:0xd349b4eed66f2ec0;
mall;Pusat Perbelanjaan;Arion Mall;"Jl. Pemuda No.Kavling 3-4, RT.2/RW.7, Rawamangun, Kec. Pulo Gadung, Kota Jakarta Timur, Daerah Khusus Ibukota Jakarta 13220";"RT.2/RW.7, Rawamangun, Kec. Pulo Gadung, Kota Jakarta Timur";PAPUA;13220;Indonesia;0214711652;;;-61.938.923;106.890.485;https://maps.google.com/?cid=0x0:0x2c3ea95ddd6b2533;
mall;Pusat Perbelanjaan;SAGA MALL;"Kota Baru, Kec. Abepura, Kota Jayapura, Papua 99351";"Kec. Abepura, Kota Jayapura";PAPUA;99351;Indonesia;;;;-26.105.845;1.406.654.189;https://maps.google.com/?cid=0x0:0xaf65e43ff84ff9e6;
mall;Kedai Kopi;JCO COFFEE  DONUTS MALL JAYAPURA;"Jl. Kab. No.99112, Bayangkara, Kec. Jayapura Utara, Kota Jayapura, Papua 99112";"Bayangkara, Kec. Jayapura Utara, Kota Jayapura";PAPUA;99112;Indonesia;;;;-25.353.252;1.407.060.198;https://maps.google.com/?cid=0x0:0x8cbe835113b8c269;
mall;Toko Swalayan;Hypermart Jayapura Mall;"Jl. Dr. Sam Ratulangi No.47, Bayangkara, Kec. Jayapura Utara, Kota Jayapura, Papua 99112";"Bayangkara, Kec. Jayapura Utara, Kota Jayapura";PAPUA;99112;Indonesia;0967522298;;;-25.350.388;1.407.055.769;https://maps.google.com/?cid=0x0:0xb1412384235d004a;
mall;Pusat Perbelanjaan;SAGA MALL;"Kota Baru, Kec. Abepura, Kota Jayapura, Papua 99351";"Kec. Abepura, Kota Jayapura";PAPUA;99351;Indonesia;;;;-26.105.845;1.406.654.189;https://maps.google.com/?cid=0x0:0xaf65e43ff84ff9e6;
mall;Pusat Perbelanjaan;Gandaria City;"Jl. Sultan Iskandar Muda, Gandaria, Kec. Kby. Lama, Kota Jakarta Selatan, Daerah Khusus Ibukota Jakarta 12240";"Gandaria, Kec. Kby. Lama, Kota Jakarta Selatan";PAPUA;12240;Indonesia;02129052888;;;-62.443.009;1.067.829.375;https://maps.google.com/?cid=0x0:0x6173704d396d5a99;
mall;Pusat Perbelanjaan;Mall Jayapura;"APO, Jl. Samratulangi, Bayangkara, Kec. Jayapura Utara, Kota Jayapura, Papua 99112";"Jl. Samratulangi, Bayangkara, Kec. Jayapura Utara, Kota Jayapura";PAPUA;99112;Indonesia;09675150000;;;-25.351.775;1.407.061.874;https://maps.google.com/?cid=0x0:0x54294cb27964023;
mall;Pusat Perbelanjaan;Puri Indah Mall;"Jl. Puri Agung No.1, Kembangan Sel., Kec. Kembangan, Kota Jakarta Barat, Daerah Khusus Ibukota Jakarta 11610";"Kembangan Sel., Kec. Kembangan, Kota Jakarta Barat";PAPUA;11610;Indonesia;0215822582;;;-61.887.759;1.067.347.896;https://maps.google.com/?cid=0x0:0x6653aecc17740a12;
mall;Toko Pakaian;Subur Toko;"Pusat Grosir Blok A Tanah Abang Lantai 3 Los G No. 19, JL Fachrudin, No. 1, RT.10/RW.7, Kp. Bali, Jakarta Pusat, Kota Jakarta Pusat, Daerah Khusus Ibukota Jakarta 10250";"JL Fachrudin, No. 1, RT.10/RW.7, Kp. Bali, Jakarta Pusat, Kota Jakarta Pusat";PAPUA;10250;Indonesia;02123570001;;;-61.867.396;1.068.158.076;https://maps.google.com/?cid=0x0:0x96967ed88a5359c4;
mall;Supermarket Diskon;Subur Toko;"Jl. Kiasnawi No.1, RT.003/RW.003, Sukarasa, Kec. Tangerang, Kota Tangerang, Banten 15111";"RT.003/RW.003, Sukarasa, Kec. Tangerang, Kota Tangerang";PAPUA;15111;Indonesia;02155772635;;;-61.761.741;1.066.314.375;https://maps.google.com/?cid=0x0:0x4b383fa22745a668;
mall;Pusat Perbelanjaan;Lotte Shopping Avenue Mall;"Jl. Prof. DR. Satrio No.Kav.3, RW.5, Kuningan, Karet Kuningan, Kecamatan Setiabudi, Kota Jakarta Selatan, Daerah Khusus Ibukota Jakarta 12940";"RW.5, Kuningan, Karet Kuningan, Kecamatan Setiabudi, Kota Jakarta Selatan";PAPUA;12940;Indonesia;02129889292;;;-62.233.644;1.068.232.981;https://maps.google.com/?cid=0x0:0xe8323175da8b9770;
mall;mall;Papua 99664;"Kabupaten Boven Digoel, Papua";"Kabupaten Boven Digoel, Papua";PAPUA;;Indonesia;;;;-55.720.214;1.407.624.493;https://maps.google.com/?cid=0x0:0x4763b936197cab93;
mall;Pusat Perbelanjaan;Mall Jayapura;"APO, Jl. Samratulangi, Bayangkara, Kec. Jayapura Utara, Kota Jayapura, Papua 99112";"Jl. Samratulangi, Bayangkara, Kec. Jayapura Utara, Kota Jayapura";PAPUA;99112;Indonesia;09675150000;;;-25.351.775;1.407.061.874;https://maps.google.com/?cid=0x0:0x54294cb27964023;
mall;Pusat Perbelanjaan;Timika Mall;"57522, Jl. Hasanuddin No.9, Nawaripi, Mimika Baru, Mimika Regency, Papua 99971";"Jl. Hasanuddin No.9, Nawaripi, Mimika Baru, Mimika Regency";PAPUA;99971;Indonesia;;;;-45.673.682;1.368.869.612;https://maps.google.com/?cid=0x0:0x146edd1a60cab3dd;
mall;Pusat Perbelanjaan;Manokwari City Mall (MCM);"Jl. Yos Sudarso Manokwari, Manokwari Bar., Kec. Manokwari Bar., Kabupaten Manokwari, Papua Bar. 98312";"Manokwari Bar., Kec. Manokwari Bar., Kabupaten Manokwari";PAPUA;98312;Indonesia;08114918899;;;-0.85693;1.340.678.051;https://maps.google.com/?cid=0x0:0x7e7b90df1d787501;
mall;Pusat Perbelanjaan;Vision City Mega Mall;"Lot 7, 8  9, Section 429, 131 National Capital District, Waigani Dr, Port Moresby, Papua Nugini";"Port Moresby, Papua Nugini";PAPUA;;Indonesia;6753028555;;;-94.384.023;1.471.810.598;https://maps.google.com/?cid=0x0:0x6b6056559e073ba7;
mall;Pusat Perbelanjaan;SAGA MALL;"Kota Baru, Kec. Abepura, Kota Jayapura, Papua 99351";"Kec. Abepura, Kota Jayapura";PAPUA;99351;Indonesia;;;;-26.105.845;1.406.654.189;https://maps.google.com/?cid=0x0:0xaf65e43ff84ff9e6;
mall;Pasar Grosir Pakaian;Ramayana Abepura;"Jl. Raya Abepura, Kel. Vin, Kec. Jayapura Selatan, Wai Mhorock, Kec. Abepura, Kota Jayapura, Papua 99351";"Kel. Vin, Kec. Jayapura Selatan, Wai Mhorock, Kec. Abepura, Kota Jayapura";PAPUA;99351;Indonesia;0967584745;;;-2.604.339;1.406.736.756;https://maps.google.com/?cid=0x0:0x103c0acf73345917;
mall;Toko Swalayan;Hypermart Jayapura Mall;"Jl. Dr. Sam Ratulangi No.47, Bayangkara, Kec. Jayapura Utara, Kota Jayapura, Papua 99112";"Bayangkara, Kec. Jayapura Utara, Kota Jayapura";PAPUA;99112;Indonesia;0967522298;;;-25.350.388;1.407.055.769;https://maps.google.com/?cid=0x0:0xb1412384235d004a;
mall;Pusat Perbelanjaan;Shopping Family Tembagapura;"V34Q+XXH, Tembagapura, Arwandop, Tembagapura, Kec. Tembagapura, Kabupaten Mimika, Papua 99967";"Tembagapura, Arwandop, Tembagapura, Kec. Tembagapura, Kabupaten Mimika";PAPUA;99967;Indonesia;;;;-41.425.625;1.370.899.844;https://maps.google.com/?cid=0x0:0x23ff3f0a601439a2;
mall;Kios;Kios SAHIRAH;"4MJW+5P8, Mindiptana, Kec. Mindiptana, Kabupaten Boven Digoel, Papua 99662";"Mindiptana, Kec. Mindiptana, Kabupaten Boven Digoel";PAPUA;99662;Indonesia;082239369073;;;-58.695.863;1.406.968.259;https://maps.google.com/?cid=0x0:0xa56cb8095ba41777;
mall;Minimarket;Jayapura;"RJHR+X47, Sukaasih, Kec. Tangerang, Kota Tangerang, Banten";"Kota Tangerang, Banten";PAPUA;;Indonesia;;;;-61.700.957;1.066.403.119;https://maps.google.com/?cid=0x0:0xd349b4eed66f2ec0;
mall;Kantor Perusahaan;Apawer;"59R5+4HV, Kamenawari, Distrik Pantai Barat, Kabupaten Sarmi, Papua 99374";"Kamenawari, Distrik Pantai Barat, Kabupaten Sarmi";PAPUA;99374;Indonesia;081248221487;;;-18.096.451;1.383.589.086;https://maps.google.com/?cid=0x0:0x2abeeed9cafae89f;
mall;Pusat Perbelanjaan;Kios Bambapuang;"WM44+JW4, Jl. Raya, Banjar Ausoy (Sp IV), Distrik Manimeri, Kabupaten Teluk Bintuni, Papua Bar. 98364";"Jl. Raya, Banjar Ausoy (Sp IV), Distrik Manimeri, Kabupaten Teluk Bintuni";PAPUA;98364;Indonesia;082238007601;;;-20.934.796;1.336.573.187;https://maps.google.com/?cid=0x0:0xd06ca1a9668ad65e;
mall;Pusat Perbelanjaan;Matahari Department Store - Mall Jayapura;"Jayapura Mall Lantai 1  2, Jl. Sam Ratulangi No. 45, Bhayangkara, Jayapura Utara, Bayangkara, Kec. Jayapura Utara, Kota Jayapura, Papua 99112";"Jl. Sam Ratulangi No. 45, Bhayangkara, Jayapura Utara, Bayangkara, Kec. Jayapura Utara, Kota Jayapura";PAPUA;99112;Indonesia;09675150242;;;-25.352.864;1.407.060.379;https://maps.google.com/?cid=0x0:0x2f3594fedfb3ad93;
mall;Pembangunan Perumahan;Kiyos Arsyilah;"785X+X7V, Ujung, Arimop, Kabupaten Boven Digoel, Papua";"Kabupaten Boven Digoel, Papua";PAPUA;;Indonesia;;;;-57.400.018;1.403.481.835;https://maps.google.com/?cid=0x0:0x27799a1915982981;
mall;Pusat Perbelanjaan;RH Hypermarket Vision City;"Lot 7, 8  9, Section 429, 131 National Capital District, Waigani Drive Port Moresby NCD, 121, Papua Nugini";"Port Moresby, Papua Nugini";PAPUA;;Indonesia;6753028555;;;-9.438.292;1.471.817.697;https://maps.google.com/?cid=0x0:0xe13cc57c2d2c1c38;
mall;Kedai Kopi;JCO COFFEE  DONUTS MALL JAYAPURA;"Jl. Kab. No.99112, Bayangkara, Kec. Jayapura Utara, Kota Jayapura, Papua 99112";"Bayangkara, Kec. Jayapura Utara, Kota Jayapura";PAPUA;99112;Indonesia;;;;-25.353.252;1.407.060.198;https://maps.google.com/?cid=0x0:0x8cbe835113b8c269;
mall;Pusat Perbelanjaan;Mall Kota Kasablanka;"Jl. Raya Casablanca No.Kav 88, Menteng Dalam, Kec. Tebet, Kota Jakarta Selatan, Daerah Khusus Ibukota Jakarta 12870";"Menteng Dalam, Kec. Tebet, Kota Jakarta Selatan";PAPUA;12870;Indonesia;02129465000;;;-62.240.353;1.068.425.979;https://maps.google.com/?cid=0x0:0xaf54cb631563acce;
mall;Pusat Perbelanjaan;Mall k;"Mall Kota Kasablanka, Menteng Dalam, Kec. Tebet, Kota Jakarta Selatan, Daerah Khusus Ibukota Jakarta 12960";"Menteng Dalam, Kec. Tebet, Kota Jakarta Selatan";PAPUA;12960;Indonesia;;;;-62.240.353;1.068.425.979;https://maps.google.com/?cid=0x0:0xa3a16fc4381476fb;
mall;Pusat Perbelanjaan;Kuningan Citymall;"Jl. Prof. DR. Satrio No.Kav. 18, Kuningan, Karet Kuningan, Kecamatan Setiabudi, Kota Jakarta Selatan, Daerah Khusus Ibukota Jakarta 12940";"Kuningan, Karet Kuningan, Kecamatan Setiabudi, Kota Jakarta Selatan";PAPUA;12940;Indonesia;02157905555;;;-62.250.136;106.829.553;https://maps.google.com/?cid=0x0:0x420d8f1dfd4d9452;
mall;Pusat Perbelanjaan;Pacific Place Mall;"Jl. Jend. Sudirman kav 52-53, Senayan, Kec. Kby. Baru, Kota Jakarta Selatan, Daerah Khusus Ibukota Jakarta 12190";"Senayan, Kec. Kby. Baru, Kota Jakarta Selatan";PAPUA;12190;Indonesia;02151402828;;;-62.240.197;1.068.101.858;https://maps.google.com/?cid=0x0:0xc4a608b34b5f03cc;
mall;Toko Alat Kecantikan;SOGO;"Jl. Raya Casablanca No.88, RT.2/RW.14, Menteng Dalam, Kec. Tebet, Kota Jakarta Selatan, Daerah Khusus Ibukota Jakarta 12870";"RT.2/RW.14, Menteng Dalam, Kec. Tebet, Kota Jakarta Selatan";PAPUA;12870;Indonesia;08111252807;;;-62.229.772;106.843.111;https://maps.google.com/?cid=0x0:0xa96f0bcb4777740e;
mall;Stasiun Pengisian Kendaraan Listrik;SPKLU PARKING+;"Kota Kasablanka, Jl. Raya Casablanca No.88, RW.5, Menteng Dalam, Kec. Tebet, Kota Jakarta Selatan, Daerah Khusus Ibukota Jakarta 12870";"Jl. Raya Casablanca No.88, RW.5, Menteng Dalam, Kec. Tebet, Kota Jakarta Selatan";PAPUA;12870;Indonesia;081119009563;;;-62.239.134;1.068.432.404;https://maps.google.com/?cid=0x0:0xcda6a1226e3be023;
mall;Toko Ponsel;iBox;"Jl. Raya Casablanca No.88 # 36 - 38, RT.16/RW.5, Menteng Dalam, Kec. Tebet, Kota Jakarta Selatan, Daerah Khusus Ibukota Jakarta 12870";"RT.16/RW.5, Menteng Dalam, Kec. Tebet, Kota Jakarta Selatan";PAPUA;12870;Indonesia;02129488545;;;-6.223.889;1.068.428.715;https://maps.google.com/?cid=0x0:0x134101a873911f6c;
mall;Hot Pot;Shaburi Kota Kasablanka;"Mal Kota Kasablanka, Jl. Raya Casablanca No.Kav. 88 Lt. 1, RT.14/RW.5, Menteng Dalam, Kec. Tebet, Kota Jakarta Selatan, Daerah Khusus Ibukota Jakarta 12870";"Jl. Raya Casablanca No.Kav. 88 Lt. 1, RT.14/RW.5, Menteng Dalam, Kec. Tebet, Kota Jakarta Selatan";PAPUA;12870;Indonesia;081294378786;;;-62.239.885;1.068.431.041;https://maps.google.com/?cid=0x0:0x2df3ec83a703a23f;
mall;Pusat Perbelanjaan;The Kasablanka;"Kota Kasablanka Lt. 3, Jl. Raya Casablanca No.Raya kav. 88, RT.3/RW.14, Menteng Dalam, Kec. Tebet, Kota Jakarta Selatan, Daerah Khusus Ibukota Jakarta 12870";"Jl. Raya Casablanca No.Raya kav. 88, RT.3/RW.14, Menteng Dalam, Kec. Tebet, Kota Jakarta Selatan";PAPUA;12870;Indonesia;02129488633;;;-62.242.458;1.068.422.383;https://maps.google.com/?cid=0x0:0x3225ec9b7b7adc0c;
mall;Pusat Perbelanjaan;Mall Jayapura;"APO, Jl. Samratulangi, Bayangkara, Kec. Jayapura Utara, Kota Jayapura, Papua 99112";"Jl. Samratulangi, Bayangkara, Kec. Jayapura Utara, Kota Jayapura";PAPUA;99112;Indonesia;09675150000;;;-25.351.775;1.407.061.874;https://maps.google.com/?cid=0x0:0x54294cb27964023;
mall;Pusat Perbelanjaan;Grand Indonesia Shopping Town;"Jl. M.H. Thamrin No.1, Menteng, Kec. Menteng, Kota Jakarta Pusat, Daerah Khusus Ibukota Jakarta 10310";"Menteng, Kec. Menteng, Kota Jakarta Pusat";PAPUA;10310;Indonesia;02123580001;;;-61.965.848;1.068.224.882;https://maps.google.com/?cid=0x0:0xccfcc89b95aaf1ae;
mall;Pusat Perbelanjaan;SAGA MALL;"Kota Baru, Kec. Abepura, Kota Jayapura, Papua 99351";"Kec. Abepura, Kota Jayapura";PAPUA;99351;Indonesia;;;;-26.105.845;1.406.654.189;https://maps.google.com/?cid=0x0:0xaf65e43ff84ff9e6;
mall;Bubble Tea;CitiPlaza Kutabumi;"Jl. Raya Kutabumi No.9, RT.5/RW.5, Kuta Baru, Kec. Ps. Kemis, Kabupaten Tangerang, Banten 15560";"RT.5/RW.5, Kuta Baru, Kec. Ps. Kemis, Kabupaten Tangerang";PAPUA;15560;Indonesia;02159715050;;;-6.153.277;1.065.808.579;https://maps.google.com/?cid=0x0:0x89f4f33273cc9da9;
mall;Toserba;Sogo PIM 2;"Jl. Metro Pondok Indah No.33b 1, RT.1/RW.16, Pd. Pinang, Kec. Kby. Lama, Kota Jakarta Selatan, Daerah Khusus Ibukota Jakarta 12310";"RT.1/RW.16, Pd. Pinang, Kec. Kby. Lama, Kota Jakarta Selatan";PAPUA;12310;Indonesia;;;;-62.655.879;1.067.825.256;https://maps.google.com/?cid=0x0:0x101d7eac72263a84;
mall;Toko Alat Kecantikan;SOGO;"Jl. Raya Casablanca No.88, RT.2/RW.14, Menteng Dalam, Kec. Tebet, Kota Jakarta Selatan, Daerah Khusus Ibukota Jakarta 12870";"RT.2/RW.14, Menteng Dalam, Kec. Tebet, Kota Jakarta Selatan";PAPUA;12870;Indonesia;08111252807;;;-62.229.772;106.843.111;https://maps.google.com/?cid=0x0:0xa96f0bcb4777740e;
mall;Pusat Perbelanjaan;Mall Senayan City;"Jl. Asia Afrika No.Lot 19, Gelora, Kecamatan Tanah Abang, Kota Jakarta Pusat, Daerah Khusus Ibukota Jakarta 10270";"Gelora, Kecamatan Tanah Abang, Kota Jakarta Pusat";PAPUA;10270;Indonesia;02172781000;;;-62.271.953;1.067.970.117;https://maps.google.com/?cid=0x0:0x300c043104acc004;
mall;Pusat Perbelanjaan;Mall Plaza Senayan;"Jl. Asia Afrika No.8, RT.1/RW.3, Gelora, Kecamatan Tanah Abang, Kota Jakarta Pusat, Daerah Khusus Ibukota Jakarta 10270";"RT.1/RW.3, Gelora, Kecamatan Tanah Abang, Kota Jakarta Pusat";PAPUA;10270;Indonesia;0215725555;;;-62.254.775;1.067.992.649;https://maps.google.com/?cid=0x0:0x788e3a1eef75ac94;
mall;Taman;Senayan Park;"Jl. Gerbang Pemuda No.3, RT.1/RW.3, Gelora, Kecamatan Tanah Abang, Kota Jakarta Pusat, Daerah Khusus Ibukota Jakarta 10270";"RT.1/RW.3, Gelora, Kecamatan Tanah Abang, Kota Jakarta Pusat";PAPUA;10270;Indonesia;0212512030;;;-62.128.077;1.068.036.757;https://maps.google.com/?cid=0x0:0xc0ea4d9a9d1b2936;
mall;Pusat Perbelanjaan;Mall Jayapura;"APO, Jl. Samratulangi, Bayangkara, Kec. Jayapura Utara, Kota Jayapura, Papua 99112";"Jl. Samratulangi, Bayangkara, Kec. Jayapura Utara, Kota Jayapura";PAPUA;99112;Indonesia;09675150000;;;-25.351.775;1.407.061.874;https://maps.google.com/?cid=0x0:0x54294cb27964023;
mall;Pusat Perbelanjaan;SAGA MALL;"Kota Baru, Kec. Abepura, Kota Jayapura, Papua 99351";"Kec. Abepura, Kota Jayapura";PAPUA;99351;Indonesia;;;;-26.105.845;1.406.654.189;https://maps.google.com/?cid=0x0:0xaf65e43ff84ff9e6;
mall;Kedai Kopi;JCO COFFEE  DONUTS MALL JAYAPURA;"Jl. Kab. No.99112, Bayangkara, Kec. Jayapura Utara, Kota Jayapura, Papua 99112";"Bayangkara, Kec. Jayapura Utara, Kota Jayapura";PAPUA;99112;Indonesia;;;;-25.353.252;1.407.060.198;https://maps.google.com/?cid=0x0:0x8cbe835113b8c269;
mall;Toko Swalayan;Hypermart Jayapura Mall;"Jl. Dr. Sam Ratulangi No.47, Bayangkara, Kec. Jayapura Utara, Kota Jayapura, Papua 99112";"Bayangkara, Kec. Jayapura Utara, Kota Jayapura";PAPUA;99112;Indonesia;0967522298;;;-25.350.388;1.407.055.769;https://maps.google.com/?cid=0x0:0xb1412384235d004a;
mall;Pusat Perbelanjaan;Pacific Place Mall;"Jl. Jend. Sudirman kav 52-53, Senayan, Kec. Kby. Baru, Kota Jakarta Selatan, Daerah Khusus Ibukota Jakarta 12190";"Senayan, Kec. Kby. Baru, Kota Jakarta Selatan";PAPUA;12190;Indonesia;02151402828;;;-62.240.197;1.068.101.858;https://maps.google.com/?cid=0x0:0xc4a608b34b5f03cc;
mall;Pusat Perbelanjaan;ASHTA District 8;"Jl. Senopati No.83, Senayan, Kec. Kby. Baru, Kota Jakarta Selatan, Daerah Khusus Ibukota Jakarta 12190";"Senayan, Kec. Kby. Baru, Kota Jakarta Selatan";PAPUA;12190;Indonesia;02150262888;;;-6.229.976;1.068.070.846;https://maps.google.com/?cid=0x0:0x1042cab307c13c5f;
mall;Pusat Perbelanjaan;Millennium Mall;"Jl. Senen Raya No.135, Senen, Kec. Senen, Kota Jakarta Pusat, Daerah Khusus Ibukota Jakarta 10410";"Senen, Kec. Senen, Kota Jakarta Pusat";PAPUA;10410;Indonesia;0213867862;;;-6.177.522;1.068.415.448;https://maps.google.com/?cid=0x0:0xfacaba2cca993e41;
mall;Pusat Perbelanjaan;Mall Of Indonesia;"Jl. Boulevard Bar. Raya No.12, RT.18/RW.19, Klp. Gading Bar., Kec. Klp. Gading, Jkt Utara, Daerah Khusus Ibukota Jakarta 14240";"RT.18/RW.19, Klp. Gading Bar., Kec. Klp. Gading, Jkt Utara";PAPUA;14240;Indonesia;02145867888;;;-61.514.549;1.068.918.949;https://maps.google.com/?cid=0x0:0x3431c7aaadd1f1b6;
mall;mall;Papua 99661;"Kabupaten Boven Digoel, Papua";"Kabupaten Boven Digoel, Papua";PAPUA;;Indonesia;;;;-66.725.506;1.401.832.516;https://maps.google.com/?cid=0x0:0x6942b94e71194057;
mall;Pusat Perbelanjaan;Mall Jayapura;"APO, Jl. Samratulangi, Bayangkara, Kec. Jayapura Utara, Kota Jayapura, Papua 99112";"Jl. Samratulangi, Bayangkara, Kec. Jayapura Utara, Kota Jayapura";PAPUA;99112;Indonesia;09675150000;;;-25.351.775;1.407.061.874;https://maps.google.com/?cid=0x0:0x54294cb27964023;
mall;Pusat Perbelanjaan;Vision City Mega Mall;"Lot 7, 8  9, Section 429, 131 National Capital District, Waigani Dr, Port Moresby, Papua Nugini";"Port Moresby, Papua Nugini";PAPUA;;Indonesia;6753028555;;;-94.384.023;1.471.810.598;https://maps.google.com/?cid=0x0:0x6b6056559e073ba7;
mall;Pusat Perbelanjaan;SAGA MALL;"Kota Baru, Kec. Abepura, Kota Jayapura, Papua 99351";"Kec. Abepura, Kota Jayapura";PAPUA;99351;Indonesia;;;;-26.105.845;1.406.654.189;https://maps.google.com/?cid=0x0:0xaf65e43ff84ff9e6;
mall;Minimarket;Jayapura;"RJHR+X47, Sukaasih, Kec. Tangerang, Kota Tangerang, Banten";"Kota Tangerang, Banten";PAPUA;;Indonesia;;;;-61.700.957;1.066.403.119;https://maps.google.com/?cid=0x0:0xd349b4eed66f2ec0;
mall;Pasar Grosir Pakaian;Ramayana Abepura;"Jl. Raya Abepura, Kel. Vin, Kec. Jayapura Selatan, Wai Mhorock, Kec. Abepura, Kota Jayapura, Papua 99351";"Kel. Vin, Kec. Jayapura Selatan, Wai Mhorock, Kec. Abepura, Kota Jayapura";PAPUA;99351;Indonesia;0967584745;;;-2.604.339;1.406.736.756;https://maps.google.com/?cid=0x0:0x103c0acf73345917;
mall;Pusat Perbelanjaan;Mall Sentani City Square;"Jl. Raya Kemiri No.286, Hinekombe, Kec. Sentani, Kabupaten Jayapura, Papua 99352";"Hinekombe, Kec. Sentani, Kabupaten Jayapura";PAPUA;99352;Indonesia;082198389205;;;-25.632.484;1.405.006.043;https://maps.google.com/?cid=0x0:0x666e57130aca06b8;
mall;Pasar;Warung Bakso Arema;"Jln pasar Prabu- Asiki, Asiki, Kec. Jair, Kabupaten Boven Digoel, Papua 99661";"Asiki, Kec. Jair, Kabupaten Boven Digoel";PAPUA;99661;Indonesia;085398322606;;;-66.630.268;1.404.111.793;https://maps.google.com/?cid=0x0:0xdf00e64354bf552b;
mall;Pusat Perbelanjaan;Pacific Place Mall;"Jl. Jend. Sudirman kav 52-53, Senayan, Kec. Kby. Baru, Kota Jakarta Selatan, Daerah Khusus Ibukota Jakarta 12190";"Senayan, Kec. Kby. Baru, Kota Jakarta Selatan";PAPUA;12190;Indonesia;02151402828;;;-62.240.197;1.068.101.858;https://maps.google.com/?cid=0x0:0xc4a608b34b5f03cc;
mall;Pusat Perbelanjaan;Mall Plaza Senayan;"Jl. Asia Afrika No.8, RT.1/RW.3, Gelora, Kecamatan Tanah Abang, Kota Jakarta Pusat, Daerah Khusus Ibukota Jakarta 10270";"RT.1/RW.3, Gelora, Kecamatan Tanah Abang, Kota Jakarta Pusat";PAPUA;10270;Indonesia;0215725555;;;-62.254.775;1.067.992.649;https://maps.google.com/?cid=0x0:0x788e3a1eef75ac94;
mall;Pusat Perbelanjaan;Gandaria City;"Jl. Sultan Iskandar Muda, Gandaria, Kec. Kby. Lama, Kota Jakarta Selatan, Daerah Khusus Ibukota Jakarta 12240";"Gandaria, Kec. Kby. Lama, Kota Jakarta Selatan";PAPUA;12240;Indonesia;02129052888;;;-62.443.009;1.067.829.375;https://maps.google.com/?cid=0x0:0x6173704d396d5a99;
mall;Pusat Perbelanjaan;Grand Indonesia Shopping Town;"Jl. M.H. Thamrin No.1, Menteng, Kec. Menteng, Kota Jakarta Pusat, Daerah Khusus Ibukota Jakarta 10310";"Menteng, Kec. Menteng, Kota Jakarta Pusat";PAPUA;10310;Indonesia;02123580001;;;-61.965.848;1.068.224.882;https://maps.google.com/?cid=0x0:0xccfcc89b95aaf1ae;
mall;Pusat Perbelanjaan;Mall Kota Kasablanka;"Jl. Raya Casablanca No.Kav 88, Menteng Dalam, Kec. Tebet, Kota Jakarta Selatan, Daerah Khusus Ibukota Jakarta 12870";"Menteng Dalam, Kec. Tebet, Kota Jakarta Selatan";PAPUA;12870;Indonesia;02129465000;;;-62.240.353;1.068.425.979;https://maps.google.com/?cid=0x0:0xaf54cb631563acce;
mall;Taman bermain;KidZania Jakarta;"Pacific Place Mall, Jl. Jenderal Sudirman No.Kav. 52-53, RT.5/RW.3, Senayan, Kec. Kby. Baru, Kota Jakarta Selatan, Daerah Khusus Ibukota Jakarta 12190";"Jl. Jenderal Sudirman No.Kav. 52-53, RT.5/RW.3, Senayan, Kec. Kby. Baru, Kota Jakarta Selatan";PAPUA;12190;Indonesia;0215154888;;;-62.250.735;1.068.097.144;https://maps.google.com/?cid=0x0:0xc9aa1813b2c14c4c;
mall;Pusat Perbelanjaan;Central Park;"Jl. Letjen S. Parman No.Kav. 28, Tj. Duren Sel., Kec. Grogol petamburan, Kota Jakarta Barat, Daerah Khusus Ibukota Jakarta 11470";"Tj. Duren Sel., Kec. Grogol petamburan, Kota Jakarta Barat";PAPUA;11470;Indonesia;02156989999;;;-61.771.373;1.067.909.788;https://maps.google.com/?cid=0x0:0xe816d65037c3207a;
mall;Pusat Perbelanjaan;Mall Of Indonesia;"Jl. Boulevard Bar. Raya No.12, RT.18/RW.19, Klp. Gading Bar., Kec. Klp. Gading, Jkt Utara, Daerah Khusus Ibukota Jakarta 14240";"RT.18/RW.19, Klp. Gading Bar., Kec. Klp. Gading, Jkt Utara";PAPUA;14240;Indonesia;02145867888;;;-61.514.549;1.068.918.949;https://maps.google.com/?cid=0x0:0x3431c7aaadd1f1b6;
mall;Pusat Perbelanjaan;Summarecon Mall Kelapa Gading;"Jl. Boulevard Raya, Klp. Gading Tim., Kec. Klp. Gading, Jkt Utara, Daerah Khusus Ibukota Jakarta 14240";"Klp. Gading Tim., Kec. Klp. Gading, Jkt Utara";PAPUA;14240;Indonesia;0214531101;;;-61.572.666;1.069.084.263;https://maps.google.com/?cid=0x0:0x1c1a278e20ff1c47;
mall;Pusat Perbelanjaan;Mall Taman Anggrek;"Jl. Letjen S. Parman, RT.12/RW.1, Tj. Duren Sel., Kec. Grogol petamburan, Kota Jakarta Barat, Daerah Khusus Ibukota Jakarta 11470";"RT.12/RW.1, Tj. Duren Sel., Kec. Grogol petamburan, Kota Jakarta Barat";PAPUA;11470;Indonesia;0215643777;;;-61.782.936;1.067.924.023;https://maps.google.com/?cid=0x0:0xb287bf108f4ef441;
mall;Toko Pakaian;AGORA;"Jl. M.H. Thamrin No.10, Kb. Melati, Kecamatan Tanah Abang, Kota Jakarta Pusat, Daerah Khusus Ibukota Jakarta 10230";"Kb. Melati, Kecamatan Tanah Abang, Kota Jakarta Pusat";PAPUA;10230;Indonesia;0811306399;;;-61.985.989;106.821.393;https://maps.google.com/?cid=0x0:0x8b079b179a71f129;
mall;Pusat Perbelanjaan;Lippo Mall East Side (LMES);"Jalan Letjen. Suprapto Kav.60 No.1, RT.10/RW.7, East Cempaka Putih, Cempaka Putih, Central Jakarta City, Jakarta 10510";"RT.10/RW.7, East Cempaka Putih, Cempaka Putih, Central Jakarta City";PAPUA;10510;Indonesia;;;;-6.167.535;1.068.771.367;https://maps.google.com/?cid=0x0:0xf20e1eedf86b4214;
supermarket;supermarket;Mandobo;"Distrik Kouh, Kabupaten Boven Digoel, Papua";"Kabupaten Boven Digoel, Papua";PAPUA;;Indonesia;;;;-58.523.321;1.402.862.819;https://maps.google.com/?cid=0x0:0x30ea9430854e3568;
supermarket;Toko Swalayan;Swalayan new harapan;"Jl. Trans Papua No.km. 2, Persatuan, Mandobo, Boven Digoel Regency, Papua 99663";"Persatuan, Mandobo, Boven Digoel Regency";PAPUA;99663;Indonesia;081248781111;;;-61.254.842;1.403.275.427;https://maps.google.com/?cid=0x0:0xdcc4bfc1d76c22dd;
supermarket;Toko umum;Toko Setia Kawan;"W72W+VM9, Persatuan, Kec. Mandobo, Kabupaten Boven Digoel, Papua 99663";"Persatuan, Kec. Mandobo, Kabupaten Boven Digoel";PAPUA;99663;Indonesia;;;;-6.097.831;1.402.967.268;https://maps.google.com/?cid=0x0:0xa0bdfc21deee37a6;
supermarket;Toko;Kios Ambu Arom;"56W7+CXF, Jair, Distrik Kouh, Kabupaten Boven Digoel, Papua 99663";"Jair, Distrik Kouh, Kabupaten Boven Digoel";PAPUA;99663;Indonesia;;;;-58.039.379;1.402.149.353;https://maps.google.com/?cid=0x0:0xa9a2026abe21ed62;
supermarket;Minimarket;Kios Mas Yono;"W824+WFH, Persatuan, Kec. Mandobo, Kabupaten Boven Digoel, Papua 99663";"Persatuan, Kec. Mandobo, Kabupaten Boven Digoel";PAPUA;99663;Indonesia;;;;-6.097.683;140.306.232;https://maps.google.com/?cid=0x0:0xd83f0141b5345933;
supermarket;Toko;Toko SRC Mama Rayhan(Diandra Mart);"Jl .SMA Dolog, Sokanggo, Kec. Mandobo, Kabupaten Boven Digoel, Papua 99663";"Sokanggo, Kec. Mandobo, Kabupaten Boven Digoel";PAPUA;99663;Indonesia;081344155488;;;-60.966.979;1.403.190.005;https://maps.google.com/?cid=0x0:0xa84043862f5cd564;
supermarket;Toko bahan makanan;Kios 99;"Jlan kilometer 2, Persatuan, Kec. Mandobo, Kabupaten Boven Digoel, Papua 99674";"Persatuan, Kec. Mandobo, Kabupaten Boven Digoel";PAPUA;99674;Indonesia;;;;-60.835.571;1.402.764.978;https://maps.google.com/?cid=0x0:0x443d50586124195;
supermarket;Toko Swalayan;Tempat usaha toko super rama jaya 1;"V8W9+X43, Persatuan, Kec. Mandobo, Kabupaten Boven Digoel, Papua 99663";"Persatuan, Kec. Mandobo, Kabupaten Boven Digoel";PAPUA;99663;Indonesia;081344652013;;;-61.026.088;1.403.177.934;https://maps.google.com/?cid=0x0:0xdd9c4cf93743d2e4;
supermarket;Minimarket;Zefa;"W83G+M2V, Persatuan, Kec. Mandobo, Kabupaten Boven Digoel, Papua";"Kabupaten Boven Digoel, Papua";PAPUA;;Indonesia;;;;-60.957.557;1.403.250.419;https://maps.google.com/?cid=0x0:0x56a3ced634aa48c7;
supermarket;Toko;Kampung Sukanggo;"V8FH+R23, Persatuan, Kec. Mandobo, Kabupaten Boven Digoel, Papua";"Kabupaten Boven Digoel, Papua";PAPUA;;Indonesia;;;;-61.254.842;1.403.275.427;https://maps.google.com/?cid=0x0:0x89c7e692c48a2b33;
supermarket;Kios;Kios adifa;"W992+89C, Mawan, Kec. Mandobo, Kabupaten Boven Digoel, Papua";"Kabupaten Boven Digoel, Papua";PAPUA;;Indonesia;;;;-60.815.647;1.403.503.115;https://maps.google.com/?cid=0x0:0xd332cbb4bca45c51;
supermarket;Komplek perumahan;Perumahan Ambonggo;"W868+P9P, Unnamed Road, Persatuan, Kec. Mandobo, Kabupaten Boven Digoel, Papua 99663";"Unnamed Road, Persatuan, Kec. Mandobo, Kabupaten Boven Digoel";PAPUA;99663;Indonesia;;;;-60.881.572;1.403.159.401;https://maps.google.com/?cid=0x0:0x4ae63b1f7fa71be7;
supermarket;Dapur Umum;"Tanah merah, kab Boven Digoel";"W6HV+JXV, Persatuan, Kec. Mandobo, Kabupaten Boven Digoel, Papua 99663";"Persatuan, Kec. Mandobo, Kabupaten Boven Digoel";PAPUA;99663;Indonesia;;;;-60.708.882;1.402.449.286;https://maps.google.com/?cid=0x0:0xd3987b54e3dab9fd;
supermarket;Dapur Umum;Warung Solata;"W85J+4Q8, Persatuan, Kec. Mandobo, Kabupaten Boven Digoel, Papua";"Kabupaten Boven Digoel, Papua";PAPUA;;Indonesia;;;;-60.922.225;1.403.319.509;https://maps.google.com/?cid=0x0:0x9c4da9f6548417b6;
supermarket;Kios;UD. CAHAYA INDAH;"V8W5+J94, Unnamed Road, Persatuan, Kec. Mandobo, Kabupaten Boven Digoel, Papua 99663";"Unnamed Road, Persatuan, Kec. Mandobo, Kabupaten Boven Digoel";PAPUA;99663;Indonesia;;;;-61.034.767;1.403.084.625;https://maps.google.com/?cid=0x0:0x802d985498e707e5;
supermarket;Toko;Toko Sinar Jaya;"Persatuan, Kec. Mandobo, Kabupaten Boven Digoel, Papua 99663";"Kec. Mandobo, Kabupaten Boven Digoel";PAPUA;99663;Indonesia;;;;-61.024.191;1.403.180.089;https://maps.google.com/?cid=0x0:0x5a88aa4034e25e48;
supermarket;Toko Kelontong Asia;KIOS 99"";"W838+VG3, Jln. SMA, Persatuan, Kec. Mandobo, Kabupaten Boven Digoel, Papua";"Kabupaten Boven Digoel, Papua";PAPUA;;Indonesia;;;;-60.953.712;1.403.163.109;https://maps.google.com/?cid=0x0:0xa86b7112fe4be32e;
supermarket;Toko bahan makanan;Warung buah mba iyut;"MM4F+F3R, Jl. Raya Serpong, Serpong, Kec. Setu, Kota Tangerang Selatan, Banten 15314";"Jl. Raya Serpong, Serpong, Kec. Setu, Kota Tangerang Selatan";PAPUA;15314;Indonesia;;;;-63.437.543;106.672.636;https://maps.google.com/?cid=0x0:0x4551cc2fd703bc65;
supermarket;Salon Rambut;potong rambut madura 2;"V8W8+576, Unnamed Road, Persatuan, Kec. Mandobo, Kabupaten Boven Digoel, Papua 99663";"Unnamed Road, Persatuan, Kec. Mandobo, Kabupaten Boven Digoel";PAPUA;99663;Indonesia;;;;-61.045.955;1.403.156.508;https://maps.google.com/?cid=0x0:0x274707eec41c2648;
supermarket;Toko;Kios semangat jaya;"W86P+R9P, Persatuan, Kec. Mandobo, Kabupaten Boven Digoel, Papua 99663";"Persatuan, Kec. Mandobo, Kabupaten Boven Digoel";PAPUA;99663;Indonesia;;;;-60.879.171;1.403.359.376;https://maps.google.com/?cid=0x0:0xe4e0c321bf22daf0;
supermarket;Toko Swalayan;Ranch Market Grand Indonesia;"Grand Indonesia Shoping Town East Mall, Jl. MH Thamrin No.1 Lantai LG, RT.1/RW.5, Menteng, Kec. Menteng, Kota Jakarta Pusat, Daerah Khusus Ibukota Jakarta 10310";"Jl. MH Thamrin No.1 Lantai LG, RT.1/RW.5, Menteng, Kec. Menteng, Kota Jakarta Pusat";PAPUA;10310;Indonesia;02123599054;;;-61.963.902;1.068.225.851;https://maps.google.com/?cid=0x0:0xdb199471a47076d0;
supermarket;supermarket;Bakpau A-Satu East Mall;"Grand Indonesia West Mall Lantai 3A Unit WM-3A-23, RT.11/RW.2, Gambir, Jakarta 10110";"RT.11/RW.2, Gambir";PAPUA;10110;Indonesia;;;;-61.953.424;1.068.198.156;https://maps.google.com/?cid=0x0:0x56af1005dd90ae18;
supermarket;Toko Swalayan;The FoodHall - Grand Indonesia;"Grand Indonesia shopping West Mall, Jl. M.H. Thamrin No.1 LG Floor, Kb. Melati, Kecamatan Tanah Abang, Kota Jakarta Pusat, Daerah Khusus Ibukota Jakarta 10350";"Jl. M.H. Thamrin No.1 LG Floor, Kb. Melati, Kecamatan Tanah Abang, Kota Jakarta Pusat";PAPUA;10350;Indonesia;085973703191;;;-61.954.464;1.068.197.669;https://maps.google.com/?cid=0x0:0x4a1351e22f783bb;
supermarket;supermarket;Kios Suljaya;"4MHW+VQX, Mindiptana, Kec. Mindiptana, Kabupaten Boven Digoel, Papua 99662";"Mindiptana, Kec. Mindiptana, Kabupaten Boven Digoel";PAPUA;99662;Indonesia;;;;-5.870.272;1.406.969.891;https://maps.google.com/?cid=0x0:0xb68d2c88fdd9bef2;
supermarket;supermarket;Toko TRIPLE M;"8CP6+2FX, Asiki, Kec. Jair, Kabupaten Boven Digoel, Papua 99661";"Asiki, Kec. Jair, Kabupaten Boven Digoel";PAPUA;99661;Indonesia;;;;-66.648.753;1.404.112.333;https://maps.google.com/?cid=0x0:0x9e5bbb918f2021f5;
supermarket;supermarket;Kios ASBUDI;"Mindiptana, Kec. Mindiptana, Kabupaten Boven Digoel, Papua 99663";"Kec. Mindiptana, Kabupaten Boven Digoel";PAPUA;99663;Indonesia;;;;-58.728.925;1.407.008.653;https://maps.google.com/?cid=0x0:0xd6078852330c1883;
supermarket;Toko Swalayan;Swalayan new harapan;"Jl. Trans Papua No.km. 2, Persatuan, Mandobo, Boven Digoel Regency, Papua 99663";"Persatuan, Mandobo, Boven Digoel Regency";PAPUA;99663;Indonesia;081248781111;;;-61.254.842;1.403.275.427;https://maps.google.com/?cid=0x0:0xdcc4bfc1d76c22dd;
supermarket;Minimarket;Kios Mas Yono;"W824+WFH, Persatuan, Kec. Mandobo, Kabupaten Boven Digoel, Papua 99663";"Persatuan, Kec. Mandobo, Kabupaten Boven Digoel";PAPUA;99663;Indonesia;;;;-6.097.683;140.306.232;https://maps.google.com/?cid=0x0:0xd83f0141b5345933;
supermarket;Toko bahan makanan;Kios 99;"Jlan kilometer 2, Persatuan, Kec. Mandobo, Kabupaten Boven Digoel, Papua 99674";"Persatuan, Kec. Mandobo, Kabupaten Boven Digoel";PAPUA;99674;Indonesia;;;;-60.835.571;1.402.764.978;https://maps.google.com/?cid=0x0:0x443d50586124195;
supermarket;Toko umum;Toko Setia Kawan;"W72W+VM9, Persatuan, Kec. Mandobo, Kabupaten Boven Digoel, Papua 99663";"Persatuan, Kec. Mandobo, Kabupaten Boven Digoel";PAPUA;99663;Indonesia;;;;-6.097.831;1.402.967.268;https://maps.google.com/?cid=0x0:0xa0bdfc21deee37a6;
supermarket;Kedai Kopi;Warkop Sobi - Pamulang;"MPFG+36X, Jl. Alamanda MAS, Bambu Apus, Kec. Pamulang, Kota Tangerang Selatan, Banten 15415, Kota Tangerang Selatan, Banten 15414";"Jl. Alamanda MAS, Bambu Apus, Kec. Pamulang, Kota Tangerang Selatan, Banten";PAPUA;15415;Indonesia;;;;-63.273.125;1.067.255.625;https://maps.google.com/?cid=0x0:0xf0b5e2430646792f;
supermarket;Toko Swalayan;Primo Supermarket Tembagapura;"Tembagapura, Kec. Tembagapura, Kabupaten Mimika, Papua 98972";"Kec. Tembagapura, Kabupaten Mimika";PAPUA;98972;Indonesia;;;;-41.423.125;1.370.900.625;https://maps.google.com/?cid=0x0:0x79e7c0e104f18094;
supermarket;Kantor Perusahaan;Supermarket GOTA;"4868+2X3, Jl. Sungai Maruni, Sawagumu, Distrik Sorong Timur, Kota Sorong, Papua Bar. 98416";"Jl. Sungai Maruni, Sawagumu, Distrik Sorong Timur, Kota Sorong";PAPUA;98416;Indonesia;;;;-0.8900646;1.313.173.945;https://maps.google.com/?cid=0x0:0xe80a2989cd86300;
supermarket;Kedai Kopi;Warkop Sobi - Petukangan;"Kec, Jl. H. Muchtar Raya No.34, RT.10/RW.11, North Petukangan, Pesanggrahan, South Jakarta City, Jakarta 15156";"Jl. H. Muchtar Raya No.34, RT.10/RW.11, North Petukangan, Pesanggrahan, South Jakarta City";PAPUA;15156;Indonesia;;;;-62.261.504;1.067.425.405;https://maps.google.com/?cid=0x0:0x4f73b3b1f793b2ee;
supermarket;Kios;KIOS HENDRI;"Jln. Darat Kampunh Rorisi, Kabupaten Waropen, Papua 98261";Kabupaten Waropen;PAPUA;98261;Indonesia;082193708165;;;-26.556.009;1.364.393.054;https://maps.google.com/?cid=0x0:0xed71ea398377323;
supermarket;supermarket;Kios Prabu;"8CM6+3CX, Asiki, Kec. Jair, Kabupaten Boven Digoel, Papua 99661";"Asiki, Kec. Jair, Kabupaten Boven Digoel";PAPUA;99661;Indonesia;;;;-66.672.578;1.404.111.031;https://maps.google.com/?cid=0x0:0x8f4941f623ac313f;
supermarket;Toko bahan makanan;Kios Sumber Padi;"Jalan Trans Papua No.Km 2, Persatuan, Kec. Mandobo, Kabupaten Boven Digoel, Papua 99663";"Persatuan, Kec. Mandobo, Kabupaten Boven Digoel";PAPUA;99663;Indonesia;;;;-61.016.308;1.403.188.932;https://maps.google.com/?cid=0x0:0x7c2279c9f772da7e;
supermarket;supermarket;Papua 99661;"Kabupaten Boven Digoel, Papua";"Kabupaten Boven Digoel, Papua";PAPUA;;Indonesia;;;;-66.725.506;1.401.832.516;https://maps.google.com/?cid=0x0:0x6942b94e71194057;
supermarket;Toko Swalayan;Swalayan new harapan;"Jl. Trans Papua No.km. 2, Persatuan, Mandobo, Boven Digoel Regency, Papua 99663";"Persatuan, Mandobo, Boven Digoel Regency";PAPUA;99663;Indonesia;081248781111;;;-61.254.842;1.403.275.427;https://maps.google.com/?cid=0x0:0xdcc4bfc1d76c22dd;
supermarket;Toko bahan makanan;Kios sembako Al Faruq;"atas depan BRI, Jl. Prabu Siliwangi, Asiki, Kec. Jair, Kabupaten Boven Digoel, Papua 99661";"Jl. Prabu Siliwangi, Asiki, Kec. Jair, Kabupaten Boven Digoel";PAPUA;99661;Indonesia;085341159579;;;-6.665.487;1.404.109.665;https://maps.google.com/?cid=0x0:0x6ebf8dd628fb326;
supermarket;supermarket;Kios Prabu;"8CM6+3CX, Asiki, Kec. Jair, Kabupaten Boven Digoel, Papua 99661";"Asiki, Kec. Jair, Kabupaten Boven Digoel";PAPUA;99661;Indonesia;;;;-66.672.578;1.404.111.031;https://maps.google.com/?cid=0x0:0x8f4941f623ac313f;
supermarket;Toko;Kios Ambu Arom;"56W7+CXF, Jair, Distrik Kouh, Kabupaten Boven Digoel, Papua 99663";"Jair, Distrik Kouh, Kabupaten Boven Digoel";PAPUA;99663;Indonesia;;;;-58.039.379;1.402.149.353;https://maps.google.com/?cid=0x0:0xa9a2026abe21ed62;
supermarket;Supermarket Diskon;Hokky Supermarket Pakuwon City;"Kalisari, Surabaya, Jawa Timur";"Surabaya, Jawa Timur";PAPUA;;Indonesia;03135954021;;;-7.260.079;1.128.100.101;https://maps.google.com/?cid=0x0:0x69951dc24c3c8020;
supermarket;Toko Buah dan Sayuran;Hokky Supermarket Buah - Merr;"Jl. Dr. Ir. H. Soekarno No.208, Klampis Ngasem, Kec. Sukolilo, Surabaya, Jawa Timur";"Surabaya, Jawa Timur";PAPUA;;Indonesia;0315915262;;;-72.916.631;1.127.801.571;https://maps.google.com/?cid=0x0:0x3b0e71b0fb61ad06;
supermarket;supermarket;Warung Bu Kris Pakuwon City;"Ruko Beverly RL5, Pakuwon City No.37, Surabaya, 60112";Pakuwon City No.37;PAPUA;60112;Indonesia;081216570782;;;-72.595.731;1.128.093.757;https://maps.google.com/?cid=0x0:0x617df1f1c4821e7b;
supermarket;Toko Swalayan;Swalayan new harapan;"Jl. Trans Papua No.km. 2, Persatuan, Mandobo, Boven Digoel Regency, Papua 99663";"Persatuan, Mandobo, Boven Digoel Regency";PAPUA;99663;Indonesia;081248781111;;;-61.254.842;1.403.275.427;https://maps.google.com/?cid=0x0:0xdcc4bfc1d76c22dd;
supermarket;Toko bahan makanan;Kios 99;"Jlan kilometer 2, Persatuan, Kec. Mandobo, Kabupaten Boven Digoel, Papua 99674";"Persatuan, Kec. Mandobo, Kabupaten Boven Digoel";PAPUA;99674;Indonesia;;;;-60.835.571;1.402.764.978;https://maps.google.com/?cid=0x0:0x443d50586124195;
supermarket;Toko Makanan Sehat;Primo Supermarket Citos;"Town Square, Jl. TB Simatupang No.KAV.17 Lantai Dasar, West Cilandak, Cilandak, South Jakarta City, Jakarta 12430";"Jl. TB Simatupang No.KAV.17 Lantai Dasar, West Cilandak, Cilandak, South Jakarta City";PAPUA;12430;Indonesia;02175920390;;;-62.914.315;1.067.992.178;https://maps.google.com/?cid=0x0:0x110a936a8d153b27;
supermarket;Restoran;Primo Cafe Resto;"PQ5X+GR3, RT.6/RW.9, Cilandak Bar., Kec. Cilandak, Kota Jakarta Selatan, Daerah Khusus Ibukota Jakarta 12430";"RT.6/RW.9, Cilandak Bar., Kec. Cilandak, Kota Jakarta Selatan";PAPUA;12430;Indonesia;02175920390;;;-62.912.336;1.067.995.474;https://maps.google.com/?cid=0x0:0x855fc09279724dd6;
supermarket;Toko bahan makanan;Kios sembako Al Faruq;"atas depan BRI, Jl. Prabu Siliwangi, Asiki, Kec. Jair, Kabupaten Boven Digoel, Papua 99661";"Jl. Prabu Siliwangi, Asiki, Kec. Jair, Kabupaten Boven Digoel";PAPUA;99661;Indonesia;085341159579;;;-6.665.487;1.404.109.665;https://maps.google.com/?cid=0x0:0x6ebf8dd628fb326;
supermarket;Pusat Perbelanjaan;Papua Supermarket  Dept. Store;"4869+F77 Bar, Sawagumu, Kec. Sorong Utara, Kota Sorong, Papua Bar. 98416";"Sawagumu, Kec. Sorong Utara, Kota Sorong";PAPUA;98416;Indonesia;09513160123;;;-0.888831;1.313.181.847;https://maps.google.com/?cid=0x0:0x7b5f0926a74ad213;
supermarket;Toko;Kios Ambu Arom;"56W7+CXF, Jair, Distrik Kouh, Kabupaten Boven Digoel, Papua 99663";"Jair, Distrik Kouh, Kabupaten Boven Digoel";PAPUA;99663;Indonesia;;;;-58.039.379;1.402.149.353;https://maps.google.com/?cid=0x0:0xa9a2026abe21ed62;
supermarket;Toko bahan makanan;ZULAIKHA SHOP;"Jl. Pangodokan kidul No.Kp, RT./RW/RW.004/003, Kutabumi, Kec. Ps. Kemis, Kabupaten Tangerang, Banten 15561";"RT./RW/RW.004/003, Kutabumi, Kec. Ps. Kemis, Kabupaten Tangerang";PAPUA;15561;Indonesia;089619228948;;;-61.558.447;1.065.678.793;https://maps.google.com/?cid=0x0:0x2a7934f6ecfc8e08;
supermarket;supermarket;Kios Turikale;"56V6+FH2, Jl. Mandala, Kouh, Distrik Kouh, Kabupaten Boven Digoel, Papua 99663";"Jl. Mandala, Kouh, Distrik Kouh, Kabupaten Boven Digoel";PAPUA;99663;Indonesia;;;;-58.063.704;1.402.113.839;https://maps.google.com/?cid=0x0:0xb89800e33651d213;
supermarket;Minimarket;KULA Swalayan Segar - Utama Raya;"Jl. Utama Raya No.5, Cengkareng Bar., Kecamatan Cengkareng, Kota Jakarta Barat, Daerah Khusus Ibukota Jakarta 13430";"Cengkareng Bar., Kecamatan Cengkareng, Kota Jakarta Barat";PAPUA;13430;Indonesia;085195910026;;;-61.501.716;106.726.378;https://maps.google.com/?cid=0x0:0xbf28071d6ab2dc91;
supermarket;Minimarket;KULA Swalayan Segar - Kramat Jaya;"Jl. Kramat Jaya Raya No.32, RT.1/RW.13, Semper Bar., Kec. Cilincing, Jkt Utara, Daerah Khusus Ibukota Jakarta 14270";"RT.1/RW.13, Semper Bar., Kec. Cilincing, Jkt Utara";PAPUA;14270;Indonesia;085195910025;;;-61.133.423;1.069.173.081;https://maps.google.com/?cid=0x0:0xd7270f92123c0ea0;
supermarket;Toko Swalayan;Swalayan new harapan;"Jl. Trans Papua No.km. 2, Persatuan, Mandobo, Boven Digoel Regency, Papua 99663";"Persatuan, Mandobo, Boven Digoel Regency";PAPUA;99663;Indonesia;081248781111;;;-61.254.842;1.403.275.427;https://maps.google.com/?cid=0x0:0xdcc4bfc1d76c22dd;
supermarket;Toko bahan makanan;Kios Sumber Padi;"Jalan Trans Papua No.Km 2, Persatuan, Kec. Mandobo, Kabupaten Boven Digoel, Papua 99663";"Persatuan, Kec. Mandobo, Kabupaten Boven Digoel";PAPUA;99663;Indonesia;;;;-61.016.308;1.403.188.932;https://maps.google.com/?cid=0x0:0x7c2279c9f772da7e;
supermarket;supermarket;Papua 99665;"Kabupaten Boven Digoel, Papua";"Kabupaten Boven Digoel, Papua";PAPUA;;Indonesia;;;;-53.993.592;140.265.662;https://maps.google.com/?cid=0x0:0x130a65ebf9121fb9;
supermarket;supermarket;Kios Turikale;"56V6+FH2, Jl. Mandala, Kouh, Distrik Kouh, Kabupaten Boven Digoel, Papua 99663";"Jl. Mandala, Kouh, Distrik Kouh, Kabupaten Boven Digoel";PAPUA;99663;Indonesia;;;;-58.063.704;1.402.113.839;https://maps.google.com/?cid=0x0:0xb89800e33651d213;
supermarket;Minimarket;KULA Swalayan Segar - Utama Raya;"Jl. Utama Raya No.5, Cengkareng Bar., Kecamatan Cengkareng, Kota Jakarta Barat, Daerah Khusus Ibukota Jakarta 13430";"Cengkareng Bar., Kecamatan Cengkareng, Kota Jakarta Barat";PAPUA;13430;Indonesia;085195910026;;;-61.501.716;106.726.378;https://maps.google.com/?cid=0x0:0xbf28071d6ab2dc91;
supermarket;Minimarket;KULA Swalayan Segar - Kramat Jaya;"Jl. Kramat Jaya Raya No.32, RT.1/RW.13, Semper Bar., Kec. Cilincing, Jkt Utara, Daerah Khusus Ibukota Jakarta 14270";"RT.1/RW.13, Semper Bar., Kec. Cilincing, Jkt Utara";PAPUA;14270;Indonesia;085195910025;;;-61.133.423;1.069.173.081;https://maps.google.com/?cid=0x0:0xd7270f92123c0ea0;
supermarket;Toko bahan makanan;Toko Ku;"PQ7R+24X, Jl. H. Batong Raya, RT.7/RW.6, Cilandak Bar., Kec. Cilandak, Kota Jakarta Selatan, Daerah Khusus Ibukota Jakarta 12430";"Jl. H. Batong Raya, RT.7/RW.6, Cilandak Bar., Kec. Cilandak, Kota Jakarta Selatan";PAPUA;12430;Indonesia;083808942856;;;-62.873.859;1.067.903.604;https://maps.google.com/?cid=0x0:0x654d67ec67f9ddfe;
supermarket;Toko bahan makanan;Toko Wijaya;"Jl. Jemb. Tinggi No.12 1, RT.1/RW.9, Kb. Kacang, Kecamatan Tanah Abang, Kota Jakarta Pusat, Daerah Khusus Ibukota Jakarta 10240";"RT.1/RW.9, Kb. Kacang, Kecamatan Tanah Abang, Kota Jakarta Pusat";PAPUA;10240;Indonesia;0213141513;;;-61.889.269;1.068.129.859;https://maps.google.com/?cid=0x0:0x3506e2aad5047ad6;
supermarket;supermarket;Toko H.kemot;"Jl. Nuh 1 No.41 rt.16/5 6, RT.6/RW.5, Sukabumi Utara, Kec. Kb. Jeruk, Kota Jakarta Barat, Daerah Khusus Ibukota Jakarta 11540";"RT.6/RW.5, Sukabumi Utara, Kec. Kb. Jeruk, Kota Jakarta Barat";PAPUA;11540;Indonesia;;;;-62.084.773;1.067.747.292;https://maps.google.com/?cid=0x0:0xd3376e50524bfc71;
supermarket;supermarket;Papua 99661;"Kabupaten Boven Digoel, Papua";"Kabupaten Boven Digoel, Papua";PAPUA;;Indonesia;;;;-66.725.506;1.401.832.516;https://maps.google.com/?cid=0x0:0x6942b94e71194057;
supermarket;Toko bahan makanan;Kios sembako Al Faruq;"atas depan BRI, Jl. Prabu Siliwangi, Asiki, Kec. Jair, Kabupaten Boven Digoel, Papua 99661";"Jl. Prabu Siliwangi, Asiki, Kec. Jair, Kabupaten Boven Digoel";PAPUA;99661;Indonesia;085341159579;;;-6.665.487;1.404.109.665;https://maps.google.com/?cid=0x0:0x6ebf8dd628fb326;
supermarket;Minimarket;Magfhira;"89G9+MGW, Asiki, Kec. Jair, Kabupaten Boven Digoel, Papua 99661";"Asiki, Kec. Jair, Kabupaten Boven Digoel";PAPUA;99661;Indonesia;;;;-66.732.701;1.403.688.312;https://maps.google.com/?cid=0x0:0xfeffff0cc7fc3920;
supermarket;supermarket;Kios Fajar Harapan;"C942+45X, Getentiri, Kec. Jair, Kabupaten Boven Digoel, Papua 99661";"Getentiri, Kec. Jair, Kabupaten Boven Digoel";PAPUA;99661;Indonesia;;;;-65.945.507;1.403.505.221;https://maps.google.com/?cid=0x0:0x458c50d39ac3a300;
supermarket;Toko bahan makanan;Kios Haura;"8CP6+M6M, Asiki, Kec. Jair, Kabupaten Boven Digoel, Papua 99661";"Asiki, Kec. Jair, Kabupaten Boven Digoel";PAPUA;99661;Indonesia;;;;-6.663.262;1.404.104.516;https://maps.google.com/?cid=0x0:0x24a9c66bdc16a9a1;
supermarket;Toko;Toko Sinar Jaya;"Persatuan, Kec. Mandobo, Kabupaten Boven Digoel, Papua 99663";"Kec. Mandobo, Kabupaten Boven Digoel";PAPUA;99663;Indonesia;;;;-61.024.191;1.403.180.089;https://maps.google.com/?cid=0x0:0x5a88aa4034e25e48;
supermarket;Toko Swalayan;GrandLucky - SCBD;"Kawasan Niaga Terpadu Sudirman (SCBD, Jl. Jenderal Sudirman LOT-12, Senayan, Kec. Kby. Baru, Kota Jakarta Selatan, Daerah Khusus Ibukota Jakarta 12190";"Jl. Jenderal Sudirman LOT-12, Senayan, Kec. Kby. Baru, Kota Jakarta Selatan";PAPUA;12190;Indonesia;085183118632;;;-622.691;1.068.059.153;https://maps.google.com/?cid=0x0:0x4efcd0d8d64cad53;
supermarket;Lapangan Bulutangkis;Gor;"89G9+MGP, Asiki, Kec. Jair, Kabupaten Boven Digoel, Papua 99661";"Asiki, Kec. Jair, Kabupaten Boven Digoel";PAPUA;99661;Indonesia;;;;-66.732.777;140.368.837;https://maps.google.com/?cid=0x0:0x13dd1869e741d69c;
supermarket;supermarket;Toko TRIPLE M;"8CP6+2FX, Asiki, Kec. Jair, Kabupaten Boven Digoel, Papua 99661";"Asiki, Kec. Jair, Kabupaten Boven Digoel";PAPUA;99661;Indonesia;;;;-66.648.753;1.404.112.333;https://maps.google.com/?cid=0x0:0x9e5bbb918f2021f5;
supermarket;supermarket;Kios Prabu;"8CM6+3CX, Asiki, Kec. Jair, Kabupaten Boven Digoel, Papua 99661";"Asiki, Kec. Jair, Kabupaten Boven Digoel";PAPUA;99661;Indonesia;;;;-66.672.578;1.404.111.031;https://maps.google.com/?cid=0x0:0x8f4941f623ac313f;
supermarket;Toko bahan makanan;UD. Budi Mulyo;"8CM6+M86, Asiki, Kec. Jair, Kabupaten Boven Digoel, Papua 99661";"Asiki, Kec. Jair, Kabupaten Boven Digoel";PAPUA;99661;Indonesia;081247921445;;;-66.658.384;1.404.107.743;https://maps.google.com/?cid=0x0:0x36860c8a11ed5f77;
supermarket;Toko umum;Kios sayur makmur;"8CP6+2GR, Jl. Prabu Siliwangi, Asiki, Kec. Jair, Kabupaten Boven Digoel, Papua 99661";"Jl. Prabu Siliwangi, Asiki, Kec. Jair, Kabupaten Boven Digoel";PAPUA;99661;Indonesia;085393910053;;;-6.664.889;1.404.112.544;https://maps.google.com/?cid=0x0:0xec65ab3f53bba246;
supermarket;supermarket;rumah;"9C33+6W7, Asiki, Kec. Jair, Kabupaten Boven Digoel, Papua";"Kabupaten Boven Digoel, Papua";PAPUA;;Indonesia;;;;-6.646.954;1.404.048;https://maps.google.com/?cid=0x0:0x8f15d7fcd99f0591;
supermarket;Kantor Perusahaan;PT. Korindo Abadi;"9C49+P56, Asiki, Kec. Jair, Kabupaten Boven Digoel, Papua 99661";"Asiki, Kec. Jair, Kabupaten Boven Digoel";PAPUA;99661;Indonesia;085254777733;;;-66.432.012;1.404.178.765;https://maps.google.com/?cid=0x0:0x7478ca108ff0c3c8;
supermarket;Minimarket;GERAI SUL ASIKI;"Asiki, Kec. Jair, Kabupaten Boven Digoel, Papua";"Kabupaten Boven Digoel, Papua";PAPUA;;Indonesia;;;;-66.527.003;1.404.176.139;https://maps.google.com/?cid=0x0:0xab4b7982192f3f79;
supermarket;Minimarket;Depot Gallon dan Telur;"Butiptiri, Kec. Jair, Kabupaten Boven Digoel, Papua 99662";"Kec. Jair, Kabupaten Boven Digoel";PAPUA;99662;Indonesia;;;;-663.974;140.539.858;https://maps.google.com/?cid=0x0:0xfd6299a489ea044d;
supermarket;supermarket;UD. HARAPAN BARU;"8CM6+49R, Jl. Prabu Siliwangi, Asiki, Kec. Jair, Kabupaten Boven Digoel, Papua 99661";"Jl. Prabu Siliwangi, Asiki, Kec. Jair, Kabupaten Boven Digoel";PAPUA;99661;Indonesia;;;;-66.671.477;1.404.108.814;https://maps.google.com/?cid=0x0:0xb869957bca150987;
supermarket;supermarket;"Sand Point, Alaska 99661";"Sand Point, Alaska, Amerika Serikat";"Sand Point, Alaska, Amerika Serikat";PAPUA;;Indonesia;;;;552.693.058;-1.606.748.964;https://maps.google.com/?cid=0x0:0x7563da9a6a55a5d0;
supermarket;supermarket;Distrik Bomakia;"Kabupaten Boven Digoel, Papua";"Kabupaten Boven Digoel, Papua";PAPUA;;Indonesia;;;;-58.066.231;1.398.741.906;https://maps.google.com/?cid=0x0:0xd021b728f29c6a0f;
supermarket;Toko umum;kompleks pasar bomakia;"5VQC+WQH, Bomakia I, Distrik Bomakia, Kabupaten Boven Digoel, Papua 99663";"Bomakia I, Distrik Bomakia, Kabupaten Boven Digoel";PAPUA;99663;Indonesia;081248083853;;;-58.101.972;1.398.719.849;https://maps.google.com/?cid=0x0:0x3bed8e2158e5118d;
supermarket;Toko;Kepala Kali Mappi;"9PMJ+8QW, Kali, Distrik Bomakia, Kabupaten Mappi, Papua";"Kabupaten Mappi, Papua";PAPUA;;Indonesia;;;;-56.166.418;1.397.319.471;https://maps.google.com/?cid=0x0:0x4a5a660aedad383b;
supermarket;Pusat Perbelanjaan;Kios sinar maros;"5VQC+XJX, Bomakia I, Distrik Bomakia, Kabupaten Boven Digoel, Papua 99663";"Bomakia I, Distrik Bomakia, Kabupaten Boven Digoel";PAPUA;99663;Indonesia;081247047104;;;-58.100.154;1.398.716.218;https://maps.google.com/?cid=0x0:0x8d3395e0840adcbb;
supermarket;supermarket;Kombut;"Kabupaten Boven Digoel, Papua";"Kabupaten Boven Digoel, Papua";PAPUA;;Indonesia;;;;-58.111.842;1.408.040.271;https://maps.google.com/?cid=0x0:0xd4979b856c10d48e;
supermarket;Pusat Perbelanjaan;Papua Supermarket  Dept. Store;"4869+F77 Bar, Sawagumu, Kec. Sorong Utara, Kota Sorong, Papua Bar. 98416";"Sawagumu, Kec. Sorong Utara, Kota Sorong";PAPUA;98416;Indonesia;09513160123;;;-0.888831;1.313.181.847;https://maps.google.com/?cid=0x0:0x7b5f0926a74ad213;
supermarket;supermarket;Kios Suljaya;"4MHW+VQX, Mindiptana, Kec. Mindiptana, Kabupaten Boven Digoel, Papua 99662";"Mindiptana, Kec. Mindiptana, Kabupaten Boven Digoel";PAPUA;99662;Indonesia;;;;-5.870.272;1.406.969.891;https://maps.google.com/?cid=0x0:0xb68d2c88fdd9bef2;
supermarket;supermarket;Kios Kagembur;"CC38+7JR, Alukuni, Distrik Kembu, Kabupaten Tolikara, Papua 99562";"Alukuni, Distrik Kembu, Kabupaten Tolikara";PAPUA;99562;Indonesia;;;;-35.967.635;1.384.165.187;https://maps.google.com/?cid=0x0:0xa2301c10eef42ee4;
supermarket;Toko bahan makanan;D'mart @Segi fresh Serting;"Bandar Baru Serting, 72120 Bandar Seri Jempol, Negeri Sembilan, Malaysia";Bandar Seri Jempol;PAPUA;72120;Indonesia;;;;28.931.244;1.024.063.928;https://maps.google.com/?cid=0x0:0xf24d4fff32f421d3;
supermarket;supermarket;Distrik Iniyandit;"Kabupaten Boven Digoel, Papua";"Kabupaten Boven Digoel, Papua";PAPUA;;Indonesia;;;;-57.470.313;1.406.432.017;https://maps.google.com/?cid=0x0:0xefab246d2462f016;
supermarket;Toko Swalayan;Swalayan new harapan;"Jl. Trans Papua No.km. 2, Persatuan, Mandobo, Boven Digoel Regency, Papua 99663";"Persatuan, Mandobo, Boven Digoel Regency";PAPUA;99663;Indonesia;081248781111;;;-61.254.842;1.403.275.427;https://maps.google.com/?cid=0x0:0xdcc4bfc1d76c22dd;
supermarket;Toko Swalayan;GrandLucky - SCBD;"Kawasan Niaga Terpadu Sudirman (SCBD, Jl. Jenderal Sudirman LOT-12, Senayan, Kec. Kby. Baru, Kota Jakarta Selatan, Daerah Khusus Ibukota Jakarta 12190";"Jl. Jenderal Sudirman LOT-12, Senayan, Kec. Kby. Baru, Kota Jakarta Selatan";PAPUA;12190;Indonesia;085183118632;;;-622.691;1.068.059.153;https://maps.google.com/?cid=0x0:0x4efcd0d8d64cad53;
supermarket;supermarket;Kios ASBUDI;"Mindiptana, Kec. Mindiptana, Kabupaten Boven Digoel, Papua 99663";"Kec. Mindiptana, Kabupaten Boven Digoel";PAPUA;99663;Indonesia;;;;-58.728.925;1.407.008.653;https://maps.google.com/?cid=0x0:0xd6078852330c1883;
supermarket;Toko Makanan Sehat;Primo Supermarket Citos;"Town Square, Jl. TB Simatupang No.KAV.17 Lantai Dasar, West Cilandak, Cilandak, South Jakarta City, Jakarta 12430";"Jl. TB Simatupang No.KAV.17 Lantai Dasar, West Cilandak, Cilandak, South Jakarta City";PAPUA;12430;Indonesia;02175920390;;;-62.914.315;1.067.992.178;https://maps.google.com/?cid=0x0:0x110a936a8d153b27;
supermarket;Toko bahan makanan;Warung buah mba iyut;"MM4F+F3R, Jl. Raya Serpong, Serpong, Kec. Setu, Kota Tangerang Selatan, Banten 15314";"Jl. Raya Serpong, Serpong, Kec. Setu, Kota Tangerang Selatan";PAPUA;15314;Indonesia;;;;-63.437.543;106.672.636;https://maps.google.com/?cid=0x0:0x4551cc2fd703bc65;
supermarket;supermarket;Arimop;"Kabupaten Boven Digoel, Papua";"Kabupaten Boven Digoel, Papua";PAPUA;;Indonesia;;;;-58.140.209;1.404.308.159;https://maps.google.com/?cid=0x0:0xf6e05b87dda2034d;
supermarket;Toko Swalayan;Swalayan new harapan;"Jl. Trans Papua No.km. 2, Persatuan, Mandobo, Boven Digoel Regency, Papua 99663";"Persatuan, Mandobo, Boven Digoel Regency";PAPUA;99663;Indonesia;081248781111;;;-61.254.842;1.403.275.427;https://maps.google.com/?cid=0x0:0xdcc4bfc1d76c22dd;
supermarket;Toko Swalayan;GrandLucky - SCBD;"Kawasan Niaga Terpadu Sudirman (SCBD, Jl. Jenderal Sudirman LOT-12, Senayan, Kec. Kby. Baru, Kota Jakarta Selatan, Daerah Khusus Ibukota Jakarta 12190";"Jl. Jenderal Sudirman LOT-12, Senayan, Kec. Kby. Baru, Kota Jakarta Selatan";PAPUA;12190;Indonesia;085183118632;;;-622.691;1.068.059.153;https://maps.google.com/?cid=0x0:0x4efcd0d8d64cad53;
supermarket;Toko Swalayan;Swalayan new harapan;"Jl. Trans Papua No.km. 2, Persatuan, Mandobo, Boven Digoel Regency, Papua 99663";"Persatuan, Mandobo, Boven Digoel Regency";PAPUA;99663;Indonesia;081248781111;;;-61.254.842;1.403.275.427;https://maps.google.com/?cid=0x0:0xdcc4bfc1d76c22dd;
supermarket;Toko Buah dan Sayur;Toko Buah Import ( Fadhil Fruits );"Jl. Utan Jati No.6, RT.5/RW.12, Kalideres, Kec. Kalideres, Kota Jakarta Barat, Daerah Khusus Ibukota Jakarta 11840";"RT.5/RW.12, Kalideres, Kec. Kalideres, Kota Jakarta Barat";PAPUA;11840;Indonesia;087785685688;;;-61.479.938;1.067.175.409;https://maps.google.com/?cid=0x0:0x61e963b910d8c375;
supermarket;Toko bahan makanan;Kios Sumber Padi;"Jalan Trans Papua No.Km 2, Persatuan, Kec. Mandobo, Kabupaten Boven Digoel, Papua 99663";"Persatuan, Kec. Mandobo, Kabupaten Boven Digoel";PAPUA;99663;Indonesia;;;;-61.016.308;1.403.188.932;https://maps.google.com/?cid=0x0:0x7c2279c9f772da7e;
supermarket;Toko Hewan Peliharaan;Woofidoo Pet Grocer;"Jl. Pluit Karang Jelita 10 Jl. Muara Karang Raya No.2A Unit 2A, Pluit, Kec. Penjaringan, Jkt Utara, Daerah Khusus Ibukota Jakarta 14450";"Pluit, Kec. Penjaringan, Jkt Utara";PAPUA;14450;Indonesia;081257578518;;;-61.128.026;1.067.815.233;https://maps.google.com/?cid=0x0:0x8d8aa9428596f06a;
supermarket;supermarket;N/A;;;PAPUA;;Indonesia;085888788988;;;-244.565;1.178.888;https://maps.google.com/?cid=0x0:0x5798efa419928ab7;
supermarket;supermarket;Papua 99664;"Kabupaten Boven Digoel, Papua";"Kabupaten Boven Digoel, Papua";PAPUA;;Indonesia;;;;-55.720.214;1.407.624.493;https://maps.google.com/?cid=0x0:0x4763b936197cab93;
supermarket;supermarket;Ambatkwi;"Kabupaten Boven Digoel, Papua";"Kabupaten Boven Digoel, Papua";PAPUA;;Indonesia;;;;-53.948.021;1.406.378.804;https://maps.google.com/?cid=0x0:0x3a215afc7936b662;
supermarket;supermarket;Manggelum;"Distrik Manggelum, Kabupaten Boven Digoel, Papua";"Kabupaten Boven Digoel, Papua";PAPUA;;Indonesia;;;;-53.697.435;1.404.204.808;https://maps.google.com/?cid=0x0:0xa227866e6b216e;
supermarket;Toko Swalayan;GrandLucky - SCBD;"Kawasan Niaga Terpadu Sudirman (SCBD, Jl. Jenderal Sudirman LOT-12, Senayan, Kec. Kby. Baru, Kota Jakarta Selatan, Daerah Khusus Ibukota Jakarta 12190";"Jl. Jenderal Sudirman LOT-12, Senayan, Kec. Kby. Baru, Kota Jakarta Selatan";PAPUA;12190;Indonesia;085183118632;;;-622.691;1.068.059.153;https://maps.google.com/?cid=0x0:0x4efcd0d8d64cad53;
supermarket;supermarket;Toko TRIPLE M;"8CP6+2FX, Asiki, Kec. Jair, Kabupaten Boven Digoel, Papua 99661";"Asiki, Kec. Jair, Kabupaten Boven Digoel";PAPUA;99661;Indonesia;;;;-66.648.753;1.404.112.333;https://maps.google.com/?cid=0x0:0x9e5bbb918f2021f5;
supermarket;Toko Swalayan;The FoodHall - Grand Indonesia;"Grand Indonesia shopping West Mall, Jl. M.H. Thamrin No.1 LG Floor, Kb. Melati, Kecamatan Tanah Abang, Kota Jakarta Pusat, Daerah Khusus Ibukota Jakarta 10350";"Jl. M.H. Thamrin No.1 LG Floor, Kb. Melati, Kecamatan Tanah Abang, Kota Jakarta Pusat";PAPUA;10350;Indonesia;085973703191;;;-61.954.464;1.068.197.669;https://maps.google.com/?cid=0x0:0x4a1351e22f783bb;
supermarket;Toko Swalayan;Ranch Market Grand Indonesia;"Grand Indonesia Shoping Town East Mall, Jl. MH Thamrin No.1 Lantai LG, RT.1/RW.5, Menteng, Kec. Menteng, Kota Jakarta Pusat, Daerah Khusus Ibukota Jakarta 10310";"Jl. MH Thamrin No.1 Lantai LG, RT.1/RW.5, Menteng, Kec. Menteng, Kota Jakarta Pusat";PAPUA;10310;Indonesia;02123599054;;;-61.963.902;1.068.225.851;https://maps.google.com/?cid=0x0:0xdb199471a47076d0;
supermarket;Pusat Perbelanjaan;Daily Supermarket Puri Mansion;"Ruko Puri Mansion Blok C 2, RT.2/RW.1, Kembangan Sel., Kec. Kembangan, Kota Jakarta Barat, Daerah Khusus Ibukota Jakarta 11610";"RT.2/RW.1, Kembangan Sel., Kec. Kembangan, Kota Jakarta Barat";PAPUA;11610;Indonesia;081944117272;;;-61.782.717;106.727.934;https://maps.google.com/?cid=0x0:0xb5555bd3bf987072;
supermarket;Toko bahan makanan;Warung buah mba iyut;"MM4F+F3R, Jl. Raya Serpong, Serpong, Kec. Setu, Kota Tangerang Selatan, Banten 15314";"Jl. Raya Serpong, Serpong, Kec. Setu, Kota Tangerang Selatan";PAPUA;15314;Indonesia;;;;-63.437.543;106.672.636;https://maps.google.com/?cid=0x0:0x4551cc2fd703bc65;
supermarket;Toko Swalayan;GS The Fresh Supermarket Kemang Pratama;"Linc Square Kemang Pratama, Jl. Kemang Pratama Raya, RT.004/RW.001, Bojong Rawalumbu, Kec. Rawalumbu, Kota Bks, Jawa Barat 17116";"Jl. Kemang Pratama Raya, RT.004/RW.001, Bojong Rawalumbu, Kec. Rawalumbu, Kota Bks";PAPUA;17116;Indonesia;02182416910;;;-62.779.418;1.069.910.558;https://maps.google.com/?cid=0x0:0x4ce692f4b9ef21ee;
supermarket;Toko Swalayan;Swalayan new harapan;"Jl. Trans Papua No.km. 2, Persatuan, Mandobo, Boven Digoel Regency, Papua 99663";"Persatuan, Mandobo, Boven Digoel Regency";PAPUA;99663;Indonesia;081248781111;;;-61.254.842;1.403.275.427;https://maps.google.com/?cid=0x0:0xdcc4bfc1d76c22dd;
supermarket;Toko bahan makanan;Kios Sumber Padi;"Jalan Trans Papua No.Km 2, Persatuan, Kec. Mandobo, Kabupaten Boven Digoel, Papua 99663";"Persatuan, Kec. Mandobo, Kabupaten Boven Digoel";PAPUA;99663;Indonesia;;;;-61.016.308;1.403.188.932;https://maps.google.com/?cid=0x0:0x7c2279c9f772da7e;
supermarket;Minimarket;Gabiga Group Of Companies;"Highlands Hwy, Eastern Highlands Province, Papua Nugini";Papua Nugini;PAPUA;;Indonesia;6755371288;;;-62.913.963;14.586.851;https://maps.google.com/?cid=0x0:0x63b55e829fcf3c63;
supermarket;supermarket;Papua 99664;"Kabupaten Boven Digoel, Papua";"Kabupaten Boven Digoel, Papua";PAPUA;;Indonesia;;;;-55.720.214;1.407.624.493;https://maps.google.com/?cid=0x0:0x4763b936197cab93;
supermarket;Toko Swalayan;Surya Mart;"C8V2+G83, Jl. Irian Kepi, Kepi, Kec. Obaa, Kabupaten Mappi, Papua 99881";"Jl. Irian Kepi, Kepi, Kec. Obaa, Kabupaten Mappi";PAPUA;99881;Indonesia;085254867242;;;-65.562.444;1.393.007.867;https://maps.google.com/?cid=0x0:0x160bad2921fdf723;
supermarket;Toko Swalayan;Hadi Supermarket;"Jl. Frans Kaisepo No.5, RT. 003/01, Warari, Kec. Yapen Sel., Kabupaten Kepulauan Yapen, Papua 98212";"RT. 003/01, Warari, Kec. Yapen Sel., Kabupaten Kepulauan Yapen";PAPUA;98212;Indonesia;098334276;;;-18.751.153;1.362.490.809;https://maps.google.com/?cid=0x0:0xf67310d4ed062031;
supermarket;Minimarket;TOKO RINI JAYA;"G3F9+8XQ, Jl. Poros Teminabuan-ayanmaru, depan RSUD, Keyen, Kec. Teminabuan, Kabupaten Sorong Selatan, Papua Bar. 98454";"Jl. Poros Teminabuan-ayanmaru, depan RSUD, Keyen, Kec. Teminabuan, Kabupaten Sorong Selatan";PAPUA;98454;Indonesia;081248712033;;;-14.766.617;1.320.699.779;https://maps.google.com/?cid=0x0:0x8a9b092ff180067;
supermarket;Toko bahan makanan;KERAMBA PANPER;"Unnamed Road, Doyo Lama, Distrik Waibu, Kabupaten Jayapura, Papua 99352";"Doyo Lama, Distrik Waibu, Kabupaten Jayapura";PAPUA;99352;Indonesia;082397758140;;;-25.723.817;1.404.535.468;https://maps.google.com/?cid=0x0:0x99681cfd0f029c29;
supermarket;Pusat jajanan kaki lima;Papuanmart;"Furia polda, Jl. Perkutut Jalur 4 No.164, Wahno, Kec. Abepura, Kota Jayapura, Papua 99224";"Jl. Perkutut Jalur 4 No.164, Wahno, Kec. Abepura, Kota Jayapura";PAPUA;99224;Indonesia;;;;-25.936.297;1.406.745.825;https://maps.google.com/?cid=0x0:0x820b246032d165c5;
supermarket;Toko bahan makanan;Kios Risman;"X8J8+VC8, Jl. Menur, RT.003/RW.001, Klaru, Mariyai, Distrik Mariat, Kabupaten Sorong, Papua Bar. 98415";"Jl. Menur, RT.003/RW.001, Klaru, Mariyai, Distrik Mariat, Kabupaten Sorong";PAPUA;98415;Indonesia;082247050774;;;-10.178.324;1.313.160.754;https://maps.google.com/?cid=0x0:0xa11588e477119195;
supermarket;Toko Swalayan;Kios Bayutra;"46HV+QC2, Jl. Nipah, Famboaman, Kec. Yapen Sel., Kabupaten Kepulauan Yapen, Papua 98213";"Jl. Nipah, Famboaman, Kec. Yapen Sel., Kabupaten Kepulauan Yapen";PAPUA;98213;Indonesia;;;;-18.706.197;1.362.435.076;https://maps.google.com/?cid=0x0:0x7f73d770b8e46fe3;
supermarket;Toko Swalayan;Toko Ramayana Kepi;"C8V2+8C6, Jl. Irian Kepi, Kepi, Kec. Obaa, Kabupaten Mappi, Papua 99881";"Jl. Irian Kepi, Kepi, Kec. Obaa, Kabupaten Mappi";PAPUA;99881;Indonesia;081342212767;;;-65.567.053;1.393.010.043;https://maps.google.com/?cid=0x0:0x35982355481bae6c;
supermarket;Toko Swalayan;Ropan Market - Yos Sudarso;"VWXP+456, Jl. Yos Sudarso, Hurekama, Distrik Wamena, Kabupaten Jayawijaya, Papua 99511";"Jl. Yos Sudarso, Hurekama, Distrik Wamena, Kabupaten Jayawijaya";PAPUA;99511;Indonesia;;;;-41.022.222;1.389.353.915;https://maps.google.com/?cid=0x0:0xe060cf4b8c1f18d0;
supermarket;Toko Swalayan;Swalayan new harapan;"Jl. Trans Papua No.km. 2, Persatuan, Mandobo, Boven Digoel Regency, Papua 99663";"Persatuan, Mandobo, Boven Digoel Regency";PAPUA;99663;Indonesia;081248781111;;;-61.254.842;1.403.275.427;https://maps.google.com/?cid=0x0:0xdcc4bfc1d76c22dd;
supermarket;Pusat Perbelanjaan;Papua Supermarket  Dept. Store;"4869+F77 Bar, Sawagumu, Kec. Sorong Utara, Kota Sorong, Papua Bar. 98416";"Sawagumu, Kec. Sorong Utara, Kota Sorong";PAPUA;98416;Indonesia;09513160123;;;-0.888831;1.313.181.847;https://maps.google.com/?cid=0x0:0x7b5f0926a74ad213;
supermarket;Toko bahan makanan;Papua Mart;"7XVG+F83, Pruleme, Distrik Mulia, Kabupaten Puncak Jaya, Papua";"Kabupaten Puncak Jaya, Papua";PAPUA;;Indonesia;;;;-37.063.653;1.379.757.822;https://maps.google.com/?cid=0x0:0xf49ab6ab8e5d1b97;
supermarket;Kios;Kios Karimah Jaya;"FCHF+QW2, Sabron Sari, Distrik Sentani Barat, Kabupaten Jayapura, Papua 99358";"Sabron Sari, Distrik Sentani Barat, Kabupaten Jayapura";PAPUA;99358;Indonesia;;;;-25.206.229;1.404.247.731;https://maps.google.com/?cid=0x0:0x3484faadcbf0246;
supermarket;Toko bahan makanan;Kios Ribendany;"3W83+F88, Kriku, Arso Tim., Kabupaten Keerom, Papua 99468";"Kriku, Arso Tim., Kabupaten Keerom";PAPUA;99468;Indonesia;;;;-2.933.427;140.902.573;https://maps.google.com/?cid=0x0:0xab2149e49db81c56;
supermarket;Toko umum;"Kios Diah, Rian, Widi, Dira, Dean, Jasmine, Kyano.";"Jl. Ifar Gn., Sentani Kota, Kec. Sentani, Kabupaten Jayapura, Papua 99359";"Sentani Kota, Kec. Sentani, Kabupaten Jayapura";PAPUA;99359;Indonesia;081248050158;;;-25.649.962;1.405.213.029;https://maps.google.com/?cid=0x0:0x537b84cafedbb328;
supermarket;Toko Swalayan;Toko Mujur;"36RC+8JF, Mur, Kec. Mambioman Bapai, Kabupaten Mappi, Papua 99872";"Mur, Kec. Mambioman Bapai, Kabupaten Mappi";PAPUA;99872;Indonesia;081311663253;;;-69.091.883;1.392.215.408;https://maps.google.com/?cid=0x0:0x3ac32eba1af23e22;
supermarket;Toko bahan makanan;DEPOT SATRIA JOAN;"3JWM+GQV, Kotdol, Distrik Serambakon, Kabupaten Pegunungan Bintang, Papua 99573";"Kotdol, Distrik Serambakon, Kabupaten Pegunungan Bintang";PAPUA;99573;Indonesia;081343058967;;;-49.036.458;140.634.431;https://maps.google.com/?cid=0x0:0xef33d2d686115f88;
supermarket;;KIOS ARINI;"2R3H+GGQ, Yerfum, Pantai Kasuari, Kabupaten Asmat, Papua 99782";"Yerfum, Pantai Kasuari, Kabupaten Asmat";PAPUA;99782;Indonesia;;;;-59.961.527;1.388.288.587;https://maps.google.com/?cid=0x0:0x485f1b878020923e;
supermarket;Toko;Kios dzabyan;"JGM5+3Q2, Karang Mulia, Distrik Nabire, Kabupaten Nabire, Papua 98811";"Karang Mulia, Distrik Nabire, Kabupaten Nabire";PAPUA;98811;Indonesia;081247875858;;;-33.673.729;1.355.093.935;https://maps.google.com/?cid=0x0:0xc1e51201175404bc;
supermarket;Toko Swalayan;Ranch Market Pesanggrahan;"1, Jl. Pesanggrahan No.2, Kembangan Sel., Kec. Kembangan, Kota Jakarta Barat, Daerah Khusus Ibukota Jakarta 11610";"Jl. Pesanggrahan No.2, Kembangan Sel., Kec. Kembangan, Kota Jakarta Barat";PAPUA;11610;Indonesia;02158304842;;;-61.883.181;1.067.561.831;https://maps.google.com/?cid=0x0:0x59972408c2ef6a6e;
supermarket;Toko makanan beku;Mugie frozen;"Jl. Sawah Lio No.I, RT.11/RW.1, Jemb. Lima, Kec. Tambora, Kota Jakarta Barat, Daerah Khusus Ibukota Jakarta 11250";"RT.11/RW.1, Jemb. Lima, Kec. Tambora, Kota Jakarta Barat";PAPUA;11250;Indonesia;085814561987;;;-61.466.015;1.068.060.013;https://maps.google.com/?cid=0x0:0x6b272c8d9ccd891a;
supermarket;Toko Alat Pancing;Toko Baitul Makmur Umi Romlah"";"Jl. Sawah Lio II No.31 12, RT.12/RW.1, Jemb. Lima, Kec. Tambora, Kota Jakarta Barat, Daerah Khusus Ibukota Jakarta 11250";"RT.12/RW.1, Jemb. Lima, Kec. Tambora, Kota Jakarta Barat";PAPUA;11250;Indonesia;0216346621;;;-61.455.825;1.068.056.025;https://maps.google.com/?cid=0x0:0x3c0b3756a1f9cd2d;
supermarket;Toko Swalayan;Toko Yan Curug - Supermarket Tangerang;"Jl. Raya STPI Curug No.86, Curug Wetan, Kec. Curug, Kabupaten Tangerang, Banten 15810";"Curug Wetan, Kec. Curug, Kabupaten Tangerang";PAPUA;15810;Indonesia;0215986165;;;-62.645.074;1.065.576.652;https://maps.google.com/?cid=0x0:0xcd2e8e290194c5dc;
supermarket;Toko Swalayan;Toko Yan Rajeg;"Jl. Raya Cadas - Kukun No.18, Mekarsari, Kec. Rajeg, Kabupaten Tangerang, Banten 15560";"Mekarsari, Kec. Rajeg, Kabupaten Tangerang";PAPUA;15560;Indonesia;02122297791;;;-61.317.054;106.530.697;https://maps.google.com/?cid=0x0:0x9cf5a4e3227f9e4c;
supermarket;Toko Swalayan;Toko Yan Cikupa;"Jl. Raya Serang No.15, RW.42, Sentul Jaya, Kec. Balaraja, Kabupaten Tangerang, Banten 15710";"RW.42, Sentul Jaya, Kec. Balaraja, Kabupaten Tangerang";PAPUA;15710;Indonesia;0215960185;;;-6.229.555;1.065.189.314;https://maps.google.com/?cid=0x0:0x6f455dfa3e1acb6b;
supermarket;Toko Swalayan;Toko Yan Pasar Kemis;"Gg. Panel No.12, Ps. Kemis, Kec. Ps. Kemis, Kabupaten Tangerang, Banten 15560";"Ps. Kemis, Kec. Ps. Kemis, Kabupaten Tangerang";PAPUA;15560;Indonesia;0215906871;;;-61.726.013;1.065.336.121;https://maps.google.com/?cid=0x0:0xa5a43691ad97f26b;
supermarket;Toko Swalayan;Toko Yan Cisoka;"Jl. Cisoka - Tigaraksa, Cisoka, Kec. Cisoka, Kabupaten Tangerang, Banten 15730";"Cisoka, Kec. Cisoka, Kabupaten Tangerang";PAPUA;15730;Indonesia;02159752212;;;-62.625.376;1.064.244.707;https://maps.google.com/?cid=0x0:0x764e6990e174d8dc;
supermarket;Pusat Perbelanjaan;Yanmart Pasir Nangka;"Jl. Aria Jaya Santika, Pasir Nangka, Kec. Tigaraksa, Kabupaten Tangerang, Banten 15720";"Pasir Nangka, Kec. Tigaraksa, Kabupaten Tangerang";PAPUA;15720;Indonesia;0215996534;;;-62.292.315;1.064.729.825;https://maps.google.com/?cid=0x0:0x85beb4616db3708b;
supermarket;supermarket;Papua 99661;"Kabupaten Boven Digoel, Papua";"Kabupaten Boven Digoel, Papua";PAPUA;;Indonesia;;;;-66.725.506;1.401.832.516;https://maps.google.com/?cid=0x0:0x6942b94e71194057;
supermarket;Toko Swalayan;Swalayan new harapan;"Jl. Trans Papua No.km. 2, Persatuan, Mandobo, Boven Digoel Regency, Papua 99663";"Persatuan, Mandobo, Boven Digoel Regency";PAPUA;99663;Indonesia;081248781111;;;-61.254.842;1.403.275.427;https://maps.google.com/?cid=0x0:0xdcc4bfc1d76c22dd;
supermarket;Toko Swalayan;Surya Mart;"C8V2+G83, Jl. Irian Kepi, Kepi, Kec. Obaa, Kabupaten Mappi, Papua 99881";"Jl. Irian Kepi, Kepi, Kec. Obaa, Kabupaten Mappi";PAPUA;99881;Indonesia;085254867242;;;-65.562.444;1.393.007.867;https://maps.google.com/?cid=0x0:0x160bad2921fdf723;
supermarket;supermarket;Subur;"Subur, Kabupaten Boven Digoel, Papua";"Kabupaten Boven Digoel, Papua";PAPUA;;Indonesia;;;;-69.242.223;1.403.069.088;https://maps.google.com/?cid=0x0:0x85aa77b9f73f429b;
supermarket;supermarket;Kantin Makan Mersawa;"2FPW+XW9, Pachas, Ulilin, Kabupaten Merauke, Papua";"Kabupaten Merauke, Papua";PAPUA;;Indonesia;;;;-69.625.933;1.404.973.503;https://maps.google.com/?cid=0x0:0xbc7200041c66e246;
supermarket;Minimarket;TOKO SUBUR;"Jl. Cempaka Sari I No.4, RT.2/RW.8, Harapan Mulya, Kec. Kemayoran, Kota Jakarta Pusat, Daerah Khusus Ibukota Jakarta 10640";"RT.2/RW.8, Harapan Mulya, Kec. Kemayoran, Kota Jakarta Pusat";PAPUA;10640;Indonesia;;;;-61.714.666;1.068.576.947;https://maps.google.com/?cid=0x0:0xb92321d59fd090a2;
supermarket;Pusat Perbelanjaan;Toserba Subur;"Jl. Kiasnawi No.36, RT.006/RW.003, Sukarasa, Kec. Tangerang, Kota Tangerang, Banten 15111";"RT.006/RW.003, Sukarasa, Kec. Tangerang, Kota Tangerang";PAPUA;15111;Indonesia;0215526466;;;-61.763.364;1.066.308.232;https://maps.google.com/?cid=0x0:0x9bd903808f67dabb;
supermarket;Toko;TOKO SABAR SUBUR;"Jl. Kapuk Pulo No.4 6, RT.15/RW.10, Kapuk, Kecamatan Cengkareng, Kota Jakarta Barat, Daerah Khusus Ibukota Jakarta 11720";"RT.15/RW.10, Kapuk, Kecamatan Cengkareng, Kota Jakarta Barat";PAPUA;11720;Indonesia;;;;-61.414.281;1.067.536.079;https://maps.google.com/?cid=0x0:0x45ebf9d2db1f0ac0;
supermarket;Supermarket Diskon;Aneka Subur;"RH7R+283, Jl. Prabu Kian Santang, RT.001/RW.003, Sangiang Jaya, Kec. Periuk, Kota Tangerang, Banten 15134";"Jl. Prabu Kian Santang, RT.001/RW.003, Sangiang Jaya, Kec. Periuk, Kota Tangerang";PAPUA;15134;Indonesia;082111995580;;;-61.874.891;1.065.907.862;https://maps.google.com/?cid=0x0:0xc086985661f30200;
supermarket;Minimarket;Toko Subur;"Jl. Maulana Hasanudin No.34, RT.002/RW.002, Cipondoh Makmur, Kec. Cipondoh, Kota Tangerang, Banten 15148";"RT.002/RW.002, Cipondoh Makmur, Kec. Cipondoh, Kota Tangerang";PAPUA;15148;Indonesia;;;;-61.807.207;1.066.765.188;https://maps.google.com/?cid=0x0:0xbca0ae2a757d9c21;
supermarket;Supermarket Diskon;Subur swalayan;"Jl. Baharuddin No.7-17, Sukarasa, Kec. Tangerang, Kota Tangerang, Banten 15111";"Sukarasa, Kec. Tangerang, Kota Tangerang";PAPUA;15111;Indonesia;;;;-61.760.153;1.066.318.453;https://maps.google.com/?cid=0x0:0x2027af37343ea31b;
supermarket;Minimarket;Pak subur sembako;"Duren Seribu, Kec. Bojongsari, Kota Depok, Jawa Barat 16518";"Kec. Bojongsari, Kota Depok";PAPUA;16518;Indonesia;083897173501;;;-64.273.463;106.735.788;https://maps.google.com/?cid=0x0:0x4f3bdaf6ff0c0d01;
supermarket;Toko;Toko Subur;"Jatimakmur, Kec. Pd. Gede, Kota Bks, Jawa Barat";"Kota Bks, Jawa Barat";PAPUA;;Indonesia;;;;-62.783.605;1.069.203.752;https://maps.google.com/?cid=0x0:0xdbcdd862081fe484;
supermarket;Kedai Kopi;Warung Subur;"PJJC+8JX, Jl. Boston Timur VI, Medang, Kec. Pagedangan, Kabupaten Tangerang, Banten 15334";"Jl. Boston Timur VI, Medang, Kec. Pagedangan, Kabupaten Tangerang";PAPUA;15334;Indonesia;083192964909;;;-62.691.277;1.066.216.005;https://maps.google.com/?cid=0x0:0xb713a64463500349;
supermarket;Toko;Warung Subur;"M5W2+JF6, Jl. Ust. Tata Sukarta, Pasirsari, Cikarang Sel., Kabupaten Bekasi, Jawa Barat 17530";"Jl. Ust. Tata Sukarta, Pasirsari, Cikarang Sel., Kabupaten Bekasi";PAPUA;17530;Indonesia;081289751861;;;-63.034.537;1.071.511.359;https://maps.google.com/?cid=0x0:0xfd4ad842bab4a187;
supermarket;Toko Swalayan;Toko Subur01;"9QJ7+CPR, Jl. Kp. Laksana, Parakan, Kec. Ciomas, Kabupaten Bogor, Jawa Barat 16610";"Jl. Kp. Laksana, Parakan, Kec. Ciomas, Kabupaten Bogor";PAPUA;16610;Indonesia;085767774005;;;-66.188.787;1.067.642.753;https://maps.google.com/?cid=0x0:0x4bb731cd312557af;
supermarket;Toko bahan makanan;Toko Subur2 (Grosireceran);"Jl. Kp. Klp. 7, Sukadamai, Kec. Dramaga, Kabupaten Bogor, Jawa Barat 16680";"Sukadamai, Kec. Dramaga, Kabupaten Bogor";PAPUA;16680;Indonesia;08567178299;;;-66.078.093;106.734.932;https://maps.google.com/?cid=0x0:0xecafc00c84ec389c;
supermarket;supermarket;TOKO SUBUR;"PHP5+XJC, Jl. Curug Wetan, Curug Wetan, Kec. Curug, Kabupaten Tangerang, Banten 15810";"Jl. Curug Wetan, Curug Wetan, Kec. Curug, Kabupaten Tangerang";PAPUA;15810;Indonesia;;;;-62.625.524;1.065.589.902;https://maps.google.com/?cid=0x0:0xd71da78db288a53c;
supermarket;Toko bahan makanan;Toko Subur;"Jalan Utan Jaya No. 18, RT. 03/04, Cipayung, Rw. Panjang, Kecamatan Bojonggede, Kota Depok, Jawa Barat 16438";"RT. 03/04, Cipayung, Rw. Panjang, Kecamatan Bojonggede, Kota Depok";PAPUA;16438;Indonesia;;;;-64.486.028;1.068.074.761;https://maps.google.com/?cid=0x0:0x550325e3410bdc27;
supermarket;Kafe;Toko Sabar Subur;"JR28+437, Bojongkaso, Kec. Agrabinta, Kabupaten Cianjur, Jawa Barat 43273";"Bojongkaso, Kec. Agrabinta, Kabupaten Cianjur";PAPUA;43273;Indonesia;;;;-73.997.033;1.068.151.788;https://maps.google.com/?cid=0x0:0xcbf2de6bdcd36fb;
supermarket;Toko bahan makanan;Toko Sabar Subur;"Q2MV+C62, Karangsatria, Kec. Tambun Utara, Kabupaten Bekasi, Jawa Barat 17510";"Karangsatria, Kec. Tambun Utara, Kabupaten Bekasi";PAPUA;17510;Indonesia;081211656080;;;-62.164.766;1.070.430.033;https://maps.google.com/?cid=0x0:0x7046f941396a018a;
supermarket;supermarket;Subur;"Gg. Proyek No.4 4, RT.4/RW.8, Joglo, Kec. Kembangan, Kota Jakarta Barat, Daerah Khusus Ibukota Jakarta 11640";"RT.4/RW.8, Joglo, Kec. Kembangan, Kota Jakarta Barat";PAPUA;11640;Indonesia;;;;-62.201.561;1.067.348.558;https://maps.google.com/?cid=0x0:0x5ec0332d7992b1ab;
supermarket;supermarket;Papua 99664;"Kabupaten Boven Digoel, Papua";"Kabupaten Boven Digoel, Papua";PAPUA;;Indonesia;;;;-55.720.214;1.407.624.493;https://maps.google.com/?cid=0x0:0x4763b936197cab93;
supermarket;Minimarket;Victory Swalayan;"Jl. Raya Kemiri No.330, Hinekombe, Kec. Sentani, Kabupaten Jayapura, Papua 99359";"Hinekombe, Kec. Sentani, Kabupaten Jayapura";PAPUA;99359;Indonesia;;;;-25.650.192;1.405.059.407;https://maps.google.com/?cid=0x0:0x9fc3fb75accf6014;
supermarket;Toko bahan makanan;KOKO MAJU BERSAMA;"Miei, Distrik Wasior, Kabupaten Teluk Wondama, Papua Bar. 98362";"Distrik Wasior, Kabupaten Teluk Wondama";PAPUA;98362;Indonesia;;;;-27.360.945;1.345.122.993;https://maps.google.com/?cid=0x0:0x351104c7d3094549;
supermarket;Pusat Perbelanjaan;Papua Supermarket  Dept. Store;"4869+F77 Bar, Sawagumu, Kec. Sorong Utara, Kota Sorong, Papua Bar. 98416";"Sawagumu, Kec. Sorong Utara, Kota Sorong";PAPUA;98416;Indonesia;09513160123;;;-0.888831;1.313.181.847;https://maps.google.com/?cid=0x0:0x7b5f0926a74ad213;
supermarket;Minimarket;BESTMART SUPERMARKET;"Jl. Raya Klp. Satu, Sawar, Kec. Sarmi, Kabupaten Sarmi, Papua 99373";"Sawar, Kec. Sarmi, Kabupaten Sarmi";PAPUA;99373;Indonesia;082288888605;;;-1.890.639;1.387.527.702;https://maps.google.com/?cid=0x0:0xaba0253f793fcb9b;
supermarket;Kantor Perusahaan;Hypermart - Abepura;"Jl. Raya Abepura - Sentani No.81, Asano, Kec. Abepura, Kota Jayapura, Papua 99351";"Asano, Kec. Abepura, Kota Jayapura";PAPUA;99351;Indonesia;081314558885;;;-26.166.812;1.406.801.223;https://maps.google.com/?cid=0x0:0x4a244a93dff8c00b;
supermarket;Pusat Perbelanjaan;Robinson Supermarket Mall Ramayana;"9MWF+7G4, Jalan Raya, Wai Mhorock, Abepura, Jayapura City, Papua 99225";"Jalan Raya, Wai Mhorock, Abepura, Jayapura City";PAPUA;99225;Indonesia;;;;-26.043.521;1.406.738.283;https://maps.google.com/?cid=0x0:0xefb232f46e94116e;
supermarket;Pusat Perbelanjaan;Loka Supermarket;"JF2P+JV6, Jalan Topo, wadio, Bumi Wonorejo, Distrik Nabire, Kabupaten Nabire, Papua 98813";"Jalan Topo, wadio, Bumi Wonorejo, Distrik Nabire, Kabupaten Nabire";PAPUA;98813;Indonesia;098424688;;;-33.984.625;1.354.871.406;https://maps.google.com/?cid=0x0:0x79cd9d7b246fedb4;
supermarket;Pusat Perbelanjaan;Mega Abepura Department Store;"Jl. Raya Abepura - Sentani No.10, Kota Baru, Kec. Abepura, Kota Jayapura, Papua 99351";"Kota Baru, Kec. Abepura, Kota Jayapura";PAPUA;99351;Indonesia;;;;-2.611.092;1.406.662.139;https://maps.google.com/?cid=0x0:0x9667ed828f5238cc;
supermarket;Minimarket;TOKO DARUSSALAM MART;"8RP3+2W, Koya Bar., Kec. Muara Tami, Kota Jayapura, Papua 99351";"Koya Bar., Kec. Muara Tami, Kota Jayapura";PAPUA;99351;Indonesia;;;;-26.649.495;1.408.048.681;https://maps.google.com/?cid=0x0:0x7acd10822dc9508c;
supermarket;Toko bahan makanan;KERAMBA PANPER;"Unnamed Road, Doyo Lama, Distrik Waibu, Kabupaten Jayapura, Papua 99352";"Doyo Lama, Distrik Waibu, Kabupaten Jayapura";PAPUA;99352;Indonesia;082397758140;;;-25.723.817;1.404.535.468;https://maps.google.com/?cid=0x0:0x99681cfd0f029c29;
supermarket;Toko Swalayan;Saga Supermarket;"CPW3+83X, Ardipura, Distrik Jayapura Selatan, Kota Jayapura, Papua 99222";"Ardipura, Distrik Jayapura Selatan, Kota Jayapura";PAPUA;99222;Indonesia;;;;-25.541.438;1.407.027.385;https://maps.google.com/?cid=0x0:0x287c7b2014785d97;
supermarket;Toko Swalayan;H-Mart;"JGX7+984, Jl. R.E. Martadinata, Nabarua, Distrik Nabire, Kabupaten Nabire, Papua 98816";"Jl. R.E. Martadinata, Nabarua, Distrik Nabire, Kabupaten Nabire";PAPUA;98816;Indonesia;;;;-33.513.853;1.355.137.054;https://maps.google.com/?cid=0x0:0xce892c2b16454af3;
supermarket;Toko Swalayan;Kios Fajar;"C7QW+MG9, Jl. Irian Kepi, Kepi, Kec. Obaa, Kabupaten Mappi, Papua 99881";"Jl. Irian Kepi, Kepi, Kec. Obaa, Kabupaten Mappi";PAPUA;99881;Indonesia;082130193311;;;-65.608.432;1.392.963.647;https://maps.google.com/?cid=0x0:0x5c3d6588326964ff;
supermarket;Toko Swalayan;Swalayan new harapan;"Jl. Trans Papua No.km. 2, Persatuan, Mandobo, Boven Digoel Regency, Papua 99663";"Persatuan, Mandobo, Boven Digoel Regency";PAPUA;99663;Indonesia;081248781111;;;-61.254.842;1.403.275.427;https://maps.google.com/?cid=0x0:0xdcc4bfc1d76c22dd;
supermarket;Pusat Perbelanjaan;ICE MART;"Jl yowanibi polres, Doyo Baru, Distrik Waibu, Kabupaten Jayapura, Papua 99368";"Doyo Baru, Distrik Waibu, Kabupaten Jayapura";PAPUA;99368;Indonesia;082236765310;;;-25.466.705;1.404.580.376;https://maps.google.com/?cid=0x0:0xee2b858b5102c5eb;
supermarket;Pusat Perbelanjaan;Saga Jayapura;"Jl. Ahmad Yani, Gurabesi, Kec. Jayapura Utara, Kota Jayapura, Papua 99222";"Gurabesi, Kec. Jayapura Utara, Kota Jayapura";PAPUA;99222;Indonesia;0811480554;;;-25.433.433;1.407.016.688;https://maps.google.com/?cid=0x0:0x68f0411e320c4afb;
supermarket;Toko Swalayan;Toko Sandy Jaya;"8RFF+35W, jl.Bendungan Tami, Swakarsa, Koya Bar., Kec. Muara Tami, Kota Jayapura, Papua 99351";"jl.Bendungan Tami, Swakarsa, Koya Bar., Kec. Muara Tami, Kota Jayapura";PAPUA;99351;Indonesia;;;;-26.772.717;1.408.229.652;https://maps.google.com/?cid=0x0:0x9aebab82234cf7d2;
supermarket;Toko bahan makanan;Papua Mart;"7XVG+F83, Pruleme, Distrik Mulia, Kabupaten Puncak Jaya, Papua";"Kabupaten Puncak Jaya, Papua";PAPUA;;Indonesia;;;;-37.063.653;1.379.757.822;https://maps.google.com/?cid=0x0:0xf49ab6ab8e5d1b97;
supermarket;supermarket;Smart Minimarket;"JP66+WCF, Banamepe, Edera, Kabupaten Mappi, Papua";"Kabupaten Mappi, Papua";PAPUA;;Indonesia;;;;-73.876.836;1.397.110.495;https://maps.google.com/?cid=0x0:0x7b9d0e61f96daf74;
supermarket;Komplek perumahan;Rumah Bpk Gustaf. L;"4859+784, Klawuyuk, Distrik Sorong Timur, Kota Sorong, Papua Bar. 98416";"Klawuyuk, Distrik Sorong Timur, Kota Sorong";PAPUA;98416;Indonesia;;;;-0.8918739;1.313.183.248;https://maps.google.com/?cid=0x0:0x30559e7e5eb96ee4;
supermarket;Minimarket;SAGA Supermarket  Dept. Store;"Jalan A. Yani, Ruko Kuda Laut, Klademak, Kecamatan Sorong Manoi, Kota Sorong, Papua Bar. 98414";"Ruko Kuda Laut, Klademak, Kecamatan Sorong Manoi, Kota Sorong";PAPUA;98414;Indonesia;0951322784;;;-0.8765248;1.312.576.755;https://maps.google.com/?cid=0x0:0x963043ed646a7e1e;
supermarket;Minimarket;K3 Mart SCBD;"Jl. Jenderal Sudirman No.Kav 52-53, RT.5/RW.3, Senayan, Kec. Kby. Baru, Kota Jakarta Selatan, Daerah Khusus Ibukota Jakarta 12190";"RT.5/RW.3, Senayan, Kec. Kby. Baru, Kota Jakarta Selatan";PAPUA;12190;Indonesia;081119292668;;;-62.277.896;1.068.097.445;https://maps.google.com/?cid=0x0:0x16eb37e0faea509d;
supermarket;Toko Swalayan;K-Mart;"Wijaya Grand Centre, Jl. Darmawangsa Raya No.43-44, RT.5/RW.1, Pulo, Kec. Kby. Baru, Kota Jakarta Selatan, Daerah Khusus Ibukota Jakarta 12160";"Jl. Darmawangsa Raya No.43-44, RT.5/RW.1, Pulo, Kec. Kby. Baru, Kota Jakarta Selatan";PAPUA;12160;Indonesia;02122775526;;;-62.545.176;1.068.010.066;https://maps.google.com/?cid=0x0:0x67f5c5b3bd113abc;
supermarket;Minimarket;Transmart Kota Kasablanka;"16, Jl. Raya Casablanca No.88 9-10, RT.2/RW.5, Menteng Dalam, Kec. Tebet, Kota Jakarta Selatan, Daerah Khusus Ibukota Jakarta 12870";"Jl. Raya Casablanca No.88 9-10, RT.2/RW.5, Menteng Dalam, Kec. Tebet, Kota Jakarta Selatan";PAPUA;12870;Indonesia;082208255175;;;-62.226.058;1.068.423.994;https://maps.google.com/?cid=0x0:0x332636bc39ff68d0;
supermarket;Toko Swalayan;Hari - Hari Pasar Swalayan Lokasari Square;"Lokasari Square Lantai II Jalan Mangga Besar No.81 Tamansari, RT.6/RW.2, Tangki, Daerah Khusus Ibukota Jakarta 13440";"RT.6/RW.2, Tangki";PAPUA;13440;Indonesia;0216498401;;;-61.464.618;1.068.238.781;https://maps.google.com/?cid=0x0:0x9554b5a413b39aad;
supermarket;Minimarket;K3MART PIK Pantjoran;"Golf Island, Ruko Blok D No.02A, Kamal Muara, Jkt Utara, Daerah Khusus Ibukota Jakarta 11447";"Ruko Blok D No.02A, Kamal Muara, Jkt Utara";PAPUA;11447;Indonesia;08116139261;;;-60.887.702;1.067.423.467;https://maps.google.com/?cid=0x0:0xe2fd7be6ff2e6b74;
supermarket;Toko Swalayan;GrandLucky - SCBD;"Kawasan Niaga Terpadu Sudirman (SCBD, Jl. Jenderal Sudirman LOT-12, Senayan, Kec. Kby. Baru, Kota Jakarta Selatan, Daerah Khusus Ibukota Jakarta 12190";"Jl. Jenderal Sudirman LOT-12, Senayan, Kec. Kby. Baru, Kota Jakarta Selatan";PAPUA;12190;Indonesia;085183118632;;;-622.691;1.068.059.153;https://maps.google.com/?cid=0x0:0x4efcd0d8d64cad53;
supermarket;Toko Swalayan;GrandLucky - Radio Dalam;"Jl. Radio Dalam Raya No.9, RT.4/RW.4, Gandaria Utara, Kec. Kby. Baru, Kota Jakarta Selatan, Daerah Khusus Ibukota Jakarta 12140";"RT.4/RW.4, Gandaria Utara, Kec. Kby. Baru, Kota Jakarta Selatan";PAPUA;12140;Indonesia;085183118632;;;-62.538.402;1.067.907.062;https://maps.google.com/?cid=0x0:0x3a6b61772e479f77;
supermarket;supermarket;Smart Minimarket;"JP66+WCF, Banamepe, Edera, Kabupaten Mappi, Papua";"Kabupaten Mappi, Papua";PAPUA;;Indonesia;;;;-73.876.836;1.397.110.495;https://maps.google.com/?cid=0x0:0x7b9d0e61f96daf74;
supermarket;Pusat Perbelanjaan;Papua Supermarket  Dept. Store;"4869+F77 Bar, Sawagumu, Kec. Sorong Utara, Kota Sorong, Papua Bar. 98416";"Sawagumu, Kec. Sorong Utara, Kota Sorong";PAPUA;98416;Indonesia;09513160123;;;-0.888831;1.313.181.847;https://maps.google.com/?cid=0x0:0x7b5f0926a74ad213;
supermarket;Toko Komputer;Barcode Zone;"Harco Mangga Dua Plaza, Jl. Mangga Dua Raya No.51 Lantai1 Blok A, RT.17/RW.11, Mangga Dua Sel., Kecamatan Sawah Besar, Kota Jakarta Pusat, Daerah Khusus Ibukota Jakarta 10730";"Jl. Mangga Dua Raya No.51 Lantai1 Blok A, RT.17/RW.11, Mangga Dua Sel., Kecamatan Sawah Besar, Kota Jakarta Pusat";PAPUA;10730;Indonesia;08129001522;;;-61.388.811;1.068.284.148;https://maps.google.com/?cid=0x0:0x9177e17389f9e4b7;
supermarket;Pasar;Vanimo Supermarket;"877X+QXF, Vanimo Sandaun Province, Papua Nugini";"Vanimo, Papua Nugini";PAPUA;;Indonesia;67571090507;;;-26.855.509;1.412.999.132;https://maps.google.com/?cid=0x0:0x847c46436536a9a;
supermarket;Pembangunan Perumahan;Kios nina HIDAYAT RUMONING;"386C+6RJ, Unnamed Road, Dana Weria, Distrik Fakfak Tengah, Kabupaten Fakfak, Papua Bar. 98611";"Unnamed Road, Dana Weria, Distrik Fakfak Tengah, Kabupaten Fakfak";PAPUA;98611;Indonesia;081344609836;;;-29.394.004;1.323.220.186;https://maps.google.com/?cid=0x0:0x10e33e6fc9a551e9;
supermarket;Toko bahan makanan;Diamond;"Jl. Permata Artha Gading No.18, RT.18/RW.8, Klp. Gading Bar., Kec. Klp. Gading, Jkt Utara, Daerah Khusus Ibukota Jakarta 14240";"RT.18/RW.8, Klp. Gading Bar., Kec. Klp. Gading, Jkt Utara";PAPUA;14240;Indonesia;02145863828;;;-61.464.444;1.068.922.506;https://maps.google.com/?cid=0x0:0x1b41fb935cae0e30;
supermarket;Toko bahan makanan;Toko Wijaya;"Jl. Jemb. Tinggi No.12 1, RT.1/RW.9, Kb. Kacang, Kecamatan Tanah Abang, Kota Jakarta Pusat, Daerah Khusus Ibukota Jakarta 10240";"RT.1/RW.9, Kb. Kacang, Kecamatan Tanah Abang, Kota Jakarta Pusat";PAPUA;10240;Indonesia;0213141513;;;-61.889.269;1.068.129.859;https://maps.google.com/?cid=0x0:0x3506e2aad5047ad6;
supermarket;supermarket;Sesnuk;"Kec. Sesnuk, Kabupaten Boven Digoel, Papua";"Kabupaten Boven Digoel, Papua";PAPUA;;Indonesia;;;;-61.921.334;140.700.134;https://maps.google.com/?cid=0x0:0x5a676998cc2d21aa;
supermarket;Toko Swalayan;Swalayan new harapan;"Jl. Trans Papua No.km. 2, Persatuan, Mandobo, Boven Digoel Regency, Papua 99663";"Persatuan, Mandobo, Boven Digoel Regency";PAPUA;99663;Indonesia;081248781111;;;-61.254.842;1.403.275.427;https://maps.google.com/?cid=0x0:0xdcc4bfc1d76c22dd;
supermarket;Toko Swalayan;Sesa Organic Market SCBD;"SCBD Lot 8 - 5, 29, Foundry No. 8 Jl. Raya Kby. Lama No.3, RT.5/RW.3, Senayan, Kec. Kby. Baru, Kota Jakarta Selatan, Daerah Khusus Ibukota Jakarta 12230";"29, Foundry No. 8 Jl. Raya Kby. Lama No.3, RT.5/RW.3, Senayan, Kec. Kby. Baru, Kota Jakarta Selatan";PAPUA;12230;Indonesia;081311696789;;;-62.282.903;1.068.092.476;https://maps.google.com/?cid=0x0:0xf543139e72d97fb3;
supermarket;Hipermarket;MM Mart grosir;"toko mm mart grosir, jl. kh samanhudi, gedung metro, di Lantai 3, RT.3/RW.6, Ps. Baru, Kecamatan Sawah Besar, Kota Jakarta Pusat, Daerah Khusus Ibukota Jakarta 10710";"jl. kh samanhudi, gedung metro, di Lantai 3, RT.3/RW.6, Ps. Baru, Kecamatan Sawah Besar, Kota Jakarta Pusat";PAPUA;10710;Indonesia;081380460668;;;-61.609.301;1.068.325.085;https://maps.google.com/?cid=0x0:0x6048e167db3a1e95;
supermarket;Grosir;CHENI STORE;"Perumahan permata tangerang blok DC 17 no 79, Kabupaten Tangerang, Banten 15560";Kabupaten Tangerang;PAPUA;15560;Indonesia;082297064032;;;-61.622.537;1.065.769.347;https://maps.google.com/?cid=0x0:0x290a4ac8b688e56d;
supermarket;supermarket;Papua 99661;"Kabupaten Boven Digoel, Papua";"Kabupaten Boven Digoel, Papua";PAPUA;;Indonesia;;;;-66.725.506;1.401.832.516;https://maps.google.com/?cid=0x0:0x6942b94e71194057;
supermarket;Toko Swalayan;Swalayan new harapan;"Jl. Trans Papua No.km. 2, Persatuan, Mandobo, Boven Digoel Regency, Papua 99663";"Persatuan, Mandobo, Boven Digoel Regency";PAPUA;99663;Indonesia;081248781111;;;-61.254.842;1.403.275.427;https://maps.google.com/?cid=0x0:0xdcc4bfc1d76c22dd;
supermarket;Pusat Perbelanjaan;Saga Jayapura;"Jl. Ahmad Yani, Gurabesi, Kec. Jayapura Utara, Kota Jayapura, Papua 99222";"Gurabesi, Kec. Jayapura Utara, Kota Jayapura";PAPUA;99222;Indonesia;0811480554;;;-25.433.433;1.407.016.688;https://maps.google.com/?cid=0x0:0x68f0411e320c4afb;
supermarket;Pusat Perbelanjaan;Papua Supermarket  Dept. Store;"4869+F77 Bar, Sawagumu, Kec. Sorong Utara, Kota Sorong, Papua Bar. 98416";"Sawagumu, Kec. Sorong Utara, Kota Sorong";PAPUA;98416;Indonesia;09513160123;;;-0.888831;1.313.181.847;https://maps.google.com/?cid=0x0:0x7b5f0926a74ad213;
supermarket;Toko Swalayan;Hadi Supermarket;"Jl. Frans Kaisepo No.5, RT. 003/01, Warari, Kec. Yapen Sel., Kabupaten Kepulauan Yapen, Papua 98212";"RT. 003/01, Warari, Kec. Yapen Sel., Kabupaten Kepulauan Yapen";PAPUA;98212;Indonesia;098334276;;;-18.751.153;1.362.490.809;https://maps.google.com/?cid=0x0:0xf67310d4ed062031;
supermarket;Toko Swalayan;Saga Supermarket;"CPW3+83X, Ardipura, Distrik Jayapura Selatan, Kota Jayapura, Papua 99222";"Ardipura, Distrik Jayapura Selatan, Kota Jayapura";PAPUA;99222;Indonesia;;;;-25.541.438;1.407.027.385;https://maps.google.com/?cid=0x0:0x287c7b2014785d97;
supermarket;Pusat Perbelanjaan;Loka Supermarket;"JF2P+JV6, Jalan Topo, wadio, Bumi Wonorejo, Distrik Nabire, Kabupaten Nabire, Papua 98813";"Jalan Topo, wadio, Bumi Wonorejo, Distrik Nabire, Kabupaten Nabire";PAPUA;98813;Indonesia;098424688;;;-33.984.625;1.354.871.406;https://maps.google.com/?cid=0x0:0x79cd9d7b246fedb4;
supermarket;Toko;HADI Supermarket  Dept Store;"JFQX+RQC, Jl. Yos Sudarso, Oyehe, Distrik Nabire, Kabupaten Nabire, Papua 98811";"Jl. Yos Sudarso, Oyehe, Distrik Nabire, Kabupaten Nabire";PAPUA;98811;Indonesia;098421367;;;-3.360.447;1.354.994.055;https://maps.google.com/?cid=0x0:0x60bc70181b8864df;
supermarket;Kantor Perusahaan;Supermarket GOTA;"4868+2X3, Jl. Sungai Maruni, Sawagumu, Distrik Sorong Timur, Kota Sorong, Papua Bar. 98416";"Jl. Sungai Maruni, Sawagumu, Distrik Sorong Timur, Kota Sorong";PAPUA;98416;Indonesia;;;;-0.8900646;1.313.173.945;https://maps.google.com/?cid=0x0:0xe80a2989cd86300;
supermarket;Toko Swalayan;Hadi Supermarket  Dept. Store;"Jl. Imam Bonjol No.56, Fandoi, Kec. Biak Kota, Kabupaten Biak Numfor, Papua 98111";"Fandoi, Kec. Biak Kota, Kabupaten Biak Numfor";PAPUA;98111;Indonesia;;;;-11.800.003;1.360.824.788;https://maps.google.com/?cid=0x0:0xdcad74b4384219ee;
supermarket;Toko bahan makanan;KERAMBA PANPER;"Unnamed Road, Doyo Lama, Distrik Waibu, Kabupaten Jayapura, Papua 99352";"Doyo Lama, Distrik Waibu, Kabupaten Jayapura";PAPUA;99352;Indonesia;082397758140;;;-25.723.817;1.404.535.468;https://maps.google.com/?cid=0x0:0x99681cfd0f029c29;
supermarket;Toko Swalayan;Primo Supermarket Tembagapura;"Tembagapura, Kec. Tembagapura, Kabupaten Mimika, Papua 98972";"Kec. Tembagapura, Kabupaten Mimika";PAPUA;98972;Indonesia;;;;-41.423.125;1.370.900.625;https://maps.google.com/?cid=0x0:0x79e7c0e104f18094;
supermarket;Toko Swalayan;TOKO ROBINSON;"FF67+9J2, Doyo Baru, Distrik Waibu, Kabupaten Jayapura, Papua 99352";"Doyo Baru, Distrik Waibu, Kabupaten Jayapura";PAPUA;99352;Indonesia;;;;-25.391.249;140.464.018;https://maps.google.com/?cid=0x0:0x16eedf73b93a10fb;
supermarket;Pusat jajanan kaki lima;Papuanmart;"Furia polda, Jl. Perkutut Jalur 4 No.164, Wahno, Kec. Abepura, Kota Jayapura, Papua 99224";"Jl. Perkutut Jalur 4 No.164, Wahno, Kec. Abepura, Kota Jayapura";PAPUA;99224;Indonesia;;;;-25.936.297;1.406.745.825;https://maps.google.com/?cid=0x0:0x820b246032d165c5;
supermarket;Minimarket;BESTMART SUPERMARKET;"Jl. Raya Klp. Satu, Sawar, Kec. Sarmi, Kabupaten Sarmi, Papua 99373";"Sawar, Kec. Sarmi, Kabupaten Sarmi";PAPUA;99373;Indonesia;082288888605;;;-1.890.639;1.387.527.702;https://maps.google.com/?cid=0x0:0xaba0253f793fcb9b;
supermarket;Toko Swalayan;SAGA WAENA;"CJ3M+HQ8, Jl. Raya Abepura - Sentani, Kp. Waena, Kec. Heram, Kota Jayapura, Papua 99225";"Jl. Raya Abepura - Sentani, Kp. Waena, Kec. Heram, Kota Jayapura";PAPUA;99225;Indonesia;;;;-25.961.192;1.406.345.177;https://maps.google.com/?cid=0x0:0xbe5416ad4f79e596;
supermarket;Toko;SWALAYAN YOSIDO;"Jl. Dr. Sam Ratulangi, Oyehe, Distrik Nabire, Kabupaten Nabire, Papua 98811";"Oyehe, Distrik Nabire, Kabupaten Nabire";PAPUA;98811;Indonesia;085158125592;;;-33.591.841;1.355.029.322;https://maps.google.com/?cid=0x0:0x9d81296727523735;
supermarket;Toko;Sinar papua Borobudur;"MG5H+8RH, Jl. R.E. Martadinata, Siriwini, Distrik Nabire, Kabupaten Nabire, Papua";"Kabupaten Nabire, Papua";PAPUA;;Indonesia;;;;-33.416.766;1.355.296.119;https://maps.google.com/?cid=0x0:0x2a21208985722648;
supermarket;Toko bahan makanan;Papua Mart;"7XVG+F83, Pruleme, Distrik Mulia, Kabupaten Puncak Jaya, Papua";"Kabupaten Puncak Jaya, Papua";PAPUA;;Indonesia;;;;-37.063.653;1.379.757.822;https://maps.google.com/?cid=0x0:0xf49ab6ab8e5d1b97;
supermarket;Toko Swalayan;TOKO KITA SEMUA;"Dobonsolo, Kec. Sentani, Kabupaten Jayapura, Papua 99352";"Kec. Sentani, Kabupaten Jayapura";PAPUA;99352;Indonesia;;;;-25.694.531;1.404.922.389;https://maps.google.com/?cid=0x0:0xe455644704a3a5fd;
supermarket;Toko bahan makanan;Kios Sumber Padi;"Jalan Trans Papua No.Km 2, Persatuan, Kec. Mandobo, Kabupaten Boven Digoel, Papua 99663";"Persatuan, Kec. Mandobo, Kabupaten Boven Digoel";PAPUA;99663;Indonesia;;;;-61.016.308;1.403.188.932;https://maps.google.com/?cid=0x0:0x7c2279c9f772da7e;
supermarket;Toko bahan makanan;Aminah Frozen-food;"Jl. Moh. Kafi 1 Jl. Kakas No.17, RT.9/RW.3, Ciganjur, Kec. Jagakarsa, Kota Jakarta Selatan, Daerah Khusus Ibukota Jakarta 12630";"RT.9/RW.3, Ciganjur, Kec. Jagakarsa, Kota Jakarta Selatan";PAPUA;12630;Indonesia;085893186266;;;-633.859;106.806.137;https://maps.google.com/?cid=0x0:0xe8ad9ee4cf2c5661;
supermarket;Minimarket;PIN grocery;"RWMF+RJ8, RT.1/RW.9, Cakung Bar., Kec. Cakung, Kota Jakarta Timur, Daerah Khusus Ibukota Jakarta 13920";"RT.1/RW.9, Cakung Bar., Kec. Cakung, Kota Jakarta Timur";PAPUA;13920;Indonesia;;;;-61.654.715;1.069.240.892;https://maps.google.com/?cid=0x0:0xee49bd090139faa4;
supermarket;Toko Swalayan;PIN Grocery;"WP5V+XJ4, Golf Island Boulevard, PIK Beach Theme Park, Jakarta 14470";"Golf Island Boulevard, PIK Beach Theme Park";PAPUA;14470;Indonesia;;;;-60.901.009;1.067.440.757;https://maps.google.com/?cid=0x0:0x53f8dcb1714f215c;
supermarket;supermarket;Papua 99665;"Kabupaten Boven Digoel, Papua";"Kabupaten Boven Digoel, Papua";PAPUA;;Indonesia;;;;-53.993.592;140.265.662;https://maps.google.com/?cid=0x0:0x130a65ebf9121fb9;
supermarket;Toko Swalayan;Swalayan new harapan;"Jl. Trans Papua No.km. 2, Persatuan, Mandobo, Boven Digoel Regency, Papua 99663";"Persatuan, Mandobo, Boven Digoel Regency";PAPUA;99663;Indonesia;081248781111;;;-61.254.842;1.403.275.427;https://maps.google.com/?cid=0x0:0xdcc4bfc1d76c22dd;
supermarket;Kantor Perusahaan;Supermarket GOTA;"4868+2X3, Jl. Sungai Maruni, Sawagumu, Distrik Sorong Timur, Kota Sorong, Papua Bar. 98416";"Jl. Sungai Maruni, Sawagumu, Distrik Sorong Timur, Kota Sorong";PAPUA;98416;Indonesia;;;;-0.8900646;1.313.173.945;https://maps.google.com/?cid=0x0:0xe80a2989cd86300;
supermarket;Toko umum;Toko Setia Kawan;"W72W+VM9, Persatuan, Kec. Mandobo, Kabupaten Boven Digoel, Papua 99663";"Persatuan, Kec. Mandobo, Kabupaten Boven Digoel";PAPUA;99663;Indonesia;;;;-6.097.831;1.402.967.268;https://maps.google.com/?cid=0x0:0xa0bdfc21deee37a6;
supermarket;Toko;SUBITA DUA;"C4RJ+W8P, Nembukrang, Distrik Nimbokrang, Kabupaten Jayapura, Papua 99361";"Nembukrang, Distrik Nimbokrang, Kabupaten Jayapura";PAPUA;99361;Indonesia;;;;-25.576.543;1.401.308.375;https://maps.google.com/?cid=0x0:0xc54486352897bd71;
supermarket;Pusat Perbelanjaan;Saga Jayapura;"Jl. Ahmad Yani, Gurabesi, Kec. Jayapura Utara, Kota Jayapura, Papua 99222";"Gurabesi, Kec. Jayapura Utara, Kota Jayapura";PAPUA;99222;Indonesia;0811480554;;;-25.433.433;1.407.016.688;https://maps.google.com/?cid=0x0:0x68f0411e320c4afb;
supermarket;Toko Swalayan;Saga Supermarket;"CPW3+83X, Ardipura, Distrik Jayapura Selatan, Kota Jayapura, Papua 99222";"Ardipura, Distrik Jayapura Selatan, Kota Jayapura";PAPUA;99222;Indonesia;;;;-25.541.438;1.407.027.385;https://maps.google.com/?cid=0x0:0x287c7b2014785d97;
supermarket;Toko bahan makanan;Papua Mart;"7XVG+F83, Pruleme, Distrik Mulia, Kabupaten Puncak Jaya, Papua";"Kabupaten Puncak Jaya, Papua";PAPUA;;Indonesia;;;;-37.063.653;1.379.757.822;https://maps.google.com/?cid=0x0:0xf49ab6ab8e5d1b97;
supermarket;Toko bahan makanan;Toko Winda;"Q8R7+54, Yenbekaki, Distrik Waigeo Timur, Kabupaten Raja Ampat, Papua Bar.";"Kabupaten Raja Ampat, Papua Bar.";PAPUA;;Indonesia;;;;-0.2095622;1.313.128.223;https://maps.google.com/?cid=0x0:0x9c2e8737cbb9be30;
supermarket;Toko bahan makanan;Kios Sumber Padi;"Jalan Trans Papua No.Km 2, Persatuan, Kec. Mandobo, Kabupaten Boven Digoel, Papua 99663";"Persatuan, Kec. Mandobo, Kabupaten Boven Digoel";PAPUA;99663;Indonesia;;;;-61.016.308;1.403.188.932;https://maps.google.com/?cid=0x0:0x7c2279c9f772da7e;
supermarket;Toko bahan makanan;Kios 99;"Jlan kilometer 2, Persatuan, Kec. Mandobo, Kabupaten Boven Digoel, Papua 99674";"Persatuan, Kec. Mandobo, Kabupaten Boven Digoel";PAPUA;99674;Indonesia;;;;-60.835.571;1.402.764.978;https://maps.google.com/?cid=0x0:0x443d50586124195;
supermarket;Toko Swalayan;SAGA WAENA;"CJ3M+HQ8, Jl. Raya Abepura - Sentani, Kp. Waena, Kec. Heram, Kota Jayapura, Papua 99225";"Jl. Raya Abepura - Sentani, Kp. Waena, Kec. Heram, Kota Jayapura";PAPUA;99225;Indonesia;;;;-25.961.192;1.406.345.177;https://maps.google.com/?cid=0x0:0xbe5416ad4f79e596;
supermarket;Toko Swalayan;TOKO KITA SEMUA;"Dobonsolo, Kec. Sentani, Kabupaten Jayapura, Papua 99352";"Kec. Sentani, Kabupaten Jayapura";PAPUA;99352;Indonesia;;;;-25.694.531;1.404.922.389;https://maps.google.com/?cid=0x0:0xe455644704a3a5fd;
supermarket;Toko Swalayan;GrandLucky - SCBD;"Kawasan Niaga Terpadu Sudirman (SCBD, Jl. Jenderal Sudirman LOT-12, Senayan, Kec. Kby. Baru, Kota Jakarta Selatan, Daerah Khusus Ibukota Jakarta 12190";"Jl. Jenderal Sudirman LOT-12, Senayan, Kec. Kby. Baru, Kota Jakarta Selatan";PAPUA;12190;Indonesia;085183118632;;;-622.691;1.068.059.153;https://maps.google.com/?cid=0x0:0x4efcd0d8d64cad53;
supermarket;supermarket;Smart Minimarket;"JP66+WCF, Banamepe, Edera, Kabupaten Mappi, Papua";"Kabupaten Mappi, Papua";PAPUA;;Indonesia;;;;-73.876.836;1.397.110.495;https://maps.google.com/?cid=0x0:0x7b9d0e61f96daf74;
supermarket;Toko bahan makanan;Kios sembako Al Faruq;"atas depan BRI, Jl. Prabu Siliwangi, Asiki, Kec. Jair, Kabupaten Boven Digoel, Papua 99661";"Jl. Prabu Siliwangi, Asiki, Kec. Jair, Kabupaten Boven Digoel";PAPUA;99661;Indonesia;085341159579;;;-6.665.487;1.404.109.665;https://maps.google.com/?cid=0x0:0x6ebf8dd628fb326;
supermarket;Minimarket;Magfhira;"89G9+MGW, Asiki, Kec. Jair, Kabupaten Boven Digoel, Papua 99661";"Asiki, Kec. Jair, Kabupaten Boven Digoel";PAPUA;99661;Indonesia;;;;-66.732.701;1.403.688.312;https://maps.google.com/?cid=0x0:0xfeffff0cc7fc3920;
supermarket;Toko Makanan Jepang;SUPERHIRO Japanese Superstore - Tangerang Banten;"Sedayu Indo City Kavling Komersial Blok A No.1819, Salembaran Jati, Kec. Kosambi, Kabupaten Tangerang, Banten 15214";"Salembaran Jati, Kec. Kosambi, Kabupaten Tangerang";PAPUA;15214;Indonesia;02139733555;;;-60.635.873;1.066.895.192;https://maps.google.com/?cid=0x0:0x83d1daa57116a350;
supermarket;Toko;Kios Ambu Arom;"56W7+CXF, Jair, Distrik Kouh, Kabupaten Boven Digoel, Papua 99663";"Jair, Distrik Kouh, Kabupaten Boven Digoel";PAPUA;99663;Indonesia;;;;-58.039.379;1.402.149.353;https://maps.google.com/?cid=0x0:0xa9a2026abe21ed62;
supermarket;Jepang;Sashimi;"Kp buaran rt 04 rw 08 no 78, Dadap, Kec. Kosambi, Kabupaten Tangerang, Daerah Khusus Ibukota Jakarta 11810";"Dadap, Kec. Kosambi, Kabupaten Tangerang";PAPUA;11810;Indonesia;085959568963;;;-60.936.866;1.067.001.329;https://maps.google.com/?cid=0x0:0x7f73038fc6704079;
supermarket;Indonesia;DoMieKaDo Pik2 By:Do_donut.id;"WMPQ+GQH, Salembaran Jati, Kec. Kosambi, Kabupaten Tangerang, Banten 15214";"Salembaran Jati, Kec. Kosambi, Kabupaten Tangerang";PAPUA;15214;Indonesia;081918600666;;;-60.633.658;1.066.895.739;https://maps.google.com/?cid=0x0:0x710108479a73899e;
