Category;Real Category;Business Name;Address;City;State;Postal Code;Country;Phone;Email;Website;Latitude;Longitude;Map Link;Details Link
"komplek housing";"komplek housing";"Mandobo";"Distrik Kouh, Kabupaten Boven Digoel, Papua";"Kabupaten Boven Digoel, Papua";"PAPUA";"";"Indonesia";"";"";"";"-5.8523321";"140.2862819";"https://maps.google.com/?cid=0x0:0x30ea9430854e3568";""
"komplek housing";"Komplek perumahan";"Perumahan Pegawai KM 3";"W84H+RHH, Transpapua, Kec. Mandobo, Kabupaten Boven Digoel, Papua 99663";"Transpapua, Kec. Mandobo, Kabupaten Boven Digoel";"PAPUA";"99663";"Indonesia";"";"";"";"-6.0929479";"140.3289743";"https://maps.google.com/?cid=0x0:0xfef02e7b6d5a573e";""
"komplek housing";"Komplek perumahan";"Perumahan Ambonggo";"W868+P9P, Unnamed Road, Persatuan, Kec. Mandobo, Kabupaten Boven Digoel, Papua 99663";"Unnamed Road, Persatuan, Kec. Mandobo, Kabupaten Boven Digoel";"PAPUA";"99663";"Indonesia";"";"";"";"-6.0881572";"140.3159401";"https://maps.google.com/?cid=0x0:0x4ae63b1f7fa71be7";""
"komplek housing";"Komplek perumahan";"TITI Laundry";"785X+X7V Jln Belanda lama kos Ayub Santy, Ujung, Arimop, Kabupaten Boven Digoel, Papua";"Kabupaten Boven Digoel, Papua";"PAPUA";"";"Indonesia";"";"";"";"-5.7400018";"140.3481835";"https://maps.google.com/?cid=0x0:0xa0b11255bc8cd7b4";""
"komplek housing";"Komplek perumahan";"Rumah Tete Koor Kwanimba";"56W8+234, Jair, Distrik Kouh, Kabupaten Boven Digoel, Papua";"Kabupaten Boven Digoel, Papua";"PAPUA";"";"Indonesia";"";"";"";"-5.8049835";"140.2152041";"https://maps.google.com/?cid=0x0:0x77b3b20448c1da86";""
"komplek housing";"Pembangunan Perumahan";"Coret Karwayu";"782X+2GR, Ujung, Arimop, Kabupaten Boven Digoel, Papua";"Kabupaten Boven Digoel, Papua";"PAPUA";"";"Indonesia";"";"";"";"-5.7498932";"140.3487626";"https://maps.google.com/?cid=0x0:0xe8694680a7c9b1c4";""
"komplek housing";"komplek housing";"lucky kaki hary";"785X+X7V, spay, Arimop, Kabupaten Boven Digoel, Papua";"Kabupaten Boven Digoel, Papua";"PAPUA";"";"Indonesia";"";"";"";"-5.7400018";"140.3481835";"https://maps.google.com/?cid=0x0:0x75185be01db2535e";""
"komplek housing";"komplek housing";"Kec. Mandobo";"Kabupaten Boven Digoel, Papua";"Kabupaten Boven Digoel, Papua";"PAPUA";"";"Indonesia";"";"";"";"-6.0694004";"140.265662";"https://maps.google.com/?cid=0x0:0x618ed68911d02fb6";""
"komplek housing";"Komplek perumahan";"House of Soppeng";"W84G+7PP, Unnamed Road, Persatuan, Kec. Mandobo, Kabupaten Boven Digoel, Papua 99663";"Unnamed Road, Persatuan, Kec. Mandobo, Kabupaten Boven Digoel";"PAPUA";"99663";"Indonesia";"";"";"";"-6.0942761";"140.3268235";"https://maps.google.com/?cid=0x0:0x7124c4bc362f887";""
"komplek housing";"Pembangunan Perumahan";"Kompleks Perumahan Pegawai No.3";"V8M5+6C2, Jl. Ampera, Persatuan, Kec. Mandobo, Kabupaten Boven Digoel, Papua 99663";"Jl. Ampera, Persatuan, Kec. Mandobo, Kabupaten Boven Digoel";"PAPUA";"99663";"Indonesia";"";"";"";"-6.1169783";"140.3085218";"https://maps.google.com/?cid=0x0:0x45064ab9d4293bbc";""
"komplek housing";"Pembangunan Perumahan";"A. Wandany";"W838+MPG, Persatuan, Kec. Mandobo, Kabupaten Boven Digoel, Papua 99663";"Persatuan, Kec. Mandobo, Kabupaten Boven Digoel";"PAPUA";"99663";"Indonesia";"";"";"";"-6.0958075";"140.3168202";"https://maps.google.com/?cid=0x0:0x6a4afd3a5ccdf7d4";""
"komplek housing";"Komplek perumahan";"Rumah Junandito";"V8XC+HQC, Persatuan, Kec. Mandobo, Kabupaten Boven Digoel, Papua 99663";"Persatuan, Kec. Mandobo, Kabupaten Boven Digoel";"PAPUA";"99663";"Indonesia";"";"";"";"-6.1023592";"140.3226336";"https://maps.google.com/?cid=0x0:0xc4523980f6706e9a";""
"komplek housing";"Pembangunan Perumahan";"Karet - Karet";"W835+4FH, Persatuan, Kec. Mandobo, Kabupaten Boven Digoel, Papua 99663";"Persatuan, Kec. Mandobo, Kabupaten Boven Digoel";"PAPUA";"99663";"Indonesia";"";"";"";"-6.0971609";"140.3092188";"https://maps.google.com/?cid=0x0:0x25d2a425cdb631ab";""
"komplek housing";"komplek housing";"Abdul Wahab";"W84G+6RF, Persatuan, Kec. Mandobo, Kabupaten Boven Digoel, Papua 99663";"Persatuan, Kec. Mandobo, Kabupaten Boven Digoel";"PAPUA";"99663";"Indonesia";"";"";"";"-6.09416";"140.326832";"https://maps.google.com/?cid=0x0:0xc4c2f97f6bb30b2f";""
"komplek housing";"Komplek perumahan";"MABESalians";"V8X5+7W2, Persatuan, Kec. Mandobo, Kabupaten Boven Digoel, Papua 99663";"Persatuan, Kec. Mandobo, Kabupaten Boven Digoel";"PAPUA";"99663";"Indonesia";" 082238543219";"";"";"-6.1018688";"140.3097513";"https://maps.google.com/?cid=0x0:0xacfedd486e213755";""
"komplek housing";"Komplek perumahan";"ARSHAKA Z. M";"V8M5+6C8, Persatuan, Kec. Mandobo, Kabupaten Boven Digoel, Papua 99663";"Persatuan, Kec. Mandobo, Kabupaten Boven Digoel";"PAPUA";"99663";"Indonesia";"";"";"";"-6.1169388";"140.3086865";"https://maps.google.com/?cid=0x0:0x5c2a04d80b3c7934";""
"komplek housing";"Perhimpunan Pengembang Perumahan";"Garasi imanuel";"Persatuan, Kec. Mandobo, Kabupaten Boven Digoel, Papua 99663";"Kec. Mandobo, Kabupaten Boven Digoel";"PAPUA";"99663";"Indonesia";"";"";"";"-6.0967602";"140.3114617";"https://maps.google.com/?cid=0x0:0xa8543e97332ec77c";""
"komplek housing";"Kantor Pemerintah";"Kompleks Pemakaman BOSOWA LAMA";"V8X6+P7C, Persatuan, Kec. Mandobo, Kabupaten Boven Digoel, Papua 99663";"Persatuan, Kec. Mandobo, Kabupaten Boven Digoel";"PAPUA";"99663";"Indonesia";"";"";"";"-6.1006863";"140.3106305";"https://maps.google.com/?cid=0x0:0x9c161627044d1eef";""
"komplek housing";"Komplek perumahan";"Komplek Amsterdam Kanan";"W868+5QQ, Sokanggo, Kec. Mandobo, Kabupaten Boven Digoel, Papua 99663";"Sokanggo, Kec. Mandobo, Kabupaten Boven Digoel";"PAPUA";"99663";"Indonesia";"";"";"";"-6.0895394";"140.316974";"https://maps.google.com/?cid=0x0:0x3168b951cb9a51a2";""
"komplek housing";"Perumahan";"Rumah Melona";"V8P4+8VR, Jl. Ampera Lorong Sebelum PLTD, Persatuan, Kec. Mandobo, Kabupaten Boven Digoel, Papua 99663";"Jl. Ampera Lorong Sebelum PLTD, Persatuan, Kec. Mandobo, Kabupaten Boven Digoel";"PAPUA";"99663";"Indonesia";"";"";"";"-6.1141425";"140.3071329";"https://maps.google.com/?cid=0x0:0xb72a0a64b6c78ab8";""
"komplek housing";"Komplek perumahan";"Fatlolon Home";"W72W+3FF, Persatuan, Kec. Mandobo, Kabupaten Boven Digoel, Papua 99663";"Persatuan, Kec. Mandobo, Kabupaten Boven Digoel";"PAPUA";"99663";"Indonesia";"";"";"";"-6.0998129";"140.2961823";"https://maps.google.com/?cid=0x0:0xe3f6bbaed1c759fc";""
"komplek housing";"Pembangunan Perumahan";"TEMPAT ACARA";"W76X+MJ7, Persatuan, Kec. Mandobo, Kabupaten Boven Digoel, Papua 99663";"Persatuan, Kec. Mandobo, Kabupaten Boven Digoel";"PAPUA";"99663";"Indonesia";"";"";"";"-6.0883327";"140.2990468";"https://maps.google.com/?cid=0x0:0x48f2f0b00d30a385";""
"komplek housing";"Gedung Apartemen";"Home YUSAK Marthen";"Kompleks Perumahan PU, Jl. Ampera, Persatuan, Kec. Mandobo, Kabupaten Boven Digoel, Papua 99663";"Jl. Ampera, Persatuan, Kec. Mandobo, Kabupaten Boven Digoel";"PAPUA";"99663";"Indonesia";"";"";"";"-6.1163325";"140.3098079";"https://maps.google.com/?cid=0x0:0x58ca23074888b002";""
"komplek housing";"Komplek perumahan";"Mabes AVATAR";"V8W5+FR, Persatuan, Kec. Mandobo, Kabupaten Boven Digoel, Papua 99663";"Persatuan, Kec. Mandobo, Kabupaten Boven Digoel";"PAPUA";"99663";"Indonesia";"";"";"";"-6.1038381";"140.3095163";"https://maps.google.com/?cid=0x0:0xf7cb4989ae91dc7e";""
"komplek housing";"Kompleks Kondominium";"CHEY";"W8FH+435, Persatuan, Kec. Mandobo, Kabupaten Boven Digoel, Papua 99663";"Persatuan, Kec. Mandobo, Kabupaten Boven Digoel";"PAPUA";"99663";"Indonesia";"";"";"";"-6.0772312";"140.327735";"https://maps.google.com/?cid=0x0:0x648b463809c04756";""
"komplek housing";"Komplek perumahan";"Kompleks avatar";"W829+6CJ, Jl. Arimop, Persatuan, Kec. Mandobo, Kabupaten Boven Digoel, Papua 99663";"Jl. Arimop, Persatuan, Kec. Mandobo, Kabupaten Boven Digoel";"PAPUA";"99663";"Indonesia";"";"";"";"-6.0994027";"140.318514";"https://maps.google.com/?cid=0x0:0x235208a10d7cdb1";""
"komplek housing";"Perumahan";"AR__street";"W825+99W, Persatuan, Kec. Mandobo, Kabupaten Boven Digoel, Papua 99663";"Persatuan, Kec. Mandobo, Kabupaten Boven Digoel";"PAPUA";"99663";"Indonesia";"";"";"";"-6.0991918";"140.3078013";"https://maps.google.com/?cid=0x0:0xc27af74ec5f684f8";""
"komplek housing";"Komplek perumahan";"Mabes Noah";"V8P4+8VR, Jl. Ampera Lorong Sebelum PLTD, Persatuan, Kec. Mandobo, Kabupaten Boven Digoel, Papua 99663";"Jl. Ampera Lorong Sebelum PLTD, Persatuan, Kec. Mandobo, Kabupaten Boven Digoel";"PAPUA";"99663";"Indonesia";"";"";"";"-6.1139526";"140.3073192";"https://maps.google.com/?cid=0x0:0x9f4650b629a54266";""
"komplek housing";"komplek housing";"Bengkel atha teknik";"V8W7+JG6, Jl. Karning 2, Persatuan, Kec. Mandobo, Kabupaten Boven Digoel, Papua 99663";"Jl. Karning 2, Persatuan, Kec. Mandobo, Kabupaten Boven Digoel";"PAPUA";"99663";"Indonesia";"";"";"";"-6.1034731";"140.3137533";"https://maps.google.com/?cid=0x0:0x9292c899d61c7f1e";""
"komplek housing";"komplek housing";"SH Mindiptana";"4MHW+XQV, Mindiptana, Kec. Mindiptana, Kabupaten Boven Digoel, Papua 99662";"Mindiptana, Kec. Mindiptana, Kabupaten Boven Digoel";"PAPUA";"99662";"Indonesia";"";"";"";"-5.870964";"140.697402";"https://maps.google.com/?cid=0x0:0x5136861d3db7c784";""
"komplek housing";"komplek housing";"Kec. Mindiptana";"Kabupaten Boven Digoel, Papua";"Kabupaten Boven Digoel, Papua";"PAPUA";"";"Indonesia";"";"";"";"-5.8729212";"140.7006239";"https://maps.google.com/?cid=0x0:0x63d3989597ea91fc";""
"komplek housing";"komplek housing";"Mindiptana";"4MMP+6PR, Mindiptana, Kec. Mindiptana, Kabupaten Boven Digoel, Papua";"Kabupaten Boven Digoel, Papua";"PAPUA";"";"Indonesia";"";"";"";"-5.8668938";"140.6867538";"https://maps.google.com/?cid=0x0:0xe6501fa4cccf99a2";""
"komplek housing";"komplek housing";"Waropko";"Waropko, Kabupaten Boven Digoel, Papua";"Kabupaten Boven Digoel, Papua";"PAPUA";"";"Indonesia";"";"";"";"-5.6198146";"140.8352284";"https://maps.google.com/?cid=0x0:0x8464e4f41ea4415c";""
"komplek housing";"komplek housing";"Papua 99664";"Kabupaten Boven Digoel, Papua";"Kabupaten Boven Digoel, Papua";"PAPUA";"";"Indonesia";"";"";"";"-5.5720214";"140.7624493";"https://maps.google.com/?cid=0x0:0x4763b936197cab93";""
"komplek housing";"Komplek perumahan";"Katuk Muyu Waropko";"Waropko, Kabupaten Boven Digoel, Papua 99664";"Kabupaten Boven Digoel";"PAPUA";"99664";"Indonesia";"";"";"";"-5.6298971";"140.8330749";"https://maps.google.com/?cid=0x0:0x8428c88280af7b8e";""
"komplek housing";"komplek housing";"Kouh";"Distrik Kouh, Kabupaten Boven Digoel, Papua";"Kabupaten Boven Digoel, Papua";"PAPUA";"";"Indonesia";"";"";"";"-5.8249191";"140.197408";"https://maps.google.com/?cid=0x0:0xa00e72d4fc202818";""
"komplek housing";"komplek housing";"Distrik Kouh";"Kabupaten Boven Digoel, Papua";"Kabupaten Boven Digoel, Papua";"PAPUA";"";"Indonesia";"";"";"";"-5.8051734";"140.2132761";"https://maps.google.com/?cid=0x0:0x7a9ca82cdcdd2eb6";""
"komplek housing";"Komplek perumahan";"Pondok Gede Housing 1";"Jl. Cipta Raya No.45-3, RT.001/RW.003, Jatirahayu, Kec. Pd. Melati, Kota Bks, Jawa Barat 17414";"RT.001/RW.003, Jatirahayu, Kec. Pd. Melati, Kota Bks";"PAPUA";"17414";"Indonesia";"";"";"";"-6.2852504";"106.9163397";"https://maps.google.com/?cid=0x0:0x3132afedbf38cd61";""
"komplek housing";"komplek housing";"Distrik Kouh";"Kabupaten Boven Digoel, Papua";"Kabupaten Boven Digoel, Papua";"PAPUA";"";"Indonesia";"";"";"";"-5.8051734";"140.2132761";"https://maps.google.com/?cid=0x0:0x7a9ca82cdcdd2eb6";""
"komplek housing";"komplek housing";"Kouh";"Distrik Kouh, Kabupaten Boven Digoel, Papua";"Kabupaten Boven Digoel, Papua";"PAPUA";"";"Indonesia";"";"";"";"-5.8249191";"140.197408";"https://maps.google.com/?cid=0x0:0xa00e72d4fc202818";""
"komplek housing";"Komplek perumahan";"Pondok gede housing";"PW69+G7J, Jl. Teratai, RT.005/RW.003, Jatirahayu, Kec. Pd. Melati, Kota Bks, Jawa Barat 17414";"Jl. Teratai, RT.005/RW.003, Jatirahayu, Kec. Pd. Melati, Kota Bks";"PAPUA";"17414";"Indonesia";"";"";"";"-6.2886631";"106.9181392";"https://maps.google.com/?cid=0x0:0xe09247830c5049e9";""
"komplek housing";"Komplek perumahan";"Pondok Gede Housing II";"Housing II, Jl. Raya Hankam, RT.001/RW.004, Jatirahayu, Pondok Gede, Bekasi, West Java";"Kota Bks, Jawa Barat";"PAPUA";"";"Indonesia";"";"";"";"-6.2876701";"106.9147674";"https://maps.google.com/?cid=0x0:0x2a52e601c20d18f2";""
"komplek housing";"Komplek perumahan";"housing ora sepele";"PW78+7XV, Jl. Eka Cipta, RT.002/RW.003, Jatirahayu, Kec. Pd. Melati, Kota Bks, Jawa Barat 17414";"Jl. Eka Cipta, RT.002/RW.003, Jatirahayu, Kec. Pd. Melati, Kota Bks";"PAPUA";"17414";"Indonesia";"";"";"";"-6.2867545";"106.9174087";"https://maps.google.com/?cid=0x0:0xd42fc03a69b93e2a";""
"komplek housing";"komplek housing";"Distrik Kouh";"Kabupaten Boven Digoel, Papua";"Kabupaten Boven Digoel, Papua";"PAPUA";"";"Indonesia";"";"";"";"-5.8051734";"140.2132761";"https://maps.google.com/?cid=0x0:0x7a9ca82cdcdd2eb6";""
"komplek housing";"komplek housing";"Kouh";"Distrik Kouh, Kabupaten Boven Digoel, Papua";"Kabupaten Boven Digoel, Papua";"PAPUA";"";"Indonesia";"";"";"";"-5.8249191";"140.197408";"https://maps.google.com/?cid=0x0:0xa00e72d4fc202818";""
"komplek housing";"Komplek perumahan";"Pondok Gede Housing II";"Housing II, Jl. Raya Hankam, RT.001/RW.004, Jatirahayu, Pondok Gede, Bekasi, West Java";"Kota Bks, Jawa Barat";"PAPUA";"";"Indonesia";"";"";"";"-6.2876701";"106.9147674";"https://maps.google.com/?cid=0x0:0x2a52e601c20d18f2";""
"komplek housing";"Komplek perumahan";"Kiyara Damai";"Jl. Raya Ps. Babelan, Kedung Pengawas, Kec. Babelan, Kabupaten Bekasi, Jawa Barat 17610";"Kedung Pengawas, Kec. Babelan, Kabupaten Bekasi";"PAPUA";"17610";"Indonesia";" 08118685996";"";"";"-6.1399651";"107.0469217";"https://maps.google.com/?cid=0x0:0xe14f16cd3281f94";""
"komplek housing";"komplek housing";"Papua 99661";"Kabupaten Boven Digoel, Papua";"Kabupaten Boven Digoel, Papua";"PAPUA";"";"Indonesia";"";"";"";"-6.6725506";"140.1832516";"https://maps.google.com/?cid=0x0:0x6942b94e71194057";""
"komplek housing";"komplek housing";"Papua";"";"Papua";"PAPUA";"";"Indonesia";"";"";"";"-4.269928";"138.0803529";"https://maps.google.com/?cid=0x0:0xeba94e9c5eefe673";""
"komplek housing";"Perhimpunan Pengembang Perumahan";"Jils";"8CW9+PF2, Asiki, Kec. Jair, Kabupaten Boven Digoel, Papua 99661";"Asiki, Kec. Jair, Kabupaten Boven Digoel";"PAPUA";"99661";"Indonesia";"";"";"";"-6.6531275";"140.4186109";"https://maps.google.com/?cid=0x0:0x98a16482899ee452";""
"komplek housing";"Perhimpunan Pengembang Perumahan";"Anggai";"J7MX+927, Anggai, Kec. Jair, Kabupaten Boven Digoel, Papua 99661";"Anggai, Kec. Jair, Kabupaten Boven Digoel";"PAPUA";"99661";"Indonesia";"";"";"";"-6.3665762";"140.2975573";"https://maps.google.com/?cid=0x0:0xb7f8bdd79eb5d2df";""
"komplek housing";"Perhimpunan Pengembang Perumahan";"Perumahan BTN VARA";"8CP7+P7C, Asiki, Kec. Jair, Kabupaten Boven Digoel, Papua 99661";"Asiki, Kec. Jair, Kabupaten Boven Digoel";"PAPUA";"99661";"Indonesia";"";"";"";"-6.6631883";"140.413141";"https://maps.google.com/?cid=0x0:0x1568487397bad504";""
"komplek housing";"Komplek perumahan";"KENNY WENDELINO PLACE";"9C4F+78C, Asiki, Kec. Jair, Kabupaten Boven Digoel, Papua 99661";"Asiki, Kec. Jair, Kabupaten Boven Digoel";"PAPUA";"99661";"Indonesia";"";"";"";"-6.6443019";"140.4232657";"https://maps.google.com/?cid=0x0:0xc24da87a8abde5d4";""
"komplek housing";"Kantor Perusahaan";"PT cipta abadi";"89G9+MGW, Asiki, Kec. Jair, Kabupaten Boven Digoel, Papua 99661";"Asiki, Kec. Jair, Kabupaten Boven Digoel";"PAPUA";"99661";"Indonesia";"";"";"";"-6.6732701";"140.3688312";"https://maps.google.com/?cid=0x0:0xfaaba3dac8cba946";""
"komplek housing";"Perhimpunan Pengembang Perumahan";"Taihuttu";"Meranti 3 No.2, Papua selatan, Asiki, Kec. Jair, Kabupaten Boven Digoel, Papua 99661";"Papua selatan, Asiki, Kec. Jair, Kabupaten Boven Digoel";"PAPUA";"99661";"Indonesia";"";"";"";"-6.6732701";"140.3688312";"https://maps.google.com/?cid=0x0:0x98c588c7276b3760";""
"komplek housing";"Rumah Kayu";"Barak binamarga";"89G9+MGW, Asiki, Kec. Jair, Kabupaten Boven Digoel, Papua 99661";"Asiki, Kec. Jair, Kabupaten Boven Digoel";"PAPUA";"99661";"Indonesia";"";"";"";"-6.6732701";"140.3688312";"https://maps.google.com/?cid=0x0:0x74ade66bdf4988a";""
"komplek housing";"Komplek perumahan";"Mess bujang";"89G9+MGW, Asiki, Kec. Jair, Kabupaten Boven Digoel, Papua 99661";"Asiki, Kec. Jair, Kabupaten Boven Digoel";"PAPUA";"99661";"Indonesia";"";"";"";"-6.6732701";"140.3688312";"https://maps.google.com/?cid=0x0:0xb9d3edcec9938ab7";""
"komplek housing";"Komplek perumahan";"Mess Binamarga Asiki";"9C2C+C54, Asiki, Kec. Jair, Kabupaten Boven Digoel, Papua 99661";"Asiki, Kec. Jair, Kabupaten Boven Digoel";"PAPUA";"99661";"Indonesia";"";"";"";"-6.6489811";"140.4204681";"https://maps.google.com/?cid=0x0:0x63d438ff0209c80a";""
"komplek housing";"komplek housing";"Komplek Housing";"Blok Bojong Nangka I, Jl. Ring Rudal Blok Bojong Nangka I No.68, RT.001/RW.007, Jatirahayu, Kec. Pd. Melati, Kota Bks, Jawa Barat 17414";"Jl. Ring Rudal Blok Bojong Nangka I No.68, RT.001/RW.007, Jatirahayu, Kec. Pd. Melati, Kota Bks";"PAPUA";"17414";"Indonesia";"";"";"";"-6.293724";"106.9165114";"https://maps.google.com/?cid=0x0:0x9c50464976dee674";""
"komplek housing";"Pembangunan Perumahan";"BOmakia";"W87Q+W32, Mindiptana - Tanah Merah, Persatuan, Kec. Mandobo, Kabupaten Boven Digoel, Papua 99663";"Mindiptana - Tanah Merah, Persatuan, Kec. Mandobo, Kabupaten Boven Digoel";"PAPUA";"99663";"Indonesia";"";"";"";"-6.0852394";"140.3376382";"https://maps.google.com/?cid=0x0:0xd40063b9120a933d";""
"komplek housing";"Dapur Umum";"Tanah merah, kab Boven Digoel";"W6HV+JXV, Persatuan, Kec. Mandobo, Kabupaten Boven Digoel, Papua 99663";"Persatuan, Kec. Mandobo, Kabupaten Boven Digoel";"PAPUA";"99663";"Indonesia";"";"";"";"-6.0708882";"140.2449286";"https://maps.google.com/?cid=0x0:0xd3987b54e3dab9fd";""
"komplek housing";"komplek housing";"Distrik Bomakia";"Kabupaten Boven Digoel, Papua";"Kabupaten Boven Digoel, Papua";"PAPUA";"";"Indonesia";"";"";"";"-5.8066231";"139.8741906";"https://maps.google.com/?cid=0x0:0xd021b728f29c6a0f";""
"komplek housing";"komplek housing";"Kombut";"Kabupaten Boven Digoel, Papua";"Kabupaten Boven Digoel, Papua";"PAPUA";"";"Indonesia";"";"";"";"-5.8111842";"140.8040271";"https://maps.google.com/?cid=0x0:0xd4979b856c10d48e";""
"komplek housing";"Pembangunan Perumahan";"Sesnukt";"RPHM+2VM, Sesnuk, Kec. Sesnuk, Kabupaten Boven Digoel, Papua 99662";"Sesnuk, Kec. Sesnuk, Kabupaten Boven Digoel";"PAPUA";"99662";"Indonesia";"";"";"";"-6.1712723";"140.734579";"https://maps.google.com/?cid=0x0:0x9ffeaa59de2473c4";""
"komplek housing";"komplek housing";"SH Mindiptana";"4MHW+XQV, Mindiptana, Kec. Mindiptana, Kabupaten Boven Digoel, Papua 99662";"Mindiptana, Kec. Mindiptana, Kabupaten Boven Digoel";"PAPUA";"99662";"Indonesia";"";"";"";"-5.870964";"140.697402";"https://maps.google.com/?cid=0x0:0x5136861d3db7c784";""
"komplek housing";"komplek housing";"Distrik Iniyandit";"Kabupaten Boven Digoel, Papua";"Kabupaten Boven Digoel, Papua";"PAPUA";"";"Indonesia";"";"";"";"-5.7470313";"140.6432017";"https://maps.google.com/?cid=0x0:0xefab246d2462f016";""
"komplek housing";"komplek housing";"Mindiptana";"4MMP+6PR, Mindiptana, Kec. Mindiptana, Kabupaten Boven Digoel, Papua";"Kabupaten Boven Digoel, Papua";"PAPUA";"";"Indonesia";"";"";"";"-5.8668938";"140.6867538";"https://maps.google.com/?cid=0x0:0xe6501fa4cccf99a2";""
"komplek housing";"Komplek perumahan";"Rumahqu";"4P94+MH, Niyimbang, Kec. Mindiptana, Kabupaten Boven Digoel, Papua";"Kabupaten Boven Digoel, Papua";"PAPUA";"";"Indonesia";"";"";"";"-5.8807718";"140.7064533";"https://maps.google.com/?cid=0x0:0x3896127d127611b7";""
"komplek housing";"komplek housing";"SH Mindiptana";"4MHW+XQV, Mindiptana, Kec. Mindiptana, Kabupaten Boven Digoel, Papua 99662";"Mindiptana, Kec. Mindiptana, Kabupaten Boven Digoel";"PAPUA";"99662";"Indonesia";"";"";"";"-5.870964";"140.697402";"https://maps.google.com/?cid=0x0:0x5136861d3db7c784";""
"komplek housing";"Komplek perumahan";"RN Imigrasi Mindiptana";"4PF2+3VM, Mindiptana, Kec. Mindiptana, Kabupaten Boven Digoel, Papua";"Kabupaten Boven Digoel, Papua";"PAPUA";"";"Indonesia";"";"";"";"-5.8772941";"140.702171";"https://maps.google.com/?cid=0x0:0x493e070ff90c3463";""
"komplek housing";"Pembangunan Perumahan";"Kampung Anumka";"FM9V+5F3, Anyumka, Ambatkwi, Kabupaten Boven Digoel, Papua";"Kabupaten Boven Digoel, Papua";"PAPUA";"";"Indonesia";"";"";"";"-5.5321143";"140.6936585";"https://maps.google.com/?cid=0x0:0x51de578cfd1736";""
"komplek housing";"Pembangunan Perumahan";"Kampung anggumbit";"4P66+FR, Anggumbit, Kec. Mindiptana, Kabupaten Boven Digoel, Papua";"Kabupaten Boven Digoel, Papua";"PAPUA";"";"Indonesia";"";"";"";"-5.888852";"140.712089";"https://maps.google.com/?cid=0x0:0x24c5733ed38a622d";""
"komplek housing";"Komplek perumahan";"TITI Laundry";"785X+X7V Jln Belanda lama kos Ayub Santy, Ujung, Arimop, Kabupaten Boven Digoel, Papua";"Kabupaten Boven Digoel, Papua";"PAPUA";"";"Indonesia";"";"";"";"-5.7400018";"140.3481835";"https://maps.google.com/?cid=0x0:0xa0b11255bc8cd7b4";""
"komplek housing";"Komplek perumahan";"Kampung Amuan";"5RQ3+HGR, Amuan, Kombut, Kabupaten Boven Digoel, Papua";"Kabupaten Boven Digoel, Papua";"PAPUA";"";"Indonesia";"";"";"";"-5.8110191";"140.8037525";"https://maps.google.com/?cid=0x0:0x4ddf99b7fbbde079";""
"komplek housing";"Komplek perumahan";"Mindiptana Village";"4MJW+6PM, RT.03/RW.01, Mindiptana, Kec. Mindiptana, Kabupaten Boven Digoel, Papua";"Kabupaten Boven Digoel, Papua";"PAPUA";"";"Indonesia";"";"";"";"-5.8694232";"140.696795";"https://maps.google.com/?cid=0x0:0xcae36f55e1ec8736";""
"komplek housing";"Komplek perumahan";"PREMIER ESTATE 2";"Jl. Raya Kodau, Jatiwarna, Kec. Pd. Melati, Kota Bks, Jawa Barat 17422";"Jatiwarna, Kec. Pd. Melati, Kota Bks";"PAPUA";"17422";"Indonesia";"";"";"";"-6.3022763";"106.9367025";"https://maps.google.com/?cid=0x0:0xeb999add326dbe5d";""
"komplek housing";"Toko";"Perum BWI 2";"Waringinjaya, Kec. Kedungwaringin, Kabupaten Bekasi, Jawa Barat 17540";"Kec. Kedungwaringin, Kabupaten Bekasi";"PAPUA";"17540";"Indonesia";"";"";"";"-6.2609582";"107.2362955";"https://maps.google.com/?cid=0x0:0x506f6aafe056a15a";""
"komplek housing";"komplek housing";"Arimop";"Kabupaten Boven Digoel, Papua";"Kabupaten Boven Digoel, Papua";"PAPUA";"";"Indonesia";"";"";"";"-5.8140209";"140.4308159";"https://maps.google.com/?cid=0x0:0xf6e05b87dda2034d";""
"komplek housing";"Taman";"Distrik arimop";"Jl. Arimop, Persatuan, Kec. Mandobo, Kabupaten Boven Digoel, Papua 99663";"Persatuan, Kec. Mandobo, Kabupaten Boven Digoel";"PAPUA";"99663";"Indonesia";"";"";"";"-6.0972184";"140.3091796";"https://maps.google.com/?cid=0x0:0x42bd57825146a2f8";""
"komplek housing";"Pembangunan Perumahan";"Coret Karwayu";"782X+2GR, Ujung, Arimop, Kabupaten Boven Digoel, Papua";"Kabupaten Boven Digoel, Papua";"PAPUA";"";"Indonesia";"";"";"";"-5.7498932";"140.3487626";"https://maps.google.com/?cid=0x0:0xe8694680a7c9b1c4";""
"komplek housing";"Pembangunan Perumahan";"Distrik arimop";"785X+X7V, Ujung, Arimop, Kabupaten Boven Digoel, Papua";"Kabupaten Boven Digoel, Papua";"PAPUA";"";"Indonesia";"";"";"";"-5.7400018";"140.3481835";"https://maps.google.com/?cid=0x0:0x58fdcd0d83c2efd3";""
"komplek housing";"Komplek perumahan";"TITI Laundry";"785X+X7V Jln Belanda lama kos Ayub Santy, Ujung, Arimop, Kabupaten Boven Digoel, Papua";"Kabupaten Boven Digoel, Papua";"PAPUA";"";"Indonesia";"";"";"";"-5.7400018";"140.3481835";"https://maps.google.com/?cid=0x0:0xa0b11255bc8cd7b4";""
"komplek housing";"Pembangunan Perumahan";"Perumahan Dinas DPRD Kab Boven Digoel";"W89X+PF, Persatuan, Kec. Mandobo, Kabupaten Boven Digoel, Papua";"Kabupaten Boven Digoel, Papua";"PAPUA";"";"Indonesia";"";"";"";"-6.0806407";"140.3486708";"https://maps.google.com/?cid=0x0:0x6a92f66ea50bcb0a";""
"komplek housing";"Pembangunan Perumahan";"Kewam";"HC8G+W7R, Kewam, Distrik Manggelum, Kabupaten Boven Digoel, Papua";"Kabupaten Boven Digoel, Papua";"PAPUA";"";"Indonesia";"";"";"";"-5.4326374";"140.4256481";"https://maps.google.com/?cid=0x0:0xfc7fa5a47e94dcb";""
"komplek housing";"Komplek perumahan";"Rumah Tete Koor Kwanimba";"56W8+234, Jair, Distrik Kouh, Kabupaten Boven Digoel, Papua";"Kabupaten Boven Digoel, Papua";"PAPUA";"";"Indonesia";"";"";"";"-5.8049835";"140.2152041";"https://maps.google.com/?cid=0x0:0x77b3b20448c1da86";""
"komplek housing";"Pembangunan Perumahan";"Distrik Arimop";"V8XC+HQC, Persatuan, Kec. Mandobo, Kabupaten Boven Digoel, Papua 99663";"Persatuan, Kec. Mandobo, Kabupaten Boven Digoel";"PAPUA";"99663";"Indonesia";"";"";"";"-6.1019025";"140.3212482";"https://maps.google.com/?cid=0x0:0xa9fea1ed0f7e5cec";""
"komplek housing";"komplek housing";"Distrik Fofi";"Kabupaten Boven Digoel, Papua";"Kabupaten Boven Digoel, Papua";"PAPUA";"";"Indonesia";"";"";"";"-6.2111813";"139.855567";"https://maps.google.com/?cid=0x0:0xed105c6777af2f3e";""
"komplek housing";"komplek housing";"Devi Ayu Sarwati";"JWWW+QQ4, Bangun, Distrik Fofi, Kabupaten Boven Digoel, Papua";"Kabupaten Boven Digoel, Papua";"PAPUA";"";"Indonesia";"";"";"";"-6.3531181";"139.9469432";"https://maps.google.com/?cid=0x0:0x4bda0b2cded12999";""
"komplek housing";"Komplek perumahan";"Perumahan Ambonggo Belakang Kanan";"XW5P+QMP, Sokanggo, Kec. Mandobo, Kabupaten Boven Digoel, Papua";"Kabupaten Boven Digoel, Papua";"PAPUA";"";"Indonesia";"";"";"";"-6.040549";"139.9366899";"https://maps.google.com/?cid=0x0:0x2df0132dffd8a03b";""
"komplek housing";"komplek housing";"Komplek Housing";"Blok Bojong Nangka I, Jl. Ring Rudal Blok Bojong Nangka I No.68, RT.001/RW.007, Jatirahayu, Kec. Pd. Melati, Kota Bks, Jawa Barat 17414";"Jl. Ring Rudal Blok Bojong Nangka I No.68, RT.001/RW.007, Jatirahayu, Kec. Pd. Melati, Kota Bks";"PAPUA";"17414";"Indonesia";"";"";"";"-6.293724";"106.9165114";"https://maps.google.com/?cid=0x0:0x9c50464976dee674";""
"komplek housing";"komplek housing";"Papua 99664";"Kabupaten Boven Digoel, Papua";"Kabupaten Boven Digoel, Papua";"PAPUA";"";"Indonesia";"";"";"";"-5.5720214";"140.7624493";"https://maps.google.com/?cid=0x0:0x4763b936197cab93";""
"komplek housing";"komplek housing";"Ambatkwi";"Kabupaten Boven Digoel, Papua";"Kabupaten Boven Digoel, Papua";"PAPUA";"";"Indonesia";"";"";"";"-5.3948021";"140.6378804";"https://maps.google.com/?cid=0x0:0x3a215afc7936b662";""
"komplek housing";"Pembangunan Perumahan";"Kewam";"HC8G+W7R, Kewam, Distrik Manggelum, Kabupaten Boven Digoel, Papua";"Kabupaten Boven Digoel, Papua";"PAPUA";"";"Indonesia";"";"";"";"-5.4326374";"140.4256481";"https://maps.google.com/?cid=0x0:0xfc7fa5a47e94dcb";""
"komplek housing";"Komplek perumahan";"KAMPUNG KOLOPKAM";"MF8C+W2, Kolopkam, Ambatkwi, Kabupaten Boven Digoel, Papua 99665";"Kolopkam, Ambatkwi, Kabupaten Boven Digoel";"PAPUA";"99665";"Indonesia";"";"";"";"-5.3327478";"140.4700495";"https://maps.google.com/?cid=0x0:0x3b8f2568a494cd63";""
"komplek housing";"komplek housing";"Distrik Manggelum";"Kabupaten Boven Digoel, Papua";"Kabupaten Boven Digoel, Papua";"PAPUA";"";"Indonesia";"";"";"";"-5.3141695";"140.3212401";"https://maps.google.com/?cid=0x0:0xda512ae0ae71c8e3";""
"komplek housing";"Komplek perumahan";"Bumi Dirgantara Permai";"RT.009/RW.011, Jatisari, Kec. Jatiasih, Kota Bks, Jawa Barat 17426";"Jatisari, Kec. Jatiasih, Kota Bks";"PAPUA";"17426";"Indonesia";"";"";"";"-6.3463327";"106.9431248";"https://maps.google.com/?cid=0x0:0xf40af7137bfb745c";""
"komplek housing";"Komplek perumahan";"Rumah";"Bumi Dirgantara Permai, Jl. Nangka CT. 1 No.29, Jatisari, Kec. Jatiasih";"Kota Bks, Jawa Barat";"PAPUA";"";"Indonesia";"";"";"";"-6.3395782";"106.9535725";"https://maps.google.com/?cid=0x0:0xc4fb24ef5507dbcc";""
"komplek housing";"Kafe";"Dorin.ku";"Jl. Surya Dharma No.5, RT.002/RW.011, Jatisari, Kec. Jatiasih, Kota Bks, Jawa Barat 17426";"RT.002/RW.011, Jatisari, Kec. Jatiasih, Kota Bks";"PAPUA";"17426";"Indonesia";" 085732291114";"";"";"-6.3442674";"106.9491584";"https://maps.google.com/?cid=0x0:0x2438d6c6feb0e93e";""
"komplek housing";"komplek housing";"Firiwage";"Kabupaten Boven Digoel, Papua";"Kabupaten Boven Digoel, Papua";"PAPUA";"";"Indonesia";"";"";"";"-5.386511";"140.1009527";"https://maps.google.com/?cid=0x0:0x46c5d4072a44c619";""
"komplek housing";"komplek housing";"Firiwage";"Firiwage, Kabupaten Boven Digoel, Papua";"Kabupaten Boven Digoel, Papua";"PAPUA";"";"Indonesia";"";"";"";"-5.520689";"140.115204";"https://maps.google.com/?cid=0x0:0x19410c614180567f";""
"komplek housing";"komplek housing";"Kec. Tebet";"Kota Jakarta Selatan, Daerah Khusus Ibukota Jakarta";"Kota Jakarta Selatan, Daerah Khusus Ibukota Jakarta";"PAPUA";"";"Indonesia";"";"";"";"-6.2251223";"106.8549881";"https://maps.google.com/?cid=0x0:0xd575e31c807295f9";""
"komplek housing";"komplek housing";"Papua 99664";"Kabupaten Boven Digoel, Papua";"Kabupaten Boven Digoel, Papua";"PAPUA";"";"Indonesia";"";"";"";"-5.5720214";"140.7624493";"https://maps.google.com/?cid=0x0:0x4763b936197cab93";""
"komplek housing";"komplek housing";"Yaniruma";"Kabupaten Boven Digoel, Papua";"Kabupaten Boven Digoel, Papua";"PAPUA";"";"Indonesia";"";"";"";"-5.3309677";"139.8137871";"https://maps.google.com/?cid=0x0:0x9130b38cdf369076";""
"komplek housing";"komplek housing";"Yaniruma";"Yaniruma, Kabupaten Boven Digoel, Papua";"Kabupaten Boven Digoel, Papua";"PAPUA";"";"Indonesia";"";"";"";"-5.133259";"139.8137871";"https://maps.google.com/?cid=0x0:0x7438a5bbd533ec60";""
"komplek housing";"Komplek perumahan";"Iwan pu rumah yang hitam";"CVP7+956, Kamoro Jaya, Kec. Mimika Baru, Kabupaten Mimika, Papua 99971";"Kamoro Jaya, Kec. Mimika Baru, Kabupaten Mimika";"PAPUA";"99971";"Indonesia";"";"";"";"-4.5640742";"136.8628568";"https://maps.google.com/?cid=0x0:0x14ebefc2a74480c8";""
"komplek housing";"Komplek perumahan";"Housing 1";"Blok D No.2a, Jl. Cipta Yasa, Jatirahayu, Kec. Pd. Melati, Kota Bks, Jawa Barat 17414";"Jl. Cipta Yasa, Jatirahayu, Kec. Pd. Melati, Kota Bks";"PAPUA";"17414";"Indonesia";"";"";"";"-6.2868008";"106.9156516";"https://maps.google.com/?cid=0x0:0x8caf99f97a1f37b";""
"komplek housing";"Komplek perumahan";"Pondok Gede Housing 1";"Jl. Cipta Raya No.45-3, RT.001/RW.003, Jatirahayu, Kec. Pd. Melati, Kota Bks, Jawa Barat 17414";"RT.001/RW.003, Jatirahayu, Kec. Pd. Melati, Kota Bks";"PAPUA";"17414";"Indonesia";"";"";"";"-6.2852504";"106.9163397";"https://maps.google.com/?cid=0x0:0x3132afedbf38cd61";""
"komplek housing";"Kantor Pemerintah Distrik";"Distrik subur";"57GM+5VJ, Unnamed Road, Subur, Kabupaten Boven Digoel, Papua 99661";"Unnamed Road, Subur, Kabupaten Boven Digoel";"PAPUA";"99661";"Indonesia";"";"";"";"-6.8245428";"140.2846428";"https://maps.google.com/?cid=0x0:0x93aae9698ac53b28";""
"komplek housing";"Perhimpunan Pengembang Perumahan";"Kantor Distrik Subur";"57JP+C37, Subur, Kabupaten Boven Digoel, Papua 99661";"Subur, Kabupaten Boven Digoel";"PAPUA";"99661";"Indonesia";"";"";"";"-6.8189638";"140.2851748";"https://maps.google.com/?cid=0x0:0xd5382cf0aa7fbc9f";""
"komplek housing";"Rumah Sakit";"Perum Puskesmas Subur";"85GM+X8C Jln. NINO, Subur, Distrik Ki, Kabupaten Boven Digoel, Papua 99661";"Subur, Distrik Ki, Kabupaten Boven Digoel";"PAPUA";"99661";"Indonesia";"";"";"";"-6.6725506";"140.1832516";"https://maps.google.com/?cid=0x0:0x5a6f7f641b216188";""
"komplek housing";"Komplek perumahan";"Rumah Pak Subur";"Jl. Rw. Indah I No.71, RT.001/RW.008, JaticempakaKec, Pd. GedeKota, Kota Bks, Jawa Barat 17411";"RT.001/RW.008, JaticempakaKec, Pd. GedeKota, Kota Bks";"PAPUA";"17411";"Indonesia";"";"";"";"-6.2666207";"106.9123146";"https://maps.google.com/?cid=0x0:0xd79902888d6c50e5";""
"komplek housing";"Pembangunan Perumahan";"SUBUR Residence";"Jl. Subur II Rt 004/003 No.55, RT.001/RW.003, Jatiasih, Bekasi, West Java 17423";"RT.001/RW.003, Jatiasih, Bekasi";"PAPUA";"17423";"Indonesia";"";"";"";"-6.2862165";"106.9654137";"https://maps.google.com/?cid=0x0:0x3d577f0ca6b0f6c7";""
"komplek housing";"komplek housing";"Papua 99664";"Kabupaten Boven Digoel, Papua";"Kabupaten Boven Digoel, Papua";"PAPUA";"";"Indonesia";"";"";"";"-5.5720214";"140.7624493";"https://maps.google.com/?cid=0x0:0x4763b936197cab93";""
"komplek housing";"komplek housing";"Distrik Kombay";"Kabupaten Boven Digoel, Papua";"Kabupaten Boven Digoel, Papua";"PAPUA";"";"Indonesia";"";"";"";"-5.2411588";"140.002598";"https://maps.google.com/?cid=0x0:0xc9517f2d74b67994";""
"komplek housing";"Komplek perumahan";"Pondok Gede Housing 1";"Jl. Cipta Raya No.45-3, RT.001/RW.003, Jatirahayu, Kec. Pd. Melati, Kota Bks, Jawa Barat 17414";"RT.001/RW.003, Jatirahayu, Kec. Pd. Melati, Kota Bks";"PAPUA";"17414";"Indonesia";"";"";"";"-6.2852504";"106.9163397";"https://maps.google.com/?cid=0x0:0x3132afedbf38cd61";""
"komplek housing";"Komplek perumahan";"Pondok gede housing";"PW69+G7J, Jl. Teratai, RT.005/RW.003, Jatirahayu, Kec. Pd. Melati, Kota Bks, Jawa Barat 17414";"Jl. Teratai, RT.005/RW.003, Jatirahayu, Kec. Pd. Melati, Kota Bks";"PAPUA";"17414";"Indonesia";"";"";"";"-6.2886631";"106.9181392";"https://maps.google.com/?cid=0x0:0xe09247830c5049e9";""
"komplek housing";"Establishment";"Ahzavi Residence Pondok Gede";"PW4J+JHQ, Jl. Celepuk I Ujung, RT.012/RW.014, Jatirahayu, Kec. Pd. Melati, Kota Bks, Jawa Barat 17414";"Jl. Celepuk I Ujung, RT.012/RW.014, Jatirahayu, Kec. Pd. Melati, Kota Bks";"PAPUA";"17414";"Indonesia";"";"";"";"-6.2934194";"106.9314803";"https://maps.google.com/?cid=0x0:0x7b24a580738077da";""
"komplek housing";"Komplek perumahan";"Komplek DDN B.23 Jatiwaringin pondok gede";"PW89+4F3, Jl. Cendrawasih, RT.001/RW.010, Jatimakmur, Kec. Pd. Gede, Kota Bks, Jawa Barat 17413";"Jl. Cendrawasih, RT.001/RW.010, Jatimakmur, Kec. Pd. Gede, Kota Bks";"PAPUA";"17413";"Indonesia";"";"";"";"-6.2847437";"106.918686";"https://maps.google.com/?cid=0x0:0x7d3cc1ed6198c39d";""
"komplek housing";"Komplek perumahan";"komplek perumahan";"Jl. Raya Kav. Arta Kencana 2 No.11 blok D, RT.006/RW.012, Jatimakmur, Kec. Pd. Gede, Kota Bks, Jawa Barat";"Kota Bks, Jawa Barat";"PAPUA";"";"Indonesia";"";"";"";"-6.2933623";"106.9340822";"https://maps.google.com/?cid=0x0:0x54dd5d5170e4f7ad";""
"komplek housing";"komplek housing";"Tembutka";"8VR5+H2, Tembutka, Kec. Ninati, Kabupaten Boven Digoel, Papua 99664";"Tembutka, Kec. Ninati, Kabupaten Boven Digoel";"PAPUA";"99664";"Indonesia";"";"";"";"-5.6586189";"140.8575864";"https://maps.google.com/?cid=0x0:0x36962f0ba6b240b7";""
"komplek housing";"Pembangunan Perumahan";"NAPUTA Residence by ZAFLAND";"Gg. Bakti No.565, Kedaung, Kec. Pamulang, Kota Tangerang Selatan, Banten 15415";"Kedaung, Kec. Pamulang, Kota Tangerang Selatan";"PAPUA";"15415";"Indonesia";" 085710011145";"";"";"-6.316319";"106.7397449";"https://maps.google.com/?cid=0x0:0x353de2c9add1ebfd";""
"komplek housing";"Komplek perumahan";"Kaze Hill Residence by Dekoruma";"Jl. Rudal III No.14, Joglo, Kec. Kembangan, Kota Jakarta Barat, Daerah Khusus Ibukota Jakarta 11640";"Joglo, Kec. Kembangan, Kota Jakarta Barat";"PAPUA";"11640";"Indonesia";" 081703888830";"";"";"-6.2220299";"106.7222881";"https://maps.google.com/?cid=0x0:0xae1418e46b6f96f5";""
"komplek housing";"Komplek perumahan";"Rumah Baru";"Permata Bintaro blok HF No.21, Parigi, Kec. Pd. Aren, Kota Tangerang Selatan, Banten";"Kota Tangerang Selatan, Banten";"PAPUA";"";"Indonesia";"";"";"";"-6.2861782";"106.6999977";"https://maps.google.com/?cid=0x0:0x6b3c4947918af4b1";""
"komplek housing";"Komplek perumahan";"Pondok Gede Housing II";"Housing II, Jl. Raya Hankam, RT.001/RW.004, Jatirahayu, Pondok Gede, Bekasi, West Java";"Kota Bks, Jawa Barat";"PAPUA";"";"Indonesia";"";"";"";"-6.2876701";"106.9147674";"https://maps.google.com/?cid=0x0:0x2a52e601c20d18f2";""
"komplek housing";"Komplek perumahan";"Pondok gede housing";"PW69+G7J, Jl. Teratai, RT.005/RW.003, Jatirahayu, Kec. Pd. Melati, Kota Bks, Jawa Barat 17414";"Jl. Teratai, RT.005/RW.003, Jatirahayu, Kec. Pd. Melati, Kota Bks";"PAPUA";"17414";"Indonesia";"";"";"";"-6.2886631";"106.9181392";"https://maps.google.com/?cid=0x0:0xe09247830c5049e9";""
"komplek housing";"Pembangunan Perumahan";"PERUMAHAN NITO TERRACE";"PW4H+XJ3, Jl. Masjid Rw. Bacang, RT.011/RW.014, Jatirahayu, Kec. Pd. Melati, Kota Bks, Jawa Barat 17414";"Jl. Masjid Rw. Bacang, RT.011/RW.014, Jatirahayu, Kec. Pd. Melati, Kota Bks";"PAPUA";"17414";"Indonesia";" 081280188821";"";"";"-6.2926088";"106.9290402";"https://maps.google.com/?cid=0x0:0xe6dae0897bbc887d";""
"komplek housing";"Komplek perumahan";"Komplek Bina Lindung";"PWJ5+49V, Jl. Bina Loka, RT.007/RW.011, Jaticempaka, Kec. Pd. Gede, Kota Bks, Jawa Barat 17411";"Jl. Bina Loka, RT.007/RW.011, Jaticempaka, Kec. Pd. Gede, Kota Bks";"PAPUA";"17411";"Indonesia";"";"";"";"-6.2696294";"106.9084203";"https://maps.google.com/?cid=0x0:0x3e834652721e8817";""
"komplek housing";"Perumahan";"Perumahan TNI AU";"RT.6/RW.12, Halim Perdanakusuma, Kec. Makasar, Kota Jakarta Timur, Daerah Khusus Ibukota Jakarta 13610";"Halim Perdanakusuma, Kec. Makasar, Kota Jakarta Timur";"PAPUA";"13610";"Indonesia";"";"";"";"-6.2513979";"106.8989573";"https://maps.google.com/?cid=0x0:0x45280dec250fa534";""
"komplek housing";"komplek housing";"Nina House";"PW8C+R94, Jl. Beo, RT.002/RW.002, Jatimakmur, Kec. Pd. Gede, Kota Bks, Jawa Barat 17413";"Jl. Beo, RT.002/RW.002, Jatimakmur, Kec. Pd. Gede, Kota Bks";"PAPUA";"17413";"Indonesia";"";"";"";"-6.2829841";"106.9209541";"https://maps.google.com/?cid=0x0:0x37a93905177fa2f1";""
"komplek housing";"Pembangunan Perumahan";"Sesnukt";"RPHM+2VM, Sesnuk, Kec. Sesnuk, Kabupaten Boven Digoel, Papua 99662";"Sesnuk, Kec. Sesnuk, Kabupaten Boven Digoel";"PAPUA";"99662";"Indonesia";"";"";"";"-6.1712723";"140.734579";"https://maps.google.com/?cid=0x0:0x9ffeaa59de2473c4";""
"komplek housing";"Perumahan";"Set";"Jl. Ampera, Persatuan, Kec. Mandobo, Kabupaten Boven Digoel, Papua 99663";"Persatuan, Kec. Mandobo, Kabupaten Boven Digoel";"PAPUA";"99663";"Indonesia";"";"";"";"-6.1080283";"140.3120381";"https://maps.google.com/?cid=0x0:0xc8fef9cb48c88efe";""
"komplek housing";"Perumahan";"MULQI MANSION 8";"Jl. H. Saenan, RT.4/RW.9, Bedahan, Kec. Sawangan, Kota Depok, Jawa Barat 16519";"RT.4/RW.9, Bedahan, Kec. Sawangan, Kota Depok";"PAPUA";"16519";"Indonesia";" 081312460603";"";"";"-6.4209121";"106.765436";"https://maps.google.com/?cid=0x0:0xd09b05a40c5313a9";""
"komplek housing";"Katering";"Bellvone Catering - Sawangan";"mulqi mansion 8, Jl. H. Saenan No.15 blok A no A2, RT.4/RW.9, Bedahan, Kec. Sawangan, Kota Depok, Jawa Barat 16519";"Jl. H. Saenan No.15 blok A no A2, RT.4/RW.9, Bedahan, Kec. Sawangan, Kota Depok";"PAPUA";"16519";"Indonesia";"";"";"";"-6.4200959";"106.7651393";"https://maps.google.com/?cid=0x0:0x56f7367d617a2c67";""
"komplek housing";"komplek housing";"Papua 99661";"Kabupaten Boven Digoel, Papua";"Kabupaten Boven Digoel, Papua";"PAPUA";"";"Indonesia";"";"";"";"-6.6725506";"140.1832516";"https://maps.google.com/?cid=0x0:0x6942b94e71194057";""
"komplek housing";"Rumah Sakit";"Perum Puskesmas Subur";"85GM+X8C Jln. NINO, Subur, Distrik Ki, Kabupaten Boven Digoel, Papua 99661";"Subur, Distrik Ki, Kabupaten Boven Digoel";"PAPUA";"99661";"Indonesia";"";"";"";"-6.6725506";"140.1832516";"https://maps.google.com/?cid=0x0:0x5a6f7f641b216188";""
"komplek housing";"Komplek perumahan";"Puskesmas Subur";"57FP+F7M, Jalan Ismael, Subur, Kabupaten Boven Digoel, Papua 99661";"Jalan Ismael, Subur, Kabupaten Boven Digoel";"PAPUA";"99661";"Indonesia";" 085244198267";"";"";"-6.8262883";"140.2856734";"https://maps.google.com/?cid=0x0:0x327860b0e01e9a13";""
"komplek housing";"Kantor Perusahaan";"Komplek raya housing blok E";"Komplek raya hosing blok E.6 RT.003/001, Jatiwaringin, Kec. Pd. Gede";"Kota Bks, Jawa Barat";"PAPUA";"";"Indonesia";"";"";"";"-6.2811216";"106.9102168";"https://maps.google.com/?cid=0x0:0x8256ca23a46e5e57";""
"komplek housing";"Komplek perumahan";"Komplek Raya Housing Blok C No.6";"Jl. Bhineka, RT.006/RW.011, Jatiwaringin, Kec. Pd. Gede, Kota Bks, Jawa Barat 17411";"RT.006/RW.011, Jatiwaringin, Kec. Pd. Gede, Kota Bks";"PAPUA";"17411";"Indonesia";"";"";"";"-6.2813572";"106.9097108";"https://maps.google.com/?cid=0x0:0x8658ae7bd2f9a7a2";""
"komplek housing";"Komplek perumahan";"Pondok gede housing";"PW69+G7J, Jl. Teratai, RT.005/RW.003, Jatirahayu, Kec. Pd. Melati, Kota Bks, Jawa Barat 17414";"Jl. Teratai, RT.005/RW.003, Jatirahayu, Kec. Pd. Melati, Kota Bks";"PAPUA";"17414";"Indonesia";"";"";"";"-6.2886631";"106.9181392";"https://maps.google.com/?cid=0x0:0xe09247830c5049e9";""
"komplek housing";"Komplek perumahan";"Pondok Gede Housing II";"Housing II, Jl. Raya Hankam, RT.001/RW.004, Jatirahayu, Pondok Gede, Bekasi, West Java";"Kota Bks, Jawa Barat";"PAPUA";"";"Indonesia";"";"";"";"-6.2876701";"106.9147674";"https://maps.google.com/?cid=0x0:0x2a52e601c20d18f2";""
"komplek housing";"Komplek perumahan";"Komplek Raya Housing Blok O";"PWC5+FRJ, RT.005/RW.011, Jatiwaringin, Kec. Pd. Gede, Kota Bks, Jawa Barat 17411";"RT.005/RW.011, Jatiwaringin, Kec. Pd. Gede, Kota Bks";"PAPUA";"17411";"Indonesia";"";"";"";"-6.278778";"106.9095098";"https://maps.google.com/?cid=0x0:0xb8ccec3d47633fb4";""
"komplek housing";"Konsultan Realestat";"Komplek Raya Housing C-9";"Komplek Raya Jl. Raya Housing No.9 BLOK C, RT.003/RW.001, Jatiwaringin, Kec. Pd. Gede, Kota Bks, Jawa Barat 17411";"RT.003/RW.001, Jatiwaringin, Kec. Pd. Gede, Kota Bks";"PAPUA";"17411";"Indonesia";"";"";"";"-6.2809842";"106.9097473";"https://maps.google.com/?cid=0x0:0x5332830131150540";""
"komplek housing";"Komplek perumahan";"Komplek Raya Housing Blok J No.14";"Komplek Raya Housing  Molek Blok J No.14, RT./RW/RW.06/01, Jatiwaringin, Kec. Pd. Gede, Kota Bks, Jawa Barat 17411";"RT./RW/RW.06/01, Jatiwaringin, Kec. Pd. Gede, Kota Bks";"PAPUA";"17411";"Indonesia";"";"";"";"-6.2805909";"106.9104115";"https://maps.google.com/?cid=0x0:0x7f14a8f934298712";""
"komplek housing";"Komplek perumahan";"Komplek Raya Housing/Molek Blok B No. 4";"PW95+CQ7, Jl. Raya Housing, RT.006/RW.011, Jatiwaringin, Kec. Pd. Gede, Kota Bks, Jawa Barat 17411";"Jl. Raya Housing, RT.006/RW.011, Jatiwaringin, Kec. Pd. Gede, Kota Bks";"PAPUA";"17411";"Indonesia";"";"";"";"-6.2814591";"106.909408";"https://maps.google.com/?cid=0x0:0x47a4e28e626334ff";""
"komplek housing";"komplek housing";"Kawagit";"Kawagit, Kabupaten Boven Digoel, Papua";"Kabupaten Boven Digoel, Papua";"PAPUA";"";"Indonesia";"";"";"";"-5.6361368";"140.3069088";"https://maps.google.com/?cid=0x0:0x41ac9de9f0403258";""
"komplek housing";"komplek housing";"Kawagit";"Kabupaten Boven Digoel, Papua";"Kabupaten Boven Digoel, Papua";"PAPUA";"";"Indonesia";"";"";"";"-5.6294411";"140.2244429";"https://maps.google.com/?cid=0x0:0x69ff4aae3e3b8ad2";""
"perumahan";"perumahan";"Mandobo";"Distrik Kouh, Kabupaten Boven Digoel, Papua";"Kabupaten Boven Digoel, Papua";"PAPUA";"";"Indonesia";"";"";"";"-5.8523321";"140.2862819";"https://maps.google.com/?cid=0x0:0x30ea9430854e3568";""
"perumahan";"Pembangunan Perumahan";"Kecamatan mandobo";"785X+X7V, Ujung, Arimop, Kabupaten Boven Digoel, Papua 99663";"Ujung, Arimop, Kabupaten Boven Digoel";"PAPUA";"99663";"Indonesia";" 082238850712";"";"";"-5.7400018";"140.3481835";"https://maps.google.com/?cid=0x0:0x7cca82548553038f";""
"perumahan";"Komplek perumahan";"Perumahan Ambonggo";"W868+P9P, Unnamed Road, Persatuan, Kec. Mandobo, Kabupaten Boven Digoel, Papua 99663";"Unnamed Road, Persatuan, Kec. Mandobo, Kabupaten Boven Digoel";"PAPUA";"99663";"Indonesia";"";"";"";"-6.0881572";"140.3159401";"https://maps.google.com/?cid=0x0:0x4ae63b1f7fa71be7";""
"perumahan";"Komplek perumahan";"Rumah Tete Koor Kwanimba";"56W8+234, Jair, Distrik Kouh, Kabupaten Boven Digoel, Papua";"Kabupaten Boven Digoel, Papua";"PAPUA";"";"Indonesia";"";"";"";"-5.8049835";"140.2152041";"https://maps.google.com/?cid=0x0:0x77b3b20448c1da86";""
"perumahan";"Pembangunan Perumahan";"Distrik arimop";"785X+X7V, Ujung, Arimop, Kabupaten Boven Digoel, Papua";"Kabupaten Boven Digoel, Papua";"PAPUA";"";"Indonesia";"";"";"";"-5.7400018";"140.3481835";"https://maps.google.com/?cid=0x0:0x58fdcd0d83c2efd3";""
"perumahan";"Pembangunan Perumahan";"Kios Arumi";"785X+X7V, Jl SMA abonggo, Ujung, Arimop, Kabupaten Boven Digoel, Papua";"Kabupaten Boven Digoel, Papua";"PAPUA";"";"Indonesia";"";"";"";"-5.7400018";"140.3481835";"https://maps.google.com/?cid=0x0:0xf53f91790c52f974";""
"perumahan";"Komplek perumahan";"TITI Laundry";"785X+X7V Jln Belanda lama kos Ayub Santy, Ujung, Arimop, Kabupaten Boven Digoel, Papua";"Kabupaten Boven Digoel, Papua";"PAPUA";"";"Indonesia";"";"";"";"-5.7400018";"140.3481835";"https://maps.google.com/?cid=0x0:0xa0b11255bc8cd7b4";""
"perumahan";"perumahan";"Papua 99663";"Kabupaten Boven Digoel, Papua";"Kabupaten Boven Digoel, Papua";"PAPUA";"";"Indonesia";"";"";"";"-5.9346326";"140.265662";"https://maps.google.com/?cid=0x0:0x24b271a5b6f62e76";""
"perumahan";"Komplek perumahan";"Perumahan Pegawai KM 3";"W84H+RHH, Transpapua, Kec. Mandobo, Kabupaten Boven Digoel, Papua 99663";"Transpapua, Kec. Mandobo, Kabupaten Boven Digoel";"PAPUA";"99663";"Indonesia";"";"";"";"-6.0929479";"140.3289743";"https://maps.google.com/?cid=0x0:0xfef02e7b6d5a573e";""
"perumahan";"Komplek perumahan";"Perumahan masyarakat ampera";"V8Q4+GG, Persatuan, Kec. Mandobo, Kabupaten Boven Digoel, Papua 99663";"Persatuan, Kec. Mandobo, Kabupaten Boven Digoel";"PAPUA";"99663";"Indonesia";"";"";"";"-6.1111766";"140.3063499";"https://maps.google.com/?cid=0x0:0xf77cf342b1adaa0f";""
"perumahan";"Dapur Umum";"Tanah merah, kab Boven Digoel";"W6HV+JXV, Persatuan, Kec. Mandobo, Kabupaten Boven Digoel, Papua 99663";"Persatuan, Kec. Mandobo, Kabupaten Boven Digoel";"PAPUA";"99663";"Indonesia";"";"";"";"-6.0708882";"140.2449286";"https://maps.google.com/?cid=0x0:0xd3987b54e3dab9fd";""
"perumahan";"Komplek perumahan";"Perumahan Ambonggo Depan Kanan";"W858+F5F, Perumahan Ambonggo Kampung Sokanggo, Kec. Mandobo, Kabupaten Boven Digoel";"Kabupaten Boven Digoel, Papua";"PAPUA";"";"Indonesia";"";"";"";"-6.0913114";"140.3154221";"https://maps.google.com/?cid=0x0:0x4fc6ef4c125ca699";""
"perumahan";"Komplek perumahan";"House of Soppeng";"W84G+7PP, Unnamed Road, Persatuan, Kec. Mandobo, Kabupaten Boven Digoel, Papua 99663";"Unnamed Road, Persatuan, Kec. Mandobo, Kabupaten Boven Digoel";"PAPUA";"99663";"Indonesia";"";"";"";"-6.0942761";"140.3268235";"https://maps.google.com/?cid=0x0:0x7124c4bc362f887";""
"perumahan";"Komplek perumahan";"Rumah Junandito";"V8XC+HQC, Persatuan, Kec. Mandobo, Kabupaten Boven Digoel, Papua 99663";"Persatuan, Kec. Mandobo, Kabupaten Boven Digoel";"PAPUA";"99663";"Indonesia";"";"";"";"-6.1023592";"140.3226336";"https://maps.google.com/?cid=0x0:0xc4523980f6706e9a";""
"perumahan";"Kantor Administrasi Kota";"Perumahan BMKG Tanah Merah";"V8X3+P4J, jln trans papua, Persatuan, Kec. Mandobo, Kabupaten Boven Digoel, Papua 99663";"jln trans papua, Persatuan, Kec. Mandobo, Kabupaten Boven Digoel";"PAPUA";"99663";"Indonesia";"";"";"";"-6.1006646";"140.3027793";"https://maps.google.com/?cid=0x0:0x32992e6baa21809d";""
"perumahan";"Pembangunan Perumahan";"Kompleks Perumahan Pegawai No.3";"V8M5+6C2, Jl. Ampera, Persatuan, Kec. Mandobo, Kabupaten Boven Digoel, Papua 99663";"Jl. Ampera, Persatuan, Kec. Mandobo, Kabupaten Boven Digoel";"PAPUA";"99663";"Indonesia";"";"";"";"-6.1169783";"140.3085218";"https://maps.google.com/?cid=0x0:0x45064ab9d4293bbc";""
"perumahan";"Pembangunan Perumahan";"A. Wandany";"W838+MPG, Persatuan, Kec. Mandobo, Kabupaten Boven Digoel, Papua 99663";"Persatuan, Kec. Mandobo, Kabupaten Boven Digoel";"PAPUA";"99663";"Indonesia";"";"";"";"-6.0958075";"140.3168202";"https://maps.google.com/?cid=0x0:0x6a4afd3a5ccdf7d4";""
"perumahan";"Pembangunan Perumahan";"Karet - Karet";"W835+4FH, Persatuan, Kec. Mandobo, Kabupaten Boven Digoel, Papua 99663";"Persatuan, Kec. Mandobo, Kabupaten Boven Digoel";"PAPUA";"99663";"Indonesia";"";"";"";"-6.0971609";"140.3092188";"https://maps.google.com/?cid=0x0:0x25d2a425cdb631ab";""
"perumahan";"Perhimpunan Pengembang Perumahan";"Garasi imanuel";"Persatuan, Kec. Mandobo, Kabupaten Boven Digoel, Papua 99663";"Kec. Mandobo, Kabupaten Boven Digoel";"PAPUA";"99663";"Indonesia";"";"";"";"-6.0967602";"140.3114617";"https://maps.google.com/?cid=0x0:0xa8543e97332ec77c";""
"perumahan";"Taman";"Distrik arimop";"Jl. Arimop, Persatuan, Kec. Mandobo, Kabupaten Boven Digoel, Papua 99663";"Persatuan, Kec. Mandobo, Kabupaten Boven Digoel";"PAPUA";"99663";"Indonesia";"";"";"";"-6.0972184";"140.3091796";"https://maps.google.com/?cid=0x0:0x42bd57825146a2f8";""
"perumahan";"Komplek perumahan";"ARSHAKA Z. M";"V8M5+6C8, Persatuan, Kec. Mandobo, Kabupaten Boven Digoel, Papua 99663";"Persatuan, Kec. Mandobo, Kabupaten Boven Digoel";"PAPUA";"99663";"Indonesia";"";"";"";"-6.1169388";"140.3086865";"https://maps.google.com/?cid=0x0:0x5c2a04d80b3c7934";""
"perumahan";"Komplek perumahan";"Amsterdam Street";"V8Q4+7PF, Persatuan, Kec. Mandobo, Kabupaten Boven Digoel, Papua";"Kabupaten Boven Digoel, Papua";"PAPUA";"";"Indonesia";"";"";"";"-6.1115447";"140.306707";"https://maps.google.com/?cid=0x0:0xb4f547364558d44";""
"perumahan";"Pembangunan Perumahan";"Perumahan Dinas DPRD Kab Boven Digoel";"W89X+PF, Persatuan, Kec. Mandobo, Kabupaten Boven Digoel, Papua";"Kabupaten Boven Digoel, Papua";"PAPUA";"";"Indonesia";"";"";"";"-6.0806407";"140.3486708";"https://maps.google.com/?cid=0x0:0x6a92f66ea50bcb0a";""
"perumahan";"Komplek perumahan";"Rumah, Dimas, Ayu, Dinda";"W864+FQ, Persatuan, Kec. Mandobo, Kabupaten Boven Digoel, Papua";"Kabupaten Boven Digoel, Papua";"PAPUA";"";"Indonesia";"";"";"";"-6.0888453";"140.3068887";"https://maps.google.com/?cid=0x0:0x9ed5196fe6608fb7";""
"perumahan";"Komplek perumahan";"Una home";"V8R5+WVG, Persatuan, Kec. Mandobo, Kabupaten Boven Digoel, Papua";"Kabupaten Boven Digoel, Papua";"PAPUA";"";"Indonesia";"";"";"";"-6.1076875";"140.3097031";"https://maps.google.com/?cid=0x0:0x8c2d8c8a91f65fc5";""
"perumahan";"Komplek perumahan";"Perumahan dispenda";"W8CX+4VV, Unnamed Road, Mawan, Kec. Mandobo, Kabupaten Boven Digoel, Papua 99663";"Unnamed Road, Mawan, Kec. Mandobo, Kabupaten Boven Digoel";"PAPUA";"99663";"Indonesia";"";"";"";"-6.0796374";"140.3496771";"https://maps.google.com/?cid=0x0:0x97b0e2501ee680a4";""
"perumahan";"perumahan";"SH Mindiptana";"4MHW+XQV, Mindiptana, Kec. Mindiptana, Kabupaten Boven Digoel, Papua 99662";"Mindiptana, Kec. Mindiptana, Kabupaten Boven Digoel";"PAPUA";"99662";"Indonesia";"";"";"";"-5.870964";"140.697402";"https://maps.google.com/?cid=0x0:0x5136861d3db7c784";""
"perumahan";"perumahan";"Kec. Mindiptana";"Kabupaten Boven Digoel, Papua";"Kabupaten Boven Digoel, Papua";"PAPUA";"";"Indonesia";"";"";"";"-5.8729212";"140.7006239";"https://maps.google.com/?cid=0x0:0x63d3989597ea91fc";""
"perumahan";"perumahan";"Mindiptana";"4MMP+6PR, Mindiptana, Kec. Mindiptana, Kabupaten Boven Digoel, Papua";"Kabupaten Boven Digoel, Papua";"PAPUA";"";"Indonesia";"";"";"";"-5.8668938";"140.6867538";"https://maps.google.com/?cid=0x0:0xe6501fa4cccf99a2";""
"perumahan";"Komplek perumahan";"RN Imigrasi Mindiptana";"4PF2+3VM, Mindiptana, Kec. Mindiptana, Kabupaten Boven Digoel, Papua";"Kabupaten Boven Digoel, Papua";"PAPUA";"";"Indonesia";"";"";"";"-5.8772941";"140.702171";"https://maps.google.com/?cid=0x0:0x493e070ff90c3463";""
"perumahan";"Komplek perumahan";"Kampung Wanggatkibi";"6PGH+655, Jalan Trans, Wanggatkibi, Kec. Mindiptana, Kabupaten Boven Digoel, Papua";"Kabupaten Boven Digoel, Papua";"PAPUA";"";"Indonesia";"";"";"";"-5.7744888";"140.7279975";"https://maps.google.com/?cid=0x0:0xb5bf752a922d4f35";""
"perumahan";"Komplek perumahan";"Mindiptana Village";"4MJW+6PM, RT.03/RW.01, Mindiptana, Kec. Mindiptana, Kabupaten Boven Digoel, Papua";"Kabupaten Boven Digoel, Papua";"PAPUA";"";"Indonesia";"";"";"";"-5.8694232";"140.696795";"https://maps.google.com/?cid=0x0:0xcae36f55e1ec8736";""
"perumahan";"Bandara";"Bandar Udara Mindiptana";"4PC5+9J9, Niyimbang, Kec. Mindiptana, Kabupaten Boven Digoel, Papua 99662";"Niyimbang, Kec. Mindiptana, Kabupaten Boven Digoel";"PAPUA";"99662";"Indonesia";"";"";"";"-5.8790945";"140.7091104";"https://maps.google.com/?cid=0x0:0xe63be6e570c913cf";""
"perumahan";"Komplek perumahan";"Rumahqu";"4P94+MH, Niyimbang, Kec. Mindiptana, Kabupaten Boven Digoel, Papua";"Kabupaten Boven Digoel, Papua";"PAPUA";"";"Indonesia";"";"";"";"-5.8807718";"140.7064533";"https://maps.google.com/?cid=0x0:0x3896127d127611b7";""
"perumahan";"Komplek perumahan";"Katuk Muyu Waropko";"Waropko, Kabupaten Boven Digoel, Papua 99664";"Kabupaten Boven Digoel";"PAPUA";"99664";"Indonesia";"";"";"";"-5.6298971";"140.8330749";"https://maps.google.com/?cid=0x0:0x8428c88280af7b8e";""
"perumahan";"Pembangunan Perumahan";"Coret Karwayu";"782X+2GR, Ujung, Arimop, Kabupaten Boven Digoel, Papua";"Kabupaten Boven Digoel, Papua";"PAPUA";"";"Indonesia";"";"";"";"-5.7498932";"140.3487626";"https://maps.google.com/?cid=0x0:0xe8694680a7c9b1c4";""
"perumahan";"perumahan";"Waropko";"Kabupaten Boven Digoel, Papua";"Kabupaten Boven Digoel, Papua";"PAPUA";"";"Indonesia";"";"";"";"-5.4810101";"140.8872648";"https://maps.google.com/?cid=0x0:0xae26c3d96468ea8c";""
"perumahan";"Komplek perumahan";"km 116 B";"CR8G+QVF, Upkim, Waropko, Kabupaten Boven Digoel, Papua 99664";"Upkim, Waropko, Kabupaten Boven Digoel";"PAPUA";"99664";"Indonesia";"";"";"";"-5.5830631";"140.8271651";"https://maps.google.com/?cid=0x0:0xd5070f654ee507d6";""
"perumahan";"Komplek perumahan";"km 116 B";"Jln Trans Papua Km 116, Tabako, Waropko, Kabupaten Boven Digoel, Papua";"Kabupaten Boven Digoel, Papua";"PAPUA";"";"Indonesia";"";"";"";"-5.623268";"140.713806";"https://maps.google.com/?cid=0x0:0x86288764aff0878c";""
"perumahan";"Komplek perumahan";"Rumahqu";"4P94+MH, Niyimbang, Kec. Mindiptana, Kabupaten Boven Digoel, Papua";"Kabupaten Boven Digoel, Papua";"PAPUA";"";"Indonesia";"";"";"";"-5.8807718";"140.7064533";"https://maps.google.com/?cid=0x0:0x3896127d127611b7";""
"perumahan";"perumahan";"Distrik Kouh";"Kabupaten Boven Digoel, Papua";"Kabupaten Boven Digoel, Papua";"PAPUA";"";"Indonesia";"";"";"";"-5.8051734";"140.2132761";"https://maps.google.com/?cid=0x0:0x7a9ca82cdcdd2eb6";""
"perumahan";"perumahan";"Kouh";"Distrik Kouh, Kabupaten Boven Digoel, Papua";"Kabupaten Boven Digoel, Papua";"PAPUA";"";"Indonesia";"";"";"";"-5.8249191";"140.197408";"https://maps.google.com/?cid=0x0:0xa00e72d4fc202818";""
"perumahan";"perumahan";"Papua 99661";"Kabupaten Boven Digoel, Papua";"Kabupaten Boven Digoel, Papua";"PAPUA";"";"Indonesia";"";"";"";"-6.6725506";"140.1832516";"https://maps.google.com/?cid=0x0:0x6942b94e71194057";""
"perumahan";"Kantor Pemerintah Distrik";"Rumah jabatan Kepa Distrik";"56V6+9G5, Kouh, Distrik Kouh, Kabupaten Boven Digoel, Papua 99663";"Kouh, Distrik Kouh, Kabupaten Boven Digoel";"PAPUA";"99663";"Indonesia";"";"";"";"-5.8066086";"140.211374";"https://maps.google.com/?cid=0x0:0x5462dfdb8671da98";""
"perumahan";"perumahan";"Distrik Kouh";"Kabupaten Boven Digoel, Papua";"Kabupaten Boven Digoel, Papua";"PAPUA";"";"Indonesia";"";"";"";"-5.8051734";"140.2132761";"https://maps.google.com/?cid=0x0:0x7a9ca82cdcdd2eb6";""
"perumahan";"perumahan";"Kouh";"Distrik Kouh, Kabupaten Boven Digoel, Papua";"Kabupaten Boven Digoel, Papua";"PAPUA";"";"Indonesia";"";"";"";"-5.8249191";"140.197408";"https://maps.google.com/?cid=0x0:0xa00e72d4fc202818";""
"perumahan";"Komplek perumahan";"Rumah Yusak Marthen";"56V7+78H, Jair, Distrik Kouh, Kabupaten Boven Digoel, Papua";"Kabupaten Boven Digoel, Papua";"PAPUA";"";"Indonesia";"";"";"";"-5.8068246";"140.2133667";"https://maps.google.com/?cid=0x0:0x2db5aec1fca77c02";""
"perumahan";"Komplek perumahan";"Rumah Tete Koor Kwanimba";"56W8+234, Jair, Distrik Kouh, Kabupaten Boven Digoel, Papua";"Kabupaten Boven Digoel, Papua";"PAPUA";"";"Indonesia";"";"";"";"-5.8049835";"140.2152041";"https://maps.google.com/?cid=0x0:0x77b3b20448c1da86";""
"perumahan";"Pembangunan Perumahan";"Kecamatan mandobo";"785X+X7V, Ujung, Arimop, Kabupaten Boven Digoel, Papua 99663";"Ujung, Arimop, Kabupaten Boven Digoel";"PAPUA";"99663";"Indonesia";" 082238850712";"";"";"-5.7400018";"140.3481835";"https://maps.google.com/?cid=0x0:0x7cca82548553038f";""
"perumahan";"Pembangunan Perumahan";"Coret Karwayu";"782X+2GR, Ujung, Arimop, Kabupaten Boven Digoel, Papua";"Kabupaten Boven Digoel, Papua";"PAPUA";"";"Indonesia";"";"";"";"-5.7498932";"140.3487626";"https://maps.google.com/?cid=0x0:0xe8694680a7c9b1c4";""
"perumahan";"Komplek perumahan";"TITI Laundry";"785X+X7V Jln Belanda lama kos Ayub Santy, Ujung, Arimop, Kabupaten Boven Digoel, Papua";"Kabupaten Boven Digoel, Papua";"PAPUA";"";"Indonesia";"";"";"";"-5.7400018";"140.3481835";"https://maps.google.com/?cid=0x0:0xa0b11255bc8cd7b4";""
"perumahan";"Pembangunan Perumahan";"Distrik arimop";"785X+X7V, Ujung, Arimop, Kabupaten Boven Digoel, Papua";"Kabupaten Boven Digoel, Papua";"PAPUA";"";"Indonesia";"";"";"";"-5.7400018";"140.3481835";"https://maps.google.com/?cid=0x0:0x58fdcd0d83c2efd3";""
"perumahan";"Pembangunan Perumahan";"Kios Arumi";"785X+X7V, Jl SMA abonggo, Ujung, Arimop, Kabupaten Boven Digoel, Papua";"Kabupaten Boven Digoel, Papua";"PAPUA";"";"Indonesia";"";"";"";"-5.7400018";"140.3481835";"https://maps.google.com/?cid=0x0:0xf53f91790c52f974";""
"perumahan";"perumahan";"lucky kaki hary";"785X+X7V, spay, Arimop, Kabupaten Boven Digoel, Papua";"Kabupaten Boven Digoel, Papua";"PAPUA";"";"Indonesia";"";"";"";"-5.7400018";"140.3481835";"https://maps.google.com/?cid=0x0:0x75185be01db2535e";""
"perumahan";"Toko";"Rumah Riting";"56V7+H9P, Jair, Distrik Kouh, Kabupaten Boven Digoel, Papua 99663";"Jair, Distrik Kouh, Kabupaten Boven Digoel";"PAPUA";"99663";"Indonesia";"";"";"";"-5.8060418";"140.2134616";"https://maps.google.com/?cid=0x0:0x7828a341226e2143";""
"perumahan";"Pembangunan Perumahan";"Tanah merah";"Jalan trans Papua No.km 3, Ujung, Arimop, Kabupaten Boven Digoel, Papua";"Kabupaten Boven Digoel, Papua";"PAPUA";"";"Indonesia";"";"";"";"-5.7400018";"140.3481835";"https://maps.google.com/?cid=0x0:0xcb65b65b5aacf92c";""
"perumahan";"Toko Kelontong Asia";"Kios alfa";"Jln. Trans Papua No.km 5, Mandobo, Distrik Kouh, Kabupaten Boven Digoel, Papua 99663";"Mandobo, Distrik Kouh, Kabupaten Boven Digoel";"PAPUA";"99663";"Indonesia";" 085254256550";"";"";"-5.9346326";"140.265662";"https://maps.google.com/?cid=0x0:0xe8531d0bc714468f";""
"perumahan";"perumahan";"Distrik Kouh";"Kabupaten Boven Digoel, Papua";"Kabupaten Boven Digoel, Papua";"PAPUA";"";"Indonesia";"";"";"";"-5.8051734";"140.2132761";"https://maps.google.com/?cid=0x0:0x7a9ca82cdcdd2eb6";""
"perumahan";"perumahan";"Kouh";"Distrik Kouh, Kabupaten Boven Digoel, Papua";"Kabupaten Boven Digoel, Papua";"PAPUA";"";"Indonesia";"";"";"";"-5.8249191";"140.197408";"https://maps.google.com/?cid=0x0:0xa00e72d4fc202818";""
"perumahan";"perumahan";"Papua 99665";"Kabupaten Boven Digoel, Papua";"Kabupaten Boven Digoel, Papua";"PAPUA";"";"Indonesia";"";"";"";"-5.3993592";"140.265662";"https://maps.google.com/?cid=0x0:0x130a65ebf9121fb9";""
"perumahan";"Kantor Pemerintah Distrik";"Rumah jabatan Kepa Distrik";"56V6+9G5, Kouh, Distrik Kouh, Kabupaten Boven Digoel, Papua 99663";"Kouh, Distrik Kouh, Kabupaten Boven Digoel";"PAPUA";"99663";"Indonesia";"";"";"";"-5.8066086";"140.211374";"https://maps.google.com/?cid=0x0:0x5462dfdb8671da98";""
"perumahan";"Kantor Perusahaan";"Perumahan Karyawan";"C894+6QM, Getentiri, Kec. Jair, Kabupaten Boven Digoel, Papua";"Kabupaten Boven Digoel, Papua";"PAPUA";"";"Indonesia";"";"";"";"-6.5819184";"140.3069259";"https://maps.google.com/?cid=0x0:0xc02d95b9f76149d1";""
"perumahan";"Kantor Keselamatan Publik";"Kompleks Perumahan karyawan  Staff Divisi 10";"9875+HC, Getentiri, Kec. Jair, Kabupaten Boven Digoel, Papua";"Kabupaten Boven Digoel, Papua";"PAPUA";"";"Indonesia";"";"";"";"-6.636066";"140.3086546";"https://maps.google.com/?cid=0x0:0xe6a858f70211902";""
"perumahan";"perumahan";"Papua 99661";"Kabupaten Boven Digoel, Papua";"Kabupaten Boven Digoel, Papua";"PAPUA";"";"Indonesia";"";"";"";"-6.6725506";"140.1832516";"https://maps.google.com/?cid=0x0:0x6942b94e71194057";""
"perumahan";"Komplek perumahan";"Jalan tunas";"89G9+MGW, Asiki, Kec. Jair, Kabupaten Boven Digoel, Papua 99661";"Asiki, Kec. Jair, Kabupaten Boven Digoel";"PAPUA";"99661";"Indonesia";"";"";"";"-6.6732701";"140.3688312";"https://maps.google.com/?cid=0x0:0x7dbd104cf614d0";""
"perumahan";"Perhimpunan Pengembang Perumahan";"Perumahan BTN VARA";"8CP7+P7C, Asiki, Kec. Jair, Kabupaten Boven Digoel, Papua 99661";"Asiki, Kec. Jair, Kabupaten Boven Digoel";"PAPUA";"99661";"Indonesia";"";"";"";"-6.6631883";"140.413141";"https://maps.google.com/?cid=0x0:0x1568487397bad504";""
"perumahan";"Perhimpunan Pengembang Perumahan";"Jils";"8CW9+PF2, Asiki, Kec. Jair, Kabupaten Boven Digoel, Papua 99661";"Asiki, Kec. Jair, Kabupaten Boven Digoel";"PAPUA";"99661";"Indonesia";"";"";"";"-6.6531275";"140.4186109";"https://maps.google.com/?cid=0x0:0x98a16482899ee452";""
"perumahan";"Perhimpunan Pengembang Perumahan";"Anggai";"J7MX+927, Anggai, Kec. Jair, Kabupaten Boven Digoel, Papua 99661";"Anggai, Kec. Jair, Kabupaten Boven Digoel";"PAPUA";"99661";"Indonesia";"";"";"";"-6.3665762";"140.2975573";"https://maps.google.com/?cid=0x0:0xb7f8bdd79eb5d2df";""
"perumahan";"Perhimpunan Pengembang Perumahan";"YR Kost";"9C5F+5FR, Asiki, Kec. Jair, Kabupaten Boven Digoel, Papua 99661";"Asiki, Kec. Jair, Kabupaten Boven Digoel";"PAPUA";"99661";"Indonesia";"";"";"";"-6.6420149";"140.4236432";"https://maps.google.com/?cid=0x0:0x8a49a0c8c6eca72d";""
"perumahan";"Komplek perumahan";"Bpk.fariz";"97M9+MCF, Getentiri, Kec. Jair, Kabupaten Boven Digoel, Papua 99661";"Getentiri, Kec. Jair, Kabupaten Boven Digoel";"PAPUA";"99661";"Indonesia";"";"";"";"-6.6158198";"140.2685418";"https://maps.google.com/?cid=0x0:0x7d9432e03735b64a";""
"perumahan";"Komplek perumahan";"KMG komPlex";"8CWF+4R7, Asiki, Kec. Jair, Kabupaten Boven Digoel, Papua 99661";"Asiki, Kec. Jair, Kabupaten Boven Digoel";"PAPUA";"99661";"Indonesia";"";"";"";"-6.6549182";"140.4251761";"https://maps.google.com/?cid=0x0:0xfefc51badd76306b";""
"perumahan";"Komplek perumahan";"Mega tiara";"8CX9+86M, Asiki, Kec. Jair, Kabupaten Boven Digoel, Papua 99661";"Asiki, Kec. Jair, Kabupaten Boven Digoel";"PAPUA";"99661";"Indonesia";"";"";"";"-6.6513865";"140.4180676";"https://maps.google.com/?cid=0x0:0x8f054797c08b0920";""
"perumahan";"Gedung Apartemen";"Jt expres asiki";"89G9+RH5, Asiki, Kec. Jair, Kabupaten Boven Digoel, Papua 99661";"Asiki, Kec. Jair, Kabupaten Boven Digoel";"PAPUA";"99661";"Indonesia";"";"";"";"-6.6729857";"140.3689919";"https://maps.google.com/?cid=0x0:0xcf2aee29af612477";""
"perumahan";"Komplek perumahan";"Rumah Bapa Barnabas Hadi";"8CJ6+Q7G, Asiki, Kec. Jair, Kabupaten Boven Digoel, Papua 99661";"Asiki, Kec. Jair, Kabupaten Boven Digoel";"PAPUA";"99661";"Indonesia";"";"";"";"-6.668054";"140.4106961";"https://maps.google.com/?cid=0x0:0x2bbe7bd3c6e874a8";""
"perumahan";"perumahan";"Miri";"J92H+Q3, Miri, Kec. Jair, Kabupaten Boven Digoel, Papua";"Kabupaten Boven Digoel, Papua";"PAPUA";"";"Indonesia";"";"";"";"-6.398039";"140.377713";"https://maps.google.com/?cid=0x0:0x787175cde0688895";""
"perumahan";"Kantor Perusahaan";"PT cipta abadi";"89G9+MGW, Asiki, Kec. Jair, Kabupaten Boven Digoel, Papua 99661";"Asiki, Kec. Jair, Kabupaten Boven Digoel";"PAPUA";"99661";"Indonesia";"";"";"";"-6.6732701";"140.3688312";"https://maps.google.com/?cid=0x0:0xfaaba3dac8cba946";""
"perumahan";"Perhimpunan Pengembang Perumahan";"Taihuttu";"Meranti 3 No.2, Papua selatan, Asiki, Kec. Jair, Kabupaten Boven Digoel, Papua 99661";"Papua selatan, Asiki, Kec. Jair, Kabupaten Boven Digoel";"PAPUA";"99661";"Indonesia";"";"";"";"-6.6732701";"140.3688312";"https://maps.google.com/?cid=0x0:0x98c588c7276b3760";""
"perumahan";"Rumah Kayu";"Barak binamarga";"89G9+MGW, Asiki, Kec. Jair, Kabupaten Boven Digoel, Papua 99661";"Asiki, Kec. Jair, Kabupaten Boven Digoel";"PAPUA";"99661";"Indonesia";"";"";"";"-6.6732701";"140.3688312";"https://maps.google.com/?cid=0x0:0x74ade66bdf4988a";""
"perumahan";"Rumah Kayu";"Rumah pak agung";"9C5C+5X, Asiki, Kec. Jair, Kabupaten Boven Digoel, Papua";"Kabupaten Boven Digoel, Papua";"PAPUA";"";"Indonesia";"";"";"";"-6.6420476";"140.4223983";"https://maps.google.com/?cid=0x0:0x839dc41beac1c637";""
"perumahan";"perumahan";"Phinisi.motor";"9HM5+487, Butiptiri, Kec. Jair, Kabupaten Boven Digoel, Papua";"Kabupaten Boven Digoel, Papua";"PAPUA";"";"Indonesia";" 085243185285";"";"";"-6.617149";"140.558385";"https://maps.google.com/?cid=0x0:0x6663ebaf43585f52";""
"perumahan";"perumahan";"Cendrawasih 5";"9C33+6W7, Asiki, Kec. Jair, Kabupaten Boven Digoel, Papua";"Kabupaten Boven Digoel, Papua";"PAPUA";"";"Indonesia";"";"";"";"-6.646954";"140.4048";"https://maps.google.com/?cid=0x0:0x67611e4171ad80c3";""
"perumahan";"Komplek perumahan";"Rumah Nikodemus Bayo";"C4GW+3JC, Watemu, Distrik Ki, Kabupaten Boven Digoel, Papua 99661";"Watemu, Distrik Ki, Kabupaten Boven Digoel";"PAPUA";"99661";"Indonesia";"";"";"";"-6.5748125";"140.1465156";"https://maps.google.com/?cid=0x0:0xc26ec5536e24de78";""
"perumahan";"Pembangunan Perumahan";"Kampung harapan";"5WF7+X5, Harapan, Venaha, Kabupaten Mappi, Papua";"Kabupaten Mappi, Papua";"PAPUA";"";"Indonesia";"";"";"";"-6.8250462";"139.9129838";"https://maps.google.com/?cid=0x0:0x3ef65292a4c275c3";""
"perumahan";"Komplek perumahan";"KENNY WENDELINO PLACE";"9C4F+78C, Asiki, Kec. Jair, Kabupaten Boven Digoel, Papua 99661";"Asiki, Kec. Jair, Kabupaten Boven Digoel";"PAPUA";"99661";"Indonesia";"";"";"";"-6.6443019";"140.4232657";"https://maps.google.com/?cid=0x0:0xc24da87a8abde5d4";""
"perumahan";"perumahan";"Distrik Bomakia";"Kabupaten Boven Digoel, Papua";"Kabupaten Boven Digoel, Papua";"PAPUA";"";"Indonesia";"";"";"";"-5.8066231";"139.8741906";"https://maps.google.com/?cid=0x0:0xd021b728f29c6a0f";""
"perumahan";"Balai masyarakat";"KAMPUNG AIFA";"7PQV+83X, Aifo, Distrik Bomakia, Kabupaten Boven Digoel, Papua";"Kabupaten Boven Digoel, Papua";"PAPUA";"";"Indonesia";"";"";"";"-5.7116281";"139.742726";"https://maps.google.com/?cid=0x0:0xe376516d868bb160";""
"perumahan";"Pembangunan Perumahan";"BOmakia";"W87Q+W32, Mindiptana - Tanah Merah, Persatuan, Kec. Mandobo, Kabupaten Boven Digoel, Papua 99663";"Mindiptana - Tanah Merah, Persatuan, Kec. Mandobo, Kabupaten Boven Digoel";"PAPUA";"99663";"Indonesia";"";"";"";"-6.0852394";"140.3376382";"https://maps.google.com/?cid=0x0:0xd40063b9120a933d";""
"perumahan";"perumahan";"Kampung Fefero";"9VJF+J2, Fefero, Yaniruma, Kabupaten Boven Digoel, Papua";"Kabupaten Boven Digoel, Papua";"PAPUA";"";"Indonesia";"";"";"";"-5.6184";"139.8725";"https://maps.google.com/?cid=0x0:0x401515b9c16a8196";""
"perumahan";"Perhimpunan Pengembang Perumahan";"Kampung Dema";"CW7C+PJ, Fefero, Yaniruma, Kabupaten Boven Digoel, Papua";"Kabupaten Boven Digoel, Papua";"PAPUA";"";"Indonesia";"";"";"";"-5.5857379";"139.9215974";"https://maps.google.com/?cid=0x0:0xdfbb89435792678";""
"perumahan";"Komplek perumahan";"Kampung kombut";"4VM3+3R, Mokbiran, Kombut, Kabupaten Boven Digoel, Papua";"Kabupaten Boven Digoel, Papua";"PAPUA";"";"Indonesia";"";"";"";"-5.867337";"140.854553";"https://maps.google.com/?cid=0x0:0x974c4c80658c3ceb";""
"perumahan";"Komplek perumahan";"Kampung Amuan";"5RQ3+HGR, Amuan, Kombut, Kabupaten Boven Digoel, Papua";"Kabupaten Boven Digoel, Papua";"PAPUA";"";"Indonesia";"";"";"";"-5.8110191";"140.8037525";"https://maps.google.com/?cid=0x0:0x4ddf99b7fbbde079";""
"perumahan";"perumahan";"Papua 99662";"Kabupaten Boven Digoel, Papua";"Kabupaten Boven Digoel, Papua";"PAPUA";"";"Indonesia";"";"";"";"-6.2486769";"140.7624493";"https://maps.google.com/?cid=0x0:0xd7a3af105311064b";""
"perumahan";"perumahan";"Distrik Iniyandit";"Kabupaten Boven Digoel, Papua";"Kabupaten Boven Digoel, Papua";"PAPUA";"";"Indonesia";"";"";"";"-5.7470313";"140.6432017";"https://maps.google.com/?cid=0x0:0xefab246d2462f016";""
"perumahan";"Komplek perumahan";"Kampung Wanggatkibi";"6PGH+655, Jalan Trans, Wanggatkibi, Kec. Mindiptana, Kabupaten Boven Digoel, Papua";"Kabupaten Boven Digoel, Papua";"PAPUA";"";"Indonesia";"";"";"";"-5.7744888";"140.7279975";"https://maps.google.com/?cid=0x0:0xb5bf752a922d4f35";""
"perumahan";"Komplek perumahan";"km 116 B";"Jln Trans Papua Km 116, Tabako, Waropko, Kabupaten Boven Digoel, Papua";"Kabupaten Boven Digoel, Papua";"PAPUA";"";"Indonesia";"";"";"";"-5.623268";"140.713806";"https://maps.google.com/?cid=0x0:0x86288764aff0878c";""
"perumahan";"Komplek perumahan";"Rumahqu";"4P94+MH, Niyimbang, Kec. Mindiptana, Kabupaten Boven Digoel, Papua";"Kabupaten Boven Digoel, Papua";"PAPUA";"";"Indonesia";"";"";"";"-5.8807718";"140.7064533";"https://maps.google.com/?cid=0x0:0x3896127d127611b7";""
"perumahan";"Kantor Pemerintah Distrik";"Sekretariat PPD Mindiptana";"4M2M+JRP, JL. Pancuran, Mindiptana, Kec. Mindiptana, Kabupaten Boven Digoel, Papua 99662";"JL. Pancuran, Mindiptana, Kec. Mindiptana, Kabupaten Boven Digoel";"PAPUA";"99662";"Indonesia";"";"";"";"-5.8984168";"140.6845648";"https://maps.google.com/?cid=0x0:0xb140f6435f689920";""
"perumahan";"Komplek perumahan";"RN Imigrasi Mindiptana";"4PF2+3VM, Mindiptana, Kec. Mindiptana, Kabupaten Boven Digoel, Papua";"Kabupaten Boven Digoel, Papua";"PAPUA";"";"Indonesia";"";"";"";"-5.8772941";"140.702171";"https://maps.google.com/?cid=0x0:0x493e070ff90c3463";""
"perumahan";"perumahan";"SH Mindiptana";"4MHW+XQV, Mindiptana, Kec. Mindiptana, Kabupaten Boven Digoel, Papua 99662";"Mindiptana, Kec. Mindiptana, Kabupaten Boven Digoel";"PAPUA";"99662";"Indonesia";"";"";"";"-5.870964";"140.697402";"https://maps.google.com/?cid=0x0:0x5136861d3db7c784";""
"perumahan";"Pembangunan Perumahan";"Kampung Anumka";"FM9V+5F3, Anyumka, Ambatkwi, Kabupaten Boven Digoel, Papua";"Kabupaten Boven Digoel, Papua";"PAPUA";"";"Indonesia";"";"";"";"-5.5321143";"140.6936585";"https://maps.google.com/?cid=0x0:0x51de578cfd1736";""
"perumahan";"Balai Pertemuan Desa";"Kampung persiapan menyak";"5CPJ+98W, Patriot, Arimop, Kabupaten Boven Digoel, Papua";"Kabupaten Boven Digoel, Papua";"PAPUA";"";"Indonesia";"";"";"";"-5.8140209";"140.4308159";"https://maps.google.com/?cid=0x0:0x600831fb4468e415";""
"perumahan";"Pembangunan Perumahan";"Kampung anggumbit";"4P66+FR, Anggumbit, Kec. Mindiptana, Kabupaten Boven Digoel, Papua";"Kabupaten Boven Digoel, Papua";"PAPUA";"";"Indonesia";"";"";"";"-5.888852";"140.712089";"https://maps.google.com/?cid=0x0:0x24c5733ed38a622d";""
"perumahan";"Pembangunan Perumahan";"Arimbet";"5G78+X5, Ginggimob, Arimop, Kabupaten Boven Digoel, Papua";"Kabupaten Boven Digoel, Papua";"PAPUA";"";"Indonesia";"";"";"";"-5.8350348";"140.5154432";"https://maps.google.com/?cid=0x0:0x74f37e1909beb8bf";""
"perumahan";"Komplek perumahan";"TITI Laundry";"785X+X7V Jln Belanda lama kos Ayub Santy, Ujung, Arimop, Kabupaten Boven Digoel, Papua";"Kabupaten Boven Digoel, Papua";"PAPUA";"";"Indonesia";"";"";"";"-5.7400018";"140.3481835";"https://maps.google.com/?cid=0x0:0xa0b11255bc8cd7b4";""
"perumahan";"perumahan";"kampung anggamburan";"XMVP+5H, Amboran, Anggambura, Kabupaten Boven Digoel, Papua";"Kabupaten Boven Digoel, Papua";"PAPUA";"";"Indonesia";"";"";"";"-6.0070625";"140.6864375";"https://maps.google.com/?cid=0x0:0xedb6c09d558b4dac";""
"perumahan";"Komplek perumahan";"Mindiptana Village";"4MJW+6PM, RT.03/RW.01, Mindiptana, Kec. Mindiptana, Kabupaten Boven Digoel, Papua";"Kabupaten Boven Digoel, Papua";"PAPUA";"";"Indonesia";"";"";"";"-5.8694232";"140.696795";"https://maps.google.com/?cid=0x0:0xcae36f55e1ec8736";""
"perumahan";"Komplek perumahan";"Kampung Amuan";"5RQ3+HGR, Amuan, Kombut, Kabupaten Boven Digoel, Papua";"Kabupaten Boven Digoel, Papua";"PAPUA";"";"Indonesia";"";"";"";"-5.8110191";"140.8037525";"https://maps.google.com/?cid=0x0:0x4ddf99b7fbbde079";""
"perumahan";"perumahan";"Arimop";"Kabupaten Boven Digoel, Papua";"Kabupaten Boven Digoel, Papua";"PAPUA";"";"Indonesia";"";"";"";"-5.8140209";"140.4308159";"https://maps.google.com/?cid=0x0:0xf6e05b87dda2034d";""
"perumahan";"Taman";"Distrik arimop";"Jl. Arimop, Persatuan, Kec. Mandobo, Kabupaten Boven Digoel, Papua 99663";"Persatuan, Kec. Mandobo, Kabupaten Boven Digoel";"PAPUA";"99663";"Indonesia";"";"";"";"-6.0972184";"140.3091796";"https://maps.google.com/?cid=0x0:0x42bd57825146a2f8";""
"perumahan";"Pembangunan Perumahan";"Distrik arimop";"785X+X7V, Ujung, Arimop, Kabupaten Boven Digoel, Papua";"Kabupaten Boven Digoel, Papua";"PAPUA";"";"Indonesia";"";"";"";"-5.7400018";"140.3481835";"https://maps.google.com/?cid=0x0:0x58fdcd0d83c2efd3";""
"perumahan";"Pembangunan Perumahan";"Kecamatan mandobo";"785X+X7V, Ujung, Arimop, Kabupaten Boven Digoel, Papua 99663";"Ujung, Arimop, Kabupaten Boven Digoel";"PAPUA";"99663";"Indonesia";" 082238850712";"";"";"-5.7400018";"140.3481835";"https://maps.google.com/?cid=0x0:0x7cca82548553038f";""
"perumahan";"Pembangunan Perumahan";"Arimbet";"5G78+X5, Ginggimob, Arimop, Kabupaten Boven Digoel, Papua";"Kabupaten Boven Digoel, Papua";"PAPUA";"";"Indonesia";"";"";"";"-5.8350348";"140.5154432";"https://maps.google.com/?cid=0x0:0x74f37e1909beb8bf";""
"perumahan";"Pembangunan Perumahan";"Kios Arumi";"785X+X7V, Jl SMA abonggo, Ujung, Arimop, Kabupaten Boven Digoel, Papua";"Kabupaten Boven Digoel, Papua";"PAPUA";"";"Indonesia";"";"";"";"-5.7400018";"140.3481835";"https://maps.google.com/?cid=0x0:0xf53f91790c52f974";""
"perumahan";"perumahan";"lucky kaki hary";"785X+X7V, spay, Arimop, Kabupaten Boven Digoel, Papua";"Kabupaten Boven Digoel, Papua";"PAPUA";"";"Indonesia";"";"";"";"-5.7400018";"140.3481835";"https://maps.google.com/?cid=0x0:0x75185be01db2535e";""
"perumahan";"Pembangunan Perumahan";"Coret Karwayu";"782X+2GR, Ujung, Arimop, Kabupaten Boven Digoel, Papua";"Kabupaten Boven Digoel, Papua";"PAPUA";"";"Indonesia";"";"";"";"-5.7498932";"140.3487626";"https://maps.google.com/?cid=0x0:0xe8694680a7c9b1c4";""
"perumahan";"Komplek perumahan";"TITI Laundry";"785X+X7V Jln Belanda lama kos Ayub Santy, Ujung, Arimop, Kabupaten Boven Digoel, Papua";"Kabupaten Boven Digoel, Papua";"PAPUA";"";"Indonesia";"";"";"";"-5.7400018";"140.3481835";"https://maps.google.com/?cid=0x0:0xa0b11255bc8cd7b4";""
"perumahan";"Pembangunan Perumahan";"Tanah merah";"Jalan trans Papua No.km 3, Ujung, Arimop, Kabupaten Boven Digoel, Papua";"Kabupaten Boven Digoel, Papua";"PAPUA";"";"Indonesia";"";"";"";"-5.7400018";"140.3481835";"https://maps.google.com/?cid=0x0:0xcb65b65b5aacf92c";""
"perumahan";"Komplek perumahan";"Perumahan Pegawai KM 3";"W84H+RHH, Transpapua, Kec. Mandobo, Kabupaten Boven Digoel, Papua 99663";"Transpapua, Kec. Mandobo, Kabupaten Boven Digoel";"PAPUA";"99663";"Indonesia";"";"";"";"-6.0929479";"140.3289743";"https://maps.google.com/?cid=0x0:0xfef02e7b6d5a573e";""
"perumahan";"Komplek perumahan";"Perumahan Ambonggo";"W868+P9P, Unnamed Road, Persatuan, Kec. Mandobo, Kabupaten Boven Digoel, Papua 99663";"Unnamed Road, Persatuan, Kec. Mandobo, Kabupaten Boven Digoel";"PAPUA";"99663";"Indonesia";"";"";"";"-6.0881572";"140.3159401";"https://maps.google.com/?cid=0x0:0x4ae63b1f7fa71be7";""
"perumahan";"perumahan";"Kampung yare/afu";"JR7G+F3, Hello, Distrik Fofi, Kabupaten Boven Digoel, Papua";"Kabupaten Boven Digoel, Papua";"PAPUA";"";"Indonesia";"";"";"";"-6.3862598";"139.825179";"https://maps.google.com/?cid=0x0:0x47eef3653f336eba";""
"perumahan";"perumahan";"Distrik Fofi";"Kabupaten Boven Digoel, Papua";"Kabupaten Boven Digoel, Papua";"PAPUA";"";"Indonesia";"";"";"";"-6.2111813";"139.855567";"https://maps.google.com/?cid=0x0:0xed105c6777af2f3e";""
"perumahan";"perumahan";"Devi Ayu Sarwati";"JWWW+QQ4, Bangun, Distrik Fofi, Kabupaten Boven Digoel, Papua";"Kabupaten Boven Digoel, Papua";"PAPUA";"";"Indonesia";"";"";"";"-6.3531181";"139.9469432";"https://maps.google.com/?cid=0x0:0x4bda0b2cded12999";""
"perumahan";"perumahan";"Rumah Jabatan SEKDIS Fofi";"VW6W+987, Jalan Ware, Makmur, Fofi, Boven Digoel Regency, Papua 99663";"Jalan Ware, Makmur, Fofi, Boven Digoel Regency";"PAPUA";"99663";"Indonesia";"";"";"";"-6.1390804";"139.9458084";"https://maps.google.com/?cid=0x0:0x13e52cb7d6bcb897";""
"perumahan";"Kantor Pemerintah";"Puskesmas Fofi";"VW8H+3JG, jln, penkes, Navini, Fofi, Boven Digoel Regency, Papua 99663";"jln, penkes, Navini, Fofi, Boven Digoel Regency";"PAPUA";"99663";"Indonesia";"";"";"";"-6.1348224";"139.9290637";"https://maps.google.com/?cid=0x0:0x45a30842f84a2bd6";""
"perumahan";"Komplek perumahan";"Perumahan Ambonggo Belakang Kanan";"XW5P+QMP, Sokanggo, Kec. Mandobo, Kabupaten Boven Digoel, Papua";"Kabupaten Boven Digoel, Papua";"PAPUA";"";"Indonesia";"";"";"";"-6.040549";"139.9366899";"https://maps.google.com/?cid=0x0:0x2df0132dffd8a03b";""
"perumahan";"perumahan";"Ambatkwi";"Kabupaten Boven Digoel, Papua";"Kabupaten Boven Digoel, Papua";"PAPUA";"";"Indonesia";"";"";"";"-5.3948021";"140.6378804";"https://maps.google.com/?cid=0x0:0x3a215afc7936b662";""
"perumahan";"perumahan";"Papua 99664";"Kabupaten Boven Digoel, Papua";"Kabupaten Boven Digoel, Papua";"PAPUA";"";"Indonesia";"";"";"";"-5.5720214";"140.7624493";"https://maps.google.com/?cid=0x0:0x4763b936197cab93";""
"perumahan";"perumahan";"Manggelum";"Distrik Manggelum, Kabupaten Boven Digoel, Papua";"Kabupaten Boven Digoel, Papua";"PAPUA";"";"Indonesia";"";"";"";"-5.3697435";"140.4204808";"https://maps.google.com/?cid=0x0:0xa227866e6b216e";""
"perumahan";"Pembangunan Perumahan";"Kewam";"HC8G+W7R, Kewam, Distrik Manggelum, Kabupaten Boven Digoel, Papua";"Kabupaten Boven Digoel, Papua";"PAPUA";"";"Indonesia";"";"";"";"-5.4326374";"140.4256481";"https://maps.google.com/?cid=0x0:0xfc7fa5a47e94dcb";""
"perumahan";"Komplek perumahan";"KAMPUNG KOLOPKAM";"MF8C+W2, Kolopkam, Ambatkwi, Kabupaten Boven Digoel, Papua 99665";"Kolopkam, Ambatkwi, Kabupaten Boven Digoel";"PAPUA";"99665";"Indonesia";"";"";"";"-5.3327478";"140.4700495";"https://maps.google.com/?cid=0x0:0x3b8f2568a494cd63";""
"perumahan";"perumahan";"Distrik Manggelum";"Kabupaten Boven Digoel, Papua";"Kabupaten Boven Digoel, Papua";"PAPUA";"";"Indonesia";"";"";"";"-5.3141695";"140.3212401";"https://maps.google.com/?cid=0x0:0xda512ae0ae71c8e3";""
"perumahan";"perumahan";"Firiwage";"Kabupaten Boven Digoel, Papua";"Kabupaten Boven Digoel, Papua";"PAPUA";"";"Indonesia";"";"";"";"-5.386511";"140.1009527";"https://maps.google.com/?cid=0x0:0x46c5d4072a44c619";""
"perumahan";"perumahan";"Firiwage";"Firiwage, Kabupaten Boven Digoel, Papua";"Kabupaten Boven Digoel, Papua";"PAPUA";"";"Indonesia";"";"";"";"-5.520689";"140.115204";"https://maps.google.com/?cid=0x0:0x19410c614180567f";""
"perumahan";"perumahan";"Kec. Tebet";"Kota Jakarta Selatan, Daerah Khusus Ibukota Jakarta";"Kota Jakarta Selatan, Daerah Khusus Ibukota Jakarta";"PAPUA";"";"Indonesia";"";"";"";"-6.2251223";"106.8549881";"https://maps.google.com/?cid=0x0:0xd575e31c807295f9";""
"perumahan";"Kantor distrik";"Sanggar budaya firiwage";"F4GV+8MF, Firiwage, Kabupaten Boven Digoel, Papua 99665";"Firiwage, Kabupaten Boven Digoel";"PAPUA";"99665";"Indonesia";"";"";"";"-5.5235491";"140.1439086";"https://maps.google.com/?cid=0x0:0x4cfc4b9dc1fd679f";""
"perumahan";"Perhimpunan Pengembang Perumahan";"Kampung karuwage";"H3M5+CW9, Karuwage, Firiwage, Kabupaten Boven Digoel, Papua 99665";"Karuwage, Firiwage, Kabupaten Boven Digoel";"PAPUA";"99665";"Indonesia";"";"";"";"-5.4164746";"140.059845";"https://maps.google.com/?cid=0x0:0x9ab5207cd95e8f53";""
"perumahan";"perumahan";"Papua 99664";"Kabupaten Boven Digoel, Papua";"Kabupaten Boven Digoel, Papua";"PAPUA";"";"Indonesia";"";"";"";"-5.5720214";"140.7624493";"https://maps.google.com/?cid=0x0:0x4763b936197cab93";""
"perumahan";"perumahan";"Yaniruma";"Kabupaten Boven Digoel, Papua";"Kabupaten Boven Digoel, Papua";"PAPUA";"";"Indonesia";"";"";"";"-5.3309677";"139.8137871";"https://maps.google.com/?cid=0x0:0x9130b38cdf369076";""
"perumahan";"perumahan";"Yaniruma";"Yaniruma, Kabupaten Boven Digoel, Papua";"Kabupaten Boven Digoel, Papua";"PAPUA";"";"Indonesia";"";"";"";"-5.133259";"139.8137871";"https://maps.google.com/?cid=0x0:0x7438a5bbd533ec60";""
"perumahan";"perumahan";"Kampung gaguop";"MGGF+68, Bayanggop, Distrik Manggelum, Kabupaten Boven Digoel, Papua";"Kabupaten Boven Digoel, Papua";"PAPUA";"";"Indonesia";"";"";"";"-5.324263";"140.523927";"https://maps.google.com/?cid=0x0:0x40452a935cbef519";""
"perumahan";"Pembangunan Perumahan";"Arimbet";"5G78+X5, Ginggimob, Arimop, Kabupaten Boven Digoel, Papua";"Kabupaten Boven Digoel, Papua";"PAPUA";"";"Indonesia";"";"";"";"-5.8350348";"140.5154432";"https://maps.google.com/?cid=0x0:0x74f37e1909beb8bf";""
"perumahan";"Balai Pertemuan Desa";"Kampung persiapan menyak";"5CPJ+98W, Patriot, Arimop, Kabupaten Boven Digoel, Papua";"Kabupaten Boven Digoel, Papua";"PAPUA";"";"Indonesia";"";"";"";"-5.8140209";"140.4308159";"https://maps.google.com/?cid=0x0:0x600831fb4468e415";""
"perumahan";"Asosiasi/organisasi";"BAYANGGOP";"MGGF+68, Bayanggop, Distrik Manggelum, Kabupaten Boven Digoel, Papua";"Kabupaten Boven Digoel, Papua";"PAPUA";"";"Indonesia";"";"";"";"-5.324429";"140.523328";"https://maps.google.com/?cid=0x0:0xa144f7a671dc2b34";""
"perumahan";"perumahan";"Kampung Fefero";"9VJF+J2, Fefero, Yaniruma, Kabupaten Boven Digoel, Papua";"Kabupaten Boven Digoel, Papua";"PAPUA";"";"Indonesia";"";"";"";"-5.6184";"139.8725";"https://maps.google.com/?cid=0x0:0x401515b9c16a8196";""
"perumahan";"Balai Pertemuan Desa";"Kampung persiapan jerop";"8HGJ+5R, Maju, Arimop, Kabupaten Boven Digoel, Papua";"Kabupaten Boven Digoel, Papua";"PAPUA";"";"Indonesia";"";"";"";"-5.674533";"140.582121";"https://maps.google.com/?cid=0x0:0x45d84521feb6472c";""
"perumahan";"Perhimpunan Pengembang Perumahan";"Musaima natason";"RPRW+2C, Yaniruma, Kabupaten Boven Digoel, Papua";"Kabupaten Boven Digoel, Papua";"PAPUA";"";"Indonesia";"";"";"";"-5.159911";"139.746066";"https://maps.google.com/?cid=0x0:0x5d2a5ae6f0be5154";""
"perumahan";"Perhimpunan Pengembang Perumahan";"Kampung Dema";"CW7C+PJ, Fefero, Yaniruma, Kabupaten Boven Digoel, Papua";"Kabupaten Boven Digoel, Papua";"PAPUA";"";"Indonesia";"";"";"";"-5.5857379";"139.9215974";"https://maps.google.com/?cid=0x0:0xdfbb89435792678";""
"perumahan";"Pembangunan Perumahan";"Kewam";"HC8G+W7R, Kewam, Distrik Manggelum, Kabupaten Boven Digoel, Papua";"Kabupaten Boven Digoel, Papua";"PAPUA";"";"Indonesia";"";"";"";"-5.4326374";"140.4256481";"https://maps.google.com/?cid=0x0:0xfc7fa5a47e94dcb";""
"perumahan";"perumahan";"Papua 99661";"Kabupaten Boven Digoel, Papua";"Kabupaten Boven Digoel, Papua";"PAPUA";"";"Indonesia";"";"";"";"-6.6725506";"140.1832516";"https://maps.google.com/?cid=0x0:0x6942b94e71194057";""
"perumahan";"Rumah Sakit";"Perum Puskesmas Subur";"85GM+X8C Jln. NINO, Subur, Distrik Ki, Kabupaten Boven Digoel, Papua 99661";"Subur, Distrik Ki, Kabupaten Boven Digoel";"PAPUA";"99661";"Indonesia";"";"";"";"-6.6725506";"140.1832516";"https://maps.google.com/?cid=0x0:0x5a6f7f641b216188";""
"perumahan";"Kantor Pemerintah Distrik";"Distrik subur";"57GM+5VJ, Unnamed Road, Subur, Kabupaten Boven Digoel, Papua 99661";"Unnamed Road, Subur, Kabupaten Boven Digoel";"PAPUA";"99661";"Indonesia";"";"";"";"-6.8245428";"140.2846428";"https://maps.google.com/?cid=0x0:0x93aae9698ac53b28";""
"perumahan";"perumahan";"Papua 99664";"Kabupaten Boven Digoel, Papua";"Kabupaten Boven Digoel, Papua";"PAPUA";"";"Indonesia";"";"";"";"-5.5720214";"140.7624493";"https://maps.google.com/?cid=0x0:0x4763b936197cab93";""
"perumahan";"perumahan";"Distrik Kombay";"Kabupaten Boven Digoel, Papua";"Kabupaten Boven Digoel, Papua";"PAPUA";"";"Indonesia";"";"";"";"-5.2411588";"140.002598";"https://maps.google.com/?cid=0x0:0xc9517f2d74b67994";""
"perumahan";"Komplek perumahan";"Perumahan Citra Indah City Jonggol";"Jl. Raya Cileungsi - Jonggol No.Km.23, Sukamaju, Kec. Jonggol, Kabupaten Bogor, Jawa Barat 16830";"Sukamaju, Kec. Jonggol, Kabupaten Bogor";"PAPUA";"16830";"Indonesia";" 081281106515";"";"";"-6.4398138";"107.0493173";"https://maps.google.com/?cid=0x0:0xf4294b08f982b372";""
"perumahan";"Sarapan";"Seafood 409";"Blok CS5 No.10, Cipeucang, Kec. Cileungsi, Kabupaten Bogor, Jawa Barat 16820";"Cipeucang, Kec. Cileungsi, Kabupaten Bogor";"PAPUA";"16820";"Indonesia";"";"";"";"-6.4361487";"107.0511122";"https://maps.google.com/?cid=0x0:0x21dea5109e5e8d8b";""
"perumahan";"perumahan";"Ninati";"Kec. Ninati, Kabupaten Boven Digoel, Papua";"Kabupaten Boven Digoel, Papua";"PAPUA";"";"Indonesia";"";"";"";"-5.6921917";"140.8976772";"https://maps.google.com/?cid=0x0:0x13da9fadbf1b0435";""
"perumahan";"Perhimpunan Pengembang Perumahan";"KAMPUNG KONOMTETBUT";"7WX5+55H, Ninati, Kec. Ninati, Kabupaten Boven Digoel, Papua";"Kabupaten Boven Digoel, Papua";"PAPUA";"";"Indonesia";" 082199247483";"";"";"-5.7020618";"140.9079885";"https://maps.google.com/?cid=0x0:0xdadd35402286eb85";""
"perumahan";"Pembangunan Perumahan";"KAMPUNG KAMAKBON, DISTRIK NINATI";"SELATAN, KAMPUNG KAMAKBON, Kec. Ninati, Kabupaten Boven Digoel, Papua 99683";"KAMPUNG KAMAKBON, Kec. Ninati, Kabupaten Boven Digoel";"PAPUA";"99683";"Indonesia";" 082312333149";"";"";"-5.7014629";"140.9080913";"https://maps.google.com/?cid=0x0:0xf69c18569bcf1565";""
"perumahan";"perumahan";"Sesnuk";"Kec. Sesnuk, Kabupaten Boven Digoel, Papua";"Kabupaten Boven Digoel, Papua";"PAPUA";"";"Indonesia";"";"";"";"-6.1921334";"140.700134";"https://maps.google.com/?cid=0x0:0x5a676998cc2d21aa";""
"perumahan";"Pembangunan Perumahan";"Sesnukt";"RPHM+2VM, Sesnuk, Kec. Sesnuk, Kabupaten Boven Digoel, Papua 99662";"Sesnuk, Kec. Sesnuk, Kabupaten Boven Digoel";"PAPUA";"99662";"Indonesia";"";"";"";"-6.1712723";"140.734579";"https://maps.google.com/?cid=0x0:0x9ffeaa59de2473c4";""
"perumahan";"Komplek perumahan";"Village";"VRC3+M6, Kombut, Kabupaten Boven Digoel, Papua";"Kabupaten Boven Digoel, Papua";"PAPUA";"";"Indonesia";"";"";"";"-6.1283313";"140.8030481";"https://maps.google.com/?cid=0x0:0x8067527c137d0dd8";""
"perumahan";"perumahan";"Papua 99661";"Kabupaten Boven Digoel, Papua";"Kabupaten Boven Digoel, Papua";"PAPUA";"";"Indonesia";"";"";"";"-6.6725506";"140.1832516";"https://maps.google.com/?cid=0x0:0x6942b94e71194057";""
"perumahan";"Komplek perumahan";"Rumah Nikodemus Bayo";"C4GW+3JC, Watemu, Distrik Ki, Kabupaten Boven Digoel, Papua 99661";"Watemu, Distrik Ki, Kabupaten Boven Digoel";"PAPUA";"99661";"Indonesia";"";"";"";"-6.5748125";"140.1465156";"https://maps.google.com/?cid=0x0:0xc26ec5536e24de78";""
"perumahan";"Rumah Sakit";"Perum Puskesmas Subur";"85GM+X8C Jln. NINO, Subur, Distrik Ki, Kabupaten Boven Digoel, Papua 99661";"Subur, Distrik Ki, Kabupaten Boven Digoel";"PAPUA";"99661";"Indonesia";"";"";"";"-6.6725506";"140.1832516";"https://maps.google.com/?cid=0x0:0x5a6f7f641b216188";""
"perumahan";"Perumahan";"Kavling yulia residence 1";"Kp leles des, Sindangsari, Kec. Ps. Kemis, Kabupaten Tangerang, Banten 15560";"Sindangsari, Kec. Ps. Kemis, Kabupaten Tangerang";"PAPUA";"15560";"Indonesia";" 08978334756";"";"";"-6.1299358";"106.5472699";"https://maps.google.com/?cid=0x0:0x29629b08e38f5b2";""
"perumahan";"Komplek perumahan";"Sasa mantap";"Perumahan pondok mekarsari permai jl.kelapa No.10 blok n, RT.06/RW.012, Mekarsari, Kec. Cimanggis, Kota Depok, Jawa Barat 16439";"RT.06/RW.012, Mekarsari, Kec. Cimanggis, Kota Depok";"PAPUA";"16439";"Indonesia";" 087785259858";"";"";"-6.3573931";"106.8698855";"https://maps.google.com/?cid=0x0:0xdb9156997ba48ff8";""
"perumahan";"Komplek perumahan";"Jual/Beli Rumah";"Sepatan, Kecamatan Pakuhaji, Kabupaten Tangerang, Banten 15520";"Kecamatan Pakuhaji, Kabupaten Tangerang";"PAPUA";"15520";"Indonesia";" 085213675060";"";"";"-6.1186354";"106.5760811";"https://maps.google.com/?cid=0x0:0xcaea0e544db46f0f";""
"perumahan";"Perumahan";"Perumahan pondok rawamas indah F5 no 26";"HFJH+MHG, Unnamed Road, Jomin Bar., Kec. Kota Baru, Karawang, Jawa Barat 41374";"Unnamed Road, Jomin Bar., Kec. Kota Baru, Karawang";"PAPUA";"41374";"Indonesia";"";"";"";"-6.4183024";"107.4789409";"https://maps.google.com/?cid=0x0:0x717aa00551b6f128";""
"perumahan";"Perumahan";"Kavling yulia residence 3";"Kp leles No.RT 001/007, Sindangsari, Kec. Ps. Kemis, Kabupaten, Banten 15560";"Sindangsari, Kec. Ps. Kemis, Kabupaten";"PAPUA";"15560";"Indonesia";" 08978334756";"";"";"-6.1353227";"106.5451194";"https://maps.google.com/?cid=0x0:0x2b58098859134596";""
"perumahan";"perumahan";"Kawagit";"Kawagit, Kabupaten Boven Digoel, Papua";"Kabupaten Boven Digoel, Papua";"PAPUA";"";"Indonesia";"";"";"";"-5.6361368";"140.3069088";"https://maps.google.com/?cid=0x0:0x41ac9de9f0403258";""
"perumahan";"perumahan";"Papua 99665";"Kabupaten Boven Digoel, Papua";"Kabupaten Boven Digoel, Papua";"PAPUA";"";"Indonesia";"";"";"";"-5.3993592";"140.265662";"https://maps.google.com/?cid=0x0:0x130a65ebf9121fb9";""
"perumahan";"Kantor Pemerintah Distrik";"Kampung Sinimburu";"PW4V+7C, Manggemahe, Yaniruma, Kabupaten Boven Digoel, Papua 99663";"Manggemahe, Yaniruma, Kabupaten Boven Digoel";"PAPUA";"99663";"Indonesia";"";"";"";"-5.2943494";"139.9435908";"https://maps.google.com/?cid=0x0:0xf5beec574b8d22a6";""
"perumahan";"perumahan";"danowage";"R6V2+6X, Yelobib, Distrik Awinbon, Kabupaten Pegunungan Bintang, Papua";"Kabupaten Pegunungan Bintang, Papua";"PAPUA";"";"Indonesia";"";"";"";"-5.156967";"140.202453";"https://maps.google.com/?cid=0x0:0x3ee5751a43366ae5";""
"perumahan";"Perhimpunan Pengembang Perumahan";"Kampung karuwage";"H3M5+CW9, Karuwage, Firiwage, Kabupaten Boven Digoel, Papua 99665";"Karuwage, Firiwage, Kabupaten Boven Digoel";"PAPUA";"99665";"Indonesia";"";"";"";"-5.4164746";"140.059845";"https://maps.google.com/?cid=0x0:0x9ab5207cd95e8f53";""
"perumahan";"Komplek perumahan";"KAMPUNG KOLOPKAM";"MF8C+W2, Kolopkam, Ambatkwi, Kabupaten Boven Digoel, Papua 99665";"Kolopkam, Ambatkwi, Kabupaten Boven Digoel";"PAPUA";"99665";"Indonesia";"";"";"";"-5.3327478";"140.4700495";"https://maps.google.com/?cid=0x0:0x3b8f2568a494cd63";""
"perumahan";"Pembangunan Perumahan";"Kewam";"HC8G+W7R, Kewam, Distrik Manggelum, Kabupaten Boven Digoel, Papua";"Kabupaten Boven Digoel, Papua";"PAPUA";"";"Indonesia";"";"";"";"-5.4326374";"140.4256481";"https://maps.google.com/?cid=0x0:0xfc7fa5a47e94dcb";""
"perumahan";"perumahan";"Balai Penyuluh KB";"J472+99W, Karuwage, Firiwage, Kabupaten Boven Digoel, Papua 99665";"Karuwage, Firiwage, Kabupaten Boven Digoel";"PAPUA";"99665";"Indonesia";"";"";"";"-5.386511";"140.1009527";"https://maps.google.com/?cid=0x0:0x80bea6fcdcdd0196";""
"perumahan";"Perhimpunan Pengembang Perumahan";"Kampung Dema";"CW7C+PJ, Fefero, Yaniruma, Kabupaten Boven Digoel, Papua";"Kabupaten Boven Digoel, Papua";"PAPUA";"";"Indonesia";"";"";"";"-5.5857379";"139.9215974";"https://maps.google.com/?cid=0x0:0xdfbb89435792678";""
"perumahan";"Asosiasi/organisasi";"BAYANGGOP";"MGGF+68, Bayanggop, Distrik Manggelum, Kabupaten Boven Digoel, Papua";"Kabupaten Boven Digoel, Papua";"PAPUA";"";"Indonesia";"";"";"";"-5.324429";"140.523328";"https://maps.google.com/?cid=0x0:0xa144f7a671dc2b34";""
"perumahan";"Kantor distrik";"Sanggar budaya firiwage";"F4GV+8MF, Firiwage, Kabupaten Boven Digoel, Papua 99665";"Firiwage, Kabupaten Boven Digoel";"PAPUA";"99665";"Indonesia";"";"";"";"-5.5235491";"140.1439086";"https://maps.google.com/?cid=0x0:0x4cfc4b9dc1fd679f";""
"perumahan";"perumahan";"Kampung Fefero";"9VJF+J2, Fefero, Yaniruma, Kabupaten Boven Digoel, Papua";"Kabupaten Boven Digoel, Papua";"PAPUA";"";"Indonesia";"";"";"";"-5.6184";"139.8725";"https://maps.google.com/?cid=0x0:0x401515b9c16a8196";""
"perumahan";"perumahan";"Biwage";"F7V8+4F, Biwage, Kawagit, Kabupaten Boven Digoel, Papua";"Kabupaten Boven Digoel, Papua";"PAPUA";"";"Indonesia";"";"";"";"-5.5072394";"140.2661409";"https://maps.google.com/?cid=0x0:0xd3b2f8076e6c2ef5";""
"perumahan";"Balai Pertemuan Desa";"Kampung persiapan menyak";"5CPJ+98W, Patriot, Arimop, Kabupaten Boven Digoel, Papua";"Kabupaten Boven Digoel, Papua";"PAPUA";"";"Indonesia";"";"";"";"-5.8140209";"140.4308159";"https://maps.google.com/?cid=0x0:0x600831fb4468e415";""
"perumahan";"Komplek perumahan";"Rumah Tete Koor Kwanimba";"56W8+234, Jair, Distrik Kouh, Kabupaten Boven Digoel, Papua";"Kabupaten Boven Digoel, Papua";"PAPUA";"";"Indonesia";"";"";"";"-5.8049835";"140.2152041";"https://maps.google.com/?cid=0x0:0x77b3b20448c1da86";""
"perumahan";"Pembangunan Perumahan";"Coret Karwayu";"782X+2GR, Ujung, Arimop, Kabupaten Boven Digoel, Papua";"Kabupaten Boven Digoel, Papua";"PAPUA";"";"Indonesia";"";"";"";"-5.7498932";"140.3487626";"https://maps.google.com/?cid=0x0:0xe8694680a7c9b1c4";""
"perumahan";"perumahan";"Dusun Yahuwahi";"C553+GW, Firiwage, Kabupaten Boven Digoel, Papua";"Kabupaten Boven Digoel, Papua";"PAPUA";"";"Indonesia";"";"";"";"-5.5912069";"140.1548269";"https://maps.google.com/?cid=0x0:0xb518a55dd42cc6df";""
"perumahan";"Balai masyarakat";"KAMPUNG AIFA";"7PQV+83X, Aifo, Distrik Bomakia, Kabupaten Boven Digoel, Papua";"Kabupaten Boven Digoel, Papua";"PAPUA";"";"Indonesia";"";"";"";"-5.7116281";"139.742726";"https://maps.google.com/?cid=0x0:0xe376516d868bb160";""
"perumahan";"perumahan";"Dusun Anolo";"C54J+J4, Kawagit, Kabupaten Boven Digoel, Papua";"Kabupaten Boven Digoel, Papua";"PAPUA";"";"Indonesia";"";"";"";"-5.5934776";"140.1803642";"https://maps.google.com/?cid=0x0:0xe39f0a60d3575d51";""
"perumahan";"Pembangunan Perumahan";"Arimbet";"5G78+X5, Ginggimob, Arimop, Kabupaten Boven Digoel, Papua";"Kabupaten Boven Digoel, Papua";"PAPUA";"";"Indonesia";"";"";"";"-5.8350348";"140.5154432";"https://maps.google.com/?cid=0x0:0x74f37e1909beb8bf";""
"perumahan";"Pusat Kesehatan Masyarakat";"PUSKESMAS MANGGELUM";"HC8G+W7R, Kewam, Distrik Manggelum, Kabupaten Boven Digoel, Papua 99665";"Kewam, Distrik Manggelum, Kabupaten Boven Digoel";"PAPUA";"99665";"Indonesia";"";"";"";"-5.4326374";"140.4256481";"https://maps.google.com/?cid=0x0:0x234ae38dcc2262fb";""
