Category,Real Category,Business Name,Address,City,State,Postal Code,Country,Phone,Email,Website,Latitude,Longitude,Map Link,Details Link
hotel,hotel,Maluku 97662,"Wahayum, Kec. Aru Utara, Kabupaten Kepulauan Aru, Maluku","Kabupaten Kepulauan Aru, Maluku",MALUKU,,Indonesia,,,,-5.4217993,134.5134044,https://maps.google.com/?cid=0x0:0xdef6a79ae1d70a3d,
hotel,hotel,Hotel Apex Dobo,"Jl Terusan, Wangel, Kec. Pulau-Pulau Aru, Kabupaten Kepulauan Aru, Maluku 90662","Wangel, Kec. Pulau-Pulau Aru, Kabupaten Kepulauan Aru",MALUKU,90662.0,Indonesia,82112211952.0,,,-5.7687398,134.2102453,https://maps.google.com/?cid=0x0:0xcf9a40d3decb3615,
hotel,hotel,EORA Hotel Dobo,"kilo 5 bandara dobo, Jl. Cendrawasih, Siwalima, Kec. Pulau-Pulau Aru, Kabupaten Kepulauan Aru, Maluku","Kabupaten Kepulauan Aru, Maluku",MALUKU,,Indonesia,85243550222.0,,,-5.7787984,134.2095928,https://maps.google.com/?cid=0x0:0x18bdfd4347f94d62,
hotel,hotel,Hotel Suasana Baru,"66RF+834, Siwalima, Kec. Pulau-Pulau Aru, Kabupaten Kepulauan Aru, Maluku","Kabupaten Kepulauan Aru, Maluku",MALUKU,,Indonesia,,,,-5.7592425,134.2227125,https://maps.google.com/?cid=0x0:0x8dff54bd652cad80,
hotel,hotel,HOTEL SINAR HARAPAN DOBO,"66R7+C7M, Siwalima, Kec. Pulau-Pulau Aru, Kabupaten Kepulauan Aru, Maluku","Kabupaten Kepulauan Aru, Maluku",MALUKU,,Indonesia,91724175.0,,,-5.7589178,134.2131838,https://maps.google.com/?cid=0x0:0x46a432dd5c1a24c1,
hotel,Hotel,Toko  Penginapan MAREN'S Jerol,"G58G+XVJ, Jerol, Aru Sel., Kabupaten Kepulauan Aru, Maluku","Kabupaten Kepulauan Aru, Maluku",MALUKU,,Indonesia,,,,-6.4825359,134.1771519,https://maps.google.com/?cid=0x0:0x419c37ecb92aad2c,
hotel,hotel,Aru Sel.,"Kabupaten Kepulauan Aru, Maluku","Kabupaten Kepulauan Aru, Maluku",MALUKU,,Indonesia,,,,-6.6833691,134.1720266,https://maps.google.com/?cid=0x0:0x1757c32c3a231e21,
hotel,Hotel,Hotel Himba,"G527+67, Jerol, Aru Sel., Kabupaten Kepulauan Aru, Maluku","Kabupaten Kepulauan Aru, Maluku",MALUKU,,Indonesia,,,,-6.4994351,134.1631273,https://maps.google.com/?cid=0x0:0x5e723f8202cd678a,
hotel,hotel,EORA Hotel Dobo,"kilo 5 bandara dobo, Jl. Cendrawasih, Siwalima, Kec. Pulau-Pulau Aru, Kabupaten Kepulauan Aru, Maluku","Kabupaten Kepulauan Aru, Maluku",MALUKU,,Indonesia,85243550222.0,,,-5.7787984,134.2095928,https://maps.google.com/?cid=0x0:0x18bdfd4347f94d62,
hotel,hotel,hotel Grand Aru,"jalan jalabil, Siwalima, Pulau-Pulau Aru, Aru Islands Regency, Maluku","Kabupaten Kepulauan Aru, Maluku",MALUKU,,Indonesia,82292355275.0,,,-5.759843,134.2183899,https://maps.google.com/?cid=0x0:0x8cc3db26ac695e6a,
hotel,hotel,Hotel Suasana Baru,"66RF+834, Siwalima, Kec. Pulau-Pulau Aru, Kabupaten Kepulauan Aru, Maluku","Kabupaten Kepulauan Aru, Maluku",MALUKU,,Indonesia,,,,-5.7592425,134.2227125,https://maps.google.com/?cid=0x0:0x8dff54bd652cad80,
hotel,hotel,Kec. Aru Tengah,"Kabupaten Kepulauan Aru, Maluku","Kabupaten Kepulauan Aru, Maluku",MALUKU,,Indonesia,,,,-6.2383689,134.4370606,https://maps.google.com/?cid=0x0:0xbd0c26a425f3052c,
hotel,hotel,Hotel Apex Dobo,"Jl Terusan, Wangel, Kec. Pulau-Pulau Aru, Kabupaten Kepulauan Aru, Maluku 90662","Wangel, Kec. Pulau-Pulau Aru, Kabupaten Kepulauan Aru",MALUKU,90662.0,Indonesia,82112211952.0,,,-5.7687398,134.2102453,https://maps.google.com/?cid=0x0:0xcf9a40d3decb3615,
hotel,hotel,EORA Hotel Dobo,"kilo 5 bandara dobo, Jl. Cendrawasih, Siwalima, Kec. Pulau-Pulau Aru, Kabupaten Kepulauan Aru, Maluku","Kabupaten Kepulauan Aru, Maluku",MALUKU,,Indonesia,85243550222.0,,,-5.7787984,134.2095928,https://maps.google.com/?cid=0x0:0x18bdfd4347f94d62,
hotel,hotel,hotel Grand Aru,"jalan jalabil, Siwalima, Pulau-Pulau Aru, Aru Islands Regency, Maluku","Kabupaten Kepulauan Aru, Maluku",MALUKU,,Indonesia,82292355275.0,,,-5.759843,134.2183899,https://maps.google.com/?cid=0x0:0x8cc3db26ac695e6a,
hotel,hotel,Hotel Suasana Baru,"66RF+834, Siwalima, Kec. Pulau-Pulau Aru, Kabupaten Kepulauan Aru, Maluku","Kabupaten Kepulauan Aru, Maluku",MALUKU,,Indonesia,,,,-5.7592425,134.2227125,https://maps.google.com/?cid=0x0:0x8dff54bd652cad80,
hotel,hotel,HOTEL SINAR HARAPAN DOBO,"66R7+C7M, Siwalima, Kec. Pulau-Pulau Aru, Kabupaten Kepulauan Aru, Maluku","Kabupaten Kepulauan Aru, Maluku",MALUKU,,Indonesia,91724175.0,,,-5.7589178,134.2131838,https://maps.google.com/?cid=0x0:0x46a432dd5c1a24c1,
hotel,hotel,Casa SHARON Guesthouse,"Jl. Cendrawasih, Siwalima, Kec. Pulau-Pulau Aru, Kabupaten Kepulauan Aru, Maluku","Kabupaten Kepulauan Aru, Maluku",MALUKU,,Indonesia,81212026233.0,,,-5.7635341,134.2187659,https://maps.google.com/?cid=0x0:0xb0602b9c9c869bd2,
hotel,hotel,Maluku 97662,"Wahayum, Kec. Aru Utara, Kabupaten Kepulauan Aru, Maluku","Kabupaten Kepulauan Aru, Maluku",MALUKU,,Indonesia,,,,-5.4217993,134.5134044,https://maps.google.com/?cid=0x0:0xdef6a79ae1d70a3d,
hotel,hotel,EORA Hotel Dobo,"kilo 5 bandara dobo, Jl. Cendrawasih, Siwalima, Kec. Pulau-Pulau Aru, Kabupaten Kepulauan Aru, Maluku","Kabupaten Kepulauan Aru, Maluku",MALUKU,,Indonesia,85243550222.0,,,-5.7787984,134.2095928,https://maps.google.com/?cid=0x0:0x18bdfd4347f94d62,
hotel,Hotel,Hotel Neo Grand Aru,"Jalan Pendopo II, Siwalima, Kec. Pulau-Pulau Aru, Kabupaten Kepulauan Aru, Maluku","Kabupaten Kepulauan Aru, Maluku",MALUKU,,Indonesia,82198600471.0,,,-5.7751233,134.2201195,https://maps.google.com/?cid=0x0:0xc59310ffa0930430,
hotel,Area Rekreasi Alam,Batu Kora Beach,"Wangel, Kec. Pulau-Pulau Aru, Kabupaten Kepulauan Aru, Maluku 97662","Kec. Pulau-Pulau Aru, Kabupaten Kepulauan Aru",MALUKU,97662.0,Indonesia,82198792577.0,,,-5.7617499,134.1931261,https://maps.google.com/?cid=0x0:0xdd00cc754fcfc270,
hotel,hotel,Hotel Suasana Baru,"66RF+834, Siwalima, Kec. Pulau-Pulau Aru, Kabupaten Kepulauan Aru, Maluku","Kabupaten Kepulauan Aru, Maluku",MALUKU,,Indonesia,,,,-5.7592425,134.2227125,https://maps.google.com/?cid=0x0:0x8dff54bd652cad80,
hotel,hotel,hotel Grand Aru,"jalan jalabil, Siwalima, Pulau-Pulau Aru, Aru Islands Regency, Maluku","Kabupaten Kepulauan Aru, Maluku",MALUKU,,Indonesia,82292355275.0,,,-5.759843,134.2183899,https://maps.google.com/?cid=0x0:0x8cc3db26ac695e6a,
hotel,hotel,Hotel Apex Dobo,"Jl Terusan, Wangel, Kec. Pulau-Pulau Aru, Kabupaten Kepulauan Aru, Maluku 90662","Wangel, Kec. Pulau-Pulau Aru, Kabupaten Kepulauan Aru",MALUKU,90662.0,Indonesia,82112211952.0,,,-5.7687398,134.2102453,https://maps.google.com/?cid=0x0:0xcf9a40d3decb3615,
hotel,hotel,Kec. Aru Utara Timur Batuley,"Kabupaten Kepulauan Aru, Maluku","Kabupaten Kepulauan Aru, Maluku",MALUKU,,Indonesia,,,,-5.7730916,134.6630541,https://maps.google.com/?cid=0x0:0x82e5f677125ddf86,
hotel,hotel,EORA Hotel Dobo,"kilo 5 bandara dobo, Jl. Cendrawasih, Siwalima, Kec. Pulau-Pulau Aru, Kabupaten Kepulauan Aru, Maluku","Kabupaten Kepulauan Aru, Maluku",MALUKU,,Indonesia,85243550222.0,,,-5.7787984,134.2095928,https://maps.google.com/?cid=0x0:0x18bdfd4347f94d62,
hotel,Area Rekreasi Alam,Batu Kora Beach,"Wangel, Kec. Pulau-Pulau Aru, Kabupaten Kepulauan Aru, Maluku 97662","Kec. Pulau-Pulau Aru, Kabupaten Kepulauan Aru",MALUKU,97662.0,Indonesia,82198792577.0,,,-5.7617499,134.1931261,https://maps.google.com/?cid=0x0:0xdd00cc754fcfc270,
hotel,hotel,HOTEL SINAR HARAPAN DOBO,"66R7+C7M, Siwalima, Kec. Pulau-Pulau Aru, Kabupaten Kepulauan Aru, Maluku","Kabupaten Kepulauan Aru, Maluku",MALUKU,,Indonesia,91724175.0,,,-5.7589178,134.2131838,https://maps.google.com/?cid=0x0:0x46a432dd5c1a24c1,
hotel,hotel,Hotel Suasana Baru,"66RF+834, Siwalima, Kec. Pulau-Pulau Aru, Kabupaten Kepulauan Aru, Maluku","Kabupaten Kepulauan Aru, Maluku",MALUKU,,Indonesia,,,,-5.7592425,134.2227125,https://maps.google.com/?cid=0x0:0x8dff54bd652cad80,
hotel,hotel,hotel Grand Aru,"jalan jalabil, Siwalima, Pulau-Pulau Aru, Aru Islands Regency, Maluku","Kabupaten Kepulauan Aru, Maluku",MALUKU,,Indonesia,82292355275.0,,,-5.759843,134.2183899,https://maps.google.com/?cid=0x0:0x8cc3db26ac695e6a,
hotel,hotel,Hotel Apex Dobo,"Jl Terusan, Wangel, Kec. Pulau-Pulau Aru, Kabupaten Kepulauan Aru, Maluku 90662","Wangel, Kec. Pulau-Pulau Aru, Kabupaten Kepulauan Aru",MALUKU,90662.0,Indonesia,82112211952.0,,,-5.7687398,134.2102453,https://maps.google.com/?cid=0x0:0xcf9a40d3decb3615,
hotel,hotel,Kec. Sir-Sir,"Kabupaten Kepulauan Aru, Maluku","Kabupaten Kepulauan Aru, Maluku",MALUKU,,Indonesia,,,,-5.5652523,134.4449374,https://maps.google.com/?cid=0x0:0xbaca49c434e2b7ff,
hotel,hotel,Bellarizki Resort,"24R9+922, Saleman, Kec. Seram Utara Bar., Kabupaten Maluku Tengah, Maluku","Kabupaten Maluku Tengah, Maluku",MALUKU,,Indonesia,82198508001.0,,,-2.9591081,129.1175123,https://maps.google.com/?cid=0x0:0xc6db48cb9142d4b1,
hotel,hotel,Maluku Residence Syariah,"De Fretes No.12, Kel Waihaong, Kec. Nusaniwe, Kota Ambon, Maluku","Kota Ambon, Maluku",MALUKU,,Indonesia,,,,-3.7011319,128.1764157,https://maps.google.com/?cid=0x0:0x5e6e20d52e229730,
hotel,hotel,Penginapan APEX,"66J8+QMG, Dobo, Jl. Cendrawasih, Siwalima, Pulau-Pulau Aru, Aru Islands Regency, Maluku 97662","Dobo, Jl. Cendrawasih, Siwalima, Pulau-Pulau Aru, Aru Islands Regency",MALUKU,97662.0,Indonesia,82112211952.0,,,-5.7679187,134.2156641,https://maps.google.com/?cid=0x0:0x24b025d8f3bc4baf,
hotel,hotel,Ora Beach Eco Resort,"24QQ+PGH, Saleman, Kec. Seram Utara Bar., Kabupaten Maluku Tengah, Maluku","Kabupaten Maluku Tengah, Maluku",MALUKU,,Indonesia,81248896616.0,,,-2.960695,129.1388702,https://maps.google.com/?cid=0x0:0x9de937b6ce29acab,
hotel,hotel,Hotel Apex Dobo,"Jl Terusan, Wangel, Kec. Pulau-Pulau Aru, Kabupaten Kepulauan Aru, Maluku 90662","Wangel, Kec. Pulau-Pulau Aru, Kabupaten Kepulauan Aru",MALUKU,90662.0,Indonesia,82112211952.0,,,-5.7687398,134.2102453,https://maps.google.com/?cid=0x0:0xcf9a40d3decb3615,
hotel,hotel,Casa SHARON Guesthouse,"Jl. Cendrawasih, Siwalima, Kec. Pulau-Pulau Aru, Kabupaten Kepulauan Aru, Maluku","Kabupaten Kepulauan Aru, Maluku",MALUKU,,Indonesia,81212026233.0,,,-5.7635341,134.2187659,https://maps.google.com/?cid=0x0:0xb0602b9c9c869bd2,
hotel,hotel,HOTEL SINAR HARAPAN DOBO,"66R7+C7M, Siwalima, Kec. Pulau-Pulau Aru, Kabupaten Kepulauan Aru, Maluku","Kabupaten Kepulauan Aru, Maluku",MALUKU,,Indonesia,91724175.0,,,-5.7589178,134.2131838,https://maps.google.com/?cid=0x0:0x46a432dd5c1a24c1,
hotel,hotel,hotel Grand Aru,"jalan jalabil, Siwalima, Pulau-Pulau Aru, Aru Islands Regency, Maluku","Kabupaten Kepulauan Aru, Maluku",MALUKU,,Indonesia,82292355275.0,,,-5.759843,134.2183899,https://maps.google.com/?cid=0x0:0x8cc3db26ac695e6a,
hotel,hotel,Hotel Suasana Baru,"66RF+834, Siwalima, Kec. Pulau-Pulau Aru, Kabupaten Kepulauan Aru, Maluku","Kabupaten Kepulauan Aru, Maluku",MALUKU,,Indonesia,,,,-5.7592425,134.2227125,https://maps.google.com/?cid=0x0:0x8dff54bd652cad80,
hotel,hotel,The Natsepa Hotel  Resort,"Jl. Natsepa No.36, Suli, Kec. Salahutu, Kabupaten Maluku Tengah, Maluku 97582","Suli, Kec. Salahutu, Kabupaten Maluku Tengah",MALUKU,97582.0,Indonesia,911362555.0,,,-3.6224597,128.2856783,https://maps.google.com/?cid=0x0:0xb66509852ba2428c,
hotel,hotel,,,,MALUKU,,Indonesia,,,,,,https://maps.google.com/?cid=0x0:0xb66509852ba2428c%7C/g/121qycpm%7Cen-ID,
hotel,hotel,Maluku Resort and Spa,"Jl Waititiri, Suli, Salahutu, Central Maluku Regency, Maluku 97582","Suli, Salahutu, Central Maluku Regency",MALUKU,97582.0,Indonesia,911361970.0,,,-3.6167962,128.2776551,https://maps.google.com/?cid=0x0:0x399bf62f92df6277,
hotel,hotel,,,,MALUKU,,Indonesia,,,,,,https://maps.google.com/?cid=0x0:0xd9a527375825a79%7C/g/11dzddthkt%7Cen-ID,
hotel,hotel,Airy Maluku City Sudirman Ambon,"85JX+J8C, Jl. Jenderal Sudirman, Hative Kecil, Kec. Sirimau, Kota Ambon, Maluku 97128","Jl. Jenderal Sudirman, Hative Kecil, Kec. Sirimau, Kota Ambon",MALUKU,97128.0,Indonesia,8041112479.0,,,-3.6684342,128.1982566,https://maps.google.com/?cid=0x0:0xd9a527375825a79,
hotel,hotel,Airy Sirimau Mutiara 38 Ambon,"Jl. Mutiara No.38, Kel Rijali, Kec. Sirimau, Kota Ambon, Maluku 97111","Kel Rijali, Kec. Sirimau, Kota Ambon",MALUKU,97111.0,Indonesia,8041112479.0,,,-3.6896178,128.1853732,https://maps.google.com/?cid=0x0:0x30a8a3efd2a9ca61,
hotel,Hotel,SIR EX,"J4WF+RG5, Serang, Cikarang Sel., Kabupaten Bekasi, Jawa Barat 17530","Serang, Cikarang Sel., Kabupaten Bekasi",MALUKU,17530.0,Indonesia,,,,-6.352982,107.1238381,https://maps.google.com/?cid=0x0:0xeb440b8b2eee150c,
hotel,hotel,The Sahira Hotel,"Jl. A. Yani No.17-23, RT.02/RW.02, Tanah Sareal, Kec. Tanah Sereal, Kota Bogor, Jawa Barat 16161","RT.02/RW.02, Tanah Sareal, Kec. Tanah Sereal, Kota Bogor",MALUKU,16161.0,Indonesia,2517552181.0,,,-6.5749112,106.7999397,https://maps.google.com/?cid=0x0:0x905190fd46d58a74,
hotel,hotel,,,,MALUKU,,Indonesia,,,,,,https://maps.google.com/?cid=0x0:0x905190fd46d58a74%7C/g/11bxg8s0lz%7Cen-ID,
hotel,hotel,Arch Hotel Bogor,"Jl. Raya Pajajaran No.225, RT.02/RW.11, Bantarjati, Kec. Bogor Utara, Kota Bogor, Jawa Barat 16153","RT.02/RW.11, Bantarjati, Kec. Bogor Utara, Kota Bogor",MALUKU,16153.0,Indonesia,2518377168.0,,,-6.5785437,106.8076145,https://maps.google.com/?cid=0x0:0x82af99b5ba446566,
hotel,hotel,Grande Padjadjaran Hotel Bogor,"Jl. Raya Pajajaran No.17, RT.02/RW.03, Bantarjati, Kec. Bogor Utara, Kota Bogor, Jawa Barat 16153","RT.02/RW.03, Bantarjati, Kec. Bogor Utara, Kota Bogor",MALUKU,16153.0,Indonesia,2518359000.0,,,-6.5764571,106.8073282,https://maps.google.com/?cid=0x0:0x2040b7818b568622,
hotel,hotel,Jeng Tini Guest House,"Jl. Pemuda No.22, RT.04/RW.02, Tanah Sareal, Kec. Tanah Sereal, Kota Bogor, Jawa Barat 16162","RT.04/RW.02, Tanah Sareal, Kec. Tanah Sereal, Kota Bogor",MALUKU,16162.0,Indonesia,81314159096.0,,,-6.5740009,106.7966003,https://maps.google.com/?cid=0x0:0xe501e73b20dabf50,
hotel,hotel,Whiz Prime Hotel Pajajaran Bogor,"Jl. Cikurai Jl. Raya Pajajaran No.47, RT.01/RW.06, Babakan, Kecamatan Bogor Tengah, Kota Bogor, Jawa Barat 16128","RT.01/RW.06, Babakan, Kecamatan Bogor Tengah, Kota Bogor",MALUKU,16128.0,Indonesia,2517560088.0,,,-6.585859,106.8053159,https://maps.google.com/?cid=0x0:0x3e3771d32003532e,
hotel,hotel,Wisma Mirah 1,"Jl. Re. Martadinata Blok Haji Bin Ali No.17, RT.01/RW.06, Ciwaringin, Kecamatan Bogor Tengah, Kota Bogor, Jawa Barat 16124","RT.01/RW.06, Ciwaringin, Kecamatan Bogor Tengah, Kota Bogor",MALUKU,16124.0,Indonesia,2518333520.0,,,-6.5832843,106.7912561,https://maps.google.com/?cid=0x0:0xcc641229b6ad7c34,
hotel,hotel,Cozzy Kostel Managed by Salak Hospitality,"Jl. Guntur No.36, Babakan, Kecamatan Bogor Tengah, Kota Bogor, Jawa Barat 16128","Babakan, Kecamatan Bogor Tengah, Kota Bogor",MALUKU,16128.0,Indonesia,895321636688.0,,,-6.5853348,106.8045731,https://maps.google.com/?cid=0x0:0x1d09debb01239ff2,
hotel,hotel,Bogor Valley Hotel,"Jl. Sholeh Iskandar No.5, Kedungbadak, Kec. Tanah Sereal, Kota Bogor, Jawa Barat 16164","Kedungbadak, Kec. Tanah Sereal, Kota Bogor",MALUKU,16164.0,Indonesia,2517552111.0,,,-6.5617794,106.8001291,https://maps.google.com/?cid=0x0:0xcbd907ae930c535e,
hotel,hotel,Swiss-Belhotel Bogor,"Jl. Salak No.38-40, Babakan, Kecamatan Bogor Tengah, Kota Bogor, Jawa Barat 16129","Babakan, Kecamatan Bogor Tengah, Kota Bogor",MALUKU,16129.0,Indonesia,2517565111.0,,,-6.5886896,106.8042168,https://maps.google.com/?cid=0x0:0xcc8d353aabd8f8c3,
hotel,hotel,KoolKost near Jalan Bangbarung,"Jl. Artzimar II No.5, RT.03/RW.02, Tegal Gundil, Kec. Bogor Utara, Kota Bogor, Jawa Barat 16152","RT.03/RW.02, Tegal Gundil, Kec. Bogor Utara, Kota Bogor",MALUKU,16152.0,Indonesia,2180629666.0,,,-6.5803146,106.8117366,https://maps.google.com/?cid=0x0:0xb0d183b90b46eb47,
hotel,Taman Kota,Kebun Raya Bogor,"Jl. Ir. H. Juanda No.13, Paledang, Kecamatan Bogor Tengah, Kota Bogor, Jawa Barat 16122","Paledang, Kecamatan Bogor Tengah, Kota Bogor",MALUKU,16122.0,Indonesia,2518311362.0,,,-6.5976289,106.7995698,https://maps.google.com/?cid=0x0:0x75f23c6b45a37ee5,
hotel,Hotel,Hotel leo,"RH42+43P, Algadang, Kec. Aru Tengah, Kabupaten Kepulauan Aru, Maluku","Kabupaten Kepulauan Aru, Maluku",MALUKU,,Indonesia,,,,-6.1946502,134.5501935,https://maps.google.com/?cid=0x0:0x3eb1cffa8cec9da9,
hotel,hotel,EORA Hotel Dobo,"kilo 5 bandara dobo, Jl. Cendrawasih, Siwalima, Kec. Pulau-Pulau Aru, Kabupaten Kepulauan Aru, Maluku","Kabupaten Kepulauan Aru, Maluku",MALUKU,,Indonesia,85243550222.0,,,-5.7787984,134.2095928,https://maps.google.com/?cid=0x0:0x18bdfd4347f94d62,
hotel,Kantor Perusahaan,Dinas Koperasi dan Usaha Mikro,"66FC+W2H, Jl. Pemda, Siwalima, Kec. Pulau-Pulau Aru, Kabupaten Kepulauan Aru, Maluku","Kabupaten Kepulauan Aru, Maluku",MALUKU,,Indonesia,,,,-5.7748591,134.2199233,https://maps.google.com/?cid=0x0:0x8a41962f3d39da04,
hotel,Hotel,Hotel Neo Grand Aru,"Jalan Pendopo II, Siwalima, Kec. Pulau-Pulau Aru, Kabupaten Kepulauan Aru, Maluku","Kabupaten Kepulauan Aru, Maluku",MALUKU,,Indonesia,82198600471.0,,,-5.7751233,134.2201195,https://maps.google.com/?cid=0x0:0xc59310ffa0930430,
hotel,Area Rekreasi Alam,Batu Kora Beach,"Wangel, Kec. Pulau-Pulau Aru, Kabupaten Kepulauan Aru, Maluku 97662","Kec. Pulau-Pulau Aru, Kabupaten Kepulauan Aru",MALUKU,97662.0,Indonesia,82198792577.0,,,-5.7617499,134.1931261,https://maps.google.com/?cid=0x0:0xdd00cc754fcfc270,
hotel,hotel,hotel Grand Aru,"jalan jalabil, Siwalima, Pulau-Pulau Aru, Aru Islands Regency, Maluku","Kabupaten Kepulauan Aru, Maluku",MALUKU,,Indonesia,82292355275.0,,,-5.759843,134.2183899,https://maps.google.com/?cid=0x0:0x8cc3db26ac695e6a,
hotel,hotel,Hotel Apex Dobo,"Jl Terusan, Wangel, Kec. Pulau-Pulau Aru, Kabupaten Kepulauan Aru, Maluku 90662","Wangel, Kec. Pulau-Pulau Aru, Kabupaten Kepulauan Aru",MALUKU,90662.0,Indonesia,82112211952.0,,,-5.7687398,134.2102453,https://maps.google.com/?cid=0x0:0xcf9a40d3decb3615,
hotel,Hotel,Toko  Penginapan MAREN'S Jerol,"G58G+XVJ, Jerol, Aru Sel., Kabupaten Kepulauan Aru, Maluku","Kabupaten Kepulauan Aru, Maluku",MALUKU,,Indonesia,,,,-6.4825359,134.1771519,https://maps.google.com/?cid=0x0:0x419c37ecb92aad2c,
hotel,Hotel,Hotel Himba,"G527+67, Jerol, Aru Sel., Kabupaten Kepulauan Aru, Maluku","Kabupaten Kepulauan Aru, Maluku",MALUKU,,Indonesia,,,,-6.4994351,134.1631273,https://maps.google.com/?cid=0x0:0x5e723f8202cd678a,
hotel,hotel,Kec. Aru Sel. Tim.,"Kabupaten Kepulauan Aru, Maluku","Kabupaten Kepulauan Aru, Maluku",MALUKU,,Indonesia,,,,-6.9295488,134.1999997,https://maps.google.com/?cid=0x0:0xe3610bc46fe0c5c9,
hotel,Area Rekreasi Alam,Batu Kora Beach,"Wangel, Kec. Pulau-Pulau Aru, Kabupaten Kepulauan Aru, Maluku 97662","Kec. Pulau-Pulau Aru, Kabupaten Kepulauan Aru",MALUKU,97662.0,Indonesia,82198792577.0,,,-5.7617499,134.1931261,https://maps.google.com/?cid=0x0:0xdd00cc754fcfc270,
hotel,Jasa Pengiriman,Kop.Jasa Angkutan TKBM,"66V7+4RM, JL. May Abdullah, Siwalima, Kec. Pulau-Pulau Aru, Kabupaten Kepulauan Aru, Maluku","Kabupaten Kepulauan Aru, Maluku",MALUKU,,Indonesia,,,,-5.7575713,134.2142036,https://maps.google.com/?cid=0x0:0x1e34fc19addcebc2,
hotel,hotel,Aru Sel. Utara,"Kabupaten Kepulauan Aru, Maluku","Kabupaten Kepulauan Aru, Maluku",MALUKU,,Indonesia,,,,-6.3176181,134.1364572,https://maps.google.com/?cid=0x0:0x13cf15b3cd64f30f,
hotel,Hotel,Hotel Himba,"G527+67, Jerol, Aru Sel., Kabupaten Kepulauan Aru, Maluku","Kabupaten Kepulauan Aru, Maluku",MALUKU,,Indonesia,,,,-6.4994351,134.1631273,https://maps.google.com/?cid=0x0:0x5e723f8202cd678a,
hotel,Hotel,Toko  Penginapan MAREN'S Jerol,"G58G+XVJ, Jerol, Aru Sel., Kabupaten Kepulauan Aru, Maluku","Kabupaten Kepulauan Aru, Maluku",MALUKU,,Indonesia,,,,-6.4825359,134.1771519,https://maps.google.com/?cid=0x0:0x419c37ecb92aad2c,
restaurant,restaurant,Maluku 97662,"Wahayum, Kec. Aru Utara, Kabupaten Kepulauan Aru, Maluku","Kabupaten Kepulauan Aru, Maluku",MALUKU,,Indonesia,,,,-5.4217993,134.5134044,https://maps.google.com/?cid=0x0:0xdef6a79ae1d70a3d,
restaurant,Indonesia,Kampung jawa Lorong 2,"Siwalima, Kec. Pulau-Pulau Aru, Kabupaten Kepulauan Aru, Maluku","Kabupaten Kepulauan Aru, Maluku",MALUKU,,Indonesia,,,,-5.7587629,134.2094222,https://maps.google.com/?cid=0x0:0xaa6367b1edd11174,
restaurant,Brunch,Singah Dolo B2,"Dusun marbali, Dono, Kec. Aru Utara, Kabupaten Kepulauan Aru, Maluku 97662","Dono, Kec. Aru Utara, Kabupaten Kepulauan Aru",MALUKU,97662.0,Indonesia,,,,-5.4217783,134.513404,https://maps.google.com/?cid=0x0:0x18c7121ab1bcf0bf,
restaurant,Brunch,RM B2,"66V4+M4F, Jl. Gosamtian Marbali, Wangel, Kec. Pulau-Pulau Aru, Kabupaten Kepulauan Aru, Maluku","Kabupaten Kepulauan Aru, Maluku",MALUKU,,Indonesia,,,,-5.7558541,134.2053365,https://maps.google.com/?cid=0x0:0x6a2c21fe1fd4e35f,
restaurant,restaurant,Aru Sel.,"Kabupaten Kepulauan Aru, Maluku","Kabupaten Kepulauan Aru, Maluku",MALUKU,,Indonesia,,,,-6.6833691,134.1720266,https://maps.google.com/?cid=0x0:0x1757c32c3a231e21,
restaurant,Hidangan Laut,Restaurant Sari Gurih Beach,"963M+565, Lateri, Kec. Baguala, Kota Ambon, Maluku","Kota Ambon, Maluku",MALUKU,,Indonesia,8119798598.0,,,-3.6471037,128.2330997,https://maps.google.com/?cid=0x0:0x56400b7db74be6ae,
restaurant,restaurant,Moluccas Restaurant,"Jl. Natsepa No.36, Suli, Kec. Salahutu, Kabupaten Maluku Tengah, Maluku 97582","Suli, Kec. Salahutu, Kabupaten Maluku Tengah",MALUKU,97582.0,Indonesia,,,,-3.6228916,128.2856889,https://maps.google.com/?cid=0x0:0xb337eb8a08cdf9c7,
restaurant,restaurant,Kec. Aru Tengah,"Kabupaten Kepulauan Aru, Maluku","Kabupaten Kepulauan Aru, Maluku",MALUKU,,Indonesia,,,,-6.2383689,134.4370606,https://maps.google.com/?cid=0x0:0xbd0c26a425f3052c,
restaurant,Kedai Kopi,GOSPEL Cafe  Resto,"Siwalima, Kec. Pulau-Pulau Aru, Kabupaten Kepulauan Aru, Maluku 97662","Kec. Pulau-Pulau Aru, Kabupaten Kepulauan Aru",MALUKU,97662.0,Indonesia,82239884671.0,,,-5.7746617,134.210218,https://maps.google.com/?cid=0x0:0xa10d26e691897360,
restaurant,Nasi,Cafe Talia,"66R7+CGM, Siwalima, Kec. Pulau-Pulau Aru, Kabupaten Kepulauan Aru, Maluku","Kabupaten Kepulauan Aru, Maluku",MALUKU,,Indonesia,85244613461.0,,,-5.7589118,134.2138062,https://maps.google.com/?cid=0x0:0xb7f72a6ad08271d1,
restaurant,Indonesia,RM Kediri,"66J8+C78, Jl. Cendrawasih, Siwalima, Kec. Pulau-Pulau Aru, Kabupaten Kepulauan Aru, Maluku","Kabupaten Kepulauan Aru, Maluku",MALUKU,,Indonesia,,,,-5.7689618,134.2157097,https://maps.google.com/?cid=0x0:0x3b1b0f5dbde77ed,
restaurant,Restoran,Rm...Dapur seafood 87,"Jl. Ali Moertopo, Siwalima, Kec. Pulau-Pulau Aru, Kabupaten Kepulauan Aru, Maluku","Kabupaten Kepulauan Aru, Maluku",MALUKU,,Indonesia,81344382777.0,,,-5.7606477,134.2207409,https://maps.google.com/?cid=0x0:0xbf5229d79a65c093,
restaurant,Rumah Makan,Rumah Makan Bunda Aru,"66QC+R76, Jl. Cendrawasih, Siwalima, Kec. Pulau-Pulau Aru, Kabupaten Kepulauan Aru, Maluku","Kabupaten Kepulauan Aru, Maluku",MALUKU,,Indonesia,,,,-5.7604718,134.2206362,https://maps.google.com/?cid=0x0:0xd60e63943f47cc78,
restaurant,Nasi,Warung Nyaman,"66R9+3Q9, Siwalima, Kec. Pulau-Pulau Aru, Kabupaten Kepulauan Aru, Maluku","Kabupaten Kepulauan Aru, Maluku",MALUKU,,Indonesia,,,,-5.7598467,134.2194843,https://maps.google.com/?cid=0x0:0x604b40520c46942a,
restaurant,Rumah Makan,Warung Makan Tanjung (Erna),"66R5+QCJ, Siwalima, Kec. Pulau-Pulau Aru, Kabupaten Kepulauan Aru, Maluku","Kabupaten Kepulauan Aru, Maluku",MALUKU,,Indonesia,,,,-5.7580455,134.208512,https://maps.google.com/?cid=0x0:0x937519a0e11b81b2,
restaurant,Brunch,RM B2,"66V4+M4F, Jl. Gosamtian Marbali, Wangel, Kec. Pulau-Pulau Aru, Kabupaten Kepulauan Aru, Maluku","Kabupaten Kepulauan Aru, Maluku",MALUKU,,Indonesia,,,,-5.7558541,134.2053365,https://maps.google.com/?cid=0x0:0x6a2c21fe1fd4e35f,
restaurant,Brunch,Singah Dolo B2,"Dusun marbali, Dono, Kec. Aru Utara, Kabupaten Kepulauan Aru, Maluku 97662","Dono, Kec. Aru Utara, Kabupaten Kepulauan Aru",MALUKU,97662.0,Indonesia,,,,-5.4217783,134.513404,https://maps.google.com/?cid=0x0:0x18c7121ab1bcf0bf,
restaurant,restaurant,Febby,"9Q27+XF9, Kompane, Kec. Aru Utara Timur Batuley, Kabupaten Kepulauan Aru, Maluku","Kabupaten Kepulauan Aru, Maluku",MALUKU,,Indonesia,,,,-5.64759,134.7637333,https://maps.google.com/?cid=0x0:0x61bd4f4dc1fa6b55,
restaurant,restaurant,Kec. Sir-Sir,"Kabupaten Kepulauan Aru, Maluku","Kabupaten Kepulauan Aru, Maluku",MALUKU,,Indonesia,,,,-5.5652523,134.4449374,https://maps.google.com/?cid=0x0:0xbaca49c434e2b7ff,
restaurant,Restoran,Sari Gurih Restaurant,"853J+639, Jl. Anthony Rebok, Kel Honipopu, Kec. Sirimau, Kota Ambon, Maluku 97127","Jl. Anthony Rebok, Kel Honipopu, Kec. Sirimau, Kota Ambon",MALUKU,97127.0,Indonesia,911341888.0,,,-3.6969553,128.1802475,https://maps.google.com/?cid=0x0:0x275f6b1eabec66d9,
restaurant,Hidangan Laut,SMORGAN Resto,"PXJV+JGQ, Jl. Pemerintahan, depan KODIM, Halut, Mkcm, Tobelo, North Halmahera Regency, North Maluku","Kabupaten Halmahera Utara, Maluku Utara",MALUKU,,Indonesia,85201115150.0,,,1.7315784,127.9938588,https://maps.google.com/?cid=0x0:0xd45d6fcd651f0c5c,
restaurant,Hidangan Laut,Crown Resto,"Jl. AM Sangaji No.30, Kel Honipopu, Kec. Sirimau, Kota Ambon, Maluku 97126","Kel Honipopu, Kec. Sirimau, Kota Ambon",MALUKU,97126.0,Indonesia,85100351548.0,,,-3.6969971,128.1788786,https://maps.google.com/?cid=0x0:0x200f7ed4c75019b9,
restaurant,restaurant,Febby,"9Q27+XF9, Kompane, Kec. Aru Utara Timur Batuley, Kabupaten Kepulauan Aru, Maluku","Kabupaten Kepulauan Aru, Maluku",MALUKU,,Indonesia,,,,-5.64759,134.7637333,https://maps.google.com/?cid=0x0:0x61bd4f4dc1fa6b55,
restaurant,Restoran,The Malinan Kei Islands Resto and Cafe,"Jl. Raya Merdeka, Kel. Ohoijang Watdek, Kec. Kei Kecil, Kabupaten Maluku Tenggara, Maluku","Kabupaten Maluku Tenggara, Maluku",MALUKU,,Indonesia,81289094253.0,,,-5.6462414,132.7393326,https://maps.google.com/?cid=0x0:0x13f8227fc228798a,
restaurant,Betawi,Dapur Fizzul - Rumah Makan Khas Maluku Jakarta No.1 Halal di Dunia,"Food Court Depan Grha Essi, Jl. Raya Ceger No.5, RT.5/RW.1, Ceger, Kec. Cipayung, Kota Jakarta Timur, Daerah Khusus Ibukota Jakarta 13820","Jl. Raya Ceger No.5, RT.5/RW.1, Ceger, Kec. Cipayung, Kota Jakarta Timur",MALUKU,13820.0,Indonesia,82131529069.0,,,-6.307207,106.8886462,https://maps.google.com/?cid=0x0:0xb39e6e8a1a4f4d03,
restaurant,Prasmanan,Signatures Restaurant,"Hotel Indonesia Kempinski Jakarta, Jl. M.H. Thamrin No.1, Menteng, Kec. Menteng, Kota Jakarta Pusat, Daerah Khusus Ibukota Jakarta 10310","Jl. M.H. Thamrin No.1, Menteng, Kec. Menteng, Kota Jakarta Pusat",MALUKU,10310.0,Indonesia,2123583898.0,,,-6.1955617,106.8219569,https://maps.google.com/?cid=0x0:0xdea65bf3cb20aaec,
restaurant,Korea,"Mr. Park SCBD, Korean Barbeque Grill","SCBD Lot 8F, Jl. Jenderal Sudirman Lot 8F, Senayan, Kec. Kby. Baru, Kota Jakarta Selatan, Daerah Khusus Ibukota Jakarta 12190","Jl. Jenderal Sudirman Lot 8F, Senayan, Kec. Kby. Baru, Kota Jakarta Selatan",MALUKU,12190.0,Indonesia,81388823335.0,,,-6.2286613,106.809369,https://maps.google.com/?cid=0x0:0x3e59105e401b52f,
restaurant,Indonesia,Kedai Sirih Merah,"seberang Bank Indonesia, Jl. Taman Kebon Sirih 1 No.5, Kb. Sirih, Kecamatan Tanah Abang, Kota Jakarta Pusat, Daerah Khusus Ibukota Jakarta 10250","Jl. Taman Kebon Sirih 1 No.5, Kb. Sirih, Kecamatan Tanah Abang, Kota Jakarta Pusat",MALUKU,10250.0,Indonesia,213911225.0,,,-6.1835128,106.8204879,https://maps.google.com/?cid=0x0:0x1c164001aba2f079,
restaurant,Rumah Makan,THE GREEN CORNER,"Jl. Pejaten Barat Raya No.71 6, RT.8/RW.3, Pejaten Bar., Ps. Minggu, Kota Jakarta Selatan, Daerah Khusus Ibukota Jakarta 12510","RT.8/RW.3, Pejaten Bar., Ps. Minggu, Kota Jakarta Selatan",MALUKU,12510.0,Indonesia,81381708833.0,,,-6.2774999,106.8276993,https://maps.google.com/?cid=0x0:0x556ba507633018cc,
restaurant,Jamuan Makan Resmi,August Restaurant,"Sequis Tower - Ground Floor #03-02, Jl. Jenderal Sudirman No.Kav. 71, Jakarta, Daerah Khusus Ibukota Jakarta 12190","Jl. Jenderal Sudirman No.Kav. 71, Jakarta",MALUKU,12190.0,Indonesia,87738000808.0,,,-6.2250166,106.8067214,https://maps.google.com/?cid=0x0:0x6ef9e0118457c47f,
restaurant,Masakan Sichuan,Madam Sichuan Gandaria City,"Gandaria City, Mainstreet Upper Ground #MU-11, Jl. Sultan Iskandar Muda, Daerah Khusus Ibukota Jakarta 12240","Mainstreet Upper Ground #MU-11, Jl. Sultan Iskandar Muda",MALUKU,12240.0,Indonesia,82125615700.0,,,-6.2443473,106.783344,https://maps.google.com/?cid=0x0:0x47421c953de43f9d,
restaurant,Restoran,ÅÄ±r-ÅÄ±r RestoranÄ±,"CV94+VG7, Baku, Azerbaijan","Baku, Azerbaijan",MALUKU,,Indonesia,994552219700.0,,,40.419654,49.8563034,https://maps.google.com/?cid=0x0:0x762b2a3e11c04ac5,
restaurant,Bakso,"Bakso Cirawang Manja, Kalibata City","Apt. Kalibata City, Tower Flamboyan CT 05-07, Jl. Raya Kalibata No.01, Kota Jakarta Selatan, Daerah Khusus Ibukota Jakarta 17250","Tower Flamboyan CT 05-07, Jl. Raya Kalibata No.01, Kota Jakarta Selatan",MALUKU,17250.0,Indonesia,81119182647.0,,,-6.2572696,106.8520949,https://maps.google.com/?cid=0x0:0x4365fd1c45502da3,
restaurant,Indonesia,LAPO PORSEA - SCBD,"SCBD PARK, Jl. Jend. Sudirman kav 52-53 No.8B Lot 8, Senayan, Kec. Kby. Baru, Kota Jakarta Selatan, Daerah Khusus Ibukota Jakarta 12190","Jl. Jend. Sudirman kav 52-53 No.8B Lot 8, Senayan, Kec. Kby. Baru, Kota Jakarta Selatan",MALUKU,12190.0,Indonesia,82188886082.0,,,-6.2280413,106.8100248,https://maps.google.com/?cid=0x0:0x66f8511d880e96c0,
restaurant,Bakso,"Bakso Cirawang Manja, Kebayoran Lama","Jl. Bang Pitung No.18A, RT.3/RW.1, Grogol Utara, Kec. Kby. Lama, Kota Jakarta Selatan, Daerah Khusus Ibukota Jakarta 12210","RT.3/RW.1, Grogol Utara, Kec. Kby. Lama, Kota Jakarta Selatan",MALUKU,12210.0,Indonesia,8119298983.0,,,-6.2136551,106.7793783,https://maps.google.com/?cid=0x0:0xee6fbe205b028b3a,
restaurant,restaurant,Galaxy Karaoke Dobo,"RH42+43P, Dobo Kepulauan Aru, Algadang, Kec. Aru Tengah, Kabupaten Kepulauan Aru, Maluku","Kabupaten Kepulauan Aru, Maluku",MALUKU,,Indonesia,,,,-6.1946502,134.5501935,https://maps.google.com/?cid=0x0:0xaa96968410789921,
restaurant,restaurant,Aru Tengah Tim.,"Kabupaten Kepulauan Aru, Maluku","Kabupaten Kepulauan Aru, Maluku",MALUKU,,Indonesia,,,,-6.0878603,134.6630541,https://maps.google.com/?cid=0x0:0x39fa9da111d69f1a,
restaurant,restaurant,Kec. Aru Tengah Sel.,"Kabupaten Kepulauan Aru, Maluku","Kabupaten Kepulauan Aru, Maluku",MALUKU,,Indonesia,,,,-6.306355,134.9014926,https://maps.google.com/?cid=0x0:0x16e9854ea8507897,
restaurant,Betawi,Dapur Fizzul - Rumah Makan Khas Maluku Jakarta No.1 Halal di Dunia,"Food Court Depan Grha Essi, Jl. Raya Ceger No.5, RT.5/RW.1, Ceger, Kec. Cipayung, Kota Jakarta Timur, Daerah Khusus Ibukota Jakarta 13820","Jl. Raya Ceger No.5, RT.5/RW.1, Ceger, Kec. Cipayung, Kota Jakarta Timur",MALUKU,13820.0,Indonesia,82131529069.0,,,-6.307207,106.8886462,https://maps.google.com/?cid=0x0:0xb39e6e8a1a4f4d03,
restaurant,Restoran,Markas Foodcourt Pusat Kuliner,"MVMR+CQP, RT.5/RW.3, Ceger, Kec. Cipayung, Kota Jakarta Timur, Daerah Khusus Ibukota Jakarta 13820","RT.5/RW.3, Ceger, Kec. Cipayung, Kota Jakarta Timur",MALUKU,13820.0,Indonesia,81286064048.0,,,-6.3164127,106.8919666,https://maps.google.com/?cid=0x0:0xed51600e5d024fa9,
restaurant,restaurant,,,,MALUKU,,Indonesia,,,,,,https://maps.google.com/?cid=0x0:0xb39e6e8a1a4f4d03u0026onu003dPapeda+Beserta+Ikan+Masak+Kuningu0026midu003d/g/11l2zyx1f4,
restaurant,Rumah Makan,Dapoer Almaasz,"Jl. Kelapa No.17, RT.5/RW.2, Ceger, Kec. Cipayung, Kota Jakarta Timur, Daerah Khusus Ibukota Jakarta 13820","RT.5/RW.2, Ceger, Kec. Cipayung, Kota Jakarta Timur",MALUKU,13820.0,Indonesia,,,,-6.3104883,106.8904197,https://maps.google.com/?cid=0x0:0xf8fac86c3d9adcb0,
restaurant,restaurant,,,,MALUKU,,Indonesia,,,,,,https://maps.google.com/?cid=0x0:0xb39e6e8a1a4f4d03u0026onu003dPisang+Ijou0026midu003d/g/11l2zyx1f4,
restaurant,restaurant,,,,MALUKU,,Indonesia,,,,,,https://maps.google.com/?cid=0x0:0xb39e6e8a1a4f4d03u0026onu0026midu003d/g/11l2zyx1f4,
restaurant,restaurant,,,,MALUKU,,Indonesia,,,,,,https://maps.google.com/?cid=0x0:0xb39e6e8a1a4f4d03u0026onu003dPapeda+Dan+Ikan+Kuah+Kuning+Dan+Ikan+Bakaru0026midu003d/g/11l2zyx1f4,
restaurant,Hidangan Laut,Restaurant Sari Gurih Beach,"963M+565, Lateri, Kec. Baguala, Kota Ambon, Maluku","Kota Ambon, Maluku",MALUKU,,Indonesia,8119798598.0,,,-3.6471037,128.2330997,https://maps.google.com/?cid=0x0:0x56400b7db74be6ae,
restaurant,Restoran,Sari Gurih Restaurant,"853J+639, Jl. Anthony Rebok, Kel Honipopu, Kec. Sirimau, Kota Ambon, Maluku 97127","Jl. Anthony Rebok, Kel Honipopu, Kec. Sirimau, Kota Ambon",MALUKU,97127.0,Indonesia,911341888.0,,,-3.6969553,128.1802475,https://maps.google.com/?cid=0x0:0x275f6b1eabec66d9,
restaurant,Hidangan Laut,Rumah Makan Ratu Gurih,"Jl. Diponegoro No.26, Kel Ahusen, Kec. Sirimau, Kota Ambon, Maluku","Kota Ambon, Maluku",MALUKU,,Indonesia,911341202.0,,,-3.6996863,128.1811859,https://maps.google.com/?cid=0x0:0x6d46a58903276417,
restaurant,Hidangan Laut,Lateri Beach Restaurant,"Lateri, Kec. Baguala, Kota Ambon, Maluku","Kota Ambon, Maluku",MALUKU,,Indonesia,81240783897.0,,,-3.6479651,128.2330484,https://maps.google.com/?cid=0x0:0x17f2f5444327987a,
restaurant,restaurant,,,,MALUKU,,Indonesia,,,,,,https://maps.google.com/?cid=0x0:0x56400b7db74be6aeu0026onu003dPapedau0026midu003d/g/11j0sbl3k9,
restaurant,restaurant,,,,MALUKU,,Indonesia,,,,,,https://maps.google.com/?cid=0x0:0x56400b7db74be6aeu0026onu003dSeafoodu0026midu003d/g/11j0sbl3k9,
restaurant,restaurant,,,,MALUKU,,Indonesia,,,,,,https://maps.google.com/?cid=0x0:0x56400b7db74be6aeu0026onu003dIkan+Bakar+Bobarau0026midu003d/g/11j0sbl3k9,
restaurant,restaurant,,,,MALUKU,,Indonesia,,,,,,https://maps.google.com/?cid=0x0:0x56400b7db74be6aeu0026onu003dUdang+Cabe+Garamu0026midu003d/g/11j0sbl3k9,
restaurant,restaurant,,,,MALUKU,,Indonesia,,,,,,https://maps.google.com/?cid=0x0:0x56400b7db74be6aeu0026onu003dIkan+Kuah+Kuningu0026midu003d/g/11j0sbl3k9,
restaurant,restaurant,,,,MALUKU,,Indonesia,,,,,,https://maps.google.com/?cid=0x0:0x56400b7db74be6aeu0026onu003dSapo+Tahuu0026midu003d/g/11j0sbl3k9,
restaurant,restaurant,,,,MALUKU,,Indonesia,,,,,,https://maps.google.com/?cid=0x0:0x56400b7db74be6aeu0026onu003dCap+Cayu0026midu003d/g/11j0sbl3k9,
restaurant,restaurant,,,,MALUKU,,Indonesia,,,,,,https://maps.google.com/?cid=0x0:0x56400b7db74be6aeu0026onu003dKepiting+Saos+Padangu0026midu003d/g/11j0sbl3k9,
restaurant,restaurant,,,,MALUKU,,Indonesia,,,,,,https://maps.google.com/?cid=0x0:0x56400b7db74be6aeu0026onu003dIGA+Bskaru0026midu003d/g/11j0sbl3k9,
restaurant,restaurant,,,,MALUKU,,Indonesia,,,,,,https://maps.google.com/?cid=0x0:0x56400b7db74be6aeu0026onu003dEs+Teh+Manisu0026midu003d/g/11j0sbl3k9,
restaurant,restaurant,,,,MALUKU,,Indonesia,,,,,,https://maps.google.com/?cid=0x0:0x56400b7db74be6aeu0026onu003dEs+Jeruku0026midu003d/g/11j0sbl3k9,
restaurant,restaurant,,,,MALUKU,,Indonesia,,,,,,https://maps.google.com/?cid=0x0:0x56400b7db74be6aeu0026onu003dTenderlion+Steak+with+Mashroomu0026midu003d/g/11j0sbl3k9,
restaurant,restaurant,,,,MALUKU,,Indonesia,,,,,,https://maps.google.com/?cid=0x0:0x56400b7db74be6aeu0026onu003dLobster+Saus+Padangu0026midu003d/g/11j0sbl3k9,
restaurant,restaurant,,,,MALUKU,,Indonesia,,,,,,https://maps.google.com/?cid=0x0:0x56400b7db74be6aeu0026onu003dJuice+Gandariau0026midu003d/g/11j0sbl3k9,
restaurant,restaurant,,,,MALUKU,,Indonesia,,,,,,https://maps.google.com/?cid=0x0:0x56400b7db74be6aeu0026onu003dBunga+Pepayau0026midu003d/g/11j0sbl3k9,
restaurant,restaurant,,,,MALUKU,,Indonesia,,,,,,https://maps.google.com/?cid=0x0:0x56400b7db74be6aeu0026onu003dIkan+Goreng+Saos+Lateriu0026midu003d/g/11j0sbl3k9,
restaurant,restaurant,,,,MALUKU,,Indonesia,,,,,,https://maps.google.com/?cid=0x0:0x56400b7db74be6aeu0026onu003dKangkung+Cahu0026midu003d/g/11j0sbl3k9,
restaurant,restaurant,,,,MALUKU,,Indonesia,,,,,,https://maps.google.com/?cid=0x0:0x56400b7db74be6aeu0026onu003dKopi+Hitamu0026midu003d/g/11j0sbl3k9,
restaurant,restaurant,Aru Sel. Utara,"Kabupaten Kepulauan Aru, Maluku","Kabupaten Kepulauan Aru, Maluku",MALUKU,,Indonesia,,,,-6.3176181,134.1364572,https://maps.google.com/?cid=0x0:0x13cf15b3cd64f30f,
restaurant,Restoran,Warung Arema,"W7VM+8H5, Benjina, Kec. Aru Tengah, Kabupaten Kepulauan Aru, Maluku","Kabupaten Kepulauan Aru, Maluku",MALUKU,,Indonesia,,,,-6.0567373,134.2839773,https://maps.google.com/?cid=0x0:0xc1170ae536ec2d37,
restaurant,Rumah Makan,Rumah Makan Bunda Aru,"66QC+R76, Jl. Cendrawasih, Siwalima, Kec. Pulau-Pulau Aru, Kabupaten Kepulauan Aru, Maluku","Kabupaten Kepulauan Aru, Maluku",MALUKU,,Indonesia,,,,-5.7604718,134.2206362,https://maps.google.com/?cid=0x0:0xd60e63943f47cc78,
restaurant,Rumah Makan,Warung Makan Tanjung (Erna),"66R5+QCJ, Siwalima, Kec. Pulau-Pulau Aru, Kabupaten Kepulauan Aru, Maluku","Kabupaten Kepulauan Aru, Maluku",MALUKU,,Indonesia,,,,-5.7580455,134.208512,https://maps.google.com/?cid=0x0:0x937519a0e11b81b2,
cafe,cafe,Maluku 97662,"Wahayum, Kec. Aru Utara, Kabupaten Kepulauan Aru, Maluku","Kabupaten Kepulauan Aru, Maluku",MALUKU,,Indonesia,,,,-5.4217993,134.5134044,https://maps.google.com/?cid=0x0:0xdef6a79ae1d70a3d,
cafe,Kafe,Rame-Rame,"Jl.Wara, Maluku 97662","Kabupaten Kepulauan Aru, Maluku",MALUKU,,Indonesia,82240778740.0,,,-5.7667797,134.2243183,https://maps.google.com/?cid=0x0:0x97a8d31c759cf9b4,
cafe,Kedai Kopi,GOSPEL Cafe  Resto,"Siwalima, Kec. Pulau-Pulau Aru, Kabupaten Kepulauan Aru, Maluku 97662","Kec. Pulau-Pulau Aru, Kabupaten Kepulauan Aru",MALUKU,97662.0,Indonesia,82239884671.0,,,-5.7746617,134.210218,https://maps.google.com/?cid=0x0:0xa10d26e691897360,
cafe,Kafe,Kakatoea Coffee and Space,"Jl. Rabiajala, Siwalima, Kec. Pulau-Pulau Aru, Kabupaten Kepulauan Aru, Maluku","Kabupaten Kepulauan Aru, Maluku",MALUKU,,Indonesia,82187477779.0,,,-5.7594661,134.2170427,https://maps.google.com/?cid=0x0:0x1e41f1495ba0e6a8,
cafe,Kedai Kopi,Cafe sinar sari/Queen,"56X6+9J3, Durjela, Kec. Pulau-Pulau Aru, Kabupaten Kepulauan Aru, Maluku","Kabupaten Kepulauan Aru, Maluku",MALUKU,,Indonesia,,,,-5.8016218,134.2115375,https://maps.google.com/?cid=0x0:0x77e9d99ff21c8187,
cafe,Brunch,Singah Dolo B2,"Dusun marbali, Dono, Kec. Aru Utara, Kabupaten Kepulauan Aru, Maluku 97662","Dono, Kec. Aru Utara, Kabupaten Kepulauan Aru",MALUKU,97662.0,Indonesia,,,,-5.4217783,134.513404,https://maps.google.com/?cid=0x0:0x18c7121ab1bcf0bf,
cafe,Kafe,Sipur,"66R9+C46, Unnamed Road, Siwalima, Kec. Pulau-Pulau Aru, Kabupaten Kepulauan Aru, Maluku","Kabupaten Kepulauan Aru, Maluku",MALUKU,,Indonesia,,,,-5.7589666,134.2177599,https://maps.google.com/?cid=0x0:0x5a36f1a2de348597,
cafe,Rumah Makan,"CafeResto GG, Dobo","66R5+RMV, Jl.Rabia Jala, Siwalima, Kec. Pulau-Pulau Aru, Kabupaten Kepulauan Aru, Maluku","Kabupaten Kepulauan Aru, Maluku",MALUKU,,Indonesia,81298800462.0,,,-5.7578802,134.2091621,https://maps.google.com/?cid=0x0:0xb879ca27c25a7dc3,
cafe,Kedai Kopi,GOSPEL Cafe  Resto,"Siwalima, Kec. Pulau-Pulau Aru, Kabupaten Kepulauan Aru, Maluku 97662","Kec. Pulau-Pulau Aru, Kabupaten Kepulauan Aru",MALUKU,97662.0,Indonesia,82239884671.0,,,-5.7746617,134.210218,https://maps.google.com/?cid=0x0:0xa10d26e691897360,
cafe,Restoran,K'Cafe Dobo Aru (Keyner Cafe),"66G8+PHQ, Siwalima, Kec. Pulau-Pulau Aru, Kabupaten Kepulauan Aru, Maluku","Kabupaten Kepulauan Aru, Maluku",MALUKU,,Indonesia,85354453322.0,,,-5.7731643,134.2164926,https://maps.google.com/?cid=0x0:0x62c8ed0fc4921315,
cafe,cafe,,,,MALUKU,,Indonesia,,,,,,https://maps.google.com/?cid=0x0:0xa10d26e691897360u0026onu003dIkan+Bakaru0026midu003d/g/11h9rq2npf,
cafe,cafe,,,,MALUKU,,Indonesia,,,,,,https://maps.google.com/?cid=0x0:0xa10d26e691897360u0026onu003dKwetiau+Capcay+Seafoodu0026midu003d/g/11h9rq2npf,
cafe,cafe,,,,MALUKU,,Indonesia,,,,,,https://maps.google.com/?cid=0x0:0xa10d26e691897360u0026onu003dSosisu0026midu003d/g/11h9rq2npf,
cafe,cafe,,,,MALUKU,,Indonesia,,,,,,https://maps.google.com/?cid=0x0:0xa10d26e691897360u0026onu003dKepiting+Saus+Tiramu0026midu003d/g/11h9rq2npf,
cafe,cafe,,,,MALUKU,,Indonesia,,,,,,https://maps.google.com/?cid=0x0:0xa10d26e691897360u0026onu003dEs+Buah+Segaru0026midu003d/g/11h9rq2npf,
cafe,cafe,,,,MALUKU,,Indonesia,,,,,,https://maps.google.com/?cid=0x0:0xa10d26e691897360u0026onu003dIce+Latteu0026midu003d/g/11h9rq2npf,
cafe,cafe,,,,MALUKU,,Indonesia,,,,,,https://maps.google.com/?cid=0x0:0xa10d26e691897360u0026onu003dMie+Lada+Hitamu0026midu003d/g/11h9rq2npf,
cafe,cafe,,,,MALUKU,,Indonesia,,,,,,https://maps.google.com/?cid=0x0:0xa10d26e691897360u0026onu003dMie+Ayam+Jakartau0026midu003d/g/11h9rq2npf,
cafe,cafe,,,,MALUKU,,Indonesia,,,,,,https://maps.google.com/?cid=0x0:0xa10d26e691897360u0026onu003dCha+Toge+Ikan+Asinu0026midu003d/g/11h9rq2npf,
cafe,cafe,,,,MALUKU,,Indonesia,,,,,,https://maps.google.com/?cid=0x0:0xa10d26e691897360u0026onu003dNasi+Gorengu0026midu003d/g/11h9rq2npf,
cafe,cafe,,,,MALUKU,,Indonesia,,,,,,https://maps.google.com/?cid=0x0:0xa10d26e691897360u0026onu003dPisang+Coklatu0026midu003d/g/11h9rq2npf,
cafe,cafe,,,,MALUKU,,Indonesia,,,,,,https://maps.google.com/?cid=0x0:0xa10d26e691897360u0026onu003dIkan+Rica-Ricau0026midu003d/g/11h9rq2npf,
cafe,cafe,,,,MALUKU,,Indonesia,,,,,,https://maps.google.com/?cid=0x0:0xa10d26e691897360u0026onu0026midu003d/g/11h9rq2npf,
cafe,cafe,,,,MALUKU,,Indonesia,,,,,,https://maps.google.com/?cid=0x0:0xa10d26e691897360u0026onu003dKopi+Hitamu0026midu003d/g/11h9rq2npf,
cafe,Komplek perumahan,Iannone home,"66F6+W8R, Siwalima, Kec. Pulau-Pulau Aru, Kabupaten Kepulauan Aru, Maluku","Kabupaten Kepulauan Aru, Maluku",MALUKU,,Indonesia,,,,-5.775135,134.2107583,https://maps.google.com/?cid=0x0:0x9e7c5219b0202efd,
cafe,Kedai Kopi,GOSPEL Cafe  Resto,"Siwalima, Kec. Pulau-Pulau Aru, Kabupaten Kepulauan Aru, Maluku 97662","Kec. Pulau-Pulau Aru, Kabupaten Kepulauan Aru",MALUKU,97662.0,Indonesia,82239884671.0,,,-5.7746617,134.210218,https://maps.google.com/?cid=0x0:0xa10d26e691897360,
cafe,Nasi,Cafe Talia,"66R7+CGM, Siwalima, Kec. Pulau-Pulau Aru, Kabupaten Kepulauan Aru, Maluku","Kabupaten Kepulauan Aru, Maluku",MALUKU,,Indonesia,85244613461.0,,,-5.7589118,134.2138062,https://maps.google.com/?cid=0x0:0xb7f72a6ad08271d1,
cafe,Kedai Kopi,Cafe sinar sari/Queen,"56X6+9J3, Durjela, Kec. Pulau-Pulau Aru, Kabupaten Kepulauan Aru, Maluku","Kabupaten Kepulauan Aru, Maluku",MALUKU,,Indonesia,,,,-5.8016218,134.2115375,https://maps.google.com/?cid=0x0:0x77e9d99ff21c8187,
cafe,cafe,Kec. Aru Tengah,"Kabupaten Kepulauan Aru, Maluku","Kabupaten Kepulauan Aru, Maluku",MALUKU,,Indonesia,,,,-6.2383689,134.4370606,https://maps.google.com/?cid=0x0:0xbd0c26a425f3052c,
cafe,Kafe,Kakatoea Coffee and Space,"Jl. Rabiajala, Siwalima, Kec. Pulau-Pulau Aru, Kabupaten Kepulauan Aru, Maluku","Kabupaten Kepulauan Aru, Maluku",MALUKU,,Indonesia,82187477779.0,,,-5.7594661,134.2170427,https://maps.google.com/?cid=0x0:0x1e41f1495ba0e6a8,
cafe,Komplek perumahan,FANAN CAFE,"66QC+WV5, Siwalima, Kec. Pulau-Pulau Aru, Kabupaten Kepulauan Aru, Maluku","Kabupaten Kepulauan Aru, Maluku",MALUKU,,Indonesia,,,,-5.7602278,134.2222275,https://maps.google.com/?cid=0x0:0x31c0c75b57ce8cf1,
cafe,Kedai Kopi,Tiara Coffee House  Free Wifi,"Siwalima, Kec. Pulau-Pulau Aru, Kabupaten Kepulauan Aru, Maluku","Kabupaten Kepulauan Aru, Maluku",MALUKU,,Indonesia,81362714231.0,,,-5.7599952,134.2214367,https://maps.google.com/?cid=0x0:0x89d08faa80f4079c,
cafe,Kafe,Dzafa Kafe,"66RM+7X3, Galay Dubu, Kec. Pulau-Pulau Aru, Kabupaten Kepulauan Aru, Maluku","Kabupaten Kepulauan Aru, Maluku",MALUKU,,Indonesia,,,,-5.7593609,134.234918,https://maps.google.com/?cid=0x0:0x145bd346e43ce3ca,
cafe,Restoran,Warung Arema,"W7VM+8H5, Benjina, Kec. Aru Tengah, Kabupaten Kepulauan Aru, Maluku","Kabupaten Kepulauan Aru, Maluku",MALUKU,,Indonesia,,,,-6.0567373,134.2839773,https://maps.google.com/?cid=0x0:0xc1170ae536ec2d37,
cafe,Kafe,dapoer de'izza,"66R5+PFQ, Siwalima, Kec. Pulau-Pulau Aru, Kabupaten Kepulauan Aru, Maluku","Kabupaten Kepulauan Aru, Maluku",MALUKU,,Indonesia,81344837310.0,,,-5.7581675,134.2087297,https://maps.google.com/?cid=0x0:0x3c5c26c75171369b,
cafe,Kafe,Cafe Gosyen,"66J4+QXF, Jl. Cendrawasih, Siwalima, Kec. Pulau-Pulau Aru, Kabupaten Kepulauan Aru, Maluku","Kabupaten Kepulauan Aru, Maluku",MALUKU,,Indonesia,,,,-5.7680642,134.2074331,https://maps.google.com/?cid=0x0:0xdfb2e4f2b309277e,
cafe,Kafe,Rame-Rame,"Jl.Wara, Maluku 97662","Kabupaten Kepulauan Aru, Maluku",MALUKU,,Indonesia,82240778740.0,,,-5.7667797,134.2243183,https://maps.google.com/?cid=0x0:0x97a8d31c759cf9b4,
cafe,Kedai Kopi,Cafe chiruci,"66GF+58C, Siwalima, Kec. Pulau-Pulau Aru, Kabupaten Kepulauan Aru, Maluku","Kabupaten Kepulauan Aru, Maluku",MALUKU,,Indonesia,,,,-5.7745602,134.2232554,https://maps.google.com/?cid=0x0:0x33c2d6f9004bea45,
cafe,Restoran,K'Cafe Dobo Aru (Keyner Cafe),"66G8+PHQ, Siwalima, Kec. Pulau-Pulau Aru, Kabupaten Kepulauan Aru, Maluku","Kabupaten Kepulauan Aru, Maluku",MALUKU,,Indonesia,85354453322.0,,,-5.7731643,134.2164926,https://maps.google.com/?cid=0x0:0x62c8ed0fc4921315,
cafe,Kafe,Sipur,"66R9+C46, Unnamed Road, Siwalima, Kec. Pulau-Pulau Aru, Kabupaten Kepulauan Aru, Maluku","Kabupaten Kepulauan Aru, Maluku",MALUKU,,Indonesia,,,,-5.7589666,134.2177599,https://maps.google.com/?cid=0x0:0x5a36f1a2de348597,
cafe,cafe,Galaxy Karaoke Dobo,"RH42+43P, Dobo Kepulauan Aru, Algadang, Kec. Aru Tengah, Kabupaten Kepulauan Aru, Maluku","Kabupaten Kepulauan Aru, Maluku",MALUKU,,Indonesia,,,,-6.1946502,134.5501935,https://maps.google.com/?cid=0x0:0xaa96968410789921,
cafe,Kedai Kopi,Tiwyidea_food,"66H8+H23, Jl. Cendrawasih, Siwalima, Kec. Pulau-Pulau Aru, Kabupaten Kepulauan Aru, Maluku","Kabupaten Kepulauan Aru, Maluku",MALUKU,,Indonesia,81343372039.0,,,-5.771101,134.2150442,https://maps.google.com/?cid=0x0:0xce5d6168475ddf4,
cafe,Kedai Kopi,GOSPEL Cafe  Resto,"Siwalima, Kec. Pulau-Pulau Aru, Kabupaten Kepulauan Aru, Maluku 97662","Kec. Pulau-Pulau Aru, Kabupaten Kepulauan Aru",MALUKU,97662.0,Indonesia,82239884671.0,,,-5.7746617,134.210218,https://maps.google.com/?cid=0x0:0xa10d26e691897360,
cafe,cafe,Maluku 97662,"Wahayum, Kec. Aru Utara, Kabupaten Kepulauan Aru, Maluku","Kabupaten Kepulauan Aru, Maluku",MALUKU,,Indonesia,,,,-5.4217993,134.5134044,https://maps.google.com/?cid=0x0:0xdef6a79ae1d70a3d,
cafe,Brunch,Singah Dolo B2,"Dusun marbali, Dono, Kec. Aru Utara, Kabupaten Kepulauan Aru, Maluku 97662","Dono, Kec. Aru Utara, Kabupaten Kepulauan Aru",MALUKU,97662.0,Indonesia,,,,-5.4217783,134.513404,https://maps.google.com/?cid=0x0:0x18c7121ab1bcf0bf,
cafe,Kafe,Kakatoea Coffee and Space,"Jl. Rabiajala, Siwalima, Kec. Pulau-Pulau Aru, Kabupaten Kepulauan Aru, Maluku","Kabupaten Kepulauan Aru, Maluku",MALUKU,,Indonesia,82187477779.0,,,-5.7594661,134.2170427,https://maps.google.com/?cid=0x0:0x1e41f1495ba0e6a8,
cafe,cafe,Febby,"9Q27+XF9, Kompane, Kec. Aru Utara Timur Batuley, Kabupaten Kepulauan Aru, Maluku","Kabupaten Kepulauan Aru, Maluku",MALUKU,,Indonesia,,,,-5.64759,134.7637333,https://maps.google.com/?cid=0x0:0x61bd4f4dc1fa6b55,
cafe,Kedai Kopi,ARU COFFEA,"Jl. Borobudur Raya No.18, RT.002/RW.015, Cibodas Baru, Kec. Cibodas, Kota Tangerang, Banten 15138","RT.002/RW.015, Cibodas Baru, Kec. Cibodas, Kota Tangerang",MALUKU,15138.0,Indonesia,81292630369.0,,,-6.2082304,106.6050501,https://maps.google.com/?cid=0x0:0xd318ed5d6908a9b1,
cafe,Kedai Kopi,Aru Coffee,"Jl. Prof. M Yamin SH No.89, Khusus Kota Selong, Kec. Selong, Kabupaten Lombok Timur, Nusa Tenggara Bar. 83619","Khusus Kota Selong, Kec. Selong, Kabupaten Lombok Timur",MALUKU,83619.0,Indonesia,85950708123.0,,,-8.6525316,116.5349757,https://maps.google.com/?cid=0x0:0xacbc0f99179158a6,
cafe,Restoran,Spice Island Cafe,"Nusantara, Banda, Nusantara, Kec. Banda, Central Maluku Regency, Maluku","Central Maluku Regency, Maluku",MALUKU,,Indonesia,81321585332.0,,,-4.5254486,129.8971799,https://maps.google.com/?cid=0x0:0xd251109fef3fd171,
cafe,cafe,Kec. Sir-Sir,"Kabupaten Kepulauan Aru, Maluku","Kabupaten Kepulauan Aru, Maluku",MALUKU,,Indonesia,,,,-5.5652523,134.4449374,https://maps.google.com/?cid=0x0:0xbaca49c434e2b7ff,
cafe,Kedai Kopi,GOSPEL Cafe  Resto,"Siwalima, Kec. Pulau-Pulau Aru, Kabupaten Kepulauan Aru, Maluku 97662","Kec. Pulau-Pulau Aru, Kabupaten Kepulauan Aru",MALUKU,97662.0,Indonesia,82239884671.0,,,-5.7746617,134.210218,https://maps.google.com/?cid=0x0:0xa10d26e691897360,
cafe,Restoran,Kim Kebab Cafe,"Jl. Jend. Sudirman, Kel. Ohoijang Watdek, Kec. Kei Kecil, Kabupaten Maluku Tenggara, Maluku","Kabupaten Maluku Tenggara, Maluku",MALUKU,,Indonesia,,,,-5.6499515,132.7409667,https://maps.google.com/?cid=0x0:0xd7f5b243aaf7029,
cafe,Kedai Kopi,CAFE FID TILUS,"8PVF+4MG, Kolser, Kec. Kei Kecil, Kabupaten Maluku Tenggara, Maluku","Kabupaten Maluku Tenggara, Maluku",MALUKU,,Indonesia,85243459896.0,,,-5.6571807,132.7242034,https://maps.google.com/?cid=0x0:0xfe6259f95e0b4369,
cafe,Italia,Cafe Kissa - Grand Indonesia,"Shinta Lobby, Grand Indonesia Mall, East Mall, Jl. Tlk. Betung I No.45A Ground Floor, RT.1/RW.5, Menteng, Kec. Menteng, Kota Jakarta Pusat, Daerah Khusus Ibukota Jakarta 10310","Grand Indonesia Mall, East Mall, Jl. Tlk. Betung I No.45A Ground Floor, RT.1/RW.5, Menteng, Kec. Menteng, Kota Jakarta Pusat",MALUKU,10310.0,Indonesia,8118001556.0,,,-6.1963714,106.8225994,https://maps.google.com/?cid=0x0:0x89e344c04d23a8ad,
cafe,Hidangan Laut,K62 Kalumpang Cafe  Resto,"Q9QM+6Q9, Jl. Kapitan Pattimura, Stadion, Kec. Ternate Tengah, Kota Ternate, Maluku Utara","Kota Ternate, Maluku Utara",MALUKU,,Indonesia,9213119236.0,,,0.7880406,127.3844696,https://maps.google.com/?cid=0x0:0x1013cf32102f874c,
cafe,Restoran,K'Cafe Dobo Aru (Keyner Cafe),"66G8+PHQ, Siwalima, Kec. Pulau-Pulau Aru, Kabupaten Kepulauan Aru, Maluku","Kabupaten Kepulauan Aru, Maluku",MALUKU,,Indonesia,85354453322.0,,,-5.7731643,134.2164926,https://maps.google.com/?cid=0x0:0x62c8ed0fc4921315,
cafe,Kafe,Cafe Borero,"Jl. Pusaka No.01, Tomagoba, Tidore, Kota Tidore Kepulauan, Maluku Utara","Kota Tidore Kepulauan, Maluku Utara",MALUKU,,Indonesia,82190003033.0,,,0.6670624,127.4437836,https://maps.google.com/?cid=0x0:0x3f263fe72bae3896,
cafe,cafe,Febby,"9Q27+XF9, Kompane, Kec. Aru Utara Timur Batuley, Kabupaten Kepulauan Aru, Maluku","Kabupaten Kepulauan Aru, Maluku",MALUKU,,Indonesia,,,,-5.64759,134.7637333,https://maps.google.com/?cid=0x0:0x61bd4f4dc1fa6b55,
cafe,Hidangan Laut,Crown Resto,"Jl. AM Sangaji No.30, Kel Honipopu, Kec. Sirimau, Kota Ambon, Maluku 97126","Kel Honipopu, Kec. Sirimau, Kota Ambon",MALUKU,97126.0,Indonesia,85100351548.0,,,-3.6969971,128.1788786,https://maps.google.com/?cid=0x0:0x200f7ed4c75019b9,
cafe,Betawi,Dapur Fizzul - Rumah Makan Khas Maluku Jakarta No.1 Halal di Dunia,"Food Court Depan Grha Essi, Jl. Raya Ceger No.5, RT.5/RW.1, Ceger, Kec. Cipayung, Kota Jakarta Timur, Daerah Khusus Ibukota Jakarta 13820","Jl. Raya Ceger No.5, RT.5/RW.1, Ceger, Kec. Cipayung, Kota Jakarta Timur",MALUKU,13820.0,Indonesia,82131529069.0,,,-6.307207,106.8886462,https://maps.google.com/?cid=0x0:0xb39e6e8a1a4f4d03,
cafe,Kafe,Forganza Resto  Cafe,"Kelanit, Kec. Kei Kecil, Kabupaten Maluku Tenggara, Maluku","Kabupaten Maluku Tenggara, Maluku",MALUKU,,Indonesia,82231789845.0,,,-5.6575049,132.7029619,https://maps.google.com/?cid=0x0:0x35e7e74d6d2279bc,
cafe,Restoran,CafeJSR,"Jl. Parpostel No.6, Jatiasih, Kec. Jatiasih, Kota Bks, Jawa Barat 17423","Jatiasih, Kec. Jatiasih, Kota Bks",MALUKU,17423.0,Indonesia,81398898131.0,,,-6.3080455,106.9552963,https://maps.google.com/?cid=0x0:0x89820b91bae401a9,
cafe,Kedai Kopi,Sir Coffee House,"Jl. Cut Mutia No.140, RT.001/RW.002, Sepanjang Jaya, Kec. Rawalumbu, Kota Bks, Jawa Barat 17114","RT.001/RW.002, Sepanjang Jaya, Kec. Rawalumbu, Kota Bks",MALUKU,17114.0,Indonesia,,,,-6.2614597,107.0013263,https://maps.google.com/?cid=0x0:0x115fab1062487242,
cafe,cafe,Sir Coffee,"Pasiran, Kec. Singkawang Bar., Kota Singkawang, Kalimantan Barat","Kota Singkawang, Kalimantan Barat",MALUKU,,Indonesia,,,,0.9065522,108.9866262,https://maps.google.com/?cid=0x0:0xdae25477d97d0b9b,
cafe,Kafe,Selasar Coffee  Kitchen,"Jl. Gn. Raya No.22, RT.1/RW.001, Cireundeu, Kec. Ciputat Tim., Kota Tangerang Selatan, Banten 15419","RT.1/RW.001, Cireundeu, Kec. Ciputat Tim., Kota Tangerang Selatan",MALUKU,15419.0,Indonesia,,,,-6.312356,106.7688794,https://maps.google.com/?cid=0x0:0x906dcce606ff1d8f,
cafe,Kedai Kopi,Sir Koffie,"Jl. Marelan Raya, Tanah Enam Ratus, Kec. Medan Marelan, Kota Medan, Sumatera Utara 20243","Tanah Enam Ratus, Kec. Medan Marelan, Kota Medan",MALUKU,20243.0,Indonesia,857621565196.0,,,3.6796214,98.6559329,https://maps.google.com/?cid=0x0:0x1980f9c6d43cfa73,
cafe,Restoran,KEDAI SIREL,"Jl. Raya Curug - Kosambi No.51, RT.3/RW.3, Pancawati, Kec. Klari, Karawang, Jawa Barat 41371","RT.3/RW.3, Pancawati, Kec. Klari, Karawang",MALUKU,41371.0,Indonesia,8982223194.0,,,-6.3718216,107.3813549,https://maps.google.com/?cid=0x0:0x66e19065c545f9ae,
cafe,cafe,Aru Tengah Tim.,"Kabupaten Kepulauan Aru, Maluku","Kabupaten Kepulauan Aru, Maluku",MALUKU,,Indonesia,,,,-6.0878603,134.6630541,https://maps.google.com/?cid=0x0:0x39fa9da111d69f1a,
cafe,Kedai Kopi,GOSPEL Cafe  Resto,"Siwalima, Kec. Pulau-Pulau Aru, Kabupaten Kepulauan Aru, Maluku 97662","Kec. Pulau-Pulau Aru, Kabupaten Kepulauan Aru",MALUKU,97662.0,Indonesia,82239884671.0,,,-5.7746617,134.210218,https://maps.google.com/?cid=0x0:0xa10d26e691897360,
cafe,cafe,Galaxy Karaoke Dobo,"RH42+43P, Dobo Kepulauan Aru, Algadang, Kec. Aru Tengah, Kabupaten Kepulauan Aru, Maluku","Kabupaten Kepulauan Aru, Maluku",MALUKU,,Indonesia,,,,-6.1946502,134.5501935,https://maps.google.com/?cid=0x0:0xaa96968410789921,
cafe,cafe,Cafe'Ladiezaqi,"66P9+PJQ, Jl. Cendrawasih puncak, Siwalima, Kec. Pulau-Pulau Aru, Kabupaten Kepulauan Aru, Maluku","Kabupaten Kepulauan Aru, Maluku",MALUKU,,Indonesia,82397347777.0,,,-5.7631694,134.2191039,https://maps.google.com/?cid=0x0:0x40ef63e6dc3a2892,
cafe,Kedai Kopi,ARU COFFEA,"Jl. Borobudur Raya No.18, RT.002/RW.015, Cibodas Baru, Kec. Cibodas, Kota Tangerang, Banten 15138","RT.002/RW.015, Cibodas Baru, Kec. Cibodas, Kota Tangerang",MALUKU,15138.0,Indonesia,81292630369.0,,,-6.2082304,106.6050501,https://maps.google.com/?cid=0x0:0xd318ed5d6908a9b1,
cafe,Kafe,Euforia Cafe,"Siwalima, Kec. Pulau-Pulau Aru, Kabupaten Kepulauan Aru, Maluku","Kabupaten Kepulauan Aru, Maluku",MALUKU,,Indonesia,,,,-5.7593486,134.2169438,https://maps.google.com/?cid=0x0:0x6ee0f2101858f8a2,
cafe,Kedai Kopi,GOSPEL Cafe  Resto,"Siwalima, Kec. Pulau-Pulau Aru, Kabupaten Kepulauan Aru, Maluku 97662","Kec. Pulau-Pulau Aru, Kabupaten Kepulauan Aru",MALUKU,97662.0,Indonesia,82239884671.0,,,-5.7746617,134.210218,https://maps.google.com/?cid=0x0:0xa10d26e691897360,
cafe,cafe,,,,MALUKU,,Indonesia,,,,,,https://maps.google.com/?cid=0x0:0xa10d26e691897360u0026onu003dIkan+Bakaru0026midu003d/g/11h9rq2npf,
cafe,cafe,,,,MALUKU,,Indonesia,,,,,,https://maps.google.com/?cid=0x0:0xa10d26e691897360u0026onu003dKepiting+Saus+Tiramu0026midu003d/g/11h9rq2npf,
cafe,cafe,,,,MALUKU,,Indonesia,,,,,,https://maps.google.com/?cid=0x0:0xa10d26e691897360u0026onu003dSosisu0026midu003d/g/11h9rq2npf,
cafe,cafe,,,,MALUKU,,Indonesia,,,,,,https://maps.google.com/?cid=0x0:0xa10d26e691897360u0026onu003dIce+Latteu0026midu003d/g/11h9rq2npf,
cafe,cafe,,,,MALUKU,,Indonesia,,,,,,https://maps.google.com/?cid=0x0:0xa10d26e691897360u0026onu003dEs+Buah+Segaru0026midu003d/g/11h9rq2npf,
cafe,cafe,,,,MALUKU,,Indonesia,,,,,,https://maps.google.com/?cid=0x0:0xa10d26e691897360u0026onu003dMie+Ayam+Jakartau0026midu003d/g/11h9rq2npf,
cafe,cafe,,,,MALUKU,,Indonesia,,,,,,https://maps.google.com/?cid=0x0:0xa10d26e691897360u0026onu003dMie+Lada+Hitamu0026midu003d/g/11h9rq2npf,
cafe,cafe,,,,MALUKU,,Indonesia,,,,,,https://maps.google.com/?cid=0x0:0xa10d26e691897360u0026onu003dCha+Toge+Ikan+Asinu0026midu003d/g/11h9rq2npf,
cafe,cafe,,,,MALUKU,,Indonesia,,,,,,https://maps.google.com/?cid=0x0:0xa10d26e691897360u0026onu003dIkan+Rica-Ricau0026midu003d/g/11h9rq2npf,
cafe,cafe,,,,MALUKU,,Indonesia,,,,,,https://maps.google.com/?cid=0x0:0xa10d26e691897360u0026onu003dPisang+Coklatu0026midu003d/g/11h9rq2npf,
cafe,cafe,,,,MALUKU,,Indonesia,,,,,,https://maps.google.com/?cid=0x0:0xa10d26e691897360u0026onu003dKopi+Hitamu0026midu003d/g/11h9rq2npf,
cafe,cafe,,,,MALUKU,,Indonesia,,,,,,https://maps.google.com/?cid=0x0:0xa10d26e691897360u0026onu003dNasi+Gorengu0026midu003d/g/11h9rq2npf,
cafe,cafe,,,,MALUKU,,Indonesia,,,,,,https://maps.google.com/?cid=0x0:0xa10d26e691897360u0026onu0026midu003d/g/11h9rq2npf,
cafe,Komplek perumahan,Iannone home,"66F6+W8R, Siwalima, Kec. Pulau-Pulau Aru, Kabupaten Kepulauan Aru, Maluku","Kabupaten Kepulauan Aru, Maluku",MALUKU,,Indonesia,,,,-5.775135,134.2107583,https://maps.google.com/?cid=0x0:0x9e7c5219b0202efd,
cafe,cafe,Kec. Aru Tengah Sel.,"Kabupaten Kepulauan Aru, Maluku","Kabupaten Kepulauan Aru, Maluku",MALUKU,,Indonesia,,,,-6.306355,134.9014926,https://maps.google.com/?cid=0x0:0x16e9854ea8507897,
cafe,cafe,Cafe'Ladiezaqi,"66P9+PJQ, Jl. Cendrawasih puncak, Siwalima, Kec. Pulau-Pulau Aru, Kabupaten Kepulauan Aru, Maluku","Kabupaten Kepulauan Aru, Maluku",MALUKU,,Indonesia,82397347777.0,,,-5.7631694,134.2191039,https://maps.google.com/?cid=0x0:0x40ef63e6dc3a2892,
cafe,Kafe,kanees coffee,"66H8+J4H, Jl. Cendrawasih, Siwalima, Kec. Pulau-Pulau Aru, Kabupaten Kepulauan Aru, Maluku","Kabupaten Kepulauan Aru, Maluku",MALUKU,,Indonesia,,,,-5.7709619,134.215185,https://maps.google.com/?cid=0x0:0xcad7d9e19789360b,
cafe,Kedai Kopi,GOSPEL Cafe  Resto,"Siwalima, Kec. Pulau-Pulau Aru, Kabupaten Kepulauan Aru, Maluku 97662","Kec. Pulau-Pulau Aru, Kabupaten Kepulauan Aru",MALUKU,97662.0,Indonesia,82239884671.0,,,-5.7746617,134.210218,https://maps.google.com/?cid=0x0:0xa10d26e691897360,
cafe,cafe,,,,MALUKU,,Indonesia,,,,,,https://maps.google.com/?cid=0x0:0xa10d26e691897360u0026onu003dIkan+Bakaru0026midu003d/g/11h9rq2npf,
cafe,Kedai Kopi,Cafe sinar sari/Queen,"56X6+9J3, Durjela, Kec. Pulau-Pulau Aru, Kabupaten Kepulauan Aru, Maluku","Kabupaten Kepulauan Aru, Maluku",MALUKU,,Indonesia,,,,-5.8016218,134.2115375,https://maps.google.com/?cid=0x0:0x77e9d99ff21c8187,
cafe,cafe,,,,MALUKU,,Indonesia,,,,,,https://maps.google.com/?cid=0x0:0xa10d26e691897360u0026onu003dKwetiau+Capcay+Seafoodu0026midu003d/g/11h9rq2npf,
cafe,cafe,,,,MALUKU,,Indonesia,,,,,,https://maps.google.com/?cid=0x0:0xa10d26e691897360u0026onu003dKepiting+Saus+Tiramu0026midu003d/g/11h9rq2npf,
cafe,cafe,,,,MALUKU,,Indonesia,,,,,,https://maps.google.com/?cid=0x0:0xa10d26e691897360u0026onu003dSosisu0026midu003d/g/11h9rq2npf,
cafe,cafe,,,,MALUKU,,Indonesia,,,,,,https://maps.google.com/?cid=0x0:0xa10d26e691897360u0026onu003dEs+Buah+Segaru0026midu003d/g/11h9rq2npf,
cafe,cafe,,,,MALUKU,,Indonesia,,,,,,https://maps.google.com/?cid=0x0:0xa10d26e691897360u0026onu003dIce+Latteu0026midu003d/g/11h9rq2npf,
cafe,cafe,,,,MALUKU,,Indonesia,,,,,,https://maps.google.com/?cid=0x0:0xa10d26e691897360u0026onu003dMie+Lada+Hitamu0026midu003d/g/11h9rq2npf,
cafe,cafe,,,,MALUKU,,Indonesia,,,,,,https://maps.google.com/?cid=0x0:0xa10d26e691897360u0026onu003dMie+Ayam+Jakartau0026midu003d/g/11h9rq2npf,
cafe,cafe,,,,MALUKU,,Indonesia,,,,,,https://maps.google.com/?cid=0x0:0xa10d26e691897360u0026onu003dCha+Toge+Ikan+Asinu0026midu003d/g/11h9rq2npf,
cafe,cafe,,,,MALUKU,,Indonesia,,,,,,https://maps.google.com/?cid=0x0:0xa10d26e691897360u0026onu003dNasi+Gorengu0026midu003d/g/11h9rq2npf,
cafe,cafe,,,,MALUKU,,Indonesia,,,,,,https://maps.google.com/?cid=0x0:0xa10d26e691897360u0026onu003dIkan+Rica-Ricau0026midu003d/g/11h9rq2npf,
cafe,cafe,,,,MALUKU,,Indonesia,,,,,,https://maps.google.com/?cid=0x0:0xa10d26e691897360u0026onu003dKopi+Hitamu0026midu003d/g/11h9rq2npf,
cafe,cafe,,,,MALUKU,,Indonesia,,,,,,https://maps.google.com/?cid=0x0:0xa10d26e691897360u0026onu003dPisang+Coklatu0026midu003d/g/11h9rq2npf,
cafe,cafe,,,,MALUKU,,Indonesia,,,,,,https://maps.google.com/?cid=0x0:0xa10d26e691897360u0026onu0026midu003d/g/11h9rq2npf,
cafe,Komplek perumahan,Iannone home,"66F6+W8R, Siwalima, Kec. Pulau-Pulau Aru, Kabupaten Kepulauan Aru, Maluku","Kabupaten Kepulauan Aru, Maluku",MALUKU,,Indonesia,,,,-5.775135,134.2107583,https://maps.google.com/?cid=0x0:0x9e7c5219b0202efd,
cafe,cafe,Kec. Aru Sel. Tim.,"Kabupaten Kepulauan Aru, Maluku","Kabupaten Kepulauan Aru, Maluku",MALUKU,,Indonesia,,,,-6.9295488,134.1999997,https://maps.google.com/?cid=0x0:0xe3610bc46fe0c5c9,
cafe,cafe,Aru Sel. Utara,"Kabupaten Kepulauan Aru, Maluku","Kabupaten Kepulauan Aru, Maluku",MALUKU,,Indonesia,,,,-6.3176181,134.1364572,https://maps.google.com/?cid=0x0:0x13cf15b3cd64f30f,
cafe,Kedai Kopi,GOSPEL Cafe  Resto,"Siwalima, Kec. Pulau-Pulau Aru, Kabupaten Kepulauan Aru, Maluku 97662","Kec. Pulau-Pulau Aru, Kabupaten Kepulauan Aru",MALUKU,97662.0,Indonesia,82239884671.0,,,-5.7746617,134.210218,https://maps.google.com/?cid=0x0:0xa10d26e691897360,
cafe,Kafe,Euforia Cafe,"Siwalima, Kec. Pulau-Pulau Aru, Kabupaten Kepulauan Aru, Maluku","Kabupaten Kepulauan Aru, Maluku",MALUKU,,Indonesia,,,,-5.7593486,134.2169438,https://maps.google.com/?cid=0x0:0x6ee0f2101858f8a2,
cafe,Kafe,Kakatoea Coffee and Space,"Jl. Rabiajala, Siwalima, Kec. Pulau-Pulau Aru, Kabupaten Kepulauan Aru, Maluku","Kabupaten Kepulauan Aru, Maluku",MALUKU,,Indonesia,82187477779.0,,,-5.7594661,134.2170427,https://maps.google.com/?cid=0x0:0x1e41f1495ba0e6a8,
cafe,Kafe,Cafe Gosyen,"66J4+QXF, Jl. Cendrawasih, Siwalima, Kec. Pulau-Pulau Aru, Kabupaten Kepulauan Aru, Maluku","Kabupaten Kepulauan Aru, Maluku",MALUKU,,Indonesia,,,,-5.7680642,134.2074331,https://maps.google.com/?cid=0x0:0xdfb2e4f2b309277e,
cafe,Kedai Kopi,Tiara Coffee House  Free Wifi,"Siwalima, Kec. Pulau-Pulau Aru, Kabupaten Kepulauan Aru, Maluku","Kabupaten Kepulauan Aru, Maluku",MALUKU,,Indonesia,81362714231.0,,,-5.7599952,134.2214367,https://maps.google.com/?cid=0x0:0x89d08faa80f4079c,
cafe,Kedai Kopi,Cafe chiruci,"66GF+58C, Siwalima, Kec. Pulau-Pulau Aru, Kabupaten Kepulauan Aru, Maluku","Kabupaten Kepulauan Aru, Maluku",MALUKU,,Indonesia,,,,-5.7745602,134.2232554,https://maps.google.com/?cid=0x0:0x33c2d6f9004bea45,
cafe,cafe,,,,MALUKU,,Indonesia,,,,,,https://maps.google.com/?cid=0x0:0xa10d26e691897360u0026onu003dIkan+Bakaru0026midu003d/g/11h9rq2npf,
cafe,Restoran,K'Cafe Dobo Aru (Keyner Cafe),"66G8+PHQ, Siwalima, Kec. Pulau-Pulau Aru, Kabupaten Kepulauan Aru, Maluku","Kabupaten Kepulauan Aru, Maluku",MALUKU,,Indonesia,85354453322.0,,,-5.7731643,134.2164926,https://maps.google.com/?cid=0x0:0x62c8ed0fc4921315,
cafe,Restoran,Warung Arema,"W7VM+8H5, Benjina, Kec. Aru Tengah, Kabupaten Kepulauan Aru, Maluku","Kabupaten Kepulauan Aru, Maluku",MALUKU,,Indonesia,,,,-6.0567373,134.2839773,https://maps.google.com/?cid=0x0:0xc1170ae536ec2d37,
cafe,cafe,,,,MALUKU,,Indonesia,,,,,,https://maps.google.com/?cid=0x0:0xa10d26e691897360u0026onu003dKwetiau+Capcay+Seafoodu0026midu003d/g/11h9rq2npf,
cafe,cafe,,,,MALUKU,,Indonesia,,,,,,https://maps.google.com/?cid=0x0:0xa10d26e691897360u0026onu003dSosisu0026midu003d/g/11h9rq2npf,
cafe,cafe,,,,MALUKU,,Indonesia,,,,,,https://maps.google.com/?cid=0x0:0xa10d26e691897360u0026onu003dEs+Buah+Segaru0026midu003d/g/11h9rq2npf,
cafe,cafe,,,,MALUKU,,Indonesia,,,,,,https://maps.google.com/?cid=0x0:0xa10d26e691897360u0026onu003dKepiting+Saus+Tiramu0026midu003d/g/11h9rq2npf,
cafe,cafe,,,,MALUKU,,Indonesia,,,,,,https://maps.google.com/?cid=0x0:0xa10d26e691897360u0026onu003dMie+Lada+Hitamu0026midu003d/g/11h9rq2npf,
cafe,cafe,,,,MALUKU,,Indonesia,,,,,,https://maps.google.com/?cid=0x0:0xa10d26e691897360u0026onu003dIce+Latteu0026midu003d/g/11h9rq2npf,
cafe,cafe,,,,MALUKU,,Indonesia,,,,,,https://maps.google.com/?cid=0x0:0xa10d26e691897360u0026onu003dCha+Toge+Ikan+Asinu0026midu003d/g/11h9rq2npf,
cafe,cafe,,,,MALUKU,,Indonesia,,,,,,https://maps.google.com/?cid=0x0:0xa10d26e691897360u0026onu003dMie+Ayam+Jakartau0026midu003d/g/11h9rq2npf,
cafe,cafe,,,,MALUKU,,Indonesia,,,,,,https://maps.google.com/?cid=0x0:0xa10d26e691897360u0026onu003dNasi+Gorengu0026midu003d/g/11h9rq2npf,
cafe,cafe,,,,MALUKU,,Indonesia,,,,,,https://maps.google.com/?cid=0x0:0xa10d26e691897360u0026onu003dIkan+Rica-Ricau0026midu003d/g/11h9rq2npf,
cafe,cafe,,,,MALUKU,,Indonesia,,,,,,https://maps.google.com/?cid=0x0:0xa10d26e691897360u0026onu003dPisang+Coklatu0026midu003d/g/11h9rq2npf,
cafe,cafe,,,,MALUKU,,Indonesia,,,,,,https://maps.google.com/?cid=0x0:0xa10d26e691897360u0026onu003dKopi+Hitamu0026midu003d/g/11h9rq2npf,
cafe,cafe,,,,MALUKU,,Indonesia,,,,,,https://maps.google.com/?cid=0x0:0xa10d26e691897360u0026onu0026midu003d/g/11h9rq2npf,
cafe,Komplek perumahan,Iannone home,"66F6+W8R, Siwalima, Kec. Pulau-Pulau Aru, Kabupaten Kepulauan Aru, Maluku","Kabupaten Kepulauan Aru, Maluku",MALUKU,,Indonesia,,,,-5.775135,134.2107583,https://maps.google.com/?cid=0x0:0x9e7c5219b0202efd,
cafe,Rumah Makan,Warung Makan Tanjung (Erna),"66R5+QCJ, Siwalima, Kec. Pulau-Pulau Aru, Kabupaten Kepulauan Aru, Maluku","Kabupaten Kepulauan Aru, Maluku",MALUKU,,Indonesia,,,,-5.7580455,134.208512,https://maps.google.com/?cid=0x0:0x937519a0e11b81b2,
