Category,Real Category,Business Name,Address,City,State,Postal Code,Country,Phone,Email,Website,Latitude,Longitude,Map Link,Details Link
mall,Toko Perbaikan Ponsel,Tripleceluller,"66RP+855, Unnamed Road, Galay Dubu, Kec. Pulau-Pulau Aru, Kabupaten Kepulauan Aru, Maluku","Kabupaten Kepulauan Aru, Maluku",MALUKU,,Indonesia,81247924021.0,,,-5.759228,134.2354952,https://maps.google.com/?cid=0x0:0xacfde29416a4b00a,
mall,mall,Maluku 97662,"Wahayum, Kec. Aru Utara, Kabupaten Kepulauan Aru, Maluku","Kabupaten Kepulauan Aru, Maluku",MALUKU,,Indonesia,,,,-5.4217993,134.5134044,https://maps.google.com/?cid=0x0:0xdef6a79ae1d70a3d,
mall,Toko Elektronik,triple cell,"Galay Dubu, Kec. Pulau-Pulau Aru, Kabupaten Kepulauan Aru, Maluku","Kabupaten Kepulauan Aru, Maluku",MALUKU,,Indonesia,81240985623.0,,,-5.7586994,134.2358462,https://maps.google.com/?cid=0x0:0x2dfc5f5341a09797,
mall,mall,Aru Sel.,"Kabupaten Kepulauan Aru, Maluku","Kabupaten Kepulauan Aru, Maluku",MALUKU,,Indonesia,,,,-6.6833691,134.1720266,https://maps.google.com/?cid=0x0:0x1757c32c3a231e21,
mall,Pusat Perbelanjaan,KIOA SUASAN LA,"F39W+6QX, Kalar Kalar, Aru Sel., Kabupaten Kepulauan Aru, Maluku","Kabupaten Kepulauan Aru, Maluku",MALUKU,,Indonesia,,,,-6.5318782,134.0969876,https://maps.google.com/?cid=0x0:0x6ab1ca6cfee34ad,
mall,Pusat Perbelanjaan,PONDOK SUSAN LA,"F39W+6RV, Kalar Kalar, Aru Sel., Kabupaten Kepulauan Aru, Maluku","Kabupaten Kepulauan Aru, Maluku",MALUKU,,Indonesia,,,,-6.5318736,134.0969874,https://maps.google.com/?cid=0x0:0xb118f650b670064c,
mall,Pusat Perbelanjaan,Pacific Place Mall,"Jl. Jend. Sudirman kav 52-53, Senayan, Kec. Kby. Baru, Kota Jakarta Selatan, Daerah Khusus Ibukota Jakarta 12190","Senayan, Kec. Kby. Baru, Kota Jakarta Selatan",MALUKU,12190.0,Indonesia,2151402828.0,,,-6.2240197,106.8101858,https://maps.google.com/?cid=0x0:0xc4a608b34b5f03cc,
mall,Pusat Perbelanjaan,Mall Plaza Senayan,"Jl. Asia Afrika No.8, RT.1/RW.3, Gelora, Kecamatan Tanah Abang, Kota Jakarta Pusat, Daerah Khusus Ibukota Jakarta 10270","RT.1/RW.3, Gelora, Kecamatan Tanah Abang, Kota Jakarta Pusat",MALUKU,10270.0,Indonesia,215725555.0,,,-6.2255918,106.7993027,https://maps.google.com/?cid=0x0:0x788e3a1eef75ac94,
mall,Pusat Perbelanjaan,Maluku City Mall (MCM),"Jl. Jenderal Sudirman No.1, Hative Kecil, Kec. Sirimau, Kota Ambon, Maluku","Kota Ambon, Maluku",MALUKU,,Indonesia,911352871.0,,,-3.6702679,128.1981163,https://maps.google.com/?cid=0x0:0x2f29bf0afe09144e,
mall,Pusat Perbelanjaan,Ambon City Center (ACC),"Jl. Wolter Monginsidi, Passo, Kec. Baguala, Kota Ambon, Maluku 97232","Passo, Kec. Baguala, Kota Ambon",MALUKU,97232.0,Indonesia,9113869522.0,,,-3.6320889,128.2495582,https://maps.google.com/?cid=0x0:0x91b8ed9da337adeb,
mall,Pusat Perbelanjaan,Blok M Plaza,"Jl. Bulungan No.76, RT.6/RW.6, Kramat Pela, Kec. Kby. Baru, Kota Jakarta Selatan, Daerah Khusus Ibukota Jakarta 12130","RT.6/RW.6, Kramat Pela, Kec. Kby. Baru, Kota Jakarta Selatan",MALUKU,12130.0,Indonesia,217209288.0,,,-6.2441189,106.7976404,https://maps.google.com/?cid=0x0:0x3e110f817acb352d,
mall,Toko,kios anugrah,"69XX+MRR, Karey, Kec. Aru Sel. Tim., Kabupaten Kepulauan Aru, Maluku","Kabupaten Kepulauan Aru, Maluku",MALUKU,,Indonesia,,,,-6.7499141,134.3995406,https://maps.google.com/?cid=0x0:0xc237f0d804bcc08a,
mall,mall,Kec. Aru Tengah,"Kabupaten Kepulauan Aru, Maluku","Kabupaten Kepulauan Aru, Maluku",MALUKU,,Indonesia,,,,-6.2383689,134.4370606,https://maps.google.com/?cid=0x0:0xbd0c26a425f3052c,
mall,Terminal Feri,Pasar benjina,"W7VP+267, Unnamed Road, Benjina, Kec. Aru Tengah, Kabupaten Kepulauan Aru, Maluku","Kabupaten Kepulauan Aru, Maluku",MALUKU,,Indonesia,,,,-6.0574747,134.2855402,https://maps.google.com/?cid=0x0:0x1c78bb4b46cfa5c1,
mall,Toko bahan makanan,e,"653W+H4, Durjela, Kec. Pulau-Pulau Aru, Kabupaten Kepulauan Aru, Maluku","Kabupaten Kepulauan Aru, Maluku",MALUKU,,Indonesia,,,,-5.7961216,134.195265,https://maps.google.com/?cid=0x0:0x91c1e9358a6309d3,
mall,Pusat Perbelanjaan,MR.DIY,"Siwalima, Kec. Pulau-Pulau Aru, Kabupaten Kepulauan Aru, Maluku","Kabupaten Kepulauan Aru, Maluku",MALUKU,,Indonesia,,,,-5.7622629,134.2261539,https://maps.google.com/?cid=0x0:0x37ae10d352d6bd22,
mall,Toko Elektronik,WOOW Elektronik,"Jalan Lukas Mairering No.mor 45, Galay Dubu, Pulau-Pulau Aru, Aru Islands Regency, Maluku 97662","Galay Dubu, Pulau-Pulau Aru, Aru Islands Regency",MALUKU,97662.0,Indonesia,91722221.0,,,-5.7606104,134.2321855,https://maps.google.com/?cid=0x0:0xb97036c26bf2d8a2,
mall,Toko,TOKO ARGENTINA,"763Q+PQ7, Wokam, Lamerang, Kabupaten Kepulauan Aru, Maluku","Kabupaten Kepulauan Aru, Maluku",MALUKU,,Indonesia,,,,-5.7457186,134.2394374,https://maps.google.com/?cid=0x0:0x59f4deed471d7d9c,
mall,Toko Perbaikan Ponsel,Tripleceluller,"66RP+855, Unnamed Road, Galay Dubu, Kec. Pulau-Pulau Aru, Kabupaten Kepulauan Aru, Maluku","Kabupaten Kepulauan Aru, Maluku",MALUKU,,Indonesia,81247924021.0,,,-5.759228,134.2354952,https://maps.google.com/?cid=0x0:0xacfde29416a4b00a,
mall,Pusat Perbelanjaan,Blok M Plaza,"Jl. Bulungan No.76, RT.6/RW.6, Kramat Pela, Kec. Kby. Baru, Kota Jakarta Selatan, Daerah Khusus Ibukota Jakarta 12130","RT.6/RW.6, Kramat Pela, Kec. Kby. Baru, Kota Jakarta Selatan",MALUKU,12130.0,Indonesia,217209288.0,,,-6.2441189,106.7976404,https://maps.google.com/?cid=0x0:0x3e110f817acb352d,
mall,Pusat Perbelanjaan,TOKO AGUNG CEMERLANG,"66RQ+V22, Unnamed Road, Galay Dubu, Kec. Pulau-Pulau Aru, Kabupaten Kepulauan Aru, Maluku","Kabupaten Kepulauan Aru, Maluku",MALUKU,,Indonesia,,,,-5.7578714,134.237503,https://maps.google.com/?cid=0x0:0xc9936639ce0e51ae,
mall,Seafood,Pasar Dobo,"Galay Dubu, Kec. Pulau-Pulau Aru, Kabupaten Kepulauan Aru, Maluku","Kabupaten Kepulauan Aru, Maluku",MALUKU,,Indonesia,,,,-5.759768,134.2316527,https://maps.google.com/?cid=0x0:0x8c6e56322423309,
mall,Pusat Perbelanjaan,Cinere Bellevue Mall,"Jl. Merawan No.23, Pangkalan Jati, Kec. Cinere, Kota Depok, Jawa Barat 16514","Pangkalan Jati, Kec. Cinere, Kota Depok",MALUKU,16514.0,Indonesia,2129403838.0,,,-6.3174008,106.7824389,https://maps.google.com/?cid=0x0:0x7e325b928d45b577,
mall,Pusat Perbelanjaan,Pondok Indah Mall 1,"Jl. Metro Pondok Indah No.Kav. 4, RT.1/RW.16, Pd. Pinang, Kec. Kby. Lama, Kota Jakarta Selatan, Daerah Khusus Ibukota Jakarta 12310","RT.1/RW.16, Pd. Pinang, Kec. Kby. Lama, Kota Jakarta Selatan",MALUKU,12310.0,Indonesia,217506750.0,,,-6.2652166,106.7843165,https://maps.google.com/?cid=0x0:0x682837113c4ea854,
mall,Toko,toko sumber rejeki,"66RQ+R5R Dermaga Pelabuhan Dobo, Galay Dubu, Kec. Pulau-Pulau Aru, Kabupaten Kepulauan Aru, Maluku","Kabupaten Kepulauan Aru, Maluku",MALUKU,,Indonesia,85243769777.0,,,-5.7578939,134.2378897,https://maps.google.com/?cid=0x0:0xdd5151422bb315f7,
mall,Pusat Perbelanjaan,TOKO BARUNA MANDIRI,"66RQ+H5J, Galay Dubu, Kec. Pulau-Pulau Aru, Kabupaten Kepulauan Aru, Maluku","Kabupaten Kepulauan Aru, Maluku",MALUKU,,Indonesia,,,,-5.7585288,134.2379059,https://maps.google.com/?cid=0x0:0x9d658b74f8ff05f,
mall,Toko,TOKO GUDANG,"66RP+RW7, Unnamed Road, Galay Dubu, Kec. Pulau-Pulau Aru, Kabupaten Kepulauan Aru, Maluku","Kabupaten Kepulauan Aru, Maluku",MALUKU,,Indonesia,81339653635.0,,,-5.7579532,134.2373026,https://maps.google.com/?cid=0x0:0xee9783ec635bc1b9,
mall,Pusat Perbelanjaan,KIOA SUASAN LA,"F39W+6QX, Kalar Kalar, Aru Sel., Kabupaten Kepulauan Aru, Maluku","Kabupaten Kepulauan Aru, Maluku",MALUKU,,Indonesia,,,,-6.5318782,134.0969876,https://maps.google.com/?cid=0x0:0x6ab1ca6cfee34ad,
mall,Pusat Perbelanjaan,Grand Indonesia Shopping Town,"Jl. M.H. Thamrin No.1, Menteng, Kec. Menteng, Kota Jakarta Pusat, Daerah Khusus Ibukota Jakarta 10310","Menteng, Kec. Menteng, Kota Jakarta Pusat",MALUKU,10310.0,Indonesia,2123580001.0,,,-6.1965848,106.8224882,https://maps.google.com/?cid=0x0:0xccfcc89b95aaf1ae,
mall,Pusat Perbelanjaan,Maluku City Mall (MCM),"Jl. Jenderal Sudirman No.1, Hative Kecil, Kec. Sirimau, Kota Ambon, Maluku","Kota Ambon, Maluku",MALUKU,,Indonesia,911352871.0,,,-3.6702679,128.1981163,https://maps.google.com/?cid=0x0:0x2f29bf0afe09144e,
mall,Pusat Perbelanjaan,Mall Plaza Senayan,"Jl. Asia Afrika No.8, RT.1/RW.3, Gelora, Kecamatan Tanah Abang, Kota Jakarta Pusat, Daerah Khusus Ibukota Jakarta 10270","RT.1/RW.3, Gelora, Kecamatan Tanah Abang, Kota Jakarta Pusat",MALUKU,10270.0,Indonesia,215725555.0,,,-6.2255918,106.7993027,https://maps.google.com/?cid=0x0:0x788e3a1eef75ac94,
mall,mall,Maluku 97662,"Wahayum, Kec. Aru Utara, Kabupaten Kepulauan Aru, Maluku","Kabupaten Kepulauan Aru, Maluku",MALUKU,,Indonesia,,,,-5.4217993,134.5134044,https://maps.google.com/?cid=0x0:0xdef6a79ae1d70a3d,
mall,Toko,TOKO ARGENTINA,"763Q+PQ7, Wokam, Lamerang, Kabupaten Kepulauan Aru, Maluku","Kabupaten Kepulauan Aru, Maluku",MALUKU,,Indonesia,,,,-5.7457186,134.2394374,https://maps.google.com/?cid=0x0:0x59f4deed471d7d9c,
mall,Toko Perbaikan Ponsel,Tripleceluller,"66RP+855, Unnamed Road, Galay Dubu, Kec. Pulau-Pulau Aru, Kabupaten Kepulauan Aru, Maluku","Kabupaten Kepulauan Aru, Maluku",MALUKU,,Indonesia,81247924021.0,,,-5.759228,134.2354952,https://maps.google.com/?cid=0x0:0xacfde29416a4b00a,
mall,Pusat Perbelanjaan,Maluku City Mall (MCM),"Jl. Jenderal Sudirman No.1, Hative Kecil, Kec. Sirimau, Kota Ambon, Maluku","Kota Ambon, Maluku",MALUKU,,Indonesia,911352871.0,,,-3.6702679,128.1981163,https://maps.google.com/?cid=0x0:0x2f29bf0afe09144e,
mall,Pusat Perbelanjaan,TOKO BARUNA MANDIRI,"66RQ+H5J, Galay Dubu, Kec. Pulau-Pulau Aru, Kabupaten Kepulauan Aru, Maluku","Kabupaten Kepulauan Aru, Maluku",MALUKU,,Indonesia,,,,-5.7585288,134.2379059,https://maps.google.com/?cid=0x0:0x9d658b74f8ff05f,
mall,Pusat Perbelanjaan,Ambon City Center (ACC),"Jl. Wolter Monginsidi, Passo, Kec. Baguala, Kota Ambon, Maluku 97232","Passo, Kec. Baguala, Kota Ambon",MALUKU,97232.0,Indonesia,9113869522.0,,,-3.6320889,128.2495582,https://maps.google.com/?cid=0x0:0x91b8ed9da337adeb,
mall,Jepang,Ichiban Sushi - Maluku City Mall,"Jl. Jenderal Sudirman No.1, Lantai No.9 UG Blok G, No 8A, Hative Kecil, Sirimau, Kota Ambon, Maluku","Kota Ambon, Maluku",MALUKU,,Indonesia,895357270204.0,,,-3.6699578,128.198051,https://maps.google.com/?cid=0x0:0xf2c6c9f7bce048b8,
mall,mall,Kec. Aru Utara Timur Batuley,"Kabupaten Kepulauan Aru, Maluku","Kabupaten Kepulauan Aru, Maluku",MALUKU,,Indonesia,,,,-5.7730916,134.6630541,https://maps.google.com/?cid=0x0:0x82e5f677125ddf86,
mall,Pusat Perbelanjaan,Blok M Plaza,"Jl. Bulungan No.76, RT.6/RW.6, Kramat Pela, Kec. Kby. Baru, Kota Jakarta Selatan, Daerah Khusus Ibukota Jakarta 12130","RT.6/RW.6, Kramat Pela, Kec. Kby. Baru, Kota Jakarta Selatan",MALUKU,12130.0,Indonesia,217209288.0,,,-6.2441189,106.7976404,https://maps.google.com/?cid=0x0:0x3e110f817acb352d,
mall,Pusat Perbelanjaan,Cinere Bellevue Mall,"Jl. Merawan No.23, Pangkalan Jati, Kec. Cinere, Kota Depok, Jawa Barat 16514","Pangkalan Jati, Kec. Cinere, Kota Depok",MALUKU,16514.0,Indonesia,2129403838.0,,,-6.3174008,106.7824389,https://maps.google.com/?cid=0x0:0x7e325b928d45b577,
mall,Pusat Perbelanjaan,Mall Plaza Senayan,"Jl. Asia Afrika No.8, RT.1/RW.3, Gelora, Kecamatan Tanah Abang, Kota Jakarta Pusat, Daerah Khusus Ibukota Jakarta 10270","RT.1/RW.3, Gelora, Kecamatan Tanah Abang, Kota Jakarta Pusat",MALUKU,10270.0,Indonesia,215725555.0,,,-6.2255918,106.7993027,https://maps.google.com/?cid=0x0:0x788e3a1eef75ac94,
mall,mall,SIKIM Ohoitel,"CQ5H+8G7, Jl. Kabupaten, Kel. Ketsoblak, Kec. Pulau Dullah Utara, Kota Tual, Maluku","Kota Tual, Maluku",MALUKU,,Indonesia,,,,-5.5917044,132.7787836,https://maps.google.com/?cid=0x0:0xef3a33760bca9465,
mall,Pusat Perbelanjaan,Maluku City Mall (MCM),"Jl. Jenderal Sudirman No.1, Hative Kecil, Kec. Sirimau, Kota Ambon, Maluku","Kota Ambon, Maluku",MALUKU,,Indonesia,911352871.0,,,-3.6702679,128.1981163,https://maps.google.com/?cid=0x0:0x2f29bf0afe09144e,
mall,mall,Kec. Sir-Sir,"Kabupaten Kepulauan Aru, Maluku","Kabupaten Kepulauan Aru, Maluku",MALUKU,,Indonesia,,,,-5.5652523,134.4449374,https://maps.google.com/?cid=0x0:0xbaca49c434e2b7ff,
mall,Pusat Perbelanjaan,Mall Senayan City,"Jl. Asia Afrika No.Lot 19, Gelora, Kecamatan Tanah Abang, Kota Jakarta Pusat, Daerah Khusus Ibukota Jakarta 10270","Gelora, Kecamatan Tanah Abang, Kota Jakarta Pusat",MALUKU,10270.0,Indonesia,2172781000.0,,,-6.2271953,106.7970117,https://maps.google.com/?cid=0x0:0x300c043104acc004,
mall,mall,Maluku City Mall Tantui,"8633+38H, Unnamed Road, Soya, Kec. Sirimau, Kota Ambon, Maluku","Kota Ambon, Maluku",MALUKU,,Indonesia,82199223279.0,,,-3.6973048,128.2033559,https://maps.google.com/?cid=0x0:0x549d176470665edf,
mall,Pusat Perbelanjaan,Summarecon Mall Kelapa Gading,"Jl. Boulevard Raya, Klp. Gading Tim., Kec. Klp. Gading, Jkt Utara, Daerah Khusus Ibukota Jakarta 14240","Klp. Gading Tim., Kec. Klp. Gading, Jkt Utara",MALUKU,14240.0,Indonesia,214531101.0,,,-6.1572666,106.9084263,https://maps.google.com/?cid=0x0:0x1c1a278e20ff1c47,
mall,Pusat Perbelanjaan,Gandaria City,"Jl. Sultan Iskandar Muda, Gandaria, Kec. Kby. Lama, Kota Jakarta Selatan, Daerah Khusus Ibukota Jakarta 12240","Gandaria, Kec. Kby. Lama, Kota Jakarta Selatan",MALUKU,12240.0,Indonesia,2129052888.0,,,-6.2443009,106.7829375,https://maps.google.com/?cid=0x0:0x6173704d396d5a99,
mall,Pusat Perbelanjaan,Silaris94,"Jl. Niim No.11-25, Tanah Baru, Kecamatan Beji, Kota Depok, Jawa Barat 16426","Tanah Baru, Kecamatan Beji, Kota Depok",MALUKU,16426.0,Indonesia,,,,-6.3672766,106.8002626,https://maps.google.com/?cid=0x0:0xaf5566d52e91744a,
mall,Pusat Perbelanjaan,Summarecon Mall Serpong,"Jl. Boulevard Raya Gading Serpong, Pakulonan Bar., Kec. Klp. Dua, Kabupaten Tangerang, Banten 15810","Pakulonan Bar., Kec. Klp. Dua, Kabupaten Tangerang",MALUKU,15810.0,Indonesia,215460888.0,,,-6.2409034,106.6288212,https://maps.google.com/?cid=0x0:0x355ee4742c69b52c,
mall,Pusat Perbelanjaan,Mall Kota Kasablanka,"Jl. Raya Casablanca No.Kav 88, Menteng Dalam, Kec. Tebet, Kota Jakarta Selatan, Daerah Khusus Ibukota Jakarta 12870","Menteng Dalam, Kec. Tebet, Kota Jakarta Selatan",MALUKU,12870.0,Indonesia,2129465000.0,,,-6.2240353,106.8425979,https://maps.google.com/?cid=0x0:0xaf54cb631563acce,
mall,Perhentian bus,Plaza Slipi Jaya,"Jl. Letjen S. Parman, RT.14/RW.1, Kemanggisan, Kec. Palmerah, Kota Jakarta Barat, Daerah Khusus Ibukota Jakarta 11480","RT.14/RW.1, Kemanggisan, Kec. Palmerah, Kota Jakarta Barat",MALUKU,11480.0,Indonesia,215304023.0,,,-6.1892704,106.7965048,https://maps.google.com/?cid=0x0:0x4901356a543de45c,
mall,mall,Sinarsaristore,"5, RT.5/RW.7, Kp. Bali, Kecamatan Tanah Abang, Kota Jakarta Pusat, Daerah Khusus Ibukota Jakarta 15530","RT.5/RW.7, Kp. Bali, Kecamatan Tanah Abang, Kota Jakarta Pusat",MALUKU,15530.0,Indonesia,,,,-6.1847314,106.8159524,https://maps.google.com/?cid=0x0:0xc707d4b847c1a66a,
mall,Pusat Perbelanjaan,Cinere Bellevue Mall,"Jl. Merawan No.23, Pangkalan Jati, Kec. Cinere, Kota Depok, Jawa Barat 16514","Pangkalan Jati, Kec. Cinere, Kota Depok",MALUKU,16514.0,Indonesia,2129403838.0,,,-6.3174008,106.7824389,https://maps.google.com/?cid=0x0:0x7e325b928d45b577,
mall,Pusat Perbelanjaan,Ruko Cinere Bellevue Mall,"Jl. Telaga Warna Blok J3 No.4, Pangkalan Jati, Kec. Cinere, Kota Depok, Jawa Barat 16514","Pangkalan Jati, Kec. Cinere, Kota Depok",MALUKU,16514.0,Indonesia,85842518312.0,,,-6.318189,106.781875,https://maps.google.com/?cid=0x0:0xc5e58d3f9bc96a89,
mall,Pusat Perbelanjaan,Mal Cinere,"Jl. Cinere Raya No.1, Pangkalan Jati, Kec. Cinere, Kota Depok, Jawa Barat 16514","Pangkalan Jati, Kec. Cinere, Kota Depok",MALUKU,16514.0,Indonesia,217540704.0,,,-6.3234975,106.7837405,https://maps.google.com/?cid=0x0:0xb506c0fa87e9a07,
mall,Tempat Pencucian Mobil,KSN STEAM  COFFEE,"Jl. Merawan No.14, Pangkalan Jati, Kec. Cinere, Kota Depok, Jawa Barat 12450","Pangkalan Jati, Kec. Cinere, Kota Depok",MALUKU,12450.0,Indonesia,82223450652.0,,,-6.3177385,106.7835692,https://maps.google.com/?cid=0x0:0xd55c0c6b35d2fbef,
mall,Donat,JCO COFFEE  DONUTS CINERE BELLEVUE MALL,"Mall Bellevue, Jl. Merawan Lt.UG, Pangkalan Jati, Kec. Cinere, Kota Depok, Jawa Barat 16514","Jl. Merawan Lt.UG, Pangkalan Jati, Kec. Cinere, Kota Depok",MALUKU,16514.0,Indonesia,2129403933.0,,,-6.3170324,106.7826833,https://maps.google.com/?cid=0x0:0x6e3eab8be7947cf6,
mall,mall,Aru Tengah Tim.,"Kabupaten Kepulauan Aru, Maluku","Kabupaten Kepulauan Aru, Maluku",MALUKU,,Indonesia,,,,-6.0878603,134.6630541,https://maps.google.com/?cid=0x0:0x39fa9da111d69f1a,
mall,Kafe,Capri Coffee and Kitchen,"Jl. Merawan No.23, Pangkalan Jati, Kec. Cinere, Kota Depok, Jawa Barat 16514","Pangkalan Jati, Kec. Cinere, Kota Depok",MALUKU,16514.0,Indonesia,,,,-6.318131,106.782043,https://maps.google.com/?cid=0x0:0xabe857c4550abbe1,
mall,Pusat Perbelanjaan,Ambon City Center (ACC),"Jl. Wolter Monginsidi, Passo, Kec. Baguala, Kota Ambon, Maluku 97232","Passo, Kec. Baguala, Kota Ambon",MALUKU,97232.0,Indonesia,9113869522.0,,,-3.6320889,128.2495582,https://maps.google.com/?cid=0x0:0x91b8ed9da337adeb,
mall,Pusat Perbelanjaan,Maluku City Mall (MCM),"Jl. Jenderal Sudirman No.1, Hative Kecil, Kec. Sirimau, Kota Ambon, Maluku","Kota Ambon, Maluku",MALUKU,,Indonesia,911352871.0,,,-3.6702679,128.1981163,https://maps.google.com/?cid=0x0:0x2f29bf0afe09144e,
mall,Pusat Perbelanjaan,Blok M Plaza,"Jl. Bulungan No.76, RT.6/RW.6, Kramat Pela, Kec. Kby. Baru, Kota Jakarta Selatan, Daerah Khusus Ibukota Jakarta 12130","RT.6/RW.6, Kramat Pela, Kec. Kby. Baru, Kota Jakarta Selatan",MALUKU,12130.0,Indonesia,217209288.0,,,-6.2441189,106.7976404,https://maps.google.com/?cid=0x0:0x3e110f817acb352d,
mall,mall,TOKO MEGARIA,"66RQ+V3G, Unnamed Road, Galay Dubu, Kec. Pulau-Pulau Aru, Kabupaten Kepulauan Aru, Maluku","Kabupaten Kepulauan Aru, Maluku",MALUKU,,Indonesia,,,,-5.7578189,134.2377187,https://maps.google.com/?cid=0x0:0x8e41d385265bf69,
mall,Toko,TOKO ARGENTINA,"763Q+PQ7, Wokam, Lamerang, Kabupaten Kepulauan Aru, Maluku","Kabupaten Kepulauan Aru, Maluku",MALUKU,,Indonesia,,,,-5.7457186,134.2394374,https://maps.google.com/?cid=0x0:0x59f4deed471d7d9c,
mall,mall,Kec. Aru Tengah Sel.,"Kabupaten Kepulauan Aru, Maluku","Kabupaten Kepulauan Aru, Maluku",MALUKU,,Indonesia,,,,-6.306355,134.9014926,https://maps.google.com/?cid=0x0:0x16e9854ea8507897,
mall,Pusat Perbelanjaan,Maluku City Mall (MCM),"Jl. Jenderal Sudirman No.1, Hative Kecil, Kec. Sirimau, Kota Ambon, Maluku","Kota Ambon, Maluku",MALUKU,,Indonesia,911352871.0,,,-3.6702679,128.1981163,https://maps.google.com/?cid=0x0:0x2f29bf0afe09144e,
mall,Toko Perbaikan Ponsel,Tripleceluller,"66RP+855, Unnamed Road, Galay Dubu, Kec. Pulau-Pulau Aru, Kabupaten Kepulauan Aru, Maluku","Kabupaten Kepulauan Aru, Maluku",MALUKU,,Indonesia,81247924021.0,,,-5.759228,134.2354952,https://maps.google.com/?cid=0x0:0xacfde29416a4b00a,
mall,Toko,kios anugrah,"69XX+MRR, Karey, Kec. Aru Sel. Tim., Kabupaten Kepulauan Aru, Maluku","Kabupaten Kepulauan Aru, Maluku",MALUKU,,Indonesia,,,,-6.7499141,134.3995406,https://maps.google.com/?cid=0x0:0xc237f0d804bcc08a,
mall,Pusat Perbelanjaan,Cinere Bellevue Mall,"Jl. Merawan No.23, Pangkalan Jati, Kec. Cinere, Kota Depok, Jawa Barat 16514","Pangkalan Jati, Kec. Cinere, Kota Depok",MALUKU,16514.0,Indonesia,2129403838.0,,,-6.3174008,106.7824389,https://maps.google.com/?cid=0x0:0x7e325b928d45b577,
mall,Pusat Perbelanjaan,Ambon City Center (ACC),"Jl. Wolter Monginsidi, Passo, Kec. Baguala, Kota Ambon, Maluku 97232","Passo, Kec. Baguala, Kota Ambon",MALUKU,97232.0,Indonesia,9113869522.0,,,-3.6320889,128.2495582,https://maps.google.com/?cid=0x0:0x91b8ed9da337adeb,
mall,Toko,TOKO ARGENTINA,"763Q+PQ7, Wokam, Lamerang, Kabupaten Kepulauan Aru, Maluku","Kabupaten Kepulauan Aru, Maluku",MALUKU,,Indonesia,,,,-5.7457186,134.2394374,https://maps.google.com/?cid=0x0:0x59f4deed471d7d9c,
mall,Pusat Perbelanjaan,KIOS SUSAN K2,"F39W+6QX, Kalar Kalar, Aru Sel., Kabupaten Kepulauan Aru, Maluku","Kabupaten Kepulauan Aru, Maluku",MALUKU,,Indonesia,,,,-6.5318851,134.096988,https://maps.google.com/?cid=0x0:0x6f0909f2de7fb39f,
mall,Pusat Perbelanjaan,KIOS SUSAN K2,"F39W+6QX, Kalar Kalar, Aru Sel., Kabupaten Kepulauan Aru, Maluku","Kabupaten Kepulauan Aru, Maluku",MALUKU,,Indonesia,,,,-6.5318851,134.096988,https://maps.google.com/?cid=0x0:0x6f0909f2de7fb39f,
mall,Toko,kios anugrah,"69XX+MRR, Karey, Kec. Aru Sel. Tim., Kabupaten Kepulauan Aru, Maluku","Kabupaten Kepulauan Aru, Maluku",MALUKU,,Indonesia,,,,-6.7499141,134.3995406,https://maps.google.com/?cid=0x0:0xc237f0d804bcc08a,
mall,Toko Perbaikan Ponsel,Tripleceluller,"66RP+855, Unnamed Road, Galay Dubu, Kec. Pulau-Pulau Aru, Kabupaten Kepulauan Aru, Maluku","Kabupaten Kepulauan Aru, Maluku",MALUKU,,Indonesia,81247924021.0,,,-5.759228,134.2354952,https://maps.google.com/?cid=0x0:0xacfde29416a4b00a,
mall,mall,Aru Sel. Utara,"Kabupaten Kepulauan Aru, Maluku","Kabupaten Kepulauan Aru, Maluku",MALUKU,,Indonesia,,,,-6.3176181,134.1364572,https://maps.google.com/?cid=0x0:0x13cf15b3cd64f30f,
mall,Terminal Feri,Pasar benjina,"W7VP+267, Unnamed Road, Benjina, Kec. Aru Tengah, Kabupaten Kepulauan Aru, Maluku","Kabupaten Kepulauan Aru, Maluku",MALUKU,,Indonesia,,,,-6.0574747,134.2855402,https://maps.google.com/?cid=0x0:0x1c78bb4b46cfa5c1,
mall,Toko Perbaikan Ponsel,Tripleceluller,"66RP+855, Unnamed Road, Galay Dubu, Kec. Pulau-Pulau Aru, Kabupaten Kepulauan Aru, Maluku","Kabupaten Kepulauan Aru, Maluku",MALUKU,,Indonesia,81247924021.0,,,-5.759228,134.2354952,https://maps.google.com/?cid=0x0:0xacfde29416a4b00a,
mall,Pusat Perbelanjaan,KIOA SUASAN LA,"F39W+6QX, Kalar Kalar, Aru Sel., Kabupaten Kepulauan Aru, Maluku","Kabupaten Kepulauan Aru, Maluku",MALUKU,,Indonesia,,,,-6.5318782,134.0969876,https://maps.google.com/?cid=0x0:0x6ab1ca6cfee34ad,
mall,Pusat Perbelanjaan,PONDOK SUSAN LA,"F39W+6RV, Kalar Kalar, Aru Sel., Kabupaten Kepulauan Aru, Maluku","Kabupaten Kepulauan Aru, Maluku",MALUKU,,Indonesia,,,,-6.5318736,134.0969874,https://maps.google.com/?cid=0x0:0xb118f650b670064c,
mall,Toko,KIOS SUSAN LA,"C4MV+MC7, Kalar Kalar, Aru Sel., Kabupaten Kepulauan Aru, Maluku","Kabupaten Kepulauan Aru, Maluku",MALUKU,,Indonesia,,,,-6.5658468,134.1435424,https://maps.google.com/?cid=0x0:0x4308a47d35695ef3,
supermarket,Toko bahan makanan,ACE MART,"6699+2HG, Siwalima, Kec. Pulau-Pulau Aru, Kabupaten Kepulauan Aru, Maluku","Kabupaten Kepulauan Aru, Maluku",MALUKU,,Indonesia,81240685551.0,,,-5.7824374,134.2189465,https://maps.google.com/?cid=0x0:0xe7219b03c9950d5b,
supermarket,supermarket,Maluku 97662,"Wahayum, Kec. Aru Utara, Kabupaten Kepulauan Aru, Maluku","Kabupaten Kepulauan Aru, Maluku",MALUKU,,Indonesia,,,,-5.4217993,134.5134044,https://maps.google.com/?cid=0x0:0xdef6a79ae1d70a3d,
supermarket,Toko bahan makanan,Kios nayla,"6676+H62, Siwalima, Kec. Pulau-Pulau Aru, Kabupaten Kepulauan Aru, Maluku","Kabupaten Kepulauan Aru, Maluku",MALUKU,,Indonesia,,,,-5.7861179,134.2105275,https://maps.google.com/?cid=0x0:0x3d64c9310888108f,
supermarket,Kios,Kios Sinar Jaya,"66R7+8CR, Siwalima, Kec. Pulau-Pulau Aru, Kabupaten Kepulauan Aru, Maluku","Kabupaten Kepulauan Aru, Maluku",MALUKU,,Indonesia,,,,-5.7591354,134.2135046,https://maps.google.com/?cid=0x0:0xcc2a1239cce96313,
supermarket,Toko Swalayan,Aru Mart,"66RP+623, Unnamed Road, Galay Dubu, Kec. Pulau-Pulau Aru, Kabupaten Kepulauan Aru, Maluku","Kabupaten Kepulauan Aru, Maluku",MALUKU,,Indonesia,81223536088.0,,,-5.7594868,134.2350466,https://maps.google.com/?cid=0x0:0x57e81e27933d6a7c,
supermarket,Toko umum,Kios Aru Indah,"66QM+H4G, Galay Dubu, Kec. Pulau-Pulau Aru, Kabupaten Kepulauan Aru, Maluku","Kabupaten Kepulauan Aru, Maluku",MALUKU,,Indonesia,,,,-5.7610673,134.232843,https://maps.google.com/?cid=0x0:0xc2aa063aee147ffb,
supermarket,Toko bahan makanan,KIOS RAJLINA,"66H9+G8J, Siwalima, Kec. Pulau-Pulau Aru, Kabupaten Kepulauan Aru, Maluku","Kabupaten Kepulauan Aru, Maluku",MALUKU,,Indonesia,81253690377.0,,,-5.7711517,134.2182566,https://maps.google.com/?cid=0x0:0x9f42eef428f6af55,
supermarket,Pasar,Kios Putri,"66PG+J6F, Siwalima, Kec. Pulau-Pulau Aru, Kabupaten Kepulauan Aru, Maluku","Kabupaten Kepulauan Aru, Maluku",MALUKU,,Indonesia,,,,-5.7634667,134.225375,https://maps.google.com/?cid=0x0:0xc52c6d05ca802a64,
supermarket,Toko Kelontong Asia,Toko STELIN,"6685+JMJ, Jl. Cendrawasih, Siwalima, Kec. Pulau-Pulau Aru, Kabupaten Kepulauan Aru, Maluku 97662","Jl. Cendrawasih, Siwalima, Kec. Pulau-Pulau Aru, Kabupaten Kepulauan Aru",MALUKU,97662.0,Indonesia,81344683097.0,,,-5.7834028,134.209145,https://maps.google.com/?cid=0x0:0x3a6c3d82722d44ec,
supermarket,Pusat Perbelanjaan,Hocky Jaya,"66RP+8PH, Galay Dubu, Kec. Pulau-Pulau Aru, Kabupaten Kepulauan Aru, Maluku","Kabupaten Kepulauan Aru, Maluku",MALUKU,,Indonesia,,,,-5.7591929,134.236869,https://maps.google.com/?cid=0x0:0x9f24d140d58c6b3,
supermarket,Toko Swalayan,Kios 4 Saudara,"66G8+W3X, Siwalima, Kec. Pulau-Pulau Aru, Kabupaten Kepulauan Aru, Maluku","Kabupaten Kepulauan Aru, Maluku",MALUKU,,Indonesia,82199100021.0,,,-5.7726251,134.2152399,https://maps.google.com/?cid=0x0:0x7c183dd21cacd629,
supermarket,supermarket,Toko Sulawesi 2,"66RM+7XM sam, Jl. Gg. Raja, Galay Dubu, Kec. Pulau-Pulau Aru, Kabupaten Kepulauan Aru, Maluku 97662","Jl. Gg. Raja, Galay Dubu, Kec. Pulau-Pulau Aru, Kabupaten Kepulauan Aru",MALUKU,97662.0,Indonesia,82393011256.0,,,-5.7592934,134.234919,https://maps.google.com/?cid=0x0:0x89d58f9582ec180e,
supermarket,Toko bahan makanan,Toko Sumber Segar,"Jl. Kapitan Malongi No.57, Galay Dubu, Pulau-Pulau Aru, Aru Islands Regency, Maluku","Kabupaten Kepulauan Aru, Maluku",MALUKU,,Indonesia,91722035.0,,,-5.7590805,134.2357619,https://maps.google.com/?cid=0x0:0x85dd99d8bed3f2c4,
supermarket,Toko bahan makanan,ACE MART,"6699+2HG, Siwalima, Kec. Pulau-Pulau Aru, Kabupaten Kepulauan Aru, Maluku","Kabupaten Kepulauan Aru, Maluku",MALUKU,,Indonesia,81240685551.0,,,-5.7824374,134.2189465,https://maps.google.com/?cid=0x0:0xe7219b03c9950d5b,
supermarket,supermarket,Aru Sel.,"Kabupaten Kepulauan Aru, Maluku","Kabupaten Kepulauan Aru, Maluku",MALUKU,,Indonesia,,,,-6.6833691,134.1720266,https://maps.google.com/?cid=0x0:0x1757c32c3a231e21,
supermarket,Toko bahan makanan,KIOS RAJLINA,"66H9+G8J, Siwalima, Kec. Pulau-Pulau Aru, Kabupaten Kepulauan Aru, Maluku","Kabupaten Kepulauan Aru, Maluku",MALUKU,,Indonesia,81253690377.0,,,-5.7711517,134.2182566,https://maps.google.com/?cid=0x0:0x9f42eef428f6af55,
supermarket,Toko bahan makanan,RAYHAN mart,"6686+W7G, Siwalima, Kec. Pulau-Pulau Aru, Kabupaten Kepulauan Aru, Maluku","Kabupaten Kepulauan Aru, Maluku",MALUKU,,Indonesia,,,,-5.7826907,134.210695,https://maps.google.com/?cid=0x0:0x46bc50e59c32a79d,
supermarket,Toko Kelontong Asia,Toko STELIN,"6685+JMJ, Jl. Cendrawasih, Siwalima, Kec. Pulau-Pulau Aru, Kabupaten Kepulauan Aru, Maluku 97662","Jl. Cendrawasih, Siwalima, Kec. Pulau-Pulau Aru, Kabupaten Kepulauan Aru",MALUKU,97662.0,Indonesia,81344683097.0,,,-5.7834028,134.209145,https://maps.google.com/?cid=0x0:0x3a6c3d82722d44ec,
supermarket,Toko bahan makanan,Ani 04 mart,"66F5+4JR, Jl. Cendrawasih, Siwalima, Kec. Pulau-Pulau Aru, Kabupaten Kepulauan Aru, Maluku","Kabupaten Kepulauan Aru, Maluku",MALUKU,,Indonesia,81240686103.0,,,-5.777132,134.209026,https://maps.google.com/?cid=0x0:0x55c87fae406cf9e9,
supermarket,Toko Swalayan,Kios 4 Saudara,"66G8+W3X, Siwalima, Kec. Pulau-Pulau Aru, Kabupaten Kepulauan Aru, Maluku","Kabupaten Kepulauan Aru, Maluku",MALUKU,,Indonesia,82199100021.0,,,-5.7726251,134.2152399,https://maps.google.com/?cid=0x0:0x7c183dd21cacd629,
supermarket,supermarket,Kec. Aru Tengah,"Kabupaten Kepulauan Aru, Maluku","Kabupaten Kepulauan Aru, Maluku",MALUKU,,Indonesia,,,,-6.2383689,134.4370606,https://maps.google.com/?cid=0x0:0xbd0c26a425f3052c,
supermarket,Toko bahan makanan,ACE MART,"6699+2HG, Siwalima, Kec. Pulau-Pulau Aru, Kabupaten Kepulauan Aru, Maluku","Kabupaten Kepulauan Aru, Maluku",MALUKU,,Indonesia,81240685551.0,,,-5.7824374,134.2189465,https://maps.google.com/?cid=0x0:0xe7219b03c9950d5b,
supermarket,Toko Swalayan,KIOS 5 SAUDARA,"W7RP+F7M, Benjina, Kec. Aru Tengah, Kabupaten Kepulauan Aru, Maluku","Kabupaten Kepulauan Aru, Maluku",MALUKU,,Indonesia,81362714256.0,,,-6.0585953,134.286049,https://maps.google.com/?cid=0x0:0x1c582cf11910302c,
supermarket,Toko bahan makanan,Kios nayla,"6676+H62, Siwalima, Kec. Pulau-Pulau Aru, Kabupaten Kepulauan Aru, Maluku","Kabupaten Kepulauan Aru, Maluku",MALUKU,,Indonesia,,,,-5.7861179,134.2105275,https://maps.google.com/?cid=0x0:0x3d64c9310888108f,
supermarket,Toko Swalayan,Aru Mart,"66RP+623, Unnamed Road, Galay Dubu, Kec. Pulau-Pulau Aru, Kabupaten Kepulauan Aru, Maluku","Kabupaten Kepulauan Aru, Maluku",MALUKU,,Indonesia,81223536088.0,,,-5.7594868,134.2350466,https://maps.google.com/?cid=0x0:0x57e81e27933d6a7c,
supermarket,Kios,Kios Sinar Jaya,"66R7+8CR, Siwalima, Kec. Pulau-Pulau Aru, Kabupaten Kepulauan Aru, Maluku","Kabupaten Kepulauan Aru, Maluku",MALUKU,,Indonesia,,,,-5.7591354,134.2135046,https://maps.google.com/?cid=0x0:0xcc2a1239cce96313,
supermarket,Pasar,Kios Putri,"66PG+J6F, Siwalima, Kec. Pulau-Pulau Aru, Kabupaten Kepulauan Aru, Maluku","Kabupaten Kepulauan Aru, Maluku",MALUKU,,Indonesia,,,,-5.7634667,134.225375,https://maps.google.com/?cid=0x0:0xc52c6d05ca802a64,
supermarket,Toko umum,Kios Aru Indah,"66QM+H4G, Galay Dubu, Kec. Pulau-Pulau Aru, Kabupaten Kepulauan Aru, Maluku","Kabupaten Kepulauan Aru, Maluku",MALUKU,,Indonesia,,,,-5.7610673,134.232843,https://maps.google.com/?cid=0x0:0xc2aa063aee147ffb,
supermarket,Toko bahan makanan,RAYHAN mart,"6686+W7G, Siwalima, Kec. Pulau-Pulau Aru, Kabupaten Kepulauan Aru, Maluku","Kabupaten Kepulauan Aru, Maluku",MALUKU,,Indonesia,,,,-5.7826907,134.210695,https://maps.google.com/?cid=0x0:0x46bc50e59c32a79d,
supermarket,Toko bahan makanan,Ani 04 mart,"66F5+4JR, Jl. Cendrawasih, Siwalima, Kec. Pulau-Pulau Aru, Kabupaten Kepulauan Aru, Maluku","Kabupaten Kepulauan Aru, Maluku",MALUKU,,Indonesia,81240686103.0,,,-5.777132,134.209026,https://maps.google.com/?cid=0x0:0x55c87fae406cf9e9,
supermarket,Toko Aksesori Pakaian,Toko Gunung Mas,"kelurahan No.49, Galay Dubu, Kec. Pulau-Pulau Aru, Kabupaten Kepulauan Aru, Maluku","Kabupaten Kepulauan Aru, Maluku",MALUKU,,Indonesia,,,,-5.758431,134.2371529,https://maps.google.com/?cid=0x0:0xe2db072bbfb0eac,
supermarket,Toko Swalayan,Kios 4 Saudara,"66G8+W3X, Siwalima, Kec. Pulau-Pulau Aru, Kabupaten Kepulauan Aru, Maluku","Kabupaten Kepulauan Aru, Maluku",MALUKU,,Indonesia,82199100021.0,,,-5.7726251,134.2152399,https://maps.google.com/?cid=0x0:0x7c183dd21cacd629,
supermarket,Toko bahan makanan,KIOS RAJLINA,"66H9+G8J, Siwalima, Kec. Pulau-Pulau Aru, Kabupaten Kepulauan Aru, Maluku","Kabupaten Kepulauan Aru, Maluku",MALUKU,,Indonesia,81253690377.0,,,-5.7711517,134.2182566,https://maps.google.com/?cid=0x0:0x9f42eef428f6af55,
supermarket,Toko Kelontong Asia,Toko STELIN,"6685+JMJ, Jl. Cendrawasih, Siwalima, Kec. Pulau-Pulau Aru, Kabupaten Kepulauan Aru, Maluku 97662","Jl. Cendrawasih, Siwalima, Kec. Pulau-Pulau Aru, Kabupaten Kepulauan Aru",MALUKU,97662.0,Indonesia,81344683097.0,,,-5.7834028,134.209145,https://maps.google.com/?cid=0x0:0x3a6c3d82722d44ec,
supermarket,Toko,ARU ISLANDS SHOP,"Siwalima, Kec. Pulau-Pulau Aru, Kabupaten Kepulauan Aru, Maluku 97662","Kec. Pulau-Pulau Aru, Kabupaten Kepulauan Aru",MALUKU,97662.0,Indonesia,,,,-5.758161,134.2100223,https://maps.google.com/?cid=0x0:0xfd0363cbcf13e4e,
supermarket,Pusat Perbelanjaan,Hocky Jaya,"66RP+8PH, Galay Dubu, Kec. Pulau-Pulau Aru, Kabupaten Kepulauan Aru, Maluku","Kabupaten Kepulauan Aru, Maluku",MALUKU,,Indonesia,,,,-5.7591929,134.236869,https://maps.google.com/?cid=0x0:0x9f24d140d58c6b3,
supermarket,supermarket,Maluku 97662,"Wahayum, Kec. Aru Utara, Kabupaten Kepulauan Aru, Maluku","Kabupaten Kepulauan Aru, Maluku",MALUKU,,Indonesia,,,,-5.4217993,134.5134044,https://maps.google.com/?cid=0x0:0xdef6a79ae1d70a3d,
supermarket,Toko Swalayan,Aru Mart,"66RP+623, Unnamed Road, Galay Dubu, Kec. Pulau-Pulau Aru, Kabupaten Kepulauan Aru, Maluku","Kabupaten Kepulauan Aru, Maluku",MALUKU,,Indonesia,81223536088.0,,,-5.7594868,134.2350466,https://maps.google.com/?cid=0x0:0x57e81e27933d6a7c,
supermarket,Toko bahan makanan,ACE MART,"6699+2HG, Siwalima, Kec. Pulau-Pulau Aru, Kabupaten Kepulauan Aru, Maluku","Kabupaten Kepulauan Aru, Maluku",MALUKU,,Indonesia,81240685551.0,,,-5.7824374,134.2189465,https://maps.google.com/?cid=0x0:0xe7219b03c9950d5b,
supermarket,Toko bahan makanan,Kios nayla,"6676+H62, Siwalima, Kec. Pulau-Pulau Aru, Kabupaten Kepulauan Aru, Maluku","Kabupaten Kepulauan Aru, Maluku",MALUKU,,Indonesia,,,,-5.7861179,134.2105275,https://maps.google.com/?cid=0x0:0x3d64c9310888108f,
supermarket,Toko,ARU ISLANDS SHOP,"Siwalima, Kec. Pulau-Pulau Aru, Kabupaten Kepulauan Aru, Maluku 97662","Kec. Pulau-Pulau Aru, Kabupaten Kepulauan Aru",MALUKU,97662.0,Indonesia,,,,-5.758161,134.2100223,https://maps.google.com/?cid=0x0:0xfd0363cbcf13e4e,
supermarket,Toko bahan makanan,KIOS RAJLINA,"66H9+G8J, Siwalima, Kec. Pulau-Pulau Aru, Kabupaten Kepulauan Aru, Maluku","Kabupaten Kepulauan Aru, Maluku",MALUKU,,Indonesia,81253690377.0,,,-5.7711517,134.2182566,https://maps.google.com/?cid=0x0:0x9f42eef428f6af55,
supermarket,Pasar,Kios Putri,"66PG+J6F, Siwalima, Kec. Pulau-Pulau Aru, Kabupaten Kepulauan Aru, Maluku","Kabupaten Kepulauan Aru, Maluku",MALUKU,,Indonesia,,,,-5.7634667,134.225375,https://maps.google.com/?cid=0x0:0xc52c6d05ca802a64,
supermarket,Toko Swalayan,Kios 4 Saudara,"66G8+W3X, Siwalima, Kec. Pulau-Pulau Aru, Kabupaten Kepulauan Aru, Maluku","Kabupaten Kepulauan Aru, Maluku",MALUKU,,Indonesia,82199100021.0,,,-5.7726251,134.2152399,https://maps.google.com/?cid=0x0:0x7c183dd21cacd629,
supermarket,Toko Swalayan,Winkel Supermarket,"96FG+323, Waiheru, Kec. Baguala, Kota Ambon, Maluku","Kota Ambon, Maluku",MALUKU,,Indonesia,9113869351.0,,,-3.6273656,128.2250609,https://maps.google.com/?cid=0x0:0xec37cd1cfdfa6412,
supermarket,Toko,Winkel Xpress,"9792+JWJ, Passo, Kec. Baguala, Kota Ambon, Maluku","Kota Ambon, Maluku",MALUKU,,Indonesia,,,,-3.6309238,128.2522702,https://maps.google.com/?cid=0x0:0xecc0d241b9b11ca4,
supermarket,Toko Pakaian,All Size,"Jl. Kesehatan No.11 6, RT.6/RW.11, Gedong, Kec. Ps. Rebo, Kota Jakarta Timur, Daerah Khusus Ibukota Jakarta 13760","RT.6/RW.11, Gedong, Kec. Ps. Rebo, Kota Jakarta Timur",MALUKU,13760.0,Indonesia,87877180304.0,,,-6.303496,106.8590444,https://maps.google.com/?cid=0x0:0xcb8becc7e40f770c,
supermarket,Minimarket,JR Supermarket,"PXVH+HG8, Jl. Trans Seram, Makariki, Kec. Kota Masohi, Kabupaten Maluku Tengah, Maluku","Kabupaten Maluku Tengah, Maluku",MALUKU,,Indonesia,81340904340.0,,,-3.2560937,128.9788224,https://maps.google.com/?cid=0x0:0x8917e8a1f6b2c8bf,
supermarket,Toko,Swalayan MARS,"MWRW+WGP, Namasina, Kec. Kota Masohi, Kabupaten Maluku Tengah, Maluku","Kabupaten Maluku Tengah, Maluku",MALUKU,,Indonesia,,,,-3.307696,128.9463397,https://maps.google.com/?cid=0x0:0x3664bdf979cc5505,
supermarket,supermarket,Syahrul,"Jl. Kp. Buni Sari No.21, RT.6/RW.8, Cibinong, Kec. Cibinong, Kabupaten Bogor, Jawa Barat 16911","RT.6/RW.8, Cibinong, Kec. Cibinong, Kabupaten Bogor",MALUKU,16911.0,Indonesia,81219776396.0,,,-6.4835151,106.8530419,https://maps.google.com/?cid=0x0:0x98871ccc1e065c4f,
supermarket,Toko Swalayan,@Suryakasihmart,"X7HR+3X6, Unnamed Road, Srikamulyan, Kec. Tirtajaya, Karawang, Jawa Barat 41356","Unnamed Road, Srikamulyan, Kec. Tirtajaya, Karawang",MALUKU,41356.0,Indonesia,85814181110.0,,,-6.0223291,107.2924014,https://maps.google.com/?cid=0x0:0x33b3ecd6d65a5c01,
supermarket,Toko bahan makanan,Kios farzan,"RH42+43P, Namajala, Kec. Aru Tengah, Kabupaten Kepulauan Aru, Maluku","Kabupaten Kepulauan Aru, Maluku",MALUKU,,Indonesia,,,,-6.1946502,134.5501935,https://maps.google.com/?cid=0x0:0xaf22cf20f309004,
supermarket,Toko Swalayan,KIOS RANI,"66H9+HCF, Siwalima, Kec. Pulau-Pulau Aru, Kabupaten Kepulauan Aru, Maluku","Kabupaten Kepulauan Aru, Maluku",MALUKU,,Indonesia,81253690377.0,,,-5.7710674,134.2185446,https://maps.google.com/?cid=0x0:0xaf44b514360ef1b3,
supermarket,Toko bahan makanan,Kios nayla,"6676+H62, Siwalima, Kec. Pulau-Pulau Aru, Kabupaten Kepulauan Aru, Maluku","Kabupaten Kepulauan Aru, Maluku",MALUKU,,Indonesia,,,,-5.7861179,134.2105275,https://maps.google.com/?cid=0x0:0x3d64c9310888108f,
supermarket,Toko Swalayan,Kios Nafil,"Jl. Cendrawasih, RT.007/RW.005, Siwalima, kec.pp aru, kab.kep.aru, Maluku 97662","RT.007/RW.005, Siwalima, kec.pp aru, kab.kep.aru",MALUKU,97662.0,Indonesia,,,,-5.7763479,134.2123266,https://maps.google.com/?cid=0x0:0xb4256d8e2d84962,
supermarket,supermarket,Kec. Aru Tengah Sel.,"Kabupaten Kepulauan Aru, Maluku","Kabupaten Kepulauan Aru, Maluku",MALUKU,,Indonesia,,,,-6.306355,134.9014926,https://maps.google.com/?cid=0x0:0x16e9854ea8507897,
supermarket,supermarket,Toko alexsius,"66Q7+WWJ, Siwalima, Kec. Pulau-Pulau Aru, Kabupaten Kepulauan Aru, Maluku","Kabupaten Kepulauan Aru, Maluku",MALUKU,,Indonesia,81240390774.0,,,-5.760164,134.2147605,https://maps.google.com/?cid=0x0:0xc90e47835283c2e2,
supermarket,Toko bahan makanan,RAYHAN mart,"6686+W7G, Siwalima, Kec. Pulau-Pulau Aru, Kabupaten Kepulauan Aru, Maluku","Kabupaten Kepulauan Aru, Maluku",MALUKU,,Indonesia,,,,-5.7826907,134.210695,https://maps.google.com/?cid=0x0:0x46bc50e59c32a79d,
supermarket,Toko bahan makanan,RAYHAN mart,"6686+W7G, Siwalima, Kec. Pulau-Pulau Aru, Kabupaten Kepulauan Aru, Maluku","Kabupaten Kepulauan Aru, Maluku",MALUKU,,Indonesia,,,,-5.7826907,134.210695,https://maps.google.com/?cid=0x0:0x46bc50e59c32a79d,
supermarket,Toko bahan makanan,ACE MART,"6699+2HG, Siwalima, Kec. Pulau-Pulau Aru, Kabupaten Kepulauan Aru, Maluku","Kabupaten Kepulauan Aru, Maluku",MALUKU,,Indonesia,81240685551.0,,,-5.7824374,134.2189465,https://maps.google.com/?cid=0x0:0xe7219b03c9950d5b,
supermarket,Toko bahan makanan,Kios nayla,"6676+H62, Siwalima, Kec. Pulau-Pulau Aru, Kabupaten Kepulauan Aru, Maluku","Kabupaten Kepulauan Aru, Maluku",MALUKU,,Indonesia,,,,-5.7861179,134.2105275,https://maps.google.com/?cid=0x0:0x3d64c9310888108f,
supermarket,supermarket,Aru Sel. Utara,"Kabupaten Kepulauan Aru, Maluku","Kabupaten Kepulauan Aru, Maluku",MALUKU,,Indonesia,,,,-6.3176181,134.1364572,https://maps.google.com/?cid=0x0:0x13cf15b3cd64f30f,
supermarket,Toko bahan makanan,ACE MART,"6699+2HG, Siwalima, Kec. Pulau-Pulau Aru, Kabupaten Kepulauan Aru, Maluku","Kabupaten Kepulauan Aru, Maluku",MALUKU,,Indonesia,81240685551.0,,,-5.7824374,134.2189465,https://maps.google.com/?cid=0x0:0xe7219b03c9950d5b,
supermarket,Pasar,Kios Putri,"66PG+J6F, Siwalima, Kec. Pulau-Pulau Aru, Kabupaten Kepulauan Aru, Maluku","Kabupaten Kepulauan Aru, Maluku",MALUKU,,Indonesia,,,,-5.7634667,134.225375,https://maps.google.com/?cid=0x0:0xc52c6d05ca802a64,
supermarket,Kios,Kios Sinar Jaya,"66R7+8CR, Siwalima, Kec. Pulau-Pulau Aru, Kabupaten Kepulauan Aru, Maluku","Kabupaten Kepulauan Aru, Maluku",MALUKU,,Indonesia,,,,-5.7591354,134.2135046,https://maps.google.com/?cid=0x0:0xcc2a1239cce96313,
supermarket,Toko bahan makanan,KIOS RAJLINA,"66H9+G8J, Siwalima, Kec. Pulau-Pulau Aru, Kabupaten Kepulauan Aru, Maluku","Kabupaten Kepulauan Aru, Maluku",MALUKU,,Indonesia,81253690377.0,,,-5.7711517,134.2182566,https://maps.google.com/?cid=0x0:0x9f42eef428f6af55,
supermarket,Toko umum,Kios Aru Indah,"66QM+H4G, Galay Dubu, Kec. Pulau-Pulau Aru, Kabupaten Kepulauan Aru, Maluku","Kabupaten Kepulauan Aru, Maluku",MALUKU,,Indonesia,,,,-5.7610673,134.232843,https://maps.google.com/?cid=0x0:0xc2aa063aee147ffb,
supermarket,Hipermarket,ÙÙØ·ÙØ© ØªØ³ÙÙÙØ§Øª Ø¨Ø¶Ø§Ø¦Ø¹ ÙÙÙÙ ÙØ§Ø±ÙØª lolo market,"2FHW+6G4, N Teseen, New Cairo 1, Cairo Governorate 4740012, Mesir","N Teseen, New Cairo 1",MALUKU,474001.0,Indonesia,201008335471.0,,,30.0280502,31.4963245,https://maps.google.com/?cid=0x0:0xb83068a487fef5f5,
supermarket,Kedai Kopi,ÙØ­ÙØµØ© Ø§Ø¨Ù Ø¹ÙÙ,"Emerald plaza, twin plaza, 1, Second New Cairo, Cairo Governorate 4732105, Mesir","twin plaza, 1, Second New Cairo",MALUKU,473210.0,Indonesia,,,,30.0531875,31.4315625,https://maps.google.com/?cid=0x0:0x5d7fdbdafabac413,
supermarket,Toko Swalayan,LuLu Hypermarket - Emerald Plaza,"Next to, Basement Floor 1, New Cairo, 1st Settlement, in Emerald Mall, Police Academy Passage, New Cairo 1, Cairo Governorate, Mesir","New Cairo 1, Mesir",MALUKU,,Indonesia,20225983555.0,,,30.0533678,31.4307321,https://maps.google.com/?cid=0x0:0xf7e0f805d3b05ce8,
