Category,Real Category,Business Name,Address,City,State,Postal Code,Country,Phone,Email,Website,Latitude,Longitude,Map Link,Details Link
hotel,hotel,Distrik Elelim,"Kabupaten Yalimo, Papua","Kabupaten Yalimo, Papua",PAPUA,,Indonesia,,,,-3.7680532,139.3868081,https://maps.google.com/?cid=0x0:0xde02bbdc66a23121,
hotel,hotel,Hotel Baliem Pilamo,"Jl. Trikora No.114, Wamena Kota, Distrik Wamena, Kabupaten Jayawijaya, Papua 99511","Wamena Kota, Distrik Wamena, Kabupaten Jayawijaya",PAPUA,99511.0,Indonesia,81344090719.0,,,-4.089872,138.9452891,https://maps.google.com/?cid=0x0:0x4c66aca0c6c4c202,
hotel,hotel,Grand Baliem Hotel,"Jl. Sumbawa No.1, Wamena Kota, Wamena, Jayawijaya Regency, Papua 99511","Wamena Kota, Wamena, Jayawijaya Regency",PAPUA,99511.0,Indonesia,81211516887.0,,,-4.0970243,138.9489266,https://maps.google.com/?cid=0x0:0xd313b387275f5f0b,
hotel,hotel,Hotel Rannu Jaya,"WW6V+7RM, Wamena Kota, Distrik Wamena, Kabupaten Jayawijaya, Papua 99511","Wamena Kota, Distrik Wamena, Kabupaten Jayawijaya",PAPUA,99511.0,Indonesia,82195455765.0,,,-4.0892985,138.9445592,https://maps.google.com/?cid=0x0:0xdd25cadd9590097a,
hotel,hotel,"Swiss-Belhotel Jayapura, Papua","Pusat Bisnis Jayapura, Jl. Pacific Permai, Bayangkara, Kec. Jayapura Utara, Kota Jayapura, Papua 99112","Jl. Pacific Permai, Bayangkara, Kec. Jayapura Utara, Kota Jayapura",PAPUA,99112.0,Indonesia,967551888.0,,,-2.539046,140.711573,https://maps.google.com/?cid=0x0:0xbd14f75af0c6e48b,
hotel,hotel,,,,PAPUA,,Indonesia,,,,,,https://maps.google.com/?cid=0x0:0xbd14f75af0c6e48b%7C/g/120xv389%7Cen-ID,
hotel,Penginapan,Wamena,"698M+FX, Elelim, Distrik Elelim, Kabupaten Yalimo, Papua","Kabupaten Yalimo, Papua",PAPUA,,Indonesia,,,,-3.783783,139.384914,https://maps.google.com/?cid=0x0:0x3b46a51c2e24c0fb,
hotel,Hotel,Yakikma,"699C+FC2, Jl.Andreas Mabel, Yakikma, Elelim, Yalimo Regency, Papua 99558","Jl.Andreas Mabel, Yakikma, Elelim, Yalimo Regency",PAPUA,99558.0,Indonesia,82116132027.0,,,-3.781355,139.371012,https://maps.google.com/?cid=0x0:0x848721af96d45e82,
hotel,hotel,Apalapsili,"Kabupaten Yalimo, Papua","Kabupaten Yalimo, Papua",PAPUA,,Indonesia,,,,-3.9198211,139.3044253,https://maps.google.com/?cid=0x0:0x3797ff34c521ba5e,
hotel,hotel,Hotel Suni Abepura,"Jl. Baru Ps. Lama Abepura, Wai Mhorock, Kec. Abepura, Kota Jayapura, Papua 99225","Wai Mhorock, Kec. Abepura, Kota Jayapura",PAPUA,99225.0,Indonesia,9675540888.0,,,-2.6085094,140.6741951,https://maps.google.com/?cid=0x0:0x53835df7d2648dc3,
hotel,hotel,Galaxy Hotel Abepura,"Kp. Waena, Kec. Heram, Kota Jayapura, Papua 99351","Kec. Heram, Kota Jayapura",PAPUA,99351.0,Indonesia,81150500147.0,,,-2.5944039,140.6254198,https://maps.google.com/?cid=0x0:0xf9951793f247fc13,
hotel,hotel,,,,PAPUA,,Indonesia,,,,,,https://maps.google.com/?cid=0x0:0xbd14f75af0c6e48b%7C/g/120xv389%7Cen-ID,
hotel,hotel,SIP Azana Hotel Jayapura,"Jl. Ahmad Yani No.50, Gurabesi, Kec. Jayapura Utara, Kota Jayapura, Papua 99221","Gurabesi, Kec. Jayapura Utara, Kota Jayapura",PAPUA,99221.0,Indonesia,82197886688.0,,,-2.5436754,140.7014241,https://maps.google.com/?cid=0x0:0xc311c59465e76f9e,
hotel,Penginapan,Wamena,"698M+FX, Elelim, Distrik Elelim, Kabupaten Yalimo, Papua","Kabupaten Yalimo, Papua",PAPUA,,Indonesia,,,,-3.783783,139.384914,https://maps.google.com/?cid=0x0:0x3b46a51c2e24c0fb,
hotel,Hotel,Yakikma,"699C+FC2, Jl.Andreas Mabel, Yakikma, Elelim, Yalimo Regency, Papua 99558","Jl.Andreas Mabel, Yakikma, Elelim, Yalimo Regency",PAPUA,99558.0,Indonesia,82116132027.0,,,-3.781355,139.371012,https://maps.google.com/?cid=0x0:0x848721af96d45e82,
hotel,hotel,Kec. Abenaho,"Kabupaten Yalimo, Papua","Kabupaten Yalimo, Papua",PAPUA,,Indonesia,,,,-3.8213302,139.1722643,https://maps.google.com/?cid=0x0:0x4219dcbaae7dba95,
hotel,hotel,Hotel Baliem Pilamo,"Jl. Trikora No.114, Wamena Kota, Distrik Wamena, Kabupaten Jayawijaya, Papua 99511","Wamena Kota, Distrik Wamena, Kabupaten Jayawijaya",PAPUA,99511.0,Indonesia,81344090719.0,,,-4.089872,138.9452891,https://maps.google.com/?cid=0x0:0x4c66aca0c6c4c202,
hotel,hotel,The Baliem Valley Resort,"Desa Sekan Kecamatan Siepkosi, Pugima, Distrik Wamena, Kabupaten Jayawijaya, Papua 80034","Pugima, Distrik Wamena, Kabupaten Jayawijaya",PAPUA,80034.0,Indonesia,,,,-4.0595129,139.0293485,https://maps.google.com/?cid=0x0:0xa5f70df54e54f86c,
hotel,hotel,,,,PAPUA,,Indonesia,,,,,,https://maps.google.com/?cid=0x0:0xadc84ceab536f6a%7C/g/11btn18jtk%7Cen-ID,
hotel,hotel,Hotel Suni Abepura,"Jl. Baru Ps. Lama Abepura, Wai Mhorock, Kec. Abepura, Kota Jayapura, Papua 99225","Wai Mhorock, Kec. Abepura, Kota Jayapura",PAPUA,99225.0,Indonesia,9675540888.0,,,-2.6085094,140.6741951,https://maps.google.com/?cid=0x0:0x53835df7d2648dc3,
hotel,hotel,Asana Biak Papua,"Jl. M Yamin No.04, Mandala, Kec. Biak Kota, Kabupaten Biak Numfor, Papua 98111","Mandala, Kec. Biak Kota, Kabupaten Biak Numfor",PAPUA,98111.0,Indonesia,8114743111.0,,,-1.1918619,136.1049095,https://maps.google.com/?cid=0x0:0x94321ded15c5a4a3,
hotel,hotel,HOTEL AINA,"CGM6+R9J, Jl. Raya Kemiri, Sentani Kota, Kec. Sentani, Kabupaten Jayapura, Papua","Kabupaten Jayapura, Papua",PAPUA,,Indonesia,85243960057.0,,,-2.5654218,140.5108844,https://maps.google.com/?cid=0x0:0xe10f3eb6fe778f83,
hotel,hotel,SIP Azana Hotel Jayapura,"Jl. Ahmad Yani No.50, Gurabesi, Kec. Jayapura Utara, Kota Jayapura, Papua 99221","Gurabesi, Kec. Jayapura Utara, Kota Jayapura",PAPUA,99221.0,Indonesia,82197886688.0,,,-2.5436754,140.7014241,https://maps.google.com/?cid=0x0:0xc311c59465e76f9e,
hotel,hotel,Grand Baliem Hotel,"Jl. Sumbawa No.1, Wamena Kota, Wamena, Jayawijaya Regency, Papua 99511","Wamena Kota, Wamena, Jayawijaya Regency",PAPUA,99511.0,Indonesia,81211516887.0,,,-4.0970243,138.9489266,https://maps.google.com/?cid=0x0:0xd313b387275f5f0b,
hotel,hotel,Hotel Grand Sartika,"WW2Q+GM5, Jl. Bayangkara, Hurekama, Distrik Wamena, Kabupaten Jayawijaya, Papua 99511","Jl. Bayangkara, Hurekama, Distrik Wamena, Kabupaten Jayawijaya",PAPUA,99511.0,Indonesia,96931723.0,,,-4.0989887,138.9395079,https://maps.google.com/?cid=0x0:0x6ff62b4e3628ae0b,
hotel,hotel,Hotel Putri Dani,"Jl. Irian No.40, Hurekama, Distrik Wamena, Kabupaten Jayawijaya, Papua 99511","Hurekama, Distrik Wamena, Kabupaten Jayawijaya",PAPUA,99511.0,Indonesia,81315241808.0,,,-4.0957582,138.9392487,https://maps.google.com/?cid=0x0:0x8f74e0c2ea557b12,
hotel,hotel,Rimba Papua Hotel,"Jl. Kwamki Narama No. 1, Kwamki, Kec. Mimika Baru, Kabupaten Mimika, Papua 99971","Kwamki, Kec. Mimika Baru, Kabupaten Mimika",PAPUA,99971.0,Indonesia,901494949.0,,,-4.5151124,136.884599,https://maps.google.com/?cid=0x0:0xa65056700db32492,
hotel,hotel,Hotel Cartenz Wamena,"Jl. Yos Sudarso No.45, Hurekama, Distrik Wamena, Kabupaten Jayawijaya, Papua 99511","Hurekama, Distrik Wamena, Kabupaten Jayawijaya",PAPUA,99511.0,Indonesia,81344804750.0,,,-4.1012558,138.9376982,https://maps.google.com/?cid=0x0:0xf2c5765f17cbf383,
hotel,hotel,Hotel Rainbow,"Jl. Irian No.26, Wamena Kota, Distrik Wamena, Kabupaten Jayawijaya, Papua 99511","Wamena Kota, Distrik Wamena, Kabupaten Jayawijaya",PAPUA,99511.0,Indonesia,81248000685.0,,,-4.0943536,138.9419192,https://maps.google.com/?cid=0x0:0x8a8c32fe134fd547,
hotel,hotel,Hotel Anggrek,"Jl. Ambon No.1, Wamena Kota, Distrik Wamena, Kabupaten Jayawijaya, Papua 99511","Wamena Kota, Distrik Wamena, Kabupaten Jayawijaya",PAPUA,99511.0,Indonesia,,,,-4.0951401,138.9486951,https://maps.google.com/?cid=0x0:0x8c14510cd7032458,
hotel,hotel,Pintu Biru Hostel,"Jl. Yos Sudarso No.88, Hurekama, Distrik Wamena, Kabupaten Jayawijaya, Papua Pegunungan, 99511","Hurekama, Distrik Wamena, Kabupaten Jayawijaya",PAPUA,99511.0,Indonesia,82269369789.0,,,-4.101998,138.9353285,https://maps.google.com/?cid=0x0:0xc884605b24325550,
hotel,hotel,Hotel Rannu Jaya,"WW6V+7RM, Wamena Kota, Distrik Wamena, Kabupaten Jayawijaya, Papua 99511","Wamena Kota, Distrik Wamena, Kabupaten Jayawijaya",PAPUA,99511.0,Indonesia,82195455765.0,,,-4.0892985,138.9445592,https://maps.google.com/?cid=0x0:0xdd25cadd9590097a,
hotel,hotel,Gerson Hotel Abepura  Cafe,"Jl. Bosnik BTN Kamkey, Awiyo, Kec. Abepura, Kota Jayapura, Papua 99351","Awiyo, Kec. Abepura, Kota Jayapura",PAPUA,99351.0,Indonesia,895417300072.0,,,-2.6194737,140.6739776,https://maps.google.com/?cid=0x0:0xee11e02b061cf5df,
hotel,hotel,Srikandi Hotel,"Jl. Irian No.18, Honelama, Distrik Wamena, Kabupaten Jayawijaya, Papua 99511","Honelama, Distrik Wamena, Kabupaten Jayawijaya",PAPUA,99511.0,Indonesia,96931367.0,,,-4.0973379,138.9357734,https://maps.google.com/?cid=0x0:0x26edbc5af0ffc65e,
hotel,hotel,Tendy Hotel,"Jl. Trikora AA No.112, Wamena Kota, Distrik Wamena, Kabupaten Jayawijaya, Papua 99511","Wamena Kota, Distrik Wamena, Kabupaten Jayawijaya",PAPUA,99511.0,Indonesia,96931092.0,,,-4.0976762,138.9492496,https://maps.google.com/?cid=0x0:0xf05ddbb5560071c5,
hotel,hotel,AMABEL Hotel,"AP, Bayangkara, Kec. Jayapura Utara, Kota Jayapura, Papua 99112","Bayangkara, Kec. Jayapura Utara, Kota Jayapura",PAPUA,99112.0,Indonesia,967522102.0,,,-2.5354528,140.7046727,https://maps.google.com/?cid=0x0:0xd37dfedb9adff6b7,
hotel,hotel,Hotel Viona,"Jalan, Argapura, Asei Kecil, Jayapura City, Papua 99351","Argapura, Asei Kecil, Jayapura City",PAPUA,99351.0,Indonesia,82198557373.0,,,-2.5590996,140.7120253,https://maps.google.com/?cid=0x0:0x991b43add0b147d8,
hotel,hotel,Hotel Manna,"Jl. Imam Bonjol, Fandoi, Biak Papua, Kabupaten Biak Numfor, Papua 98112","Fandoi, Biak Papua, Kabupaten Biak Numfor",PAPUA,98112.0,Indonesia,98122224.0,,,-1.1808075,136.0821667,https://maps.google.com/?cid=0x0:0x58ba27a7cb3a5bd6,
hotel,Penginapan,Wamena,"698M+FX, Elelim, Distrik Elelim, Kabupaten Yalimo, Papua","Kabupaten Yalimo, Papua",PAPUA,,Indonesia,,,,-3.783783,139.384914,https://maps.google.com/?cid=0x0:0x3b46a51c2e24c0fb,
hotel,Hotel,Yakikma,"699C+FC2, Jl.Andreas Mabel, Yakikma, Elelim, Yalimo Regency, Papua 99558","Jl.Andreas Mabel, Yakikma, Elelim, Yalimo Regency",PAPUA,99558.0,Indonesia,82116132027.0,,,-3.781355,139.371012,https://maps.google.com/?cid=0x0:0x848721af96d45e82,
hotel,hotel,Benawa,"Kabupaten Yalimo, Papua","Kabupaten Yalimo, Papua",PAPUA,,Indonesia,,,,-3.6675868,139.609512,https://maps.google.com/?cid=0x0:0xd6131a7bad4f76ca,
hotel,hotel,Hotel Mahavira I,"Karang Mulia, Distrik Nabire, Kabupaten Nabire, Papua 98811","Distrik Nabire, Kabupaten Nabire",PAPUA,98811.0,Indonesia,,,,-3.3731863,135.5098879,https://maps.google.com/?cid=0x0:0xeffead9206fb0816,
hotel,hotel,ARTOTEL Casa Kuningan,"Jl. Denpasar Raya, RT.8/RW.3, Kuningan, Kuningan Tim., Kecamatan Setiabudi, Kota Jakarta Selatan, Daerah Khusus Ibukota Jakarta 12950","RT.8/RW.3, Kuningan, Kuningan Tim., Kecamatan Setiabudi, Kota Jakarta Selatan",PAPUA,12950.0,Indonesia,8111539539.0,,,-6.2347461,106.8268999,https://maps.google.com/?cid=0x0:0xb27da9c90bfeec74,
hotel,hotel,,,,PAPUA,,Indonesia,,,,,,https://maps.google.com/?cid=0x0:0xb27da9c90bfeec74%7C/g/11t77mm2hq%7Cen-ID,
hotel,hotel,Hotel Mercure Jakarta Gatot Subroto,"Jl. Gatot Subroto No.Kav. 1, Kuningan Bar., Jakarta, Kota Jakarta Selatan, Daerah Khusus Ibukota Jakarta 12790","Kuningan Bar., Jakarta, Kota Jakarta Selatan",PAPUA,12790.0,Indonesia,2150825400.0,,,-6.2395588,106.8307447,https://maps.google.com/?cid=0x0:0xae2c6b053bbf55c2,
hotel,hotel,,,,PAPUA,,Indonesia,,,,,,https://maps.google.com/?cid=0x0:0xae2c6b053bbf55c2%7C/g/11fjz2dbln%7Cen-ID,
hotel,hotel,Hotel Gran Melia Jakarta,"Jl. H. R. Rasuna Said, Kuningan Tim., Kecamatan Setiabudi, Kota Jakarta Selatan, Daerah Khusus Ibukota Jakarta 12950","Kuningan Tim., Kecamatan Setiabudi, Kota Jakarta Selatan",PAPUA,12950.0,Indonesia,215268080.0,,,-6.234988,106.830174,https://maps.google.com/?cid=0x0:0x77ed932b72db06d7,
hotel,hotel,,,,PAPUA,,Indonesia,,,,,,https://maps.google.com/?cid=0x0:0x77ed932b72db06d7%7C/g/11byl6nt00%7Cen-ID,
hotel,hotel,Amaris Hotel Tendean Jakarta,"Jl. Kapten Tendean No.11, RT.1/RW.2, Kuningan Bar., Kec. Mampang Prpt., Kota Jakarta Selatan, Daerah Khusus Ibukota Jakarta 12710","RT.1/RW.2, Kuningan Bar., Kec. Mampang Prpt., Kota Jakarta Selatan",PAPUA,12710.0,Indonesia,2152962228.0,,,-6.2396669,106.8270092,https://maps.google.com/?cid=0x0:0x3ffe6de6c769f0fc,
hotel,hotel,,,,PAPUA,,Indonesia,,,,,,https://maps.google.com/?cid=0x0:0x3ffe6de6c769f0fc%7C/g/1wc9p62n%7Cen-ID,
hotel,hotel,,,,PAPUA,,Indonesia,,,,,,https://maps.google.com/?cid=0x0:0xb5a37f1e4d342823%7C/g/1ptydqp1p%7Cen-ID,
hotel,hotel,Hotel D' Prima,"Jl. Mega Kuningan Timur II No.1, Kuningan, Kuningan Tim., Kecamatan Setiabudi, Kota Jakarta Selatan, Daerah Khusus Ibukota Jakarta 12950","Kuningan, Kuningan Tim., Kecamatan Setiabudi, Kota Jakarta Selatan",PAPUA,12950.0,Indonesia,2129201234.0,,,-6.2285905,106.8282792,https://maps.google.com/?cid=0x0:0xb5a37f1e4d342823,
hotel,hotel,Tendean Residences,"Jl. Kapten Tendean Jl. Wolter Monginsidi No.127 1, RT.2/RW.2, Rw. Bar., Kec. Kby. Baru, Kota Jakarta Selatan, Daerah Khusus Ibukota Jakarta 12180","RT.2/RW.2, Rw. Bar., Kec. Kby. Baru, Kota Jakarta Selatan",PAPUA,12180.0,Indonesia,8170114527.0,,,-6.2384667,106.8172375,https://maps.google.com/?cid=0x0:0x6dbb5082311d9026,
hotel,hotel,,,,PAPUA,,Indonesia,,,,,,https://maps.google.com/?cid=0x0:0x6dbb5082311d9026%7C/g/1tkfw_cs%7Cen-ID,
hotel,hotel,Hotel NEO Tendean,"Jl. Wolter Monginsidi No.131, RT.2/RW.2, Rw. Bar., Kec. Kby. Baru, Kota Jakarta Selatan, Daerah Khusus Ibukota Jakarta 12180","RT.2/RW.2, Rw. Bar., Kec. Kby. Baru, Kota Jakarta Selatan",PAPUA,12180.0,Indonesia,217226688.0,,,-6.238656,106.8176522,https://maps.google.com/?cid=0x0:0xa68396a69cb7f1aa,
hotel,hotel,,,,PAPUA,,Indonesia,,,,,,https://maps.google.com/?cid=0x0:0xa68396a69cb7f1aa%7C/g/1pty_mv79%7Cen-ID,
hotel,hotel,Amaris Hotel Dr. Satrio Kuningan - Jakarta,"7, Jl. Prof. DR. Satrio No.23, RW.2, Kuningan Tim., Kecamatan Setiabudi, Kota Jakarta Selatan, Daerah Khusus Ibukota Jakarta 12950","Jl. Prof. DR. Satrio No.23, RW.2, Kuningan Tim., Kecamatan Setiabudi, Kota Jakarta Selatan",PAPUA,12950.0,Indonesia,2129023336.0,,,-6.2256071,106.8296596,https://maps.google.com/?cid=0x0:0x9703a3bf392e02d5,
hotel,hotel,,,,PAPUA,,Indonesia,,,,,,https://maps.google.com/?cid=0x0:0x9703a3bf392e02d5%7C/g/11clzk9zfc%7Cen-ID,
hotel,hotel,Citadines Gatot Subroto Jakarta,"Jl. Gatot Subroto Street Kav.64 No.177A, RT.9/RW.1, Menteng Dalam, Kec. Tebet, Kota Jakarta Selatan, Daerah Khusus Ibukota Jakarta 12870","RT.9/RW.1, Menteng Dalam, Kec. Tebet, Kota Jakarta Selatan",PAPUA,12870.0,Indonesia,218317780.0,,,-6.2401,106.8371105,https://maps.google.com/?cid=0x0:0x23412b22a82cebb5,
hotel,hotel,,,,PAPUA,,Indonesia,,,,,,https://maps.google.com/?cid=0x0:0x211de77bb11fbee6%7C/g/1pp2t_26r%7Cen-ID,
hotel,hotel,favehotel Gatot Subroto Jakarta,"Jl. Kartika Candra No.Kav. A-9, Karet Semanggi, Kecamatan Setiabudi, Kota Jakarta Selatan, Daerah Khusus Ibukota Jakarta 12930","Karet Semanggi, Kecamatan Setiabudi, Kota Jakarta Selatan",PAPUA,12930.0,Indonesia,2129419888.0,,,-6.2271941,106.8195971,https://maps.google.com/?cid=0x0:0x211de77bb11fbee6,
hotel,hotel,,,,PAPUA,,Indonesia,,,,,,https://maps.google.com/?cid=0x0:0x70e5ae0ff55cdac1%7C/g/11h081m9fz%7Cen-ID,
hotel,hotel,Wyndham Casablanca Jakarta,"Jl. Raya Casablanca No.18, RT.4/RW.12, Menteng Dalam, Kec. Tebet, Kota Jakarta Selatan, Daerah Khusus Ibukota Jakarta 12870","RT.4/RW.12, Menteng Dalam, Kec. Tebet, Kota Jakarta Selatan",PAPUA,12870.0,Indonesia,218282000.0,,,-6.2248964,106.8400434,https://maps.google.com/?cid=0x0:0x70e5ae0ff55cdac1,
hotel,hotel,"The Langham, Jakarta","Sudirman Central Business District 8 Lot.28, Senayan, Kec. Kby. Baru, Kota Jakarta Selatan, Daerah Khusus Ibukota Jakarta 12190","Senayan, Kec. Kby. Baru, Kota Jakarta Selatan",PAPUA,12190.0,Indonesia,2127087888.0,,,-6.2273812,106.8067669,https://maps.google.com/?cid=0x0:0xd36ec787c1cbe0a8,
hotel,hotel,,,,PAPUA,,Indonesia,,,,,,https://maps.google.com/?cid=0x0:0xd36ec787c1cbe0a8%7C/g/11c53qxdv7%7Cen-ID,
hotel,hotel,Hotel Pomelotel,"Jl. Dukuh Patra Jl. Kuningan Barat Raya No.28, RT.11/RW.1, Menteng Dalam, Kec. Tebet, Kota Jakarta Selatan, Daerah Khusus Ibukota Jakarta 12870","RT.11/RW.1, Menteng Dalam, Kec. Tebet, Kota Jakarta Selatan",PAPUA,12870.0,Indonesia,2183709588.0,,,-6.2379125,106.8359038,https://maps.google.com/?cid=0x0:0x32cda8a567a77c49,
hotel,hotel,,,,PAPUA,,Indonesia,,,,,,https://maps.google.com/?cid=0x0:0x32cda8a567a77c49%7C/g/1hf1pq_s5%7Cen-ID,
hotel,hotel,Welarek,"Kabupaten Yalimo, Papua","Kabupaten Yalimo, Papua",PAPUA,,Indonesia,,,,-3.9512159,139.5687416,https://maps.google.com/?cid=0x0:0x61fd6182e9d8dc58,
hotel,hotel,Hotel Baliem Pilamo,"Jl. Trikora No.114, Wamena Kota, Distrik Wamena, Kabupaten Jayawijaya, Papua 99511","Wamena Kota, Distrik Wamena, Kabupaten Jayawijaya",PAPUA,99511.0,Indonesia,81344090719.0,,,-4.089872,138.9452891,https://maps.google.com/?cid=0x0:0x4c66aca0c6c4c202,
hotel,hotel,Hotel Cartenz Wamena,"Jl. Yos Sudarso No.45, Hurekama, Distrik Wamena, Kabupaten Jayawijaya, Papua 99511","Hurekama, Distrik Wamena, Kabupaten Jayawijaya",PAPUA,99511.0,Indonesia,81344804750.0,,,-4.1012558,138.9376982,https://maps.google.com/?cid=0x0:0xf2c5765f17cbf383,
hotel,hotel,Hotel Rannu Jaya,"WW6V+7RM, Wamena Kota, Distrik Wamena, Kabupaten Jayawijaya, Papua 99511","Wamena Kota, Distrik Wamena, Kabupaten Jayawijaya",PAPUA,99511.0,Indonesia,82195455765.0,,,-4.0892985,138.9445592,https://maps.google.com/?cid=0x0:0xdd25cadd9590097a,
hotel,hotel,Hotel Manna,"Jl. Imam Bonjol, Fandoi, Biak Papua, Kabupaten Biak Numfor, Papua 98112","Fandoi, Biak Papua, Kabupaten Biak Numfor",PAPUA,98112.0,Indonesia,98122224.0,,,-1.1808075,136.0821667,https://maps.google.com/?cid=0x0:0x58ba27a7cb3a5bd6,
hotel,hotel,"Swiss-Belhotel Jayapura, Papua","Pusat Bisnis Jayapura, Jl. Pacific Permai, Bayangkara, Kec. Jayapura Utara, Kota Jayapura, Papua 99112","Jl. Pacific Permai, Bayangkara, Kec. Jayapura Utara, Kota Jayapura",PAPUA,99112.0,Indonesia,967551888.0,,,-2.539046,140.711573,https://maps.google.com/?cid=0x0:0xbd14f75af0c6e48b,
hotel,hotel,,,,PAPUA,,Indonesia,,,,,,https://maps.google.com/?cid=0x0:0xbd14f75af0c6e48b%7C/g/120xv389%7Cen-ID,
hotel,hotel,Asana Biak Papua,"Jl. M Yamin No.04, Mandala, Kec. Biak Kota, Kabupaten Biak Numfor, Papua 98111","Mandala, Kec. Biak Kota, Kabupaten Biak Numfor",PAPUA,98111.0,Indonesia,8114743111.0,,,-1.1918619,136.1049095,https://maps.google.com/?cid=0x0:0x94321ded15c5a4a3,
hotel,hotel,Hotel Rainbow,"Jl. Irian No.26, Wamena Kota, Distrik Wamena, Kabupaten Jayawijaya, Papua 99511","Wamena Kota, Distrik Wamena, Kabupaten Jayawijaya",PAPUA,99511.0,Indonesia,81248000685.0,,,-4.0943536,138.9419192,https://maps.google.com/?cid=0x0:0x8a8c32fe134fd547,
hotel,hotel,Hotel Of Hasel,"Jl. Esau No.37 Mandala Pulau Biak, Mandala, Kec. Biak Kota, Kabupaten Biak Numfor, Papua 98111","Mandala, Kec. Biak Kota, Kabupaten Biak Numfor",PAPUA,98111.0,Indonesia,83119229269.0,,,-1.180235,136.0901681,https://maps.google.com/?cid=0x0:0x65d093f8a4282080,
hotel,Penginapan,Wamena,"698M+FX, Elelim, Distrik Elelim, Kabupaten Yalimo, Papua","Kabupaten Yalimo, Papua",PAPUA,,Indonesia,,,,-3.783783,139.384914,https://maps.google.com/?cid=0x0:0x3b46a51c2e24c0fb,
hotel,Hotel,Yakikma,"699C+FC2, Jl.Andreas Mabel, Yakikma, Elelim, Yalimo Regency, Papua 99558","Jl.Andreas Mabel, Yakikma, Elelim, Yalimo Regency",PAPUA,99558.0,Indonesia,82116132027.0,,,-3.781355,139.371012,https://maps.google.com/?cid=0x0:0x848721af96d45e82,
restaurant,restaurant,Distrik Elelim,"Kabupaten Yalimo, Papua","Kabupaten Yalimo, Papua",PAPUA,,Indonesia,,,,-3.7680532,139.3868081,https://maps.google.com/?cid=0x0:0xde02bbdc66a23121,
restaurant,Restoran,Elelim Cafe,"Elelim, Distrik Elelim, Kabupaten Yalimo, Papua 99558","Distrik Elelim, Kabupaten Yalimo",PAPUA,99558.0,Indonesia,81240090528.0,,,-3.7700989,139.3833279,https://maps.google.com/?cid=0x0:0xb4f215888727433b,
restaurant,Kafe,warung makan lumayan,"69HJ+5HV, Unnamed Road, Elelim, Distrik Elelim, Kabupaten Yalimo, Papua 99558","Unnamed Road, Elelim, Distrik Elelim, Kabupaten Yalimo",PAPUA,99558.0,Indonesia,85244955800.0,,,-3.772016,139.381411,https://maps.google.com/?cid=0x0:0xbc4ad3c4c7484ec,
restaurant,Kafe,Umega cafe,"69GJ+2J4, Elelim, Distrik Elelim, Kabupaten Yalimo, Papua 99558","Elelim, Distrik Elelim, Kabupaten Yalimo",PAPUA,99558.0,Indonesia,,,,-3.7749983,139.3815822,https://maps.google.com/?cid=0x0:0x1d57878ccf670700,
restaurant,restaurant,Warung Makan Palopo,"Jln. Pirip (Trans Jayapura-Wamena, Elelim, Distrik Elelim, Kabupaten Yalimo, Papua 99584","Elelim, Distrik Elelim, Kabupaten Yalimo",PAPUA,99584.0,Indonesia,,,,-3.7646549,139.3879892,https://maps.google.com/?cid=0x0:0x53d4d21efc1f1fd5,
restaurant,Bubur,Rolenda Organic Restaurant,"Jl. Trans Papua,KM-130-Wamena Tengon Jl. Ohoam, Elelim, Distrik Elelim, Kabupaten Yalimo, Papua 99082","Elelim, Distrik Elelim, Kabupaten Yalimo",PAPUA,99082.0,Indonesia,81247068008.0,,,-3.7792593,139.381862,https://maps.google.com/?cid=0x0:0x13f13fd67511f555,
restaurant,Kafe,Warung makan Afrizal,"69QQ+C8J, Elelim, Distrik Elelim, Kabupaten Yalimo, Papua","Kabupaten Yalimo, Papua",PAPUA,,Indonesia,,,,-3.7602085,139.3892694,https://maps.google.com/?cid=0x0:0xfdb8154eb88dffc9,
restaurant,Mesin Sangrai Kopi,Alenia Papua Coffee  Kitchen,"Jl. Kemang Raya No.66 B 8, RT.8/RW.2, Bangka, Kec. Mampang Prpt., Kota Jakarta Selatan, Daerah Khusus Ibukota Jakarta 12730","RT.8/RW.2, Bangka, Kec. Mampang Prpt., Kota Jakarta Selatan",PAPUA,12730.0,Indonesia,2171790141.0,,,-6.2638119,106.8158777,https://maps.google.com/?cid=0x0:0xe49807fcfab68b48,
restaurant,restaurant,Warung Makan Marlin Padakita,"Jl. Trans Papua No.km 130, Yabema, Distrik Elelim, Kabupaten Yalimo, Papua 99559","Yabema, Distrik Elelim, Kabupaten Yalimo",PAPUA,99559.0,Indonesia,,,,-3.8146762,139.4059435,https://maps.google.com/?cid=0x0:0x4446c08fdc588f8f,
restaurant,restaurant,Apalapsili,"Kabupaten Yalimo, Papua","Kabupaten Yalimo, Papua",PAPUA,,Indonesia,,,,-3.9198211,139.3044253,https://maps.google.com/?cid=0x0:0x3797ff34c521ba5e,
restaurant,restaurant,Kec. Abenaho,"Kabupaten Yalimo, Papua","Kabupaten Yalimo, Papua",PAPUA,,Indonesia,,,,-3.8213302,139.1722643,https://maps.google.com/?cid=0x0:0x4219dcbaae7dba95,
restaurant,Kafe,warung makan lumayan,"69HJ+5HV, Unnamed Road, Elelim, Distrik Elelim, Kabupaten Yalimo, Papua 99558","Unnamed Road, Elelim, Distrik Elelim, Kabupaten Yalimo",PAPUA,99558.0,Indonesia,85244955800.0,,,-3.772016,139.381411,https://maps.google.com/?cid=0x0:0xbc4ad3c4c7484ec,
restaurant,Kafe,Umega cafe,"69GJ+2J4, Elelim, Distrik Elelim, Kabupaten Yalimo, Papua 99558","Elelim, Distrik Elelim, Kabupaten Yalimo",PAPUA,99558.0,Indonesia,,,,-3.7749983,139.3815822,https://maps.google.com/?cid=0x0:0x1d57878ccf670700,
restaurant,Restoran,Rm Telago Biru,"69JM+55F, Unnamed Road, Elelim, Distrik Elelim, Kabupaten Yalimo, Papua 99558","Unnamed Road, Elelim, Distrik Elelim, Kabupaten Yalimo",PAPUA,99558.0,Indonesia,85211887759.0,,,-3.7695505,139.3829323,https://maps.google.com/?cid=0x0:0x3dfa9d5b02f381e0,
restaurant,Restoran,Elelim Cafe,"Elelim, Distrik Elelim, Kabupaten Yalimo, Papua 99558","Distrik Elelim, Kabupaten Yalimo",PAPUA,99558.0,Indonesia,81240090528.0,,,-3.7700989,139.3833279,https://maps.google.com/?cid=0x0:0xb4f215888727433b,
restaurant,Bubur,Rolenda Organic Restaurant,"Jl. Trans Papua,KM-130-Wamena Tengon Jl. Ohoam, Elelim, Distrik Elelim, Kabupaten Yalimo, Papua 99082","Elelim, Distrik Elelim, Kabupaten Yalimo",PAPUA,99082.0,Indonesia,81247068008.0,,,-3.7792593,139.381862,https://maps.google.com/?cid=0x0:0x13f13fd67511f555,
restaurant,Restoran,Restaurant Yougwa,"CJ63+H23, Jl. Raya Abepura - Sentani, Asei Kecil, Kec. Sentani Tim., Kabupaten Jayapura, Papua 99351","Jl. Raya Abepura - Sentani, Asei Kecil, Kec. Sentani Tim., Kabupaten Jayapura",PAPUA,99351.0,Indonesia,8114801448.0,,,-2.5886245,140.602559,https://maps.google.com/?cid=0x0:0x65e60fc66014e79c,
restaurant,Kafe,Warung makan Afrizal,"69QQ+C8J, Elelim, Distrik Elelim, Kabupaten Yalimo, Papua","Kabupaten Yalimo, Papua",PAPUA,,Indonesia,,,,-3.7602085,139.3892694,https://maps.google.com/?cid=0x0:0xfdb8154eb88dffc9,
restaurant,Restoran,So Yummy Resto,"FV3Q+QR9, Kwamki, Kec. Mimika Baru, Kabupaten Mimika, Papua 99971","Kwamki, Kec. Mimika Baru, Kabupaten Mimika",PAPUA,99971.0,Indonesia,81240005760.0,,,-4.5455973,136.8896159,https://maps.google.com/?cid=0x0:0xad18f6a2fb6ee6f8,
restaurant,restaurant,The Baliem Valley Resort,"Desa Sekan Kecamatan Siepkosi, Pugima, Distrik Wamena, Kabupaten Jayawijaya, Papua 80034","Pugima, Distrik Wamena, Kabupaten Jayawijaya",PAPUA,80034.0,Indonesia,,,,-4.0595129,139.0293485,https://maps.google.com/?cid=0x0:0xa5f70df54e54f86c,
restaurant,Tujuan Wisata,Pasir Putih Wamena,"XX72+4CQ, Aikima, Kec. Kurulu, Kabupaten Jayawijaya, Papua 99566","Aikima, Kec. Kurulu, Kabupaten Jayawijaya",PAPUA,99566.0,Indonesia,,,,-4.0371623,138.9511044,https://maps.google.com/?cid=0x0:0xb7451fcd39daf555,
restaurant,Restoran,Cristho Resto,"Jl. Raya Sentani - Waena, Asei Kecil, Kec. Sentani Tim., Kabupaten Jayapura, Papua 99351","Asei Kecil, Kec. Sentani Tim., Kabupaten Jayapura",PAPUA,99351.0,Indonesia,82248269002.0,,,-2.5885674,140.5954984,https://maps.google.com/?cid=0x0:0xe37fe4d7ad0bc892,
restaurant,Hidangan Laut,B-One Restaurant,"FP45+5CR, Numbai, Distrik Jayapura Selatan, Kota Jayapura, Papua 99222","Numbai, Distrik Jayapura Selatan, Kota Jayapura",PAPUA,99222.0,Indonesia,81344533058.0,,,-2.5445125,140.7085143,https://maps.google.com/?cid=0x0:0xb8053f84d614fc3e,
restaurant,restaurant,Warung Makan Palopo,"Jln. Pirip (Trans Jayapura-Wamena, Elelim, Distrik Elelim, Kabupaten Yalimo, Papua 99584","Elelim, Distrik Elelim, Kabupaten Yalimo",PAPUA,99584.0,Indonesia,,,,-3.7646549,139.3879892,https://maps.google.com/?cid=0x0:0x53d4d21efc1f1fd5,
restaurant,Manado,Baku Sayang Restaurant,"Jl. Pesanggrahan No.27, RT.1/RW.6, Kembangan Sel., Kec. Kembangan, Kota Jakarta Barat, Daerah Khusus Ibukota Jakarta 11610","RT.1/RW.6, Kembangan Sel., Kec. Kembangan, Kota Jakarta Barat",PAPUA,11610.0,Indonesia,215841408.0,,,-6.1948085,106.7555623,https://maps.google.com/?cid=0x0:0x9d104b5eea4dea2b,
restaurant,Rumah Makan,Rumah Makan Sendok Garpu Jayapura,"Jl. Raya Abepura-Kotaraja Kota Baru, Wai Mhorock, Kec. Abepura, Kota Jayapura, Papua 99225","Wai Mhorock, Kec. Abepura, Kota Jayapura",PAPUA,99225.0,Indonesia,82310000123.0,,,-2.6057136,140.6694308,https://maps.google.com/?cid=0x0:0x9b347169a4f00047,
restaurant,restaurant,Warkop Pricia  Blackbox Barbershop,"69JM+3C5, Elelim, Distrik Elelim, Kabupaten Yalimo, Papua 99558","Elelim, Distrik Elelim, Kabupaten Yalimo",PAPUA,99558.0,Indonesia,81280644306.0,,,-3.7698723,139.3836133,https://maps.google.com/?cid=0x0:0x176e588b2c546517,
restaurant,Rumah Makan,RestoCafe Rumah Laut,"Jl. Koti, Numbai, Distrik Jayapura Selatan, Kota Jayapura, Papua 99222","Numbai, Distrik Jayapura Selatan, Kota Jayapura",PAPUA,99222.0,Indonesia,9675160842.0,,,-2.5443152,140.7078561,https://maps.google.com/?cid=0x0:0xa0b850e17d17f09d,
restaurant,Kedai Kopi,Bina Tani. CV,"JL. Yos Sudarso, No. 45, Wamena, Mulima, Kec. Kurulu, Kabupaten Jayawijaya, Papua 99511","No. 45, Wamena, Mulima, Kec. Kurulu, Kabupaten Jayawijaya",PAPUA,99511.0,Indonesia,81344804750.0,,,-4.00126,138.966064,https://maps.google.com/?cid=0x0:0xebeaaa810720af8a,
restaurant,restaurant,Restoran liga pelangi,"3347+WVP, Wamena Kota, Distrik Wamena, Kabupaten Jayawijaya, Papua 99511","Wamena Kota, Distrik Wamena, Kabupaten Jayawijaya",PAPUA,99511.0,Indonesia,,,,-3.9426721,139.0647151,https://maps.google.com/?cid=0x0:0x645795133aa0603a,
restaurant,Ikan Bakar,Restaurant HIYAKE,"Asano, Kec. Abepura, Kota Jayapura, Papua 99351","Kec. Abepura, Kota Jayapura",PAPUA,99351.0,Indonesia,,,,-2.6170625,140.6810625,https://maps.google.com/?cid=0x0:0xd0238f33fd19f43,
restaurant,Restoran,58 Hauzz Kitchen  Lounge,"Kota, Jl. Raya Abepura - Sentani, Kabupaten Jayapura, Papua","Kabupaten Jayapura, Papua",PAPUA,,Indonesia,8114858558.0,,,-2.6087433,140.6671875,https://maps.google.com/?cid=0x0:0xf9f022f92c8ea463,
restaurant,restaurant,Benawa,"Kabupaten Yalimo, Papua","Kabupaten Yalimo, Papua",PAPUA,,Indonesia,,,,-3.6675868,139.609512,https://maps.google.com/?cid=0x0:0xd6131a7bad4f76ca,
restaurant,Padang,Resto Yougwa Danau Sentani,"Jl. Batu Ceper No.73 15, RT.15/RW.1, Kb. Klp., Kecamatan Gambir, Kota Jakarta Pusat, Daerah Khusus Ibukota Jakarta 10120","RT.15/RW.1, Kb. Klp., Kecamatan Gambir, Kota Jakarta Pusat",PAPUA,10120.0,Indonesia,8119622272.0,,,-6.162043,106.8243928,https://maps.google.com/?cid=0x0:0xd6689d47fce71c89,
restaurant,Indonesia,Yougwa Danau Sentani,"Senayan Park Mall Lantai LG #20-25, Jl. Gerbang Pemuda No.3, RT.1/RW.3, Gelora, Kecamatan Tanah Abang, Kota Jakarta Pusat, Daerah Khusus Ibukota Jakarta 10270","Jl. Gerbang Pemuda No.3, RT.1/RW.3, Gelora, Kecamatan Tanah Abang, Kota Jakarta Pusat",PAPUA,10270.0,Indonesia,2129633388.0,,,-6.2122871,106.8053997,https://maps.google.com/?cid=0x0:0x25579f89f3dead39,
restaurant,Kafe,warung makan lumayan,"69HJ+5HV, Unnamed Road, Elelim, Distrik Elelim, Kabupaten Yalimo, Papua 99558","Unnamed Road, Elelim, Distrik Elelim, Kabupaten Yalimo",PAPUA,99558.0,Indonesia,85244955800.0,,,-3.772016,139.381411,https://maps.google.com/?cid=0x0:0xbc4ad3c4c7484ec,
restaurant,Kafe,Umega cafe,"69GJ+2J4, Elelim, Distrik Elelim, Kabupaten Yalimo, Papua 99558","Elelim, Distrik Elelim, Kabupaten Yalimo",PAPUA,99558.0,Indonesia,,,,-3.7749983,139.3815822,https://maps.google.com/?cid=0x0:0x1d57878ccf670700,
restaurant,Mesin Sangrai Kopi,Alenia Papua Coffee  Kitchen,"Jl. Kemang Raya No.66 B 8, RT.8/RW.2, Bangka, Kec. Mampang Prpt., Kota Jakarta Selatan, Daerah Khusus Ibukota Jakarta 12730","RT.8/RW.2, Bangka, Kec. Mampang Prpt., Kota Jakarta Selatan",PAPUA,12730.0,Indonesia,2171790141.0,,,-6.2638119,106.8158777,https://maps.google.com/?cid=0x0:0xe49807fcfab68b48,
restaurant,Restoran,Restaurant Yougwa,"CJ63+H23, Jl. Raya Abepura - Sentani, Asei Kecil, Kec. Sentani Tim., Kabupaten Jayapura, Papua 99351","Jl. Raya Abepura - Sentani, Asei Kecil, Kec. Sentani Tim., Kabupaten Jayapura",PAPUA,99351.0,Indonesia,8114801448.0,,,-2.5886245,140.602559,https://maps.google.com/?cid=0x0:0x65e60fc66014e79c,
restaurant,Bubur,Rolenda Organic Restaurant,"Jl. Trans Papua,KM-130-Wamena Tengon Jl. Ohoam, Elelim, Distrik Elelim, Kabupaten Yalimo, Papua 99082","Elelim, Distrik Elelim, Kabupaten Yalimo",PAPUA,99082.0,Indonesia,81247068008.0,,,-3.7792593,139.381862,https://maps.google.com/?cid=0x0:0x13f13fd67511f555,
restaurant,Hidangan Laut,B-One Restaurant,"FP45+5CR, Numbai, Distrik Jayapura Selatan, Kota Jayapura, Papua 99222","Numbai, Distrik Jayapura Selatan, Kota Jayapura",PAPUA,99222.0,Indonesia,81344533058.0,,,-2.5445125,140.7085143,https://maps.google.com/?cid=0x0:0xb8053f84d614fc3e,
restaurant,restaurant,Warkop_Narau,"9VQH+GJG, Yetti - Senggi - Mamberamo, Gilika, Benawa, Kabupaten Yalimo, Papua 99364","Yetti - Senggi - Mamberamo, Gilika, Benawa, Kabupaten Yalimo",PAPUA,99364.0,Indonesia,,,,-3.6111917,139.8790904,https://maps.google.com/?cid=0x0:0xe0d1a843adcd27a,
restaurant,restaurant,Kios Malili,"9W27+H2, Tibul, Talambo, Kabupaten Yahukimo, Papua","Kabupaten Yahukimo, Papua",PAPUA,,Indonesia,,,,-3.6485991,139.9125185,https://maps.google.com/?cid=0x0:0xa22757f6c8d6a381,
restaurant,restaurant,"Bengkel, warung, kios kalegowa","7QG3+PX, Gilika, Benawa, Kabupaten Yalimo, Papua","Kabupaten Yalimo, Papua",PAPUA,,Indonesia,,,,-3.723235,139.7549767,https://maps.google.com/?cid=0x0:0xca527300aad9f1f3,
restaurant,Restoran,Kedai BENSHA,"Perum Villa, Jl. Gading Permai Raya No.blok B 4, RW.5, Jabon Mekar, Kec. Parung, Kabupaten Bogor, Jawa Barat 16330","Jl. Gading Permai Raya No.blok B 4, RW.5, Jabon Mekar, Kec. Parung, Kabupaten Bogor",PAPUA,16330.0,Indonesia,8158751549.0,,,-6.4544387,106.7265058,https://maps.google.com/?cid=0x0:0x61f38d1e601f7d56,
restaurant,Kedai Kopi,TSVAYA CAFE  TEAHOUSE,"Rukan Grand Puri Niaga, Ruko, Jl. Puri Kencana No.2K Blok K6, Daerah Khusus Ibukota Jakarta 11610","Ruko, Jl. Puri Kencana No.2K Blok K6",PAPUA,11610.0,Indonesia,81196008222.0,,,-6.1906406,106.7494602,https://maps.google.com/?cid=0x0:0x3b219e7c24e40514,
restaurant,restaurant,Welarek,"Kabupaten Yalimo, Papua","Kabupaten Yalimo, Papua",PAPUA,,Indonesia,,,,-3.9512159,139.5687416,https://maps.google.com/?cid=0x0:0x61fd6182e9d8dc58,
restaurant,Kafe,Umega cafe,"69GJ+2J4, Elelim, Distrik Elelim, Kabupaten Yalimo, Papua 99558","Elelim, Distrik Elelim, Kabupaten Yalimo",PAPUA,99558.0,Indonesia,,,,-3.7749983,139.3815822,https://maps.google.com/?cid=0x0:0x1d57878ccf670700,
restaurant,Kafe,warung makan lumayan,"69HJ+5HV, Unnamed Road, Elelim, Distrik Elelim, Kabupaten Yalimo, Papua 99558","Unnamed Road, Elelim, Distrik Elelim, Kabupaten Yalimo",PAPUA,99558.0,Indonesia,85244955800.0,,,-3.772016,139.381411,https://maps.google.com/?cid=0x0:0xbc4ad3c4c7484ec,
restaurant,Restoran,Elelim Cafe,"Elelim, Distrik Elelim, Kabupaten Yalimo, Papua 99558","Distrik Elelim, Kabupaten Yalimo",PAPUA,99558.0,Indonesia,81240090528.0,,,-3.7700989,139.3833279,https://maps.google.com/?cid=0x0:0xb4f215888727433b,
restaurant,Sushi,Yawara Private Dining,"Jl. Cibitung IV No.32, RT.2/RW.5, Petogogan, Kec. Kby. Baru, Kota Jakarta Selatan, Daerah Khusus Ibukota Jakarta 12170","RT.2/RW.5, Petogogan, Kec. Kby. Baru, Kota Jakarta Selatan",PAPUA,12170.0,Indonesia,2127081323.0,,,-6.2423352,106.8123409,https://maps.google.com/?cid=0x0:0xc3ae62771d65f6c4,
restaurant,Restoran,Restaurant Yougwa,"CJ63+H23, Jl. Raya Abepura - Sentani, Asei Kecil, Kec. Sentani Tim., Kabupaten Jayapura, Papua 99351","Jl. Raya Abepura - Sentani, Asei Kecil, Kec. Sentani Tim., Kabupaten Jayapura",PAPUA,99351.0,Indonesia,8114801448.0,,,-2.5886245,140.602559,https://maps.google.com/?cid=0x0:0x65e60fc66014e79c,
restaurant,Mesin Sangrai Kopi,Alenia Papua Coffee  Kitchen,"Jl. Kemang Raya No.66 B 8, RT.8/RW.2, Bangka, Kec. Mampang Prpt., Kota Jakarta Selatan, Daerah Khusus Ibukota Jakarta 12730","RT.8/RW.2, Bangka, Kec. Mampang Prpt., Kota Jakarta Selatan",PAPUA,12730.0,Indonesia,2171790141.0,,,-6.2638119,106.8158777,https://maps.google.com/?cid=0x0:0xe49807fcfab68b48,
restaurant,Bubur,Rolenda Organic Restaurant,"Jl. Trans Papua,KM-130-Wamena Tengon Jl. Ohoam, Elelim, Distrik Elelim, Kabupaten Yalimo, Papua 99082","Elelim, Distrik Elelim, Kabupaten Yalimo",PAPUA,99082.0,Indonesia,81247068008.0,,,-3.7792593,139.381862,https://maps.google.com/?cid=0x0:0x13f13fd67511f555,
restaurant,Restoran,Love Dessert,"Jaya wijaya, Soline, Soloikma, Yahukimo regency, Papua 99571","Soline, Soloikma, Yahukimo regency",PAPUA,99571.0,Indonesia,,,,-4.35,139.416667,https://maps.google.com/?cid=0x0:0x619291c8fa2b158b,
restaurant,Restoran,So Yummy Resto,"FV3Q+QR9, Kwamki, Kec. Mimika Baru, Kabupaten Mimika, Papua 99971","Kwamki, Kec. Mimika Baru, Kabupaten Mimika",PAPUA,99971.0,Indonesia,81240005760.0,,,-4.5455973,136.8896159,https://maps.google.com/?cid=0x0:0xad18f6a2fb6ee6f8,
restaurant,Ikan Bakar,Resto Jangkar,"Jl. Yos Sudarso, Nawaripi, Kec. Mimika Baru, Kabupaten Mimika, Papua 99971","Nawaripi, Kec. Mimika Baru, Kabupaten Mimika",PAPUA,99971.0,Indonesia,82238302339.0,,,-4.5681968,136.8865993,https://maps.google.com/?cid=0x0:0x73ed65e33721012a,
restaurant,Gudang,Eatwell Culinary Indonesia Head Office (PT Panca Boga Paramita  PT Dapur Solo Mustika Nusantara),"Jl. Panjang No.8 CDE, RT.5/RW.11, Kedoya Utara, Kec. Kb. Jeruk, Daerah Khusus Ibukota Jakarta 11520","RT.5/RW.11, Kedoya Utara, Kec. Kb. Jeruk",PAPUA,11520.0,Indonesia,,,,-6.1718412,106.7657525,https://maps.google.com/?cid=0x0:0xcec323760058bca5,
restaurant,Rumah Makan,RestoCafe Rumah Laut,"Jl. Koti, Numbai, Distrik Jayapura Selatan, Kota Jayapura, Papua 99222","Numbai, Distrik Jayapura Selatan, Kota Jayapura",PAPUA,99222.0,Indonesia,9675160842.0,,,-2.5443152,140.7078561,https://maps.google.com/?cid=0x0:0xa0b850e17d17f09d,
restaurant,Restoran,Cristho Resto,"Jl. Raya Sentani - Waena, Asei Kecil, Kec. Sentani Tim., Kabupaten Jayapura, Papua 99351","Asei Kecil, Kec. Sentani Tim., Kabupaten Jayapura",PAPUA,99351.0,Indonesia,82248269002.0,,,-2.5885674,140.5954984,https://maps.google.com/?cid=0x0:0xe37fe4d7ad0bc892,
restaurant,restaurant,Warung Makan Palopo,"Jln. Pirip (Trans Jayapura-Wamena, Elelim, Distrik Elelim, Kabupaten Yalimo, Papua 99584","Elelim, Distrik Elelim, Kabupaten Yalimo",PAPUA,99584.0,Indonesia,,,,-3.7646549,139.3879892,https://maps.google.com/?cid=0x0:0x53d4d21efc1f1fd5,
restaurant,Restoran,Restoran Pinang Sirih,"F9WW+QV2, Jl. Sesate, Bambu Pemali, Kec. Merauke, Kabupaten Merauke, Papua 99614","Jl. Sesate, Bambu Pemali, Kec. Merauke, Kabupaten Merauke",PAPUA,99614.0,Indonesia,82132128881.0,,,-8.5030737,140.3966377,https://maps.google.com/?cid=0x0:0x7c98c0bee5496ce9,
restaurant,Kafe,Warung makan Afrizal,"69QQ+C8J, Elelim, Distrik Elelim, Kabupaten Yalimo, Papua","Kabupaten Yalimo, Papua",PAPUA,,Indonesia,,,,-3.7602085,139.3892694,https://maps.google.com/?cid=0x0:0xfdb8154eb88dffc9,
restaurant,restaurant,Warung Makan Marlin Padakita,"Jl. Trans Papua No.km 130, Yabema, Distrik Elelim, Kabupaten Yalimo, Papua 99559","Yabema, Distrik Elelim, Kabupaten Yalimo",PAPUA,99559.0,Indonesia,,,,-3.8146762,139.4059435,https://maps.google.com/?cid=0x0:0x4446c08fdc588f8f,
restaurant,restaurant,Septy kelupa,"69PJ+6R7, Elelim, Distrik Elelim, Kabupaten Yalimo, Papua 99558","Elelim, Distrik Elelim, Kabupaten Yalimo",PAPUA,99558.0,Indonesia,,,,-3.7644707,139.3820539,https://maps.google.com/?cid=0x0:0x41158eac2a849f6e,
restaurant,restaurant,Warung makan solata,"69GJ+WH, Elelim, Distrik Elelim, Kabupaten Yalimo, Papua","Kabupaten Yalimo, Papua",PAPUA,,Indonesia,,,,-3.7737792,139.3814595,https://maps.google.com/?cid=0x0:0xe03dd40b478f776f,
cafe,Restoran,Elelim Cafe,"Elelim, Distrik Elelim, Kabupaten Yalimo, Papua 99558","Distrik Elelim, Kabupaten Yalimo",PAPUA,99558.0,Indonesia,81240090528.0,,,-3.7700989,139.3833279,https://maps.google.com/?cid=0x0:0xb4f215888727433b,
cafe,Kafe,warung makan lumayan,"69HJ+5HV, Unnamed Road, Elelim, Distrik Elelim, Kabupaten Yalimo, Papua 99558","Unnamed Road, Elelim, Distrik Elelim, Kabupaten Yalimo",PAPUA,99558.0,Indonesia,85244955800.0,,,-3.772016,139.381411,https://maps.google.com/?cid=0x0:0xbc4ad3c4c7484ec,
cafe,cafe,Apalapsili,"Kabupaten Yalimo, Papua","Kabupaten Yalimo, Papua",PAPUA,,Indonesia,,,,-3.9198211,139.3044253,https://maps.google.com/?cid=0x0:0x3797ff34c521ba5e,
cafe,Mesin Sangrai Kopi,Alenia Papua Coffee  Kitchen,"Jl. Kemang Raya No.66 B 8, RT.8/RW.2, Bangka, Kec. Mampang Prpt., Kota Jakarta Selatan, Daerah Khusus Ibukota Jakarta 12730","RT.8/RW.2, Bangka, Kec. Mampang Prpt., Kota Jakarta Selatan",PAPUA,12730.0,Indonesia,2171790141.0,,,-6.2638119,106.8158777,https://maps.google.com/?cid=0x0:0xe49807fcfab68b48,
cafe,Kafe,PILÃS COFFEE  TEA,"Sentani Kota, Kec. Sentani, Kabupaten Jayapura, Papua 99359","Kec. Sentani, Kabupaten Jayapura",PAPUA,99359.0,Indonesia,82198099060.0,,,-2.5654578,140.5110624,https://maps.google.com/?cid=0x0:0x20dd8819ef5fd6be,
cafe,cafe,Warung Makan Marlin Padakita,"Jl. Trans Papua No.km 130, Yabema, Distrik Elelim, Kabupaten Yalimo, Papua 99559","Yabema, Distrik Elelim, Kabupaten Yalimo",PAPUA,99559.0,Indonesia,,,,-3.8146762,139.4059435,https://maps.google.com/?cid=0x0:0x4446c08fdc588f8f,
cafe,cafe,Lakius Peyon coffe,"6CH3+FFG, Honita, Distrik Elelim, Kabupaten Yalimo, Papua 99558","Honita, Distrik Elelim, Kabupaten Yalimo",PAPUA,99558.0,Indonesia,,,,-3.7713213,139.4037064,https://maps.google.com/?cid=0x0:0x78b628e1138ff835,
cafe,Kafe,ALLEGROCAFE,"Kompleks ruko origin, Jl. Raya Doyo Baru No.9-10, Doyo Baru, Distrik Waibu, Kabupaten Jayapura, Papua 99352","Jl. Raya Doyo Baru No.9-10, Doyo Baru, Distrik Waibu, Kabupaten Jayapura",PAPUA,99352.0,Indonesia,81296930730.0,,,-2.5408804,140.46723,https://maps.google.com/?cid=0x0:0xbb9924c5b91a6a0a,
cafe,Kafe,Umega cafe,"69GJ+2J4, Elelim, Distrik Elelim, Kabupaten Yalimo, Papua 99558","Elelim, Distrik Elelim, Kabupaten Yalimo",PAPUA,99558.0,Indonesia,,,,-3.7749983,139.3815822,https://maps.google.com/?cid=0x0:0x1d57878ccf670700,
cafe,cafe,Kec. Abenaho,"Kabupaten Yalimo, Papua","Kabupaten Yalimo, Papua",PAPUA,,Indonesia,,,,-3.8213302,139.1722643,https://maps.google.com/?cid=0x0:0x4219dcbaae7dba95,
cafe,Mesin Sangrai Kopi,Alenia Papua Coffee  Kitchen,"Jl. Kemang Raya No.66 B 8, RT.8/RW.2, Bangka, Kec. Mampang Prpt., Kota Jakarta Selatan, Daerah Khusus Ibukota Jakarta 12730","RT.8/RW.2, Bangka, Kec. Mampang Prpt., Kota Jakarta Selatan",PAPUA,12730.0,Indonesia,2171790141.0,,,-6.2638119,106.8158777,https://maps.google.com/?cid=0x0:0xe49807fcfab68b48,
cafe,Kafe,warung makan lumayan,"69HJ+5HV, Unnamed Road, Elelim, Distrik Elelim, Kabupaten Yalimo, Papua 99558","Unnamed Road, Elelim, Distrik Elelim, Kabupaten Yalimo",PAPUA,99558.0,Indonesia,85244955800.0,,,-3.772016,139.381411,https://maps.google.com/?cid=0x0:0xbc4ad3c4c7484ec,
cafe,Kedai Kopi,Kafe Bejo A95,"2/Yuwanain, Yuwanaim, Kec. Arso, Kabupaten Keerom, Papua 99468","Yuwanaim, Kec. Arso, Kabupaten Keerom",PAPUA,99468.0,Indonesia,82199114114.0,,,-2.90661,140.7513931,https://maps.google.com/?cid=0x0:0x8476fd6425654b61,
cafe,Kafe,D' IFA 88 CAFE,"Arso 2 kampung yuanain jln maleo2, Kabupaten Keerom, Papua 99368",Kabupaten Keerom,PAPUA,99368.0,Indonesia,82349588121.0,,,-2.8997741,140.7587958,https://maps.google.com/?cid=0x0:0xf31b4f7f22191f5e,
cafe,Kedai Kopi,Enauto Coffee Papua,"Jl. Sudirman, Bukit Meriam, Samping Jl. PDAM No.70F, Karang Mulia, Nabire Regency, Papua 98815","Bukit Meriam, Samping Jl. PDAM No.70F, Karang Mulia, Nabire Regency",PAPUA,98815.0,Indonesia,82187015600.0,,,-3.3732958,135.5020802,https://maps.google.com/?cid=0x0:0x9e65249c3b29dc0e,
cafe,Kedai Kopi,Eden Cafe and Resto,"JGC6+FC5, Jl. A Gobay, Kali Harapan, Distrik Nabire, Kabupaten Nabire, Papua 98811","Jl. A Gobay, Kali Harapan, Distrik Nabire, Kabupaten Nabire",PAPUA,98811.0,Indonesia,81261647390.0,,,-3.3788633,135.5111031,https://maps.google.com/?cid=0x0:0x116ed17fdf1f5209,
cafe,cafe,Warkop Pricia  Blackbox Barbershop,"69JM+3C5, Elelim, Distrik Elelim, Kabupaten Yalimo, Papua 99558","Elelim, Distrik Elelim, Kabupaten Yalimo",PAPUA,99558.0,Indonesia,81280644306.0,,,-3.7698723,139.3836133,https://maps.google.com/?cid=0x0:0x176e588b2c546517,
cafe,Kedai Kopi,Bina Tani. CV,"JL. Yos Sudarso, No. 45, Wamena, Mulima, Kec. Kurulu, Kabupaten Jayawijaya, Papua 99511","No. 45, Wamena, Mulima, Kec. Kurulu, Kabupaten Jayawijaya",PAPUA,99511.0,Indonesia,81344804750.0,,,-4.00126,138.966064,https://maps.google.com/?cid=0x0:0xebeaaa810720af8a,
cafe,Bubur,Rolenda Organic Restaurant,"Jl. Trans Papua,KM-130-Wamena Tengon Jl. Ohoam, Elelim, Distrik Elelim, Kabupaten Yalimo, Papua 99082","Elelim, Distrik Elelim, Kabupaten Yalimo",PAPUA,99082.0,Indonesia,81247068008.0,,,-3.7792593,139.381862,https://maps.google.com/?cid=0x0:0x13f13fd67511f555,
cafe,cafe,Benawa,"Kabupaten Yalimo, Papua","Kabupaten Yalimo, Papua",PAPUA,,Indonesia,,,,-3.6675868,139.609512,https://maps.google.com/?cid=0x0:0xd6131a7bad4f76ca,
cafe,cafe,Kios Yaung,"Mamberamu situ naira, Trikora, Benawa, Kabupaten Yalimo, Papua","Kabupaten Yalimo, Papua",PAPUA,,Indonesia,81247781323.0,,,-3.6081581,139.8670634,https://maps.google.com/?cid=0x0:0xedc5f6fd040b7845,
cafe,cafe,Warkop_Narau,"9VQH+GJG, Yetti - Senggi - Mamberamo, Gilika, Benawa, Kabupaten Yalimo, Papua 99364","Yetti - Senggi - Mamberamo, Gilika, Benawa, Kabupaten Yalimo",PAPUA,99364.0,Indonesia,,,,-3.6111917,139.8790904,https://maps.google.com/?cid=0x0:0xe0d1a843adcd27a,
cafe,Kafe,Waanal Coffee And Resto,"Jl. Cendrawasih, Karang Senang, Kec. Kuala Kencana, Kabupaten Mimika, Papua 99910","Karang Senang, Kec. Kuala Kencana, Kabupaten Mimika",PAPUA,99910.0,Indonesia,81248677897.0,,,-4.4916566,136.8474106,https://maps.google.com/?cid=0x0:0xe6f6936c8a14d771,
cafe,Kafe,Umega cafe,"69GJ+2J4, Elelim, Distrik Elelim, Kabupaten Yalimo, Papua 99558","Elelim, Distrik Elelim, Kabupaten Yalimo",PAPUA,99558.0,Indonesia,,,,-3.7749983,139.3815822,https://maps.google.com/?cid=0x0:0x1d57878ccf670700,
cafe,Restoran,Elelim Cafe,"Elelim, Distrik Elelim, Kabupaten Yalimo, Papua 99558","Distrik Elelim, Kabupaten Yalimo",PAPUA,99558.0,Indonesia,81240090528.0,,,-3.7700989,139.3833279,https://maps.google.com/?cid=0x0:0xb4f215888727433b,
cafe,Kafe,cafe bakau holtekam kota jayapura,"9PRF+58, Nafri, Kec. Abepura, Kota Jayapura, Papua","Kota Jayapura, Papua",PAPUA,,Indonesia,8124022007.0,,,-2.6095335,140.7232587,https://maps.google.com/?cid=0x0:0x440c4543fd3a011e,
cafe,cafe,WASALMA CAFFE65,"Jl.trans Wamena -jayapura No.km 65, Lulum, Talambo, Dosumo, Papua 99085","Lulum, Talambo, Dosumo",PAPUA,99085.0,Indonesia,81340047467.0,,,-3.6974746,140.0015642,https://maps.google.com/?cid=0x0:0x7cb1549015dd2b58,
cafe,Kafe,warung makan lumayan,"69HJ+5HV, Unnamed Road, Elelim, Distrik Elelim, Kabupaten Yalimo, Papua 99558","Unnamed Road, Elelim, Distrik Elelim, Kabupaten Yalimo",PAPUA,99558.0,Indonesia,85244955800.0,,,-3.772016,139.381411,https://maps.google.com/?cid=0x0:0xbc4ad3c4c7484ec,
cafe,Toko Roti,Flavouw Cafe  Buddy Burger,"CGPC+2C2, Jl. Ifar Gn., Sentani Kota, Kec. Sentani, Kabupaten Jayapura, Papua 99359","Jl. Ifar Gn., Sentani Kota, Kec. Sentani, Kabupaten Jayapura",PAPUA,99359.0,Indonesia,81240364286.0,,,-2.5649762,140.5210037,https://maps.google.com/?cid=0x0:0x74b52879855faad0,
cafe,Restoran,Yasbeer Cafe dan resto,"Engros, Kec. Abepura, Kota Jayapura, Papua","Kota Jayapura, Papua",PAPUA,,Indonesia,81248941111.0,,,-2.6005334,140.7153915,https://maps.google.com/?cid=0x0:0x34cbd734e60fa36b,
cafe,cafe,VENCO.ID (Venue Coffee),"Holtekam, Jl. Tobati-Holtekamp, Kota Jayapura, Papua","Kota Jayapura, Papua",PAPUA,,Indonesia,,,,-2.6083207,140.7207442,https://maps.google.com/?cid=0x0:0xc2f42675b1ffa716,
cafe,cafe,Kios Malili,"9W27+H2, Tibul, Talambo, Kabupaten Yahukimo, Papua","Kabupaten Yahukimo, Papua",PAPUA,,Indonesia,,,,-3.6485991,139.9125185,https://maps.google.com/?cid=0x0:0xa22757f6c8d6a381,
cafe,Kedai Kopi,TERU,"Jl. Barito I No.19, RT.4/RW.1, Kramat Pela, Kec. Kby. Baru, Kota Jakarta Selatan, Daerah Khusus Ibukota Jakarta 12130","RT.4/RW.1, Kramat Pela, Kec. Kby. Baru, Kota Jakarta Selatan",PAPUA,12130.0,Indonesia,81291004266.0,,,-6.2437594,106.7933397,https://maps.google.com/?cid=0x0:0xafcdf022dcc55410,
cafe,Kafe,CAFE BENRA,"Batusari, Kec. Batuceper, Kota Tangerang, Banten","Kota Tangerang, Banten",PAPUA,,Indonesia,,,,-6.1638317,106.6563792,https://maps.google.com/?cid=0x0:0xd63b29f0547f45d6,
cafe,Kafe,Kopi Benawan,"Masjid Baitur Rahman, Jl. Dr. Saharjo Gg. Gg. No.12 C, RT.9/RW.5, Menteng Dalam, Kec. Tebet, Kota Jakarta Selatan, Daerah Khusus Ibukota Jakarta 12960","Jl. Dr. Saharjo Gg. Gg. No.12 C, RT.9/RW.5, Menteng Dalam, Kec. Tebet, Kota Jakarta Selatan",PAPUA,12960.0,Indonesia,87722522506.0,,,-6.2223101,106.8465077,https://maps.google.com/?cid=0x0:0xb0b063fb4794ad92,
cafe,Kedai Kopi,Warben Cafe,"jl. koja II kp. kebantenan rt. 02/012 no. 43, RT.001/RW.001, Jatiasih, Kec. Jatiasih, Kota Bks, Jawa Barat 17423","RT.001/RW.001, Jatiasih, Kec. Jatiasih, Kota Bks",PAPUA,17423.0,Indonesia,89633019456.0,,,-6.312492,106.9592142,https://maps.google.com/?cid=0x0:0x8fd0c9bf81b7c4f0,
cafe,Kafe,Cafe Bang Bew,"Jl. Duku Raya No.42 15, RT.14/RW.6, Kby. Lama Utara, Kec. Kby. Lama, Kota Jakarta Selatan, Daerah Khusus Ibukota Jakarta 12240","RT.14/RW.6, Kby. Lama Utara, Kec. Kby. Lama, Kota Jakarta Selatan",PAPUA,12240.0,Indonesia,,,,-6.2466616,106.7823773,https://maps.google.com/?cid=0x0:0x6a813b49e84e36c7,
cafe,Kedai Kopi,Bersenyawa Coffee by KEBONKITA | Cafe  Coffee Shop di Pamulang,"Ruko Pamulang Permai Blok SH6 No.6, West Pamulang, South Tangerang City, Banten 15417","West Pamulang, South Tangerang City",PAPUA,15417.0,Indonesia,81112000296.0,,,-6.3437621,106.735168,https://maps.google.com/?cid=0x0:0x75d9f95463ee88df,
cafe,Kedai Kopi,TSVAYA CAFE  TEAHOUSE,"Rukan Grand Puri Niaga, Ruko, Jl. Puri Kencana No.2K Blok K6, Daerah Khusus Ibukota Jakarta 11610","Ruko, Jl. Puri Kencana No.2K Blok K6",PAPUA,11610.0,Indonesia,81196008222.0,,,-6.1906406,106.7494602,https://maps.google.com/?cid=0x0:0x3b219e7c24e40514,
cafe,cafe,Welarek,"Kabupaten Yalimo, Papua","Kabupaten Yalimo, Papua",PAPUA,,Indonesia,,,,-3.9512159,139.5687416,https://maps.google.com/?cid=0x0:0x61fd6182e9d8dc58,
cafe,Restoran,Elelim Cafe,"Elelim, Distrik Elelim, Kabupaten Yalimo, Papua 99558","Distrik Elelim, Kabupaten Yalimo",PAPUA,99558.0,Indonesia,81240090528.0,,,-3.7700989,139.3833279,https://maps.google.com/?cid=0x0:0xb4f215888727433b,
cafe,Kafe,Umega cafe,"69GJ+2J4, Elelim, Distrik Elelim, Kabupaten Yalimo, Papua 99558","Elelim, Distrik Elelim, Kabupaten Yalimo",PAPUA,99558.0,Indonesia,,,,-3.7749983,139.3815822,https://maps.google.com/?cid=0x0:0x1d57878ccf670700,
cafe,Kafe,warung makan lumayan,"69HJ+5HV, Unnamed Road, Elelim, Distrik Elelim, Kabupaten Yalimo, Papua 99558","Unnamed Road, Elelim, Distrik Elelim, Kabupaten Yalimo",PAPUA,99558.0,Indonesia,85244955800.0,,,-3.772016,139.381411,https://maps.google.com/?cid=0x0:0xbc4ad3c4c7484ec,
cafe,Kedai Kopi,Sinilagi - Food and Coffee,"Ruko Puri Kencana. Jalan Puri Kencana Blok K7/3U, RT.11/RW.7, Kembangan Sel., Kec. Kembangan, Kota Jakarta Barat, Daerah Khusus Ibukota Jakarta 11610","RT.11/RW.7, Kembangan Sel., Kec. Kembangan, Kota Jakarta Barat",PAPUA,11610.0,Indonesia,,,,-6.1907131,106.7477643,https://maps.google.com/?cid=0x0:0x542750392acff889,
cafe,cafe,Warkop Pricia  Blackbox Barbershop,"69JM+3C5, Elelim, Distrik Elelim, Kabupaten Yalimo, Papua 99558","Elelim, Distrik Elelim, Kabupaten Yalimo",PAPUA,99558.0,Indonesia,81280644306.0,,,-3.7698723,139.3836133,https://maps.google.com/?cid=0x0:0x176e588b2c546517,
cafe,Restoran,Yasbeer Cafe dan resto,"Engros, Kec. Abepura, Kota Jayapura, Papua","Kota Jayapura, Papua",PAPUA,,Indonesia,81248941111.0,,,-2.6005334,140.7153915,https://maps.google.com/?cid=0x0:0x34cbd734e60fa36b,
cafe,Restoran,Rm Telago Biru,"69JM+55F, Unnamed Road, Elelim, Distrik Elelim, Kabupaten Yalimo, Papua 99558","Unnamed Road, Elelim, Distrik Elelim, Kabupaten Yalimo",PAPUA,99558.0,Indonesia,85211887759.0,,,-3.7695505,139.3829323,https://maps.google.com/?cid=0x0:0x3dfa9d5b02f381e0,
cafe,Restoran,Pit's Corner ( Papua Specialty Coffee ),"Jalan kasuari no.2 Dok V Atas, Mandala, Jayapura Utara, Jayapura City, Papua 99114","Mandala, Jayapura Utara, Jayapura City",PAPUA,99114.0,Indonesia,9675160443.0,,,-2.5310642,140.71875,https://maps.google.com/?cid=0x0:0xf39f3950a3bf5ed2,
cafe,Restoran,Love Dessert,"Jaya wijaya, Soline, Soloikma, Yahukimo regency, Papua 99571","Soline, Soloikma, Yahukimo regency",PAPUA,99571.0,Indonesia,,,,-4.35,139.416667,https://maps.google.com/?cid=0x0:0x619291c8fa2b158b,
cafe,Toko Roti,Flavouw Cafe  Buddy Burger,"CGPC+2C2, Jl. Ifar Gn., Sentani Kota, Kec. Sentani, Kabupaten Jayapura, Papua 99359","Jl. Ifar Gn., Sentani Kota, Kec. Sentani, Kabupaten Jayapura",PAPUA,99359.0,Indonesia,81240364286.0,,,-2.5649762,140.5210037,https://maps.google.com/?cid=0x0:0x74b52879855faad0,
cafe,Bubur,Rolenda Organic Restaurant,"Jl. Trans Papua,KM-130-Wamena Tengon Jl. Ohoam, Elelim, Distrik Elelim, Kabupaten Yalimo, Papua 99082","Elelim, Distrik Elelim, Kabupaten Yalimo",PAPUA,99082.0,Indonesia,81247068008.0,,,-3.7792593,139.381862,https://maps.google.com/?cid=0x0:0x13f13fd67511f555,
cafe,Ikan Bakar,D'Jimbaran Papua,"9PX8+3VF, Engros, Kec. Abepura, Kota Jayapura, Papua","Kota Jayapura, Papua",PAPUA,,Indonesia,,,,-2.6020736,140.7168784,https://maps.google.com/?cid=0x0:0xb6125c5e0138c416,
cafe,Kafe,Warung makan Afrizal,"69QQ+C8J, Elelim, Distrik Elelim, Kabupaten Yalimo, Papua","Kabupaten Yalimo, Papua",PAPUA,,Indonesia,,,,-3.7602085,139.3892694,https://maps.google.com/?cid=0x0:0xfdb8154eb88dffc9,
cafe,Grosir Kopi,Papua Coffee,"Perum Taman Buper Bhayangkara B 3/1, Kp. Waena, Kec. Heram, Kota Jayapura, Papua 99358","Kp. Waena, Kec. Heram, Kota Jayapura",PAPUA,99358.0,Indonesia,82219192019.0,,,-2.5932318,140.6339916,https://maps.google.com/?cid=0x0:0x6525ad08e3ef5a95,
