Category,Real Category,Business Name,Address,City,State,Postal Code,Country,Phone,Latitude,Longitude,Map Link
mall,mall,Papua 98111,"Kabupaten Biak Numfor, Papua","Kabupaten Biak Numfor, Papua",PAPUA,,Indonesia,,-11.761.491,1.360.897.124,https://maps.google.com/?cid=0x0:0x2a08da43231bb9ff
mall,Toko bahan makanan,Toko Artha Graha,"R3JQ+695, Samofa, Kec. Samofa, Kabupaten Biak Numfor, Papua 98111","Samofa, Kec. Samofa, Kabupaten Biak Numfor",PAPUA,98111.0,Indonesia,,-11.694.963,1.360.884.802,https://maps.google.com/?cid=0x0:0xa99a632e5780c18f
mall,Pusat Perbelanjaan,Toko anugrah jaya,"R38J+X9V, Fandoi, Kec. Biak Kota, Kabupaten Biak Numfor, Papua 98111","Fandoi, Kec. Biak Kota, Kabupaten Biak Numfor",PAPUA,98111.0,Indonesia,,-11.825.121,1.360.809.158,https://maps.google.com/?cid=0x0:0x8d53d7a7c2317684
mall,Kantor Pengawas,Mall Pelayanan Publik Kab Biak Numfor,"R3CM+777, Fandoi, Kec. Biak Kota, Kabupaten Biak Numfor, Papua 98111","Fandoi, Kec. Biak Kota, Kabupaten Biak Numfor",PAPUA,98111.0,Indonesia,,-11.793.236,1.360.831.777,https://maps.google.com/?cid=0x0:0xfe36b2b46bcd9403
mall,Toko Herbal,Juliati (Agen VARASH),"R38M+P63, Jl. Selat Madura, Fandoi, Kec. Biak Kota, Kabupaten Biak Numfor, Papua 98111","Jl. Selat Madura, Fandoi, Kec. Biak Kota, Kabupaten Biak Numfor",PAPUA,98111.0,Indonesia,82399702828.0,-11.832.497,1.360.830.346,https://maps.google.com/?cid=0x0:0x1b34bdc598b6a472
mall,Pasar,Dermaga Pasar Ikan Biak,"R37J+JHF, Jl. Imam Bonjol, Kabupaten Biak Numfor, Papua 98111","Jl. Imam Bonjol, Kabupaten Biak Numfor",PAPUA,98111.0,Indonesia,,-11.859.308,1.360.814.362,https://maps.google.com/?cid=0x0:0xbebd23ff4c4fa872
mall,Toko Swalayan,Jusma 2,"R3GF+438, Samofa, Kec. Samofa, Kabupaten Biak Numfor, Papua 98112","Samofa, Kec. Samofa, Kabupaten Biak Numfor",PAPUA,98112.0,Indonesia,,-11.747.246,1.360.727.098,https://maps.google.com/?cid=0x0:0x6b9c78e935ec848d
mall,Pusat Perbelanjaan,Pasar Inpres Biak Numfor,"Burokub, Kec. Biak Kota, Kabupaten Biak Numfor, Papua 98111","Kec. Biak Kota, Kabupaten Biak Numfor",PAPUA,98111.0,Indonesia,81341418979.0,-11.790.387,1.360.767.221,https://maps.google.com/?cid=0x0:0xeec55fd5f0273f35
mall,Toko Swalayan,Hadi Supermarket  Dept. Store,"Jl. Imam Bonjol No.56, Fandoi, Kec. Biak Kota, Kabupaten Biak Numfor, Papua 98111","Fandoi, Kec. Biak Kota, Kabupaten Biak Numfor",PAPUA,98111.0,Indonesia,,-11.800.003,1.360.824.788,https://maps.google.com/?cid=0x0:0xdcad74b4384219ee
mall,Pusat Perbelanjaan,Kompleks Penjualan Pakaian Dan Accesories,"R39J+9XR, Fandoi, Kec. Biak Kota, Kabupaten Biak Numfor, Papua 98111","Fandoi, Kec. Biak Kota, Kabupaten Biak Numfor",PAPUA,98111.0,Indonesia,,-11.815.195,1.360.823.911,https://maps.google.com/?cid=0x0:0x715d172294ab9651
mall,Toko bahan makanan,Toko Mambri Jaya Jalur 2,"R3FR+3F4, Jl. Majapahit, Karang Mulia, Kec. Samofa, Kabupaten Biak Numfor, Papua 98111","Jl. Majapahit, Karang Mulia, Kec. Samofa, Kabupaten Biak Numfor",PAPUA,98111.0,Indonesia,8114801993.0,-11.773.586,1.360.911.977,https://maps.google.com/?cid=0x0:0xaa32664a3a388b2c
mall,Toko,MR.DIY Ruko Raya Bosnik Ambroben (XBRB),"Jl. Raya Bosnik, Ambroben, Kec. Biak Kota, Kabupaten Biak Numfor, Papua 98118","Ambroben, Kec. Biak Kota, Kabupaten Biak Numfor",PAPUA,98118.0,Indonesia,,-11.817.149,1.361.050.262,https://maps.google.com/?cid=0x0:0x5b28e9cb1f6d7c9a
mall,Minimarket,"Sadewa Online Shop""""","R3MP+4FX, Samofa, Kec. Samofa, Kabupaten Biak Numfor, Papua 98111","Samofa, Kec. Samofa, Kabupaten Biak Numfor",PAPUA,98111.0,Indonesia,81248540582.0,-1.167.145,136.086.244,https://maps.google.com/?cid=0x0:0x3c4d1ba2b6b8bb67
mall,Pusat Perbelanjaan,Kios UFTI JAYA,"R3FH+74Q, Jl. Sisingamangaraja, Samofa, Kec. Samofa, Kabupaten Biak Numfor, Papua 98111","Jl. Sisingamangaraja, Samofa, Kec. Samofa, Kabupaten Biak Numfor",PAPUA,98111.0,Indonesia,85254815597.0,-11.767.804,1.360.778.706,https://maps.google.com/?cid=0x0:0x6294a30713246201
mall,mall,Papua 98112,"Kabupaten Biak Numfor, Papua","Kabupaten Biak Numfor, Papua",PAPUA,,Indonesia,,-11.704.798,136.068.244,https://maps.google.com/?cid=0x0:0x36b6ebf6f8a4c3c6
mall,Kantor Pemerintah,Pertokoan Buton Lanal Biak,"R3GC+6FJ, Jl. Sisingamangaraja, Waupnor, Kec. Samofa, Kabupaten Biak Numfor, Papua","Kabupaten Biak Numfor, Papua",PAPUA,,Indonesia,,-11.744.189,1.360.711.271,https://maps.google.com/?cid=0x0:0xa666c025568b14c3
mall,Toko Swalayan,Jusma 2,"R3GF+438, Samofa, Kec. Samofa, Kabupaten Biak Numfor, Papua 98112","Samofa, Kec. Samofa, Kabupaten Biak Numfor",PAPUA,98112.0,Indonesia,,-11.747.246,1.360.727.098,https://maps.google.com/?cid=0x0:0x6b9c78e935ec848d
mall,Kantor Pengawas,Mall Pelayanan Publik Kab Biak Numfor,"R3CM+777, Fandoi, Kec. Biak Kota, Kabupaten Biak Numfor, Papua 98111","Fandoi, Kec. Biak Kota, Kabupaten Biak Numfor",PAPUA,98111.0,Indonesia,,-11.793.236,1.360.831.777,https://maps.google.com/?cid=0x0:0xfe36b2b46bcd9403
mall,Pusat Perbelanjaan,KIOS FAJAR,"Jl. Sisingamangaraja, Samofa, Kec. Biak Kota, Kabupaten Biak Numfor, Papua 98112","Samofa, Kec. Biak Kota, Kabupaten Biak Numfor",PAPUA,98112.0,Indonesia,81234444452.0,-11.707.648,1.360.670.071,https://maps.google.com/?cid=0x0:0x10097e23b25dd352
mall,Pasar,Dermaga Pasar Ikan Biak,"R37J+JHF, Jl. Imam Bonjol, Kabupaten Biak Numfor, Papua 98111","Jl. Imam Bonjol, Kabupaten Biak Numfor",PAPUA,98111.0,Indonesia,,-11.859.308,1.360.814.362,https://maps.google.com/?cid=0x0:0xbebd23ff4c4fa872
mall,Toko Swalayan,Hadi Supermarket  Dept. Store,"Jl. Imam Bonjol No.56, Fandoi, Kec. Biak Kota, Kabupaten Biak Numfor, Papua 98111","Fandoi, Kec. Biak Kota, Kabupaten Biak Numfor",PAPUA,98111.0,Indonesia,,-11.800.003,1.360.824.788,https://maps.google.com/?cid=0x0:0xdcad74b4384219ee
mall,Pusat Perbelanjaan,@abyyushopbiak_,"R39P+22P, Jl. Pramuka, Fandoi, Kec. Biak Kota, Kabupaten Biak Numfor, Papua 98111","Jl. Pramuka, Fandoi, Kec. Biak Kota, Kabupaten Biak Numfor",PAPUA,98111.0,Indonesia,82198344580.0,-11.824.023,1.360.850.902,https://maps.google.com/?cid=0x0:0x6a7eeaf2ab642b68
mall,Toko umum,Cahaya nuriah Gordyn,"R3P8+9W4, Jl. Condronegoro, Samofa, Kec. Samofa, Kabupaten Biak Numfor, Papua 98112","Jl. Condronegoro, Samofa, Kec. Samofa, Kabupaten Biak Numfor",PAPUA,98112.0,Indonesia,81240114554.0,-11.641.072,1.360.673.153,https://maps.google.com/?cid=0x0:0x7505a4775cde815c
mall,Toko umum,Toko Agape Yafdas,"SD YPK V, Jl. Yafdas No.depan, Yafdas, Samofa, Biak Numfor Regency, Papua 98112","Jl. Yafdas No.depan, Yafdas, Samofa, Biak Numfor Regency",PAPUA,98112.0,Indonesia,81354151818.0,-11.534.604,1.360.706.731,https://maps.google.com/?cid=0x0:0x7e3536fa9b817750
mall,Pusat Perbelanjaan,Kompleks Penjualan Pakaian Dan Accesories,"R39J+9XR, Fandoi, Kec. Biak Kota, Kabupaten Biak Numfor, Papua 98111","Fandoi, Kec. Biak Kota, Kabupaten Biak Numfor",PAPUA,98111.0,Indonesia,,-11.815.195,1.360.823.911,https://maps.google.com/?cid=0x0:0x715d172294ab9651
mall,Pusat Perbelanjaan,Kios UFTI JAYA,"R3FH+74Q, Jl. Sisingamangaraja, Samofa, Kec. Samofa, Kabupaten Biak Numfor, Papua 98111","Jl. Sisingamangaraja, Samofa, Kec. Samofa, Kabupaten Biak Numfor",PAPUA,98111.0,Indonesia,85254815597.0,-11.767.804,1.360.778.706,https://maps.google.com/?cid=0x0:0x6294a30713246201
mall,Toko,Griya Cantik Samofa,"Samofa, Kec. Samofa, Kabupaten Biak Numfor, Papua 98112","Kec. Samofa, Kabupaten Biak Numfor",PAPUA,98112.0,Indonesia,81334548909.0,-11.700.357,1.360.689.109,https://maps.google.com/?cid=0x0:0xeac39446aa5d8823
mall,Toko Herbal,Juliati (Agen VARASH),"R38M+P63, Jl. Selat Madura, Fandoi, Kec. Biak Kota, Kabupaten Biak Numfor, Papua 98111","Jl. Selat Madura, Fandoi, Kec. Biak Kota, Kabupaten Biak Numfor",PAPUA,98111.0,Indonesia,82399702828.0,-11.832.497,1.360.830.346,https://maps.google.com/?cid=0x0:0x1b34bdc598b6a472
mall,mall,Papua 98113,"Kabupaten Biak Numfor, Papua","Kabupaten Biak Numfor, Papua",PAPUA,,Indonesia,,-115.291,1.360.634.745,https://maps.google.com/?cid=0x0:0xb1fa8f2f87b90209
mall,Kantor Pengawas,Mall Pelayanan Publik Kab Biak Numfor,"R3CM+777, Fandoi, Kec. Biak Kota, Kabupaten Biak Numfor, Papua 98111","Fandoi, Kec. Biak Kota, Kabupaten Biak Numfor",PAPUA,98111.0,Indonesia,,-11.793.236,1.360.831.777,https://maps.google.com/?cid=0x0:0xfe36b2b46bcd9403
mall,Toko Swalayan,Jusma 2,"R3GF+438, Samofa, Kec. Samofa, Kabupaten Biak Numfor, Papua 98112","Samofa, Kec. Samofa, Kabupaten Biak Numfor",PAPUA,98112.0,Indonesia,,-11.747.246,1.360.727.098,https://maps.google.com/?cid=0x0:0x6b9c78e935ec848d
mall,Kantor Pemerintah,Pertokoan Buton Lanal Biak,"R3GC+6FJ, Jl. Sisingamangaraja, Waupnor, Kec. Samofa, Kabupaten Biak Numfor, Papua","Kabupaten Biak Numfor, Papua",PAPUA,,Indonesia,,-11.744.189,1.360.711.271,https://maps.google.com/?cid=0x0:0xa666c025568b14c3
mall,Toko Swalayan,Hadi Supermarket  Dept. Store,"Jl. Imam Bonjol No.56, Fandoi, Kec. Biak Kota, Kabupaten Biak Numfor, Papua 98111","Fandoi, Kec. Biak Kota, Kabupaten Biak Numfor",PAPUA,98111.0,Indonesia,,-11.800.003,1.360.824.788,https://maps.google.com/?cid=0x0:0xdcad74b4384219ee
mall,Toko umum,Cahaya nuriah Gordyn,"R3P8+9W4, Jl. Condronegoro, Samofa, Kec. Samofa, Kabupaten Biak Numfor, Papua 98112","Jl. Condronegoro, Samofa, Kec. Samofa, Kabupaten Biak Numfor",PAPUA,98112.0,Indonesia,81240114554.0,-11.641.072,1.360.673.153,https://maps.google.com/?cid=0x0:0x7505a4775cde815c
mall,Toko Pakaian,TOKO IKHSAN tersedia pakaian anak dan dewasa,"Dafuar, Pasar darfuar, Kabupaten Biak Numfor, Papua 98156","Pasar darfuar, Kabupaten Biak Numfor",PAPUA,98156.0,Indonesia,,-1.135.209,1.360.636.736,https://maps.google.com/?cid=0x0:0x1dcb7ce8de953751
mall,Pusat Perbelanjaan,KIOS FAJAR,"Jl. Sisingamangaraja, Samofa, Kec. Biak Kota, Kabupaten Biak Numfor, Papua 98112","Samofa, Kec. Biak Kota, Kabupaten Biak Numfor",PAPUA,98112.0,Indonesia,81234444452.0,-11.707.648,1.360.670.071,https://maps.google.com/?cid=0x0:0x10097e23b25dd352
mall,Toko,Griya Cantik Samofa,"Samofa, Kec. Samofa, Kabupaten Biak Numfor, Papua 98112","Kec. Samofa, Kabupaten Biak Numfor",PAPUA,98112.0,Indonesia,81334548909.0,-11.700.357,1.360.689.109,https://maps.google.com/?cid=0x0:0xeac39446aa5d8823
mall,Toko umum,Toko Agape Yafdas,"SD YPK V, Jl. Yafdas No.depan, Yafdas, Samofa, Biak Numfor Regency, Papua 98112","Jl. Yafdas No.depan, Yafdas, Samofa, Biak Numfor Regency",PAPUA,98112.0,Indonesia,81354151818.0,-11.534.604,1.360.706.731,https://maps.google.com/?cid=0x0:0x7e3536fa9b817750
mall,Pusat Perbelanjaan,Archie Shop Biak,"Jl. Condronegoro, Samofa, Komplex Tkbm, Kabupaten Biak Numfor, Papua 98551","Samofa, Komplex Tkbm, Kabupaten Biak Numfor",PAPUA,98551.0,Indonesia,81240167650.0,-11.646.814,136.078.207,https://maps.google.com/?cid=0x0:0x8d39159a50b519f1
mall,Toko Swalayan,Hadi Express Samofa,"R3MJ+63F, Jl. Condronegoro No.4, Samofa, Kec. Samofa, Kabupaten Biak Numfor, Papua 98111","Jl. Condronegoro No.4, Samofa, Kec. Samofa, Kabupaten Biak Numfor",PAPUA,98111.0,Indonesia,,-11.670.698,1.360.803.624,https://maps.google.com/?cid=0x0:0xfabd11da3885eb69
mall,Pasar tradisional,KIOS SAHIDA,"V377+X63, pasar darfuar, Dafuar, Kec. Samofa, Kabupaten Biak Numfor, Papua 98156","pasar darfuar, Dafuar, Kec. Samofa, Kabupaten Biak Numfor",PAPUA,98156.0,Indonesia,,-11.351.077,1.360.630.604,https://maps.google.com/?cid=0x0:0x67db545bc432afb3
mall,Toko Pakan Hewan,Gudang Pakan Ternak,"R3M7+97F, Kebun Kelapa, Kec. Biak Tim., Kabupaten Biak Numfor, Papua","Kabupaten Biak Numfor, Papua",PAPUA,,Indonesia,,-11.665.634,1.360.631.732,https://maps.google.com/?cid=0x0:0xe069537360981505
mall,mall,Papua 98114,"Kabupaten Biak Numfor, Papua","Kabupaten Biak Numfor, Papua",PAPUA,,Indonesia,,-11.386.625,1.360.491.689,https://maps.google.com/?cid=0x0:0xb7899b24d8a2c999
mall,Pusat Perbelanjaan,@abyyushopbiak_,"R39P+22P, Jl. Pramuka, Fandoi, Kec. Biak Kota, Kabupaten Biak Numfor, Papua 98111","Jl. Pramuka, Fandoi, Kec. Biak Kota, Kabupaten Biak Numfor",PAPUA,98111.0,Indonesia,82198344580.0,-11.824.023,1.360.850.902,https://maps.google.com/?cid=0x0:0x6a7eeaf2ab642b68
mall,Kantor Pemerintah,Pertokoan Buton Lanal Biak,"R3GC+6FJ, Jl. Sisingamangaraja, Waupnor, Kec. Samofa, Kabupaten Biak Numfor, Papua","Kabupaten Biak Numfor, Papua",PAPUA,,Indonesia,,-11.744.189,1.360.711.271,https://maps.google.com/?cid=0x0:0xa666c025568b14c3
mall,Kantor Pengawas,Mall Pelayanan Publik Kab Biak Numfor,"R3CM+777, Fandoi, Kec. Biak Kota, Kabupaten Biak Numfor, Papua 98111","Fandoi, Kec. Biak Kota, Kabupaten Biak Numfor",PAPUA,98111.0,Indonesia,,-11.793.236,1.360.831.777,https://maps.google.com/?cid=0x0:0xfe36b2b46bcd9403
mall,Toko Swalayan,Hadi Supermarket  Dept. Store,"Jl. Imam Bonjol No.56, Fandoi, Kec. Biak Kota, Kabupaten Biak Numfor, Papua 98111","Fandoi, Kec. Biak Kota, Kabupaten Biak Numfor",PAPUA,98111.0,Indonesia,,-11.800.003,1.360.824.788,https://maps.google.com/?cid=0x0:0xdcad74b4384219ee
mall,Pasar tradisional,KIOS SAHIDA,"V377+X63, pasar darfuar, Dafuar, Kec. Samofa, Kabupaten Biak Numfor, Papua 98156","pasar darfuar, Dafuar, Kec. Samofa, Kabupaten Biak Numfor",PAPUA,98156.0,Indonesia,,-11.351.077,1.360.630.604,https://maps.google.com/?cid=0x0:0x67db545bc432afb3
mall,Toko,Mom Andini collection shop,"R3W7+5WJ, JL. Gunung Nazaret, Yafdas, Kec. Samofa, Kabupaten Biak Numfor, Papua 98113","JL. Gunung Nazaret, Yafdas, Kec. Samofa, Kabupaten Biak Numfor",PAPUA,98113.0,Indonesia,8118111111.0,-1.154.526,1.360.647.716,https://maps.google.com/?cid=0x0:0x99913c8daac0e692
mall,Pusat Perbelanjaan,Pusat oleh-oleh Papua,"R3CM+6GJ, Jl. Selat Sunda, Fandoi, Kec. Biak Kota, Kabupaten Biak Numfor, Papua 98111","Jl. Selat Sunda, Fandoi, Kec. Biak Kota, Kabupaten Biak Numfor",PAPUA,98111.0,Indonesia,,-1.179.415,1.360.837.733,https://maps.google.com/?cid=0x0:0x34a8905566277626
mall,Pusat Perbelanjaan,Archie Shop Biak,"Jl. Condronegoro, Samofa, Komplex Tkbm, Kabupaten Biak Numfor, Papua 98551","Samofa, Komplex Tkbm, Kabupaten Biak Numfor",PAPUA,98551.0,Indonesia,81240167650.0,-11.646.814,136.078.207,https://maps.google.com/?cid=0x0:0x8d39159a50b519f1
mall,Pos Penjaga Pantai,Pasar Bosnik,"R6HG+QWQ, Tim.,, Woniki, Kec. Biak Tim., Kabupaten Biak Numfor, Papua 98152","Tim.,, Woniki, Kec. Biak Tim., Kabupaten Biak Numfor",PAPUA,98152.0,Indonesia,,-11.705.486,1.362.273.467,https://maps.google.com/?cid=0x0:0xd2f65d4e91efbc8e
mall,Pusat Perbelanjaan,toko populer jalan,"R3CM+CP4, Fandoi, Kec. Biak Kota, Kabupaten Biak Numfor, Papua 98111","Fandoi, Kec. Biak Kota, Kabupaten Biak Numfor",PAPUA,98111.0,Indonesia,,-11.789.785,136.084.324,https://maps.google.com/?cid=0x0:0x6077b1bfe164eb4a
mall,mall,Belanjain Biak,"Jl. Pramuka, Fandoi, Kec. Biak Kota, Kabupaten Biak Numfor, Papua 98111","Fandoi, Kec. Biak Kota, Kabupaten Biak Numfor",PAPUA,98111.0,Indonesia,82198344580.0,-11.815.242,1.360.851.474,https://maps.google.com/?cid=0x0:0xc16118945afee4bc
mall,Dealer Sepeda Motor,Sinar Pagi. CV,"Jl. Selat Madura No.3, Fandoi, Kec. Biak Kota, Kabupaten Biak Numfor, Papua 98112","Fandoi, Kec. Biak Kota, Kabupaten Biak Numfor",PAPUA,98112.0,Indonesia,81240342008.0,-11.829.593,1.360.827.428,https://maps.google.com/?cid=0x0:0x51a8a33d628d3dd8
mall,Toko,CNJ Toserba,"R3CV+QP4, Jl. Raya Bosnik, Karang Mulia, Kec. Samofa, Kabupaten Biak Numfor, Papua 98111","Jl. Raya Bosnik, Karang Mulia, Kec. Samofa, Kabupaten Biak Numfor",PAPUA,98111.0,Indonesia,,-11.779.694,1.360.938.451,https://maps.google.com/?cid=0x0:0x77d5a8623fb7d1b0
mall,mall,Papua 98115,"Kec. Biak Kota, Kabupaten Biak Numfor, Papua","Kabupaten Biak Numfor, Papua",PAPUA,,Indonesia,,-11.614.138,1.360.515.529,https://maps.google.com/?cid=0x0:0x9abbe05255913eb1
mall,Kantor Pengawas,Mall Pelayanan Publik Kab Biak Numfor,"R3CM+777, Fandoi, Kec. Biak Kota, Kabupaten Biak Numfor, Papua 98111","Fandoi, Kec. Biak Kota, Kabupaten Biak Numfor",PAPUA,98111.0,Indonesia,,-11.793.236,1.360.831.777,https://maps.google.com/?cid=0x0:0xfe36b2b46bcd9403
mall,Pusat Perbelanjaan,@abyyushopbiak_,"R39P+22P, Jl. Pramuka, Fandoi, Kec. Biak Kota, Kabupaten Biak Numfor, Papua 98111","Jl. Pramuka, Fandoi, Kec. Biak Kota, Kabupaten Biak Numfor",PAPUA,98111.0,Indonesia,82198344580.0,-11.824.023,1.360.850.902,https://maps.google.com/?cid=0x0:0x6a7eeaf2ab642b68
mall,Toko Swalayan,Jusma 2,"R3GF+438, Samofa, Kec. Samofa, Kabupaten Biak Numfor, Papua 98112","Samofa, Kec. Samofa, Kabupaten Biak Numfor",PAPUA,98112.0,Indonesia,,-11.747.246,1.360.727.098,https://maps.google.com/?cid=0x0:0x6b9c78e935ec848d
mall,Pusat Perbelanjaan,KIOS FAJAR,"Jl. Sisingamangaraja, Samofa, Kec. Biak Kota, Kabupaten Biak Numfor, Papua 98112","Samofa, Kec. Biak Kota, Kabupaten Biak Numfor",PAPUA,98112.0,Indonesia,81234444452.0,-11.707.648,1.360.670.071,https://maps.google.com/?cid=0x0:0x10097e23b25dd352
mall,Toko Swalayan,Hadi Supermarket  Dept. Store,"Jl. Imam Bonjol No.56, Fandoi, Kec. Biak Kota, Kabupaten Biak Numfor, Papua 98111","Fandoi, Kec. Biak Kota, Kabupaten Biak Numfor",PAPUA,98111.0,Indonesia,,-11.800.003,1.360.824.788,https://maps.google.com/?cid=0x0:0xdcad74b4384219ee
mall,Toko bahan makanan,KIOS RESTU KITA,"R3CR+GGV, Unnamed Road, Mandala, Kec. Biak Kota, Kabupaten Biak Numfor, Papua 98111","Unnamed Road, Mandala, Kec. Biak Kota, Kabupaten Biak Numfor",PAPUA,98111.0,Indonesia,82247796502.0,-11.786.494,1.360.912.876,https://maps.google.com/?cid=0x0:0xf5ff7cec3cf6e707
mall,Toko umum,Cahaya nuriah Gordyn,"R3P8+9W4, Jl. Condronegoro, Samofa, Kec. Samofa, Kabupaten Biak Numfor, Papua 98112","Jl. Condronegoro, Samofa, Kec. Samofa, Kabupaten Biak Numfor",PAPUA,98112.0,Indonesia,81240114554.0,-11.641.072,1.360.673.153,https://maps.google.com/?cid=0x0:0x7505a4775cde815c
mall,Toko,Griya Cantik Samofa,"Samofa, Kec. Samofa, Kabupaten Biak Numfor, Papua 98112","Kec. Samofa, Kabupaten Biak Numfor",PAPUA,98112.0,Indonesia,81334548909.0,-11.700.357,1.360.689.109,https://maps.google.com/?cid=0x0:0xeac39446aa5d8823
mall,Toko,Mom Andini collection shop,"R3W7+5WJ, JL. Gunung Nazaret, Yafdas, Kec. Samofa, Kabupaten Biak Numfor, Papua 98113","JL. Gunung Nazaret, Yafdas, Kec. Samofa, Kabupaten Biak Numfor",PAPUA,98113.0,Indonesia,8118111111.0,-1.154.526,1.360.647.716,https://maps.google.com/?cid=0x0:0x99913c8daac0e692
mall,Toko umum,Toko Agape Yafdas,"SD YPK V, Jl. Yafdas No.depan, Yafdas, Samofa, Biak Numfor Regency, Papua 98112","Jl. Yafdas No.depan, Yafdas, Samofa, Biak Numfor Regency",PAPUA,98112.0,Indonesia,81354151818.0,-11.534.604,1.360.706.731,https://maps.google.com/?cid=0x0:0x7e3536fa9b817750
mall,Toko Pakan Hewan,Gudang Pakan Ternak,"R3M7+97F, Kebun Kelapa, Kec. Biak Tim., Kabupaten Biak Numfor, Papua","Kabupaten Biak Numfor, Papua",PAPUA,,Indonesia,,-11.665.634,1.360.631.732,https://maps.google.com/?cid=0x0:0xe069537360981505
mall,Pusat Perbelanjaan,Archie Shop Biak,"Jl. Condronegoro, Samofa, Komplex Tkbm, Kabupaten Biak Numfor, Papua 98551","Samofa, Komplex Tkbm, Kabupaten Biak Numfor",PAPUA,98551.0,Indonesia,81240167650.0,-11.646.814,136.078.207,https://maps.google.com/?cid=0x0:0x8d39159a50b519f1
mall,Toko,CNJ Toserba,"R3CV+QP4, Jl. Raya Bosnik, Karang Mulia, Kec. Samofa, Kabupaten Biak Numfor, Papua 98111","Jl. Raya Bosnik, Karang Mulia, Kec. Samofa, Kabupaten Biak Numfor",PAPUA,98111.0,Indonesia,,-11.779.694,1.360.938.451,https://maps.google.com/?cid=0x0:0x77d5a8623fb7d1b0
mall,Kantor Pengawas,Mall Pelayanan Publik Kab Biak Numfor,"R3CM+777, Fandoi, Kec. Biak Kota, Kabupaten Biak Numfor, Papua 98111","Fandoi, Kec. Biak Kota, Kabupaten Biak Numfor",PAPUA,98111.0,Indonesia,,-11.793.236,1.360.831.777,https://maps.google.com/?cid=0x0:0xfe36b2b46bcd9403
mall,mall,Papua 98116,"Kec. Yendidori, Kabupaten Biak Numfor, Papua","Kabupaten Biak Numfor, Papua",PAPUA,,Indonesia,,-11.152.139,1.360.086.594,https://maps.google.com/?cid=0x0:0xa8c3dc42c3bee07d
mall,Pusat Perbelanjaan,Pasar Inpres Biak Numfor,"Burokub, Kec. Biak Kota, Kabupaten Biak Numfor, Papua 98111","Kec. Biak Kota, Kabupaten Biak Numfor",PAPUA,98111.0,Indonesia,81341418979.0,-11.790.387,1.360.767.221,https://maps.google.com/?cid=0x0:0xeec55fd5f0273f35
mall,Toko Pakaian,TOKO IKHSAN tersedia pakaian anak dan dewasa,"Dafuar, Pasar darfuar, Kabupaten Biak Numfor, Papua 98156","Pasar darfuar, Kabupaten Biak Numfor",PAPUA,98156.0,Indonesia,,-1.135.209,1.360.636.736,https://maps.google.com/?cid=0x0:0x1dcb7ce8de953751
mall,Pasar tradisional,KIOS SAHIDA,"V377+X63, pasar darfuar, Dafuar, Kec. Samofa, Kabupaten Biak Numfor, Papua 98156","pasar darfuar, Dafuar, Kec. Samofa, Kabupaten Biak Numfor",PAPUA,98156.0,Indonesia,,-11.351.077,1.360.630.604,https://maps.google.com/?cid=0x0:0x67db545bc432afb3
mall,Toko bahan makanan,KIOS RESTU KITA,"R3CR+GGV, Unnamed Road, Mandala, Kec. Biak Kota, Kabupaten Biak Numfor, Papua 98111","Unnamed Road, Mandala, Kec. Biak Kota, Kabupaten Biak Numfor",PAPUA,98111.0,Indonesia,82247796502.0,-11.786.494,1.360.912.876,https://maps.google.com/?cid=0x0:0xf5ff7cec3cf6e707
mall,Pusat Perbelanjaan,Archie Shop Biak,"Jl. Condronegoro, Samofa, Komplex Tkbm, Kabupaten Biak Numfor, Papua 98551","Samofa, Komplex Tkbm, Kabupaten Biak Numfor",PAPUA,98551.0,Indonesia,81240167650.0,-11.646.814,136.078.207,https://maps.google.com/?cid=0x0:0x8d39159a50b519f1
mall,Toko,Mom Andini collection shop,"R3W7+5WJ, JL. Gunung Nazaret, Yafdas, Kec. Samofa, Kabupaten Biak Numfor, Papua 98113","JL. Gunung Nazaret, Yafdas, Kec. Samofa, Kabupaten Biak Numfor",PAPUA,98113.0,Indonesia,8118111111.0,-1.154.526,1.360.647.716,https://maps.google.com/?cid=0x0:0x99913c8daac0e692
mall,mall,Belanjain Biak,"Jl. Pramuka, Fandoi, Kec. Biak Kota, Kabupaten Biak Numfor, Papua 98111","Fandoi, Kec. Biak Kota, Kabupaten Biak Numfor",PAPUA,98111.0,Indonesia,82198344580.0,-11.815.242,1.360.851.474,https://maps.google.com/?cid=0x0:0xc16118945afee4bc
mall,Pos Penjaga Pantai,Pasar Bosnik,"R6HG+QWQ, Tim.,, Woniki, Kec. Biak Tim., Kabupaten Biak Numfor, Papua 98152","Tim.,, Woniki, Kec. Biak Tim., Kabupaten Biak Numfor",PAPUA,98152.0,Indonesia,,-11.705.486,1.362.273.467,https://maps.google.com/?cid=0x0:0xd2f65d4e91efbc8e
mall,Toko bahan makanan,Toko Artha Graha,"R3JQ+695, Samofa, Kec. Samofa, Kabupaten Biak Numfor, Papua 98111","Samofa, Kec. Samofa, Kabupaten Biak Numfor",PAPUA,98111.0,Indonesia,,-11.694.963,1.360.884.802,https://maps.google.com/?cid=0x0:0xa99a632e5780c18f
mall,mall,Kec. Biak Kota,"Kabupaten Biak Numfor, Papua","Kabupaten Biak Numfor, Papua",PAPUA,,Indonesia,,-11.837.602,1.360.797.406,https://maps.google.com/?cid=0x0:0x28487caea0b09c5a
mall,Kantor Pengawas,Mall Pelayanan Publik Kab Biak Numfor,"R3CM+777, Fandoi, Kec. Biak Kota, Kabupaten Biak Numfor, Papua 98111","Fandoi, Kec. Biak Kota, Kabupaten Biak Numfor",PAPUA,98111.0,Indonesia,,-11.793.236,1.360.831.777,https://maps.google.com/?cid=0x0:0xfe36b2b46bcd9403
mall,Pusat Perbelanjaan,@abyyushopbiak_,"R39P+22P, Jl. Pramuka, Fandoi, Kec. Biak Kota, Kabupaten Biak Numfor, Papua 98111","Jl. Pramuka, Fandoi, Kec. Biak Kota, Kabupaten Biak Numfor",PAPUA,98111.0,Indonesia,82198344580.0,-11.824.023,1.360.850.902,https://maps.google.com/?cid=0x0:0x6a7eeaf2ab642b68
mall,Pusat Perbelanjaan,Pasar Inpres Biak Numfor,"Burokub, Kec. Biak Kota, Kabupaten Biak Numfor, Papua 98111","Kec. Biak Kota, Kabupaten Biak Numfor",PAPUA,98111.0,Indonesia,81341418979.0,-11.790.387,1.360.767.221,https://maps.google.com/?cid=0x0:0xeec55fd5f0273f35
mall,Toko Swalayan,Jusma 2,"R3GF+438, Samofa, Kec. Samofa, Kabupaten Biak Numfor, Papua 98112","Samofa, Kec. Samofa, Kabupaten Biak Numfor",PAPUA,98112.0,Indonesia,,-11.747.246,1.360.727.098,https://maps.google.com/?cid=0x0:0x6b9c78e935ec848d
mall,Pusat Perbelanjaan,Kompleks Penjualan Pakaian Dan Accesories,"R39J+9XR, Fandoi, Kec. Biak Kota, Kabupaten Biak Numfor, Papua 98111","Fandoi, Kec. Biak Kota, Kabupaten Biak Numfor",PAPUA,98111.0,Indonesia,,-11.815.195,1.360.823.911,https://maps.google.com/?cid=0x0:0x715d172294ab9651
mall,Toko bahan makanan,KIOS RESTU KITA,"R3CR+GGV, Unnamed Road, Mandala, Kec. Biak Kota, Kabupaten Biak Numfor, Papua 98111","Unnamed Road, Mandala, Kec. Biak Kota, Kabupaten Biak Numfor",PAPUA,98111.0,Indonesia,82247796502.0,-11.786.494,1.360.912.876,https://maps.google.com/?cid=0x0:0xf5ff7cec3cf6e707
mall,Pasar,Dermaga Pasar Ikan Biak,"R37J+JHF, Jl. Imam Bonjol, Kabupaten Biak Numfor, Papua 98111","Jl. Imam Bonjol, Kabupaten Biak Numfor",PAPUA,98111.0,Indonesia,,-11.859.308,1.360.814.362,https://maps.google.com/?cid=0x0:0xbebd23ff4c4fa872
mall,Pusat Perbelanjaan,Pusat oleh-oleh Papua,"R3CM+6GJ, Jl. Selat Sunda, Fandoi, Kec. Biak Kota, Kabupaten Biak Numfor, Papua 98111","Jl. Selat Sunda, Fandoi, Kec. Biak Kota, Kabupaten Biak Numfor",PAPUA,98111.0,Indonesia,,-1.179.415,1.360.837.733,https://maps.google.com/?cid=0x0:0x34a8905566277626
mall,Toko Swalayan,Hadi Supermarket  Dept. Store,"Jl. Imam Bonjol No.56, Fandoi, Kec. Biak Kota, Kabupaten Biak Numfor, Papua 98111","Fandoi, Kec. Biak Kota, Kabupaten Biak Numfor",PAPUA,98111.0,Indonesia,,-11.800.003,1.360.824.788,https://maps.google.com/?cid=0x0:0xdcad74b4384219ee
mall,Pusat Perbelanjaan,Kios UFTI JAYA,"R3FH+74Q, Jl. Sisingamangaraja, Samofa, Kec. Samofa, Kabupaten Biak Numfor, Papua 98111","Jl. Sisingamangaraja, Samofa, Kec. Samofa, Kabupaten Biak Numfor",PAPUA,98111.0,Indonesia,85254815597.0,-11.767.804,1.360.778.706,https://maps.google.com/?cid=0x0:0x6294a30713246201
mall,Kantor Pemerintah,Pertokoan Buton Lanal Biak,"R3GC+6FJ, Jl. Sisingamangaraja, Waupnor, Kec. Samofa, Kabupaten Biak Numfor, Papua","Kabupaten Biak Numfor, Papua",PAPUA,,Indonesia,,-11.744.189,1.360.711.271,https://maps.google.com/?cid=0x0:0xa666c025568b14c3
mall,Toko Herbal,Juliati (Agen VARASH),"R38M+P63, Jl. Selat Madura, Fandoi, Kec. Biak Kota, Kabupaten Biak Numfor, Papua 98111","Jl. Selat Madura, Fandoi, Kec. Biak Kota, Kabupaten Biak Numfor",PAPUA,98111.0,Indonesia,82399702828.0,-11.832.497,1.360.830.346,https://maps.google.com/?cid=0x0:0x1b34bdc598b6a472
mall,mall,Kec. Biak Kota,"Kabupaten Biak Numfor, Papua","Kabupaten Biak Numfor, Papua",PAPUA,,Indonesia,,-11.837.602,1.360.797.406,https://maps.google.com/?cid=0x0:0x28487caea0b09c5a
mall,Kantor Pengawas,Mall Pelayanan Publik Kab Biak Numfor,"R3CM+777, Fandoi, Kec. Biak Kota, Kabupaten Biak Numfor, Papua 98111","Fandoi, Kec. Biak Kota, Kabupaten Biak Numfor",PAPUA,98111.0,Indonesia,,-11.793.236,1.360.831.777,https://maps.google.com/?cid=0x0:0xfe36b2b46bcd9403
mall,Toko Swalayan,Jusma 2,"R3GF+438, Samofa, Kec. Samofa, Kabupaten Biak Numfor, Papua 98112","Samofa, Kec. Samofa, Kabupaten Biak Numfor",PAPUA,98112.0,Indonesia,,-11.747.246,1.360.727.098,https://maps.google.com/?cid=0x0:0x6b9c78e935ec848d
mall,Pusat Perbelanjaan,Pasar Inpres Biak Numfor,"Burokub, Kec. Biak Kota, Kabupaten Biak Numfor, Papua 98111","Kec. Biak Kota, Kabupaten Biak Numfor",PAPUA,98111.0,Indonesia,81341418979.0,-11.790.387,1.360.767.221,https://maps.google.com/?cid=0x0:0xeec55fd5f0273f35
mall,Kantor Pemerintah,Pertokoan Buton Lanal Biak,"R3GC+6FJ, Jl. Sisingamangaraja, Waupnor, Kec. Samofa, Kabupaten Biak Numfor, Papua","Kabupaten Biak Numfor, Papua",PAPUA,,Indonesia,,-11.744.189,1.360.711.271,https://maps.google.com/?cid=0x0:0xa666c025568b14c3
mall,Pusat Perbelanjaan,@abyyushopbiak_,"R39P+22P, Jl. Pramuka, Fandoi, Kec. Biak Kota, Kabupaten Biak Numfor, Papua 98111","Jl. Pramuka, Fandoi, Kec. Biak Kota, Kabupaten Biak Numfor",PAPUA,98111.0,Indonesia,82198344580.0,-11.824.023,1.360.850.902,https://maps.google.com/?cid=0x0:0x6a7eeaf2ab642b68
mall,Toko,MR.DIY Ruko Raya Bosnik Ambroben (XBRB),"Jl. Raya Bosnik, Ambroben, Kec. Biak Kota, Kabupaten Biak Numfor, Papua 98118","Ambroben, Kec. Biak Kota, Kabupaten Biak Numfor",PAPUA,98118.0,Indonesia,,-11.817.149,1.361.050.262,https://maps.google.com/?cid=0x0:0x5b28e9cb1f6d7c9a
mall,Pasar,Dermaga Pasar Ikan Biak,"R37J+JHF, Jl. Imam Bonjol, Kabupaten Biak Numfor, Papua 98111","Jl. Imam Bonjol, Kabupaten Biak Numfor",PAPUA,98111.0,Indonesia,,-11.859.308,1.360.814.362,https://maps.google.com/?cid=0x0:0xbebd23ff4c4fa872
mall,Pusat Perbelanjaan,Pusat oleh-oleh Papua,"R3CM+6GJ, Jl. Selat Sunda, Fandoi, Kec. Biak Kota, Kabupaten Biak Numfor, Papua 98111","Jl. Selat Sunda, Fandoi, Kec. Biak Kota, Kabupaten Biak Numfor",PAPUA,98111.0,Indonesia,,-1.179.415,1.360.837.733,https://maps.google.com/?cid=0x0:0x34a8905566277626
mall,Toko Swalayan,Hadi Supermarket  Dept. Store,"Jl. Imam Bonjol No.56, Fandoi, Kec. Biak Kota, Kabupaten Biak Numfor, Papua 98111","Fandoi, Kec. Biak Kota, Kabupaten Biak Numfor",PAPUA,98111.0,Indonesia,,-11.800.003,1.360.824.788,https://maps.google.com/?cid=0x0:0xdcad74b4384219ee
mall,Toko Herbal,Juliati (Agen VARASH),"R38M+P63, Jl. Selat Madura, Fandoi, Kec. Biak Kota, Kabupaten Biak Numfor, Papua 98111","Jl. Selat Madura, Fandoi, Kec. Biak Kota, Kabupaten Biak Numfor",PAPUA,98111.0,Indonesia,82399702828.0,-11.832.497,1.360.830.346,https://maps.google.com/?cid=0x0:0x1b34bdc598b6a472
mall,Pusat Perbelanjaan,Kompleks Penjualan Pakaian Dan Accesories,"R39J+9XR, Fandoi, Kec. Biak Kota, Kabupaten Biak Numfor, Papua 98111","Fandoi, Kec. Biak Kota, Kabupaten Biak Numfor",PAPUA,98111.0,Indonesia,,-11.815.195,1.360.823.911,https://maps.google.com/?cid=0x0:0x715d172294ab9651
mall,Pusat Perbelanjaan,Toko anugrah jaya,"R38J+X9V, Fandoi, Kec. Biak Kota, Kabupaten Biak Numfor, Papua 98111","Fandoi, Kec. Biak Kota, Kabupaten Biak Numfor",PAPUA,98111.0,Indonesia,,-11.825.121,1.360.809.158,https://maps.google.com/?cid=0x0:0x8d53d7a7c2317684
mall,Toko bahan makanan,KIOS RESTU KITA,"R3CR+GGV, Unnamed Road, Mandala, Kec. Biak Kota, Kabupaten Biak Numfor, Papua 98111","Unnamed Road, Mandala, Kec. Biak Kota, Kabupaten Biak Numfor",PAPUA,98111.0,Indonesia,82247796502.0,-11.786.494,1.360.912.876,https://maps.google.com/?cid=0x0:0xf5ff7cec3cf6e707
mall,Kantor Pengawas,Mall Pelayanan Publik Kab Biak Numfor,"R3CM+777, Fandoi, Kec. Biak Kota, Kabupaten Biak Numfor, Papua 98111","Fandoi, Kec. Biak Kota, Kabupaten Biak Numfor",PAPUA,98111.0,Indonesia,,-11.793.236,1.360.831.777,https://maps.google.com/?cid=0x0:0xfe36b2b46bcd9403
mall,mall,Papua 98153,"Kabupaten Biak Numfor, Papua","Kabupaten Biak Numfor, Papua",PAPUA,,Indonesia,,-0.9418311,1.360.372.508,https://maps.google.com/?cid=0x0:0xdaa7c4e762f36ed7
mall,Kantor Pemerintah,Pertokoan Buton Lanal Biak,"R3GC+6FJ, Jl. Sisingamangaraja, Waupnor, Kec. Samofa, Kabupaten Biak Numfor, Papua","Kabupaten Biak Numfor, Papua",PAPUA,,Indonesia,,-11.744.189,1.360.711.271,https://maps.google.com/?cid=0x0:0xa666c025568b14c3
mall,Toko Herbal,Juliati (Agen VARASH),"R38M+P63, Jl. Selat Madura, Fandoi, Kec. Biak Kota, Kabupaten Biak Numfor, Papua 98111","Jl. Selat Madura, Fandoi, Kec. Biak Kota, Kabupaten Biak Numfor",PAPUA,98111.0,Indonesia,82399702828.0,-11.832.497,1.360.830.346,https://maps.google.com/?cid=0x0:0x1b34bdc598b6a472
mall,Toko Swalayan,Hadi Supermarket  Dept. Store,"Jl. Imam Bonjol No.56, Fandoi, Kec. Biak Kota, Kabupaten Biak Numfor, Papua 98111","Fandoi, Kec. Biak Kota, Kabupaten Biak Numfor",PAPUA,98111.0,Indonesia,,-11.800.003,1.360.824.788,https://maps.google.com/?cid=0x0:0xdcad74b4384219ee
mall,Pusat Perbelanjaan,Kios UFTI JAYA,"R3FH+74Q, Jl. Sisingamangaraja, Samofa, Kec. Samofa, Kabupaten Biak Numfor, Papua 98111","Jl. Sisingamangaraja, Samofa, Kec. Samofa, Kabupaten Biak Numfor",PAPUA,98111.0,Indonesia,85254815597.0,-11.767.804,1.360.778.706,https://maps.google.com/?cid=0x0:0x6294a30713246201
mall,mall,Napebo Kios,"32WP+G8, Andei, Distrik Andey, Kabupaten Biak Numfor, Papua","Kabupaten Biak Numfor, Papua",PAPUA,,Indonesia,,-0.9036846,1.360.358.422,https://maps.google.com/?cid=0x0:0xfb2a8636431827bb
mall,Pusat Perbelanjaan,Archie Shop Biak,"Jl. Condronegoro, Samofa, Komplex Tkbm, Kabupaten Biak Numfor, Papua 98551","Samofa, Komplex Tkbm, Kabupaten Biak Numfor",PAPUA,98551.0,Indonesia,81240167650.0,-11.646.814,136.078.207,https://maps.google.com/?cid=0x0:0x8d39159a50b519f1
mall,Toko bahan makanan,KIOS RESTU KITA,"R3CR+GGV, Unnamed Road, Mandala, Kec. Biak Kota, Kabupaten Biak Numfor, Papua 98111","Unnamed Road, Mandala, Kec. Biak Kota, Kabupaten Biak Numfor",PAPUA,98111.0,Indonesia,82247796502.0,-11.786.494,1.360.912.876,https://maps.google.com/?cid=0x0:0xf5ff7cec3cf6e707
mall,Pusat Perbelanjaan,@abyyushopbiak_,"R39P+22P, Jl. Pramuka, Fandoi, Kec. Biak Kota, Kabupaten Biak Numfor, Papua 98111","Jl. Pramuka, Fandoi, Kec. Biak Kota, Kabupaten Biak Numfor",PAPUA,98111.0,Indonesia,82198344580.0,-11.824.023,1.360.850.902,https://maps.google.com/?cid=0x0:0x6a7eeaf2ab642b68
mall,mall,Papua 98152,"Kabupaten Biak Numfor, Papua","Kabupaten Biak Numfor, Papua",PAPUA,,Indonesia,,-10.707.188,1.362.474.381,https://maps.google.com/?cid=0x0:0x5f671ec5fdbb6997
mall,Toko,BATU SORY,"Pasar bosnik, BIAK, Kec. Biak Tim., Kabupaten Biak Numfor, Papua 98541","BIAK, Kec. Biak Tim., Kabupaten Biak Numfor",PAPUA,98541.0,Indonesia,82199352635.0,-11.702.676,136.226.495,https://maps.google.com/?cid=0x0:0xc2280aeefbd57d52
mall,Pos Penjaga Pantai,Pasar Bosnik,"R6HG+QWQ, Tim.,, Woniki, Kec. Biak Tim., Kabupaten Biak Numfor, Papua 98152","Tim.,, Woniki, Kec. Biak Tim., Kabupaten Biak Numfor",PAPUA,98152.0,Indonesia,,-11.705.486,1.362.273.467,https://maps.google.com/?cid=0x0:0xd2f65d4e91efbc8e
mall,Pusat Perbelanjaan,Pasar Inpres Biak Numfor,"Burokub, Kec. Biak Kota, Kabupaten Biak Numfor, Papua 98111","Kec. Biak Kota, Kabupaten Biak Numfor",PAPUA,98111.0,Indonesia,81341418979.0,-11.790.387,1.360.767.221,https://maps.google.com/?cid=0x0:0xeec55fd5f0273f35
mall,Toko bahan makanan,Toko Artha Graha,"R3JQ+695, Samofa, Kec. Samofa, Kabupaten Biak Numfor, Papua 98111","Samofa, Kec. Samofa, Kabupaten Biak Numfor",PAPUA,98111.0,Indonesia,,-11.694.963,1.360.884.802,https://maps.google.com/?cid=0x0:0xa99a632e5780c18f
mall,Pusat Perbelanjaan,@abyyushopbiak_,"R39P+22P, Jl. Pramuka, Fandoi, Kec. Biak Kota, Kabupaten Biak Numfor, Papua 98111","Jl. Pramuka, Fandoi, Kec. Biak Kota, Kabupaten Biak Numfor",PAPUA,98111.0,Indonesia,82198344580.0,-11.824.023,1.360.850.902,https://maps.google.com/?cid=0x0:0x6a7eeaf2ab642b68
mall,Toko Swalayan,Jusma 2,"R3GF+438, Samofa, Kec. Samofa, Kabupaten Biak Numfor, Papua 98112","Samofa, Kec. Samofa, Kabupaten Biak Numfor",PAPUA,98112.0,Indonesia,,-11.747.246,1.360.727.098,https://maps.google.com/?cid=0x0:0x6b9c78e935ec848d
mall,Pasar,Dermaga Pasar Ikan Biak,"R37J+JHF, Jl. Imam Bonjol, Kabupaten Biak Numfor, Papua 98111","Jl. Imam Bonjol, Kabupaten Biak Numfor",PAPUA,98111.0,Indonesia,,-11.859.308,1.360.814.362,https://maps.google.com/?cid=0x0:0xbebd23ff4c4fa872
mall,Toko,MR.DIY Ruko Raya Bosnik Ambroben (XBRB),"Jl. Raya Bosnik, Ambroben, Kec. Biak Kota, Kabupaten Biak Numfor, Papua 98118","Ambroben, Kec. Biak Kota, Kabupaten Biak Numfor",PAPUA,98118.0,Indonesia,,-11.817.149,1.361.050.262,https://maps.google.com/?cid=0x0:0x5b28e9cb1f6d7c9a
mall,Kantor Pemerintah,Pertokoan Buton Lanal Biak,"R3GC+6FJ, Jl. Sisingamangaraja, Waupnor, Kec. Samofa, Kabupaten Biak Numfor, Papua","Kabupaten Biak Numfor, Papua",PAPUA,,Indonesia,,-11.744.189,1.360.711.271,https://maps.google.com/?cid=0x0:0xa666c025568b14c3
mall,Toko Swalayan,Hadi Supermarket  Dept. Store,"Jl. Imam Bonjol No.56, Fandoi, Kec. Biak Kota, Kabupaten Biak Numfor, Papua 98111","Fandoi, Kec. Biak Kota, Kabupaten Biak Numfor",PAPUA,98111.0,Indonesia,,-11.800.003,1.360.824.788,https://maps.google.com/?cid=0x0:0xdcad74b4384219ee
mall,Pusat Perbelanjaan,Pusat oleh-oleh Papua,"R3CM+6GJ, Jl. Selat Sunda, Fandoi, Kec. Biak Kota, Kabupaten Biak Numfor, Papua 98111","Jl. Selat Sunda, Fandoi, Kec. Biak Kota, Kabupaten Biak Numfor",PAPUA,98111.0,Indonesia,,-1.179.415,1.360.837.733,https://maps.google.com/?cid=0x0:0x34a8905566277626
mall,Pusat Perbelanjaan,Kompleks Penjualan Pakaian Dan Accesories,"R39J+9XR, Fandoi, Kec. Biak Kota, Kabupaten Biak Numfor, Papua 98111","Fandoi, Kec. Biak Kota, Kabupaten Biak Numfor",PAPUA,98111.0,Indonesia,,-11.815.195,1.360.823.911,https://maps.google.com/?cid=0x0:0x715d172294ab9651
mall,Toko bahan makanan,KIOS RESTU KITA,"R3CR+GGV, Unnamed Road, Mandala, Kec. Biak Kota, Kabupaten Biak Numfor, Papua 98111","Unnamed Road, Mandala, Kec. Biak Kota, Kabupaten Biak Numfor",PAPUA,98111.0,Indonesia,82247796502.0,-11.786.494,1.360.912.876,https://maps.google.com/?cid=0x0:0xf5ff7cec3cf6e707
mall,mall,Rumah Queen,"3W33+PW, Andei, Distrik Poiru, Kabupaten Biak Numfor, Papua 98171","Andei, Distrik Poiru, Kabupaten Biak Numfor",PAPUA,98171.0,Indonesia,,-0.9460365,134.904.514,https://maps.google.com/?cid=0x0:0x6de175b77fd80d14
mall,mall,Rumah Queen,"3W33+PW, Andei, Distrik Poiru, Kabupaten Biak Numfor, Papua 98171","Andei, Distrik Poiru, Kabupaten Biak Numfor",PAPUA,98171.0,Indonesia,,-0.9460365,134.904.514,https://maps.google.com/?cid=0x0:0x6de175b77fd80d14
mall,Kantor Pengawas,Mall Pelayanan Publik Kab Biak Numfor,"R3CM+777, Fandoi, Kec. Biak Kota, Kabupaten Biak Numfor, Papua 98111","Fandoi, Kec. Biak Kota, Kabupaten Biak Numfor",PAPUA,98111.0,Indonesia,,-11.793.236,1.360.831.777,https://maps.google.com/?cid=0x0:0xfe36b2b46bcd9403
mall,mall,Papua 98154,"Kabupaten Biak Numfor, Papua","Kabupaten Biak Numfor, Papua",PAPUA,,Indonesia,,-0.9529483,1.358.659.561,https://maps.google.com/?cid=0x0:0x7baacb17c171a3e7
mall,Toko Swalayan,Hadi Supermarket  Dept. Store,"Jl. Imam Bonjol No.56, Fandoi, Kec. Biak Kota, Kabupaten Biak Numfor, Papua 98111","Fandoi, Kec. Biak Kota, Kabupaten Biak Numfor",PAPUA,98111.0,Indonesia,,-11.800.003,1.360.824.788,https://maps.google.com/?cid=0x0:0xdcad74b4384219ee
mall,Kantor Pemerintah Distrik,Karang Taruna Desa Duber Distrik Supiori Timur,"6P9Q+45C, Duber, Kec. Supiori Tim., Kabupaten Supiori, Papua 98154","Duber, Kec. Supiori Tim., Kabupaten Supiori",PAPUA,98154.0,Indonesia,82398518887.0,-0.7821922,1.357.378.854,https://maps.google.com/?cid=0x0:0x82b434b00a24369c
mall,Kios,Kios farhan,"7Q52+6J9, Unnamed Road, Waryesi, Kec. Supiori Tim., Kabupaten Supiori, Papua 98161","Unnamed Road, Waryesi, Kec. Supiori Tim., Kabupaten Supiori",PAPUA,98161.0,Indonesia,,-0.7419571,1.357.516.103,https://maps.google.com/?cid=0x0:0x189b47403f9126f7
mall,Pusat Perbelanjaan,Archie Shop Biak,"Jl. Condronegoro, Samofa, Komplex Tkbm, Kabupaten Biak Numfor, Papua 98551","Samofa, Komplex Tkbm, Kabupaten Biak Numfor",PAPUA,98551.0,Indonesia,81240167650.0,-11.646.814,136.078.207,https://maps.google.com/?cid=0x0:0x8d39159a50b519f1
mall,Toko,Kios Marsram,"Marsram, Kec. Supiori Tim., Kabupaten Supiori, Papua 98161","Kec. Supiori Tim., Kabupaten Supiori",PAPUA,98161.0,Indonesia,82185252226.0,-0.7928575,1.357.024.244,https://maps.google.com/?cid=0x0:0xa62dea9e8a9fdd12
mall,mall,Orkdori wombrisauw distrik swandiwe,"5PVR+VG, Wombrisauw, Distrik Swandiwe, Kabupaten Biak Numfor, Papua","Kabupaten Biak Numfor, Papua",PAPUA,,Indonesia,,-0.8053125,1.357.413.125,https://maps.google.com/?cid=0x0:0xf0b2ca1b1d0b4120
mall,mall,Belanjain Biak,"Jl. Pramuka, Fandoi, Kec. Biak Kota, Kabupaten Biak Numfor, Papua 98111","Fandoi, Kec. Biak Kota, Kabupaten Biak Numfor",PAPUA,98111.0,Indonesia,82198344580.0,-11.815.242,1.360.851.474,https://maps.google.com/?cid=0x0:0xc16118945afee4bc
mall,mall,Piring makan,"RVGR+48, Waroi, Kabupaten Biak Numfor, Papua","Kabupaten Biak Numfor, Papua",PAPUA,,Indonesia,,-11.747.293,1.358.908.421,https://maps.google.com/?cid=0x0:0x2762c6c95dc315a5
mall,mall,Napebo Kios,"32WP+G8, Andei, Distrik Andey, Kabupaten Biak Numfor, Papua","Kabupaten Biak Numfor, Papua",PAPUA,,Indonesia,,-0.9036846,1.360.358.422,https://maps.google.com/?cid=0x0:0xfb2a8636431827bb
mall,mall,Distrik Biak Barat,"Kabupaten Biak Numfor, Papua","Kabupaten Biak Numfor, Papua",PAPUA,,Indonesia,,-10.586.287,1.358.664.748,https://maps.google.com/?cid=0x0:0x7c3b88c4d06d831
mall,mall,Napebo Kios,"32WP+G8, Andei, Distrik Andey, Kabupaten Biak Numfor, Papua","Kabupaten Biak Numfor, Papua",PAPUA,,Indonesia,,-0.9036846,1.360.358.422,https://maps.google.com/?cid=0x0:0xfb2a8636431827bb
mall,Pusat Perbelanjaan,Wamena Mall,"WW4W+JH7, Wamena Kota, Distrik Wamena, Kabupaten Jayawijaya, Papua 99511","Wamena Kota, Distrik Wamena, Kabupaten Jayawijaya",PAPUA,99511.0,Indonesia,81356954606.0,-40.934.521,1.389.464.176,https://maps.google.com/?cid=0x0:0x99f90a37cc207474
mall,mall,Papua 98157,"Kabupaten Biak Numfor, Papua","Kabupaten Biak Numfor, Papua",PAPUA,,Indonesia,,-0.8013579,1.358.849.587,https://maps.google.com/?cid=0x0:0xc4bb574f645569e5
mall,mall,Warung Warso,"Jl. Nangka Raya No.21, RT.004/RW.007, Kayuringin Jaya, Kec. Bekasi Sel., Kota Bks, Jawa Barat 17135","RT.004/RW.007, Kayuringin Jaya, Kec. Bekasi Sel., Kota Bks",PAPUA,17135.0,Indonesia,,-62.306.453,1.069.831.153,https://maps.google.com/?cid=0x0:0xc3fed59f979a8ddc
mall,,Penyelaman Biak Padaido,"Q92G+67, Sorina, Distrik Padaido, Kabupaten Biak Numfor, Papua","Kabupaten Biak Numfor, Papua",PAPUA,,Indonesia,82239040283.0,-1.249.458,1.363.757.171,https://maps.google.com/?cid=0x0:0x8b3d7d229db8801d
mall,Taman,Pasir Timbul Biak,"PC36+9W6, Pulau Ureb Kecil, Nusi Babaruk, Distrik Padaido, Kabupaten Biak Numfor, Papua","Kabupaten Biak Numfor, Papua",PAPUA,,Indonesia,,-12.965.843,1.364.122.788,https://maps.google.com/?cid=0x0:0xf5c581d83bb7871f
mall,Toko,Hadi Express Airlangga,"R39G+W65, Jl. Erlangga, Waupnor, Kec. Biak Kota, Kabupaten Biak Numfor, Papua 98111","Jl. Erlangga, Waupnor, Kec. Biak Kota, Kabupaten Biak Numfor",PAPUA,98111.0,Indonesia,,-11.802.404,1.360.756.212,https://maps.google.com/?cid=0x0:0xd262eee2223025ae
mall,mall,Distrik Padaido,"Kabupaten Biak Numfor, Papua","Kabupaten Biak Numfor, Papua",PAPUA,,Indonesia,,-12.535.987,1.363.759.228,https://maps.google.com/?cid=0x0:0x3fb215253a432cb0
mall,Kedai Kopi,KOFFIE KITONG,"Jl. Imam Bonjol No.56, Fandoi, Kec. Biak Kota, Kabupaten Biak Numfor, Papua 98111","Fandoi, Kec. Biak Kota, Kabupaten Biak Numfor",PAPUA,98111.0,Indonesia,,-11.802.223,1.360.824.899,https://maps.google.com/?cid=0x0:0xc57a1d51c6bd7d53
mall,mall,Piring makan,"RVGR+48, Waroi, Kabupaten Biak Numfor, Papua","Kabupaten Biak Numfor, Papua",PAPUA,,Indonesia,,-11.747.293,1.358.908.421,https://maps.google.com/?cid=0x0:0x2762c6c95dc315a5
mall,mall,Kec. Yendidori,"Kabupaten Biak Numfor, Papua","Kabupaten Biak Numfor, Papua",PAPUA,,Indonesia,,-10.794.994,1.359.610.446,https://maps.google.com/?cid=0x0:0xc481716fd57bbc55
mall,Toko Pakaian,TOKO IKHSAN tersedia pakaian anak dan dewasa,"Dafuar, Pasar darfuar, Kabupaten Biak Numfor, Papua 98156","Pasar darfuar, Kabupaten Biak Numfor",PAPUA,98156.0,Indonesia,,-1.135.209,1.360.636.736,https://maps.google.com/?cid=0x0:0x1dcb7ce8de953751
mall,Toko,Mom Andini collection shop,"R3W7+5WJ, JL. Gunung Nazaret, Yafdas, Kec. Samofa, Kabupaten Biak Numfor, Papua 98113","JL. Gunung Nazaret, Yafdas, Kec. Samofa, Kabupaten Biak Numfor",PAPUA,98113.0,Indonesia,8118111111.0,-1.154.526,1.360.647.716,https://maps.google.com/?cid=0x0:0x99913c8daac0e692
mall,Toko umum,Toko Agape Yafdas,"SD YPK V, Jl. Yafdas No.depan, Yafdas, Samofa, Biak Numfor Regency, Papua 98112","Jl. Yafdas No.depan, Yafdas, Samofa, Biak Numfor Regency",PAPUA,98112.0,Indonesia,81354151818.0,-11.534.604,1.360.706.731,https://maps.google.com/?cid=0x0:0x7e3536fa9b817750
mall,Toko bahan makanan,Toko Artha Graha,"R3JQ+695, Samofa, Kec. Samofa, Kabupaten Biak Numfor, Papua 98111","Samofa, Kec. Samofa, Kabupaten Biak Numfor",PAPUA,98111.0,Indonesia,,-11.694.963,1.360.884.802,https://maps.google.com/?cid=0x0:0xa99a632e5780c18f
mall,Pasar,Dermaga Pasar Ikan Biak,"R37J+JHF, Jl. Imam Bonjol, Kabupaten Biak Numfor, Papua 98111","Jl. Imam Bonjol, Kabupaten Biak Numfor",PAPUA,98111.0,Indonesia,,-11.859.308,1.360.814.362,https://maps.google.com/?cid=0x0:0xbebd23ff4c4fa872
mall,Kantor Pemerintah,Pertokoan Buton Lanal Biak,"R3GC+6FJ, Jl. Sisingamangaraja, Waupnor, Kec. Samofa, Kabupaten Biak Numfor, Papua","Kabupaten Biak Numfor, Papua",PAPUA,,Indonesia,,-11.744.189,1.360.711.271,https://maps.google.com/?cid=0x0:0xa666c025568b14c3
mall,Pasar tradisional,KIOS SAHIDA,"V377+X63, pasar darfuar, Dafuar, Kec. Samofa, Kabupaten Biak Numfor, Papua 98156","pasar darfuar, Dafuar, Kec. Samofa, Kabupaten Biak Numfor",PAPUA,98156.0,Indonesia,,-11.351.077,1.360.630.604,https://maps.google.com/?cid=0x0:0x67db545bc432afb3
mall,Minimarket,"Sadewa Online Shop""""","R3MP+4FX, Samofa, Kec. Samofa, Kabupaten Biak Numfor, Papua 98111","Samofa, Kec. Samofa, Kabupaten Biak Numfor",PAPUA,98111.0,Indonesia,81248540582.0,-1.167.145,136.086.244,https://maps.google.com/?cid=0x0:0x3c4d1ba2b6b8bb67
mall,Toko umum,Cahaya nuriah Gordyn,"R3P8+9W4, Jl. Condronegoro, Samofa, Kec. Samofa, Kabupaten Biak Numfor, Papua 98112","Jl. Condronegoro, Samofa, Kec. Samofa, Kabupaten Biak Numfor",PAPUA,98112.0,Indonesia,81240114554.0,-11.641.072,1.360.673.153,https://maps.google.com/?cid=0x0:0x7505a4775cde815c
mall,Toko,MR.DIY Ruko Raya Bosnik Ambroben (XBRB),"Jl. Raya Bosnik, Ambroben, Kec. Biak Kota, Kabupaten Biak Numfor, Papua 98118","Ambroben, Kec. Biak Kota, Kabupaten Biak Numfor",PAPUA,98118.0,Indonesia,,-11.817.149,1.361.050.262,https://maps.google.com/?cid=0x0:0x5b28e9cb1f6d7c9a
mall,Kantor Pengawas,Mall Pelayanan Publik Kab Biak Numfor,"R3CM+777, Fandoi, Kec. Biak Kota, Kabupaten Biak Numfor, Papua 98111","Fandoi, Kec. Biak Kota, Kabupaten Biak Numfor",PAPUA,98111.0,Indonesia,,-11.793.236,1.360.831.777,https://maps.google.com/?cid=0x0:0xfe36b2b46bcd9403
mall,Pusat Perbelanjaan,Kompleks Penjualan Pakaian Dan Accesories,"R39J+9XR, Fandoi, Kec. Biak Kota, Kabupaten Biak Numfor, Papua 98111","Fandoi, Kec. Biak Kota, Kabupaten Biak Numfor",PAPUA,98111.0,Indonesia,,-11.815.195,1.360.823.911,https://maps.google.com/?cid=0x0:0x715d172294ab9651
mall,mall,Papua 98118,"Kabupaten Biak Numfor, Papua","Kabupaten Biak Numfor, Papua",PAPUA,,Indonesia,,-11.449.556,13.610.403,https://maps.google.com/?cid=0x0:0x25e958740e846491
mall,Toko,Griya Cantik Samofa,"Samofa, Kec. Samofa, Kabupaten Biak Numfor, Papua 98112","Kec. Samofa, Kabupaten Biak Numfor",PAPUA,98112.0,Indonesia,81334548909.0,-11.700.357,1.360.689.109,https://maps.google.com/?cid=0x0:0xeac39446aa5d8823
mall,Toko bahan makanan,Toko Artha Graha,"R3JQ+695, Samofa, Kec. Samofa, Kabupaten Biak Numfor, Papua 98111","Samofa, Kec. Samofa, Kabupaten Biak Numfor",PAPUA,98111.0,Indonesia,,-11.694.963,1.360.884.802,https://maps.google.com/?cid=0x0:0xa99a632e5780c18f
mall,Minimarket,"Sadewa Online Shop""""","R3MP+4FX, Samofa, Kec. Samofa, Kabupaten Biak Numfor, Papua 98111","Samofa, Kec. Samofa, Kabupaten Biak Numfor",PAPUA,98111.0,Indonesia,81248540582.0,-1.167.145,136.086.244,https://maps.google.com/?cid=0x0:0x3c4d1ba2b6b8bb67
mall,Pusat Perbelanjaan,Kios surya,"R3VW+F23, Unnamed Road, Mandouw, Kec. Samofa, Kabupaten Biak Numfor, Papua 98118","Unnamed Road, Mandouw, Kec. Samofa, Kabupaten Biak Numfor",PAPUA,98118.0,Indonesia,81240131977.0,-11.563.629,136.095.037,https://maps.google.com/?cid=0x0:0x5e04dad36c3b57d5
mall,Pusat Perbelanjaan,Kios UFTI JAYA,"R3FH+74Q, Jl. Sisingamangaraja, Samofa, Kec. Samofa, Kabupaten Biak Numfor, Papua 98111","Jl. Sisingamangaraja, Samofa, Kec. Samofa, Kabupaten Biak Numfor",PAPUA,98111.0,Indonesia,85254815597.0,-11.767.804,1.360.778.706,https://maps.google.com/?cid=0x0:0x6294a30713246201
mall,Pasar tradisional,KIOS SAHIDA,"V377+X63, pasar darfuar, Dafuar, Kec. Samofa, Kabupaten Biak Numfor, Papua 98156","pasar darfuar, Dafuar, Kec. Samofa, Kabupaten Biak Numfor",PAPUA,98156.0,Indonesia,,-11.351.077,1.360.630.604,https://maps.google.com/?cid=0x0:0x67db545bc432afb3
mall,Toko,MR.DIY Ruko Raya Bosnik Ambroben (XBRB),"Jl. Raya Bosnik, Ambroben, Kec. Biak Kota, Kabupaten Biak Numfor, Papua 98118","Ambroben, Kec. Biak Kota, Kabupaten Biak Numfor",PAPUA,98118.0,Indonesia,,-11.817.149,1.361.050.262,https://maps.google.com/?cid=0x0:0x5b28e9cb1f6d7c9a
mall,Pangkalan Angkatan Udara,Airforcemart Lanud Manuhua,"R3CP+MFP, Jl. Sisingamangaraja, Samofa, Kec. Samofa, Kabupaten Biak Numfor, Papua 98111","Jl. Sisingamangaraja, Samofa, Kec. Samofa, Kabupaten Biak Numfor",PAPUA,98111.0,Indonesia,81344228882.0,-11.782.791,1.360.861.971,https://maps.google.com/?cid=0x0:0xa3f23a4a4ab90002
mall,Toko umum,Toko Agape Yafdas,"SD YPK V, Jl. Yafdas No.depan, Yafdas, Samofa, Biak Numfor Regency, Papua 98112","Jl. Yafdas No.depan, Yafdas, Samofa, Biak Numfor Regency",PAPUA,98112.0,Indonesia,81354151818.0,-11.534.604,1.360.706.731,https://maps.google.com/?cid=0x0:0x7e3536fa9b817750
mall,Toko Percetakan,Fotocopi SADEWA Production,"R3HP+XP3, S., Jl. Condronegoro, Samofa, Kec. Samofa, Kabupaten Biak Numfor, Papua 98111","S., Jl. Condronegoro, Samofa, Kec. Samofa, Kabupaten Biak Numfor",PAPUA,98111.0,Indonesia,,-11.701.163,1.360.868.081,https://maps.google.com/?cid=0x0:0x1f5fb9760406b550
mall,Kantor Perusahaan,CV. Maju Makmur Group Biak,"Jalan Tanjung Raya 8, Mandouw, Kec. Samofa, Biak, Papua 98118","Mandouw, Kec. Samofa, Biak",PAPUA,98118.0,Indonesia,8118108344.0,-11.621.542,1.360.958.929,https://maps.google.com/?cid=0x0:0x792dec13894c8b7a
mall,Toko Swalayan,IVY SAN,"Karang Mulia, Kec. Samofa, Kabupaten Biak Numfor, Papua 98111","Kec. Samofa, Kabupaten Biak Numfor",PAPUA,98111.0,Indonesia,9818211089.0,-11.783.472,1.360.941.072,https://maps.google.com/?cid=0x0:0x39a765f041b2ba4c
mall,Toko bahan makanan,Toko Mambri Jaya Jalur 2,"R3FR+3F4, Jl. Majapahit, Karang Mulia, Kec. Samofa, Kabupaten Biak Numfor, Papua 98111","Jl. Majapahit, Karang Mulia, Kec. Samofa, Kabupaten Biak Numfor",PAPUA,98111.0,Indonesia,8114801993.0,-11.773.586,1.360.911.977,https://maps.google.com/?cid=0x0:0xaa32664a3a388b2c
mall,mall,Papua 98156,"Kabupaten Biak Numfor, Papua","Kabupaten Biak Numfor, Papua",PAPUA,,Indonesia,,-10.808.865,1.360.372.508,https://maps.google.com/?cid=0x0:0x6d8c17ba7e95fe38
mall,Toko bahan makanan,Toko Artha Graha,"R3JQ+695, Samofa, Kec. Samofa, Kabupaten Biak Numfor, Papua 98111","Samofa, Kec. Samofa, Kabupaten Biak Numfor",PAPUA,98111.0,Indonesia,,-11.694.963,1.360.884.802,https://maps.google.com/?cid=0x0:0xa99a632e5780c18f
mall,Toko,Griya Cantik Samofa,"Samofa, Kec. Samofa, Kabupaten Biak Numfor, Papua 98112","Kec. Samofa, Kabupaten Biak Numfor",PAPUA,98112.0,Indonesia,81334548909.0,-11.700.357,1.360.689.109,https://maps.google.com/?cid=0x0:0xeac39446aa5d8823
mall,Pasar tradisional,KIOS SAHIDA,"V377+X63, pasar darfuar, Dafuar, Kec. Samofa, Kabupaten Biak Numfor, Papua 98156","pasar darfuar, Dafuar, Kec. Samofa, Kabupaten Biak Numfor",PAPUA,98156.0,Indonesia,,-11.351.077,1.360.630.604,https://maps.google.com/?cid=0x0:0x67db545bc432afb3
mall,Minimarket,"Sadewa Online Shop""""","R3MP+4FX, Samofa, Kec. Samofa, Kabupaten Biak Numfor, Papua 98111","Samofa, Kec. Samofa, Kabupaten Biak Numfor",PAPUA,98111.0,Indonesia,81248540582.0,-1.167.145,136.086.244,https://maps.google.com/?cid=0x0:0x3c4d1ba2b6b8bb67
mall,Pusat Perbelanjaan,Kios surya,"R3VW+F23, Unnamed Road, Mandouw, Kec. Samofa, Kabupaten Biak Numfor, Papua 98118","Unnamed Road, Mandouw, Kec. Samofa, Kabupaten Biak Numfor",PAPUA,98118.0,Indonesia,81240131977.0,-11.563.629,136.095.037,https://maps.google.com/?cid=0x0:0x5e04dad36c3b57d5
mall,Pangkalan Angkatan Udara,Airforcemart Lanud Manuhua,"R3CP+MFP, Jl. Sisingamangaraja, Samofa, Kec. Samofa, Kabupaten Biak Numfor, Papua 98111","Jl. Sisingamangaraja, Samofa, Kec. Samofa, Kabupaten Biak Numfor",PAPUA,98111.0,Indonesia,81344228882.0,-11.782.791,1.360.861.971,https://maps.google.com/?cid=0x0:0xa3f23a4a4ab90002
mall,Toko Pakaian,TOKO IKHSAN tersedia pakaian anak dan dewasa,"Dafuar, Pasar darfuar, Kabupaten Biak Numfor, Papua 98156","Pasar darfuar, Kabupaten Biak Numfor",PAPUA,98156.0,Indonesia,,-1.135.209,1.360.636.736,https://maps.google.com/?cid=0x0:0x1dcb7ce8de953751
mall,Toko umum,Toko Agape Yafdas,"SD YPK V, Jl. Yafdas No.depan, Yafdas, Samofa, Biak Numfor Regency, Papua 98112","Jl. Yafdas No.depan, Yafdas, Samofa, Biak Numfor Regency",PAPUA,98112.0,Indonesia,81354151818.0,-11.534.604,1.360.706.731,https://maps.google.com/?cid=0x0:0x7e3536fa9b817750
mall,Pusat Perbelanjaan,Kios UFTI JAYA,"R3FH+74Q, Jl. Sisingamangaraja, Samofa, Kec. Samofa, Kabupaten Biak Numfor, Papua 98111","Jl. Sisingamangaraja, Samofa, Kec. Samofa, Kabupaten Biak Numfor",PAPUA,98111.0,Indonesia,85254815597.0,-11.767.804,1.360.778.706,https://maps.google.com/?cid=0x0:0x6294a30713246201
mall,Toko,Mom Andini collection shop,"R3W7+5WJ, JL. Gunung Nazaret, Yafdas, Kec. Samofa, Kabupaten Biak Numfor, Papua 98113","JL. Gunung Nazaret, Yafdas, Kec. Samofa, Kabupaten Biak Numfor",PAPUA,98113.0,Indonesia,8118111111.0,-1.154.526,1.360.647.716,https://maps.google.com/?cid=0x0:0x99913c8daac0e692
mall,Toko Percetakan,Fotocopi SADEWA Production,"R3HP+XP3, S., Jl. Condronegoro, Samofa, Kec. Samofa, Kabupaten Biak Numfor, Papua 98111","S., Jl. Condronegoro, Samofa, Kec. Samofa, Kabupaten Biak Numfor",PAPUA,98111.0,Indonesia,,-11.701.163,1.360.868.081,https://maps.google.com/?cid=0x0:0x1f5fb9760406b550
mall,Toko umum,Cahaya nuriah Gordyn,"R3P8+9W4, Jl. Condronegoro, Samofa, Kec. Samofa, Kabupaten Biak Numfor, Papua 98112","Jl. Condronegoro, Samofa, Kec. Samofa, Kabupaten Biak Numfor",PAPUA,98112.0,Indonesia,81240114554.0,-11.641.072,1.360.673.153,https://maps.google.com/?cid=0x0:0x7505a4775cde815c
mall,Pusat Perbelanjaan,KIOS FAJAR,"Jl. Sisingamangaraja, Samofa, Kec. Biak Kota, Kabupaten Biak Numfor, Papua 98112","Samofa, Kec. Biak Kota, Kabupaten Biak Numfor",PAPUA,98112.0,Indonesia,81234444452.0,-11.707.648,1.360.670.071,https://maps.google.com/?cid=0x0:0x10097e23b25dd352
mall,mall,Distrik Yawosi,"Kabupaten Biak Numfor, Papua","Kabupaten Biak Numfor, Papua",PAPUA,,Indonesia,,-0.8350919,1.360.182.645,https://maps.google.com/?cid=0x0:0x7439514076bef34
mall,Minimarket,"Sadewa Online Shop""""","R3MP+4FX, Samofa, Kec. Samofa, Kabupaten Biak Numfor, Papua 98111","Samofa, Kec. Samofa, Kabupaten Biak Numfor",PAPUA,98111.0,Indonesia,81248540582.0,-1.167.145,136.086.244,https://maps.google.com/?cid=0x0:0x3c4d1ba2b6b8bb67
mall,Pusat Perbelanjaan,Mall Jayapura,"APO, Jl. Samratulangi, Bayangkara, Kec. Jayapura Utara, Kota Jayapura, Papua 99112","Jl. Samratulangi, Bayangkara, Kec. Jayapura Utara, Kota Jayapura",PAPUA,99112.0,Indonesia,9675150000.0,-25.351.775,1.407.061.874,https://maps.google.com/?cid=0x0:0x54294cb27964023
mall,Pusat Perbelanjaan,Kios surya,"R3VW+F23, Unnamed Road, Mandouw, Kec. Samofa, Kabupaten Biak Numfor, Papua 98118","Unnamed Road, Mandouw, Kec. Samofa, Kabupaten Biak Numfor",PAPUA,98118.0,Indonesia,81240131977.0,-11.563.629,136.095.037,https://maps.google.com/?cid=0x0:0x5e04dad36c3b57d5
mall,Toko,BATU SORY,"Pasar bosnik, BIAK, Kec. Biak Tim., Kabupaten Biak Numfor, Papua 98541","BIAK, Kec. Biak Tim., Kabupaten Biak Numfor",PAPUA,98541.0,Indonesia,82199352635.0,-11.702.676,136.226.495,https://maps.google.com/?cid=0x0:0xc2280aeefbd57d52
mall,Pusat Perbelanjaan,Kios UFTI JAYA,"R3FH+74Q, Jl. Sisingamangaraja, Samofa, Kec. Samofa, Kabupaten Biak Numfor, Papua 98111","Jl. Sisingamangaraja, Samofa, Kec. Samofa, Kabupaten Biak Numfor",PAPUA,98111.0,Indonesia,85254815597.0,-11.767.804,1.360.778.706,https://maps.google.com/?cid=0x0:0x6294a30713246201
mall,Toko Herbal,Juliati (Agen VARASH),"R38M+P63, Jl. Selat Madura, Fandoi, Kec. Biak Kota, Kabupaten Biak Numfor, Papua 98111","Jl. Selat Madura, Fandoi, Kec. Biak Kota, Kabupaten Biak Numfor",PAPUA,98111.0,Indonesia,82399702828.0,-11.832.497,1.360.830.346,https://maps.google.com/?cid=0x0:0x1b34bdc598b6a472
mall,Pusat Perbelanjaan,Mall Jayapura,"APO, Jl. Samratulangi, Bayangkara, Kec. Jayapura Utara, Kota Jayapura, Papua 99112","Jl. Samratulangi, Bayangkara, Kec. Jayapura Utara, Kota Jayapura",PAPUA,99112.0,Indonesia,9675150000.0,-25.351.775,1.407.061.874,https://maps.google.com/?cid=0x0:0x54294cb27964023
mall,mall,Distrik Yawosi,"Kabupaten Biak Numfor, Papua","Kabupaten Biak Numfor, Papua",PAPUA,,Indonesia,,-0.8350919,1.360.182.645,https://maps.google.com/?cid=0x0:0x7439514076bef34
mall,Pusat Perbelanjaan,Kios surya,"R3VW+F23, Unnamed Road, Mandouw, Kec. Samofa, Kabupaten Biak Numfor, Papua 98118","Unnamed Road, Mandouw, Kec. Samofa, Kabupaten Biak Numfor",PAPUA,98118.0,Indonesia,81240131977.0,-11.563.629,136.095.037,https://maps.google.com/?cid=0x0:0x5e04dad36c3b57d5
mall,Toko Herbal,Juliati (Agen VARASH),"R38M+P63, Jl. Selat Madura, Fandoi, Kec. Biak Kota, Kabupaten Biak Numfor, Papua 98111","Jl. Selat Madura, Fandoi, Kec. Biak Kota, Kabupaten Biak Numfor",PAPUA,98111.0,Indonesia,82399702828.0,-11.832.497,1.360.830.346,https://maps.google.com/?cid=0x0:0x1b34bdc598b6a472
mall,Minimarket,"Sadewa Online Shop""""","R3MP+4FX, Samofa, Kec. Samofa, Kabupaten Biak Numfor, Papua 98111","Samofa, Kec. Samofa, Kabupaten Biak Numfor",PAPUA,98111.0,Indonesia,81248540582.0,-1.167.145,136.086.244,https://maps.google.com/?cid=0x0:0x3c4d1ba2b6b8bb67
mall,Tujuan Wisata,Air Terjun Karmon,"5XJH+W3C, Karmon, Distrik Yawosi, Kabupaten Biak Numfor, Papua 98157","Karmon, Distrik Yawosi, Kabupaten Biak Numfor",PAPUA,98157.0,Indonesia,,-0.817699,1.359.776.286,https://maps.google.com/?cid=0x0:0x7c2d07e2965fe475
mall,mall,Napebo Kios,"32WP+G8, Andei, Distrik Andey, Kabupaten Biak Numfor, Papua","Kabupaten Biak Numfor, Papua",PAPUA,,Indonesia,,-0.9036846,1.360.358.422,https://maps.google.com/?cid=0x0:0xfb2a8636431827bb
mall,mall,Napebo Kios,"32WP+G8, Andei, Distrik Andey, Kabupaten Biak Numfor, Papua","Kabupaten Biak Numfor, Papua",PAPUA,,Indonesia,,-0.9036846,1.360.358.422,https://maps.google.com/?cid=0x0:0xfb2a8636431827bb
mall,mall,Papua 98157,"Kabupaten Biak Numfor, Papua","Kabupaten Biak Numfor, Papua",PAPUA,,Indonesia,,-0.8013579,1.358.849.587,https://maps.google.com/?cid=0x0:0xc4bb574f645569e5
mall,Minimarket,"Sadewa Online Shop""""","R3MP+4FX, Samofa, Kec. Samofa, Kabupaten Biak Numfor, Papua 98111","Samofa, Kec. Samofa, Kabupaten Biak Numfor",PAPUA,98111.0,Indonesia,81248540582.0,-1.167.145,136.086.244,https://maps.google.com/?cid=0x0:0x3c4d1ba2b6b8bb67
mall,mall,Papua 98154,"Kabupaten Biak Numfor, Papua","Kabupaten Biak Numfor, Papua",PAPUA,,Indonesia,,-0.9529483,1.358.659.561,https://maps.google.com/?cid=0x0:0x7baacb17c171a3e7
mall,Kantor Pemerintah Distrik,Karang Taruna Desa Duber Distrik Supiori Timur,"6P9Q+45C, Duber, Kec. Supiori Tim., Kabupaten Supiori, Papua 98154","Duber, Kec. Supiori Tim., Kabupaten Supiori",PAPUA,98154.0,Indonesia,82398518887.0,-0.7821922,1.357.378.854,https://maps.google.com/?cid=0x0:0x82b434b00a24369c
mall,Kantor Pengawas,Mall Pelayanan Publik Kab Biak Numfor,"R3CM+777, Fandoi, Kec. Biak Kota, Kabupaten Biak Numfor, Papua 98111","Fandoi, Kec. Biak Kota, Kabupaten Biak Numfor",PAPUA,98111.0,Indonesia,,-11.793.236,1.360.831.777,https://maps.google.com/?cid=0x0:0xfe36b2b46bcd9403
mall,Kios,Pasar Sentral Kab. Supiori,"6PVG+MHF, Jalan Marsram, Marsram, Kec. Supiori Tim., Kabupaten Supiori, Papua 98161","Jalan Marsram, Marsram, Kec. Supiori Tim., Kabupaten Supiori",PAPUA,98161.0,Indonesia,,-0.7558249,1.357.264.099,https://maps.google.com/?cid=0x0:0x92f1db765f2aa90c
mall,Pusat Perbelanjaan,Mall Jayapura,"APO, Jl. Samratulangi, Bayangkara, Kec. Jayapura Utara, Kota Jayapura, Papua 99112","Jl. Samratulangi, Bayangkara, Kec. Jayapura Utara, Kota Jayapura",PAPUA,99112.0,Indonesia,9675150000.0,-25.351.775,1.407.061.874,https://maps.google.com/?cid=0x0:0x54294cb27964023
mall,Toko,Kios Marsram,"Marsram, Kec. Supiori Tim., Kabupaten Supiori, Papua 98161","Kec. Supiori Tim., Kabupaten Supiori",PAPUA,98161.0,Indonesia,82185252226.0,-0.7928575,1.357.024.244,https://maps.google.com/?cid=0x0:0xa62dea9e8a9fdd12
mall,Toko Swalayan,Hadi Supermarket  Dept. Store,"Jl. Imam Bonjol No.56, Fandoi, Kec. Biak Kota, Kabupaten Biak Numfor, Papua 98111","Fandoi, Kec. Biak Kota, Kabupaten Biak Numfor",PAPUA,98111.0,Indonesia,,-11.800.003,1.360.824.788,https://maps.google.com/?cid=0x0:0xdcad74b4384219ee
mall,Supermarket Diskon,Hadi Mart,"Sorendidori, Kec. Supiori Tim., Kabupaten Supiori, Papua 98161","Kec. Supiori Tim., Kabupaten Supiori",PAPUA,98161.0,Indonesia,,-0.7341066,1.357.372.672,https://maps.google.com/?cid=0x0:0xc8c5179862354ce1
mall,Pos Penjaga Pantai,Pasar Bosnik,"R6HG+QWQ, Tim.,, Woniki, Kec. Biak Tim., Kabupaten Biak Numfor, Papua 98152","Tim.,, Woniki, Kec. Biak Tim., Kabupaten Biak Numfor",PAPUA,98152.0,Indonesia,,-11.705.486,1.362.273.467,https://maps.google.com/?cid=0x0:0xd2f65d4e91efbc8e
mall,Tujuan Wisata,Air Terjun Karmon,"5XJH+W3C, Karmon, Distrik Yawosi, Kabupaten Biak Numfor, Papua 98157","Karmon, Distrik Yawosi, Kabupaten Biak Numfor",PAPUA,98157.0,Indonesia,,-0.817699,1.359.776.286,https://maps.google.com/?cid=0x0:0x7c2d07e2965fe475
mall,Toko Swalayan,Hadi Express Samofa,"R3MJ+63F, Jl. Condronegoro No.4, Samofa, Kec. Samofa, Kabupaten Biak Numfor, Papua 98111","Jl. Condronegoro No.4, Samofa, Kec. Samofa, Kabupaten Biak Numfor",PAPUA,98111.0,Indonesia,,-11.670.698,1.360.803.624,https://maps.google.com/?cid=0x0:0xfabd11da3885eb69
mall,Pusat Perbelanjaan,Kios jaya'ma,"4JXC+87X, Maryaidori, Kec. Supiori Sel., Kabupaten Supiori, Papua 98161","Maryaidori, Kec. Supiori Sel., Kabupaten Supiori",PAPUA,98161.0,Indonesia,,-0.852088,1.356.212.486,https://maps.google.com/?cid=0x0:0xb785cc9bda3696d5
mall,China,KFC Hadi Biak,"Hadi Biak, Jl. Imam Bonjol No.56, Fandoi, Biak Kota, Biak Numfor Regency, Papua 98111","Jl. Imam Bonjol No.56, Fandoi, Biak Kota, Biak Numfor Regency",PAPUA,98111.0,Indonesia,14022.0,-11.798.528,1.360.826.014,https://maps.google.com/?cid=0x0:0x35f9bfcf5c693c92
mall,Pusat Perbelanjaan,Mall Jayapura,"APO, Jl. Samratulangi, Bayangkara, Kec. Jayapura Utara, Kota Jayapura, Papua 99112","Jl. Samratulangi, Bayangkara, Kec. Jayapura Utara, Kota Jayapura",PAPUA,99112.0,Indonesia,9675150000.0,-25.351.775,1.407.061.874,https://maps.google.com/?cid=0x0:0x54294cb27964023
mall,mall,Papua 98171,Papua,Papua,PAPUA,,Indonesia,,-3.160.225,1.346.630.541,https://maps.google.com/?cid=0x0:0xcf85a6c0ad6b9347
mall,mall,inggrid rumkabu,"perum btn ridge 1, Kabupaten Biak Numfor, Papua","Kabupaten Biak Numfor, Papua",PAPUA,,Indonesia,,-11.541.831,1.360.762.183,https://maps.google.com/?cid=0x0:0x4b2bced93dd10433
mall,Kantor Pengawas,Mall Pelayanan Publik Kab Biak Numfor,"R3CM+777, Fandoi, Kec. Biak Kota, Kabupaten Biak Numfor, Papua 98111","Fandoi, Kec. Biak Kota, Kabupaten Biak Numfor",PAPUA,98111.0,Indonesia,,-11.793.236,1.360.831.777,https://maps.google.com/?cid=0x0:0xfe36b2b46bcd9403
mall,Toko Herbal,Juliati (Agen VARASH),"R38M+P63, Jl. Selat Madura, Fandoi, Kec. Biak Kota, Kabupaten Biak Numfor, Papua 98111","Jl. Selat Madura, Fandoi, Kec. Biak Kota, Kabupaten Biak Numfor",PAPUA,98111.0,Indonesia,82399702828.0,-11.832.497,1.360.830.346,https://maps.google.com/?cid=0x0:0x1b34bdc598b6a472
mall,mall,Rumah Queen,"3W33+PW, Andei, Distrik Poiru, Kabupaten Biak Numfor, Papua 98171","Andei, Distrik Poiru, Kabupaten Biak Numfor",PAPUA,98171.0,Indonesia,,-0.9460365,134.904.514,https://maps.google.com/?cid=0x0:0x6de175b77fd80d14
mall,mall,Papua 98172,"Kabupaten Biak Numfor, Papua","Kabupaten Biak Numfor, Papua",PAPUA,,Indonesia,,-10.910.129,1.349.066.503,https://maps.google.com/?cid=0x0:0x961f86bb7868e68d
mall,Pusat Perbelanjaan,Mall Jayapura,"APO, Jl. Samratulangi, Bayangkara, Kec. Jayapura Utara, Kota Jayapura, Papua 99112","Jl. Samratulangi, Bayangkara, Kec. Jayapura Utara, Kota Jayapura",PAPUA,99112.0,Indonesia,9675150000.0,-25.351.775,1.407.061.874,https://maps.google.com/?cid=0x0:0x54294cb27964023
mall,mall,Distrik Poiru,"Kabupaten Biak Numfor, Papua","Kabupaten Biak Numfor, Papua",PAPUA,,Indonesia,,-0.9700197,1.349.424.126,https://maps.google.com/?cid=0x0:0xaa1a5134d7f11a74
mall,mall,Rumah Queen,"3W33+PW, Andei, Distrik Poiru, Kabupaten Biak Numfor, Papua 98171","Andei, Distrik Poiru, Kabupaten Biak Numfor",PAPUA,98171.0,Indonesia,,-0.9460365,134.904.514,https://maps.google.com/?cid=0x0:0x6de175b77fd80d14
mall,Pusat Perbelanjaan,Mall Jayapura,"APO, Jl. Samratulangi, Bayangkara, Kec. Jayapura Utara, Kota Jayapura, Papua 99112","Jl. Samratulangi, Bayangkara, Kec. Jayapura Utara, Kota Jayapura",PAPUA,99112.0,Indonesia,9675150000.0,-25.351.775,1.407.061.874,https://maps.google.com/?cid=0x0:0x54294cb27964023
mall,Pusat Perbelanjaan,Mall Of Indonesia,"Jl. Boulevard Bar. Raya No.12, RT.18/RW.19, Klp. Gading Bar., Kec. Klp. Gading, Jkt Utara, Daerah Khusus Ibukota Jakarta 14240","RT.18/RW.19, Klp. Gading Bar., Kec. Klp. Gading, Jkt Utara",PAPUA,14240.0,Indonesia,2145867888.0,-61.514.549,1.068.918.949,https://maps.google.com/?cid=0x0:0x3431c7aaadd1f1b6
mall,Mi,BAKMI AYAM HONEY,"RVXR+WFH, Jl. Boulevard Bar. Raya, RT.18/RW.8, Klp. Gading Bar., Kec. Klp. Gading, Jkt Utara, Daerah Khusus Ibukota Jakarta 14240","Jl. Boulevard Bar. Raya, RT.18/RW.8, Klp. Gading Bar., Kec. Klp. Gading, Jkt Utara",PAPUA,14240.0,Indonesia,2124521987.0,-61.501.981,1.068.912.349,https://maps.google.com/?cid=0x0:0x408854199cbd835b
mall,Pusat Perbelanjaan,Moi,"Klp. Gading Trade Centre, Jl. Pulau Putri No.2 2, RT.2/RW.9, Klp. Gading Bar., Kec. Klp. Gading, Jkt Utara, Daerah Khusus Ibukota Jakarta 14240","Jl. Pulau Putri No.2 2, RT.2/RW.9, Klp. Gading Bar., Kec. Klp. Gading, Jkt Utara",PAPUA,14240.0,Indonesia,,-61.508.529,1.068.921.366,https://maps.google.com/?cid=0x0:0xbfa0759132a66681
mall,Toko Ponsel,Samsung Service Center MOI,"Mall Of Indonesia, HATI HATI PENIPUAN MENGATASNAMAKAN SAMSUNG SERVICE CENTER, TIDAK MENERIMA PEMBAYARAN DP MELALUI TRANSFER, Jl. Boulevard Bar. Raya Lt. 2 No. A1, RT.18/RW.8, Jkt Utara, Daerah Khusus Ibukota Jakarta 14240","HATI HATI PENIPUAN MENGATASNAMAKAN SAMSUNG SERVICE CENTER, TIDAK MENERIMA PEMBAYARAN DP MELALUI TRANSFER, Jl. Boulevard Bar. Raya Lt. 2 No. A1, RT.18/RW.8, Jkt Utara",PAPUA,14240.0,Indonesia,8001128888.0,-61.506.741,1.068.908.571,https://maps.google.com/?cid=0x0:0xf9ffd563ffc48382
mall,China,Din Tai Fung,"Mall Of Indonesia, Jl. Boulevard Bar. Raya ground floor, West Kelapa Gading, Square, North Jakarta City, Jakarta 14240","Jl. Boulevard Bar. Raya ground floor, West Kelapa Gading, Square, North Jakarta City",PAPUA,14240.0,Indonesia,2145868001.0,-61.506.741,1.068.908.571,https://maps.google.com/?cid=0x0:0x3fe132ac0363f566
mall,Pusat Perbelanjaan,MOI Kelapa Gading,"Mall Of Indonesia, Jl. Boulevard Bar. Raya Lt. 2, RT.18/RW.8, Klp. Gading Bar., Kec. Klp. Gading, Jkt Utara, Daerah Khusus Ibukota Jakarta 14240","Jl. Boulevard Bar. Raya Lt. 2, RT.18/RW.8, Klp. Gading Bar., Kec. Klp. Gading, Jkt Utara",PAPUA,14240.0,Indonesia,81217393609.0,-61.506.741,1.068.908.571,https://maps.google.com/?cid=0x0:0x11e13e124ce7f530
mall,mall,Distrik Aimando Padaido,"Kabupaten Biak Numfor, Papua","Kabupaten Biak Numfor, Papua",PAPUA,,Indonesia,,-12.143.849,1.365.981.595,https://maps.google.com/?cid=0x0:0x7b5c29938f349564
mall,Toko,BATU SORY,"Pasar bosnik, BIAK, Kec. Biak Tim., Kabupaten Biak Numfor, Papua 98541","BIAK, Kec. Biak Tim., Kabupaten Biak Numfor",PAPUA,98541.0,Indonesia,82199352635.0,-11.702.676,136.226.495,https://maps.google.com/?cid=0x0:0xc2280aeefbd57d52
mall,Pusat Perbelanjaan,Kios batusory,"R6H8+RR, Orwer, Yenberok, Kabupaten Biak Numfor, Papua","Kabupaten Biak Numfor, Papua",PAPUA,,Indonesia,,-11.704.138,1.362.172.901,https://maps.google.com/?cid=0x0:0x993394fb02041756
mall,Gereja,GKI Karmel Bosnik Klasis Biak Timur,"R6JG+2RH, Woniki, Kec. Biak Tim., Kabupaten Biak Numfor, Papua 98152","Woniki, Kec. Biak Tim., Kabupaten Biak Numfor",PAPUA,98152.0,Indonesia,,-11.699.271,1.362.271.083,https://maps.google.com/?cid=0x0:0x6e5642d914337144
mall,Toko bahan makanan,KIOS RESTU KITA,"R3CR+GGV, Unnamed Road, Mandala, Kec. Biak Kota, Kabupaten Biak Numfor, Papua 98111","Unnamed Road, Mandala, Kec. Biak Kota, Kabupaten Biak Numfor",PAPUA,98111.0,Indonesia,82247796502.0,-11.786.494,1.360.912.876,https://maps.google.com/?cid=0x0:0xf5ff7cec3cf6e707
mall,Pos Penjaga Pantai,Pasar Bosnik,"R6HG+QWQ, Tim.,, Woniki, Kec. Biak Tim., Kabupaten Biak Numfor, Papua 98152","Tim.,, Woniki, Kec. Biak Tim., Kabupaten Biak Numfor",PAPUA,98152.0,Indonesia,,-11.705.486,1.362.273.467,https://maps.google.com/?cid=0x0:0xd2f65d4e91efbc8e
mall,Pusat Perbelanjaan,Kandang Reff,"Jl. Raya Dolog No.31, Mandala, Kec. Biak Kota, Kabupaten Biak Numfor, Papua 98111","Mandala, Kec. Biak Kota, Kabupaten Biak Numfor",PAPUA,98111.0,Indonesia,81248042493.0,-11.806.327,1.360.942.074,https://maps.google.com/?cid=0x0:0x75fbdb41cc242e30
mall,Pusat Perbelanjaan,Archie Shop Biak,"Jl. Condronegoro, Samofa, Komplex Tkbm, Kabupaten Biak Numfor, Papua 98551","Samofa, Komplex Tkbm, Kabupaten Biak Numfor",PAPUA,98551.0,Indonesia,81240167650.0,-11.646.814,136.078.207,https://maps.google.com/?cid=0x0:0x8d39159a50b519f1
mall,mall,Bondifuar,"Sansundi, Kabupaten Biak Numfor, Papua","Kabupaten Biak Numfor, Papua",PAPUA,,Indonesia,,-0.690129,1.358.185.211,https://maps.google.com/?cid=0x0:0x425bf86d4ccf74c7
mall,Kantor Pengawas,Mall Pelayanan Publik Kab Biak Numfor,"R3CM+777, Fandoi, Kec. Biak Kota, Kabupaten Biak Numfor, Papua 98111","Fandoi, Kec. Biak Kota, Kabupaten Biak Numfor",PAPUA,98111.0,Indonesia,,-11.793.236,1.360.831.777,https://maps.google.com/?cid=0x0:0xfe36b2b46bcd9403
mall,mall,inggrid rumkabu,"perum btn ridge 1, Kabupaten Biak Numfor, Papua","Kabupaten Biak Numfor, Papua",PAPUA,,Indonesia,,-11.541.831,1.360.762.183,https://maps.google.com/?cid=0x0:0x4b2bced93dd10433
mall,Kantor Polisi,Polres Biak Numfor,"Jl. Pangeran Diponegoro, Burokub, Kec. Biak Kota, Kabupaten Biak Numfor, Papua 98112","Burokub, Kec. Biak Kota, Kabupaten Biak Numfor",PAPUA,98112.0,Indonesia,98121810.0,-11.817.323,136.079.688,https://maps.google.com/?cid=0x0:0x43f1cab3baf9f761
mall,Toko Swalayan,Hadi Supermarket  Dept. Store,"Jl. Imam Bonjol No.56, Fandoi, Kec. Biak Kota, Kabupaten Biak Numfor, Papua 98111","Fandoi, Kec. Biak Kota, Kabupaten Biak Numfor",PAPUA,98111.0,Indonesia,,-11.800.003,1.360.824.788,https://maps.google.com/?cid=0x0:0xdcad74b4384219ee
mall,Toko,Hadi Express Airlangga,"R39G+W65, Jl. Erlangga, Waupnor, Kec. Biak Kota, Kabupaten Biak Numfor, Papua 98111","Jl. Erlangga, Waupnor, Kec. Biak Kota, Kabupaten Biak Numfor",PAPUA,98111.0,Indonesia,,-11.802.404,1.360.756.212,https://maps.google.com/?cid=0x0:0xd262eee2223025ae
mall,Kedai Kopi,KOFFIE KITONG,"Jl. Imam Bonjol No.56, Fandoi, Kec. Biak Kota, Kabupaten Biak Numfor, Papua 98111","Fandoi, Kec. Biak Kota, Kabupaten Biak Numfor",PAPUA,98111.0,Indonesia,,-11.802.223,1.360.824.899,https://maps.google.com/?cid=0x0:0xc57a1d51c6bd7d53
supermarket,Toko Swalayan,Hadi Supermarket  Dept. Store,"Jl. Imam Bonjol No.56, Fandoi, Kec. Biak Kota, Kabupaten Biak Numfor, Papua 98111","Fandoi, Kec. Biak Kota, Kabupaten Biak Numfor",PAPUA,98111.0,Indonesia,,-11.800.003,1.360.824.788,https://maps.google.com/?cid=0x0:0xdcad74b4384219ee
supermarket,supermarket,Papua 98111,"Kabupaten Biak Numfor, Papua","Kabupaten Biak Numfor, Papua",PAPUA,,Indonesia,,-11.761.491,1.360.897.124,https://maps.google.com/?cid=0x0:0x2a08da43231bb9ff
supermarket,Toko Swalayan,IVY SAN,"Karang Mulia, Kec. Samofa, Kabupaten Biak Numfor, Papua 98111","Kec. Samofa, Kabupaten Biak Numfor",PAPUA,98111.0,Indonesia,9818211089.0,-11.783.472,1.360.941.072,https://maps.google.com/?cid=0x0:0x39a765f041b2ba4c
supermarket,Toko Swalayan,Swalayan Senyum 5000,"Fandoi, Kec. Biak Kota, Kabupaten Biak Numfor, Papua 98111","Kec. Biak Kota, Kabupaten Biak Numfor",PAPUA,98111.0,Indonesia,,-11.789.891,1.360.835.474,https://maps.google.com/?cid=0x0:0xae749dec19901478
supermarket,Toko bahan makanan,Toko USTA(2),"Jl. Selayar No.78, Saramom, Kec. Biak Kota, Kabupaten Biak Numfor, Papua 98111","Saramom, Kec. Biak Kota, Kabupaten Biak Numfor",PAPUA,98111.0,Indonesia,,-11.799.685,136.074.836,https://maps.google.com/?cid=0x0:0x139009b3bc808149
supermarket,Minimarket,Toko Felix,"R3CV+P2J, Jl. Raya Bosnik, Karang Mulia, Kec. Samofa, Kabupaten Biak Numfor, Papua 98111","Jl. Raya Bosnik, Karang Mulia, Kec. Samofa, Kabupaten Biak Numfor",PAPUA,98111.0,Indonesia,,-11.781.564,1.360.925.251,https://maps.google.com/?cid=0x0:0x6dd23370a5ea8a3c
supermarket,Pusat Perbelanjaan,JUSMA MART,"Jl. Sriwijaya No.20, Yafdas, Kec. Samofa, Kabupaten Biak Numfor, Papua 98112","Yafdas, Kec. Samofa, Kabupaten Biak Numfor",PAPUA,98112.0,Indonesia,85822948637.0,-11.574.561,136.071.629,https://maps.google.com/?cid=0x0:0xdb6b4facb003d470
supermarket,Toko bahan makanan,Kios Ablager,"R37Q+9P6 kompleks, Jl. Jend. Ahmad Yani Jl. Yenures, Mandala, Kec. Biak Kota, Kabupaten Biak Numfor, Papua 98111","Jl. Jend. Ahmad Yani Jl. Yenures, Mandala, Kec. Biak Kota, Kabupaten Biak Numfor",PAPUA,98111.0,Indonesia,,-1.186.599,136.089.275,https://maps.google.com/?cid=0x0:0x9546203c2a36b79b
supermarket,Toko Swalayan,Kios Avatar,"R3FW+35X, Karang Mulia, Kec. Samofa, Kabupaten Biak Numfor, Papua 98111","Karang Mulia, Kec. Samofa, Kabupaten Biak Numfor",PAPUA,98111.0,Indonesia,,-11.772.621,1.360.954.785,https://maps.google.com/?cid=0x0:0xcce64b44eafab40b
supermarket,Toko bahan makanan,Toko Harmoni,"R38F+VPH, Jl. Erlangga No.12, Waupnor, Kec. Biak Kota, Kabupaten Biak Numfor, Papua 98111","Jl. Erlangga No.12, Waupnor, Kec. Biak Kota, Kabupaten Biak Numfor",PAPUA,98111.0,Indonesia,85244221995.0,-11.828.054,1.360.745.771,https://maps.google.com/?cid=0x0:0x30c5bdd9d76597b0
supermarket,Toko bahan makanan,Kios Fajar Esa,"Fandoi, Kec. Biak Kota, Kabupaten Biak Numfor, Papua 98111","Kec. Biak Kota, Kabupaten Biak Numfor",PAPUA,98111.0,Indonesia,81343334804.0,-11.855.646,1.360.814.275,https://maps.google.com/?cid=0x0:0x7d67e1704959e0c0
supermarket,Toko bahan makanan,Toko Garuda,"Jalan Sedap Malam, Burokub, Kec. Biak Kota, Kabupaten Biak Numfor, Papua 98111","Burokub, Kec. Biak Kota, Kabupaten Biak Numfor",PAPUA,98111.0,Indonesia,,-11.822.725,1.360.785.148,https://maps.google.com/?cid=0x0:0xbd875a1f45a2f34
supermarket,Toko bahan makanan,K Mart,"Jl. Imam Bonjol No.5, Fandoi, Kec. Biak Kota, Kabupaten Biak Numfor, Papua 98111","Fandoi, Kec. Biak Kota, Kabupaten Biak Numfor",PAPUA,98111.0,Indonesia,81344919525.0,-11.836.947,1.360.819.066,https://maps.google.com/?cid=0x0:0xbb7ea430c4bdad88
supermarket,Toko bahan makanan,Toko Matoa Agen Varash Biak Papua,"R3MJ+3C9, Jl. Bronco, Samofa, Kec. Samofa, Kabupaten Biak Numfor, Papua 98111","Jl. Bronco, Samofa, Kec. Samofa, Kabupaten Biak Numfor",PAPUA,98111.0,Indonesia,81342842268.0,-11.673.456,1.360.811.092,https://maps.google.com/?cid=0x0:0xdf334515ec3b4990
supermarket,supermarket,Papua 98112,"Kabupaten Biak Numfor, Papua","Kabupaten Biak Numfor, Papua",PAPUA,,Indonesia,,-11.704.798,136.068.244,https://maps.google.com/?cid=0x0:0x36b6ebf6f8a4c3c6
supermarket,Pusat Perbelanjaan,JUSMA MART,"Jl. Sriwijaya No.20, Yafdas, Kec. Samofa, Kabupaten Biak Numfor, Papua 98112","Yafdas, Kec. Samofa, Kabupaten Biak Numfor",PAPUA,98112.0,Indonesia,85822948637.0,-11.574.561,136.071.629,https://maps.google.com/?cid=0x0:0xdb6b4facb003d470
supermarket,Toko Swalayan,Hadi Supermarket  Dept. Store,"Jl. Imam Bonjol No.56, Fandoi, Kec. Biak Kota, Kabupaten Biak Numfor, Papua 98111","Fandoi, Kec. Biak Kota, Kabupaten Biak Numfor",PAPUA,98111.0,Indonesia,,-11.800.003,1.360.824.788,https://maps.google.com/?cid=0x0:0xdcad74b4384219ee
supermarket,Toko Swalayan,Swalayan Senyum 5000,"Fandoi, Kec. Biak Kota, Kabupaten Biak Numfor, Papua 98111","Kec. Biak Kota, Kabupaten Biak Numfor",PAPUA,98111.0,Indonesia,,-11.789.891,1.360.835.474,https://maps.google.com/?cid=0x0:0xae749dec19901478
supermarket,Toko Swalayan,Toko Grace Sejahtera,"R3PC+FRR, Samofa, Kec. Samofa, Kabupaten Biak Numfor, Papua 98112","Samofa, Kec. Samofa, Kabupaten Biak Numfor",PAPUA,98112.0,Indonesia,,-11.637.613,1.360.720.193,https://maps.google.com/?cid=0x0:0x25f52afb393e132
supermarket,Toko bahan makanan,Toko USTA(2),"Jl. Selayar No.78, Saramom, Kec. Biak Kota, Kabupaten Biak Numfor, Papua 98111","Saramom, Kec. Biak Kota, Kabupaten Biak Numfor",PAPUA,98111.0,Indonesia,,-11.799.685,136.074.836,https://maps.google.com/?cid=0x0:0x139009b3bc808149
supermarket,Toko bahan makanan,Toko Harmoni,"R38F+VPH, Jl. Erlangga No.12, Waupnor, Kec. Biak Kota, Kabupaten Biak Numfor, Papua 98111","Jl. Erlangga No.12, Waupnor, Kec. Biak Kota, Kabupaten Biak Numfor",PAPUA,98111.0,Indonesia,85244221995.0,-11.828.054,1.360.745.771,https://maps.google.com/?cid=0x0:0x30c5bdd9d76597b0
supermarket,Minimarket,Toko Selaras,"R3M8+XWV, Jl. Sujarwo Condronegoro, Samofa, Kec. Samofa, Kabupaten Biak Numfor, Papua 98112","Jl. Sujarwo Condronegoro, Samofa, Kec. Samofa, Kabupaten Biak Numfor",PAPUA,98112.0,Indonesia,,-116.424,1.360.674.665,https://maps.google.com/?cid=0x0:0x3f55672f7f234ac0
supermarket,Toko bahan makanan,Kios Sinar Wahyu Yafdas,"R3R9+7CV, Unnamed Road, Sorido, Yafdas, Kec. Biak Kota, Kabupaten Biak Numfor, Papua 98112","Unnamed Road, Sorido, Yafdas, Kec. Biak Kota, Kabupaten Biak Numfor",PAPUA,98112.0,Indonesia,,-11.592.588,1.360.685.585,https://maps.google.com/?cid=0x0:0x90dead6ac7b09b78
supermarket,Pusat Perbelanjaan,MR DIY Biak Numfor,"Sorido, Kec. Biak Kota, Kabupaten Biak Numfor, Papua","Kabupaten Biak Numfor, Papua",PAPUA,,Indonesia,,-11.661.252,1.360.662.911,https://maps.google.com/?cid=0x0:0x9793d0784d7510b3
supermarket,Toko bahan makanan,Toko Matoa Agen Varash Biak Papua,"R3MJ+3C9, Jl. Bronco, Samofa, Kec. Samofa, Kabupaten Biak Numfor, Papua 98111","Jl. Bronco, Samofa, Kec. Samofa, Kabupaten Biak Numfor",PAPUA,98111.0,Indonesia,81342842268.0,-11.673.456,1.360.811.092,https://maps.google.com/?cid=0x0:0xdf334515ec3b4990
supermarket,Toko bahan makanan,Kios Tiga Putry,"R3M7+4RX, Jl. Sisingamangaraja, Sorido, Kec. Biak Kota, Kabupaten Biak Numfor, Papua 98112","Jl. Sisingamangaraja, Sorido, Kec. Biak Kota, Kabupaten Biak Numfor",PAPUA,98112.0,Indonesia,81344004109.0,-11.671.458,1.360.646.034,https://maps.google.com/?cid=0x0:0xd62423bf4d0d455f
supermarket,Toko Roti,ARU BAKERY BIAK,"Jl. Sam Ratulangi No.290, Burokub, Kec. Biak Kota, Kabupaten Biak Numfor, Papua 98113","Burokub, Kec. Biak Kota, Kabupaten Biak Numfor",PAPUA,98113.0,Indonesia,85231145494.0,-11.801.067,1.360.765.341,https://maps.google.com/?cid=0x0:0x271825355f10283
supermarket,Toko bahan makanan,Toko Garuda,"Jalan Sedap Malam, Burokub, Kec. Biak Kota, Kabupaten Biak Numfor, Papua 98111","Burokub, Kec. Biak Kota, Kabupaten Biak Numfor",PAPUA,98111.0,Indonesia,,-11.822.725,1.360.785.148,https://maps.google.com/?cid=0x0:0xbd875a1f45a2f34
supermarket,supermarket,Papua 98113,"Kabupaten Biak Numfor, Papua","Kabupaten Biak Numfor, Papua",PAPUA,,Indonesia,,-115.291,1.360.634.745,https://maps.google.com/?cid=0x0:0xb1fa8f2f87b90209
supermarket,Pusat Perbelanjaan,JUSMA MART,"Jl. Sriwijaya No.20, Yafdas, Kec. Samofa, Kabupaten Biak Numfor, Papua 98112","Yafdas, Kec. Samofa, Kabupaten Biak Numfor",PAPUA,98112.0,Indonesia,85822948637.0,-11.574.561,136.071.629,https://maps.google.com/?cid=0x0:0xdb6b4facb003d470
supermarket,Toko Swalayan,Toko Grace Sejahtera,"R3PC+FRR, Samofa, Kec. Samofa, Kabupaten Biak Numfor, Papua 98112","Samofa, Kec. Samofa, Kabupaten Biak Numfor",PAPUA,98112.0,Indonesia,,-11.637.613,1.360.720.193,https://maps.google.com/?cid=0x0:0x25f52afb393e132
supermarket,Toko Swalayan,Hadi Supermarket  Dept. Store,"Jl. Imam Bonjol No.56, Fandoi, Kec. Biak Kota, Kabupaten Biak Numfor, Papua 98111","Fandoi, Kec. Biak Kota, Kabupaten Biak Numfor",PAPUA,98111.0,Indonesia,,-11.800.003,1.360.824.788,https://maps.google.com/?cid=0x0:0xdcad74b4384219ee
supermarket,Pusat Perbelanjaan,MR DIY Biak Numfor,"Sorido, Kec. Biak Kota, Kabupaten Biak Numfor, Papua","Kabupaten Biak Numfor, Papua",PAPUA,,Indonesia,,-11.661.252,1.360.662.911,https://maps.google.com/?cid=0x0:0x9793d0784d7510b3
supermarket,Toko,Toko Surya Jaya,"V387+2MQ, Dafuar, Kec. Samofa, Kabupaten Biak Numfor, Papua 98156","Dafuar, Kec. Samofa, Kabupaten Biak Numfor",PAPUA,98156.0,Indonesia,,-11.349.133,1.360.642.458,https://maps.google.com/?cid=0x0:0xc6cf750d68103c18
supermarket,Minimarket,Toko Selaras,"R3M8+XWV, Jl. Sujarwo Condronegoro, Samofa, Kec. Samofa, Kabupaten Biak Numfor, Papua 98112","Jl. Sujarwo Condronegoro, Samofa, Kec. Samofa, Kabupaten Biak Numfor",PAPUA,98112.0,Indonesia,,-116.424,1.360.674.665,https://maps.google.com/?cid=0x0:0x3f55672f7f234ac0
supermarket,Toko Makanan Organik,Sinaan Oleh oleh Biak/Aulia Home Industry,"Sorido, Kec. Biak Kota, Kabupaten Biak Numfor, Papua 98113","Kec. Biak Kota, Kabupaten Biak Numfor",PAPUA,98113.0,Indonesia,81240479999.0,-11.661.638,1.360.665.645,https://maps.google.com/?cid=0x0:0x9b99bdd66ca8a6e5
supermarket,Toko bahan makanan,TOKO BERKAH JAYA,"Jl. Raya Sorido, Inggiri, Kec. Biak Kota, Kabupaten Biak Numfor, Papua 98115","Inggiri, Kec. Biak Kota, Kabupaten Biak Numfor",PAPUA,98115.0,Indonesia,,-11.521.232,1.360.471.777,https://maps.google.com/?cid=0x0:0x60d38864e7780a6c
supermarket,Paket Makanan Pokok,Kios Cahaya Baru,"R3Q5+9RG, Sorido, Kec. Biak Kota, Kabupaten Biak Numfor, Papua 98113","Sorido, Kec. Biak Kota, Kabupaten Biak Numfor",PAPUA,98113.0,Indonesia,,-11.615.613,1.360.595.923,https://maps.google.com/?cid=0x0:0xa250c6cd49f1fb21
supermarket,Toko bahan makanan,Toko INALDO,"R3Q5+J6Q, Jl. Raya Sorido, Sorido, Kec. Biak Kota, Kabupaten Biak Numfor, Papua 98115","Jl. Raya Sorido, Sorido, Kec. Biak Kota, Kabupaten Biak Numfor",PAPUA,98115.0,Indonesia,,-11.609.167,1.360.581.043,https://maps.google.com/?cid=0x0:0xe442cb73c33b1293
supermarket,Pusat Perbelanjaan,Pasar Inpres Biak Numfor,"Burokub, Kec. Biak Kota, Kabupaten Biak Numfor, Papua 98111","Kec. Biak Kota, Kabupaten Biak Numfor",PAPUA,98111.0,Indonesia,81341418979.0,-11.790.387,1.360.767.221,https://maps.google.com/?cid=0x0:0xeec55fd5f0273f35
supermarket,Toko bahan makanan,Toko Matoa Agen Varash Biak Papua,"R3MJ+3C9, Jl. Bronco, Samofa, Kec. Samofa, Kabupaten Biak Numfor, Papua 98111","Jl. Bronco, Samofa, Kec. Samofa, Kabupaten Biak Numfor",PAPUA,98111.0,Indonesia,81342842268.0,-11.673.456,1.360.811.092,https://maps.google.com/?cid=0x0:0xdf334515ec3b4990
supermarket,Toko bahan makanan,Kios Sinar Wahyu Yafdas,"R3R9+7CV, Unnamed Road, Sorido, Yafdas, Kec. Biak Kota, Kabupaten Biak Numfor, Papua 98112","Unnamed Road, Sorido, Yafdas, Kec. Biak Kota, Kabupaten Biak Numfor",PAPUA,98112.0,Indonesia,,-11.592.588,1.360.685.585,https://maps.google.com/?cid=0x0:0x90dead6ac7b09b78
supermarket,supermarket,Papua 98114,"Kabupaten Biak Numfor, Papua","Kabupaten Biak Numfor, Papua",PAPUA,,Indonesia,,-11.386.625,1.360.491.689,https://maps.google.com/?cid=0x0:0xb7899b24d8a2c999
supermarket,Toko Swalayan,Hadi Supermarket  Dept. Store,"Jl. Imam Bonjol No.56, Fandoi, Kec. Biak Kota, Kabupaten Biak Numfor, Papua 98111","Fandoi, Kec. Biak Kota, Kabupaten Biak Numfor",PAPUA,98111.0,Indonesia,,-11.800.003,1.360.824.788,https://maps.google.com/?cid=0x0:0xdcad74b4384219ee
supermarket,Toko Herbal,MS K-LINK LAURENSIA,"Jl. Raya Sorido No.98115, RT.01/RW01, Inggiri, Kec. Biak Kota, Kabupaten Biak Numfor, Papua 98115","RT.01/RW01, Inggiri, Kec. Biak Kota, Kabupaten Biak Numfor",PAPUA,98115.0,Indonesia,85244526895.0,-11.504.763,136.045.153,https://maps.google.com/?cid=0x0:0x8b89715b8b4c97a8
supermarket,Pusat Perbelanjaan,Pasar Inpres Biak Numfor,"Burokub, Kec. Biak Kota, Kabupaten Biak Numfor, Papua 98111","Kec. Biak Kota, Kabupaten Biak Numfor",PAPUA,98111.0,Indonesia,81341418979.0,-11.790.387,1.360.767.221,https://maps.google.com/?cid=0x0:0xeec55fd5f0273f35
supermarket,Tukang Kayu,PT. Wapoga Mutiara Industries,"JL Sorido Yendidori Raya, Km. 12, 98116, Sorido, Kec. Biak Kota, Kabupaten Biak Numfor, Papua 98113","Km. 12, 98116, Sorido, Kec. Biak Kota, Kabupaten Biak Numfor",PAPUA,98113.0,Indonesia,98122017.0,-1.145.826,1.360.379.864,https://maps.google.com/?cid=0x0:0xa55bd00b75e18e59
supermarket,Toko Swalayan,Swalayan Senyum 5000,"Fandoi, Kec. Biak Kota, Kabupaten Biak Numfor, Papua 98111","Kec. Biak Kota, Kabupaten Biak Numfor",PAPUA,98111.0,Indonesia,,-11.789.891,1.360.835.474,https://maps.google.com/?cid=0x0:0xae749dec19901478
supermarket,Toko,Toko Surya Jaya,"V387+2MQ, Dafuar, Kec. Samofa, Kabupaten Biak Numfor, Papua 98156","Dafuar, Kec. Samofa, Kabupaten Biak Numfor",PAPUA,98156.0,Indonesia,,-11.349.133,1.360.642.458,https://maps.google.com/?cid=0x0:0xc6cf750d68103c18
supermarket,Toko umum,Kios INSROM,"Jl. Raya Sorido, Sorido, Kec. Biak Kota, Kabupaten Biak Numfor, Papua 98115","Sorido, Kec. Biak Kota, Kabupaten Biak Numfor",PAPUA,98115.0,Indonesia,,-11.448.301,1.360.384.387,https://maps.google.com/?cid=0x0:0x5aef2bd1c58e96b5
supermarket,Komplek perumahan,Biak Inggiri,"R2XV+7QQ, Inggiri, Kec. Biak Kota, Kabupaten Biak Numfor, Papua","Kabupaten Biak Numfor, Papua",PAPUA,,Indonesia,,-11.517.944,1.360.444.858,https://maps.google.com/?cid=0x0:0xac58cf5133242740
supermarket,Toko umum,SANGGAMI,"Jl. Raya Sorido, Insrom, Kec. Biak Kota, Kabupaten Biak Numfor, Papua","Kabupaten Biak Numfor, Papua",PAPUA,,Indonesia,82113281210.0,-11.458.539,1.360.406.593,https://maps.google.com/?cid=0x0:0x5132cdfb95027857
supermarket,Toko bahan makanan,Toko INALDO,"R3Q5+J6Q, Jl. Raya Sorido, Sorido, Kec. Biak Kota, Kabupaten Biak Numfor, Papua 98115","Jl. Raya Sorido, Sorido, Kec. Biak Kota, Kabupaten Biak Numfor",PAPUA,98115.0,Indonesia,,-11.609.167,1.360.581.043,https://maps.google.com/?cid=0x0:0xe442cb73c33b1293
supermarket,Toko Swalayan,Toko Sayur dan Bumbu Sub Byaki Jaya,"V377+X78 Pasar Central Darfuar, Biak - Serui, Dafuar, Kec. Samofa, Kabupaten Biak Numfor, Papua 98118","Biak - Serui, Dafuar, Kec. Samofa, Kabupaten Biak Numfor",PAPUA,98118.0,Indonesia,,-11.350.951,1.360.631.969,https://maps.google.com/?cid=0x0:0xb0a940a62ecabd1f
supermarket,Minimarket,Kios Calista,"V22X+8MV, Inggiri, Kec. Biak Kota, Kabupaten Biak Numfor, Papua 98115","Inggiri, Kec. Biak Kota, Kabupaten Biak Numfor",PAPUA,98115.0,Indonesia,8124887310.0,-11.491.395,1.360.491.689,https://maps.google.com/?cid=0x0:0x90364d3517283f39
supermarket,Agen Sewa Mobil,Toko Mamaica  Taxi Rent,"V366+Q7R, Jalan Darfuar, Sorido, Biak Kota, Dafuar, Kec. Samofa, Kabupaten Biak Numfor, Papua 98156","Jalan Darfuar, Sorido, Biak Kota, Dafuar, Kec. Samofa, Kabupaten Biak Numfor",PAPUA,98156.0,Indonesia,82248307454.0,-11.380.112,1.360.606.277,https://maps.google.com/?cid=0x0:0xa0040a4ccb624bbc
supermarket,supermarket,Papua 98115,"Kec. Biak Kota, Kabupaten Biak Numfor, Papua","Kabupaten Biak Numfor, Papua",PAPUA,,Indonesia,,-11.614.138,1.360.515.529,https://maps.google.com/?cid=0x0:0x9abbe05255913eb1
supermarket,Toko Herbal,MS K-LINK LAURENSIA,"Jl. Raya Sorido No.98115, RT.01/RW01, Inggiri, Kec. Biak Kota, Kabupaten Biak Numfor, Papua 98115","RT.01/RW01, Inggiri, Kec. Biak Kota, Kabupaten Biak Numfor",PAPUA,98115.0,Indonesia,85244526895.0,-11.504.763,136.045.153,https://maps.google.com/?cid=0x0:0x8b89715b8b4c97a8
supermarket,Toko bahan makanan,TOKO BERKAH JAYA,"Jl. Raya Sorido, Inggiri, Kec. Biak Kota, Kabupaten Biak Numfor, Papua 98115","Inggiri, Kec. Biak Kota, Kabupaten Biak Numfor",PAPUA,98115.0,Indonesia,,-11.521.232,1.360.471.777,https://maps.google.com/?cid=0x0:0x60d38864e7780a6c
supermarket,Toko Swalayan,Hadi Supermarket  Dept. Store,"Jl. Imam Bonjol No.56, Fandoi, Kec. Biak Kota, Kabupaten Biak Numfor, Papua 98111","Fandoi, Kec. Biak Kota, Kabupaten Biak Numfor",PAPUA,98111.0,Indonesia,,-11.800.003,1.360.824.788,https://maps.google.com/?cid=0x0:0xdcad74b4384219ee
supermarket,Toko Swalayan,Swalayan Senyum 5000,"Fandoi, Kec. Biak Kota, Kabupaten Biak Numfor, Papua 98111","Kec. Biak Kota, Kabupaten Biak Numfor",PAPUA,98111.0,Indonesia,,-11.789.891,1.360.835.474,https://maps.google.com/?cid=0x0:0xae749dec19901478
supermarket,Pusat Perbelanjaan,Pasar Inpres Biak Numfor,"Burokub, Kec. Biak Kota, Kabupaten Biak Numfor, Papua 98111","Kec. Biak Kota, Kabupaten Biak Numfor",PAPUA,98111.0,Indonesia,81341418979.0,-11.790.387,1.360.767.221,https://maps.google.com/?cid=0x0:0xeec55fd5f0273f35
supermarket,Toko Swalayan,Kios Makmur,"Unnamed Road, Sorido, Kec. Biak Kota, Kabupaten Biak Numfor, Papua 98115","Sorido, Kec. Biak Kota, Kabupaten Biak Numfor",PAPUA,98115.0,Indonesia,82248104485.0,-11.669.934,1.360.625.182,https://maps.google.com/?cid=0x0:0x5733360392880983
supermarket,Toko bahan makanan,Toko INALDO,"R3Q5+J6Q, Jl. Raya Sorido, Sorido, Kec. Biak Kota, Kabupaten Biak Numfor, Papua 98115","Jl. Raya Sorido, Sorido, Kec. Biak Kota, Kabupaten Biak Numfor",PAPUA,98115.0,Indonesia,,-11.609.167,1.360.581.043,https://maps.google.com/?cid=0x0:0xe442cb73c33b1293
supermarket,Toko bahan makanan,Toko USTA(2),"Jl. Selayar No.78, Saramom, Kec. Biak Kota, Kabupaten Biak Numfor, Papua 98111","Saramom, Kec. Biak Kota, Kabupaten Biak Numfor",PAPUA,98111.0,Indonesia,,-11.799.685,136.074.836,https://maps.google.com/?cid=0x0:0x139009b3bc808149
supermarket,Toko Swalayan,Toko Grace Sejahtera,"R3PC+FRR, Samofa, Kec. Samofa, Kabupaten Biak Numfor, Papua 98112","Samofa, Kec. Samofa, Kabupaten Biak Numfor",PAPUA,98112.0,Indonesia,,-11.637.613,1.360.720.193,https://maps.google.com/?cid=0x0:0x25f52afb393e132
supermarket,Toko bahan makanan,Toko Sapomi,"R3M7+226, Unnamed Road, Sorido, Kec. Biak Kota, Kabupaten Biak Numfor, Papua 98115","Unnamed Road, Sorido, Kec. Biak Kota, Kabupaten Biak Numfor",PAPUA,98115.0,Indonesia,,-11.674.629,1.360.625.157,https://maps.google.com/?cid=0x0:0x5ceb47df77523d9e
supermarket,Toko bahan makanan,Kios Sinar Wahyu Yafdas,"R3R9+7CV, Unnamed Road, Sorido, Yafdas, Kec. Biak Kota, Kabupaten Biak Numfor, Papua 98112","Unnamed Road, Sorido, Yafdas, Kec. Biak Kota, Kabupaten Biak Numfor",PAPUA,98112.0,Indonesia,,-11.592.588,1.360.685.585,https://maps.google.com/?cid=0x0:0x90dead6ac7b09b78
supermarket,Toko umum,Kios INSROM,"Jl. Raya Sorido, Sorido, Kec. Biak Kota, Kabupaten Biak Numfor, Papua 98115","Sorido, Kec. Biak Kota, Kabupaten Biak Numfor",PAPUA,98115.0,Indonesia,,-11.448.301,1.360.384.387,https://maps.google.com/?cid=0x0:0x5aef2bd1c58e96b5
supermarket,Toko bahan makanan,Kios Tiga Putry,"R3M7+4RX, Jl. Sisingamangaraja, Sorido, Kec. Biak Kota, Kabupaten Biak Numfor, Papua 98112","Jl. Sisingamangaraja, Sorido, Kec. Biak Kota, Kabupaten Biak Numfor",PAPUA,98112.0,Indonesia,81344004109.0,-11.671.458,1.360.646.034,https://maps.google.com/?cid=0x0:0xd62423bf4d0d455f
supermarket,Toko,Hadi Express Airlangga,"R39G+W65, Jl. Erlangga, Waupnor, Kec. Biak Kota, Kabupaten Biak Numfor, Papua 98111","Jl. Erlangga, Waupnor, Kec. Biak Kota, Kabupaten Biak Numfor",PAPUA,98111.0,Indonesia,,-11.802.404,1.360.756.212,https://maps.google.com/?cid=0x0:0xd262eee2223025ae
supermarket,Toko Swalayan,Hadi Supermarket  Dept. Store,"Jl. Imam Bonjol No.56, Fandoi, Kec. Biak Kota, Kabupaten Biak Numfor, Papua 98111","Fandoi, Kec. Biak Kota, Kabupaten Biak Numfor",PAPUA,98111.0,Indonesia,,-11.800.003,1.360.824.788,https://maps.google.com/?cid=0x0:0xdcad74b4384219ee
supermarket,Kedai Kopi,KOFFIE KITONG,"Jl. Imam Bonjol No.56, Fandoi, Kec. Biak Kota, Kabupaten Biak Numfor, Papua 98111","Fandoi, Kec. Biak Kota, Kabupaten Biak Numfor",PAPUA,98111.0,Indonesia,,-11.802.223,1.360.824.899,https://maps.google.com/?cid=0x0:0xc57a1d51c6bd7d53
supermarket,Pusat Perbelanjaan,JUSMA MART,"Jl. Sriwijaya No.20, Yafdas, Kec. Samofa, Kabupaten Biak Numfor, Papua 98112","Yafdas, Kec. Samofa, Kabupaten Biak Numfor",PAPUA,98112.0,Indonesia,85822948637.0,-11.574.561,136.071.629,https://maps.google.com/?cid=0x0:0xdb6b4facb003d470
supermarket,Tukang Kayu,PT. Wapoga Mutiara Industries,"JL Sorido Yendidori Raya, Km. 12, 98116, Sorido, Kec. Biak Kota, Kabupaten Biak Numfor, Papua 98113","Km. 12, 98116, Sorido, Kec. Biak Kota, Kabupaten Biak Numfor",PAPUA,98113.0,Indonesia,98122017.0,-1.145.826,1.360.379.864,https://maps.google.com/?cid=0x0:0xa55bd00b75e18e59
supermarket,Toko Herbal,MS K-LINK LAURENSIA,"Jl. Raya Sorido No.98115, RT.01/RW01, Inggiri, Kec. Biak Kota, Kabupaten Biak Numfor, Papua 98115","RT.01/RW01, Inggiri, Kec. Biak Kota, Kabupaten Biak Numfor",PAPUA,98115.0,Indonesia,85244526895.0,-11.504.763,136.045.153,https://maps.google.com/?cid=0x0:0x8b89715b8b4c97a8
supermarket,Toko Swalayan,Swalayan Senyum 5000,"Fandoi, Kec. Biak Kota, Kabupaten Biak Numfor, Papua 98111","Kec. Biak Kota, Kabupaten Biak Numfor",PAPUA,98111.0,Indonesia,,-11.789.891,1.360.835.474,https://maps.google.com/?cid=0x0:0xae749dec19901478
supermarket,Toko bahan makanan,TOKO BERKAH JAYA,"Jl. Raya Sorido, Inggiri, Kec. Biak Kota, Kabupaten Biak Numfor, Papua 98115","Inggiri, Kec. Biak Kota, Kabupaten Biak Numfor",PAPUA,98115.0,Indonesia,,-11.521.232,1.360.471.777,https://maps.google.com/?cid=0x0:0x60d38864e7780a6c
supermarket,Toko umum,Kios INSROM,"Jl. Raya Sorido, Sorido, Kec. Biak Kota, Kabupaten Biak Numfor, Papua 98115","Sorido, Kec. Biak Kota, Kabupaten Biak Numfor",PAPUA,98115.0,Indonesia,,-11.448.301,1.360.384.387,https://maps.google.com/?cid=0x0:0x5aef2bd1c58e96b5
supermarket,Toko bahan makanan,K Mart,"Jl. Imam Bonjol No.5, Fandoi, Kec. Biak Kota, Kabupaten Biak Numfor, Papua 98111","Fandoi, Kec. Biak Kota, Kabupaten Biak Numfor",PAPUA,98111.0,Indonesia,81344919525.0,-11.836.947,1.360.819.066,https://maps.google.com/?cid=0x0:0xbb7ea430c4bdad88
supermarket,Toko,Toko Surya Jaya,"V387+2MQ, Dafuar, Kec. Samofa, Kabupaten Biak Numfor, Papua 98156","Dafuar, Kec. Samofa, Kabupaten Biak Numfor",PAPUA,98156.0,Indonesia,,-11.349.133,1.360.642.458,https://maps.google.com/?cid=0x0:0xc6cf750d68103c18
supermarket,Komplek perumahan,Biak Inggiri,"R2XV+7QQ, Inggiri, Kec. Biak Kota, Kabupaten Biak Numfor, Papua","Kabupaten Biak Numfor, Papua",PAPUA,,Indonesia,,-11.517.944,1.360.444.858,https://maps.google.com/?cid=0x0:0xac58cf5133242740
supermarket,Kios,KIOS AINI,"V25H+JF6, Jl. Raya Sorido, Yendidori, Kec. Yendidori, Kabupaten Biak Numfor, Papua","Kabupaten Biak Numfor, Papua",PAPUA,,Indonesia,,-11.409.688,1.360.286.433,https://maps.google.com/?cid=0x0:0xa3641ccfd170e875
supermarket,Agen Sewa Mobil,Toko Mamaica  Taxi Rent,"V366+Q7R, Jalan Darfuar, Sorido, Biak Kota, Dafuar, Kec. Samofa, Kabupaten Biak Numfor, Papua 98156","Jalan Darfuar, Sorido, Biak Kota, Dafuar, Kec. Samofa, Kabupaten Biak Numfor",PAPUA,98156.0,Indonesia,82248307454.0,-11.380.112,1.360.606.277,https://maps.google.com/?cid=0x0:0xa0040a4ccb624bbc
supermarket,supermarket,Kec. Biak Kota,"Kabupaten Biak Numfor, Papua","Kabupaten Biak Numfor, Papua",PAPUA,,Indonesia,,-11.837.602,1.360.797.406,https://maps.google.com/?cid=0x0:0x28487caea0b09c5a
supermarket,Toko Swalayan,Hadi Supermarket  Dept. Store,"Jl. Imam Bonjol No.56, Fandoi, Kec. Biak Kota, Kabupaten Biak Numfor, Papua 98111","Fandoi, Kec. Biak Kota, Kabupaten Biak Numfor",PAPUA,98111.0,Indonesia,,-11.800.003,1.360.824.788,https://maps.google.com/?cid=0x0:0xdcad74b4384219ee
supermarket,Pusat Perbelanjaan,Pasar Inpres Biak Numfor,"Burokub, Kec. Biak Kota, Kabupaten Biak Numfor, Papua 98111","Kec. Biak Kota, Kabupaten Biak Numfor",PAPUA,98111.0,Indonesia,81341418979.0,-11.790.387,1.360.767.221,https://maps.google.com/?cid=0x0:0xeec55fd5f0273f35
supermarket,Pusat Perbelanjaan,JUSMA MART,"Jl. Sriwijaya No.20, Yafdas, Kec. Samofa, Kabupaten Biak Numfor, Papua 98112","Yafdas, Kec. Samofa, Kabupaten Biak Numfor",PAPUA,98112.0,Indonesia,85822948637.0,-11.574.561,136.071.629,https://maps.google.com/?cid=0x0:0xdb6b4facb003d470
supermarket,Toko bahan makanan,Toko Harmoni,"R38F+VPH, Jl. Erlangga No.12, Waupnor, Kec. Biak Kota, Kabupaten Biak Numfor, Papua 98111","Jl. Erlangga No.12, Waupnor, Kec. Biak Kota, Kabupaten Biak Numfor",PAPUA,98111.0,Indonesia,85244221995.0,-11.828.054,1.360.745.771,https://maps.google.com/?cid=0x0:0x30c5bdd9d76597b0
supermarket,Toko Swalayan,Rejeki Toko,"Jl. Imam Bonjol No.17, Fandoi, Kec. Biak Kota, Kabupaten Biak Numfor, Papua 98111","Fandoi, Kec. Biak Kota, Kabupaten Biak Numfor",PAPUA,98111.0,Indonesia,98121802.0,-11.826.891,1.360.820.049,https://maps.google.com/?cid=0x0:0x7271c36193e85e83
supermarket,Toko bahan makanan,Toko USTA(2),"Jl. Selayar No.78, Saramom, Kec. Biak Kota, Kabupaten Biak Numfor, Papua 98111","Saramom, Kec. Biak Kota, Kabupaten Biak Numfor",PAPUA,98111.0,Indonesia,,-11.799.685,136.074.836,https://maps.google.com/?cid=0x0:0x139009b3bc808149
supermarket,Toko bahan makanan,Kios Ablager,"R37Q+9P6 kompleks, Jl. Jend. Ahmad Yani Jl. Yenures, Mandala, Kec. Biak Kota, Kabupaten Biak Numfor, Papua 98111","Jl. Jend. Ahmad Yani Jl. Yenures, Mandala, Kec. Biak Kota, Kabupaten Biak Numfor",PAPUA,98111.0,Indonesia,,-1.186.599,136.089.275,https://maps.google.com/?cid=0x0:0x9546203c2a36b79b
supermarket,Toko bahan makanan,Toko Garuda,"Jalan Sedap Malam, Burokub, Kec. Biak Kota, Kabupaten Biak Numfor, Papua 98111","Burokub, Kec. Biak Kota, Kabupaten Biak Numfor",PAPUA,98111.0,Indonesia,,-11.822.725,1.360.785.148,https://maps.google.com/?cid=0x0:0xbd875a1f45a2f34
supermarket,Toko bahan makanan,K Mart,"Jl. Imam Bonjol No.5, Fandoi, Kec. Biak Kota, Kabupaten Biak Numfor, Papua 98111","Fandoi, Kec. Biak Kota, Kabupaten Biak Numfor",PAPUA,98111.0,Indonesia,81344919525.0,-11.836.947,1.360.819.066,https://maps.google.com/?cid=0x0:0xbb7ea430c4bdad88
supermarket,Toko Swalayan,Minimarket MATOA IMPRES,"Jl. Jend. Sudirman No.51, Sorido, Kec. Biak Kota, Kabupaten Biak Numfor, Papua 98111","Sorido, Kec. Biak Kota, Kabupaten Biak Numfor",PAPUA,98111.0,Indonesia,,-11.831.312,1.360.759.071,https://maps.google.com/?cid=0x0:0xe3b2ec5311502c79
supermarket,Toko Mebel,simponi mart,"R38M+574, Fandoi, Kec. Biak Kota, Kabupaten Biak Numfor, Papua 98111","Fandoi, Kec. Biak Kota, Kabupaten Biak Numfor",PAPUA,98111.0,Indonesia,,-11.846.133,1.360.832.144,https://maps.google.com/?cid=0x0:0x705b79780898aef3
supermarket,Toko bahan makanan,Elshaddai Toko,"Elshaddai Toko, Burokub, Kec. Biak Kota, Kabupaten Biak Numfor, Papua 98111","Burokub, Kec. Biak Kota, Kabupaten Biak Numfor",PAPUA,98111.0,Indonesia,85244099888.0,-11.807.955,1.360.754.756,https://maps.google.com/?cid=0x0:0x2101fa54b64bacf
supermarket,Toko bahan makanan,Toko Matoa Agen Varash Biak Papua,"R3MJ+3C9, Jl. Bronco, Samofa, Kec. Samofa, Kabupaten Biak Numfor, Papua 98111","Jl. Bronco, Samofa, Kec. Samofa, Kabupaten Biak Numfor",PAPUA,98111.0,Indonesia,81342842268.0,-11.673.456,1.360.811.092,https://maps.google.com/?cid=0x0:0xdf334515ec3b4990
supermarket,supermarket,Kec. Biak Kota,"Kabupaten Biak Numfor, Papua","Kabupaten Biak Numfor, Papua",PAPUA,,Indonesia,,-11.837.602,1.360.797.406,https://maps.google.com/?cid=0x0:0x28487caea0b09c5a
supermarket,Toko Swalayan,Hadi Supermarket  Dept. Store,"Jl. Imam Bonjol No.56, Fandoi, Kec. Biak Kota, Kabupaten Biak Numfor, Papua 98111","Fandoi, Kec. Biak Kota, Kabupaten Biak Numfor",PAPUA,98111.0,Indonesia,,-11.800.003,1.360.824.788,https://maps.google.com/?cid=0x0:0xdcad74b4384219ee
supermarket,Toko Swalayan,IVY SAN,"Karang Mulia, Kec. Samofa, Kabupaten Biak Numfor, Papua 98111","Kec. Samofa, Kabupaten Biak Numfor",PAPUA,98111.0,Indonesia,9818211089.0,-11.783.472,1.360.941.072,https://maps.google.com/?cid=0x0:0x39a765f041b2ba4c
supermarket,Toko Swalayan,Swalayan Senyum 5000,"Fandoi, Kec. Biak Kota, Kabupaten Biak Numfor, Papua 98111","Kec. Biak Kota, Kabupaten Biak Numfor",PAPUA,98111.0,Indonesia,,-11.789.891,1.360.835.474,https://maps.google.com/?cid=0x0:0xae749dec19901478
supermarket,Toko bahan makanan,Toko USTA(2),"Jl. Selayar No.78, Saramom, Kec. Biak Kota, Kabupaten Biak Numfor, Papua 98111","Saramom, Kec. Biak Kota, Kabupaten Biak Numfor",PAPUA,98111.0,Indonesia,,-11.799.685,136.074.836,https://maps.google.com/?cid=0x0:0x139009b3bc808149
supermarket,Pusat Perbelanjaan,Pasar Inpres Biak Numfor,"Burokub, Kec. Biak Kota, Kabupaten Biak Numfor, Papua 98111","Kec. Biak Kota, Kabupaten Biak Numfor",PAPUA,98111.0,Indonesia,81341418979.0,-11.790.387,1.360.767.221,https://maps.google.com/?cid=0x0:0xeec55fd5f0273f35
supermarket,Toko bahan makanan,Toko Harmoni,"R38F+VPH, Jl. Erlangga No.12, Waupnor, Kec. Biak Kota, Kabupaten Biak Numfor, Papua 98111","Jl. Erlangga No.12, Waupnor, Kec. Biak Kota, Kabupaten Biak Numfor",PAPUA,98111.0,Indonesia,85244221995.0,-11.828.054,1.360.745.771,https://maps.google.com/?cid=0x0:0x30c5bdd9d76597b0
supermarket,Pusat Perbelanjaan,J-Mart,"R39G+X3C, Waupnor, Kec. Biak Kota, Kabupaten Biak Numfor, Papua 98111","Waupnor, Kec. Biak Kota, Kabupaten Biak Numfor",PAPUA,98111.0,Indonesia,,-11.800.734,136.075.143,https://maps.google.com/?cid=0x0:0x299df27e3b1aa988
supermarket,Toko bahan makanan,K Mart,"Jl. Imam Bonjol No.5, Fandoi, Kec. Biak Kota, Kabupaten Biak Numfor, Papua 98111","Fandoi, Kec. Biak Kota, Kabupaten Biak Numfor",PAPUA,98111.0,Indonesia,81344919525.0,-11.836.947,1.360.819.066,https://maps.google.com/?cid=0x0:0xbb7ea430c4bdad88
supermarket,Toko bahan makanan,Toko Garuda,"Jalan Sedap Malam, Burokub, Kec. Biak Kota, Kabupaten Biak Numfor, Papua 98111","Burokub, Kec. Biak Kota, Kabupaten Biak Numfor",PAPUA,98111.0,Indonesia,,-11.822.725,1.360.785.148,https://maps.google.com/?cid=0x0:0xbd875a1f45a2f34
supermarket,Toko Swalayan,Rejeki Toko,"Jl. Imam Bonjol No.17, Fandoi, Kec. Biak Kota, Kabupaten Biak Numfor, Papua 98111","Fandoi, Kec. Biak Kota, Kabupaten Biak Numfor",PAPUA,98111.0,Indonesia,98121802.0,-11.826.891,1.360.820.049,https://maps.google.com/?cid=0x0:0x7271c36193e85e83
supermarket,Toko bahan makanan,Kios Ablager,"R37Q+9P6 kompleks, Jl. Jend. Ahmad Yani Jl. Yenures, Mandala, Kec. Biak Kota, Kabupaten Biak Numfor, Papua 98111","Jl. Jend. Ahmad Yani Jl. Yenures, Mandala, Kec. Biak Kota, Kabupaten Biak Numfor",PAPUA,98111.0,Indonesia,,-1.186.599,136.089.275,https://maps.google.com/?cid=0x0:0x9546203c2a36b79b
supermarket,Toko bahan makanan,Elshaddai Toko,"Elshaddai Toko, Burokub, Kec. Biak Kota, Kabupaten Biak Numfor, Papua 98111","Burokub, Kec. Biak Kota, Kabupaten Biak Numfor",PAPUA,98111.0,Indonesia,85244099888.0,-11.807.955,1.360.754.756,https://maps.google.com/?cid=0x0:0x2101fa54b64bacf
supermarket,Toko Roti,ARU BAKERY BIAK,"Jl. Sam Ratulangi No.290, Burokub, Kec. Biak Kota, Kabupaten Biak Numfor, Papua 98113","Burokub, Kec. Biak Kota, Kabupaten Biak Numfor",PAPUA,98113.0,Indonesia,85231145494.0,-11.801.067,1.360.765.341,https://maps.google.com/?cid=0x0:0x271825355f10283
supermarket,supermarket,Papua 98153,"Kabupaten Biak Numfor, Papua","Kabupaten Biak Numfor, Papua",PAPUA,,Indonesia,,-0.9418311,1.360.372.508,https://maps.google.com/?cid=0x0:0xdaa7c4e762f36ed7
supermarket,Toko,Kios asoka,"X2VW+7FX, Unnamed Road, Kobeoser, Distrik Biak Utara, Kabupaten Biak Numfor, Papua 98153","Unnamed Road, Kobeoser, Distrik Biak Utara, Kabupaten Biak Numfor",PAPUA,98153.0,Indonesia,82197558644.0,-10.067.599,1.360.462.248,https://maps.google.com/?cid=0x0:0xafcfc325cbda77f5
supermarket,Toko Swalayan,Swalayan Senyum 5000,"Fandoi, Kec. Biak Kota, Kabupaten Biak Numfor, Papua 98111","Kec. Biak Kota, Kabupaten Biak Numfor",PAPUA,98111.0,Indonesia,,-11.789.891,1.360.835.474,https://maps.google.com/?cid=0x0:0xae749dec19901478
supermarket,Toko umum,Toko Tiga C,"32GR+HPQ, Unnamed Road, Andei, Distrik Biak Utara, Kabupaten Biak Numfor, Papua 98153","Unnamed Road, Andei, Distrik Biak Utara, Kabupaten Biak Numfor",PAPUA,98153.0,Indonesia,81240341281.0,-0.9235484,1.360.418.483,https://maps.google.com/?cid=0x0:0x3c399701544220d7
supermarket,Pusat Perbelanjaan,JUSMA MART,"Jl. Sriwijaya No.20, Yafdas, Kec. Samofa, Kabupaten Biak Numfor, Papua 98112","Yafdas, Kec. Samofa, Kabupaten Biak Numfor",PAPUA,98112.0,Indonesia,85822948637.0,-11.574.561,136.071.629,https://maps.google.com/?cid=0x0:0xdb6b4facb003d470
supermarket,Toko,Kios Artha,"32GR+8X2, Mambesak, Distrik Biak Utara, Kabupaten Biak Numfor, Papua 98153","Mambesak, Distrik Biak Utara, Kabupaten Biak Numfor",PAPUA,98153.0,Indonesia,81344010742.0,-0.9242394,1.360.423.839,https://maps.google.com/?cid=0x0:0x8335f052206d8432
supermarket,Toko Swalayan,Hadi Supermarket  Dept. Store,"Jl. Imam Bonjol No.56, Fandoi, Kec. Biak Kota, Kabupaten Biak Numfor, Papua 98111","Fandoi, Kec. Biak Kota, Kabupaten Biak Numfor",PAPUA,98111.0,Indonesia,,-11.800.003,1.360.824.788,https://maps.google.com/?cid=0x0:0xdcad74b4384219ee
supermarket,Toko umum,Toko sumardas,"Andei, Distrik Biak Utara, Kabupaten Biak Numfor, Papua 98153","Distrik Biak Utara, Kabupaten Biak Numfor",PAPUA,98153.0,Indonesia,,-0.9234835,1.360.422.085,https://maps.google.com/?cid=0x0:0xd2424c36805574a6
supermarket,Minimarket,Toko Fasana Jaya,"32HR+88R, Jl. Pantura, Andei, Biak Utara, Biak Numfor Regency, Papua 98153","Jl. Pantura, Andei, Biak Utara, Biak Numfor Regency",PAPUA,98153.0,Indonesia,,-0.9216351,1.360.407.769,https://maps.google.com/?cid=0x0:0xf3978a647712ae17
supermarket,Toko,Kios Marito,"Jalan agusta dimara No.4, korem, Distrik Biak Utara, Kabupaten Biak Numfor, Papua","Kabupaten Biak Numfor, Papua",PAPUA,,Indonesia,,-0.9050222,1.360.437.531,https://maps.google.com/?cid=0x0:0x902c676cd63290f4
supermarket,Toko,QUEEN CELL,"X2VW+HJH, Kobeoser, Distrik Biak Utara, Kabupaten Biak Numfor, Papua 98153","Kobeoser, Distrik Biak Utara, Kabupaten Biak Numfor",PAPUA,98153.0,Indonesia,,-10.060.546,1.360.465.986,https://maps.google.com/?cid=0x0:0xb8aeca62cc659b0d
supermarket,Pusat Perbelanjaan,Pasar Inpres Biak Numfor,"Burokub, Kec. Biak Kota, Kabupaten Biak Numfor, Papua 98111","Kec. Biak Kota, Kabupaten Biak Numfor",PAPUA,98111.0,Indonesia,81341418979.0,-11.790.387,1.360.767.221,https://maps.google.com/?cid=0x0:0xeec55fd5f0273f35
supermarket,Toko bahan makanan,KIOS ASWAR,"229X+Q8, Sarwom, Distrik Biak Utara, Kabupaten Biak Numfor, Papua","Kabupaten Biak Numfor, Papua",PAPUA,,Indonesia,,-0.9796395,1.360.483.414,https://maps.google.com/?cid=0x0:0x4cba189a2cb6b6f
supermarket,Toko,Kios fiska,"32VV+5H9, Saukobye, Distrik Biak Utara, Kabupaten Biak Numfor, Papua 98153","Saukobye, Distrik Biak Utara, Kabupaten Biak Numfor",PAPUA,98153.0,Indonesia,,-0.9070909,1.360.439.862,https://maps.google.com/?cid=0x0:0xc243ed4316c9d852
supermarket,Toko,Hadi Express Airlangga,"R39G+W65, Jl. Erlangga, Waupnor, Kec. Biak Kota, Kabupaten Biak Numfor, Papua 98111","Jl. Erlangga, Waupnor, Kec. Biak Kota, Kabupaten Biak Numfor",PAPUA,98111.0,Indonesia,,-11.802.404,1.360.756.212,https://maps.google.com/?cid=0x0:0xd262eee2223025ae
supermarket,Toko Swalayan,Hadi Supermarket  Dept. Store,"Jl. Imam Bonjol No.56, Fandoi, Kec. Biak Kota, Kabupaten Biak Numfor, Papua 98111","Fandoi, Kec. Biak Kota, Kabupaten Biak Numfor",PAPUA,98111.0,Indonesia,,-11.800.003,1.360.824.788,https://maps.google.com/?cid=0x0:0xdcad74b4384219ee
supermarket,Toko Swalayan,IVY SAN,"Karang Mulia, Kec. Samofa, Kabupaten Biak Numfor, Papua 98111","Kec. Samofa, Kabupaten Biak Numfor",PAPUA,98111.0,Indonesia,9818211089.0,-11.783.472,1.360.941.072,https://maps.google.com/?cid=0x0:0x39a765f041b2ba4c
supermarket,Kedai Kopi,KOFFIE KITONG,"Jl. Imam Bonjol No.56, Fandoi, Kec. Biak Kota, Kabupaten Biak Numfor, Papua 98111","Fandoi, Kec. Biak Kota, Kabupaten Biak Numfor",PAPUA,98111.0,Indonesia,,-11.802.223,1.360.824.899,https://maps.google.com/?cid=0x0:0xc57a1d51c6bd7d53
supermarket,Toko Swalayan,Swalayan Senyum 5000,"Fandoi, Kec. Biak Kota, Kabupaten Biak Numfor, Papua 98111","Kec. Biak Kota, Kabupaten Biak Numfor",PAPUA,98111.0,Indonesia,,-11.789.891,1.360.835.474,https://maps.google.com/?cid=0x0:0xae749dec19901478
supermarket,Pos Penjaga Pantai,Pasar Bosnik,"R6HG+QWQ, Tim.,, Woniki, Kec. Biak Tim., Kabupaten Biak Numfor, Papua 98152","Tim.,, Woniki, Kec. Biak Tim., Kabupaten Biak Numfor",PAPUA,98152.0,Indonesia,,-11.705.486,1.362.273.467,https://maps.google.com/?cid=0x0:0xd2f65d4e91efbc8e
supermarket,Pusat Perbelanjaan,JUSMA MART,"Jl. Sriwijaya No.20, Yafdas, Kec. Samofa, Kabupaten Biak Numfor, Papua 98112","Yafdas, Kec. Samofa, Kabupaten Biak Numfor",PAPUA,98112.0,Indonesia,85822948637.0,-11.574.561,136.071.629,https://maps.google.com/?cid=0x0:0xdb6b4facb003d470
supermarket,Minimarket,Toko Felix,"R3CV+P2J, Jl. Raya Bosnik, Karang Mulia, Kec. Samofa, Kabupaten Biak Numfor, Papua 98111","Jl. Raya Bosnik, Karang Mulia, Kec. Samofa, Kabupaten Biak Numfor",PAPUA,98111.0,Indonesia,,-11.781.564,1.360.925.251,https://maps.google.com/?cid=0x0:0x6dd23370a5ea8a3c
supermarket,Kios,Kios SEJATI,"R6HH+RRX, Bindusi, Kec. Biak Tim., Kabupaten Biak Numfor, Papua 98152","Bindusi, Kec. Biak Tim., Kabupaten Biak Numfor",PAPUA,98152.0,Indonesia,,-11.703.793,1.362.296.242,https://maps.google.com/?cid=0x0:0xa60fab98cb33171f
supermarket,Kios,Kios Y.P (Yustin),"R6JF+GVX, Woniki, Kec. Biak Tim., Kabupaten Biak Numfor, Papua 98152","Woniki, Kec. Biak Tim., Kabupaten Biak Numfor",PAPUA,98152.0,Indonesia,81344631097.0,-11.686.173,1.362.248.392,https://maps.google.com/?cid=0x0:0x372c31d7f58deedd
supermarket,Pusat Perbelanjaan,Pasar Inpres Biak Numfor,"Burokub, Kec. Biak Kota, Kabupaten Biak Numfor, Papua 98111","Kec. Biak Kota, Kabupaten Biak Numfor",PAPUA,98111.0,Indonesia,81341418979.0,-11.790.387,1.360.767.221,https://maps.google.com/?cid=0x0:0xeec55fd5f0273f35
supermarket,Kios,Kios JJ by.crw,"R6H9+CJJ, Kampung Yenberok, Kec. Biak Tim., Kabupaten Biak Numfor, Papua 98152","Kampung Yenberok, Kec. Biak Tim., Kabupaten Biak Numfor",PAPUA,98152.0,Indonesia,85211462053.0,-11.714.089,1.362.190.208,https://maps.google.com/?cid=0x0:0xf6f455c1a8aa7392
supermarket,Kantor Pemerintah,Kampung Yenberok Nyanpun,"R6H9+FJ2, Orwer, Kec. Biak Tim., Kabupaten Biak Numfor, Papua 98152","Orwer, Kec. Biak Tim., Kabupaten Biak Numfor",PAPUA,98152.0,Indonesia,85211462053.0,-11.713.708,1.362.190.234,https://maps.google.com/?cid=0x0:0x9864122b006f7648
supermarket,Kios,Kios Ari,"R6HG+V9W, Jl. Raya Bosnik, Kampung Adorbari, Kec. Biak Tim., Kabupaten Biak Numfor, Papua 98152","Jl. Raya Bosnik, Kampung Adorbari, Kec. Biak Tim., Kabupaten Biak Numfor",PAPUA,98152.0,Indonesia,,-11.702.622,1.362.259.651,https://maps.google.com/?cid=0x0:0x5854df0275af50f8
supermarket,supermarket,Papua 98172,"Kabupaten Biak Numfor, Papua","Kabupaten Biak Numfor, Papua",PAPUA,,Indonesia,,-10.910.129,1.349.066.503,https://maps.google.com/?cid=0x0:0x961f86bb7868e68d
supermarket,Toko,A4 Bersaudara,"VVGC+83V, Saribi, Kec. Orkeri, Kabupaten Biak Numfor, Papua","Kabupaten Biak Numfor, Papua",PAPUA,,Indonesia,,-1.124.149,134.870.169,https://maps.google.com/?cid=0x0:0xe2b413dd2a160b0a
supermarket,Toko umum,Toko USAHA BARU,"3V88+6JQ FOO, Bandar Udara Kornasoren, Asaryendi, Numfor Tim., Kabupaten Biak Numfor, Papua 98171","Bandar Udara Kornasoren, Asaryendi, Numfor Tim., Kabupaten Biak Numfor",PAPUA,98171.0,Indonesia,,-0.934403,1.348.665.953,https://maps.google.com/?cid=0x0:0xd4ef676c44bcb943
supermarket,Tujuan Wisata,Kampung namber,"WRFP+WJJ, Namber, Distrik Numfor Barat, Kabupaten Biak Numfor, Papua","Kabupaten Biak Numfor, Papua",PAPUA,,Indonesia,,-10.751.681,1.348.365.136,https://maps.google.com/?cid=0x0:0x505e82db142a7e13
supermarket,Pusat Perbelanjaan,JUSMA MART,"Jl. Sriwijaya No.20, Yafdas, Kec. Samofa, Kabupaten Biak Numfor, Papua 98112","Yafdas, Kec. Samofa, Kabupaten Biak Numfor",PAPUA,98112.0,Indonesia,85822948637.0,-11.574.561,136.071.629,https://maps.google.com/?cid=0x0:0xdb6b4facb003d470
supermarket,Toko umum,Toko Dua Bersaudara,"2RH8+M2, Yenmanu, Distrik Numfor Barat, Kabupaten Biak Numfor, Papua","Kabupaten Biak Numfor, Papua",PAPUA,,Indonesia,,-0.970839,1.348.149.041,https://maps.google.com/?cid=0x0:0x1eb08d07cb49aebf
supermarket,Toko Swalayan,Toko SERBA GUNA,"3V8F+748, Asaryendi, Numfor Tim., Kabupaten Biak Numfor, Papua 98171","Asaryendi, Numfor Tim., Kabupaten Biak Numfor",PAPUA,98171.0,Indonesia,,-0.934472,1.348.726.866,https://maps.google.com/?cid=0x0:0x3fdf382babe5c3de
supermarket,Toko Swalayan,Hadi Supermarket  Dept. Store,"Jl. Imam Bonjol No.56, Fandoi, Kec. Biak Kota, Kabupaten Biak Numfor, Papua 98111","Fandoi, Kec. Biak Kota, Kabupaten Biak Numfor",PAPUA,98111.0,Indonesia,,-11.800.003,1.360.824.788,https://maps.google.com/?cid=0x0:0xdcad74b4384219ee
supermarket,Toko bahan makanan,K Mart,"Jl. Imam Bonjol No.5, Fandoi, Kec. Biak Kota, Kabupaten Biak Numfor, Papua 98111","Fandoi, Kec. Biak Kota, Kabupaten Biak Numfor",PAPUA,98111.0,Indonesia,81344919525.0,-11.836.947,1.360.819.066,https://maps.google.com/?cid=0x0:0xbb7ea430c4bdad88
supermarket,supermarket,KIOS DDI (QasimWilda),"YENBURWO, Numfor Tim., Kabupaten Biak Numfor, Papua 98171","Numfor Tim., Kabupaten Biak Numfor",PAPUA,98171.0,Indonesia,82398502133.0,-0.9348086,1.348.729.086,https://maps.google.com/?cid=0x0:0xb031d86828f123fa
supermarket,Toko bahan makanan,Toko INALDO,"R3Q5+J6Q, Jl. Raya Sorido, Sorido, Kec. Biak Kota, Kabupaten Biak Numfor, Papua 98115","Jl. Raya Sorido, Sorido, Kec. Biak Kota, Kabupaten Biak Numfor",PAPUA,98115.0,Indonesia,,-11.609.167,1.360.581.043,https://maps.google.com/?cid=0x0:0xe442cb73c33b1293
supermarket,supermarket,Toko Horas,"3V7J+W59, Asaryendi, Numfor Tim., Kabupaten Biak Numfor, Papua 98171","Asaryendi, Numfor Tim., Kabupaten Biak Numfor",PAPUA,98171.0,Indonesia,,-0.9351449,1.348.792.275,https://maps.google.com/?cid=0x0:0x88b65ab8991b2a83
supermarket,Toko umum,Bustam Sandau,"XW44+9X, Sandau, Distrik Bruyadori, Kabupaten Biak Numfor, Papua","Kabupaten Biak Numfor, Papua",PAPUA,,Indonesia,,-10.440.337,1.349.074.486,https://maps.google.com/?cid=0x0:0xad694199d528d2f8
supermarket,supermarket,Numfor Tim.,"Kabupaten Biak Numfor, Papua","Kabupaten Biak Numfor, Papua",PAPUA,,Indonesia,,-0.9371465,1.348.613.219,https://maps.google.com/?cid=0x0:0x672e64198372012
supermarket,Toko umum,Toko USAHA BARU,"3V88+6JQ FOO, Bandar Udara Kornasoren, Asaryendi, Numfor Tim., Kabupaten Biak Numfor, Papua 98171","Bandar Udara Kornasoren, Asaryendi, Numfor Tim., Kabupaten Biak Numfor",PAPUA,98171.0,Indonesia,,-0.934403,1.348.665.953,https://maps.google.com/?cid=0x0:0xd4ef676c44bcb943
supermarket,Toko Swalayan,Toko SERBA GUNA,"3V8F+748, Asaryendi, Numfor Tim., Kabupaten Biak Numfor, Papua 98171","Asaryendi, Numfor Tim., Kabupaten Biak Numfor",PAPUA,98171.0,Indonesia,,-0.934472,1.348.726.866,https://maps.google.com/?cid=0x0:0x3fdf382babe5c3de
supermarket,supermarket,Toko Horas,"3V7J+W59, Asaryendi, Numfor Tim., Kabupaten Biak Numfor, Papua 98171","Asaryendi, Numfor Tim., Kabupaten Biak Numfor",PAPUA,98171.0,Indonesia,,-0.9351449,1.348.792.275,https://maps.google.com/?cid=0x0:0x88b65ab8991b2a83
supermarket,Pusat Perbelanjaan,JUSMA MART,"Jl. Sriwijaya No.20, Yafdas, Kec. Samofa, Kabupaten Biak Numfor, Papua 98112","Yafdas, Kec. Samofa, Kabupaten Biak Numfor",PAPUA,98112.0,Indonesia,85822948637.0,-11.574.561,136.071.629,https://maps.google.com/?cid=0x0:0xdb6b4facb003d470
supermarket,Toko umum,Toko Dua Bersaudara,"2RH8+M2, Yenmanu, Distrik Numfor Barat, Kabupaten Biak Numfor, Papua","Kabupaten Biak Numfor, Papua",PAPUA,,Indonesia,,-0.970839,1.348.149.041,https://maps.google.com/?cid=0x0:0x1eb08d07cb49aebf
supermarket,Toko Swalayan,Hadi Supermarket  Dept. Store,"Jl. Imam Bonjol No.56, Fandoi, Kec. Biak Kota, Kabupaten Biak Numfor, Papua 98111","Fandoi, Kec. Biak Kota, Kabupaten Biak Numfor",PAPUA,98111.0,Indonesia,,-11.800.003,1.360.824.788,https://maps.google.com/?cid=0x0:0xdcad74b4384219ee
supermarket,supermarket,Papua 98154,"Kabupaten Biak Numfor, Papua","Kabupaten Biak Numfor, Papua",PAPUA,,Indonesia,,-0.9529483,1.358.659.561,https://maps.google.com/?cid=0x0:0x7baacb17c171a3e7
supermarket,Komplek perumahan,Rest Area Wardo,"XR8H+PXR, Kanaan, Distrik Biak Barat, Kabupaten Biak Numfor, Papua 98154","Kanaan, Distrik Biak Barat, Kabupaten Biak Numfor",PAPUA,98154.0,Indonesia,,-10.331.319,1.358.298.798,https://maps.google.com/?cid=0x0:0x37c98df8c0d667ff
supermarket,Kios,Kios Sesyabo,"XRV9+8M8, Sopendo, Distrik Biak Barat, Kabupaten Biak Numfor, Papua 98154","Sopendo, Distrik Biak Barat, Kabupaten Biak Numfor",PAPUA,98154.0,Indonesia,,-1.006.709,135.819.214,https://maps.google.com/?cid=0x0:0xb52c2aca230a0763
supermarket,Kios,KIOS AIRI,"3QMH+XMJ, Yenbepioper, Distrik Swandiwe, Kabupaten Biak Numfor, Papua 98154","Yenbepioper, Distrik Swandiwe, Kabupaten Biak Numfor",PAPUA,98154.0,Indonesia,,-0.91504,1.357.791.489,https://maps.google.com/?cid=0x0:0x4e8a093fb72ccb81
supermarket,Kantor,Komplek kodim Biak barat warder,"WVP8+F94, Yomdori, Distrik Biak Barat, Kabupaten Biak Numfor, Papua 98155","Yomdori, Distrik Biak Barat, Kabupaten Biak Numfor",PAPUA,98155.0,Indonesia,,-10.638.716,1.358.659.561,https://maps.google.com/?cid=0x0:0x9782f0a6b0dd71d9
supermarket,Kios,KIOS ALDO,"4QV7+JH8, Ramdori, Distrik Swandiwe, Kabupaten Biak Numfor, Papua 98154","Ramdori, Distrik Swandiwe, Kabupaten Biak Numfor",PAPUA,98154.0,Indonesia,82199824493.0,-0.8559576,1.357.639.625,https://maps.google.com/?cid=0x0:0x8dde374e2486fab7
supermarket,Toko,Kios asoka,"X2VW+7FX, Unnamed Road, Kobeoser, Distrik Biak Utara, Kabupaten Biak Numfor, Papua 98153","Unnamed Road, Kobeoser, Distrik Biak Utara, Kabupaten Biak Numfor",PAPUA,98153.0,Indonesia,82197558644.0,-10.067.599,1.360.462.248,https://maps.google.com/?cid=0x0:0xafcfc325cbda77f5
supermarket,Pusat Perbelanjaan,JUSMA MART,"Jl. Sriwijaya No.20, Yafdas, Kec. Samofa, Kabupaten Biak Numfor, Papua 98112","Yafdas, Kec. Samofa, Kabupaten Biak Numfor",PAPUA,98112.0,Indonesia,85822948637.0,-11.574.561,136.071.629,https://maps.google.com/?cid=0x0:0xdb6b4facb003d470
supermarket,Toko umum,Toko Tiga C,"32GR+HPQ, Unnamed Road, Andei, Distrik Biak Utara, Kabupaten Biak Numfor, Papua 98153","Unnamed Road, Andei, Distrik Biak Utara, Kabupaten Biak Numfor",PAPUA,98153.0,Indonesia,81240341281.0,-0.9235484,1.360.418.483,https://maps.google.com/?cid=0x0:0x3c399701544220d7
supermarket,Toko,Toko Sinar Lombe,"32WQ+P3H, Unnamed Road, Saukobye, Distrik Biak Utara, Kabupaten Biak Numfor, Papua 98153","Unnamed Road, Saukobye, Distrik Biak Utara, Kabupaten Biak Numfor",PAPUA,98153.0,Indonesia,,-0.9031786,1.360.377.303,https://maps.google.com/?cid=0x0:0x9c99cf64e999e18d
supermarket,Toko,Rani Womsiwor,"Kampung Dedifu, Distrik Biak Barat, Kabupaten Biak Numfor, Papua 98551","Distrik Biak Barat, Kabupaten Biak Numfor",PAPUA,98551.0,Indonesia,,-0.9977267,1.358.059.238,https://maps.google.com/?cid=0x0:0xed3a2a12688dacf
supermarket,Pusat Perbelanjaan,Pasar Inpres Biak Numfor,"Burokub, Kec. Biak Kota, Kabupaten Biak Numfor, Papua 98111","Kec. Biak Kota, Kabupaten Biak Numfor",PAPUA,98111.0,Indonesia,81341418979.0,-11.790.387,1.360.767.221,https://maps.google.com/?cid=0x0:0xeec55fd5f0273f35
supermarket,Toko,Kios Marito,"Jalan agusta dimara No.4, korem, Distrik Biak Utara, Kabupaten Biak Numfor, Papua","Kabupaten Biak Numfor, Papua",PAPUA,,Indonesia,,-0.9050222,1.360.437.531,https://maps.google.com/?cid=0x0:0x902c676cd63290f4
supermarket,Supermarket Diskon,Hadi Mart,"Sorendidori, Kec. Supiori Tim., Kabupaten Supiori, Papua 98161","Kec. Supiori Tim., Kabupaten Supiori",PAPUA,98161.0,Indonesia,,-0.7341066,1.357.372.672,https://maps.google.com/?cid=0x0:0xc8c5179862354ce1
supermarket,supermarket,Papua 98157,"Kabupaten Biak Numfor, Papua","Kabupaten Biak Numfor, Papua",PAPUA,,Indonesia,,-0.8013579,1.358.849.587,https://maps.google.com/?cid=0x0:0xc4bb574f645569e5
supermarket,Toko Swalayan,Swalayan Senyum 5000,"Fandoi, Kec. Biak Kota, Kabupaten Biak Numfor, Papua 98111","Kec. Biak Kota, Kabupaten Biak Numfor",PAPUA,98111.0,Indonesia,,-11.789.891,1.360.835.474,https://maps.google.com/?cid=0x0:0xae749dec19901478
supermarket,Toko,Kios Nurza Indah,"Distrik Warsa, Kabupaten Biak Numfor, Papua 98553",Kabupaten Biak Numfor,PAPUA,98553.0,Indonesia,,-0.7905568,1.359.257.795,https://maps.google.com/?cid=0x0:0x286d53a99227d63e
supermarket,Kios,Kios Nia,"52C3+HW4, Wasori, Distrik Yawosi, Kabupaten Biak Numfor, Papua 98153","Wasori, Distrik Yawosi, Kabupaten Biak Numfor",PAPUA,98153.0,Indonesia,,-0.8286125,1.360.048.281,https://maps.google.com/?cid=0x0:0xde4e224b6dc913ae
supermarket,Pusat Perbelanjaan,JUSMA MART,"Jl. Sriwijaya No.20, Yafdas, Kec. Samofa, Kabupaten Biak Numfor, Papua 98112","Yafdas, Kec. Samofa, Kabupaten Biak Numfor",PAPUA,98112.0,Indonesia,85822948637.0,-11.574.561,136.071.629,https://maps.google.com/?cid=0x0:0xdb6b4facb003d470
supermarket,Pusat Perbelanjaan,Papua Supermarket  Dept. Store,"4869+F77 Bar, Sawagumu, Kec. Sorong Utara, Kota Sorong, Papua Bar. 98416","Sawagumu, Kec. Sorong Utara, Kota Sorong",PAPUA,98416.0,Indonesia,9513160123.0,-0.888831,1.313.181.847,https://maps.google.com/?cid=0x0:0x7b5f0926a74ad213
supermarket,Toko,Toko Sinar Lombe,"32WQ+P3H, Unnamed Road, Saukobye, Distrik Biak Utara, Kabupaten Biak Numfor, Papua 98153","Unnamed Road, Saukobye, Distrik Biak Utara, Kabupaten Biak Numfor",PAPUA,98153.0,Indonesia,,-0.9031786,1.360.377.303,https://maps.google.com/?cid=0x0:0x9c99cf64e999e18d
supermarket,Kantor Pemerintah,Armnu,"4X3X+82F, Unnamed Road, Warbinsi, Distrik Andey, Kabupaten Biak Numfor, Papua 98153","Unnamed Road, Warbinsi, Distrik Andey, Kabupaten Biak Numfor",PAPUA,98153.0,Indonesia,81344244720.0,-0.8966949,1.359.975.586,https://maps.google.com/?cid=0x0:0xd1b71886655fb662
supermarket,Kios,KIOS AIRI,"3QMH+XMJ, Yenbepioper, Distrik Swandiwe, Kabupaten Biak Numfor, Papua 98154","Yenbepioper, Distrik Swandiwe, Kabupaten Biak Numfor",PAPUA,98154.0,Indonesia,,-0.91504,1.357.791.489,https://maps.google.com/?cid=0x0:0x4e8a093fb72ccb81
supermarket,Toko,Kios GITHA Bosnabraidi,"527C+FGH, Bosnabraidi, Distrik Yawosi, Kabupaten Biak Numfor, Papua 98153","Bosnabraidi, Distrik Yawosi, Kabupaten Biak Numfor",PAPUA,98153.0,Indonesia,,-0.8369975,1.360.225.516,https://maps.google.com/?cid=0x0:0xc26a2791e2eedf71
supermarket,Toko,Kios Marito,"Jalan agusta dimara No.4, korem, Distrik Biak Utara, Kabupaten Biak Numfor, Papua","Kabupaten Biak Numfor, Papua",PAPUA,,Indonesia,,-0.9050222,1.360.437.531,https://maps.google.com/?cid=0x0:0x902c676cd63290f4
supermarket,Toko umum,Toko Tiga C,"32GR+HPQ, Unnamed Road, Andei, Distrik Biak Utara, Kabupaten Biak Numfor, Papua 98153","Unnamed Road, Andei, Distrik Biak Utara, Kabupaten Biak Numfor",PAPUA,98153.0,Indonesia,81240341281.0,-0.9235484,1.360.418.483,https://maps.google.com/?cid=0x0:0x3c399701544220d7
supermarket,Kantor Perusahaan,Supermarket GOTA,"4868+2X3, Jl. Sungai Maruni, Sawagumu, Distrik Sorong Timur, Kota Sorong, Papua Bar. 98416","Jl. Sungai Maruni, Sawagumu, Distrik Sorong Timur, Kota Sorong",PAPUA,98416.0,Indonesia,,-0.8900646,1.313.173.945,https://maps.google.com/?cid=0x0:0xe80a2989cd86300
supermarket,Toko,Kios Artha,"32GR+8X2, Mambesak, Distrik Biak Utara, Kabupaten Biak Numfor, Papua 98153","Mambesak, Distrik Biak Utara, Kabupaten Biak Numfor",PAPUA,98153.0,Indonesia,81344010742.0,-0.9242394,1.360.423.839,https://maps.google.com/?cid=0x0:0x8335f052206d8432
supermarket,supermarket,Distrik Padaido,"Kabupaten Biak Numfor, Papua","Kabupaten Biak Numfor, Papua",PAPUA,,Indonesia,,-12.535.987,1.363.759.228,https://maps.google.com/?cid=0x0:0x3fb215253a432cb0
supermarket,Toko Swalayan,Hadi Supermarket  Dept. Store,"Jl. Imam Bonjol No.56, Fandoi, Kec. Biak Kota, Kabupaten Biak Numfor, Papua 98111","Fandoi, Kec. Biak Kota, Kabupaten Biak Numfor",PAPUA,98111.0,Indonesia,,-11.800.003,1.360.824.788,https://maps.google.com/?cid=0x0:0xdcad74b4384219ee
supermarket,Toko bahan makanan,Toko INALDO,"R3Q5+J6Q, Jl. Raya Sorido, Sorido, Kec. Biak Kota, Kabupaten Biak Numfor, Papua 98115","Jl. Raya Sorido, Sorido, Kec. Biak Kota, Kabupaten Biak Numfor",PAPUA,98115.0,Indonesia,,-11.609.167,1.360.581.043,https://maps.google.com/?cid=0x0:0xe442cb73c33b1293
supermarket,Toko bahan makanan,Toko Budi Doyo,"R3RJ+84W, Jl. Sriwijaya, Brambaken, Kec. Samofa, Kabupaten Biak Numfor, Papua 98111","Jl. Sriwijaya, Brambaken, Kec. Samofa, Kabupaten Biak Numfor",PAPUA,98111.0,Indonesia,,-11.591.379,1.360.803.324,https://maps.google.com/?cid=0x0:0x28561d932ddf4bca
supermarket,Toko bahan makanan,Kios Fajar Esa,"Fandoi, Kec. Biak Kota, Kabupaten Biak Numfor, Papua 98111","Kec. Biak Kota, Kabupaten Biak Numfor",PAPUA,98111.0,Indonesia,81343334804.0,-11.855.646,1.360.814.275,https://maps.google.com/?cid=0x0:0x7d67e1704959e0c0
supermarket,Toko,HADI Supermarket  Dept Store,"JFQX+RQC, Jl. Yos Sudarso, Oyehe, Distrik Nabire, Kabupaten Nabire, Papua 98811","Jl. Yos Sudarso, Oyehe, Distrik Nabire, Kabupaten Nabire",PAPUA,98811.0,Indonesia,98421367.0,-3.360.447,1.354.994.055,https://maps.google.com/?cid=0x0:0x60bc70181b8864df
supermarket,Pusat Perbelanjaan,Papua Supermarket  Dept. Store,"4869+F77 Bar, Sawagumu, Kec. Sorong Utara, Kota Sorong, Papua Bar. 98416","Sawagumu, Kec. Sorong Utara, Kota Sorong",PAPUA,98416.0,Indonesia,9513160123.0,-0.888831,1.313.181.847,https://maps.google.com/?cid=0x0:0x7b5f0926a74ad213
supermarket,Toko Roti,Hadi Bakery,"R3CJ+2XQ, Fandoi, Kec. Biak Kota, Kabupaten Biak Numfor, Papua 98111","Fandoi, Kec. Biak Kota, Kabupaten Biak Numfor",PAPUA,98111.0,Indonesia,,-11.799.207,1.360.824.877,https://maps.google.com/?cid=0x0:0x756059b46d816b19
supermarket,Pos Penjaga Pantai,Pasar Bosnik,"R6HG+QWQ, Tim.,, Woniki, Kec. Biak Tim., Kabupaten Biak Numfor, Papua 98152","Tim.,, Woniki, Kec. Biak Tim., Kabupaten Biak Numfor",PAPUA,98152.0,Indonesia,,-11.705.486,1.362.273.467,https://maps.google.com/?cid=0x0:0xd2f65d4e91efbc8e
supermarket,Pasar,Pada sup,"XX6J+Q24, Syabes, Kec. Yendidori, Kabupaten Biak Numfor, Papua","Kabupaten Biak Numfor, Papua",PAPUA,,Indonesia,,-10.381.022,1.359.800.848,https://maps.google.com/?cid=0x0:0xceaf0889e8d5f265
supermarket,Toko Swalayan,Diskon Supermarket,"Jl. Raya Bogor No.20 KM26 No, Susukan, Kec. Ciracas, Kota Jakarta Timur, Daerah Khusus Ibukota Jakarta 13740","Susukan, Kec. Ciracas, Kota Jakarta Timur",PAPUA,13740.0,Indonesia,81282109990.0,-63.290.415,106.865.772,https://maps.google.com/?cid=0x0:0xe881f3fa8ae14640
supermarket,Toko Swalayan,Hadi Supermarket  Dept. Store,"Jl. Imam Bonjol No.56, Fandoi, Kec. Biak Kota, Kabupaten Biak Numfor, Papua 98111","Fandoi, Kec. Biak Kota, Kabupaten Biak Numfor",PAPUA,98111.0,Indonesia,,-11.800.003,1.360.824.788,https://maps.google.com/?cid=0x0:0xdcad74b4384219ee
supermarket,Kedai Kopi,KOFFIE KITONG,"Jl. Imam Bonjol No.56, Fandoi, Kec. Biak Kota, Kabupaten Biak Numfor, Papua 98111","Fandoi, Kec. Biak Kota, Kabupaten Biak Numfor",PAPUA,98111.0,Indonesia,,-11.802.223,1.360.824.899,https://maps.google.com/?cid=0x0:0xc57a1d51c6bd7d53
supermarket,Toko,Hadi Express Airlangga,"R39G+W65, Jl. Erlangga, Waupnor, Kec. Biak Kota, Kabupaten Biak Numfor, Papua 98111","Jl. Erlangga, Waupnor, Kec. Biak Kota, Kabupaten Biak Numfor",PAPUA,98111.0,Indonesia,,-11.802.404,1.360.756.212,https://maps.google.com/?cid=0x0:0xd262eee2223025ae
supermarket,Toko bahan makanan,Toko INALDO,"R3Q5+J6Q, Jl. Raya Sorido, Sorido, Kec. Biak Kota, Kabupaten Biak Numfor, Papua 98115","Jl. Raya Sorido, Sorido, Kec. Biak Kota, Kabupaten Biak Numfor",PAPUA,98115.0,Indonesia,,-11.609.167,1.360.581.043,https://maps.google.com/?cid=0x0:0xe442cb73c33b1293
supermarket,Pusat Perbelanjaan,JUSMA MART,"Jl. Sriwijaya No.20, Yafdas, Kec. Samofa, Kabupaten Biak Numfor, Papua 98112","Yafdas, Kec. Samofa, Kabupaten Biak Numfor",PAPUA,98112.0,Indonesia,85822948637.0,-11.574.561,136.071.629,https://maps.google.com/?cid=0x0:0xdb6b4facb003d470
supermarket,Toko Swalayan,Kios Avatar,"R3FW+35X, Karang Mulia, Kec. Samofa, Kabupaten Biak Numfor, Papua 98111","Karang Mulia, Kec. Samofa, Kabupaten Biak Numfor",PAPUA,98111.0,Indonesia,,-11.772.621,1.360.954.785,https://maps.google.com/?cid=0x0:0xcce64b44eafab40b
supermarket,Toko bahan makanan,TOKO BERKAH JAYA,"Jl. Raya Sorido, Inggiri, Kec. Biak Kota, Kabupaten Biak Numfor, Papua 98115","Inggiri, Kec. Biak Kota, Kabupaten Biak Numfor",PAPUA,98115.0,Indonesia,,-11.521.232,1.360.471.777,https://maps.google.com/?cid=0x0:0x60d38864e7780a6c
supermarket,Toko Swalayan,Swalayan Senyum 5000,"Fandoi, Kec. Biak Kota, Kabupaten Biak Numfor, Papua 98111","Kec. Biak Kota, Kabupaten Biak Numfor",PAPUA,98111.0,Indonesia,,-11.789.891,1.360.835.474,https://maps.google.com/?cid=0x0:0xae749dec19901478
supermarket,Pusat Perbelanjaan,Toko Populaire,"R3CV+HXW, Mandiri, Kec. Biak Kota, Kabupaten Biak Numfor, Papua 98111","Mandiri, Kec. Biak Kota, Kabupaten Biak Numfor",PAPUA,98111.0,Indonesia,,-11.785.231,1.360.949.575,https://maps.google.com/?cid=0x0:0x47ec71bd32e28625
supermarket,Toko bahan makanan,Kios Tiga Putry,"R3M7+4RX, Jl. Sisingamangaraja, Sorido, Kec. Biak Kota, Kabupaten Biak Numfor, Papua 98112","Jl. Sisingamangaraja, Sorido, Kec. Biak Kota, Kabupaten Biak Numfor",PAPUA,98112.0,Indonesia,81344004109.0,-11.671.458,1.360.646.034,https://maps.google.com/?cid=0x0:0xd62423bf4d0d455f
supermarket,Toko bahan makanan,Toko USTA(2),"Jl. Selayar No.78, Saramom, Kec. Biak Kota, Kabupaten Biak Numfor, Papua 98111","Saramom, Kec. Biak Kota, Kabupaten Biak Numfor",PAPUA,98111.0,Indonesia,,-11.799.685,136.074.836,https://maps.google.com/?cid=0x0:0x139009b3bc808149
supermarket,Toko,Toko Surya Jaya,"V387+2MQ, Dafuar, Kec. Samofa, Kabupaten Biak Numfor, Papua 98156","Dafuar, Kec. Samofa, Kabupaten Biak Numfor",PAPUA,98156.0,Indonesia,,-11.349.133,1.360.642.458,https://maps.google.com/?cid=0x0:0xc6cf750d68103c18
supermarket,Pusat Perbelanjaan,J-Mart,"R39G+X3C, Waupnor, Kec. Biak Kota, Kabupaten Biak Numfor, Papua 98111","Waupnor, Kec. Biak Kota, Kabupaten Biak Numfor",PAPUA,98111.0,Indonesia,,-11.800.734,136.075.143,https://maps.google.com/?cid=0x0:0x299df27e3b1aa988
supermarket,Toko Herbal,MS K-LINK LAURENSIA,"Jl. Raya Sorido No.98115, RT.01/RW01, Inggiri, Kec. Biak Kota, Kabupaten Biak Numfor, Papua 98115","RT.01/RW01, Inggiri, Kec. Biak Kota, Kabupaten Biak Numfor",PAPUA,98115.0,Indonesia,85244526895.0,-11.504.763,136.045.153,https://maps.google.com/?cid=0x0:0x8b89715b8b4c97a8
supermarket,Toko Swalayan,IVY SAN,"Karang Mulia, Kec. Samofa, Kabupaten Biak Numfor, Papua 98111","Kec. Samofa, Kabupaten Biak Numfor",PAPUA,98111.0,Indonesia,9818211089.0,-11.783.472,1.360.941.072,https://maps.google.com/?cid=0x0:0x39a765f041b2ba4c
supermarket,supermarket,Papua 98118,"Kabupaten Biak Numfor, Papua","Kabupaten Biak Numfor, Papua",PAPUA,,Indonesia,,-11.449.556,13.610.403,https://maps.google.com/?cid=0x0:0x25e958740e846491
supermarket,Pusat Perbelanjaan,JUSMA MART,"Jl. Sriwijaya No.20, Yafdas, Kec. Samofa, Kabupaten Biak Numfor, Papua 98112","Yafdas, Kec. Samofa, Kabupaten Biak Numfor",PAPUA,98112.0,Indonesia,85822948637.0,-11.574.561,136.071.629,https://maps.google.com/?cid=0x0:0xdb6b4facb003d470
supermarket,Toko Swalayan,Toko HOTMA,"R3JW+9RJ, Samofa, Kec. Samofa, Kabupaten Biak Numfor, Papua 98118","Samofa, Kec. Samofa, Kabupaten Biak Numfor",PAPUA,98118.0,Indonesia,,-11.690.382,1.360.970.181,https://maps.google.com/?cid=0x0:0x723070e1215bd34f
supermarket,Toko,Toko Surya Jaya,"V387+2MQ, Dafuar, Kec. Samofa, Kabupaten Biak Numfor, Papua 98156","Dafuar, Kec. Samofa, Kabupaten Biak Numfor",PAPUA,98156.0,Indonesia,,-11.349.133,1.360.642.458,https://maps.google.com/?cid=0x0:0xc6cf750d68103c18
supermarket,Minimarket,Toko Felix,"R3CV+P2J, Jl. Raya Bosnik, Karang Mulia, Kec. Samofa, Kabupaten Biak Numfor, Papua 98111","Jl. Raya Bosnik, Karang Mulia, Kec. Samofa, Kabupaten Biak Numfor",PAPUA,98111.0,Indonesia,,-11.781.564,1.360.925.251,https://maps.google.com/?cid=0x0:0x6dd23370a5ea8a3c
supermarket,Toko Swalayan,Kios Avatar,"R3FW+35X, Karang Mulia, Kec. Samofa, Kabupaten Biak Numfor, Papua 98111","Karang Mulia, Kec. Samofa, Kabupaten Biak Numfor",PAPUA,98111.0,Indonesia,,-11.772.621,1.360.954.785,https://maps.google.com/?cid=0x0:0xcce64b44eafab40b
supermarket,Toko Swalayan,TOKO MEKAR SARI,"Jalan Intel trikora No.1 no 3, Brambaken, Kec. Samofa, Kabupaten Biak Numfor, Papua 98111","Brambaken, Kec. Samofa, Kabupaten Biak Numfor",PAPUA,98111.0,Indonesia,81354174724.0,-11.638.112,136.090.128,https://maps.google.com/?cid=0x0:0xa024a4b05afcb6fb
supermarket,Toko Swalayan,Toko Karya Sejati,"Sumberker, Kec. Samofa, Kabupaten Biak Numfor, Papua 98118","Kec. Samofa, Kabupaten Biak Numfor",PAPUA,98118.0,Indonesia,81344346579.0,-11.656.998,1.360.978.208,https://maps.google.com/?cid=0x0:0xcbe207713b352083
supermarket,Toko Swalayan,Hadi Supermarket  Dept. Store,"Jl. Imam Bonjol No.56, Fandoi, Kec. Biak Kota, Kabupaten Biak Numfor, Papua 98111","Fandoi, Kec. Biak Kota, Kabupaten Biak Numfor",PAPUA,98111.0,Indonesia,,-11.800.003,1.360.824.788,https://maps.google.com/?cid=0x0:0xdcad74b4384219ee
supermarket,Toko bahan makanan,Toko Artha Graha,"R3JQ+695, Samofa, Kec. Samofa, Kabupaten Biak Numfor, Papua 98111","Samofa, Kec. Samofa, Kabupaten Biak Numfor",PAPUA,98111.0,Indonesia,,-11.694.963,1.360.884.802,https://maps.google.com/?cid=0x0:0xa99a632e5780c18f
supermarket,Agen Sewa Mobil,Toko Mamaica  Taxi Rent,"V366+Q7R, Jalan Darfuar, Sorido, Biak Kota, Dafuar, Kec. Samofa, Kabupaten Biak Numfor, Papua 98156","Jalan Darfuar, Sorido, Biak Kota, Dafuar, Kec. Samofa, Kabupaten Biak Numfor",PAPUA,98156.0,Indonesia,82248307454.0,-11.380.112,1.360.606.277,https://maps.google.com/?cid=0x0:0xa0040a4ccb624bbc
supermarket,Toko umum,Kios Damai,"samping rumah makan Padang, Jl. Sriwijaya No.8, Mandouw, Kec. Samofa, Kabupaten Biak Numfor, Papua 98111","Jl. Sriwijaya No.8, Mandouw, Kec. Samofa, Kabupaten Biak Numfor",PAPUA,98111.0,Indonesia,85241135656.0,-11.617.905,1.360.896.563,https://maps.google.com/?cid=0x0:0x8dfa4c442cbf4315
supermarket,Toko bahan makanan,Kios Tanur,"R3QM+35V Kompleks SKB Ridge II, Jl. S Ciliwung, Brambaken, Kec. Samofa, Kabupaten Biak Numfor, Papua 98118","Jl. S Ciliwung, Brambaken, Kec. Samofa, Kabupaten Biak Numfor",PAPUA,98118.0,Indonesia,,-1.162.252,1.360.829.181,https://maps.google.com/?cid=0x0:0x7c7c5afc9d645ad6
supermarket,supermarket,Papua 98156,"Kabupaten Biak Numfor, Papua","Kabupaten Biak Numfor, Papua",PAPUA,,Indonesia,,-10.808.865,1.360.372.508,https://maps.google.com/?cid=0x0:0x6d8c17ba7e95fe38
supermarket,Pusat Perbelanjaan,JUSMA MART,"Jl. Sriwijaya No.20, Yafdas, Kec. Samofa, Kabupaten Biak Numfor, Papua 98112","Yafdas, Kec. Samofa, Kabupaten Biak Numfor",PAPUA,98112.0,Indonesia,85822948637.0,-11.574.561,136.071.629,https://maps.google.com/?cid=0x0:0xdb6b4facb003d470
supermarket,Toko Swalayan,IVY SAN,"Karang Mulia, Kec. Samofa, Kabupaten Biak Numfor, Papua 98111","Kec. Samofa, Kabupaten Biak Numfor",PAPUA,98111.0,Indonesia,9818211089.0,-11.783.472,1.360.941.072,https://maps.google.com/?cid=0x0:0x39a765f041b2ba4c
supermarket,Toko Swalayan,Toko Grace Sejahtera,"R3PC+FRR, Samofa, Kec. Samofa, Kabupaten Biak Numfor, Papua 98112","Samofa, Kec. Samofa, Kabupaten Biak Numfor",PAPUA,98112.0,Indonesia,,-11.637.613,1.360.720.193,https://maps.google.com/?cid=0x0:0x25f52afb393e132
supermarket,Toko,Toko Surya Jaya,"V387+2MQ, Dafuar, Kec. Samofa, Kabupaten Biak Numfor, Papua 98156","Dafuar, Kec. Samofa, Kabupaten Biak Numfor",PAPUA,98156.0,Indonesia,,-11.349.133,1.360.642.458,https://maps.google.com/?cid=0x0:0xc6cf750d68103c18
supermarket,Toko Swalayan,Hadi Express Samofa,"R3MJ+63F, Jl. Condronegoro No.4, Samofa, Kec. Samofa, Kabupaten Biak Numfor, Papua 98111","Jl. Condronegoro No.4, Samofa, Kec. Samofa, Kabupaten Biak Numfor",PAPUA,98111.0,Indonesia,,-11.670.698,1.360.803.624,https://maps.google.com/?cid=0x0:0xfabd11da3885eb69
supermarket,Toko Swalayan,Hadi Supermarket  Dept. Store,"Jl. Imam Bonjol No.56, Fandoi, Kec. Biak Kota, Kabupaten Biak Numfor, Papua 98111","Fandoi, Kec. Biak Kota, Kabupaten Biak Numfor",PAPUA,98111.0,Indonesia,,-11.800.003,1.360.824.788,https://maps.google.com/?cid=0x0:0xdcad74b4384219ee
supermarket,Toko bahan makanan,Toko Artha Graha,"R3JQ+695, Samofa, Kec. Samofa, Kabupaten Biak Numfor, Papua 98111","Samofa, Kec. Samofa, Kabupaten Biak Numfor",PAPUA,98111.0,Indonesia,,-11.694.963,1.360.884.802,https://maps.google.com/?cid=0x0:0xa99a632e5780c18f
supermarket,Toko Swalayan,TOKO MEKAR SARI,"Jalan Intel trikora No.1 no 3, Brambaken, Kec. Samofa, Kabupaten Biak Numfor, Papua 98111","Brambaken, Kec. Samofa, Kabupaten Biak Numfor",PAPUA,98111.0,Indonesia,81354174724.0,-11.638.112,136.090.128,https://maps.google.com/?cid=0x0:0xa024a4b05afcb6fb
supermarket,Toko umum,Kios Damai,"samping rumah makan Padang, Jl. Sriwijaya No.8, Mandouw, Kec. Samofa, Kabupaten Biak Numfor, Papua 98111","Jl. Sriwijaya No.8, Mandouw, Kec. Samofa, Kabupaten Biak Numfor",PAPUA,98111.0,Indonesia,85241135656.0,-11.617.905,1.360.896.563,https://maps.google.com/?cid=0x0:0x8dfa4c442cbf4315
supermarket,Toko Swalayan,Swalayan Senyum 5000,"Fandoi, Kec. Biak Kota, Kabupaten Biak Numfor, Papua 98111","Kec. Biak Kota, Kabupaten Biak Numfor",PAPUA,98111.0,Indonesia,,-11.789.891,1.360.835.474,https://maps.google.com/?cid=0x0:0xae749dec19901478
supermarket,Minimarket,Toko Felix,"R3CV+P2J, Jl. Raya Bosnik, Karang Mulia, Kec. Samofa, Kabupaten Biak Numfor, Papua 98111","Jl. Raya Bosnik, Karang Mulia, Kec. Samofa, Kabupaten Biak Numfor",PAPUA,98111.0,Indonesia,,-11.781.564,1.360.925.251,https://maps.google.com/?cid=0x0:0x6dd23370a5ea8a3c
supermarket,Toko Swalayan,Mega Food,"Belakang Tokoh jusma, Yafdas, Kec. Samofa, Kabupaten Biak Numfor, Papua 99851","Yafdas, Kec. Samofa, Kabupaten Biak Numfor",PAPUA,99851.0,Indonesia,82199258163.0,-11.574.561,136.071.629,https://maps.google.com/?cid=0x0:0xdb7216ccaeb7e7c
supermarket,Toko bahan makanan,Kios Tanur,"R3QM+35V Kompleks SKB Ridge II, Jl. S Ciliwung, Brambaken, Kec. Samofa, Kabupaten Biak Numfor, Papua 98118","Jl. S Ciliwung, Brambaken, Kec. Samofa, Kabupaten Biak Numfor",PAPUA,98118.0,Indonesia,,-1.162.252,1.360.829.181,https://maps.google.com/?cid=0x0:0x7c7c5afc9d645ad6
supermarket,supermarket,Distrik Yawosi,"Kabupaten Biak Numfor, Papua","Kabupaten Biak Numfor, Papua",PAPUA,,Indonesia,,-0.8350919,1.360.182.645,https://maps.google.com/?cid=0x0:0x7439514076bef34
supermarket,Pusat Perbelanjaan,JUSMA MART,"Jl. Sriwijaya No.20, Yafdas, Kec. Samofa, Kabupaten Biak Numfor, Papua 98112","Yafdas, Kec. Samofa, Kabupaten Biak Numfor",PAPUA,98112.0,Indonesia,85822948637.0,-11.574.561,136.071.629,https://maps.google.com/?cid=0x0:0xdb6b4facb003d470
supermarket,Toko Swalayan,Hadi Supermarket  Dept. Store,"Jl. Imam Bonjol No.56, Fandoi, Kec. Biak Kota, Kabupaten Biak Numfor, Papua 98111","Fandoi, Kec. Biak Kota, Kabupaten Biak Numfor",PAPUA,98111.0,Indonesia,,-11.800.003,1.360.824.788,https://maps.google.com/?cid=0x0:0xdcad74b4384219ee
supermarket,Toko Swalayan,Swalayan Senyum 5000,"Fandoi, Kec. Biak Kota, Kabupaten Biak Numfor, Papua 98111","Kec. Biak Kota, Kabupaten Biak Numfor",PAPUA,98111.0,Indonesia,,-11.789.891,1.360.835.474,https://maps.google.com/?cid=0x0:0xae749dec19901478
supermarket,Minimarket,Toko Felix,"R3CV+P2J, Jl. Raya Bosnik, Karang Mulia, Kec. Samofa, Kabupaten Biak Numfor, Papua 98111","Jl. Raya Bosnik, Karang Mulia, Kec. Samofa, Kabupaten Biak Numfor",PAPUA,98111.0,Indonesia,,-11.781.564,1.360.925.251,https://maps.google.com/?cid=0x0:0x6dd23370a5ea8a3c
supermarket,Toko bahan makanan,Kios DEWI,"R3Q7+C2C, Jl. Raya Sorido, Sorido, Kec. Biak Kota, Kabupaten Biak Numfor, Papua","Kabupaten Biak Numfor, Papua",PAPUA,,Indonesia,,-11.614.438,1.360.625.303,https://maps.google.com/?cid=0x0:0x8adfc539cc28c17f
supermarket,Toko Swalayan,Ayyuni,"R3CP+2F4, Mandala, Kec. Biak Kota, Kabupaten Biak Numfor, Papua 98111","Mandala, Kec. Biak Kota, Kabupaten Biak Numfor",PAPUA,98111.0,Indonesia,81343402682.0,-11.799.927,1.360.861.987,https://maps.google.com/?cid=0x0:0xcabe4b619cb740b3
supermarket,Toko bahan makanan,Toko Budi Doyo,"R3RJ+84W, Jl. Sriwijaya, Brambaken, Kec. Samofa, Kabupaten Biak Numfor, Papua 98111","Jl. Sriwijaya, Brambaken, Kec. Samofa, Kabupaten Biak Numfor",PAPUA,98111.0,Indonesia,,-11.591.379,1.360.803.324,https://maps.google.com/?cid=0x0:0x28561d932ddf4bca
supermarket,Toko bahan makanan,Kios Fajar Esa,"Fandoi, Kec. Biak Kota, Kabupaten Biak Numfor, Papua 98111","Kec. Biak Kota, Kabupaten Biak Numfor",PAPUA,98111.0,Indonesia,81343334804.0,-11.855.646,1.360.814.275,https://maps.google.com/?cid=0x0:0x7d67e1704959e0c0
supermarket,Minimarket,Toko Wauju 1,"R39F+HPX, Waupnor, Kec. Biak Kota, Kabupaten Biak Numfor, Papua 98111","Waupnor, Kec. Biak Kota, Kabupaten Biak Numfor",PAPUA,98111.0,Indonesia,82238873727.0,-11.810.044,1.360.743.513,https://maps.google.com/?cid=0x0:0xb2bb1102a151b0ea
supermarket,Toko bahan makanan,Kios Ablager,"R37Q+9P6 kompleks, Jl. Jend. Ahmad Yani Jl. Yenures, Mandala, Kec. Biak Kota, Kabupaten Biak Numfor, Papua 98111","Jl. Jend. Ahmad Yani Jl. Yenures, Mandala, Kec. Biak Kota, Kabupaten Biak Numfor",PAPUA,98111.0,Indonesia,,-1.186.599,136.089.275,https://maps.google.com/?cid=0x0:0x9546203c2a36b79b
supermarket,Toko bahan makanan,Elshaddai Toko,"Elshaddai Toko, Burokub, Kec. Biak Kota, Kabupaten Biak Numfor, Papua 98111","Burokub, Kec. Biak Kota, Kabupaten Biak Numfor",PAPUA,98111.0,Indonesia,85244099888.0,-11.807.955,1.360.754.756,https://maps.google.com/?cid=0x0:0x2101fa54b64bacf
supermarket,Toko bahan makanan,Kios  Warkop Gloria,"Jl. Sriwijaya, Yafdas, Kec. Samofa, Kabupaten Biak Numfor, Papua 98112","Yafdas, Kec. Samofa, Kabupaten Biak Numfor",PAPUA,98112.0,Indonesia,85292152929.0,-11.579.559,1.360.693.468,https://maps.google.com/?cid=0x0:0x9d584b2fdae61a6c
supermarket,supermarket,Distrik Yawosi,"Kabupaten Biak Numfor, Papua","Kabupaten Biak Numfor, Papua",PAPUA,,Indonesia,,-0.8350919,1.360.182.645,https://maps.google.com/?cid=0x0:0x7439514076bef34
supermarket,Pusat Perbelanjaan,JUSMA MART,"Jl. Sriwijaya No.20, Yafdas, Kec. Samofa, Kabupaten Biak Numfor, Papua 98112","Yafdas, Kec. Samofa, Kabupaten Biak Numfor",PAPUA,98112.0,Indonesia,85822948637.0,-11.574.561,136.071.629,https://maps.google.com/?cid=0x0:0xdb6b4facb003d470
supermarket,Toko Swalayan,IVY SAN,"Karang Mulia, Kec. Samofa, Kabupaten Biak Numfor, Papua 98111","Kec. Samofa, Kabupaten Biak Numfor",PAPUA,98111.0,Indonesia,9818211089.0,-11.783.472,1.360.941.072,https://maps.google.com/?cid=0x0:0x39a765f041b2ba4c
supermarket,Toko Swalayan,Swalayan Senyum 5000,"Fandoi, Kec. Biak Kota, Kabupaten Biak Numfor, Papua 98111","Kec. Biak Kota, Kabupaten Biak Numfor",PAPUA,98111.0,Indonesia,,-11.789.891,1.360.835.474,https://maps.google.com/?cid=0x0:0xae749dec19901478
supermarket,Toko,Toko Surya Jaya,"V387+2MQ, Dafuar, Kec. Samofa, Kabupaten Biak Numfor, Papua 98156","Dafuar, Kec. Samofa, Kabupaten Biak Numfor",PAPUA,98156.0,Indonesia,,-11.349.133,1.360.642.458,https://maps.google.com/?cid=0x0:0xc6cf750d68103c18
supermarket,Minimarket,Toko Felix,"R3CV+P2J, Jl. Raya Bosnik, Karang Mulia, Kec. Samofa, Kabupaten Biak Numfor, Papua 98111","Jl. Raya Bosnik, Karang Mulia, Kec. Samofa, Kabupaten Biak Numfor",PAPUA,98111.0,Indonesia,,-11.781.564,1.360.925.251,https://maps.google.com/?cid=0x0:0x6dd23370a5ea8a3c
supermarket,Toko bahan makanan,Kios DEWI,"R3Q7+C2C, Jl. Raya Sorido, Sorido, Kec. Biak Kota, Kabupaten Biak Numfor, Papua","Kabupaten Biak Numfor, Papua",PAPUA,,Indonesia,,-11.614.438,1.360.625.303,https://maps.google.com/?cid=0x0:0x8adfc539cc28c17f
supermarket,Toko Swalayan,Ayyuni,"R3CP+2F4, Mandala, Kec. Biak Kota, Kabupaten Biak Numfor, Papua 98111","Mandala, Kec. Biak Kota, Kabupaten Biak Numfor",PAPUA,98111.0,Indonesia,81343402682.0,-11.799.927,1.360.861.987,https://maps.google.com/?cid=0x0:0xcabe4b619cb740b3
supermarket,Minimarket,Toko Wauju 1,"R39F+HPX, Waupnor, Kec. Biak Kota, Kabupaten Biak Numfor, Papua 98111","Waupnor, Kec. Biak Kota, Kabupaten Biak Numfor",PAPUA,98111.0,Indonesia,82238873727.0,-11.810.044,1.360.743.513,https://maps.google.com/?cid=0x0:0xb2bb1102a151b0ea
supermarket,Toko bahan makanan,Toko Budi Doyo,"R3RJ+84W, Jl. Sriwijaya, Brambaken, Kec. Samofa, Kabupaten Biak Numfor, Papua 98111","Jl. Sriwijaya, Brambaken, Kec. Samofa, Kabupaten Biak Numfor",PAPUA,98111.0,Indonesia,,-11.591.379,1.360.803.324,https://maps.google.com/?cid=0x0:0x28561d932ddf4bca
supermarket,Toko bahan makanan,Kios Fajar Esa,"Fandoi, Kec. Biak Kota, Kabupaten Biak Numfor, Papua 98111","Kec. Biak Kota, Kabupaten Biak Numfor",PAPUA,98111.0,Indonesia,81343334804.0,-11.855.646,1.360.814.275,https://maps.google.com/?cid=0x0:0x7d67e1704959e0c0
supermarket,Toko bahan makanan,Kios Ablager,"R37Q+9P6 kompleks, Jl. Jend. Ahmad Yani Jl. Yenures, Mandala, Kec. Biak Kota, Kabupaten Biak Numfor, Papua 98111","Jl. Jend. Ahmad Yani Jl. Yenures, Mandala, Kec. Biak Kota, Kabupaten Biak Numfor",PAPUA,98111.0,Indonesia,,-1.186.599,136.089.275,https://maps.google.com/?cid=0x0:0x9546203c2a36b79b
supermarket,Toko bahan makanan,Elshaddai Toko,"Elshaddai Toko, Burokub, Kec. Biak Kota, Kabupaten Biak Numfor, Papua 98111","Burokub, Kec. Biak Kota, Kabupaten Biak Numfor",PAPUA,98111.0,Indonesia,85244099888.0,-11.807.955,1.360.754.756,https://maps.google.com/?cid=0x0:0x2101fa54b64bacf
supermarket,Toko bahan makanan,Kios  Warkop Gloria,"Jl. Sriwijaya, Yafdas, Kec. Samofa, Kabupaten Biak Numfor, Papua 98112","Yafdas, Kec. Samofa, Kabupaten Biak Numfor",PAPUA,98112.0,Indonesia,85292152929.0,-11.579.559,1.360.693.468,https://maps.google.com/?cid=0x0:0x9d584b2fdae61a6c
supermarket,Kios,Kios wahyu,"32VQ+H8F, Saukobye, Distrik Biak Utara, Kabupaten Biak Numfor, Papua 98153","Saukobye, Distrik Biak Utara, Kabupaten Biak Numfor",PAPUA,98153.0,Indonesia,,-0.9061078,1.360.383.037,https://maps.google.com/?cid=0x0:0xb947b3408eef9054
supermarket,Toko,Toko Sinar Lombe,"32WQ+P3H, Unnamed Road, Saukobye, Distrik Biak Utara, Kabupaten Biak Numfor, Papua 98153","Unnamed Road, Saukobye, Distrik Biak Utara, Kabupaten Biak Numfor",PAPUA,98153.0,Indonesia,,-0.9031786,1.360.377.303,https://maps.google.com/?cid=0x0:0x9c99cf64e999e18d
supermarket,supermarket,Andei,"Distrik Biak Utara, Kabupaten Biak Numfor, Papua","Kabupaten Biak Numfor, Papua",PAPUA,,Indonesia,,-0.917489,1.360.324.844,https://maps.google.com/?cid=0x0:0x538a33a79fdea1d5
supermarket,Minimarket,Toko Fasana Jaya,"32HR+88R, Jl. Pantura, Andei, Biak Utara, Biak Numfor Regency, Papua 98153","Jl. Pantura, Andei, Biak Utara, Biak Numfor Regency",PAPUA,98153.0,Indonesia,,-0.9216351,1.360.407.769,https://maps.google.com/?cid=0x0:0xf3978a647712ae17
supermarket,Toko umum,Toko sumardas,"Andei, Distrik Biak Utara, Kabupaten Biak Numfor, Papua 98153","Distrik Biak Utara, Kabupaten Biak Numfor",PAPUA,98153.0,Indonesia,,-0.9234835,1.360.422.085,https://maps.google.com/?cid=0x0:0xd2424c36805574a6
supermarket,Kios,Kios dewi Rumbin,"32CW+M58, Andei, Distrik Biak Utara, Kabupaten Biak Numfor, Papua 98153","Andei, Distrik Biak Utara, Kabupaten Biak Numfor",PAPUA,98153.0,Indonesia,,-0.928334,1.360.454.455,https://maps.google.com/?cid=0x0:0xf96ffb42108907e8
supermarket,Toko Swalayan,Hadi Supermarket  Dept. Store,"Jl. Imam Bonjol No.56, Fandoi, Kec. Biak Kota, Kabupaten Biak Numfor, Papua 98111","Fandoi, Kec. Biak Kota, Kabupaten Biak Numfor",PAPUA,98111.0,Indonesia,,-11.800.003,1.360.824.788,https://maps.google.com/?cid=0x0:0xdcad74b4384219ee
supermarket,Toko Alat Tulis Kantor,Diana Fotocopy  ATK,"32GR+JV4, Andei, Distrik Biak Utara, Kabupaten Biak Numfor, Papua 98153","Andei, Distrik Biak Utara, Kabupaten Biak Numfor",PAPUA,98153.0,Indonesia,82146669695.0,-0.9234164,1.360.421.847,https://maps.google.com/?cid=0x0:0x438f02913e48eea8
supermarket,Toko Swalayan,Ayyuni,"R3CP+2F4, Mandala, Kec. Biak Kota, Kabupaten Biak Numfor, Papua 98111","Mandala, Kec. Biak Kota, Kabupaten Biak Numfor",PAPUA,98111.0,Indonesia,81343402682.0,-11.799.927,1.360.861.987,https://maps.google.com/?cid=0x0:0xcabe4b619cb740b3
supermarket,Dapur Umum,Rumah Produksi Olahan Pangan Lokal Kelompok Wanita Tani Mansurbabo,"Andei, Distrik Biak Utara, Kabupaten Biak Numfor, Papua","Kabupaten Biak Numfor, Papua",PAPUA,,Indonesia,81235807692.0,-0.917489,1.360.324.844,https://maps.google.com/?cid=0x0:0x4def1e338285b3a
supermarket,Toko Swalayan,Ayyuni,"R3CP+2F4, Mandala, Kec. Biak Kota, Kabupaten Biak Numfor, Papua 98111","Mandala, Kec. Biak Kota, Kabupaten Biak Numfor",PAPUA,98111.0,Indonesia,81343402682.0,-11.799.927,1.360.861.987,https://maps.google.com/?cid=0x0:0xcabe4b619cb740b3
supermarket,Minimarket,Kios Merah Anday,"Anday, Distrik Manokwari, Kabupaten Manokwari, Papua Bar. 98315","Distrik Manokwari, Kabupaten Manokwari",PAPUA,98315.0,Indonesia,85218713512.0,-0.9324459,1.340.114.189,https://maps.google.com/?cid=0x0:0xce53730c2173a74c
supermarket,supermarket,Papua 98157,"Kabupaten Biak Numfor, Papua","Kabupaten Biak Numfor, Papua",PAPUA,,Indonesia,,-0.8013579,1.358.849.587,https://maps.google.com/?cid=0x0:0xc4bb574f645569e5
supermarket,Toko bahan makanan,KIOS ANDINI 57,"CPP7+JRF, Hamadi, Distrik Jayapura Selatan, Kota Jayapura, Papua","Kota Jayapura, Papua",PAPUA,,Indonesia,,-25.634.327,1.407.145.412,https://maps.google.com/?cid=0x0:0x8891c26228a7f694
supermarket,Toko Ponsel,Toko D'Bilal,"Jln. Frans kaisepo, Enarotali, Paniai Tim., Kabupaten Paniai, Papua","Kabupaten Paniai, Papua",PAPUA,,Indonesia,,-39.286.444,1.363.777.767,https://maps.google.com/?cid=0x0:0x816a7cdfbb6a9144
supermarket,Pusat Perbelanjaan,Papua Supermarket  Dept. Store,"4869+F77 Bar, Sawagumu, Kec. Sorong Utara, Kota Sorong, Papua Bar. 98416","Sawagumu, Kec. Sorong Utara, Kota Sorong",PAPUA,98416.0,Indonesia,9513160123.0,-0.888831,1.313.181.847,https://maps.google.com/?cid=0x0:0x7b5f0926a74ad213
supermarket,Pusat jajanan kaki lima,Papuanmart,"Furia polda, Jl. Perkutut Jalur 4 No.164, Wahno, Kec. Abepura, Kota Jayapura, Papua 99224","Jl. Perkutut Jalur 4 No.164, Wahno, Kec. Abepura, Kota Jayapura",PAPUA,99224.0,Indonesia,,-25.936.297,1.406.745.825,https://maps.google.com/?cid=0x0:0x820b246032d165c5
supermarket,Kios,Kios Desy,"C64J+25M, Karya Bumi, Nimboran Tim. / Namblong, Kabupaten Jayapura, Papua 99361","Karya Bumi, Nimboran Tim. / Namblong, Kabupaten Jayapura",PAPUA,99361.0,Indonesia,85244112030.0,-25.949.132,1.402.304.065,https://maps.google.com/?cid=0x0:0x63e4e8cb2703995b
supermarket,Toko umum,Queen Mart. Jlr.3 Sobey Indah,"FF2H+JG6, Jlr III, Sobei Indah, Duairi, Kabupaten Teluk Wondama, Papua Bar. 98362","Jlr III, Sobei Indah, Duairi, Kabupaten Teluk Wondama",PAPUA,98362.0,Indonesia,81247066679.0,-25.484.551,1.344.787.512,https://maps.google.com/?cid=0x0:0xe112554714af9143
supermarket,Pusat Perbelanjaan,ICE MART,"Jl yowanibi polres, Doyo Baru, Distrik Waibu, Kabupaten Jayapura, Papua 99368","Doyo Baru, Distrik Waibu, Kabupaten Jayapura",PAPUA,99368.0,Indonesia,82236765310.0,-25.466.705,1.404.580.376,https://maps.google.com/?cid=0x0:0xee2b858b5102c5eb
supermarket,Toko bahan makanan,Toko Winda,"Q8R7+54, Yenbekaki, Distrik Waigeo Timur, Kabupaten Raja Ampat, Papua Bar.","Kabupaten Raja Ampat, Papua Bar.",PAPUA,,Indonesia,,-0.2095622,1.313.128.223,https://maps.google.com/?cid=0x0:0x9c2e8737cbb9be30
supermarket,Toko bahan makanan,Kayendi,"5J5F+2PP, Jl.Sorndiweri korido, RT.001/RW.001, Maryaidori, Kec. Supiori Sel., Kabupaten Supiori, Papua 98161","Jl.Sorndiweri korido, RT.001/RW.001, Maryaidori, Kec. Supiori Sel., Kabupaten Supiori",PAPUA,98161.0,Indonesia,,-0.8424154,1.356.243.333,https://maps.google.com/?cid=0x0:0xc17036f5dccb52db
supermarket,Toko umum,Toko Tiga C,"32GR+HPQ, Unnamed Road, Andei, Distrik Biak Utara, Kabupaten Biak Numfor, Papua 98153","Unnamed Road, Andei, Distrik Biak Utara, Kabupaten Biak Numfor",PAPUA,98153.0,Indonesia,81240341281.0,-0.9235484,1.360.418.483,https://maps.google.com/?cid=0x0:0x3c399701544220d7
supermarket,Kios,Andin Kios,"Unnamed Road, Papua Bar. 98414, Malawili, Kec. Aimas, Kabupaten Sorong, Papua Bar. 98414",Papua Bar.,PAPUA,98414.0,Indonesia,,-0.9591695,1.313.332.674,https://maps.google.com/?cid=0x0:0x8adc85b3e887bef7
supermarket,supermarket,Papua 98154,"Kabupaten Biak Numfor, Papua","Kabupaten Biak Numfor, Papua",PAPUA,,Indonesia,,-0.9529483,1.358.659.561,https://maps.google.com/?cid=0x0:0x7baacb17c171a3e7
supermarket,Toko Swalayan,Hadi Supermarket  Dept. Store,"Jl. Imam Bonjol No.56, Fandoi, Kec. Biak Kota, Kabupaten Biak Numfor, Papua 98111","Fandoi, Kec. Biak Kota, Kabupaten Biak Numfor",PAPUA,98111.0,Indonesia,,-11.800.003,1.360.824.788,https://maps.google.com/?cid=0x0:0xdcad74b4384219ee
supermarket,Komplek perumahan,Rest Area Wardo,"XR8H+PXR, Kanaan, Distrik Biak Barat, Kabupaten Biak Numfor, Papua 98154","Kanaan, Distrik Biak Barat, Kabupaten Biak Numfor",PAPUA,98154.0,Indonesia,,-10.331.319,1.358.298.798,https://maps.google.com/?cid=0x0:0x37c98df8c0d667ff
supermarket,Toko,Kios asoka,"X2VW+7FX, Unnamed Road, Kobeoser, Distrik Biak Utara, Kabupaten Biak Numfor, Papua 98153","Unnamed Road, Kobeoser, Distrik Biak Utara, Kabupaten Biak Numfor",PAPUA,98153.0,Indonesia,82197558644.0,-10.067.599,1.360.462.248,https://maps.google.com/?cid=0x0:0xafcfc325cbda77f5
supermarket,Pusat Perbelanjaan,Sumartsely Mongan,"7Q52+4GQ, Waryesi, Kec. Supiori Tim., Kabupaten Supiori, Papua 98161","Waryesi, Kec. Supiori Tim., Kabupaten Supiori",PAPUA,98161.0,Indonesia,81240500515.0,-0.7421565,1.357.513.441,https://maps.google.com/?cid=0x0:0xda9f91c23f08a39e
supermarket,Toko Roti,JJ Twins ( Grocery - bakery - laundry) suport by zaen,"Jl, Sorendidori, Kec. Supiori Tim., Kabupaten Supiori, Papua 98161","Sorendidori, Kec. Supiori Tim., Kabupaten Supiori",PAPUA,98161.0,Indonesia,82257456954.0,-0.7342278,1.357.381.756,https://maps.google.com/?cid=0x0:0x69434e551c19e66c
supermarket,Toko,Toko Sinar Lombe,"32WQ+P3H, Unnamed Road, Saukobye, Distrik Biak Utara, Kabupaten Biak Numfor, Papua 98153","Unnamed Road, Saukobye, Distrik Biak Utara, Kabupaten Biak Numfor",PAPUA,98153.0,Indonesia,,-0.9031786,1.360.377.303,https://maps.google.com/?cid=0x0:0x9c99cf64e999e18d
supermarket,Toko bahan makanan,Toko Budi Doyo,"R3RJ+84W, Jl. Sriwijaya, Brambaken, Kec. Samofa, Kabupaten Biak Numfor, Papua 98111","Jl. Sriwijaya, Brambaken, Kec. Samofa, Kabupaten Biak Numfor",PAPUA,98111.0,Indonesia,,-11.591.379,1.360.803.324,https://maps.google.com/?cid=0x0:0x28561d932ddf4bca
supermarket,Toko bahan makanan,KEN MART,"Sorendidori, Kec. Supiori Tim., Kabupaten Supiori, Papua 98161","Kec. Supiori Tim., Kabupaten Supiori",PAPUA,98161.0,Indonesia,,-0.7345967,1.357.383.702,https://maps.google.com/?cid=0x0:0xb7a29f8e1d6be18d
supermarket,Toko bahan makanan,Toko Wakre Indah,"5MXR+8GM, Marsram, Kec. Supiori Tim., Kabupaten Supiori, Papua 98161","Marsram, Kec. Supiori Tim., Kabupaten Supiori",PAPUA,98161.0,Indonesia,,-0.8016505,1.356.912.918,https://maps.google.com/?cid=0x0:0xdcd806852af7a8da
supermarket,Pusat Perbelanjaan,Papua Supermarket  Dept. Store,"4869+F77 Bar, Sawagumu, Kec. Sorong Utara, Kota Sorong, Papua Bar. 98416","Sawagumu, Kec. Sorong Utara, Kota Sorong",PAPUA,98416.0,Indonesia,9513160123.0,-0.888831,1.313.181.847,https://maps.google.com/?cid=0x0:0x7b5f0926a74ad213
supermarket,Toko,HADI Supermarket  Dept Store,"JFQX+RQC, Jl. Yos Sudarso, Oyehe, Distrik Nabire, Kabupaten Nabire, Papua 98811","Jl. Yos Sudarso, Oyehe, Distrik Nabire, Kabupaten Nabire",PAPUA,98811.0,Indonesia,98421367.0,-3.360.447,1.354.994.055,https://maps.google.com/?cid=0x0:0x60bc70181b8864df
supermarket,Minimarket,H-Mart Supiori,"Jl. Sorendiweri Raya, Sorendidori, Kec. Supiori Tim., Kabupaten Supiori, Papua 98161","Sorendidori, Kec. Supiori Tim., Kabupaten Supiori",PAPUA,98161.0,Indonesia,81247077475.0,-0.734098,1.357.372.755,https://maps.google.com/?cid=0x0:0x319ecad4e16ae91b
supermarket,Perumahan rakyat,Ricky oliver tambunan,"Unnamed Road, Marsram, Kec. Supiori Tim., Kabupaten Supiori, Papua 98161","Marsram, Kec. Supiori Tim., Kabupaten Supiori",PAPUA,98161.0,Indonesia,81219962249.0,-0.7532948,1.357.264.575,https://maps.google.com/?cid=0x0:0x4e9bb3033ba8a378
supermarket,supermarket,Papua 98171,Papua,Papua,PAPUA,,Indonesia,,-3.160.225,1.346.630.541,https://maps.google.com/?cid=0x0:0xcf85a6c0ad6b9347
supermarket,Toko Swalayan,Hadi Supermarket  Dept. Store,"Jl. Imam Bonjol No.56, Fandoi, Kec. Biak Kota, Kabupaten Biak Numfor, Papua 98111","Fandoi, Kec. Biak Kota, Kabupaten Biak Numfor",PAPUA,98111.0,Indonesia,,-11.800.003,1.360.824.788,https://maps.google.com/?cid=0x0:0xdcad74b4384219ee
supermarket,Toko Swalayan,TOKO MEKAR SARI,"Jalan Intel trikora No.1 no 3, Brambaken, Kec. Samofa, Kabupaten Biak Numfor, Papua 98111","Brambaken, Kec. Samofa, Kabupaten Biak Numfor",PAPUA,98111.0,Indonesia,81354174724.0,-11.638.112,136.090.128,https://maps.google.com/?cid=0x0:0xa024a4b05afcb6fb
supermarket,Toko Swalayan,Rejeki Toko,"Jl. Imam Bonjol No.17, Fandoi, Kec. Biak Kota, Kabupaten Biak Numfor, Papua 98111","Fandoi, Kec. Biak Kota, Kabupaten Biak Numfor",PAPUA,98111.0,Indonesia,98121802.0,-11.826.891,1.360.820.049,https://maps.google.com/?cid=0x0:0x7271c36193e85e83
supermarket,Toko bahan makanan,K Mart,"Jl. Imam Bonjol No.5, Fandoi, Kec. Biak Kota, Kabupaten Biak Numfor, Papua 98111","Fandoi, Kec. Biak Kota, Kabupaten Biak Numfor",PAPUA,98111.0,Indonesia,81344919525.0,-11.836.947,1.360.819.066,https://maps.google.com/?cid=0x0:0xbb7ea430c4bdad88
supermarket,Minimarket,Toko Wauju 1,"R39F+HPX, Waupnor, Kec. Biak Kota, Kabupaten Biak Numfor, Papua 98111","Waupnor, Kec. Biak Kota, Kabupaten Biak Numfor",PAPUA,98111.0,Indonesia,82238873727.0,-11.810.044,1.360.743.513,https://maps.google.com/?cid=0x0:0xb2bb1102a151b0ea
supermarket,Toko bahan makanan,Toko INALDO,"R3Q5+J6Q, Jl. Raya Sorido, Sorido, Kec. Biak Kota, Kabupaten Biak Numfor, Papua 98115","Jl. Raya Sorido, Sorido, Kec. Biak Kota, Kabupaten Biak Numfor",PAPUA,98115.0,Indonesia,,-11.609.167,1.360.581.043,https://maps.google.com/?cid=0x0:0xe442cb73c33b1293
supermarket,supermarket,Kios Binsyowi,"V25H+MPG, Jl. Raya Sorido, Yendidori, Kec. Yendidori, Kabupaten Biak Numfor, Papua 98116","Jl. Raya Sorido, Yendidori, Kec. Yendidori, Kabupaten Biak Numfor",PAPUA,98116.0,Indonesia,,-11.408.022,136.029.343,https://maps.google.com/?cid=0x0:0xd3f733a96b5bbd7d
supermarket,supermarket,Distrik Bruyadori,"Kabupaten Biak Numfor, Papua","Kabupaten Biak Numfor, Papua",PAPUA,,Indonesia,,-1.060.152,1.349.720.204,https://maps.google.com/?cid=0x0:0x3f8b765f19376a63
supermarket,Toko umum,Toko USAHA BARU,"3V88+6JQ FOO, Bandar Udara Kornasoren, Asaryendi, Numfor Tim., Kabupaten Biak Numfor, Papua 98171","Bandar Udara Kornasoren, Asaryendi, Numfor Tim., Kabupaten Biak Numfor",PAPUA,98171.0,Indonesia,,-0.934403,1.348.665.953,https://maps.google.com/?cid=0x0:0xd4ef676c44bcb943
supermarket,Toko Swalayan,Toko SERBA GUNA,"3V8F+748, Asaryendi, Numfor Tim., Kabupaten Biak Numfor, Papua 98171","Asaryendi, Numfor Tim., Kabupaten Biak Numfor",PAPUA,98171.0,Indonesia,,-0.934472,1.348.726.866,https://maps.google.com/?cid=0x0:0x3fdf382babe5c3de
supermarket,supermarket,Papua 98172,"Kabupaten Biak Numfor, Papua","Kabupaten Biak Numfor, Papua",PAPUA,,Indonesia,,-10.910.129,1.349.066.503,https://maps.google.com/?cid=0x0:0x961f86bb7868e68d
supermarket,Toko Swalayan,Hadi Supermarket  Dept. Store,"Jl. Imam Bonjol No.56, Fandoi, Kec. Biak Kota, Kabupaten Biak Numfor, Papua 98111","Fandoi, Kec. Biak Kota, Kabupaten Biak Numfor",PAPUA,98111.0,Indonesia,,-11.800.003,1.360.824.788,https://maps.google.com/?cid=0x0:0xdcad74b4384219ee
supermarket,Toko umum,Toko Dua Bersaudara,"2RH8+M2, Yenmanu, Distrik Numfor Barat, Kabupaten Biak Numfor, Papua","Kabupaten Biak Numfor, Papua",PAPUA,,Indonesia,,-0.970839,1.348.149.041,https://maps.google.com/?cid=0x0:0x1eb08d07cb49aebf
supermarket,Tujuan Wisata,Kampung namber,"WRFP+WJJ, Namber, Distrik Numfor Barat, Kabupaten Biak Numfor, Papua","Kabupaten Biak Numfor, Papua",PAPUA,,Indonesia,,-10.751.681,1.348.365.136,https://maps.google.com/?cid=0x0:0x505e82db142a7e13
supermarket,supermarket,KIOS DDI (QasimWilda),"YENBURWO, Numfor Tim., Kabupaten Biak Numfor, Papua 98171","Numfor Tim., Kabupaten Biak Numfor",PAPUA,98171.0,Indonesia,82398502133.0,-0.9348086,1.348.729.086,https://maps.google.com/?cid=0x0:0xb031d86828f123fa
supermarket,Toko Swalayan,TOKO MEKAR SARI,"Jalan Intel trikora No.1 no 3, Brambaken, Kec. Samofa, Kabupaten Biak Numfor, Papua 98111","Brambaken, Kec. Samofa, Kabupaten Biak Numfor",PAPUA,98111.0,Indonesia,81354174724.0,-11.638.112,136.090.128,https://maps.google.com/?cid=0x0:0xa024a4b05afcb6fb
supermarket,Toko bahan makanan,Kios Ablager,"R37Q+9P6 kompleks, Jl. Jend. Ahmad Yani Jl. Yenures, Mandala, Kec. Biak Kota, Kabupaten Biak Numfor, Papua 98111","Jl. Jend. Ahmad Yani Jl. Yenures, Mandala, Kec. Biak Kota, Kabupaten Biak Numfor",PAPUA,98111.0,Indonesia,,-1.186.599,136.089.275,https://maps.google.com/?cid=0x0:0x9546203c2a36b79b
supermarket,Toko bahan makanan,K Mart,"Jl. Imam Bonjol No.5, Fandoi, Kec. Biak Kota, Kabupaten Biak Numfor, Papua 98111","Fandoi, Kec. Biak Kota, Kabupaten Biak Numfor",PAPUA,98111.0,Indonesia,,-11.836.947,1.360.819.066,https://maps.google.com/?cid=0x0:0xbb7ea430c4bdad88
supermarket,Toko bahan makanan,Kios DEWI,"R3Q7+C2C, Jl. Raya Sorido, Sorido, Kec. Biak Kota, Kabupaten Biak Numfor, Papua","Kabupaten Biak Numfor, Papua",PAPUA,,Indonesia,,-11.614.438,1.360.625.303,https://maps.google.com/?cid=0x0:0x8adfc539cc28c17f
supermarket,supermarket,Toko Horas,"3V7J+W59, Asaryendi, Numfor Tim., Kabupaten Biak Numfor, Papua 98171","Asaryendi, Numfor Tim., Kabupaten Biak Numfor",PAPUA,98171.0,Indonesia,,-0.9351449,1.348.792.275,https://maps.google.com/?cid=0x0:0x88b65ab8991b2a83
supermarket,Toko Swalayan,Toko SERBA GUNA,"3V8F+748, Asaryendi, Numfor Tim., Kabupaten Biak Numfor, Papua 98171","Asaryendi, Numfor Tim., Kabupaten Biak Numfor",PAPUA,98171.0,Indonesia,,-0.934472,1.348.726.866,https://maps.google.com/?cid=0x0:0x3fdf382babe5c3de
supermarket,Toko umum,Toko USAHA BARU,"3V88+6JQ FOO, Bandar Udara Kornasoren, Asaryendi, Numfor Tim., Kabupaten Biak Numfor, Papua 98171","Bandar Udara Kornasoren, Asaryendi, Numfor Tim., Kabupaten Biak Numfor",PAPUA,98171.0,Indonesia,,-0.934403,1.348.665.953,https://maps.google.com/?cid=0x0:0xd4ef676c44bcb943
supermarket,supermarket,Distrik Poiru,"Kabupaten Biak Numfor, Papua","Kabupaten Biak Numfor, Papua",PAPUA,,Indonesia,,-0.9700197,1.349.424.126,https://maps.google.com/?cid=0x0:0xaa1a5134d7f11a74
supermarket,supermarket,Distrik Aimando Padaido,"Kabupaten Biak Numfor, Papua","Kabupaten Biak Numfor, Papua",PAPUA,,Indonesia,,-12.143.849,1.365.981.595,https://maps.google.com/?cid=0x0:0x7b5c29938f349564
supermarket,Toko Swalayan,Hadi Supermarket  Dept. Store,"Jl. Imam Bonjol No.56, Fandoi, Kec. Biak Kota, Kabupaten Biak Numfor, Papua 98111","Fandoi, Kec. Biak Kota, Kabupaten Biak Numfor",PAPUA,98111.0,Indonesia,,-11.800.003,1.360.824.788,https://maps.google.com/?cid=0x0:0xdcad74b4384219ee
supermarket,Toko bahan makanan,Toko INALDO,"R3Q5+J6Q, Jl. Raya Sorido, Sorido, Kec. Biak Kota, Kabupaten Biak Numfor, Papua 98115","Jl. Raya Sorido, Sorido, Kec. Biak Kota, Kabupaten Biak Numfor",PAPUA,98115.0,Indonesia,,-11.609.167,1.360.581.043,https://maps.google.com/?cid=0x0:0xe442cb73c33b1293
supermarket,supermarket,Distrik Oridek,"Kabupaten Biak Numfor, Papua","Kabupaten Biak Numfor, Papua",PAPUA,,Indonesia,,-1.146.118,1.362.744.853,https://maps.google.com/?cid=0x0:0x33a1275478c34e
supermarket,Toko Swalayan,Swalayan Senyum 5000,"Fandoi, Kec. Biak Kota, Kabupaten Biak Numfor, Papua 98111","Kec. Biak Kota, Kabupaten Biak Numfor",PAPUA,98111.0,Indonesia,,-11.789.891,1.360.835.474,https://maps.google.com/?cid=0x0:0xae749dec19901478
supermarket,Pos Penjaga Pantai,Pasar Bosnik,"R6HG+QWQ, Tim.,, Woniki, Kec. Biak Tim., Kabupaten Biak Numfor, Papua 98152","Tim.,, Woniki, Kec. Biak Tim., Kabupaten Biak Numfor",PAPUA,98152.0,Indonesia,,-11.705.486,1.362.273.467,https://maps.google.com/?cid=0x0:0xd2f65d4e91efbc8e
supermarket,Toko Swalayan,Hadi Supermarket  Dept. Store,"Jl. Imam Bonjol No.56, Fandoi, Kec. Biak Kota, Kabupaten Biak Numfor, Papua 98111","Fandoi, Kec. Biak Kota, Kabupaten Biak Numfor",PAPUA,98111.0,Indonesia,,-11.800.003,1.360.824.788,https://maps.google.com/?cid=0x0:0xdcad74b4384219ee
supermarket,Toko bahan makanan,Toko Budi Doyo,"R3RJ+84W, Jl. Sriwijaya, Brambaken, Kec. Samofa, Kabupaten Biak Numfor, Papua 98111","Jl. Sriwijaya, Brambaken, Kec. Samofa, Kabupaten Biak Numfor",PAPUA,98111.0,Indonesia,,-11.591.379,1.360.803.324,https://maps.google.com/?cid=0x0:0x28561d932ddf4bca
supermarket,Toko Swalayan,Rejeki Toko,"Jl. Imam Bonjol No.17, Fandoi, Kec. Biak Kota, Kabupaten Biak Numfor, Papua 98111","Fandoi, Kec. Biak Kota, Kabupaten Biak Numfor",PAPUA,98111.0,Indonesia,98121802.0,-11.826.891,1.360.820.049,https://maps.google.com/?cid=0x0:0x7271c36193e85e83
supermarket,Toko Swalayan,TOKO MEKAR SARI,"Jalan Intel trikora No.1 no 3, Brambaken, Kec. Samofa, Kabupaten Biak Numfor, Papua 98111","Brambaken, Kec. Samofa, Kabupaten Biak Numfor",PAPUA,98111.0,Indonesia,81354174724.0,-11.638.112,136.090.128,https://maps.google.com/?cid=0x0:0xa024a4b05afcb6fb
supermarket,Pasar,Kios Riski pasar bosnik,"R6HH+V3C, Woniki, Kec. Biak Tim., Kabupaten Biak Numfor, Papua 98152","Woniki, Kec. Biak Tim., Kabupaten Biak Numfor",PAPUA,98152.0,Indonesia,,-11.703.153,136.227.806,https://maps.google.com/?cid=0x0:0x82500b16975d5550
supermarket,Toko bahan makanan,Toko INALDO,"R3Q5+J6Q, Jl. Raya Sorido, Sorido, Kec. Biak Kota, Kabupaten Biak Numfor, Papua 98115","Jl. Raya Sorido, Sorido, Kec. Biak Kota, Kabupaten Biak Numfor",PAPUA,98115.0,Indonesia,,-11.609.167,1.360.581.043,https://maps.google.com/?cid=0x0:0xe442cb73c33b1293
supermarket,Toko bahan makanan,Kios Ablager,"R37Q+9P6 kompleks, Jl. Jend. Ahmad Yani Jl. Yenures, Mandala, Kec. Biak Kota, Kabupaten Biak Numfor, Papua 98111","Jl. Jend. Ahmad Yani Jl. Yenures, Mandala, Kec. Biak Kota, Kabupaten Biak Numfor",PAPUA,98111.0,Indonesia,,-1.186.599,136.089.275,https://maps.google.com/?cid=0x0:0x9546203c2a36b79b
supermarket,Toko bahan makanan,K Mart,"Jl. Imam Bonjol No.5, Fandoi, Kec. Biak Kota, Kabupaten Biak Numfor, Papua 98111","Fandoi, Kec. Biak Kota, Kabupaten Biak Numfor",PAPUA,98111.0,Indonesia,81344919525.0,-11.836.947,1.360.819.066,https://maps.google.com/?cid=0x0:0xbb7ea430c4bdad88
supermarket,Pusat Perbelanjaan,Papua Supermarket  Dept. Store,"4869+F77 Bar, Sawagumu, Kec. Sorong Utara, Kota Sorong, Papua Bar. 98416","Sawagumu, Kec. Sorong Utara, Kota Sorong",PAPUA,98416.0,Indonesia,9513160123.0,-0.888831,1.313.181.847,https://maps.google.com/?cid=0x0:0x7b5f0926a74ad213
supermarket,Toko Roti,Hadi Bakery,"R3CJ+2XQ, Fandoi, Kec. Biak Kota, Kabupaten Biak Numfor, Papua 98111","Fandoi, Kec. Biak Kota, Kabupaten Biak Numfor",PAPUA,98111.0,Indonesia,,-11.799.207,1.360.824.877,https://maps.google.com/?cid=0x0:0x756059b46d816b19
supermarket,Toko umum,Toko USAHA BARU,"3V88+6JQ FOO, Bandar Udara Kornasoren, Asaryendi, Numfor Tim., Kabupaten Biak Numfor, Papua 98171","Bandar Udara Kornasoren, Asaryendi, Numfor Tim., Kabupaten Biak Numfor",PAPUA,98171.0,Indonesia,,-0.934403,1.348.665.953,https://maps.google.com/?cid=0x0:0xd4ef676c44bcb943
supermarket,supermarket,Bondifuar,"Sansundi, Kabupaten Biak Numfor, Papua","Kabupaten Biak Numfor, Papua",PAPUA,,Indonesia,,-0.690129,1.358.185.211,https://maps.google.com/?cid=0x0:0x425bf86d4ccf74c7
supermarket,Toko Swalayan,Hadi Supermarket  Dept. Store,"Jl. Imam Bonjol No.56, Fandoi, Kec. Biak Kota, Kabupaten Biak Numfor, Papua 98111","Fandoi, Kec. Biak Kota, Kabupaten Biak Numfor",PAPUA,98111.0,Indonesia,,-11.800.003,1.360.824.788,https://maps.google.com/?cid=0x0:0xdcad74b4384219ee
supermarket,supermarket,Kios Binsyowi,"V25H+MPG, Jl. Raya Sorido, Yendidori, Kec. Yendidori, Kabupaten Biak Numfor, Papua 98116","Jl. Raya Sorido, Yendidori, Kec. Yendidori, Kabupaten Biak Numfor",PAPUA,98116.0,Indonesia,,-11.408.022,136.029.343,https://maps.google.com/?cid=0x0:0xd3f733a96b5bbd7d
supermarket,Toko,HADI Supermarket  Dept Store,"JFQX+RQC, Jl. Yos Sudarso, Oyehe, Distrik Nabire, Kabupaten Nabire, Papua 98811","Jl. Yos Sudarso, Oyehe, Distrik Nabire, Kabupaten Nabire",PAPUA,98811.0,Indonesia,98421367.0,-3.360.447,1.354.994.055,https://maps.google.com/?cid=0x0:0x60bc70181b8864df
supermarket,Toko umum,Toko USAHA BARU,"3V88+6JQ FOO, Bandar Udara Kornasoren, Asaryendi, Numfor Tim., Kabupaten Biak Numfor, Papua 98171","Bandar Udara Kornasoren, Asaryendi, Numfor Tim., Kabupaten Biak Numfor",PAPUA,98171.0,Indonesia,,-0.934403,1.348.665.953,https://maps.google.com/?cid=0x0:0xd4ef676c44bcb943
supermarket,Pusat Perbelanjaan,Papua Supermarket  Dept. Store,"4869+F77 Bar, Sawagumu, Kec. Sorong Utara, Kota Sorong, Papua Bar. 98416","Sawagumu, Kec. Sorong Utara, Kota Sorong",PAPUA,98416.0,Indonesia,9513160123.0,-0.888831,1.313.181.847,https://maps.google.com/?cid=0x0:0x7b5f0926a74ad213
supermarket,Minimarket,H-Mart Supiori,"Jl. Sorendiweri Raya, Sorendidori, Kec. Supiori Tim., Kabupaten Supiori, Papua 98161","Sorendidori, Kec. Supiori Tim., Kabupaten Supiori",PAPUA,98161.0,Indonesia,81247077475.0,-0.734098,1.357.372.755,https://maps.google.com/?cid=0x0:0x319ecad4e16ae91b
